##########################################################
# Query made at 04/19/2024 22:56:09 UTC
# Time interval: from 05/01/2006 12:00  to 05/31/2006 12:59  UTC
##########################################################

##########################################################
# KATL, Atlanta, Hartsfield - Jackson Atlanta International Airport (United States)
# WMO index: 72219. WIGOS ID: 0-20000-0-72219
# Latitude 33-38-59N. Longitude 084-25-00W. Altitude 312 m.
##########################################################

200605311252 METAR KATL 311252Z 00000KT 7SM FEW250 24/15 A3014 RMK AO2 SLP196 T02390150=
200605311152 METAR KATL 311152Z 14004KT 6SM HZ FEW250 22/15 A3012 RMK AO2 SLP190 T02220150 10256 20217 53013=
200605311052 METAR KATL 311052Z 14004KT 6SM HZ FEW250 22/16 A3011 RMK AO2 SLP184 T02170156=
200605310952 METAR KATL 310952Z 13005KT 7SM FEW140 SCT250 22/16 A3009 RMK AO2 SLP177 T02220161 $=
200605310852 METAR KATL 310852Z 08006KT 6SM HZ FEW250 22/17 A3008 RMK AO2 SLP175 T02170167 53001 $=
200605310752 METAR KATL 310752Z 07004KT 7SM FEW140 SCT250 24/17 A3008 RMK AO2 SLP173 T02390167 $=
200605310652 METAR KATL 310652Z 06006KT 7SM FEW140 SCT250 26/16 A3008 RMK AO2 SLP173 T02560161 $=
200605310552 METAR KATL 310552Z 08005KT 7SM FEW250 25/16 A3008 RMK AO2 SLP174 T02500161 10306 20244 51002 $=
200605310452 METAR KATL 310452Z 08006KT 8SM FEW250 26/16 A3008 RMK AO2 SLP173 T02560161 403390217 $=
200605310352 METAR KATL 310352Z 08004KT 8SM FEW250 27/16 A3008 RMK AO2 SLP175 T02670156 $=
200605310252 METAR KATL 310252Z 09005KT 9SM BKN250 28/16 A3008 RMK AO2 SLP172 T02780156 53011 $=
200605310152 METAR KATL 310152Z 09005KT 9SM SCT250 28/16 A3005 RMK AO2 SLP164 T02830156 $=
200605310052 METAR KATL 310052Z 09006KT 8SM SCT200 BKN250 29/15 A3004 RMK AO2 SLP163 T02890150=
200605302352 METAR KATL 302352Z 08010KT 9SM FEW075 BKN200 31/13 A3004 RMK AO2 SLP162 MDT CU SW AND W T03060133 10339 20306 55000=
200605302252 METAR KATL 302252Z 07007KT 9SM FEW080 SCT200 BKN250 32/13 A3003 RMK AO2 SLP157 T03220128=
200605302152 METAR KATL 302152Z 05008KT 9SM FEW080 SCT200 BKN250 33/12 A3003 RMK AO2 SLP158 T03280122=
200605302052 METAR KATL 302052Z 09010G16KT 10SM FEW085 SCT200 BKN250 33/12 A3004 RMK AO2 SLP161 T03330122 58023=
200605301952 METAR KATL 301952Z 02011KT 10SM FEW095 SCT250 34/10 A3007 RMK AO2 SLP170 T03390100=
200605301852 METAR KATL 301852Z VRB05KT 10SM FEW085 SCT250 33/10 A3009 RMK AO2 SLP177 T03280100=
200605301752 METAR KATL 301752Z 05007KT 020V080 9SM FEW070 32/14 A3011 RMK AO2 SLP184 T03220139 10322 20233 58012=
200605301652 METAR KATL 301652Z 16007KT 9SM FEW065 SCT080 31/12 A3013 RMK AO2 SLP190 T03110122=
200605301552 METAR KATL 301552Z 08005KT 9SM FEW080 SCT250 31/14 A3014 RMK AO2 SLP195 T03060144=
200605301452 METAR KATL 301452Z 08005KT 8SM FEW080 SCT250 29/15 A3015 RMK AO2 SLP196 T02940150 50005=
200605301352 METAR KATL 301352Z 08003KT 7SM CLR 27/16 A3015 RMK AO2 SLP197 T02720161=
200605301252 METAR KATL 301252Z 09005KT 6SM HZ FEW250 25/17 A3014 RMK AO2 SLP196 T02500167=
200605301152 METAR KATL 301152Z 09005KT 7SM FEW150 SCT250 23/17 A3013 RMK AO2 SLP191 T02330167 10256 20217 53012=
200605301052 METAR KATL 301052Z 07005KT 7SM FEW150 SCT250 22/17 A3011 RMK AO2 SLP186 T02220167=
200605300952 METAR KATL 300952Z 07003KT 8SM FEW100 23/16 A3009 RMK AO2 SLP178 T02330161=
200605300852 METAR KATL 300852Z 08004KT 8SM CLR 23/17 A3009 RMK AO2 SLP178 T02330167 55003=
200605300752 METAR KATL 300752Z 08004KT 8SM CLR 24/17 A3009 RMK AO2 SLP177 T02390172=
200605300652 METAR KATL 300652Z 07004KT 8SM CLR 25/17 A3010 RMK AO2 SLP180 T02500172=
200605300552 METAR KATL 300552Z 09003KT 9SM FEW250 25/17 A3010 RMK AO2 SLP180 T02500172 10300 20250 58004=
200605300452 METAR KATL 300452Z 09003KT 10SM FEW250 27/17 A3011 RMK AO2 SLP183 T02670167 403280200=
200605300352 METAR KATL 300352Z 00000KT 10SM FEW250 27/16 A3012 RMK AO2 SLP186 T02720161=
200605300252 METAR KATL 300252Z 08005KT 10SM FEW250 27/17 A3011 RMK AO2 SLP185 T02720167 53013=
200605300152 METAR KATL 300152Z 08007KT 10SM FEW250 27/17 A3009 RMK AO2 SLP180 T02720167=
200605300052 METAR KATL 300052Z 09006KT 10SM FEW250 28/16 A3008 RMK AO2 SLP175 T02830161=
200605292352 METAR KATL 292352Z 09007KT 10SM SCT250 29/16 A3007 RMK AO2 SLP173 T02940156 10328 20294 55007=
200605292252 METAR KATL 292252Z 09009KT 10SM FEW070 31/15 A3006 RMK AO2 SLP170 T03110150=
200605292152 METAR KATL 292152Z 08004KT 10SM FEW070 32/15 A3008 RMK AO2 SLP176 MDT CU VC NW T03170150=
200605292052 METAR KATL 292052Z 11007KT 9SM SCT070 BKN250 32/14 A3009 RMK AO2 SLP180 T03170144 56022=
200605291952 METAR KATL 291952Z VRB04KT 8SM SCT075 BKN250 32/15 A3012 RMK AO2 SLP188 T03170150=
200605291852 METAR KATL 291852Z 03008KT 8SM SCT065 BKN085 BKN250 32/15 A3013 RMK AO2 SLP194 T03170150=
200605291752 METAR KATL 291752Z 09005KT 8SM SCT060 BKN100 BKN250 31/16 A3016 RMK AO2 SLP202 T03110156 10311 20217 58011=
200605291652 METAR KATL 291652Z VRB04KT 8SM SCT055 BKN110 BKN250 30/16 A3018 RMK AO2 SLP209 T03000161=
200605291552 METAR KATL 291552Z VRB05KT 7SM FEW040 SCT110 BKN250 29/19 A3019 RMK AO2 SLP212 T02890189=
200605291452 METAR KATL 291452Z 00000KT 7SM BKN250 27/19 A3020 RMK AO2 SLP214 T02720194 51013=
200605291352 METAR KATL 291352Z VRB03KT 7SM BKN250 25/19 A3019 RMK AO2 SLP211 T02500189=
200605291252 METAR KATL 291252Z 09003KT 6SM HZ SCT250 23/18 A3018 RMK AO2 SLP209 T02280183=
200605291152 METAR KATL 291152Z 08005KT 8SM BKN250 22/18 A3016 RMK AO2 SLP201 T02170178 10244 20200 53022=
200605291052 METAR KATL 291052Z 08006KT 8SM BKN250 20/17 A3013 RMK AO2 SLP192 T02000167=
200605290952 METAR KATL 290952Z 07007KT 8SM BKN250 21/17 A3010 RMK AO2 SLP182 T02110167=
200605290852 METAR KATL 290852Z 07007KT 9SM FEW250 22/17 A3009 RMK AO2 SLP178 T02220167 56009=
200605290752 METAR KATL 290752Z 07006KT 9SM CLR 23/16 A3009 RMK AO2 SLP177 T02280161=
200605290652 METAR KATL 290652Z 08006KT 9SM SCT250 23/16 A3011 RMK AO2 SLP185 T02280161=
200605290552 METAR KATL 290552Z 08006KT 10SM SCT250 24/16 A3012 RMK AO2 SLP187 T02390161 10300 20239 58002=
200605290452 METAR KATL 290452Z 08006KT 10SM BKN250 24/16 A3012 RMK AO2 SLP189 T02440161 403220211=
200605290352 METAR KATL 290352Z 09004KT 10SM SCT250 26/16 A3012 RMK AO2 SLP189 T02560161=
200605290252 METAR KATL 290252Z 09004KT 10SM SCT250 27/16 A3012 RMK AO2 SLP190 T02720156 53018=
200605290152 METAR KATL 290152Z 09005KT 10SM FEW250 28/16 A3010 RMK AO2 SLP181 T02780161=
200605290052 METAR KATL 290052Z 09007KT 8SM FEW250 28/16 A3008 RMK AO2 SLP175 T02830161=
200605282352 METAR KATL 282352Z 07008KT 9SM FEW065 30/16 A3007 RMK AO2 SLP172 T03000156 10322 20300=
200605282252 METAR KATL 282252Z 09008KT 10SM FEW065 31/16 A3006 RMK AO2 SLP169 T03110161 $=
200605282231 SPECI KATL 282231Z 03010KT 10SM FEW065 32/16 A3005 RMK AO2 $=
200605282231 SPECI KATL 282231Z 03010KT 10SM FEW065 32/16 A3005 RMK AO2 $=
200605282152 METAR KATL 282152Z 07008KT 10SM FEW065 32/16 A3006 RMK AO2 SLP168 T03170161=
200605282052 METAR KATL 282052Z 08009KT 9SM BKN065TCU 31/16 A3008 RMK AO2 SLP174 TCU OHD TCU VC W-NW TCU DSNT SE AND SW T03060161 56012=
200605281952 METAR KATL 281952Z 10007KT 9SM BKN060 32/17 A3008 RMK AO2 SLP176 TCU DSNT SE T03220167=
200605281852 METAR KATL 281852Z 08008KT 040V110 9SM BKN060 32/17 A3010 RMK AO2 SLP182 MDT CU ALQDS T03170167=
200605281752 METAR KATL 281752Z 04008KT 9SM SCT060 SCT100 31/16 A3011 RMK AO2 SLP186 T03110161 10311 20239 58007=
200605281652 METAR KATL 281652Z 07007KT 9SM FEW100 29/17 A3012 RMK AO2 SLP189 T02940172=
200605281552 METAR KATL 281552Z 07010KT 8SM FEW100 29/18 A3013 RMK AO2 SLP194 T02890178=
200605281452 METAR KATL 281452Z 06006KT 8SM CLR 27/18 A3013 RMK AO2 SLP193 T02720183 51011=
200605281352 METAR KATL 281352Z 07008KT 8SM CLR 26/18 A3013 RMK AO2 SLP192 T02610183=
200605281252 METAR KATL 281252Z 06010KT 9SM CLR 24/18 A3011 RMK AO2 SLP185 T02440178=
200605281152 METAR KATL 281152Z 02007KT 10SM CLR 24/17 A3010 RMK AO2 SLP182 70042 T02390172 10239 20211 53021=
200605281052 METAR KATL 281052Z 36007KT 10SM FEW250 23/18 A3007 RMK AO2 SLP172 T02280178=
200605280952 METAR KATL 280952Z 35005KT 10SM FEW250 22/17 A3005 RMK AO2 SLP164 T02220172=
200605280852 METAR KATL 280852Z 32003KT 10SM BKN200 22/18 A3004 RMK AO2 SLP160 T02170178 53005=
200605280752 METAR KATL 280752Z 30005KT 10SM CLR 22/18 A3002 RMK AO2 SLP156 T02220178=
200605280652 METAR KATL 280652Z 32004KT 10SM CLR 23/18 A3002 RMK AO2 SLP153 T02280183=
200605280552 METAR KATL 280552Z COR 26003KT 10SM CLR 23/18 A3002 RMK AO2 SLP155 T02330183 10294 20233 51005 60042=
200605280452 METAR KATL 280452Z 31007KT 10SM CLR 24/18 A3002 RMK AO2 SLP153 T02390183 403170222=
200605280352 METAR KATL 280352Z 30008KT 10SM FEW250 25/19 A3001 RMK AO2 SLP152 T02500189 $=
200605280252 METAR KATL 280252Z 30008KT 10SM CLR 26/20 A3001 RMK AO2 SLP150 60042 T02560200 53014 $=
200605280152 METAR KATL 280152Z 27005KT 10SM FEW070 26/20 A2999 RMK AO2 SLP143 T02610200 $=
200605280052 METAR KATL 280052Z 22003KT 10SM SCT055 SCT250 27/18 A2997 RMK AO2 PK WND 03030/2357 WSHFT 2354 SLP137 TSB2357E31RAE20 CB DSNT NW TS MOV SE AND S P0042 T02720183 $=
200605280036 SPECI KATL 280036Z 19005KT 10SM FEW031 SCT050 SCT080 27/17 A2997 RMK AO2 PK WND 03030/2357 WSHFT 2354 TSB2357E31RAE20 CB DSNT SE AND S TS MOV SE AND S P0042 $=
200605280036 SPECI KATL 280036Z 19005KT 10SM FEW031 SCT050 SCT080 27/17 A2997 RMK AO2 PK WND 03030/2357 WSHFT 2354 TSB2357E31RAE20 CB DSNT SE AND S TS MOV SE AND S P0042 $=
200605280011 SPECI KATL 280011Z 10012G23KT 3SM +TSRA FEW038CB BKN050 BKN110 26/18 A2997 RMK AO2 PK WND 03030/2357 WSHFT 2354 TSB2357 OCNL LTGIC TS OHD-SE MOV SE VIS S 1 1/2 P0001 $=
200605280011 SPECI KATL 280011Z 10012G23KT 3SM +TSRA FEW038CB BKN050 BKN110 26/18 A2997 RMK AO2 PK WND 03030/2357 WSHFT 2354 TSB2357 OCNL LTGIC TS OHD-SE MOV SE VIS S 1 1/2 P0001 $=
200605272357 SPECI KATL 272357Z 02023G30KT 3SM -TSRA FEW038CB BKN050 BKN110 28/20 A2998 RMK AO2 PK WND 03030/2357 TSB57 PRESRR OCNL LTGIC TS OHD-SE MOV SE P0000=
200605272357 SPECI KATL 272357Z 02023G30KT 3SM -TSRA FEW038CB BKN050 BKN110 28/20 A2998 RMK AO2 PK WND 03030/2357 TSB57 PRESRR OCNL LTGIC TS OHD-SE MOV SE P0000=
200605272352 METAR KATL 272352Z 29006KT 10SM -RA FEW038CB SCT050 BKN070 29/18 A2997 RMK AO2 RAB25 SLP136 CB W-OHD-SE VIS NW 2 1/2 P0000 60000 T02940183 10317 20294 53007=
200605272252 METAR KATL 272252Z 28011KT 10SM FEW050TCU 30/18 A2994 RMK AO2 SLP127 TCU N-NE T03000183=
200605272152 METAR KATL 272152Z 28008KT 9SM FEW050 32/19 A2994 RMK AO2 SLP127 T03170189 $=
200605272052 METAR KATL 272052Z 30008KT 10SM BKN055TCU BKN100 31/18 A2994 RMK AO2 SLP129 TCU OHD-ALQDS T03110178 58014=
200605271952 METAR KATL 271952Z 28009KT 10SM BKN049TCU 31/18 A2996 RMK AO2 SLP133 TCU OHD-ALQDS T03110183=
200605271852 METAR KATL 271852Z 26009KT 10SM BKN047TCU 31/19 A2998 RMK AO2 SLP139 TCU OHD-ALQDS T03110189=
200605271752 METAR KATL 271752Z 32010G18KT 10SM BKN045TCU 31/19 A2999 RMK AO2 SLP142 TCU OHD-ALQDS T03110194 10311 20228 58002=
200605271652 METAR KATL 271652Z 28009KT 10SM SCT041TCU BKN049 30/20 A3000 RMK AO2 SLP146 TCU OHD-ALQDS T03000200=
200605271552 METAR KATL 271552Z 28013KT 10SM BKN045 BKN100 BKN250 29/19 A3000 RMK AO2 SLP146 MDT CU ALQDS T02940189=
200605271452 METAR KATL 271452Z 30012KT 10SM FEW030 BKN250 28/20 A2999 RMK AO2 SLP146 T02780200 51013=
200605271352 METAR KATL 271352Z 28011KT 10SM BKN250 26/20 A2999 RMK AO2 SLP145 T02610200=
200605271252 METAR KATL 271252Z 25007KT 10SM BKN250 24/19 A2997 RMK AO2 SLP138 T02440189=
200605271152 METAR KATL 271152Z 26004KT 10SM SCT250 23/19 A2995 RMK AO2 SLP133 T02280189 10244 20222 53017=
200605271052 METAR KATL 271052Z 25008KT 10SM BKN259 22/18 A2993 RMK AO2 SLP124 T02220183=
200605270952 METAR KATL 270952Z 26008KT 10SM FEW250 23/18 A2991 RMK AO2 SLP118 T02280183=
200605270852 METAR KATL 270852Z 26009KT 10SM FEW200 23/18 A2990 RMK AO2 SLP115 T02330183 55008=
200605270752 METAR KATL 270752Z 26010KT 10SM SCT200 24/18 A2990 RMK AO2 SLP112 T02390183=
200605270652 METAR KATL 270652Z 26010KT 10SM FEW200 24/19 A2991 RMK AO2 SLP117 T02390189=
200605270552 METAR KATL 270552Z 25010KT 10SM FEW200 24/19 A2993 RMK AO2 SLP123 T02440189 10283 20239 52010=
200605270452 METAR KATL 270452Z 23008KT 10SM FEW200 25/19 A2992 RMK AO2 SLP119 T02500189 403110217=
200605270352 METAR KATL 270352Z 24008KT 10SM FEW250 26/19 A2991 RMK AO2 SLP116 T02560189=
200605270252 METAR KATL 270252Z 24008KT 10SM FEW250 26/19 A2990 RMK AO2 SLP112 T02610189 53014=
200605270152 METAR KATL 270152Z 23005KT 10SM FEW200 SCT250 27/18 A2987 RMK AO2 SLP103 T02670178=
200605270052 METAR KATL 270052Z 24008KT 10SM FEW150 BKN200 BKN250 28/18 A2985 RMK AO2 SLP099 T02780178=
200605262352 METAR KATL 262352Z 25008KT 10SM SCT150 BKN200 BKN250 28/17 A2985 RMK AO2 SLP099 VIRGA NE T02830172 10311 20283 56005=
200605262252 METAR KATL 262252Z 27010KT 10SM FEW060 BKN200 29/17 A2986 RMK AO2 SLP102 T02890172=
200605262152 METAR KATL 262152Z 26012KT 10SM FEW060 SCT200 31/17 A2986 RMK AO2 SLP098 CB DSNT NE TCU DSNT N AND S-SW T03060172=
200605262052 METAR KATL 262052Z 24014G19KT 10SM FEW060 SCT200 31/16 A2987 RMK AO2 SLP104 CB DSNT NE T03110161 58012=
200605261952 METAR KATL 261952Z 25011KT 210V290 10SM SCT055TCU BKN070 BKN150 30/17 A2989 RMK AO2 SLP109 TCU VC N AND DSNT SW-W MDT CU ALQDS T03000167=
200605261852 METAR KATL 261852Z 23013KT 10SM BKN050 31/17 A2990 RMK AO2 SLP113 MDT CU ALQDS T03060167=
200605261752 METAR KATL 261752Z 25015G19KT 10SM SCT044 SCT150 SCT250 30/18 A2991 RMK AO2 SLP116 T03000178 10306 20217 58008=
200605261652 METAR KATL 261652Z 26011G18KT 220V290 10SM FEW040 SCT150 SCT200 BKN250 29/18 A2992 RMK AO2 SLP121 T02890183=
200605261552 METAR KATL 261552Z 27010KT 10SM FEW035 SCT150 BKN200 BKN250 27/19 A2994 RMK AO2 SLP126 T02720189=
200605261452 METAR KATL 261452Z 27013KT 10SM FEW030 SCT150 SCT200 BKN250 27/19 A2993 RMK AO2 SLP125 T02720194 55001=
200605261352 METAR KATL 261352Z 24010KT 9SM FEW120 SCT150 SCT200 BKN250 25/19 A2993 RMK AO2 SLP124 T02500189=
200605261252 METAR KATL 261252Z 24008KT 8SM FEW140 BKN200 BKN250 23/19 A2992 RMK AO2 SLP122 T02330189=
200605261152 METAR KATL 261152Z 24009KT 6SM BR SCT140 BKN250 22/19 A2993 RMK AO2 SLP126 60010 70010 T02170194 10239 20217 50010=
200605261052 METAR KATL 261052Z 25008KT 6SM BR FEW250 22/19 A2994 RMK AO2 SLP127 T02170194=
200605260952 METAR KATL 260952Z 22007KT 7SM CLR 22/19 A2990 RMK AO2 SLP116 T02170189=
200605260852 METAR KATL 260852Z 24009KT 8SM CLR 22/19 A2990 RMK AO2 SLP114 60010 T02220189 58003=
200605260752 METAR KATL 260752Z 24007KT 7SM FEW250 23/19 A2990 RMK AO2 SLP115 T02280189=
200605260652 METAR KATL 260652Z 23008KT 7SM FEW110 SCT250 23/19 A2991 RMK AO2 TSB0559E37RAB02E19 SLP118 TS MOV NE CONS LTG DSNT NE CB DSNT NE P0010 T02280194=
200605260639 SPECI KATL 260639Z 23007KT 7SM FEW110 SCT250 23/19 A2991 RMK AO2 TSB0559E37RAB02E19 TS MOV NE CONS LTG DSNT NE CB DSNT NE P0010=
200605260639 SPECI KATL 260639Z 23007KT 7SM FEW110 SCT250 23/19 A2991 RMK AO2 TSB0559E37RAB02E19 TS MOV NE CONS LTG DSNT NE CB DSNT NE P0010=
200605260613 SPECI KATL 260613Z 23007KT 5SM -TSRA FEW028 BKN048CB OVC110 23/19 A2991 RMK AO2 TSB0559RAB02 FRQ LTGCGIC TS OHD-E MOV E P0010=
200605260613 SPECI KATL 260613Z 23007KT 5SM -TSRA FEW028 BKN048CB OVC110 23/19 A2991 RMK AO2 TSB0559RAB02 FRQ LTGCGIC TS OHD-E MOV E P0010=
200605260605 SPECI KATL 260605Z 23005KT 1 1/2SM +TSRA FEW020 BKN045CB OVC085 23/18 A2993 RMK AO2 TSB0559RAB02 FRQ LTGCGIC TS OHD-W MOV E P0005=
200605260605 SPECI KATL 260605Z 23005KT 1 1/2SM +TSRA FEW020 BKN045CB OVC085 23/18 A2993 RMK AO2 TSB0559RAB02 FRQ LTGCGIC TS OHD-W MOV E P0005=
200605260600 SPECI KATL 260600Z 23008KT 9SM TS BKN050CB BKN090 24/18 A2991 RMK AO2 TSB0559 OCNL LTGCG TS OHD-W MOV E=
200605260600 SPECI KATL 260600Z 23008KT 9SM TS BKN050CB BKN090 24/18 A2991 RMK AO2 TSB0559 OCNL LTGCG TS OHD-W MOV E=
200605260552 METAR KATL 260552Z 22005KT 9SM SCT050 BKN090 24/17 A2991 RMK AO2 SLP117 T02390172 10294 20239 50002=
200605260452 METAR KATL 260452Z 21006KT 10SM FEW055 25/17 A2991 RMK AO2 SLP117 T02500172 403220189=
200605260352 METAR KATL 260352Z 24006KT 10SM CLR 26/17 A2991 RMK AO2 SLP117 T02560167=
200605260252 METAR KATL 260252Z 22004KT 10SM CLR 26/17 A2990 RMK AO2 SLP115 T02560172 53001=
200605260152 METAR KATL 260152Z 00000KT 9SM FEW200 25/17 A2989 RMK AO2 SLP110 T02500172=
200605260052 METAR KATL 260052Z 13004KT 9SM FEW060 25/17 A2989 RMK AO2 SLP113 T02500172=
200605252352 METAR KATL 252352Z 24006KT 8SM FEW060 SCT200 29/17 A2990 RMK AO2 SLP115 CB DSNT E-SE 60000 T02890167 10322 20278 56003=
200605252252 METAR KATL 252252Z 27009KT 10SM FEW055TCU SCT090 SCT200 30/17 A2990 RMK AO2 TSB15E51RAE07 SLP115 TS MOV E TCU S-SW CB DSNT N-E P0000 T03000167=
200605252216 SPECI KATL 252216Z 27008KT 8SM TS FEW055CB SCT070 BKN100 BKN200 29/18 A2990 RMK AO2 TSB15RAE07 OCNL LTGCG TS VC E-SE MOV E VCSH E-SE P0000=
200605252216 SPECI KATL 252216Z 27008KT 8SM TS FEW055CB SCT070 BKN100 BKN200 29/18 A2990 RMK AO2 TSB15RAE07 OCNL LTGCG TS VC E-SE MOV E VCSH E-SE P0000=
200605252215 SPECI KATL 252215Z 26008KT 8SM TS FEW055CB SCT070 BKN100 BKN200 29/18 A2990 RMK AO2 TSB15RAE07 OCNL LTGCG TS VC E-SE MOV E VCSH E-SE P0000=
200605252215 SPECI KATL 252215Z 26008KT 8SM TS FEW055CB SCT070 BKN100 BKN200 29/18 A2990 RMK AO2 TSB15RAE07 OCNL LTGCG TS VC E-SE MOV E VCSH E-SE P0000=
200605252152 METAR KATL 252152Z 25006KT 7SM -RA SCT060TCU BKN075 BKN100 BKN150 29/17 A2990 RMK AO2 RAB47 SLP116 TCU OHD-ALQDS CB DSNT N-NE P0000 T02890172=
200605252052 METAR KATL 252052Z 24012KT 9SM FEW065TCU SCT200 31/15 A2991 RMK AO2 SLP117 CB DSNT N-NE TCU NE AND NW-N T03110150 56025=
200605251952 METAR KATL 251952Z 26008KT 230V290 10SM FEW070 SCT200 SCT250 32/15 A2994 RMK AO2 SLP126 CB DSNT NW-N T03170150=
200605251852 METAR KATL 251852Z 21008G16KT 10SM FEW060 SCT200 32/15 A2996 RMK AO2 SLP135 CB DSNT N-NE T03170150=
200605251752 METAR KATL 251752Z VRB06G15KT 10SM FEW060 SCT200 31/16 A2999 RMK AO2 SLP144 CB DSNT NW-N T03060156 10311 20217 58010=
200605251652 METAR KATL 251652Z 25010G17KT 10SM FEW050 30/17 A3001 RMK AO2 SLP150 T03000167=
200605251552 METAR KATL 251552Z 26008KT 10SM FEW050 SCT200 29/16 A3001 RMK AO2 SLP151 T02940161=
200605251452 METAR KATL 251452Z 27009KT 9SM FEW200 28/17 A3002 RMK AO2 SLP155 T02830167 50004=
200605251352 METAR KATL 251352Z 22006KT 9SM FEW200 26/16 A3003 RMK AO2 SLP157 T02610161=
200605251252 METAR KATL 251252Z 23006KT 8SM CLR 23/16 A3002 RMK AO2 SLP155 T02330156=
200605251152 METAR KATL 251152Z 22006KT 8SM CLR 21/14 A3001 RMK AO2 SLP152 T02110139 10217 20189 53003=
200605251052 METAR KATL 251052Z 00000KT 10SM FEW250 20/13 A3000 RMK AO2 SLP150 T02000128=
200605250952 METAR KATL 250952Z 23003KT 10SM CLR 20/12 A2999 RMK AO2 SLP144 T02000122 $=
200605250852 METAR KATL 250852Z 00000KT 10SM CLR 21/12 A3000 RMK AO2 SLP148 T02060117 56010 $=
200605250752 METAR KATL 250752Z 00000KT 10SM CLR 21/12 A3000 RMK AO2 SLP149 T02060117 $=
200605250652 METAR KATL 250652Z 25003KT 10SM CLR 19/12 A3001 RMK AO2 SLP153 T01940122 $=
200605250552 METAR KATL 250552Z 31005KT 10SM CLR 22/11 A3003 RMK AO2 SLP158 T02170111 10278 20211 $=
200605250452 METAR KATL 250452Z 24003KT 10SM CLR 22/12 A3003 RMK AO2 SLP159 T02170117 403000172 $=
200605250352 METAR KATL 250352Z 00000KT 10SM CLR 23/11 A3002 RMK AO2 SLP157 T02330111=
200605250252 METAR KATL 250252Z 00000KT 10SM CLR 24/12 A3002 RMK AO2 SLP156 T02390117 55000=
200605250152 METAR KATL 250152Z 00000KT 10SM CLR 25/11 A3001 RMK AO2 SLP151 T02500106=
200605250052 METAR KATL 250052Z 32005KT 10SM CLR 27/11 A3002 RMK AO2 SLP156 T02670106=
200605242352 METAR KATL 242352Z 33005KT 10SM CLR 28/11 A3002 RMK AO2 SLP157 T02780106 10300 20278 56005=
200605242252 METAR KATL 242252Z 32008KT 10SM FEW250 29/09 A3002 RMK AO2 SLP158 T02890089=
200605242152 METAR KATL 242152Z 27007KT 10SM FEW250 29/10 A3003 RMK AO2 SLP160 T02940100=
200605242052 METAR KATL 242052Z 30009KT 10SM FEW240 29/09 A3004 RMK AO2 SLP162 T02940089 56018=
200605241952 METAR KATL 241952Z 26004KT 10SM FEW240 29/09 A3005 RMK AO2 SLP167 T02940089=
200605241852 METAR KATL 241852Z 30008KT 10SM FEW070 SCT240 29/11 A3007 RMK AO2 SLP173 T02940106=
200605241752 METAR KATL 241752Z 34010KT 10SM FEW070 SCT240 29/12 A3009 RMK AO2 SLP179 T02890117 10289 20194 58010=
200605241652 METAR KATL 241652Z VRB06KT 10SM FEW060 28/12 A3010 RMK AO2 SLP184 T02780117=
200605241552 METAR KATL 241552Z 33008KT 10SM FEW050 27/13 A3012 RMK AO2 SLP189 T02670133=
200605241452 METAR KATL 241452Z 33008KT 10SM FEW240 26/12 A3012 RMK AO2 SLP190 T02610122 50002=
200605241352 METAR KATL 241352Z 32005KT 10SM FEW240 24/13 A3013 RMK AO2 SLP193 T02440128=
200605241252 METAR KATL 241252Z 31004KT 10SM CLR 23/13 A3013 RMK AO2 SLP192 T02280128=
200605241152 METAR KATL 241152Z 33004KT 10SM FEW250 19/13 A3012 RMK AO2 SLP189 T01940133 10222 20172 53018=
200605241052 METAR KATL 241052Z 32004KT 10SM CLR 18/13 A3008 RMK AO2 SLP179 T01780128=
200605240952 METAR KATL 240952Z 32005KT 10SM CLR 18/12 A3006 RMK AO2 SLP171 T01780122=
200605240852 METAR KATL 240852Z 29003KT 10SM CLR 18/12 A3006 RMK AO2 SLP170 T01780122 55004=
200605240752 METAR KATL 240752Z 00000KT 10SM CLR 19/12 A3006 RMK AO2 SLP168 T01940122=
200605240652 METAR KATL 240652Z 00000KT 10SM CLR 21/12 A3007 RMK AO2 SLP171 T02060122=
200605240552 METAR KATL 240552Z 01003KT 10SM CLR 22/11 A3007 RMK AO2 SLP173 T02220111 10267 20217 58005=
200605240452 METAR KATL 240452Z 36008KT 10SM CLR 22/12 A3009 RMK AO2 SLP178 T02220117 403000178=
200605240352 METAR KATL 240352Z 01008KT 10SM CLR 23/12 A3009 RMK AO2 SLP178 T02330117=
200605240252 METAR KATL 240252Z 35007KT 10SM FEW250 23/12 A3009 RMK AO2 SLP179 T02330122 53010=
200605232352 METAR KATL 232352Z 33008KT 10SM CLR 27/14 A3006 RMK AO2 SLP169 T02670144 10300 20267 53003=
200605232152 METAR KATL 232152Z 32010KT 10SM FEW055 BKN250 28/15 A3005 RMK AO2 SLP166 MDT CU NE-E T02830150=
200605232052 METAR KATL 232052Z 33012G15KT 10SM FEW055 SCT250 29/15 A3005 RMK AO2 SLP165 T02890150 56013=
200605231952 METAR KATL 231952Z 29009KT 10SM FEW055 SCT250 29/16 A3006 RMK AO2 SLP169 T02940156=
200605231852 METAR KATL 231852Z 30009G18KT 10SM FEW050 SCT250 29/16 A3007 RMK AO2 SLP172 T02890156=
200605231752 METAR KATL 231752Z 30007KT 10SM FEW050 28/16 A3009 RMK AO2 SLP179 T02780156 10278 20189 58008=
200605231652 METAR KATL 231652Z 36010G17KT 320V030 10SM FEW045 SCT085 SCT250 28/17 A3010 RMK AO2 SLP185 T02780167=
200605231552 METAR KATL 231552Z 32007KT 10SM FEW045 SCT085 27/17 A3011 RMK AO2 SLP188 ACSL SE-S T02670167=
200605231452 METAR KATL 231452Z 35007KT 10SM FEW085 SCT250 26/16 A3011 RMK AO2 SLP187 T02560161 50004=
200605231352 METAR KATL 231352Z 32007KT 10SM BKN090 BKN250 23/14 A3011 RMK AO2 SLP189 T02280144=
200605231252 METAR KATL 231252Z 31005KT 10SM FEW085 SCT250 20/15 A3010 RMK AO2 SLP186 T02000150=
200605231152 METAR KATL 231152Z 31004KT 7SM SCT065 SCT090 BKN250 19/16 A3010 RMK AO2 SLP184 T01890156 10211 20178 52019=
200605231052 METAR KATL 231052Z 29004KT 8SM FEW150 SCT250 18/15 A3008 RMK AO2 SLP178 T01780150=
200605230952 METAR KATL 230952Z 32005KT 10SM FEW250 18/15 A3006 RMK AO2 SLP170 T01830150=
200605230852 METAR KATL 230852Z 29003KT 9SM FEW250 19/15 A3004 RMK AO2 SLP163 T01890150 53001=
200605230752 METAR KATL 230752Z 35003KT 10SM FEW250 19/14 A3004 RMK AO2 SLP162 T01940144=
200605230652 METAR KATL 230652Z 01006KT 10SM FEW050 SCT250 21/14 A3004 RMK AO2 SLP162 T02060139=
200605230552 METAR KATL 230552Z 34005KT 10SM FEW050 SCT250 21/14 A3004 RMK AO2 SLP162 T02110144 10267 20211 58003=
200605230452 METAR KATL 230452Z 33005KT 10SM FEW200 21/14 A3005 RMK AO2 SLP165 T02110144 402940194=
200605230352 METAR KATL 230352Z 35004KT 10SM FEW200 22/14 A3005 RMK AO2 SLP165 T02220144=
200605230252 METAR KATL 230252Z 01007KT 10SM FEW150 SCT250 23/14 A3005 RMK AO2 SLP166 T02330144 51012=
200605230152 METAR KATL 230152Z VRB03KT 10SM FEW150 BKN200 BKN250 23/16 A3004 RMK AO2 SLP163 T02330161=
200605230052 METAR KATL 230052Z 32006KT 10SM FEW055 SCT150 BKN250 24/16 A3002 RMK AO2 SLP158 TCU DSNT SW T02440161=
200605222352 METAR KATL 222352Z 33008KT 10SM FEW055TCU SCT080 SCT150 BKN250 27/15 A3001 RMK AO2 SLP153 TCU SE MDT CU E AND S-SW T02670150 10294 20261 53004=
200605222252 METAR KATL 222252Z 33007KT 10SM FEW050 SCT100 BKN150 OVC200 27/16 A2999 RMK AO2 SLP147 T02720156=
200605222152 METAR KATL 222152Z 32007KT 10SM FEW050 BKN150 BKN250 28/16 A2999 RMK AO2 SLP148 MDT CU SE-S T02830156=
200605222052 METAR KATL 222052Z 01007KT 10SM FEW055 BKN150 BKN240 28/16 A3000 RMK AO2 SLP149 MDT CU E-SW T02830156 58011=
200605221952 METAR KATL 221952Z 30006KT 10SM FEW055 BKN150 BKN240 28/16 A3001 RMK AO2 SLP153 TCU DSNT NW-N T02830156=
200605221852 METAR KATL 221852Z 31005KT 10SM FEW055 SCT150 SCT240 28/16 A3003 RMK AO2 SLP159 TCU DSNT S MDT CU SE-W T02780156=
200605221752 METAR KATL 221752Z 32007KT 10SM SCT050 SCT240 29/17 A3003 RMK AO2 SLP159 T02890167 10289 20211 58013=
200605221652 METAR KATL 221652Z 31007KT 10SM FEW040 SCT240 28/17 A3005 RMK AO2 SLP167 T02780167=
200605221552 METAR KATL 221552Z 33009KT 10SM FEW040 SCT150 SCT240 27/17 A3007 RMK AO2 SLP170 T02670167=
200605221452 METAR KATL 221452Z 32008KT 10SM FEW100 BKN150 BKN240 26/16 A3007 RMK AO2 SLP173 T02560156 50008=
200605221352 METAR KATL 221352Z 30006KT 10SM SCT150 SCT250 25/16 A3008 RMK AO2 SLP174 T02500156=
200605221252 METAR KATL 221252Z 29007KT 10SM SCT150 23/16 A3006 RMK AO2 SLP172 T02280156=
200605221152 METAR KATL 221152Z 32009KT 10SM FEW140 21/14 A3005 RMK AO2 SLP165 T02110144 10228 20194 53016=
200605221052 METAR KATL 221052Z 00000KT 10SM SCT140 20/14 A3002 RMK AO2 SLP158 T02000139=
200605220952 METAR KATL 220952Z 26005KT 10SM BKN140 BKN250 19/14 A3001 RMK AO2 SLP152 T01940139=
200605220852 METAR KATL 220852Z 30007KT 10SM BKN140 BKN250 21/14 A3000 RMK AO2 SLP148 T02060139 55003=
200605220752 METAR KATL 220752Z 24004KT 10SM BKN140 BKN250 22/13 A2997 RMK AO2 SLP140 T02170133=
200605220652 METAR KATL 220652Z 27005KT 10SM BKN140 BKN250 21/13 A2999 RMK AO2 SLP144 T02110128=
200605220552 METAR KATL 220552Z 28009KT 10SM SCT140 BKN250 23/13 A3001 RMK AO2 SLP151 T02280128 10267 20222 50010=
200605220452 METAR KATL 220452Z 27008KT 10SM SCT110 BKN200 23/13 A3001 RMK AO2 SLP151 T02330128 402890200=
200605220352 METAR KATL 220352Z 25008KT 10SM SCT120 BKN200 25/12 A2999 RMK AO2 SLP144 T02500117=
200605220252 METAR KATL 220252Z 23006KT 10SM SCT060 BKN100 BKN200 25/12 A2998 RMK AO2 SLP140 T02500117 53010=
200605220152 METAR KATL 220152Z 26006KT 10SM FEW200 24/13 A2996 RMK AO2 SLP136 T02440128=
200605220052 METAR KATL 220052Z 26006KT 10SM FEW200 25/13 A2996 RMK AO2 SLP135 T02500133=
200605212352 METAR KATL 212352Z 26010KT 10SM FEW200 27/13 A2995 RMK AO2 SLP131 T02670128 10289 20267 55001=
200605212252 METAR KATL 212252Z 25010KT 10SM FEW060 SCT250 28/13 A2993 RMK AO2 SLP127 T02830133=
200605212152 METAR KATL 212152Z 25012KT 10SM FEW055 SCT250 29/15 A2994 RMK AO2 SLP127 T02890150=
200605212052 METAR KATL 212052Z 25013KT 10SM FEW095 SCT190 SCT270 29/17 A2995 RMK AO2 SLP131 T02890167 56016=
200605211952 METAR KATL 211952Z 28008KT 10SM SCT050 SCT190 BKN270 29/17 A2996 RMK AO2 SLP136 T02890172=
200605211852 METAR KATL 211852Z 26010KT 10SM FEW045 SCT095 BKN170 BKN230 29/18 A2998 RMK AO2 SLP140 T02890178=
200605211752 METAR KATL 211752Z 27015G19KT 10SM FEW045 BKN170 BKN230 28/17 A3000=
200605211552 METAR KATL 211552Z 25014KT 10SM FEW040 SCT170 SCT230 27/16 A2999 RMK AO2 SLP144 T02720161=
200605211452 METAR KATL 211452Z 27012KT 10SM FEW035 SCT150 SCT250 26/16 A2999 RMK AO2 SLP146 T02560161 50007=
200605211352 METAR KATL 211352Z 27011G16KT 10SM FEW035 SCT100 SCT150 BKN250 24/16 A3000 RMK AO2 SLP149 T02440156=
200605211252 METAR KATL 211252Z 25009KT 10SM SCT250 23/14 A2998 RMK AO2 SLP143 T02280144=
200605211152 METAR KATL 211152Z 24006KT 10SM BKN250 21/14 A2997 RMK AO2 SLP139 T02110139 10233 20200 53008=
200605211052 METAR KATL 211052Z 24005KT 10SM SCT150 BKN250 20/14 A2996 RMK AO2 SLP134 T02000139=
200605210952 METAR KATL 210952Z 25004KT 10SM SCT150 22/13 A2996 RMK AO2 SLP132 T02170133=
200605210852 METAR KATL 210852Z 25006KT 10SM BKN150 22/13 A2994 RMK AO2 SLP129 T02170133 55007=
200605210752 METAR KATL 210752Z 25004KT 10SM BKN065 22/13 A2993 RMK AO2 SLP125 T02220133=
200605210652 METAR KATL 210652Z 29004KT 10SM FEW065 BKN180 23/13 A2995 RMK AO2 SLP130 T02280128=
200605210552 METAR KATL 210552Z 31010KT 10SM BKN110 23/13 A2997 RMK AO2 SLP136 T02330128 10289 20233 51015=
200605210452 METAR KATL 210452Z 26010KT 10SM FEW080 BKN100 BKN250 24/12 A2995 RMK AO2 SLP129 T02440122 403110178=
200605210352 METAR KATL 210352Z 25009KT 10SM FEW100 25/12 A2995 RMK AO2 PRESRR SLP130 T02500122=
200605210252 METAR KATL 210252Z 25008KT 10SM FEW070 SCT250 25/11 A2992 RMK AO2 SLP121 T02500111 53017=
200605210152 METAR KATL 210152Z 24009KT 10SM FEW250 26/11 A2989 RMK AO2 SLP112 T02610111=
200605210052 METAR KATL 210052Z 26009KT 10SM FEW250 27/11 A2989 RMK AO2 SLP112 T02720106=
200605202352 METAR KATL 202352Z 25013G17KT 10SM FEW250 29/10 A2987 RMK AO2 SLP104 T02890100 10311 20289 53004=
200605202252 METAR KATL 202252Z 24013G19KT 10SM FEW065 30/09 A2986 RMK AO2 SLP102 T03000094=
200605202152 METAR KATL 202152Z 24018G25KT 10SM FEW300 31/10 A2986 RMK AO2 SLP100 T03060100=
200605202052 METAR KATL 202052Z 24016G24KT 10SM SCT130 31/12 A2986 RMK AO2 PK WND 23026/1958 SLP099 T03110117 56018=
200605201952 METAR KATL 201952Z 26018G22KT 10SM SCT120 31/14 A2987 RMK AO2 SLP104 T03110139=
200605201852 METAR KATL 201852Z 26013G23KT 10SM FEW090 SCT130 31/15 A2989 RMK AO2 SLP112 T03060150=
200605201752 METAR KATL 201752Z COR 27018G23KT 10SM FEW055 SCT095 SCT130 29/16 A2991 RMK AO2 SLP119 T02940161 10300 20200 58006=
200605201652 METAR KATL 201652Z 27012KT 10SM FEW095 29/18 A2992 RMK AO2 SLP124 T02940178=
200605201552 METAR KATL 201552Z 27016G24KT 10SM FEW095 28/17 A2993 RMK AO2 SLP125 T02780167=
200605201452 METAR KATL 201452Z 24017G21KT 10SM FEW035 SCT095 SCT130 26/17 A2993 RMK AO2 SLP125 ACC N-NE T02610172 51007=
200605201352 METAR KATL 201352Z 26011G19KT 10SM FEW030 SCT130 SCT300 24/17 A2993 RMK AO2 SLP124 ACC N T02440167=
200605201252 METAR KATL 201252Z 25010KT 10SM FEW120 SCT250 23/16 A2992 RMK AO2 SLP123 T02280161=
200605201152 METAR KATL 201152Z 23009KT 10SM FEW250 20/14 A2991 RMK AO2 SLP119 T02000144 10200 20178 53014=
200605201052 METAR KATL 201052Z 23007KT 10SM FEW120 SCT200 19/14 A2989 RMK AO2 SLP112 T01890139=
200605200952 METAR KATL 200952Z 22006KT 10SM FEW120 19/13 A2987 RMK AO2 SLP106 T01890128=
200605200852 METAR KATL 200852Z 22006KT 10SM BKN180 18/12 A2987 RMK AO2 SLP105 T01830117 56006=
200605200752 METAR KATL 200752Z 22005KT 10SM FEW100 18/12 A2987 RMK AO2 SLP105 T01780117=
200605200652 METAR KATL 200652Z 22007KT 10SM FEW100 18/11 A2987 RMK AO2 SLP107 T01780111=
200605200552 METAR KATL 200552Z 22006KT 10SM FEW100 19/11 A2988 RMK AO2 SLP112 T01890106 10244 20183 58013=
200605200452 METAR KATL 200452Z 00000KT 10SM SCT100 19/11 A2991 RMK AO2 SLP121 T01890106 402610117=
200605200352 METAR KATL 200352Z 00000KT 10SM CLR 20/10 A2992 RMK AO2 SLP124 T02000100=
200605200252 METAR KATL 200252Z 00000KT 10SM FEW250 21/11 A2992 RMK AO2 SLP127 T02060106 50012=
200605200152 METAR KATL 200152Z 00000KT 10SM FEW120 SCT250 22/09 A2993 RMK AO2 SLP128 T02220094=
200605200052 METAR KATL 200052Z 25006KT 10SM FEW080 SCT200 SCT250 23/09 A2991 RMK AO2 SLP124 T02280094=
200605192352 METAR KATL 192352Z 24007KT 10SM FEW150 SCT200 BKN250 24/09 A2989 RMK AO2 SLP115 T02440089 10261 20239 56001=
200605192252 METAR KATL 192252Z 27011KT 10SM FEW200 26/09 A2989 RMK AO2 SLP116 T02560089=
200605192152 METAR KATL 192152Z 26014G21KT 10SM FEW200 26/08 A2989 RMK AO2 SLP114 T02560083=
200605192052 METAR KATL 192052Z 25014G22KT 10SM FEW075 SCT110 SCT250 26/08 A2989 RMK AO2 SLP115 T02610083 56015=
200605191952 SPECI KATL 191952Z 30014G20KT 10SM FEW075 26/08 A2991 RMK AO2 PK WND 31027/1906 SLP120 T02610083=
200605191852 METAR KATL 191852Z 28018G25KT 10SM FEW070 SCT110 SCT250 26/08 A2992 RMK AO2 PK WND 27026/1847 SLP124 ACSL DSNT NE-E AND VC NW-N T02560078=
200605191752 METAR KATL 191752Z COR 31014G23KT 10SM FEW070 SCT090 BKN110 BKN250 24/08 A2994 RMK AO2 PK WND 29026/1742 SLP131 ACSL DSNT NE AND NW T02440078 10250 20128 50001=
200605191652 METAR KATL 191652Z 29012KT 10SM FEW080 SCT100 SCT250 24/07 A2995 RMK AO2 SLP134 T02390072=
200605191552 METAR KATL 191552Z 28010KT 10SM FEW080 SCT250 22/07 A2994 RMK AO2 SLP133 ACSL DSNT N-NE T02170067=
200605191452 METAR KATL 191452Z 23009KT 10SM FEW070 SCT250 21/05 A2993 RMK AO2 SLP130 T02060050 51013=
200605191352 METAR KATL 191352Z 24007KT 10SM FEW070 SCT150 SCT250 18/06 A2993 RMK AO2 SLP130 T01830061=
200605191252 METAR KATL 191252Z 22006KT 10SM FEW180 SCT250 15/07 A2991 RMK AO2 SLP123 T01500067=
200605191152 METAR KATL 191152Z 24004KT 10SM FEW180 SCT250 14/06 A2989 RMK AO2 SLP118 T01390061 10156 20117 53020=
200605191052 METAR KATL 191052Z 28004KT 10SM FEW180 SCT250 12/05 A2987 RMK AO2 SLP110 T01170050=
200605190952 METAR KATL 190952Z 29005KT 10SM FEW250 13/05 A2985 RMK AO2 SLP104 T01280050=
200605190852 METAR KATL 190852Z 26005KT 10SM FEW250 13/06 A2983 RMK AO2 SLP096 T01330056 53009=
200605190752 METAR KATL 190752Z COR 29005KT 10SM FEW250 14/05 A2982 RMK AO2 SLP090 T01390050=
200605190652 METAR KATL 190652Z 27006KT 10SM CLR 15/05 A2981 RMK AO2 SLP087 T01500050=
200605190552 METAR KATL 190552Z 29006KT 10SM CLR 15/07 A2981 RMK AO2 SLP086 T01500067 10228 20150 50008=
200605190452 METAR KATL 190452Z 30009KT 10SM CLR 17/07 A2981 RMK AO2 SLP088 T01720067 402670117=
200605190352 METAR KATL 190352Z 31011KT 10SM CLR 19/07 A2980 RMK AO2 SLP085 T01890072=
200605190252 METAR KATL 190252Z 29012KT 10SM FEW100 20/09 A2978 RMK AO2 SLP078 T02000089 51028=
200605190152 METAR KATL 190152Z 30008KT 10SM FEW100 20/11 A2976 RMK AO2 SLP070 T02000106=
200605190052 METAR KATL 190052Z 29008KT 10SM FEW060 SCT090 SCT250 22/10 A2973 RMK AO2 SLP059 MDT CU NE AND W-NW TCU DSNT SE T02170100=
200605182352 METAR KATL 182352Z 28012KT 10SM SCT065 SCT080 BKN100 BKN250 23/11 A2970 RMK AO2 SLP051 MDT CU E AND SW TCU DSNT SE-S 60000 T02280111 10267 20211 53009=
200605182252 METAR KATL 182252Z 28011KT 10SM SCT060TCU BKN085 BKN110 BKN250 22/13 A2968 RMK AO2 RAB04E26 SLP047 TCU E-OHD-W AND NW P0000 T02170128=
200605182152 METAR KATL 182152Z 25014G21KT 10SM FEW065TCU SCT080 BKN110 BKN200 25/10 A2967 RMK AO2 PK WND 24031/2114 SLP041 TCU SE CB DSNT NE-E AND W T02500100=
200605182052 METAR KATL 182052Z 24018G25KT 10SM FEW070 SCT080 SCT100 SCT200 25/09 A2967 RMK AO2 PK WND 23028/2003 SLP039 CB DSNT E AND NW SHRA DSNT E AND NW T02500094 58022=
200605182026 SPECI KATL 182026Z 24021G27KT 10SM FEW070 BKN085 BKN110 26/09 A2968 RMK AO2 PK WND 23028/2003 CB DSNT NE MOV E SHRA DSNT NE=
200605182026 SPECI KATL 182026Z 24021G27KT 10SM FEW070 BKN085 BKN110 26/09 A2968 RMK AO2 PK WND 23028/2003 CB DSNT NE MOV E SHRA DSNT NE=
200605181952 METAR KATL 181952Z 27017G26KT 10SM BKN070 BKN090 BKN100 26/09 A2969 RMK AO2 PK WND 25030/1921 SLP049 TCU DSNT NW-N SHRA DSNT NW-N T02560089=
200605181852 METAR KATL 181852Z 23015G26KT 10SM FEW070 SCT110 26/09 A2971 RMK AO2 PK WND 23027/1820 SLP055 ACSL NE-SE T02610094=
200605181752 METAR KATL 181752Z 24019G28KT 10SM FEW060 SCT100 25/09 A2973 RMK AO2 PK WND 23028/1749 SLP063 58020 T02500089 10256 20144=
200605181652 METAR KATL 181652Z 26016G22KT 10SM FEW045 SCT100 BKN150 24/12 A2977 RMK AO2 SLP074 ACSL DSNT NW T02390117=
200605181552 METAR KATL 181552Z 25016G20KT 10SM FEW040 SCT090 SCT120 23/11 A2978 RMK AO2 SLP081 T02280111 $=
200605181452 METAR KATL 181452Z 25014G23KT 10SM FEW090 SCT150 21/12 A2980 RMK AO2 SLP085 T02110117 58009 $=
200605181352 METAR KATL 181352Z 25012G18KT 10SM FEW090 19/11 A2982 RMK AO2 SLP093 T01940111 $=
200605181252 METAR KATL 181252Z 24011KT 10SM FEW085 17/11 A2983 RMK AO2 SLP096 T01720111 $=
200605181152 METAR KATL 181152Z 24006KT 10SM FEW080 14/11 A2983 RMK AO2 SLP096 T01440106 10144 20117 53009 $=
200605181052 METAR KATL 181052Z 23005KT 9SM CLR 12/10 A2981 RMK AO2 SLP091 T01170100 $=
200605180952 METAR KATL 180952Z 23005KT 10SM CLR 12/10 A2980 RMK AO2 SLP089 T01220100 $=
200605180852 METAR KATL 180852Z 25006KT 10SM CLR 13/11 A2980 RMK AO2 SLP086 T01330106 58002 $=
200605180752 METAR KATL 180752Z 27009KT 10SM CLR 13/11 A2980 RMK AO2 SLP086 T01280106 $=
200605180652 METAR KATL 180652Z 23005KT 10SM CLR 13/10 A2980 RMK AO2 SLP089 T01280100 $=
200605180552 METAR KATL 180552Z 28007KT 10SM CLR 12/10 A2980 RMK AO2 SLP088 60000 T01220100 10172 20122 58002 $=
200605180452 METAR KATL 180452Z 27008KT 10SM CLR 13/10 A2981 RMK AO2 SLP093 T01280100 402170106 $=
200605180352 METAR KATL 180352Z 27005KT 10SM FEW100 13/09 A2982 RMK AO2 SLP094 T01280094 $=
200605180252 METAR KATL 180252Z 26007KT 10SM FEW100 14/10 A2981 RMK AO2 SLP090 60000 T01390100 53010 $=
200605180152 METAR KATL 180152Z 26007KT 10SM FEW100 14/10 A2979 RMK AO2 SLP086 T01390100 $=
200605180052 METAR KATL 180052Z 27009KT 10SM SCT095 BKN120 16/09 A2979 RMK AO2 RAB11E18 SLP084 P0000 T01560094 $=
200605172352 METAR KATL 172352Z 30014KT 10SM FEW050TCU SCT070 BKN100 17/09 A2978 RMK AO2 WSHFT 2311 SLP080 TCU SE AND W-NW SHRA W-NW 60000 T01720094 10217 20172 53004 $=
200605172331 SPECI KATL 172331Z 28017G22KT 10SM SCT050TCU BKN070 BKN090 19/09 A2977 RMK AO2 WSHFT 2311 TCU SE-S MDT CU NE-E AND SW $=
200605172331 SPECI KATL 172331Z 28017G22KT 10SM SCT050TCU BKN070 BKN090 19/09 A2977 RMK AO2 WSHFT 2311 TCU SE-S MDT CU NE-E AND SW $=
200605172252 METAR KATL 172252Z 27009KT 10SM SCT045TCU SCT065 BKN090 20/09 A2976 RMK AO2 SLP073 TCU SW-W MDT CU ALQDS T02000094 $=
200605172152 METAR KATL 172152Z 29008KT 10SM FEW040TCU BKN090 19/10 A2976 RMK AO2 SLP073 TCU OHD-SW AND VC N-NE AND W T01890100 $=
200605172052 METAR KATL 172052Z 26009KT 10SM FEW030 SCT070 BKN080 18/11 A2976 RMK AO2 RAB1958E20 SLP076 SHRA DSNT SE AND SW P0000 60000 T01830111 56006 $=
200605171952 METAR KATL 171952Z 32011KT 10SM FEW050CB BKN070 BKN090 19/09 A2977 RMK AO2 SLP077 CB VC W MOV ESE SHRA VC W T01890094 $=
200605171852 METAR KATL 171852Z 31011KT 10SM FEW040 SCT060 BKN090 21/10 A2977 RMK AO2 RAB14E40 SLP078 CB DSNT W-N TCU DSNT E SHRA DSNT E P0000 T02060100 $=
200605171752 METAR KATL 171752Z 27009KT 10SM SCT050 SCT090 20/10 A2978 RMK AO2 SLP082 MDT CU ALQDS T02000100 10206 20122 58015 $=
200605171652 METAR KATL 171652Z 29009KT 10SM BKN040 18/08 A2980 RMK AO2 SLP088 MDT CU ALQDS T01780078 PNO $=
200605171552 METAR KATL 171552Z 32008KT 10SM SCT034 19/11 A2982 RMK AO2 SLP095 T01890106 $=
200605171452 METAR KATL 171452Z 28010KT 10SM FEW025 SCT090 18/11 A2983 RMK AO2 SLP097 T01780106 50008 $=
200605171352 METAR KATL 171352Z 30010KT 10SM FEW030 SCT090 16/10 A2983 RMK AO2 SLP098 T01610100 $=
200605171252 METAR KATL 171252Z 28009KT 10SM FEW075 14/09 A2982 RMK AO2 SLP095 T01390094 $=
200605171152 METAR KATL 171152Z 29006KT 10SM FEW075 12/09 A2981 RMK AO2 SLP090 T01220089 10128 20106 53005=
200605171052 METAR KATL 171052Z 26005KT 10SM FEW080 11/08 A2979 RMK AO2 SLP086 T01110083=
200605170952 METAR KATL 170952Z 28006KT 10SM FEW090 11/09 A2979 RMK AO2 SLP086 T01110089 $=
200605170852 METAR KATL 170852Z 29006KT 10SM OVC070 13/09 A2979 RMK AO2 SLP084 T01280094 58007 $=
200605170752 METAR KATL 170752Z 29004KT 10SM SCT075 BKN090 12/09 A2980 RMK AO2 SLP089 T01220094 $=
200605170652 METAR KATL 170652Z 27005KT 10SM FEW070 12/09 A2981 RMK AO2 SLP091 T01170089 $=
200605170552 METAR KATL 170552Z 27004KT 10SM FEW070 13/09 A2981 RMK AO2 SLP092 60000 T01280089 10178 20122 58010=
200605170452 METAR KATL 170452Z 29005KT 10SM FEW070 13/09 A2983 RMK AO2 SLP097 T01280094 402000094=
200605170352 METAR KATL 170352Z 32005KT 10SM FEW045 SCT070 14/09 A2984 RMK AO2 RAB13E29 SLP101 P0000 T01440089=
200605170252 METAR KATL 170252Z 00000KT 10SM SCT060 BKN090 16/10 A2984 RMK AO2 SLP102 T01560100 53007=
200605170152 METAR KATL 170152Z 32004KT 10SM CLR 16/09 A2983 RMK AO2 SLP100 T01610094=
200605170052 METAR KATL 170052Z 27004KT 10SM FEW045 17/09 A2982 RMK AO2 SLP096 T01670089=
200605162352 METAR KATL 162352Z 26006KT 10SM FEW045 18/08 A2982 RMK AO2 SLP096 T01780083 10200 20178 56009=
200605162252 METAR KATL 162252Z 28007KT 10SM SCT050 18/08 A2983 RMK AO2 SLP097 T01830083=
200605162152 METAR KATL 162152Z 32009KT 10SM FEW045 SCT080 19/08 A2984 RMK AO2 SLP100 MDT CU E-S AND W-NW T01890083=
200605162052 METAR KATL 162052Z 28010KT 250V310 10SM FEW040 BKN070 19/09 A2985 RMK AO2 SLP105 T01940089 56012=
200605161952 METAR KATL 161952Z 30013KT 10SM FEW045 BKN060 18/08 A2986 RMK AO2 SLP108 T01830078=
200605161852 METAR KATL 161852Z 30012G19KT 10SM BKN045 BKN055 19/08 A2987 RMK AO2 SLP111 T01890078=
200605161752 METAR KATL 161752Z 31008KT 10SM FEW040 SCT050 BKN060 19/09 A2988 RMK AO2 SLP117 T01890094 10194 20117 58013=
200605161652 METAR KATL 161652Z 31011KT 10SM FEW035 BKN050 18/09 A2991 RMK AO2 SLP126 T01830089=
200605161552 METAR KATL 161552Z 27011KT 10SM SCT035 BKN045 BKN200 17/09 A2992 RMK AO2 SLP130 T01670089=
200605161452 METAR KATL 161452Z 29008KT 10SM SCT022 SCT200 16/09 A2992 RMK AO2 SLP132 T01610094 58008=
200605161352 METAR KATL 161352Z 29010KT 10SM SCT018 SCT200 15/10 A2994 RMK AO2 SLP138 T01500100=
200605161252 METAR KATL 161252Z 27009KT 8SM FEW020 SCT044 BKN100 13/09 A2995 RMK AO2 SLP139 T01330094=
200605161152 METAR KATL 161152Z 27007KT 8SM FEW026 SCT100 12/08 A2995 RMK AO2 SLP140 T01170083 10117 20094 53006=
200605161052 METAR KATL 161052Z 27008KT 8SM BKN037 BKN100 11/08 A2994 RMK AO2 SLP135 T01110083=
200605160952 METAR KATL 160952Z 26006KT 10SM SCT029 OVC033 11/08 A2992 RMK AO2 SLP130 BINOVC T01110083 $=
200605160852 METAR KATL 160852Z 26007KT 10SM OVC029 11/08 A2993 RMK AO2 SLP133 T01110083 58008=
200605160752 METAR KATL 160752Z 25005KT 10SM OVC032 11/08 A2994 RMK AO2 SLP135 T01060078=
200605160652 METAR KATL 160652Z 23005KT 10SM FEW031 OVC046 10/08 A2996 RMK AO2 SLP144 BINOVC T01000078=
200605160552 METAR KATL 160552Z 22004KT 10SM FEW250 11/07 A2996 RMK AO2 SLP142 60000 T01060072 10156 20106 50002=
200605160452 METAR KATL 160452Z 23004KT 10SM FEW035 SCT250 11/08 A2996 RMK AO2 SLP143 T01110078 401940094=
200605160352 METAR KATL 160352Z 25003KT 10SM FEW250 11/08 A2995 RMK AO2 SLP142 T01110078=
200605160252 METAR KATL 160252Z 29007KT 10SM FEW100 12/08 A2995 RMK AO2 SLP141 60000 T01170078 53008=
200605160152 METAR KATL 160152Z 29009KT 10SM FEW100 12/08 A2994 RMK AO2 RAE0054 SLP136 P0000 T01220078=
200605160052 METAR KATL 160052Z 29014KT 10SM -RA FEW040 SCT050 BKN070 14/08 A2994 RMK AO2 RAB45 SLP137 P0000 T01390083=
200605152352 METAR KATL 152352Z 29011KT 10SM FEW050 SCT100 16/06 A2993 RMK AO2 SLP132 T01560056 10194 20156 50002=
200605152252 METAR KATL 152252Z 31014G19KT 10SM FEW050 SCT100 17/06 A2993 RMK AO2 SLP133 T01720056=
200605152152 METAR KATL 152152Z 29018G22KT 10SM FEW050 BKN100 17/05 A2993 RMK AO2 SLP133 TCU DSNT NE AND NW T01720050=
200605152052 METAR KATL 152052Z 28011KT 10SM SCT055 BKN075 BKN090 18/06 A2992 RMK AO2 SLP129 T01780056 50004=
200605151952 METAR KATL 151952Z 28014G20KT 10SM FEW060 BKN075 18/06 A2992 RMK AO2 SLP130 T01780056=
200605151852 METAR KATL 151852Z 26012KT 10SM BKN055 BKN075 18/06 A2991 RMK AO2 SLP127 T01780056=
200605151752 METAR KATL 151752Z 29013G18KT 10SM BKN049 BKN080 18/07 A2991 RMK AO2 SLP124 T01780067 10189 20100=
200605151652 METAR KATL 151652Z 28010KT 10SM FEW045 SCT080 17/07 A2992 RMK AO2 SLP128 T01720067=
200605151552 METAR KATL 151552Z 31013G18KT 10SM SCT043 BKN075 17/07 A2994 RMK AO2 SLP134 ACC SE-SW T01670067=
200605151528 SPECI KATL 151528Z 30014G20KT 10SM SCT040 SCT080 16/07 A2994 RMK AO2 53003 A2995 SLP137=
200605151528 SPECI KATL 151528Z 30014G20KT 10SM SCT040 SCT080 16/07 A2994 RMK AO2 53003 A2995 SLP137=
200605151452 METAR KATL 151452Z 29011KT 10SM FEW035 SCT080 16/07 A2995 RMK AO2 SLP137 ACC SE-SW T01610072 53003=
200605151352 METAR KATL 151352Z 28009KT 10SM FEW030 SCT090 SCT240 16/08 A2995 RMK AO2 SLP138 ACC SE-SW T01560078 $=
200605151252 METAR KATL 151252Z 34006KT 10SM FEW100 13/07 A2994 RMK AO2 SLP135 T01330067 $=
200605151152 METAR KATL 151152Z 32006KT 10SM SCT100 12/07 A2994 RMK AO2 SLP134 70007 T01170072 10133 20094 53004 $=
200605151052 METAR KATL 151052Z 30006KT 10SM FEW180 10/07 A2993 RMK AO2 SLP133 T01000067 $=
200605150952 METAR KATL 150952Z 29006KT 10SM FEW250 09/07 A2992 RMK AO2 SLP130 T00940067=
200605150852 METAR KATL 150852Z 26003KT 10SM BKN090 11/07 A2992 RMK AO2 SLP129 T01110067 53000=
200605150752 METAR KATL 150752Z 31004KT 10SM CLR 12/07 A2991 RMK AO2 SLP124 T01220067=
200605150652 METAR KATL 150652Z 33005KT 10SM CLR 12/07 A2992 RMK AO2 SLP126 T01220067=
200605150552 METAR KATL 150552Z 33009KT 10SM FEW060 SCT085 13/07 A2992 RMK AO2 SLP128 T01330072 10200 20133 50008=
200605150452 METAR KATL 150452Z 34009KT 10SM FEW055 SCT080 15/07 A2994 RMK AO2 SLP133 T01500072 402330150=
200605150352 METAR KATL 150352Z 30006KT 10SM FEW050 BKN060 OVC080 17/09 A2991 RMK AO2 SLP122 BINOVC T01670089=
200605150252 METAR KATL 150252Z 30006KT 10SM FEW075 17/08 A2990 RMK AO2 SLP120 T01670083 51017=
200605150152 METAR KATL 150152Z 29006KT 10SM FEW065 SCT110 17/08 A2988 RMK AO2 SLP115 T01720078=
200605150052 METAR KATL 150052Z 29008KT 10SM FEW070 BKN110 19/07 A2988 RMK AO2 SLP112 T01890072=
200605142352 METAR KATL 142352Z 33011KT 10SM FEW065 SCT120 BKN250 20/07 A2985 RMK AO2 SLP102 T02000072 10233 20200 53002=
200605142252 METAR KATL 142252Z 33014KT 10SM FEW065 SCT120 SCT250 22/08 A2985 RMK AO2 WSHFT 2141 SLP102 T02170083=
200605142157 SPECI KATL 142157Z 29011KT 10SM FEW065 SCT120 SCT250 23/07 A2984 RMK AO2 WSHFT 2141=
200605142157 SPECI KATL 142157Z 29011KT 10SM FEW065 SCT120 SCT250 23/07 A2984 RMK AO2 WSHFT 2141=
200605142152 METAR KATL 142152Z 31013KT 10SM FEW065 SCT120 SCT250 23/07 A2984 RMK AO2 SLP098 T02280072=
200605142052 METAR KATL 142052Z 30015KT 10SM FEW060 SCT150 SCT250 23/07 A2984 RMK AO2 SLP099 T02280072 56016=
200605141952 METAR KATL 141952Z COR 24011KT 10SM CLR 23/07 A2985 RMK AO2 SLP102 TCU DSNT SE-S MOV E T02280072=
200605141852 METAR KATL 141852Z COR 30013G17KT 10SM FEW055 SCT110 BKN150 BKN200 BKN250 22/07 A2987 RMK AO2 SLP108 TCU DSNT SE-S MOV E T02220072=
200605141752 METAR KATL 141752Z 27014G20KT 10SM FEW055 SCT075 BKN110 BKN150 22/07 A2989 RMK AO2 SLP116 TCU DSNT S TCU DSNT SW 60007 T02170072 10217 20161 56001=
200605141652 METAR KATL 141652Z 28014KT 10SM SCT085 BKN110 BKN150 20/08 A2989 RMK AO2 SLP116 T02000083=
200605141552 METAR KATL 141552Z 30011KT 9SM SCT017 BKN110 BKN150 20/13 A2989=
200605141531 SPECI KATL 141531Z 27012G17KT 8SM BKN016 BKN019 BKN070 19/15 A2989 RMK AO2=
200605141531 SPECI KATL 141531Z 27012G17KT 8SM BKN016 BKN019 BKN070 19/15 A2989 RMK AO2=
200605141452 METAR KATL 141452Z 26010KT 7SM FEW011 SCT035 SCT080 18/16 A2989 RMK AO2 TSE15RAE37 SLP118 P0002 60007 T01780156 50012=
200605141426 SPECI KATL 141426Z 25011KT 7SM -RA SCT031 BKN065 BKN085 16/14 A2989 RMK AO2 TSE15 TS DSNT SE-S MOV E VIRGA VC NW CB DSNT S-SE MOV E SHRA OHD SHRA VC N-NE AND W-NW P0002=
200605141426 SPECI KATL 141426Z 25011KT 7SM -RA SCT031 BKN065 BKN085 16/14 A2989 RMK AO2 TSE15 TS DSNT SE-S MOV E VIRGA VC NW CB DSNT S-SE MOV E SHRA OHD SHRA VC N-NE AND W-NW P0002=
200605141358 SPECI KATL 141358Z 24009KT 7SM -TSRA SCT011CB BKN030 BKN060 16/14 A2990 RMK AO2 P0001=
200605141358 SPECI KATL 141358Z 24009KT 7SM -TSRA SCT011CB BKN030 BKN060 16/14 A2990 RMK AO2 P0001=
200605141351 METAR KATL 141351Z 26013G16KT 2 1/2SM -TSRA BR FEW011CB SCT020 BKN030 16/14 A2991 RMK AO2 TSB50RAB10 PRESRR SLP125 TSB46 TS SE-SW MOV E CB SE-SW MOV E VC SHRA SE-SW P0005 T01610144=
200605141350 SPECI KATL 141350Z 26013G16KT 2 1/2SM +TSRA BR FEW011CB SCT020 BKN030 16/14 A2991 RMK AO2 TSB50RAB10 TSB46 TS SE-SW MOV E CB SE-SW MOV E VC SHRA SE-SW P0005=
200605141350 SPECI KATL 141350Z 26013G16KT 2 1/2SM +TSRA BR FEW011CB SCT020 BKN030 16/14 A2991 RMK AO2 TSB50RAB10 TSB46 TS SE-SW MOV E CB SE-SW MOV E VC SHRA SE-SW P0005=
200605141331 SPECI KATL 141331Z COR 27008KT 8SM -RA BKN014 BKN055 OVC075 17/14 A2987 RMK AO2 LTG DSNT N-NE RAB10 CB DSNT NE-E MOV E SHRA DSNT=
200605141331 SPECI KATL 141331Z 27008KT 8SM -RA BKN014 BKN055 OVC075 17/14 A2987 RMK AO2 RAB10 LTG DSNT N P0001=
200605141252 METAR KATL 141252Z 23011KT 10SM FEW085 BKN180 17/14 A2986 RMK AO2 RAE01 SLP108 P0000 T01670139=
200605141152 METAR KATL 141152Z 22010KT 10SM -RA CLR BKN180 16/13 A2986 RMK AO2 RAB52 SLP106 P0000 60000 70001 T01610133 10167 20150 53010=
200605141052 METAR KATL 141052Z 23009KT 10SM SCT050 BKN120 16/13 A2984 RMK AO2 RAE0958 SLP100 P0000 T01610133=
200605140952 METAR KATL 140952Z 23009KT 10SM -RA FEW060 SCT080 OVC110 17/13 A2984 RMK AO2 RAB47 SLP098 P0000 T01670133=
200605140852 METAR KATL 140852Z 21006KT 10SM BKN110 16/13 A2983 RMK AO2 SLP095 T01560133 58004=
200605140752 METAR KATL 140752Z 22006KT 10SM BKN110 16/13 A2984 RMK AO2 SLP099 T01560128=
200605140652 METAR KATL 140652Z 19004KT 10SM BKN150 15/13 A2983 RMK AO2 SLP097 T01500133=
200605140552 METAR KATL 140552Z 17005KT 10SM SCT120 16/13 A2984 RMK AO2 SLP099 60000 T01560128 10194 20156 58010=
200605140452 METAR KATL 140452Z 23005KT 10SM FEW060 OVC120 17/13 A2987 RMK AO2 RAB23E45 SLP110 VIRGA N P0000 T01670128 402220117=
200605140352 METAR KATL 140352Z 22008KT 10SM FEW060 OVC250 16/13 A2987 RMK AO2 SLP113 T01610128=
200605140252 METAR KATL 140252Z 22006KT 10SM FEW120 BKN250 17/12 A2987 RMK AO2 SLP109 T01670122 53004 $=
200605140152 METAR KATL 140152Z 23007KT 10SM FEW120 SCT250 17/12 A2987 RMK AO2 SLP109 T01720117 $=
200605140052 METAR KATL 140052Z 22006KT 10SM FEW070 BKN110 OVC150 18/12 A2986 RMK AO2 SLP107 T01830117 $=
200605132352 METAR KATL 132352Z 23008KT 10SM FEW060 BKN110 BKN250 19/12 A2986 RMK AO2 SLP107 T01940117 10222 20189 53001 $=
200605132252 METAR KATL 132252Z 24009KT 10SM FEW041 SCT110 21/11 A2984 RMK AO2 SLP101 T02110106 $=
200605132152 METAR KATL 132152Z 25012G18KT 10SM FEW043 SCT070 SCT250 22/11 A2985 RMK AO2 SLP102 SHRA SW T02170111 $=
200605132052 METAR KATL 132052Z 24011KT 10SM SCT043 BKN050 BKN130 21/12 A2985 RMK AO2 SLP104 T02110122 56021 $=
200605131952 METAR KATL 131952Z 22012G20KT 10SM FEW039 SCT085 SCT110 BKN130 BKN230 22/12 A2987 RMK AO2 SLP110 T02170122 $=
200605131852 METAR KATL 131852Z 22011KT 10SM FEW037 SCT075 SCT100 BKN130 BKN230 21/12 A2989 RMK AO2 SLP118 T02060122 $=
200605131752 METAR KATL 131752Z COR 21015G19KT 10SM FEW011 SCT031 SCT070 BKN085 BKN130 BKN230 19/12 A2992=
200605131652 METAR KATL 131652Z 21010KT 10SM BKN085 BKN130 BKN230 18/12 A2993 RMK AO2 RAE05 SLP130 P0000 T01830117 $=
200605131552 METAR KATL 131552Z 22004KT 8SM -RA BKN036 BKN050 OVC075 15/11 A2994 RMK AO2 RAB16 PRESFR SLP137 TCU DSNT E-SE MOV SE SHRA DSNT E-SE P0001 T01500106 $=
200605131452 METAR KATL 131452Z 20009KT 10SM SCT080 BKN130 BKN230 20/08 A2993 RMK AO2 SLP128 TCU DSNT SW-NW MOV SE T02000078 51006 $=
200605131352 METAR KATL 131352Z 22009KT 10SM SCT230 18/07 A2992 RMK AO2 SLP126 T01780072 $=
200605131252 METAR KATL 131252Z 22007KT 10SM FEW250 14/08 A2993 RMK AO2 SLP131 T01440083 $=
200605131152 METAR KATL 131152Z 21005KT 10SM FEW150 SCT200 12/08 A2991 RMK AO2 SLP125 T01220078 10133 20117 53014 $=
200605131052 METAR KATL 131052Z 22003KT 10SM BKN180 12/07 A2989 RMK AO2 SLP119 T01170072=
200605130952 METAR KATL 130952Z 25003KT 10SM SCT180 12/07 A2987 RMK AO2 SLP113 T01220072=
200605130852 METAR KATL 130852Z 00000KT 10SM SCT180 13/07 A2987 RMK AO2 SLP110 T01280072 55001 $=
200605130752 METAR KATL 130752Z 26003KT 10SM BKN180 12/07 A2986 RMK AO2 SLP109 T01220067=
200605130652 METAR KATL 130652Z 23003KT 10SM FEW250 13/07 A2986 RMK AO2 SLP109 T01330067=
200605130552 METAR KATL 130552Z 26006KT 10SM CLR 13/07 A2987 RMK AO2 SLP111 T01330067 10189 20133 50004=
200605130452 METAR KATL 130452Z 23006KT 10SM CLR 14/07 A2987 RMK AO2 SLP113 T01390067 402110094=
200605130352 METAR KATL 130352Z 24007KT 10SM CLR 15/06 A2986 RMK AO2 SLP109 T01500061=
200605130252 METAR KATL 130252Z 24007KT 10SM CLR 16/06 A2986 RMK AO2 SLP107 T01610056 51013=
200605130152 METAR KATL 130152Z 24005KT 10SM CLR 16/05 A2984 RMK AO2 SLP103 T01610050=
200605130052 METAR KATL 130052Z 24006KT 10SM CLR 18/04 A2983 RMK AO2 SLP099 T01780044=
200605122352 METAR KATL 122352Z 27010KT 10SM FEW065 19/04 A2982 RMK AO2 SLP094 T01890039 10211 20183 51003=
200605122252 METAR KATL 122252Z 27015G21KT 10SM CLR 20/03 A2981 RMK AO2 SLP093 T02000033=
200605122152 METAR KATL 122152Z 26013G19KT 10SM FEW065 21/04 A2981 RMK AO2 SLP093 T02060044=
200605122052 METAR KATL 122052Z 24015G22KT 10SM FEW065 21/04 A2981 RMK AO2 SLP091 T02060039 58013=
200605121952 METAR KATL 121952Z 28016G20KT 10SM FEW060 21/05 A2982 RMK AO2 SLP095 T02060050=
200605121852 METAR KATL 121852Z 25012G20KT 10SM FEW055 20/06 A2983 RMK AO2 SLP099 T02000056=
200605121752 METAR KATL 121752Z 25011G20KT 10SM FEW060 19/04 A2985 RMK AO2 SLP103 T01890039 10194 20111 58010=
200605121652 METAR KATL 121652Z COR 27010G18KT 10SM FEW050 18/03 A2987 RMK AO2 SLP110 T01780033 $=
200605121552 METAR KATL 121552Z 26012G18KT 10SM FEW050 17/04 A2988 RMK AO2 SLP113 T01720044=
200605121452 METAR KATL 121452Z 29013G22KT 10SM FEW050 16/04 A2988 RMK AO2 SLP114 T01610044 51010=
200605121352 METAR KATL 121352Z 27013KT 10SM FEW030 14/07 A2987 RMK AO2 SLP112 T01440067=
200605121252 METAR KATL 121252Z 27011KT 10SM CLR 13/07 A2986 RMK AO2 SLP109 T01280067=
200605121152 METAR KATL 121152Z 26010KT 10SM CLR 11/06 A2985 RMK AO2 SLP104 T01110061 10133 20094 51009=
200605121052 METAR KATL 121052Z 26007KT 10SM CLR 10/06 A2984=
200605120952 METAR KATL 120952Z 26008KT 10SM CLR 10/06 A2983 RMK AO2 SLP098 T01000061=
200605120852 METAR KATL 120852Z 27008KT 10SM CLR 11/06 A2982 RMK AO2 SLP095 T01060061 56012=
200605120752 METAR KATL 120752Z 27005KT 10SM CLR 11/06 A2983 RMK AO2 SLP099 T01110056=
200605120652 METAR KATL 120652Z 29007KT 10SM FEW060 SCT075 12/06 A2984 RMK AO2 SLP100 T01220056=
200605120552 METAR KATL 120552Z 31012KT 10SM FEW048 BKN080 13/06 A2985 RMK AO2 PK WND 32028/0514 WSHFT 0505 SLP106 T01330061 10178 20133 53007=
200605120521 SPECI KATL 120521Z 32019G28KT 10SM FEW042 BKN050 OVC090 14/06 A2985 RMK AO2 PK WND 32028/0514 WSHFT 0505=
200605120521 SPECI KATL 120521Z 32019G28KT 10SM FEW042 BKN050 OVC090 14/06 A2985 RMK AO2 PK WND 32028/0514 WSHFT 0505=
200605120452 METAR KATL 120452Z 22007KT 10SM FEW060 BKN100 14/07 A2982 RMK AO2 SLP094 T01440067 402110144=
200605120352 METAR KATL 120352Z 23009KT 10SM CLR 15/06 A2983 RMK AO2 SLP097 T01500061=
200605120252 METAR KATL 120252Z 22005KT 10SM CLR 15/06 A2983 RMK AO2 SLP097 T01500061 53008=
200605120152 METAR KATL 120152Z 24006KT 10SM CLR 16/06 A2982 RMK AO2 SLP093 T01610061=
200605120052 METAR KATL 120052Z 26007KT 10SM FEW065 17/06 A2981 RMK AO2 SLP091 T01670056=
200605112352 METAR KATL 112352Z 25006KT 10SM FEW060 18/05 A2981 RMK AO2 SLP088 T01780050 10211 20178 53001=
200605112252 METAR KATL 112252Z 29011KT 10SM FEW060 19/04 A2980 RMK AO2 SLP086 T01940044=
200605112152 METAR KATL 112152Z 29014G20KT 10SM SCT060 19/04 A2980 RMK AO2 PK WND 30026/2111 SLP087 T01940044=
200605112052 METAR KATL 112052Z 30014G22KT 10SM FEW065 19/05 A2980 RMK AO2 SLP086 T01890050 56003=
200605111952 METAR KATL 111952Z 31017G22KT 10SM FEW060 20/06 A2980 RMK AO2 SLP087 T02000061=
200605111852 METAR KATL 111852Z 31017G21KT 10SM FEW060 20/07 A2981 RMK AO2 PK WND 28030/1813 SLP089 T02000067=
200605111752 METAR KATL 111752Z 29017G24KT 10SM FEW049 SCT060 19/08 A2981 RMK AO2 PK WND 31026/1731 SLP089 60000 T01940083 10206 20167 50003=
200605111652 METAR KATL 111652Z 27019G23KT 10SM SCT045 19/09 A2981 RMK AO2 PK WND 28028/1611 SLP090 T01940094=
200605111552 METAR KATL 111552Z 28014G26KT 10SM FEW035 SCT045 SCT250 19/11 A2981 RMK AO2 PK WND 27026/1546 SLP087 T01940111=
200605111452 METAR KATL 111452Z 29016G21KT 10SM FEW027 BKN034 19/12 A2980 RMK AO2 SLP086 60000 T01940117 53018=
200605111419 SPECI KATL 111419Z 29012KT 250V320 10SM FEW017 SCT023 BKN030 18/13 A2979 RMK AO2=
200605111419 SPECI KATL 111419Z 29012KT 250V320 10SM FEW017 SCT023 BKN030 18/13 A2979 RMK AO2=
200605111352 METAR KATL 111352Z 28012G18KT 10SM FEW020 BKN025 OVC030 17/13 A2978 RMK AO2 RAE1254 SLP078 P0000 T01720133=
200605111327 SPECI KATL 111327Z 30014G24KT 10SM FEW010 SCT016 OVC024 17/13 A2977 RMK AO2 RAE1254 P0000=
200605111327 SPECI KATL 111327Z 30014G24KT 10SM FEW010 SCT016 OVC024 17/13 A2977 RMK AO2 RAE1254 P0000=
200605111252 METAR KATL 111252Z 26011KT 7SM -RA BKN014 BKN040 OVC085 18/16 A2975 RMK AO2 RAB42 SLP068 BINOVC P0000 T01780161=
200605111248 SPECI KATL 111248Z 26008KT 5SM -RA BR BKN014 BKN040 BKN085 BKN250 18/16 A2975 RMK AO2 RAB42 P0000=
200605111248 SPECI KATL 111248Z 26008KT 5SM -RA BR BKN014 BKN040 BKN085 BKN250 18/16 A2975 RMK AO2 RAB42 P0000=
200605111152 METAR KATL 111152Z 24008KT 10SM FEW008 BKN024 BKN120 OVC200 17/16 A2975 RMK AO2 DZB10E29 SLP070 P0000 60000 70064 T01720156 10183 20167 53015=
200605111133 SPECI KATL 111133Z 23009KT 10SM SCT008 OVC023 17/16 A2975 RMK AO2 DZB10E29 P0000=
200605111133 SPECI KATL 111133Z 23009KT 10SM SCT008 OVC023 17/16 A2975 RMK AO2 DZB10E29 P0000=
200605111052 METAR KATL 111052Z 24007KT 10SM OVC008 17/16 A2973 RMK AO2 CIG 007V013 SLP063 T01720156=
200605111038 SPECI KATL 111038Z 25009KT 8SM BKN008 OVC014 17/16 A2973 RMK AO2=
200605111038 SPECI KATL 111038Z 25009KT 8SM BKN008 OVC014 17/16 A2973 RMK AO2=
200605110952 METAR KATL 110952Z 24012KT 10SM BKN014 OVC020 18/15 A2972 RMK AO2 SLP058 T01780150=
200605110943 SPECI KATL 110943Z 23012KT 10SM BKN012 OVC018 18/15 A2972 RMK AO2=
200605110943 SPECI KATL 110943Z 23012KT 10SM BKN012 OVC018 18/15 A2972 RMK AO2=
200605110915 SPECI KATL 110915Z 24009KT 10SM BKN022 BKN250 18/15 A2970 RMK AO2=
200605110915 SPECI KATL 110915Z 24009KT 10SM BKN022 BKN250 18/15 A2970 RMK AO2=
200605110852 METAR KATL 110852Z COR 23009KT 10SM SCT022 BKN250 18/14 A2971 RMK AO2 SLP054 T01780144 55004=
200605110752 METAR KATL 110752Z 23010G17KT 10SM FEW180 BKN250 18/14 A2970 RMK AO2 SLP051 T01780144=
200605110652 METAR KATL 110652Z 22005KT 10SM SCT180 OVC250 17/15 A2970 RMK AO2 SLP053 T01720150=
200605110552 METAR KATL 110552Z 21005KT 10SM OVC200 17/15 A2972 RMK AO2 SLP058 60000 T01670150 10172 20167 56020=
200605110452 METAR KATL 110452Z 23005KT 10SM FEW150 OVC200 17/15 A2973 RMK AO2 SLP063 T01670150 402060161=
200605110352 METAR KATL 110352Z 21008KT 10SM BKN150 OVC200 17/15 A2976 RMK AO2 SLP071 T01670150=
200605110252 METAR KATL 110252Z 20007KT 10SM FEW070 BKN150 OVC200 17/14 A2978 RMK AO2 RAB25E34 SLP080 P0000 60000 T01670144 51025=
200605110152 METAR KATL 110152Z 20011KT 10SM SCT075 BKN090 OVC150 17/14 A2977 RMK AO2 RAB28E40 SLP076 LTG DSNT NW CB DSNT NW P0000 T01720144=
200605110052 METAR KATL 110052Z 18006KT 10SM FEW100 SCT150 BKN200 OVC250 17/15 A2974 RMK AO2 SLP067 ACC W-NW T01720150=
200605102352 METAR KATL 102352Z 15015G23KT 10SM FEW060 SCT100 BKN140 OVC200 17/15 A2970 RMK AO2 RAE49 SLP054 CBMAM OHD-ALQDS SHRA NE-SE P0013 60064 T01720150 10206 20167 58064=
200605102343 SPECI KATL 102343Z 14017G25KT 10SM -RA FEW035 SCT080 BKN140 OVC200 17/16 A2970 RMK AO2 CBMAM OHD-ALQDS P0013=
200605102343 SPECI KATL 102343Z 14017G25KT 10SM -RA FEW035 SCT080 BKN140 OVC200 17/16 A2970 RMK AO2 CBMAM OHD-ALQDS P0013=
200605102320 SPECI KATL 102320Z 16010KT 7SM -RA SCT030 BKN055 OVC070 17/16 A2985 RMK AO2 PRESFR P0009=
200605102320 SPECI KATL 102320Z 16010KT 7SM -RA SCT030 BKN055 OVC070 17/16 A2985 RMK AO2 PRESFR P0009=
200605102252 METAR KATL 102252Z COR 23009KT 2 1/2SM RA BR FEW015 BKN030 OVC060 17/16 A2993 RMK AO2 SFC VIS 3 TSB23E52 SLP133 TS MOV E P0028 T01720156=
200605102224 SPECI KATL 102224Z 24010KT 2 1/2SM +TSRA BR BKN030CB BKN055 OVC070 18/16 A2995 RMK AO2 TSB23 OCNL LTGIC TS NW MOV E P0013=
200605102224 SPECI KATL 102224Z 24010KT 2 1/2SM +TSRA BR BKN030CB BKN055 OVC070 18/16 A2995 RMK AO2 TSB23 OCNL LTGIC TS NW MOV E P0013=
200605102216 SPECI KATL 102216Z 25011KT 2 1/2SM +RA BR BKN035 BKN055 OVC070 18/17 A2994 RMK AO2 PRESRR P0008=
200605102216 SPECI KATL 102216Z 25011KT 2 1/2SM +RA BR BKN035 BKN055 OVC070 18/17 A2994 RMK AO2 PRESRR P0008=
200605102152 METAR KATL 102152Z 19007KT 3SM RA BR SCT035 BKN070 OVC090 19/17 A2989 RMK AO2 SLP118 P0019 T01890172=
200605102148 SPECI KATL 102148Z 19007KT 3SM RA BR SCT035 BKN070 OVC090 19/17 A2990 RMK AO2 P0018=
200605102148 SPECI KATL 102148Z 19007KT 3SM RA BR SCT035 BKN070 OVC090 19/17 A2990 RMK AO2 P0018=
200605102118 SPECI KATL 102118Z 20005KT 1 1/2SM +RA BR FEW015 BKN028 OVC070 19/18 A2990 RMK AO2 SFC VIS 2 P0008=
200605102118 SPECI KATL 102118Z 20005KT 1 1/2SM +RA BR FEW015 BKN028 OVC070 19/18 A2990 RMK AO2 SFC VIS 2 P0008=
200605102104 SPECI KATL 102104Z 26005KT 3SM -RA BR SCT016 SCT034 OVC070 19/18 A2990 RMK AO2 TWR VIS 4 LTG DSNT S-SW-W CB DSNT S-SW-W P0003=
200605102104 SPECI KATL 102104Z 26005KT 3SM -RA BR SCT016 SCT034 OVC070 19/18 A2990 RMK AO2 TWR VIS 4 LTG DSNT S-SW-W CB DSNT S-SW-W P0003=
200605102052 METAR KATL 102052Z 31009KT 3SM -RA BR BKN016 BKN030 OVC100 19/18 A2991 RMK AO2 TWR VIS 4 RAB05 SLP121 LTG DSNT S-SW-W-NW CB DSNT S-SW-W-NW MOV E P0003 60004 T01940183 53004=
200605102031 SPECI KATL 102031Z 36004KT 6SM -RA FEW018 BKN023 BKN100 OVC150 21/18 A2988 RMK AO2 RAB05 PRESRR CB DSNT S-SW-W MOV E P0001=
200605102031 SPECI KATL 102031Z 36004KT 6SM -RA FEW018 BKN023 BKN100 OVC150 21/18 A2988 RMK AO2 RAB05 PRESRR CB DSNT S-SW-W MOV E P0001=
200605101952 METAR KATL 101952Z 11006KT 6SM HZ FEW015 SCT055 BKN110 OVC150 21/17 A2984 RMK AO2 RAB04E45 SLP099 LTG DSNT N CB DSNT N MOV E SHRA DSNT W-N P0001 T02060172=
200605101917 SPECI KATL 101917Z 15007KT 6SM -RA FEW005 BKN030 OVC110 20/17 A2987 RMK AO2 RAB04 P0001=
200605101917 SPECI KATL 101917Z 15007KT 6SM -RA FEW005 BKN030 OVC110 20/17 A2987 RMK AO2 RAB04 P0001=
200605101852 METAR KATL 101852Z VRB06KT 8SM BKN020 BKN030 OVC120 21/17 A2990 RMK AO2 RAB31E32 SLP119 P0000 T02060167=
200605101831 SPECI KATL 101831Z 16007KT 8SM -RA BKN020 BKN040 BKN120 OVC150 21/17 A2989 RMK AO2 RAB31 P0000=
200605101831 SPECI KATL 101831Z 16007KT 8SM -RA BKN020 BKN040 BKN120 OVC150 21/17 A2989 RMK AO2 RAB31 P0000=
200605101752 METAR KATL 101752Z 15009KT 120V180 6SM HZ FEW016 SCT040 BKN120 OVC150 20/16 A2989 RMK AO2 SLP117 60000 T02000161 10200 20167 56034=
200605101718 SPECI KATL 101718Z 18009G18KT 6SM HZ SCT016 BKN100 OVC150 20/16 A2992 RMK AO2=
200605101718 SPECI KATL 101718Z 18009G18KT 6SM HZ SCT016 BKN100 OVC150 20/16 A2992 RMK AO2=
200605101705 SPECI KATL 101705Z 17010G16KT 6SM HZ OVC016 20/16 A2992 RMK AO2=
200605101705 SPECI KATL 101705Z 17010G16KT 6SM HZ OVC016 20/16 A2992 RMK AO2=
200605101652 METAR KATL 101652Z 19008KT 6SM HZ OVC014 19/16 A2993 RMK AO2 SLP131 T01940161=
200605101552 METAR KATL 101552Z 13009KT 2 1/2SM BR OVC010 18/16 A2991 RMK AO2 SFC VIS 4 RAB11E29 CIG 008V013 PRESFR SLP122 P0000 T01830161=
200605101502 SPECI KATL 101502Z 15006KT 2 1/2SM HZ OVC010 18/15 A2998 RMK AO2 SFC VIS 4 CIG 008V013=
200605101502 SPECI KATL 101502Z 15006KT 2 1/2SM HZ OVC010 18/15 A2998 RMK AO2 SFC VIS 4 CIG 008V013=
200605101452 METAR KATL 101452Z VRB03KT 2 1/2SM BR OVC008 18/15 A3000 RMK AO2 SFC VIS 4 CIG 008V011 SLP152 T01780150 51024=
200605101352 METAR KATL 101352Z 00000KT 2 1/2SM BR OVC008 17/15 A2999 RMK AO2 SFC VIS 3 SLP150 T01720150=
200605101252 METAR KATL 101252Z VRB03KT 2 1/2SM BR OVC008 17/14 A2997 RMK AO2 SFC VIS 3 SLP145 T01670144=
200605101234 SPECI KATL 101234Z 16004KT 2 1/2SM BR BKN008 OVC018 17/14 A2996 RMK AO2 SFC VIS 3 PRESRR=
200605101234 SPECI KATL 101234Z 16004KT 2 1/2SM BR BKN008 OVC018 17/14 A2996 RMK AO2 SFC VIS 3 PRESRR=
200605101152 METAR KATL 101152Z 12007KT 2 1/2SM BR BKN012 BKN025 BKN140 BKN250 17/14 A2992 RMK AO2 SFC VIS 4 SLP128 T01670144 10172 20161 58002=
200605101147 SPECI KATL 101147Z 11008KT 2 1/2SM BR SCT008 BKN022 BKN140 BKN250 16/14 A2992 RMK AO2 SFC VIS 4=
200605101147 SPECI KATL 101147Z 11008KT 2 1/2SM BR SCT008 BKN022 BKN140 BKN250 16/14 A2992 RMK AO2 SFC VIS 4=
200605101124 SPECI KATL 101124Z 11006KT 2 1/2SM BR OVC008 16/14 A2993 RMK AO2 SFC VIS 4=
200605101124 SPECI KATL 101124Z 11006KT 2 1/2SM BR OVC008 16/14 A2993 RMK AO2 SFC VIS 4=
200605101052 METAR KATL 101052Z 10008KT 2 1/2SM BR OVC010 16/14 A2994 RMK AO2 SFC VIS 5 SLP134 T01610139=
200605101039 SPECI KATL 101039Z 12005KT 2 1/2SM BR OVC010 16/14 A2994 RMK AO2 SFC VIS 5=
200605101039 SPECI KATL 101039Z 12005KT 2 1/2SM BR OVC010 16/14 A2994 RMK AO2 SFC VIS 5=
200605101035 SPECI KATL 101035Z 12005KT 5SM HZ OVC010 17/14 A2994 RMK AO2=
200605101035 SPECI KATL 101035Z 12005KT 5SM HZ OVC010 17/14 A2994 RMK AO2=
200605100952 METAR KATL 100952Z 10006KT 5SM BR OVC008 17/14 A2993 RMK AO2 SLP130 T01670144=
200605100930 SPECI KATL 100930Z 09006KT 5SM BR BKN008 BKN026 BKN250 17/14 A2994 RMK AO2=
200605100930 SPECI KATL 100930Z 09006KT 5SM BR BKN008 BKN026 BKN250 17/14 A2994 RMK AO2=
200605100910 SPECI KATL 100910Z 10007KT 6SM BR FEW009 BKN024 BKN250 17/14 A2994 RMK AO2=
200605100910 SPECI KATL 100910Z 10007KT 6SM BR FEW009 BKN024 BKN250 17/14 A2994 RMK AO2=
200605100852 METAR KATL 100852Z 11006KT 6SM BR OVC009 17/14 A2994 RMK AO2 SLP131 T01670144 50007=
200605100752 METAR KATL 100752Z 13005KT 5SM BR OVC009 17/15 A2994 RMK AO2 SLP132 T01720150=
200605100652 METAR KATL 100652Z 10006KT 5SM BR BKN008 OVC140 17/15 A2993 RMK AO2 SLP129 T01720150=
200605100632 SPECI KATL 100632Z 13006KT 5SM BR BKN008 BKN140 OVC200 17/15 A2992 RMK AO2=
200605100632 SPECI KATL 100632Z 13006KT 5SM BR BKN008 BKN140 OVC200 17/15 A2992 RMK AO2=
200605100552 METAR KATL 100552Z 14008KT 5SM BR FEW008 BKN140 OVC200 17/15 A2991 RMK AO2 SLP124 T01720150 10200 20172 56029=
200605100543 SPECI KATL 100543Z 12008KT 6SM BR SCT008 BKN140 OVC200 17/16 A2992 RMK AO2=
200605100543 SPECI KATL 100543Z 12008KT 6SM BR SCT008 BKN140 OVC200 17/16 A2992 RMK AO2=
200605100452 METAR KATL 100452Z 14009KT 7SM FEW025 BKN150 OVC200 18/16 A2994 RMK AO2 SLP134 T01780156 402110133=
200605100352 METAR KATL 100352Z 15011KT 8SM BKN030 BKN150 OVC200 18/14 A2995 RMK AO2 SLP137 T01830144=
200605100301 SPECI KATL 100301Z 10007KT 9SM FEW022 BKN030 OVC150 19/14 A2999 RMK AO2=
200605100301 SPECI KATL 100301Z 10007KT 9SM FEW022 BKN030 OVC150 19/14 A2999 RMK AO2=
200605100252 METAR KATL 100252Z 08007KT 9SM SCT022 OVC028 19/14 A3000 RMK AO2 SLP155 T01890144 51015=
200605100152 METAR KATL 100152Z 12006KT 9SM OVC022 19/14 A2999 RMK AO2 SLP151 T01890144=
200605100052 METAR KATL 100052Z 12004KT 9SM BKN024 OVC032 19/14 A2998 RMK AO2 SLP148 T01940144=
200605100016 SPECI KATL 100016Z 10007KT 7SM BKN028 OVC032 20/14 A2996 RMK AO2=
200605100016 SPECI KATL 100016Z 10007KT 7SM BKN028 OVC032 20/14 A2996 RMK AO2=
200605092352 METAR KATL 092352Z 13007KT 7SM FEW025 BKN032 BKN075 OVC150 20/14 A2995 RMK AO2 SLP140 T02000144 10211 20189 53004=
200605092331 SPECI KATL 092331Z 13006KT 7SM FEW025 BKN032 BKN075 OVC150 20/14 A2994 RMK AO2=
200605092331 SPECI KATL 092331Z 13006KT 7SM FEW025 BKN032 BKN075 OVC150 20/14 A2994 RMK AO2=
200605092252 METAR KATL 092252Z 13006KT 7SM OVC026 20/14 A2994 RMK AO2 SLP136 T02000144=
200605092152 METAR KATL 092152Z 12005KT 7SM OVC025 20/14 A2994 RMK AO2 SLP133 T02000139=
200605092052 METAR KATL 092052Z 10007KT 9SM OVC026 21/14 A2994 RMK AO2 SLP135 T02060139 58016=
200605091952 METAR KATL 091952Z 13005KT 9SM BKN028 21/13 A2996 RMK AO2 SLP141 T02060133=
200605091852 METAR KATL 091852Z 15008KT 9SM BKN030 BKN050 21/13 A2998 RMK AO2 SLP147 T02060133=
200605091752 METAR KATL 091752Z 09007KT 9SM FEW025 BKN033 BKN050 19/13 A2999 RMK AO2 SLP152 T01940128 10194 20133 58013=
200605091652 METAR KATL 091652Z 14006KT 8SM SCT020 BKN048 18/12 A3002 RMK AO2 SLP160 T01830122=
200605091552 METAR KATL 091552Z 09008KT 070V130 9SM BKN018 BKN043 18/12 A3003 RMK AO2 SLP166 T01780122=
200605091523 SPECI KATL 091523Z 09009KT 9SM FEW018 BKN043 17/12 A3002 RMK AO2=
200605091523 SPECI KATL 091523Z 09009KT 9SM FEW018 BKN043 17/12 A3002 RMK AO2=
200605091452 METAR KATL 091452Z 10009KT 9SM BKN018 BKN035 BKN043 16/11 A3003 RMK AO2 SLP166 T01610111 55000=
200605091429 SPECI KATL 091429Z 09007KT 9SM BKN016 OVC045 16/12 A3003 RMK AO2=
200605091429 SPECI KATL 091429Z 09007KT 9SM BKN016 OVC045 16/12 A3003 RMK AO2=
200605091352 METAR KATL 091352Z 08010KT 8SM FEW015 BKN045 15/11 A3002 RMK AO2 SLP163 T01500111=
200605091252 METAR KATL 091252Z 07011KT 8SM SCT014 BKN045 BKN250 14/11 A3003 RMK AO2 SLP165 T01390106=
200605091247 SPECI KATL 091247Z 07011KT 8SM SCT014 BKN045 BKN250 14/11 A3003 RMK AO2=
200605091247 SPECI KATL 091247Z 07011KT 8SM SCT014 BKN045 BKN250 14/11 A3003 RMK AO2=
200605091207 SPECI KATL 091207Z 08011KT 6SM BR OVC010 13/11 A3002 RMK AO2 CIG 008V013=
200605091207 SPECI KATL 091207Z 08011KT 6SM BR OVC010 13/11 A3002 RMK AO2 CIG 008V013=
200605091152 METAR KATL 091152Z 09009KT 5SM BR OVC008 13/11 A3002 RMK AO2 SLP162 T01330111 10150 20133 53017=
200605091052 METAR KATL 091052Z 09010KT 5SM BR OVC007 13/12 A2999 RMK AO2 SLP153 T01330117=
200605091040 SPECI KATL 091040Z 08011KT 5SM BR BKN007 OVC010 14/12 A2999 RMK AO2=
200605091040 SPECI KATL 091040Z 08011KT 5SM BR BKN007 OVC010 14/12 A2999 RMK AO2=
200605090952 METAR KATL 090952Z 10009KT 6SM BR OVC010 14/12 A2997 RMK AO2 SLP147 T01440122=
200605090903 SPECI KATL 090903Z 08010KT 7SM OVC011 14/12 A2997 RMK AO2=
200605090903 SPECI KATL 090903Z 08010KT 7SM OVC011 14/12 A2997 RMK AO2=
200605090852 METAR KATL 090852Z 09011KT 7SM BKN008 OVC014 14/13 A2996 RMK AO2 SLP143 T01440128 56005=
200605090848 SPECI KATL 090848Z 09010KT 6SM BR BKN008 OVC014 14/13 A2997 RMK AO2=
200605090848 SPECI KATL 090848Z 09010KT 6SM BR BKN008 OVC014 14/13 A2997 RMK AO2=
200605090823 SPECI KATL 090823Z 08007KT 6SM BR FEW008 OVC016 14/13 A2997 RMK AO2=
200605090823 SPECI KATL 090823Z 08007KT 6SM BR FEW008 OVC016 14/13 A2997 RMK AO2=
200605090752 METAR KATL 090752Z 10010KT 6SM BR BKN010 OVC016 14/13 A2997 RMK AO2 CIG 007V012 SLP146 T01440128=
200605090744 SPECI KATL 090744Z 08008KT 6SM BR SCT010 OVC016 14/13 A2997 RMK AO2=
200605090744 SPECI KATL 090744Z 08008KT 6SM BR SCT010 OVC016 14/13 A2997 RMK AO2=
200605090705 SPECI KATL 090705Z 11007KT 6SM BR SCT009 OVC014 15/13 A2997 RMK AO2=
200605090705 SPECI KATL 090705Z 11007KT 6SM BR SCT009 OVC014 15/13 A2997 RMK AO2=
200605090658 SPECI KATL 090658Z 11009KT 6SM BR SCT009 OVC015 15/13 A2998 RMK AO2=
200605090658 SPECI KATL 090658Z 11009KT 6SM BR SCT009 OVC015 15/13 A2998 RMK AO2=
200605090652 METAR KATL 090652Z 11006KT 6SM BR BKN008 OVC014 15/13 A2998 RMK AO2 CIG 007V012 SLP148 T01500128=
200605090634 SPECI KATL 090634Z 12006KT 6SM BR OVC008 15/13 A2999 RMK AO2 CIG 007V012=
200605090634 SPECI KATL 090634Z 12006KT 6SM BR OVC008 15/13 A2999 RMK AO2 CIG 007V012=
200605090552 METAR KATL 090552Z 13009KT 6SM BR BKN010 OVC044 15/13 A3000 RMK AO2 SLP157 T01500128 10178 20150 53002=
200605090452 METAR KATL 090452Z 13007KT 6SM HZ BKN010 OVC040 16/13 A3000 RMK AO2 SLP156 CIG 008V013 T01560128 401940128=
200605090420 SPECI KATL 090420Z 12007KT 7SM BKN010 OVC040 16/13 A3000 RMK AO2=
200605090420 SPECI KATL 090420Z 12007KT 7SM BKN010 OVC040 16/13 A3000 RMK AO2=
200605090352 METAR KATL 090352Z 11009KT 7SM FEW010 OVC040 16/13 A2999 RMK AO2 SLP153 BINOVC T01560133=
200605090335 SPECI KATL 090335Z 12006KT 7SM SCT010 BKN040 BKN200 16/13 A2999 RMK AO2=
200605090335 SPECI KATL 090335Z 12006KT 7SM SCT010 BKN040 BKN200 16/13 A2999 RMK AO2=
200605090312 SPECI KATL 090312Z 13005KT 7SM BKN010 BKN040 BKN200 16/13 A3000 RMK AO2=
200605090312 SPECI KATL 090312Z 13005KT 7SM BKN010 BKN040 BKN200 16/13 A3000 RMK AO2=
200605090252 METAR KATL 090252Z 10010KT 7SM FEW012 BKN150 BKN200 16/14 A3000 RMK AO2 SLP155 T01610139 53011=
200605090152 METAR KATL 090152Z 12008KT 6SM HZ BKN038 BKN150 OVC200 17/14 A2998 RMK AO2 SLP149 T01720139=
200605090052 METAR KATL 090052Z 11007KT 7SM BKN038 BKN150 OVC200 18/13 A2997 RMK AO2 SLP148 T01780133=
200605082352 METAR KATL 082352Z 09006KT 6SM HZ FEW150 SCT200 SCT250 18/13 A2996 RMK AO2 SLP143 T01780133 10194 20161 53001=
200605082252 METAR KATL 082252Z 08008KT 5SM HZ FEW022 SCT180 BKN250 19/14 A2994 RMK AO2 SLP136 T01890139=
200605082152 METAR KATL 082152Z 09008KT 6SM HZ FEW022 BKN200 OVC250 19/14 A2994 RMK AO2 SLP134 T01890139=
200605082103 SPECI KATL 082103Z VRB05KT 6SM HZ FEW024 SCT030 OVC250 19/13 A2995 RMK AO2=
200605082103 SPECI KATL 082103Z VRB05KT 6SM HZ FEW024 SCT030 OVC250 19/13 A2995 RMK AO2=
200605082052 METAR KATL 082052Z 09005KT 6SM HZ BKN024 BKN030 OVC250 19/13 A2996 RMK AO2 SLP142 T01890133 58015=
200605082039 SPECI KATL 082039Z 06004KT 6SM HZ BKN024 BKN030 OVC250 19/13 A2996 RMK AO2=
200605082039 SPECI KATL 082039Z 06004KT 6SM HZ BKN024 BKN030 OVC250 19/13 A2996 RMK AO2=
200605081952 METAR KATL 081952Z 09004KT 6SM HZ FEW025 SCT030 SCT095 BKN250 18/13 A2998 RMK AO2 SLP149 T01830133=
200605081935 SPECI KATL 081935Z 12003KT 6SM HZ BKN020 BKN030 BKN040 18/13 A2998 RMK AO2=
200605081935 SPECI KATL 081935Z 12003KT 6SM HZ BKN020 BKN030 BKN040 18/13 A2998 RMK AO2=
200605081852 METAR KATL 081852Z 12006KT 4SM HZ FEW015 SCT025 BKN035 18/14 A3000 RMK AO2 SLP155 T01780139=
200605081840 SPECI KATL 081840Z 12005KT 6SM HZ SCT013 BKN027 17/13 A3000 RMK AO2=
200605081840 SPECI KATL 081840Z 12005KT 6SM HZ SCT013 BKN027 17/13 A3000 RMK AO2=
200605081806 SPECI KATL 081806Z AUTO 12005KT 6SM HZ OVC013 16/13 A3001 RMK AO2 TSNO $=
200605081806 SPECI KATL 081806Z AUTO 12005KT 6SM HZ OVC013 16/13 A3001 RMK AO2 TSNO $=
200605081752 METAR KATL 081752Z COR 12006KT 6SM HZ OVC012 16/13 A3001 RMK AO2 SLP158 T01610128 10167 20128$=
200605081652 METAR KATL 081652Z 08004KT 6SM HZ OVC012 16/13 A3002 RMK AO2 SLP162 T01610128=
200605081552 METAR KATL 081552Z 12004KT 6SM HZ OVC012 16/12 A3002 RMK AO2 SLP165 T01560122=
200605081512 SPECI KATL 081512Z 05005KT 6SM BR OVC010 14/12 A3004 RMK AO2=
200605081512 SPECI KATL 081512Z 05005KT 6SM BR OVC010 14/12 A3004 RMK AO2=
200605081504 SPECI KATL 081504Z 08004KT 3SM OVC010 14/12 A3003 RMK AO2 SFC VIS 7 CIG 008V012=
200605081504 SPECI KATL 081504Z 08004KT 3SM OVC010 14/12 A3003 RMK AO2 SFC VIS 7 CIG 008V012=
200605081452 METAR KATL 081452Z 04005KT 3SM HZ OVC008 14/12 A3003 RMK AO2 SFC VIS 6 CIG 008V011 SLP167 T01440117 51013=
200605081435 SPECI KATL 081435Z 03006KT 3SM BR OVC008 14/12 A3003 RMK AO2 SFC VIS 5=
200605081435 SPECI KATL 081435Z 03006KT 3SM BR OVC008 14/12 A3003 RMK AO2 SFC VIS 5=
200605081352 METAR KATL 081352Z 10005KT 2 1/2SM BR OVC006 13/12 A3002 RMK AO2 SFC VIS 5 SLP164 T01330117=
200605081252 METAR KATL 081252Z 09006KT 2 1/2SM BR OVC006 13/11 A3002 RMK AO2 SFC VIS 5 SLP165 T01280111=
200605081152 METAR KATL 081152Z 08009KT 2 1/2SM BR OVC006 13/12 A2999 RMK AO2 SFC VIS 4 SLP154 70130 T01280117 10144 20128 53009=
200605081142 SPECI KATL 081142Z 08008KT 2SM BR OVC006 13/12 A2999 RMK AO2 SFC VIS 4=
200605081142 SPECI KATL 081142Z 08008KT 2SM BR OVC006 13/12 A2999 RMK AO2 SFC VIS 4=
200605081052 METAR KATL 081052Z 07007KT 2 1/2SM BR OVC004 13/12 A2998 RMK AO2 SFC VIS 5 SLP149 T01280117=
200605081050 SPECI KATL 081050Z 08007KT 2 1/2SM BR OVC004 13/12 A2998 RMK AO2 SFC VIS 5=
200605081050 SPECI KATL 081050Z 08007KT 2 1/2SM BR OVC004 13/12 A2998 RMK AO2 SFC VIS 5=
200605080952 METAR KATL 080952Z 09006KT 1/2SM BR OVC004 13/12 A2997 RMK AO2 SFC VIS 5 SLP143 TWRINC T01330122=
200605080852 METAR KATL 080852Z 07007KT 1/2SM BR OVC004 13/12 A2995 RMK AO2 SFC VIS 3 SLP138 TWRINC T01330122 56004=
200605080752 METAR KATL 080752Z 07006KT 1/2SM BR OVC002 13/13 A2995 RMK AO2 SFC VIS 3 CIG 001V006 SLP139 TWRINC T01330128=
200605080652 METAR KATL 080652Z 08008KT 1/2SM BR OVC004 14/13 A2995 RMK AO2 SFC VIS 3 SLP138 TWRINC T01390128=
200605080552 METAR KATL 080552Z 06010KT 1/2SM BR OVC002 14/14 A2996 RMK AO2 SFC VIS 1 1/2 SLP142 T01440139 10167 20144 50002=
200605080452 METAR KATL 080452Z 06009KT 1/2SM BR SCT002 OVC004 14/14 A2997 RMK AO2 SFC VIS 1 1/2 SLP144 T01440139 402280144=
200605080352 METAR KATL 080352Z 08008KT 1/2SM BR OVC004 15/14 A2996 RMK AO2 SFC VIS 1 1/2 SLP141 T01500139=
200605080252 METAR KATL 080252Z 04010KT 1/2SM BR OVC004 16/14 A2996 RMK AO2 SFC VIS 1 1/2 CIG 002V006 SLP141 T01560144 53013=
200605080243 SPECI KATL 080243Z 07009KT 1/2SM BR OVC004 16/14 A2996 RMK AO2 SFC VIS 2 CIG 002V006=
200605080243 SPECI KATL 080243Z 07009KT 1/2SM BR OVC004 16/14 A2996 RMK AO2 SFC VIS 2 CIG 002V006=
200605080227 SPECI KATL 080227Z 05010KT 1 1/2SM BR OVC004 16/14 A2996 RMK AO2 SFC VIS 2=
200605080227 SPECI KATL 080227Z 05010KT 1 1/2SM BR OVC004 16/14 A2996 RMK AO2 SFC VIS 2=
200605080152 METAR KATL 080152Z 06007KT 1/2SM BR OVC004 16/14 A2995 RMK AO2 SFC VIS 1 1/2 SLP139 T01560144=
200605080052 METAR KATL 080052Z 06010KT 1/2SM BR OVC004 16/15 A2992 RMK AO2 SFC VIS 2 TSE05 SLP128 TS MOV E T01610150=
200605080046 SPECI KATL 080046Z 04011KT 1/2SM BR OVC004 16/15 A2992 RMK AO2 SFC VIS 2 TSE05 TS MOV E=
200605080046 SPECI KATL 080046Z 04011KT 1/2SM BR OVC004 16/15 A2992 RMK AO2 SFC VIS 2 TSE05 TS MOV E=
200605080007 SPECI KATL 080007Z 06011KT 1/2SM BR OVC005 17/16 A2990 RMK AO2 SFC VIS 1 1/2 TSE05 TS MOV E=
200605080007 SPECI KATL 080007Z 06011KT 1/2SM BR OVC005 17/16 A2990 RMK AO2 SFC VIS 1 1/2 TSE05 TS MOV E=
200605072352 METAR KATL 072352Z 05011KT 1SM TS BR OVC007CB 17/16 A2990 RMK AO2 SFC VIS 2 TSB13RAE28 SLP122 OCNL LTGIC TS S MOV E P0015 60015 T01670156 10228 20167 53010=
200605072336 SPECI KATL 072336Z 06011KT 3SM TS BR BKN007CB OVC040 17/16 A2989 RMK AO2 TSB13RAE28 OCNL LTGIC TS S-OHD-W MOV E P0015=
200605072336 SPECI KATL 072336Z 06011KT 3SM TS BR BKN007CB OVC040 17/16 A2989 RMK AO2 TSB13RAE28 OCNL LTGIC TS S-OHD-W MOV E P0015=
200605072320 SPECI KATL 072320Z 05013KT 4SM -TSRA BR SCT007 BKN018CB OVC040 18/17 A2988 RMK AO2 TSB13 OCNL LTGIC TS OHD-E MOV E P0015=
200605072320 SPECI KATL 072320Z 05013KT 4SM -TSRA BR SCT007 BKN018CB OVC040 18/17 A2988 RMK AO2 TSB13 OCNL LTGIC TS OHD-E MOV E P0015=
200605072314 SPECI KATL 072314Z 05011KT 2SM TSRA BR FEW007 BKN018CB OVC040 18/17 A2988 RMK AO2 TSB13 OCNL LTGIC TS E-OHD-W MOV E P0015=
200605072314 SPECI KATL 072314Z 05011KT 2SM TSRA BR FEW007 BKN018CB OVC040 18/17 A2988 RMK AO2 TSB13 OCNL LTGIC TS E-OHD-W MOV E P0015=
200605072252 METAR KATL 072252Z 04012KT 6SM -RA BKN018CB BKN027 BKN060 19/16 A2989 RMK AO2 RAB47 SLP115 CB VC NE P0000 T01940161=
200605072247 SPECI KATL 072247Z 06012KT 7SM -RA BKN018 BKN027 BKN060 21/17 A2988 RMK AO2 RAB47 DSNT CB NE P0000=
200605072247 SPECI KATL 072247Z 06012KT 7SM -RA BKN018 BKN027 BKN060 21/17 A2988 RMK AO2 RAB47 DSNT CB NE P0000=
200605072152 METAR KATL 072152Z 09008KT 7SM SCT024CB BKN032 BKN055 21/17 A2987 RMK AO2 SLP108 CB VC SW SHRA VC SW T02110167 $=
200605072052 METAR KATL 072052Z COR 13004KT 8SM SCT022 BKN055 BKN110 22/16 A2987 RMK AO2 SLP108 T02170161 58017=
200605072013 SPECI KATL 072013Z 00000KT 10SM FEW022 BKN027 OVC045 21/16 A2989 RMK AO2=
200605072013 SPECI KATL 072013Z 00000KT 10SM FEW022 BKN027 OVC045 21/16 A2989 RMK AO2=
200605071952 METAR KATL 071952Z 15006KT 8SM SCT023 BKN031 BKN040 21/16 A2989 RMK AO2 SLP116 T02060161=
200605071852 METAR KATL 071852Z 17006KT 8SM BKN019 BKN024 BKN060 20/16 A2991 RMK AO2 SLP120 T02000156=
200605071816 SPECI KATL 071816Z VRB05KT 8SM BKN017 BKN050 19/16 A2991 RMK AO2=
200605071816 SPECI KATL 071816Z VRB05KT 8SM BKN017 BKN050 19/16 A2991 RMK AO2=
200605071752 METAR KATL 071752Z 13005KT 8SM BKN014 BKN019 BKN085 19/16 A2992 RMK AO2 SLP126 60115 T01940156 10194 20156 56014=
200605071724 SPECI KATL 071724Z 15005KT 8SM BKN010 BKN015 BKN085 19/16 A2993 RMK AO2=
200605071724 SPECI KATL 071724Z 15005KT 8SM BKN010 BKN015 BKN085 19/16 A2993 RMK AO2=
200605071652 METAR KATL 071652Z VRB06KT 2 1/2SM BKN010 BKN015 OVC090 18/16 A2994 RMK AO2 SFC VIS 7 SLP133 T01830156=
200605071644 SPECI KATL 071644Z VRB04KT 2 1/2SM BKN008 OVC090 18/16 A2994 RMK AO2 SFC VIS 7=
200605071644 SPECI KATL 071644Z VRB04KT 2 1/2SM BKN008 OVC090 18/16 A2994 RMK AO2 SFC VIS 7=
200605071608 SPECI KATL 071608Z 08008KT 2 1/2SM SCT003 BKN091 18/16 A2993 RMK AO2 SFC VIS 9=
200605071608 SPECI KATL 071608Z 08008KT 2 1/2SM SCT003 BKN091 18/16 A2993 RMK AO2 SFC VIS 9=
200605071552 METAR KATL 071552Z 07007KT 2 1/2SM BR BKN003 BKN027 BKN085 17/16 A2994 RMK AO2 SFC VIS 4 RAE46 SLP132 P0008 T01720161=
200605071541 SPECI KATL 071541Z 10009KT 2 1/2SM -RA BR BKN003 BKN027 BKN080 17/16 A2994 RMK AO2 SFC VIS 3 P0008=
200605071541 SPECI KATL 071541Z 10009KT 2 1/2SM -RA BR BKN003 BKN027 BKN080 17/16 A2994 RMK AO2 SFC VIS 3 P0008=
200605071532 SPECI KATL 071532Z 10006KT 2 1/2SM -RA BR SCT003 BKN026 OVC080 16/16 A2996 RMK AO2 SFC VIS 3 P0008=
200605071532 SPECI KATL 071532Z 10006KT 2 1/2SM -RA BR SCT003 BKN026 OVC080 16/16 A2996 RMK AO2 SFC VIS 3 P0008=
200605071529 SPECI KATL 071529Z 11006KT 2 1/2SM -RA BR SCT003 BKN041 OVC080 16/16 A2996 RMK AO2 SFC VIS 3 P0008=
200605071529 SPECI KATL 071529Z 11006KT 2 1/2SM -RA BR SCT003 BKN041 OVC080 16/16 A2996 RMK AO2 SFC VIS 3 P0008=
200605071525 SPECI KATL 071525Z 12006KT 2 1/2SM -RA BR SCT027 BKN041 OVC080 16/16 A2996 RMK AO2 SFC VIS 3 P0008=
200605071525 SPECI KATL 071525Z 12006KT 2 1/2SM -RA BR SCT027 BKN041 OVC080 16/16 A2996 RMK AO2 SFC VIS 3 P0008=
200605071508 SPECI KATL 071508Z 10006KT 2SM RA BR FEW005 BKN027 OVC044 16/15 A2996 RMK AO2 TWR VIS 2 1/2 P0006=
200605071508 SPECI KATL 071508Z 10006KT 2SM RA BR FEW005 BKN027 OVC044 16/15 A2996 RMK AO2 TWR VIS 2 1/2 P0006=
200605071452 METAR KATL 071452Z 03005KT 2 1/2SM RA BR BKN026 OVC044 16/15 A2996 RMK AO2 SFC VIS 3 TSB00 SLP141 TSE22 P0058 60107 T01610150 51006=
200605071423 SPECI KATL 071423Z COR 02007KT 2 1/2SM -RA BR FEW005 OVC034 16/15 A2996 RMK AO2 SFC VIS 5 TSB00E22 P0056=
200605071423 SPECI KATL 071423Z COR 02007KT 2 1/2SM -RA BR FEW005 OVC034 16/15 A2996 RMK AO2 SFC VIS 5 TSB00E22 P0056=
200605071415 SPECI KATL 071415Z COR 01006KT 2SM TSRA BR BKN007CB BKN013 OVC023 16/14 A2996 RMK AO2 SFC VIS 2 1/2 TSB00 TS OHD MOV E CB OHD MOV E FRQ LTGICCG P0055=
200605071415 SPECI KATL 071415Z COR 01006KT 2SM TSRA BR BKN007CB BKN013 OVC023 16/14 A2996 RMK AO2 SFC VIS 2 1/2 TSB00 TS OHD MOV E CB OHD MOV E FRQ LTGICCG P0055=
200605071405 SPECI KATL 071405Z 36005KT 1SM TSRA BR BKN007CB BKN013 OVC023 16/14 A2997 RMK AO2 TWR VIS 2 TSB00 TS OHD MOV E CB OHD MOV E FRQ LTGICCG P0050 RVRNO=
200605071405 SPECI KATL 071405Z 36005KT 1SM TSRA BR BKN007CB BKN013 OVC023 16/14 A2997 RMK AO2 TWR VIS 2 TSB00 TS OHD MOV E CB OHD MOV E FRQ LTGICCG P0050 RVRNO=
200605071357 SPECI KATL 071357Z COR 01003KT 1/2SM +TSRA FG BKN007 BKN010 OVC023 16/15 A2996 RMK AO2 TWR VIS 2 P0035 RVRNO=
200605071357 SPECI KATL 071357Z COR 01003KT 1/2SM +TSRA FG BKN007 BKN010 OVC023 16/15 A2996 RMK AO2 TWR VIS 2 P0035 RVRNO=
200605071347 METAR KATL 071347Z COR 35007KT 1 1/4SM +TSRA BR BKN007 BKN013 OVC025 16/15 A2996 RMK AO2 TWR VIS 2 TSE29B40 SLP141 P0037 T01560150=
200605071346 SPECI KATL 071346Z 34009KT 1 1/2SM +RA BR BKN007 BKN013 OVC025 16/15 A2997 RMK AO2 TWR VIS 2 TSE29 P0037=
200605071346 SPECI KATL 071346Z 34009KT 1 1/2SM +RA BR BKN007 BKN013 OVC025 16/15 A2997 RMK AO2 TWR VIS 2 TSE29 P0037=
200605071330 SPECI KATL 071330Z 36008KT 2SM RA BR SCT007 BKN013 OVC032 16/14 A2994 RMK AO2 SFC VIS 3 TSE29 P0021=
200605071330 SPECI KATL 071330Z 36008KT 2SM RA BR SCT007 BKN013 OVC032 16/14 A2994 RMK AO2 SFC VIS 3 TSE29 P0021=
200605071252 METAR KATL 071252Z 31005KT 2SM +TSRA BR FEW013 SCT022CB OVC037 16/14 A2995 RMK AO2 TSB52RAB09 SLP137 OCNL LTGICCG TS W MOV NW P0012 T01560144=
200605071250 SPECI KATL 071250Z 31005KT 2SM +RA BR FEW013 SCT022 OVC037 16/14 A2995 RMK AO2 RAB09 P0011=
200605071250 SPECI KATL 071250Z 31005KT 2SM +RA BR FEW013 SCT022 OVC037 16/14 A2995 RMK AO2 RAB09 P0011=
200605071152 METAR KATL 071152Z 13004KT 9SM SCT034 SCT042 BKN055 16/14 A2991 RMK AO2 RAE51 SLP123 P0020 60022 70022 T01610139 10194 20161 50003=
200605071136 SPECI KATL 071136Z 11004KT 5SM -RA BR BKN032 BKN045 OVC100 16/14 A2992 RMK AO2 P0020=
200605071136 SPECI KATL 071136Z 11004KT 5SM -RA BR BKN032 BKN045 OVC100 16/14 A2992 RMK AO2 P0020=
200605071120 SPECI KATL 071120Z 14005KT 4SM -RA BR BKN021 BKN043 OVC070 16/14 A2991 RMK AO2 P0019=
200605071120 SPECI KATL 071120Z 14005KT 4SM -RA BR BKN021 BKN043 OVC070 16/14 A2991 RMK AO2 P0019=
200605071109 SPECI KATL 071109Z 13003KT 2SM +RA BR BKN017 BKN043 OVC070 16/14 A2991 RMK AO2 TWR VIS 2 1/2 P0016=
200605071109 SPECI KATL 071109Z 13003KT 2SM +RA BR BKN017 BKN043 OVC070 16/14 A2991 RMK AO2 TWR VIS 2 1/2 P0016=
200605071100 SPECI KATL 071100Z 21004KT 1 3/4SM +RA BR SCT015 BKN043 OVC075 16/14 A2992 RMK AO2 TWR VIS 2 1/2 P0006=
200605071100 SPECI KATL 071100Z 21004KT 1 3/4SM +RA BR SCT015 BKN043 OVC075 16/14 A2992 RMK AO2 TWR VIS 2 1/2 P0006=
200605071052 METAR KATL 071052Z 24004KT 5SM -RA FEW042 BKN060 OVC095 17/14 A2991 RMK AO2 RAB19 SLP122 P0002 T01720139=
200605070952 METAR KATL 070952Z COR 19003KT 10SM OVC060 18/13 A2990 RMK AO2 SLP118 T01780133=
200605070852 METAR KATL 070852Z 09005KT 10SM OVC075 18/14 A2990 RMK AO2 RAE09B36E51 SLP118 P0000 60000 T01780139 56009=
200605070752 METAR KATL 070752Z 18003KT 10SM -RA OVC090 18/13 A2991 RMK AO2 RAE0659B46 SLP122 P0000 T01780133=
200605070652 METAR KATL 070652Z COR 00000KT 10SM -RA OVC100 19/11 A2991 RMK AO2 RAB50 SLP120 P0000 T01940111=
200605070552 METAR KATL 070552Z 00000KT 10SM BKN090 OVC100 19/12 A2993 RMK AO2 RAE12B29E44 SLP127 P0000 60000 T01890122 10217 20189 58002=
200605070452 METAR KATL 070452Z COR 33005KT 10SM -RA FEW060 BKN100 OVC150 19/12 A2994 RMK AO2 RAB44 SLP130 P0000 T01890122 402560139=
200605070352 METAR KATL 070352Z 34005KT 10SM FEW120 BKN150 OVC250 19/12 A2993 RMK AO2 SLP127 T01940117=
200605070252 METAR KATL 070252Z 35006KT 10SM FEW120 BKN150 OVC250 20/11 A2994 RMK AO2 SLP130 T02000111 51006=
200605070152 METAR KATL 070152Z 32005KT 10SM CLR 21/12 A2993 RMK AO2 SLP130 T02060117=
200605070052 METAR KATL 070052Z 33006KT 10SM BKN150 OVC250 21/11 A2992 RMK AO2 SLP127 T02110111=
200605062352 METAR KATL 062352Z 31009KT 9SM FEW100 BKN150 OVC250 22/11 A2992 RMK AO2 SLP125 T02170111 10256 20217 51003=
200605062252 METAR KATL 062252Z 29009KT 10SM FEW100 SCT150 OVC250 23/11 A2992 RMK AO2 SLP125 T02280111=
200605062152 METAR KATL 062152Z 31008KT 10SM FEW150 OVC250 24/11 A2991 RMK AO2 SLP123 T02390111=
200605062052 METAR KATL 062052Z 28009KT 10SM SCT100 BKN150 BKN250 24/12 A2991 RMK AO2 SLP121 T02440117 55001=
200605061952 METAR KATL 061952Z 28009KT 10SM BKN150 BKN250 26/11 A2991 RMK AO2 SLP121 T02560111=
200605061852 METAR KATL 061852Z 31008KT 10SM BKN150 BKN250 24/11 A2990 RMK AO2 SLP120 T02440106=
200605061752 METAR KATL 061752Z 34006KT 10SM FEW080 BKN150 BKN250 24/11 A2991 RMK AO2 SLP122 T02440106 10244 20150 58012=
200605061652 METAR KATL 061652Z 32011KT 10SM SCT150 BKN250 24/12 A2994 RMK AO2 SLP131 T02390117=
200605061552 METAR KATL 061552Z 33008KT 10SM FEW095 SCT150 BKN250 22/12 A2995 RMK AO2 SLP135 T02220117=
200605061452 METAR KATL 061452Z 30008KT 10SM CLR 21/12 A2995 RMK AO2 SLP135 T02060122 51012=
200605061352 METAR KATL 061352Z 30008KT 10SM CLR 19/12 A2995 RMK AO2 SLP136 T01890122=
200605061252 METAR KATL 061252Z 32007KT 10SM CLR 17/12 A2993 RMK AO2 SLP130 T01670117=
200605061152 METAR KATL 061152Z 32011KT 10SM FEW250 15/12 A2991 RMK AO2 SLP125 70005 T01500117 10161 20139 53012=
200605061052 METAR KATL 061052Z COR 32009KT 10SM FEW250 14/11 A2989 RMK AO2 SLP118 T01390111=
200605060952 METAR KATL 060952Z 32007KT 10SM CLR 14/11 A2988 RMK AO2 SLP114 T01390111=
200605060852 METAR KATL 060852Z 30008KT 10SM FEW250 14/12 A2988 RMK AO2 SLP112 T01440117 56012=
200605060752 METAR KATL 060752Z 31008KT 10SM FEW250 14/12 A2988 RMK AO2 SLP112 T01440122=
200605060652 METAR KATL 060652Z 30009KT 10SM FEW250 15/13 A2989 RMK AO2 SLP115 T01500128=
200605060552 METAR KATL 060552Z AUTO 31010KT 10SM CLR 16/13 A2991 RMK AO2 SLP123 60000 T01610133 10200 20161 TSNO=
200605060452 METAR KATL 060452Z AUTO 31013KT 10SM 17/13 A2993 RMK AO2 SLP127 T01670133 402440167 TSNO=
200605060451 METAR KATL 060451Z 31015KT 10SM FEW200 SCT250 17/14 A2989 RMK AO2 SLP118 T01670139=
200605060352 METAR KATL 060352Z 31012KT 10SM FEW150 BKN200 BKN250 17/14 A2990 RMK AO2 SLP118 T01720139=
200605060252 METAR KATL 060252Z 31013KT 10SM SCT150 BKN200 BKN250 18/15 A2989 RMK AO2 SLP115 60000 T01780150 53019=
200605060152 METAR KATL 060152Z 32013KT 10SM FEW015 SCT090 BKN200 BKN250 18/16 A2987 RMK AO2 SLP108 T01830156=
200605060052 METAR KATL 060052Z 32013KT 10SM FEW015 BKN070 BKN150 BKN250 19/16 A2985 RMK AO2 RAB04E14 SLP103 P0000 T01890161=
200605052352 METAR KATL 052352Z 29011KT 10SM FEW015 BKN035CB BKN055 BKN200 OVC250 20/17 A2983 RMK AO2 SLP095 CB N-E AND NW MOV SE SHRA N-E AND NW 60000 T02000172 10244 20194 53003=
200605052252 METAR KATL 052252Z 27010KT 10SM FEW035 BKN070 BKN090 BKN150 OVC250 21/17 A2983 RMK AO2 RAB2154E03 SLP094 TCU DSNT NW-N P0000 T02060172=
200605052152 METAR KATL 052152Z 26009KT 9SM FEW030 BKN065 BKN140 BKN200 21/17 A2982 RMK AO2 RAB06E21 SLP091 P0000 T02060172=
200605052052 METAR KATL 052052Z 24008KT 10SM FEW030CB BKN070 BKN090 BKN150 BKN250 22/16 A2982 RMK AO2 SLP093 CB VC N-NE AND DSNT SW-W MOV E SHRA VC N-NE AND DSNT SW-W T02220156 56022=
200605051952 METAR KATL 051952Z 25011KT 10SM SCT033 BKN080 BKN250 23/16 A2984 RMK AO2 SLP096 CB DSNT SW-W MOV NE SHRA DSNT SW-W T02330161=
200605051859 SPECI KATL 051859Z 24011G17KT 200V280 10SM SCT027 BKN033 24/17 A2987 RMK AO2=
200605051859 SPECI KATL 051859Z 24011G17KT 200V280 10SM SCT027 BKN033 24/17 A2987 RMK AO2=
200605051852 METAR KATL 051852Z 28014G20KT 10SM BKN025 BKN035 BKN150 BKN250 23/17 A2987 RMK AO2 SLP106 MDT CU ALQDS T02330172=
200605051845 SPECI KATL 051845Z 28014G20KT 10SM BKN025 BKN034 BKN150 OVC250 23/17 A2987 RMK AO2 MDT CU ALQDS=
200605051845 SPECI KATL 051845Z 28014G20KT 10SM BKN025 BKN034 BKN150 OVC250 23/17 A2987 RMK AO2 MDT CU ALQDS=
200605051752 METAR KATL 051752Z 26008KT 10SM FEW020TCU SCT024 SCT070 OVC150 22/17 A2989 RMK AO2 RAE1654 SLP115 CB DSNT NE TCU SE AND SW SHRA DSNT SE P0000 60002 T02170172 10233 20183 58013=
200605051652 METAR KATL 051652Z 24008KT 9SM -RA FEW010 SCT025 SCT060 BKN150 BKN250 21/19 A2991 RMK AO2 RAB29 SLP121 LTG DSNT E-S CB DSNT E-S AND DSNT NW MOV NE SHRA VC SE-S P0002 T02110189=
200605051635 SPECI KATL 051635Z 26009KT 5SM -RA SCT025TCU BKN033 BKN060 OVC150 21/18 A2992 RMK AO2 RAB29 TCU OHD-E-S-SW CB DSNT S P0001=
200605051635 SPECI KATL 051635Z 26009KT 5SM -RA SCT025TCU BKN033 BKN060 OVC150 21/18 A2992 RMK AO2 RAB29 TCU OHD-E-S-SW CB DSNT S P0001=
200605051552 METAR KATL 051552Z 26008KT 230V290 10SM FEW027 BKN055 BKN150 BKN250 23/17 A2993 RMK AO2 SLP127 T02330167=
200605051452 METAR KATL 051452Z VRB04KT 10SM FEW055 SCT150 BKN250 22/17 A2993 RMK AO2 SLP127 T02220172 51003=
200605051352 METAR KATL 051352Z 30003KT 9SM FEW065 SCT110 BKN150 BKN250 19/17 A2993 RMK AO2 SLP128 T01940167=
200605051252 METAR KATL 051252Z 21003KT 6SM BR FEW075 SCT110 BKN180 BKN250 19/17 A2993 RMK AO2 SLP128 T01890167=
200605051152 METAR KATL 051152Z 00000KT 9SM FEW075 SCT110 BKN180 OVC250 18/16 A2992 RMK AO2 SLP125 60003 70005 T01830161 10189 20178 50007=
200605051052 METAR KATL 051052Z 25007KT 8SM FEW070 SCT100 BKN180 BKN250 18/16 A2992 RMK AO2 SLP126 T01780161=
200605050952 METAR KATL 050952Z COR 24003KT 7SM SCT060 BKN110 OVC200 18/17 A2991 RMK AO2 SLP121 OCNL LTG DSNT S-SW CB DSNT S-SW T01780167=
200605050852 METAR KATL 050852Z 32003KT 10SM SCT075 OVC100 18/17 A2990 RMK AO2 RAE36 SLP116 P0003 60003 T01830167 58013=
200605050752 METAR KATL 050752Z 27006KT 7SM -RA BKN055 OVC110 18/17 A2992 RMK AO2 RAB37 SLP126 P0000 T01830167=
200605050652 METAR KATL 050652Z 31005KT 8SM BKN085 BKN140 OVC200 19/17 A2993 RMK AO2 SLP124 T01890167=
200605050552 METAR KATL 050552Z 32003KT 7SM BKN140 OVC200 19/17 A2994 RMK AO2 SLP129 60000 T01890172 10222 20189 58006=
200605050452 METAR KATL 050452Z 28004KT 8SM SCT110 OVC150 19/17 A2996 RMK AO2 SLP137 T01890167 402780172=
200605050352 METAR KATL 050352Z 28006KT 9SM FEW090 BKN120 OVC150 19/17 A2996 RMK AO2 RAB10E33 SLP138 P0000 T01940167=
200605050252 METAR KATL 050252Z 26008KT 10SM FEW100 SCT120 OVC150 21/17 A2996 RMK AO2 RAB23E51 SLP136 P0000 60000 T02060167 53004=
200605050152 METAR KATL 050152Z 27003KT 10SM SCT100 OVC150 21/17 A2995 RMK AO2 SLP134 T02060172=
200605050052 METAR KATL 050052Z 27003KT 10SM SCT120 BKN150 BKN250 21/18 A2994 RMK AO2 SLP132 T02110178=
200605042352 METAR KATL 042352Z 00000KT 10SM FEW055 BKN110 OVC150 22/17 A2994 RMK AO2 RAE00 SLP133 P0000 60002 T02170172 10278 20217 55000=
200605042252 METAR KATL 042252Z 32007KT 10SM -RA FEW035 SCT060 BKN110 OVC150 23/16 A2994 RMK AO2 RAB02 SLP131 PCPN VRY LGT P0002 T02280161=
200605042152 METAR KATL 042152Z 29011KT 10SM SCT055TCU BKN090 BKN150 OVC200 25/16 A2995 RMK AO2 SLP135 TCU E CB DSNT NW T02500156=
200605042052 METAR KATL 042052Z 25006KT 10SM FEW120 BKN150 BKN250 27/15 A2995 RMK AO2 SLP132 LTG DSNT N-NE CB DSNT NW-N-NE MOV E T02720150 58020=
200605041952 METAR KATL 041952Z 18006KT 9SM FEW050 BKN120 BKN250 25/15 A2998 RMK AO2 SLP145 CB DSNT E AND NW MOV E SHRA DSNT E AND NW T02500150=
200605041906 SPECI KATL 041906Z 17009KT 10SM FEW045 SCT065 BKN080 BKN250 26/14 A2999 RMK AO2 CB DSNT SE-S AND DSNT NW MOV E SHRA DSNT SE-S=
200605041906 SPECI KATL 041906Z 17009KT 10SM FEW045 SCT065 BKN080 BKN250 26/14 A2999 RMK AO2 CB DSNT SE-S AND DSNT NW MOV E SHRA DSNT SE-S=
200605041859 SPECI KATL 041859Z VRB06KT 10SM FEW045 SCT100 BKN250 25/15 A2999 RMK AO2 CB DSNT SE MOV E SHRA DSNT SE=
200605041859 SPECI KATL 041859Z VRB06KT 10SM FEW045 SCT100 BKN250 25/15 A2999 RMK AO2 CB DSNT SE MOV E SHRA DSNT SE=
200605041852 METAR KATL 041852Z 27008KT 230V300 10SM FEW045CB SCT100 BKN250 27/15 A3000 RMK AO2 SLP149 CB DSNT E AND VC S MOV E TCU DSNT NW-N SHRA VC S T02720150=
200605041816 SPECI KATL 041816Z 32014G24KT 10SM FEW045CB SCT065 BKN090 BKN250 26/15 A3000 RMK AO2 CB VC NE AND DSNT SW MOV E SHRA VC NE AND DSNT SW=
200605041816 SPECI KATL 041816Z 32014G24KT 10SM FEW045CB SCT065 BKN090 BKN250 26/15 A3000 RMK AO2 CB VC NE AND DSNT SW MOV E SHRA VC NE AND DSNT SW=
200605041752 METAR KATL 041752Z 29009KT 10SM SCT045 SCT095 BKN250 26/16 A3001 RMK AO2 SLP152 CB DSNT SW-N T02610161 10272 20183 58013=
200605041652 METAR KATL 041652Z 27010KT 10SM SCT040TCU BKN250 26/16 A3003 RMK AO2 SLP161 TCU ALQDS T02610161=
200605041552 METAR KATL 041552Z 26009KT 10SM FEW040 BKN250 26/16 A3004 RMK AO2 SLP165 T02560161 $=
200605041452 METAR KATL 041452Z 26009KT 10SM BKN250 25/16 A3005 RMK AO2 SLP165 T02500161 51001=
200605041352 METAR KATL 041352Z 28003KT 10SM BKN250 23/15 A3005 RMK AO2 SLP166 T02330150=
200605041252 METAR KATL 041252Z 30006KT 10SM FEW180 SCT250 21/14 A3005 RMK AO2 SLP169 T02060144=
200605041152 METAR KATL 041152Z 27003KT 10SM FEW140 SCT250 18/14 A3004 RMK AO2 SLP167 T01830139 10194 20172 53012=
200605041052 METAR KATL 041052Z 28007KT 10SM FEW140 SCT200 SCT250 17/14 A3002 RMK AO2 SLP159 T01720139=
200605040952 METAR KATL 040952Z 30005KT 10SM FEW075 SCT140 BKN200 18/14 A3000 RMK AO2 SLP152 T01780144=
200605040852 METAR KATL 040852Z 29004KT 10SM FEW075 SCT140 OVC200 18/15 A3001 RMK AO2 SLP152 T01830150 56007=
200605040752 METAR KATL 040752Z 29004KT 10SM FEW140 SCT180 BKN250 18/15 A3001 RMK AO2 SLP154 T01830150=
200605040652 METAR KATL 040652Z 28005KT 10SM SCT140 BKN180 BKN250 18/15 A3001 RMK AO2 SLP154 T01830150=
200605040552 METAR KATL 040552Z 27004KT 10SM FEW140 SCT180 BKN250 19/15 A3003 RMK AO2 SLP159 T01940150 10250 20189 58004=
200605040452 METAR KATL 040452Z 30004KT 10SM FEW150 SCT200 BKN250 20/14 A3005 RMK AO2 SLP166 T02000144 402830167=
200605040352 METAR KATL 040352Z 30006KT 10SM FEW150 SCT200 BKN250 21/14 A3005 RMK AO2 SLP167 T02060144=
200605040252 METAR KATL 040252Z 28005KT 10SM BKN150 BKN250 21/14 A3004 RMK AO2 SLP165 T02110139 51013=
200605040152 METAR KATL 040152Z 31005KT 10SM BKN150 BKN200 BKN250 22/13 A3003 RMK AO2 SLP163 T02170128=
200605040052 METAR KATL 040052Z 29006KT 10SM FEW150 SCT200 BKN250 23/13 A3002 RMK AO2 SLP158 T02280133=
200605032352 METAR KATL 032352Z 32009KT 10SM FEW050CB SCT150 BKN200 BKN250 25/16 A3000 RMK AO2 SLP153 CB VC SE MOV SE VCSH SE T02500156 10283 20250 56002=
200605032252 METAR KATL 032252Z 26010KT 10SM SCT055 SCT140 BKN200 BKN250 27/16 A3000 RMK AO2 SLP151 CB DSNT NW T02670156=
200605032152 METAR KATL 032152Z 29011KT 10SM SCT050 SCT150 BKN200 28/14 A3001 RMK AO2 SLP154 T02780139=
200605032052 METAR KATL 032052Z 30012KT 10SM FEW050 SCT220 28/15 A3001 RMK AO2 SLP154 CB DSNT NW-N TCU DSNT N-SW T02780150 58018=
200605031952 METAR KATL 031952Z COR 31012KT 10SM SCT050TCU SCT220 27/16 A3004 RMK AO2 SLP166 TCU N-NE AND VC S MDT CU ALQDS T02670156=
200605031852 METAR KATL 031852Z 30009G18KT 10SM SCT050 SCT220 28/16 A3006 RMK AO2 SLP169 TCU DSNT SW-NW T02780161=
200605031752 METAR KATL 031752Z 30012G19KT 260V350 10SM SCT047 SCT220 27/16 A3007 RMK AO2 SLP173 CB DSNT SE-S MOV SSE T02670156 10272 20178 58016=
200605031652 METAR KATL 031652Z 28013KT 10SM SCT040 26/17 A3009 RMK AO2 SLP181 SCT040 V BKN MDT CU ALQDS T02610172=
200605031552 METAR KATL 031552Z 28013G18KT 10SM BKN030 25/17 A3011 RMK AO2 SLP188 BKN030 V SCT MDT CU ALQDS T02500172=
200605031528 SPECI KATL 031528Z 29015G19KT 10SM BKN030 BKN220 24/17 A3011 RMK AO2=
200605031528 SPECI KATL 031528Z 29015G19KT 10SM BKN030 BKN220 24/17 A3011 RMK AO2=
200605031452 METAR KATL 031452Z 28012KT 9SM FEW030 SCT220 23/17 A3011 RMK AO2 SLP189 T02330172 50002=
200605031352 METAR KATL 031352Z 29011KT 9SM FEW040 21/16 A3013 RMK AO2 SLP196 T02110161=
200605031252 METAR KATL 031252Z 28010KT 8SM FEW042 19/16 A3012 RMK AO2 SLP192 T01940156=
200605031152 METAR KATL 031152Z 27008KT 7SM FEW250 18/15 A3011 RMK AO2 SLP189 T01780150 10189 20167 53008=
200605031052 METAR KATL 031052Z 25007KT 7SM FEW140 SCT250 18/14 A3009 RMK AO2 SLP182 T01780144=
200605030952 METAR KATL 030952Z 29007KT 9SM FEW075 SCT140 SCT250 18/14 A3008 RMK AO2 SLP178 T01780144=
200605030852 METAR KATL 030852Z 28006KT 10SM FEW080 SCT140 SCT250 18/14 A3008 RMK AO2 SLP179 T01780144 53005=
200605030752 METAR KATL 030752Z 26007KT 10SM FEW075 OVC140 18/14 A3007 RMK AO2 SLP174 OCNL LTG DSNT N-NE CB DSNT N-NE T01830144=
200605030652 METAR KATL 030652Z 28007KT 10SM FEW065 OVC140 19/15 A3006 RMK AO2 SLP173 OCNL LTG DSNT N-NE CB DSNT N-NE T01890150=
200605030552 METAR KATL 030552Z 26006KT 10SM FEW065 BKN140 BKN250 19/15 A3006 RMK AO2 SLP174 OCNL LTG DSNT N-NE CB DSNT N-NE T01890150 10233 20189 53002=
200605030452 METAR KATL 030452Z 25009KT 10SM FEW250 19/15 A3006 RMK AO2 SLP170 T01940150 402560128=
200605030352 METAR KATL 030352Z 25007KT 10SM FEW250 20/14 A3006 RMK AO2 SLP173 T02000144=
200605030252 METAR KATL 030252Z 23009KT 10SM FEW250 21/14 A3006 RMK AO2 SLP173 T02060139 53002=
200605030152 METAR KATL 030152Z 22007KT 10SM FEW250 21/13 A3005 RMK AO2 SLP170 T02110133=
200605030052 METAR KATL 030052Z 23004KT 10SM FEW250 23/13 A3005 RMK AO2 SLP168 T02280128=
200605022352 METAR KATL 022352Z 27009KT 10SM FEW050 SCT250 23/12 A3005 RMK AO2 SLP172 T02330122 10256 20233 56007=
200605022252 METAR KATL 022252Z 26009KT 10SM FEW055 SCT200 25/12 A3005 RMK AO2 SLP172 T02500117=
200605022152 METAR KATL 022152Z 21008G16KT 10SM FEW055 SCT200 25/12 A3006 RMK AO2 SLP174 T02500117=
200605022052 METAR KATL 022052Z 23007KT 10SM SCT060 SCT250 24/12 A3007 RMK AO2 SLP178 T02440117 56019 $=
200605021952 METAR KATL 021952Z 22008KT 10SM FEW050 SCT100 SCT250 25/13 A3009 RMK AO2 SLP184 T02500128=
200605021852 METAR KATL 021852Z 31006KT 10SM FEW045 SCT100 24/13 A3011 RMK AO2 SLP191 T02440128=
200605021752 METAR KATL 021752Z 30008KT 10SM FEW045 SCT100 24/13 A3013 RMK AO2 SLP198 T02390133 10244 20150 58018=
200605021652 METAR KATL 021652Z 18005KT 10SM FEW050 SCT100 23/11 A3015 RMK AO2 SLP203 T02280106=
200605021552 METAR KATL 021552Z 22007KT 10SM FEW050 BKN100 BKN250 22/10 A3018 RMK AO2 SLP214 ACC OHD AND ALQDS T02170100=
200605021452 METAR KATL 021452Z 20006KT 10SM SCT100 21/11 A3019 RMK AO2 SLP217 ACC DSNT NW-N T02060106 53008=
200605021352 METAR KATL 021352Z COR 00000KT 10SM FEW100 SCT150 SCT250 19/11 A3017 RMK AO2 SLP213 T01940111=
200605021252 METAR KATL 021252Z 28003KT 10SM FEW250 18/11 A3017 RMK AO2 SLP213 T01780111=
200605021152 METAR KATL 021152Z 00000KT 10SM FEW250 14/09 A3016 RMK AO2 SLP210 T01440094 10156 20128 53012=
200605021052 METAR KATL 021052Z 00000KT 10SM CLR 13/09 A3013 RMK AO2 SLP200 T01280089=
200605020952 METAR KATL 020952Z 00000KT 10SM CLR 13/09 A3013 RMK AO2 SLP198 T01280089=
200605020852 METAR KATL 020852Z 00000KT 10SM CLR 14/09 A3013 RMK AO2 SLP198 T01390089 56013=
200605020752 METAR KATL 020752Z 00000KT 10SM CLR 13/09 A3013 RMK AO2 SLP199 T01330094=
200605020652 METAR KATL 020652Z 00000KT 10SM CLR 14/09 A3014 RMK AO2 SLP202 T01440089=
200605020552 METAR KATL 020552Z 00000KT 10SM CLR 14/09 A3017 RMK AO2 SLP212 T01440089 10211 20144 57002=
200605020452 METAR KATL 020452Z 00000KT 10SM CLR 16/09 A3017 RMK AO2 SLP212 T01560089 402220106=
200605020352 METAR KATL 020352Z 00000KT 10SM CLR 17/09 A3017 RMK AO2 SLP213 T01670089=
200605020252 METAR KATL 020252Z 00000KT 10SM CLR 18/08 A3017 RMK AO2 SLP215 T01780083 53006=
200605020152 METAR KATL 020152Z 00000KT 10SM CLR 18/09 A3016 RMK AO2 SLP211 T01830089=
200605020052 METAR KATL 020052Z 00000KT 10SM CLR 19/08 A3016 RMK AO2 SLP212 T01940078=
200605012352 METAR KATL 012352Z 21004KT 10SM CLR 21/07 A3016 RMK AO2 SLP208 T02110072 10222 20189 57004=
200605012252 METAR KATL 012252Z 18004KT 10SM CLR 22/07 A3016 RMK AO2 SLP209 T02170067=
200605012152 METAR KATL 012152Z 17004KT 10SM CLR 22/07 A3017 RMK AO2 SLP212 T02170072=
200605012052 METAR KATL 012052Z VRB03KT 10SM CLR 22/07 A3017 RMK AO2 SLP213 T02170067 58018=
200605011952 METAR KATL 011952Z 00000KT 10SM CLR 21/07 A3019 RMK AO2 SLP220 T02060067=
200605011852 METAR KATL 011852Z VRB03KT 10SM CLR 21/07 A3021 RMK AO2 SLP228 T02060072=
200605011752 METAR KATL 011752Z 09004KT 10SM CLR 19/06 A3022 RMK AO2 SLP233 T01890061 10194 20117 58016=
200605011652 METAR KATL 011652Z 15008KT 10SM CLR 18/05 A3024 RMK AO2 SLP238 T01830050=
200605011552 METAR KATL 011552Z 09009KT 10SM FEW050 17/06 A3026 RMK AO2 SLP246 T01720056=
200605011452 METAR KATL 011452Z 10008KT 10SM SCT050 16/06 A3027 RMK AO2 SLP249 T01560056 51009=
200605011352 METAR KATL 011352Z 08011KT 10SM BKN048 BKN200 13/07 A3027 RMK AO2 SLP248 T01330072=
200605011252 METAR KATL 011252Z 08011KT 10SM OVC050 12/07 A3025 RMK AO2 SLP245 T01220072=
