##########################################################
# Query made at 04/19/2024 22:56:59 UTC
# Time interval: from 07/01/2006 12:00  to 07/31/2006 12:59  UTC
##########################################################

##########################################################
# KATL, Atlanta, Hartsfield - Jackson Atlanta International Airport (United States)
# WMO index: 72219. WIGOS ID: 0-20000-0-72219
# Latitude 33-38-59N. Longitude 084-25-00W. Altitude 312 m.
##########################################################

200607311252 METAR KATL 311252Z 29007KT 10SM FEW300 24/19 A3004 RMK AO2 SLP161 T02390194=
200607311152 METAR KATL 311152Z 27003KT 9SM CLR 22/19 A3002 RMK AO2 SLP155 T02220194 10233 20217 53012=
200607311052 METAR KATL 311052Z 28005KT 9SM CLR 22/19 A3000 RMK AO2 SLP149 T02170194=
200607310952 METAR KATL 310952Z 27005KT 10SM CLR 22/19 A2999 RMK AO2 SLP144 T02170194=
200607310852 METAR KATL 310852Z 24005KT 10SM CLR 22/20 A2998 RMK AO2 SLP142 T02220200 55007=
200607310752 METAR KATL 310752Z 25004KT 9SM CLR 22/20 A2998 RMK AO2 SLP140 T02220200=
200607310652 METAR KATL 310652Z 29007KT 8SM CLR 23/21 A2999 RMK AO2 SLP146 T02280206=
200607310552 METAR KATL 310552Z 27007KT 9SM CLR 23/21 A3001 RMK AO2 SLP151 T02330211 10289 20233 50004=
200607310452 METAR KATL 310452Z 26008KT 10SM FEW010 24/21 A3002 RMK AO2 SLP154 T02390211 403280206=
200607310352 METAR KATL 310352Z 24008KT 8SM FEW110 24/22 A3000 RMK AO2 SLP150 T02440217=
200607310252 METAR KATL 310252Z 21007KT 7SM FEW110 26/23 A2999 RMK AO2 SLP146 T02560228 53014=
200607310152 METAR KATL 310152Z 21007KT 7SM FEW110 27/23 A2998 RMK AO2 SLP141 T02670228=
200607310052 METAR KATL 310052Z 21010KT 3SM HZ SCT100 28/22 A2996 RMK AO2 SFC VIS 4 SLP136 T02780222=
200607302352 METAR KATL 302352Z 21008KT 3SM HZ FEW050 29/22 A2995 RMK AO2 SFC VIS 5 SLP132 T02890222 10328 20261 55003=
200607302252 METAR KATL 302252Z 22010KT 5SM HZ FEW038 30/22 A2993 RMK AO2 SLP126 MDT CU OHD T03000217=
200607302152 METAR KATL 302152Z VRB03KT 6SM HZ FEW046 32/19 A2994 RMK AO2 SLP128 T03170189=
200607302052 METAR KATL 302052Z 00000KT 7SM SCT041 31/20 A2996 RMK AO2 SLP134 TCU DSNT S T03110200 57022=
200607301952 METAR KATL 301952Z VRB06KT 5SM HZ SCT032 BKN041 BKN100 30/22 A2998 RMK AO2 SLP143 T03000217=
200607301852 METAR KATL 301852Z 21007KT 6SM HZ SCT025 SCT047 29/22 A3001 RMK AO2 SLP150 T02940217=
200607301752 METAR KATL 301752Z 23010KT 6SM HZ SCT022 SCT030 BKN043 27/22 A3003 RMK AO2 SLP159 SCT V BKN T02670217 10283 20217 58010=
200607301718 SPECI KATL 301718Z 21011KT 6SM HZ FEW016 SCT021 BKN039 27/22 A3004 RMK AO2 SCT V BKN=
200607301718 SPECI KATL 301718Z 21011KT 6SM HZ FEW016 SCT021 BKN039 27/22 A3004 RMK AO2 SCT V BKN=
200607301652 METAR KATL 301652Z VRB05KT 8SM SCT017 BKN024 BKN040 27/21 A3006 RMK AO2 SLP169 SHRA DSNT S T02670211=
200607301618 SPECI KATL 301618Z 21011KT 8SM SCT015 BKN021 BKN030 26/21 A3005 RMK AO2 SCT V BKN=
200607301618 SPECI KATL 301618Z 21011KT 8SM SCT015 BKN021 BKN030 26/21 A3005 RMK AO2 SCT V BKN=
200607301552 METAR KATL 301552Z 20008KT 8SM BKN013 OVC021 24/21 A3006 RMK AO2 SLP169 BINOVC NE AND OHD-NW T02440211=
200607301452 METAR KATL 301452Z 21006KT 9SM OVC015 24/21 A3006 RMK AO2 SLP169 T02440211 50002=
200607301415 SPECI KATL 301415Z 26008KT 9SM BKN015 BKN020 OVC033 24/21 A3006 RMK AO2 BINOVC E-SE=
200607301415 SPECI KATL 301415Z 26008KT 9SM BKN015 BKN020 OVC033 24/21 A3006 RMK AO2 BINOVC E-SE=
200607301352 METAR KATL 301352Z VRB05KT 9SM FEW015 BKN033 BKN120 24/20 A3006 RMK AO2 SLP170 T02390200=
200607301252 METAR KATL 301252Z 29009KT 10SM FEW032 SCT120 23/20 A3006 RMK AO2 SLP169 T02330200=
200607301152 METAR KATL 301152Z 30006KT 10SM FEW032 SCT039 BKN150 22/19 A3005 RMK AO2 SLP167 70003 T02170194 10217 20206 51002=
200607301052 METAR KATL 301052Z 31006KT 10SM FEW008 SCT049 BKN060 BKN150 21/19 A3005 RMK AO2 SLP164 T02110194=
200607300952 METAR KATL 300952Z 30008KT 10SM BKN049 21/19 A3005 RMK AO2 SLP164 T02110194=
200607300852 METAR KATL 300852Z 29005KT 10SM BKN150 21/19 A3004 RMK AO2 SLP162 T02110194 56016=
200607300752 METAR KATL 300752Z 26004KT 10SM SCT005 21/19 A3005 RMK AO2 SLP165 T02110194=
200607300705 SPECI KATL 300705Z 24005KT 10SM SCT005 21/20 A3007 RMK AO2=
200607300705 SPECI KATL 300705Z 24005KT 10SM SCT005 21/20 A3007 RMK AO2=
200607300652 METAR KATL 300652Z 23006KT 10SM FEW070 SCT120 21/20 A3007 RMK AO2 SLP171 T02110200=
200607300617 SPECI KATL 300617Z 23008KT 10SM BKN006 BKN070 OVC150 21/20 A3008 RMK AO2=
200607300617 SPECI KATL 300617Z 23008KT 10SM BKN006 BKN070 OVC150 21/20 A3008 RMK AO2=
200607300552 METAR KATL 300552Z 23005KT 10SM FEW008 SCT043 OVC110 22/20 A3009 RMK AO2 SLP179 60003 T02170200 10272 20217 58005=
200607300452 METAR KATL 300452Z 21007KT 10SM FEW008 BKN037 OVC110 22/21 A3011 RMK AO2 SLP187 T02170206 403280217=
200607300441 SPECI KATL 300441Z 21006KT 9SM FEW008 BKN037 OVC110 22/21 A3012 RMK AO2=
200607300441 SPECI KATL 300441Z 21006KT 9SM FEW008 BKN037 OVC110 22/21 A3012 RMK AO2=
200607300352 METAR KATL 300352Z 25007KT 10SM SCT120 OVC250 22/20 A3011 RMK AO2 RAE0256 SLP186 P0000 T02220200=
200607300252 METAR KATL 300252Z 24008KT 10SM -RA FEW006 BKN090 OVC120 22/21 A3011 RMK AO2 SLP185 LTG DSNT NE P0001 60003 T02220206 51017=
200607300152 METAR KATL 300152Z 25009KT 9SM -RA FEW006 SCT070 OVC090 22/21 A3009 RMK AO2 TSE40RAB01 SLP180 TS MOV NE AND SE-S P0002 T02220206=
200607300141 SPECI KATL 300141Z 25010KT 8SM -RA SCT006 SCT048 OVC075 22/21 A3009 RMK AO2 TSE40RAB01 TS MOV NE AND SE-S LTG DSNT NE AND SE-S P0002=
200607300141 SPECI KATL 300141Z 25010KT 8SM -RA SCT006 SCT048 OVC075 22/21 A3009 RMK AO2 TSE40RAB01 TS MOV NE AND SE-S LTG DSNT NE AND SE-S P0002=
200607300126 SPECI KATL 300126Z 25009KT 7SM -TSRA FEW008 SCT048CB OVC065 23/21 A3009 RMK AO2 RAB01 FRQ LTGICCACG TS VC NE AND SE-SW MOV E P0001=
200607300126 SPECI KATL 300126Z 25009KT 7SM -TSRA FEW008 SCT048CB OVC065 23/21 A3009 RMK AO2 RAB01 FRQ LTGICCACG TS VC NE AND SE-SW MOV E P0001=
200607300052 METAR KATL 300052Z 30015KT 10SM TS BKN044CB OVC055 24/20 A3008 RMK AO2 RAB31E43 SLP176 OCNL LTGIC SE-SW-NW FRQ LTGCG SW TS OHD-SE-SW-NW MOV E P0000 T02440200=
200607292352 METAR KATL 292352Z 21007KT 10SM TS FEW050CB SCT120 BKN250 27/19 A3006 RMK AO2 TSB51 SLP167 OCNL LTGIC TS VC SW MOV SE T02720194 10328 20272 56012=
200607292252 METAR KATL 292252Z 21007KT 10SM SCT048 SCT075 BKN110 BKN180 28/20 A3006 RMK AO2 SLP169 MDT CU OHD-W T02830200=
200607292152 METAR KATL 292152Z 29009KT 10SM FEW049 BKN100 BKN180 31/19 A3008 RMK AO2 SLP175 SHRA VC E T03060194=
200607292052 METAR KATL 292052Z 28009KT 9SM SCT049 SCT075 BKN110 BKN150 31/19 A3009 RMK AO2 SLP178 SHRA DSNT SW T03110194 56025=
200607291952 METAR KATL 291952Z 32012KT 9SM SCT045CB BKN110 BKN150 31/19 A3011 RMK AO2 SLP183 CB VC SE MOV E SHRA VC SE SHRA DSNT E T03110189=
200607291852 METAR KATL 291852Z 28015KT 9SM SCT047 BKN110 BKN150 32/19 A3013 RMK AO2 SLP191 TCU DSNT E AND S T03220194=
200607291752 METAR KATL 291752Z 28008KT 9SM SCT038TCU BKN120 BKN150 31/21 A3017 RMK AO2 SLP204 TCU OHD-E TCU DSNT E AND SE-SW SHRA DSNT SE-S T03060206 10311 20239 58005=
200607291652 METAR KATL 291652Z COR 27007KT 9SM FEW049 SCT065 BKN120 BKN150 29/20 A3019 RMK AO2 SLP210 SHRA DSNT S-SW T02940200=
200607291552 METAR KATL 291552Z 28008KT 9SM FEW040 SCT070 BKN120 BKN150 29/20 A3019 RMK AO2 SLP212 ACC DSNT SE-S T02940200=
200607291452 METAR KATL 291452Z 28008KT 9SM FEW035 SCT065 BKN120 BKN150 28/19 A3018 RMK AO2 SLP209 SHRA DSNT SW T02830194 51005=
200607291352 METAR KATL 291352Z 28009KT 9SM FEW035 SCT120 BKN150 28/19 A3018 RMK AO2 SLP208 T02830194=
200607291252 METAR KATL 291252Z 25007KT 9SM FEW060 SCT120 BKN180 26/20 A3017 RMK AO2 SLP206 T02610200=
200607291152 METAR KATL 291152Z 27005KT 10SM FEW120 BKN200 24/19 A3017 RMK AO2 SLP204 70001 T02390194 10256 20228 53007=
200607291052 METAR KATL 291052Z 28004KT 10SM FEW120 BKN180 BKN250 23/19 A3015 RMK AO2 SLP198 T02330189=
200607290952 METAR KATL 290952Z 29008KT 10SM BKN200 23/19 A3014 RMK AO2 SLP196 T02330194=
200607290852 METAR KATL 290852Z 00000KT 10SM BKN180 23/19 A3015 RMK AO2 SLP195 T02330189 58012=
200607290752 METAR KATL 290752Z 25003KT 10SM SCT180 24/19 A3016 RMK AO2 SLP199 T02390189=
200607290652 METAR KATL 290652Z 20008KT 10SM FEW065 25/19 A3017 RMK AO2 SLP205 T02500194=
200607290552 METAR KATL 290552Z 16010KT 10SM BKN100 26/21 A3018 RMK AO2 SLP208 60001 T02560206 10322 20256 51008=
200607290452 METAR KATL 290452Z 33005KT 10SM SCT150 BKN200 BKN250 27/19 A3017 RMK AO2 SLP205 T02670189 403560239=
200607290352 METAR KATL 290352Z 35005KT 10SM FEW150 SCT200 BKN250 27/18 A3018 RMK AO2 SLP206 T02720183=
200607290252 METAR KATL 290252Z 31006KT 10SM FEW150 SCT250 27/19 A3016 RMK AO2 RAE0157 SLP200 P0000 60001 T02670189 53006=
200607290152 METAR KATL 290152Z 34005KT 10SM -RA FEW045 SCT060 BKN100 BKN250 27/21 A3015 RMK AO2 TSB04E32RAB09 SLP197 TS DSIPTD P0001 T02670211=
200607290132 SPECI KATL 290132Z 27007KT 10SM -RA FEW045 BKN060 BKN100 BKN250 26/20 A3016 RMK AO2 TSB04E32RAB09 TS DSIPTD P0000=
200607290132 SPECI KATL 290132Z 27007KT 10SM -RA FEW045 BKN060 BKN100 BKN250 26/20 A3016 RMK AO2 TSB04E32RAB09 TS DSIPTD P0000=
200607290104 SPECI KATL 290104Z 31009KT 10SM TS FEW065CB SCT100 BKN200 BKN250 30/18 A3015 RMK AO2 TSB04 OCNL LTGCG TS VC SW MOV E=
200607290104 SPECI KATL 290104Z 31009KT 10SM TS FEW065CB SCT100 BKN200 BKN250 30/18 A3015 RMK AO2 TSB04 OCNL LTGCG TS VC SW MOV E=
200607290052 METAR KATL 290052Z 31012KT 10SM SCT065TCU SCT100 BKN200 BKN250 31/18 A3014 RMK AO2 SLP195 TCU SW-OHD AND VC NE CB DSNT E T03060183=
200607282352 METAR KATL 282352Z 27007KT 10SM FEW065 SCT200 BKN250 33/18 A3014 RMK AO2 SLP192 CB DSNT NE AND SE TCU DSNT SE AND NW T03280178 10356 20328 53004=
200607282252 METAR KATL 282252Z 27009KT 10SM FEW070 SCT250 34/17 A3012 RMK AO2 SLP189 MDT CU VC N AND SE T03390167=
200607282152 METAR KATL 282152Z 30009KT 10SM FEW070 SCT250 34/18 A3012 RMK AO2 SLP186 TCU DSNT W-NW T03440183=
200607282052 METAR KATL 282052Z COR 23011G20KT 10SM FEW075 SCT150 SCT250 36/17 A3012 RMK AO2 SLP188 T03560167 58020=
200607281952 METAR KATL 281952Z 26014KT 10SM FEW070 SCT150 SCT250 35/17 A3015 RMK AO2 SLP195 CB DSNT NW T03500167=
200607281852 METAR KATL 281852Z 18007KT 150V210 10SM FEW070 SCT150 SCT250 34/18 A3017 RMK AO2 SLP204 T03390178=
200607281752 METAR KATL 281752Z 29011G14KT 10SM FEW070 SCT150 34/16 A3019 RMK AO2 SLP209 T03390161 10344 20256 58008=
200607281652 METAR KATL 281652Z 24006KT 10SM FEW060 SCT150 SCT250 33/18 A3020 RMK AO2 SLP213 T03280183=
200607281552 METAR KATL 281552Z 26008KT 10SM FEW055 SCT150 SCT250 32/19 A3021 RMK AO2 SLP217 T03220189=
200607281452 METAR KATL 281452Z 31005KT 10SM FEW150 SCT250 30/22 A3021 RMK AO2 SLP217 T03000217 50009=
200607281352 METAR KATL 281352Z 29006KT 10SM FEW150 SCT200 SCT250 28/21 A3022 RMK AO2 SLP219 T02780211=
200607281252 METAR KATL 281252Z 29007KT 10SM BKN150 BKN250 27/22 A3020 RMK AO2 SLP215 T02670217=
200607281152 METAR KATL 281152Z 28008KT 10SM SCT150 SCT250 26/20 A3018 RMK AO2 SLP209 T02560200 10272 20239 51016=
200607281052 METAR KATL 281052Z 25003KT 9SM SCT150 24/19 A3017 RMK AO2 SLP206 T02390194=
200607280952 METAR KATL 280952Z 23003KT 10SM FEW150 25/19 A3015 RMK AO2 SLP197 T02500194=
200607280852 METAR KATL 280852Z 24005KT 10SM FEW150 25/18 A3013 RMK AO2 SLP191 T02500183 55002=
200607280752 METAR KATL 280752Z 24005KT 10SM FEW150 26/18 A3013 RMK AO2 SLP190 T02610183=
200607280652 METAR KATL 280652Z 24005KT 10SM FEW150 SCT250 26/18 A3014 RMK AO2 SLP193 T02610178=
200607280552 METAR KATL 280552Z 23004KT 10SM SCT150 SCT250 27/19 A3014 RMK AO2 SLP193 T02720189 10317 20272 56004=
200607280452 METAR KATL 280452Z 23003KT 10SM BKN150 28/18 A3014 RMK AO2 SLP194 T02780178 403500233=
200607280352 METAR KATL 280352Z 22003KT 10SM OVC150 29/19 A3015 RMK AO2 SLP196 BINOVC T02890189=
200607280252 METAR KATL 280252Z 21003KT 10SM OVC150 29/19 A3015 RMK AO2 SLP197 BINOVC T02940189 53020=
200607280152 METAR KATL 280152Z 23003KT 10SM BKN150 BKN250 31/19 A3013 RMK AO2 SLP189 T03060189=
200607280052 METAR KATL 280052Z 23004KT 10SM BKN150 BKN250 31/19 A3010 RMK AO2 SLP181 T03110194=
200607272352 METAR KATL 272352Z 22006KT 10SM SCT150 BKN300 32/17 A3009 RMK AO2 SLP177 T03170172 10350 20317 55001=
200607272252 METAR KATL 272252Z 24007G15KT 10SM FEW060 SCT150 BKN300 33/17 A3008 RMK AO2 SLP176 T03280167=
200607272152 METAR KATL 272152Z 24007KT 10SM FEW060TCU SCT150 BKN300 34/21 A3009 RMK AO2 SLP178 TCU NE-E AND DSNT S T03440206=
200607272052 METAR KATL 272052Z VRB05KT 7SM FEW065 SCT120 34/19 A3009 RMK AO2 SLP179 T03390194 58014=
200607271952 METAR KATL 271952Z 22007KT 7SM FEW065 SCT120 SCT250 34/19 A3011 RMK AO2 SLP184 T03390189=
200607271852 METAR KATL 271852Z 22008KT 8SM FEW065 SCT120 BKN250 33/19 A3012 RMK AO2 SLP189 T03330194=
200607271752 METAR KATL 271752Z VRB04KT 9SM FEW060 SCT120 BKN250 33/19 A3014 RMK AO2 SLP192 T03330194 10333 20250 58006=
200607271652 METAR KATL 271652Z 33003KT 10SM FEW047 SCT120 BKN250 32/21 A3015 RMK AO2 SLP196 T03220211=
200607271552 METAR KATL 271552Z VRB03KT 10SM FEW040 SCT120 SCT250 31/22 A3016 RMK AO2 SLP200 T03110222=
200607271452 METAR KATL 271452Z VRB05KT 10SM FEW250 29/21 A3015 RMK AO2 SLP199 T02940211 50006=
200607271352 METAR KATL 271352Z 27006KT 10SM FEW140 28/21 A3015 RMK AO2 SLP199 T02830211=
200607271252 METAR KATL 271252Z 26007KT 10SM FEW140 SCT250 27/22 A3015 RMK AO2 SLP196 T02670217=
200607271152 METAR KATL 271152Z 26007KT 10SM BKN140 BKN250 25/20 A3013 RMK AO2 SLP193 T02500200 10250 20233 53016=
200607271052 METAR KATL 271052Z 27006KT 10SM BKN140 BKN250 24/20 A3012 RMK AO2 SLP189 T02390200=
200607270952 METAR KATL 270952Z 24004KT 10SM BKN140 BKN250 23/20 A3010 RMK AO2 SLP181 T02330200=
200607270852 METAR KATL 270852Z 24004KT 10SM FEW250 23/20 A3009 RMK AO2 SLP176 T02330200 53002=
200607270752 METAR KATL 270752Z 23006KT 10SM FEW250 24/21 A3008 RMK AO2 SLP174 T02390206=
200607270652 METAR KATL 270652Z 24005KT 10SM CLR 24/20 A3008 RMK AO2 SLP173 T02440200=
200607270552 METAR KATL 270552Z 25005KT 10SM CLR 25/20 A3008 RMK AO2 SLP174 T02500200 10294 20250 51006=
200607270452 METAR KATL 270452Z 22003KT 10SM FEW250 26/19 A3008 RMK AO2 SLP173 T02560194 403390211=
200607270352 METAR KATL 270352Z 24004KT 10SM FEW250 26/19 A3006 RMK AO2 SLP169 T02560194=
200607270252 METAR KATL 270252Z 24005KT 10SM FEW150 27/19 A3006 RMK AO2 SLP167 T02720189 51006=
200607270152 METAR KATL 270152Z 24007KT 10SM FEW150 SCT250 28/18 A3006 RMK AO2 SLP167 T02780183=
200607270052 METAR KATL 270052Z 24007KT 10SM BKN140 BKN250 29/19 A3005 RMK AO2 SLP165 T02890189=
200607262352 METAR KATL 262352Z 25007KT 10SM BKN140 BKN250 29/20 A3004 RMK AO2 SLP162 T02940200 10339 20294 58003=
200607262252 METAR KATL 262252Z 24010KT 10SM BKN140 BKN250 29/19 A3004 RMK AO2 SLP163 T02940194=
200607262152 METAR KATL 262152Z 26009KT 10SM FEW050 BKN140 30/19 A3005 RMK AO2 SLP165 T03000194=
200607262052 METAR KATL 262052Z 24010KT 10SM FEW055 SCT100 BKN150 32/19 A3005 RMK AO2 SLP165 T03170194 58012=
200607261952 METAR KATL 261952Z 27012KT 10SM FEW055 BKN100 33/19 A3006 RMK AO2 SLP169 ACSL DSNT NE-E MDT CU DSNT S T03280189=
200607261852 METAR KATL 261852Z 27008G15KT 10SM FEW055 SCT095 32/19 A3008 RMK AO2 SLP173 ACSL DSNT NE-SW T03220194=
200607261752 METAR KATL 261752Z 30012KT 10SM FEW060 BKN095 BKN250 32/19 A3009 RMK AO2 SLP177 ACSL DSNT W MDT CU ALQDS T03170189 10328 20228 58006=
200607261652 METAR KATL 261652Z 29010G18KT 10SM FEW055 SCT100 SCT200 31/18 A3010 RMK AO2 SLP180 MDT CU NE-SE T03060183=
200607261552 METAR KATL 261552Z 28009KT 10SM FEW040 SCT100 SCT200 29/21 A3010 RMK AO2 SLP182 T02940206=
200607261452 METAR KATL 261452Z 30007KT 250V330 10SM FEW100 SCT150 SCT200 28/21 A3011 RMK AO2 SLP184 T02830211 51007=
200607261352 METAR KATL 261352Z 28007KT 10SM FEW200 27/21 A3010 RMK AO2 SLP181 T02670211=
200607261252 METAR KATL 261252Z 26007KT 10SM FEW095 SCT250 25/21 A3010 RMK AO2 SLP180 T02500211=
200607261152 METAR KATL 261152Z 29005KT 10SM FEW095 SCT250 23/20 A3009 RMK AO2 SLP177 T02280200 10233 20211 53008=
200607261052 METAR KATL 261052Z 27004KT 9SM FEW250 22/19 A3008 RMK AO2 SLP174 T02170194=
200607260952 METAR KATL 260952Z 26005KT 10SM FEW250 22/20 A3006 RMK AO2 SLP169 T02220200=
200607260852 METAR KATL 260852Z 27005KT 10SM FEW250 22/20 A3006 RMK AO2 SLP169 T02170200 50001=
200607260752 METAR KATL 260752Z 26005KT 10SM FEW250 22/20 A3006 RMK AO2 SLP169 T02220200=
200607260652 METAR KATL 260652Z 23007KT 10SM FEW250 23/20 A3007 RMK AO2 SLP170 T02280200=
200607260552 METAR KATL 260552Z 25006KT 10SM FEW250 23/20 A3006 RMK AO2 SLP168 T02330200 10294 20233 57000=
200607260452 METAR KATL 260452Z COR 25007KT 10SM FEW250 24/20 A3006 RMK AO2 SLP167 T02440200 403110211=
200607260352 METAR KATL 260352Z 24007KT 10SM FEW250 25/20 A3006 RMK AO2 SLP170 T02500200=
200607260252 METAR KATL 260252Z 24010KT 10SM FEW200 SCT250 26/19 A3006 RMK AO2 SLP169 T02560194 53010=
200607260152 METAR KATL 260152Z 23008KT 10SM FEW200 BKN250 27/19 A3005 RMK AO2 SLP165 T02720194=
200607260052 METAR KATL 260052Z 22005KT 9SM FEW100 SCT200 BKN250 29/19 A3004 RMK AO2 SLP162 T02890194=
200607252352 METAR KATL 252352Z 25010KT 9SM FEW045TCU SCT120 BKN250 29/21 A3003 RMK AO2 SLP158 TCU VC NE-E T02940206 10311 20283 53002=
200607252252 METAR KATL 252252Z 23008KT 8SM SCT045TCU SCT070 30/21 A3003 RMK AO2 SLP158 TCU OHD-E AND DSNT NW MDT CU SE-SW T03000206=
200607252152 METAR KATL 252152Z 23011KT 8SM FEW045TCU SCT200 31/21 A3002 RMK AO2 SLP154 TCU VC E AND DSNT NW CB DSNT NE T03110206=
200607252052 METAR KATL 252052Z 18009KT 4SM HZ FEW040TCU SCT070 SCT200 31/21 A3002 RMK AO2 SLP156 CB DSNT N-NE TCU NW-N T03060211 56016=
200607251952 METAR KATL 251952Z 23008KT 9SM BKN043TCU BKN060 30/22 A3004 RMK AO2 SLP162 CB DSNT NW TCU OHD AND ALQDS T03000217=
200607251852 METAR KATL 251852Z COR 21008KT 8SM FEW035TCU SCT045 BKN065 29/21 A3006 RMK AO2 SLP168 TCU E SHRA E T02940211=
200607251752 METAR KATL 251752Z 27005KT 7SM SCT035 BKN050 BKN100 30/22 A3007 RMK AO2 SLP173 T03000217 10300 20217 58011=
200607251652 METAR KATL 251652Z VRB05KT 7SM FEW025 SCT100 BKN150 BKN250 27/22 A3009 RMK AO2 SLP179 T02720217=
200607251552 METAR KATL 251552Z 01003KT 6SM HZ FEW020 SCT110 BKN150 BKN250 26/22 A3010 RMK AO2 SLP184 T02610217=
200607251538 SPECI KATL 251538Z 00000KT 6SM HZ SCT015 BKN150 BKN250 26/22 A3010 RMK AO2=
200607251538 SPECI KATL 251538Z 00000KT 6SM HZ SCT015 BKN150 BKN250 26/22 A3010 RMK AO2=
200607251452 METAR KATL 251452Z 25004KT 3SM HZ FEW012 BKN014 BKN018 24/22 A3011 RMK AO2 SFC VIS 5 SLP186 T02440217 50003=
200607251359 SPECI KATL 251359Z 31005KT 3SM BR OVC010 23/22 A3011 RMK AO2 SFC VIS 5 CIG 008V013=
200607251359 SPECI KATL 251359Z 31005KT 3SM BR OVC010 23/22 A3011 RMK AO2 SFC VIS 5 CIG 008V013=
200607251352 METAR KATL 251352Z 31007KT 3SM BR BKN008 OVC013 23/22 A3011 RMK AO2 SFC VIS 5 SLP187 T02330217=
200607251252 METAR KATL 251252Z 30006KT 3SM BR OVC006 22/21 A3011 RMK AO2 SFC VIS 4 SLP186 T02220206=
200607251152 METAR KATL 251152Z 27004KT 3SM BR OVC006 22/20 A3010 RMK AO2 SFC VIS 4 SLP183 70001 T02220200 10222 20211 53012=
200607251052 METAR KATL 251052Z 24006KT 4SM BR OVC005 22/20 A3008 RMK AO2 SLP177 T02170200=
200607250952 METAR KATL 250952Z 25005KT 6SM BR OVC005 22/20 A3007 RMK AO2 SLP172 T02170200=
200607250918 SPECI KATL 250918Z VRB03KT 6SM BR BKN008 OVC200 22/20 A3006 RMK AO2=
200607250918 SPECI KATL 250918Z VRB03KT 6SM BR BKN008 OVC200 22/20 A3006 RMK AO2=
200607250852 METAR KATL 250852Z 25003KT 6SM BR FEW004 OVC200 22/20 A3006 RMK AO2 SLP171 T02170200 53003=
200607250752 METAR KATL 250752Z 27004KT 6SM BR FEW004 SCT120 OVC200 21/20 A3005 RMK AO2 SLP168 T02110200=
200607250731 SPECI KATL 250731Z 26005KT 5SM BR SCT006 SCT140 OVC200 22/20 A3005 RMK AO2=
200607250731 SPECI KATL 250731Z 26005KT 5SM BR SCT006 SCT140 OVC200 22/20 A3005 RMK AO2=
200607250652 METAR KATL 250652Z 28006KT 7SM BKN006 BKN200 22/21 A3005 RMK AO2 SLP167 T02170206=
200607250634 SPECI KATL 250634Z 27007KT 9SM BKN007 BKN200 22/21 A3006 RMK AO2=
200607250634 SPECI KATL 250634Z 27007KT 9SM BKN007 BKN200 22/21 A3006 RMK AO2=
200607250552 METAR KATL 250552Z 22003KT 9SM FEW007 BKN200 22/21 A3005 RMK AO2 SLP166 60000 T02220206 10244 20222 58003=
200607250516 SPECI KATL 250516Z 00000KT 9SM FEW007 SCT140 OVC200 22/21 A3005 RMK AO2=
200607250516 SPECI KATL 250516Z 00000KT 9SM FEW007 SCT140 OVC200 22/21 A3005 RMK AO2=
200607250500 SPECI KATL 250500Z 00000KT 10SM BKN007 BKN140 OVC200 23/21 A3006 RMK AO2=
200607250500 SPECI KATL 250500Z 00000KT 10SM BKN007 BKN140 OVC200 23/21 A3006 RMK AO2=
200607250452 METAR KATL 250452Z 20003KT 10SM SCT007 BKN140 OVC200 22/21 A3006 RMK AO2 RAE18 SLP169 P0000 T02220206 403060211=
200607250442 SPECI KATL 250442Z VRB03KT 10SM FEW006 SCT040 BKN140 OVC200 23/21 A3006 RMK AO2 RAE18 P0000=
200607250442 SPECI KATL 250442Z VRB03KT 10SM FEW006 SCT040 BKN140 OVC200 23/21 A3006 RMK AO2 RAE18 P0000=
200607250352 METAR KATL 250352Z 16004KT 10SM -RA FEW040 BKN110 OVC150 23/21 A3007 RMK AO2 RAB42 SLP173 P0000 T02280206=
200607250252 METAR KATL 250252Z 17006KT 8SM BKN100 OVC150 23/21 A3006 RMK AO2 SLP170 60000 T02330211 53016=
200607250152 METAR KATL 250152Z 18005KT 8SM FEW005 BKN150 OVC200 23/22 A3004 RMK AO2 SLP163 T02330217=
200607250139 SPECI KATL 250139Z 17006KT 8SM FEW006 BKN150 OVC200 23/22 A3003 RMK AO2=
200607250139 SPECI KATL 250139Z 17006KT 8SM FEW006 BKN150 OVC200 23/22 A3003 RMK AO2=
200607250128 SPECI KATL 250128Z VRB04KT 7SM BKN006 23/22 A3003 RMK AO2=
200607250128 SPECI KATL 250128Z VRB04KT 7SM BKN006 23/22 A3003 RMK AO2=
200607250106 SPECI KATL 250106Z 18006KT 7SM SCT006 24/22 A3003 RMK AO2=
200607250106 SPECI KATL 250106Z 18006KT 7SM SCT006 24/22 A3003 RMK AO2=
200607250052 METAR KATL 250052Z 19004KT 8SM FEW100 BKN140 BKN200 OVC250 24/22 A3003 RMK AO2 RAB34E48 SLP159 P0000 T02390217=
200607242352 METAR KATL 242352Z 21005KT 9SM SCT100 BKN140 OVC200 24/21 A3002 RMK AO2 RAE2259 SLP155 P0000 60001 T02440206 10306 20244 53005=
200607242252 METAR KATL 242252Z 19005KT 7SM -RA FEW100 BKN140 OVC200 25/21 A3000 RMK AO2 RAE10B52 SLP150 PCPN VRY LGT P0000 T02500206=
200607242152 METAR KATL 242152Z 19004KT 7SM -RA FEW020 SCT100 BKN140 OVC200 26/21 A3001 RMK AO2 RAB39 SLP152 P0000 T02560206=
200607242052 METAR KATL 242052Z 27003KT 8SM FEW045 SCT080 BKN150 BKN200 26/21 A3000 RMK AO2 TSE1957RAE11 SLP150 CB DSNT NE-S MOV NE P0000 60001 T02610211 56004=
200607241957 SPECI KATL 241957Z 21010KT 9SM -RA FEW026 BKN080 BKN200 26/21 A3001 RMK AO2 TSE57 LTG DSNT E TS MOV NE CB DSNT E MOV NE P0000=
200607241957 SPECI KATL 241957Z 21010KT 9SM -RA FEW026 BKN080 BKN200 26/21 A3001 RMK AO2 TSE57 LTG DSNT E TS MOV NE CB DSNT E MOV NE P0000=
200607241952 METAR KATL 241952Z 21009KT 8SM -TSRA BKN026CB BKN040 BKN100 BKN200 26/22 A3001 RMK AO2 TSB48RAB19 SLP153 VIS LWR SE SHRA OCNL LTGICCG TS SE MOV NE CB SE MOV NE P0001 T02560217=
200607241935 SPECI KATL 241935Z 24008KT 8SM -RA BKN024 BKN040 OVC100 27/20 A3000 RMK AO2 RAB19 VIS LWR SE-NW SHRA CB DSNT SE-NW MOV NE P0001=
200607241935 SPECI KATL 241935Z 24008KT 8SM -RA BKN024 BKN040 OVC100 27/20 A3000 RMK AO2 RAB19 VIS LWR SE-NW SHRA CB DSNT SE-NW MOV NE P0001=
200607241923 SPECI KATL 241923Z 22007KT 9SM -RA FEW020 SCT060 BKN100 BKN200 28/19 A3000 RMK AO2 RAB19 CB DSNT SE-NW MOV NE P0000=
200607241923 SPECI KATL 241923Z 22007KT 9SM -RA FEW020 SCT060 BKN100 BKN200 28/19 A3000 RMK AO2 RAB19 CB DSNT SE-NW MOV NE P0000=
200607241852 METAR KATL 241852Z 14005KT 10SM FEW045TCU SCT100 BKN200 29/18 A3000 RMK AO2 SLP147 CB DSNT NE AND DSNT S-NW MOV NE TCU VC W-NW T02890183=
200607241752 METAR KATL 241752Z 14004KT 8SM FEW045 SCT100 SCT250 29/18 A3001 RMK AO2 SLP153 CB DSNT S-SW-W T02940183 10300 20222 58010=
200607241652 METAR KATL 241652Z VRB04KT 10SM FEW040 BKN090 28/17 A3004 RMK AO2 SLP163 T02830172=
200607241552 METAR KATL 241552Z 00000KT 10SM BKN095 28/19 A3005 RMK AO2 SLP165 T02780189=
200607241452 METAR KATL 241452Z 14003KT 10SM BKN090 26/19 A3005 RMK AO2 SLP164 T02610189 51007=
200607241352 METAR KATL 241352Z 00000KT 7SM BKN075 BKN090 OVC120 26/18 A3004 RMK AO2 SLP161 T02560183=
200607241252 METAR KATL 241252Z 00000KT 6SM HZ BKN075 BKN100 24/19 A3003 RMK AO2 SLP160 T02390194=
200607241152 METAR KATL 241152Z 31004KT 5SM BR BKN080 22/20 A3002 RMK AO2 SLP156 T02220200 10222 20211 51016=
200607241052 METAR KATL 241052Z 00000KT 6SM BR BKN090 BKN150 22/19 A3001 RMK AO2 SLP151 T02170194=
200607240952 METAR KATL 240952Z 26004KT 6SM BR FEW075 21/19 A3000 RMK AO2 SLP147 T02110194=
200607240852 METAR KATL 240852Z 29005KT 6SM BR CLR 21/19 A2998 RMK AO2 SLP140 T02110194 56004=
200607240752 METAR KATL 240752Z 28006KT 7SM CLR 22/20 A2998 RMK AO2 SLP141 T02170200=
200607240652 METAR KATL 240652Z 26005KT 6SM BR BKN110 22/19 A2998 RMK AO2 SLP142 T02170194=
200607240552 METAR KATL 240552Z 23004KT 6SM BR CLR 22/20 A2999 RMK AO2 SLP145 T02220200 10272 20222 53001=
200607240452 METAR KATL 240452Z 22004KT 7SM CLR 23/19 A2999 RMK AO2 SLP145 T02330194 403000211=
200607240352 METAR KATL 240352Z 20005KT 8SM FEW080 24/19 A2998 RMK AO2 SLP142 T02390194=
200607240252 METAR KATL 240252Z 20006KT 7SM SCT075 BKN120 BKN250 25/20 A2998 RMK AO2 SLP144 T02500200 53018=
200607240152 METAR KATL 240152Z 29005KT 7SM SCT080 OVC100 26/19 A2995 RMK AO2 SLP131 T02610189=
200607240052 METAR KATL 240052Z 26004KT 5SM HZ SCT085 BKN250 26/19 A2994 RMK AO2 SLP130 T02610189=
200607232352 METAR KATL 232352Z 26006KT 6SM HZ SCT080 BKN250 27/19 A2993 RMK AO2 SLP124 SHRA VC SW T02720194 10300 20261 53009=
200607232252 METAR KATL 232252Z 33006KT 4SM HZ SCT080 BKN250 28/19 A2991 RMK AO2 SLP118 CB DSNT E T02780189=
200607232152 METAR KATL 232152Z COR VRB05KT 5SM HZ FEW043 SCT070 SCT150 28/19 A2990 RMK AO2 SLP114 MDT CU E-S T02830189=
200607232052 METAR KATL 232052Z 35004KT 7SM SCT037 29/19 A2990 RMK AO2 SLP115 TCU DSNT NE SHRA DSNT E-S T02890189 58013=
200607231952 METAR KATL 231952Z VRB03KT 5SM HZ SCT035 BKN150 28/19 A2992 RMK AO2 SLP121 T02780189=
200607231852 METAR KATL 231852Z VRB04KT 4SM HZ SCT028 BKN070 BKN150 28/21 A2993 RMK AO2 SLP125 T02780206=
200607231814 SPECI KATL 231814Z 28005KT 3SM HZ SCT024 BKN030 BKN070 27/20 A2994 RMK AO2 SFC VIS 4=
200607231814 SPECI KATL 231814Z 28005KT 3SM HZ SCT024 BKN030 BKN070 27/20 A2994 RMK AO2 SFC VIS 4=
200607231752 METAR KATL 231752Z 28007KT 3SM HZ OVC022 26/20 A2994 RMK AO2 SFC VIS 4 SLP129 T02610200 10261 20222 58001=
200607231652 METAR KATL 231652Z 00000KT 3SM HZ BKN020 BKN070 BKN150 26/20 A2994 RMK AO2 SFC VIS 5 SLP130 T02560200=
200607231552 METAR KATL 231552Z 28004KT 3SM HZ BKN016 BKN150 24/20 A2995 RMK AO2 SFC VIS 4 SLP131 T02440200=
200607231545 SPECI KATL 231545Z VRB03KT 3SM HZ BKN016 BKN150 24/20 A2995 RMK AO2 SFC VIS 4=
200607231545 SPECI KATL 231545Z VRB03KT 3SM HZ BKN016 BKN150 24/20 A2995 RMK AO2 SFC VIS 4=
200607231452 METAR KATL 231452Z 26005KT 3SM HZ OVC012 24/20 A2994 RMK AO2 SFC VIS 4 SLP130 T02390200 52009=
200607231352 METAR KATL 231352Z VRB03KT 3SM HZ BKN012 23/20 A2993 RMK AO2 SFC VIS 5 SLP126 T02330200=
200607231317 SPECI KATL 231317Z 31003KT 3SM HZ OVC010 23/20 A2992 RMK AO2 SFC VIS 5 CIG 009V013 BINOVC OHD=
200607231317 SPECI KATL 231317Z 31003KT 3SM HZ OVC010 23/20 A2992 RMK AO2 SFC VIS 5 CIG 009V013 BINOVC OHD=
200607231252 METAR KATL 231252Z VRB03KT 3SM BR OVC008 22/20 A2992 RMK AO2 SFC VIS 5 SLP124 T02220200=
200607231152 METAR KATL 231152Z 00000KT 3SM BR OVC008 22/20 A2991 RMK AO2 SFC VIS 5 CIG 007V012 SLP120 T02220200 10222 20211 53005=
200607231144 SPECI KATL 231144Z 23003KT 3SM BR OVC008 22/20 A2991 RMK AO2 SFC VIS 5 CIG 007V012=
200607231144 SPECI KATL 231144Z 23003KT 3SM BR OVC008 22/20 A2991 RMK AO2 SFC VIS 5 CIG 007V012=
200607231052 METAR KATL 231052Z 00000KT 3SM BKN010 OVC020 22/20 A2990 RMK AO2 SFC VIS 7 SLP115 T02170200=
200607231010 SPECI KATL 231010Z 27005KT 7SM BKN010 21/19 A2989 RMK AO2=
200607231010 SPECI KATL 231010Z 27005KT 7SM BKN010 21/19 A2989 RMK AO2=
200607230952 METAR KATL 230952Z 26004KT 7SM FEW007 OVC120 21/19 A2989 RMK AO2 SLP110 T02110194=
200607230852 METAR KATL 230852Z 28008KT 6SM BR BKN007 OVC013 22/19 A2990 RMK AO2 CIG 006V010 SLP114 T02170194 56007=
200607230752 METAR KATL 230752Z 26005KT 7SM BKN009 22/19 A2990 RMK AO2 CIG 007V012 SLP113 T02170194=
200607230652 METAR KATL 230652Z 24005KT 7SM BKN007 22/20 A2991 RMK AO2 SLP118 T02220200=
200607230607 SPECI KATL 230607Z 23007KT 8SM BKN007 BKN100 22/20 A2991 RMK AO2=
200607230607 SPECI KATL 230607Z 23007KT 8SM BKN007 BKN100 22/20 A2991 RMK AO2=
200607230552 METAR KATL 230552Z 24007KT 9SM FEW009 BKN095 22/20 A2992 RMK AO2 SLP119 60000 T02220200 10244 20222 58009=
200607230452 METAR KATL 230452Z 26004KT 10SM BKN100 OVC250 23/19 A2993 RMK AO2 RAE34 SLP123 P0000 T02280194 403280222=
200607230352 METAR KATL 230352Z 28007KT 9SM -RA SCT080 BKN110 OVC250 23/19 A2994 RMK AO2 RAB50 SLP130 PCPN VRY LGT P0000 T02330194=
200607230252 METAR KATL 230252Z 21009KT 9SM FEW090 BKN120 BKN250 23/20 A2994 RMK AO2 SLP131 T02330200 51017=
200607230152 METAR KATL 230152Z 22007KT 8SM FEW130 OVC250 24/20 A2994 RMK AO2 SLP128 T02390200=
200607230052 METAR KATL 230052Z VRB03KT 8SM SCT130 BKN250 24/19 A2991 RMK AO2 SLP119 T02440189=
200607222352 METAR KATL 222352Z 27009KT 8SM SCT100 BKN130 OVC250 24/19 A2989 RMK AO2 SLP113 60000 T02390194 10328 20239 53006=
200607222252 METAR KATL 222252Z 32008KT 8SM FEW090 SCT120 BKN250 25/19 A2986 RMK AO2 SLP101 T02500189=
200607222152 METAR KATL 222152Z COR 29016G23KT 6SM HZ FEW018 BKN110 OVC250 26/21 A2989 RMK AO2 TSE02RAE40 SLP112 TS MOV SE P0000 T02560206=
200607222103 SPECI KATL 222103Z 24005KT 7SM -RA FEW029 SCT110 OVC150 26/21 A2989 RMK AO2 TSE02 TS MOV SE P0000=
200607222103 SPECI KATL 222103Z 24005KT 7SM -RA FEW029 SCT110 OVC150 26/21 A2989 RMK AO2 TSE02 TS MOV SE P0000=
200607222052 METAR KATL 222052Z 24008KT 7SM -TSRA BKN029CB BKN150 26/21 A2988 RMK AO2 TSB03RAB31 SLP106 OCNL LTGIC TS SE MOV E CB SE MOV E SHRA DSNT E-S P0000 60000 T02610206 56018=
200607222004 SPECI KATL 222004Z 31009KT 7SM TS SCT045CB BKN150 31/21 A2988 RMK AO2 TSB03 OCNL LTGCG TS SW MOV NE CB SW MOV NE CB DSNT SE AND W MOV E SHRA DSNT S-W=
200607222004 SPECI KATL 222004Z 31009KT 7SM TS SCT045CB BKN150 31/21 A2988 RMK AO2 TSB03 OCNL LTGCG TS SW MOV NE CB SW MOV NE CB DSNT SE AND W MOV E SHRA DSNT S-W=
200607221952 METAR KATL 221952Z 33011KT 7SM SCT045 BKN150 BKN250 31/21 A2988 RMK AO2 SLP106 CB DSNT SW MOV NE CB DSNT SE AND W MOV E T03060206=
200607221852 METAR KATL 221852Z 32009KT 7SM FEW045 SCT150 BKN250 31/20 A2990 RMK AO2 SLP111 CB DSNT SW-W MOV E TCU DSNT SE-S T03110200=
200607221752 METAR KATL 221752Z VRB03KT 8SM FEW045 SCT150 BKN250 32/20 A2993 RMK AO2 SLP123 T03220200 10322 20222 58012=
200607221652 METAR KATL 221652Z 20008KT 160V230 7SM BKN150 BKN250 30/20 A2996 RMK AO2 SLP131 T03000200=
200607221552 METAR KATL 221552Z 18006KT 7SM FEW080 SCT110 BKN150 BKN180 27/19 A2997 RMK AO2 SLP135 T02720194=
200607221452 METAR KATL 221452Z VRB04KT 9SM SCT110 BKN180 25/19 A2997 RMK AO2 SLP136 T02500189 56002=
200607221352 METAR KATL 221352Z VRB03KT 9SM SCT110 BKN180 24/19 A2997 RMK AO2 SLP136 T02390189=
200607221252 METAR KATL 221252Z 12004KT 10SM SCT180 23/19 A2997 RMK AO2 SLP137 T02330189=
200607221152 METAR KATL 221152Z 07007KT 10SM FEW036 OVC150 22/19 A2997 RMK AO2 RAB11E37 SLP139 P0000 60000 T02220189 10261 20222 58004=
200607221052 METAR KATL 221052Z 02010KT 10SM BKN060 BKN080 OVC120 23/18 A2999 RMK AO2 RAB00E14 SLP143 P0000 T02280183=
200607220952 METAR KATL 220952Z 34013KT 10SM FEW030 BKN065 BKN080 24/19 A2999 RMK AO2 WSHFT 0927 SLP143 T02390189=
200607220947 SPECI KATL 220947Z 33016KT 10SM SCT030 BKN070 24/19 A2999 RMK AO2 WSHFT 0927=
200607220947 SPECI KATL 220947Z 33016KT 10SM SCT030 BKN070 24/19 A2999 RMK AO2 WSHFT 0927=
200607220852 METAR KATL 220852Z 16006KT 10SM SCT075 BKN150 26/18 A2994 RMK AO2 SLP125 T02560183 58018=
200607220752 METAR KATL 220752Z 00000KT 9SM BKN150 26/18 A2997 RMK AO2 SLP134 T02560183=
200607220652 METAR KATL 220652Z 15005KT 9SM BKN100 26/18 A2998 RMK AO2 SLP137 T02610183=
200607220552 METAR KATL 220552Z 34007KT 9SM BKN090 BKN150 26/18 A2999 RMK AO2 SLP144 T02610183 10322 20261 50006=
200607220452 METAR KATL 220452Z 35012G19KT 10SM FEW045 SCT070 BKN100 BKN150 27/18 A3000 RMK AO2 WSHFT 0418 SLP147 T02720178 403440233=
200607220435 SPECI KATL 220435Z 35012G21KT 9SM FEW045 SCT070 BKN100 BKN150 28/20 A3000 RMK AO2 WSHFT 0418=
200607220435 SPECI KATL 220435Z 35012G21KT 9SM FEW045 SCT070 BKN100 BKN150 28/20 A3000 RMK AO2 WSHFT 0418=
200607220352 METAR KATL 220352Z 20003KT 10SM FEW120 SCT150 BKN250 29/19 A2998 RMK AO2 SLP139 T02940194=
200607220252 METAR KATL 220252Z 23003KT 9SM FEW120 SCT150 BKN200 30/20 A2998 RMK AO2 SLP138 T03000200 51004=
200607220052 METAR KATL 220052Z 28007KT 8SM FEW100 BKN150 BKN250 31/20 A2998 RMK AO2 SLP141 T03060200=
200607212352 METAR KATL 212352Z 24006KT 8SM FEW060 SCT150 BKN200 32/19 A2996 RMK AO2 SLP134 CB DSNT NE-SE T03220189 10344 20317 55004=
200607212252 METAR KATL 212252Z 29006KT 8SM SCT060 32/20 A2996 RMK AO2 TSE2154 SLP133 CB DSNT NE-E T03220200=
200607212155 SPECI KATL 212155Z 31007KT 8SM FEW060 SCT150 SCT250 33/19 A2997 RMK AO2 TSE54 TS DSIPTD=
200607212155 SPECI KATL 212155Z 31007KT 8SM FEW060 SCT150 SCT250 33/19 A2997 RMK AO2 TSE54 TS DSIPTD=
200607212152 METAR KATL 212152Z 32006KT 8SM TS FEW060CB SCT150 SCT250 33/19 A2997 RMK AO2 TSB27 SLP135 OCNL LTGCG TS VC SE-S MOV S CB DSNT NE T03330194=
200607212127 SPECI KATL 212127Z 32011KT 9SM TS FEW060CB SCT150 SCT250 33/19 A2996 RMK AO2 TSB27 OCNL LTGCG TS SE-S MOV SW=
200607212127 SPECI KATL 212127Z 32011KT 9SM TS FEW060CB SCT150 SCT250 33/19 A2996 RMK AO2 TSB27 OCNL LTGCG TS SE-S MOV SW=
200607212052 METAR KATL 212052Z 33007KT 270V350 6SM HZ FEW070 SCT250 34/18 A2998 RMK AO2 SLP138 CB DSNT NW-N MOV S MDT CU VC NE-SE T03440183 58027=
200607211952 METAR KATL 211952Z COR VRB05KT 7SM FEW060 34/19 A3001 RMK AO2 SLP149 CB DSNT NW MOV S T03390189=
200607211852 METAR KATL 211852Z 00000KT 6SM HZ FEW050 33/20 A3004 RMK AO2 SLP160 MDT CU NE-S T03330200=
200607211752 METAR KATL 211752Z 26008KT 6SM HZ FEW050 33/21 A3006 RMK AO2 SLP166 T03280206 10328 20239 58009=
200607211652 METAR KATL 211652Z 28008KT 230V300 6SM HZ FEW050 SCT090 SCT240 32/22 A3008 RMK AO2 SLP173 T03170217=
200607211552 METAR KATL 211552Z VRB04KT 6SM HZ FEW240 31/21 A3009 RMK AO2 SLP176 T03060211=
200607211452 METAR KATL 211452Z 20005KT 5SM HZ FEW100 SCT150 SCT240 29/21 A3009 RMK AO2 SLP176 T02890211 50003=
200607211352 METAR KATL 211352Z 00000KT 5SM HZ BKN150 27/21 A3009 RMK AO2 SLP179 T02720211=
200607211252 METAR KATL 211252Z COR 16004KT 5SM HZ BKN150 25/19 A3009 RMK AO2 SLP177 T02500189=
200607211152 METAR KATL 211152Z 09006KT 6SM HZ BKN250 24/19 A3008 RMK AO2 SLP175 T02390189 10261 20233 51010=
200607211052 METAR KATL 211052Z 06006KT 7SM BKN180 BKN250 24/18 A3008 RMK AO2 SLP173 T02390183=
200607210952 METAR KATL 210952Z 07006KT 8SM BKN180 24/18 A3006 RMK AO2 SLP168 T02390183=
200607210852 METAR KATL 210852Z 07006KT 7SM SCT180 24/18 A3005 RMK AO2 SLP165 T02440183 56009=
200607210752 METAR KATL 210752Z 07005KT 8SM FEW180 24/18 A3005 RMK AO2 SLP163 T02390183=
200607210652 METAR KATL 210652Z 08007KT 9SM CLR 24/19 A3006 RMK AO2 SLP166 T02440189=
200607210552 METAR KATL 210552Z 00000KT 8SM FEW250 26/19 A3008 RMK AO2 SLP172 T02560189 10311 20256 55006=
200607210452 METAR KATL 210452Z 16005KT 10SM FEW250 27/18 A3007 RMK AO2 SLP171 T02670183 403390239=
200607210352 METAR KATL 210352Z 12004KT 10SM FEW150 SCT250 28/19 A3007 RMK AO2 SLP171 T02780194=
200607210252 METAR KATL 210252Z 08005KT 10SM FEW150 BKN250 28/19 A3009 RMK AO2 SLP179 T02780194 51002=
200607210052 METAR KATL 210052Z 10006KT 10SM FEW120 SCT150 BKN200 BKN250 31/17 A3009 RMK AO2 SLP178 T03060167=
200607202352 METAR KATL 202352Z 00000KT 9SM SCT150 BKN200 OVC250 31/18 A3009 RMK AO2 SLP176 T03060178 10339 20267 55003=
200607202252 METAR KATL 202252Z 09006KT 10SM FEW100 SCT140 BKN200 BKN250 31/16 A3007 RMK AO2 SLP172 T03110161=
200607202152 METAR KATL 202152Z VRB03KT 9SM FEW100 BKN140 BKN250 29/17 A3007 RMK AO2 SLP170 T02890167=
200607202052 METAR KATL 202052Z 22006KT 8SM BKN060 BKN090 BKN250 27/19 A3009 RMK AO2 SLP180 LTG DSNT S-SW CB DSNT S-SW MOV SW SHRA DSNT S-SW T02670189 55014=
200607202023 SPECI KATL 202023Z 15010KT 8SM FEW060CB BKN080 BKN250 32/18 A3009 RMK AO2 CB VC N AND VC S-SW MOV SW SHRA VC N AND VC S-SW=
200607202023 SPECI KATL 202023Z 15010KT 8SM FEW060CB BKN080 BKN250 32/18 A3009 RMK AO2 CB VC N AND VC S-SW MOV SW SHRA VC N AND VC S-SW=
200607201952 METAR KATL 201952Z 10011G16KT 8SM BKN065 BKN075 BKN250 33/18 A3008 RMK AO2 SLP174 CB DSNT NE-SE AND DSNT SW TCU DSNT NW T03280178=
200607201852 METAR KATL 201852Z 04004KT 8SM FEW060 SCT120 33/18 A3010 RMK AO2 SLP181 TCU DSNT N-NE AND DSNT SW-W T03280178=
200607201752 METAR KATL 201752Z COR 00000KT 8SM FEW055 SCT120 SCT250 33/19 A3014 RMK AO2 SLP192 TCU DSNT N-NE MDT CU S-SW-W T03280194 10333 20244 58006=
200607201652 METAR KATL 201652Z 08004KT 6SM HZ FEW050 SCT250 32/21 A3016 RMK AO2 SLP199 T03220206=
200607201552 METAR KATL 201552Z VRB06KT 6SM HZ FEW250 SCT280 31/20 A3015 RMK AO2 SLP198 T03110200=
200607201452 METAR KATL 201452Z VRB04KT 5SM HZ FEW250 SCT280 30/19 A3016 RMK AO2 SLP200 T03000194 51019=
200607201352 METAR KATL 201352Z VRB03KT 5SM HZ FEW250 BKN280 28/20 A3014 RMK AO2 SLP196 T02780200=
200607201252 METAR KATL 201252Z VRB03KT 4SM HZ FEW250 26/21 A3013 RMK AO2 SLP190 T02560211=
200607201152 METAR KATL 201152Z 14003KT 5SM HZ CLR 24/21 A3010 RMK AO2 SLP181 T02440206 10261 20239 53007=
200607201052 METAR KATL 201052Z 14003KT 3SM HZ CLR 24/19 A3008 RMK AO2 SLP173 T02440189=
200607200952 METAR KATL 200952Z 19003KT 6SM HZ CLR 25/18 A3008 RMK AO2 SLP173 T02500183=
200607200852 METAR KATL 200852Z 00000KT 4SM HZ CLR 25/18 A3008 RMK AO2 SLP172 T02500183 57005=
200607200752 METAR KATL 200752Z 15003KT 5SM HZ CLR 25/19 A3009 RMK AO2 SLP175 T02500189=
200607200652 METAR KATL 200652Z 10003KT 6SM HZ FEW070 26/19 A3008 RMK AO2 SLP174 T02560194=
200607200552 METAR KATL 200552Z 17005KT 7SM FEW065 SCT080 26/18 A3009 RMK AO2 SLP177 60000 T02610183 10328 20261 50004=
200607200452 METAR KATL 200452Z 00000KT 10SM SCT090 BKN150 27/18 A3011 RMK AO2 SLP182 T02670183 403560239=
200607200352 METAR KATL 200352Z 18003KT 10SM FEW150 28/17 A3010 RMK AO2 SLP179 T02780172=
200607200252 METAR KATL 200252Z 00000KT 10SM FEW120 28/18 A3008 RMK AO2 SLP173 60000 T02780183 53023=
200607200152 METAR KATL 200152Z 00000KT 10SM FEW060 SCT120 29/17 A3005 RMK AO2 RAE02 SLP164 P0000 T02940167=
200607200052 METAR KATL 200052Z 17005KT 10SM -RA SCT070CB BKN090 BKN150 29/17 A3003 RMK AO2 TSB26E43RAB35 SLP158 TS DSIPTD CB VC NW AND DSNT SW MOV W TCU SE-OHD-W P0000 T02940172=
200607200043 SPECI KATL 200043Z 12011G16KT 10SM -RA SCT070 BKN090 BKN150 31/17 A3004 RMK AO2 TSB26E43RAB35 TS DSIPTD CB DSNT SW P0000=
200607200043 SPECI KATL 200043Z 12011G16KT 10SM -RA SCT070 BKN090 BKN150 31/17 A3004 RMK AO2 TSB26E43RAB35 TS DSIPTD CB DSNT SW P0000=
200607200026 SPECI KATL 200026Z 11008KT 090V150 9SM TS SCT070CB BKN090 BKN150 31/17 A3004 RMK AO2 TSB26 OCNL LTGCG TS E-SE MOV SW=
200607200026 SPECI KATL 200026Z 11008KT 090V150 9SM TS SCT070CB BKN090 BKN150 31/17 A3004 RMK AO2 TSB26 OCNL LTGCG TS E-SE MOV SW=
200607192352 METAR KATL 192352Z 15009KT 10SM FEW075CB SCT090 33/16 A3001 RMK AO2 SLP150 CB VC E AND S MOV W TCU VC SE AND SW T03280156 10356 20328 51004=
200607192252 METAR KATL 192252Z 09004KT 10SM FEW075TCU SCT090 34/14 A3000 RMK AO2 SLP147 TCU OHD-N CB DSNT SE-S AND NW T03440144=
200607192152 METAR KATL 192152Z 10005KT 9SM FEW075TCU 34/14 A3001 RMK AO2 SLP148 TCU SW AND NW-N MDT CU NE-E T03440144=
200607192052 METAR KATL 192052Z 07008KT 8SM FEW075 34/16 A3000 RMK AO2 SLP144 MDT CU N-NE AND W T03440156 56023=
200607191952 METAR KATL 191952Z 00000KT 8SM FEW075 35/16 A3001 RMK AO2 SLP150 MDT CU E T03500156=
200607191852 METAR KATL 191852Z 36008G15KT 320V030 8SM FEW070 SCT250 36/16 A3005 RMK AO2 SLP161 T03560161=
200607191752 METAR KATL 191752Z 05008KT 8SM FEW065 SCT240 34/18 A3007 RMK AO2 SLP168 CB DSNT S-SW T03390178 10350 20244 58007=
200607191652 METAR KATL 191652Z 08004KT 7SM FEW060 32/18 A3008 RMK AO2 SLP172 MDT CU ALQDS T03220183=
200607191552 METAR KATL 191552Z VRB04KT 6SM HZ CLR 32/20 A3009 RMK AO2 SLP175 T03220200=
200607191452 METAR KATL 191452Z 29003KT 7SM CLR 31/21 A3009 RMK AO2 SLP175 T03060206 51013=
200607191352 METAR KATL 191352Z 05003KT 6SM HZ CLR 29/21 A3008 RMK AO2 SLP173 T02890206=
200607191252 METAR KATL 191252Z 00000KT 6SM HZ CLR 27/18 A3007 RMK AO2 SLP170 T02720178=
200607191152 METAR KATL 191152Z 09005KT 6SM HZ CLR 24/17 A3005 RMK AO2 SLP163 T02440172 10278 20239 51010=
200607191052 METAR KATL 191052Z 07005KT 6SM HZ CLR 24/17 A3004 RMK AO2 SLP160 T02390172=
200607190952 METAR KATL 190952Z 00000KT 8SM CLR 25/17 A3003 RMK AO2 SLP156 T02500167=
200607190852 METAR KATL 190852Z 06005KT 8SM CLR 25/17 A3002 RMK AO2 SLP151 T02500167 56005=
200607190752 METAR KATL 190752Z 04007KT 9SM CLR 26/17 A3002 RMK AO2 SLP152 T02610167=
200607190652 METAR KATL 190652Z 03006KT 8SM CLR 27/16 A3002 RMK AO2 SLP154 T02720161=
200607190552 METAR KATL 190552Z 08003KT 7SM CLR 27/17 A3003 RMK AO2 SLP157 T02670172 10333 20267 50000=
200607190452 METAR KATL 190452Z 08008KT 10SM FEW070 28/17 A3004 RMK AO2 SLP158 T02780167 403440228=
200607190352 METAR KATL 190352Z 08003KT 10SM FEW070 31/16 A3003 RMK AO2 SLP155 OCNL LTG DSNT SE-S T03060156=
200607190252 METAR KATL 190252Z 29004KT 10SM FEW080 30/18 A3003 RMK AO2 SLP156 T03000183 53015=
200607190152 METAR KATL 190152Z 29005KT 10SM FEW080 29/19 A3001 RMK AO2 SLP151 T02940194=
200607190052 METAR KATL 190052Z 24004KT 9SM FEW070 31/17 A3000 RMK AO2 SLP147 T03110172=
200607182352 METAR KATL 182352Z 31007KT 9SM FEW070 33/15 A2999 RMK AO2 SLP142 T03280150 10344 20311 55005=
200607182252 METAR KATL 182252Z 31005KT 9SM FEW070 33/16 A2998 RMK AO2 SLP140 T03330156=
200607182152 METAR KATL 182152Z 00000KT 8SM FEW070 34/17 A2998 RMK AO2 SLP141 T03390167=
200607182052 METAR KATL 182052Z 33007KT 7SM FEW070 SCT250 34/17 A3000 RMK AO2 SLP146 T03390167 58018=
200607181952 METAR KATL 181952Z 06006KT 8SM FEW065 SCT250 34/17 A3002 RMK AO2 SLP152 CB DSNT W MOV S T03390172=
200607181852 METAR KATL 181852Z 32008KT 8SM FEW055 SCT250 33/17 A3004 RMK AO2 SLP160 CB DSNT S-NW MOV S T03330167=
200607181752 METAR KATL 181752Z 00000KT 8SM BKN050TCU 31/19 A3005 RMK AO2 SLP165 TCU OHD-N-SW T03110194 10322 20239 58011=
200607181652 METAR KATL 181652Z 04005KT 7SM FEW040 32/21 A3007 RMK AO2 SLP170 MDT CU E AND SW-W T03170211=
200607181552 METAR KATL 181552Z VRB03KT 6SM HZ CLR 30/21 A3008 RMK AO2 SLP174 T03000211=
200607181452 METAR KATL 181452Z 00000KT 6SM HZ CLR 28/21 A3009 RMK AO2 SLP177 T02830206 51007=
200607181352 METAR KATL 181352Z 00000KT 6SM HZ CLR 27/19 A3009 RMK AO2 SLP176 T02670189=
200607181252 METAR KATL 181252Z VRB03KT 6SM HZ CLR 25/18 A3008 RMK AO2 SLP174 T02500178=
200607181152 METAR KATL 181152Z 08005KT 6SM HZ CLR 24/17 A3007 RMK AO2 SLP170 T02390172 10267 20228 53007=
200607181052 METAR KATL 181052Z 00000KT 7SM CLR 23/17 A3005 RMK AO2 SLP165 T02330167=
200607180952 METAR KATL 180952Z 09004KT 9SM CLR 23/17 A3005 RMK AO2 SLP163 T02330167=
200607180852 METAR KATL 180852Z 05007KT 10SM CLR 24/16 A3004 RMK AO2 SLP161 T02440161 53003=
200607180752 METAR KATL 180752Z 07005KT 10SM CLR 25/16 A3003 RMK AO2 SLP158 T02500156=
200607180652 METAR KATL 180652Z 03007KT 10SM CLR 26/16 A3003 RMK AO2 SLP157 T02610156=
200607180552 METAR KATL 180552Z 07006KT 10SM CLR 26/16 A3004 RMK AO2 SLP159 T02610161 10317 20256 55006=
200607180452 METAR KATL 180452Z 19006KT 10SM FEW250 27/16 A3003 RMK AO2 SLP157 T02720156 403390244=
200607180352 METAR KATL 180352Z 07009KT 10SM FEW250 27/16 A3005 RMK AO2 SLP162 T02720156=
200607180252 METAR KATL 180252Z 07008KT 10SM CLR 29/16 A3005 RMK AO2 SLP164 T02890156 53013=
200607180152 METAR KATL 180152Z 06010KT 10SM CLR 30/16 A3004 RMK AO2 SLP159 T03000156=
200607180052 METAR KATL 180052Z 07009KT 10SM FEW250 30/16 A3003 RMK AO2 SLP156 T03000156=
200607172352 METAR KATL 172352Z 07010KT 10SM CLR 32/16 A3002 RMK AO2 SLP152 T03170156 10339 20317 53005=
200607172252 METAR KATL 172252Z 05013G16KT 10SM FEW070 33/16 A2999 RMK AO2 SLP142 T03280161=
200607172152 METAR KATL 172152Z 03011KT 10SM FEW070 34/16 A2999 RMK AO2 SLP141 T03390161=
200607172052 METAR KATL 172052Z 03006KT 9SM FEW060 34/17 A3000 RMK AO2 SLP145 T03390172 56020=
200607171952 METAR KATL 171952Z 08007KT 9SM FEW055 33/19 A3001 RMK AO2 SLP151 T03330189=
200607171852 METAR KATL 171852Z 00000KT 8SM FEW055 33/18 A3004 RMK AO2 SLP159 MDT CU N-SW T03280183=
200607171752 METAR KATL 171752Z 00000KT 8SM FEW050 32/19 A3006 RMK AO2 SLP166 MDT CU SW-N T03170194 10322 20250 58008=
200607171652 METAR KATL 171652Z VRB04KT 8SM SCT045 31/19 A3008 RMK AO2 SLP174 MDT CU NW-N T03110194=
200607171552 METAR KATL 171552Z 11008KT 8SM FEW040 31/21 A3008 RMK AO2 SLP174 T03060211=
200607171452 METAR KATL 171452Z 08009KT 6SM HZ CLR 29/21 A3009 RMK AO2 SLP175 T02940211 50002=
200607171352 METAR KATL 171352Z 08012KT 7SM CLR 28/21 A3009 RMK AO2 SLP176 T02780206=
200607171252 METAR KATL 171252Z 08011KT 6SM HZ CLR 26/19 A3009 RMK AO2 SLP178 T02610194=
200607171152 METAR KATL 171152Z 06010KT 6SM HZ CLR 25/18 A3008 RMK AO2 SLP175 70029 T02500183 10272 20244 53010=
200607171052 METAR KATL 171052Z 06011KT 6SM HZ CLR 24/18 A3006 RMK AO2 SLP169 T02440183 $=
200607170952 METAR KATL 170952Z 05009KT 7SM FEW050 25/19 A3005 RMK AO2 SLP166 T02500189 $=
200607170852 METAR KATL 170852Z 05009KT 7SM BKN050 26/19 A3005 RMK AO2 SLP163 T02560194 55001 $=
200607170752 METAR KATL 170752Z 07008KT 7SM CLR 26/19 A3004 RMK AO2 SLP160 T02560194 $=
200607170652 METAR KATL 170652Z 07007KT 8SM BKN095 26/20 A3004 RMK AO2 SLP161 T02610200 $=
200607170552 METAR KATL 170552Z 07007KT 9SM OVC090 27/21 A3005 RMK AO2 SLP163 60000 T02720206 10311 20267 50001 $=
200607170452 METAR KATL 170452Z 12005KT 9SM FEW046 27/19 A3006 RMK AO2 SLP167 T02670194 403280222 $=
200607170352 METAR KATL 170352Z 16003KT 9SM BKN050 28/20 A3006 RMK AO2 RAE02 SLP166 P0000 T02780200 $=
200607170252 METAR KATL 170252Z 12006KT 9SM -RA BKN055CB BKN250 29/21 A3005 RMK AO2 RAB33 SLP163 CB VC NW MOV NW P0000 60000 T02890206 53018 $=
200607170152 METAR KATL 170152Z 06008KT 8SM OVC060 31/20 A3003 RMK AO2 SLP155 BINOVC T03060200 $=
200607170052 METAR KATL 170052Z 01005KT 7SM FEW055 SCT110 BKN250 31/20 A3002 RMK AO2 SLP152 T03060200 $=
200607162352 METAR KATL 162352Z 35005KT 7SM FEW100 BKN250 29/20 A2999 RMK AO2 PK WND 01029/2256 WSHFT 2251 TSE23RAB2255E23 SLP146 TS DSIPT W-NW P0000 60029 T02940200 10328 20272 56003 $=
200607162327 SPECI KATL 162327Z 33009KT 8SM FEW032CB SCT095 BKN250 28/20 A2999 RMK AO2 PK WND 01029/2256 WSHFT 2251 TSE23RAB2255E23 TS DSIPT W-NW CB VC W-NW MOV SW P0000 $=
200607162327 SPECI KATL 162327Z 33009KT 8SM FEW032CB SCT095 BKN250 28/20 A2999 RMK AO2 PK WND 01029/2256 WSHFT 2251 TSE23RAB2255E23 TS DSIPT W-NW CB VC W-NW MOV SW P0000 $=
200607162307 SPECI KATL 162307Z 36017KT 10SM -TSRA FEW005 SCT032CB SCT075 BKN250 28/21 A3000 RMK AO2 PK WND 01029/2256 WSHFT 2251 RAB2255 OCNL LTGIC TS OHD-N-NE MOV SW P0000 $=
200607162307 SPECI KATL 162307Z 36017KT 10SM -TSRA FEW005 SCT032CB SCT075 BKN250 28/21 A3000 RMK AO2 PK WND 01029/2256 WSHFT 2251 RAB2255 OCNL LTGIC TS OHD-N-NE MOV SW P0000 $=
200607162252 METAR KATL 162252Z 36014G19KT 5SM TS HZ SCT030CB SCT070 BKN250 29/22 A3000 RMK AO2 TSB38RAE22 SLP147 OCNL LTGIC TS N-NE MOV SW SHRA NE P0019 T02940217 $=
200607162239 SPECI KATL 162239Z 28006KT 5SM TS HZ SCT030CB SCT070 BKN250 28/23 A2999 RMK AO2 TSB38RAE22 OCNL LTGIC TS NW-NE MOV SW CB SW DSIPT P0019 $=
200607162239 SPECI KATL 162239Z 28006KT 5SM TS HZ SCT030CB SCT070 BKN250 28/23 A2999 RMK AO2 TSB38RAE22 OCNL LTGIC TS NW-NE MOV SW CB SW DSIPT P0019 $=
200607162152 METAR KATL 162152Z 31011G23KT 230V020 5SM +RA FEW024 BKN048CB BKN250 28/22 A3000 RMK AO2 RAB45 SLP148 CB SW VIS SW 1 1/2SM P0010 T02830217 $=
200607162150 SPECI KATL 162150Z 32010KT 280V350 1 1/4SM +RA FEW024 BKN048 BKN250 29/22 A3000 RMK AO2 RAB45 P0004 $=
200607162150 SPECI KATL 162150Z 32010KT 280V350 1 1/4SM +RA FEW024 BKN048 BKN250 29/22 A3000 RMK AO2 RAB45 P0004 $=
200607162052 METAR KATL 162052Z 31007KT 260V340 7SM SCT050TCU SCT065 BKN150 32/22 A3000 RMK AO2 SLP149 TCU OHD AND DSNT E AND S T03220217 56016 $=
200607161952 METAR KATL 161952Z 35007KT 8SM SCT050TCU SCT070 BKN150 33/21 A3002 RMK AO2 SLP153 TCU OHD-SW T03280206 $=
200607161852 METAR KATL 161852Z VRB05KT 8SM SCT050 SCT090 BKN150 32/20 A3003 RMK AO2 SLP158 TCU DSNT N AND NW T03170200 $=
200607161752 METAR KATL 161752Z VRB04KT 8SM SCT055 BKN150 32/20 A3005 RMK AO2 SLP165 TCU DSNT N-NE AND E AND NW T03220200 10322 20239 58011 $=
200607161652 METAR KATL 161652Z 00000KT 8SM SCT041 31/20 A3008 RMK AO2 SLP173 TCU DSNT N AND E AND SW T03110200 $=
200607161552 METAR KATL 161552Z 00000KT 8SM SCT044 30/21 A3009 RMK AO2 SLP177 TCU DSNT NW MDT CU ALQDS T03000206 $=
200607161452 METAR KATL 161452Z 00000KT 8SM CLR 29/22 A3009 RMK AO2 SLP176 T02890217 50002 $=
200607161352 METAR KATL 161352Z 32005KT 8SM CLR 27/22 A3009 RMK AO2 SLP178 T02670217 $=
200607161252 METAR KATL 161252Z 32007KT 7SM FEW085 25/21 A3009 RMK AO2 SLP178 T02500211 $=
200607161152 METAR KATL 161152Z 30005KT 7SM SCT250 24/21 A3008 RMK AO2 SLP176 T02390211 10239 20222 51014 $=
200607161052 METAR KATL 161052Z 00000KT 9SM FEW250 22/21 A3007 RMK AO2 SLP174 T02220206 $=
200607160952 METAR KATL 160952Z 27003KT 8SM FEW250 22/21 A3006 RMK AO2 SLP168 T02220206 $=
200607160852 METAR KATL 160852Z 28004KT 8SM CLR 22/21 A3004 RMK AO2 SLP162 T02220206 55005 $=
200607160752 METAR KATL 160752Z 30005KT 9SM CLR 23/21 A3004 RMK AO2 SLP162 T02280206 $=
200607160652 METAR KATL 160652Z 29005KT 10SM CLR 23/21 A3005 RMK AO2 SLP164 T02330206 $=
200607160552 METAR KATL 160552Z 27005KT 10SM FEW120 24/21 A3005 RMK AO2 SLP165 T02390206 10267 20233 58007 $=
200607160452 METAR KATL 160452Z 31004KT 10SM FEW120 24/21 A3007 RMK AO2 SLP171 T02390206 403280239 $=
200607160352 METAR KATL 160352Z 27006KT 10SM FEW120 24/20 A3008 RMK AO2 SLP174 T02440200 $=
200607160252 METAR KATL 160252Z 21003KT 10SM FEW120 SCT250 26/20 A3008 RMK AO2 SLP173 T02610200 53007 $=
200607160052 METAR KATL 160052Z 28007KT 10SM BKN120 BKN250 27/19 A3005 RMK AO2 SLP164 T02670189 $=
200607152352 METAR KATL 152352Z 26007KT 10SM SCT120 BKN250 26/19 A3006 RMK AO2 RAE15 SLP168 P0000 60000 T02610189 10328 20244 51000 $=
200607152252 METAR KATL 152252Z 30007KT 10SM -RA FEW030 SCT080 BKN250 27/19 A3005 RMK AO2 RAB52 SLP167 PCPN VRY LGT P0000 T02670194 $=
200607152152 METAR KATL 152152Z 29012KT 10SM FEW060 SCT110 BKN250 27/21 A3006 RMK AO2 SLP168 T02720206 $=
200607152052 METAR KATL 152052Z 00000KT 9SM BKN150 BKN250 28/20 A3006 RMK AO2 SLP167 CB DSNT W AND NW MOV SE SHRA DSNT E-S 60000 T02830200 58017 $=
200607151952 METAR KATL 151952Z 15005KT 8SM SCT043 BKN085 BKN150 26/18 A3008 RMK AO2 PK WND 30033/1853 WSHFT 1845 TSE52RAB00E40 SLP176 LTG DSNT E-S CB DSNT SE MOV SE SHRA E-S P0000 T02610183=
200607151903 SPECI KATL 151903Z 32021G31KT 7SM -TSRA SCT037CB BKN047 BKN060 26/20 A3011 RMK AO2 PK WND 30033/1853 WSHFT 1845 RAB00 FRQ LTGICCCCG TS N-NE AND SW-N MOV SE CB N-NE AND SW-N MOV SE SHRA N-NE AND SW-N P0000=
200607151903 SPECI KATL 151903Z 32021G31KT 7SM -TSRA SCT037CB BKN047 BKN060 26/20 A3011 RMK AO2 PK WND 30033/1853 WSHFT 1845 RAB00 FRQ LTGICCCCG TS N-NE AND SW-N MOV SE CB N-NE AND SW-N MOV SE SHRA N-NE AND=
200607151852 METAR KATL 151852Z COR 31023G35KT 7SM TS FEW037CB SCT049 SCT055 BKN080 BKN150 29/21 A3012 RMK AO2 PK WND 31035/1852 WSHFT 1817 TSB34 PRESRR SLP188 FRQ LTGICCCCG TS SW-NE MOV SE CB N-NE AND SW-N MOV SE SHRA N-NE AN=
200607151834 SPECI KATL 151834Z 35014KT 7SM TS FEW048CB SCT150 32/21 A3010 RMK AO2 WSHFT 1817 TSB34 OCNL LTGCG CB N-NE AND SW-N MOV SE E TCU DSNT NE AND SE-SW SHRA DSNT N-NE AND NW-N=
200607151834 SPECI KATL 151834Z 35014KT 7SM TS FEW048CB SCT150 32/21 A3010 RMK AO2 WSHFT 1817 TSB34 OCNL LTGCG CB N-NE AND SW-N MOV SE E TCU DSNT NE AND SE-SW SHRA DSNT N-NE AND NW-N=
200607151752 METAR KATL 151752Z 24008KT 8SM SCT040 SCT150 33/22 A3011 RMK AO2 SLP182 LTG DSNT NW CB DSNT W AND NW-N MOV E TCU DSNT NE AND SE-SW SHRA DSNT N-NE AND DSNT NW-N T03280217 10328 20250 58013=
200607151652 METAR KATL 151652Z 23006KT 8SM FEW035 SCT150 31/22 A3014 RMK AO2 SLP192 TCU DSNT SE-S AND DSNT NW-N T03110217=
200607151552 METAR KATL 151552Z 22008KT 9SM FEW035 SCT070 SCT090 BKN150 29/22 A3015 RMK AO2 SLP196 T02940217=
200607151452 METAR KATL 151452Z 27007KT 9SM FEW065 BKN150 BKN250 29/22 A3015 RMK AO2 SLP195 T02890217 51004=
200607151352 METAR KATL 151352Z 23005KT 9SM SCT065 BKN110 BKN250 27/21 A3014 RMK AO2 SLP196 T02720211=
200607151252 METAR KATL 151252Z 22005KT 10SM BKN110 BKN250 26/21 A3014 RMK AO2 SLP195 T02560211=
200607151152 METAR KATL 151152Z 24005KT 10SM SCT110 BKN250 25/21 A3013 RMK AO2 SLP191 T02500206 10283 20239 51016=
200607151052 METAR KATL 151052Z 27005KT 10SM FEW150 SCT250 24/21 A3012 RMK AO2 SLP189 CB DSNT NW T02390206=
200607150952 METAR KATL 150952Z 25007KT 10SM CLR 25/21 A3011 RMK AO2 SLP183 T02500206=
200607150852 METAR KATL 150852Z 25010KT 10SM SCT150 SCT250 26/21 A3008 RMK AO2 SLP175 T02560206 55008=
200607150752 METAR KATL 150752Z 23009KT 10SM FEW090 SCT150 SCT250 26/20 A3008 RMK AO2 SLP173 T02610200=
200607150652 METAR KATL 150652Z 20007KT 10SM FEW090 SCT150 BKN250 28/20 A3009 RMK AO2 SLP176 T02780200=
200607150552 METAR KATL 150552Z 00000KT 10SM BKN090 BKN150 BKN250 28/21 A3011 RMK AO2 SLP182 T02830206 10317 20283 53005=
200607150452 METAR KATL 150452Z 00000KT 10SM SCT100 BKN150 BKN250 29/21 A3010 RMK AO2 SLP179 T02890206 403330239=
200607150352 METAR KATL 150352Z 09004KT 10SM SCT100 SCT150 BKN250 29/21 A3010 RMK AO2 SLP179 T02940211=
200607150252 METAR KATL 150252Z 00000KT 10SM SCT140 BKN250 29/21 A3009 RMK AO2 SLP177 T02940211 53011=
200607150152 METAR KATL 150152Z 32006KT 10SM BKN140 BKN250 30/19 A3008 RMK AO2 SLP174 T03000194=
200607150052 METAR KATL 150052Z 31004KT 10SM FEW100 SCT140 BKN250 31/19 A3007 RMK AO2 SLP170 T03110194=
200607142352 METAR KATL 142352Z 28004KT 10SM FEW060 SCT100 BKN140 BKN250 31/19 A3006 RMK AO2 SLP167 T03110194 10333 20311 55002=
200607142252 METAR KATL 142252Z 22006KT 10SM FEW060 SCT090 BKN120 BKN250 33/18 A3006 RMK AO2 SLP165 T03280183=
200607142152 METAR KATL 142152Z 21006KT 10SM FEW060 SCT090 BKN110 33/18 A3005 RMK AO2 SLP165 MDT CU VC NE AND SW TCU DSNT E-SE T03280178=
200607142052 METAR KATL 142052Z VRB06KT 10SM SCT060TCU BKN090 BKN110 32/18 A3006 RMK AO2 SLP169 TCU DSNT SE AND VC SW-W-NW-N T03220183 56019=
200607141952 METAR KATL 141952Z 23008KT 10SM FEW055TCU SCT100 SCT200 33/18 A3007 RMK AO2 SLP171 CB DSNT NW-N TCU NW-N T03280183=
200607141852 METAR KATL 141852Z 21008KT 10SM SCT050TCU SCT250 32/19 A3010 RMK AO2 SLP180 CB DSNT NW-N TCU NE AND SE AND W-NW T03220194=
200607141752 METAR KATL 141752Z 26008KT 10SM FEW050 SCT200 SCT250 32/20 A3012 RMK AO2 SLP187 CB DSNT N-NE TCU DSNT NW T03220200 10322 20244 58008=
200607141652 METAR KATL 141652Z 28007KT 10SM FEW050 SCT100 SCT250 31/19 A3014 RMK AO2 SLP193 CB DSNT N-NE TCU DSNT NW T03110189=
200607141552 METAR KATL 141552Z 26011G15KT 10SM FEW045 SCT100 SCT250 31/20 A3015 RMK AO2 SLP196 TCU DSNT NW-N T03110200=
200607141452 METAR KATL 141452Z VRB06G16KT 10SM FEW035 SCT065 SCT100 SCT250 29/20 A3015 RMK AO2 SLP196 T02940200 51010=
200607141352 METAR KATL 141352Z 26010KT 10SM BKN065 BKN100 27/21 A3015 RMK AO2 SLP197 T02720206=
200607141252 METAR KATL 141252Z 25003KT 10SM FEW065 27/21 A3013 RMK AO2 SLP189 T02670211=
200607141152 METAR KATL 141152Z 23003KT 10SM FEW070 SCT250 24/21 A3011 RMK AO2 SLP186 ACC S-SW 70001 T02440206 10272 20239 53008=
200607141052 METAR KATL 141052Z 20003KT 10SM FEW065 SCT250 24/21 A3010 RMK AO2 SLP182 T02440206=
200607140952 METAR KATL 140952Z 27005KT 10SM FEW065 24/21 A3010 RMK AO2 SLP179 T02440206=
200607140852 METAR KATL 140852Z 24003KT 10SM FEW060 SCT110 25/20 A3009 RMK AO2 SLP176 T02500200 53003=
200607140752 METAR KATL 140752Z 23004KT 10SM BKN080 26/20 A3008 RMK AO2 SLP172 T02560200=
200607140652 METAR KATL 140652Z 24004KT 10SM FEW060 SCT110 SCT250 26/20 A3008 RMK AO2 SLP173 T02610200=
200607140552 METAR KATL 140552Z 25005KT 10SM FEW060 SCT110 SCT250 27/19 A3008 RMK AO2 SLP174 T02720194 10317 20272 55002=
200607140452 METAR KATL 140452Z 21008KT 10SM SCT065 BKN100 BKN250 28/19 A3008 RMK AO2 SLP172 T02780194 403330233=
200607140352 METAR KATL 140352Z 20006KT 10SM FEW070 SCT250 28/19 A3008 RMK AO2 SLP173 T02830194=
200607140252 METAR KATL 140252Z 18004KT 10SM FEW050 SCT250 29/19 A3008 RMK AO2 SLP174 T02890194 53012=
200607140152 METAR KATL 140152Z 21005KT 10SM FEW080 SCT250 30/19 A3007 RMK AO2 SLP172 T03000194=
200607140052 METAR KATL 140052Z 22004KT 10SM FEW055TCU SCT200 BKN250 31/19 A3006 RMK AO2 SLP166 TCU VC NE T03060194=
200607132352 METAR KATL 132352Z 19008KT 10SM FEW060TCU SCT200 BKN250 32/19 A3005 RMK AO2 SLP163 TCU VC SW AND DSNT N CB DSNT NE AND E 60001 T03170189 10333 20294 56004=
200607132252 METAR KATL 132252Z 22007KT 9SM FEW060 SCT200 33/17 A3005 RMK AO2 SLP164 CB DSNT N TCU DSNT NE-SE-SW T03280172=
200607132152 METAR KATL 132152Z 19009KT 10SM SCT060TCU SCT080 BKN200 33/18 A3005 RMK AO2 SLP164 TCU E-SE AND SW-W MDT CU ALQDS T03280183=
200607132052 METAR KATL 132052Z 18007KT 10SM FEW060 SCT220 SCT320 33/18 A3006 RMK AO2 SLP167 CB DSNT S-SW AND NW-N TCU DSNT E 60001 T03330178 58025=
200607131952 METAR KATL 131952Z 23008KT 200V260 10SM FEW060 SCT100 SCT220 33/18 A3009 RMK AO2 SLP176 CB DSNT NE TCU DSNT E-S T03330183=
200607131852 METAR KATL 131852Z 20006KT 10SM FEW045 BKN100 BKN150 31/21 A3012 RMK AO2 RAB1754E45 SLP186 MDT CU NE-SW AND VC NW P0001 T03110206=
200607131804 SPECI KATL 131804Z 28004KT 10SM -RA BKN040TCU BKN050 29/21 A3013 RMK AO2 RAB1754 TCU OHD AND ALQDS P0001=
200607131804 SPECI KATL 131804Z 28004KT 10SM -RA BKN040TCU BKN050 29/21 A3013 RMK AO2 RAB1754 TCU OHD AND ALQDS P0001=
200607131752 METAR KATL 131752Z 23009KT 10SM BKN045TCU 31/19 A3014 RMK AO2 RAB48E49 SLP193 TCU OHD-NE-SW AND DSNT NW-N P0000 60000 T03060194 10311 20239 58010=
200607131652 METAR KATL 131652Z VRB06KT 10SM SCT045 31/21 A3015 RMK AO2 SLP197 TCU DSNT NW-N MDT CU NE-SW T03110206=
200607131552 METAR KATL 131552Z COR 23007KT 10SM FEW035 30/21 A3017 RMK AO2 SLP203 TCU DSNT NW-N T03000206=
200607131452 METAR KATL 131452Z 25006KT 10SM FEW035 29/21 A3017 RMK AO2 SLP204 T02940206 50002=
200607131352 METAR KATL 131352Z 24007KT 10SM CLR 27/21 A3017 RMK AO2 SLP205 T02720211=
200607131252 METAR KATL 131252Z 21007KT 10SM FEW100 26/21 A3017 RMK AO2 SLP205 T02560206=
200607131152 METAR KATL 131152Z 21007KT 10SM FEW100 24/20 A3016 RMK AO2 SLP202 T02390200 10267 20233 51009=
200607131052 METAR KATL 131052Z 21005KT 10SM FEW100 23/20 A3015 RMK AO2 SLP199 T02330200=
200607130952 METAR KATL 130952Z 21006KT 10SM CLR 24/20 A3015 RMK AO2 SLP197 T02390200=
200607130852 METAR KATL 130852Z 20008KT 10SM CLR 24/20 A3014 RMK AO2 SLP193 T02440200 53001=
200607130752 METAR KATL 130752Z 20009KT 10SM CLR 25/20 A3013 RMK AO2 SLP191 T02500200=
200607130652 METAR KATL 130652Z 18007KT 10SM FEW065 BKN100 26/20 A3013 RMK AO2 SLP190 T02560200=
200607130552 METAR KATL 130552Z 18008KT 10SM SCT065 BKN100 27/19 A3013 RMK AO2 SLP192 T02670194 10317 20267 57001=
200607130452 METAR KATL 130452Z 17003KT 10SM FEW075 SCT100 BKN140 27/19 A3013 RMK AO2 SLP192 T02720189 403280228=
200607130352 METAR KATL 130352Z 20005KT 10SM FEW070 OVC110 27/19 A3014 RMK AO2 SLP194 BINOVC T02720189=
200607130252 METAR KATL 130252Z 19009KT 10SM FEW250 28/19 A3014 RMK AO2 SLP193 T02780189 53012=
200607130152 METAR KATL 130152Z 15009KT 10SM FEW250 29/18 A3012 RMK AO2 SLP187 T02940183=
200607130052 METAR KATL 130052Z 17004KT 10SM SCT250 31/17 A3011 RMK AO2 SLP184 CB DSNT SE T03110172=
200607122352 METAR KATL 122352Z 19007KT 10SM SCT250 32/17 A3010 RMK AO2 SLP181 T03170167 10328 20311 55008=
200607122252 METAR KATL 122252Z 21010KT 10SM SCT250 32/16 A3009 RMK AO2 SLP179 T03220161=
200607122152 METAR KATL 122152Z 21007KT 10SM FEW065 BKN250 32/17 A3010 RMK AO2 SLP182 T03220167=
200607122052 METAR KATL 122052Z 22006KT 10SM FEW065 SCT100 SCT250 32/17 A3013 RMK AO2 SLP190 MDT CU NW T03220172 58023=
200607121952 METAR KATL 121952Z VRB06KT 10SM FEW060 SCT250 32/17 A3015 RMK AO2 SLP198 MDT CU W T03170172=
200607121852 METAR KATL 121852Z 14006KT 10SM SCT060 BKN250 32/17 A3017 RMK AO2 SLP205 TCU DSNT N MDT CU NE AND W T03170172=
200607121752 METAR KATL 121752Z VRB04KT 10SM BKN055 BKN250 31/18 A3020 RMK AO2 SLP213 MDT CU NE-SW AND DSNT NW-N T03110178 10311 20233 58008=
200607121652 METAR KATL 121652Z 28007KT 10SM FEW060 BKN250 31/18 A3021 RMK AO2 SLP217 T03060183=
200607121552 METAR KATL 121552Z 21007KT 10SM FEW045 BKN250 29/18 A3022 RMK AO2 SLP220 T02940183=
200607121452 METAR KATL 121452Z 24007KT 10SM BKN250 28/18 A3022 RMK AO2 SLP222 T02830183 51009=
200607121352 METAR KATL 121352Z VRB04KT 9SM BKN250 27/19 A3022 RMK AO2 SLP222 T02720194=
200607121252 METAR KATL 121252Z 22007KT 7SM SCT250 24/19 A3021 RMK AO2 SLP218 T02440189=
200607121152 METAR KATL 121152Z 20004KT 6SM HZ SCT250 23/18 A3019 RMK AO2 SLP213 T02330183 10256 20228 53013=
200607121052 METAR KATL 121052Z 00000KT 8SM FEW075 SCT180 BKN250 23/18 A3018 RMK AO2 SLP208 T02280183=
200607120952 METAR KATL 120952Z 20004KT 10SM FEW075 SCT190 BKN250 23/18 A3016 RMK AO2 SLP201 T02330183 $=
200607120852 METAR KATL 120852Z 17006KT 10SM SCT070 SCT180 BKN250 24/19 A3015 RMK AO2 SLP199 T02390189 55000 $=
200607120752 METAR KATL 120752Z COR 17008KT 10SM FEW070 SCT180 BKN250 24/19 A3015 RMK AO2 SLP197 T02440189 $=
200607120652 METAR KATL 120652Z 15009KT 10SM FEW075 SCT180 BKN250 25/18 A3015 RMK AO2 SLP197 T02500183 $=
200607120552 METAR KATL 120552Z 13004KT 7SM SCT075 BKN250 26/17 A3015 RMK AO2 SLP199 T02560172 10311 20256 58007 $=
200607120452 METAR KATL 120452Z 19003KT 10SM FEW080 BKN250 27/17 A3017 RMK AO2 SLP204 T02670172 403220222 $=
200607120352 METAR KATL 120352Z 13003KT 10SM FEW250 27/17 A3017 RMK AO2 SLP206 T02720172 $=
200607120252 METAR KATL 120252Z 12005KT 9SM FEW120 SCT250 29/17 A3018 RMK AO2 SLP207 T02890167 51015 $=
200607120152 METAR KATL 120152Z 14004KT 9SM SCT120 BKN250 29/17 A3016 RMK AO2 SLP202 T02940167 $=
200607120052 METAR KATL 120052Z 00000KT 9SM FEW150 BKN250 30/17 A3015 RMK AO2 SLP198 T03000167 $=
200607112352 METAR KATL 112352Z 18005KT 9SM BKN250 31/16 A3013 RMK AO2 SLP193 T03110156 10322 20300 55004 $=
200607112252 METAR KATL 112252Z 16007KT 9SM BKN250 32/15 A3012 RMK AO2 SLP187 T03170150 $=
200607112152 METAR KATL 112152Z COR 15008KT 9SM SCT250 32/16 A3012 RMK AO2 SLP189 T03170161 $=
200607112052 METAR KATL 112052Z 17006KT 7SM FEW065 SCT250 32/16 A3014 RMK AO2 SLP196 T03170156 58014 $=
200607111952 METAR KATL 111952Z 14004KT 8SM SCT065 SCT250 32/16 A3016 RMK AO2 SLP202 T03170161=
200607111852 METAR KATL 111852Z 25004KT 8SM FEW060 SCT250 31/17 A3018 RMK AO2 SLP207 T03110167=
200607111752 METAR KATL 111752Z 31007KT 8SM SCT050 BKN250 31/17 A3019 RMK AO2 SLP211 T03060172 10306 20228 58003=
200607111652 METAR KATL 111652Z 32008KT 8SM FEW050 BKN250 30/17 A3020 RMK AO2 SLP214 T03000167=
200607111552 METAR KATL 111552Z 29008KT 7SM BKN250 29/19 A3020 RMK AO2 SLP217 T02940189=
200607111452 METAR KATL 111452Z 22005KT 7SM BKN250 28/18 A3020 RMK AO2 SLP215 T02780183 51010=
200607111352 METAR KATL 111352Z 26006KT 7SM BKN250 26/18 A3019 RMK AO2 SLP214 T02610183=
200607111252 METAR KATL 111252Z COR VRB05KT 7SM BKN250 24/18 A3019 RMK AO2 SLP212 T02390183=
200607111152 METAR KATL 111152Z 22004KT 5SM HZ BKN250 23/19 A3016 RMK AO2 SLP204 T02280189 10239 20222 53011=
200607111052 METAR KATL 111052Z 23003KT 6SM HZ SCT180 BKN250 22/18 A3015 RMK AO2 SLP201 T02220183=
200607110952 METAR KATL 110952Z VRB03KT 8SM BKN180 23/18 A3014 RMK AO2 SLP196 T02280183=
200607110852 METAR KATL 110852Z 14004KT 7SM BKN180 23/18 A3013 RMK AO2 SLP192 T02330178 56001=
200607110752 METAR KATL 110752Z 00000KT 9SM SCT250 23/18 A3013 RMK AO2 SLP192 T02330178=
200607110652 METAR KATL 110652Z 15003KT 9SM FEW070 23/18 A3013 RMK AO2 SLP191 T02330183=
200607110552 METAR KATL 110552Z 14004KT 9SM FEW070 BKN150 BKN250 24/18 A3013 RMK AO2 SLP192 T02390183 10283 20239 51001=
200607110452 METAR KATL 110452Z 00000KT 9SM SCT110 BKN150 BKN250 25/19 A3013 RMK AO2 SLP192 T02500194 402940206=
200607110352 METAR KATL 110352Z 09004KT 9SM BKN150 OVC250 24/19 A3013 RMK AO2 SLP192 T02440194=
200607110252 METAR KATL 110252Z 11003KT 9SM BKN150 OVC250 26/19 A3013 RMK AO2 SLP192 T02610194 53012=
200607110152 METAR KATL 110152Z 14005KT 9SM BKN140 OVC200 27/21 A3011 RMK AO2 SLP187 T02670206=
200607110052 METAR KATL 110052Z 14005KT 9SM FEW060 BKN140 OVC200 27/21 A3010 RMK AO2 SLP184 T02720206=
200607102352 METAR KATL 102352Z 27003KT 10SM SCT130 BKN150 OVC200 28/18 A3009 RMK AO2 SLP181 T02780183 10294 20278 55000=
200607102252 METAR KATL 102252Z 24005KT 10SM FEW090 BKN150 OVC200 28/19 A3008 RMK AO2 SLP178 T02830189=
200607102152 METAR KATL 102152Z 30006KT 10SM FEW120 BKN150 OVC200 28/19 A3009 RMK AO2 SLP178 T02830189=
200607102052 METAR KATL 102052Z VRB05KT 8SM FEW040 SCT120 BKN150 BKN250 29/19 A3009 RMK AO2 SLP181 T02890189 58010=
200607101952 METAR KATL 101952Z 30005KT 8SM FEW045 SCT120 BKN150 BKN250 29/19 A3011 RMK AO2 SLP185 CB DSNT NE-E AND DSNT S T02890194=
200607101852 METAR KATL 101852Z 26006KT 9SM FEW040TCU BKN150 BKN250 29/19 A3012 RMK AO2 SLP188 CB DSNT E-S TCU NW SHRA DSNT E-S T02890194=
200607101752 METAR KATL 101752Z 29010KT 8SM FEW040TCU BKN150 BKN250 28/19 A3013 RMK AO2 SLP191 TCU N-NE AND DSNT SW T02830189 10294 20211 58010=
200607101652 METAR KATL 101652Z 36006KT 7SM FEW035 SCT150 28/20 A3014 RMK AO2 SLP196 T02830200=
200607101552 METAR KATL 101552Z VRB03KT 7SM FEW150 28/19 A3015 RMK AO2 SLP199 T02780194=
200607101452 METAR KATL 101452Z 31005KT 6SM HZ FEW050 SCT070 SCT150 SCT250 25/19 A3016 RMK AO2 SLP203 T02500189 51012=
200607101352 METAR KATL 101352Z 27004KT 7SM FEW050 BKN060 BKN150 23/18 A3015 RMK AO2 SLP199 T02330183=
200607101252 METAR KATL 101252Z 22005KT 5SM HZ FEW055 BKN120 22/18 A3014 RMK AO2 SLP197 T02220178=
200607101152 METAR KATL 101152Z 17003KT 4SM HZ SCT060 BKN075 21/18 A3012 RMK AO2 SLP192 70011 T02110178 10228 20206 53014=
200607101052 METAR KATL 101052Z 22005KT 4SM BR SCT250 21/18 A3009 RMK AO2 SLP182 T02060183=
200607100952 METAR KATL 100952Z 23003KT 6SM HZ CLR 21/18 A3009 RMK AO2 SLP179 T02110183=
200607100852 METAR KATL 100852Z 20004KT 6SM HZ BKN100 22/18 A3008 RMK AO2 SLP176 T02170183 55004=
200607100752 METAR KATL 100752Z 00000KT 5SM HZ FEW100 22/18 A3008 RMK AO2 SLP175 T02170183=
200607100652 METAR KATL 100652Z 00000KT 7SM FEW075 22/18 A3008 RMK AO2 SLP176 T02220178=
200607100552 METAR KATL 100552Z 11003KT 7SM SCT075 BKN150 22/18 A3009 RMK AO2 RAB0455E24 SLP181 P0009 60009 T02170178 10244 20217 58006=
200607100452 METAR KATL 100452Z 27003KT 6SM HZ BKN070 23/21 A3010 RMK AO2 RAB13E36 SLP183 P0000 T02330206 402890189=
200607100352 METAR KATL 100352Z 00000KT 7SM SCT060 BKN150 24/20 A3011 RMK AO2 SLP185 T02440200=
200607100252 METAR KATL 100252Z 00000KT 7SM BKN070 OVC120 24/20 A3011 RMK AO2 SLP187 T02390200 53013=
200607100152 METAR KATL 100152Z 32003KT 7SM BKN085 BKN150 23/20 A3009 RMK AO2 SLP180 T02330200=
200607100052 METAR KATL 100052Z 28007KT 6SM HZ FEW100 SCT150 BKN250 23/20 A3008 RMK AO2 SLP179 T02280200=
200607092352 METAR KATL 092352Z 26004KT 7SM FEW015 SCT095 SCT150 BKN250 24/19 A3007 RMK AO2 RAE44 SLP175 P0002 60002 T02440194 10289 20244 58001=
200607092252 METAR KATL 092252Z 21006KT 7SM -RA FEW047 SCT070 BKN110 OVC250 27/17 A3008 RMK AO2 RAB51 SLP177 P0000 T02720172=
200607092152 METAR KATL 092152Z 18006KT 7SM FEW047 BKN110 BKN250 28/17 A3008 RMK AO2 SLP178 T02780167=
200607092052 METAR KATL 092052Z 13005KT 8SM SCT047 BKN150 28/17 A3008 RMK AO2 SLP175 T02830167 58018=
200607091952 METAR KATL 091952Z 16007KT 130V200 8SM SCT042 BKN048 OVC150 28/17 A3010 RMK AO2 SLP185 T02780172=
200607091852 METAR KATL 091852Z 31007KT 8SM SCT038TCU BKN060 OVC150 28/19 A3011 RMK AO2 SLP186 TCU VC E MOV NE SHRA VC NE-SE T02830189=
200607091752 METAR KATL 091752Z 25005KT 8SM SCT040 SCT055 BKN070 OVC150 27/19 A3013 RMK AO2 SLP194 SHRA DSNT S-W T02720189 10283 20194 58011=
200607091652 METAR KATL 091652Z 23007KT 8SM FEW045 SCT100 BKN150 27/17 A3015 RMK AO2 SLP199 T02720172=
200607091552 METAR KATL 091552Z 21005KT 9SM SCT075 BKN150 26/16 A3016 RMK AO2 SLP202 T02610161=
200607091452 METAR KATL 091452Z 19005KT 9SM FEW070 SCT095 BKN150 25/15 A3016 RMK AO2 SLP205 T02500150 50001=
200607091352 METAR KATL 091352Z 21007KT 9SM BKN095 23/15 A3018 RMK AO2 SLP210 T02280150=
200607091252 METAR KATL 091252Z 21006KT 9SM BKN080 21/14 A3017 RMK AO2 SLP209 T02060144=
200607091152 METAR KATL 091152Z 19005KT 8SM BKN250 19/14 A3016 RMK AO2 SLP204 T01940139 10217 20189 53010=
200607091052 METAR KATL 091052Z 19004KT 7SM FEW095 SCT180 BKN250 19/14 A3015 RMK AO2 SLP200 T01890139=
200607090952 METAR KATL 090952Z 20003KT 8SM CLR 19/14 A3013 RMK AO2 SLP194 T01940139=
200607090852 METAR KATL 090852Z 20003KT 9SM CLR 20/14 A3013 RMK AO2 SLP194 T02000139 55004=
200607090752 METAR KATL 090752Z 17004KT 9SM CLR 21/14 A3013 RMK AO2 SLP193 T02060139=
200607090652 METAR KATL 090652Z 17003KT 8SM CLR 21/15 A3014 RMK AO2 SLP196 T02110150=
200607090552 METAR KATL 090552Z 14003KT 9SM CLR 22/14 A3014 RMK AO2 SLP198 T02170144 10272 20217 58004=
200607090452 METAR KATL 090452Z 19004KT 9SM CLR 22/15 A3016 RMK AO2 SLP203 T02220150 402780183=
200607090352 METAR KATL 090352Z VRB03KT 9SM CLR 23/14 A3016 RMK AO2 SLP203 T02330144=
200607090252 METAR KATL 090252Z 14004KT 8SM CLR 24/16 A3015 RMK AO2 SLP202 T02390156 51007=
200607090152 METAR KATL 090152Z 15003KT 7SM CLR 24/15 A3015 RMK AO2 SLP200 T02440150=
200607090052 METAR KATL 090052Z 18004KT 8SM FEW070 26/14 A3014 RMK AO2 SLP197 T02610144=
200607082352 METAR KATL 082352Z 12004KT 9SM FEW065 SCT090 27/12 A3013 RMK AO2 SLP195 T02720122 10278 20256 56007=
200607082252 METAR KATL 082252Z 16003KT 9SM FEW060 SCT090 27/13 A3014 RMK AO2 SLP196 T02720128=
200607082152 METAR KATL 082152Z 20003KT 8SM FEW060 SCT090 28/13 A3014 RMK AO2 SLP199 T02780128=
200607082052 METAR KATL 082052Z VRB03KT 9SM SCT060 BKN080 27/13 A3015 RMK AO2 SLP202 T02720128 56021=
200607081952 METAR KATL 081952Z 17005KT 9SM BKN055 27/14 A3017 RMK AO2 SLP208 T02720139=
200607081852 METAR KATL 081852Z VRB03KT 9SM BKN055 BKN070 26/14 A3020 RMK AO2 SLP216 T02610139=
200607081752 METAR KATL 081752Z VRB05KT 9SM SCT050 26/15 A3022 RMK AO2 SLP224 MDT CU ALQDS T02610150 10267 20200 58015=
200607081652 METAR KATL 081652Z 09005KT 9SM SCT042 26/14 A3024 RMK AO2 SLP231 T02560144=
200607081552 METAR KATL 081552Z VRB03KT 10SM FEW040 25/15 A3026 RMK AO2 SLP237 T02500150=
200607081452 METAR KATL 081452Z VRB04KT 10SM FEW100 23/16 A3026 RMK AO2 SLP239 T02330156 50004=
200607081352 METAR KATL 081352Z 15005KT 9SM FEW030 SCT095 22/14 A3027 RMK AO2 SLP243 T02220144=
200607081252 METAR KATL 081252Z 10007KT 9SM SCT080 21/14 A3027 RMK AO2 SLP242 T02110144=
200607081152 METAR KATL 081152Z 08007KT 8SM SCT075 20/14 A3025 RMK AO2 SLP236 T02000144 10217 20183 53014=
200607081052 METAR KATL 081052Z 08006KT 9SM FEW075 19/14 A3024 RMK AO2 SLP231 T01890144=
200607080952 METAR KATL 080952Z 09005KT 10SM FEW080 19/14 A3022 RMK AO2 SLP225 T01890144=
200607080852 METAR KATL 080852Z 08006KT 10SM FEW065 19/14 A3021 RMK AO2 SLP220 T01940144 58005=
200607080752 METAR KATL 080752Z 09005KT 10SM BKN080 21/14 A3021 RMK AO2 SLP223 T02060144=
200607080652 METAR KATL 080652Z 08008KT 9SM BKN080 21/16 A3022 RMK AO2 SLP225 T02060156=
200607080552 METAR KATL 080552Z 10005KT 10SM BKN075 22/15 A3022 RMK AO2 SLP226 T02170150 10256 20211 58002=
200607080452 METAR KATL 080452Z 10007KT 10SM SCT080 22/15 A3023 RMK AO2 SLP228 T02220150 402670189=
200607080352 METAR KATL 080352Z 11008KT 10SM CLR 23/15 A3023 RMK AO2 SLP229 T02280150=
200607080252 METAR KATL 080252Z 10006KT 10SM CLR 23/16 A3023 RMK AO2 SLP228 T02330156 53015=
200607080152 METAR KATL 080152Z 09007KT 10SM CLR 23/16 A3020 RMK AO2 SLP220 T02330156=
200607080052 METAR KATL 080052Z 09007KT 10SM CLR 24/16 A3019 RMK AO2 SLP216 T02440156=
200607072352 METAR KATL 072352Z 09006KT 10SM CLR 26/15 A3018 RMK AO2 SLP213 T02560150 10267 20256 55001=
200607072252 METAR KATL 072252Z VRB05KT 10SM FEW045 27/16 A3018 RMK AO2 SLP212 T02670156=
200607072152 METAR KATL 072152Z VRB04KT 10SM SCT045 SCT070 26/16 A3019 RMK AO2 SLP214 MDT CU VC NE AND SW-NW T02560156=
200607072052 METAR KATL 072052Z VRB06KT 10SM FEW040 27/17 A3019 RMK AO2 SLP213 T02670167 56012=
200607071952 METAR KATL 071952Z 08010KT 10SM SCT045 27/16 A3020 RMK AO2 SLP218 T02670161=
200607071852 METAR KATL 071852Z 09009KT 10SM SCT040 26/16 A3021 RMK AO2 SLP220 T02610156=
200607071752 METAR KATL 071752Z 07009KT 10SM FEW040 26/16 A3022 RMK AO2 SLP225 T02560161 10256 20194 58005=
200607071652 METAR KATL 071652Z 07010KT 10SM FEW030 25/16 A3023 RMK AO2 SLP226 T02500156=
200607071552 METAR KATL 071552Z 08011G16KT 10SM SCT028 24/16 A3024 RMK AO2 SLP230 T02390161=
200607071452 METAR KATL 071452Z 09012KT 10SM FEW023 23/16 A3024 RMK AO2 SLP231 T02280161 50007=
200607071419 SPECI KATL 071419Z 09011KT 9SM SCT019 SCT024 22/17 A3024 RMK AO2=
200607071419 SPECI KATL 071419Z 09011KT 9SM SCT019 SCT024 22/17 A3024 RMK AO2=
200607071352 METAR KATL 071352Z 07015KT 9SM BKN019 BKN025 21/16 A3024 RMK AO2 SLP233 T02110161=
200607071315 SPECI KATL 071315Z 08011G18KT 8SM BKN017 BKN023 21/17 A3023 RMK AO2=
200607071315 SPECI KATL 071315Z 08011G18KT 8SM BKN017 BKN023 21/17 A3023 RMK AO2=
200607071252 METAR KATL 071252Z COR 09014KT 8SM BKN014 OVC024 20/17 A3023 RMK AO2 SLP228 BINOVC T02000167=
200607071152 METAR KATL 071152Z 09015KT 7SM BKN012 OVC060 19/17 A3022 RMK AO2 SLP224 BINOVC 70028 T01940167 10217 20189 53010=
200607071134 SPECI KATL 071134Z 09010KT 7SM BKN010 OVC014 19/17 A3021 RMK AO2=
200607071134 SPECI KATL 071134Z 09010KT 7SM BKN010 OVC014 19/17 A3021 RMK AO2=
200607071052 METAR KATL 071052Z 08011KT 8SM FEW010 SCT040 SCT250 19/17 A3020 RMK AO2 SLP220 T01890167=
200607071043 SPECI KATL 071043Z 08011KT 8SM FEW010 SCT040 SCT250 19/17 A3020 RMK AO2=
200607071043 SPECI KATL 071043Z 08011KT 8SM FEW010 SCT040 SCT250 19/17 A3020 RMK AO2=
200607070952 METAR KATL 070952Z 09012KT 9SM SCT010 OVC014 20/17 A3019 RMK AO2 SLP213 BINOVC T02000172=
200607070948 SPECI KATL 070948Z 08014KT 9SM SCT010 OVC014 20/17 A3019 RMK AO2 BINOVC=
200607070948 SPECI KATL 070948Z 08014KT 9SM SCT010 OVC014 20/17 A3019 RMK AO2 BINOVC=
200607070852 METAR KATL 070852Z 07013KT 8SM OVC008 20/18 A3016 RMK AO2 SLP205 T02000178 53006=
200607070810 SPECI KATL 070810Z 06012KT 9SM OVC008 21/18 A3015 RMK AO2=
200607070810 SPECI KATL 070810Z 06012KT 9SM OVC008 21/18 A3015 RMK AO2=
200607070752 METAR KATL 070752Z 07013KT 9SM OVC010 21/18 A3015 RMK AO2 SLP200 T02060183=
200607070711 SPECI KATL 070711Z 08009KT 9SM BKN010 BKN040 21/18 A3014 RMK AO2=
200607070711 SPECI KATL 070711Z 08009KT 9SM BKN010 BKN040 21/18 A3014 RMK AO2=
200607070652 METAR KATL 070652Z 08009KT 9SM FEW012 SCT041 21/19 A3014 RMK AO2 SLP199 T02110189=
200607070640 SPECI KATL 070640Z 08009KT 8SM SCT012 BKN041 21/19 A3014 RMK AO2=
200607070640 SPECI KATL 070640Z 08009KT 8SM SCT012 BKN041 21/19 A3014 RMK AO2=
200607070552 METAR KATL 070552Z 08010KT 7SM BKN012 BKN020 22/19 A3015 RMK AO2 SLP200 60000 T02170194 10267 20217 51003=
200607070540 SPECI KATL 070540Z 08011KT 7SM BKN012 BKN020 22/19 A3014 RMK AO2=
200607070540 SPECI KATL 070540Z 08011KT 7SM BKN012 BKN020 22/19 A3014 RMK AO2=
200607070521 SPECI KATL 070521Z 08011KT 8SM FEW008 BKN016 22/19 A3014 RMK AO2=
200607070521 SPECI KATL 070521Z 08011KT 8SM FEW008 BKN016 22/19 A3014 RMK AO2=
200607070503 SPECI KATL 070503Z 08009KT 8SM FEW008 SCT020 22/20 A3014 RMK AO2=
200607070503 SPECI KATL 070503Z 08009KT 8SM FEW008 SCT020 22/20 A3014 RMK AO2=
200607070452 METAR KATL 070452Z 08011KT 8SM SCT012 BKN025 22/21 A3014 RMK AO2 SLP199 T02220206 402720217=
200607070432 SPECI KATL 070432Z 08008KT 8SM BKN014 22/20 A3014 RMK AO2=
200607070432 SPECI KATL 070432Z 08008KT 8SM BKN014 22/20 A3014 RMK AO2=
200607070352 METAR KATL 070352Z 09011KT 9SM FEW030 23/20 A3014 RMK AO2 SLP199 T02280200=
200607070252 METAR KATL 070252Z 13005KT 10SM SCT032 23/19 A3014 RMK AO2 SLP197 60000 T02330189 53020=
200607070152 METAR KATL 070152Z 11003KT 10SM FEW035TCU 24/19 A3011 RMK AO2 RAE15B31E43 SLP187 TCU SW-NW P0000 T02440194=
200607070052 METAR KATL 070052Z 04008KT 10SM -RA BKN035TCU BKN050 BKN200 26/20 A3010 RMK AO2 RAB51 SLP183 TCU N-OHD-S CB DSNT SE P0000 T02560200=
200607062352 METAR KATL 062352Z 28007KT 10SM SCT035TCU SCT200 27/20 A3007 RMK AO2 SLP175 TCU N-NE AND SE CB DSNT E-SE T02670200 10272 20228 53009=
200607062252 METAR KATL 062252Z 28008KT 10SM SCT035TCU SCT050 BKN180 27/21 A3006 RMK AO2 SLP171 TCU N-NE AND DSNT SW CB DSNT NE T02670206=
200607062152 METAR KATL 062152Z 30007KT 10SM SCT032 BKN040 BKN150 27/20 A3006 RMK AO2 SLP169 MDT CU OHD-ALQDS T02670200=
200607062052 METAR KATL 062052Z 28008KT 8SM FEW020 BKN150 BKN250 27/21 A3005 RMK AO2 SLP166 T02670211 56012=
200607061952 METAR KATL 061952Z 26007KT 6SM HZ FEW015 BKN150 BKN250 26/21 A3006 RMK AO2 SLP168 T02560211=
200607061852 METAR KATL 061852Z 27006KT 6SM BR FEW010 SCT060 BKN150 24/22 A3007 RMK AO2 SLP174 T02390217=
200607061849 SPECI KATL 061849Z 26004KT 6SM HZ FEW060 BKN150 24/21 A3007 RMK AO2=
200607061849 SPECI KATL 061849Z 26004KT 6SM HZ FEW060 BKN150 24/21 A3007 RMK AO2=
200607061801 SPECI KATL 061801Z 23006KT 2 1/2SM BR BKN006 BKN013 OVC060 23/21 A3008 RMK AO2 SFC VIS 5=
200607061801 SPECI KATL 061801Z 23006KT 2 1/2SM BR BKN006 BKN013 OVC060 23/21 A3008 RMK AO2 SFC VIS 5=
200607061752 METAR KATL 061752Z 22005KT 2 1/2SM BR BKN004 BKN013 OVC060 23/21 A3008 RMK AO2 SFC VIS 5 RAE42 SLP178 P0001 60028 T02280211 10228 20217 58005=
200607061652 METAR KATL 061652Z 22006KT 1 1/2SM -RA BR BKN004 OVC023 22/21 A3010 RMK AO2 SFC VIS 2 1/2 SLP183 P0013 T02220211=
200607061647 SPECI KATL 061647Z 22007KT 1 1/2SM -RA BR BKN004 BKN015 OVC060 22/21 A3010 RMK AO2 SFC VIS 2 1/2 P0012=
200607061647 SPECI KATL 061647Z 22007KT 1 1/2SM -RA BR BKN004 BKN015 OVC060 22/21 A3010 RMK AO2 SFC VIS 2 1/2 P0012=
200607061620 SPECI KATL 061620Z 21007KT 1 1/2SM RA BR SCT006 BKN017 OVC040 22/21 A3010 RMK AO2 SFC VIS 2 P0008=
200607061620 SPECI KATL 061620Z 21007KT 1 1/2SM RA BR SCT006 BKN017 OVC040 22/21 A3010 RMK AO2 SFC VIS 2 P0008=
200607061615 SPECI KATL 061615Z 23007KT 1 1/2SM RA BR FEW006 OVC017 22/21 A3010 RMK AO2 SFC VIS 3 P0007=
200607061615 SPECI KATL 061615Z 23007KT 1 1/2SM RA BR FEW006 OVC017 22/21 A3010 RMK AO2 SFC VIS 3 P0007=
200607061603 SPECI KATL 061603Z 26007KT 1 1/2SM RA BR SCT008 BKN013 OVC020 22/21 A3010 RMK AO2 SFC VIS 3 P0003=
200607061603 SPECI KATL 061603Z 26007KT 1 1/2SM RA BR SCT008 BKN013 OVC020 22/21 A3010 RMK AO2 SFC VIS 3 P0003=
200607061559 SPECI KATL 061559Z 26005KT 3SM RA BR FEW006 BKN013 OVC020 22/21 A3010 RMK AO2 TWR VIS 4 P0002=
200607061559 SPECI KATL 061559Z 26005KT 3SM RA BR FEW006 BKN013 OVC020 22/21 A3010 RMK AO2 TWR VIS 4 P0002=
200607061557 SPECI KATL 061557Z 25006KT 1 3/4SM RA BR BKN009 BKN016 OVC020 22/21 A3010 RMK AO2 TWR VIS 4 P0001=
200607061557 SPECI KATL 061557Z 25006KT 1 3/4SM RA BR BKN009 BKN016 OVC020 22/21 A3010 RMK AO2 TWR VIS 4 P0001=
200607061549 METAR KATL 061549Z 27005KT 2 1/2SM -RA BR SCT006 BKN011 OVC032 22/21 A3010=
200607061548 SPECI KATL 061548Z 26005KT 2 1/2SM -RA BR SCT006 BKN011 OVC032 22/21 A3010 RMK AO2 TWR VIS 4 P0002=
200607061548 SPECI KATL 061548Z 26005KT 2 1/2SM -RA BR SCT006 BKN011 OVC032 22/21 A3010 RMK AO2 TWR VIS 4 P0002=
200607061452 METAR KATL 061452Z 27004KT 4SM -RA BR FEW010 SCT020 BKN080 OVC150 22/21 A3008 RMK AO2 SLP178 P0011 60011 T02220206 50010 $=
200607061448 SPECI KATL 061448Z 28005KT 4SM -RA BR FEW010 SCT020 BKN080 OVC150 22/21 A3008 RMK AO2 P0011 $=
200607061448 SPECI KATL 061448Z 28005KT 4SM -RA BR FEW010 SCT020 BKN080 OVC150 22/21 A3008 RMK AO2 P0011 $=
200607061429 SPECI KATL 061429Z 27003KT 5SM -RA BR BKN022 BKN075 OVC150 22/20 A3008 RMK AO2 P0010 $=
200607061429 SPECI KATL 061429Z 27003KT 5SM -RA BR BKN022 BKN075 OVC150 22/20 A3008 RMK AO2 P0010 $=
200607061412 SPECI KATL 061412Z 31003KT 2SM +RA BR FEW010 BKN020 OVC080 22/20 A3008 RMK AO2 P0006 $=
200607061412 SPECI KATL 061412Z 31003KT 2SM +RA BR FEW010 BKN020 OVC080 22/20 A3008 RMK AO2 P0006 $=
200607061400 SPECI KATL 061400Z 30007KT 3SM RA BR FEW010 SCT020 OVC080 22/20 A3008 RMK AO2 P0002 $=
200607061400 SPECI KATL 061400Z 30007KT 3SM RA BR FEW010 SCT020 OVC080 22/20 A3008 RMK AO2 P0002 $=
200607061352 METAR KATL 061352Z 31007KT 4SM -RA FEW010 SCT030 BKN080 OVC150 23/20 A3008 RMK AO2 RAB24E26B52 SLP178 P0000 T02280200=
200607061252 METAR KATL 061252Z 28004KT 6SM BR BKN095 OVC180 23/21 A3005 RMK AO2 SLP167 T02280206=
200607061152 METAR KATL 061152Z 30004KT 5SM BR SCT100 BKN180 OVC250 22/20 A3004 RMK AO2 SLP163 70015 T02220200 10239 20217 53012=
200607061052 METAR KATL 061052Z 30004KT 5SM BR SCT100 BKN180 OVC250 22/20 A3002 RMK AO2 SLP156 T02170200=
200607060952 METAR KATL 060952Z 00000KT 6SM BR FEW060 SCT110 OVC200 22/20 A3001 RMK AO2 SLP150 T02220200=
200607060852 METAR KATL 060852Z 29004KT 6SM BR FEW060 SCT110 OVC200 22/20 A3000 RMK AO2 SLP149 T02220200 53001=
200607060752 METAR KATL 060752Z VRB05KT 7SM FEW065 BKN140 OVC200 24/19 A3000 RMK AO2 SLP146 T02390189=
200607060652 METAR KATL 060652Z 05005KT 7SM FEW100 BKN140 OVC200 23/20 A3000 RMK AO2 SLP146 T02330200=
200607060552 METAR KATL 060552Z 05006KT 8SM BKN110 OVC200 23/20 A3000 RMK AO2 SLP148 60000 T02330200 10289 20228 58014=
200607060452 METAR KATL 060452Z 33004KT 7SM BKN080 OVC100 23/20 A3004 RMK AO2 RAE15 SLP160 P0000 T02330200 403220222=
200607060352 METAR KATL 060352Z 29010KT 8SM -RA SCT045 BKN070 OVC100 23/20 A3005 RMK AO2 RAB27 SLP166 P0000 T02330200=
200607060252 METAR KATL 060252Z 28010KT 9SM FEW045 BKN075 OVC120 24/19 A3004 RMK AO2 SLP164 T02440194 53027=
200607060152 METAR KATL 060152Z 01007KT 9SM SCT120 BKN150 OVC200 26/19 A3001 RMK AO2 SLP149 T02610194=
200607060052 METAR KATL 060052Z 34010KT 8SM BKN075 BKN120 OVC150 27/21 A2998 RMK AO2 SLP143 T02720206=
200607052352 METAR KATL 052352Z 31003KT 8SM FEW120 BKN150 OVC200 28/21 A2996 RMK AO2 RAE10 SLP134 P0011 60015 T02830211 10322 20272 56001=
200607052305 SPECI KATL 052305Z VRB03G14KT 7SM -RA FEW050CB SCT065 BKN140 OVC200 29/19 A2996 RMK AO2 CB NW-N MOV NE P0011=
200607052305 SPECI KATL 052305Z VRB03G14KT 7SM -RA FEW050CB SCT065 BKN140 OVC200 29/19 A2996 RMK AO2 CB NW-N MOV NE P0011=
200607052252 METAR KATL 052252Z 31008KT 2 1/2SM +RA BKN050CB BKN065 OVC150 28/21 A2996 RMK AO2 SFC VIS 3 RAB45 SLP136 CB OHD-SW MOV NE P0004 T02780211=
200607052152 METAR KATL 052152Z 00000KT 9SM FEW055TCU BKN200 BKN250 31/18 A2995 RMK AO2 SLP130 TCU SW-W CB DSNT NE T03110183=
200607052052 METAR KATL 052052Z 00000KT 9SM FEW050 SCT060 SCT250 31/19 A2996 RMK AO2 SLP135 CB DSNT S T03110194 56026=
200607051952 METAR KATL 051952Z VRB03KT 7SM FEW050 SCT150 SCT250 31/20 A2998 RMK AO2 SLP142 CB DSNT NE T03110200=
200607051852 METAR KATL 051852Z 30006KT 7SM FEW045 BKN150 BKN250 30/19 A3001 RMK AO2 SLP152 CB DSNT NE-SE T03000194=
200607051752 METAR KATL 051752Z 32005KT 9SM FEW045 SCT150 BKN250 30/19 A3004 RMK AO2 SLP163 CB DSNT E T03000194 10300 20233 58009=
200607051652 METAR KATL 051652Z 30004KT 9SM FEW040 BKN150 29/19 A3006 RMK AO2 SLP169 T02890194=
200607051552 METAR KATL 051552Z VRB03KT 9SM BKN150 28/19 A3007 RMK AO2 SLP172 T02780194=
200607051452 METAR KATL 051452Z VRB03KT 9SM BKN150 BKN250 27/19 A3007 RMK AO2 SLP173 T02670194 51009 $=
200607051352 METAR KATL 051352Z 00000KT 8SM BKN180 BKN250 26/19 A3006 RMK AO2 SLP171 T02560189 $=
200607051252 METAR KATL 051252Z 20003KT 8SM SCT180 SCT250 24/19 A3006 RMK AO2 SLP168 T02390189 $=
200607051152 METAR KATL 051152Z 00000KT 8SM SCT180 SCT250 23/18 A3004 RMK AO2 SLP162 70042 T02330183 10239 20222 53002 $=
200607051052 METAR KATL 051052Z 09004KT 7SM BKN180 BKN250 22/19 A3004 RMK AO2 SLP161 T02220189 $=
200607050952 METAR KATL 050952Z 08006KT 6SM HZ SCT140 OVC250 22/19 A3003 RMK AO2 SLP158 T02220194 $=
200607050852 METAR KATL 050852Z 09006KT 7SM FEW070 SCT140 OVC200 23/20 A3004 RMK AO2 SLP160 T02280200 56014 $=
200607050752 METAR KATL 050752Z COR 12005KT 6SM BR SCT070 BKN140 OVC200 23/21 A3005 RMK AO2 SLP163 T02280206 $=
200607050652 METAR KATL 050652Z 00000KT 10SM FEW100 BKN150 OVC200 23/20 A3006 RMK AO2 SLP168 T02330200 $=
200607050552 METAR KATL 050552Z 05004KT 10SM FEW100 BKN150 OVC200 24/19 A3008 RMK AO2 SLP174 60042 T02390194 10328 20222 58002 $=
200607050452 METAR KATL 050452Z 29005KT 10SM FEW080 BKN110 OVC150 22/20 A3009 RMK AO2 SLP178 T02220200 403330222 $=
200607050352 METAR KATL 050352Z 31008KT 8SM FEW065 BKN080 OVC100 23/20 A3008 RMK AO2 RAE37 SLP175 P0000 T02280200 $=
200607050252 METAR KATL 050252Z 03014KT 7SM -RA FEW050 BKN065 OVC090 23/21 A3009 RMK AO2 TSE23 SLP177 TS MOV NE P0003 60042 T02330206 50020 $=
200607050223 SPECI KATL 050223Z 02013KT 7SM -RA FEW040 BKN055 OVC080 23/21 A3010 RMK AO2 TSE23 TS MOV NE P0002 $=
200607050223 SPECI KATL 050223Z 02013KT 7SM -RA FEW040 BKN055 OVC080 23/21 A3010 RMK AO2 TSE23 TS MOV NE P0002 $=
200607050152 METAR KATL 050152Z 36016KT 6SM TSRA SCT055CB BKN070 OVC120 23/20 A3009 RMK AO2 SLP178 FRQ LTGICCG TS VC NW-N AND DSNT NE MOV NE P0037 T02330200 $=
200607050125 SPECI KATL 050125Z 03010KT 4SM TSRA FEW025 SCT045CB OVC060 24/19 A3009 RMK AO2 FRQ LTGICCG TS N-NE AND NW MOV NE P0034 $=
200607050125 SPECI KATL 050125Z 03010KT 4SM TSRA FEW025 SCT045CB OVC060 24/19 A3009 RMK AO2 FRQ LTGICCG TS N-NE AND NW MOV NE P0034 $=
200607050111 SPECI KATL 050111Z 02015G18KT 2 1/2SM +TSRA FEW025 OVC060CB 24/21 A3010 RMK AO2 FRQ LTGICCG TS NE-OHD-SW MOV NE P0024 $=
200607050111 SPECI KATL 050111Z 02015G18KT 2 1/2SM +TSRA FEW025 OVC060CB 24/21 A3010 RMK AO2 FRQ LTGICCG TS NE-OHD-SW MOV NE P0024 $=
200607050052 METAR KATL 050052Z 06003KT 5SM TSRA BKN065CB BKN100 OVC150 25/19 A3008 RMK AO2 TSB23RAB28 SLP176 FRQ LTGICCG TS N-E-SE MOV N P0002 T02500194 $=
200607050024 SPECI KATL 050024Z 22010KT 10SM TS BKN070CB BKN100 BKN150 OVC200 29/17 A3006 RMK AO2 TSB23 OCNL LTGCG TS NE-E MOV NE SHRA NE-E AND SE-SW $=
200607050024 SPECI KATL 050024Z 22010KT 10SM TS BKN070CB BKN100 BKN150 OVC200 29/17 A3006 RMK AO2 TSB23 OCNL LTGCG TS NE-E MOV NE SHRA NE-E AND SE-SW $=
200607042352 METAR KATL 042352Z 20006KT 10SM SCT070TCU BKN150 OVC200 33/16 A3002 RMK AO2 SLP155 TCU SE-SW-NW CB DSNT SW T03280161 10333 20317 55003 $=
200607042252 METAR KATL 042252Z 00000KT 10SM FEW070 SCT140 OVC200 32/16 A3001 RMK AO2 SLP152 CB DSNT NE AND SW AND W T03220156 $=
200607042152 METAR KATL 042152Z 19005KT 10SM FEW065 SCT140 BKN200 BKN250 32/16 A3003 RMK AO2 SLP156 TCU DSNT NE-E MDT CU VC SE T03220161 $=
200607042052 METAR KATL 042052Z 22006KT 10SM SCT150 BKN250 32/17 A3003 RMK AO2 SLP158 TCU DSNT E T03170167 56029 $=
200607041952 METAR KATL 041952Z 21006KT 10SM BKN150 BKN200 33/17 A3006 RMK AO2 SLP166 TCU DSNT N-E-S T03280167 $=
200607041852 METAR KATL 041852Z 22008KT 9SM BKN150 BKN200 33/17 A3010 RMK AO2 SLP178 TCU DSNT E-SE T03280167 $=
200607041752 METAR KATL 041752Z COR VRB05KT 9SM BKN060 33/18 A3012 RMK AO2 SLP188 TCU OHD AND E T03330183 10333 20244 58011 $=
200607041652 METAR KATL 041652Z 32007KT 9SM FEW150 SCT200 32/18 A3014 RMK AO2 SLP193 T03170178 $=
200607041552 METAR KATL 041552Z 26007KT 10SM CLR 32/18 A3016 RMK AO2 SLP199 T03170183 $=
200607041452 METAR KATL 041452Z 29007KT 10SM CLR 31/19 A3016 RMK AO2 SLP199 T03110189 50000 $=
200607041352 METAR KATL 041352Z 27005KT 8SM FEW250 29/19 A3017 RMK AO2 SLP203 T02890189 $=
200607041252 METAR KATL 041252Z 19004KT 9SM FEW075 SCT250 26/18 A3017 RMK AO2 SLP203 T02610183 $=
200607041152 METAR KATL 041152Z 00000KT 8SM FEW075 SCT250 24/18 A3016 RMK AO2 SLP201 T02440178 10267 20239 53007 $=
200607041052 METAR KATL 041052Z 19003KT 8SM FEW075 SCT250 24/18 A3014 RMK AO2 SLP195 T02390178 $=
200607040952 METAR KATL 040952Z 00000KT 8SM FEW075 SCT250 24/18 A3013 RMK AO2 SLP193 T02440178 $=
200607040852 METAR KATL 040852Z 19004KT 9SM FEW075 SCT250 25/18 A3014 RMK AO2 SLP192 T02500178 56007 $=
200607040752 METAR KATL 040752Z 00000KT 8SM FEW075 SCT250 26/18 A3014 RMK AO2 SLP193 T02560183 $=
200607040652 METAR KATL 040652Z 14003KT 7SM FEW075 26/18 A3014 RMK AO2 SLP194 T02610183 $=
200607040552 METAR KATL 040552Z 13004KT 9SM FEW070 27/18 A3016 RMK AO2 SLP199 60000 T02670183 10294 20267 58003 $=
200607040452 METAR KATL 040452Z 12003KT 9SM FEW200 27/18 A3017 RMK AO2 SLP202 T02720183 403440233 $=
200607040352 METAR KATL 040352Z 00000KT 10SM FEW200 27/18 A3017 RMK AO2 SLP202 T02720178 $=
200607040252 METAR KATL 040252Z 00000KT 9SM FEW080 SCT200 28/18 A3017 RMK AO2 SLP203 60000 T02780178 53008 $=
200607040152 METAR KATL 040152Z 00000KT 9SM FEW080 SCT150 BKN250 29/18 A3015 RMK AO2 SLP199 T02890178 $=
200607040052 METAR KATL 040052Z 02007KT 9SM FEW060 SCT120 BKN150 BKN250 29/17 A3014 RMK AO2 WSHFT 2339 TSE22RAE08 SLP195 P0000 T02890172 $=
200607040023 SPECI KATL 040023Z 01014KT 8SM FEW060TCU SCT100 BKN150 BKN250 27/17 A3015 RMK AO2 WSHFT 2339 TSE22RAE08 TS DSIPTD TCU VC SW-W P0000 $=
200607040023 SPECI KATL 040023Z 01014KT 8SM FEW060TCU SCT100 BKN150 BKN250 27/17 A3015 RMK AO2 WSHFT 2339 TSE22RAE08 TS DSIPTD TCU VC SW-W P0000 $=
200607032355 SPECI KATL 032355Z 02016G21KT 8SM -TSRA FEW060CB BKN080 BKN250 29/17 A3014 RMK AO2 WSHFT 2339 OCNL LTGCG TS NW-N MOV NW P0000 $=
200607032355 SPECI KATL 032355Z 02016G21KT 8SM -TSRA FEW060CB BKN080 BKN250 29/17 A3014 RMK AO2 WSHFT 2339 OCNL LTGCG TS NW-N MOV NW P0000 $=
200607032352 METAR KATL 032352Z 01016G21KT 7SM -TSRA FEW060CB BKN080 BKN250 29/17 A3014 RMK AO2 WSHFT 2335 TSB49RAB30 SLP196 OCNL LTGCG TS NW-N MOV NW P0000 60000 T02940167 10344 20283 50003 $=
200607032350 SPECI KATL 032350Z 01016G25KT 7SM -TSRA FEW060CB BKN080 BKN250 31/17 A3014 RMK AO2 WSHFT 2335 TSB49RAB30 OCNL LTGCG TS NW-N MOV NW P0000 $=
200607032350 SPECI KATL 032350Z 01016G25KT 7SM -TSRA FEW060CB BKN080 BKN250 31/17 A3014 RMK AO2 WSHFT 2335 TSB49RAB30 OCNL LTGCG TS NW-N MOV NW P0000 $=
200607032252 METAR KATL 032252Z 00000KT 9SM SCT070 BKN090 BKN250 33/15 A3013 RMK AO2 SLP192 MDT CU NE-OHD-SW CB DSNT SE-S T03330150 $=
200607032152 METAR KATL 032152Z 16003KT 9SM FEW075TCU SCT180 BKN250 33/15 A3013 RMK AO2 SLP191 TCU OHD-SW AND DSNT NE-SE T03330150 $=
200607032052 METAR KATL 032052Z VRB03KT 9SM FEW080 SCT200 34/14 A3014 RMK AO2 SLP195 T03440144 56016 $=
200607031952 METAR KATL 031952Z VRB05KT 8SM FEW070 SCT080 SCT200 34/15 A3015 RMK AO2 SLP198 CB DSNT NW T03390150 $=
200607031852 METAR KATL 031852Z VRB05KT 9SM FEW070 SCT080 34/14 A3017 RMK AO2 SLP205 MDT CU NW-N T03390144 $=
200607031752 METAR KATL 031752Z 22006KT 8SM FEW065TCU 33/16 A3019 RMK AO2 SLP212 TCU NW T03330161 10333 20239 58015 $=
200607031652 METAR KATL 031652Z 18005KT 8SM FEW060 32/14 A3022 RMK AO2 SLP221 T03220144 $=
200607031552 METAR KATL 031552Z 00000KT 6SM HZ CLR 31/19 A3023 RMK AO2 SLP224 T03110189 $=
200607031452 METAR KATL 031452Z 00000KT 6SM HZ CLR 29/19 A3024 RMK AO2 SLP227 T02940194 50002 $=
200607031352 METAR KATL 031352Z 22005KT 6SM HZ CLR 28/19 A3025 RMK AO2 SLP231 T02780189 $=
200607031252 METAR KATL 031252Z 19004KT 7SM FEW250 26/19 A3024 RMK AO2 SLP230 T02610189 $=
200607031152 METAR KATL 031152Z 00000KT 6SM HZ FEW250 24/18 A3023 RMK AO2 SLP225 T02390183 10261 20233 53012 $=
200607031052 METAR KATL 031052Z 20003KT 7SM FEW250 24/18 A3022 RMK AO2 SLP220 T02390178 $=
200607030952 METAR KATL 030952Z 16003KT 7SM CLR 24/18 A3020 RMK AO2 SLP215 T02390178 $=
200607030852 METAR KATL 030852Z 00000KT 8SM CLR 24/18 A3020 RMK AO2 SLP212 T02440178 56007 $=
200607030752 METAR KATL 030752Z 16003KT 8SM CLR 25/17 A3020 RMK AO2 SLP215 T02500172 $=
200607030652 METAR KATL 030652Z 23003KT 8SM FEW080 26/17 A3020 RMK AO2 SLP215 T02560172 $=
200607030552 METAR KATL 030552Z 15004KT 9SM FEW080 26/17 A3022 RMK AO2 SLP220 T02610172 10328 20261 58003 $=
200607030452 METAR KATL 030452Z 19004KT 9SM FEW080 27/17 A3022 RMK AO2 SLP221 T02720172 403440222 $=
200607030352 METAR KATL 030352Z 18007KT 10SM FEW080 28/16 A3023 RMK AO2 SLP225 T02830161 $=
200607030252 METAR KATL 030252Z 15006KT 10SM FEW080 29/16 A3023 RMK AO2 SLP224 T02890161 53017 $=
200607030152 METAR KATL 030152Z 16005KT 10SM CLR 30/16 A3021 RMK AO2 SLP218 T03000161 $=
200607030052 METAR KATL 030052Z 15006KT 7SM FEW250 31/16 A3019 RMK AO2 SLP212 T03110161 $=
200607022352 METAR KATL 022352Z 14006KT 8SM FEW250 33/14 A3017 RMK AO2 SLP206 T03280139 10344 20317 55000 $=
200607022252 METAR KATL 022252Z 18004KT 8SM FEW080 SCT130 SCT250 33/12 A3017 RMK AO2 SLP205 T03330122 $=
200607022152 METAR KATL 022152Z COR 08005KT 8SM FEW085 SCT110 34/12 A3016 RMK AO2 SLP201 T03390122 $=
200607022052 METAR KATL 022052Z VRB04KT 8SM FEW080 SCT100 34/13 A3018 RMK AO2 SLP206 TCU DSNT W T03390133 56020 $=
200607021952 METAR KATL 021952Z VRB03KT 8SM SCT075 SCT100 34/14 A3019 RMK AO2 SLP212 TCU DSNT N-NE AND SE AND S-W T03390139 $=
200607021852 METAR KATL 021852Z 07008KT 8SM SCT070TCU SCT100 33/16 A3021 RMK AO2 SLP219 TCU W AND DSNT N-SE AND DSNT SW-W T03280161 $=
200607021752 METAR KATL 021752Z 07006KT 7SM SCT065TCU 33/17 A3023 RMK AO2 SLP227 TCU W T03280167 10333 20233 58009 $=
200607021652 METAR KATL 021652Z 14006KT 7SM FEW060 SCT110 32/18 A3026 RMK AO2 SLP234 T03220183 $=
200607021552 METAR KATL 021552Z VRB03KT 7SM CLR 31/18 A3026 RMK AO2 SLP236 T03060183 $=
200607021452 METAR KATL 021452Z 00000KT 7SM CLR 29/18 A3026 RMK AO2 SLP236 T02890178 50001 $=
200607021352 METAR KATL 021352Z 29004KT 6SM HZ FEW095 27/18 A3027 RMK AO2 SLP240 T02720183 $=
200607021252 METAR KATL 021252Z 00000KT 6SM HZ CLR 24/18 A3027 RMK AO2 SLP239 T02440178 $=
200607021152 METAR KATL 021152Z 00000KT 6SM HZ CLR 23/18 A3026 RMK AO2 SLP236 T02330183 10244 20222 53015 $=
200607021052 METAR KATL 021052Z VRB03KT 6SM HZ FEW250 23/18 A3025 RMK AO2 SLP231 T02280178 $=
200607020952 METAR KATL 020952Z 10003KT 8SM CLR 23/18 A3023 RMK AO2 SLP225 T02330178 $=
200607020852 METAR KATL 020852Z 11004KT 8SM CLR 24/17 A3022 RMK AO2 SLP220 T02390172 53003 $=
200607020752 METAR KATL 020752Z 09007KT 9SM CLR 23/17 A3021 RMK AO2 SLP218 T02280172 $=
200607020652 METAR KATL 020652Z 09007KT 10SM CLR 23/17 A3021 RMK AO2 SLP217 T02330167 $=
200607020552 METAR KATL 020552Z 09006KT 10SM CLR 24/17 A3021 RMK AO2 SLP217 T02440167 10322 20244 58001 $=
200607020452 METAR KATL 020452Z 08007KT 10SM CLR 25/16 A3021 RMK AO2 SLP217 T02500161 403390200 $=
200607020352 METAR KATL 020352Z 09007KT 10SM CLR 26/16 A3021 RMK AO2 SLP219 T02560161 $=
200607020252 METAR KATL 020252Z 10005KT 10SM CLR 27/16 A3021 RMK AO2 SLP218 T02670161 53015 $=
200607020152 METAR KATL 020152Z 12004KT 10SM FEW250 29/16 A3018 RMK AO2 SLP208 T02940156 $=
200607020052 METAR KATL 020052Z 09006KT 10SM FEW250 31/13 A3017 RMK AO2 SLP204 T03060133 $=
200607012352 METAR KATL 012352Z 04005KT 10SM FEW080 33/12 A3016 RMK AO2 SLP203 T03280122 10339 20311 55004 $=
200607012252 METAR KATL 012252Z 10006KT 10SM FEW080 SCT250 33/12 A3016 RMK AO2 SLP201 T03280122 $=
200607012152 METAR KATL 012152Z 00000KT 10SM FEW085 SCT250 33/11 A3016 RMK AO2 SLP202 T03330111 $=
200607012052 METAR KATL 012052Z 32006G14KT 9SM FEW075 SCT095 33/14 A3018 RMK AO2 SLP206 T03330144 57015 $=
200607011952 METAR KATL 011952Z 32008KT 9SM FEW075 33/15 A3019 RMK AO2 SLP212 T03280150 $=
200607011852 METAR KATL 011852Z 34007KT 8SM FEW065 32/16 A3020 RMK AO2 SLP216 T03220161 $=
200607011752 METAR KATL 011752Z 32008KT 8SM CLR 31/17 A3022 RMK AO2 SLP221 T03110167 10317 20239 58001 $=
200607011652 METAR KATL 011652Z VRB04KT 8SM CLR 31/16 A3023 RMK AO2 SLP224 T03110161 $=
200607011552 METAR KATL 011552Z 28005KT 8SM CLR 31/16 A3023 RMK AO2 SLP225 T03060161 $=
200607011452 METAR KATL 011452Z 00000KT 8SM CLR 29/17 A3022 RMK AO2 SLP222 T02890172 51006 $=
200607011352 METAR KATL 011352Z VRB03KT 8SM CLR 27/18 A3022 RMK AO2 SLP222 T02720178 $=
200607011252 METAR KATL 011252Z 03005KT 10SM FEW250 26/16 A3022 RMK AO2 SLP221 T02560161 $=
