##########################################################
# Query made at 04/19/2024 22:58:21 UTC
# Time interval: from 10/01/2006 12:00  to 10/31/2006 12:59  UTC
##########################################################

##########################################################
# KATL, Atlanta, Hartsfield - Jackson Atlanta International Airport (United States)
# WMO index: 72219. WIGOS ID: 0-20000-0-72219
# Latitude 33-38-59N. Longitude 084-25-00W. Altitude 312 m.
##########################################################

200610311252 METAR KATL 311252Z 00000KT 10SM SCT150 BKN200 BKN250 13/08 A3015 RMK AO2 SLP207 T01280078=
200610311152 METAR KATL 311152Z 00000KT 10SM SCT150 BKN250 12/07 A3014 RMK AO2 SLP205 T01170067 10133 20106 51014=
200610311052 METAR KATL 311052Z COR 00000KT 10SM FEW150 SCT250 11/07 A3014 RMK AO2 SLP203 T01110067=
200610310952 METAR KATL 310952Z 11003KT 10SM SCT150 BKN250 12/07 A3013 RMK AO2 SLP198 T01170067=
200610310852 METAR KATL 310852Z 16003KT 10SM FEW150 BKN250 12/06 A3010 RMK AO2 SLP188 T01220061 58002=
200610310752 METAR KATL 310752Z 00000KT 10SM FEW150 BKN250 12/06 A3011 RMK AO2 SLP193 T01220061=
200610310652 METAR KATL 310652Z 00000KT 10SM FEW150 BKN250 12/06 A3012 RMK AO2 SLP194 T01220061=
200610310552 METAR KATL 310552Z 00000KT 10SM FEW150 BKN200 13/07 A3011 RMK AO2 SLP191 T01280067 10189 20122 58010=
200610310452 METAR KATL 310452Z 00000KT 10SM FEW150 BKN200 13/06 A3012 RMK AO2 SLP196 T01330061 402280078=
200610310352 METAR KATL 310352Z 00000KT 10SM SCT150 BKN200 14/06 A3014 RMK AO2 SLP201 T01440061=
200610310252 METAR KATL 310252Z 21003KT 10SM BKN200 15/06 A3014 RMK AO2 SLP202 T01500061 53013=
200610310152 METAR KATL 310152Z 18003KT 10SM SCT200 17/06 A3012 RMK AO2 SLP199 T01670056=
200610310052 METAR KATL 310052Z 17005KT 10SM BKN200 18/05 A3011 RMK AO2 SLP194 T01780050=
200610302352 METAR KATL 302352Z 16004KT 10SM BKN200 19/05 A3010 RMK AO2 SLP191 T01890050 10228 20189 55004=
200610302252 METAR KATL 302252Z 16003KT 10SM FEW200 BKN250 20/04 A3010 RMK AO2 SLP189 T02000044=
200610302152 METAR KATL 302152Z 19004KT 10SM FEW200 BKN250 22/03 A3010 RMK AO2 SLP192 T02170033=
200610302052 METAR KATL 302052Z VRB06KT 10SM FEW200 BKN250 22/03 A3011 RMK AO2 SLP193 T02220033 56013=
200610301952 METAR KATL 301952Z 19008KT 10SM FEW250 23/02 A3011 RMK AO2 SLP194 T02280022=
200610301852 METAR KATL 301852Z VRB04KT 10SM SCT250 22/04 A3013 RMK AO2 SLP198 T02220039=
200610301752 METAR KATL 301752Z VRB04KT 10SM FEW250 22/04 A3015 RMK AO2 SLP206 T02170044 10217 20083 58021 $=
200610301652 METAR KATL 301652Z 00000KT 10SM FEW250 21/05 A3018 RMK AO2 SLP217 T02060050 $=
200610301552 METAR KATL 301552Z 00000KT 10SM FEW250 19/06 A3021 RMK AO2 SLP227 T01940056=
200610301452 METAR KATL 301452Z 31004KT 10SM CLR 18/07 A3021 RMK AO2 SLP228 T01780067 51016=
200610301352 METAR KATL 301352Z 00000KT 9SM CLR 14/06 A3020 RMK AO2 SLP226 T01440061=
200610301252 METAR KATL 301252Z 31004KT 10SM CLR 10/06 A3019 RMK AO2 SLP222 T01000056=
200610301152 METAR KATL 301152Z 00000KT 10SM CLR 08/04 A3016 RMK AO2 SLP215 T00830044 10122 20078 53009 $=
200610301052 METAR KATL 301052Z 32008KT 10SM CLR 09/04 A3015 RMK AO2 SLP210 T00890044=
200610300952 METAR KATL 300952Z 33003KT 10SM CLR 09/05 A3014 RMK AO2 SLP205 T00940050=
200610300852 METAR KATL 300852Z 00000KT 9SM CLR 09/05 A3014 RMK AO2 SLP203 T00940050 55003=
200610300752 METAR KATL 300752Z 22004KT 10SM CLR 10/06 A3013 RMK AO2 SLP201 T01000056=
200610300652 METAR KATL 300652Z 29006KT 10SM CLR 12/05 A3014 RMK AO2 SLP203 T01170050=
200610300552 METAR KATL 300552Z 25003KT 10SM CLR 11/06 A3015 RMK AO2 SLP205 T01110056 10167 20111 58001=
200610300452 METAR KATL 300452Z 00000KT 10SM CLR 12/05 A3015 RMK AO2 SLP207 T01220050 402220067=
200610300352 METAR KATL 300352Z 00000KT 10SM FEW030 13/04 A3015 RMK AO2 SLP208 T01280044=
200610300252 METAR KATL 300252Z 23004KT 10SM CLR 14/04 A3015 RMK AO2 SLP207 T01390044 51012=
200610300152 METAR KATL 300152Z 22003KT 10SM CLR 14/04 A3014 RMK AO2 SLP205 T01390044=
200610300052 METAR KATL 300052Z 22006KT 10SM CLR 14/05 A3013 RMK AO2 SLP203 T01440050=
200610292352 METAR KATL 292352Z VRB03KT 10SM CLR 17/03 A3011 RMK AO2 SLP197 T01670033 10222 20167 53008=
200610292252 METAR KATL 292252Z 24004KT 10SM CLR 18/03 A3010 RMK AO2 SLP191 T01780033=
200610292152 METAR KATL 292152Z 27008KT 10SM CLR 21/02 A3009 RMK AO2 SLP188 T02060017=
200610292052 METAR KATL 292052Z 26008KT 10SM CLR 22/02 A3009 RMK AO2 SLP186 T02170017 56010=
200610291952 METAR KATL 291952Z 24012G16KT 10SM CLR 22/02 A3009 RMK AO2 SLP187 T02170022=
200610291852 METAR KATL 291852Z 23013G18KT 10SM CLR 21/03 A3010 RMK AO2 SLP189 T02110033=
200610291752 METAR KATL 291752Z 28008KT 10SM CLR 21/04 A3012 RMK AO2 SLP197 T02060044 10206 20067 58011=
200610291652 METAR KATL 291652Z 28007KT 10SM CLR 18/05 A3015 RMK AO2 SLP207 T01830050=
200610291552 METAR KATL 291552Z 29009KT 10SM CLR 17/04 A3015 RMK AO2 SLP209 T01670039=
200610291452 METAR KATL 291452Z 27007KT 10SM CLR 14/04 A3015 RMK AO2 SLP210 T01440039 51019=
200610291352 METAR KATL 291352Z 25005KT 10SM FEW250 11/03 A3015 RMK AO2 SLP209 T01110028=
200610291252 METAR KATL 291252Z 24004KT 10SM FEW250 08/03 A3013 RMK AO2 SLP204 T00780028=
200610291152 METAR KATL 291152Z 29005KT 10SM FEW250 07/02 A3009 RMK AO2 SLP192 T00670017 10089 20067 53017=
200610291052 METAR KATL 291052Z 31006KT 10SM CLR 07/02 A3007 RMK AO2 SLP185 T00670017=
200610290952 METAR KATL 290952Z 30009KT 10SM CLR 07/02 A3005 RMK AO2 SLP177 T00720022=
200610290852 METAR KATL 290852Z 28005KT 10SM CLR 07/02 A3004 RMK AO2 SLP173 T00720022 51010=
200610290752 METAR KATL 290752Z 29006KT 10SM CLR 08/03 A3004 RMK AO2 SLP171 T00780028=
200610290652 METAR KATL 290652Z 27007KT 10SM CLR 09/03 A3003 RMK AO2 SLP167 T00890033=
200610290552 METAR KATL 290552Z 28008KT 10SM CLR 09/04 A3001 RMK AO2 SLP162 T00890039 10122 20089 51007=
200610290452 METAR KATL 290452Z 26007KT 10SM CLR 09/04 A3000 RMK AO2 SLP160 T00940044 401720089=
200610290352 METAR KATL 290352Z 26007KT 10SM CLR 09/04 A3000 RMK AO2 SLP160 T00940044=
200610290252 METAR KATL 290252Z 29007KT 10SM CLR 10/04 A2999 RMK AO2 SLP156 T01000044 51012=
200610290152 METAR KATL 290152Z 29008KT 10SM CLR 11/04 A2998 RMK AO2 SLP152 T01060044=
200610290052 METAR KATL 290052Z 28010KT 10SM CLR 12/04 A2997 RMK AO2 SLP148 T01170044=
200610282352 METAR KATL 282352Z 27007KT 10SM CLR 12/04 A2995 RMK AO2 SLP144 T01170039 10172 20117 53022=
200610282252 METAR KATL 282252Z 26005KT 10SM CLR 13/04 A2993 RMK AO2 SLP134 T01330039=
200610282152 METAR KATL 282152Z 30015KT 10SM CLR 15/04 A2991 RMK AO2 SLP126 T01500039=
200610282052 METAR KATL 282052Z 29013G19KT 10SM FEW050 17/04 A2989 RMK AO2 SLP118 T01670044 53008=
200610281952 METAR KATL 281952Z 30015G20KT 10SM CLR 17/04 A2986 RMK AO2 SLP108 T01670039=
200610281852 METAR KATL 281852Z 29017G22KT 10SM CLR 16/04 A2985 RMK AO2 SLP106 T01610044=
200610281752 METAR KATL 281752Z 29014KT 10SM CLR 16/06 A2986 RMK AO2 SLP109 T01610056 10161 20100 50003=
200610281652 METAR KATL 281652Z 30015G26KT 10SM FEW028 14/06 A2987 RMK AO2 PK WND 32026/1645 SLP113 T01440056=
200610281617 SPECI KATL 281617Z 31015G25KT 10SM SCT028 13/06 A2988 RMK AO2 PK WND 30026/1606=
200610281617 SPECI KATL 281617Z 31015G25KT 10SM SCT028 13/06 A2988 RMK AO2 PK WND 30026/1606=
200610281552 METAR KATL 281552Z 30022G26KT 10SM BKN022 BKN028 12/06 A2987 RMK AO2 PK WND 30026/1551 SLP112 T01220056=
200610281452 METAR KATL 281452Z 30014G20KT 10SM OVC023 11/06 A2985 RMK AO2 PK WND 30026/1410 SLP106 T01110061 51034=
200610281352 METAR KATL 281352Z 31016G23KT 10SM OVC017 11/06 A2983 RMK AO2 SLP101 T01060061=
200610281252 METAR KATL 281252Z 30015G22KT 10SM BKN019 OVC030 11/06 A2980 RMK AO2 PK WND 30027/1227 SLP087 T01060061=
200610281152 METAR KATL 281152Z 29015G21KT 10SM OVC019 11/07 A2975 RMK AO2 SLP071 70106 T01060067 10128 20106 51030=
200610281052 METAR KATL 281052Z 30016G22KT 10SM BKN021 OVC050 11/07 A2972 RMK AO2 SLP061 T01060067=
200610280952 METAR KATL 280952Z 29019G24KT 10SM BKN019 OVC023 11/07 A2970 RMK AO2 PK WND 28028/0933 SLP053 T01110072=
200610280931 SPECI KATL 280931Z 29020G27KT 10SM BKN023 OVC037 12/07 A2968 RMK AO2 PK WND 28027/0931=
200610280931 SPECI KATL 280931Z 29020G27KT 10SM BKN023 OVC037 12/07 A2968 RMK AO2 PK WND 28027/0931=
200610280852 METAR KATL 280852Z 28015G21KT 10SM BKN039 OVC050 12/08 A2966 RMK AO2 SLP039 T01220078 51010=
200610280752 METAR KATL 280752Z 27009KT 10SM OVC037 12/09 A2965 RMK AO2 SLP036 T01220089=
200610280652 METAR KATL 280652Z 27008KT 10SM FEW033 12/09 A2964 RMK AO2 SLP032 T01220089=
200610280552 METAR KATL 280552Z 26009KT 10SM FEW180 13/09 A2963 RMK AO2 SLP029 60004 T01280089 10183 20128 51007=
200610280452 METAR KATL 280452Z 26008KT 10SM SCT200 14/09 A2963 RMK AO2 SLP029 T01390094 401890111=
200610280352 METAR KATL 280352Z 27007KT 10SM SCT065 BKN200 16/12 A2962 RMK AO2 SLP028 T01560122=
200610280252 METAR KATL 280252Z 26010KT 10SM FEW015 BKN060 BKN090 OVC200 17/13 A2960 RMK AO2 SLP020 60004 T01720133 55005=
200610280152 METAR KATL 280152Z 25008KT 10SM FEW010 BKN065 OVC080 17/14 A2959 RMK AO2 PK WND 27035/0130 WSHFT 0128 RAB16E45 SLP017 BINOVC P0004 T01720144=
200610280145 SPECI KATL 280145Z 25008G20KT 10SM FEW005 SCT040 OVC065 17/14 A2959 RMK AO2 PK WND 27035/0130 WSHFT 0128 RAB16E45 P0004=
200610280145 SPECI KATL 280145Z 25008G20KT 10SM FEW005 SCT040 OVC065 17/14 A2959 RMK AO2 PK WND 27035/0130 WSHFT 0128 RAB16E45 P0004=
200610280137 SPECI KATL 280137Z 26014G35KT 6SM -RA FEW006 SCT015 OVC035 18/15 A2959 RMK AO2 PK WND 27035/0130 RAB16 P0004=
200610280137 SPECI KATL 280137Z 26014G35KT 6SM -RA FEW006 SCT015 OVC035 18/15 A2959 RMK AO2 PK WND 27035/0130 RAB16 P0004=
200610280133 SPECI KATL 280133Z 27018G35KT 2 1/2SM +RA BR BKN006 BKN015 OVC035 18/16 A2960 RMK AO2 PK WND 27035/0130 RAB16 P0002=
200610280133 SPECI KATL 280133Z 27018G35KT 2 1/2SM +RA BR BKN006 BKN015 OVC035 18/16 A2960 RMK AO2 PK WND 27035/0130 RAB16 P0002=
200610280103 SPECI KATL 280103Z 19005KT 10SM BKN007 BKN012 OVC080 18/17 A2958 RMK AO2=
200610280103 SPECI KATL 280103Z 19005KT 10SM BKN007 BKN012 OVC080 18/17 A2958 RMK AO2=
200610280052 METAR KATL 280052Z 18006KT 10SM FEW006 BKN012 BKN080 OVC150 18/17 A2959 RMK AO2 SLP016 T01830167=
200610280046 SPECI KATL 280046Z 15003KT 10SM FEW006 SCT015 BKN080 OVC150 18/17 A2959 RMK AO2=
200610280046 SPECI KATL 280046Z 15003KT 10SM FEW006 SCT015 BKN080 OVC150 18/17 A2959 RMK AO2=
200610280011 SPECI KATL 280011Z 15004KT 10SM SCT008 BKN018 OVC080 18/17 A2960 RMK AO2=
200610280011 SPECI KATL 280011Z 15004KT 10SM SCT008 BKN018 OVC080 18/17 A2960 RMK AO2=
200610272358 SPECI KATL 272358Z 17004KT 10SM BKN007 BKN012 OVC080 18/17 A2961 RMK AO2=
200610272358 SPECI KATL 272358Z 17004KT 10SM BKN007 BKN012 OVC080 18/17 A2961 RMK AO2=
200610272352 METAR KATL 272352Z 18003KT 10SM SCT006 BKN012 BKN080 OVC150 18/17 A2962 RMK AO2 RAB24E52 SLP026 P0008 60052 T01830167 10189 20172 55013=
200610272331 SPECI KATL 272331Z 21004KT 6SM RA BR SCT006 BKN012 OVC025 18/17 A2962 RMK AO2 RAB24 P0004=
200610272331 SPECI KATL 272331Z 21004KT 6SM RA BR SCT006 BKN012 OVC025 18/17 A2962 RMK AO2 RAB24 P0004=
200610272258 SPECI KATL 272258Z 26004KT 10SM BKN007 OVC028 18/17 A2962 RMK AO2=
200610272258 SPECI KATL 272258Z 26004KT 10SM BKN007 OVC028 18/17 A2962 RMK AO2=
200610272252 METAR KATL 272252Z 26004KT 10SM FEW008 BKN028 OVC045 18/17 A2962 RMK AO2 SLP026 T01830167=
200610272249 SPECI KATL 272249Z 22003KT 10SM FEW008 BKN028 OVC045 18/17 A2961 RMK AO2=
200610272249 SPECI KATL 272249Z 22003KT 10SM FEW008 BKN028 OVC045 18/17 A2961 RMK AO2=
200610272152 METAR KATL 272152Z 17007KT 10SM FEW006 SCT060 BKN090 OVC150 18/17 A2959 RMK AO2 WSHFT 2051 RAE40 SLP018 P0011 T01830167=
200610272109 SPECI KATL 272109Z 15014KT 6SM -RA BR FEW007 SCT015 BKN080 OVC150 18/17 A2962 RMK AO2 WSHFT 2051 PRESFR P0010=
200610272109 SPECI KATL 272109Z 15014KT 6SM -RA BR FEW007 SCT015 BKN080 OVC150 18/17 A2962 RMK AO2 WSHFT 2051 PRESFR P0010=
200610272104 SPECI KATL 272104Z 15013KT 6SM -RA BR FEW007 BKN015 BKN080 OVC150 18/17 A2963 RMK AO2 P0010=
200610272104 SPECI KATL 272104Z 15013KT 6SM -RA BR FEW007 BKN015 BKN080 OVC150 18/17 A2963 RMK AO2 P0010=
200610272102 SPECI KATL 272102Z 15012KT 3SM RA BR FEW007 BKN015 OVC080 18/17 A2963 RMK AO2 TWR VIS 4 P0010=
200610272102 SPECI KATL 272102Z 15012KT 3SM RA BR FEW007 BKN015 OVC080 18/17 A2963 RMK AO2 TWR VIS 4 P0010=
200610272052 METAR KATL 272052Z 18011KT 2SM +RA BR BKN007 BKN011 OVC017 18/17 A2966 RMK AO2 SLP039 P0012 60033 T01830167 56034=
200610272045 SPECI KATL 272045Z 20010KT 2SM +RA BR BKN007 BKN011 OVC017 18/17 A2966 RMK AO2 P0008=
200610272045 SPECI KATL 272045Z 20010KT 2SM +RA BR BKN007 BKN011 OVC017 18/17 A2966 RMK AO2 P0008=
200610272038 SPECI KATL 272038Z 18012KT 3SM RA BR FEW007 BKN012 OVC019 18/17 A2964 RMK AO2 TWR VIS 4 P0004=
200610272038 SPECI KATL 272038Z 18012KT 3SM RA BR FEW007 BKN012 OVC019 18/17 A2964 RMK AO2 TWR VIS 4 P0004=
200610272031 SPECI KATL 272031Z 17011G18KT 3SM RA BR BKN008 BKN014 OVC019 18/17 A2964 RMK AO2 TWR VIS 4 P0002=
200610272031 SPECI KATL 272031Z 17011G18KT 3SM RA BR BKN008 BKN014 OVC019 18/17 A2964 RMK AO2 TWR VIS 4 P0002=
200610271952 METAR KATL 271952Z 18013G20KT 5SM -RA BR FEW004 BKN006 OVC012 18/17 A2966 RMK AO2 SLP040 P0001 T01830167=
200610271903 SPECI KATL 271903Z 17013G20KT 5SM -RA BR FEW004 BKN006 OVC012 18/16 A2967 RMK AO2 P0001=
200610271903 SPECI KATL 271903Z 17013G20KT 5SM -RA BR FEW004 BKN006 OVC012 18/16 A2967 RMK AO2 P0001=
200610271852 METAR KATL 271852Z 18012G17KT 1 1/2SM -RA BR FEW004 BKN008 OVC012 18/16 A2969 RMK AO2 SFC VIS 4 SLP051 P0020 T01780161=
200610271833 SPECI KATL 271833Z 18013G18KT 1 1/2SM RA BR FEW004 BKN008 OVC012 18/16 A2972 RMK AO2 SFC VIS 2 1/2 P0011=
200610271833 SPECI KATL 271833Z 18013G18KT 1 1/2SM RA BR FEW004 BKN008 OVC012 18/16 A2972 RMK AO2 SFC VIS 2 1/2 P0011=
200610271752 METAR KATL 271752Z 18012G20KT 1 1/2SM -RA BR FEW006 BKN008 OVC012 17/16 A2976 RMK AO2 SFC VIS 3 SLP075 P0005 60050 T01720156 10172 20117 56041=
200610271652 METAR KATL 271652Z 17010G18KT 1 1/2SM -RA BR FEW004 BKN006 OVC010 17/15 A2979 RMK AO2 SFC VIS 3 SLP085 P0004 T01670150=
200610271554 SPECI KATL 271554Z 15012G17KT 1 1/2SM -RA BR FEW004 BKN006 OVC010 16/14 A2984 RMK AO2 SFC VIS 3 PRESFR P0000=
200610271554 SPECI KATL 271554Z 15012G17KT 1 1/2SM -RA BR FEW004 BKN006 OVC010 16/14 A2984 RMK AO2 SFC VIS 3 PRESFR P0000=
200610271552 METAR KATL 271552Z 15012G17KT 1 1/2SM -RA BR BKN004 BKN008 OVC010 16/14 A2984 RMK AO2 SFC VIS 3 SLP102 P0007 T01560139=
200610271519 SPECI KATL 271519Z 15012KT 1 1/2SM -RA BR BKN004 BKN008 OVC010 15/13 A2986 RMK AO2 SFC VIS 3 P0004=
200610271519 SPECI KATL 271519Z 15012KT 1 1/2SM -RA BR BKN004 BKN008 OVC010 15/13 A2986 RMK AO2 SFC VIS 3 P0004=
200610271459 SPECI KATL 271459Z 15012KT 1SM -RA BR BKN004 BKN008 OVC010 14/13 A2988 RMK AO2 SFC VIS 3 P0001=
200610271459 SPECI KATL 271459Z 15012KT 1SM -RA BR BKN004 BKN008 OVC010 14/13 A2988 RMK AO2 SFC VIS 3 P0001=
200610271452 METAR KATL 271452Z 15011G16KT 1SM RA BR FEW004 BKN006 OVC010 14/13 A2988 RMK AO2 SFC VIS 3 SLP117 P0016 60034 T01440133 58022=
200610271438 SPECI KATL 271438Z 15009KT 1/2SM RA BR OVC006 14/13 A2989 RMK AO2 SFC VIS 3 CIG 003V010 P0012=
200610271438 SPECI KATL 271438Z 15009KT 1/2SM RA BR OVC006 14/13 A2989 RMK AO2 SFC VIS 3 CIG 003V010 P0012=
200610271352 METAR KATL 271352Z 13008KT 1/2SM -RA BR FEW002 BKN004 OVC008 13/12 A2990 RMK AO2 SFC VIS 2 SLP125 P0008 T01330122=
200610271252 METAR KATL 271252Z 13010KT 1/2SM -RA BR OVC004 12/11 A2994 RMK AO2 SFC VIS 2 1/2 SLP136 TWRINC P0010 T01220111=
200610271152 METAR KATL 271152Z 12008KT 1/2SM -RA BR OVC004 12/11 A2995 RMK AO2 SFC VIS 4 SLP140 TWRINC P0015 60034 70034 T01170106 10128 20111 58016=
200610271052 METAR KATL 271052Z 09008KT 1/2SM RA BR OVC004 12/10 A2999 RMK AO2 SFC VIS 3 CIG 002V008 SLP153 TWRINC P0015 T01170100=
200610271038 SPECI KATL 271038Z 10007KT 2SM RA BR OVC004 11/10 A2999 RMK AO2 SFC VIS 2 1/2 CIG 002V008 P0012=
200610271038 SPECI KATL 271038Z 10007KT 2SM RA BR OVC004 11/10 A2999 RMK AO2 SFC VIS 2 1/2 CIG 002V008 P0012=
200610271021 SPECI KATL 271021Z 12006KT 2SM RA BR BKN006 OVC010 11/10 A3000 RMK AO2 CIG 002V009 P0007=
200610271021 SPECI KATL 271021Z 12006KT 2SM RA BR BKN006 OVC010 11/10 A3000 RMK AO2 CIG 002V009 P0007=
200610271003 SPECI KATL 271003Z 13006KT 2 1/2SM -RA BR FEW007 BKN012 OVC021 11/10 A3000 RMK AO2 P0003=
200610271003 SPECI KATL 271003Z 13006KT 2 1/2SM -RA BR FEW007 BKN012 OVC021 11/10 A3000 RMK AO2 P0003=
200610270952 METAR KATL 270952Z 13006KT 2 1/2SM -RA BR BKN014 OVC028 11/09 A3000 RMK AO2 RAB06 SLP156 P0004 T01110094=
200610270929 SPECI KATL 270929Z 12008KT 2 1/2SM -RA BR FEW021 BKN028 OVC037 11/09 A2999 RMK AO2 RAB06 P0002=
200610270929 SPECI KATL 270929Z 12008KT 2 1/2SM -RA BR FEW021 BKN028 OVC037 11/09 A2999 RMK AO2 RAB06 P0002=
200610270909 SPECI KATL 270909Z 13007KT 7SM -RA BKN028 OVC034 12/07 A3000 RMK AO2 RAB06 P0000=
200610270909 SPECI KATL 270909Z 13007KT 7SM -RA BKN028 OVC034 12/07 A3000 RMK AO2 RAB06 P0000=
200610270852 METAR KATL 270852Z 13006KT 10SM FEW027 OVC034 12/07 A2999 RMK AO2 SLP154 60000 T01220067 58022=
200610270752 METAR KATL 270752Z 12005KT 10SM FEW036 OVC060 12/07 A3002 RMK AO2 SLP163 T01220067=
200610270652 METAR KATL 270652Z 11004KT 10SM OVC037 12/07 A3005 RMK AO2 RAE09 SLP173 P0000 T01220067=
200610270552 METAR KATL 270552Z 14005KT 10SM -RA OVC060 12/07 A3006 RMK AO2 RAB44 SLP178 P0000 60000 T01220067 10144 20122 58021=
200610270452 METAR KATL 270452Z 13006KT 10SM OVC060 13/06 A3009 RMK AO2 SLP187 T01280061 401670089=
200610270352 METAR KATL 270352Z 12006KT 10SM OVC050 13/07 A3012 RMK AO2 RAE36 SLP198 P0000 T01280067=
200610270252 METAR KATL 270252Z 14006KT 10SM -RA FEW035 BKN050 OVC110 13/06 A3012 RMK AO2 RAB46 SLP201 P0000 60000 T01330056 58003=
200610270152 METAR KATL 270152Z 13007KT 10SM BKN036 OVC050 14/05 A3013 RMK AO2 SLP202 T01390050=
200610270052 METAR KATL 270052Z 15005KT 10SM FEW035 OVC050 14/06 A3014 RMK AO2 SLP207 T01440056=
200610262352 METAR KATL 262352Z 13004KT 10SM BKN055 OVC130 14/05 A3013 RMK AO2 SLP204 T01440050 10167 20144 55002=
200610262252 METAR KATL 262252Z 15006KT 10SM FEW100 BKN140 OVC200 15/05 A3013 RMK AO2 SLP204 T01500050=
200610262152 METAR KATL 262152Z 19006KT 10SM FEW090 BKN140 OVC200 16/05 A3014 RMK AO2 SLP207 T01560050 $=
200610262052 METAR KATL 262052Z 18008KT 10SM FEW080 BKN150 BKN250 16/04 A3014 RMK AO2 SLP206 T01610039 56017 $=
200610261952 METAR KATL 261952Z 19010G15KT 10SM FEW060 BKN150 BKN250 16/03 A3014 RMK AO2 SLP206 T01610028 $=
200610261852 METAR KATL 261852Z 20007KT 10SM FEW060 SCT090 BKN250 16/03 A3016 RMK AO2 SLP214 ACC DSNT SE T01610033 $=
200610261752 METAR KATL 261752Z 21010KT 10SM BKN060 BKN250 16/03 A3019 RMK AO2 SLP224 T01560028 10161 20100 58009=
200610261652 METAR KATL 261652Z 21007KT 10SM BKN065 BKN250 14/02 A3022 RMK AO2 SLP233 T01440022=
200610261552 METAR KATL 261552Z 19008KT 10SM BKN065 BKN090 OVC250 13/02 A3023 RMK AO2 SLP237 BINOVC T01330022=
200610261452 METAR KATL 261452Z VRB06KT 10SM BKN065 BKN090 BKN250 12/03 A3022 RMK AO2 SLP235 T01170028 51007=
200610261352 METAR KATL 261352Z 15008KT 8SM SCT065 BKN090 BKN250 11/04 A3022 RMK AO2 SLP234 T01060044=
200610261252 METAR KATL 261252Z 11005KT 10SM OVC065 11/03 A3021 RMK AO2 SLP229 BINOVC T01110033=
200610261152 METAR KATL 261152Z 00000KT 9SM OVC070 10/04 A3020 RMK AO2 SLP227 BINOVC 60000 T01000044 10100 20089 53009=
200610261052 METAR KATL 261052Z 00000KT 10SM BKN075 OVC095 10/05 A3020 RMK AO2 SLP227 T01000050=
200610260952 METAR KATL 260952Z 00000KT 9SM OVC100 09/05 A3017 RMK AO2 SLP216 T00940050=
200610260852 METAR KATL 260852Z 20003KT 10SM SCT085 OVC110 09/05 A3017 RMK AO2 SLP217 60000 T00890050 58015=
200610260752 METAR KATL 260752Z 00000KT 10SM FEW085 SCT110 OVC150 09/04 A3019 RMK AO2 SLP223 T00890044=
200610260652 METAR KATL 260652Z 00000KT 10SM SCT080 OVC100 09/03 A3022 RMK AO2 RAE06 SLP234 P0000 T00940033=
200610260552 METAR KATL 260552Z 31004KT 10SM -RA SCT080 OVC100 09/03 A3022 RMK AO2 RAB17 SLP234 P0000 60000 T00940028 10106 20094 50004=
200610260452 METAR KATL 260452Z 28004KT 10SM SCT085 BKN110 OVC150 10/02 A3022 RMK AO2 SLP237 T01000017 401280017=
200610260352 METAR KATL 260352Z 24004KT 10SM SCT090 OVC150 10/02 A3021 RMK AO2 SLP234 T01000017=
200610260252 METAR KATL 260252Z 24003KT 10SM BKN150 OVC200 10/02 A3020 RMK AO2 SLP231 T01000022 53003=
200610260152 METAR KATL 260152Z 21004KT 10SM FEW120 BKN150 OVC200 10/02 A3020 RMK AO2 SLP229 T01000017=
200610260052 METAR KATL 260052Z 23004KT 10SM SCT150 OVC200 10/02 A3020 RMK AO2 SLP229 T01000017=
200610252352 METAR KATL 252352Z 23005KT 10SM FEW150 OVC200 11/01 A3019 RMK AO2 SLP230 T01060011 10128 20094 53007=
200610252252 METAR KATL 252252Z 00000KT 10SM FEW150 BKN200 BKN250 12/M02 A3018 RMK AO2 SLP223 T01221017=
200610252152 METAR KATL 252152Z VRB03KT 10SM SCT150 BKN200 BKN250 12/M01 A3018 RMK AO2 SLP222 T01221011=
200610252052 METAR KATL 252052Z 00000KT 10SM BKN150 BKN250 12/M02 A3017 RMK AO2 SLP221 T01221017 56017=
200610251952 METAR KATL 251952Z 00000KT 10SM FEW150 SCT200 SCT250 12/M03 A3018 RMK AO2 SLP225 T01171028=
200610251852 METAR KATL 251852Z 18004KT 10SM FEW150 BKN200 BKN250 10/M03 A3021 RMK AO2 SLP234 T01001028 $=
200610251752 METAR KATL 251752Z VRB04KT 10SM BKN150 BKN200 BKN250 10/M02 A3022 RMK AO2 SLP239 T01001022 10100 20022 58019=
200610251652 METAR KATL 251652Z 00000KT 10SM BKN150 BKN200 BKN250 08/M02 A3026 RMK AO2 SLP251 VIRGA DSNT SE-W T00831022=
200610251552 METAR KATL 251552Z 12005KT 10SM BKN150 BKN200 BKN250 08/M03 A3026 RMK AO2 SLP251 VIRGA DSNT NE AND VC NW T00781028=
200610251452 METAR KATL 251452Z 12005KT 10SM BKN150 OVC200 07/M03 A3028 RMK AO2 SLP259 VIRGA OHD AND ALQDS T00721028 50020=
200610251352 METAR KATL 251352Z VRB03KT 10SM BKN150 BKN200 BKN250 06/M03 A3029 RMK AO2 SLP261 T00611028=
200610251252 METAR KATL 251252Z VRB03KT 10SM SCT150 BKN200 BKN250 05/00 A3026 RMK AO2 SLP250 T00500000=
200610251152 METAR KATL 251152Z 00000KT 10SM BKN150 BKN200 BKN250 02/M01 A3022 RMK AO2 SLP238 T00221011 10044 20017 53014=
200610251052 METAR KATL 251052Z 31003KT 10SM FEW150 SCT250 03/M01 A3021 RMK AO2 SLP236 T00281011=
200610250952 METAR KATL 250952Z 02007KT 10SM FEW150 SCT250 04/M02 A3018 RMK AO2 SLP224 T00391017=
200610250852 METAR KATL 250852Z 33005KT 10SM FEW150 SCT250 02/M01 A3018 RMK AO2 SLP222 T00221011 58002=
200610250752 METAR KATL 250752Z 31006KT 10SM FEW150 SCT250 02/M01 A3018 RMK AO2 SLP225 T00221011=
200610250652 METAR KATL 250652Z 33004KT 10SM FEW250 03/M02 A3019 RMK AO2 SLP226 T00331017=
200610250552 METAR KATL 250552Z 32004KT 10SM FEW250 03/M01 A3018 RMK AO2 SLP225 T00331011 10089 20033 53002=
200610250452 METAR KATL 250452Z 34006KT 10SM SCT250 04/M02 A3017 RMK AO2 SLP221 T00391017 402220022=
200610250352 METAR KATL 250352Z 32005KT 10SM FEW250 04/M02 A3018 RMK AO2 SLP223 T00441017=
200610250252 METAR KATL 250252Z 31006KT 10SM FEW250 05/M01 A3018 RMK AO2 SLP223 T00501011 53008=
200610250152 METAR KATL 250152Z 33006KT 10SM FEW250 07/M03 A3017 RMK AO2 SLP219 T00721028=
200610250052 METAR KATL 250052Z 34007KT 10SM FEW250 09/M04 A3016 RMK AO2 SLP217 T00891039=
200610242352 METAR KATL 242352Z 34006KT 10SM SCT250 09/M03 A3015 RMK AO2 SLP215 T00891033 10133 20089 53010=
200610242252 METAR KATL 242252Z 34008KT 10SM FEW250 10/M04 A3014 RMK AO2 SLP212 T01001039=
200610242152 METAR KATL 242152Z 31012KT 10SM FEW250 12/M04 A3013 RMK AO2 SLP206 T01171039=
200610242052 METAR KATL 242052Z 32013KT 10SM FEW250 12/M04 A3012 RMK AO2 SLP204 T01221039 55006=
200610241952 METAR KATL 241952Z 31012KT 10SM FEW250 13/M03 A3011 RMK AO2 SLP199 T01281033=
200610241852 METAR KATL 241852Z 34009G17KT 10SM FEW250 12/M02 A3012 RMK AO2 SLP202 T01221017=
200610241752 METAR KATL 241752Z 32012G18KT 10SM FEW250 12/M02 A3014 RMK AO2 SLP209 T01171017 10117 20028 58005=
200610241652 METAR KATL 241652Z 33013KT 10SM CLR 11/M02 A3016 RMK AO2 SLP216 T01111017=
200610241552 METAR KATL 241552Z 32013G20KT 10SM CLR 10/M03 A3016 RMK AO2 SLP217 T01001028=
200610241452 METAR KATL 241452Z 31013KT 10SM CLR 09/01 A3016 RMK AO2 SLP216 T00940006 51017=
200610241352 METAR KATL 241352Z 31008KT 10SM CLR 07/02 A3015 RMK AO2 SLP213 T00670017=
200610241252 METAR KATL 241252Z 30008KT 10SM CLR 04/01 A3013 RMK AO2 SLP207 T00440006=
200610241152 METAR KATL 241152Z 28006KT 10SM FEW065 03/M01 A3011 RMK AO2 SLP201 T00281006 10044 20022 51008=
200610241052 METAR KATL 241052Z 28005KT 10SM FEW065 02/M01 A3010 RMK AO2 SLP198 T00221011=
200610240952 METAR KATL 240952Z 28005KT 10SM CLR 03/M01 A3009 RMK AO2 SLP193 T00281011=
200610240852 METAR KATL 240852Z 27003KT 10SM CLR 03/M01 A3008 RMK AO2 SLP190 T00331011 56006=
200610240752 METAR KATL 240752Z 27004KT 10SM CLR 03/M01 A3009 RMK AO2 SLP191 T00331011=
200610240652 METAR KATL 240652Z 00000KT 10SM FEW060 04/M01 A3009 RMK AO2 SLP194 T00441011=
200610240552 METAR KATL 240552Z 23005KT 10SM CLR 04/M01 A3010 RMK AO2 SLP196 T00441011 10072 20039 56005=
200610240452 METAR KATL 240452Z 25003KT 10SM CLR 04/M01 A3010 RMK AO2 SLP197 T00441006 401170039=
200610240352 METAR KATL 240352Z 23003KT 10SM CLR 04/M01 A3011 RMK AO2 SLP199 T00441006=
200610240252 METAR KATL 240252Z 28004KT 10SM CLR 06/M02 A3011 RMK AO2 SLP201 T00561017 50005=
200610240152 METAR KATL 240152Z 27003KT 10SM CLR 06/M02 A3011 RMK AO2 SLP202 T00561017=
200610240052 METAR KATL 240052Z 26003KT 10SM CLR 07/M02 A3011 RMK AO2 SLP202 T00671022=
200610232352 METAR KATL 232352Z 30007KT 10SM CLR 07/M03 A3010 RMK AO2 SLP196 T00721028 10117 20072 53006=
200610232252 METAR KATL 232252Z 32011KT 10SM CLR 09/M03 A3009 RMK AO2 SLP194 T00891033=
200610232152 METAR KATL 232152Z 31015G23KT 10SM FEW055 10/M04 A3008 RMK AO2 SLP190 T01001039=
200610232052 METAR KATL 232052Z 29016KT 10SM FEW055 11/M03 A3008 RMK AO2 SLP190 T01111028 55007=
200610231952 METAR KATL 231952Z 31012G20KT 10SM FEW050 12/M02 A3007 RMK AO2 SLP187 T01171022=
200610231852 METAR KATL 231852Z 32016G23KT 10SM FEW050 11/M03 A3008 RMK AO2 PK WND 32027/1820 SLP188 T01111028=
200610231752 METAR KATL 231752Z 30016G23KT 10SM FEW050 11/M02 A3010 RMK AO2 PK WND 30027/1700 SLP195 T01061022 10111 20039 58012=
200610231652 METAR KATL 231652Z 32014G22KT 10SM FEW050 10/M03 A3012 RMK AO2 SLP202 T01001028=
200610231552 METAR KATL 231552Z 29019KT 10SM FEW050 09/M03 A3013 RMK AO2 SLP206 T00941028=
200610231452 METAR KATL 231452Z 32017G29KT 10SM FEW045 08/M03 A3014 RMK AO2 PK WND 32029/1445 SLP207 T00831033 51012=
200610231352 METAR KATL 231352Z COR 32011G19KT 10SM FEW100 07/M02 A3013 RMK AO2 SLP206 T00671022=
200610231252 METAR KATL 231252Z 32009KT 10SM CLR 05/00 A3012 RMK AO2 SLP200 T00500000=
200610231152 METAR KATL 231152Z 31009KT 10SM CLR 04/00 A3010 RMK AO2 SLP194 70003 T00390000 10078 20039 52009=
200610231052 METAR KATL 231052Z 30008KT 10SM CLR 04/00 A3009 RMK AO2 SLP190 T00390000=
200610230952 METAR KATL 230952Z 29007KT 10SM CLR 04/01 A3008 RMK AO2 SLP188 T00390006=
200610230852 METAR KATL 230852Z 28006KT 10SM CLR 04/01 A3007 RMK AO2 SLP183 T00440006 50006=
200610230752 METAR KATL 230752Z 30009KT 10SM BKN029 06/01 A3007 RMK AO2 SLP182 T00610011=
200610230652 METAR KATL 230652Z 31010KT 10SM BKN029 07/02 A3007 RMK AO2 SLP180 T00720017=
200610230643 SPECI KATL 230643Z 32009KT 10SM BKN029 07/02 A3006 RMK AO2=
200610230643 SPECI KATL 230643Z 32009KT 10SM BKN029 07/02 A3006 RMK AO2=
200610230552 METAR KATL 230552Z 31010KT 10SM SCT031 08/02 A3005 RMK AO2 SLP176 T00780022 10150 20078 52006=
200610230506 SPECI KATL 230506Z 33020KT 10SM SCT026 BKN120 09/03 A3005 RMK AO2=
200610230506 SPECI KATL 230506Z 33020KT 10SM SCT026 BKN120 09/03 A3005 RMK AO2=
200610230452 METAR KATL 230452Z 33016G21KT 10SM BKN027 BKN031 10/04 A3005 RMK AO2 SLP174 T01000039 402110100=
200610230422 SPECI KATL 230422Z 30012G20KT 10SM BKN027 BKN031 10/06 A3004 RMK AO2=
200610230422 SPECI KATL 230422Z 30012G20KT 10SM BKN027 BKN031 10/06 A3004 RMK AO2=
200610230352 METAR KATL 230352Z 30013G19KT 10SM SCT027 BKN031 10/06 A3004 RMK AO2 SLP171 T01000061=
200610230252 METAR KATL 230252Z 30014KT 10SM FEW035 11/07 A3004 RMK AO2 SLP170 T01110067 51014=
200610230152 METAR KATL 230152Z 29011KT 10SM CLR 12/07 A3003 RMK AO2 SLP166 T01220072=
200610230052 METAR KATL 230052Z 29010KT 10SM CLR 13/07 A3001 RMK AO2 SLP160 T01330072=
200610222352 METAR KATL 222352Z 30012KT 10SM FEW046 15/08 A2999 RMK AO2 SLP154 T01500078 10211 20150 53010=
200610222252 METAR KATL 222252Z 29008KT 10SM SCT046 17/10 A2997 RMK AO2 SLP146 T01670100=
200610222152 METAR KATL 222152Z 27009KT 10SM SCT035 18/09 A2997 RMK AO2 SLP144 T01830094=
200610222052 METAR KATL 222052Z 30011KT 10SM SCT032 19/10 A2996 RMK AO2 SLP142 T01940100 55000=
200610221952 METAR KATL 221952Z 28013KT 10SM SCT032 21/12 A2995 RMK AO2 SLP137 T02060117=
200610221852 METAR KATL 221852Z 27008KT 9SM SCT028 19/13 A2996 RMK AO2 SLP141 T01940128=
200610221846 SPECI KATL 221846Z 29009KT 9SM SCT025 19/13 A2996 RMK AO2=
200610221846 SPECI KATL 221846Z 29009KT 9SM SCT025 19/13 A2996 RMK AO2=
200610221752 METAR KATL 221752Z COR 28009KT 7SM BKN021 18/13 A2998 RMK AO2 SLP148 60003 T01830128 10189 20128 58009=
200610221652 METAR KATL 221652Z 30006KT 7SM BKN015 17/13 A2999 RMK AO2 SLP153 T01720128=
200610221559 SPECI KATL 221559Z 30008KT 6SM HZ BKN013 OVC021 16/13 A3000 RMK AO2=
200610221559 SPECI KATL 221559Z 30008KT 6SM HZ BKN013 OVC021 16/13 A3000 RMK AO2=
200610221552 METAR KATL 221552Z 29007KT 6SM HZ SCT013 OVC021 16/13 A3000 RMK AO2 SLP155 T01610128=
200610221452 METAR KATL 221452Z 00000KT 6SM HZ FEW012 BKN025 OVC100 15/12 A3001 RMK AO2 SLP159 60003 T01500117 56000=
200610221448 SPECI KATL 221448Z 00000KT 6SM HZ FEW012 BKN025 OVC100 15/12 A3001 RMK AO2=
200610221448 SPECI KATL 221448Z 00000KT 6SM HZ FEW012 BKN025 OVC100 15/12 A3001 RMK AO2=
200610221413 SPECI KATL 221413Z 12004KT 7SM FEW024 SCT110 14/12 A3000 RMK AO2=
200610221413 SPECI KATL 221413Z 12004KT 7SM FEW024 SCT110 14/12 A3000 RMK AO2=
200610221352 METAR KATL 221352Z 14003KT 6SM HZ FEW009 BKN024 BKN065 14/11 A3001 RMK AO2 RAB00E13 SLP158 P0000 T01390111=
200610221334 SPECI KATL 221334Z 10003KT 6SM BR FEW009 BKN026 OVC065 13/11 A3001 RMK AO2 RAB00E13 P0000=
200610221334 SPECI KATL 221334Z 10003KT 6SM BR FEW009 BKN026 OVC065 13/11 A3001 RMK AO2 RAB00E13 P0000=
200610221252 METAR KATL 221252Z 15003KT 3SM BR FEW009 BKN033 OVC080 13/11 A3001 RMK AO2 RAE50 SLP159 P0003 T01280111=
200610221239 SPECI KATL 221239Z 09004KT 2 1/2SM -RA BR FEW027 BKN035 OVC080 13/11 A2999 RMK AO2 P0003=
200610221239 SPECI KATL 221239Z 09004KT 2 1/2SM -RA BR FEW027 BKN035 OVC080 13/11 A2999 RMK AO2 P0003=
200610221229 SPECI KATL 221229Z 09003KT 1 3/4SM RA BR FEW025 OVC035 13/11 A3000 RMK AO2 P0002=
200610221229 SPECI KATL 221229Z 09003KT 1 3/4SM RA BR FEW025 OVC035 13/11 A3000 RMK AO2 P0002=
200610221152 METAR KATL 221152Z 04004KT 6SM -RA BR FEW009 BKN037 OVC050 13/11 A2999 RMK AO2 RAB38 SLP152 P0000 60032 70032 T01330111 10144 20122 56002=
200610221052 METAR KATL 221052Z 08005KT 9SM SCT035 BKN042 OVC070 13/11 A2999 RMK AO2 RAB06E35 SLP152 P0002 T01280106=
200610220952 METAR KATL 220952Z 10004KT 9SM BKN037 OVC046 13/11 A2998 RMK AO2 RAE09 SLP149 P0001 T01330111=
200610220852 METAR KATL 220852Z 00000KT 3SM RA BR FEW014 BKN038 OVC046 12/11 A2999 RMK AO2 SLP154 P0029 60029 T01220106 55001=
200610220837 SPECI KATL 220837Z 00000KT 3SM -RA BR SCT016 BKN038 OVC050 12/10 A3000 RMK AO2 P0026=
200610220837 SPECI KATL 220837Z 00000KT 3SM -RA BR SCT016 BKN038 OVC050 12/10 A3000 RMK AO2 P0026=
200610220821 SPECI KATL 220821Z 11005KT 2 1/2SM +RA BR BKN018 OVC050 13/11 A3000 RMK AO2 P0011=
200610220821 SPECI KATL 220821Z 11005KT 2 1/2SM +RA BR BKN018 OVC050 13/11 A3000 RMK AO2 P0011=
200610220752 METAR KATL 220752Z 02005KT 10SM -RA BKN048 OVC070 14/09 A2999 RMK AO2 RAB0657E06B38 SLP152 P0000 T01440094=
200610220652 METAR KATL 220652Z 13003KT 10SM BKN060 BKN070 OVC120 14/09 A2998 RMK AO2 RAE21 SLP149 P0000 T01440089=
200610220552 METAR KATL 220552Z 09005KT 10SM -RA BKN065 OVC100 14/09 A3000 RMK AO2 RAB0454E06B30 SLP154 P0000 60000 T01440089 10172 20144 56005=
200610220452 METAR KATL 220452Z 09007KT 10SM SCT075 BKN095 OVC250 15/08 A3000 RMK AO2 SLP155 T01500083 402060039=
200610220352 METAR KATL 220352Z 11005KT 10SM SCT075 OVC250 16/08 A3000 RMK AO2 SLP157 T01560078=
200610220252 METAR KATL 220252Z 08007KT 10SM SCT075 SCT130 OVC250 15/08 A3001 RMK AO2 SLP162 T01500083 53006=
200610220152 METAR KATL 220152Z 08007KT 10SM FEW150 OVC250 16/07 A3001 RMK AO2 SLP161 T01560072=
200610220052 METAR KATL 220052Z 10005KT 10SM FEW150 BKN250 16/07 A2999 RMK AO2 SLP157 T01560072=
200610212352 METAR KATL 212352Z 10007KT 10SM CLR 17/07 A3000 RMK AO2 SLP158 T01670067 10206 20161 53005=
200610212252 METAR KATL 212252Z 13004KT 10SM CLR 18/06 A2999 RMK AO2 SLP157 T01830061=
200610212152 METAR KATL 212152Z 14006KT 10SM CLR 20/05 A2998 RMK AO2 SLP152 T02000050=
200610212052 METAR KATL 212052Z 17005KT 10SM CLR 20/05 A2998 RMK AO2 SLP152 T02000050 55010=
200610211952 METAR KATL 211952Z 16006KT 10SM CLR 20/07 A2998 RMK AO2 SLP150 T02000067=
200610211852 METAR KATL 211852Z VRB05KT 10SM CLR 19/07 A2999 RMK AO2 SLP154 T01940067=
200610211752 METAR KATL 211752Z VRB06KT 10SM CLR 18/08 A3001 RMK AO2 SLP162 T01830078 10183 20050 58010=
200610211652 METAR KATL 211652Z 10007KT 10SM CLR 17/08 A3003 RMK AO2 SLP171 T01670078=
200610211552 METAR KATL 211552Z 12007KT 080V140 10SM CLR 16/08 A3004 RMK AO2 SLP173 T01560083=
200610211452 METAR KATL 211452Z 08011KT 10SM CLR 13/07 A3004 RMK AO2 SLP174 T01280072 51016=
200610211352 METAR KATL 211352Z 06008KT 9SM CLR 10/06 A3004 RMK AO2 SLP172 T01000061=
200610211252 METAR KATL 211252Z COR 02008KT 6SM HZ CLR 08/05 A3002 RMK AO2 SLP167 T00780050=
200610211234 SPECI KATL 211234Z 02006KT 3SM HZ CLR 07/04 A3001 RMK AO2 SFC VIS 6=
200610211234 SPECI KATL 211234Z 02006KT 3SM HZ CLR 07/04 A3001 RMK AO2 SFC VIS 6=
200610211217 SPECI KATL 211217Z 36004KT 1 1/2SM BR FEW002 06/04 A3000 RMK AO2 SFC VIS 4=
200610211217 SPECI KATL 211217Z 36004KT 1 1/2SM BR FEW002 06/04 A3000 RMK AO2 SFC VIS 4=
200610211210 SPECI KATL 211210Z 35004KT 1 1/2SM BR BKN002 06/04 A3000 RMK AO2 SFC VIS 4=
200610211210 SPECI KATL 211210Z 35004KT 1 1/2SM BR BKN002 06/04 A3000 RMK AO2 SFC VIS 4=
200610211152 METAR KATL 211152Z 36006KT 1/2SM BR OVC002 05/04 A2999 RMK AO2 SFC VIS 1 3/4 VIS 1 1/4V2 1/2 SLP159 T00500039 10056 20039 53019=
200610211052 METAR KATL 211052Z 34005KT 1/2SM BR OVC002 04/03 A2997 RMK AO2 SFC VIS 1 SLP151 T00390033 RVRNO=
200610211029 SPECI KATL 211029Z 33005KT 1/2SM BR OVC002 04/03 A2996 RMK AO2 SFC VIS 2=
200610211029 SPECI KATL 211029Z 33005KT 1/2SM BR OVC002 04/03 A2996 RMK AO2 SFC VIS 2=
200610211014 SPECI KATL 211014Z 34006KT 1SM BR BKN002 04/03 A2996 RMK AO2 SFC VIS 2 1/2=
200610211014 SPECI KATL 211014Z 34006KT 1SM BR BKN002 04/03 A2996 RMK AO2 SFC VIS 2 1/2=
200610211010 SPECI KATL 211010Z 34007KT 3SM BR BKN002 04/03 A2996 RMK AO2=
200610211010 SPECI KATL 211010Z 34007KT 3SM BR BKN002 04/03 A2996 RMK AO2=
200610210952 METAR KATL 210952Z 33008KT 5SM BR SCT002 04/03 A2995 RMK AO2 SLP142 T00390028=
200610210852 METAR KATL 210852Z 32006KT 6SM BR CLR 04/03 A2994 RMK AO2 SLP137 T00440028 51002=
200610210752 METAR KATL 210752Z 34006KT 7SM CLR 04/03 A2993 RMK AO2 SLP138 T00440028=
200610210652 METAR KATL 210652Z 32005KT 8SM CLR 05/03 A2993 RMK AO2 SLP136 T00500033=
200610210552 METAR KATL 210552Z 32007KT 10SM CLR 06/03 A2993 RMK AO2 SLP137 T00560033 10117 20056 55003=
200610210452 METAR KATL 210452Z 32008KT 10SM CLR 06/04 A2993 RMK AO2 SLP135 T00610039 402060061=
200610210352 METAR KATL 210352Z 32010KT 10SM CLR 07/04 A2994 RMK AO2 SLP139 T00720044=
200610210252 METAR KATL 210252Z 31009KT 10SM CLR 08/05 A2994 RMK AO2 SLP140 T00780050 51012=
200610210152 METAR KATL 210152Z 32009KT 10SM CLR 09/06 A2993 RMK AO2 SLP136 T00940056=
200610210052 METAR KATL 210052Z 31008KT 10SM CLR 10/06 A2992 RMK AO2 SLP131 T01000061=
200610202352 METAR KATL 202352Z 32007KT 10SM CLR 12/07 A2990 RMK AO2 SLP125 T01170067 10161 20117 53008=
200610202252 METAR KATL 202252Z 31009KT 10SM CLR 13/06 A2989 RMK AO2 SLP119 T01330061=
200610202152 METAR KATL 202152Z 31011KT 10SM CLR 15/07 A2988 RMK AO2 SLP114 T01500067=
200610202052 METAR KATL 202052Z 30010KT 10SM FEW035 16/06 A2988 RMK AO2 SLP113 T01610061 55006=
200610201952 METAR KATL 201952Z 33010KT 10SM FEW035 16/06 A2987 RMK AO2 SLP112 T01560061=
200610201852 METAR KATL 201852Z 33010G17KT 10SM FEW030 16/07 A2988 RMK AO2 SLP112 T01560072=
200610201752 METAR KATL 201752Z 32011G17KT 10SM FEW023 14/07 A2990 RMK AO2 SLP119 T01440072 10144 20117 58002=
200610201714 SPECI KATL 201714Z 29011G17KT 10SM FEW020 14/08 A2991 RMK AO2=
200610201714 SPECI KATL 201714Z 29011G17KT 10SM FEW020 14/08 A2991 RMK AO2=
200610201652 METAR KATL 201652Z 32014KT 10SM BKN020 13/07 A2992 RMK AO2 SLP126 T01330072=
200610201552 METAR KATL 201552Z 31010KT 10SM BKN017 13/08 A2992 RMK AO2 SLP127 T01330083=
200610201452 METAR KATL 201452Z 30014KT 10SM OVC017 12/08 A2990 RMK AO2 SLP122 BINOVC NE-S T01220078 51022=
200610201403 SPECI KATL 201403Z 33014KT 10SM OVC015 12/08 A2989 RMK AO2=
200610201403 SPECI KATL 201403Z 33014KT 10SM OVC015 12/08 A2989 RMK AO2=
200610201352 METAR KATL 201352Z 32016KT 10SM OVC013 12/08 A2989 RMK AO2 SLP116 T01220083=
200610201252 METAR KATL 201252Z 31012KT 10SM OVC011 12/09 A2986 RMK AO2 SLP108 T01170089=
200610201212 SPECI KATL 201212Z 29010KT 10SM OVC010 12/09 A2984 RMK AO2 CIG 008V014=
200610201212 SPECI KATL 201212Z 29010KT 10SM OVC010 12/09 A2984 RMK AO2 CIG 008V014=
200610201152 METAR KATL 201152Z 31015KT 10SM OVC008 12/10 A2984 RMK AO2 SLP098 60000 70012 T01220100 10194 20122 53030=
200610201105 SPECI KATL 201105Z 29014KT 10SM BKN007 OVC010 13/11 A2981 RMK AO2 CIG 007V010=
200610201105 SPECI KATL 201105Z 29014KT 10SM BKN007 OVC010 13/11 A2981 RMK AO2 CIG 007V010=
200610201052 METAR KATL 201052Z 28012KT 10SM OVC010 14/12 A2981 RMK AO2 CIG 008V013 SLP086 T01390117=
200610201020 SPECI KATL 201020Z 29010KT 10SM OVC010 15/13 A2979 RMK AO2 CIG 008V014=
200610201020 SPECI KATL 201020Z 29010KT 10SM OVC010 15/13 A2979 RMK AO2 CIG 008V014=
200610201009 SPECI KATL 201009Z 29017KT 10SM BKN008 OVC014 16/13 A2978 RMK AO2=
200610201009 SPECI KATL 201009Z 29017KT 10SM BKN008 OVC014 16/13 A2978 RMK AO2=
200610200952 METAR KATL 200952Z 29014KT 10SM SCT008 BKN020 OVC050 16/14 A2977 RMK AO2 RAE17 SLP074 P0000 T01610139=
200610200941 SPECI KATL 200941Z 29014KT 10SM BKN010 BKN020 OVC026 17/14 A2977 RMK AO2 RAE17 CIG 007V011 P0000=
200610200941 SPECI KATL 200941Z 29014KT 10SM BKN010 BKN020 OVC026 17/14 A2977 RMK AO2 RAE17 CIG 007V011 P0000=
200610200924 SPECI KATL 200924Z 30014KT 10SM FEW008 OVC020 17/15 A2976 RMK AO2 RAE17 P0000=
200610200924 SPECI KATL 200924Z 30014KT 10SM FEW008 OVC020 17/15 A2976 RMK AO2 RAE17 P0000=
200610200919 SPECI KATL 200919Z 29012KT 10SM FEW008 BKN011 OVC018 17/15 A2975 RMK AO2 RAE17 P0000=
200610200919 SPECI KATL 200919Z 29012KT 10SM FEW008 BKN011 OVC018 17/15 A2975 RMK AO2 RAE17 P0000=
200610200852 METAR KATL 200852Z 25008KT 10SM -RA BKN013 OVC019 19/16 A2974 RMK AO2 RAB47 SLP064 P0000 60000 T01890161 50000=
200610200752 METAR KATL 200752Z 25006KT 10SM BKN018 OVC042 19/16 A2974 RMK AO2 SLP065 T01890161=
200610200715 SPECI KATL 200715Z 25006KT 10SM BKN023 19/16 A2975 RMK AO2=
200610200715 SPECI KATL 200715Z 25006KT 10SM BKN023 19/16 A2975 RMK AO2=
200610200652 METAR KATL 200652Z 25006KT 10SM FEW017 BKN032 19/16 A2975 RMK AO2 SLP065 T01940161=
200610200648 SPECI KATL 200648Z 24007KT 10SM FEW017 BKN032 19/16 A2974 RMK AO2=
200610200648 SPECI KATL 200648Z 24007KT 10SM FEW017 BKN032 19/16 A2974 RMK AO2=
200610200552 METAR KATL 200552Z 27008KT 10SM OVC015 20/18 A2974 RMK AO2 SLP064 60012 T02000178 10244 20200 53010=
200610200541 SPECI KATL 200541Z 27009KT 10SM BKN015 BKN032 20/18 A2974 RMK AO2=
200610200541 SPECI KATL 200541Z 27009KT 10SM BKN015 BKN032 20/18 A2974 RMK AO2=
200610200519 SPECI KATL 200519Z 26009KT 10SM FEW015 BKN030 20/18 A2973 RMK AO2=
200610200519 SPECI KATL 200519Z 26009KT 10SM FEW015 BKN030 20/18 A2973 RMK AO2=
200610200452 METAR KATL 200452Z 26010KT 10SM FEW015 OVC025 21/18 A2973 RMK AO2 SLP060 BINOVC T02060183 402440178=
200610200444 SPECI KATL 200444Z 25012KT 10SM FEW015 BKN025 21/18 A2973 RMK AO2=
200610200444 SPECI KATL 200444Z 25012KT 10SM FEW015 BKN025 21/18 A2973 RMK AO2=
200610200426 SPECI KATL 200426Z 25011KT 10SM FEW010 SCT025 21/18 A2972 RMK AO2=
200610200426 SPECI KATL 200426Z 25011KT 10SM FEW010 SCT025 21/18 A2972 RMK AO2=
200610200352 METAR KATL 200352Z 26013KT 10SM FEW010 BKN027 OVC040 21/19 A2972 RMK AO2 SLP057 BINOVC T02110189=
200610200252 METAR KATL 200252Z 25012KT 10SM BKN020 22/19 A2971 RMK AO2 SLP053 60012 T02170194 53008=
200610200152 METAR KATL 200152Z 23009KT 10SM FEW025 SCT200 22/19 A2969 RMK AO2 RAE29 SLP046 P0011 T02170194=
200610200052 METAR KATL 200052Z COR 19010KT 5SM RA SCT035 BKN055 OVC090 23/18 A2970 RMK AO2 RAE24B47 SLP048 P0001 T02280183=
200610192352 METAR KATL 192352Z 17008KT 10SM -RA FEW040 BKN055 BKN090 OVC200 24/17 A2969 RMK AO2 RAB52 SLP045 P0000 60000 T02440172 10244 20228 56021=
200610192252 METAR KATL 192252Z 14008KT 7SM BKN060 BKN085 OVC200 24/20 A2969 RMK AO2 SLP046 T02440200=
200610192152 METAR KATL 192152Z 11008KT 7SM FEW060 SCT150 BKN200 BKN250 24/20 A2971 RMK AO2 SLP051 T02440200=
200610192052 METAR KATL 192052Z 10005KT 3SM HZ FEW025 SCT060 OVC150 24/19 A2975 RMK AO2 SFC VIS 5 SLP067 T02440194 56030=
200610191952 METAR KATL 191952Z VRB03KT 3SM HZ SCT035 BKN060 BKN150 OVC180 24/20 A2977 RMK AO2 SFC VIS 5 SLP075 T02440200=
200610191928 SPECI KATL 191928Z 21003KT 3SM HZ FEW020 SCT040 BKN065 OVC150 24/19 A2979 RMK AO2 SFC VIS 5=
200610191928 SPECI KATL 191928Z 21003KT 3SM HZ FEW020 SCT040 BKN065 OVC150 24/19 A2979 RMK AO2 SFC VIS 5=
200610191852 METAR KATL 191852Z 21005KT 3SM HZ FEW011 SCT090 OVC150 24/19 A2980 RMK AO2 SFC VIS 5 SLP084 T02390194=
200610191752 METAR KATL 191752Z 21003KT 2 1/2SM HZ SCT011 BKN090 OVC150 23/19 A2985 RMK AO2 SFC VIS 5 SLP099 60000 T02280194 10233 20189 56012=
200610191744 SPECI KATL 191744Z 19005KT 1 1/2SM HZ SCT011 SCT090 23/19 A2985 RMK AO2 SFC VIS 4=
200610191744 SPECI KATL 191744Z 19005KT 1 1/2SM HZ SCT011 SCT090 23/19 A2985 RMK AO2 SFC VIS 4=
200610191706 SPECI KATL 191706Z VRB05KT 1 1/2SM HZ BKN011 23/19 A2985 RMK AO2 SFC VIS 3=
200610191706 METAR KATL 191706Z VRB04 2SM HZ BKN011 BKN080 BKN150 23/19 A2985=
200610191652 METAR KATL 191652Z 20006KT 2SM BR BKN009 BKN080 OVC150 22/20 A2985 RMK AO2 SFC VIS 4 CIG 008V012 SLP102 T02220200=
200610191607 SPECI KATL 191607Z 17003KT 1 1/2SM BR OVC009 22/20 A2987 RMK AO2 SFC VIS 2 1/2 CIG 005V010=
200610191607 SPECI KATL 191607Z 17003KT 1 1/2SM BR OVC009 22/20 A2987 RMK AO2 SFC VIS 2 1/2 CIG 005V010=
200610191552 METAR KATL 191552Z 11004KT 1/2SM HZ OVC005 22/19 A2987 RMK AO2 SFC VIS 2 1/2 CIG 004V009 SLP107 T02220194=
200610191539 SPECI KATL 191539Z VRB03KT 1/2SM BR BKN005 OVC009 21/19 A2987 RMK AO2 SFC VIS 2 CIG 003V007=
200610191539 SPECI KATL 191539Z VRB03KT 1/2SM BR BKN005 OVC009 21/19 A2987 RMK AO2 SFC VIS 2 CIG 003V007=
200610191452 METAR KATL 191452Z 14004KT 1/2SM BR BKN003 OVC005 20/18 A2988 RMK AO2 SFC VIS 1 1/2 SLP111 60000 T02000183 50000=
200610191408 SPECI KATL 191408Z 13004KT 1SM BR OVC003 20/18 A2989 RMK AO2 SFC VIS 1 3/4=
200610191408 SPECI KATL 191408Z 13004KT 1SM BR OVC003 20/18 A2989 RMK AO2 SFC VIS 1 3/4=
200610191352 METAR KATL 191352Z 14003KT 1SM BR OVC005 20/18 A2989 RMK AO2 SFC VIS 2 CIG 002V007 SLP114 T02000178=
200610191321 SPECI KATL 191321Z VRB03KT 2SM BR BKN008 BKN080 OVC150 19/17 A2988 RMK AO2 SFC VIS 4=
200610191321 SPECI KATL 191321Z VRB03KT 2SM BR BKN008 BKN080 OVC150 19/17 A2988 RMK AO2 SFC VIS 4=
200610191308 SPECI KATL 191308Z 12005KT 4SM BR FEW006 SCT080 OVC150 19/17 A2986 RMK AO2=
200610191308 SPECI KATL 191308Z 12005KT 4SM BR FEW006 SCT080 OVC150 19/17 A2986 RMK AO2=
200610191252 METAR KATL 191252Z 13004KT 4SM BR FEW018 SCT080 OVC180 19/17 A2988 RMK AO2 RAE1154 SLP111 P0000 T01940172=
200610191245 SPECI KATL 191245Z 00000KT 3SM BR FEW018 SCT080 OVC180 19/17 A2988 RMK AO2 RAE1154 P0000=
200610191245 SPECI KATL 191245Z 00000KT 3SM BR FEW018 SCT080 OVC180 19/17 A2988 RMK AO2 RAE1154 P0000=
200610191228 SPECI KATL 191228Z 00000KT 3SM BR BKN016 BKN080 OVC180 19/17 A2988 RMK AO2 RAE1154 P0000=
200610191228 SPECI KATL 191228Z 00000KT 3SM BR BKN016 BKN080 OVC180 19/17 A2988 RMK AO2 RAE1154 P0000=
200610191152 METAR KATL 191152Z 00000KT 6SM -RA BR FEW080 SCT120 BKN180 OVC250 18/17 A2988 RMK AO2 RAB43 SLP110 ACC VC S P0000 60000 T01830167 10189 20178 58002=
200610191052 METAR KATL 191052Z 00000KT 5SM BR BKN120 OVC200 18/17 A2989 RMK AO2 SLP114 T01830167=
200610190952 METAR KATL 190952Z 00000KT 5SM BR BKN140 OVC200 18/17 A2988 RMK AO2 SLP111 T01830167=
200610190852 METAR KATL 190852Z 31003KT 6SM BR BKN140 OVC200 18/16 A2988 RMK AO2 SLP112 T01780161 58003=
200610190752 METAR KATL 190752Z 00000KT 5SM BR BKN150 BKN200 BKN250 18/17 A2989 RMK AO2 SLP113 T01830167=
200610190652 METAR KATL 190652Z 00000KT 6SM BR BKN150 BKN250 18/17 A2989 RMK AO2 SLP116 T01830167=
200610190552 METAR KATL 190552Z 00000KT 7SM BKN150 BKN250 18/17 A2989 RMK AO2 SLP115 T01830167 10211 20183 58008=
200610190452 METAR KATL 190452Z 00000KT 7SM BKN150 18/17 A2990 RMK AO2 SLP120 T01830167 402500111=
200610190352 METAR KATL 190352Z 00000KT 7SM BKN180 18/17 A2991 RMK AO2 SLP123 T01830167=
200610190252 METAR KATL 190252Z 00000KT 7SM SCT200 19/18 A2992 RMK AO2 SLP124 T01940178 50007=
200610190152 METAR KATL 190152Z 00000KT 8SM SCT200 21/18 A2992 RMK AO2 SLP125 T02060178=
200610190052 METAR KATL 190052Z 25003KT 8SM FEW250 21/18 A2991 RMK AO2 SLP123 T02060178=
200610182352 METAR KATL 182352Z 00000KT 8SM FEW250 21/18 A2990 RMK AO2 SLP117 T02060178 10250 20206 55001=
200610182252 METAR KATL 182252Z 30004KT 8SM FEW200 22/17 A2989 RMK AO2 SLP114 T02220172=
200610182152 METAR KATL 182152Z 31007KT 7SM FEW200 23/18 A2989 RMK AO2 SLP115 T02330183=
200610182052 METAR KATL 182052Z 29007KT 3SM HZ FEW016 SCT200 23/19 A2990 RMK AO2 SFC VIS 5 SLP116 T02330189 56014=
200610181952 METAR KATL 181952Z 30008KT 3SM HZ BKN017 BKN024 24/19 A2991 RMK AO2 SFC VIS 5 SLP118 T02390194=
200610181911 SPECI KATL 181911Z 00000KT 3SM HZ BKN015 24/19 A2991 RMK AO2 SFC VIS 5=
200610181911 SPECI KATL 181911Z 00000KT 3SM HZ BKN015 24/19 A2991 RMK AO2 SFC VIS 5=
200610181852 METAR KATL 181852Z VRB03KT 3SM HZ BKN013 24/21 A2991 RMK AO2 SFC VIS 5 SLP121 T02390206=
200610181808 SPECI KATL 181808Z VRB03KT 3SM HZ SCT008 BKN010 BKN018 23/21 A2993 RMK AO2 SFC VIS 5=
200610181808 SPECI KATL 181808Z VRB03KT 3SM HZ SCT008 BKN010 BKN018 23/21 A2993 RMK AO2 SFC VIS 5=
200610181752 METAR KATL 181752Z 31004KT 3SM BR OVC008 22/21 A2994 RMK AO2 SFC VIS 5 SLP132 T02220206 10222 20189 58003=
200610181747 SPECI KATL 181747Z 29005KT 3SM BR OVC008 22/21 A2994 RMK AO2 SFC VIS 5=
200610181747 SPECI KATL 181747Z 29005KT 3SM BR OVC008 22/21 A2994 RMK AO2 SFC VIS 5=
200610181655 SPECI KATL 181655Z VRB05KT 2SM BR FEW006 BKN008 OVC012 22/21 A2995 RMK AO2 SFC VIS 4=
200610181655 SPECI KATL 181655Z VRB05KT 2SM BR FEW006 BKN008 OVC012 22/21 A2995 RMK AO2 SFC VIS 4=
200610181652 METAR KATL 181652Z VRB04KT 2SM BR OVC007 22/21 A2995 RMK AO2 SFC VIS 4 CIG 006V011 SLP135 T02170206=
200610181649 SPECI KATL 181649Z 34005KT 2SM BR OVC007 22/21 A2995 RMK AO2 SFC VIS 4 CIG 006V011=
200610181649 SPECI KATL 181649Z 34005KT 2SM BR OVC007 22/21 A2995 RMK AO2 SFC VIS 4 CIG 006V011=
200610181552 METAR KATL 181552Z 33006KT 1 1/2SM BR OVC005 22/20 A2996 RMK AO2 SFC VIS 3 CIG 002V007 SLP136 T02170200=
200610181520 SPECI KATL 181520Z VRB04KT 1 1/2SM BR OVC005 22/20 A2995 RMK AO2 SFC VIS 3=
200610181520 SPECI KATL 181520Z VRB04KT 1 1/2SM BR OVC005 22/20 A2995 RMK AO2 SFC VIS 3=
200610181452 METAR KATL 181452Z 00000KT 3/4SM BR OVC005 21/19 A2995 RMK AO2 SFC VIS 2 SLP133 T02110189 51014=
200610181411 SPECI KATL 181411Z 31005KT 1/8SM FG FEW002 BKN005 OVC008 21/19 A2994 RMK AO2 SFC VIS 1/2 RVRNO=
200610181411 SPECI KATL 181411Z 31005KT 1/8SM FG FEW002 BKN005 OVC008 21/19 A2994 RMK AO2 SFC VIS 1/2 RVRNO=
200610181352 METAR KATL 181352Z VRB04KT 1/8SM FG OVC003 21/19 A2994 RMK AO2 SFC VIS 1/2 SLP130 TWRINC T02060189 RVRNO=
200610181329 SPECI KATL 181329Z VRB03KT 1/8SM FG OVC003 20/18 A2992 RMK AO2 SFC VIS 1/2 TWRINC RVRNO=
200610181329 SPECI KATL 181329Z VRB03KT 1/8SM FG OVC003 20/18 A2992 RMK AO2 SFC VIS 1/2 TWRINC RVRNO=
200610181313 SPECI KATL 181313Z 03003KT 1/8SM BR OVC003 19/18 A2992 RMK AO2 SFC VIS 2 CIG 001V007 TWRINC=
200610181313 SPECI KATL 181313Z 03003KT 1/8SM BR OVC003 19/18 A2992 RMK AO2 SFC VIS 2 CIG 001V007 TWRINC=
200610181252 METAR KATL 181252Z 00000KT 1/8SM BR BKN001 OVC005 19/19 A2991 RMK AO2 SFC VIS 1 1/2 SLP123 TWRINC T01940189=
200610181152 METAR KATL 181152Z 03006KT 1/8SM FG VV001 19/19 A2990 RMK AO2 SFC VIS 1/4 DZE29 SLP119 P0000 60000 70038 T01890189 10211 20189 53014 RVRNO=
200610181052 METAR KATL 181052Z 00000KT 1/8SM -DZ FG VV001 19/19 A2989 RMK AO2 SFC VIS 1/4 SLP115 P0000 T01940194 RVRNO=
200610181047 SPECI KATL 181047Z 00000KT 1/8SM -DZ FG VV001 19/19 A2989 RMK AO2 SFC VIS 1/4 P0000 RVRNO=
200610181047 SPECI KATL 181047Z 00000KT 1/8SM -DZ FG VV001 19/19 A2989 RMK AO2 SFC VIS 1/4 P0000 RVRNO=
200610181022 SPECI KATL 181022Z 05005KT 0SM -DZ FG VV001 19/19 A2988 RMK AO2 SFC VIS 1/4 P0000 RVRNO=
200610181022 SPECI KATL 181022Z 05005KT 0SM -DZ FG VV001 19/19 A2988 RMK AO2 SFC VIS 1/4 P0000 RVRNO=
200610180952 METAR KATL 180952Z 02007KT 1/8SM -DZ FG VV001 19/19 A2987 RMK AO2 SFC VIS 1/2 SLP107 P0000 T01940194 RVRNO=
200610180852 METAR KATL 180852Z 07005KT 1/8SM -DZ FG VV001 21/21 A2986 RMK AO2 SFC VIS 1/4 SLP104 P0000 60000 T02060206 58001 RVRNO=
200610180752 METAR KATL 180752Z 00000KT 1/8SM -DZ BR VV001 21/21 A2986 RMK AO2 SFC VIS 3/4 SLP105 P0000 T02060206 RVRNO=
200610180652 METAR KATL 180652Z 00000KT 1/8SM -DZ FG VV001 21/21 A2986 RMK AO2 SFC VIS 1/4 SLP106 P0000 T02060206 RVRNO=
200610180552 METAR KATL 180552Z 11003KT 1/8SM -DZ FG VV001 21/21 A2986 RMK AO2 SFC VIS 1/4 SLP105 P0000 60000 T02110211 10217 20206 51001 RVRNO=
200610180452 METAR KATL 180452Z 14003KT 1/8SM -DZ FG VV001 21/20 A2986 RMK AO2 SFC VIS 1/4 DZB0356 SLP105 P0000 T02110200 402170144 RVRNO=
200610180352 METAR KATL 180352Z 13003KT 1/8SM FG VV001 21/20 A2986 RMK AO2 SFC VIS 1/4 SLP105 T02110200 RVRNO=
200610180334 SPECI KATL 180334Z 00000KT 1/8SM BR OVC001 21/20 A2986 RMK AO2 SFC VIS 3/4 RVRNO=
200610180334 SPECI KATL 180334Z 00000KT 1/8SM BR OVC001 21/20 A2986 RMK AO2 SFC VIS 3/4 RVRNO=
200610180320 SPECI KATL 180320Z 15003KT 1/8SM BR OVC002 21/20 A2986 RMK AO2 SFC VIS 2 1/2=
200610180320 SPECI KATL 180320Z 15003KT 1/8SM BR OVC002 21/20 A2986 RMK AO2 SFC VIS 2 1/2=
200610180308 SPECI KATL 180308Z 14005KT 1/2SM BR OVC002 21/20 A2986 RMK AO2 SFC VIS 3=
200610180308 SPECI KATL 180308Z 14005KT 1/2SM BR OVC002 21/20 A2986 RMK AO2 SFC VIS 3=
200610180252 METAR KATL 180252Z 13004KT 5SM BR OVC004 21/20 A2986 RMK AO2 SLP104 CIG 003V006 T02110200 51013=
200610180235 SPECI KATL 180235Z 12005KT 6SM BR OVC004 21/20 A2985 RMK AO2 CIG 003V008=
200610180235 SPECI KATL 180235Z 12005KT 6SM BR OVC004 21/20 A2985 RMK AO2 CIG 003V008=
200610180152 METAR KATL 180152Z 15004KT 5SM BR BKN006 OVC020 21/20 A2985 RMK AO2 SLP101 CIG 003V010 T02110200=
200610180134 SPECI KATL 180134Z 16004KT 2 1/2SM BR BKN007 OVC020 21/20 A2985 RMK AO2 SFC VIS 5 CIG 003V010=
200610180134 SPECI KATL 180134Z 16004KT 2 1/2SM BR BKN007 OVC020 21/20 A2985 RMK AO2 SFC VIS 5 CIG 003V010=
200610180123 SPECI KATL 180123Z 15005KT 2 1/2SM BR BKN004 OVC025 21/20 A2984 RMK AO2 SFC VIS 5 CIG 003V008=
200610180123 SPECI KATL 180123Z 15005KT 2 1/2SM BR BKN004 OVC025 21/20 A2984 RMK AO2 SFC VIS 5 CIG 003V008=
200610180113 SPECI KATL 180113Z 13005KT 2 1/2SM BR BKN005 OVC025 21/20 A2984 RMK AO2 SFC VIS 6 CIG 003V008=
200610180113 SPECI KATL 180113Z 13005KT 2 1/2SM BR BKN005 OVC025 21/20 A2984 RMK AO2 SFC VIS 6 CIG 003V008=
200610180103 SPECI KATL 180103Z 13005KT 1 1/2SM BKN005 OVC020 22/20 A2984 RMK AO2 SFC VIS 7 CIG 003V008=
200610180103 SPECI KATL 180103Z 13005KT 1 1/2SM BKN005 OVC020 22/20 A2984 RMK AO2 SFC VIS 7 CIG 003V008=
200610180052 METAR KATL 180052Z 13003KT 2 1/2SM BKN005 OVC020 22/20 A2984 RMK AO2 SFC VIS 7 SLP097 CIG 003V008 T02170200=
200610180047 SPECI KATL 180047Z 14003KT 2 1/2SM BKN005 OVC020 22/20 A2984 RMK AO2 SFC VIS 7 CIG 004V010=
200610180047 SPECI KATL 180047Z 14003KT 2 1/2SM BKN005 OVC020 22/20 A2984 RMK AO2 SFC VIS 7 CIG 004V010=
200610172352 METAR KATL 172352Z 16003KT 8SM OVC005 22/20 A2982 RMK AO2 SLP090 CIG 004V009 60001 T02170200 10217 20200 53010=
200610172252 METAR KATL 172252Z 17006KT 7SM OVC007 22/20 A2980 RMK AO2 DZE42 SLP086 CIG 005V010 P0000 T02170200=
200610172152 METAR KATL 172152Z 19007KT 7SM -DZ OVC005 21/20 A2980 RMK AO2 DZB28 SLP084 PCPN VRY LGT P0000 T02110200=
200610172052 METAR KATL 172052Z 19010KT 6SM BR OVC006 21/19 A2979 RMK AO2 RAE1957 SLP081 P0000 60001 T02110194 56003=
200610171952 METAR KATL 171952Z 19010KT 5SM -RA BR OVC007 21/19 A2979 RMK AO2 RAB41 CIG 005V009 SLP081 P0000 T02110194=
200610171907 SPECI KATL 171907Z 20010KT 6SM BR OVC007 21/19 A2979 RMK AO2=
200610171907 SPECI KATL 171907Z 20010KT 6SM BR OVC007 21/19 A2979 RMK AO2=
200610171852 METAR KATL 171852Z 20012KT 3SM BR OVC008 21/19 A2978 RMK AO2 SFC VIS 6 RAE01 SLP080 P0001 T02060189=
200610171800 SPECI KATL 171800Z 19013KT 3SM -RA BR FEW005 BKN008 OVC012 20/18 A2979 RMK AO2 SFC VIS 5 P0000=
200610171800 SPECI KATL 171800Z 19013KT 3SM -RA BR FEW005 BKN008 OVC012 20/18 A2979 RMK AO2 SFC VIS 5 P0000=
200610171752 METAR KATL 171752Z 19014G19KT 3SM -RA BR BKN005 BKN008 OVC012 20/18 A2980 RMK AO2 SFC VIS 5 SLP085 P0002 60037 T02000183 10200 20167 58009=
200610171709 SPECI KATL 171709Z 17010G17KT 3SM -RA BR FEW002 BKN012 OVC018 19/17 A2981 RMK AO2 SFC VIS 5 P0002=
200610171709 SPECI KATL 171709Z 17010G17KT 3SM -RA BR FEW002 BKN012 OVC018 19/17 A2981 RMK AO2 SFC VIS 5 P0002=
200610171705 SPECI KATL 171705Z 16009G17KT 2SM -RA BR FEW002 BKN012 OVC018 19/17 A2981 RMK AO2 SFC VIS 3 P0001=
200610171705 SPECI KATL 171705Z 16009G17KT 2SM -RA BR FEW002 BKN012 OVC018 19/17 A2981 RMK AO2 SFC VIS 3 P0001=
200610171652 METAR KATL 171652Z 17010G15KT 2SM RA BR FEW002 BKN015 OVC018 19/17 A2982 RMK AO2 SFC VIS 2 1/2 SLP093 P0011 T01890172=
200610171628 SPECI KATL 171628Z 16007KT 3SM RA BR FEW002 SCT015 OVC018 19/17 A2983 RMK AO2 P0008=
200610171628 SPECI KATL 171628Z 16007KT 3SM RA BR FEW002 SCT015 OVC018 19/17 A2983 RMK AO2 P0008=
200610171625 SPECI KATL 171625Z 16007KT 2SM +RA BR OVC018 19/17 A2983 RMK AO2 TWR VIS 3 P0007=
200610171625 SPECI KATL 171625Z 16007KT 2SM +RA BR OVC018 19/17 A2983 RMK AO2 TWR VIS 3 P0007=
200610171552 METAR KATL 171552Z 17007G17KT 3SM -RA BR OVC020 19/17 A2983 RMK AO2 SFC VIS 5 SLP099 P0005 T01890167=
200610171523 SPECI KATL 171523Z 17011G18KT 3SM -RA BR FEW008 OVC020 18/17 A2984 RMK AO2 SFC VIS 4 P0002=
200610171523 SPECI KATL 171523Z 17011G18KT 3SM -RA BR FEW008 OVC020 18/17 A2984 RMK AO2 SFC VIS 4 P0002=
200610171502 SPECI KATL 171502Z 17011KT 3SM -RA FEW008 SCT015 OVC020 18/17 A2983 RMK AO2 SFC VIS 7 P0000=
200610171502 SPECI KATL 171502Z 17011KT 3SM -RA FEW008 SCT015 OVC020 18/17 A2983 RMK AO2 SFC VIS 7 P0000=
200610171452 METAR KATL 171452Z 16012G17KT 3SM -RA BR FEW010 OVC021 18/17 A2983 RMK AO2 SFC VIS 4 SLP096 P0011 60019 T01830167 56008=
200610171423 SPECI KATL 171423Z 16010KT 6SM BR FEW008 BKN016 OVC021 18/16 A2983 RMK AO2 RAE21 P0003=
200610171423 SPECI KATL 171423Z 16010KT 6SM BR FEW008 BKN016 OVC021 18/16 A2983 RMK AO2 RAE21 P0003=
200610171416 SPECI KATL 171416Z 15012KT 6SM -RA BR FEW010 BKN016 OVC021 18/16 A2983 RMK AO2 P0003=
200610171416 SPECI KATL 171416Z 15012KT 6SM -RA BR FEW010 BKN016 OVC021 18/16 A2983 RMK AO2 P0003=
200610171413 SPECI KATL 171413Z 15014KT 3SM -RA BR SCT010 BKN016 OVC021 18/16 A2982 RMK AO2 SFC VIS 4 P0003=
200610171413 SPECI KATL 171413Z 15014KT 3SM -RA BR SCT010 BKN016 OVC021 18/16 A2982 RMK AO2 SFC VIS 4 P0003=
200610171405 SPECI KATL 171405Z 15011KT 3SM -RA BR FEW008 BKN012 OVC024 18/16 A2983 RMK AO2 SFC VIS 4 P0003=
200610171405 SPECI KATL 171405Z 15011KT 3SM -RA BR FEW008 BKN012 OVC024 18/16 A2983 RMK AO2 SFC VIS 4 P0003=
200610171402 SPECI KATL 171402Z 16011KT 3SM -RA BR SCT008 BKN015 OVC021 18/16 A2983 RMK AO2 SFC VIS 4 P0003=
200610171402 SPECI KATL 171402Z 16011KT 3SM -RA BR SCT008 BKN015 OVC021 18/16 A2983 RMK AO2 SFC VIS 4 P0003=
200610171355 SPECI KATL 171355Z 15013G19KT 2SM RA BR SCT008 BKN015 OVC025 18/16 A2983 RMK AO2 SFC VIS 3 P0001=
200610171355 SPECI KATL 171355Z 15013G19KT 2SM RA BR SCT008 BKN015 OVC025 18/16 A2983 RMK AO2 SFC VIS 3 P0001=
200610171352 METAR KATL 171352Z 15013G19KT 3SM RA BR SCT008 BKN016 OVC028 18/16 A2983 RMK AO2 SLP099 P0004 T01780161=
200610171313 SPECI KATL 171313Z 14012KT 3SM -RA BR FEW006 BKN016 OVC032 17/16 A2984 RMK AO2 SFC VIS 6 P0002=
200610171313 SPECI KATL 171313Z 14012KT 3SM -RA BR FEW006 BKN016 OVC032 17/16 A2984 RMK AO2 SFC VIS 6 P0002=
200610171252 METAR KATL 171252Z 15013G19KT 3SM RA BR FEW008 BKN012 OVC032 17/16 A2984 RMK AO2 SFC VIS 4 SLP103 P0004 T01720156=
200610171235 SPECI KATL 171235Z 15014G19KT 3SM RA BR FEW008 BKN016 OVC034 17/16 A2984 RMK AO2 P0001=
200610171235 SPECI KATL 171235Z 15014G19KT 3SM RA BR FEW008 BKN016 OVC034 17/16 A2984 RMK AO2 P0001=
200610171226 SPECI KATL 171226Z 14012G18KT 9SM -RA FEW008 SCT019 OVC034 17/15 A2983 RMK AO2 P0000=
200610171226 SPECI KATL 171226Z 14012G18KT 9SM -RA FEW008 SCT019 OVC034 17/15 A2983 RMK AO2 P0000=
200610171152 METAR KATL 171152Z 14012G18KT 10SM -RA FEW010 BKN038 OVC090 17/15 A2985 RMK AO2 SLP105 P0002 60028 70042 T01670150 10167 20150 58018=
200610171059 SPECI KATL 171059Z 13012KT 7SM -RA SCT008 SCT015 OVC042 16/15 A2987 RMK AO2 P0001=
200610171059 SPECI KATL 171059Z 13012KT 7SM -RA SCT008 SCT015 OVC042 16/15 A2987 RMK AO2 P0001=
200610171052 METAR KATL 171052Z 13012G18KT 6SM -RA BR SCT008 BKN013 OVC045 16/15 A2987 RMK AO2 SLP113 P0005 T01610150=
200610171045 SPECI KATL 171045Z 13012G18KT 6SM -RA BR SCT006 BKN013 OVC043 16/15 A2988 RMK AO2 P0005=
200610171045 SPECI KATL 171045Z 13012G18KT 6SM -RA BR SCT006 BKN013 OVC043 16/15 A2988 RMK AO2 P0005=
200610171004 SPECI KATL 171004Z 12009KT 5SM -RA BR BKN006 BKN013 OVC044 16/14 A2990 RMK AO2 P0001=
200610171004 SPECI KATL 171004Z 12009KT 5SM -RA BR BKN006 BKN013 OVC044 16/14 A2990 RMK AO2 P0001=
200610170955 SPECI KATL 170955Z 12009KT 4SM -RA BR SCT006 BKN013 OVC044 16/14 A2991 RMK AO2 P0000=
200610170955 SPECI KATL 170955Z 12009KT 4SM -RA BR SCT006 BKN013 OVC044 16/14 A2991 RMK AO2 P0000=
200610170952 METAR KATL 170952Z 13009KT 3SM -RA BR SCT006 BKN015 OVC044 16/14 A2990 RMK AO2 SLP123 P0015 T01610144=
200610170920 SPECI KATL 170920Z 13007KT 3SM RA BR SCT008 BKN015 OVC048 16/14 A2992 RMK AO2 P0006=
200610170920 SPECI KATL 170920Z 13007KT 3SM RA BR SCT008 BKN015 OVC048 16/14 A2992 RMK AO2 P0006=
200610170852 METAR KATL 170852Z 12011KT 5SM -RA BR FEW008 SCT015 OVC048 16/14 A2990 RMK AO2 SLP124 P0004 60006 T01560139 56021=
200610170808 SPECI KATL 170808Z 12009KT 7SM -RA SCT008 SCT015 OVC055 16/14 A2992 RMK AO2 P0001=
200610170808 SPECI KATL 170808Z 12009KT 7SM -RA SCT008 SCT015 OVC055 16/14 A2992 RMK AO2 P0001=
200610170752 METAR KATL 170752Z COR 12013G18KT 6SM -RA BR FEW008 SCT015 OVC055 16/14 A2991 RMK AO2 SLP127 P0002 T01560139=
200610170652 METAR KATL 170652Z 11013KT 10SM -RA FEW008 SCT015 OVC055 16/13 A2994 RMK AO2 RAE04B22 SLP136 P0000 T01560133=
200610170552 METAR KATL 170552Z 10017G23KT 9SM -RA FEW008 SCT015 OVC060 15/13 A2997 RMK AO2 RAE16B49 SLP146 P0000 60011 T01500128 10150 20128 58021=
200610170452 METAR KATL 170452Z 11012G16KT 8SM -RA SCT007 BKN030 OVC070 14/13 A3001 RMK AO2 SLP162 P0002 T01440128 401500111=
200610170418 SPECI KATL 170418Z 11014G18KT 7SM -RA BKN008 OVC070 14/13 A3002 RMK AO2 P0002=
200610170418 SPECI KATL 170418Z 11014G18KT 7SM -RA BKN008 OVC070 14/13 A3002 RMK AO2 P0002=
200610170352 METAR KATL 170352Z 11010KT 8SM -RA SCT008 OVC070 14/13 A3005 RMK AO2 SLP172 P0001 T01440128=
200610170339 SPECI KATL 170339Z 11010KT 8SM -RA SCT008 OVC065 14/12 A3004 RMK AO2 P0001=
200610170339 SPECI KATL 170339Z 11010KT 8SM -RA SCT008 OVC065 14/12 A3004 RMK AO2 P0001=
200610170252 METAR KATL 170252Z 10012KT 10SM -RA FEW010 BKN070 OVC110 14/12 A3003 RMK AO2 SLP169 P0000 60008 T01390122 55009=
200610170152 METAR KATL 170152Z 08018KT 8SM -RA BKN050 BKN075 OVC110 13/12 A3003 RMK AO2 SLP170 P0004 T01330117=
200610170052 METAR KATL 170052Z 09014G18KT 8SM -RA SCT050 BKN080 OVC100 13/11 A3006 RMK AO2 SLP179 P0004 T01280111=
200610162352 METAR KATL 162352Z 08013G17KT 9SM -RA OVC070 13/11 A3006 RMK AO2 SLP180 P0001 60002 T01330106 10150 20133 53005=
200610162252 METAR KATL 162252Z 10010KT 10SM -RA BKN070 OVC100 14/10 A3006 RMK AO2 RAB07 SLP178 P0001 T01390100=
200610162152 METAR KATL 162152Z 10011KT 10SM BKN080 OVC140 15/08 A3004 RMK AO2 SLP172 T01500083=
200610162052 METAR KATL 162052Z 09013KT 10SM FEW035 SCT060 BKN095 OVC150 14/08 A3005 RMK AO2 RAB31E41 SLP175 P0000 60000 T01440083 56021=
200610161952 METAR KATL 161952Z 09011KT 10SM FEW040 SCT080 OVC150 15/08 A3006 RMK AO2 RAE00 SLP177 P0000 T01500083=
200610161852 METAR KATL 161852Z 08013KT 10SM -RA FEW035 BKN070 BKN090 OVC150 14/09 A3006 RMK AO2 RAB1753 SLP179 P0000 T01390089=
200610161752 METAR KATL 161752Z 10009KT 10SM FEW055 BKN070 OVC150 14/07 A3011 RMK AO2 RAE02 SLP196 P0000 60001 T01440072 10144 20122 58010=
200610161652 METAR KATL 161652Z 09010KT 10SM -RA FEW045 BKN065 OVC080 13/08 A3014 RMK AO2 RAB1555 SLP204 P0001 T01330078=
200610161552 METAR KATL 161552Z 13008KT 10SM FEW060 BKN070 OVC150 14/06 A3014 RMK AO2 SLP205 T01440056=
200610161452 METAR KATL 161452Z 12009KT 10SM FEW040 BKN075 OVC150 13/04 A3014 RMK AO2 RAE1358 SLP206 P0000 60000 T01330044 50002=
200610161352 METAR KATL 161352Z 12009KT 10SM -RA FEW060 BKN085 OVC140 12/04 A3015 RMK AO2 RAB17 SLP207 P0000 T01220039=
200610161252 METAR KATL 161252Z 11008KT 10SM FEW075 BKN095 OVC140 12/02 A3015 RMK AO2 SLP208 T01220022 $=
200610161152 METAR KATL 161152Z 13006KT 10SM FEW075 BKN100 BKN140 OVC200 12/01 A3014 RMK AO2 SLP203 T01220011 10128 20111 53007 $=
200610161052 METAR KATL 161052Z 11009KT 10SM FEW075 BKN100 OVC140 13/00 A3012 RMK AO2 SLP196 VIRGA SE-OHD-NW T01280000 $=
200610160952 METAR KATL 160952Z 09006KT 10SM FEW080 BKN130 OVC200 12/02 A3013 RMK AO2 SLP200 T01170017 $=
200610160910 METAR KATL 160910Z 09007KT 10SM FEW080 BKN130 OVC200 12/02 A3012=
200610160858 SPECI KATL 160858Z 09006KT 10SM FEW080 BKN130 OVC200 12/01 A3012 RMK AO2 $=
200610160858 METAR KATL 160858Z COR 09006KT 10SM FEW080 BKN130 OVC200 12/01 A3012 RMK AO2 SLP195 T01170017 $=
200610160752 METAR KATL 160752Z 09008KT 10SM BKN140 OVC200 11/01 A3011 RMK AO2 SLP192 T01110011=
200610160652 METAR KATL 160652Z 07007KT 10SM BKN140 OVC200 12/02 A3011 RMK AO2 SLP194 T01170017=
200610160552 METAR KATL 160552Z 08006KT 10SM BKN140 BKN200 OVC250 11/02 A3012 RMK AO2 SLP196 T01110017 10178 20111 58003=
200610160452 METAR KATL 160452Z 10006KT 10SM SCT150 BKN200 OVC250 13/01 A3012 RMK AO2 SLP196 T01280006 402110061=
200610160352 METAR KATL 160352Z 09005KT 10SM SCT150 BKN250 14/01 A3013 RMK AO2 SLP199 T01390011=
200610160252 METAR KATL 160252Z 07009KT 10SM SCT130 BKN250 13/02 A3013 RMK AO2 SLP199 T01330017 51005=
200610160152 METAR KATL 160152Z 08007KT 10SM FEW120 BKN250 14/01 A3012 RMK AO2 SLP198 T01440006=
200610160052 METAR KATL 160052Z 09007KT 10SM FEW120 BKN250 16/M02 A3012 RMK AO2 SLP200 T01611017=
200610152352 METAR KATL 152352Z 11005KT 10SM SCT250 18/M02 A3011 RMK AO2 SLP196 T01781022 10211 20178 53006=
200610152252 METAR KATL 152252Z 14005KT 10SM FEW200 BKN250 19/M04 A3010 RMK AO2 SLP190 T01891039=
200610152152 METAR KATL 152152Z 09005KT 10SM FEW200 SCT250 19/M03 A3009 RMK AO2 SLP189 T01891028=
200610152052 METAR KATL 152052Z 16004KT 10SM SCT150 SCT250 20/M03 A3009 RMK AO2 SLP188 T02001033 56016=
200610151952 METAR KATL 151952Z 00000KT 10SM SCT150 SCT250 21/M04 A3010 RMK AO2 SLP190 T02061039=
200610151852 METAR KATL 151852Z 03005KT 10SM FEW150 SCT250 20/M03 A3011 RMK AO2 SLP195 T02001033=
200610151752 METAR KATL 151752Z VRB03KT 10SM FEW150 SCT250 19/M04 A3014 RMK AO2 SLP204 T01941044 10194 20061 58011=
200610151652 METAR KATL 151652Z 35004KT 10SM FEW150 SCT250 19/M04 A3014 RMK AO2 SLP206 T01891039=
200610151552 METAR KATL 151552Z VRB06KT 10SM FEW250 17/M04 A3017 RMK AO2 SLP215 T01721044=
200610151452 METAR KATL 151452Z 05006KT 10SM FEW250 16/M04 A3017 RMK AO2 SLP216 T01611044 51014=
200610151352 METAR KATL 151352Z 34004KT 10SM FEW250 13/03 A3017 RMK AO2 SLP217 T01330028=
200610151252 METAR KATL 151252Z 32005KT 10SM FEW250 09/03 A3014 RMK AO2 SLP207 T00890028=
200610151152 METAR KATL 151152Z 35004KT 10SM FEW250 07/01 A3013 RMK AO2 SLP204 T00720011 10106 20067 51015=
200610151052 METAR KATL 151052Z 32004KT 10SM CLR 08/02 A3012 RMK AO2 SLP199 T00830022=
200610150952 METAR KATL 150952Z 00000KT 10SM CLR 08/03 A3011 RMK AO2 SLP193 T00780028=
200610150852 METAR KATL 150852Z 31006KT 10SM CLR 07/03 A3009 RMK AO2 SLP187 T00720028 50002=
200610150752 METAR KATL 150752Z 29004KT 10SM CLR 08/03 A3009 RMK AO2 SLP187 T00780028=
200610150652 METAR KATL 150652Z 28005KT 10SM CLR 09/03 A3009 RMK AO2 SLP189 T00940033=
200610150552 METAR KATL 150552Z 29005KT 10SM CLR 10/03 A3008 RMK AO2 SLP184 T01000033 10156 20100 58001=
200610150452 METAR KATL 150452Z 30006KT 10SM CLR 11/03 A3010 RMK AO2 SLP190 T01110033 402060056=
200610150352 METAR KATL 150352Z 29003KT 10SM CLR 12/03 A3010 RMK AO2 SLP190 T01170033=
200610150252 METAR KATL 150252Z 31005KT 10SM CLR 13/03 A3009 RMK AO2 SLP187 T01280028 51008=
200610150152 METAR KATL 150152Z 30005KT 10SM CLR 13/03 A3008 RMK AO2 SLP187 T01330028=
200610150052 METAR KATL 150052Z 29005KT 10SM CLR 15/03 A3008 RMK AO2 SLP187 T01500033=
200610142352 METAR KATL 142352Z 30006KT 10SM CLR 16/03 A3006 RMK AO2 SLP181 T01560033 10206 20156 53005=
200610142252 METAR KATL 142252Z 29007KT 10SM CLR 18/02 A3005 RMK AO2 SLP176 T01780022=
200610142152 METAR KATL 142152Z 30009KT 10SM CLR 19/03 A3005 RMK AO2 SLP175 T01940033=
200610142052 METAR KATL 142052Z 30012KT 10SM FEW065 21/03 A3005 RMK AO2 SLP174 T02060033 56015=
200610141952 METAR KATL 141952Z 30012G19KT 10SM FEW065 21/04 A3005 RMK AO2 SLP174 BLSA OVR RWY T02060044=
200610141852 METAR KATL 141852Z 31013G20KT 10SM FEW065 21/04 A3006 RMK AO2 SLP178 BLDU BLSA OVR RWYS T02060044=
200610141752 METAR KATL 141752Z 28013KT 10SM FEW065 20/04 A3009 RMK AO2 SLP189 BLDU OVR RWY T02000039 10200 20067 58010=
200610141652 METAR KATL 141652Z 27011G16KT 10SM CLR 18/03 A3011 RMK AO2 SLP197 T01830028=
200610141552 METAR KATL 141552Z 28009KT 10SM CLR 16/03 A3012 RMK AO2 SLP200 T01610028=
200610141452 METAR KATL 141452Z 28006KT 10SM CLR 14/01 A3012 RMK AO2 SLP201 T01390006 51017=
200610141352 METAR KATL 141352Z 29006KT 10SM CLR 12/00 A3011 RMK AO2 SLP196 T01170000=
200610141252 METAR KATL 141252Z 29004KT 10SM CLR 09/01 A3009 RMK AO2 SLP190 T00890006=
200610141152 METAR KATL 141152Z 00000KT 10SM CLR 07/M01 A3007 RMK AO2 SLP185 T00721011 10072 20056 51015=
200610141052 METAR KATL 141052Z 27005KT 10SM CLR 06/M01 A3006 RMK AO2 SLP182 T00611011=
200610140952 METAR KATL 140952Z 29005KT 10SM CLR 06/M01 A3004 RMK AO2 SLP174 T00611006=
200610140852 METAR KATL 140852Z 32007KT 10SM CLR 06/M01 A3003 RMK AO2 SLP169 T00611006 52006=
200610140752 METAR KATL 140752Z 32006KT 10SM CLR 07/M01 A3002 RMK AO2 SLP165 T00721011=
200610140652 METAR KATL 140652Z 32007KT 10SM CLR 07/00 A3002 RMK AO2 SLP167 T00670000=
200610140552 METAR KATL 140552Z 32006KT 10SM CLR 07/01 A3001 RMK AO2 SLP163 T00670006 10117 20067 58003=
200610140452 METAR KATL 140452Z 31007KT 10SM CLR 07/M01 A3002 RMK AO2 SLP166 T00721006 401670072=
200610140352 METAR KATL 140352Z 30007KT 10SM CLR 09/M02 A3003 RMK AO2 SLP168 T00891017=
200610140252 METAR KATL 140252Z 29006KT 10SM CLR 09/M02 A3002 RMK AO2 SLP165 T00891017 51011=
200610140152 METAR KATL 140152Z 29006KT 10SM CLR 10/M02 A3001 RMK AO2 SLP163 T01001022=
200610140052 METAR KATL 140052Z 28007KT 10SM CLR 10/M02 A3000 RMK AO2 SLP160 T01001017=
200610132352 METAR KATL 132352Z 28005KT 10SM CLR 12/M02 A2998 RMK AO2 SLP154 T01171017 10167 20111 53002=
200610132252 METAR KATL 132252Z 29006KT 10SM CLR 13/M03 A2997 RMK AO2 SLP150 T01331028=
200610132152 METAR KATL 132152Z 28011KT 10SM CLR 15/M04 A2997 RMK AO2 SLP147 T01501039=
200610132052 METAR KATL 132052Z 32011KT 10SM CLR 16/M04 A2998 RMK AO2 SLP150 T01561044 55009=
200610131952 METAR KATL 131952Z 31008KT 10SM CLR 16/M05 A2997 RMK AO2 SLP147 T01611050=
200610131852 METAR KATL 131852Z 29010KT 10SM FEW150 16/M04 A2998 RMK AO2 SLP151 T01611044=
200610131752 METAR KATL 131752Z 30011G16KT 10SM FEW150 15/M04 A3001 RMK AO2 SLP159 T01501044 10156 20094 58001=
200610131652 METAR KATL 131652Z 31011KT 10SM FEW050 14/M03 A3002 RMK AO2 SLP164 T01441033=
200610131552 METAR KATL 131552Z 33009KT 10SM FEW050 SCT150 13/M04 A3002 RMK AO2 SLP164 T01281044=
200610131452 METAR KATL 131452Z 33012KT 10SM FEW050 SCT150 12/M04 A3001 RMK AO2 SLP161 T01221044 51018=
200610131352 METAR KATL 131352Z 32012KT 10SM FEW050 SCT150 10/M01 A3000 RMK AO2 SLP158 T01001006=
200610131252 METAR KATL 131252Z 32008KT 10SM BKN048 BKN090 10/02 A2997 RMK AO2 SLP149 T01000017=
200610131152 METAR KATL 131152Z 32008KT 10SM BKN048 BKN090 BKN150 10/02 A2996 RMK AO2 SLP142 T01000017 10144 20100 51015=
200610131052 METAR KATL 131052Z 32009KT 10SM SCT095 10/02 A2994 RMK AO2 SLP138 T01000017=
200610130952 METAR KATL 130952Z 31008KT 10SM BKN090 11/02 A2993 RMK AO2 SLP132 T01110022=
200610130852 METAR KATL 130852Z 32008KT 10SM FEW060 SCT090 12/06 A2991 RMK AO2 SLP125 T01220056 51011=
200610130752 METAR KATL 130752Z 30006KT 10SM FEW060 BKN075 13/06 A2990 RMK AO2 SLP120 T01280061=
200610130652 METAR KATL 130652Z 29005KT 10SM BKN065 13/06 A2989 RMK AO2 SLP117 T01330061=
200610130552 METAR KATL 130552Z 29006KT 10SM OVC070 14/05 A2988 RMK AO2 SLP112 60000 T01440050 10167 20133 58006=
200610130452 METAR KATL 130452Z 23006KT 10SM BKN065 BKN080 14/06 A2988 RMK AO2 RAE01 SLP113 P0000 T01440056 402170122=
200610130352 METAR KATL 130352Z 30005KT 10SM -RA FEW070 BKN095 BKN130 14/06 A2990 RMK AO2 RAB52 SLP121 P0000 T01440061=
200610130252 METAR KATL 130252Z 31007KT 10SM FEW085 BKN120 14/06 A2989 RMK AO2 SLP120 T01440061 53003=
200610130152 METAR KATL 130152Z 29005KT 10SM FEW070 BKN095 14/07 A2989 RMK AO2 SLP120 T01440067=
200610130052 METAR KATL 130052Z COR 32008KT 10SM FEW075 16/06 A2988 RMK AO2 SLP117 T01560056=
200610122352 METAR KATL 122352Z 31010KT 10SM FEW150 16/06 A2989 RMK AO2 SLP118 T01610061 10217 20161 53009=
200610122252 METAR KATL 122252Z 32009KT 10SM FEW150 18/06 A2987 RMK AO2 SLP112 T01780061=
200610122152 METAR KATL 122152Z 32011KT 10SM SCT150 20/06 A2986 RMK AO2 SLP108 T02000056=
200610122052 METAR KATL 122052Z 32009KT 10SM FEW150 21/06 A2986 RMK AO2 SLP105 T02110056 56011=
200610121952 METAR KATL 121952Z 32014KT 10SM FEW060 SCT080 22/06 A2987 RMK AO2 SLP108 ACSL DSNT NW T02170061=
200610121852 METAR KATL 121852Z 31015KT 10SM FEW065 22/06 A2987 RMK AO2 SLP110 T02170061=
200610121752 METAR KATL 121752Z 32016G20KT 10SM FEW060 21/06 A2989 RMK AO2 SLP115 T02110061 10217 20122 58003=
200610121652 METAR KATL 121652Z 30011KT 10SM FEW240 21/06 A2990 RMK AO2 SLP119 T02060061=
200610121552 METAR KATL 121552Z 30012KT 10SM CLR 19/08 A2990 RMK AO2 SLP120 T01940078=
200610121452 METAR KATL 121452Z 32012KT 10SM FEW240 18/08 A2990 RMK AO2 SLP120 T01830083 51018=
200610121352 METAR KATL 121352Z 30010KT 10SM FEW240 16/09 A2989 RMK AO2 SLP117 T01610094=
200610121252 METAR KATL 121252Z 30009KT 10SM CLR 14/09 A2987 RMK AO2 SLP110 T01390089 $=
200610121152 METAR KATL 121152Z 30006KT 10SM CLR 12/09 A2985 RMK AO2 SLP104 70037 T01220094 10172 20122 53014 $=
200610121052 METAR KATL 121052Z 28005KT 10SM CLR 13/09 A2982 RMK AO2 SLP092 T01280094=
200610120952 METAR KATL 120952Z 30010KT 10SM CLR 14/11 A2982 RMK AO2 SLP090 T01390106 $=
200610120852 METAR KATL 120852Z 29012KT 10SM CLR 15/12 A2980 RMK AO2 SLP085 T01500117 53012 $=
200610120752 METAR KATL 120752Z 29011KT 10SM CLR 16/13 A2978 RMK AO2 SLP077 T01560133 $=
200610120652 METAR KATL 120652Z 27009KT 9SM CLR 17/14 A2977 RMK AO2 SLP073 T01670144 $=
200610120552 METAR KATL 120552Z 26007KT 8SM CLR 17/15 A2977 RMK AO2 SLP072 60000 T01720150 10194 20172 50004 $=
200610120452 METAR KATL 120452Z 26008KT 10SM CLR 18/16 A2978 RMK AO2 SLP075 T01780161 402670178=
200610120352 METAR KATL 120352Z 26007KT 10SM FEW045 18/16 A2977 RMK AO2 SLP074 T01780161=
200610120252 METAR KATL 120252Z 22005KT 10SM SCT040 BKN055 19/17 A2975 RMK AO2 SLP068 60000 T01890167 53002=
200610120152 METAR KATL 120152Z 21004KT 10SM SCT055 19/17 A2974 RMK AO2 SLP065 T01890172=
200610120052 METAR KATL 120052Z 00000KT 10SM FEW055 SCT120 SCT200 19/17 A2974 RMK AO2 TSE11RAE11 SLP062 TS MOV E P0000 T01940172=
200610120011 SPECI KATL 120011Z 31005KT 10SM FEW050 SCT065 BKN110 BKN200 19/17 A2974 RMK AO2 TSE11RAE11 TS MOV E P0000=
200610120011 SPECI KATL 120011Z 31005KT 10SM FEW050 SCT065 BKN110 BKN200 19/17 A2974 RMK AO2 TSE11RAE11 TS MOV E P0000=
200610112352 METAR KATL 112352Z 28008KT 8SM -TSRA FEW020 BKN050CB OVC090 19/17 A2975 RMK AO2 PK WND 29029/2336 TSB05RAB21 SLP067 OCNL LTGCGICCA TS NE-SE-S MOV E P0037 60037 T01890172 10267 20189 51013=
200610112346 SPECI KATL 112346Z 27007G28KT 3SM +TSRA BR FEW020 BKN050CB OVC090 19/17 A2974 RMK AO2 PK WND 29029/2336 TSB05RAB21 FRQ LTGCGICCA TS NE-OHD-SW MOV E VIS NE-SE-S 1 1/2 P0037=
200610112346 SPECI KATL 112346Z 27007G28KT 3SM +TSRA BR FEW020 BKN050CB OVC090 19/17 A2974 RMK AO2 PK WND 29029/2336 TSB05RAB21 FRQ LTGCGICCA TS NE-OHD-SW MOV E VIS NE-SE-S 1 1/2 P0037=
200610112339 SPECI KATL 112339Z 28020G29KT 1 1/2SM +TSRA FEW020 BKN050CB OVC090 20/17 A2975 RMK AO2 PK WND 29029/2336 TSB05RAB21 PRESRR FRQ LTGCGICCA TS NE-OHD-SW MOV E P0017=
200610112339 SPECI KATL 112339Z 28020G29KT 1 1/2SM +TSRA FEW020 BKN050CB OVC090 20/17 A2975 RMK AO2 PK WND 29029/2336 TSB05RAB21 PRESRR FRQ LTGCGICCA TS NE-OHD-SW MOV E P0017=
200610112305 SPECI KATL 112305Z 20009KT 10SM TS FEW055CB SCT120 BKN150 BKN200 24/14 A2970 RMK AO2 TSB05 OCNL LTGICCA TS VC W-NW MOV E=
200610112305 SPECI KATL 112305Z 20009KT 10SM TS FEW055CB SCT120 BKN150 BKN200 24/14 A2970 RMK AO2 TSB05 OCNL LTGICCA TS VC W-NW MOV E=
200610112252 METAR KATL 112252Z 20009KT 10SM SCT120 SCT150 BKN200 BKN250 25/14 A2971 RMK AO2 SLP052 CB DSNT W AND NW T02500139=
200610112152 METAR KATL 112152Z 20012KT 10SM FEW055 SCT220 26/13 A2971 RMK AO2 SLP051 T02610133=
200610112052 METAR KATL 112052Z 22013KT 10SM FEW050 SCT060 SCT120 SCT220 26/13 A2973 RMK AO2 SLP059 T02610133 56019=
200610111952 METAR KATL 111952Z 20016G21KT 10SM FEW050 SCT090 SCT120 BKN150 BKN220 26/13 A2975 RMK AO2 SLP065 ACC DSNT NE-E T02610133=
200610111852 METAR KATL 111852Z 22010KT 10SM SCT050 SCT060 SCT120 BKN150 26/13 A2976 RMK AO2 SLP069 T02610128=
200610111752 METAR KATL 111752Z 23013G19KT 10SM FEW050 SCT110 SCT150 26/14 A2979 RMK AO2 SLP077 T02610139 10261 20183 58025=
200610111652 METAR KATL 111652Z 24013KT 10SM FEW045 SCT110 SCT150 24/14 A2982 RMK AO2 SLP088 T02440144=
200610111552 METAR KATL 111552Z 21011KT 10SM FEW045 BKN110 BKN150 23/14 A2984 RMK AO2 SLP098 T02330144=
200610111452 METAR KATL 111452Z 23007KT 10SM FEW050 SCT100 BKN150 22/15 A2986 RMK AO2 SLP104 T02220150 51006=
200610111352 METAR KATL 111352Z 21008KT 8SM FEW080 BKN110 BKN150 20/14 A2986 RMK AO2 SLP104 ACC DSNT NW T02000144=
200610111252 METAR KATL 111252Z 22006KT 10SM BKN140 OVC200 19/14 A2986 RMK AO2 SLP102 T01890144=
200610111152 METAR KATL 111152Z 19003KT 10SM FEW080 SCT120 BKN200 BKN250 18/14 A2985 RMK AO2 SLP099 T01830139 10200 20183 58005=
200610111052 METAR KATL 111052Z 16003KT 10SM FEW050 SCT085 BKN120 OVC200 19/14 A2985 RMK AO2 PRESFR SLP099 VIRGA NE-OHD-SW T01890139=
200610110952 METAR KATL 110952Z 00000KT 10SM FEW055 OVC080 19/14 A2987 RMK AO2 SLP105 T01940139=
200610110852 METAR KATL 110852Z 00000KT 10SM SCT060 BKN120 OVC200 19/14 A2986 RMK AO2 SLP103 T01890144 56011=
200610110752 METAR KATL 110752Z 00000KT 10SM FEW050 BKN120 OVC200 19/14 A2987 RMK AO2 SLP107 T01940139=
200610110652 METAR KATL 110652Z 20003KT 10SM SCT050 BKN150 OVC200 20/14 A2988 RMK AO2 SLP108 T02000139=
200610110552 METAR KATL 110552Z 18003KT 10SM SCT050 BKN150 BKN250 20/14 A2990 RMK AO2 SLP115 T02000144 10250 20200 58011=
200610110452 METAR KATL 110452Z 00000KT 10SM BKN050 BKN150 OVC250 21/14 A2991 RMK AO2 SLP120 T02060144 402670144=
200610110352 METAR KATL 110352Z 13005KT 10SM SCT050 BKN150 OVC250 20/15 A2992 RMK AO2 SLP123 T02000150=
200610110252 METAR KATL 110252Z 19003KT 10SM BKN050 BKN150 OVC250 22/14 A2993 RMK AO2 SLP127 T02170144 58002=
200610110152 METAR KATL 110152Z 00000KT 10SM FEW050 BKN140 BKN250 22/14 A2994 RMK AO2 SLP130 T02220144=
200610110052 METAR KATL 110052Z 00000KT 10SM FEW050 BKN250 23/15 A2994 RMK AO2 SLP131 T02280150=
200610102352 METAR KATL 102352Z COR 00000KT 10SM SCT050 BKN200 25/13 A2994 RMK AO2 SLP131 T02500133 10267 20239 58004=
200610102252 METAR KATL 102252Z 03004KT 10SM FEW050 SCT065 BKN200 BKN250 25/13 A2994 RMK AO2 SLP131 MDT CU OHD-SW T02500133=
200610102152 METAR KATL 102152Z 00000KT 10SM FEW048 SCT060 BKN200 BKN250 26/13 A2995 RMK AO2 SLP134 MDT CU OHD-SW-W T02610128=
200610102052 METAR KATL 102052Z 35007KT 10SM FEW048 SCT065 SCT200 BKN280 26/13 A2995 RMK AO2 SLP134 T02560133 56020=
200610101952 METAR KATL 101952Z 32006KT 10SM SCT050 BKN065 BKN200 BKN280 25/13 A2995 RMK AO2 SLP135 T02500133=
200610101852 METAR KATL 101852Z 30006KT 10SM SCT045 SCT200 BKN280 26/14 A2997 RMK AO2 SLP142 T02610139=
200610101752 METAR KATL 101752Z 36008KT 10SM FEW045 SCT200 BKN280 25/14 A3001 RMK AO2 SLP155 T02500139 10261 20150 58021=
200610101652 METAR KATL 101652Z 00000KT 10SM FEW040 SCT200 BKN280 24/14 A3004 RMK AO2 SLP164 T02440144=
200610101552 METAR KATL 101552Z 00000KT 10SM FEW040 SCT200 SCT280 24/14 A3006 RMK AO2 SLP170 T02390139=
200610101452 METAR KATL 101452Z 00000KT 10SM FEW250 23/14 A3007 RMK AO2 SLP176 T02280139 50003=
200610101352 METAR KATL 101352Z 30005KT 10SM FEW250 20/14 A3008 RMK AO2 SLP181 T02000139=
200610101252 METAR KATL 101252Z 00000KT 9SM FEW250 18/13 A3007 RMK AO2 SLP177 T01780128=
200610101152 METAR KATL 101152Z 00000KT 10SM FEW250 15/12 A3006 RMK AO2 SLP175 T01500117 10183 20144 50000=
200610101052 METAR KATL 101052Z 31005KT 10SM FEW250 15/12 A3007 RMK AO2 SLP175 T01500117=
200610100952 METAR KATL 100952Z 00000KT 10SM FEW012 16/12 A3007 RMK AO2 SLP174 T01610122=
200610100852 METAR KATL 100852Z 00000KT 10SM FEW012 17/12 A3006 RMK AO2 SLP173 T01670117 56008=
200610100752 METAR KATL 100752Z 00000KT 10SM CLR 18/11 A3007 RMK AO2 SLP174 T01830111=
200610100652 METAR KATL 100652Z 05004KT 10SM FEW055 18/11 A3007 RMK AO2 SLP175 T01830106=
200610100552 METAR KATL 100552Z 07005KT 10SM FEW055 18/10 A3009 RMK AO2 SLP181 T01830100 10228 20167 53000=
200610100452 METAR KATL 100452Z 26003KT 10SM FEW055 18/11 A3009 RMK AO2 SLP182 T01830106 402610167=
200610100352 METAR KATL 100352Z 00000KT 10SM FEW055 21/09 A3008 RMK AO2 SLP179 T02060094=
200610100252 METAR KATL 100252Z 00000KT 10SM FEW055 21/09 A3009 RMK AO2 SLP182 T02060089 51008=
200610100152 METAR KATL 100152Z 10005KT 10SM SCT055 SCT250 21/09 A3008 RMK AO2 SLP180 T02110089=
200610100052 METAR KATL 100052Z 09005KT 10SM FEW050 SCT250 22/07 A3008 RMK AO2 SLP178 T02220067=
200610092352 METAR KATL 092352Z 06006KT 10SM FEW250 23/06 A3006 RMK AO2 SLP173 T02280056 10261 20228 53002=
200610092252 METAR KATL 092252Z 06007KT 10SM FEW060 23/07 A3005 RMK AO2 SLP171 T02330067=
200610092152 METAR KATL 092152Z 02010KT 9SM FEW250 26/07 A3005 RMK AO2 SLP169 T02560067=
200610092052 METAR KATL 092052Z 06012KT 10SM FEW060 SCT250 26/10 A3005 RMK AO2 SLP170 T02560100 56022=
200610091952 METAR KATL 091952Z 02008KT 10SM CLR 26/11 A3007 RMK AO2 SLP175 T02560111=
200610091852 METAR KATL 091852Z 04008KT 360V070 10SM FEW040 25/13 A3009 RMK AO2 SLP182 T02500128=
200610091752 METAR KATL 091752Z 36011G16KT 10SM FEW035 SCT120 24/14 A3012 RMK AO2 SLP194 T02440139 10244 20172 58016=
200610091652 METAR KATL 091652Z 04011KT 10SM SCT030 23/14 A3015 RMK AO2 SLP204 T02280139=
200610091552 METAR KATL 091552Z VRB05KT 10SM SCT026 22/14 A3017 RMK AO2 SLP209 T02220144=
200610091452 METAR KATL 091452Z 04008KT 10SM SCT018 19/14 A3017 RMK AO2 SLP211 T01940139 51007=
200610091352 METAR KATL 091352Z 06012G17KT 10SM OVC016 18/13 A3017 RMK AO2 SLP212 BINOVC T01780133=
200610091252 METAR KATL 091252Z 07009G18KT 10SM BKN012 OVC045 18/14 A3017 RMK AO2 SLP211 BINOVC T01780139=
200610091152 METAR KATL 091152Z 05010KT 10SM OVC012 17/14 A3015 RMK AO2 SLP204 T01720139 10172 20167 53012=
200610091052 METAR KATL 091052Z 04009KT 10SM OVC014 17/13 A3013 RMK AO2 SLP197 T01720133=
200610090952 METAR KATL 090952Z 04010KT 10SM OVC014 17/14 A3012 RMK AO2 SLP192 T01720139=
200610090859 SPECI KATL 090859Z 05009KT 10SM FEW009 OVC014 17/14 A3011 RMK AO2=
200610090859 SPECI KATL 090859Z 05009KT 10SM FEW009 OVC014 17/14 A3011 RMK AO2=
200610090852 METAR KATL 090852Z 04009KT 10SM SCT010 OVC016 17/14 A3011 RMK AO2 SLP190 T01720139 56007=
200610090752 METAR KATL 090752Z 05011KT 10SM OVC010 17/13 A3012 RMK AO2 CIG 009V015 SLP194 T01670133=
200610090652 METAR KATL 090652Z 07010KT 10SM OVC012 17/13 A3013 RMK AO2 SLP196 T01670133=
200610090627 SPECI KATL 090627Z 04010KT 10SM BKN012 BKN020 BKN055 17/13 A3013 RMK AO2=
200610090627 SPECI KATL 090627Z 04010KT 10SM BKN012 BKN020 BKN055 17/13 A3013 RMK AO2=
200610090552 METAR KATL 090552Z 06012KT 10SM BKN017 BKN055 17/13 A3013 RMK AO2 SLP199 T01670128 10189 20167 58006=
200610090521 SPECI KATL 090521Z 06012KT 10SM BKN015 BKN055 OVC200 17/13 A3014 RMK AO2=
200610090521 SPECI KATL 090521Z 06012KT 10SM BKN015 BKN055 OVC200 17/13 A3014 RMK AO2=
200610090452 METAR KATL 090452Z 05009KT 10SM OVC014 17/13 A3014 RMK AO2 SLP202 BINOVC T01720133 402220139=
200610090352 METAR KATL 090352Z 07012KT 10SM OVC015 18/13 A3015 RMK AO2 SLP204 T01780133=
200610090252 METAR KATL 090252Z 07014KT 10SM OVC015 18/13 A3015 RMK AO2 SLP205 T01780133 52011=
200610090152 METAR KATL 090152Z 05014KT 10SM OVC020 18/14 A3014 RMK AO2 SLP204 BINOVC T01780139=
200610090109 SPECI KATL 090109Z 05014KT 10SM BKN015 18/14 A3013 RMK AO2 BKN V SCT=
200610090109 SPECI KATL 090109Z 05014KT 10SM BKN015 18/14 A3013 RMK AO2 BKN V SCT=
200610090052 METAR KATL 090052Z 05014KT 10SM BKN014 18/14 A3013 RMK AO2 SLP197 T01830139=
200610090042 SPECI KATL 090042Z 05016KT 10SM BKN015 18/14 A3013 RMK AO2=
200610090042 SPECI KATL 090042Z 05016KT 10SM BKN015 18/14 A3013 RMK AO2=
200610090020 SPECI KATL 090020Z 05016KT 10SM SCT021 SCT090 18/14 A3012 RMK AO2=
200610090020 SPECI KATL 090020Z 05016KT 10SM SCT021 SCT090 18/14 A3012 RMK AO2=
200610090009 SPECI KATL 090009Z 05015KT 10SM BKN021 BKN090 19/14 A3012 RMK AO2=
200610090009 SPECI KATL 090009Z 05015KT 10SM BKN021 BKN090 19/14 A3012 RMK AO2=
200610082352 METAR KATL 082352Z 04013KT 10SM FEW028 BKN090 19/13 A3012 RMK AO2 SLP196 T01890133 10222 20189 53003=
200610082252 METAR KATL 082252Z 04011KT 10SM FEW033 20/13 A3011 RMK AO2 SLP191 T02000128=
200610082152 METAR KATL 082152Z 06011KT 10SM SCT035 SCT060 21/12 A3011 RMK AO2 SLP192 T02110122=
200610082052 METAR KATL 082052Z 04014KT 10SM SCT037 BKN048 BKN060 BKN150 21/12 A3011 RMK AO2 SLP191 T02110117 56015=
200610081952 METAR KATL 081952Z 04013G17KT 10SM SCT041 BKN050 BKN060 BKN150 21/11 A3011 RMK AO2 SLP191 T02110111=
200610081852 METAR KATL 081852Z 05013KT 10SM BKN037 BKN045 BKN055 21/11 A3012 RMK AO2 SLP196 T02110106=
200610081752 METAR KATL 081752Z 05013G21KT 10SM SCT030 BKN050 BKN150 21/11 A3015 RMK AO2 SLP206 MDT CU ALQDS T02060111 10211 20139 58003=
200610081652 METAR KATL 081652Z 03016G20KT 10SM SCT031 BKN043 BKN055 19/11 A3018 RMK AO2 SLP214 T01940111=
200610081552 METAR KATL 081552Z 36011KT 10SM OVC035 18/10 A3018 RMK AO2 SLP215 T01830100=
200610081452 METAR KATL 081452Z 02012KT 10SM SCT035 BKN050 BKN150 19/10 A3016 RMK AO2 SLP210 T01940100 51002=
200610081352 METAR KATL 081352Z 02011KT 10SM SCT050 SCT250 18/09 A3016 RMK AO2 SLP207 T01780089=
200610081252 METAR KATL 081252Z 02010KT 10SM BKN055 BKN250 16/09 A3016 RMK AO2 SLP211 T01610094=
200610081152 METAR KATL 081152Z 01008KT 10SM FEW055 SCT250 14/10 A3016 RMK AO2 SLP209 T01390100 10156 20139 51003=
200610081052 METAR KATL 081052Z 03006KT 10SM BKN055 14/10 A3016 RMK AO2 SLP208 T01390100=
200610080952 METAR KATL 080952Z 06005KT 10SM BKN055 14/10 A3015 RMK AO2 SLP207 T01440100=
200610080852 METAR KATL 080852Z 09008KT 10SM FEW045 OVC055 14/09 A3015 RMK AO2 SLP205 BINOVC T01390094 51002=
200610080752 METAR KATL 080752Z 08006KT 10SM BKN060 15/09 A3014 RMK AO2 SLP203 T01500094=
200610080652 METAR KATL 080652Z 08008KT 10SM BKN050 15/09 A3015 RMK AO2 SLP203 T01500094=
200610080552 METAR KATL 080552Z 11006KT 10SM SCT050 BKN200 16/09 A3014 RMK AO2 SLP203 T01560094 10200 20156 50004=
200610080452 METAR KATL 080452Z 11006KT 10SM OVC050 16/09 A3015 RMK AO2 SLP204 T01610094 402220106=
200610080352 METAR KATL 080352Z 11005KT 10SM SCT050 16/09 A3014 RMK AO2 SLP204 T01610089=
200610080252 METAR KATL 080252Z 09005KT 10SM CLR 16/09 A3013 RMK AO2 SLP200 T01610089 53009=
200610080152 METAR KATL 080152Z 03007KT 10SM CLR 18/10 A3012 RMK AO2 SLP196 T01830100=
200610080052 METAR KATL 080052Z 34004KT 10SM CLR 19/09 A3010 RMK AO2 SLP191 T01890089=
200610072352 METAR KATL 072352Z 33006KT 10SM FEW060 19/09 A3010 RMK AO2 SLP192 T01940089 10222 20194 50003=
200610072252 METAR KATL 072252Z 35005KT 10SM FEW060 21/08 A3011 RMK AO2 SLP193 T02060083=
200610072152 METAR KATL 072152Z 31008KT 10SM FEW060 21/08 A3009 RMK AO2 SLP186 T02110078=
200610072052 METAR KATL 072052Z VRB05KT 10SM FEW055 SCT150 22/08 A3009 RMK AO2 SLP186 T02170078 55015=
200610071952 METAR KATL 071952Z 31009KT 10SM FEW050 SCT150 21/08 A3009 RMK AO2 SLP186 T02110078=
200610071852 METAR KATL 071852Z 35007KT 10SM FEW050 SCT150 21/08 A3012 RMK AO2 SLP195 T02110083=
200610071752 METAR KATL 071752Z 35006KT 10SM FEW050 SCT150 20/08 A3014 RMK AO2 SLP201 T02000078 10206 20106 58019=
200610071652 METAR KATL 071652Z 33006KT 10SM FEW040 SCT150 19/08 A3016 RMK AO2 SLP210 T01890078=
200610071552 METAR KATL 071552Z VRB04KT 10SM FEW035 SCT150 18/09 A3020 RMK AO2 SLP222 T01780089=
200610071452 METAR KATL 071452Z 05010KT 10SM FEW030 16/08 A3020 RMK AO2 SLP222 T01610083 53004=
200610071352 METAR KATL 071352Z 07008KT 10SM FEW025 14/08 A3018 RMK AO2 SLP218 T01440078=
200610071252 METAR KATL 071252Z 07007KT 10SM CLR 13/08 A3019 RMK AO2 SLP221 T01280083=
200610071152 METAR KATL 071152Z 08007KT 10SM CLR 11/08 A3018 RMK AO2 SLP219 T01110078 10156 20111 51015=
200610071052 METAR KATL 071052Z 07007KT 10SM CLR 12/08 A3017 RMK AO2 SLP213 T01220083=
200610070952 METAR KATL 070952Z 06007KT 10SM CLR 12/08 A3015 RMK AO2 SLP207 T01220083=
200610070852 METAR KATL 070852Z 08006KT 10SM CLR 12/08 A3014 RMK AO2 SLP200 T01220083 58002=
200610070752 METAR KATL 070752Z 09008KT 10SM CLR 13/09 A3015 RMK AO2 SLP204 T01330089=
200610070652 METAR KATL 070652Z 08010KT 10SM CLR 14/09 A3016 RMK AO2 SLP206 T01440089=
200610070552 METAR KATL 070552Z 07012KT 10SM CLR 16/09 A3014 RMK AO2 SLP202 T01560089 10194 20156 51005=
200610070452 METAR KATL 070452Z 05013KT 10SM FEW030 17/08 A3014 RMK AO2 SLP202 T01670083 402440167=
200610070352 METAR KATL 070352Z 03013KT 10SM FEW055 17/08 A3015 RMK AO2 SLP203 T01720083=
200610070252 METAR KATL 070252Z 01012G17KT 10SM CLR 17/08 A3013 RMK AO2 SLP197 T01720083 52014=
200610070152 METAR KATL 070152Z 36012KT 10SM FEW055 18/08 A3012 RMK AO2 SLP193 T01780083=
200610070052 METAR KATL 070052Z 33008KT 10SM BKN055 18/08 A3010 RMK AO2 SLP187 T01830083=
200610062352 METAR KATL 062352Z 33011KT 10SM CLR 19/08 A3009 RMK AO2 SLP182 T01940083 10244 20194 53011=
200610062252 METAR KATL 062252Z 33010KT 10SM FEW050 21/09 A3007 RMK AO2 SLP178 T02110089=
200610062152 METAR KATL 062152Z 32012KT 10SM CLR 23/10 A3007 RMK AO2 SLP174 T02280100=
200610062052 METAR KATL 062052Z 35013KT 10SM FEW040 24/12 A3006 RMK AO2 SLP169 T02390122 55010=
200610061952 METAR KATL 061952Z 32012KT 10SM FEW040 24/14 A3005 RMK AO2 SLP168 T02390139=
200610061852 METAR KATL 061852Z 31011KT 10SM FEW035 24/14 A3007 RMK AO2 SLP173 T02390144=
200610061752 METAR KATL 061752Z 31010KT 10SM FEW030 23/14 A3009 RMK AO2 SLP180 T02330144 10239 20189 58009=
200610061652 METAR KATL 061652Z 32014KT 10SM SCT020 22/15 A3011 RMK AO2 SLP188 T02220150=
200610061555 SPECI KATL 061555Z 34012KT 10SM SCT016 SCT050 21/16 A3011 RMK AO2=
200610061555 SPECI KATL 061555Z 34012KT 10SM SCT016 SCT050 21/16 A3011 RMK AO2=
200610061552 METAR KATL 061552Z 34009KT 10SM BKN016 22/16 A3011 RMK AO2 SLP190 BKN016 V SCT T02170156=
200610061452 METAR KATL 061452Z 31011KT 10SM BKN018 BKN039 BKN050 21/16 A3011 RMK AO2 SLP190 T02110156 51009=
200610061413 SPECI KATL 061413Z 34012KT 10SM BKN014 BKN050 21/16 A3011 RMK AO2=
200610061413 SPECI KATL 061413Z 34012KT 10SM BKN014 BKN050 21/16 A3011 RMK AO2=
200610061352 METAR KATL 061352Z 33012KT 10SM SCT012 BKN050 20/16 A3010 RMK AO2 SLP187 T02000161=
200610061252 METAR KATL 061252Z 34010KT 7SM BKN010 BKN050 20/17 A3009 RMK AO2 SLP180 T02000172=
200610061245 SPECI KATL 061245Z 32014KT 7SM BKN010 BKN050 20/17 A3008 RMK AO2=
200610061245 SPECI KATL 061245Z 32014KT 7SM BKN010 BKN050 20/17 A3008 RMK AO2=
200610061152 METAR KATL 061152Z 31009KT 6SM BR FEW012 SCT048 19/17 A3006 RMK AO2 SLP172 T01890167 10211 20189 53004=
200610061052 METAR KATL 061052Z 32009KT 6SM BR CLR 19/17 A3006 RMK AO2 SLP170 T01940172=
200610060952 METAR KATL 060952Z 32007KT 7SM FEW045 SCT100 20/17 A3005 RMK AO2 SLP167 T02000172=
200610060852 METAR KATL 060852Z 32009KT 8SM FEW045 BKN100 21/17 A3005 RMK AO2 SLP165 T02060172 58002=
200610060752 METAR KATL 060752Z 32014KT 8SM SCT110 SCT250 21/17 A3005 RMK AO2 SLP166 T02110172=
200610060652 METAR KATL 060652Z 32006KT 8SM BKN120 BKN250 21/17 A3005 RMK AO2 SLP167 T02110172=
200610060552 METAR KATL 060552Z 31007KT 8SM FEW150 SCT250 21/17 A3006 RMK AO2 SLP168 T02110167 10250 20211 56006=
200610060452 METAR KATL 060452Z 31007KT 10SM FEW150 SCT250 21/17 A3006 RMK AO2 SLP168 T02110167 403000178=
200610060352 METAR KATL 060352Z 27005KT 10SM FEW150 SCT250 23/16 A3007 RMK AO2 SLP173 T02280161=
200610060252 METAR KATL 060252Z 25003KT 10SM FEW200 SCT250 23/16 A3008 RMK AO2 SLP175 T02330161 51007=
200610060152 METAR KATL 060152Z 27006KT 10SM SCT200 BKN250 23/16 A3008 RMK AO2 SLP175 T02330161=
200610060052 METAR KATL 060052Z 28006KT 10SM FEW250 24/16 A3007 RMK AO2 SLP173 T02440156=
200610052352 METAR KATL 052352Z 26005KT 10SM FEW050 25/16 A3005 RMK AO2 SLP169 T02500156 10300 20250 55003=
200610052252 METAR KATL 052252Z 27006KT 10SM FEW055 SCT250 27/15 A3005 RMK AO2 SLP166 T02720150=
200610052152 METAR KATL 052152Z VRB03KT 10SM FEW060 SCT250 29/14 A3005 RMK AO2 SLP166 T02890144=
200610052052 METAR KATL 052052Z 00000KT 9SM FEW060 SCT250 29/14 A3006 RMK AO2 SLP171 T02940144 56017=
200610051952 METAR KATL 051952Z VRB05KT 9SM FEW060 SCT200 29/15 A3007 RMK AO2 SLP174 T02940150=
200610051852 METAR KATL 051852Z VRB05KT 10SM FEW060 SCT200 30/15 A3009 RMK AO2 SLP180 T03000150=
200610051752 METAR KATL 051752Z 35008KT 9SM FEW050 29/17 A3011 RMK AO2 SLP188 T02890167 10289 20183 58018=
200610051652 METAR KATL 051652Z 33005KT 10SM FEW200 28/16 A3014 RMK AO2 SLP196 T02830161=
200610051552 METAR KATL 051552Z 30005KT 9SM CLR 27/17 A3016 RMK AO2 SLP203 T02720167=
200610051452 METAR KATL 051452Z 31007KT 10SM CLR 26/17 A3017 RMK AO2 SLP207 T02560167 50006=
200610051352 METAR KATL 051352Z 32005KT 9SM CLR 23/16 A3017 RMK AO2 SLP208 T02280161=
200610051252 METAR KATL 051252Z 31007KT 7SM CLR 20/16 A3016 RMK AO2 SLP206 T02000161=
200610051152 METAR KATL 051152Z 30003KT 7SM CLR 18/16 A3015 RMK AO2 SLP201 T01830156 10211 20178 52007=
200610051052 METAR KATL 051052Z 31006KT 6SM HZ CLR 18/15 A3014 RMK AO2 SLP200 T01780150=
200610050952 METAR KATL 050952Z 30006KT 6SM HZ CLR 18/16 A3013 RMK AO2 SLP195 T01830156=
200610050852 METAR KATL 050852Z 31006KT 7SM CLR 18/16 A3013 RMK AO2 SLP193 T01830156 58006=
200610050752 METAR KATL 050752Z 30005KT 8SM CLR 19/16 A3014 RMK AO2 SLP196 T01940156=
200610050652 METAR KATL 050652Z 00000KT 7SM CLR 21/15 A3015 RMK AO2 SLP200 T02060150=
200610050552 METAR KATL 050552Z 00000KT 8SM CLR 21/15 A3015 RMK AO2 SLP199 T02110150 10256 20206 58009=
200610050452 METAR KATL 050452Z 00000KT 10SM CLR 21/15 A3016 RMK AO2 SLP204 T02110150 402890183=
200610050352 METAR KATL 050352Z 22003KT 10SM CLR 22/15 A3017 RMK AO2 SLP207 T02220150=
200610050252 METAR KATL 050252Z 23004KT 10SM CLR 23/14 A3017 RMK AO2 SLP209 T02280144 51004=
200610050152 METAR KATL 050152Z 23003KT 10SM CLR 23/15 A3017 RMK AO2 SLP210 T02280150=
200610050052 METAR KATL 050052Z 00000KT 10SM FEW060 25/15 A3017 RMK AO2 SLP209 T02500150=
200610042352 METAR KATL 042352Z 27004KT 10SM SCT060 26/14 A3016 RMK AO2 SLP206 T02610144 10289 20256 53002=
200610042252 METAR KATL 042252Z 27003KT 9SM FEW055 27/14 A3016 RMK AO2 SLP203 T02720139=
200610042152 METAR KATL 042152Z 32004KT 10SM FEW055 28/14 A3015 RMK AO2 SLP201 T02780139=
200610042052 METAR KATL 042052Z VRB05KT 10SM FEW055 28/13 A3016 RMK AO2 SLP202 T02780133 56017=
200610041952 METAR KATL 041952Z 32006KT 10SM FEW055 28/13 A3017 RMK AO2 SLP208 T02830128=
200610041852 METAR KATL 041852Z VRB05KT 10SM FEW055 28/14 A3019 RMK AO2 SLP213 T02780139=
200610041752 METAR KATL 041752Z 31005KT 10SM SCT050 27/15 A3021 RMK AO2 SLP220 T02720150 10272 20189 58015=
200610041652 METAR KATL 041652Z 21008KT 10SM FEW040 27/16 A3022 RMK AO2 SLP226 T02670156=
200610041552 METAR KATL 041552Z VRB05KT 9SM FEW055 25/16 A3024 RMK AO2 SLP231 T02500161=
200610041452 METAR KATL 041452Z 23005KT 10SM FEW055 24/17 A3025 RMK AO2 SLP235 T02390172 51005=
200610041352 METAR KATL 041352Z 23009KT 9SM FEW055 22/16 A3025 RMK AO2 SLP236 T02170161=
200610041252 METAR KATL 041252Z 00000KT 6SM HZ CLR 20/16 A3025 RMK AO2 SLP234 T02000156=
200610041152 METAR KATL 041152Z 24003KT 7SM FEW050 19/14 A3023 RMK AO2 SLP231 T01890144 10217 20183 53011=
200610041052 METAR KATL 041052Z 00000KT 7SM FEW050 19/14 A3022 RMK AO2 SLP226 T01890144=
200610040952 METAR KATL 040952Z 00000KT 8SM SCT050 19/15 A3021 RMK AO2 SLP220 T01940150=
200610040852 METAR KATL 040852Z 14003KT 7SM BKN055 20/16 A3020 RMK AO2 SLP218 T02000161 56006=
200610040752 METAR KATL 040752Z 12003KT 7SM SCT055 20/16 A3020 RMK AO2 SLP218 T02000161=
200610040652 METAR KATL 040652Z 07004KT 7SM SCT055 21/16 A3022 RMK AO2 SLP224 T02060161=
200610040552 METAR KATL 040552Z 00000KT 8SM BKN050 22/17 A3022 RMK AO2 SLP225 T02170167 10256 20211 58005=
200610040452 METAR KATL 040452Z 08003KT 10SM BKN055 22/17 A3023 RMK AO2 SLP228 T02170167 402780172=
200610040352 METAR KATL 040352Z 00000KT 10SM FEW250 22/16 A3024 RMK AO2 SLP230 T02220161=
200610040252 METAR KATL 040252Z 11003KT 10SM FEW250 23/16 A3024 RMK AO2 SLP231 T02280161 51009=
200610040152 METAR KATL 040152Z 11003KT 10SM FEW250 23/17 A3023 RMK AO2 SLP229 T02330167=
200610040052 METAR KATL 040052Z 11003KT 10SM FEW250 24/17 A3022 RMK AO2 SLP228 T02390167=
200610032352 METAR KATL 032352Z 12004KT 10SM FEW200 SCT250 26/17 A3021 RMK AO2 SLP222 T02560167 10278 20256 53003=
200610032252 METAR KATL 032252Z 15006KT 10SM FEW045 SCT200 SCT250 26/16 A3020 RMK AO2 SLP219 T02610161=
200610032152 METAR KATL 032152Z COR VRB06KT 10SM FEW045 SCT200 BKN250 27/16 A3020 RMK AO2 SLP218 T02720161=
200610032052 METAR KATL 032052Z 17006KT 10SM FEW045 BKN200 BKN250 27/17 A3020 RMK AO2 SLP219 TCU DSNT SW T02720167 56017=
200610031952 METAR KATL 031952Z 15006KT 8SM SCT045 BKN200 BKN250 27/16 A3021 RMK AO2 SLP220 T02720161=
200610031852 METAR KATL 031852Z 23004KT 9SM SCT045 SCT250 27/16 A3022 RMK AO2 SLP227 MDT CU ALQDS T02670156=
200610031752 METAR KATL 031752Z 16007KT 8SM SCT038 SCT250 27/17 A3025 RMK AO2 SLP236 T02670167 10267 20183 58016=
200610031652 METAR KATL 031652Z VRB06KT 9SM FEW035 SCT045 SCT250 26/16 A3028 RMK AO2 SLP244 T02560161=
200610031552 METAR KATL 031552Z 18005KT 9SM FEW045 SCT250 25/16 A3029 RMK AO2 SLP248 T02500161=
200610031452 METAR KATL 031452Z 00000KT 8SM FEW035 SCT045 23/16 A3030 RMK AO2 SLP252 T02280161 51008=
200610031352 METAR KATL 031352Z 10007KT 8SM SCT036 21/16 A3029 RMK AO2 SLP251 T02110161=
200610031252 METAR KATL 031252Z 09006KT 8SM FEW034 SCT060 SCT250 19/15 A3028 RMK AO2 SLP247 T01890150=
200610031152 METAR KATL 031152Z 09006KT 8SM BKN034 BKN060 BKN250 18/15 A3027 RMK AO2 SLP244 MDT CU OHD-ALQDS T01830150 10194 20172 51012=
200610031052 METAR KATL 031052Z 09006KT 9SM FEW036 BKN060 BKN250 18/14 A3026 RMK AO2 SLP241 T01780144=
200610030952 METAR KATL 030952Z COR 07007KT 8SM SCT060 SCT250 18/15 A3026 RMK AO2 SLP238 T01780150=
200610030852 METAR KATL 030852Z 09006KT 9SM FEW200 SCT250 18/14 A3024 RMK AO2 SLP231 T01780144 53005=
200610030752 METAR KATL 030752Z 11006KT 10SM SCT200 BKN250 19/14 A3021 RMK AO2 SLP223 T01890144=
200610030652 METAR KATL 030652Z 09006KT 10SM SCT250 18/14 A3022 RMK AO2 SLP226 T01830139=
200610030552 METAR KATL 030552Z 09007KT 10SM SCT250 19/14 A3022 RMK AO2 SLP226 T01890139 10239 20189 58007=
200610030452 METAR KATL 030452Z 07009KT 10SM BKN060 20/14 A3024 RMK AO2 SLP233 T02000139 402720161=
200610030352 METAR KATL 030352Z 06010KT 10SM FEW250 21/14 A3025 RMK AO2 SLP235 T02060144=
200610030252 METAR KATL 030252Z 06009KT 10SM FEW250 22/14 A3024 RMK AO2 SLP234 T02170144 51012=
200610030152 METAR KATL 030152Z 06010KT 10SM SCT250 22/15 A3024 RMK AO2 SLP232 T02220150=
200610030052 METAR KATL 030052Z 06011KT 10SM FEW200 BKN250 23/16 A3022 RMK AO2 SLP228 T02330156=
200610022352 METAR KATL 022352Z 09006KT 10SM FEW200 BKN250 24/14 A3021 RMK AO2 SLP223 T02390144 10272 20239 56000=
200610022252 METAR KATL 022252Z 08007KT 10SM FEW050 BKN250 25/14 A3021 RMK AO2 SLP222 T02500144=
200610022152 METAR KATL 022152Z VRB05KT 10SM OVC250 27/14 A3020 RMK AO2 SLP220 T02670139=
200610022052 METAR KATL 022052Z 06008KT 10SM FEW050 BKN230 BKN300 27/14 A3021 RMK AO2 SLP221 T02670144 56009=
200610021952 METAR KATL 021952Z 00000KT 10SM FEW050 SCT230 BKN300 26/14 A3021 RMK AO2 SLP222 T02610139=
200610021852 METAR KATL 021852Z 15007KT 9SM SCT044 SCT230 BKN300 26/14 A3021 RMK AO2 SLP223 T02610144=
200610021752 METAR KATL 021752Z VRB03KT 9SM FEW045 SCT230 BKN300 27/15 A3024 RMK AO2 SLP231 T02670150 10267 20161 58009=
200610021652 METAR KATL 021652Z 12005KT 10SM FEW230 SCT300 25/15 A3026 RMK AO2 SLP238 T02500150=
200610021552 METAR KATL 021552Z 11007KT 10SM FEW230 SCT300 24/14 A3026 RMK AO2 SLP240 T02440144=
200610021452 METAR KATL 021452Z 11008KT 10SM FEW230 SCT300 22/14 A3027 RMK AO2 SLP241 T02220139 51015=
200610021352 METAR KATL 021352Z 07008KT 10SM FEW230 SCT300 21/13 A3026 RMK AO2 SLP239 T02060128=
200610021252 METAR KATL 021252Z 06010KT 10SM FEW250 18/12 A3024 RMK AO2 SLP234 T01830117=
200610021152 METAR KATL 021152Z 07009KT 10SM FEW250 16/12 A3022 RMK AO2 SLP227 T01610117 10183 20161 51014=
200610021052 METAR KATL 021052Z 06007KT 10SM CLR 17/12 A3021 RMK AO2 SLP224 T01670117=
200610020952 METAR KATL 020952Z 06006KT 10SM CLR 17/12 A3019 RMK AO2 SLP216 T01670117=
200610020852 METAR KATL 020852Z 06006KT 10SM CLR 17/12 A3018=
200610020752 METAR KATL 020752Z 05006KT 10SM CLR 18/12 A3017 RMK AO2 SLP208 T01780122=
200610020652 METAR KATL 020652Z 01007KT 10SM CLR 18/12 A3017 RMK AO2 SLP208 T01780122=
200610020552 METAR KATL 020552Z 33005KT 10SM CLR 17/13 A3017 RMK AO2 SLP208 T01720128 10244 20167 50002=
200610020452 METAR KATL 020452Z 34006KT 10SM CLR 19/13 A3017=
200610020352 METAR KATL 020352Z 01008KT 10SM CLR 21/13 A3017 RMK AO2 SLP207 T02060128=
200610020252 METAR KATL 020252Z 01011KT 10SM CLR 22/13 A3016=
200610020152 METAR KATL 020152Z 36010KT 10SM CLR 23/14 A3015=
200610020052 METAR KATL 020052Z 36010KT 10SM CLR 24/15 A3014 RMK AO2 SLP199 T02390150=
200610012352 METAR KATL 012352Z 34008KT 10SM CLR 24/16 A3012 RMK AO2 SLP192 T02440156 10283 20244 53006=
200610012252 METAR KATL 012252Z 34009KT 10SM CLR 26/16 A3011 RMK AO2 SLP188 T02610161=
200610012152 METAR KATL 012152Z 33012KT 10SM FEW050 28/16 A3009 RMK AO2 SLP183 T02780156=
200610012052 METAR KATL 012052Z 33013KT 10SM SCT050 28/15 A3010 RMK AO2 SLP183 T02830150 56010=
200610011952 METAR KATL 011952Z 30010KT 10SM SCT043 BKN055 BKN150 28/16 A3010 RMK AO2 SLP184 MDT CU ALQDS T02830161=
200610011852 METAR KATL 011852Z 30007KT 10SM SCT039 BKN046 BKN150 27/18 A3011 RMK AO2 SLP188 MDT CU ALQDS T02670178=
200610011752 METAR KATL 011752Z 32008KT 10SM SCT035 27/18 A3013 RMK AO2 SLP195 T02670183 10267 20161 58007=
200610011652 METAR KATL 011652Z VRB04KT 10SM FEW030 25/17 A3015 RMK AO2 SLP202 T02500172=
200610011552 METAR KATL 011552Z 29009KT 10SM CLR 23/17 A3016 RMK AO2 SLP205 T02330167=
200610011452 METAR KATL 011452Z 28006KT 10SM FEW150 22/16 A3015 RMK AO2 SLP203 T02220156 51011=
200610011352 METAR KATL 011352Z 24005KT 10SM FEW025 SCT150 19/13 A3014 RMK AO2 SLP200 T01940128=
200610011252 METAR KATL 011252Z 21004KT 10SM FEW250 17/12 A3012 RMK AO2 SLP196 T01720117=
