##########################################################
# Query made at 04/19/2024 23:02:55 UTC
# Time interval: from 09/01/2007 12:00  to 09/30/2007 12:59  UTC
##########################################################

##########################################################
# KATL, Atlanta, Hartsfield - Jackson Atlanta International Airport (United States)
# WMO index: 72219. WIGOS ID: 0-20000-0-72219
# Latitude 33-38-59N. Longitude 084-25-00W. Altitude 312 m.
##########################################################

200709301252 METAR KATL 301252Z 07009KT 10SM FEW250 16/07 A3039 RMK AO2 SLP285 T01560072=
200709301152 METAR KATL 301152Z 08008KT 10SM FEW250 13/07 A3037 RMK AO2 SLP278 T01330067 10183 20122 53018=
200709301052 METAR KATL 301052Z 09005KT 10SM CLR 13/07 A3034 RMK AO2 SLP269 T01330067=
200709300952 METAR KATL 300952Z 08006KT 10SM CLR 13/07 A3032 RMK AO2 SLP263 T01330067=
200709300852 METAR KATL 300852Z 09007KT 10SM CLR 14/07 A3031 RMK AO2 SLP259 T01390067 55003=
200709300752 METAR KATL 300752Z 08007KT 10SM CLR 14/07 A3031 RMK AO2 SLP258 T01440067=
200709300652 METAR KATL 300652Z 10005KT 10SM CLR 16/07 A3032 RMK AO2 SLP260 T01610067=
200709300552 METAR KATL 300552Z 07007KT 10SM FEW060 18/06 A3032 RMK AO2 SLP261 T01830061 10228 20178 56002=
200709300452 METAR KATL 300452Z 06007KT 10SM CLR 18/06 A3032 RMK AO2 SLP262 T01830061 402720167=
200709300352 METAR KATL 300352Z 06007KT 10SM FEW250 18/07 A3033 RMK AO2 SLP263 T01830067=
200709300252 METAR KATL 300252Z 06008KT 10SM FEW250 20/06 A3033 RMK AO2 SLP263 T02000061 53018=
200709300152 METAR KATL 300152Z 10005KT 10SM CLR 21/06 A3031 RMK AO2 SLP257 T02060061=
200709300052 METAR KATL 300052Z 10006KT 10SM CLR 21/06 A3029 RMK AO2 SLP251 T02060061=
200709292352 METAR KATL 292352Z 11004KT 10SM FEW250 23/06 A3027 RMK AO2 SLP246 T02280061 10272 20228 53005=
200709292252 METAR KATL 292252Z 09007KT 10SM CLR 24/06 A3026 RMK AO2 SLP239 T02440061=
200709292152 METAR KATL 292152Z 09008KT 10SM CLR 26/07 A3025 RMK AO2 SLP235 T02610067=
200709292052 METAR KATL 292052Z 11006KT 10SM CLR 27/08 A3026 RMK AO2 SLP238 T02670078 56012=
200709291952 METAR KATL 291952Z 12005KT 10SM CLR 27/08 A3026 RMK AO2 SLP240 T02670083=
200709291852 METAR KATL 291852Z 07008KT 10SM CLR 26/08 A3027 RMK AO2 SLP243 T02610083=
200709291752 METAR KATL 291752Z 11008KT 10SM CLR 25/08 A3029 RMK AO2 SLP250 T02500078 10256 20167 58010=
200709291652 METAR KATL 291652Z 11008G17KT 10SM CLR 24/07 A3030 RMK AO2 SLP254 T02390072=
200709291552 METAR KATL 291552Z 09010KT 10SM CLR 23/07 A3032 RMK AO2 SLP259 T02280067=
200709291452 METAR KATL 291452Z COR 10014G21KT 10SM CLR 22/06 A3032 RMK AO2 SLP261 T02170056 51014=
200709291352 METAR KATL 291352Z 08013KT 10SM CLR 20/06 A3032 RMK AO2 SLP261 T02000061=
200709291252 METAR KATL 291252Z COR 07016KT 10SM CLR 18/06 A3031 RMK AO2 SLP256 T01830056=
200709291152 METAR KATL 291152Z 08013KT 10SM CLR 17/06 A3028 RMK AO2 SLP248 T01670061 10200 20167 51027=
200709291052 METAR KATL 291052Z 07012KT 10SM CLR 18/06 A3025 RMK AO2 SLP237 T01780061=
200709290952 METAR KATL 290952Z 08010KT 10SM CLR 18/06 A3022 RMK AO2 SLP226 T01780061=
200709290852 METAR KATL 290852Z 07008KT 10SM CLR 17/07 A3020 RMK AO2 SLP217 T01720072 53008=
200709290752 METAR KATL 290752Z 08009KT 10SM CLR 18/07 A3018 RMK AO2 SLP213 T01830072=
200709290652 METAR KATL 290652Z 06008KT 10SM CLR 19/08 A3018 RMK AO2 SLP210 T01890078=
200709290552 METAR KATL 290552Z 04009KT 10SM CLR 20/08 A3017 RMK AO2 SLP208 T02000078 10244 20200 51010=
200709290452 METAR KATL 290452Z 04012KT 10SM CLR 21/07 A3016 RMK AO2 SLP204 T02110067 402940189=
200709290352 METAR KATL 290352Z 01007KT 10SM CLR 21/07 A3016 RMK AO2 SLP204 T02110072=
200709290252 METAR KATL 290252Z 36011KT 10SM CLR 22/07 A3014 RMK AO2 SLP198 T02220067 51017=
200709290152 METAR KATL 290152Z 36009KT 10SM CLR 23/07 A3013 RMK AO2 SLP195 T02280072=
200709290052 METAR KATL 290052Z 34007KT 10SM CLR 23/08 A3011 RMK AO2 SLP189 T02330078=
200709282352 METAR KATL 282352Z 35009KT 10SM CLR 24/07 A3009 RMK AO2 SLP182 T02440072 10294 20244 53011=
200709282252 METAR KATL 282252Z 35010KT 10SM CLR 27/07 A3007 RMK AO2 SLP175 T02670067=
200709282152 METAR KATL 282152Z 34008KT 10SM CLR 28/04 A3006 RMK AO2 SLP172 T02830044=
200709282052 METAR KATL 282052Z 03009G16KT 10SM CLR 29/06 A3005 RMK AO2 SLP168 T02890056 56014=
200709281952 METAR KATL 281952Z 34010KT 10SM FEW070 29/05 A3006 RMK AO2 SLP171 CU DSNT NE-S T02890050=
200709281852 METAR KATL 281852Z 02009G15KT 10SM FEW070 29/07 A3008 RMK AO2 SLP176 CU DSNT NE-S T02890072=
200709281752 METAR KATL 281752Z 35011G20KT 10SM CLR 28/09 A3010 RMK AO2 SLP182 T02780089 10283 20189 58002=
200709281652 METAR KATL 281652Z 33011KT 10SM CLR 27/12 A3011 RMK AO2 SLP187 T02670122=
200709281552 METAR KATL 281552Z 36011KT 10SM CLR 26/14 A3011 RMK AO2 SLP188 T02560139=
200709281452 METAR KATL 281452Z 33009KT 9SM FEW025 23/17 A3010 RMK AO2 SLP185 T02330172 53019=
200709281352 METAR KATL 281352Z 33009KT 6SM HZ FEW010 22/18 A3009 RMK AO2 SLP180 T02170183=
200709281315 SPECI KATL 281315Z 33008KT 5SM BR FEW003 20/18 A3007 RMK AO2=
200709281315 SPECI KATL 281315Z 33008KT 5SM BR FEW003 20/18 A3007 RMK AO2=
200709281252 METAR KATL 281252Z 33007KT 3SM BR FEW003 19/18 A3006 RMK AO2 SFC VIS 4 SLP172 T01940183=
200709281206 SPECI KATL 281206Z 33006KT 2 1/2SM BR SCT004 19/18 A3005 RMK AO2 SFC VIS 4=
200709281206 SPECI KATL 281206Z 33006KT 2 1/2SM BR SCT004 19/18 A3005 RMK AO2 SFC VIS 4=
200709281152 METAR KATL 281152Z 32004KT 6SM BR FEW004 19/18 A3004 RMK AO2 SLP167 T01890178 10206 20189 53015=
200709281145 SPECI KATL 281145Z 32006KT 6SM BR FEW004 19/18 A3004 RMK AO2=
200709281145 SPECI KATL 281145Z 32006KT 6SM BR FEW004 19/18 A3004 RMK AO2=
200709281052 METAR KATL 281052Z 32005KT 8SM CLR 19/18 A3003 RMK AO2 SLP161 T01890178=
200709280952 METAR KATL 280952Z 32006KT 10SM CLR 19/18 A3001 RMK AO2 SLP154 T01940183=
200709280852 METAR KATL 280852Z 32006KT 10SM CLR 19/18 A3000 RMK AO2 SLP151 T01940183 53002=
200709280752 METAR KATL 280752Z 32008KT 10SM CLR 20/19 A2999 RMK AO2 SLP147 T02000189=
200709280652 METAR KATL 280652Z 28005KT 10SM FEW250 20/19 A3000 RMK AO2 SLP150 T02000189=
200709280552 METAR KATL 280552Z 29005KT 10SM FEW002 SCT250 21/19 A3000 RMK AO2 SLP148 T02060189 10233 20206 53005=
200709280452 METAR KATL 280452Z 29005KT 10SM FEW250 21/19 A2999 RMK AO2 SLP145 T02060194 402940206=
200709280352 METAR KATL 280352Z 29005KT 10SM FEW250 21/19 A2998 RMK AO2 SLP143 T02110189=
200709280252 METAR KATL 280252Z 28005KT 10SM FEW150 SCT250 21/18 A2998 RMK AO2 SLP143 T02060183 55000=
200709280152 METAR KATL 280152Z 00000KT 10SM FEW150 SCT250 23/18 A2998 RMK AO2 SLP142 T02280183=
200709280052 METAR KATL 280052Z 00000KT 10SM FEW150 SCT200 BKN250 23/18 A2997 RMK AO2 SLP142 T02280183=
200709272352 METAR KATL 272352Z 34006KT 10SM FEW120 SCT150 BKN200 23/17 A2998 RMK AO2 SLP145 60000 T02330172 10289 20233 53008=
200709272252 METAR KATL 272252Z 00000KT 10SM FEW030 SCT140 OVC200 23/18 A2997 RMK AO2 RAE42 SLP141 TCU DSNT SE-S P0000 T02330178=
200709272152 METAR KATL 272152Z 32010KT 10SM -RA SCT120 BKN150 OVC200 24/18 A2995 RMK AO2 RAB2055E29B49 SLP131 CB DSNT E-SE PCPN VRY LGT P0000 T02440178=
200709272052 METAR KATL 272052Z 30010KT 10SM FEW030TCU SCT060 BKN110 OVC150 26/19 A2996 RMK AO2 SLP135 LTG DSNT NE TS 20SM DSNT NE MOV ESE CB DSNT NE TCU E T02560189 55010=
200709272021 SPECI KATL 272021Z 30014G18KT 10SM FEW035 SCT060 BKN150 BKN180 OVC250 27/19 A2996 RMK AO2 LTG DSNT N TS 20SM DSNT N MOV ESE CB DSNT N=
200709272021 SPECI KATL 272021Z 30014G18KT 10SM FEW035 SCT060 BKN150 BKN180 OVC250 27/19 A2996 RMK AO2 LTG DSNT N TS 20SM DSNT N MOV ESE CB DSNT N=
200709271952 METAR KATL 271952Z 28007KT 10SM FEW040 BKN150 BKN180 OVC250 28/18 A2995 RMK AO2 SLP132 CB DSNT NW-N MOV ESE TCU DSNT E BINOVC NE T02830178=
200709271924 SPECI KATL 271924Z 22004KT 10SM FEW040 SCT150 BKN180 BKN250 29/18 A2994 RMK AO2 CB DSNT 18SM NW MOV SE CBMAM NE=
200709271924 SPECI KATL 271924Z 22004KT 10SM FEW040 SCT150 BKN180 BKN250 29/18 A2994 RMK AO2 CB DSNT 18SM NW MOV SE CBMAM NE=
200709271852 METAR KATL 271852Z 26004KT 10SM FEW040 BKN150 BKN250 27/18 A2996 RMK AO2 SLP135 CB DSNT NW CBMAM S TCU DSNT NE-E T02720183=
200709271752 METAR KATL 271752Z 28004KT 10SM FEW040CB BKN150 BKN250 28/18 A2999 RMK AO2 SLP145 CB VC NW MOV E TCU DSNT NE-SE SHRA VC NW T02830178 10294 20217 58017=
200709271652 METAR KATL 271652Z VRB03KT 10SM SCT040TCU SCT150 BKN250 28/18 A3001 RMK AO2 SLP151 CB DSNT W-N MOV E TCU NW T02830183=
200709271552 METAR KATL 271552Z 23004KT 10SM SCT030TCU SCT150 BKN250 28/19 A3003 RMK AO2 SLP159 TCU NE-SE NW T02780189=
200709271452 METAR KATL 271452Z 26007KT 10SM FEW030 SCT150 BKN250 27/19 A3004 RMK AO2 SLP163 MDT CU DSNT NW T02670194 51006=
200709271352 METAR KATL 271352Z 00000KT 10SM FEW150 SCT200 SCT250 25/19 A3004 RMK AO2 SLP161 T02500194=
200709271252 METAR KATL 271252Z 29003KT 10SM FEW140 SCT250 23/19 A3004 RMK AO2 SLP162 T02280189=
200709271152 METAR KATL 271152Z 00000KT 10SM SCT060 BKN140 BKN250 22/18 A3002 RMK AO2 SLP158 T02170183 10228 20211 51004=
200709271052 METAR KATL 271052Z 00000KT 10SM SCT060 BKN140 BKN250 21/18 A3002 RMK AO2 SLP158 T02110183=
200709270952 METAR KATL 270952Z 00000KT 10SM SCT060 BKN140 BKN250 22/19 A3002 RMK AO2 SLP155 T02220189=
200709270852 METAR KATL 270852Z 00000KT 10SM FEW080 SCT140 SCT250 22/19 A3001 RMK AO2 SLP153 T02220189 56010=
200709270752 METAR KATL 270752Z 00000KT 10SM FEW080 SCT140 SCT250 22/19 A3001 RMK AO2 SLP154 T02170189=
200709270652 METAR KATL 270652Z 00000KT 10SM FEW080 SCT250 22/19 A3004 RMK AO2 SLP161 T02220189=
200709270552 METAR KATL 270552Z 00000KT 10SM CLR 23/19 A3004 RMK AO2 SLP163 T02280189 10267 20222 55005=
200709270452 METAR KATL 270452Z 00000KT 10SM CLR 23/18 A3004 RMK AO2 SLP161 T02280183 402890189=
200709270352 METAR KATL 270352Z 00000KT 10SM FEW150 23/18 A3005 RMK AO2 SLP166 T02330183=
200709270252 METAR KATL 270252Z 00000KT 10SM FEW150 23/19 A3006 RMK AO2 SLP170 T02330189 50006=
200709270152 METAR KATL 270152Z 22003KT 10SM FEW150 24/18 A3006 RMK AO2 SLP171 T02440183=
200709270052 METAR KATL 270052Z 16003KT 10SM FEW150 26/18 A3005 RMK AO2 SLP166 T02560183=
200709262352 METAR KATL 262352Z 00000KT 10SM FEW150 SCT250 27/18 A3004 RMK AO2 SLP163 T02670178 10289 20267 53001=
200709262252 METAR KATL 262252Z 16006KT 10SM FEW045 SCT150 BKN250 28/17 A3003 RMK AO2 SLP161 T02780172=
200709262152 METAR KATL 262152Z 16003KT 10SM FEW045 SCT150 BKN250 28/17 A3003 RMK AO2 SLP161 T02780172=
200709262052 METAR KATL 262052Z 21004KT 10SM FEW045 BKN075 BKN200 BKN280 28/17 A3004 RMK AO2 SLP162 T02780167 56017=
200709261952 METAR KATL 261952Z 19003KT 10SM FEW050 BKN070 BKN200 BKN280 28/16 A3005 RMK AO2 SLP167 T02780161=
200709261852 METAR KATL 261852Z 13004KT 10SM FEW045 BKN060 BKN200 BKN280 28/16 A3007 RMK AO2 SLP173 T02830161=
200709261752 METAR KATL 261752Z VRB06KT 10SM BKN050 BKN200 BKN280 28/16 A3009 RMK AO2 SLP179 T02830161 10283 20194 58016=
200709261652 METAR KATL 261652Z 14003KT 10SM FEW050 SCT200 SCT280 28/16 A3011 RMK AO2 SLP186 T02780161=
200709261552 METAR KATL 261552Z 00000KT 10SM FEW035 SCT200 SCT280 26/17 A3013 RMK AO2 SLP192 T02610172=
200709261452 METAR KATL 261452Z 14004KT 10SM FEW025 SCT100 SCT280 25/18 A3014 RMK AO2 SLP196 T02500183 55000=
200709261352 METAR KATL 261352Z 16004KT 8SM FEW100 SCT200 SCT280 23/18 A3014 RMK AO2 SLP196 T02330178=
200709261252 METAR KATL 261252Z 10003KT 10SM FEW250 22/17 A3013 RMK AO2 SLP195 T02170167=
200709261152 METAR KATL 261152Z 09003KT 10SM FEW080 SCT250 19/16 A3014 RMK AO2 SLP197 T01940156 10228 20189 53008=
200709261052 METAR KATL 261052Z 07005KT 10SM FEW080 SCT250 19/16 A3013 RMK AO2 SLP192 T01940161=
200709260952 METAR KATL 260952Z 08004KT 10SM CLR 20/16 A3012 RMK AO2 SLP190 T02000161=
200709260852 METAR KATL 260852Z 00000KT 10SM CLR 21/16 A3011 RMK AO2 SLP187 T02110156 56009=
200709260752 METAR KATL 260752Z 08003KT 10SM CLR 21/17 A3012 RMK AO2 SLP188 T02110172=
200709260652 METAR KATL 260652Z 09003KT 10SM CLR 22/18 A3013 RMK AO2 SLP193 T02170178=
200709260552 METAR KATL 260552Z 00000KT 10SM CLR 22/18 A3014 RMK AO2 SLP197 T02220178 10272 20222 58004=
200709260452 METAR KATL 260452Z 00000KT 10SM CLR 23/18 A3015 RMK AO2 SLP201 T02280178 403060217=
200709260352 METAR KATL 260352Z 00000KT 10SM CLR 23/18 A3016 RMK AO2 SLP203 T02330178=
200709260252 METAR KATL 260252Z 16003KT 10SM CLR 24/18 A3015 RMK AO2 SLP201 T02440178 51012=
200709260152 METAR KATL 260152Z 15003KT 10SM CLR 25/18 A3015 RMK AO2 SLP200 T02500178=
200709260052 METAR KATL 260052Z 00000KT 10SM FEW060 26/18 A3014 RMK AO2 SLP195 T02610178=
200709252352 METAR KATL 252352Z 18005KT 10SM CLR 27/17 A3012 RMK AO2 SLP189 T02720172 10306 20272 53002=
200709252252 METAR KATL 252252Z 16007KT 10SM CLR 28/17 A3010 RMK AO2 SLP184 T02830167=
200709252152 METAR KATL 252152Z 16008KT 10SM FEW055 29/17 A3010 RMK AO2 SLP182 T02940167=
200709252052 METAR KATL 252052Z 17007KT 9SM FEW060 30/17 A3011 RMK AO2 SLP185 T03000167 56022=
200709251952 METAR KATL 251952Z 14008KT 9SM FEW055 30/17 A3013 RMK AO2 SLP192 T03000167=
200709251852 METAR KATL 251852Z 12006KT 9SM SCT050 29/17 A3016 RMK AO2 SLP200 MDT CU NE-E W T02890167=
200709251752 METAR KATL 251752Z VRB06KT 9SM SCT045 29/18 A3018 RMK AO2 SLP208 T02890178 10294 20228 58019=
200709251652 METAR KATL 251652Z 00000KT 9SM FEW045 28/17 A3020 RMK AO2 SLP217 T02830167=
200709251552 METAR KATL 251552Z VRB04KT 9SM FEW040 SCT050 27/19 A3023 RMK AO2 SLP225 T02670189=
200709251452 METAR KATL 251452Z 00000KT 8SM FEW045 SCT055 26/19 A3024 RMK AO2 SLP228 T02560194 53012=
200709251352 METAR KATL 251352Z 11004KT 8SM SCT045 BKN055 24/19 A3022 RMK AO2 SLP225 T02390194=
200709251252 METAR KATL 251252Z 00000KT 10SM SCT070 SCT250 23/19 A3021 RMK AO2 SLP220 ACC NW AND VC E-SE-S T02330194=
200709251152 METAR KATL 251152Z 00000KT 10SM SCT070 SCT250 23/19 A3020 RMK AO2 SLP217 ACC VC ALQDS T02280189 10244 20217 53017=
200709251052 METAR KATL 251052Z 00000KT 10SM SCT065 22/19 A3018 RMK AO2 SLP209 T02220189=
200709250952 METAR KATL 250952Z 16003KT 10SM FEW065 22/19 A3016 RMK AO2 SLP203 T02220194=
200709250852 METAR KATL 250852Z 00000KT 10SM FEW080 22/19 A3015 RMK AO2 SLP199 T02220189 58005=
200709250752 METAR KATL 250752Z 00000KT 10SM FEW080 23/19 A3016 RMK AO2 SLP201 T02280189=
200709250652 METAR KATL 250652Z 19003KT 10SM FEW080 23/19 A3016 RMK AO2 SLP203 T02330194=
200709250552 METAR KATL 250552Z 17004KT 10SM FEW080 24/19 A3016 RMK AO2 SLP204 T02390189 10283 20239 58003=
200709250452 METAR KATL 250452Z 00000KT 10SM FEW080 25/19 A3017 RMK AO2 SLP206 T02500189 403170217=
200709250352 METAR KATL 250352Z 00000KT 10SM BKN075 26/19 A3017 RMK AO2 SLP206 T02560189=
200709250252 METAR KATL 250252Z 00000KT 10SM FEW100 26/19 A3017 RMK AO2 SLP207 T02610189 51015=
200709250152 METAR KATL 250152Z 15003KT 10SM FEW100 27/19 A3016 RMK AO2 SLP202 T02670189=
200709250052 METAR KATL 250052Z 00000KT 10SM FEW100 27/18 A3014 RMK AO2 SLP197 T02720183=
200709242352 METAR KATL 242352Z 15004KT 10SM FEW100 28/18 A3013 RMK AO2 SLP192 T02830178 10317 20283 55001=
200709242252 METAR KATL 242252Z 16007KT 10SM FEW060 SCT095 30/18 A3012 RMK AO2 SLP189 T03000178=
200709242152 METAR KATL 242152Z VRB06KT 10SM SCT060 BKN075 31/17 A3013 RMK AO2 SLP191 MDT CU OHD AND N-E T03060172=
200709242052 METAR KATL 242052Z 16009KT 10SM SCT060 31/18 A3013 RMK AO2 SLP192 T03110178 56020=
200709241952 METAR KATL 241952Z 16009G14KT 10SM SCT055 31/17 A3015 RMK AO2 SLP198 T03110172=
200709241852 METAR KATL 241852Z 15009KT 10SM SCT050 SCT060 31/18 A3017 RMK AO2 SLP205 T03060183=
200709241752 METAR KATL 241752Z COR 14010KT 10SM SCT045 31/18 A3019 RMK AO2 SLP213 T03060178 10306 20222 58012=
200709241652 METAR KATL 241652Z 13007KT 10SM SCT036 29/19 A3021 RMK AO2 SLP219 T02940189=
200709241552 METAR KATL 241552Z 13005KT 10SM FEW028 28/20 A3022 RMK AO2 SLP223 T02830200=
200709241452 METAR KATL 241452Z 12003KT 10SM FEW025 27/21 A3023 RMK AO2 SLP225 T02720206 51010=
200709241352 METAR KATL 241352Z 07005KT 10SM FEW020 26/21 A3022 RMK AO2 SLP224 T02610211=
200709241252 METAR KATL 241252Z 08005KT 8SM CLR 24/22 A3021 RMK AO2 SLP219 T02440217=
200709241152 METAR KATL 241152Z 00000KT 8SM FEW080 22/21 A3020 RMK AO2 SLP216 T02220206 10233 20217 53011=
200709241052 METAR KATL 241052Z 08004KT 10SM FEW080 22/21 A3018 RMK AO2 SLP210 T02220206 $=
200709240952 METAR KATL 240952Z 04003KT 10SM FEW080 23/21 A3016 RMK AO2 SLP204 T02280206 $=
200709240852 METAR KATL 240852Z 00000KT 10SM FEW080 23/21 A3016 RMK AO2 SLP204 T02280206 56004 $=
200709240752 METAR KATL 240752Z 08004KT 10SM FEW080 22/21 A3016 RMK AO2 SLP204 T02220206 $=
200709240652 METAR KATL 240652Z 00000KT 10SM FEW110 23/21 A3016 RMK AO2 SLP205 T02330211 $=
200709240552 METAR KATL 240552Z 00000KT 10SM FEW110 23/21 A3017 RMK AO2 SLP209 T02330206 10267 20233 56007 $=
200709240452 METAR KATL 240452Z 00000KT 10SM CLR 23/21 A3018 RMK AO2 SLP210 T02330206 402830222 $=
200709240352 METAR KATL 240352Z 00000KT 10SM FEW100 24/21 A3019 RMK AO2 SLP214 T02390206 $=
200709240252 METAR KATL 240252Z 00000KT 10SM FEW100 24/21 A3020 RMK AO2 SLP217 T02440206 51017 $=
200709240152 METAR KATL 240152Z 00000KT 10SM FEW025 SCT100 26/21 A3019 RMK AO2 SLP214 T02560211 $=
200709240052 METAR KATL 240052Z 14004KT 10SM FEW025 SCT100 26/21 A3017 RMK AO2 SLP208 T02610211 $=
200709232352 METAR KATL 232352Z 17003KT 10SM FEW028 SCT080 27/21 A3015 RMK AO2 SLP200 T02670211 10283 20256 53004 $=
200709232252 METAR KATL 232252Z 16005KT 10SM FEW030 SCT080 28/21 A3014 RMK AO2 SLP197 VIRGA VC NE CB DSIPT TCU DSNT NE T02780206 $=
200709232152 METAR KATL 232152Z 17005KT 10SM FEW030 SCT080 28/21 A3014 RMK AO2 SLP195 CB DSNT N-NE MOV W TCU DSNT NW-N T02830206 $=
200709232052 METAR KATL 232052Z 17005KT 9SM FEW028 28/21 A3013 RMK AO2 SLP195 TCU DSNT NW-NE T02830206 58023 $=
200709231952 METAR KATL 231952Z 18005KT 10SM FEW024 27/21 A3016 RMK AO2 SLP203 T02720206=
200709231905 SPECI KATL 231905Z VRB04KT 10SM SCT022 27/21 A3018 RMK AO2=
200709231905 SPECI KATL 231905Z VRB04KT 10SM SCT022 27/21 A3018 RMK AO2=
200709231852 METAR KATL 231852Z 14006KT 8SM BKN020 27/21 A3018 RMK AO2 SLP211 T02670206=
200709231752 METAR KATL 231752Z 00000KT 8SM OVC016 25/21 A3020 RMK AO2 SLP219 BINOVC 60000 T02500206 10256 20222 58006=
200709231729 SPECI KATL 231729Z 11003KT 9SM OVC015 25/21 A3022 RMK AO2=
200709231729 SPECI KATL 231729Z 11003KT 9SM OVC015 25/21 A3022 RMK AO2=
200709231652 METAR KATL 231652Z 10004KT 10SM OVC013 24/21 A3022 RMK AO2 SLP225 T02440206=
200709231552 METAR KATL 231552Z 07010KT 10SM OVC011 24/21 A3023 RMK AO2 SLP227 T02390206=
200709231452 METAR KATL 231452Z 07005KT 10SM OVC011 24/21 A3022 RMK AO2 SLP225 60000 T02440206 51012=
200709231435 SPECI KATL 231435Z 11005KT 10SM OVC011 24/21 A3022 RMK AO2=
200709231435 SPECI KATL 231435Z 11005KT 10SM OVC011 24/21 A3022 RMK AO2=
200709231352 METAR KATL 231352Z 09006KT 10SM OVC007 24/22 A3021 RMK AO2 SLP223 T02390217=
200709231309 SPECI KATL 231309Z 10005KT 9SM BKN007 BKN020 23/21 A3021 RMK AO2=
200709231309 SPECI KATL 231309Z 10005KT 9SM BKN007 BKN020 23/21 A3021 RMK AO2=
200709231252 METAR KATL 231252Z 09005KT 6SM BR FEW006 SCT019 SCT033 23/22 A3020 RMK AO2 DZE37 SLP217 VIS LWR NE-SE P0000 T02280217=
200709231238 SPECI KATL 231238Z 09006KT 2SM BR SCT005 BKN012 BKN020 23/22 A3020 RMK AO2 SFC VIS 3 DZE37 P0000=
200709231238 SPECI KATL 231238Z 09006KT 2SM BR SCT005 BKN012 BKN020 23/22 A3020 RMK AO2 SFC VIS 3 DZE37 P0000=
200709231152 METAR KATL 231152Z 08007KT 2SM -DZ BR BKN005 OVC012 22/21 A3019 RMK AO2 SFC VIS 3 DZB43 SLP212 P0000 60000 T02220211 10228 20222 51019=
200709231052 METAR KATL 231052Z 09004KT 6SM BR BKN009 OVC012 23/21 A3017 RMK AO2 SLP206 T02280211=
200709230952 METAR KATL 230952Z 00000KT 7SM OVC007 23/21 A3015 RMK AO2 SLP198 T02280211=
200709230852 METAR KATL 230852Z 16003KT 7SM BKN007 OVC150 23/21 A3013 RMK AO2 SLP192 T02280211 58007=
200709230833 SPECI KATL 230833Z 16004KT 7SM BKN009 OVC150 23/21 A3013 RMK AO2=
200709230833 SPECI KATL 230833Z 16004KT 7SM BKN009 OVC150 23/21 A3013 RMK AO2=
200709230752 METAR KATL 230752Z 15004KT 6SM BR BKN004 OVC009 23/21 A3013 RMK AO2 SLP193 T02280211=
200709230734 SPECI KATL 230734Z 15003KT 6SM BR BKN004 OVC009 23/21 A3014 RMK AO2=
200709230734 SPECI KATL 230734Z 15003KT 6SM BR BKN004 OVC009 23/21 A3014 RMK AO2=
200709230652 METAR KATL 230652Z 14004KT 6SM BR BKN008 OVC120 23/21 A3014 RMK AO2 SLP197 T02280211=
200709230612 SPECI KATL 230612Z 13004KT 6SM BR BKN008 OVC120 23/21 A3015 RMK AO2=
200709230612 SPECI KATL 230612Z 13004KT 6SM BR BKN008 OVC120 23/21 A3015 RMK AO2=
200709230552 METAR KATL 230552Z 14006KT 10SM OVC010 23/21 A3015 RMK AO2 SLP199 T02280211 10278 20228 58002=
200709230514 SPECI KATL 230514Z 11006KT 9SM BKN010 OVC150 23/21 A3015 RMK AO2=
200709230514 SPECI KATL 230514Z 11006KT 9SM BKN010 OVC150 23/21 A3015 RMK AO2=
200709230452 METAR KATL 230452Z 12004KT 10SM FEW045 SCT120 23/21 A3015 RMK AO2 SLP201 T02330206 403000222=
200709230352 METAR KATL 230352Z 15006KT 10SM BKN120 24/21 A3017 RMK AO2 SLP205 T02390206=
200709230252 METAR KATL 230252Z 11004KT 10SM SCT120 24/21 A3015 RMK AO2 SLP202 T02440211 53014=
200709230152 METAR KATL 230152Z 16006KT 10SM FEW120 25/21 A3014 RMK AO2 SLP199 T02500206=
200709230052 METAR KATL 230052Z 14004KT 10SM BKN120 27/19 A3012 RMK AO2 SLP189 T02720194=
200709222352 METAR KATL 222352Z 13004KT 10SM FEW045 BKN110 BKN150 28/19 A3011 RMK AO2 SLP186 T02780194 10300 20272 53011=
200709222252 METAR KATL 222252Z 12008KT 10SM FEW041 SCT150 28/19 A3010 RMK AO2 SLP181 T02830189=
200709222152 METAR KATL 222152Z 13004KT 10SM FEW041TCU SCT200 29/19 A3008 RMK AO2 SLP177 TCU OHD AND NW-NE T02890194=
200709222052 METAR KATL 222052Z 07006KT 10SM SCT042TCU BKN060 BKN085 28/19 A3008 RMK AO2 SLP175 TCU OHD-W T02830189 56012=
200709221952 METAR KATL 221952Z 14009KT 10SM SCT038 BKN060 BKN150 29/19 A3008 RMK AO2 SLP177 TCU DSNT N AND SE AND W T02890194=
200709221852 METAR KATL 221852Z 15010KT 10SM BKN037 BKN050 BKN150 29/19 A3010 RMK AO2 SLP182 TCU DSNT SW AND W T02890189=
200709221752 METAR KATL 221752Z 16009G15KT 10SM SCT030 BKN038 BKN150 28/20 A3011 RMK AO2 SLP188 SCT030 V BKN T02780200 10283 20222 58006=
200709221652 METAR KATL 221652Z 09009KT 10SM SCT025 BKN030 BKN034 27/20 A3014 RMK AO2 SLP196 SCT025 V BKN T02670200=
200709221637 SPECI KATL 221637Z 10007KT 10SM BKN025 BKN034 26/19 A3014 RMK AO2=
200709221637 SPECI KATL 221637Z 10007KT 10SM BKN025 BKN034 26/19 A3014 RMK AO2=
200709221552 METAR KATL 221552Z 10009KT 10SM SCT020 BKN030 26/19 A3014 RMK AO2 SLP197 SCT020 V BKN T02610194=
200709221519 SPECI KATL 221519Z 08007KT 040V110 10SM SCT018 BKN026 BKN032 25/20 A3013 RMK AO2=
200709221519 SPECI KATL 221519Z 08007KT 040V110 10SM SCT018 BKN026 BKN032 25/20 A3013 RMK AO2=
200709221452 METAR KATL 221452Z 10008KT 10SM FEW011 SCT016 SCT030 24/20 A3013 RMK AO2 SLP195 T02440200 51012=
200709221437 SPECI KATL 221437Z 11009KT 10SM FEW011 SCT016 SCT030 24/20 A3013 RMK AO2=
200709221437 SPECI KATL 221437Z 11009KT 10SM FEW011 SCT016 SCT030 24/20 A3013 RMK AO2=
200709221411 SPECI KATL 221411Z 09011KT 10SM SCT011 BKN016 24/21 A3013 RMK AO2=
200709221411 SPECI KATL 221411Z 09011KT 10SM SCT011 BKN016 24/21 A3013 RMK AO2=
200709221352 METAR KATL 221352Z 08011KT 9SM BKN011 BKN033 23/20 A3013 RMK AO2 SLP193 T02330200=
200709221302 SPECI KATL 221302Z 08011KT 7SM BKN009 OVC031 23/21 A3012 RMK AO2 BKN009 V SCT BINOVC=
200709221302 SPECI KATL 221302Z 08011KT 7SM BKN009 OVC031 23/21 A3012 RMK AO2 BKN009 V SCT BINOVC=
200709221252 METAR KATL 221252Z 08011KT 6SM BR SCT007 BKN029 22/20 A3011 RMK AO2 SLP189 T02220200=
200709221233 SPECI KATL 221233Z 07010G16KT 6SM BR SCT007 BKN029 22/20 A3011 RMK AO2=
200709221233 SPECI KATL 221233Z 07010G16KT 6SM BR SCT007 BKN029 22/20 A3011 RMK AO2=
200709221152 METAR KATL 221152Z 09009KT 6SM BR BKN007 BKN012 OVC027 22/20 A3010 RMK AO2 SLP184 T02220200 10222 20222 53015=
200709221052 METAR KATL 221052Z 09007KT 6SM BR BKN007 OVC025 22/21 A3007 RMK AO2 CIG 006V011 SLP175 T02220206=
200709220952 METAR KATL 220952Z 11007KT 6SM BR BKN007 OVC014 22/21 A3006 RMK AO2 SLP170 T02220206=
200709220919 SPECI KATL 220919Z 12005KT 6SM BR BKN007 BKN014 OVC025 22/21 A3005 RMK AO2 CIG 006V010=
200709220919 SPECI KATL 220919Z 12005KT 6SM BR BKN007 BKN014 OVC025 22/21 A3005 RMK AO2 CIG 006V010=
200709220910 SPECI KATL 220910Z 11006KT 6SM BR SCT009 BKN014 BKN024 22/21 A3005 RMK AO2=
200709220910 SPECI KATL 220910Z 11006KT 6SM BR SCT009 BKN014 BKN024 22/21 A3005 RMK AO2=
200709220852 METAR KATL 220852Z 10008KT 6SM BR SCT008 BKN016 22/21 A3005 RMK AO2 SLP167 T02220206 55005=
200709220816 SPECI KATL 220816Z 11006KT 6SM BR BKN008 OVC010 22/21 A3005 RMK AO2=
200709220816 SPECI KATL 220816Z 11006KT 6SM BR BKN008 OVC010 22/21 A3005 RMK AO2=
200709220752 METAR KATL 220752Z 11008KT 6SM BR BKN010 OVC016 22/21 A3005 RMK AO2 CIG 007V014 SLP166 T02220206=
200709220711 SPECI KATL 220711Z 11010KT 8SM BKN008 OVC014 22/21 A3006 RMK AO2=
200709220711 SPECI KATL 220711Z 11010KT 8SM BKN008 OVC014 22/21 A3006 RMK AO2=
200709220652 METAR KATL 220652Z 11008KT 6SM BR BKN010 OVC014 22/20 A3006 RMK AO2 SLP170 T02220200=
200709220552 METAR KATL 220552Z 09008KT 6SM BR BKN010 OVC140 22/20 A3007 RMK AO2 SLP173 T02220200 10233 20222 53001=
200709220452 METAR KATL 220452Z 10010G16KT 8SM OVC010 22/20 A3005 RMK AO2 SLP169 CIG 009V014 T02220200 402560200=
200709220444 SPECI KATL 220444Z 12012G16KT 8SM OVC009 22/20 A3005 RMK AO2 CIG 009V014=
200709220444 SPECI KATL 220444Z 12012G16KT 8SM OVC009 22/20 A3005 RMK AO2 CIG 009V014=
200709220352 METAR KATL 220352Z 10009KT 10SM BKN012 BKN028 OVC043 22/19 A3006 RMK AO2 SLP170 BKN012 V SCT T02220194=
200709220252 METAR KATL 220252Z 09012KT 10SM BKN014 OVC023 22/19 A3006 RMK AO2 SLP173 T02220194 51014=
200709220223 SPECI KATL 220223Z 08013KT 9SM BKN014 BKN019 OVC035 22/19 A3005 RMK AO2 CB DSNT SE AND S MOV NW=
200709220223 SPECI KATL 220223Z 08013KT 9SM BKN014 BKN019 OVC035 22/19 A3005 RMK AO2 CB DSNT SE AND S MOV NW=
200709220211 SPECI KATL 220211Z 10010KT 10SM FEW016 BKN021 OVC070 23/19 A3006 RMK AO2=
200709220211 SPECI KATL 220211Z 10010KT 10SM FEW016 BKN021 OVC070 23/19 A3006 RMK AO2=
200709220152 METAR KATL 220152Z 09014KT 10SM FEW015 SCT037 BKN070 OVC150 23/19 A3005 RMK AO2 SLP170 T02280194=
200709220052 METAR KATL 220052Z 09009KT 10SM SCT030 BKN035 BKN065 23/19 A3004 RMK AO2 SLP165 SCT030 V BKN T02280194=
200709212352 METAR KATL 212352Z 08014KT 10SM FEW015 SCT031 SCT075 BKN150 23/19 A3002 RMK AO2 SLP159 T02330194 10256 20233 51007=
200709212252 METAR KATL 212252Z 09012KT 10SM FEW020 SCT042 BKN150 24/19 A3002 RMK AO2 SLP156 T02390194=
200709212152 METAR KATL 212152Z 11013G18KT 10SM SCT021 BKN030 BKN038 24/19 A3001 RMK AO2 SLP154 SCT021 V BKN T02440194=
200709212116 SPECI KATL 212116Z 09011KT 10SM BKN023 BKN028 BKN035 24/19 A3000 RMK AO2=
200709212116 SPECI KATL 212116Z 09011KT 10SM BKN023 BKN028 BKN035 24/19 A3000 RMK AO2=
200709212052 METAR KATL 212052Z COR 09014KT 10SM FEW020 SCT026 BKN032 BKN150 24/19 A3000 RMK AO2 SLP150 T02440194 55015=
200709212027 SPECI KATL 212027Z 09016G20KT 10SM FEW020 SCT030 SCT150 26/20 A2999 RMK AO2=
200709212027 SPECI KATL 212027Z 09016G20KT 10SM FEW020 SCT030 SCT150 26/20 A2999 RMK AO2=
200709211952 METAR KATL 211952Z 08014KT 10SM BKN020 BKN030 BKN150 24/19 A3000 RMK AO2 SLP149 T02440194=
200709211852 METAR KATL 211852Z 07010KT 10SM OVC018 24/19 A3002 RMK AO2 SLP159 BINOVC T02390194=
200709211812 SPECI KATL 211812Z 07012KT 10SM OVC016 23/19 A3004 RMK AO2 BINOVC=
200709211812 SPECI KATL 211812Z 07012KT 10SM OVC016 23/19 A3004 RMK AO2 BINOVC=
200709211810 SPECI KATL 211810Z 06013KT 10SM BKN014 BKN016 OVC020 23/19 A3004 RMK AO2=
200709211810 SPECI KATL 211810Z 06013KT 10SM BKN014 BKN016 OVC020 23/19 A3004 RMK AO2=
200709211752 METAR KATL 211752Z 08011KT 10SM OVC016 23/19 A3004 RMK AO2 SLP165 60000 T02330194 10233 20200 58009=
200709211652 METAR KATL 211652Z 08011KT 10SM OVC012 23/19 A3006 RMK AO2 SLP171 T02280189=
200709211552 METAR KATL 211552Z 08016G20KT 10SM OVC010 22/19 A3006 RMK AO2 SLP171 T02170189=
200709211507 SPECI KATL 211507Z 07016G20KT 9SM FEW006 BKN010 OVC012 21/19 A3007 RMK AO2=
200709211507 SPECI KATL 211507Z 07016G20KT 9SM FEW006 BKN010 OVC012 21/19 A3007 RMK AO2=
200709211452 METAR KATL 211452Z 07014KT 8SM OVC006 21/19 A3007 RMK AO2 DZE20 SLP175 P0000 60000 T02110189 51008=
200709211445 SPECI KATL 211445Z 07012KT 8SM OVC006 21/19 A3007 RMK AO2 DZE20 P0000=
200709211445 SPECI KATL 211445Z 07012KT 8SM OVC006 21/19 A3007 RMK AO2 DZE20 P0000=
200709211420 SPECI KATL 211420Z 07011KT 3SM BR OVC006 21/19 A3006 RMK AO2 SFC VIS 6 DZE20 CIG 005V010 P0000=
200709211420 SPECI KATL 211420Z 07011KT 3SM BR OVC006 21/19 A3006 RMK AO2 SFC VIS 6 DZE20 CIG 005V010 P0000=
200709211352 METAR KATL 211352Z 07012KT 2SM -DZ BR OVC006 20/19 A3006 RMK AO2 SFC VIS 3 SLP174 P0000 T02000194=
200709211303 SPECI KATL 211303Z 08012KT 2 1/2SM -DZ BR OVC006 21/19 A3006 RMK AO2 SFC VIS 3 CIG 004V009 P0000=
200709211303 SPECI KATL 211303Z 08012KT 2 1/2SM -DZ BR OVC006 21/19 A3006 RMK AO2 SFC VIS 3 CIG 004V009 P0000=
200709211252 METAR KATL 211252Z 07013KT 3SM -DZ BR OVC006 20/19 A3007 RMK AO2 SFC VIS 5 CIG 005V010 SLP174 P0000 T02000189=
200709211220 SPECI KATL 211220Z 09014KT 3SM -DZ BR OVC006 21/19 A3006 RMK AO2 SFC VIS 5 P0000=
200709211220 SPECI KATL 211220Z 09014KT 3SM -DZ BR OVC006 21/19 A3006 RMK AO2 SFC VIS 5 P0000=
200709211152 METAR KATL 211152Z 08013KT 8SM -DZ OVC006 20/19 A3005 RMK AO2 CIG 005V010 SLP166 P0000 60000 T02000189 10211 20200 53014=
200709211052 METAR KATL 211052Z 07012KT 7SM -DZ OVC006 20/18 A3002 RMK AO2 DZB20 SLP158 P0000 T02000183=
200709210952 METAR KATL 210952Z 07011KT 10SM OVC006 20/18 A3001 RMK AO2 DZE47 SLP155 P0000 T02000183=
200709210852 METAR KATL 210852Z 08013KT 8SM -DZ OVC007 20/18 A3000 RMK AO2 SLP152 P0000 60000 T02000183 55007=
200709210817 SPECI KATL 210817Z 07012G19KT 10SM -DZ OVC008 20/18 A3000 RMK AO2 CIG 007V012 P0000=
200709210817 SPECI KATL 210817Z 07012G19KT 10SM -DZ OVC008 20/18 A3000 RMK AO2 CIG 007V012 P0000=
200709210752 METAR KATL 210752Z 08011KT 8SM -DZ OVC010 21/18 A3000 RMK AO2 RAB30E42DZB46 SLP151 P0000 T02060183=
200709210652 METAR KATL 210652Z 09011KT 10SM OVC012 21/18 A3002 RMK AO2 SLP156 T02110183=
200709210552 METAR KATL 210552Z 08012KT 10SM OVC014 21/18 A3003 RMK AO2 SLP159 T02110178 10239 20211 56008=
200709210550 SPECI KATL 210550Z 08012KT 10SM OVC014 21/18 A3003 RMK AO2=
200709210550 SPECI KATL 210550Z 08012KT 10SM OVC014 21/18 A3003 RMK AO2=
200709210452 METAR KATL 210452Z 08012KT 10SM BKN016 OVC025 21/18 A3004 RMK AO2 SLP162 T02110178 402720189=
200709210352 METAR KATL 210352Z 08012KT 10SM BKN018 OVC035 21/18 A3005 RMK AO2 SLP167 T02110178=
200709210341 SPECI KATL 210341Z 09011KT 10SM FEW015 BKN022 OVC040 21/18 A3005 RMK AO2=
200709210341 SPECI KATL 210341Z 09011KT 10SM FEW015 BKN022 OVC040 21/18 A3005 RMK AO2=
200709210252 METAR KATL 210252Z 07012KT 10SM FEW015 BKN030 OVC045 22/18 A3006 RMK AO2 SLP170 T02170178 51006=
200709210231 SPECI KATL 210231Z 07013KT 10SM FEW020 BKN032 OVC045 22/18 A3005 RMK AO2=
200709210231 SPECI KATL 210231Z 07013KT 10SM FEW020 BKN032 OVC045 22/18 A3005 RMK AO2=
200709210152 METAR KATL 210152Z 08016G21KT 10SM BKN028 BKN035 OVC050 23/17 A3005 RMK AO2 SLP167 T02280172=
200709210149 SPECI KATL 210149Z 07014KT 10SM BKN028 BKN035 OVC050 23/17 A3005 RMK AO2=
200709210149 SPECI KATL 210149Z 07014KT 10SM BKN028 BKN035 OVC050 23/17 A3005 RMK AO2=
200709210052 METAR KATL 210052Z 06015KT 10SM FEW025 BKN035 OVC055 23/17 A3004 RMK AO2 SLP165 T02330167=
200709202352 METAR KATL 202352Z 06011KT 10SM FEW035 BKN055 OVC070 24/17 A3003 RMK AO2 SLP162 T02390167 10272 20239 53000=
200709202252 METAR KATL 202252Z 08014KT 10SM FEW050 OVC070 24/17 A3002 RMK AO2 SLP160 BINOVC T02390167=
200709202152 METAR KATL 202152Z 06014KT 10SM FEW045 OVC060 24/17 A3003 RMK AO2 SLP161 T02440167=
200709202052 METAR KATL 202052Z 08015G19KT 10SM FEW038 OVC060 25/17 A3003 RMK AO2 SLP160 T02500167 55008=
200709201952 METAR KATL 201952Z 08010KT 10SM SCT040 BKN050 BKN200 26/16 A3003 RMK AO2 SLP160 T02560161=
200709201852 METAR KATL 201852Z 05014KT 10SM FEW040 BKN050 BKN200 26/16 A3005 RMK AO2 SLP167 T02610161=
200709201752 METAR KATL 201752Z 07014G20KT 10SM SCT040 SCT200 BKN300 26/16 A3005 RMK AO2 SLP168 T02610161 10267 20189 56018=
200709201652 METAR KATL 201652Z 05018G23KT 10SM SCT035 SCT200 BKN300 26/16 A3007 RMK AO2 SLP174 T02560156=
200709201552 METAR KATL 201552Z 06018KT 10SM FEW030 SCT200 BKN300 25/16 A3009 RMK AO2 SLP181 T02500161=
200709201452 METAR KATL 201452Z 06013G19KT 10SM FEW025 SCT250 23/16 A3011 RMK AO2 SLP188 T02280161 53003=
200709201352 METAR KATL 201352Z 07018G25KT 10SM FEW020 SCT200 SCT250 22/16 A3010 RMK AO2 PK WND 07026/1343 SLP185 T02170156=
200709201252 METAR KATL 201252Z 06015KT 10SM FEW034 SCT200 SCT250 20/16 A3010 RMK AO2 SLP187 T02000156=
200709201152 METAR KATL 201152Z 05013KT 10SM FEW034 SCT200 SCT250 19/15 A3010 RMK AO2 SLP186 T01890150 10200 20189 53006=
200709201052 METAR KATL 201052Z 06011KT 10SM FEW034 SCT200 19/15 A3009 RMK AO2 SLP180 T01890150=
200709200952 METAR KATL 200952Z 06009KT 10SM FEW035 SCT200 19/14 A3008 RMK AO2 SLP178 T01890139=
200709200852 METAR KATL 200852Z 06010KT 10SM FEW035 SCT200 19/13 A3008 RMK AO2 SLP178 T01890133 57006=
200709200752 METAR KATL 200752Z 06011KT 10SM FEW200 19/13 A3009 RMK AO2 SLP180 T01940128=
200709200652 METAR KATL 200652Z 05013KT 10SM FEW200 19/13 A3009 RMK AO2 SLP182 T01940128=
200709200552 METAR KATL 200552Z 04009KT 10SM FEW250 20/12 A3010 RMK AO2 SLP185 T02000122 10244 20200 57007=
200709200452 METAR KATL 200452Z 05008KT 10SM CLR 21/12 A3010 RMK AO2 SLP186 T02060117 402780156=
200709200352 METAR KATL 200352Z 06009KT 10SM CLR 21/11 A3012 RMK AO2 SLP192 T02110111=
200709200252 METAR KATL 200252Z 05010KT 10SM FEW250 22/11 A3012 RMK AO2 SLP193 T02220106 50006=
200709200152 METAR KATL 200152Z 07009KT 10SM FEW250 22/11 A3013 RMK AO2 SLP198 T02220111=
200709200052 METAR KATL 200052Z 07010KT 10SM FEW250 23/11 A3012 RMK AO2 SLP193 T02330111=
200709192352 METAR KATL 192352Z 06009KT 10SM FEW250 24/11 A3011 RMK AO2 SLP188 T02440111 10278 20244 55000=
200709192252 METAR KATL 192252Z 06013KT 10SM FEW200 26/10 A3010 RMK AO2 SLP185 T02610100=
200709192152 METAR KATL 192152Z 05008G19KT 10SM FEW200 27/10 A3010 RMK AO2 SLP185 T02720100=
200709192052 METAR KATL 192052Z 05006KT 10SM FEW200 27/11 A3011 RMK AO2 SLP187 T02720111 56021=
200709191952 METAR KATL 191952Z 07008KT 10SM FEW200 27/12 A3012 RMK AO2 SLP191 T02670117=
200709191852 METAR KATL 191852Z 03007KT 10SM FEW200 26/11 A3014 RMK AO2 SLP198 T02610106=
200709191752 METAR KATL 191752Z 06011G16KT 10SM FEW200 25/11 A3017 RMK AO2 SLP210 T02500111 10250 20156 58018=
200709191652 METAR KATL 191652Z 08009G18KT 10SM FEW200 23/12 A3020 RMK AO2 SLP219 T02330117=
200709191552 METAR KATL 191552Z 07011KT 10SM FEW200 22/12 A3022 RMK AO2 SLP227 T02220117=
200709191452 METAR KATL 191452Z 07009KT 10SM FEW200 21/12 A3022 RMK AO2 SLP229 T02060122 50000=
200709191352 METAR KATL 191352Z 07013KT 10SM FEW200 19/12 A3023 RMK AO2 SLP229 T01890122=
200709191252 METAR KATL 191252Z 07012KT 10SM FEW200 17/11 A3023 RMK AO2 SLP230 T01720111=
200709191152 METAR KATL 191152Z 06011KT 10SM FEW250 16/11 A3022 RMK AO2 SLP230 T01560111 10172 20156 53012=
200709191052 METAR KATL 191052Z 06007KT 10SM CLR 16/11 A3021 RMK AO2 SLP223 T01560111=
200709190952 METAR KATL 190952Z 06010KT 10SM CLR 16/11 A3019 RMK AO2 SLP217 T01610106=
200709190852 METAR KATL 190852Z 06009KT 10SM CLR 17/11 A3019 RMK AO2 SLP215 T01670106 56004=
200709190752 METAR KATL 190752Z 07009KT 10SM CLR 17/11 A3019 RMK AO2 SLP215 T01670106=
200709190652 METAR KATL 190652Z 07010KT 10SM CLR 17/11 A3019 RMK AO2 SLP215 T01720111=
200709190552 METAR KATL 190552Z 08008KT 10SM CLR 18/11 A3020 RMK AO2 SLP219 T01780111 10217 20178 58002=
200709190452 METAR KATL 190452Z 06008KT 10SM CLR 19/11 A3021 RMK AO2 SLP224 T01890111 402610156=
200709190352 METAR KATL 190352Z 05008KT 10SM CLR 19/11 A3021 RMK AO2 SLP223 T01940111=
200709190252 METAR KATL 190252Z 06007KT 10SM CLR 20/12 A3020 RMK AO2 SLP222 T02000117 51009=
200709190152 METAR KATL 190152Z 07010KT 10SM CLR 21/11 A3020 RMK AO2 SLP220 T02060111=
200709190052 METAR KATL 190052Z 08009KT 10SM CLR 21/11 A3019 RMK AO2 SLP218 T02110111=
200709182352 METAR KATL 182352Z 09008KT 10SM CLR 22/11 A3018 RMK AO2 SLP214 T02170111 10261 20217 58002=
200709182252 METAR KATL 182252Z 08009KT 10SM CLR 24/11 A3018 RMK AO2 SLP214 T02390111=
200709182152 METAR KATL 182152Z 09008KT 10SM CLR 26/11 A3018 RMK AO2 SLP213 T02560106=
200709182052 METAR KATL 182052Z 06009KT 10SM CLR 25/11 A3018 RMK AO2 SLP214 T02500111 56021=
200709181952 METAR KATL 181952Z 05008G15KT 10SM SKC 26/12 A3020 RMK SLP218 T02560122=
200709181852 METAR KATL 181852Z 10010G14KT 10SM CLR 25/11 A3021 RMK AO2 SLP224 T02500111=
200709181752 METAR KATL 181752Z 07011G16KT 10SM FEW240 24/12 A3025 RMK AO2 SLP236 T02440117 10244 20161 58013=
200709181652 METAR KATL 181652Z 07012G15KT 10SM FEW240 23/12 A3027 RMK AO2 SLP243 T02330117=
200709181552 METAR KATL 181552Z 10012KT 10SM FEW240 22/11 A3028 RMK AO2 SLP248 T02220111=
200709181452 METAR KATL 181452Z 07015KT 10SM FEW250 21/11 A3029 RMK AO2 SLP250 T02060111 50005=
200709181352 METAR KATL 181352Z 08012KT 10SM FEW250 19/11 A3029 RMK AO2 SLP251 T01890106=
200709181252 METAR KATL 181252Z 07012KT 10SM CLR 17/11 A3028 RMK AO2 SLP249 T01720111=
200709181152 METAR KATL 181152Z 06011KT 10SM CLR 16/11 A3027 RMK AO2 SLP244 T01610111 10178 20156 53012=
200709181052 METAR KATL 181052Z 06011KT 10SM CLR 16/12 A3025 RMK AO2 SLP239 T01610117=
200709180952 METAR KATL 180952Z 07008KT 10SM CLR 17/12 A3024 RMK AO2 SLP233 T01670117=
200709180852 METAR KATL 180852Z 07008KT 10SM CLR 17/12 A3023 RMK AO2 SLP231 T01670122 55000=
200709180752 METAR KATL 180752Z 08006KT 10SM CLR 17/12 A3022 RMK AO2 SLP228 T01670122=
200709180652 METAR KATL 180652Z 09008KT 10SM CLR 17/12 A3022 RMK AO2 SLP227 T01720122=
200709180552 METAR KATL 180552Z 08009KT 10SM CLR 18/13 A3023 RMK AO2 SLP231 T01780128 10222 20178 53001=
200709180452 METAR KATL 180452Z 08009KT 10SM CLR 18/13 A3023 RMK AO2 SLP229 T01830133 402560172=
200709180352 METAR KATL 180352Z 07008KT 10SM CLR 19/13 A3024 RMK AO2 SLP232 T01940133=
200709180252 METAR KATL 180252Z 08008KT 10SM CLR 19/13 A3023 RMK AO2 SLP231 T01940133 51008=
200709180152 METAR KATL 180152Z 08007KT 10SM FEW250 21/13 A3023 RMK AO2 SLP230 T02060133=
200709180052 METAR KATL 180052Z 09007KT 10SM FEW250 22/13 A3021 RMK AO2 SLP225 T02170133 $=
200709172352 METAR KATL 172352Z 08006KT 10SM FEW250 22/13 A3021 RMK AO2 SLP223 T02220133 10256 20222 53001=
200709172252 METAR KATL 172252Z 11008KT 10SM FEW050 24/13 A3019 RMK AO2 SLP217 T02390133=
200709172152 METAR KATL 172152Z 08008KT 10SM FEW050 25/13 A3019 RMK AO2 SLP216 T02500133=
200709172052 METAR KATL 172052Z 00000KT 10SM FEW050 25/13 A3020 RMK AO2 SLP221 T02500133 56019=
200709171952 METAR KATL 171952Z 11006KT 10SM FEW048 25/13 A3021 RMK AO2 SLP224 T02500128=
200709171852 METAR KATL 171852Z 11009KT 10SM FEW050 SCT060 25/13 A3023 RMK AO2 SLP231 T02500133=
200709171752 METAR KATL 171752Z 12007KT 10SM FEW040 SCT050 24/13 A3026 RMK AO2 SLP240 T02440133 10244 20172 58008=
200709171652 METAR KATL 171652Z 07010KT 10SM BKN050 23/13 A3028 RMK AO2 SLP246 T02330128=
200709171552 METAR KATL 171552Z 09009KT 10SM FEW040 23/13 A3029 RMK AO2 SLP250 T02280128=
200709171452 METAR KATL 171452Z 07013G17KT 10SM BKN040 21/13 A3028 RMK AO2 SLP250 T02060133 51013=
200709171352 METAR KATL 171352Z 07012KT 10SM SCT040 19/13 A3027 RMK AO2 SLP246 T01940133=
200709171252 METAR KATL 171252Z 07010KT 10SM FEW050 18/13 A3027 RMK AO2 SLP243 T01830133=
200709171152 METAR KATL 171152Z 07009KT 10SM FEW024 SCT055 17/13 A3024 RMK AO2 SLP236 T01720133 10189 20172 53017=
200709171052 METAR KATL 171052Z 07009KT 10SM FEW038 18/14 A3022 RMK AO2 SLP228 T01780139=
200709170952 METAR KATL 170952Z 07005KT 10SM OVC038 18/14 A3020 RMK AO2 SLP221 T01830144=
200709170852 METAR KATL 170852Z 09006KT 10SM BKN034 BKN055 18/14 A3019 RMK AO2 SLP217 T01830144 55000=
200709170752 METAR KATL 170752Z 09007KT 10SM FEW034 SCT055 18/14 A3019 RMK AO2 SLP216 T01780144=
200709170652 METAR KATL 170652Z 09009KT 10SM FEW038 BKN055 18/14 A3019 RMK AO2 SLP219 T01830144=
200709170552 METAR KATL 170552Z 08006KT 10SM SCT055 18/14 A3019 RMK AO2 SLP218 T01830144 10211 20183 51003=
200709170452 METAR KATL 170452Z 09006KT 10SM BKN055 BKN150 BKN200 19/14 A3019 RMK AO2 SLP218 T01890144 402440167=
200709170352 METAR KATL 170352Z 10006KT 10SM SCT055 SCT150 BKN200 19/14 A3019 RMK AO2 SLP218 T01940144=
200709170252 METAR KATL 170252Z 10005KT 10SM SCT050 SCT150 BKN200 19/15 A3018 RMK AO2 SLP215 T01940150 53009=
200709170152 METAR KATL 170152Z 07010KT 10SM SCT150 SCT200 BKN250 21/15 A3017 RMK AO2 SLP210 T02060150=
200709170052 METAR KATL 170052Z 07010KT 10SM SCT150 BKN200 BKN250 21/14 A3016 RMK AO2 SLP207 T02110144=
200709162352 METAR KATL 162352Z 08007KT 9SM SCT150 BKN200 OVC250 21/14 A3016 RMK AO2 SLP207 T02110144 10244 20211 53007 $=
200709162252 METAR KATL 162252Z 09008KT 10SM BKN035 BKN150 22/14 A3015 RMK AO2 SLP203 BKN035 V SCT T02220144 $=
200709162152 METAR KATL 162152Z COR 12008KT 9SM BKN030 BKN035 23/15 A3014 RMK AO2 SLP201 BKN030 V SCT T02330150 $=
200709162052 METAR KATL 162052Z 08007KT 9SM BKN031 BKN043 23/15 A3014 RMK AO2 SLP199 T02330150 58011 $=
200709161952 METAR KATL 161952Z 07007KT 10SM SCT033 SCT250 24/14 A3015 RMK AO2 SLP201 T02390144 $=
200709161852 METAR KATL 161852Z 08006KT 10SM BKN031 23/14 A3017 RMK AO2 SLP209 T02280144 $=
200709161847 SPECI KATL 161847Z 08008KT 10SM BKN031 23/14 A3017 RMK AO2 $=
200709161847 SPECI KATL 161847Z 08008KT 10SM BKN031 23/14 A3017 RMK AO2 $=
200709161752 METAR KATL 161752Z 08007KT 10SM OVC026 22/14 A3018 RMK AO2 SLP214 T02220139 10228 20167 58007 $=
200709161652 METAR KATL 161652Z 08008KT 050V110 10SM BKN024 22/13 A3019 RMK AO2 SLP217 T02220133 $=
200709161552 METAR KATL 161552Z 08008KT 10SM BKN024 21/12 A3020 RMK AO2 SLP221 T02110122 $=
200709161452 METAR KATL 161452Z 07013KT 10SM BKN024 BKN044 20/11 A3020 RMK AO2 SLP221 T02000106 51013 $=
200709161424 SPECI KATL 161424Z 08013KT 10SM BKN024 BKN044 19/10 A3020 RMK AO2 $=
200709161424 SPECI KATL 161424Z 08013KT 10SM BKN024 BKN044 19/10 A3020 RMK AO2 $=
200709161352 METAR KATL 161352Z 08013KT 10SM SCT024 BKN044 18/08 A3020 RMK AO2 SLP220 T01830083 $=
200709161252 METAR KATL 161252Z 07013KT 10SM FEW040 SCT120 SCT250 17/07 A3019 RMK AO2 SLP217 T01720072 $=
200709161152 METAR KATL 161152Z 07012KT 10SM FEW250 17/07 A3016 RMK AO2 SLP209 T01670072 10178 20167 53016 $=
200709161052 METAR KATL 161052Z 07011KT 10SM FEW250 17/07 A3015 RMK AO2 SLP202 T01670072 $=
200709160952 METAR KATL 160952Z 07011KT 10SM FEW250 17/07 A3013 RMK AO2 SLP196 T01720072 $=
200709160852 METAR KATL 160852Z 07009KT 10SM CLR 18/08 A3012 RMK AO2 SLP190 T01780083 53001 $=
200709160752 METAR KATL 160752Z 08010KT 10SM CLR 18/09 A3010 RMK AO2 SLP184 T01780089 $=
200709160652 METAR KATL 160652Z 07008KT 10SM CLR 18/09 A3011 RMK AO2 SLP189 T01780094 $=
200709160552 METAR KATL 160552Z 02006KT 10SM SCT050 17/08 A3011 RMK AO2 SLP190 T01720078 10222 20161 56001 $=
200709160452 METAR KATL 160452Z 36005KT 10SM FEW120 17/08 A3011 RMK AO2 SLP190 T01670078 402780161 $=
200709160352 METAR KATL 160352Z 34007KT 10SM FEW250 17/07 A3011 RMK AO2 SLP191 T01720067 $=
200709160252 METAR KATL 160252Z 33008KT 10SM CLR 18/07 A3011 RMK AO2 SLP192 T01830067 51009 $=
200709160152 METAR KATL 160152Z 33010KT 10SM CLR 19/07 A3011 RMK AO2 SLP191 T01940067 $=
200709160052 METAR KATL 160052Z 33008KT 10SM FEW250 21/07 A3010 RMK AO2 SLP188 T02060072 $=
200709152352 METAR KATL 152352Z 33008KT 10SM FEW250 22/07 A3009 RMK AO2 SLP182 T02220072 10278 20222 53007 $=
200709152252 METAR KATL 152252Z 33009KT 10SM FEW250 25/04 A3007 RMK AO2 SLP177 T02500044 $=
200709152152 METAR KATL 152152Z 31011KT 10SM FEW250 26/06 A3007 RMK AO2 SLP173 T02610061 $=
200709152052 METAR KATL 152052Z 32009KT 10SM FEW250 27/06 A3006 RMK AO2 SLP173 T02720061 56010 $=
200709151952 METAR KATL 151952Z 32009G17KT 10SM FEW080 27/08 A3007 RMK AO2 SLP173 T02720078 $=
200709151852 METAR KATL 151852Z 30007G15KT 10SM FEW050 27/13 A3008 RMK AO2 SLP179 T02670133 $=
200709151752 METAR KATL 151752Z 34008KT 10SM FEW035 26/16 A3009 RMK AO2 SLP183 T02610161 10261 20189 58007 $=
200709151652 METAR KATL 151652Z 35012KT 10SM SCT030 25/17 A3010 RMK AO2 SLP185 T02500167 $=
200709151552 METAR KATL 151552Z 33008KT 10SM FEW020 24/19 A3012 RMK AO2 SLP190 T02390189 $=
200709151452 METAR KATL 151452Z 31007KT 7SM SCT012 22/19 A3011 RMK AO2 SLP191 T02220189 53016 $=
200709151439 SPECI KATL 151439Z 31008KT 6SM HZ SCT011 22/19 A3011 RMK AO2 $=
200709151439 SPECI KATL 151439Z 31008KT 6SM HZ SCT011 22/19 A3011 RMK AO2 $=
200709151421 SPECI KATL 151421Z 33011KT 3SM HZ SCT009 21/18 A3011 RMK AO2 SFC VIS 6 $=
200709151421 SPECI KATL 151421Z 33011KT 3SM HZ SCT009 21/18 A3011 RMK AO2 SFC VIS 6 $=
200709151352 METAR KATL 151352Z 33011KT 3SM BR BKN007 21/18 A3010 RMK AO2 SFC VIS 5 SLP186 T02060183 $=
200709151259 SPECI KATL 151259Z 33007KT 3SM BR BKN007 BKN012 20/19 A3008 RMK AO2 SFC VIS 5 $=
200709151259 SPECI KATL 151259Z 33007KT 3SM BR BKN007 BKN012 20/19 A3008 RMK AO2 SFC VIS 5 $=
200709151252 METAR KATL 151252Z 33008KT 3SM BR SCT006 BKN012 BKN180 20/19 A3008 RMK AO2 SFC VIS 5 SLP179 T02000189 $=
200709151200 SPECI KATL 151200Z 31004KT 3SM BR BKN006 19/18 A3007 RMK AO2 SFC VIS 4 $=
200709151200 SPECI KATL 151200Z 31004KT 3SM BR BKN006 19/18 A3007 RMK AO2 SFC VIS 4 $=
200709151152 METAR KATL 151152Z 32005KT 3SM BR SCT005 18/18 A3007 RMK AO2 SFC VIS 4 SLP175 70092 T01830178 10194 20183 53016 $=
200709151052 METAR KATL 151052Z 33005KT 5SM BR SCT004 18/17 A3005 RMK AO2 SLP169 T01830172=
200709150952 METAR KATL 150952Z 33007KT 5SM BR SCT004 18/17 A3003 RMK AO2 SLP162 T01830172=
200709150852 METAR KATL 150852Z 32006KT 7SM CLR 18/18 A3002 RMK AO2 SLP158 T01830178 55002=
200709150752 METAR KATL 150752Z 32006KT 7SM CLR 19/18 A3002 RMK AO2 SLP156 T01890178=
200709150652 METAR KATL 150652Z 32007KT 8SM FEW250 19/18 A3002 RMK AO2 SLP157 T01890183=
200709150552 METAR KATL 150552Z COR 33007KT 9SM FEW250 19/18 A3002 RMK AO2 SLP158 60000 T01940183 10228 20194 50005=
200709150452 METAR KATL 150452Z COR 33008KT 10SM SCT250 20/18 A3003 RMK AO2 SLP160 T02000183 402720200=
200709150352 METAR KATL 150352Z 33009KT 10SM FEW005 BKN250 20/19 A3002 RMK AO2 SLP157 T02000189=
200709150252 METAR KATL 150252Z 33007KT 10SM FEW006 SCT250 21/19 A3001 RMK AO2 SLP153 60000 T02060194 51013=
200709150152 METAR KATL 150152Z 32006KT 10SM FEW006 BKN250 22/21 A2999 RMK AO2 SLP149 T02170211 PNO $=
200709150052 METAR KATL 150052Z COR 33008KT 10SM FEW006 SCT015 BKN150 BKN200 22/21 A2998 RMK AO2 RAB33E50 SLP145 T02220211 P0000 PNO $=
200709150033 SPECI KATL 150033Z 29007KT 10SM -RA SCT006 BKN014 BKN060 OVC150 23/21 A2998 RMK AO2 RAB33 PNO $=
200709150033 SPECI KATL 150033Z 29007KT 10SM -RA SCT006 BKN014 BKN060 OVC150 23/21 A2998 RMK AO2 RAB33 PNO $=
200709150016 SPECI KATL 150016Z 26006KT 10SM FEW005 BKN022 BKN060 OVC150 22/21 A2998 RMK AO2 PNO $=
200709150016 SPECI KATL 150016Z 26006KT 10SM FEW005 BKN022 BKN060 OVC150 22/21 A2998 RMK AO2 PNO $=
200709142352 METAR KATL 142352Z 21007KT 10SM FEW007 BKN055 BKN080 OVC150 22/21 A2997 RMK AO2 SLP141 60092 T02170211 10267 20217 53008 PNO $=
200709142316 SPECI KATL 142316Z 22006KT 10SM FEW007 SCT030 BKN080 BKN150 BKN200 22/21 A2996 RMK AO2 PNO $=
200709142316 SPECI KATL 142316Z 22006KT 10SM FEW007 SCT030 BKN080 BKN150 BKN200 22/21 A2996 RMK AO2 PNO $=
200709142252 METAR KATL 142252Z 25004KT 10SM FEW007 BKN015 BKN100 OVC150 23/21 A2996 RMK AO2 SLP138 T02280211 PNO $=
200709142152 METAR KATL 142152Z 26005KT 10SM SCT010 BKN040 BKN100 BKN150 OVC200 23/22 A2994 RMK AO2 WSHFT 2052 TSE33RAE33 SLP131 TS MOV E FRQ LTG DSNT SE-S P0010 T02330222 PNO $=
200709142133 SPECI KATL 142133Z 32003KT 10SM FEW010 SCT040 BKN150 OVC200 23/22 A2993 RMK AO2 WSHFT 2052 TSE33RAE33 TS MOV E FRQ LTG DSNT SE-S P0010 PNO $=
200709142133 SPECI KATL 142133Z 32003KT 10SM FEW010 SCT040 BKN150 OVC200 23/22 A2993 RMK AO2 WSHFT 2052 TSE33RAE33 TS MOV E FRQ LTG DSNT SE-S P0010 PNO $=
200709142108 SPECI KATL 142108Z 32003KT 5SM -TSRA FEW002 SCT015CB BKN040 BKN150 BKN250 A2994 RMK AO2 WSHFT 2052 FRQ LTGICCG TS NE DSNT NE-S MOV NE CB NE DSNT NE-S MOV NE P0009 PNO $=
200709142108 SPECI KATL 142108Z 32003KT 5SM -TSRA FEW002 SCT015CB BKN040 BKN150 BKN250 A2994 RMK AO2 WSHFT 2052 FRQ LTGICCG TS NE DSNT NE-S MOV NE CB NE DSNT NE-S MOV NE P0009 PNO $=
200709142103 SPECI KATL 142103Z 24012KT 4SM TSRA BR FEW010CB BKN030 OVC043 23/22 A2994 RMK AO2 FRQ LTGICCG TS OHD-N-NE DSNT NE-S MOV NE CB OHD-N-NE DSNT NE-S MOV NE P0006 PNO $=
200709142103 SPECI KATL 142103Z 24012KT 4SM TSRA BR FEW010CB BKN030 OVC043 23/22 A2994 RMK AO2 FRQ LTGICCG TS OHD-N-NE DSNT NE-S MOV NE CB OHD-N-NE DSNT NE-S MOV NE P0006 PNO $=
200709142055 SPECI KATL 142055Z 24012KT 4SM -TSRA BR FEW004 BKN015CB OVC048 23/22 A2995 RMK AO2 CNS LTCICCG TS OHD-NE-S MOV NE CB OHD-NE-S MOV NE PNO $=
200709142055 SPECI KATL 142055Z 24012KT 4SM -TSRA BR FEW004 BKN015CB OVC048 23/22 A2995 RMK AO2 CNS LTCICCG TS OHD-NE-S MOV NE CB OHD-NE-S MOV NE PNO $=
200709142052 METAR KATL 142052Z 25012KT 9SM -TSRA SCT017CB BKN030 OVC040 23/22 A2994 RMK AO2 TSB12RAB11 SLP131 VIS LWR NE-S SHRA CNS LTGICCG TS=
200709142040 SPECI KATL 142040Z 23008G30KT 9SM R09R/2400VP6000FT -TSRA BKN017CB BKN024 OVC055 24/21 A2993 RMK AO2 PK WND 21030/2032 TSB12RAB11 VIS LWR NE-S SHRA FRQ LTGICCG TS NE-S MOV NE CB=
200709142040 SPECI KATL 142040Z 23008G30KT 9SM R09R/2400VP6000FT -TSRA BKN017CB BKN024 OVC055 24/21 A2993 RMK AO2 PK WND 21030/2032 TSB12RAB11 VIS LWR NE-S SHRA FRQ LTGICCG TS NE-S MOV NE CB NE-S MOV NE P0069 $=
200709142033 SPECI KATL 142033Z 19017G30KT 1 1/2SM R09R/1600VP6000FT +TSRA BR BKN012CB BKN024 OVC055 23/22 A2993 RMK AO2 PK WND 21030/2032 SFC VIS 2 TSB12RAB11 FRQ LTGICCG TS OHD-NE-SW MOV NE CB OHD-NE-SW MOV NE P0058=
200709142033 SPECI KATL 142033Z 19017G30KT 1 1/2SM R09R/1600VP6000FT +TSRA BR BKN012CB BKN024 OVC055 23/22 A2993 RMK AO2 PK WND 21030/2032 SFC VIS 2 TSB12RAB11 FRQ LTGICCG TS OHD-NE-SW MOV NE CB OHD-NE-SW MOV NE P0058=
200709142031 SPECI KATL 142031Z 22011G24KT 1/2SM R09R/1600VP6000FT +TSRA FG SCT010 BKN016CB OVC050 23/22 A2992 RMK AO2 TWR VIS 1 1/2 TSB12RAB11 FRQ LTGICCG TS OHD-NE-SW MOV NE CB OHD-NE-SW MOV NE P0058=
200709142031 SPECI KATL 142031Z 22011G24KT 1/2SM R09R/1600VP6000FT +TSRA FG SCT010 BKN016CB OVC050 23/22 A2992 RMK AO2 TWR VIS 1 1/2 TSB12RAB11 FRQ LTGICCG TS OHD-NE-SW MOV NE CB OHD-NE-SW MOV NE P0058=
200709142027 SPECI KATL 142027Z 01007G19KT 320V040 1/4SM R09R/1600V5500FT +TSRA FG BKN012CB BKN024 OVC050 23/22 A2995 RMK AO2 TWR VIS 1 1/2 TSB12RAB11 PRESRR FRQ LTGICCG TS OHD ALQDS MOV NE CB OHD ALQDS MOV NE P0033=
200709142027 SPECI KATL 142027Z 01007G19KT 320V040 1/4SM R09R/1600V5500FT +TSRA FG BKN012CB BKN024 OVC050 23/22 A2995 RMK AO2 TWR VIS 1 1/2 TSB12RAB11 PRESRR FRQ LTGICCG TS OHD ALQDS MOV NE CB OHD ALQDS MOV NE P0033=
200709142025 SPECI KATL 142025Z 31015G19KT 1/2SM R09R/2000V5500FT +TSRA FG FEW014 BKN024CB OVC075 23/22 A2995 RMK AO2 TWR VIS 1 1/2 TSB12RAB11 PRESRR FRQ LTGICCG TS OHD ALQDS MOV NE CB OHD ALQDS MOV NE P0024=
200709142025 SPECI KATL 142025Z 31015G19KT 1/2SM R09R/2000V5500FT +TSRA FG FEW014 BKN024CB OVC075 23/22 A2995 RMK AO2 TWR VIS 1 1/2 TSB12RAB11 PRESRR FRQ LTGICCG TS OHD ALQDS MOV NE CB OHD ALQDS MOV NE P0024=
200709142021 SPECI KATL 142021Z 34008KT 1SM R09R/4000VP6000FT +TSRA BR SCT020CB BKN030 OVC090 24/23 A2993 RMK AO2 TWR VIS 1 1/2 TSB12RAB11 FRQ LTGICCG TS OHD-SW-NW MOV NE CB-OHD-SW-NW MOV NE P0015=
200709142021 SPECI KATL 142021Z 34008KT 1SM R09R/4000VP6000FT +TSRA BR SCT020CB BKN030 OVC090 24/23 A2993 RMK AO2 TWR VIS 1 1/2 TSB12RAB11 FRQ LTGICCG TS OHD-SW-NW MOV NE CB-OHD-SW-NW MOV NE P0015=
200709142014 SPECI KATL 142014Z 00000KT 4SM TSRA FEW020CB BKN060 BKN090 BKN150 BKN250 26/22 A2992 RMK AO2 TSB12RAB11 OCNL LTGIC TS OHD-SW-NW 18SM DSNT W MOV NE CB-OHD-SW-NW AND DSNT W MOV NE P0000=
200709142014 SPECI KATL 142014Z 00000KT 4SM TSRA FEW020CB BKN060 BKN090 BKN150 BKN250 26/22 A2992 RMK AO2 TSB12RAB11 OCNL LTGIC TS OHD-SW-NW 18SM DSNT W MOV NE CB-OHD-SW-NW AND DSNT W MOV NE P0000=
200709141952 METAR KATL 141952Z COR 12004KT 10SM FEW020CB SCT085 BKN150 BKN250 26/22 A2993 RMK AO2 SLP127 CB VC SW-W DSNT SW-N MOV NE T02560222=
200709141939 SPECI KATL 141939Z 13006KT 10SM FEW015 SCT030 SCT150 BKN250 26/22 A2994 RMK AO2 LTG DSNT NE SW-NW CB DSNT NE-E SW-NW MOV NE=
200709141939 SPECI KATL 141939Z 13006KT 10SM FEW015 SCT030 SCT150 BKN250 26/22 A2994 RMK AO2 LTG DSNT NE SW-NW CB DSNT NE-E SW-NW MOV NE=
200709141920 SPECI KATL 141920Z 14005KT 10SM FEW015 SCT028 BKN036 BKN150 26/23 A2995 RMK AO2 LTG DSNT N TS 16SM DSNT N MOV NE CB DSNT N DSNT SW-NW MOV NE=
200709141920 SPECI KATL 141920Z 14005KT 10SM FEW015 SCT028 BKN036 BKN150 26/23 A2995 RMK AO2 LTG DSNT N TS 16SM DSNT N MOV NE CB DSNT N DSNT SW-NW MOV NE=
200709141904 SPECI KATL 141904Z 17006KT 10SM FEW017CB SCT030 BKN100 BKN150 26/23 A2995 RMK AO2 LTG DSNT N CB 7SM VC E DSNT N MOV NE=
200709141904 SPECI KATL 141904Z 17006KT 10SM FEW017CB SCT030 BKN100 BKN150 26/23 A2995 RMK AO2 LTG DSNT N CB 7SM VC E DSNT N MOV NE=
200709141852 METAR KATL 141852Z 17007KT 10SM FEW020CB SCT040TCU BKN100 BKN150 26/22 A2996 RMK AO2 RAB1758E18B34E48 SLP135 LTG DSNT E NW CB 9SM VC NE 6SM VC SE DSNT E NW MOV NE TCU S P0010 T02610222=
200709141835 SPECI KATL 141835Z 21008KT 9SM -RA FEW023CB SCT040TCU BKN100 BKN150 26/22 A2997 RMK AO2 RAB1758E18B34 VIS LWR SE-SW SHRA CB DSNT=
200709141835 SPECI KATL 141835Z 21008KT 9SM -RA FEW023CB SCT040TCU BKN100 BKN150 26/22 A2997 RMK AO2 RAB1758E18B34 VIS LWR SE-SW SHRA CB DSNT=
200709141813 SPECI KATL 141813Z VRB05KT 10SM R09R/4500VP6000FT -RA SCT023CB BKN032 BKN042 BKN150 26/22 A2998 RMK AO2 RAB1758 VIS N-E 1/2SM SHRA CB N-NE VC E SE MOV NE TCU S P0008=
200709141813 SPECI KATL 141813Z VRB05KT 10SM R09R/4500VP6000FT -RA SCT023CB BKN032 BKN042 BKN150 26/22 A2998 RMK AO2 RAB1758 VIS N-E 1/2SM SHRA CB N-NE VC E SE MOV NE TCU S P0008=
200709141802 SPECI KATL 141802Z 16011KT 1/2SM R09R/4000VP6000FT +RA SCT025CB BKN034 BKN046 BKN150 26/22 A2998 RMK AO2 SFC VIS 3 RAB1758 CB OHD-E-SW MOV NE P0001=
200709141802 SPECI KATL 141802Z 16011KT 1/2SM R09R/4000VP6000FT +RA SCT025CB BKN034 BKN046 BKN150 26/22 A2998 RMK AO2 SFC VIS 3 RAB1758 CB OHD-E-SW MOV NE P0001=
200709141801 SPECI KATL 141801Z 16010KT 5SM R09R/4000VP6000FT -RA SCT025CB BKN034 BKN046 BKN150 26/22 A2998 RMK AO2 RAB1758 CB OHD-E-SW MOV NE P0000=
200709141801 SPECI KATL 141801Z 16010KT 5SM R09R/4000VP6000FT -RA SCT025CB BKN034 BKN046 BKN150 26/22 A2998 RMK AO2 RAB1758 CB OHD-E-SW MOV NE P0000=
200709141752 METAR KATL 141752Z 17005KT 10SM SCT025TCU BKN040 BKN050 BKN150 27/21 A2998 RMK AO2 SLP143 TCU NE-E SE-SW NW SHRA NE-E SE-SW NW T02670211 10272 20217 58024=
200709141732 SPECI KATL 141732Z 19009KT 150V210 10SM SCT025 BKN050 BKN090 BKN150 27/21 A2999 RMK AO2=
200709141732 SPECI KATL 141732Z 19009KT 150V210 10SM SCT025 BKN050 BKN090 BKN150 27/21 A2999 RMK AO2=
200709141652 METAR KATL 141652Z 19006KT 10SM BKN016 BKN025 BKN150 26/22 A3001 RMK AO2 SLP153 T02560217=
200709141610 SPECI KATL 141610Z 19007KT 10SM SCT011 SCT018 BKN030 BKN150 24/22 A3003 RMK AO2=
200709141610 SPECI KATL 141610Z 19007KT 10SM SCT011 SCT018 BKN030 BKN150 24/22 A3003 RMK AO2=
200709141552 METAR KATL 141552Z 18006KT 10SM BKN011 BKN018 OVC024 24/22 A3004 RMK AO2 SLP163 BINOVC T02390217=
200709141541 SPECI KATL 141541Z 18005KT 10SM BKN011 OVC018 24/22 A3005 RMK AO2 BINOVC=
200709141541 SPECI KATL 141541Z 18005KT 10SM BKN011 OVC018 24/22 A3005 RMK AO2 BINOVC=
200709141526 SPECI KATL 141526Z 19007KT 10SM OVC009 23/21 A3005 RMK AO2 CIG 008V013=
200709141526 SPECI KATL 141526Z 19007KT 10SM OVC009 23/21 A3005 RMK AO2 CIG 008V013=
200709141452 METAR KATL 141452Z 20005KT 9SM OVC011 23/21 A3006 RMK AO2 CIG 006V013 SLP169 T02330211 53007=
200709141430 SPECI KATL 141430Z 18004KT 9SM BKN009 OVC014 23/21 A3005 RMK AO2 CIG 006V011=
200709141430 SPECI KATL 141430Z 18004KT 9SM BKN009 OVC014 23/21 A3005 RMK AO2 CIG 006V011=
200709141352 METAR KATL 141352Z 19004KT 7SM OVC005 22/21 A3005 RMK AO2 SLP166 T02220211=
200709141252 METAR KATL 141252Z 20004KT 10SM OVC005 22/21 A3003 RMK AO2 SLP162 T02220211=
200709141152 METAR KATL 141152Z 20005KT 10SM OVC007 22/21 A3003 RMK AO2 SLP162 70164 T02170206 10217 20217 53001=
200709141052 METAR KATL 141052Z 19007KT 10SM OVC006 22/21 A3003 RMK AO2 CIG 004V008 SLP160 T02170206=
200709140952 METAR KATL 140952Z 19004KT 10SM BKN006 OVC009 22/21 A3003 RMK AO2 CIG 004V007 SLP162 T02170206=
200709140852 METAR KATL 140852Z 18003KT 10SM BKN008 OVC055 22/21 A3003 RMK AO2 CIG 004V011 SLP161 T02170206 56006=
200709140845 SPECI KATL 140845Z 00000KT 10SM FEW004 BKN010 BKN055 OVC140 22/21 A3003 RMK AO2=
200709140845 SPECI KATL 140845Z 00000KT 10SM FEW004 BKN010 BKN055 OVC140 22/21 A3003 RMK AO2=
200709140822 SPECI KATL 140822Z 00000KT 10SM SCT004 BKN140 BKN250 22/21 A3003 RMK AO2=
200709140822 SPECI KATL 140822Z 00000KT 10SM SCT004 BKN140 BKN250 22/21 A3003 RMK AO2=
200709140752 METAR KATL 140752Z 18007KT 10SM OVC004 22/21 A3003 RMK AO2 CIG 003V006 SLP162 T02170206=
200709140740 SPECI KATL 140740Z 18006KT 10SM OVC004 22/21 A3003 RMK AO2=
200709140740 SPECI KATL 140740Z 18006KT 10SM OVC004 22/21 A3003 RMK AO2=
200709140705 SPECI KATL 140705Z 16004KT 9SM FEW004 BKN008 OVC012 22/21 A3004 RMK AO2=
200709140705 SPECI KATL 140705Z 16004KT 9SM FEW004 BKN008 OVC012 22/21 A3004 RMK AO2=
200709140652 METAR KATL 140652Z 16005KT 8SM BKN004 OVC008 22/21 A3004 RMK AO2 CIG 003V006 SLP165 T02170211=
200709140552 METAR KATL 140552Z 14005KT 7SM OVC004 22/21 A3005 RMK AO2 RAE0457 SLP165 P0000 60014 T02170211 10222 20217 58009=
200709140536 SPECI KATL 140536Z 14004KT 6SM BR OVC004 22/21 A3005 RMK AO2 RAE0457 P0000=
200709140536 SPECI KATL 140536Z 14004KT 6SM BR OVC004 22/21 A3005 RMK AO2 RAE0457 P0000=
200709140452 METAR KATL 140452Z 14007KT 7SM -RA OVC005 22/21 A3006 RMK AO2 SLP169 P0001 T02170211 402940206=
200709140352 METAR KATL 140352Z 16004KT 7SM -RA OVC005 22/21 A3007 RMK AO2 RAB04 CIG 003V009 SLP173 P0001 T02220211=
200709140252 METAR KATL 140252Z 13004KT 6SM BR BKN005 OVC020 22/21 A3008 RMK AO2 RAE50 SLP175 P0007 60012 T02220211 50008=
200709140152 METAR KATL 140152Z 15004KT 5SM RA BR BKN005 BKN030 OVC050 22/21 A3009 RMK AO2 RAB21 SLP179 CIG 003V008 P0005 T02170211=
200709140052 METAR KATL 140052Z 12006KT 9SM BKN006 BKN045 OVC070 22/21 A3007 RMK AO2 SLP174 CIG 005V009 T02170206=
200709140024 SPECI KATL 140024Z 10008KT 10SM BKN008 BKN080 OVC150 22/20 A3006 RMK AO2 CIG 006V010=
200709140024 SPECI KATL 140024Z 10008KT 10SM BKN008 BKN080 OVC150 22/20 A3006 RMK AO2 CIG 006V010=
200709132352 METAR KATL 132352Z 09008KT 10SM FEW005 BKN120 BKN150 OVC200 22/21 A3005 RMK AO2 SLP169 60150 T02220206 10283 20211 53001=
200709132252 METAR KATL 132252Z 00000KT 10SM FEW007 SCT120 BKN150 OVC200 23/21 A3003 RMK AO2 RAE24 SLP161 P0000 T02280206=
200709132152 METAR KATL 132152Z 12005KT 10SM -RA FEW007 SCT120 BKN150 OVC200 23/21 A3003 RMK AO2 RAE2057B51 SLP160 P0000 T02280206=
200709132056 SPECI KATL 132056Z 14005KT 8SM -RA FEW007 SCT045 BKN080 OVC150 23/21 A3005 RMK AO2 P0000=
200709132056 SPECI KATL 132056Z 14005KT 8SM -RA FEW007 SCT045 BKN080 OVC150 23/21 A3005 RMK AO2 P0000=
200709132052 METAR KATL 132052Z 15004KT 6SM -RA BR FEW010 BKN045 OVC080 23/21 A3005 RMK AO2 SLP168 P0004 60150 T02280211 58003=
200709132036 SPECI KATL 132036Z 13005KT 6SM -RA BR BKN006 BKN015 OVC045 22/21 A3006 RMK AO2 P0004=
200709132036 SPECI KATL 132036Z 13005KT 6SM -RA BR BKN006 BKN015 OVC045 22/21 A3006 RMK AO2 P0004=
200709131952 METAR KATL 131952Z 22005KT 5SM RA BR FEW005 SCT018 OVC024 22/21 A3007 RMK AO2 TSE28 SLP174 TS MOV N CB MOV N P0017 T02170206=
200709131928 SPECI KATL 131928Z 25006KT 5SM -RA BR FEW005 SCT020 OVC030 22/21 A3007 RMK AO2 TSE28 TS MOV N CB MOV N P0011=
200709131928 SPECI KATL 131928Z 25006KT 5SM -RA BR FEW005 SCT020 OVC030 22/21 A3007 RMK AO2 TSE28 TS MOV N CB MOV N P0011=
200709131916 SPECI KATL 131916Z 22008KT 6SM -TSRA BR FEW006 SCT015CB OVC025 22/20 A3006 RMK AO2 FRQ LTGICCG TS VC W-N MOV N CB VC W-N MOV N P0009=
200709131916 SPECI KATL 131916Z 22008KT 6SM -TSRA BR FEW006 SCT015CB OVC025 22/20 A3006 RMK AO2 FRQ LTGICCG TS VC W-N MOV N CB VC W-N MOV N P0009=
200709131904 SPECI KATL 131904Z 27005KT 3SM -TSRA BR SCT002 BKN018CB OVC027 21/20 A3007 RMK AO2 SFC VIS 5 FRQ LTGICCG TS 5SM VC NW MOV NW CB VC W-N MOV NW P0005=
200709131904 SPECI KATL 131904Z 27005KT 3SM -TSRA BR SCT002 BKN018CB OVC027 21/20 A3007 RMK AO2 SFC VIS 5 FRQ LTGICCG TS 5SM VC NW MOV NW CB VC W-N MOV NW P0005=
200709131859 SPECI KATL 131859Z 30008KT 2SM R09R/5000VP6000FT TSRA BR SCT002 BKN006CB OVC033 21/20 A3007 RMK AO2 FRQ LTGICCG TS VC NE W-N MOV NW CB VC NE W-N MOV NW P0004=
200709131859 SPECI KATL 131859Z 30008KT 2SM R09R/5000VP6000FT TSRA BR SCT002 BKN006CB OVC033 21/20 A3007 RMK AO2 FRQ LTGICCG TS VC NE W-N MOV NW CB VC NE W-N MOV NW P0004=
200709131852 METAR KATL 131852Z 32008KT 1/2SM R09R/2000V6000FT TSRA BR BKN002 BKN008 OVC029CB 21/20 A3008 RMK AO2 PK WND 16028/1822 SFC VIS 1 TSB16RAB1755 SLP178 FRQ LTGICCG TS 1SM NE 2SM NW-N MOV NW CB NE=
200709131842 SPECI KATL 131842Z 00000KT 1/2SM R09R/1600V2800FT +TSRA BR BKN002 BKN024CB OVC035 23/21 A3008 RMK AO2 PK WND 16028/1822 SFC VIS 3/4 TSB16RAB1755 FRQ LTGICCG TS OHD ALQDS MOV NW CB OHD MOV NW P0084=
200709131842 SPECI KATL 131842Z 00000KT 1/2SM R09R/1600V2800FT +TSRA BR BKN002 BKN024CB OVC035 23/21 A3008 RMK AO2 PK WND 16028/1822 SFC VIS 3/4 TSB16RAB1755 FRQ LTGICCG TS OHD ALQDS MOV NW CB OHD MOV NW P0084=
200709131839 SPECI KATL 131839Z 16006G20KT 1/8SM R09R/1200V2800FT +TSRA FG BKN002 BKN024CB OVC035 23/21 A3008 RMK AO2 PK WND 16028/1822 SFC VIS 1/2 TSB16RAB1755 PRESRR FRQ LTGICCG TS OHD MOV N CB OHD MOV N P0066=
200709131839 SPECI KATL 131839Z 16006G20KT 1/8SM R09R/1200V2800FT +TSRA FG BKN002 BKN024CB OVC035 23/21 A3008 RMK AO2 PK WND 16028/1822 SFC VIS 1/2 TSB16RAB1755 PRESRR FRQ LTGICCG TS OHD MOV N CB OHD MOV N P0066=
200709131836 SPECI KATL 131836Z 14009G20KT 1/8SM R09R/1200V5000FT +TSRA SCT002 BKN024CB OVC035 23/20 A3007 RMK AO2 PK WND 16028/1822 SFC VIS 1/2 TSB16RAB1755 PRESRR FRQ LTGICCG TS OHD MOV NE CB OHD MOV NE P0050=
200709131836 SPECI KATL 131836Z 14009G20KT 1/8SM R09R/1200V5000FT +TSRA SCT002 BKN024CB OVC035 23/20 A3007 RMK AO2 PK WND 16028/1822 SFC VIS 1/2 TSB16RAB1755 PRESRR FRQ LTGICCG TS OHD MOV NE CB OHD MOV NE P0050=
200709131833 SPECI KATL 131833Z 11012G20KT 1/8SM R09R/1200VP6000FT +TSRA FEW002 BKN030CB OVC035 23/20 A3006 RMK AO2 PK WND 16028/1822 SFC VIS 1/4 TSB16RAB1755 FRQ LTGICCG TS OHD MOV NE CB OHD MOV NE P0018=
200709131833 SPECI KATL 131833Z 11012G20KT 1/8SM R09R/1200VP6000FT +TSRA FEW002 BKN030CB OVC035 23/20 A3006 RMK AO2 PK WND 16028/1822 SFC VIS 1/4 TSB16RAB1755 FRQ LTGICCG TS OHD MOV NE CB OHD MOV NE P0018=
200709131830 SPECI KATL 131830Z 15014G28KT 1/8SM R09R/2600VP6000FT +TSRA BKN024CB OVC035 23/20 A3006 RMK AO2 PK WND 16028/1822 SFC VIS 1/4 TSB16RAB1755 FRQ LTGICCG TS OHD-SE-SW MOV NE CB OHD-SE-SW MOV NE P0002=
200709131830 SPECI KATL 131830Z 15014G28KT 1/8SM R09R/2600VP6000FT +TSRA BKN024CB OVC035 23/20 A3006 RMK AO2 PK WND 16028/1822 SFC VIS 1/4 TSB16RAB1755 FRQ LTGICCG TS OHD-SE-SW MOV NE CB OHD-SE-SW MOV NE P0002=
200709131825 SPECI KATL 131825Z 17014G28KT 8SM -TSRA SCT024CB BKN035 OVC250 24/21 A3006 RMK AO2 PK WND 16028/1822 TSB16RAB1755 FRQ LTGICCG TS 3SM VC SE-SW MOV NE CB VC SE-SW MOV NE P0000=
200709131825 SPECI KATL 131825Z 17014G28KT 8SM -TSRA SCT024CB BKN035 OVC250 24/21 A3006 RMK AO2 PK WND 16028/1822 TSB16RAB1755 FRQ LTGICCG TS 3SM VC SE-SW MOV NE CB VC SE-SW MOV NE P0000=
200709131820 SPECI KATL 131820Z 16017G21KT 8SM TS BKN035CB BKN045 BKN250 27/21 A3005 RMK AO2 TSB16RAB1755E07 OCNL LTGIC TS 3SM VC SE-SW MOV N CB VC SE-SW MOV N P0000=
200709131820 SPECI KATL 131820Z 16017G21KT 8SM TS BKN035CB BKN045 BKN250 27/21 A3005 RMK AO2 TSB16RAB1755E07 OCNL LTGIC TS 3SM VC SE-SW MOV N CB VC SE-SW MOV N P0000=
200709131816 SPECI KATL 131816Z 15007KT 130V190 9SM TS BKN035CB BKN045 BKN250 28/19 A3005 RMK AO2 TSB16RAB1755E07 OCNL LTGIC TS VC S-SW MOV N CB VC E S-SW MOV N P0000=
200709131816 SPECI KATL 131816Z 15007KT 130V190 9SM TS BKN035CB BKN045 BKN250 28/19 A3005 RMK AO2 TSB16RAB1755E07 OCNL LTGIC TS VC S-SW MOV N CB VC E S-SW MOV N P0000=
200709131752 METAR KATL 131752Z 00000KT 10SM SCT037TCU BKN048 BKN065 BKN250 28/19 A3006 RMK AO2 SLP168 CB DSNT SE-SW MOV N TCU NE-SE T02830194 10294 20222 58017=
200709131728 SPECI KATL 131728Z 00000KT 9SM FEW037CB SCT048TCU BKN080 BKN250 28/20 A3006 RMK AO2 CB DSNT SE-SW VC 4SM NW MOV NE SHRA VC NW TCU SE=
200709131728 SPECI KATL 131728Z 00000KT 9SM FEW037CB SCT048TCU BKN080 BKN250 28/20 A3006 RMK AO2 CB DSNT SE-SW VC 4SM NW MOV NE SHRA VC NW TCU SE=
200709131652 METAR KATL 131652Z 16006KT 10SM SCT035TCU SCT065 BKN250 29/19 A3008 RMK AO2 SLP175 CB 25SM DSNT S MOV NE TCU SW-W T02890194=
200709131552 METAR KATL 131552Z 16005KT 9SM FEW030 SCT065 BKN250 28/20 A3011 RMK AO2 SLP185 T02780200=
200709131452 METAR KATL 131452Z 00000KT 9SM FEW075 SCT200 BKN250 27/19 A3011 RMK AO2 SLP185 T02720189 51014=
200709131352 METAR KATL 131352Z 10003KT 8SM BKN050 BKN240 26/18 A3010 RMK AO2 SLP181 T02560183=
200709131252 METAR KATL 131252Z 08004KT 10SM FEW150 BKN200 OVC250 24/18 A3008 RMK AO2 SLP177 T02390183=
200709131152 METAR KATL 131152Z 00000KT 8SM SCT150 BKN200 OVC250 22/18 A3007 RMK AO2 SLP172 T02220178 10222 20206 53004=
200709131052 METAR KATL 131052Z 34004KT 10SM BKN150 OVC200 21/19 A3005 RMK AO2 SLP166 T02110189=
200709130952 METAR KATL 130952Z 33005KT 10SM BKN150 BKN200 OVC250 21/19 A3005 RMK AO2 SLP165 T02110189=
200709130852 METAR KATL 130852Z 25003KT 10SM BKN150 BKN200 BKN250 22/19 A3005 RMK AO2 SLP166 T02170194 55003=
200709130752 METAR KATL 130752Z 22005KT 10SM SCT150 BKN200 BKN250 22/19 A3005 RMK AO2 SLP166 T02170189=
200709130652 METAR KATL 130652Z 00000KT 10SM BKN150 BKN250 22/19 A3005 RMK AO2 SLP167 T02170189=
200709130552 METAR KATL 130552Z 00000KT 10SM FEW150 SCT250 22/19 A3006 RMK AO2 SLP170 T02220194 10272 20222 50006=
200709130452 METAR KATL 130452Z 29003KT 10SM SCT250 23/18 A3007 RMK AO2 SLP171 T02280183 403000211=
200709130352 METAR KATL 130352Z 00000KT 10SM FEW250 24/18 A3006 RMK AO2 SLP169 T02390183=
200709130252 METAR KATL 130252Z COR 28003KT 10SM CLR 24/18 A3005 RMK AO2 SLP166 T02440183 51018=
200709130152 METAR KATL 130152Z 00000KT 10SM CLR 25/18 A3005 RMK AO2 SLP165 T02500183=
200709130052 METAR KATL 130052Z 27003KT 10SM CLR 26/17 A3002 RMK AO2 SLP157 T02610167=
200709122352 METAR KATL 122352Z 28004KT 10SM CLR 27/17 A2999 RMK AO2 SLP147 T02720167 10300 20272 53000=
200709122252 METAR KATL 122252Z 27005KT 10SM FEW040 28/18 A2999 RMK AO2 SLP145 T02830183=
200709122152 METAR KATL 122152Z 30008KT 10SM FEW040 29/19 A2998 RMK AO2 SLP142 T02890189=
200709122052 METAR KATL 122052Z VRB04KT 10SM SCT043 30/19 A2999 RMK AO2 SLP145 T03000189 56019=
200709121952 METAR KATL 121952Z 30009KT 10SM FEW040 SCT050 SCT060 28/19 A3000 RMK AO2 SLP150 T02780189=
200709121852 METAR KATL 121852Z 33006KT 9SM BKN035TCU BKN050 BKN060 27/19 A3003 RMK AO2 SLP160 TCU OHD-S-W T02720194=
200709121752 METAR KATL 121752Z 26006KT 9SM FEW030 BKN050 BKN150 28/20 A3005 RMK AO2 SLP166 T02780200 10283 20211 58003=
200709121652 METAR KATL 121652Z 31004KT 8SM FEW025 SCT080 SCT150 27/20 A3006 RMK AO2 SLP168 T02720200=
200709121552 METAR KATL 121552Z 27006KT 6SM HZ FEW025 BKN080 BKN150 25/20 A3006 RMK AO2 SLP171 T02500200=
200709121452 METAR KATL 121452Z 25004KT 5SM HZ FEW015 SCT070 SCT100 24/21 A3006 RMK AO2 SLP170 T02440206 53009=
200709121352 METAR KATL 121352Z 33006KT 5SM BR FEW010 SCT030 BKN100 22/20 A3005 RMK AO2 SLP167 T02220200=
200709121328 SPECI KATL 121328Z 00000KT 5SM BR FEW006 SCT028 BKN100 22/20 A3004 RMK AO2=
200709121328 SPECI KATL 121328Z 00000KT 5SM BR FEW006 SCT028 BKN100 22/20 A3004 RMK AO2=
200709121252 METAR KATL 121252Z 00000KT 2 1/2SM BR OVC006 21/19 A3004 RMK AO2 SFC VIS 3 SLP164 T02110194=
200709121229 SPECI KATL 121229Z 29004KT 2 1/2SM BR OVC008 21/19 A3004 RMK AO2 SFC VIS 3=
200709121229 SPECI KATL 121229Z 29004KT 2 1/2SM BR OVC008 21/19 A3004 RMK AO2 SFC VIS 3=
200709121212 SPECI KATL 121212Z 29006KT 4SM BR BKN005 OVC012 21/20 A3003 RMK AO2 BINOVC=
200709121212 SPECI KATL 121212Z 29006KT 4SM BR BKN005 OVC012 21/20 A3003 RMK AO2 BINOVC=
200709121152 METAR KATL 121152Z 31005KT 5SM BR FEW006 BKN010 BKN140 BKN250 21/19 A3003 RMK AO2 SLP161 60001 70033 T02110194 10228 20211 53018=
200709121135 SPECI KATL 121135Z 32005KT 4SM BR SCT006 BKN012 OVC140 21/19 A3002 RMK AO2 BINOVC=
200709121135 SPECI KATL 121135Z 32005KT 4SM BR SCT006 BKN012 OVC140 21/19 A3002 RMK AO2 BINOVC=
200709121120 SPECI KATL 121120Z 31007KT 5SM BR BKN008 OVC014 22/21 A3002 RMK AO2 BINOVC=
200709121120 SPECI KATL 121120Z 31007KT 5SM BR BKN008 OVC014 22/21 A3002 RMK AO2 BINOVC=
200709121052 METAR KATL 121052Z 32003KT 8SM BKN010 BKN080 OVC140 22/20 A3001 RMK AO2 SLP154 T02170200=
200709121031 SPECI KATL 121031Z 34005KT 6SM BR BKN009 OVC018 22/20 A3000 RMK AO2 CIG 008V013=
200709121031 SPECI KATL 121031Z 34005KT 6SM BR BKN009 OVC018 22/20 A3000 RMK AO2 CIG 008V013=
200709121001 SPECI KATL 121001Z 33005KT 6SM BR FEW007 OVC016 22/21 A2999 RMK AO2=
200709121001 SPECI KATL 121001Z 33005KT 6SM BR FEW007 OVC016 22/21 A2999 RMK AO2=
200709120952 METAR KATL 120952Z 32005KT 7SM SCT007 OVC014 22/21 A2999 RMK AO2 SLP145 T02220206=
200709120852 METAR KATL 120852Z 34004KT 6SM BR OVC005 22/21 A2997 RMK AO2 SLP140 60001 T02220211 58013=
200709120752 METAR KATL 120752Z 33005KT 6SM BR BKN005 BKN080 OVC110 22/21 A2999 RMK AO2 RAB12E29 SLP143 P0000 T02220211=
200709120743 SPECI KATL 120743Z 31004KT 6SM BR BKN005 BKN080 OVC110 22/21 A2999 RMK AO2 RAB12E29 P0000=
200709120743 SPECI KATL 120743Z 31004KT 6SM BR BKN005 BKN080 OVC110 22/21 A2999 RMK AO2 RAB12E29 P0000=
200709120652 METAR KATL 120652Z 27005KT 7SM FEW004 SCT038 BKN080 OVC140 22/21 A3000 RMK AO2 RAE30 SLP151 P0001 T02220211=
200709120552 METAR KATL 120552Z 28004KT 10SM -RA FEW100 BKN140 OVC200 23/22 A3001 RMK AO2 RAB51 SLP152 P0000 60000 T02280217 10239 20228 51005=
200709120452 METAR KATL 120452Z 19004KT 9SM FEW075 BKN120 OVC150 23/22 A3001 RMK AO2 RAB18E33 SLP152 P0000 T02330222 403170206=
200709120352 METAR KATL 120352Z 00000KT 9SM FEW075 BKN110 BKN150 OVC200 23/22 A3001 RMK AO2 SLP151 T02330217=
200709120252 METAR KATL 120252Z 29005KT 9SM SCT095 BKN150 OVC200 23/22 A3000 RMK AO2 SLP149 60000 T02280217 51015=
200709120152 METAR KATL 120152Z 00000KT 9SM FEW060 BKN080 BKN120 OVC150 23/22 A3000 RMK AO2 SLP147 T02330222=
200709120052 METAR KATL 120052Z 31003KT 10SM SCT075 BKN120 BKN150 OVC200 24/22 A2997 RMK AO2 RAE2358 SLP138 P0000 T02390217=
200709112352 METAR KATL 112352Z 34005KT 9SM -RA FEW050 SCT075 BKN100 BKN150 OVC200 24/21 A2995 RMK AO2 SLP135 P0005 60032 T02390206 10317 20233 50009=
200709112252 METAR KATL 112252Z 30009KT 9SM -RA FEW060 SCT080 BKN100 OVC150 24/22 A2996 RMK AO2 RAB48 SLP136 P0000 T02390217=
200709112152 METAR KATL 112152Z 33007KT 10SM FEW030 SCT080 BKN150 OVC200 24/22 A2994 RMK AO2 TSE34RAE50 SLP129 TS DSIPTD CB DSNT E-SE AND SW-NW P0018 T02440217=
200709112134 SPECI KATL 112134Z 30006KT 10SM -RA FEW030 SCT055 BKN080 OVC150 23/22 A2994 RMK AO2 TSE34 TS DSIPTD CB DSNT NE-SE AND SW-W P0018=
200709112134 SPECI KATL 112134Z 30006KT 10SM -RA FEW030 SCT055 BKN080 OVC150 23/22 A2994 RMK AO2 TSE34 TS DSIPTD CB DSNT NE-SE AND SW-W P0018=
200709112052 METAR KATL 112052Z 28011KT 8SM -TSRA FEW030CB BKN055 BKN075 BKN240 27/21 A2993 RMK AO2 TSB50RAB44 SLP124 OCNL LTGIC TS VC E SW-N MOV E P0000 60009 T02720211 56015=
200709112050 SPECI KATL 112050Z 27010KT 8SM -TSRA FEW030CB BKN055 BKN075 BKN240 28/22 A2992 RMK AO2 TSB50RAB44 OCNL LTGIC TS VC NW-N MOV E P0000=
200709112050 SPECI KATL 112050Z 27010KT 8SM -TSRA FEW030CB BKN055 BKN075 BKN240 28/22 A2992 RMK AO2 TSB50RAB44 OCNL LTGIC TS VC NW-N MOV E P0000=
200709112035 SPECI KATL 112035Z VRB06KT 10SM FEW040CB SCT055 BKN075 BKN240 29/20 A2992 RMK AO2 CB DSNT DSNT N-NE VC W-NW MOV E SHRA DSNT N-NE VC W-NW=
200709112035 SPECI KATL 112035Z VRB06KT 10SM FEW040CB SCT055 BKN075 BKN240 29/20 A2992 RMK AO2 CB DSNT DSNT N-NE VC W-NW MOV E SHRA DSNT N-NE VC W-NW=
200709112015 SPECI KATL 112015Z 26008KT 10SM FEW055 BKN075 BKN240 31/20 A2992 RMK AO2 CB DSNT N W NW TCU DSNT E SHRA DSNT N W NW=
200709112015 SPECI KATL 112015Z 26008KT 10SM FEW055 BKN075 BKN240 31/20 A2992 RMK AO2 CB DSNT N W NW TCU DSNT E SHRA DSNT N W NW=
200709111952 METAR KATL 111952Z 28005KT 10SM FEW035 SCT090 BKN240 29/21 A2993 RMK AO2 WSHFT 1839 TSE01RAE08 SLP124 CB DSNT NE NW P0002 T02940211=
200709111902 SPECI KATL 111902Z 02010KT 10SM -RA FEW016CB BKN050 BKN090 BKN240 26/20 A2995 RMK AO2 WSHFT 1839 TSE01 TS MOV ENE CB VC NE-E MOV ENE SHRA VC NE-E P0002=
200709111902 SPECI KATL 111902Z 02010KT 10SM -RA FEW016CB BKN050 BKN090 BKN240 26/20 A2995 RMK AO2 WSHFT 1839 TSE01 TS MOV ENE CB VC NE-E MOV ENE SHRA VC NE-E P0002=
200709111855 SPECI KATL 111855Z 01011KT 8SM R09R/4500VP6000FT -TSRA SCT016CB BKN050 BKN090 BKN240 26/20 A2996 RMK AO2 WSHFT 1839 VIS 1/2SM NE SHRA OCNL LTGIC TS 2SM VC NE 6SM VC NE MOV ENE P0002=
200709111855 SPECI KATL 111855Z 01011KT 8SM R09R/4500VP6000FT -TSRA SCT016CB BKN050 BKN090 BKN240 26/20 A2996 RMK AO2 WSHFT 1839 VIS 1/2SM NE SHRA OCNL LTGIC TS 2SM VC NE 6SM VC NE MOV ENE P0002=
200709111852 METAR KATL 111852Z 35014G26KT 1SM R09R/2800VP6000FT +TSRA FEW023CB BKN055 OVC090 25/21 A2996 RMK AO2 PK WND 31028/1840 WSHFT 1830 TSB43RAB43 SLP137 VIS 1/4SM NE SHRA OCNL LTGIC TS OHD-NE MOV ENE P0007 T02500206=
200709111847 SPECI KATL 111847Z 34020G28KT 4SM R09R/2800VP6000FT -TSRA FEW035CB BKN050 BKN090 BKN240 25/21 A2997 RMK AO2 PK WND 31028/1840 WSHFT 1830 TSB43RAB43 VIS 3/4SM N-NE SHRA OCNL LTGIC TS OHD-N-NE MOV ENE P0004=
200709111847 SPECI KATL 111847Z 34020G28KT 4SM R09R/2800VP6000FT -TSRA FEW035CB BKN050 BKN090 BKN240 25/21 A2997 RMK AO2 PK WND 31028/1840 WSHFT 1830 TSB43RAB43 VIS 3/4SM N-NE SHRA OCNL LTGIC TS OHD-N-NE MOV ENE P0004=
200709111843 SPECI KATL 111843Z 30016G28KT 9SM R09R/4500VP6000FT -TSRA BKN055CB BKN090 BKN240 27/19 A2996 RMK AO2 PK WND 31028/1840 TSB43RAB43 OCNL LTGIC TS 2SM VC W-N MOV ENE P0000=
200709111843 SPECI KATL 111843Z 30016G28KT 9SM R09R/4500VP6000FT -TSRA BKN055CB BKN090 BKN240 27/19 A2996 RMK AO2 PK WND 31028/1840 TSB43RAB43 OCNL LTGIC TS 2SM VC W-N MOV ENE P0000=
200709111833 SPECI KATL 111833Z 23014G21KT 10SM SCT050CB SCT075 BKN090 BKN240 31/18 A2995 RMK AO2 CB 8SM VC N NW MOV ENE SHRA VC N NW=
200709111833 SPECI KATL 111833Z 23014G21KT 10SM SCT050CB SCT075 BKN090 BKN240 31/18 A2995 RMK AO2 CB 8SM VC N NW MOV ENE SHRA VC N NW=
200709111820 SPECI KATL 111820Z 24013G21KT 10SM FEW055CB BKN100 BKN240 31/19 A2995 RMK AO2 CB VC N W MOV ENE SHRA VC N W=
200709111820 SPECI KATL 111820Z 24013G21KT 10SM FEW055CB BKN100 BKN240 31/19 A2995 RMK AO2 CB VC N W MOV ENE SHRA VC N W=
200709111752 METAR KATL 111752Z 24013G19KT 10SM FEW045 SCT100 SCT240 31/19 A2997 RMK AO2 SLP136 TCU DSNT NW T03110189 10311 20211 58014=
200709111652 METAR KATL 111652Z 23010G21KT 10SM SCT050 SCT100 SCT240 31/18 A2999 RMK AO2 SLP143 MDT CU E S NW T03060183=
200709111552 METAR KATL 111552Z 24012KT 10SM FEW040 SCT060 SCT100 SCT240 29/18 A3001 RMK AO2 SLP150 ACC DSNT S T02940183=
200709111452 METAR KATL 111452Z 28009KT 10SM FEW120 SCT150 28/19 A3001 RMK AO2 SLP151 ACC DSNT NW T02780189 51006=
200709111352 METAR KATL 111352Z 26008G14KT 10SM FEW150 SCT240 26/19 A3001 RMK AO2 SLP150 T02610189=
200709111252 METAR KATL 111252Z 23006KT 10SM FEW250 23/17 A3000 RMK AO2 SLP148 T02330172=
200709111152 METAR KATL 111152Z 23006KT 10SM FEW250 22/16 A2999 RMK AO2 SLP146 T02170161 10233 20206 53004=
200709111052 METAR KATL 111052Z 24004KT 10SM FEW250 21/16 A2998 RMK AO2 SLP140 T02110156=
200709110952 METAR KATL 110952Z 23005KT 10SM FEW250 21/16 A2998 RMK AO2 SLP139 T02110156=
200709110852 METAR KATL 110852Z 22004KT 10SM FEW085 SCT250 21/15 A2998 RMK AO2 SLP140 T02110150 56011=
200709110752 METAR KATL 110752Z 24004KT 10SM FEW085 SCT250 22/15 A2999 RMK AO2 SLP143 T02220150=
200709110652 METAR KATL 110652Z 22004KT 10SM FEW085 SCT250 22/16 A3000 RMK AO2 SLP147 T02220156=
200709110552 METAR KATL 110552Z 21005KT 10SM FEW085 SCT250 23/16 A3001 RMK AO2 SLP151 T02330156 10294 20233 58006=
200709110452 METAR KATL 110452Z 19006KT 10SM SCT250 24/16 A3002 RMK AO2 SLP155 T02390161 403170222=
200709110352 METAR KATL 110352Z 19006KT 10SM FEW250 25/16 A3003 RMK AO2 SLP159 T02500156=
200709110252 METAR KATL 110252Z 20006KT 10SM SCT250 26/16 A3003 RMK AO2 SLP157 T02560161 53009=
200709110152 METAR KATL 110152Z 18008KT 10SM BKN250 27/16 A3002 RMK AO2 SLP156 T02670161=
200709110052 METAR KATL 110052Z 19004KT 10SM BKN250 28/16 A3000 RMK AO2 SLP149 T02780161=
200709102352 METAR KATL 102352Z 18004KT 10SM FEW070 BKN250 29/16 A3000 RMK AO2 SLP148 T02940156 10317 20294 53000=
200709102252 METAR KATL 102252Z 18008KT 10SM FEW070 BKN250 31/14 A2999 RMK AO2 SLP146 T03060144=
200709102152 METAR KATL 102152Z 17009KT 10SM BKN250 31/14 A2999 RMK AO2 SLP144 T03110144=
200709102052 METAR KATL 102052Z 21011G15KT 10SM FEW070 SCT240 32/14 A3000 RMK AO2 SLP148 T03170144 56018=
200709101952 METAR KATL 101952Z 19008KT 10SM FEW070 SCT240 32/15 A3002 RMK AO2 SLP152 T03170150=
200709101852 METAR KATL 101852Z 17009KT 9SM FEW070 SCT240 31/15 A3004 RMK AO2 SLP160 T03110150=
200709101752 METAR KATL 101752Z 21004KT 10SM SCT070 SCT240 31/14 A3006 RMK AO2 SLP167 T03060144 10317 20233 58013=
200709101652 METAR KATL 101652Z VRB05KT 10SM FEW055 SCT240 31/16 A3007 RMK AO2 SLP172 T03060156=
200709101552 METAR KATL 101552Z 22006KT 10SM FEW180 29/16 A3009 RMK AO2 SLP178 T02940161=
200709101452 METAR KATL 101452Z 26006KT 10SM FEW180 28/16 A3009 RMK AO2 SLP180 T02830161 50005=
200709101352 METAR KATL 101352Z 26008KT 10SM FEW075 27/16 A3010 RMK AO2 SLP181 T02670156=
200709101252 METAR KATL 101252Z 28006KT 10SM FEW075 25/15 A3009 RMK AO2 SLP178 T02500150=
200709101152 METAR KATL 101152Z 26006KT 10SM SCT075 23/15 A3008 RMK AO2 SLP175 T02330150 10239 20222 53009=
200709101052 METAR KATL 101052Z 26006KT 10SM SCT080 23/14 A3006 RMK AO2 SLP169 T02280144=
200709100952 METAR KATL 100952Z 25005KT 10SM FEW080 23/15 A3005 RMK AO2 SLP166 T02280150=
200709100852 METAR KATL 100852Z 25004KT 10SM FEW080 22/16 A3005 RMK AO2 SLP165 T02220156 55001=
200709100752 METAR KATL 100752Z 24005KT 10SM BKN080 24/16 A3005 RMK AO2 SLP164 T02390156=
200709100652 METAR KATL 100652Z 25005KT 10SM FEW080 23/16 A3005 RMK AO2 SLP165 T02330156=
200709100552 METAR KATL 100552Z 25004KT 10SM FEW080 23/16 A3005 RMK AO2 SLP166 T02330161 10283 20233 53002=
200709100452 METAR KATL 100452Z 23004KT 8SM SCT080 SCT200 BKN250 24/17 A3005 RMK AO2 SLP164 T02390167 403170206=
200709100352 METAR KATL 100352Z 20004KT 9SM SCT200 BKN250 25/16 A3005 RMK AO2 SLP165 T02500161=
200709100252 METAR KATL 100252Z 22004KT 9SM BKN150 BKN250 26/16 A3005 RMK AO2 SLP164 T02560161 51013=
200709100152 METAR KATL 100152Z 22004KT 9SM SCT150 BKN200 26/16 A3004 RMK AO2 SLP161 T02610161=
200709100052 METAR KATL 100052Z 22003KT 9SM SCT150 BKN200 27/16 A3002 RMK AO2 SLP158 T02720161=
200709092352 METAR KATL 092352Z 22005KT 8SM SCT150 BKN200 28/15 A3001 RMK AO2 SLP152 T02830150 10317 20283 53001=
200709092252 METAR KATL 092252Z 23007KT 10SM SCT065 SCT080 BKN150 30/15 A3000 RMK AO2 SLP148 T03000150=
200709092152 METAR KATL 092152Z 18004KT 10SM SCT075 31/15 A2999 RMK AO2 SLP145 T03060150=
200709092052 METAR KATL 092052Z 25004KT 10SM FEW070 31/16 A3000 RMK AO2 SLP149 T03110156 56019=
200709091952 METAR KATL 091952Z 00000KT 10SM FEW070 31/14 A3002 RMK AO2 SLP154 T03110144=
200709091852 METAR KATL 091852Z 20006KT 10SM SCT065 31/14 A3004 RMK AO2 SLP163 T03110144=
200709091752 METAR KATL 091752Z 34004KT 10SM SCT065 29/14 A3006 RMK AO2 SLP168 T02940144 10311 20211 58014=
200709091652 METAR KATL 091652Z 35004KT 10SM FEW055 30/16 A3009 RMK AO2 SLP177 T03000161=
200709091552 METAR KATL 091552Z 25006KT 10SM CLR 28/17 A3010 RMK AO2 SLP182 T02830167=
200709091452 METAR KATL 091452Z 27007KT 10SM FEW075 27/17 A3010 RMK AO2 SLP183 T02670172 53013=
200709091352 METAR KATL 091352Z 23006KT 10SM FEW075 24/17 A3009 RMK AO2 SLP179 T02440172=
200709091252 METAR KATL 091252Z 19004KT 9SM BKN070 BKN250 22/17 A3008 RMK AO2 SLP175 T02170172=
200709091152 METAR KATL 091152Z 00000KT 8SM SCT070 BKN250 21/17 A3007 RMK AO2 RAB25E36 SLP172 P0000 60000 T02060167 10233 20206 53006=
200709091052 METAR KATL 091052Z 00000KT 10SM FEW150 SCT250 21/17 A3006 RMK AO2 SLP168 T02110167=
200709090952 METAR KATL 090952Z 27004KT 10SM FEW150 22/16 A3005 RMK AO2 SLP163 T02170161=
200709090852 METAR KATL 090852Z 00000KT 10SM CLR 22/16 A3005 RMK AO2 SLP163 T02220161 58005=
200709090752 METAR KATL 090752Z 27003KT 10SM CLR 22/17 A3005 RMK AO2 SLP165 T02220167=
200709090652 METAR KATL 090652Z 00000KT 10SM FEW250 23/17 A3006 RMK AO2 SLP168 T02280172=
200709090552 METAR KATL 090552Z 24003KT 10SM FEW120 SCT250 23/17 A3006 RMK AO2 SLP169 T02330167 10283 20233 51002=
200709090452 METAR KATL 090452Z 22004KT 10SM FEW250 24/17 A3006 RMK AO2 SLP168 T02390167 403110206=
200709090352 METAR KATL 090352Z 00000KT 10SM FEW250 25/17 A3006 RMK AO2 SLP168 T02500172=
200709090252 METAR KATL 090252Z 23003KT 10SM FEW250 26/18 A3006 RMK AO2 SLP167 T02560178 52009=
200709090152 METAR KATL 090152Z 00000KT 10SM FEW250 26/17 A3005 RMK AO2 SLP166 T02560172=
200709090052 METAR KATL 090052Z 00000KT 10SM FEW250 27/17 A3004 RMK AO2 SLP161 T02720172=
200709082352 METAR KATL 082352Z 21006KT 10SM FEW070 SCT250 28/17 A3003 RMK AO2 SLP159 T02830167 10311 20283 55002=
200709082252 METAR KATL 082252Z 16005KT 10SM FEW070 SCT250 30/14 A3003 RMK AO2 SLP158 T03000144=
200709082152 METAR KATL 082152Z 00000KT 10SM FEW070 SCT250 31/15 A3003 RMK AO2 SLP159 T03060150=
200709082052 METAR KATL 082052Z VRB03KT 10SM SCT065 SCT120 31/15 A3004 RMK AO2 SLP160 T03060150 56027=
200709081952 METAR KATL 081952Z 00000KT 10SM SCT065 30/15 A3006 RMK AO2 SLP168 T03000150=
200709081852 METAR KATL 081852Z 15006KT 10SM SCT055 30/16 A3009 RMK AO2 SLP180 T03000156=
200709081752 METAR KATL 081752Z VRB03KT 10SM SCT055 30/17 A3012 RMK AO2 SLP189 T03000167 10300 20211 58007=
200709081652 METAR KATL 081652Z 00000KT 10SM SCT048 29/17 A3013 RMK AO2 SLP193 MDT CU ALQDS T02890167=
200709081552 METAR KATL 081552Z 00000KT 10SM FEW045 28/17 A3014 RMK AO2 SLP196 T02780172=
200709081452 METAR KATL 081452Z 00000KT 10SM CLR 26/16 A3014 RMK AO2 SLP196 T02610161 51007=
200709081352 METAR KATL 081352Z 18003KT 10SM CLR 25/14 A3014 RMK AO2 SLP195 T02500139=
200709081252 METAR KATL 081252Z 00000KT 10SM CLR 23/18 A3014 RMK AO2 SLP195 T02280178=
200709081152 METAR KATL 081152Z 00000KT 10SM CLR 21/18 A3012 RMK AO2 SLP191 T02110178 10239 20206 53005=
200709081052 METAR KATL 081052Z 00000KT 9SM FEW250 21/18 A3011 RMK AO2 SLP186 T02110178=
200709080952 METAR KATL 080952Z 00000KT 10SM CLR 22/18 A3010 RMK AO2 SLP184 T02170178=
200709080852 METAR KATL 080852Z 00000KT 10SM CLR 22/18 A3011 RMK AO2 SLP184 T02220178 56012=
200709080752 METAR KATL 080752Z 00000KT 10SM CLR 22/18 A3011 RMK AO2 SLP187 T02220178=
200709080652 METAR KATL 080652Z 14004KT 10SM CLR 24/17 A3013 RMK AO2 SLP191 T02390172=
200709080552 METAR KATL 080552Z 00000KT 10SM CLR 23/18 A3014 RMK AO2 SLP197 T02330178 10278 20233 58003=
200709080452 METAR KATL 080452Z 00000KT 10SM FEW250 24/18 A3015 RMK AO2 SLP199 T02390178 403000217=
200709080352 METAR KATL 080352Z 13003KT 10SM FEW200 25/18 A3016 RMK AO2 SLP201 T02500178=
200709080252 METAR KATL 080252Z 14003KT 10SM FEW200 26/17 A3015 RMK AO2 SLP201 T02560172 51013=
200709080152 METAR KATL 080152Z 16003KT 10SM FEW250 26/18 A3015 RMK AO2 SLP199 T02610178=
200709080052 METAR KATL 080052Z 00000KT 10SM FEW050 27/17 A3013 RMK AO2 SLP193 T02720172=
200709072352 METAR KATL 072352Z 19004KT 10SM SCT050 SCT200 28/16 A3012 RMK AO2 SLP188 T02780161 10300 20278 55003=
200709072252 METAR KATL 072252Z 14004KT 10SM FEW055 29/16 A3010 RMK AO2 SLP182 T02890161=
200709072152 METAR KATL 072152Z 17005KT 10SM SCT055 29/16 A3011 RMK AO2 SLP184 T02940156=
200709072052 METAR KATL 072052Z VRB05KT 10SM SCT055 29/16 A3012 RMK AO2 SLP190 T02940156 56021=
200709071952 METAR KATL 071952Z 13010KT 10SM SCT055 30/16 A3014 RMK AO2 SLP196 T03000161=
200709071852 METAR KATL 071852Z 18004KT 10SM FEW047 SCT150 29/17 A3017 RMK AO2 SLP204 T02890167=
200709071752 METAR KATL 071752Z 10008KT 10SM FEW045 SCT150 28/17 A3019 RMK AO2 SLP212 T02830172 10283 20217 58013=
200709071652 METAR KATL 071652Z 14010G16KT 9SM FEW035 SCT150 28/18 A3021 RMK AO2 SLP220 T02830178=
200709071552 METAR KATL 071552Z 16009G14KT 10SM SCT030 SCT150 27/19 A3023 RMK AO2 SLP225 MDT CU ALQDS T02670189=
200709071550 SPECI KATL 071550Z 16007KT 10SM SCT030 SCT150 27/19 A3023 RMK AO2 MDT CU ALQDS=
200709071550 SPECI KATL 071550Z 16007KT 10SM SCT030 SCT150 27/19 A3023 RMK AO2 MDT CU ALQDS=
200709071458 SPECI KATL 071458Z 14007KT 10SM BKN020 BKN150 26/20 A3025 RMK AO2 MDT CU ALQDS=
200709071458 SPECI KATL 071458Z 14007KT 10SM BKN020 BKN150 26/20 A3025 RMK AO2 MDT CU ALQDS=
200709071452 METAR KATL 071452Z 10007KT 10SM BKN015 BKN150 26/20 A3026 RMK AO2 SLP235 T02560200 50005=
200709071352 METAR KATL 071352Z 13007KT 9SM FEW012 BKN150 24/21 A3026 RMK AO2 SLP236 T02390206=
200709071252 METAR KATL 071252Z 11006KT 6SM HZ BKN180 BKN250 23/20 A3025 RMK AO2 SLP232 T02280200=
200709071152 METAR KATL 071152Z 11003KT 7SM SCT180 SCT250 22/20 A3024 RMK AO2 SLP230 T02220200 10244 20217 53019=
200709071052 METAR KATL 071052Z 12004KT 8SM FEW150 SCT200 SCT250 22/20 A3022 RMK AO2 SLP222 T02220200=
200709070952 METAR KATL 070952Z 13005KT 8SM SCT180 BKN250 22/19 A3019 RMK AO2 SLP214 T02220194=
200709070852 METAR KATL 070852Z 14008KT 10SM SCT150 BKN250 23/19 A3018 RMK AO2 SLP209 T02280194 56007=
200709070752 METAR KATL 070752Z 14006KT 10SM BKN150 OVC250 23/19 A3018 RMK AO2 SLP209 T02330194=
200709070652 METAR KATL 070652Z 15009KT 10SM SCT150 BKN200 OVC250 24/19 A3019 RMK AO2 SLP212 T02390189=
200709070552 METAR KATL 070552Z 16006KT 10SM SCT150 BKN200 OVC250 24/19 A3020 RMK AO2 SLP216 T02440189 10278 20244 56002=
200709070452 METAR KATL 070452Z 14005KT 10SM FEW150 BKN200 OVC250 25/19 A3020 RMK AO2 SLP216 T02500194 402940217=
200709070352 METAR KATL 070352Z 13005KT 10SM BKN150 BKN200 26/19 A3020 RMK AO2 SLP216 T02560194=
200709070252 METAR KATL 070252Z 00000KT 10SM BKN150 BKN250 26/19 A3021 RMK AO2 SLP218 T02610194 53010=
200709070152 METAR KATL 070152Z 15003KT 10SM SCT150 BKN200 BKN250 26/19 A3020 RMK AO2 SLP216 T02610194=
200709070052 METAR KATL 070052Z 11007KT 10SM FEW150 BKN200 BKN250 27/19 A3018 RMK AO2 SLP209 T02720189=
200709062352 METAR KATL 062352Z 12007KT 10SM FEW150 BKN200 BKN250 28/19 A3017 RMK AO2 SLP208 T02780189 10294 20278 55001=
200709062252 METAR KATL 062252Z 11009KT 10SM FEW040 SCT150 BKN200 BKN250 28/19 A3017 RMK AO2 SLP206 T02830189=
200709062152 METAR KATL 062152Z 17008KT 10SM FEW040 SCT180 BKN250 29/19 A3018 RMK AO2 SLP208 T02890194=
200709062052 METAR KATL 062052Z 16009KT 10SM FEW045 SCT150 BKN180 BKN250 29/18 A3018 RMK AO2 SLP209 T02890183 56014=
200709061952 METAR KATL 061952Z 14006KT 10SM FEW045 SCT050 BKN150 BKN180 BKN250 29/19 A3019 RMK AO2 SLP211 T02890189=
200709061852 METAR KATL 061852Z 16007KT 10SM FEW040 BKN150 BKN180 BKN250 28/18 A3021 RMK AO2 SLP218 VIRGA N-NE T02830178=
200709061752 METAR KATL 061752Z 16014G18KT 10SM SCT040 BKN200 BKN250 28/18 A3022 RMK AO2 SLP223 T02830178 10283 20222 58006=
200709061652 METAR KATL 061652Z 16011G18KT 9SM SCT040 BKN200 BKN250 27/17 A3023 RMK AO2 SLP227 T02670172=
200709061552 METAR KATL 061552Z 13008G15KT 10SM SCT029 SCT150 BKN250 27/19 A3024 RMK AO2 SLP228 T02670189=
200709061452 METAR KATL 061452Z 10008KT 9SM FEW030 SCT150 SCT200 BKN250 26/19 A3024 RMK AO2 SLP229 T02560189 51012=
200709061352 METAR KATL 061352Z 14004KT 7SM FEW150 SCT200 BKN250 24/19 A3022 RMK AO2 SLP224 T02440194=
200709061252 METAR KATL 061252Z VRB03KT 6SM HZ SCT180 BKN250 23/19 A3022 RMK AO2 SLP223 T02280189=
200709061152 METAR KATL 061152Z 00000KT 6SM HZ SCT180 BKN250 22/18 A3020 RMK AO2 SLP216 T02220183 10244 20217 53018=
200709061052 METAR KATL 061052Z 11004KT 7SM FEW180 BKN250 22/18 A3018 RMK AO2 SLP208 T02220178=
200709060952 METAR KATL 060952Z 13004KT 7SM FEW250 22/18 A3016 RMK AO2 SLP204 T02220178=
200709060852 METAR KATL 060852Z 14004KT 7SM FEW250 23/18 A3015 RMK AO2 SLP198 T02280178 53005=
200709060752 METAR KATL 060752Z 00000KT 7SM SCT250 23/18 A3014 RMK AO2 SLP195 T02330178=
200709060652 METAR KATL 060652Z 00000KT 7SM BKN250 24/17 A3013 RMK AO2 SLP191 T02390172=
200709060552 METAR KATL 060552Z 00000KT 7SM BKN250 24/17 A3013 RMK AO2 SLP193 T02390172 10294 20239 51008=
200709060452 METAR KATL 060452Z 00000KT 10SM BKN250 24/18 A3012 RMK AO2 SLP189 T02440178 403170211=
200709060352 METAR KATL 060352Z 20005KT 10SM FEW200 SCT250 25/17 A3012 RMK AO2 SLP188 T02500172=
200709060252 METAR KATL 060252Z 19004KT 10SM FEW150 BKN250 26/17 A3011 RMK AO2 SLP184 T02610172 51019=
200709060152 METAR KATL 060152Z 18005KT 10SM BKN150 BKN200 27/17 A3010 RMK AO2 SLP180 T02720172=
200709060052 METAR KATL 060052Z 15006KT 10SM BKN150 BKN200 28/17 A3007 RMK AO2 SLP173 T02780167=
200709052352 METAR KATL 052352Z 15006KT 9SM BKN150 OVC200 29/16 A3005 RMK AO2 SLP166 T02940161 10317 20294 56004=
200709052252 METAR KATL 052252Z 12007KT 8SM BKN150 OVC200 31/14 A3005 RMK AO2 SLP166 T03060144=
200709052152 METAR KATL 052152Z 13007KT 7SM FEW060 SCT200 BKN250 31/16 A3005 RMK AO2 SLP166 T03110161=
200709052052 METAR KATL 052052Z 14006KT 6SM HZ FEW065 BKN200 BKN250 32/16 A3007 RMK AO2 SLP170 T03170161 56009=
200709051952 METAR KATL 051952Z 14006KT 6SM HZ SCT065 SCT250 31/17 A3007 RMK AO2 SLP171 T03110167=
200709051852 METAR KATL 051852Z 13008KT 7SM FEW065 SCT180 SCT250 32/17 A3008 RMK AO2 SLP174 T03170167=
200709051752 METAR KATL 051752Z 15005KT 6SM HZ FEW060 SCT070 SCT180 SCT250 31/17 A3009 RMK AO2 SLP179 T03060167 10311 20228 58003=
200709051652 METAR KATL 051652Z 14008KT 8SM FEW065TCU SCT250 BKN300 31/16 A3010 RMK AO2 SLP182 TCU NE T03110161=
200709051552 METAR KATL 051552Z 16004KT 8SM FEW045 BKN250 BKN300 30/18 A3011 RMK AO2 SLP183 T03000183=
200709051452 METAR KATL 051452Z 00000KT 5SM HZ FEW180 SCT250 BKN300 29/19 A3010 RMK AO2 SLP181 T02890189 52010=
200709051352 METAR KATL 051352Z COR 00000KT 5SM HZ FEW180 SCT250 BKN300 26/20 A3009 RMK AO2 SLP178 T02610200=
200709051252 METAR KATL 051252Z 00000KT 4SM HZ SCT180 BKN250 25/19 A3008 RMK AO2 SLP177 T02500194=
200709051152 METAR KATL 051152Z 00000KT 4SM HZ BKN250 23/19 A3007 RMK AO2 SLP173 70003 T02280189 10250 20211 53015=
200709051052 METAR KATL 051052Z 00000KT 5SM HZ SCT250 22/18 A3005 RMK AO2 SLP165 T02220183=
200709050952 METAR KATL 050952Z 09005KT 6SM HZ FEW250 22/19 A3004 RMK AO2 SLP161 T02170189 $=
200709050852 METAR KATL 050852Z 06004KT 5SM HZ CLR 23/19 A3002 RMK AO2 SLP155 T02280194 55001 $=
200709050752 METAR KATL 050752Z 00000KT 6SM HZ CLR 23/19 A3002 RMK AO2 SLP152 T02330189 $=
200709050652 METAR KATL 050652Z 00000KT 6SM HZ FEW250 23/19 A3002 RMK AO2 SLP152 T02330194 $=
200709050552 METAR KATL 050552Z 00000KT 8SM BKN250 23/19 A3003 RMK AO2 SLP157 T02330194 10267 20233 50002 $=
200709050452 METAR KATL 050452Z 00000KT 8SM BKN250 24/21 A3003 RMK AO2 SLP158 T02440206 403280211 $=
200709050352 METAR KATL 050352Z 00000KT 9SM BKN250 26/19 A3003 RMK AO2 SLP156 T02560194 $=
200709050252 METAR KATL 050252Z 00000KT 9SM BKN250 26/20 A3002 RMK AO2 SLP154 T02610200 51009 $=
200709050152 METAR KATL 050152Z 00000KT 9SM BKN250 26/19 A3002 RMK AO2 SLP155 T02610194 $=
200709050052 METAR KATL 050052Z 00000KT 9SM FEW080 SCT250 26/19 A3001 RMK AO2 SLP151 T02560189 $=
200709042352 METAR KATL 042352Z 00000KT 7SM FEW055TCU SCT080 BKN250 27/21 A3000 RMK AO2 RAE41 SLP148 TCU VC S-SW P0003 60003 T02670206 10328 20267 58001=
200709042252 METAR KATL 042252Z 16008KT 8SM -RA SCT065TCU BKN080 BKN250 29/17 A3001 RMK AO2 RAB52 SLP151 TCU E-OHD-W P0000 T02940172=
200709042152 METAR KATL 042152Z 30003KT 7SM SCT065TCU BKN250 32/16 A2999 RMK AO2 SLP146 TCU VC NE-E AND SE-S T03220161=
200709042052 METAR KATL 042052Z 00000KT 8SM SCT070 SCT250 33/16 A3000 RMK AO2 SLP147 T03280161 56019=
200709041952 METAR KATL 041952Z 00000KT 8SM FEW070 32/16 A3001 RMK AO2 SLP152 T03170161=
200709041852 METAR KATL 041852Z 05008KT 7SM FEW060 SCT200 SCT250 32/17 A3004 RMK AO2 SLP161 T03220172=
200709041752 METAR KATL 041752Z 00000KT 7SM FEW060 BKN200 BKN250 31/17 A3006 RMK AO2 SLP167 T03110172 10317 20222 58010=
200709041652 METAR KATL 041652Z 10005KT 6SM HZ FEW055 SCT150 SCT250 31/18 A3007 RMK AO2 SLP173 T03060183=
200709041552 METAR KATL 041552Z 10006KT 6SM HZ FEW150 SCT200 SCT250 30/19 A3009 RMK AO2 SLP176 T03000189=
200709041452 METAR KATL 041452Z 36003KT 6SM HZ FEW200 SCT250 29/18 A3009 RMK AO2 SLP177 T02890183 51010=
200709041352 METAR KATL 041352Z 34006KT 7SM BKN180 26/18 A3008 RMK AO2 SLP175 T02610183=
200709041252 METAR KATL 041252Z 34006KT 7SM BKN250 24/18 A3007 RMK AO2 SLP172 T02440178=
200709041152 METAR KATL 041152Z 33005KT 7SM SCT250 22/17 A3006 RMK AO2 SLP168 T02170172 10233 20211 53001=
200709041052 METAR KATL 041052Z 32003KT 9SM FEW100 SCT180 21/17 A3005 RMK AO2 SLP166 T02110167=
200709040952 METAR KATL 040952Z 30003KT 10SM CLR 22/17 A3005 RMK AO2 SLP165 T02170167=
200709040852 METAR KATL 040852Z 00000KT 10SM CLR 22/17 A3006 RMK AO2 SLP167 T02220167 56010=
200709040752 METAR KATL 040752Z 30003KT 10SM CLR 23/17 A3007 RMK AO2 SLP170 T02280167=
200709040652 METAR KATL 040652Z 31005KT 10SM CLR 23/17 A3007 RMK AO2 SLP173 T02280167=
200709040552 METAR KATL 040552Z 30004KT 10SM CLR 23/17 A3009 RMK AO2 SLP178 T02330167 10283 20233 58005=
200709040452 METAR KATL 040452Z 30005KT 10SM CLR 24/17 A3010 RMK AO2 SLP181 T02390167 403110211=
200709040352 METAR KATL 040352Z 29003KT 10SM FEW100 26/15 A3010 RMK AO2 SLP182 T02610150=
200709040252 METAR KATL 040252Z 28004KT 10SM FEW100 26/16 A3010 RMK AO2 SLP183 T02610156 51008=
200709040152 METAR KATL 040152Z 00000KT 10SM FEW095 26/17 A3010 RMK AO2 SLP181 T02610167=
200709040052 METAR KATL 040052Z 00000KT 10SM FEW250 27/16 A3009 RMK AO2 SLP178 T02720161=
200709032352 METAR KATL 032352Z 20005KT 10SM FEW250 28/16 A3008 RMK AO2 SLP175 T02830156 10311 20283 56006=
200709032252 METAR KATL 032252Z 19006KT 10SM CLR 30/15 A3008 RMK AO2 SLP177 T03000150=
200709032152 METAR KATL 032152Z 00000KT 10SM FEW065 31/14 A3008 RMK AO2 SLP176 T03110139=
200709032052 METAR KATL 032052Z 08007KT 10SM FEW065 31/14 A3010 RMK AO2 SLP181 T03110144 56028=
200709031952 METAR KATL 031952Z 10005KT 10SM FEW065 31/14 A3012 RMK AO2 SLP189 T03110144=
200709031852 METAR KATL 031852Z 09004KT 10SM FEW065 31/14 A3015 RMK AO2 SLP200 T03060144=
200709031752 METAR KATL 031752Z 09005KT 10SM FEW065 29/14 A3018 RMK AO2 SLP210 T02940139 10300 20217 58010=
200709031652 METAR KATL 031652Z VRB03KT 10SM CLR 29/14 A3020 RMK AO2 SLP214 T02890139=
200709031552 METAR KATL 031552Z 12004KT 10SM CLR 28/14 A3021 RMK AO2 SLP218 T02780139=
200709031452 METAR KATL 031452Z 08006KT 10SM FEW120 27/14 A3021 RMK AO2 SLP222 T02670144 53007=
200709031445 METAR KATL 031445Z 08006KT 10SM FEW120 27/14 A3021 AO2 SLP222 T02670144 53007=
200709031352 METAR KATL 031352Z 07006KT 9SM FEW120 26/16 A3021 RMK A02 SLP219 T02560156=
200709031252 METAR KATL 031252Z 05006KT 8SM FEW110 24/16 A3020 A02 SLP216 T02390161=
200709031152 METAR KATL 031152Z 03006KT 9SM FEW110 22/16 A3019 A0O2 SLP215 T02170161 10228 20211 53006=
200709031052 METAR KATL 031052Z 04003KT 9SM FEW110 21/16 A3018 RMK A02 SLP211 T02110161=
200709030952 METAR KATL 030952Z 05005KT 10SM CLR 21/17 A3016 A02 SLP206 T02110167=
200709030852 METAR KATL 030852Z 05004KT 10SM FEW110 22/17 A3017 A02 SLP 208 T02170172 53002=
200709030752 METAR KATL 030752Z 00000KT 10SM FEW120 22/17 22/17 AO2 SLP 206 T02220170=
200709030652 METAR KATL 030652Z 07005KT 8SM FEW085 22/18 A3016 AO2 SLP 204 T02220178=
200709030552 METAR KATL 030552Z 09005KT 8SM SCT085 SCT150 22/18 A3017 A02 SLP206 T02220183 10261 20222 58003=
200709030452 METAR KATL 030452Z 08004KT 8SM SCT150 SCT200 23/18 A3017 AO2 SLP 208 T02280183 4028303217=
200709030352 METAR KATL 030352Z 07006KT 8SM SCT150 SCT200 24/18 A3017 A02 SLP208 T02390183=
200709030252 METAR KATL 030252Z 09004KT 8SM BKN150 BKN200 24/18 A3017 AO2 SLP209 T02440183 51012=
200709030152 METAR KATL 030152Z 09005KT 9SM SCT150 BKN200 24/18 A3016 A02 SLP205 T02440183=
200709030052 METAR KATL 030052Z 10003KT 9SM SCT070 BKN100 BKN250 26/18 A3015 RMK A02 SLP202 T02560183=
200709022352 METAR KATL 022352Z 110006KT 8SM SCT110 BKN250 26/18 A3014 802 SLP197 T02610178 10283 20256 50002=
200709022252 METAR KATL 022252Z 09011KT 8SM FEW035 SCT060 BKN110 BKN250 27/18 A3014 RMK A02 SLP198 T02670178=
200709022152 METAR KATL 022152Z 090011KT 8SM FEW037 SCT055 BKN095 BKN250 28/18 A3014 A02 SLP196 T02780178=
200709022052 METAR KATL 022052Z 10007G15KT 8SM FEW043 BKN055 BKN090 27/18 A3013 A02 SLP194 T02720178 58019=
200709021952 METAR KATL 021952Z 08012G17KT 7SM FEW036 SCT060 BKN090 27/18 A3015 A02 SLP202 T02720183=
200709021852 METAR KATL 021852Z 08014G20KT 7SM FEW035 SCT060 BKN100 28/18 A3018 A02 SLP209 T02780183=
200709021752 METAR KATL 021752Z 09010G20KT 7SM SCT028 BKN050 BKN150 26/19 A3019 RMK A02 SLP215 T02560189 10267 20228 58003=
200709021652 METAR KATL 021652Z 06013KT 6SM HZ SCT024 SCT050 BKN150 26/19 A3020 SLP216 T02560189=
200709021617 SPECI KATL 021617Z 07011G21KT 7SM BKN024 OVC050 25/19 A3020=
200709021617 SPECI KATL 021617Z 07011G21KT 7SM BKN024 OVC050 25/19 A3020=
200709021552 METAR KATL 021552Z 08013KT 6SM HZ SCT022 BKN080 25/19 A3020 A02 SLP217 T02500189=
200709021452 METAR KATL 021452Z 08014G22KT 5SM HZ BKN020 OVC048 24/19 A3020 RMK SLP219 702390189 51016=
200709021355 METAR KATL 021355Z 08014KT 5SM HZ BKN016 BKN044 OVC075 23/19 A3018 AO2 SLP213 T02330189=
200709021333 SPECI KATL 021333Z 07013G20KT 4SM HZ SCT016 BKN075 OVC120 23/19 A3018=
200709021333 SPECI KATL 021333Z 07013G20KT 4SM HZ SCT016 BKN075 OVC120 23/19 A3018=
200709021252 METAR KATL 021252Z 07011KT 4SM HZ BKN016 OVC075 23/19 A3017 RMK AO2 SLP210 T02280189=
200709021227 SPECI KATL 021227Z 07011KT 4SM HZ BKN016 OVC075 23/19 A3016=
200709021227 SPECI KATL 021227Z 07011KT 4SM HZ BKN016 OVC075 23/19 A3016=
200709021152 METAR KATL 021152Z 06008KT 4SM HZ BKN070 23/19 A3015 SLP201 T02280194 10228 20217 53009=
200709021052 METAR KATL 021052Z 06010KT 6SM HZ SCT015 BKN048 22/19 A3014 RMK/ SLP196 T02220194=
200709020945 METAR KATL 020945Z 08011KT 6SM HZ FEW014 OVC065 22/19 A3013=
200709020852 METAR KATL 020852Z 07011KT 5SM HZ SCT012 BKN042 OVC060 22/19 A3012 SLP191 T02220194 55001=
200709020652 METAR KATL 020652Z 08008KT 6SM HZ FEW070 22/19 A3012 RMK AO2 SLP188 T02170189=
200709020552 METAR KATL 020552Z 08009KT 8SM BKN070 22/19 A3012 RMK AO2 SLP190 T02220189 10239 20217 52003=
200709020452 METAR KATL 020452Z 08007KT 7SM BKN065 22/19 A3012 RMK AO2 SLP189 T02220194 402890211=
200709020352 METAR KATL 020352Z 10008KT 7SM BKN070 22/19 A3012 RMK AO2 SLP189 T02220189=
200709020252 METAR KATL 020252Z 10008KT 7SM FEW150 BKN200 22/19 A3011 RMK AO2 SLP189 T02170189 51019=
200709020152 METAR KATL 020152Z 09007KT 7SM FEW200 22/19 A3011 RMK AO2 SLP187 T02170189=
200709020052 METAR KATL 020052Z 11009KT 8SM FEW150 SCT250 23/19 A3008 RMK AO2 SLP177 T02280189=
200709012352 METAR KATL 012352Z 12011G16KT 7SM FEW100 SCT150 SCT200 24/20 A3006 RMK AO2 SLP170 60000 T02390200 10289 20239 53008=
200709012252 METAR KATL 012252Z 10011KT 7SM FEW050TCU 28/15 A3004 RMK AO2 SLP163 TCU VC SE T02780150=
200709012152 METAR KATL 012152Z 12006KT 7SM FEW030 SCT095 SCT150 BKN250 28/20 A3003 RMK AO2 SLP160 TCU DSNT S T02780200=
200709012052 METAR KATL 012052Z 10008KT 6SM HZ SCT037CB BKN070 BKN110 26/20 A3003 RMK AO2 RAB13E32 SLP161 CB VC SE AND SW MOV W P0000 60000 T02610200 58011=
200709011952 METAR KATL 011952Z 09007KT 7SM SCT036CB BKN046TCU BKN150 29/19 A3004 RMK AO2 SLP163 CB VC E MOV W CB NW DSPTD TCU OHD T02890189=
200709011852 METAR KATL 011852Z COR 14008KT 7SM SCT035CB BKN050 BKN150 28/20 A3006 RMK AO2 SLP169 CB NE-OHD-SW MOV W CB DSNT E MOV W T02830200=
200709011752 METAR KATL 011752Z 09010G18KT 7SM BKN033TCU BKN050 BKN150 28/19 A3007 RMK AO2 SLP171 TCU VC S-SW CB DSNT SE T02830189 10283 20211 50003=
200709011652 METAR KATL 011652Z 08014G18KT 7SM SCT029 SCT045 BKN060 BKN150 28/20 A3007 RMK AO2 SLP171 T02780200=
200709011610 SPECI KATL 011610Z 11011KT 6SM HZ SCT025 BKN035 BKN044 27/21 A3007 RMK AO2=
200709011610 SPECI KATL 011610Z 11011KT 6SM HZ SCT025 BKN035 BKN044 27/21 A3007 RMK AO2=
200709011552 METAR KATL 011552Z 07012KT 6SM HZ SCT024 BKN029 BKN035 26/21 A3007 RMK AO2 SLP173 CIG029V030 SCT024 V BKN T02610206=
200709011522 SPECI KATL 011522Z 09013G17KT 6SM HZ SCT023 BKN028 BKN033 BKN150 26/21 A3006 RMK AO2=
200709011522 SPECI KATL 011522Z 09013G17KT 6SM HZ SCT023 BKN028 BKN033 BKN150 26/21 A3006 RMK AO2=
200709011452 METAR KATL 011452Z 08010KT 6SM HZ SCT038 BKN150 BKN250 26/21 A3006 RMK AO2 SLP169 T02610206 52012=
200709011352 METAR KATL 011352Z 07010KT 6SM HZ FEW028 BKN150 BKN250 23/20 A3004 RMK AO2 SLP165 T02330200=
200709011252 METAR KATL 011252Z 06008KT 6SM HZ BKN180 BKN250 22/19 A3003 RMK AO2 SLP162 T02220194=
