##########################################################
# Query made at 04/19/2024 23:00:52 UTC
# Time interval: from 04/01/2007 12:00  to 04/30/2007 12:59  UTC
##########################################################

##########################################################
# KATL, Atlanta, Hartsfield - Jackson Atlanta International Airport (United States)
# WMO index: 72219. WIGOS ID: 0-20000-0-72219
# Latitude 33-38-59N. Longitude 084-25-00W. Altitude 312 m.
##########################################################

200704301252 METAR KATL 301252Z 33005KT 10SM CLR 20/09 A3014 RMK AO2 SLP198 T02000089=
200704301152 METAR KATL 301152Z 31003KT 10SM CLR 16/09 A3012 RMK AO2 SLP195 T01610089 10172 20139 53012=
200704301052 METAR KATL 301052Z 31006KT 10SM CLR 14/08 A3010 RMK AO2 SLP188 T01390083=
200704300952 METAR KATL 300952Z 32006KT 10SM CLR 14/08 A3009 RMK AO2 SLP183 T01440083=
200704300852 METAR KATL 300852Z 30005KT 10SM CLR 14/08 A3009=
200704300752 METAR KATL 300752Z 00000KT 10SM CLR 17/08 A3008 RMK AO2 SLP180 T01670083=
200704300652 METAR KATL 300652Z 31005KT 10SM CLR 16/08 A3009 RMK AO2 SLP182 T01610083=
200704300552 METAR KATL 300552Z 31007KT 10SM CLR 17/09 A3010 RMK AO2 SLP184 T01720089 10250 20172 58000=
200704300452 METAR KATL 300452Z 30007KT 10SM CLR 17/09 A3010=
200704300352 METAR KATL 300352Z 30006KT 10SM CLR 19/08 A3010 RMK AO2 SLP185 T01890083=
200704300152 METAR KATL 300152Z 29005KT 10SM CLR 22/08 A3008=
200704300052 METAR KATL 300052Z 29004KT 10SM FEW065 SCT200 23/07 A3007 RMK AO2 SLP175 T02280067=
200704292352 METAR KATL 292352Z 31008KT 10SM FEW200 25/06 A3005 RMK AO2 SLP171 T02500061 10278 20250 55001=
200704292252 METAR KATL 292252Z 31011KT 10SM FEW150 26/06 A3005 RMK AO2 SLP168 T02610061=
200704292152 METAR KATL 292152Z 34010KT 10SM FEW150 27/06 A3005 RMK AO2 SLP169 T02720061=
200704292052 METAR KATL 292052Z 27010G18KT 10SM FEW150 27/06 A3006 RMK AO2 SLP172 T02720061 56024=
200704291952 METAR KATL 291952Z 29015G19KT 10SM FEW080 27/06 A3008 RMK AO2 SLP179 T02670061=
200704291852 METAR KATL 291852Z 32010G18KT 10SM FEW070 27/07 A3010 RMK AO2 SLP188 T02670072=
200704291752 METAR KATL 291752Z 32010G17KT 10SM FEW070 26/07 A3013 RMK AO2 SLP197 T02560072 10256 20139 58014=
200704291652 METAR KATL 291652Z 33012G19KT 290V360 10SM FEW070 25/06 A3015 RMK AO2 SLP204 T02500061=
200704291552 METAR KATL 291552Z 30014KT 10SM FEW065 24/08 A3017 RMK AO2 SLP210 T02390078=
200704291452 METAR KATL 291452Z 33012G18KT 10SM CLR 22/08 A3017 RMK AO2 SLP211 T02220083 51009=
200704291352 METAR KATL 291352Z 32009KT 10SM CLR 20/09 A3017 RMK AO2 SLP210 T02000094=
200704291252 METAR KATL 291252Z 31007KT 10SM CLR 17/09 A3016 RMK AO2 SLP209 T01670089=
200704291152 METAR KATL 291152Z 30006KT 10SM CLR 14/09 A3014 RMK AO2 SLP203 T01390089 10156 20117 53016=
200704291052 METAR KATL 291052Z 31007KT 10SM CLR 12/08 A3011 RMK AO2 SLP193 T01220078=
200704290952 METAR KATL 290952Z 30005KT 10SM CLR 12/08 A3010 RMK AO2 SLP188 T01220083=
200704290852 METAR KATL 290852Z 30005KT 10SM CLR 13/08 A3010 RMK AO2 SLP186 T01280083 55003=
200704290752 METAR KATL 290752Z 29004KT 10SM CLR 14/08 A3009 RMK AO2 SLP182 T01390083=
200704290652 METAR KATL 290652Z 31006KT 10SM CLR 14/08 A3009 RMK AO2 SLP184 T01390083=
200704290552 METAR KATL 290552Z 27004KT 10SM CLR 16/08 A3011 RMK AO2 SLP188 T01560083 10222 20156 52005=
200704290452 METAR KATL 290452Z 30006KT 10SM CLR 16/08 A3010 RMK AO2 SLP188 T01610083 402670106=
200704290252 METAR KATL 290252Z 29005KT 10SM CLR 18/08 A3009 RMK AO2 SLP183 T01830078 51015=
200704290152 METAR KATL 290152Z 30003KT 10SM CLR 19/08 A3008 RMK AO2 SLP181 T01890078=
200704290052 METAR KATL 290052Z 32007KT 10SM CLR 21/08 A3006=
200704282352 METAR KATL 282352Z 32012G19KT 10SM FEW075 22/07 A3005 RMK AO2 SLP170 T02220072 10267 20222 53011=
200704282252 METAR KATL 282252Z 31015G20KT 10SM FEW075 SCT100 23/07 A3003 RMK AO2 SLP165 T02330072=
200704282052 METAR KATL 282052Z 32015G22KT 10SM FEW075 SCT100 25/07 A3001 RMK AO2 PK WND 30028/2028 SLP158 T02500067 56009=
200704281952 METAR KATL 281952Z 29019G24KT 10SM SCT075 26/07 A3002 RMK AO2 PK WND 28026/1937 SLP160 T02610067=
200704281852 METAR KATL 281852Z 28014G25KT 10SM SCT075 BKN090 BKN150 26/08 A3002 RMK AO2 SLP161 SCT075 V BKN T02610083=
200704281752 METAR KATL 281752Z 29010G19KT 10SM BKN065 BKN150 25/08 A3004 RMK AO2 SLP166 T02500083 10250 20122 58019=
200704281652 METAR KATL 281652Z 25007G15KT 10SM FEW060 SCT150 SCT250 23/08 A3007 RMK AO2 SLP175 T02330078=
200704281552 METAR KATL 281552Z 28008KT 10SM FEW055 SCT150 22/08 A3009 RMK AO2 SLP183 T02170083=
200704281452 METAR KATL 281452Z 30004KT 10SM FEW150 SCT250 20/09 A3010 RMK AO2 SLP187 T02000089 50004=
200704281352 METAR KATL 281352Z 31007KT 10SM R09R/5000VP6000FT FEW250 18/08 A3010 RMK AO2 SLP187 T01780083=
200704281252 METAR KATL 281252Z 32008KT 10SM FEW250 15/08 A3010 RMK AO2 SLP187 T01500078=
200704281152 METAR KATL 281152Z 31006KT 10SM FEW250 12/07 A3008 RMK AO2 SLP184 7//// T01220072 10144 20106 53015 $=
200704281052 METAR KATL 281052Z 30005KT 10SM FEW250 11/07 A3006 RMK AO2 SLP174 T01060067=
200704280952 METAR KATL 280952Z 30007KT 10SM CLR 11/07 A3005 RMK AO2 SLP170 T01110067=
200704280852 METAR KATL 280852Z 31005KT 10SM CLR 12/07 A3004 RMK AO2 SLP167 T01170067 55003=
200704280752 METAR KATL 280752Z 31005KT 10SM CLR 12/06 A3004 RMK AO2 SLP166 T01220061=
200704280652 METAR KATL 280652Z 33007KT 10SM CLR 14/06 A3003 RMK AO2 SLP165 T01390061=
200704280552 METAR KATL 280552Z 34012KT 10SM FEW250 14/07 A3005 RMK AO2 SLP170 T01440067 10211 20144 51005=
200704280452 METAR KATL 280452Z 32009KT 10SM BKN250 15/07 A3005 RMK AO2 SLP169 T01500072 402500150=
200704280352 METAR KATL 280352Z 32012KT 10SM FEW250 16/08 A3005 RMK AO2 SLP169 T01560078=
200704280252 METAR KATL 280252Z 32009KT 10SM FEW250 17/08 A3003 RMK AO2 SLPNO T01670078 51024=
200704280152 METAR KATL 280152Z 32008KT 10SM FEW200 SCT250 18/08 A3002 RMK AO2 SLP159 T01830083=
200704280052 METAR KATL 280052Z 31010KT 10SM FEW200 SCT250 19/08 A2998 RMK AO2 SLP150 T01940083=
200704272352 METAR KATL 272352Z COR 28013G16KT 10SM FEW200 SCT250 21/08 A2996=
200704272252 METAR KATL 272252Z 30012G19KT 10SM FEW060 SCT250 23/09 A2995 RMK AO2 SLP135 T02280089=
200704272152 METAR KATL 272152Z 26011G19KT 10SM FEW060 SCT250 24/09 A2994 RMK AO2 SLP131 T02390089=
200704272052 METAR KATL 272052Z 29014G18KT 10SM FEW060 SCT250 24/09 A2993 RMK AO2 SLPNO T02440094 56011=
200704271952 METAR KATL 271952Z COR 25009KT 10SM SCT060 BKN250 24/09 A2994 RMK AO2 SLP130 T02390089=
200704271852 METAR KATL 271852Z COR 29010G18KT 10SM SCT055 SCT250 23/09 A2995 RMK AO2 SLP134 T02330094=
200704271752 METAR KATL 271752Z COR 31013G17KT 10SM SCT050 SCT250 23/09 A2997 RMK AO2 SLP140 10233 20161 57007 T02280089=
200704271552 METAR KATL 271552Z COR 25009G15KT 10SM SCT045 21/09 A2998 RMK AO2 SLP146 T02110094 $=
200704271452 METAR KATL 271452Z 28010KT 10SM SCT035 19/12 A2999 RMK AO2 SLP136 T01890120 52020=
200704271352 METAR KATL 271352Z 31010KT 10SM FEW030 SCT050 SCT200 19/11 A2996 RMK AO2 SLP141 T01890111=
200704271252 METAR KATL 271252Z 30009KT 10SM FEW050 SCT250 18/12 A2995 RMK AO2 SLP137 T01780122=
200704271152 METAR KATL 271152Z 29006KT 10SM SCT050 BKN200 BKN250 16/12 A2993 RMK AO2 SLP131 70017 T01610122 10178 20156 53014=
200704271052 METAR KATL 271052Z 28006KT 10SM FEW010 SCT065 BKN200 BKN250 17/13 A2991 RMK AO2 SLP123 T01670133=
200704270952 METAR KATL 270952Z 26004KT 9SM FEW008 SCT016 BKN070 17/16 A2990 RMK AO2 SLP117 T01720156=
200704270930 SPECI KATL 270930Z 28007KT 10SM FEW008 SCT036 BKN065 18/16 A2989 RMK AO2=
200704270930 SPECI KATL 270930Z 28007KT 10SM FEW008 SCT036 BKN065 18/16 A2989 RMK AO2=
200704270910 SPECI KATL 270910Z 24005KT 9SM SCT008 BKN015 OVC025 18/16 A2989 RMK AO2=
200704270910 SPECI KATL 270910Z 24005KT 9SM SCT008 BKN015 OVC025 18/16 A2989 RMK AO2=
200704270852 METAR KATL 270852Z 24006KT 9SM BKN010 OVC015 18/16 A2989 RMK AO2 CIG 007V012 SLP114 T01780161 55004=
200704270752 METAR KATL 270752Z 22004KT 10SM FEW008 BKN012 BKN070 18/16 A2989 RMK AO2 SLP114 T01780156=
200704270733 SPECI KATL 270733Z 23006KT 10SM SCT010 SCT070 17/16 A2989 RMK AO2=
200704270716 SPECI KATL 270716Z 22005KT 10SM FEW008 BKN012 17/16 A2988 RMK AO2=
200704270716 SPECI KATL 270716Z 22005KT 10SM FEW008 BKN012 17/16 A2988 RMK AO2=
200704270652 METAR KATL 270652Z 22005KT 10SM FEW024 SCT060 18/16 A2989 RMK AO2 SLP114 T01780156=
200704270552 METAR KATL 270552Z 24004KT 10SM BKN009 OVC012 18/16 A2990 RMK AO2 CIG 005V011 SLP118 60000 T01780161 10189 20172 50003=
200704270424 SPECI KATL 270424Z 23007KT 10SM OVC009 17/16 A2990 RMK AO2=
200704270424 SPECI KATL 270424Z 23007KT 10SM OVC009 17/16 A2990 RMK AO2=
200704270352 METAR KATL 270352Z 24007KT 10SM FEW150 17/15 A2989 RMK AO2 SLP116 T01720150=
200704270252 METAR KATL 270252Z 19009KT 10SM FEW150 SCT200 18/15 A2989 RMK AO2 SLP117 60000 T01780150 51006=
200704270152 METAR KATL 270152Z 19006KT 10SM FEW150 SCT200 18/16 A2989 RMK AO2 SLP118 T01780156=
200704270052 METAR KATL 270052Z 20008KT 10SM FEW100 SCT140 BKN200 19/16 A2988=
200704262352 METAR KATL 262352Z 20010G20KT 7SM -RA FEW015 SCT050 BKN110 OVC250 19/16 A2987 RMK AO2 PK WND 21026/2327 SLP111 P0001 60004 T01890161 10233 20189 56006=
200704262252 METAR KATL 262252Z 19009KT 10SM -RA FEW040 BKN075 OVC150 21/17 A2988 RMK AO2 SLP110 CB DSNT NW P0000 T02110167=
200704262152 METAR KATL 262152Z 18010KT 9SM -RA FEW015 SCT035 BKN100 OVC150 22/18 A2989 RMK AO2 SLP113 CB DSNT NE P0001 T02170183=
200704262052 METAR KATL 262052Z 19008KT 10SM -RA FEW020 SCT040 SCT100 OVC150 22/17 A2989 RMK AO2 RAB01E10B51 SLP116 P0000 60002 T02220172 58012=
200704261952 METAR KATL 261952Z 19008KT 10SM FEW015 SCT060 BKN150 BKN250 22/17 A2991 RMK AO2 RAB05E52 SLP122 P0000 T02170172=
200704261852 METAR KATL 261852Z 19011G19KT 10SM FEW015 SCT050 BKN065 BKN150 BKN250 21/18 A2993=
200704261827 SPECI KATL 261827Z 20017G27KT 9SM -RA FEW005 SCT030 BKN050 OVC150 19/17 A2994 RMK AO2 PK WND 20039/1816 TSB10E27RAB09 VIS N-NE LWR SHRA TS MOV NE CB DSNT N-NE MOV NE P0002=
200704261827 SPECI KATL 261827Z 20017G27KT 9SM -RA FEW005 SCT030 BKN050 OVC150 19/17 A2994 RMK AO2 PK WND 20039/1816 TSB10E27RAB09 VIS N-NE LWR SHRA TS MOV NE CB DSNT N-NE MOV NE P0002=
200704261822 SPECI KATL 261822Z 20017G39KT 8SM R09R/5500VP6000FT -TSRA SCT030 BKN036CB OVC065 19/17 A2994 RMK AO2 PK WND 20039/1816 TSB10RAB09 VIS N-NE LWR SHRA OCNL LTGIC TS N-NE MOV NE CB N-NE MOV NE P0002=
200704261822 SPECI KATL 261822Z 20017G39KT 8SM R09R/5500VP6000FT -TSRA SCT030 BKN036CB OVC065 19/17 A2994 RMK AO2 PK WND 20039/1816 TSB10RAB09 VIS N-NE LWR SHRA OCNL LTGIC TS N-NE MOV NE CB N-NE MOV NE P0002=
200704261818 SPECI KATL 261818Z 20023G39KT 5SM R09R/5500VP6000FT +TSRA FEW030 BKN036CB OVC065 21/17 A2994 RMK AO2 PK WND 20039/1816 TSB10RAB09 OCNL LTGIC TS OHD-NW MOV NE CB OHD-NW MOV NE P0000=
200704261818 SPECI KATL 261818Z 20023G39KT 5SM R09R/5500VP6000FT +TSRA FEW030 BKN036CB OVC065 21/17 A2994 RMK AO2 PK WND 20039/1816 TSB10RAB09 OCNL LTGIC TS OHD-NW MOV NE CB OHD-NW MOV NE P0000=
200704261811 SPECI KATL 261811Z 19015G20KT 8SM -TSRA BKN034CB BKN055 OVC095 23/16 A2992 RMK AO2 TSB10RAB09 OCNL LTGIC TS VC SW-W MOV NE CB VC SE-NW MOV NE P0000=
200704261811 SPECI KATL 261811Z 19015G20KT 8SM -TSRA BKN034CB BKN055 OVC095 23/16 A2992 RMK AO2 TSB10RAB09 OCNL LTGIC TS VC SW-W MOV NE CB VC SE-NW MOV NE P0000=
200704261759 SPECI KATL 261759Z 20013KT 10SM SCT030CB BKN050 BKN060 OVC150 23/16 A2992 RMK AO2 CB VC SE-NW MOV NE SHRA VC SE-NW BINOVC NE=
200704261759 SPECI KATL 261759Z 20013KT 10SM SCT030CB BKN050 BKN060 OVC150 23/16 A2992 RMK AO2 CB VC SE-NW MOV NE SHRA VC SE-NW BINOVC NE=
200704261752 METAR KATL 261752Z 19009G18KT 10SM SCT030 BKN040 BKN070 BKN150 BKN250 23/16 A2993 RMK AO2 SLP126 CB DSNT SE-S-SW MOV NE SHRA DSNT SE-S-SW 60013 T02330161 10233 20178 58015=
200704261717 SPECI KATL 261717Z 20018G24KT 10SM FEW025 SCT030 BKN040 BKN150 BKN250 23/17 A2994 RMK AO2=
200704261659 SPECI KATL 261659Z 20011KT 10SM BKN027 BKN036 BKN150 BKN250 23/17 A2995 RMK AO2=
200704261659 SPECI KATL 261659Z 20011KT 10SM BKN027 BKN036 BKN150 BKN250 23/17 A2995 RMK AO2=
200704261552 METAR KATL 261552Z 17006KT 9SM FEW010 SCT040 OVC060 20/17 A2997 RMK AO2 RAB15E41 SLP142 BINOVC SE AND NW P0002 T02000172=
200704261543 SPECI KATL 261543Z 17006G14KT 9SM FEW024 SCT039 OVC060 19/17 A2997 RMK AO2 RAB15E41 P0002=
200704261543 SPECI KATL 261543Z 17006G14KT 9SM FEW024 SCT039 OVC060 19/17 A2997 RMK AO2 RAB15E41 P0002=
200704261530 SPECI KATL 261530Z 16010G15KT 3SM -RA BR FEW013 BKN021 OVC060 19/18 A2997 RMK AO2 SFC VIS 4 RAB15 P0002=
200704261530 SPECI KATL 261530Z 16010G15KT 3SM -RA BR FEW013 BKN021 OVC060 19/18 A2997 RMK AO2 SFC VIS 4 RAB15 P0002=
200704261522 SPECI KATL 261522Z 16007KT 2 1/2SM R09R/6000VP6000FT RA BR BKN013 BKN021 OVC065 19/18 A2998 RMK AO2 TWR VIS 3 VIS 1 1/2V5 RAB15 P0001=
200704261522 SPECI KATL 261522Z 16007KT 2 1/2SM R09R/6000VP6000FT RA BR BKN013 BKN021 OVC065 19/18 A2998 RMK AO2 TWR VIS 3 VIS 1 1/2V5 RAB15 P0001=
200704261517 SPECI KATL 261517Z 18009KT 6SM -RA BR SCT011 BKN016 OVC055 19/18 A2998 RMK AO2 RAB15 VIS LWR S-W SHRA P0000=
200704261517 SPECI KATL 261517Z 18009KT 6SM -RA BR SCT011 BKN016 OVC055 19/18 A2998 RMK AO2 RAB15 VIS LWR S-W SHRA P0000=
200704261510 SPECI KATL 261510Z 15009KT 9SM SCT011 BKN017 OVC055 19/17 A2997 RMK AO2=
200704261510 SPECI KATL 261510Z 15009KT 9SM SCT011 BKN017 OVC055 19/17 A2997 RMK AO2=
200704261459 SPECI KATL 261459Z 14008G14KT 10SM SCT009 BKN060 BKN075 19/17 A2997 RMK AO2=
200704261452 METAR KATL 261452Z 15006KT 9SM FEW015 BKN055 BKN080 BKN150 BKN250 19/17 A2997 RMK AO2 RAE06 SLP143 P0000 60011 T01940167 50001=
200704261327 SPECI KATL 261327Z 22007KT 6SM -RA BR FEW010 SCT035 OVC055 18/16 A3000 RMK AO2 P0004=
200704261327 SPECI KATL 261327Z 22007KT 6SM -RA BR FEW010 SCT035 OVC055 18/16 A3000 RMK AO2 P0004=
200704261308 SPECI KATL 261308Z 22008KT 2 1/2SM -RA BR FEW010 BKN034 OVC060 18/16 A3000 RMK AO2 SFC VIS 4 P0003=
200704261308 SPECI KATL 261308Z 22008KT 2 1/2SM -RA BR FEW010 BKN034 OVC060 18/16 A3000 RMK AO2 SFC VIS 4 P0003=
200704261259 SPECI KATL 261259Z 21009KT 2 1/2SM RA BR FEW008 BKN023 OVC050 18/16 A3000 RMK AO2 P0001=
200704261259 SPECI KATL 261259Z 21009KT 2 1/2SM RA BR FEW008 BKN023 OVC050 18/16 A3000 RMK AO2 P0001=
200704261252 METAR KATL 261252Z 21009KT 1 1/2SM R09R/5500VP6000FT RA BR FEW008 BKN026 OVC055 18/16 A3000 RMK AO2 PK WND 21027/1229 SFC VIS 1 3/4 RAB27 SLP153 P0006 T01780161=
200704261235 SPECI KATL 261235Z 21015G27KT 1 1/2SM R09R/5500VP6000FT RA BKN038 BKN055 OVC070 18/16 A3000 RMK AO2 PK WND 21027/1229 SFC VIS 2 RAB27 PRESRR P0000=
200704261235 SPECI KATL 261235Z 21015G27KT 1 1/2SM R09R/5500VP6000FT RA BKN038 BKN055 OVC070 18/16 A3000 RMK AO2 PK WND 21027/1229 SFC VIS 2 RAB27 PRESRR P0000=
200704261152 METAR KATL 261152Z 19011KT 10SM FEW048 OVC080 19/15 A2997 RMK AO2 SLP141 T01890150 10206 20183 53009=
200704261052 METAR KATL 261052Z 20006KT 10SM SCT070 BKN090 OVC250 18/15 A2996 RMK AO2 SLP137 T01830150=
200704260952 METAR KATL 260952Z 21007KT 10SM FEW065 BKN090 BKN250 18/15 A2995 RMK AO2 SLP133 T01830150=
200704260852 METAR KATL 260852Z COR 21007KT 10SM FEW065 SCT150 SCT200 BKN250 18/14 A2994 RMK AO2 SLP130 T01830144 58011=
200704260652 METAR KATL 260652Z 19008KT 10SM FEW065 SCT150 BKN200 OVC250 19/13 A2997 RMK AO2 SLP139 T01940133=
200704260552 METAR KATL 260552Z 18007KT 10SM SCT065 BKN200 OVC250 21/13 A2997 RMK AO2 SLP140 T02060133 10244 20206 58010=
200704260452 METAR KATL 260452Z 16003KT 10SM BKN060 BKN250 21/13 A2999 RMK AO2 SLP147 T02060133 402670150=
200704260352 METAR KATL 260352Z 17005KT 10SM FEW065 BKN080 OVC250 22/13 A3000 RMK AO2 SLP152 T02170128=
200704260252 METAR KATL 260252Z 17003KT 10SM FEW150 SCT200 BKN250 22/13 A3000 RMK AO2 SLP153 T02170128 53004=
200704260152 METAR KATL 260152Z 16003KT 10SM SCT200 BKN250 23/13 A3000 RMK AO2 SLP151 T02280128=
200704260052 METAR KATL 260052Z 18004KT 10SM CLR 23/12 A2999 RMK AO2 SLP151 T02330122=
200704252352 METAR KATL 252352Z 19007KT 10SM FEW055 BKN200 BKN250 24/12 A2999 RMK AO2 SLP149 T02440122 10267 20244 56003=
200704252252 METAR KATL 252252Z 20008KT 10SM FEW055 BKN200 BKN250 25/12 A2999 RMK AO2 SLP150 T02500122=
200704252152 METAR KATL 252152Z VRB05KT 10SM SCT060 BKN200 BKN250 26/12 A2999 RMK AO2 SLP150 T02560117=
200704252052 METAR KATL 252052Z 22011KT 10SM FEW060 BKN200 BKN250 26/11 A3000 RMK AO2 SLP153 T02560111 56018=
200704251952 METAR KATL 251952Z 23009KT 10SM SCT055 OVC250 26/11 A3002 RMK AO2 SLP159 T02610111=
200704251852 METAR KATL 251852Z 21012G18KT 10SM FEW060 BKN250 26/11 A3003 RMK AO2 SLP160 T02610106=
200704251752 METAR KATL 251752Z 23015G22KT 10SM FEW065 SCT150 BKN250 26/10 A3006 RMK AO2 SLP170 T02560100 10256 20161 58018=
200704251652 METAR KATL 251652Z 26009KT 10SM FEW055 BKN150 BKN250 24/11 A3008 RMK AO2 SLP177 ACC OHD AND ALQDS T02440106=
200704251552 METAR KATL 251552Z 27010KT 10SM FEW050 BKN150 BKN180 BKN250 23/10 A3010 RMK AO2 SLP187 T02280100=
200704251452 METAR KATL 251452Z 24009KT 10SM FEW030 SCT150 SCT180 SCT250 21/13 A3011 RMK AO2 SLP190 ACC E-SW T02060133 51009=
200704251352 METAR KATL 251352Z 24006KT 10SM FEW120 BKN150 BKN180 BKN250 19/13 A3011 RMK AO2 SLP190 ACC OHD T01890133=
200704251252 METAR KATL 251252Z 24006KT 10SM SCT120 BKN250 18/13 A3010 RMK AO2 SLP187 T01780128 $=
200704251152 METAR KATL 251152Z 22004KT 10SM FEW200 BKN250 16/12 A3009=
200704251052 METAR KATL 251052Z 00000KT 10SM FEW150 SCT200 BKN250 15/11 A3007 RMK AO2 SLP178 T01500111=
200704250952 METAR KATL 250952Z 00000KT 10SM FEW150 SCT200 BKN250 16/11 A3005 RMK AO2 SLP168 T01560111=
200704250852 METAR KATL 250852Z 00000KT 10SM FEW200 SCT250 16/11 A3006=
200704250752 METAR KATL 250752Z 23004KT 10SM SCT250 17/11 A3006 RMK AO2 SLP172 T01720106=
200704250652 METAR KATL 250652Z 21006KT 10SM SCT250 18/10 A3007 RMK AO2 SLP175 T01780100=
200704250552 METAR KATL 250552Z 23003KT 10SM SCT250 18/09 A3008 RMK AO2 SLP179 T01830094 10250 20183 56005=
200704250452 METAR KATL 250452Z 21005KT 10SM BKN250 19/09 A3008 RMK AO2 SLP179 T01940089 402720161=
200704250352 METAR KATL 250352Z 20007KT 10SM BKN250 20/09 A3009 RMK AO2 SLP181 T02000089=
200704250252 METAR KATL 250252Z 21007KT 10SM SCT250 21/08 A3010=
200704250152 METAR KATL 250152Z 20007KT 10SM SCT250 22/08 A3009 RMK AO2 SLP184 T02170083=
200704250052 METAR KATL 250052Z 21010KT 10SM SCT250 23/10 A3010 RMK AO2 SLP184 T02330100=
200704242352 METAR KATL 242352Z 21009KT 10SM FEW100 BKN250 25/11 A3009=
200704242252 METAR KATL 242252Z 20009KT 10SM FEW060 SCT200 BKN250 26/11 A3009 RMK AO2 SLP181 T02610111=
200704242152 METAR KATL 242152Z 18010KT 10SM FEW065 SCT200 BKN250 27/12 A3009 RMK AO2 SLP183 T02670117=
200704242052 METAR KATL 242052Z 20010KT 10SM FEW065 SCT090 SCT180 BKN250 27/11 A3010 RMK AO2 SLP185 T02670111 56021=
200704241952 METAR KATL 241952Z 19011KT 10SM FEW065 SCT180 BKN250 27/11 A3011 RMK AO2 SLP188 T02670106=
200704241852 METAR KATL 241852Z 22010G14KT 10SM FEW060 SCT180 OVC250 26/11 A3013 RMK AO2 SLP196 T02610106=
200704241752 METAR KATL 241752Z 25007KT 10SM SCT050 BKN100 BKN250 27/13 A3016 RMK AO2 SLP206 T02670128 10267 20172 58014=
200704241652 METAR KATL 241652Z VRB04KT 10SM FEW055 SCT090 BKN250 26/13 A3019 RMK AO2 SLP214 T02610128=
200704241552 METAR KATL 241552Z 26014G20KT 10SM FEW050 SCT120 BKN250 24/12 A3021 RMK AO2 SLP223 T02440117=
200704241452 METAR KATL 241452Z 26011KT 10SM FEW120 SCT180 BKN250 23/13 A3020 RMK AO2 SLP221 T02330128 58005=
200704241352 METAR KATL 241352Z 24008KT 10SM FEW120 BKN180 BKN250 21/14 A3021 RMK AO2 SLP221 T02110139=
200704241252 METAR KATL 241252Z 24005KT 10SM BKN120 BKN200 BKN250 18/13 A3022 RMK AO2 SLP228 T01830133=
200704241152 METAR KATL 241152Z 24004KT 10SM BKN110 OVC200 17/13 A3022 RMK AO2 SLP228 T01720133 10178 20161 51014=
200704241052 METAR KATL 241052Z 24006KT 10SM BKN110 BKN200 OVC250 17/13 A3021 RMK AO2 SLP223 T01720128=
200704240952 METAR KATL 240952Z 26006KT 10SM SCT100 SCT200 BKN250 17/13 A3019 RMK AO2 SLP217 T01720128=
200704240852 METAR KATL 240852Z 27006KT 10SM FEW100 SCT200 SCT250 17/12 A3018 RMK AO2 SLP213 T01670117 55006=
200704240752 METAR KATL 240752Z 24007KT 10SM FEW100 SCT200 SCT250 17/11 A3018 RMK AO2 SLP212 T01670106=
200704240652 METAR KATL 240652Z 22004KT 10SM FEW100 SCT250 17/11 A3018 RMK AO2 SLP215 T01670106=
200704240552 METAR KATL 240552Z 22005KT 10SM FEW100 SCT250 18/11 A3020=
200704240452 METAR KATL 240452Z 22004KT 10SM FEW200 18/11 A3020 RMK AO2 SLP220 T01780106 402560122=
200704240352 METAR KATL 240352Z 22005KT 10SM FEW200 18/10 A3022 RMK AO2 SLP226 T01830100=
200704240252 METAR KATL 240252Z 22005KT 10SM FEW250 19/10 A3022 RMK AO2 SLP226 T01940100 53009=
200704240152 METAR KATL 240152Z 22003KT 10SM FEW250 21/10 A3020 RMK AO2 SLP221 T02060100=
200704240052 METAR KATL 240052Z 22004KT 10SM FEW065 22/09 A3020 RMK AO2 SLP222 T02170094=
200704232352 METAR KATL 232352Z 22007KT 10SM FEW065 SCT250 23/09 A3019 RMK AO2 SLP218 T02330089 10256 20233 55009=
200704232252 METAR KATL 232252Z 22010KT 10SM FEW065 SCT200 SCT250 24/09 A3018=
200704232152 METAR KATL 232152Z VRB06KT 10SM FEW065 SCT200 BKN250 25/08 A3020 RMK AO2 SLP222 T02500083=
200704232052 METAR KATL 232052Z 26008G17KT 10SM FEW065 BKN220 BKN300 25/08 A3022 RMK AO2 SLP226 T02500083 56020=
200704231952 METAR KATL 231952Z 23007KT 10SM FEW065 BKN220 BKN300 24/08 A3023 RMK AO2 SLP231 T02440078=
200704231852 METAR KATL 231852Z 20007KT 10SM SCT065 BKN220 BKN300 24/08 A3025=
200704231752 METAR KATL 231752Z 20009KT 10SM SCT060 SCT220 BKN300 24/08 A3028 RMK AO2 SLP247 T02440083 10250 20133 58015=
200704231652 METAR KATL 231652Z 20008KT 10SM FEW060 SCT220 24/09 A3029 RMK AO2 SLP253 T02390089=
200704231552 METAR KATL 231552Z 20006KT 10SM SCT220 22/09 A3031 RMK AO2 SLP259 T02170094=
200704231452 METAR KATL 231452Z 21008KT 10SM BKN220 21/10 A3032 RMK AO2 SLP262 T02060100 50002=
200704231352 METAR KATL 231352Z 21007KT 10SM SCT250 18/10 A3033 RMK AO2 SLP264 T01780100=
200704231252 METAR KATL 231252Z 19007KT 10SM FEW250 15/09 A3031 RMK AO2 SLP259 T01500089=
200704231152 METAR KATL 231152Z 00000KT 10SM FEW200 13/07 A3031 RMK AO2 SLP261 T01330072 10167 20122 53018=
200704231052 METAR KATL 231052Z 00000KT 10SM CLR 12/07 A3029 RMK AO2 SLP253 T01220067=
200704230952 METAR KATL 230952Z 19003KT 10SM CLR 13/07 A3028 RMK AO2 SLP249 T01280067=
200704230852 METAR KATL 230852Z 19005KT 10SM CLR 14/06 A3026 RMK AO2 SLP241 T01440061 53008=
200704230752 METAR KATL 230752Z 00000KT 10SM CLR 13/06 A3025 RMK AO2 SLP239 T01280061=
200704230652 METAR KATL 230652Z 00000KT 10SM CLR 16/04 A3023 RMK AO2 SLP231 T01560039=
200704230552 METAR KATL 230552Z 00000KT 10SM CLR 16/03 A3023=
200704230452 METAR KATL 230452Z 00000KT 10SM CLR 16/04 A3024=
200704230352 METAR KATL 230352Z 18004KT 10SM CLR 18/03 A3024 RMK AO2 SLP234 T01830033=
200704230252 METAR KATL 230252Z 18005KT 10SM CLR 18/04 A3024=
200704230152 METAR KATL 230152Z 17003KT 10SM CLR 20/03 A3023 RMK AO2 SLP233 T02000033=
200704230052 METAR KATL 230052Z 17003KT 10SM CLR 21/02 A3022 RMK AO2 SLP229 T02110022=
200704222352 METAR KATL 222352Z 19007KT 10SM CLR 23/02 A3022 RMK AO2 SLP227 T02330022 10250 20228 55005=
200704222252 METAR KATL 222252Z 20008KT 10SM CLR 24/02 A3022 RMK AO2 SLP227 T02390022=
200704222152 METAR KATL 222152Z 19007KT 10SM CLR 24/02 A3022 RMK AO2 SLP229 T02440022=
200704222052 METAR KATL 222052Z 18008KT 10SM FEW070 24/03 A3023 RMK AO2 SLP232 T02440033 58017=
200704221952 METAR KATL 221952Z 09009G14KT 10SM CLR 24/04 A3025 RMK AO2 SLP238 T02440044=
200704221852 METAR KATL 221852Z 14007KT 10SM FEW055 24/04 A3027 RMK AO2 SLP245 T02440039=
200704221652 METAR KATL 221652Z VRB04KT 10SM CLR 22/04 A3029 RMK AO2 SLP252 T02220039=
200704221552 METAR KATL 221552Z 18008KT 10SM CLR 21/04 A3030 RMK AO2 SLP255 T02110039=
200704221452 METAR KATL 221452Z 19005KT 8SM CLR 19/05 A3030 RMK AO2 SLP256 T01940050 51013=
200704221352 METAR KATL 221352Z 23006KT 5SM HZ CLR 18/04 A3029 RMK AO2 SLP254 T01780044=
200704221252 METAR KATL 221252Z 23006KT 3SM HZ CLR 16/05 A3029 RMK AO2 SFC VIS 4 SLP252 T01560050=
200704221236 SPECI KATL 221236Z 23006KT 2 1/2SM HZ CLR 15/05 A3028 RMK AO2 TWR VIS 3=
200704221236 SPECI KATL 221236Z 23006KT 2 1/2SM HZ CLR 15/05 A3028 RMK AO2 TWR VIS 3=
200704221152 METAR KATL 221152Z 23003KT 3SM HZ FEW250 13/06 A3026 RMK AO2 SFC VIS 5 SLP243 T01280056 10156 20117 53020=
200704221052 METAR KATL 221052Z 00000KT 10SM FEW250 12/06 A3023 RMK AO2 SLP234 T01220061=
200704220952 METAR KATL 220952Z 00000KT 10SM CLR 12/07 A3021=
200704220852 METAR KATL 220852Z 00000KT 10SM CLR 13/07 A3020 RMK AO2 SLP222 T01280067 51002=
200704220752 METAR KATL 220752Z 00000KT 10SM CLR 13/07 A3020 RMK AO2 SLP221 T01280067=
200704220652 METAR KATL 220652Z 00000KT 10SM CLR 14/06 A3020 RMK AO2 SLP221 T01390061=
200704220552 METAR KATL 220552Z 00000KT 10SM CLR 16/06 A3019 RMK AO2 SLP219 T01560056 10217 20150 58001=
200704220452 METAR KATL 220452Z 00000KT 10SM CLR 16/05 A3020 RMK AO2 SLP221 T01610050 402390106=
200704220352 METAR KATL 220352Z 20004KT 10SM CLR 17/06 A3020 RMK AO2 SLP221 T01670056=
200704220252 METAR KATL 220252Z 00000KT 10SM CLR 18/05 A3020 RMK AO2 SLP220 T01780050 51010=
200704220152 METAR KATL 220152Z 16004KT 10SM CLR 19/04 A3019 RMK AO2 SLP219 T01890044=
200704220052 METAR KATL 220052Z 16003KT 10SM CLR 20/04 A3018 RMK AO2 SLP215 T02000039=
200704212352 METAR KATL 212352Z 15005KT 10SM CLR 22/03 A3016 RMK AO2 SLP211 T02170033 10239 20217 56004=
200704212252 METAR KATL 212252Z 00000KT 10SM CLR 23/03 A3016 RMK AO2 SLP210 T02280028=
200704212152 METAR KATL 212152Z 11005KT 10SM FEW075 23/03 A3017 RMK AO2 SLP211 T02280033=
200704212100 SPECI KATL 212100Z 00000KT 10SM FEW002 SCT075 23/04 A3017 RMK AO2 FU FEW002=
200704212100 SPECI KATL 212100Z 00000KT 10SM FEW002 SCT075 23/04 A3017 RMK AO2 FU FEW002=
200704212052 METAR KATL 212052Z 05004KT 10SM FEW075 23/04 A3018 RMK AO2 SLP214 T02330044 58019=
200704211952 METAR KATL 211952Z 02004KT 10SM SCT075 SCT150 23/04 A3020 RMK AO2 SLP221 T02330039=
200704211852 METAR KATL 211852Z 00000KT 10SM SCT075 SCT150 23/04 A3022 RMK AO2 SLP229 T02280039=
200704211752 METAR KATL 211752Z 11007KT 070V140 10SM FEW070 SCT150 22/04 A3023 RMK AO2 SLP234 T02170044 10222 20111 58015=
200704211652 METAR KATL 211652Z 05006G14KT 10SM FEW065 SCT150 21/05 A3025 RMK AO2 SLP241 T02110050=
200704211552 METAR KATL 211552Z VRB04KT 10SM FEW060 SCT150 21/06 A3028 RMK AO2 SLP249 T02060061=
200704211452 METAR KATL 211452Z 10004KT 10SM FEW250 18/06 A3028 RMK AO2 SLP250 T01830056 51012=
200704211352 METAR KATL 211352Z 12004KT 10SM FEW250 17/07 A3027 RMK AO2 SLP249 T01670067=
200704211252 METAR KATL 211252Z 00000KT 9SM FEW250 14/07 A3026 RMK AO2 SLP245 T01440072=
200704211152 METAR KATL 211152Z 00000KT 9SM FEW250 11/07 A3024 RMK AO2 SLP239 T01110067 10133 20106 53019=
200704211052 METAR KATL 211052Z 00000KT 9SM FEW250 11/06 A3021=
200704210952 METAR KATL 210952Z 00000KT 9SM SCT250 11/06 A3019 RMK AO2 SLP223 T01110061=
200704210852 METAR KATL 210852Z 00000KT 9SM BKN070 12/07 A3019 RMK AO2 SLP219 T01220067 53002=
200704210752 METAR KATL 210752Z 00000KT 9SM SCT070 13/06 A3018 RMK AO2 SLP216 T01280061=
200704210652 METAR KATL 210652Z 00000KT 9SM SCT250 13/07 A3018 RMK AO2 SLP215 T01280067=
200704210552 METAR KATL 210552Z 00000KT 10SM SCT250 13/07 A3018 RMK AO2 SLP217 T01330067 10189 20133 51007=
200704210452 METAR KATL 210452Z 14003KT 10SM BKN250 14/07 A3017 RMK AO2 SLP215 T01390067 402060100=
200704210352 METAR KATL 210352Z 14003KT 10SM BKN250 14/07 A3016 RMK AO2 SLP213 T01440072=
200704210252 METAR KATL 210252Z 14003KT 10SM BKN250 15/07 A3016 RMK AO2 SLP210 T01500067 53018=
200704210152 METAR KATL 210152Z 14005KT 10SM BKN250 16/06 A3014 RMK AO2 SLP204 T01610061=
200704210052 METAR KATL 210052Z 15003KT 10SM FEW200 BKN250 18/06 A3012 RMK AO2 SLP197 T01780061=
200704202352 METAR KATL 202352Z 10005KT 10SM FEW200 BKN250 18/06 A3010 RMK AO2 SLP192 T01830056 10206 20178 55001=
200704202252 METAR KATL 202252Z 11004KT 10SM FEW055 BKN250 19/06 A3010 RMK AO2 SLP190 T01940056=
200704202152 METAR KATL 202152Z 33005KT 10SM FEW055 BKN250 20/06 A3010 RMK AO2 SLP191 T02000056=
200704202052 METAR KATL 202052Z VRB05KT 10SM SCT055 SCT250 BKN280 19/06 A3011 RMK AO2 SLP192 T01940056 58012=
200704201952 METAR KATL 201952Z COR VRB04KT 10SM SCT049 BKN280 19/06 A3012 RMK AO2 SLP198 T01890061=
200704201852 METAR KATL 201852Z 00000KT 10SM BKN049 BKN280 19/07 A3013 RMK AO2 SLP202 T01890067=
200704201752 METAR KATL 201752Z 05009KT 10SM SCT045 SCT280 18/06 A3014 RMK AO2 SLP205 T01780061 10183 20106 58003=
200704201652 METAR KATL 201652Z 09009KT 050V120 10SM BKN040 BKN280 18/07 A3016 RMK AO2 SLP210 T01780072=
200704201552 METAR KATL 201552Z 08009G19KT 10SM SCT035 BKN280 17/07 A3016 RMK AO2 SLP210 SCT035 V BKN T01670072=
200704201526 SPECI KATL 201526Z 07011KT 10SM SCT029 BKN280 16/07 A3015 RMK AO2=
200704201452 METAR KATL 201452Z COR 06012KT 10SM BKN027 BKN280 15/07 A3015 RMK AO2 SLP208 T01500072 51017=
200704201352 METAR KATL 201352Z 08011KT 9SM FEW020 SCT280 14/07 A3014 RMK AO2 SLP204 T01390072=
200704201252 METAR KATL 201252Z 07009KT 7SM FEW250 12/07 A3012 RMK AO2 SLP198 T01170072=
200704201152 METAR KATL 201152Z 05010KT 6SM HZ FEW250 11/07 A3010 RMK AO2 SLP191 T01060072 10117 20100 53021=
200704201052 METAR KATL 201052Z 04009KT 8SM CLR 10/06 A3007 RMK AO2 SLP182 T01000061=
200704200952 METAR KATL 200952Z 03008KT 9SM CLR 10/05 A3006 RMK AO2 SLP175 T01000050=
200704200852 METAR KATL 200852Z 02009KT 10SM CLR 11/03 A3004 RMK AO2 SLP167 T01060028 53010=
200704200752 METAR KATL 200752Z 36009KT 10SM CLR 11/01 A3002 RMK AO2 SLP162 T01060011=
200704200652 METAR KATL 200652Z 01007KT 10SM CLR 11/01 A3001 RMK AO2 SLP159 T01110011=
200704200552 METAR KATL 200552Z COR 35008KT 10SM FEW250 12/01 A3001 RMK AO2 SLP157 T01170011 10189 20117 51017=
200704200452 METAR KATL 200452Z 01008KT 10SM CLR 13/01 A2999 RMK AO2 SLP150 T01280006 402500094=
200704200352 METAR KATL 200352Z 36011KT 10SM CLR 14/01 A2997 RMK AO2 SLP145 T01390006=
200704200252 SPECI KATL 200252Z 36012KT 10SM CLR 15/00 A2996 RMK AO2 SLP139 T01500000 51032=
200704200152 METAR KATL 200152Z 36013KT 10SM SCT075 16/00 A2993 RMK AO2 SLP133 T01610000=
200704200052 METAR KATL 200052Z 35016G21KT 10SM FEW070 17/01 A2989 RMK AO2 SLP120 T01720011=
200704192352 METAR KATL 192352Z 34017G23KT 10SM FEW070 19/03 A2986 RMK AO2 PK WND 33026/2303 SLP108 T01890028 10250 20189 53023=
200704192252 METAR KATL 192252Z 30020G29KT 10SM FEW075 21/03 A2983 RMK AO2 PK WND 32029/2247 SLP097 T02110028=
200704192152 METAR KATL 192152Z 30017G22KT 10SM FEW080 23/03 A2980 RMK AO2 PK WND 34028/2129 SLP086 T02280033=
200704191952 METAR KATL 191952Z 30014G22KT 10SM FEW080 22/04 A2980 RMK AO2 SLP089 T02220039=
200704191852 METAR KATL 191852Z 29014KT 10SM SCT080 23/04 A2982 RMK AO2 SLP093 T02280039=
200704191752 METAR KATL 191752Z 27011G19KT 10SM SCT070 24/06 A2983 RMK AO2 SLP096 T02390056 10239 20111 58012=
200704191652 METAR KATL 191652Z 28016G21KT 10SM SCT065 23/06 A2985=
200704191552 METAR KATL 191552Z 31010G21KT 10SM FEW060 22/06 A2987 RMK AO2 SLP109 T02170061=
200704191452 METAR KATL 191452Z 33005KT 10SM CLR 21/07 A2987 RMK AO2 SLP108 T02060072 51017=
200704191352 METAR KATL 191352Z 32009G20KT 10SM CLR 17/07 A2986 RMK AO2 SLP105 T01720072 $=
200704191252 METAR KATL 191252Z 32007KT 10SM CLR 13/07 A2984 RMK AO2 SLP102 T01330067=
200704191152 METAR KATL 191152Z 32005KT 10SM CLR 11/06 A2982 RMK AO2 SLP093 T01110061 10128 20094 53014=
200704191052 METAR KATL 191052Z 32005KT 10SM CLR 09/05 A2980 RMK AO2 SLP089 T00940050=
200704190952 METAR KATL 190952Z 32005KT 10SM CLR 09/04 A2979 RMK AO2 SLP083 T00940044=
200704190852 METAR KATL 190852Z 33005KT 10SM CLR 10/04 A2977 RMK AO2 SLP078 T01000039 53001=
200704190752 METAR KATL 190752Z 29003KT 10SM CLR 11/04 A2976=
200704190652 METAR KATL 190652Z 00000KT 10SM CLR 12/03 A2976 RMK AO2 SLP074 T01220033=
200704190552 METAR KATL 190552Z 00000KT 10SM CLR 13/03 A2977 RMK AO2 SLP076 T01280033 10206 20122 50004=
200704190452 METAR KATL 190452Z 29005KT 10SM CLR 12/03 A2977 RMK AO2 SLP078 T01220033 402220111=
200704190352 METAR KATL 190352Z 22003KT 10SM FEW150 15/03 A2977=
200704190252 METAR KATL 190252Z 00000KT 10SM CLR 16/02 A2976 RMK AO2 SLP073 T01610022 53010=
200704190152 METAR KATL 190152Z 00000KT 10SM FEW120 17/01 A2974 RMK AO2 SLP066 T01720011=
200704190052 METAR KATL 190052Z 19003KT 10SM SCT120 BKN150 19/02 A2974 RMK AO2 SLP064 T01890017=
200704182352 METAR KATL 182352Z 22003KT 10SM BKN120 BKN150 21/M01 A2973 RMK AO2 SLP062 T02061011 10222 20206 53006=
200704182252 METAR KATL 182252Z 19004KT 10SM BKN140 21/M03 A2971=
200704182152 METAR KATL 182152Z 15006KT 10SM FEW200 22/M03 A2970 RMK AO2 SLP055 T02171033=
200704182052 METAR KATL 182052Z 15006KT 10SM FEW100 SCT150 SCT180 SCT250 22/M03 A2971 RMK AO2 SLP056 T02221028 58015=
200704181952 METAR KATL 181952Z 16004KT 10SM FEW090 SCT150 BKN180 BKN250 21/M01 A2973 RMK AO2 SLP062 T02111006=
200704181852 METAR KATL 181852Z 16006KT 10SM FEW090 SCT150 BKN180 BKN250 21/M02 A2974 RMK AO2 SLP068 T02061017=
200704181752 METAR KATL 181752Z COR 12006KT 10SM FEW090 SCT150 OVC180 21/M02 A2976 RMK AO2 SLP072 VIRGA DSNT N-SE T02111017 10211 20139 50000=
200704181652 METAR KATL 181652Z 10005KT 10SM FEW075 SCT100 BKN180 OVC250 21/01 A2976 RMK AO2 SLP073 VIRGA DSNT NE-S T02060011=
200704181552 METAR KATL 181552Z 08004KT 10SM FEW100 SCT150 BKN180 OVC250 19/01 A2976 RMK AO2 SLP073 VIRGA DSNT NE-SW T01890011=
200704181452 METAR KATL 181452Z 16004KT 10SM FEW120 SCT150 BKN180 OVC250 17/01 A2976 RMK AO2 SLP071 VIRGA DSNT ALQDS BINOVC E T01720006 53007=
200704181352 METAR KATL 181352Z 12008KT 10SM FEW120 BKN150 BKN180 OVC250 16/01 A2974 RMK AO2 SLP067 VIRGA DSNT ALQDS T01610011=
200704181252 METAR KATL 181252Z 06012KT 10SM SCT120 BKN150 OVC200 15/00 A2971 RMK AO2 SLP057 VIRGA OHD-ALQDS T01500000=
200704181152 METAR KATL 181152Z 03003KT 10SM SCT120 BKN150 OVC200 14/00 A2974 RMK AO2 SLP063 VIRGA OHD-ALQDS T01440000 10144 20111 55009=
200704181052 METAR KATL 181052Z 36008KT 10SM FEW120 BKN150 OVC200 14/00 A2972 RMK AO2 SLP057 VIRGA OHD-ALQDS T01390000=
200704180952 METAR KATL 180952Z 30004KT 10SM BKN150 OVC200 12/01 A2976 RMK AO2 SLP071 T01170011=
200704180852 METAR KATL 180852Z 29007KT 10SM BKN150 OVC200 12/02 A2976 RMK AO2 SLP073 T01170017 55011=
200704180752 METAR KATL 180752Z 32003KT 10SM BKN150 BKN200 BKN250 12/01 A2976 RMK AO2 SLP073 T01220006=
200704180652 METAR KATL 180652Z 30007KT 10SM SCT150 BKN200 BKN250 11/01 A2979 RMK AO2 SLP083 T01110011=
200704180552 METAR KATL 180552Z 31007KT 10SM FEW150 12/02 A2980 RMK AO2 SLP086 T01170022 10217 20117 56004=
200704180452 METAR KATL 180452Z 30007KT 10SM FEW150 13/02 A2980 RMK AO2 SLP085 T01280022 402440106=
200704180352 METAR KATL 180352Z 31008KT 10SM FEW150 15/02 A2979 RMK AO2 SLP083 T01500017=
200704180252 METAR KATL 180252Z 28005KT 10SM FEW200 17/01 A2981 RMK AO2 SLP089 T01720006 58001=
200704180152 METAR KATL 180152Z 33006KT 10SM FEW200 17/01 A2982 RMK AO2 SLP093 T01720006=
200704180052 METAR KATL 180052Z 32004KT 10SM FEW200 19/M01 A2982 RMK AO2 SLP093 T01941011=
200704172352 METAR KATL 172352Z 34006KT 10SM FEW200 22/M02 A2981 RMK AO2 SLP091 T02171017 10244 20217 56012=
200704172252 METAR KATL 172252Z 33010KT 10SM FEW250 23/M03 A2981 RMK AO2 SLP091 T02331033=
200704172152 METAR KATL 172152Z 31010KT 290V350 10SM FEW250 24/M03 A2982=
200704172052 METAR KATL 172052Z 30006G16KT 10SM FEW250 24/M02 A2985 RMK AO2 SLP102 T02391022 58027=
200704171952 METAR KATL 171952Z 33009KT 10SM FEW250 23/M03 A2988 RMK AO2 SLP112 T02331033=
200704171852 METAR KATL 171852Z 33012KT 10SM FEW250 23/M03 A2990 RMK AO2 SLP120 T02281033=
200704171752 METAR KATL 171752Z 33016G23KT 10SM FEW250 22/M04 A2993 RMK AO2 SLP130 T02171039 10222 20111 58007=
200704171652 METAR KATL 171652Z 32015G20KT 10SM FEW250 21/M04 A2994 RMK AO2 SLP134 T02111044=
200704171552 METAR KATL 171552Z 32014G21KT 10SM FEW250 19/M05 A2995 RMK AO2 SLP138 T01941050=
200704171452 METAR KATL 171452Z 31013G18KT 10SM FEW250 18/M03 A2995=
200704171352 METAR KATL 171352Z 31013KT 10SM FEW250 15/M02 A2996 RMK AO2 SLP142 T01501017=
200704171252 METAR KATL 171252Z 32014G20KT 10SM FEW200 13/M02 A2995=
200704171152 METAR KATL 171152Z 32018G24KT 10SM FEW250 11/M02 A2992 RMK AO2 SLP129 T01111022 10133 20106 53005=
200704171052 METAR KATL 171052Z 32012KT 10SM FEW250 11/M02 A2992 RMK AO2 SLP128 T01061022=
200704170952 METAR KATL 170952Z 32015KT 10SM CLR 11/M02 A2990 RMK AO2 SLP123 T01111022=
200704170852 METAR KATL 170852Z 33014G22KT 10SM CLR 12/M02 A2990 RMK AO2 SLP123 T01171022 56012=
200704170752 METAR KATL 170752Z 32016G22KT 10SM CLR 13/M02 A2990 RMK AO2 SLP122 T01281022=
200704170652 METAR KATL 170652Z 32014G23KT 10SM CLR 13/M02 A2992 RMK AO2 SLP127 T01331022=
200704170552 METAR KATL 170552Z 32012G18KT 10SM FEW250 13/M01 A2994 RMK AO2 SLP135 T01331011 10183 20128 58003=
200704170452 METAR KATL 170452Z 31008KT 10SM FEW250 14/01 A2994 RMK AO2 SLP137 T01390006 402110044=
200704170352 METAR KATL 170352Z 30007KT 10SM FEW250 14/01 A2995 RMK AO2 SLP138 T01390006=
200704170252 METAR KATL 170252Z 29008KT 10SM FEW250 15/01 A2995 RMK AO2 SLP138 T01500006 51010=
200704170152 METAR KATL 170152Z 29011KT 10SM FEW250 16/01 A2994 RMK AO2 SLP137 T01610006=
200704170052 METAR KATL 170052Z 28011KT 10SM FEW250 17/00 A2993 RMK AO2 SLP133 T01670000=
200704162352 METAR KATL 162352Z 30015G21KT 10SM FEW250 18/M01 A2992 RMK AO2 PK WND 32028/2308 SLP130 T01831006 10211 20183 55004=
200704162252 METAR KATL 162252Z 30019G26KT 10SM CLR 20/M01 A2991 RMK AO2 PK WND 32036/2219 SLP129 T02001011=
200704162152 METAR KATL 162152Z 32020G26KT 10SM CLR 21/M01 A2992 RMK AO2 PK WND 33031/2133 SLP130 T02061006=
200704162052 METAR KATL 162052Z 31017G30KT 10SM CLR 21/M01 A2993 RMK AO2 PK WND 29031/1956 SLP133 T02111011 58022=
200704161852 METAR KATL 161852Z 31021G29KT 10SM CLR 19/M01 A2997 RMK AO2 PK WND 31035/1754 SLP149 T01941011=
200704161752 METAR KATL 161752Z 31020G31KT 10SM CLR 18/M01 A2999 RMK AO2 PK WND 31036/1659 SLP156 T01831006 10183 20072 58007=
200704161652 METAR KATL 161652Z 31024G36KT 10SM FEW065 16/M01 A3001 RMK AO2 PK WND 32037/1641 SLP162 T01611006=
200704161552 METAR KATL 161552Z 31022G34KT 10SM FEW065 16/M01 A3002 RMK AO2 PK WND 30034/1546 SLP168 T01561011=
200704161452 METAR KATL 161452Z 31024G36KT 10SM CLR 14/M01 A3002 RMK AO2 PK WND 31036/1452 SLP165 T01391006 50014=
200704161352 METAR KATL 161352Z 30014G24KT 10SM CLR 12/M02 A3002 RMK AO2 PK WND 33026/1351 SLP169 T01171017 $=
200704161252 METAR KATL 161252Z 30014G24KT 10SM CLR 09/M01 A3000 RMK AO2 SLP164 T00941011 $=
200704161152 METAR KATL 161152Z 30010G18KT 10SM CLR 07/M02 A2997 RMK AO2 SLP154 T00721017 10072 20044 53013 $=
200704161124 SPECI KATL 161124Z 28010G19KT 10SM CLR 06/M02 A2997 RMK AO2 $=
200704161124 SPECI KATL 161124Z 28010G19KT 10SM CLR 06/M02 A2997 RMK AO2 $=
200704161052 METAR KATL 161052Z 29011KT 10SM CLR 06/M02 A2995=
200704160952 METAR KATL 160952Z 28008KT 10SM CLR 05/M02 A2994 RMK AO2 SLP142 T00501017 $=
200704160852 METAR KATL 160852Z 29005KT 10SM CLR 05/M02 A2993 RMK AO2 SLP141 T00501017 53000 $=
200704160752 METAR KATL 160752Z 28007KT 10SM CLR 05/M02 A2992 RMK AO2 SLP137 T00501017 $=
200704160652 METAR KATL 160652Z 30010KT 10SM CLR 06/M02 A2992 RMK AO2 SLP136 T00611017 $=
200704160552 METAR KATL 160552Z 31010KT 10SM CLR 06/M02 A2993 RMK AO2 SLP140 T00611017 10072 20044 51007 $=
200704160452 METAR KATL 160452Z 30009KT 10SM CLR 06/M01 A2993 RMK AO2 SLP140 T00611006 401720044 $=
200704160352 METAR KATL 160352Z 31012KT 10SM CLR 07/M01 A2992 RMK AO2 SLP135 T00671006 $=
200704160252 METAR KATL 160252Z 30007KT 10SM CLR 05/01 A2991 RMK AO2 SLP133 T00500006 51027 $=
200704160152 METAR KATL 160152Z 29012KT 10SM CLR 06/01 A2989 RMK AO2 SLP127 T00560006 $=
200704160052 METAR KATL 160052Z 31011KT 10SM FEW060 06/00 A2986 RMK AO2 SLP114 T00560000 $=
200704152352 METAR KATL 152352Z 32019KT 10SM SCT030 BKN036 BKN046 06/00 A2983 RMK AO2 SLP104 60000 T00560000 10072 20050 53039 $=
200704152252 METAR KATL 152252Z 31016KT 10SM BKN030 OVC035 06/M01 A2978 RMK AO2 SLP087 T00561006 $=
200704152213 SPECI KATL 152213Z 31024KT 10SM OVC030 06/M01 A2976 RMK AO2 $=
200704152213 SPECI KATL 152213Z 31024KT 10SM OVC030 06/M01 A2976 RMK AO2 $=
200704152152 METAR KATL 152152Z 29020KT 10SM BKN023 BKN027 OVC032 06/00 A2974 RMK AO2 RAE17 SLP073 BKN023 V SCT SHRA VC SW-NW P0000 T00560000 $=
200704152052 METAR KATL 152052Z 30023KT 10SM -RA BKN024 OVC032 06/00 A2971 RMK AO2 RAB1954 SLP061 PK WND 30026/36 SHRA VC N-NE AND S P0000 60000 T00560000 53025 $=
200704152046 SPECI KATL 152046Z 31023KT 10SM BKN024 BKN032 06/00 A2971=
200704152008 SPECI KATL 152008Z 30022KT 10SM -RA SCT022 BKN030 BKN037 07/01 A2968 RMK AO2 RAB1954 SHRA VC N-E P0000 $=
200704152008 SPECI KATL 152008Z 30022KT 10SM -RA SCT022 BKN030 BKN037 07/01 A2968 RMK AO2 RAB1954 SHRA VC N-E P0000 $=
200704151952 METAR KATL 151952Z 30026KT 10SM BKN025 BKN033 BKN041 06/00 A2968 RMK AO2 RAB06E48 SLP050 BKN025 V SCT SHRA VC E-SE AND SW-NW P0000 T00610000 $=
200704151944 SPECI KATL 151944Z 30017KT 10SM -RA SCT022 BKN030 OVC035 07/02 A2968 RMK AO2 RAB06 P0000 $=
200704151944 SPECI KATL 151944Z 30017KT 10SM -RA SCT022 BKN030 OVC035 07/02 A2968 RMK AO2 RAB06 P0000 $=
200704151852 METAR KATL 151852Z 31020KT 10SM BKN028 BKN038 OVC070 07/00 A2966=
200704151752 METAR KATL 151752Z 29021KT 10SM BKN025 OVC033 07/01 A2963 RMK AO2 RAB08E15 SLP034 P0000 60000 T00670006 10089 20067 51017 $=
200704151652 METAR KATL 151652Z 29018KT 10SM BKN022 OVC029 07/02 A2962 RMK AO2 SLP027 T00720022 $=
200704151552 METAR KATL 151552Z 29020KT 10SM FEW018 OVC022 08/03 A2960 RMK AO2 RAE19 SLP023 P0000 T00780028 $=
200704151452 METAR KATL 151452Z 28016KT 10SM -RA BKN018 OVC023 07/04 A2958 RMK AO2 RAB50 SLP016 P0000 60000 T00720039 51013 $=
200704151352 METAR KATL 151352Z 29017KT 9SM FEW014 OVC018 08/04 A2957 RMK AO2 DZE02 SLP011 P0000 T00780044 $=
200704151332 SPECI KATL 151332Z 29022KT 8SM FEW012 OVC016 08/04 A2957 RMK AO2 DZE02 P0000 $=
200704151332 SPECI KATL 151332Z 29022KT 8SM FEW012 OVC016 08/04 A2957 RMK AO2 DZE02 P0000 $=
200704151252 METAR KATL 151252Z 28015KT 5SM -DZ BR SCT007 OVC012 08/06 A2956 RMK AO2 RAE30DZB30 SLP007 P0000 T00830061 $=
200704151249 SPECI KATL 151249Z 28012KT 5SM -DZ BR SCT007 OVC012 08/06 A2956 RMK AO2 RAE30DZB30 P0000 $=
200704151249 SPECI KATL 151249Z 28012KT 5SM -DZ BR SCT007 OVC012 08/06 A2956 RMK AO2 RAE30DZB30 P0000 $=
200704151217 SPECI KATL 151217Z 27015KT 2 1/2SM -RA BR BKN007 BKN012 OVC019 08/07 A2955 RMK AO2 P0000 $=
200704151152 METAR KATL 151152Z 28017KT 5SM -RA BR BKN005 OVC010 09/07 A2954 RMK AO2 RAB47 SLP002 P0000 60011 70110 T00890072 10172 20089 53020 $=
200704151052 METAR KATL 151052Z 27012KT 9SM OVC005 11/09 A2952 RMK AO2 SLP992 T01060094=
200704150952 METAR KATL 150952Z 30013KT 10SM OVC007 12/11 A2950=
200704150852 METAR KATL 150852Z 30014KT 10SM BKN007 OVC050 15/13 A2948 RMK AO2 RAE17 CIG 005V010 SLP978 P0001 60011 T01500133 56020=
200704150752 METAR KATL 150752Z 29011KT 5SM -RA BR BKN004 BKN010 OVC016 17/16 A2948 RMK AO2 CIG 002V007 SLP977 P0002 T01720156=
200704150731 SPECI KATL 150731Z 27005KT 4SM -RA BR BKN004 OVC018 17/16 A2948 RMK AO2 CIG 002V008 P0002=
200704150731 SPECI KATL 150731Z 27005KT 4SM -RA BR BKN004 OVC018 17/16 A2948 RMK AO2 CIG 002V008 P0002=
200704150711 SPECI KATL 150711Z 27004KT 4SM -RA BR FEW004 BKN020 OVC026 17/16 A2950 RMK AO2 P0001=
200704150711 SPECI KATL 150711Z 27004KT 4SM -RA BR FEW004 BKN020 OVC026 17/16 A2950 RMK AO2 P0001=
200704150652 METAR KATL 150652Z 00000KT 8SM -RA SCT018 BKN026 OVC040 17/16 A2951 RMK AO2 SLP985 P0008 T01720156=
200704150552 METAR KATL 150552Z 35003KT 6SM RA BR FEW008 BKN016 OVC031 17/16 A2954 RMK AO2 PRESFR SLP997 P0016 60059 T01720156 10194 20172 56034=
200704150542 SPECI KATL 150542Z 35003KT 5SM -RA BR FEW004 BKN016 OVC021 17/16 A2957 RMK AO2 P0016=
200704150452 METAR KATL 150452Z 02005KT 3SM RA BR BKN023 OVC033 17/16 A2957 RMK AO2 SLP007 P0015 T01720161 402280117=
200704150435 SPECI KATL 150435Z 34007KT 4SM RA BR BKN023 BKN036 OVC055 18/16 A2959 RMK AO2 P0007=
200704150435 SPECI KATL 150435Z 34007KT 4SM RA BR BKN023 BKN036 OVC055 18/16 A2959 RMK AO2 P0007=
200704150402 SPECI KATL 150402Z 00000KT 10SM SCT016 SCT022 OVC060 18/16 A2960=
200704150352 METAR KATL 150352Z 00000KT 8SM -RA BKN016 OVC060 18/15 A2960 RMK AO2 SLP019 P0003 T01830150=
200704150303 SPECI KATL 150303Z 15006KT 7SM -RA FEW012 SCT022 OVC060 18/16 A2964 RMK AO2 PRESFR P0001=
200704150303 SPECI KATL 150303Z 15006KT 7SM -RA FEW012 SCT022 OVC060 18/16 A2964 RMK AO2 PRESFR P0001=
200704150252 METAR KATL 150252Z 17006KT 3SM RA SCT010 BKN024 OVC055 18/16 A2965 RMK AO2 TSB11E52RAB0158 SLP034 DSNT LTG NE TS MOV NE P0012 60025 T01830156 58021=
200704150202 SPECI KATL 150202Z 16008KT 2 1/2SM +RA BR FEW050CB BKN080 OVC100 18/16 A2968 RMK AO2 RAB0158 CB OHD-NW MOV NE P0004=
200704150202 SPECI KATL 150202Z 16008KT 2 1/2SM +RA BR FEW050CB BKN080 OVC100 18/16 A2968 RMK AO2 RAB0158 CB OHD-NW MOV NE P0004=
200704150152 METAR KATL 150152Z COR 18009G14KT 9SM FEW040CB BKN060 OVC100 18/16 A2969 RMK AO2 RAE52 SLP049 CB VC SW-W MOV NE DSNT LTG SW-W P0006 T01830161=
200704150052 METAR KATL 150052Z 18010KT 6SM -RA BR FEW008 BKN038CB OVC100 18/17 A2970 RMK AO2 SLP053 CB VC NE MOV NE P0007 T01830167=
200704142352 METAR KATL 142352Z 19004KT 6SM -RA BR FEW008 SCT024 OVC033 18/17 A2971 RMK AO2 TSE45 SLP058 TS MOV NE P0025 60040 T01830167 10228 20183 58011=
200704142346 SPECI KATL 142346Z 18006KT 4SM -RA BR FEW008 SCT024 OVC033 18/17 A2971 RMK AO2 TSE45 PRESFR TS MOV NE P0024=
200704142346 SPECI KATL 142346Z 18006KT 4SM -RA BR FEW008 SCT024 OVC033 18/17 A2971 RMK AO2 TSE45 PRESFR TS MOV NE P0024=
200704142333 SPECI KATL 142333Z 23007KT 3SM -TSRA BR FEW017 BKN024CB OVC055 18/17 A2975 RMK AO2 OCNL LTGICCA TS E MOV NE P0023=
200704142333 SPECI KATL 142333Z 23007KT 3SM -TSRA BR FEW017 BKN024CB OVC055 18/17 A2975 RMK AO2 OCNL LTGICCA TS E MOV NE P0023=
200704142319 SPECI KATL 142319Z 23005KT 1 3/4SM R09R/5000VP6000FT +TSRA BR FEW012 BKN027CB OVC055 18/17 A2976 RMK AO2 OCNL LTGICCA TS SE MOV NE P0009=
200704142301 SPECI KATL 142301Z 25006KT 4SM TSRA FEW012 BKN029CB OVC055 19/16 A2977 RMK AO2 OCNL LTGIC TS S-SW MOV NE P0002=
200704142301 SPECI KATL 142301Z 25006KT 4SM TSRA FEW012 BKN029CB OVC055 19/16 A2977 RMK AO2 OCNL LTGIC TS S-SW MOV NE P0002=
200704142252 METAR KATL 142252Z 24007G21KT 2 1/2SM TSRA FEW012 BKN029CB OVC055 19/16 A2977 RMK AO2 PK WND 21027/2157 TSB15 SLP078 OCNL LTGIC TS S-SW MOV NE P0015 T01890161=
200704142244 SPECI KATL 142244Z 23013G17KT 2 1/2SM +TSRA BR BKN031CB OVC080 19/17 A2978 RMK AO2 PK WND 21027/2157 TSB15 OCNL LTGIC TS S-SW MOV NE P0012=
200704142244 SPECI KATL 142244Z 23013G17KT 2 1/2SM +TSRA BR BKN031CB OVC080 19/17 A2978 RMK AO2 PK WND 21027/2157 TSB15 OCNL LTGIC TS S-SW MOV NE P0012=
200704142217 SPECI KATL 142217Z 22012KT 4SM -TSRA BKN031CB BKN060 OVC120 20/17 A2977=
200704142152 METAR KATL 142152Z COR 19015G22KT 7SM -RA FEW045CB BKN055 OVC120 21/17 A2975 RMK AO2 RAB2057 SLP069 CB VC S-SW P0000 T02110167=
200704142052 METAR KATL 142052Z 20010G16KT 8SM FEW029 SCT060 OVC120 22/16 A2978 RMK AO2 SLP080 T02220156 56023=
200704141952 METAR KATL 141952Z 18014G21KT 8SM SCT033 OVC150 23/14 A2980 RMK AO2 SLP085 T02280144=
200704141852 METAR KATL 141852Z 15012KT 8SM FEW040 OVC150 23/13 A2983 RMK AO2 SLP094 T02280128=
200704141752 METAR KATL 141752Z 16009KT 8SM FEW035 OVC150 22/13 A2985 RMK AO2 SLP105 T02170128 10217 20128 58039=
200704141652 METAR KATL 141652Z 16006KT 9SM FEW040 OVC150 21/11 A2990 RMK AO2 SLP120 T02110111=
200704141552 METAR KATL 141552Z 14007KT 9SM SCT028 BKN042 BKN055 OVC150 19/10 A2994 RMK AO2 SLP135 T01890100=
200704141500 SPECI KATL 141500Z 18006KT 9SM BKN026 BKN036 BKN070 OVC150 18/09 A2997 RMK AO2=
200704141500 SPECI KATL 141500Z 18006KT 9SM BKN026 BKN036 BKN070 OVC150 18/09 A2997 RMK AO2=
200704141452 METAR KATL 141452Z VRB05KT 9SM SCT028 BKN036 BKN070 OVC150 18/09 A2997 RMK AO2 SLP145 SCT028 V BKN T01830094 50001=
200704141352 METAR KATL 141352Z 11004KT 9SM BKN070 BKN150 OVC200 17/07 A3000 RMK AO2 SLP155 T01670072=
200704141252 METAR KATL 141252Z 08006KT 10SM FEW110 SCT200 OVC250 15/07 A2999 RMK AO2 SLP151 T01500067=
200704141152 METAR KATL 141152Z 07007KT 10SM SCT110 BKN200 OVC250 13/06 A2997 RMK AO2 SLP145 T01280061 10144 20117 53015=
200704141052 METAR KATL 141052Z 12006KT 10SM SCT110 BKN200 OVC250 13/05 A2993=
200704140952 METAR KATL 140952Z 12005KT 10SM FEW110 BKN250 12/04 A2992 RMK AO2 SLP126 T01220044=
200704140852 METAR KATL 140852Z 08008KT 10SM FEW110 SCT250 12/04 A2992 RMK AO2 SLP128 T01170044 58021=
200704140752 METAR KATL 140752Z 09007KT 10SM BKN120 BKN250 12/05 A2996 RMK AO2 SLP139 T01220050=
200704140652 METAR KATL 140652Z 04005KT 10SM BKN120 BKN250 14/04 A2997 RMK AO2 SLP144 T01440044=
200704140552 METAR KATL 140552Z 08005KT 10SM BKN120 BKN250 13/04 A2999 RMK AO2 SLP152 T01330044 10206 20133 58016=
200704140452 METAR KATL 140452Z 06006KT 10SM BKN130 15/04 A3001 RMK AO2 SLP159 T01500039 402390067=
200704140352 METAR KATL 140352Z 05007KT 10SM BKN130 16/03 A3002 RMK AO2 SLP163 T01560033=
200704140252 METAR KATL 140252Z 02005KT 10SM FEW150 16/03 A3004 RMK AO2 SLP169 T01610028 56008=
200704140152 METAR KATL 140152Z 35006KT 10SM FEW250 18/03 A3004 RMK AO2 SLP169 T01780028=
200704140052 METAR KATL 140052Z 35005KT 10SM FEW140 19/02 A3004 RMK AO2 SLP170 T01940022=
200704132352 METAR KATL 132352Z 34008KT 10SM BKN140 BKN250 21/03 A3006 RMK AO2 SLP177 ACC VC ALQDS T02060028 10239 20200 50000=
200704132252 METAR KATL 132252Z 32005KT 10SM BKN140 BKN250 22/03 A3007 RMK AO2 SLP181 ACC VC NE-SE T02220028=
200704132152 METAR KATL 132152Z 28006KT 10SM SCT150 23/03 A3008 RMK AO2 SLP182 T02280033=
200704132052 METAR KATL 132052Z 02008KT 10SM FEW150 SCT260 24/02 A3006 RMK AO2 SLP176 T02390022 58025=
200704131952 METAR KATL 131952Z 02005KT 10SM SCT150 BKN180 BKN260 23/02 A3008 RMK AO2 SLP184 T02330017=
200704131852 METAR KATL 131852Z 04006KT 10SM FEW150 SCT180 SCT260 22/M01 A3012=
200704131752 METAR KATL 131752Z 00000KT 10SM FEW150 SCT180 BKN260 20/M03 A3014 RMK AO2 SLP203 VIRGA DSNT NW T02001028 10206 20078 58017=
200704131652 METAR KATL 131652Z 36005G15KT 10SM FEW150 SCT260 BKN300 18/M03 A3017 RMK AO2 SLP213 T01831028=
200704131552 METAR KATL 131552Z 32010G17KT 10SM FEW240 17/M02 A3020 RMK AO2 SLP224 T01721022=
200704131452 METAR KATL 131452Z 33012G16KT 10SM CLR 15/M02 A3019 RMK AO2 SLP220 T01501022 53013=
200704131352 METAR KATL 131352Z 34011KT 10SM CLR 12/M01 A3017 RMK AO2 SLP214 T01171011=
200704131252 METAR KATL 131252Z 33012KT 10SM CLR 09/01 A3017 RMK AO2 SLP215 T00940006=
200704131152 METAR KATL 131152Z 32007KT 10SM CLR 08/01 A3015 RMK AO2 SLP208 T00780006 10106 20067 53017=
200704131052 METAR KATL 131052Z 32008KT 10SM CLR 07/01 A3013 RMK AO2 SLP202 T00720006=
200704130952 METAR KATL 130952Z 33008KT 10SM CLR 08/01 A3011 RMK AO2 SLP196 T00780006=
200704130852 METAR KATL 130852Z 33007KT 10SM CLR 08/01 A3010 RMK AO2 SLP190 T00830006 51011=
200704130752 METAR KATL 130752Z 33008KT 10SM CLR 09/01 A3009 RMK AO2 SLP186 T00890006=
200704130652 METAR KATL 130652Z 32004KT 10SM CLR 10/00 A3008 RMK AO2 SLP182 T01000000=
200704130552 METAR KATL 130552Z 31004KT 10SM CLR 11/00 A3006 RMK AO2 SLP177 T01060000 10183 20100 53006=
200704130452 METAR KATL 130452Z 29004KT 10SM CLR 12/M01 A3005 RMK AO2 SLP173 T01171006 402280100=
200704130352 METAR KATL 130352Z 31005KT 10SM CLR 13/M01 A3004 RMK AO2 SLP170 T01281006=
200704130252 METAR KATL 130252Z 31007KT 10SM CLR 13/00 A3005 RMK AO2 SLP172 T01330000 51026=
200704130152 METAR KATL 130152Z 31008KT 10SM CLR 15/00 A3003 RMK AO2 SLP165 T01500000=
200704130052 METAR KATL 130052Z 32009KT 10SM CLR 17/01 A3000 RMK AO2 SLP155 T01670006=
200704122352 METAR KATL 122352Z 32012KT 10SM CLR 18/M01 A2997 RMK AO2 SLP145 T01831006 10228 20183 51016=
200704122252 METAR KATL 122252Z 29013G18KT 10SM CLR 20/M01 A2995 RMK AO2 SLP140 T02001006=
200704122152 METAR KATL 122152Z 27015G25KT 10SM CLR 21/M02 A2994 RMK AO2 SLP134 T02111017=
200704122052 METAR KATL 122052Z 29018G24KT 10SM CLR 22/M02 A2992=
200704121952 METAR KATL 121952Z 30016G21KT 10SM CLR 22/M02 A2992 RMK AO2 PK WND 28026/1915 SLP127 T02221017=
200704121852 METAR KATL 121852Z 27012G23KT 240V310 10SM CLR 22/M02 A2992=
200704121752 METAR KATL 121752Z 28011G25KT 240V310 10SM CLR 21/M02 A2993 RMK AO2 SLP131 T02111022 10217 20111 50002=
200704121652 METAR KATL 121652Z 26013G23KT 10SM CLR 20/M02 A2994 RMK AO2 SLP134 T02001022=
200704121552 METAR KATL 121552Z 28014G22KT 10SM CLR 18/M01 A2994 RMK AO2 SLP135 T01831006=
200704121452 METAR KATL 121452Z 30011G22KT 270V360 10SM CLR 17/01 A2993 RMK AO2 SLP130 T01720011 51017=
200704121352 METAR KATL 121352Z 30010KT 10SM CLR 15/02 A2991 RMK AO2 SLP127 T01500022=
200704121252 METAR KATL 121252Z 27008KT 10SM CLR 13/03 A2990 RMK AO2 SLP122 T01330028=
200704121152 METAR KATL 121152Z 26006KT 10SM CLR 11/03 A2987 RMK AO2 SLP114 70004 T01110028 10139 20100 51021=
200704121052 METAR KATL 121052Z 26006KT 10SM CLR 10/03 A2986=
200704120952 METAR KATL 120952Z 28007KT 10SM CLR 11/04 A2983 RMK AO2 SLP102 T01060039=
200704120852 METAR KATL 120852Z 27008KT 10SM FEW075 12/05 A2981 RMK AO2 SLP092 T01170050 53015=
200704120752 METAR KATL 120752Z 28007KT 10SM FEW075 12/07 A2978 RMK AO2 SLP082 T01170067=
200704120652 METAR KATL 120652Z 28005KT 10SM SCT075 13/11 A2976 RMK AO2 SLP077 T01280106=
200704120552 METAR KATL 120552Z 28005KT 7SM FEW065 SCT080 14/12 A2976 RMK AO2 SLP077 60003 T01390117 10167 20133 51011=
200704120540 SPECI KATL 120540Z 28005KT 5SM BR SCT065 BKN080 13/12 A2976 RMK AO2=
200704120540 SPECI KATL 120540Z 28005KT 5SM BR SCT065 BKN080 13/12 A2976 RMK AO2=
200704120452 METAR KATL 120452Z 00000KT 2SM R09R/3500VP6000FT BR SCT065 BKN080 14/13 A2976 RMK AO2 SLP075 T01390128 401670100=
200704120352 METAR KATL 120352Z 00000KT 2 1/2SM BR FEW005 BKN055 BKN070 14/13 A2974 RMK AO2 SLP070 T01390128=
200704120301 SPECI KATL 120301Z 33006KT 4SM BR FEW007 BKN050 BKN070 15/13 A2974 RMK AO2=
200704120301 SPECI KATL 120301Z 33006KT 4SM BR FEW007 BKN050 BKN070 15/13 A2974 RMK AO2=
200704120252 METAR KATL 120252Z 35004KT 5SM BR FEW020 BKN045 BKN070 15/13 A2973 RMK AO2 TSB28E51RAB33E51 SLP065 TS DSIPTD P0003 60003 T01500133 53019=
200704120243 SPECI KATL 120243Z 35005KT 3SM -TSRA BR SCT006 BKN020CB OVC045 15/13 A2973 RMK AO2 SFC VIS 4 TSB28RAB33 OCNL LTGCG TS NE MOV NE P0003=
200704120243 SPECI KATL 120243Z 35005KT 3SM -TSRA BR SCT006 BKN020CB OVC045 15/13 A2973 RMK AO2 SFC VIS 4 TSB28RAB33 OCNL LTGCG TS NE MOV NE P0003=
200704120228 SPECI KATL 120228Z 06004KT 3SM TS BR BKN007 BKN030CB OVC070 14/12 A2971 RMK AO2 TSB28 OCNL LTGCG TS SW-NW MOV NE=
200704120228 SPECI KATL 120228Z 06004KT 3SM TS BR BKN007 BKN030CB OVC070 14/12 A2971 RMK AO2 TSB28 OCNL LTGCG TS SW-NW MOV NE=
200704120219 SPECI KATL 120219Z 03005KT 3SM BR BKN008 BKN045 OVC075 14/12 A2971 RMK AO2 SFC VIS 3=
200704120219 SPECI KATL 120219Z 03005KT 3SM BR BKN008 BKN045 OVC075 14/12 A2971 RMK AO2 SFC VIS 3=
200704120152 METAR KATL 120152Z 11006KT 3SM BR FEW010 BKN045 OVC075 14/12 A2970 RMK AO2 SFC VIS 4 SLP058 T01440122=
200704120052 METAR KATL 120052Z 09005KT 3SM HZ BKN010 OVC016 16/13 A2969 RMK AO2 SFC VIS 4 SLP051 T01560128=
200704112352 METAR KATL 112352Z 05005KT 3SM HZ BKN010 BKN016 OVC025 16/13 A2967 RMK AO2 SFC VIS 4 RAB19E28 SLP046 P0000 60000 T01610128 10161 20117 55010=
200704112323 SPECI KATL 112323Z 05005KT 3SM -RA BKN010 BKN016 OVC140 16/13 A2967 RMK AO2 SFC VIS 4 RAB19 P0000=
200704112323 SPECI KATL 112323Z 05005KT 3SM -RA BKN010 BKN016 OVC140 16/13 A2967 RMK AO2 SFC VIS 4 RAB19 P0000=
200704112313 SPECI KATL 112313Z VRB03G16KT 3SM HZ SCT010 BKN016 BKN140 BKN200 16/13 A2967 RMK AO2 SFC VIS 4=
200704112313 SPECI KATL 112313Z VRB03G16KT 3SM HZ SCT010 BKN016 BKN140 BKN200 16/13 A2967 RMK AO2 SFC VIS 4=
200704112252 METAR KATL 112252Z 14012G16KT 3SM HZ FEW018 SCT120 BKN150 BKN200 15/12 A2965 RMK AO2 SFC VIS 4 RAB12E22 PRESFR SLP039 P0000 T01500122=
200704112237 SPECI KATL 112237Z 13007KT 2 1/2SM HZ FEW009 SCT020 BKN150 OVC200 15/12 A2968 RMK AO2 SFC VIS 4 RAB12E22 P0000=
200704112237 SPECI KATL 112237Z 13007KT 2 1/2SM HZ FEW009 SCT020 BKN150 OVC200 15/12 A2968 RMK AO2 SFC VIS 4 RAB12E22 P0000=
200704112152 METAR KATL 112152Z 12004KT 2 1/2SM BR SCT009 BKN015 OVC025 15/13 A2970 RMK AO2 SFC VIS 3 DZE04 SLP057 P0000 T01500133=
200704112146 SPECI KATL 112146Z 11005KT 2 1/2SM BR SCT009 OVC016 15/13 A2970 RMK AO2 SFC VIS 3 DZE04 P0000=
200704112146 SPECI KATL 112146Z 11005KT 2 1/2SM BR SCT009 OVC016 15/13 A2970 RMK AO2 SFC VIS 3 DZE04 P0000=
200704112052 METAR KATL 112052Z 14009KT 1 1/2SM -DZ BR BKN007 OVC014 14/13 A2968 RMK AO2 SFC VIS 3 CIG 006V010 SLP048 P0000 60000 T01440128 58020=
200704111952 METAR KATL 111952Z 12007KT 1 1/4SM -DZ BR OVC005 13/11 A2971 RMK AO2 SFC VIS 2 1/2 RAE26DZB47 SLP059 P0000 T01330111=
200704111950 SPECI KATL 111950Z 13007KT 1 1/4SM -DZ BR OVC005 13/11 A2971 RMK AO2 SFC VIS 2 1/2 RAE26DZB47 P0000=
200704111950 SPECI KATL 111950Z 13007KT 1 1/4SM -DZ BR OVC005 13/11 A2971 RMK AO2 SFC VIS 2 1/2 RAE26DZB47 P0000=
200704111852 METAR KATL 111852Z 12007KT 1 1/4SM -RA BR OVC004 12/11 A2974 RMK AO2 SFC VIS 2 1/2 DZE49RAB49 SLP069 P0000 T01220106=
200704111832 SPECI KATL 111832Z 11008KT 1 1/4SM -DZ BR OVC004 12/11 A2974 RMK AO2 SFC VIS 2 1/2 P0000=
200704111832 SPECI KATL 111832Z 11008KT 1 1/4SM -DZ BR OVC004 12/11 A2974 RMK AO2 SFC VIS 2 1/2 P0000=
200704111752 SPECI KATL 111752Z 11009KT 3/4SM -DZ BR OVC003 12/11 A2975 RMK AO2 SFC VIS 2 DZE01B47RAB01E16 SLP073 P0000 60001 T01170106 10117 20100 58025=
200704111652 METAR KATL 111652Z 12007KT 3/4SM -DZ BR BKN003 OVC005 11/10 A2979 RMK AO2 SFC VIS 2 SLP086 P0001 T01110100=
200704111552 METAR KATL 111552Z 12012KT 3/4SM -DZ BR OVC004 11/09 A2980 RMK AO2 SFC VIS 2 1/2 RAB35E46 SLP088 P0000 T01110094=
200704111536 SPECI KATL 111536Z 11010KT 1 1/2SM -RA BR OVC004 11/09 A2981 RMK AO2 SFC VIS 2 1/2 DZE35RAB35 P0000=
200704111536 SPECI KATL 111536Z 11010KT 1 1/2SM -RA BR OVC004 11/09 A2981 RMK AO2 SFC VIS 2 1/2 DZE35RAB35 P0000=
200704111503 SPECI KATL 111503Z 11010KT 1 1/2SM -DZ BR OVC005 11/09 A2982 RMK AO2 SFC VIS 3 P0000=
200704111503 SPECI KATL 111503Z 11010KT 1 1/2SM -DZ BR OVC005 11/09 A2982 RMK AO2 SFC VIS 3 P0000=
200704111452 METAR KATL 111452Z 11013G16KT 2 1/2SM -DZ BR OVC005 11/09 A2983 RMK AO2 SFC VIS 4 DZB43 SLP098 P0000 60000 T01110089 58005=
200704111423 SPECI KATL 111423Z 11011KT 2 1/2SM HZ OVC006 11/08 A2983 RMK AO2 SFC VIS 4=
200704111423 SPECI KATL 111423Z 11011KT 2 1/2SM HZ OVC006 11/08 A2983 RMK AO2 SFC VIS 4=
200704111352 METAR KATL 111352Z 11013G19KT 5SM HZ OVC008 11/08 A2984 RMK AO2 SLP102 T01060078=
200704111252 METAR KATL 111252Z 11008KT 6SM HZ OVC008 11/08 A2986 RMK AO2 DZE27 SLP111 P0000 T01060078=
200704111238 SPECI KATL 111238Z 10007KT 6SM BR OVC008 10/08 A2986 RMK AO2 DZE27 P0000=
200704111238 SPECI KATL 111238Z 10007KT 6SM BR OVC008 10/08 A2986 RMK AO2 DZE27 P0000=
200704111152 METAR KATL 111152Z 10007KT 6SM -DZ OVC008 10/07 A2984 RMK AO2 SLP103 P0000 60000 T01000072 10139 20100 53003=
200704111052 METAR KATL 111052Z 09008KT 8SM -DZ BKN010 OVC017 10/07 A2983 RMK AO2 CIG 007V014 SLP097 PCPN VRY LGT P0000 T01000072=
200704110952 METAR KATL 110952Z 11009KT 6SM -DZ BKN008 OVC018 10/07 A2983 RMK AO2 CIG 007V012 SLP100 P0000 T01000072=
200704110852 METAR KATL 110852Z 11008KT 9SM -DZ BKN008 BKN012 OVC021 11/08 A2983 RMK AO2 DZB0754 SLP099 P0000 60000 T01060078 58003=
200704110831 SPECI KATL 110831Z 10008KT 9SM -DZ BKN008 BKN012 OVC021 11/08 A2983 RMK AO2 DZB0754 P0000=
200704110831 SPECI KATL 110831Z 10008KT 9SM -DZ BKN008 BKN012 OVC021 11/08 A2983 RMK AO2 DZB0754 P0000=
200704110755 SPECI KATL 110755Z 12008KT 8SM -DZ OVC014 11/08 A2984 RMK AO2 DZB54 P0000=
200704110755 SPECI KATL 110755Z 12008KT 8SM -DZ OVC014 11/08 A2984 RMK AO2 DZB54 P0000=
200704110652 METAR KATL 110652Z 16009G22KT 10SM OVC020 13/07 A2985 RMK AO2 SLP104 T01280072=
200704110632 SPECI KATL 110632Z 14012G22KT 10SM BKN022 BKN045 BKN110 OVC200 14/06 A2985 RMK AO2=
200704110632 SPECI KATL 110632Z 14012G22KT 10SM BKN022 BKN045 BKN110 OVC200 14/06 A2985 RMK AO2=
200704110552 METAR KATL 110552Z 12010KT 10SM FEW045 BKN100 OVC200 14/04 A2984 RMK AO2 RAE21 SLP102 P0000 60000 T01390044 10172 20139 58018=
200704110452 METAR KATL 110452Z 15006KT 10SM -RA OVC045 14/04 A2990 RMK AO2 SLP123 PCPN VRY LGT P0000 T01440039 401940044=
200704110352 METAR KATL 110352Z 12005KT 10SM -RA BKN055 OVC070 15/04 A2989 RMK AO2 RAB02E14B51 SLP121 P0000 T01500039=
200704110252 METAR KATL 110252Z 12006KT 10SM SCT070 OVC085 16/03 A2990 RMK AO2 SLP121 T01560033 53005=
200704110152 METAR KATL 110152Z 12008KT 10SM BKN090 BKN110 OVC150 16/03 A2989=
200704110052 METAR KATL 110052Z 12007KT 10SM FEW100 BKN150 OVC200 17/02 A2988 RMK AO2 SLP118 T01670022=
200704102352 METAR KATL 102352Z 14006KT 10SM FEW100 BKN150 BKN200 OVC250 17/02 A2988 RMK AO2 SLP119 T01720022 10194 20161 56007=
200704102252 METAR KATL 102252Z 13008KT 10SM SCT150 BKN200 BKN250 18/02 A2989 RMK AO2 SLP122 T01830017=
200704102152 METAR KATL 102152Z 13006KT 10SM SCT150 BKN200 BKN250 18/02 A2989 RMK AO2 SLP121 T01830017=
200704102052 METAR KATL 102052Z 14008KT 10SM FEW100 SCT150 BKN200 BKN250 19/01 A2990 RMK AO2 SLP125 T01890011 58029=
200704101952 METAR KATL 101952Z 13007KT 10SM FEW150 SCT200 SCT250 18/01 A2994 RMK AO2 SLP136 T01830011=
200704101852 METAR KATL 101852Z 10008KT 10SM FEW150 SCT200 BKN250 18/01 A2997 RMK AO2 SLP148 T01830011 $=
200704101752 METAR KATL 101752Z 13008KT 10SM SCT150 SCT200 BKN250 17/01 A2999 RMK AO2 SLP156 T01670011 10167 20061 58020 $=
200704101652 METAR KATL 101652Z 14006KT 10SM FEW110 SCT200 BKN250 15/M01 A3001 RMK AO2 SLP162 T01501006=
200704101552 METAR KATL 101552Z 15007KT 10SM FEW200 SCT250 14/M01 A3004 RMK AO2 SLP174 T01391006=
200704101452 METAR KATL 101452Z 13005KT 10SM FEW150 SCT200 BKN250 13/M01 A3005 RMK AO2 SLP177 T01281006 55005=
200704101352 METAR KATL 101352Z 09007KT 10SM FEW110 SCT150 SCT250 11/M01 A3004 RMK AO2 SLP176 ACC DSNT NW T01111006=
200704101252 METAR KATL 101252Z 08004KT 9SM SCT110 BKN250 08/01 A3006 RMK AO2 SLP182 T00830011=
200704101152 METAR KATL 101152Z 10003KT 8SM SCT110 BKN250 06/01 A3006 RMK AO2 SLP183 T00610006 10072 20044 51010=
200704101052 METAR KATL 101052Z 00000KT 10SM SCT110 BKN250 05/01 A3005=
200704100952 METAR KATL 100952Z 00000KT 10SM BKN110 BKN200 BKN250 06/00 A3005 RMK AO2 SLP178 T00560000=
200704100852 METAR KATL 100852Z 00000KT 10SM SCT110 BKN250 05/00 A3003 RMK AO2 SLP173 T00500000 55004=
200704100752 METAR KATL 100752Z 00000KT 10SM BKN150 BKN250 07/M01 A3002 RMK AO2 SLP167 T00671011=
200704100652 METAR KATL 100652Z 00000KT 10SM BKN150 BKN250 06/M01 A3004 RMK AO2 SLP174 T00561011=
200704100552 METAR KATL 100552Z 00000KT 10SM BKN150 BKN250 07/M01 A3005 RMK AO2 SLP179 T00671011 10100 20061 58006=
200704100452 METAR KATL 100452Z 34003KT 10SM BKN250 06/M01 A3006 RMK AO2 SLP182 T00611011 401220039=
200704100352 METAR KATL 100352Z 27003KT 10SM BKN250 08/M02 A3006 RMK AO2 SLP182 T00831017=
200704100252 METAR KATL 100252Z 00000KT 10SM BKN250 08/M01 A3007 RMK AO2 SLP186 T00781006 51010=
200704100152 METAR KATL 100152Z 00000KT 10SM BKN250 08/M02 A3006 RMK AO2 SLP184 T00831017=
200704100052 METAR KATL 100052Z 22003KT 10SM FEW100 BKN250 09/M01 A3005=
200704092352 METAR KATL 092352Z 22005KT 10SM FEW100 BKN250 11/M03 A3004 RMK AO2 SLP174 T01061028 10122 20083 55004=
200704092252 METAR KATL 092252Z 24007KT 10SM FEW060 SCT150 BKN250 12/M03 A3004 RMK AO2 SLP173 ACSL DSNT S AND NW-N T01171033=
200704092152 METAR KATL 092152Z 24006KT 10SM FEW060 SCT085 BKN250 12/M03 A3004 RMK AO2 SLP176 ACSL VC ALQDS T01171033=
200704092052 METAR KATL 092052Z 23011G14KT 10SM FEW060 SCT085 SCT150 SCT250 12/M03 A3005 RMK AO2 SLP178 ACSL ALQDS T01221028 58023=
200704091952 METAR KATL 091952Z VRB05KT 10SM FEW075 BKN085 BKN150 11/M03 A3008 RMK AO2 SLP188 ACSL W-NW T01061033=
200704091852 METAR KATL 091852Z 24006KT 10SM FEW050 BKN080 OVC150 10/M03 A3010 RMK AO2 SLP197 T01001028=
200704091752 METAR KATL 091752Z VRB03KT 10SM FEW060 BKN080 OVC150 08/M03 A3012 RMK AO2 SLP204 60000 T00831028 10089 20044 58016=
200704091652 METAR KATL 091652Z VRB03KT 10SM FEW030 BKN075 OVC150 08/M01 A3015 RMK AO2 SLP213 T00781011=
200704091552 METAR KATL 091552Z 00000KT 10SM FEW030 BKN070 OVC150 06/M01 A3017 RMK AO2 SLP221 T00611011=
200704091428 SPECI KATL 091428Z 18003KT 9SM BKN030 BKN044 OVC080 05/M01 A3017 RMK AO2 RAB1354E14 P0000=
200704091352 METAR KATL 091352Z 00000KT 10SM BKN027 BKN040 OVC080 04/M01 A3018 RMK AO2 RAE51 SLP223 P0000 T00441006=
200704091308 SPECI KATL 091308Z 34008KT 10SM -RA FEW020 BKN029 OVC046 04/M01 A3018 RMK AO2 P0000=
200704091308 SPECI KATL 091308Z 34008KT 10SM -RA FEW020 BKN029 OVC046 04/M01 A3018 RMK AO2 P0000=
200704091252 METAR KATL 091252Z 30004KT 8SM -RA OVC046 05/M02 A3017 RMK AO2 RAB05E15B47 SLP222 P0000 T00501022=
200704091152 METAR KATL 091152Z 32006KT 10SM OVC038 06/M03 A3014 RMK AO2 RAB22E46 SLP210 P0000 60000 T00611033 10072 20039 53017=
200704091052 METAR KATL 091052Z 32004KT 10SM OVC075 06/M05 A3010 RMK AO2 RAB0957E07 SLP196 P0000 T00611050=
200704090952 METAR KATL 090952Z 32005KT 10SM BKN045 OVC090 06/M04 A3009 RMK AO2 SLP192 T00561044=
200704090852 METAR KATL 090852Z 32005KT 10SM SCT080 OVC095 05/M07 A3009 RMK AO2 SLP192 T00501067 53001=
200704090752 METAR KATL 090752Z 32004KT 10SM OVC100 06/M07 A3008 RMK AO2 SLP188 T00561072=
200704090652 METAR KATL 090652Z 30003KT 10SM BKN110 05/M08 A3008 RMK AO2 SLP189 T00501078=
200704090552 METAR KATL 090552Z 30003KT 10SM FEW250 05/M07 A3009 RMK AO2 SLP194 T00501072 10094 20044 56007=
200704090452 METAR KATL 090452Z 30003KT 10SM CLR 06/M08 A3009 RMK AO2 SLP195 T00561078 401221011=
200704090352 METAR KATL 090352Z 30004KT 10SM CLR 07/M08 A3010 RMK AO2 SLP198 T00671083=
200704090252 METAR KATL 090252Z 31004KT 10SM CLR 07/M08 A3011 RMK AO2 SLP201 T00671083 51015=
200704090052 METAR KATL 090052Z 32004KT 10SM CLR 08/M10 A3008 RMK AO2 SLP191 T00831100=
200704082352 METAR KATL 082352Z 32007KT 10SM CLR 10/M12 A3007 RMK AO2 SLP187 T01001117 10122 20083 55000=
200704082252 METAR KATL 082252Z 29008KT 10SM CLR 11/M11 A3006 RMK AO2 SLP186 T01111106=
200704082152 METAR KATL 082152Z VRB05KT 10SM FEW250 11/M12 A3005 RMK AO2 SLP183 T01111117=
200704082052 METAR KATL 082052Z VRB04KT 10SM FEW250 11/M11 A3007 RMK AO2 SLP187 T01111111 56023=
200704081952 METAR KATL 081952Z 33007KT 300V360 10SM FEW250 11/M11 A3008 RMK AO2 SLP193 T01061111=
200704081752 METAR KATL 081752Z 29010G14KT 10SM FEW250 08/M11 A3014 RMK AO2 SLP211 T00831106 10089 21011 58019=
200704081652 METAR KATL 081652Z 31007KT 10SM FEW250 08/M11 A3016 RMK AO2 SLP217 T00781106=
200704081552 METAR KATL 081552Z 33005KT 10SM FEW120 SCT250 06/M12 A3018 RMK AO2 SLP227 T00561117=
200704081452 METAR KATL 081452Z 32008KT 10SM FEW150 SCT250 05/M11 A3019 RMK AO2 SLP231 T00501111 51008=
200704081352 METAR KATL 081352Z 30004KT 10SM FEW150 BKN250 02/M09 A3018=
200704081252 METAR KATL 081252Z 29006KT 10SM FEW120 BKN250 01/M09 A3018 RMK AO2 SLP229 T00061089=
200704081152 METAR KATL 081152Z 30005KT 10SM BKN250 M01/M09 A3017 RMK AO2 SLP223 T10111089 10000 21011 53017=
200704081052 METAR KATL 081052Z 33007KT 10SM SCT250 M01/M09 A3014 RMK AO2 SLP214 T10111089=
200704080952 METAR KATL 080952Z 30007KT 10SM BKN250 M01/M08 A3013 RMK AO2 SLP210 T10111083=
200704080852 METAR KATL 080852Z 30006KT 10SM FEW250 M01/M09 A3012 RMK AO2 SLP205 T10111089 53005=
200704080652 METAR KATL 080652Z 30005KT 10SM FEW250 M01/M09 A3010 RMK AO2 SLP200 T10061089=
200704080552 METAR KATL 080552Z 31005KT 10SM FEW250 00/M09 A3010 RMK AO2 SLP199 T00001094 10050 20000 56003=
200704080452 METAR KATL 080452Z 30005KT 10SM FEW250 01/M09 A3010 RMK AO2 SLP201 T00061094 400781022=
200704080352 METAR KATL 080352Z 31006KT 10SM FEW250 01/M11 A3010 RMK AO2 SLP202 T00111106=
200704080252 METAR KATL 080252Z 31007KT 10SM FEW250 02/M11 A3011 RMK AO2 SLP203 T00221106 51019=
200704080152 METAR KATL 080152Z 30006KT 10SM SCT250 03/M11 A3010 RMK AO2 SLP200 T00281111=
200704080052 METAR KATL 080052Z 31008KT 10SM SCT250 04/M12 A3007 RMK AO2 SLP192 T00391122=
200704072352 METAR KATL 072352Z 32012KT 10SM SCT250 05/M13 A3005 RMK AO2 SLP184 T00501128 10078 20050 53009=
200704072252 METAR KATL 072252Z 32014G20KT 10SM SCT250 06/M13 A3004 RMK AO2 SLP180 T00611128=
200704072152 METAR KATL 072152Z 34018G22KT 10SM FEW250 07/M13 A3002 RMK AO2 WSHFT 2040 SLP173 T00671128=
200704072056 SPECI KATL 072056Z 32016G24KT 10SM FEW085 SCT150 07/M13 A3002 RMK AO2 WSHFT 2040=
200704072056 SPECI KATL 072056Z 32016G24KT 10SM FEW085 SCT150 07/M13 A3002 RMK AO2 WSHFT 2040=
200704072052 METAR KATL 072052Z 33019G25KT 10SM FEW080 SCT150 07/M13 A3002 RMK AO2 PK WND 28029/2034 SLP173 T00671133 56009=
200704071952 METAR KATL 071952Z 30018G25KT 10SM FEW080 SCT150 SCT200 07/M13 A3002 RMK AO2 SLP173 T00721128=
200704071852 METAR KATL 071852Z 30018G27KT 10SM FEW075 SCT150 SCT200 07/M12 A3003 RMK AO2 PK WND 32027/1850 WSHFT 1749 SLP177 T00671117=
200704071805 SPECI KATL 071805Z 32014G23KT 10SM FEW075 SCT150 06/M12 A3004 RMK AO2 WSHFT 1749=
200704071805 SPECI KATL 071805Z 32014G23KT 10SM FEW075 SCT150 06/M12 A3004 RMK AO2 WSHFT 1749=
200704071752 METAR KATL 071752Z 28016G24KT 10SM FEW075 SCT150 06/M11 A3005 RMK AO2 SLP181 T00611106 10061 21022 58010=
200704071652 METAR KATL 071652Z 29013G18KT 10SM FEW065 SCT150 04/M11 A3007 RMK AO2 SLP189 T00441111=
200704071552 METAR KATL 071552Z 30008G14KT 260V010 10SM FEW065 03/M12 A3008=
200704071452 METAR KATL 071452Z 31014G20KT 10SM FEW055 02/M12 A3008 RMK AO2 SLP192 T00171117 51013=
200704071352 METAR KATL 071352Z 34010G18KT 10SM FEW055 01/M12 A3008 RMK AO2 SLP190 T00061122=
200704071252 METAR KATL 071252Z 33014G19KT 10SM FEW060 M01/M13 A3007 RMK AO2 SLP188 T10111133=
200704071152 METAR KATL 071152Z 31013G18KT 10SM CLR M02/M13 A3004 RMK AO2 SLP179 T10221128 10028 21022 51022=
200704071052 METAR KATL 071052Z 32013G21KT 10SM CLR M02/M12 A3003 RMK AO2 SLP173 T10171122=
200704070952 METAR KATL 070952Z 33011KT 10SM FEW040 M01/M09 A3000 RMK AO2 SLP162 T10111094=
200704070852 METAR KATL 070852Z 32016G25KT 10SM FEW060 00/M09 A2997 RMK AO2 SLP155 T00001094 53001=
200704070752 METAR KATL 070752Z 31016G19KT 10SM FEW050 01/M07 A2997 RMK AO2 SLP152 T00061067=
200704070652 METAR KATL 070652Z 31010KT 10SM SCT050 01/M06 A2997 RMK AO2 PK WND 34032/0558 SLP154 T00061056=
200704070552 METAR KATL 070552Z 35024G28KT 10SM FEW032 BKN060 OVC080 03/M05 A2997 RMK AO2 PK WND 35028/0551 SLP153 T00281050 10094 20028 51017=
200704070452 METAR KATL 070452Z 34016G25KT 10SM SCT031 BKN060 03/M04 A2996 RMK AO2 PK WND 31028/0356 SLP148 T00331039 401330033=
200704070352 METAR KATL 070352Z 31020G30KT 10SM FEW060 SCT080 06/M08 A2993 RMK AO2 PK WND 30030/0348 SLP140 T00561078=
200704070252 METAR KATL 070252Z 31010G23KT 10SM SCT060 OVC080 07/M06 A2992 RMK AO2 PK WND 32031/0238 SLP134 T00721056 53020=
200704070152 METAR KATL 070152Z 30018G26KT 10SM FEW065 BKN080 08/M04 A2989 RMK AO2 PK WND 30029/0141 SLP125 T00831044=
200704070052 METAR KATL 070052Z 30013G21KT 10SM FEW060 BKN080 08/M04 A2987 RMK AO2 SLP121 T00831044=
200704062252 METAR KATL 062252Z 30019G26KT 10SM FEW065 11/M04 A2985=
200704062152 METAR KATL 062152Z 32014G23KT 10SM FEW065 12/M04 A2985 RMK AO2 PK WND 29027/2110 SLP112 T01221044=
200704062052 METAR KATL 062052Z 28015G21KT 10SM FEW250 13/M06 A2984=
200704061952 METAR KATL 061952Z 30013G19KT 10SM FEW250 13/M06 A2984 RMK AO2 SLP107 T01331056=
200704061752 METAR KATL 061752Z 34012G16KT 10SM FEW250 11/M06 A2991 RMK AO2 SLP130 T01061056 10111 20039 58023=
200704061652 METAR KATL 061652Z 33011G20KT 10SM BKN085 BKN110 10/M06 A2994 RMK AO2 SLP142 T01001056=
200704061552 METAR KATL 061552Z 34011KT 10SM FEW090 BKN110 08/M07 A2997 RMK AO2 SLP151 T00831067=
200704061452 METAR KATL 061452Z 33010KT 10SM BKN090 BKN150 07/M05 A2998 RMK AO2 SLP156 T00721050 58001=
200704061352 METAR KATL 061352Z 34011KT 10SM FEW080 BKN095 BKN150 BKN200 05/M05 A2998 RMK AO2 SLP158 T00501050=
200704061252 METAR KATL 061252Z 33010KT 10SM SCT075 BKN100 OVC200 04/M05 A2999 RMK AO2 SLP160 VIRGA OHD-ALQDS T00391050=
200704061152 METAR KATL 061152Z 33008KT 10SM SCT075 BKN100 OVC200 04/M05 A2998 RMK AO2 SLP156 VIRGA OHD-ALQDS T00391050 10056 20039 51010=
200704061052 METAR KATL 061052Z 34014G23KT 10SM BKN080 BKN120 BKN200 04/M05 A2998 RMK AO2 SLP153 VIRGA OHD-ALQDS T00391050=
200704060952 METAR KATL 060952Z 33017KT 10SM FEW085 BKN100 OVC200 04/M04 A2996 RMK AO2 SLP148 VIRGA SW-NW T00391044=
200704060852 METAR KATL 060852Z 33014G22KT 10SM FEW110 BKN250 04/M04 A2995 RMK AO2 SLP145 T00391044 56004=
200704060752 METAR KATL 060752Z 33016G19KT 10SM SCT120 BKN250 04/M04 A2995 RMK AO2 SLP146 T00441044=
200704060552 METAR KATL 060552Z 33015G22KT 10SM FEW250 06/M05 A2997 RMK AO2 SLP150 T00561050 10111 20056 58009=
200704060452 METAR KATL 060452Z 34008KT 10SM FEW250 06/M06 A2999 RMK AO2 SLP157 T00611056 401390033=
200704060352 METAR KATL 060352Z 33012KT 10SM FEW250 07/M06 A2998 RMK AO2 SLP157 T00721056=
200704060252 METAR KATL 060252Z 34011KT 10SM FEW250 08/M06 A2999 RMK AO2 SLP160 T00831056 51013=
200704060152 METAR KATL 060152Z 34010KT 10SM FEW250 08/M04 A2999=
200704060052 METAR KATL 060052Z 33009KT 10SM FEW250 09/M04 A2998 RMK AO2 SLP157 T00941044=
200704052352 METAR KATL 052352Z 34009G20KT 10SM FEW250 11/M06 A2995 RMK AO2 SLP147 T01111061 10139 20111 56004=
200704052152 METAR KATL 052152Z 35017G22KT 10SM FEW200 BKN250 14/M07 A2995 RMK AO2 PK WND 35026/2109 SLP144 T01391067=
200704052052 METAR KATL 052052Z 32016G22KT 10SM FEW180 BKN250 BKN300 13/M06 A2997 RMK AO2 SLP149 T01331056 56017=
200704051952 METAR KATL 051952Z 33015G22KT 10SM FEW180 BKN250 BKN300 13/M06 A2998 RMK AO2 SLP152 T01281056=
200704051852 METAR KATL 051852Z 32016G24KT 10SM FEW180 BKN250 BKN300 13/M04 A2999 RMK AO2 SLP158 T01281044=
200704051752 METAR KATL 051752Z 32013KT 10SM FEW180 BKN250 BKN300 12/M04 A3002 RMK AO2 SLP165 T01171039 10117 20033 58015=
200704051652 METAR KATL 051652Z 34018G22KT 10SM FEW200 BKN250 BKN300 11/M04 A3004=
200704051552 METAR KATL 051552Z 33010G17KT 10SM FEW200 BKN250 BKN300 08/M04 A3006=
200704051452 METAR KATL 051452Z 33014G19KT 10SM FEW200 BKN250 BKN300 07/M03 A3006 RMK AO2 SLP181 T00721033 51015=
200704051352 METAR KATL 051352Z 33015G21KT 10SM FEW200 BKN250 BKN300 06/M03 A3005 RMK AO2 SLP179 T00561033=
200704051252 METAR KATL 051252Z 33016G21KT 10SM SCT200 BKN250 04/M03 A3005 RMK AO2 SLP176 T00391033=
200704051152 METAR KATL 051152Z 32017G22KT 10SM SCT200 BKN250 04/M03 A3002 RMK AO2 PK WND 33026/1112 SLP165 T00391028 10100 20039 53016=
200704051052 METAR KATL 051052Z 34018G26KT 10SM SCT200 BKN250 05/M02 A3000 RMK AO2 PK WND 33026/1047 SLP159 T00501017=
200704050952 METAR KATL 050952Z 33014G19KT 10SM FEW200 BKN250 06/M01 A2997 RMK AO2 SLP149 T00611006=
200704050852 METAR KATL 050852Z 32011KT 10SM FEW200 BKN250 07/M01 A2997 RMK AO2 SLP147 T00671011 55003=
200704050752 METAR KATL 050752Z 33015G20KT 10SM SCT250 08/M01 A2996 RMK AO2 SLP144 T00831011=
200704050652 METAR KATL 050652Z 33012KT 10SM FEW200 BKN250 09/M02 A2997 RMK AO2 SLP145 T00891017=
200704050552 METAR KATL 050552Z 34012G19KT 10SM SCT250 11/M01 A2998 RMK AO2 SLP148 T01061011 10167 20106 53001=
200704050452 METAR KATL 050452Z 33010KT 10SM FEW200 BKN250 11/M01 A2997 RMK AO2 SLP146 T01111011 402280111=
200704050352 METAR KATL 050352Z 33012KT 10SM SCT200 BKN250 12/M01 A2997 RMK AO2 SLP147 T01221006=
200704050252 METAR KATL 050252Z 33011G19KT 10SM BKN200 BKN250 14/01 A2998 RMK AO2 SLP148 T01390006 53008=
200704050152 METAR KATL 050152Z 32012KT 10SM BKN200 OVC250 14/03 A2996 RMK AO2 SLP143 T01440033=
200704050052 METAR KATL 050052Z 30010KT 10SM SCT200 BKN250 16/04 A2995 RMK AO2 SLP141 T01560044=
200704042352 METAR KATL 042352Z 29014G17KT 10SM SCT200 BKN250 17/05 A2995 RMK AO2 SLP139 T01670050 10228 20167 53006=
200704042252 METAR KATL 042252Z 30014G18KT 10SM FEW200 BKN250 18/06 A2994 RMK AO2 SLP134 T01830056=
200704042152 METAR KATL 042152Z 30016G26KT 10SM FEW200 BKN250 20/05 A2993 RMK AO2 PK WND 31026/2145 SLP131 T02000050=
200704042052 METAR KATL 042052Z 32017G22KT 10SM FEW200 BKN250 21/07 A2993 RMK AO2 SLP131 T02110072 56015=
200704041952 METAR KATL 041952Z 32015G20KT 10SM FEW200 BKN250 22/11 A2993 RMK AO2 SLP131 T02220106=
200704041852 METAR KATL 041852Z 30014G19KT 10SM FEW040 SCT200 BKN250 23/12 A2995 RMK AO2 SLP134 T02280122=
200704041752 METAR KATL 041752Z 29015KT 10SM FEW028 SCT200 BKN250 22/12 A2998 RMK AO2 SLP144 T02170122 10217 20150 58014=
200704041714 SPECI KATL 041714Z 30011G19KT 10SM FEW022 SCT029 BKN250 20/13 A2999 RMK AO2=
200704041714 SPECI KATL 041714Z 30011G19KT 10SM FEW022 SCT029 BKN250 20/13 A2999 RMK AO2=
200704041652 METAR KATL 041652Z 29012G18KT 10SM SCT018 BKN024 BKN250 20/14 A3000 RMK AO2 SLP152 T02000139=
200704041650 SPECI KATL 041650Z 30013G18KT 10SM SCT015 BKN025 BKN250 20/14 A3000 RMK AO2=
200704041650 SPECI KATL 041650Z 30013G18KT 10SM SCT015 BKN025 BKN250 20/14 A3000 RMK AO2=
200704041631 SPECI KATL 041631Z 28011G18KT 10SM FEW015 SCT020 BKN250 18/14 A3000 RMK AO2=
200704041631 SPECI KATL 041631Z 28011G18KT 10SM FEW015 SCT020 BKN250 18/14 A3000 RMK AO2=
200704041552 METAR KATL 041552Z 31014G19KT 10SM OVC015 17/14 A3002 RMK AO2 SLP160 BINOVC T01720139=
200704041508 SPECI KATL 041508Z 32013G21KT 10SM OVC013 17/14 A3002 RMK AO2=
200704041508 SPECI KATL 041508Z 32013G21KT 10SM OVC013 17/14 A3002 RMK AO2=
200704041452 METAR KATL 041452Z 32014G19KT 10SM OVC015 17/14 A3002 RMK AO2 SLP161 T01720139 53008=
200704041424 SPECI KATL 041424Z 30010KT 10SM FEW010 BKN017 OVC180 17/14 A3001 RMK AO2=
200704041424 SPECI KATL 041424Z 30010KT 10SM FEW010 BKN017 OVC180 17/14 A3001 RMK AO2=
200704041352 METAR KATL 041352Z 29010KT 10SM FEW010 SCT030 SCT100 BKN180 OVC250 16/13 A3001 RMK AO2 SLP158 VIRGA DSNT SE-S T01610133=
200704041252 METAR KATL 041252Z 27005KT 10SM FEW006 SCT100 BKN140 OVC200 15/13 A2999 RMK AO2 SLP152 T01500133=
200704041221 SPECI KATL 041221Z 29010KT 10SM FEW006 SCT100 BKN140 OVC200 14/13 A3000 RMK AO2 $=
200704041221 SPECI KATL 041221Z 29010KT 10SM FEW006 SCT100 BKN140 OVC200 14/13 A3000 RMK AO2 $=
200704041152 METAR KATL 041152Z 29006KT 10SM FEW006 BKN140 OVC200 14/13 A3000 RMK AO2 RAE15 SLP152 VIRGA OHD-ALQDS P0000 60024 70024 T01440133 10211 20144 55010=
200704041133 SPECI KATL 041133Z 30011G18KT 10SM FEW006 SCT100 OVC200 14/13 A2999 RMK AO2 RAE15 FROPA P0000=
200704041133 SPECI KATL 041133Z 30011G18KT 10SM FEW006 SCT100 OVC200 14/13 A2999 RMK AO2 RAE15 FROPA P0000=
200704041124 SPECI KATL 041124Z 28008KT 260V320 10SM FEW065 SCT100 OVC200 14/13 A2998 RMK AO2 RAE15 PRESRR P0000=
200704041124 SPECI KATL 041124Z 28008KT 260V320 10SM FEW065 SCT100 OVC200 14/13 A2998 RMK AO2 RAE15 PRESRR P0000=
200704041106 SPECI KATL 041106Z 18009KT 10SM -RA BKN075 OVC100 14/13 A2993 RMK AO2 PRESFR P0000=
200704041106 SPECI KATL 041106Z 18009KT 10SM -RA BKN075 OVC100 14/13 A2993 RMK AO2 PRESFR P0000=
200704041052 METAR KATL 041052Z 21006KT 9SM -RA FEW028 BKN070 OVC100 14/13 A2999 RMK AO2 PRESFR SLP150 P0002 T01440133=
200704040952 METAR KATL 040952Z 24005KT 10SM -RA SCT080 OVC095 15/13 A2999 RMK AO2 SLP150 P0000 T01500128=
200704040852 METAR KATL 040852Z 32004KT 10SM -RA OVC095 14/13 A3003 RMK AO2 TSE14 SLP161 TS MOV SE P0001 60022 T01440128 50022=
200704040815 SPECI KATL 040815Z 34010KT 10SM -RA SCT055 OVC090 15/13 A3003 RMK AO2 TSE14 TS MOV SE P0000=
200704040815 SPECI KATL 040815Z 34010KT 10SM -RA SCT055 OVC090 15/13 A3003 RMK AO2 TSE14 TS MOV SE P0000=
200704040752 METAR KATL 040752Z 34012KT 10SM -TSRA BKN048CB BKN075 OVC100 15/13 A3003 RMK AO2 PK WND 32044/0654 WSHFT 0652 RAB0656 SLP163 OCNL LTGICCA TS OHD-ALQDS MOV SE P0021 T01500128=
200704040739 SPECI KATL 040739Z 34012G20KT 10SM -TSRA FEW008 SCT028CB OVC070 15/13 A3003 RMK AO2 PK WND 32044/0654 WSHFT 0652 RAB0656 OCNL LTGICCGCA TS OHD-ALQDS MOV SE P0021=
200704040739 SPECI KATL 040739Z 34012G20KT 10SM -TSRA FEW008 SCT028CB OVC070 15/13 A3003 RMK AO2 PK WND 32044/0654 WSHFT 0652 RAB0656 OCNL LTGICCGCA TS OHD-ALQDS MOV SE P0021=
200704040730 SPECI KATL 040730Z 34017G29KT 6SM -TSRA BR FEW008 BKN028CB OVC060 15/13 A3003 RMK AO2 PK WND 32044/0654 WSHFT 0652 RAB0656 OCNL LTGICCGCA TS OHD-ALQDS MOV SE P0021=
200704040730 SPECI KATL 040730Z 34017G29KT 6SM -TSRA BR FEW008 BKN028CB OVC060 15/13 A3003 RMK AO2 PK WND 32044/0654 WSHFT 0652 RAB0656 OCNL LTGICCGCA TS OHD-ALQDS MOV SE P0021=
200704040726 SPECI KATL 040726Z 35016G29KT 4SM TSRA BR FEW012 OVC026CB 15/13 A3003 RMK AO2 PK WND 32044/0654 WSHFT 0652 RAB0656 FRQ LTGICCGCA TS OHD-ALQDS MOV SE P0021=
200704040726 SPECI KATL 040726Z 35016G29KT 4SM TSRA BR FEW012 OVC026CB 15/13 A3003 RMK AO2 PK WND 32044/0654 WSHFT 0652 RAB0656 FRQ LTGICCGCA TS OHD-ALQDS MOV SE P0021=
200704040720 SPECI KATL 040720Z 35018G28KT 1 1/2SM +TSRA BR FEW012 BKN026CB 15/13 A3004 RMK AO2 PK WND 32044/0654 WSHFT 0652 RAB0656 FRQ LTGICCGCA TS NE-OHD-SW MOV SE P0017=
200704040720 SPECI KATL 040720Z 35018G28KT 1 1/2SM +TSRA BR FEW012 BKN026CB 15/13 A3004 RMK AO2 PK WND 32044/0654 WSHFT 0652 RAB0656 FRQ LTGICCGCA TS NE-OHD-SW MOV SE P0017=
200704040707 SPECI KATL 040707Z 35019G34KT 1 1/2SM TSRA BR FEW018 OVC032CB 16/13 A3004 RMK AO2 PK WND 32044/0654 WSHFT 0652 RAB0656 PRESRR FRQ LTGICCGCA TS NE-OHD-SW MOV SE P0002=
200704040707 SPECI KATL 040707Z 35019G34KT 1 1/2SM TSRA BR FEW018 OVC032CB 16/13 A3004 RMK AO2 PK WND 32044/0654 WSHFT 0652 RAB0656 PRESRR FRQ LTGICCGCA TS NE-OHD-SW MOV SE P0002=
200704040657 SPECI KATL 040657Z 33027G44KT 2SM +TSRA SQ BKN035CB BKN055 OVC100 19/15 A3003 RMK AO2 PK WND 32044/0654 RAB56 PRESRR FRQ LTGICCGCA TS NW-N-NE MOV SE P0000=
200704040657 SPECI KATL 040657Z 33027G44KT 2SM +TSRA SQ BKN035CB BKN055 OVC100 19/15 A3003 RMK AO2 PK WND 32044/0654 RAB56 PRESRR FRQ LTGICCGCA TS NW-N-NE MOV SE P0000=
200704040652 METAR KATL 040652Z 27010KT 8SM TS SCT035CB BKN055 BKN110 BKN250 21/18 A2999 RMK AO2 TSB50 SLP146 OCNL LTGICCGCA TS VC NW-N-NE MOV SE T02110178=
200704040552 METAR KATL 040552Z 25010KT 8SM FEW055 SCT110 SCT250 20/18 A2996 RMK AO2 SLP138 FRQ LTG DSNT NW CB DSNT NW T02000178 10228 20200 58013=
200704040452 METAR KATL 040452Z 23008KT 9SM FEW250 21/18 A2998=
200704040352 METAR KATL 040352Z 22007KT 9SM FEW250 20/18 A2998 RMK AO2 SLP147 T02000178=
200704040252 METAR KATL 040252Z 24004KT 10SM FEW100 21/18 A3000 RMK AO2 SLP153 T02060178 58003=
200704040152 METAR KATL 040152Z 23003KT 10SM FEW110 SCT250 21/18 A3001 RMK AO2 SLP157 T02060178=
200704040052 METAR KATL 040052Z 23004KT 10SM FEW110 SCT250 22/18 A3000 RMK AO2 SLP154 T02170178=
200704032352 METAR KATL 032352Z 20004KT 9SM FEW030 SCT110 BKN200 BKN250 23/18 A3001 RMK AO2 SLP156 FRQ LTG DSNT NE TCU DSNT NW T02280178 10244 20222 58008=
200704032252 METAR KATL 032252Z VRB04KT 9SM FEW030TCU BKN120 BKN200 OVC250 23/17 A3003 RMK AO2 SLP162 TCU VC S-SW CB DSNT NW T02330172=
200704032152 METAR KATL 032152Z 18005KT 9SM FEW030 SCT150 BKN200 BKN250 23/18 A3003=
200704032052 METAR KATL 032052Z 22008KT 8SM CLR SCT150 BKN180 OVC250 24/18 A3003 RMK AO2 SLP163 LTG DSNT NW-N CB DSNT NW-N MOV E T02390178 56019=
200704031952 METAR KATL 031952Z 21009KT 8SM FEW022 SCT150 SCT200 BKN250 24/18 A3005 RMK AO2 SLP168 LTG DSNT NE AND DSNT NW-N CB DSNT NE AND DSNT=
200704031852 METAR KATL 031852Z 21009KT 7SM SCT018 SCT150 SCT250 23/18 A3007 RMK AO2 SLP176 T02330183=
200704031829 SPECI KATL 031829Z 22011KT 3SM BR BKN015 BKN020 BKN150 BKN250 23/18 A3008 RMK AO2 SFC VIS 6=
200704031829 SPECI KATL 031829Z 22011KT 3SM BR BKN015 BKN020 BKN150 BKN250 23/18 A3008 RMK AO2 SFC VIS 6=
200704031752 METAR KATL 031752Z 21008KT 3SM BR BKN012 BKN150 BKN250 22/18 A3009 RMK AO2 SFC VIS 6 SLP184 T02220183 10222 20167 58011=
200704031726 SPECI KATL 031726Z 22008KT 2SM BR BKN010 BKN150 BKN250 22/19 A3010 RMK AO2 SFC VIS 5=
200704031726 SPECI KATL 031726Z 22008KT 2SM BR BKN010 BKN150 BKN250 22/19 A3010 RMK AO2 SFC VIS 5=
200704031652 METAR KATL 031652Z 18006KT 2SM BR BKN008 BKN012 BKN150 BKN250 21/18 A3011 RMK AO2 SFC VIS 5 SLP189 T02110183=
200704031635 SPECI KATL 031635Z 20007KT 2 1/2SM BR BCFG BKN008 BKN150 BKN250 21/18 A3012=
200704031552 METAR KATL 031552Z 20004KT 3SM BR BCFG SCT005 SCT150 BKN250 20/18 A3012 RMK AO2 SFC VIS 5 SLP194 SCT005 V BKN T02000178=
200704031549 SPECI KATL 031549Z 20005KT 3SM BR BCFG SCT003 SCT150 BKN250 20/18 A3012 RMK AO2 SFC VIS 5=
200704031549 SPECI KATL 031549Z 20005KT 3SM BR BCFG SCT003 SCT150 BKN250 20/18 A3012 RMK AO2 SFC VIS 5=
200704031452 METAR KATL 031452Z 21006KT 1/4SM R09R/2600VP6000FT BR BCFG OVC002 19/17 A3013 RMK AO2 SFC VIS 2 SLP196 VIS LWR SE-SW BCFG T01890172 51005=
200704031445 SPECI KATL 031445Z 22005KT 1/4SM R09R/2600V6000FT BR BCFG OVC002 18/17 A3013 RMK AO2 SFC VIS 2 VIS LWR SE-SW BCFG=
200704031445 SPECI KATL 031445Z 22005KT 1/4SM R09R/2600V6000FT BR BCFG OVC002 18/17 A3013 RMK AO2 SFC VIS 2 VIS LWR SE-SW BCFG=
200704031357 SPECI KATL 031357Z 23005KT 1/4SM R09R/2400VP6000FT BR BCFG FEW002 SCT150 SCT250 18/17 A3012 RMK AO2 SFC VIS 3 VIS 1/4 SE-SW BCFG=
200704031357 SPECI KATL 031357Z 23005KT 1/4SM R09R/2400VP6000FT BR BCFG FEW002 SCT150 SCT250 18/17 A3012 RMK AO2 SFC VIS 3 VIS 1/4 SE-SW BCFG=
200704031352 METAR KATL 031352Z 20004KT 2SM R09R/2400V4500FT BR BCFG FEW002 SCT150 SCT250 18/17 A3012=
200704031330 SPECI KATL 031330Z 00000KT 2SM BR BCFG FEW002 SCT110 SCT250 18/17 A3011 RMK AO2 SFC VIS 5 VIS LWR SE-NW BCFG=
200704031330 SPECI KATL 031330Z 00000KT 2SM BR BCFG FEW002 SCT110 SCT250 18/17 A3011 RMK AO2 SFC VIS 5 VIS LWR SE-NW BCFG=
200704031256 SPECI KATL 031256Z 00000KT 1SM R09R/1600V4000FT BR BKN002 BKN070 BKN110 BKN250 18/17 A3012 RMK AO2 SFC VIS 2 VIS SW 3/4=
200704031256 SPECI KATL 031256Z 00000KT 1SM R09R/1600V4000FT BR BKN002 BKN070 BKN110 BKN250 18/17 A3012 RMK AO2 SFC VIS 2 VIS SW 3/4=
200704031252 METAR KATL 031252Z 23003KT 1SM R09R/1600V5500FT BR SCT002 SCT070 SCT110 BKN250 18/17 A3013=
200704031212 SPECI KATL 031212Z 23003KT 3SM BR FEW002 SCT070 SCT250 17/16 A3011 RMK AO2 SFC VIS 6 VIS SE-S 2=
200704031152 METAR KATL 031152Z 23003KT 3SM BR FEW070 SCT250 17/16 A3011 RMK AO2 SFC VIS 6 SLP190 ACC VC S-SW 60002 70006 T01720156 10189 20161 53009=
200704031115 SPECI KATL 031115Z 23003KT 3SM BR FEW001 SCT070 SCT250 17/15 A3010 RMK AO2 VIS S-SW 1 1/2=
200704031115 SPECI KATL 031115Z 23003KT 3SM BR FEW001 SCT070 SCT250 17/15 A3010 RMK AO2 VIS S-SW 1 1/2=
200704031052 METAR KATL 031052Z 00000KT 8SM FEW070 SCT250 17/16 A3009 RMK AO2 SLP183 T01670156=
200704030952 METAR KATL 030952Z 20003KT 10SM FEW070 SCT250 17/16 A3009 RMK AO2 SLP182 T01720156=
200704030852 METAR KATL 030852Z 15003KT 10SM SCT080 BKN250 18/16 A3008 RMK AO2 SLP180 60002 T01780161 58004=
200704030752 METAR KATL 030752Z 14005KT 8SM FEW006 SCT038 OVC070 18/17 A3008 RMK AO2 TSE10RAE16 SLP181 P0001 T01780167=
200704030711 SPECI KATL 030711Z 23003KT 8SM -RA FEW006 BKN065 OVC090 18/17 A3009 RMK AO2 TSE10 TS DISPTD P0001=
200704030711 SPECI KATL 030711Z 23003KT 8SM -RA FEW006 BKN065 OVC090 18/17 A3009 RMK AO2 TSE10 TS DISPTD P0001=
200704030701 SPECI KATL 030701Z 00000KT 6SM -TSRA BR SCT026CB BKN065 OVC100 18/17 A3009 RMK AO2 OCNL LTGICCG TS NE-E-SE MOV NE P0001=
200704030701 SPECI KATL 030701Z 00000KT 6SM -TSRA BR SCT026CB BKN065 OVC100 18/17 A3009 RMK AO2 OCNL LTGICCG TS NE-E-SE MOV NE P0001=
200704030652 METAR KATL 030652Z 21005KT 4SM -TSRA BR FEW008 BKN026CB OVC065 18/17 A3010 RMK AO2 TSB17RAB23 SLP185 OCNL LTGICCG TS N-OHD-S MOV NE P0001 T01830167=
200704030650 SPECI KATL 030650Z 22008KT 4SM -TSRA BR FEW008 BKN026CB OVC065 18/17 A3009 RMK AO2 TSB17RAB23 OCNL LTGICCG TS N-OHD-S MOV NE P0001=
200704030650 SPECI KATL 030650Z 22008KT 4SM -TSRA BR FEW008 BKN026CB OVC065 18/17 A3009 RMK AO2 TSB17RAB23 OCNL LTGICCG TS N-OHD-S MOV NE P0001=
200704030619 SPECI KATL 030619Z 19003KT 7SM TS SCT032CB OVC065 19/17 A3009 RMK AO2 TSB17 OCNL LTGICCG TS VC SW MOV NE=
200704030619 SPECI KATL 030619Z 19003KT 7SM TS SCT032CB OVC065 19/17 A3009 RMK AO2 TSB17 OCNL LTGICCG TS VC SW MOV NE=
200704030552 METAR KATL 030552Z 00000KT 8SM FEW028 BKN065 BKN090 OVC250 19/17 A3010 RMK AO2 SLP185 T01890172 10222 20189 58004=
200704030452 METAR KATL 030452Z 00000KT 10SM BKN075 BKN090 BKN250 19/17 A3010 RMK AO2 SLP188 T01890172 402390161=
200704030352 METAR KATL 030352Z 00000KT 9SM OVC075 19/17 A3011 RMK AO2 SLP189 T01940172=
200704030252 METAR KATL 030252Z 00000KT 9SM FEW080 BKN250 19/17 A3011 RMK AO2 SLP190 T01890172 51009=
200704030152 METAR KATL 030152Z 00000KT 9SM FEW100 BKN250 19/17 A3011 RMK AO2 SLP190 T01940172=
200704030052 METAR KATL 030052Z 15003KT 10SM FEW040 BKN250 21/18 A3009 RMK AO2 SLP184 T02060178=
200704022352 METAR KATL 022352Z 00000KT 9SM FEW040 SCT085 SCT110 BKN250 22/17 A3008 RMK AO2 SLP180 CB DSNT SE AND S TCU DSNT NE 60004 T02220172 10239 20211 55000=
200704022252 METAR KATL 022252Z 00000KT 10SM FEW040 SCT065 BKN200 BKN250 23/17 A3007 RMK AO2 SLP177 CB DSNT S AND NW TCU DSNT SE T02280172=
200704022152 METAR KATL 022152Z 00000KT 9SM SCT040TCU BKN055 BKN070 BKN200 22/18 A3007 RMK AO2 SLP176 TCU OHD-S AND DSNT NE T02220178=
200704022052 METAR KATL 022052Z 10004KT 8SM FEW025TCU BKN070 BKN100 22/18 A3008 RMK AO2 RAB1955E13 SLP180 CB DSNT SE TCU DSNT N AND VC SE-S SHRA DSNT SE P0004 60004 T02170183 58010=
200704022018 SPECI KATL 022018Z 12003KT 8SM SCT025CB BKN030 BKN050 22/17 A3008 RMK AO2 RAB1955E13 VIS LWR NE-S SHRA CB SE-S MOV ESE TCU DSNT N P0004=
200704022018 SPECI KATL 022018Z 12003KT 8SM SCT025CB BKN030 BKN050 22/17 A3008 RMK AO2 RAB1955E13 VIS LWR NE-S SHRA CB SE-S MOV ESE TCU DSNT N P0004=
200704022004 SPECI KATL 022004Z COR 05004KT 8SM R09R/3000VP6000FT -RA SCT023CB BKN027 BKN037 21/17 A3009 RMK AO2 RAB1955 VIS LWR SE-S SHRA CB SE-S MOV ESE TCU DSNT N P0004=
200704022004 SPECI KATL 022004Z 05004KT 8SM R09R/3000VP6000FT -RA SCT023CB BKN027 OVC037 21/17 A3009 RMK AO2 RAB1955 VIS LWR SE-S SHRA CB SE-S MOV ESE TCU DSNT N P0004=
200704021959 SPECI KATL 021959Z 03004KT 9SM R09R/3000VP6000FT RA SCT027CB BKN040 BKN060 21/17 A3009 RMK AO2 RAB55 CB VC S MOV E SHRA VC S TCU DSNT NW-N P0000=
200704021959 SPECI KATL 021959Z 03004KT 9SM R09R/3000VP6000FT RA SCT027CB BKN040 BKN060 21/17 A3009 RMK AO2 RAB55 CB VC S MOV E SHRA VC S TCU DSNT NW-N P0000=
200704021952 METAR KATL 021952Z 04003KT 9SM SCT025TCU BKN035 OVC060 22/17 A3010 RMK AO2 RAB24E48 SLP186 TCU OHD-SW-NW BINOVC DSNT N P0000 T02170167=
200704021852 METAR KATL 021852Z 00000KT 9SM SCT017 BKN040 BKN050 22/17 A3011 RMK AO2 RAB09E32 SLP191 P0000 T02170167=
200704021752 METAR KATL 021752Z 04006KT 9SM BKN016 BKN020 OVC030 21/17 A3014 RMK AO2 SLP200 BINOVC T02110167 10217 20161 58007=
200704021703 SPECI KATL 021703Z 00000KT 9SM BKN016 OVC020 21/17 A3015 RMK AO2=
200704021703 SPECI KATL 021703Z 00000KT 9SM BKN016 OVC020 21/17 A3015 RMK AO2=
200704021652 METAR KATL 021652Z 19003KT 8SM BKN014 BKN018 OVC020 20/16 A3014=
200704021552 METAR KATL 021552Z 00000KT 9SM OVC010 19/16 A3016 RMK AO2 SLP207 T01940161=
200704021452 METAR KATL 021452Z 24003KT 9SM OVC010 19/16 A3016 RMK AO2 SLP207 T01890161 51010=
200704021352 METAR KATL 021352Z VRB04KT 9SM BKN008 OVC035 18/16 A3015 RMK AO2 SLP206 T01780156=
200704021327 SPECI KATL 021327Z 26003KT 9SM BKN008 OVC035 18/15 A3014 RMK AO2=
200704021327 SPECI KATL 021327Z 26003KT 9SM BKN008 OVC035 18/15 A3014 RMK AO2=
200704021254 SPECI KATL 021254Z 24004KT 10SM BKN012 OVC036 17/15 A3015 RMK AO2=
200704021254 SPECI KATL 021254Z 24004KT 10SM BKN012 OVC036 17/15 A3015 RMK AO2=
200704021252 METAR KATL 021252Z 23003KT 10SM BKN016 OVC038 17/15 A3015 RMK AO2 SLP204 T01720150=
200704021224 SPECI KATL 021224Z 24003KT 10SM BKN018 BKN070 BKN100 BKN250 17/15 A3014 RMK AO2=
200704021224 SPECI KATL 021224Z 24003KT 10SM BKN018 BKN070 BKN100 BKN250 17/15 A3014 RMK AO2=
200704021152 METAR KATL 021152Z 24003KT 10SM SCT075 SCT100 SCT250 16/14 A3012 RMK AO2 SLP197 70017 T01610144 10167 20161 53009=
200704021130 SPECI KATL 021130Z 26004KT 8SM FEW008 SCT110 SCT250 16/14 A3012 RMK AO2=
200704021130 SPECI KATL 021130Z 26004KT 8SM FEW008 SCT110 SCT250 16/14 A3012 RMK AO2=
200704021052 METAR KATL 021052Z 00000KT 10SM OVC008 17/14 A3011 RMK AO2 CIG 006V012 SLP193 T01670144=
200704020952 METAR KATL 020952Z 26005KT 10SM OVC008 17/14 A3010=
200704020852 METAR KATL 020852Z 26007KT 10SM OVC008 17/14 A3010 RMK AO2 CIG 006V011 SLP186 T01670144 55004 $=
200704020756 SPECI KATL 020756Z 24008KT 10SM OVC008 17/14 A3010 RMK AO2 CIG 007V012 $=
200704020752 METAR KATL 020752Z 23006KT 10SM OVC010 17/14 A3010 RMK AO2 CIG 007V012 SLP186 T01670144 $=
200704020724 SPECI KATL 020724Z 24005KT 10SM BKN010 BKN110 OVC250 16/14 A3010 RMK AO2 $=
200704020724 SPECI KATL 020724Z 24005KT 10SM BKN010 BKN110 OVC250 16/14 A3010 RMK AO2 $=
200704020655 SPECI KATL 020655Z 24007KT 10SM SCT026 SCT110 OVC250 16/14 A3010 RMK AO2 $=
200704020655 SPECI KATL 020655Z 24007KT 10SM SCT026 SCT110 OVC250 16/14 A3010 RMK AO2 $=
200704020652 METAR KATL 020652Z 24006KT 10SM BKN026 BKN110 OVC250 16/14 A3010 RMK AO2 SLP188 T01610144 $=
200704020642 SPECI KATL 020642Z 24006KT 10SM BKN026 BKN110 17/14 A3010 RMK AO2 $=
200704020642 SPECI KATL 020642Z 24006KT 10SM BKN026 BKN110 17/14 A3010 RMK AO2 $=
200704020625 SPECI KATL 020625Z 24007KT 10SM FEW008 SCT028 BKN110 OVC250 16/14 A3010 RMK AO2 $=
200704020625 SPECI KATL 020625Z 24007KT 10SM FEW008 SCT028 BKN110 OVC250 16/14 A3010 RMK AO2 $=
200704020559 SPECI KATL 020559Z 23006KT 10SM BKN009 OVC028 16/14 A3010 RMK AO2 CIG 006V011 $=
200704020559 SPECI KATL 020559Z 23006KT 10SM BKN009 OVC028 16/14 A3010 RMK AO2 CIG 006V011 $=
200704020552 METAR KATL 020552Z 23007KT 10SM SCT009 OVC028 17/14 A3011 RMK AO2 SLP190 T01670144 10178 20161 56002 $=
200704020517 SPECI KATL 020517Z 24004KT 10SM FEW008 BKN025 BKN110 OVC200 16/15 A3011 RMK AO2 $=
200704020517 SPECI KATL 020517Z 24004KT 10SM FEW008 BKN025 BKN110 OVC200 16/15 A3011 RMK AO2 $=
200704020452 METAR KATL 020452Z 23004KT 9SM FEW008 SCT025 BKN110 16/15 A3011 RMK AO2 SLP193 T01610150 402110161 $=
200704020435 SPECI KATL 020435Z 22008KT 9SM SCT008 BKN025 BKN110 17/15 A3011 RMK AO2 $=
200704020435 SPECI KATL 020435Z 22008KT 9SM SCT008 BKN025 BKN110 17/15 A3011 RMK AO2 $=
200704020410 SPECI KATL 020410Z 23005KT 9SM BKN008 BKN110 17/15 A3011 RMK AO2 $=
200704020410 SPECI KATL 020410Z 23005KT 9SM BKN008 BKN110 17/15 A3011 RMK AO2 $=
200704020352 METAR KATL 020352Z 20007KT 9SM SCT008 BKN110 17/15 A3011 RMK AO2 SLP191 T01670150 $=
200704020252 METAR KATL 020252Z 22005KT 9SM FEW005 SCT008 BKN100 17/16 A3011 RMK AO2 SLP192 T01670156 51011 $=
200704020231 SPECI KATL 020231Z 21008KT 9SM SCT009 BKN110 17/15 A3011 RMK AO2 $=
200704020231 SPECI KATL 020231Z 21008KT 9SM SCT009 BKN110 17/15 A3011 RMK AO2 $=
200704020152 METAR KATL 020152Z 21008KT 9SM SCT009 BKN014 OVC120 17/16 A3011 RMK AO2 SLP190 T01720156 $=
200704020052 METAR KATL 020052Z 20007KT 8SM BKN007 BKN012 OVC110 17/16 A3009 RMK AO2 SLP185 BKN007 V SCT T01720156 $=
200704012352 METAR KATL 012352Z 20007KT 9SM SCT005 BKN060 OVC080 18/16 A3008 RMK AO2 RAE43 SLP182 P0002 60013 T01780161 10211 20178 50002 $=
200704012252 METAR KATL 012252Z 22013G19KT 8SM -RA SCT012 BKN035 OVC080 18/16 A3009 RMK AO2 RAE2159B44 SLP186 P0000 T01780156 $=
200704012240 SPECI KATL 012240Z 21011G18KT 7SM SCT008 BKN012 OVC080 18/16 A3009 RMK AO2 RAE2159 P0000 $=
200704012240 SPECI KATL 012240Z 21011G18KT 7SM SCT008 BKN012 OVC080 18/16 A3009 RMK AO2 RAE2159 P0000 $=
200704012215 SPECI KATL 012215Z 20009KT 6SM BR SCT008 BKN014 OVC018 18/16 A3009 RMK AO2 RAE2159 P0000 $=
200704012215 SPECI KATL 012215Z 20009KT 6SM BR SCT008 BKN014 OVC018 18/16 A3009 RMK AO2 RAE2159 P0000 $=
200704012159 SPECI KATL 012159Z COR 18012KT 6SM SCT010 BKN014 OVC019 18/16 A3008 RMK AO2 RAE59 P0000 $=
200704012159 SPECI KATL 012159Z 18012KT 9SM SCT010 BKN014 OVC019 18/16 A3008 RMK AO2 RAE59 P0000 $=
200704012152 METAR KATL 012152Z 18009KT 6SM -RA BR SCT010 BKN015 OVC037 18/16 A3008 RMK AO2 SLP180 SCT010 V BKN SHRA VC NE-E P0011 T01830161 $=
200704012144 SPECI KATL 012144Z 18012G15KT 4SM -RA BR BKN017 BKN032 OVC065 18/16 A3008 RMK AO2 BKN017 V SCT TWRINC P0011 $=
200704012144 SPECI KATL 012144Z 18012G15KT 4SM -RA BR BKN017 BKN032 OVC065 18/16 A3008 RMK AO2 BKN017 V SCT TWRINC P0011 $=
200704012136 SPECI KATL 012136Z 19009KT 1 1/2SM RA BR BKN019 BKN032 OVC065 18/16 A3009 RMK AO2 SFC VIS 2 1/2 BKN019 V SCT TWRINC P0010 $=
200704012120 SPECI KATL 012120Z 20015G20KT 1 1/2SM R09R/5500VP6000FT RA BR BKN025 OVC065 18/16 A3007 RMK AO2 SFC VIS 2 1/2 P0004=
200704012120 SPECI KATL 012120Z 20015G20KT 1 1/2SM R09R/5500VP6000FT RA BR BKN025 OVC065 18/16 A3007 RMK AO2 SFC VIS 2 1/2 P0004=
200704012105 SPECI KATL 012105Z 19012KT 7SM -RA SCT027 OVC060 19/16 A3007 RMK AO2 P0001=
200704012105 SPECI KATL 012105Z 19012KT 7SM -RA SCT027 OVC060 19/16 A3007 RMK AO2 P0001=
200704012102 SPECI KATL 012102Z 19012KT 2 1/2SM -RA SCT027 OVC060 19/16 A3007 RMK AO2 SFC VIS 4 P0001=
200704012102 SPECI KATL 012102Z 19012KT 2 1/2SM -RA SCT027 OVC060 19/16 A3007 RMK AO2 SFC VIS 4 P0001=
200704012056 SPECI KATL 012056Z 18015KT 2 1/2SM -RA BKN027 OVC060 20/16 A3007=
200704012052 METAR KATL 012052Z 19011KT 9SM -RA FEW026 SCT043 OVC060 20/16 A3007 RMK AO2 RAB12 SLP178 P0000 60000 T02000156 56004=
200704012034 SPECI KATL 012034Z 20009KT 8SM -RA SCT024 BKN034 OVC050 21/15 A3007 RMK AO2 RAB12 P0000=
200704012034 SPECI KATL 012034Z 20009KT 8SM -RA SCT024 BKN034 OVC050 21/15 A3007 RMK AO2 RAB12 P0000=
200704011952 METAR KATL 011952Z 23006KT 8SM BKN022 BKN032 OVC055 21/16 A3008=
200704011946 SPECI KATL 011946Z 22007KT 8SM BKN022 OVC032 21/16 A3008 RMK AO2=
200704011946 SPECI KATL 011946Z 22007KT 8SM BKN022 OVC032 21/16 A3008 RMK AO2=
200704011915 SPECI KATL 011915Z 22004KT 9SM FEW027 BKN034 OVC060 21/16 A3008 RMK AO2=
200704011915 SPECI KATL 011915Z 22004KT 9SM FEW027 BKN034 OVC060 21/16 A3008 RMK AO2=
200704011852 METAR KATL 011852Z 20007KT 8SM BKN027 OVC055 21/16 A3009 RMK AO2 RAB1759E08 SLP182 P0000 T02060161=
200704011846 SPECI KATL 011846Z 22006KT 9SM BKN027 OVC055 20/16 A3009=
200704011836 SPECI KATL 011836Z 23006KT 9SM SCT026 BKN032 OVC055 20/16 A3009 RMK AO2 RAB1759E08 P0000=
200704011836 SPECI KATL 011836Z 23006KT 9SM SCT026 BKN032 OVC055 20/16 A3009 RMK AO2 RAB1759E08 P0000=
200704011752 METAR KATL 011752Z 21006KT 8SM FEW014 OVC026 19/16 A3009 RMK AO2 RAB10E20 SLP184 P0000 60004 T01940156 10200 20167 58005=
200704011713 SPECI KATL 011713Z 19007KT 8SM -RA OVC029 19/16 A3010 RMK AO2 RAB10 P0000=
200704011713 SPECI KATL 011713Z 19007KT 8SM -RA OVC029 19/16 A3010 RMK AO2 RAB10 P0000=
200704011652 METAR KATL 011652Z 21004KT 8SM OVC032 19/16 A3011 RMK AO2 RAB10E32 SLP190 P0004 T01940156=
200704011552 METAR KATL 011552Z 20006KT 10SM FEW020 SCT036 OVC085 19/14 A3011 RMK AO2 RAE40 SLP190 SHRA VC SW-NW P0000 T01890144=
200704011452 METAR KATL 011452Z 21011G18KT 9SM -RA FEW024 SCT060 BKN110 OVC180 20/14 A3011=
200704011352 METAR KATL 011352Z 19009KT 10SM FEW060 SCT110 OVC180 19/13 A3010 RMK AO2 SLP185 T01890133=
200704011252 METAR KATL 011252Z 18008KT 8SM FEW100 BKN180 17/14 A3009 RMK AO2 SLP184 T01720139=
