##########################################################
# Query made at 04/19/2024 23:04:09 UTC
# Time interval: from 12/01/2007 12:00  to 12/31/2007 12:59  UTC
##########################################################

##########################################################
# KATL, Atlanta, Hartsfield - Jackson Atlanta International Airport (United States)
# WMO index: 72219. WIGOS ID: 0-20000-0-72219
# Latitude 33-38-59N. Longitude 084-25-00W. Altitude 312 m.
##########################################################

200712311252 METAR KATL 311252Z 00000KT 1/8SM R09R/0800FT FG VV001 02/02 A3011 RMK AO2 TWR VIS 1/4 SLP201 T00220022=
200712311152 METAR KATL 311152Z 20005KT 1/8SM R09R/1200V1400FT FG VV001 03/02 A3010 RMK AO2 TWR VIS 1/4 SLP197 70100 T00280022 10039 20022 53010 $=
200712311052 METAR KATL 311052Z 00000KT 1/4SM R09R/1400V1800FT FG VV001 02/02 A3009 RMK AO2 SLP193 T00220022 $=
200712311006 SPECI KATL 311006Z 28003KT 1/4SM R09R/1200V1800FT FG VV001 03/02 A3008 RMK AO2 $=
200712311006 SPECI KATL 311006Z 28003KT 1/4SM R09R/1200V1800FT FG VV001 03/02 A3008 RMK AO2 $=
200712310952 METAR KATL 310952Z 30005KT 1/4SM R09R/1600V4500FT FG VV001 02/02 A3008 RMK AO2 SLP190 T00220022 $=
200712310852 METAR KATL 310852Z 00000KT 1/4SM R09R/1600V1800FT FG VV001 03/02 A3007 RMK AO2 SLP187 T00280022 53015=
200712310816 SPECI KATL 310816Z 24004KT 1/4SM R09R/1400V1800FT FG VV001 03/03 A3007 RMK AO2=
200712310816 SPECI KATL 310816Z 24004KT 1/4SM R09R/1400V1800FT FG VV001 03/03 A3007 RMK AO2=
200712310752 METAR KATL 310752Z 25003KT 1/4SM R09R/2600VP6000FT FG BKN001 03/03 A3006 RMK AO2 SFC VIS 1/2 SLP183 T00280028=
200712310735 SPECI KATL 310735Z 00000KT 1/4SM R09R/1400V5500FT FG VV001 03/03 A3005 RMK AO2=
200712310735 SPECI KATL 310735Z 00000KT 1/4SM R09R/1400V5500FT FG VV001 03/03 A3005 RMK AO2=
200712310707 SPECI KATL 310707Z 23005KT 1/4SM R09R/1400V1600FT FG BKN001 OVC007 03/03 A3004 RMK AO2=
200712310707 SPECI KATL 310707Z 23005KT 1/4SM R09R/1400V1600FT FG BKN001 OVC007 03/03 A3004 RMK AO2=
200712310652 METAR KATL 310652Z 25004KT 1/4SM R09R/1400V2400FT FG BKN001 OVC007 03/03 A3003 RMK AO2 SLP174 TWRINC T00330033=
200712310640 SPECI KATL 310640Z 25003KT 1/4SM R09R/1600V5000FT FG BKN001 03/03 A3003 RMK AO2 TWRINC=
200712310640 SPECI KATL 310640Z 25003KT 1/4SM R09R/1600V5000FT FG BKN001 03/03 A3003 RMK AO2 TWRINC=
200712310623 SPECI KATL 310623Z 23004KT 1/4SM R09R/1200V1400FT FG BKN001 03/03 A3002 RMK AO2 TWR VIS 1/4 TWRINC=
200712310623 SPECI KATL 310623Z 23004KT 1/4SM R09R/1200V1400FT FG BKN001 03/03 A3002 RMK AO2 TWR VIS 1/4 TWRINC=
200712310559 SPECI KATL 310559Z 22005KT 1/4SM R09R/1800VP6000FT FG VV001 04/03 A3002 RMK AO2 TWRINC=
200712310559 SPECI KATL 310559Z 22005KT 1/4SM R09R/1800VP6000FT FG VV001 04/03 A3002 RMK AO2 TWRINC=
200712310552 METAR KATL 310552Z 22004KT 1 1/2SM BR SCT001 04/04 A3002 RMK AO2 SFC VIS 5 SLP171 VIS LWR SE-SW T00390039 10089 20039 51011=
200712310452 METAR KATL 310452Z 25003KT 8SM CLR 05/04 A3001 RMK AO2 SLP166 T00500044 401170050=
200712310352 METAR KATL 310352Z 25003KT 8SM CLR 06/05 A3001 RMK AO2 SLP166 T00610050=
200712310252 METAR KATL 310252Z 27004KT 9SM CLR 06/06 A2999=
200712310152 METAR KATL 310152Z 29005KT 10SM FEW017 07/06 A2998 RMK AO2 SLP155 T00670056=
200712310052 METAR KATL 310052Z 30009KT 8SM SCT017 SCT150 08/07 A2996 RMK AO2 SLP147 T00780067=
200712310031 SPECI KATL 310031Z 29007KT 8SM SCT017 SCT150 08/07 A2995 RMK AO2=
200712310031 SPECI KATL 310031Z 29007KT 8SM SCT017 SCT150 08/07 A2995 RMK AO2=
200712310013 SPECI KATL 310013Z 30008KT 7SM SCT010 BKN018 09/07 A2995 RMK AO2 SCT010 V BKN=
200712310013 SPECI KATL 310013Z 30008KT 7SM SCT010 BKN018 09/07 A2995 RMK AO2 SCT010 V BKN=
200712310001 SPECI KATL 310001Z 30008KT 7SM SCT004 BKN010 BKN018 09/07 A2995 RMK AO2 SCT004 V BKN=
200712310001 SPECI KATL 310001Z 30008KT 7SM SCT004 BKN010 BKN018 09/07 A2995 RMK AO2 SCT004 V BKN=
200712302352 METAR KATL 302352Z 30009KT 7SM BKN004 BKN012 09/08 A2995 RMK AO2 SLP145 60053 T00890078 10100 20089 53018=
200712302252 METAR KATL 302252Z 27005KT 7SM BKN004 BKN120 09/08 A2991 RMK AO2 SLP129 CIG 004V008 BKN004 V SCT T00940083=
200712302229 SPECI KATL 302229Z 00000KT 7SM SCT004 SCT014 BKN150 09/08 A2989 RMK AO2=
200712302229 SPECI KATL 302229Z 00000KT 7SM SCT004 SCT014 BKN150 09/08 A2989 RMK AO2=
200712302152 METAR KATL 302152Z 31007KT 3SM BR BKN005 OVC014 09/08 A2990 RMK AO2 SFC VIS 6 RAE27 SLP125 BKN005 V SCT P0004 T00940083=
200712302052 METAR KATL 302052Z 31006KT 1 1/2SM RA BR OVC006 10/09 A2990 RMK AO2 SFC VIS 4 SLP124 CB DSNT S-SW-W P0013 60049 T01000089 55005=
200712302043 SPECI KATL 302043Z 30004KT 1 1/2SM -RA BR OVC006 10/09 A2989 RMK AO2 SFC VIS 5 CB DSNT SW-W P0012=
200712301952 METAR KATL 301952Z 32006KT 1 1/2SM +RA BR BKN004 OVC011 10/09 A2989 RMK AO2 SLP122 CB DSNT NE MDT CU ALQDS CIG 003V005 P0025 T01000094=
200712301940 SPECI KATL 301940Z 30008KT 1 1/2SM RA BR BKN004 OVC011 10/09 A2990 RMK AO2 SFC VIS 4 CB DSNT NE MDT CU ALQDS CIG 003V005 P0019=
200712301940 SPECI KATL 301940Z 30008KT 1 1/2SM RA BR BKN004 OVC011 10/09 A2990 RMK AO2 SFC VIS 4 CB DSNT NE MDT CU ALQDS CIG 003V005 P0019=
200712301917 SPECI KATL 301917Z 30005KT 1 1/2SM RA BR SCT004 OVC011 10/09 A2990 RMK AO2 SFC VIS 2 MDT CU ALQDS P0014=
200712301917 SPECI KATL 301917Z 30005KT 1 1/2SM RA BR SCT004 OVC011 10/09 A2990 RMK AO2 SFC VIS 2 MDT CU ALQDS P0014=
200712301852 METAR KATL 301852Z 26003KT 1SM RA BR OVC004 10/09 A2991 RMK AO2 SFC VIS 1 1/4 SLP130 MDT CU ALQDS CIG 003V005 P0011 T01000094=
200712301821 SPECI KATL 301821Z 16006KT 1/4SM -RA BR OVC003 10/09 A2991 RMK AO2 SFC VIS 2 1/2 TWRINC P0000=
200712301821 SPECI KATL 301821Z 16006KT 1/4SM -RA BR OVC003 10/09 A2991 RMK AO2 SFC VIS 2 1/2 TWRINC P0000=
200712301818 SPECI KATL 301818Z 18006KT 1/2SM -RA BR OVC003 10/09 A2990 RMK AO2 SFC VIS 2 1/2 TWRINC P0000=
200712301818 SPECI KATL 301818Z 18006KT 1/2SM -RA BR OVC003 10/09 A2990 RMK AO2 SFC VIS 2 1/2 TWRINC P0000=
200712301803 SPECI KATL 301803Z 14005KT 1SM -RA BR OVC004 10/09 A2990 RMK AO2 SFC VIS 3 CIG 003V005 TWRINC P0000=
200712301752 METAR KATL 301752Z 13006KT 2SM -RA BR OVC004 10/09 A2991 RMK AO2 SFC VIS 3 SLP129 CIG 003V005 P0003 60047 T01000089 10100 20083 56032=
200712301652 METAR KATL 301652Z 13009KT 2 1/2SM -RA BR OVC005 09/08 A2993 RMK AO2 SFC VIS 5 RAB44 SLP137 CIG 004V006 P0000 T00940083=
200712301606 SPECI KATL 301606Z 11008KT 2 1/2SM BR BKN004 OVC100 09/08 A2998 RMK AO2 SFC VIS 4=
200712301606 SPECI KATL 301606Z 11008KT 2 1/2SM BR BKN004 OVC100 09/08 A2998 RMK AO2 SFC VIS 4=
200712301552 METAR KATL 301552Z 10009KT 2 1/2SM BR SCT005 OVC100 09/08 A2998 RMK AO2 SFC VIS 4 RAE1453B19E43 PRESFR SLP154 P0000 T00890078=
200712301535 SPECI KATL 301535Z 11006KT 2 1/2SM -RA BR SCT005 OVC100 09/08 A3000 RMK AO2 SFC VIS 5 RAE1453B19 P0000=
200712301535 SPECI KATL 301535Z 11006KT 2 1/2SM -RA BR SCT005 OVC100 09/08 A3000 RMK AO2 SFC VIS 5 RAE1453B19 P0000=
200712301452 METAR KATL 301452Z 09006KT 2SM -RA BR FEW004 BKN007 OVC070 09/08 A3001 RMK AO2 SFC VIS 3 SLP162 P0007 60044 T00890078 53005=
200712301423 SPECI KATL 301423Z 10005KT 1 1/2SM -RA BR BKN007 OVC021 09/08 A3000 RMK AO2 SFC VIS 2 P0006=
200712301423 SPECI KATL 301423Z 10005KT 1 1/2SM -RA BR BKN007 OVC021 09/08 A3000 RMK AO2 SFC VIS 2 P0006=
200712301416 SPECI KATL 301416Z 07007KT 3SM -RA BR BKN007 OVC021 09/08 A3000 RMK AO2 P0005=
200712301416 SPECI KATL 301416Z 07007KT 3SM -RA BR BKN007 OVC021 09/08 A3000 RMK AO2 P0005=
200712301352 METAR KATL 301352Z 01007KT 4SM RA BR FEW007 BKN039 OVC095 09/08 A2999 RMK AO2 SLP155 CB DSNT SW P0016 T00890078=
200712301329 SPECI KATL 301329Z 02008KT 3SM -RA BR FEW007 BKN025 OVC049 09/08 A2999 RMK AO2 P0013=
200712301329 SPECI KATL 301329Z 02008KT 3SM -RA BR FEW007 BKN025 OVC049 09/08 A2999 RMK AO2 P0013=
200712301252 METAR KATL 301252Z 33011KT 1 1/2SM +RA BR FEW007 SCT019 OVC026 08/07 A3000 RMK AO2 WSHFT 1212 SLP159 P0021 T00830072=
200712301250 SPECI KATL 301250Z 33010KT 2SM +RA BR FEW007 BKN019 OVC026 08/07 A2999 RMK AO2 WSHFT 1212 P0020=
200712301250 SPECI KATL 301250Z 33010KT 2SM +RA BR FEW007 BKN019 OVC026 08/07 A2999 RMK AO2 WSHFT 1212 P0020=
200712301242 SPECI KATL 301242Z 32010KT 2 1/2SM RA BR SCT007 BKN012 OVC026 08/07 A3000 RMK AO2 WSHFT 1212 P0017=
200712301242 SPECI KATL 301242Z 32010KT 2 1/2SM RA BR SCT007 BKN012 OVC026 08/07 A3000 RMK AO2 WSHFT 1212 P0017=
200712301232 SPECI KATL 301232Z 31014KT 4SM RA BR BKN007 OVC012 08/07 A3001 RMK AO2 WSHFT 1212 CIG 004V008 PRESRR P0013=
200712301232 SPECI KATL 301232Z 31014KT 4SM RA BR BKN007 OVC012 08/07 A3001 RMK AO2 WSHFT 1212 CIG 004V008 PRESRR P0013=
200712301209 SPECI KATL 301209Z 03003KT 5SM RA BR BKN007 OVC017 09/08 A2995 RMK AO2 P0007=
200712301209 SPECI KATL 301209Z 03003KT 5SM RA BR BKN007 OVC017 09/08 A2995 RMK AO2 P0007=
200712301152 METAR KATL 301152Z 06006KT 4SM RA BR FEW007 BKN011 OVC027 09/08 A2994 RMK AO2 TSB1058E35 SLP138 TS DSIPTD P0027 60030 70030 T00890078 10117 20089 56016=
200712301137 SPECI KATL 301137Z 10007KT 4SM RA BR FEW011 SCT015 OVC021 09/08 A2993 RMK AO2 TSB1058E35 TS DSIPTD P0022=
200712301137 SPECI KATL 301137Z 10007KT 4SM RA BR FEW011 SCT015 OVC021 09/08 A2993 RMK AO2 TSB1058E35 TS DSIPTD P0022=
200712301129 SPECI KATL 301129Z 10008KT 4SM TSRA BR FEW011CB SCT015 OVC021 09/08 A2994 RMK AO2 TSB1058 OCNL LTGIC TS SE-S MOV NE P0019=
200712301129 SPECI KATL 301129Z 10008KT 4SM TSRA BR FEW011CB SCT015 OVC021 09/08 A2994 RMK AO2 TSB1058 OCNL LTGIC TS SE-S MOV NE P0019=
200712301122 SPECI KATL 301122Z 09007KT 2 1/2SM +TSRA BR SCT011CB BKN015 OVC023 09/07 A2994 RMK AO2 TSB1058 OCNL LTGIC TS SE-S MOV NE P0016=
200712301122 SPECI KATL 301122Z 09007KT 2 1/2SM +TSRA BR SCT011CB BKN015 OVC023 09/07 A2994 RMK AO2 TSB1058 OCNL LTGIC TS SE-S MOV NE P0016=
200712301106 SPECI KATL 301106Z 01003KT 2SM +TSRA BR OVC011CB 09/07 A2995 RMK AO2 TSB1058 OCNL LTGIC TS SW MOV NE P0007=
200712301106 SPECI KATL 301106Z 01003KT 2SM +TSRA BR OVC011CB 09/07 A2995 RMK AO2 TSB1058 OCNL LTGIC TS SW MOV NE P0007=
200712301059 SPECI KATL 301059Z 36004KT 5SM -TSRA OVC011CB 10/07 A2995 RMK AO2 TSB58 OCNL LTGIC TS SW MOV NE P0002=
200712301059 SPECI KATL 301059Z 36004KT 5SM -TSRA OVC011CB 10/07 A2995 RMK AO2 TSB58 OCNL LTGIC TS SW MOV NE P0002=
200712301052 METAR KATL 301052Z 05005KT 7SM -RA OVC011 10/07 A2994 RMK AO2 SLP139 P0001 T01000072=
200712300952 METAR KATL 300952Z 05003KT 8SM -RA OVC013 10/07 A2995 RMK AO2 RAB23 SLP143 P0002 T01000072=
200712300920 SPECI KATL 300920Z 07003KT 10SM BKN013 OVC020 11/06 A2997 RMK AO2=
200712300920 SPECI KATL 300920Z 07003KT 10SM BKN013 OVC020 11/06 A2997 RMK AO2=
200712300852 METAR KATL 300852Z 08005KT 10SM BKN022 BKN032 OVC080 11/06 A2999 RMK AO2 SLP154 T01110061 56021=
200712300752 METAR KATL 300752Z 08003KT 10SM BKN060 OVC085 12/05 A3001 RMK AO2 SLP162 T01170050=
200712300652 METAR KATL 300652Z 00000KT 10SM OVC065 12/05 A3002 RMK AO2 SLP166 T01170050=
200712300552 METAR KATL 300552Z 00000KT 10SM BKN070 OVC090 12/06 A3005 RMK AO2 SLP175 T01170056 10122 20100 58007=
200712300452 METAR KATL 300452Z 00000KT 10SM BKN075 OVC095 11/08 A3006 RMK AO2 SLP180 T01060078 401720100=
200712300352 METAR KATL 300352Z 15004KT 10SM FEW075 SCT090 OVC200 11/07 A3007 RMK AO2 SLP182 T01060067=
200712300252 METAR KATL 300252Z 00000KT 10SM SCT075 BKN095 BKN120 12/04 A3007 RMK AO2 SLP184 T01170044 55001=
200712300152 METAR KATL 300152Z 00000KT 10SM FEW075 SCT100 SCT150 12/07 A3007 RMK AO2 SLP183 T01170067=
200712300052 METAR KATL 300052Z 00000KT 10SM SCT120 OVC250 11/07 A3008 RMK AO2 SLP185 T01110067=
200712292352 METAR KATL 292352Z 00000KT 10SM SCT150 BKN250 12/07 A3008 RMK AO2 SLP184 T01220067 10144 20122 51010=
200712292252 METAR KATL 292252Z 28003KT 10SM SCT150 BKN250 13/06 A3006 RMK AO2 SLP180 T01330061=
200712292152 METAR KATL 292152Z 26003KT 10SM FEW110 BKN250 13/07 A3006 RMK AO2 SLP178 T01330067=
200712292052 METAR KATL 292052Z 00000KT 10SM FEW150 BKN250 14/08 A3004 RMK AO2 SLP172 T01390078 55008=
200712291952 METAR KATL 291952Z 33007KT 10SM SCT110 BKN150 BKN200 13/08 A3004 RMK AO2 SLP170 T01330078=
200712291852 METAR KATL 291852Z 32008KT 10SM FEW015 BKN150 13/09 A3005 RMK AO2 SLP175 T01330089=
200712291752 METAR KATL 291752Z 31006KT 10SM FEW010 BKN150 13/09 A3007 RMK AO2 SLP180 60000 T01280094 10128 20111 58007=
200712291721 SPECI KATL 291721Z 32008KT 10SM SCT007 BKN150 12/09 A3009 RMK AO2=
200712291721 SPECI KATL 291721Z 32008KT 10SM SCT007 BKN150 12/09 A3009 RMK AO2=
200712291652 METAR KATL 291652Z 33004KT 8SM BKN007 BKN150 12/09 A3011 RMK AO2 SLP193 T01170094=
200712291552 METAR KATL 291552Z 35007KT 7SM BKN006 BKN024 12/09 A3010 RMK AO2 SLP193 BKN006 V SCT CB DSNT E-SW T01170094=
200712291527 SPECI KATL 291527Z 32007KT 7SM BKN008 BKN024 12/10 A3010 RMK AO2 BKN008 V SCT CB DSNT E-SW=
200712291527 SPECI KATL 291527Z 32007KT 7SM BKN008 BKN024 12/10 A3010 RMK AO2 BKN008 V SCT CB DSNT E-SW=
200712291452 METAR KATL 291452Z 31004KT 6SM BR SCT006 OVC022 11/10 A3009 RMK AO2 SLP188 CB DSNT E-SW 60000 T01110100 51011=
200712291352 METAR KATL 291352Z 31008KT 6SM BR SCT005 OVC016 11/10 A3008 RMK AO2 RAB33E43 SLP185 P0000 T01110100=
200712291252 METAR KATL 291252Z 31007KT 3SM BR FEW005 OVC016 11/11 A3006 RMK AO2 SFC VIS 6 RAB31E39 SLP178 P0000 T01110106=
200712291237 SPECI KATL 291237Z 31006KT 3SM -RA BR FEW005 OVC016 12/11 A3006 RMK AO2 SFC VIS 6 RAB31 P0000=
200712291237 SPECI KATL 291237Z 31006KT 3SM -RA BR FEW005 OVC016 12/11 A3006 RMK AO2 SFC VIS 6 RAB31 P0000=
200712291152 METAR KATL 291152Z 30006KT 6SM BR OVC014 12/11 A3005 RMK AO2 RAB24E44 SLP175 P0000 60001 70125 T01170106 10172 20117 53007=
200712291052 METAR KATL 291052Z 30005KT 6SM BR OVC010 12/11 A3004 RMK AO2 SLP170 T01220106=
200712291034 SPECI KATL 291034Z 31004KT 6SM BR OVC010 12/11 A3004 RMK AO2=
200712291034 SPECI KATL 291034Z 31004KT 6SM BR OVC010 12/11 A3004 RMK AO2=
200712291003 SPECI KATL 291003Z 31007KT 1/4SM BR SCT004 OVC010 12/11 A3004 RMK AO2 SFC VIS 5=
200712291003 SPECI KATL 291003Z 31007KT 1/4SM BR SCT004 OVC010 12/11 A3004 RMK AO2 SFC VIS 5=
200712290952 METAR KATL 290952Z 31008KT 1SM BR OVC004 12/11 A3003 RMK AO2 SFC VIS 6 CIG 003V007 SLP167 T01220111=
200712290921 SPECI KATL 290921Z 31006KT 1SM BR OVC004 13/13 A3003 RMK AO2 SFC VIS 6=
200712290921 SPECI KATL 290921Z 31006KT 1SM BR OVC004 13/13 A3003 RMK AO2 SFC VIS 6=
200712290907 SPECI KATL 290907Z 31008KT 6SM BR BKN004 OVC007 14/13 A3004 RMK AO2=
200712290907 SPECI KATL 290907Z 31008KT 6SM BR BKN004 OVC007 14/13 A3004 RMK AO2=
200712290852 METAR KATL 290852Z 32008KT 1SM BR OVC004 14/13 A3003 RMK AO2 SFC VIS 6 SLP165 60001 T01440133 51006=
200712290842 SPECI KATL 290842Z 32008KT 1SM BR OVC004 14/14 A3003 RMK AO2 SFC VIS 6=
200712290842 SPECI KATL 290842Z 32008KT 1SM BR OVC004 14/14 A3003 RMK AO2 SFC VIS 6=
200712290752 METAR KATL 290752Z 29007KT 6SM BR OVC008 15/14 A3003 RMK AO2 RAE29 CIG 004V012 SLP164 P0000 T01500139=
200712290749 SPECI KATL 290749Z 29008KT 6SM BR OVC008 14/14 A3003 RMK AO2 RAE29 CIG 003V012 P0000=
200712290749 SPECI KATL 290749Z 29008KT 6SM BR OVC008 14/14 A3003 RMK AO2 RAE29 CIG 003V012 P0000=
200712290725 SPECI KATL 290725Z 31011KT 1SM -RA BR BKN003 OVC010 15/14 A3002 RMK AO2 SFC VIS 6 CIG 003V008 P0000=
200712290725 SPECI KATL 290725Z 31011KT 1SM -RA BR BKN003 OVC010 15/14 A3002 RMK AO2 SFC VIS 6 CIG 003V008 P0000=
200712290711 SPECI KATL 290711Z 29008KT 1SM BR BKN005 OVC010 16/15 A3002 RMK AO2 SFC VIS 5 RAE11 CIG 003V008 P0000=
200712290711 SPECI KATL 290711Z 29008KT 1SM BR BKN005 OVC010 16/15 A3002 RMK AO2 SFC VIS 5 RAE11 CIG 003V008 P0000=
200712290652 METAR KATL 290652Z 28006KT 1SM -RA BR OVC004 16/16 A3002 RMK AO2 SFC VIS 4 RAE01B17 CIG 002V008 SLP161 P0001 T01610156=
200712290638 SPECI KATL 290638Z 27007KT 1SM -RA BR OVC004 17/16 A3002 RMK AO2 SFC VIS 4 RAE01B17 CIG 002V008 P0000=
200712290638 SPECI KATL 290638Z 27007KT 1SM -RA BR OVC004 17/16 A3002 RMK AO2 SFC VIS 4 RAE01B17 CIG 002V008 P0000=
200712290627 SPECI KATL 290627Z 30006KT 1/8SM -RA BR OVC004 16/16 A3002 RMK AO2 SFC VIS 6 RAE01B17 CIG 002V007 P0000=
200712290627 SPECI KATL 290627Z 30006KT 1/8SM -RA BR OVC004 16/16 A3002 RMK AO2 SFC VIS 6 RAE01B17 CIG 002V007 P0000=
200712290615 SPECI KATL 290615Z 27006KT 7SM BKN004 OVC007 17/16 A3002 RMK AO2 RAE01 CIG 002V006 P0000=
200712290615 SPECI KATL 290615Z 27006KT 7SM BKN004 OVC007 17/16 A3002 RMK AO2 RAE01 CIG 002V006 P0000=
200712290552 METAR KATL 290552Z 22008KT 9SM -RA BKN008 OVC030 17/16 A3001 RMK AO2 RAB23 SLP159 CIG 006V012 P0002 60006 T01720161 10178 20161 57009=
200712290452 METAR KATL 290452Z 19008KT 10SM BKN010 OVC030 17/16 A3002 RMK AO2 RAB10E20 SLP163 P0000 T01670156 402060094=
200712290435 SPECI KATL 290435Z 19008KT 10SM BKN012 OVC030 17/16 A3002 RMK AO2 RAB10E20 P0000=
200712290435 SPECI KATL 290435Z 19008KT 10SM BKN012 OVC030 17/16 A3002 RMK AO2 RAB10E20 P0000=
200712290414 SPECI KATL 290414Z 20008KT 10SM -RA FEW015 BKN027 BKN050 OVC250 17/16 A3003 RMK AO2 RAB10 P0000=
200712290414 SPECI KATL 290414Z 20008KT 10SM -RA FEW015 BKN027 BKN050 OVC250 17/16 A3003 RMK AO2 RAB10 P0000=
200712290352 METAR KATL 290352Z 19006KT 10SM FEW020 BKN048 BKN080 OVC200 16/15 A3003 RMK AO2 RAE27 SLP167 P0001 T01610150=
200712290252 METAR KATL 290252Z COR 21007KT 8SM -RA SCT025 BKN045 BKN100 OVC200 17/15 A3004 RMK AO2 RAB37 SLP169 P0003 60003 T01670150 53003=
200712290152 METAR KATL 290152Z 18009KT 10SM FEW040 BKN090 BKN120 BKN250 17/15 A3003 RMK AO2 SLP166 T01720150=
200712290052 METAR KATL 290052Z 19008KT 10SM BKN110 BKN150 BKN250 17/15 A3003 RMK AO2 SLP168 T01720150=
200712282352 METAR KATL 282352Z 20007KT 10SM BKN038 BKN150 BKN250 18/16 A3003 RMK AO2 SLP167 60022 T01780156 10206 20156 51002=
200712282252 METAR KATL 282252Z 15006KT 9SM SCT027 BKN035 BKN070 OVC150 18/16 A3002 RMK AO2 TSE44RAE37 SLP164 TS DSIPTD P0002 T01780161=
200712282244 SPECI KATL 282244Z 15005KT 8SM SCT027 BKN035 BKN050 OVC150 17/16 A3003 RMK AO2 TSE44RAE37 TS DSIPTD P0002=
200712282244 SPECI KATL 282244Z 15005KT 8SM SCT027 BKN035 BKN050 OVC150 17/16 A3003 RMK AO2 TSE44RAE37 TS DSIPTD P0002=
200712282204 SPECI KATL 282204Z 22005KT 6SM -TSRA FEW025 BKN033CB OVC055 18/17 A3004 RMK AO2 OCNL LTGICCG TS N-NE VC SW MOV NE CB N-NE VC SW MOV NE P0001=
200712282204 SPECI KATL 282204Z 22005KT 6SM -TSRA FEW025 BKN033CB OVC055 18/17 A3004 RMK AO2 OCNL LTGICCG TS N-NE VC SW MOV NE CB N-NE VC SW MOV NE P0001=
200712282202 SPECI KATL 282202Z 21006KT 2SM -TSRA FEW025 BKN033CB OVC055 18/17 A3003 RMK AO2 SFC VIS 6 OCNL LTGICCG TS N-NE VC SW MOV NE CB N-NE VC SW MOV NE P0001=
200712282202 SPECI KATL 282202Z 21006KT 2SM -TSRA FEW025 BKN033CB OVC055 18/17 A3003 RMK AO2 SFC VIS 6 OCNL LTGICCG TS N-NE VC SW MOV NE CB N-NE VC SW MOV NE P0001=
200712282152 METAR KATL 282152Z 19005KT 2SM R09R/6000VP6000FT +TSRA BR SCT027 BKN034CB OVC090 18/17 A3004 RMK AO2 TSE20B38 SLP170 FRQ LTGICCG TS OHD-N-E MOV NE CB OHD-N-E MOV NE P0018 T01780167=
200712282138 SPECI KATL 282138Z 19007KT 6SM -TSRA BR SCT029CB BKN044 OVC090 18/16 A3003 RMK AO2 TSE20B38 OCNL LTGICCG TS OHD DSNT SE-SW MOV NE CB OHD DSNT SE-SW MOV NE P0009=
200712282138 SPECI KATL 282138Z 19007KT 6SM -TSRA BR SCT029CB BKN044 OVC090 18/16 A3003 RMK AO2 TSE20B38 OCNL LTGICCG TS OHD DSNT SE-SW MOV NE CB OHD DSNT SE-SW MOV NE P0009=
200712282120 SPECI KATL 282120Z 19008KT 9SM -RA SCT022 BKN042 OVC090 18/16 A3002 RMK AO2 TSE20 TS MOV NE P0008=
200712282120 SPECI KATL 282120Z 19008KT 9SM -RA SCT022 BKN042 OVC090 18/16 A3002 RMK AO2 TSE20 TS MOV NE P0008=
200712282110 SPECI KATL 282110Z 18011KT 5SM TSRA BR BKN022 BKN027CB OVC032 18/16 A3002 RMK AO2 OCNL LTGICCG TS OHD-NE-S MOV NE CB OHD-NE-S MOV NE P0008=
200712282110 SPECI KATL 282110Z 18011KT 5SM TSRA BR BKN022 BKN027CB OVC032 18/16 A3002 RMK AO2 OCNL LTGICCG TS OHD-NE-S MOV NE CB OHD-NE-S MOV NE P0008=
200712282058 SPECI KATL 282058Z 23008KT 5SM TSRA BKN024 OVC036CB 19/16 A3002 RMK AO2 OCNL LTGICCG TS NE-SE VC SW MOV NE CB NE-SE VC SW MOV NE P0001=
200712282058 SPECI KATL 282058Z 23008KT 5SM TSRA BKN024 OVC036CB 19/16 A3002 RMK AO2 OCNL LTGICCG TS NE-SE VC SW MOV NE CB NE-SE VC SW MOV NE P0001=
200712282052 METAR KATL 282052Z 22009KT 5SM TSRA SCT026 OVC036CB 19/16 A3002 RMK AO2 TSB45RAB36 SLP164 OCNL LTGICCG TS OHD-N-NE MOV NE CB OHD-N-NE MOV NE P0002 60002 T01940156 53000=
200712282047 SPECI KATL 282047Z 22007KT 8SM -TSRA SCT026 OVC036CB 19/16 A3002 RMK AO2 TSB45RAB36 OCNL LTGICCG TS OHD-SW-NW MOV NE CB OHD-SW-NW MOV NE P0001=
200712282047 SPECI KATL 282047Z 22007KT 8SM -TSRA SCT026 OVC036CB 19/16 A3002 RMK AO2 TSB45RAB36 OCNL LTGICCG TS OHD-SW-NW MOV NE CB OHD-SW-NW MOV NE P0001=
200712282044 SPECI KATL 282044Z 21006KT 9SM -RA SCT029 OVC038CB 19/16 A3002 RMK AO2 RAB36 OCNL LTGICCG TS VC SW MOV NE CB VC SW MOV NE P0000=
200712282044 SPECI KATL 282044Z 21006KT 9SM -RA SCT029 OVC038CB 19/16 A3002 RMK AO2 RAB36 OCNL LTGICCG TS VC SW MOV NE CB VC SW MOV NE P0000=
200712282039 SPECI KATL 282039Z 20010KT 10SM -RA FEW026 OVC036CB 19/16 A3001 RMK AO2 RAB36 VIS LWR SE-W SHRA CB OHD-SE-W MOV NE P0000=
200712282039 SPECI KATL 282039Z 20010KT 10SM -RA FEW026 OVC036CB 19/16 A3001 RMK AO2 RAB36 VIS LWR SE-W SHRA CB OHD-SE-W MOV NE P0000=
200712281952 METAR KATL 281952Z 18011G19KT 10SM FEW020 SCT070 BKN090 BKN250 20/16 A3000 RMK AO2 SLP156 T02000156=
200712281852 METAR KATL 281852Z 17013KT 6SM HZ FEW017 BKN065 OVC075 18/16 A3002 RMK AO2 SLP164 T01830156=
200712281804 SPECI KATL 281804Z 16007KT 1 1/2SM BR BKN005 BKN011 OVC060 16/15 A3005 RMK AO2 SFC VIS 4=
200712281804 SPECI KATL 281804Z 16007KT 1 1/2SM BR BKN005 BKN011 OVC060 16/15 A3005 RMK AO2 SFC VIS 4=
200712281752 METAR KATL 281752Z 14006KT 1 1/2SM BR BKN003 BKN008 OVC060 16/15 A3005 RMK AO2 SFC VIS 3 SLP174 60096 T01560150 10156 20106 58024=
200712281721 SPECI KATL 281721Z 15007KT 1/4SM R09R/1800V6000FT BR VV001 14/14 A3007 RMK AO2 SFC VIS 3/4=
200712281721 SPECI KATL 281721Z 15007KT 1/4SM R09R/1800V6000FT BR VV001 14/14 A3007 RMK AO2 SFC VIS 3/4=
200712281710 SPECI KATL 281710Z 15006KT 1/4SM R09R/1200V1400FT FG VV001 13/13 A3007 RMK AO2 TWR VIS 1/4=
200712281710 SPECI KATL 281710Z 15006KT 1/4SM R09R/1200V1400FT FG VV001 13/13 A3007 RMK AO2 TWR VIS 1/4=
200712281652 METAR KATL 281652Z 14007KT 1/4SM R09R/1000FT FG VV001 13/13 A3008 RMK AO2 TWR VIS 1/2 DZE51 PRESFR SLP186 P0000 T01280128=
200712281552 METAR KATL 281552Z 12006KT 1/4SM R09R/1200V2000FT -DZ FG VV001 12/11 A3012 RMK AO2 TWR VIS 1/2 DZB38 SLP200 P0000 T01170111=
200712281543 SPECI KATL 281543Z 11007KT 1/4SM R09R/1200V1800FT -DZ FG VV001 12/11 A3012 RMK AO2 TWR VIS 1/2 DZB38 P0000=
200712281543 SPECI KATL 281543Z 11007KT 1/4SM R09R/1200V1800FT -DZ FG VV001 12/11 A3012 RMK AO2 TWR VIS 1/2 DZB38 P0000=
200712281538 SPECI KATL 281538Z 13006KT 1/4SM R09R/1400V3500FT -DZ FG OVC002 12/11 A3013 RMK AO2 TWR VIS 1/2 DZB38 P0000=
200712281538 SPECI KATL 281538Z 13006KT 1/4SM R09R/1400V3500FT -DZ FG OVC002 12/11 A3013 RMK AO2 TWR VIS 1/2 DZB38 P0000=
200712281452 METAR KATL 281452Z 10007KT 1/2SM BR OVC004 12/11 A3012 RMK AO2 SFC VIS 4 RAE16B33E34DZB17E26 SLP200 P0001 60096 T01170106 51008=
200712281442 SPECI KATL 281442Z 09006KT 3/4SM BR OVC004 11/11 A3013 RMK AO2 SFC VIS 5 RAE16B33E34DZB17E26 P0001=
200712281442 SPECI KATL 281442Z 09006KT 3/4SM BR OVC004 11/11 A3013 RMK AO2 SFC VIS 5 RAE16B33E34DZB17E26 P0001=
200712281431 SPECI KATL 281431Z 10008KT 1SM BR OVC004 11/11 A3012 RMK AO2 SFC VIS 5 RAE16DZB17E26 P0001=
200712281431 SPECI KATL 281431Z 10008KT 1SM BR OVC004 11/11 A3012 RMK AO2 SFC VIS 5 RAE16DZB17E26 P0001=
200712281352 METAR KATL 281352Z 08005KT 3SM -RA FEW003 OVC008 11/10 A3012 RMK AO2 SFC VIS 9 TSE38 SLP199 TS MOV NE P0037 T01110100=
200712281339 SPECI KATL 281339Z 04004KT 2SM RA OVC008 11/10 A3012 RMK AO2 SFC VIS 8 TSE38 CIG 003V011 TS MOV NE P0037=
200712281339 SPECI KATL 281339Z 04004KT 2SM RA OVC008 11/10 A3012 RMK AO2 SFC VIS 8 TSE38 CIG 003V011 TS MOV NE P0037=
200712281332 SPECI KATL 281332Z 05006KT 2SM -TSRA BR BKN006 OVC012CB 11/10 A3013 RMK AO2 SFC VIS 5 OCNL LTGICCA TS VC NW-NE MOV NE P0036=
200712281332 SPECI KATL 281332Z 05006KT 2SM -TSRA BR BKN006 OVC012CB 11/10 A3013 RMK AO2 SFC VIS 5 OCNL LTGICCA TS VC NW-NE MOV NE P0036=
200712281315 SPECI KATL 281315Z 06008KT 1/2SM +TSRA BR SCT002 BKN005 OVC012CB 11/10 A3010 RMK AO2 SFC VIS 4 OCNL LTGICCA TS OHD-ALQDS MOV NE P0025=
200712281315 SPECI KATL 281315Z 06008KT 1/2SM +TSRA BR SCT002 BKN005 OVC012CB 11/10 A3010 RMK AO2 SFC VIS 4 OCNL LTGICCA TS OHD-ALQDS MOV NE P0025=
200712281250 SPECI KATL 281250Z 04009KT 1/2SM TSRA BR BKN003 BKN008 OVC016CB 11/10 A3010 RMK AO2 SFC VIS 3 TSB1157 OCNL LTGICCA TS OHD-ALQDS MOV NE TWRINC P0057=
200712281250 SPECI KATL 281250Z 04009KT 1/2SM TSRA BR BKN003 BKN008 OVC016CB 11/10 A3010 RMK AO2 SFC VIS 3 TSB1157 OCNL LTGICCA TS OHD-ALQDS MOV NE TWRINC P0057=
200712281244 SPECI KATL 281244Z 05010KT 1SM R09R/5500VP6000FT +TSRA BR SCT002 BKN006 OVC030CB 10/10 A3010 RMK AO2 SFC VIS 2 TSB1157 OCNL LTGICCA TS OHD-ALQDS MOV NE P0054=
200712281244 SPECI KATL 281244Z 05010KT 1SM R09R/5500VP6000FT +TSRA BR SCT002 BKN006 OVC030CB 10/10 A3010 RMK AO2 SFC VIS 2 TSB1157 OCNL LTGICCA TS OHD-ALQDS MOV NE P0054=
200712281242 SPECI KATL 281242Z 05008KT 3/4SM R09R/5500VP6000FT +TSRA BR SCT002 BKN006 OVC030CB 10/10 A3010 RMK AO2 SFC VIS 1 3/4 TSB1157 PRESFR OCNL LTGICCA TS OHD-ALQDS MOV NE P0052=
200712281242 SPECI KATL 281242Z 05008KT 3/4SM R09R/5500VP6000FT +TSRA BR SCT002 BKN006 OVC030CB 10/10 A3010 RMK AO2 SFC VIS 1 3/4 TSB1157 PRESFR OCNL LTGICCA TS OHD-ALQDS MOV NE P0052=
200712281222 SPECI KATL 281222Z 10008KT 3/4SM R09R/4500VP6000FT +TSRA BR BKN002 BKN006 OVC032CB 10/10 A3013 RMK AO2 SFC VIS 1 1/2 TSB1157 OCNL LTGICCA TS OHD-ALQDS MOV NE P0025=
200712281222 SPECI KATL 281222Z 10008KT 3/4SM R09R/4500VP6000FT +TSRA BR BKN002 BKN006 OVC032CB 10/10 A3013 RMK AO2 SFC VIS 1 1/2 TSB1157 OCNL LTGICCA TS OHD-ALQDS MOV NE P0025=
200712281159 SPECI KATL 281159Z 08009KT 1/8SM R09R/2600V6000FT TSRA BR OVC001CB 10/10 A3009 RMK AO2 SFC VIS 3/4 TSB57 OCNL LTGICCA TS SW-W-NW MOV NE P0003=
200712281159 SPECI KATL 281159Z 08009KT 1/8SM R09R/2600V6000FT TSRA BR OVC001CB 10/10 A3009 RMK AO2 SFC VIS 3/4 TSB57 OCNL LTGICCA TS SW-W-NW MOV NE P0003=
200712281152 METAR KATL 281152Z 07009KT 0SM R09R/1800V2800FT RA FG VV001 10/10 A3009 RMK AO2 SFC VIS 1/4 DZE38RAB38 SLP191 P0001 60001 70002 T01000100 10100 20094 56007=
200712281129 SPECI KATL 281129Z 09009KT 0SM R09R/2000V2200FT -DZ FG VV001 10/10 A3011 RMK AO2 SFC VIS 1/2 P0000=
200712281129 SPECI KATL 281129Z 09009KT 0SM R09R/2000V2200FT -DZ FG VV001 10/10 A3011 RMK AO2 SFC VIS 1/2 P0000=
200712281048 SPECI KATL 281048Z 10007KT 0SM R09R/2000V2600FT -DZ FG VV001 10/09 A3010 RMK AO2 SFC VIS 1/4 P0000=
200712281048 SPECI KATL 281048Z 10007KT 0SM R09R/2000V2600FT -DZ FG VV001 10/09 A3010 RMK AO2 SFC VIS 1/4 P0000=
200712281038 SPECI KATL 281038Z 10007KT 0SM R09R/2000V2200FT -DZ FG VV001 10/09 A3010 RMK AO2 SFC VIS 1/4 P0000=
200712281038 SPECI KATL 281038Z 10007KT 0SM R09R/2000V2200FT -DZ FG VV001 10/09 A3010 RMK AO2 SFC VIS 1/4 P0000=
200712280952 METAR KATL 280952Z 09006KT 1/8SM R09R/3000V4000FT -DZ FG VV001 10/09 A3011 RMK AO2 SFC VIS 1/2 DZB48 SLP198 P0000 T01000094=
200712280905 SPECI KATL 280905Z 11006KT 1/2SM BR OVC004 10/09 A3014 RMK AO2 SFC VIS 5 TWRINC=
200712280905 SPECI KATL 280905Z 11006KT 1/2SM BR OVC004 10/09 A3014 RMK AO2 SFC VIS 5 TWRINC=
200712280852 METAR KATL 280852Z 11006KT 3SM BR OVC004 10/09 A3014 RMK AO2 SFC VIS 6 SLP206 T01000089 58001=
200712280841 SPECI KATL 280841Z 11006KT 3SM BR OVC004 10/09 A3014 RMK AO2 SFC VIS 6=
200712280841 SPECI KATL 280841Z 11006KT 3SM BR OVC004 10/09 A3014 RMK AO2 SFC VIS 6=
200712280750 SPECI KATL 280750Z 11006KT 3SM BR OVC006 10/09 A3015 RMK AO2 SFC VIS 6=
200712280750 SPECI KATL 280750Z 11006KT 3SM BR OVC006 10/09 A3015 RMK AO2 SFC VIS 6=
200712280652 METAR KATL 280652Z 12004KT 3SM BR OVC004 09/09 A3014 RMK AO2 SFC VIS 5 CIG 002V008 SLP207 T00940089=
200712280643 SPECI KATL 280643Z 12004KT 3SM BR BKN004 OVC008 09/09 A3014 RMK AO2 SFC VIS 5=
200712280643 SPECI KATL 280643Z 12004KT 3SM BR BKN004 OVC008 09/09 A3014 RMK AO2 SFC VIS 5=
200712280552 METAR KATL 280552Z 11007KT 1/8SM BR OVC002 09/09 A3014 RMK AO2 SFC VIS 2 1/2 SLP207 TWRINC T00940089 10111 20094 51002=
200712280452 METAR KATL 280452Z 10007KT 1/8SM BR OVC002 09/09 A3013 RMK AO2 SFC VIS 2 1/2 SLP206 TWRINC T00940089 401170067=
200712280352 METAR KATL 280352Z 09005KT 1/2SM BR OVC003 10/09 A3014 RMK AO2 SFC VIS 5 SLP207 TWRINC T01000089=
200712280315 SPECI KATL 280315Z 14005KT 1 1/2SM BR OVC004 10/09 A3014 RMK AO2 SFC VIS 6 CIG 003V007=
200712280315 SPECI KATL 280315Z 14005KT 1 1/2SM BR OVC004 10/09 A3014 RMK AO2 SFC VIS 6 CIG 003V007=
200712280252 METAR KATL 280252Z 13006KT 3SM BR OVC004 10/09 A3013 RMK AO2 SFC VIS 6 SLP205 T01000089 51012=
200712280234 SPECI KATL 280234Z 12006KT 3SM BR OVC004 10/09 A3013 RMK AO2 SFC VIS 6=
200712280234 SPECI KATL 280234Z 12006KT 3SM BR OVC004 10/09 A3013 RMK AO2 SFC VIS 6=
200712280152 METAR KATL 280152Z 13005KT 8SM OVC006 10/08 A3012 RMK AO2 SLP202 T01000083=
200712280108 SPECI KATL 280108Z 14006KT 10SM BKN008 OVC035 11/08 A3011 RMK AO2=
200712280108 SPECI KATL 280108Z 14006KT 10SM BKN008 OVC035 11/08 A3011 RMK AO2=
200712280052 METAR KATL 280052Z 14006KT 10SM BKN010 OVC035 11/08 A3011 RMK AO2 SLP199 T01060083=
200712280018 SPECI KATL 280018Z 11006KT 10SM BKN010 BKN020 OVC035 11/08 A3010 RMK AO2=
200712280018 SPECI KATL 280018Z 11006KT 10SM BKN010 BKN020 OVC035 11/08 A3010 RMK AO2=
200712272352 METAR KATL 272352Z 11006KT 10SM SCT014 BKN025 OVC035 11/08 A3009 RMK AO2 SLP192 T01110083 10117 20100 51011=
200712272252 METAR KATL 272252Z 11005KT 10SM OVC016 11/08 A3008 RMK AO2 SLP188 CIG 013V020 T01110083=
200712272152 METAR KATL 272152Z 13005KT 9SM BKN020 12/08 A3007 RMK AO2 SLP184 T01170083=
200712272052 METAR KATL 272052Z 00000KT 8SM SCT013 BKN021 OVC027 12/08 A3006 RMK AO2 SLP180 BINOVC OHD AND NE AND SE T01170083 56004=
200712272033 SPECI KATL 272033Z 09005KT 8SM SCT011 BKN021 BKN027 12/08 A3005 RMK AO2 SCT011 V BKN=
200712272033 SPECI KATL 272033Z 09005KT 8SM SCT011 BKN021 BKN027 12/08 A3005 RMK AO2 SCT011 V BKN=
200712271952 METAR KATL 271952Z 11006KT 8SM BKN014 BKN021 11/08 A3006 RMK AO2 SLP181 BKN014 V SCT T01110078=
200712271939 SPECI KATL 271939Z 12003KT 8SM BKN014 BKN021 11/08 A3006 RMK AO2 BKN014 V SCT=
200712271939 SPECI KATL 271939Z 12003KT 8SM BKN014 BKN021 11/08 A3006 RMK AO2 BKN014 V SCT=
200712271916 SPECI KATL 271916Z 00000KT 7SM SCT011 BKN021 11/08 A3006 RMK AO2 SCT011 V BKN=
200712271916 SPECI KATL 271916Z 00000KT 7SM SCT011 BKN021 11/08 A3006 RMK AO2 SCT011 V BKN=
200712271852 METAR KATL 271852Z 07004KT 7SM BKN010 BKN025 11/08 A3006 RMK AO2 SLP180 BKN010 V SCT T01110078=
200712271840 SPECI KATL 271840Z 13003KT 7SM BKN010 BKN025 11/08 A3006 RMK AO2 BKN010 V SCT=
200712271840 SPECI KATL 271840Z 13003KT 7SM BKN010 BKN025 11/08 A3006 RMK AO2 BKN010 V SCT=
200712271752 METAR KATL 271752Z 00000KT 5SM BR BKN008 OVC025 10/07 A3007 RMK AO2 DZE09 SLP186 BKN008 V SCT P0000 60001 T01000072 10100 20072 58006=
200712271652 METAR KATL 271652Z 15005KT 5SM -DZ BR BKN008 BKN011 OVC026 09/07 A3009 RMK AO2 DZB52 SLP193 CIG 006V008 P0000 T00890072=
200712271552 METAR KATL 271552Z 00000KT 5SM BR OVC006 08/07 A3010 RMK AO2 DZE33 SLP195 CIG 004V008 P0000 T00830067=
200712271534 SPECI KATL 271534Z 00000KT 5SM BR BKN006 OVC028 08/07 A3010 RMK AO2 DZE33 P0000=
200712271534 SPECI KATL 271534Z 00000KT 5SM BR BKN006 OVC028 08/07 A3010 RMK AO2 DZE33 P0000=
200712271452 METAR KATL 271452Z 13003KT 5SM -DZ BR OVC004 08/06 A3009 RMK AO2 SLP193 P0000 60001 T00780061 53012=
200712271352 METAR KATL 271352Z 14003KT 5SM -DZ BR OVC004 07/06 A3007 RMK AO2 SLP186 P0000 T00720061=
200712271315 SPECI KATL 271315Z 14004KT 4SM -DZ BR OVC004 07/06 A3006 RMK AO2 CIG 003V008 P0000=
200712271315 SPECI KATL 271315Z 14004KT 4SM -DZ BR OVC004 07/06 A3006 RMK AO2 CIG 003V008 P0000=
200712271252 METAR KATL 271252Z 12004KT 6SM -DZ BR OVC006 07/06 A3006 RMK AO2 DZE1155B18RAB1155E17 CIG 003V009 SLP182 P0001 T00720061=
200712271245 SPECI KATL 271245Z 14003KT 6SM -DZ BR OVC006 07/06 A3006 RMK AO2 DZE1155B18RAB1155E17 CIG 003V010 P0001=
200712271245 SPECI KATL 271245Z 14003KT 6SM -DZ BR OVC006 07/06 A3006 RMK AO2 DZE1155B18RAB1155E17 CIG 003V010 P0001=
200712271206 SPECI KATL 271206Z 13003KT 3SM -RA BR BKN003 BKN008 OVC014 07/06 A3006 RMK AO2 DZE1155RAB1155 CIG 002V006 P0001=
200712271206 SPECI KATL 271206Z 13003KT 3SM -RA BR BKN003 BKN008 OVC014 07/06 A3006 RMK AO2 DZE1155RAB1155 CIG 002V006 P0001=
200712271152 METAR KATL 271152Z 15003KT 4SM -DZ BR BKN005 OVC014 07/06 A3006 RMK AO2 DZE25B50RAB25E50 SLP180 P0000 60001 70001 T00720061 10072 20067 53016=
200712271137 SPECI KATL 271137Z 14004KT 5SM -RA BR FEW006 BKN018 OVC032 07/06 A3004 RMK AO2 DZE25RAB25 P0000=
200712271137 SPECI KATL 271137Z 14004KT 5SM -RA BR FEW006 BKN018 OVC032 07/06 A3004 RMK AO2 DZE25RAB25 P0000=
200712271052 METAR KATL 271052Z 14004KT 8SM -DZ FEW012 OVC022 07/06 A3004 RMK AO2 RAB09E44DZB51 SLP174 P0001 T00720061=
200712270952 METAR KATL 270952Z 00000KT 10SM FEW012 OVC028 07/06 A3002 RMK AO2 RAB09E20 SLP168 P0000 T00720056=
200712270912 SPECI KATL 270912Z 12006KT 10SM -RA OVC028 07/05 A3001 RMK AO2 RAB09 P0000=
200712270912 SPECI KATL 270912Z 12006KT 10SM -RA OVC028 07/05 A3001 RMK AO2 RAB09 P0000=
200712270852 METAR KATL 270852Z 13005KT 10SM BKN030 OVC035 07/05 A3001 RMK AO2 SLP163 T00720050 53008=
200712270752 METAR KATL 270752Z 12004KT 10SM OVC047 07/05 A3000 RMK AO2 SLP161 T00720050=
200712270652 METAR KATL 270652Z 14005KT 10SM OVC060 07/05 A2999 RMK AO2 SLP158 T00720050=
200712270552 METAR KATL 270552Z 12005KT 10SM FEW070 BKN200 BKN250 07/04 A2998 RMK AO2 SLP156 T00720044 10094 20072 52005=
200712270452 METAR KATL 270452Z 14004KT 10SM FEW070 BKN200 OVC250 08/04 A2998 RMK AO2 SLP156 T00780044 401220044=
200712270352 METAR KATL 270352Z 13004KT 10SM SCT150 BKN250 08/04 A2997 RMK AO2 SLP152 T00830044=
200712270252 METAR KATL 270252Z 14006KT 10SM FEW030 BKN150 OVC200 09/04 A2997 RMK AO2 SLP152 T00890044 58001=
200712270152 METAR KATL 270152Z 12006KT 10SM OVC032 09/04 A3001 RMK AO2 SLP165 BINOVC T00890044=
200712270052 METAR KATL 270052Z 19005KT 10SM BKN030 BKN250 08/04 A3001 RMK AO2 SLP168 T00830044=
200712262352 METAR KATL 262352Z 14005KT 10SM FEW200 SCT250 09/04 A2997 RMK AO2 SLP153 T00940044 10122 20094 52010=
200712262252 METAR KATL 262252Z 15005KT 10SM FEW200 10/04 A2996 RMK AO2 SLP150 T01000044=
200712262152 METAR KATL 262152Z 13004KT 10SM FEW030 SCT200 12/04 A2995 RMK AO2 SLP145 T01170039=
200712262052 METAR KATL 262052Z 13005KT 10SM FEW030 12/04 A2994 RMK AO2 SLP142 T01170039 56030=
200712261952 METAR KATL 261952Z 09006KT 10SM SCT027 12/04 A2996 RMK AO2 SLP149 T01170039=
200712261935 SPECI KATL 261935Z VRB03KT 10SM SCT027 11/04 A2997 RMK AO2=
200712261935 SPECI KATL 261935Z VRB03KT 10SM SCT027 11/04 A2997 RMK AO2=
200712261852 METAR KATL 261852Z 00000KT 10SM BKN025 11/04 A2999 RMK AO2 SLP159 T01060039=
200712261752 METAR KATL 261752Z 00000KT 10SM SCT150 09/04 A3003 RMK AO2 SLP174 T00940039 10100 20044 58021=
200712261652 METAR KATL 261652Z 05005KT 10SM FEW065 SCT150 09/03 A3005 RMK AO2 SLP181 T00890033=
200712261552 METAR KATL 261552Z 00000KT 10SM FEW015 BKN030 07/04 A3010 RMK AO2 SLP197 T00720039=
200712261452 METAR KATL 261452Z 30004KT 10SM FEW028 BKN040 06/03 A3010 RMK AO2 SLP197 T00560033 50006=
200712261352 METAR KATL 261352Z 29003KT 10SM FEW028 BKN040 05/03 A3010 RMK AO2 SLP198 T00500033=
200712261307 SPECI KATL 261307Z 00000KT 10SM BKN032 05/02 A3009 RMK AO2=
200712261307 SPECI KATL 261307Z 00000KT 10SM BKN032 05/02 A3009 RMK AO2=
200712261252 METAR KATL 261252Z 04003KT 10SM OVC029 05/02 A3008 RMK AO2 SLP192 BINOVC T00500022=
200712261152 METAR KATL 261152Z 00000KT 10SM FEW013 OVC027 05/02 A3008 RMK AO2 SLP192 70058 T00500022 10050 20044 53005=
200712261052 METAR KATL 261052Z 06004KT 10SM FEW008 OVC025 04/03 A3006 RMK AO2 SLP185 T00440028=
200712261018 SPECI KATL 261018Z 04008KT 10SM SCT008 OVC023 04/03 A3005 RMK AO2=
200712261018 SPECI KATL 261018Z 04008KT 10SM SCT008 OVC023 04/03 A3005 RMK AO2=
200712260952 METAR KATL 260952Z 04010KT 10SM FEW010 SCT014 OVC023 04/03 A3004 RMK AO2 SLP179 T00440028=
200712260852 METAR KATL 260852Z 02011KT 10SM OVC014 05/02 A3006 RMK AO2 SLP186 T00500022 58005=
200712260752 METAR KATL 260752Z 03007KT 10SM OVC014 05/02 A3008 RMK AO2 SLP189 T00500022=
200712260747 SPECI KATL 260747Z 03007KT 10SM OVC014 05/02 A3008 RMK AO2=
200712260747 SPECI KATL 260747Z 03007KT 10SM OVC014 05/02 A3008 RMK AO2=
200712260652 METAR KATL 260652Z 36006KT 10SM BKN018 BKN040 OVC050 05/02 A3008 RMK AO2 SLP190 T00500022=
200712260626 SPECI KATL 260626Z 05006KT 10SM FEW018 BKN038 OVC050 05/02 A3008 RMK AO2=
200712260626 SPECI KATL 260626Z 05006KT 10SM FEW018 BKN038 OVC050 05/02 A3008 RMK AO2=
200712260552 METAR KATL 260552Z 04007KT 10SM BKN018 BKN035 OVC050 05/02 A3008 RMK AO2 SLP191 60000 T00500022 10056 20044 56002=
200712260502 SPECI KATL 260502Z 05007KT 10SM SCT018 OVC050 05/03 A3008 RMK AO2=
200712260502 SPECI KATL 260502Z 05007KT 10SM SCT018 OVC050 05/03 A3008 RMK AO2=
200712260452 METAR KATL 260452Z 05008KT 10SM BKN018 OVC045 05/02 A3009 RMK AO2 SLP193 T00500022 400720033=
200712260429 SPECI KATL 260429Z 03006KT 10SM BKN018 BKN045 BKN110 05/02 A3009 RMK AO2=
200712260429 SPECI KATL 260429Z 03006KT 10SM BKN018 BKN045 BKN110 05/02 A3009 RMK AO2=
200712260352 METAR KATL 260352Z 04007KT 10SM FEW048 BKN110 05/02 A3008 RMK AO2 RAE02 SLP191 P0000 T00500022=
200712260252 METAR KATL 260252Z 03008KT 10SM -RA SCT045 BKN055 OVC085 05/02 A3009 RMK AO2 RAB52 SLP193 P0000 60000 T00500022 58012=
200712260152 METAR KATL 260152Z 02008KT 10SM OVC045 06/02 A3010 RMK AO2 RAE36 SLP200 P0000 T00560022=
200712260052 METAR KATL 260052Z 04008KT 10SM -RA BKN045 OVC060 05/02 A3012 RMK AO2 RAB43 SLP203 P0000 T00500022=
200712252352 METAR KATL 252352Z 02008KT 10SM BKN035 OVC050 05/03 A3012 RMK AO2 RAE21 SLP206 P0001 60058 T00500028 10072 20044 58006=
200712252252 METAR KATL 252252Z 36006KT 9SM -RA SCT028 BKN040 OVC065 05/03 A3014 RMK AO2 SLP212 P0008 T00500033=
200712252218 SPECI KATL 252218Z 35009KT 6SM -RA BR SCT028 BKN045 OVC055 05/03 A3013 RMK AO2 P0006=
200712252218 SPECI KATL 252218Z 35009KT 6SM -RA BR SCT028 BKN045 OVC055 05/03 A3013 RMK AO2 P0006=
200712252152 METAR KATL 252152Z 35009KT 2 1/2SM RA BR BKN024 OVC038 04/03 A3014 RMK AO2 PRESFR SLP212 P0022 T00440033=
200712252052 METAR KATL 252052Z 29005KT 2 1/2SM -RA BKN025 OVC048 05/02 A3014 RMK AO2 SFC VIS 3 PLB1955E14 SLP213 P0026 60027 T00500022 55019=
200712252023 SPECI KATL 252023Z 29009KT 2SM RA BKN022 OVC050 06/02 A3013 RMK AO2 TWR VIS 2 1/2 PLB1955E14 VIS N 1 1/4 CB DSIPT P0019=
200712252023 SPECI KATL 252023Z 29009KT 2SM RA BKN022 OVC050 06/02 A3013 RMK AO2 TWR VIS 2 1/2 PLB1955E14 VIS N 1 1/4 CB DSIPT P0019=
200712252015 SPECI KATL 252015Z 34003KT 1 1/2SM R09R/6000VP6000FT +RA BKN022CB OVC050 05/02 A3013 RMK AO2 TWR VIS 2 1/2 PLB1955E14 VIS NE-E 2 1/2 CB OHD MOV NE P0014 $=
200712252015 SPECI KATL 252015Z 34003KT 1 1/2SM R09R/6000VP6000FT +RA BKN022CB OVC050 05/02 A3013 RMK AO2 TWR VIS 2 1/2 PLB1955E14 VIS NE-E 2 1/2 CB OHD MOV NE P0014 $=
200712252005 SPECI KATL 252005Z 03011G15KT 2 1/2SM R09R/6000VP6000FT RAPL BKN028CB BKN050 OVC095 06/01 A3014 RMK AO2 PLB1955 VIS S-W 2 CB OHD-S-W MOV NE P0004 $=
200712252005 SPECI KATL 252005Z 03011G15KT 2 1/2SM R09R/6000VP6000FT RAPL BKN028CB BKN050 OVC095 06/01 A3014 RMK AO2 PLB1955 VIS S-W 2 CB OHD-S-W MOV NE P0004 $=
200712251956 SPECI KATL 251956Z VRB06KT 8SM -PLRA SCT038CB BKN060 BKN095 OVC200 06/01 A3016 RMK AO2 PLB55 CB VC SW MOV NE P0000=
200712251956 SPECI KATL 251956Z VRB06KT 8SM -PLRA SCT038CB BKN060 BKN095 OVC200 06/01 A3016 RMK AO2 PLB55 CB VC SW MOV NE P0000=
200712251952 METAR KATL 251952Z 34011KT 9SM -RA SCT038 BKN060 BKN095 OVC200 06/01 A3013 RMK AO2 RAB41 PRESFR SLP208 VIRGA ALQDS P0001 T00560011=
200712251852 METAR KATL 251852Z 32007KT 10SM FEW040 SCT065 BKN090 OVC200 06/01 A3018 RMK AO2 SLP226 VIRGA ALQDS T00610006=
200712251752 METAR KATL 251752Z 03008KT 10SM FEW050 BKN110 OVC200 07/M02 A3020 RMK AO2 SLP231 VIRGA ALQDS 60000 T00721022 10072 20033 58007=
200712251552 METAR KATL 251552Z 31005KT 10SM FEW040 BKN095 OVC200 04/00 A3024 RMK AO2 TSE14RAE42PLE26 SLP247 CB DSNT W MOV NE P0000 T00390000=
200712251527 SPECI KATL 251527Z 33007KT 10SM SCT040 BKN095 OVC200 04/M01 A3024 RMK AO2 TSE14RAE26PLE26 CB DSNT SW MOV NE P0000=
200712251527 SPECI KATL 251527Z 33007KT 10SM SCT040 BKN095 OVC200 04/M01 A3024 RMK AO2 TSE14RAE26PLE26 CB DSNT SW MOV NE P0000=
200712251516 SPECI KATL 251516Z 32006KT 10SM -PLRA SCT040 BKN090 OVC200 04/M01 A3025 RMK AO2 TSE14 TS DSIPT CB DSNT SW MOV NE P0000=
200712251516 SPECI KATL 251516Z 32006KT 10SM -PLRA SCT040 BKN090 OVC200 04/M01 A3025 RMK AO2 TSE14 TS DSIPT CB DSNT SW MOV NE P0000=
200712251452 METAR KATL 251452Z 35007KT 10SM -TSPLRA SCT040CB BKN090 OVC200 06/M03 A3022 RMK AO2 TSB44RAB41PLB48 SLP238 OCNL LTGICCG W-NE TS W-NE MOV NE VIRGA ALQDS P0000 60000 T00611028 50010=
200712251450 SPECI KATL 251450Z 01008KT 10SM -TSPLRA SCT040CB BKN090 OVC200 06/M03 A3022 RMK AO2 TSB44RAB41PLB48 OCNL LTGICCG W-NE TS W-NE MOV NE VIRGA ALQDS P0000=
200712251450 SPECI KATL 251450Z 01008KT 10SM -TSPLRA SCT040CB BKN090 OVC200 06/M03 A3022 RMK AO2 TSB44RAB41PLB48 OCNL LTGICCG W-NE TS W-NE MOV NE VIRGA ALQDS P0000=
200712251446 SPECI KATL 251446Z 04009KT 10SM -TSRA SCT040CB BKN090 OVC200 06/M03 A3023 RMK AO2 TSB44RAB41 OCNL LTGIC VC SW TS VC SW MOV NE VIRGA ALQDS P0000=
200712251446 SPECI KATL 251446Z 04009KT 10SM -TSRA SCT040CB BKN090 OVC200 06/M03 A3023 RMK AO2 TSB44RAB41 OCNL LTGIC VC SW TS VC SW MOV NE VIRGA ALQDS P0000=
200712251352 METAR KATL 251352Z 32005KT 10SM FEW075 BKN095 OVC200 04/M03 A3024 RMK AO2 SLP245 VIRGA OHD-ALQDS T00441028=
200712251252 METAR KATL 251252Z 00000KT 10SM FEW080 BKN100 OVC200 06/M04 A3019 RMK AO2 SLP227 VIRGA N-NE AND VC SW-NW ACC VC SE-SW T00561044=
200712251052 METAR KATL 251052Z 34007KT 10SM SCT100 BKN200 OVC250 04/M04 A3016 RMK AO2 SLP219 T00391039=
200712250952 METAR KATL 250952Z 32005KT 10SM SCT100 OVC200 04/M04 A3016 RMK AO2 SLP219 T00391039=
200712250852 METAR KATL 250852Z 33006KT 10SM FEW095 BKN200 OVC250 04/M04 A3017 RMK AO2 SLP220 T00441039 56007=
200712250752 METAR KATL 250752Z 33007KT 10SM SCT095 BKN200 OVC250 04/M03 A3018 RMK AO2 SLP223 T00391033=
200712250652 METAR KATL 250652Z 32004KT 10SM FEW120 BKN200 BKN250 03/M03 A3018 RMK AO2 SLP225 T00331033=
200712250552 METAR KATL 250552Z 32007KT 10SM FEW110 SCT150 BKN220 04/M03 A3019 RMK AO2 SLP228 T00391033 10061 20039 58005=
200712250452 METAR KATL 250452Z 32006KT 10SM FEW110 BKN150 BKN200 04/M04 A3020 RMK AO2 SLP233 T00441039 401001006=
200712250352 METAR KATL 250352Z 31007KT 10SM BKN110 BKN150 OVC200 06/M04 A3021 RMK AO2 SLP235 T00561039=
200712250252 METAR KATL 250252Z 31005KT 10SM BKN110 BKN150 OVC200 06/M04 A3021 RMK AO2 SLP234 T00561044 51008=
200712250152 METAR KATL 250152Z 32007KT 10SM BKN110 BKN150 OVC200 06/M04 A3020 RMK AO2 SLP233 T00561044=
200712250052 METAR KATL 250052Z 30004KT 10SM SCT120 BKN150 OVC200 06/M04 A3020 RMK AO2 SLP234 T00561044=
200712242352 METAR KATL 242352Z 31006KT 10SM SCT150 BKN200 06/M05 A3018 RMK AO2 SLP228 T00561050 10100 20056 50002=
200712242252 METAR KATL 242252Z 29005KT 10SM FEW060 SCT150 BKN200 07/M06 A3018 RMK AO2 SLP228 T00671056=
200712242152 METAR KATL 242152Z 30005KT 10SM FEW060 BKN150 BKN200 08/M06 A3017 RMK AO2 SLP224 T00781061=
200712242052 METAR KATL 242052Z 31004KT 10SM FEW065 BKN200 BKN250 09/M07 A3017 RMK AO2 SLP223 T00941067 56013=
200712241952 METAR KATL 241952Z 31007KT 10SM FEW065 BKN200 BKN250 09/M07 A3018 RMK AO2 SLP226 T00941067=
200712241852 METAR KATL 241852Z 30010KT 10SM FEW065 BKN200 BKN250 09/M07 A3020 RMK AO2 SLP233 T00891067=
200712241752 METAR KATL 241752Z 35012KT 10SM FEW150 BKN200 BKN250 09/M08 A3021 RMK AO2 SLP237 T00941078 10100 21006 58009=
200712241652 METAR KATL 241652Z 32008KT 10SM SCT150 BKN200 BKN250 08/M06 A3024 RMK AO2 SLP247 T00781056=
200712241552 METAR KATL 241552Z 34010G16KT 10SM BKN150 BKN200 BKN250 06/M07 A3026 RMK AO2 SLP253 T00561067=
200712241452 METAR KATL 241452Z 34013G19KT 10SM SCT150 BKN200 BKN250 04/M07 A3024 RMK AO2 SLP247 T00391067 53010=
200712241352 METAR KATL 241352Z 33011KT 10SM FEW200 SCT250 01/M07 A3022 RMK AO2 SLP243 T00111067=
200712241252 METAR KATL 241252Z 32009KT 10SM FEW200 M01/M06 A3022 RMK AO2 SLP242 T10061061=
200712241152 METAR KATL 241152Z 31009KT 10SM CLR M01/M06 A3021 RMK AO2 SLP237 70003 T10061061 10006 21006 53011=
200712241052 METAR KATL 241052Z 30006KT 10SM CLR M01/M06 A3020 RMK AO2 SLP233 T10061061=
200712240952 METAR KATL 240952Z 31008KT 10SM CLR 00/M06 A3018 RMK AO2 SLP228 T00001061=
200712240852 METAR KATL 240852Z 32008KT 10SM CLR 01/M06 A3018 RMK AO2 SLP224 T00061056 50001=
200712240752 METAR KATL 240752Z 31008KT 10SM CLR 01/M05 A3018 RMK AO2 SLP227 T00061050=
200712240652 METAR KATL 240652Z 31008KT 10SM CLR 01/M04 A3018 RMK AO2 SLP225 T00061044=
200712240552 METAR KATL 240552Z 31007KT 10SM CLR 01/M04 A3017 RMK AO2 SLP222 T00061039 10044 20006 58004=
200712240452 METAR KATL 240452Z 30006KT 10SM CLR 01/M04 A3018 RMK AO2 SLP226 T00111039 401330011=
200712240352 METAR KATL 240352Z 28004KT 10SM CLR 02/M04 A3019 RMK AO2 SLP230 T00171044=
200712240252 METAR KATL 240252Z 29005KT 10SM CLR 02/M04 A3019 RMK AO2 SLP226 T00221044 53005=
200712240152 METAR KATL 240152Z 30006KT 10SM FEW250 03/M03 A3018 RMK AO2 SLP224 T00281033=
200712240052 METAR KATL 240052Z 30006KT 10SM CLR 03/M03 A3018 RMK AO2 SLP222 T00331028=
200712232352 METAR KATL 232352Z 31007KT 10SM FEW200 04/M03 A3017 RMK AO2 SLP221 T00441028 10106 20044 51015=
200712232252 METAR KATL 232252Z 32007KT 10SM FEW200 06/M03 A3015 RMK AO2 SLP213 T00561033=
200712232152 METAR KATL 232152Z 32010KT 10SM CLR 07/M03 A3015 RMK AO2 SLP212 T00721028=
200712232052 METAR KATL 232052Z 33010KT 10SM CLR 08/00 A3013 RMK AO2 SLP203 T00830000 51004=
200712231952 METAR KATL 231952Z 29011G19KT 10SM SCT024 08/01 A3012 RMK AO2 SLP202 T00830006=
200712231936 SPECI KATL 231936Z 31013G20KT 10SM SCT024 08/01 A3012 RMK AO2=
200712231936 SPECI KATL 231936Z 31013G20KT 10SM SCT024 08/01 A3012 RMK AO2=
200712231852 METAR KATL 231852Z 30017G22KT 10SM BKN022 08/03 A3012 RMK AO2 SLP202 T00830028=
200712231836 SPECI KATL 231836Z 30016G20KT 10SM BKN022 09/03 A3012 RMK AO2=
200712231836 SPECI KATL 231836Z 30016G20KT 10SM BKN022 09/03 A3012 RMK AO2=
200712231820 SPECI KATL 231820Z 29014KT 10SM SCT022 10/04 A3011 RMK AO2=
200712231820 SPECI KATL 231820Z 29014KT 10SM SCT022 10/04 A3011 RMK AO2=
200712231815 SPECI KATL 231815Z 32013KT 10SM BKN022 09/03 A3011 RMK AO2=
200712231815 SPECI KATL 231815Z 32013KT 10SM BKN022 09/03 A3011 RMK AO2=
200712231752 METAR KATL 231752Z 28012G21KT 10SM SCT024 10/04 A3011 RMK AO2 SLP199 60003 T01000044 10133 20100 53003=
200712231652 METAR KATL 231652Z 26013KT 10SM FEW016 SCT024 BKN040 12/08 A3010 RMK AO2 SLP194 MDT CU VC-ALQDS T01220078=
200712231552 METAR KATL 231552Z 28009G22KT 10SM FEW010 BKN016 OVC033 12/09 A3010 RMK AO2 DZE24RAB24E48 SLP194 MDT CU OHD-ALQDS BINOVC P0000 T01170094=
200712231546 SPECI KATL 231546Z 28012G21KT 10SM -RA BKN011 BKN018 OVC033 12/10 A3010 RMK AO2 DZE24RAB24 MDT CU OHD-ALQDS BINOVC P0000=
200712231546 SPECI KATL 231546Z 28012G21KT 10SM -RA BKN011 BKN018 OVC033 12/10 A3010 RMK AO2 DZE24RAB24 MDT CU OHD-ALQDS BINOVC P0000=
200712231524 SPECI KATL 231524Z 26009KT 10SM -RA BKN008 OVC025 12/11 A3009 RMK AO2 DZE24RAB24 P0000=
200712231524 SPECI KATL 231524Z 26009KT 10SM -RA BKN008 OVC025 12/11 A3009 RMK AO2 DZE24RAB24 P0000=
200712231452 METAR KATL 231452Z 24011KT 3SM -DZ BR BKN008 OVC013 12/11 A3007 RMK AO2 SFC VIS 4 CIG 005V009 SLP183 P0000 60003 T01170106 53019=
200712231430 SPECI KATL 231430Z 24008KT 3SM -DZ BR BKN006 OVC013 12/11 A3006 RMK AO2 SFC VIS 5 P0000=
200712231430 SPECI KATL 231430Z 24008KT 3SM -DZ BR BKN006 OVC013 12/11 A3006 RMK AO2 SFC VIS 5 P0000=
200712231413 SPECI KATL 231413Z 23009KT 9SM -DZ BKN008 OVC012 12/11 A3004 RMK AO2 P0000=
200712231413 SPECI KATL 231413Z 23009KT 9SM -DZ BKN008 OVC012 12/11 A3004 RMK AO2 P0000=
200712231352 METAR KATL 231352Z 23010KT 1 1/2SM -DZ BR BKN007 OVC012 12/11 A3003 RMK AO2 RAE10DZB44 SLP171 P0000 T01170106=
200712231350 SPECI KATL 231350Z 22010KT 1 1/2SM -DZ BR BKN005 OVC012 12/11 A3003 RMK AO2 RAE10DZB44 P0000=
200712231350 SPECI KATL 231350Z 22010KT 1 1/2SM -DZ BR BKN005 OVC012 12/11 A3003 RMK AO2 RAE10DZB44 P0000=
200712231252 METAR KATL 231252Z 20006KT 6SM -RA BR BKN007 OVC026 11/11 A3001 RMK AO2 SLP165 P0003 T01110106=
200712231232 SPECI KATL 231232Z 19006KT 7SM -RA SCT007 BKN012 OVC038 11/11 A3001 RMK AO2 P0002=
200712231232 SPECI KATL 231232Z 19006KT 7SM -RA SCT007 BKN012 OVC038 11/11 A3001 RMK AO2 P0002=
200712231225 SPECI KATL 231225Z 21005KT 6SM -RA BR BKN010 BKN023 OVC040 11/11 A3001 RMK AO2 P0002=
200712231225 SPECI KATL 231225Z 21005KT 6SM -RA BR BKN010 BKN023 OVC040 11/11 A3001 RMK AO2 P0002=
200712231207 SPECI KATL 231207Z 20007KT 5SM -RA BR SCT009 BKN023 OVC043 11/11 A3001 RMK AO2 P0001=
200712231207 SPECI KATL 231207Z 20007KT 5SM -RA BR SCT009 BKN023 OVC043 11/11 A3001 RMK AO2 P0001=
200712231154 SPECI KATL 231154Z 24004KT 5SM -RA BR SCT007 BKN012 OVC025 11/11 A3001 RMK AO2 P0000=
200712231154 SPECI KATL 231154Z 24004KT 5SM -RA BR SCT007 BKN012 OVC025 11/11 A3001 RMK AO2 P0000=
200712231152 METAR KATL 231152Z 22004KT 4SM -RA BR SCT004 BKN009 OVC019 11/11 A3001 RMK AO2 SLP165 P0018 60026 70034 T01110111 10111 20094 50011=
200712231147 SPECI KATL 231147Z 23005KT 4SM -RA BR SCT004 BKN009 OVC014 11/11 A3002 RMK AO2 P0017=
200712231147 SPECI KATL 231147Z 23005KT 4SM -RA BR SCT004 BKN009 OVC014 11/11 A3002 RMK AO2 P0017=
200712231116 SPECI KATL 231116Z 23004KT 1SM RA BR SCT002 BKN006 OVC011 11/11 A3001 RMK AO2 SFC VIS 2 1/2 P0013=
200712231116 SPECI KATL 231116Z 23004KT 1SM RA BR SCT002 BKN006 OVC011 11/11 A3001 RMK AO2 SFC VIS 2 1/2 P0013=
200712231102 SPECI KATL 231102Z 22008KT 1SM RA BR FEW002 BKN004 OVC008 11/11 A3002 RMK AO2 SFC VIS 2 1/2 PRESRR P0003=
200712231102 SPECI KATL 231102Z 22008KT 1SM RA BR FEW002 BKN004 OVC008 11/11 A3002 RMK AO2 SFC VIS 2 1/2 PRESRR P0003=
200712231052 METAR KATL 231052Z 24005KT 1/2SM -RA BR BKN002 OVC004 11/11 A3000 RMK AO2 SFC VIS 2 DZE09RAB09 SLP162 TWRINC P0007 T01060106=
200712230952 METAR KATL 230952Z 14010G15KT 1/2SM R09R/6000VP6000FT DZ FG VV002 11/10 A2998 RMK AO2 SLP153 P0000 T01060100=
200712230852 METAR KATL 230852Z 14007KT 1/2SM R09R/4000V5000FT DZ FG VV002 10/10 A3001 RMK AO2 SLP164 P0001 60001 T01000100 56025=
200712230752 METAR KATL 230752Z 13008KT 1/2SM R09R/P6000FT -DZ BR OVC002 10/09 A3003 RMK AO2 SFC VIS 3/4 SLP170 P0000 T01000094=
200712230652 METAR KATL 230652Z 13012G18KT 1/2SM R09R/P6000FT -DZ BR OVC002 10/09 A3004 RMK AO2 SFC VIS 3/4 SLP173 P0000 T01000094=
200712230552 METAR KATL 230552Z 13009G15KT 1/2SM -DZ BR FEW001 OVC003 09/09 A3008 RMK AO2 SFC VIS 2 DZE09B40RAB09E40 SLP189 TWRINC P0000 60005 T00940089 10094 20083 55014=
200712230452 METAR KATL 230452Z 12011KT 1/2SM -DZ BR OVC003 09/09 A3008 RMK AO2 SFC VIS 1 1/2 SLP189 CIG 002V004 TWRINC P0001 T00940089 401000067=
200712230358 SPECI KATL 230358Z 13008G15KT 1/2SM -DZ BR OVC003 09/08 A3011 RMK AO2 SFC VIS 1 1/2 CIG 002V004 TWRINC P0000=
200712230358 SPECI KATL 230358Z 13008G15KT 1/2SM -DZ BR OVC003 09/08 A3011 RMK AO2 SFC VIS 1 1/2 CIG 002V004 TWRINC P0000=
200712230352 METAR KATL 230352Z 12009KT 1 1/2SM -DZ BR OVC003 09/08 A3011 RMK AO2 SFC VIS 2 SLP199 CIG 002V004 P0000 T00940083=
200712230252 METAR KATL 230252Z 13008G16KT 1 1/2SM -DZ BR FEW002 OVC004 09/08 A3013 RMK AO2 SFC VIS 3 RAE44DZB44 SLP205 P0002 60004 T00890083 58005=
200712230152 METAR KATL 230152Z 11009KT 1 1/2SM -RA BR OVC004 09/08 A3014 RMK AO2 SLP211 P0001 T00890083=
200712230052 METAR KATL 230052Z 11011KT 1 1/2SM -RA BR OVC004 09/08 A3014 RMK AO2 DZE50RAB07E16B50 SLP211 P0001 T00890078 $=
200712222352 METAR KATL 222352Z 11007KT 1 1/2SM -DZ BR BKN004 OVC007 09/08 A3014 RMK AO2 SFC VIS 2 1/2 DZE08B52RAB08E49 SLP211 P0002 60003 T00890078 10100 20083 56002=
200712222252 METAR KATL 222252Z 10008KT 1 1/2SM -DZ BR BKN009 OVC014 09/08 A3014 RMK AO2 SFC VIS 2 1/2 RAE19DZB19 SLP212 P0001 T00890078=
200712222244 SPECI KATL 222244Z 10007KT 1 1/2SM -DZ BR FEW007 OVC014 09/08 A3014 RMK AO2 SFC VIS 2 1/2 RAE19DZB19 P0001=
200712222244 SPECI KATL 222244Z 10007KT 1 1/2SM -DZ BR FEW007 OVC014 09/08 A3014 RMK AO2 SFC VIS 2 1/2 RAE19DZB19 P0001=
200712222200 SPECI KATL 222200Z 09009KT 1 1/2SM -RA BR SCT007 BKN016 OVC018 09/08 A3015 RMK AO2 SFC VIS 2 P0000=
200712222200 SPECI KATL 222200Z 09009KT 1 1/2SM -RA BR SCT007 BKN016 OVC018 09/08 A3015 RMK AO2 SFC VIS 2 P0000=
200712222152 METAR KATL 222152Z 10008KT 2SM -RA BR BKN016 OVC021 09/08 A3015 RMK AO2 SFC VIS 2 1/2 RAB11 SLP213 P0000 T00890078=
200712222123 SPECI KATL 222123Z 10008KT 2SM -RA BR OVC012 09/07 A3015 RMK AO2 SFC VIS 3 RAB11 P0000=
200712222123 SPECI KATL 222123Z 10008KT 2SM -RA BR OVC012 09/07 A3015 RMK AO2 SFC VIS 3 RAB11 P0000=
200712222103 SPECI KATL 222103Z 10005KT 3SM OVC012 10/07 A3016 RMK AO2 SFC VIS 7 CIG 009V012=
200712222103 SPECI KATL 222103Z 10005KT 3SM OVC012 10/07 A3016 RMK AO2 SFC VIS 7 CIG 009V012=
200712222052 METAR KATL 222052Z 11008KT 3SM BKN009 OVC012 10/07 A3016 RMK AO2 SFC VIS 7 DZE49 SLP214 CIG 009V012 P0000 60000 T01000067 55010=
200712222026 SPECI KATL 222026Z 09008KT 3SM -DZ BR OVC009 10/07 A3015 RMK AO2 SFC VIS 5 CIG 009V012 P0000=
200712222026 SPECI KATL 222026Z 09008KT 3SM -DZ BR OVC009 10/07 A3015 RMK AO2 SFC VIS 5 CIG 009V012 P0000=
200712221952 METAR KATL 221952Z 10007KT 3SM -DZ BR OVC012 09/07 A3014 RMK AO2 SFC VIS 5 DZB52 SLP209 P0000 T00940067=
200712221852 METAR KATL 221852Z 11009KT 3SM OVC011 09/06 A3016 RMK AO2 SFC VIS 7 SLP216 T00940061=
200712221752 METAR KATL 221752Z 10009KT 3SM OVC011 09/06 A3019 RMK AO2 SFC VIS 7 SLP225 T00890061 10094 20067 56019=
200712221746 SPECI KATL 221746Z 12008KT 3SM OVC011 09/06 A3019 RMK AO2 SFC VIS 7=
200712221746 SPECI KATL 221746Z 12008KT 3SM OVC011 09/06 A3019 RMK AO2 SFC VIS 7=
200712221652 METAR KATL 221652Z 11010KT 3SM HZ OVC009 08/06 A3022 RMK AO2 SFC VIS 6 SLP236 T00830056=
200712221552 METAR KATL 221552Z 08011KT 3SM BR OVC007 08/06 A3025 RMK AO2 SFC VIS 5 SLP246 T00780056=
200712221452 METAR KATL 221452Z 09011KT 3SM BR OVC008 07/05 A3026 RMK AO2 SFC VIS 5 SLP250 T00720050 53015=
200712221352 METAR KATL 221352Z 09009KT 3SM BR OVC008 07/05 A3024 RMK AO2 SFC VIS 6 SLP243 T00720050=
200712221258 SPECI KATL 221258Z 09008KT 3SM BR OVC008 07/05 A3023 RMK AO2 SFC VIS 6=
200712221258 SPECI KATL 221258Z 09008KT 3SM BR OVC008 07/05 A3023 RMK AO2 SFC VIS 6=
200712221252 METAR KATL 221252Z 09006KT 7SM OVC008 07/05 A3022 RMK AO2 SLP238 T00670050=
200712221224 SPECI KATL 221224Z 09010KT 8SM OVC008 07/04 A3021 RMK AO2=
200712221224 SPECI KATL 221224Z 09010KT 8SM OVC008 07/04 A3021 RMK AO2=
200712221152 METAR KATL 221152Z 08011KT 7SM OVC010 07/04 A3021 RMK AO2 SLP234 T00670044 10072 20067 53008=
200712221052 METAR KATL 221052Z 08013KT 8SM OVC010 07/04 A3020 RMK AO2 SLP231 T00670044=
200712220952 METAR KATL 220952Z 08011KT 9SM OVC010 07/04 A3019 RMK AO2 SLP229 T00670044=
200712220852 METAR KATL 220852Z 08012KT 8SM OVC010 07/05 A3019 RMK AO2 SLP226 T00720050 51006=
200712220752 METAR KATL 220752Z 09010KT 8SM OVC010 07/05 A3018 RMK AO2 SLP224 T00720050=
200712220652 METAR KATL 220652Z 08010KT 8SM OVC010 07/05 A3018 RMK AO2 SLP222 T00720050=
200712220452 METAR KATL 220452Z COR 10013KT 9SM OVC010 07/05 A3017 RMK AO2 SLP220 CIG 009V013 T00720050 400940072=
200712220352 METAR KATL 220352Z 10013KT 9SM OVC011 07/05 A3017 RMK AO2 SLP221 T00720050=
200712220252 METAR KATL 220252Z 10007KT 8SM OVC009 08/06 A3017 RMK AO2 SLP218 T00780056 53015=
200712220152 METAR KATL 220152Z 09012KT 8SM OVC009 08/06 A3014 RMK AO2 SLP211 T00780056=
200712220052 METAR KATL 220052Z 10008KT 8SM BKN009 OVC040 08/06 A3013 RMK AO2 SLP207 CIG 007V012 T00780056=
200712212352 METAR KATL 212352Z 07011KT 6SM BR OVC006 08/06 A3012 RMK AO2 SLP203 T00780061 10089 20078 51019=
200712212252 METAR KATL 212252Z 09010KT 6SM BR OVC006 08/06 A3011 RMK AO2 SLP199 T00780061=
200712212152 METAR KATL 212152Z 09010KT 6SM BR OVC008 08/06 A3009 RMK AO2 SLP194 T00830061=
200712212052 METAR KATL 212052Z 10011KT 7SM OVC009 08/07 A3006 RMK AO2 SLP183 CIG 009V010 T00830067 52003=
200712211952 METAR KATL 211952Z 07010KT 8SM OVC010 09/06 A3006 RMK AO2 SLP181 T00890061=
200712211931 SPECI KATL 211931Z 07010KT 8SM OVC010 09/07 A3004 RMK AO2 CIG 010V008=
200712211931 SPECI KATL 211931Z 07010KT 8SM OVC010 09/07 A3004 RMK AO2 CIG 010V008=
200712211852 METAR KATL 211852Z 09010KT 8SM OVC008 09/07 A3006 RMK AO2 SLP180 T00890067=
200712211752 METAR KATL 211752Z 07013G18KT 7SM OVC008 09/07 A3005 RMK AO2 SLP179 60000 T00890067 10089 20078 50004=
200712211652 METAR KATL 211652Z 07013KT 6SM BR OVC008 09/07 A3006 RMK AO2 SLP181 T00890067=
200712211552 METAR KATL 211552Z 07010KT 6SM BR OVC006 08/07 A3006 RMK AO2 SLP183 T00830072=
200712211452 METAR KATL 211452Z 06015KT 2 1/2SM BR OVC006 08/07 A3004 RMK AO2 SFC VIS 5 DZE42 SLP175 P0000 60000 T00830072 51030=
200712211445 SPECI KATL 211445Z 06013KT 2 1/2SM BR OVC006 08/07 A3004 RMK AO2 SFC VIS 5 DZE42 P0000=
200712211445 SPECI KATL 211445Z 06013KT 2 1/2SM BR OVC006 08/07 A3004 RMK AO2 SFC VIS 5 DZE42 P0000=
200712211436 SPECI KATL 211436Z 06011KT 2 1/2SM -DZ BR OVC004 08/07 A3004 RMK AO2 SFC VIS 4 P0000=
200712211436 SPECI KATL 211436Z 06011KT 2 1/2SM -DZ BR OVC004 08/07 A3004 RMK AO2 SFC VIS 4 P0000=
200712211356 SPECI KATL 211356Z 06010KT 1 1/2SM -DZ BR OVC004 08/07 A3002 RMK AO2 SFC VIS 5 P0000=
200712211356 SPECI KATL 211356Z 06010KT 1 1/2SM -DZ BR OVC004 08/07 A3002 RMK AO2 SFC VIS 5 P0000=
200712211352 METAR KATL 211352Z 07012KT 1/2SM -DZ BR OVC004 08/07 A3001 RMK AO2 SFC VIS 5 SLP166 P0000 T00830072=
200712211252 METAR KATL 211252Z 05011KT 1/2SM -DZ BR OVC004 08/07 A2998 RMK AO2 SFC VIS 5 SLP155 TWRINC P0000 T00830072=
200712211220 SPECI KATL 211220Z 06008KT 1/2SM -DZ BR OVC005 08/07 A2997 RMK AO2 SFC VIS 4 P0000=
200712211220 SPECI KATL 211220Z 06008KT 1/2SM -DZ BR OVC005 08/07 A2997 RMK AO2 SFC VIS 4 P0000=
200712211152 METAR KATL 211152Z 04010KT 1/2SM -DZ BR OVC003 08/07 A2995 RMK AO2 SFC VIS 4 SLP144 TWRINC P0000 60004 70012 T00780072 10094 20078 53014=
200712211052 METAR KATL 211052Z 03008KT 1/2SM -DZ BR OVC003 08/07 A2992 RMK AO2 SFC VIS 4 SLP133 TWRINC P0000 T00780072=
200712210957 SPECI KATL 210957Z 05010KT 1/2SM -DZ BR OVC003 08/07 A2990 RMK AO2 SFC VIS 3 TWRINC P0000=
200712210957 SPECI KATL 210957Z 05010KT 1/2SM -DZ BR OVC003 08/07 A2990 RMK AO2 SFC VIS 3 TWRINC P0000=
200712210952 METAR KATL 210952Z 04010KT 1SM -DZ BR OVC003 08/07 A2990 RMK AO2 SFC VIS 3 SLP127 P0000 T00830072=
200712210916 SPECI KATL 210916Z 04013KT 1SM -DZ BR OVC003 09/08 A2990 RMK AO2 SFC VIS 4 P0000=
200712210916 SPECI KATL 210916Z 04013KT 1SM -DZ BR OVC003 09/08 A2990 RMK AO2 SFC VIS 4 P0000=
200712210904 SPECI KATL 210904Z 03010KT 4SM -DZ BR OVC003 09/08 A2991 RMK AO2 P0000=
200712210904 SPECI KATL 210904Z 03010KT 4SM -DZ BR OVC003 09/08 A2991 RMK AO2 P0000=
200712210852 METAR KATL 210852Z 02008KT 5SM -DZ BR OVC005 09/09 A2991 RMK AO2 SLP128 P0000 60004 T00940089 55003=
200712210752 METAR KATL 210752Z 08008KT 5SM -DZ BR OVC005 09/08 A2990 RMK AO2 RAE49DZB51 SLP126 P0003 T00940083=
200712210652 METAR KATL 210652Z 06007KT 4SM -RA BR OVC005 09/08 A2992 RMK AO2 RAB32 SLP132 P0001 T00890083=
200712210552 METAR KATL 210552Z 08006KT 4SM BR OVC005 09/08 A2992 RMK AO2 SLP132 60003 T00940083 10094 20083 58002=
200712210452 METAR KATL 210452Z 10009KT 6SM BR BKN007 OVC030 09/08 A2994 RMK AO2 SLP139 T00940083 401110067=
200712210411 SPECI KATL 210411Z 11009KT 6SM BR BKN008 BKN014 OVC035 09/08 A2993 RMK AO2=
200712210411 SPECI KATL 210411Z 11009KT 6SM BR BKN008 BKN014 OVC035 09/08 A2993 RMK AO2=
200712210352 METAR KATL 210352Z 12010KT 6SM BR FEW008 BKN018 OVC090 09/08 A2991 RMK AO2 RAE10 SLP131 P0000 T00940078=
200712210343 SPECI KATL 210343Z 12010G18KT 6SM BR FEW008 BKN018 BKN090 OVC150 09/08 A2992 RMK AO2 RAE10 P0000=
200712210343 SPECI KATL 210343Z 12010G18KT 6SM BR FEW008 BKN018 BKN090 OVC150 09/08 A2992 RMK AO2 RAE10 P0000=
200712210252 METAR KATL 210252Z 10014KT 4SM -RA BR FEW008 SCT025 BKN140 OVC200 08/07 A2992 RMK AO2 PRESFR SLP135 PCPN VRY LGT P0002 60003 T00830072 58024=
200712210152 METAR KATL 210152Z 10006KT 4SM -RA BR BKN038 BKN055 OVC070 09/07 A2999 RMK AO2 SLP159 P0001 T00890072=
200712210052 METAR KATL 210052Z 09009KT 5SM -RA BR BKN048 OVC065 09/07 A3000 RMK AO2 SLP162 P0000 T00890072=
200712202352 METAR KATL 202352Z 08011KT 6SM -RA BR SCT050 BKN070 OVC100 09/07 A3000 RMK AO2 SLP161 P0001 60002 T00890072 10111 20089 58010=
200712202252 METAR KATL 202252Z 06009KT 9SM -RA FEW040 BKN055 OVC075 10/07 A3002 RMK AO2 SLP169 P0001 T01000072=
200712202152 METAR KATL 202152Z 08007KT 8SM -RA FEW020 SCT050 BKN070 OVC150 10/07 A3004 RMK AO2 RAB15 SLP174 P0000 T01000067=
200712202052 METAR KATL 202052Z 07006KT 9SM FEW040 BKN070 OVC090 11/06 A3003 RMK AO2 SLP170 T01110061 55014=
200712201952 METAR KATL 201952Z 10007KT 8SM FEW040 BKN070 OVC150 11/07 A3001 RMK AO2 SLP162 T01110067=
200712201852 METAR KATL 201852Z 08011KT 6SM HZ FEW040 BKN070 OVC150 10/07 A3001 RMK AO2 SLP164 T01000072=
200712201752 METAR KATL 201752Z 09008KT 6SM HZ FEW035 BKN065 OVC080 09/07 A3007 RMK AO2 SLP185 60003 T00940072 10094 20072 58018=
200712201656 SPECI KATL 201656Z 10008KT 6SM HZ FEW035 BKN065 OVC080 09/07 A3009 RMK AO2=
200712201656 SPECI KATL 201656Z 10008KT 6SM HZ FEW035 BKN065 OVC080 09/07 A3009 RMK AO2=
200712201652 METAR KATL 201652Z 09008KT 3SM HZ FEW035 SCT045 OVC070 09/07 A3009 RMK AO2 SFC VIS 5 RAE1555 SLP192 P0000 T00890072=
200712201552 METAR KATL 201552Z 11007KT 2SM -RA HZ FEW038 BKN048 OVC060 08/07 A3013 RMK AO2 SFC VIS 5 SLP206 P0003 T00780067=
200712201510 SPECI KATL 201510Z 08008KT 2SM -RA HZ FEW025 OVC034 08/06 A3013 RMK AO2 SFC VIS 3 P0001=
200712201510 SPECI KATL 201510Z 08008KT 2SM -RA HZ FEW025 OVC034 08/06 A3013 RMK AO2 SFC VIS 3 P0001=
200712201508 SPECI KATL 201508Z 08008KT 3SM -RA HZ SCT025 OVC034 08/06 A3013 RMK AO2 SFC VIS 4 P0001=
200712201508 SPECI KATL 201508Z 08008KT 3SM -RA HZ SCT025 OVC034 08/06 A3013 RMK AO2 SFC VIS 4 P0001=
200712201453 SPECI KATL 201453Z 09007KT 3SM -RA HZ BKN025 OVC036 08/06 A3013 RMK AO2 SFC VIS 4 P0000=
200712201453 SPECI KATL 201453Z 09007KT 3SM -RA HZ BKN025 OVC036 08/06 A3013 RMK AO2 SFC VIS 4 P0000=
200712201452 METAR KATL 201452Z 09007KT 5SM -RA HZ BKN025 OVC036 08/06 A3013 RMK AO2 RAB39 SLP204 P0000 60000 T00830056 50002=
200712201352 METAR KATL 201352Z 11006KT 7SM BKN016 OVC038 08/04 A3013 RMK AO2 SLP205 T00780044=
200712201339 SPECI KATL 201339Z 11007KT 8SM BKN018 OVC055 08/04 A3013 RMK AO2=
200712201339 SPECI KATL 201339Z 11007KT 8SM BKN018 OVC055 08/04 A3013 RMK AO2=
200712201252 METAR KATL 201252Z 10003KT 8SM FEW012 SCT032 BKN055 BKN250 07/04 A3013 RMK AO2 SLP204 MDT CU VC E-SE T00720039=
200712201152 METAR KATL 201152Z 12004KT 10SM OVC032 08/04 A3012 RMK AO2 SLP201 70001 T00780039 10083 20067 55006=
200712201109 SPECI KATL 201109Z 12005KT 10SM BKN032 BKN060 BKN150 BKN250 08/04 A3012 RMK AO2=
200712201109 SPECI KATL 201109Z 12005KT 10SM BKN032 BKN060 BKN150 BKN250 08/04 A3012 RMK AO2=
200712201052 METAR KATL 201052Z 12005KT 10SM BKN028 BKN060 BKN150 BKN250 08/04 A3012 RMK AO2 SLP199 T00830044=
200712201004 SPECI KATL 201004Z 11005KT 10SM OVC028 08/04 A3012 RMK AO2=
200712201004 SPECI KATL 201004Z 11005KT 10SM OVC028 08/04 A3012 RMK AO2=
200712200952 METAR KATL 200952Z 11005KT 10SM BKN030 BKN060 BKN150 BKN250 07/04 A3012 RMK AO2 SLP201 T00720044=
200712200852 METAR KATL 200852Z 12004KT 10SM SCT035 BKN055 BKN150 BKN250 08/04 A3014 RMK AO2 SLP206 T00780044 58009=
200712200752 METAR KATL 200752Z 13004KT 10SM BKN041 BKN150 BKN250 08/04 A3015 RMK AO2 SLP210 T00780044=
200712200652 METAR KATL 200652Z 10003KT 10SM BKN036 OVC050 08/04 A3016 RMK AO2 SLP213 BINOVC T00780044=
200712200552 METAR KATL 200552Z 08006KT 10SM SCT038 BKN055 08/04 A3016 RMK AO2 SLP215 T00780044 10117 20078 58010=
200712200452 METAR KATL 200452Z 09004KT 10SM BKN034 BKN040 08/04 A3018 RMK AO2 SLP222 T00780044 401390039=
200712200352 METAR KATL 200352Z 09005KT 10SM SCT037 BKN050 08/04 A3019 RMK AO2 SLP225 T00830044=
200712200252 METAR KATL 200252Z 10003KT 10SM FEW035 SCT050 08/04 A3020 RMK AO2 SLP229 T00830044 51003=
200712200152 METAR KATL 200152Z 11003KT 10SM SCT040 09/05 A3019 RMK AO2 SLP228 T00940050=
200712200052 METAR KATL 200052Z 06006KT 10SM FEW035 SCT045 BKN070 11/05 A3020 RMK AO2 SLP229 T01060050=
200712192352 METAR KATL 192352Z 05005KT 10SM FEW030 OVC075 12/05 A3019 RMK AO2 SLP226 T01170050 10139 20117 53006=
200712192252 METAR KATL 192252Z 36003KT 10SM BKN035 BKN055 BKN080 13/06 A3018 RMK AO2 SLP222 T01280061=
200712192152 METAR KATL 192152Z 36003KT 10SM FEW028 BKN050 BKN070 13/06 A3017 RMK AO2 SLP220 T01330061=
200712192114 SPECI KATL 192114Z 33005KT 10SM BKN028 BKN039 OVC070 13/06 A3017 RMK AO2=
200712192114 SPECI KATL 192114Z 33005KT 10SM BKN028 BKN039 OVC070 13/06 A3017 RMK AO2=
200712192052 METAR KATL 192052Z 32006KT 10SM SCT020 BKN040 OVC070 14/06 A3017 RMK AO2 SLP218 BINOVC T01390061 55009=
200712191952 METAR KATL 191952Z 33004KT 10SM FEW023 SCT055 BKN070 13/06 A3017 RMK AO2 SLP218 T01330056=
200712191852 METAR KATL 191852Z 33008KT 10SM BKN025 BKN030 OVC070 13/05 A3018 RMK AO2 SLP224 BINOVC DSNT NW T01280050=
200712191752 METAR KATL 191752Z 26009KT 10SM BKN020 BKN030 BKN050 13/05 A3020 RMK AO2 SLP227 60001 T01330050 10133 20044 58024=
200712191652 METAR KATL 191652Z 22005KT 10SM BKN022 BKN065 10/03 A3023 RMK AO2 SLP241 T01000028=
200712191621 SPECI KATL 191621Z 21006KT 10SM BKN022 OVC065 08/02 A3025 RMK AO2=
200712191621 SPECI KATL 191621Z 21006KT 10SM BKN022 OVC065 08/02 A3025 RMK AO2=
200712191552 METAR KATL 191552Z 21004KT 10SM SCT020 BKN055 BKN065 07/02 A3026 RMK AO2 SLP252 T00720017=
200712191452 METAR KATL 191452Z 00000KT 10SM OVC020 06/01 A3027 RMK AO2 SLP255 BINOVC DSNT NW 60001 T00610006 53009=
200712191417 SPECI KATL 191417Z 16003KT 10SM SCT023 BKN030 BKN095 06/01 A3026 RMK AO2=
200712191417 SPECI KATL 191417Z 16003KT 10SM SCT023 BKN030 BKN095 06/01 A3026 RMK AO2=
200712191352 METAR KATL 191352Z 00000KT 10SM BKN023 OVC075 05/01 A3026 RMK AO2 RAB26E41 SLP251 BINOVC P0000 T00500006=
200712191252 METAR KATL 191252Z 00000KT 10SM FEW022 BKN028 OVC055 04/02 A3025 RMK AO2 RAE08DZB39E45 SLP248 BINOVC P0001 T00440017=
200712191238 SPECI KATL 191238Z 00000KT 10SM FEW023 BKN029 OVC037 04/01 A3025 RMK AO2 RAE08 P0001=
200712191238 SPECI KATL 191238Z 00000KT 10SM FEW023 BKN029 OVC037 04/01 A3025 RMK AO2 RAE08 P0001=
200712191152 METAR KATL 191152Z COR 17004KT 8SM -RA BKN030 OVC038 04/01 A3024 RMK AO2 RAB31 SLP247 P0002 60002 70002 931000 T00390011 10050 20039 55002=
200712191052 METAR KATL 191052Z 15004KT 10SM OVC040 04/M01 A3024 RMK AO2 RAE27 SLP246 P0000 T00441006=
200712190952 METAR KATL 190952Z 00000KT 10SM -RA BKN040 OVC070 04/M01 A3025 RMK AO2 RAB41 SLP247 P0000 T00441006=
200712190852 METAR KATL 190852Z 00000KT 10SM OVC036 04/M02 A3025 RMK AO2 RAE05 SLP249 P0000 60000 T00441017 55008=
200712190752 METAR KATL 190752Z 16004KT 10SM -RA BKN038 OVC070 04/M01 A3025 RMK AO2 RAB50 SLP248 PCPN VRY LGT P0000 T00441006=
200712190652 METAR KATL 190652Z COR 00000KT 10SM BKN048 BKN060 OVC070 04/M02 A3025 RMK AO2 RAB21E52PLB37E47 SLP250 P0000 T00441017=
200712190647 SPECI KATL 190647Z 20003KT 10SM -RA BKN048 OVC070 04/M02 A3025 RMK AO2 RAB21PLB37E47 PCPN VRY LGT P0000=
200712190647 SPECI KATL 190647Z 20003KT 10SM -RA BKN048 OVC070 04/M02 A3025 RMK AO2 RAB21PLB37E47 PCPN VRY LGT P0000=
200712190637 SPECI KATL 190637Z 21004KT 10SM -PLRA SCT050 OVC065 04/M02 A3026 RMK AO2 RAB21PLB37 PCPN VRY LGT P0000=
200712190637 SPECI KATL 190637Z 21004KT 10SM -PLRA SCT050 OVC065 04/M02 A3026 RMK AO2 RAB21PLB37 PCPN VRY LGT P0000=
200712190552 METAR KATL 190552Z 23003KT 10SM BKN055 OVC085 05/M04 A3028 RMK AO2 SLP258 T00501039 10061 20033 58003=
200712190452 METAR KATL 190452Z 00000KT 10SM BKN060 OVC080 05/M04 A3029 RMK AO2 SLP263 T00501044 400891022=
200712190352 METAR KATL 190352Z 00000KT 10SM OVC080 04/M02 A3030 RMK AO2 SLP265 T00441022=
200712190252 METAR KATL 190252Z 13003KT 10SM BKN075 04/M04 A3029 RMK AO2 SLP262 T00441044 58000=
200712190152 METAR KATL 190152Z 13005KT 10SM FEW070 04/M04 A3029 RMK AO2 SLP264 T00441044=
200712190052 METAR KATL 190052Z 12003KT 10SM FEW150 06/M05 A3029 RMK AO2 SLP266 T00611050=
200712182352 METAR KATL 182352Z 15003KT 10SM FEW140 06/M05 A3029 RMK AO2 SLP264 T00611050 10089 20061 55002=
200712182252 METAR KATL 182252Z 13003KT 10SM FEW140 07/M05 A3028 RMK AO2 SLP263 T00671050=
200712182152 METAR KATL 182152Z 19006KT 10SM FEW150 SCT250 08/M05 A3030 RMK AO2 SLP267 T00781050=
200712182052 METAR KATL 182052Z 18006KT 10SM FEW150 SCT180 SCT250 08/M05 A3029 RMK AO2 SLP266 T00831050 56014=
200712181952 METAR KATL 181952Z 19007KT 10SM FEW150 SCT180 SCT250 08/M05 A3030 RMK AO2 SLP267 T00831050=
200712181852 METAR KATL 181852Z 21006KT 10SM BKN150 BKN180 BKN250 08/M04 A3032 RMK AO2 SLP273 VIRGA DSNT NE SE-S T00781039=
200712181752 METAR KATL 181752Z 15004KT 10SM BKN150 BKN180 BKN250 08/M05 A3034 RMK AO2 SLP279 VIRGA DSNT N-NE DSNT SE T00781050 10078 21017 58021=
200712181652 METAR KATL 181652Z 15005KT 10SM FEW150 BKN180 BKN250 06/M05 A3037 RMK AO2 SLP292 VIRGA VC S-SW-W DSNT NW T00611050=
200712181552 METAR KATL 181552Z 14004KT 10SM FEW150 BKN180 BKN250 06/M04 A3039 RMK AO2 SLP300 T00561044=
200712181452 METAR KATL 181452Z 11003KT 10SM FEW120 BKN150 BKN250 04/M04 A3040 RMK AO2 SLP302 T00391039 53012=
200712181352 METAR KATL 181352Z 00000KT 10SM SCT120 BKN180 BKN250 01/M03 A3038 RMK AO2 SLP294 T00061033=
200712181252 METAR KATL 181252Z 00000KT 10SM SCT120 BKN180 BKN250 M01/M05 A3037 RMK AO2 SLP292 T10061050=
200712181152 METAR KATL 181152Z 00000KT 10SM FEW150 SCT200 M02/M05 A3036 RMK AO2 SLP291 T10171050 10011 21022 53010=
200712181052 METAR KATL 181052Z 34004KT 10SM FEW200 M02/M06 A3035 RMK AO2 SLP286 T10171056 $=
200712180952 METAR KATL 180952Z 31005KT 10SM FEW200 M02/M06 A3034 RMK AO2 SLP284 T10221061 $=
200712180852 METAR KATL 180852Z 31006KT 10SM FEW200 M02/M06 A3033 RMK AO2 SLP279 T10171056 53004 $=
200712180752 METAR KATL 180752Z 31006KT 10SM FEW250 M02/M06 A3032 RMK AO2 SLP275 T10221056=
200712180652 METAR KATL 180652Z 32006KT 10SM FEW250 M01/M06 A3032 RMK AO2 SLP274 T10111061=
200712180552 METAR KATL 180552Z 32003KT 10SM FEW250 01/M06 A3032 RMK AO2 SLP274 T00111061 10050 20000 58002=
200712180452 METAR KATL 180452Z 33004KT 10SM FEW250 01/M06 A3032 RMK AO2 SLP277 T00061061 400781033=
200712180352 METAR KATL 180352Z 00000KT 10SM FEW250 02/M06 A3034 RMK AO2 SLP281 T00171061=
200712180252 METAR KATL 180252Z 34004KT 10SM FEW250 03/M07 A3033 RMK AO2 SLP279 T00331067 50005=
200712180152 METAR KATL 180152Z 31004KT 10SM FEW250 04/M07 A3033 RMK AO2 SLP280 T00391067=
200712180052 METAR KATL 180052Z 31003KT 10SM CLR 04/M07 A3032 RMK AO2 SLP278 T00441072=
200712172352 METAR KATL 172352Z 28004KT 10SM CLR 04/M07 A3031 RMK AO2 SLP274 T00441072 10078 20044 53009=
200712172252 METAR KATL 172252Z 31006KT 10SM CLR 05/M07 A3029 RMK AO2 SLP267 T00501072=
200712172152 METAR KATL 172152Z 32007KT 10SM CLR 07/M08 A3029 RMK AO2 SLP264 T00671083=
200712172052 METAR KATL 172052Z 34009KT 10SM CLR 08/M08 A3028 RMK AO2 SLP263 T00781083 56003=
200712171952 METAR KATL 171952Z 33013KT 10SM FEW250 08/M08 A3028 RMK AO2 SLP263 T00781078=
200712171852 METAR KATL 171852Z 32011G17KT 10SM FEW250 07/M07 A3028 RMK AO2 SLP263 T00721072=
200712171752 METAR KATL 171752Z 32009G14KT 10SM CLR 06/M07 A3029 RMK AO2 SLP266 T00611072 10061 21033 58010=
200712171652 METAR KATL 171652Z 32011KT 10SM CLR 04/M07 A3032 RMK AO2 SLP276 T00441067=
200712171552 METAR KATL 171552Z 34010G20KT 10SM CLR 03/M06 A3033 RMK AO2 SLP281 T00281061=
200712171452 METAR KATL 171452Z 32013G18KT 10SM FEW250 00/M06 A3033 RMK AO2 SLP279 T00001061 53020=
200712171352 METAR KATL 171352Z 33012KT 10SM CLR M02/M07 A3030 RMK AO2 SLP270 T10171067=
200712171252 METAR KATL 171252Z 30007KT 10SM CLR M03/M07 A3028 RMK AO2 SLP267 T10331072=
200712171152 METAR KATL 171152Z 31009KT 10SM CLR M03/M07 A3026 RMK AO2 SLP260 T10281072 11017 21028 53014=
200712171052 METAR KATL 171052Z 32010KT 10SM CLR M03/M07 A3023 RMK AO2 SLP248 T10281072=
200712170952 METAR KATL 170952Z 32008KT 10SM CLR M03/M07 A3022 RMK AO2 SLP244 T10281072=
200712170852 METAR KATL 170852Z 30007KT 10SM CLR M02/M07 A3022 RMK AO2 SLP244 T10221072 53022=
200712170752 METAR KATL 170752Z 31009KT 10SM CLR M02/M07 A3019 RMK AO2 SLP233 T10221067=
200712170652 METAR KATL 170652Z 30007KT 10SM CLR M02/M07 A3018 RMK AO2 SLP229 T10221067=
200712170552 METAR KATL 170552Z 31012KT 10SM CLR M02/M07 A3015 RMK AO2 SLP220 T10171067 10006 21017 50008=
200712170452 METAR KATL 170452Z 31010KT 10SM CLR M01/M07 A3016 RMK AO2 SLP223 T10111067 400781011=
200712170352 METAR KATL 170352Z 31009KT 10SM CLR M01/M06 A3015 RMK AO2 SLP219 T10111061=
200712170252 METAR KATL 170252Z 31011KT 10SM CLR M01/M06 A3013 RMK AO2 SLP211 T10061061 51012=
200712170152 METAR KATL 170152Z 30009KT 10SM CLR M01/M06 A3012 RMK AO2 SLP207 T10061056=
200712170052 METAR KATL 170052Z 30010KT 10SM CLR 00/M06 A3011 RMK AO2 SLP204 T00001056=
200712162352 METAR KATL 162352Z 31014G19KT 10SM FEW032 01/M06 A3009 RMK AO2 SLP199 T00061056 10044 20006 51023=
200712162252 METAR KATL 162252Z 29017G23KT 10SM BKN032 01/M06 A3008 RMK AO2 SLP191 BKN032 V SCT T00111056=
200712162152 METAR KATL 162152Z 31016KT 10SM BKN036 02/M05 A3005 RMK AO2 PK WND 31027/2116 SLP181 T00221050=
200712162052 METAR KATL 162052Z 31019G23KT 10SM BKN034 03/M04 A3003 RMK AO2 PK WND 32028/2028 SLP172 T00281044 53016=
200712161952 METAR KATL 161952Z 30016G19KT 10SM OVC032 03/M03 A3000 RMK AO2 SLP165 BINOVC T00331033=
200712161852 METAR KATL 161852Z 30020G29KT 10SM OVC034 03/M04 A2999 RMK AO2 PK WND 30031/1829 SLP161 BINOVC T00331039=
200712161752 METAR KATL 161752Z 31019G28KT 10SM OVC031 03/M03 A2998 RMK AO2 PK WND 29028/1749 SLP157 BINOVC 60000 T00331033 10050 20022 51019=
200712161652 METAR KATL 161652Z 29017G25KT 10SM OVC033 03/M03 A2998 RMK AO2 PK WND 32029/1616 SLP156 BINOVC T00281033=
200712161612 SPECI KATL 161612Z 31014G22KT 10SM FEW026 OVC033 03/M03 A2997 RMK AO2 PK WND 34026/1557 BINOVC=
200712161612 SPECI KATL 161612Z 31014G22KT 10SM FEW026 OVC033 03/M03 A2997 RMK AO2 PK WND 34026/1557 BINOVC=
200712161552 METAR KATL 161552Z 31016G29KT 10SM BKN026 OVC033 02/M03 A2997 RMK AO2 PK WND 28031/1503 SLP154 BINOVC T00221028=
200712161508 SPECI KATL 161508Z 30015G31KT 10SM OVC028 03/M02 A2993 RMK AO2 PK WND 28031/1503=
200712161508 SPECI KATL 161508Z 30015G31KT 10SM OVC028 03/M02 A2993 RMK AO2 PK WND 28031/1503=
200712161452 METAR KATL 161452Z 28017G22KT 10SM OVC030 03/M02 A2992 RMK AO2 PK WND 31032/1403 SLP136 BINOVC 60000 T00331017 53030=
200712161352 METAR KATL 161352Z 29016G24KT 10SM SCT029 BKN039 04/00 A2986 RMK AO2 PK WND 29027/1332 RAE05 SLP115 P0000 T00440000=
200712161316 SPECI KATL 161316Z 29015KT 10SM FEW019 SCT029 BKN039 04/01 A2984 RMK AO2 PK WND 29026/1253 RAE05 P0000=
200712161316 SPECI KATL 161316Z 29015KT 10SM FEW019 SCT029 BKN039 04/01 A2984 RMK AO2 PK WND 29026/1253 RAE05 P0000=
200712161252 METAR KATL 161252Z 30020G27KT 10SM -RA BKN019 OVC027 04/01 A2983 RMK AO2 PK WND 30027/1252 RAB36 SLP104 P0000 T00440011=
200712161250 SPECI KATL 161250Z 30019G26KT 10SM -RA BKN019 OVC027 04/01 A2983 RMK AO2 PK WND 30026/1250 RAB36 P0000=
200712161250 SPECI KATL 161250Z 30019G26KT 10SM -RA BKN019 OVC027 04/01 A2983 RMK AO2 PK WND 30026/1250 RAB36 P0000=
200712161152 METAR KATL 161152Z 28012G23KT 10SM SCT027 05/01 A2978 RMK AO2 PK WND 30027/1111 SLP087 60005 70091 T00500006 10078 20044 53016=
200712161128 SPECI KATL 161128Z 28014G21KT 10SM SCT027 04/01 A2977 RMK AO2 PK WND 30027/1111=
200712161128 SPECI KATL 161128Z 28014G21KT 10SM SCT027 04/01 A2977 RMK AO2 PK WND 30027/1111=
200712161105 SPECI KATL 161105Z 29019G26KT 10SM BKN027 05/01 A2976 RMK AO2 PK WND 30026/1058=
200712161105 SPECI KATL 161105Z 29019G26KT 10SM BKN027 05/01 A2976 RMK AO2 PK WND 30026/1058=
200712161052 METAR KATL 161052Z 28017G22KT 10SM SCT120 BKN150 05/01 A2975 RMK AO2 PK WND 28026/0955 SLP077 T00500011=
200712160952 METAR KATL 160952Z 28021G28KT 10SM FEW025 SCT060 06/03 A2973 RMK AO2 PK WND 28028/0950 SLP068 T00610028=
200712160914 SPECI KATL 160914Z 29016KT 10SM FEW018 BKN032 OVC040 07/05 A2973 RMK AO2=
200712160914 SPECI KATL 160914Z 29016KT 10SM FEW018 BKN032 OVC040 07/05 A2973 RMK AO2=
200712160852 METAR KATL 160852Z 29015G21KT 6SM BR SCT004 BKN019 OVC025 08/06 A2973 RMK AO2 RAB0753E50 SLP068 P0001 60005 T00780056 51010=
200712160849 SPECI KATL 160849Z 28016G22KT 6SM -RA BR BKN004 BKN019 OVC025 07/06 A2973 RMK AO2 RAB0753 CIG 003V009 P0001=
200712160849 SPECI KATL 160849Z 28016G22KT 6SM -RA BR BKN004 BKN019 OVC025 07/06 A2973 RMK AO2 RAB0753 CIG 003V009 P0001=
200712160831 SPECI KATL 160831Z 25005KT 6SM -RA BR OVC006 07/06 A2972 RMK AO2 RAB0753 CIG 002V009 P0001=
200712160831 SPECI KATL 160831Z 25005KT 6SM -RA BR OVC006 07/06 A2972 RMK AO2 RAB0753 CIG 002V009 P0001=
200712160752 METAR KATL 160752Z 29005KT 6SM BR OVC004 06/05 A2970 RMK AO2 RAE12 CIG 002V006 SLP061 P0000 T00610050=
200712160652 METAR KATL 160652Z 00000KT 6SM -RA BR BKN004 OVC007 06/05 A2970 RMK AO2 SLP057 P0004 T00610050=
200712160552 METAR KATL 160552Z 02003KT 5SM RA BR OVC002 06/06 A2970 RMK AO2 RAB38 SLP057 TWRINC P0002 60017 T00610056 10083 20061 55021=
200712160452 METAR KATL 160452Z 08009KT 7SM OVC004 06/06 A2968 RMK AO2 SLP052 T00610056 401500061=
200712160433 SPECI KATL 160433Z 08010KT 7SM OVC004 07/06 A2969 RMK AO2 CIG 004V006=
200712160433 SPECI KATL 160433Z 08010KT 7SM OVC004 07/06 A2969 RMK AO2 CIG 004V006=
200712160352 METAR KATL 160352Z 06009KT 7SM OVC006 07/06 A2973 RMK AO2 SLP068 T00720061=
200712160252 METAR KATL 160252Z 08012KT 7SM OVC006 08/07 A2976 RMK AO2 SLP078 60015 T00780067 58015=
200712160152 METAR KATL 160152Z 08012KT 6SM BR OVC007 08/07 A2978 RMK AO2 RAE41 SLP084 P0000 T00830072=
200712160052 METAR KATL 160052Z 09013G18KT 5SM -RA BR BKN007 OVC024 08/07 A2980 RMK AO2 SLP092 P0015 T00830072=
200712152352 METAR KATL 152352Z 08014KT 4SM +RA BR BKN006 OVC019 08/08 A2980 RMK AO2 TSE16 PRESFR SLP095 CB DSNT E-SE AND SW MOV NE P0016 60056 T00830078 10122 20083 55018=
200712152317 SPECI KATL 152317Z 09014KT 5SM -RA BR BKN006 BKN014CB BKN019 09/08 A2983 RMK AO2 TSE16 CB ALQDS MOV NE P0006=
200712152317 SPECI KATL 152317Z 09014KT 5SM -RA BR BKN006 BKN014CB BKN019 09/08 A2983 RMK AO2 TSE16 CB ALQDS MOV NE P0006=
200712152252 METAR KATL 152252Z 08014G20KT 2SM TSRA BR BKN006 BKN014CB OVC024 09/08 A2980 RMK AO2 SFC VIS 4 SLP092 OCNL LTGIC TS ALQDS MOV NE P0017 T00940083=
200712152227 SPECI KATL 152227Z 09012KT 2SM TSRA BR BKN006CB OVC014 09/09 A2984 RMK AO2 SFC VIS 3 OCNL LTGIC TS ALQDS MOV NE CIG 006V004 P0010=
200712152227 SPECI KATL 152227Z 09012KT 2SM TSRA BR BKN006CB OVC014 09/09 A2984 RMK AO2 SFC VIS 3 OCNL LTGIC TS ALQDS MOV NE CIG 006V004 P0010=
200712152222 SPECI KATL 152222Z 09010KT 1/2SM TSRA BR OVC006CB 10/09 A2985 RMK AO2 SFC VIS 2 OCNL LTGIC TS ALQDS MOV NE CIG 006V004 P0008=
200712152222 SPECI KATL 152222Z 09010KT 1/2SM TSRA BR OVC006CB 10/09 A2985 RMK AO2 SFC VIS 2 OCNL LTGIC TS ALQDS MOV NE CIG 006V004 P0008=
200712152152 SPECI KATL 152152Z 04012KT 1/2SM -TSRA BR OVC004CB 10/09 A2985 RMK AO2 SFC VIS 2 TSB51 SLP108 OCNL LTGIC TS OHD-SW-W MOV NE CIG 004V006 P0005 T01000094=
200712152138 SPECI KATL 152138Z 07009KT 1/2SM -RA BR OVC004 10/09 A2985 RMK AO2 SFC VIS 2 CIG 004V006 CB DSNT SW P0004=
200712152138 SPECI KATL 152138Z 07009KT 1/2SM -RA BR OVC004 10/09 A2985 RMK AO2 SFC VIS 2 CIG 004V006 CB DSNT SW P0004=
200712152123 SPECI KATL 152123Z 09011KT 1/2SM R09R/5500VP6000FT -RA BR OVC006 10/09 A2984 RMK AO2 SFC VIS 2 CIG 006V004 P0004=
200712152123 SPECI KATL 152123Z 09011KT 1/2SM R09R/5500VP6000FT -RA BR OVC006 10/09 A2984 RMK AO2 SFC VIS 2 CIG 006V004 P0004=
200712152052 METAR KATL 152052Z 08008KT 1 1/2SM -RA BR BKN006 OVC010 11/09 A2986 RMK AO2 SFC VIS 2 CIG 003V009 SLP113 P0005 60018 T01060094 55030=
200712151952 METAR KATL 151952Z COR 09011KT 1 1/2SM RA BR BKN007 OVC012 11/10 A2985 RMK AO2 SFC VIS 2 1/2 RAB1859RAEMM SLP110 CIG 005V009 BKN007 V SCT P0011 T01110100 $=
200712151944 SPECI KATL 151944Z 09012KT 1 1/2SM RA BR SCT007 OVC012 11/09 A2987 RMK AO2 SFC VIS 3 RAB1859 P0009=
200712151944 SPECI KATL 151944Z 09012KT 1 1/2SM RA BR SCT007 OVC012 11/09 A2987 RMK AO2 SFC VIS 3 RAB1859 P0009=
200712151914 SPECI KATL 151914Z 11011G18KT 2SM -RA OVC014 12/09 A2989 RMK AO2 SFC VIS 7 RAB1859 P0007=
200712151914 SPECI KATL 151914Z 11011G18KT 2SM -RA OVC014 12/09 A2989 RMK AO2 SFC VIS 7 RAB1859 P0007=
200712151904 SPECI KATL 151904Z 10009KT 2SM R09R/4000VP6000FT +RA BR OVC018 12/09 A2988 RMK AO2 SFC VIS 2 1/2 RAB1859 P0006=
200712151904 SPECI KATL 151904Z 10009KT 2SM R09R/4000VP6000FT +RA BR OVC018 12/09 A2988 RMK AO2 SFC VIS 2 1/2 RAB1859 P0006=
200712151852 METAR KATL 151852Z 09015KT 10SM FEW014 OVC020 12/09 A2989 RMK AO2 RAE17 SLP121 P0002 T01220094=
200712151801 SPECI KATL 151801Z 09006KT 3SM -RA BR BKN020 OVC042 12/09 A2994 RMK AO2 P0002=
200712151801 SPECI KATL 151801Z 09006KT 3SM -RA BR BKN020 OVC042 12/09 A2994 RMK AO2 P0002=
200712151758 SPECI KATL 151758Z 07008KT 2 1/2SM R09R/4500VP6000FT -RA BR BKN020 OVC040 12/09 A2994 RMK AO2 P0002=
200712151758 SPECI KATL 151758Z 07008KT 2 1/2SM R09R/4500VP6000FT -RA BR BKN020 OVC040 12/09 A2994 RMK AO2 P0002=
200712151752 METAR KATL 151752Z 09009KT 1 1/2SM R09R/3000VP6000FT +RA BR FEW014 BKN022 OVC045 12/09 A2995 RMK AO2 RAB27 SLP142 P0013 60013 T01170094 10150 20094 58039=
200712151749 SPECI KATL 151749Z 09011KT 1 1/2SM R09R/3000VP6000FT +RA BR FEW014 BKN020 OVC045 12/09 A2996 RMK AO2 RAB27 P0010=
200712151749 SPECI KATL 151749Z 09011KT 1 1/2SM R09R/3000VP6000FT +RA BR FEW014 BKN020 OVC045 12/09 A2996 RMK AO2 RAB27 P0010=
200712151744 SPECI KATL 151744Z 11007KT 2SM R09R/5500VP6000FT RA FEW022 SCT031 OVC043 12/09 A2996 RMK AO2 RAB27 P0002=
200712151744 SPECI KATL 151744Z 11007KT 2SM R09R/5500VP6000FT RA FEW022 SCT031 OVC043 12/09 A2996 RMK AO2 RAB27 P0002=
200712151652 METAR KATL 151652Z 10010KT 10SM BKN065 BKN250 14/07 A3001 RMK AO2 SLP161 ACC OHD-ALQDS T01390067=
200712151552 METAR KATL 151552Z 10011KT 10SM FEW018 BKN070 BKN250 13/06 A3004 RMK AO2 SLP174 ACC OHD-ALQDS T01280056=
200712151535 SPECI KATL 151535Z 10012KT 10SM SCT020 BKN070 OVC090 13/05 A3005 RMK AO2=
200712151535 SPECI KATL 151535Z 10012KT 10SM SCT020 BKN070 OVC090 13/05 A3005 RMK AO2=
200712151452 METAR KATL 151452Z 08012KT 10SM OVC020 12/03 A3007 RMK AO2 SLP183 T01170033 53002=
200712151352 METAR KATL 151352Z 09008KT 10SM OVC023 11/01 A3007 RMK AO2 SLP184 T01060011=
200712151252 METAR KATL 151252Z 09009KT 10SM OVC021 10/01 A3006 RMK AO2 SLP179 T01000011=
200712151152 METAR KATL 151152Z 08008KT 10SM BKN019 OVC150 09/02 A3006 RMK AO2 SLP180 T00940017 10100 20078 56002=
200712151052 METAR KATL 151052Z 08009KT 10SM BKN019 BKN150 09/03 A3007 RMK AO2 SLP181 T00940028=
200712151050 SPECI KATL 151050Z 07009KT 10SM BKN019 BKN150 09/03 A3006 RMK AO2=
200712151050 SPECI KATL 151050Z 07009KT 10SM BKN019 BKN150 09/03 A3006 RMK AO2=
200712151016 SPECI KATL 151016Z 08006KT 10SM SCT019 BKN150 08/03 A3006 RMK AO2=
200712151016 SPECI KATL 151016Z 08006KT 10SM SCT019 BKN150 08/03 A3006 RMK AO2=
200712151008 SPECI KATL 151008Z 08007KT 10SM BKN019 BKN150 08/03 A3006 RMK AO2=
200712151008 SPECI KATL 151008Z 08007KT 10SM BKN019 BKN150 08/03 A3006 RMK AO2=
200712150952 METAR KATL 150952Z 05006KT 10SM FEW070 SCT150 09/02 A3007 RMK AO2 SLP181 T00890022=
200712150852 METAR KATL 150852Z 04004KT 10SM SCT180 09/03 A3009 RMK AO2 SLP188 T00940028 56012=
200712150752 METAR KATL 150752Z 06005KT 10SM SCT180 09/03 A3010 RMK AO2 SLP190 T00940028=
200712150652 METAR KATL 150652Z 08004KT 10SM FEW200 09/03 A3011 RMK AO2 SLP194 T00940033=
200712150552 METAR KATL 150552Z 02004KT 10SM SCT200 BKN250 10/03 A3013 RMK AO2 SLP201 T01000028 10144 20094 58010=
200712150452 METAR KATL 150452Z 02005KT 10SM FEW200 BKN250 10/03 A3015 RMK AO2 SLP208 T01000033 401890083=
200712150352 METAR KATL 150352Z 35005KT 10SM SCT200 10/03 A3016 RMK AO2 SLP213 T01000033=
200712150252 METAR KATL 150252Z 32004KT 10SM FEW200 10/03 A3016 RMK AO2 SLP214 T01000033 50004=
200712150152 METAR KATL 150152Z 34005KT 10SM FEW200 12/03 A3016 RMK AO2 SLP214 T01220028=
200712150052 METAR KATL 150052Z 35006KT 10SM FEW200 13/02 A3015 RMK AO2 SLP211 T01330022=
200712142352 METAR KATL 142352Z 35007KT 10SM SCT250 14/02 A3015 RMK AO2 SLP210 T01440017 10189 20144 53003=
200712142252 METAR KATL 142252Z 35007KT 10SM FEW200 SCT250 16/02 A3014 RMK AO2 SLP207 T01560017=
200712142152 METAR KATL 142152Z 34007KT 10SM FEW240 17/02 A3014 RMK AO2 SLP206 T01720022=
200712142052 METAR KATL 142052Z 34006KT 10SM FEW240 18/02 A3014 RMK AO2 SLP204 T01830022 55012=
200712141952 METAR KATL 141952Z 01005KT 10SM FEW240 19/03 A3014 RMK AO2 SLP204 T01890033=
200712141852 METAR KATL 141852Z 31007KT 10SM FEW240 18/03 A3015 RMK AO2 SLP208 T01780028=
200712141752 METAR KATL 141752Z 30006KT 10SM FEW240 17/03 A3018 RMK AO2 SLP216 T01720033 10172 20083 58012=
200712141652 METAR KATL 141652Z 32005KT 10SM FEW240 16/05 A3021 RMK AO2 SLP228 T01560050=
200712141552 METAR KATL 141552Z 32007KT 10SM FEW240 14/05 A3021 RMK AO2 SLP229 T01390050=
200712141452 METAR KATL 141452Z 33007KT 10SM FEW250 12/06 A3021 RMK AO2 SLP230 T01170056 53014=
200712141352 METAR KATL 141352Z 32006KT 10SM FEW050 SCT250 09/06 A3020 RMK AO2 SLP226 T00940056=
200712141252 METAR KATL 141252Z 32005KT 10SM FEW050 08/06 A3018 RMK AO2 SLP221 T00830056=
200712141152 METAR KATL 141152Z 33006KT 10SM FEW048 09/06 A3017 RMK AO2 SLP215 T00890056 10128 20089 53007=
200712141052 METAR KATL 141052Z 33007KT 10SM SCT048 09/06 A3016 RMK AO2 SLP212 T00940061=
200712140952 METAR KATL 140952Z 33008KT 10SM SCT050 10/07 A3015 RMK AO2 SLP207 T01000067=
200712140852 METAR KATL 140852Z 33008KT 10SM FEW044 10/07 A3015 RMK AO2 SLP207 T01000072 52004=
200712140752 METAR KATL 140752Z 33007KT 10SM FEW012 SCT044 11/08 A3015 RMK AO2 SLP205 T01060083=
200712140652 METAR KATL 140652Z 33007KT 10SM FEW012 SCT044 12/09 A3014 RMK AO2 SLP203 T01170094=
200712140552 METAR KATL 140552Z 34008KT 10SM FEW010 13/10 A3014 RMK AO2 SLP202 60000 T01280100 10172 20122 51005=
200712140452 METAR KATL 140452Z 34009KT 10SM FEW012 14/11 A3014 RMK AO2 SLP200 T01390111 402170133=
200712140426 SPECI KATL 140426Z 34006KT 10SM SCT012 SCT250 14/12 A3013 RMK AO2=
200712140426 SPECI KATL 140426Z 34006KT 10SM SCT012 SCT250 14/12 A3013 RMK AO2=
200712140352 METAR KATL 140352Z 32007KT 10SM OVC014 15/12 A3013 RMK AO2 SLP200 BINOVC T01500122=
200712140303 SPECI KATL 140303Z 31008KT 10SM BKN015 BKN045 OVC090 16/13 A3012 RMK AO2=
200712140303 SPECI KATL 140303Z 31008KT 10SM BKN015 BKN045 OVC090 16/13 A3012 RMK AO2=
200712140252 METAR KATL 140252Z 32009KT 10SM FEW014 BKN045 OVC090 16/13 A3012 RMK AO2 SLP195 60000 T01610128 53007=
200712140239 SPECI KATL 140239Z 32009KT 10SM SCT014 BKN045 OVC090 16/13 A3012 RMK AO2=
200712140239 SPECI KATL 140239Z 32009KT 10SM SCT014 BKN045 OVC090 16/13 A3012 RMK AO2=
200712140207 SPECI KATL 140207Z 31007KT 10SM BKN014 BKN070 OVC110 16/14 A3011 RMK AO2=
200712140207 SPECI KATL 140207Z 31007KT 10SM BKN014 BKN070 OVC110 16/14 A3011 RMK AO2=
200712140152 METAR KATL 140152Z 29007KT 10SM FEW012 SCT075 BKN110 16/14 A3011 RMK AO2 SLP194 T01610139=
200712140052 METAR KATL 140052Z 29005KT 10SM FEW012 BKN060 BKN080 17/14 A3010 RMK AO2 RAE00 SLP192 P0000 T01670144=
200712140020 SPECI KATL 140020Z 32006KT 10SM FEW013 SCT020 OVC055 17/14 A3010 RMK AO2 RAE00 BINOVC P0000=
200712140020 SPECI KATL 140020Z 32006KT 10SM FEW013 SCT020 OVC055 17/14 A3010 RMK AO2 RAE00 BINOVC P0000=
200712140003 SPECI KATL 140003Z 32007KT 10SM SCT013 BKN020 OVC050 17/15 A3010 RMK AO2 RAE00 P0000=
200712140003 SPECI KATL 140003Z 32007KT 10SM SCT013 BKN020 OVC050 17/15 A3010 RMK AO2 RAE00 P0000=
200712132352 METAR KATL 132352Z 31011G15KT 10SM -RA SCT015 BKN048 OVC060 17/15 A3010 RMK AO2 SLP189 P0000 60000 T01720150 10217 20172 51010=
200712132309 SPECI KATL 132309Z 29006KT 10SM -RA FEW020 OVC035 18/16 A3009 RMK AO2 P0000=
200712132309 SPECI KATL 132309Z 29006KT 10SM -RA FEW020 OVC035 18/16 A3009 RMK AO2 P0000=
200712132252 METAR KATL 132252Z 29008KT 10SM -RA SCT020 BKN026 OVC035 18/16 A3009 RMK AO2 RAB23 SLP187 P0000 T01830156=
200712132223 SPECI KATL 132223Z 26004KT 10SM -RA BKN024 OVC035 20/15 A3008 RMK AO2 RAB23 P0000=
200712132223 SPECI KATL 132223Z 26004KT 10SM -RA BKN024 OVC035 20/15 A3008 RMK AO2 RAB23 P0000=
200712132152 METAR KATL 132152Z 24007KT 10SM FEW035 BKN045 BKN300 20/14 A3007 RMK AO2 SLP180 SHRA DSNT NE VC SW-N T02000144=
200712132052 METAR KATL 132052Z 23012G20KT 10SM FEW030 SCT070 BKN300 21/14 A3007 RMK AO2 SLP177 60000 T02110139 56014=
200712132009 SPECI KATL 132009Z 25012KT 10SM BKN030 BKN040 BKN300 21/14 A3007 RMK AO2=
200712132009 SPECI KATL 132009Z 25012KT 10SM BKN030 BKN040 BKN300 21/14 A3007 RMK AO2=
200712131952 METAR KATL 131952Z 25012KT 10SM FEW037 SCT070 BKN300 22/14 A3007 RMK AO2 SLP179 T02170144=
200712131859 SPECI KATL 131859Z 24011G21KT 10SM BKN020 BKN030 BKN065 BKN300 21/15 A3009 RMK AO2=
200712131859 SPECI KATL 131859Z 24011G21KT 10SM BKN020 BKN030 BKN065 BKN300 21/15 A3009 RMK AO2=
200712131852 METAR KATL 131852Z 25015G22KT 10SM FEW020 BKN070 BKN300 21/15 A3009 RMK AO2 RAB00E16 SLP184 VIS LWR NE-SE SHRA P0000 T02060150=
200712131817 SPECI KATL 131817Z 23014G17KT 10SM SCT020 BKN060 BKN070 19/16 A3009 RMK AO2 RAB00E16 VIS LWR NE-SE SHRA P0000=
200712131817 SPECI KATL 131817Z 23014G17KT 10SM SCT020 BKN060 BKN070 19/16 A3009 RMK AO2 RAB00E16 VIS LWR NE-SE SHRA P0000=
200712131809 SPECI KATL 131809Z 25009G21KT 7SM -RA BKN021 BKN027 BKN060 19/16 A3010 RMK AO2 RAB00 VIS LWR NE-SE SHRA P0000=
200712131809 SPECI KATL 131809Z 25009G21KT 7SM -RA BKN021 BKN027 BKN060 19/16 A3010 RMK AO2 RAB00 VIS LWR NE-SE SHRA P0000=
200712131806 SPECI KATL 131806Z 25010G21KT 4SM -RA BKN021 BKN027 OVC070 19/16 A3010 RMK AO2 RAB00 P0000=
200712131806 SPECI KATL 131806Z 25010G21KT 4SM -RA BKN021 BKN027 OVC070 19/16 A3010 RMK AO2 RAB00 P0000=
200712131752 METAR KATL 131752Z 25012G22KT 10SM BKN023 BKN075 OVC300 20/15 A3011 RMK AO2 SLP192 SHRA VC SW-NW BINOVC T02000150 10217 20144 58012=
200712131741 SPECI KATL 131741Z 23017G22KT 10SM BKN025 BKN080 BKN300 21/15 A3011 RMK AO2=
200712131741 SPECI KATL 131741Z 23017G22KT 10SM BKN025 BKN080 BKN300 21/15 A3011 RMK AO2=
200712131710 SPECI KATL 131710Z 25009G16KT 10SM SCT025 BKN080 BKN300 21/15 A3012 RMK AO2=
200712131710 SPECI KATL 131710Z 25009G16KT 10SM SCT025 BKN080 BKN300 21/15 A3012 RMK AO2=
200712131659 SPECI KATL 131659Z 25015G22KT 10SM BKN025 BKN085 BKN300 21/15 A3012 RMK AO2=
200712131659 SPECI KATL 131659Z 25015G22KT 10SM BKN025 BKN085 BKN300 21/15 A3012 RMK AO2=
200712131652 METAR KATL 131652Z 22017G23KT 10SM SCT025 SCT085 BKN300 22/15 A3012 RMK AO2 SLP195 T02170150=
200712131552 METAR KATL 131552Z 23015G19KT 10SM FEW025 SCT085 BKN300 21/14 A3014 RMK AO2 SLP201 T02060144=
200712131452 METAR KATL 131452Z 23010KT 10SM BKN085 BKN300 18/14 A3015 RMK AO2 SLP205 T01830144 51004=
200712131352 METAR KATL 131352Z 22006KT 10SM FEW085 BKN150 BKN250 16/14 A3014 RMK AO2 SLP204 T01560139=
200712131252 METAR KATL 131252Z 22004KT 10SM BKN085 BKN150 BKN250 14/13 A3015 RMK AO2 SLP205 T01440133=
200712131152 METAR KATL 131152Z 25004KT 10SM FEW085 BKN150 BKN250 14/13 A3014 RMK AO2 SLP201 T01440133 10156 20133 53004=
200712131052 METAR KATL 131052Z 22005KT 10SM FEW060 BKN150 BKN250 14/13 A3012 RMK AO2 SLP195 T01440133=
200712130952 METAR KATL 130952Z 22004KT 10SM FEW060 SCT150 BKN250 14/13 A3011 RMK AO2 SLP192 T01390128=
200712130852 METAR KATL 130852Z 20004KT 10SM FEW060 SCT250 14/13 A3012 RMK AO2 SLP196 T01390128 56007=
200712130752 METAR KATL 130752Z 19003KT 10SM FEW060 SCT250 14/13 A3013 RMK AO2 SLP196 T01440128=
200712130652 METAR KATL 130652Z 19004KT 10SM FEW060 SCT250 14/13 A3013 RMK AO2 SLP198 T01440128=
200712130552 METAR KATL 130552Z 25003KT 10SM CLR 16/13 A3015 RMK AO2 SLP202 T01560128 10211 20156 58006=
200712130452 METAR KATL 130452Z 00000KT 10SM FEW250 16/13 A3016 RMK AO2 SLP207 T01610128 402440133=
200712130352 METAR KATL 130352Z 24004KT 10SM FEW250 17/13 A3016 RMK AO2 SLP209 T01670128=
200712130252 METAR KATL 130252Z 22006KT 10SM FEW250 17/13 A3016 RMK AO2 SLP211 T01720128 50001=
200712130152 METAR KATL 130152Z 22004KT 10SM BKN065 18/13 A3017 RMK AO2 SLP213 T01830128=
200712130052 METAR KATL 130052Z 24004KT 10SM FEW065 19/13 A3017 RMK AO2 SLP213 T01940128=
200712122352 METAR KATL 122352Z 21005KT 10SM BKN065 21/13 A3016 RMK AO2 SLP209 T02110128 10244 20211 50000=
200712122252 METAR KATL 122252Z 22006KT 10SM FEW050 BKN065 22/12 A3016 RMK AO2 SLP208 T02220122=
200712122152 METAR KATL 122152Z 21005KT 10SM FEW045 BKN065 23/12 A3016 RMK AO2 SLP208 T02280117=
200712122052 METAR KATL 122052Z 21007KT 10SM SCT045 BKN065 23/12 A3016 RMK AO2 SLP207 T02330117 56014=
200712121952 METAR KATL 121952Z 22012KT 10SM SCT045 SCT065 23/11 A3017 RMK AO2 SLP209 T02330111=
200712121852 METAR KATL 121852Z 22009KT 10SM SCT045 SCT065 23/12 A3018 RMK AO2 SLP215 T02330122=
200712121752 METAR KATL 121752Z 25010KT 10SM FEW045 SCT065 24/12 A3020 RMK AO2 SLP221 T02390122 10239 20133 58016=
200712121652 METAR KATL 121652Z 22010KT 10SM FEW065 22/14 A3022 RMK AO2 SLP230 T02170144=
200712121552 METAR KATL 121552Z 21006KT 10SM FEW005 SCT070 19/15 A3024 RMK AO2 SLP238 T01890150=
200712121527 SPECI KATL 121527Z 22005KT 9SM FEW002 SCT070 16/15 A3025 RMK AO2=
200712121527 SPECI KATL 121527Z 22005KT 9SM FEW002 SCT070 16/15 A3025 RMK AO2=
200712121459 SPECI KATL 121459Z 21006KT 6SM BR OVC002 15/14 A3025 RMK AO2=
200712121459 SPECI KATL 121459Z 21006KT 6SM BR OVC002 15/14 A3025 RMK AO2=
200712121452 METAR KATL 121452Z 21005KT 8SM SCT002 SCT070 15/14 A3025 RMK AO2 SLP240 VIS LWR NE-SE BCFG T01500144 51008=
200712121450 SPECI KATL 121450Z 21005KT 1 1/2SM BR SCT002 SCT070 15/14 A3025 RMK AO2 SFC VIS 6 VIS LWR NE-SE BCFG TWRINC=
200712121450 SPECI KATL 121450Z 21005KT 1 1/2SM BR SCT002 SCT070 15/14 A3025 RMK AO2 SFC VIS 6 VIS LWR NE-SE BCFG TWRINC=
200712121424 SPECI KATL 121424Z 22005KT 1/4SM R09R/1600V3500FT BR BKN001 14/14 A3024 RMK AO2 SFC VIS 6 TWRINC=
200712121424 SPECI KATL 121424Z 22005KT 1/4SM R09R/1600V3500FT BR BKN001 14/14 A3024 RMK AO2 SFC VIS 6 TWRINC=
200712121355 SPECI KATL 121355Z 23005KT 1/4SM R09R/1200V1600FT FG OVC001 14/14 A3024 RMK AO2 TWR VIS 1/4 BINOVC $=
200712121355 SPECI KATL 121355Z 23005KT 1/4SM R09R/1200V1600FT FG OVC001 14/14 A3024 RMK AO2 TWR VIS 1/4 BINOVC $=
200712121352 METAR KATL 121352Z 24005KT 1/4SM R09R/1200V1600FT FG BKN002 BKN060 BKN250 14/14 A3024 RMK AO2 SFC VIS 1/2 SLP236 VIS N-NE 3 T01440139 $=
200712121350 SPECI KATL 121350Z 25005KT 1/4SM R09R/1200V2000FT FG BKN002 BKN060 BKN250 14/14 A3024 RMK AO2 SFC VIS 1/2 VIS N-NE 4 $=
200712121350 SPECI KATL 121350Z 25005KT 1/4SM R09R/1200V2000FT FG BKN002 BKN060 BKN250 14/14 A3024 RMK AO2 SFC VIS 1/2 VIS N-NE 4 $=
200712121348 SPECI KATL 121348Z 25006KT 1/2SM R09R/1200V2000FT BR VV001 14/14 A3024 RMK AO2 SFC VIS 3/4 VIS N-NE 6 $=
200712121348 SPECI KATL 121348Z 25006KT 1/2SM R09R/1200V2000FT BR VV001 14/14 A3024 RMK AO2 SFC VIS 3/4 VIS N-NE 6 $=
200712121325 SPECI KATL 121325Z 23005KT 1/2SM BR BKN002 BKN060 BKN250 14/14 A3023 RMK AO2 SFC VIS 6 TWRINC $=
200712121325 SPECI KATL 121325Z 23005KT 1/2SM BR BKN002 BKN060 BKN250 14/14 A3023 RMK AO2 SFC VIS 6 TWRINC $=
200712121321 SPECI KATL 121321Z 22005KT 1 1/2SM BR BKN002 BKN060 BKN250 14/14 A3023 RMK AO2 SFC VIS 6 TWRINC $=
200712121321 SPECI KATL 121321Z 22005KT 1 1/2SM BR BKN002 BKN060 BKN250 14/14 A3023 RMK AO2 SFC VIS 6 TWRINC $=
200712121315 SPECI KATL 121315Z 22006KT 8SM FEW002 SCT060 SCT250 14/14 A3023 RMK AO2=
200712121315 SPECI KATL 121315Z 22006KT 8SM FEW002 SCT060 SCT250 14/14 A3023 RMK AO2=
200712121252 METAR KATL 121252Z 20005KT 10SM FEW060 SCT250 13/13 A3022 RMK AO2 SLP232 T01330128=
200712121152 METAR KATL 121152Z 00000KT 10SM FEW060 SCT250 13/12 A3022 RMK AO2 SLP232 T01330122 10161 20133 53002=
200712121052 METAR KATL 121052Z 00000KT 10SM FEW060 14/13 A3022 RMK AO2 SLP229 T01390128=
200712120952 METAR KATL 120952Z 25004KT 10SM FEW060 14/13 A3021 RMK AO2 SLP224 T01440128=
200712120852 METAR KATL 120852Z 22003KT 10SM FEW036 BKN050 15/13 A3022 RMK AO2 SLP228 T01500128 55002=
200712120752 METAR KATL 120752Z 21004KT 10SM FEW036 SCT060 15/13 A3022 RMK AO2 SLP227 T01500128=
200712120652 METAR KATL 120652Z 21004KT 10SM SCT036 SCT055 15/12 A3022 RMK AO2 SLP229 T01500122=
200712120552 METAR KATL 120552Z 20004KT 10SM FEW040 BKN055 16/13 A3022 RMK AO2 SLP229 T01560128 10200 20150 58005=
200712120452 METAR KATL 120452Z 20005KT 10SM FEW045 16/12 A3023 RMK AO2 SLP231 T01560122 402390133=
200712120352 METAR KATL 120352Z 20003KT 10SM CLR 16/12 A3024 RMK AO2 SLP236 T01610122=
200712120252 METAR KATL 120252Z 19004KT 10SM CLR 17/13 A3024 RMK AO2 SLP236 T01670128 56004=
200712120152 METAR KATL 120152Z 18003KT 10SM CLR 17/13 A3024 RMK AO2 SLP237 T01720128=
200712120052 METAR KATL 120052Z 16003KT 10SM FEW045 18/13 A3025 RMK AO2 SLP240 T01830128=
200712112352 METAR KATL 112352Z 19003KT 10SM SCT045 19/13 A3025 RMK AO2 SLP241 T01940128 10239 20194 51004=
200712112252 METAR KATL 112252Z 18004KT 10SM FEW045 21/13 A3025 RMK AO2 SLP240 T02060128=
200712112152 METAR KATL 112152Z 19010KT 10SM FEW045 23/12 A3024 RMK AO2 SLP235 T02280122=
200712112052 METAR KATL 112052Z 20010KT 10SM SCT045 23/12 A3024 RMK AO2 SLP235 T02280122 56017=
200712111952 METAR KATL 111952Z COR 16008KT 10SM SCT042 SCT250 24/13 A3025 RMK AO2 SLP236 T02390128=
200712111852 METAR KATL 111852Z 18010KT 10SM FEW045 SCT250 24/13 A3026 RMK AO2 SLP241 T02390133=
200712111752 METAR KATL 111752Z 20009KT 10SM FEW035 SCT250 23/14 A3029 RMK AO2 SLP252 T02280139 10233 20133 58019=
200712111652 METAR KATL 111652Z 17010KT 10SM FEW030 SCT250 22/14 A3032 RMK AO2 SLP261 T02220144=
200712111552 METAR KATL 111552Z 21006KT 10SM FEW250 21/14 A3034 RMK AO2 SLP269 T02060144=
200712111452 METAR KATL 111452Z 21005KT 10SM FEW250 18/13 A3035 RMK AO2 SLP273 T01780133 53010=
200712111352 METAR KATL 111352Z 00000KT 10SM FEW250 16/13 A3034 RMK AO2 SLP270 T01560128=
200712111252 METAR KATL 111252Z 00000KT 10SM FEW250 14/12 A3033 RMK AO2 SLP267 T01390122=
200712111152 METAR KATL 111152Z 00000KT 10SM FEW250 14/12 A3032 RMK AO2 SLP263 T01390117 10167 20133 53004=
200712111052 METAR KATL 111052Z 00000KT 10SM FEW250 13/12 A3031 RMK AO2 SLP260 T01330117=
200712110952 METAR KATL 110952Z 00000KT 10SM CLR 16/13 A3031 RMK AO2 SLP257 T01560128=
200712110852 METAR KATL 110852Z 00000KT 10SM CLR 15/12 A3031 RMK AO2 SLP257 T01500122 53001=
200712110752 METAR KATL 110752Z 00000KT 10SM CLR 16/12 A3030 RMK AO2 SLP254 T01560122=
200712110652 METAR KATL 110652Z 21003KT 10SM CLR 17/13 A3030 RMK AO2 SLP255 T01670128=
200712110552 METAR KATL 110552Z 20003KT 10SM CLR 16/13 A3030 RMK AO2 SLP256 T01610128 10211 20161 58005=
200712110452 METAR KATL 110452Z 00000KT 10SM CLR 17/13 A3031 RMK AO2 SLP259 T01720128 402500128=
200712110352 METAR KATL 110352Z 00000KT 10SM CLR 18/13 A3032 RMK AO2 SLP261 T01780128=
200712110252 METAR KATL 110252Z 19003KT 10SM CLR 18/12 A3032 RMK AO2 SLP263 T01780122 51008=
200712110152 METAR KATL 110152Z 00000KT 10SM CLR 18/13 A3031 RMK AO2 SLP262 T01830128=
200712110052 METAR KATL 110052Z 00000KT 10SM CLR 19/12 A3031 RMK AO2 SLP260 T01940122=
200712102352 METAR KATL 102352Z 00000KT 10SM FEW250 21/12 A3029 RMK AO2 SLP255 T02060122 10250 20206 53005=
200712102252 METAR KATL 102252Z 00000KT 10SM FEW050 22/12 A3028 RMK AO2 SLP251 T02170122=
200712102152 METAR KATL 102152Z 26003KT 10SM FEW050 SCT250 SCT300 24/12 A3028 RMK AO2 SLP250 T02390122=
200712102052 METAR KATL 102052Z 21004KT 10SM SCT050 SCT250 BKN300 24/13 A3028 RMK AO2 SLP247 T02440128 56015=
200712101952 METAR KATL 101952Z 21010KT 10SM FEW045 BKN250 BKN300 24/13 A3029 RMK AO2 SLP250 T02440128=
200712101852 METAR KATL 101852Z 23006KT 10SM FEW045 SCT250 SCT300 24/13 A3030 RMK AO2 SLP254 T02390133=
200712101752 METAR KATL 101752Z 26005KT 10SM FEW040 SCT250 BKN300 23/13 A3032 RMK AO2 SLP263 T02330133 10233 20128 58015=
200712101652 METAR KATL 101652Z 20006KT 10SM FEW080 SCT250 BKN300 22/14 A3036 RMK AO2 SLP274 T02220139=
200712101552 METAR KATL 101552Z 23008KT 10SM FEW080 SCT250 20/14 A3037 RMK AO2 SLP280 T02000139=
200712101452 METAR KATL 101452Z 24007KT 10SM SCT250 18/14 A3037 RMK AO2 SLP279 T01780139 53011=
200712101352 METAR KATL 101352Z 19003KT 10SM FEW100 SCT250 15/13 A3036 RMK AO2 SLP276 T01500133=
200712101252 METAR KATL 101252Z 00000KT 10SM FEW100 SCT250 13/12 A3035 RMK AO2 SLP273 T01280117=
200712101152 METAR KATL 101152Z 00000KT 10SM FEW100 13/12 A3033 RMK AO2 SLP270 T01280117 10161 20128 53011=
200712101052 METAR KATL 101052Z 00000KT 10SM CLR 13/13 A3032 RMK AO2 SLP262 T01330128=
200712100952 METAR KATL 100952Z 00000KT 10SM CLR 13/12 A3031 RMK AO2 SLP258 T01330122=
200712100852 METAR KATL 100852Z 00000KT 10SM CLR 15/13 A3030 RMK AO2 SLP255 T01500133 56003=
200712100752 METAR KATL 100752Z 00000KT 10SM CLR 14/13 A3030 RMK AO2 SLP256 T01440128=
200712100652 METAR KATL 100652Z 22003KT 10SM CLR 14/13 A3030 RMK AO2 SLP257 T01440128=
200712100552 METAR KATL 100552Z 21003KT 10SM FEW250 16/14 A3031 RMK AO2 SLP259 T01610139 10211 20156 58004=
200712100452 METAR KATL 100452Z 00000KT 10SM FEW250 17/14 A3032 RMK AO2 SLP263 T01670139 402441011=
200712100352 METAR KATL 100352Z 00000KT 10SM FEW250 18/14 A3032 RMK AO2 SLP262 T01780139=
200712100252 METAR KATL 100252Z 23003KT 10SM FEW250 18/14 A3033 RMK AO2 SLP265 T01830139 51005=
200712100152 METAR KATL 100152Z 22004KT 10SM FEW100 SCT250 19/14 A3032 RMK AO2 SLP263 T01940144=
200712100052 METAR KATL 100052Z 22005KT 10SM BKN100 20/14 A3032 RMK AO2 SLP263 T02000144=
200712092352 METAR KATL 092352Z 21006KT 10SM BKN095 BKN250 21/14 A3031 RMK AO2 SLP260 T02060144 10244 20206 53006=
200712092252 METAR KATL 092252Z 21005KT 10SM FEW043 SCT090 BKN250 22/14 A3029 RMK AO2 SLP253 T02170144=
200712092152 METAR KATL 092152Z 23005KT 10SM FEW040TCU BKN090 BKN250 23/14 A3029 RMK AO2 SLP251 TCU N-NE AND VC NE-E-SE T02330144=
200712092052 METAR KATL 092052Z 26003KT 10SM SCT038TCU BKN085 BKN250 23/15 A3029 RMK AO2 SLP251 TCU NE-OHD-SW AND VC NW MDT CU ALQDS T02330150 56014=
200712091952 METAR KATL 091952Z 23008KT 10SM SCT038TCU BKN065 BKN250 24/15 A3029 RMK AO2 SLP252 TCU VC SE AND SW-NW MDT CU OHD-ALQDS T02440150=
200712091852 METAR KATL 091852Z VRB04KT 10SM BKN038TCU BKN100 BKN250 23/15 A3031 RMK AO2 SLP259 TCU VC SW-NW MDT CU OHD-ALQDS T02330150=
200712091752 METAR KATL 091752Z 20003KT 10SM SCT030 SCT100 SCT250 23/15 A3033 RMK AO2 SLP266 T02280150 10233 20144 58017=
200712091652 METAR KATL 091652Z 19008KT 10SM FEW026 SCT100 SCT250 22/16 A3036 RMK AO2 SLP276 T02220156=
200712091552 METAR KATL 091552Z 21008KT 10SM FEW026 SCT100 SCT250 21/16 A3038 RMK AO2 SLP283 T02060156=
200712091452 METAR KATL 091452Z 00000KT 8SM FEW080 BKN100 BKN250 18/15 A3038 RMK AO2 SLP285 T01780150 53015=
200712091352 METAR KATL 091352Z 14003KT 3SM BR FEW080 BKN100 16/14 A3036 RMK AO2 SLP279 VIS E-SE 1 1/2 T01560144=
200712091337 SPECI KATL 091337Z 00000KT 3SM R09R/6000VP6000FT BR BKN100 16/14 A3036 RMK AO2 VIS SE-SW 1 1/2=
200712091337 SPECI KATL 091337Z 00000KT 3SM R09R/6000VP6000FT BR BKN100 16/14 A3036 RMK AO2 VIS SE-SW 1 1/2=
200712091256 SPECI KATL 091256Z 00000KT 2SM R09R/5000VP6000FT BR FEW001 SCT080 BKN100 14/14 A3035 RMK AO2 TWR VIS 3=
200712091256 SPECI KATL 091256Z 00000KT 2SM R09R/5000VP6000FT BR FEW001 SCT080 BKN100 14/14 A3035 RMK AO2 TWR VIS 3=
200712091252 METAR KATL 091252Z 12003KT 2 1/2SM R09R/5500VP6000FT BR FEW080 BKN100 14/14 A3035 RMK AO2 TWR VIS 3 SLP275 T01440139=
200712091213 SPECI KATL 091213Z 12003KT 2 1/2SM BR SCT080 BKN100 14/14 A3034 RMK AO2=
200712091213 SPECI KATL 091213Z 12003KT 2 1/2SM BR SCT080 BKN100 14/14 A3034 RMK AO2=
200712091152 METAR KATL 091152Z 13003KT 5SM BR SCT080 BKN100 15/14 A3034 RMK AO2 SLP270 T01500139 10156 20139 53006=
200712091052 METAR KATL 091052Z 00000KT 5SM BR FEW080 OVC100 15/14 A3032 RMK AO2 SLP264 T01500139=
200712090952 METAR KATL 090952Z 00000KT 5SM BR OVC090 16/14 A3032 RMK AO2 SLP264 T01560144=
200712090852 METAR KATL 090852Z 12004KT 6SM BR FEW060 OVC080 15/14 A3032 RMK AO2 SLP262 T01500139 50001=
200712090752 METAR KATL 090752Z 00000KT 6SM BR FEW048 BKN060 15/14 A3032 RMK AO2 SLP263 T01500139=
200712090652 METAR KATL 090652Z 00000KT 7SM FEW027 14/13 A3031 RMK AO2 SLP262 T01440133=
200712090552 METAR KATL 090552Z 00000KT 7SM SCT027 15/13 A3031 RMK AO2 SLP262 T01500133 10194 20144 50001=
200712090535 SPECI KATL 090535Z 14003KT 7SM SCT027 15/13 A3032 RMK AO2=
200712090535 SPECI KATL 090535Z 14003KT 7SM SCT027 15/13 A3032 RMK AO2=
200712090519 SPECI KATL 090519Z 00000KT 8SM BKN027 15/13 A3032 RMK AO2=
200712090519 SPECI KATL 090519Z 00000KT 8SM BKN027 15/13 A3032 RMK AO2=
200712090452 METAR KATL 090452Z 12003KT 8SM SCT028 16/13 A3032 RMK AO2 SLP265 T01560133 402280106=
200712090352 METAR KATL 090352Z 00000KT 8SM FEW036 SCT070 16/13 A3032 RMK AO2 SLP265 T01610133=
200712090252 METAR KATL 090252Z 12004KT 9SM FEW036 17/13 A3031 RMK AO2 SLP262 T01670133 50002=
200712090152 METAR KATL 090152Z 15003KT 9SM FEW036 18/14 A3032 RMK AO2 SLP265 T01780139=
200712090052 METAR KATL 090052Z 15005KT 9SM FEW036 SCT070 18/14 A3031 RMK AO2 SLP261 T01830139=
200712082352 METAR KATL 082352Z 14004KT 9SM FEW040 BKN080 19/14 A3030 RMK AO2 SLP260 T01940144 10228 20194 53010=
200712082252 METAR KATL 082252Z 00000KT 10SM BKN080 20/14 A3029 RMK AO2 SLP254 T02000144=
200712082152 METAR KATL 082152Z 22003KT 10SM FEW037 SCT080 22/14 A3028 RMK AO2 SLP250 T02170144=
200712082052 METAR KATL 082052Z 22007KT 10SM SCT035 23/15 A3027 RMK AO2 SLP247 T02280150 56009=
200712081952 METAR KATL 081952Z 22008KT 9SM FEW027 22/15 A3027 RMK AO2 SLP248 T02220150=
200712081909 SPECI KATL 081909Z VRB04KT 8SM FEW025 21/15 A3028 RMK AO2=
200712081909 SPECI KATL 081909Z VRB04KT 8SM FEW025 21/15 A3028 RMK AO2=
200712081852 METAR KATL 081852Z 32004KT 7SM BKN023 21/15 A3029 RMK AO2 SLP253 T02060150=
200712081752 METAR KATL 081752Z VRB04KT 6SM HZ BKN015 20/15 A3030 RMK AO2 SLP257 T02000150 10200 20111 58009=
200712081659 SPECI KATL 081659Z 21005KT 6SM HZ BKN011 18/14 A3032 RMK AO2=
200712081659 SPECI KATL 081659Z 21005KT 6SM HZ BKN011 18/14 A3032 RMK AO2=
200712081652 METAR KATL 081652Z 20006KT 6SM HZ BKN009 18/14 A3032 RMK AO2 SLP266 T01780144=
200712081552 METAR KATL 081552Z 24003KT 5SM HZ OVC007 16/13 A3033 RMK AO2 SLP271 T01560128=
200712081452 METAR KATL 081452Z 00000KT 5SM HZ OVC005 14/11 A3033 RMK AO2 SLP268 T01390111 52012=
200712081352 METAR KATL 081352Z 00000KT 5SM HZ OVC005 13/10 A3032 RMK AO2 SLP266 T01280100=
200712081252 METAR KATL 081252Z 00000KT 5SM HZ OVC007 12/09 A3030 RMK AO2 SLP261 T01170089=
200712081230 SPECI KATL 081230Z 15005KT 7SM OVC009 11/08 A3029 RMK AO2 CIG 007V011=
200712081230 SPECI KATL 081230Z 15005KT 7SM OVC009 11/08 A3029 RMK AO2 CIG 007V011=
200712081152 METAR KATL 081152Z 11003KT 7SM OVC011 11/08 A3029 RMK AO2 SLP257 60001 70001 T01110083 10122 20106 53004=
200712081110 SPECI KATL 081110Z 00000KT 8SM BKN011 OVC075 12/08 A3029 RMK AO2=
200712081110 SPECI KATL 081110Z 00000KT 8SM BKN011 OVC075 12/08 A3029 RMK AO2=
200712081052 METAR KATL 081052Z 00000KT 7SM BKN075 11/08 A3028 RMK AO2 SLP254 T01110083=
200712080952 METAR KATL 080952Z 00000KT 6SM HZ BKN070 11/08 A3026 RMK AO2 SLP247 T01110078=
200712080916 SPECI KATL 080916Z 15006KT 8SM FEW023 SCT029 OVC065 11/08 A3026 RMK AO2=
200712080916 SPECI KATL 080916Z 15006KT 8SM FEW023 SCT029 OVC065 11/08 A3026 RMK AO2=
200712080852 METAR KATL 080852Z 00000KT 6SM HZ BKN016 BKN022 OVC027 11/08 A3028 RMK AO2 SLP252 60001 T01110078 53003=
200712080652 METAR KATL 080652Z 13005KT 9SM OVC020 12/07 A3026 RMK AO2 SLP248 T01220067=
200712080552 METAR KATL 080552Z 14003KT 10SM OVC016 12/07 A3027 RMK AO2 SLP250 T01220067 10133 20117 50000=
200712080452 METAR KATL 080452Z 13004KT 10SM OVC018 12/06 A3027 RMK AO2 SLP251 T01220061 401560028=
200712080352 METAR KATL 080352Z 14003KT 10SM OVC018 12/06 A3028 RMK AO2 SLP256 T01170061=
200712080252 METAR KATL 080252Z 11005KT 10SM OVC018 12/06 A3027 RMK AO2 SLP252 T01220061 51007=
200712080152 METAR KATL 080152Z 12004KT 10SM OVC020 13/06 A3027 RMK AO2 SLP252 T01280061=
200712080052 METAR KATL 080052Z 13007KT 10SM BKN022 OVC055 13/06 A3025 RMK AO2 SLP248 T01330056=
200712072352 METAR KATL 072352Z 09005KT 10SM OVC026 13/06 A3024 RMK AO2 SLP244 T01330061 10156 20106 53010=
200712072350 SPECI KATL 072350Z 09005KT 10SM OVC026 13/06 A3024 RMK AO2=
200712072350 SPECI KATL 072350Z 09005KT 10SM OVC026 13/06 A3024 RMK AO2=
200712072252 METAR KATL 072252Z 14004KT 10SM FEW035 SCT250 14/06 A3023 RMK AO2 SLP240 T01390056=
200712072152 METAR KATL 072152Z 17004KT 10SM FEW040 SCT050 SCT280 15/06 A3022 RMK AO2 SLP236 T01500056=
200712072052 METAR KATL 072052Z 16005KT 10SM FEW048 SCT150 SCT280 15/05 A3021 RMK AO2 SLP234 T01500050 55014=
200712071952 METAR KATL 071952Z 16004KT 10SM FEW150 SCT280 15/05 A3021 RMK AO2 SLP233 T01500050=
200712071852 METAR KATL 071852Z VRB05KT 10SM FEW150 SCT280 13/04 A3022 RMK AO2 SLP237 T01280044=
200712071752 METAR KATL 071752Z 12007KT 10SM FEW050 SCT150 11/03 A3026 RMK AO2 SLP250 T01060033 10111 20033 58025=
200712071652 METAR KATL 071652Z 15004KT 10SM FEW050 SCT150 09/03 A3030 RMK AO2 SLP267 T00890033=
200712071552 METAR KATL 071552Z 11007KT 9SM FEW020 SCT150 SCT280 07/03 A3032 RMK AO2 SLP273 T00720028=
200712071452 METAR KATL 071452Z 12006KT 8SM OVC008 05/01 A3033 RMK AO2 SLP278 BINOVC T00500006 51012=
200712071352 METAR KATL 071352Z 10007KT 8SM OVC008 04/M01 A3033 RMK AO2 SLP276 T00391011=
200712071252 METAR KATL 071252Z 10007KT 10SM OVC008 03/M02 A3032 RMK AO2 SLP272 T00331017=
200712071215 SPECI KATL 071215Z 08006KT 10SM OVC008 03/M03 A3031 RMK AO2=
200712071215 SPECI KATL 071215Z 08006KT 10SM OVC008 03/M03 A3031 RMK AO2=
200712071152 METAR KATL 071152Z 08009KT 10SM OVC010 03/M03 A3030 RMK AO2 SLP265 T00331033 10039 20028 53005=
200712071108 SPECI KATL 071108Z 09008KT 10SM BKN010 OVC150 03/M04 A3029 RMK AO2=
200712071108 SPECI KATL 071108Z 09008KT 10SM BKN010 OVC150 03/M04 A3029 RMK AO2=
200712071052 METAR KATL 071052Z 09007KT 10SM FEW014 OVC150 03/M04 A3028 RMK AO2 SLP258 T00281044=
200712071020 SPECI KATL 071020Z 08008KT 10SM SCT014 OVC150 03/M04 A3027 RMK AO2=
200712071020 SPECI KATL 071020Z 08008KT 10SM SCT014 OVC150 03/M04 A3027 RMK AO2=
200712070952 METAR KATL 070952Z 09008KT 10SM OVC014 03/M04 A3027 RMK AO2 SLP255 T00331044=
200712070910 SPECI KATL 070910Z 09006KT 10SM BKN018 OVC150 03/M04 A3028 RMK AO2=
200712070910 SPECI KATL 070910Z 09006KT 10SM BKN018 OVC150 03/M04 A3028 RMK AO2=
200712070852 METAR KATL 070852Z 09008KT 10SM FEW018 OVC150 03/M04 A3028 RMK AO2 SLP259 T00281044 53004=
200712070752 METAR KATL 070752Z 09009KT 10SM SCT018 OVC150 03/M04 A3028 RMK AO2 SLP257 T00331044=
200712070652 METAR KATL 070652Z 11008KT 10SM BKN150 03/M04 A3027 RMK AO2 SLP254 T00331044=
200712070552 METAR KATL 070552Z 09008KT 10SM BKN150 03/M04 A3027 RMK AO2 SLP255 T00331039 10067 20028 51007=
200712070452 METAR KATL 070452Z 10009KT 10SM FEW150 03/M04 A3026 RMK AO2 SLP254 T00331039 401001011=
200712070352 METAR KATL 070352Z 09007KT 10SM FEW250 03/M03 A3027 RMK AO2 SLP257 T00331033=
200712070252 METAR KATL 070252Z 09009KT 10SM FEW250 04/M03 A3025 RMK AO2 SLP249 T00391033 53013=
200712070152 METAR KATL 070152Z 09008KT 10SM FEW250 05/M03 A3023 RMK AO2 SLP243 T00501028=
200712070052 METAR KATL 070052Z 09008KT 10SM SCT250 06/M03 A3022 RMK AO2 SLP241 T00561028=
200712062352 METAR KATL 062352Z 08007KT 10SM FEW150 BKN250 06/M03 A3021 RMK AO2 SLP237 T00611028 10100 20061 53016=
200712062252 METAR KATL 062252Z 10008KT 10SM FEW140 BKN250 08/M03 A3018 RMK AO2 SLP227 T00781028=
200712062152 METAR KATL 062152Z 12005KT 10SM FEW150 SCT230 BKN280 09/M03 A3018 RMK AO2 SLP227 T00891033=
200712062052 METAR KATL 062052Z 11008KT 10SM FEW150 SCT230 BKN280 09/M03 A3016 RMK AO2 SLP219 T00941033 56010=
200712061952 METAR KATL 061952Z 10007KT 10SM BKN150 BKN230 BKN280 10/M03 A3016 RMK AO2 SLP218 T01001028=
200712061852 METAR KATL 061852Z 11007KT 10SM BKN150 BKN280 09/M03 A3017 RMK AO2 SLP220 T00941033=
200712061752 METAR KATL 061752Z 07006KT 10SM SCT150 SCT280 08/M04 A3019 RMK AO2 SLP228 T00781039 10078 21011 58009=
200712061652 METAR KATL 061652Z 10009KT 10SM SCT150 SCT280 07/M04 A3021 RMK AO2 SLP234 T00671044=
200712061552 METAR KATL 061552Z 08009KT 10SM BKN150 BKN230 BKN280 05/M04 A3023 RMK AO2 SLP243 T00501039=
200712061452 METAR KATL 061452Z 07012KT 10SM SCT150 SCT230 SCT280 05/M04 A3022 RMK AO2 SLP236 T00501039 53033=
200712061352 METAR KATL 061352Z 05008KT 10SM FEW120 SCT200 SCT250 02/M04 A3018 RMK AO2 SLP224 T00221039=
200712061252 METAR KATL 061252Z 01008KT 10SM FEW200 SCT250 M01/M04 A3015 RMK AO2 SLP214 T10061044=
200712061152 METAR KATL 061152Z VRB05KT 10SM FEW200 M01/M04 A3012 RMK AO2 SLP203 T10061044 10039 21006 51028=
200712061052 METAR KATL 061052Z 34008KT 10SM CLR 00/M04 A3009 RMK AO2 SLP194 T00001044=
200712060952 METAR KATL 060952Z 34009KT 10SM CLR 00/M04 A3006 RMK AO2 SLP183 T00001039=
200712060852 METAR KATL 060852Z 32007KT 10SM CLR 01/M03 A3003 RMK AO2 SLP172 T00061033 52023=
200712060752 METAR KATL 060752Z 34009KT 10SM CLR 02/M03 A3001 RMK AO2 SLP165 T00171033=
200712060652 METAR KATL 060652Z 35015G22KT 10SM CLR 03/M03 A2999 RMK AO2 SLP155 T00281028=
200712060552 METAR KATL 060552Z 35014G22KT 10SM CLR 04/M02 A2996 RMK AO2 SLP149 T00391017 10133 20039 51022=
200712060452 METAR KATL 060452Z 34013G25KT 10SM CLR 05/M01 A2995 RMK AO2 SLP144 T00501011 401720028=
200712060352 METAR KATL 060352Z 34016G26KT 10SM FEW070 07/00 A2993 RMK AO2 PK WND 36026/0347 SLP138 T00670000=
200712060252 METAR KATL 060252Z 34012G21KT 10SM FEW070 09/01 A2990 RMK AO2 PK WND 34029/0204 SLP126 T00890011 53042=
200712060152 METAR KATL 060152Z 32014G21KT 10SM FEW070 13/01 A2983 RMK AO2 SLP102 T01280011=
200712060052 METAR KATL 060052Z 30007KT 10SM SCT070 SCT200 12/00 A2979 RMK AO2 SLP091 T01220000=
200712052352 METAR KATL 052352Z 28006KT 10SM SCT070 SCT150 BKN200 13/00 A2977 RMK AO2 SLP082 T01280000 10172 20128 53023=
200712052252 METAR KATL 052252Z 25007KT 10SM FEW150 SCT200 14/M01 A2973 RMK AO2 SLP071 T01441006=
200712052152 METAR KATL 052152Z 25011G17KT 10SM FEW150 SCT250 SCT280 16/M01 A2971 RMK AO2 SLP062 T01561011=
200712052052 METAR KATL 052052Z 23010G16KT 10SM FEW150 BKN250 BKN280 17/M01 A2970 RMK AO2 SLP056 T01721011 55011=
200712051952 METAR KATL 051952Z 24011KT 10SM SCT150 BKN250 BKN280 16/M02 A2969 RMK AO2 SLP054 T01611017=
200712051852 METAR KATL 051852Z 24013G18KT 10SM FEW100 BKN150 BKN250 16/M02 A2970 RMK AO2 SLP058 T01611022=
200712051752 METAR KATL 051752Z 24012G18KT 10SM FEW100 BKN150 BKN250 14/M03 A2973 RMK AO2 SLP068 T01391033 10144 20033 58022=
200712051652 METAR KATL 051652Z 27014G22KT 10SM BKN100 BKN150 BKN250 13/M04 A2976 RMK AO2 SLP077 T01331044=
200712051552 METAR KATL 051552Z 25012G21KT 10SM FEW100 SCT120 BKN150 BKN250 11/M04 A2978 RMK AO2 SLP085 T01111044=
200712051452 METAR KATL 051452Z 24007KT 10SM FEW120 SCT150 SCT250 08/M05 A2980 RMK AO2 SLP093 ACC DSNT NW T00781050 53002=
200712051352 METAR KATL 051352Z 23007KT 10SM FEW100 SCT200 SCT250 06/M05 A2979 RMK AO2 SLP092 T00611050=
200712051252 METAR KATL 051252Z 22008KT 10SM BKN100 BKN200 BKN250 04/M06 A2979 RMK AO2 SLP091 T00391056=
200712051152 METAR KATL 051152Z 22008KT 10SM FEW250 03/M06 A2979 RMK AO2 SLP092 T00331061 10056 20028 55007=
200712051052 METAR KATL 051052Z 24003KT 10SM FEW250 03/M07 A2979 RMK AO2 SLP090 T00331067=
200712050952 METAR KATL 050952Z 23006KT 10SM FEW250 03/M07 A2980 RMK AO2 SLP093 T00331067=
200712050852 METAR KATL 050852Z 24005KT 10SM SCT250 03/M07 A2981 RMK AO2 SLP097 T00331072 56012=
200712050752 METAR KATL 050752Z 23004KT 10SM FEW200 SCT250 04/M08 A2982 RMK AO2 SLP101 T00391083=
200712050652 METAR KATL 050652Z 23004KT 10SM FEW200 BKN250 04/M08 A2982 RMK AO2 SLP099 T00441078=
200712050552 METAR KATL 050552Z 24005KT 10SM FEW200 BKN250 06/M09 A2985 RMK AO2 SLP109 T00561094 10089 20056 56007=
200712050452 METAR KATL 050452Z 24004KT 10SM FEW200 06/M09 A2985 RMK AO2 SLP112 T00611089 401391011=
200712050352 METAR KATL 050352Z 26006KT 10SM FEW250 07/M11 A2986 RMK AO2 SLP115 T00721111=
200712050252 METAR KATL 050252Z 23003KT 10SM FEW250 07/M11 A2987 RMK AO2 SLP119 T00721106 56012=
200712050152 METAR KATL 050152Z 26004KT 10SM FEW250 08/M12 A2988 RMK AO2 SLP123 T00831117=
200712050052 METAR KATL 050052Z 28006KT 10SM FEW250 08/M12 A2989 RMK AO2 SLP128 T00781122=
200712042352 METAR KATL 042352Z 28005KT 10SM FEW250 09/M16 A2990 RMK AO2 SLP132 T00891156 10139 20089 55002=
200712042252 METAR KATL 042252Z 29006KT 10SM FEW200 SCT250 09/M16 A2990 RMK AO2 SLP131 T00941156=
200712042152 METAR KATL 042152Z 28008KT 10SM FEW180 SCT250 SCT300 12/M18 A2989 RMK AO2 SLP125 T01221178=
200712042052 METAR KATL 042052Z 27013G19KT 10SM FEW250 13/M19 A2991 RMK AO2 SLP132 T01331189 56028=
200712041952 SPECI KATL 041952Z 32012KT 10SM FEW250 14/M17 A2994 RMK AO2 SLP141 T01391172=
200712041852 METAR KATL 041852Z 30010G17KT 10SM FEW180 SCT250 13/M17 A2997 RMK AO2 SLP151 T01331172=
200712041752 METAR KATL 041752Z 27010KT 10SM FEW180 SCT250 SCT300 12/M13 A3000 RMK AO2 SLP161 T01221133 10122 21011 58033=
200712041652 METAR KATL 041652Z 30012KT 10SM FEW180 SCT250 SCT300 11/M09 A3004 RMK AO2 SLP178 T01061094=
200712041552 METAR KATL 041552Z 29004KT 10SM FEW180 SCT250 SCT300 07/M07 A3007 RMK AO2 SLP188 T00721072=
200712041452 METAR KATL 041452Z 32006KT 10SM FEW180 SCT250 SCT300 04/M06 A3010 RMK AO2 SLP198 T00391056 53007=
200712041352 METAR KATL 041352Z 31009KT 10SM BKN250 01/M06 A3008 RMK AO2 SLP193 T00111056=
200712041252 METAR KATL 041252Z 29004KT 10SM SCT180 BKN250 M01/M06 A3007 RMK AO2 SLP190 T10061056=
200712041152 METAR KATL 041152Z 31006KT 10SM BKN250 M01/M06 A3008 RMK AO2 SLP192 T10061056 10017 21006 55017=
200712041052 METAR KATL 041052Z 31005KT 10SM FEW250 M01/M06 A3007 RMK AO2 SLP190 T10061056=
200712040952 METAR KATL 040952Z 27004KT 10SM BKN250 00/M06 A3007 RMK AO2 SLP189 T00001056=
200712040852 METAR KATL 040852Z 32008KT 10SM SCT250 01/M06 A3013 RMK AO2 SLP206 T00061056 56011=
200712040752 METAR KATL 040752Z 33009KT 10SM SCT250 01/M06 A3014 RMK AO2 SLP212 T00061056=
200712040652 METAR KATL 040652Z 33011KT 10SM BKN250 01/M06 A3014 RMK AO2 SLP211 T00111056=
200712040552 METAR KATL 040552Z 34012KT 10SM BKN250 02/M06 A3016 RMK AO2 SLP218 T00171056 10061 20017 58008=
200712040452 METAR KATL 040452Z 34015KT 10SM FEW250 02/M06 A3018 RMK AO2 SLP226 T00221056 401940022=
200712040352 METAR KATL 040352Z 34013G18KT 10SM CLR 03/M06 A3019 RMK AO2 SLP230 T00281056=
200712040252 METAR KATL 040252Z 33012KT 10SM CLR 03/M06 A3019 RMK AO2 SLP227 T00331056 58017=
200712040152 METAR KATL 040152Z 34011KT 10SM CLR 04/M06 A3021 RMK AO2 SLP234 T00391061=
200712040052 METAR KATL 040052Z 34012KT 10SM CLR 05/M06 A3023 RMK AO2 SLP243 T00501056=
200712032352 METAR KATL 032352Z 34013G24KT 10SM FEW250 06/M06 A3024 RMK AO2 SLP242 T00611061 10106 20061 51020=
200712032252 METAR KATL 032252Z 33015G20KT 10SM FEW250 08/M06 A3023 RMK AO2 SLP238 T00781056=
200712032152 METAR KATL 032152Z 33017G22KT 10SM FEW250 09/M06 A3020 RMK AO2 SLP226 T00891056=
200712032052 METAR KATL 032052Z 32014G21KT 10SM FEW180 SCT250 BKN280 10/M06 A3018 RMK AO2 SLP217 T01001056 56005=
200712031952 METAR KATL 031952Z 33017G25KT 10SM FEW180 BKN280 10/M05 A3018 RMK AO2 PK WND 33026/1923 SLP217 T01001050=
200712031852 METAR KATL 031852Z 32016G21KT 10SM FEW150 SCT180 BKN280 10/M04 A3018 RMK AO2 PK WND 34026/1828 SLP218 T01001044=
200712031752 METAR KATL 031752Z 32017G24KT 10SM FEW150 SCT180 BKN280 10/M05 A3019 RMK AO2 SLP222 T01001050 10100 20067 58007=
200712031652 METAR KATL 031652Z 33014G25KT 10SM FEW150 SCT180 BKN280 08/M03 A3021 RMK AO2 PK WND 34032/1624 SLP229 T00781033=
200712031552 METAR KATL 031552Z 34022G32KT 10SM FEW150 SCT180 BKN280 07/M03 A3022 RMK AO2 PK WND 32032/1550 SLP234 T00721033=
200712031452 METAR KATL 031452Z 31018G25KT 10SM FEW150 SCT180 BKN280 07/M01 A3021 RMK AO2 PK WND 33032/1409 SLP231 T00721006 53018=
200712031352 METAR KATL 031352Z 34020G24KT 10SM FEW180 SCT250 07/00 A3019 RMK AO2 PK WND 32026/1332 SLP223 T00670000=
200712031252 METAR KATL 031252Z 31021G26KT 10SM FEW075 SCT150 SCT250 07/02 A3016 RMK AO2 PK WND 31029/1240 SLP213 T00720017=
200712031249 SPECI KATL 031249Z 31019G29KT 10SM FEW075 SCT150 SCT250 07/02 A3016 RMK AO2 PK WND 31029/1240=
200712031249 SPECI KATL 031249Z 31019G29KT 10SM FEW075 SCT150 SCT250 07/02 A3016 RMK AO2 PK WND 31029/1240=
200712031152 METAR KATL 031152Z 31017G28KT 10SM SCT018 BKN023 BKN150 11/07 A3012 RMK AO2 PK WND 30028/1148 SLP199 60018 70019 T01060072 10194 20106 53030=
200712031052 METAR KATL 031052Z 31021G30KT 10SM FEW020 SCT032 14/11 A3008 RMK AO2 PK WND 31030/1050 SLP183 T01440106=
200712030952 METAR KATL 030952Z 30015G18KT 10SM SCT045 BKN060 16/13 A3004 RMK AO2 SLP169 T01610133=
200712030852 METAR KATL 030852Z 29009KT 10SM FEW007 SCT012 OVC045 16/14 A3003 RMK AO2 RAE00 SLP166 P0000 60018 T01610144 51007=
200712030804 SPECI KATL 030804Z 30013G20KT 10SM FEW007 SCT012 OVC034 17/14 A3002 RMK AO2 RAE00 P0000=
200712030804 SPECI KATL 030804Z 30013G20KT 10SM FEW007 SCT012 OVC034 17/14 A3002 RMK AO2 RAE00 P0000=
200712030752 METAR KATL 030752Z 30012G31KT 6SM -RA BR SCT008 BKN029 OVC034 17/15 A3003 RMK AO2 PK WND 32031/0745 SLP164 P0010 T01720150=
200712030705 SPECI KATL 030705Z 27012G16KT 4SM RA BR FEW010 BKN025 OVC060 18/17 A3002 RMK AO2 P0005=
200712030705 SPECI KATL 030705Z 27012G16KT 4SM RA BR FEW010 BKN025 OVC060 18/17 A3002 RMK AO2 P0005=
200712030652 METAR KATL 030652Z 27013G17KT 6SM RA BR FEW019 SCT030 OVC060 19/17 A3002 RMK AO2 RAB09 SLP162 P0008 T01890172=
200712030625 SPECI KATL 030625Z 25011G23KT 3SM -RA BR SCT013 BKN016 OVC038 19/18 A3002 RMK AO2 RAB09 P0005=
200712030625 SPECI KATL 030625Z 25011G23KT 3SM -RA BR SCT013 BKN016 OVC038 19/18 A3002 RMK AO2 RAB09 P0005=
200712030617 SPECI KATL 030617Z 24015G23KT 2 1/2SM RA BR BKN013 BKN019 OVC023 19/17 A3001 RMK AO2 RAB09 P0001=
200712030617 SPECI KATL 030617Z 24015G23KT 2 1/2SM RA BR BKN013 BKN019 OVC023 19/17 A3001 RMK AO2 RAB09 P0001=
200712030552 METAR KATL 030552Z 23011G20KT 8SM BKN015 OVC025 19/17 A3001 RMK AO2 RAB26E41 SLP157 P0001 60001 T01940172 10194 20172 58016=
200712030452 METAR KATL 030452Z 24015G21KT 8SM BKN012 OVC017 19/17 A3003 RMK AO2 SLP166 T01940167 401940083=
200712030352 METAR KATL 030352Z 23015G23KT 8SM OVC013 19/16 A3005 RMK AO2 SLP172 T01940161=
200712030315 SPECI KATL 030315Z 22014G20KT 8SM BKN013 OVC018 18/16 A3006 RMK AO2=
200712030315 SPECI KATL 030315Z 22014G20KT 8SM BKN013 OVC018 18/16 A3006 RMK AO2=
200712030252 METAR KATL 030252Z 22019G26KT 10SM BKN016 BKN080 18/15 A3006 RMK AO2 PK WND 21026/0245 SLP177 BKN016 V SCT 60000 T01830150 58028=
200712030152 METAR KATL 030152Z 20014KT 10SM SCT032 BKN080 18/13 A3008 RMK AO2 SLP185 T01780133=
200712030121 SPECI KATL 030121Z 20012KT 10SM SCT027 BKN080 18/13 A3011 RMK AO2=
200712030121 SPECI KATL 030121Z 20012KT 10SM SCT027 BKN080 18/13 A3011 RMK AO2=
200712030052 METAR KATL 030052Z 22008KT 10SM BKN027 BKN080 18/12 A3014 RMK AO2 RAE02 SLP205 BKN027 V SCT P0000 T01780122=
200712022352 METAR KATL 022352Z 22003KT 10SM -RA BKN041 BKN048 BKN080 18/12 A3015 RMK AO2 RAB52 SLP207 P0000 60000 T01780117 10194 20172 53002=
200712022252 METAR KATL 022252Z 19007KT 10SM BKN036 BKN049 OVC070 18/12 A3013 RMK AO2 SLP200 BINOVC OHD AND W AND NW T01780117 $=
200712022152 METAR KATL 022152Z COR 19008KT 10SM BKN039 BKN070 BKN150 19/12 A3014 RMK AO2 SLP203 T01890117=
200712022052 METAR KATL 022052Z 19008KT 10SM SCT055 BKN070 BKN150 19/11 A3014 RMK AO2 SLP204 T01890111 58023=
200712021952 METAR KATL 021952Z 19007KT 10SM OVC065 18/11 A3017 RMK AO2 SLP214 T01830106=
200712021852 METAR KATL 021852Z 17004KT 10SM OVC065 18/09 A3019 RMK AO2 SLP220 BINOVC T01830094=
200712021752 METAR KATL 021752Z 17006KT 10SM FEW065 17/08 A3021 RMK AO2 SLP229 T01720083 10172 20083 58035=
200712021652 METAR KATL 021652Z 17005KT 10SM SCT012 14/07 A3026 RMK AO2 SLP248 T01440067=
200712021552 METAR KATL 021552Z 13005KT 10SM OVC010 13/03 A3030 RMK AO2 SLP262 T01280028=
200712021452 METAR KATL 021452Z 13008KT 10SM BKN012 12/01 A3032 RMK AO2 SLP268 T01170011 58004=
200712021448 SPECI KATL 021448Z 13009KT 10SM BKN014 BKN055 12/01 A3032 RMK AO2=
200712021448 SPECI KATL 021448Z 13009KT 10SM BKN014 BKN055 12/01 A3032 RMK AO2=
200712021411 SPECI KATL 021411Z 10009KT 10SM SCT012 SCT021 11/M02 A3033 RMK AO2=
200712021411 SPECI KATL 021411Z 10009KT 10SM SCT012 SCT021 11/M02 A3033 RMK AO2=
200712021352 METAR KATL 021352Z 10006KT 10SM BKN013 OVC025 10/M02 A3034 RMK AO2 SLP275 BINOVC T01001022=
200712021252 METAR KATL 021252Z 09006KT 10SM BKN014 BKN019 09/M02 A3033 RMK AO2 SLP272 T00941017=
200712021247 SPECI KATL 021247Z 09005KT 10SM BKN014 BKN019 09/M02 A3033 RMK AO2=
200712021247 SPECI KATL 021247Z 09005KT 10SM BKN014 BKN019 09/M02 A3033 RMK AO2=
200712021152 METAR KATL 021152Z 09006KT 10SM SCT023 BKN029 BKN035 09/M02 A3033 RMK AO2 SLP270 T00891017 10106 20083 51001=
200712021105 SPECI KATL 021105Z 07006KT 10SM SCT026 BKN029 09/M02 A3032 RMK AO2=
200712021105 SPECI KATL 021105Z 07006KT 10SM SCT026 BKN029 09/M02 A3032 RMK AO2=
200712021052 METAR KATL 021052Z 07006KT 10SM SCT026 BKN031 08/M02 A3032 RMK AO2 SLP269 T00831017=
200712021017 SPECI KATL 021017Z 08006KT 10SM SCT029 08/M02 A3032 RMK AO2=
200712021017 SPECI KATL 021017Z 08006KT 10SM SCT029 08/M02 A3032 RMK AO2=
200712020952 METAR KATL 020952Z 09007KT 10SM BKN029 09/M01 A3033 RMK AO2 SLP269 T00941011=
200712020852 METAR KATL 020852Z 10007KT 10SM OVC024 11/M01 A3032 RMK AO2 SLP268 T01061011 53005=
200712020826 SPECI KATL 020826Z 10004KT 10SM BKN026 10/M01 A3032 RMK AO2=
200712020826 SPECI KATL 020826Z 10004KT 10SM BKN026 10/M01 A3032 RMK AO2=
200712020752 METAR KATL 020752Z 12006KT 10SM BKN250 10/M01 A3031 RMK AO2 SLP262 T01001006=
200712020652 METAR KATL 020652Z 13004KT 10SM SCT150 BKN250 10/00 A3031 RMK AO2 SLP264 T01000000=
200712020552 METAR KATL 020552Z 13006KT 10SM BKN250 11/00 A3031 RMK AO2 SLP262 T01060000 10139 20094 58001=
200712020452 METAR KATL 020452Z 12006KT 10SM BKN250 11/M01 A3032 RMK AO2 SLP267 T01111011 401780050=
200712020352 METAR KATL 020352Z 10006KT 10SM FEW130 SCT250 10/M02 A3032 RMK AO2 SLP268 T01001017=
200712020252 METAR KATL 020252Z 11006KT 10SM FEW250 11/M01 A3031 RMK AO2 SLP265 T01111011 51001=
200712020152 METAR KATL 020152Z 13004KT 10SM FEW250 12/M02 A3031 RMK AO2 SLP265 T01221017=
200712020052 METAR KATL 020052Z 12004KT 10SM SCT250 13/M02 A3031 RMK AO2 SLP266 T01331017=
200712012352 METAR KATL 012352Z 13003KT 10SM FEW250 14/M01 A3030 RMK AO2 SLP263 T01391011 10178 20139 51006=
200712012252 METAR KATL 012252Z 12004KT 10SM FEW150 SCT250 16/M02 A3030 RMK AO2 SLP261 T01561022=
200712012152 METAR KATL 012152Z 13004KT 10SM SCT150 BKN250 17/M03 A3030 RMK AO2 SLP260 T01671028=
200712012052 METAR KATL 012052Z 13007KT 10SM SCT150 BKN250 17/M03 A3028 RMK AO2 SLP257 T01721028 56022=
200712011952 METAR KATL 011952Z 14010KT 10SM SCT150 BKN250 17/M02 A3030 RMK AO2 SLP260 T01721022=
200712011852 METAR KATL 011852Z 12009KT 10SM FEW075 SCT150 SCT250 17/M02 A3032 RMK AO2 SLP268 T01671022=
200712011752 METAR KATL 011752Z 14006KT 10SM SCT150 SCT250 16/M03 A3035 RMK AO2 SLP279 T01611028 10167 20050 58017=
200712011652 METAR KATL 011652Z 12008KT 10SM FEW150 SCT250 15/M02 A3038 RMK AO2 SLP290 T01501022=
200712011552 METAR KATL 011552Z 09010KT 10SM SCT150 SCT250 13/M01 A3040 RMK AO2 SLP296 T01331006=
200712011452 METAR KATL 011452Z 09005KT 10SM FEW150 SCT250 11/00 A3040 RMK AO2 SLP297 T01060000 51018=
200712011352 METAR KATL 011352Z 07006KT 10SM FEW250 09/M01 A3039 RMK AO2 SLP294 T00891006=
200712011252 METAR KATL 011252Z 07004KT 10SM SCT250 06/M02 A3037 RMK AO2 SLP286 T00561022=
