##########################################################
# Query made at 04/19/2024 23:01:41 UTC
# Time interval: from 06/01/2007 12:00  to 06/30/2007 12:59  UTC
##########################################################

##########################################################
# KATL, Atlanta, Hartsfield - Jackson Atlanta International Airport (United States)
# WMO index: 72219. WIGOS ID: 0-20000-0-72219
# Latitude 33-38-59N. Longitude 084-25-00W. Altitude 312 m.
##########################################################

200706301252 METAR KATL 301252Z 32006KT 6SM HZ BKN150 BKN200 24/21 A3007 RMK AO2 SLP171 T02390206=
200706301152 METAR KATL 301152Z 30003KT 4SM HZ BKN250 23/21 A3005 RMK AO2 SLP168 70006 T02330206 10239 20222 53008=
200706301052 METAR KATL 301052Z 31006KT 3SM BR FEW065 SCT250 22/21 A3005 RMK AO2 SLP166 T02220206=
200706300952 METAR KATL 300952Z 31005KT 4SM BR SCT200 22/21 A3004 RMK AO2 SLP161 T02220206=
200706300852 METAR KATL 300852Z 00000KT 7SM FEW120 SCT200 23/21 A3003 RMK AO2 SLP157 T02280206 56010=
200706300752 METAR KATL 300752Z 20003KT 6SM BR SCT150 BKN200 23/21 A3003 RMK AO2 SLP159 T02280206=
200706300652 METAR KATL 300652Z 18004KT 8SM SCT150 23/21 A3004 RMK AO2 SLP161 T02330211=
200706300552 METAR KATL 300552Z 00000KT 8SM FEW085 OVC150 24/21 A3006 RMK AO2 RAE50 SLP169 P0000 60006 T02390206 10261 20233 58009=
200706300452 METAR KATL 300452Z 32005KT 9SM -RA FEW035 BKN075 BKN090 OVC150 24/21 A3007 RMK AO2 RAB42 SLP173 P0000 T02390206 403440217=
200706300352 METAR KATL 300352Z 33008KT 9SM SCT120 BKN150 OVC200 23/21 A3009 RMK AO2 RAE00 SLP179 P0000 T02330211=
200706300252 METAR KATL 300252Z 08005KT 8SM -RA FEW035 SCT050 BKN110 OVC150 25/21 A3009 RMK AO2 SLP178 FRQ LTG DSNT W-NW P0002 60006 T02500206 51016=
200706300152 METAR KATL 300152Z 34004KT 8SM -RA FEW030 SCT090 OVC110 24/20 A3008 RMK AO2 SLP178 P0004 T02440200=
200706300052 METAR KATL 300052Z 28003KT 8SM -RA FEW035 SCT060 BKN090 OVC150 26/18 A3006 RMK AO2 RAB40 SLP167 P0000 T02560183=
200706292352 METAR KATL 292352Z 19003KT 10SM FEW100 SCT140 BKN200 OVC250 25/19 A3004 RMK AO2 TSE19 SLP164 TS DSIPTD CB DSNT NW-N T02500189 10344 20244 53005=
200706292320 SPECI KATL 292320Z 15003KT 10SM FEW050 SCT140 BKN200 OVC250 24/19 A3002 RMK AO2 TSE19 TS DSIPTD FRQ LTG DSNT NW=
200706292320 SPECI KATL 292320Z 15003KT 10SM FEW050 SCT140 BKN200 OVC250 24/19 A3002 RMK AO2 TSE19 TS DSIPTD FRQ LTG DSNT NW=
200706292252 METAR KATL 292252Z 22012KT 10SM TS FEW050CB SCT080 BKN200 OVC250 24/20 A3003 RMK AO2 SLP158 FRQ LTGCGIC TS VC SW-W MOV STNRY TCU VC NW T02440200=
200706292152 METAR KATL 292152Z 15012G17KT 10SM TS FEW050CB SCT100 BKN250 29/21 A3002 RMK AO2 TSB52 SLP155 OCNL LTGCG TS VC S-SW MOV STNRY TCU SW-NW-N T02890206=
200706292052 METAR KATL 292052Z 06010KT 10SM SCT050 SCT090 BKN250 32/21 A3003 RMK AO2 SLP156 CB DSNT E-SW TCU DSNT NE-E T03220211 56020=
200706291952 METAR KATL 291952Z 00000KT 10SM FEW050 SCT090 SCT250 33/21 A3003 RMK AO2 SLP158 CB DSNT E-S TCU DSNT NE E SE AND SW T03330211=
200706291852 METAR KATL 291852Z 36009KT 10SM FEW050 SCT250 33/21 A3005 RMK AO2 SLP163 CB DSNT E-S T03280211=
200706291752 METAR KATL 291752Z VRB03KT 10SM FEW036 SCT090 SCT250 31/22 A3009 RMK AO2 SLP177 CB DSNT E-S T03060217 10317 20233 58008=
200706291652 METAR KATL 291652Z VRB04KT 10SM FEW040 BKN150 BKN250 31/21 A3011 RMK AO2 SLP185 T03060211=
200706291552 METAR KATL 291552Z 00000KT 9SM FEW030 SCT150 SCT250 29/22 A3012 RMK AO2 SLP187 T02890217=
200706291452 METAR KATL 291452Z 00000KT 10SM FEW150 SCT250 27/22 A3011 RMK AO2 SLP186 T02720217 51005=
200706291352 METAR KATL 291352Z 00000KT 10SM BKN150 BKN250 24/22 A3011 RMK AO2 SLP187 T02440217=
200706291252 METAR KATL 291252Z 00000KT 10SM BKN150 BKN250 24/18 A3011 RMK AO2 SLP185 T02440178=
200706291152 METAR KATL 291152Z 00000KT 10SM BKN150 BKN200 BKN250 23/20 A3010 RMK AO2 SLP179 60003 70110 T02330200 10239 20217 53009=
200706291052 METAR KATL 291052Z 00000KT 10SM SCT150 SCT200 BKN250 23/21 A3008 RMK AO2 SLP175 T02280206=
200706290952 METAR KATL 290952Z 00000KT 8SM FEW120 SCT200 SCT250 22/21 A3007 RMK AO2 SLP172 T02170206=
200706290852 METAR KATL 290852Z 12004KT 9SM FEW080 SCT120 SCT200 BKN250 22/21 A3007 RMK AO2 SLP170 60003 T02220211 56015=
200706290752 METAR KATL 290752Z 13007KT 7SM FEW010 SCT080 BKN120 OVC200 22/21 A3007 RMK AO2 SLP171 T02220211=
200706290652 METAR KATL 290652Z 05003KT 10SM FEW060 BKN140 OVC200 23/21 A3008 RMK AO2 RAE42 SLP175 P0003 T02330211=
200706290552 METAR KATL 290552Z 33007KT 5SM RA BR FEW014 OVC038 22/21 A3011 RMK AO2 TSE17 SLP185 P0013 60107 T02220211 10317 20217 58004=
200706290518 SPECI KATL 290518Z 31007KT 5SM RA BR FEW015 OVC045 22/20 A3012 RMK AO2 TSE17 TS DISPTD P0004=
200706290518 SPECI KATL 290518Z 31007KT 5SM RA BR FEW015 OVC045 22/20 A3012 RMK AO2 TSE17 TS DISPTD P0004=
200706290452 METAR KATL 290452Z 30009KT 6SM -TSRA BR FEW015 BKN040CB OVC070 22/21 A3014 RMK AO2 SLP194 OCNL LTGICCA TS VC W-NW MOV NE P0014 T02170206 403440217=
200706290352 METAR KATL 290352Z 23009KT 6SM R09R/4500VP6000FT TSRA FEW020 BKN040CB OVC070 23/20 A3013 RMK AO2 SLP192 FRQ LTGICCA TS OHD-ALQDS MOV NE VIS LWR SW-NW P0045 T02280200=
200706290252 METAR KATL 290252Z 06011G22KT 6SM -TSRA FEW020 BKN040CB OVC070 23/18 A3012 RMK AO2 WSHFT 0210 SLP190 FRQ LTGICCG TS OHD-ALQDS MOV N VIS LWR NE-SE P0024 60035 T02280178 51032=
200706290241 SPECI KATL 290241Z 10019G24KT 1 1/2SM R09R/4000VP6000FT +TSRA FEW020 OVC045CB 23/19 A3015 RMK AO2 WSHFT 0210 TWR VIS 2 FRQ LTGICCG TS OHD-ALQDS MOV N P0017=
200706290241 SPECI KATL 290241Z 10019G24KT 1 1/2SM R09R/4000VP6000FT +TSRA FEW020 OVC045CB 23/19 A3015 RMK AO2 WSHFT 0210 TWR VIS 2 FRQ LTGICCG TS OHD-ALQDS MOV N P0017=
200706290226 SPECI KATL 290226Z 04010KT 7SM -TSRA FEW020 BKN045CB OVC070 24/20 A3012 RMK AO2 WSHFT 0210 FRQ LTGICCG TS N-E-S MOV N P0000=
200706290226 SPECI KATL 290226Z 04010KT 7SM -TSRA FEW020 BKN045CB OVC070 24/20 A3012 RMK AO2 WSHFT 0210 FRQ LTGICCG TS N-E-S MOV N P0000=
200706290217 SPECI KATL 290217Z 01016KT 2SM +TSRA BKN050CB OVC070 24/20 A3011 RMK AO2 FRQ LTGICCG TS NE-OHD-S MOV N P0000=
200706290217 SPECI KATL 290217Z 01016KT 2SM +TSRA BKN050CB OVC070 24/20 A3011 RMK AO2 FRQ LTGICCG TS NE-OHD-S MOV N P0000=
200706290152 METAR KATL 290152Z 01012KT 7SM -TSRA BKN055CB OVC070 24/20 A3010 RMK AO2 RAB19 SLP180 FRQ LTGICCG TS S AND NW MOV N P0011 T02390200=
200706290052 METAR KATL 290052Z 33010KT 10SM TS SCT055CB BKN090 BKN150 27/18 A3007 RMK AO2 WSHFT 0012 SLP170 FRQ LTGCGIC TS VC N-NE AND NW MOV N TCU ALQDS T02670183=
200706290028 SPECI KATL 290028Z 35016G21KT 10SM TS FEW050CB BKN065 BKN140 BKN200 28/18 A3006 RMK AO2 WSHFT 0012 FRQ LTGCGIC TS VC NW-N MOV N=
200706290028 SPECI KATL 290028Z 35016G21KT 10SM TS FEW050CB BKN065 BKN140 BKN200 28/18 A3006 RMK AO2 WSHFT 0012 FRQ LTGCGIC TS VC NW-N MOV N=
200706282352 METAR KATL 282352Z 21009KT 10SM TS FEW060CB SCT140 SCT200 32/18 A3003 RMK AO2 TSB50 SLP156 OCNL LTGCG TS VC NW AND DSNT SW MOV N TCU VC E T03220178 10344 20322 55003=
200706282350 SPECI KATL 282350Z 21009KT 10SM TS FEW060CB SCT140 SCT200 32/18 A3003 RMK AO2 TSB50 OCNL LTGCG TS VC NW AND DSNT SW MOV N TCU VC E=
200706282350 SPECI KATL 282350Z 21009KT 10SM TS FEW060CB SCT140 SCT200 32/18 A3003 RMK AO2 TSB50 OCNL LTGCG TS VC NW AND DSNT SW MOV N TCU VC E=
200706282252 METAR KATL 282252Z 21010KT 10SM SCT065TCU SCT200 33/18 A3002 RMK AO2 SLP152 TCU SW-NW AND DSNT N-NE T03280178=
200706282152 METAR KATL 282152Z 21005G17KT 10SM SCT065TCU 34/17 A3001 RMK AO2 SLP150 TCU OHD AND DSNT SW-NW MDT CU SE AND SW T03390172=
200706282052 METAR KATL 282052Z VRB05KT 10SM SCT070 34/18 A3004 RMK AO2 SLP158 TCU DSNT NW-N T03440178 56023=
200706281952 METAR KATL 281952Z 14007KT 10SM SCT065TCU SCT250 34/19 A3005 RMK AO2 SLP163 CB DSNT NW TCU W NW T03390189=
200706281852 METAR KATL 281852Z 17005KT 10SM SCT060TCU 33/19 A3008 RMK AO2 SLP172 TCU E SE NW T03330194=
200706281752 METAR KATL 281752Z 15007KT 110V170 10SM BKN060TCU 33/19 A3011 RMK AO2 SLP182 TCU OHD NE E NW MDT CU ALQDS T03330189 10333 20239 58015=
200706281652 METAR KATL 281652Z 09006KT 10SM SCT050 33/19 A3013 RMK AO2 SLP191 MDT CU ALQDS T03280194=
200706281552 METAR KATL 281552Z 18007KT 10SM SCT050 31/21 A3015 RMK AO2 SLP197 MDT CU ALQDS T03060206=
200706281452 METAR KATL 281452Z 26005KT 10SM FEW035 30/21 A3015 RMK AO2 SLP198 T03000211 50002=
200706281352 METAR KATL 281352Z 19003KT 10SM FEW065 SCT120 SCT250 28/22 A3015 RMK AO2 SLP199 T02780217=
200706281252 METAR KATL 281252Z 17004KT 8SM FEW065 25/21 A3015 RMK AO2 SLP199 T02500211=
200706281152 METAR KATL 281152Z 19006KT 8SM FEW075 SCT250 24/21 A3015 RMK AO2 SLP197 T02390206 10261 20233 53008=
200706281052 METAR KATL 281052Z 16005KT 9SM FEW075 SCT250 23/20 A3013 RMK AO2 SLP191 T02330200=
200706280952 METAR KATL 280952Z 18005KT 10SM FEW075 SCT200 24/20 A3012 RMK AO2 SLP189 T02390200 $=
200706280852 METAR KATL 280852Z 16006KT 10SM FEW080 SCT200 24/20 A3012 RMK AO2 SLP188 T02440200 56008 $=
200706280752 METAR KATL 280752Z 16006KT 10SM FEW080 SCT200 25/20 A3012 RMK AO2 SLP188 T02500200 $=
200706280652 METAR KATL 280652Z 16005KT 10SM FEW080 26/20 A3013 RMK AO2 SLP192 T02560200 $=
200706280552 METAR KATL 280552Z 16005KT 10SM FEW080 26/19 A3015 RMK AO2 SLP196 T02610189 10317 20261 57005 $=
200706280452 METAR KATL 280452Z 15004KT 10SM FEW080 27/18 A3016 RMK AO2 SLP200 T02720178 403330233 $=
200706280352 METAR KATL 280352Z 15005KT 10SM FEW250 28/17 A3015 RMK AO2 SLP198 T02780172 $=
200706280252 METAR KATL 280252Z 14003KT 10SM SCT080 BKN250 29/17 A3016 RMK AO2 SLP202 T02940167 53018 $=
200706280152 METAR KATL 280152Z 19004KT 10SM FEW150 SCT250 29/17 A3014 RMK AO2 SLP193 T02940167 $=
200706280052 METAR KATL 280052Z 00000KT 10SM FEW060 SCT250 31/16 A3012 RMK AO2 SLP187 T03060161 $=
200706272352 METAR KATL 272352Z 15007KT 10SM FEW060 32/16 A3011 RMK AO2 SLP184 T03170161 10333 20311 55010=
200706272252 METAR KATL 272252Z 17007KT 10SM FEW060 32/17 A3010 RMK AO2 SLP182 MDT CU W-NW T03220167=
200706272152 METAR KATL 272152Z 20005KT 10SM FEW060 SCT250 33/17 A3012 RMK AO2 SLP188 MDT CU VC SE T03280167=
200706272052 SPECI KATL 272052Z 12008KT 10SM FEW060 SCT100 SCT250 33/17 A3014 RMK AO2 SLP194 T03280172 58026=
200706271952 METAR KATL 271952Z VRB06KT 10SM SCT055TCU 32/19 A3017 RMK AO2 SLP203 TCU=
200706271852 METAR KATL 271852Z 14006KT 10SM SCT050TCU 32/19 A3019 RMK AO2 SLP212 TCU NW-N T03170194=
200706271752 METAR KATL 271752Z 15008KT 10SM SCT045TCU 32/20 A3022 RMK AO2 SLP221 TCU S-NW T03170200 10317 20239 58009=
200706271652 METAR KATL 271652Z 19003KT 10SM BKN040TCU 31/21 A3024 RMK AO2 SLP228 TCU E AND W-NW T03060206=
200706271552 METAR KATL 271552Z 14005KT 10SM SCT040 29/21 A3025 RMK AO2 SLP230 MDT CU SW-NW T02940206=
200706271452 METAR KATL 271452Z 00000KT 10SM FEW030 SCT060 28/21 A3024 RMK AO2 SLP230 T02780206 50005=
200706271352 METAR KATL 271352Z 00000KT 10SM FEW030 SCT250 27/19 A3025 RMK AO2 SLP232 T02720194=
200706271252 METAR KATL 271252Z 16004KT 8SM FEW250 25/21 A3024 RMK AO2 SLP230 T02500211=
200706271152 METAR KATL 271152Z 14004KT 10SM FEW250 24/19 A3023 RMK AO2 SLP224 T02390194 10256 20233 53012=
200706271052 METAR KATL 271052Z 14004KT 10SM FEW250 23/19 A3021 RMK AO2 SLP219 T02330189=
200706270952 METAR KATL 270952Z 14003KT 10SM CLR 23/19 A3019 RMK AO2 SLP212 T02330189=
200706270852 METAR KATL 270852Z 13004KT 10SM CLR 24/18 A3019 RMK AO2 SLP212 T02390183 58010=
200706270752 METAR KATL 270752Z 12004KT 10SM CLR 24/18 A3021 RMK AO2 SLP217 T02440183=
200706270652 METAR KATL 270652Z 15004KT 10SM FEW060 24/18 A3022 RMK AO2 SLP220 T02440178=
200706270552 METAR KATL 270552Z 14006KT 10SM FEW060 26/17 A3022 RMK AO2 SLP223 10317 20256 T02560172 58005=
200706270452 METAR KATL 270452Z 14005KT 10SM FEW200 27/17 A3024 RMK AO2 SLP230 T02720167 403280211=
200706270352 METAR KATL 270352Z 12004KT 10SM FEW200 28/17 A3025 RMK AO2 SLP230 T02780167=
200706270252 METAR KATL 270252Z 13003KT 10SM SCT200 28/16 A3024 RMK AO2 SLP229 T02830161 53012=
200706270152 METAR KATL 270152Z 15006KT 10SM SCT150 BKN200 29/16 A3023 RMK AO2 SLP224 T02890161=
200706270052 METAR KATL 270052Z 15005KT 10SM FEW180 SCT250 31/16 A3021 RMK AO2 SLP221 T03060156=
200706262352 METAR KATL 262352Z 15008KT 10SM FEW060 SCT200 32/16 A3020 RMK AO2 SLP217 MDT CU E-SE T03170161 10328 20306 55005=
200706262252 METAR KATL 262252Z 17007KT 10SM FEW060 32/17 A3019 RMK AO2 SLP214 MDT CU W T03220172=
200706262152 METAR KATL 262152Z 16009G15KT 10SM SCT060TCU SCT200 33/18 A3020 RMK AO2 SLP216 TCU VC SW MDT CU W-N T03280178=
200706262052 METAR KATL 262052Z 14006KT 10SM FEW050TCU 32/19 A3022 RMK AO2 SLP222 TCU NW T03220189 57027=
200706261952 METAR KATL 261952Z 11007KT 10SM SCT050 BKN060 31/20 A3025 RMK AO2 SLP232 MDT CU NE-SW T03110200=
200706261852 METAR KATL 261852Z VRB03KT 10SM SCT047 31/19 A3027 RMK AO2 SLP241 T03060194=
200706261752 METAR KATL 261752Z 09013G16KT 9SM FEW041 SCT150 32/18 A3030 RMK AO2 SLP251 T03170183 10317 20217 58007=
200706261652 METAR KATL 261652Z 17006KT 8SM SCT030 BKN150 29/19 A3031 RMK AO2 SLP255 T02890194=
200706261552 METAR KATL 261552Z 15005KT 7SM FEW030 BKN150 27/20 A3032 RMK AO2 SLP258 T02720200=
200706261452 METAR KATL 261452Z 11004KT 7SM FEW020 BKN150 BKN250 25/19 A3032 RMK AO2 SLP260 T02500194 51006=
200706261352 METAR KATL 261352Z 13005KT 7SM FEW020 BKN150 BKN250 23/19 A3032 RMK AO2 SLP259 T02330194=
200706261252 METAR KATL 261252Z 10006KT 7SM OVC140 23/20 A3031 RMK AO2 SLP258 T02280200=
200706261152 METAR KATL 261152Z 08007KT 7SM FEW085 OVC140 22/20 A3030 RMK AO2 SLP254 70002 T02170200 10222 20211 53011=
200706261052 METAR KATL 261052Z 09006KT 8SM FEW085 OVC140 22/19 A3029 RMK AO2 SLP248 T02170194=
200706260952 METAR KATL 260952Z 08009KT 8SM SCT085 OVC140 22/19 A3028 RMK AO2 SLP243 BINOVC T02170194 $=
200706260852 METAR KATL 260852Z 09008KT 9SM FEW100 OVC140 22/19 A3027 RMK AO2 SLP240 T02170194 53000 $=
200706260752 METAR KATL 260752Z 09008KT 10SM FEW100 OVC140 22/19 A3026 RMK AO2 SLP239 T02170189 $=
200706260652 METAR KATL 260652Z 08007KT 10SM FEW100 OVC140 22/19 A3027 RMK AO2 SLP238 T02170189 $=
200706260552 METAR KATL 260552Z 08009KT 10SM FEW100 OVC140 22/19 A3027 RMK AO2 SLP239 60001 T02220189 10239 20211 51005 $=
200706260452 METAR KATL 260452Z COR 08008KT 10SM FEW100 BKN140 OVC200 22/17 A3027 RMK AO2 SLP239 403330211 T02220167 $=
200706260352 METAR KATL 260352Z 10007KT 10SM FEW065 BKN140 OVC200 23/18 A3027 RMK AO2 SLP239 T02280183 $=
200706260252 METAR KATL 260252Z 08007KT 10SM FEW060 SCT120 BKN150 OVC200 23/18 A3025 RMK AO2 RAE0157 SLP234 P0000 60001 T02330183 53006 $=
200706260152 METAR KATL 260152Z 04010KT 10SM -RA FEW060 SCT095 BKN120 OVC150 24/17 A3022 RMK AO2 RAB32 SLP225 P0000 T02390172 $=
200706260052 METAR KATL 260052Z 31006KT 9SM FEW030 SCT120 BKN150 OVC200 22/19 A3023 RMK AO2 RAE26 SLP227 P0001 T02220189 $=
200706252352 METAR KATL 252352Z 21006KT 9SM -RA FEW035 BKN090 BKN120 OVC150 23/19 A3024 RMK AO2 SLP230 P0000 60001 T02280189 10328 20228 53025 PNO $=
200706252252 METAR KATL 252252Z 16003KT 8SM -RA FEW035 SCT090 BKN140 OVC200 24/19 A3019 RMK AO2 PK WND 19027/2208 WSHFT 2159 TSE37RAB10 SLP214 TS MOV NW P0001 T02440189 PNO $=
200706252238 SPECI KATL 252238Z 20008KT 9SM FEW035 SCT090 BKN140 OVC200 24/19 A3018 RMK AO2 PK WND 19027/2208 WSHFT 2159 TSE37RAB10E37 TS MOV NW P0000 PNO $=
200706252238 SPECI KATL 252238Z 20008KT 9SM FEW035 SCT090 BKN140 OVC200 24/19 A3018 RMK AO2 PK WND 19027/2208 WSHFT 2159 TSE37RAB10E37 TS MOV NW P0000 PNO $=
200706252216 SPECI KATL 252216Z 19012G27KT 8SM -TSRA FEW035CB SCT075 BKN150 OVC200 24/18 A3018 RMK AO2 PK WND 19027/2208 WSHFT 2159 RAB10 OCNL LTGCG TS VC SW-W MOV NW P0000 PNO $=
200706252216 SPECI KATL 252216Z 19012G27KT 8SM -TSRA FEW035CB SCT075 BKN150 OVC200 24/18 A3018 RMK AO2 PK WND 19027/2208 WSHFT 2159 RAB10 OCNL LTGCG TS VC SW-W MOV NW P0000 PNO $=
200706252152 METAR KATL 252152Z 12010KT 10SM TS FEW040CB SCT100 BKN150 OVC200 28/18 A3018 RMK AO2 TSB39 SLP208 OCNL LTGCG TS VC SE AND DSNT S-SW MOV NW T02780178=
200706252140 SPECI KATL 252140Z 08012KT 10SM TS FEW040CB SCT100 BKN150 OVC200 27/18 A3018 RMK AO2 TSB39 OCNL LTGCG TS VC SE-S MOV NW TCU SW=
200706252140 SPECI KATL 252140Z 08012KT 10SM TS FEW040CB SCT100 BKN150 OVC200 27/18 A3018 RMK AO2 TSB39 OCNL LTGCG TS VC SE-S MOV NW TCU SW=
200706252052 METAR KATL 252052Z 08004KT 8SM BKN120 BKN200 30/17 A3016 RMK AO2 RAE19 SLP202 P0000 60000 T03000167 56016=
200706251952 METAR KATL 251952Z 21013G21KT 8SM -RA FEW045 SCT100 BKN150 29/16 A3017 RMK AO2 WSHFT 1919 RAB50 SLP206 P0000 T02890156=
200706251939 SPECI KATL 251939Z 23014KT 8SM FEW060 SCT080 SCT100 31/14 A3017 RMK AO2 WSHFT 1919=
200706251939 SPECI KATL 251939Z 23014KT 8SM FEW060 SCT080 SCT100 31/14 A3017 RMK AO2 WSHFT 1919=
200706251852 METAR KATL 251852Z 15005KT 8SM FEW021 SCT095 BKN150 32/17 A3018 RMK AO2 RAB32E44 SLP207 P0000 T03220167=
200706251752 METAR KATL 251752Z 17007KT 7SM FEW065 BKN150 32/16 A3021 RMK AO2 SLP217 T03220161 10333 20244 58007=
200706251652 METAR KATL 251652Z 14008KT 120V180 6SM HZ FEW095 BKN150 32/17 A3023 RMK AO2 SLP224 T03220167=
200706251552 METAR KATL 251552Z VRB05KT 6SM HZ BKN150 32/17 A3023 RMK AO2 SLP225 T03170172 $=
200706251452 METAR KATL 251452Z 06004KT 6SM HZ BKN150 29/17 A3023 RMK AO2 SLP225 T02890172 51016 $=
200706251352 METAR KATL 251352Z 14003KT 5SM HZ FEW095 OVC150 26/18 A3023 RMK AO2 SLP224 T02610178 PNO $=
200706251252 METAR KATL 251252Z 14003KT 7SM FEW070 OVC150 27/19 A3021 RMK AO2 SLP217 BINOVC T02670189=
200706251152 METAR KATL 251152Z 33003KT 7SM FEW070 OVC150 24/18 A3018 RMK AO2 SLP209 BINOVC T02390183 10250 20233 53017=
200706251052 METAR KATL 251052Z 30003KT 8SM FEW085 OVC150 23/18 A3016 RMK AO2 SLP201 T02330183=
200706250952 METAR KATL 250952Z 32004KT 8SM FEW085 OVC150 24/18 A3014 RMK AO2 SLP193 T02390183=
200706250852 METAR KATL 250852Z VRB04KT 8SM FEW085 BKN150 23/18 A3013 RMK AO2 SLP191 T02330183 54000=
200706250752 METAR KATL 250752Z 00000KT 8SM FEW085 24/18 A3013 RMK AO2 SLP190 T02390183=
200706250652 METAR KATL 250652Z 00000KT 8SM FEW085 24/18 A3013 RMK AO2 SLP189 T02440183=
200706250552 METAR KATL 250552Z 29006KT 9SM FEW085 25/18 A3013 RMK AO2 SLP189 T02500178 10328 20250 51016=
200706250452 METAR KATL 250452Z 28007KT 9SM FEW080 SCT150 26/16 A3012 RMK AO2 SLP187 T02610156 403500222=
200706250352 METAR KATL 250352Z 00000KT 9SM FEW150 28/16 A3011 RMK AO2 SLP182 T02780156=
200706250252 METAR KATL 250252Z 24003KT 9SM SCT150 29/16 A3008 RMK AO2 SLP173 T02890156 53017=
200706250152 METAR KATL 250152Z 22003KT 8SM FEW150 SCT200 31/15 A3007 RMK AO2 SLP168 T03060150=
200706250052 METAR KATL 250052Z 25004KT 8SM FEW150 SCT200 SCT250 31/14 A3004 RMK AO2 SLP160 T03110139=
200706242352 METAR KATL 242352Z COR 24008KT 9SM SCT150 33/13 A3003 RMK AO2 SLP157 CB DSNT N MOV NE T03280133 10350 20328 53006=
200706242252 METAR KATL 242252Z 19005KT 9SM FEW090 SCT150 34/12 A3001 RMK AO2 SLP151 CB DSNT NW MOV NE T03390117=
200706242152 METAR KATL 242152Z 21011KT 10SM FEW095 SCT150 35/11 A3000 RMK AO2 SLP147 T03500106=
200706242052 SPECI KATL 242052Z 20012G15KT 8SM FEW085 34/11 A3001 RMK AO2 SLP150 T03440106 58014=
200706241952 METAR KATL 241952Z 19006G14KT 8SM FEW080 SCT250 34/11 A3003 RMK AO2 SLP155 T03390111=
200706241852 METAR KATL 241852Z 20008G15KT 8SM FEW080 SCT250 34/12 A3004 RMK AO2 SLP159 T03440117=
200706241752 METAR KATL 241752Z 22007KT 9SM FEW080 SCT250 34/11 A3005 RMK AO2 SLP164 T03390111 10344 20239 58003=
200706241652 METAR KATL 241652Z 19007KT 8SM FEW070 SCT250 33/12 A3006 RMK AO2 SLP166 T03280122=
200706241552 METAR KATL 241552Z 31003KT 8SM FEW250 32/16 A3006 RMK AO2 SLP167 T03220156=
200706241452 METAR KATL 241452Z 32003KT 8SM FEW250 31/16 A3006 RMK AO2 SLP167 T03060156 51013=
200706241352 METAR KATL 241352Z 33004KT 8SM FEW250 29/14 A3005 RMK AO2 SLP164 T02890144=
200706241252 METAR KATL 241252Z 35006KT 7SM FEW250 27/14 A3004 RMK AO2 SLP159 T02720144=
200706241152 METAR KATL 241152Z 00000KT 7SM FEW250 24/16 A3002 RMK AO2 SLP154 T02390156 10261 20222 51024=
200706241052 METAR KATL 241052Z 32004KT 8SM FEW250 23/14 A3000 RMK AO2 SLP146 T02330144=
200706240952 METAR KATL 240952Z 00000KT 9SM FEW250 23/14 A2998 RMK AO2 SLP139 T02280144=
200706240852 METAR KATL 240852Z 20003KT 8SM CLR 23/14 A2995 RMK AO2 SLP130 T02330144 53001=
200706240752 METAR KATL 240752Z 00000KT 9SM CLR 24/14 A2994 RMK AO2 SLP126 T02440139=
200706240652 METAR KATL 240652Z 23003KT 10SM FEW250 26/14 A2994 RMK AO2 SLP125 T02560139=
200706240552 METAR KATL 240552Z 23006KT 10SM FEW250 26/13 A2995 RMK AO2 SLP128 T02610133 10333 20194 50001=
200706240452 METAR KATL 240452Z 23005KT 10SM FEW250 27/13 A2995 RMK AO2 SLP130 T02670128 403610194=
200706240352 METAR KATL 240352Z 21004KT 10SM FEW250 28/13 A2995 RMK AO2 SLP128 T02780128=
200706240252 METAR KATL 240252Z 24004KT 10SM CLR 28/12 A2995 RMK AO2 SLP127 T02830122 51014=
200706240152 METAR KATL 240152Z 22005KT 10SM FEW250 29/12 A2993 RMK AO2 SLP123 T02940117=
200706240052 METAR KATL 240052Z 21007KT 9SM FEW090 SCT250 32/11 A2992 RMK AO2 SLP118 T03170111=
200706232352 METAR KATL 232352Z 19006KT 9SM FEW090 SCT250 33/10 A2990 RMK AO2 SLP113 T03330100 10361 20333 55003=
200706232252 METAR KATL 232252Z 21008KT 9SM FEW095 34/10 A2990 RMK AO2 SLP111 T03390100=
200706232152 METAR KATL 232152Z 18007KT 10SM FEW090 SCT150 SCT250 34/10 A2990 RMK AO2 SLP113 T03440100=
200706232052 METAR KATL 232052Z 00000KT 10SM SCT100 BKN150 34/09 A2991 RMK AO2 SLP117 T03440094 58016=
200706231952 METAR KATL 231952Z VRB03KT 10SM SCT090 SCT100 BKN150 35/11 A2993 RMK AO2 SLP123 T03500106=
200706231852 METAR KATL 231852Z 35004KT 10SM SCT110 BKN150 35/08 A2994 RMK AO2 SLP127 T03500083=
200706231752 METAR KATL 231752Z 00000KT 10SM SCT095 BKN150 33/11 A2996 RMK AO2 SLP133 T03330106 10344 20244 58013=
200706231652 METAR KATL 231652Z VRB06KT 10SM SCT090 SCT150 34/12 A2998 RMK AO2 SLP138 T03390117=
200706231552 METAR KATL 231552Z 00000KT 10SM FEW085 SCT150 33/12 A2999 RMK AO2 SLP143 T03280117=
200706231452 METAR KATL 231452Z 03006KT 10SM FEW150 SCT200 32/14 A3000 RMK AO2 SLP145 T03170139 50002=
200706231352 METAR KATL 231352Z 07004KT 10SM FEW150 SCT200 31/13 A3001 RMK AO2 SLP148 T03060133=
200706231252 METAR KATL 231252Z VRB03KT 10SM FEW250 29/13 A3000 RMK AO2 SLP146 T02890133=
200706231152 METAR KATL 231152Z 00000KT 10SM FEW250 24/13 A2999 RMK AO2 SLP145 T02440133 10250 20222 53014=
200706231052 METAR KATL 231052Z 00000KT 10SM FEW250 23/12 A2998 RMK AO2 SLP139 T02330117=
200706230952 METAR KATL 230952Z 00000KT 10SM FEW250 23/12 A2996 RMK AO2 SLP134 T02280117=
200706230852 METAR KATL 230852Z 00000KT 10SM CLR 23/12 A2995 RMK AO2 SLP130 T02280117 58002=
200706230752 METAR KATL 230752Z 32006KT 10SM CLR 23/12 A2996 RMK AO2 SLP133 T02280117=
200706230652 METAR KATL 230652Z 29004KT 10SM CLR 24/12 A2996 RMK AO2 SLP132 T02390122=
200706230552 METAR KATL 230552Z 00000KT 10SM CLR 24/12 A2996 RMK AO2 SLP132 T02440122 10322 20244 53001=
200706230452 METAR KATL 230452Z 00000KT 10SM CLR 26/12 A2996 RMK AO2 SLP133 T02560117 403500206=
200706230352 METAR KATL 230352Z 01004KT 10SM CLR 28/11 A2995 RMK AO2 SLP130 T02830106=
200706230252 METAR KATL 230252Z 02008KT 10SM CLR 29/10 A2996 RMK AO2 SLP131 T02940100 53003=
200706230152 METAR KATL 230152Z 33004KT 10SM FEW250 30/09 A2995 RMK AO2 SLP129 T03000094=
200706230052 METAR KATL 230052Z 31005KT 10SM FEW250 31/08 A2995 RMK AO2 SLP129 T03060083=
200706222352 METAR KATL 222352Z 32006KT 10SM FEW250 32/08 A2995 RMK AO2 SLP128 T03220083 10350 20322 56010=
200706222252 METAR KATL 222252Z VRB03KT 10SM FEW250 33/09 A2995 RMK AO2 SLP131 T03280089=
200706222152 METAR KATL 222152Z 29010G15KT 10SM FEW250 34/11 A2996 RMK AO2 SLP133 T03390106=
200706222052 METAR KATL 222052Z 34007KT 10SM FEW200 SCT300 34/12 A2998 RMK AO2 SLP139 T03390122 57018=
200706221952 METAR KATL 221952Z COR 33012G18KT 10SM FEW200 SCT300 34/12 A2999 RMK AO2 SLP145 T03440117=
200706221852 METAR KATL 221852Z VRB05G14KT 10SM FEW200 33/09 A3001 RMK AO2 SLP151 T03330094=
200706221752 METAR KATL 221752Z 35010G15KT 10SM FEW200 33/11 A3003 RMK AO2 SLP157 T03330106 10333 20228 58016=
200706221652 METAR KATL 221652Z 23004KT 10SM FEW200 31/13 A3005 RMK AO2 SLP164 T03110128=
200706221552 METAR KATL 221552Z 30006KT 10SM FEW200 30/13 A3007 RMK AO2 SLP170 T03000133=
200706221452 METAR KATL 221452Z 29007KT 10SM FEW200 28/15 A3008 RMK AO2 SLP174 T02830150 58001=
200706221352 METAR KATL 221352Z 26008KT 10SM FEW200 27/14 A3009 RMK AO2 SLP177 T02670139=
200706221252 METAR KATL 221252Z 27005KT 10SM FEW250 24/16 A3008 RMK AO2 SLP176 T02440156=
200706221152 METAR KATL 221152Z 28004KT 10SM FEW250 23/16 A3008 RMK AO2 SLP176 T02280156 10228 20206 53003=
200706221052 METAR KATL 221052Z 24003KT 10SM FEW250 21/14 A3008 RMK AO2 SLP173 T02110139=
200706220952 METAR KATL 220952Z 23005KT 10SM CLR 21/13 A3007 RMK AO2 SLP173 T02110133=
200706220852 METAR KATL 220852Z 00000KT 10SM CLR 22/13 A3007 RMK AO2 SLP173 T02170128 58000=
200706220752 METAR KATL 220752Z 27003KT 10SM CLR 21/13 A3007 RMK AO2 SLP173 T02110128=
200706220652 METAR KATL 220652Z 29004KT 10SM CLR 22/13 A3008 RMK AO2 SLP173 T02220128=
200706220552 METAR KATL 220552Z 00000KT 10SM CLR 22/13 A3008 RMK AO2 SLP173 T02220133 10306 20217 53000=
200706220452 METAR KATL 220452Z 00000KT 10SM CLR 23/13 A3007 RMK AO2 SLP172 T02330133 403220222=
200706220352 METAR KATL 220352Z 16003KT 10SM CLR 24/13 A3007 RMK AO2 SLP173 T02440128=
200706220252 METAR KATL 220252Z 16003KT 10SM CLR 26/13 A3007 RMK AO2 SLP173 T02560128 51010=
200706220152 METAR KATL 220152Z 15007KT 10SM CLR 28/11 A3007 RMK AO2 SLP171 T02780111=
200706220052 METAR KATL 220052Z 15003KT 10SM FEW200 29/10 A3006 RMK AO2 SLP167 T02940100=
200706212352 METAR KATL 212352Z 09006KT 10SM FEW200 30/10 A3004 RMK AO2 SLP163 T03000100 10322 20294 55004=
200706212252 METAR KATL 212252Z 11005KT 10SM FEW200 31/09 A3004 RMK AO2 SLP161 T03110094=
200706212152 METAR KATL 212152Z 09004KT 10SM SCT200 32/11 A3004 RMK AO2 SLP162 T03170106=
200706212052 METAR KATL 212052Z 09004KT 10SM FEW080 SCT180 BKN250 32/13 A3006 RMK AO2 SLP167 T03170128 56015=
200706211952 METAR KATL 211952Z 02010KT 10SM FEW070 SCT180 BKN250 31/13 A3007 RMK AO2 SLP173 T03110128=
200706211852 METAR KATL 211852Z 06010KT 10SM FEW070 SCT180 SCT250 31/13 A3009 RMK AO2 SLP176 T03110133=
200706211752 METAR KATL 211752Z 11006KT 10SM FEW060 SCT180 SCT250 30/14 A3010 RMK AO2 SLP183 T03000144 10306 20233 58003=
200706211652 METAR KATL 211652Z VRB05KT 10SM FEW045 SCT180 BKN250 28/17 A3011 RMK AO2 SLP186 T02830167=
200706211552 METAR KATL 211552Z 12008KT 10SM FEW040 SCT180 BKN250 27/16 A3011 RMK AO2 SLP185 T02720156=
200706211452 METAR KATL 211452Z 11007KT 10SM FEW050 SCT180 BKN250 27/14 A3011 RMK AO2 SLP186 T02720139 50001=
200706211352 METAR KATL 211352Z 08005KT 10SM FEW180 BKN250 BKN280 26/14 A3011 RMK AO2 SLP187 T02560144=
200706211252 METAR KATL 211252Z 06008KT 10SM FEW200 SCT250 24/11 A3012 RMK AO2 SLP189 T02440106=
200706211152 METAR KATL 211152Z 06006KT 10SM FEW200 SCT250 23/11 A3011 RMK AO2 SLP184 T02330111 10244 20222 51014=
200706211052 METAR KATL 211052Z 04008KT 10SM FEW150 SCT200 BKN250 23/11 A3009 RMK AO2 SLP179 T02280106=
200706210952 METAR KATL 210952Z 05006KT 10SM SCT150 SCT200 BKN250 23/11 A3008 RMK AO2 SLP175 T02280111=
200706210852 METAR KATL 210852Z 04006KT 10SM FEW150 SCT200 BKN250 23/11 A3006 RMK AO2 SLP170 T02280111 56002=
200706210752 METAR KATL 210752Z 04007KT 10SM SCT150 BKN200 BKN250 23/13 A3006 RMK AO2 SLP169 T02330128=
200706210652 METAR KATL 210652Z 04008KT 10SM FEW070 BKN200 BKN250 24/13 A3007 RMK AO2 SLP169 T02390128=
200706210552 METAR KATL 210552Z 03008KT 10SM FEW070 SCT200 BKN250 24/12 A3007 RMK AO2 SLP171 T02440122 10294 20239 51007=
200706210452 METAR KATL 210452Z 01009KT 10SM FEW070 BKN250 25/12 A3006 RMK AO2 SLP169 T02500122 403280200=
200706210352 METAR KATL 210352Z 01009KT 10SM FEW070 BKN250 26/13 A3006 RMK AO2 SLP167 T02560128=
200706210252 METAR KATL 210252Z 35008KT 10SM FEW070 BKN250 26/13 A3005 RMK AO2 SLP164 T02610128 53011=
200706210152 METAR KATL 210152Z 35007KT 10SM SCT070 BKN250 27/13 A3004 RMK AO2 SLP162 T02720128=
200706210052 METAR KATL 210052Z 35012KT 10SM FEW070 BKN250 28/13 A3002 RMK AO2 SLP156 T02830128=
200706202352 SPECI KATL 202352Z 35011KT 10SM FEW065 BKN250 29/13 A3002 RMK AO2 SLP154 T02940133 10328 20294 53005=
200706202252 METAR KATL 202252Z 35014G20KT 10SM FEW070 BKN300 31/13 A3001 RMK AO2 SLP151 T03060133=
200706202152 METAR KATL 202152Z 34015KT 10SM FEW070 BKN300 32/14 A3000 RMK AO2 SLP147 T03170144=
200706202052 METAR KATL 202052Z 36015G20KT 10SM FEW070 BKN300 31/12 A3000 RMK AO2 SLP148 T03110117 56008=
200706201952 METAR KATL 201952Z 33008G18KT 10SM FEW070 BKN300 32/14 A3001 RMK AO2 SLP150 T03220144=
200706201852 METAR KATL 201852Z 02014G18KT 10SM FEW060 BKN300 32/16 A3001 RMK AO2 SLP152 T03170156=
200706201752 METAR KATL 201752Z 35011G16KT 10SM SCT047 BKN300 30/18 A3003 RMK AO2 SLP156 T03000183 10306 20206 58009=
200706201652 METAR KATL 201652Z 03010G14KT 10SM FEW050 SCT200 BKN300 29/18 A3004 RMK AO2 SLP162 T02940183=
200706201552 METAR KATL 201552Z 01009KT 10SM FEW040 SCT200 BKN300 29/17 A3006 RMK AO2 SLP168 T02890167=
200706201452 METAR KATL 201452Z 34010KT 10SM FEW030 SCT200 BKN300 27/18 A3005 RMK AO2 SLP168 T02670178 51014=
200706201352 METAR KATL 201352Z 35011KT 10SM FEW200 BKN250 BKN300 24/18 A3004 RMK AO2 SLP162 T02440183=
200706201252 METAR KATL 201252Z COR 34012KT 10SM FEW015 SCT200 BKN250 22/18 A3003 RMK AO2 SLP160 T02220183=
200706201152 METAR KATL 201152Z 33008KT 7SM SCT006 SCT150 BKN200 21/18 A3001 RMK AO2 SLP155 70010 T02060178 10217 20200 51013=
200706201124 SPECI KATL 201124Z 33008KT 9SM FEW008 SCT150 20/18 A3001 RMK AO2=
200706201124 SPECI KATL 201124Z 33008KT 9SM FEW008 SCT150 20/18 A3001 RMK AO2=
200706201052 METAR KATL 201052Z 34008KT 7SM BKN008 BKN110 21/18 A3001 RMK AO2 SLP155 T02060178=
200706201026 SPECI KATL 201026Z 34008KT 7SM SCT010 SCT110 OVC200 20/18 A3000 RMK AO2=
200706201026 SPECI KATL 201026Z 34008KT 7SM SCT010 SCT110 OVC200 20/18 A3000 RMK AO2=
200706200952 METAR KATL 200952Z 33010KT 7SM BKN010 OVC110 21/18 A3000 RMK AO2 SLP151 T02060183=
200706200934 SPECI KATL 200934Z 33010KT 7SM BKN010 OVC110 21/18 A2999 RMK AO2=
200706200934 SPECI KATL 200934Z 33010KT 7SM BKN010 OVC110 21/18 A2999 RMK AO2=
200706200852 METAR KATL 200852Z 31007KT 7SM BKN006 OVC110 21/18 A2997 RMK AO2 SLP142 T02060183 56009=
200706200752 METAR KATL 200752Z 33007G15KT 280V050 7SM BKN006 OVC110 21/19 A2997 RMK AO2 SLP139 T02110189=
200706200718 SPECI KATL 200718Z 34008KT 9SM BKN006 OVC110 21/19 A2998 RMK AO2 CIG 005V011=
200706200718 SPECI KATL 200718Z 34008KT 9SM BKN006 OVC110 21/19 A2998 RMK AO2 CIG 005V011=
200706200652 METAR KATL 200652Z 34007KT 10SM FEW006 BKN110 22/19 A2998 RMK AO2 SLP143 T02170194=
200706200631 SPECI KATL 200631Z 33007KT 10SM FEW006 BKN110 22/19 A2999 RMK AO2=
200706200631 SPECI KATL 200631Z 33007KT 10SM FEW006 BKN110 22/19 A2999 RMK AO2=
200706200552 METAR KATL 200552Z 34007KT 9SM BKN004 BKN010 OVC080 22/20 A3000 RMK AO2 RAE22 SLP149 P0000 60001 T02170200 10228 20217 58004=
200706200550 SPECI KATL 200550Z 33008KT 9SM SCT006 BKN015 OVC080 22/20 A3000 RMK AO2 RAE22 P0000=
200706200550 SPECI KATL 200550Z 33008KT 9SM SCT006 BKN015 OVC080 22/20 A3000 RMK AO2 RAE22 P0000=
200706200536 SPECI KATL 200536Z 32007KT 8SM BKN009 BKN050 OVC070 22/21 A3001 RMK AO2 RAE22 CIG 004V018 P0000=
200706200536 SPECI KATL 200536Z 32007KT 8SM BKN009 BKN050 OVC070 22/21 A3001 RMK AO2 RAE22 CIG 004V018 P0000=
200706200519 SPECI KATL 200519Z 31009KT 9SM -RA FEW007 SCT014 OVC060 22/21 A3001 RMK AO2 P0000=
200706200519 SPECI KATL 200519Z 31009KT 9SM -RA FEW007 SCT014 OVC060 22/21 A3001 RMK AO2 P0000=
200706200512 SPECI KATL 200512Z 06004KT 8SM -RA SCT010 BKN060 OVC075 22/21 A2999 RMK AO2 P0000=
200706200512 SPECI KATL 200512Z 06004KT 8SM -RA SCT010 BKN060 OVC075 22/21 A2999 RMK AO2 P0000=
200706200452 METAR KATL 200452Z COR 34006KT 7SM -RA BKN007 BKN020 OVC060 22/20 A3001 RMK AO2 RAB21 SLP151 P0001 T02220200 403060211=
200706200438 SPECI KATL 200438Z 33006KT 8SM -RA BKN008 BKN030 OVC060 22/20 A3001 RMK AO2 RAB21 P0000=
200706200438 SPECI KATL 200438Z 33006KT 8SM -RA BKN008 BKN030 OVC060 22/20 A3001 RMK AO2 RAB21 P0000=
200706200400 SPECI KATL 200400Z 00000KT 10SM SCT012 BKN055 OVC080 22/19 A3001 RMK AO2=
200706200400 SPECI KATL 200400Z 00000KT 10SM SCT012 BKN055 OVC080 22/19 A3001 RMK AO2=
200706200352 METAR KATL 200352Z 00000KT 10SM BKN012 OVC020 22/20 A3001 RMK AO2 SLP154 T02220200=
200706200325 SPECI KATL 200325Z 00000KT 10SM BKN010 BKN020 OVC090 23/19 A3001 RMK AO2 CIG 008V013=
200706200325 SPECI KATL 200325Z 00000KT 10SM BKN010 BKN020 OVC090 23/19 A3001 RMK AO2 CIG 008V013=
200706200252 METAR KATL 200252Z 28004KT 10SM FEW009 SCT075 BKN095 OVC150 22/19 A3001 RMK AO2 SLP154 60000 T02220194 53004=
200706200215 SPECI KATL 200215Z 31006KT 10SM FEW008 SCT020 BKN040 OVC150 22/19 A3001 RMK AO2=
200706200215 SPECI KATL 200215Z 31006KT 10SM FEW008 SCT020 BKN040 OVC150 22/19 A3001 RMK AO2=
200706200052 METAR KATL 200052Z 19004KT 10SM FEW007 BKN015TCU BKN050 OVC200 23/21 A2999 RMK AO2 SLP145 TCU S-SW T02280206=
200706192352 METAR KATL 192352Z 18004KT 10SM SCT009 BKN018 OVC030 23/21 A3000 RMK AO2 SLP150 60009 T02280206 10306 20211 55007=
200706192334 SPECI KATL 192334Z 19005KT 10SM SCT009 BKN015 BKN150 OVC200 23/21 A3000 RMK AO2=
200706192334 SPECI KATL 192334Z 19005KT 10SM SCT009 BKN015 BKN150 OVC200 23/21 A3000 RMK AO2=
200706192316 SPECI KATL 192316Z 20005KT 10SM FEW008 SCT020 BKN150 OVC200 23/21 A2999 RMK AO2=
200706192316 SPECI KATL 192316Z 20005KT 10SM FEW008 SCT020 BKN150 OVC200 23/21 A2999 RMK AO2=
200706192252 METAR KATL 192252Z 21008KT 10SM BKN008 OVC020 23/21 A2999 RMK AO2 RAE18 SLP148 CIG 005V011 P0000 T02280206=
200706192152 METAR KATL 192152Z 20007KT 10SM -RA BKN009 OVC050 22/20 A3000 RMK AO2 SLP149 CIG 006V011 P0008 T02170200=
200706192126 SPECI KATL 192126Z 18006KT 6SM RA BR FEW007 BKN012 OVC045 22/19 A3001 RMK AO2 P0006=
200706192126 SPECI KATL 192126Z 18006KT 6SM RA BR FEW007 BKN012 OVC045 22/19 A3001 RMK AO2 P0006=
200706192122 SPECI KATL 192122Z 18006KT 6SM RA BR FEW006 SCT010 OVC028 22/19 A3001 RMK AO2 P0006=
200706192122 SPECI KATL 192122Z 18006KT 6SM RA BR FEW006 SCT010 OVC028 22/19 A3001 RMK AO2 P0006=
200706192100 SPECI KATL 192100Z 19008KT 6SM RA BR FEW010 BKN040 OVC100 22/19 A3002 RMK AO2 P0001=
200706192100 SPECI KATL 192100Z 19008KT 6SM RA BR FEW010 BKN040 OVC100 22/19 A3002 RMK AO2 P0001=
200706192052 METAR KATL 192052Z 20009G18KT 8SM -RA FEW010 BKN040 OVC095 22/19 A3002 RMK AO2 PK WND 21034/2010 TSB01E42RAB06 SLP157 TS MOV NE CB DSNT NE NW-N MOV NE SHRA VC ALQDS P0001 60001 T02170194 55004=
200706192043 SPECI KATL 192043Z 22011KT 9SM -RA FEW012 BKN040 OVC060 22/19 A3001 RMK AO2 PK WND 21034/2010 TSB01E42RAB06 TS MOV NE CB DSNT NE-E AND DSNT NW MOV NE SHRA VC ALQDS P0001=
200706192043 SPECI KATL 192043Z 22011KT 9SM -RA FEW012 BKN040 OVC060 22/19 A3001 RMK AO2 PK WND 21034/2010 TSB01E42RAB06 TS MOV NE CB DSNT NE-E AND DSNT NW MOV NE SHRA VC ALQDS P0001=
200706192031 SPECI KATL 192031Z 23016G26KT 9SM -TSRA SCT012CB BKN028 OVC090 22/19 A3002 RMK AO2 PK WND 21034/2010 TSB01RAB06 VIS LWR NE-S SHRA OCNL LTGICCG TS VC NE-SE MOV NE CB VC NE-SE AND DSNT NW MOV NE SHELF CLD N-NE P0000=
200706192031 SPECI KATL 192031Z 23016G26KT 9SM -TSRA SCT012CB BKN028 OVC090 22/19 A3002 RMK AO2 PK WND 21034/2010 TSB01RAB06 VIS LWR NE-S SHRA OCNL LTGICCG TS VC NE-SE MOV NE CB VC NE-SE AND DSNT NW MOV NE SHELF CLD N-NE P0000=
200706192027 SPECI KATL 192027Z 22016G28KT 9SM -TSRA SCT012CB BKN028 OVC090 22/19 A3002 RMK AO2 PK WND 21034/2010 TSB01RAB06 VIS LWR NE-S SHRA OCNL LTGICCG TS VC NE-SE MOV NE CB VC NE-SE AND DSNT NW MOV NE P0000=
200706192027 SPECI KATL 192027Z 22016G28KT 9SM -TSRA SCT012CB BKN028 OVC090 22/19 A3002 RMK AO2 PK WND 21034/2010 TSB01RAB06 VIS LWR NE-S SHRA OCNL LTGICCG TS VC NE-SE MOV NE CB VC NE-SE AND DSNT NW MOV NE P0000=
200706192009 SPECI KATL 192009Z 22026G34KT 8SM -TSRA BKN026CB BKN033 BKN040 28/22 A3002 RMK AO2 PK WND 22034/2009 TSB01RAB06 VIS LWR S-NW SHRA OCNL LTGICCG TS OHD-S-NW MOV NE P0000=
200706192009 SPECI KATL 192009Z 22026G34KT 8SM -TSRA BKN026CB BKN033 BKN040 28/22 A3002 RMK AO2 PK WND 22034/2009 TSB01RAB06 VIS LWR S-NW SHRA OCNL LTGICCG TS OHD-S-NW MOV NE P0000=
200706192001 SPECI KATL 192001Z 21011G18KT 10SM TS FEW033CB BKN085 BKN250 28/22 A3002 RMK AO2 TSB01 OCNL LTGICCG TS VC S-NW MOV NE SHRA VC S-NW=
200706192001 SPECI KATL 192001Z 21011G18KT 10SM TS FEW033CB BKN085 BKN250 28/22 A3002 RMK AO2 TSB01 OCNL LTGICCG TS VC S-NW MOV NE SHRA VC S-NW=
200706191952 METAR KATL 191952Z 18011KT 10SM FEW040 SCT070 BKN090 BKN250 28/22 A3001 RMK AO2 TSE07RAE06 SLP152 CB DSNT NE-E S-NW MOV NE TCU DSNT SE SHRA DSNT NE-E S-NW P0000 T02830222=
200706191922 SPECI KATL 191922Z 15008KT 10SM FEW040 SCT055 BKN070 BKN250 27/20 A3003 RMK AO2 TSE07RAE06 CB DSNT NE E S NW MOV NE SHRA DSNT NE E S NW P0000=
200706191922 SPECI KATL 191922Z 15008KT 10SM FEW040 SCT055 BKN070 BKN250 27/20 A3003 RMK AO2 TSE07RAE06 CB DSNT NE E S NW MOV NE SHRA DSNT NE E S NW P0000=
200706191908 SPECI KATL 191908Z 16011G16KT 10SM BKN040TCU BKN055 BKN070 BKN250 27/21 A3003 RMK AO2 TSE07RAE06 VIS LWR SHRA VC E TS DSIPT CB VC E DSNT S-SW MOV NE TCU OHD AND ALQDS P0000=
200706191908 SPECI KATL 191908Z 16011G16KT 10SM BKN040TCU BKN055 BKN070 BKN250 27/21 A3003 RMK AO2 TSE07RAE06 VIS LWR SHRA VC E TS DSIPT CB VC E DSNT S-SW MOV NE TCU OHD AND ALQDS P0000=
200706191858 SPECI KATL 191858Z 18010G22KT 7SM -TSRA SCT040CB BKN055 BKN070 27/20 A3003 RMK AO2 OCNL LTGICCG TS OHD-SE-E MOV NE P0000=
200706191858 SPECI KATL 191858Z 18010G22KT 7SM -TSRA SCT040CB BKN055 BKN070 27/20 A3003 RMK AO2 OCNL LTGICCG TS OHD-SE-E MOV NE P0000=
200706191852 SPECI KATL 191852Z 18018G23KT 8SM R09R/4000VP6000FT -TSRA BKN040CB BKN050 OVC070 27/19 A3003 RMK AO2 VIS LWR BLDU OVR RWY OCNL LTGICCG TS VC SE SW MOV NE SHRA VC SE SW P0000=
200706191852 SPECI KATL 191852Z 18018G23KT 8SM R09R/4000VP6000FT -TSRA BKN040CB BKN050 OVC070 27/19 A3003 RMK AO2 VIS LWR BLDU OVR RWY OCNL LTGICCG TS VC SE SW MOV NE SHRA VC SE SW P0000=
200706191847 METAR KATL 191847Z 20017G23KT 10SM R09R/4000VP6000FT -TSRA BKN040CB BKN060 BKN070 28/19 A3003=
200706191846 SPECI KATL 191846Z 19019G23KT 10SM R09R/4000VP6000FT -TSRA BKN040CB BKN060 BKN070 28/19 A3003 RMK AO2 TSB46RAB46 OCNL LTGICCG TS VC SE SW MOV NE SHRA VC SE SW P0000=
200706191846 SPECI KATL 191846Z 19019G23KT 10SM R09R/4000VP6000FT -TSRA BKN040CB BKN060 BKN070 28/19 A3003 RMK AO2 TSB46RAB46 OCNL LTGICCG TS VC SE SW MOV NE SHRA VC SE SW P0000=
200706191844 SPECI KATL 191844Z 20018G23KT 1 1/4SM R09R/4000VP6000FT HZ BKN041 BKN060 BKN070 28/18 A3003 RMK AO2 VIS 1/4V5=
200706191844 SPECI KATL 191844Z 20018G23KT 1 1/4SM R09R/4000VP6000FT HZ BKN041 BKN060 BKN070 28/18 A3003 RMK AO2 VIS 1/4V5=
200706191752 METAR KATL 191752Z VRB06KT 10SM FEW040 SCT065 BKN120 BKN250 29/21 A3003 RMK AO2 SLP159 MDT CU ALQDS 60000 T02940206 10300 20228 58030=
200706191652 METAR KATL 191652Z 23010G17KT 10SM FEW030TCU BKN065 BKN100 BKN150 29/21 A3007 RMK AO2 SLP171 TCU S-SW-W T02940206=
200706191552 METAR KATL 191552Z VRB05KT 10SM FEW015 SCT150 SCT180 26/22 A3010 RMK AO2 RAB11E23 SLP182 P0000 T02560217=
200706191507 SPECI KATL 191507Z 21007KT 10SM BKN015 BKN110 BKN150 OVC180 24/22 A3012 RMK AO2=
200706191507 SPECI KATL 191507Z 21007KT 10SM BKN015 BKN110 BKN150 OVC180 24/22 A3012 RMK AO2=
200706191452 METAR KATL 191452Z 22007KT 10SM FEW015 SCT110 BKN150 OVC180 24/20 A3012 RMK AO2 RAE1357B13E24 SLP190 BINOVC DSNT NE AND VC NW P0000 60000 T02440200 51001=
200706191352 METAR KATL 191352Z 24005KT 10SM -RA FEW015 SCT110 BKN150 BKN180 OVC250 24/21 A3013 RMK AO2 RAB46 SLP190 SHRA VC SE-W BINOVC DSNT NE NW P0000 T02440211=
200706191252 METAR KATL 191252Z 27006KT 10SM FEW110 BKN180 23/19 A3013 RMK AO2 SLP191 T02330194=
200706191217 SPECI KATL 191217Z 26005KT 10SM FEW017 BKN110 23/19 A3013 RMK AO2=
200706191217 SPECI KATL 191217Z 26005KT 10SM FEW017 BKN110 23/19 A3013 RMK AO2=
200706191152 METAR KATL 191152Z 25007KT 10SM BKN017 BKN150 OVC200 23/19 A3012 RMK AO2 SLP188 T02280189 10250 20222 53015=
200706191052 METAR KATL 191052Z 24007KT 10SM SCT120 SCT180 BKN250 22/18 A3010 RMK AO2 SLP180 T02220183=
200706190952 METAR KATL 190952Z 22005KT 9SM FEW085 SCT180 BKN250 23/18 A3009 RMK AO2 SLP176 T02280183=
200706190852 METAR KATL 190852Z 19004KT 9SM BKN085 23/18 A3008 RMK AO2 SLP172 T02330178 55002=
200706190752 METAR KATL 190752Z 22004KT 10SM FEW090 BKN250 24/18 A3007 RMK AO2 SLP171 T02390178=
200706190652 METAR KATL 190652Z 26004KT 10SM SCT250 24/18 A3008 RMK AO2 SLP173 T02440178=
200706190552 METAR KATL 190552Z 00000KT 9SM SCT250 25/17 A3008 RMK AO2 SLP174 60000 T02500172 10322 20250 50000=
200706190452 METAR KATL 190452Z 22004KT 10SM SCT250 26/17 A3009 RMK AO2 SLP178 T02610172 403390228=
200706190352 METAR KATL 190352Z 22010KT 10SM FEW065 SCT250 27/16 A3010 RMK AO2 SLP181 T02720161=
200706190252 METAR KATL 190252Z 00000KT 10SM FEW150 SCT250 29/16 A3008 RMK AO2 SLP173 60000 T02890156 51013=
200706190152 METAR KATL 190152Z 21006KT 10SM FEW065 SCT250 30/15 A3007 RMK AO2 SLP169 OCNL LTG DSNT N-NE T03000150=
200706190052 METAR KATL 190052Z 18008KT 10SM SCT070CB BKN090 BKN120 BKN250 31/15 A3006 RMK AO2 RAB06E15 SLP165 CB VC NW-N-NE VCSH NW-N-NE TCU OHD-SW P0000 T03110150=
200706182352 METAR KATL 182352Z 17009G15KT 10SM SCT070TCU BKN085 BKN120 BKN250 32/14 A3004 RMK AO2 SLP161 TCU N-OHD-SW CB DSNT NW-N T03220144 10339 20322 53002=
200706182252 METAR KATL 182252Z 21008KT 10SM FEW070 BKN250 33/14 A3003 RMK AO2 SLP157 MDT CU VC SE-S AND W-NW T03280144=
200706182152 METAR KATL 182152Z 16012G16KT 10SM FEW070 BKN250 33/14 A3002 RMK AO2 SLP155 MDT CU W-NW T03330144=
200706182052 METAR KATL 182052Z 16010G15KT 9SM FEW065 BKN240 33/16 A3004 RMK AO2 SLP159 T03280161 56025=
200706181952 METAR KATL 181952Z 00000KT 10SM FEW065TCU SCT100 BKN240 33/17 A3006 RMK AO2 SLP167 TCU NW T03330167=
200706181852 METAR KATL 181852Z 22011KT 9SM SCT065 33/17 A3008 RMK AO2 SLP174 T03330167=
200706181752 METAR KATL 181752Z 10005KT 10SM SCT060 SCT240 32/18 A3011 RMK AO2 SLP184 T03220183 10333 20233 58007=
200706181652 METAR KATL 181652Z 21009KT 10SM FEW055 SCT240 32/18 A3013 RMK A02 SLP190 T03170183=
200706181552 METAR KATL 181552Z 30007KT 10SM FEW050 SCT100 SCT240 31/19 A3014 A02 SLP192 T03110194=
200706181452 METAR KATL 181452Z 31007KT 10SM FEW100 SCT240 29/20 A3013 AO2 SLP191 202940200 50003=
200706181352 METAR KATL 181352Z 28008KT 10SM FEW110 SCT200 28/18 A3014 RMK AO2 SLP192 T02830178=
200706181252 METAR KATL 181252Z 27006KT 9SM BKN200 26/18 A3014 RMK AO2 SLP193 T02560178=
200706181152 METAR KATL 181152Z 22005KT 6SM HZ FEW150 SCT200 23/18 A3012 RMK AO2 SLP189 T02330178 10272 20228 51019 $=
200706181052 METAR KATL 181052Z 19004KT 6SM HZ FEW085 BKN200 23/18 A3010 RMK AO2 SLP182 T02330178 $=
200706180952 METAR KATL 180952Z 21005KT 7SM BKN085 BKN110 24/18 A3009 RMK AO2 SLP176 T02390178 $=
200706180852 METAR KATL 180852Z 13003KT 7SM SCT085 BKN120 25/18 A3007 RMK AO2 SLP168 T02500178 55004 $=
200706180752 METAR KATL 180752Z 14003KT 7SM BKN110 26/18 A3006 RMK AO2 SLP167 T02560178 $=
200706180652 METAR KATL 180652Z 15006KT 8SM FEW090 BKN110 26/18 A3007 RMK AO2 SLP168 T02610178 $=
200706180552 METAR KATL 180552Z 12004KT 8SM BKN110 27/17 A3008 RMK AO2 SLP172 60000 T02720172 10322 20261 50001 $=
200706180452 METAR KATL 180452Z 11004KT 6SM HZ SCT075 BKN110 27/17 A3009 RMK AO2 RAE03 SLP176 CB DSNT E MOV E P0000 T02720172 403440217 $=
200706180352 METAR KATL 180352Z COR 01007KT 8SM -RA BKN070CB BKN095 OVC150 28/16 A3008 RMK AO2 TSE33RAB35 SLP174 CB VC N-OHD-E-SE AND DSNT=
200706180335 SPECI KATL 180335Z 02009KT 7SM -RA BKN070CB BKN150 27/16 A3008 RMK AO2 TSE33RAB35 CB VC N-NE-OHD-E AND DSNT NW-W MOV SE SHRA VC N-NE-E P0000 $=
200706180335 SPECI KATL 180335Z 02009KT 7SM -RA BKN070CB BKN150 27/16 A3008 RMK AO2 TSE33RAB35 CB VC N-NE-OHD-E AND DSNT NW-W MOV SE SHRA VC N-NE-E P0000 $=
200706180252 METAR KATL 180252Z 33007KT 8SM TS BKN070CB BKN150 29/16 A3008 RMK AO2 TSB22RAE0156 SLP171 FRQ LTGCGCCIC N TS VC N MOV E CB VC N MOV E CB DSNT S MOV SE P0000 60000 T02890161 53017 $=
200706180223 SPECI KATL 180223Z 18006KT 8SM TS BKN070CB BKN150 29/16 A3006 RMK AO2 TSB22RAE0156 OCNL LTG CG N TS VC N MOV E CB VC N MOV E CB VC S MOV S P0000 $=
200706180223 SPECI KATL 180223Z 18006KT 8SM TS BKN070CB BKN150 29/16 A3006 RMK AO2 TSB22RAE0156 OCNL LTG CG N TS VC N MOV E CB VC N MOV E CB VC S MOV S P0000 $=
200706180152 METAR KATL 180152Z COR 21008KT 8SM -RA BKN075CB BKN150 30/16 A3005 RMK AO2 RAB47 SLP163 LTG DSNT SW CB VC S P0000 T03000161 $=
200706180052 METAR KATL 180052Z COR 19007KT 8SM SCT090TCU SCT120 BKN150 31/16 A3004 RMK AO2 SLP159 TCU VC SW AND DSNT NW SHRA VC SW T03060161 $=
200706172352 METAR KATL 172352Z VRB03KT 8SM SCT070 BKN150 BKN200 32/14 A3002 RMK AO2 SLP155 T03220144 10344 20317 55004 $=
200706172252 METAR KATL 172252Z 00000KT 8SM SCT075 SCT120 BKN150 33/15 A3002 RMK AO2 SLP152 T03280150=
200706172152 METAR KATL 172152Z 31003KT 8SM SCT075TCU BKN100 33/15 A3002 RMK AO2 SLP155 CB DSNT E MOV E TCU VC S T03280150=
200706172052 METAR KATL 172052Z 30009KT 8SM SCT070TCU SCT100 34/16 A3004 RMK AO2 SLP160 TCU OHD-E AND VC SW SHRA VC SW T03390156 57015=
200706171952 METAR KATL 171952Z 30009G16KT 270V360 8SM FEW070 34/16 A3005 RMK AO2 SLP165 T03440161=
200706171852 METAR KATL 171852Z 23007G15KT 8SM SCT060 SCT080 33/15 A3007 RMK AO2 SLP170 MDT CU OHD-N-NE T03280150=
200706171752 METAR KATL 171752Z 25007G15KT 8SM SCT060 32/16 A3008 RMK AO2 SLP175 T03220156 10328 20233 58010=
200706171652 METAR KATL 171652Z 25003KT 8SM FEW055 32/17 A3010 RMK AO2 SLP180 T03170172=
200706171552 METAR KATL 171552Z COR VRB04KT 8SM FEW060 31/18 A3011 RMK AO2 SLP185 T03110183=
200706171452 METAR KATL 171452Z 30008KT 8SM CLR 29/18 A3012 RMK AO2 SLP186 T02940178 51006=
200706171352 METAR KATL 171352Z 30006KT 8SM CLR 28/18 A3012 RMK AO2 SLP186 T02830183=
200706171252 METAR KATL 171252Z 28007KT 8SM CLR 26/17 A3011 RMK AO2 SLP185 T02610172=
200706171152 METAR KATL 171152Z 24007KT 8SM CLR 23/17 A3010 RMK AO2 SLP181 T02330172 10244 20217 51015=
200706171052 METAR KATL 171052Z 23003KT 9SM CLR 22/17 A3009 RMK AO2 SLP177 T02220172=
200706170952 METAR KATL 170952Z 22003KT 10SM FEW250 22/17 A3007 RMK AO2 SLP172 T02220172=
200706170852 METAR KATL 170852Z 26004KT 10SM FEW150 22/17 A3005 RMK AO2 SLP166 T02220167 56008=
200706170752 METAR KATL 170752Z 23005KT 10SM FEW150 23/17 A3006 RMK AO2 SLP168 T02330172=
200706170652 METAR KATL 170652Z 21008KT 10SM SCT075 24/17 A3007 RMK AO2 SLP171 T02440172=
200706170552 METAR KATL 170552Z 20007KT 10SM BKN100 24/18 A3008 RMK AO2 SLP174 T02440178 10300 20244 51008=
200706170452 METAR KATL 170452Z 20008KT 10SM BKN070 OVC090 25/18 A3008 RMK AO2 SLP174 T02500178 403220183=
200706170352 METAR KATL 170352Z 20007KT 10SM SCT075 26/17 A3007 RMK AO2 SLP170 T02560172=
200706170252 METAR KATL 170252Z 19005KT 10SM SCT075 BKN095 26/17 A3005 RMK AO2 SLP166 T02610167 53012=
200706170152 METAR KATL 170152Z 23005KT 10SM FEW250 28/16 A3003 RMK AO2 SLP158 T02780161=
200706170052 METAR KATL 170052Z 23005KT 9SM FEW060 SCT090 BKN250 29/15 A3002 RMK AO2 SLP156 CB DSNT NE T02940150=
200706162352 METAR KATL 162352Z COR 27007KT 9SM FEW060TCU SCT250 30/15 A3002 RMK AO2 SLP155 TCU NE T03000150 10322 20294 55003=
200706162252 METAR KATL 162252Z 26007KT 230V290 9SM FEW065 SCT250 31/14 A3000 RMK AO2 SLP150 T03110144=
200706162152 METAR KATL 162152Z VRB03KT 8SM FEW065 SCT250 31/14 A3001 RMK AO2 SLP153 T03110144=
200706162052 METAR KATL 162052Z VRB04KT 9SM SCT075TCU 32/16 A3003 RMK AO2 SLP157 TCU VC SW AND DSNT E AND W AND NW T03170156 56019=
200706161952 METAR KATL 161952Z 01004KT 9SM BKN060TCU 32/15 A3004 RMK AO2 SLP162 TCU OHD AND VC SE AND SW AND DSNT N T03170150=
200706161852 METAR KATL 161852Z 00000KT 9SM BKN055TCU 29/16 A3006 RMK AO2 SLP170 TCU OHD AND VC SW AND DSNT SE T02940156=
200706161752 METAR KATL 161752Z 33004KT 9SM BKN050TCU 30/17 A3008 RMK AO2 SLP177 TCU VC S AND NW T03000167 10300 20189 58006=
200706161652 METAR KATL 161652Z 21007KT 10SM BKN040 BKN047 28/17 A3009 RMK AO2 SLP182 T02780167=
200706161552 METAR KATL 161552Z VRB03KT 10SM SCT040 27/17 A3010 RMK AO2 SLP182 T02720172=
200706161452 METAR KATL 161452Z VRB03KT 10SM FEW030 SCT200 24/18 A3010 RMK AO2 SLP184 T02440178 50000=
200706161352 METAR KATL 161352Z VRB03KT 9SM FEW005 SCT020 SCT200 23/18 A3011 RMK AO2 SLP187 T02330178=
200706161252 METAR KATL 161252Z 15004KT 7SM SCT003 20/18 A3010 RMK AO2 SLP186 T02000178=
200706161248 SPECI KATL 161248Z 14003KT 6SM HZ SCT003 20/17 A3010 RMK AO2=
200706161248 SPECI KATL 161248Z 14003KT 6SM HZ SCT003 20/17 A3010 RMK AO2=
200706161214 SPECI KATL 161214Z 15005KT 3SM BR OVC003 19/17 A3009 RMK AO2 SFC VIS 5=
200706161214 SPECI KATL 161214Z 15005KT 3SM BR OVC003 19/17 A3009 RMK AO2 SFC VIS 5=
200706161152 METAR KATL 161152Z 12004KT 2SM BR BKN005 19/17 A3009 RMK AO2 SFC VIS 5 SLP181 T01890172 10206 20183 53015=
200706161144 SPECI KATL 161144Z 10006KT 2SM BR BKN005 19/17 A3008 RMK AO2 SFC VIS 4=
200706161144 SPECI KATL 161144Z 10006KT 2SM BR BKN005 19/17 A3008 RMK AO2 SFC VIS 4=
200706161134 SPECI KATL 161134Z 11005KT 1SM BR SCT005 19/17 A3008 RMK AO2 SFC VIS 5=
200706161134 SPECI KATL 161134Z 11005KT 1SM BR SCT005 19/17 A3008 RMK AO2 SFC VIS 5=
200706161114 SPECI KATL 161114Z 10006KT 1SM BR CLR 19/17 A3008 RMK AO2 SFC VIS 4=
200706161114 SPECI KATL 161114Z 10006KT 1SM BR CLR 19/17 A3008 RMK AO2 SFC VIS 4=
200706161052 METAR KATL 161052Z 10004KT 3SM BR FEW200 18/17 A3007 RMK AO2 SFC VIS 5 SLP176 T01830167=
200706160952 METAR KATL 160952Z 10004KT 8SM FEW200 18/17 A3005 RMK AO2 SLP169 T01830167=
200706160852 METAR KATL 160852Z 12005KT 7SM FEW180 19/17 A3004 RMK AO2 SLP164 T01940167 56002=
200706160752 METAR KATL 160752Z 14003KT 9SM FEW250 20/17 A3004 RMK AO2 SLP164 T02000167=
200706160652 METAR KATL 160652Z 14005KT 8SM CLR 20/17 A3004 RMK AO2 SLP163 T02000172=
200706160552 METAR KATL 160552Z 14004KT 8SM FEW250 21/17 A3005 RMK AO2 SLP166 T02060172 10244 20206 50005=
200706160452 METAR KATL 160452Z 15007KT 10SM SCT250 21/17 A3005 RMK AO2 SLP169 T02110167 402830183=
200706160352 METAR KATL 160352Z 14003KT 10SM BKN250 22/17 A3005 RMK AO2 SLP167 T02170167=
200706160252 METAR KATL 160252Z 17004KT 10SM SCT200 BKN250 22/17 A3003 RMK AO2 SLP162 T02170167 51014=
200706160152 METAR KATL 160152Z 19005KT 10SM FEW150 BKN200 BKN250 23/16 A3003 RMK AO2 SLP160 T02280161=
200706160052 METAR KATL 160052Z 18004KT 10SM FEW150 BKN200 BKN250 23/16 A3001 RMK AO2 SLP154 T02330156=
200706152352 METAR KATL 152352Z 18005KT 10SM FEW035 SCT150 BKN200 BKN250 24/16 A2999 RMK AO2 SLP148 T02440161 10283 20244 50002=
200706152252 METAR KATL 152252Z 21009KT 10SM SCT035TCU SCT150 BKN200 24/17 A3000 RMK AO2 SLP150 TCU NW-N MDT CU NE-SE AND W T02440172=
200706152152 METAR KATL 152152Z 18007KT 10SM FEW040 BKN150 BKN200 26/17 A2999 RMK AO2 SLP148 T02610172=
200706152052 METAR KATL 152052Z 16010KT 10SM FEW035TCU SCT055 BKN250 26/17 A2999 RMK AO2 SLP146 CB DSNT S SW MOV SE TCU NW T02610172 56015=
200706151952 METAR KATL 151952Z 14008KT 10SM BKN040 BKN070 BKN250 26/17 A3000 RMK AO2 SLP150 LTG DSNT S-SW-W CB DSNT S-SW-W MOV SE TCU DSNT NW SHRA DSNT S-SW-W T02610172=
200706151852 METAR KATL 151852Z 11008KT 10SM FEW035 SCT070 BKN250 27/18 A3001 RMK AO2 SLP152 LTG DSNT W CB DSNT W MOV SE SHRA DSNT W T02720178=
200706151752 METAR KATL 151752Z 10006KT 10SM BKN030 26/17 A3003 RMK AO2 SLP161 T02610172 10267 20194 58009=
200706151652 METAR KATL 151652Z 14005KT 10SM FEW025 SCT030 SCT050 24/18 A3005 RMK AO2 SLP168 T02440183=
200706151552 METAR KATL 151552Z 11005KT 10SM FEW020 BKN050 BKN070 23/18 A3006 RMK AO2 SLP171 T02280183=
200706151452 METAR KATL 151452Z 11003KT 10SM FEW015 BKN050 BKN080 22/18 A3006 RMK AO2 SLP172 T02220178 50007=
200706151352 METAR KATL 151352Z 12006KT 10SM FEW015 BKN050 BKN080 BKN250 22/18 A3007 RMK AO2 SLP173 T02170178=
200706151252 METAR KATL 151252Z 11005KT 10SM BKN050 BKN060 BKN075 20/16 A3007 RMK AO2 SLP173 T02000156=
200706151152 METAR KATL 151152Z 12005KT 10SM BKN060 19/16 A3004 RMK AO2 SLP165 70048 T01940156 10206 20183 53014=
200706151052 METAR KATL 151052Z 08007KT 9SM FEW075 SCT150 18/15 A3003 RMK AO2 SLP159 T01830150 $=
200706150952 METAR KATL 150952Z 07008KT 10SM FEW075 SCT090 19/16 A3001 RMK AO2 SLP151 T01940156 $=
200706150852 METAR KATL 150852Z 08006KT 10SM FEW055 SCT180 19/16 A3000 RMK AO2 SLP149 T01940156 55004 $=
200706150752 METAR KATL 150752Z 10003KT 10SM SCT050 BKN070 20/16 A2999 RMK AO2 SLP145 T02000156 $=
200706150652 METAR KATL 150652Z 08004KT 10SM SCT055 BKN120 20/16 A3000 RMK AO2 SLP149 T02000156 $=
200706150552 METAR KATL 150552Z 08005KT 10SM BKN120 20/16 A3001 RMK AO2 SLP154 T02000161 10250 20200 51010 $=
200706150452 METAR KATL 150452Z 08007KT 10SM BKN140 20/16 A3001 RMK AO2 SLP152 402890183 T02000161 403060183 $=
200706150352 METAR KATL 150352Z 09005KT 10SM FEW150 SCT250 21/16 A2999 RMK AO2 SLP147 T02110156 $=
200706150252 METAR KATL 150252Z 09007KT 10SM FEW250 22/15 A2998 RMK AO2 SLP145 T02170150 53010 $=
200706150152 METAR KATL 150152Z 07007KT 10SM FEW100 BKN200 BKN250 23/16 A2996 RMK AO2 SLP137 T02330156 $=
200706150052 METAR KATL 150052Z 00000KT 10SM FEW055 SCT200 BKN250 25/16 A2996 RMK AO2 SLP137 T02500156 $=
200706142352 METAR KATL 142352Z 21003KT 9SM FEW140 BKN200 BKN250 24/16 A2995 RMK AO2 TSB07E29RAE29 SLP135 TS DSIPTD P0043 60048 T02440161 10283 20233 55003 $=
200706142329 SPECI KATL 142329Z 18005KT 10SM FEW050 SCT140 BKN200 OVC250 24/16 A2994 RMK AO2 TSB07E29RAE29 TS DSIPTD P0043 $=
200706142329 SPECI KATL 142329Z 18005KT 10SM FEW050 SCT140 BKN200 OVC250 24/16 A2994 RMK AO2 TSB07E29RAE29 TS DSIPTD P0043 $=
200706142307 SPECI KATL 142307Z 03015G23KT 9SM R09R/2000V6000FT TSRA SCT050CB BKN100 BKN150 OVC200 23/16 A2995 RMK AO2 TSB07 OCNL LTGCG TS OHD-SW MOV STNRY VIS LWR S-SW SHRA P0017 $=
200706142307 SPECI KATL 142307Z 03015G23KT 9SM R09R/2000V6000FT TSRA SCT050CB BKN100 BKN150 OVC200 23/16 A2995 RMK AO2 TSB07 OCNL LTGCG TS OHD-SW MOV STNRY VIS LWR S-SW SHRA P0017 $=
200706142252 METAR KATL 142252Z 00000KT 10SM -RA SCT050TCU BKN100 BKN150 OVC200 26/16 A2994 RMK AO2 RAB39 SLP131 TCU OHD-S AND DSNT E P0005 T02560161 $=
200706142152 METAR KATL 142152Z 18003KT 10SM SCT055 BKN090 BKN150 BKN200 27/13 A2994 RMK AO2 SLP131 MDT CU OHD-SW CB DSNT NE T02720133 $=
200706142052 METAR KATL 142052Z VRB04KT 10SM FEW050 SCT070 BKN110 BKN250 28/16 A2996 RMK AO2 SLP136 LTG DSNT N CB DSNT N NE NW MOV S TCU DSNT N W NW T02830156 56015 $=
200706141952 METAR KATL 141952Z 19005KT 10SM SCT055 BKN110 BKN250 27/16 A2996 RMK AO2 SLP136 CB DSNT W-N T02720156 $=
200706141852 METAR KATL 141852Z VRB04KT 10SM BKN050 BKN080 28/16 A2998 RMK AO2 SLP143 MDT CU W-N T02780156 $=
200706141752 METAR KATL 141752Z VRB03KT 10SM BKN050 BKN070 28/16 A3001 RMK AO2 SLP152 60000 T02830161 10283 20194 58010 $=
200706141652 METAR KATL 141652Z 00000KT 10SM FEW045 SCT075 SCT110 26/16 A3002 RMK AO2 SLP158 T02610156 $=
200706141552 METAR KATL 141552Z 10005KT 10SM FEW030 SCT110 SCT250 24/16 A3004 RMK AO2 SLP163 T02440161=
200706141452 METAR KATL 141452Z 13004KT 10SM FEW030 SCT110 SCT250 24/16 A3004 RMK AO2 SLP162 60000 T02390161 50003=
200706141352 METAR KATL 141352Z 16005KT 9SM FEW085 SCT110 SCT250 22/17 A3004 RMK AO2 SLP164 T02220167=
200706141252 METAR KATL 141252Z 13005KT 8SM FEW012 SCT085 BKN110 BKN250 19/17 A3004 RMK AO2 RAB05E14 SLP163 P0000 T01940172=
200706141152 METAR KATL 141152Z 12007KT 8SM FEW008 SCT085 BKN110 BKN250 19/17 A3003 RMK AO2 SLP158 T01890167 10200 20183 53014=
200706141052 METAR KATL 141052Z 11004KT 7SM BKN090 BKN120 BKN250 19/17 A3000 RMK AO2 SLP150 T01890172=
200706140952 METAR KATL 140952Z 11006KT 8SM BKN080 BKN110 BKN250 18/17 A2999 RMK AO2 SLP146 T01830172=
200706140852 METAR KATL 140852Z 08012KT 8SM SCT075 BKN110 OVC250 19/17 A2998 RMK AO2 SLP143 T01940172 55001=
200706140752 METAR KATL 140752Z 09004KT 8SM OVC080 19/17 A2997 RMK AO2 SLP141 T01940172=
200706140652 METAR KATL 140652Z 05011KT 10SM FEW080 SCT120 BKN250 19/17 A2998 RMK AO2 SLP144 T01940172=
200706140552 METAR KATL 140552Z 10006KT 10SM FEW085 SCT120 BKN250 20/16 A2999 RMK AO2 SLP144 T02000156 10278 20194 50000=
200706140452 METAR KATL 140452Z 11006KT 10SM SCT110 21/16 A3000 RMK AO2 SLP150 T02060156 403060161=
200706140352 METAR KATL 140352Z 13009KT 10SM BKN110 22/15 A3000 RMK AO2 SLP150 T02170150=
200706140252 METAR KATL 140252Z 14007KT 10SM FEW120 23/14 A2999 RMK AO2 SLP145 T02280139 53021=
200706140152 METAR KATL 140152Z 12008KT 10SM OVC110 24/14 A2997 RMK AO2 SLP138 T02440144=
200706140052 METAR KATL 140052Z 10006KT 10SM FEW090 SCT120 BKN150 BKN200 26/13 A2994 RMK AO2 SLP130 CB DSNT SE T02610133=
200706132352 METAR KATL 132352Z 09010KT 10SM FEW080 SCT120 SCT250 28/12 A2992 RMK AO2 SLP123 CB DSNT NE-SE T02780122 10306 20272 55002=
200706132252 METAR KATL 132252Z 09008KT 10SM FEW065 SCT090 BKN120 29/12 A2992 RMK AO2 SLP121 TCU DSNT NE-E AND SW T02890122=
200706132152 METAR KATL 132152Z 08008G17KT 10SM FEW065 BKN085 29/13 A2992 RMK AO2 SLP121 MDT CU SW T02890128=
200706132052 METAR KATL 132052Z VRB05KT 10SM FEW065 SCT075 31/14 A2993 RMK AO2 SLP125 CB DSNT NE MOV SW SHRA DSNT NE T03060139 58020=
200706131952 METAR KATL 131952Z VRB06G14KT 10SM FEW060 SCT070 29/14 A2995 RMK AO2 SLP132 T02890139=
200706131852 METAR KATL 131852Z 08008KT 10SM SCT055 28/16 A2997 RMK AO2 SLP141 MDT CU N-NE-E T02830156=
200706131752 METAR KATL 131752Z 09010KT 10SM SCT055 29/15 A2999 RMK AO2 SLP146 MDT CU=
200706131652 METAR KATL 131652Z 08007KT 10SM FEW045 27/16 A3000 RMK AO2 SLP151 T02720156=
200706131552 METAR KATL 131552Z 07011G17KT 10SM FEW040 26/16 A3001 RMK AO2 SLP155 T02610161=
200706131452 METAR KATL 131452Z 08009KT 10SM CLR 24/15 A3001 RMK AO2 SLP156 T02440150 51007=
200706131352 METAR KATL 131352Z 09004KT 10SM CLR 23/15 A3001 RMK AO2 SLP156 T02280150=
200706131252 METAR KATL 131252Z 06007KT 10SM CLR 20/15 A3000 RMK AO2 SLP150 T02000150=
200706131152 METAR KATL 131152Z 08006KT 10SM CLR 19/12 A2999 RMK AO2 SLP147 70001 T01890122 10189 20161 53001=
200706131052 METAR KATL 131052Z 07005KT 10SM FEW150 SCT250 17/14 A2998 RMK AO2 SLP145 T01720144=
200706130952 METAR KATL 130952Z 04006KT 10SM FEW250 17/14 A2998 RMK AO2 SLP143 T01720144=
200706130852 METAR KATL 130852Z 07004KT 10SM CLR 17/15 A2999 RMK AO2 SLP146 T01720150 58005=
200706130752 METAR KATL 130752Z 04006KT 10SM CLR 17/16 A2999 RMK AO2 SLP149 T01720156=
200706130652 METAR KATL 130652Z 05007KT 10SM CLR 18/15 A3001 RMK AO2 SLP154 T01780150=
200706130552 METAR KATL 130552Z 04008KT 10SM CLR 18/13 A3000 RMK AO2 SLP152 60001 T01780133 10261 20178 50001=
200706130452 METAR KATL 130452Z 07007KT 10SM CLR 18/14 A3001 RMK AO2 SLP156 T01780139 403170178=
200706130352 METAR KATL 130352Z 06009KT 10SM FEW200 18/14 A3001 RMK AO2 SLP154 T01830144=
200706130252 METAR KATL 130252Z 12006KT 10SM FEW100 19/15 A3000 RMK AO2 SLP152 60001 T01890150 50019=
200706130152 METAR KATL 130152Z 12007KT 10SM FEW008 SCT090 BKN200 18/16 A3002 RMK AO2 PK WND 08030/0056 WSHFT 0040 TSE44RAE20 SLP160 FRQ LTG DSNT SE-SW TS MOV S P0001 T01830161=
200706130144 SPECI KATL 130144Z 11007G15KT 10SM FEW008 SCT060 BKN090 BKN200 18/16 A3003 RMK AO2 PK WND 08030/0056 WSHFT 0040 TSE44RAE20 FRQ LTG DSNT SE-SW TS MOV S P0001=
200706130144 SPECI KATL 130144Z 11007G15KT 10SM FEW008 SCT060 BKN090 BKN200 18/16 A3003 RMK AO2 PK WND 08030/0056 WSHFT 0040 TSE44RAE20 FRQ LTG DSNT SE-SW TS MOV S P0001=
200706130059 SPECI KATL 130059Z 08019G34KT 6SM -TSRA FEW015 BKN035CB BKN060 OVC150 20/15 A3000 RMK AO2 PK WND 08030/0056 WSHFT 0040 FRQ LTGCGIC TS SE-OHD-NW MOV S P0000=
200706130059 SPECI KATL 130059Z 08019G34KT 6SM -TSRA FEW015 BKN035CB BKN060 OVC150 20/15 A3000 RMK AO2 PK WND 08030/0056 WSHFT 0040 FRQ LTGCGIC TS SE-OHD-NW MOV S P0000=
200706130052 SPECI KATL 130052Z 07029G35KT 7SM -TSRA FEW015 BKN030CB BKN050 OVC150 22/15 A3001 RMK AO2 PK WND 05035/0046 TSB34RAB52 SLP155 FRQ LTGCGIC TS N-E-SE AND NW MOV S CBMAM OHD-ALQDS VIS LWR S-SW BLDU P0000 T02170150=
200706130045 SPECI KATL 130045Z 05028G34KT 9SM TS SQ BKN030CB BKN055 BKN150 BKN200 23/16 A3001 RMK AO2 PK WND 04034/0044 TSB34 PRESRR FRQ LTGCGIC TS N-E-SE AND VC NW MOV S CBMAM OHD-ALQDS VIS LWR S-SW BLDU=
200706130045 SPECI KATL 130045Z 05028G34KT 9SM TS SQ BKN030CB BKN055 BKN150 BKN200 23/16 A3001 RMK AO2 PK WND 04034/0044 TSB34 PRESRR FRQ LTGCGIC TS N-E-SE AND VC NW MOV S CBMAM OHD-ALQDS VIS LWR S-SW BLDU=
200706130034 SPECI KATL 130034Z 17003KT 9SM TS FEW035CB SCT100 SCT150 BKN200 26/18 A2997 RMK AO2 TSB34 FRQ LTGCGIC TS VC NE-E AND DSNT NW-N MOV S=
200706130034 SPECI KATL 130034Z 17003KT 9SM TS FEW035CB SCT100 SCT150 BKN200 26/18 A2997 RMK AO2 TSB34 FRQ LTGCGIC TS VC NE-E AND DSNT NW-N MOV S=
200706122352 METAR KATL 122352Z 17006KT 10SM FEW035 SCT200 26/18 A2994 RMK AO2 SLP130 CB DSNT N-E 60000 T02610178 10278 20244 55007=
200706122252 METAR KATL 122252Z 15006KT 10SM FEW035 SCT200 27/18 A2994 RMK AO2 TSE04RAE04 SLP128 TS MOV SW P0000 T02720178=
200706122204 SPECI KATL 122204Z 15005KT 10SM FEW035CB SCT150 BKN200 27/18 A2995 RMK AO2 TSE04RAE04 TS MOV SW P0000=
200706122204 SPECI KATL 122204Z 15005KT 10SM FEW035CB SCT150 BKN200 27/18 A2995 RMK AO2 TSE04RAE04 TS MOV SW P0000=
200706122152 METAR KATL 122152Z 16004KT 9SM -TSRA FEW035CB SCT120 SCT150 BKN200 27/18 A2995 RMK AO2 TSB24RAB39 SLP132 OCNL LTGCGIC TS VC SW-NW MOV SW P0000 T02670178=
200706122125 SPECI KATL 122125Z VRB04KT 9SM TS FEW030CB SCT150 SCT200 27/18 A2997 RMK AO2 TSB24 FRQ LTGCGIC TS VC NW MOV S=
200706122125 SPECI KATL 122125Z VRB04KT 9SM TS FEW030CB SCT150 SCT200 27/18 A2997 RMK AO2 TSB24 FRQ LTGCGIC TS VC NW MOV S=
200706122052 METAR KATL 122052Z 15008KT 8SM FEW030 28/20 A2996 RMK AO2 SLP137 LTG DSNT N-NE CB DSNT N-NE MOV S T02780200 58022=
200706121952 METAR KATL 121952Z 15011KT 8SM SCT025 27/21 A2999 RMK AO2 SLP145 CB DSNT N MOV S T02670206=
200706121852 METAR KATL 121852Z 10008KT 8SM FEW025 26/20 A3001 RMK AO2 SLP153 T02610200=
200706121836 SPECI KATL 121836Z VRB06KT 8SM SCT022 26/21 A3002 RMK AO2=
200706121836 SPECI KATL 121836Z VRB06KT 8SM SCT022 26/21 A3002 RMK AO2=
200706121752 METAR KATL 121752Z 07006KT 7SM BKN020 24/20 A3003 RMK AO2 SLP160 T02440200 10244 20211 58000=
200706121652 METAR KATL 121652Z 08008KT 7SM OVC016 24/20 A3003 RMK AO2 SLP161 T02390200=
200706121601 SPECI KATL 121601Z 09007KT 7SM OVC016 23/20 A3004 RMK AO2=
200706121601 SPECI KATL 121601Z 09007KT 7SM OVC016 23/20 A3004 RMK AO2=
200706121552 METAR KATL 121552Z 05004KT 7SM OVC014 23/20 A3004 RMK AO2 SLP162 T02330200=
200706121452 METAR KATL 121452Z 09008KT 6SM BR OVC012 22/20 A3003 RMK AO2 SLP160 T02220200 50002=
200706121352 METAR KATL 121352Z 06006KT 6SM BR OVC010 22/19 A3003 RMK AO2 SLP161 T02170194=
200706121320 SPECI KATL 121320Z VRB03KT 6SM BR OVC008 22/20 A3003 RMK AO2=
200706121320 SPECI KATL 121320Z VRB03KT 6SM BR OVC008 22/20 A3003 RMK AO2=
200706121252 METAR KATL 121252Z 08006KT 3SM BR OVC008 21/19 A3003 RMK AO2 SFC VIS 6 CIG 006V010 SLP159 T02110194 $=
200706121152 METAR KATL 121152Z 08005KT 3SM BR OVC006 21/19 A3003 RMK AO2 SFC VIS 6 SLP158 60019 70019 T02060194 10228 20206 53006 $=
200706121143 SPECI KATL 121143Z 10004KT 3SM BR OVC006 21/19 A3002 RMK AO2 SFC VIS 6 CIG 005V009 $=
200706121143 SPECI KATL 121143Z 10004KT 3SM BR OVC006 21/19 A3002 RMK AO2 SFC VIS 6 CIG 005V009 $=
200706121052 METAR KATL 121052Z 10006KT 6SM BR OVC006 21/19 A3002 RMK AO2 SLP155 T02060194 $=
200706120952 METAR KATL 120952Z 07011KT 7SM OVC006 21/19 A3002 RMK AO2 SLP153 T02060194 $=
200706120904 SPECI KATL 120904Z 07010KT 8SM OVC008 21/20 A3001 RMK AO2 CIG 006V011 $=
200706120904 SPECI KATL 120904Z 07010KT 8SM OVC008 21/20 A3001 RMK AO2 CIG 006V011 $=
200706120852 METAR KATL 120852Z 08007KT 8SM BKN010 BKN110 OVC200 21/19 A3001 RMK AO2 SLP150 60019 T02060194 55001 $=
200706120847 SPECI KATL 120847Z 10006KT 8SM BKN010 BKN110 OVC200 21/19 A3000 RMK AO2 $=
200706120847 SPECI KATL 120847Z 10006KT 8SM BKN010 BKN110 OVC200 21/19 A3000 RMK AO2 $=
200706120825 SPECI KATL 120825Z 08008KT 8SM FEW008 SCT070 SCT110 OVC200 21/19 A2999 RMK AO2 $=
200706120825 SPECI KATL 120825Z 08008KT 8SM FEW008 SCT070 SCT110 OVC200 21/19 A2999 RMK AO2 $=
200706120752 METAR KATL 120752Z 00000KT 10SM SCT044 BKN065 BKN110 OVC200 22/18 A2999 RMK AO2 TSB06E36RAB0655E29 SLP145 LTG DSNT SE CB DSNT SE P0019 T02170183 $=
200706120737 SPECI KATL 120737Z 00000KT 10SM BKN042 BKN070 OVC110 22/18 A2999 RMK AO2 TSB06E36RAB0655E29 TS MOV SE P0019 $=
200706120737 SPECI KATL 120737Z 00000KT 10SM BKN042 BKN070 OVC110 22/18 A2999 RMK AO2 TSB06E36RAB0655E29 TS MOV SE P0019 $=
200706120727 SPECI KATL 120727Z 13006KT 10SM -TSRA FEW004 SCT042CB OVC070 22/18 A2999 RMK AO2 TSB06RAB0655 OCNL LTGICCG TS VC SE-S MOV SE P0019 $=
200706120727 SPECI KATL 120727Z 13006KT 10SM -TSRA FEW004 SCT042CB OVC070 22/18 A2999 RMK AO2 TSB06RAB0655 OCNL LTGICCG TS VC SE-S MOV SE P0019 $=
200706120707 SPECI KATL 120707Z 10005KT 5SM R09R/5500VP6000FT -TSRA FEW010 SCT022CB OVC060 21/18 A3001 RMK AO2 TSB06RAB0655 OCNL LTGICCG TS S-SW MOV SE P0019 $=
200706120707 SPECI KATL 120707Z 10005KT 5SM R09R/5500VP6000FT -TSRA FEW010 SCT022CB OVC060 21/18 A3001 RMK AO2 TSB06RAB0655 OCNL LTGICCG TS S-SW MOV SE P0019 $=
200706120659 SPECI KATL 120659Z 08006KT 2 1/2SM R09R/5500VP6000FT +RA FEW004 SCT021 BKN060 22/18 A3001 RMK AO2 RAB55 P0004 $=
200706120659 SPECI KATL 120659Z 08006KT 2 1/2SM R09R/5500VP6000FT +RA FEW004 SCT021 BKN060 22/18 A3001 RMK AO2 RAB55 P0004 $=
200706120652 METAR KATL 120652Z 08008KT 10SM BKN055 OVC110 23/19 A3001 RMK AO2 SLP151 SHRA NW-N T02280189 $=
200706120552 METAR KATL 120552Z 11009KT 10SM SCT055 BKN120 OVC200 23/17 A3001 RMK AO2 SLP152 T02280167 10272 20228 50000 $=
200706120452 METAR KATL 120452Z 11006KT 10SM SCT055 BKN150 OVC200 24/17 A3002 RMK AO2 SLP154 T02390172 403170228 $=
200706120352 METAR KATL 120352Z 10007KT 10SM BKN150 OVC250 24/18 A3002 RMK AO2 SLP155 T02390183 $=
200706120252 METAR KATL 120252Z 09008KT 10SM FEW022 SCT150 BKN250 24/18 A3001 RMK AO2 SLP153 T02390183 53012 $=
200706120152 METAR KATL 120152Z 05011KT 10SM SCT150 BKN250 26/14 A2999 RMK AO2 SLP145 T02610139 $=
200706120052 METAR KATL 120052Z 06005KT 10SM SCT150 BKN200 BKN250 27/14 A2997 RMK AO2 SLP138 T02720144 $=
200706112352 METAR KATL 112352Z 07005KT 10SM FEW100 BKN150 BKN250 26/15 A2997 RMK AO2 TSE15RAE09 SLP141 TS MOV SE P0000 60000 T02560150 10317 20250 50002 $=
200706112315 SPECI KATL 112315Z 07011KT 10SM FEW055 SCT100 BKN150 BKN250 26/14 A2998 RMK AO2 TSE15RAE09 TS MOV SE P0000 $=
200706112315 SPECI KATL 112315Z 07011KT 10SM FEW055 SCT100 BKN150 BKN250 26/14 A2998 RMK AO2 TSE15RAE09 TS MOV SE P0000 $=
200706112252 METAR KATL 112252Z 05020G33KT 10SM -TSRA FEW055CB SCT080 BKN140 BKN250 26/16 A2999 RMK AO2 PK WND 04033/2246 WSHFT 2231 TSB14RAB45 SLP144 FRQ LTGCGIC TS VC NE-SE MOV SE VIS LWR S-SW BLDU P0000 T02610161 $=
200706112246 SPECI KATL 112246Z 04026G33KT 10SM -TSRA FEW055CB SCT080 BKN140 BKN250 27/16 A2999 RMK AO2 PK WND 04033/2246 WSHFT 2231 TSB14RAB45 FRQ LTGCGIC TS VC NE-E MOV SE VIS LWR S-SW BLDU P0000 $=
200706112246 SPECI KATL 112246Z 04026G33KT 10SM -TSRA FEW055CB SCT080 BKN140 BKN250 27/16 A2999 RMK AO2 PK WND 04033/2246 WSHFT 2231 TSB14RAB45 FRQ LTGCGIC TS VC NE-E MOV SE VIS LWR S-SW BLDU P0000 $=
200706112215 SPECI KATL 112215Z 25003KT 9SM TS FEW055CB SCT075 BKN140 BKN250 32/18 A2997 RMK AO2 TSB14 FRQ LTGCGIC TS VC N-NE MOV SE $=
200706112215 SPECI KATL 112215Z 25003KT 9SM TS FEW055CB SCT075 BKN140 BKN250 32/18 A2997 RMK AO2 TSB14 FRQ LTGCGIC TS VC N-NE MOV SE $=
200706112152 METAR KATL 112152Z 11003KT 9SM FEW055 BKN140 BKN200 OVC250 32/18 A2997 RMK AO2 RAB41E52 SLP137 FRQ LTG DSNT NW-N P0000 T03170183 $=
200706112052 METAR KATL 112052Z 00000KT 10SM FEW050 BKN150 BKN240 31/20 A2998 RMK AO2 SLP140 CB DSNT N AND W MOV SE T03110200 56019 $=
200706111952 METAR KATL 111952Z 14004KT 8SM BKN050 BKN150 BKN240 31/21 A2999 RMK AO2 SLP143 T03110206 $=
200706111852 METAR KATL 111852Z 05005KT 8SM SCT036 BKN150 BKN240 31/21 A3002 RMK AO2 SLP153 T03110211 $=
200706111752 METAR KATL 111752Z VRB05KT 6SM HZ SCT030 BKN150 BKN240 29/22 A3004 RMK AO2 SLP160 60000 T02940222 10294 20228 58003=
200706111652 METAR KATL 111652Z VRB05KT 3SM HZ SCT020 BKN150 BKN240 28/23 A3005 RMK AO2 SFC VIS 6 SLP165 T02830228=
200706111552 METAR KATL 111552Z 12006KT 3SM HZ OVC016 26/23 A3006 RMK AO2 SFC VIS 6 SLP167 T02610228=
200706111543 SPECI KATL 111543Z 11005KT 3SM BR OVC016 26/23 A3006 RMK AO2 SFC VIS 6=
200706111543 SPECI KATL 111543Z 11005KT 3SM BR OVC016 26/23 A3006 RMK AO2 SFC VIS 6=
200706111518 SPECI KATL 111518Z 11008KT 3SM BR OVC012 25/23 A3006 RMK AO2 SFC VIS 5=
200706111518 SPECI KATL 111518Z 11008KT 3SM BR OVC012 25/23 A3006 RMK AO2 SFC VIS 5=
200706111452 METAR KATL 111452Z 09007KT 2SM BR OVC010 25/23 A3005 RMK AO2 SFC VIS 4 DZE42 SLP164 P0000 60000 T02500228 51015=
200706111445 SPECI KATL 111445Z 10007KT 2SM BR OVC010 25/23 A3004 RMK AO2 SFC VIS 4 DZE42 CIG 007V013 P0000=
200706111445 SPECI KATL 111445Z 10007KT 2SM BR OVC010 25/23 A3004 RMK AO2 SFC VIS 4 DZE42 CIG 007V013 P0000=
200706111405 SPECI KATL 111405Z 08009KT 2SM -DZ BR OVC006 24/22 A3005 RMK AO2 SFC VIS 4 CIG 005V010 P0000=
200706111405 SPECI KATL 111405Z 08009KT 2SM -DZ BR OVC006 24/22 A3005 RMK AO2 SFC VIS 4 CIG 005V010 P0000=
200706111402 SPECI KATL 111402Z 08006KT 1SM -DZ BR OVC006 24/22 A3005 RMK AO2 SFC VIS 4 CIG 005V009 P0000=
200706111402 SPECI KATL 111402Z 08006KT 1SM -DZ BR OVC006 24/22 A3005 RMK AO2 SFC VIS 4 CIG 005V009 P0000=
200706111352 METAR KATL 111352Z 09006KT 1SM -DZ BR OVC004 24/23 A3005 RMK AO2 SFC VIS 2 1/2 DZB25 CIG 004V008 SLP163 P0000 T02390228=
200706111252 METAR KATL 111252Z 06005KT 1/2SM R09R/5000VP6000FT BR OVC002 23/22 A3002 RMK AO2 SFC VIS 1 1/2 SLP155 TWRINC T02280222=
200706111152 METAR KATL 111152Z 11006KT 1/2SM BR BKN002 OVC006 23/22 A3000 RMK AO2 SFC VIS 2 SLP148 TWRINC T02280222 10261 20228 51014=
200706111120 SPECI KATL 111120Z 14004KT 1/2SM BR OVC002 23/22 A3000 RMK AO2 SFC VIS 1 3/4 TWRINC=
200706111120 SPECI KATL 111120Z 14004KT 1/2SM BR OVC002 23/22 A3000 RMK AO2 SFC VIS 1 3/4 TWRINC=
200706111103 SPECI KATL 111103Z 12004KT 1/4SM BR OVC004 23/22 A2999 RMK AO2 SFC VIS 2 1/2 TWRINC=
200706111103 SPECI KATL 111103Z 12004KT 1/4SM BR OVC004 23/22 A2999 RMK AO2 SFC VIS 2 1/2 TWRINC=
200706111057 SPECI KATL 111057Z 14003KT 1SM BR OVC005 23/22 A2999 RMK AO2 SFC VIS 3 CIG 002V008=
200706111057 SPECI KATL 111057Z 14003KT 1SM BR OVC005 23/22 A2999 RMK AO2 SFC VIS 3 CIG 002V008=
200706111052 METAR KATL 111052Z 12005KT 2SM BR OVC005 23/22 A2998 RMK AO2 SFC VIS 3 SLP141 T02330217=
200706111046 SPECI KATL 111046Z 14005KT 2SM BR OVC005 23/22 A2998 RMK AO2 SFC VIS 4 $=
200706111046 SPECI KATL 111046Z 14005KT 2SM BR OVC005 23/22 A2998 RMK AO2 SFC VIS 4 $=
200706111033 SPECI KATL 111033Z 11003KT 3SM BR OVC006 23/22 A2998 RMK AO2 SFC VIS 5 $=
200706111033 SPECI KATL 111033Z 11003KT 3SM BR OVC006 23/22 A2998 RMK AO2 SFC VIS 5 $=
200706110952 METAR KATL 110952Z 09005KT 7SM OVC007 23/21 A2996 RMK AO2 SLP134 T02280211 $=
200706110940 SPECI KATL 110940Z 09004KT 7SM BKN007 BKN110 BKN250 23/21 A2997 RMK AO2 $=
200706110940 SPECI KATL 110940Z 09004KT 7SM BKN007 BKN110 BKN250 23/21 A2997 RMK AO2 $=
200706110852 METAR KATL 110852Z 00000KT 8SM FEW110 SCT250 24/21 A2996 RMK AO2 SLP132 T02390206 55002 $=
200706110752 METAR KATL 110752Z 14004KT 10SM FEW110 SCT250 24/20 A2995 RMK AO2 SLP130 T02440200 $=
200706110652 METAR KATL 110652Z 00000KT 10SM FEW110 SCT250 26/19 A2996 RMK AO2 SLP133 T02560189 $=
200706110552 METAR KATL 110552Z 00000KT 10SM FEW250 26/18 A2996 RMK AO2 SLP132 T02610178 10322 20261 58001 $=
200706110452 METAR KATL 110452Z 00000KT 8SM SCT200 27/15 A2997 RMK AO2 SLP135 T02670150 403440194 $=
200706110352 METAR KATL 110352Z 12003KT 8SM FEW150 SCT200 28/14 A2997 RMK AO2 SLP135 T02830139 $=
200706110252 METAR KATL 110252Z 09004KT 10SM SCT200 29/13 A2996 RMK AO2 SLP134 T02890133 53015 $=
200706110152 METAR KATL 110152Z 09006KT 10SM SCT150 SCT200 BKN250 29/13 A2994 RMK AO2 SLP127 T02890133 $=
200706110052 METAR KATL 110052Z 09008KT 10SM BKN150 BKN200 BKN250 31/13 A2993 RMK AO2 SLP122 T03060133 $=
200706102352 METAR KATL 102352Z 07006KT 10SM SCT150 BKN200 32/13 A2992 RMK AO2 SLP120 T03220128 10344 20317 55004 $=
200706102252 METAR KATL 102252Z 04009KT 10SM FEW080 SCT150 BKN200 33/13 A2992 RMK AO2 SLP119 T03330128 $=
200706102152 METAR KATL 102152Z 06009KT 10SM FEW080 SCT150 BKN200 34/12 A2992 RMK AO2 SLP120 T03390122 $=
200706102052 METAR KATL 102052Z 09010KT 10SM SCT090 SCT150 BKN200 34/12 A2993 RMK AO2 SLP124 T03390122 56008 $=
200706101952 METAR KATL 101952Z 11004KT 10SM SCT085 BKN200 33/12 A2993 RMK AO2 SLP124 T03330122 $=
200706101852 METAR KATL 101852Z 03005G15KT 10SM FEW075 33/12 A2995 RMK AO2 SLP129 T03280122 $=
200706101752 METAR KATL 101752Z 00000KT 10SM FEW070 33/12 A2996 RMK AO2 SLP131 T03280117 10333 20217 58006 $=
200706101652 METAR KATL 101652Z 01006KT 10SM FEW065 SCT250 32/14 A2997 RMK AO2 SLP136 T03170139 $=
200706101552 METAR KATL 101552Z 07008KT 10SM FEW250 31/14 A2997 RMK AO2 SLP135 T03060144 $=
200706101452 METAR KATL 101452Z 07008KT 10SM FEW250 29/15 A2997 RMK AO2 SLP138 T02940150 50003=
200706101352 METAR KATL 101352Z 08008KT 10SM FEW250 27/15 A2998 RMK AO2 SLP140 T02720150=
200706101252 METAR KATL 101252Z 01007KT 10SM FEW250 25/16 A2998 RMK AO2 SLP141 T02500156=
200706101152 METAR KATL 101152Z 34006KT 10SM FEW250 22/15 A2996 RMK AO2 SLP135 T02170150 10233 20194 53015=
200706101052 METAR KATL 101052Z 33007KT 9SM FEW250 20/15 A2994 RMK AO2 SLP127 T02000150=
200706100952 METAR KATL 100952Z 33009KT 10SM FEW250 20/15 A2992 RMK AO2 SLP120 T02000150=
200706100852 METAR KATL 100852Z 32006KT 10SM CLR 20/15 A2992 RMK AO2 SLP119 T02000150 55010=
200706100752 METAR KATL 100752Z 34007KT 10SM CLR 22/15 A2992 RMK AO2 SLP119 T02170150=
200706100652 METAR KATL 100652Z 33005KT 10SM CLR 22/15 A2993 RMK AO2 SLP122 T02170150=
200706100552 METAR KATL 100552Z 32004KT 10SM CLR 23/15 A2995 RMK AO2 SLP129 T02330150 10311 20233 58012=
200706100452 METAR KATL 100452Z 33005KT 10SM CLR 24/16 A2997 RMK AO2 SLP135 T02390156 403390206=
200706100352 METAR KATL 100352Z 32005KT 10SM CLR 26/17 A2999 RMK AO2 SLP142 T02560167=
200706100252 METAR KATL 100252Z 35005KT 10SM CLR 25/17 A2998 RMK AO2 SLP142 T02500167 53016=
200706100152 METAR KATL 100152Z 36010KT 10SM FEW060 28/17 A2996 RMK AO2 SLP134 T02830167=
200706100052 METAR KATL 100052Z 33009KT 10SM FEW050 29/16 A2994 RMK AO2 SLP129 T02940161=
200706092352 METAR KATL 092352Z 33011KT 10SM FEW250 31/16 A2993 RMK AO2 SLP125 T03110156 10339 20311 56006=
200706092252 METAR KATL 092252Z 33012G18KT 10SM FEW250 32/17 A2994 RMK AO2 SLP126 T03220167=
200706092152 METAR KATL 092152Z 33012KT 10SM FEW050 33/18 A2994 RMK AO2 SLP128 T03330178=
200706092052 METAR KATL 092052Z 33013G20KT 8SM FEW048 SCT250 33/18 A2995 RMK AO2 SLP131 T03280183 58024=
200706091952 METAR KATL 091952Z 33014G22KT 8SM FEW046 SCT250 33/19 A2998 RMK AO2 SLP141 T03280189=
200706091852 METAR KATL 091852Z 33012G20KT 9SM BKN041 BKN150 32/19 A3000 RMK AO2 SLP148 T03220189=
200706091752 METAR KATL 091752Z 31009KT 9SM SCT050 BKN150 32/19 A3002 RMK AO2 SLP156 T03220194 10322 20217 58011=
200706091652 METAR KATL 091652Z 30013G19KT 10SM SCT050 SCT150 BKN250 31/19 A3004 RMK AO2 SLP163 T03110194=
200706091552 METAR KATL 091552Z 31014G23KT 10SM FEW045 SCT150 SCT250 31/18 A3006 RMK AO2 SLP168 T03060183=
200706091452 METAR KATL 091452Z 34009KT 10SM SCT150 SCT250 28/19 A3006 RMK AO2 SLP168 T02830189 50003=
200706091352 METAR KATL 091352Z 31008KT 10SM FEW150 SCT250 27/19 A3006 RMK AO2 SLP169 T02670189=
200706091252 METAR KATL 091252Z 32008KT 10SM SCT250 24/19 A3005 RMK AO2 SLP168 T02440194=
200706091152 METAR KATL 091152Z 31010KT 10SM SCT250 22/19 A3005 RMK AO2 SLP167 70029 T02170189 10222 20206 51007=
200706091052 METAR KATL 091052Z 31008KT 10SM BKN250 21/19 A3004 RMK AO2 SLP165 T02060189=
200706090952 METAR KATL 090952Z 31007KT 7SM FEW005 SCT150 SCT250 21/19 A3004 RMK AO2 SLP163 T02110189=
200706090852 METAR KATL 090852Z 33007KT 8SM FEW003 SCT150 21/19 A3003 RMK AO2 SLP158 T02110194 56015=
200706090752 METAR KATL 090752Z 34006KT 8SM SCT003 22/19 A3003 RMK AO2 SLP159 T02170194=
200706090728 SPECI KATL 090728Z 34006KT 8SM SCT003 21/19 A3004 RMK AO2=
200706090728 SPECI KATL 090728Z 34006KT 8SM SCT003 21/19 A3004 RMK AO2=
200706090652 METAR KATL 090652Z 33008KT 10SM CLR 22/19 A3005 RMK AO2 SLP164 T02170194=
200706090552 METAR KATL 090552Z 33008KT 10SM SCT150 22/19 A3007 RMK AO2 SLP172 T02220194 10239 20222 50011=
200706090452 METAR KATL 090452Z 29005KT 10SM FEW150 BKN200 OVC250 22/20 A3008 RMK AO2 SLP176 T02220200 403280222=
200706090352 METAR KATL 090352Z 30012KT 10SM FEW150 BKN200 OVC250 22/20 A3008 RMK AO2 SLP175 T02220200=
200706090252 METAR KATL 090252Z 28005KT 10SM FEW120 SCT150 OVC200 23/20 A3004 RMK AO2 SLP161 T02280200 55002=
200706090152 METAR KATL 090152Z 17006KT 10SM FEW050 SCT120 BKN150 OVC250 23/20 A3001 RMK AO2 SLP154 T02330200=
200706090052 METAR KATL 090052Z 32003KT 10SM FEW030TCU SCT045 BKN140 OVC250 24/19 A3006 RMK AO2 SLP170 TCU VC N-NE AND NW FRQ LTG DSNT NW T02390194=
200706082352 METAR KATL 082352Z 34011KT 10SM FEW100 BKN140 OVC200 24/19 A3004 RMK AO2 SLP164 60029 T02390194 10328 20228 55004=
200706082252 METAR KATL 082252Z 31010KT 10SM FEW040CB BKN120 BKN150 OVC200 23/19 A3004 RMK AO2 RAE02 SLP163 CBMAM ALQDS P0000 T02330194=
200706082152 METAR KATL 082152Z 33008KT 10SM -RA FEW020 SCT045 BKN070 OVC150 23/20 A3003 RMK AO2 PK WND 28027/2113 WSHFT 2039 TSE49 SLP159 TS MOV SE P0029 T02330200=
200706082149 SPECI KATL 082149Z 32008KT 10SM -RA FEW020 SCT045 BKN070 OVC150 24/19 A3002 RMK AO2 PK WND 28027/2113 WSHFT 2039 TSE49 TS MOV SE P0029=
200706082149 SPECI KATL 082149Z 32008KT 10SM -RA FEW020 SCT045 BKN070 OVC150 24/19 A3002 RMK AO2 PK WND 28027/2113 WSHFT 2039 TSE49 TS MOV SE P0029=
200706082104 SPECI KATL 082104Z 25015G22KT 7SM -TSRA SCT020CB BKN055 OVC080 23/20 A3007 RMK AO2 WSHFT 2039 PRESRR VIS LWR SE-W SHRA CNS LTGICCG TS SE-W MOV SE CB SE-W AND DSNT NW MOV SE P0000=
200706082104 SPECI KATL 082104Z 25015G22KT 7SM -TSRA SCT020CB BKN055 OVC080 23/20 A3007 RMK AO2 WSHFT 2039 PRESRR VIS LWR SE-W SHRA CNS LTGICCG TS=
200706082057 SPECI KATL 082057Z 24016G25KT 6SM -TSRA FEW020CB BKN050 BKN080 OVC250 24/19 A3006 RMK AO2 WSHFT 2039 VIS LWR S-SW SHRA CNS LTGICCG TS S MOV SE CB S AND DSNT SW-NW MOV SE P0000=
200706082057 SPECI KATL 082057Z 24016G25KT 6SM -TSRA FEW020CB BKN050 BKN080 OVC250 24/19 A3006 RMK AO2 WSHFT 2039 VIS LWR S-SW SHRA CNS LTGICCG TS S MOV SE CB S AND DSNT SW-NW MOV SE P0000=
200706082052 METAR KATL 082052Z 23017G25KT 7SM -TSRA BKN045CB BKN055 BKN090 OVC250 27/19 A3006 RMK AO2 PK WND 32028/2033 WSHFT 2026 TSB20RAB18E28B48 SLP167 VIS LWR NE S-NW SHRA FRQ LTGICCG TS S MOV SE CB S AND DSNT SW-W MOV SE=
200706082042 SPECI KATL 082042Z 31018G28KT 10SM TS SCT045CB BKN055 BKN075 OVC250 27/20 A3004 RMK AO2 PK WND 32028/2033 WSHFT 2026 TSB20RAB18E28 VIS LWR SW-NW SHRA FRQ LTGICCG TS SW-NW MOV SE CB SW-NW MOV SE P0000=
200706082042 SPECI KATL 082042Z 31018G28KT 10SM TS SCT045CB BKN055 BKN075 OVC250 27/20 A3004 RMK AO2 PK WND 32028/2033 WSHFT 2026 TSB20RAB18E28 VIS LWR SW-NW SHRA FRQ LTGICCG TS SW-NW MOV SE CB SW-NW MOV SE P0000=
200706082026 SPECI KATL 082026Z 31013G25KT 10SM -TSRA BKN047CB BKN070 BKN085 BKN250 29/22 A3006 RMK AO2 WSHFT 2008 TSB20RAB18 VIS LWR SW-NW SHRA FRQ LTGICCG TS SW-NW MOV SE CB SW-NW MOV SE P0000=
200706082026 SPECI KATL 082026Z 31013G25KT 10SM -TSRA BKN047CB BKN070 BKN085 BKN250 29/22 A3006 RMK AO2 WSHFT 2008 TSB20RAB18 VIS LWR SW-NW SHRA FRQ LTGICCG TS SW-NW MOV SE CB SW-NW MOV SE P0000=
200706082021 SPECI KATL 082021Z 21011KT 10SM -TSRA BKN047CB BKN070 BKN085 BKN250 29/22 A3005 RMK AO2 TSB20RAB18 FRQ LTGICCG TS SW-N MOV SE CB=
200706082021 SPECI KATL 082021Z 21011KT 10SM -TSRA BKN047CB BKN070 BKN085 BKN250 29/22 A3005 RMK AO2 TSB20RAB18 FRQ LTGICCG TS SW-N MOV SE CB=
200706082014 SPECI KATL 082014Z 26014G18KT 10SM SCT050TCU BKN070 BKN080 BKN250 30/22 A3004 RMK AO2 LTG DSNT SW-NW CB DSNT SW-NW MOV ESE TCU E-S SHRA DSNT SW-NW=
200706082014 SPECI KATL 082014Z 26014G18KT 10SM SCT050TCU BKN070 BKN080 BKN250 30/22 A3004 RMK AO2 LTG DSNT SW-NW CB DSNT SW-NW MOV ESE TCU E-S SHRA DSNT SW-NW=
200706081952 METAR KATL 081952Z VRB06KT 10SM SCT046TCU BKN060 BKN080 BKN250 32/22 A3004 RMK AO2 SLP162 TCU DSNT E S AND OHD-SW-NW CB DSNT SW-N SHRA DSNT SW-NW T03220222=
200706081852 METAR KATL 081852Z VRB03KT 10SM FEW040 SCT060 SCT250 31/22 A3007 RMK AO2 SLP171 CB DSNT N AND E MOV E TCU DSNT SW-NW SHRA DSNT E T03110222=
200706081812 SPECI KATL 081812Z 29008KT 10SM SCT040TCU BKN065 BKN250 31/22 A3008 RMK AO2 CB DSNT NE AND DSNT NW-N TCU NE-E AND SW-NW SHRA DSNT NE=
200706081812 SPECI KATL 081812Z 29008KT 10SM SCT040TCU BKN065 BKN250 31/22 A3008 RMK AO2 CB DSNT NE AND DSNT NW-N TCU NE-E AND SW-NW SHRA DSNT NE=
200706081752 METAR KATL 081752Z 29010KT 10SM BKN040TCU 31/22 A3010 RMK AO2 SLP180 CB DSNT NW TCU OHD-SW-N SHRA NW T03060222 10322 20228 58010=
200706081652 METAR KATL 081652Z 25008G16KT 230V300 10SM BKN035 31/22 A3011 RMK AO2 SLP186 TCU DSNT NW-N T03060217=
200706081638 SPECI KATL 081638Z 23010KT 10SM SCT032 30/22 A3012 RMK AO2=
200706081638 SPECI KATL 081638Z 23010KT 10SM SCT032 30/22 A3012 RMK AO2=
200706081552 METAR KATL 081552Z 26008G16KT 10SM BKN028 29/22 A3013 RMK AO2 SLP192 T02940222=
200706081452 METAR KATL 081452Z VRB06KT 10SM SCT014 BKN020 27/22 A3013 RMK AO2 SLP191 T02670222 50004=
200706081424 SPECI KATL 081424Z 27009KT 10SM BKN014 BKN019 26/22 A3013 RMK AO2=
200706081424 SPECI KATL 081424Z 27009KT 10SM BKN014 BKN019 26/22 A3013 RMK AO2=
200706081404 SPECI KATL 081404Z 28006KT 10SM OVC011 25/22 A3014 RMK AO2=
200706081404 SPECI KATL 081404Z 28006KT 10SM OVC011 25/22 A3014 RMK AO2=
200706081352 METAR KATL 081352Z 27006KT 9SM OVC008 24/22 A3014 RMK AO2 SLP196 T02440222=
200706081252 METAR KATL 081252Z 27009KT 10SM OVC006 23/22 A3014 RMK AO2 SLP195 T02330222=
200706081152 METAR KATL 081152Z 24006KT 8SM OVC006 23/22 A3011 RMK AO2 SLP187 T02330217 10233 20222 51012=
200706081052 METAR KATL 081052Z 27006KT 10SM OVC006 23/22 A3011 RMK AO2 SLP185 BINOVC T02280217=
200706081040 SPECI KATL 081040Z 26005KT 10SM BKN006 BKN110 BKN250 22/21 A3010 RMK AO2=
200706081040 SPECI KATL 081040Z 26005KT 10SM BKN006 BKN110 BKN250 22/21 A3010 RMK AO2=
200706081035 SPECI KATL 081035Z 27005KT 10SM FEW006 SCT110 SCT250 22/20 A3010 RMK AO2=
200706081035 SPECI KATL 081035Z 27005KT 10SM FEW006 SCT110 SCT250 22/20 A3010 RMK AO2=
200706080952 METAR KATL 080952Z 24007KT 10SM FEW110 23/21 A3009 RMK AO2 SLP178 T02280211=
200706080852 METAR KATL 080852Z 23006KT 10SM FEW110 22/18 A3008 RMK AO2 SLP173 T02220183 51003=
200706080752 METAR KATL 080752Z 21005KT 10SM SCT110 SCT250 22/18 A3007 RMK AO2 SLP172 T02220183=
200706080652 METAR KATL 080652Z 19008KT 10SM SCT110 23/18 A3008 RMK AO2 SLP173 T02280183=
200706080552 METAR KATL 080552Z 21004KT 10SM SCT110 23/18 A3007 RMK AO2 SLP170 T02330178 10272 20233 50004=
200706080452 METAR KATL 080452Z 22006KT 10SM SCT110 24/18 A3007 RMK AO2 SLP171 T02390178 403330217=
200706080352 METAR KATL 080352Z 20005KT 10SM SCT110 24/18 A3006 RMK AO2 SLP169 T02440178=
200706080252 METAR KATL 080252Z 22004KT 10SM FEW150 24/18 A3005 RMK AO2 SLP166 T02390178 53015=
200706080152 METAR KATL 080152Z 19007KT 10SM FEW200 25/18 A3004 RMK AO2 SLP161 T02500183=
200706080052 METAR KATL 080052Z 20004KT 10SM FEW120 SCT200 SCT250 26/19 A3002 RMK AO2 SLP156 CB DSNT NW T02610189=
200706072352 METAR KATL 072352Z 19014G19KT 10SM FEW120 SCT200 SCT250 27/20 A3001 RMK AO2 SLP151 T02720200 10333 20272 53003=
200706072252 METAR KATL 072252Z 20006KT 10SM FEW045TCU SCT070 SCT100 SCT200 28/18 A3000 RMK AO2 PK WND 21026/2200 RAB03E07 SLP147 CB DSNT E-SE TCU DSNT NE-E SHRA DSNT E-SE P0000 T02830183=
200706072152 SPECI KATL 072152Z 20009KT 10SM SCT055TCU SCT080 33/19 A2999 RMK AO2 SLP143 TCU VC SE-SW CB DSNT S-SW T03280194=
200706072052 METAR KATL 072052Z 22010G19KT 10SM SCT055 33/20 A3000 RMK AO2 SLP146 CB DSNT SW MOV NE MDT CU NE-SW T03330200 56015=
200706071952 METAR KATL 071952Z 24010G16KT 10SM SCT055 SCT200 32/19 A3001 RMK AO2 SLP151 CB DSNT S T03170194=
200706071852 METAR KATL 071852Z 20013G18KT 10SM BKN055TCU 31/20 A3003 RMK AO2 SLP157 TCU OHD-S-NW T03060200=
200706071752 METAR KATL 071752Z 20009KT 10SM SCT050 SCT240 31/21 A3004 RMK AO2 SLP162 T03110206 10311 20228 58008=
200706071652 METAR KATL 071652Z 19007KT 160V220 10SM SCT040 SCT240 30/20 A3006 RMK AO2 SLP166 T03000200=
200706071552 METAR KATL 071552Z 25009KT 10SM SCT035 SCT240 29/21 A3007 RMK AO2 SLP171 T02890206=
200706071452 METAR KATL 071452Z 20009KT 10SM SCT029 SCT240 28/21 A3007 RMK AO2 SLP171 T02780206 51008=
200706071352 METAR KATL 071352Z 22010KT 10SM FEW025 SCT240 26/21 A3006 RMK AO2 SLP169 T02610211=
200706071252 METAR KATL 071252Z 22009KT 10SM FEW022 24/21 A3005 RMK AO2 SLP165 T02440206=
200706071152 METAR KATL 071152Z 22009KT 10SM FEW250 23/19 A3004 RMK AO2 SLP162 T02280189 10239 20217 51015=
200706071052 METAR KATL 071052Z 21007KT 10SM FEW250 22/19 A3003 RMK AO2 SLP157 T02170189=
200706070952 METAR KATL 070952Z 21008KT 10SM CLR 22/18 A3001 RMK AO2 SLP152 T02220183=
200706070852 METAR KATL 070852Z 20009KT 10SM CLR 22/17 A3000 RMK AO2 SLP146 T02220172 53003=
200706070752 METAR KATL 070752Z 19008KT 10SM CLR 22/17 A2999 RMK AO2 SLP143 T02220167=
200706070652 METAR KATL 070652Z 20007KT 10SM CLR 23/16 A2998 RMK AO2 SLP140 T02280161=
200706070552 METAR KATL 070552Z 20005KT 10SM CLR 24/16 A2999 RMK AO2 SLP142 T02390156 10317 20239 50007=
200706070452 METAR KATL 070452Z 20007KT 10SM FEW250 25/14 A2999 RMK AO2 SLP143 T02500139 403330183=
200706070352 METAR KATL 070352Z 19004KT 10SM FEW250 26/13 A2998 RMK AO2 SLP139 T02560133=
200706070252 METAR KATL 070252Z 18006KT 10SM FEW250 26/12 A2996 RMK AO2 SLP135 T02610117 51013=
200706070152 METAR KATL 070152Z 00000KT 10SM FEW075 28/11 A2995 RMK AO2 SLP131 T02830111=
200706070052 METAR KATL 070052Z 20005KT 10SM FEW080 SCT250 30/10 A2994 RMK AO2 SLP127 T03000100=
200706062352 METAR KATL 062352Z 20006KT 10SM FEW085 SCT250 32/09 A2992 RMK AO2 SLP121 T03170094 10333 20300 55002=
200706062252 METAR KATL 062252Z 22011KT 10SM FEW085 32/12 A2992 RMK AO2 SLP120 T03220117=
200706062152 METAR KATL 062152Z 23007KT 10SM SCT080 32/12 A2992 RMK AO2 SLP121 T03220122=
200706062052 METAR KATL 062052Z VRB05KT 10SM SCT080 31/13 A2993 RMK AO2 SLP125 T03110133 56014=
200706061952 METAR KATL 061952Z 28006KT 10SM SCT080 33/14 A2994 RMK AO2 SLP127 T03280139=
200706061852 METAR KATL 061852Z 20006G15KT 10SM SCT080 31/13 A2995 RMK AO2 SLP132 T03060128=
200706061752 METAR KATL 061752Z 17007KT 10SM SCT075 31/13 A2997 RMK AO2 SLP138 T03110133 10317 20206 58010=
200706061652 METAR KATL 061652Z 21007KT 10SM FEW070 31/14 A2999 RMK AO2 SLP145 T03060139=
200706061552 METAR KATL 061552Z VRB05KT 10SM FEW065 30/14 A3000 RMK AO2 SLP149 T03000139=
200706061452 METAR KATL 061452Z 00000KT 10SM CLR 28/13 A3000 RMK AO2 SLP150 T02830128 51013=
200706061352 METAR KATL 061352Z 28003KT 10SM CLR 26/14 A2999 RMK AO2 SLP146 T02610144=
200706061252 METAR KATL 061252Z 31008KT 10SM CLR 23/16 A2998 RMK AO2 SLP144 T02280156=
200706061152 METAR KATL 061152Z 27005KT 10SM FEW250 21/16 A2996 RMK AO2 SLP137 70011 T02060156 10206 20183 53021=
200706061052 METAR KATL 061052Z 22003KT 10SM CLR 18/16 A2994 RMK AO2 SLP129 T01830156=
200706060952 METAR KATL 060952Z 27003KT 10SM CLR 19/16 A2991 RMK AO2 SLP121 T01940156=
200706060852 METAR KATL 060852Z 29004KT 10SM FEW100 20/16 A2990 RMK AO2 SLP117 T02000156 53004=
200706060752 METAR KATL 060752Z 25004KT 10SM FEW100 20/17 A2989 RMK AO2 SLP111 T02000167=
200706060652 METAR KATL 060652Z 23004KT 10SM CLR 20/17 A2989 RMK AO2 SLP111 T02000172=
200706060552 METAR KATL 060552Z 19005KT 10SM CLR 21/18 A2989 RMK AO2 SLP110 T02060178 10256 20206 51007=
200706060452 METAR KATL 060452Z 21005KT 10SM CLR 21/18 A2988 RMK AO2 SLP109 T02110178 403110194=
200706060352 METAR KATL 060352Z 18004KT 10SM CLR 22/18 A2988 RMK AO2 SLP108 T02220183=
200706060252 METAR KATL 060252Z 23005KT 10SM FEW080 23/18 A2987 RMK AO2 SLP103 T02280183 51022=
200706060152 METAR KATL 060152Z 22005KT 10SM FEW070 23/18 A2985 RMK AO2 SLP098 T02330178=
200706060052 METAR KATL 060052Z 22005KT 10SM FEW070 24/17 A2982 RMK AO2 SLP088 T02390172=
200706052352 METAR KATL 052352Z 20010KT 10SM FEW070 SCT250 26/17 A2980 RMK AO2 SLP081 60011 T02560172 10311 20217 53002=
200706052252 METAR KATL 052252Z 21007KT 10SM FEW035 SCT250 26/18 A2979 RMK AO2 SLP080 T02610178=
200706052152 METAR KATL 052152Z 22004KT 10SM FEW028 BKN250 25/18 A2978 RMK AO2 SLP077 T02500183=
200706052052 METAR KATL 052052Z 23009KT 10SM FEW020 SCT040 SCT065 BKN150 BKN250 22/18 A2979 RMK AO2 PK WND 21027/2033 TSB24E52RAB32E50 SLP081 LTG DSNT NE-SE TS MOV E CB DSNT NE-SE P0011 60011 T02220178 58003=
200706052044 SPECI KATL 052044Z 21012KT 9SM R09R/4500VP6000FT -TSRA FEW020CB BKN065 BKN110 BKN250 22/17 A2979 RMK AO2 PK WND 21027/2033 TSB24RAB32 VIS LWR NE-SE SHRA OCNL LTGICCG TS NE-SE MOV E CB NE-SE MOV E P0011=
200706052044 SPECI KATL 052044Z 21012KT 9SM R09R/4500VP6000FT -TSRA FEW020CB BKN065 BKN110 BKN250 22/17 A2979 RMK AO2 PK WND 21027/2033 TSB24RAB32 VIS LWR NE-SE SHRA OCNL LTGICCG TS NE-SE MOV E CB NE-SE MOV E P0011=
200706052038 SPECI KATL 052038Z 20013G27KT 2SM R09R/4000VP6000FT +TSRA FEW040CB BKN070 BKN110 OVC150 22/17 A2980 RMK AO2 PK WND 21027/2033 TSB24RAB32 VIS LWR N-NE AND S-W SHRA OCNL LTGICCG TS OHD-SW-N MOV E CB OHD-SW-N MOV E P=
200706052038 SPECI KATL 052038Z 20013G27KT 2SM R09R/4000VP6000FT +TSRA FEW040CB BKN070 BKN110 OVC150 22/17 A2980 RMK AO2 PK WND 21027/2033 TSB24RAB32 VIS LWR N-NE AND S-W SHRA OCNL LTGICCG TS OHD-SW-N MOV E CB OHD-SW-N MOV E P=
200706052024 SPECI KATL 052024Z 20012G23KT 9SM TS FEW040CB SCT070 SCT110 OVC150 25/14 A2979 RMK AO2 TSB24 OCNL LTGICCG TS SW-N MOV E CB SW-N MOV E SHRA SW-N=
200706052024 SPECI KATL 052024Z 20012G23KT 9SM TS FEW040CB SCT070 SCT110 OVC150 25/14 A2979 RMK AO2 TSB24 OCNL LTGICCG TS SW-N MOV E CB SW-N MOV E SHRA SW-N=
200706052015 SPECI KATL 052015Z 20014G20KT 10SM FEW045 SCT080 BKN150 OVC270 27/16 A2979 RMK AO2 LTG DSNT N SE AND SW CB DSNT N SE AND SW MOV E=
200706052015 SPECI KATL 052015Z 20014G20KT 10SM FEW045 SCT080 BKN150 OVC270 27/16 A2979 RMK AO2 LTG DSNT N SE AND SW CB DSNT N SE AND SW MOV E=
200706051952 METAR KATL 051952Z 23011G24KT 10SM FEW050 SCT110 BKN150 BKN270 28/14 A2980 RMK AO2 SLP082 LTG DSNT E-S W CB DSNT NE E-S W NW MOV E CMAM DSNT E T02780144=
200706051900 SPECI KATL 051900Z 25010G16KT 10SM FEW045 SCT080 SCT110 BKN150 BKN270 28/14 A2980 RMK AO2 LTG DSNT N AND S-SW CB DSNT N AND S-SW SHRA VC S-SW=
200706051900 SPECI KATL 051900Z 25010G16KT 10SM FEW045 SCT080 SCT110 BKN150 BKN270 28/14 A2980 RMK AO2 LTG DSNT N AND S-SW CB DSNT N AND S-SW SHRA VC S-SW=
200706051852 METAR KATL 051852Z 28009KT 10SM FEW045 SCT110 BKN150 BKN270 28/14 A2980 RMK AO2 SLP079 LTG DSNT N NE AND SE AND S CB DSNT N NE AND SE AND S MOV E T02830144=
200706051752 METAR KATL 051752Z 28012G17KT 10SM SCT055 SCT065 BKN270 30/17 A2980 RMK AO2 SLP080 LTG DSNT NE-SW CB DSNT NE-SW AND DSNT NW MOV ENE SHRA DSNT NE-SW T03000167 10306 20211 58013=
200706051725 SPECI KATL 051725Z 26011G20KT 10SM FEW050 SCT110 BKN270 29/14 A2982 RMK AO2 LTG DSNT NE-S CB DSNT NE-S MOV ENE SHRA DSNT NE-S=
200706051725 SPECI KATL 051725Z 26011G20KT 10SM FEW050 SCT110 BKN270 29/14 A2982 RMK AO2 LTG DSNT NE-S CB DSNT NE-S MOV ENE SHRA DSNT NE-S=
200706051703 SPECI KATL 051703Z 26009G20KT 10SM FEW050 SCT110 BKN270 29/15 A2982 RMK AO2 LTG DSNT N SE AND SW CB DSNT N SE AND SW MOV ENE SHRA DSNT N SE AND SW=
200706051703 SPECI KATL 051703Z 26009G20KT 10SM FEW050 SCT110 BKN270 29/15 A2982 RMK AO2 LTG DSNT N SE AND SW CB DSNT N SE AND SW MOV ENE SHRA DSNT N SE AND SW=
200706051652 METAR KATL 051652Z 25008G16KT 10SM FEW050 SCT110 BKN270 29/15 A2983 RMK AO2 SLP090 LTG DSNT SW CB DSNT S-SW AND DSNT NW TCU DSNT=
200706051552 METAR KATL 051552Z 29012KT 10SM FEW043 BKN110 BKN270 29/16 A2984 RMK AO2 SLP094 ACC OHD-S T02890156=
200706051452 METAR KATL 051452Z 24010KT 10SM FEW045 SCT100 BKN270 27/16 A2984 RMK AO2 SLP094 T02670156 51008=
200706051352 METAR KATL 051352Z 24008KT 10SM FEW120 SCT150 SCT270 25/16 A2984 RMK AO2 SLP093 T02500161=
200706051252 METAR KATL 051252Z 21006KT 10SM FEW100 SCT250 22/13 A2983 RMK AO2 SLP091 T02220133=
200706051152 METAR KATL 051152Z 24005KT 10SM FEW100 SCT250 21/13 A2982 RMK AO2 SLP086 T02110128 10228 20194 53014=
200706051052 METAR KATL 051052Z 23005KT 10SM FEW100 SCT250 19/13 A2980 RMK AO2 SLP081 T01940128=
200706050952 METAR KATL 050952Z 23004KT 10SM FEW100 SCT250 20/12 A2979 RMK AO2 SLP076 T02000122=
200706050852 METAR KATL 050852Z 28005KT 10SM FEW100 SCT200 SCT250 21/12 A2977 RMK AO2 SLP071 T02060122 53002=
200706050752 METAR KATL 050752Z 27005KT 10SM SCT100 SCT200 BKN250 22/12 A2977 RMK AO2 SLP068 T02170117=
200706050652 METAR KATL 050652Z 28008KT 10SM FEW085 SCT200 BKN250 22/12 A2977 RMK AO2 SLP068 T02220117=
200706050552 METAR KATL 050552Z 27007KT 10SM FEW085 SCT200 SCT250 23/11 A2977=
200706050452 METAR KATL 050452Z 25006KT 10SM FEW090 BKN200 24/11 A2977 RMK AO2 SLP070 T02390111 403220200=
200706050352 METAR KATL 050352Z 26007KT 10SM BKN220 25/11 A2977 RMK AO2 SLP070 T02500111=
200706050252 METAR KATL 050252Z 27006KT 10SM FEW100 BKN220 25/11 A2976 RMK AO2 SLP066 T02500106 51016=
200706050152 METAR KATL 050152Z 27007KT 10SM FEW100 SCT220 26/11 A2974 RMK AO2 SLP061 T02560106=
200706050052 METAR KATL 050052Z 28007KT 10SM FEW075 SCT100 SCT220 27/12 A2973 RMK AO2 SLP055 T02720117=
200706042352 METAR KATL 042352Z 27007KT 10SM FEW075 SCT200 SCT250 28/10 A2971 RMK AO2 SLP049 T02830100 10322 20283 53004=
200706042252 METAR KATL 042252Z 28014G23KT 10SM FEW080 SCT250 30/11 A2970 RMK AO2 SLP046 TCU DSNT SE T03000106=
200706042152 METAR KATL 042152Z 27013G22KT 10SM SCT080 SCT250 31/12 A2970 RMK AO2 PK WND 27027/2134 SLP045 TCU DSNT SE MDT CU DSNT NE-S AND NW T03060117=
200706042052 METAR KATL 042052Z 23012G24KT 10SM SCT080TCU SCT090 SCT250 30/13 A2970 RMK AO2 PK WND 29026/2010 SLP045 TCU S MDT CU ALQDS T03000128 55009=
200706041952 METAR KATL 041952Z 27013G22KT 10SM FEW080 BKN240 31/12 A2969 RMK AO2 PK WND 29028/1935 SLP042 CB DSNT SE MDT CU S-SW T03110117=
200706041852 METAR KATL 041852Z 26012G23KT 10SM FEW070 SCT240 31/12 A2970 RMK AO2 SLP045 CB DSNT E AND S T03110122=
200706041752 METAR KATL 041752Z 25014G21KT 10SM FEW055TCU SCT065 SCT240 31/16 A2972 RMK AO2 SLP054 TCU S MDT CU NE SE NW T03110156 10311 20217 58011=
200706041652 METAR KATL 041652Z 27013G20KT 240V300 10SM FEW050 SCT240 29/16 A2974 RMK AO2 SLP058 T02940156=
200706041552 METAR KATL 041552Z 26007G15KT 10SM FEW040 SCT100 SCT240 28/18 A2975 RMK AO2 SLP062 T02830178=
200706041452 METAR KATL 041452Z 25009KT 10SM FEW045 BKN100 BKN240 26/16 A2976 RMK AO2 SLP067 T02610161 51010=
200706041352 METAR KATL 041352Z 28012KT 10SM SCT110 SCT180 SCT240 26/18 A2975 RMK AO2 SLP064 T02560178=
200706041252 METAR KATL 041252Z 24009KT 10SM FEW110 SCT250 24/16 A2974 RMK AO2 SLP060 T02390156=
200706041152 METAR KATL 041152Z 23006KT 10SM SCT110 SCT200 BKN250 22/15 A2973 RMK AO2 SLP056 T02170150 10228 20200 53002=
200706041052 METAR KATL 041052Z 21006KT 10SM FEW065 BKN110 BKN200 BKN250 21/15 A2972 RMK AO2 SLP056 T02110150=
200706040952 METAR KATL 040952Z 26005KT 10SM SCT065 BKN100 BKN250 22/14 A2972 RMK AO2 SLP052 T02170144=
200706040852 METAR KATL 040852Z 24004KT 10SM SCT065 BKN100 BKN250 21/16 A2972 RMK AO2 SLP054 T02060156 53009=
200706040752 METAR KATL 040752Z 23004KT 9SM FEW100 SCT150 BKN200 BKN250 21/16 A2970 RMK AO2 SLP048 T02060161=
200706040652 METAR KATL 040652Z 23005KT 10SM SCT150 SCT200 BKN250 22/16 A2969 RMK AO2 SLP042 T02170156=
200706040552 METAR KATL 040552Z 24005KT 10SM SCT150 SCT200 BKN250 23/15 A2969 RMK AO2 SLP043 T02280150 10267 20222 58004=
200706040452 METAR KATL 040452Z 26007KT 10SM BKN150 23/16 A2970 RMK AO2 SLP046 T02280156 403110178=
200706040352 METAR KATL 040352Z 25007KT 10SM FEW150 24/16 A2971 RMK AO2 SLP047 T02390156=
200706040252 METAR KATL 040252Z 24006KT 10SM FEW150 23/15 A2970 RMK AO2 SLP049 T02280150 53012=
200706040152 METAR KATL 040152Z 24006KT 10SM SCT150 25/14 A2969 RMK AO2 SLP045 T02500144=
200706040052 METAR KATL 040052Z 25007KT 10SM SCT100 BKN150 26/14 A2967 RMK AO2 SLP038 SCT100 V BKN T02610144=
200706032352 METAR KATL 032352Z 27008KT 10SM FEW050 SCT110 BKN150 27/14 A2967 RMK AO2 SLP038 60000 T02670144 10311 20267 53007=
200706032252 METAR KATL 032252Z 28013G17KT 8SM SCT070 BKN150 27/16 A2965 RMK AO2 RAB29E46 SLP032 SHRA VC E-SE-S P0000 T02720156=
200706032152 METAR KATL 032152Z 25007KT 8SM FEW060TCU 29/16 A2965 RMK AO2 SLP030 TSE20 TCU VC NW-N TS MOV SE T02890161=
200706032123 SPECI KATL 032123Z 24009KT 8SM FEW060 SCT100 SCT150 28/16 A2965 RMK AO2 TSE20 TS DSIPT SHRA VC SE=
200706032123 SPECI KATL 032123Z 24009KT 8SM FEW060 SCT100 SCT150 28/16 A2965 RMK AO2 TSE20 TS DSIPT SHRA VC SE=
200706032052 METAR KATL 032052Z 26018G31KT 8SM TS BKN060CB 28/14 A2965 RMK AO2 PK WND 28031/2049 TSB43 SLP030 OCNL LTGIC TS OHD-S-SW MOV E SHRA S-SW T02830144 56010=
200706032045 SPECI KATL 032045Z 28009G19KT 8SM TS BKN060CB 29/14 A2964 RMK AO2 TSB43 OCNL LTGIC TS SW MOV E SHRA SW=
200706032045 SPECI KATL 032045Z 28009G19KT 8SM TS BKN060CB 29/14 A2964 RMK AO2 TSB43 OCNL LTGIC TS SW MOV E SHRA SW=
200706031952 METAR KATL 031952Z 31012G17KT 8SM FEW060 30/14 A2965 RMK AO2 SLP029 T03000144=
200706031852 METAR KATL 031852Z 29013G20KT 8SM SCT055 29/14 A2967 RMK AO2 SLP035 T02940144 $=
200706031752 METAR KATL 031752Z 33014G19KT 7SM SCT047 29/15 A2968 RMK AO2 SLP039 T02940150 10300 20189 58012=
200706031652 METAR KATL 031652Z 32015G18KT 6SM HZ BKN046 BKN060 28/15 A2969 RMK AO2 SLP045 T02830150=
200706031552 METAR KATL 031552Z 31014G20KT 7SM FEW040 28/16 A2970 RMK AO2 SLP047 T02830156=
200706031452 METAR KATL 031452Z 29015G21KT 8SM FEW045 26/15 A2971 RMK AO2 SLP052 T02610150 51000=
200706031352 METAR KATL 031352Z 29011G17KT 10SM CLR 24/15 A2971 RMK AO2 SLP052 T02390150=
200706031252 METAR KATL 031252Z 30010KT 10SM SCT250 21/14 A2972 RMK AO2 SLP055 T02110139=
200706031152 METAR KATL 031152Z 31010KT 10SM SCT250 19/13 A2971 RMK AO2 SLP055 T01890128 10206 20178 53004=
200706031052 METAR KATL 031052Z 30008KT 10SM BKN250 18/13 A2970 RMK AO2 SLP049 T01830128=
200706030952 METAR KATL 030952Z 30007KT 10SM FEW065 SCT095 OVC150 19/13 A2970 RMK AO2 SLP048 T01940133=
200706030852 METAR KATL 030852Z 29007KT 10SM SCT060 BKN100 OVC150 19/13 A2970 RMK AO2 SLP049 T01940133 56016=
200706030752 METAR KATL 030752Z 31006KT 10SM FEW080 BKN095 OVC150 19/13 A2971 RMK AO2 SLP052 T01940133=
200706030652 METAR KATL 030652Z 31006KT 10SM BKN090 OVC150 20/13 A2973 RMK AO2 SLP057 T02000133=
200706030552 METAR KATL 030552Z 35006KT 10SM SCT085 OVC150 21/13 A2975 RMK AO2 SLP065 T02060128 10217 20206 58019=
200706030452 METAR KATL 030452Z 35008KT 10SM OVC110 21/13 A2977 RMK AO2 SLP073 T02060128 402560200=
200706030352 METAR KATL 030352Z 02010KT 10SM FEW100 BKN120 OVC150 21/12 A2979 RMK AO2 SLP078 T02110117=
200706030252 METAR KATL 030252Z 04016G19KT 10SM FEW070 SCT100 BKN150 OVC200 22/12 A2981 RMK AO2 SLP085 T02170117 56008=
200706030152 METAR KATL 030152Z 04011KT 10SM FEW095 BKN150 BKN200 21/12 A2982 RMK AO2 SLP089 T02110117=
200706030052 METAR KATL 030052Z 04013G20KT 10SM BKN085 BKN150 22/12 A2981 RMK AO2 SLP088 T02170117=
200706022352 METAR KATL 022352Z 07012KT 10SM FEW050 SCT080 OVC150 22/11 A2983 RMK AO2 SLP094 60000 T02170111 10250 20217 56013=
200706022252 METAR KATL 022252Z 08015KT 10SM FEW030 SCT095 OVC150 23/11 A2983 RMK AO2 SLP094 T02280111=
200706022152 METAR KATL 022152Z 06012KT 9SM SCT028 BKN033 OVC100 23/15 A2983 RMK AO2 SLP094 T02330150=
200706022052 METAR KATL 022052Z 07011KT 9SM SCT035 BKN042 OVC060 22/16 A2987 RMK AO2 RAE46 SLP107 SHRA VC N P0000 60000 T02220161 58015=
200706021952 METAR KATL 021952Z 09012KT 9SM -RA SCT041 SCT050 OVC120 24/14 A2989 RMK AO2 RAB50 SLP110 P0000 T02390144=
200706021852 METAR KATL 021852Z 07013KT 9SM SCT045 BKN095 OVC150 24/13 A2990 RMK AO2 SLP116 T02440128=
200706021752 METAR KATL 021752Z 08013KT 9SM SCT038 BKN120 OVC150 25/13 A2992 RMK AO2 SLP121 T02500128 10256 20206 58012=
200706021652 METAR KATL 021652Z 09015KT 9SM SCT037 BKN120 OVC150 26/13 A2993 RMK AO2 SLP125 T02560133=
200706021552 METAR KATL 021552Z 08011KT 9SM SCT022 SCT120 OVC150 25/14 A2994 RMK AO2 SLP128 T02500144=
200706021452 METAR KATL 021452Z 07008KT 10SM FEW025 SCT120 OVC150 23/16 A2995 RMK AO2 SLP134 T02280161 58008=
200706021352 METAR KATL 021352Z 09008KT 10SM FEW055 OVC200 22/16 A2996 RMK AO2 SLP136 T02220161=
200706021252 METAR KATL 021252Z 07006KT 10SM SCT055 OVC200 21/16 A2997 RMK AO2 SLP141 T02110156=
200706021152 METAR KATL 021152Z 08007KT 10SM SCT050 OVC200 21/15 A2998 RMK AO2 SLP142 T02060150 10233 20200 50001=
200706021052 METAR KATL 021052Z 09005KT 10SM FEW049 OVC200 20/14 A2998 RMK AO2 SLP144 T02000144=
200706020952 METAR KATL 020952Z 10005KT 10SM FEW060 BKN150 OVC250 21/14 A2998 RMK AO2 SLP141 T02060144=
200706020852 METAR KATL 020852Z 12005KT 10SM BKN150 BKN250 21/14 A2998 RMK AO2 SLP140 T02110139 56007=
200706020752 METAR KATL 020752Z 13004KT 10SM BKN150 OVC250 22/14 A2998 RMK AO2 SLP142 T02220139=
200706020652 METAR KATL 020652Z 13005KT 10SM BKN150 OVC250 23/14 A2998 RMK AO2 SLP143 T02280144=
200706020552 METAR KATL 020552Z 13005KT 10SM FEW150 BKN200 OVC250 23/14 A3000 RMK AO2 SLP146 T02330144 10272 20233 58007=
200706020452 METAR KATL 020452Z 12004KT 10SM FEW070 BKN150 OVC250 24/14 A3001 RMK AO2 SLP150 T02390144 403060206=
200706020352 METAR KATL 020352Z 13004KT 10SM BKN150 OVC250 24/14 A3001 RMK AO2 SLP153 T02440144=
200706020252 METAR KATL 020252Z 15005KT 10SM OVC150 25/14 A3002 RMK AO2 SLP155 T02500139 51008=
200706020152 METAR KATL 020152Z 15005KT 10SM BKN150 OVC250 26/13 A3001 RMK AO2 SLP153 T02560133=
200706020052 METAR KATL 020052Z 15009KT 10SM BKN200 OVC250 26/14 A3000 RMK AO2 SLP151 T02610144=
200706012352 METAR KATL 012352Z 14008G15KT 9SM FEW055 BKN200 OVC250 27/14 A2999 RMK AO2 SLP147 T02720144 10306 20272 55002=
200706012252 SPECI KATL 012252Z 15012KT 9SM FEW055 SCT200 OVC250 28/14 A2998 RMK AO2 SLP143 MDT CU SW-W T02830144=
200706012152 METAR KATL 012152Z 18008KT 9SM FEW060 SCT200 BKN250 29/14 A2999 RMK AO2 SLP144 MDT CU W-NW T02890144=
200706012052 METAR KATL 012052Z 11007KT 9SM FEW060 SCT085 BKN200 OVC250 29/14 A3000 RMK AO2 SLP148 MDT CU SE AND W-NW T02940139 56024=
200706011952 METAR KATL 011952Z 15006KT 9SM SCT060 BKN075 OVC250 29/13 A3002 RMK AO2 SLP155 MDT CU ALQDS T02890133=
200706011852 METAR KATL 011852Z 17007G18KT 9SM SCT055 SCT100 BKN280 29/14 A3005 RMK AO2 SLP165 MDT CU NE AND NW T02890139=
200706011752 METAR KATL 011752Z VRB05KT 9SM FEW055 SCT080 BKN150 BKN280 29/14 A3007 RMK AO2 SLP172 T02940139 10294 20211 58013=
200706011652 METAR KATL 011652Z VRB04KT 9SM FEW060 SCT110 BKN150 BKN280 28/14 A3009 RMK AO2 SLP180 T02830139=
200706011552 METAR KATL 011552Z 14005KT 9SM FEW080 BKN110 BKN280 28/15 A3010 RMK AO2 SLP182 T02830150=
200706011452 METAR KATL 011452Z VRB04KT 8SM FEW280 26/16 A3011 RMK AO2 SLP185 T02610156 51007=
200706011352 METAR KATL 011352Z 00000KT 8SM FEW085 SCT280 24/16 A3011 RMK AO2 SLP184 T02440161=
200706011252 METAR KATL 011252Z 00000KT 7SM FEW030 SCT150 SCT250 22/16 A3010 RMK AO2 SLP184 T02220161=
