##########################################################
# Query made at 04/19/2024 23:02:06 UTC
# Time interval: from 07/01/2007 12:00  to 07/31/2007 12:59  UTC
##########################################################

##########################################################
# KATL, Atlanta, Hartsfield - Jackson Atlanta International Airport (United States)
# WMO index: 72219. WIGOS ID: 0-20000-0-72219
# Latitude 33-38-59N. Longitude 084-25-00W. Altitude 312 m.
##########################################################

200707311252 METAR KATL 311252Z 09010KT 6SM BR BKN010 BKN028 BKN250 23/22 A2998 RMK AO2 SLP142 T02330217=
200707311237 SPECI KATL 311237Z 09008KT 5SM BR BKN010 BKN028 BKN250 23/22 A2998 RMK AO2=
200707311237 SPECI KATL 311237Z 09008KT 5SM BR BKN010 BKN028 BKN250 23/22 A2998 RMK AO2=
200707311225 SPECI KATL 311225Z 10007KT 6SM BR BKN008 BKN026 BKN250 23/22 A2998 RMK AO2=
200707311225 SPECI KATL 311225Z 10007KT 6SM BR BKN008 BKN026 BKN250 23/22 A2998 RMK AO2=
200707311152 METAR KATL 311152Z 10007KT 5SM BR FEW012 SCT022 SCT200 SCT250 23/21 A2997 RMK AO2 SLP137 T02280211 10239 20222 53019=
200707311052 METAR KATL 311052Z 09004KT 6SM BR FEW200 SCT250 22/21 A2994 RMK AO2 SLP127 T02220211=
200707310952 METAR KATL 310952Z 05004KT 7SM FEW250 23/22 A2992 RMK AO2 SLP121 T02280217=
200707310852 METAR KATL 310852Z 05009KT 6SM BR FEW008 SCT250 23/22 A2991 RMK AO2 SLP117 T02280217 55005=
200707310752 METAR KATL 310752Z 06005KT 7SM CLR 23/22 A2991 RMK AO2 SLP115 T02330217=
200707310652 METAR KATL 310652Z 05010KT 7SM FEW250 24/22 A2991 RMK AO2 SLP118 T02390217=
200707310552 METAR KATL 310552Z 06009KT 10SM FEW036 SCT250 24/21 A2993 RMK AO2 SLP123 T02390211 10300 20239 50003=
200707310452 METAR KATL 310452Z 07009KT 9SM FEW250 24/19 A2994 RMK AO2 SLP126 T02440189 403330222=
200707310352 METAR KATL 310352Z 09007KT 10SM FEW250 25/21 A2993 RMK AO2 SLP125 T02500206=
200707310252 METAR KATL 310252Z 02006KT 8SM CLR 28/21 A2992 RMK AO2 SLP119 T02830206 51014=
200707310152 METAR KATL 310152Z 11003KT 9SM FEW120 SCT250 27/21 A2991 RMK AO2 SLP118 OCNL LTG DSNT NE T02720206=
200707310052 METAR KATL 310052Z 34005KT 9SM FEW090 SCT120 BKN150 BKN250 29/19 A2990 RMK AO2 SLP114 CB DSNT NE AND SE T02940194=
200707302352 METAR KATL 302352Z 32007KT 9SM BKN090 BKN150 BKN250 30/19 A2988 RMK AO2 RAE04 SLP105 FRQ LTG DSNT SE P0000 60000 T03000194 10333 20294 53008=
200707302252 METAR KATL 302252Z 34011KT 9SM -RA FEW050 SCT070 BKN090 OVC150 31/19 A2985 RMK AO2 RAB52 SLP096 FRQ LTG DSNT E-SE P0000 T03060189=
200707302152 METAR KATL 302152Z 27010KT 9SM FEW055TCU SCT075 BKN140 BKN250 32/18 A2984 RMK AO2 SLP094 TCU VC N-NE AND NW T03170183=
200707302052 METAR KATL 302052Z 28010KT 8SM SCT055 SCT070 SCT250 33/18 A2985 RMK AO2 SLP096 CB DSNT N T03280183 56023=
200707301952 METAR KATL 301952Z VRB06KT 8SM FEW050 SCT250 33/19 A2987 RMK AO2 SLP104 CB DSNT N TCU DSNT SE SW T03280189=
200707301852 METAR KATL 301852Z 29006KT 6SM HZ FEW038 SCT250 31/21 A2989 RMK AO2 SLP110 TCU DSNT NE SW T03110206=
200707301752 METAR KATL 301752Z 00000KT 6SM HZ SCT039TCU 31/21 A2992 RMK AO2 SLP120 TCU NW-N MDT CU ALQDS T03060211 10311 20228 58003=
200707301652 METAR KATL 301652Z 32005KT 6SM HZ FEW034TCU SCT045 30/21 A2993 RMK AO2 SLP123 TCU N SE-S T03000211=
200707301552 METAR KATL 301552Z 35004KT 6SM HZ FEW024CB SCT030TCU SCT040 SCT250 29/22 A2994 RMK AO2 SLP128 CB SE-S MOV SE TCU N-NE T02940217=
200707301452 METAR KATL 301452Z 00000KT 3SM HZ BKN020 BKN250 28/22 A2993 RMK AO2 SFC VIS 6 SLP125 T02780217 51011=
200707301352 METAR KATL 301352Z 05004KT 3SM HZ FEW016 SCT110 BKN150 BKN250 27/24 A2992 RMK AO2 SFC VIS 5 SLP121 T02720239=
200707301252 METAR KATL 301252Z 31003KT 8SM FEW018 SCT110 BKN150 BKN250 24/23 A2992 RMK AO2 SLP120 T02440228=
200707301152 METAR KATL 301152Z 00000KT 10SM FEW018 BKN150 BKN250 23/22 A2990 RMK AO2 SLP115 70003 T02280217 10244 20222 53008=
200707301052 METAR KATL 301052Z 33005KT 10SM FEW110 SCT250 22/21 A2987 RMK AO2 SLP106 T02220211 $=
200707300952 METAR KATL 300952Z 29004KT 10SM FEW014 SCT110 SCT250 22/21 A2987 RMK AO2 SLP107 T02220211 $=
200707300852 METAR KATL 300852Z 31004KT 10SM FEW014 SCT110 SCT250 22/21 A2987 RMK AO2 SLP106 T02220211 58007 $=
200707300813 SPECI KATL 300813Z 29005KT 10SM SCT014 BKN110 BKN250 23/21 A2989 RMK AO2 $=
200707300813 SPECI KATL 300813Z 29005KT 10SM SCT014 BKN110 BKN250 23/21 A2989 RMK AO2 $=
200707300752 METAR KATL 300752Z 24003KT 9SM BKN012 OVC110 24/23 A2990 RMK AO2 SLP112 T02390228 $=
200707300746 SPECI KATL 300746Z 23004KT 9SM BKN012 OVC110 24/23 A2990 RMK AO2 $=
200707300746 SPECI KATL 300746Z 23004KT 9SM BKN012 OVC110 24/23 A2990 RMK AO2 $=
200707300652 METAR KATL 300652Z 00000KT 10SM FEW090 BKN110 BKN250 24/23 A2989 RMK AO2 SLP111 T02390228 $=
200707300552 METAR KATL 300552Z 00000KT 9SM SCT090 BKN110 BKN250 24/23 A2990 RMK AO2 SLP112 T02440228 10261 20233 53001 $=
200707300452 METAR KATL 300452Z 00000KT 10SM BKN100 BKN150 24/22 A2989 RMK AO2 SLP111 LTG DSNT N-E T02390217 403060228 $=
200707300352 METAR KATL 300352Z 29003KT 9SM SCT110 BKN150 23/21 A2988 RMK AO2 SLP107 LTG DSNT NE-E T02330211 $=
200707300252 METAR KATL 300252Z 00000KT 10SM SCT070 BKN100 25/21 A2989 RMK AO2 SLP111 T02500211 51010 $=
200707300152 METAR KATL 300152Z 24003KT 9SM BKN085 BKN150 24/21 A2989 RMK AO2 SLP111 T02440211 $=
200707300052 METAR KATL 300052Z 28003KT 5SM HZ FEW012 BKN075 BKN110 25/22 A2987 RMK AO2 SLP107 T02500222 $=
200707292352 METAR KATL 292352Z 27005KT 6SM HZ SCT015 BKN060 BKN120 26/22 A2986 RMK AO2 RAB00E42 SLP103 CB DSNT SW P0000 60003 T02610222 10306 20244 55002 $=
200707292252 METAR KATL 292252Z 00000KT 6SM HZ FEW015 BKN038 BKN045 26/22 A2986 RMK AO2 SLP102 CB DSNT SW SHRA DSNT W-N T02610222 $=
200707292152 METAR KATL 292152Z 14004KT 6SM HZ FEW011 BKN037 BKN100 26/22 A2986 RMK AO2 TSE51RAE31 SLP102 CB DSNT NE-SE AND SW P0001 T02560217 $=
200707292136 SPECI KATL 292136Z 09007KT 5SM TS HZ FEW011 SCT023CB BKN037 26/22 A2985 RMK AO2 RAE31 OCNL LTGIC TS VC NE-SE MOV E P0001 $=
200707292136 SPECI KATL 292136Z 09007KT 5SM TS HZ FEW011 SCT023CB BKN037 26/22 A2985 RMK AO2 RAE31 OCNL LTGIC TS VC NE-SE MOV E P0001 $=
200707292052 METAR KATL 292052Z VRB04KT 3SM R09R/5000VP6000FT TSRA SCT019 BKN026CB OVC036 25/22 A2987 RMK AO2 WSHFT 2010 RAB12 SLP105 CONS LTGCGCCIC TS ALQDS MOV SE P0002 60002 T02500217 53002 $=
200707292039 SPECI KATL 292039Z 02010KT 4SM -TSRA FEW019 BKN026CB OVC031 25/22 A2987 RMK AO2 WSHFT 2010 RAB12 CONS LTGCGCCIC TS SE-OHD-W-NW MOV SE P0001 $=
200707292039 SPECI KATL 292039Z 02010KT 4SM -TSRA FEW019 BKN026CB OVC031 25/22 A2987 RMK AO2 WSHFT 2010 RAB12 CONS LTGCGCCIC TS SE-OHD-W-NW MOV SE P0001 $=
200707292026 SPECI KATL 292026Z 31012G20KT 2 1/2SM TSRA BR FEW019 BKN026CB OVC031 24/22 A2986 RMK AO2 WSHFT 2010 RAB12 OCNL LTGIC TS SE-OHD-W-NW MOV SE P0000 $=
200707292026 SPECI KATL 292026Z 31012G20KT 2 1/2SM TSRA BR FEW019 BKN026CB OVC031 24/22 A2986 RMK AO2 WSHFT 2010 RAB12 OCNL LTGIC TS SE-OHD-W-NW MOV SE P0000 $=
200707292013 SPECI KATL 292013Z 32011G16KT 2 1/2SM TSRA BKN029CB OVC100 28/22 A2985 RMK AO2 SFC VIS 5 RAB12 OCNL LTGIC TS SE-OHD-W-NW MOV SE SHRA N-E AND W-N P0000 $=
200707292013 SPECI KATL 292013Z 32011G16KT 2 1/2SM TSRA BKN029CB OVC100 28/22 A2985 RMK AO2 SFC VIS 5 RAB12 OCNL LTGIC TS SE-OHD-W-NW MOV SE SHRA N-E AND W-N P0000 $=
200707291952 METAR KATL 291952Z 03007KT 6SM TS HZ BKN034CB BKN110 29/21 A2985 RMK AO2 SLP097 OCNL LTGIC TS SE-OHD-W-NW MOV SE SHRA NW T02940211 $=
200707291852 METAR KATL 291852Z 19005KT 8SM TS SCT027CB SCT070 BKN120 29/21 A2986 RMK AO2 TSB48 SLP100 OCNL LTGIC TS VC NW MOV SE TCU N-NE SHRA NW T02940206 $=
200707291849 SPECI KATL 291849Z 19003KT 8SM TS SCT027CB BKN120 29/21 A2986 RMK AO2 TSB48 OCNL LTGIC TS VC NW MOV SE TCU N-NE SHRA NW $=
200707291849 SPECI KATL 291849Z 19003KT 8SM TS SCT027CB BKN120 29/21 A2986 RMK AO2 TSB48 OCNL LTGIC TS VC NW MOV SE TCU N-NE SHRA NW $=
200707291752 METAR KATL 291752Z 22006KT 8SM SCT024TCU BKN065 BKN150 29/22 A2988 RMK AO2 SLP105 TCU SE 60000 T02890217 10300 20228 58006 $=
200707291652 METAR KATL 291652Z 32003KT 8SM SCT027TCU BKN043 BKN080 29/22 A2989 RMK AO2 RAB36E46 SLP109 TCU SW P0000 T02890217 $=
200707291648 SPECI KATL 291648Z 31003KT 8SM SCT027TCU BKN043 BKN080 29/22 A2989 RMK AO2 RAB36E46 TCU SW P0000 $=
200707291648 SPECI KATL 291648Z 31003KT 8SM SCT027TCU BKN043 BKN080 29/22 A2989 RMK AO2 RAB36E46 TCU SW P0000 $=
200707291552 METAR KATL 291552Z 28005KT 9SM BKN027 BKN150 28/22 A2990 RMK AO2 SLP111 T02830217 $=
200707291527 SPECI KATL 291527Z 23003KT 7SM BKN019 BKN250 27/22 A2989 RMK AO2 $=
200707291527 SPECI KATL 291527Z 23003KT 7SM BKN019 BKN250 27/22 A2989 RMK AO2 $=
200707291452 METAR KATL 291452Z 00000KT 7SM SCT019 BKN250 27/21 A2989 RMK AO2 SLP110 T02670211 52010 $=
200707291352 METAR KATL 291352Z 00000KT 8SM BKN019 BKN080 BKN250 26/22 A2988 RMK AO2 SLP107 T02610217 $=
200707291312 SPECI KATL 291312Z 28006KT 7SM BKN019 OVC080 24/22 A2987 RMK AO2 $=
200707291312 SPECI KATL 291312Z 28006KT 7SM BKN019 OVC080 24/22 A2987 RMK AO2 $=
200707291252 METAR KATL 291252Z 28004KT 7SM FEW019 BKN080 BKN150 24/22 A2987 RMK AO2 SLP104 T02390217 $=
200707291245 SPECI KATL 291245Z 25003KT 7SM FEW002 SCT019 SCT150 24/22 A2987 RMK AO2 VIS LWR NE-E $=
200707291245 SPECI KATL 291245Z 25003KT 7SM FEW002 SCT019 SCT150 24/22 A2987 RMK AO2 VIS LWR NE-E $=
200707291227 SPECI KATL 291227Z 00000KT 6SM BR SCT002 BKN019 23/22 A2987 RMK AO2 VIS=
200707291227 SPECI KATL 291227Z 00000KT 6SM BR SCT002 BKN019 23/22 A2987 RMK AO2 VIS NE-E 3 $=
200707291218 SPECI KATL 291218Z 23003KT 2 1/2SM BR SCT001 BKN019 23/22 A2987 RMK AO2=
200707291218 SPECI KATL 291218Z 23003KT 2 1/2SM BR SCT001 BKN019 23/22 A2987 RMK AO2=
200707291204 SPECI KATL 291204Z 23003KT 1SM BR FEW001 SCT250 23/22 A2986 RMK AO2 SFC VIS 1 1/2=
200707291204 SPECI KATL 291204Z 23003KT 1SM BR FEW001 SCT250 23/22 A2986 RMK AO2 SFC VIS 1 1/2=
200707291154 SPECI KATL 291154Z 00000KT 1SM R09R/5000VP6000FT BR OVC001 23/21 A2986 RMK AO2 SFC VIS 2 1/2=
200707291154 SPECI KATL 291154Z 00000KT 1SM R09R/5000VP6000FT BR OVC001 23/21 A2986 RMK AO2 SFC VIS 2 1/2=
200707291152 METAR KATL 291152Z 23003KT 0SM R09R/5000VP6000FT BR BKN001 23/21 A2986 RMK AO2 SFC VIS 2 SLP100 60007 70007 T02280211 10256 20228 53007=
200707291103 SPECI KATL 291103Z 20004KT 1/8SM R09R/2600VP6000FT BR OVC001 23/21 A2985 RMK AO2 SFC VIS 1=
200707291103 SPECI KATL 291103Z 20004KT 1/8SM R09R/2600VP6000FT BR OVC001 23/21 A2985 RMK AO2 SFC VIS 1=
200707291057 SPECI KATL 291057Z 20004KT 1 3/4SM BR SCT001 BKN150 23/21 A2985 RMK AO2=
200707291057 SPECI KATL 291057Z 20004KT 1 3/4SM BR SCT001 BKN150 23/21 A2985 RMK AO2=
200707291052 METAR KATL 291052Z 21005KT 7SM FEW150 23/21 A2984 RMK AO2 SLP095 T02280211=
200707290952 METAR KATL 290952Z 21005KT 5SM BR FEW065 SCT150 23/21 A2984 RMK AO2 SLP093 T02330211=
200707290852 METAR KATL 290852Z 00000KT 7SM SCT048 BKN150 23/22 A2984 RMK AO2 SLP092 60007 T02330217 56010=
200707290752 METAR KATL 290752Z 21003KT 7SM SCT043 BKN050 OVC090 24/22 A2984 RMK AO2 SLP093 T02390217=
200707290652 METAR KATL 290652Z 12003KT 8SM BKN065 OVC090 24/22 A2984 RMK AO2 RAB10E51 SLP093 P0007 T02390217=
200707290552 METAR KATL 290552Z 11004KT 10SM FEW060 OVC080 26/21 A2987 RMK AO2 SLP102 60000 T02560206 10306 20256 58000=
200707290452 METAR KATL 290452Z 00000KT 10SM FEW090 BKN150 OVC250 26/21 A2987 RMK AO2 SLP103 T02560206 403170239=
200707290352 METAR KATL 290352Z 04004KT 10SM BKN085 OVC110 27/21 A2988 RMK AO2 RAB21E31 SLP105 P0000 T02670206=
200707290252 METAR KATL 290252Z 00000KT 10SM FEW035CB BKN060 OVC080 28/21 A2987 RMK AO2 RAB28E48 SLP103 CB SW MOV SE LTG DSNT NE-E P0000 60000 T02830206 53016=
200707290152 METAR KATL 290152Z 33006KT 10SM SCT090 BKN120 BKN250 28/21 A2984 RMK AO2 TSE52 SLP095 DSNT LTG NE-E TS MOV E T02830206=
200707290052 METAR KATL 290052Z 26003KT 10SM TS FEW035CB BKN080 OVC110 29/19 A2984 RMK AO2 TSB36 SLP094 OCNL LTGICCG TS VC N-NE MOV SE T02940194=
200707290037 SPECI KATL 290037Z 28004KT 10SM TS FEW042CB BKN080 OVC110 29/19 A2984 RMK AO2 TSB36 OCNL LTGIC TS VC N-NE MOV SE=
200707290037 SPECI KATL 290037Z 28004KT 10SM TS FEW042CB BKN080 OVC110 29/19 A2984 RMK AO2 TSB36 OCNL LTGIC TS VC N-NE MOV SE=
200707282352 METAR KATL 282352Z 25006KT 10SM FEW046TCU SCT090 BKN110 BKN250 31/19 A2982 RMK AO2 SLP086 TCU VC NE CB DSNT NW T03060194 10317 20294 55009=
200707282252 METAR KATL 282252Z 22006KT 10SM FEW046 BKN090 31/20 A2982 RMK AO2 SLP084 T03110200=
200707282152 METAR KATL 282152Z 26006KT 10SM FEW048 SCT120 SCT250 31/19 A2982 RMK AO2 SLP087 T03110194=
200707282052 METAR KATL 282052Z 24008KT 10SM FEW043 SCT070 BKN100 BKN150 31/20 A2985 RMK AO2 SLP095 T03110200 56020=
200707281952 METAR KATL 281952Z 28008G14KT 10SM FEW045TCU SCT090 BKN150 31/20 A2986 RMK AO2 SLP098 TCU OHD MOV SE CB DSNT NE AND NW T03110200=
200707281852 METAR KATL 281852Z 21007KT 10SM SCT045 SCT095 BKN150 31/21 A2989 RMK AO2 SLP108 T03110206 $=
200707281752 METAR KATL 281752Z 26009KT 10SM FEW040 SCT100 BKN150 29/19 A2991 RMK AO2 SLP117 60000 T02940194 10300 20244 58009=
200707281652 METAR KATL 281652Z 26006KT 10SM FEW025 SCT120 BKN150 BKN200 27/21 A2993 RMK AO2 RAE46 SLP123 P0000 T02720211=
200707281552 METAR KATL 281552Z 28007KT 9SM -RA FEW020 BKN150 BKN200 26/21 A2994 RMK AO2 RAB44 SLP128 P0000 T02560206=
200707281452 METAR KATL 281452Z 27006KT 8SM BKN150 OVC200 26/21 A2994 RMK AO2 SLP126 T02560206 50001=
200707281352 METAR KATL 281352Z 26006KT 8SM BKN150 OVC200 25/21 A2994 RMK AO2 SLP128 T02500206=
200707281252 METAR KATL 281252Z 27005KT 8SM FEW095 BKN150 BKN200 25/20 A2994 RMK AO2 SLP129 T02500200=
200707281152 METAR KATL 281152Z 27005KT 7SM BKN150 OVC250 24/21 A2994 RMK AO2 SLP126 T02440206 10250 20239 53010=
200707281052 METAR KATL 281052Z 26005KT 8SM BKN150 OVC250 24/21 A2992 RMK AO2 SLP121 T02390206=
200707280952 METAR KATL 280952Z 25004KT 8SM BKN150 OVC200 24/21 A2992 RMK AO2 SLP119 T02440206=
200707280852 METAR KATL 280852Z 25003KT 8SM BKN150 OVC200 24/21 A2991 RMK AO2 SLP114 T02440206 58009=
200707280752 METAR KATL 280752Z 24005KT 8SM BKN150 OVC200 24/20 A2991 RMK AO2 SLP117 T02440200=
200707280652 METAR KATL 280652Z 23004KT 8SM SCT150 BKN200 OVC250 24/20 A2994 RMK AO2 SLP125 T02440200=
200707280552 METAR KATL 280552Z 21005KT 8SM SCT150 OVC250 25/20 A2993 RMK AO2 SLP124 T02500200 10289 20250 58012=
200707280452 METAR KATL 280452Z 22005KT 10SM FEW150 BKN200 OVC250 26/20 A2995 RMK AO2 SLP130 T02560200 403220206=
200707280352 METAR KATL 280352Z 25003KT 10SM FEW050 BKN200 OVC250 26/19 A2997 RMK AO2 SLP136 T02610194=
200707280252 METAR KATL 280252Z 00000KT 10SM FEW150 BKN200 BKN250 27/19 A2997 RMK AO2 SLP138 OCNL LTG DSNT W T02670189 50005=
200707280152 METAR KATL 280152Z 00000KT 10SM BKN150 BKN250 28/17 A2997 RMK AO2 SLP138 T02780172=
200707280052 METAR KATL 280052Z 30004KT 10SM SCT150 BKN200 BKN250 28/17 A2996 RMK AO2 SLP133 T02780167=
200707272352 METAR KATL 272352Z 30009KT 10SM FEW150 BKN200 BKN250 29/17 A2995 RMK AO2 SLP132 T02890172 10322 20289 55004=
200707272252 METAR KATL 272252Z 27011KT 10SM FEW050 BKN200 BKN250 30/18 A2995 RMK AO2 SLP130 CB DSNT S TCU DSNT NE-SE T03000183=
200707272152 METAR KATL 272152Z 25009KT 10SM FEW050TCU BKN200 BKN250 31/19 A2996 RMK AO2 SLP133 TCU VC N-NE CB DSNT S T03060189 $=
200707272052 METAR KATL 272052Z 27009KT 10SM FEW050 BKN220 BKN300 31/18 A2997 RMK AO2 SLP136 CB DSNT SW MDT CU NE-SE T03110178 56024=
200707271952 METAR KATL 271952Z VRB06KT 9SM BKN055 BKN220 32/18 A2999 RMK AO2 SLP143 MDT CU SE NW T03170183=
200707271852 METAR KATL 271852Z VRB04KT 9SM SCT045 BKN060 BKN220 31/19 A3002 RMK AO2 SLP153 TCU DSNT S T03060189=
200707271752 METAR KATL 271752Z 29008KT 9SM SCT045 BKN055 BKN220 30/19 A3004 RMK AO2 SLP161 T03000189 10306 20228 58015=
200707271652 METAR KATL 271652Z VRB06KT 9SM FEW045 SCT180 BKN220 29/19 A3006 RMK AO2 SLP169 TCU DSNT W T02940194=
200707271552 METAR KATL 271552Z 34007KT 8SM FEW030 SCT180 BKN220 29/21 A3007 RMK AO2 SLP173 T02940206=
200707271452 METAR KATL 271452Z 31006KT 8SM FEW180 BKN220 BKN300 27/20 A3008 RMK AO2 SLP176 T02670200 52002=
200707271352 METAR KATL 271352Z 28005KT 10SM BKN220 25/19 A3008 RMK AO2 SLP175 T02500194=
200707271252 METAR KATL 271252Z 28005KT 10SM BKN200 BKN250 24/21 A3009 RMK AO2 SLP177 T02440206=
200707271152 METAR KATL 271152Z 28003KT 10SM SCT200 BKN250 23/21 A3008 RMK AO2 SLP175 T02280206 10233 20217 53006=
200707271052 METAR KATL 271052Z 27003KT 8SM FEW200 SCT250 22/20 A3007 RMK AO2 SLP172 T02170200=
200707270952 METAR KATL 270952Z 28006KT 10SM FEW150 SCT250 22/20 A3006 RMK AO2 SLP169 T02220200=
200707270852 METAR KATL 270852Z 00000KT 10SM FEW150 SCT250 23/19 A3006 RMK AO2 SLP168 T02280194 55009=
200707270752 METAR KATL 270752Z 27004KT 10SM FEW150 SCT250 23/19 A3006 RMK AO2 SLP167 T02280194=
200707270652 METAR KATL 270652Z 24003KT 10SM FEW150 SCT250 23/20 A3006 RMK AO2 SLP168 T02330200=
200707270552 METAR KATL 270552Z 00000KT 10SM FEW250 23/19 A3009 RMK AO2 SLP178 T02330189 10283 20233 58003=
200707270452 METAR KATL 270452Z 26003KT 10SM FEW250 24/18 A3010 RMK AO2 SLP181 T02440183 403060194=
200707270352 METAR KATL 270352Z 26003KT 10SM FEW070 25/18 A3011 RMK AO2 SLP184 T02500183=
200707270252 METAR KATL 270252Z 00000KT 9SM FEW250 26/18 A3010 RMK AO2 SLP181 T02610178 53012=
200707270152 METAR KATL 270152Z 21006KT 10SM SCT250 26/19 A3007 RMK AO2 SLP172 T02610194=
200707270052 METAR KATL 270052Z 00000KT 9SM FEW200 SCT250 28/19 A3007 RMK AO2 SLP173 T02780194=
200707262352 METAR KATL 262352Z 25004KT 9SM SCT250 28/20 A3006 RMK AO2 SLP171 T02830200 10306 20283 55001 $=
200707262252 METAR KATL 262252Z 21009KT 8SM FEW045 SCT250 29/19 A3006 RMK AO2 SLP169 TCU DSNT E-SE T02890194=
200707262152 METAR KATL 262152Z COR 26010G15KT 8SM FEW045 SCT150 BKN200 BKN250 30/20 A3007 RMK AO2 SLP171 CB DSNT NW T03000200=
200707262052 METAR KATL 262052Z 25005KT 10SM FEW045TCU SCT150 BKN180 OVC250 29/18 A3007 RMK AO2 SLP171 CB DSNT S-NW MOV E CBMAM DSNT W TCU NW-N SHRA DSNT S-NW BINOVC DSNT E-S T02940183 56020=
200707261952 METAR KATL 261952Z 22005KT 10SM BKN050 BKN200 BKN250 30/18 A3008 RMK AO2 SLP175 CB DSNT W TCU DSNT NE SHRA DSNT W T03000178=
200707261852 METAR KATL 261852Z 23005KT 10SM BKN045TCU BKN250 30/18 A3010 RMK AO2 SLP182 TCU OHD-N-NE SW-NW T03000183=
200707261752 METAR KATL 261752Z 18004KT 10SM BKN048TCU BKN250 29/19 A3013 RMK AO2 SLP192 TCU OHD-SW-NW MDT CU ALQDS T02940194 10300 20206 58007=
200707261652 METAR KATL 261652Z 00000KT 10SM SCT040 SCT250 29/19 A3014 RMK AO2 SLP197 T02940194=
200707261552 METAR KATL 261552Z 15005KT 10SM FEW030 SCT250 27/19 A3015 RMK AO2 SLP200 T02720194=
200707261452 METAR KATL 261452Z 00000KT 10SM FEW025 SCT250 26/19 A3015 RMK AO2 SLP201 T02560194 50000=
200707261352 METAR KATL 261352Z 16004KT 10SM FEW150 SCT250 BKN300 23/18 A3016 RMK AO2 SLP204 T02330183=
200707261252 METAR KATL 261252Z 09005KT 10SM FEW012 SCT150 SCT200 BKN250 22/18 A3016 RMK AO2 SLP204 T02220178=
200707261152 METAR KATL 261152Z 09008KT 8SM FEW004 BKN140 BKN250 21/19 A3015 RMK AO2 SLP200 60000 70001 T02060194 10217 20194 53017 $=
200707261140 SPECI KATL 261140Z 09005KT 8SM FEW002 BKN140 BKN250 21/18 A3015 RMK AO2 VIS N-NE 2 1/2 $=
200707261140 SPECI KATL 261140Z 09005KT 8SM FEW002 BKN140 BKN250 21/18 A3015 RMK AO2 VIS N-NE 2 1/2 $=
200707261126 SPECI KATL 261126Z 07005KT 2 1/2SM BR SCT002 BKN140 BKN250 20/18 A3014 RMK AO2 SFC VIS 4 VIS SW-NW 6 $=
200707261126 SPECI KATL 261126Z 07005KT 2 1/2SM BR SCT002 BKN140 BKN250 20/18 A3014 RMK AO2 SFC VIS 4 VIS SW-NW 6 $=
200707261052 METAR KATL 261052Z 08006KT 10SM FEW002 SCT140 SCT200 BKN250 20/19 A3012 RMK AO2 SLP190 VIS LWR E-SE T02000194=
200707261048 SPECI KATL 261048Z 07006KT 10SM FEW002 SCT140 SCT200 BKN250 20/19 A3012 RMK AO2 VIS LWR E-SE=
200707261048 SPECI KATL 261048Z 07006KT 10SM FEW002 SCT140 SCT200 BKN250 20/19 A3012 RMK AO2 VIS LWR E-SE=
200707260952 METAR KATL 260952Z 08005KT 10SM FEW120 SCT200 BKN250 21/19 A3010 RMK AO2 SLP182 T02060189 $=
200707260852 METAR KATL 260852Z 18003KT 10SM FEW120 SCT200 SCT250 20/19 A3009 RMK AO2 SLP178 60000 T02000189 55002 $=
200707260752 METAR KATL 260752Z 00000KT 10SM FEW002 SCT120 SCT200 BKN250 21/19 A3008 RMK AO2 SLP177 T02060189 $=
200707260746 SPECI KATL 260746Z 00000KT 10SM FEW002 SCT120 SCT200 BKN250 21/19 A3008 RMK AO2 $=
200707260746 SPECI KATL 260746Z 00000KT 10SM FEW002 SCT120 SCT200 BKN250 21/19 A3008 RMK AO2 $=
200707260652 METAR KATL 260652Z 00000KT 10SM SCT050 BKN120 OVC200 22/19 A3009 RMK AO2 RAB29E40 SLP180 P0000 T02170189 $=
200707260552 METAR KATL 260552Z 15004KT 10SM FEW005 SCT065 OVC140 21/19 A3011 RMK AO2 SLP187 60001 T02110189 10294 20211 58002 $=
200707260542 SPECI KATL 260542Z 16005KT 10SM FEW005 SCT065 OVC140 21/19 A3011 RMK AO2 $=
200707260542 SPECI KATL 260542Z 16005KT 10SM FEW005 SCT065 OVC140 21/19 A3011 RMK AO2 $=
200707260452 METAR KATL 260452Z 15005KT 10SM OVC007 21/19 A3012 RMK AO2 RAE07 SLP192 OCNL LTG DSNT SE-S BINOVC P0000 T02110189 403060211 $=
200707260437 SPECI KATL 260437Z 15007KT 10SM BKN007 BKN065 OVC150 21/19 A3013 RMK AO2 RAE07 P0000 $=
200707260437 SPECI KATL 260437Z 15007KT 10SM BKN007 BKN065 OVC150 21/19 A3013 RMK AO2 RAE07 P0000 $=
200707260352 METAR KATL 260352Z 13005KT 10SM -RA FEW040 SCT090 BKN120 OVC200 21/18 A3011 RMK AO2 RAB52 SLP188 FRQ LTG DSNT SE-SW P0000 T02110183 $=
200707260252 METAR KATL 260252Z 08007KT 10SM FEW020 BKN045 BKN080 OVC140 22/19 A3012 RMK AO2 TSB23E49RAE49 SLP189 TS DSIPTD FRQ LTG DSNT E-SE AND S-SW P0001 60001 T02170189 51020 $=
200707260249 SPECI KATL 260249Z 07009KT 10SM FEW020 BKN045 BKN080 OVC140 21/19 A3012 RMK AO2 TSB23E49RAE49 TS DSIPTD FRQ LTG DSNT E-SE AND S-SW P0001 $=
200707260249 SPECI KATL 260249Z 07009KT 10SM FEW020 BKN045 BKN080 OVC140 21/19 A3012 RMK AO2 TSB23E49RAE49 TS DSIPTD FRQ LTG DSNT E-SE AND S-SW P0001 $=
200707260223 SPECI KATL 260223Z 04014KT 10SM -TSRA BKN045CB BKN070 OVC120 22/19 A3011 RMK AO2 TSB23 OCNL LTGCGIC TS VC SW MOV E P0001 $=
200707260223 SPECI KATL 260223Z 04014KT 10SM -TSRA BKN045CB BKN070 OVC120 22/19 A3011 RMK AO2 TSB23 OCNL LTGCGIC TS VC SW MOV E P0001 $=
200707260152 METAR KATL 260152Z 04012KT 8SM -RA BKN045CB BKN070 BKN100 23/18 A3010 RMK AO2 TSE49RAB29 SLP182 TS MOV E CB VC N-NE CONS LTG DSNT NE-SE P0000 T02330178=
200707260052 METAR KATL 260052Z 00000KT 10SM TS BKN055CB BKN080 BKN200 28/17 A3006 RMK AO2 TSB08 SLP168 FRQ LTGICCG TS VC NE-E AND DSNT NW-N MOV E TCU E-OHD-W T02830167=
200707260008 SPECI KATL 260008Z 22007KT 10SM TS FEW050CB SCT080 SCT150 BKN250 29/17 A3004 RMK AO2 TSB08 OCNL LTGCGIC TS VC N-NE MOV NE TCU VC NE-SE=
200707260008 SPECI KATL 260008Z 22007KT 10SM TS FEW050CB SCT080 SCT150 BKN250 29/17 A3004 RMK AO2 TSB08 OCNL LTGCGIC TS VC N-NE MOV NE TCU VC NE-SE=
200707252352 METAR KATL 252352Z 21006KT 10SM FEW055TCU SCT080 SCT150 BKN250 29/16 A3004 RMK AO2 SLP162 TCU N-E AND NW CB DSNT E T02940161 10306 20278 55001=
200707252252 METAR KATL 252252Z 22006KT 10SM FEW055TCU SCT080 SCT150 BKN250 30/16 A3002 RMK AO2 SLP156 TCU OHD-NW AND VC NE-SE T03000161=
200707252152 METAR KATL 252152Z 19007KT 10SM SCT050TCU BKN070 BKN250 30/16 A3003 RMK AO2 SLP158 TCU N-E-SE AND SW-NW MDT CU OHD-ALQDS T03000161=
200707252052 METAR KATL 252052Z VRB03KT 10SM FEW050TCU SCT200 BKN250 29/17 A3004 RMK AO2 SLP162 CB DSNT NW TCU N NE NW T02940172 56018=
200707251952 METAR KATL 251952Z 17007KT 10SM FEW047TCU SCT200 BKN250 29/17 A3005 RMK AO2 SLP165 TCU S NW T02940167=
200707251852 METAR KATL 251852Z 22006KT 10SM SCT045 SCT250 29/18 A3007 RMK AO2 SLP173 TCU DSNT E NW MDT CU ALQDS T02940178=
200707251752 METAR KATL 251752Z 00000KT 10SM BKN045 BKN250 28/17 A3009 RMK AO2 SLP181 MDT CU ALQDS T02780172 10283 20217 58009=
200707251652 METAR KATL 251652Z 19004KT 10SM BKN040 27/17 A3011 RMK AO2 SLP186 MDT CU NE-SW T02720172=
200707251552 METAR KATL 251552Z 00000KT 10SM SCT032 26/18 A3012 RMK AO2 SLP191 MDT CU ALQDS T02560183 $=
200707251452 METAR KATL 251452Z 00000KT 10SM BKN019 25/19 A3012 RMK AO2 SLP190 T02500189 51009 $=
200707251352 METAR KATL 251352Z 20007KT 10SM BKN013 BKN150 23/19 A3012 RMK AO2 SLP188 T02330189=
200707251330 SPECI KATL 251330Z 20006KT 10SM FEW015 SCT080 SCT150 23/19 A3012 RMK AO2=
200707251330 SPECI KATL 251330Z 20006KT 10SM FEW015 SCT080 SCT150 23/19 A3012 RMK AO2=
200707251252 METAR KATL 251252Z 19006KT 10SM BKN015 BKN080 BKN150 23/19 A3012 RMK AO2 SLP188 T02280194=
200707251204 SPECI KATL 251204Z 19004KT 9SM BKN013 BKN150 22/19 A3010 RMK AO2=
200707251204 SPECI KATL 251204Z 19004KT 9SM BKN013 BKN150 22/19 A3010 RMK AO2=
200707251152 METAR KATL 251152Z 19003KT 10SM FEW020 SCT150 22/17 A3010 RMK AO2 SLP181 T02170172 10217 20211 53008=
200707251052 METAR KATL 251052Z 00000KT 10SM FEW065 SCT150 SCT200 21/17 A3009 RMK AO2 SLP178 T02110167=
200707250952 METAR KATL 250952Z 00000KT 10SM FEW065 SCT150 SCT200 21/17 A3008 RMK AO2 SLP175 T02110172=
200707250852 METAR KATL 250852Z 16003KT 10SM FEW150 SCT200 21/18 A3007 RMK AO2 SLP173 T02110178 53001=
200707250752 METAR KATL 250752Z 17003KT 10SM FEW150 21/18 A3006 RMK AO2 SLP168 T02110178=
200707250652 METAR KATL 250652Z 18003KT 10SM FEW150 21/18 A3006 RMK AO2 SLP171 T02110183=
200707250552 METAR KATL 250552Z 19004KT 10SM FEW200 SCT250 22/18 A3007 RMK AO2 SLP171 T02170178 10289 20217 50001=
200707250452 METAR KATL 250452Z 20005KT 10SM SCT200 22/18 A3008 RMK AO2 SLP175 T02220178 403060200=
200707250352 METAR KATL 250352Z 21009KT 10SM SCT150 BKN250 23/18 A3007 RMK AO2 SLP174 T02330178=
200707250252 METAR KATL 250252Z 21015G21KT 10SM FEW070 SCT140 BKN250 26/16 A3006 RMK AO2 SLP170 T02560161 51013=
200707250152 METAR KATL 250152Z 15005KT 10SM FEW080 BKN140 BKN250 27/13 A3005 RMK AO2 SLP166 T02720133=
200707250052 METAR KATL 250052Z 16005KT 10SM SCT150 BKN250 28/13 A3004 RMK AO2 SLP162 T02780128=
200707242352 METAR KATL 242352Z 15005KT 10SM FEW065 BKN250 29/13 A3002 RMK AO2 SLP156 T02890128 10306 20289 55001=
200707242252 METAR KATL 242252Z 15007KT 10SM FEW060 SCT250 30/13 A3000 RMK AO2 SLP149 T03000133=
200707242152 METAR KATL 242152Z 14008KT 10SM FEW065 SCT140 SCT250 30/13 A3001 RMK AO2 SLP153 T03000128=
200707242052 METAR KATL 242052Z 17007KT 130V190 10SM FEW065 SCT150 SCT300 30/13 A3002 RMK AO2 SLP157 T03000133 56018=
200707241952 METAR KATL 241952Z 15010KT 10SM FEW065 SCT100 BKN150 30/13 A3004 RMK AO2 SLP163 T03000128=
200707241852 METAR KATL 241852Z 12005KT 10SM FEW060 SCT150 SCT200 29/13 A3005 RMK AO2 SLP166 T02940133=
200707241752 METAR KATL 241752Z 22005KT 10SM FEW060 SCT200 29/14 A3008 RMK AO2 SLP175 T02890139 10294 20206 58013=
200707241652 METAR KATL 241652Z 15008KT 10SM FEW050 SCT200 SCT300 28/13 A3010 RMK AO2 SLP181 T02830128=
200707241552 METAR KATL 241552Z VRB05KT 9SM FEW040 SCT300 27/17 A3011 RMK AO2 SLP185 T02720167=
200707241452 METAR KATL 241452Z 20004KT 10SM FEW040 SCT100 SCT300 26/17 A3012 RMK AO2 SLP189 T02560167 50006=
200707241352 METAR KATL 241352Z 19005KT 10SM FEW180 SCT300 24/17 A3012 RMK AO2 SLP192 T02390172=
200707241252 METAR KATL 241252Z 18003KT 10SM FEW200 SCT250 22/16 A3012 RMK AO2 SLP190 T02220161=
200707241152 METAR KATL 241152Z 00000KT 10SM FEW250 21/15 A3010 RMK AO2 SLP183 T02060150 10239 20200 53010=
200707241052 METAR KATL 241052Z 13003KT 10SM FEW110 SCT250 21/14 A3008 RMK AO2 SLP178 T02060144=
200707240952 METAR KATL 240952Z 14003KT 10SM FEW110 SCT200 21/14 A3008 RMK AO2 SLP175 T02060144=
200707240852 METAR KATL 240852Z 17004KT 10SM FEW110 SCT200 21/14 A3007 RMK AO2 SLP173 T02110144 58002=
200707240752 METAR KATL 240752Z 16006KT 10SM FEW110 SCT200 22/14 A3007 RMK AO2 SLP175 T02170144=
200707240652 METAR KATL 240652Z 18009KT 10SM FEW070 BKN110 BKN200 23/14 A3008 RMK AO2 SLP176 T02280139=
200707240552 METAR KATL 240552Z 12004KT 10SM FEW070 BKN110 BKN200 24/14 A3007 RMK AO2 SLP174 T02390144 10267 20228 53002=
200707240452 METAR KATL 240452Z 11003KT 10SM BKN120 BKN200 23/16 A3007 RMK AO2 SLP171 T02330156 402780183=
200707240352 METAR KATL 240352Z 09005KT 10SM SCT110 BKN200 23/16 A3007 RMK AO2 SLP173 T02330156=
200707240252 METAR KATL 240252Z 08005KT 10SM BKN110 BKN150 24/16 A3007 RMK AO2 SLP173 T02390161 53008=
200707240152 METAR KATL 240152Z 07006KT 10SM SCT110 BKN150 BKN200 25/16 A3006 RMK AO2 SLP170 T02500161=
200707240052 METAR KATL 240052Z 09005KT 10SM SCT110 BKN150 BKN200 25/14 A3005 RMK AO2 SLP166 T02500144=
200707232352 METAR KATL 232352Z COR 09005KT 10SM FEW050 SCT110 BKN140 BKN200 27/14 A3004 RMK AO2 SLP164 SHRA DSNT N T02670139 10278 20256 58009=
200707232252 METAR KATL 232252Z 09004KT 10SM FEW050 SCT110 BKN140 BKN200 27/14 A3006 RMK AO2 SLP169 T02720144=
200707232152 METAR KATL 232152Z 13005KT 10SM FEW050 BKN110 BKN150 BKN200 27/14 A3006 RMK AO2 SLP170 SHRA DSNT NW T02720139 $=
200707232052 METAR KATL 232052Z 15004KT 10SM BKN110 BKN150 BKN200 27/17 A3007 RMK AO2 SLP174 T02670167 58009 PNO $=
200707231952 METAR KATL 231952Z COR 15004KT COR 10SM FEW050 BKN110 OVC150 26/15 A3009 RMK AO2 SLP179 T02610150 PNO=
200707231852 METAR KATL 231852Z 24005KT 10SM FEW050 SCT120 OVC150 27/14 A3010 RMK AO2 SLP184 T02670144=
200707231752 METAR KATL 231752Z 16006KT 10SM FEW055 SCT080 BKN110 OVC200 27/13 A3010 RMK AO2 SLP184 SHRA DSNT NW T02670128 10272 20194 58005=
200707231652 METAR KATL 231652Z 15006KT 10SM FEW050 SCT100 BKN150 BKN200 27/13 A3012 RMK AO2 SLP190 SHRA DSNT W-NW T02670133=
200707231552 METAR KATL 231552Z 16006KT 10SM FEW150 SCT200 26/13 A3013 RMK AO2 SLP192 T02610133=
200707231452 METAR KATL 231452Z 15006KT 9SM FEW150 SCT250 25/14 A3012 RMK AO2 SLP190 T02500139 58003=
200707231352 METAR KATL 231352Z 13004KT 10SM FEW200 SCT250 23/14 A3013 RMK AO2 SLP195 T02330144=
200707231252 METAR KATL 231252Z 08007KT 10SM FEW120 SCT200 SCT250 21/16 A3013 RMK AO2 SLP195 T02110156=
200707231152 METAR KATL 231152Z 08006KT 10SM FEW085 SCT120 BKN200 19/15 A3013 RMK AO2 SLP194 T01940150 10211 20183 51008=
200707231052 METAR KATL 231052Z 09006KT 10SM FEW060 SCT085 SCT120 BKN250 19/15 A3013 RMK AO2 SLP194 T01890150=
200707230952 METAR KATL 230952Z 07007KT 10SM SCT060 BKN085 BKN120 19/14 A3012 RMK AO2 SLP190 T01890144=
200707230852 METAR KATL 230852Z 09006KT 10SM BKN060 BKN085 BKN120 19/14 A3010 RMK AO2 SLP185 T01940139 53008=
200707230752 METAR KATL 230752Z 10006KT 10SM SCT065 BKN085 BKN120 20/13 A3009 RMK AO2 SLP182 T02000128=
200707230652 METAR KATL 230652Z 09006KT 10SM BKN065 OVC120 20/14 A3008 RMK AO2 SLP178 T02000139=
200707230552 METAR KATL 230552Z 08006KT 10SM FEW065 SCT110 19/13 A3008 RMK AO2 SLP178 T01940133 10244 20194 58008=
200707230452 METAR KATL 230452Z 08006KT 10SM FEW095 20/13 A3009 RMK AO2 SLP184 T02000133 402610200=
200707230352 METAR KATL 230352Z 08006KT 10SM SCT095 21/13 A3010 RMK AO2 SLP183 T02110128=
200707230252 METAR KATL 230252Z 09008KT 10SM BKN090 BKN110 22/13 A3010 RMK AO2 SLP185 T02220128 53006=
200707230152 METAR KATL 230152Z 09006KT 10SM BKN120 BKN150 23/12 A3009 RMK AO2 SLP181 T02280122=
200707230052 METAR KATL 230052Z 08007KT 10SM SCT110 BKN150 23/12 A3009 RMK AO2 SLP182 T02330122=
200707222352 METAR KATL 222352Z 10006KT 10SM BKN110 BKN150 24/13 A3009 RMK AO2 SLP180 T02440128 10261 20239 55002=
200707222252 METAR KATL 222252Z 11010KT 10SM SCT100 SCT150 26/13 A3008 RMK AO2 SLP176 T02560128=
200707222152 METAR KATL 222152Z 12011KT 10SM FEW038 SCT110 BKN150 26/14 A3008 RMK AO2 SLP179 T02560139=
200707222052 METAR KATL 222052Z 08013KT 10SM FEW036 25/16 A3009 RMK AO2 SLP182 T02500161 56009=
200707221952 METAR KATL 221952Z 06013G18KT 9SM FEW025 SCT090 BKN120 25/17 A3010 RMK AO2 SLP183 T02500172=
200707221852 METAR KATL 221852Z 07013KT 9SM FEW025 BKN090 BKN120 24/17 A3011 RMK AO2 SLP188 T02390172=
200707221752 METAR KATL 221752Z 05013G16KT 7SM FEW018 OVC100 24/18 A3012 RMK AO2 SLP191 T02390178 10244 20206 51004=
200707221652 METAR KATL 221652Z 06014KT 7SM FEW018 OVC100 23/18 A3012 RMK AO2 SLP190 T02280178=
200707221616 SPECI KATL 221616Z 07014KT 8SM SCT017 BKN043 OVC110 24/18 A3012 RMK AO2=
200707221616 SPECI KATL 221616Z 07014KT 8SM SCT017 BKN043 OVC110 24/18 A3012 RMK AO2=
200707221552 METAR KATL 221552Z 09011KT 8SM BKN020 BKN044 OVC110 23/18 A3012 RMK AO2 SLP190 T02330178=
200707221522 SPECI KATL 221522Z 13006KT 9SM BKN023 OVC110 24/18 A3011 RMK AO2 CB DSNT NE=
200707221522 SPECI KATL 221522Z 13006KT 9SM BKN023 OVC110 24/18 A3011 RMK AO2 CB DSNT NE=
200707221452 METAR KATL 221452Z 10007KT 8SM FEW018 SCT038 BKN065 24/18 A3011 RMK AO2 TSB13E44 SLP187 TS MOV NW T02390183 51005=
200707221447 SPECI KATL 221447Z 09009KT 8SM FEW018 BKN038 BKN065 23/18 A3011 RMK AO2 TSB13E44 TS MOV NW=
200707221447 SPECI KATL 221447Z 09009KT 8SM FEW018 BKN038 BKN065 23/18 A3011 RMK AO2 TSB13E44 TS MOV NW=
200707221415 SPECI KATL 221415Z 10007KT 7SM TS SCT014CB OVC037 23/18 A3011 RMK AO2 TSB13 OCNL LTGICCG TS VC NW MOV W SHRA VC NW=
200707221415 SPECI KATL 221415Z 10007KT 7SM TS SCT014CB OVC037 23/18 A3011 RMK AO2 TSB13 OCNL LTGICCG TS VC NW MOV W SHRA VC NW=
200707221352 METAR KATL 221352Z 08009KT 7SM BKN013CB OVC041 22/18 A3010 RMK AO2 TSE10 SLP185 TS DSIPT CB VC NW MOV W T02170178=
200707221334 SPECI KATL 221334Z 09004KT 7SM FEW009 BKN015CB BKN055 22/18 A3010 RMK AO2 TSE10 TS DSIPT CB VC N MOV SW MDT CU VC SW SHRA N=
200707221334 SPECI KATL 221334Z 09004KT 7SM FEW009 BKN015CB BKN055 22/18 A3010 RMK AO2 TSE10 TS DSIPT CB VC N MOV SW MDT CU VC SW SHRA N=
200707221312 SPECI KATL 221312Z 09004KT 6SM HZ BKN009 OVC024 21/18 A3010 RMK AO2 TSE10 TS DSIPT SHRA N-NE $=
200707221312 SPECI KATL 221312Z 09004KT 6SM HZ BKN009 OVC024 21/18 A3010 RMK AO2 TSE10 TS DSIPT SHRA N-NE $=
200707221252 METAR KATL 221252Z 09007KT 6SM TS HZ BKN009 OVC024CB 21/18 A3009 RMK AO2 TSB02 SLP182 OCNL LTGIC TS N-NE MOV SW T02110178=
200707221241 SPECI KATL 221241Z 09006KT 6SM TS HZ BKN009 BKN021CB 21/18 A3009 RMK AO2 TSB02 OCNL LTGICCG TS N-NE MOV SW=
200707221241 SPECI KATL 221241Z 09006KT 6SM TS HZ BKN009 BKN021CB 21/18 A3009 RMK AO2 TSB02 OCNL LTGICCG TS N-NE MOV SW=
200707221230 SPECI KATL 221230Z 08009KT 6SM TS HZ SCT009 SCT021CB BKN050 21/18 A3009 RMK AO2 TSB02 OCNL LTGICCG TS VC NE MOV SW=
200707221230 SPECI KATL 221230Z 08009KT 6SM TS HZ SCT009 SCT021CB BKN050 21/18 A3009 RMK AO2 TSB02 OCNL LTGICCG TS VC NE MOV SW=
200707221215 SPECI KATL 221215Z 06009KT 6SM TS HZ BKN009 OVC034CB 21/17 A3009 RMK AO2 TSB02 OCNL LTGICCG TS VC NE MOV SW=
200707221215 SPECI KATL 221215Z 06009KT 6SM TS HZ BKN009 OVC034CB 21/17 A3009 RMK AO2 TSB02 OCNL LTGICCG TS VC NE MOV SW=
200707221204 SPECI KATL 221204Z 07006KT 6SM TS HZ FEW015 SCT032CB SCT100 21/17 A3008 RMK AO2 TSB02 OCNL LTGICCG TS VC NE MOV SW=
200707221204 SPECI KATL 221204Z 07006KT 6SM TS HZ FEW015 SCT032CB SCT100 21/17 A3008 RMK AO2 TSB02 OCNL LTGICCG TS VC NE MOV SW=
200707221152 METAR KATL 221152Z 08004KT 6SM HZ FEW020 SCT150 21/17 A3007 RMK AO2 SLP174 CB DSNT NE T02060172 10239 20200 53013=
200707221052 METAR KATL 221052Z 09003KT 6SM HZ FEW014 21/17 A3006 RMK AO2 SLP168 CB DSNT NE T02060167=
200707221041 SPECI KATL 221041Z 10004KT 7SM FEW016 21/17 A3005 RMK AO2=
200707221041 SPECI KATL 221041Z 10004KT 7SM FEW016 21/17 A3005 RMK AO2=
200707220952 METAR KATL 220952Z 08004KT 8SM BKN011 21/16 A3005 RMK AO2 SLP165 LTG DSNT NE T02060161=
200707220933 SPECI KATL 220933Z 08006KT 8SM BKN011 21/16 A3004 RMK AO2=
200707220933 SPECI KATL 220933Z 08006KT 8SM BKN011 21/16 A3004 RMK AO2=
200707220852 METAR KATL 220852Z 10004KT 7SM FEW014 22/17 A3003 RMK AO2 SLP160 T02170167 56004=
200707220752 METAR KATL 220752Z 09005KT 8SM FEW250 21/16 A3003 RMK AO2 SLP160 T02110156=
200707220652 METAR KATL 220652Z 07007KT 10SM SCT070 23/14 A3004 RMK AO2 SLP160 T02280144=
200707220552 METAR KATL 220552Z 06005KT 10SM CLR 23/14 A3005 RMK AO2 SLP164 T02330139 10289 20233 50001=
200707220452 METAR KATL 220452Z 04008KT 10SM CLR 24/13 A3006 RMK AO2 SLP166 T02440133 403000217=
200707220352 METAR KATL 220352Z 01008KT 10SM CLR 25/13 A3005 RMK AO2 SLP166 T02500133=
200707220252 METAR KATL 220252Z 35008KT 10SM FEW070 25/14 A3005 RMK AO2 SLP164 T02500144 53013=
200707220152 METAR KATL 220152Z 33007KT 10SM FEW250 26/13 A3003 RMK AO2 SLP160 T02610133=
200707220052 METAR KATL 220052Z 35006KT 10SM FEW001 28/10 A3001 RMK AO2 SLP152 FU FEW001 T02780100=
200707212352 METAR KATL 212352Z VRB06KT 10SM FEW070 29/11 A3001 RMK AO2 SLP150 T02890111 10300 20283 55002=
200707212252 METAR KATL 212252Z 05006KT 10SM FEW070 SCT250 29/12 A3000 RMK AO2 SLP147 T02940122=
200707212152 METAR KATL 212152Z 36006KT 10SM FEW070 BKN250 30/12 A3000 RMK AO2 SLP149 T03000122=
200707212052 METAR KATL 212052Z VRB04KT 10SM SCT070 BKN250 29/12 A3001 RMK AO2 SLP153 T02890117 58007=
200707211952 METAR KATL 211952Z VRB03KT 10SM SCT065 BKN250 29/12 A3002 RMK AO2 SLP155 T02940122=
200707211852 METAR KATL 211852Z 00000KT 10SM SCT065 BKN200 29/12 A3003 RMK AO2 SLP157 T02940122=
200707211752 METAR KATL 211752Z 04008KT 10SM SCT060 BKN200 29/14 A3003 RMK AO2 SLP160 T02890144 10294 20228 58011=
200707211652 METAR KATL 211652Z 08006KT 10SM SCT050 28/14 A3005 RMK AO2 SLP166 T02780144=
200707211552 METAR KATL 211552Z 00000KT 10SM FEW050 SCT200 27/14 A3006 RMK AO2 SLP171 T02670144=
200707211452 METAR KATL 211452Z 07007KT 10SM FEW040 SCT200 26/16 A3007 RMK AO2 SLP173 T02610156 50012=
200707211352 METAR KATL 211352Z 06010KT 10SM FEW035 SCT200 25/15 A3007 RMK AO2 SLP174 T02500150=
200707211252 METAR KATL 211252Z 06010KT 10SM FEW200 24/18 A3005 RMK AO2 SLP168 T02390183=
200707211152 METAR KATL 211152Z 01005KT 6SM HZ FEW060 SCT200 23/19 A3003 RMK AO2 SLP160 70029 T02280194 10228 20217 51016=
200707211052 METAR KATL 211052Z 01005KT 6SM BR FEW200 22/20 A3002 RMK AO2 SLP156 T02220200=
200707210952 METAR KATL 210952Z 34005KT 7SM FEW003 BKN150 22/20 A3000 RMK AO2 SLP149 T02170200=
200707210915 SPECI KATL 210915Z 34004KT 6SM BR FEW003 BKN150 22/20 A2998 RMK AO2=
200707210915 SPECI KATL 210915Z 34004KT 6SM BR FEW003 BKN150 22/20 A2998 RMK AO2=
200707210852 METAR KATL 210852Z 34006KT 6SM BR OVC003 22/20 A2998 RMK AO2 SLP145 T02220200 55007=
200707210823 SPECI KATL 210823Z 35009KT 7SM BKN003 22/21 A2998 RMK AO2=
200707210823 SPECI KATL 210823Z 35009KT 7SM BKN003 22/21 A2998 RMK AO2=
200707210814 SPECI KATL 210814Z 35007KT 8SM SCT003 22/20 A2998 RMK AO2=
200707210814 SPECI KATL 210814Z 35007KT 8SM SCT003 22/20 A2998 RMK AO2=
200707210752 METAR KATL 210752Z 34006KT 7SM FEW100 BKN250 22/20 A2998 RMK AO2 SLP144 T02220200=
200707210652 METAR KATL 210652Z 31006KT 9SM SCT095 BKN250 22/20 A2999 RMK AO2 SLP148 T02220200=
200707210552 METAR KATL 210552Z 30007KT 10SM OVC095 22/21 A3000 RMK AO2 SLP149 T02220206 10250 20222 53009=
200707210452 METAR KATL 210452Z 27004KT 10SM BKN250 22/20 A3000 RMK AO2 SLP146 T02220200 403000217=
200707210352 METAR KATL 210352Z 30005KT 10SM BKN250 22/20 A2997 RMK AO2 SLP139 T02220200=
200707210252 METAR KATL 210252Z 30005KT 10SM SCT250 23/20 A2997 RMK AO2 SLP140 T02280200 53008=
200707210152 METAR KATL 210152Z 31006KT 10SM BKN250 23/20 A2997 RMK AO2 SLP138 T02330200=
200707210052 METAR KATL 210052Z 31007KT 10SM FEW150 SCT200 BKN250 24/19 A2995 RMK AO2 SLP134 T02390194=
200707202352 METAR KATL 202352Z 33004KT 10SM FEW150 BKN250 25/19 A2995 RMK AO2 SLP132 60029 T02500194 10283 20217 55011=
200707202252 METAR KATL 202252Z 33010KT 10SM FEW140 SCT200 BKN250 26/20 A2994 RMK AO2 SLP128 T02560200=
200707202152 METAR KATL 202152Z 30008KT 10SM FEW015 SCT140 BKN200 BKN250 25/20 A2996 RMK AO2 SLP136 T02500200=
200707202052 METAR KATL 202052Z 29007KT 9SM FEW008 SCT020 SCT120 BKN150 OVC200 23/20 A2998 RMK AO2 TSE01RAE32 SLP143 BINOVC DSNT NW-N P0002 60029 T02280200 58012=
200707202002 SPECI KATL 202002Z 30010KT 9SM -RA FEW005 SCT020 OVC120 22/20 A3000 RMK AO2 TSE01 VIS LWR E-S SHRA TS MOV SE P0002=
200707202002 SPECI KATL 202002Z 30010KT 9SM -RA FEW005 SCT020 OVC120 22/20 A3000 RMK AO2 TSE01 VIS LWR E-S SHRA TS MOV SE P0002=
200707201952 METAR KATL 201952Z 29010KT 6SM -TSRA BR FEW005 BKN020CB OVC120 22/19 A3001 RMK AO2 SLP152 OCNL LTGICCG TS E S MOV SE P0017 T02170194=
200707201944 SPECI KATL 201944Z 29008KT 6SM -TSRA BR FEW015CB BKN025 OVC120 22/19 A3001 RMK AO2 OCNL LTGICCG TS E S MOV SE P0016=
200707201944 SPECI KATL 201944Z 29008KT 6SM -TSRA BR FEW015CB BKN025 OVC120 22/19 A3001 RMK AO2 OCNL LTGICCG TS E S MOV SE P0016=
200707201931 SPECI KATL 201931Z 30012KT 6SM -TSRA BR FEW005 BKN025 OVC040 22/19 A3002 RMK AO2 OCNL LTGICCG TS W NW MOV SE P0012=
200707201931 SPECI KATL 201931Z 30012KT 6SM -TSRA BR FEW005 BKN025 OVC040 22/19 A3002 RMK AO2 OCNL LTGICCG TS W NW MOV SE P0012=
200707201914 SPECI KATL 201914Z 31008KT 4SM TSRA BR FEW005 SCT015CB OVC034 22/19 A3003 RMK AO2 OCNL LTGICCG TS E W NW MOV SE P0006=
200707201914 SPECI KATL 201914Z 31008KT 4SM TSRA BR FEW005 SCT015CB OVC034 22/19 A3003 RMK AO2 OCNL LTGICCG TS E W NW MOV SE P0006=
200707201852 METAR KATL 201852Z 30007KT 5SM TSRA BR FEW005 BKN042CB OVC060 22/21 A3005 RMK AO2 PK WND 31026/1800 TSE35B48RAB01 SLP168 OCNL LTGICCG TS OHD MOV SE P0010 T02220211=
200707201848 SPECI KATL 201848Z 29009KT 5SM TSRA BR FEW005 BKN042CB OVC060 22/21 A3006 RMK AO2 PK WND 31026/1800 TSE35B48RAB01 OCNL LTGICCG TS E NW MOV SE P0009=
200707201848 SPECI KATL 201848Z 29009KT 5SM TSRA BR FEW005 BKN042CB OVC060 22/21 A3006 RMK AO2 PK WND 31026/1800 TSE35B48RAB01 OCNL LTGICCG TS E NW MOV SE P0009=
200707201840 SPECI KATL 201840Z 28008KT 5SM -RA BR FEW005 BKN042 OVC060 22/21 A3007 RMK AO2 PK WND 31026/1800 TSE35RAB01 LTG DSNT E-S TS MOV SE CB DSNT E-S P0008=
200707201840 SPECI KATL 201840Z 28008KT 5SM -RA BR FEW005 BKN042 OVC060 22/21 A3007 RMK AO2 PK WND 31026/1800 TSE35RAB01 LTG DSNT E-S TS MOV SE CB DSNT E-S P0008=
200707201836 SPECI KATL 201836Z 29010KT 7SM -RA BR BKN042 OVC060 22/21 A3007 RMK AO2 PK WND 31026/1800 TSE35RAB01 LTG DSNT E-S TS MOV SE CB DSNT E-S P0007=
200707201836 SPECI KATL 201836Z 29010KT 7SM -RA BR BKN042 OVC060 22/21 A3007 RMK AO2 PK WND 31026/1800 TSE35RAB01 LTG DSNT E-S TS MOV SE CB DSNT E-S P0007=
200707201828 SPECI KATL 201828Z 30012G20KT 5SM -TSRA BKN028CB BKN042 OVC050 22/19 A3006 RMK AO2 PK WND 31026/1800 RAB01 FRQ LTGICCG TS SE-S MOV ESE CB SE-S MOV ESE P0007=
200707201828 SPECI KATL 201828Z 30012G20KT 5SM -TSRA BKN028CB BKN042 OVC050 22/19 A3006 RMK AO2 PK WND 31026/1800 RAB01 FRQ LTGICCG TS SE-S MOV ESE CB SE-S MOV ESE P0007=
200707201822 SPECI KATL 201822Z 31016G25KT 4SM TSRA FEW024 SCT042CB OVC055 23/19 A3006 RMK AO2 PK WND 31026/1800 RAB01 CNS LTGICCG TS SE-SW MOV ESE CB SE-SW MOV ESE P0005=
200707201822 SPECI KATL 201822Z 31016G25KT 4SM TSRA FEW024 SCT042CB OVC055 23/19 A3006 RMK AO2 PK WND 31026/1800 RAB01 CNS LTGICCG TS SE-SW MOV ESE CB SE-SW MOV ESE P0005=
200707201811 SPECI KATL 201811Z 30014G24KT 6SM -TSRA BKN042CB BKN050 OVC060 24/19 A3005 RMK AO2 PK WND 31026/1800 RAB01 CNS LTGICCG TS S MOV ESE CB OHD-S-NW MOV ESE P0001=
200707201811 SPECI KATL 201811Z 30014G24KT 6SM -TSRA BKN042CB BKN050 OVC060 24/19 A3005 RMK AO2 PK WND 31026/1800 RAB01 CNS LTGICCG TS S MOV ESE CB OHD-S-NW MOV ESE P0001=
200707201807 SPECI KATL 201807Z 32019G26KT 4SM TSRA BKN042CB BKN050 OVC060 25/19 A3005 RMK AO2 PK WND 31026/1800 RAB01 PRESRR FRQ LTGICCG TS OHD-S-NW MOV ESE CB OHD-S-NW MOV ESE P0001=
200707201807 SPECI KATL 201807Z 32019G26KT 4SM TSRA BKN042CB BKN050 OVC060 25/19 A3005 RMK AO2 PK WND 31026/1800 RAB01 PRESRR FRQ LTGICCG TS OHD-S-NW MOV ESE CB OHD-S-NW MOV ESE P0001=
200707201802 SPECI KATL 201802Z 32019G26KT 6SM TSRA BKN040CB OVC060 27/18 A3003 RMK AO2 PK WND 31026/1800 RAB01 FRQ LTGICCG TS OHD-S-NW MOV ESE CB OHD-S-NW MOV ESE P0000=
200707201802 SPECI KATL 201802Z 32019G26KT 6SM TSRA BKN040CB OVC060 27/18 A3003 RMK AO2 PK WND 31026/1800 RAB01 FRQ LTGICCG TS OHD-S-NW MOV ESE CB OHD-S-NW MOV ESE P0000=
200707201752 METAR KATL 201752Z 33015G21KT 10SM TS SCT040CB BKN050 BKN060 BKN200 28/18 A3002 RMK AO2 TSB47 SLP154 FRQ LTGICCG TS VC S-NW MOV ESE CB VC S-NW MOV ESE T02830178 10300 20239 55002=
200707201747 SPECI KATL 201747Z 34013G21KT 10SM TS FEW040CB SCT060 BKN200 29/18 A3002 RMK AO2 TSB47 FRQ LTGICCG TS VC S-NW MOV ESE CB VC S-NW MOV ESE=
200707201747 SPECI KATL 201747Z 34013G21KT 10SM TS FEW040CB SCT060 BKN200 29/18 A3002 RMK AO2 TSB47 FRQ LTGICCG TS VC S-NW MOV ESE CB VC S-NW MOV ESE=
200707201710 SPECI KATL 201710Z 32010KT 10SM FEW040 SCT065 SCT200 29/19 A3002 RMK AO2 LTG DSNT W-NW CB DSNT SW-NW MOV ESE SHRA DSNT SW-N=
200707201710 SPECI KATL 201710Z 32010KT 10SM FEW040 SCT065 SCT200 29/19 A3002 RMK AO2 LTG DSNT W-NW CB DSNT SW-NW MOV ESE SHRA DSNT SW-N=
200707201652 METAR KATL 201652Z 34006KT 10SM FEW040 BKN060 BKN200 29/19 A3001 RMK AO2 SLP150 CB DSNT W-N MOV ESE T02940189=
200707201552 METAR KATL 201552Z 34008KT 10SM FEW040 SCT150 SCT200 BKN300 29/19 A3002 RMK AO2 SLP155 T02940194=
200707201452 METAR KATL 201452Z 32010KT 10SM FEW030 SCT120 SCT150 BKN200 28/19 A3002 RMK AO2 SLP156 T02830194 51009=
200707201352 METAR KATL 201352Z 31010KT 10SM FEW150 BKN200 BKN300 27/20 A3002 RMK AO2 SLP155 T02720200=
200707201252 METAR KATL 201252Z 28007KT 10SM SCT150 BKN200 BKN250 25/21 A3002 RMK AO2 SLP153 T02500211=
200707201152 METAR KATL 201152Z 28009KT 10SM FEW150 BKN200 BKN250 24/19 A3000 RMK AO2 SLP147 70015 T02390194 10250 20233 52013=
200707201052 METAR KATL 201052Z 29010KT 10SM SCT150 BKN200 OVC250 24/19 A2998 RMK AO2 SLP142 T02390189=
200707200952 METAR KATL 200952Z 29006KT 10SM FEW150 BKN200 OVC250 23/19 A2997 RMK AO2 SLP139 T02330189=
200707200852 METAR KATL 200852Z 28005KT 10SM FEW100 BKN150 OVC250 24/19 A2996 RMK AO2 SLP135 T02390189 58008=
200707200752 METAR KATL 200752Z 28007KT 10SM SCT100 BKN150 BKN250 24/19 A2997 RMK AO2 SLP139 T02440189=
200707200652 METAR KATL 200652Z 26005KT 10SM FEW150 SCT200 BKN250 24/19 A2998 RMK AO2 SLP141 T02440194=
200707200552 METAR KATL 200552Z 28006KT 10SM FEW150 SCT250 25/19 A2998 RMK AO2 SLP144 T02500194 10278 20250 58004=
200707200452 METAR KATL 200452Z 28009KT 10SM FEW250 26/20 A2999 RMK AO2 SLP143 T02560200 403110222=
200707200352 METAR KATL 200352Z 28008KT 10SM FEW150 SCT250 26/21 A3000 RMK AO2 SLP146 T02560206=
200707200252 METAR KATL 200252Z 24003KT 10SM FEW060 SCT150 SCT250 26/20 A3000 RMK AO2 SLP146 T02560200 53008=
200707200152 METAR KATL 200152Z 26003KT 10SM FEW070 SCT250 26/20 A2998 RMK AO2 SLP142 T02610200=
200707200052 METAR KATL 200052Z 27003KT 10SM FEW075 SCT140 BKN200 BKN250 27/19 A2998 RMK AO2 SLP141 T02670194=
200707192352 METAR KATL 192352Z 25005KT 10SM FEW035 BKN200 BKN250 28/21 A2997 RMK AO2 SLP138 TCU DSNT NW-N 60000 T02780206 10283 20228 55008=
200707192252 METAR KATL 192252Z 23004KT 10SM FEW030 SCT150 BKN200 28/22 A2997 RMK AO2 SLP137 TCU DSNT NE AND NW T02780222=
200707192152 METAR KATL 192152Z 27005KT 10SM FEW025 SCT150 OVC200 28/22 A2998 RMK AO2 SLP143 CBMAM OHD-N T02780222=
200707192052 METAR KATL 192052Z 23007KT 10SM FEW020 SCT100 SCT150 BKN180 BKN250 27/22 A3000 RMK AO2 SLP147 LTG DSNT NW-N VIRGA DSNT E CB DSNT NW-N MOV SE TCU DSNT N S SHRA DSNT NW-N 60000 T02720217 56021=
200707191952 METAR KATL 191952Z 22007KT 10SM FEW100 SCT150 BKN180 BKN250 26/22 A3002 RMK AO2 SLP158 CB DSNT N NE NW MOV SE CBMAM DSNT E T02560217=
200707191852 METAR KATL 191852Z 25005KT 10SM FEW100 BKN150 BKN180 BKN250 25/21 A3003 RMK AO2 RAE08 SLP160 VIRGA OHD-E CB DSNT N NE E SE NW MOV SE CBMAM DSNT NE TCU DSNT NE P0000 T02500206=
200707191806 SPECI KATL 191806Z 00000KT 10SM -RA FEW020 SCT040TCU BKN150 BKN250 23/20 A3004 RMK AO2 LTG DSNT E-S CB DSNT N-SW MOV SE CBMAM OHD TCU NW SHRA DSNT NE-SE P0000=
200707191806 SPECI KATL 191806Z 00000KT 10SM -RA FEW020 SCT040TCU BKN150 BKN250 23/20 A3004 RMK AO2 LTG DSNT E-S CB DSNT N-SW MOV SE CBMAM OHD TCU NW SHRA DSNT NE-SE P0000=
200707191752 METAR KATL 191752Z 00000KT 10SM -RA BKN018 BKN040 BKN250 23/19 A3006 RMK AO2 PK WND 28031/1713 TSB04E48RAB13 SLP170 LTG DSNT E-SE-S TS MOV SE CB DSNT N-SW MOV SE P0015 60015 T02280189 10311 20222 55005=
200707191748 SPECI KATL 191748Z 27004KT 6SM R09R/5500VP6000FT -RA BKN018 BKN040 BKN250 22/19 A3006 RMK AO2 PK WND 28031/1713 TSB04E48RAB13 LTG DSNT E-SE TS MOV SE CB DSNT N-SE MOV SE P0015=
200707191748 SPECI KATL 191748Z 27004KT 6SM R09R/5500VP6000FT -RA BKN018 BKN040 BKN250 22/19 A3006 RMK AO2 PK WND 28031/1713 TSB04E48RAB13 LTG DSNT E-SE TS MOV SE CB DSNT N-SE MOV SE P0015=
200707191737 SPECI KATL 191737Z 30008KT 5SM -TSRA BKN018CB BKN037 OVC047 23/19 A3006 RMK AO2 PK WND 28031/1713 TSB04RAB13 VIS 1/2 NE-S SHRA FRQ LTGICCG TS NE-SE-S MOV SE CB NE-SE-S MOV SE P0011=
200707191737 SPECI KATL 191737Z 30008KT 5SM -TSRA BKN018CB BKN037 OVC047 23/19 A3006 RMK AO2 PK WND 28031/1713 TSB04RAB13 VIS 1/2 NE-S SHRA FRQ LTGICCG TS NE-SE-S MOV SE CB NE-SE-S MOV SE P0011=
200707191734 SPECI KATL 191734Z 30011G24KT 3SM R09R/3500VP6000FT -TSRA BKN015CB BKN040 OVC060 22/19 A3005 RMK AO2 PK WND 28031/1713 TSB04RAB13 VIS 1/2 NE-S SHRA FRQ LTGICCG TS OHD-N-SE-S MOV SE CB OHD-N-SE-S MOV SE P0010=
200707191734 SPECI KATL 191734Z 30011G24KT 3SM R09R/3500VP6000FT -TSRA BKN015CB BKN040 OVC060 22/19 A3005 RMK AO2 PK WND 28031/1713 TSB04RAB13 VIS 1/2 NE-S SHRA FRQ LTGICCG TS OHD-N-SE-S MOV SE CB OHD-N-SE-S MOV SE P0010=
200707191732 SPECI KATL 191732Z 30010G29KT 3/4SM R09R/3000VP6000FT +TSRA BKN015CB BKN040 OVC060 22/18 A3004 RMK AO2 PK WND 28031/1713 TSB04RAB13 FRQ LTGICCG TS OHD-N-SE-S MOV SE CB OHD-N-SE-S MOV SE P0010=
200707191732 SPECI KATL 191732Z 30010G29KT 3/4SM R09R/3000VP6000FT +TSRA BKN015CB BKN040 OVC060 22/18 A3004 RMK AO2 PK WND 28031/1713 TSB04RAB13 FRQ LTGICCG TS OHD-N-SE-S MOV SE CB OHD-N-SE-S MOV SE P0010=
200707191726 SPECI KATL 191726Z 30018G29KT 1/2SM R09R/3000VP6000FT +TSRA SCT015 BKN040CB OVC050 23/18 A3006 RMK AO2 PK WND 28031/1713 TSB04RAB13 FRQ LTGICCG TS OHD MOV SE CB OHD MOV SE P0003=
200707191726 SPECI KATL 191726Z 30018G29KT 1/2SM R09R/3000VP6000FT +TSRA SCT015 BKN040CB OVC050 23/18 A3006 RMK AO2 PK WND 28031/1713 TSB04RAB13 FRQ LTGICCG TS OHD MOV SE CB OHD MOV SE P0003=
200707191724 SPECI KATL 191724Z 29021G29KT 2 1/2SM R09R/3000VP6000FT TSRA FEW019 BKN040CB OVC050 23/18 A3006 RMK AO2 PK WND 28031/1713 TSB04RAB13 FRQ LTGICCG TS OHD ALQDS MOV SE CB OHD ALQDS MOV SE P0002=
200707191724 SPECI KATL 191724Z 29021G29KT 2 1/2SM R09R/3000VP6000FT TSRA FEW019 BKN040CB OVC050 23/18 A3006 RMK AO2 PK WND 28031/1713 TSB04RAB13 FRQ LTGICCG TS OHD ALQDS MOV SE CB OHD ALQDS MOV SE P0002=
200707191716 SPECI KATL 191716Z 28019G31KT 6SM TSRA BKN040CB BKN050 BKN250 27/20 A3005 RMK AO2 PK WND 28031/1713 TSB04RAB13 FRQ LTGICCG TS OHD-SW-NW MOV SE CB OHD-SW-NW MOV SE P0000=
200707191716 SPECI KATL 191716Z 28019G31KT 6SM TSRA BKN040CB BKN050 BKN250 27/20 A3005 RMK AO2 PK WND 28031/1713 TSB04RAB13 FRQ LTGICCG TS OHD-SW-NW MOV SE CB OHD-SW-NW MOV SE P0000=
200707191704 SPECI KATL 191704Z 27010KT 10SM TS BKN040CB BKN050TCU BKN250 30/20 A3005 RMK AO2 TSB04 FRQ LTGICCG TS VC W-NW MOV SE CB DSNT SE VC W-NW MOV SE TCU E S NW=
200707191704 SPECI KATL 191704Z 27010KT 10SM TS BKN040CB BKN050TCU BKN250 30/20 A3005 RMK AO2 TSB04 FRQ LTGICCG TS VC W-NW MOV SE CB DSNT SE VC W-NW MOV SE TCU E S NW=
200707191652 METAR KATL 191652Z 30007KT 10SM SCT040TCU SCT060 SCT250 31/20 A3005 RMK AO2 SLP163 LTG DSNT W-NW CB DSNT W-NW MOV SE TCU ALQDS T03060200=
200707191552 METAR KATL 191552Z 31013KT 10SM FEW030TCU SCT060 SCT250 30/21 A3007 RMK AO2 RAB07E18 SLP171 VIRGA NE TCU NE-SW SHRA NE SW P0000 T03000211=
200707191530 SPECI KATL 191530Z 31009KT 10SM FEW030CB BKN040TCU BKN060 28/21 A3007 RMK AO2 RAB07E18 VIRGA NW CB VC SW DSNT NW MOV SE TCU OHD-NE-S-W P0000=
200707191530 SPECI KATL 191530Z 31009KT 10SM FEW030CB BKN040TCU BKN060 28/21 A3007 RMK AO2 RAB07E18 VIRGA NW CB VC SW DSNT NW MOV SE TCU OHD-NE-S-W P0000=
200707191515 SPECI KATL 191515Z 28012KT 10SM -RA SCT030CB SCT040TCU SCT100 28/21 A3007 RMK AO2 RAB07 CB VC SE MOV SE TCU VC NW MDT CU ALQDS SHRA VC SE P0000=
200707191515 SPECI KATL 191515Z 28012KT 10SM -RA SCT030CB SCT040TCU SCT100 28/21 A3007 RMK AO2 RAB07 CB VC SE MOV SE TCU VC NW MDT CU ALQDS SHRA VC SE P0000=
200707191452 METAR KATL 191452Z 29011KT 10SM SCT030 29/21 A3008 RMK AO2 SLP174 MDT CU ALQDS T02890211 50002=
200707191352 METAR KATL 191352Z 30008KT 10SM FEW025 SCT035 SCT250 27/21 A3008 RMK AO2 SLP176 T02720211=
200707191252 METAR KATL 191252Z 27007KT 10SM FEW055 SCT150 SCT250 26/21 A3008 RMK AO2 SLP174 T02610206=
200707191152 METAR KATL 191152Z 27007KT 10SM FEW150 SCT250 24/21 A3007 RMK AO2 SLP172 T02440206 10244 20222 53004=
200707191052 METAR KATL 191052Z 28004KT 10SM FEW150 SCT250 23/20 A3006 RMK AO2 SLP170 T02280200=
200707190952 METAR KATL 190952Z 27004KT 10SM FEW150 SCT250 23/20 A3006 RMK AO2 SLP170 T02280200=
200707190852 METAR KATL 190852Z 29005KT 10SM SCT150 BKN250 23/20 A3006 RMK AO2 SLP169 T02280200 58003=
200707190752 METAR KATL 190752Z 28006KT 10SM SCT150 SCT250 23/21 A3007 RMK AO2 SLP170 T02280206=
200707190652 METAR KATL 190652Z 26004KT 10SM FEW150 SCT250 23/20 A3006 RMK AO2 SLP169 T02280200=
200707190552 METAR KATL 190552Z 24004KT 10SM FEW150 SCT250 24/21 A3007 RMK AO2 SLP171 T02390206 10272 20233 58001=
200707190452 METAR KATL 190452Z 29004KT 10SM FEW150 SCT250 24/19 A3007 RMK AO2 SLP171 T02440194 403170228=
200707190352 METAR KATL 190352Z 30003KT 10SM SCT150 BKN250 24/20 A3008 RMK AO2 SLP174 T02440200=
200707190252 METAR KATL 190252Z 26003KT 10SM FEW150 SCT250 25/18 A3007 RMK AO2 SLP172 T02500183 55002=
200707190152 METAR KATL 190152Z 00000KT 10SM FEW150 BKN250 26/18 A3006 RMK AO2 SLP167 T02610178=
200707190052 METAR KATL 190052Z 33004KT 10SM SCT140 BKN200 BKN250 27/17 A3007 RMK AO2 SLP171 T02670172=
200707182352 METAR KATL 182352Z 32006KT 10SM BKN140 BKN200 OVC250 27/18 A3008 RMK AO2 SLP175 T02720178 10317 20267 55002=
200707182252 SPECI KATL 182252Z 28008KT 10SM FEW035 BKN140 BKN200 OVC250 28/19 A3006 RMK AO2 SLP170 T02780194=
200707182152 METAR KATL 182152Z 00000KT 10SM FEW050 SCT140 BKN200 BKN250 28/19 A3007 RMK AO2 TSB11E35 SLP174 TS DSIPTD CB DSNT SE AND SW T02780194=
200707182135 SPECI KATL 182135Z 32004KT 10SM FEW035 SCT100 BKN140 BKN250 27/19 A3008 RMK AO2 TSB11E35 TS DSIPTD CB DSNT SE AND SW=
200707182135 SPECI KATL 182135Z 32004KT 10SM FEW035 SCT100 BKN140 BKN250 27/19 A3008 RMK AO2 TSB11E35 TS DSIPTD CB DSNT SE AND SW=
200707182112 SPECI KATL 182112Z 34011KT 10SM TS FEW035CB SCT070 BKN140 BKN250 28/19 A3007 RMK AO2 TSB11 OCNL LTGCG TS VC SW MOV SE CB VC SE-SW MOV SE=
200707182112 SPECI KATL 182112Z 34011KT 10SM TS FEW035CB SCT070 BKN140 BKN250 28/19 A3007 RMK AO2 TSB11 OCNL LTGCG TS VC SW MOV SE CB VC SE-SW MOV SE=
200707182052 METAR KATL 182052Z 36013KT 10SM FEW040CB SCT050 BKN065 BKN250 28/20 A3008 RMK AO2 SLP176 LTG DSNT S CB VC SE-W DSNT S MOV SE SHRA VC SE-W T02830200 56012=
200707182011 SPECI KATL 182011Z 34009KT 10SM BKN050TCU BKN060 BKN250 31/18 A3008 RMK AO2 LTG DSNT NE S CB DSNT NE SE S MOV S TCU ALQDS SHRA DSNT NE SE S NW=
200707182011 SPECI KATL 182011Z 34009KT 10SM BKN050TCU BKN060 BKN250 31/18 A3008 RMK AO2 LTG DSNT NE S CB DSNT NE SE S MOV S TCU ALQDS SHRA DSNT NE SE S NW=
200707181952 METAR KATL 181952Z 28009KT 10SM SCT055TCU BKN065 BKN250 31/19 A3009 RMK AO2 SLP177 CB DSNT N-NE S SW NW-N TCU N NE S SW NW T03110194=
200707181852 METAR KATL 181852Z 26009KT 10SM SCT047TCU SCT150 SCT200 29/18 A3009 RMK AO2 SLP179 CB DSNT NW MOV SE TCU NE SE S NW T02940183=
200707181752 METAR KATL 181752Z 30008KT 10SM BKN040TCU BKN150 29/19 A3012 RMK AO2 SLP188 TCU NE OHD-W-NW 60000 T02940189 10300 20233 58010=
200707181652 METAR KATL 181652Z 30007KT 10SM SCT035 SCT100 BKN150 29/20 A3013 RMK AO2 SLP193 TCU DSNT N E NW T02890200=
200707181552 METAR KATL 181552Z 29006KT 10SM SCT040TCU BKN100 BKN150 28/21 A3015 RMK AO2 SLP198 TCU NE S NW T02830206=
200707181452 METAR KATL 181452Z 31008KT 10SM FEW020TCU BKN100 BKN150 27/21 A3015 RMK AO2 SLP199 TCU E SE 60000 T02670206 50008=
200707181352 METAR KATL 181352Z 33008KT 10SM FEW025 SCT100 BKN150 27/21 A3015 RMK AO2 SLP199 T02670206=
200707181252 METAR KATL 181252Z 26005KT 10SM SCT100 SCT150 SCT250 26/22 A3014 RMK AO2 RAE02 SLP195 P0000 T02560217=
200707181152 METAR KATL 181152Z 28004KT 8SM -RA SCT055 BKN100 BKN150 BKN250 23/20 A3013 RMK AO2 RAB1056E08B50 SLP191 P0000 60000 T02330200 10239 20228 53010=
200707181052 METAR KATL 181052Z 24005KT 10SM SCT050 BKN100 BKN150 BKN250 24/20 A3011 RMK AO2 SLP186 TCU DSNT SE T02390200=
200707180952 METAR KATL 180952Z 26006KT 10SM SCT060 BKN100 BKN150 BKN250 23/20 A3010 RMK AO2 SLP181 T02330200=
200707180852 METAR KATL 180852Z 27004KT 10SM SCT075 OVC100 23/20 A3009 RMK AO2 SLP180 T02330200 55002=
200707180752 METAR KATL 180752Z 23004KT 10SM FEW050 BKN100 BKN150 23/20 A3009 RMK AO2 SLP179 T02330200=
200707180652 METAR KATL 180652Z 20003KT 10SM FEW050 SCT150 SCT250 23/20 A3009 RMK AO2 SLP179 T02280200=
200707180552 METAR KATL 180552Z 00000KT 10SM FEW050 SCT250 24/20 A3010 RMK AO2 SLP182 T02390200 10294 20233 58003=
200707180452 METAR KATL 180452Z 27003KT 10SM FEW045 23/20 A3011 RMK AO2 SLP186 T02330200 403170233=
200707180352 METAR KATL 180352Z 29004KT 10SM SCT040 BKN055 BKN250 24/20 A3012 RMK AO2 SLP187 OCNL LTG DSNT NW-N T02440200=
200707180252 METAR KATL 180252Z 31004KT 10SM SCT050 BKN065 BKN250 25/19 A3011 RMK AO2 SLP185 T02500194 51018=
200707180152 METAR KATL 180152Z 30004KT 10SM SCT050 BKN070 BKN250 26/20 A3009 RMK AO2 SLP178 T02560200=
200707180052 METAR KATL 180052Z 32005KT 10SM FEW050 SCT200 BKN250 26/20 A3008 RMK AO2 SLP174 OCNL LTG DSNT NE-E TCU DSNT SE-S AND SW-W T02610200=
200707172352 METAR KATL 172352Z 26009KT 10SM FEW030 SCT050CB BKN070 BKN250 29/19 A3005 RMK AO2 SLP166 CB VC NW AND DSNT NE MOV NE TCU NE-SE-S T02890189 10317 20289 53005=
200707172252 METAR KATL 172252Z 25007KT 10SM FEW050TCU SCT075 BKN250 30/18 A3004 RMK AO2 SLP161 TCU VC NE-E CB DSNT N-NE AND NW T03000183=
200707172152 METAR KATL 172152Z 24009KT 10SM SCT050TCU BKN075 BKN250 31/18 A3004 RMK AO2 SLP162 TCU N-E-SE AND DSNT SW-NW MDT CU OHD-ALQDS T03060178=
200707172052 METAR KATL 172052Z 27009G15KT 10SM FEW050 BKN250 31/18 A3004 RMK AO2 SLP160 CB DSNT NE NW TCU DSNT N NE NW T03110183 56019=
200707171952 METAR KATL 171952Z 24012G17KT 10SM FEW045TCU SCT075 BKN250 31/19 A3006 RMK AO2 SLP167 TCU NW-N T03060189=
200707171852 METAR KATL 171852Z 21012G17KT 10SM FEW045TCU SCT060 SCT200 BKN250 31/19 A3007 RMK AO2 SLP172 CB DSNT N NE NW TCU SE NW MDT CU ALQDS T03060189=
200707171752 METAR KATL 171752Z 24006KT 10SM FEW035TCU SCT080 BKN250 29/19 A3010 RMK AO2 SLP181 CB DSNT N NE TCU DSNT E SE AND VC S-NW 60000 T02890194 10294 20244 58007=
200707171652 METAR KATL 171652Z 22005KT 10SM FEW030TCU BKN070 BKN090 BKN250 28/20 A3012 RMK AO2 RAB16E49 SLP187 CB DSNT N NE E NW TCU DSNT E-SE AND OHD-S P0000 T02780200 $=
200707171632 SPECI KATL 171632Z 19003KT 10SM -RA SCT030TCU BKN090 BKN150 BKN250 28/19 A3012 RMK AO2 RAB16 CB DSNT N-NE-E TCU DSNT E AND OHD-S-NW P0000 $=
200707171632 SPECI KATL 171632Z 19003KT 10SM -RA SCT030TCU BKN090 BKN150 BKN250 28/19 A3012 RMK AO2 RAB16 CB DSNT N-NE-E TCU DSNT E AND OHD-S-NW P0000 $=
200707171552 METAR KATL 171552Z 14005KT 10SM FEW030CB SCT040TCU SCT070 BKN250 27/21 A3012 RMK AO2 SLP190 CB NE-SE MOV NE TCU W-N SHRA NE-SE T02720206=
200707171533 SPECI KATL 171533Z 17011G16KT 8SM BKN030CB BKN040TCU BKN070 BKN250 27/19 A3012 RMK AO2 VIS NE-SE LWR SHRA CB VC NE-SE MOV N TCU=
200707171533 SPECI KATL 171533Z 17011G16KT 8SM BKN030CB BKN040TCU BKN070 BKN250 27/19 A3012 RMK AO2 VIS NE-SE LWR SHRA CB VC NE-SE MOV N TCU=
200707171452 METAR KATL 171452Z 21005KT 10SM FEW030TCU SCT045 SCT070 BKN250 28/19 A3012 RMK AO2 SLP188 TCU E-S T02830194 51005=
200707171352 METAR KATL 171352Z 00000KT 10SM FEW030 SCT070 BKN150 BKN250 27/19 A3012 RMK AO2 SLP188 ACC DSNT E-S T02720194=
200707171252 METAR KATL 171252Z 00000KT 10SM FEW060 SCT130 SCT200 BKN250 26/19 A3011 RMK AO2 SLP186 TCU DSNT NE T02560194=
200707171152 METAR KATL 171152Z 00000KT 10SM FEW055 SCT130 BKN200 BKN250 24/20 A3011 RMK AO2 SLP184 ACC VC N-NE T02440200 10256 20239 53008=
200707171052 METAR KATL 171052Z 00000KT 10SM FEW060 BKN130 BKN200 BKN250 24/19 A3010 RMK AO2 SLP180 T02440189=
200707170952 METAR KATL 170952Z 00000KT 10SM SCT060 BKN120 OVC200 24/19 A3009 RMK AO2 SLP177 T02440194=
200707170852 METAR KATL 170852Z 00000KT 10SM FEW085 OVC150 24/19 A3008 RMK AO2 SLP175 T02440189 56002=
200707170752 METAR KATL 170752Z 00000KT 10SM FEW085 OVC150 25/19 A3008 RMK AO2 SLP176 T02500189=
200707170652 METAR KATL 170652Z 00000KT 10SM FEW085 OVC150 25/18 A3008 RMK AO2 SLP176 T02500183=
200707170552 METAR KATL 170552Z 00000KT 10SM FEW085 BKN150 BKN250 26/18 A3009 RMK AO2 SLP177 T02560183 10289 20250 58002=
200707170452 METAR KATL 170452Z 00000KT 10SM BKN150 BKN250 26/19 A3009 RMK AO2 SLP180 T02560189 403000206=
200707170352 METAR KATL 170352Z 00000KT 10SM SCT150 SCT250 26/18 A3009 RMK AO2 SLP178 T02610178=
200707170252 METAR KATL 170252Z 00000KT 10SM FEW085 SCT250 27/18 A3009 RMK AO2 SLP179 T02670183 53013=
200707170152 METAR KATL 170152Z 00000KT 10SM FEW085 BKN250 27/18 A3007 RMK AO2 SLP172 T02720183=
200707170052 METAR KATL 170052Z 22005KT 10SM SCT085 SCT200 BKN250 28/18 A3007 RMK AO2 SLP171 T02780183=
200707162352 METAR KATL 162352Z 21006KT 10SM FEW050 SCT140 SCT200 BKN250 29/17 A3005 RMK AO2 SLP166 CB DSNT SE AND S-SW T02890167 10300 20278 53000=
200707162252 METAR KATL 162252Z 24007KT 10SM FEW050 SCT200 BKN250 30/16 A3004 RMK AO2 SLP160 CB DSNT SW AND NW TCU DSNT NE AND SE T03000161=
200707162152 METAR KATL 162152Z 19009KT 10SM FEW050 SCT200 BKN250 29/16 A3004 RMK AO2 SLP163 CB DSNT NW TCU DSNT SE-SW T02940161=
200707162052 METAR KATL 162052Z 25007KT 10SM FEW050 SCT100 SCT150 BKN250 30/17 A3005 RMK AO2 SLP166 CB DSNT N TCU DSNT NW T03000172 55013=
200707161952 METAR KATL 161952Z 19009KT 10SM FEW050 SCT150 BKN250 29/17 A3005 RMK AO2 SLP165 CB DSNT N T02940172=
200707161852 METAR KATL 161852Z 22007KT 10SM FEW040 SCT080 SCT150 SCT250 29/18 A3007 RMK AO2 SLP173 CB DSNT N TCU DSNT NW T02890183=
200707161752 METAR KATL 161752Z VRB06KT 10SM FEW043 SCT080 BKN150 BKN250 28/18 A3009 RMK AO2 SLP179 CB DSNT NE T02830178 10289 20217 50002=
200707161652 METAR KATL 161652Z VRB03KT 10SM FEW040 SCT080 SCT150 BKN250 28/18 A3009 RMK AO2 SLP181 CB DSNT NE TCU DSNT NW T02780178=
200707161552 METAR KATL 161552Z 26008KT 10SM FEW040 BKN150 BKN250 27/18 A3010 RMK AO2 SLP182 T02720178=
200707161452 METAR KATL 161452Z 28007KT 10SM FEW040 BKN150 BKN250 27/17 A3008 RMK AO2 SLP178 T02670172 51004=
200707161352 METAR KATL 161352Z 26006KT 10SM FEW080 BKN150 BKN250 26/18 A3008 RMK AO2 SLP177 T02610183=
200707161252 METAR KATL 161252Z 27004KT 10SM FEW075 BKN150 BKN200 BKN250 23/18 A3007 RMK AO2 SLP174 T02330183=
200707161152 METAR KATL 161152Z 26004KT 10SM FEW050 SCT100 BKN150 OVC200 22/18 A3007 RMK AO2 SLP174 70057 T02170183 10222 20206 53015=
200707161052 METAR KATL 161052Z 27004KT 10SM FEW050 SCT100 BKN150 OVC200 22/18 A3005 RMK AO2 SLP169 T02170178=
200707160952 METAR KATL 160952Z 26004KT 10SM SCT100 SCT150 BKN250 21/18 A3003 RMK AO2 SLP162 T02110183=
200707160852 METAR KATL 160852Z 30006KT 10SM BKN100 BKN150 BKN250 21/18 A3002 RMK AO2 SLP157 T02110183 53002=
200707160752 METAR KATL 160752Z 28004KT 10SM SCT100 SCT150 SCT250 21/18 A3001 RMK AO2 SLP152 T02110183=
200707160652 METAR KATL 160652Z 25004KT 10SM FEW090 SCT150 SCT250 22/19 A3000 RMK AO2 SLP151 T02170189=
200707160552 METAR KATL 160552Z 26004KT 10SM SCT150 SCT200 SCT250 22/19 A3002 RMK AO2 SLP155 T02170194 10239 20217 50003=
200707160452 METAR KATL 160452Z 21004KT 9SM SCT200 22/19 A3003 RMK AO2 SLP159 T02220194 402720211=
200707160352 METAR KATL 160352Z VRB03KT 9SM SCT150 SCT200 22/20 A3002 RMK AO2 SLP157 T02220200=
200707160252 METAR KATL 160252Z VRB03KT 10SM SCT150 SCT200 22/19 A3001 RMK AO2 SLP153 T02220194 52006=
200707160152 METAR KATL 160152Z VRB05KT 8SM BKN150 BKN200 23/21 A3000 RMK AO2 SLP152 T02280206=
200707160052 METAR KATL 160052Z 00000KT 9SM BKN150 BKN200 23/20 A2999 RMK AO2 SLP147 T02330200=
200707152352 METAR KATL 152352Z 30005KT 8SM BKN110 BKN150 24/21 A2999 RMK AO2 SLP146 60057 T02390206 10272 20217 51003=
200707152252 METAR KATL 152252Z 00000KT 7SM SCT022 BKN095 BKN150 23/20 A2998 RMK AO2 TSE21RAE37 SLP145 CB DSNT SE P0042 T02330200=
200707152242 SPECI KATL 152242Z 00000KT 7SM SCT022 BKN090 BKN150 23/20 A2999 RMK AO2 TSE21RAE37 CB VC NE-SE-SW MOV SE P0042=
200707152242 SPECI KATL 152242Z 00000KT 7SM SCT022 BKN090 BKN150 23/20 A2999 RMK AO2 TSE21RAE37 CB VC NE-SE-SW MOV SE P0042=
200707152222 SPECI KATL 152222Z 27004KT 5SM -RA BKN017 BKN026 OVC080 22/19 A2999 RMK AO2 TSE21 CB VC NE-SE-SW MOV SE P0042=
200707152222 SPECI KATL 152222Z 27004KT 5SM -RA BKN017 BKN026 OVC080 22/19 A2999 RMK AO2 TSE21 CB VC NE-SE-SW MOV SE P0042=
200707152214 SPECI KATL 152214Z 29005KT 3SM TSRA BKN017CB OVC026 22/19 A2999 RMK AO2 OCNL LTGIC TS VC NE-SE-SW MOV SE P0041=
200707152214 SPECI KATL 152214Z 29005KT 3SM TSRA BKN017CB OVC026 22/19 A2999 RMK AO2 OCNL LTGIC TS VC NE-SE-SW MOV SE P0041=
200707152208 SPECI KATL 152208Z 29006KT 1 3/4SM R09R/6000VP6000FT -TSRA BR BKN010CB OVC026 22/19 A3000 RMK AO2 OCNL LTGIC TS NE-OHD-SW MOV SE P0040=
200707152208 SPECI KATL 152208Z 29006KT 1 3/4SM R09R/6000VP6000FT -TSRA BR BKN010CB OVC026 22/19 A3000 RMK AO2 OCNL LTGIC TS NE-OHD-SW MOV SE P0040=
200707152202 SPECI KATL 152202Z 28008KT 1/2SM R09R/2200VP6000FT +TSRA FG BKN003CB OVC026 22/19 A3000 RMK AO2 OCNL LTGIC TS NE-OHD-SW MOV SE P0038=
200707152202 SPECI KATL 152202Z 28008KT 1/2SM R09R/2200VP6000FT +TSRA FG BKN003CB OVC026 22/19 A3000 RMK AO2 OCNL LTGIC TS NE-OHD-SW MOV SE P0038=
200707152154 SPECI KATL 152154Z 31011G19KT 3/4SM R09R/2200VP6000FT +TSRA BR SCT005CB BKN024 OVC032 22/20 A2999 RMK AO2 P0008=
200707152154 SPECI KATL 152154Z 31011G19KT 3/4SM R09R/2200VP6000FT +TSRA BR SCT005CB BKN024 OVC032 22/20 A2999 RMK AO2 P0008=
200707152152 METAR KATL 152152Z 31016G19KT 4SM R09R/2400VP6000FT +TSRA BKN024CB OVC032 23/20 A2999 RMK AO2 TSB29RAB44 SLP149 VIS 1/2 W OCNL LTGIC TS NE-OHD-SW MOV SE P0015 T02280200=
200707152129 SPECI KATL 152129Z 25005KT 6SM TS HZ BKN033CB BKN090 27/19 A2999 RMK AO2 TSB29 OCNL LTGIC TS VC W-NW-N MOV SE SHRA VC W-NW-N=
200707152129 SPECI KATL 152129Z 25005KT 6SM TS HZ BKN033CB BKN090 27/19 A2999 RMK AO2 TSB29 OCNL LTGIC TS VC W-NW-N MOV SE SHRA VC W-NW-N=
200707152052 METAR KATL 152052Z 24008KT 10SM SCT029TCU BKN095 BKN150 27/19 A2998 RMK AO2 SLP143 TCU NE-OHD-NW CB DSNT W AND NW T02670189 58014=
200707151952 METAR KATL 151952Z 24009KT 10SM SCT026 SCT150 SCT200 27/19 A3000 RMK AO2 SLP148 T02720194=
200707151917 SPECI KATL 151917Z 21006KT 10SM SCT023 BKN100 BKN150 OVC200 26/19 A3001 RMK AO2=
200707151917 SPECI KATL 151917Z 21006KT 10SM SCT023 BKN100 BKN150 OVC200 26/19 A3001 RMK AO2=
200707151852 METAR KATL 151852Z 24008KT 10SM OVC022 25/19 A3002 RMK AO2 SLP156 T02500194=
200707151829 SPECI KATL 151829Z 22008KT 10SM BKN022 BKN085 OVC200 24/19 A3002 RMK AO2=
200707151829 SPECI KATL 151829Z 22008KT 10SM BKN022 BKN085 OVC200 24/19 A3002 RMK AO2=
200707151752 METAR KATL 151752Z 25008KT 9SM SCT019 BKN100 OVC200 24/18 A3002 RMK AO2 RAE1658B19E42 SLP157 P0000 60000 T02440183 10244 20217 50001=
200707151727 SPECI KATL 151727Z 28008KT 9SM -RA BKN017 OVC120 24/19 A3002 RMK AO2 RAE1658B19 P0000=
200707151727 SPECI KATL 151727Z 28008KT 9SM -RA BKN017 OVC120 24/19 A3002 RMK AO2 RAE1658B19 P0000=
200707151652 METAR KATL 151652Z 28006KT 9SM -RA SCT019 BKN090 OVC120 24/19 A3003 RMK AO2 SLP160 P0000 T02440194=
200707151552 METAR KATL 151552Z 26005KT 9SM -RA FEW015 SCT042 BKN075 OVC150 23/19 A3003 RMK AO2 SLP159 P0000 T02280194=
200707151452 METAR KATL 151452Z 26006KT 9SM -RA FEW015 SCT034 OVC060 23/19 A3002 RMK AO2 RAB15 SLP157 P0000 60000 T02280189 51009=
200707151416 SPECI KATL 151416Z 25006KT 8SM -RA SCT012 BKN031 OVC095 22/19 A3002 RMK AO2 RAB15 P0000=
200707151416 SPECI KATL 151416Z 25006KT 8SM -RA SCT012 BKN031 OVC095 22/19 A3002 RMK AO2 RAB15 P0000=
200707151406 SPECI KATL 151406Z 23006KT 9SM SCT009 BKN029 OVC095 22/19 A3002 RMK AO2=
200707151406 SPECI KATL 151406Z 23006KT 9SM SCT009 BKN029 OVC095 22/19 A3002 RMK AO2=
200707151352 METAR KATL 151352Z 24007KT 7SM BKN009 OVC027 22/19 A3001 RMK AO2 RAE17 SLP155 P0000 T02220194=
200707151252 METAR KATL 151252Z 26008KT 7SM -RA OVC008 22/19 A3000 RMK AO2 RAB51 SLP151 P0000 T02220194=
200707151241 SPECI KATL 151241Z 28008KT 7SM BKN008 BKN034 OVC120 22/19 A3000 RMK AO2=
200707151241 SPECI KATL 151241Z 28008KT 7SM BKN008 BKN034 OVC120 22/19 A3000 RMK AO2=
200707151230 SPECI KATL 151230Z 28007KT 6SM HZ SCT008 OVC120 22/19 A3000 RMK AO2=
200707151230 SPECI KATL 151230Z 28007KT 6SM HZ SCT008 OVC120 22/19 A3000 RMK AO2=
200707151152 METAR KATL 151152Z 24007KT 7SM BKN008 BKN011 BKN025 22/19 A2999 RMK AO2 SLP148 70008 T02170189 10217 20211 51010=
200707151127 SPECI KATL 151127Z 25006KT 7SM BKN008 OVC025 21/19 A2999 RMK AO2 CIG 006V011=
200707151127 SPECI KATL 151127Z 25006KT 7SM BKN008 OVC025 21/19 A2999 RMK AO2 CIG 006V011=
200707151118 SPECI KATL 151118Z 25005KT 6SM BR SCT006 BKN025 BKN090 21/19 A2999 RMK AO2=
200707151118 SPECI KATL 151118Z 25005KT 6SM BR SCT006 BKN025 BKN090 21/19 A2999 RMK AO2=
200707151052 METAR KATL 151052Z 27006KT 6SM BR FEW006 SCT045 BKN090 21/19 A2999 RMK AO2 SLP147 T02110189=
200707150952 METAR KATL 150952Z 27007KT 6SM BR BKN006 BKN080 21/19 A2997 RMK AO2 SLP141 T02110194=
200707150852 METAR KATL 150852Z 27005KT 6SM BR BKN004 OVC045 21/19 A2996 RMK AO2 CIG 003V009 SLP137 T02110189 55002=
200707150752 METAR KATL 150752Z 26006KT 6SM BR OVC004 21/19 A2995 RMK AO2 SLP132 T02110194=
200707150652 METAR KATL 150652Z 23006KT 6SM BR BKN008 OVC150 21/19 A2995 RMK AO2 CIG 007V011 SLP132 T02110194=
200707150645 SPECI KATL 150645Z 23003KT 6SM BR BKN010 OVC150 21/19 A2995 RMK AO2=
200707150645 SPECI KATL 150645Z 23003KT 6SM BR BKN010 OVC150 21/19 A2995 RMK AO2=
200707150609 SPECI KATL 150609Z 00000KT 6SM BR FEW002 SCT029 21/19 A2996 RMK AO2=
200707150609 SPECI KATL 150609Z 00000KT 6SM BR FEW002 SCT029 21/19 A2996 RMK AO2=
200707150552 METAR KATL 150552Z 00000KT 6SM BR BKN027 OVC033 22/20 A2997 RMK AO2 SLP138 60000 T02170200 10239 20217 58008=
200707150452 METAR KATL 150452Z 00000KT 9SM BKN150 22/19 A2999 RMK AO2 SLP144 T02170194 402890217=
200707150352 METAR KATL 150352Z 21004KT 9SM FEW120 SCT250 22/20 A2998 RMK AO2 SLP145 T02220200=
200707150252 METAR KATL 150252Z 00000KT 7SM FEW010 SCT120 BKN250 22/20 A2999 RMK AO2 SLP148 P0000 60000 T02220200 51007=
200707150152 METAR KATL 150152Z COR 28006KT 6SM -RA FEW008 OVC085 22/19 A2998 RMK AO2 RAE25B45 SLP145 OCNL LTG DSNT N P0000 T02220194 $=
200707150052 METAR KATL 150052Z 24004KT 6SM -RA FEW005 SCT100 BKN150 OVC250 23/20 A2999 RMK AO2 TSE20RAB29 SLP147 OCNL LTG DSNT N TS MOV N P0000 T02280200=
200707150023 SPECI KATL 150023Z 22007KT 5SM BR FEW005 BKN110 OVC150 23/21 A2997 RMK AO2 TSE20 TS MOV N=
200707150023 SPECI KATL 150023Z 22007KT 5SM BR FEW005 BKN110 OVC150 23/21 A2997 RMK AO2 TSE20 TS MOV N=
200707142352 METAR KATL 142352Z 19005KT 5SM TS FEW012CB SCT100 OVC150 24/21 A2997 RMK AO2 TSB48 SLP139 OCNL LTGIC TS VC NW MOV NE 60002 T02390211 10289 20239 51005=
200707142349 SPECI KATL 142349Z 19005KT 5SM TS FEW012CB SCT100 OVC150 24/21 A2997 RMK AO2 TSB48 OCNL LTGIC TS VC NW MOV NE=
200707142349 SPECI KATL 142349Z 19005KT 5SM TS FEW012CB SCT100 OVC150 24/21 A2997 RMK AO2 TSB48 OCNL LTGIC TS VC NW MOV NE=
200707142252 METAR KATL 142252Z 00000KT 7SM FEW017 BKN130 OVC250 24/21 A2996 RMK AO2 RAE42 SLP134 P0000 T02440211=
200707142152 METAR KATL 142152Z COR 13005KT 5SM -RA SCT017 SCT031 BKN055 OVC150 26/21 A2995 RMK AO2 TSE42 SLP134 TS MOV SE P0002 T02560211=
200707142143 SPECI KATL 142143Z 14005KT 6SM -RA SCT017 SCT031CB BKN055 OVC150 26/21 A2996 RMK AO2 TSE42 TS MOV SE P0002=
200707142143 SPECI KATL 142143Z 14005KT 6SM -RA SCT017 SCT031CB BKN055 OVC150 26/21 A2996 RMK AO2 TSE42 TS MOV SE P0002=
200707142052 METAR KATL 142052Z 15005KT 8SM -TSRA BKN033CB OVC150 27/20 A2996 RMK AO2 TSB24RAB28 SLP135 OCNL LTGICCG TS VC S-SW MOV NE P0000 60000 T02670200 56019=
200707142025 SPECI KATL 142025Z 10004KT 8SM TS BKN033CB OVC150 27/19 A2997 RMK AO2 TSB24 OCNL LTGIC TS SE MOV NE SHRA SE=
200707142025 SPECI KATL 142025Z 10004KT 8SM TS BKN033CB OVC150 27/19 A2997 RMK AO2 TSB24 OCNL LTGIC TS SE MOV NE SHRA SE=
200707141952 METAR KATL 141952Z 13003KT 8SM BKN033 BKN040 BKN150 28/19 A2997 RMK AO2 SLP139 TCU DSNT SE T02780189=
200707141852 METAR KATL 141852Z VRB03KT 8SM SCT035 BKN150 28/19 A2999 RMK AO2 SLP145 T02780194=
200707141752 METAR KATL 141752Z 17004KT 8SM SCT055 BKN150 26/19 A3001 RMK AO2 SLP154 60006 T02610194 10261 20217 58009=
200707141652 METAR KATL 141652Z 10004KT 8SM SCT050 BKN150 24/19 A3003 RMK AO2 TSB12E41RAB00E24 SLP160 CB DSNT SE P0000 T02440189=
200707141642 SPECI KATL 141642Z 09009KT 7SM SCT050 BKN150 24/18 A3003 RMK AO2 TSB12E41RAB00E24 CB DSNT NE-E AND SE P0000=
200707141642 SPECI KATL 141642Z 09009KT 7SM SCT050 BKN150 24/18 A3003 RMK AO2 TSB12E41RAB00E24 CB DSNT NE-E AND SE P0000=
200707141613 SPECI KATL 141613Z 08008KT 6SM -TSRA FEW020CB SCT030 OVC065 23/18 A3004 RMK AO2 TSB12RAB00 OCNL LTGIC TS VC S-SW MOV E CB DSNT NE-E P0000=
200707141613 SPECI KATL 141613Z 08008KT 6SM -TSRA FEW020CB SCT030 OVC065 23/18 A3004 RMK AO2 TSB12RAB00 OCNL LTGIC TS VC S-SW MOV E CB DSNT=
200707141552 METAR KATL 141552Z 08006KT 7SM FEW020 SCT043 OVC065 23/18 A3004 RMK AO2 TSE18RAE30 SLP162 CB DSNT NE-E P0001 T02280183=
200707141519 SPECI KATL 141519Z 06003KT 6SM -RA SCT016 BKN034 OVC060 22/17 A3004 RMK AO2 TSE18 LTG DSNT NW-N CB DSNT N-NE-E AND NW-N P0001=
200707141519 SPECI KATL 141519Z 06003KT 6SM -RA SCT016 BKN034 OVC060 22/17 A3004 RMK AO2 TSE18 LTG DSNT NW-N CB DSNT N-NE-E AND NW-N P0001=
200707141452 METAR KATL 141452Z 00000KT 3SM -TSRA SCT023CB BKN034 OVC041 22/18 A3004 RMK AO2 TSB20 SLP164 FRQ LTGCGIC TS SE-OHD-SW-W-NW MOV NE P0005 60005 T02170178 52007=
200707141448 SPECI KATL 141448Z 00000KT 2 1/2SM -TSRA SCT023CB BKN034 OVC041 22/18 A3004 RMK AO2 SFC VIS 4 TSB20 FRQ LTGCGIC TS SE-OHD-SW-W-NW MOV NE P0004=
200707141448 SPECI KATL 141448Z 00000KT 2 1/2SM -TSRA SCT023CB BKN034 OVC041 22/18 A3004 RMK AO2 SFC VIS 4 TSB20 FRQ LTGCGIC TS SE-OHD-SW-W-NW MOV NE P0004=
200707141421 SPECI KATL 141421Z 16005KT 9SM TS SCT034CB BKN049 OVC150 23/16 A3004 RMK AO2 TSB20RAE12 OCNL LTGCGIC W TS VC SW-W-NW MOV NE P0000=
200707141421 SPECI KATL 141421Z 16005KT 9SM TS SCT034CB BKN049 OVC150 23/16 A3004 RMK AO2 TSB20RAE12 OCNL LTGCGIC W TS VC SW-W-NW MOV NE P0000=
200707141352 METAR KATL 141352Z COR 11006KT 10SM -RA BKN060 OVC150 23/16 A3003 RMK AO2 RAB43 SLP160 CB DSNT SW-W AND NW P0000 T02330161=
200707141252 METAR KATL 141252Z 11006KT 10SM FEW060 BKN080 OVC150 23/15 A3003 RMK AO2 SLP159 T02280150=
200707141152 METAR KATL 141152Z 09005KT 10SM BKN070 BKN085 OVC120 22/16 A3002 RMK AO2 SLP155 T02220156 10239 20217 51006=
200707141052 METAR KATL 141052Z 08007KT 10SM FEW048 BKN070 OVC080 22/16 A3002 RMK AO2 SLP154 T02220156=
200707140952 METAR KATL 140952Z 09007KT 10SM SCT060 BKN100 OVC200 22/16 A3001 RMK AO2 SLP152 T02170156=
200707140852 METAR KATL 140852Z 08007KT 10SM BKN150 OVC250 22/16 A3000 RMK AO2 SLP149 T02220161 55005=
200707140752 METAR KATL 140752Z 09006KT 10SM BKN150 OVC250 22/16 A2999 RMK AO2 SLP146 T02220161=
200707140652 METAR KATL 140652Z 09006KT 10SM FEW065 BKN120 OVC200 23/17 A3000 RMK AO2 SLP148 T02330167=
200707140552 METAR KATL 140552Z 08006KT 10SM SCT070 BKN100 OVC250 23/17 A3002 RMK AO2 SLP153 T02330167 10278 20233 58007=
200707140452 METAR KATL 140452Z 06009KT 10SM FEW060 BKN100 OVC250 25/16 A3003 RMK AO2 SLP158 T02500161 403000217=
200707140352 METAR KATL 140352Z 04007KT 10SM SCT060 SCT090 BKN120 BKN250 26/15 A3004 RMK AO2 SLP163 T02610150=
200707140252 METAR KATL 140252Z 05007KT 10SM FEW060 BKN090 OVC250 27/14 A3004 RMK AO2 SLP161 T02670144 53008=
200707140152 METAR KATL 140152Z 03006KT 10SM BKN055 OVC085 27/15 A3003 RMK AO2 SLP157 T02720150=
200707140052 METAR KATL 140052Z 36007KT 10SM FEW060 SCT090 BKN150 BKN250 27/16 A3002 RMK AO2 SLP156 T02670161=
200707132352 METAR KATL 132352Z 33006KT 10SM FEW060 SCT090 SCT150 BKN250 28/16 A3001 RMK AO2 SLP152 T02780156 10300 20278 55006=
200707132252 METAR KATL 132252Z 00000KT 10SM FEW080 BKN150 BKN250 28/16 A3000 RMK AO2 SLP148 T02780161=
200707132152 METAR KATL 132152Z 26003KT 10SM FEW050 SCT100 BKN150 OVC250 29/16 A3000 RMK AO2 SLP149 T02890161=
200707132052 METAR KATL 132052Z VRB05KT 10SM FEW050 SCT100 BKN150 29/16 A3003 RMK AO2 SLP159 SHRA DSNT NW T02890156 58014=
200707131952 METAR KATL 131952Z 32003KT 10SM FEW055 SCT100 SCT150 BKN250 29/16 A3004 RMK AO2 SLP162 T02940156=
200707131852 METAR KATL 131852Z 29006KT 10SM SCT055 SCT100 OVC150 29/16 A3006 RMK AO2 SLP170 BINOVC DSNT E W T02890156=
200707131752 METAR KATL 131752Z 00000KT 10SM FEW055 SCT100 BKN150 BKN250 28/15 A3007 RMK AO2 SLP173 T02830150 10289 20239 58005=
200707131652 METAR KATL 131652Z VRB03KT 10SM FEW100 BKN150 BKN250 28/13 A3008 RMK AO2 SLP176 T02780133=
200707131552 METAR KATL 131552Z 00000KT 10SM FEW090 BKN150 BKN200 27/14 A3009 RMK AO2 SLP179 VIRGA NE NW T02670144=
200707131452 METAR KATL 131452Z 11004KT 10SM SCT090 BKN150 BKN200 27/16 A3009 RMK AO2 SLP177 VIRGA DSNT NW ACC NE-S T02670156 50008=
200707131352 METAR KATL 131352Z 18003KT 10SM FEW100 BKN150 BKN250 25/15 A3009 RMK AO2 SLP179 ACC DSNT NE W-N T02500150=
200707131252 METAR KATL 131252Z 12004KT 10SM SCT100 BKN140 BKN200 BKN250 24/15 A3007 RMK AO2 SLP173 T02390150=
200707131152 METAR KATL 131152Z 05005KT 10SM SCT100 BKN140 BKN200 BKN250 24/14 A3006 RMK AO2 SLP169 T02390144 10239 20217 53015=
200707131052 METAR KATL 131052Z 00000KT 10SM SCT090 BKN140 BKN200 BKN250 23/16 A3003 RMK AO2 SLP159 T02280156=
200707130952 METAR KATL 130952Z 00000KT 10SM BKN140 BKN200 BKN250 23/15 A3003 RMK AO2 SLP156 T02280150=
200707130852 METAR KATL 130852Z 34004KT 10SM BKN140 BKN200 OVC250 22/15 A3002 RMK AO2 SLP154 T02220150 56008=
200707130752 METAR KATL 130752Z 34007KT 10SM BKN140 OVC200 22/15 A3002 RMK AO2 SLP155 T02220150=
200707130652 METAR KATL 130652Z 33005KT 10SM BKN140 BKN200 BKN250 22/15 A3003 RMK AO2 SLP157 T02220150=
200707130552 METAR KATL 130552Z 32005KT 10SM SCT140 BKN200 BKN250 23/15 A3004 RMK AO2 SLP162 T02280150 10283 20228 58005=
200707130452 METAR KATL 130452Z 33005KT 10SM SCT200 BKN250 23/15 A3006 RMK AO2 SLP168 T02330150 403060217=
200707130352 METAR KATL 130352Z 31005KT 10SM SCT200 BKN250 24/14 A3006 RMK AO2 SLP169 T02440144=
200707130252 METAR KATL 130252Z 32006KT 10SM SCT250 25/14 A3006 RMK AO2 SLP167 T02500139 53012=
200707130152 METAR KATL 130152Z 32006KT 10SM BKN250 26/13 A3004 RMK AO2 SLP162 T02610128=
200707130052 METAR KATL 130052Z VRB05KT 10SM FEW200 BKN250 27/12 A3003 RMK AO2 SLP158 T02720122=
200707122352 METAR KATL 122352Z 33008KT 10SM BKN250 29/11 A3002 RMK AO2 SLP156 T02890111 10306 20283 55000=
200707122252 METAR KATL 122252Z 33009KT 10SM SCT250 30/12 A3002 RMK AO2 SLP155 T03000117=
200707122152 METAR KATL 122152Z 33007KT 10SM SCT250 31/13 A3001 RMK AO2 SLP153 T03060128=
200707122052 METAR KATL 122052Z VRB05KT 10SM FEW250 30/13 A3002 RMK AO2 SLP155 T03000128 56015=
200707121952 METAR KATL 121952Z 32011KT 10SM FEW120 SCT180 SCT250 30/12 A3004 RMK AO2 SLP160 T03000117=
200707121852 METAR KATL 121852Z 33011KT 10SM FEW120 SCT180 BKN250 29/13 A3005 RMK AO2 SLP165 T02940128=
200707121752 METAR KATL 121752Z 34010KT 10SM FEW180 SCT250 BKN300 29/13 A3007 RMK AO2 SLP170 T02890133 10289 20222 58005=
200707121652 METAR KATL 121652Z 32007KT 10SM BKN250 BKN300 28/14 A3008 RMK AO2 SLP176 T02780144=
200707121552 METAR KATL 121552Z 30006KT 10SM FEW045 SCT250 BKN300 27/15 A3008 RMK AO2 SLP175 T02670150=
200707121452 METAR KATL 121452Z 35008KT 10SM FEW045 SCT180 SCT250 27/16 A3008 RMK AO2 SLP176 T02670161 51015=
200707121352 METAR KATL 121352Z 34008KT 10SM FEW180 BKN250 BKN300 26/17 A3008 RMK AO2 SLP174 T02560167=
200707121252 METAR KATL 121252Z 32009KT 10SM FEW200 SCT250 24/20 A3006 RMK AO2 SLP170 T02390200=
200707121152 METAR KATL 121152Z 32005KT 10SM FEW110 SCT250 22/21 A3004 RMK AO2 SLP161 70022 T02220206 10239 20217 51010=
200707121052 METAR KATL 121052Z 32007KT 10SM FEW110 SCT250 22/21 A3003 RMK AO2 SLP158 T02170206=
200707120952 METAR KATL 120952Z 32006KT 10SM FEW110 SCT250 22/21 A3001 RMK AO2 SLP153 T02170206=
200707120852 METAR KATL 120852Z 31005KT 10SM FEW250 22/21 A3000 RMK AO2 SLP150 T02220211 55000=
200707120752 METAR KATL 120752Z 30006KT 10SM FEW250 23/22 A3000 RMK AO2 SLP149 T02330217=
200707120652 METAR KATL 120652Z 30004KT 10SM FEW075 SCT100 SCT200 23/22 A3000 RMK AO2 SLP148 T02330222=
200707120552 METAR KATL 120552Z 28005KT 10SM FEW060 SCT075 BKN100 BKN200 24/23 A3001 RMK AO2 SLP152 60000 T02440228 10278 20244 58003=
200707120452 METAR KATL 120452Z 24003KT 10SM FEW050 BKN075 BKN110 BKN200 25/21 A3003 RMK AO2 RAB09E28 SLP161 P0000 T02500211 402940217=
200707120352 METAR KATL 120352Z VRB04KT 10SM FEW025 BKN040 BKN090 BKN250 25/21 A3003 RMK AO2 SLP159 T02500211=
200707120252 METAR KATL 120252Z 23004KT 10SM FEW060 SCT250 26/21 A3001 RMK AO2 SLP153 T02560211 53013=
200707120152 METAR KATL 120152Z 26005KT 10SM SCT250 26/21 A2999 RMK AO2 SLP144 T02610206=
200707120052 METAR KATL 120052Z 27005KT 10SM FEW200 BKN250 27/21 A2998 RMK AO2 SLP141 CB DSNT NE T02670206=
200707112352 METAR KATL 112352Z 27008KT 10SM FEW035 BKN250 28/21 A2998 RMK AO2 SLP140 TCU DSNT NE AND SW 60000 T02780206 10294 20239 55001=
200707112252 METAR KATL 112252Z 29012KT 10SM SCT035 SCT180 BKN250 28/20 A2997 RMK AO2 SLP139 T02830200=
200707112152 METAR KATL 112152Z 27009KT 10SM FEW032 BKN180 BKN250 29/21 A2996 RMK AO2 SLP134 TCU DSNT SE AND NW T02940206 $=
200707112052 METAR KATL 112052Z 29014G21KT 10SM FEW025 BKN035 BKN100 BKN150 BKN200 28/21 A2998 RMK AO2 SLP141 TCU DSNT SW-W NW-N 60000 T02830206 56015=
200707112012 SPECI KATL 112012Z 27009G16KT 10SM SCT025 SCT085 BKN150 BKN200 27/21 A2998 RMK AO2=
200707112012 SPECI KATL 112012Z 27009G16KT 10SM SCT025 SCT085 BKN150 BKN200 27/21 A2998 RMK AO2=
200707112001 SPECI KATL 112001Z 26012G15KT 10SM BKN020 BKN085 BKN150 BKN200 27/21 A2998 RMK AO2=
200707112001 SPECI KATL 112001Z 26012G15KT 10SM BKN020 BKN085 BKN150 BKN200 27/21 A2998 RMK AO2=
200707111952 METAR KATL 111952Z 26007G17KT 220V300 10SM FEW020 SCT085 BKN150 BKN200 27/22 A2998 RMK AO2 SLP143 T02720217=
200707111852 METAR KATL 111852Z 28008KT 10SM FEW015 SCT030 SCT080 BKN150 BKN200 24/22 A2999 RMK AO2 RAB1759E09 SLP147 CB DSNT E-SE SHRA DSNT E-SE VC SW NW P0000 T02440217=
200707111831 SPECI KATL 111831Z 28008KT 10SM FEW015 SCT030 SCT080 BKN150 BKN200 24/21 A3000 RMK AO2 RAB1759E09 LTG DSNT SE CB DSNT SE P0000=
200707111831 SPECI KATL 111831Z 28008KT 10SM FEW015 SCT030 SCT080 BKN150 BKN200 24/21 A3000 RMK AO2 RAB1759E09 LTG DSNT SE CB DSNT SE P0000=
200707111802 SPECI KATL 111802Z 29014G20KT 9SM -RA BKN026 BKN048 BKN150 BKN200 24/21 A3002 RMK AO2 RAB1759 LTG DSNT S CB DSNT S P0000=
200707111802 SPECI KATL 111802Z 29014G20KT 9SM -RA BKN026 BKN048 BKN150 BKN200 24/21 A3002 RMK AO2 RAB1759 LTG DSNT S CB DSNT S P0000=
200707111759 SPECI KATL 111759Z 28013G21KT 7SM -RA FEW026 BKN048 BKN150 BKN200 24/21 A3002 RMK AO2 RAB59 LTG DSNT S CB DSNT S P0000=
200707111759 SPECI KATL 111759Z 28013G21KT 7SM -RA FEW026 BKN048 BKN150 BKN200 24/21 A3002 RMK AO2 RAB59 LTG DSNT S CB DSNT S P0000=
200707111752 METAR KATL 111752Z 28016G21KT 10SM FEW018 BKN150 BKN200 24/21 A3002 RMK AO2 TSE43RAE05B35E43 SLP158 LTG DSNT NE SE SW TS MOV E CB DSNT NE SE SW P0001 60022 T02440211 10283 20228 55002=
200707111743 SPECI KATL 111743Z 28013G18KT 10SM FEW018 SCT045 BKN150 BKN200 24/21 A3001 RMK AO2 TSE43RAE05B35E43 LTG DSNT NE-SE SW-W TS MOV E CB DSNT NE-SE SW-W P0001=
200707111743 SPECI KATL 111743Z 28013G18KT 10SM FEW018 SCT045 BKN150 BKN200 24/21 A3001 RMK AO2 TSE43RAE05B35E43 LTG DSNT NE-SE SW-W TS MOV E CB DSNT NE-SE SW-W P0001=
200707111735 SPECI KATL 111735Z 30012G17KT 5SM -TSRA FEW018CB SCT028 BKN047 BKN150 BKN200 24/22 A3002 RMK AO2 RAE05B35 VIS 1SM NW-N SHRA OCNL LTGICCG TS NW-N MOV E CB NW-N MOV E P0001=
200707111735 SPECI KATL 111735Z 30012G17KT 5SM -TSRA FEW018CB SCT028 BKN047 BKN150 BKN200 24/22 A3002 RMK AO2 RAE05B35 VIS 1SM NW-N SHRA OCNL LTGICCG TS NW-N MOV E CB NW-N MOV E P0001=
200707111728 SPECI KATL 111728Z 30010G14KT 10SM TS FEW015CB BKN030 OVC150 24/22 A3003 RMK AO2 RAE05 FRQ LTGICCG TS VC SE NW MOV E CB VC SE NW MOV E P0001=
200707111728 SPECI KATL 111728Z 30010G14KT 10SM TS FEW015CB BKN030 OVC150 24/22 A3003 RMK AO2 RAE05 FRQ LTGICCG TS VC SE NW MOV E CB VC SE NW MOV E P0001=
200707111720 SPECI KATL 111720Z 24006KT 10SM TS FEW015CB SCT045 BKN150 BKN200 24/22 A3003 RMK AO2 RAE05 FRQ LTGICCG TS SE-S MOV E CB SE-S AND DSNT W-N MOV E P0001=
200707111720 SPECI KATL 111720Z 24006KT 10SM TS FEW015CB SCT045 BKN150 BKN200 24/22 A3003 RMK AO2 RAE05 FRQ LTGICCG TS SE-S MOV E CB SE-S AND DSNT W-N MOV E P0001=
200707111705 SPECI KATL 111705Z 26007KT 10SM TS FEW014CB SCT034 SCT045 BKN150 BKN200 24/21 A3003 RMK AO2 RAE05 FRQ LTGICCG TS NE-S MOV E CB NE-S AND DSNT W-N MOV E P0001=
200707111705 SPECI KATL 111705Z 26007KT 10SM TS FEW014CB SCT034 SCT045 BKN150 BKN200 24/21 A3003 RMK AO2 RAE05 FRQ LTGICCG TS NE-S MOV E CB=
200707111657 SPECI KATL 111657Z 26009KT 9SM R09R/3500VP6000FT -TSRA FEW008 BKN022CB BKN034 BKN150 BKN200 23/21 A3002 RMK AO2 VIS LWR N-SW SHRA FRQ LTGICCG TS N-SW MOV E CB N-SW AND DSNT NW MOV E P0001=
200707111657 SPECI KATL 111657Z 26009KT 9SM R09R/3500VP6000FT -TSRA FEW008 BKN022CB BKN034 BKN150 BKN200 23/21 A3002 RMK AO2 VIS LWR N-SW SHRA FRQ LTGICCG TS N-SW MOV E CB N-SW AND DSNT NW MOV E P0001=
200707111654 SPECI KATL 111654Z 26009G22KT 9SM R09R/3500VP6000FT -TSRA FEW008 SCT022 BKN034 23/21 A3001 RMK AO2 P0000=
200707111654 SPECI KATL 111654Z 26009G22KT 9SM R09R/3500VP6000FT -TSRA FEW008 SCT022 BKN034 23/21 A3001 RMK AO2 P0000=
200707111652 METAR KATL 111652Z 28010G22KT 9SM R09R/3500VP6000FT -TSRA SCT017 BKN022CB BKN039 BKN150 BKN200 23/21 A3001 RMK AO2 TSB30RAB17 SLP153 VIS LWR N-SW SHRA CNS LTGICCG TS N-SW MOV E CB N-SW AND DSNT NW MOV E P0021 T023=
200707111648 SPECI KATL 111648Z 26010G23KT 8SM R09R/3500VP6000FT -TSRA SCT017 BKN022CB BKN039 BKN150 BKN200 24/21 A3002 RMK AO2 TSB30RAB17 VIS LWR N-SW SHRA CNS LTGICCG TS N-SW MOV E CB N-SW MOV E P0014=
200707111648 SPECI KATL 111648Z 26010G23KT 8SM R09R/3500VP6000FT -TSRA SCT017 BKN022CB BKN039 BKN150 BKN200 24/21 A3002 RMK AO2 TSB30RAB17 VIS LWR N-SW SHRA CNS LTGICCG TS N-SW MOV E CB N-SW MOV E P0014=
200707111642 SPECI KATL 111642Z 29017G23KT 2SM +TSRA BKN022CB BKN033 OVC046 26/22 A3002 RMK AO2 TWR VIS 4 TSB30RAB17 CNS LTGICCG TS OHD MOV E CB OHD MOV E P0013=
200707111642 SPECI KATL 111642Z 29017G23KT 2SM +TSRA BKN022CB BKN033 OVC046 26/22 A3002 RMK AO2 TWR VIS 4 TSB30RAB17 CNS LTGICCG TS OHD MOV E CB OHD MOV E P0013=
200707111640 SPECI KATL 111640Z 30013G23KT 7SM -TSRA BKN022CB BKN033 OVC046 26/23 A3002 RMK AO2 TSB30RAB17 CNS LTGICCG TS SW-NW MOV E CB E SW-NW MOV E SHRA E SW-NW P0013=
200707111640 SPECI KATL 111640Z 30013G23KT 7SM -TSRA BKN022CB BKN033 OVC046 26/23 A3002 RMK AO2 TSB30RAB17 CNS LTGICCG TS SW-NW MOV E CB E SW-NW MOV E SHRA E SW-NW P0013=
200707111630 SPECI KATL 111630Z 27010KT 9SM R09R/3000VP6000FT -TSRA BKN018CB BKN033TCU OVC049 26/22 A3002 RMK AO2 TSB30RAB17 FRQ LTGICCG TS VC W MOV E CB VC E AND W MOV E SHRA VC E AND W P0013 $=
200707111630 SPECI KATL 111630Z 27010KT 9SM R09R/3000VP6000FT -TSRA BKN018CB BKN033TCU OVC049 26/22 A3002 RMK AO2 TSB30RAB17 FRQ LTGICCG TS VC W MOV E CB VC E AND W MOV E SHRA VC E AND W P0013 $=
200707111626 SPECI KATL 111626Z 28006KT 1 1/2SM R09R/2400VP6000FT -RA BKN018CB BKN033TCU OVC049 26/22 A3001 RMK AO2 SFC VIS 2 RAB17 PRESFR LTG DSNT W CB OHD DSNT W MOV E TCU OHD ALQDS P0013 $=
200707111626 SPECI KATL 111626Z 28006KT 1 1/2SM R09R/2400VP6000FT -RA BKN018CB BKN033TCU OVC049 26/22 A3001 RMK AO2 SFC VIS 2 RAB17 PRESFR LTG DSNT W CB OHD DSNT W MOV E TCU OHD ALQDS P0013 $=
200707111621 SPECI KATL 111621Z 24008G15KT 2SM R09R/2400VP6000FT -RA BKN021CB BKN035TCU BKN043 27/22 A3002 RMK AO2 SFC VIS 3 RAB17 LTG DSNT W CB OHD-W AND DSNT W MOV E TCU NE-S P0002 $=
200707111621 SPECI KATL 111621Z 24008G15KT 2SM R09R/2400VP6000FT -RA BKN021CB BKN035TCU BKN043 27/22 A3002 RMK AO2 SFC VIS 3 RAB17 LTG DSNT W CB OHD-W AND DSNT W MOV E TCU NE-S P0002 $=
200707111616 SPECI KATL 111616Z 26009G15KT 8SM FEW018CB SCT024TCU BKN035 BKN150 BKN200 28/22 A3002 RMK AO2 LTG DSNT W CB VC W MOV E TCU NE-S SHRA VC W=
200707111616 SPECI KATL 111616Z 26009G15KT 8SM FEW018CB SCT024TCU BKN035 BKN150 BKN200 28/22 A3002 RMK AO2 LTG DSNT W CB VC W MOV E TCU NE-S SHRA VC W=
200707111607 SPECI KATL 111607Z 26008KT 220V280 9SM SCT020 BKN026 BKN035 BKN150 BKN200 28/22 A3003 RMK AO2 LTG DSNT W CB DSNT W MOV E=
200707111607 SPECI KATL 111607Z 26008KT 220V280 9SM SCT020 BKN026 BKN035 BKN150 BKN200 28/22 A3003 RMK AO2 LTG DSNT W CB DSNT W MOV E=
200707111552 METAR KATL 111552Z 26008G16KT 8SM FEW017TCU SCT024 BKN033 BKN150 BKN200 27/22 A3003 RMK AO2 SLP159 TCU S-SW SHRA S-SW T02720222=
200707111543 SPECI KATL 111543Z 25009KT 8SM SCT014 BKN022 BKN030 BKN150 BKN200 27/24 A3003 RMK AO2=
200707111543 SPECI KATL 111543Z 25009KT 8SM SCT014 BKN022 BKN030 BKN150 BKN200 27/24 A3003 RMK AO2=
200707111452 METAR KATL 111452Z 24011G18KT 6SM BR OVC012 26/24 A3004 RMK AO2 SLP162 T02560239 50001=
200707111352 METAR KATL 111352Z 25008KT 6SM BR OVC010 24/23 A3005 RMK AO2 CIG 008V013 SLP165 T02440233=
200707111333 SPECI KATL 111333Z 25009KT 7SM OVC010 24/22 A3005 RMK AO2 CIG 007V013=
200707111333 SPECI KATL 111333Z 25009KT 7SM OVC010 24/22 A3005 RMK AO2 CIG 007V013=
200707111252 METAR KATL 111252Z 24011KT 3SM BR OVC008 24/23 A3005 RMK AO2 SFC VIS 6 CIG 007V011 SLP165 CB DSNT NW T02390228=
200707111152 METAR KATL 111152Z 23008KT 3SM BR BKN006 OVC100 23/22 A3003 RMK AO2 SFC VIS 5 SLP161 70003 T02280217 10228 20217 53003=
200707111131 SPECI KATL 111131Z 22006KT 8SM BKN007 OVC011 23/22 A3003 RMK AO2=
200707111131 SPECI KATL 111131Z 22006KT 8SM BKN007 OVC011 23/22 A3003 RMK AO2=
200707111052 METAR KATL 111052Z 23006KT 10SM FEW008 OVC012 22/21 A3003 RMK AO2 SLP158 BINOVC T02220206=
200707111037 SPECI KATL 111037Z 23007KT 10SM BKN012 BKN018 22/19 A3003 RMK AO2=
200707111037 SPECI KATL 111037Z 23007KT 10SM BKN012 BKN018 22/19 A3003 RMK AO2=
200707110956 SPECI KATL 110956Z 23007KT 10SM SCT018 SCT140 BKN250 22/19 A3002 RMK AO2=
200707110956 SPECI KATL 110956Z 23007KT 10SM SCT018 SCT140 BKN250 22/19 A3002 RMK AO2=
200707110952 METAR KATL 110952Z 22007KT 10SM BKN018 BKN140 BKN250 22/21 A3002 RMK AO2 SLP157 T02220206=
200707110909 SPECI KATL 110909Z 22005KT 10SM BKN022 BKN140 BKN250 22/20 A3002 RMK AO2=
200707110909 SPECI KATL 110909Z 22005KT 10SM BKN022 BKN140 BKN250 22/20 A3002 RMK AO2=
200707110852 METAR KATL 110852Z COR 24007KT 10SM FEW022 SCT140 BKN250 22/19 A3003 RMK AO2 SLP158 T02170194 55007=
200707110752 METAR KATL 110752Z 22006KT 10SM FEW080 SCT140 SCT250 22/18 A3002 RMK AO2 SLP158 T02170183=
200707110652 METAR KATL 110652Z 22004KT 10SM FEW140 SCT250 22/21 A3004 RMK AO2 SLP161 T02170206=
200707110552 METAR KATL 110552Z 22005KT 10SM FEW075 SCT140 BKN250 22/21 A3005 RMK AO2 SLP164 T02220206 10244 20222 56006=
200707110452 METAR KATL 110452Z 21006KT 10SM FEW080 SCT140 BKN250 23/19 A3006 RMK AO2 SLP167 T02280189 403000217=
200707110352 METAR KATL 110352Z 00000KT 10SM FEW080 SCT150 BKN200 BKN250 23/19 A3004 RMK AO2 SLP162 T02280189=
200707110252 METAR KATL 110252Z 19006KT 10SM FEW070 BKN200 BKN250 23/19 A3006 RMK AO2 SLP170 T02330194 51011=
200707110152 METAR KATL 110152Z 22003KT 10SM FEW080 SCT200 BKN250 24/19 A3006 RMK AO2 SLP167 T02390194=
200707110052 METAR KATL 110052Z 21005KT 10SM SCT070 SCT140 BKN200 OVC250 24/19 A3005 RMK AO2 SLP168 CB DSNT SW T02390189=
200707102352 METAR KATL 102352Z 30003KT 10SM FEW100 SCT140 BKN200 BKN250 24/18 A3003 RMK AO2 RAB18E27 SLP160 CBMAM OHD-NW P0000 60003 T02390183 10300 20239 58012=
200707102252 METAR KATL 102252Z 31011KT 10SM FEW010 SCT050 SCT075 BKN180 BKN250 25/22 A3007 RMK AO2 RAB11E34 SLP174 CB DSNT SW-W P0000 T02500217=
200707102152 METAR KATL 102152Z 29005KT 10SM FEW070 SCT100 BKN200 BKN250 26/22 A3007 RMK AO2 RAB18E45 SLP173 P0001 T02610217=
200707102052 METAR KATL 102052Z 34010KT 10SM FEW065 SCT095 BKN150 BKN200 24/21 A3007 RMK AO2 RAE1957 SLP173 CB DSNT NE AND SW SHRA DSNT NE AND SW P0000 60002 T02440211 58003=
200707102002 SPECI KATL 102002Z 34013KT 8SM FEW035 SCT065 SCT095 BKN150 BKN200 26/22 A3008 RMK AO2 RAE1957 LTG DSNT N CB DSNT N MOV E TCU DSNT S SHRA DSNT N AND S P0000=
200707102002 SPECI KATL 102002Z 34013KT 8SM FEW035 SCT065 SCT095 BKN150 BKN200 26/22 A3008 RMK AO2 RAE1957 LTG DSNT N CB DSNT N MOV E TCU DSNT S SHRA DSNT N AND S P0000=
200707101952 METAR KATL 101952Z 33005KT 7SM -RA BKN030 BKN095 BKN150 OVC200 25/21 A3008 RMK AO2 TSE15 SLP175 CB DSNT W-N P0002 T02500211=
200707101934 SPECI KATL 101934Z 33009KT 8SM FEW025 SCT055 BKN095 BKN150 BKN200 26/22 A3009 RMK AO2 TSE15RAE33 LTG DSNT W-N CB DSNT W-N SHRA VC W-NW P0000=
200707101934 SPECI KATL 101934Z 33009KT 8SM FEW025 SCT055 BKN095 BKN150 BKN200 26/22 A3009 RMK AO2 TSE15RAE33 LTG DSNT W-N CB DSNT W-N SHRA VC W-NW P0000=
200707101916 SPECI KATL 101916Z 30006KT 6SM -RA FEW024 SCT046 BKN150 BKN200 26/22 A3008 RMK AO2 TSE15 LTG DSNT NE W-N TS DSIPT CB DSNT NE W-N P0000=
200707101916 SPECI KATL 101916Z 30006KT 6SM -RA FEW024 SCT046 BKN150 BKN200 26/22 A3008 RMK AO2 TSE15 LTG DSNT NE W-N TS DSIPT CB DSNT NE W-N P0000=
200707101852 METAR KATL 101852Z 25008KT 10SM -TSRA FEW035CB SCT050 BKN150 BKN200 29/21 A3008 RMK AO2 TSB52RAB48 SLP173 OCNL LTGICCG TS VC W MOV E SHRA W-N CB DSNT NE AND VC W MOV E P0000 T02940211=
200707101825 SPECI KATL 101825Z 24007KT 10SM FEW035 SCT050 SCT150 BKN200 29/21 A3008 RMK AO2 LTG DSNT N NE W CB DSNT N NE W=
200707101825 SPECI KATL 101825Z 24007KT 10SM FEW035 SCT050 SCT150 BKN200 29/21 A3008 RMK AO2 LTG DSNT N NE W CB DSNT N NE W=
200707101752 METAR KATL 101752Z 24012KT 9SM FEW035TCU SCT045 BKN200 29/21 A3008 RMK AO2 SLP174 CB DSNT NE W NW TCU NW T02940211 10300 20228 58012=
200707101652 METAR KATL 101652Z 23010G18KT 10SM FEW030 BKN034TCU BKN042 BKN240 29/21 A3010 RMK AO2 SLP180 CB DSNT W-N TCU OHD ALQDS T02890211=
200707101552 METAR KATL 101552Z 26007KT 10SM FEW030 SCT050 BKN240 29/22 A3011 RMK AO2 SLP184 TCU DSNT NW T02890217=
200707101452 METAR KATL 101452Z 25004KT 10SM FEW030 SCT050 BKN240 28/21 A3011 RMK AO2 SLP186 T02830211 51007=
200707101352 METAR KATL 101352Z 26005KT 10SM FEW200 SCT240 27/22 A3011 RMK AO2 SLP187 T02670217=
200707101252 METAR KATL 101252Z 27005KT 7SM FEW040 SCT140 SCT250 24/22 A3010 RMK AO2 SLP184 T02390222=
200707101152 METAR KATL 101152Z 26004KT 7SM SCT006 BKN045 BKN250 23/22 A3009 RMK AO2 SLP181 T02280217 10228 20217 51007=
200707101149 SPECI KATL 101149Z 24004KT 7SM SCT006 BKN045 BKN250 23/22 A3009 RMK AO2=
200707101149 SPECI KATL 101149Z 24004KT 7SM SCT006 BKN045 BKN250 23/22 A3009 RMK AO2=
200707101052 METAR KATL 101052Z 25006KT 6SM BR OVC006 22/22 A3008 RMK AO2 SLP177 BINOVC T02220217=
200707100952 METAR KATL 100952Z 25004KT 4SM BR OVC002 22/22 A3007 RMK AO2 CIG 002V007 SLP174 BINOVC T02220217 $=
200707100910 SPECI KATL 100910Z 24007KT 1SM BR OVC002 22/22 A3007 RMK AO2 SFC VIS 3 TWRINC=
200707100910 SPECI KATL 100910Z 24007KT 1SM BR OVC002 22/22 A3007 RMK AO2 SFC VIS 3 TWRINC=
200707100852 METAR KATL 100852Z 24005KT 1/4SM BR OVC002 22/22 A3006 RMK AO2 SFC VIS 2 1/2 SLP170 TWRINC T02170217 53007=
200707100828 SPECI KATL 100828Z 23004KT 3SM BR BKN002 BKN140 BKN250 22/20 A3005 RMK AO2=
200707100828 SPECI KATL 100828Z 23004KT 3SM BR BKN002 BKN140 BKN250 22/20 A3005 RMK AO2=
200707100752 METAR KATL 100752Z 24003KT 3SM BCFG BR SCT001 SCT250 22/21 A3005 RMK AO2 SLP165 VIS NW-NE 1 T02170211=
200707100652 METAR KATL 100652Z 25005KT 5SM BR FEW006 SCT250 22/21 A3004 RMK AO2 SLP163 T02220211=
200707100552 METAR KATL 100552Z 28004KT 10SM FEW250 22/19 A3004 RMK AO2 SLP161 60000 T02170194 10256 20217 51005=
200707100452 METAR KATL 100452Z 00000KT 10SM FEW250 23/20 A3004 RMK AO2 SLP161 T02280200 403170222=
200707100352 METAR KATL 100352Z 00000KT 10SM FEW250 23/20 A3005 RMK AO2 SLP163 T02280200=
200707100252 METAR KATL 100252Z 23004KT 10SM FEW250 24/20 A3003 RMK AO2 SLP156 60000 T02390200 53001=
200707100152 METAR KATL 100152Z 26003KT 10SM FEW150 SCT250 23/20 A3001 RMK AO2 SLP152 T02330200=
200707100052 METAR KATL 100052Z 26005KT 10SM FEW140 SCT200 BKN250 24/19 A3000 RMK AO2 RAB03E27 SLP149 P0000 T02440194=
200707092352 METAR KATL 092352Z 28010KT 10SM FEW020 BKN150 OVC200 26/21 A3002 RMK AO2 SLP157 60000 T02560211 10317 20244 53013=
200707092252 METAR KATL 092252Z 27006KT 9SM FEW100 BKN150 OVC200 27/21 A2999 RMK AO2 SLP144 T02670211=
200707092152 METAR KATL 092152Z 24006KT 10SM FEW110 SCT150 OVC200 26/21 A3000 RMK AO2 RAB21E33 SLP150 P0000 T02610206=
200707092052 METAR KATL 092052Z 24007KT 9SM FEW050 SCT070 BKN150 OVC200 25/19 A2998 RMK AO2 TSE23RAE23 SLP144 LTG DSNT N E-S VIRGA OHD ALQDS CBMAM OHD ALQDS CB DSNT N E-S P0000 60000 T02500194 56005=
200707092024 SPECI KATL 092024Z 22011G15KT 10SM FEW030 SCT050 SCT070 BKN200 24/21 A2998 RMK AO2 TSE23RAE23 LTG DSNT N SE-S TS MOV SE CB DSNT N=
200707092024 SPECI KATL 092024Z 22011G15KT 10SM FEW030 SCT050 SCT070 BKN200 24/21 A2998 RMK AO2 TSE23RAE23 LTG DSNT N SE-S TS MOV SE CB DSNT N=
200707092006 SPECI KATL 092006Z 23009KT 9SM -TSRA SCT028CB BKN065 OVC200 24/21 A2999 RMK AO2 FRQ LTGICCG TS VC S MOV ESE CB DSNT E AND VC S MOV ESE P0000=
200707092006 SPECI KATL 092006Z 23009KT 9SM -TSRA SCT028CB BKN065 OVC200 24/21 A2999 RMK AO2 FRQ LTGICCG TS VC S MOV ESE CB DSNT E AND VC S MOV ESE P0000=
200707091952 METAR KATL 091952Z 27015KT 10SM -TSRA FEW020CB BKN070 BKN090 OVC200 27/21 A2999 RMK AO2 PK WND 31026/1927 TSB21RAB43 SLP145 FRQ LTGICCG TS VC NE SW MOV ESE P0000 T02670211=
200707091944 SPECI KATL 091944Z 26014G19KT 8SM -TSRA SCT043CB BKN070 BKN090 OVC200 27/21 A2999 RMK AO2 PK WND 31026/1927 TSB21RAB43 FRQ LTGICCG TS VC SW MOV ESE P0000=
200707091944 SPECI KATL 091944Z 26014G19KT 8SM -TSRA SCT043CB BKN070 BKN090 OVC200 27/21 A2999 RMK AO2 PK WND 31026/1927 TSB21RAB43 FRQ LTGICCG TS VC SW MOV ESE P0000=
200707091922 SPECI KATL 091922Z 29016G22KT 8SM TS BKN043CB BKN055 BKN070 OVC200 31/22 A2998 RMK AO2 TSB21 FRQ LTGICCG TS VC SW-W MOV E=
200707091922 SPECI KATL 091922Z 29016G22KT 8SM TS BKN043CB BKN055 BKN070 OVC200 31/22 A2998 RMK AO2 TSB21 FRQ LTGICCG TS VC SW-W MOV E=
200707091852 METAR KATL 091852Z 23007KT 9SM FEW040 BKN070 BKN250 32/22 A2997 RMK AO2 SLP137 LTG DSNT N W CB DSNT N W TCU DSNT NE T03170222=
200707091752 METAR KATL 091752Z 22006KT 9SM SCT038 31/22 A3000 RMK AO2 SLP147 MDT CU ALQDS T03060222 10311 20233 58009=
200707091652 METAR KATL 091652Z 29005KT 10SM SCT030 30/22 A3002 RMK AO2 SLP154 T03000222=
200707091552 METAR KATL 091552Z VRB03KT 10SM FEW030 SCT040 SCT060 29/22 A3002 RMK AO2 SLP156 T02890222=
200707091452 METAR KATL 091452Z VRB04KT 10SM FEW030 SCT040 BKN065 28/21 A3002 RMK AO2 SLP156 T02830211 53008=
200707091352 METAR KATL 091352Z 00000KT 10SM FEW040 SCT150 27/21 A3001 RMK AO2 SLP153 T02720211=
200707091252 METAR KATL 091252Z 30003KT 9SM SCT150 SCT200 26/21 A3001 RMK AO2 SLP150 T02610206=
200707091152 METAR KATL 091152Z 32003KT 8SM BKN090 BKN150 23/20 A3000 RMK AO2 SLP148 70004 T02330200 10244 20222 53015=
200707091052 METAR KATL 091052Z 32003KT 7SM SCT023 BKN031 OVC085 23/20 A2998 RMK AO2 SLP143 T02280200=
200707090952 METAR KATL 090952Z 32003KT 8SM FEW029 BKN044 OVC085 23/20 A2997 RMK AO2 SLP137 T02280200=
200707090852 METAR KATL 090852Z 32005KT 7SM SCT036 BKN080 22/20 A2996 RMK AO2 SLP133 T02220200 53009=
200707090752 METAR KATL 090752Z 32004KT 7SM SCT023 BKN030 OVC050 23/21 A2994 RMK AO2 SLP130 T02280206=
200707090734 SPECI KATL 090734Z 31003KT 7SM BKN021 23/20 A2994 RMK AO2=
200707090734 SPECI KATL 090734Z 31003KT 7SM BKN021 23/20 A2994 RMK AO2=
200707090652 METAR KATL 090652Z 04003KT 8SM FEW200 24/20 A2993 RMK AO2 SLP125 T02390200=
200707090552 METAR KATL 090552Z 05004KT 10SM FEW200 24/20 A2993 RMK AO2 SLP125 T02390200 10272 20239 58004=
200707090452 METAR KATL 090452Z 04005KT 10SM FEW150 25/20 A2994 RMK AO2 SLP128 T02500200 402780206=
200707090409 SPECI KATL 090409Z 05005KT 10SM SCT029 SCT037 BKN150 25/20 A2994 RMK AO2=
200707090409 SPECI KATL 090409Z 05005KT 10SM SCT029 SCT037 BKN150 25/20 A2994 RMK AO2=
200707090352 METAR KATL 090352Z 07005KT 10SM BKN027 BKN150 25/21 A2995 RMK AO2 SLP131 T02500206=
200707090252 METAR KATL 090252Z 04005KT 10SM BKN028 BKN038 BKN150 26/20 A2994 RMK AO2 SLP129 BKN028 V SCT T02610200 51010=
200707090242 SPECI KATL 090242Z 02007KT 10SM BKN028 BKN036 BKN150 26/20 A2994 RMK AO2=
200707090242 SPECI KATL 090242Z 02007KT 10SM BKN028 BKN036 BKN150 26/20 A2994 RMK AO2=
200707090152 METAR KATL 090152Z 33006KT 10SM SCT029 BKN038 BKN150 26/20 A2993 RMK AO2 SLP126 T02610200=
200707090052 METAR KATL 090052Z 01004KT 10SM SCT027 BKN150 BKN250 27/19 A2992 RMK AO2 SLP122 SCT027 V BKN T02670194=
200707082352 METAR KATL 082352Z 04005KT 10SM FEW035 SCT075 SCT150 BKN250 27/19 A2991 RMK AO2 SLP119 T02670194 10278 20244 53001=
200707082252 METAR KATL 082252Z 02004KT 10SM FEW030 BKN070 BKN150 27/19 A2990 RMK AO2 SLP115 T02670194=
200707082152 METAR KATL 082152Z 07007KT 10SM SCT027 BKN045 BKN060 27/20 A2991 RMK AO2 SLP118 T02670200=
200707082052 METAR KATL 082052Z 02008KT 10SM SCT023 BKN038 BKN050 27/20 A2991 RMK AO2 SLP116 T02720200 56009=
200707081952 METAR KATL 081952Z 06006KT 10SM SCT018 BKN041 26/20 A2991 RMK AO2 SLP120 T02610200=
200707081914 SPECI KATL 081914Z 07006KT 10SM FEW016 BKN035 26/21 A2992 RMK AO2=
200707081914 SPECI KATL 081914Z 07006KT 10SM FEW016 BKN035 26/21 A2992 RMK AO2=
200707081852 METAR KATL 081852Z 08006KT 9SM FEW013 BKN021 BKN031 25/21 A2992 RMK AO2 SLP124 T02500206=
200707081759 SPECI KATL 081759Z 09006KT 10SM FEW008 BKN011 OVC015 24/21 A2993 RMK AO2=
200707081759 SPECI KATL 081759Z 09006KT 10SM FEW008 BKN011 OVC015 24/21 A2993 RMK AO2=
200707081752 METAR KATL 081752Z COR 14003KT 10SM FEW009 OVC015 24/21 A2993 RMK AO2 SLP127 60004 T02440206 10244 20206 58004=
200707081652 METAR KATL 081652Z 11004KT 7SM BKN008 OVC030 23/21 A2995 RMK AO2 DZE1554B20E38 SLP132 P0000 T02330206=
200707081552 METAR KATL 081552Z 09010KT 6SM -DZ BR OVC005 22/20 A2995 RMK AO2 CIG 004V007 SLP134 P0000 T02220200=
200707081452 METAR KATL 081452Z 10007KT 3SM -DZ BR OVC005 22/20 A2995 RMK AO2 DZB18 CIG 004V009 SLP131 P0000 60004 T02170200 50001=
200707081433 SPECI KATL 081433Z 10006KT 3SM -DZ BR OVC007 22/20 A2995 RMK AO2 DZB18 CIG 004V010 P0000=
200707081433 SPECI KATL 081433Z 10006KT 3SM -DZ BR OVC007 22/20 A2995 RMK AO2 DZB18 CIG 004V010 P0000=
200707081422 SPECI KATL 081422Z 10006KT 2 1/2SM -DZ BR OVC007 22/20 A2995 RMK AO2 DZB18 CIG 004V010 P0000=
200707081422 SPECI KATL 081422Z 10006KT 2 1/2SM -DZ BR OVC007 22/20 A2995 RMK AO2 DZB18 CIG 004V010 P0000=
200707081352 METAR KATL 081352Z 10005KT 6SM BR FEW004 OVC007 22/20 A2995 RMK AO2 SLP131 T02170200=
200707081307 SPECI KATL 081307Z 09008KT 6SM BR SCT007 OVC013 21/19 A2994 RMK AO2=
200707081307 SPECI KATL 081307Z 09008KT 6SM BR SCT007 OVC013 21/19 A2994 RMK AO2=
200707081252 METAR KATL 081252Z 08010KT 6SM BR FEW004 BKN007 OVC013 21/19 A2995 RMK AO2 RAE36 SLP131 P0004 T02110194=
200707081230 SPECI KATL 081230Z 09009KT 4SM -RA BR FEW004 BKN007 OVC013 21/19 A2994 RMK AO2 P0004=
200707081230 SPECI KATL 081230Z 09009KT 4SM -RA BR FEW004 BKN007 OVC013 21/19 A2994 RMK AO2 P0004=
200707081210 SPECI KATL 081210Z 10006KT 2SM -RA BR BKN004 BKN014 OVC023 21/19 A2994 RMK AO2 P0003=
200707081210 SPECI KATL 081210Z 10006KT 2SM -RA BR BKN004 BKN014 OVC023 21/19 A2994 RMK AO2 P0003=
200707081203 SPECI KATL 081203Z 09008KT 1 3/4SM RA BR FEW003 BKN016 OVC023 21/19 A2994 RMK AO2 P0002=
200707081203 SPECI KATL 081203Z 09008KT 1 3/4SM RA BR FEW003 BKN016 OVC023 21/19 A2994 RMK AO2 P0002=
200707081152 METAR KATL 081152Z 08009KT 2SM RA BR SCT016 BKN023 OVC034 21/19 A2994 RMK AO2 SLP130 P0022 60033 70033 T02060189 10244 20206 53005=
200707081142 SPECI KATL 081142Z 08007KT 2 1/2SM R09R/5500VP6000FT RA BR FEW003 BKN027 OVC034 21/19 A2994 RMK AO2 P0019=
200707081142 SPECI KATL 081142Z 08007KT 2 1/2SM R09R/5500VP6000FT RA BR FEW003 BKN027 OVC034 21/19 A2994 RMK AO2 P0019=
200707081052 METAR KATL 081052Z 10008KT 2 1/2SM +RA BR FEW010 BKN032 OVC041 21/19 A2993 RMK AO2 SLP127 P0008 T02110189=
200707080952 METAR KATL 080952Z 12004KT 6SM -RA BR BKN046 OVC060 22/19 A2993 RMK AO2 RAB33 SLP125 P0001 T02170194=
200707080852 METAR KATL 080852Z 10004KT 7SM OVC037 22/19 A2993 RMK AO2 RAE32 SLP124 P0001 60002 T02220189 55005=
200707080752 METAR KATL 080752Z 10003KT 9SM -RA BKN055 OVC070 22/19 A2993 RMK AO2 RAB0658 SLP124 P0001 T02170189=
200707080652 METAR KATL 080652Z 25003KT 8SM BKN039 BKN050 OVC060 23/19 A2994 RMK AO2 RAB0553E04B30E41 SLP127 P0000 T02330189=
200707080552 METAR KATL 080552Z 07004KT 10SM FEW048 OVC075 24/18 A2994 RMK AO2 SLP129 T02440178 10256 20239 58008=
200707080452 METAR KATL 080452Z 02004KT 10SM SCT048 BKN070 OVC085 25/18 A2995 RMK AO2 SLP132 T02500178 402780217=
200707080352 METAR KATL 080352Z 01003KT 10SM SCT065 OVC100 25/19 A2996 RMK AO2 SLP136 T02500189=
200707080252 METAR KATL 080252Z 30003KT 10SM OVC100 24/19 A2997 RMK AO2 SLP137 T02440189 55000=
200707080152 METAR KATL 080152Z 31003KT 10SM FEW060 BKN100 OVC150 25/18 A2995 RMK AO2 SLP134 T02500183=
200707080052 METAR KATL 080052Z 32003KT 10SM FEW060 SCT110 OVC150 25/18 A2996 RMK AO2 SLP136 T02500178=
200707072352 METAR KATL 072352Z 32004KT 10SM FEW030 SCT120 OVC150 26/18 A2997 RMK AO2 SLP138 60000 T02560178 10278 20256 56003=
200707072252 METAR KATL 072252Z 27006KT 10SM FEW030 SCT110 OVC150 26/17 A2997 RMK AO2 SLP138 MDT CU NE T02610172=
200707072152 METAR KATL 072152Z VRB06KT 10SM FEW035 SCT090 OVC150 27/17 A2997 RMK AO2 SLP139 T02670172=
200707072052 METAR KATL 072052Z 25009KT 10SM SCT035 OVC150 27/17 A2997 RMK AO2 SLP141 60000 T02670172 56019=
200707071952 METAR KATL 071952Z 27007KT 10SM SCT033 OVC150 27/18 A2998 RMK AO2 SLP143 T02720183=
200707071852 METAR KATL 071852Z 29008KT 9SM SCT018 BKN075 OVC150 27/21 A3001 RMK AO2 RAB05E14 SLP152 P0000 T02670206=
200707071752 METAR KATL 071752Z 27006KT 9SM SCT019 BKN085 OVC150 26/21 A3003 RMK AO2 RAE46 SLP160 P0000 60000 T02560206 10261 20217 50002=
200707071652 METAR KATL 071652Z 30006KT 9SM -RA FEW025 BKN090 OVC150 26/19 A3003 RMK AO2 RAB36 SLP161 P0000 T02560194=
200707071552 METAR KATL 071552Z 28008KT 9SM FEW025 BKN110 OVC150 26/19 A3003 RMK AO2 SLP159 T02560194=
200707071452 METAR KATL 071452Z 30007KT 9SM FEW020 SCT090 OVC150 25/19 A3003 RMK AO2 SLP157 60000 T02500194 50003=
200707071352 METAR KATL 071352Z 00000KT 9SM FEW010 SCT090 OVC150 22/20 A3003 RMK AO2 SLP160 T02220200=
200707071252 METAR KATL 071252Z 29004KT 10SM SCT150 OVC180 23/19 A3002 RMK AO2 RAE1159B27E50 SLP157 P0000 T02280194=
200707071152 METAR KATL 071152Z 27003KT 9SM -RA BKN150 OVC180 22/19 A3002 RMK AO2 RAB07 SLP155 P0000 60000 T02220194 10233 20217 53006=
200707071052 METAR KATL 071052Z 28003KT 9SM BKN150 OVC180 22/19 A3001 RMK AO2 SLP152 T02220189=
200707070952 METAR KATL 070952Z 31006KT 10SM OVC120 22/19 A3000 RMK AO2 SLP149 T02220189=
200707070852 METAR KATL 070852Z 28006KT 10SM FEW085 OVC110 22/19 A3000 RMK AO2 SLP148 T02220189 56006=
200707070752 METAR KATL 070752Z 29007KT 10SM BKN110 OVC150 23/19 A3000 RMK AO2 SLP147 T02280189=
200707070652 METAR KATL 070652Z 29006KT 10SM BKN150 22/19 A3001 RMK AO2 SLP150 T02220189=
200707070552 METAR KATL 070552Z 27003KT 10SM SCT150 BKN200 23/18 A3002 RMK AO2 SLP154 60000 T02330183 10267 20233 56005=
200707070452 METAR KATL 070452Z 31005KT 10SM SCT150 BKN200 23/19 A3002 RMK AO2 SLP155 T02330189 403060222=
200707070352 METAR KATL 070352Z 25003KT 10SM FEW150 SCT200 BKN250 24/19 A3002 RMK AO2 SLP157 T02390189=
200707070252 METAR KATL 070252Z 31004KT 10SM FEW150 SCT200 BKN250 24/18 A3003 RMK AO2 SLP160 60000 T02440183 53003=
200707070152 METAR KATL 070152Z 32009KT 10SM BKN150 BKN200 26/18 A3003 RMK AO2 RAE25 SLP158 P0000 T02610183=
200707070052 METAR KATL 070052Z 31004KT 10SM -RA FEW100 BKN140 OVC200 26/19 A3002 RMK AO2 RAE18B49 SLP156 PCPN VRY LGT P0000 T02610194=
200707062352 METAR KATL 062352Z 30006KT 10SM -RA FEW100 BKN140 OVC200 27/19 A3002 RMK AO2 SLP157 P0000 60000 T02670194 10306 20267 52001=
200707062252 METAR KATL 062252Z 29009KT 10SM -RA FEW100 BKN140 OVC200 28/19 A3002 RMK AO2 RAB52 SLP157 PCPN VRY LGT P0000 T02780194=
200707062152 METAR KATL 062152Z 29006KT 10SM FEW100 BKN140 OVC200 28/20 A3002 RMK AO2 RAB2057E03 SLP155 P0000 T02830200=
200707062052 METAR KATL 062052Z 24007KT 9SM FEW040 BKN120 OVC150 29/19 A3002 RMK AO2 SLP155 60000 T02890189 56015=
200707061952 METAR KATL 061952Z 21007KT 10SM FEW040 SCT120 OVC150 29/19 A3003 RMK AO2 SLP157 T02940194=
200707061852 METAR KATL 061852Z 26004KT 10SM FEW040 SCT100 BKN150 29/21 A3004 RMK AO2 RAE1755 SLP161 VIRGA DSNT E TCU DSNT N P0000 T02940206=
200707061752 METAR KATL 061752Z 27004KT 10SM -RA FEW040 SCT100 BKN150 OVC180 29/19 A3006 RMK AO2 RAB46 SLP170 P0000 60000 T02940194 10300 20239 58007=
200707061652 METAR KATL 061652Z 28004KT 10SM FEW100 BKN150 BKN180 29/21 A3008 RMK AO2 SLP174 T02890211=
200707061552 METAR KATL 061552Z 30004KT 9SM FEW085 SCT110 OVC150 27/21 A3009 RMK AO2 RAB18E32 SLP178 VIRGA SE-S P0000 T02720211=
200707061452 METAR KATL 061452Z 28005KT 9SM FEW085 BKN150 OVC180 27/22 A3009 RMK AO2 RAB1357E08 SLP177 P0000 60000 T02670217 51006=
200707061352 METAR KATL 061352Z 31007KT 9SM BKN150 BKN180 BKN250 26/21 A3008 RMK AO2 SLP176 T02560211=
200707061252 METAR KATL 061252Z 31008KT 8SM BKN180 24/19 A3007 RMK AO2 SLP173 T02440189=
200707061152 METAR KATL 061152Z 31007KT 7SM BKN180 BKN250 24/18 A3007 RMK AO2 SLP171 T02390183 10244 20222 53010=
200707061052 METAR KATL 061052Z 31005KT 8SM SCT150 BKN250 22/17 A3005 RMK AO2 SLP165 T02220172=
200707060952 METAR KATL 060952Z 00000KT 9SM BKN250 23/17 A3003 RMK AO2 SLP160 T02280167=
200707060852 METAR KATL 060852Z 00000KT 9SM FEW250 22/17 A3004 RMK AO2 SLP161 T02220172 55009=
200707060752 METAR KATL 060752Z 28004KT 9SM CLR 23/16 A3004 RMK AO2 SLP160 T02330161=
200707060652 METAR KATL 060652Z 00000KT 9SM FEW250 24/16 A3006 RMK AO2 SLP166 T02440161=
200707060552 METAR KATL 060552Z 24004KT 9SM FEW250 24/16 A3007 RMK AO2 SLP170 T02440161 10294 20244 58001=
200707060452 METAR KATL 060452Z 22003KT 10SM BKN250 24/17 A3008 RMK AO2 SLP175 T02440167 403110200=
200707060352 METAR KATL 060352Z 22003KT 10SM SCT250 25/17 A3008 RMK AO2 SLP174 T02500167=
200707060252 METAR KATL 060252Z 22004KT 10SM SCT250 26/17 A3007 RMK AO2 SLP172 T02560167 53009=
200707060152 METAR KATL 060152Z 00000KT 10SM FEW200 BKN250 27/16 A3006 RMK AO2 SLP168 T02720161=
200707060052 METAR KATL 060052Z 22004KT 10SM FEW200 BKN250 28/16 A3005 RMK AO2 SLP167 T02830156=
200707052352 METAR KATL 052352Z 21004KT 10SM FEW065 BKN250 29/16 A3004 RMK AO2 SLP163 T02940156 10311 20289 55005=
200707052252 METAR KATL 052252Z 00000KT 10SM FEW065 SCT250 31/15 A3004 RMK AO2 SLP161 T03060150=
200707052152 SPECI KATL 052152Z 00000KT 10SM FEW060 30/15 A3004 RMK AO2 SLP163 T03000150=
200707052052 METAR KATL 052052Z 00000KT 10SM SCT060 30/16 A3006 RMK AO2 SLP169 T03000161 56021=
200707051952 METAR KATL 051952Z 31004KT 10SM BKN060 BKN250 29/17 A3008 RMK AO2 SLP174 T02940167=
200707051852 METAR KATL 051852Z VRB03KT 10SM SCT055 SCT200 SCT250 31/17 A3010 RMK AO2 SLP181 T03060172=
200707051752 METAR KATL 051752Z 25005KT 10SM FEW050 SCT065 SCT200 BKN250 28/17 A3012 RMK AO2 SLP190 T02830172 10294 20206 58008=
200707051652 METAR KATL 051652Z 14003KT 10SM SCT050 BKN200 BKN250 28/18 A3014 RMK AO2 SLP196 T02780178=
200707051552 METAR KATL 051552Z 00000KT 10SM FEW040 SCT200 BKN250 28/17 A3015 RMK AO2 SLP198 T02780172=
200707051452 METAR KATL 051452Z 19003KT 10SM FEW200 SCT250 BKN300 26/18 A3015 RMK AO2 SLP198 T02610183 58001=
200707051352 METAR KATL 051352Z 20004KT 10SM FEW200 SCT250 BKN300 24/18 A3016 RMK AO2 SLP202 T02390178=
200707051252 METAR KATL 051252Z 22006KT 10SM SCT200 BKN250 22/18 A3016 RMK AO2 SLP203 T02170183=
200707051152 METAR KATL 051152Z 31005KT 10SM FEW150 BKN200 BKN250 21/18 A3015 RMK AO2 SLP200 T02110178 10228 20200 51013=
200707051052 METAR KATL 051052Z 23003KT 10SM FEW200 BKN250 20/17 A3014 RMK AO2 SLP196 T02000167=
200707050952 METAR KATL 050952Z 00000KT 10SM SCT200 BKN250 21/16 A3013 RMK AO2 SLP193 T02110161=
200707050852 METAR KATL 050852Z 00000KT 10SM SCT200 OVC250 21/16 A3011 RMK AO2 SLP187 T02110161 56003=
200707050752 METAR KATL 050752Z 00000KT 10SM SCT250 22/16 A3011 RMK AO2 SLP186 T02170156=
200707050652 METAR KATL 050652Z 00000KT 10SM SCT250 22/16 A3011 RMK AO2 SLP188 T02220156=
200707050552 METAR KATL 050552Z 00000KT 10SM SCT250 23/16 A3012 RMK AO2 SLP190 T02280156 10283 20228 58008=
200707050452 METAR KATL 050452Z 18003KT 10SM SCT250 23/14 A3014 RMK AO2 SLP197 T02330144 403000194=
200707050352 METAR KATL 050352Z 18005KT 10SM SCT250 24/14 A3015 RMK AO2 SLP201 T02390144=
200707050252 METAR KATL 050252Z 16005KT 10SM SCT250 25/14 A3014 RMK AO2 SLP198 T02500144 53008=
200707050152 METAR KATL 050152Z 16006KT 10SM SCT250 26/14 A3013 RMK AO2 SLP193 T02560144=
200707050052 METAR KATL 050052Z 16004KT 10SM BKN250 27/14 A3012 RMK AO2 SLP191 T02720139=
200707042352 METAR KATL 042352Z 15005KT 10SM FEW065 SCT250 28/13 A3012 RMK AO2 SLP190 T02780133 10300 20278 55006=
200707042252 METAR KATL 042252Z VRB04KT 10SM SCT065 SCT250 29/13 A3012 RMK AO2 SLP189 T02890128=
200707042152 METAR KATL 042152Z 11006KT 10SM BKN065 BKN250 29/13 A3013 RMK AO2 SLP192 T02890128=
200707042052 METAR KATL 042052Z 17007KT 10SM SCT065 SCT200 29/13 A3014 RMK AO2 SLP196 T02890133 58015=
200707041952 METAR KATL 041952Z 20006KT 10SM SCT060 SCT200 29/13 A3016 RMK AO2 SLP202 T02890133=
200707041852 METAR KATL 041852Z 13007KT 10SM SCT060 29/13 A3017 RMK AO2 SLP206 T02890133=
200707041752 METAR KATL 041752Z 11008KT 10SM SCT055 28/13 A3018 RMK AO2 SLP211 T02830133 10283 20200 58004=
200707041652 METAR KATL 041652Z 13006KT 10SM FEW060 28/13 A3019 RMK AO2 SLP214 T02780133=
200707041552 METAR KATL 041552Z 15007KT 10SM FEW060 26/14 A3019 RMK AO2 SLP215 T02610144=
200707041452 METAR KATL 041452Z 12004KT 10SM FEW060 26/16 A3019 RMK AO2 SLP215 T02560156 50003=
200707041352 METAR KATL 041352Z 11005KT 10SM CLR 24/17 A3020 RMK AO2 SLP218 T02390167=
200707041252 METAR KATL 041252Z 12008KT 10SM CLR 22/19 A3020 RMK AO2 SLP218 T02220189=
200707041152 METAR KATL 041152Z 09007KT 10SM FEW250 20/17 A3018 RMK AO2 SLP213 T02000172 10222 20194 53008=
200707041052 METAR KATL 041052Z 08006KT 10SM FEW200 SCT250 19/16 A3017 RMK AO2 SLP210 T01940161=
200707040952 METAR KATL 040952Z 11004KT 10SM FEW085 SCT250 20/17 A3016 RMK AO2 SLP205 T02000167=
200707040852 METAR KATL 040852Z 09004KT 10SM FEW085 SCT140 SCT250 20/17 A3016 RMK AO2 SLP204 T02000167 56006=
200707040752 METAR KATL 040752Z 12003KT 10SM FEW085 SCT140 BKN250 21/17 A3016 RMK AO2 SLP204 T02110172=
200707040652 METAR KATL 040652Z 16003KT 10SM FEW085 SCT140 SCT200 BKN250 21/17 A3017 RMK AO2 SLP207 T02110172=
200707040552 METAR KATL 040552Z 15004KT 10SM FEW085 BKN140 BKN250 22/17 A3018 RMK AO2 SLP210 T02170172 10256 20217 58003=
200707040452 METAR KATL 040452Z 15006KT 10SM FEW085 BKN250 23/17 A3018 RMK AO2 SLP212 T02280167 402780206=
200707040352 METAR KATL 040352Z 15007KT 10SM BKN085 23/17 A3018 RMK AO2 SLP212 T02330167=
200707040252 METAR KATL 040252Z 14008KT 10SM FEW070 OVC085 24/17 A3019 RMK AO2 SLP213 T02440167 53012=
200707040152 METAR KATL 040152Z 11007KT 10SM OVC085 25/17 A3017 RMK AO2 SLP207 T02500172=
200707040052 METAR KATL 040052Z COR 10006KT 10SM SCT075 OVC085 25/17 A3016 RMK AO2 SLP204 BINOVC T02500172=
200707032352 METAR KATL 032352Z 10008KT 10SM SCT065 BKN085 26/17 A3015 RMK AO2 SLP201 T02560167 10278 20244 53001=
200707032252 METAR KATL 032252Z VRB06KT 10SM FEW050 BKN065 BKN250 26/18 A3014 RMK AO2 SLP198 T02610178=
200707032152 METAR KATL 032152Z 12008KT 10SM FEW038 OVC055 26/17 A3015 RMK AO2 SLP200 T02610172=
200707032052 METAR KATL 032052Z 13008KT 10SM FEW040 SCT050 SCT070 BKN250 27/18 A3015 RMK AO2 SLP201 T02720183 58016=
200707031952 METAR KATL 031952Z 11006KT 10SM FEW030 SCT050 BKN065 25/18 A3017 RMK AO2 SLP207 T02500183=
200707031852 METAR KATL 031852Z 12009KT 10SM FEW030 BKN045 BKN070 25/18 A3019 RMK AO2 SLP216 T02500183=
200707031752 METAR KATL 031752Z 12011G14KT 10SM FEW030 BKN040 BKN060 25/18 A3020 RMK AO2 SLP218 T02500183 10250 20206 58004=
200707031652 METAR KATL 031652Z 11010KT 10SM FEW020 BKN040 OVC075 24/18 A3020 RMK AO2 SLP220 T02390183=
200707031552 METAR KATL 031552Z 08011KT 10SM FEW020 BKN037 OVC065 23/18 A3021 RMK AO2 SLP223 T02280183=
200707031452 METAR KATL 031452Z 09009KT 10SM FEW020 BKN040 OVC060 22/18 A3021 RMK AO2 SLP224 T02170178 51008=
200707031352 METAR KATL 031352Z 07010KT 9SM FEW015 BKN030 OVC060 21/17 A3021 RMK AO2 SLP222 T02060167=
200707031252 METAR KATL 031252Z 07011KT 8SM BKN030 OVC060 21/18 A3020 RMK AO2 SLP219 T02110183=
200707031244 SPECI KATL 031244Z 08010KT 9SM BKN030 OVC037 21/18 A3019 RMK AO2=
200707031244 SPECI KATL 031244Z 08010KT 9SM BKN030 OVC037 21/18 A3019 RMK AO2=
200707031152 METAR KATL 031152Z 08009KT 10SM OVC022 21/18 A3019 RMK AO2 SLP215 T02060183 10211 20206 53012=
200707031052 METAR KATL 031052Z 06009KT 10SM OVC018 21/18 A3018 RMK AO2 SLP211 T02060178=
200707030952 METAR KATL 030952Z 07008KT 10SM OVC018 21/17 A3016 RMK AO2 SLP203 T02060167=
200707030852 METAR KATL 030852Z 09009KT 10SM OVC020 21/17 A3015 RMK AO2 SLP201 T02060167 56012=
200707030752 METAR KATL 030752Z 08010KT 10SM OVC022 21/16 A3016 RMK AO2 SLP203 T02060161=
200707030652 METAR KATL 030652Z 08009KT 10SM OVC022 21/16 A3017 RMK AO2 SLP205 T02060161=
200707030552 METAR KATL 030552Z 08009KT 10SM OVC026 21/17 A3019 RMK AO2 SLP212 60000 T02060167 10228 20206 50001=
200707030452 METAR KATL 030452Z 07009KT 10SM FEW014 BKN026 OVC100 21/17 A3020 RMK AO2 SLP218 T02110167 402940206=
200707030412 SPECI KATL 030412Z 07012KT 10SM SCT014 BKN025 OVC100 21/17 A3020 RMK AO2=
200707030412 SPECI KATL 030412Z 07012KT 10SM SCT014 BKN025 OVC100 21/17 A3020 RMK AO2=
200707030352 METAR KATL 030352Z 07012KT 10SM BKN014 OVC025 21/17 A3019 RMK AO2 SLP215 T02060167=
200707030343 SPECI KATL 030343Z 07014KT 10SM BKN012 BKN025 OVC100 21/17 A3019 RMK AO2=
200707030343 SPECI KATL 030343Z 07014KT 10SM BKN012 BKN025 OVC100 21/17 A3019 RMK AO2=
200707030315 SPECI KATL 030315Z 06014KT 9SM SCT013 BKN025 OVC100 21/17 A3019 RMK AO2=
200707030315 SPECI KATL 030315Z 06014KT 9SM SCT013 BKN025 OVC100 21/17 A3019 RMK AO2=
200707030302 SPECI KATL 030302Z 08011KT 9SM FEW013 SCT025 BKN100 OVC200 21/18 A3018 RMK AO2=
200707030302 SPECI KATL 030302Z 08011KT 9SM FEW013 SCT025 BKN100 OVC200 21/18 A3018 RMK AO2=
200707030252 METAR KATL 030252Z 08011KT 9SM FEW014 BKN025 BKN100 OVC200 21/18 A3018 RMK AO2 SLP212 60000 T02110178 51018=
200707030152 METAR KATL 030152Z 08012KT 9SM OVC015 22/18 A3017 RMK AO2 SLP209 CIG 012V018 T02170178=
200707030052 METAR KATL 030052Z 06014KT 10SM BKN012 OVC020 22/19 A3015 RMK AO2 RAE2355 SLP201 P0000 T02220189=
200707022352 METAR KATL 022352Z 07013KT 7SM -RA BKN013 OVC020 23/19 A3013 RMK AO2 RAB50 SLP195 PCPN VRY LGT P0000 60000 T02280194 10294 20228 53014=
200707022252 METAR KATL 022252Z 06016KT 5SM HZ BKN014 BKN025 OVC150 23/20 A3011 RMK AO2 SLP187 T02330200=
200707022250 SPECI KATL 022250Z 06015KT 5SM HZ BKN014 BKN025 OVC150 24/20 A3011 RMK AO2=
200707022250 SPECI KATL 022250Z 06015KT 5SM HZ BKN014 BKN025 OVC150 24/20 A3011 RMK AO2=
200707022209 SPECI KATL 022209Z 08013KT 8SM BKN025 BKN110 OVC200 26/19 A3010 RMK AO2=
200707022209 SPECI KATL 022209Z 08013KT 8SM BKN025 BKN110 OVC200 26/19 A3010 RMK AO2=
200707022152 METAR KATL 022152Z 07013KT 9SM FEW025 SCT120 BKN150 OVC200 26/20 A3009 RMK AO2 SLP181 T02560200=
200707022052 METAR KATL 022052Z 08011KT 10SM FEW027 SCT037 BKN150 27/21 A3009 RMK AO2 SLP178 T02720211 58005=
200707021952 METAR KATL 021952Z 08013KT 10SM FEW030 BKN150 BKN250 27/21 A3009 RMK AO2 SLP181 T02720211=
200707021852 METAR KATL 021852Z 08009KT 9SM FEW032 SCT060 BKN150 BKN250 29/21 A3010 RMK AO2 SLP182 T02890211=
200707021752 METAR KATL 021752Z 07007KT 10SM SCT030 BKN050 BKN150 BKN250 29/22 A3010 RMK AO2 SLP184 T02890217 10289 20228 58006=
200707021652 METAR KATL 021652Z COR VRB06KT 9SM SCT028 BKN037 BKN150 27/21 A3011 RMK AO2 SLP188 T02720211=
200707021552 METAR KATL 021552Z 05005KT 9SM FEW020 SCT040 BKN150 27/21 A3013 RMK AO2 SLP193 T02670211=
200707021529 SPECI KATL 021529Z 07008KT 9SM FEW018 SCT024 BKN033 BKN150 BKN250 26/19 A3013 RMK AO2=
200707021529 SPECI KATL 021529Z 07008KT 9SM FEW018 SCT024 BKN033 BKN150 BKN250 26/19 A3013 RMK AO2=
200707021452 METAR KATL 021452Z 07008KT 9SM SCT016 BKN022 BKN150 BKN250 25/20 A3012 RMK AO2 SLP191 T02500200 50002=
200707021447 SPECI KATL 021447Z 09006KT 9SM SCT016 BKN022 BKN032 BKN150 BKN250 25/20 A3012 RMK AO2=
200707021447 SPECI KATL 021447Z 09006KT 9SM SCT016 BKN022 BKN032 BKN150 BKN250 25/20 A3012 RMK AO2=
200707021418 SPECI KATL 021418Z 08008KT 9SM FEW013 SCT025 OVC030 24/21 A3012 RMK AO2=
200707021418 SPECI KATL 021418Z 08008KT 9SM FEW013 SCT025 OVC030 24/21 A3012 RMK AO2=
200707021352 METAR KATL 021352Z 09006KT 8SM FEW012 OVC028 24/22 A3012 RMK AO2 SLP192 T02390217=
200707021252 METAR KATL 021252Z 09004KT 8SM OVC017 24/21 A3012 RMK AO2 SLP188 T02390211=
200707021152 METAR KATL 021152Z 36003KT 7SM OVC018 23/21 A3010 RMK AO2 SLP184 70003 T02280206 10228 20217 53008=
200707021052 METAR KATL 021052Z 33005KT 8SM FEW009 OVC016 22/21 A3010 RMK AO2 SLP182 T02220206=
200707021044 SPECI KATL 021044Z 31004KT 8SM SCT009 OVC014 22/21 A3009 RMK AO2=
200707021044 SPECI KATL 021044Z 31004KT 8SM SCT009 OVC014 22/21 A3009 RMK AO2=
200707020952 METAR KATL 020952Z 31004KT 10SM OVC012 22/21 A3007 RMK AO2 SLP174 T02220206=
200707020852 METAR KATL 020852Z 29004KT 10SM OVC014 22/19 A3007 RMK AO2 SLP172 T02220189 57004=
200707020808 SPECI KATL 020808Z 18003KT 10SM BKN012 BKN200 OVC250 22/21 A3008 RMK AO2=
200707020808 SPECI KATL 020808Z 18003KT 10SM BKN012 BKN200 OVC250 22/21 A3008 RMK AO2=
200707020752 METAR KATL 020752Z 00000KT 10SM FEW008 SCT012 BKN200 OVC250 22/21 A3007 RMK AO2 SLP171 T02170206=
200707020720 SPECI KATL 020720Z 00000KT 10SM BKN013 BKN140 OVC200 22/21 A3008 RMK AO2=
200707020720 SPECI KATL 020720Z 00000KT 10SM BKN013 BKN140 OVC200 22/21 A3008 RMK AO2=
200707020711 SPECI KATL 020711Z 00000KT 10SM SCT013 BKN140 OVC200 22/21 A3008 RMK AO2=
200707020711 SPECI KATL 020711Z 00000KT 10SM SCT013 BKN140 OVC200 22/21 A3008 RMK AO2=
200707020659 SPECI KATL 020659Z 00000KT 10SM SCT007 BKN018 BKN140 OVC200 22/19 A3009 RMK AO2=
200707020659 SPECI KATL 020659Z 00000KT 10SM SCT007 BKN018 BKN140 OVC200 22/19 A3009 RMK AO2=
200707020652 METAR KATL 020652Z 00000KT 10SM BKN007 OVC018 22/21 A3009 RMK AO2 SLP177 T02170211=
200707020552 METAR KATL 020552Z 00000KT 9SM BKN005 BKN012 OVC140 22/19 A3009 RMK AO2 SLP177 60001 T02170194 10256 20217 55001=
200707020452 METAR KATL 020452Z 15004KT 9SM BKN007 BKN011 22/19 A3008 RMK AO2 SLP176 CIG 005V010 T02170194 403500217=
200707020426 SPECI KATL 020426Z 15006KT 9SM BKN007 BKN011 22/20 A3009 RMK AO2=
200707020426 SPECI KATL 020426Z 15006KT 9SM BKN007 BKN011 22/20 A3009 RMK AO2=
200707020409 SPECI KATL 020409Z 14004KT 9SM BKN010 BKN014 22/20 A3009 RMK AO2=
200707020409 SPECI KATL 020409Z 14004KT 9SM BKN010 BKN014 22/20 A3009 RMK AO2=
200707020352 METAR KATL 020352Z 12005KT 9SM SCT010 BKN014 22/20 A3009 RMK AO2 RAE36 SLP177 BKN014 V SCT P0000 T02220200=
200707020327 SPECI KATL 020327Z 13006KT 9SM -RA BKN008 BKN012 22/20 A3009 RMK AO2 P0000=
200707020327 SPECI KATL 020327Z 13006KT 9SM -RA BKN008 BKN012 22/20 A3009 RMK AO2 P0000=
200707020313 SPECI KATL 020313Z 12004KT 9SM -RA BKN006 BKN022 23/21 A3009 RMK AO2 CIG 005V012 BKN006 V SCT P0000=
200707020313 SPECI KATL 020313Z 12004KT 9SM -RA BKN006 BKN022 23/21 A3009 RMK AO2 CIG 005V012 BKN006 V SCT P0000=
200707020305 SPECI KATL 020305Z 12004KT 9SM -RA SCT008 BKN022 BKN120 23/21 A3010 RMK AO2 P0000=
200707020305 SPECI KATL 020305Z 12004KT 9SM -RA SCT008 BKN022 BKN120 23/21 A3010 RMK AO2 P0000=
200707020252 METAR KATL 020252Z 15005KT 8SM -RA SCT006 SCT022 BKN120 23/21 A3009 RMK AO2 SLP179 P0000 60001 T02280206 53012=
200707020233 SPECI KATL 020233Z 12003KT 8SM -RA SCT005 23/21 A3008 RMK AO2 PRESRR P0000=
200707020233 SPECI KATL 020233Z 12003KT 8SM -RA SCT005 23/21 A3008 RMK AO2 PRESRR P0000=
200707020208 SPECI KATL 020208Z 15007KT 8SM -RA BKN007 BKN011 OVC038 23/21 A3005 RMK AO2 LTG DSNT NE-SE AND SW CB DSNT SE MOV SE P0000=
200707020208 SPECI KATL 020208Z 15007KT 8SM -RA BKN007 BKN011 OVC038 23/21 A3005 RMK AO2 LTG DSNT NE-SE AND SW CB DSNT SE MOV SE P0000=
200707020152 METAR KATL 020152Z 15006KT 9SM -RA SCT009 SCT038 OVC085 23/21 A3006 RMK AO2 WSHFT 0045 TSB06E52 SLP168 LTG DSNT NE-SE AND SW CB DSNT S MOV SE P0001 T02330211=
200707020106 SPECI KATL 020106Z 05012KT 9SM -TSRA FEW018CB SCT025 OVC070 24/20 A3004 RMK AO2 WSHFT 0045 TSB06 OCNL LTGCA TS VC S MOV E CB VC S MOV E P0000=
200707020106 SPECI KATL 020106Z 05012KT 9SM -TSRA FEW018CB SCT025 OVC070 24/20 A3004 RMK AO2 WSHFT 0045 TSB06 OCNL LTGCA TS VC S MOV E CB VC S MOV E P0000=
200707020052 METAR KATL 020052Z 02015KT 9SM -RA SCT027 SCT065 BKN150 26/20 A3004 RMK AO2 TSE51RAE01B48 SLP162 LTG DSNT NE-SE CB DSNT NE-SE MOV E P0000 T02560200=
200707012352 METAR KATL 012352Z 30009KT 8SM -TSRA BKN043CB BKN060 OVC070 25/21 A3006 RMK AO2 TSB05 SLP168 OCNL LTGIC TS NE-OHD-SW MOV SE CB NE-OHD-SW MOV SE SHRA VC E-SE-S P0001 60002 T02500206 10350 20250 53033=
200707012307 SPECI KATL 012307Z 21007KT 8SM -TSRA BKN040CB BKN070 OVC090 26/22 A3000 RMK AO2 TSB05 OCNL LTGIC TS VC SE-SW MOV SE CB VC SE-SW MOV SE CB DSNT SE AND SW MOV SE SHRA VC SE-SW-W P0001 $=
200707012307 SPECI KATL 012307Z 21007KT 8SM -TSRA BKN040CB BKN070 OVC090 26/22 A3000 RMK AO2 TSB05 OCNL LTGIC TS VC SE-SW MOV SE CB VC SE-SW MOV SE CB DSNT SE AND SW MOV SE SHRA VC SE-SW-W P0001 $=
200707012252 METAR KATL 012252Z COR 22006KT 8SM -RA SCT032CB SCT075 BKN090 26/21 A3000 RMK AO2 TSE52RAE04B52 SLP149 LTG DSNT SE-SW CB VC SE-SW MOV SE CB DSNT SE AND SW MOV SE SHRA VC SE-SW P0000 T02560211 $=
200707012152 METAR KATL 012152Z COR 01013G18KT 8SM -TSRA BKN032CB BKN070 29/19 A2997 RMK AO2 PK WND 02026/2121 TSB21RAB16 SLP137 FRQ LTGCGIC TS OHD-E-S MOV SE CB OHD-E-S MOV SE CB VC NE MOV SE CB DSNT W MOV SE SHRA VC NE AND S=
200707012121 SPECI KATL 012121Z 01021G26KT 8SM -TSRA BKN060CB BKN095 32/19 A2996 RMK AO2 PK WND 02026/2121 TSB21RAB16 OCNL LTGIC TS OHD-W MOV E CB OHD-W MOV E CB DSNT NW MOV SE SHRA VC SW-NW P0000=
200707012121 SPECI KATL 012121Z 01021G26KT 8SM -TSRA BKN060CB BKN095 32/19 A2996 RMK AO2 PK WND 02026/2121 TSB21RAB16 OCNL LTGIC TS OHD-W MOV E CB OHD-W MOV E CB DSNT NW MOV SE SHRA VC SW-NW P0000=
200707012052 METAR KATL 012052Z COR 33005KT 9SM BKN065 BKN110 34/17 A2996 RMK AO2 SLP131 CB DSNT NW MOV SE CB DSNT W MOV E TCU DSNT E AND SE SHRA DSNT SW-NW T03390172 56026=
200707011952 METAR KATL 011952Z VRB05KT 9SM SCT065 SCT075 BKN110 34/18 A2997 RMK AO2 SLP138 TCU DSNT E T03390178=
200707011852 METAR KATL 011852Z VRB03KT 8SM SCT050 33/18 A3001 RMK AO2 SLP150 MDT CU ALQDS TCU DSNT NE-SE T03330183=
200707011752 METAR KATL 011752Z VRB03KT 8SM SCT048 33/19 A3004 RMK AO2 SLP159 MDT CU ALQDS T03280189 10328 20233 58004=
200707011652 METAR KATL 011652Z VRB06KT 9SM SCT045 32/19 A3005 RMK AO2 SLP163 T03220194=
200707011552 METAR KATL 011552Z 32006KT 9SM FEW040 31/20 A3005 RMK AO2 SLP164 T03110200=
200707011452 METAR KATL 011452Z 01004KT 9SM FEW250 30/20 A3005 RMK AO2 SLP164 T03000200 51007=
200707011352 METAR KATL 011352Z 34006KT 8SM FEW250 27/21 A3004 RMK AO2 SLP162 T02720206=
200707011252 METAR KATL 011252Z 32004KT 8SM FEW250 26/21 A3004 RMK AO2 SLP160 T02560206=
