##########################################################
# Query made at 04/19/2024 23:01:16 UTC
# Time interval: from 05/01/2007 12:00  to 05/31/2007 12:59  UTC
##########################################################

##########################################################
# KATL, Atlanta, Hartsfield - Jackson Atlanta International Airport (United States)
# WMO index: 72219. WIGOS ID: 0-20000-0-72219
# Latitude 33-38-59N. Longitude 084-25-00W. Altitude 312 m.
##########################################################

200705311252 METAR KATL 311252Z 13004KT 2 1/2SM FU BKN150 BKN200 BKN250 23/13 A3017 RMK AO2 SLP205 T02330133=
200705311152 METAR KATL 311152Z 13004KT 5SM FU FEW110 BKN150 BKN200 OVC250 22/12 A3016 RMK AO2 SLP203 T02170122 10239 20206 51012 $=
200705311052 METAR KATL 311052Z 09004KT 6SM FU BKN150 BKN200 OVC250 21/12 A3015 RMK AO2 SLP199 T02060117 $=
200705310952 METAR KATL 310952Z 11003KT 8SM BKN150 OVC200 22/11 A3013 RMK AO2 SLP194 T02170111 $=
200705310852 METAR KATL 310852Z 16003KT 8SM FEW150 BKN200 OVC250 22/11 A3012 RMK AO2 SLP189 T02170111 55000 $=
200705310752 METAR KATL 310752Z 17003KT 10SM SCT200 BKN250 22/11 A3011 RMK AO2 SLP186 T02170106 $=
200705310652 METAR KATL 310652Z 14005KT 10SM SCT200 BKN250 23/09 A3012 RMK AO2 SLP189 T02280094 $=
200705310552 METAR KATL 310552Z 14004KT 10SM BKN200 OVC250 24/09 A3012 RMK AO2 SLP189 T02390089 10283 20233 56006 $=
200705310452 METAR KATL 310452Z 10005KT 10SM BKN200 OVC250 24/08 A3013 RMK AO2 SLP191 T02390083 403060178 $=
200705310352 METAR KATL 310352Z 10003KT 10SM BKN200 OVC250 25/08 A3013 RMK AO2 SLP193 T02500083 $=
200705310252 METAR KATL 310252Z 09005KT 10SM OVC200 26/08 A3014 RMK AO2 SLP196 T02560078 53007 $=
200705310152 METAR KATL 310152Z 11004KT 10SM BKN200 BKN250 27/08 A3013 RMK AO2 SLP193 T02720078 $=
200705310052 METAR KATL 310052Z 15004KT 10SM FEW150 BKN200 BKN250 27/08 A3012 RMK AO2 SLP192 T02720078 $=
200705302352 METAR KATL 302352Z 16007KT 10SM FEW150 BKN200 OVC250 28/07 A3012 RMK AO2 SLP190 T02830067 10306 20283 55006 $=
200705302252 METAR KATL 302252Z 13009G15KT 10SM FEW150 BKN200 OVC250 30/06 A3012 RMK AO2 SLP189 T03000056 $=
200705302152 METAR KATL 302152Z 15009G15KT 10SM BKN200 OVC250 31/06 A3012 RMK AO2 SLP191 T03060056 $=
200705302052 METAR KATL 302052Z 14009KT 10SM FEW080 SCT200 BKN250 30/08 A3014 RMK AO2 SLP195 T03000083 56016 $=
200705301952 METAR KATL 301952Z 13009KT 10SM BKN200 BKN250 BKN300 30/09 A3015 RMK AO2 SLP200 T03000089=
200705301852 METAR KATL 301852Z 16010KT 10SM BKN200 BKN250 BKN300 29/08 A3017 RMK AO2 SLP205 T02940083=
200705301752 METAR KATL 301752Z 15009KT 10SM FEW080 BKN200 BKN250 29/10 A3019 RMK AO2 SLP211 T02890100 10294 20206 58012=
200705301652 METAR KATL 301652Z 15010G18KT 10SM FEW070 SCT200 BKN250 29/12 A3020 RMK AO2 SLP217 T02940122=
200705301552 METAR KATL 301552Z 12004KT 10SM FEW200 BKN250 BKN300 27/13 A3022 RMK AO2 SLP223 T02670133=
200705301452 METAR KATL 301452Z 16006KT 9SM BKN200 BKN250 BKN300 24/12 A3022 RMK AO2 SLP225 T02440117 50005=
200705301352 METAR KATL 301352Z 11004KT 9SM FEW200 BKN250 BKN300 23/16 A3022 RMK AO2 SLP225 T02330156=
200705301252 METAR KATL 301252Z 13004KT 9SM FEW200 BKN250 22/14 A3022 RMK AO2 SLP226 T02170144=
200705301152 METAR KATL 301152Z 11005KT 7SM SCT200 BKN250 21/13 A3021 RMK AO2 SLP221 T02060133 10228 20178 53013=
200705301052 METAR KATL 301052Z 09003KT 8SM SCT200 BKN250 18/12 A3019 RMK AO2 SLP213 T01780117=
200705300952 METAR KATL 300952Z 12003KT 7SM BKN250 20/12 A3017 RMK AO2 SLP208 T02000122=
200705300852 METAR KATL 300852Z 14003KT 9SM BKN250 20/12 A3017 RMK AO2 SLP206 T02000117 53001=
200705300752 METAR KATL 300752Z 00000KT 9SM FEW080 BKN250 21/12 A3017 RMK AO2 SLP206 T02110117=
200705300652 METAR KATL 300652Z 16004KT 10SM FEW080 BKN250 22/12 A3016 RMK AO2 SLP203 T02220117=
200705300552 METAR KATL 300552Z 16005KT 9SM FEW080 BKN250 23/12 A3017 RMK AO2 SLP206 T02280117 10283 20222 50002=
200705300452 METAR KATL 300452Z 13007KT 10SM FEW080 BKN250 24/11 A3017 RMK AO2 SLP208 T02390111 403000183=
200705300352 METAR KATL 300352Z 09007KT 10SM FEW080 BKN250 23/11 A3016 RMK AO2 SLP205 T02280106=
200705300252 METAR KATL 300252Z 09005KT 10SM SCT090 BKN250 23/11 A3016 RMK AO2 SLP204 T02330106 52008=
200705300152 METAR KATL 300152Z 12004KT 10SM BKN250 26/09 A3015 RMK AO2 SLP202 T02610094=
200705300052 METAR KATL 300052Z 12005KT 10SM FEW200 BKN250 27/09 A3014 RMK AO2 SLP199 T02720089=
200705292352 METAR KATL 292352Z 11008KT 10SM BKN250 28/09 A3014 RMK AO2 SLP196 T02830094 10300 20278 56007=
200705292252 METAR KATL 292252Z 12005G14KT 10SM FEW080 BKN250 29/09 A3014 RMK AO2 SLP197 T02890094=
200705292152 METAR KATL 292152Z 11008KT 10SM SCT080 BKN250 29/09 A3015 RMK AO2 SLP199 T02940094=
200705292052 METAR KATL 292052Z 10012G17KT 10SM SCT080 SCT250 29/11 A3016 RMK AO2 SLP203 T02940106 56020=
200705291952 METAR KATL 291952Z 13008G15KT 10SM FEW070 SCT250 29/11 A3018 RMK AO2 SLP210 T02940111=
200705291852 METAR KATL 291852Z VRB04G15KT 10SM FEW070 SCT250 29/12 A3020 RMK AO2 SLP217 T02890117=
200705291752 METAR KATL 291752Z 10011G15KT 10SM SCT060 28/12 A3022 RMK AO2 SLP223 T02830117 10283 20194 58011=
200705291652 METAR KATL 291652Z 11008KT 070V140 10SM FEW050 27/14 A3023 RMK AO2 SLP228 T02670139=
200705291552 METAR KATL 291552Z 09009KT 10SM FEW040 SCT250 26/14 A3025 RMK AO2 SLP235 T02610139=
200705291452 METAR KATL 291452Z 11007KT 10SM FEW030 SCT200 SCT250 25/14 A3025 RMK AO2 SLP235 T02500144 50003=
200705291352 METAR KATL 291352Z 15007KT 8SM FEW024 SCT250 23/16 A3026 RMK AO2 SLP237 T02280156=
200705291252 METAR KATL 291252Z 12006KT 7SM FEW065 SCT250 21/16 A3025 RMK AO2 SLP236 T02110161=
200705291152 METAR KATL 291152Z 13005KT 8SM FEW065 SCT250 19/14 A3024 RMK AO2 SLP232 T01940144 10217 20183 53015=
200705291052 METAR KATL 291052Z 12004KT 8SM FEW070 SCT250 18/14 A3023 RMK AO2 SLP228 T01830139=
200705290952 METAR KATL 290952Z 11004KT 10SM FEW070 18/14 A3021 RMK AO2 SLP221 T01830139 $=
200705290852 METAR KATL 290852Z 00000KT 10SM CLR 19/14 A3020 RMK AO2 SLP217 T01890139 53000 $=
200705290752 METAR KATL 290752Z 12003KT 10SM CLR 19/13 A3019 RMK AO2 SLP213 T01940133 $=
200705290652 METAR KATL 290652Z 15005KT 10SM CLR 20/12 A3019 RMK AO2 SLP214 T02000122 $=
200705290552 METAR KATL 290552Z 12005KT 10SM FEW070 22/12 A3020 RMK AO2 SLP216 T02170117 10267 20200 51004 $=
200705290452 METAR KATL 290452Z 08006KT 10SM FEW070 21/12 A3019 RMK AO2 SLP214 T02060117 402780183 $=
200705290352 METAR KATL 290352Z 09004KT 10SM FEW060 22/11 A3019 RMK AO2 SLP216 T02170111 $=
200705290252 METAR KATL 290252Z 09006KT 10SM FEW060 SCT250 21/11 A3018 RMK AO2 SLP213 T02110111 53008 $=
200705290152 METAR KATL 290152Z 12004KT 10SM FEW060 SCT250 24/11 A3017 RMK AO2 SLP207 T02440106 $=
200705290052 METAR KATL 290052Z 14003KT 10SM FEW070 SCT200 SCT250 26/10 A3016 RMK AO2 SLP205 T02560100 $=
200705282352 METAR KATL 282352Z 14008KT 10SM FEW070 SCT100 SCT200 BKN250 27/09 A3016 RMK AO2 SLP204 T02670094 10278 20244 56005 $=
200705282252 METAR KATL 282252Z 15008KT 10SM SCT070 BKN100 BKN200 BKN250 27/09 A3016 RMK AO2 SLP205 T02670094 $=
200705282152 METAR KATL 282152Z 14007KT 10SM BKN070 BKN200 BKN250 27/10 A3017 RMK AO2 SLP207 T02720100 $=
200705282052 METAR KATL 282052Z 13006KT 10SM BKN070 BKN200 BKN250 27/09 A3017 RMK AO2 SLP209 T02670089 56014 $=
200705281952 METAR KATL 281952Z VRB06KT 10SM SCT065 BKN200 BKN250 27/10 A3018 RMK AO2 SLP212 T02720100 $=
200705281852 METAR KATL 281852Z 12010G17KT 10SM FEW065 BKN200 BKN250 27/09 A3020 RMK AO2 SLP216 T02720094 $=
200705281752 METAR KATL 281752Z 08014KT 10SM FEW060 BKN200 BKN250 27/11 A3021 RMK AO2 SLP222 T02720106 10278 20183 58013 $=
200705281652 METAR KATL 281652Z 12007KT 050V160 10SM FEW055 BKN200 BKN250 26/12 A3024 RMK AO2 SLP232 T02560122 $=
200705281552 METAR KATL 281552Z 10008KT 10SM FEW050 BKN200 BKN250 24/12 A3026 RMK AO2 SLP237 T02390122 $=
200705281452 METAR KATL 281452Z 11006KT 10SM FEW050 BKN200 BKN250 23/14 A3025 RMK AO2 SLP236 T02330139 50003 $=
200705281352 METAR KATL 281352Z 14008KT 10SM FEW070 BKN200 BKN250 22/14 A3026 RMK AO2 SLP238 T02170139 $=
200705281252 METAR KATL 281252Z 09006KT 10SM FEW065 SCT200 BKN250 20/13 A3026 RMK AO2 SLP237 ACC SW-NW T02000128 $=
200705281152 METAR KATL 281152Z 12005KT 10SM BKN250 18/12 A3024 RMK AO2 SLP232 T01830122 10222 20183 53014 $=
200705281052 METAR KATL 281052Z 12004KT 10SM BKN250 18/12 A3022 RMK AO2 SLP226 T01830117 $=
200705280952 METAR KATL 280952Z 13003KT 10SM SCT250 18/12 A3021 RMK AO2 SLP221 T01830117 $=
200705280852 METAR KATL 280852Z 12005KT 10SM SCT250 19/12 A3020 RMK AO2 SLP218 T01940117 53003 $=
200705280752 METAR KATL 280752Z 00000KT 10SM FEW070 SCT150 20/12 A3019 RMK AO2 SLP214 T02000117 $=
200705280652 METAR KATL 280652Z 17005KT 10SM SCT070 21/11 A3019 RMK AO2 SLP213 T02110111 $=
200705280552 METAR KATL 280552Z 15007KT 10SM FEW070 22/12 A3019 RMK AO2 SLP214 T02220117 10278 20222 51005 $=
200705280452 METAR KATL 280452Z 13004KT 10SM SCT070 SCT150 BKN200 23/11 A3019 RMK AO2 SLP212 T02330111 403000183 $=
200705280352 METAR KATL 280352Z 13004KT 10SM SCT150 SCT200 24/11 A3018 RMK AO2 SLP212 T02390106 $=
200705280252 METAR KATL 280252Z 00000KT 10SM SCT150 BKN200 23/11 A3017 RMK AO2 SLP209 T02330106 53013 $=
200705280152 METAR KATL 280152Z 15004KT 10SM SCT150 BKN200 BKN250 25/10 A3016 RMK AO2 SLP203 T02500100 $=
200705280052 METAR KATL 280052Z 15005KT 10SM SCT150 BKN200 BKN250 26/09 A3015 RMK AO2 SLP201 T02610094=
200705272352 METAR KATL 272352Z 12005KT 10SM FEW080 BKN150 BKN200 BKN250 28/09 A3014 RMK AO2 SLP196 T02780089 10300 20272 55004=
200705272252 METAR KATL 272252Z 11005KT 10SM FEW075 BKN200 BKN250 28/09 A3013 RMK AO2 SLP194 T02830094=
200705272152 METAR KATL 272152Z VRB04KT 9SM SCT070 BKN250 29/10 A3014 RMK AO2 SLP196 T02890100=
200705272052 METAR KATL 272052Z 14005KT 5SM HZ FU SCT070 BKN250 29/11 A3015 RMK AO2 SLP200 T02940106 56018=
200705271952 METAR KATL 271952Z VRB06KT 6SM HZ FEW065 BKN250 29/11 A3017 RMK AO2 SLP206 T02940111=
200705271852 METAR KATL 271852Z 12006G15KT 5SM HZ FU FEW060 SCT250 28/12 A3019 RMK AO2 SLP212 T02830117=
200705271752 METAR KATL 271752Z 13007KT 3SM FU HZ SCT055 BKN250 27/12 A3020 RMK AO2 SLP218 T02720122 10283 20189 58014=
200705271652 METAR KATL 271652Z 15007KT 3SM FU HZ FEW055 SCT080 BKN250 27/12 A3023 RMK AO2 SLP227 T02670122=
200705271552 METAR KATL 271552Z 00000KT 2 1/2SM FU HZ SCT070 SCT250 25/13 A3024 RMK AO2 SLP231 T02500128=
200705271507 SPECI KATL 271507Z 20006KT 2SM HZ FU SCT070 BKN250 24/13 A3024 RMK AO2=
200705271507 SPECI KATL 271507Z 20006KT 2SM HZ FU SCT070 BKN250 24/13 A3024 RMK AO2=
200705271452 METAR KATL 271452Z VRB03KT 1 3/4SM FU HZ SCT070 BKN250 23/13 A3024 RMK AO2 SLP233 T02330133 50006=
200705271352 METAR KATL 271352Z VRB05KT 1 1/2SM FU HZ SCT017 SCT250 21/13 A3025 RMK AO2 SLP234 FU SCT017 T02110133=
200705271318 SPECI KATL 271318Z 20006KT 1 1/2SM R09R/6000VP6000FT FU HZ SCT014 21/13 A3024 RMK AO2=
200705271318 SPECI KATL 271318Z 20006KT 1 1/2SM R09R/6000VP6000FT FU HZ SCT014 21/13 A3024 RMK AO2=
200705271252 METAR KATL 271252Z 15003KT 2 1/2SM FU HZ SCT014 19/13 A3024 RMK AO2 SLP230 T01940133=
200705271152 METAR KATL 271152Z 00000KT 2 1/2SM FU SCT020 19/13 A3023 RMK AO2 SFC VIS 3 SLP227 T01890128 10222 20183 53014=
200705271052 METAR KATL 271052Z 00000KT 2SM FU SCT017 18/13 A3021 RMK AO2 TWR VIS 2 1/2 SLP221 T01830128=
200705271032 SPECI KATL 271032Z 00000KT 2 1/2SM FU BKN017 OVC070 18/13 A3020 RMK AO2 SFC VIS 3=
200705271032 SPECI KATL 271032Z 00000KT 2 1/2SM FU BKN017 OVC070 18/13 A3020 RMK AO2 SFC VIS 3=
200705270952 METAR KATL 270952Z 00000KT 4SM FU OVC015 19/13 A3019 RMK AO2 SLP216 T01890128=
200705270922 SPECI KATL 270922Z 15003KT 4SM FU SCT009 BKN015 19/13 A3019 RMK AO2=
200705270922 SPECI KATL 270922Z 15003KT 4SM FU SCT009 BKN015 19/13 A3019 RMK AO2=
200705270914 SPECI KATL 270914Z 15003KT 4SM FU SCT009 SCT016 19/13 A3019 RMK AO2=
200705270914 SPECI KATL 270914Z 15003KT 4SM FU SCT009 SCT016 19/13 A3019 RMK AO2=
200705270852 METAR KATL 270852Z 15004KT 4SM FU CLR 19/12 A3019 RMK AO2 SLP213 T01890122 53004=
200705270752 METAR KATL 270752Z 19005KT 5SM FU CLR 19/12 A3017 RMK AO2 SLP209 T01940122=
200705270652 METAR KATL 270652Z 15007KT 10SM FEW250 21/12 A3017 RMK AO2 SLP206 T02110122=
200705270552 METAR KATL 270552Z 14003KT 10SM FEW250 22/12 A3017 RMK AO2 SLP208 T02220117 10278 20217 58001=
200705270452 METAR KATL 270452Z 00000KT 10SM FEW250 23/12 A3018 RMK AO2 SLP211 T02280117 403000178=
200705270352 METAR KATL 270352Z 00000KT 10SM FEW250 23/12 A3018 RMK AO2 SLP212 T02330117=
200705270252 METAR KATL 270252Z 00000KT 10SM FEW250 24/12 A3018 RMK AO2 SLP210 T02390117 53014=
200705270152 METAR KATL 270152Z 16003KT 10SM FEW250 26/11 A3016 RMK AO2 SLP204 T02560111=
200705270052 METAR KATL 270052Z 00000KT 10SM SCT250 27/11 A3015 RMK AO2 SLP199 T02670111=
200705262352 METAR KATL 262352Z 15007KT 10SM FEW070 SCT250 28/11 A3014 RMK AO2 SLP196 T02780106 10300 20272 55006=
200705262252 METAR KATL 262252Z 14005KT 10SM FEW075 BKN250 28/10 A3013 RMK AO2 SLP194 T02830100=
200705262152 METAR KATL 262152Z 16008KT 10SM FEW070 BKN250 29/09 A3015 RMK AO2 SLP200 T02890094=
200705262052 METAR KATL 262052Z 08009KT 10SM FEW070 SCT250 29/10 A3015 RMK AO2 SLP202 T02940100 56023=
200705261952 METAR KATL 261952Z 00000KT 10SM SCT070 BKN200 29/11 A3017 RMK AO2 SLP208 T02890106=
200705261852 METAR KATL 261852Z VRB04KT 9SM BKN065 29/11 A3020 RMK AO2 SLP216 T02890111=
200705261752 METAR KATL 261752Z VRB03KT 8SM FU SCT060 BKN200 27/12 A3022 RMK AO2 SLP226 T02720117 10283 20189 58017=
200705261652 METAR KATL 261652Z 17004KT 7SM FU SCT055 BKN250 26/12 A3025 RMK AO2 SLP235 T02610117=
200705261552 METAR KATL 261552Z VRB04KT 6SM HZ FU FEW050 BKN250 26/12 A3026 RMK AO2 SLP239 T02560122=
200705261452 METAR KATL 261452Z 22003KT 6SM HZ FU BKN250 24/12 A3027 RMK AO2 SLP243 T02390122 50001=
200705261352 METAR KATL 261352Z 23005KT 5SM HZ FU BKN250 22/12 A3028 RMK AO2 SLP246 T02220122=
200705261252 METAR KATL 261252Z 23004KT 7SM BKN250 20/13 A3028 RMK AO2 SLP246 T02000128=
200705261152 METAR KATL 261152Z 00000KT 10SM SCT250 18/12 A3027 RMK AO2 SLP243 T01830122 10217 20178 53016=
200705261052 METAR KATL 261052Z 00000KT 10SM BKN250 18/12 A3025 RMK AO2 SLP236 T01780117=
200705260952 METAR KATL 260952Z 00000KT 10SM CLR 18/12 A3023 RMK AO2 SLP229 T01780117=
200705260852 METAR KATL 260852Z 15004KT 7SM CLR 18/12 A3022 RMK AO2 SLP227 T01830117 56008=
200705260752 METAR KATL 260752Z 11003KT 10SM CLR 20/12 A3023 RMK AO2 SLP229 T02000117=
200705260652 METAR KATL 260652Z 09003KT 10SM CLR 21/11 A3023 RMK AO2 SLP229 T02060111=
200705260552 METAR KATL 260552Z 07004KT 10SM CLR 22/11 A3025 RMK AO2 SLP234 T02170111 10261 20211 58002=
200705260452 METAR KATL 260452Z 00000KT 10SM CLR 22/11 A3026 RMK AO2 SLP239 T02220111 402890172=
200705260352 METAR KATL 260352Z 00000KT 10SM CLR 22/12 A3026 RMK AO2 SLP240 T02220117=
200705260252 METAR KATL 260252Z 00000KT 10SM CLR 23/11 A3026 RMK AO2 SLP237 T02280111 51013=
200705260152 METAR KATL 260152Z 12004KT 10SM CLR 24/11 A3024 RMK AO2 SLP233 T02440106=
200705260052 METAR KATL 260052Z 12006KT 10SM CLR 26/10 A3023 RMK AO2 SLP231 T02560100=
200705252352 METAR KATL 252352Z 10006KT 10SM FEW065 26/10 A3022 RMK AO2 SLP224 T02610100 10289 20250 56009=
200705252252 METAR KATL 252252Z 09009G14KT 10SM FEW070 27/10 A3022 RMK AO2 SLP225 T02720100=
200705252152 METAR KATL 252152Z 09009KT 10SM SCT070 28/10 A3023 RMK AO2 SLP229 T02780100=
200705252052 METAR KATL 252052Z VRB05KT 10SM FEW070 27/11 A3024 RMK AO2 SLP234 T02720106 56022=
200705251952 METAR KATL 251952Z 08007KT 060V130 10SM SCT065 27/11 A3026 RMK AO2 SLP240 T02670111=
200705251852 METAR KATL 251852Z VRB04KT 10SM SCT055 27/13 A3028 RMK AO2 SLP246 T02720128=
200705251752 METAR KATL 251752Z 05007KT 10SM BKN055 26/13 A3031 RMK AO2 SLP256 T02610128 10267 20178 58017=
200705251652 METAR KATL 251652Z 01004KT 10SM BKN048 26/15 A3033 RMK AO2 SLP261 MDT CU ALQDS T02610150=
200705251552 METAR KATL 251552Z 11004KT 10SM BKN040 25/15 A3035 RMK AO2 SLP271 MDT CU ALQDS T02500150=
200705251452 METAR KATL 251452Z 10005KT 10SM FEW030 23/14 A3036 RMK AO2 SLP274 T02330144 50003=
200705251352 METAR KATL 251352Z 11005KT 10SM FEW020 21/17 A3037 RMK AO2 SLP276 T02110167=
200705251252 METAR KATL 251252Z 12006KT 10SM CLR 19/14 A3036 RMK AO2 SLP274 T01940144=
200705251152 METAR KATL 251152Z 09005KT 10SM CLR 18/14 A3035 RMK AO2 SLP272 T01780139 10200 20172 53011=
200705251052 METAR KATL 251052Z 11004KT 10SM CLR 17/13 A3033 RMK AO2 SLP265 T01720133=
200705250952 METAR KATL 250952Z 12004KT 10SM CLR 18/13 A3032 RMK AO2 SLP261 T01780133 $=
200705250852 METAR KATL 250852Z 11005KT 10SM CLR 18/13 A3032 RMK AO2 SLP260 T01780128 51001 $=
200705250752 METAR KATL 250752Z 11005KT 10SM CLR 18/12 A3032 RMK AO2 SLP259 T01830122 $=
200705250652 METAR KATL 250652Z 12006KT 10SM CLR 19/12 A3032 RMK AO2 SLP260 T01940117 $=
200705250552 METAR KATL 250552Z 10005KT 10SM CLR 19/12 A3032 RMK AO2 SLP259 T01940117 10256 20189 57002 $=
200705250452 METAR KATL 250452Z 08005KT 10SM CLR 20/12 A3032 RMK AO2 SLP260 T02000117 402780167 $=
200705250352 METAR KATL 250352Z 08006KT 10SM CLR 20/12 A3032 RMK AO2 SLP260 T02000117 $=
200705250252 METAR KATL 250252Z 08006KT 10SM CLR 21/12 A3032 RMK AO2 SLP262 T02110117 53009 $=
200705250152 METAR KATL 250152Z 09006KT 10SM CLR 22/11 A3031 RMK AO2 SLP257 T02170111 $=
200705250052 METAR KATL 250052Z 09007KT 10SM CLR 23/11 A3030 RMK AO2 SLP255 T02330111 $=
200705242352 METAR KATL 242352Z 11007KT 10SM FEW070 26/10 A3030 RMK AO2 SLP252 T02560100 10278 20244 56006=
200705242252 METAR KATL 242252Z 10007KT 10SM SCT070 26/10 A3030 RMK AO2 SLP253 T02560100=
200705242152 METAR KATL 242152Z 12008KT 10SM BKN070 27/11 A3031 RMK AO2 SLP256 T02670106=
200705242052 METAR KATL 242052Z 11008G19KT 10SM SCT060 27/12 A3031 RMK AO2 SLP258 T02670122 56021=
200705241952 METAR KATL 241952Z 11007G15KT 10SM BKN060 27/11 A3033 RMK AO2 SLP264 T02670111=
200705241852 METAR KATL 241852Z 10010KT 10SM BKN055 25/12 A3035 RMK AO2 SLP271 T02500122=
200705241752 METAR KATL 241752Z 08013G18KT 10SM SCT050 26/12 A3038 RMK AO2 SLP278 T02560117 10256 20178 58010=
200705241652 METAR KATL 241652Z 13009G21KT 090V160 10SM FEW048 25/12 A3040 RMK AO2 SLP284 T02500122=
200705241552 METAR KATL 241552Z 11011G18KT 10SM FEW042 23/13 A3041 RMK AO2 SLP289 T02330133=
200705241452 METAR KATL 241452Z 09012G19KT 10SM FEW033 22/13 A3041 RMK AO2 SLP289 T02220133 50004=
200705241352 METAR KATL 241352Z 11013KT 10SM FEW025 21/14 A3041 RMK AO2 SLP292 T02060144=
200705241252 METAR KATL 241252Z 11010KT 10SM FEW024 19/13 A3041 RMK AO2 SLP289 T01890128=
200705241152 METAR KATL 241152Z 09009KT 10SM FEW010 18/12 A3039 RMK AO2 SLP285 FU FEW010 T01780122 10211 20167 53016=
200705241052 METAR KATL 241052Z 10009KT 10SM FEW060 17/12 A3037 RMK AO2 SLP276 T01670117=
200705240952 METAR KATL 240952Z 10007KT 10SM FEW060 17/12 A3035 RMK AO2 SLP271 T01720117=
200705240852 METAR KATL 240852Z 12007KT 10SM FEW060 19/11 A3034 RMK AO2 SLP267 T01890111 53008=
200705240752 METAR KATL 240752Z 12007KT 10SM FEW060 19/12 A3033 RMK AO2 SLP262 T01940117=
200705240652 METAR KATL 240652Z 14007KT 10SM CLR 20/12 A3033 RMK AO2 SLP261 T02000117=
200705240552 METAR KATL 240552Z 14008KT 10SM CLR 21/13 A3032 RMK AO2 SLP258 T02110133 10267 20211 53004=
200705240452 METAR KATL 240452Z 13006G14KT 10SM CLR 22/13 A3031 RMK AO2 SLP255 T02220128 402940172=
200705240352 METAR KATL 240352Z 11008KT 10SM CLR 23/12 A3031 RMK AO2 SLP254 T02280122=
200705240252 METAR KATL 240252Z 11009KT 10SM CLR 24/12 A3031 RMK AO2 SLP254 T02390122 53020=
200705240152 METAR KATL 240152Z 11010KT 10SM CLR 25/12 A3028 RMK AO2 SLP245 T02500122=
200705240052 METAR KATL 240052Z 11008KT 10SM CLR 26/12 A3026 RMK AO2 SLP239 T02560117=
200705232352 METAR KATL 232352Z 12008KT 10SM CLR 27/11 A3025 RMK AO2 SLP234 T02670111 10289 20267 55001=
200705232252 METAR KATL 232252Z 09013KT 10SM FEW060 28/12 A3024 RMK AO2 SLP231 T02780117=
200705232152 METAR KATL 232152Z 11013G18KT 10SM FEW060 28/12 A3024 RMK AO2 SLP234 MDT CU VC E-S AND W T02780122=
200705232052 METAR KATL 232052Z 09015G24KT 10SM FEW060 SCT070 28/14 A3025 RMK AO2 SLP234 MDT CU DSNT NE AND VC SE-SW T02780139 58018=
200705231952 METAR KATL 231952Z 08012G18KT 10SM FEW055 28/14 A3027 RMK AO2 PK WND 08026/1938 SLP241 T02780144=
200705231852 METAR KATL 231852Z 10013G17KT 10SM BKN050 28/15 A3029 RMK AO2 SLP248 MDT CU NE-E AND SW-NW T02780150=
200705231752 METAR KATL 231752Z 09010KT 10SM BKN048 27/16 A3030 RMK AO2 SLP253 MDT CU NE-SE T02720156 10278 20189 58009=
200705231652 METAR KATL 231652Z 12008G14KT 10SM SCT045 27/16 A3032 RMK AO2 SLP256 T02720161=
200705231552 METAR KATL 231552Z 13007G14KT 10SM FEW040 26/16 A3033 RMK AO2 SLP261 T02560156=
200705231452 METAR KATL 231452Z 12007KT 10SM FEW035 24/16 A3033 RMK AO2 SLP262 T02390156 51011=
200705231352 METAR KATL 231352Z 12007KT 10SM CLR 22/17 A3033 RMK AO2 SLP262 T02220167=
200705231252 METAR KATL 231252Z 13006KT 10SM CLR 21/14 A3031 RMK AO2 SLP257 T02060144=
200705231152 METAR KATL 231152Z VRB04KT 10SM FEW250 19/13 A3030 RMK AO2 SLP251 T01890133 10211 20172 53019=
200705231052 METAR KATL 231052Z 12004KT 10SM FEW250 17/12 A3027 RMK AO2 SLP241 T01720122=
200705230952 METAR KATL 230952Z 13003KT 10SM CLR 18/12 A3025 RMK AO2 SLP235 T01780117=
200705230852 METAR KATL 230852Z 12006KT 10SM CLR 18/12 A3024 RMK AO2 SLP231 T01830117 53001=
200705230752 METAR KATL 230752Z 13006KT 10SM CLR 19/11 A3023 RMK AO2 SLP229 T01940111=
200705230652 METAR KATL 230652Z 14005KT 10SM CLR 20/11 A3023 RMK AO2 SLP230 T02000111=
200705230552 METAR KATL 230552Z 14005KT 10SM CLR 21/11 A3024 RMK AO2 SLP229 T02110106 10272 20211 51010=
200705230452 METAR KATL 230452Z 14005KT 10SM CLR 22/10 A3023 RMK AO2 SLP228 T02220100 403000172=
200705230352 METAR KATL 230352Z 13007G14KT 10SM CLR 23/09 A3022 RMK AO2 SLP225 T02330094=
200705230252 METAR KATL 230252Z 12007KT 10SM CLR 24/09 A3020 RMK AO2 SLP219 T02440089 53015=
200705230152 METAR KATL 230152Z 12005KT 10SM CLR 26/08 A3018 RMK AO2 SLP211 T02560083=
200705230052 METAR KATL 230052Z 09006KT 6SM FU FEW250 24/08 A3017 RMK AO2 SLP208 T02440083=
200705222352 METAR KATL 222352Z 11006KT 6SM FU FEW250 27/07 A3016 RMK AO2 SLP205 T02720072 10300 20272 55003=
200705222252 METAR KATL 222252Z 12010G15KT 8SM FEW085 29/06 A3016 RMK AO2 SLP203 T02890061=
200705222152 METAR KATL 222152Z VRB06KT 8SM FEW085 29/08 A3016 RMK AO2 SLP205 T02890078=
200705222052 METAR KATL 222052Z 08014G17KT 8SM FEW080 29/10 A3017 RMK AO2 SLP207 T02940100 58008=
200705221952 METAR KATL 221952Z VRB05G16KT 8SM FEW080 29/09 A3018 RMK AO2 SLP210 T02890094=
200705221852 METAR KATL 221852Z 14009G16KT 8SM FEW080 29/08 A3018 RMK AO2 SLP213 T02890078=
200705221752 METAR KATL 221752Z 13008G16KT 3SM HZ FEW070 29/11 A3019 RMK AO2 SFC VIS 5 SLP214 T02890106 10289 20183 58005=
200705221652 METAR KATL 221652Z 13005KT 2 1/2SM FU CLR 28/11 A3020 RMK AO2 SFC VIS 3 SLP218 T02780111=
200705221639 SPECI KATL 221639Z 15009KT 3SM FU CLR 27/10 A3020 RMK AO2=
200705221639 SPECI KATL 221639Z 15009KT 3SM FU CLR 27/10 A3020 RMK AO2=
200705221552 METAR KATL 221552Z 14005KT 2SM FU CLR 27/12 A3020 RMK AO2 SLP218 T02670117=
200705221452 METAR KATL 221452Z VRB04KT 2SM FU CLR 24/13 A3021 RMK AO2 SLP220 T02390128 51008=
200705221352 METAR KATL 221352Z VRB04KT 2SM FU CLR 21/12 A3020 RMK AO2 SLP219 T02110117=
200705221338 SPECI KATL 221338Z 16004KT 2SM FU CLR 21/11 A3020 RMK AO2=
200705221338 SPECI KATL 221338Z 16004KT 2SM FU CLR 21/11 A3020 RMK AO2=
200705221252 METAR KATL 221252Z 00000KT 1 1/2SM FU SCT005 19/11 A3020 RMK AO2 SLP217 FU SCT005 T01940106=
200705221152 METAR KATL 221152Z 00000KT 1 1/2SM FU FEW004 18/09 A3018 RMK AO2 SLP212 FU FEW004 T01830094 10217 20172 53013=
200705221052 METAR KATL 221052Z 00000KT 1 1/2SM FU SCT004 18/09 A3016 RMK AO2 SLP205 FU SCT004 T01780089=
200705221050 SPECI KATL 221050Z 00000KT 1 1/2SM FU SCT004 18/09 A3016 RMK AO2 FU SCT004=
200705221050 SPECI KATL 221050Z 00000KT 1 1/2SM FU SCT004 18/09 A3016 RMK AO2 FU SCT004=
200705221018 SPECI KATL 221018Z 00000KT 2SM FU SCT004 18/08 A3015 RMK AO2 FU SCT004=
200705221018 SPECI KATL 221018Z 00000KT 2SM FU SCT004 18/08 A3015 RMK AO2 FU SCT004=
200705220952 METAR KATL 220952Z 17003KT 3SM FU SCT004 18/08 A3014 RMK AO2 SLP199 FU SCT004 T01780083=
200705220929 SPECI KATL 220929Z 18003KT 3SM FU FEW004 18/08 A3014 RMK AO2 FU FEW004=
200705220929 SPECI KATL 220929Z 18003KT 3SM FU FEW004 18/08 A3014 RMK AO2 FU FEW004=
200705220912 SPECI KATL 220912Z 18004KT 3SM FU CLR 18/08 A3013 RMK AO2=
200705220912 SPECI KATL 220912Z 18004KT 3SM FU CLR 18/08 A3013 RMK AO2=
200705220852 METAR KATL 220852Z 18006KT 10SM CLR 19/08 A3013 RMK AO2 SLP193 T01890078 53003=
200705220752 METAR KATL 220752Z 14004KT 10SM CLR 19/07 A3012 RMK AO2 SLP189 T01890067=
200705220652 METAR KATL 220652Z 08005KT 10SM CLR 20/06 A3011 RMK AO2 SLP186 T02000056=
200705220552 METAR KATL 220552Z 09004KT 10SM CLR 21/07 A3012 RMK AO2 SLP190 T02060067 10278 20189 58002=
200705220452 METAR KATL 220452Z 00000KT 10SM CLR 21/07 A3012 RMK AO2 SLP192 T02110072 403000139=
200705220352 METAR KATL 220352Z 00000KT 10SM CLR 22/07 A3013 RMK AO2 SLP193 T02220072=
200705220252 METAR KATL 220252Z 00000KT 10SM CLR 23/07 A3012 RMK AO2 SLP192 T02330067 53013=
200705220152 METAR KATL 220152Z 00000KT 10SM CLR 26/03 A3010 RMK AO2 SLP184 T02560033=
200705220052 METAR KATL 220052Z 00000KT 10SM CLR 26/04 A3009 RMK AO2 SLP181 T02610044=
200705212352 METAR KATL 212352Z 16004KT 10SM CLR 28/02 A3009 RMK AO2 SLP180 T02780022 10300 20278 55001=
200705212252 METAR KATL 212252Z 18006KT 10SM CLR 29/02 A3008 RMK AO2 SLP178 T02890022=
200705212152 METAR KATL 212152Z 22006KT 10SM CLR 29/03 A3008 RMK AO2 SLP178 T02890028=
200705212052 METAR KATL 212052Z 00000KT 10SM CLR 29/02 A3009 RMK AO2 SLP180 T02890017 56013=
200705211952 METAR KATL 211952Z 19007KT 10SM CLR 29/02 A3010 RMK AO2 SLP184 T02890022=
200705211852 METAR KATL 211852Z VRB04KT 10SM CLR 29/03 A3011 RMK AO2 SLP188 T02890028=
200705211752 METAR KATL 211752Z 26005KT 10SM CLR 28/02 A3013 RMK AO2 SLP194 T02780022 10283 20172 58010=
200705211652 METAR KATL 211652Z 14004KT 10SM CLR 27/02 A3015 RMK AO2 SLP201 T02720017=
200705211552 METAR KATL 211552Z 36004KT 10SM CLR 27/02 A3016 RMK AO2 SLP204 T02670017=
200705211452 METAR KATL 211452Z 07005KT 10SM CLR 26/02 A3016 RMK AO2 SLP204 T02560022 50006=
200705211352 METAR KATL 211352Z 07006KT 10SM CLR 24/03 A3016 RMK AO2 SLP205 T02440028=
200705211252 METAR KATL 211252Z 31004KT 10SM CLR 20/08 A3016 RMK AO2 SLP203 T02000083=
200705211152 METAR KATL 211152Z 32004KT 10SM CLR 17/07 A3014 RMK AO2 SLP199 T01720072 10189 20139 53017=
200705211052 METAR KATL 211052Z 33004KT 10SM CLR 14/07 A3012 RMK AO2 SLP194 T01440067=
200705210952 METAR KATL 210952Z 31004KT 10SM CLR 14/07 A3010 RMK AO2 SLP186 T01390072=
200705210852 METAR KATL 210852Z 31003KT 10SM CLR 15/07 A3009 RMK AO2 SLP182 T01500067 55001=
200705210752 METAR KATL 210752Z 32003KT 10SM CLR 16/06 A3008 RMK AO2 SLP180 T01560061=
200705210652 METAR KATL 210652Z 00000KT 10SM CLR 18/06 A3009 RMK AO2 SLP180 T01780061=
200705210552 METAR KATL 210552Z 00000KT 10SM CLR 18/06 A3009 RMK AO2 SLP182 T01780056 10250 20172 58001=
200705210452 METAR KATL 210452Z 31004KT 10SM CLR 17/07 A3010 RMK AO2 SLP185 T01720067 402780111=
200705210352 METAR KATL 210352Z 00000KT 10SM CLR 20/04 A3010 RMK AO2 SLP184 T02000039=
200705210252 METAR KATL 210252Z 00000KT 10SM CLR 21/04 A3009 RMK AO2 SLP184 T02060039 53008=
200705210152 METAR KATL 210152Z 28003KT 10SM CLR 23/03 A3009 RMK AO2 SLP181 T02280033=
200705210052 METAR KATL 210052Z 31003KT 10SM CLR 24/02 A3007 RMK AO2 SLP177 T02440022=
200705202352 METAR KATL 202352Z 27006KT 10SM CLR 25/03 A3007 RMK AO2 SLP176 T02500028 10278 20250 56009=
200705202252 METAR KATL 202252Z 33006KT 10SM CLR 27/02 A3007 RMK AO2 SLP178 T02670022=
200705202152 METAR KATL 202152Z VRB04KT 10SM CLR 27/02 A3009 RMK AO2 SLP182 T02720017=
200705202052 METAR KATL 202052Z 27006KT 10SM CLR 27/02 A3010 RMK AO2 SLP185 T02720022 56022=
200705201952 METAR KATL 201952Z 32009G15KT 10SM CLR 27/02 A3012 RMK AO2 SLP192 T02720022=
200705201852 METAR KATL 201852Z 25004KT 10SM CLR 26/01 A3014 RMK AO2 SLP200 T02610006=
200705201752 METAR KATL 201752Z VRB06KT 10SM CLR 26/03 A3016 RMK AO2 SLP207 T02610033 10261 20139 58010=
200705201652 METAR KATL 201652Z VRB04KT 10SM CLR 25/03 A3018 RMK AO2 SLP213 T02500033=
200705201552 METAR KATL 201552Z 29009KT 10SM CLR 24/04 A3019 RMK AO2 SLP218 T02440044=
200705201452 METAR KATL 201452Z 30007KT 10SM CLR 23/04 A3019 RMK AO2 SLP218 T02280039 50004=
200705201352 METAR KATL 201352Z 31007KT 10SM CLR 21/06 A3020 RMK AO2 SLP219 T02060056=
200705201252 METAR KATL 201252Z 31006KT 10SM CLR 17/05 A3019 RMK AO2 SLP219 T01720050=
200705201152 METAR KATL 201152Z 31006KT 10SM CLR 14/04 A3018 RMK AO2 SLP216 T01390044 10156 20111 53011=
200705201052 METAR KATL 201052Z 29004KT 10SM CLR 12/04 A3017 RMK AO2 SLP213 T01170039=
200705200952 METAR KATL 200952Z 30006KT 10SM CLR 12/04 A3016 RMK AO2 SLP207 T01170039=
200705200852 METAR KATL 200852Z 31005KT 10SM CLR 12/03 A3015 RMK AO2 SLP205 T01220033 55004=
200705200752 METAR KATL 200752Z 30004KT 10SM CLR 14/03 A3015 RMK AO2 SLP203 T01440028=
200705200652 METAR KATL 200652Z 31004KT 10SM CLR 15/03 A3016 RMK AO2 SLP207 T01500033=
200705200552 METAR KATL 200552Z 29003KT 10SM CLR 16/03 A3016 RMK AO2 SLP209 T01560033 10222 20156 58004=
200705200452 METAR KATL 200452Z 30005KT 10SM CLR 16/04 A3017 RMK AO2 SLP211 T01610044 402440111=
200705200352 METAR KATL 200352Z 31005KT 10SM CLR 17/04 A3018 RMK AO2 SLP215 T01670044=
200705200252 METAR KATL 200252Z 00000KT 10SM CLR 18/04 A3017 RMK AO2 SLP213 T01830039 53010=
200705200152 METAR KATL 200152Z 31003KT 10SM CLR 21/02 A3016 RMK AO2 SLP208 T02060022=
200705200052 METAR KATL 200052Z 31005KT 10SM CLR 21/02 A3015 RMK AO2 SLP207 T02060022=
200705192352 METAR KATL 192352Z 33007KT 10SM CLR 22/02 A3014 RMK AO2 SLP204 T02220022 10244 20211 56005=
200705192252 METAR KATL 192252Z 31008KT 10SM CLR 23/03 A3014 RMK AO2 SLP204 T02330028=
200705192152 METAR KATL 192152Z VRB03KT 10SM CLR 24/02 A3015 RMK AO2 SLP206 T02390017=
200705192052 METAR KATL 192052Z 29007KT 10SM CLR 23/03 A3016 RMK AO2 SLP209 T02330028 56021=
200705191952 METAR KATL 191952Z 31009KT 280V340 10SM CLR 23/03 A3017 RMK AO2 SLP214 T02330033=
200705191852 METAR KATL 191852Z 32006KT 10SM CLR 22/03 A3020 RMK AO2 SLP222 T02220033=
200705191752 METAR KATL 191752Z 00000KT 10SM CLR 21/04 A3022 RMK AO2 SLP230 T02110039 10211 20122 58015=
200705191652 METAR KATL 191652Z VRB04KT 10SM CLR 20/03 A3024 RMK AO2 SLP238 T02000033=
200705191552 METAR KATL 191552Z VRB04KT 10SM CLR 19/04 A3026 RMK AO2 SLP244 T01890039=
200705191452 METAR KATL 191452Z 10011G15KT 10SM CLR 18/03 A3027 RMK AO2 SLP247 T01780028 51011=
200705191352 METAR KATL 191352Z 09010KT 10SM CLR 16/03 A3027 RMK AO2 SLP247 T01610033=
200705191252 METAR KATL 191252Z 08012KT 10SM CLR 14/03 A3025 RMK AO2 SLP242 T01390028=
200705191152 METAR KATL 191152Z 07007KT 10SM CLR 12/02 A3024 RMK AO2 SLP236 T01220022 10150 20111 53018=
200705191052 METAR KATL 191052Z 06009KT 10SM CLR 12/02 A3021 RMK AO2 SLP226 T01170017=
200705190952 METAR KATL 190952Z 06008KT 10SM CLR 12/02 A3019 RMK AO2 SLP219 T01170022=
200705190852 METAR KATL 190852Z 07007KT 10SM CLR 12/02 A3018 RMK AO2 SLP216 T01170022 55001=
200705190752 METAR KATL 190752Z 08008KT 10SM CLR 12/02 A3018 RMK AO2 SLP216 T01220022=
200705190652 METAR KATL 190652Z 07009KT 10SM CLR 13/03 A3018 RMK AO2 SLP215 T01330028=
200705190552 METAR KATL 190552Z 04009KT 10SM CLR 15/03 A3018 RMK AO2 SLP216 T01500028 10206 20144 51009=
200705190452 METAR KATL 190452Z 02007KT 10SM CLR 15/02 A3017 RMK AO2 SLP214 T01500022 402390100=
200705190352 METAR KATL 190352Z 36009KT 10SM CLR 16/02 A3017 RMK AO2 SLP211 T01610022=
200705190252 METAR KATL 190252Z 34009KT 10SM CLR 16/02 A3016 RMK AO2 SLP208 T01610022 53023=
200705190152 METAR KATL 190152Z 35010KT 10SM CLR 17/03 A3013 RMK AO2 SLP200 T01720028=
200705190052 METAR KATL 190052Z 33010KT 10SM CLR 18/03 A3011 RMK AO2 SLP193 T01830028=
200705182352 METAR KATL 182352Z 34011KT 10SM CLR 21/03 A3009 RMK AO2 SLP185 T02060028 10239 20206 53008=
200705182252 METAR KATL 182252Z 34012G19KT 10SM FEW250 22/04 A3007 RMK AO2 SLP181 T02220039=
200705182152 METAR KATL 182152Z 33012G15KT 10SM FEW070 23/04 A3007 RMK AO2 SLP177 T02330044=
200705182052 METAR KATL 182052Z 32006G16KT 10SM FEW070 24/04 A3006 RMK AO2 SLP175 T02390039 56007=
200705181952 METAR KATL 181952Z 32008KT 10SM FEW070 23/01 A3006 RMK AO2 SLP175 T02330006=
200705181852 METAR KATL 181852Z 34009G18KT 10SM FEW070 23/02 A3007 RMK AO2 SLP178 T02280022=
200705181752 METAR KATL 181752Z 31008KT 10SM FEW065 22/05 A3008 RMK AO2 SLP182 T02170050 10228 20117 58006=
200705181652 METAR KATL 181652Z 33006KT 10SM FEW065 21/04 A3010 RMK AO2 SLP186 T02060044=
200705181552 METAR KATL 181552Z VRB04KT 10SM FEW055 20/06 A3011 RMK AO2 SLP189 T02000061=
200705181452 METAR KATL 181452Z VRB04KT 10SM FEW250 18/07 A3010 RMK AO2 SLP189 T01780067 51007=
200705181352 METAR KATL 181352Z 34009KT 10SM FEW250 16/07 A3010 RMK AO2 SLP189 T01560067=
200705181252 METAR KATL 181252Z 33010KT 10SM FEW250 14/06 A3009 RMK AO2 SLP185 T01390061=
200705181152 METAR KATL 181152Z 34010KT 10SM FEW250 12/06 A3008 RMK AO2 SLP183 T01170056 10144 20100 53008=
200705181052 METAR KATL 181052Z 34007KT 10SM FEW250 11/05 A3007 RMK AO2 SLP178 T01060050=
200705180952 METAR KATL 180952Z 33006KT 10SM CLR 11/04 A3005 RMK AO2 SLP173 T01060044=
200705180852 METAR KATL 180852Z 33007KT 10SM CLR 12/04 A3005 RMK AO2 SLP173 T01170044 55003=
200705180752 METAR KATL 180752Z 32008KT 10SM CLR 13/04 A3005 RMK AO2 SLP170 T01280044=
200705180652 METAR KATL 180652Z 33010KT 10SM CLR 14/04 A3006 RMK AO2 SLP173 T01390039=
200705180552 METAR KATL 180552Z 34007KT 10SM CLR 14/04 A3006 RMK AO2 SLP176 T01440039 10217 20144 51001=
200705180452 METAR KATL 180452Z 34009KT 10SM CLR 16/03 A3006 RMK AO2 SLP175 T01560033 402500117=
200705180352 METAR KATL 180352Z 34008KT 10SM CLR 16/04 A3006 RMK AO2 SLP175 T01610039=
200705180252 METAR KATL 180252Z 33006KT 10SM CLR 17/04 A3006 RMK AO2 SLP174 T01720039 53011=
200705180152 METAR KATL 180152Z 33005KT 10SM CLR 18/03 A3005 RMK AO2 SLP170 T01830033=
200705180052 METAR KATL 180052Z 35008KT 10SM CLR 21/03 A3004 RMK AO2 SLP167 T02060028=
200705172352 METAR KATL 172352Z 36010KT 10SM FEW250 22/03 A3003 RMK AO2 SLP164 T02170033 10250 20217 53009=
200705172252 METAR KATL 172252Z 34012G20KT 10SM FEW250 23/03 A3001 RMK AO2 SLP158 T02280028=
200705172152 METAR KATL 172152Z 34016G26KT 10SM SCT250 23/03 A3000 RMK AO2 PK WND 33027/2133 SLP155 T02330033=
200705172052 METAR KATL 172052Z 31013G22KT 10SM FEW060 SCT280 24/04 A3000 RMK AO2 SLP153 T02390044 56009=
200705171952 METAR KATL 171952Z 34011KT 10SM FEW060 SCT280 24/02 A3000 RMK AO2 SLP155 T02440022=
200705171852 METAR KATL 171852Z 34007G18KT 10SM FEW060 23/07 A3001 RMK AO2 SLP158 T02330067=
200705171752 METAR KATL 171752Z 01009G18KT 10SM FEW050 23/08 A3003 RMK AO2 SLP162 T02280083 10233 20128 58008=
200705171652 METAR KATL 171652Z 36009G15KT 10SM SCT042 22/09 A3005 RMK AO2 SLP169 T02170094=
200705171552 METAR KATL 171552Z 35006KT 10SM FEW045 21/10 A3005 RMK AO2 SLP170 T02110100=
200705171452 METAR KATL 171452Z VRB04KT 10SM FEW060 SCT200 19/09 A3005 RMK AO2 SLP171 T01940094 51007=
200705171352 METAR KATL 171352Z VRB05KT 10SM FEW200 18/09 A3005 RMK AO2 SLP170 T01780094=
200705171252 METAR KATL 171252Z 35007KT 10SM FEW085 SCT250 14/09 A3004 RMK AO2 SLP168 T01440089=
200705171152 METAR KATL 171152Z 33007KT 10SM FEW250 13/09 A3003 RMK AO2 SLP164 70004 T01280089 10150 20117 53013=
200705171052 METAR KATL 171052Z 34006KT 10SM FEW085 SCT250 12/08 A3001 RMK AO2 SLP159 ACC DSNT SE T01170083=
200705170952 METAR KATL 170952Z 32008KT 10SM CLR 12/09 A3000 RMK AO2 SLP154 T01170089=
200705170852 METAR KATL 170852Z 32007KT 10SM CLR 13/09 A2999 RMK AO2 SLP150 T01280089 55003=
200705170752 METAR KATL 170752Z 33007KT 10SM CLR 13/09 A2999 RMK AO2 SLP149 T01330094=
200705170652 METAR KATL 170652Z 32007KT 10SM CLR 14/10 A2999 RMK AO2 SLP151 T01390100=
200705170552 METAR KATL 170552Z 33007KT 10SM CLR 15/10 A3000 RMK AO2 SLP153 T01500100 10217 20150 56007=
200705170452 METAR KATL 170452Z COR 33006KT 10SM CLR 16/11 A3001 RMK AO2 SLP156 T01610106 402440161=
200705170352 METAR KATL 170352Z 33009KT 10SM CLR 17/11 A3001 RMK AO2 SLP156 T01720111=
200705170252 METAR KATL 170252Z 34011KT 10SM FEW018 SCT025 18/12 A3002 RMK AO2 SLP160 T01780117 53017=
200705170250 SPECI KATL 170250Z 35013KT 10SM FEW018 SCT025 18/12 A3002 RMK AO2=
200705170250 SPECI KATL 170250Z 35013KT 10SM FEW018 SCT025 18/12 A3002 RMK AO2=
200705170152 METAR KATL 170152Z 34017G20KT 10SM SCT015 BKN025 OVC045 20/16 A2999 RMK AO2 SLP149 T02000161=
200705170150 SPECI KATL 170150Z 33014KT 10SM SCT015 BKN025 OVC045 20/16 A2999 RMK AO2=
200705170150 SPECI KATL 170150Z 33014KT 10SM SCT015 BKN025 OVC045 20/16 A2999 RMK AO2=
200705170127 SPECI KATL 170127Z 34012KT 10SM FEW018 SCT025 OVC055 21/17 A2998 RMK AO2=
200705170127 SPECI KATL 170127Z 34012KT 10SM FEW018 SCT025 OVC055 21/17 A2998 RMK AO2=
200705170114 SPECI KATL 170114Z 31008KT 10SM FEW018 BKN025 BKN045 BKN200 21/17 A2998 RMK AO2=
200705170114 SPECI KATL 170114Z 31008KT 10SM FEW018 BKN025 BKN045 BKN200 21/17 A2998 RMK AO2=
200705170052 METAR KATL 170052Z 30005KT 10SM FEW018 SCT025TCU BKN110 BKN200 20/17 A2998 RMK AO2 SLP146 TCU N-NE AND SW-NW T02000172=
200705170032 SPECI KATL 170032Z 27007KT 9SM FEW015 BKN022 BKN100 BKN200 21/17 A2998 RMK AO2=
200705170032 SPECI KATL 170032Z 27007KT 9SM FEW015 BKN022 BKN100 BKN200 21/17 A2998 RMK AO2=
200705162352 METAR KATL 162352Z 28005KT 9SM FEW030 SCT060 BKN150 BKN200 21/18 A2997 RMK AO2 SLP142 CB DSNT N AND SE-S TCU DSNT NW 60004 T02110178 10244 20211 53001=
200705162252 METAR KATL 162252Z 32006KT 8SM FEW030CB BKN060 BKN075 OVC150 22/18 A2995 RMK AO2 RAE20 SLP135 CB VC S AND DSNT SW TCU VC N SHRA VC S P0003 T02170178=
200705162152 METAR KATL 162152Z 31005KT 9SM -RA SCT030TCU BKN050 BKN070 OVC150 22/17 A2996 RMK AO2 RAB20E32B50 SLP140 TCU OHD-W CB DSNT E-SE P0000 T02220172=
200705162052 METAR KATL 162052Z 23010KT 9SM BKN030CB BKN050 BKN070 OVC150 23/18 A2997 RMK AO2 SLP140 CB VC N-NE MOV E SHRA VC N-NE 60001 T02330178 56017=
200705161952 METAR KATL 161952Z 24011G18KT 9SM FEW030 SCT075 SCT100 BKN150 BKN250 24/16 A2998 RMK AO2 RAE02 SLP144 CB DSNT N-NE-E AND DSNT NW MOV E SHRA DSNT N-NE-E AND DSNT NW P0000 T02390161=
200705161852 METAR KATL 161852Z 25011G16KT 8SM -RA FEW030 BKN050 BKN080 OVC150 22/17 A3000 RMK AO2 RAB32 SLP153 VIS LWR NE-SE SHRA CB DSNT NE-SE AND DSNT NW MOV E P0001 T02220172=
200705161837 SPECI KATL 161837Z 24014G22KT 5SM RA FEW030CB BKN040 BKN080 OVC150 22/16 A3001 RMK AO2 RAB32 CB VC N MOV E P0001=
200705161837 SPECI KATL 161837Z 24014G22KT 5SM RA FEW030CB BKN040 BKN080 OVC150 22/16 A3001 RMK AO2 RAB32 CB VC N MOV E P0001=
200705161752 METAR KATL 161752Z 22009G17KT 8SM FEW035 SCT070 BKN080 BKN150 24/16 A3002 RMK AO2 SLP157 T02390156 10244 20183 58013=
200705161652 METAR KATL 161652Z 25007KT 9SM FEW040 BKN070 OVC150 22/17 A3004 RMK AO2 SLP166 T02220167=
200705161552 METAR KATL 161552Z 27007KT 8SM FEW040 BKN070 BKN150 23/17 A3005 RMK AO2 SLP169 T02330167=
200705161452 METAR KATL 161452Z COR 28006KT 6SM FU FEW030 BKN070 BKN120 OVC150 22/17 A3006 RMK AO2 SLP170 T02220167 55001=
200705161352 METAR KATL 161352Z VRB06KT 4SM FU BKN070 22/17 A3005 RMK AO2 SLP168 T02220167 $=
200705161252 METAR KATL 161252Z 20007KT 3SM FU FEW040 SCT065 SCT250 19/14 A3006 RMK AO2 SLP169 T01940144=
200705161152 METAR KATL 161152Z 18006KT 3SM FU FEW040 SCT250 18/13 A3006 RMK AO2 SLP170 T01830128 10211 20178 53002=
200705161052 METAR KATL 161052Z 19004KT 3SM FU FEW050 SCT200 BKN250 18/13 A3005 RMK AO2 SLP168 T01780128=
200705160952 METAR KATL 160952Z 20006KT 4SM FU SCT085 SCT200 BKN250 18/13 A3005 RMK AO2 SLP168 T01830133=
200705160852 METAR KATL 160852Z 18005KT 10SM FEW085 SCT200 BKN250 19/14 A3005 RMK AO2 SLP167 T01940139 56014=
200705160752 METAR KATL 160752Z 22003KT 9SM FEW065 SCT085 OVC200 19/13 A3005 RMK AO2 SLP169 T01940133=
200705160652 METAR KATL 160652Z 21004KT 10SM FEW065 BKN090 OVC200 21/13 A3007 RMK AO2 SLP174 T02060133=
200705160552 METAR KATL 160552Z 22004KT 10SM FEW060 SCT085 BKN250 21/13 A3009 RMK AO2 SLP182 T02110128 10256 20211 58001=
200705160452 METAR KATL 160452Z 00000KT 10SM FEW060 OVC085 22/12 A3010 RMK AO2 SLP185 T02170122 402720150=
200705160352 METAR KATL 160352Z 19004KT 10SM FEW065 BKN080 22/13 A3011 RMK AO2 SLP186 T02220128=
200705160252 METAR KATL 160252Z 16003KT 10SM FEW065 BKN080 23/12 A3010 RMK AO2 SLP184 T02330117 53009=
200705160152 METAR KATL 160152Z 18003KT 10SM FEW070 24/12 A3009 RMK AO2 SLP180 T02390117=
200705160052 METAR KATL 160052Z 18003KT 10SM FEW250 24/12 A3008 RMK AO2 SLP178 T02440122=
200705152352 METAR KATL 152352Z 18007KT 10SM FEW200 SCT250 26/12 A3007 RMK AO2 SLP176 T02560117 10272 20250 56020=
200705152252 METAR KATL 152252Z 17006KT 10SM FEW060 SCT200 BKN250 26/12 A3008 RMK AO2 SLP180 T02610117=
200705152152 METAR KATL 152152Z 19010KT 10SM FEW060 BKN200 BKN250 27/13 A3010 RMK AO2 SLP186 T02720128=
200705152052 METAR KATL 152052Z 22005KT 10SM FEW055 SCT200 BKN300 27/14 A3013 RMK AO2 SLP196 T02670144 56031=
200705151952 METAR KATL 151952Z VRB03KT 10SM FEW050 SCT200 BKN300 26/15 A3016 RMK AO2 SLP207 T02610150=
200705151852 METAR KATL 151852Z 17006KT 10SM FEW048 SCT150 SCT200 SCT300 26/15 A3019 RMK AO2 SLP217 T02610150=
200705151752 METAR KATL 151752Z 00000KT 10SM FEW048 SCT200 SCT300 26/14 A3023 RMK AO2 SLP228 T02610144 10261 20161 58015=
200705151652 METAR KATL 151652Z 13004KT 10SM FEW040 SCT200 BKN300 24/14 A3024 RMK AO2 SLP234 T02390144=
200705151552 METAR KATL 151552Z 19004KT 10SM FEW040 SCT200 BKN300 24/15 A3026 RMK AO2 SLP240 T02390150=
200705151452 METAR KATL 151452Z COR 17006KT 10SM FEW024 SCT200 BKN300 22/16 A3027 RMK AO2 SLP245 T02170139 50001=
200705151352 METAR KATL 151352Z 13004KT 10SM FEW015 SCT200 BKN300 20/14 A3028 RMK AO2 SLP245 T02000139=
200705151252 METAR KATL 151252Z 16008KT 9SM SCT008 SCT250 17/12 A3028 RMK AO2 SLP248 T01720122=
200705151205 SPECI KATL 151205Z 15005KT 10SM FEW008 SCT085 SCT250 17/11 A3027 RMK AO2 FU FEW008=
200705151205 SPECI KATL 151205Z 15005KT 10SM FEW008 SCT085 SCT250 17/11 A3027 RMK AO2 FU FEW008=
200705151152 METAR KATL 151152Z 13005KT 10SM FEW010 SCT085 SCT250 16/11 A3027 RMK AO2 SLP244 FU FEW010 T01610111 10189 20150 53011=
200705151052 METAR KATL 151052Z 12003KT 10SM FEW085 SCT250 16/09 A3025 RMK AO2 SLP238 T01560094=
200705150952 METAR KATL 150952Z 13005KT 10SM CLR 16/08 A3023 RMK AO2 SLP230 T01610083=
200705150852 METAR KATL 150852Z 13003KT 10SM CLR 16/08 A3024 RMK AO2 SLP233 T01610083 55003=
200705150752 METAR KATL 150752Z 12004KT 10SM CLR 17/08 A3023 RMK AO2 SLP230 T01720078=
200705150652 METAR KATL 150652Z 12004KT 10SM FEW085 18/07 A3023 RMK AO2 SLP232 T01830072=
200705150552 METAR KATL 150552Z 11006KT 10SM SCT085 19/07 A3025 RMK AO2 SLP235 T01890072 10239 20189 58001=
200705150452 METAR KATL 150452Z 12005KT 10SM FEW080 19/08 A3026 RMK AO2 SLP241 T01940078 403060178=
200705150352 METAR KATL 150352Z 11006KT 10SM CLR 20/08 A3026 RMK AO2 SLP239 T02000078=
200705150252 METAR KATL 150252Z 12007KT 10SM CLR 19/08 A3025 RMK AO2 SLP238 T01940078 53014=
200705150152 METAR KATL 150152Z 11008KT 10SM CLR 22/08 A3023 RMK AO2 SLP232 T02170078=
200705150052 METAR KATL 150052Z 11008KT 10SM CLR 23/08 A3022 RMK AO2 SLP226 T02280078=
200705142352 METAR KATL 142352Z 11008KT 10SM CLR 24/08 A3021 RMK AO2 SLP222 T02390083 10256 20233 56004=
200705142252 METAR KATL 142252Z 12008KT 10SM CLR 24/08 A3021 RMK AO2 SLP223 T02440083=
200705142152 METAR KATL 142152Z 13006KT 10SM CLR 25/09 A3021 RMK AO2 SLP223 T02500089=
200705142052 METAR KATL 142052Z 10008KT 10SM CLR 25/10 A3022 RMK AO2 SLP225 T02500100 56017=
200705141952 METAR KATL 141952Z 15009KT 10SM CLR 24/09 A3023 RMK AO2 SLP229 T02440094=
200705141852 METAR KATL 141852Z 14007G16KT 10SM CLR 24/10 A3025 RMK AO2 SLP236 T02440100=
200705141752 METAR KATL 141752Z 12010G15KT 10SM FEW070 24/11 A3027 RMK AO2 SLP243 T02390106 10239 20183 58005=
200705141652 METAR KATL 141652Z 11010KT 10SM FEW040 BKN070 BKN080 22/11 A3028 RMK AO2 SLP247 ACC NE-S T02170111=
200705141552 METAR KATL 141552Z 10010KT 10SM FEW035 SCT070 SCT100 BKN300 22/12 A3029 RMK AO2 SLP249 T02170117=
200705141452 METAR KATL 141452Z 13009G15KT 090V150 10SM FEW028 20/12 A3029 RMK AO2 SLP248 T02000117 51016=
200705141352 METAR KATL 141352Z 11011G17KT 8SM SCT024 BKN075 BKN250 19/12 A3028 RMK AO2 SLP245 T01890122=
200705141333 SPECI KATL 141333Z 11010G17KT 8SM BKN024 BKN075 BKN250 18/12 A3027 RMK AO2=
200705141333 SPECI KATL 141333Z 11010G17KT 8SM BKN024 BKN075 BKN250 18/12 A3027 RMK AO2=
200705141252 METAR KATL 141252Z 12011G20KT 8SM SCT024 BKN070 BKN250 18/12 A3027 RMK AO2 SLP241 T01830117=
200705141152 METAR KATL 141152Z 11015G23KT 7SM SCT020 SCT030 BKN055 BKN250 18/13 A3024 RMK AO2 SLP232 T01830128 10217 20178 53020=
200705141131 SPECI KATL 141131Z 12011G18KT 8SM SCT022 OVC030 18/13 A3023 RMK AO2 BINOVC=
200705141131 SPECI KATL 141131Z 12011G18KT 8SM SCT022 OVC030 18/13 A3023 RMK AO2 BINOVC=
200705141052 METAR KATL 141052Z 11011G20KT 8SM SCT022 OVC028 19/14 A3021 RMK AO2 SLP221 T01890139=
200705140952 METAR KATL 140952Z 10010KT 8SM BKN022 OVC055 19/15 A3018 RMK AO2 SLP211 T01890150=
200705140948 SPECI KATL 140948Z 09011KT 8SM BKN022 OVC055 19/15 A3018 RMK AO2=
200705140948 SPECI KATL 140948Z 09011KT 8SM BKN022 OVC055 19/15 A3018 RMK AO2=
200705140852 METAR KATL 140852Z 09011KT 8SM FEW100 SCT180 SCT250 19/14 A3017 RMK AO2 SLP206 T01890139 53008=
200705140752 METAR KATL 140752Z 10013G21KT 8SM FEW055 SCT075 SCT100 20/13 A3015 RMK AO2 SLP201 T02000133=
200705140652 METAR KATL 140652Z 11012G20KT 8SM SCT050 BKN085 21/14 A3015 RMK AO2 SLP199 T02060144=
200705140552 METAR KATL 140552Z 11011G17KT 7SM OVC070 22/15 A3014 RMK AO2 SLP196 T02170150 10278 20211 51018=
200705140452 METAR KATL 140452Z 11008KT 8SM SCT070 BKN150 22/15 A3013 RMK AO2 SLP194 T02220150 403000189=
200705140352 METAR KATL 140352Z 12012G16KT 8SM FEW070 BKN150 23/14 A3012 RMK AO2 SLP189 T02330144=
200705140252 METAR KATL 140252Z 06008KT 10SM BKN075 BKN150 24/09 A3008 RMK AO2 SLP177 T02440089 53027=
200705140152 METAR KATL 140152Z 35008KT 10SM BKN080 BKN090 BKN150 27/09 A3005 RMK AO2 SLP165 T02670089=
200705140052 METAR KATL 140052Z 34007KT 10SM BKN075 BKN095 BKN150 28/09 A3003 RMK AO2 SLP158 T02780094=
200705132352 METAR KATL 132352Z 28003KT 10SM BKN075 BKN090 BKN110 27/13 A3000 RMK AO2 SLP151 T02720128 10300 20272 53006=
200705132252 METAR KATL 132252Z 19003KT 10SM BKN085 28/13 A2999 RMK AO2 SLP146 T02780128=
200705132152 METAR KATL 132152Z 14004KT 10SM BKN080 BKN095 28/12 A2998 RMK AO2 SLP144 T02830117=
200705132052 METAR KATL 132052Z 16005KT 10SM BKN075TCU BKN090 29/12 A2998 RMK AO2 SLP144 TCU N-OHD-S T02940117 57015=
200705131952 METAR KATL 131952Z 19006KT 10SM BKN080 28/11 A3000 RMK AO2 SLP148 T02830111=
200705131852 METAR KATL 131852Z VRB03KT 8SM SCT065 29/12 A3002 RMK AO2 SLP154 T02940117=
200705131752 METAR KATL 131752Z 06003KT 10SM SCT060 SCT250 28/12 A3003 RMK AO2 SLP159 T02780117 10294 20200 58008=
200705131652 METAR KATL 131652Z 05009KT 10SM FEW055 SCT250 28/13 A3005 RMK AO2 SLP164 T02830133=
200705131552 METAR KATL 131552Z 06006G14KT 10SM FEW055 SCT250 28/14 A3006 RMK AO2 SLP169 T02780139=
200705131452 METAR KATL 131452Z 04006KT 9SM FEW250 27/14 A3005 RMK AO2 SLP167 T02670144 51015=
200705131352 METAR KATL 131352Z 02005KT 9SM FEW250 24/16 A3004 RMK AO2 SLP165 T02440156=
200705131252 METAR KATL 131252Z 35006KT 8SM FEW250 22/16 A3002 RMK AO2 SLP159 T02220161=
200705131152 METAR KATL 131152Z 33005KT 8SM FEW250 21/16 A3001 RMK AO2 SLP154 70016 T02060161 10211 20189 53015=
200705131052 METAR KATL 131052Z 34005KT 8SM SCT250 19/16 A2998 RMK AO2 SLP146 T01940161=
200705130952 METAR KATL 130952Z 34005KT 10SM SCT250 19/16 A2996 RMK AO2 SLP139 T01940161=
200705130852 METAR KATL 130852Z 35005KT 8SM FEW250 19/17 A2996 RMK AO2 SLP136 T01940172 55007=
200705130752 METAR KATL 130752Z 32003KT 9SM FEW250 19/17 A2996 RMK AO2 SLP134 T01940172=
200705130652 METAR KATL 130652Z 33003KT 8SM BKN180 20/18 A2997 RMK AO2 SLP138 T02000178=
200705130552 METAR KATL 130552Z 00000KT 8SM FEW120 BKN180 21/18 A2998 RMK AO2 SLP143 60000 T02060178 10217 20194 50002=
200705130452 METAR KATL 130452Z 02004KT 8SM SCT120 BKN180 OVC250 22/18 A3000 RMK AO2 SLP147 T02170183 403110183=
200705130352 METAR KATL 130352Z 34005KT 8SM BKN120 OVC250 21/18 A2998 RMK AO2 SLP144 T02060178=
200705130252 METAR KATL 130252Z 33005KT 8SM FEW047 SCT080 BKN110 OVC250 21/18 A2998 RMK AO2 RAB30E50 SLP143 P0000 60000 T02060183 50010=
200705130152 METAR KATL 130152Z 35009KT 8SM FEW060 BKN120 OVC250 22/17 A2998 RMK AO2 SLP144 T02170172=
200705130052 METAR KATL 130052Z 00000KT 8SM FEW080 SCT120 OVC250 21/17 A2997 RMK AO2 SLP140 LGT DSNT N T02110172=
200705122352 METAR KATL 122352Z 00000KT 10SM FEW019 SCT060 SCT110 OVC250 21/17 A2995 RMK AO2 TSE36RAE36 SLP135 LTG DSNT SE-SW TS MOV SW 60016 P0000 T02110172 10311 20200 50021=
200705122337 SPECI KATL 122337Z 20006KT 10SM FEW027 SCT065 BKN080 OVC250 21/17 A2995 RMK AO2 TSE36RAE36 LTG DSNT SW TS MOV SW P0000=
200705122337 SPECI KATL 122337Z 20006KT 10SM FEW027 SCT065 BKN080 OVC250 21/17 A2995 RMK AO2 TSE36RAE36 LTG DSNT SW TS MOV SW P0000=
200705122252 METAR KATL 122252Z 08004KT 7SM -TSRA FEW022CB BKN060 OVC110 21/18 A2995 RMK AO2 RAB14 SLP135 OCNL LTGICCACG TS OHD-S-W MOV S P0016 T02060178=
200705122152 METAR KATL 122152Z 17007G21KT 7SM TS BKN055CB BKN250 24/16 A2994 RMK AO2 WSHFT 2136 TSB27 PRESRR SLP132 FRQ LTGICCG TS OHD-NE AND VC SE MOV S SHRA NE T02390161=
200705122129 SPECI KATL 122129Z 32007KT 7SM TS SCT055CB BKN250 29/16 A2989 RMK AO2 TSB27 OCNL LTGICCG TS VC E-SE MOV S=
200705122129 SPECI KATL 122129Z 32007KT 7SM TS SCT055CB BKN250 29/16 A2989 RMK AO2 TSB27 OCNL LTGICCG TS VC E-SE MOV S=
200705122052 METAR KATL 122052Z 31008KT 8SM FEW060TCU BKN250 31/16 A2988 RMK AO2 SLP109 TCU VC N-E-S CB DSNT NW-NE T03060161 56024=
200705121952 METAR KATL 121952Z 35008KT 9SM SCT055TCU SCT120 SCT250 31/17 A2990 RMK AO2 SLP115 TCU OHD-NE-SE T03060167=
200705121852 METAR KATL 121852Z 35008KT 10SM SCT055TCU BKN150 BKN200 30/17 A2992 RMK AO2 SLP123 CB DSNT SE MOV E TCU OHD AND VC W AND DSNT ALQDS T03000167=
200705121752 METAR KATL 121752Z 00000KT 10SM SCT050 BKN150 BKN200 29/17 A2996 RMK AO2 SLP134 TCU DSNT N-NE-E-SE AND W T02890167 10294 20189 58006=
200705121652 METAR KATL 121652Z 29006KT 9SM FEW045 SCT150 BKN200 28/17 A2997 RMK AO2 SLP139 T02830172=
200705121552 METAR KATL 121552Z 22003KT 9SM FEW150 BKN200 BKN250 27/18 A2998 RMK AO2 SLP143 T02720178=
200705121452 METAR KATL 121452Z 00000KT 8SM SCT150 BKN200 BKN250 25/18 A2998 RMK AO2 SLP142 T02500183 53007=
200705121352 METAR KATL 121352Z 29004KT 6SM HZ SCT120 SCT180 BKN200 BKN250 23/18 A2997 RMK AO2 SLP140 T02280183=
200705121252 METAR KATL 121252Z 31003KT 5SM HZ BKN180 21/18 A2996 RMK AO2 SLP138 T02060178=
200705121152 METAR KATL 121152Z 00000KT 4SM BR FEW150 SCT250 19/17 A2995 RMK AO2 SLP135 70086 T01890167 10206 20183 53014=
200705121052 METAR KATL 121052Z 31004KT 5SM BR FEW180 SCT250 18/17 A2993 RMK AO2 SLP125 T01830167=
200705120952 METAR KATL 120952Z 31003KT 6SM BR FEW180 19/17 A2991 RMK AO2 SLP120 T01890167=
200705120852 METAR KATL 120852Z 32003KT 7SM SCT180 19/17 A2991 RMK AO2 SLP119 T01940167 58007=
200705120752 METAR KATL 120752Z 31003KT 7SM SCT180 19/17 A2992 RMK AO2 SLP122 T01890172=
200705120652 METAR KATL 120652Z 34004KT 8SM SCT120 20/17 A2993 RMK AO2 SLP124 T02000172=
200705120552 METAR KATL 120552Z VRB03KT 8SM BKN120 BKN150 21/17 A2993 RMK AO2 SLP126 60086 T02060172 10261 20200 55009=
200705120452 METAR KATL 120452Z 36010KT 10SM FEW035 BKN150 BKN200 22/17 A2993 RMK AO2 RAE04 SLP123 P0000 T02170167 403110194=
200705120352 METAR KATL 120352Z 35005KT 9SM -RA SCT035 BKN110 OVC150 21/18 A2995 RMK AO2 TSE10 SLP133 TS DSIPTD P0004 T02060183=
200705120311 SPECI KATL 120311Z 33006KT 8SM -RA SCT040 BKN070 OVC110 21/18 A2996 RMK AO2 TSE10 TS DSIPTD P0001=
200705120311 SPECI KATL 120311Z 33006KT 8SM -RA SCT040 BKN070 OVC110 21/18 A2996 RMK AO2 TSE10 TS DSIPTD P0001=
200705120252 METAR KATL 120252Z 33006KT 10SM -TSRA FEW040CB SCT070 BKN110 OVC150 21/18 A2996 RMK AO2 SLP136 OCNL LTGIC TS VC NE MOV SW P0000 60082 T02060178 51019=
200705120152 METAR KATL 120152Z 32004KT 9SM -TSRA FEW040CB SCT075 BKN120 OVC150 21/18 A2996 RMK AO2 SLP137 OCNL LTGCCGICCA TS VC SE-SW MOV SW P0000 T02060183=
200705120052 METAR KATL 120052Z 23004G20KT 6SM -TSRA FEW015 SCT040CB OVC060 23/14 A2993 RMK AO2 WSHFT 0000 SLP126 CONS LTGCGICCA TS SE-SW-W MOV SW P0082 T02280144=
200705120032 SPECI KATL 120032Z 16007KT 3SM +TSRA FEW010 BKN040CB OVC060 23/17 A2992 RMK AO2 WSHFT 0000 FRQ LTGCGICCA TS OHD-ALQDS MOV SW P0068=
200705120032 SPECI KATL 120032Z 16007KT 3SM +TSRA FEW010 BKN040CB OVC060 23/17 A2992 RMK AO2 WSHFT 0000 FRQ LTGCGICCA TS OHD-ALQDS MOV SW P0068=
200705120027 SPECI KATL 120027Z VRB06KT 2SM R09R/4500VP6000FT +TSRA FEW010 BKN040CB OVC060 23/16 A2992 RMK AO2 WSHFT 0000 FRQ LTGCGICCA TS OHD-ALQDS MOV SW P0059=
200705120027 SPECI KATL 120027Z VRB06KT 2SM R09R/4500VP6000FT +TSRA FEW010 BKN040CB OVC060 23/16 A2992 RMK AO2 WSHFT 0000 FRQ LTGCGICCA TS OHD-ALQDS MOV SW P0059=
200705120016 SPECI KATL 120016Z 08010G20KT 040V100 1SM R09R/P6000FT +TSRA FEW010 OVC040CB 21/17 A2992 RMK AO2 WSHFT 0000 CONS LTGCGICCA TS OHD-ALQDS MOV SW P0005=
200705120016 SPECI KATL 120016Z 08010G20KT 040V100 1SM R09R/P6000FT +TSRA FEW010 OVC040CB 21/17 A2992 RMK AO2 WSHFT 0000 CONS LTGCGICCA TS OHD-ALQDS MOV SW P0005=
200705120008 SPECI KATL 120008Z 04014G23KT 3/4SM R09R/P6000FT +TSRA FEW010 OVC040CB 22/18 A2991 RMK AO2 WSHFT 2352 CONS LTGCGICCA TS OHD-ALQDS MOV SW P0002=
200705120008 SPECI KATL 120008Z 04014G23KT 3/4SM R09R/P6000FT +TSRA FEW010 OVC040CB 22/18 A2991 RMK AO2 WSHFT 2352 CONS LTGCGICCA TS OHD-ALQDS MOV SW P0002=
200705112355 SPECI KATL 112355Z 32013KT 1SM R09R/P6000FT +TSRA BKN045CB OVC060 26/17 A2990 RMK AO2 FRQ LTGCGIC TS NE-OHD-SW MOV SW P0001=
200705112355 SPECI KATL 112355Z 32013KT 1SM R09R/P6000FT +TSRA BKN045CB OVC060 26/17 A2990 RMK AO2 FRQ LTGCGIC TS NE-OHD-SW MOV SW P0001=
200705112352 METAR KATL 112352Z 32014G19KT 3SM TSRA BKN050CB BKN080 OVC110 26/17 A2990 RMK AO2 WSHFT 2334 RAB34 SLP116 FRQ LTGCGIC TS NE-OHD AND DSNT SE MOV SW VIS N-E 1 1/2 P0000 60000 T02610167 10311 20261 53007=
200705112252 METAR KATL 112252Z 19004KT 9SM TS FEW060CB SCT090 SCT200 30/14 A2987 RMK AO2 TSB52 SLP103 FRQ LTGCG TS VC N-NE MOV STNRY TCU VC SW T03000139=
200705112152 METAR KATL 112152Z 16004KT 9SM SCT065TCU SCT090 BKN120 30/13 A2988 RMK AO2 SLP107 TCU OHD-W AND VC NW-N T03000133=
200705112052 METAR KATL 112052Z 19005KT 10SM SCT065TCU BKN080 30/14 A2988 RMK AO2 SLP107 TCU VC SW-NW MDT CU ALQDS T03000139 56018=
200705111952 METAR KATL 111952Z 15004KT 10SM SCT065 31/16 A2989 RMK AO2 SLP112 T03060161=
200705111852 METAR KATL 111852Z 00000KT 10SM SCT060 SCT080 SCT110 31/16 A2992 RMK AO2 SLP119 T03060161=
200705111752 METAR KATL 111752Z 05006KT 10SM FEW060 BKN110 31/17 A2994 RMK AO2 SLP125 T03060167 10306 20217 58008=
200705111652 METAR KATL 111652Z 00000KT 10SM FEW050 SCT120 SCT180 29/17 A2995 RMK AO2 SLP132 T02940167=
200705111552 METAR KATL 111552Z 14006KT 10SM FEW100 SCT120 SCT180 28/17 A2997 RMK AO2 SLP136 T02780167=
200705111452 METAR KATL 111452Z 10003KT 10SM FEW120 SCT180 27/16 A2996 RMK AO2 SLP135 T02670161 51009=
200705111352 METAR KATL 111352Z 00000KT 10SM FEW120 24/15 A2996 RMK AO2 SLP135 T02440150=
200705111252 METAR KATL 111252Z 15006KT 9SM FEW250 23/15 A2995 RMK AO2 SLP130 T02280150=
200705111152 METAR KATL 111152Z 12004KT 10SM FEW120 SCT250 22/14 A2993 RMK AO2 SLP126 T02170144 10244 20194 53005=
200705111052 METAR KATL 111052Z 07005KT 10SM FEW120 SCT250 20/14 A2993 RMK AO2 SLP124 T02000144=
200705110952 METAR KATL 110952Z 09004KT 10SM FEW120 21/14 A2992 RMK AO2 SLP120 T02110139=
200705110852 METAR KATL 110852Z 00000KT 10SM SCT075 BKN120 22/14 A2992 RMK AO2 SLP120 T02220144 56005=
200705110752 METAR KATL 110752Z 00000KT 10SM SCT075 BKN110 23/14 A2992 RMK AO2 SLP120 T02280139=
200705110652 METAR KATL 110652Z 11003KT 10SM BKN070 BKN100 23/14 A2992 RMK AO2 SLP122 T02280144=
200705110552 METAR KATL 110552Z 00000KT 10SM BKN070 OVC100 24/13 A2994 RMK AO2 SLP126 T02440128 10278 20239 58002=
200705110452 METAR KATL 110452Z 00000KT 10SM SCT075 BKN100 OVC140 24/14 A2994 RMK AO2 SLP126 T02390139 403060172=
200705110352 METAR KATL 110352Z 00000KT 10SM FEW070 OVC110 24/14 A2994 RMK AO2 SLP129 T02440139=
200705110252 METAR KATL 110252Z 17003KT 10SM FEW075 OVC095 25/13 A2994 RMK AO2 SLP129 T02500133 51017=
200705110152 METAR KATL 110152Z 15003KT 10SM BKN100 26/13 A2993 RMK AO2 SLP126 T02560133=
200705110052 METAR KATL 110052Z 14003KT 10SM FEW065 27/13 A2991 RMK AO2 SLP118 T02670128=
200705102352 METAR KATL 102352Z 14003KT 10SM FEW070 28/13 A2989 RMK AO2 SLP112 T02780128 10306 20272 56006=
200705102252 METAR KATL 102252Z 13007KT 10SM SCT070 SCT085 28/12 A2989 RMK AO2 SLP113 MDT CU SW-OHD-N T02830117=
200705102152 METAR KATL 102152Z 07004KT 10SM FEW070 SCT085 29/12 A2990 RMK AO2 SLP115 T02940117=
200705102052 METAR KATL 102052Z VRB05KT 10SM BKN070 30/13 A2991 RMK AO2 SLP119 T03000133 58021=
200705101952 METAR KATL 101952Z 01007KT 340V060 10SM BKN065 30/13 A2994 RMK AO2 SLP128 T03000128=
200705101852 METAR KATL 101852Z 00000KT 10SM SCT060 SCT220 28/13 A2995 RMK AO2 SLP133 T02780128=
200705101752 METAR KATL 101752Z COR 00000KT 10SM SCT055 SCT220 28/13 A2997 RMK AO2 SLP140 T02780133 10283 20194 58013=
200705101652 METAR KATL 101652Z 33003KT 10SM FEW050 SCT220 SCT300 28/16 A2999 RMK AO2 SLP146 T02780156=
200705101552 METAR KATL 101552Z 03004KT 10SM FEW040 SCT220 BKN320 27/17 A3001 RMK AO2 SLP152 T02670167=
200705101452 METAR KATL 101452Z VRB05KT 10SM FEW200 SCT220 BKN320 24/17 A3001 RMK AO2 SLP154 T02440172 51004=
200705101352 METAR KATL 101352Z 08006KT 10SM FEW200 SCT220 BKN320 23/16 A3001 RMK AO2 SLP153 T02280161=
200705101252 METAR KATL 101252Z 08005KT 10SM SCT250 21/16 A3001 RMK AO2 SLP153 T02110156 $=
200705101152 METAR KATL 101152Z 08006KT 10SM FEW090 SCT250 19/15 A3000 RMK AO2 SLP151 T01940150 10206 20172 53010=
200705101052 METAR KATL 101052Z 08006KT 10SM FEW090 SCT250 18/14 A2998 RMK AO2 SLP144 T01830139=
200705100952 METAR KATL 100952Z 07006KT 10SM FEW090 SCT250 18/14 A2998 RMK AO2 SLP141 T01830139=
200705100852 METAR KATL 100852Z 08006KT 10SM FEW090 SCT250 18/14 A2997 RMK AO2 SLP140 T01830139 56004=
200705100752 METAR KATL 100752Z 07008KT 10SM FEW090 SCT250 19/14 A2997 RMK AO2 SLP140 T01890139=
200705100652 METAR KATL 100652Z 09007KT 10SM FEW090 SCT250 19/14 A2998 RMK AO2 SLP141 T01940139=
200705100552 METAR KATL 100552Z 07006KT 10SM FEW090 SCT250 21/14 A2998 RMK AO2 SLP144 T02060139 10261 20200 58002=
200705100452 METAR KATL 100452Z 07007KT 10SM SCT090 22/13 A2999 RMK AO2 SLP145 T02170133 402940167=
200705100352 METAR KATL 100352Z 08006KT 10SM SCT085 22/13 A2999 RMK AO2 SLP146 T02170133=
200705100252 METAR KATL 100252Z 08007KT 10SM BKN095 22/13 A2999 RMK AO2 SLP147 T02170133 51020=
200705100152 METAR KATL 100152Z 10006KT 10SM FEW250 23/13 A2997 RMK AO2 SLP141 T02330133=
200705100052 METAR KATL 100052Z 10008KT 10SM FEW250 24/13 A2995 RMK AO2 SLP133 T02440128=
200705092352 METAR KATL 092352Z 08012KT 10SM FEW250 26/12 A2993 RMK AO2 SLP126 T02610117 10294 20261 55005=
200705092252 METAR KATL 092252Z 07010KT 10SM FEW250 27/11 A2993 RMK AO2 SLP126 T02720106=
200705092152 METAR KATL 092152Z 08011KT 10SM FEW070 28/11 A2992 RMK AO2 SLP124 T02830106=
200705092052 METAR KATL 092052Z 03009KT 10SM FEW075 SCT240 29/09 A2994 RMK AO2 SLP130 T02890094 56018=
200705091952 METAR KATL 091952Z 36013G19KT 10SM FEW080 28/08 A2996 RMK AO2 SLP135 T02830078=
200705091852 METAR KATL 091852Z 07004G21KT 10SM FEW040 SCT080 28/08 A2997 RMK AO2 SLP141 T02780078=
200705091752 METAR KATL 091752Z 03011KT 360V060 10SM FEW040 SCT080 28/07 A3000 RMK AO2 SLP149 T02780067 10283 20183 58019=
200705091652 METAR KATL 091652Z 02009KT 10SM FEW070 27/08 A3002 RMK AO2 SLP157 T02670083=
200705091552 METAR KATL 091552Z 05012KT 10SM FEW030 SCT055 25/11 A3004 RMK AO2 SLP164 T02500106=
200705091452 METAR KATL 091452Z 05010KT 10SM FEW040 23/13 A3005 RMK AO2 SLP169 T02330128 50004=
200705091352 METAR KATL 091352Z 05013KT 10SM FEW030 22/14 A3005=
200705091252 METAR KATL 091252Z 05012KT 10SM FEW060 20/12 A3005 RMK AO2 SLP169 T02000122=
200705091152 METAR KATL 091152Z 06012KT 10SM CLR 18/12 A3004 RMK AO2 SLP166 T01830122 10200 20172 53014=
200705091052 METAR KATL 091052Z 05009KT 10SM CLR 17/12 A3002 RMK AO2 SLP157 T01720122=
200705090952 METAR KATL 090952Z 05009KT 10SM FEW100 18/12 A3001 RMK AO2 SLP153 T01780122=
200705090752 METAR KATL 090752Z 05010KT 10SM CLR 18/12 A3000 RMK AO2 SLP149 T01830117=
200705090652 METAR KATL 090652Z 04011KT 10SM CLR 19/12 A3000 RMK AO2 SLP152 T01940117=
200705090552 METAR KATL 090552Z 01007KT 10SM CLR 20/11 A3000 RMK AO2 SLP152 T02000111 10250 20194 55006=
200705090452 METAR KATL 090452Z 06008KT 10SM CLR 19/11 A3000 RMK AO2 SLP152 T01940111 402720117=
200705090352 METAR KATL 090352Z 07009KT 10SM CLR 21/11 A3001 RMK AO2 SLP154 T02060111=
200705090252 METAR KATL 090252Z 06010KT 10SM CLR 22/11 A3002 RMK AO2 SLP159 T02170111 51005=
200705090152 METAR KATL 090152Z 07008KT 10SM FEW050 22/11 A3002 RMK AO2 SLP159 T02220111=
200705090052 METAR KATL 090052Z 08008KT 10SM CLR 23/11 A3001 RMK AO2 SLP157 T02280106=
200705082252 METAR KATL 082252Z 05011KT 10SM FEW065 27/07 A3000 RMK AO2 SLP154 T02670072=
200705082152 METAR KATL 082152Z 04011KT 10SM FEW065 27/06 A3001 RMK AO2 SLP155 T02720056=
200705082052 METAR KATL 082052Z 34007G14KT 320V030 10SM FEW080 26/04 A3002 RMK AO2 SLP159 T02610039 58023=
200705081952 METAR KATL 081952Z 36008G14KT 340V040 10SM FEW050 SCT080 26/07 A3004 RMK AO2 SLP166 T02610067=
200705081852 METAR KATL 081852Z 05010G16KT 10SM FEW050 26/07 A3007 RMK AO2 SLP176 T02560072=
200705081752 METAR KATL 081752Z 05011G16KT 10SM FEW050 25/06 A3009 RMK AO2 SLP182 T02500056 10250 20133 58022=
200705081652 METAR KATL 081652Z 02010G18KT 10SM FEW050 23/03 A3012 RMK AO2 SLP194 T02330028=
200705081452 METAR KATL 081452Z 06012KT 10SM FEW030 20/M01 A3015 RMK AO2 SLP205 T02001011 50005=
200705081352 METAR KATL 081352Z 07015G19KT 10SM FEW180 SCT250 18/M03 A3016 RMK AO2 SLP208 T01831028=
200705081252 METAR KATL 081252Z 04014G20KT 10SM FEW250 16/M01 A3018 RMK AO2 SLP214 T01561011=
200705081152 METAR KATL 081152Z 04012KT 10SM CLR 13/M01 A3014 RMK AO2 SLP201 T01331006 10144 20117 51002 $=
200705081052 METAR KATL 081052Z 05011KT 10SM FEW250 13/00 A3013 RMK AO2 SLP199 T01280000 $=
200705080952 METAR KATL 080952Z 04007KT 10SM FEW250 13/01 A3014 RMK AO2 SLP202 T01280006 $=
200705080852 METAR KATL 080852Z 08006KT 10SM SCT250 12/01 A3013 RMK AO2 SLP199 T01170011 58009 $=
200705080752 METAR KATL 080752Z 07005KT 10SM SCT250 13/01 A3014 RMK AO2 SLP204 T01330006 $=
200705080652 METAR KATL 080652Z 07008KT 040V100 10SM SCT250 13/02 A3016 RMK AO2 SLP208 T01330017 $=
200705080552 METAR KATL 080552Z 09009KT 10SM BKN250 13/02 A3016 RMK AO2 SLP210 T01330022 10211 20133 58007 $=
200705080452 METAR KATL 080452Z 07007KT 10SM SCT250 14/02 A3018 RMK AO2 SLP218 T01440022 402330111 $=
200705080352 METAR KATL 080352Z 08006KT 10SM SCT250 16/02 A3019 RMK AO2 SLP221 T01560017 $=
200705080252 METAR KATL 080252Z 09005KT 10SM FEW250 17/01 A3018 RMK AO2 SLP217 T01670011 53014 $=
200705080152 METAR KATL 080152Z 11005KT 10SM FEW250 19/01 A3016 RMK AO2 SLP212 T01890006 $=
200705080052 METAR KATL 080052Z 10007KT 10SM FEW250 19/01 A3014 RMK AO2 SLP205 T01890011 $=
200705072352 METAR KATL 072352Z 09008KT 10SM FEW250 21/01 A3014 RMK AO2 SLP202 T02060011 10233 20194 56011 $=
200705072252 METAR KATL 072252Z 05007KT 10SM FEW250 23/M01 A3014 RMK AO2 SLP204 T02281006 $=
200705072152 METAR KATL 072152Z 05005G15KT 10SM FEW250 23/M01 A3016=
200705072052 METAR KATL 072052Z 07007KT 10SM FEW250 22/00 A3017=
200705071952 METAR KATL 071952Z 08010KT 010V130 10SM FEW250 22/01 A3018 RMK AO2 SLP217 T02170011 $=
200705071852 METAR KATL 071852Z 08007KT 10SM FEW250 21/M01 A3021 RMK AO2 SLP224 T02061006=
200705071752 METAR KATL 071752Z 09009KT 10SM FEW250 19/M01 A3024=
200705071652 METAR KATL 071652Z 10011KT 10SM FEW250 18/M01 A3027 RMK AO2 SLP246 T01831011=
200705071552 METAR KATL 071552Z 09011G17KT 10SM FEW250 17/M02 A3030 RMK AO2 SLP255 T01671022=
200705071452 METAR KATL 071452Z 09013G19KT 10SM FEW250 15/M03 A3032 RMK AO2 SLP263 T01501033 58006=
200705071352 METAR KATL 071352Z 09017G23KT 10SM FEW060 14/M03 A3033 RMK AO2 SLP267 T01441033=
200705071252 METAR KATL 071252Z 09014G24KT 10SM FEW060 12/M02 A3033 RMK AO2 SLP266 T01221022=
200705071152 METAR KATL 071152Z COR 08015KT 10SM FEW060 11/M02 A3033 RMK AO2 SLP270 T01111017 10167 20111 51014 $=
200705071052 METAR KATL 071052Z 09014KT 10SM BKN065 12/M02 A3033 RMK AO2 SLP266 T01171022 $=
200705070952 METAR KATL 070952Z 08014G20KT 10SM BKN060 12/M02 A3032 RMK AO2 SLP262 T01171022 $=
200705070852 METAR KATL 070852Z 07017KT 10SM FEW060 13/M02 A3029 RMK AO2 SLP254 T01331017 53006 $=
200705070752 METAR KATL 070752Z COR 09012G17KT 10SM FEW060 14/M02 A3027 RMK AO2 SLP245 T01391022 $=
200705070652 METAR KATL 070652Z 09013KT 10SM FEW060 16/M03 A3028 RMK AO2 SLP246 T01561028 $=
200705070552 METAR KATL 070552Z 10019G25KT 10SM FEW060 BKN075 17/M02 A3028 RMK AO2 PK WND 08029/0539 SLP247 T01671022 10222 20144 51023 $=
200705070452 METAR KATL 070452Z 08020G26KT 10SM BKN060 BKN075 18/M01 A3027 RMK AO2 PK WND 08026/0443 SLP243 T01831006 402560144 $=
200705070352 METAR KATL 070352Z 10012G22KT 10SM BKN060 19/06 A3025=
200705070252 METAR KATL 070252Z 10016G22KT 9SM BKN050 BKN150 18/11 A3021 RMK AO2 SLP223 T01830106 53028 $=
200705070152 METAR KATL 070152Z 11010G16KT 9SM SCT041 BKN050 BKN070 21/13 A3018 RMK AO2 SLP214 T02110133 $=
200705070052 METAR KATL 070052Z 11007KT 9SM OVC046 22/14 A3015 RMK AO2 SLP203 T02170139 $=
200705062352 METAR KATL 062352Z 10010KT 9SM BKN040 22/14 A3012 RMK AO2 SLP194 T02220139 10256 20222 53009 $=
200705062252 METAR KATL 062252Z 12011KT 10SM BKN038 23/14 A3011=
200705062152 METAR KATL 062152Z 09011KT 10SM BKN036 24/14 A3010 RMK AO2 SLP186 BKN036 V SCT T02390144 $=
200705062052 METAR KATL 062052Z 06011KT 10SM SCT035 24/14 A3009 RMK AO2 SLP185 T02440144 58007 $=
200705061952 METAR KATL 061952Z 09009KT 10SM FEW036 25/15 A3010 RMK AO2 SLP188 T02500150 $=
200705061852 METAR KATL 061852Z 07011G16KT 10SM FEW055 25/15 A3012 RMK AO2 SLP192 T02500150 $=
200705061752 METAR KATL 061752Z 09013KT 10SM FEW035 BKN046 BKN060 24/15 A3012 RMK AO2 SLP193 T02440150 10250 20161 50001 $=
200705061652 METAR KATL 061652Z 12008KT 9SM BKN030 BKN050 25/16 A3012 RMK AO2 SLP193 T02500156 $=
200705061552 METAR KATL 061552Z 07006KT 7SM FEW022 BKN060 23/16 A3012 RMK AO2 SLP193 T02330156 $=
200705061452 METAR KATL 061452Z VRB06KT 5SM HZ FEW016 SCT055 BKN100 22/17 A3012=
200705061415 SPECI KATL 061415Z 31003KT 4SM HZ FEW008 SCT046 19/16 A3009 RMK AO2 $=
200705061415 SPECI KATL 061415Z 31003KT 4SM HZ FEW008 SCT046 19/16 A3009 RMK AO2 $=
200705061352 METAR KATL 061352Z 34006KT 2 1/2SM HZ SCT008 BKN044 19/16 A3009 RMK AO2 SFC VIS 4 SLP186 T01890156=
200705061324 SPECI KATL 061324Z 03005KT 2 1/2SM HZ SCT004 BKN046 18/16 A3009 RMK AO2 SFC VIS 3=
200705061324 SPECI KATL 061324Z 03005KT 2 1/2SM HZ SCT004 BKN046 18/16 A3009 RMK AO2 SFC VIS 3=
200705061252 METAR KATL 061252Z 02006KT 2SM BR SCT004 SCT037 BKN046 17/15 A3008 RMK AO2 SFC VIS 2 1/2 SLP183 T01720150 $=
200705061239 SPECI KATL 061239Z 01006KT 1 1/2SM BR SCT004 BKN035 BKN046 17/15 A3008 RMK AO2 SFC VIS 1 3/4 $=
200705061239 SPECI KATL 061239Z 01006KT 1 1/2SM BR SCT004 BKN035 BKN046 17/15 A3008 RMK AO2 SFC VIS 1 3/4 $=
200705061216 SPECI KATL 061216Z 02005KT 1 1/2SM BR BKN004 BKN046 17/14 A3008 RMK AO2 SFC VIS 2 $=
200705061216 SPECI KATL 061216Z 02005KT 1 1/2SM BR BKN004 BKN046 17/14 A3008 RMK AO2 SFC VIS 2 $=
200705061152 METAR KATL 061152Z 02003KT 1/8SM BR OVC004 16/14 A3007 RMK AO2 SFC VIS 2 1/2 SLP179 60099 70099 T01610144 10161 20156 53007 $=
200705061130 SPECI KATL 061130Z 06006KT 1/8SM BR OVC004 16/14 A3007 RMK AO2 SFC VIS 2 1/2 $=
200705061130 SPECI KATL 061130Z 06006KT 1/8SM BR OVC004 16/14 A3007 RMK AO2 SFC VIS 2 1/2 $=
200705061052 METAR KATL 061052Z 04005KT 1 1/2SM BR OVC004 16/14 A3006=
200705060952 METAR KATL 060952Z 05009KT 4SM BR BKN025 OVC032 16/14 A3003 RMK AO2 RAE00 SLP165 P0000 T01610144 $=
200705060852 METAR KATL 060852Z 04005KT 4SM -RA BR SCT005 BKN031 OVC060 16/14 A3005 RMK AO2 RAE09B45 SLP170 P0000 60099 T01610144 56008 $=
200705060820 SPECI KATL 060820Z 01004KT 4SM BR BKN005 BKN036 OVC065 16/14 A3006 RMK AO2 RAE09 CIG 003V010 P0000 $=
200705060820 SPECI KATL 060820Z 01004KT 4SM BR BKN005 BKN036 OVC065 16/14 A3006 RMK AO2 RAE09 CIG 003V010 P0000 $=
200705060752 METAR KATL 060752Z 07004KT 4SM -RA BR FEW002 SCT007 OVC060 16/14 A3005=
200705060745 SPECI KATL 060745Z 09003KT 3SM -RA BR BKN005 OVC060 16/14 A3005 RMK AO2 TSB14E42 OCNL LTGIC TS OVH MOV SE P0097 $=
200705060745 SPECI KATL 060745Z 09003KT 3SM -RA BR BKN005 OVC060 16/14 A3005 RMK AO2 TSB14E42 OCNL LTGIC TS OVH MOV SE P0097 $=
200705060737 SPECI KATL 060737Z 09005KT 2SM TSRA BR OVC004CB 16/14 A3005 RMK AO2 TSB14 OCNL LTGIC TS OVH MOV SE P0093 $=
200705060737 SPECI KATL 060737Z 09005KT 2SM TSRA BR OVC004CB 16/14 A3005 RMK AO2 TSB14 OCNL LTGIC TS OVH MOV SE P0093 $=
200705060724 SPECI KATL 060724Z 00000KT 1/2SM R09R/1800V4500FT +TSRA FG OVC004CB 16/14 A3005 RMK AO2 TSB14 OCNL LTGIC TS OVH MOV SE P0064 $=
200705060724 SPECI KATL 060724Z 00000KT 1/2SM R09R/1800V4500FT +TSRA FG OVC004CB 16/14 A3005 RMK AO2 TSB14 OCNL LTGIC TS OVH MOV SE P0064 $=
200705060714 SPECI KATL 060714Z 01007KT 1 1/2SM R09R/3500VP6000FT +TSRA BR OVC004CB 16/14 A3006 RMK AO2 TSB14 OCNL LTGIC TS OVH MOV SE P0012 $=
200705060714 SPECI KATL 060714Z 01007KT 1 1/2SM R09R/3500VP6000FT +TSRA BR OVC004CB 16/14 A3006 RMK AO2 TSB14 OCNL LTGIC TS OVH MOV SE P0012 $=
200705060710 SPECI KATL 060710Z 02009KT 2SM +RA BR OVC004 16/14 A3006 RMK AO2 CIG 003V008 P0007 $=
200705060710 SPECI KATL 060710Z 02009KT 2SM +RA BR OVC004 16/14 A3006 RMK AO2 CIG 003V008 P0007 $=
200705060652 METAR KATL 060652Z 06006KT 4SM -RA BR OVC004 16/14 A3005 RMK AO2 RAB41 SLP172 P0002 T01610144 $=
200705060552 METAR KATL 060552Z 15003KT 5SM BR OVC004 16/14 A3007 RMK AO2 SLP179 T01610139 10183 20156 58001 $=
200705060452 METAR KATL 060452Z 09005KT 4SM BR OVC002 16/14 A3008 RMK AO2 SLP183 T01560139 402280144=
200705060344 SPECI KATL 060344Z 07008KT 5SM BR OVC004 16/14 A3007 RMK AO2=
200705060344 SPECI KATL 060344Z 07008KT 5SM BR OVC004 16/14 A3007 RMK AO2=
200705060252 METAR KATL 060252Z 10008KT 4SM BR OVC005 17/14 A3008=
200705060152 METAR KATL 060152Z 07010KT 5SM BR OVC006 17/14 A3006 RMK AO2 SLP176 T01670144=
200705060052 METAR KATL 060052Z 07008KT 5SM HZ OVC009 18/14 A3005 RMK AO2 SLP171 T01780144=
200705060032 SPECI KATL 060032Z 09007KT 5SM HZ BKN009 OVC100 17/14 A3003 RMK AO2=
200705052352 METAR KATL 052352Z COR 09009KT 5SM HZ FEW120 SCT200 BKN250 18/14 A3003 RMK AO2 SLP164 T01830144 10217 20178 56002=
200705052252 METAR KATL 052252Z 07008KT 6SM HZ FEW020 SCT120 OVC200 20/15 A3003 RMK AO2 SLP166 T02000150=
200705052152 METAR KATL 052152Z 08007KT 6SM HZ FEW018 SCT150 OVC200 21/15 A3002 RMK AO2 SLP161 T02060150=
200705052111 SPECI KATL 052111Z 00000KT 6SM HZ SCT018 BKN120 BKN150 OVC200 21/16 A3004 RMK AO2=
200705052111 SPECI KATL 052111Z 00000KT 6SM HZ SCT018 BKN120 BKN150 OVC200 21/16 A3004 RMK AO2=
200705052052 METAR KATL 052052Z 08005KT 6SM HZ BKN018 BKN150 BKN200 22/16 A3003 RMK AO2 SLP164 BKN018 V SCT T02170156 56014=
200705051952 METAR KATL 051952Z 00000KT 6SM HZ BKN016 21/15 A3004 RMK AO2 SLP168 T02060150=
200705051852 METAR KATL 051852Z 08008KT 3SM HZ BKN012 OVC021 20/15 A3006 RMK AO2 SFC VIS 6 SLP173 T02000150=
200705051838 SPECI KATL 051838Z 07006KT 3SM BR OVC011 19/14 A3006 RMK AO2 SFC VIS 6=
200705051838 SPECI KATL 051838Z 07006KT 3SM BR OVC011 19/14 A3006 RMK AO2 SFC VIS 6=
200705051813 SPECI KATL 051813Z 10005KT 3SM BR OVC009 18/14 A3007 RMK AO2 SFC VIS 6=
200705051813 SPECI KATL 051813Z 10005KT 3SM BR OVC009 18/14 A3007 RMK AO2 SFC VIS 6=
200705051752 METAR KATL 051752Z 12005KT 2 1/2SM BR OVC007 18/14 A3007 RMK AO2 SFC VIS 6 SLP180 60000 T01830144 10183 20144 58004=
200705051701 SPECI KATL 051701Z 08006KT 2 1/2SM BR OVC005 17/14 A3008 RMK AO2 SFC VIS 6=
200705051701 SPECI KATL 051701Z 08006KT 2 1/2SM BR OVC005 17/14 A3008 RMK AO2 SFC VIS 6=
200705051652 METAR KATL 051652Z 09005KT 2SM BR OVC005 17/14 A3009 RMK AO2 SFC VIS 6 DZE32 SLP184 P0000 T01670139=
200705051631 SPECI KATL 051631Z 08006KT 2SM -DZ OVC005 17/14 A3009 RMK AO2 SFC VIS 5 P0000=
200705051631 SPECI KATL 051631Z 08006KT 2SM -DZ OVC005 17/14 A3009 RMK AO2 SFC VIS 5 P0000=
200705051552 METAR KATL 051552Z 08008KT 1 1/2SM -DZ BR OVC003 16/14 A3009 RMK AO2 SFC VIS 4 SLP187 TWRINC P0000 T01560139=
200705051452 METAR KATL 051452Z 08009KT 1/2SM -DZ BR OVC003 15/13 A3009 RMK AO2 SFC VIS 1 1/2 SLP186 TWRINC P0000 60000 T01500133 50003=
200705051352 METAR KATL 051352Z 08009KT 1/2SM -DZ BR OVC003 15/13 A3009 RMK AO2 SFC VIS 1 1/2 SLP186 TWRINC P0000 T01500133=
200705051252 METAR KATL 051252Z 09009KT 1/2SM -DZ BR OVC003 15/13 A3009 RMK AO2 SFC VIS 2 1/2 DZB45 SLP184 TWRINC P0000 T01500133=
200705051217 SPECI KATL 051217Z 08010KT 1/2SM BR OVC003 15/13 A3008 RMK AO2 SFC VIS 3 TWRINC=
200705051217 SPECI KATL 051217Z 08010KT 1/2SM BR OVC003 15/13 A3008 RMK AO2 SFC VIS 3 TWRINC=
200705051152 METAR KATL 051152Z 09011KT 2 1/2SM BR OVC003 15/13 A3008 RMK AO2 SFC VIS 5 SLP182 TWRINC T01500133 10172 20150 53008=
200705051110 SPECI KATL 051110Z 10009KT 2 1/2SM BR OVC004 15/13 A3007 RMK AO2 SFC VIS 5 TWRINC=
200705051110 SPECI KATL 051110Z 10009KT 2 1/2SM BR OVC004 15/13 A3007 RMK AO2 SFC VIS 5 TWRINC=
200705051052 METAR KATL 051052Z 10010KT 8SM OVC005 15/13 A3006 RMK AO2 SLP174 T01500133=
200705050952 METAR KATL 050952Z 08010KT 8SM OVC005 16/13 A3005 RMK AO2 SLP171 T01560133=
200705050852 METAR KATL 050852Z 07010KT 9SM OVC005 15/13 A3006 RMK AO2 SLP173 T01500133 55003=
200705050752 METAR KATL 050752Z 07010KT 3SM BR OVC005 16/14 A3005 RMK AO2 SLP171 T01560139=
200705050652 METAR KATL 050652Z 07013KT 5SM BR OVC008 17/15 A3006 RMK AO2 SLP172 T01670150=
200705050552 METAR KATL 050552Z 07008KT 6SM BR OVC012 17/16 A3006 RMK AO2 SLP175 60000 T01720156 10200 20172 56003=
200705050452 METAR KATL 050452Z 10010KT 7SM OVC012 18/14 A3007 RMK AO2 SLP176 CB DSNT E-SE AND NW-N T01780139 402280172=
200705050352 METAR KATL 050352Z 10009KT 7SM OVC014 18/14 A3007 RMK AO2 RAE0259 SLP177 CB DSNT SE AND NW P0000 T01780139=
200705050252 METAR KATL 050252Z 09013KT 7SM -RA BKN015 BKN100 OVC150 18/14 A3007 RMK AO2 RAB52 SLP180 PCPN VRY LGT P0000 60000 T01830144 53013=
200705050220 SPECI KATL 050220Z 08015KT 7SM BKN016 BKN150 OVC200 18/14 A3007 RMK AO2=
200705050220 SPECI KATL 050220Z 08015KT 7SM BKN016 BKN150 OVC200 18/14 A3007 RMK AO2=
200705050152 METAR KATL 050152Z 10009KT 7SM FEW070 BKN150 OVC200 19/14 A3006 RMK AO2 SLP173 T01890144=
200705050052 METAR KATL 050052Z 09011KT 7SM BKN150 OVC200 19/14 A3004 RMK AO2 SLP168 T01940144=
200705042352 METAR KATL 042352Z 09011KT 6SM HZ FEW030 BKN150 OVC200 20/14 A3004 RMK AO2 SLP166 T02000144 10228 20200 55002=
200705042252 METAR KATL 042252Z 10008G17KT 6SM HZ BKN150 BKN250 22/14 A3003 RMK AO2 SLP164 T02170144=
200705042152 METAR KATL 042152Z 12009KT 6SM HZ BKN150 OVC250 23/14 A3003 RMK AO2 SLP164 T02280144=
200705042052 METAR KATL 042052Z 11008KT 6SM HZ BKN150 OVC200 22/14 A3004 RMK AO2 SLP167 T02220144 56011=
200705041952 METAR KATL 041952Z 07008KT 6SM HZ BKN150 OVC200 23/17 A3005 RMK AO2 SLP169 BINOVC T02280167=
200705041852 METAR KATL 041852Z 12008KT 5SM HZ FEW070 BKN150 BKN200 22/16 A3006 RMK AO2 SLP174 T02170161=
200705041819 SPECI KATL 041819Z 07010KT 5SM HZ FEW018 SCT070 BKN200 21/16 A3007 RMK AO2=
200705041819 SPECI KATL 041819Z 07010KT 5SM HZ FEW018 SCT070 BKN200 21/16 A3007 RMK AO2=
200705041752 METAR KATL 041752Z 07008KT 5SM HZ OVC015 20/16 A3008 RMK AO2 SLP178 BINOVC T02000156 10200 20172 58009=
200705041652 METAR KATL 041652Z 06009KT 5SM HZ OVC012 18/16 A3009 RMK AO2 SLP185 T01830156=
200705041552 METAR KATL 041552Z 08008KT 5SM HZ OVC010 18/16 A3011 RMK AO2 SLP190 T01830156=
200705041520 SPECI KATL 041520Z 11007KT 5SM BR OVC010 18/16 A3011 RMK AO2 CIG 008V013=
200705041520 SPECI KATL 041520Z 11007KT 5SM BR OVC010 18/16 A3011 RMK AO2 CIG 008V013=
200705041452 METAR KATL 041452Z 07010KT 5SM BR OVC008 17/16 A3010 RMK AO2 SLP187 T01720156 51004=
200705041352 METAR KATL 041352Z 10009KT 4SM BR OVC008 17/16 A3010 RMK AO2 SLP187 T01720156=
200705041252 METAR KATL 041252Z 08009KT 4SM BR OVC008 17/16 A3010 RMK AO2 SLP186 T01720156=
200705041152 METAR KATL 041152Z 09011KT 4SM BR OVC009 18/16 A3009 RMK AO2 SLP181 T01780156 10200 20178 53014=
200705041052 METAR KATL 041052Z 09012KT 4SM BR OVC010 18/16 A3007 RMK AO2 SLP174 T01780156=
200705040952 METAR KATL 040952Z 07011KT 4SM BR OVC010 18/16 A3006 RMK AO2 SLP168 T01780161=
200705040852 METAR KATL 040852Z 08011KT 4SM BR OVC011 18/17 A3005 RMK AO2 SLP166 T01830167 51007=
200705040752 METAR KATL 040752Z 09010KT 5SM BR OVC011 19/17 A3004 RMK AO2 SLP164 T01890167=
200705040714 SPECI KATL 040714Z 08010KT 5SM BR BKN011 BKN250 19/17 A3004 RMK AO2=
200705040714 SPECI KATL 040714Z 08010KT 5SM BR BKN011 BKN250 19/17 A3004 RMK AO2=
200705040652 METAR KATL 040652Z 08011KT 6SM BR FEW012 SCT250 19/17 A3004 RMK AO2 SLP162 T01890167=
200705040552 METAR KATL 040552Z 08011KT 10SM FEW250 20/14 A3003 RMK AO2 SLP159 T02000144 10278 20200 53007=
200705040452 METAR KATL 040452Z 06006KT 10SM BKN250 21/14 A3001=
200705040352 METAR KATL 040352Z 00000KT 10SM BKN250 23/13 A3000=
200705040252 METAR KATL 040252Z 00000KT 10SM BKN250 23/13 A3001 RMK AO2 SLP152 T02330128 53008=
200705040152 METAR KATL 040152Z 00000KT 10SM BKN250 24/12 A3000 RMK AO2 SLP148 T02390122=
200705040052 METAR KATL 040052Z 21003KT 10SM FEW200 BKN250 26/12 A2999=
200705032352 METAR KATL 032352Z 23005KT 8SM FEW065 BKN250 28/11 A2998 RMK AO2 SLP144 CB DSNT NE T02780111 10300 20272 55000=
200705032252 METAR KATL 032252Z 21010KT 8SM SCT065 SCT090 BKN250 28/12 A2997 RMK AO2 SLP141 CB DSNT NE T02830117=
200705032152 METAR KATL 032152Z 23009KT 8SM FEW065 SCT100 28/12 A2997 RMK AO2 SLP140 MDT CU W AND VC N T02830117=
200705032052 METAR KATL 032052Z 22008G15KT 8SM FEW070 SCT100 SCT150 29/12 A2998 RMK AO2 SLP144 T02940122 57013=
200705031952 METAR KATL 031952Z 22013G18KT 9SM FEW070 SCT090 SCT250 29/12 A2999 RMK AO2 SLP147 T02940117=
200705031852 METAR KATL 031852Z 20010G17KT 8SM BKN065 BKN080 BKN250 28/13 A3001 RMK AO2 SLP154 CB DSNT NW-N T02830128=
200705031752 METAR KATL 031752Z 24006KT 8SM SCT065 SCT250 28/12 A3002 RMK AO2 SLP157 T02830122 10294 20194 58009=
200705031652 METAR KATL 031652Z 19005KT 9SM FEW055 SCT250 28/13 A3005 RMK AO2 SLP164 T02780133=
200705031552 METAR KATL 031552Z 24005KT 9SM FEW050 SCT150 BKN250 27/14 A3006=
200705031452 METAR KATL 031452Z 00000KT 9SM FEW120 BKN150 BKN250 26/14 A3005 RMK AO2 SLP167 T02560144 51005=
200705031352 METAR KATL 031352Z 30005KT 10SM FEW090 SCT120 BKN150 BKN250 24/14 A3005 RMK AO2 SLP165 T02390139=
200705031252 METAR KATL 031252Z 00000KT 10SM FEW050 SCT110 BKN150 BKN250 22/13 A3004 RMK AO2 SLP164 T02220128=
200705031152 METAR KATL 031152Z 00000KT 10SM FEW100 BKN150 BKN250 19/13 A3003 RMK AO2 SLP161 T01940128 10211 20172 53014=
200705031052 METAR KATL 031052Z 00000KT 10SM FEW100 SCT150 BKN250 18/12 A3001 RMK AO2 SLP155 T01780117=
200705030952 METAR KATL 030952Z 28003KT 10SM FEW100 SCT150 BKN250 18/12 A2999 RMK AO2 SLP148 T01830117=
200705030852 METAR KATL 030852Z COR 30005KT 10SM SCT100 BKN150 BKN250 19/12 A2999 RMK AO2 SLP147 T01890117 55002=
200705030752 METAR KATL 030752Z 30004KT 10SM FEW100 SCT150 BKN250 19/12 A2999 RMK AO2 SLP146 T01890117=
200705030652 METAR KATL 030652Z 31004KT 10SM FEW150 SCT250 19/12 A2999 RMK AO2 SLP147 T01940117=
200705030552 METAR KATL 030552Z 00000KT 10SM FEW200 SCT250 21/12 A3000 RMK AO2 SLP149 T02110117 10272 20211 55001=
200705030452 METAR KATL 030452Z 27004KT 10SM FEW200 BKN250 22/12 A3000 RMK AO2 SLP148 T02170117 403000172=
200705030352 METAR KATL 030352Z 27006KT 10SM FEW200 BKN250 22/12 A3000 RMK AO2 SLP147 T02220117=
200705030252 METAR KATL 030252Z 25004KT 10SM BKN200 OVC250 23/11 A3000 RMK AO2 SLP150 T02280111 51012=
200705030152 METAR KATL 030152Z 24004KT 10SM BKN200 OVC250 24/11 A2999 RMK AO2 SLP147 T02390106=
200705030052 METAR KATL 030052Z 24008KT 10SM SCT200 BKN250 26/09 A2998 RMK AO2 SLP142 T02560094=
200705022252 METAR KATL 022252Z 22009KT 10SM BKN200 BKN250 28/08 A2996 RMK AO2 SLP137 T02780078=
200705022152 METAR KATL 022152Z 27009KT 9SM FEW075 BKN250 29/08 A2996 RMK AO2 SLP135 T02890083=
200705022052 METAR KATL 022052Z 25008KT 220V290 9SM FEW080 BKN250 29/08 A2996 RMK AO2 SLP138 T02940083 57017=
200705021952 METAR KATL 021952Z 22008G16KT 9SM FEW085 SCT250 30/08 A2998 RMK AO2 SLP141 T03000083=
200705021852 METAR KATL 021852Z 21010G15KT 10SM FEW085 SCT250 29/08 A3000 RMK AO2 SLP149 T02940078=
200705021752 METAR KATL 021752Z 30005G14KT 10SM FEW080 SCT250 28/08 A3002=
200705021652 METAR KATL 021652Z 28006KT 10SM SCT070 SCT250 27/09 A3003 RMK AO2 SLP161 T02720089=
200705021452 METAR KATL 021452Z 28005KT 10SM FEW150 SCT250 25/13 A3006 RMK AO2 SLP169 T02500133 51009=
200705021352 METAR KATL 021352Z 28007KT 10SM FEW040 SCT250 23/12 A3005 RMK AO2 SLP166 T02330122=
200705021252 METAR KATL 021252Z 26007KT 10SM FEW080 21/12 A3004 RMK AO2 SLP163 T02110117=
200705021152 METAR KATL 021152Z 21004KT 10SM FEW080 18/12 A3003 RMK AO2 SLP161 T01780117 10211 20172 53011=
200705021052 METAR KATL 021052Z 00000KT 10SM FEW250 18/11 A3001 RMK AO2 SLP153 T01780111=
200705020952 METAR KATL 020952Z 26003KT 10SM FEW250 18/11 A3000 RMK AO2 SLP150 T01830111=
200705020852 METAR KATL 020852Z 22004KT 10SM FEW250 18/11 A3000 RMK AO2 SLP148 T01830111 55002=
200705020752 METAR KATL 020752Z 25004KT 10SM FEW250 20/11 A2999 RMK AO2 SLP147 T02000106=
200705020552 METAR KATL 020552Z 29005KT 10SM FEW250 21/11 A3000 RMK AO2 SLP149 T02060106 10278 20206 53001=
200705020452 METAR KATL 020452Z 27004KT 10SM FEW250 22/10 A3000 RMK AO2 SLP147 T02170100 403060161=
200705020352 METAR KATL 020352Z 25005KT 10SM FEW250 23/10 A2999=
200705020252 METAR KATL 020252Z 24006KT 10SM FEW250 24/10 A3000 RMK AO2 SLP148 T02390100 53005=
200705020152 METAR KATL 020152Z 23004KT 10SM FEW250 24/10 A2999 RMK AO2 SLP147 T02440100=
200705020052 METAR KATL 020052Z 23004KT 10SM FEW080 27/09 A2999 RMK AO2 SLP145 T02670094=
200705012352 METAR KATL 012352Z 26005KT 10SM FEW080 28/09 A2998 RMK AO2 SLP145 T02780089 10306 20278 56006=
200705012252 METAR KATL 012252Z 25005KT 10SM FEW085 29/09 A2999 RMK AO2 SLP146 T02940089=
200705012052 METAR KATL 012052Z 19005KT 10SM FEW090 SCT300 30/07 A3000 RMK AO2 SLP150 T03000072 56016=
200705011952 METAR KATL 011952Z 19004G14KT 10SM FEW090 SCT300 30/07 A3001 RMK AO2 SLP154 T03000072=
200705011852 METAR KATL 011852Z 18007KT 10SM FEW085 SCT300 30/07 A3003 RMK AO2 SLP159 T03000072=
200705011752 METAR KATL 011752Z 29003KT 10SM FEW085 SCT300 29/08 A3005 RMK AO2 SLP166 T02940078 10300 20172 58011=
200705011652 METAR KATL 011652Z VRB05KT 9SM FEW080 SCT300 29/09 A3007 RMK AO2 SLP174 T02940089=
200705011452 METAR KATL 011452Z 31003KT 10SM FEW300 27/10 A3009 RMK AO2 SLP179 T02670100 51008=
200705011352 METAR KATL 011352Z 31003KT 10SM FEW250 24/11 A3008 RMK AO2 SLP178 T02390111=
