##########################################################
# Query made at 04/19/2024 23:03:46 UTC
# Time interval: from 11/01/2007 12:00  to 11/30/2007 12:59  UTC
##########################################################

##########################################################
# KATL, Atlanta, Hartsfield - Jackson Atlanta International Airport (United States)
# WMO index: 72219. WIGOS ID: 0-20000-0-72219
# Latitude 33-38-59N. Longitude 084-25-00W. Altitude 312 m.
##########################################################

200711301252 METAR KATL 301252Z 33008KT 10SM SCT250 03/M03 A3029 RMK AO2 SLP260 T00281028=
200711301152 METAR KATL 301152Z 32006KT 10SM FEW200 SCT250 02/M03 A3027 RMK AO2 SLP253 T00221028 10061 20022 53012=
200711301052 METAR KATL 301052Z 33006KT 10SM FEW250 03/M03 A3025 RMK AO2 SLP247 T00281028=
200711300952 METAR KATL 300952Z 32006KT 10SM FEW250 03/M02 A3024 RMK AO2 SLP242 T00331017=
200711300852 METAR KATL 300852Z 32008KT 10SM FEW250 04/M01 A3023 RMK AO2 SLP238 T00391011 53006=
200711300752 METAR KATL 300752Z 32006KT 10SM FEW250 05/01 A3022 RMK AO2 SLP235 T00500006=
200711300652 METAR KATL 300652Z 31003KT 10SM SCT250 06/01 A3021 RMK AO2 SLP231 T00560011=
200711300552 METAR KATL 300552Z 31006KT 10SM BKN250 06/03 A3021 RMK AO2 SLP232 T00610028 10122 20061 55001=
200711300452 METAR KATL 300452Z 32007KT 10SM FEW200 SCT250 07/03 A3021 RMK AO2 SLP230 T00720033 401780056=
200711300352 METAR KATL 300352Z 32004KT 10SM FEW250 09/03 A3021 RMK AO2 SLP232 T00940033=
200711300252 METAR KATL 300252Z 32003KT 10SM FEW250 11/03 A3022 RMK AO2 SLP233 T01060033 50007=
200711300152 METAR KATL 300152Z 34006KT 10SM FEW250 11/03 A3022 RMK AO2 SLP237 T01060033=
200711300052 METAR KATL 300052Z 33006KT 10SM FEW250 11/03 A3022 RMK AO2 SLP237 T01110033=
200711292352 METAR KATL 292352Z 34006KT 10SM FEW250 12/03 A3019 RMK AO2 SLP227 T01220028 10178 20122 51009=
200711292252 METAR KATL 292252Z 32006KT 10SM SCT300 13/03 A3019 RMK AO2 SLP223 T01330033=
200711292152 METAR KATL 292152Z 30006KT 10SM FEW250 16/03 A3018 RMK AO2 SLP219 T01560033=
200711292052 METAR KATL 292052Z 32008KT 10SM FEW250 17/04 A3017 RMK AO2 SLP216 T01720039 56009=
200711291952 METAR KATL 291952Z 32010G17KT 10SM FEW250 18/04 A3018 RMK AO2 SLP219 T01780039=
200711291852 METAR KATL 291852Z 32008KT 10SM FEW150 SCT250 17/04 A3018 RMK AO2 SLP220 T01720039=
200711291752 METAR KATL 291752Z 34006KT 10SM FEW150 SCT250 17/04 A3020 RMK AO2 SLP225 T01670044 10172 20056 58014=
200711291652 METAR KATL 291652Z 29009KT 10SM FEW150 SCT250 16/05 A3022 RMK AO2 SLP234 T01560050=
200711291552 METAR KATL 291552Z 30008KT 10SM SCT250 13/04 A3024 RMK AO2 SLP240 T01330044=
200711291452 METAR KATL 291452Z 00000KT 10SM BKN250 11/02 A3024 RMK AO2 SLP241 T01060017 58002=
200711291352 METAR KATL 291352Z 00000KT 10SM FEW150 BKN200 BKN250 08/02 A3025 RMK AO2 SLP245 T00830022=
200711291252 METAR KATL 291252Z 33004KT 10SM BKN200 BKN250 06/01 A3026 RMK AO2 SLP250 T00560006=
200711291152 METAR KATL 291152Z 00000KT 10SM FEW030 SCT250 07/01 A3024 RMK AO2 SLP244 T00670006 10083 20067 55000=
200711291052 METAR KATL 291052Z COR 00000KT 10SM BKNOVC030 08/M01 A3024 RMK AO2 SLP243 T00831006=
200711290952 METAR KATL 290952Z 05003KT 10SM BKN030 BKN250 08/M01 A3024 RMK AO2 SLP241 T00831006=
200711290852 METAR KATL 290852Z 01004KT 10SM BKN030 BKN250 08/M01 A3024 RMK AO2 SLP241 T00831006 55002=
200711290833 SPECI KATL 290833Z 06004KT 10SM SCT030 SCT250 08/M01 A3024 RMK AO2=
200711290833 SPECI KATL 290833Z 06004KT 10SM SCT030 SCT250 08/M01 A3024 RMK AO2=
200711290807 SPECI KATL 290807Z 02005KT 10SM BKN025 BKN250 08/M01 A3025 RMK AO2=
200711290807 SPECI KATL 290807Z 02005KT 10SM BKN025 BKN250 08/M01 A3025 RMK AO2=
200711290752 METAR KATL 290752Z 08003KT 10SM FEW026 SCT250 07/M01 A3024 RMK AO2 SLP240 T00721011=
200711290719 SPECI KATL 290719Z 06005KT 10SM SCT026 SCT250 07/M01 A3023 RMK AO2=
200711290719 SPECI KATL 290719Z 06005KT 10SM SCT026 SCT250 07/M01 A3023 RMK AO2=
200711290702 SPECI KATL 290702Z 06004KT 10SM BKN026 BKN250 07/M01 A3023 RMK AO2=
200711290702 SPECI KATL 290702Z 06004KT 10SM BKN026 BKN250 07/M01 A3023 RMK AO2=
200711290652 METAR KATL 290652Z 07003KT 10SM SCT026 SCT250 08/M02 A3023 RMK AO2 SLP237 T00781017=
200711290552 METAR KATL 290552Z 12005KT 10SM FEW250 08/M02 A3025 RMK AO2 SLP244 T00831017 10117 20067 56005=
200711290452 METAR KATL 290452Z 10005KT 10SM BKN250 08/M02 A3025 RMK AO2 SLP244 T00831017 401610017=
200711290352 SPECI KATL 290352Z 13006KT 10SM FEW200 BKN250 09/M02 A3025 RMK AO2 SLP246 T00891017=
200711290252 METAR KATL 290252Z 11005KT 10SM BKN250 09/M02 A3026 RMK AO2 SLP250 T00941017 58002=
200711290152 METAR KATL 290152Z 11005KT 10SM SCT250 10/M02 A3027 RMK AO2 SLP254 T01001017=
200711290052 METAR KATL 290052Z 11004KT 10SM CLR 12/M02 A3027 RMK AO2 SLP255 T01171022=
200711282352 METAR KATL 282352Z 10005KT 10SM CLR 12/M02 A3027 RMK AO2 SLP254 T01171022 10161 20117 53006=
200711282252 METAR KATL 282252Z 11003KT 10SM FEW200 13/M03 A3026 RMK AO2 SLP249 T01281028=
200711282152 METAR KATL 282152Z 11005KT 10SM FEW200 SCT300 14/M04 A3025 RMK AO2 SLP247 T01441039=
200711282052 METAR KATL 282052Z 15008KT 10SM FEW300 16/M04 A3025 RMK AO2 SLP247 T01561039 55023=
200711281952 METAR KATL 281952Z 11006KT 10SM FEW300 16/M06 A3025 RMK AO2 SLP245 T01561056=
200711281852 METAR KATL 281852Z 16010KT 10SM FEW300 15/M04 A3029 RMK AO2 SLP259 T01501039=
200711281752 METAR KATL 281752Z 09010G15KT 10SM FEW300 14/M04 A3032 RMK AO2 SLP270 T01441044 10144 20017 58019=
200711281652 METAR KATL 281652Z 11007KT 10SM FEW300 13/M04 A3037 RMK AO2 SLP286 T01331044=
200711281552 METAR KATL 281552Z 10009KT 10SM FEW300 12/M04 A3040 RMK AO2 SLP296 T01171044=
200711281452 METAR KATL 281452Z 10006KT 10SM FEW300 09/M03 A3038 RMK AO2 SLP290 T00941028 53010=
200711281352 METAR KATL 281352Z 08008KT 10SM FEW250 06/M02 A3036 RMK AO2 SLP287 T00611017=
200711281252 METAR KATL 281252Z 09007KT 10SM CLR 02/M03 A3034 RMK AO2 SLP280 T00221028=
200711281152 METAR KATL 281152Z 08005KT 10SM CLR 03/M03 A3035 RMK AO2 SLP282 T00331033 10050 20017 56001=
200711281052 METAR KATL 281052Z 08003KT 10SM CLR 03/M03 A3035 RMK AO2 SLP282 T00331028=
200711280952 METAR KATL 280952Z 03004KT 10SM CLR 04/M02 A3035 RMK AO2 SLP280 T00391022=
200711280852 METAR KATL 280852Z 36003KT 10SM CLR 02/M02 A3035 RMK AO2 SLP282 T00221017 50005=
200711280752 METAR KATL 280752Z 00000KT 10SM CLR 03/M02 A3035 RMK AO2 SLP282 T00331022=
200711280652 METAR KATL 280652Z 34005KT 10SM CLR 04/M02 A3035 RMK AO2 SLP280 T00391022=
200711280552 METAR KATL 280552Z 01003KT 10SM CLR 06/M02 A3033 RMK AO2 SLP276 T00561022 10078 20056 51004=
200711280452 METAR KATL 280452Z 01008KT 10SM CLR 07/M02 A3033 RMK AO2 SLP275 T00671022 401330061=
200711280352 METAR KATL 280352Z 01006KT 10SM CLR 07/M03 A3034 RMK AO2 SLP277 T00721028=
200711280252 METAR KATL 280252Z 35008KT 10SM CLR 07/M02 A3032 RMK AO2 SLP272 T00721022 53003=
200711280152 METAR KATL 280152Z 34010KT 10SM CLR 07/M01 A3031 RMK AO2 SLP270 T00721011=
200711280052 METAR KATL 280052Z 33010KT 10SM CLR 07/M01 A3031 RMK AO2 SLP267 T00721006=
200711272352 METAR KATL 272352Z 32008KT 10SM FEW150 08/M01 A3031 RMK AO2 SLP268 T00831011 10133 20083 51005=
200711272252 METAR KATL 272252Z 33013KT 10SM FEW150 09/M01 A3031 RMK AO2 SLP267 T00941011=
200711272152 METAR KATL 272152Z 34011KT 10SM FEW150 11/M02 A3031 RMK AO2 SLP265 T01111017=
200711272052 METAR KATL 272052Z 35012KT 10SM BKN150 13/01 A3030 RMK AO2 SLP262 T01330006 53002=
200711271952 METAR KATL 271952Z 31014KT 10SM FEW100 BKN150 BKN250 12/01 A3030 RMK AO2 SLP261 T01220011=
200711271852 METAR KATL 271852Z 31010KT 10SM FEW085 BKN150 BKN250 10/02 A3029 RMK AO2 SLP261 T01000022=
200711271752 METAR KATL 271752Z 31009KT 10SM BKN150 BKN250 10/03 A3029 RMK AO2 SLP260 T01000028 10117 20078 51009=
200711271652 METAR KATL 271652Z 33008KT 10SM FEW030 BKN150 BKN250 11/03 A3029 RMK AO2 SLP259 VIRGA DSNT NW T01110033=
200711271552 METAR KATL 271552Z 32014KT 10SM FEW020 BKN150 BKN250 09/03 A3029 RMK AO2 SLP260 T00890033=
200711271452 METAR KATL 271452Z 34014G20KT 10SM FEW020 SCT080 BKN150 08/03 A3026 RMK AO2 SLP249 T00830033 51019=
200711271352 METAR KATL 271352Z 33011G20KT 10SM FEW018 SCT080 BKN150 08/04 A3025 RMK AO2 SLP243 T00830039=
200711271324 SPECI KATL 271324Z 33011G20KT 10SM FEW018 BKN080 BKN150 08/04 A3024 RMK AO2=
200711271324 SPECI KATL 271324Z 33011G20KT 10SM FEW018 BKN080 BKN150 08/04 A3024 RMK AO2=
200711271252 METAR KATL 271252Z 33014KT 10SM OVC020 08/04 A3023 RMK AO2 SLP238 BINOVC NE-SE T00830044=
200711271205 SPECI KATL 271205Z 31011G18KT 10SM FEW015 BKN023 BKN150 08/05 A3021 RMK AO2=
200711271205 SPECI KATL 271205Z 31011G18KT 10SM FEW015 BKN023 BKN150 08/05 A3021 RMK AO2=
200711271152 METAR KATL 271152Z 32013KT 10SM FEW015 SCT025 SCT060 BKN150 08/05 A3021 RMK AO2 SLP229 70029 T00780050 10083 20061 53016=
200711271052 METAR KATL 271052Z 29008KT 10SM FEW019 BKN060 BKN150 08/06 A3019 RMK AO2 SLP222 T00780056=
200711270952 METAR KATL 270952Z 29008KT 10SM BKN029 07/05 A3017 RMK AO2 SLP215 T00720050=
200711270929 SPECI KATL 270929Z 28005KT 10SM BKN029 07/05 A3015 RMK AO2=
200711270929 SPECI KATL 270929Z 28005KT 10SM BKN029 07/05 A3015 RMK AO2=
200711270852 METAR KATL 270852Z COR 28004KT 10SM FEW015 SCT250 06/04 A3016 RMK AO2 SLP213 T00610044 51002=
200711270752 METAR KATL 270752Z 28006KT 10SM FEW015 07/04 A3016 RMK AO2 SLP213 T00670044=
200711270652 METAR KATL 270652Z 29008KT 10SM FEW033 07/04 A3016 RMK AO2 SLP212 T00720044=
200711270552 METAR KATL 270552Z 29010KT 10SM SCT030 SCT150 08/04 A3015 RMK AO2 SLP211 60000 T00830044 10161 20078 51020=
200711270514 SPECI KATL 270514Z 28009KT 10SM SCT028 BKN150 09/04 A3015 RMK AO2=
200711270514 SPECI KATL 270514Z 28009KT 10SM SCT028 BKN150 09/04 A3015 RMK AO2=
200711270452 METAR KATL 270452Z 31014KT 10SM BKN025 09/05 A3014 RMK AO2 SLP207 T00940050 401830072=
200711270352 METAR KATL 270352Z 30012KT 10SM SCT018 OVC025 11/08 A3013 RMK AO2 SLP201 BINOVC T01110078=
200711270346 SPECI KATL 270346Z 30010KT 10SM SCT016 BKN025 11/08 A3013 RMK AO2=
200711270346 SPECI KATL 270346Z 30010KT 10SM SCT016 BKN025 11/08 A3013 RMK AO2=
200711270310 SPECI KATL 270310Z 30011G19KT 10SM BKN013 OVC020 12/09 A3011 RMK AO2=
200711270310 SPECI KATL 270310Z 30011G19KT 10SM BKN013 OVC020 12/09 A3011 RMK AO2=
200711270252 METAR KATL 270252Z 28015G19KT 10SM OVC015 12/10 A3009 RMK AO2 SLP190 CIG 013V018 60000 T01220100 51036=
200711270227 SPECI KATL 270227Z 27012KT 10SM BKN016 OVC025 13/11 A3007 RMK AO2=
200711270227 SPECI KATL 270227Z 27012KT 10SM BKN016 OVC025 13/11 A3007 RMK AO2=
200711270152 METAR KATL 270152Z 30011KT 10SM BKN014 OVC025 14/12 A3006 RMK AO2 RAE01 SLP178 P0000 T01390117=
200711270101 SPECI KATL 270101Z 28011KT 10SM SCT012 BKN018 BKN035 16/13 A3002 RMK AO2 RAE01 P0000=
200711270101 SPECI KATL 270101Z 28011KT 10SM SCT012 BKN018 BKN035 16/13 A3002 RMK AO2 RAE01 P0000=
200711270052 METAR KATL 270052Z 28008KT 10SM -RA BKN010 BKN018 OVC025 16/14 A3002 RMK AO2 RAB52 SLP166 CIG 008V013 P0000 T01560139=
200711270047 SPECI KATL 270047Z 26009KT 10SM BKN010 BKN025 16/14 A3002 RMK AO2 CIG 008V013=
200711270047 SPECI KATL 270047Z 26009KT 10SM BKN010 BKN025 16/14 A3002 RMK AO2 CIG 008V013=
200711270023 SPECI KATL 270023Z 19009KT 10SM SCT018 BKN025 16/14 A3000 RMK AO2=
200711270023 SPECI KATL 270023Z 19009KT 10SM SCT018 BKN025 16/14 A3000 RMK AO2=
200711262352 METAR KATL 262352Z 19010KT 10SM FEW020 16/14 A2998 RMK AO2 SLP153 T01610139 10183 20156 51012=
200711262318 SPECI KATL 262318Z 21009KT 10SM FEW020 SCT026 17/14 A2997 RMK AO2=
200711262318 SPECI KATL 262318Z 21009KT 10SM FEW020 SCT026 17/14 A2997 RMK AO2=
200711262252 METAR KATL 262252Z 22005KT 10SM SCT020 BKN026 BKN055 17/14 A2998 RMK AO2 SLP152 T01720144=
200711262152 METAR KATL 262152Z 18012KT 10SM SCT018 BKN023 BKN030 18/15 A2996 RMK AO2 SLP143 T01830150=
200711262103 SPECI KATL 262103Z 20010KT 10SM BKN018 BKN024 OVC032 18/16 A2995 RMK AO2=
200711262103 SPECI KATL 262103Z 20010KT 10SM BKN018 BKN024 OVC032 18/16 A2995 RMK AO2=
200711262052 METAR KATL 262052Z 21013G17KT 10SM BKN014 BKN022 OVC028 18/16 A2995 RMK AO2 SLP141 T01780156 55010=
200711262010 SPECI KATL 262010Z 19011KT 10SM OVC010 18/16 A2992 RMK AO2 CIG 006V014=
200711262010 SPECI KATL 262010Z 19011KT 10SM OVC010 18/16 A2992 RMK AO2 CIG 006V014=
200711261952 METAR KATL 261952Z 19010KT 10SM BKN008 OVC012 18/16 A2992 RMK AO2 CIG 006V010 SLP131 T01780161=
200711261919 SPECI KATL 261919Z 16009G18KT 6SM BR OVC006 17/16 A2991 RMK AO2 CIG 003V010=
200711261919 SPECI KATL 261919Z 16009G18KT 6SM BR OVC006 17/16 A2991 RMK AO2 CIG 003V010=
200711261906 SPECI KATL 261906Z 17011KT 2SM BR OVC004 17/16 A2993 RMK AO2 SFC VIS 5=
200711261906 SPECI KATL 261906Z 17011KT 2SM BR OVC004 17/16 A2993 RMK AO2 SFC VIS 5=
200711261852 METAR KATL 261852Z 17011KT 1/2SM BR OVC004 17/16 A2995 RMK AO2 SFC VIS 4 CIG 003V008 SLP141 T01670156=
200711261752 METAR KATL 261752Z 16008KT 1/4SM BR BKN002 BKN005 OVC030 16/15 A2998 RMK AO2 SFC VIS 3 RAE46 SLP152 P0002 60029 T01560150 10161 20083 58013=
200711261750 SPECI KATL 261750Z 15008KT 1/4SM BR BKN002 BKN005 OVC030 16/15 A2998 RMK AO2 SFC VIS 3 RAE46 P0002=
200711261750 SPECI KATL 261750Z 15008KT 1/4SM BR BKN002 BKN005 OVC030 16/15 A2998 RMK AO2 SFC VIS 3 RAE46 P0002=
200711261731 SPECI KATL 261731Z 12007KT 1/8SM -RA BR BKN005 BKN030 OVC060 16/15 A2996 RMK AO2 SFC VIS 3 PRESFR P0002=
200711261731 SPECI KATL 261731Z 12007KT 1/8SM -RA BR BKN005 BKN030 OVC060 16/15 A2996 RMK AO2 SFC VIS 3 PRESFR P0002=
200711261724 SPECI KATL 261724Z 14008KT 3/4SM -RA BR SCT005 BKN030 OVC060 16/15 A2999 RMK AO2 SFC VIS 4 PRESFR P0002=
200711261724 SPECI KATL 261724Z 14008KT 3/4SM -RA BR SCT005 BKN030 OVC060 16/15 A2999 RMK AO2 SFC VIS 4 PRESFR P0002=
200711261713 SPECI KATL 261713Z 15006KT 5SM -RA BR FEW006 BKN029 OVC045 16/15 A3001 RMK AO2 P0001=
200711261713 SPECI KATL 261713Z 15006KT 5SM -RA BR FEW006 BKN029 OVC045 16/15 A3001 RMK AO2 P0001=
200711261658 SPECI KATL 261658Z 16009KT 8SM -RA BKN027 BKN047 OVC065 16/15 A3002 RMK AO2 P0001=
200711261658 SPECI KATL 261658Z 16009KT 8SM -RA BKN027 BKN047 OVC065 16/15 A3002 RMK AO2 P0001=
200711261652 METAR KATL 261652Z 18008KT 3SM -RA BR FEW006 BKN024 OVC085 16/15 A3003 RMK AO2 SFC VIS 6 SLP169 P0010 T01560150=
200711261622 SPECI KATL 261622Z 20009KT 3SM -RA BR SCT006 BKN012 OVC026 16/14 A3005 RMK AO2 SFC VIS 5 P0004=
200711261622 SPECI KATL 261622Z 20009KT 3SM -RA BR SCT006 BKN012 OVC026 16/14 A3005 RMK AO2 SFC VIS 5 P0004=
200711261559 SPECI KATL 261559Z 19010KT 3SM -RA BR BKN006 BKN024 OVC048 15/14 A3005 RMK AO2 SFC VIS 5 P0001=
200711261559 SPECI KATL 261559Z 19010KT 3SM -RA BR BKN006 BKN024 OVC048 15/14 A3005 RMK AO2 SFC VIS 5 P0001=
200711261552 METAR KATL 261552Z 19012KT 3SM -RA BR SCT006 BKN028 OVC095 15/14 A3005 RMK AO2 SFC VIS 5 SLP178 P0003 T01500144=
200711261544 SPECI KATL 261544Z 20015G20KT 3SM -RA BR SCT006 BKN028 OVC095 15/14 A3005 RMK AO2 SFC VIS 5 P0002=
200711261544 SPECI KATL 261544Z 20015G20KT 3SM -RA BR SCT006 BKN028 OVC095 15/14 A3005 RMK AO2 SFC VIS 5 P0002=
200711261519 SPECI KATL 261519Z 19012G25KT 3SM -RA BR OVC004 14/14 A3002 RMK AO2 SFC VIS 6 CIG 002V008 P0001=
200711261519 SPECI KATL 261519Z 19012G25KT 3SM -RA BR OVC004 14/14 A3002 RMK AO2 SFC VIS 6 CIG 002V008 P0001=
200711261515 SPECI KATL 261515Z 18018G25KT 1 1/2SM BR OVC002 14/13 A3002 RMK AO2 SFC VIS 6 RAE11 P0001=
200711261515 SPECI KATL 261515Z 18018G25KT 1 1/2SM BR OVC002 14/13 A3002 RMK AO2 SFC VIS 6 RAE11 P0001=
200711261452 METAR KATL 261452Z 16012G20KT 1/4SM -RA BR OVC002 13/13 A3002 RMK AO2 SFC VIS 4 SLP165 P0006 60014 T01330128 58008=
200711261252 METAR KATL 261252Z 11004KT 1/8SM -RA BR OVC002 08/08 A3006 RMK AO2 SFC VIS 2 SLP181 CIG 001V003 P0003 T00830083=
200711261152 METAR KATL 261152Z 12009KT 1/8SM R09R/P6000FT -RA BR OVC002 08/08 A3004 RMK AO2 SFC VIS 3/4 RAE04B29 SLP177 P0001 60017 70037 T00830078 10083 20072 58013=
200711261052 METAR KATL 261052Z 11006KT 1/8SM -RA BR BKN002 OVC005 08/07 A3007 AO2 SFC VIS 3 SLP185 TWRINC P0005 T00780072=
200711260959 METAR KATL 260959Z 10009KT 0SM -RA BR OVC002 08/07 A3006 A02 SFC VIS 2 SLP184 SIG 001V003 TWRINC P0010 T00780072=
200711260925 SPECI KATL 260925Z 10008KT 0SM -RA BR SCT001 OVC003 08/07 AA3007 AO2 SFC VIS 1 1/2 TWRINC P0007=
200711260925 SPECI KATL 260925Z 10008KT 0SM -RA BR SCT001 OVC003 08/07 AA3007 AO2 SFC VIS 1 1/2 TWRINC P0007=
200711260852 METAR KATL 260852Z 10008KT 0SM R09R/2200V2400FT -RA FG VV001 08/07 A3008 RMK AO2 SFC VIS 1/8 RAB46 SLP191 P0001 60001 T00780072 56011=
200711260813 SPECI KATL 260813Z 10008KT 0SM R09R/2200FT FG VV001 08/07 A3009 RMK AO2=
200711260813 SPECI KATL 260813Z 10008KT 0SM R09R/2200FT FG VV001 08/07 A3009 RMK AO2=
200711260752 METAR KATL 260752Z 10010KT 0SM R09R/2200V2400FT FG VV001 08/07 A3009 RMK AO2 SLP193 T00780072=
200711260736 SPECI KATL 260736Z 10011KT 0SM R09R/2200FT FG VV001 08/07 A3010 RMK AO2 SFC VIS 1/8=
200711260736 SPECI KATL 260736Z 10011KT 0SM R09R/2200FT FG VV001 08/07 A3010 RMK AO2 SFC VIS 1/8=
200711260652 METAR KATL 260652Z 09011KT 0SM R09R/2400V2600FT FG VV001 07/07 A3010 RMK AO2 SFC VIS 1/8 SLP196 T00720072=
200711260632 SPECI KATL 260632Z 09010KT 0SM R09R/2600V2800FT FG OVC001 07/07 A3010 RMK AO2 SFC VIS 1/8=
200711260632 SPECI KATL 260632Z 09010KT 0SM R09R/2600V2800FT FG OVC001 07/07 A3010 RMK AO2 SFC VIS 1/8=
200711260552 METAR KATL 260552Z 10012KT 1/4SM R09R/3000V3500FT FG OVC001 07/07 A3012 RMK AO2 SLP202 60000 T00720072 10078 20067 58018=
200711260452 METAR KATL 260452Z 10007KT 1/4SM R09R/4000V4500FT FG OVC001 08/07 A3015 RMK AO2 SFC VIS 1/2 SLP213 DZE50 P0000 T00780072 400940067=
200711260352 METAR KATL 260352Z COR 10010KT 1/4SM R09R/5000V6000FT -DZ BR OVC001 07/07 A3015 RMK AO2 SFC VIS 1 1/4 SLP213 TWRINC T00720067=
200711260252 METAR KATL 260252Z 10011KT 1/4SM R09R/6000VP6000FT BR OVC002 07/07 A3017 RMK AO2 SFC VIS 1 1/2 SLP221 CIG 001V002 TWRINC T00720067 58001=
200711260152 METAR KATL 260152Z 10005KT 1/4SM BR OVC002 07/07 A3019 RMK AO2 SFC VIS 2 SLP227 TWRINC T00720067=
200711260052 METAR KATL 260052Z 10007KT 1/4SM BR OVC002 07/06 A3019 RMK AO2 SFC VIS 1 3/4 SLP228 TWRINC T00670061 $=
200711252352 METAR KATL 252352Z 09010KT 1/4SM R09R/P6000FT FG OVC002 07/06 A3017 RMK AO2 SFC VIS 1/2 SLP223 60008 T00670061 10078 20067 58002 $=
200711252252 SPECI KATL 252252Z 09011KT 1/4 SM R09R/P6000FT BR OVC003 07/06 A3018 A02 SFC VIS 1 DZE52 225 FIG 002V004 TWRINC P0000 T0067001=
200711252252 METAR KATL 252252Z COR 09011KT 1/4SM R09/P6000 FT BR OVC003 07/06 A3018 RMK A02 SFC VIS 1 DZE52 SLP225 CIG 002V004 TWRINC P0000 T00670061=
200711252152 METAR KATL 252152Z 10009KT 1 1/2SM -DZ BR FEW002 BKN004 OVC007 07/06 A3018 RMK A02 SFC VIS 3 DZB21 RAB37E45 SLP226 SFC VIS 2V4 TWR INC P0000 T00670061=
200711252144 METAR KATL 252144Z 10012KT 3/4SM -RA BR FEW002 BKN004 OVC007 07/06 A3318=
200711252130 SPECI KATL 252130Z 10013KT 1 1/2SM -DZ BR BKN004 OVC007 07/06 A3018 RMK A02 DZB21 P0000=
200711252130 SPECI KATL 252130Z 10013KT 1 1/2SM -DZ BR BKN004 OVC007 07/06 A3018 RMK A02 DZB21 P0000=
200711252052 METAR KATL 252052Z 10009KT 3SM BR BKN004 OVC007 07/06 A3018 RMK AO2 SFC VIS 4SM RE17DZB19E51 SLP224 P0002 60008 T00720061 55007=
200711252036 SPECI KATL 252036Z 08011KT 3SM -DZ BR BKN004 OVC007 07/06 A3017 RMK AO2 SFC VIS 4 RAE17DZB19 P0002 $=
200711252036 SPECI KATL 252036Z 08011KT 3SM -DZ BR BKN004 OVC007 07/06 A3017 RMK AO2 SFC VIS 4 RAE17DZB19 P0002 $=
200711251952 METAR KATL 251952Z 10009KT 2SM R09R/5500VP6000FT -RA BR FEW004 OVC006 07/06 A3017 RMK A02 DZE36 RAB06E13B36 SLP222 VIS 1V3 P0003 T00720061=
200711251852 METAR KATL 251852Z 10007KT 2SM R09R/6000VP6000FT -DZ BR OVC005 07/07 A3018 RMK A02 RAE49DZB50 BASE SLP224 P0003 T00720067=
200711251819 SPECI KATL 251819Z 09011KT 3SM -RA BR BKN007 OVC011 07/06 A3019 A02 P0003=
200711251819 SPECI KATL 251819Z 09011KT 3SM -RA BR BKN007 OVC011 07/06 A3019 A02 P0003=
200711251752 METAR KATL 251752Z 08011KT 1SM R09R/4500V5500FT RA BR BKN007 OVC011 07/06 A3020 RMK A02 SLP232 P0012 60012 T00720061 10094 20067 58010=
200711251723 SPECI KATL 251723Z 07010KT 1 1/2SM R09/R5000V6000FT RA SCT007 OVC015 07/06 A3022 P0006=
200711251723 SPECI KATL 251723Z 07010KT 1 1/2SM R09/R5000V6000FT RA SCT007 OVC015 07/06 A3022 P0006=
200711251656 SPECI KATL 251656Z 11011KT 2SM RA- BR OVC015 08/06 A3023 RMK P0000=
200711251656 SPECI KATL 251656Z 11011KT 2SM RA- BR OVC015 08/06 A3023 RMK P0000=
200711251652 METAR KATL 251652Z 11009KT 3SM RA- OVC015 08/05 A3024 RMK RB36 SLP243 P0000 T00830050=
200711251552 METAR KATL 251552Z 10009KT 9SM OVC015 09/03 A3025 RMK AO2 SLP247 T00890033=
200711251527 SPECI KATL 251527Z 09011KT 9SM OVC015 09/03 A3024 RMK AO2=
200711251527 SPECI KATL 251527Z 09011KT 9SM OVC015 09/03 A3024 RMK AO2=
200711251452 METAR KATL 251452Z 09013KT 9SM OVC013 08/03 A3024 RMK AO2 SLP243 T00780028 58002=
200711251352 METAR KATL 251352Z 10012KT 9SM OVC013 07/01 A3024 RMK AO2 SLP244 T00720011=
200711251252 METAR KATL 251252Z 10012G18KT 10SM OVC013 07/01 A3024 RMK AO2 SLP245 T00670011=
200711251152 METAR KATL 251152Z 09009KT 10SM OVC013 07/01 A3024 RMK AO2 SLP245 T00670011 10072 20067 53004=
200711251052 METAR KATL 251052Z 08011KT 10SM OVC013 07/M01 A3024 RMK AO2 SLP244 T00671006=
200711250952 METAR KATL 250952Z 08012KT 10SM BKN013 OVC015 07/M01 A3022 RMK AO2 SLP238 T00671011=
200711250852 METAR KATL 250852Z 08011KT 10SM BKN013 OVC015 07/M02 A3023 RMK AO2 SLP240 T00721017 58014=
200711250752 METAR KATL 250752Z 07011KT 10SM BKN013 OVC018 07/M02 A3024 RMK AO2 SLP244 T00721017=
200711250734 SPECI KATL 250734Z 08012KT 10SM BKN013 OVC018 07/M02 A3024 RMK AO2=
200711250734 SPECI KATL 250734Z 08012KT 10SM BKN013 OVC018 07/M02 A3024 RMK AO2=
200711250652 METAR KATL 250652Z 08008KT 10SM OVC015 07/M03 A3026 RMK AO2 SLP250 T00721028=
200711250552 METAR KATL 250552Z 09008KT 10SM OVC015 07/M02 A3027 RMK AO2 SLP254 T00721017 10083 20072 58010=
200711250452 METAR KATL 250452Z 10008KT 10SM OVC015 07/M03 A3028 RMK AO2 SLP259 T00721028 401060006=
200711250352 METAR KATL 250352Z COR 09011KT 10SM OVC019 07/M03 A3031 RMK AO2 SLP267 VIRGA W T00721028=
200711250252 METAR KATL 250252Z 09013KT 10SM OVC022 08/M03 A3030 RMK AO2 SLP267 T00781033 51003=
200711250152 METAR KATL 250152Z 08015KT 10SM OVC022 08/M04 A3030 RMK AO2 SLP266 VIRGA ALQDS T00781039=
200711250052 METAR KATL 250052Z 08011KT 10SM OVC023 08/M03 A3032 RMK AO2 SLP273 VIRGA OHD T00831033=
200711242352 METAR KATL 242352Z 08010KT 10SM OVC023 08/M03 A3029 RMK AO2 RAB01E12 SLP264 P0000 60000 T00831028 10106 20083 51007=
200711242317 SPECI KATL 242317Z 09009KT 10SM BKN025 BKN037 OVC110 08/M03 A3029 RMK AO2 RAB01E12 P0000=
200711242317 SPECI KATL 242317Z 09009KT 10SM BKN025 BKN037 OVC110 08/M03 A3029 RMK AO2 RAB01E12 P0000=
200711242252 METAR KATL 242252Z COR 09010KT 10SM BKN035 BKN090 OVC120 08/M02 A3029 RMK AO2 SLP262 T00831022=
200711242152 METAR KATL 242152Z 10008KT 10SM BKN036 BKN150 OVC200 09/M02 A3028 RMK AO2 SLP260 VIRGA VC W T00891022=
200711242052 METAR KATL 242052Z 09008KT 10SM BKN031 BKN150 BKN250 09/M02 A3027 RMK AO2 SLP256 T00941022 56022=
200711241952 METAR KATL 241952Z 08010KT 10SM BKN032 BKN150 BKN250 09/M03 A3029 RMK AO2 SLP262 T00941033=
200711241852 SPECI KATL 241852Z 08009KT 10SM FEW060 SCT150 BKN250 10/M04 A3030 RMK AO2 SLP264 T01001044=
200711241752 METAR KATL 241752Z 08009KT 10SM SCT150 BKN250 09/M05 A3034 RMK AO2 SLP280 T00891050 10094 20006 56017=
200711241652 METAR KATL 241652Z 11012G16KT 10SM FEW120 SCT180 BKN250 08/M06 A3036 RMK AO2 SLP285 T00781061=
200711241552 METAR KATL 241552Z 09014KT 10SM BKN120 BKN250 06/M06 A3037 RMK AO2 SLP289 T00611056=
200711241452 METAR KATL 241452Z 09010G18KT 10SM SCT150 BKN250 04/M06 A3039 RMK AO2 SLP298 T00441056 51008=
200711241352 METAR KATL 241352Z 08017G20KT 10SM SCT250 03/M06 A3038 RMK AO2 SLP295 T00281061=
200711241252 METAR KATL 241252Z 08014KT 10SM SCT250 01/M06 A3038 RMK AO2 SLP295 T00111061=
200711241152 METAR KATL 241152Z 08010KT 10SM FEW250 01/M06 A3036 RMK AO2 SLP291 T00061056 10022 20006 53010=
200711241052 METAR KATL 241052Z 08011KT 10SM FEW250 01/M05 A3036 RMK AO2 SLP287 T00061050=
200711240952 METAR KATL 240952Z 08014KT 10SM FEW250 02/M05 A3034 RMK AO2 SLP279 T00171050=
200711240852 METAR KATL 240852Z 09011KT 10SM FEW250 02/M04 A3033 RMK AO2 SLP278 T00171044 53012=
200711240752 METAR KATL 240752Z 08012KT 10SM FEW250 02/M04 A3033 RMK AO2 SLP274 T00171044=
200711240652 METAR KATL 240652Z 08011KT 10SM SCT250 02/M04 A3030 RMK AO2 SLP266 T00171039=
200711240552 METAR KATL 240552Z 08007KT 10SM FEW250 01/M04 A3030 RMK AO2 SLP265 T00111039 10044 20011 51009=
200711240452 METAR KATL 240452Z 06007KT 10SM FEW250 03/M04 A3029 RMK AO2 SLP263 T00281044 401000022=
200711240352 METAR KATL 240352Z 02006KT 10SM SCT250 03/M05 A3028 RMK AO2 SLP259 T00281050=
200711240252 METAR KATL 240252Z 32004KT 10SM FEW250 02/M05 A3027 RMK AO2 SLP257 T00221050 53006=
200711240152 METAR KATL 240152Z 33005KT 10SM FEW250 03/M05 A3026 RMK AO2 SLP253 T00281050=
200711240052 METAR KATL 240052Z 34006KT 10SM FEW250 03/M05 A3025 RMK AO2 SLP252 T00331050=
200711232352 METAR KATL 232352Z 34007KT 10SM FEW250 04/M05 A3025 RMK AO2 SLP250 T00441050 10100 20044 51013=
200711232252 METAR KATL 232252Z 34010KT 10SM FEW250 06/M04 A3023 RMK AO2 SLP244 T00561044=
200711232152 METAR KATL 232152Z 33008KT 10SM FEW250 07/M04 A3023 RMK AO2 SLP240 T00721044=
200711232052 METAR KATL 232052Z 33009KT 10SM CLR 08/M04 A3021 RMK AO2 SLP235 T00831044 55008=
200711231952 METAR KATL 231952Z 33012KT 10SM CLR 09/M04 A3021 RMK AO2 SLP234 T00941039=
200711231852 METAR KATL 231852Z 34011G15KT 10SM FEW250 09/M03 A3021 RMK AO2 SLP235 T00891033=
200711231752 METAR KATL 231752Z 35012KT 10SM FEW150 08/M03 A3024 RMK AO2 SLP244 T00831033 10083 20028 58008=
200711231652 METAR KATL 231652Z 33008G16KT 10SM FEW150 SCT250 07/M02 A3026 RMK AO2 SLP251 T00721022=
200711231552 METAR KATL 231552Z 36014G19KT 10SM FEW150 SCT250 07/M02 A3027 RMK AO2 SLP255 T00671017=
200711231452 METAR KATL 231452Z 35013KT 10SM FEW030 SCT110 BKN150 BKN250 05/M02 A3026 RMK AO2 SLP253 T00501017 51026=
200711231352 METAR KATL 231352Z 34012KT 10SM FEW090 BKN150 BKN250 04/M01 A3024 RMK AO2 SLP245 T00441011=
200711231252 METAR KATL 231252Z 33011KT 10SM FEW090 SCT200 03/M01 A3021 RMK AO2 SLP237 T00281011=
200711231152 METAR KATL 231152Z 33013KT 10SM BKN090 BKN200 03/M01 A3018 RMK AO2 SLP227 70003 T00331011 10039 20033 53018=
200711231052 METAR KATL 231052Z 34011KT 10SM FEW060 SCT100 SCT200 03/M01 A3015 RMK AO2 SLP214 T00331006=
200711230952 METAR KATL 230952Z 33013KT 10SM FEW200 03/M01 A3015 RMK AO2 SLP214 T00331006=
200711230852 METAR KATL 230852Z 34011KT 10SM FEW060 SCT200 03/M01 A3013 RMK AO2 SLP208 T00331006 56002=
200711230752 METAR KATL 230752Z 33013G20KT 10SM FEW060 04/00 A3013 RMK AO2 SLP207 T00390000=
200711230652 METAR KATL 230652Z 33014KT 10SM FEW060 04/00 A3013 RMK AO2 SLP206 T00390000=
200711230552 METAR KATL 230552Z 31015G21KT 10SM CLR 04/00 A3014 RMK AO2 SLP207 T00390000 10067 20039 58004=
200711230452 METAR KATL 230452Z 32014G20KT 10SM FEW028 05/00 A3014 RMK AO2 SLP208 T00500000 401890050=
200711230407 SPECI KATL 230407Z 33014KT 10SM FEW028 06/00 A3015 RMK AO2=
200711230407 SPECI KATL 230407Z 33014KT 10SM FEW028 06/00 A3015 RMK AO2=
200711230352 METAR KATL 230352Z 33012G23KT 10SM BKN028 05/00 A3015 RMK AO2 SLP210 T00500000=
200711230252 METAR KATL 230252Z 32010KT 10SM BKN030 06/01 A3015 RMK AO2 SLP211 T00560006 53009=
200711230218 SPECI KATL 230218Z 32011KT 10SM BKN030 06/01 A3015 RMK AO2=
200711230218 SPECI KATL 230218Z 32011KT 10SM BKN030 06/01 A3015 RMK AO2=
200711230152 METAR KATL 230152Z 33011G23KT 10SM BKN028 06/01 A3014 RMK AO2 PK WND 32028/0104 SLP207 T00610006=
200711230113 SPECI KATL 230113Z 31017G28KT 10SM BKN026 06/01 A3014 RMK AO2 PK WND 32028/0104=
200711230113 SPECI KATL 230113Z 31017G28KT 10SM BKN026 06/01 A3014 RMK AO2 PK WND 32028/0104=
200711230052 METAR KATL 230052Z 33017G26KT 10SM SCT028 07/01 A3013 RMK AO2 PK WND 33030/0020 SLP203 T00670006=
200711230026 SPECI KATL 230026Z 33015G30KT 10SM SCT025 07/01 A3013 RMK AO2 PK WND 33030/0020=
200711230026 SPECI KATL 230026Z 33015G30KT 10SM SCT025 07/01 A3013 RMK AO2 PK WND 33030/0020=
200711222352 METAR KATL 222352Z 33016G35KT 10SM BKN025 07/01 A3012 RMK AO2 PK WND 34035/2343 SLP201 T00670011 10150 20067 51021=
200711222252 METAR KATL 222252Z 32018G23KT 10SM BKN021 BKN030 07/03 A3010 RMK AO2 PK WND 34028/2215 SLP192 T00720028=
200711222152 METAR KATL 222152Z 30015KT 10SM BKN016 OVC021 08/04 A3008 RMK AO2 PK WND 30026/2142 SLP186 T00780039=
200711222128 SPECI KATL 222128Z 32017G23KT 10SM OVC015 08/05 A3007 RMK AO2=
200711222128 SPECI KATL 222128Z 32017G23KT 10SM OVC015 08/05 A3007 RMK AO2=
200711222052 METAR KATL 222052Z 32018G24KT 10SM BKN012 OVC020 09/06 A3006 RMK AO2 SLP178 T00890056 51017=
200711221952 METAR KATL 221952Z 34017G23KT 10SM OVC011 11/08 A3004 RMK AO2 SLP169 T01060078=
200711221852 METAR KATL 221852Z 32014KT 10SM BKN011 OVC018 12/10 A3003 RMK AO2 SLP167 T01220100=
200711221806 SPECI KATL 221806Z 31015G24KT 10SM BKN011 OVC018 14/11 A3001 RMK AO2=
200711221806 SPECI KATL 221806Z 31015G24KT 10SM BKN011 OVC018 14/11 A3001 RMK AO2=
200711221752 METAR KATL 221752Z 33019KT 10SM FEW011 BKN019 OVC055 15/12 A3001 RMK AO2 SLP157 60003 T01500117 10183 20150 58003=
200711221749 SPECI KATL 221749Z 32015G19KT 10SM FEW011 BKN019 OVC055 16/12 A3001 RMK AO2=
200711221749 SPECI KATL 221749Z 32015G19KT 10SM FEW011 BKN019 OVC055 16/12 A3001 RMK AO2=
200711221731 SPECI KATL 221731Z 30011G17KT 10SM SCT011 SCT024 BKN050 BKN150 16/13 A3001 RMK AO2=
200711221731 SPECI KATL 221731Z 30011G17KT 10SM SCT011 SCT024 BKN050 BKN150 16/13 A3001 RMK AO2=
200711221714 SPECI KATL 221714Z 30015KT 10SM SCT011 BKN024 BKN050 BKN150 16/13 A3001 RMK AO2=
200711221714 SPECI KATL 221714Z 30015KT 10SM SCT011 BKN024 BKN050 BKN150 16/13 A3001 RMK AO2=
200711221652 METAR KATL 221652Z 30011KT 10SM BKN011 BKN018 BKN042 17/14 A3001 RMK AO2 SLP159 T01670144=
200711221558 SPECI KATL 221558Z 30008KT 9SM BKN011 BKN027 OVC042 17/15 A3002 RMK AO2=
200711221558 SPECI KATL 221558Z 30008KT 9SM BKN011 BKN027 OVC042 17/15 A3002 RMK AO2=
200711221552 METAR KATL 221552Z 30011G16KT 8SM SCT011 BKN027 OVC042 17/15 A3002 RMK AO2 RAE11B35E51 SLP162 CB DSIPT P0001 T01670150=
200711221514 SPECI KATL 221514Z 29006KT 8SM SCT018 BKN031 BKN045 16/15 A3002 RMK AO2 RAE11 CB DSIPT P0001=
200711221514 SPECI KATL 221514Z 29006KT 8SM SCT018 BKN031 BKN045 16/15 A3002 RMK AO2 RAE11 CB DSIPT P0001=
200711221452 METAR KATL 221452Z 31008KT 5SM -RA BR FEW009CB BKN018 OVC030 16/15 A3002 RMK AO2 RAE06B23 SLP160 CB SE-S MOV E P0001 60002 T01610150 53010=
200711221430 SPECI KATL 221430Z 32009KT 8SM -RA SCT008CB BKN015 OVC027 17/15 A3001 RMK AO2 RAE06B23 CB OHD MOV E P0000=
200711221430 SPECI KATL 221430Z 32009KT 8SM -RA SCT008CB BKN015 OVC027 17/15 A3001 RMK AO2 RAE06B23 CB OHD MOV E P0000=
200711221412 SPECI KATL 221412Z 32013KT 8SM SCT007 BKN013 OVC024 18/16 A3001 RMK AO2 RAE06 P0000=
200711221412 SPECI KATL 221412Z 32013KT 8SM SCT007 BKN013 OVC024 18/16 A3001 RMK AO2 RAE06 P0000=
200711221352 METAR KATL 221352Z 24005KT 7SM -RA SCT008 BKN015 OVC024 18/17 A3000 RMK AO2 RAB28 SLP154 P0001 T01830172=
200711221348 SPECI KATL 221348Z 23005KT 7SM -RA SCT008 BKN015 OVC024 18/17 A3000 RMK AO2 RAB28 P0001=
200711221348 SPECI KATL 221348Z 23005KT 7SM -RA SCT008 BKN015 OVC024 18/17 A3000 RMK AO2 RAB28 P0001=
200711221302 SPECI KATL 221302Z 22007KT 10SM BKN008 BKN012 OVC018 18/17 A2999 RMK AO2=
200711221302 SPECI KATL 221302Z 22007KT 10SM BKN008 BKN012 OVC018 18/17 A2999 RMK AO2=
200711221252 METAR KATL 221252Z 22009KT 10SM BKN010 OVC016 18/17 A2999 RMK AO2 CIG 007V013 SLP149 T01830172=
200711221152 METAR KATL 221152Z 21008KT 10SM BKN008 OVC018 18/17 A2998 RMK AO2 TSB22E38RAB01E51 SLP147 OCNL LTG DSNT NW-NE CB DSNT NW-NE P0013 60013 70013 T01780172 10189 20178 53003=
200711221141 SPECI KATL 221141Z 20006KT 7SM -RA BKN008 OVC012 18/17 A2998 RMK AO2 TSB22E38RAB01 CIG 005V010 TS MOV NE OCNL LTG DSNT NW-NE CB DSNT NW-NE P0013=
200711221141 SPECI KATL 221141Z 20006KT 7SM -RA BKN008 OVC012 18/17 A2998 RMK AO2 TSB22E38RAB01 CIG 005V010 TS MOV NE OCNL LTG DSNT NW-NE CB DSNT NW-NE P0013=
200711221123 SPECI KATL 221123Z 21005KT 6SM -TSRA BR OVC008CB 18/17 A2998 RMK AO2 TSB22RAB01 OCNL LTGIC TS N-NE MOV NE P0012=
200711221123 SPECI KATL 221123Z 21005KT 6SM -TSRA BR OVC008CB 18/17 A2998 RMK AO2 TSB22RAB01 OCNL LTGIC TS N-NE MOV NE P0012=
200711221119 SPECI KATL 221119Z 22005KT 3SM -RA BR BKN009 OVC012 18/17 A2998 RMK AO2 RAB01 P0012=
200711221119 SPECI KATL 221119Z 22005KT 3SM -RA BR BKN009 OVC012 18/17 A2998 RMK AO2 RAB01 P0012=
200711221108 SPECI KATL 221108Z 22008KT 2 1/2SM +RA BR OVC009 18/17 A2998 RMK AO2 RAB01 CIG 007V014 P0002=
200711221108 SPECI KATL 221108Z 22008KT 2 1/2SM +RA BR OVC009 18/17 A2998 RMK AO2 RAB01 CIG 007V014 P0002=
200711221052 METAR KATL 221052Z 21010KT 10SM OVC009 18/17 A2997 RMK AO2 CIG 008V013 SLP144 T01830167=
200711220952 METAR KATL 220952Z 21009KT 10SM OVC009 18/16 A2997 RMK AO2 SLP141 T01830161=
200711220915 SPECI KATL 220915Z 21011KT 10SM BKN014 BKN036 OVC110 18/16 A2997 RMK AO2=
200711220915 SPECI KATL 220915Z 21011KT 10SM BKN014 BKN036 OVC110 18/16 A2997 RMK AO2=
200711220852 METAR KATL 220852Z 21010KT 10SM BKN016 BKN036 BKN110 BKN200 18/15 A2997 RMK AO2 SLP143 T01780150 56017=
200711220843 SPECI KATL 220843Z 22007KT 10SM BKN016 BKN036 BKN110 BKN200 18/15 A2998 RMK AO2=
200711220843 SPECI KATL 220843Z 22007KT 10SM BKN016 BKN036 BKN110 BKN200 18/15 A2998 RMK AO2=
200711220752 METAR KATL 220752Z 21014G21KT 10SM SCT020 SCT110 BKN200 18/16 A2999 RMK AO2 SLP149 T01830156=
200711220736 SPECI KATL 220736Z 22013G18KT 10SM FEW018 SCT024 BKN110 OVC200 19/16 A2999 RMK AO2=
200711220736 SPECI KATL 220736Z 22013G18KT 10SM FEW018 SCT024 BKN110 OVC200 19/16 A2999 RMK AO2=
200711220652 METAR KATL 220652Z 22013G18KT 10SM SCT016 BKN024 OVC040 19/16 A3000 RMK AO2 SLP152 T01890156=
200711220552 METAR KATL 220552Z 22012KT 10SM BKN018 OVC025 19/16 A3003 RMK AO2 SLP161 BINOVC 60000 T01890156 10194 20178 55002=
200711220516 SPECI KATL 220516Z 21013KT 10SM BKN022 BKN040 BKN250 18/16 A3002 RMK AO2=
200711220516 SPECI KATL 220516Z 21013KT 10SM BKN022 BKN040 BKN250 18/16 A3002 RMK AO2=
200711220452 METAR KATL 220452Z 20011KT 10SM SCT022 BKN040 OVC070 18/15 A3002 RMK AO2 SLP162 T01830150 402220106=
200711220352 METAR KATL 220352Z 20013G17KT 10SM SCT035 BKN045 OVC070 19/15 A3002 RMK AO2 RAB06E19 SLP161 P0000 T01890150=
200711220252 METAR KATL 220252Z 19009KT 10SM SCT035 BKN045 OVC070 18/14 A3003 RMK AO2 SLP165 T01830144 58005=
200711220152 METAR KATL 220152Z 19007KT 10SM BKN055 BKN080 OVC120 18/14 A3004 RMK AO2 SLP168 T01830139=
200711220052 METAR KATL 220052Z 19004KT 10SM BKN035 BKN080 BKN100 OVC250 19/13 A3005 RMK AO2 SLP172 T01890133=
200711212352 METAR KATL 212352Z 18006KT 10SM FEW070 SCT100 BKN120 BKN250 19/13 A3005 RMK AO2 SLP172 T01940128 10222 20194 56004=
200711212252 METAR KATL 212252Z 20006KT 10SM BKN075 BKN100 BKN250 20/12 A3005 RMK AO2 SLP174 T02000122=
200711212152 METAR KATL 212152Z 20011KT 10SM BKN100 BKN140 BKN250 21/12 A3005 RMK AO2 SLP174 T02110117=
200711212052 METAR KATL 212052Z 20010KT 10SM FEW040 BKN095 BKN250 21/11 A3006 RMK AO2 SLP176 T02110111 56018=
200711211952 METAR KATL 211952Z 20009KT 10SM FEW040 BKN050 BKN080 BKN250 22/12 A3007 RMK AO2 SLP181 T02170122=
200711211852 METAR KATL 211852Z 19005KT 10SM FEW035 BKN065 BKN250 21/12 A3010 RMK AO2 SLP189 T02060122=
200711211752 METAR KATL 211752Z 21009KT 10SM FEW035 SCT060 BKN080 BKN250 21/12 A3011 RMK AO2 SLP194 T02060122 10211 20106 58025=
200711211652 METAR KATL 211652Z 20012KT 10SM FEW025 SCT060 BKN080 BKN250 19/12 A3015 RMK AO2 SLP206 T01940122=
200711211552 METAR KATL 211552Z 18009KT 10SM FEW055 SCT085 BKN250 17/12 A3018 RMK AO2 SLP217 ACC DSNT E T01720122=
200711211452 METAR KATL 211452Z 20007KT 10SM BKN065 BKN080 16/12 A3019 RMK AO2 SLP220 ACC DSNT NW T01610122 53008=
200711211352 METAR KATL 211352Z 00000KT 10SM SCT065 SCT250 14/11 A3018 RMK AO2 SLP218 T01390106=
200711211252 METAR KATL 211252Z 00000KT 10SM BKN060 BKN250 12/09 A3017 RMK AO2 SLP213 T01220089=
200711211152 METAR KATL 211152Z 00000KT 10SM SCT060 BKN250 11/08 A3016 RMK AO2 SLP212 T01110083 10133 20106 53003=
200711211052 METAR KATL 211052Z 00000KT 10SM FEW250 11/08 A3015 RMK AO2 SLP209 T01110078=
200711210952 METAR KATL 210952Z 00000KT 10SM CLR 12/08 A3015 RMK AO2 SLP206 T01220078=
200711210852 METAR KATL 210852Z 00000KT 10SM CLR 12/07 A3015 RMK AO2 SLP206 T01170072 56007=
200711210752 METAR KATL 210752Z 00000KT 10SM CLR 12/07 A3016 RMK AO2 SLP207 T01170072=
200711210652 METAR KATL 210652Z 00000KT 10SM CLR 12/07 A3016 RMK AO2 SLP210 T01220072=
200711210552 METAR KATL 210552Z 00000KT 10SM CLR 13/08 A3017 RMK AO2 SLP214 T01280078 10183 20128 58000=
200711210452 METAR KATL 210452Z 00000KT 10SM CLR 14/07 A3018 RMK AO2 SLP215 T01390072 402280100=
200711210352 METAR KATL 210352Z 21003KT 10SM CLR 13/08 A3018 RMK AO2 SLP216 T01330083=
200711210252 METAR KATL 210252Z 00000KT 10SM CLR 16/08 A3018 RMK AO2 SLP215 T01560078 53003=
200711210152 METAR KATL 210152Z 00000KT 10SM CLR 16/07 A3017 RMK AO2 SLP215 T01610072=
200711210052 METAR KATL 210052Z 22003KT 10SM CLR 18/08 A3017 RMK AO2 SLP214 T01780078=
200711202352 METAR KATL 202352Z 22003KT 10SM CLR 18/08 A3017 RMK AO2 SLP214 T01780083 10228 20178 53001=
200711202252 METAR KATL 202252Z 20003KT 10SM FEW250 19/09 A3016 RMK AO2 SLP210 T01940089=
200711202152 METAR KATL 202152Z 22005KT 10SM FEW240 22/08 A3016 RMK AO2 SLP209 T02170083=
200711202052 METAR KATL 202052Z 19003KT 10SM FEW050 22/08 A3017 RMK AO2 SLP212 T02220083 56019=
200711201952 METAR KATL 201952Z 21006KT 10SM FEW050 22/08 A3018 RMK AO2 SLP214 T02220083=
200711201852 METAR KATL 201852Z 00000KT 10SM FEW050 22/09 A3019 RMK AO2 SLP219 T02220089=
200711201752 METAR KATL 201752Z 22009KT 10SM CLR 22/08 A3022 RMK AO2 SLP231 T02170078 10217 20100 58018=
200711201652 METAR KATL 201652Z 22009KT 10SM CLR 21/07 A3026 RMK AO2 SLP242 T02060072=
200711201552 METAR KATL 201552Z 24008KT 10SM CLR 19/05 A3028 RMK AO2 SLP250 T01940050=
200711201452 METAR KATL 201452Z 22007KT 10SM CLR 17/06 A3028 RMK AO2 SLP250 T01720061 51010=
200711201421 SPECI KATL 201421Z 25003KT 10SM CLR 16/07 A3028 RMK AO2=
200711201421 SPECI KATL 201421Z 25003KT 10SM CLR 16/07 A3028 RMK AO2=
200711201352 METAR KATL 201352Z 00000KT 10SM CLR 14/08 A3028 RMK AO2 SLP251 T01440083=
200711201252 METAR KATL 201252Z 00000KT 10SM CLR 11/07 A3026 RMK AO2 SLP246 T01110067 $=
200711201152 METAR KATL 201152Z 00000KT 10SM CLR 10/07 A3025 RMK AO2 SLP242 T01000067 10139 20100 53008=
200711201052 METAR KATL 201052Z 00000KT 10SM CLR 11/07 A3024 RMK AO2 SLP237 T01060072=
200711200952 METAR KATL 200952Z 00000KT 10SM CLR 11/08 A3022 RMK AO2 SLP232 T01110078=
200711200852 METAR KATL 200852Z 00000KT 10SM CLR 11/07 A3022 RMK AO2 SLP231 T01110072 56008=
200711200752 METAR KATL 200752Z 00000KT 10SM CLR 12/08 A3023 RMK AO2 SLP233 T01170078=
200711200652 METAR KATL 200652Z 00000KT 10SM CLR 13/08 A3024 RMK AO2 SLP235 T01330078=
200711200552 METAR KATL 200552Z 24003KT 10SM CLR 13/08 A3025 RMK AO2 SLP239 T01280078 10178 20122 56001=
200711200452 METAR KATL 200452Z 00000KT 10SM CLR 14/08 A3025 RMK AO2 SLP241 T01390083 402170106=
200711200352 METAR KATL 200352Z 00000KT 10SM CLR 14/09 A3024 RMK AO2 SLP240 T01390089=
200711200252 METAR KATL 200252Z 00000KT 10SM CLR 15/09 A3025 RMK AO2 SLP242 T01500094 53005=
200711200152 METAR KATL 200152Z 00000KT 10SM CLR 15/09 A3024 RMK AO2 SLP239 T01500094=
200711200052 METAR KATL 200052Z 00000KT 10SM FEW250 16/09 A3024 RMK AO2 SLP237 T01610094=
200711192352 METAR KATL 192352Z 00000KT 10SM FEW250 18/09 A3023 RMK AO2 SLP236 T01780094 10217 20178 55001=
200711192252 METAR KATL 192252Z 00000KT 10SM FEW250 19/09 A3023 RMK AO2 SLP234 T01890094=
200711192152 METAR KATL 192152Z 00000KT 10SM FEW050 SCT240 21/09 A3023 RMK AO2 SLP235 T02110089=
200711192052 METAR KATL 192052Z 00000KT 10SM FEW050 SCT240 21/09 A3024 RMK AO2 SLP236 T02110089 55014=
200711191952 METAR KATL 191952Z 00000KT 10SM FEW050 SCT240 22/09 A3023 RMK AO2 SLP233 T02170094=
200711191852 METAR KATL 191852Z 00000KT 10SM FEW045 SCT240 21/10 A3025 RMK AO2 SLP240 T02110100=
200711191752 METAR KATL 191752Z 00000KT 10SM FEW035 SCT240 19/11 A3028 RMK AO2 SLP250 T01940106 10200 20106 58019=
200711191713 SPECI KATL 191713Z 00000KT 6SM HZ FEW240 18/13 A3030 RMK AO2=
200711191713 SPECI KATL 191713Z 00000KT 6SM HZ FEW240 18/13 A3030 RMK AO2=
200711191652 METAR KATL 191652Z 00000KT 3SM HZ FEW008 SCT240 17/12 A3031 RMK AO2 SFC VIS 5 SLP262 T01670122=
200711191637 SPECI KATL 191637Z 32005KT 3SM HZ FEW008 SCT240 16/13 A3032 RMK AO2 SFC VIS 5=
200711191637 SPECI KATL 191637Z 32005KT 3SM HZ FEW008 SCT240 16/13 A3032 RMK AO2 SFC VIS 5=
200711191604 SPECI KATL 191604Z 33006KT 2 1/2SM BR BKN005 BKN007 14/12 A3033 RMK AO2 SFC VIS 4=
200711191604 SPECI KATL 191604Z 33006KT 2 1/2SM BR BKN005 BKN007 14/12 A3033 RMK AO2 SFC VIS 4=
200711191552 METAR KATL 191552Z 33004KT 1 1/2SM BR BKN004 14/12 A3033 RMK AO2 SFC VIS 4 SLP268 T01390122=
200711191526 SPECI KATL 191526Z 34005KT 1/2SM BR OVC003 13/12 A3033 RMK AO2 SFC VIS 2 1/2=
200711191526 SPECI KATL 191526Z 34005KT 1/2SM BR OVC003 13/12 A3033 RMK AO2 SFC VIS 2 1/2=
200711191452 METAR KATL 191452Z 34008KT 1/4SM R09R/5500VP6000FT BR OVC003 13/12 A3034 RMK AO2 SFC VIS 1 SLP271 T01280122 51012=
200711191403 SPECI KATL 191403Z 36008KT 1/4SM R09R/1800V2800FT FG VV001 12/12 A3032 RMK AO2=
200711191403 SPECI KATL 191403Z 36008KT 1/4SM R09R/1800V2800FT FG VV001 12/12 A3032 RMK AO2=
200711191352 METAR KATL 191352Z 34007KT 1/4SM R09R/1400V1800FT FG VV001 12/12 A3032 RMK AO2 TWR VIS 1/4 SLP266 T01220117=
200711191324 SPECI KATL 191324Z 35008KT 1/4SM R09R/5000VP6000FT BR BKN001 12/11 A3031 RMK AO2 SFC VIS 1=
200711191324 SPECI KATL 191324Z 35008KT 1/4SM R09R/5000VP6000FT BR BKN001 12/11 A3031 RMK AO2 SFC VIS 1=
200711191311 SPECI KATL 191311Z 34008KT 1SM R09R/5500VP6000FT BR SCT003 12/12 A3031 RMK AO2 SFC VIS 3=
200711191311 SPECI KATL 191311Z 34008KT 1SM R09R/5500VP6000FT BR SCT003 12/12 A3031 RMK AO2 SFC VIS 3=
200711191252 METAR KATL 191252Z 34006KT 5SM BR FEW250 12/11 A3030 RMK AO2 SLP258 T01220111=
200711190952 METAR KATL 190952Z 00000KT 8SM CLR 11/10 A3024 RMK AO2 SLP240 T01110100=
200711190852 METAR KATL 190852Z 23003KT 7SM FEW250 12/11 A3024 RMK AO2 SLP238 T01170106 55004=
200711190752 METAR KATL 190752Z 20004KT 9SM FEW250 13/11 A3024 RMK AO2 SLP237 T01280111=
200711190652 METAR KATL 190652Z 29003KT 10SM BKN150 BKN200 OVC250 13/11 A3025 RMK AO2 SLP241 T01330111=
200711190552 METAR KATL 190552Z 30004KT 10SM FEW050 BKN150 BKN200 14/11 A3025 RMK AO2 SLP241 T01390111 10167 20139 50000=
200711190452 METAR KATL 190452Z 23003KT 10SM FEW050 BKN150 OVC200 14/11 A3026 RMK AO2 SLP243 T01440111 402000094=
200711190352 METAR KATL 190352Z 27005KT 10SM SCT050 BKN150 BKN200 15/11 A3026 RMK AO2 SLP244 T01500111=
200711190252 METAR KATL 190252Z 23004KT 10SM SCT050 OVC180 16/11 A3025 RMK AO2 SLP242 T01560111 51011=
200711190152 METAR KATL 190152Z 00000KT 10SM SCT055 OVC180 16/11 A3024 RMK AO2 SLP240 T01560111=
200711190052 METAR KATL 190052Z 00000KT 10SM FEW060 SCT150 OVC180 16/11 A3023 RMK AO2 SLP235 T01610111=
200711182352 METAR KATL 182352Z 22004KT 10SM FEW060 BKN150 OVC180 17/11 A3022 RMK AO2 SLP231 T01670111 10194 20167 51009=
200711182252 METAR KATL 182252Z 21006KT 10SM FEW060 BKN150 OVC180 17/12 A3021 RMK AO2 SLP228 T01720117=
200711182152 METAR KATL 182152Z 20007KT 10SM FEW065 OVC180 18/11 A3020 RMK AO2 SLP225 T01780111=
200711182052 METAR KATL 182052Z 20007KT 10SM FEW046 BKN070 BKN150 OVC250 18/11 A3019 RMK AO2 SLP221 T01830111 55002=
200711181952 METAR KATL 181952Z 22006KT 10SM FEW032 BKN070 BKN250 19/11 A3018 RMK AO2 SLP219 T01890111 $=
200711181852 METAR KATL 181852Z 19006KT 10SM FEW032 SCT070 SCT150 BKN250 19/11 A3018 RMK AO2 SLP219 T01890111=
200711181752 METAR KATL 181752Z 25003KT 10SM FEW036 SCT070 SCT150 BKN250 19/11 A3019 RMK AO2 SLP222 T01940111 10200 20094 58014=
200711181652 METAR KATL 181652Z 31004KT 10SM FEW032 SCT150 BKN250 19/11 A3022 RMK AO2 SLP233 T01890111=
200711181552 METAR KATL 181552Z 30006KT 10SM FEW044 SCT250 17/11 A3024 RMK AO2 SLP239 T01670106=
200711181452 METAR KATL 181452Z 30007KT 10SM FEW044 SCT150 SCT250 14/09 A3024 RMK AO2 SLP238 T01440094 51025=
200711181352 METAR KATL 181352Z 31004KT 10SM FEW045 SCT150 BKN250 12/09 A3022 RMK AO2 SLP233 T01170089=
200711181252 METAR KATL 181252Z 00000KT 9SM FEW045 SCT150 SCT200 10/08 A3019 RMK AO2 SLP224 T01000078=
200711181152 METAR KATL 181152Z 00000KT 10SM SCT150 BKN200 10/07 A3016 RMK AO2 SLP213 T01000072 10122 20100 53012=
200711181052 METAR KATL 181052Z 23003KT 10SM SCT150 11/08 A3015 RMK AO2 SLP209 T01060078=
200711180952 METAR KATL 180952Z 23004KT 10SM SCT150 BKN200 11/07 A3013 RMK AO2 SLP203 T01060072=
200711180852 METAR KATL 180852Z 24003KT 10SM BKN150 11/07 A3013 RMK AO2 SLP200 T01110067 51006=
200711180752 METAR KATL 180752Z 24006KT 10SM SCT150 12/07 A3012 RMK AO2 SLP199 T01170067=
200711180652 METAR KATL 180652Z 22007KT 10SM BKN150 BKN250 12/06 A3011 RMK AO2 SLP196 T01170061=
200711180552 METAR KATL 180552Z 22006KT 10SM BKN060 OVC120 12/06 A3011 RMK AO2 SLP194 T01220061 10139 20111 58002=
200711180452 METAR KATL 180452Z 00000KT 10SM FEW047 SCT060 BKN120 BKN250 12/06 A3012 RMK AO2 SLP200 T01170056 401610006=
200711180352 METAR KATL 180352Z 23004KT 10SM BKN060 BKN250 12/06 A3012 RMK AO2 SLP200 T01220056=
200711180252 METAR KATL 180252Z 24004KT 10SM SCT070 BKN250 13/04 A3011 RMK AO2 SLP198 T01330044 53010=
200711180152 METAR KATL 180152Z 23003KT 10SM FEW070 SCT110 BKN250 13/03 A3010 RMK AO2 SLP194 T01330033=
200711180052 METAR KATL 180052Z 21005KT 10SM SCT110 13/03 A3008 RMK AO2 SLP190 T01330033=
200711172352 METAR KATL 172352Z 00000KT 10SM BKN120 14/03 A3008 RMK AO2 SLP191 60000 T01390028 10161 20139 53005=
200711172252 METAR KATL 172252Z 20004KT 10SM SCT055 BKN110 14/02 A3008 RMK AO2 RAB32E49 SLP188 P0000 T01440022=
200711172152 METAR KATL 172152Z 21006KT 10SM SCT060 BKN110 BKN180 BKN250 16/01 A3007 RMK AO2 SLP185 T01560011=
200711172052 METAR KATL 172052Z 24011KT 10SM SCT060 BKN110 BKN250 16/01 A3007 RMK AO2 SLP185 T01560006 55010=
200711171952 METAR KATL 171952Z 21012KT 10SM FEW060 SCT100 BKN250 16/00 A3006 RMK AO2 SLP179 T01560000=
200711171852 METAR KATL 171852Z 23009G17KT 10SM BKN070 BKN100 BKN200 15/M01 A3008 RMK AO2 SLP188 T01501011=
200711171752 METAR KATL 171752Z 23013KT 10SM SCT100 SCT200 14/M02 A3010 RMK AO2 SLP196 T01441017 10144 20017 58017=
200711171652 METAR KATL 171652Z 22009KT 10SM SCT075 BKN100 BKN180 14/M01 A3012 RMK AO2 SLP203 T01391011=
200711171552 METAR KATL 171552Z 20004KT 10SM BKN085 BKN100 BKN180 11/M01 A3014 RMK AO2 SLP211 T01111011=
200711171452 METAR KATL 171452Z COR 24005KT 10SM BKN085 BKN100 BKN180 09/M01 A3015 RMK AO2 SLP214 T00941011 53011=
200711171352 METAR KATL 171352Z 22004KT 10SM FEW180 07/M01 A3014 RMK AO2 SLP212 T00671006=
200711171252 METAR KATL 171252Z 00000KT 10SM FEW180 03/M02 A3013 RMK AO2 SLP206 T00331022=
200711171152 METAR KATL 171152Z 00000KT 10SM SCT120 BKN180 02/M02 A3012 RMK AO2 SLP204 T00171022 10039 20006 51007=
200711171052 METAR KATL 171052Z 28003KT 10SM SCT085 BKN200 02/M03 A3011 RMK AO2 SLP201 T00171028=
200711170952 METAR KATL 170952Z 30003KT 10SM CLR 02/M03 A3011 RMK AO2 SLP199 T00171028=
200711170852 METAR KATL 170852Z 29004KT 10SM CLR 02/M03 A3009 RMK AO2 SLP196 T00171033 53005=
200711170752 METAR KATL 170752Z 31004KT 10SM CLR 03/M03 A3009 RMK AO2 SLP193 T00281028=
200711170652 METAR KATL 170652Z 24003KT 10SM CLR 04/M04 A3008 RMK AO2 SLP188 T00391039=
200711170552 METAR KATL 170552Z 00000KT 10SM FEW250 03/M03 A3008 RMK AO2 SLP190 T00331033 10083 20033 58007=
200711170452 METAR KATL 170452Z 22004KT 10SM FEW250 04/M03 A3009 RMK AO2 SLP194 T00391033 401221011=
200711170352 METAR KATL 170352Z 24003KT 10SM FEW250 04/M02 A3009 RMK AO2 SLP196 T00391022=
200711170252 METAR KATL 170252Z 00000KT 10SM FEW250 05/M03 A3010 RMK AO2 SLP199 T00501028 53006=
200711170152 METAR KATL 170152Z 00000KT 10SM FEW250 06/M03 A3009 RMK AO2 SLP197 T00561028=
200711170052 METAR KATL 170052Z 33004KT 10SM FEW250 07/M04 A3009 RMK AO2 SLP195 T00721039=
200711162352 METAR KATL 162352Z 00000KT 10SM CLR 08/M04 A3008 RMK AO2 SLP194 T00831044 10122 20083 53001=
200711162252 METAR KATL 162252Z 31003KT 10SM FEW240 09/M05 A3007 RMK AO2 SLP188 T00941050=
200711162152 METAR KATL 162152Z 31005KT 10SM CLR 11/M06 A3007 RMK AO2 SLP188 T01061056=
200711162052 METAR KATL 162052Z 33008G14KT 10SM CLR 12/M06 A3008 RMK AO2 SLP190 T01171056 56021=
200711161952 METAR KATL 161952Z 30007KT 10SM CLR 12/M06 A3009 RMK AO2 SLP195 T01171056=
200711161852 METAR KATL 161852Z 31008KT 10SM CLR 11/M06 A3011 RMK AO2 SLP201 T01061056=
200711161752 METAR KATL 161752Z 29011G16KT 10SM FEW240 10/M04 A3014 RMK AO2 SLP212 T01001044 10100 21011 58014=
200711161652 METAR KATL 161652Z 33004KT 10SM FEW240 08/M05 A3017 RMK AO2 SLP220 T00831050=
200711161552 METAR KATL 161552Z 33011KT 10SM CLR 07/M04 A3018 RMK AO2 SLP225 T00721044=
200711161452 METAR KATL 161452Z 35005KT 10SM CLR 05/M03 A3018 RMK AO2 SLP227 T00501033 50005=
200711161352 METAR KATL 161352Z 33004KT 10SM CLR 02/M03 A3019 RMK AO2 SLP230 T00221028=
200711161252 METAR KATL 161252Z 30006KT 10SM CLR 00/M03 A3017 RMK AO2 SLP225 T00001033=
200711161152 METAR KATL 161152Z 30006KT 10SM CLR M01/M04 A3017 RMK AO2 SLP224 T10061039 10011 21011 51006=
200711161052 METAR KATL 161052Z 29006KT 10SM CLR M01/M04 A3017 RMK AO2 SLP222 T10111044=
200711160952 METAR KATL 160952Z 28004KT 10SM CLR M01/M04 A3017 RMK AO2 SLP221 T10061044=
200711160852 METAR KATL 160852Z 29005KT 10SM CLR 00/M04 A3015 RMK AO2 SLP214 T00001039 53001=
200711160752 METAR KATL 160752Z 28006KT 10SM CLR 00/M04 A3014 RMK AO2 SLP212 T00001039=
200711160652 METAR KATL 160652Z 29006KT 10SM CLR 01/M04 A3014 RMK AO2 SLP211 T00061039=
200711160552 METAR KATL 160552Z 30005KT 10SM CLR 01/M04 A3015 RMK AO2 SLP213 T00111039 10061 20011 55003=
200711160452 METAR KATL 160452Z 32005KT 10SM CLR 02/M04 A3014 RMK AO2 SLP211 T00221039 401780022=
200711160352 METAR KATL 160352Z 34006KT 10SM CLR 03/M04 A3015 RMK AO2 SLP214 T00331044=
200711160252 METAR KATL 160252Z 35011KT 10SM CLR 04/M04 A3016 RMK AO2 SLP216 T00441044 51017=
200711160152 METAR KATL 160152Z 35011KT 10SM CLR 05/M04 A3014 RMK AO2 SLP211 T00501044=
200711160052 METAR KATL 160052Z 33013KT 10SM CLR 06/M04 A3012 RMK AO2 SLP204 T00561044=
200711152352 METAR KATL 152352Z 33012G21KT 10SM FEW050 06/M04 A3010 RMK AO2 PK WND 34028/2258 SLP198 T00611044 10128 20061 51031=
200711152252 METAR KATL 152252Z 33012G24KT 10SM FEW050 07/M04 A3008 RMK AO2 PK WND 32034/2206 SLP190 T00721039=
200711152152 METAR KATL 152152Z 34024G32KT 10SM FEW055 09/M04 A3006 RMK AO2 PK WND 33032/2151 SLP180 T00891039=
200711152052 METAR KATL 152052Z 33021G30KT 10SM FEW060 11/M04 A3001 RMK AO2 PK WND 31030/2045 SLP163 T01061039 53004=
200711151952 METAR KATL 151952Z 29017G24KT 10SM FEW065 12/M04 A3000 RMK AO2 PK WND 33029/1937 SLP156 T01171039=
200711151852 METAR KATL 151852Z 30021G28KT 10SM FEW065 13/M04 A3000 RMK AO2 PK WND 31029/1838 SLP155 T01281039=
200711151752 METAR KATL 151752Z 32021G29KT 10SM FEW060 12/M03 A3000 RMK AO2 PK WND 33031/1730 SLP156 T01171033 10128 20089 58000=
200711151652 METAR KATL 151652Z 32017G27KT 10SM FEW055 12/M03 A3000 RMK AO2 PK WND 31028/1608 SLP156 T01171033=
200711151552 METAR KATL 151552Z 34018G24KT 10SM FEW050 11/M03 A3000 RMK AO2 PK WND 30030/1502 SLP158 T01111028=
200711151452 METAR KATL 151452Z 32022G29KT 10SM FEW050 10/M02 A3000 RMK AO2 PK WND 32033/1426 SLP156 T01001022 51022=
200711151352 METAR KATL 151352Z 31019G27KT 10SM FEW036 09/01 A2998 RMK AO2 PK WND 34028/1317 SLP150 T00940006=
200711151252 METAR KATL 151252Z 32016G27KT 10SM FEW032 09/03 A2996 RMK AO2 PK WND 34027/1245 SLP142 T00890033=
200711151152 METAR KATL 151152Z 32012G22KT 10SM FEW048 SCT110 09/03 A2993 RMK AO2 PK WND 34032/1127 SLP133 60011 70014 T00940033 10178 20094 53015=
200711151052 METAR KATL 151052Z 32014KT 10SM SCT048 OVC110 11/06 A2991 RMK AO2 SLP125 T01060056=
200711150952 METAR KATL 150952Z 32012G23KT 10SM OVC038 11/07 A2989 RMK AO2 PK WND 32027/0934 RAE0853 SLP119 T01060067=
200711150913 SPECI KATL 150913Z 32013G21KT 10SM OVC030 12/09 A2988 RMK AO2 RAE0853=
200711150913 SPECI KATL 150913Z 32013G21KT 10SM OVC030 12/09 A2988 RMK AO2 RAE0853=
200711150852 METAR KATL 150852Z 32017G22KT 10SM -RA SCT008 BKN020 OVC025 12/10 A2988 RMK AO2 PK WND 33026/0836 WSHFT 0802 RAB04 SLP115 P0001 60011 T01170100 53006=
200711150817 SPECI KATL 150817Z 32019G26KT 4SM -RA BR BKN008 BKN015 OVC019 16/15 A2985 RMK AO2 PK WND 31026/0815 WSHFT 0802 RAB04 CIG 005V011 FROPA P0001=
200711150817 SPECI KATL 150817Z 32019G26KT 4SM -RA BR BKN008 BKN015 OVC019 16/15 A2985 RMK AO2 PK WND 31026/0815 WSHFT 0802 RAB04 CIG 005V011 FROPA P0001=
200711150808 SPECI KATL 150808Z 30013G21KT 6SM -RA BR BKN008 BKN015 OVC022 17/15 A2985 RMK AO2 RAB04 P0000=
200711150808 SPECI KATL 150808Z 30013G21KT 6SM -RA BR BKN008 BKN015 OVC022 17/15 A2985 RMK AO2 RAB04 P0000=
200711150752 METAR KATL 150752Z 26011KT 10SM FEW013 OVC020 17/16 A2984 RMK AO2 RAE27 SLP097 P0001 T01720156=
200711150733 SPECI KATL 150733Z 25012G19KT 9SM FEW012 BKN023 OVC041 17/16 A2984 RMK AO2 RAE27 P0001=
200711150733 SPECI KATL 150733Z 25012G19KT 9SM FEW012 BKN023 OVC041 17/16 A2984 RMK AO2 RAE27 P0001=
200711150702 SPECI KATL 150702Z 25011G17KT 7SM -RA BKN012 BKN036 OVC090 17/16 A2985 RMK AO2 P0000=
200711150702 SPECI KATL 150702Z 25011G17KT 7SM -RA BKN012 BKN036 OVC090 17/16 A2985 RMK AO2 P0000=
200711150652 METAR KATL 150652Z 24012KT 7SM -RA SCT013 BKN034 OVC095 17/16 A2985 RMK AO2 SLP103 P0009 T01720161=
200711150615 SPECI KATL 150615Z 25009KT 5SM RA BR FEW018 BKN025 OVC040 18/16 A2987 RMK AO2 P0003=
200711150615 SPECI KATL 150615Z 25009KT 5SM RA BR FEW018 BKN025 OVC040 18/16 A2987 RMK AO2 P0003=
200711150552 METAR KATL 150552Z 23009KT 8SM -RA BKN038 BKN050 OVC080 18/16 A2987 RMK AO2 SLP107 P0001 60003 T01780156 10200 20178 56009=
200711150452 METAR KATL 150452Z 24008KT 8SM -RA FEW025 BKN050 OVC070 18/16 A2988 RMK AO2 RAB07E28B47 SLP110 P0002 T01830156 402500128=
200711150352 METAR KATL 150352Z 22014G22KT 10SM FEW095 BKN120 OVC200 20/14 A2988 RMK AO2 SLP109 CB DSNT W-NW T02000139=
200711150252 METAR KATL 150252Z 21010KT 10SM FEW070 OVC100 19/14 A2989 RMK AO2 SLP117 T01940139 57009=
200711150152 METAR KATL 150152Z 23006KT 10SM FEW100 19/14 A2990 RMK AO2 SLP122 T01890139=
200711150052 METAR KATL 150052Z 21008KT 10SM FEW100 19/13 A2991 RMK AO2 SLP124 T01940133=
200711142352 METAR KATL 142352Z 22005KT 10SM SCT110 SCT250 20/13 A2992 RMK AO2 SLP128 T02000133 10250 20200 55003=
200711142252 METAR KATL 142252Z 23005KT 10SM FEW120 SCT150 BKN250 21/14 A2992 RMK AO2 SLP126 T02110139=
200711142152 METAR KATL 142152Z 21010KT 10SM FEW045 SCT180 SCT250 23/13 A2991 RMK AO2 SLP123 T02280128=
200711142052 METAR KATL 142052Z 22007KT 10SM FEW040 BKN080 BKN250 23/14 A2993 RMK AO2 SLP129 T02330139 56017=
200711141952 METAR KATL 141952Z 22011KT 10SM FEW040 SCT090 SCT250 24/14 A2994 RMK AO2 SLP134 MDT CU DSNT NE NW T02440139=
200711141852 METAR KATL 141852Z 23009KT 9SM FEW035 BKN075 BKN095 24/14 A2996 RMK AO2 SLP140 MDT CU DSNT NE T02390139=
200711141752 METAR KATL 141752Z 25009KT 10SM FEW035 SCT065 SCT085 23/14 A2998 RMK AO2 SLP146 T02330139 10239 20128 58022=
200711141652 METAR KATL 141652Z 26009KT 10SM FEW040 SCT065 SCT085 22/14 A3002 RMK AO2 SLP159 T02220139=
200711141552 METAR KATL 141552Z 24010KT 10SM FEW060 SCT080 22/14 A3003 RMK AO2 SLP164 ACC DSNT NE-E-SE T02220144=
200711141452 METAR KATL 141452Z 25004KT 8SM FEW050 SCT070 18/13 A3005 RMK AO2 SLP171 ACC DSNT SE W-NW T01780133 51008=
200711141352 METAR KATL 141352Z 22005KT 8SM SCT050 15/12 A3004 RMK AO2 SLP170 MDT CU VC W-NW T01500122=
200711141252 METAR KATL 141252Z 25004KT 8SM FEW070 13/12 A3004 RMK AO2 SLP169 ACC VC NW T01330117=
200711141152 METAR KATL 141152Z 21004KT 10SM FEW065 13/12 A3002 RMK AO2 SLP163 T01280117 10150 20128 50000=
200711141052 METAR KATL 141052Z 22005KT 10SM BKN060 13/12 A3003 RMK AO2 SLP166 T01330117=
200711140952 METAR KATL 140952Z 22003KT 10SM FEW070 13/12 A3002 RMK AO2 SLP162 T01330117=
200711140852 METAR KATL 140852Z 22005KT 10SM SCT075 14/12 A3002 RMK AO2 SLP161 T01440122 58006=
200711140752 METAR KATL 140752Z 23003KT 10SM SCT075 14/12 A3003 RMK AO2 SLP165 T01440122=
200711140652 METAR KATL 140652Z 22005KT 10SM SCT075 14/12 A3003 RMK AO2 SLP163 T01390122=
200711140552 METAR KATL 140552Z 00000KT 10SM FEW075 15/13 A3004 RMK AO2 SLP167 T01500128 10194 20150 56007=
200711140452 METAR KATL 140452Z 23003KT 10SM CLR 16/13 A3005 RMK AO2 SLP169 T01560128 402330094=
200711140352 METAR KATL 140352Z COR 23005KT 10SM FEW150 17/13 A3005 RMK AO2 SLP172 T01670128=
200711140252 METAR KATL 140252Z 22004KT 10SM FEW100 BKN150 17/13 A3006 RMK AO2 SLP175 T01720128 56003=
200711140152 METAR KATL 140152Z 23004KT 10SM FEW050 BKN150 BKN250 17/13 A3006 RMK AO2 SLP177 T01720128=
200711140052 METAR KATL 140052Z 22005KT 10SM FEW045 BKN055 OVC200 18/12 A3007 RMK AO2 SLP179 T01830122=
200711132352 METAR KATL 132352Z 00000KT 10SM BKN050 OVC065 19/12 A3007 RMK AO2 SLP180 T01890117 10233 20183 53004=
200711132252 METAR KATL 132252Z 24003KT 10SM FEW050 SCT100 SCT250 20/11 A3006 RMK AO2 SLP177 T02000111=
200711132152 METAR KATL 132152Z 24003KT 10SM FEW055 SCT090 SCT200 22/12 A3005 RMK AO2 SLP172 T02170117=
200711132052 METAR KATL 132052Z 24010G15KT 10SM FEW050 SCT090 SCT300 23/11 A3006 RMK AO2 SLP175 T02280111 56022=
200711131952 METAR KATL 131952Z 26006KT 10SM SCT050 22/11 A3007 RMK AO2 SLP180 T02220111=
200711131852 METAR KATL 131852Z 29006KT 10SM FEW050 SCT200 SCT300 23/12 A3009 RMK AO2 SLP185 T02280117=
200711131752 METAR KATL 131752Z 29006KT 10SM FEW040 SCT060 SCT200 BKN300 22/12 A3013 RMK AO2 SLP198 T02170117 10217 20094 58021=
200711131652 METAR KATL 131652Z COR 28007KT 10SM FEW060 SCT090 BKN200 21/11 A3016 RMK AO2 SLP211 T02060111=
200711131552 METAR KATL 131552Z 29009KT 10SM FEW110 BKN200 BKN300 20/11 A3018 RMK AO2 SLP216 T02000111=
200711131452 METAR KATL 131452Z 26008G15KT 10SM FEW120 SCT200 BKN300 18/10 A3019 RMK AO2 SLP221 T01830100 58001=
200711131352 METAR KATL 131352Z 26006KT 10SM FEW200 SCT250 14/08 A3020 RMK AO2 SLP224 T01440083=
200711131252 METAR KATL 131252Z 26005KT 10SM FEW250 11/07 A3020 RMK AO2 SLP226 T01110067=
200711131152 METAR KATL 131152Z 00000KT 10SM CLR 10/05 A3019 RMK AO2 SLP224 T01000050 10117 20094 52002=
200711131052 METAR KATL 131052Z 24003KT 10SM FEW250 09/05 A3019 RMK AO2 SLP221 T00940050=
200711130952 METAR KATL 130952Z 25003KT 10SM FEW250 10/04 A3019 RMK AO2 SLP222 T01000044=
200711130852 METAR KATL 130852Z 24003KT 10SM FEW150 SCT250 10/04 A3019 RMK AO2 SLP220 T01000044 58014=
200711130752 METAR KATL 130752Z 23003KT 10SM FEW150 SCT250 10/04 A3021 RMK AO2 SLP229 T01000044=
200711130652 METAR KATL 130652Z 00000KT 10SM FEW120 SCT150 SCT250 11/05 A3022 RMK AO2 SLP230 T01060050=
200711130552 METAR KATL 130552Z 00000KT 10SM FEW150 BKN200 11/06 A3023 RMK AO2 SLP234 T01060056 10150 20106 57012=
200711130452 METAR KATL 130452Z 00000KT 10SM SCT150 BKN200 12/05 A3024 RMK AO2 SLP238 T01170050 402000067=
200711130352 METAR KATL 130352Z 30003KT 10SM BKN150 OVC200 12/06 A3025 RMK AO2 SLP244 T01170056=
200711130252 METAR KATL 130252Z 31003KT 10SM FEW150 BKN200 13/05 A3026 RMK AO2 SLP249 T01280050 53001=
200711130152 METAR KATL 130152Z 00000KT 10SM BKN150 13/04 A3025=
200711130052 METAR KATL 130052Z 00000KT 10SM CLR 14/06 A3025 RMK AO2 SLP245 T01390056=
200711122352 METAR KATL 122352Z 17003KT 10SM CLR 15/06 A3026 RMK AO2 SLP248 T01500056 10200 20150 58006=
200711122252 METAR KATL 122252Z 00000KT 10SM FEW180 17/04 A3027 RMK AO2 SLP250 T01670044=
200711122152 METAR KATL 122152Z 33003KT 10SM FEW180 SCT250 18/04 A3028 RMK AO2 SLP253 T01830044=
200711122052 METAR KATL 122052Z 00000KT 10SM FEW180 SCT250 19/04 A3028 RMK AO2 SLP253 T01940039 56017=
200711121952 METAR KATL 121952Z 00000KT 10SM FEW110 BKN180 BKN250 18/04 A3029 RMK AO2 SLP256 T01830044=
200711121852 METAR KATL 121852Z VRB03KT 10SM FEW110 BKN180 BKN250 19/05 A3030 RMK AO2 SLP261 VIRGA DSNT N-NE T01890050=
200711121752 METAR KATL 121752Z 30004KT 10SM FEW110 BKN180 BKN250 18/04 A3033 RMK AO2 SLP270 T01780044 10183 20067 58020=
200711121652 METAR KATL 121652Z 27005KT 10SM FEW110 SCT180 BKN250 17/04 A3037 RMK AO2 SLP282 T01720039=
200711121552 METAR KATL 121552Z VRB05KT 10SM FEW110 SCT180 BKN250 16/05 A3039 RMK AO2 SLP290 T01560050=
200711121452 METAR KATL 121452Z 22005KT 10SM FEW110 SCT200 BKN250 12/04 A3039 RMK AO2 SLP293 T01220044 51016=
200711121352 METAR KATL 121352Z 24004KT 10SM FEW250 11/04 A3039 RMK AO2 SLP292 T01060044=
200711121252 METAR KATL 121252Z 00000KT 10SM FEW250 07/03 A3037 RMK AO2 SLP286 T00720028=
200711121152 METAR KATL 121152Z 00000KT 10SM FEW250 07/02 A3034 RMK AO2 SLP276 T00720022 10094 20067 53010=
200711121052 METAR KATL 121052Z 00000KT 10SM FEW250 07/02 A3033 RMK AO2 SLP272 T00720017=
200711120952 METAR KATL 120952Z 00000KT 10SM FEW250 07/02 A3032 RMK AO2 SLP268 T00720017=
200711120852 METAR KATL 120852Z 00000KT 10SM FEW250 07/02 A3031 RMK AO2 SLP266 T00670017 55000=
200711120752 METAR KATL 120752Z 10004KT 10SM FEW250 07/02 A3031 RMK AO2 SLP263 T00720017=
200711120652 METAR KATL 120652Z 08005KT 10SM FEW120 SCT250 08/02 A3031 RMK AO2 SLP265 T00780017=
200711120552 METAR KATL 120552Z 12003KT 10SM FEW120 SCT180 SCT250 09/02 A3031 RMK AO2 SLP265 T00940017 10133 20083 50000=
200711120452 METAR KATL 120452Z 00000KT 9SM SCT150 BKN250 09/02 A3032 RMK AO2 SLP267 T00940022 401720033=
200711120352 METAR KATL 120352Z 09006KT 10SM SCT150 SCT250 09/02 A3031 RMK AO2 SLP266 T00890022=
200711120252 METAR KATL 120252Z 07005KT 10SM SCT150 SCT250 11/03 A3031 RMK AO2 SLP266 T01060028 53016=
200711120152 METAR KATL 120152Z 13003KT 10SM SCT150 SCT250 12/02 A3029 RMK AO2 SLP260 T01220022=
200711120052 METAR KATL 120052Z 12005KT 10SM FEW150 SCT250 13/02 A3028 RMK AO2 SLP257 T01280022=
200711112352 METAR KATL 112352Z 14004KT 10SM FEW150 SCT200 SCT250 13/02 A3027 RMK AO2 SLP252 T01330022 10172 20133 53004=
200711112252 METAR KATL 112252Z 15004KT 10SM SCT150 SCT200 BKN250 14/02 A3026 RMK AO2 SLP247 T01440022=
200711112152 METAR KATL 112152Z 15005KT 10SM SCT150 BKN200 BKN250 16/02 A3025 RMK AO2 SLP246 T01610017=
200711112052 METAR KATL 112052Z 16005KT 10SM SCT150 BKN250 17/01 A3025 RMK AO2 SLP245 T01670011 56013=
200711111952 METAR KATL 111952Z 16006KT 10SM BKN250 17/02 A3025 RMK AO2 SLP245 T01670017=
200711111852 METAR KATL 111852Z 00000KT 10SM BKN250 16/02 A3027 RMK AO2 SLP251 T01610017=
200711111752 METAR KATL 111752Z VRB06KT 10SM SCT250 15/01 A3029 RMK AO2 SLP259 T01500006 10150 20033 58015=
200711111652 METAR KATL 111652Z 13007KT 10SM SCT250 13/M01 A3032 RMK AO2 SLP270 T01331006=
200711111552 METAR KATL 111552Z 11007KT 10SM FEW250 12/M01 A3033 RMK AO2 SLP275 T01221006=
200711111452 METAR KATL 111452Z 10006KT 10SM FEW250 10/M01 A3034 RMK AO2 SLP276 T01001006 51020=
200711111352 METAR KATL 111352Z 09009KT 10SM FEW250 07/M01 A3032 RMK AO2 SLP273 T00721006=
200711111252 METAR KATL 111252Z 07009KT 10SM FEW150 SCT250 05/M01 A3030 RMK AO2 SLP266 T00501011=
200711111152 METAR KATL 111152Z 08006KT 10SM FEW250 03/M02 A3028 RMK AO2 SLP257 T00331017 10072 20033 53015=
200711111052 METAR KATL 111052Z 08009KT 10SM FEW250 04/M02 A3026 RMK AO2 SLP250 T00391017=
200711110952 METAR KATL 110952Z 09007KT 10SM CLR 04/M02 A3024 RMK AO2 SLP242 T00391017=
200711110852 METAR KATL 110852Z 08008KT 10SM CLR 04/M02 A3023 RMK AO2 SLP239 T00441017 51007=
200711110752 METAR KATL 110752Z 08008KT 10SM CLR 05/M02 A3023 RMK AO2 SLP238 T00501017=
200711110652 METAR KATL 110652Z 08009KT 10SM CLR 06/M02 A3022 RMK AO2 SLP233 T00561017=
200711110552 METAR KATL 110552Z 06007KT 10SM CLR 07/M02 A3021 RMK AO2 SLP231 T00721017 10106 20061 51011=
200711110452 METAR KATL 110452Z 01006KT 10SM CLR 08/M02 A3021 RMK AO2 SLP229 T00781017 401670061=
200711110352 METAR KATL 110352Z 33005KT 10SM CLR 07/M01 A3019 RMK AO2 SLP224 T00671011=
200711110252 METAR KATL 110252Z 34006KT 10SM CLR 08/M02 A3018 RMK AO2 SLP221 T00781017 51011=
200711110152 METAR KATL 110152Z 32007KT 10SM FEW250 08/M01 A3017 RMK AO2 SLP219 T00781011=
200711110052 METAR KATL 110052Z 32006KT 10SM SCT250 09/M02 A3016 RMK AO2 SLP214 T00891017=
200711102352 METAR KATL 102352Z 31005KT 10SM SCT250 11/M02 A3014 RMK AO2 SLP210 T01061022 10167 20100 53009=
200711102252 METAR KATL 102252Z 33004KT 10SM SCT250 11/M03 A3013 RMK AO2 SLP204 T01111028=
200711102152 METAR KATL 102152Z 34009KT 10SM SCT250 14/M03 A3012 RMK AO2 SLP200 T01391028=
200711102052 METAR KATL 102052Z 34013KT 10SM FEW150 SCT250 15/M04 A3012 RMK AO2 SLP198 T01501039 56005=
200711101952 METAR KATL 101952Z 33012G23KT 10SM SCT100 SCT150 BKN250 16/M04 A3012 RMK AO2 SLP198 T01561044=
200711101852 METAR KATL 101852Z 32012KT 10SM SCT150 BKN250 16/M03 A3012 RMK AO2 SLP199 T01611033=
200711101752 METAR KATL 101752Z 33014G21KT 10SM BKN150 BKN250 16/M02 A3013 RMK AO2 SLP202 T01561022 10161 20072 58007=
200711101652 METAR KATL 101652Z 31008KT 10SM BKN150 BKN250 15/M01 A3016 RMK AO2 SLP212 T01501006=
200711101552 METAR KATL 101552Z 34007KT 10SM SCT150 BKN250 14/00 A3017 RMK AO2 SLP214 T01390000=
200711101452 METAR KATL 101452Z 33009KT 10SM FEW150 SCT250 12/01 A3016 RMK AO2 SLP211 T01170011 51020=
200711101352 METAR KATL 101352Z 32010KT 10SM SCT250 09/02 A3015 RMK AO2 SLP208 T00940022=
200711101252 METAR KATL 101252Z 32006KT 10SM FEW250 08/03 A3013 RMK AO2 SLP202 T00830028=
200711101152 METAR KATL 101152Z 31010KT 10SM CLR 08/03 A3009 RMK AO2 SLP190 T00830033 10128 20083 53020=
200711101052 METAR KATL 101052Z 32009KT 10SM CLR 09/05 A3007 RMK AO2 SLP181 T00890050=
200711100952 METAR KATL 100952Z 32007KT 8SM CLR 09/07 A3006 RMK AO2 SLP177 T00940072=
200711100852 METAR KATL 100852Z 30006KT 8SM SCT150 10/08 A3003 RMK AO2 SLP168 T01000078 53005=
200711100752 METAR KATL 100752Z 29005KT 9SM SCT150 11/08 A3003 RMK AO2 SLP165 T01060078=
200711100652 METAR KATL 100652Z 27007KT 9SM FEW027 SCT045 11/08 A3002 RMK AO2 SLP164 T01110078=
200711100552 METAR KATL 100552Z 27006KT 10SM FEW032 SCT045 BKN060 13/08 A3002 RMK AO2 SLP163 T01280078 10161 20122 56005=
200711100452 METAR KATL 100452Z 25005KT 10SM FEW040 SCT050 BKN065 12/07 A3002 RMK AO2 SLP165 T01220072 401890033=
200711100352 METAR KATL 100352Z 26006KT 10SM CLR 13/07 A3003 RMK AO2 SLP166 T01280072=
200711100252 METAR KATL 100252Z 26005KT 10SM FEW050 13/07 A3003 RMK AO2 SLP170 T01330067 52007=
200711100152 METAR KATL 100152Z 27008KT 10SM FEW035 SCT050 14/07 A3003 RMK AO2 SLP169 T01440067=
200711100052 METAR KATL 100052Z 28008KT 10SM BKN042 BKN055 15/06 A3002 RMK AO2 SLP168 T01500061=
200711092352 METAR KATL 092352Z 26005KT 10SM SCT048 BKN065 16/06 A3001 RMK AO2 SLP165 T01610056 10189 20161 55002=
200711092252 METAR KATL 092252Z 26006KT 10SM OVC060 17/06 A3001 RMK AO2 SLP162 BINOVC T01670056=
200711092152 METAR KATL 092152Z COR 25007KT 10SM BKN060 17/04 A3001 RMK AO2 SLP164 T01720044=
200711092052 METAR KATL 092052Z 24009KT 10SM SCT060 19/04 A3002 RMK AO2 SLP167 T01890039 56019=
200711091952 METAR KATL 091952Z 26013G18KT 10SM FEW065 19/02 A3003 RMK AO2 SLP171 T01890022=
200711091852 METAR KATL 091852Z 29007KT 10SM FEW240 19/01 A3005 RMK AO2 SLP176 T01890011=
200711091752 METAR KATL 091752Z 25007G15KT 10SM FEW240 17/M01 A3008 RMK AO2 SLP186 T01671006 10172 20039 58024=
200711091652 METAR KATL 091652Z 29008KT 10SM FEW240 16/M01 A3012 RMK AO2 SLP202 T01611006=
200711091552 METAR KATL 091552Z 28008KT 10SM FEW240 14/M02 A3014 RMK AO2 SLP209 T01441017=
200711091452 METAR KATL 091452Z 30006KT 10SM CLR 12/M02 A3015 RMK AO2 SLP211 T01221022 51013=
200711091352 METAR KATL 091352Z 00000KT 10SM FEW250 09/M01 A3015 RMK AO2 SLP211 T00891011=
200711091252 METAR KATL 091252Z 00000KT 10SM FEW250 05/M01 A3013 RMK AO2 SLP208 T00501006=
200711091152 METAR KATL 091152Z 00000KT 10SM FEW150 04/M02 A3011 RMK AO2 SLP201 T00391017 10061 20033 51002=
200711091052 METAR KATL 091052Z 00000KT 10SM CLR 04/M02 A3011 RMK AO2 SLP199 T00441022=
200711090952 METAR KATL 090952Z 31005KT 10SM CLR 04/M03 A3011 RMK AO2 SLP200 T00441033=
200711090852 METAR KATL 090852Z 29005KT 10SM FEW150 04/M03 A3011 RMK AO2 SLP198 T00391033 58004=
200711090752 METAR KATL 090752Z 00000KT 10SM FEW150 04/M02 A3011 RMK AO2 SLP199 T00441022=
200711090652 METAR KATL 090652Z 00000KT 10SM CLR 04/M01 A3012 RMK AO2 SLP201 T00441006=
200711090552 METAR KATL 090552Z 00000KT 10SM FEW250 06/M03 A3012 RMK AO2 SLP201 T00611028 10111 20061 55004=
200711090452 METAR KATL 090452Z 00000KT 10SM FEW250 07/M03 A3012 RMK AO2 SLP201 T00721028 401440000=
200711090352 METAR KATL 090352Z 24003KT 10SM FEW250 08/M04 A3013 RMK AO2 SLP205 T00831044=
200711090252 METAR KATL 090252Z 00000KT 10SM FEW250 09/M05 A3013 RMK AO2 SLP206 T00891050 53003=
200711090152 METAR KATL 090152Z 22003KT 10SM FEW250 09/M06 A3012 RMK AO2 SLP204 T00941056=
200711090052 METAR KATL 090052Z 00000KT 10SM FEW250 11/M07 A3013 RMK AO2 SLP206 T01061072=
200711082352 METAR KATL 082352Z 00000KT 10SM FEW200 SCT250 11/M06 A3012 RMK AO2 SLP205 T01061056 10144 20106 53005=
200711082252 METAR KATL 082252Z 00000KT 10SM FEW150 SCT200 BKN250 13/M08 A3010 RMK AO2 SLP198 T01281078=
200711082152 METAR KATL 082152Z 00000KT 10SM FEW150 BKN200 BKN280 13/M08 A3011 RMK AO2 SLP199 T01331078=
200711082052 METAR KATL 082052Z 00000KT 10SM FEW150 SCT220 BKN280 14/M09 A3011 RMK AO2 SLP199 T01391089 56014=
200711081952 METAR KATL 081952Z 23006KT 10SM FEW150 SCT220 SCT280 14/M08 A3011 RMK AO2 SLP199 T01391078=
200711081852 METAR KATL 081852Z 26003KT 10SM FEW150 SCT220 13/M06 A3012 RMK AO2 SLP204 T01331061=
200711081752 METAR KATL 081752Z 20007KT 10SM BKN150 BKN220 12/M06 A3015 RMK AO2 SLP212 T01221056 10122 20011 58022=
200711081652 METAR KATL 081652Z 20007KT 10SM FEW150 SCT220 11/M05 A3018 RMK AO2 SLP224 T01061050=
200711081552 METAR KATL 081552Z VRB03KT 10SM SCT150 09/M04 A3021 RMK AO2 SLP233 T00941039=
200711081452 METAR KATL 081452Z 16003KT 10SM SCT150 07/M03 A3022 RMK AO2 SLP237 T00721033 50007=
200711081352 METAR KATL 081352Z 09004KT 10SM FEW140 04/M03 A3022 RMK AO2 SLP238 T00441033=
200711081252 METAR KATL 081252Z 08007KT 10SM FEW140 02/M03 A3020 RMK AO2 SLP233 T00171033=
200711081152 METAR KATL 081152Z 06004KT 10SM FEW200 02/M04 A3020 RMK AO2 SLP231 T00171039 10039 20000 53004=
200711081052 METAR KATL 081052Z 04004KT 10SM CLR 02/M04 A3018 RMK AO2 SLP226 T00221039=
200711080952 METAR KATL 080952Z 00000KT 10SM CLR 01/M04 A3017 RMK AO2 SLP223 T00061039=
200711080852 METAR KATL 080852Z 31005KT 10SM CLR 00/M03 A3018 RMK AO2 SLP225 T00001033 52002=
200711080752 METAR KATL 080752Z 32005KT 10SM CLR 01/M04 A3018 RMK AO2 SLP224 T00061039=
200711080652 METAR KATL 080652Z 00000KT 10SM CLR 02/M03 A3018 RMK AO2 SLP225 T00171033=
200711080552 METAR KATL 080552Z 00000KT 10SM CLR 04/M04 A3018 RMK AO2 SLP222 T00391044 10072 20028 56005=
200711080452 METAR KATL 080452Z 00000KT 10SM CLR 04/M04 A3018 RMK AO2 SLP223 T00391039 401280000=
200711080352 METAR KATL 080352Z 33003KT 10SM CLR 04/M05 A3019 RMK AO2 SLP227 T00441050=
200711080252 METAR KATL 080252Z 33004KT 10SM CLR 04/M05 A3019 RMK AO2 SLP228 T00441050 51003=
200711080152 METAR KATL 080152Z 33006KT 10SM CLR 06/M05 A3019 RMK AO2 SLP229 T00561050=
200711080052 METAR KATL 080052Z 34008KT 10SM CLR 07/M05 A3019 RMK AO2 SLP230 T00671050=
200711072352 METAR KATL 072352Z 33007KT 10SM CLR 07/M06 A3018 RMK AO2 SLP228 T00721056 10128 20072 53002=
200711072252 METAR KATL 072252Z 32005KT 10SM CLR 08/M06 A3017 RMK AO2 SLP224 T00831061=
200711072152 METAR KATL 072152Z 32008KT 10SM CLR 11/M07 A3017 RMK AO2 SLP223 T01061072=
200711072052 METAR KATL 072052Z 33007KT 10SM CLR 12/M07 A3018 RMK AO2 SLP224 T01171072 56019=
200711071952 METAR KATL 071952Z 36009G15KT 10SM CLR 12/M08 A3019 RMK AO2 SLP227 T01221078=
200711071852 METAR KATL 071852Z 36011G16KT 10SM CLR 12/M06 A3021 RMK AO2 SLP233 T01171061=
200711071752 METAR KATL 071752Z 33009KT 10SM CLR 11/M06 A3023 RMK AO2 SLP242 T01061061 10111 20000 58021=
200711071652 METAR KATL 071652Z 33009KT 10SM CLR 10/M06 A3027 RMK AO2 SLP254 T01001056=
200711071552 METAR KATL 071552Z VRB03KT 10SM CLR 08/M05 A3029 RMK AO2 SLP261 T00831050=
200711071452 METAR KATL 071452Z 34003KT 10SM CLR 06/M04 A3030 RMK AO2 SLP265 T00611044 51012=
200711071352 METAR KATL 071352Z 36009KT 10SM CLR 03/M04 A3030 RMK AO2 SLP265 T00331044=
200711071252 METAR KATL 071252Z 32009KT 10SM CLR 01/M04 A3028 RMK AO2 SLP260 T00111039=
200711071152 METAR KATL 071152Z 32006KT 10SM CLR 00/M04 A3026 RMK AO2 SLP253 T00001044 10033 20000 51012=
200711071052 METAR KATL 071052Z 32007KT 10SM CLR 01/M04 A3025 RMK AO2 SLP248 T00061044=
200711070952 METAR KATL 070952Z 32007KT 10SM CLR 01/M04 A3024 RMK AO2 SLP246 T00111044=
200711070852 METAR KATL 070852Z 33009KT 10SM CLR 02/M04 A3022 RMK AO2 SLP239 T00171044 53002=
200711070752 METAR KATL 070752Z 33008KT 10SM CLR 02/M04 A3022 RMK AO2 SLP237 T00221044=
200711070652 METAR KATL 070652Z 34009KT 10SM CLR 03/M04 A3021 RMK AO2 SLP233 T00281044=
200711070552 METAR KATL 070552Z 33007KT 10SM CLR 03/M05 A3022 RMK AO2 SLP236 T00331050 10089 20033 58006=
200711070452 METAR KATL 070452Z 33009KT 10SM CLR 04/M05 A3023 RMK AO2 SLP240 T00441050 401610044=
200711070352 METAR KATL 070352Z 34010KT 10SM CLR 06/M06 A3023 RMK AO2 SLP241 T00561056=
200711070252 METAR KATL 070252Z 34010KT 10SM CLR 06/M06 A3023 RMK AO2 SLP241 T00611061 51019=
200711070152 METAR KATL 070152Z 34009KT 10SM CLR 07/M07 A3022 RMK AO2 SLP234 T00721067=
200711070052 METAR KATL 070052Z 35012KT 10SM CLR 08/M07 A3020 RMK AO2 SLP227 T00831072=
200711062352 METAR KATL 062352Z 34012G16KT 10SM CLR 09/M07 A3018 RMK AO2 SLP220 T00891067 10144 20089 53023=
200711062252 METAR KATL 062252Z 34011KT 10SM CLR 11/M07 A3014 RMK AO2 SLP207 T01061067=
200711062152 METAR KATL 062152Z 31015KT 10SM CLR 12/M07 A3012 RMK AO2 SLP198 T01221067=
200711062052 METAR KATL 062052Z 32010G22KT 10SM CLR 14/M07 A3011 RMK AO2 SLP193 T01391067 55001=
200711061952 METAR KATL 061952Z 33016G23KT 10SM CLR 14/M06 A3009 RMK AO2 SLP188 T01391061=
200711061852 METAR KATL 061852Z 31016G22KT 10SM CLR 14/M07 A3010 RMK AO2 SLP190 T01391067=
200711061752 METAR KATL 061752Z 31010G21KT 10SM CLR 13/M06 A3011 RMK AO2 SLP194 T01331056 10133 20111 50001=
200711061652 METAR KATL 061652Z 31012KT 10SM CLR 13/M05 A3012 RMK AO2 SLP199 T01281050=
200711061552 METAR KATL 061552Z 33015KT 10SM CLR 12/M04 A3012 RMK AO2 SLP198 T01171044=
200711061452 METAR KATL 061452Z 32013G22KT 10SM FEW045 12/M02 A3011 RMK AO2 SLP194 T01171022 51028=
200711061352 METAR KATL 061352Z 35018G24KT 10SM FEW044 SCT150 11/M01 A3009 RMK AO2 SLP189 T01111011=
200711061252 METAR KATL 061252Z 33019G24KT 10SM BKN033 13/03 A3005 RMK AO2 SLP174 T01280033=
200711061152 METAR KATL 061152Z 34018G24KT 10SM OVC020 13/06 A3002 RMK AO2 SLP164 T01330061 10161 20133 53017=
200711061052 METAR KATL 061052Z 26008KT 9SM BKN028 BKN075 14/10 A2998 RMK AO2 SLP150 T01440100=
200711061043 SPECI KATL 061043Z 27006KT 9SM SCT028 BKN075 14/09 A2998 RMK AO2=
200711061043 SPECI KATL 061043Z 27006KT 9SM SCT028 BKN075 14/09 A2998 RMK AO2=
200711061017 SPECI KATL 061017Z 27006KT 10SM BKN028 14/09 A2998 RMK AO2=
200711061017 SPECI KATL 061017Z 27006KT 10SM BKN028 14/09 A2998 RMK AO2=
200711060952 METAR KATL 060952Z 25006KT 10SM FEW070 SCT200 14/09 A2998 RMK AO2 SLP146 T01440089=
200711060852 METAR KATL 060852Z 25010KT 10SM BKN044 16/09 A2997 RMK AO2 SLP143 T01560089 58010=
200711060752 METAR KATL 060752Z 24010KT 10SM SCT110 BKN250 16/08 A2998 RMK AO2 SLP148 T01560083=
200711060652 METAR KATL 060652Z 24010G16KT 10SM FEW090 BKN250 16/08 A3000 RMK AO2 SLP151 T01610078=
200711060552 METAR KATL 060552Z 23011KT 10SM FEW090 BKN250 16/07 A3000 RMK AO2 SLP154 T01560072 10172 20156 58007=
200711060452 METAR KATL 060452Z 24009G18KT 10SM FEW200 SCT250 16/07 A3003 RMK AO2 SLP164 T01610067 402220067=
200711060352 METAR KATL 060352Z 23009KT 10SM FEW200 16/06 A3003 RMK AO2 SLP165 T01560061=
200711060252 METAR KATL 060252Z 23007KT 10SM SCT250 16/06 A3002 RMK AO2 SLP164 T01560056 56001=
200711060152 METAR KATL 060152Z 23007KT 10SM FEW250 16/06 A3002 RMK AO2 SLP166 T01610056=
200711060052 METAR KATL 060052Z 21009KT 10SM FEW250 17/06 A3000 RMK AO2 SLP160 T01670056=
200711052352 METAR KATL 052352Z 21007KT 10SM FEW250 17/07 A3003 RMK AO2 SLP168 T01720067 10222 20172 58009=
200711052252 METAR KATL 052252Z 20006KT 10SM FEW250 19/07 A3004 RMK AO2 SLP172 T01890067=
200711052152 METAR KATL 052152Z 22009KT 10SM FEW250 21/06 A3004 RMK AO2 SLP172 T02110056=
200711052052 METAR KATL 052052Z 25009KT 10SM FEW070 22/05 A3006 RMK AO2 SLP176 T02220050 56017=
200711051952 METAR KATL 051952Z 26008KT 10SM FEW075 22/03 A3007 RMK AO2 SLP179 T02220033=
200711051852 METAR KATL 051852Z 24009G15KT 10SM CLR 22/02 A3008 RMK AO2 SLP182 T02220017=
200711051752 METAR KATL 051752Z 24009KT 10SM CLR 21/03 A3011 RMK AO2 SLP193 T02110033 10217 20067 58024=
200711051652 METAR KATL 051652Z COR VRB06KT 10SM CLR 20/03 A3014 RMK AO2 SLP205 T02000033=
200711051552 METAR KATL 051552Z 24004KT 10SM CLR 19/01 A3016 RMK AO2 SLP212 T01890011=
200711051452 METAR KATL 051452Z 00000KT 10SM CLR 15/M01 A3018 RMK AO2 SLP219 T01501006 51010=
200711051352 METAR KATL 051352Z 30005KT 10SM CLR 12/02 A3018 RMK AO2 SLP219 T01170022=
200711051252 METAR KATL 051252Z 00000KT 10SM CLR 08/03 A3016 RMK AO2 SLP215 T00830033=
200711051152 METAR KATL 051152Z 30003KT 10SM CLR 07/02 A3015 RMK AO2 SLP210 T00720017 10106 20067 51016=
200711051052 METAR KATL 051052Z 31005KT 10SM CLR 07/02 A3014 RMK AO2 SLP205 T00670022=
200711050952 METAR KATL 050952Z 32007KT 10SM CLR 07/02 A3012 RMK AO2 SLP200 T00720017=
200711050852 METAR KATL 050852Z 31006KT 10SM CLR 07/02 A3010 RMK AO2 SLP192 T00720022 51007=
200711050752 METAR KATL 050752Z 31006KT 10SM CLR 08/02 A3009 RMK AO2 SLP189 T00830022 $=
200711050652 METAR KATL 050652Z 29005KT 10SM CLR 10/02 A3009 RMK AO2 SLP187 T01000017=
200711050552 METAR KATL 050552Z 28005KT 10SM CLR 11/02 A3008 RMK AO2 SLP183 T01060017 10156 20100 58002=
200711050452 METAR KATL 050452Z 28006KT 10SM CLR 11/02 A3009 RMK AO2 SLP187 T01110017 402000056=
200711050352 METAR KATL 050352Z 28004KT 10SM CLR 12/02 A3009 RMK AO2 SLP187 T01220017=
200711050252 METAR KATL 050252Z 28006KT 10SM CLR 12/02 A3009 RMK AO2 SLP188 T01220017 52004=
200711050152 METAR KATL 050152Z 29007KT 10SM CLR 13/02 A3008 RMK AO2 SLP187 T01280022=
200711050052 METAR KATL 050052Z 27006KT 10SM CLR 13/03 A3008 RMK AO2 SLP187 T01330033=
200711042352 METAR KATL 042352Z 26004KT 10SM CLR 16/03 A3007 RMK AO2 SLP185 T01560028 10200 20156 53009=
200711042252 METAR KATL 042252Z 30009KT 10SM CLR 17/03 A3006 RMK AO2 SLP179 T01720028=
200711042152 METAR KATL 042152Z 31015G21KT 10SM CLR 18/03 A3005 RMK AO2 SLP174 T01830033=
200711042052 METAR KATL 042052Z 32013KT 10SM FEW060 19/04 A3005 RMK AO2 SLP174 T01940039 56016=
200711041952 METAR KATL 041952Z 32011KT 10SM FEW050 20/07 A3005 RMK AO2 SLP175 T02000067=
200711041852 METAR KATL 041852Z 31012G20KT 10SM FEW050 19/06 A3007 RMK AO2 SLP180 T01940061=
200711041752 METAR KATL 041752Z 34014G17KT 10SM SCT050 18/04 A3010 RMK AO2 SLP191 T01780044 10183 20056 58019=
200711041652 METAR KATL 041652Z 33014G19KT 10SM CLR 18/02 A3013 RMK AO2 SLP200 T01780022=
200711041552 METAR KATL 041552Z 31012KT 10SM CLR 16/01 A3014 RMK AO2 SLP207 T01560011=
200711041452 METAR KATL 041452Z 31006KT 10SM CLR 13/01 A3015 RMK AO2 SLP211 T01280011 51007=
200711041352 METAR KATL 041352Z 30008KT 10SM CLR 10/00 A3015 RMK AO2 SLP212 T01000000=
200711041252 METAR KATL 041252Z 32006KT 10SM CLR 07/01 A3015 RMK AO2 SLP210 T00720006=
200711041152 METAR KATL 041152Z 30005KT 10SM CLR 06/M01 A3013 RMK AO2 SLP206 T00561006 10094 20056 53011=
200711041052 METAR KATL 041052Z 31007KT 10SM CLR 06/00 A3012 RMK AO2 SLP200 T00560000=
200711040952 METAR KATL 040952Z 31007KT 10SM CLR 06/00 A3010 RMK AO2 SLP194 T00610000=
200711040852 METAR KATL 040852Z 31008KT 10SM CLR 07/00 A3010 RMK AO2 SLP191 T00720000 55001=
200711040752 METAR KATL 040752Z 31007KT 10SM CLR 08/00 A3010 RMK AO2 SLP190 T00780000=
200711040652 METAR KATL 040652Z 31007KT 10SM CLR 08/00 A3009 RMK AO2 SLP188 T00780000=
200711040552 METAR KATL 040552Z 31007KT 10SM CLR 09/00 A3010 RMK AO2 SLP192 T00890000 10144 20089 51003=
200711040452 METAR KATL 040452Z 32009KT 10SM CLR 11/M01 A3010 RMK AO2 SLP189 T01061006 402000083=
200711040352 METAR KATL 040352Z 33010KT 10SM CLR 12/M01 A3010 RMK AO2 SLP190 T01171006=
200711040252 METAR KATL 040252Z 32010KT 10SM CLR 12/00 A3009 RMK AO2 SLP189 T01220000 53008=
200711040152 METAR KATL 040152Z 30006KT 10SM CLR 12/01 A3008 RMK AO2 SLP187 T01170011=
200711040052 METAR KATL 040052Z 30006KT 10SM CLR 13/01 A3008 RMK AO2 SLP186 T01330006=
200711032352 METAR KATL 032352Z 31005KT 10SM CLR 14/M01 A3007 RMK AO2 SLP183 T01441006 10200 20144 52009=
200711032252 METAR KATL 032252Z 31009KT 10SM CLR 16/M02 A3006 RMK AO2 SLP177 T01611022=
200711032152 METAR KATL 032152Z 32011KT 10SM CLR 19/00 A3005 RMK AO2 SLP174 T01890000=
200711032052 METAR KATL 032052Z 32013KT 10SM CLR 19/M02 A3004 RMK AO2 SLP170 T01941017 55013=
200711031952 METAR KATL 031952Z 32013KT 10SM CLR 20/01 A3004 RMK AO2 SLP169 T02000006=
200711031852 METAR KATL 031852Z 30012KT 10SM CLR 19/02 A3005 RMK AO2 SLP173 T01940022=
200711031752 METAR KATL 031752Z 31013KT 10SM CLR 19/04 A3008 RMK AO2 SLP183 T01890044 10189 20083 58019=
200711031652 METAR KATL 031652Z 30007KT 10SM CLR 18/07 A3011 RMK AO2 SLP193 T01780067=
200711031552 METAR KATL 031552Z 28008KT 10SM FEW250 17/07 A3013 RMK AO2 SLP200 T01670067=
200711031452 METAR KATL 031452Z 26004KT 10SM CLR 14/04 A3014 RMK AO2 SLP204 T01440044 51009=
200711031352 METAR KATL 031352Z 23003KT 10SM CLR 12/03 A3014 RMK AO2 SLP204 T01170033=
200711031252 METAR KATL 031252Z 30004KT 10SM CLR 09/06 A3012 RMK AO2 SLP200 T00940056=
200711031152 METAR KATL 031152Z 00000KT 9SM FEW250 09/05 A3011 RMK AO2 SLP196 T00890050 10122 20083 51004=
200711031052 METAR KATL 031052Z 09003KT 10SM FEW150 10/04 A3011 RMK AO2 SLP193 T01000044=
200711030952 METAR KATL 030952Z 08005KT 10SM CLR 10/04 A3011 RMK AO2 SLP192 T01000039=
200711030852 METAR KATL 030852Z 05004KT 10SM FEW150 11/06 A3010 RMK AO2 SLP189 T01110056 53002=
200711030752 METAR KATL 030752Z 08004KT 9SM SCT049 12/08 A3009 RMK AO2 SLP187 T01170078=
200711030652 METAR KATL 030652Z 00000KT 8SM CLR 11/08 A3009 RMK AO2 SLP189 T01110083=
200711030552 METAR KATL 030552Z 00000KT 9SM CLR 13/09 A3009 RMK AO2 SLP187 T01280089 10183 20117 55002=
200711030452 METAR KATL 030452Z 33004KT 10SM CLR 12/08 A3009 RMK AO2 SLP185 T01170083 402060117=
200711030352 METAR KATL 030352Z 33005KT 10SM CLR 13/08 A3009 RMK AO2 SLP187 T01280083=
200711030252 METAR KATL 030252Z 32005KT 10SM CLR 13/08 A3010 RMK AO2 SLP190 T01330078 51003=
200711030152 METAR KATL 030152Z 33006KT 10SM CLR 16/07 A3009 RMK AO2 SLP189 T01610072=
200711030052 METAR KATL 030052Z 31004KT 10SM CLR 17/07 A3009 RMK AO2 SLP188 T01720067=
200711022352 METAR KATL 022352Z 00000KT 10SM CLR 17/07 A3009 RMK AO2 SLP187 T01670067 10206 20167 53006=
200711022252 METAR KATL 022252Z 34004KT 10SM FEW065 18/06 A3008 RMK AO2 SLP182 T01830061=
200711022152 METAR KATL 022152Z 33006KT 10SM FEW065 19/06 A3007 RMK AO2 SLP180 T01940061=
200711022052 METAR KATL 022052Z 00000KT 10SM FEW065 21/06 A3007 RMK AO2 SLP178 T02060061 56014=
200711021952 METAR KATL 021952Z VRB03KT 10SM SCT065 20/06 A3008 RMK AO2 SLP181 T02000056=
200711021852 METAR KATL 021852Z 03007KT 10SM SCT070 19/06 A3009 RMK AO2 SLP186 T01940061=
200711021752 METAR KATL 021752Z VRB05KT 10SM FEW070 19/06 A3011 RMK AO2 SLP193 T01890061 10189 20122 58017=
200711021652 METAR KATL 021652Z 08008KT 10SM BKN070 17/07 A3014 RMK AO2 SLP204 T01720072=
200711021552 METAR KATL 021552Z 08014KT 10SM BKN070 16/07 A3016 RMK AO2 SLP211 T01560067=
200711021452 METAR KATL 021452Z 08013G19KT 10SM BKN070 15/07 A3016 RMK AO2 SLP211 T01500072 51017=
200711021352 METAR KATL 021352Z 10009KT 10SM BKN070 14/07 A3016 RMK AO2 SLP208 T01440072=
200711021252 METAR KATL 021252Z 07010KT 10SM BKN065 14/07 A3013 RMK AO2 SLP200 T01390072=
200711021152 METAR KATL 021152Z 08008KT 10SM SCT060 13/09 A3011 RMK AO2 SLP194 T01280089 10139 20117 53012=
200711021052 METAR KATL 021052Z 05006KT 10SM FEW060 13/09 A3009 RMK AO2 SLP186 T01330089=
200711020952 METAR KATL 020952Z 08007KT 10SM FEW060 13/09 A3008 RMK AO2 SLP181 T01330094=
200711020852 METAR KATL 020852Z 01005KT 10SM FEW060 13/10 A3007 RMK AO2 SLP179 T01330100 53004=
200711020752 METAR KATL 020752Z 34005KT 10SM BKN060 12/11 A3007=
200711020652 METAR KATL 020652Z 33006KT 10SM FEW060 13/11 A3006 RMK AO2 SLP175 T01280106=
200711020552 METAR KATL 020552Z 32006KT 10SM CLR 13/11 A3006 RMK AO2 SLP175 T01280106 10200 20128 58001=
200711020452 METAR KATL 020452Z 33006KT 10SM CLR 14/11 A3006 RMK AO2 SLP176 T01390106 402390139=
200711020352 METAR KATL 020352Z 34006KT 10SM CLR 15/11 A3007 RMK AO2 SLP176 T01500106=
200711020252 METAR KATL 020252Z 36005KT 10SM CLR 17/11 A3006 RMK AO2 SLP175 T01670106 53005=
200711020152 METAR KATL 020152Z 35009KT 10SM CLR 18/10 A3005 RMK AO2 SLP171 T01780100=
200711020052 METAR KATL 020052Z 34009KT 10SM CLR 19/10 A3005 RMK AO2 SLP171 T01940100=
200711012352 METAR KATL 012352Z 34008KT 10SM FEW055 20/10 A3005 RMK AO2 SLP171 T02000100 10239 20200 53001=
200711012252 METAR KATL 012252Z 33006KT 10SM FEW055 21/09 A3004 RMK AO2 SLP169 T02110094=
200711012152 METAR KATL 012152Z 36007KT 10SM FEW055 23/09 A3004 RMK AO2 SLP166 T02280089=
200711012052 METAR KATL 012052Z 02007G17KT 10SM FEW055 SCT240 23/09 A3005 RMK AO2 SLP170 T02330089 56018=
200711011952 METAR KATL 011952Z 35009KT 10SM FEW060 SCT240 23/09 A3005 RMK AO2 SLP172 T02330094=
200711011852 METAR KATL 011852Z 34007KT 10SM SCT055 SCT240 23/09 A3008 RMK AO2 SLP179 T02330094=
200711011752 METAR KATL 011752Z 36009G14KT 10SM FEW045 SCT240 22/09 A3010 RMK AO2 SLP188 T02220094 10228 20139 58020=
200711011552 METAR KATL 011552Z 36006KT 10SM FEW035 SCT080 21/13 A3015 RMK AO2 SLP206 T02110133=
200711011452 METAR KATL 011452Z 06004KT 10SM FEW030 19/12 A3016 RMK AO2 SLP209 T01940122 50005=
200711011352 METAR KATL 011352Z 01007KT 10SM FEW020 18/12 A3016 RMK AO2 SLP209 T01830117=
200711011252 METAR KATL 011252Z 02005KT 10SM FEW050 16/11 A3015 RMK AO2 SLP206 T01560106=
