##########################################################
# Query made at 04/19/2024 23:03:19 UTC
# Time interval: from 10/01/2007 12:00  to 10/31/2007 12:59  UTC
##########################################################

##########################################################
# KATL, Atlanta, Hartsfield - Jackson Atlanta International Airport (United States)
# WMO index: 72219. WIGOS ID: 0-20000-0-72219
# Latitude 33-38-59N. Longitude 084-25-00W. Altitude 312 m.
##########################################################

200710311252 METAR KATL 311252Z 07011KT 10SM FEW050 11/03 A3031 RMK AO2 SLP263 T01060033=
200710311152 METAR KATL 311152Z 08010KT 10SM FEW050 09/03 A3030 RMK AO2 SLP260 T00940033 10111 20089 53001=
200710311052 METAR KATL 311052Z 08006KT 10SM FEW050 09/03 A3029 RMK AO2 SLP257 T00890033=
200710310952 METAR KATL 310952Z 08007KT 10SM FEW050 09/03 A3029 RMK AO2 SLP255 T00940033=
200710310852 METAR KATL 310852Z 07008KT 10SM SCT050 10/04 A3029 RMK AO2 SLP257 T01000039 58007=
200710310752 METAR KATL 310752Z 07006KT 10SM CLR 10/04 A3030 RMK AO2 SLP260 T01000044=
200710310652 METAR KATL 310652Z 07007KT 10SM FEW044 11/05 A3031 RMK AO2 SLP262 T01060050=
200710310552 METAR KATL 310552Z 09008KT 10SM FEW044 11/05 A3032 RMK AO2 SLP265 T01060050 10150 20106 57002=
200710310452 METAR KATL 310452Z 08008KT 10SM SCT050 12/05 A3032 RMK AO2 SLP266 T01170050 401940044=
200710310352 METAR KATL 310352Z 09005KT 10SM BKN050 BKN150 12/06 A3032 RMK AO2 SLP268 T01220056=
200710310252 METAR KATL 310252Z 08009KT 10SM FEW150 13/06 A3032 RMK AO2 SLP268 T01280056 56001=
200710310152 METAR KATL 310152Z 09007KT 10SM FEW150 13/06 A3032 RMK AO2 SLP270 T01280056=
200710310052 METAR KATL 310052Z 07010KT 10SM FEW150 15/05 A3032 RMK AO2 SLP268 T01500050=
200710302352 METAR KATL 302352Z 10005KT 10SM FEW150 14/05 A3032 RMK AO2 SLP270 T01440050 10194 20144 55000=
200710302252 METAR KATL 302252Z 11007KT 10SM FEW120 SCT150 17/05 A3032 RMK AO2 SLP268 T01670050=
200710302152 METAR KATL 302152Z 10008KT 10SM FEW120 SCT150 BKN250 18/06 A3032 RMK AO2 SLP266 T01830056=
200710302052 METAR KATL 302052Z 09008KT 10SM FEW030 SCT085 BKN150 BKN250 19/06 A3033 RMK AO2 SLP269 T01890056 56017=
200710301952 METAR KATL 301952Z 06006KT 10SM FEW035 SCT150 SCT250 19/05 A3033 RMK AO2 SLP271 T01940050=
200710301852 METAR KATL 301852Z 05006KT 10SM FEW040 SCT150 18/04 A3035 RMK AO2 SLP278 T01830039=
200710301752 METAR KATL 301752Z 09006KT 10SM FEW150 17/03 A3038 RMK AO2 SLP288 T01670033 10172 20056 58021=
200710301652 METAR KATL 301652Z VRB06KT 10SM FEW150 16/03 A3040 RMK AO2 SLP297 T01560028=
200710301552 METAR KATL 301552Z 08008G14KT 10SM FEW150 13/03 A3043 RMK AO2 SLP306 T01330028=
200710301452 METAR KATL 301452Z 10011KT 10SM FEW150 12/02 A3044 RMK AO2 SLP309 T01170017 51013=
200710301352 METAR KATL 301352Z 10008KT 10SM FEW250 09/02 A3044 RMK AO2 SLP309 T00940022=
200710301252 METAR KATL 301252Z 07008KT 10SM CLR 07/01 A3042 RMK AO2 SLP303 T00720011=
200710301152 METAR KATL 301152Z 06008KT 10SM CLR 06/01 A3040 RMK AO2 SLP297 T00610006 10067 20044 53004=
200710301052 METAR KATL 301052Z 07008KT 10SM CLR 06/01 A3040 RMK AO2 SLP296 T00560006=
200710300952 METAR KATL 300952Z 06008KT 10SM CLR 06/01 A3039 RMK AO2 SLP292 T00560006=
200710300852 METAR KATL 300852Z 08008KT 10SM CLR 05/01 A3039 RMK AO2 SLP292 T00500006 56009=
200710300752 METAR KATL 300752Z 08008KT 10SM CLR 06/01 A3040 RMK AO2 SLP295 T00560006=
200710300652 METAR KATL 300652Z 08008KT 10SM CLR 06/01 A3041 RMK AO2 SLP299 T00560006=
200710300552 METAR KATL 300552Z 08007KT 10SM CLR 07/01 A3042 RMK AO2 SLP302 T00670006 10122 20067 57001=
200710300452 METAR KATL 300452Z 08007KT 10SM CLR 08/01 A3042 RMK AO2 SLP302 T00780011 401670078=
200710300352 METAR KATL 300352Z 07009KT 10SM CLR 09/01 A3042 RMK AO2 SLP302 T00890011=
200710300252 METAR KATL 300252Z 06011KT 10SM CLR 11/01 A3042 RMK AO2 SLP303 T01060011 51007=
200710300152 METAR KATL 300152Z 07008KT 10SM CLR 11/01 A3042 RMK AO2 SLP302 T01060011=
200710300052 METAR KATL 300052Z 07007KT 10SM CLR 11/02 A3041 RMK AO2 SLP300 T01110017=
200710292352 METAR KATL 292352Z 07009KT 10SM CLR 12/01 A3040 RMK AO2 SLP296 T01220006 10167 20122 53001=
200710292252 METAR KATL 292252Z 07010KT 10SM CLR 14/01 A3039 RMK AO2 SLP293 T01390006=
200710292152 METAR KATL 292152Z 05008KT 10SM CLR 16/00 A3039 RMK AO2 SLP292 T01560000=
200710292052 METAR KATL 292052Z 07010KT 10SM CLR 16/00 A3040 RMK AO2 SLP292 T01610000 56020=
200710291952 METAR KATL 291952Z 06011G14KT 10SM CLR 17/00 A3041 RMK AO2 SLP296 T01670000=
200710291852 METAR KATL 291852Z 06012G15KT 10SM CLR 16/00 A3043 RMK AO2 SLP303 T01560000=
200710291752 METAR KATL 291752Z 07012G16KT 10SM FEW200 15/00 A3046 RMK AO2 SLP313 T01500000 10150 20083 58016=
200710291652 METAR KATL 291652Z 06013KT 10SM FEW200 13/M01 A3049=
200710291552 METAR KATL 291552Z 06017G23KT 10SM FEW200 12/M01 A3051 RMK AO2 SLP332 T01221006=
200710291452 METAR KATL 291452Z 09019G25KT 10SM FEW200 11/00 A3051 RMK AO2 PK WND 08028/1440 SLP330 T01110000 51019=
200710291352 METAR KATL 291352Z 08018G25KT 10SM FEW200 10/01 A3049 RMK AO2 PK WND 07027/1319 SLP326 T01000011=
200710291252 METAR KATL 291252Z 08014G22KT 10SM FEW200 09/03 A3047 RMK AO2 SLP318 T00890028=
200710291152 METAR KATL 291152Z 07014KT 10SM FEW200 09/04 A3045 RMK AO2 SLP310 T00890039 10128 20089 53016=
200710291052 METAR KATL 291052Z 08014KT 10SM FEW200 09/05 A3042 RMK AO2 SLP302 T00940050=
200710290952 METAR KATL 290952Z 07014KT 10SM FEW200 10/06 A3042 RMK AO2 SLP298 T01000056=
200710290852 METAR KATL 290852Z 07013KT 10SM FEW200 11/06 A3040 RMK AO2 SLP293 T01060056 51004=
200710290752 METAR KATL 290752Z 08012KT 10SM FEW200 11/06 A3039 RMK AO2 SLP290 T01110061=
200710290652 METAR KATL 290652Z 08012KT 10SM FEW200 12/07 A3040 RMK AO2 SLP291 T01170072=
200710290552 METAR KATL 290552Z 08012KT 10SM FEW200 12/08 A3039 RMK AO2 SLP288 T01220078 10178 20117 51009=
200710290452 METAR KATL 290452Z 08009KT 10SM FEW200 12/08 A3038 RMK AO2 SLP287 T01220083 402110083=
200710290352 METAR KATL 290352Z 08007KT 10SM FEW200 12/08 A3037=
200710290252 METAR KATL 290252Z 07008KT 10SM SCT200 15/08 A3036 RMK AO2 SLP280 T01500083 51008=
200710290152 METAR KATL 290152Z 05007KT 10SM SCT200 17/08 A3036 RMK AO2 SLP278 T01670078=
200710290052 METAR KATL 290052Z 00000KT 10SM SCT200 17/08 A3035 RMK AO2 SLP276 T01670083=
200710282352 METAR KATL 282352Z 07007KT 10SM FEW200 18/07 A3034 RMK AO2 SLP272 T01780072 10211 20178 53010=
200710282252 METAR KATL 282252Z 06009KT 10SM FEW200 18/07 A3032=
200710282152 METAR KATL 282152Z 03007G14KT 10SM CLR 20/07 A3031 RMK AO2 SLP261 T02000072=
200710282052 METAR KATL 282052Z VRB06KT 10SM FEW200 21/08 A3030 RMK AO2 SLP260 T02060078 56016=
200710281952 METAR KATL 281952Z 05006KT 10SM FEW200 21/08 A3031 RMK AO2 SLP261 T02060078=
200710281852 METAR KATL 281852Z 02006G16KT 10SM FEW050 SCT200 20/07 A3033 RMK AO2 SLP268 T02000072=
200710281752 METAR KATL 281752Z 06010KT 10SM FEW050 SCT200 19/08 A3035 RMK AO2 SLP277 T01940078 10194 20089 58013=
200710281652 METAR KATL 281652Z 09006KT 10SM SCT050 SCT120 19/08 A3038 RMK AO2 SLP285 T01890078=
200710281552 METAR KATL 281552Z 08009KT 10SM FEW045 SCT120 17/08 A3039 RMK AO2 SLP290 T01720078=
200710281452 METAR KATL 281452Z 10009KT 10SM CLR 15/07 A3039 RMK AO2 SLP291 T01500072 51022=
200710281352 METAR KATL 281352Z 04008KT 10SM FEW120 13/07 A3038 RMK AO2 SLP288 T01330072=
200710281252 METAR KATL 281252Z 34005KT 10SM FEW120 10/07 A3036 RMK AO2 SLP281 T01000067=
200710281152 METAR KATL 281152Z 35006KT 10SM FEW150 09/07 A3033 RMK AO2 SLP270 T00940067 10106 20083 53012=
200710281052 METAR KATL 281052Z 34007KT 10SM CLR 09/07 A3031 RMK AO2 SLP264 T00890067=
200710280952 METAR KATL 280952Z 34006KT 10SM CLR 09/07 A3030 RMK AO2 SLP258 T00890067=
200710280852 METAR KATL 280852Z 33006KT 10SM CLR 09/07 A3029 RMK AO2 SLP255 T00890067 51002=
200710280752 METAR KATL 280752Z 34007KT 10SM CLR 09/07 A3028 RMK AO2 SLP253 T00940067=
200710280652 METAR KATL 280652Z 33007KT 10SM CLR 09/07 A3029 RMK AO2 SLP255 T00940067=
200710280552 METAR KATL 280552Z 35008KT 10SM CLR 11/07 A3028 RMK AO2 SLP253 T01060072 10144 20106 53002=
200710280452 METAR KATL 280452Z 34007KT 10SM CLR 11/07 A3028 RMK AO2 SLP251 T01110072 401940078=
200710280352 METAR KATL 280352Z 35007KT 10SM CLR 12/07 A3028 RMK AO2 SLP252 T01170072=
200710280252 METAR KATL 280252Z 33012KT 10SM CLR 12/07 A3027 RMK AO2 SLP252 T01170072 51009=
200710280152 METAR KATL 280152Z 33010KT 10SM CLR 12/07 A3028 RMK AO2 SLP253 T01220072=
200710280052 METAR KATL 280052Z 33009KT 10SM CLR 13/07 A3027 RMK AO2 SLP251 T01330067=
200710272352 METAR KATL 272352Z 33012KT 10SM FEW200 14/07 A3025 RMK AO2 SLP243 T01440067 10194 20144 53011=
200710272252 METAR KATL 272252Z 32013KT 10SM FEW200 16/07 A3022 RMK AO2 SLP235 T01610067=
200710272152 METAR KATL 272152Z 33009KT 10SM FEW200 18/06 A3021 RMK AO2 SLP230 T01830061=
200710272052 METAR KATL 272052Z 34012G18KT 10SM FEW055 SCT200 19/06 A3021 RMK AO2 SLP229 T01940061 55004=
200710271952 METAR KATL 271952Z 34013KT 10SM FEW055 SCT200 19/06 A3021 RMK AO2 SLP227 T01940056=
200710271852 METAR KATL 271852Z 33015KT 10SM FEW050 SCT250 19/06 A3020 RMK AO2 SLP225 T01890061=
200710271752 METAR KATL 271752Z 31011G16KT 10SM FEW050 SCT250 18/06 A3023=
200710271652 METAR KATL 271652Z 33013G16KT 10SM FEW040 SCT250 17/07 A3024 RMK AO2 SLP240 T01720067=
200710271552 METAR KATL 271552Z 36012G17KT 10SM FEW030 SCT250 16/07 A3025 RMK AO2 SLP244 T01560067=
200710271452 METAR KATL 271452Z 32009KT 10SM FEW020 SCT250 13/07 A3025 RMK AO2 SLP244 T01280072 51012=
200710271352 METAR KATL 271352Z 33010KT 10SM FEW015 SCT250 11/07 A3024 RMK AO2 SLP241 T01060072=
200710271252 METAR KATL 271252Z 32008KT 10SM FEW010 09/07 A3023 RMK AO2 SLP237 T00890067=
200710271152 METAR KATL 271152Z 32005KT 10SM CLR 08/07 A3022 RMK AO2 SLP232 T00830067 10106 20078 51012=
200710271052 METAR KATL 271052Z 32008KT 9SM CLR 08/07 A3020 RMK AO2 SLP227 T00830067=
200710270952 METAR KATL 270952Z 31007KT 10SM CLR 08/07 A3020 RMK AO2 SLP224 T00830067=
200710270852 METAR KATL 270852Z 32008KT 10SM CLR 09/07 A3018 RMK AO2 SLP218 T00890067 51003=
200710270752 METAR KATL 270752Z 31006KT 10SM CLR 09/07 A3018 RMK AO2 SLP217 T00890067=
200710270652 METAR KATL 270652Z 31007KT 10SM CLR 10/07 A3018=
200710270552 METAR KATL 270552Z 31006KT 10SM CLR 11/08 A3017 RMK AO2 SLP215 T01060078 10161 20106 52001=
200710270452 METAR KATL 270452Z 31007KT 10SM CLR 11/08 A3016 RMK AO2 SLP213 T01110078 402000111=
200710270352 METAR KATL 270352Z 30006KT 10SM CLR 12/09 A3017 RMK AO2 SLP217 T01170089=
200710270252 METAR KATL 270252Z 30004KT 10SM CLR 13/08 A3017 RMK AO2 SLP214 T01330083 53014=
200710270152 METAR KATL 270152Z 29005KT 10SM CLR 14/09 A3015 RMK AO2 SLP208 T01440089=
200710270052 METAR KATL 270052Z 27003KT 10SM CLR 15/10 A3014 RMK AO2 SLP204 T01500100=
200710262352 METAR KATL 262352Z 00000KT 10SM CLR 16/11 A3012 RMK AO2 SLP198 T01610111 10200 20161 53015=
200710262252 METAR KATL 262252Z 22004KT 10SM CLR 18/12 A3010 RMK AO2 SLP190 T01780117=
200710262152 METAR KATL 262152Z 19006KT 10SM FEW040 19/12 A3009 RMK AO2 SLP185 T01890117=
200710262052 METAR KATL 262052Z 19005KT 10SM FEW030 SCT050 19/12 A3008 RMK AO2 SLP181 T01890122 56010=
200710261952 METAR KATL 261952Z 00000KT 10SM SCT025 BKN035 BKN045 20/14 A3008 RMK AO2 SLP182 T02000144=
200710261927 SPECI KATL 261927Z VRB04KT 10SM FEW020 BKN030 BKN050 18/14 A3008 RMK AO2=
200710261927 SPECI KATL 261927Z VRB04KT 10SM FEW020 BKN030 BKN050 18/14 A3008 RMK AO2=
200710261852 METAR KATL 261852Z 16006KT 10SM BKN020 BKN030 BKN050 18/13 A3009=
200710261831 SPECI KATL 261831Z 16006KT 10SM BKN020 BKN030 BKN050 17/13 A3010 RMK AO2=
200710261831 SPECI KATL 261831Z 16006KT 10SM BKN020 BKN030 BKN050 17/13 A3010 RMK AO2=
200710261752 METAR KATL 261752Z 14006KT 10SM FEW020 SCT025 BKN030 18/13 A3011 RMK AO2 SLP193 60000 T01780133 10178 20133 56010=
200710261747 SPECI KATL 261747Z 14006KT 10SM FEW020 SCT025 BKN030 18/13 A3011 RMK AO2=
200710261747 SPECI KATL 261747Z 14006KT 10SM FEW020 SCT025 BKN030 18/13 A3011 RMK AO2=
200710261733 SPECI KATL 261733Z 12006KT 10SM FEW020 BKN025 BKN050 18/13 A3012 RMK AO2=
200710261733 SPECI KATL 261733Z 12006KT 10SM FEW020 BKN025 BKN050 18/13 A3012 RMK AO2=
200710261652 METAR KATL 261652Z 14006KT 8SM SCT014 BKN030 BKN050 17/13 A3013 RMK AO2 SLP201 T01720133=
200710261643 SPECI KATL 261643Z 14004KT 8SM FEW014 BKN035 BKN050 17/13 A3013 RMK AO2=
200710261643 SPECI KATL 261643Z 14004KT 8SM FEW014 BKN035 BKN050 17/13 A3013 RMK AO2=
200710261619 SPECI KATL 261619Z 14004KT 6SM HZ FEW010 BKN014 BKN035 16/13 A3014 RMK AO2=
200710261619 SPECI KATL 261619Z 14004KT 6SM HZ FEW010 BKN014 BKN035 16/13 A3014 RMK AO2=
200710261602 SPECI KATL 261602Z 13004KT 6SM HZ FEW009 SCT012 OVC040 16/13 A3014 RMK AO2 BINOVC=
200710261602 SPECI KATL 261602Z 13004KT 6SM HZ FEW009 SCT012 OVC040 16/13 A3014 RMK AO2 BINOVC=
200710261552 METAR KATL 261552Z 13004KT 6SM HZ BKN009 BKN012 OVC036 16/13 A3014 RMK AO2 SLP205 BINOVC T01560128=
200710261452 METAR KATL 261452Z 14003KT 6SM BR OVC005 14/13 A3014 RMK AO2 RAB27E39 SLP204 BINOVC P0000 60000 T01440128 51015=
200710261352 METAR KATL 261352Z 13004KT 6SM BR OVC005 13/12 A3013 RMK AO2 RAB1259E35 SLP200 P0000 T01330122=
200710261335 SPECI KATL 261335Z 17005KT 6SM BR OVC007 13/12 A3012 RMK AO2 RAB1259E35 P0000=
200710261335 SPECI KATL 261335Z 17005KT 6SM BR OVC007 13/12 A3012 RMK AO2 RAB1259E35 P0000=
200710261252 METAR KATL 261252Z 11008KT 10SM BKN007 BKN038 OVC065 13/12 A3011 RMK AO2 SLP194 BINOVC T01330117=
200710261216 SPECI KATL 261216Z 10009KT 8SM BKN007 OVC065 13/12 A3010=
200710261152 METAR KATL 261152Z 10007KT 10SM SCT007 BKN065 13/12 A3009 RMK AO2 SLP188 T01330117 10144 20128 51007=
200710261150 SPECI KATL 261150Z 11006KT 10SM SCT007 BKN065 13/12 A3009 RMK AO2=
200710261150 SPECI KATL 261150Z 11006KT 10SM SCT007 BKN065 13/12 A3009 RMK AO2=
200710261143 SPECI KATL 261143Z 11006KT 10SM BKN007 BKN065 13/12 A3009 RMK AO2=
200710261143 SPECI KATL 261143Z 11006KT 10SM BKN007 BKN065 13/12 A3009 RMK AO2=
200710261133 SPECI KATL 261133Z 10008KT 10SM FEW007 BKN065 13/12 A3008 RMK AO2=
200710261133 SPECI KATL 261133Z 10008KT 10SM FEW007 BKN065 13/12 A3008 RMK AO2=
200710261052 METAR KATL 261052Z 10006KT 10SM BKN065 13/11 A3008 RMK AO2 SLP185 T01330111=
200710260952 METAR KATL 260952Z 11006KT 10SM BKN060 13/11 A3007 RMK AO2 SLP180 T01330111=
200710260852 METAR KATL 260852Z 13006KT 10SM FEW040 OVC060 14/11 A3006 RMK AO2 SLP177 BINOVC T01390106 53005=
200710260752 METAR KATL 260752Z 13007KT 10SM BKN042 OVC065 14/10 A3005 RMK AO2 SLP174 T01390100=
200710260652 METAR KATL 260652Z 11004KT 10SM SCT040 OVC065 14/11 A3005 RMK AO2 SLP173 T01390106=
200710260552 METAR KATL 260552Z 09005KT 10SM BKN045 OVC060 13/10 A3005=
200710260452 METAR KATL 260452Z 08005KT 10SM FEW048 BKN060 12/09 A3005 RMK AO2 SLP175 T01220094 401610072=
200710260352 METAR KATL 260352Z 09004KT 10SM OVC050 12/10 A3005 RMK AO2 SLP176 BINOVC T01220100=
200710260252 METAR KATL 260252Z 09005KT 10SM FEW050 12/09 A3006 RMK AO2 SLP179 T01220089 53014=
200710260152 METAR KATL 260152Z 09004KT 10SM FEW050 13/09 A3004 RMK AO2 SLP174 T01280089=
200710260052 METAR KATL 260052Z 10004KT 10SM FEW050 14/09 A3003 RMK AO2 SLP168 T01390089=
200710252352 METAR KATL 252352Z 10004KT 10SM CLR 14/09 A3001 RMK AO2 SLP164 T01390089 10161 20139 53013=
200710252252 METAR KATL 252252Z 14004KT 10SM FEW040 15/09 A2999 RMK AO2 SLP158 T01500089=
200710252152 METAR KATL 252152Z 14010KT 10SM FEW040 16/08 A2997 RMK AO2 SLP149 T01610078=
200710252052 METAR KATL 252052Z 14012KT 10SM FEW030 BKN040 16/08 A2997 RMK AO2 SLP150 T01610078 52001=
200710251952 METAR KATL 251952Z 13007G15KT 10SM BKN040 15/07 A2997 RMK AO2 SLP150 T01500072=
200710251852 METAR KATL 251852Z 14010KT 10SM BKN037 14/07 A2997=
200710251752 METAR KATL 251752Z 14007KT 10SM BKN035 14/07 A2997 RMK AO2 SLP150 T01440072 10150 20072 58007=
200710251702 SPECI KATL 251702Z 14008KT 10SM SCT027 13/07 A2998 RMK AO2 SCT027 V BKN=
200710251702 SPECI KATL 251702Z 14008KT 10SM SCT027 13/07 A2998 RMK AO2 SCT027 V BKN=
200710251652 METAR KATL 251652Z 14009KT 10SM BKN025 13/06 A2999 RMK AO2 SLP155 BKN025 V SCT T01330061=
200710251648 SPECI KATL 251648Z 14007KT 10SM BKN025 13/06 A2999 RMK AO2=
200710251648 SPECI KATL 251648Z 14007KT 10SM BKN025 13/06 A2999 RMK AO2=
200710251552 METAR KATL 251552Z VRB06KT 10SM FEW017 SCT030 12/07 A2999 RMK AO2 SLP157 T01170067=
200710251452 METAR KATL 251452Z 12006KT 9SM FEW015 SCT030 10/07 A2998 RMK AO2 SLP153 T01000067 51018=
200710251443 SPECI KATL 251443Z 14004KT 9SM FEW015 SCT030 09/06 A2997 RMK AO2=
200710251443 SPECI KATL 251443Z 14004KT 9SM FEW015 SCT030 09/06 A2997 RMK AO2=
200710251352 METAR KATL 251352Z 15005KT 3SM BR FEW007 08/06 A2996 RMK AO2 SFC VIS 6 SLP146 VIS LWR NE-S LOW CLDS BCFG T00780061=
200710251349 SPECI KATL 251349Z 15004KT 3SM BR FEW007 08/06 A2995 RMK AO2 SFC VIS 6 VIS LWR NE-S LOW CLDS BCFG=
200710251349 SPECI KATL 251349Z 15004KT 3SM BR FEW007 08/06 A2995 RMK AO2 SFC VIS 6 VIS LWR NE-S LOW CLDS BCFG=
200710251252 METAR KATL 251252Z 20003KT 3SM SCT004 BKN012 BKN032 08/06 A2993 RMK AO2 SFC VIS 10 SLP134 T00780061=
200710251250 SPECI KATL 251250Z 21003KT 3SM SCT004 BKN012 BKN032 08/06 A2993 RMK AO2 SFC VIS 10=
200710251250 SPECI KATL 251250Z 21003KT 3SM SCT004 BKN012 BKN032 08/06 A2993 RMK AO2 SFC VIS 10=
200710251152 METAR KATL 251152Z 16003KT 3SM BKN004 OVC032 07/06 A2990 RMK AO2 SFC VIS 10 SLP125 70011 T00720056 10089 20072 53015=
200710251052 METAR KATL 251052Z 17003KT 9SM BKN003 BKN032 07/06 A2987 RMK AO2 SLP116 T00720061=
200710251011 SPECI KATL 251011Z 14003KT 8SM BKN005 BKN034 07/06 A2986 RMK AO2=
200710251011 SPECI KATL 251011Z 14003KT 8SM BKN005 BKN034 07/06 A2986 RMK AO2=
200710250952 METAR KATL 250952Z 16005KT 8SM BKN003 BKN040 07/06 A2985 RMK AO2 SLP109 T00720061=
200710250911 SPECI KATL 250911Z 17006KT 10SM BKN004 BKN040 08/07 A2984 RMK AO2=
200710250911 SPECI KATL 250911Z 17006KT 10SM BKN004 BKN040 08/07 A2984 RMK AO2=
200710250852 METAR KATL 250852Z 16005KT 10SM FEW004 BKN040 08/07 A2984 RMK AO2 SLP105 T00780067 53002=
200710250752 METAR KATL 250752Z 16005KT 10SM FEW042 08/07 A2983 RMK AO2 SLP102 T00780067=
200710250652 METAR KATL 250652Z 16005KT 10SM FEW042 08/07 A2983 RMK AO2 SLP101 T00830072=
200710250552 METAR KATL 250552Z 17004KT 10SM FEW045 09/07 A2983 RMK AO2 SLP102 T00890072 10133 20089 51001=
200710250452 METAR KATL 250452Z COR 16006KT 10SM FEW040 09/07 A2983 RMK AO2 SLP101 T00940072 401500094=
200710250352 METAR KATL 250352Z 17006KT 10SM FEW050 10/08 A2983 RMK AO2 SLP101 T01000078=
200710250252 METAR KATL 250252Z 18006KT 10SM OVC030 11/08 A2983 RMK AO2 SLP100 T01110078 53008=
200710250206 SPECI KATL 250206Z 21009KT 10SM SCT020 BKN028 OVC065 11/08 A2982 RMK AO2=
200710250206 SPECI KATL 250206Z 21009KT 10SM SCT020 BKN028 OVC065 11/08 A2982 RMK AO2=
200710250152 METAR KATL 250152Z 20012KT 10SM FEW025 SCT050 OVC065 12/08 A2982 RMK AO2 SLP096 T01170083=
200710250052 METAR KATL 250052Z 20006KT 10SM FEW025 SCT055 BKN070 13/09 A2981 RMK AO2 SLP092 T01280094=
200710242352 METAR KATL 242352Z 17007KT 10SM FEW030 OVC065 13/10 A2980 RMK AO2 SLP090 BINOVC 60003 T01330100 10150 20133 53011=
200710242252 METAR KATL 242252Z 16006KT 10SM FEW030 BKN070 14/11 A2979 RMK AO2 RAB21E28 SLP087 P0000 T01390106=
200710242152 METAR KATL 242152Z 19004KT 10SM FEW025 BKN048 BKN060 BKN250 14/11 A2977 RMK AO2 SLP079 BINOVC T01440106=
200710242110 SPECI KATL 242110Z 20006KT 10SM SCT025 BKN032 OVC040 14/11 A2977 RMK AO2 BINOVC=
200710242110 SPECI KATL 242110Z 20006KT 10SM SCT025 BKN032 OVC040 14/11 A2977 RMK AO2 BINOVC=
200710242052 METAR KATL 242052Z 19003KT 9SM FEW019 OVC024 13/11 A2977 RMK AO2 SLP078 VIS LWR E-S SHRA BINOVC DSNT SE-W 60003 T01330106 55012=
200710241952 METAR KATL 241952Z 22006KT 8SM FEW011 BKN025 BKN050 BKN250 14/12 A2977 RMK AO2 RAE04 SLP077 P0000 T01440122=
200710241931 SPECI KATL 241931Z 20005KT 6SM BR FEW011 OVC024 14/12 A2977 RMK AO2 RAE04 P0000=
200710241931 SPECI KATL 241931Z 20005KT 6SM BR FEW011 OVC024 14/12 A2977 RMK AO2 RAE04 P0000=
200710241859 SPECI KATL 241859Z 20006KT 3SM -RA BR FEW006 BKN022 OVC027 14/13 A2978 RMK AO2 SFC VIS 5 P0000=
200710241859 SPECI KATL 241859Z 20006KT 3SM -RA BR FEW006 BKN022 OVC027 14/13 A2978 RMK AO2 SFC VIS 5 P0000=
200710241852 METAR KATL 241852Z 19007KT 3SM -RA BR SCT006 BKN014 OVC027 14/12 A2977 RMK AO2 SFC VIS 5 SLP081 P0003 T01390122=
200710241850 SPECI KATL 241850Z 19007KT 3SM -RA BR SCT006 BKN014 OVC027 14/12 A2978 RMK AO2 SFC VIS 5 P0003=
200710241850 SPECI KATL 241850Z 19007KT 3SM -RA BR SCT006 BKN014 OVC027 14/12 A2978 RMK AO2 SFC VIS 5 P0003=
200710241752 METAR KATL 241752Z 18005KT 2SM -RA BR FEW014 OVC019 14/12 A2980 RMK AO2 SFC VIS 4 RAB1653 SLP090 P0001 60008 T01390122 10144 20133 58015=
200710241739 SPECI KATL 241739Z VRB03KT 2SM R09R/5000VP6000FT -RA BR FEW008 OVC017 14/12 A2981 RMK AO2 RAB1653 P0001=
200710241739 SPECI KATL 241739Z VRB03KT 2SM R09R/5000VP6000FT -RA BR FEW008 OVC017 14/12 A2981 RMK AO2 RAB1653 P0001=
200710241709 SPECI KATL 241709Z 20004KT 2SM -RA BR SCT013 OVC019 14/13 A2982 RMK AO2 SFC VIS 4 RAB1653 P0000=
200710241709 SPECI KATL 241709Z 20004KT 2SM -RA BR SCT013 OVC019 14/13 A2982 RMK AO2 SFC VIS 4 RAB1653 P0000=
200710241652 METAR KATL 241652Z 00000KT 6SM BR FEW008 OVC021 14/12 A2982 RMK AO2 SLP096 T01440122=
200710241631 SPECI KATL 241631Z 00000KT 7SM FEW008 SCT014 OVC023 14/12 A2983 RMK AO2=
200710241631 SPECI KATL 241631Z 00000KT 7SM FEW008 SCT014 OVC023 14/12 A2983 RMK AO2=
200710241620 SPECI KATL 241620Z VRB04KT 7SM FEW008 BKN014 OVC026 14/12 A2983 RMK AO2=
200710241620 SPECI KATL 241620Z VRB04KT 7SM FEW008 BKN014 OVC026 14/12 A2983 RMK AO2=
200710241605 SPECI KATL 241605Z 32004KT 6SM BR SCT009 BKN015 OVC028 14/12 A2983 RMK AO2=
200710241605 SPECI KATL 241605Z 32004KT 6SM BR SCT009 BKN015 OVC028 14/12 A2983 RMK AO2=
200710241552 METAR KATL 241552Z 00000KT 3SM BR SCT007 BKN015 OVC028 14/12 A2984 RMK AO2 SFC VIS 5 RAE29 SLP100 P0001 T01390122=
200710241530 SPECI KATL 241530Z 27004KT 3SM BR BKN007 BKN010 OVC016 14/13 A2984 RMK AO2 SFC VIS 4 RAE29 CIG 004V010 P0001=
200710241530 SPECI KATL 241530Z 27004KT 3SM BR BKN007 BKN010 OVC016 14/13 A2984 RMK AO2 SFC VIS 4 RAE29 CIG 004V010 P0001=
200710241504 SPECI KATL 241504Z 20003KT 3SM -RA BR SCT005 BKN010 OVC019 14/13 A2984 RMK AO2 SFC VIS 4 CIG 009V012 P0001=
200710241504 SPECI KATL 241504Z 20003KT 3SM -RA BR SCT005 BKN010 OVC019 14/13 A2984 RMK AO2 SFC VIS 4 CIG 009V012 P0001=
200710241452 METAR KATL 241452Z 15004KT 3SM R09R/5500VP6000FT -RA BR FEW005 BKN016 OVC023 14/13 A2985 RMK AO2 SFC VIS 5 RAE18B41 SLP106 VIS LWR=
200710241352 METAR KATL 241352Z 17006KT 3SM -RA BR FEW008 BKN019 OVC030 14/13 A2985 RMK AO2 RAB00 SLP105 P0003 T01390128=
200710241337 SPECI KATL 241337Z 18007KT 3SM -RA BR SCT006 BKN023 OVC027 14/13 A2984 RMK AO2 SFC VIS 3 RAB00 P0002=
200710241337 SPECI KATL 241337Z 18007KT 3SM -RA BR SCT006 BKN023 OVC027 14/13 A2984 RMK AO2 SFC VIS 3 RAB00 P0002=
200710241326 SPECI KATL 241326Z 13004KT 2 1/2SM -RA BR FEW006 SCT013 OVC025 14/13 A2984 RMK AO2 TWR VIS 3 RAB00 P0002=
200710241326 SPECI KATL 241326Z 13004KT 2 1/2SM -RA BR FEW006 SCT013 OVC025 14/13 A2984 RMK AO2 TWR VIS 3 RAB00 P0002=
200710241316 SPECI KATL 241316Z 18007KT 4SM -RA BR SCT007 BKN026 OVC042 14/13 A2984 RMK AO2 RAB00 P0000=
200710241316 SPECI KATL 241316Z 18007KT 4SM -RA BR SCT007 BKN026 OVC042 14/13 A2984 RMK AO2 RAB00 P0000=
200710241252 METAR KATL 241252Z 12004KT 10SM FEW006 BKN030 OVC100 14/13 A2982 RMK AO2 RAE41 SLP097 P0001 T01390128=
200710241222 SPECI KATL 241222Z 16006KT 9SM -RA SCT005 BKN020 OVC043 14/13 A2984 RMK AO2 P0001=
200710241222 SPECI KATL 241222Z 16006KT 9SM -RA SCT005 BKN020 OVC043 14/13 A2984 RMK AO2 P0001=
200710241207 SPECI KATL 241207Z 10005KT 9SM -RA SCT005 BKN011 OVC090 14/13 A2980 RMK AO2 P0001=
200710241207 SPECI KATL 241207Z 10005KT 9SM -RA SCT005 BKN011 OVC090 14/13 A2980 RMK AO2 P0001=
200710241152 METAR KATL 241152Z 17004KT 9SM -RA SCT005 BKN023 OVC035 14/13 A2982 RMK AO2 RAB12 SLP096 P0000 60002 70073 T01390128 10144 20139 55003=
200710241141 SPECI KATL 241141Z 18005KT 10SM -RA SCT005 BKN022 OVC075 14/13 A2983 RMK AO2 RAB12 P0000=
200710241141 SPECI KATL 241141Z 18005KT 10SM -RA SCT005 BKN022 OVC075 14/13 A2983 RMK AO2 RAB12 P0000=
200710241118 SPECI KATL 241118Z VRB04KT 9SM -RA FEW006 SCT010 OVC075 14/13 A2981 RMK AO2 RAB12 P0000=
200710241118 SPECI KATL 241118Z VRB04KT 9SM -RA FEW006 SCT010 OVC075 14/13 A2981 RMK AO2 RAB12 P0000=
200710241102 SPECI KATL 241102Z 15004KT 10SM SCT006 BKN010 OVC075 14/13 A2982 RMK AO2=
200710241102 SPECI KATL 241102Z 15004KT 10SM SCT006 BKN010 OVC075 14/13 A2982 RMK AO2=
200710241052 METAR KATL 241052Z 15005KT 10SM SCT006 SCT012 OVC070 14/13 A2982 RMK AO2 SLP095 T01390128=
200710241041 SPECI KATL 241041Z 12003KT 10SM SCT006 BKN012 OVC070 14/13 A2981 RMK AO2=
200710241041 SPECI KATL 241041Z 12003KT 10SM SCT006 BKN012 OVC070 14/13 A2981 RMK AO2=
200710241025 SPECI KATL 241025Z 20004KT 10SM BKN006 OVC070 14/13 A2983 RMK AO2 CIG 004V012=
200710241025 SPECI KATL 241025Z 20004KT 10SM BKN006 OVC070 14/13 A2983 RMK AO2 CIG 004V012=
200710241015 SPECI KATL 241015Z 00000KT 10SM SCT006 BKN010 OVC070 14/13 A2982 RMK AO2 CIG 009V012=
200710241015 SPECI KATL 241015Z 00000KT 10SM SCT006 BKN010 OVC070 14/13 A2982 RMK AO2 CIG 009V012=
200710241002 SPECI KATL 241002Z 15005KT 10SM FEW006 SCT011 OVC070 14/13 A2982 RMK AO2=
200710241002 SPECI KATL 241002Z 15005KT 10SM FEW006 SCT011 OVC070 14/13 A2982 RMK AO2=
200710240952 METAR KATL 240952Z 12003KT 10SM FEW006 BKN011 OVC065 14/13 A2982 RMK AO2 RAE07 SLP094 P0000 T01390128=
200710240925 SPECI KATL 240925Z 18005KT 10SM SCT007 OVC065 14/13 A2983 RMK AO2 RAE07 P0000=
200710240925 SPECI KATL 240925Z 18005KT 10SM SCT007 OVC065 14/13 A2983 RMK AO2 RAE07 P0000=
200710240852 METAR KATL 240852Z 15006KT 10SM -RA BKN008 OVC060 14/13 A2983 RMK AO2 RAB13 CIG 003V010 SLP095 P0000 60002 T01390128 56004=
200710240834 SPECI KATL 240834Z 16005KT 9SM -RA SCT008 OVC055 14/13 A2983 RMK AO2 RAB13 P0000=
200710240834 SPECI KATL 240834Z 16005KT 9SM -RA SCT008 OVC055 14/13 A2983 RMK AO2 RAB13 P0000=
200710240758 SPECI KATL 240758Z 17004KT 10SM SCT006 BKN009 OVC055 14/13 A2984 RMK AO2 CIG 008V012=
200710240758 SPECI KATL 240758Z 17004KT 10SM SCT006 BKN009 OVC055 14/13 A2984 RMK AO2 CIG 008V012=
200710240752 METAR KATL 240752Z 15003KT 10SM FEW006 BKN018 OVC055 14/13 A2984 RMK AO2 SLP096 T01390128=
200710240747 SPECI KATL 240747Z 15004KT 10SM FEW006 BKN018 OVC055 14/13 A2983 RMK AO2=
200710240747 SPECI KATL 240747Z 15004KT 10SM FEW006 BKN018 OVC055 14/13 A2983 RMK AO2=
200710240729 SPECI KATL 240729Z 14005KT 10SM SCT006 OVC012 14/13 A2983 RMK AO2=
200710240729 SPECI KATL 240729Z 14005KT 10SM SCT006 OVC012 14/13 A2983 RMK AO2=
200710240714 SPECI KATL 240714Z 14004KT 10SM OVC008 14/13 A2984 RMK AO2=
200710240714 SPECI KATL 240714Z 14004KT 10SM OVC008 14/13 A2984 RMK AO2=
200710240652 METAR KATL 240652Z 00000KT 10SM SCT006 BKN012 OVC050 14/13 A2985 RMK AO2 RAE21 SLP100 P0002 T01390128=
200710240645 SPECI KATL 240645Z 10003KT 10SM SCT004 OVC011 14/13 A2984 RMK AO2 RAE21 P0002=
200710240645 SPECI KATL 240645Z 10003KT 10SM SCT004 OVC011 14/13 A2984 RMK AO2 RAE21 P0002=
200710240619 SPECI KATL 240619Z 09005KT 9SM -RA BKN004 OVC018 14/13 A2984 RMK AO2 P0002=
200710240619 SPECI KATL 240619Z 09005KT 9SM -RA BKN004 OVC018 14/13 A2984 RMK AO2 P0002=
200710240617 SPECI KATL 240617Z 09005KT 9SM -RA FEW002 BKN006 OVC049 14/13 A2984 RMK AO2 P0002=
200710240617 SPECI KATL 240617Z 09005KT 9SM -RA FEW002 BKN006 OVC049 14/13 A2984 RMK AO2 P0002=
200710240606 SPECI KATL 240606Z 11005KT 7SM -RA FEW003 SCT029 OVC049 14/13 A2985 RMK AO2 P0002=
200710240606 SPECI KATL 240606Z 11005KT 7SM -RA FEW003 SCT029 OVC049 14/13 A2985 RMK AO2 P0002=
200710240552 METAR KATL 240552Z 12005KT 3SM RA BR FEW006 BKN018 OVC036 14/13 A2987 RMK AO2 RAB0453 SLP108 P0015 60026 T01440133 10156 20144 58005=
200710240544 SPECI KATL 240544Z 15004KT 3SM RA BR FEW006 BKN018 OVC036 14/13 A2987 RMK AO2 RAB0453 P0013=
200710240544 SPECI KATL 240544Z 15004KT 3SM RA BR FEW006 BKN018 OVC036 14/13 A2987 RMK AO2 RAB0453 P0013=
200710240541 SPECI KATL 240541Z 15004KT 2 1/2SM +RA BR FEW006 BKN018 OVC036 14/13 A2988 RMK AO2 RAB0453 P0012=
200710240541 SPECI KATL 240541Z 15004KT 2 1/2SM +RA BR FEW006 BKN018 OVC036 14/13 A2988 RMK AO2 RAB0453 P0012=
200710240524 SPECI KATL 240524Z 15005KT 2 1/2SM +RA BR FEW010 BKN028 OVC050 14/13 A2988 RMK AO2 RAB0453 P0002=
200710240524 SPECI KATL 240524Z 15005KT 2 1/2SM +RA BR FEW010 BKN028 OVC050 14/13 A2988 RMK AO2 RAB0453 P0002=
200710240452 METAR KATL 240452Z 00000KT 9SM SCT007 OVC050 14/13 A2988 RMK AO2 RAE27 SLP111 P0001 T01440133 402720144=
200710240352 METAR KATL 240352Z 00000KT 9SM -RA FEW012 OVC045 14/13 A2990 RMK AO2 SLP119 P0010 T01440128=
200710240252 METAR KATL 240252Z 31007KT 9SM -RA FEW012 OVC040 15/13 A2988 RMK AO2 RAE02B29 SLP114 P0000 60000 T01500133 53004=
200710240152 METAR KATL 240152Z 30007KT 10SM -RA FEW006 OVC035 16/14 A2988 RMK AO2 RAB52 SLP112 PCPN VRY LGT P0000 T01560139=
200710240052 METAR KATL 240052Z 28004KT 10SM OVC030 16/14 A2987 RMK AO2 RAE16 SLP110 P0000 T01560139=
200710232352 METAR KATL 232352Z 27006KT 10SM -RA FEW006 BKN030 OVC050 16/14 A2987 RMK AO2 SLP111 P0003 60044 T01560139 10272 20156 51039=
200710232324 SPECI KATL 232324Z 29007KT 10SM -RA FEW006 BKN035 OVC050 16/14 A2987 RMK AO2 P0003=
200710232324 SPECI KATL 232324Z 29007KT 10SM -RA FEW006 BKN035 OVC050 16/14 A2987 RMK AO2 P0003=
200710232306 SPECI KATL 232306Z 28009KT 4SM RA BR SCT006 BKN025 OVC050 16/14 A2986 RMK AO2 P0002=
200710232306 SPECI KATL 232306Z 28009KT 4SM RA BR SCT006 BKN025 OVC050 16/14 A2986 RMK AO2 P0002=
200710232252 METAR KATL 232252Z 30012KT 7SM -RA BKN007 BKN025 OVC060 16/15 A2985 RMK AO2 SLP100 CIG 005V010 P0011 T01610150=
200710232229 SPECI KATL 232229Z 28010G18KT 5SM RA BR BKN008 BKN025 OVC040 16/16 A2984 RMK AO2 PRESRR CB NE-SE MOV NE P0011=
200710232229 SPECI KATL 232229Z 28010G18KT 5SM RA BR BKN008 BKN025 OVC040 16/16 A2984 RMK AO2 PRESRR CB NE-SE MOV NE P0011=
200710232204 SPECI KATL 232204Z 30014KT 5SM R09R/4500VP6000FT -RA BR SCT015CB BKN040 OVC060 17/16 A2981 RMK AO2 CB NE-SE MOV NE P0011=
200710232204 SPECI KATL 232204Z 30014KT 5SM R09R/4500VP6000FT -RA BR SCT015CB BKN040 OVC060 17/16 A2981 RMK AO2 CB NE-SE MOV NE P0011=
200710232158 SPECI KATL 232158Z 30016KT 1 1/2SM R09R/4500VP6000FT +RA BR BKN015CB BKN040 OVC060 17/16 A2981 RMK AO2 CB NE-OHD-SW MOV NE P0005=
200710232158 SPECI KATL 232158Z 30016KT 1 1/2SM R09R/4500VP6000FT +RA BR BKN015CB BKN040 OVC060 17/16 A2981 RMK AO2 CB NE-OHD-SW MOV NE P0005=
200710232152 METAR KATL 232152Z 30014KT 2 1/2SM R09R/5000VP6000FT +RA BR BKN015CB BKN040 OVC060 18/17 A2981 RMK AO2 PK WND 29027/2124 WSHFT 2120 RAB22 SLP087 CB NE-OHD-SW MOV NE P0030 T01780167=
200710232140 SPECI KATL 232140Z 28014G23KT 1SM R09R/3500VP6000FT +RA BR BKN015CB BKN040 OVC060 18/17 A2981 RMK AO2 PK WND 29027/2124 WSHFT 2120 RAB22 PRESRR CB NE-OHD-SW MOV NE P0004=
200710232140 SPECI KATL 232140Z 28014G23KT 1SM R09R/3500VP6000FT +RA BR BKN015CB BKN040 OVC060 18/17 A2981 RMK AO2 PK WND 29027/2124 WSHFT 2120 RAB22 PRESRR CB NE-OHD-SW MOV NE P0004=
200710232136 SPECI KATL 232136Z 27013G23KT 7SM -RA SCT015CB BKN040 OVC060 19/18 A2981 RMK AO2 PK WND 29027/2124 WSHFT 2120 RAB22 PRESRR CB N-NE AND S-SW MOV NE P0002=
200710232136 SPECI KATL 232136Z 27013G23KT 7SM -RA SCT015CB BKN040 OVC060 19/18 A2981 RMK AO2 PK WND 29027/2124 WSHFT 2120 RAB22 PRESRR CB N-NE AND S-SW MOV NE P0002=
200710232132 SPECI KATL 232132Z 29018G27KT 6SM -RA BR SCT015CB BKN040 OVC070 19/18 A2979 RMK AO2 PK WND 29027/2124 RAB22 CB N-NE AND S-SW MOV NE P0002=
200710232132 SPECI KATL 232132Z 29018G27KT 6SM -RA BR SCT015CB BKN040 OVC070 19/18 A2979 RMK AO2 PK WND 29027/2124 RAB22 CB N-NE AND S-SW MOV NE P0002=
200710232128 SPECI KATL 232128Z 28018G27KT 2SM +RA BKN015CB BKN040 OVC070 20/17 A2979 RMK AO2 PK WND 29027/2124 RAB22 PRESRR CB S-OHD-NW MOV NE P0002=
200710232128 SPECI KATL 232128Z 28018G27KT 2SM +RA BKN015CB BKN040 OVC070 20/17 A2979 RMK AO2 PK WND 29027/2124 RAB22 PRESRR CB S-OHD-NW MOV NE P0002=
200710232101 SPECI KATL 232101Z 18010G18KT 10SM BKN042CB BKN085 BKN150 OVC200 27/19 A2976 RMK AO2 TS 19SM DSNT NW LTG DSNT NW CB VC SW-NW MOV NE CB DSNT NW MOV NE=
200710232101 SPECI KATL 232101Z 18010G18KT 10SM BKN042CB BKN085 BKN150 OVC200 27/19 A2976 RMK AO2 TS 19SM DSNT NW LTG DSNT NW CB VC SW-NW MOV NE CB DSNT NW MOV NE=
200710232052 METAR KATL 232052Z 18013G24KT 10SM FEW040CB BKN085 BKN150 BKN200 27/19 A2975 RMK AO2 PK WND 17030/2027 SLP066 CB VC SW-NW MOV NE SHRA VC SW-NW T02670194 56023=
200710231952 METAR KATL 231952Z 19016G20KT 10SM SCT040 SCT150 BKN200 27/20 A2977 RMK AO2 PK WND 18029/1939 SLP071 CB DSNT SW-NW MOV NE SHRA DSNT SW-NW T02720200=
200710231852 METAR KATL 231852Z COR 16017G25KT 10SM FEW030 SCT040 SCT150 BKN200 27/20 A2979 RMK AO2 PK WND 20029/1753 SLP080 T02720200=
200710231752 METAR KATL 231752Z 18018G29KT 10SM FEW026 BKN032 BKN042 BKN150 BKN200 26/20 A2982 RMK AO2 PK WND 19029/1749 SLP089 60001 T02610200 10261 20217 58022=
200710231652 METAR KATL 231652Z 17015G20KT 10SM FEW020 BKN030 BKN150 BKN200 25/21 A2986 RMK AO2 SLP103 T02500206=
200710231552 METAR KATL 231552Z COR 18013G18KT 10SM FEW015 SCT020 BKN150 BKN200 23/21 A2989 RMK AO2 RAB01E17 SLP113 P0000 T02330211=
200710231542 SPECI KATL 231542Z 17011KT 10SM FEW010 BKN020 BKN150 BKN200 23/21 A2989 RMK AO2 RAB01E17 P0000=
200710231542 SPECI KATL 231542Z 17011KT 10SM FEW010 BKN020 BKN150 BKN200 23/21 A2989 RMK AO2 RAB01E17 P0000=
200710231452 METAR KATL 231452Z 17009KT 9SM OVC012 22/21 A2989 RMK AO2 SLP114 60001 T02220206 50006=
200710231427 SPECI KATL 231427Z 17009KT 8SM BKN010 BKN016 OVC024 22/21 A2989 RMK AO2 CIG 006V012=
200710231427 SPECI KATL 231427Z 17009KT 8SM BKN010 BKN016 OVC024 22/21 A2989 RMK AO2 CIG 006V012=
200710231420 SPECI KATL 231420Z 17010KT 8SM FEW007 BKN015 OVC024 22/21 A2989 RMK AO2=
200710231420 SPECI KATL 231420Z 17010KT 8SM FEW007 BKN015 OVC024 22/21 A2989 RMK AO2=
200710231352 METAR KATL 231352Z 16010KT 6SM BR SCT007 BKN011 OVC018 22/21 A2989 RMK AO2 SLP114 BINOVC T02220206=
200710231252 METAR KATL 231252Z 15012KT 8SM BKN007 OVC015 22/21 A2987 RMK AO2 RAB08E52 CIG 005V011 SLP108 P0001 T02170206=
200710231248 SPECI KATL 231248Z 15011KT 8SM -RA BKN007 OVC015 22/21 A2987 RMK AO2 RAB08 CIG 005V012 P0001=
200710231248 SPECI KATL 231248Z 15011KT 8SM -RA BKN007 OVC015 22/21 A2987 RMK AO2 RAB08 CIG 005V012 P0001=
200710231152 METAR KATL 231152Z 17011KT 8SM BKN010 OVC015 22/21 A2990 RMK AO2 CIG 008V012 SLP118 SHRA VC SW-NW 60000 70041 T02220206 10222 20217 58011=
200710231052 METAR KATL 231052Z 17010KT 10SM BKN008 OVC015 22/21 A2992 RMK AO2 DZE28 CIG 006V011 SLP124 P0000 T02220206=
200710230952 METAR KATL 230952Z 16008KT 7SM -DZ BKN008 OVC012 22/21 A2992 RMK AO2 DZB48 SLP125 P0000 T02170206=
200710230940 SPECI KATL 230940Z COR 16007KT 8SM BKN008 OVC012 22/21 A2992 RMK AO2 CIG 007V010=
200710230940 SPECI KATL 230940Z COR 16007KT 8SM BKN008 OVC012 22/21 A2992 RMK AO2 CIG 007V010=
200710230852 METAR KATL 230852Z 16009KT 8SM SCT008 BKN014 OVC022 22/21 A2994 RMK AO2 DZE30 SLP130 P0000 60000 T02220206 55010=
200710230819 SPECI KATL 230819Z 16007KT 9SM -DZ SCT008 BKN012 OVC024 22/21 A2994 RMK AO2 P0000=
200710230819 SPECI KATL 230819Z 16007KT 9SM -DZ SCT008 BKN012 OVC024 22/21 A2994 RMK AO2 P0000=
200710230752 METAR KATL 230752Z COR 15009KT 8SM -DZ OVC008 22/21 A2994 RMK AO2 CIG 006V012 SLP130 P0000 T02170206=
200710230652 METAR KATL 230652Z COR 15011KT 8SM -DZ OVC008 22/21 A2996 RMK AO2 CIG 005V011 SLP137 P0000 T02170206=
200710230552 METAR KATL 230552Z 16011KT 8SM -DZ OVC006 22/21 A2997 RMK AO2 CIG 003V011 SLP141 RAB14E25DZB25 P0000 60004 T02170206 10222 20217 56009=
200710230543 SPECI KATL 230543Z 16011KT 8SM -DZ OVC006 22/21 A2997 RMK AO2 CIG 003V011 RAB14E25DZB25 P0000=
200710230543 SPECI KATL 230543Z 16011KT 8SM -DZ OVC006 22/21 A2997 RMK AO2 CIG 003V011 RAB14E25DZB25 P0000=
200710230532 SPECI KATL 230532Z 15012KT 1/4SM -DZ OVC003 22/21 A2997 RMK AO2 SFC VIS 8 RAB14E25 TWRINC P0000=
200710230532 SPECI KATL 230532Z 15012KT 1/4SM -DZ OVC003 22/21 A2997 RMK AO2 SFC VIS 8 RAB14E25 TWRINC P0000=
200710230452 METAR KATL 230452Z 16011KT 1 1/2SM -DZ BR OVC004 22/21 A2998 RMK AO2 SFC VIS 5 RAE32DZB42 SLP145 CIG 003V006 P0000 T02170206 402220178=
200710230438 SPECI KATL 230438Z 16009KT 6SM BR OVC003 22/21 A2998 RMK AO2 RAE32 P0000=
200710230438 SPECI KATL 230438Z 16009KT 6SM BR OVC003 22/21 A2998 RMK AO2 RAE32 P0000=
200710230352 METAR KATL 230352Z 15012KT 7SM -RA OVC005 22/21 A3000 RMK AO2 RAE02B28 SLP151 CIG 004V009 PCPN VRY LGT P0004 T02170206=
200710230252 METAR KATL 230252Z COR 15014G17KT 7SM -RA OVC005 22/21 A3000 RMK AO2 RAB51 SLP153 P0000 60000 T02170206 56007=
200710230152 METAR KATL 230152Z 14011G16KT 7SM OVC007 22/21 A3001 RMK AO2 SLP155 CIG 005V008 T02220206=
200710230052 METAR KATL 230052Z 13009G16KT 4SM BR OVC005 22/21 A3001 RMK AO2 SLP157 T02170206=
200710222352 METAR KATL 222352Z 13007KT 2SM BR OVC005 22/20 A3002 RMK AO2 SFC VIS 5 SLP160 60000 T02170200 10217 20200 58009=
200710222317 SPECI KATL 222317Z 12008KT 2SM BR OVC005 21/20 A3003 RMK AO2 SFC VIS 4=
200710222317 SPECI KATL 222317Z 12008KT 2SM BR OVC005 21/20 A3003 RMK AO2 SFC VIS 4=
200710222252 METAR KATL 222252Z 13006KT 1SM BR OVC004 21/20 A3004 RMK AO2 SFC VIS 3 RAE15 SLP166 P0000 T02110200=
200710222152 METAR KATL 222152Z 13009G14KT 1SM -RA BR OVC004 21/20 A3004 RMK AO2 SFC VIS 2 1/2 DZB47E52RAB52 SLP167 PCPN VRY LGT P0000 T02110200=
200710222052 METAR KATL 222052Z 14006KT 1SM BR OVC004 21/20 A3005 RMK AO2 SFC VIS 3 SLP170 T02060200 56021=
200710221952 METAR KATL 221952Z 14007G14KT 1SM BR OVC004 21/19 A3006 RMK AO2 SFC VIS 3 SLP174 T02060194=
200710221912 SPECI KATL 221912Z 13006G15KT 1SM BR OVC004 20/19 A3007 RMK AO2 SFC VIS 3=
200710221912 SPECI KATL 221912Z 13006G15KT 1SM BR OVC004 20/19 A3007 RMK AO2 SFC VIS 3=
200710221852 METAR KATL 221852Z 12007KT 2SM BR OVC004 20/19 A3008 RMK AO2 SFC VIS 4 SLP180 T02000189=
200710221752 METAR KATL 221752Z 12007KT 2SM BR OVC004 20/19 A3012 RMK AO2 SFC VIS 4 SLP192 60037 T02000189 10200 20178 58020=
200710221652 METAR KATL 221652Z 13009KT 2SM BR OVC004 19/18 A3015 RMK AO2 SFC VIS 4 RAB25E38 SLP202 P0001 T01940183=
200710221650 SPECI KATL 221650Z 13009KT 2SM BR OVC004 19/18 A3015 RMK AO2 SFC VIS 4 RAB25E38 P0001=
200710221650 SPECI KATL 221650Z 13009KT 2SM BR OVC004 19/18 A3015 RMK AO2 SFC VIS 4 RAB25E38 P0001=
200710221632 SPECI KATL 221632Z 12009KT 1 1/2SM R09R/6000VP6000FT -RA BR OVC004 19/18 A3015 RMK AO2 SFC VIS 3 RAB25 P0001=
200710221632 SPECI KATL 221632Z 12009KT 1 1/2SM R09R/6000VP6000FT -RA BR OVC004 19/18 A3015 RMK AO2 SFC VIS 3 RAB25 P0001=
200710221552 METAR KATL 221552Z 11010KT 2 1/2SM BR OVC004 19/18 A3018 RMK AO2 SFC VIS 5 RAE11 SLP213 P0000 T01890178=
200710221548 SPECI KATL 221548Z 12011KT 2 1/2SM BR OVC004 19/18 A3018 RMK AO2 SFC VIS 5 RAE11 P0000=
200710221548 SPECI KATL 221548Z 12011KT 2 1/2SM BR OVC004 19/18 A3018 RMK AO2 SFC VIS 5 RAE11 P0000=
200710221452 METAR KATL 221452Z 11010KT 1SM -RA BR OVC004 18/17 A3018 RMK AO2 SFC VIS 5 SLP213 P0003 60036 T01830172 50001=
200710221352 METAR KATL 221352Z 12005KT 1SM R09R/5000VP6000FT -RA BR OVC004 18/17 A3018 RMK AO2 SFC VIS 1 1/2 RAE02B24DZB20E24 SLP215 P0009 T01830172=
200710221252 METAR KATL 221252Z 10010KT 1SM -RA BR BKN004 OVC030 18/17 A3018 RMK AO2 SFC VIS 2 1/2 SLP213 P0024 T01780172=
200710221231 SPECI KATL 221231Z 10010KT 1SM RA BR OVC004 18/17 A3018 RMK AO2 SFC VIS 2 P0017=
200710221231 SPECI KATL 221231Z 10010KT 1SM RA BR OVC004 18/17 A3018 RMK AO2 SFC VIS 2 P0017=
200710221209 SPECI KATL 221209Z 09008KT 1SM R09R/5500VP6000FT +RA BR OVC006 18/17 A3017 RMK AO2 SFC VIS 2 CIG 003V009 P0009=
200710221209 SPECI KATL 221209Z 09008KT 1SM R09R/5500VP6000FT +RA BR OVC006 18/17 A3017 RMK AO2 SFC VIS 2 CIG 003V009 P0009=
200710221202 SPECI KATL 221202Z 10006KT 2 1/2SM RA BR OVC006 18/17 A3017 RMK AO2 TWR VIS 3 P0004=
200710221202 SPECI KATL 221202Z 10006KT 2 1/2SM RA BR OVC006 18/17 A3017 RMK AO2 TWR VIS 3 P0004=
200710221152 METAR KATL 221152Z 09008KT 3SM +RA BR OVC008 18/17 A3017 RMK AO2 SLP211 P0005 60010 70010 T01780167 10194 20178 50002=
200710221138 SPECI KATL 221138Z 09008KT 7SM -RA OVC008 18/17 A3017 RMK AO2 P0001=
200710221138 SPECI KATL 221138Z 09008KT 7SM -RA OVC008 18/17 A3017 RMK AO2 P0001=
200710221102 SPECI KATL 221102Z 08006KT 6SM -RA BR BKN013 OVC019 18/16 A3018 RMK AO2 P0001=
200710221102 SPECI KATL 221102Z 08006KT 6SM -RA BR BKN013 OVC019 18/16 A3018 RMK AO2 P0001=
200710221052 METAR KATL 221052Z 10004KT 8SM -RA BKN018 OVC030 18/16 A3018 RMK AO2 SLP212 P0005 T01780161=
200710221033 SPECI KATL 221033Z 10004KT 10SM -RA BKN022 OVC030 18/16 A3018 RMK AO2 P0000=
200710221033 SPECI KATL 221033Z 10004KT 10SM -RA BKN022 OVC030 18/16 A3018 RMK AO2 P0000=
200710220952 METAR KATL 220952Z 07007KT 10SM -RA BKN034 OVC050 18/16 A3017 RMK AO2 RAB34 SLP209 P0000 T01780156=
200710220852 METAR KATL 220852Z 08006KT 10SM BKN035 OVC085 18/15 A3016 RMK AO2 SLP208 T01830150 58007=
200710220752 METAR KATL 220752Z 11007KT 10SM BKN044 BKN110 OVC250 18/14 A3017 RMK AO2 SLP209 T01830144=
200710220652 METAR KATL 220652Z 12008KT 10SM BKN055 BKN085 OVC250 19/13 A3018 RMK AO2 SLP214 T01890133=
200710220552 METAR KATL 220552Z 13007KT 10SM FEW040 BKN090 BKN250 19/13 A3019 RMK AO2 SLP214 T01940128 10211 20172 58002=
200710220452 METAR KATL 220452Z 11006KT 10SM BKN043 BKN070 19/11 A3020 RMK AO2 SLP220 T01890111 402560106=
200710220352 METAR KATL 220352Z 11004KT 10SM BKN047 BKN065 18/11 A3021 RMK AO2 SLP223 T01830106=
200710220252 METAR KATL 220252Z 08009KT 10SM CLR 18/11 A3019 RMK AO2 SLP220 T01780111 50004=
200710220152 METAR KATL 220152Z 11004KT 10SM CLR 19/11 A3020 RMK AO2 SLP222 T01940106=
200710220052 METAR KATL 220052Z 12005KT 10SM CLR 21/10 A3019 RMK AO2 SLP220 T02060100=
200710212352 METAR KATL 212352Z 15005KT 10SM FEW250 21/09 A3018 RMK AO2 SLP217 T02110094 10256 20211 53007=
200710212252 METAR KATL 212252Z 15007KT 10SM FEW250 23/08 A3016 RMK AO2 SLP209 T02280083=
200710212152 METAR KATL 212152Z 15011KT 10SM FEW250 24/07 A3015 RMK AO2 SLP205 T02440067=
200710212052 METAR KATL 212052Z 15011KT 10SM FEW250 25/08 A3016 RMK AO2 SLP207 T02500078 56012=
200710211952 METAR KATL 211952Z 17008KT 10SM FEW250 25/07 A3016 RMK AO2 SLP208 T02500072=
200710211852 METAR KATL 211852Z 14009KT 10SM FEW250 24/07 A3017 RMK AO2 SLP212 T02440072=
200710211752 METAR KATL 211752Z 16013G18KT 10SM FEW250 24/06 A3019 RMK AO2 SLP218 T02440061 10244 20106 58010=
200710211652 METAR KATL 211652Z 15009KT 10SM FEW250 23/07 A3021 RMK AO2 SLP226 T02330067=
200710211552 METAR KATL 211552Z 12009KT 10SM FEW250 22/06 A3022 RMK AO2 SLP230 T02170061=
200710211452 METAR KATL 211452Z 10010KT 10SM FEW250 20/06 A3023 RMK AO2 SLP230 T02000061 51018=
200710211352 METAR KATL 211352Z 09006KT 10SM FEW250 16/07 A3021 RMK AO2 SLP226 T01610072=
200710211252 METAR KATL 211252Z 08007KT 10SM FEW250 13/07 A3019 RMK AO2 SLP222 T01280067=
200710211152 METAR KATL 211152Z 07005KT 10SM FEW250 11/06 A3017 RMK AO2 SLP215 T01060056 10144 20106 53017=
200710211052 METAR KATL 211052Z 07005KT 10SM CLR 11/05 A3015 RMK AO2 SLP207 T01110050=
200710210952 METAR KATL 210952Z 07006KT 10SM CLR 12/05 A3014 RMK AO2 SLP201 T01220050=
200710210852 METAR KATL 210852Z 09004KT 10SM CLR 12/06 A3012 RMK AO2 SLP194 T01220061 52005=
200710210752 METAR KATL 210752Z 00000KT 10SM CLR 14/06 A3011 RMK AO2 SLP191 T01390056=
200710210652 METAR KATL 210652Z 00000KT 10SM CLR 14/06 A3011 RMK AO2 SLP192 T01390061=
200710210552 METAR KATL 210552Z 00000KT 10SM CLR 14/07 A3010 RMK AO2 SLP189 T01440067 10206 20139 53001=
200710210452 METAR KATL 210452Z 00000KT 10SM CLR 15/06 A3010 RMK AO2 SLP187 T01500056 402390111=
200710210352 METAR KATL 210352Z 00000KT 10SM CLR 15/07 A3010 RMK AO2 SLP190 T01500072=
200710210252 METAR KATL 210252Z 00000KT 10SM CLR 16/06 A3010 RMK AO2 SLP189 T01610061 52015=
200710210152 METAR KATL 210152Z 00000KT 10SM CLR 18/04 A3009 RMK AO2 SLP184 T01780044=
200710210052 METAR KATL 210052Z 00000KT 10SM CLR 17/07 A3007 RMK AO2 SLP181 T01720067=
200710202352 METAR KATL 202352Z 00000KT 10SM CLR 19/03 A3006 RMK AO2 SLP175 T01940033 10239 20194 53008=
200710202252 METAR KATL 202252Z 33004KT 10SM FEW250 22/02 A3004 RMK AO2 SLP169 T02170017=
200710202152 METAR KATL 202152Z 31006KT 10SM CLR 23/02 A3003 RMK AO2 SLP164 T02280017=
200710202052 METAR KATL 202052Z VRB05KT 10SM CLR 24/02 A3003 RMK AO2 SLP164 T02390017 55004=
200710201952 METAR KATL 201952Z 33008KT 10SM FEW200 23/02 A3003 RMK AO2 SLP163 T02330022=
200710201852 METAR KATL 201852Z 30006KT 10SM FEW200 23/03 A3003 RMK AO2 SLP165 T02280028=
200710201752 METAR KATL 201752Z 32009G14KT 10SM FEW200 22/04 A3004 RMK AO2 SLP168 T02220039 10222 20111 58009=
200710201652 METAR KATL 201652Z 31011G16KT 10SM FEW150 21/04 A3006 RMK AO2 SLP175 T02110044=
200710201552 METAR KATL 201552Z 34009KT 10SM FEW150 21/05 A3007 RMK AO2 SLP178 T02060050=
200710201452 METAR KATL 201452Z 32004KT 10SM FEW150 18/09 A3007 RMK AO2 SLP179 T01780089 51025=
200710201352 METAR KATL 201352Z 30007KT 10SM FEW150 16/10 A3005 RMK AO2 SLP173 T01560100=
200710201252 METAR KATL 201252Z 31006KT 10SM CLR 13/09 A3003 RMK AO2 SLP165 T01280094=
200710201152 METAR KATL 201152Z 30005KT 10SM CLR 11/08 A3000 RMK AO2 SLP154 70001 T01110083 10150 20111 51020=
200710201052 METAR KATL 201052Z 31005KT 10SM CLR 12/09 A2998 RMK AO2 SLP147 T01170089=
200710200952 METAR KATL 200952Z 29005KT 10SM CLR 12/09 A2996 RMK AO2 SLP139 T01220089=
200710200852 METAR KATL 200852Z 29005KT 10SM CLR 12/09 A2994 RMK AO2 SLP132 T01220089 51017=
200710200752 METAR KATL 200752Z 28005KT 10SM FEW200 13/08 A2993 RMK AO2 SLP128 T01330083=
200710200652 METAR KATL 200652Z 26003KT 10SM CLR 14/08 A2991 RMK AO2 SLP122 T01390078=
200710200552 METAR KATL 200552Z 27004KT 10SM CLR 14/08 A2989 RMK AO2 SLP115 T01440078 10211 20144 53012=
200710200452 METAR KATL 200452Z 28005KT 10SM CLR 14/08 A2987 RMK AO2 SLP111 T01440078 402440144=
200710200352 METAR KATL 200352Z 28007KT 10SM FEW200 16/08 A2986 RMK AO2 SLP107 T01560078=
200710200252 METAR KATL 200252Z 28006KT 10SM FEW150 17/08 A2985 RMK AO2 SLP102 T01670078 53022=
200710200152 METAR KATL 200152Z 28008KT 10SM FEW150 18/08 A2982 RMK AO2 SLP093 T01780083=
200710200052 METAR KATL 200052Z 26003KT 10SM FEW200 20/11 A2979 RMK AO2 SLP082 T02000106=
200710192352 METAR KATL 192352Z 24006KT 10SM FEW150 SCT200 21/12 A2978 RMK AO2 SLP078 T02060117 10244 20206 53007=
200710192252 METAR KATL 192252Z 24009KT 10SM FEW150 SCT200 23/11 A2977 RMK AO2 SLP073 T02280111=
200710192152 METAR KATL 192152Z 24007KT 10SM FEW050 SCT150 SCT250 24/11 A2976 RMK AO2 SLP069 T02390106=
200710192052 METAR KATL 192052Z 24014G17KT 10SM FEW040 SCT050 BKN150 BKN250 24/12 A2976 RMK AO2 SLP069 T02440122 56009=
200710191952 METAR KATL 191952Z 22011KT 10SM FEW030 SCT040 BKN150 BKN250 24/16 A2977 RMK AO2 SLP073 T02390161=
200710191852 METAR KATL 191852Z 22013G17KT 10SM FEW029 BKN150 BKN180 23/16 A2977 RMK AO2 SLP072 T02280161=
200710191752 METAR KATL 191752Z 23008KT 10SM FEW020 BKN150 BKN180 22/17 A2979 RMK AO2 SLP080 60001 T02220167 10222 20194 58004=
200710191750 SPECI KATL 191750Z 24009KT 10SM FEW020 BKN150 BKN180 22/17 A2979 RMK AO2=
200710191750 SPECI KATL 191750Z 24009KT 10SM FEW020 BKN150 BKN180 22/17 A2979 RMK AO2=
200710191703 SPECI KATL 191703Z 25008G17KT 10SM FEW012 BKN015 OVC180 21/18 A2980 RMK AO2=
200710191703 SPECI KATL 191703Z 25008G17KT 10SM FEW012 BKN015 OVC180 21/18 A2980 RMK AO2=
200710191652 METAR KATL 191652Z 22010KT 10SM BKN013 BKN018 OVC180 21/18 A2980 RMK AO2 SLP084 T02110178=
200710191649 SPECI KATL 191649Z 23011KT 10SM FEW009 BKN014 OVC180 21/18 A2980 RMK AO2=
200710191649 SPECI KATL 191649Z 23011KT 10SM FEW009 BKN014 OVC180 21/18 A2980 RMK AO2=
200710191634 SPECI KATL 191634Z 22012KT 10SM FEW006 SCT012 BKN019 OVC180 21/18 A2981 RMK AO2=
200710191634 SPECI KATL 191634Z 22012KT 10SM FEW006 SCT012 BKN019 OVC180 21/18 A2981 RMK AO2=
200710191552 METAR KATL 191552Z 22011G17KT 10SM OVC008 20/18 A2982 RMK AO2 CIG 006V011 SLP091 T02000183=
200710191542 SPECI KATL 191542Z 22008KT 10SM OVC008 20/18 A2981 RMK AO2 CIG 006V010=
200710191542 SPECI KATL 191542Z 22008KT 10SM OVC008 20/18 A2981 RMK AO2 CIG 006V010=
200710191452 METAR KATL 191452Z 22010KT 10SM BKN010 BKN015 OVC025 19/18 A2982 RMK AO2 SLP093 60001 T01940178 53006=
200710191445 SPECI KATL 191445Z 22009KT 10SM BKN010 BKN015 OVC025 19/18 A2983 RMK AO2=
200710191445 SPECI KATL 191445Z 22009KT 10SM BKN010 BKN015 OVC025 19/18 A2983 RMK AO2=
200710191418 SPECI KATL 191418Z 20007G16KT 10SM SCT010 BKN025 BKN110 OVC150 19/18 A2982 RMK AO2=
200710191418 SPECI KATL 191418Z 20007G16KT 10SM SCT010 BKN025 BKN110 OVC150 19/18 A2982 RMK AO2=
200710191410 SPECI KATL 191410Z 22011G16KT 10SM BKN010 BKN028 BKN110 OVC150 19/18 A2983 RMK AO2=
200710191410 SPECI KATL 191410Z 22011G16KT 10SM BKN010 BKN028 BKN110 OVC150 19/18 A2983 RMK AO2=
200710191403 SPECI KATL 191403Z 22009KT 10SM FEW010 BKN028 BKN110 OVC150 19/18 A2982 RMK AO2=
200710191403 SPECI KATL 191403Z 22009KT 10SM FEW010 BKN028 BKN110 OVC150 19/18 A2982 RMK AO2=
200710191352 METAR KATL 191352Z 22011KT 10SM BKN012 BKN028 OVC075 19/18 A2982 RMK AO2 RAE24 SLP092 P0000 T01940183=
200710191327 SPECI KATL 191327Z 21009KT 10SM OVC010 20/18 A2983 RMK AO2 RAE24 CIG 006V014 P0000=
200710191327 SPECI KATL 191327Z 21009KT 10SM OVC010 20/18 A2983 RMK AO2 RAE24 CIG 006V014 P0000=
200710191252 METAR KATL 191252Z 16009KT 10SM -RA BKN008 OVC012 20/18 A2979 RMK AO2 RAE1154B24 CIG 005V011 SLP081 P0001 T02000183=
200710191228 SPECI KATL 191228Z 19012KT 10SM -RA BKN008 OVC015 20/18 A2981 RMK AO2 RAE1154B24 P0000=
200710191228 SPECI KATL 191228Z 19012KT 10SM -RA BKN008 OVC015 20/18 A2981 RMK AO2 RAE1154B24 P0000=
200710191156 SPECI KATL 191156Z 21010KT 10SM FEW008 BKN012 OVC036 20/18 A2981 RMK AO2 RAE54 P0000=
200710191156 SPECI KATL 191156Z 21010KT 10SM FEW008 BKN012 OVC036 20/18 A2981 RMK AO2 RAE54 P0000=
200710191152 METAR KATL 191152Z 21010KT 10SM -RA BKN010 OVC027 20/18 A2981 RMK AO2 RAB33 SLP085 P0000 60006 70007 T02000183 10211 20200 53015=
200710191124 SPECI KATL 191124Z 21011G17KT 10SM BKN010 OVC020 20/18 A2980 RMK AO2=
200710191124 SPECI KATL 191124Z 21011G17KT 10SM BKN010 OVC020 20/18 A2980 RMK AO2=
200710191107 SPECI KATL 191107Z 21011G18KT 10SM FEW010 BKN018 OVC120 20/18 A2979 RMK AO2=
200710191107 SPECI KATL 191107Z 21011G18KT 10SM FEW010 BKN018 OVC120 20/18 A2979 RMK AO2=
200710191052 METAR KATL 191052Z 21012KT 10SM FEW008 BKN030 BKN120 OVC200 20/18 A2979 RMK AO2 TSE17RAE25 SLP078 P0004 T02000183=
200710191028 SPECI KATL 191028Z 20013G19KT 10SM SCT008 BKN025 BKN140 OVC200 20/19 A2977 RMK AO2 TSE17RAE25 TS MOV NE P0004=
200710191028 SPECI KATL 191028Z 20013G19KT 10SM SCT008 BKN025 BKN140 OVC200 20/19 A2977 RMK AO2 TSE17RAE25 TS MOV NE P0004=
200710191018 SPECI KATL 191018Z 21014G22KT 10SM -RA BKN008 OVC020 20/19 A2977 RMK AO2 TSE17 TS MOV NE P0004=
200710191018 SPECI KATL 191018Z 21014G22KT 10SM -RA BKN008 OVC020 20/19 A2977 RMK AO2 TSE17 TS MOV NE P0004=
200710191010 SPECI KATL 191010Z 21010G16KT 8SM -TSRA BKN008 OVC020CB 21/19 A2977 RMK AO2 OCNL LTGICCG TS N-NE MOV NE P0004=
200710191010 SPECI KATL 191010Z 21010G16KT 8SM -TSRA BKN008 OVC020CB 21/19 A2977 RMK AO2 OCNL LTGICCG TS N-NE MOV NE P0004=
200710190955 SPECI KATL 190955Z 24012G19KT 5SM +TSRA BR FEW008 BKN012 OVC020CB 21/19 A2978 RMK AO2 PRESRR OCNL LTGICCG TS E-OHD-NW MOV NE P0002=
200710190955 SPECI KATL 190955Z 24012G19KT 5SM +TSRA BR FEW008 BKN012 OVC020CB 21/19 A2978 RMK AO2 PRESRR OCNL LTGICCG TS E-OHD-NW MOV NE P0002=
200710190952 METAR KATL 190952Z 23013G19KT 6SM TSRA BR BKN012 OVC020CB 21/19 A2978 RMK AO2 TSB43RAE10B27 SLP074 VIS NW-N 1 1/2 OCNL LTGICCG TS E-OHD-NW MOV NE P0001 T02060189=
200710190944 SPECI KATL 190944Z 21012G18KT 10SM -TSRA BKN012 OVC020CB 21/19 A2976 RMK AO2 TSB43RAE10B27 OCNL LTGICCG TS E-SE-S MOV NE P0000=
200710190944 SPECI KATL 190944Z 21012G18KT 10SM -TSRA BKN012 OVC020CB 21/19 A2976 RMK AO2 TSB43RAE10B27 OCNL LTGICCG TS E-SE-S MOV NE P0000=
200710190922 SPECI KATL 190922Z 20007KT 10SM BKN012 OVC022 21/19 A2975 RMK AO2 RAE10 P0000=
200710190922 SPECI KATL 190922Z 20007KT 10SM BKN012 OVC022 21/19 A2975 RMK AO2 RAE10 P0000=
200710190852 METAR KATL 190852Z 19008KT 10SM -RA SCT010 BKN022 OVC085 21/19 A2976 RMK AO2 RAB0757 SLP069 P0001 60001 T02110194 56008=
200710190752 METAR KATL 190752Z 20007KT 10SM BKN006 BKN014 OVC100 21/20 A2976 RMK AO2 SLP069 T02110200=
200710190652 METAR KATL 190652Z 16004KT 10SM BKN008 BKN045 BKN110 OVC200 21/20 A2978 RMK AO2 SLP075 T02110200=
200710190622 SPECI KATL 190622Z 17006KT 10SM BKN007 BKN014 OVC040 21/20 A2979 RMK AO2=
200710190622 SPECI KATL 190622Z 17006KT 10SM BKN007 BKN014 OVC040 21/20 A2979 RMK AO2=
200710190611 SPECI KATL 190611Z 17006KT 10SM SCT007 BKN014 OVC040 21/20 A2979 RMK AO2=
200710190611 SPECI KATL 190611Z 17006KT 10SM SCT007 BKN014 OVC040 21/20 A2979 RMK AO2=
200710190555 SPECI KATL 190555Z 17007KT 10SM BKN007 BKN012 BKN075 OVC200 21/20 A2979 RMK AO2=
200710190555 SPECI KATL 190555Z 17007KT 10SM BKN007 BKN012 BKN075 OVC200 21/20 A2979 RMK AO2=
200710190552 METAR KATL 190552Z 16007KT 10SM BKN010 BKN075 BKN150 OVC200 21/20 A2978 RMK AO2 SLP077 T02110200 10228 20211 58014=
200710190452 METAR KATL 190452Z 18007KT 10SM BKN012 BKN020 BKN040 OVC200 22/20 A2982 RMK AO2 SLP089 CIG 009V014 T02170200 402500200=
200710190352 METAR KATL 190352Z 17006KT 10SM BKN010 OVC025 21/19 A2983 RMK AO2 SLP091 CIG 008V013 T02110194=
200710190333 SPECI KATL 190333Z 18007KT 10SM BKN010 BKN150 OVC200 21/19 A2983 RMK AO2 CIG 008V013=
200710190333 SPECI KATL 190333Z 18007KT 10SM BKN010 BKN150 OVC200 21/19 A2983 RMK AO2 CIG 008V013=
200710190252 METAR KATL 190252Z 18006KT 10SM SCT010 BKN150 OVC200 22/20 A2983 RMK AO2 SLP092 SCT V BKN T02170200 55002=
200710190238 SPECI KATL 190238Z 18007KT 10SM SCT010 BKN150 OVC200 22/20 A2982 RMK AO2=
200710190238 SPECI KATL 190238Z 18007KT 10SM SCT010 BKN150 OVC200 22/20 A2982 RMK AO2=
200710190214 SPECI KATL 190214Z 18009KT 10SM BKN012 BKN150 OVC200 22/20 A2981 RMK AO2=
200710190214 SPECI KATL 190214Z 18009KT 10SM BKN012 BKN150 OVC200 22/20 A2981 RMK AO2=
200710190152 METAR KATL 190152Z 16008KT 10SM FEW008 BKN150 OVC200 22/20 A2980 RMK AO2 SLP082 T02170200=
200710190143 SPECI KATL 190143Z 16010KT 10SM SCT010 BKN150 OVC200 22/20 A2980 RMK AO2 CIG 007V012=
200710190143 SPECI KATL 190143Z 16010KT 10SM SCT010 BKN150 OVC200 22/20 A2980 RMK AO2 CIG 007V012=
200710190058 SPECI KATL 190058Z 17009KT 10SM BKN010 BKN016 BKN150 OVC200 22/20 A2982 RMK AO2=
200710190058 SPECI KATL 190058Z 17009KT 10SM BKN010 BKN016 BKN150 OVC200 22/20 A2982 RMK AO2=
200710190052 METAR KATL 190052Z 17009KT 10SM SCT012 BKN020 BKN150 OVC200 22/20 A2982 RMK AO2 SLP089 T02220200=
200710190048 SPECI KATL 190048Z 18010KT 10SM SCT012 BKN020 BKN150 OVC200 22/20 A2982 RMK AO2=
200710190048 SPECI KATL 190048Z 18010KT 10SM SCT012 BKN020 BKN150 OVC200 22/20 A2982 RMK AO2=
200710190027 SPECI KATL 190027Z 16008KT 10SM SCT020 SCT040 BKN150 OVC200 23/20 A2982 RMK AO2=
200710190027 SPECI KATL 190027Z 16008KT 10SM SCT020 SCT040 BKN150 OVC200 23/20 A2982 RMK AO2=
200710182352 METAR KATL 182352Z COR 17010KT 10SM FEW012 BKN018 OVC030 23/20 A2983 RMK AO2 SLP094 60000 T02280200 10250 20228 53002=
200710182252 METAR KATL 182252Z 18012KT 10SM BKN017 BKN025 OVC040 24/20 A2983 RMK AO2 SLP092 T02390200=
200710182152 METAR KATL 182152Z 17008KT 9SM SCT018 BKN025 BKN055 OVC200 24/20 A2982 RMK AO2 SLP089 T02440200=
200710182107 SPECI KATL 182107Z 17010KT 9SM SCT018 BKN025 BKN070 OVC200 24/20 A2983 RMK AO2=
200710182107 SPECI KATL 182107Z 17010KT 9SM SCT018 BKN025 BKN070 OVC200 24/20 A2983 RMK AO2=
200710182052 METAR KATL 182052Z 16009KT 9SM SCT020 BKN040 BKN150 BKN250 24/21 A2983 RMK AO2 SLP092 60000 T02440206 56015=
200710181952 METAR KATL 181952Z 17006KT 10SM FEW017 SCT025 SCT050 BKN150 BKN250 24/21 A2984 RMK AO2 RAB21E30 SLP095 P0000 T02440206=
200710181852 METAR KATL 181852Z 17008KT 9SM BKN018 BKN030 OVC050 24/20 A2984 RMK AO2 RAB16E25 SLP097 P0000 T02390200=
200710181752 METAR KATL 181752Z 19009KT 9SM BKN018 BKN030 OVC050 24/20 A2987 RMK AO2 RAB21E46 SLP107 BINOVC DSNT N P0000 60001 T02390200 10239 20206 58018=
200710181652 METAR KATL 181652Z 19008KT 9SM BKN020 BKN030 OVC050 23/19 A2990 RMK AO2 SLP115 T02330194=
200710181635 SPECI KATL 181635Z 19009KT 10SM BKN020 BKN050 OVC150 23/19 A2990 RMK AO2=
200710181635 SPECI KATL 181635Z 19009KT 10SM BKN020 BKN050 OVC150 23/19 A2990 RMK AO2=
200710181611 SPECI KATL 181611Z 17011KT 10SM FEW014 SCT028 BKN046 OVC150 23/19 A2990 RMK AO2=
200710181611 SPECI KATL 181611Z 17011KT 10SM FEW014 SCT028 BKN046 OVC150 23/19 A2990 RMK AO2=
200710181552 METAR KATL 181552Z 17009KT 9SM SCT014 BKN019 OVC028 23/19 A2991 RMK AO2 SLP119 BINOVC DSNT S NW T02280194=
200710181452 METAR KATL 181452Z 16006KT 6SM BR BKN012 BKN045 OVC060 22/19 A2993 RMK AO2 RAB06E23 SLP126 P0001 60001 T02170194 58001=
200710181359 SPECI KATL 181359Z 17008KT 6SM BR SCT010 BKN014 OVC060 22/19 A2993 RMK AO2=
200710181359 SPECI KATL 181359Z 17008KT 6SM BR SCT010 BKN014 OVC060 22/19 A2993 RMK AO2=
200710181352 METAR KATL 181352Z 17007KT 6SM BR SCT010 BKN060 OVC070 22/19 A2993 RMK AO2 SLP128 SCT010 V BKN T02170194=
200710181252 METAR KATL 181252Z 16008KT 6SM BR BKN010 BKN060 OVC110 21/19 A2993 RMK AO2 SLP125 T02110189=
200710181243 SPECI KATL 181243Z 17009KT 6SM BR BKN010 OVC060 21/19 A2992 RMK AO2=
200710181243 SPECI KATL 181243Z 17009KT 6SM BR BKN010 OVC060 21/19 A2992 RMK AO2=
200710181216 SPECI KATL 181216Z 17008KT 6SM BR SCT008 BKN060 OVC110 21/19 A2992 RMK AO2=
200710181216 SPECI KATL 181216Z 17008KT 6SM BR SCT008 BKN060 OVC110 21/19 A2992 RMK AO2=
200710181152 METAR KATL 181152Z 17008KT 7SM OVC008 21/19 A2993 RMK AO2 DZB04E44 CIG 006V012 SLP126 P0000 60000 T02060189 10206 20200 53004=
200710181052 METAR KATL 181052Z 16009KT 10SM BKN008 OVC080 20/18 A2992 RMK AO2 SLP122 T02000183=
200710181019 SPECI KATL 181019Z 16007KT 10SM BKN008 OVC075 20/18 A2992 RMK AO2=
200710181019 SPECI KATL 181019Z 16007KT 10SM BKN008 OVC075 20/18 A2992 RMK AO2=
200710180952 METAR KATL 180952Z 14007KT 10SM SCT008 BKN080 OVC120 20/18 A2991 RMK AO2 RAE42 SLP118 P0000 T02000183=
200710180939 SPECI KATL 180939Z 16008KT 10SM -RA SCT008 BKN080 BKN110 OVC200 20/18 A2992 RMK AO2 P0000=
200710180939 SPECI KATL 180939Z 16008KT 10SM -RA SCT008 BKN080 BKN110 OVC200 20/18 A2992 RMK AO2 P0000=
200710180852 METAR KATL 180852Z 15009KT 10SM -RA FEW045 BKN120 OVC200 20/18 A2992 RMK AO2 RAB52 SLP121 P0000 60000 T02000178 58007=
200710180752 METAR KATL 180752Z 16007KT 10SM BKN045 BKN150 OVC200 21/18 A2994 RMK AO2 SLP129 T02060178=
200710180652 METAR KATL 180652Z 16009KT 10SM BKN150 OVC200 21/17 A2994 RMK AO2 SLP130 T02060172=
200710180552 METAR KATL 180552Z 14007KT 10SM FEW055 BKN150 BKN200 OVC250 20/16 A2994 RMK AO2 SLP129 T02000161 10239 20200 56014=
200710180452 METAR KATL 180452Z 12005KT 10SM FEW150 BKN200 BKN250 21/16 A2995 RMK AO2 SLP133 T02060156 402780172=
200710180352 METAR KATL 180352Z 12006KT 10SM FEW200 BKN250 21/15 A2996 RMK AO2 SLP138 T02110150=
200710180252 METAR KATL 180252Z 12005KT 10SM SCT200 BKN250 22/15 A2998 RMK AO2 SLP145 T02170150 51004=
200710180152 METAR KATL 180152Z 12007KT 10SM SCT200 BKN250 22/15 A2998 RMK AO2 SLP144 T02220150=
200710180052 METAR KATL 180052Z 14005KT 10SM SCT200 BKN250 23/15 A2997 RMK AO2 SLP144 T02280150=
200710172352 METAR KATL 172352Z 13006KT 10SM FEW090 SCT200 BKN250 24/15 A2997 RMK AO2 SLP142 T02390150 10278 20233 58002=
200710172252 METAR KATL 172252Z 15005KT 10SM FEW045 SCT085 SCT200 BKN250 25/15 A2998 RMK AO2 SLP144 T02500150=
200710172152 METAR KATL 172152Z 13011KT 10SM FEW050 BKN200 BKN250 26/14 A2998 RMK AO2 SLP143 T02610144=
200710172052 METAR KATL 172052Z 16010KT 10SM FEW045 SCT110 BKN240 27/16 A2997 RMK AO2 SLP142 T02670156 56023=
200710171952 METAR KATL 171952Z 15011G15KT 9SM FEW040 SCT130 BKN240 28/16 A2999 RMK AO2 SLP145 T02780161=
200710171852 METAR KATL 171852Z 13006G14KT 10SM FEW040 SCT120 BKN130 BKN240 26/16 A3002 RMK AO2 SLP156 T02560161=
200710171752 METAR KATL 171752Z 14009KT 10SM FEW035 SCT110 BKN130 BKN240 25/17 A3004 RMK AO2 SLP165 T02500167 10250 20172 58026=
200710171652 METAR KATL 171652Z 16006KT 8SM SCT014 SCT110 BKN130 23/18 A3009 RMK AO2 SLP182 T02280183=
200710171618 SPECI KATL 171618Z 12006KT 8SM FEW012 SCT110 BKN130 22/18 A3011 RMK AO2=
200710171618 SPECI KATL 171618Z 12006KT 8SM FEW012 SCT110 BKN130 22/18 A3011 RMK AO2=
200710171611 SPECI KATL 171611Z 10005KT 3SM HZ BKN010 22/18 A3011 RMK AO2 SFC VIS 6 CIG 008V014=
200710171611 SPECI KATL 171611Z 10005KT 3SM HZ BKN010 22/18 A3011 RMK AO2 SFC VIS 6 CIG 008V014=
200710171552 METAR KATL 171552Z 10006KT 3SM HZ OVC008 21/18 A3012 RMK AO2 SFC VIS 6 CIG 007V011 SLP193 T02110183=
200710171452 METAR KATL 171452Z 12004KT 3SM BR OVC008 20/18 A3012 RMK AO2 SFC VIS 6 SLP195 T02000178 53011=
200710171352 METAR KATL 171352Z 10006KT 3SM HZ OVC008 19/17 A3011 RMK AO2 SFC VIS 5 SLP190 T01940167=
200710171252 METAR KATL 171252Z 09006KT 3SM BR BKN008 BKN095 18/16 A3010 RMK AO2 SFC VIS 5 SLP186 T01830161=
200710171213 SPECI KATL 171213Z 09006KT 7SM BKN008 BKN095 18/16 A3009 RMK AO2=
200710171213 SPECI KATL 171213Z 09006KT 7SM BKN008 BKN095 18/16 A3009 RMK AO2=
200710171159 SPECI KATL 171159Z 09007KT 7SM FEW009 BKN095 17/16 A3009 RMK AO2=
200710171159 SPECI KATL 171159Z 09007KT 7SM FEW009 BKN095 17/16 A3009 RMK AO2=
200710171152 METAR KATL 171152Z 09006KT 8SM BKN100 17/16 A3009 RMK AO2 SLP183 T01720156 10189 20172 53008=
200710171052 METAR KATL 171052Z 09008KT 9SM BKN100 18/16 A3008 RMK AO2 SLP180 T01780156=
200710170952 METAR KATL 170952Z 09007KT 8SM OVC100 19/16 A3007 RMK AO2 SLP175 T01890156=
200710170852 METAR KATL 170852Z 09006KT 10SM FEW036 OVC100 18/16 A3007 RMK AO2 SLP174 T01830156 58005=
200710170752 METAR KATL 170752Z 10005KT 10SM BKN036 BKN070 BKN150 19/16 A3008 RMK AO2 SLP179 T01890156=
200710170652 METAR KATL 170652Z 09006KT 10SM FEW036 SCT070 BKN150 18/16 A3008 RMK AO2 SLP179 T01830156=
200710170552 METAR KATL 170552Z 09006KT 10SM FEW070 BKN150 19/16 A3008 RMK AO2 SLP180 T01890156 10222 20189 50000=
200710170452 METAR KATL 170452Z 09007KT 10SM BKN070 BKN150 19/16 A3009 RMK AO2 SLP182 T01940161 402440172=
200710170352 METAR KATL 170352Z 10005KT 10SM FEW100 BKN140 19/16 A3008 RMK AO2 SLP181 T01940161=
200710170252 METAR KATL 170252Z 09007KT 10SM FEW070 SCT100 21/17 A3008 RMK AO2 SLP180 T02060167 53009=
200710170152 METAR KATL 170152Z 10008KT 10SM FEW070 OVC110 22/17 A3007 RMK AO2 SLP177 T02170167=
200710170052 METAR KATL 170052Z 10009KT 10SM BKN065 OVC100 22/17 A3006 RMK AO2 SLP173 T02170167=
200710162352 METAR KATL 162352Z 11005KT 10SM FEW035 SCT070 SCT150 BKN200 22/17 A3005 RMK AO2 SLP170 T02220167 10244 20222 53001=
200710162252 METAR KATL 162252Z 13007KT 10SM FEW060 SCT075 SCT150 BKN200 23/16 A3005 RMK AO2 SLP171 T02330161=
200710162152 METAR KATL 162152Z 11007KT 10SM FEW030 BKN060 BKN200 23/17 A3005 RMK AO2 SLP167 T02330167=
200710162052 METAR KATL 162052Z 12007KT 10SM FEW027 SCT060 BKN070 24/17 A3005 RMK AO2 SLP169 T02440167 57008=
200710161952 METAR KATL 161952Z 12006KT 10SM FEW025 BKN060 BKN070 23/17 A3006 RMK AO2 SLP172 T02330172=
200710161852 METAR KATL 161852Z 17006KT 10SM FEW020 SCT065 BKN150 BKN200 23/17 A3007 RMK AO2 SLP174 T02280172=
200710161803 SPECI KATL 161803Z 09006KT 10SM SCT019 SCT150 OVC180 23/17 A3008 RMK AO2=
200710161803 SPECI KATL 161803Z 09006KT 10SM SCT019 SCT150 OVC180 23/17 A3008 RMK AO2=
200710161752 METAR KATL 161752Z COR 08006KT 10SM SCT019 SCT150 OVC180 22/17 A3008 RMK AO2 SLP178 T02220172 10228 20172 58013=
200710161723 SPECI KATL 161723Z 00000KT 10SM FEW014 BKN200 22/17 A3009 RMK AO2=
200710161723 SPECI KATL 161723Z 00000KT 10SM FEW014 BKN200 22/17 A3009 RMK AO2=
200710161652 METAR KATL 161652Z 11004KT 9SM BKN014 BKN200 22/17 A3010 RMK AO2 SLP187 T02170172=
200710161552 METAR KATL 161552Z 10005KT 3SM HZ BKN010 OVC014 21/17 A3011 RMK AO2 SFC VIS 5 SLP191 T02060172=
200710161550 SPECI KATL 161550Z 10004KT 3SM HZ BKN008 OVC014 20/17 A3012 RMK AO2 SFC VIS 5 CIG 008V012=
200710161550 SPECI KATL 161550Z 10004KT 3SM HZ BKN008 OVC014 20/17 A3012 RMK AO2 SFC VIS 5 CIG 008V012=
200710161452 METAR KATL 161452Z 13004KT 2 1/2SM BR OVC006 19/17 A3012 RMK AO2 SFC VIS 5 SLP195 T01940172 51008=
200710161352 METAR KATL 161352Z 13008KT 2 1/2SM BR OVC004 18/17 A3011 RMK AO2 SFC VIS 4 SLP189 T01830167=
200710161252 METAR KATL 161252Z 12005KT 2 1/2SM BR OVC004 18/17 A3010 RMK AO2 SFC VIS 4 SLP187 BINOVC T01780167=
200710161237 SPECI KATL 161237Z 11007KT 2 1/2SM BR OVC004 18/16 A3010 RMK AO2 SFC VIS 4=
200710161237 SPECI KATL 161237Z 11007KT 2 1/2SM BR OVC004 18/16 A3010 RMK AO2 SFC VIS 4=
200710161218 SPECI KATL 161218Z 12006KT 2 1/2SM BR OVC006 18/16 A3010 RMK AO2 SFC VIS 4=
200710161218 SPECI KATL 161218Z 12006KT 2 1/2SM BR OVC006 18/16 A3010 RMK AO2 SFC VIS 4=
200710161152 METAR KATL 161152Z 12004KT 6SM BR OVC006 17/16 A3010 RMK AO2 SLP187 T01720161 10206 20172 53002=
200710161119 SPECI KATL 161119Z 12006KT 8SM BKN008 BKN110 BKN250 18/16 A3009 RMK AO2=
200710161119 SPECI KATL 161119Z 12006KT 8SM BKN008 BKN110 BKN250 18/16 A3009 RMK AO2=
200710161052 METAR KATL 161052Z 11006KT 8SM FEW008 SCT080 SCT110 SCT250 18/16 A3008 RMK AO2 SLP180 T01780161=
200710161030 SPECI KATL 161030Z 12004KT 8SM SCT008 SCT080 BKN110 18/16 A3009 RMK AO2=
200710161030 SPECI KATL 161030Z 12004KT 8SM SCT008 SCT080 BKN110 18/16 A3009 RMK AO2=
200710161019 SPECI KATL 161019Z 12005KT 8SM SCT010 BKN085 18/16 A3009 RMK AO2=
200710161019 SPECI KATL 161019Z 12005KT 8SM SCT010 BKN085 18/16 A3009 RMK AO2=
200710160952 METAR KATL 160952Z 13006KT 8SM BKN010 18/17 A3010 RMK AO2 SLP187 T01830167=
200710160852 METAR KATL 160852Z 14006KT 9SM OVC010 19/17 A3009 RMK AO2 SLP183 T01890167 55001=
200710160822 SPECI KATL 160822Z 14004KT 9SM BKN012 OVC080 19/17 A3008 RMK AO2=
200710160822 SPECI KATL 160822Z 14004KT 9SM BKN012 OVC080 19/17 A3008 RMK AO2=
200710160752 METAR KATL 160752Z 13006KT 9SM BKN075 19/17 A3009 RMK AO2 SLP180 T01940167=
200710160652 METAR KATL 160652Z 14007KT 10SM SCT055 BKN080 BKN250 19/17 A3009 RMK AO2 SLP181 T01940167=
200710160552 METAR KATL 160552Z 14008KT 10SM SCT060 OVC080 21/17 A3010 RMK AO2 SLP184 BINOVC T02060167 10228 20206 58000=
200710160452 METAR KATL 160452Z 14007G14KT 10SM SCT042 SCT055 OVC075 21/16 A3010 RMK AO2 SLP184 BINOVC T02110161 402560133=
200710160352 METAR KATL 160352Z 15007KT 10SM SCT070 21/16 A3010 RMK AO2 SLP184 T02110156=
200710160252 METAR KATL 160252Z 14006KT 10SM BKN075 22/14 A3010 RMK AO2 SLP185 T02170144 51013=
200710160152 METAR KATL 160152Z 13005KT 10SM OVC070 22/14 A3009 RMK AO2 SLP182 BINOVC T02220139=
200710160052 METAR KATL 160052Z 12005KT 10SM BKN070 23/14 A3007 RMK AO2 SLP177 T02280139=
200710152352 METAR KATL 152352Z 12005KT 10SM BKN065 23/14 A3006 RMK AO2 SLP174 T02280139 10256 20228 58003=
200710152252 METAR KATL 152252Z 13006KT 10SM BKN060 BKN250 24/13 A3007 RMK AO2 SLP177 T02390128=
200710152152 METAR KATL 152152Z 14009KT 10SM SCT050 SCT250 24/13 A3007 RMK AO2 SLP177 T02440128=
200710152052 METAR KATL 152052Z 12010KT 10SM FEW055 SCT200 BKN250 25/12 A3007 RMK AO2 SLP176 T02500117 56018=
200710151952 METAR KATL 151952Z 15009KT 120V180 10SM FEW060 SCT250 25/09 A3008 RMK AO2 SLP178 T02500094=
200710151852 METAR KATL 151852Z 15009KT 10SM FEW250 25/09 A3009 RMK AO2 SLP183 T02500094=
200710151752 METAR KATL 151752Z 11011G15KT 10SM FEW250 24/10 A3012 RMK AO2 SLP194 T02440100 10250 20133 58019=
200710151652 METAR KATL 151652Z 13006G15KT 10SM FEW250 23/11 A3015 RMK AO2 SLP204 T02330106=
200710151552 METAR KATL 151552Z 15010KT 10SM FEW250 23/11 A3017 RMK AO2 SLP210 T02280111=
200710151452 METAR KATL 151452Z 15007KT 10SM FEW250 21/13 A3018 RMK AO2 SLP214 T02110128 51008=
200710151352 METAR KATL 151352Z 10005KT 9SM FEW250 18/13 A3018 RMK AO2 SLP213 T01780133=
200710151252 METAR KATL 151252Z 09005KT 9SM FEW250 16/13 A3017 RMK AO2 SLP213 T01610128=
200710151152 METAR KATL 151152Z 09005KT 8SM FEW250 13/11 A3016 RMK AO2 SLP208 T01330111 10161 20133 51013=
200710151052 METAR KATL 151052Z 08006KT 9SM CLR 13/10 A3015 RMK AO2 SLP205 T01330100=
200710150952 METAR KATL 150952Z 08005KT 10SM CLR 14/09 A3014 RMK AO2 SLP201 T01390094 $=
200710150852 METAR KATL 150852Z 11005KT 10SM CLR 15/10 A3012 RMK AO2 SLP193 T01500100 51005 $=
200710150752 METAR KATL 150752Z 11003KT 10SM CLR 15/09 A3012 RMK AO2 SLP192 T01500089 $=
200710150652 METAR KATL 150652Z 07005KT 10SM CLR 15/09 A3011 RMK AO2 SLP190 T01500089 $=
200710150552 METAR KATL 150552Z 09005KT 10SM CLR 16/09 A3010 RMK AO2 SLP188 T01560094 10217 20156 56002 $=
200710150352 METAR KATL 150352Z 09004KT 9SM FEW200 18/09 A3010 RMK AO2 SLP188 T01780094 $=
200710150252 METAR KATL 150252Z 12003KT 10SM FEW200 19/09 A3011 RMK AO2 SLP190 T01890094 51006 $=
200710150152 METAR KATL 150152Z 11004KT 10SM CLR 19/09 A3010 RMK AO2 SLP188 T01890089 $=
200710150052 METAR KATL 150052Z 00000KT 10SM CLR 21/08 A3009 RMK AO2 SLP187 T02110083 $=
200710142352 METAR KATL 142352Z 15004KT 10SM FEW250 22/08 A3009 RMK AO2 SLP184 T02170083 10256 20217 53005 $=
200710142252 METAR KATL 142252Z 13004KT 10SM FEW250 24/07 A3008 RMK AO2 SLP180 T02390072 $=
200710142152 METAR KATL 142152Z 13008KT 10SM FEW250 25/07 A3007 RMK AO2 SLP178 T02500067 $=
200710142052 METAR KATL 142052Z 13004KT 10SM FEW250 26/08 A3007 RMK AO2 SLP178 T02560078 56014 $=
200710141952 METAR KATL 141952Z 14005KT 10SM FEW250 25/07 A3008 RMK AO2 SLP181 T02500072 $=
200710141852 METAR KATL 141852Z 11008KT 10SM FEW250 24/08 A3009 RMK AO2 SLP185 T02440078 $=
200710141752 METAR KATL 141752Z VRB06KT 10SM FEW250 24/08 A3011 RMK AO2 SLP191 T02440083 10244 20122 58008 $=
200710141652 METAR KATL 141652Z VRB05KT 10SM FEW250 23/08 A3014 RMK AO2 SLP200 T02280083 $=
200710141552 METAR KATL 141552Z VRB03KT 10SM CLR 22/09 A3015 RMK AO2 SLP204 T02170089=
200710141452 METAR KATL 141452Z 14005KT 10SM FEW250 19/08 A3014 RMK AO2 SLP202 T01890083 51010=
200710141352 METAR KATL 141352Z 13004KT 10SM FEW250 17/09 A3013 RMK AO2 SLP200 T01720089=
200710141252 METAR KATL 141252Z 09003KT 10SM FEW250 14/09 A3012 RMK AO2 SLP195 T01440089=
200710141152 METAR KATL 141152Z 10004KT 10SM FEW250 13/08 A3011 RMK AO2 SLP192 T01330078 10150 20117 52014=
200710141052 METAR KATL 141052Z 07003KT 10SM CLR 12/08 A3009 RMK AO2 SLP186 T01220083=
200710140952 METAR KATL 140952Z 00000KT 10SM CLR 12/08 A3008 RMK AO2 SLP181 T01170083=
200710140852 METAR KATL 140852Z 00000KT 10SM CLR 12/08 A3006 RMK AO2 SLP176 T01220083 51004=
200710140752 METAR KATL 140752Z 00000KT 10SM CLR 13/08 A3006 RMK AO2 SLP175 T01280083=
200710140652 METAR KATL 140652Z 00000KT 10SM CLR 13/08 A3006 RMK AO2 SLP175 T01330083=
200710140552 METAR KATL 140552Z 00000KT 10SM CLR 15/08 A3005 RMK AO2 SLP172 T01500078 10200 20144 53002=
200710140452 METAR KATL 140452Z 00000KT 10SM CLR 16/08 A3005 RMK AO2 SLP171 T01610078 402330094=
200710140352 METAR KATL 140352Z 00000KT 10SM CLR 16/08 A3004 RMK AO2 SLP170 T01560083=
200710140252 METAR KATL 140252Z 00000KT 10SM CLR 16/08 A3005 RMK AO2 SLP172 T01610083 51010=
200710140152 METAR KATL 140152Z 00000KT 10SM CLR 17/08 A3004 RMK AO2 SLP170 T01720083=
200710140052 METAR KATL 140052Z 00000KT 10SM CLR 18/08 A3003 RMK AO2 SLP167 T01830083=
200710132352 METAR KATL 132352Z 07005KT 10SM CLR 20/06 A3002 RMK AO2 SLP162 T02000061 10233 20200 53002=
200710132252 METAR KATL 132252Z 01003KT 10SM CLR 22/06 A3001 RMK AO2 SLP159 T02170056=
200710132152 METAR KATL 132152Z VRB05KT 10SM CLR 23/06 A3000 RMK AO2 SLP156 T02280056=
200710132052 METAR KATL 132052Z 00000KT 10SM CLR 23/06 A3001 RMK AO2 SLP159 T02280056 56010=
200710131952 METAR KATL 131952Z VRB05KT 10SM CLR 23/07 A3001 RMK AO2 SLP159 T02280067=
200710131852 METAR KATL 131852Z 00000KT 10SM CLR 22/06 A3002 RMK AO2 SLP161 T02170061=
200710131752 METAR KATL 131752Z 00000KT 10SM CLR 20/06 A3004 RMK AO2 SLP169 T02000061 10206 20106 58012=
200710131652 METAR KATL 131652Z 01006KT 10SM CLR 19/07 A3006 RMK AO2 SLP177 T01940072=
200710131552 METAR KATL 131552Z 05004KT 10SM CLR 17/07 A3007 RMK AO2 SLP182 T01720072=
200710131452 METAR KATL 131452Z 07003KT 10SM CLR 15/07 A3007 RMK AO2 SLP182 T01500067 51014=
200710131352 METAR KATL 131352Z 09006KT 10SM CLR 13/07 A3007 RMK AO2 SLP181 T01330067=
200710131252 METAR KATL 131252Z 04006KT 10SM CLR 12/07 A3006 RMK AO2 SLP178 T01220067=
200710131152 METAR KATL 131152Z 02005KT 10SM CLR 11/06 A3003 RMK AO2 SLP168 T01060061 10128 20094 53016=
200710131052 METAR KATL 131052Z 34003KT 10SM CLR 10/06 A3001 RMK AO2 SLP160 T01000056=
200710130952 METAR KATL 130952Z 34006KT 10SM CLR 10/06 A3000 RMK AO2 SLP156 T01000056=
200710130852 METAR KATL 130852Z 31006KT 10SM CLR 10/06 A2999 RMK AO2 SLP151 T01000061 58001=
200710130752 METAR KATL 130752Z 31005KT 10SM CLR 11/06 A2999 RMK AO2 SLP151 T01110061=
200710130652 METAR KATL 130652Z 31005KT 10SM CLR 12/06 A2999 RMK AO2 SLP152 T01220061=
200710130552 METAR KATL 130552Z 33005KT 10SM CLR 12/06 A2999 RMK AO2 SLP152 T01220056 10178 20122 51008=
200710130452 METAR KATL 130452Z 33004KT 10SM CLR 13/06 A2998 RMK AO2 SLP151 T01280061 402220078=
200710130352 METAR KATL 130352Z 34004KT 10SM CLR 14/06 A2997 RMK AO2 SLP147 T01390056=
200710130252 METAR KATL 130252Z 34006KT 10SM CLR 15/06 A2996 RMK AO2 SLP144 T01500056 51011=
200710130152 METAR KATL 130152Z 32004KT 10SM CLR 16/06 A2996 RMK AO2 SLP142 T01560056=
200710130052 METAR KATL 130052Z 33005KT 10SM CLR 17/05 A2994 RMK AO2 SLP139 T01670050=
200710122352 METAR KATL 122352Z 33006KT 10SM CLR 18/05 A2993 RMK AO2 SLP135 T01780050 10222 20178 53011=
200710122252 METAR KATL 122252Z 30009KT 10SM CLR 19/04 A2991 RMK AO2 SLP128 T01940044=
200710122152 METAR KATL 122152Z 32006KT 10SM CLR 21/05 A2990 RMK AO2 SLP122 T02110050=
200710122052 METAR KATL 122052Z 32006G15KT 10SM CLR 22/06 A2990 RMK AO2 SLP121 T02170056 56014=
200710121952 METAR KATL 121952Z 04004KT 10SM CLR 22/05 A2991 RMK AO2 SLP124 T02220050=
200710121852 METAR KATL 121852Z 32007KT 10SM CLR 21/05 A2992 RMK AO2 SLP128 T02110050=
200710121752 METAR KATL 121752Z 16004KT 10SM CLR 21/06 A2994 RMK AO2 SLP136 T02060061 10206 20083 58017=
200710121652 METAR KATL 121652Z 00000KT 10SM CLR 18/06 A2996 RMK AO2 SLP144 T01830056=
200710121552 METAR KATL 121552Z 00000KT 10SM CLR 17/06 A2999 RMK AO2 SLP152 T01670056=
200710121452 METAR KATL 121452Z 30003KT 10SM CLR 16/06 A2999 RMK AO2 SLP154 T01560061 51008 $=
200710121352 METAR KATL 121352Z 02008KT 10SM CLR 13/06 A2999 RMK AO2 SLP154 T01330056=
200710121252 METAR KATL 121252Z 33008KT 10SM CLR 10/06 A2999 RMK AO2 SLP154 T01000056=
200710121152 METAR KATL 121152Z 33007KT 10SM CLR 08/05 A2997 RMK AO2 SLP148 T00780050 10106 20078 53013=
200710121052 METAR KATL 121052Z 34006KT 10SM CLR 08/05 A2995 RMK AO2 SLP143 T00830050=
200710120952 METAR KATL 120952Z 33007KT 10SM CLR 08/05 A2994 RMK AO2 SLP135 T00830050=
200710120852 METAR KATL 120852Z 33007KT 10SM CLR 09/05 A2993 RMK AO2 SLP134 T00890050 50002=
200710120752 METAR KATL 120752Z 33005KT 10SM CLR 09/05 A2993 RMK AO2 SLP133 T00940050=
200710120652 METAR KATL 120652Z 32005KT 10SM CLR 09/05 A2992 RMK AO2 SLP132 T00940050=
200710120552 METAR KATL 120552Z 33006KT 10SM CLR 11/05 A2992 RMK AO2 SLP131 T01060050 10161 20106 53004=
200710120452 METAR KATL 120452Z 33007KT 10SM CLR 11/05 A2992 RMK AO2 SLP128 T01110050 401940106=
200710120352 METAR KATL 120352Z 31008KT 10SM CLR 12/05 A2991 RMK AO2 SLP127 T01170050=
200710120252 METAR KATL 120252Z 35006KT 10SM CLR 13/04 A2991 RMK AO2 SLP127 T01330039 51015=
200710120152 METAR KATL 120152Z 34008KT 10SM CLR 14/04 A2990 RMK AO2 SLP124 T01390039=
200710120052 METAR KATL 120052Z 35007KT 10SM CLR 15/03 A2988 RMK AO2 SLP118 T01500033=
200710112352 METAR KATL 112352Z 35009KT 10SM CLR 16/03 A2987 RMK AO2 SLP112 T01610028 10194 20161 53010=
200710112252 METAR KATL 112252Z 33010G19KT 10SM CLR 17/03 A2985 RMK AO2 SLP104 T01720028=
200710112152 METAR KATL 112152Z 32011KT 10SM CLR 18/03 A2984 RMK AO2 SLP100 T01830033=
200710112052 METAR KATL 112052Z 31014G19KT 10SM CLR 19/03 A2983 RMK AO2 SLP100 T01890033 56012=
200710111952 METAR KATL 111952Z 34017G20KT 10SM CLR 19/04 A2984 RMK AO2 SLP102 T01940039=
200710111852 METAR KATL 111852Z 31013KT 10SM FEW250 18/04 A2986 RMK AO2 SLP105 T01830039=
200710111752 METAR KATL 111752Z 32014G22KT 10SM FEW250 18/04 A2987 RMK AO2 SLP111 T01780044 10178 20106 58003=
200710111652 METAR KATL 111652Z 31014G20KT 10SM FEW250 17/04 A2988 RMK AO2 SLP115 T01720044=
200710111552 METAR KATL 111552Z 31015KT 10SM FEW250 16/04 A2988 RMK AO2 SLP114 T01610044=
200710111452 METAR KATL 111452Z 31010KT 10SM FEW250 14/04 A2988 RMK AO2 SLP115 T01440044 50004=
200710111352 METAR KATL 111352Z 32015G21KT 10SM FEW250 13/04 A2989 RMK AO2 SLP117 T01280039=
200710111252 METAR KATL 111252Z 32011KT 10SM FEW250 12/05 A2987 RMK AO2 SLP112 T01170050=
200710111152 METAR KATL 111152Z 32008KT 10SM CLR 11/04 A2987 RMK AO2 SLP111 T01060044 10161 20106 51007=
200710111052 METAR KATL 111052Z 32008KT 10SM CLR 11/04 A2987 RMK AO2 SLP108 T01110044=
200710110952 METAR KATL 110952Z 31007KT 10SM CLR 12/04 A2985 RMK AO2 SLP103 T01170044=
200710110852 METAR KATL 110852Z 32007KT 10SM CLR 12/04 A2985 RMK AO2 SLP101 T01220044 58001=
200710110752 METAR KATL 110752Z 33007KT 10SM CLR 13/04 A2985 RMK AO2 SLP103 T01330044=
200710110652 METAR KATL 110652Z 33010KT 10SM CLR 16/04 A2985 RMK AO2 SLP102 T01560039=
200710110552 METAR KATL 110552Z COR 32010KT 10SM CLR 16/06 A2985 RMK AO2 SLP100 T01610056 10228 20156 53006=
200710110452 METAR KATL 110452Z 31009KT 10SM CLR 17/06 A2984 RMK AO2 SLP098 T01720061 402720167=
200710110352 METAR KATL 110352Z 30008KT 10SM CLR 18/06 A2984 RMK AO2 SLP095 T01830061=
200710110252 METAR KATL 110252Z 29006KT 10SM CLR 19/06 A2983 RMK AO2 SLP094 T01890061 58001=
200710110152 METAR KATL 110152Z 29007KT 10SM CLR 20/06 A2983 RMK AO2 SLP096 T02000061=
200710110052 METAR KATL 110052Z 28006KT 10SM CLR 21/06 A2983 RMK AO2 SLP096 T02060061=
200710102352 METAR KATL 102352Z 29007KT 10SM CLR 23/06 A2983 RMK AO2 SLP095 T02280061 10272 20228 55002=
200710102252 METAR KATL 102252Z 30009KT 10SM CLR 25/06 A2983 RMK AO2 SLP092 T02500056=
200710102152 METAR KATL 102152Z 32011G18KT 10SM CLR 27/06 A2983 RMK AO2 SLP093 T02670061=
200710102052 METAR KATL 102052Z 32014G20KT 10SM CLR 27/07 A2984 RMK AO2 SLP094 T02720072 56024=
200710101952 METAR KATL 101952Z 33011G21KT 10SM CLR 27/06 A2985 RMK AO2 SLP099 T02720061=
200710101852 METAR KATL 101852Z 31012G19KT 10SM CLR 27/09 A2988 RMK AO2 SLP107 T02670089=
200710101752 METAR KATL 101752Z 31011KT 10SM CLR 26/10 A2991 RMK AO2 SLP120 T02560100 10256 20167 58013=
200710101652 METAR KATL 101652Z 35011KT 10SM CLR 24/10 A2994 RMK AO2 SLP131 T02440100=
200710101552 METAR KATL 101552Z 34010G18KT 10SM CLR 23/11 A2995 RMK AO2 SLP134 T02330111=
200710101452 METAR KATL 101452Z 32010KT 10SM CLR 21/13 A2995 RMK AO2 SLP134 T02110128 51005=
200710101352 METAR KATL 101352Z 32011KT 10SM CLR 19/13 A2994 RMK AO2 SLP133 T01940133=
200710101252 METAR KATL 101252Z 32010KT 10SM CLR 18/14 A2994 RMK AO2 SLP133 T01780139=
200710101152 METAR KATL 101152Z 31006KT 10SM CLR 17/15 A2993 RMK AO2 SLP129 T01670150 10200 20167 53006=
200710101052 METAR KATL 101052Z 31008KT 10SM CLR 17/16 A2993 RMK AO2 SLP128 T01720156=
200710100952 METAR KATL 100952Z 32008KT 10SM CLR 18/16 A2991 RMK AO2 SLP123 T01830161=
200710100852 METAR KATL 100852Z 31009KT 10SM FEW250 19/17 A2991 RMK AO2 SLP122 T01890172 56008=
200710100752 METAR KATL 100752Z 31009KT 8SM FEW250 19/18 A2992 RMK AO2 SLP121 T01940178=
200710100652 METAR KATL 100652Z 32010KT 7SM FEW250 19/18 A2993 RMK AO2 SLP127 T01940183=
200710100552 METAR KATL 100552Z 33008KT 7SM FEW110 SCT250 20/19 A2994 RMK AO2 SLP129 T02000189 10217 20200 56005=
200710100452 METAR KATL 100452Z 31007KT 9SM FEW250 20/19 A2994 RMK AO2 SLP131 T02000189 402720194=
200710100352 METAR KATL 100352Z 31007KT 10SM FEW200 BKN250 21/19 A2994 RMK AO2 SLP130 T02060194=
200710100252 METAR KATL 100252Z 32005KT 10SM SCT200 BKN250 21/19 A2995 RMK AO2 SLP135 T02060194 58000=
200710100152 METAR KATL 100152Z 31003KT 10SM FEW150 BKN250 21/18 A2996 RMK AO2 SLP137 T02110183=
200710100052 METAR KATL 100052Z 28004KT 10SM FEW075 SCT150 BKN250 21/18 A2997 RMK AO2 SLP140 T02110183=
200710092352 METAR KATL 092352Z 00000KT 10SM FEW120 BKN150 BKN200 22/18 A2995 RMK AO2 RAE24 SLP137 P0000 60000 T02170183 10272 20217 58000=
200710092252 METAR KATL 092252Z 31004KT 10SM -RA FEW090 SCT120 BKN150 OVC200 22/18 A2996 RMK AO2 RAB00E08B38 SLP139 P0000 T02220183=
200710092152 METAR KATL 092152Z 00000KT 10SM FEW090 BKN120 BKN150 OVC200 22/19 A2996 RMK AO2 RAB2057E11B44E52 SLP136 P0000 T02220189=
200710092102 SPECI KATL 092102Z 35008KT 8SM -RA FEW030CB SCT045 BKN095 BKN150 BKN270 23/19 A2995 RMK AO2 RAB2057 CB OHD-N-NE MOV SE P0000=
200710092102 SPECI KATL 092102Z 35008KT 8SM -RA FEW030CB SCT045 BKN095 BKN150 BKN270 23/19 A2995 RMK AO2 RAB2057 CB OHD-N-NE MOV SE P0000=
200710092052 METAR KATL 092052Z 34013G20KT 9SM FEW030CB SCT050 BKN100 BKN150 BKN270 24/18 A2996 RMK AO2 PK WND 30027/2034 TSB32E47 SLP135 VIS LWR W-N SHRA TS DSIPT CB VC W-N MOV SE T02390183 56018=
200710092048 SPECI KATL 092048Z 33013G18KT 10SM FEW030CB BKN110 BKN150 BKN270 25/18 A2996 RMK AO2 PK WND 30027/2034 TSB32E47 TS DSIPT CB 5SM VC=
200710092048 SPECI KATL 092048Z 33013G18KT 10SM FEW030CB BKN110 BKN150 BKN270 25/18 A2996 RMK AO2 PK WND 30027/2034 TSB32E47 TS DSIPT CB 5SM VC NW-N MOV SE SHRA VC NW-N=
200710092032 SPECI KATL 092032Z 29012G17KT 10SM TS FEW030CB SCT045 BKN100 BKN150 BKN270 27/19 A2996 RMK AO2 TSB32 OCNL LTGICCG TS 8SM VC NW MOV SE CB VC NW MOV SE $=
200710092032 SPECI KATL 092032Z 29012G17KT 10SM TS FEW030CB SCT045 BKN100 BKN150 BKN270 27/19 A2996 RMK AO2 TSB32 OCNL LTGICCG TS 8SM VC NW MOV SE CB VC NW MOV SE $=
200710092020 SPECI KATL 092020Z 29008KT 10SM FEW030 SCT045 SCT100 BKN150 BKN270 27/19 A2996 RMK AO2 LTG DSNT NW TS 12SM DSNT NW MOV SE CB DSNT NW MOV SE=
200710092020 SPECI KATL 092020Z 29008KT 10SM FEW030 SCT045 SCT100 BKN150 BKN270 27/19 A2996 RMK AO2 LTG DSNT NW TS 12SM DSNT NW MOV SE CB DSNT NW MOV SE=
200710091952 METAR KATL 091952Z 30007KT 10SM FEW030 SCT100 BKN150 BKN270 27/19 A2997 RMK AO2 SLP138 CB DSNT NW-NE MOV SE T02670194=
200710091852 METAR KATL 091852Z 28006KT 10SM FEW030 SCT100 BKN270 27/20 A2998 RMK AO2 SLP142 CB DSNT NE NW-N MOV SE T02670200=
200710091752 METAR KATL 091752Z 27003KT 10SM FEW030 SCT060 BKN095 26/20 A3001 RMK AO2 SLP153 CB DSNT N-NE MOV SE T02560200 10256 20194 58018=
200710091652 METAR KATL 091652Z VRB03KT 10SM FEW020 SCT040 BKN100 24/19 A3004 RMK AO2 SLP163 T02440189=
200710091552 METAR KATL 091552Z 26006KT 10SM BKN040 BKN060 BKN100 24/19 A3006 RMK AO2 SLP170 SHRA DSNT W-NW T02440189=
200710091452 METAR KATL 091452Z 23005KT 10SM FEW040 BKN100 BKN150 23/19 A3006 RMK AO2 SLP171 VIRGA NW T02330189 51006=
200710091352 METAR KATL 091352Z 26003KT 10SM BKN100 23/19 A3006 RMK AO2 SLP170 T02280194=
200710091252 METAR KATL 091252Z 28004KT 10SM FEW055 BKN095 BKN140 21/19 A3005 RMK AO2 SLP169 T02110194=
200710091152 METAR KATL 091152Z 30004KT 10SM FEW055 SCT140 19/18 A3005 RMK AO2 SLP166 T01940178 10217 20194 53007=
200710091052 METAR KATL 091052Z 29003KT 10SM FEW055 21/18 A3003 RMK AO2 SLP160 T02060178=
200710090952 METAR KATL 090952Z 00000KT 10SM CLR 21/18 A3002 RMK AO2 SLP157 T02060183=
200710090852 METAR KATL 090852Z 00000KT 10SM CLR 21/18 A3002 RMK AO2 SLP158 T02060183 58008=
200710090752 METAR KATL 090752Z 26003KT 10SM CLR 21/19 A3003 RMK AO2 SLP161 T02110189=
200710090652 METAR KATL 090652Z 00000KT 10SM CLR 21/19 A3004 RMK AO2 SLP164 T02110189=
200710090552 METAR KATL 090552Z 00000KT 10SM CLR 22/19 A3005 RMK AO2 SLP166 T02170189 10256 20217 58005=
200710090452 METAR KATL 090452Z 00000KT 10SM CLR 22/19 A3006 RMK AO2 SLP170 T02220189 402830200=
200710090352 METAR KATL 090352Z 00000KT 10SM CLR 23/19 A3006 RMK AO2 SLP171 T02280189=
200710090252 METAR KATL 090252Z 28005KT 10SM CLR 23/19 A3006 RMK AO2 SLP172 T02280189 51014=
200710090152 METAR KATL 090152Z 27003KT 10SM CLR 23/19 A3006 RMK AO2 SLP170 T02330189=
200710090052 METAR KATL 090052Z 20004KT 10SM CLR 24/19 A3003 RMK AO2 SLP162 T02440194=
200710082352 METAR KATL 082352Z 20004KT 10SM FEW060 26/19 A3002 RMK AO2 SLP157 T02560189 10283 20256 55001=
200710082252 METAR KATL 082252Z 20005KT 10SM FEW035 27/19 A3002 RMK AO2 SLP155 TCU DSNT W AND NW T02670189=
200710082152 METAR KATL 082152Z 17008KT 10SM FEW035TCU 28/19 A3002 RMK AO2 SLP156 TCU VC N-NE AND DSNT SW-NW T02780194=
200710082052 METAR KATL 082052Z 17004KT 10SM FEW035TCU SCT060 27/18 A3002 RMK AO2 SLP158 TCU W-NW MDT CU N-NE T02720183 56016=
200710081952 METAR KATL 081952Z 17006KT 10SM SCT035TCU SCT060 28/19 A3004 RMK AO2 SLP162 TCU N-NE-E T02780189=
200710081852 METAR KATL 081852Z 13005KT 10SM FEW029TCU SCT060 28/19 A3005 RMK AO2 SLP168 TCU SE NW-N T02780189=
200710081752 METAR KATL 081752Z 10005KT 10SM FEW027 SCT030 BKN060 27/20 A3007 RMK AO2 SLP174 T02720200 10272 20200 58010=
200710081652 METAR KATL 081652Z 12005KT 10SM FEW016 SCT020 BKN060 25/21 A3009 RMK AO2 SLP182 T02500206=
200710081628 SPECI KATL 081628Z 16005KT 10SM BKN014 BKN055 25/21 A3010 RMK AO2=
200710081628 SPECI KATL 081628Z 16005KT 10SM BKN014 BKN055 25/21 A3010 RMK AO2=
200710081552 METAR KATL 081552Z 16004KT 9SM FEW008 SCT012 BKN055 24/21 A3011 RMK AO2 SLP186 T02390206=
200710081528 SPECI KATL 081528Z 00000KT 9SM SCT008 BKN017 BKN055 23/21 A3011 RMK AO2=
200710081528 SPECI KATL 081528Z 00000KT 9SM SCT008 BKN017 BKN055 23/21 A3011 RMK AO2=
200710081523 SPECI KATL 081523Z 00000KT 7SM FEW004 SCT008 BKN017 22/21 A3011 RMK AO2=
200710081523 SPECI KATL 081523Z 00000KT 7SM FEW004 SCT008 BKN017 22/21 A3011 RMK AO2=
200710081513 SPECI KATL 081513Z 17003KT 6SM BR BKN004 BKN017 22/20 A3011 RMK AO2=
200710081513 SPECI KATL 081513Z 17003KT 6SM BR BKN004 BKN017 22/20 A3011 RMK AO2=
200710081456 SPECI KATL 081456Z 16003KT 2 1/2SM BR OVC004 21/20 A3010 RMK AO2 SFC VIS 6 BINOVC=
200710081456 SPECI KATL 081456Z 16003KT 2 1/2SM BR OVC004 21/20 A3010 RMK AO2 SFC VIS 6 BINOVC=
200710081452 METAR KATL 081452Z 00000KT 1 1/2SM BR OVC004 21/20 A3010 RMK AO2 SFC VIS 4 SLP186 BINOVC T02110200 50006=
200710081352 METAR KATL 081352Z 10005KT 1/8SM R09R/4000VP6000FT FG OVC001 21/20 A3011 RMK AO2 SFC VIS 1/2 SLP187 VIS NW-N 1 1/4 T02060200=
200710081327 SPECI KATL 081327Z 06005KT 1/8SM R09R/1400V3000FT FG VV001 21/20 A3010 RMK AO2 SFC VIS 1/4=
200710081327 SPECI KATL 081327Z 06005KT 1/8SM R09R/1400V3000FT FG VV001 21/20 A3010 RMK AO2 SFC VIS 1/4=
200710081252 METAR KATL 081252Z 09006KT 1/8SM R09R/1200FT FG VV001 21/20 A3010 RMK AO2 SLP183 T02060200=
200710081242 SPECI KATL 081242Z 10004KT 1/8SM R09R/1200V1800FT FG VV001 21/19 A3010 RMK AO2 SFC VIS 1/4=
200710081242 SPECI KATL 081242Z 10004KT 1/8SM R09R/1200V1800FT FG VV001 21/19 A3010 RMK AO2 SFC VIS 1/4=
200710081225 SPECI KATL 081225Z 09004KT 1/8SM R09R/2200VP6000FT BR OVC002 21/19 A3009 RMK AO2 SFC VIS 1=
200710081225 SPECI KATL 081225Z 09004KT 1/8SM R09R/2200VP6000FT BR OVC002 21/19 A3009 RMK AO2 SFC VIS 1=
200710081203 SPECI KATL 081203Z 08006KT 1/2SM BR OVC003 20/19 A3009 RMK AO2 SFC VIS 6 TWRINC=
200710081203 SPECI KATL 081203Z 08006KT 1/2SM BR OVC003 20/19 A3009 RMK AO2 SFC VIS 6 TWRINC=
200710081156 SPECI KATL 081156Z 08005KT 1SM BR OVC004 20/19 A3009 RMK AO2 SFC VIS 6 TWRINC=
200710081156 SPECI KATL 081156Z 08005KT 1SM BR OVC004 20/19 A3009 RMK AO2 SFC VIS 6 TWRINC=
200710081152 METAR KATL 081152Z 08005KT 6SM BR OVC004 20/19 A3009 RMK AO2 SLP179 T02000189 10217 20200 53006=
200710081142 SPECI KATL 081142Z 09006KT 6SM BR BKN004 20/19 A3008 RMK AO2=
200710081142 SPECI KATL 081142Z 09006KT 6SM BR BKN004 20/19 A3008 RMK AO2=
200710081138 SPECI KATL 081138Z 09005KT 8SM SCT005 20/19 A3008 RMK AO2=
200710081138 SPECI KATL 081138Z 09005KT 8SM SCT005 20/19 A3008 RMK AO2=
200710081052 METAR KATL 081052Z 07005KT 10SM CLR 20/18 A3008 RMK AO2 SLP176 T02000183=
200710080952 METAR KATL 080952Z 07006KT 10SM CLR 20/18 A3006 RMK AO2 SLP171 T02000183=
200710080852 METAR KATL 080852Z 08005KT 10SM CLR 21/18 A3007 RMK AO2 SLP172 T02060183 55007=
200710080752 METAR KATL 080752Z 08006KT 10SM CLR 21/18 A3007 RMK AO2 SLP172 T02110183=
200710080652 METAR KATL 080652Z 08004KT 10SM CLR 21/18 A3008 RMK AO2 SLP176 T02060178=
200710080552 METAR KATL 080552Z 08004KT 10SM CLR 21/18 A3009 RMK AO2 SLP179 T02110178 10261 20211 51001=
200710080452 METAR KATL 080452Z 09004KT 10SM FEW200 22/18 A3008 RMK AO2 SLP178 T02170178 402830200=
200710080352 METAR KATL 080352Z 09007KT 10SM FEW200 22/18 A3009 RMK AO2 SLP180 T02220178=
200710080252 METAR KATL 080252Z 07008KT 10SM CLR 24/18 A3008 RMK AO2 SLP177 T02390178 51011=
200710080152 METAR KATL 080152Z 07006KT 10SM CLR 25/17 A3007 RMK AO2 SLP174 T02500172=
200710080052 METAR KATL 080052Z 11003KT 10SM FEW055 25/17 A3006 RMK AO2 SLP171 T02500172=
200710072352 METAR KATL 072352Z 12003KT 10SM CLR 26/17 A3005 RMK AO2 SLP166 T02610172 10283 20256 52002=
200710072252 METAR KATL 072252Z 15005KT 10SM FEW055 27/18 A3005 RMK AO2 SLP166 T02670178=
200710072152 METAR KATL 072152Z 11004KT 10SM FEW045 SCT055 28/17 A3004 RMK AO2 SLP164 T02780167=
200710072052 METAR KATL 072052Z 08007KT 10SM FEW044 SCT055 28/17 A3004 RMK AO2 SLP164 T02830172 56016=
200710071952 METAR KATL 071952Z 08007KT 10SM FEW044 BKN060 28/18 A3006 RMK AO2 SLP169 T02780178=
200710071852 METAR KATL 071852Z 06009KT 10SM FEW040 BKN055 27/18 A3008 RMK AO2 SLP175 T02720178=
200710071752 METAR KATL 071752Z 08007G14KT 040V130 10SM BKN040 27/18 A3009 RMK AO2 SLP181 T02720178 10283 20200 58014=
200710071652 METAR KATL 071652Z 08009KT 10SM SCT034 27/18 A3012 RMK AO2 SLP190 T02720183=
200710071552 METAR KATL 071552Z 09012G17KT 10SM SCT026 26/18 A3013 RMK AO2 SLP195 T02610183=
200710071452 METAR KATL 071452Z 07010KT 10SM SCT016 24/19 A3014 RMK AO2 SLP196 T02440194 51008=
200710071407 SPECI KATL 071407Z 07008KT 10SM FEW009 22/19 A3014 RMK AO2=
200710071407 SPECI KATL 071407Z 07008KT 10SM FEW009 22/19 A3014 RMK AO2=
200710071352 METAR KATL 071352Z 07007KT 10SM CLR 23/19 A3013 RMK AO2 SLP195 T02280189=
200710071252 METAR KATL 071252Z 07008KT 10SM CLR 21/18 A3013 RMK AO2 SLP193 T02110183=
200710071152 METAR KATL 071152Z 07006KT 10SM CLR 20/18 A3011 RMK AO2 SLP189 T02000178 10211 20200 53011=
200710071052 METAR KATL 071052Z 06008KT 10SM CLR 20/17 A3010 RMK AO2 SLP183 T02000172=
200710070952 METAR KATL 070952Z 05006KT 10SM CLR 21/17 A3008 RMK AO2 SLP178 T02060172=
200710070852 METAR KATL 070852Z 07005KT 10SM CLR 21/18 A3008 RMK AO2 SLP176 T02060178 55007=
200710070752 METAR KATL 070752Z 05007KT 10SM CLR 21/18 A3007 RMK AO2 SLP175 T02110178=
200710070652 METAR KATL 070652Z 06005KT 10SM CLR 21/18 A3009 RMK AO2 SLP180 T02060178=
200710070552 METAR KATL 070552Z 07007KT 10SM CLR 21/18 A3010 RMK AO2 SLP183 T02110178 10244 20211 56006=
200710070452 METAR KATL 070452Z 05005KT 10SM CLR 22/18 A3010 RMK AO2 SLP185 T02170183 402780206=
200710070352 METAR KATL 070352Z 08004KT 10SM FEW080 22/18 A3011 RMK AO2 SLP189 T02170183=
200710070252 METAR KATL 070252Z 08006KT 10SM CLR 22/19 A3012 RMK AO2 SLP191 T02220189 51009=
200710070152 METAR KATL 070152Z 09004KT 10SM CLR 23/18 A3011 RMK AO2 SLP187 T02280183=
200710070052 METAR KATL 070052Z 10005KT 10SM CLR 23/19 A3010 RMK AO2 SLP185 T02330189=
200710062352 METAR KATL 062352Z 09006KT 10SM FEW055 24/18 A3009 RMK AO2 SLP181 T02390183 10278 20239 55001=
200710062252 METAR KATL 062252Z 10008KT 10SM FEW037 SCT050 26/18 A3008 RMK AO2 SLP178 T02610178=
200710062152 METAR KATL 062152Z 11005KT 10SM FEW037 27/18 A3008 RMK AO2 SLP178 T02720178=
200710062052 METAR KATL 062052Z 15005KT 10SM SCT036 SCT065 27/19 A3009 RMK AO2 SLP181 TCU DSNT N T02720189 56018=
200710061952 METAR KATL 061952Z 11006KT 10SM SCT033 BKN055 BKN065 28/19 A3011 RMK AO2 SLP186 TCU DSNT W T02780189=
200710061852 METAR KATL 061852Z 08011KT 10SM SCT029 BKN050 BKN055 26/18 A3013 RMK AO2 SLP193 T02560183=
200710061752 METAR KATL 061752Z 07010KT 10SM SCT026 BKN033 BKN047 25/19 A3015 RMK AO2 SLP200 SCT026 V BKN T02500189 10261 20217 58014=
200710061716 SPECI KATL 061716Z 06009KT 10SM FEW022 SCT026 BKN035 26/19 A3016 RMK AO2=
200710061716 SPECI KATL 061716Z 06009KT 10SM FEW022 SCT026 BKN035 26/19 A3016 RMK AO2=
200710061652 METAR KATL 061652Z 09008KT 10SM SCT022 BKN028 BKN035 25/19 A3017 RMK AO2 SLP209 SCT022 V BKN T02500194=
200710061552 METAR KATL 061552Z 08011KT 10SM SCT018 BKN025 OVC029 24/19 A3018 RMK AO2 SLP212 SCT018 V BKN BINOVC OHD T02390194=
200710061528 SPECI KATL 061528Z 08011KT 10SM BKN020 BKN027 24/19 A3019 RMK AO2 BKN020 V SCT=
200710061528 SPECI KATL 061528Z 08011KT 10SM BKN020 BKN027 24/19 A3019 RMK AO2 BKN020 V SCT=
200710061509 SPECI KATL 061509Z 09008KT 10SM SCT020 BKN027 23/19 A3019 RMK AO2=
200710061509 SPECI KATL 061509Z 09008KT 10SM SCT020 BKN027 23/19 A3019 RMK AO2=
200710061452 METAR KATL 061452Z 08010KT 10SM BKN017 BKN024 23/19 A3019 RMK AO2 SLP215 T02280194 51006=
200710061417 SPECI KATL 061417Z 08010KT 9SM BKN019 OVC023 23/19 A3019 RMK AO2 BINOVC W=
200710061417 SPECI KATL 061417Z 08010KT 9SM BKN019 OVC023 23/19 A3019 RMK AO2 BINOVC W=
200710061352 METAR KATL 061352Z 08010KT 9SM SCT014 BKN024 23/19 A3019 RMK AO2 SLP214 T02280194=
200710061325 SPECI KATL 061325Z 07011KT 10SM SCT012 OVC022 22/19 A3019 RMK AO2 SCT012 V BKN SHRA DSNT SE=
200710061325 SPECI KATL 061325Z 07011KT 10SM SCT012 OVC022 22/19 A3019 RMK AO2 SCT012 V BKN SHRA DSNT SE=
200710061252 METAR KATL 061252Z 08010KT 10SM OVC012 22/19 A3018 RMK AO2 SLP213 T02170194=
200710061152 METAR KATL 061152Z 07010KT 10SM OVC010 22/19 A3017 RMK AO2 CIG 008V013 SLP208 70003 T02170194 10217 20206 53006=
200710061140 SPECI KATL 061140Z 08009KT 10SM OVC010 22/19 A3017 RMK AO2 CIG 008V014=
200710061140 SPECI KATL 061140Z 08009KT 10SM OVC010 22/19 A3017 RMK AO2 CIG 008V014=
200710061052 METAR KATL 061052Z 08008KT 10SM BKN008 OVC025 21/19 A3016 RMK AO2 CIG 007V012 SLP203 T02110194=
200710061032 SPECI KATL 061032Z 09008KT 10SM BKN008 OVC021 21/19 A3015 RMK AO2 CIG 007V012=
200710061032 SPECI KATL 061032Z 09008KT 10SM BKN008 OVC021 21/19 A3015 RMK AO2 CIG 007V012=
200710061005 SPECI KATL 061005Z 08010KT 10SM SCT008 BKN016 BKN040 21/19 A3016 RMK AO2=
200710061005 SPECI KATL 061005Z 08010KT 10SM SCT008 BKN016 BKN040 21/19 A3016 RMK AO2=
200710060952 METAR KATL 060952Z 08011KT 10SM BKN008 OVC016 21/19 A3016 RMK AO2 SLP204 T02110194=
200710060852 METAR KATL 060852Z 08010KT 10SM BKN008 BKN040 21/19 A3015 RMK AO2 SLP202 T02110194 58003=
200710060842 SPECI KATL 060842Z 07012KT 10SM BKN008 BKN040 21/19 A3015 RMK AO2=
200710060842 SPECI KATL 060842Z 07012KT 10SM BKN008 BKN040 21/19 A3015 RMK AO2=
200710060752 METAR KATL 060752Z 09007KT 10SM FEW035 21/19 A3015 RMK AO2 SLP202 T02110189=
200710060652 METAR KATL 060652Z 07009KT 10SM FEW035 22/19 A3016 RMK AO2 SLP205 T02170194=
200710060552 METAR KATL 060552Z 08008KT 10SM FEW035 SCT060 22/19 A3016 RMK AO2 SLP205 T02170194 10250 20217 58003=
200710060452 METAR KATL 060452Z 07009KT 10SM SCT035 SCT060 23/19 A3017 RMK AO2 SLP207 T02280194 402720217=
200710060352 METAR KATL 060352Z 07007KT 10SM FEW055 BKN070 23/19 A3017 RMK AO2 SLP208 T02280194=
200710060252 METAR KATL 060252Z 07007KT 10SM CLR 23/19 A3017 RMK AO2 SLP208 T02330194 52007=
200710060152 METAR KATL 060152Z 08007KT 10SM SCT038 SCT050 BKN070 24/19 A3016 RMK AO2 SLP205 T02390194=
200710060052 METAR KATL 060052Z 08008KT 10SM BKN060 BKN150 24/19 A3016 RMK AO2 SLP203 T02440194=
200710052352 METAR KATL 052352Z 10006KT 10SM BKN055 BKN090 BKN150 25/19 A3015 RMK AO2 SLP200 60003 T02500194 10272 20239 53005=
200710052252 METAR KATL 052252Z 10006KT 10SM FEW030 SCT050 BKN090 BKN150 25/20 A3014 RMK AO2 SLP198 TCU DSNT NW-N T02500200=
200710052152 METAR KATL 052152Z 08009KT 10SM FEW030 BKN065 BKN080 BKN150 24/20 A3014 RMK AO2 RAB30E52 SLP197 TCU SW-W AND DSNT NE SHRA SW-W P0003 T02440200=
200710052052 METAR KATL 052052Z 08011KT 10SM SCT030 BKN041 BKN055 27/19 A3013 RMK AO2 SLP195 60000 T02670194 56016=
200710051952 METAR KATL 051952Z 09011KT 10SM SCT030 BKN040 BKN080 27/21 A3014 RMK AO2 SLP196 TCU DSNT N-NE T02720206=
200710051852 METAR KATL 051852Z 08010KT 10SM FEW024 SCT033 BKN055 26/20 A3016 RMK AO2 RAE46 SLP204 P0000 T02560200=
200710051752 METAR KATL 051752Z 07011G16KT 10SM -RA SCT020 BKN030 BKN040 25/20 A3018 RMK AO2 RAB42 SLP212 P0000 60000 T02500200 10261 20217 58010=
200710051743 SPECI KATL 051743Z 08008KT 10SM -RA SCT020 BKN030 BKN040 26/20 A3019 RMK AO2 RAB42 P0000=
200710051743 SPECI KATL 051743Z 08008KT 10SM -RA SCT020 BKN030 BKN040 26/20 A3019 RMK AO2 RAB42 P0000=
200710051652 METAR KATL 051652Z 06010KT 10SM SCT018 BKN023 BKN046 25/21 A3020 RMK AO2 SLP218 T02500206=
200710051604 SPECI KATL 051604Z 09007KT 9SM SCT014 BKN020 BKN040 24/21 A3021 RMK AO2=
200710051604 SPECI KATL 051604Z 09007KT 9SM SCT014 BKN020 BKN040 24/21 A3021 RMK AO2=
200710051552 METAR KATL 051552Z COR 09010KT 9SM BKN014 BKN019 BKN038 24/21 A3021 RMK AO2 RAB01E22 SLP221 P0000 T02440206=
200710051452 METAR KATL 051452Z 08009KT 6SM BR OVC012 23/21 A3021 RMK AO2 DZE42 SLP223 P0000 60000 T02280206 51013=
200710051438 SPECI KATL 051438Z 08010KT 6SM -DZ BR BKN010 OVC016 23/21 A3021 RMK AO2 CIG 007V012 P0000=
200710051438 SPECI KATL 051438Z 08010KT 6SM -DZ BR BKN010 OVC016 23/21 A3021 RMK AO2 CIG 007V012 P0000=
200710051352 METAR KATL 051352Z 10009KT 3SM -DZ BR BKN008 BKN012 OVC015 22/21 A3020 RMK AO2 SFC VIS 5 DZB46 SLP219 P0000 T02220206=
200710051252 METAR KATL 051252Z 09008KT 10SM BKN008 OVC014 22/21 A3019 RMK AO2 SLP215 T02220206=
200710051244 SPECI KATL 051244Z 09009KT 10SM BKN008 OVC014 22/21 A3019 RMK AO2=
200710051244 SPECI KATL 051244Z 09009KT 10SM BKN008 OVC014 22/21 A3019 RMK AO2=
200710051152 METAR KATL 051152Z 08010KT 10SM BKN010 BKN017 OVC022 22/20 A3018 RMK AO2 DZB1058E10 CIG 007V011 SLP209 P0000 60000 70079 T02170200 10228 20217 51018=
200710051111 SPECI KATL 051111Z 08010KT 10SM FEW008 SCT012 BKN022 OVC150 22/21 A3016 RMK AO2 DZB1058E10 P0000=
200710051111 SPECI KATL 051111Z 08010KT 10SM FEW008 SCT012 BKN022 OVC150 22/21 A3016 RMK AO2 DZB1058E10 P0000=
200710051052 METAR KATL 051052Z 08010KT 10SM FEW008 BKN012 OVC020 22/21 A3016 RMK AO2 SLP205 T02170206=
200710050959 SPECI KATL 050959Z 08009KT 10SM BKN012 OVC017 22/20 A3015 RMK AO2=
200710050959 SPECI KATL 050959Z 08009KT 10SM BKN012 OVC017 22/20 A3015 RMK AO2=
200710050952 METAR KATL 050952Z 08007KT 10SM OVC017 22/20 A3015 RMK AO2 SLP199 T02220200=
200710050939 SPECI KATL 050939Z 08009KT 10SM FEW010 OVC017 22/20 A3014 RMK AO2=
200710050939 SPECI KATL 050939Z 08009KT 10SM FEW010 OVC017 22/20 A3014 RMK AO2=
200710050852 METAR KATL 050852Z 10007KT 10SM OVC012 22/20 A3012 RMK AO2 SLP191 60000 T02220200 55005=
200710050752 METAR KATL 050752Z 11006KT 10SM BKN010 OVC014 22/21 A3012 RMK AO2 DZB35E50 CIG 007V012 SLP189 P0000 T02220206=
200710050652 METAR KATL 050652Z 12010KT 10SM BKN008 OVC016 22/21 A3013 RMK AO2 SLP193 T02220206=
200710050552 METAR KATL 050552Z 12010G14KT 10SM BKN008 OVC017 23/21 A3014 RMK AO2 CIG 007V012 SLP196 60001 T02280206 10244 20222 50002=
200710050452 METAR KATL 050452Z 10007KT 10SM BKN008 OVC020 23/21 A3014 RMK AO2 RAE01 SLP197 CIG 006V012 P0000 T02280211 402670211=
200710050441 SPECI KATL 050441Z 11009KT 10SM BKN008 BKN015 OVC040 23/21 A3014 RMK AO2 RAE01 P0000=
200710050441 SPECI KATL 050441Z 11009KT 10SM BKN008 BKN015 OVC040 23/21 A3014 RMK AO2 RAE01 P0000=
200710050352 METAR KATL 050352Z 11005KT 7SM -RA BKN010 BKN020 OVC040 23/21 A3014 RMK AO2 RAB45 SLP198 CIG 008V013 P0001 T02280211=
200710050252 METAR KATL 050252Z 08010KT 10SM BKN012 BKN018 OVC040 23/21 A3013 RMK AO2 SLP195 T02330206 53015=
200710050245 SPECI KATL 050245Z 08011KT 10SM SCT012 BKN018 BKN040 OVC150 23/21 A3013 RMK AO2=
200710050245 SPECI KATL 050245Z 08011KT 10SM SCT012 BKN018 BKN040 OVC150 23/21 A3013 RMK AO2=
200710050152 METAR KATL 050152Z 09011KT 10SM FEW028 SCT065 BKN120 OVC150 24/20 A3011 RMK AO2 SLP189 T02390200=
200710050052 METAR KATL 050052Z 09007KT 10SM BKN065 BKN080 OVC150 24/20 A3010 RMK AO2 SLP183 T02440200=
200710042352 METAR KATL 042352Z 11005KT 10SM FEW045 BKN060 BKN080 OVC150 24/20 A3008 RMK AO2 SLP179 T02440200 10267 20244 53009=
200710042252 METAR KATL 042252Z 10007KT 10SM SCT032 BKN060 BKN080 OVC150 25/20 A3007 RMK AO2 SLP172 T02500200=
200710042152 METAR KATL 042152Z 10007KT 10SM SCT025 BKN035 BKN055 OVC150 26/19 A3006 RMK AO2 SLP169 T02560194=
200710042104 SPECI KATL 042104Z 09009KT 10SM SCT030 BKN035 BKN055 27/19 A3006 RMK AO2=
200710042104 SPECI KATL 042104Z 09009KT 10SM SCT030 BKN035 BKN055 27/19 A3006 RMK AO2=
200710042052 METAR KATL 042052Z 11011KT 10SM BKN027 BKN035 BKN050 26/19 A3006 RMK AO2 SLP169 T02610194 56013=
200710042035 SPECI KATL 042035Z 08014KT 10SM BKN027 BKN035 BKN050 26/19 A3006 RMK AO2=
200710042035 SPECI KATL 042035Z 08014KT 10SM BKN027 BKN035 BKN050 26/19 A3006 RMK AO2=
200710041952 METAR KATL 041952Z 12008KT 10SM FEW025 BKN040 BKN050 26/21 A3006 RMK AO2 SLP171 SHRA DSNT NW T02610206=
200710041852 METAR KATL 041852Z 11010KT 10SM FEW025 BKN045 BKN070 26/20 A3007 RMK AO2 SLP174 T02560200=
200710041803 SPECI KATL 041803Z 09010KT 10SM FEW020 BKN030 BKN050 25/21 A3009 RMK AO2=
200710041803 SPECI KATL 041803Z 09010KT 10SM FEW020 BKN030 BKN050 25/21 A3009 RMK AO2=
200710041752 METAR KATL 041752Z 10011KT 10SM FEW017 BKN025 BKN050 25/21 A3009 RMK AO2 SLP182 60078 T02500206 10250 20211 57007=
200710041701 SPECI KATL 041701Z 11009KT 10SM SCT011 BKN020 OVC036 24/22 A3011 RMK AO2=
200710041701 SPECI KATL 041701Z 11009KT 10SM SCT011 BKN020 OVC036 24/22 A3011 RMK AO2=
200710041652 METAR KATL 041652Z 10013KT 9SM BKN013 BKN020 OVC036 24/21 A3010 RMK AO2 SLP185 T02390211=
200710041648 SPECI KATL 041648Z 09011KT 9SM BKN011 BKN018 OVC036 24/21 A3011 RMK AO2=
200710041648 SPECI KATL 041648Z 09011KT 9SM BKN011 BKN018 OVC036 24/21 A3011 RMK AO2=
200710041623 SPECI KATL 041623Z 11010KT 6SM BR FEW009 SCT013 OVC020 23/21 A3011 RMK AO2=
200710041623 SPECI KATL 041623Z 11010KT 6SM BR FEW009 SCT013 OVC020 23/21 A3011 RMK AO2=
200710041552 METAR KATL 041552Z 09011KT 6SM BR BKN007 BKN011 BKN050 23/21 A3012 RMK AO2 RAE21 SLP190 P0004 T02280211=
200710041521 SPECI KATL 041521Z 08011KT 6SM BR BKN007 OVC011 23/22 A3012 RMK AO2 RAE21 P0004=
200710041521 SPECI KATL 041521Z 08011KT 6SM BR BKN007 OVC011 23/22 A3012 RMK AO2 RAE21 P0004=
200710041504 SPECI KATL 041504Z 07011KT 3SM -RA BR BKN005 BKN011 OVC021 22/21 A3012 RMK AO2 SFC VIS 6 P0004=
200710041504 SPECI KATL 041504Z 07011KT 3SM -RA BR BKN005 BKN011 OVC021 22/21 A3012 RMK AO2 SFC VIS 6 P0004=
200710041502 SPECI KATL 041502Z 07011KT 2SM RA BR BCFG BKN005 BKN011 OVC030 22/21 A3012 RMK AO2 SFC VIS 4 P0003=
200710041502 SPECI KATL 041502Z 07011KT 2SM RA BR BCFG BKN005 BKN011 OVC030 22/21 A3012 RMK AO2 SFC VIS 4 P0003=
200710041452 METAR KATL 041452Z 07009KT 2SM R09R/5500VP6000FT -RA BR BCFG SCT005 BKN020 OVC030 22/21 A3012 RMK AO2 SFC VIS 4 TSB1357E40DZE1357RAB1357 SLP192 LTG DSNT NW TS 12SM DSNT NW MOV NW CB DSNT NW P0070 60074 T02170206 5=
200710041449 SPECI KATL 041449Z 07009KT 2SM -RA BR BCFG FEW005 BKN015 OVC050 22/21 A3012 RMK AO2 SFC VIS 5 TSB1357E40DZE1357RAB1357 LTG DSNT NW TS 12SM DSNT NW MOV NW CB DSNT NW P0070=
200710041449 SPECI KATL 041449Z 07009KT 2SM -RA BR BCFG FEW005 BKN015 OVC050 22/21 A3012 RMK AO2 SFC VIS 5 TSB1357E40DZE1357RAB1357 LTG DSNT NW TS 12SM DSNT NW MOV NW CB DSNT NW P0070=
200710041441 SPECI KATL 041441Z 07010KT 2SM RA BR FEW003 BKN012 OVC047 22/21 A3012 RMK AO2 SFC VIS 3 TSB1357E40DZE1357RAB1357 LTG DSNT NW TS MOV NW CB MOV NW P0069=
200710041441 SPECI KATL 041441Z 07010KT 2SM RA BR FEW003 BKN012 OVC047 22/21 A3012 RMK AO2 SFC VIS 3 TSB1357E40DZE1357RAB1357 LTG DSNT NW TS MOV NW CB MOV NW P0069=
200710041429 SPECI KATL 041429Z 08010KT 2SM R09R/4000VP6000FT TSRA BR OVC005CB 22/21 A3012 RMK AO2 SFC VIS 4 TSB1357DZE1357RAB1357 OCNL LTGICCG TS OHD MOV NW CB OHD MOV NW P0063 $=
200710041429 SPECI KATL 041429Z 08010KT 2SM R09R/4000VP6000FT TSRA BR OVC005CB 22/21 A3012 RMK AO2 SFC VIS 4 TSB1357DZE1357RAB1357 OCNL LTGICCG TS OHD MOV NW CB OHD MOV NW P0063 $=
200710041416 SPECI KATL 041416Z 08007KT 1 1/2SM R09R/3000V6000FT +TSRA BR OVC005CB 22/21 A3012 RMK AO2 TWR VIS 2 TSB1357DZE1357RAB1357 FRQ LTGICCG TS OHD-E-S MOV NW CB OHD-E-S MOV NW P0032 $=
200710041416 SPECI KATL 041416Z 08007KT 1 1/2SM R09R/3000V6000FT +TSRA BR OVC005CB 22/21 A3012 RMK AO2 TWR VIS 2 TSB1357DZE1357RAB1357 FRQ LTGICCG TS OHD-E-S MOV NW CB OHD-E-S MOV NW P0032 $=
200710041413 SPECI KATL 041413Z 11004KT 2SM R09R/3500VP6000FT +TSRA BR OVC005CB 22/21 A3012 RMK AO2 TSB1357DZE1357RAB1357 OCNL LTGIC TS OHD-E-S MOV NW CB OHD-E-S MOV NW P0022 $=
200710041413 SPECI KATL 041413Z 11004KT 2SM R09R/3500VP6000FT +TSRA BR OVC005CB 22/21 A3012 RMK AO2 TSB1357DZE1357RAB1357 OCNL LTGIC TS OHD-E-S MOV NW CB OHD-E-S MOV NW P0022 $=
200710041405 SPECI KATL 041405Z 09009KT 2SM R09R/5000VP6000FT TSRA BR OVC005CB 22/21 A3012 RMK AO2 TSB1357DZE1357RAB1357 OCNL LTGIC TS 5SM SE MOV NW CB SE MOV NW P0001 $=
200710041405 SPECI KATL 041405Z 09009KT 2SM R09R/5000VP6000FT TSRA BR OVC005CB 22/21 A3012 RMK AO2 TSB1357DZE1357RAB1357 OCNL LTGIC TS 5SM SE MOV NW CB SE MOV NW P0001 $=
200710041357 SPECI KATL 041357Z 10009KT 2SM TSRA BR OVC005CB 22/21 A3011 RMK AO2 SFC VIS 3 TSB57DZE57RAB57 FRQ LTGIC TS 8SM VC SE MOV NW CB VC SE MOV NW P0000=
200710041357 SPECI KATL 041357Z 10009KT 2SM TSRA BR OVC005CB 22/21 A3011 RMK AO2 SFC VIS 3 TSB57DZE57RAB57 FRQ LTGIC TS 8SM VC SE MOV NW CB VC SE MOV NW P0000=
200710041352 METAR KATL 041352Z 10009KT 2SM -DZ BR OVC005 22/21 A3011 RMK AO2 SFC VIS 5 DZB1253 SLP188 VIS LWR SE SHRA LTG DSNT SE TS 12SM DSNT SE MOV NW CB DSNT SE P0000 T02170206=
200710041252 METAR KATL 041252Z COR 09011KT 2SM BR BKN005 OVC012 22/21 A3009 RMK AO2 SFC VIS 6 RAE53DZB53 SLP182 P0004 T02170206=
200710041216 SPECI KATL 041216Z 07009KT 030V100 2SM -RA BR BKN006 OVC012 21/21 A3008 RMK AO2 SFC VIS 6 P0003=
200710041216 SPECI KATL 041216Z 07009KT 030V100 2SM -RA BR BKN006 OVC012 21/21 A3008 RMK AO2 SFC VIS 6 P0003=
200710041154 SPECI KATL 041154Z 09006KT 2SM RA BR OVC004 21/21 A3008 RMK AO2 SFC VIS 3 CIG 002V008 P0001=
200710041154 SPECI KATL 041154Z 09006KT 2SM RA BR OVC004 21/21 A3008 RMK AO2 SFC VIS 3 CIG 002V008 P0001=
200710041152 METAR KATL 041152Z 08008KT 2SM RA BR OVC006 21/21 A3008 RMK AO2 SFC VIS 3 CIG 003V008 SLP176 P0017 60021 70022 T02110206 10222 20211 53012=
200710041052 METAR KATL 041052Z 08006KT 2SM -RA BR BKN006 OVC010 21/21 A3006 RMK AO2 SFC VIS 5 SLP170 P0002 T02110206=
200710040958 SPECI KATL 040958Z 07009KT 2SM -RA BR BKN006 OVC010 21/21 A3004 RMK AO2 SFC VIS 5 CIG 003V008 P0000=
200710040958 SPECI KATL 040958Z 07009KT 2SM -RA BR BKN006 OVC010 21/21 A3004 RMK AO2 SFC VIS 5 CIG 003V008 P0000=
200710040952 METAR KATL 040952Z 07007KT 2SM -RA BR SCT006 OVC010 22/21 A3004 RMK AO2 SFC VIS 2 1/2 RAB01 SLP164 P0002 T02170206=
200710040947 SPECI KATL 040947Z 09007KT 2SM -RA BR SCT006 OVC010 22/21 A3004 RMK AO2 SFC VIS 3 RAB01 CIG 009V012 P0001=
200710040947 SPECI KATL 040947Z 09007KT 2SM -RA BR SCT006 OVC010 22/21 A3004 RMK AO2 SFC VIS 3 RAB01 CIG 009V012 P0001=
200710040942 SPECI KATL 040942Z 09007KT 2SM -RA BR OVC010 22/21 A3004 RMK AO2 SFC VIS 3 RAB01 CIG 004V012 P0001=
200710040942 SPECI KATL 040942Z 09007KT 2SM -RA BR OVC010 22/21 A3004 RMK AO2 SFC VIS 3 RAB01 CIG 004V012 P0001=
200710040852 METAR KATL 040852Z 06010KT 10SM SCT008 BKN014 OVC045 22/20 A3004 RMK AO2 SLP163 T02170200 56007=
200710040752 METAR KATL 040752Z 08007KT 10SM SCT008 BKN012 BKN029 OVC200 22/20 A3004 RMK AO2 SLP164 T02170200=
200710040658 SPECI KATL 040658Z 10010KT 10SM FEW008 BKN012 BKN028 OVC200 22/20 A3006 RMK AO2=
200710040658 SPECI KATL 040658Z 10010KT 10SM FEW008 BKN012 BKN028 OVC200 22/20 A3006 RMK AO2=
200710040652 METAR KATL 040652Z 10007KT 10SM FEW008 SCT012 BKN030 BKN200 22/20 A3006 RMK AO2 SLP169 T02220200=
200710040552 METAR KATL 040552Z 09009KT 10SM BKN012 OVC030 22/20 A3006 RMK AO2 SLP171 60000 T02220200 10239 20222 51001=
200710040452 METAR KATL 040452Z 08007KT 10SM BKN012 BKN020 OVC035 22/20 A3006 RMK AO2 SLP172 CIG 010V015 T02220200 402500211=
200710040411 SPECI KATL 040411Z 08011KT 10SM BKN013 BKN020 OVC040 22/21 A3006 RMK AO2=
200710040411 SPECI KATL 040411Z 08011KT 10SM BKN013 BKN020 OVC040 22/21 A3006 RMK AO2=
200710040352 METAR KATL 040352Z 09010KT 10SM BKN016 BKN025 OVC045 22/20 A3006 RMK AO2 RAE02B18E52 SLP171 P0000 T02220200=
200710040252 METAR KATL 040252Z 08011KT 7SM -RA BKN020 OVC035 22/20 A3006 RMK AO2 RAB38 SLP171 P0000 60000 T02220200 51008=
200710040152 METAR KATL 040152Z 07012KT 10SM BKN022 OVC035 24/19 A3006 RMK AO2 SLP170 T02390189=
200710040052 METAR KATL 040052Z 07011KT 10SM BKN023 BKN035 OVC050 24/19 A3004 RMK AO2 SLP166 T02390189=
200710032352 METAR KATL 032352Z 07012KT 10SM OVC024 24/19 A3003 RMK AO2 SLP162 T02390189 10250 20239 53006=
200710032252 METAR KATL 032252Z 07013KT 10SM BKN025 OVC040 24/19 A3002 RMK AO2 SLP156 T02440189=
200710032152 METAR KATL 032152Z 06010KT 10SM BKN025 BKN040 OVC055 24/19 A3001 RMK AO2 SLP156 T02440189=
200710032141 SPECI KATL 032141Z 07011KT 10SM SCT025 BKN040 BKN055 OVC150 24/19 A3002 RMK AO2=
200710032141 SPECI KATL 032141Z 07011KT 10SM SCT025 BKN040 BKN055 OVC150 24/19 A3002 RMK AO2=
200710032052 METAR KATL 032052Z 07013KT 10SM BKN024 BKN040 OVC050 24/19 A3002 RMK AO2 SLP155 BINOVC DSNT NE-E T02440189 56013=
200710031952 METAR KATL 031952Z 08011KT 10SM OVC024 24/19 A3003 RMK AO2 SLP158 T02440189=
200710031852 METAR KATL 031852Z 06010KT 10SM OVC024 24/19 A3003 RMK AO2 SLP161 T02440189=
200710031752 METAR KATL 031752Z 07012KT 10SM BKN020 BKN030 OVC050 24/19 A3005 RMK AO2 SLP168 BINOVC 60001 T02390189 10244 20217 58007=
200710031723 SPECI KATL 031723Z 06011KT 10SM BKN020 OVC040 23/18 A3006 RMK AO2=
200710031723 SPECI KATL 031723Z 06011KT 10SM BKN020 OVC040 23/18 A3006 RMK AO2=
200710031652 METAR KATL 031652Z 07013KT 10SM SCT020 BKN030 OVC050 23/18 A3007 RMK AO2 RAE39 SLP174 P0001 T02280183=
200710031552 METAR KATL 031552Z 06014KT 10SM -RA SCT020 BKN030 OVC040 22/18 A3008 RMK AO2 RAE19B48 SLP176 P0000 T02220183=
200710031549 SPECI KATL 031549Z 07012KT 10SM -RA SCT020 BKN030 OVC040 22/18 A3008 RMK AO2 RAE19B48 P0000=
200710031549 SPECI KATL 031549Z 07012KT 10SM -RA SCT020 BKN030 OVC040 22/18 A3008 RMK AO2 RAE19B48 P0000=
200710031452 METAR KATL 031452Z 08013KT 9SM -RA BKN020 BKN030 OVC070 22/18 A3008 RMK AO2 RAB36 SLP177 VIS LWR NE-S SHRA P0000 60000 T02170183 51008=
200710031443 SPECI KATL 031443Z 08012KT 9SM -RA BKN020 BKN030 OVC070 23/18 A3008 RMK AO2 RAB36 VIS LWR NE-S SHRA P0000=
200710031443 SPECI KATL 031443Z 08012KT 9SM -RA BKN020 BKN030 OVC070 23/18 A3008 RMK AO2 RAB36 VIS LWR NE-S SHRA P0000=
200710031352 METAR KATL 031352Z 08010KT 10SM SCT020 BKN030 OVC070 22/17 A3007 RMK AO2 SLP175 SHRA DSNT SE-S BINOVC T02220172=
200710031252 METAR KATL 031252Z 07010KT 10SM BKN020 BKN032 BKN070 22/17 A3006 RMK AO2 SLP171 T02170172=
200710031152 METAR KATL 031152Z 09013KT 10SM BKN018 BKN028 OVC040 22/17 A3005 RMK AO2 SLP168 BINOVC T02170172 10228 20211 51005=
200710031052 METAR KATL 031052Z 07009KT 10SM SCT018 BKN026 OVC040 22/17 A3005 RMK AO2 SLP166 T02170167=
200710031049 SPECI KATL 031049Z 08011G16KT 10SM SCT018 BKN026 OVC040 22/17 A3005 RMK AO2=
200710031049 SPECI KATL 031049Z 08011G16KT 10SM SCT018 BKN026 OVC040 22/17 A3005 RMK AO2=
200710031028 SPECI KATL 031028Z 08010KT 10SM FEW028 BKN034 BKN070 22/17 A3004 RMK AO2=
200710031028 SPECI KATL 031028Z 08010KT 10SM FEW028 BKN034 BKN070 22/17 A3004 RMK AO2=
200710030952 METAR KATL 030952Z 09013KT 10SM BKN020 BKN032 BKN070 21/17 A3004 RMK AO2 SLP163 T02110172=
200710030852 METAR KATL 030852Z 08011KT 10SM OVC022 22/17 A3004 RMK AO2 SLP162 T02170167 56011=
200710030752 METAR KATL 030752Z 08012G19KT 10SM OVC022 22/17 A3004 RMK AO2 SLP163 T02220167=
200710030652 METAR KATL 030652Z 09010KT 10SM BKN024 OVC030 22/16 A3006 RMK AO2 SLP169 T02220156=
200710030639 SPECI KATL 030639Z 09010KT 10SM BKN026 OVC030 22/16 A3006 RMK AO2=
200710030639 SPECI KATL 030639Z 09010KT 10SM BKN026 OVC030 22/16 A3006 RMK AO2=
200710030552 METAR KATL 030552Z 09011KT 10SM FEW026 BKN036 OVC070 23/15 A3007 RMK AO2 SLP173 T02280150 10256 20228 56007=
200710030452 METAR KATL 030452Z 10013G16KT 10SM SCT035 OVC050 23/14 A3007 RMK AO2 SLP173 T02280144 402780161=
200710030352 METAR KATL 030352Z 09009KT 10SM FEW042 SCT065 BKN250 23/13 A3008 RMK AO2 SLP176 T02280128=
200710030252 METAR KATL 030252Z 08012KT 10SM BKN060 BKN250 24/13 A3009 RMK AO2 SLP180 T02390128 50001=
200710030152 METAR KATL 030152Z 09010KT 10SM OVC055 24/13 A3010 RMK AO2 SLP183 BINOVC T02440128=
200710030052 METAR KATL 030052Z 07012KT 10SM OVC055 25/12 A3009 RMK AO2 SLP181 BINOVC T02500122=
200710022352 METAR KATL 022352Z 07011KT 10SM OVC055 25/12 A3009 RMK AO2 SLP182 T02500122 10278 20250 53002=
200710022252 METAR KATL 022252Z 08007KT 10SM OVC060 26/12 A3008 RMK AO2 SLP180 BINOVC T02560122=
200710022152 METAR KATL 022152Z 10012KT 10SM OVC055 26/12 A3008 RMK AO2 SLP177 T02610122=
200710022052 METAR KATL 022052Z 10009KT 10SM BKN055 27/12 A3008 RMK AO2 SLP178 T02670122 56022=
200710021952 METAR KATL 021952Z 12010KT 10SM FEW050 SCT250 27/12 A3010 RMK AO2 SLP185 T02720122=
200710021852 METAR KATL 021852Z 10013G20KT 10SM FEW060 SCT250 27/12 A3013 RMK AO2 SLP194 T02670122=
200710021752 METAR KATL 021752Z COR 08010G21KT 10SM FEW060 FEW250 26/12 A3015 RMK AO2 SLP202 T02560117 10261 20161 58023=
200710021652 METAR KATL 021652Z 08014G21KT 10SM FEW050 25/12 A3018 RMK AO2 SLP213 T02500122=
200710021552 METAR KATL 021552Z COR 05016KT 10SM FEW250 24/13 A3020 RMK AO2 SLP220 T02440128=
200710021452 METAR KATL 021452Z COR 06013G18KT 10SM FEW250 23/13 A3022 RMK AO2 SLP226 T02280133 50002=
200710021352 METAR KATL 021352Z 07010KT 10SM FEW250 20/13 A3023 RMK AO2 SLP231 T02000128=
200710021252 METAR KATL 021252Z 07009KT 10SM FEW250 18/12 A3022 RMK AO2 SLP229 T01780122=
200710021152 METAR KATL 021152Z 07008KT 10SM FEW250 16/12 A3022 RMK AO2 SLP226 T01610117 10183 20161 51009=
200710021052 METAR KATL 021052Z 05007KT 10SM FEW250 17/12 A3021 RMK AO2 SLP223 T01670117=
200710020952 METAR KATL 020952Z 06007KT 10SM FEW250 17/12 A3020 RMK AO2 SLP220 T01720117=
200710020852 METAR KATL 020852Z 05007KT 10SM FEW250 17/12 A3019 RMK AO2 SLP215 T01720117 55003=
200710020752 METAR KATL 020752Z 08005KT 10SM FEW250 17/12 A3019 RMK AO2 SLP215 T01720117=
200710020652 METAR KATL 020652Z 08006KT 10SM FEW200 17/12 A3019 RMK AO2 SLP218 T01720117=
200710020552 METAR KATL 020552Z 07007KT 10SM FEW200 18/11 A3020 RMK AO2 SLP219 T01830111 10233 20183 56010=
200710020452 METAR KATL 020452Z 07009KT 10SM FEW200 19/11 A3021 RMK AO2 SLP222 T01890111 402670139=
200710020352 METAR KATL 020352Z 06010KT 10SM FEW200 21/11 A3022 RMK AO2 SLP225 T02060111=
200710020252 METAR KATL 020252Z 06010KT 10SM FEW200 21/11 A3023 RMK AO2 SLP231 T02110111 53007=
200710020152 METAR KATL 020152Z 09006KT 10SM FEW200 21/11 A3022 RMK AO2 SLP229 T02060106=
200710020052 METAR KATL 020052Z 07007KT 10SM FEW200 23/11 A3022 RMK AO2 SLP227 T02280106=
200710012352 METAR KATL 012352Z 09006KT 10SM FEW200 SCT250 23/11 A3021 RMK AO2 SLP226 T02280106 10267 20228 55003=
200710012252 METAR KATL 012252Z 09007KT 10SM SCT250 24/11 A3021 RMK AO2 SLP224 T02440106=
200710012152 METAR KATL 012152Z 12007KT 10SM SCT250 26/10 A3021 RMK AO2 SLP223 T02610100=
200710012052 SPECI KATL 012052Z 06005KT 10SM FEW200 SCT300 27/10 A3022 RMK AO2 SLP227 T02670100 56024=
200710011952 METAR KATL 011952Z VRB03KT 10SM FEW200 SCT300 26/11 A3024 RMK AO2 SLP234 T02610106=
200710011852 METAR KATL 011852Z 09006G15KT 10SM FEW200 BKN300 26/09 A3026 RMK AO2 SLP242 T02560094=
200710011752 METAR KATL 011752Z 08011G17KT 10SM FEW200 SCT300 26/09 A3029 RMK AO2 SLP251 T02560094 10256 20150 58020=
200710011652 METAR KATL 011652Z 08014G17KT 10SM FEW200 SCT300 24/10 A3033 RMK AO2 SLP264 T02440100=
200710011552 METAR KATL 011552Z 09014G22KT 10SM FEW200 SCT300 23/10 A3034 RMK AO2 SLP269 T02330100=
200710011452 METAR KATL 011452Z 10008KT 10SM FEW200 SCT300 22/11 A3035 RMK AO2 SLP273 T02170111 51004=
200710011352 METAR KATL 011352Z 10009KT 10SM FEW200 BKN300 19/11 A3036 RMK AO2 SLP274 T01890106=
200710011252 METAR KATL 011252Z 07010KT 10SM FEW250 17/09 A3036 RMK AO2 SLP274 T01670089=
