##########################################################
# Query made at 04/19/2024 23:02:31 UTC
# Time interval: from 08/01/2007 12:00  to 08/31/2007 12:59  UTC
##########################################################

##########################################################
# KATL, Atlanta, Hartsfield - Jackson Atlanta International Airport (United States)
# WMO index: 72219. WIGOS ID: 0-20000-0-72219
# Latitude 33-38-59N. Longitude 084-25-00W. Altitude 312 m.
##########################################################

200708311252 METAR KATL 311252Z 07008KT 3SM BR BKN011 OVC047 23/21 A2995 RMK AO2 SFC VIS 6 SLP134 T02280211=
200708311159 SPECI KATL 311159Z 07006KT 3SM BR SCT009 OVC013 23/21 A2995 RMK AO2 SFC VIS 5=
200708311159 SPECI KATL 311159Z 07006KT 3SM BR SCT009 OVC013 23/21 A2995 RMK AO2 SFC VIS 5=
200708311152 METAR KATL 311152Z 09006KT 5SM BR BKN009 OVC150 23/21 A2995 RMK AO2 RAE1057 SLP132 P0000 60000 70041 T02280211 10233 20222 53009=
200708311119 SPECI KATL 311119Z 07007KT 6SM BR BKN009 OVC150 23/21 A2995 RMK AO2 RAE1057 P0000=
200708311119 SPECI KATL 311119Z 07007KT 6SM BR BKN009 OVC150 23/21 A2995 RMK AO2 RAE1057 P0000=
200708311052 METAR KATL 311052Z 08008KT 7SM -RA BKN011 22/21 A2993 RMK AO2 RAB38 SLP128 P0000 T02220206=
200708311049 SPECI KATL 311049Z 08006KT 7SM -RA BKN011 22/21 A2993 RMK AO2 RAB38 P0000=
200708311049 SPECI KATL 311049Z 08006KT 7SM -RA BKN011 22/21 A2993 RMK AO2 RAB38 P0000=
200708311029 SPECI KATL 311029Z 07004KT 7SM SCT009 BKN180 23/21 A2993 RMK AO2=
200708311029 SPECI KATL 311029Z 07004KT 7SM SCT009 BKN180 23/21 A2993 RMK AO2=
200708310952 METAR KATL 310952Z 05005KT 7SM FEW012 BKN180 23/21 A2992 RMK AO2 SLP123 T02280206=
200708310852 METAR KATL 310852Z 06006KT 7SM BKN180 23/21 A2991 RMK AO2 SLP115 T02280211 55010=
200708310752 METAR KATL 310752Z 06009KT 6SM BR FEW007 SCT012 BKN180 23/21 A2990 RMK AO2 SLP115 T02280211=
200708310721 SPECI KATL 310721Z 04008KT 6SM BR FEW007 SCT012 BKN180 23/21 A2991 RMK AO2=
200708310721 SPECI KATL 310721Z 04008KT 6SM BR FEW007 SCT012 BKN180 23/21 A2991 RMK AO2=
200708310652 METAR KATL 310652Z 07006KT 6SM BR SCT012 BKN180 23/21 A2991 RMK AO2 SLP117 T02280211=
200708310638 SPECI KATL 310638Z 06007KT 7SM FEW012 23/21 A2992 RMK AO2=
200708310638 SPECI KATL 310638Z 06007KT 7SM FEW012 23/21 A2992 RMK AO2=
200708310552 METAR KATL 310552Z 05007KT 7SM BKN012 OVC120 23/22 A2994 RMK AO2 SLP126 60002 T02330217 10244 20233 58004=
200708310452 METAR KATL 310452Z 04004KT 9SM FEW010 SCT120 BKN200 24/22 A2994 RMK AO2 SLP128 T02390217 403170228=
200708310406 SPECI KATL 310406Z 00000KT 8SM FEW005 SCT015 SCT090 BKN150 OVC200 23/22 A2995 RMK AO2=
200708310406 SPECI KATL 310406Z 00000KT 8SM FEW005 SCT015 SCT090 BKN150 OVC200 23/22 A2995 RMK AO2=
200708310352 METAR KATL 310352Z 00000KT 8SM FEW012 BKN090 BKN150 OVC200 23/22 A2996 RMK AO2 SLP134 T02330222=
200708310252 METAR KATL 310252Z VRB06KT 9SM SCT014 BKN200 BKN250 24/21 A2995 RMK AO2 SLP131 60002 T02440211 51007=
200708310152 METAR KATL 310152Z 01003KT 9SM FEW010 SCT150 BKN200 24/22 A2994 RMK AO2 RAE17 SLP130 P0000 T02390222=
200708310052 METAR KATL 310052Z 01005KT 10SM -RA FEW010 SCT120 BKN150 BKN200 23/21 A2993 RMK AO2 RAB2359 SLP126 P0002 T02330211=
200708310032 SPECI KATL 310032Z 03008KT 10SM -RA FEW010 SCT035 BKN140 BKN200 23/21 A2993 RMK AO2 RAB2359 P0001=
200708310032 SPECI KATL 310032Z 03008KT 10SM -RA FEW010 SCT035 BKN140 BKN200 23/21 A2993 RMK AO2 RAB2359 P0001=
200708310007 SPECI KATL 310007Z 34005KT 10SM -RA BKN010 BKN120 BKN150 OVC200 23/22 A2993 RMK AO2 RAB2359 CIG 007V012 P0000=
200708310007 SPECI KATL 310007Z 34005KT 10SM -RA BKN010 BKN120 BKN150 OVC200 23/22 A2993 RMK AO2 RAB2359 CIG 007V012 P0000=
200708302352 METAR KATL 302352Z 27004KT 10SM FEW005 SCT120 BKN150 OVC200 23/22 A2992 RMK AO2 RAE50 SLP124 P0000 60039 T02330217 10317 20233 51014=
200708302252 METAR KATL 302252Z 10007KT 9SM -RA FEW070 BKN120 BKN150 OVC200 23/22 A2991 RMK AO2 TSE38 SLP120 TS MOV SE P0009 T02330217=
200708302238 SPECI KATL 302238Z 07009KT 7SM -RA FEW035 SCT070 BKN100 OVC150 24/21 A2992 RMK AO2 TSE38 TS MOV SE P0009=
200708302238 SPECI KATL 302238Z 07009KT 7SM -RA FEW035 SCT070 BKN100 OVC150 24/21 A2992 RMK AO2 TSE38 TS MOV SE P0009=
200708302152 METAR KATL 302152Z 03021G25KT 3SM R09R/6000VP6000FT +TSRA BR FEW010 BKN035CB OVC070 24/22 A2992 RMK AO2 PK WND 33034/2116 TSB20RAB03E17B33 SLP124 OCNL LTGICCG TS NE-SE-SW MOV SE P0030 T02390217=
200708302121 SPECI KATL 302121Z 35023G34KT 10SM TS BKN045CB BKN060 BKN150 OVC200 28/21 A2989 RMK AO2 PK WND 33034/2116 TSB20RAB03E17 OCNL LTGCG TS VC W-NW MOV SE CB SE-S AND DSNT N-NE P0000=
200708302121 SPECI KATL 302121Z 35023G34KT 10SM TS BKN045CB BKN060 BKN150 OVC200 28/21 A2989 RMK AO2 PK WND 33034/2116 TSB20RAB03E17 OCNL LTGCG TS VC W-NW MOV SE CB SE-S AND DSNT N-NE P0000=
200708302052 METAR KATL 302052Z COR 31006KT 10SM SCT050TCU BKN100 BKN200 31/21 A2988 RMK AO2 SLP107 TCU OHD-SE CB DSNT N-E-SE AND NW T03110206 56033=
200708301952 METAR KATL 301952Z 33003KT 10SM FEW040CB SCT050TCU BKN090 BKN250 31/21 A2991 RMK AO2 SLP117 CB DSNT NE VC SE-S DSNT NW-N MOV SE TCU VC NE NW SHRA VC SE T03060206=
200708301905 SPECI KATL 301905Z 31006KT 10SM FEW040CB SCT050TCU BKN095 BKN250 29/21 A2994 RMK AO2 CB VC SE MOV SE TCU VC NW SHRA 6SM VC SE=
200708301905 SPECI KATL 301905Z 31006KT 10SM FEW040CB SCT050TCU BKN095 BKN250 29/21 A2994 RMK AO2 CB VC SE MOV SE TCU VC NW SHRA 6SM VC SE=
200708301852 METAR KATL 301852Z 33007KT 10SM BKN038TCU BKN095 BKN250 30/21 A2995 RMK AO2 SLP130 TCU E-SW DSNT NW T03000211=
200708301752 METAR KATL 301752Z 31004KT 10SM FEW030 SCT090 SCT150 SCT250 30/21 A2998 RMK AO2 SLP142 T03000206 10306 20228 58017=
200708301652 METAR KATL 301652Z VRB03KT 9SM FEW030 SCT090 BKN150 BKN250 29/22 A3001 RMK AO2 SLP150 T02940222=
200708301552 METAR KATL 301552Z 30006KT 9SM FEW018 SCT090 SCT250 28/22 A3003 RMK AO2 SLP157 T02780222=
200708301509 SPECI KATL 301509Z 34005KT 8SM SCT011 BKN090 BKN250 26/22 A3003 RMK AO2=
200708301509 SPECI KATL 301509Z 34005KT 8SM SCT011 BKN090 BKN250 26/22 A3003 RMK AO2=
200708301452 METAR KATL 301452Z 30006KT 6SM HZ BKN011 BKN065 BKN250 25/22 A3003 RMK AO2 SLP161 T02500222 50003=
200708301400 SPECI KATL 301400Z 30007KT 6SM BR BKN008 BKN013 BKN065 BKN250 24/22 A3004 RMK AO2=
200708301400 SPECI KATL 301400Z 30007KT 6SM BR BKN008 BKN013 BKN065 BKN250 24/22 A3004 RMK AO2=
200708301352 METAR KATL 301352Z 30008KT 6SM BR BKN010 BKN013 BKN150 BKN250 24/22 A3004 RMK AO2 SLP163 T02390217=
200708301252 METAR KATL 301252Z 31005KT 10SM FEW012 SCT150 SCT200 BKN250 24/22 A3004 RMK AO2 SLP162 T02440222=
200708301152 METAR KATL 301152Z 32005KT 10SM BKN150 BKN200 BKN250 23/22 A3003 RMK AO2 SLP158 70081 T02280217 10239 20228 58003=
200708301052 METAR KATL 301052Z 31008KT 10SM FEW050 SCT110 SCT150 BKN250 23/22 A3003 RMK AO2 SLP159 T02280217=
200708300952 METAR KATL 300952Z 28005KT 10SM FEW045 SCT110 BKN150 BKN250 23/22 A3003 RMK AO2 SLP159 T02280217=
200708300852 METAR KATL 300852Z 32003KT 10SM FEW060 BKN110 BKN250 23/22 A3003 RMK AO2 SLP160 T02280217 58009=
200708300752 METAR KATL 300752Z 26005KT 10SM FEW065 BKN110 BKN250 23/22 A3004 RMK AO2 SLP164 T02280217=
200708300652 METAR KATL 300652Z 28004KT 10SM FEW065 SCT110 BKN150 BKN250 23/22 A3006 RMK AO2 SLP168 T02280217=
200708300552 METAR KATL 300552Z 29004KT 10SM FEW065 BKN120 BKN250 23/22 A3006 RMK AO2 SLP169 60009 T02280217 10261 20228 58009=
200708300452 METAR KATL 300452Z 00000KT 10SM BKN080 BKN150 BKN250 23/22 A3008 RMK AO2 SLP173 T02330217 403170228=
200708300352 METAR KATL 300352Z 32004KT 10SM BKN150 BKN250 23/22 A3008 RMK AO2 SLP174 T02280217=
200708300252 METAR KATL 300252Z 26004KT 10SM SCT150 BKN250 23/22 A3009 RMK AO2 RAE21 SLP178 P0000 60009 T02280217 58001=
200708300152 METAR KATL 300152Z 27004KT 9SM -RA BKN035 BKN050 OVC100 24/22 A3010 RMK AO2 SLP183 P0005 T02390217=
200708300052 METAR KATL 300052Z 23005KT 9SM -RA SCT035 BKN050 OVC100 24/22 A3008 RMK AO2 SLP178 P0004 T02390217=
200708292352 METAR KATL 292352Z 24005KT 10SM -RA SCT050 BKN110 OVC150 26/21 A3009 RMK AO2 RAE2258B31 SLP180 CB DSNT SW-NW P0000 60072 T02610206 10317 20228 53005=
200708292252 METAR KATL 292252Z 15005KT 10SM -RA FEW100 BKN140 BKN200 27/22 A3006 RMK AO2 RAB51 SLP169 CB DSNT SW AND W-NW P0000 T02670217=
200708292152 METAR KATL 292152Z 16009KT 10SM FEW030TCU SCT055 BKN140 BKN250 27/23 A3006 RMK AO2 SLP168 TCU S CB DSNT NW T02720228=
200708292052 METAR KATL 292052Z 11003KT 10SM FEW030 SCT080 BKN150 BKN250 28/21 A3008 RMK AO2 TSE01RAE01 SLP174 LTG DSNT N TS 14SM DSNT NNW 15SM DSNT N MOV NE CB DSNT N MOV NE TCU DSNT W NW P0000 60072 T02780211 55006=
200708292022 SPECI KATL 292022Z 14003KT 10SM FEW017 SCT070 SCT150 BKN250 27/21 A3007 RMK AO2 TSE01RAE01 LTG DSNT N TS 13SM DSNT N MOV NNE CB DSNT N MOV NNE P0000=
200708292022 SPECI KATL 292022Z 14003KT 10SM FEW017 SCT070 SCT150 BKN250 27/21 A3007 RMK AO2 TSE01RAE01 LTG DSNT N TS 13SM DSNT N MOV NNE CB DSNT N MOV NNE P0000=
200708292002 SPECI KATL 292002Z 09006KT 10SM FEW017CB SCT070 BKN150 BKN250 27/21 A3007 RMK AO2 TSE01RAE01 TS DSIPT CB DSNT N-E DSNT S VC SW MOV NNW P0000=
200708292002 SPECI KATL 292002Z 09006KT 10SM FEW017CB SCT070 BKN150 BKN250 27/21 A3007 RMK AO2 TSE01RAE01 TS DSIPT CB DSNT N-E DSNT S VC SW MOV NNW P0000=
200708291952 METAR KATL 291952Z 04010KT 9SM -TSRA SCT012CB BKN070 BKN150 BKN250 26/21 A3008 RMK AO2 PK WND 10026/1903 WSHFT 1936 SLP175 VIS LWR N-NE-E SHRA FRQ LTGICCG TS 3SM N 3SM NE 8SM SSW MOV NNW P0071 T02560206=
200708291950 SPECI KATL 291950Z 04010KT 9SM -TSRA SCT012CB BKN070 BKN150 BKN250 25/21 A3008 RMK AO2 PK WND 10026/1903 WSHFT 1936 VIS LWR N-NE-E SHRA FRQ LTGICCG TS 3SM N 3SM NE MOV NNW P0071=
200708291950 SPECI KATL 291950Z 04010KT 9SM -TSRA SCT012CB BKN070 BKN150 BKN250 25/21 A3008 RMK AO2 PK WND 10026/1903 WSHFT 1936 VIS LWR N-NE-E SHRA FRQ LTGICCG TS 3SM N 3SM NE MOV NNW P0071=
200708291938 SPECI KATL 291938Z 07013KT 3SM R09R/5500VP6000FT TSRA BR BKN012CB BKN055 BKN070 BKN150 BKN250 24/22 A3009 RMK AO2 PK WND 10026/1903 WSHFT 1858 FRQ LTGICCG TS 2SM NE MOV NNW P0071=
200708291938 SPECI KATL 291938Z 07013KT 3SM R09R/5500VP6000FT TSRA BR BKN012CB BKN055 BKN070 BKN150 BKN250 24/22 A3009 RMK AO2 PK WND 10026/1903 WSHFT 1858 FRQ LTGICCG TS 2SM NE MOV NNW P0071=
200708291935 SPECI KATL 291935Z 10009KT 2SM R09R/4000VP6000FT TSRA BR SCT006 BKN026CB OVC070 23/21 A3010 RMK AO2 PK WND 10026/1903 WSHFT 1858 FRQ LTGICCG TS 2SM NE 4SM E 4SM SE MOV STNRY P0071=
200708291935 SPECI KATL 291935Z 10009KT 2SM R09R/4000VP6000FT TSRA BR SCT006 BKN026CB OVC070 23/21 A3010 RMK AO2 PK WND 10026/1903 WSHFT 1858 FRQ LTGICCG TS 2SM NE 4SM E 4SM SE MOV STNRY P0071=
200708291931 SPECI KATL 291931Z 09010KT 1SM R09R/1600VP6000FT +TSRA BR FEW004 BKN030CB OVC055 23/21 A3010 RMK AO2 PK WND 10026/1903 WSHFT 1858 FRQ LTGICCG TS 1SM N 1SM E 1SM SE MOV STNRY P0068=
200708291931 SPECI KATL 291931Z 09010KT 1SM R09R/1600VP6000FT +TSRA BR FEW004 BKN030CB OVC055 23/21 A3010 RMK AO2 PK WND 10026/1903 WSHFT 1858 FRQ LTGICCG TS 1SM N 1SM E 1SM SE MOV STNRY P0068=
200708291921 SPECI KATL 291921Z 05017G21KT 1/2SM R09R/2600VP6000FT +TSRA FEW010 BKN038CB OVC060 24/21 A3013 RMK AO2 PK WND 10026/1903 WSHFT 1858 PRESRR CNS LTGICCG TS OHD MOV STNRY P0039=
200708291921 SPECI KATL 291921Z 05017G21KT 1/2SM R09R/2600VP6000FT +TSRA FEW010 BKN038CB OVC060 24/21 A3013 RMK AO2 PK WND 10026/1903 WSHFT 1858 PRESRR CNS LTGICCG TS OHD MOV STNRY P0039=
200708291919 SPECI KATL 291919Z 05015G21KT 2SM +TSRA FEW010 BKN038CB OVC060 24/21 A3012 RMK AO2 PK WND 10026/1903 WSHFT 1858 PRESRR CNS LTGICCG TS OHD MOV STNRY P0039=
200708291919 SPECI KATL 291919Z 05015G21KT 2SM +TSRA FEW010 BKN038CB OVC060 24/21 A3012 RMK AO2 PK WND 10026/1903 WSHFT 1858 PRESRR CNS LTGICCG TS OHD MOV STNRY P0039=
200708291915 SPECI KATL 291915Z 12008G20KT 9SM R09R/5500VP6000FT -TSRA FEW006 BKN038CB BKN055 BKN150 BKN250 23/20 A3010 RMK AO2 PK WND 10026/1903 WSHFT 1858 VIS LWR N E SE SHRA CNS LTGICCG TS 1SM N 5SM E 3SM SE MOV STNRY P0038=
200708291915 SPECI KATL 291915Z 12008G20KT 9SM R09R/5500VP6000FT -TSRA FEW006 BKN038CB BKN055 BKN150 BKN250 23/20 A3010 RMK AO2 PK WND 10026/1903 WSHFT 1858 VIS LWR N E SE SHRA CNS LTGICCG TS 1SM N 5SM E 3SM SE MOV STNRY P0038=
200708291905 SPECI KATL 291905Z 12020G26KT 9SM R09R/1400VP6000FT -TSRA BKN038CB BKN050 BKN150 BKN250 24/21 A3008 RMK AO2 PK WND 10026/1903 WSHFT 1845 VIS E-SE 1SM SHRA CNS LTGICCG TS 3SM E 3SM SE MOV ESE P0031=
200708291905 SPECI KATL 291905Z 12020G26KT 9SM R09R/1400VP6000FT -TSRA BKN038CB BKN050 BKN150 BKN250 24/21 A3008 RMK AO2 PK WND 10026/1903 WSHFT 1845 VIS E-SE 1SM SHRA CNS LTGICCG TS 3SM E 3SM SE MOV ESE P0031=
200708291902 SPECI KATL 291902Z 10019G26KT 9SM R09R/1400VP6000FT -TSRA BKN038CB BKN050 BKN150 BKN250 24/21 A3009 RMK AO2 PK WND 11026/1902 WSHFT 1845 VIS E 1SM SE 1SM S 3SM CNS LTGICCG TS OHD-4SM E 3SM SE MOV ESE P0020=
200708291902 SPECI KATL 291902Z 10019G26KT 9SM R09R/1400VP6000FT -TSRA BKN038CB BKN050 BKN150 BKN250 24/21 A3009 RMK AO2 PK WND 11026/1902 WSHFT 1845 VIS E 1SM SE 1SM S 3SM CNS LTGICCG TS OHD-4SM E 3SM SE MOV ESE P0020=
200708291852 METAR KATL 291852Z 06011G19KT 9SM R09R/1800VP6000FT -TSRA BKN038CB BKN048 BKN150 BKN250 27/22 A3009 RMK AO2 TSB33RAB33 SLP181 VIS E 1SM SE 2SM SHRA FRQ LTGICCG TS 3SM E 5SM SE MOV ESE P0001 T02670222=
200708291840 SPECI KATL 291840Z 14008KT 9SM -TSRA BKN038CB BKN050TCU BKN150 BKN250 30/21 A3009 RMK AO2 TSB33RAB33 FRQ LTGICCG TS E-SE MOV ESE CB E-SE MOV ESE TCU OHD P0000=
200708291840 SPECI KATL 291840Z 14008KT 9SM -TSRA BKN038CB BKN050TCU BKN150 BKN250 30/21 A3009 RMK AO2 TSB33RAB33 FRQ LTGICCG TS E-SE MOV ESE CB E-SE MOV ESE TCU OHD P0000=
200708291833 SPECI KATL 291833Z 14006KT 8SM -TSRA BKN040CB BKN050TCU BKN150 BKN250 30/21 A3010 RMK AO2 TSB33RAB33 FRQ LTGICCG TS VC SE MOV ESE CB VC SE MOV ESE TCU OHD P0000=
200708291833 SPECI KATL 291833Z 14006KT 8SM -TSRA BKN040CB BKN050TCU BKN150 BKN250 30/21 A3010 RMK AO2 TSB33RAB33 FRQ LTGICCG TS VC SE MOV ESE CB VC SE MOV ESE TCU OHD P0000=
200708291823 SPECI KATL 291823Z 16005KT 10SM FEW040CB BKN050TCU BKN150 BKN250 31/21 A3010 RMK AO2 LTG DSNT E-SE CB VC E DSNT E-SE SHRA VC N E DSNT E-SE=
200708291823 SPECI KATL 291823Z 16005KT 10SM FEW040CB BKN050TCU BKN150 BKN250 31/21 A3010 RMK AO2 LTG DSNT E-SE CB VC E DSNT E-SE SHRA VC N E DSNT E-SE=
200708291752 METAR KATL 291752Z 00000KT 10SM BKN040TCU BKN150 BKN250 31/19 A3011 RMK AO2 SLP185 LTG DSNT ENE CB DSNT ENE ESE MOV ESE TCU OHD-S-NW T03060194 10317 20239 58015=
200708291652 METAR KATL 291652Z VRB03KT 10SM SCT040TCU SCT100 BKN150 BKN250 31/21 A3014 RMK AO2 SLP194 CB DSNT E S TCU NE-S NW T03110211=
200708291552 METAR KATL 291552Z 00000KT 10SM FEW032TCU SCT100 BKN150 BKN250 30/22 A3015 RMK AO2 SLP198 TCU NE-SE DSNT NW T03000217=
200708291452 METAR KATL 291452Z 00000KT 10SM FEW027 SCT100 BKN150 BKN250 29/21 A3016 RMK AO2 SLP200 T02890211 53002=
200708291352 METAR KATL 291352Z 00000KT 10SM FEW100 SCT150 BKN250 27/21 A3016 RMK AO2 SLP200 T02670211=
200708291252 METAR KATL 291252Z 00000KT 10SM SCT100 BKN200 BKN250 25/21 A3015 RMK AO2 SLP200 T02500206=
200708291152 METAR KATL 291152Z 00000KT 10SM FEW030 SCT100 BKN200 BKN250 24/21 A3015 RMK AO2 SLP199 T02390211 10244 20233 53007=
200708291052 METAR KATL 291052Z 00000KT 10SM FEW032 SCT085 BKN200 BKN250 23/21 A3014 RMK AO2 SLP196 T02330211=
200708290952 METAR KATL 290952Z 20003KT 9SM FEW055 SCT085 BKN150 BKN250 24/21 A3013 RMK AO2 SLP192 FRQ LTG DSNT SE AND S CB DSNT SE AND S T02390211=
200708290852 METAR KATL 290852Z 00000KT 10SM FEW055 SCT080 BKN150 BKN250 24/21 A3013 RMK AO2 SLP191 OCNL LTG DSNT SE AND SW CB DSNT SE AND SW T02390211 53002=
200708290752 METAR KATL 290752Z 22003KT 10SM SCT070 SCT150 BKN250 24/21 A3012 RMK AO2 SLP190 OCNL LTG DSNT SE-SW CB DSNT SE-SW T02390211=
200708290652 METAR KATL 290652Z 00000KT 10SM FEW055 SCT150 SCT200 BKN250 24/21 A3011 RMK AO2 SLP186 OCNL LTG DSNT S CB DSNT S T02390206=
200708290552 METAR KATL 290552Z 00000KT 10SM FEW150 SCT200 BKN250 24/21 A3012 RMK AO2 SLP189 T02440211 10283 20244 50000=
200708290452 METAR KATL 290452Z 16003KT 10SM SCT200 BKN250 25/21 A3012 RMK AO2 SLP190 T02500211 403110222=
200708290352 METAR KATL 290352Z 00000KT 10SM FEW150 SCT200 BKN250 26/21 A3012 RMK AO2 SLP189 T02610206=
200708290252 METAR KATL 290252Z 00000KT 10SM FEW150 BKN200 OVC250 27/21 A3012 RMK AO2 SLP189 T02670211 51012=
200708290152 METAR KATL 290152Z 21005KT 10SM BKN150 BKN250 27/22 A3012 RMK AO2 SLP188 T02670217=
200708290052 METAR KATL 290052Z 15006KT 10SM FEW150 SCT200 BKN250 27/21 A3011 RMK AO2 SLP185 T02720206=
200708282352 METAR KATL 282352Z 17004KT 10SM FEW150 SCT200 SCT250 28/21 A3008 RMK AO2 SLP177 T02830206 10311 20283 55000=
200708282252 METAR KATL 282252Z 14008KT 10SM FEW150 SCT200 SCT250 29/21 A3008 RMK AO2 SLP175 T02940206=
200708282152 METAR KATL 282152Z 15008KT 10SM FEW040 SCT150 BKN200 BKN250 30/20 A3008 RMK AO2 SLP176 TCU DSNT W AND NW T03000200=
200708282052 METAR KATL 282052Z 13004KT 10SM SCT040 SCT150 SCT200 BKN250 30/20 A3008 RMK AO2 SLP177 CB DSNT N-NE S TCU DSNT NW MDT CU NE T03000200 56019=
200708281952 METAR KATL 281952Z 11007KT 10SM FEW030 SCT040 SCT150 BKN250 29/21 A3010 RMK AO2 SLP181 CB DSNT N NW MOV STNRY SHRA DSNT NW T02940206=
200708281852 METAR KATL 281852Z 10006KT 10SM SCT030 BKN040 BKN150 BKN250 29/22 A3012 RMK AO2 SLP189 MDT CU SW-NW T02940217=
200708281752 METAR KATL 281752Z 16007KT 10SM FEW025TCU SCT040 BKN060 BKN150 BKN250 29/22 A3014 RMK AO2 SLP197 CB DSNT N TCU VC NE T02890217 10289 20228 58007=
200708281652 METAR KATL 281652Z VRB05KT 10SM FEW022 SCT042 SCT100 BKN150 28/22 A3016 RMK AO2 SLP202 CB DSNT N TCU DSNT NE T02780217=
200708281608 SPECI KATL 281608Z 15008KT 10SM SCT025CB SCT100 BKN150 27/22 A3017 RMK AO2 CB N-NE MOV STNRY SHRA N-NE=
200708281608 SPECI KATL 281608Z 15008KT 10SM SCT025CB SCT100 BKN150 27/22 A3017 RMK AO2 CB N-NE MOV STNRY SHRA N-NE=
200708281552 METAR KATL 281552Z 16008KT 10SM FEW030TCU SCT100 BKN150 28/21 A3017 RMK AO2 SLP205 TCU N-NE T02780211=
200708281452 METAR KATL 281452Z 08004KT 10SM SCT020 SCT100 BKN150 BKN250 27/21 A3016 RMK AO2 SLP204 T02720211 53008=
200708281352 METAR KATL 281352Z 11004KT 9SM FEW011 SCT100 SCT150 SCT250 26/22 A3015 RMK AO2 SLP200 T02560217=
200708281252 METAR KATL 281252Z 12003KT 8SM SCT046 BKN150 BKN250 24/22 A3015 RMK AO2 SLP199 CB DSNT SE T02390217=
200708281227 SPECI KATL 281227Z 10003KT 6SM BR SCT014 BKN044 BKN150 BKN250 23/22 A3015 RMK AO2=
200708281227 SPECI KATL 281227Z 10003KT 6SM BR SCT014 BKN044 BKN150 BKN250 23/22 A3015 RMK AO2=
200708281152 METAR KATL 281152Z 09006KT 6SM BR SCT008 BKN014 BKN150 BKN250 23/22 A3014 RMK AO2 SLP196 T02280217 10244 20222 53012=
200708281130 SPECI KATL 281130Z 07007KT 8SM FEW008 SCT055 SCT150 BKN250 23/21 A3013 RMK AO2 CB DSNT NE AND SE=
200708281130 SPECI KATL 281130Z 07007KT 8SM FEW008 SCT055 SCT150 BKN250 23/21 A3013 RMK AO2 CB DSNT NE AND SE=
200708281052 METAR KATL 281052Z 09005KT 10SM FEW055 SCT150 SCT250 23/21 A3012 RMK AO2 SLP191 OCNL LTG DSNT NE CB DSNT NE T02280211=
200708280952 METAR KATL 280952Z 10003KT 10SM FEW150 SCT250 23/21 A3011 RMK AO2 SLP185 T02280211=
200708280852 METAR KATL 280852Z 11004KT 10SM FEW150 SCT250 23/21 A3010 RMK AO2 SLP183 T02330211 55005=
200708280752 METAR KATL 280752Z 09003KT 10SM FEW050 SCT150 SCT200 BKN250 23/21 A3009 RMK AO2 SLP179 T02330211=
200708280652 METAR KATL 280652Z 09004KT 9SM SCT150 SCT200 BKN250 23/21 A3010 RMK AO2 SLP183 T02330211=
200708280552 METAR KATL 280552Z 13005KT 10SM SCT150 BKN200 BKN250 24/21 A3012 RMK AO2 SLP188 T02390211 10267 20239 50001=
200708280452 METAR KATL 280452Z 00000KT 10SM FEW150 BKN200 BKN250 24/21 A3012 RMK AO2 SLP190 T02440211 403110222=
200708280352 METAR KATL 280352Z 11003KT 10SM FEW150 SCT200 BKN250 25/21 A3012 RMK AO2 SLP190 T02500211=
200708280252 METAR KATL 280252Z 14003KT 9SM FEW150 BKN200 BKN250 25/22 A3011 RMK AO2 SLP187 T02500217 51015=
200708280152 METAR KATL 280152Z 16004KT 9SM FEW120 BKN150 OVC200 26/22 A3011 RMK AO2 SLP187 T02560217=
200708280052 METAR KATL 280052Z 14006KT 9SM FEW120 BKN150 BKN200 26/22 A3009 RMK AO2 SLP180 T02610217=
200708272352 METAR KATL 272352Z 15007KT 8SM SCT120 BKN150 OVC200 27/22 A3007 RMK AO2 SLP173 60000 T02670217 10311 20267 53011=
200708272252 METAR KATL 272252Z 15008KT 7SM FEW035 SCT090 BKN150 BKN200 27/22 A3006 RMK AO2 RAB13E37 SLP168 CB DSNT N-NE SW-W AND NW P0000 T02720217=
200708272152 METAR KATL 272152Z 12010KT 6SM HZ SCT035CB BKN050 BKN250 31/21 A3004 RMK AO2 SLP160 CB VC S-SW TCU NE-SE-S T03060206=
200708272052 METAR KATL 272052Z 00000KT 5SM HZ FEW030 SCT250 30/21 A3004 RMK AO2 SLP160 T03000211 58022=
200708271952 METAR KATL 271952Z 11006KT 5SM HZ SCT028 SCT037 29/21 A3006 RMK AO2 SLP169 T02940211=
200708271852 METAR KATL 271852Z 08007KT 5SM HZ BKN022 28/21 A3009 RMK AO2 SLP178 T02780211=
200708271752 METAR KATL 271752Z 11006KT 5SM HZ BKN020 28/22 A3010 RMK AO2 SLP184 T02780217 10283 20222 58002=
200708271652 METAR KATL 271652Z VRB05KT 7SM BKN018 BKN250 27/21 A3012 RMK AO2 SLP188 T02720211=
200708271613 SPECI KATL 271613Z 11006KT 7SM SCT015 BKN250 27/22 A3012 RMK AO2=
200708271613 SPECI KATL 271613Z 11006KT 7SM SCT015 BKN250 27/22 A3012 RMK AO2=
200708271604 SPECI KATL 271604Z 13006KT 7SM BKN015 BKN250 27/22 A3012 RMK AO2=
200708271604 SPECI KATL 271604Z 13006KT 7SM BKN015 BKN250 27/22 A3012 RMK AO2=
200708271552 METAR KATL 271552Z 11005KT 5SM HZ SCT013 SCT250 26/21 A3012 RMK AO2 SLP190 T02560211=
200708271514 SPECI KATL 271514Z 09005KT 5SM HZ BKN011 25/21 A3011 RMK AO2=
200708271514 SPECI KATL 271514Z 09005KT 5SM HZ BKN011 25/21 A3011 RMK AO2=
200708271452 METAR KATL 271452Z 12006KT 5SM HZ BKN006 24/22 A3011 RMK AO2 SLP187 T02440217 51014=
200708271352 METAR KATL 271352Z 12005KT 5SM BR OVC008 23/21 A3009 RMK AO2 SLP182 T02330211=
200708271324 SPECI KATL 271324Z 09006KT 5SM BR BKN008 BKN250 23/22 A3009 RMK AO2=
200708271324 SPECI KATL 271324Z 09006KT 5SM BR BKN008 BKN250 23/22 A3009 RMK AO2=
200708271252 METAR KATL 271252Z 08006KT 5SM BR FEW008 SCT250 23/21 A3008 RMK AO2 SLP178 T02280211=
200708271152 METAR KATL 271152Z 09004KT 6SM BR FEW150 SCT250 22/21 A3007 RMK AO2 SLP173 70071 T02220206 10228 20222 53010=
200708271052 METAR KATL 271052Z 07006KT 8SM FEW150 SCT250 22/21 A3005 RMK AO2 SLP166 T02220206 $=
200708270952 METAR KATL 270952Z 04007KT 8SM FEW150 SCT250 22/21 A3004 RMK AO2 SLP163 T02220206 $=
200708270852 METAR KATL 270852Z 07007KT 7SM FEW065 SCT150 SCT250 22/21 A3004 RMK AO2 SLP162 T02220211 53001 $=
200708270752 METAR KATL 270752Z 08005KT 6SM BR FEW005 SCT065 SCT150 SCT250 22/21 A3003 RMK AO2 SLP157 T02220211 $=
200708270729 SPECI KATL 270729Z 06005KT 6SM BR FEW005 SCT060 SCT150 SCT250 23/21 A3003 RMK AO2 $=
200708270729 SPECI KATL 270729Z 06005KT 6SM BR FEW005 SCT060 SCT150 SCT250 23/21 A3003 RMK AO2 $=
200708270652 METAR KATL 270652Z 07006KT 7SM SCT150 SCT250 23/21 A3003 RMK AO2 SLP156 T02280211 $=
200708270552 METAR KATL 270552Z 09005KT 10SM FEW150 SCT250 23/21 A3003 RMK AO2 SLP159 T02280211 10239 20228 51005 $=
200708270452 METAR KATL 270452Z 09006KT 8SM SCT120 SCT150 BKN200 23/21 A3003 RMK AO2 SLP160 T02280211 403330228 $=
200708270352 METAR KATL 270352Z 08006KT 9SM SCT120 BKN150 OVC200 23/21 A3003 RMK AO2 SLP158 T02330211 $=
200708270252 METAR KATL 270252Z 06006KT 8SM BKN150 BKN200 24/21 A3002 RMK AO2 SLP155 T02390211 53011 $=
200708270152 METAR KATL 270152Z 08004KT 9SM BKN150 23/21 A3000 RMK AO2 SLP150 T02330211 $=
200708270052 METAR KATL 270052Z 10004KT 9SM BKN150 23/21 A2999 RMK AO2 SLP147 T02330211 $=
200708262352 METAR KATL 262352Z COR 10004G18KT 8SM FEW010 OVC120 23/21 A2998 RMK AO2 RAB03E45 SLP144 P0000 60071 T02330211 10333 20228 53008 $=
200708262252 METAR KATL 262252Z 00000KT 8SM SCT038 BKN070 OVC110 23/21 A2997 RMK AO2 TSE23RAB23E28 SLP139 P0000 T02330211 $=
200708262223 SPECI KATL 262223Z 00000KT 8SM -RA FEW010 SCT038 BKN070 23/21 A2997 RMK AO2 TSE23RAB23 LTG DSNT SE-S-SW-W CB DSNT SE-S-SW-W P0000 $=
200708262223 SPECI KATL 262223Z 00000KT 8SM -RA FEW010 SCT038 BKN070 23/21 A2997 RMK AO2 TSE23RAB23 LTG DSNT SE-S-SW-W CB DSNT SE-S-SW-W P0000 $=
200708262152 METAR KATL 262152Z 16007KT 8SM TS FEW010 SCT039CB BKN070 24/21 A2996 RMK AO2 RAE38 SLP137 FRQ LTGCGIC TS VC SE-S-SW-W MOV SE VIS LWR SE-SW P0016 T02390211 $=
200708262143 SPECI KATL 262143Z 15009KT 8SM TS FEW010 BKN037CB OVC060 24/21 A2996 RMK AO2 RAE38 FRQ LTGCGCCICCA TS VC SE-S-SW-W MOV SE VIS LWR SE-SW P0016 $=
200708262143 SPECI KATL 262143Z 15009KT 8SM TS FEW010 BKN037CB OVC060 24/21 A2996 RMK AO2 RAE38 FRQ LTGCGCCICCA TS VC SE-S-SW-W MOV SE VIS LWR SE-SW P0016 $=
200708262103 SPECI KATL 262103Z 01004KT 5SM R09R/6000VP6000FT +TSRA BKN020CB OVC055 25/18 A2995 RMK AO2 CONS LTGICCACG TS OHD-E-S-SW MOV SE VIS LWR SE-SW P0015 $=
200708262103 SPECI KATL 262103Z 01004KT 5SM R09R/6000VP6000FT +TSRA BKN020CB OVC055 25/18 A2995 RMK AO2 CONS LTGICCACG TS OHD-E-S-SW MOV SE VIS LWR SE-SW P0015 $=
200708262052 METAR KATL 262052Z 10007G24KT 1SM R09R/3000VP6000FT +TSRA BKN020CB OVC050 24/18 A2996 RMK AO2 WSHFT 2011 RAB21 SLP136 CONS LTGICCACG TS OHD-W-N MOV S P0055 60055 T02440183 53002 $=
200708262044 SPECI KATL 262044Z 05016G24KT 1/2SM R09R/2200V5500FT +TSRA FEW020 OVC050CB 24/19 A2998 RMK AO2 WSHFT 2011 RAB21 PRESRR CONS LTGICCACG TS OHD-W-N MOV S P0013 $=
200708262044 SPECI KATL 262044Z 05016G24KT 1/2SM R09R/2200V5500FT +TSRA FEW020 OVC050CB 24/19 A2998 RMK AO2 WSHFT 2011 RAB21 PRESRR CONS LTGICCACG TS OHD-W-N MOV S P0013 $=
200708262039 SPECI KATL 262039Z 29008G46KT 250V340 2SM R09R/1600V5000FT +TSRA BKN050CB BKN250 23/20 A2996 RMK AO2 WSHFT 2011 RAB21 CONS LTGICCACG TS OHD-W-N MOV S VIS LWR W-NW P0001 $=
200708262039 SPECI KATL 262039Z 29008G46KT 250V340 2SM R09R/1600V5000FT +TSRA BKN050CB BKN250 23/20 A2996 RMK AO2 WSHFT 2011 RAB21 CONS LTGICCACG TS OHD-W-N MOV S VIS LWR W-NW P0001 $=
200708262031 SPECI KATL 262031Z 33028G46KT 5SM R09R/2000VP6000FT TSRA BKN050CB BKN250 26/19 A2995 RMK AO2 PK WND 33046/2031 WSHFT 2011 RAB21 CONS LTGICCACG TS OHD-W-N MOV S VIS LWR W-NW P0000=
200708262031 SPECI KATL 262031Z 33028G46KT 5SM R09R/2000VP6000FT TSRA BKN050CB BKN250 26/19 A2995 RMK AO2 PK WND 33046/2031 WSHFT 2011 RAB21 CONS LTGICCACG TS OHD-W-N MOV S VIS LWR W-NW P0000=
200708261952 METAR KATL 261952Z 29003KT 10SM TS SCT055CB SCT250 32/19 A2993 RMK AO2 TSB46 SLP122 FRQ LTGICCACG TS NW-N MOV SW CB DSNT NE AND SE T03220189=
200708261947 SPECI KATL 261947Z 16003KT 9SM TS SCT055CB SCT250 32/19 A2993 RMK AO2 TSB46 FRQ LTGIC TS NW-N MOV SW CB DSNT NE AND SE=
200708261947 SPECI KATL 261947Z 16003KT 9SM TS SCT055CB SCT250 32/19 A2993 RMK AO2 TSB46 FRQ LTGIC TS NW-N MOV SW CB DSNT NE AND SE=
200708261852 METAR KATL 261852Z 00000KT 9SM FEW050 SCT250 32/19 A2995 RMK AO2 SLP130 CB DSNT N-NE AND E T03220189=
200708261752 METAR KATL 261752Z 00000KT 9SM FEW040 BKN250 31/20 A2998 RMK AO2 SLP141 CB DSNT NE T03060200 10306 20233 58005=
200708261652 METAR KATL 261652Z 19003KT 7SM FEW140 BKN250 28/21 A3001 RMK AO2 SLP150 T02830206=
200708261552 METAR KATL 261552Z 30005KT 7SM FEW100 BKN140 BKN250 27/21 A3001 RMK AO2 SLP150 T02720206=
200708261452 METAR KATL 261452Z 00000KT 7SM BKN140 OVC250 26/20 A3000 RMK AO2 SLP148 T02560200 53009=
200708261352 METAR KATL 261352Z 29004KT 7SM BKN140 BKN250 24/21 A2999 RMK AO2 SLP143 T02440206=
200708261252 METAR KATL 261252Z 30005KT 8SM BKN140 BKN250 24/21 A2998 RMK AO2 SLP142 T02390206=
200708261152 METAR KATL 261152Z 30004KT 8SM SCT140 BKN250 23/21 A2997 RMK AO2 SLP138 T02330206 10244 20228 52004=
200708261052 METAR KATL 261052Z 00000KT 10SM FEW085 SCT140 BKN250 23/20 A2997 RMK AO2 SLP135 ACC E T02280200=
200708260952 METAR KATL 260952Z 00000KT 10SM SCT090 BKN140 BKN250 23/20 A2996 RMK AO2 SLP133 T02280200=
200708260852 METAR KATL 260852Z 35003KT 10SM SCT140 BKN250 24/19 A2996 RMK AO2 SLP131 T02440194 53006=
200708260752 METAR KATL 260752Z 33003KT 10SM SCT140 BKN250 24/19 A2995 RMK AO2 SLP130 T02390194=
200708260652 METAR KATL 260652Z 00000KT 10SM SCT120 OVC200 24/19 A2994 RMK AO2 SLP125 T02440189=
200708260552 METAR KATL 260552Z 32005KT 10SM FEW080 SCT120 OVC200 24/19 A2994 RMK AO2 SLP125 T02440189 10278 20239 58010=
200708260452 METAR KATL 260452Z 28005KT 10SM FEW080 SCT120 OVC250 24/18 A2995 RMK AO2 SLP130 T02440183 403440222=
200708260352 METAR KATL 260352Z 26006KT 10SM FEW100 OVC250 26/17 A2997 RMK AO2 SLP138 T02560172=
200708260252 METAR KATL 260252Z 28006KT 10SM FEW055 BKN250 25/16 A2997 RMK AO2 TSE40 SLP137 TS DSIPT LTG DSNT NW-SW CB DSNT NW-SW T02500161 50013=
200708260241 SPECI KATL 260241Z 26007KT 10SM FEW055 BKN250 26/17 A2997 RMK AO2 TSE40 TS DSIPT LTG DSNT NW CB DSNT NW=
200708260241 SPECI KATL 260241Z 26007KT 10SM FEW055 BKN250 26/17 A2997 RMK AO2 TSE40 TS DSIPT LTG DSNT NW CB DSNT NW=
200708260152 METAR KATL 260152Z 03008KT 10SM TS FEW050CB BKN070 BKN250 27/19 A3000 RMK AO2 TSB13 SLP147 OCNL LTGICCACG TS VC NW MOV SW T02720189=
200708260114 SPECI KATL 260114Z 18004KT 10SM TS FEW050CB SCT250 26/19 A2996 RMK AO2 TSB13 OCNL LTGICCACG TS NW-NE MOV SW=
200708260114 SPECI KATL 260114Z 18004KT 10SM TS FEW050CB SCT250 26/19 A2996 RMK AO2 TSB13 OCNL LTGICCACG TS NW-NE MOV SW=
200708260052 METAR KATL 260052Z 18005KT 10SM FEW065 SCT250 26/19 A2995 RMK AO2 SLP133 LTG DSNT NE AND SW CB DSNT NE AND SW T02610189=
200708252352 METAR KATL 252352Z 20006KT 9SM SCT065TCU SCT090 BKN110 BKN250 27/20 A2993 RMK AO2 SLP125 TCU VC SW CB DSNT S-SE T02720200 10344 20272 53008=
200708252252 METAR KATL 252252Z 18004KT 10SM SCT065 SCT150 BKN250 32/19 A2991 RMK AO2 SLP114 CB DSNT NE AND SE T03220189=
200708252152 METAR KATL 252152Z VRB03KT 10SM SCT070CB SCT250 33/17 A2991 RMK AO2 SLP115 CB S MOV STNRY T03330172=
200708252052 METAR KATL 252052Z 00000KT 10SM SCT065 SCT080TCU BKN150 34/18 A2991 RMK AO2 SLP115 TCU VC S CB DSNT SE T03390183 56032=
200708251952 METAR KATL 251952Z 33008KT 10SM BKN055 34/19 A2992 RMK AO2 SLP121 CB DSNT SE AND S TCU DSNT N T03390189=
200708251852 METAR KATL 251852Z 23005KT 10SM SCT047TCU BKN150 32/19 A2997 RMK AO2 SLP137 TCU OHD-NE AND DSNT NE T03220194 $=
200708251752 METAR KATL 251752Z 20007KT 10SM SCT041TCU SCT150 31/21 A3000 RMK AO2 SLP149 TCU VC SE AND S T03110206 10322 20233 58012 $=
200708251652 METAR KATL 251652Z 00000KT 10SM SCT045 SCT110 31/20 A3002 RMK AO2 SLP154 T03060200 $=
200708251552 METAR KATL 251552Z VRB04KT 10SM SCT095 SCT150 BKN200 29/21 A3003 RMK AO2 SLP159 T02890206 $=
200708251452 METAR KATL 251452Z 00000KT 10SM SCT110 SCT150 BKN200 27/21 A3004 RMK AO2 SLP162 T02720206 55002 $=
200708251352 METAR KATL 251352Z 12004KT 9SM SCT150 BKN200 BKN250 26/21 A3003 RMK AO2 SLP161 T02560206 $=
200708251252 METAR KATL 251252Z 12004KT 8SM FEW150 SCT200 BKN250 24/21 A3003 RMK AO2 SLP161 T02440211 $=
200708251152 METAR KATL 251152Z 33003KT 8SM SCT150 BKN200 BKN250 23/21 A3005 RMK AO2 SLP165 70015 T02330211 10239 20222 51004 $=
200708251052 METAR KATL 251052Z 32003KT 10SM FEW006 BKN150 BKN250 23/21 A3004 RMK AO2 SLP164 T02280211 $=
200708250955 SPECI KATL 250955Z 34007KT 8SM FEW006 BKN150 BKN250 23/22 A3004 RMK AO2 $=
200708250955 SPECI KATL 250955Z 34007KT 8SM FEW006 BKN150 BKN250 23/22 A3004 RMK AO2 $=
200708250952 METAR KATL 250952Z 34009KT 10SM BKN150 BKN250 23/22 A3004 RMK AO2 SLP160 T02330217 $=
200708250852 METAR KATL 250852Z 00000KT 10SM BKN150 BKN250 23/21 A3003 RMK AO2 SLP158 T02330211 58001 $=
200708250752 METAR KATL 250752Z 07003KT 10SM BKN150 BKN250 23/22 A3004 RMK AO2 SLP160 T02280217 $=
200708250652 METAR KATL 250652Z 00000KT 10SM BKN150 BKN200 OVC250 23/22 A3004 RMK AO2 SLP160 T02280217 $=
200708250552 METAR KATL 250552Z 10003KT 10SM SCT150 BKN200 OVC250 23/21 A3004 RMK AO2 SLP159 60010 T02330211 10239 20222 56017 $=
200708250452 METAR KATL 250452Z 08003KT 9SM SCT040 OVC150 23/21 A3005 RMK AO2 RAE17 SLP164 P0000 T02330211 403500222 $=
200708250352 METAR KATL 250352Z COR 29004KT 8SM -RA SCT030 SCT040 OVC150 22/21 A3006 RMK AO2 SLP169 P0001 T02220206 $=
200708250252 METAR KATL 250252Z 00000KT 8SM -RA SCT023 BKN030CB OVC034 23/21 A3009 RMK AO2 TSE34 SLP179 CB VC SW AND DSNT S-SW-W MOV SW P0005 60009 T02280211 53011 $=
200708250237 SPECI KATL 250237Z 07005KT 9SM -RA FEW010 OVC030CB 23/21 A3009 RMK AO2 TSE34 CB VC SW AND DSNT S-SW-W MOV SW P0005 $=
200708250237 SPECI KATL 250237Z 07005KT 9SM -RA FEW010 OVC030CB 23/21 A3009 RMK AO2 TSE34 CB VC SW AND DSNT S-SW-W MOV SW P0005 $=
200708250152 METAR KATL 250152Z 24005KT 8SM -TSRA FEW010 OVC035CB 23/21 A3004 RMK AO2 TSB37 SLP164 OCNL LTGCGCCICCA TS ALQDS MOV S P0004 T02280206 $=
200708250139 SPECI KATL 250139Z 31004KT 8SM -TSRA FEW015 OVC035CB 23/21 A3003 RMK AO2 TSB37 FRQ LTGCGCCICCA TS ALQDS MOV S P0002 $=
200708250139 SPECI KATL 250139Z 31004KT 8SM -TSRA FEW015 OVC035CB 23/21 A3003 RMK AO2 TSB37 FRQ LTGCGCCICCA TS ALQDS MOV S P0002 $=
200708250052 METAR KATL 250052Z 23007KT 9SM -RA FEW010 OVC047 23/20 A3003 RMK AO2 TSE29RAE15B42 SLP159 LTG DSNT S-SW-NW CB DSNT S-SW-NW MOV SW P0000 T02280200 $=
200708250029 SPECI KATL 250029Z 20007KT 8SM FEW010 BKN090 OVC110 23/21 A3005 RMK AO2 TSE29RAE15 CONS LTG DSNT SE-SW-NW CB DSNT SE-SW-NW MOV SW P0000 $=
200708250029 SPECI KATL 250029Z 20007KT 8SM FEW010 BKN090 OVC110 23/21 A3005 RMK AO2 TSE29RAE15 CONS LTG DSNT SE-SW-NW CB DSNT SE-SW-NW MOV SW P0000 $=
200708242352 METAR KATL 242352Z 21009G17KT 8SM -TSRA SCT018CB OVC065 23/21 A3006 RMK AO2 PK WND 05028/2255 WSHFT 2254 SLP169 CONS LTGCGCCCAIC TS ALQDS MOV SW P0005 60005 T02330211 10350 20233 53026 $=
200708242312 SPECI KATL 242312Z VRB06G22KT 4SM TSRA SCT016CB BKN065 OVC095 24/21 A3003 RMK AO2 PK WND 05028/2255 WSHFT 2254 OCNL LTGCGIC TS ALQDS MOV SW P0003 $=
200708242312 SPECI KATL 242312Z VRB06G22KT 4SM TSRA SCT016CB BKN065 OVC095 24/21 A3003 RMK AO2 PK WND 05028/2255 WSHFT 2254 OCNL LTGCGIC TS ALQDS MOV SW P0003 $=
200708242252 METAR KATL 242252Z 04024G31KT 1 1/2SM +TSRA SCT022CB BKN055 OVC070 24/22 A3001 RMK AO2 PK WND 06045/2234 TSB22RAB39 SLP152 FRQ LTGCGIC TS ALQDS MOV SW VIS 1/4 N-NE-E P0000 T02440217=
200708242246 SPECI KATL 242246Z 05021G36KT 1 1/2SM +TSRA SCT047CB BKN060 BKN090 24/22 A3001 RMK AO2 PK WND 06045/2234 TSB22RAB39 FRQ LTGCGIC TS ALQDS MOV SW P0000=
200708242246 SPECI KATL 242246Z 05021G36KT 1 1/2SM +TSRA SCT047CB BKN060 BKN090 24/22 A3001 RMK AO2 PK WND 06045/2234 TSB22RAB39 FRQ LTGCGIC TS ALQDS MOV SW P0000=
200708242232 SPECI KATL 242232Z 07035G42KT 8SM TS SCT065CB BKN090 BKN250 31/19 A3003 RMK AO2 PK WND 06042/2232 TSB22 PRESRR FRQ LTGCGIC TS OHD AND VC N-NE-E-SE MOV SW CB DSNT S=
200708242232 SPECI KATL 242232Z 07035G42KT 8SM TS SCT065CB BKN090 BKN250 31/19 A3003 RMK AO2 PK WND 06042/2232 TSB22 PRESRR FRQ LTGCGIC TS OHD AND VC N-NE-E-SE MOV SW CB DSNT S=
200708242222 SPECI KATL 242222Z 10009KT 8SM TS SCT060CB BKN110 BKN250 34/19 A2998 RMK AO2 TSB22 OCNL LTGCGIC TS VC N-NE-E-SE MOV SW CB DSNT S=
200708242222 SPECI KATL 242222Z 10009KT 8SM TS SCT060CB BKN110 BKN250 34/19 A2998 RMK AO2 TSB22 OCNL LTGCGIC TS VC N-NE-E-SE MOV SW CB DSNT S=
200708242152 METAR KATL 242152Z 12005KT 8SM SCT060 SCT110 BKN250 34/19 A2997 RMK AO2 SLP134 CB DSNT N-NE-E MOV SW TCU DSNT SE T03440189=
200708242052 METAR KATL 242052Z VRB06KT 9SM FEW055 SCT090 SCT250 34/19 A2998 RMK AO2 SLP138 CB DSNT N-NE SE MOV SW T03440194 56032=
200708242018 SPECI KATL 242018Z 18004KT 9SM FEW060CB SCT080 SCT250 35/20 A2999 RMK AO2 CB DSNT N-NE VC SE MOV SW=
200708242018 SPECI KATL 242018Z 18004KT 9SM FEW060CB SCT080 SCT250 35/20 A2999 RMK AO2 CB DSNT N-NE VC SE MOV SW=
200708241952 METAR KATL 241952Z 16005KT 9SM FEW060TCU SCT070 SCT250 34/20 A3001 RMK AO2 SLP147 TCU N MDT CU ALQDS T03440200=
200708241852 METAR KATL 241852Z VRB03KT 9SM FEW050 SCT250 34/20 A3003 RMK AO2 SLP157 CB DSNT NE TCU DSNT N SE T03390200=
200708241752 METAR KATL 241752Z 27004KT 9SM FEW040 SCT250 33/21 A3007 RMK AO2 SLP172 TCU DSNT NE SE T03330211 10333 20250 58014=
200708241652 METAR KATL 241652Z 17006KT 9SM FEW035 SCT250 31/23 A3010 RMK AO2 SLP180 T03110233=
200708241552 METAR KATL 241552Z 00000KT 9SM FEW030 SCT180 SCT250 30/23 A3011 RMK AO2 SLP186 T03000233=
200708241452 METAR KATL 241452Z 00000KT 8SM FEW180 SCT250 28/24 A3012 RMK AO2 SLP187 T02830239 50007=
200708241352 METAR KATL 241352Z 13003KT 6SM HZ FEW200 BKN250 28/23 A3012 RMK AO2 SLP189 T02780233=
200708241252 METAR KATL 241252Z 14003KT 8SM FEW100 SCT200 SCT250 26/23 A3011 RMK AO2 SLP185 T02610233=
200708241152 METAR KATL 241152Z 07003KT 8SM FEW100 SCT200 SCT250 25/21 A3009 RMK AO2 SLP180 70024 T02500211 10256 20228 53013=
200708241052 METAR KATL 241052Z 09005KT 10SM FEW100 SCT200 BKN250 25/22 A3007 RMK AO2 SLP169 T02500217=
200708240952 METAR KATL 240952Z 00000KT 10SM FEW100 SCT200 BKN250 25/22 A3005 RMK AO2 SLP161 T02500217=
200708240852 METAR KATL 240852Z 00000KT 10SM FEW100 BKN200 BKN250 23/21 A3006 RMK AO2 SLP165 T02330206 56010=
200708240752 METAR KATL 240752Z 00000KT 10SM BKN100 BKN200 OVC250 25/21 A3007 RMK AO2 SLP168 T02500206=
200708240652 METAR KATL 240652Z 00000KT 10SM FEW140 BKN200 OVC250 25/21 A3008 RMK AO2 SLP172 T02500211=
200708240552 METAR KATL 240552Z 00000KT 10SM SCT140 OVC200 24/21 A3009 RMK AO2 SLP175 60024 T02440211 10283 20233 55000=
200708240452 METAR KATL 240452Z COR 00000KT 10SM BKN140 OVC200 24/21 A3008 RMK AO2 RAE01 SLP174 P0000 T02390206 403670233=
200708240352 METAR KATL 240352Z 17003KT 10SM -RA FEW100 OVC140 24/20 A3008 RMK AO2 RAB50 SLP175 PCPN VRY LGT P0000 T02390200=
200708240252 METAR KATL 240252Z 18006KT 10SM FEW100 OVC150 24/20 A3009 RMK AO2 TSE23 SLP178 TS MOV SW CONS LTG DSNT S-SW 60024 T02390200 51020=
200708240224 SPECI KATL 240224Z 22004KT 10SM FEW100 BKN150 OVC200 24/21 A3008 RMK AO2 TSE23 TS MOV SW CONS LTG DSNT S-SW=
200708240224 SPECI KATL 240224Z 22004KT 10SM FEW100 BKN150 OVC200 24/21 A3008 RMK AO2 TSE23 TS MOV SW CONS LTG DSNT S-SW=
200708240152 METAR KATL 240152Z 19007KT 10SM TS FEW045CB SCT080 BKN140 OVC200 24/21 A3008 RMK AO2 PK WND 06028/0103 WSHFT 0057 RAE52 SLP175 CONS LTGICCGCA TS VC SE-SW MOV SW P0024 T02440206=
200708240114 SPECI KATL 240114Z 09015G22KT 6SM TSRA BR FEW025 BKN045CB OVC070 23/22 A3010 RMK AO2 PK WND 06028/0103 WSHFT 0057 CONS LTGICCG TS N-E-S-W MOV SW P0019=
200708240114 SPECI KATL 240114Z 09015G22KT 6SM TSRA BR FEW025 BKN045CB OVC070 23/22 A3010 RMK AO2 PK WND 06028/0103 WSHFT 0057 CONS LTGICCG TS N-E-S-W MOV SW P0019=
200708240110 SPECI KATL 240110Z 09020G28KT 4SM TSRA BR FEW025 BKN045CB OVC070 24/22 A3011 RMK AO2 PK WND 06028/0103 CONS LTGICCG TS OHD-ALQDS MOV SW P0012=
200708240110 SPECI KATL 240110Z 09020G28KT 4SM TSRA BR FEW025 BKN045CB OVC070 24/22 A3011 RMK AO2 PK WND 06028/0103 CONS LTGICCG TS OHD-ALQDS MOV SW P0012=
200708240102 SPECI KATL 240102Z 08017G27KT 1 1/2SM +TSRA FEW025 OVC045CB 26/22 A3011 RMK AO2 PK WND 06027/0102 PRESRR CONS LTGICCG TS OHD-ALQDS MOV SW P0003=
200708240102 SPECI KATL 240102Z 08017G27KT 1 1/2SM +TSRA FEW025 OVC045CB 26/22 A3011 RMK AO2 PK WND 06027/0102 PRESRR CONS LTGICCG TS OHD-ALQDS MOV SW P0003=
200708240058 SPECI KATL 240058Z 07017G23KT 2 1/2SM +TSRA FEW025 BKN045CB OVC070 27/21 A3010 RMK AO2 PRESRR CONS LTGICCG TS OHD-ALQDS MOV SW P0001=
200708240058 SPECI KATL 240058Z 07017G23KT 2 1/2SM +TSRA FEW025 BKN045CB OVC070 27/21 A3010 RMK AO2 PRESRR CONS LTGICCG TS OHD-ALQDS MOV SW P0001=
200708240052 METAR KATL 240052Z 27003KT 8SM -TSRA FEW025 BKN045CB BKN100 OVC200 27/21 A3009 RMK AO2 RAB44 PRESRR SLP180 CONS LTGICCG TS E-OHD AND S-SW MOV SW P0000 T02720206=
200708240017 SPECI KATL 240017Z 25012G19KT 10SM TS SCT050CB BKN080 BKN200 BKN250 28/22 A3005 RMK AO2 CONS LTGICCG TS VC SW AND NE MOV SW TCU SE-SW=
200708240017 SPECI KATL 240017Z 25012G19KT 10SM TS SCT050CB BKN080 BKN200 BKN250 28/22 A3005 RMK AO2 CONS LTGICCG TS VC SW AND NE MOV SW TCU SE-SW=
200708232352 METAR KATL 232352Z 29013G21KT 10SM TS SCT050CB SCT075 BKN200 BKN250 29/22 A3003 RMK AO2 SLP158 FRQ LTGCGIC TS VC SW MOV SW TCU SW-W CB DSNT NE T02890217 10367 20289 53002=
200708232252 METAR KATL 232252Z 16006KT 10SM TS FEW055CB SCT150 BKN200 34/21 A3001 RMK AO2 TSB52 SLP150 FRQ LTGCG TS VC NW-N AND DSNT NE MOV S T03440211=
200708232152 METAR KATL 232152Z 13009G16KT 10SM SCT065TCU SCT100 BKN200 36/22 A3003 RMK AO2 SLP156 TCU OHD-W AND DSNT N-NE AND S T03560217=
200708232052 METAR KATL 232052Z 15006KT 9SM FEW065TCU SCT200 BKN250 35/21 A3002 RMK AO2 SLP153 CB DSNT SW N MOV S TCU NW T03500206 56020=
200708231952 METAR KATL 231952Z 00000KT 9SM FEW060 SCT200 SCT250 36/22 A3004 RMK AO2 SLP158 CB DSNT N-NE TCU DSNT NW T03610222=
200708231852 METAR KATL 231852Z VRB05KT 9SM FEW055 SCT200 SCT250 36/22 A3006 RMK AO2 SLP165 T03560217=
200708231752 METAR KATL 231752Z VRB04KT 9SM FEW200 BKN250 34/22 A3008 RMK AO2 SLP173 T03440222 10344 20244 58015=
200708231652 METAR KATL 231652Z VRB05KT 9SM FEW200 BKN250 33/23 A3011 RMK AO2 SLP180 T03280233=
200708231552 METAR KATL 231552Z 16006KT 8SM FEW095 SCT250 31/23 A3013 RMK AO2 SLP189 ACC NW T03060233=
200708231452 METAR KATL 231452Z 13004KT 9SM FEW025 SCT095 SCT250 29/23 A3013 RMK AO2 SLP188 T02890233 51005=
200708231352 METAR KATL 231352Z 18004KT 8SM FEW050 BKN095 BKN250 28/23 A3012 RMK AO2 SLP188 ACC OHD ALQDS T02780228=
200708231252 METAR KATL 231252Z 15006KT 9SM FEW085 SCT200 SCT250 26/21 A3012 RMK AO2 SLP186 T02610211=
200708231152 METAR KATL 231152Z 12004KT 10SM FEW085 SCT200 BKN250 22/22 A3011 RMK AO2 SLP185 T02220217 10283 20222 51019=
200708231052 METAR KATL 231052Z 12007G14KT 10SM FEW085 BKN250 25/22 A3011 RMK AO2 SLP181 ACC SW-NW T02500217=
200708230952 METAR KATL 230952Z 08009G21KT 10SM FEW090 SCT110 BKN250 26/22 A3009 RMK AO2 SLP174 T02560222=
200708230852 METAR KATL 230852Z 00000KT 10SM FEW085 SCT110 BKN250 27/22 A3006 RMK AO2 SLP164 ACC W-NW T02720222 56005=
200708230752 METAR KATL 230752Z 15003KT 10SM FEW075 SCT110 BKN250 27/22 A3006 RMK AO2 SLP166 T02720222=
200708230652 METAR KATL 230652Z 15003KT 10SM FEW100 SCT250 27/22 A3006 RMK AO2 SLP167 T02720222=
200708230552 METAR KATL 230552Z 14003KT 10SM FEW065 SCT090 BKN200 28/22 A3007 RMK AO2 SLP169 T02830217 10356 20283 50001=
200708230452 METAR KATL 230452Z 12007KT 10SM FEW080 SCT120 SCT200 29/22 A3008 RMK AO2 WSHFT 0345 TSB06E34 SLP173 TS DSIPTD T02940217 404000261=
200708230435 SPECI KATL 230435Z 04005KT 10SM SCT090 BKN120 BKN250 29/22 A3009 RMK AO2 WSHFT 0345 TSB06E34 TS DSIPTD=
200708230435 SPECI KATL 230435Z 04005KT 10SM SCT090 BKN120 BKN250 29/22 A3009 RMK AO2 WSHFT 0345 TSB06E34 TS DSIPTD=
200708230406 SPECI KATL 230406Z 13008G21KT 10SM TS FEW060CB BKN090 BKN120 BKN250 29/21 A3008 RMK AO2 WSHFT 0345 TSB06 OCNL LTGCG TS VC NW MOV S=
200708230406 SPECI KATL 230406Z 13008G21KT 10SM TS FEW060CB BKN090 BKN120 BKN250 29/21 A3008 RMK AO2 WSHFT 0345 TSB06 OCNL LTGCG TS VC NW MOV S=
200708230403 SPECI KATL 230403Z 12012G21KT 10SM BKN090 BKN120 BKN250 30/21 A3008 RMK AO2 WSHFT 0345 OCNL LTG DSNT NW=
200708230403 SPECI KATL 230403Z 12012G21KT 10SM BKN090 BKN120 BKN250 30/21 A3008 RMK AO2 WSHFT 0345 OCNL LTG DSNT NW=
200708230352 METAR KATL 230352Z 11011G19KT 10SM BKN095 BKN200 31/20 A3009 RMK AO2 SLP174 OCNL LTG DSNT NW T03060200=
200708230252 METAR KATL 230252Z 29003KT 10SM FEW110 33/18 A3007 RMK AO2 SLP167 T03330178 51008=
200708230152 METAR KATL 230152Z 27004KT 10SM FEW100 33/17 A3006 RMK AO2 SLP166 T03330172=
200708230052 METAR KATL 230052Z 28004KT 10SM FEW075 34/18 A3005 RMK AO2 SLP163 T03440178=
200708222352 METAR KATL 222352Z 27006KT 10SM FEW250 36/18 A3005 RMK AO2 SLP160 T03560178 10400 20356 55002=
200708222252 METAR KATL 222252Z 31006KT 10SM FEW080 38/17 A3004 RMK AO2 SLP157 T03780172=
200708222152 METAR KATL 222152Z 30010KT 10SM FEW085 SCT250 38/17 A3005 RMK AO2 SLP160 T03830172=
200708222052 METAR KATL 222052Z VRB03KT 10SM FEW085 SCT250 38/18 A3005 RMK AO2 SLP162 T03830178 56025=
200708221952 METAR KATL 221952Z 00000KT 10SM FEW080TCU SCT250 37/18 A3007 RMK AO2 SLP170 TCU W T03720178=
200708221852 METAR KATL 221852Z 34011KT 10SM FEW080 SCT250 38/19 A3010 RMK AO2 SLP179 MDT CU DSNT NE SE W T03780189=
200708221752 METAR KATL 221752Z 02005KT 10SM SCT075 37/19 A3013 RMK AO2 SLP188 MDT CU ALQDS T03670189 10372 20272 58015=
200708221652 METAR KATL 221652Z VRB04KT 10SM FEW070TCU SCT085 SCT250 36/20 A3015 RMK AO2 SLP195 TCU NE-SE T03610200=
200708221552 METAR KATL 221552Z VRB06KT 10SM FEW060 SCT080 SCT250 36/21 A3017 RMK AO2 SLP200 ACC DSNT NE NW T03560206=
200708221452 METAR KATL 221452Z 32005KT 10SM FEW080 SCT250 33/21 A3017 RMK AO2 SLP204 ACC DSNT NW-N T03280211 51007=
200708221352 METAR KATL 221352Z 30005KT 10SM FEW040 SCT080 SCT250 31/21 A3017 RMK AO2 SLP203 T03110211=
200708221252 METAR KATL 221252Z 28004KT 10SM FEW075 29/21 A3016 RMK AO2 SLP200 ACC VC W T02940211=
200708221152 METAR KATL 221152Z 27004KT 9SM FEW075 27/21 A3015 RMK AO2 SLP197 ACC S AND VC W T02670211 10289 20261 51017=
200708221052 METAR KATL 221052Z 27004KT 10SM FEW075 SCT150 27/21 A3014 RMK AO2 SLP192 T02670211=
200708220952 METAR KATL 220952Z 27003KT 10SM FEW075 SCT150 27/21 A3012 RMK AO2 SLP185 T02720211=
200708220852 METAR KATL 220852Z 24003KT 10SM FEW110 28/21 A3010 RMK AO2 SLP179 T02780211 53004=
200708220752 METAR KATL 220752Z 27005KT 10SM FEW110 27/21 A3008 RMK AO2 SLP173 T02720211=
200708220652 METAR KATL 220652Z 24003KT 10SM CLR 28/22 A3008 RMK AO2 SLP173 T02830217=
200708220552 METAR KATL 220552Z 23004KT 10SM CLR 29/22 A3009 RMK AO2 SLP175 T02890217 10350 20289 58004=
200708220452 METAR KATL 220452Z COR 23004KT 10SM CLR 30/21 A3010 RMK AO2 SLP177 T03000211 403720250=
200708220352 METAR KATL 220352Z 00000KT 10SM FEW250 31/21 A3010 RMK AO2 SLP180 T03060211=
200708220252 METAR KATL 220252Z 00000KT 10SM FEW250 32/21 A3010 RMK AO2 SLP179 T03170211 51008=
200708220152 METAR KATL 220152Z 00000KT 10SM FEW250 32/21 A3009 RMK AO2 SLP177 T03220206=
200708220052 METAR KATL 220052Z 22003KT 10SM FEW065 33/21 A3008 RMK AO2 SLP173 T03330206=
200708212352 METAR KATL 212352Z 21007KT 10SM FEW065 35/20 A3008 RMK AO2 SLP172 10372 20344 T03500200 55005=
200708212252 METAR KATL 212252Z 21010KT 10SM FEW070 SCT250 36/20 A3007 RMK AO2 SLP171 T03560200=
200708212152 METAR KATL 212152Z 22010KT 10SM FEW070 BKN250 36/20 A3008 RMK AO2 SLP172 MDT CU VC N-NE AND NW T03610200=
200708212052 METAR KATL 212052Z 23008KT 10SM FEW070 BKN250 37/20 A3009 RMK AO2 SLP176 TCU DSNT W NW T03670200 57018=
200708211952 METAR KATL 211952Z 26007G17KT 220V300 10SM FEW070 BKN250 36/20 A3011 RMK AO2 SLP182 MDT CU W-N T03610200=
200708211852 METAR KATL 211852Z 30008KT 10SM SCT060 SCT250 36/21 A3013 RMK AO2 SLP188 MDT CU NW-N T03560206=
200708211752 METAR KATL 211752Z 24008KT 10SM SCT060 SCT250 35/21 A3015 RMK AO2 SLP194 MDT CU NE SE W NW T03500211 10361 20256 58015=
200708211652 METAR KATL 211652Z 25008KT 10SM SCT055 34/21 A3016 RMK AO2 SLP199 MDT CU NE SE NW T03440206=
200708211552 METAR KATL 211552Z 30011G17KT 10SM SCT045 34/22 A3018 RMK AO2 SLP206 T03390222=
200708211452 METAR KATL 211452Z 31008KT 10SM FEW040 SCT250 32/23 A3019 RMK AO2 SLP209 T03220228 51010=
200708211352 METAR KATL 211352Z 29010KT 10SM CLR 30/23 A3018 RMK AO2 SLP207 T03000228=
200708211252 METAR KATL 211252Z 27006KT 10SM CLR 28/22 A3017 RMK AO2 SLP203 T02830217=
200708211152 METAR KATL 211152Z 21003KT 10SM CLR 26/21 A3016 RMK AO2 SLP200 T02560211 10278 20250 51016=
200708211052 METAR KATL 211052Z 22003KT 10SM CLR 26/21 A3014 RMK AO2 SLP194 T02560211=
200708210952 METAR KATL 210952Z 17003KT 10SM CLR 26/21 A3013 RMK AO2 SLP190 T02610211=
200708210852 METAR KATL 210852Z 25003KT 10SM CLR 27/21 A3011 RMK AO2 SLP183 T02670211 53001=
200708210752 METAR KATL 210752Z 23004KT 10SM CLR 27/21 A3011 RMK AO2 SLP181 T02670211=
200708210652 METAR KATL 210652Z 22006KT 10SM CLR 27/21 A3010 RMK AO2 SLP180 T02720211=
200708210552 METAR KATL 210552Z 21007KT 10SM CLR 28/21 A3011 RMK AO2 SLP181 T02780211 10339 20278 51003=
200708210452 METAR KATL 210452Z 20006KT 10SM CLR 28/21 A3011 RMK AO2 SLP182 T02830211 403560244=
200708210352 METAR KATL 210352Z 20006KT 10SM CLR 29/21 A3011 RMK AO2 SLP182 T02890206=
200708210252 METAR KATL 210252Z 22004KT 10SM CLR 30/20 A3010 RMK AO2 SLP179 T03000200 53006=
200708210152 METAR KATL 210152Z 22004KT 10SM CLR 31/20 A3009 RMK AO2 SLP175 T03110200=
200708210052 METAR KATL 210052Z 21005KT 10SM CLR 32/19 A3008 RMK AO2 SLP173 T03220194=
200708202352 METAR KATL 202352Z 22006KT 10SM FEW200 34/19 A3008 RMK AO2 SLP172 T03390189 10356 20328 55002=
200708202252 METAR KATL 202252Z 21008KT 10SM FEW065 34/19 A3007 RMK AO2 SLP171 T03440189=
200708202152 METAR KATL 202152Z 23008KT 10SM SCT065 34/19 A3008 RMK AO2 SLP172 T03440189=
200708202052 METAR KATL 202052Z 20007G15KT 10SM SCT065 34/19 A3008 RMK AO2 SLP174 T03440194 56017=
200708201952 METAR KATL 201952Z 20010G15KT 10SM SCT065 SCT250 35/20 A3010 RMK AO2 SLP179 T03500200=
200708201852 METAR KATL 201852Z 25007G14KT 10SM SCT060 34/20 A3012 RMK AO2 SLP187 T03440200=
200708201752 METAR KATL 201752Z 22008KT 10SM SCT050 34/21 A3014 RMK AO2 SLP192 T03390206 10344 20250 58010=
200708201652 METAR KATL 201652Z 22011G18KT 10SM SCT048 33/21 A3015 RMK AO2 SLP196 T03280206=
200708201552 METAR KATL 201552Z 21010KT 10SM FEW045 31/21 A3016 RMK AO2 SLP201 T03110211=
200708201452 METAR KATL 201452Z 20006G15KT 10SM FEW030 30/21 A3017 RMK AO2 SLP203 T03000211 53006=
200708201352 METAR KATL 201352Z 23004KT 10SM CLR 29/22 A3016 RMK AO2 SLP200 T02890217=
200708201252 METAR KATL 201252Z 21004KT 8SM CLR 26/21 A3015 RMK AO2 SLP199 T02610211=
200708201152 METAR KATL 201152Z 20005KT 10SM CLR 25/21 A3015 RMK AO2 SLP197 T02500211 10267 20244 53009=
200708201052 METAR KATL 201052Z 22003KT 10SM CLR 24/21 A3013 RMK AO2 SLP191 T02440206=
200708200952 METAR KATL 200952Z 22004KT 10SM CLR 25/19 A3012 RMK AO2 SLP188 T02500194 $=
200708200852 METAR KATL 200852Z 21006KT 10SM CLR 26/19 A3012 RMK AO2 SLP186 T02560194 55000 $=
200708200752 METAR KATL 200752Z 21007KT 10SM CLR 26/19 A3012 RMK AO2 SLP187 T02610194 $=
200708200652 METAR KATL 200652Z 20006KT 10SM CLR 26/19 A3011 RMK AO2 SLP185 T02610189 $=
200708200552 METAR KATL 200552Z 19006KT 10SM FEW250 27/19 A3012 RMK AO2 SLP186 T02670189 10328 20267 50001 $=
200708200452 METAR KATL 200452Z 19007KT 8SM FEW200 27/20 A3012 RMK AO2 SLP187 T02720200 403500244 $=
200708200352 METAR KATL 200352Z 20008KT 8SM FEW200 28/20 A3012 RMK AO2 SLP187 T02780200 $=
200708200252 METAR KATL 200252Z 19005KT 8SM FEW200 29/19 A3012 RMK AO2 SLP186 T02890194 51015 $=
200708200152 METAR KATL 200152Z 18006KT 10SM SCT200 30/19 A3011 RMK AO2 SLP183 T03000194 $=
200708200052 METAR KATL 200052Z 19005KT 10SM FEW150 SCT250 31/18 A3009 RMK AO2 SLP178 T03110178 $=
200708192352 METAR KATL 192352Z 18009KT 10SM FEW065 SCT250 33/17 A3007 RMK AO2 SLP170 T03280172 10350 20328 55009 $=
200708192252 METAR KATL 192252Z 21006KT 10SM FEW075 SCT250 34/15 A3006 RMK AO2 SLP167 T03390150 $=
200708192152 METAR KATL 192152Z 16009KT 10SM FEW085 34/14 A3008 RMK AO2 SLP172 TCU DSNT NW T03440144 $=
200708192052 METAR KATL 192052Z 18007KT 10SM FEW085 35/14 A3010 RMK AO2 SLP179 T03500139 56022 $=
200708191952 METAR KATL 191952Z 13004KT 10SM FEW080 34/14 A3012 RMK AO2 SLP186 T03440139 $=
200708191852 METAR KATL 191852Z 13007KT 10SM FEW075 34/14 A3014 RMK AO2 SLP193 T03390139 $=
200708191752 METAR KATL 191752Z 14005KT 10SM FEW060 33/17 A3016 RMK AO2 SLP202 T03330167 10333 20244 58011 $=
200708191652 METAR KATL 191652Z 12006KT 10SM FEW050 32/18 A3018 RMK AO2 SLP207 T03220183 $=
200708191552 METAR KATL 191552Z VRB04KT 10SM FEW031 30/19 A3020 RMK AO2 SLP214 T03000189 $=
200708191452 METAR KATL 191452Z COR 00000KT 8SM FEW035 28/19 A3020 RMK AO2 SLP214 T02780194 51015 $=
200708191352 METAR KATL 191352Z 17004KT 8SM CLR 26/21 A3018 RMK AO2 SLP208 T02610211 $=
200708191252 METAR KATL 191252Z 16005KT 7SM CLR 25/21 A3017 RMK AO2 SLP207 T02500211 $=
200708191152 METAR KATL 191152Z 14005KT 5SM HZ CLR 24/22 A3015 RMK AO2 SLP199 T02440217 10272 20244 52010 $=
200708191052 METAR KATL 191052Z 15006KT 5SM HZ CLR 24/21 A3014 RMK AO2 SLP194 T02440211=
200708190952 METAR KATL 190952Z 16004KT 5SM HZ CLR 25/22 A3013 RMK AO2 SLP191 T02500222=
200708190852 METAR KATL 190852Z 00000KT 6SM HZ SCT250 25/21 A3012 RMK AO2 SLP187 T02500211 56005=
200708190752 METAR KATL 190752Z 12004KT 6SM HZ FEW250 26/22 A3012 RMK AO2 SLP188 T02610217=
200708190652 METAR KATL 190652Z 13003KT 6SM HZ FEW250 27/22 A3013 RMK AO2 SLP189 T02720217=
200708190552 METAR KATL 190552Z 00000KT 6SM HZ FEW250 27/21 A3014 RMK AO2 SLP191 T02720211 10300 20272 50002=
200708190452 METAR KATL 190452Z 00000KT 6SM HZ FEW250 27/21 A3014 RMK AO2 SLP194 T02720211 403610222=
200708190352 METAR KATL 190352Z 00000KT 7SM FEW250 28/21 A3014 RMK AO2 SLP193 T02780206=
200708190252 METAR KATL 190252Z 00000KT 8SM FEW075 SCT250 28/20 A3013 RMK AO2 SLP190 T02830200 51015=
200708190152 METAR KATL 190152Z 00000KT 9SM FEW050 SCT250 29/19 A3012 RMK AO2 TSE17 SLP187 TS MOV W T02890194=
200708190121 SPECI KATL 190121Z 25003KT 8SM FEW055 SCT250 28/19 A3011 RMK AO2 TSE17 LTG DSNT W TS MOV W=
200708190121 SPECI KATL 190121Z 25003KT 8SM FEW055 SCT250 28/19 A3011 RMK AO2 TSE17 LTG DSNT W TS MOV W=
200708190052 METAR KATL 190052Z 23005KT 7SM TS FEW055CB SCT075 SCT250 28/18 A3011 RMK AO2 SLP185 FRQ LTGICCACG TS SW MOV NW T02780178=
200708182352 METAR KATL 182352Z 00000KT 6SM TS HZ SCT060CB SCT250 29/20 A3009 RMK AO2 TSE10B28 SLP177 FRQ LTGICCACG TS N MOV W TCU VC SE SHRA E CB DSNT SW T02940200 10361 20294 53001=
200708182329 SPECI KATL 182329Z 22010KT 6SM TS HZ SCT060CB SCT250 31/19 A3007 RMK AO2 TSE10B28 OCNL LTGIC TS NE MOV SW=
200708182329 SPECI KATL 182329Z 22010KT 6SM TS HZ SCT060CB SCT250 31/19 A3007 RMK AO2 TSE10B28 OCNL LTGIC TS NE MOV SW=
200708182311 SPECI KATL 182311Z 20010G15KT 6SM HZ SCT065TCU SCT250 33/19 A3007 RMK AO2 TSE10 TCU VC NE TS MOV SW=
200708182311 SPECI KATL 182311Z 20010G15KT 6SM HZ SCT065TCU SCT250 33/19 A3007 RMK AO2 TSE10 TCU VC NE TS MOV SW=
200708182252 METAR KATL 182252Z 10011KT 7SM TS FEW065CB SCT250 34/20 A3007 RMK AO2 TSB03 SLP169 OCNL LTGICCG TS SW MOV NW T03440200=
200708182204 SPECI KATL 182204Z 10006KT 7SM TS FEW060CB 35/20 A3007 RMK AO2 TSB03 OCNL LTGIC TS VC S-SW MOV NW=
200708182204 SPECI KATL 182204Z 10006KT 7SM TS FEW060CB 35/20 A3007 RMK AO2 TSB03 OCNL LTGIC TS VC S-SW MOV NW=
200708182152 METAR KATL 182152Z 10009KT 7SM FEW060TCU 35/21 A3007 RMK AO2 SLP170 TCU VC SE CB DSNT SW T03500206=
200708182052 METAR KATL 182052Z 13008G14KT 8SM SCT065 36/21 A3008 RMK AO2 SLP174 T03560211 58012=
200708181952 METAR KATL 181952Z 15009G16KT 8SM SCT060 SCT200 35/21 A3010 RMK AO2 SLP181 T03500211=
200708181852 METAR KATL 181852Z 11009G19KT 8SM FEW055 SCT150 BKN200 34/21 A3011 RMK AO2 SLP185 T03440206=
200708181752 METAR KATL 181752Z 09010G18KT 8SM FEW150 BKN250 34/21 A3012 RMK AO2 SLP187 T03440206 10350 20233 56008=
200708181652 METAR KATL 181652Z 08009KT 030V120 8SM BKN250 34/21 A3012 RMK AO2 SLP189 T03390206=
200708181552 METAR KATL 181552Z 11009KT 8SM BKN250 32/20 A3014 RMK AO2 SLP194 T03220200=
200708181452 METAR KATL 181452Z 06006KT 6SM HZ BKN250 30/22 A3015 RMK AO2 SLP196 T03000222 53008=
200708181352 METAR KATL 181352Z 33007KT 5SM HZ BKN250 27/22 A3013 RMK AO2 SLP192 T02670222=
200708181252 METAR KATL 181252Z 36007KT 5SM HZ BKN250 25/21 A3013 RMK AO2 SLP193 T02500211=
200708181152 METAR KATL 181152Z 35006KT 5SM HZ BKN250 23/21 A3012 RMK AO2 SLP188 T02330206 10233 20222 53013=
200708181052 METAR KATL 181052Z 31008KT 6SM BR FEW250 23/21 A3010 RMK AO2 SLP182 T02280206=
200708180952 METAR KATL 180952Z 30007KT 5SM BR CLR 22/21 A3008 RMK AO2 SLP177 T02220206=
200708180852 METAR KATL 180852Z 29008KT 6SM BR CLR 23/21 A3008 RMK AO2 SLP173 T02280211 58003=
200708180844 SPECI KATL 180844Z 29006KT 6SM BR CLR 23/21 A3008 RMK AO2=
200708180844 SPECI KATL 180844Z 29006KT 6SM BR CLR 23/21 A3008 RMK AO2=
200708180752 METAR KATL 180752Z 27009KT 5SM BR BKN007 23/21 A3009 RMK AO2 SLP175 T02280206=
200708180652 METAR KATL 180652Z 24006KT 5SM BR FEW007 SCT010 BKN180 23/21 A3010 RMK AO2 SLP178 T02280211=
200708180647 SPECI KATL 180647Z 24006KT 5SM BR FEW007 SCT010 BKN180 23/21 A3009 RMK AO2=
200708180647 SPECI KATL 180647Z 24006KT 5SM BR FEW007 SCT010 BKN180 23/21 A3009 RMK AO2=
200708180552 METAR KATL 180552Z 27007KT 5SM BR BKN180 23/21 A3009 RMK AO2 SLP176 T02330211 10289 20233 58001=
200708180452 METAR KATL 180452Z 24008KT 10SM BKN250 23/21 A3009 RMK AO2 SLP177 T02330211 403830233=
200708180352 METAR KATL 180352Z 21009KT 10SM FEW150 BKN250 25/22 A3010 RMK AO2 SLP181 T02500217=
200708180252 METAR KATL 180252Z 19006KT 10SM FEW075 SCT200 BKN250 27/21 A3009 RMK AO2 TSE23 SLP178 TS MOV S T02670206 53025=
200708180224 SPECI KATL 180224Z 13007KT 10SM BKN070 OVC200 27/20 A3009 RMK AO2 TSE23 TS MOV S FRQ LTG DSNT S-SW=
200708180224 SPECI KATL 180224Z 13007KT 10SM BKN070 OVC200 27/20 A3009 RMK AO2 TSE23 TS MOV S FRQ LTG DSNT S-SW=
200708180152 METAR KATL 180152Z 15011G15KT 10SM TS FEW050CB OVC070 28/20 A3008 RMK AO2 TSB25 SLP172 FRQ LTGICCG TS VC SW MOV S T02780200=
200708180125 SPECI KATL 180125Z 24006KT 10SM TS FEW050CB SCT070 BKN150 OVC200 28/19 A3005 RMK AO2 TSB25 OCNL LTGIC TS W-NW MOV S CB W-NW AND VC SW MOV S=
200708180125 SPECI KATL 180125Z 24006KT 10SM TS FEW050CB SCT070 BKN150 OVC200 28/19 A3005 RMK AO2 TSB25 OCNL LTGIC TS W-NW MOV S CB W-NW AND VC SW MOV S=
200708180052 METAR KATL 180052Z 23004KT 10SM BKN070 BKN090 OVC200 28/20 A3003 RMK AO2 SLP157 LTG DSNT NE-E T02830200=
200708172352 METAR KATL 172352Z 26005KT 8SM FEW075 SCT150 OVC200 29/20 A3002 RMK AO2 SLP152 T02890200 10383 20289 53013=
200708172252 METAR KATL 172252Z 33009KT 8SM FEW100 BKN150 OVC200 30/19 A3000 RMK AO2 SLP147 CB DSNT E-SE T03000194=
200708172152 METAR KATL 172152Z 30012KT 8SM FEW060 BKN150 OVC200 30/19 A2998 RMK AO2 WSHFT 2053 SLP141 CB DSNT N-NE AND E-S T03000189=
200708172111 SPECI KATL 172111Z 29019G25KT 9SM FEW065 BKN150 OVC200 32/19 A2999 RMK AO2 WSHFT 2053 CB DSNT NE-SE AND SW-W=
200708172111 SPECI KATL 172111Z 29019G25KT 9SM FEW065 BKN150 OVC200 32/19 A2999 RMK AO2 WSHFT 2053 CB DSNT NE-SE AND SW-W=
200708172052 METAR KATL 172052Z 35009KT 9SM FEW070TCU SCT150 BKN220 36/19 A2998 RMK AO2 SLP137 LTG DSNT SW-N CB DSNT SW-N MOV S TCU DSNT NE VC S-SW T03610194 58025=
200708172031 SPECI KATL 172031Z 01007KT 9SM FEW070 SCT150 SCT220 37/20 A2998 RMK AO2 LTG DSNT W-N CB DSNT W-N MOV S TCU DSNT NE=
200708172031 SPECI KATL 172031Z 01007KT 9SM FEW070 SCT150 SCT220 37/20 A2998 RMK AO2 LTG DSNT W-N CB DSNT W-N MOV S TCU DSNT NE=
200708171952 METAR KATL 171952Z 02010KT 9SM FEW070TCU SCT150 38/21 A3000 RMK AO2 SLP146 TCU VC SW NW T03780211=
200708171852 METAR KATL 171852Z 34004KT 8SM FEW150 SCT220 38/21 A3004 RMK AO2 SLP156 T03780211=
200708171752 METAR KATL 171752Z 34007KT 310V010 7SM FEW100 BKN150 BKN220 36/21 A3005 RMK AO2 SLP163 T03560211 10361 20272 58007=
200708171652 METAR KATL 171652Z 35005KT 7SM FEW100 BKN150 BKN220 34/22 A3007 RMK AO2 SLP168 T03390217=
200708171552 METAR KATL 171552Z 31008KT 6SM HZ SCT150 SCT220 33/22 A3007 RMK AO2 SLP170 T03280222=
200708171452 METAR KATL 171452Z 29007KT 7SM SCT220 31/21 A3007 RMK AO2 SLP171 T03060206 50004=
200708171352 METAR KATL 171352Z 29008KT 6SM HZ FEW150 SCT230 29/22 A3008 RMK AO2 SLP172 T02890217=
200708171252 METAR KATL 171252Z 27006KT 9SM SCT140 SCT250 28/21 A3006 RMK AO2 SLP167 T02780211=
200708171152 METAR KATL 171152Z 26006KT 8SM FEW120 BKN250 27/21 A3006 RMK AO2 SLP167 60025 70025 T02720211 10294 20256 53007=
200708171052 METAR KATL 171052Z 25006KT 9SM FEW120 BKN250 27/21 A3005 RMK AO2 SLP162 T02670211=
200708170952 METAR KATL 170952Z 25005KT 10SM FEW120 SCT250 27/22 A3005 RMK AO2 SLP161 T02670217=
200708170852 METAR KATL 170852Z 25008KT 10SM SCT120 BKN250 26/22 A3004 RMK AO2 TSE08RAE0757 SLP159 P0000 60025 T02610222 58006=
200708170809 SPECI KATL 170809Z 25011KT 10SM FEW048 SCT110 BKN250 26/22 A3004 RMK AO2 TSE08RAE0757 TS MOV S OCNL LTG DSNT SW CB DSNT SW P0000=
200708170809 SPECI KATL 170809Z 25011KT 10SM FEW048 SCT110 BKN250 26/22 A3004 RMK AO2 TSE08RAE0757 TS MOV S OCNL LTG DSNT SW CB DSNT SW P0000=
200708170752 METAR KATL 170752Z 23014G22KT 8SM -TSRA FEW048CB BKN110 OVC200 26/22 A3004 RMK AO2 SLP159 OCNL LTGICCG TS VC SW MOV S P0025 T02610222=
200708170652 METAR KATL 170652Z 03006KT 4SM TSRA BKN048CB OVC090 29/21 A3006 RMK AO2 RAB49 SLP166 OCNL LTGICCG TS OHD-N MOV S VIS N-NE 1 1/2SM P0000 T02890211 $=
200708170552 METAR KATL 170552Z 21005KT 10SM TS SCT048CB BKN090 OVC200 29/21 A3006 RMK AO2 TSB50 SLP164 OCNL LTGICCG TS VC NW MOV S T02890206 10333 20289 51004=
200708170452 METAR KATL 170452Z 21008KT 10SM FEW100 SCT250 29/21 A3006 RMK AO2 SLP164 T02940206 403830261=
200708170352 METAR KATL 170352Z 20009KT 10SM FEW080 SCT100 30/21 A3006 RMK AO2 SLP164 OCNL LTG DSNT E-SE T03000206=
200708170252 METAR KATL 170252Z 21008KT 10SM FEW100 31/21 A3004 RMK AO2 SLP160 CB DSNT NE T03060206 53015=
200708170152 METAR KATL 170152Z 19008KT 10SM SCT085 BKN100 31/21 A3003 RMK AO2 SLP156 T03110206=
200708170052 METAR KATL 170052Z 20008KT 10SM FEW085 SCT110 32/20 A3001 RMK AO2 SLP149 T03220200=
200708162352 METAR KATL 162352Z 19007KT 8SM SCT100 33/20 A3000 RMK AO2 SLP146 T03330200 10383 20333 55004=
200708162252 METAR KATL 162252Z 15007KT 8SM FEW100 SCT150 35/19 A3000 RMK AO2 SLP145 TCU DSNT S T03500194=
200708162152 METAR KATL 162152Z 11008KT 8SM FEW080 SCT140 36/19 A2999 RMK AO2 SLP142 T03560194=
200708162052 METAR KATL 162052Z 11017G21KT 7SM BKN070CB BKN090 35/17 A3001 RMK AO2 SLP149 CB OHD-NE-SE MOV STNRY SHRA NE-SE T03500172 56014=
200708162022 SPECI KATL 162022Z 28006KT 8SM BKN080CB BKN100 BKN200 38/18 A3001 RMK AO2 CB OHD-NE MOV SE SHRA NE=
200708162022 SPECI KATL 162022Z 28006KT 8SM BKN080CB BKN100 BKN200 38/18 A3001 RMK AO2 CB OHD-NE MOV SE SHRA NE=
200708161952 METAR KATL 161952Z VRB03KT 8SM SCT080TCU SCT100 SCT200 37/19 A3002 RMK AO2 SLP151 TCU N-NE T03720194=
200708161925 SPECI KATL 161925Z 23004KT 8SM SCT080CB SCT100 SCT200 37/19 A3003 RMK AO2 CB VC NW MOV SE SHRA VC NW=
200708161925 SPECI KATL 161925Z 23004KT 8SM SCT080CB SCT100 SCT200 37/19 A3003 RMK AO2 CB VC NW MOV SE SHRA VC NW=
200708161852 METAR KATL 161852Z 00000KT 8SM SCT080 37/19 A3004 RMK AO2 SLP157 T03670189=
200708161752 METAR KATL 161752Z 00000KT 8SM FEW075 37/19 A3006 RMK AO2 SLP164 T03670194 10372 20267 58009=
200708161652 METAR KATL 161652Z 29005KT 6SM HZ FEW100 36/21 A3008 RMK AO2 SLP170 T03560206=
200708161552 METAR KATL 161552Z 32005KT 6SM HZ FEW100 34/21 A3008 RMK AO2 SLP173 ACC S T03440211=
200708161452 METAR KATL 161452Z 28005KT 6SM HZ FEW100 32/21 A3008 RMK AO2 SLP173 T03220211 51008=
200708161352 METAR KATL 161352Z 28006KT 6SM HZ FEW100 30/21 A3008 RMK AO2 SLP171 T03000211=
200708161252 METAR KATL 161252Z 23005KT 8SM FEW110 28/21 A3008 RMK AO2 SLP170 T02780206=
200708161152 METAR KATL 161152Z 00000KT 8SM FEW250 27/20 A3006 RMK AO2 SLP165 T02670200 10283 20261 53014=
200708161052 METAR KATL 161052Z 24004KT 10SM FEW250 26/19 A3005 RMK AO2 SLP160 T02610194=
200708160952 METAR KATL 160952Z 21004KT 10SM FEW250 26/19 A3003 RMK AO2 SLP154 T02610194=
200708160852 METAR KATL 160852Z 23006KT 10SM CLR 27/19 A3002 RMK AO2 SLP150 T02670189 53002=
200708160752 METAR KATL 160752Z 21006KT 10SM FEW250 27/19 A3002 RMK AO2 SLP149 T02720189=
200708160652 METAR KATL 160652Z 20006KT 10SM CLR 27/19 A3001 RMK AO2 SLP148 T02720189=
200708160552 METAR KATL 160552Z 20007KT 10SM CLR 28/18 A3001 RMK AO2 SLP148 T02830183 10350 20283 50001=
200708160452 METAR KATL 160452Z 19005KT 10SM CLR 29/18 A3002 RMK AO2 SLP153 T02890183 403890244=
200708160352 METAR KATL 160352Z 22004KT 10SM FEW100 31/17 A3002 RMK AO2 SLP150 T03060172=
200708160252 METAR KATL 160252Z 18005KT 10SM FEW250 31/17 A3001 RMK AO2 SLP147 T03110172 53015=
200708160152 METAR KATL 160152Z 19003KT 10SM FEW100 33/16 A2999 RMK AO2 SLP140 T03330156=
200708160052 METAR KATL 160052Z 18004KT 10SM FEW080 34/15 A2997 RMK AO2 SLP135 T03390150=
200708152352 METAR KATL 152352Z 19003KT 10SM FEW080TCU 35/16 A2996 RMK AO2 SLP133 TCU VC W T03500156 10389 20350 53003=
200708152252 METAR KATL 152252Z 16005KT 10SM FEW080TCU SCT095 36/16 A2995 RMK AO2 SLP129 TCU SW AND NW T03610161=
200708152152 METAR KATL 152152Z 00000KT 9SM SCT090 37/16 A2995 RMK AO2 SLP127 MDT CU SW-NW T03670156=
200708152052 METAR KATL 152052Z 00000KT 9SM SCT090 37/16 A2995 RMK AO2 SLP129 T03720156 58015=
200708151952 METAR KATL 151952Z 35005KT 9SM FEW090 39/16 A2997 RMK AO2 SLP134 T03890161=
200708151918 SPECI KATL 151918Z VRB03KT 9SM CLR 37/13 A2998 RMK AO2=
200708151918 SPECI KATL 151918Z VRB03KT 9SM CLR 37/13 A2998 RMK AO2=
200708151855 METAR KATL 151855Z 23012KT 10SM SCT040 BKN100 24/16 A2991=
200708151852 METAR KATL 151852Z 34007KT 9SM FEW090 37/16 A2998 RMK AO2 SLP140 T03670156=
200708151752 METAR KATL 151752Z VRB03KT 9SM FEW085 37/17 A3000 RMK AO2 SLP144 T03720167 10372 20256 58003=
200708151652 METAR KATL 151652Z 32007KT 9SM FEW085 37/17 A3001 RMK AO2 SLP147 T03670167=
200708151552 METAR KATL 151552Z 20006KT 7SM CLR 34/18 A3001 RMK AO2 SLP148 T03440183=
200708151452 METAR KATL 151452Z 25006KT 6SM HZ CLR 34/18 A3001 RMK AO2 SLP147 T03390183 52007=
200708151352 METAR KATL 151352Z 00000KT 8SM CLR 32/18 A3000 RMK AO2 SLP144 T03170178=
200708151252 METAR KATL 151252Z 00000KT 10SM CLR 29/16 A3000 RMK AO2 SLP144 T02890156=
200708151152 METAR KATL 151152Z 00000KT 10SM FEW120 25/16 A2999 RMK AO2 SLP141 T02500161 10283 20244 53008=
200708151052 METAR KATL 151052Z 00000KT 10SM FEW120 25/16 A2998 RMK AO2 SLP138 T02500156=
200708150952 METAR KATL 150952Z 00000KT 10SM CLR 26/15 A2996 RMK AO2 SLP132 T02560150=
200708150852 METAR KATL 150852Z 00000KT 10SM CLR 26/16 A2996 RMK AO2 SLP132 T02610156 55003=
200708150752 METAR KATL 150752Z 00000KT 10SM CLR 27/16 A2996 RMK AO2 SLP131 T02670156=
200708150652 METAR KATL 150652Z 00000KT 10SM CLR 28/14 A2997 RMK AO2 SLP135 T02780144=
200708150552 METAR KATL 150552Z 00000KT 10SM CLR 28/14 A2997 RMK AO2 SLP135 T02830139 10344 20278 50004=
200708150452 METAR KATL 150452Z 00000KT 10SM CLR 28/14 A2998 RMK AO2 SLP136 T02830139 403720256=
200708150352 METAR KATL 150352Z 00000KT 10SM CLR 29/13 A2997 RMK AO2 SLP134 T02940133=
200708150252 METAR KATL 150252Z 14003KT 10SM CLR 31/13 A2996 RMK AO2 SLP131 T03060133 53012=
200708150152 METAR KATL 150152Z 11003KT 10SM CLR 32/13 A2995 RMK AO2 SLP127 T03170128=
200708150052 METAR KATL 150052Z 08008KT 10SM CLR 33/12 A2993 RMK AO2 SLP123 T03280117=
200708142352 METAR KATL 142352Z 10007KT 10SM CLR 34/13 A2993 RMK AO2 SLP119 T03440128 10372 20339 55000=
200708142252 METAR KATL 142252Z VRB05KT 10SM FEW090 36/13 A2992 RMK AO2 SLP116 T03610133=
200708142152 METAR KATL 142152Z 07007KT 020V120 10SM FEW090 37/13 A2992 RMK AO2 SLP117 T03670133=
200708142052 METAR KATL 142052Z 06009G17KT 040V100 10SM FEW095 SCT240 37/14 A2993 RMK AO2 SLP119 T03720144 56020=
200708141952 METAR KATL 141952Z COR VRB04KT 9SM FEW085 FEW240 37/16 A2995 RMK AO2 SLP126 T03720161=
200708141852 METAR KATL 141852Z 02007KT 10SM FEW080 36/17 A2996 RMK AO2 SLP133 T03610167=
200708141752 METAR KATL 141752Z 15003KT 9SM FEW070 34/17 A2999 RMK AO2 SLP141 T03440172 10350 20267 58013=
200708141652 METAR KATL 141652Z 07009G14KT 8SM CLR 34/17 A3001 RMK AO2 SLP147 T03440172=
200708141552 METAR KATL 141552Z 06005KT 9SM CLR 33/18 A3002 RMK AO2 SLP152 T03280183=
200708141452 METAR KATL 141452Z VRB06KT 8SM CLR 32/19 A3003 RMK AO2 SLP154 T03220194 51012=
200708141352 METAR KATL 141352Z 07007KT 8SM CLR 30/19 A3002 RMK AO2 SLP151 T03000189=
200708141252 METAR KATL 141252Z 06006KT 10SM CLR 28/19 A3000 RMK AO2 SLP145 T02830189=
200708141152 METAR KATL 141152Z 06006KT 9SM CLR 27/18 A2999 RMK AO2 SLP141 T02720183 10294 20256 53008=
200708141052 METAR KATL 141052Z 07003KT 10SM CLR 26/18 A2998 RMK AO2 SLP138 T02610178=
200708140952 METAR KATL 140952Z 05004KT 10SM CLR 27/18 A2997 RMK AO2 SLP135 T02720178=
200708140852 METAR KATL 140852Z 05005KT 10SM CLR 27/17 A2996 RMK AO2 SLP133 T02720172 55002=
200708140752 METAR KATL 140752Z 00000KT 10SM CLR 26/17 A2996 RMK AO2 SLP132 T02610172=
200708140652 METAR KATL 140652Z 02006KT 10SM FEW250 28/17 A2996 RMK AO2 SLP132 T02830172=
200708140552 METAR KATL 140552Z 02006KT 10SM FEW250 29/17 A2997 RMK AO2 SLP135 T02940167 10350 20278 51001=
200708140452 METAR KATL 140452Z 01007KT 10SM SCT250 29/16 A2997 RMK AO2 SLP135 T02890156 403780244=
200708140352 METAR KATL 140352Z 01006KT 10SM SCT250 30/16 A2997 RMK AO2 SLP135 T03000156=
200708140252 METAR KATL 140252Z 36009KT 10SM SCT250 32/15 A2997 RMK AO2 SLP133 T03170150 51014=
200708140152 METAR KATL 140152Z 01012KT 10SM SCT250 33/14 A2996 RMK AO2 SLP130 T03330144=
200708140052 METAR KATL 140052Z 01010KT 10SM FEW200 SCT250 34/14 A2994 RMK AO2 SLP124 T03440144=
200708132352 METAR KATL 132352Z 36007KT 10SM FEW075 35/16 A2993 RMK AO2 SLP120 T03500156 10378 20344 55009=
200708132252 METAR KATL 132252Z 33007KT 10SM FEW080 36/17 A2992 RMK AO2 SLP120 T03610167=
200708132152 METAR KATL 132152Z 01008KT 10SM FEW080 SCT250 36/17 A2994 RMK AO2 SLP124 MDT CU S T03610172=
200708132052 METAR KATL 132052Z VRB04KT 9SM SCT075 36/18 A2995 RMK AO2 SLP128 T03610178 56023=
200708131952 METAR KATL 131952Z 31007KT 270V190 9SM SCT080 36/18 A2997 RMK AO2 SLP135 T03610183=
200708131852 METAR KATL 131852Z 00000KT 8SM FEW070 36/19 A3000 RMK AO2 SLP144 T03610194=
200708131752 METAR KATL 131752Z VRB04KT 8SM SCT060 35/21 A3002 RMK AO2 SLP152 T03500206 10350 20256 58010=
200708131652 METAR KATL 131652Z 36003KT 7SM SCT046 34/22 A3003 RMK AO2 SLP156 T03390222=
200708131552 METAR KATL 131552Z 34008KT 6SM HZ FEW037 32/23 A3004 RMK AO2 SLP161 T03170233=
200708131452 METAR KATL 131452Z 33003KT 6SM HZ FEW035 31/24 A3005 RMK AO2 SLP164 T03110239 50007=
200708131352 METAR KATL 131352Z 29004KT 5SM HZ FEW025 29/24 A3006 RMK AO2 SLP164 T02940239=
200708131252 METAR KATL 131252Z 32004KT 5SM HZ CLR 27/23 A3005 RMK AO2 SLP163 T02720233=
200708131152 METAR KATL 131152Z 33003KT 5SM HZ FEW250 26/23 A3003 RMK AO2 SLP157 T02560228 10272 20244 51007=
200708131052 METAR KATL 131052Z 00000KT 5SM BR FEW250 24/23 A3002 RMK AO2 SLP153 T02440228=
200708130952 METAR KATL 130952Z 32005KT 6SM BR CLR 25/23 A3003 RMK AO2 SLP156 T02500228=
200708130852 METAR KATL 130852Z 00000KT 6SM HZ FEW250 26/23 A3001 RMK AO2 SLP150 T02560228 58011=
200708130752 METAR KATL 130752Z 00000KT 6SM BR FEW250 26/23 A3002 RMK AO2 SLP155 T02560233=
200708130652 METAR KATL 130652Z 00000KT 6SM HZ FEW250 26/23 A3003 RMK AO2 SLP158 T02610228=
200708130552 METAR KATL 130552Z 00000KT 7SM SCT250 27/23 A3004 RMK AO2 SLP162 T02720228 10306 20272 58004=
200708130452 METAR KATL 130452Z 00000KT 8SM SCT250 27/23 A3005 RMK AO2 SLP164 T02720228 403220233=
200708130352 METAR KATL 130352Z 00000KT 8SM SCT250 28/23 A3005 RMK AO2 SLP164 T02830233=
200708130252 METAR KATL 130252Z 14003KT 8SM SCT200 SCT250 28/23 A3006 RMK AO2 SLP165 T02830228 52006=
200708130152 METAR KATL 130152Z 15004KT 8SM SCT150 SCT200 29/23 A3005 RMK AO2 SLP164 T02890228=
200708130052 METAR KATL 130052Z 16005KT 8SM SCT150 SCT200 30/23 A3004 RMK AO2 SLP160 T03000228=
200708122352 METAR KATL 122352Z 11008KT 8SM FEW030 SCT150 31/23 A3004 RMK AO2 SLP160 T03060228 10322 20300 53002=
200708122252 METAR KATL 122252Z 09009KT 8SM FEW035 32/23 A3002 RMK AO2 SLP152 T03170228=
200708122152 METAR KATL 122152Z 10008KT 7SM FEW035 32/23 A3001 RMK AO2 SLP150 T03170233=
200708122052 METAR KATL 122052Z 10007KT 7SM FEW034 31/23 A3003 RMK AO2 SLP156 T03110233 58015=
200708121952 METAR KATL 121952Z 09012KT 6SM HZ FEW026 SCT045 SCT100 31/23 A3006 RMK AO2 SLP167 T03060233=
200708121852 METAR KATL 121852Z COR 08011G18KT 7SM SCT025 OVC100 32/22 A3007 RMK AO2 SLP171 T03170217=
200708121752 METAR KATL 121752Z 08010KT 7SM FEW029 OVC033 31/23 A3007 RMK AO2 SLP171 T03060228 10311 20233 58004=
200708121730 SPECI KATL 121730Z 09011KT 7SM BKN030 31/23 A3008 RMK AO2=
200708121730 SPECI KATL 121730Z 09011KT 7SM BKN030 31/23 A3008 RMK AO2=
200708121652 METAR KATL 121652Z 06009KT 7SM BKN024 30/23 A3008 RMK AO2 SLP174 T03000228=
200708121552 METAR KATL 121552Z 10008KT 6SM HZ BKN023 29/23 A3009 RMK AO2 SLP177 T02890228=
200708121452 METAR KATL 121452Z 09011KT 6SM HZ OVC018 27/22 A3009 RMK AO2 SLP175 T02720222 51015=
200708121407 SPECI KATL 121407Z 08012KT 7SM BKN018 27/22 A3008 RMK AO2=
200708121407 SPECI KATL 121407Z 08012KT 7SM BKN018 27/22 A3008 RMK AO2=
200708121352 METAR KATL 121352Z 06010KT 7SM SCT015 27/22 A3007 RMK AO2 SLP169 T02670222=
200708121252 METAR KATL 121252Z 10008KT 6SM HZ SCT011 26/22 A3006 RMK AO2 SLP167 T02560222=
200708121152 METAR KATL 121152Z 09008KT 7SM FEW080 SCT150 24/22 A3004 RMK AO2 SLP160 T02390217 10294 20239 53020=
200708121052 METAR KATL 121052Z 08010KT 8SM FEW080 SCT200 24/22 A3002 RMK AO2 SLP152 T02440217=
200708120952 METAR KATL 120952Z 07011KT 9SM FEW080 26/21 A3000 RMK AO2 SLP144 T02610206=
200708120852 METAR KATL 120852Z 04009KT 10SM FEW085 28/19 A2998 RMK AO2 SLP138 T02780189 51002=
200708120752 METAR KATL 120752Z 33003KT 10SM FEW080 27/19 A2997 RMK AO2 SLP136 T02670189=
200708120652 METAR KATL 120652Z 01006KT 10SM CLR 29/18 A2998 RMK AO2 SLP138 T02890178=
200708120552 METAR KATL 120552Z 01006KT 10SM CLR 29/18 A2997 RMK AO2 SLP135 T02940178 10356 20283 58003=
200708120452 METAR KATL 120452Z 33005KT 10SM FEW150 29/18 A2998 RMK AO2 SLP137 T02890178 403780272=
200708120352 METAR KATL 120352Z 02007KT 10SM CLR 32/17 A2998 RMK AO2 SLP136 T03170172=
200708120252 METAR KATL 120252Z 01009KT 10SM CLR 32/17 A2998 RMK AO2 SLP139 T03170167 51023=
200708120152 METAR KATL 120152Z 34009KT 10SM FEW250 33/15 A2997 RMK AO2 SLP133 T03280150=
200708120052 METAR KATL 120052Z 33006KT 10SM FEW250 33/14 A2994 RMK AO2 SLP125 T03330144=
200708112352 METAR KATL 112352Z 35006KT 10SM FEW250 36/14 A2991 RMK AO2 SLP116 T03560144 10378 20350 53009=
200708112252 METAR KATL 112252Z 34006KT 10SM FEW250 37/14 A2989 RMK AO2 SLP109 T03670144=
200708112152 METAR KATL 112152Z 36004KT 10SM FEW085 37/15 A2989 RMK AO2 SLP106 T03720150=
200708112052 METAR KATL 112052Z 27010G16KT 10SM FEW090 38/13 A2989 RMK AO2 SLP105 T03780133 58024=
200708111952 METAR KATL 111952Z 33009KT 300V010 10SM SCT080 37/15 A2992 RMK AO2 SLP115 T03720150=
200708111852 METAR KATL 111852Z 34010KT 9SM SCT070 37/17 A2994 RMK AO2 SLP124 T03720167=
200708111752 METAR KATL 111752Z VRB06KT 8SM SCT070 35/18 A2996 RMK AO2 SLP130 T03500178 10367 20289 58003=
200708111652 METAR KATL 111652Z VRB06KT 9SM FEW055 SCT070 35/18 A2996 RMK AO2 SLP132 T03500178=
200708111552 METAR KATL 111552Z 03007KT 350V050 8SM FEW070 SCT110 35/19 A2997 RMK AO2 SLP135 T03500189=
200708111452 METAR KATL 111452Z 06005KT 8SM FEW070 SCT110 33/19 A2997 RMK AO2 SLP133 T03280194 51011 $=
200708111352 METAR KATL 111352Z 06005KT 8SM SCT110 32/19 A2996 RMK AO2 SLP130 T03220189=
200708111252 METAR KATL 111252Z 00000KT 10SM SCT070 29/20 A2994 RMK AO2 SLP126 T02890200=
200708111152 METAR KATL 111152Z 03005KT 10SM FEW120 29/19 A2993 RMK AO2 SLP122 T02940194 10306 20272 52015=
200708111052 METAR KATL 111052Z 01004KT 10SM BKN070 BKN090 28/20 A2992 RMK AO2 SLP117 T02830200=
200708110952 METAR KATL 110952Z 36007KT 10SM BKN080 28/20 A2990 RMK AO2 SLP110 T02830200=
200708110852 METAR KATL 110852Z 33003KT 10SM FEW110 29/20 A2989 RMK AO2 SLP106 T02890200 51003=
200708110752 METAR KATL 110752Z 36007KT 10SM CLR 29/20 A2988 RMK AO2 SLP104 T02940200=
200708110652 METAR KATL 110652Z 35008KT 10SM CLR 30/21 A2989 RMK AO2 SLP105 T03000206=
200708110552 METAR KATL 110552Z 01007KT 10SM CLR 31/21 A2988 RMK AO2 SLP103 T03060211 10350 20300 55000=
200708110452 METAR KATL 110452Z 36006KT 10SM CLR 31/23 A2988 RMK AO2 SLP102 T03060228 403940256=
200708110352 METAR KATL 110352Z 33007KT 10SM CLR 31/23 A2988 RMK AO2 SLP102 T03060228=
200708110252 METAR KATL 110252Z 32008KT 10SM FEW100 31/23 A2988 RMK AO2 SLP104 T03110228 51011=
200708110152 METAR KATL 110152Z 31007KT 10SM FEW250 32/22 A2988 RMK AO2 SLP103 T03170222=
200708110052 METAR KATL 110052Z 32008KT 10SM FEW200 SCT250 33/21 A2986 RMK AO2 SLP098 T03330211=
200708102352 METAR KATL 102352Z 30007KT 10SM FEW120 SCT250 35/22 A2985 RMK AO2 SLP093 T03500217 10394 20350 55001=
200708102252 METAR KATL 102252Z 28006KT 10SM FEW070 SCT250 36/21 A2984 RMK AO2 SLP090 T03610206=
200708102152 METAR KATL 102152Z 28004KT 10SM FEW075TCU SCT110 SCT250 38/19 A2984 RMK AO2 SLP091 T03780194=
200708102052 METAR KATL 102052Z 25003KT 10SM FEW080TCU SCT100 SCT250 39/19 A2985 RMK AO2 SLP092 TCU NW T03890189 58020=
200708101952 METAR KATL 101952Z 34009KT 10SM SCT075 38/19 A2988 RMK AO2 SLP102 TCU DSNT NW T03830194=
200708101852 METAR KATL 101852Z VRB03KT 10SM SCT070 SCT250 38/20 A2990 RMK AO2 SLP109 CB DSNT NW MOV SE T03780200=
200708101752 METAR KATL 101752Z 32010KT 10SM SCT070 SCT250 37/20 A2991 RMK AO2 SLP113 CB DSNT NW MOV SE T03670200 10372 20267 58015=
200708101652 METAR KATL 101652Z COR 34004KT 10SM FEW070 SCT250 37/21 A2993 RMK AO2 SLP120 T03670211=
200708101552 METAR KATL 101552Z 26004KT 10SM FEW250 36/21 A2995 RMK AO2 SLP126 T03560211=
200708101452 METAR KATL 101452Z 36004KT 10SM FEW250 34/21 A2995 RMK AO2 SLP128 T03390206 50005=
200708101352 METAR KATL 101352Z VRB05KT 10SM SCT250 31/21 A2995 RMK AO2 SLP129 T03110206=
200708101252 METAR KATL 101252Z 30008KT 10SM FEW250 29/21 A2995 RMK AO2 SLP129 T02890206=
200708101152 METAR KATL 101152Z 29006KT 10SM FEW250 27/19 A2994 RMK AO2 SLP123 T02670189 10294 20256 51011=
200708101052 METAR KATL 101052Z 28003KT 10SM FEW250 27/18 A2993 RMK AO2 SLP122 T02670183=
200708100952 METAR KATL 100952Z 00000KT 10SM CLR 27/19 A2992 RMK AO2 SLP116 T02670189=
200708100852 METAR KATL 100852Z 29004KT 10SM CLR 27/18 A2990 RMK AO2 SLP112 T02720183 55006=
200708100752 METAR KATL 100752Z 31006KT 10SM CLR 28/18 A2990 RMK AO2 SLP110 T02780183=
200708100652 METAR KATL 100652Z 30005KT 10SM CLR 28/18 A2991 RMK AO2 SLP112 T02830183=
200708100552 METAR KATL 100552Z 29003KT 10SM CLR 29/19 A2992 RMK AO2 SLP117 T02940194 10361 20294 56012=
200708100452 METAR KATL 100452Z 33007KT 10SM CLR 30/19 A2993 RMK AO2 SLP120 T03000189 403940261=
200708100352 METAR KATL 100352Z 29003KT 10SM CLR 32/19 A2994 RMK AO2 SLP123 T03170189=
200708100252 METAR KATL 100252Z 30005KT 10SM CLR 32/19 A2996 RMK AO2 SLP128 T03220194 51017=
200708100152 METAR KATL 100152Z 31007KT 10SM FEW250 33/21 A2995 RMK AO2 SLP126 T03330206=
200708100052 METAR KATL 100052Z 29005KT 10SM FEW250 34/21 A2992 RMK AO2 SLP118 T03390206=
200708092352 METAR KATL 092352Z 29008KT 10SM FEW250 36/21 A2990 RMK AO2 SLP112 T03560206 10389 20356 55002=
200708092252 METAR KATL 092252Z 33009KT 10SM FEW070 37/21 A2989 RMK AO2 SLP109 T03720206=
200708092152 METAR KATL 092152Z 29009KT 10SM SCT070 38/21 A2990 RMK AO2 SLP110 MDT CU N-NE AND NW T03830206=
200708092052 METAR KATL 092052Z 30009KT 10SM SCT075 38/21 A2991 RMK AO2 SLP114 T03830211 58022=
200708091952 METAR KATL 091952Z VRB05G17KT 10SM SCT075 38/20 A2993 RMK AO2 SLP122 T03780200=
200708091852 METAR KATL 091852Z VRB03G14KT 10SM FEW075 38/20 A2996 RMK AO2 SLP129 T03780200=
200708091752 METAR KATL 091752Z 31011KT 10SM FEW075 38/20 A2998 RMK AO2 SLP136 T03780200 10394 20272 58011=
200708091652 METAR KATL 091652Z VRB03KT 10SM FEW080 38/18 A2999 RMK AO2 SLP141 T03780178 $=
200708091552 METAR KATL 091552Z 32007KT 290V350 9SM CLR 36/19 A3001 RMK AO2 SLP147 T03610194=
200708091452 METAR KATL 091452Z 34006KT 10SM CLR 34/21 A3001 RMK AO2 SLP147 HZ ALOFT DSNT ALQDS T03440206 51005=
200708091352 METAR KATL 091352Z COR 35009KT 10SM FEW250 33/21 A3001 RMK AO2 SLP147 T03280183=
200708091252 METAR KATL 091252Z 34009KT 10SM CLR 30/21 A3001 RMK AO2 SLP148 T03000206=
200708091152 METAR KATL 091152Z 32008KT 10SM CLR 27/21 A2999 RMK AO2 SLP143 T02720206 10294 20261 53017=
200708091052 METAR KATL 091052Z 31009KT 9SM CLR 26/23 A2998 RMK AO2 SLP136 T02610228=
200708090952 METAR KATL 090952Z 29007KT 10SM CLR 27/23 A2996 RMK AO2 SLP129 T02670228=
200708090852 METAR KATL 090852Z 30005KT 9SM FEW250 27/23 A2994 RMK AO2 SLP125 T02720228 55001=
200708090752 METAR KATL 090752Z 30003KT 10SM FEW250 28/23 A2994 RMK AO2 SLP125 T02780228=
200708090652 METAR KATL 090652Z 25003KT 10SM FEW250 28/22 A2994 RMK AO2 SLP125 T02830222=
200708090552 METAR KATL 090552Z 00000KT 10SM FEW250 30/21 A2994 RMK AO2 SLP126 T03000211 10350 20294 58007=
200708090452 METAR KATL 090452Z 33004KT 10SM FEW250 31/22 A2995 RMK AO2 SLP128 T03060217 403780278=
200708090352 METAR KATL 090352Z 32005KT 10SM FEW250 31/22 A2996 RMK AO2 SLP130 FRQ LTG DSNT SE T03110222=
200708090252 METAR KATL 090252Z 30003KT 10SM SCT250 32/22 A2997 RMK AO2 SLP133 T03220222 51016=
200708090152 METAR KATL 090152Z 30004KT 10SM BKN250 33/22 A2996 RMK AO2 SLP130 T03280222=
200708090052 METAR KATL 090052Z 28003KT 10SM FEW200 BKN250 34/22 A2993 RMK AO2 SLP123 T03390222=
200708082352 METAR KATL 082352Z 26006KT 10SM SCT250 34/22 A2992 RMK AO2 SLP117 T03440222 10378 20344 55002=
200708082252 METAR KATL 082252Z 31009G14KT 10SM FEW200 36/22 A2991 RMK AO2 SLP115 T03610222=
200708082152 METAR KATL 082152Z 28009G15KT 9SM FEW060TCU 36/22 A2992 RMK AO2 SLP119 TCU VC N CB DSNT E T03610222=
200708082052 METAR KATL 082052Z 28010KT 7SM FEW060 37/23 A2992 RMK AO2 SLP119 MDT CU N T03720228 58014=
200708081952 METAR KATL 081952Z 31008KT 6SM HZ SCT060 38/22 A2994 RMK AO2 SLP124 MDT CU NW-N T03780222=
200708081852 METAR KATL 081852Z 22008KT 180V250 7SM SCT065 37/22 A2995 RMK AO2 SLP129 MDT CU OHD-NW T03670217=
200708081752 METAR KATL 081752Z 00000KT 7SM SCT060 36/22 A2997 RMK AO2 SLP133 T03560217 10367 20283 58011=
200708081652 METAR KATL 081652Z VRB03KT 9SM FEW055 SCT095 SCT250 36/23 A2998 RMK AO2 SLP139 T03560228=
200708081552 METAR KATL 081552Z 00000KT 9SM FEW095 35/23 A3000 RMK AO2 SLP143 T03500228=
200708081452 METAR KATL 081452Z VRB03KT 7SM FEW095 SCT150 SCT250 33/24 A3000 RMK AO2 SLP145 T03330239 51008=
200708081352 METAR KATL 081352Z 30003KT 7SM FEW060 SCT100 BKN150 31/23 A3000 RMK AO2 SLP144 T03060233=
200708081252 METAR KATL 081252Z 32004KT 5SM HZ FEW250 29/23 A2999 RMK AO2 SLP143 T02940233=
200708081152 METAR KATL 081152Z 31003KT 5SM HZ FEW070 SCT120 28/22 A2998 RMK AO2 SLP137 T02830217 10289 20278 53010=
200708081052 METAR KATL 081052Z 00000KT 5SM HZ FEW120 SCT250 28/23 A2996 RMK AO2 SLP131 T02780233=
200708080952 METAR KATL 080952Z 00000KT 7SM SCT120 BKN250 28/23 A2995 RMK AO2 SLP129 T02830233=
200708080852 METAR KATL 080852Z 30003KT 7SM FEW070 SCT120 28/23 A2994 RMK AO2 SLP127 T02780233 56002=
200708080752 METAR KATL 080752Z 28003KT 7SM FEW070 28/23 A2995 RMK AO2 SLP126 T02780233=
200708080652 METAR KATL 080652Z 25003KT 8SM FEW090 28/23 A2995 RMK AO2 SLP128 T02780233=
200708080552 METAR KATL 080552Z 28004KT 8SM FEW110 29/23 A2995 RMK AO2 SLP128 T02940228 10322 20289 58006=
200708080452 METAR KATL 080452Z 28004KT 9SM FEW110 29/22 A2996 RMK AO2 SLP133 T02940222 403670250=
200708080352 METAR KATL 080352Z 26004KT 8SM FEW250 30/22 A2997 RMK AO2 SLP134 T03000217=
200708080252 METAR KATL 080252Z 28004KT 9SM FEW250 31/22 A2997 RMK AO2 SLP134 T03110217 53010=
200708080152 METAR KATL 080152Z 25004KT 7SM FEW250 32/22 A2996 RMK AO2 SLP130 T03170217=
200708080052 METAR KATL 080052Z 00000KT 7SM FEW250 31/22 A2995 RMK AO2 SLP128 T03110217=
200708072352 METAR KATL 072352Z 16008KT 7SM SCT060TCU BKN090 32/21 A2994 RMK AO2 SLP125 TCU OHD-SE 60000 T03220211 10367 20317 53001=
200708072252 METAR KATL 072252Z 15003KT 7SM SCT065TCU BKN090 35/21 A2993 RMK AO2 SLP123 TCU S-SW AND NW T03500211=
200708072152 METAR KATL 072152Z 00000KT 7SM SCT065TCU BKN090 34/21 A2993 RMK AO2 RAB39E43 SLP122 TCU SE-OHD-SW P0000 T03440211=
200708072052 METAR KATL 072052Z 16007KT 7SM BKN060TCU 33/21 A2994 RMK AO2 SLP124 TCU OHD-S-SW-NW T03280211 56020=
200708072030 SPECI KATL 072030Z 19007KT 7SM BKN060TCU 36/19 A2994 RMK AO2 TCU OHD-SE-S SHRA S=
200708072030 SPECI KATL 072030Z 19007KT 7SM BKN060TCU 36/19 A2994 RMK AO2 TCU OHD-SE-S SHRA S=
200708071952 METAR KATL 071952Z 34004KT 7SM BKN060TCU 35/21 A2995 RMK AO2 SLP128 TCU OHD-S-SW NW T03500211=
200708071852 METAR KATL 071852Z 32007KT 7SM BKN060 35/21 A2998 RMK AO2 SLP138 T03500211=
200708071752 METAR KATL 071752Z VRB05KT 6SM HZ SCT060 36/22 A3000 RMK AO2 SLP144 CB DSNT SW TCU DSNT S T03610217 10367 20272 58010=
200708071652 METAR KATL 071652Z 36008KT 6SM HZ SCT050 34/22 A3002 RMK AO2 SLP153 T03440217=
200708071552 METAR KATL 071552Z 36008KT 6SM HZ FEW040 SCT150 34/23 A3003 RMK AO2 SLP156 T03390228=
200708071452 METAR KATL 071452Z 31008KT 5SM HZ BKN150 32/21 A3003 RMK AO2 SLP155 T03220211 51012=
200708071352 METAR KATL 071352Z 30005KT 5SM HZ FEW150 SCT180 SCT300 31/22 A3002 RMK AO2 SLP153 T03060217=
200708071252 METAR KATL 071252Z 33006KT 5SM HZ SCT150 BKN250 28/22 A3002 RMK AO2 SLP153 T02830222=
200708071152 METAR KATL 071152Z 31006KT 4SM HZ SCT250 27/22 A2999 RMK AO2 SLP144 T02720217 10278 20250 53014=
200708071052 METAR KATL 071052Z 31004KT 6SM HZ SCT250 26/22 A2997 RMK AO2 SLP137 T02610217=
200708070952 METAR KATL 070952Z 31004KT 6SM HZ FEW250 27/22 A2996 RMK AO2 SLP133 T02670222=
200708070852 METAR KATL 070852Z 30004KT 6SM HZ FEW250 26/22 A2995 RMK AO2 SLP128 T02610222 56008=
200708070752 METAR KATL 070752Z 31004KT 6SM HZ FEW250 27/23 A2996 RMK AO2 SLP130 T02720228=
200708070652 METAR KATL 070652Z 30005KT 6SM HZ FEW250 28/23 A2997 RMK AO2 SLP133 T02780228=
200708070552 METAR KATL 070552Z 29005KT 6SM HZ SCT250 28/23 A2998 RMK AO2 SLP136 T02830233 10333 20283 50000=
200708070452 METAR KATL 070452Z 30004KT 9SM BKN250 29/23 A2998 RMK AO2 SLP137 T02890228 403670244=
200708070352 METAR KATL 070352Z 29005KT 9SM BKN250 29/23 A2997 RMK AO2 SLP135 T02890228=
200708070252 METAR KATL 070252Z 28004KT 9SM BKN250 31/22 A2997 RMK AO2 SLP136 T03060217 51007=
200708070152 METAR KATL 070152Z 31003KT 8SM BKN250 32/22 A2997 RMK AO2 SLP137 T03170217=
200708070052 METAR KATL 070052Z 31006KT 8SM FEW085 BKN250 32/22 A2997 RMK AO2 SLP135 T03220217=
200708062352 METAR KATL 062352Z 29008KT 7SM FEW055 BKN250 33/21 A2995 RMK AO2 SLP129 T03330211 10367 20333 55001=
200708062252 METAR KATL 062252Z 31010KT 7SM FEW060TCU SCT250 34/21 A2994 RMK AO2 SLP125 TCU VC SE T03440211=
200708062152 METAR KATL 062152Z 28008KT 7SM FEW060TCU SCT250 35/21 A2995 RMK AO2 SLP128 TCU SE-OHD-W T03500211=
200708062052 METAR KATL 062052Z 33008KT 6SM HZ FEW060TCU SCT250 36/21 A2996 RMK AO2 SLP131 TCU SE MDT CU NW T03560211 58017=
200708061952 METAR KATL 061952Z 30009KT 5SM HZ FEW060TCU SCT250 37/21 A2997 RMK AO2 SLP136 TCU SE T03670211=
200708061852 METAR KATL 061852Z 31010KT 6SM HZ SCT060 36/21 A2999 RMK AO2 SLP144 T03560211=
200708061752 METAR KATL 061752Z 36009KT 7SM SCT055 34/21 A3001 RMK AO2 SLP148 MDT CU=
200708061652 METAR KATL 061652Z 36008KT 6SM HZ FEW050 SCT250 35/21 A3003 RMK AO2 SLP154 T03500211=
200708061552 METAR KATL 061552Z 33009KT 6SM HZ SCT250 33/22 A3004 RMK AO2 SLP158 T03280222=
200708061452 METAR KATL 061452Z 32009KT 6SM HZ FEW250 32/21 A3004 RMK AO2 SLP160 T03170206 51004=
200708061352 METAR KATL 061352Z 33008KT 4SM HZ FEW150 BKN180 BKN250 29/21 A3004 RMK AO2 SLP160 T02940211=
200708061252 METAR KATL 061252Z 30007KT 4SM HZ SCT200 27/21 A3004 RMK AO2 SLP160 T02720211=
200708061152 METAR KATL 061152Z 26004KT 4SM HZ SCT250 25/21 A3003 RMK AO2 SLP157 70002 T02500206 10261 20244 53014=
200708061052 METAR KATL 061052Z 26004KT 5SM HZ FEW180 25/20 A3001 RMK AO2 SLP150 T02500200=
200708060952 METAR KATL 060952Z 00000KT 5SM HZ FEW250 25/20 A3000 RMK AO2 SLP147 T02500200=
200708060852 METAR KATL 060852Z 00000KT 5SM HZ CLR 25/20 A2999 RMK AO2 SLP141 T02500200 55005=
200708060752 METAR KATL 060752Z 27004KT 6SM HZ CLR 25/20 A2999 RMK AO2 SLP141 T02500200=
200708060652 METAR KATL 060652Z 29006KT 6SM HZ CLR 26/20 A2999 RMK AO2 SLP143 T02560200=
200708060552 METAR KATL 060552Z 28004KT 6SM HZ CLR 26/19 A3000 RMK AO2 SLP147 T02610194 10322 20256 56004=
200708060452 METAR KATL 060452Z 28005KT 6SM HZ FEW250 27/19 A3001 RMK AO2 SLP148 T02670194 403560239=
200708060352 METAR KATL 060352Z 27004KT 6SM HZ FEW250 27/19 A3000 RMK AO2 SLP147 T02720194=
200708060252 METAR KATL 060252Z 00000KT 6SM HZ FEW150 SCT250 28/21 A3001 RMK AO2 SLP151 T02830206 53006=
200708060152 METAR KATL 060152Z 20004KT 6SM HZ FEW060 SCT150 SCT250 29/21 A3001 RMK AO2 SLP149 T02940211=
200708060052 METAR KATL 060052Z 11003KT 6SM HZ FEW060 SCT150 BKN250 31/21 A3000 RMK AO2 SLP145 T03060206=
200708052352 METAR KATL 052352Z 07006KT 6SM HZ FEW060TCU SCT150 BKN250 31/19 A2999 RMK AO2 SLP145 TCU VC W 60002 T03110194 10350 20294 53004=
200708052252 METAR KATL 052252Z 04007KT 6SM HZ FEW060 BKN150 BKN250 33/19 A2999 RMK AO2 SLP142 T03280194=
200708052152 METAR KATL 052152Z 05003KT 6SM HZ FEW016 SCT070 BKN150 OVC250 31/22 A2998 RMK AO2 PK WND 35030/2104 RAB08E26 SLP141 SHRA DSNT S P0002 T03060222=
200708052123 SPECI KATL 052123Z 04005KT 6SM -RA FEW009 SCT016 OVC070 30/21 A2999 RMK AO2 PK WND 35030/2104 RAB08 P0002=
200708052123 SPECI KATL 052123Z 04005KT 6SM -RA FEW009 SCT016 OVC070 30/21 A2999 RMK AO2 PK WND 35030/2104 RAB08 P0002=
200708052117 SPECI KATL 052117Z 02011KT 2SM R09R/5500VP6000FT +RA BKN009 BKN016 BKN060 31/19 A2999 RMK AO2 PK WND 35030/2104 RAB08 P0002=
200708052117 SPECI KATL 052117Z 02011KT 2SM R09R/5500VP6000FT +RA BKN009 BKN016 BKN060 31/19 A2999 RMK AO2 PK WND 35030/2104 RAB08 P0002=
200708052110 SPECI KATL 052110Z 34014G30KT 4SM R09R/5500VP6000FT RA BKN009 BKN060 BKN120 29/21 A3000 RMK AO2 PK WND 35030/2104 RAB08 BLSA ACROSS RUNWAY P0000=
200708052110 SPECI KATL 052110Z 34014G30KT 4SM R09R/5500VP6000FT RA BKN009 BKN060 BKN120 29/21 A3000 RMK AO2 PK WND 35030/2104 RAB08 BLSA ACROSS RUNWAY P0000=
200708052052 METAR KATL 052052Z 27007KT 6SM HZ SCT060 BKN120 34/18 A2998 RMK AO2 SLP140 SHRA VC N-NE AND NW-N T03390183 58018=
200708051952 METAR KATL 051952Z 30007KT 5SM HZ SCT060 BKN120 34/19 A3000 RMK AO2 SLP146 T03390189=
200708051852 METAR KATL 051852Z 29010G15KT 5SM HZ SCT060 BKN070 BKN150 34/18 A3002 RMK AO2 SLP153 T03440178=
200708051752 METAR KATL 051752Z VRB04KT 6SM HZ SCT070 BKN150 35/19 A3004 RMK AO2 SLP157 T03500189 10356 20256 58012=
200708051652 METAR KATL 051652Z 20005KT 5SM HZ FEW060 SCT150 SCT250 34/19 A3006 RMK AO2 SLP164 T03390189=
200708051552 METAR KATL 051552Z VRB04KT 5SM HZ SCT150 BKN250 33/19 A3007 RMK AO2 SLP169 T03280194=
200708051452 METAR KATL 051452Z 28005KT 5SM HZ SCT150 BKN250 32/19 A3007 RMK AO2 SLP171 T03170194 50003=
200708051352 METAR KATL 051352Z 27005KT 5SM HZ BKN150 BKN250 30/19 A3008 RMK AO2 SLP172 T03000189=
200708051252 METAR KATL 051252Z 30004KT 4SM HZ BKN250 27/19 A3008 RMK AO2 SLP172 T02670194=
200708051152 METAR KATL 051152Z 31005KT 4SM HZ CLR 26/19 A3006 RMK AO2 SLP167 T02560194 10278 20239 53013=
200708051052 METAR KATL 051052Z 30005KT 5SM HZ CLR 24/19 A3005 RMK AO2 SLP163 T02440194=
200708050952 METAR KATL 050952Z 28004KT 6SM CLR 24/20 A3004 RMK AO2 SLP158 T02440200=
200708050852 METAR KATL 050852Z 00000KT 7SM CLR 24/20 A3003 RMK AO2 SLP154 T02440200 55003=
200708050752 METAR KATL 050752Z 33003KT 7SM CLR 27/20 A3002 RMK AO2 SLP152 T02670200=
200708050652 METAR KATL 050652Z 00000KT 5SM CLR 27/19 A3003 RMK AO2 SLP154 T02670194=
200708050552 METAR KATL 050552Z 32004KT 6SM CLR 28/19 A3004 RMK AO2 SLP157 T02780194 10328 20278 58006=
200708050452 METAR KATL 050452Z 33004KT 6SM CLR 28/19 A3004 RMK AO2 SLP159 T02830194 403610233=
200708050352 METAR KATL 050352Z 32003KT 7SM CLR 28/19 A3005 RMK AO2 SLP164 T02830194=
200708050252 METAR KATL 050252Z 31005KT 8SM CLR 29/19 A3005 RMK AO2 SLP164 T02890194 51014=
200708050152 METAR KATL 050152Z 31007KT 7SM CLR 31/18 A3004 RMK AO2 SLP161 T03060183=
200708050052 METAR KATL 050052Z 34005KT 7SM FEW080 32/17 A3003 RMK AO2 SLP155 T03220167=
200708042352 METAR KATL 042352Z 34007KT 6SM HZ FEW080 33/17 A3001 RMK AO2 SLP150 T03280167 10361 20328 55004=
200708042252 METAR KATL 042252Z 36007KT 7SM FEW085 SCT110 34/16 A3001 RMK AO2 SLP150 T03390156=
200708042052 METAR KATL 042052Z 34006KT 8SM SCT085 34/14 A3002 RMK AO2 SLP153 T03440144 56016=
200708041952 METAR KATL 041952Z 33009KT 8SM SCT080 36/14 A3003 RMK AO2 SLP157 T03560139=
200708041852 METAR KATL 041852Z 30007KT 7SM SCT080 35/14 A3005 RMK AO2 SLP164 T03500144=
200708041752 METAR KATL 041752Z 01007G16KT 340V040 7SM SCT075 34/16 A3007 RMK AO2 SLP169 T03440156 10350 20244 58009=
200708041652 METAR KATL 041652Z 01009KT 7SM FEW065 34/17 A3008 RMK AO2 SLP173 T03440167=
200708041552 METAR KATL 041552Z 31008KT 7SM CLR 33/18 A3010 RMK AO2 SLP178 T03280178=
200708041452 METAR KATL 041452Z 31008KT 8SM CLR 31/18 A3010 RMK AO2 SLP179 T03110183 51004=
200708041352 METAR KATL 041352Z 31007KT 8SM CLR 29/18 A3010 RMK AO2 SLP179 T02890178=
200708041252 METAR KATL 041252Z 31004KT 8SM CLR 26/18 A3009 RMK AO2 SLP179 T02610183=
200708041152 METAR KATL 041152Z 00000KT 9SM CLR 24/18 A3009 RMK AO2 SLP176 T02390183 10267 20233 53010=
200708041052 METAR KATL 041052Z 00000KT 9SM CLR 24/18 A3007 RMK AO2 SLP171 T02390178=
200708040952 METAR KATL 040952Z 00000KT 10SM CLR 23/18 A3006 RMK AO2 SLP168 T02330178=
200708040852 METAR KATL 040852Z 20003KT 9SM CLR 24/18 A3005 RMK AO2 SLP165 T02390183 55001=
200708040752 METAR KATL 040752Z 00000KT 10SM CLR 25/18 A3005 RMK AO2 SLP163 T02500183=
200708040652 METAR KATL 040652Z 00000KT 8SM CLR 26/19 A3006 RMK AO2 SLP166 T02560189=
200708040552 METAR KATL 040552Z COR 14004KT 9SM CLR 27/18 A3006 RMK AO2 SLP166 T02670183 10317 20267 50002=
200708040452 METAR KATL 040452Z 00000KT 10SM CLR 28/18 A3006 RMK AO2 SLP166 T02780178 403440233=
200708040352 METAR KATL 040352Z 00000KT 10SM SCT200 28/19 A3006 RMK AO2 SLP165 T02780189=
200708040252 METAR KATL 040252Z 00000KT 10SM SCT200 28/19 A3005 RMK AO2 SLP164 T02830189 51012=
200708040152 METAR KATL 040152Z 17003KT 10SM FEW200 29/19 A3005 RMK AO2 SLP164 FRQ LTG DSNT NW T02890189=
200708040052 METAR KATL 040052Z 15004KT 10SM FEW200 31/18 A3002 RMK AO2 SLP154 T03060183=
200708032352 METAR KATL 032352Z 16005KT 10SM CLR 32/18 A3002 RMK AO2 SLP152 T03170183 10344 20317 53002=
200708032252 METAR KATL 032252Z 15006KT 10SM FEW065 33/18 A3000 RMK AO2 SLP147 T03280178=
200708032152 METAR KATL 032152Z VRB06KT 10SM FEW065 33/17 A3001 RMK AO2 SLP149 T03330172=
200708032052 METAR KATL 032052Z COR 07009G19KT 9SM FEW065 33/18 A3001 RMK AO2 SLP149 T03330178 58014=
200708031952 METAR KATL 031952Z 08010KT 9SM FEW055 33/18 A3002 RMK AO2 SLP155 T03330183=
200708031852 METAR KATL 031852Z 04011G17KT 9SM SCT055 33/19 A3004 RMK AO2 SLP159 T03330194=
200708031752 METAR KATL 031752Z 04007KT 360V090 10SM SCT055 32/20 A3005 RMK AO2 SLP163 T03220200 10328 20250 58012=
200708031652 METAR KATL 031652Z 07009KT 9SM FEW045 32/21 A3007 RMK AO2 SLP171 T03170206=
200708031552 METAR KATL 031552Z 09005KT 9SM FEW050 31/21 A3009 RMK AO2 SLP175 T03110206=
200708031452 METAR KATL 031452Z VRB06KT 7SM CLR 29/18 A3009 RMK AO2 SLP176 T02940183 53006=
200708031352 METAR KATL 031352Z 09004KT 7SM CLR 28/18 A3008 RMK AO2 SLP173 T02780178=
200708031252 METAR KATL 031252Z 05003KT 6SM HZ SCT060 27/19 A3007 RMK AO2 SLP172 T02670189=
200708031152 METAR KATL 031152Z 01005KT 7SM FEW120 SCT250 25/19 A3007 RMK AO2 SLP170 T02500189 10267 20233 53010=
200708031052 METAR KATL 031052Z 00000KT 6SM HZ FEW180 SCT250 24/19 A3006 RMK AO2 SLP167 T02390189=
200708030952 METAR KATL 030952Z 00000KT 9SM FEW180 24/19 A3004 RMK AO2 SLP161 T02440189 $=
200708030852 METAR KATL 030852Z 00000KT 9SM SCT150 24/19 A3004 RMK AO2 SLP160 T02440189 58002 $=
200708030752 METAR KATL 030752Z 00000KT 9SM CLR 24/19 A3005 RMK AO2 SLP162 T02440189 $=
200708030652 METAR KATL 030652Z 14003KT 9SM SCT250 25/19 A3005 RMK AO2 SLP163 T02500189 $=
200708030552 METAR KATL 030552Z 14003KT 9SM FEW150 BKN250 27/18 A3005 RMK AO2 SLP161 T02670178 10311 20256 50001 $=
200708030452 METAR KATL 030452Z COR 09004KT 10SM FEW100 BKN250 26/18 A3005 RMK AO2 SLP165 T02610178 403330228 $=
200708030352 METAR KATL 030352Z 10003KT 10SM FEW100 SCT250 27/18 A3004 RMK AO2 SLP162 T02720183 $=
200708030252 METAR KATL 030252Z 07007KT 10SM SCT250 27/18 A3004 RMK AO2 SLP162 T02720178 53009 $=
200708030152 METAR KATL 030152Z 14004KT 10SM SCT250 29/17 A3003 RMK AO2 SLP157 T02890172 $=
200708030052 METAR KATL 030052Z 11006KT 10SM FEW250 30/18 A3002 RMK AO2 SLP154 OCNL LTG DSNT NE T03000178 $=
200708022352 METAR KATL 022352Z 13005KT 10SM FEW250 31/18 A3002 RMK AO2 SLP152 CB DSNT NE T03110183 10333 20311 53001 $=
200708022252 METAR KATL 022252Z 11009KT 10SM FEW060 32/18 A3000 RMK AO2 SLP148 T03220178 $=
200708022152 METAR KATL 022152Z 16006KT 10SM FEW060 SCT250 32/18 A3001 RMK AO2 SLP149 T03220178 $=
200708022052 METAR KATL 022052Z 08008KT 10SM FEW065 SCT250 32/19 A3001 RMK AO2 SLP151 T03220189 56015=
200708021952 METAR KATL 021952Z 11007KT 080V150 10SM FEW060 33/18 A3002 RMK AO2 SLP154 T03280183=
200708021852 METAR KATL 021852Z 13006KT 10SM SCT055 32/19 A3004 RMK AO2 SLP160 T03170189=
200708021752 METAR KATL 021752Z 11007G14KT 10SM FEW055 32/18 A3006 RMK AO2 SLP166 T03170183 10322 20239 58005=
200708021652 METAR KATL 021652Z VRB05KT 10SM FEW055 SCT240 32/18 A3007 RMK AO2 SLP169 T03170183=
200708021552 METAR KATL 021552Z 12004KT 10SM FEW045 31/19 A3007 RMK AO2 SLP171 T03060189=
200708021452 METAR KATL 021452Z 11008KT 10SM CLR 29/17 A3007 RMK AO2 SLP172 T02890172 51007=
200708021352 METAR KATL 021352Z 10004KT 10SM CLR 28/18 A3007 RMK AO2 SLP171 T02780183=
200708021252 METAR KATL 021252Z 09004KT 10SM CLR 26/21 A3007 RMK AO2 SLP169 T02610206=
200708021152 METAR KATL 021152Z 08006KT 8SM FEW110 24/21 A3005 RMK AO2 SLP166 T02390206 10267 20228 53010=
200708021052 METAR KATL 021052Z 00000KT 10SM FEW110 23/20 A3004 RMK AO2 SLP161 T02330200=
200708020952 METAR KATL 020952Z 09004KT 10SM FEW110 23/20 A3003 RMK AO2 SLP156 T02330200=
200708020852 METAR KATL 020852Z 06005KT 10SM FEW110 24/21 A3002 RMK AO2 SLP154 T02440206 53005=
200708020752 METAR KATL 020752Z 07005KT 10SM FEW110 24/20 A3001 RMK AO2 SLP151 T02390200=
200708020652 METAR KATL 020652Z 15004KT 10SM FEW110 25/20 A3001 RMK AO2 SLP149 T02500200=
200708020552 METAR KATL 020552Z 12004KT 10SM CLR 27/19 A3001 RMK AO2 SLP149 T02670189 10306 20256 51004=
200708020452 METAR KATL 020452Z 00000KT 10SM FEW250 27/17 A3000 RMK AO2 SLP148 T02720172 403330228=
200708020352 METAR KATL 020352Z 11005KT 10SM CLR 28/17 A3001 RMK AO2 SLP149 T02780172=
200708020252 METAR KATL 020252Z 12003KT 10SM CLR 29/18 A2999 RMK AO2 SLP145 T02890183 53016=
200708020152 METAR KATL 020152Z 09004KT 10SM CLR 28/18 A2998 RMK AO2 SLP138 T02830178=
200708020052 METAR KATL 020052Z 11006KT 10SM FEW250 30/18 A2995 RMK AO2 SLP131 T03000178=
200708012352 METAR KATL 012352Z 09007KT 10SM SCT250 31/17 A2995 RMK AO2 SLP129 T03060172 10333 20300 55003=
200708012252 METAR KATL 012252Z 06005KT 10SM FEW250 32/18 A2993 RMK AO2 SLP124 T03170183=
200708012152 METAR KATL 012152Z 09010KT 10SM FEW060TCU SCT085 SCT250 32/17 A2994 RMK AO2 SLP127 TCU OHD-W T03170167=
200708012052 METAR KATL 012052Z 17005KT 10SM FEW060 SCT080 33/18 A2995 RMK AO2 SLP131 CB DSNT NW MOV SW T03280183 56016=
200708011952 METAR KATL 011952Z 08006KT 10SM SCT055 SCT085 32/19 A2997 RMK AO2 SLP135 MDT CU NW-N T03170194=
200708011852 METAR KATL 011852Z 18006KT 10SM SCT050 31/19 A2998 RMK AO2 SLP141 MDT CU N-NE T03110194=
200708011752 METAR KATL 011752Z 00000KT 10SM SCT050 31/20 A3000 RMK AO2 SLP147 MDT CU NE T03060200 10317 20239 58006=
200708011652 METAR KATL 011652Z 15006KT 10SM SCT040 SCT060 31/20 A3001 RMK AO2 SLP151 T03060200=
200708011552 METAR KATL 011552Z 10008KT 10SM SCT040 BKN055 BKN220 29/19 A3002 RMK AO2 SLP154 T02940189=
200708011452 METAR KATL 011452Z VRB05KT 9SM FEW030 SCT220 28/19 A3002 RMK AO2 SLP154 T02830194 51006=
200708011352 METAR KATL 011352Z 15004KT 9SM FEW220 27/19 A3001 RMK AO2 SLP152 T02670194=
200708011252 METAR KATL 011252Z 12003KT 10SM FEW120 SCT250 26/21 A3002 RMK AO2 SLP154 T02560211=
