##########################################################
# Query made at 04/19/2024 23:00:27 UTC
# Time interval: from 03/01/2007 12:00  to 03/31/2007 12:59  UTC
##########################################################

##########################################################
# KATL, Atlanta, Hartsfield - Jackson Atlanta International Airport (United States)
# WMO index: 72219. WIGOS ID: 0-20000-0-72219
# Latitude 33-38-59N. Longitude 084-25-00W. Altitude 312 m.
##########################################################

200703311252 METAR KATL 311252Z 18005KT 3SM BR OVC004 14/13 A3019 RMK AO2 SFC VIS 5 CIG 003V008 SLP222 T01440128=
200703311249 SPECI KATL 311249Z 19007KT 3SM BR BKN004 OVC008 14/12 A3019 RMK AO2 SFC VIS 5=
200703311249 SPECI KATL 311249Z 19007KT 3SM BR BKN004 OVC008 14/12 A3019 RMK AO2 SFC VIS 5=
200703311223 SPECI KATL 311223Z 16004KT 5SM BR BKN008 14/12 A3018 RMK AO2 CIG 007V010=
200703311223 SPECI KATL 311223Z 16004KT 5SM BR BKN008 14/12 A3018 RMK AO2 CIG 007V010=
200703311152 METAR KATL 311152Z 15003KT 8SM FEW007 BKN200 14/12 A3018 RMK AO2 SLP217 T01390117 10167 20133 53002=
200703311142 SPECI KATL 311142Z 15004KT 8SM SCT007 BKN200 14/11 A3018 RMK AO2=
200703311142 SPECI KATL 311142Z 15004KT 8SM SCT007 BKN200 14/11 A3018 RMK AO2=
200703311052 METAR KATL 311052Z 15004KT 7SM BKN009 14/11 A3017 RMK AO2 SLP216 T01390111=
200703310952 METAR KATL 310952Z 13003KT 8SM BKN009 14/11 A3017 RMK AO2 SLP215 T01390111=
200703310930 SPECI KATL 310930Z 13003KT 8SM SCT009 14/11 A3017=
200703310852 METAR KATL 310852Z 14004KT 8SM SCT200 14/11 A3017=
200703310752 METAR KATL 310752Z 11005KT 7SM CLR 15/11 A3018 RMK AO2 SLP217 T01500106=
200703310652 METAR KATL 310652Z 13005KT 8SM SCT065 16/11 A3020 RMK AO2 SLP223 T01610111=
200703310552 METAR KATL 310552Z 11003KT 8SM OVC065 17/11 A3020 RMK AO2 SLP226 T01670106 10167 20150 58009=
200703310452 METAR KATL 310452Z 09006KT 8SM OVC060 16/11 A3021 RMK AO2 SLP228 T01610106 401780100=
200703310352 METAR KATL 310352Z 09005KT 9SM OVC060 16/11 A3023 RMK AO2 SLP235 T01610106=
200703310252 METAR KATL 310252Z 09006KT 10SM BKN060 BKN120 16/10 A3023 RMK AO2 SLP235 T01610100 53003=
200703310152 METAR KATL 310152Z 09007KT 10SM SCT060 OVC120 16/10 A3022 RMK AO2 SLP233 T01610100=
200703310052 METAR KATL 310052Z 08007KT 10SM FEW060 BKN110 OVC150 16/10 A3022 RMK AO2 SLP233 T01610100=
200703302352 METAR KATL 302352Z 08007KT 10SM BKN110 OVC150 17/10 A3022 RMK AO2 SLP233 T01670100 10178 20133 55005=
200703302252 METAR KATL 302252Z 07008KT 10SM FEW120 BKN150 BKN250 17/09 A3021 RMK AO2 SLP230 T01720094=
200703302152 METAR KATL 302152Z 07007KT 10SM FEW120 BKN150 BKN250 17/09 A3022=
200703302052 METAR KATL 302052Z 07009KT 10SM FEW080 BKN120 18/09 A3024 RMK AO2 SLP238 T01780094 58030=
200703301952 METAR KATL 301952Z 07007KT 10SM BKN085 BKN110 16/08 A3027 RMK AO2 SLP251 T01560083=
200703301852 METAR KATL 301852Z 06009KT 10SM FEW025 BKN070 BKN080 OVC180 14/08 A3031 RMK AO2 SLP265 SHRA DSNT E T01390083=
200703301752 METAR KATL 301752Z 07008KT 10SM FEW025 BKN080 BKN120 OVC180 14/07 A3033 RMK AO2 RAE13 SLP270 BINOVC S-SW-W SHRA DSNT NE-E P0000 60000 T01440072 10150 20100 58019=
200703301713 SPECI KATL 301713Z 06006KT 10SM FEW025 BKN060 BKN120 OVC180 14/07 A3035 RMK AO2 RAE13 VIS LWR NE-E SHRA P0000=
200703301713 SPECI KATL 301713Z 06006KT 10SM FEW025 BKN060 BKN120 OVC180 14/07 A3035 RMK AO2 RAE13 VIS LWR NE-E SHRA P0000=
200703301652 METAR KATL 301652Z 07005KT 9SM -RA BKN025 BKN070 OVC100 13/06 A3036 RMK AO2 RAB44 SLP280 VIS LWR N-NE-E SHRA P0000 T01330061=
200703301552 METAR KATL 301552Z 09006KT 9SM BKN023 BKN060 OVC100 13/06 A3037 RMK AO2 SLP284 SHRA DSNT N-NE T01330061=
200703301452 METAR KATL 301452Z 11006KT 9SM BKN020 OVC060 12/06 A3039 RMK AO2 SLP291 T01220056 51003=
200703301352 METAR KATL 301352Z 09011KT 10SM OVC015 11/06 A3038 RMK AO2 SLP290 T01110061=
200703301335 SPECI KATL 301335Z 08012KT 9SM OVC015 11/07 A3038=
200703301252 METAR KATL 301252Z 09011KT 8SM OVC013 11/07 A3039 RMK AO2 SLP291 T01060067=
200703301152 METAR KATL 301152Z 09011KT 8SM OVC013 10/07 A3038 RMK AO2 SLP286 T01000067 10117 20100 53007=
200703301052 METAR KATL 301052Z 10009KT 9SM OVC011 11/07 A3037 RMK AO2 SLP281 T01060067=
200703300952 METAR KATL 300952Z 09008KT 9SM OVC013 11/07 A3036 RMK AO2 SLP278 T01060072=
200703300926 SPECI KATL 300926Z 09010KT 10SM OVC013 11/07 A3036 RMK AO2=
200703300926 SPECI KATL 300926Z 09010KT 10SM OVC013 11/07 A3036 RMK AO2=
200703300852 METAR KATL 300852Z 10009KT 10SM OVC015 11/06 A3036 RMK AO2 SLP276 T01110061 51001=
200703300752 METAR KATL 300752Z 09010KT 10SM OVC017 11/06 A3036 RMK AO2 SLP275 T01110056=
200703300652 METAR KATL 300652Z 09015KT 10SM OVC015 12/07 A3036 RMK AO2 SLP275 T01170067=
200703300623 SPECI KATL 300623Z 08014KT 10SM OVC015 12/07 A3035 RMK AO2=
200703300623 SPECI KATL 300623Z 08014KT 10SM OVC015 12/07 A3035 RMK AO2=
200703300552 METAR KATL 300552Z 08013KT 10SM OVC013 12/08 A3035 RMK AO2 SLP274 T01170078 10172 20117 50005=
200703300452 METAR KATL 300452Z 08012KT 10SM OVC013 12/08 A3036 RMK AO2 SLP277 T01220083 402670117=
200703300352 METAR KATL 300352Z 09013KT 9SM OVC013 13/09 A3036 RMK AO2 SLP275 T01280089=
200703300252 METAR KATL 300252Z 08016KT 9SM OVC013 13/09 A3034 RMK AO2 SLP270 T01330094 51024=
200703300204 SPECI KATL 300204Z 08016G21KT 9SM OVC013 14/10 A3033 RMK AO2=
200703300204 SPECI KATL 300204Z 08016G21KT 9SM OVC013 14/10 A3033 RMK AO2=
200703300152 METAR KATL 300152Z 08017G24KT 9SM OVC015 14/10 A3032=
200703300052 METAR KATL 300052Z 09016KT 10SM OVC020 16/11 A3029 RMK AO2 SLP254 T01610106=
200703300013 SPECI KATL 300013Z 08015KT 9SM BKN024 BKN250 17/11 A3028 RMK AO2=
200703292352 METAR KATL 292352Z 08016KT 9SM FEW025 BKN250 17/11 A3026 RMK AO2 SLP245 T01720106 10267 20172 53016=
200703292252 METAR KATL 292252Z 08019KT 9SM SCT250 20/12 A3024 RMK AO2 SLP235 T02000117=
200703292152 METAR KATL 292152Z 10013G20KT 9SM FEW250 23/12 A3022 RMK AO2 SLP229 T02280122=
200703292052 METAR KATL 292052Z 09017G20KT 7SM FEW250 SCT300 24/13 A3022 RMK AO2 SLP226 T02390133 55007=
200703291952 METAR KATL 291952Z 11014G18KT 7SM FEW042 SCT070 SCT250 SCT300 26/14 A3021 RMK AO2 SLP223 T02560139=
200703291852 METAR KATL 291852Z 07012KT 7SM FEW040 26/15 A3022 RMK AO2 SLP226 T02610150=
200703291752 METAR KATL 291752Z 07011KT 7SM FEW045 25/14 A3024 RMK AO2 SLP232 T02500144 10261 20178 50001=
200703291652 METAR KATL 291652Z 09008KT 7SM FEW250 SCT300 25/15 A3024 RMK AO2 SLP232 T02500150=
200703291552 METAR KATL 291552Z 05010KT 7SM FEW250 BKN300 23/14 A3024 RMK AO2 SLP234 T02330144=
200703291452 METAR KATL 291452Z 07011KT 6SM HZ FEW250 BKN300 22/14 A3024 RMK AO2 SLP232 T02170139 53017=
200703291352 METAR KATL 291352Z 07015KT 6SM HZ FEW250 SCT300 20/13 A3022 RMK AO2 SLP226 T02000133=
200703291252 METAR KATL 291252Z 08012KT 7SM SCT250 18/13 A3020 RMK AO2 SLP218 T01830128=
200703291152 METAR KATL 291152Z 06011KT 7SM FEW070 SCT250 18/12 A3018=
200703291052 METAR KATL 291052Z 04007KT 10SM SCT075 19/12 A3016 RMK AO2 SLP205 T01890122=
200703290952 METAR KATL 290952Z 32005KT 10SM SCT100 18/12 A3014 RMK AO2 SLP199 T01780117=
200703290852 METAR KATL 290852Z 34003KT 10SM CLR 17/12 A3013 RMK AO2 SLP195 T01720117 56002=
200703290752 METAR KATL 290752Z 33003KT 10SM FEW150 18/12 A3013 RMK AO2 SLP195 T01830117=
200703290652 METAR KATL 290652Z 00000KT 10SM CLR 19/12 A3014 RMK AO2 SLP196 T01940117=
200703290552 METAR KATL 290552Z 00000KT 10SM FEW250 21/11 A3014 RMK AO2 SLP197 T02060111 10250 20194 58001=
200703290452 METAR KATL 290452Z 30004KT 10SM FEW250 21/11 A3014=
200703290352 METAR KATL 290352Z 29003KT 10SM FEW250 21/11 A3015 RMK AO2 SLP201 T02110111=
200703290252 METAR KATL 290252Z 23003KT 10SM SCT250 21/11 A3014 RMK AO2 SLP199 T02110111 53007=
200703290152 METAR KATL 290152Z 00000KT 10SM SCT250 22/11 A3013 RMK AO2 SLP198 T02220111=
200703290052 METAR KATL 290052Z 00000KT 10SM FEW250 23/11 A3012 RMK AO2 SLP194 T02330111=
200703282352 METAR KATL 282352Z 00000KT 10SM FEW060 25/10 A3012 RMK AO2 SLP192 T02500100 10278 20250 53005=
200703282252 METAR KATL 282252Z 25006KT 10SM FEW065 27/10 A3010 RMK AO2 SLP187 T02670100=
200703282152 METAR KATL 282152Z 31006KT 10SM SCT065 28/12 A3010 RMK AO2 SLP184 T02780117=
200703282052 METAR KATL 282052Z 32004KT 10SM SCT060 27/12 A3010 RMK AO2 SLP186 T02670117 56017=
200703281952 METAR KATL 281952Z 19004KT 9SM SCT060 26/11 A3012 RMK AO2 SLP191 T02610111=
200703281852 METAR KATL 281852Z 20005KT 9SM BKN065 27/12 A3014 RMK AO2 SLP198 T02670117=
200703281752 METAR KATL 281752Z 25007KT 9SM FEW055 25/12 A3015 RMK AO2 SLP203 MDT CU NW T02500122 10261 20172 58015=
200703281652 METAR KATL 281652Z 00000KT 9SM SCT044 25/13 A3018 RMK AO2 SLP211 MDT CU SE-NW T02500133=
200703281552 METAR KATL 281552Z VRB03KT 9SM FEW040 SCT090 SCT180 SCT250 24/13 A3019 RMK AO2 SLP216 T02440133=
200703281452 METAR KATL 281452Z 31006KT 8SM FEW180 SCT250 23/14 A3020 RMK AO2 SLP218 T02280144 51010=
200703281352 METAR KATL 281352Z 00000KT 6SM HZ BKN250 19/14 A3019=
200703281252 METAR KATL 281252Z 19003KT 7SM FEW150 SCT200 BKN250 18/13 A3019 RMK AO2 SLP216 T01780133=
200703281152 METAR KATL 281152Z 23003KT 7SM FEW150 BKN200 BKN250 17/13 A3017 RMK AO2 SLP209 T01720128 10194 20167 51010=
200703281052 METAR KATL 281052Z 00000KT 8SM FEW150 SCT200 BKN250 17/12 A3016 RMK AO2 SLP206 T01670122=
200703280952 METAR KATL 280952Z 00000KT 10SM FEW150 SCT200 BKN250 18/12 A3015 RMK AO2 SLP202 T01780122=
200703280852 METAR KATL 280852Z 00000KT 10SM FEW150 SCT200 BKN250 18/12 A3014 RMK AO2 SLP198 T01780122 56008=
200703280752 METAR KATL 280752Z 00000KT 10SM SCT150 BKN200 BKN250 18/12 A3014 RMK AO2 SLP197 T01830117=
200703280652 METAR KATL 280652Z 00000KT 10SM BKN200 BKN250 18/12 A3015 RMK AO2 SLP203 T01830117=
200703280552 METAR KATL 280552Z 00000KT 9SM SCT200 BKN250 19/12 A3016 RMK AO2 SLP206 T01940117 10250 20189 58001=
200703280452 METAR KATL 280452Z 00000KT 10SM BKN250 20/12 A3016=
200703280352 METAR KATL 280352Z 00000KT 10SM BKN250 20/13 A3017 RMK AO2 SLP209 T02000133=
200703280252 METAR KATL 280252Z 00000KT 10SM FEW200 BKN250 21/13 A3017 RMK AO2 SLP208 T02110133 53002=
200703280152 METAR KATL 280152Z 14004KT 10SM FEW200 SCT250 22/13 A3016 RMK AO2 SLP208 T02220128=
200703280052 METAR KATL 280052Z 14003KT 10SM SCT200 BKN250 23/13 A3016 RMK AO2 SLP206 T02330128=
200703272352 METAR KATL 272352Z 17003KT 10SM FEW050 SCT200 BKN250 25/12 A3016 RMK AO2 SLP206 T02500122 10261 20250 55001=
200703272252 METAR KATL 272252Z 17004KT 9SM FEW050 BKN200 BKN250 26/12 A3015 RMK AO2 SLP203 T02560122=
200703272152 METAR KATL 272152Z 15003KT 9SM FEW050 BKN200 OVC250 26/12 A3016 RMK AO2 SLP205 T02560122=
200703272052 METAR KATL 272052Z 15005KT 9SM SCT050 BKN200 BKN250 26/12 A3016 RMK AO2 SLP207 T02560122 56018=
200703271952 METAR KATL 271952Z 20004KT 10SM SCT055 BKN200 OVC250 26/13 A3018 RMK AO2 SLP211 BINOVC NE T02560128=
200703271852 METAR KATL 271852Z VRB03KT 9SM FEW045 SCT060 OVC200 25/13 A3020 RMK AO2 SLP219 BINOVC DSNT NE T02500128=
200703271752 METAR KATL 271752Z 00000KT 8SM FEW045 BKN200 BKN250 25/13 A3022 RMK AO2 SLP225 T02500133 10250 20167 58018 $=
200703271652 METAR KATL 271652Z 19003KT 8SM FEW040 SCT200 BKN250 24/14 A3024 RMK AO2 SLP232 T02390139 $=
200703271552 METAR KATL 271552Z 18004KT 8SM FEW030 BKN050 BKN250 23/15 A3026 RMK AO2 SLP238 T02280150 $=
200703271452 METAR KATL 271452Z VRB04KT 7SM FEW020 SCT200 BKN250 21/15 A3027 RMK AO2 SLP244 T02110150 50007=
200703271352 METAR KATL 271352Z 19007KT 6SM HZ FEW011 SCT200 BKN250 19/14 A3027=
200703271252 METAR KATL 271252Z 12004KT 6SM HZ FEW200 SCT250 18/15 A3026 RMK AO2 SLP243 T01780150=
200703271152 METAR KATL 271152Z 12004KT 6SM BR SCT200 BKN250 17/15 A3025 RMK AO2 SLP236 T01670150 10194 20167 53009=
200703271052 METAR KATL 271052Z 16003KT 7SM SCT200 BKN250 17/15 A3024 RMK AO2 SLP233 T01720150=
200703270952 METAR KATL 270952Z VRB03KT 7SM SCT200 BKN250 17/15 A3023 RMK AO2 SLP228 T01720150=
200703270852 METAR KATL 270852Z 16005KT 7SM SCT200 BKN250 18/15 A3022 RMK AO2 SLP226 T01780150 58009=
200703270752 METAR KATL 270752Z 15005KT 6SM HZ SCT200 BKN250 18/15 A3023 RMK AO2 SLP229 T01830150=
200703270652 METAR KATL 270652Z 14005KT 7SM BKN200 OVC250 19/15 A3024=
200703270552 METAR KATL 270552Z 13006KT 8SM BKN200 OVC250 19/15 A3025 RMK AO2 SLP236 T01940150 10244 20194 58005=
200703270452 METAR KATL 270452Z 14010KT 9SM OVC200 20/16 A3026 RMK AO2 SLP238 T02000156 402720178=
200703270352 METAR KATL 270352Z 13009KT 9SM OVC200 21/15 A3026 RMK AO2 SLP242 T02110150=
200703270252 METAR KATL 270252Z 11007KT 9SM OVC250 22/15 A3027 RMK AO2 SLP242 T02170150 53013=
200703270152 METAR KATL 270152Z 11008KT 9SM BKN250 23/14 A3026 RMK AO2 SLP238 T02280144=
200703270052 METAR KATL 270052Z 11008KT 9SM FEW200 BKN250 23/14 A3023 RMK AO2 SLP232 T02330139=
200703262352 METAR KATL 262352Z 14005KT 8SM SCT200 BKN250 25/13 A3023 RMK AO2 SLP229 T02500128 10272 20250 55003=
200703262252 METAR KATL 262252Z 13008KT 8SM FEW065 SCT200 OVC250 26/13 A3022 RMK AO2 SLP226 T02610128=
200703262152 METAR KATL 262152Z 14007KT 9SM SCT070 BKN200 OVC250 26/12 A3022 RMK AO2 SLP226 T02610122=
200703262052 METAR KATL 262052Z 15008KT 9SM SCT065 SCT250 BKN300 26/12 A3023 RMK AO2 SLP230 T02610117 56023=
200703261952 METAR KATL 261952Z 13007KT 100V160 9SM FEW055 SCT250 BKN300 27/12 A3025 RMK AO2 SLP233 T02670122=
200703261852 METAR KATL 261852Z 17007KT 8SM CLR SCT250 BKN300 26/12 A3027 RMK AO2 SLP243 T02560122=
200703261752 METAR KATL 261752Z 09006KT 8SM FEW050 SCT250 BKN300 25/14 A3030 RMK AO2 SLP253 T02500139 10250 20178 58014=
200703261652 METAR KATL 261652Z 13007KT 090V180 8SM FEW200 SCT250 BKN300 24/13 A3033 RMK AO2 SLP261 T02390133=
200703261552 METAR KATL 261552Z 11007KT 9SM FEW200 SCT250 BKN300 22/13 A3033 RMK AO2 SLP264 T02220133=
200703261452 METAR KATL 261452Z 09009KT 8SM FEW200 SCT250 SCT300 21/14 A3035=
200703261352 METAR KATL 261352Z 10010KT 7SM FEW200 SCT250 BKN300 19/13 A3034 RMK AO2 SLP268 T01890128=
200703261252 METAR KATL 261252Z 11009KT 8SM FEW200 BKN250 18/12 A3032 RMK AO2 SLP261 T01780122=
200703261152 METAR KATL 261152Z 12006KT 10SM BKN200 BKN250 18/12 A3031 RMK AO2 SLP256 T01780122 10217 20178 53020=
200703261052 METAR KATL 261052Z 13007KT 10SM FEW150 SCT200 BKN250 18/12 A3029 RMK AO2 SLP247 T01830117=
200703260952 METAR KATL 260952Z 15006KT 10SM SCT150 OVC200 19/12 A3027 RMK AO2 SLP240 T01940117=
200703260852 METAR KATL 260852Z 15004KT 10SM BKN150 OVC200 19/12 A3025 RMK AO2 SLP234 T01940117 53002=
200703260752 METAR KATL 260752Z 00000KT 10SM BKN150 OVC200 19/11 A3025 RMK AO2 SLP233 T01940111=
200703260652 METAR KATL 260652Z 17003KT 10SM FEW150 BKN200 OVC250 21/11 A3025 RMK AO2 SLP233 T02060111=
200703260552 METAR KATL 260552Z 00000KT 10SM FEW150 BKN200 OVC250 22/11 A3025 RMK AO2 SLP233 T02170106 10283 20211 58001=
200703260452 METAR KATL 260452Z 19004KT 9SM FEW150 BKN200 BKN250 23/11 A3025 RMK AO2 SLP234 T02280106 403060150=
200703260352 METAR KATL 260352Z 14003KT 9SM FEW150 SCT200 BKN250 23/11 A3025 RMK AO2 SLP235 T02330106=
200703260252 METAR KATL 260252Z 00000KT 10SM FEW150 SCT200 SCT250 25/10 A3025=
200703260152 METAR KATL 260152Z 13003KT 10SM SCT150 SCT200 BKN250 26/10 A3025 RMK AO2 SLP236 T02560100=
200703260052 METAR KATL 260052Z 00000KT 10SM SCT150 SCT200 BKN250 26/09 A3024=
200703252352 METAR KATL 252352Z 00000KT 10SM SCT150 BKN200 BKN250 28/09 A3023 RMK AO2 SLP230 T02830089 10306 20283 53005=
200703252252 METAR KATL 252252Z 19005KT 10SM SCT200 BKN250 29/08 A3022 RMK AO2 SLP226 T02940083=
200703252152 METAR KATL 252152Z 21006KT 10SM SCT150 BKN250 29/08 A3021 RMK AO2 SLP223 T02940083=
200703252052 METAR KATL 252052Z VRB05KT 10SM FEW250 30/08 A3022 RMK AO2 SLP223 T03000083 56026=
200703251952 METAR KATL 251952Z VRB04KT 10SM FEW250 30/08 A3024=
200703251852 METAR KATL 251852Z 18005KT 10SM FEW250 29/08 A3026 RMK AO2 SLP239 T02890083=
200703251752 METAR KATL 251752Z VRB05KT 10SM FEW250 29/09 A3029 RMK AO2 SLP250 T02890094 10294 20150 58014=
200703251652 METAR KATL 251652Z 01006KT 10SM CLR 28/10 A3032 RMK AO2 SLP259 T02830100=
200703251552 METAR KATL 251552Z 01007KT 10SM CLR 27/10 A3033 RMK AO2 SLP261 T02720100=
200703251452 METAR KATL 251452Z 33008KT 10SM FEW250 25/11 A3034 RMK AO2 SLP264 T02500111 51005=
200703251352 METAR KATL 251352Z 33006KT 10SM FEW250 22/11 A3033 RMK AO2 SLP263 T02220111=
200703251252 METAR KATL 251252Z 33006KT 9SM FEW200 18/11 A3033 RMK AO2 SLP265 T01830106=
200703251052 METAR KATL 251052Z 29006KT 10SM CLR 16/09 A3031 RMK AO2 SLP257 T01610094=
200703250952 METAR KATL 250952Z 28005KT 10SM CLR 16/09 A3029 RMK AO2 SLP248 T01610094=
200703250852 METAR KATL 250852Z 28005KT 10SM CLR 17/10 A3027 RMK AO2 SLP243 T01720100 58010=
200703250752 METAR KATL 250752Z 00000KT 10SM CLR 17/09 A3028 RMK AO2 SLP246 T01720094=
200703250652 METAR KATL 250652Z 28003KT 10SM CLR 18/09 A3029=
200703250552 METAR KATL 250552Z 30006KT 10SM CLR 20/09 A3030 RMK AO2 SLP253 T02000089 10250 20194 52000=
200703250452 METAR KATL 250452Z 27005KT 10SM CLR 20/09 A3030 RMK AO2 SLP253 T02000094 402830144=
200703250352 METAR KATL 250352Z 26004KT 10SM FEW250 21/09 A3030 RMK AO2 SLP254 T02060089=
200703250252 METAR KATL 250252Z 26003KT 10SM SCT250 22/10 A3030 RMK AO2 SLP253 T02170100 51009=
200703250152 METAR KATL 250152Z 28004KT 10SM SCT250 22/09 A3029 RMK AO2 SLP252 T02220094=
200703250052 METAR KATL 250052Z 26003KT 10SM BKN250 24/09 A3028 RMK AO2 SLP249 T02390089=
200703242352 METAR KATL 242352Z 20005KT 10SM FEW200 BKN250 25/09 A3027 RMK AO2 SLP246 T02500094 10283 20250 55004=
200703242252 METAR KATL 242252Z 18005KT 10SM FEW200 BKN250 27/09 A3027 RMK AO2 SLP242 T02720089=
200703242152 METAR KATL 242152Z VRB03KT 10SM SCT200 BKN250 28/08 A3027 RMK AO2 SLP243 T02830078=
200703242052 METAR KATL 242052Z 30004KT 10SM SCT200 BKN250 28/09 A3029 RMK AO2 SLP248 T02780089 56019=
200703241952 METAR KATL 241952Z VRB04KT 10SM FEW200 BKN250 28/09 A3030=
200703241852 METAR KATL 241852Z VRB06KT 10SM FEW200 BKN250 28/09 A3032 RMK AO2 SLP260 T02780094=
200703241752 METAR KATL 241752Z VRB04KT 10SM FEW150 SCT200 SCT250 26/09 A3034 RMK AO2 SLP267 T02610094 10267 20150 58005=
200703241652 METAR KATL 241652Z VRB03KT 10SM FEW200 BKN250 25/11 A3036 RMK AO2 SLP274 T02500106=
200703241552 METAR KATL 241552Z VRB03KT 10SM FEW150 SCT200 SCT250 24/12 A3037 RMK AO2 SLP277 T02440117=
200703241452 METAR KATL 241452Z 24006KT 10SM FEW150 SCT250 23/12 A3036 RMK AO2 SLP274 T02280122 51017=
200703241352 METAR KATL 241352Z 24005KT 9SM FEW250 20/12 A3035 RMK AO2 SLP271 T02000122=
200703241252 METAR KATL 241252Z 24006KT 10SM FEW250 17/11 A3034 RMK AO2 SLP267 T01720111=
200703241152 METAR KATL 241152Z 22005KT 8SM FEW250 15/10 A3031 RMK AO2 SLP257 T01500100 10183 20144 53022=
200703241052 METAR KATL 241052Z 00000KT 10SM FEW250 15/10 A3028 RMK AO2 SLP248 T01500100=
200703240952 METAR KATL 240952Z 31004KT 10SM FEW250 17/10 A3025=
200703240852 METAR KATL 240852Z 24003KT 10SM SCT250 16/10 A3024=
200703240752 METAR KATL 240752Z 23004KT 10SM CLR 17/10 A3024 RMK AO2 SLP235 T01670100=
200703240652 METAR KATL 240652Z 23005KT 10SM FEW250 18/09 A3026 RMK AO2 SLP239 T01780094=
200703240552 METAR KATL 240552Z 22004KT 10SM FEW250 18/10 A3026 RMK AO2 SLP241 T01830100 10244 20178 50002=
200703240452 METAR KATL 240452Z 22005KT 10SM FEW250 18/10 A3027 RMK AO2 SLP244 T01830100 402610128=
200703240352 METAR KATL 240352Z 20006KT 10SM CLR 19/10 A3026 RMK AO2 SLP242 T01890100=
200703240252 METAR KATL 240252Z 20003KT 10SM CLR 20/11 A3026 RMK AO2 SLP240 T02000106 51013=
200703240152 METAR KATL 240152Z 00000KT 10SM FEW250 22/10 A3025 RMK AO2 SLP236 T02170100=
200703240052 METAR KATL 240052Z 18003KT 10SM FEW250 23/11 A3023 RMK AO2 SLP231 T02280106=
200703232352 METAR KATL 232352Z 19004KT 10SM FEW200 SCT250 24/10 A3022 RMK AO2 SLP228 T02390100 10261 20233 53003=
200703232252 METAR KATL 232252Z 23006KT 10SM FEW250 25/09 A3021 RMK AO2 SLP226 T02500094=
200703232152 METAR KATL 232152Z 21009KT 10SM FEW060 26/09 A3021 RMK AO2 SLP224 T02560094=
200703232052 METAR KATL 232052Z 24006KT 10SM FEW060 25/09 A3021 RMK AO2 SLP224 T02500094 56026=
200703231952 METAR KATL 231952Z VRB03KT 10SM SCT060 25/09 A3023 RMK AO2 SLP230 T02500094=
200703231852 METAR KATL 231852Z 20007KT 10SM SCT055 25/10 A3026 RMK AO2 SLP241 T02500100=
200703231752 METAR KATL 231752Z 19012G15KT 10SM BKN050 23/10 A3029 RMK AO2 SLP251 T02330100 10239 20128 58020=
200703231652 METAR KATL 231652Z VRB03KT 10SM FEW045 SCT280 23/11 A3032 RMK AO2 SLP260 T02280111=
200703231552 METAR KATL 231552Z VRB05KT 10SM FEW280 22/12 A3034 RMK AO2 SLP269 T02170117=
200703231452 METAR KATL 231452Z 23006KT 10SM FEW200 SCT280 20/12 A3035 RMK AO2 SLP271 T02000117 51015=
200703231352 METAR KATL 231352Z 23007KT 9SM FEW280 18/12 A3035 RMK AO2 SLP271 T01780117=
200703231252 METAR KATL 231252Z 00000KT 10SM FEW250 16/12 A3033 RMK AO2 SLP266 T01560122=
200703231152 METAR KATL 231152Z 00000KT 10SM FEW250 13/11 A3030 RMK AO2 SLP258 T01330106 10172 20133 53016=
200703231052 METAR KATL 231052Z 00000KT 10SM FEW250 14/11 A3029 RMK AO2 SLP252 T01390111=
200703230952 METAR KATL 230952Z 18003KT 9SM CLR 14/11 A3026 RMK AO2 SLP243 T01440111=
200703230852 METAR KATL 230852Z 20003KT 10SM CLR 14/11 A3026 RMK AO2 SLP241 T01440111 57003=
200703230752 METAR KATL 230752Z 19003KT 10SM CLR 15/11 A3026 RMK AO2 SLP241 T01500106=
200703230652 METAR KATL 230652Z 18006KT 10SM CLR 15/11 A3026 RMK AO2 SLP243 T01500106=
200703230452 METAR KATL 230452Z 00000KT 10SM FEW250 17/10 A3027 RMK AO2 SLP247 T01670100 402390122=
200703230352 METAR KATL 230352Z 14003KT 10SM FEW250 17/11 A3029 RMK AO2 SLP251 T01720106=
200703230252 METAR KATL 230252Z 00000KT 10SM FEW250 19/10 A3029 RMK AO2 SLP253 T01890100 51006=
200703230052 METAR KATL 230052Z 17004KT 10SM SCT200 BKN250 21/09 A3028 RMK AO2 SLP251 T02060094=
200703222352 METAR KATL 222352Z 00000KT 10SM FEW065 SCT200 BKN250 21/09 A3027 RMK AO2 SLP248 T02110094 10239 20211 56003=
200703222252 METAR KATL 222252Z 15005KT 10SM BKN065 BKN200 BKN250 22/10 A3028 RMK AO2 SLP249 T02220100=
200703222152 METAR KATL 222152Z 15007KT 10SM BKN060 23/09 A3027 RMK AO2 SLP247 T02280094=
200703222052 METAR KATL 222052Z 20003KT 10SM BKN060 BKN250 23/09 A3028 RMK AO2 SLP250 T02330094 56023=
200703221952 METAR KATL 221952Z 16008KT 10SM BKN055 23/09 A3030 RMK AO2 SLP257 T02280089=
200703221852 METAR KATL 221852Z 19009KT 10SM BKN050 22/09 A3033 RMK AO2 SLP265 T02170094=
200703221752 METAR KATL 221752Z 18008KT 10SM BKN045 BKN250 21/11 A3035 RMK AO2 SLP273 T02110106 10217 20122 58024=
200703221652 METAR KATL 221652Z 20006KT 10SM SCT037 SCT250 21/11 A3038 RMK AO2 SLP281 T02060111=
200703221552 METAR KATL 221552Z 16007KT 10SM SCT028 SCT250 19/12 A3040 RMK AO2 SLP290 T01940117=
200703221452 METAR KATL 221452Z 17007KT 9SM FEW020 SCT250 18/12 A3043 RMK AO2 SLP298 T01830122 50007=
200703221352 METAR KATL 221352Z 14005KT 8SM FEW027 SCT250 16/12 A3043 RMK AO2 SLP302 T01560117=
200703221252 METAR KATL 221252Z 09004KT 10SM FEW250 14/11 A3042=
200703221152 METAR KATL 221152Z 11003KT 10SM FEW070 SCT200 SCT250 13/10 A3040 RMK AO2 SLP292 T01330100 10167 20122 53011=
200703220952 METAR KATL 220952Z 12003KT 10SM FEW250 13/09 A3038 RMK AO2 SLP282 T01330094=
200703220852 METAR KATL 220852Z 12005KT 10SM FEW070 SCT250 14/09 A3037 RMK AO2 SLP279 T01440094 56008=
200703220752 METAR KATL 220752Z 12003KT 10SM FEW070 SCT250 15/09 A3037 RMK AO2 SLP280 T01500094=
200703220652 METAR KATL 220652Z 15007KT 10SM SCT070 SCT250 16/09 A3038 RMK AO2 SLP283 T01560094=
200703220552 METAR KATL 220552Z 14007KT 10SM FEW070 SCT250 17/09 A3040 RMK AO2 SLP287 T01670089 10211 20167 58004=
200703220452 METAR KATL 220452Z 14009KT 10SM FEW070 18/09 A3041 RMK AO2 SLP292 T01780089 402500122=
200703220352 METAR KATL 220352Z 14008G15KT 10SM SCT070 18/10 A3041 RMK AO2 SLP291 T01830100=
200703220252 METAR KATL 220252Z 13006KT 10SM OVC070 19/10 A3041 RMK AO2 SLP293 T01940100 51013=
200703220152 METAR KATL 220152Z 13006KT 10SM OVC070 20/09 A3040 RMK AO2 SLP290 T02000094=
200703220052 METAR KATL 220052Z 14010KT 10SM BKN075 20/09 A3038 RMK AO2 SLP285 T02000089=
200703212352 METAR KATL 212352Z 14009KT 10SM SCT070 22/08 A3037 RMK AO2 SLP280 T02170083 10250 20217 53002=
200703212252 METAR KATL 212252Z 14008KT 10SM BKN070 BKN250 23/08 A3036 RMK AO2 SLP276 T02280078=
200703212152 METAR KATL 212152Z 14012KT 10SM BKN070 BKN200 BKN250 23/07 A3035=
200703212052 METAR KATL 212052Z 16011KT 9SM BKN070 BKN250 BKN300 24/07 A3036 RMK AO2 SLP277 T02390072 56020=
200703211952 METAR KATL 211952Z 15008KT 10SM FEW065 SCT250 SCT300 24/07 A3037=
200703211852 METAR KATL 211852Z 10011G17KT 10SM FEW065 SCT300 24/07 A3040 RMK AO2 SLP287 T02440072=
200703211752 METAR KATL 211752Z 11011KT 9SM FEW065 SCT300 23/07 A3042=
200703211652 METAR KATL 211652Z 12009KT 10SM FEW300 23/06 A3044 RMK AO2 SLP304 T02280061=
200703211552 METAR KATL 211552Z 15004KT 9SM FEW300 21/06 A3045 RMK AO2 SLP308 T02060056=
200703211452 METAR KATL 211452Z 19005KT 9SM FEW300 18/05 A3045 RMK AO2 SLP307 T01830050 53016=
200703211352 METAR KATL 211352Z VRB03KT 10SM FEW250 SCT300 16/07 A3043 RMK AO2 SLP301 T01610067=
200703211152 METAR KATL 211152Z 13003KT 8SM FEW250 13/07 A3040 RMK AO2 SLP291 T01280072 10161 20122 53014=
200703211052 METAR KATL 211052Z 12003KT 10SM CLR 13/07 A3038 RMK AO2 SLP285 T01280072=
200703210952 METAR KATL 210952Z 11004KT 8SM CLR 13/08 A3037 RMK AO2 SLP278 T01330078=
200703210852 METAR KATL 210852Z 00000KT 10SM CLR 13/07 A3036 RMK AO2 SLP276 T01330072 58004=
200703210752 METAR KATL 210752Z 00000KT 10SM CLR 16/07 A3037 RMK AO2 SLP277 T01560067=
200703210652 METAR KATL 210652Z 00000KT 10SM CLR 16/07 A3037 RMK AO2 SLP278 T01560072=
200703210552 METAR KATL 210552Z 00000KT 10SM CLR 16/07 A3037 RMK AO2 SLP279 T01560072 10228 20156 50002=
200703210452 METAR KATL 210452Z 19004KT 10SM CLR 17/08 A3038 RMK AO2 SLP281 T01670078 402440106=
200703210352 METAR KATL 210352Z 21004KT 10SM FEW080 17/08 A3037 RMK AO2 SLP280 T01720078=
200703210252 METAR KATL 210252Z 00000KT 10SM BKN075 19/08 A3037 RMK AO2 SLP277 T01890078 53009=
200703210152 METAR KATL 210152Z 00000KT 10SM OVC080 20/08 A3036 RMK AO2 SLP275 T02000078=
200703210052 METAR KATL 210052Z 00000KT 10SM OVC075 22/07 A3035 RMK AO2 SLP272 T02170072=
200703202352 METAR KATL 202352Z 00000KT 10SM OVC080 22/07 A3034 RMK AO2 SLP271 T02170072 10244 20217 53005=
200703202252 METAR KATL 202252Z 00000KT 10SM OVC080 23/06 A3033 RMK AO2 SLP267 T02330056=
200703202152 METAR KATL 202152Z 00000KT 10SM BKN080 24/06 A3032 RMK AO2 SLP264 T02390056=
200703202052 METAR KATL 202052Z 00000KT 10SM SCT075 23/06 A3032 RMK AO2 SLP265 T02330056 56020=
200703201952 METAR KATL 201952Z 04005KT 10SM SCT070 23/05 A3034 RMK AO2 SLP271 T02330050=
200703201852 METAR KATL 201852Z VRB05KT 10SM SCT060 24/06 A3036 RMK AO2 SLP276 T02440061=
200703201752 METAR KATL 201752Z 29005G14KT 9SM SCT120 23/05 A3039 RMK AO2 SLP285 T02330050 10239 20106 58011=
200703201652 METAR KATL 201652Z 29010KT 9SM FEW090 22/05 A3041 RMK AO2 SLP292 T02220050=
200703201552 METAR KATL 201552Z 27012KT 10SM CLR 21/04 A3042 RMK AO2 SLP298 T02110039=
200703201452 METAR KATL 201452Z 25012KT 10SM CLR 19/03 A3042=
200703201352 METAR KATL 201352Z 25007KT 10SM FEW250 17/04 A3040 RMK AO2 SLP292 T01720044=
200703201252 METAR KATL 201252Z 24003KT 10SM FEW250 13/05 A3039 RMK AO2 SLP290 T01280050=
200703201152 METAR KATL 201152Z 00000KT 10SM SCT060 SCT250 11/04 A3038 RMK AO2 SLP288 T01060039 10139 20106 53010=
200703201052 METAR KATL 201052Z 23004KT 10SM FEW060 SCT250 11/04 A3036 RMK AO2 SLP281 T01060039=
200703200952 METAR KATL 200952Z 23005KT 10SM FEW060 SCT250 11/03 A3036 RMK AO2 SLP277 T01110033=
200703200852 METAR KATL 200852Z 22004KT 10SM FEW060 SCT090 SCT250 12/04 A3035 RMK AO2 SLP276 T01170039 58002=
200703200752 METAR KATL 200752Z 20003KT 10SM FEW090 SCT250 12/04 A3036 RMK AO2 SLP277 T01220039=
200703200652 METAR KATL 200652Z COR 21005KT 10SM FEW065 BKN090 BKN250 13/04 A3036 RMK AO2 SLP278 T01330039=
200703200552 METAR KATL 200552Z 19005KT 10SM BKN090 BKN250 14/04 A3036 RMK AO2 SLP278 T01390039 10189 20139 50003=
200703200452 METAR KATL 200452Z 20005KT 10SM SCT090 BKN250 14/04 A3036 RMK AO2 SLP279 T01390039 402110056=
200703200352 METAR KATL 200352Z 20008KT 10SM FEW090 14/04 A3035 RMK AO2 SLP276 T01440039=
200703200252 METAR KATL 200252Z 21007KT 10SM FEW100 SCT250 16/03 A3035 RMK AO2 SLP276 T01560033 51010=
200703200052 METAR KATL 200052Z 19006KT 10SM FEW100 BKN200 BKN250 17/04 A3033 RMK AO2 SLP271 T01720039=
200703192352 METAR KATL 192352Z 19007KT 10SM FEW100 SCT200 BKN250 19/03 A3032 RMK AO2 SLP267 T01940033 10211 20189 51009=
200703192252 METAR KATL 192252Z 19012KT 10SM FEW070 BKN250 21/03 A3031 RMK AO2 SLP263 T02060028=
200703192152 METAR KATL 192152Z 23009KT 10SM SCT070 BKN250 21/03 A3030=
200703192052 METAR KATL 192052Z 22012G21KT 10SM FEW090 SCT250 21/03 A3029 RMK AO2 SLP255 T02110028 56016=
200703191952 METAR KATL 191952Z 20013KT 10SM FEW090 SCT250 21/03 A3030 RMK AO2 SLP259 T02060028=
200703191852 METAR KATL 191852Z 20009G16KT 170V240 8SM FEW100 BKN250 20/03 A3032 RMK AO2 SLP265 T02000033=
200703191752 METAR KATL 191752Z 20012KT 10SM BKN250 19/04 A3034 RMK AO2 SLP273 T01890044 10189 20056 58009=
200703191652 METAR KATL 191652Z 25012G17KT 10SM SCT250 18/03 A3036=
200703191552 METAR KATL 191552Z 20006KT 7SM SCT250 16/03 A3037 RMK AO2 SLP284 T01560033=
200703191452 METAR KATL 191452Z 14004KT 9SM BKN250 13/02 A3037=
200703191352 METAR KATL 191352Z 12004KT 10SM FEW250 10/M02 A3037 RMK AO2 SLP285 T01001017=
200703191252 METAR KATL 191252Z 10006KT 10SM FEW090 SCT250 08/M03 A3036 RMK AO2 SLP281 T00831028=
200703191152 METAR KATL 191152Z 09007KT 10SM FEW090 SCT250 06/M02 A3033 RMK AO2 SLP271 T00561022 10089 20056 53010=
200703191052 METAR KATL 191052Z 07009KT 10SM FEW090 06/M03 A3031 RMK AO2 SLP266 T00611028=
200703190952 METAR KATL 190952Z 10007KT 10SM SCT090 07/M03 A3030 RMK AO2 SLP261 T00721033=
200703190852 METAR KATL 190852Z 13005KT 10SM FEW070 BKN090 08/M03 A3029 RMK AO2 SLP259 T00831033 53003=
200703190752 METAR KATL 190752Z 13003KT 10SM OVC070 09/M03 A3029 RMK AO2 SLP257 BINOVC T00891033=
200703190652 METAR KATL 190652Z 09004KT 10SM SCT070 BKN090 08/M03 A3029 RMK AO2 SLP258 T00831028=
200703190552 METAR KATL 190552Z 00000KT 10SM SCT090 08/M04 A3029 RMK AO2 SLP258 T00831039 10128 20078 51000=
200703190452 METAR KATL 190452Z 10004KT 10SM FEW070 09/M04 A3029 RMK AO2 SLP258 T00941044 401500006=
200703190352 METAR KATL 190352Z 06007KT 10SM BKN080 10/M04 A3029 RMK AO2 SLP259 T01001044=
200703190252 METAR KATL 190252Z 06005KT 10SM SCT090 10/M04 A3028 RMK AO2 SLP258 T01001044 51017=
200703190152 METAR KATL 190152Z 01005KT 10SM SCT080 12/M05 A3027 RMK AO2 SLP253 T01171050=
200703190052 METAR KATL 190052Z 02006KT 10SM BKN075 13/M05 A3025 RMK AO2 SLP249 T01281050=
200703182352 METAR KATL 182352Z 33006KT 10SM SCT080 BKN150 BKN250 13/M05 A3023 RMK AO2 SLP243 T01281050 10150 20117 53008=
200703182152 METAR KATL 182152Z VRB06KT 10SM SCT150 SCT250 14/M05 A3021=
200703182052 METAR KATL 182052Z 35004KT 10SM FEW250 15/M04 A3021 RMK AO2 SLP232 T01501044 56016=
200703181952 METAR KATL 181952Z VRB04KT 10SM FEW250 14/M06 A3021 RMK AO2 SLP234 T01391056=
200703181852 METAR KATL 181852Z 34010KT 300V360 10SM FEW250 14/M06 A3023 RMK AO2 SLP239 T01391056=
200703181752 METAR KATL 181752Z VRB03KT 10SM FEW250 12/M06 A3025 RMK AO2 SLP249 T01171061 10122 20006 58006=
200703181652 METAR KATL 181652Z 02006KT 10SM FEW250 11/M07 A3028=
200703181552 METAR KATL 181552Z 02007G16KT 10SM FEW250 09/M08 A3028 RMK AO2 SLP258 T00941083=
200703181452 METAR KATL 181452Z 02011KT 10SM FEW250 08/M08 A3027 RMK AO2 SLP257 T00781078 53018=
200703181352 METAR KATL 181352Z 01007KT 10SM SCT250 06/M07 A3025 RMK AO2 SLP250 T00611072=
200703181252 METAR KATL 181252Z 33006KT 10SM FEW250 03/M07 A3023=
200703181152 METAR KATL 181152Z 32006KT 10SM FEW250 01/M06 A3022 RMK AO2 SLP238 T00061061 10039 20006 53016=
200703181052 METAR KATL 181052Z 31005KT 10SM CLR 01/M06 A3019 RMK AO2 SLP228 T00061056=
200703180952 METAR KATL 180952Z 32005KT 10SM CLR 02/M06 A3018 RMK AO2 SLP224 T00171056=
200703180852 METAR KATL 180852Z 32004KT 10SM CLR 02/M06 A3017 RMK AO2 SLP221 T00221061 52000=
200703180752 METAR KATL 180752Z 29005KT 10SM FEW110 03/M06 A3017 RMK AO2 SLP221 T00281061=
200703180652 METAR KATL 180652Z 28005KT 10SM FEW110 03/M07 A3017 RMK AO2 SLP221 T00331067=
200703180552 METAR KATL 180552Z COR 27004KT 10SM FEW110 04/M07 A3017 RMK AO2 SLP220 T00391072 10094 20039 51004=
200703180452 METAR KATL 180452Z 31004KT 10SM BKN120 05/M07 A3017 RMK AO2 SLP220 T00501067 401170017=
200703180352 METAR KATL 180352Z 28005KT 10SM SCT110 05/M08 A3017 RMK AO2 SLP220 T00501083=
200703180252 METAR KATL 180252Z 29006KT 10SM SCT120 06/M08 A3016 RMK AO2 SLP217 T00561083 53020=
200703180152 METAR KATL 180152Z 28005KT 10SM FEW130 07/M09 A3013 RMK AO2 SLP210 T00671089=
200703180052 METAR KATL 180052Z 31008KT 10SM SCT130 08/M11 A3012 RMK AO2 SLP204 T00781106=
200703172352 METAR KATL 172352Z 32014KT 10SM BKN150 09/M11 A3009 RMK AO2 SLP196 T00941106 10117 20094 53004=
200703172252 METAR KATL 172252Z 31011KT 10SM FEW150 10/M10 A3009 RMK AO2 SLP193 T01001100=
200703172152 METAR KATL 172152Z 31013KT 10SM FEW150 11/M10 A3007 RMK AO2 SLP188 T01111100=
200703172052 METAR KATL 172052Z 32014G19KT 10SM FEW250 12/M09 A3008 RMK AO2 SLP191 T01171089 56013=
200703171952 METAR KATL 171952Z 32011G16KT 280V350 10SM FEW250 11/M10 A3009 RMK AO2 SLP192 T01061100=
200703171852 METAR KATL 171852Z 30015G22KT 10SM FEW150 SCT250 10/M09 A3011 RMK AO2 SLP199 T01001094=
200703171752 METAR KATL 171752Z 34010G20KT 10SM BKN150 BKN250 10/M09 A3012 RMK AO2 SLP204 T01001089 10100 20017 58006=
200703171652 METAR KATL 171652Z 31016KT 10SM FEW150 SCT250 09/M07 A3014 RMK AO2 SLP210 T00891072=
200703171552 METAR KATL 171552Z 33010G18KT 10SM FEW050 SCT150 SCT250 07/M05 A3014=
200703171452 METAR KATL 171452Z 31017G24KT 10SM FEW035 SCT150 BKN250 06/M04 A3014 RMK AO2 SLP211 T00561044 51026=
200703171352 METAR KATL 171352Z 34015KT 10SM FEW027 SCT150 BKN250 03/M04 A3012 RMK AO2 SLP204 T00331039=
200703171252 METAR KATL 171252Z 32014KT 10SM FEW030 SCT250 02/M04 A3010 RMK AO2 SLP197 T00221039=
200703171152 METAR KATL 171152Z 32010G21KT 10SM CLR 02/M04 A3006 RMK AO2 SLP186 70003 T00171044 10044 20017 53020=
200703171052 METAR KATL 171052Z 32012KT 10SM CLR 02/M05 A3003 RMK AO2 SLP175 T00221050=
200703170952 METAR KATL 170952Z 33012G20KT 10SM CLR 03/M06 A3002 RMK AO2 SLP170 T00281056=
200703170852 METAR KATL 170852Z 31012KT 10SM CLR 03/M06 A3000 RMK AO2 SLP164 T00281056 58008=
200703170752 METAR KATL 170752Z 32013KT 10SM CLR 04/M06 A3002 RMK AO2 SLP168 T00391056=
200703170652 METAR KATL 170652Z 32014G20KT 10SM CLR 04/M05 A3002 RMK AO2 SLP171 T00441050=
200703170552 METAR KATL 170552Z 32013G18KT 10SM CLR 04/M03 A3003 RMK AO2 SLP172 T00441028 10083 20044 51004=
200703170452 METAR KATL 170452Z 32010KT 10SM CLR 05/M02 A3002 RMK AO2 SLP170 T00501017 401670050=
200703170352 METAR KATL 170352Z 32009KT 10SM CLR 06/M01 A3003 RMK AO2 SLP170 T00561006=
200703170252 METAR KATL 170252Z 32011KT 10SM CLR 06/00 A3002 RMK AO2 SLP166 T00610000 51016=
200703170152 METAR KATL 170152Z 33009KT 10SM CLR 07/00 A3000 RMK AO2 SLP159 T00670000=
200703170052 METAR KATL 170052Z 34013KT 10SM CLR 07/00 A2999 RMK AO2 SLP157 T00720000=
200703162352 METAR KATL 162352Z 33015G20KT 10SM CLR 08/00 A2997 RMK AO2 PK WND 33028/2311 SLP148 T00830000 10122 20083 53016=
200703162252 METAR KATL 162252Z 32018G25KT 10SM FEW025 09/02 A2995 RMK AO2 PK WND 33027/2222 SLP140 T00940017=
200703162152 METAR KATL 162152Z 33020G27KT 10SM SCT025 10/03 A2992 RMK AO2 PK WND 33028/2059 SLP131 T01000033=
200703162150 SPECI KATL 162150Z 32018G25KT 10SM SCT025 10/03 A2992 RMK AO2 PK WND 33028/2059=
200703162150 SPECI KATL 162150Z 32018G25KT 10SM SCT025 10/03 A2992 RMK AO2 PK WND 33028/2059=
200703162052 METAR KATL 162052Z 33022G25KT 10SM BKN022 OVC028 11/04 A2991 RMK AO2 SLP127 BINOVC T01060044 53004=
200703161952 METAR KATL 161952Z 32020G26KT 10SM BKN022 12/05 A2989 RMK AO2 PK WND 31032/1939 SLP121 T01170050=
200703161852 METAR KATL 161852Z 31015G29KT 10SM OVC020 11/06 A2990 RMK AO2 PK WND 32029/1845 SLP122 BINOVC T01110056=
200703161752 METAR KATL 161752Z 32020G25KT 10SM BKN015 OVC020 11/06 A2990 RMK AO2 PK WND 33028/1739 DZE1654 SLP123 BINOVC P0000 60003 T01060061 10161 20100 51007=
200703161655 SPECI KATL 161655Z 31019G26KT 10SM OVC012 11/08 A2989 RMK AO2 DZE54 P0000=
200703161655 SPECI KATL 161655Z 31019G26KT 10SM OVC012 11/08 A2989 RMK AO2 DZE54 P0000=
200703161652 METAR KATL 161652Z 31017G27KT 9SM -DZ BKN010 OVC013 11/08 A2989 RMK AO2 PK WND 32029/1630 CIG 009V012 SLP119 P0000 T01060078=
200703161615 SPECI KATL 161615Z 31020G29KT 8SM -DZ BKN010 OVC014 11/08 A2988 RMK AO2 PK WND 31029/1607 P0000=
200703161615 SPECI KATL 161615Z 31020G29KT 8SM -DZ BKN010 OVC014 11/08 A2988 RMK AO2 PK WND 31029/1607 P0000=
200703161552 METAR KATL 161552Z 30021G26KT 8SM -DZ OVC009 11/09 A2988 RMK AO2 PK WND 30031/1453 DZB44 SLP116 P0000 T01110089=
200703161452 METAR KATL 161452Z 30018G31KT 10SM OVC010 14/11 A2984 RMK AO2 PK WND 31031/1444 WSHFT 1352 RAE1359 CIG 006V012 SLP101 P0000 60003 T01390111 53016 $=
200703161434 SPECI KATL 161434Z 32021G28KT 9SM BKN008 BKN012 OVC020 15/13 A2982 RMK AO2 PK WND 32028/1429 WSHFT 1352 RAE1359 P0000 $=
200703161434 SPECI KATL 161434Z 32021G28KT 9SM BKN008 BKN012 OVC020 15/13 A2982 RMK AO2 PK WND 32028/1429 WSHFT 1352 RAE1359 P0000 $=
200703161419 SPECI KATL 161419Z AUTO 30015G18KT 8SM BKN010 BKN015 OVC030 16/14 A2980 RMK AO2 WSHFT 1352 RAE1359 P0000=
200703161419 SPECI KATL 161419Z AUTO 30015G18KT 8SM BKN010 BKN015 OVC030 16/14 A2980 RMK AO2 WSHFT 1352 RAE1359 P0000=
200703161410 SPECI KATL 161410Z 29010KT 9SM BKN010 BKN015 OVC100 16/14 A2980 RMK AO2 WSHFT 1352 RAE1359 P0000=
200703161410 SPECI KATL 161410Z 29010KT 9SM BKN010 BKN015 OVC100 16/14 A2980 RMK AO2 WSHFT 1352 RAE1359 P0000=
200703161352 METAR KATL 161352Z 33010KT 8SM -RA FEW010 SCT030 BKN100 BKN150 16/14 A2977 RMK AO2 SLP078 VIRGA OHD-NE-SE P0002 T01610139=
200703161320 SPECI KATL 161320Z 31008KT 8SM -RA BR BKN007 BKN013 OVC080 16/14 A2980 RMK AO2 P0000=
200703161320 SPECI KATL 161320Z 31008KT 8SM -RA BR BKN007 BKN013 OVC080 16/14 A2980 RMK AO2 P0000=
200703161300 SPECI KATL 161300Z 31010KT 10SM -RA BKN007 BKN013 OVC070 16/14 A2979 RMK AO2 CIG 005V012 P0000=
200703161300 SPECI KATL 161300Z 31010KT 10SM -RA BKN007 BKN013 OVC070 16/14 A2979 RMK AO2 CIG 005V012 P0000=
200703161252 METAR KATL 161252Z 32010KT 10SM -RA SCT007 BKN010 OVC070 16/14 A2979 RMK AO2 CIG 008V013 SLP083 P0001 T01560144=
200703161249 SPECI KATL 161249Z 31008KT 10SM -RA SCT007 BKN012 OVC070 16/14 A2979 RMK AO2 P0001=
200703161249 SPECI KATL 161249Z 31008KT 10SM -RA SCT007 BKN012 OVC070 16/14 A2979 RMK AO2 P0001=
200703161243 SPECI KATL 161243Z 32009KT 2 1/2SM -RA SCT007 BKN012 OVC070 16/14 A2979 RMK AO2 SFC VIS 10 P0001=
200703161243 SPECI KATL 161243Z 32009KT 2 1/2SM -RA SCT007 BKN012 OVC070 16/14 A2979 RMK AO2 SFC VIS 10 P0001=
200703161214 SPECI KATL 161214Z 32012KT 2 1/2SM -RA BR BKN007 OVC014 16/14 A2979 RMK AO2 SFC VIS 6 CIG 004V011 P0000=
200703161214 SPECI KATL 161214Z 32012KT 2 1/2SM -RA BR BKN007 OVC014 16/14 A2979 RMK AO2 SFC VIS 6 CIG 004V011 P0000=
200703161157 SPECI KATL 161157Z 30007KT 2 1/2SM -RA BR SCT004 BKN014 OVC024 16/14 A2979 RMK AO2 SFC VIS 4 P0000 $=
200703161157 SPECI KATL 161157Z 30007KT 2 1/2SM -RA BR SCT004 BKN014 OVC024 16/14 A2979 RMK AO2 SFC VIS 4 P0000 $=
200703161152 METAR KATL 161152Z 30008KT 2 1/2SM -RA BR BKN004 BKN010 OVC024 16/14 A2979 RMK AO2 SFC VIS 4 DZE02RAB02 SLP082 P0008 60009 70015 T01610144 10167 20156 53001 $=
200703161052 METAR KATL 161052Z 31005KT 2 1/2SM -DZ BR BKN004 OVC008 16/14 A2978 RMK AO2 SFC VIS 4 CIG 002V006 SLP079 P0000 T01610144 $=
200703161012 SPECI KATL 161012Z 21004KT 2 1/2SM -DZ BKN004 OVC010 16/14 A2977 RMK AO2 SFC VIS 7 P0000 $=
200703161012 SPECI KATL 161012Z 21004KT 2 1/2SM -DZ BKN004 OVC010 16/14 A2977 RMK AO2 SFC VIS 7 P0000 $=
200703161010 SPECI KATL 161010Z 22004KT 9SM -DZ BKN006 OVC010 16/16 A2977 RMK AO2 CIG 003V007 P0000 $=
200703161010 SPECI KATL 161010Z 22004KT 9SM -DZ BKN006 OVC010 16/16 A2977 RMK AO2 CIG 003V007 P0000 $=
200703160952 METAR KATL 160952Z 19003KT 10SM -DZ OVC010 16/14 A2977 RMK AO2 RAE0853DZB0859 SLP076 P0000 T01610144 $=
200703160924 SPECI KATL 160924Z 18006KT 10SM -DZ FEW006 OVC010 16/14 A2978 RMK AO2 RAE0853DZB0859 P0000 $=
200703160924 SPECI KATL 160924Z 18006KT 10SM -DZ FEW006 OVC010 16/14 A2978 RMK AO2 RAE0853DZB0859 P0000 $=
200703160852 METAR KATL 160852Z 15004KT 7SM -RA OVC008 16/16 A2978 RMK AO2 DZE47RAB47 CIG 003V009 SLP078 P0000 60001 T01610156 56025 $=
200703160829 SPECI KATL 160829Z 15004KT 9SM -DZ BKN008 OVC013 16/16 A2979 RMK AO2 CIG 007V011 P0000 $=
200703160829 SPECI KATL 160829Z 15004KT 9SM -DZ BKN008 OVC013 16/16 A2979 RMK AO2 CIG 007V011 P0000 $=
200703160752 METAR KATL 160752Z 18004KT 8SM -DZ BKN008 OVC014 16/16 A2981 RMK AO2 CIG 004V011 SLP086 P0000 T01610156 $=
200703160740 SPECI KATL 160740Z 15003KT 8SM -DZ BKN008 OVC012 16/16 A2981 RMK AO2 CIG 004V009 P0000 $=
200703160725 SPECI KATL 160725Z 14003KT 8SM -DZ SCT008 OVC012 16/16 A2981 RMK AO2 P0000 $=
200703160725 SPECI KATL 160725Z 14003KT 8SM -DZ SCT008 OVC012 16/16 A2981 RMK AO2 P0000 $=
200703160702 SPECI KATL 160702Z 14006KT 8SM -DZ BKN007 OVC012 16/14 A2982 RMK AO2 CIG 004V010 P0000 $=
200703160702 SPECI KATL 160702Z 14006KT 8SM -DZ BKN007 OVC012 16/14 A2982 RMK AO2 CIG 004V010 P0000 $=
200703160652 METAR KATL 160652Z 13006KT 6SM -DZ BR SCT005 OVC013 17/16 A2983 RMK AO2 RAE48DZB48 SLP093 P0001 T01670161 $=
200703160644 SPECI KATL 160644Z 12005KT 5SM -RA BR SCT005 BKN011 OVC075 17/16 A2983 RMK AO2 P0001 $=
200703160644 SPECI KATL 160644Z 12005KT 5SM -RA BR SCT005 BKN011 OVC075 17/16 A2983 RMK AO2 P0001 $=
200703160637 SPECI KATL 160637Z 10003KT 4SM -RA BR FEW007 BKN016 OVC075 17/16 A2983 RMK AO2 P0001 $=
200703160637 SPECI KATL 160637Z 10003KT 4SM -RA BR FEW007 BKN016 OVC075 17/16 A2983 RMK AO2 P0001 $=
200703160452 METAR KATL 160452Z 00000KT 7SM -RA FEW020 BKN035 OVC060 17/15 A2989 RMK AO2 RAB0355 SLP115 P0003 T01670150 402220156 $=
200703160352 METAR KATL 160352Z 00000KT 9SM FEW040 BKN080 OVC100 17/15 A2991 RMK AO2 SLP123 T01670150 $=
200703160252 METAR KATL 160252Z 00000KT 10SM FEW010 SCT040 OVC090 17/15 A2992 RMK AO2 RAE52 SLP128 P0000 60003 T01670150 50003 $=
200703160152 METAR KATL 160152Z 19007KT 7SM -RA SCT038 BKN045 OVC070 17/15 A2993 RMK AO2 SLP131 P0003 T01720150 $=
200703160052 METAR KATL 160052Z 18007KT 7SM -RA SCT055 OVC075 19/15 A2992 RMK AO2 RAB23 SLP128 P0000 T01890150 $=
200703152352 METAR KATL 152352Z 14004KT 10SM FEW045 BKN070 OVC100 19/14 A2991 RMK AO2 RAE28 SLP124 P0000 60000 T01940144 10222 20194 55000 $=
200703152252 METAR KATL 152252Z 14008KT 9SM -RA BKN040 OVC055 20/14 A2991 RMK AO2 RAB35 SLP123 P0000 T02000139 $=
200703152152 METAR KATL 152152Z 17004KT 10SM BKN060 BKN075 OVC150 22/12 A2991 RMK AO2 SLP120 T02220117 $=
200703152052 METAR KATL 152052Z VRB05KT 10SM FEW040 SCT065 BKN150 OVC250 22/12 A2991 RMK AO2 SLP122 T02220117 56031 $=
200703151952 METAR KATL 151952Z 15010KT 10SM FEW040 SCT100 OVC250 22/11 A2993 RMK AO2 SLP130 T02220111 $=
200703151852 METAR KATL 151852Z 19009KT 10SM FEW040 SCT055 BKN090 OVC150 22/11 A2997=
200703151752 METAR KATL 151752Z 20009KT 8SM FEW035 BKN055 BKN085 BKN150 21/11 A3001 RMK AO2 SLP155 SHRA DSNT NW T02060111 10211 20156 58013 $=
200703151652 METAR KATL 151652Z 17008KT 7SM FEW020 BKN040 BKN065 BKN150 19/13 A3003 RMK AO2 SLP162 T01940128=
200703151552 METAR KATL 151552Z 15006KT 7SM FEW017 SCT040 BKN100 OVC150 18/14 A3004 RMK AO2 SLP166 T01830139=
200703151525 SPECI KATL 151525Z VRB03KT 6SM HZ FEW014 SCT020 BKN090 OVC150 18/13 A3004 RMK AO2=
200703151525 SPECI KATL 151525Z VRB03KT 6SM HZ FEW014 SCT020 BKN090 OVC150 18/13 A3004 RMK AO2=
200703151452 METAR KATL 151452Z 18005KT 7SM SCT014 BKN020 OVC090 17/13 A3004 RMK AO2 SLP169 T01720128 50006=
200703151437 SPECI KATL 151437Z 18006KT 7SM FEW014 BKN020 OVC090 17/13 A3005 RMK AO2=
200703151437 SPECI KATL 151437Z 18006KT 7SM FEW014 BKN020 OVC090 17/13 A3005 RMK AO2=
200703151359 SPECI KATL 151359Z 18007KT 7SM BKN012 BKN037 BKN090 17/12 A3005 RMK AO2=
200703151359 SPECI KATL 151359Z 18007KT 7SM BKN012 BKN037 BKN090 17/12 A3005 RMK AO2=
200703151352 METAR KATL 151352Z 17005KT 7SM SCT012 BKN090 BKN150 BKN250 17/12 A3005 RMK AO2 SLP169 T01720122=
200703151333 SPECI KATL 151333Z VRB03KT 7SM BKN013 BKN095 BKN150 BKN250 17/12 A3005 RMK AO2=
200703151333 SPECI KATL 151333Z VRB03KT 7SM BKN013 BKN095 BKN150 BKN250 17/12 A3005 RMK AO2=
200703151252 METAR KATL 151252Z VRB05KT 6SM HZ FEW035 BKN100 BKN250 16/12 A3004 RMK AO2 SLP166 T01610117=
200703151156 SPECI KATL 151156Z 19003KT 7SM BKN016 OVC100 16/12 A3003 RMK AO2=
200703151156 SPECI KATL 151156Z 19003KT 7SM BKN016 OVC100 16/12 A3003 RMK AO2=
200703151152 METAR KATL 151152Z 19004KT 10SM SCT018 OVC100 16/12 A3003 RMK AO2 SLP161 T01560117 10178 20156 53013=
200703151145 SPECI KATL 151145Z 18006KT 10SM SCT018 BKN038 OVC100 16/12 A3002 RMK AO2=
200703151145 SPECI KATL 151145Z 18006KT 10SM SCT018 BKN038 OVC100 16/12 A3002 RMK AO2=
200703151110 SPECI KATL 151110Z 16003KT 10SM BKN020 OVC100 16/11 A3001 RMK AO2=
200703151110 SPECI KATL 151110Z 16003KT 10SM BKN020 OVC100 16/11 A3001 RMK AO2=
200703151052 METAR KATL 151052Z 00000KT 10SM FEW028 BKN100 OVC200 16/12 A3001 RMK AO2 SLP155 T01610117=
200703150952 METAR KATL 150952Z 16004KT 10SM OVC100 16/11 A2999 RMK AO2 SLP149 T01610111=
200703150852 METAR KATL 150852Z 19004KT 10SM OVC110 17/11 A2999 RMK AO2 SLP148 T01670111 56016=
200703150752 METAR KATL 150752Z COR 20007KT 10SM BKN110 OVC200 17/11 A3001 RMK AO2 SLP154 T01720111=
200703150652 METAR KATL 150652Z 19008KT 10SM BKN110 OVC200 17/11 A3001 RMK AO2 SLP156 T01720111=
200703150552 METAR KATL 150552Z 18007KT 10SM BKN150 OVC200 18/11 A3004 RMK AO2 SLP165 T01780106 10228 20178 58008=
200703150452 METAR KATL 150452Z 17004KT 10SM FEW200 BKN250 18/11 A3005 RMK AO2 SLP167 T01830106 402560156=
200703150352 METAR KATL 150352Z 18007KT 10SM BKN250 19/11 A3005 RMK AO2 SLP170 T01940106=
200703150252 METAR KATL 150252Z COR 17007KT 10SM SCT250 20/10 A3006 RMK AO2 SLP173 T02000100 50002=
200703150152 METAR KATL 150152Z 18008KT 10SM FEW065 BKN250 21/09 A3006 RMK AO2 SLP173 T02110094=
200703150052 METAR KATL 150052Z 18008KT 10SM FEW080 SCT250 22/09 A3006 RMK AO2 SLP172 T02220089=
200703142352 METAR KATL 142352Z 19006KT 10SM SCT085 BKN100 BKN250 23/09 A3005 RMK AO2 SLP171 T02280089 10256 20228 55008=
200703142252 METAR KATL 142252Z 14006KT 10SM FEW065 SCT150 SCT250 24/08 A3005 RMK AO2 SLP169 T02390083=
200703142152 METAR KATL 142152Z 21005KT 10SM FEW065 SCT100 BKN150 BKN250 24/08 A3006 RMK AO2 SLP173 T02390083=
200703142052 METAR KATL 142052Z 21005KT 10SM FEW070 BKN085 BKN180 BKN250 24/08 A3008 RMK AO2 SLP179 T02390078 56023=
200703141952 METAR KATL 141952Z 22013KT 10SM FEW070 SCT150 SCT180 SCT250 25/07 A3009 RMK AO2 SLP183 T02500072=
200703141852 METAR KATL 141852Z 25009G18KT 10SM FEW065 SCT080 SCT150 BKN180 BKN250 24/07 A3012 RMK AO2 SLP193 T02440067=
200703141803 SPECI KATL 141803Z 22014G19KT 10SM BKN060 BKN070 BKN150 BKN250 24/07 A3014 RMK AO2=
200703141803 SPECI KATL 141803Z 22014G19KT 10SM BKN060 BKN070 BKN150 BKN250 24/07 A3014 RMK AO2=
200703141752 METAR KATL 141752Z 20012KT 10SM FEW070 SCT100 BKN150 BKN250 23/07 A3015 RMK AO2 SLP203 T02330072 10244 20156 58014=
200703141652 METAR KATL 141652Z 21017KT 10SM FEW065 SCT090 SCT180 BKN250 24/07 A3017 RMK AO2 SLP210 T02440072=
200703141552 METAR KATL 141552Z 21008KT 10SM FEW070 SCT150 BKN180 BKN250 22/09 A3019 RMK AO2 SLP216 T02170089=
200703141452 METAR KATL 141452Z 20006KT 9SM FEW090 SCT150 SCT180 BKN250 20/09 A3019 RMK AO2 SLP217 T02000094 53008=
200703141352 METAR KATL 141352Z 19003KT 8SM FEW090 BKN150 OVC180 17/09 A3018 RMK AO2 SLP215 VIRGA DSNT N-NE T01720089=
200703141252 METAR KATL 141252Z 20004KT 5SM HZ FEW100 SCT150 OVC200 16/08 A3017 RMK AO2 SLP213 T01610083=
200703141152 METAR KATL 141152Z 00000KT 8SM FEW100 BKN150 OVC200 16/08 A3017 RMK AO2 SLP209 T01560083 10178 20156 53001=
200703141052 METAR KATL 141052Z 18003KT 7SM FEW100 BKN150 OVC200 16/08 A3017 RMK AO2 SLP211 T01610083=
200703140952 METAR KATL 140952Z 00000KT 9SM FEW100 BKN150 OVC200 16/08 A3016 RMK AO2 SLP207 T01610083=
200703140852 METAR KATL 140852Z 25005KT 10SM BKN150 BKN200 OVC250 17/08 A3016 RMK AO2 SLP209 T01670078 58006=
200703140752 METAR KATL 140752Z 23006KT 9SM BKN150 BKN200 OVC250 17/08 A3017 RMK AO2 SLP211 T01720083=
200703140652 METAR KATL 140652Z 22007KT 9SM SCT150 OVC200 17/08 A3018 RMK AO2 SLP214 T01720083=
200703140552 METAR KATL 140552Z 21005KT 10SM BKN150 OVC200 17/09 A3018 RMK AO2 SLP214 T01720089 10228 20172 58003=
200703140452 METAR KATL 140452Z 20006KT 10SM FEW150 OVC200 18/09 A3019 RMK AO2 SLP216 T01830089 402610122=
200703140352 METAR KATL 140352Z 22005KT 10SM BKN150 OVC200 19/09 A3020 RMK AO2 SLP221 T01890089=
200703140252 METAR KATL 140252Z 20005KT 10SM BKN150 OVC200 19/09 A3019 RMK AO2 SLP219 T01940089 53003=
200703140152 METAR KATL 140152Z 20005KT 10SM SCT150 BKN200 BKN250 20/09 A3019 RMK AO2 SLP217 T02000089=
200703140052 METAR KATL 140052Z 00000KT 10SM FEW090 SCT200 BKN250 21/08 A3018 RMK AO2 SLP217 T02060083=
200703132352 METAR KATL 132352Z 21004KT 10SM FEW070 SCT090 SCT180 BKN250 23/08 A3019 RMK AO2 SLP218 T02280083 10261 20222 55002=
200703132252 METAR KATL 132252Z 27006KT 10SM SCT085 BKN180 BKN250 24/07 A3018 RMK AO2 SLP214 T02440072=
200703132152 METAR KATL 132152Z VRB06KT 10SM FEW070 BKN085 BKN200 BKN250 24/08 A3018 RMK AO2 SLP214 T02440083=
200703132052 METAR KATL 132052Z 23008KT 10SM FEW070 BKN085 BKN240 BKN280 24/07 A3019 RMK AO2 SLP218 T02440072 56021=
200703131952 METAR KATL 131952Z VRB05KT 10SM BKN070 BKN240 BKN280 26/08 A3020 RMK AO2 SLP219 T02610078=
200703131852 METAR KATL 131852Z 29005KT 10SM BKN075 BKN240 BKN280 24/08 A3022 RMK AO2 SLP229 T02440083=
200703131752 METAR KATL 131752Z 29007KT 10SM BKN070 BKN240 BKN280 24/08 A3026 RMK AO2 SLP240 T02440083 10261 20122 58016=
200703131552 METAR KATL 131552Z 30007KT 8SM FEW240 SCT280 BKN300 22/09 A3030 RMK AO2 SLP255 T02170094=
200703131452 METAR KATL 131452Z 27008KT 8SM FEW240 BKN280 BKN300 19/09 A3030 RMK AO2 SLP257 T01940089 50008=
200703131352 METAR KATL 131352Z 26003KT 7SM FEW240 BKN280 BKN300 17/08 A3031 RMK AO2 SLP258 T01720083=
200703131252 METAR KATL 131252Z 23004KT 7SM SCT250 14/07 A3030 RMK AO2 SLP256 T01440072=
200703131152 METAR KATL 131152Z 00000KT 8SM SCT250 13/07 A3028 RMK AO2 SLP250 T01280067 10156 20128 51012=
200703131052 METAR KATL 131052Z 00000KT 10SM SCT250 13/07 A3027 RMK AO2 SLP246 T01280067=
200703130952 METAR KATL 130952Z 23003KT 10SM FEW200 BKN250 14/07 A3026 RMK AO2 SLP241 T01390067=
200703130852 METAR KATL 130852Z 20004KT 9SM SCT200 BKN250 15/07 A3024 RMK AO2 SLP236 T01500067 56007=
200703130752 METAR KATL 130752Z 00000KT 9SM SCT200 BKN250 16/06 A3025 RMK AO2 SLP237 T01560061=
200703130652 METAR KATL 130652Z 00000KT 10SM SCT200 BKN250 15/06 A3026 RMK AO2 SLP242 T01500061=
200703130552 METAR KATL 130552Z 00000KT 10SM SCT250 16/07 A3027 RMK AO2 SLP244 T01560067 10211 20150 53001=
200703130452 METAR KATL 130452Z 00000KT 10SM SCT250 16/07 A3026 RMK AO2 SLP243 T01560072 402440106=
200703130352 METAR KATL 130352Z 00000KT 10SM FEW250 17/07 A3027 RMK AO2 SLP246 T01670067=
200703130252 METAR KATL 130252Z 00000KT 10SM SCT250 18/06 A3026 RMK AO2 SLP245 T01780061 51014=
200703130152 METAR KATL 130152Z 36005KT 10SM SCT250 21/05 A3025 RMK AO2 SLP241 T02060050=
200703130052 METAR KATL 130052Z 36005KT 10SM FEW250 21/05 A3024 RMK AO2 SLP236 T02110050=
200703122352 METAR KATL 122352Z 36005KT 10SM CLR 21/06 A3022 RMK AO2 SLP230 T02110061 10244 20206 55000=
200703122252 METAR KATL 122252Z 31007KT 10SM FEW075 22/07 A3021 RMK AO2 SLP226 T02220067=
200703122152 METAR KATL 122152Z 34009KT 10SM FEW075 24/06 A3021 RMK AO2 SLP225 T02390056=
200703122052 METAR KATL 122052Z 28008KT 10SM FEW075 SCT250 24/06 A3022 RMK AO2 SLP230 T02390056 56024=
200703121952 METAR KATL 121952Z 33006KT 10SM FEW070 SCT200 SCT250 BKN300 24/06 A3024 RMK AO2 SLP236 T02390056=
200703121852 METAR KATL 121852Z VRB04KT 10SM FEW180 SCT200 BKN250 23/05 A3027 RMK AO2 SLP244 T02280050=
200703121752 METAR KATL 121752Z 00000KT 10SM FEW180 BKN200 BKN250 21/01 A3029 RMK AO2 SLP255 T02060011 10206 20117 58007=
200703121652 METAR KATL 121652Z 00000KT 10SM BKN200 BKN250 BKN300 19/01 A3030 RMK AO2 SLP258 T01890011=
200703121552 METAR KATL 121552Z 00000KT 10SM FEW200 BKN250 BKN300 17/M01 A3031 RMK AO2 SLP262 T01671011=
200703121452 METAR KATL 121452Z 10004KT 10SM FEW200 BKN250 BKN300 15/M01 A3032 RMK AO2 SLP263 T01501011 50009=
200703121352 METAR KATL 121352Z 07010KT 10SM FEW200 SCT250 BKN300 14/M02 A3032=
200703121252 METAR KATL 121252Z 06009KT 10SM SCT250 12/M01 A3030 RMK AO2 SLP259 T01221006=
200703121152 METAR KATL 121152Z 05009KT 10SM SCT250 12/01 A3029 RMK AO2 SLP254 T01170006 10150 20106 53023=
200703121052 METAR KATL 121052Z 02009KT 10SM FEW250 13/00 A3027=
200703120952 METAR KATL 120952Z 35004KT 10SM FEW250 12/01 A3024 RMK AO2 SLP235 T01220011=
200703120852 METAR KATL 120852Z 33004KT 10SM FEW250 12/03 A3022 RMK AO2 SLP228 T01170028 58011=
200703120752 METAR KATL 120752Z 02003KT 10SM FEW250 14/01 A3023 RMK AO2 SLP231 T01390006=
200703120652 METAR KATL 120652Z 01003KT 10SM FEW250 14/01 A3024 RMK AO2 SLP237 T01390011=
200703120552 METAR KATL 120552Z 01006KT 10SM FEW250 15/01 A3025 RMK AO2 SLP238 T01500006 10206 20144 58005=
200703120452 METAR KATL 120452Z 36004KT 10SM CLR 16/02 A3026 RMK AO2 SLP243 T01560017 402440111=
200703120352 METAR KATL 120352Z 34005KT 10SM FEW200 17/02 A3027 RMK AO2 SLP244 T01670017=
200703120252 METAR KATL 120252Z 35005KT 10SM FEW200 17/02 A3026 RMK AO2 SLP244 T01720017 51012=
200703120152 METAR KATL 120152Z 01011KT 10SM FEW200 19/02 A3026 RMK AO2 SLP241 T01890022=
200703120052 METAR KATL 120052Z 36009KT 10SM FEW150 19/04 A3025 RMK AO2 SLP238 T01940039=
200703112352 METAR KATL 112352Z 35008KT 10SM FEW055 SCT150 21/07 A3023 RMK AO2 SLP234 T02060067 10244 20206 53008=
200703112252 METAR KATL 112252Z 32010KT 10SM FEW060 SCT150 22/08 A3021 RMK AO2 SLP228 T02170078=
200703112152 METAR KATL 112152Z 32011KT 10SM SCT065 23/08 A3020 RMK AO2 SLP223 T02330078=
200703112052 METAR KATL 112052Z VRB04KT 10SM SCT065 24/07 A3021 RMK AO2 SLP225 T02390072 56018=
200703111952 METAR KATL 111952Z 30010KT 10SM SCT065 23/07 A3022 RMK AO2 SLP230 T02330072=
200703111852 METAR KATL 111852Z 28007KT 10SM SCT060 24/08 A3024 RMK AO2 SLP235 T02390083=
200703111752 METAR KATL 111752Z 31010G14KT 10SM SCT055 23/09 A3026 RMK AO2 SLP243 T02330089 10233 20117 58008=
200703111652 METAR KATL 111652Z 29005KT 10SM FEW050 22/09 A3028 RMK AO2 SLP247 T02170094=
200703111552 METAR KATL 111552Z 33006KT 10SM FEW250 21/09 A3028 RMK AO2 SLP250 T02060094=
200703111452 METAR KATL 111452Z VRB03KT 10SM SCT250 19/09 A3029 RMK AO2 SLP252 T01890089 50012=
200703111352 METAR KATL 111352Z 32006KT 9SM SCT250 17/08 A3029 RMK AO2 SLP254 T01670083=
200703111252 METAR KATL 111252Z 33005KT 9SM FEW065 BKN250 14/08 A3027 RMK AO2 SLP248 T01440083=
200703111152 METAR KATL 111152Z 33005KT 7SM SCT070 13/08 A3025 RMK AO2 SLP240 T01280083 10144 20111 53016=
200703111052 METAR KATL 111052Z 01008KT 8SM FEW060 12/08 A3023 RMK AO2 SLP234 T01170078=
200703110952 METAR KATL 110952Z 00000KT 8SM CLR 12/08 A3020 RMK AO2 SLP224 T01220083=
200703110852 METAR KATL 110852Z 00000KT 8SM CLR 12/08 A3020 RMK AO2 SLP223 T01170078 56008=
200703110752 METAR KATL 110752Z 00000KT 9SM CLR 13/08 A3020 RMK AO2 SLP224 T01330083=
200703110652 METAR KATL 110652Z 00000KT 8SM FEW075 13/08 A3022 RMK AO2 SLP230 T01280083=
200703110552 METAR KATL 110552Z 00000KT 9SM FEW080 14/08 A3022 RMK AO2 SLP231 T01390083 10189 20133 50000=
200703110452 METAR KATL 110452Z 00000KT 10SM SCT110 15/08 A3023 RMK AO2 SLP235 T01500083 402060100=
200703110352 METAR KATL 110352Z 14003KT 10SM SCT110 16/08 A3023 RMK AO2 SLP235 T01560083=
200703110252 METAR KATL 110252Z 14003KT 10SM BKN110 16/08 A3022 RMK AO2 SLP233 T01610083 53013=
200703110152 METAR KATL 110152Z 14003KT 10SM CLR 17/08 A3021 RMK AO2 SLP229 T01670083=
200703110052 METAR KATL 110052Z 00000KT 10SM FEW250 17/08 A3019 RMK AO2 SLP223 T01670083=
200703102352 METAR KATL 102352Z 00000KT 10SM FEW050 SCT250 19/08 A3018=
200703102252 METAR KATL 102252Z VRB03KT 10SM FEW048 20/08 A3018 RMK AO2 SLP218 T02000083=
200703102152 METAR KATL 102152Z 11003KT 10SM FEW048 20/08 A3018 RMK AO2 SLP216 T02000078=
200703102052 METAR KATL 102052Z VRB04KT 10SM SCT045 20/08 A3017 RMK AO2 SLP216 T02000083 56015=
200703101952 METAR KATL 101952Z VRB03KT 10SM SCT039 19/08 A3018 RMK AO2 SLP218 T01890083=
200703101852 METAR KATL 101852Z VRB05KT 9SM SCT032 19/09 A3020 RMK AO2 SLP224 T01940094=
200703101752 METAR KATL 101752Z 13007KT 9SM FEW030 18/09 A3022 RMK AO2 SLP232 T01780094 10178 20100 58020=
200703101652 METAR KATL 101652Z COR 15008KT 9SM FEW025 SCT150 16/09 A3024 RMK AO2 SLP240 T01560094=
200703101552 METAR KATL 101552Z 10009KT 7SM FEW095 SCT150 13/08 A3026 RMK AO2 SLP249 T01330083=
200703101452 METAR KATL 101452Z 08008KT 6SM HZ SCT010 OVC055 11/08 A3028 RMK AO2 SLP255 T01110078 51009=
200703101352 METAR KATL 101352Z 07010KT 6SM HZ SCT008 BKN050 11/08 A3028 RMK AO2 SLP254 T01060078=
200703101252 METAR KATL 101252Z 07010KT 6SM BR OVC008 10/08 A3027 RMK AO2 CIG 007V012 SLP250 T01000078=
200703101211 SPECI KATL 101211Z 07009KT 7SM BKN008 OVC012 10/07 A3025 RMK AO2=
200703101152 METAR KATL 101152Z 07007KT 8SM BKN010 OVC055 10/07 A3025 RMK AO2 SLP245 60000 T01000072 10117 20100 53010=
200703101138 SPECI KATL 101138Z 07007KT 8SM BKN010 OVC055 10/07 A3025=
200703101052 METAR KATL 101052Z 08007KT 8SM OVC055 10/07 A3023 RMK AO2 RAB23E32 SLP239 P0000 T01000072=
200703100952 METAR KATL 100952Z 07006KT 8SM BKN060 11/07 A3023 RMK AO2 SLP238 T01060072=
200703100852 METAR KATL 100852Z 11005KT 8SM BKN060 10/07 A3022 RMK AO2 SLP235 T01000067 50003=
200703100752 METAR KATL 100752Z 08007KT 9SM SCT060 BKN100 10/07 A3023 RMK AO2 SLP237 T01000067=
200703100652 METAR KATL 100652Z 10006KT 9SM BKN014 BKN060 OVC100 11/07 A3023 RMK AO2 SLP235 T01110067=
200703100644 SPECI KATL 100644Z 10009KT 9SM BKN016 BKN060 OVC100 11/07 A3022 RMK AO2=
200703100644 SPECI KATL 100644Z 10009KT 9SM BKN016 BKN060 OVC100 11/07 A3022 RMK AO2=
200703100552 METAR KATL 100552Z 10007KT 10SM FEW030 BKN090 BKN200 11/07 A3021 RMK AO2 SLP232 T01110067 10122 20106 55002=
200703100452 METAR KATL 100452Z 09009KT 10SM SCT065 BKN090 11/06 A3021=
200703100352 METAR KATL 100352Z 08010KT 9SM SCT075 BKN090 BKN200 11/06 A3021 RMK AO2 SLP232 T01060061=
200703100252 METAR KATL 100252Z 08009KT 8SM FEW075 BKN200 12/07 A3022 RMK AO2 SLP234 T01170067 51004=
200703100152 METAR KATL 100152Z 08008KT 8SM SCT075 BKN250 12/07 A3022 RMK AO2 SLP234 T01170067=
200703092352 METAR KATL 092352Z 10007KT 7SM FEW200 SCT250 12/07 A3021=
200703092252 METAR KATL 092252Z 11010KT 8SM FEW025 SCT200 BKN250 13/07 A3020 RMK AO2 SLP228 T01280067=
200703092152 METAR KATL 092152Z 08010KT 7SM SCT023 BKN200 14/07 A3020 RMK AO2 SLP229 T01390072=
200703092052 METAR KATL 092052Z 07010KT 8SM FEW022 SCT100 SCT200 13/07 A3021 RMK AO2 SLP232 T01280067 56012=
200703092032 SPECI KATL 092032Z 09008KT 8SM FEW022 SCT200 14/07 A3022 RMK AO2=
200703092032 SPECI KATL 092032Z 09008KT 8SM FEW022 SCT200 14/07 A3022 RMK AO2=
200703092015 SPECI KATL 092015Z 10008KT 8SM FEW022 13/07 A3022 RMK AO2=
200703092015 SPECI KATL 092015Z 10008KT 8SM FEW022 13/07 A3022 RMK AO2=
200703091952 METAR KATL 091952Z 08010KT 8SM BKN022 BKN200 14/07 A3022 RMK AO2 SLP234 T01390067=
200703091914 SPECI KATL 091914Z 12008KT 8SM SCT020 14/07 A3024 RMK AO2=
200703091914 SPECI KATL 091914Z 12008KT 8SM SCT020 14/07 A3024 RMK AO2=
200703091852 METAR KATL 091852Z 10010KT 7SM BKN020 13/06 A3025 RMK AO2 SLP243 T01280061=
200703091752 METAR KATL 091752Z 09012KT 7SM BKN016 11/06 A3028 RMK AO2 SLP253 T01110061 10117 20083 58004=
200703091652 METAR KATL 091652Z 09012KT 6SM HZ OVC014 11/06 A3028 RMK AO2 SLP255 T01060061=
200703091552 METAR KATL 091552Z 08014KT 5SM HZ OVC012 10/07 A3029=
200703091452 METAR KATL 091452Z 08014KT 4SM HZ OVC012 09/07 A3029 RMK AO2 SLP255 T00940067 51020=
200703091352 METAR KATL 091352Z 08013KT 5SM BR OVC010 08/06 A3027 RMK AO2 SLP251 T00830061=
200703091252 METAR KATL 091252Z 09013KT 5SM BR OVC010 08/06 A3025 RMK AO2 SLP242 T00830061=
200703091152 METAR KATL 091152Z 08011KT 7SM BKN010 BKN150 BKN250 08/05 A3022 RMK AO2 SLP234 T00830050 10122 20078 51015=
200703091147 SPECI KATL 091147Z 09013KT 7SM BKN010 BKN150 BKN250 08/05 A3022 RMK AO2=
200703091147 SPECI KATL 091147Z 09013KT 7SM BKN010 BKN150 BKN250 08/05 A3022 RMK AO2=
200703091052 METAR KATL 091052Z 09011KT 10SM SCT150 08/04 A3020 RMK AO2 SLP225 T00830044=
200703090952 METAR KATL 090952Z 08011KT 10SM SCT150 09/05 A3018 RMK AO2 SLP218 T00890050=
200703090852 METAR KATL 090852Z COR 08010KT 10SM SCT150 09/04 A3016 RMK AO2 SLP212 T00890044 53010=
200703090752 METAR KATL 090752Z 12006KT 10SM BKN150 11/04 A3014 RMK AO2 SLP205 T01110039=
200703090652 METAR KATL 090652Z 11008KT 10SM BKN150 12/03 A3013 RMK AO2 SLP201 T01220028=
200703090552 METAR KATL 090552Z 11007KT 10SM SCT150 12/02 A3013 RMK AO2 SLP200 T01220017 10194 20117 53003=
200703090452 METAR KATL 090452Z 05010KT 10SM FEW150 15/M02 A3012 RMK AO2 SLP196 T01501017 402280089=
200703090352 METAR KATL 090352Z 07004KT 10SM FEW150 16/M02 A3012 RMK AO2 SLP196 T01611022=
200703090252 METAR KATL 090252Z 05007KT 10SM FEW150 18/M02 A3012 RMK AO2 SLP196 T01781022 51013=
200703090152 METAR KATL 090152Z 00000KT 10SM FEW250 16/M01 A3011=
200703090052 METAR KATL 090052Z 25004KT 10SM FEW250 18/M03 A3010 RMK AO2 SLP189 T01831028=
200703082352 METAR KATL 082352Z 22003KT 10SM FEW250 18/M01 A3008 RMK AO2 SLP184 T01831011 10228 20183 53000=
200703082252 METAR KATL 082252Z 29003KT 10SM FEW250 21/M03 A3007 RMK AO2 SLP179 T02111028=
200703082152 METAR KATL 082152Z 31005KT 10SM FEW240 22/M03 A3006 RMK AO2 SLP177 T02221033=
200703082052 METAR KATL 082052Z 24006KT 10SM FEW240 22/M03 A3008 RMK AO2 SLP183 T02221028 56022=
200703081952 METAR KATL 081952Z VRB04KT 10SM FEW240 22/M02 A3010 RMK AO2 SLP187 T02221022=
200703081852 METAR KATL 081852Z VRB03KT 8SM FEW240 21/M03 A3012 RMK AO2 SLP195 T02111028=
200703081752 METAR KATL 081752Z 23006KT 10SM FEW200 SCT240 BKN300 21/M03 A3015 RMK AO2 SLP205 T02111028 10217 20094 58006=
200703081652 METAR KATL 081652Z 22005KT 9SM FEW200 SCT240 BKN300 20/M03 A3016=
200703081552 METAR KATL 081552Z VRB03KT 10SM FEW200 BKN240 BKN300 19/M01 A3017 RMK AO2 SLP211 T01941011=
200703081452 METAR KATL 081452Z 32004KT 10SM FEW200 BKN240 17/01 A3017 RMK AO2 SLP213 T01670011 51008=
200703081352 METAR KATL 081352Z 32006KT 10SM SCT250 14/01 A3016 RMK AO2 SLP211 T01390006=
200703081252 METAR KATL 081252Z 31003KT 10SM FEW200 SCT250 10/02 A3015 RMK AO2 SLP209 T01000017=
200703081152 METAR KATL 081152Z 31003KT 9SM FEW200 BKN250 10/M01 A3014 RMK AO2 SLP206 T01001006 10133 20089 51008=
200703081052 METAR KATL 081052Z 30006KT 10SM SCT200 BKN250 09/M01 A3014 RMK AO2 SLP204 T00941006=
200703080952 METAR KATL 080952Z 30004KT 10SM SCT200 BKN250 11/M01 A3013 RMK AO2 SLP198 T01111006=
200703080852 METAR KATL 080852Z 30007KT 10SM SCT200 BKN250 10/M01 A3012=
200703080752 METAR KATL 080752Z 28006KT 10SM FEW150 SCT200 BKN250 12/M01 A3012 RMK AO2 SLP196 T01221006=
200703080652 METAR KATL 080652Z 00000KT 10SM FEW150 BKN200 OVC250 11/01 A3012 RMK AO2 SLP198 T01110006=
200703080552 METAR KATL 080552Z 26003KT 10SM BKN200 OVC250 14/M02 A3013 RMK AO2 SLP198 T01391017 10172 20133 58004=
200703080452 METAR KATL 080452Z 27007KT 10SM BKN200 OVC250 13/M01 A3013=
200703080352 METAR KATL 080352Z 29005KT 10SM BKN200 BKN250 14/M01 A3014=
200703080252 METAR KATL 080252Z 28006KT 10SM BKN250 15/M01 A3014 RMK AO2 SLP205 T01501011 51010=
200703080152 METAR KATL 080152Z 29005KT 10SM BKN250 16/M01 A3014 RMK AO2 SLP204 T01561011=
200703080052 METAR KATL 080052Z 28007KT 10SM BKN250 16/M01 A3012 RMK AO2 SLP199 T01611011=
200703072352 METAR KATL 072352Z 26006KT 10SM FEW200 BKN250 17/M01 A3011 RMK AO2 SLP197 T01721011 10217 20172 56006=
200703072252 METAR KATL 072252Z 27006G15KT 10SM FEW200 BKN250 20/M02 A3011 RMK AO2 SLP195 T02001017=
200703072152 SPECI KATL 072152Z 27007KT 10SM FEW220 BKN250 21/M02 A3012 RMK AO2 SLP197 T02111017=
200703072052 METAR KATL 072052Z 31010G14KT 10SM FEW220 BKN250 21/M01 A3013 RMK AO2 SLP200 T02111011 56022=
200703071952 METAR KATL 071952Z 28009G17KT 10SM BKN220 BKN250 20/M01 A3014 RMK AO2 SLP205 T02001011=
200703071852 METAR KATL 071852Z 28012G18KT 10SM FEW220 BKN250 21/M01 A3017 RMK AO2 SLP213 T02111011=
200703071752 METAR KATL 071752Z 25011G19KT 10SM FEW150 SCT220 BKN250 20/M01 A3020 RMK AO2 SLP223 T02001011 10206 20056 58021=
200703071652 METAR KATL 071652Z 24012KT 10SM FEW110 SCT150 SCT220 BKN250 19/M01 A3023 RMK AO2 SLP235 T01941011=
200703071552 METAR KATL 071552Z 24012KT 10SM FEW150 SCT220 SCT250 18/M02 A3025 RMK AO2 SLP241 T01781017=
200703071452 METAR KATL 071452Z 23007KT 10SM FEW150 SCT220 SCT250 15/01 A3026 RMK AO2 SLP246 T01500006 52002=
200703071352 METAR KATL 071352Z 22008KT 10SM FEW200 SCT250 12/M01 A3026 RMK AO2 SLP246 T01171011=
200703071252 METAR KATL 071252Z 23004KT 10SM SCT250 08/M01 A3025 RMK AO2 SLP245 T00831006=
200703071152 METAR KATL 071152Z 23003KT 10SM SCT250 06/M01 A3025 RMK AO2 SLP246 T00561006 10094 20050 53002=
200703071052 METAR KATL 071052Z 00000KT 10SM FEW150 SCT250 08/M02 A3024 RMK AO2 SLP240 T00781017=
200703070952 METAR KATL 070952Z 22003KT 10SM FEW150 SCT250 07/00 A3024 RMK AO2 SLP239 T00670000=
200703070852 METAR KATL 070852Z 00000KT 10SM FEW150 SCT250 08/M01 A3025 RMK AO2 SLP242 T00831006 58008=
200703070752 METAR KATL 070752Z 00000KT 10SM FEW150 SCT250 08/M01 A3026 RMK AO2 SLP246 T00831006=
200703070652 METAR KATL 070652Z 00000KT 10SM FEW150 SCT250 09/M01 A3027 RMK AO2 SLP250 T00941006=
200703070552 METAR KATL 070552Z 00000KT 10SM SCT150 BKN200 09/00 A3027 RMK AO2 SLP250 T00890000 10156 20089 58008=
200703070452 METAR KATL 070452Z 24003KT 10SM SCT150 BKN200 09/01 A3029 RMK AO2 SLP255 T00940006 401940056=
200703070352 METAR KATL 070352Z 00000KT 10SM FEW250 12/M01 A3029=
200703070252 METAR KATL 070252Z 00000KT 10SM SCT250 12/M01 A3030 RMK AO2 SLP260 T01221006 50000=
200703070152 METAR KATL 070152Z 35004KT 10SM BKN250 15/M02 A3030 RMK AO2 SLP261 T01501022=
200703070052 METAR KATL 070052Z 36005KT 10SM BKN250 16/M02 A3029 RMK AO2 SLP260 T01561022=
200703062352 METAR KATL 062352Z VRB06KT 10SM FEW200 BKN250 16/M03 A3030 RMK AO2 SLP260 T01561028 10194 20156 53001=
200703062252 METAR KATL 062252Z 35007KT 10SM FEW200 BKN250 17/M03 A3029 RMK AO2 SLP257 T01721033=
200703062152 METAR KATL 062152Z 32008KT 10SM FEW250 SCT280 BKN300 18/M03 A3029 RMK AO2 SLP256 T01831033=
200703062052 METAR KATL 062052Z 36007KT 10SM FEW250 SCT280 SCT300 19/M03 A3029 RMK AO2 SLP258 T01891028 56021=
200703061952 METAR KATL 061952Z 36009KT 10SM FEW250 SCT280 BKN300 19/M02 A3031 RMK AO2 SLP262 T01891017=
200703061852 METAR KATL 061852Z 35011KT 10SM FEW250 SCT280 BKN300 18/M02 A3033 RMK AO2 SLP270 T01831022=
200703061752 METAR KATL 061752Z 33013KT 10SM FEW250 SCT280 BKN300 18/M02 A3036 RMK AO2 SLP279 T01781017 10178 20056 58006=
200703061652 METAR KATL 061652Z 36016KT 10SM FEW250 SCT280 BKN300 17/M02 A3038 RMK AO2 SLP286 T01671022=
200703061552 METAR KATL 061552Z 34009KT 10SM FEW250 BKN280 BKN300 14/M01 A3038 RMK AO2 SLP287 T01441011=
200703061452 METAR KATL 061452Z 34011KT 10SM BKN250 13/M01 A3038 RMK AO2 SLP287 T01281011 51015=
200703061352 METAR KATL 061352Z 31007KT 10SM BKN250 09/M02 A3036 RMK AO2 SLP284 T00941022=
200703061252 METAR KATL 061252Z 31008KT 10SM SCT250 07/M03 A3034 RMK AO2 SLP278 T00721033=
200703061152 METAR KATL 061152Z 30008KT 10SM FEW250 06/M04 A3033 RMK AO2 SLP273 T00561039 10083 20056 53008=
200703061052 METAR KATL 061052Z 30006KT 10SM FEW250 06/M04 A3031=
200703060952 METAR KATL 060952Z 30006KT 10SM FEW250 07/M04 A3031 RMK AO2 SLP266 T00671044=
200703060852 METAR KATL 060852Z 28007KT 10SM FEW250 07/M04 A3031 RMK AO2 SLP264 T00671044 51004=
200703060752 METAR KATL 060752Z 30008KT 10SM FEW250 07/M04 A3030 RMK AO2 SLP262 T00721039=
200703060652 METAR KATL 060652Z 29004KT 10SM FEW250 07/M04 A3031 RMK AO2 SLP264 T00721044=
200703060552 METAR KATL 060552Z 27004KT 10SM FEW250 08/M05 A3029 RMK AO2 SLP259 T00831050 10122 20083 51001=
200703060452 METAR KATL 060452Z 28005KT 10SM CLR 09/M05 A3029 RMK AO2 SLP260 T00891050 401560000=
200703060352 METAR KATL 060352Z 29006KT 10SM CLR 08/M05 A3030 RMK AO2 SLP265 T00831050=
200703060252 METAR KATL 060252Z 28007KT 10SM CLR 09/M05 A3029 RMK AO2 SLP261 T00941050 51010=
200703060152 METAR KATL 060152Z 28008KT 10SM CLR 09/M06 A3028 RMK AO2 SLP258 T00941056=
200703060052 METAR KATL 060052Z 28008KT 10SM FEW250 11/M06 A3027=
200703052352 METAR KATL 052352Z 29007KT 10SM FEW250 12/M06 A3026 RMK AO2 SLP251 T01221061 10156 20122 53003=
200703052252 METAR KATL 052252Z 30010KT 10SM FEW250 14/M07 A3025 RMK AO2 SLP249 T01441072=
200703052152 METAR KATL 052152Z 32013G18KT 10SM FEW250 15/M08 A3024 RMK AO2 SLP244 T01501078=
200703052052 METAR KATL 052052Z 30013G18KT 10SM CLR 15/M08 A3025 RMK AO2 SLP247 T01501078 56021=
200703051952 METAR KATL 051952Z 30012KT 10SM CLR 15/M07 A3026 RMK AO2 SLP251 T01501067=
200703051852 METAR KATL 051852Z 29012KT 10SM CLR 14/M06 A3028 RMK AO2 SLP258 T01391061=
200703051752 METAR KATL 051752Z 33012KT 10SM CLR 12/M07 A3031 RMK AO2 SLP270 T01221067 10122 20006 58009=
200703051652 METAR KATL 051652Z 32013KT 10SM CLR 11/M08 A3033 RMK AO2 SLP276 T01061083=
200703051552 METAR KATL 051552Z 34014G18KT 10SM FEW250 09/M09 A3034=
200703051452 METAR KATL 051452Z 32011KT 10SM FEW250 06/M09 A3034 RMK AO2 SLP281 T00611089 51017=
200703051352 METAR KATL 051352Z 32011KT 10SM FEW250 03/M09 A3033 RMK AO2 SLP278 T00331094=
200703051252 METAR KATL 051252Z 32013KT 10SM FEW250 01/M10 A3031 RMK AO2 SLP270 T00111100=
200703051152 METAR KATL 051152Z 33012KT 10SM FEW250 01/M10 A3029 RMK AO2 SLP263 T00061100 10011 20000 51012=
200703051052 METAR KATL 051052Z 32013KT 10SM CLR 01/M10 A3028 RMK AO2 SLP260 T00061100=
200703050952 METAR KATL 050952Z 31010KT 10SM CLR 00/M09 A3027 RMK AO2 SLP256 T00001089=
200703050852 METAR KATL 050852Z 31009KT 10SM CLR 00/M08 A3025 RMK AO2 SLP251 T00001083 50001=
200703050752 METAR KATL 050752Z 29007KT 10SM CLR 00/M07 A3025 RMK AO2 SLP251 T00001072=
200703050652 METAR KATL 050652Z 28006KT 10SM CLR 01/M07 A3025 RMK AO2 SLP251 T00061072=
200703050552 METAR KATL 050552Z 29006KT 10SM CLR 01/M07 A3025 RMK AO2 SLP250 T00111067 10056 20011 51001=
200703050452 METAR KATL 050452Z 30009KT 10SM CLR 02/M07 A3025 RMK AO2 SLP249 T00221067 400831006=
200703050352 METAR KATL 050352Z 30010KT 10SM CLR 03/M07 A3026 RMK AO2 SLP252 T00331072=
200703050252 METAR KATL 050252Z 30010KT 10SM CLR 04/M07 A3025 RMK AO2 SLP249 T00391072 51016=
200703050152 METAR KATL 050152Z 30009KT 10SM CLR 04/M08 A3023 RMK AO2 SLP245 T00441078=
200703050052 METAR KATL 050052Z 29011KT 10SM CLR 05/M08 A3022 RMK AO2 SLP242 T00501078=
200703042352 METAR KATL 042352Z 29010KT 10SM FEW250 06/M08 A3020 RMK AO2 SLP233 T00561078 10083 20056 53015=
200703042252 METAR KATL 042252Z 30012G19KT 10SM FEW250 07/M08 A3017 RMK AO2 SLP223 T00721083=
200703042152 METAR KATL 042152Z 31015KT 10SM FEW250 08/M08 A3016 RMK AO2 SLP217 T00781083=
200703042052 METAR KATL 042052Z 31011G18KT 10SM FEW250 08/M08 A3015 RMK AO2 SLP215 T00781078 56009=
200703041952 METAR KATL 041952Z 31013KT 10SM FEW250 08/M08 A3016 RMK AO2 SLP217 T00781083=
200703041852 METAR KATL 041852Z 30013G17KT 10SM FEW250 07/M07 A3016 RMK AO2 SLP219 T00721072=
200703041752 METAR KATL 041752Z 29011G18KT 10SM FEW250 06/M07 A3018=
200703041652 METAR KATL 041652Z 31010G18KT 10SM FEW250 04/M07 A3019 RMK AO2 SLP229 T00441067=
200703041552 METAR KATL 041552Z 32015G20KT 10SM FEW250 03/M07 A3019 RMK AO2 SLP230 T00331067=
200703041452 METAR KATL 041452Z 33016KT 10SM FEW040 SCT250 02/M08 A3019 RMK AO2 SLP227 T00221078 51025=
200703041352 METAR KATL 041352Z 31015G23KT 10SM FEW035 SCT250 01/M08 A3017 RMK AO2 SLP220 T00111078=
200703041252 METAR KATL 041252Z 30013KT 10SM SCT250 M01/M08 A3013 RMK AO2 SLP210 T10061083=
200703041152 METAR KATL 041152Z 30013G19KT 10SM SCT250 00/M08 A3011 RMK AO2 SLP201 T00001083 10061 20000 51022=
200703041052 METAR KATL 041052Z 29017KT 10SM FEW250 01/M08 A3009 RMK AO2 SLP193 T00061078=
200703040952 METAR KATL 040952Z 30011G19KT 10SM CLR 02/M07 A3007 RMK AO2 SLP184 T00171072=
200703040852 METAR KATL 040852Z 30013KT 10SM CLR 02/M06 A3004 RMK AO2 SLP176 T00221061 51009=
200703040752 METAR KATL 040752Z 31015KT 10SM FEW250 04/M07 A3004 RMK AO2 SLP175 T00391067=
200703040652 METAR KATL 040652Z 29010KT 10SM FEW250 05/M06 A3002 RMK AO2 SLP168 T00501061=
200703040552 METAR KATL 040552Z 30010KT 10SM FEW250 06/M06 A3001 RMK AO2 SLP164 T00611061 10122 20061 51016=
200703040452 METAR KATL 040452Z 30015G20KT 10SM FEW250 08/M07 A3001 RMK AO2 SLP161 T00781067 401670067=
200703040352 METAR KATL 040352Z 27011KT 10SM FEW250 09/M08 A2998=
200703040252 METAR KATL 040252Z 26011KT 10SM FEW250 10/M09 A2996 RMK AO2 SLP147 T01001094 51013=
200703040152 METAR KATL 040152Z 25009KT 10SM BKN250 11/M09 A2995 RMK AO2 SLP143 T01061094=
200703040052 METAR KATL 040052Z 26007KT 10SM FEW150 BKN250 11/M09 A2994 RMK AO2 SLP141 T01061094=
200703032352 METAR KATL 032352Z 27011KT 10SM FEW150 BKN250 12/M11 A2992 RMK AO2 PK WND 29026/2311 SLP135 T01221106 10167 20122 53008=
200703032252 METAR KATL 032252Z 27017G26KT 10SM SCT150 BKN250 13/M11 A2991 RMK AO2 PK WND 26027/2241 SLP129 T01331106=
200703032152 METAR KATL 032152Z 27018G23KT 10SM BKN150 BKN200 14/M12 A2990 RMK AO2 PK WND 28029/2138 SLP125 T01441117=
200703032052 METAR KATL 032052Z 26016G22KT 10SM BKN150 BKN200 15/M11 A2990 RMK AO2 SLP125 T01501106 56013=
200703031952 METAR KATL 031952Z 28017G23KT 10SM SCT150 BKN200 BKN250 16/M10 A2991 RMK AO2 SLP126 T01561100=
200703031852 METAR KATL 031852Z 27013KT 10SM SCT150 BKN200 BKN250 16/M10 A2992 RMK AO2 SLP130 T01561100=
200703031752 METAR KATL 031752Z 28014G20KT 10SM BKN150 OVC200 14/M12 A2994 RMK AO2 SLP138 T01441122 10150 20067 58004=
200703031652 METAR KATL 031652Z 27017G23KT 10SM SCT150 BKN200 BKN250 14/M10 A2995 RMK AO2 SLP142 T01391100=
200703031552 METAR KATL 031552Z 28012KT 10SM BKN150 BKN200 BKN250 13/M09 A2995 RMK AO2 SLP143 T01281089=
200703031452 METAR KATL 031452Z 28010KT 10SM SCT150 BKN200 BKN250 12/M06 A2995 RMK AO2 SLP141 T01221061 53014=
200703031352 METAR KATL 031352Z 29008KT 10SM BKN250 11/M03 A2994 RMK AO2 SLP137 T01061028=
200703031252 METAR KATL 031252Z 23004KT 10SM BKN200 08/M02 A2991 RMK AO2 SLP128 T00831022=
200703031152 METAR KATL 031152Z 26006KT 10SM BKN200 07/M02 A2991=
200703031052 METAR KATL 031052Z 25006KT 10SM SCT150 08/M02 A2990 RMK AO2 SLP124 T00831022=
200703030952 METAR KATL 030952Z 23005KT 10SM BKN150 08/M02 A2986 RMK AO2 SLP110 T00831017=
200703030852 METAR KATL 030852Z 22006KT 10SM BKN150 08/M02 A2984 RMK AO2 SLP104 T00831017 58002=
200703030752 METAR KATL 030752Z 24009KT 10SM BKN150 09/M03 A2984 RMK AO2 SLP104 T00941028=
200703030652 METAR KATL 030652Z 23007KT 10SM OVC150 09/M03 A2984 RMK AO2 SLP106 T00891028=
200703030552 METAR KATL 030552Z 22007KT 10SM OVC150 09/M03 A2984 RMK AO2 SLP106 T00891028 10133 20089 58004=
200703030452 METAR KATL 030452Z 22006KT 10SM BKN150 BKN200 09/M03 A2984 RMK AO2 SLP106 T00941033 401670050=
200703030352 METAR KATL 030352Z 24009KT 10SM BKN150 OVC200 11/M05 A2986 RMK AO2 SLP111 T01111050=
200703030252 METAR KATL 030252Z 24008KT 10SM BKN200 OVC250 12/M04 A2986 RMK AO2 SLP111 T01171044 51019=
200703030152 METAR KATL 030152Z 23007KT 10SM BKN200 BKN250 12/M04 A2984 RMK AO2 SLP108 T01171044=
200703030052 METAR KATL 030052Z 23004KT 10SM BKN200 BKN250 12/M05 A2982 RMK AO2 SLP101 T01171050=
200703022352 METAR KATL 022352Z 24004KT 10SM BKN200 OVC250 13/M08 A2980 RMK AO2 SLP091 T01331078 10167 20133 53003=
200703022252 METAR KATL 022252Z 25011KT 10SM BKN200 BKN250 14/M11 A2979 RMK AO2 SLP087 T01441106=
200703022152 METAR KATL 022152Z 25013KT 10SM FEW150 BKN250 16/M09 A2978 RMK AO2 SLP084 ACC DSNT E-S T01561089=
200703022052 METAR KATL 022052Z 27012G18KT 10SM FEW150 BKN250 16/M08 A2979 RMK AO2 SLP085 ACC DSNT E-S T01611083 56013=
200703021952 METAR KATL 021952Z 25007KT 10SM FEW150 BKN250 16/M08 A2979 RMK AO2 SLP087 ACC DSNT E-S T01611083=
200703021852 METAR KATL 021852Z 29011G14KT 10SM FEW150 SCT250 14/M07 A2980 RMK AO2 SLP091 T01441072=
200703021752 METAR KATL 021752Z 24007KT 10SM FEW150 SCT180 SCT250 13/M08 A2982 RMK AO2 SLP097 T01331083 10139 20050 58010=
200703021652 METAR KATL 021652Z 30010KT 10SM FEW150 SCT180 SCT250 12/M06 A2984 RMK AO2 SLP103 T01221061=
200703021552 METAR KATL 021552Z 30008KT 270V330 10SM FEW150 SCT180 SCT250 11/M05 A2985 RMK AO2 SLP106 ACC DSNT E T01061050=
200703021452 METAR KATL 021452Z 31003KT 10SM FEW150 SCT180 BKN250 07/M04 A2985 RMK AO2 SLP108 T00721044 53030=
200703021352 METAR KATL 021352Z 30007KT 10SM FEW200 BKN250 06/M04 A2981 RMK AO2 SLP095 T00561039=
200703021252 METAR KATL 021252Z 28006KT 10SM FEW200 SCT250 05/M04 A2979 RMK AO2 SLP089 T00501039=
200703021152 METAR KATL 021152Z 30008KT 10SM FEW250 06/M04 A2976 RMK AO2 SLP078 70112 T00561039 10144 20056 51027=
200703021052 METAR KATL 021052Z 31011KT 10SM CLR 06/M04 A2974 RMK AO2 SLP069 T00611039=
200703020952 METAR KATL 020952Z 30010G20KT 10SM BKN200 07/M03 A2972 RMK AO2 SLP063 T00721033=
200703020852 METAR KATL 020852Z 30014G21KT 10SM BKN200 08/M02 A2968 RMK AO2 PK WND 30028/0819 SLP049 T00831017 51036=
200703020752 METAR KATL 020752Z 31008KT 10SM BKN200 10/03 A2963 RMK AO2 SLP033 T01000028=
200703020652 METAR KATL 020652Z 29015G22KT 10SM FEW080 BKN200 12/04 A2963 RMK AO2 PK WND 30030/0633 SLP030 T01170039=
200703020552 METAR KATL 020552Z 28015G20KT 10SM FEW015 BKN090 OVC200 14/08 A2957 RMK AO2 SLP011 60030 T01440083 10194 20139 52033=
200703020452 METAR KATL 020452Z 29013G21KT 10SM FEW065 BKN090 OVC110 15/10 A2953=
200703020352 METAR KATL 020352Z 29014KT 6SM -RA FEW012 BKN050 OVC090 17/14 A2952 RMK AO2 PK WND 29026/0337 WSHFT 0309 TSE39 SLP992 TS MOV NE P0009 T01720139=
200703020340 SPECI KATL 020340Z 29017G26KT 9SM -RA SCT012 BKN025 OVC070 18/15 A2950 RMK AO2 PK WND 29026/0337 WSHFT 0309 TSE39 TS MOV NE P0009=
200703020340 SPECI KATL 020340Z 29017G26KT 9SM -RA SCT012 BKN025 OVC070 18/15 A2950 RMK AO2 PK WND 29026/0337 WSHFT 0309 TSE39 TS MOV NE P0009=
200703020328 SPECI KATL 020328Z 28018G24KT 10SM -TSRA BKN010 BKN020CB OVC050 18/17 A2950 RMK AO2 WSHFT 0309 PRESRR OCNL LTGIC TS VC NE-E MOV NE CIG 008V013 P0009=
200703020328 SPECI KATL 020328Z 28018G24KT 10SM -TSRA BKN010 BKN020CB OVC050 18/17 A2950 RMK AO2 WSHFT 0309 PRESRR OCNL LTGIC TS VC NE-E MOV NE CIG 008V013 P0009=
200703020322 SPECI KATL 020322Z 27016G24KT 7SM R09R/5000VP6000FT -TSRA SCT010 BKN020CB OVC050 19/17 A2949 RMK AO2 OCNL LTGIC TS NE-SE MOV NE P0009=
200703020322 SPECI KATL 020322Z 27016G24KT 7SM R09R/5000VP6000FT -TSRA SCT010 BKN020CB OVC050 19/17 A2949 RMK AO2 OCNL LTGIC TS NE-SE MOV NE P0009=
200703020318 SPECI KATL 020318Z 28016G22KT 1 1/2SM R09R/5000VP6000FT +TSRA BR BKN010 BKN020CB OVC040 19/18 A2948=
200703020252 METAR KATL 020252Z 23013G23KT 6SM -TSRA BR SCT012 BKN020CB OVC040 19/17 A2947 RMK AO2 PK WND 23028/0239 TSB06 SLP977 OCNL LTGIC TS VC SW-NW MOV NE P0006 60020 T01940172 58010=
200703020232 SPECI KATL 020232Z 21011KT 6SM -TSRA BR SCT010 BKN025CB OVC040 19/17 A2947 RMK AO2 TSB06 OCNL LTGICCG TS VC E-SE MOV NE P0002=
200703020232 SPECI KATL 020232Z 21011KT 6SM -TSRA BR SCT010 BKN025CB OVC040 19/17 A2947 RMK AO2 TSB06 OCNL LTGICCG TS VC E-SE MOV NE P0002=
200703020207 SPECI KATL 020207Z 20013KT 7SM -TSRA BKN010 BKN018CB OVC030 19/17 A2949 RMK AO2 TSB06 OCNL LTGIC TS VC S-SW MOV NE P0000=
200703020207 SPECI KATL 020207Z 20013KT 7SM -TSRA BKN010 BKN018CB OVC030 19/17 A2949 RMK AO2 TSB06 OCNL LTGIC TS VC S-SW MOV NE P0000=
200703020152 METAR KATL 020152Z 20014KT 10SM -RA BKN008 BKN015 OVC030 19/17 A2950 RMK AO2 TSB05E30 SLP985 TS MOV NE P0010 T01890167=
200703020131 SPECI KATL 020131Z 18013G20KT 10SM -RA BKN009 BKN020 OVC040 18/17 A2948 RMK AO2 TSB05E30 TS MOV NE P0009=
200703020131 SPECI KATL 020131Z 18013G20KT 10SM -RA BKN009 BKN020 OVC040 18/17 A2948 RMK AO2 TSB05E30 TS MOV NE P0009=
200703020122 SPECI KATL 020122Z 19011KT 6SM -TSRA BR SCT008 BKN020CB OVC040 18/17 A2947 RMK AO2 TSB05 OCNL LTGIC TS N-NE MOV NE P0009=
200703020122 SPECI KATL 020122Z 19011KT 6SM -TSRA BR SCT008 BKN020CB OVC040 18/17 A2947 RMK AO2 TSB05 OCNL LTGIC TS N-NE MOV NE P0009=
200703020111 SPECI KATL 020111Z 16008G16KT 2 1/2SM +TSRA BR BKN008 BKN020CB OVC040 18/17 A2949 RMK AO2 TSB05 OCNL LTGIC TS NE-OHD-SW MOV NE P0003=
200703020111 SPECI KATL 020111Z 16008G16KT 2 1/2SM +TSRA BR BKN008 BKN020CB OVC040 18/17 A2949 RMK AO2 TSB05 OCNL LTGIC TS NE-OHD-SW MOV NE P0003=
200703020105 SPECI KATL 020105Z 19010KT 6SM -TSRA BKN008 BKN020CB OVC040 18/17 A2950 RMK AO2 TSB05 OCNL LTGIC TS SW-W MOV NE P0000=
200703020105 SPECI KATL 020105Z 19010KT 6SM -TSRA BKN008 BKN020CB OVC040 18/17 A2950 RMK AO2 TSB05 OCNL LTGIC TS SW-W MOV NE P0000=
200703020052 METAR KATL 020052Z 19012G20KT 10SM -RA BKN010 BKN025 OVC040 18/16 A2950 RMK AO2 TSB08E50RAB2355 SLP986 TS MOV NE P0004 T01830161=
200703020033 SPECI KATL 020033Z 18016G21KT 10SM -TSRA SCT006 BKN015CB OVC060 18/16 A2951 RMK AO2 TSB08RAB2355 FRQ LTGICCG TS VC N-NE AND NW MOV NE P0003=
200703020033 SPECI KATL 020033Z 18016G21KT 10SM -TSRA SCT006 BKN015CB OVC060 18/16 A2951 RMK AO2 TSB08RAB2355 FRQ LTGICCG TS VC N-NE AND NW MOV NE P0003=
200703020009 SPECI KATL 020009Z 15011KT 7SM -TSRA BKN006 OVC015CB 17/16 A2950=
200703020009 SPECI KATL 020009Z 15011KT 7SM -TSRA BKN006 OVC015CB 17/16 A2950 RMK AO2 TSB08RAB2355 PRESFR OCNL LTGIC TS VC SW-W MOV NE P0000=
200703012352 METAR KATL 012352Z 15011G18KT 10SM BKN006 BKN014 OVC040 17/16 A2952 RMK AO2 RAE33 SLP994 CIG 004V010 P0006 60035 T01720161 10172 20161 58038=
200703012252 METAR KATL 012252Z 18011KT 2 1/2SM -RA BR BKN007 BKN012 OVC040 17/16 A2958 RMK AO2 SFC VIS 3 SLP013 P0011 T01720156=
200703012218 SPECI KATL 012218Z 17012G19KT 2 1/2SM RA BR SCT007 BKN018 OVC080 17/16 A2960 RMK AO2 SFC VIS 3 P0002=
200703012218 SPECI KATL 012218Z 17012G19KT 2 1/2SM RA BR SCT007 BKN018 OVC080 17/16 A2960 RMK AO2 SFC VIS 3 P0002=
200703012205 SPECI KATL 012205Z 15012G18KT 7SM -RA FEW009 BKN020 BKN090 OVC150 17/15 A2959 RMK AO2 P0001=
200703012205 SPECI KATL 012205Z 15012G18KT 7SM -RA FEW009 BKN020 BKN090 OVC150 17/15 A2959 RMK AO2 P0001=
200703012152 METAR KATL 012152Z 16010KT 6SM -RA BR FEW008 SCT020 BKN080 OVC150 17/15 A2959 RMK AO2 SLP018 P0007 T01720150=
200703012124 SPECI KATL 012124Z 17014G23KT 6SM -RA BR FEW008 BKN020 OVC070 17/15 A2962 RMK AO2 P0006=
200703012124 SPECI KATL 012124Z 17014G23KT 6SM -RA BR FEW008 BKN020 OVC070 17/15 A2962 RMK AO2 P0006=
200703012052 METAR KATL 012052Z 18014KT 5SM -RA BR SCT010 BKN017 OVC070 17/15 A2964 RMK AO2 SLP034 P0003 60011 T01720150 56034=
200703012048 SPECI KATL 012048Z 18013KT 5SM -RA BR SCT010 BKN017 OVC075 17/15 A2963 RMK AO2 P0003=
200703012048 SPECI KATL 012048Z 18013KT 5SM -RA BR SCT010 BKN017 OVC075 17/15 A2963 RMK AO2 P0003=
200703012028 SPECI KATL 012028Z 18015KT 2 1/2SM -RA BR BKN008 BKN015 OVC025 17/15 A2964 RMK AO2 SFC VIS 5 CB DSNT SW-NW MOV NE P0001=
200703012028 SPECI KATL 012028Z 18015KT 2 1/2SM -RA BR BKN008 BKN015 OVC025 17/15 A2964 RMK AO2 SFC VIS 5 CB DSNT SW-NW MOV NE P0001=
200703012005 SPECI KATL 012005Z 19013G19KT 1 1/2SM -RA BR BKN006 BKN011 OVC015 17/15 A2967 RMK AO2 SFC VIS 4 P0000=
200703012005 SPECI KATL 012005Z 19013G19KT 1 1/2SM -RA BR BKN006 BKN011 OVC015 17/15 A2967 RMK AO2 SFC VIS 4 P0000=
200703011952 METAR KATL 011952Z 18013KT 1 1/2SM -RA BR OVC004 16/15 A2966 RMK AO2 SFC VIS 3 TSB01E19RAB00 CIG 003V007 SLP042 CB DSNT N-NE-E MOV NE P0008 T01610150=
200703011932 SPECI KATL 011932Z 16010KT 1 1/2SM -RA BR OVC006 16/14 A2966 RMK AO2 SFC VIS 5 TSB01E19RAB00 CIG 003V007 CB DSNT N-NE-E MOV NE P0007=
200703011932 SPECI KATL 011932Z 16010KT 1 1/2SM -RA BR OVC006 16/14 A2966 RMK AO2 SFC VIS 5 TSB01E19RAB00 CIG 003V007 CB DSNT N-NE-E MOV NE P0007=
200703011923 SPECI KATL 011923Z 16009KT 1 1/2SM R09R/4000VP6000FT RA BR OVC006CB 16/14 A2967 RMK AO2 SFC VIS 1 3/4 TSB01E19RAB00 CB SE-OHD-NW MOV NE P0006=
200703011923 SPECI KATL 011923Z 16009KT 1 1/2SM R09R/4000VP6000FT RA BR OVC006CB 16/14 A2967 RMK AO2 SFC VIS 1 3/4 TSB01E19RAB00 CB SE-OHD-NW MOV NE P0006=
200703011919 SPECI KATL 011919Z 17008KT 1 1/2SM R09R/4000VP6000FT -RA BR OVC006CB 16/14 A2968 RMK AO2 SFC VIS 2 TSB01E19RAB00 LTG DSNT N-NE TS MOV NE CB DSNT N-NE AND VC S-W MOV NE P0001=
200703011919 SPECI KATL 011919Z 17008KT 1 1/2SM R09R/4000VP6000FT -RA BR OVC006CB 16/14 A2968 RMK AO2 SFC VIS 2 TSB01E19RAB00 LTG DSNT N-NE TS MOV NE CB DSNT N-NE AND VC S-W MOV NE P0001=
200703011908 SPECI KATL 011908Z 15009KT 1 1/2SM -TSRA BR OVC006CB 16/14 A2967 RMK AO2 SFC VIS 4 TSB01RAB00 FRQ LTGICCG TS VC N MOV NE P0000=
200703011908 SPECI KATL 011908Z 15009KT 1 1/2SM -TSRA BR OVC006CB 16/14 A2967 RMK AO2 SFC VIS 4 TSB01RAB00 FRQ LTGICCG TS VC N MOV NE P0000=
200703011902 SPECI KATL 011902Z 14007KT 1 1/2SM -TSRA BR OVC006CB 16/14 A2968 RMK AO2 SFC VIS 4 TSB01RAB00 FRQ LTGICCG TS VC NW MOV NE P0000=
200703011902 SPECI KATL 011902Z 14007KT 1 1/2SM -TSRA BR OVC006CB 16/14 A2968 RMK AO2 SFC VIS 4 TSB01RAB00 FRQ LTGICCG TS VC NW MOV NE P0000=
200703011852 METAR KATL 011852Z 15011KT 1SM BR OVC006 16/14 A2968 RMK AO2 SFC VIS 5 RAE1759 SLP048 LTG DSNT SW-W CB DSNT E-SE AND SW-W MOV NE P0000 T01610144=
200703011820 SPECI KATL 011820Z 15009KT 110V180 1SM BR BKN004 OVC009 16/14 A2972 RMK AO2 SFC VIS 4 RAE1759 CB DSNT SE-S MOV NE P0000=
200703011820 SPECI KATL 011820Z 15009KT 110V180 1SM BR BKN004 OVC009 16/14 A2972 RMK AO2 SFC VIS 4 RAE1759 CB DSNT SE-S MOV NE P0000=
200703011752 METAR KATL 011752Z 14009KT 1/2SM -RA BR OVC004 14/13 A2974 RMK AO2 SFC VIS 1 3/4 RAE1659B24 SLP069 CB DSNT NE-SE MOV NE P0000 60047 T01440133 10144 20106 58027=
200703011725 SPECI KATL 011725Z 15007KT 1/2SM -RA BR OVC004 14/13 A2976=
200703011652 METAR KATL 011652Z 14007KT 1/2SM -RA BR OVC004 13/12 A2977 RMK AO2 SFC VIS 3 RAB38 SLP078 P0000 T01330122=
200703011552 METAR KATL 011552Z 14010KT 1/2SM BR OVC004 13/12 A2980 RMK AO2 SFC VIS 3 SLP089 T01280117=
200703011452 METAR KATL 011452Z 12009KT 1 1/2SM BR OVC004 12/10 A2983 RMK AO2 SFC VIS 3 TSE1359RAE1357B21E44 SLP098 P0002 60047 T01170100 58009=
200703011423 SPECI KATL 011423Z 11009KT 1 1/2SM RA BR BKN009 OVC016 11/09 A2984 RMK AO2 SFC VIS 3 TSE1359RAE1357B21 CIG 005V012 P0000=
200703011423 SPECI KATL 011423Z 11009KT 1 1/2SM RA BR BKN009 OVC016 11/09 A2984 RMK AO2 SFC VIS 3 TSE1359RAE1357B21 CIG 005V012 P0000=
200703011359 SPECI KATL 011359Z 10008KT 5SM BR SCT009 BKN014 OVC020 11/09 A2985 RMK AO2 TSE59RAE57 LTG DSNT NE-SE TS MOV NE CB DSNT NE-SE MOV NE P0000=
200703011359 SPECI KATL 011359Z 10008KT 5SM BR SCT009 BKN014 OVC020 11/09 A2985 RMK AO2 TSE59RAE57 LTG DSNT NE-SE TS MOV NE CB DSNT NE-SE MOV NE P0000=
200703011352 METAR KATL 011352Z 11009KT 5SM -TSRA BR OVC014CB 11/09 A2985 RMK AO2 SLP105 OCNL LTGICCGCA TS VC N-NE MOV NE P0039 T01110094=
200703011347 SPECI KATL 011347Z 11009KT 5SM -TSRA BR OVC014CB 11/09 A2985 RMK AO2 OCNL LTGICCGCA TS VC N-NE MOV NE P0038=
200703011347 SPECI KATL 011347Z 11009KT 5SM -TSRA BR OVC014CB 11/09 A2985 RMK AO2 OCNL LTGICCGCA TS VC N-NE MOV NE P0038=
200703011335 SPECI KATL 011335Z 11014KT 2 1/2SM R09R/2600VP6000FT -TSRA BR OVC018CB 11/09 A2984 RMK AO2 SFC VIS 3 FRQ LTGICCGCA TS SE-OHD-NW MOV NE P0038=
200703011335 SPECI KATL 011335Z 11014KT 2 1/2SM R09R/2600VP6000FT -TSRA BR OVC018CB 11/09 A2984 RMK AO2 SFC VIS 3 FRQ LTGICCGCA TS SE-OHD-NW MOV NE P0038=
200703011332 SPECI KATL 011332Z 11014KT 1/2SM R09R/2600VP6000FT +TSRA BR OVC018CB 11/09 A2985 RMK AO2 SFC VIS 3/4 FRQ LTGICCGCA TS OHD-ALQDS MOV NE P0027=
200703011332 SPECI KATL 011332Z 11014KT 1/2SM R09R/2600VP6000FT +TSRA BR OVC018CB 11/09 A2985 RMK AO2 SFC VIS 3/4 FRQ LTGICCGCA TS OHD-ALQDS MOV NE P0027=
200703011330 SPECI KATL 011330Z 11010KT 1SM R09R/2800VP6000FT +TSRA BR OVC018CB 11/09 A2987 RMK AO2 TWR VIS 2 FRQ LTGICCGCA TS OHD-ALQDS MOV NE P0022=
200703011330 SPECI KATL 011330Z 11010KT 1SM R09R/2800VP6000FT +TSRA BR OVC018CB 11/09 A2987 RMK AO2 TWR VIS 2 FRQ LTGICCGCA TS OHD-ALQDS MOV NE P0022=
200703011324 SPECI KATL 011324Z VRB03KT 2SM TSRA BR OVC018CB 11/09 A2987 RMK AO2 PRESRR FRQ LTGICCGCA TS OHD-ALQDS MOV NE P0017=
200703011324 SPECI KATL 011324Z VRB03KT 2SM TSRA BR OVC018CB 11/09 A2987 RMK AO2 PRESRR FRQ LTGICCGCA TS OHD-ALQDS MOV NE P0017=
200703011301 SPECI KATL 011301Z 09009KT 3SM TSRA BR BKN022CB OVC040 11/08 A2985 RMK AO2 FRQ LTGICCGCA TS N-E-S AND VC SW-NW MOV NE P0014=
200703011301 SPECI KATL 011301Z 09009KT 3SM TSRA BR BKN022CB OVC040 11/08 A2985 RMK AO2 FRQ LTGICCGCA TS N-E-S AND VC SW-NW MOV NE P0014=
200703011252 METAR KATL 011252Z COR VRB03KT 1SM R09R/6000VP6000FT +TSRA BKN026CB OVC046 11/08 A2985 RMK AO2 RAB02E27B49 SLP107 FRQ LTGICCGCA TS N-OHD-S MOV NE P0006 T01110078=
200703011223 SPECI KATL 011223Z 07005KT 9SM -TSRA FEW026 OVC044CB 11/08 A2986 RMK AO2 RAB02 OCNL LTGICCGCA TS N-NE-E MOV NE P0004=
200703011223 SPECI KATL 011223Z 07005KT 9SM -TSRA FEW026 OVC044CB 11/08 A2986 RMK AO2 RAB02 OCNL LTGICCGCA TS N-NE-E MOV NE P0004=
200703011210 SPECI KATL 011210Z 08008KT 3SM TSRA FEW026 BKN046CB OVC080 11/07 A2985 RMK AO2 RAB02 FRQ LTGICCGCA TS N-OHD-S MOV NE P0003=
200703011210 SPECI KATL 011210Z 08008KT 3SM TSRA FEW026 BKN046CB OVC080 11/07 A2985 RMK AO2 RAB02 FRQ LTGICCGCA TS N-OHD-S MOV NE P0003=
