##########################################################
# Query made at 04/19/2024 23:00:05 UTC
# Time interval: from 02/01/2007 12:00  to 02/28/2007 12:59  UTC
##########################################################

##########################################################
# KATL, Atlanta, Hartsfield - Jackson Atlanta International Airport (United States)
# WMO index: 72219. WIGOS ID: 0-20000-0-72219
# Latitude 33-38-59N. Longitude 084-25-00W. Altitude 312 m.
##########################################################

200702281252 METAR KATL 281252Z 10005KT 10SM CLR 08/M02 A3008 RMK AO2 SLP185 T00781017=
200702281152 METAR KATL 281152Z 09004KT 10SM CLR 08/M03 A3006=
200702281052 METAR KATL 281052Z 05006KT 10SM CLR 09/M04 A3005 RMK AO2 SLP175 T00941044=
200702280952 METAR KATL 280952Z 03006KT 10SM CLR 09/M04 A3004 RMK AO2 SLP170 T00941039=
200702280852 METAR KATL 280852Z 04005KT 10SM CLR 09/M04 A3002 RMK AO2 SLP164 T00941039 58001=
200702280752 METAR KATL 280752Z 04009KT 10SM CLR 10/M03 A3002 RMK AO2 SLP164 T01001028=
200702280652 METAR KATL 280652Z 03005KT 10SM CLR 11/M03 A3003 RMK AO2 SLP166 T01061028=
200702280552 METAR KATL 280552Z 01006KT 10SM CLR 11/M03 A3003 RMK AO2 SLP165 T01111028 10172 20100 55004=
200702280452 METAR KATL 280452Z 01007KT 10SM CLR 12/M02 A3002 RMK AO2 SLP165 T01221022 402060044=
200702280352 METAR KATL 280352Z 33005KT 10SM CLR 12/M02 A3003 RMK AO2 SLP168 T01221017=
200702280252 METAR KATL 280252Z 33004KT 10SM CLR 14/M03 A3004 RMK AO2 SLP170 T01391028 51016=
200702280152 METAR KATL 280152Z 35004KT 10SM CLR 16/M03 A3003 RMK AO2 SLP168 T01561033=
200702280052 METAR KATL 280052Z 33005KT 10SM CLR 16/M03 A3001 RMK AO2 SLP163 T01561033=
200702272352 METAR KATL 272352Z 31005KT 10SM CLR 17/M03 A2999 RMK AO2 SLP156 T01721033 10206 20161 53015=
200702272252 METAR KATL 272252Z 32009KT 10SM CLR 18/M03 A2997 RMK AO2 SLP147 T01831028=
200702272152 METAR KATL 272152Z 33010KT 10SM CLR 19/M03 A2995 RMK AO2 SLP140 T01941033=
200702272052 METAR KATL 272052Z 31008G16KT 10SM FEW250 20/M02 A2995 RMK AO2 SLP138 T02001022 58004=
200702271952 METAR KATL 271952Z 32011KT 10SM FEW250 20/M02 A2995 RMK AO2 SLP140 T02001022=
200702271852 METAR KATL 271852Z 32007KT 10SM FEW250 19/M02 A2995 RMK AO2 SLP140 T01941022=
200702271752 METAR KATL 271752Z VRB04KT 10SM FEW250 18/M03 A2996 RMK AO2 SLP142 T01831028 10183 20044 58006=
200702271652 METAR KATL 271652Z VRB04KT 10SM FEW250 17/M04 A2998 RMK AO2 SLP149 T01671044=
200702271552 METAR KATL 271552Z VRB04KT 10SM FEW250 15/M04 A2999 RMK AO2 SLP153 T01501044=
200702271452 METAR KATL 271452Z 08009KT 10SM FEW250 13/M04 A2998 RMK AO2 SLP149 T01331044 51026=
200702271352 METAR KATL 271352Z 03008KT 10SM FEW250 11/M02 A2996 RMK AO2 SLP144 T01111017=
200702271252 METAR KATL 271252Z 36007KT 10SM SCT250 08/M01 A2993 RMK AO2 SLP135 T00831011=
200702271152 METAR KATL 271152Z 33007KT 10SM FEW250 05/M01 A2990 RMK AO2 SLP124 T00501011 10106 20050 53017=
200702271052 METAR KATL 271052Z 00000KT 10SM FEW100 SCT250 07/M02 A2987 RMK AO2 SLP115 T00721017=
200702270952 METAR KATL 270952Z 00000KT 10SM FEW100 SCT250 08/M02 A2985 RMK AO2 SLP108 T00831017=
200702270852 METAR KATL 270852Z 00000KT 10SM FEW100 09/M02 A2984 RMK AO2 SLP104 T00891022 50001=
200702270752 METAR KATL 270752Z 00000KT 10SM FEW100 09/M02 A2985 RMK AO2 SLP105 T00891022=
200702270652 METAR KATL 270652Z 00000KT 10SM FEW100 SCT200 09/M02 A2985 RMK AO2 SLP105 T00941022=
200702270552 METAR KATL 270552Z 05004KT 10SM FEW100 11/M03 A2984 RMK AO2 SLP103 T01061028 10161 20100 58002=
200702270452 METAR KATL 270452Z 08004KT 10SM CLR 11/M03 A2984 RMK AO2 SLP105 T01111033 401890056=
200702270352 METAR KATL 270352Z 00000KT 10SM CLR 12/M02 A2985 RMK AO2 SLP106 T01221022=
200702270252 METAR KATL 270252Z 02005KT 10SM CLR 14/M04 A2985 RMK AO2 SLP106 T01391044 50012=
200702270152 METAR KATL 270152Z 35007KT 10SM CLR 13/M03 A2985 RMK AO2 SLP107 T01281028=
200702270052 METAR KATL 270052Z 00000KT 10SM CLR 15/M03 A2983 RMK AO2 SLP100 T01501028=
200702262352 METAR KATL 262352Z 24004KT 10SM CLR 16/M04 A2981=
200702262252 METAR KATL 262252Z 23010KT 10SM CLR 18/M03 A2979 RMK AO2 SLP087 T01781028=
200702262152 METAR KATL 262152Z 26008KT 10SM CLR 18/M03 A2979 RMK AO2 SLP086 T01831033=
200702262052 METAR KATL 262052Z 26011G17KT 10SM CLR 19/M04 A2979=
200702261959 SPECI KATL 261959Z 25009KT 10SM CLR 18/M04 A2980 RMK AO2 WSHFT 1939=
200702261959 SPECI KATL 261959Z 25009KT 10SM CLR 18/M04 A2980 RMK AO2 WSHFT 1939=
200702261952 METAR KATL 261952Z 24014KT 10SM CLR 18/M04 A2980 RMK AO2 WSHFT 1934 SLP090 T01781039=
200702261852 METAR KATL 261852Z 21009G15KT 10SM CLR 17/M04 A2982 RMK AO2 SLP096 T01671039=
200702261752 METAR KATL 261752Z 25006G14KT 10SM CLR 16/M04 A2986 RMK AO2 SLP109 T01561039 10161 20056 58015=
200702261652 METAR KATL 261652Z 23009KT 10SM FEW250 13/M01 A2988=
200702261552 METAR KATL 261552Z 29010KT 10SM FEW250 12/01 A2990 RMK AO2 SLP124 T01220006=
200702261452 METAR KATL 261452Z 30007KT 10SM FEW180 SCT250 11/02 A2990 RMK AO2 SLP126 T01060017 53007=
200702261352 METAR KATL 261352Z 27006KT 10SM FEW200 SCT250 09/02 A2989 RMK AO2 SLP122 T00890022=
200702261252 METAR KATL 261252Z 00000KT 10SM FEW200 SCT250 06/01 A2988 RMK AO2 SLP120 T00610011=
200702261152 METAR KATL 261152Z 23005KT 10SM CLR 06/01 A2988 RMK AO2 SLP118 70034 T00560006 10106 20056 53018=
200702261052 METAR KATL 261052Z 27004KT 10SM CLR 07/01 A2986 RMK AO2 SLP109 T00670006=
200702260952 METAR KATL 260952Z 31007KT 10SM CLR 07/01 A2983 RMK AO2 SLP101 T00670006=
200702260852 METAR KATL 260852Z 29006KT 10SM CLR 07/00 A2983 RMK AO2 SLP098 T00720000 56003=
200702260752 METAR KATL 260752Z 30009KT 10SM CLR 08/00 A2983 RMK AO2 SLP098 T00830000=
200702260652 METAR KATL 260652Z 30011KT 10SM CLR 09/M02 A2983=
200702260552 METAR KATL 260552Z 28011KT 10SM CLR 11/M02 A2983 RMK AO2 SLP101 T01061022 10172 20106 53009=
200702260452 METAR KATL 260452Z 26009KT 10SM CLR 12/M03 A2982 RMK AO2 SLP097 T01171028 402110117=
200702260352 METAR KATL 260352Z 26007KT 10SM CLR 12/M02 A2981=
200702260252 METAR KATL 260252Z 26006KT 10SM CLR 13/M02 A2981 RMK AO2 SLP092 T01281022 51021=
200702260152 METAR KATL 260152Z 27006KT 10SM CLR 14/M03 A2979 RMK AO2 SLP087 T01391028=
200702260052 METAR KATL 260052Z 27010KT 10SM CLR 16/M03 A2977 RMK AO2 SLP078 T01611033=
200702252352 METAR KATL 252352Z 27013G20KT 10SM CLR 17/M03 A2974 RMK AO2 SLP069 T01721033 10211 20161 53014=
200702252252 METAR KATL 252252Z 27013G21KT 10SM CLR 19/M02 A2972 RMK AO2 SLP062 T01891017=
200702252152 METAR KATL 252152Z 26018G26KT 10SM FEW080 21/00 A2971 RMK AO2 PK WND 25026/2145 SLP057 T02060000=
200702252052 METAR KATL 252052Z 25016G25KT 9SM FEW060 21/04 A2970 RMK AO2 SLP054 T02060044 56022=
200702251952 SPECI KATL 251952Z 23016G21KT 10SM FEW050 19/06 A2971 RMK AO2 SLP056 T01940061=
200702251852 METAR KATL 251852Z 20016G20KT 10SM FEW100 18/06 A2972 RMK AO2 SLP063 T01780061=
200702251752 METAR KATL 251752Z 21015KT 10SM FEW100 16/07 A2977 RMK AO2 SLP077 60034 T01610072 10161 20122 58016=
200702251652 METAR KATL 251652Z 20011KT 10SM FEW013 SCT070 BKN120 14/09 A2981 RMK AO2 SLP090 T01440094=
200702251552 METAR KATL 251552Z 21008KT 10SM FEW008 BKN070 BKN095 14/11 A2981 RMK AO2 RAE45 SLP092 P0002 T01390111=
200702251520 SPECI KATL 251520Z 20011KT 10SM -RA FEW008 SCT016 OVC075 13/11 A2982 RMK AO2 P0002=
200702251520 SPECI KATL 251520Z 20011KT 10SM -RA FEW008 SCT016 OVC075 13/11 A2982 RMK AO2 P0002=
200702251503 SPECI KATL 251503Z 19010KT 6SM -RA BR SCT008 BKN012 OVC055 13/11 A2983 RMK AO2 P0001=
200702251452 METAR KATL 251452Z 19007KT 9SM -RA FEW005 OVC055 13/11 A2982 RMK AO2 TSE1357B08E30 SLP095 TS DSIPT P0009 60032 T01280111 58002=
200702251432 SPECI KATL 251432Z 19012KT 6SM -RA BR FEW008 SCT027 OVC047 13/11 A2983 RMK AO2 TSE1357B08E30 TS DSIPT P0008=
200702251432 SPECI KATL 251432Z 19012KT 6SM -RA BR FEW008 SCT027 OVC047 13/11 A2983 RMK AO2 TSE1357B08E30 TS DSIPT P0008=
200702251408 SPECI KATL 251408Z 18006KT 2 1/2SM -TSRA BR FEW008 BKN032CB OVC045 13/11 A2983 RMK AO2 SFC VIS 3 TSE1357B08 OCNL LTGIC TS VC S-SW MOV NE P0002 $=
200702251408 SPECI KATL 251408Z 18006KT 2 1/2SM -TSRA BR FEW008 BKN032CB OVC045 13/11 A2983 RMK AO2 SFC VIS 3 TSE1357B08 OCNL LTGIC TS VC S-SW MOV NE P0002 $=
200702251358 SPECI KATL 251358Z 21006KT 2 1/2SM -RA BR FEW009 BKN014 OVC045 12/11 A2984 RMK AO2 SFC VIS 4 TSE57 TS DSIPT P0000 $=
200702251358 SPECI KATL 251358Z 21006KT 2 1/2SM -RA BR FEW009 BKN014 OVC045 12/11 A2984 RMK AO2 SFC VIS 4 TSE57 TS DSIPT P0000 $=
200702251352 METAR KATL 251352Z 20007KT 2 1/2SM -TSRA BR FEW009 BKN015CB OVC030 12/11 A2983=
200702251347 SPECI KATL 251347Z 21006KT 2 1/2SM +TSRA BR SCT011 BKN017CB OVC030 12/11 A2983 RMK AO2 SFC VIS 4 TSB31 OCNL LTGIC TS S-SW MOV NE P0017=
200702251347 SPECI KATL 251347Z 21006KT 2 1/2SM +TSRA BR SCT011 BKN017CB OVC030 12/11 A2983 RMK AO2 SFC VIS 4 TSB31 OCNL LTGIC TS S-SW MOV NE P0017=
200702251340 SPECI KATL 251340Z 20006KT 1 1/2SM R09R/5500VP6000FT +TSRA BR FEW006 OVC013CB 12/11 A2983 RMK AO2 TWR VIS 2 1/2 TSB31 OCNL LTGIC TS VC S-SW MOV NE P0015=
200702251340 SPECI KATL 251340Z 20006KT 1 1/2SM R09R/5500VP6000FT +TSRA BR FEW006 OVC013CB 12/11 A2983 RMK AO2 TWR VIS 2 1/2 TSB31 OCNL LTGIC TS VC S-SW MOV NE P0015=
200702251338 SPECI KATL 251338Z 20006KT 2 1/2SM R09R/5500VP6000FT +TSRA BR FEW006 OVC013CB 12/11 A2983 RMK AO2 SFC VIS 3 TSB31 OCNL LTGIC TS VC S-SW MOV NE P0012=
200702251338 SPECI KATL 251338Z 20006KT 2 1/2SM R09R/5500VP6000FT +TSRA BR FEW006 OVC013CB 12/11 A2983 RMK AO2 SFC VIS 3 TSB31 OCNL LTGIC TS VC S-SW MOV NE P0012=
200702251332 SPECI KATL 251332Z 21009KT 3SM -TSRA BR FEW005 OVC016CB 12/11 A2984=
200702251323 SPECI KATL 251323Z 19006KT 3SM -RA BR FEW005 BKN016 OVC021 12/11 A2983 RMK AO2 SFC VIS 4 P0007=
200702251323 SPECI KATL 251323Z 19006KT 3SM -RA BR FEW005 BKN016 OVC021 12/11 A2983 RMK AO2 SFC VIS 4 P0007=
200702251314 SPECI KATL 251314Z 20005KT 6SM -RA BR FEW005 BKN014 OVC021 12/11 A2982 RMK AO2 P0006=
200702251314 SPECI KATL 251314Z 20005KT 6SM -RA BR FEW005 BKN014 OVC021 12/11 A2982 RMK AO2 P0006=
200702251307 SPECI KATL 251307Z 21005KT 3SM -RA BR OVC014 12/11 A2983 RMK AO2 P0006=
200702251307 SPECI KATL 251307Z 21005KT 3SM -RA BR OVC014 12/11 A2983 RMK AO2 P0006=
200702251304 SPECI KATL 251304Z 23004KT 2 1/2SM RA BR BKN012 OVC020 12/11 A2983 RMK AO2 P0006=
200702251304 SPECI KATL 251304Z 23004KT 2 1/2SM RA BR BKN012 OVC020 12/11 A2983 RMK AO2 P0006=
200702251258 SPECI KATL 251258Z 23007KT 1 1/2SM +RA BR BKN012 OVC018 12/11 A2983 RMK AO2 P0002=
200702251258 SPECI KATL 251258Z 23007KT 1 1/2SM +RA BR BKN012 OVC018 12/11 A2983 RMK AO2 P0002=
200702251252 METAR KATL 251252Z 24007KT 6SM -RA BR BKN012 OVC018 12/11 A2983 RMK AO2 SLP098 P0005 T01220106=
200702251249 SPECI KATL 251249Z 24006KT 6SM -RA BR BKN012 BKN018 OVC024 12/11 A2982 RMK AO2 P0004=
200702251249 SPECI KATL 251249Z 24006KT 6SM -RA BR BKN012 BKN018 OVC024 12/11 A2982 RMK AO2 P0004=
200702251152 METAR KATL 251152Z 17012G18KT 10SM -RA FEW012 OVC024 13/10 A2980 RMK AO2 RAB43 SLP087 P0000 60011 70011 T01280100 10139 20117 58016=
200702251052 METAR KATL 251052Z 16012G18KT 10SM FEW021 BKN028 OVC031 12/10 A2980 RMK AO2 SLP090 T01220100=
200702250952 METAR KATL 250952Z 15009KT 10SM FEW019 BKN031 OVC038 12/10 A2984 RMK AO2 RAE51 SLP102 P0010 T01170100=
200702250923 SPECI KATL 250923Z 20007KT 6SM RA BR BKN022 BKN027 OVC033 12/10 A2986 RMK AO2 P0006=
200702250923 SPECI KATL 250923Z 20007KT 6SM RA BR BKN022 BKN027 OVC033 12/10 A2986 RMK AO2 P0006=
200702250852 METAR KATL 250852Z 16011KT 9SM -RA BKN035 BKN047 OVC055 13/09 A2984 RMK AO2 RAE08B29 SLP103 P0001 60001 T01280089 58025=
200702250752 METAR KATL 250752Z 15012G19KT 10SM -RA BKN048 BKN065 OVC100 13/08 A2987 RMK AO2 PK WND 15026/0703 RAB41 SLP114 P0000 T01330083=
200702250652 METAR KATL 250652Z 15018G24KT 10SM SCT050 BKN075 BKN100 13/07 A2990 RMK AO2 SLP122 T01330072=
200702250552 METAR KATL 250552Z 15015G22KT 10SM BKN080 OVC100 14/07 A2992 RMK AO2 SLP129 T01390072 10161 20139 58010=
200702250452 METAR KATL 250452Z 14012G21KT 10SM BKN095 14/06 A2994 RMK AO2 SLP137 T01440061 401780039=
200702250352 METAR KATL 250352Z 14013G16KT 10SM FEW042 BKN095 14/02 A2996 RMK AO2 SLP144 T01440022=
200702250252 METAR KATL 250252Z 13010KT 10SM BKN100 15/M01 A2995 RMK AO2 PRESFR SLP141 T01501011 58013=
200702250152 METAR KATL 250152Z 12009KT 10SM BKN100 16/M01 A2999 RMK AO2 SLP155 T01561011=
200702250052 METAR KATL 250052Z 12011KT 10SM FEW085 BKN100 BKN150 16/M02 A2998 RMK AO2 SLP153 T01611017=
200702242352 METAR KATL 242352Z 11009KT 10SM BKN100 OVC150 16/M02 A2999 RMK AO2 SLP156 T01611022 10178 20156 55008=
200702242252 METAR KATL 242252Z 13011KT 10SM BKN110 BKN150 17/M02 A2998 RMK AO2 SLP153 T01721022=
200702242152 METAR KATL 242152Z 13011G18KT 10SM FEW090 SCT110 BKN150 17/M03 A2999 RMK AO2 SLP157 T01721028=
200702242052 METAR KATL 242052Z 13014G20KT 10SM SCT100 BKN150 BKN250 18/M03 A3002 RMK AO2 SLP165 T01781033 56033=
200702241952 METAR KATL 241952Z 14011G18KT 10SM SCT110 BKN150 BKN200 17/M01 A3005 RMK AO2 SLP175 T01671011=
200702241852 METAR KATL 241852Z 14012G18KT 10SM BKN100 16/M01 A3008 RMK AO2 SLP184 T01611011=
200702241752 METAR KATL 241752Z 11012KT 10SM SCT120 BKN150 BKN200 16/M03 A3012 RMK AO2 SLP199 T01561033 10156 20039 56023=
200702241652 METAR KATL 241652Z 13010KT 10SM BKN110 BKN150 BKN200 13/M05 A3013 RMK AO2 SLP205 T01331050=
200702241552 METAR KATL 241552Z 11010KT 10SM FEW120 SCT150 BKN200 BKN250 12/M06 A3015=
200702241452 METAR KATL 241452Z 09008KT 10SM SCT120 SCT180 BKN250 10/M05 A3019=
200702241352 METAR KATL 241352Z 08010KT 10SM SCT180 BKN250 07/M05 A3018 RMK AO2 SLP224 T00671050=
200702241252 METAR KATL 241252Z 08010KT 10SM BKN180 05/M05 A3016 RMK AO2 SLP217 T00501050=
200702241152 METAR KATL 241152Z 07009KT 10SM FEW250 04/M04 A3014 RMK AO2 SLP210 T00441044 10083 20039 53009=
200702241052 METAR KATL 241052Z 07007KT 10SM CLR 04/M05 A3013 RMK AO2 SLP205 T00391050=
200702240952 METAR KATL 240952Z 07005KT 10SM FEW250 04/M05 A3010 RMK AO2 SLP195 T00391050=
200702240852 METAR KATL 240852Z 06007KT 10SM SCT250 05/M05 A3012 RMK AO2 SLP199 T00501050 56007=
200702240752 METAR KATL 240752Z 08005KT 10SM SCT250 06/M07 A3012 RMK AO2 SLP199 T00611067=
200702240652 METAR KATL 240652Z 03004KT 10SM BKN250 08/M08 A3013 RMK AO2 SLP203 T00781083=
200702240552 METAR KATL 240552Z 35003KT 10SM BKN250 07/M08 A3014 RMK AO2 SLP207 T00721078 10128 20072 55005=
200702240452 METAR KATL 240452Z 34004KT 10SM BKN250 08/M08 A3014 RMK AO2 SLP206 T00781078 401780050=
200702240352 METAR KATL 240352Z 32004KT 10SM BKN250 08/M08 A3015 RMK AO2 SLP212 T00831078=
200702240252 METAR KATL 240252Z 32005KT 10SM SCT250 08/M08 A3015 RMK AO2 SLP215 T00831078 50004=
200702240152 METAR KATL 240152Z 32007KT 10SM FEW250 09/M07 A3016=
200702240052 METAR KATL 240052Z 34007KT 10SM FEW150 12/M07 A3015 RMK AO2 SLP213 T01171072=
200702232352 METAR KATL 232352Z 33008KT 10SM SCT150 SCT250 13/M07 A3014 RMK AO2 SLP208 T01281067 10178 20128 52003=
200702232252 SPECI KATL 232252Z 31007KT 10SM SCT150 BKN200 BKN250 14/M08 A3014 RMK AO2 SLP208 ACC S-SW AND W T01441083=
200702232152 METAR KATL 232152Z 30007KT 10SM FEW100 BKN150 BKN250 16/M08 A3013 RMK AO2 SLP205 VIRGA DSNT W ACC OHD AND ALQDS T01561083=
200702232052 METAR KATL 232052Z 30007KT 10SM FEW150 SCT200 BKN250 17/M08 A3013 RMK AO2 SLP203 ACC DSNT S-NW T01671083 56020=
200702231952 METAR KATL 231952Z VRB05KT 10SM FEW150 SCT200 BKN250 17/M09 A3014 RMK AO2 SLP207 ACC DSNT S T01721089=
200702231852 METAR KATL 231852Z 36006KT 10SM FEW150 BKN200 BKN300 16/M10 A3017 RMK AO2 SLP216 T01561100=
200702231752 METAR KATL 231752Z 31007KT 10SM FEW150 SCT200 BKN300 15/M10 A3019 RMK AO2 SLP224 T01501100 10150 20050 58010=
200702231652 METAR KATL 231652Z 33007KT 10SM FEW150 SCT200 BKN250 13/M08 A3022 RMK AO2 SLP234 T01281078=
200702231552 METAR KATL 231552Z 35012KT 10SM FEW200 BKN250 BKN300 10/M08 A3023 RMK AO2 SLP238 T01001078=
200702231452 METAR KATL 231452Z 32009KT 10SM FEW200 BKN250 BKN300 07/M06 A3022 RMK AO2 SLP236 T00721056 53023=
200702231352 METAR KATL 231352Z 33012KT 10SM SCT200 BKN250 06/M06 A3020 RMK AO2 SLP227 T00611056=
200702231252 METAR KATL 231252Z 33012KT 10SM BKN200 BKN250 05/M06 A3017 RMK AO2 SLP218 T00501056=
200702231152 METAR KATL 231152Z 31010KT 10SM OVC200 06/M06 A3015 RMK AO2 SLP211 T00561061 10089 20056 53007=
200702231052 METAR KATL 231052Z 31008KT 10SM BKN200 BKN250 06/M06 A3014 RMK AO2 SLP207 T00561061=
200702230952 METAR KATL 230952Z 32011KT 10SM SCT200 BKN250 06/M06 A3014 RMK AO2 SLP204 T00611061=
200702230852 METAR KATL 230852Z 33012KT 10SM SCT200 BKN250 07/M07 A3013 RMK AO2 SLP202 T00721067 51003=
200702230752 METAR KATL 230752Z 31014G20KT 10SM SCT250 08/M07 A3013 RMK AO2 SLP201 T00781067=
200702230652 METAR KATL 230652Z 32015KT 10SM CLR 08/M07 A3013 RMK AO2 SLP200 T00831072=
200702230552 METAR KATL 230552Z 32013KT 10SM CLR 09/M07 A3012 RMK AO2 SLP198 T00891072 10172 20089 50003=
200702230452 METAR KATL 230452Z COR 32012KT 10SM CLR 10/M08 A3014 RMK AO2 SLP203 T01001078 402110094=
200702230352 METAR KATL 230352Z 33012KT 10SM CLR 11/M09 A3013=
200702222152 METAR KATL 222152Z 31017G23KT 10SM FEW200 SCT250 BKN300 20/M03 A3004 RMK AO2 SLP170 T02001033=
200702222052 METAR KATL 222052Z 32017G25KT 10SM FEW250 BKN300 21/M03 A3003 RMK AO2 SLP166 T02061028 56013=
200702221952 METAR KATL 221952Z 31015G21KT 10SM FEW250 BKN300 21/00 A3004 RMK AO2 PK WND 33027/1921 SLP168 T02060000=
200702221852 METAR KATL 221852Z 34016G22KT 10SM FEW250 BKN300 21/02 A3005 RMK AO2 PK WND 32026/1817 SLP171 T02060022=
200702221752 METAR KATL 221752Z 33019G25KT 10SM FEW250 20/02 A3007 RMK AO2 PK WND 31028/1728 SLP179 T02000022 10200 20094 58003=
200702221652 METAR KATL 221652Z 31017G27KT 10SM FEW250 19/03 A3008 RMK AO2 PK WND 31027/1650 SLP182 T01890033=
200702221552 METAR KATL 221552Z 31013G23KT 10SM FEW250 17/05 A3008 RMK AO2 SLP185 T01720050=
200702221452 METAR KATL 221452Z 30011KT 10SM FEW250 15/07 A3008=
200702221352 METAR KATL 221352Z 29006KT 10SM CLR 12/08 A3007 RMK AO2 SLP182 T01220083=
200702221252 METAR KATL 221252Z 27006KT 9SM CLR 10/08 A3005 RMK AO2 SLP177 T01000078=
200702221152 METAR KATL 221152Z 30007KT 10SM CLR 10/08 A3003 RMK AO2 SLP169 70057 T01000078 10133 20100 51010=
200702221052 METAR KATL 221052Z 29008KT 7SM FEW006 11/09 A3003 RMK AO2 SLP168 T01060094=
200702221017 SPECI KATL 221017Z 29009KT 6SM BR SCT004 11/10 A3002 RMK AO2=
200702221017 SPECI KATL 221017Z 29009KT 6SM BR SCT004 11/10 A3002 RMK AO2=
200702220952 METAR KATL 220952Z 28009KT 6SM BR BKN004 12/10 A3001 RMK AO2 SLP160 T01170100=
200702220852 METAR KATL 220852Z 26008KT 7SM BKN004 12/11 A3000 RMK AO2 SLP157 T01170106 58002=
200702220752 METAR KATL 220752Z 25009KT 8SM BKN005 12/11 A3001 RMK AO2 SLP160 T01220106=
200702220652 METAR KATL 220652Z 26012KT 10SM OVC008 13/11 A3001 RMK AO2 SLP161 T01280111=
200702220636 SPECI KATL 220636Z 26011KT 10SM BKN008 13/11 A3002 RMK AO2=
200702220636 SPECI KATL 220636Z 26011KT 10SM BKN008 13/11 A3002 RMK AO2=
200702220552 METAR KATL 220552Z 25011KT 10SM SCT008 13/11 A3001 RMK AO2 SLP160 T01330111 10167 20133 50003=
200702220519 SPECI KATL 220519Z 25007KT 10SM SCT008 BKN014 13/11 A3002 RMK AO2=
200702220519 SPECI KATL 220519Z 25007KT 10SM SCT008 BKN014 13/11 A3002 RMK AO2=
200702220504 SPECI KATL 220504Z 25008KT 10SM FEW007 SCT014 13/11 A3001 RMK AO2=
200702220504 SPECI KATL 220504Z 25008KT 10SM FEW007 SCT014 13/11 A3001 RMK AO2=
200702220452 METAR KATL 220452Z 25008KT 10SM FEW007 OVC014 13/12 A3001 RMK AO2 SLP161 T01330117 401830133=
200702220448 SPECI KATL 220448Z 25008KT 10SM SCT007 OVC012 13/12 A3001 RMK AO2 401830133=
200702220448 SPECI KATL 220448Z 25008KT 10SM SCT007 OVC012 13/12 A3001 RMK AO2 401830133=
200702220352 METAR KATL 220352Z 24011KT 10SM OVC008 13/12 A3001 RMK AO2 SLP159 BINOVC T01330117=
200702220258 SPECI KATL 220258Z 24011KT 10SM BKN010 14/12 A3000 RMK AO2=
200702220258 SPECI KATL 220258Z 24011KT 10SM BKN010 14/12 A3000 RMK AO2=
200702220252 METAR KATL 220252Z 23011KT 10SM FEW010 14/12 A3000 RMK AO2 SLP156 T01390117 51014=
200702220243 SPECI KATL 220243Z 24009KT 10SM SCT010 14/12 A3000 RMK AO2=
200702220243 SPECI KATL 220243Z 24009KT 10SM SCT010 14/12 A3000 RMK AO2=
200702220152 METAR KATL 220152Z 24013KT 10SM BKN012 BKN035 14/12 A2999 RMK AO2 SLP152 T01440117=
200702220149 SPECI KATL 220149Z 24011KT 10SM BKN012 BKN035 14/12 A2999 RMK AO2=
200702220149 SPECI KATL 220149Z 24011KT 10SM BKN012 BKN035 14/12 A2999 RMK AO2=
200702220052 METAR KATL 220052Z 23009KT 10SM FEW035 16/12 A2997 RMK AO2 SLP146 T01560122=
200702212352 METAR KATL 212352Z 23009KT 10SM FEW025 SCT032 16/12 A2996 RMK AO2 SLP141 MDT CU VC SE-S T01610122 10183 20161 53009=
200702212252 METAR KATL 212252Z 25006KT 10SM FEW035 18/12 A2994 RMK AO2 SLP134 TCU DSNT S-SW T01780117=
200702212152 METAR KATL 212152Z 25011KT 10SM SCT025 SCT250 18/12 A2993 RMK AO2 SLP132 T01830117=
200702212052 METAR KATL 212052Z 26008KT 10SM FEW020 SCT040 BKN150 BKN250 18/12 A2993 RMK AO2 SLP131 VIRGA SE TCU DSNT NE T01780122 56010=
200702211952 METAR KATL 211952Z 26009KT 9SM SCT020 BKN040 OVC150 18/13 A2993 RMK AO2 SLP133 MDT CU NE-SW T01780133=
200702211852 METAR KATL 211852Z 25006KT 8SM FEW013 SCT019 BKN036 OVC150 17/14 A2994 RMK AO2 SLP134 T01720139=
200702211829 SPECI KATL 211829Z 26009KT 8SM SCT013 BKN030 BKN040 OVC150 17/14 A2995 RMK AO2=
200702211829 SPECI KATL 211829Z 26009KT 8SM SCT013 BKN030 BKN040 OVC150 17/14 A2995 RMK AO2=
200702211756 SPECI KATL 211756Z 26008KT 8SM SCT010 BKN025 BKN090 OVC150 17/14 A2996 RMK AO2=
200702211756 SPECI KATL 211756Z 26008KT 8SM SCT010 BKN025 BKN090 OVC150 17/14 A2996 RMK AO2=
200702211752 METAR KATL 211752Z 26007KT 7SM SCT010 SCT020 SCT090 OVC150 16/14 A2996 RMK AO2 SLP142 SCT010 V BKN 60057 T01610139 10161 20139 58007=
200702211727 SPECI KATL 211727Z 25006KT 7SM SCT008 SCT012 SCT090 OVC150 16/14 A2997 RMK AO2=
200702211727 SPECI KATL 211727Z 25006KT 7SM SCT008 SCT012 SCT090 OVC150 16/14 A2997 RMK AO2=
200702211652 METAR KATL 211652Z 24007KT 9SM FEW030 SCT060 SCT090 OVC150 16/13 A2998 RMK AO2 RAE02 SLP149 VIRGA NW-N P0000 T01560133=
200702211552 METAR KATL 211552Z 27006KT 10SM -RA SCT031 BKN039 OVC055 14/13 A2998 RMK AO2 SLP150 P0040 T01440128=
200702211549 SPECI KATL 211549Z 27005KT 10SM -RA SCT028 BKN036 OVC050 14/13 A2998 RMK AO2 TS MOV E P0040=
200702211549 SPECI KATL 211549Z 27005KT 10SM -RA SCT028 BKN036 OVC050 14/13 A2998 RMK AO2 TS MOV E P0040=
200702211536 SPECI KATL 211536Z 29009KT 1SM -RA FEW015 BKN020 OVC060 14/13 A2998 RMK AO2 SFC VIS 10 VIS LWR NE-SE SHRA TS MOV E P0040=
200702211536 SPECI KATL 211536Z 29009KT 1SM -RA FEW015 BKN020 OVC060 14/13 A2998 RMK AO2 SFC VIS 10 VIS LWR NE-SE SHRA TS MOV E P0040=
200702211516 SPECI KATL 211516Z 26010G16KT 1SM R27R/5000FT TSRA BR BKN014CB BKN022 OVC055 14/12 A2998 RMK AO2 SFC VIS 2 OCNL LTGICCG TS OHD-E MOV E P0031=
200702211516 SPECI KATL 211516Z 26010G16KT 1SM R27R/5000FT TSRA BR BKN014CB BKN022 OVC055 14/12 A2998 RMK AO2 SFC VIS 2 OCNL LTGICCG TS OHD-E MOV E P0031=
200702211504 SPECI KATL 211504Z 29013G21KT 1SM R27R/5000FT +TSRA BR FEW006 BKN014 OVC038CB 14/12 A2997 RMK AO2 OCNL LTGICCG TS E-OHD-W MOV E P0020=
200702211504 SPECI KATL 211504Z 29013G21KT 1SM R27R/5000FT +TSRA BR FEW006 BKN014 OVC038CB 14/12 A2997 RMK AO2 OCNL LTGICCG TS E-OHD-W MOV E P0020=
200702211457 SPECI KATL 211457Z 29017G21KT 1SM R09R/4000VP6000FT +TSRA BR FEW006 BKN015 OVC038CB 14/12 A2998 RMK AO2 OCNL LTGICCG TS OHD-W MOV E P0007=
200702211457 SPECI KATL 211457Z 29017G21KT 1SM R09R/4000VP6000FT +TSRA BR FEW006 BKN015 OVC038CB 14/12 A2998 RMK AO2 OCNL LTGICCG TS OHD-W MOV E P0007=
200702211452 METAR KATL 211452Z 30009G16KT 1SM R09R/5000VP6000FT +TSRA BR FEW006 SCT012 OVC038CB 15/13 A2997 RMK AO2 TSB48RAB36 SLP147 OCNL LTGICCG TS OHD-W MOV E P0008 60017 T01500128 50009=
200702211449 SPECI KATL 211449Z 31010G16KT 1 1/2SM R09R/5000VP6000FT +TSRA BR FEW006 SCT012 OVC038CB 15/13 A2997 RMK AO2 TSB48RAB36 OCNL LTGICCG TS W-NW MOV E P0003=
200702211449 SPECI KATL 211449Z 31010G16KT 1 1/2SM R09R/5000VP6000FT +TSRA BR FEW006 SCT012 OVC038CB 15/13 A2997 RMK AO2 TSB48RAB36 OCNL LTGICCG TS W-NW MOV E P0003=
200702211447 SPECI KATL 211447Z 33011G16KT 1SM R09R/5000VP6000FT RA BR SCT006 BKN012 OVC034 15/13 A2998 RMK AO2 RAB36 P0000=
200702211447 SPECI KATL 211447Z 33011G16KT 1SM R09R/5000VP6000FT RA BR SCT006 BKN012 OVC034 15/13 A2998 RMK AO2 RAB36 P0000=
200702211411 SPECI KATL 211411Z 25008KT 6SM BR BKN009 OVC014 16/13 A2997 RMK AO2 CIG 007V011=
200702211411 SPECI KATL 211411Z 25008KT 6SM BR BKN009 OVC014 16/13 A2997 RMK AO2 CIG 007V011=
200702211352 METAR KATL 211352Z 24009KT 6SM BR OVC010 16/13 A2997 RMK AO2 RAE12 SLP145 P0000 T01560133=
200702211311 SPECI KATL 211311Z 23010KT 8SM -RA BKN010 BKN014 OVC020 15/13 A2995 RMK AO2 CIG 007V012 P0000=
200702211311 SPECI KATL 211311Z 23010KT 8SM -RA BKN010 BKN014 OVC020 15/13 A2995 RMK AO2 CIG 007V012 P0000=
200702211252 METAR KATL 211252Z 24010KT 9SM -RA BKN008 OVC016 15/13 A2994 RMK AO2 CIG 006V013 SLP138 P0009 T01500133=
200702211218 SPECI KATL 211218Z 24010KT 6SM -RA BR BKN008 BKN012 OVC018 15/13 A2994 RMK AO2 CIG 005V012 P0008=
200702211218 SPECI KATL 211218Z 24010KT 6SM -RA BR BKN008 BKN012 OVC018 15/13 A2994 RMK AO2 CIG 005V012 P0008=
200702211212 SPECI KATL 211212Z 23011KT 2SM +RA BR FEW008 BKN012 OVC020 15/13 A2993 RMK AO2 P0001=
200702211212 SPECI KATL 211212Z 23011KT 2SM +RA BR FEW008 BKN012 OVC020 15/13 A2993 RMK AO2 P0001=
200702211152 METAR KATL 211152Z COR 23011KT 8SM -RA BR BKN012 OVC020 15/13 A2993 RMK AO2 RAE00B35 SLP133 P0003 60004 70006 T01500128 10150 20150 50007=
200702211052 METAR KATL 211052Z 24012KT 7SM -RA OVC010 15/13 A2993 RMK AO2 RAB02E20B49 CIG 008V014 SLP133 P0000 T01500128=
200702210952 METAR KATL 210952Z 25010KT 10SM OVC012 15/12 A2993 RMK AO2 RAE0858 SLP131 P0000 T01500122=
200702210852 METAR KATL 210852Z 23009KT 10SM -RA OVC010 15/12 A2991 RMK AO2 RAE14B44 SLP124 P0000 60001 T01500122 55004=
200702210820 SPECI KATL 210820Z 22016KT 10SM BKN012 BKN017 OVC080 15/12 A2992 RMK AO2 RAE14 P0000=
200702210752 METAR KATL 210752Z 22017KT 10SM -RA FEW014 SCT065 OVC085 15/12 A2991 RMK AO2 RAB06 SLP123 P0001 T01500122=
200702210727 SPECI KATL 210727Z 21017G23KT 10SM -RA FEW014 SCT055 OVC085 15/12 A2990 RMK AO2 RAB06 P0000=
200702210727 SPECI KATL 210727Z 21017G23KT 10SM -RA FEW014 SCT055 OVC085 15/12 A2990 RMK AO2 RAB06 P0000=
200702210652 METAR KATL 210652Z 22015KT 10SM BKN014 BKN100 OVC150 15/12 A2992 RMK AO2 SLP127 T01500122=
200702210552 METAR KATL 210552Z 21016KT 10SM BKN014 BKN100 OVC150 15/12 A2992 RMK AO2 RAB32E40 SLP129 P0000 60002 T01500122 10161 20133 58016=
200702210532 SPECI KATL 210532Z 22015G21KT 10SM -RA BKN015 BKN100 OVC150 15/12 A2993 RMK AO2 RAB32 P0000=
200702210532 SPECI KATL 210532Z 22015G21KT 10SM -RA BKN015 BKN100 OVC150 15/12 A2993 RMK AO2 RAB32 P0000=
200702210524 SPECI KATL 210524Z 21016G20KT 10SM SCT015 BKN100 OVC150 15/12 A2993 RMK AO2=
200702210524 SPECI KATL 210524Z 21016G20KT 10SM SCT015 BKN100 OVC150 15/12 A2993 RMK AO2=
200702210512 SPECI KATL 210512Z 22017KT 10SM BKN016 BKN100 OVC150 15/12 A2993 RMK AO2=
200702210452 METAR KATL 210452Z 21016KT 10SM FEW015 SCT120 OVC150 15/12 A2994 RMK AO2 RAE20 SLP136 P0000 T01500117 401830067=
200702210352 METAR KATL 210352Z 21012KT 10SM -RA SCT045 BKN075 OVC110 14/11 A2996 RMK AO2 SLP144 P0000 T01440111=
200702210252 METAR KATL 210252Z 20006KT 10SM -RA FEW045 BKN080 OVC140 14/11 A2997 RMK AO2 RAE28B50 SLP149 PCPN VRY LGT P0001 60002 T01390111 58005=
200702210152 METAR KATL 210152Z 20004KT 9SM -RA BKN045 BKN060 OVC080 14/11 A2998 RMK AO2 SLP152 P0001 T01390111=
200702210052 METAR KATL 210052Z 23006KT 10SM -RA FEW035 BKN070 OVC090 15/11 A2999 RMK AO2 SLP156 P0000 T01500106=
200702202352 METAR KATL 202352Z 22011KT 10SM -RA FEW035 BKN080 OVC100 16/10 A2998 RMK AO2 RAB14 SLP154 P0000 60000 T01610100 10183 20133 53004=
200702202252 METAR KATL 202252Z 22010KT 10SM FEW035 SCT110 OVC150 17/09 A2997 RMK AO2 SLP147 VIRGA VC S-SW T01720089=
200702202152 METAR KATL 202152Z 23017G21KT 10SM FEW040 SCT055 OVC180 18/08 A2996 RMK AO2 SLP143 T01780083=
200702202052 METAR KATL 202052Z 22012G20KT 10SM BKN045 OVC060 18/08 A2997 RMK AO2 SLP148 T01830083 56023=
200702201952 METAR KATL 201952Z 22014KT 10SM FEW037 SCT048 BKN060 17/08 A2998 RMK AO2 SLP153 T01720083=
200702201852 METAR KATL 201852Z 23014G19KT 9SM SCT070 18/09 A3000 RMK AO2 SLP157 T01780089=
200702201752 METAR KATL 201752Z 22010KT 10SM FEW012 SCT049 OVC065 13/08 A3004 RMK AO2 SLP174 60000 T01330083 10133 20067 58015=
200702201652 METAR KATL 201652Z 22012KT 10SM OVC065 11/07 A3006 RMK AO2 SLP179 T01110072=
200702201552 METAR KATL 201552Z 22010KT 10SM FEW012 OVC065 10/07 A3009 RMK AO2 RAB04E14 SLP190 P0000 T01000067=
200702201452 METAR KATL 201452Z 20010KT 10SM OVC070 09/06 A3009=
200702201352 METAR KATL 201352Z 21010KT 10SM SCT048 OVC065 08/05 A3009 RMK AO2 SLP193 T00780050=
200702201252 METAR KATL 201252Z 20007KT 10SM FEW048 BKN070 OVC140 07/04 A3009 RMK AO2 SLP192 T00720039=
200702201152 METAR KATL 201152Z COR 19008KT 10SM BKN055 OVC070 07/03 A3009 RMK AO2 SLP191 60002 70002 T00670033 10078 20067 56005=
200702201052 METAR KATL 201052Z 19005KT 10SM OVC050 07/03 A3010 RMK AO2 RAE14 SLP193 P0000 T00670033=
200702200952 METAR KATL 200952Z 19004KT 10SM -RA BKN050 OVC070 07/03 A3010 RMK AO2 RAB18 SLP193 P0002 T00670033=
200702200852 METAR KATL 200852Z 21008KT 10SM FEW040 BKN110 BKN250 08/02 A3011 RMK AO2 SLP196 T00780022 56010=
200702200752 METAR KATL 200752Z 21008KT 10SM SCT040 BKN120 BKN250 07/01 A3011 RMK AO2 SLP198 T00720011=
200702200652 METAR KATL 200652Z 22009KT 10SM BKN035 BKN140 BKN250 07/M02 A3013 RMK AO2 SLP206 T00721022=
200702200552 METAR KATL 200552Z 23009KT 10SM FEW140 07/M04 A3014 RMK AO2 SLP208 T00721044 10117 20072 58002=
200702200452 METAR KATL 200452Z 21011KT 10SM FEW150 07/M07 A3014 RMK AO2 SLP209 T00721072 401441028=
200702200352 METAR KATL 200352Z 21004KT 10SM CLR 08/M08 A3014 RMK AO2 SLP211 T00781078=
200702200252 METAR KATL 200252Z 20007KT 10SM CLR 09/M08 A3014 RMK AO2 SLP212 T00891083 53002=
200702200152 METAR KATL 200152Z 19009KT 10SM CLR 09/M08 A3013 RMK AO2 SLP208 T00941083=
200702200052 METAR KATL 200052Z 19007KT 10SM FEW150 11/M08 A3014 RMK AO2 SLP211 T01061083=
200702192352 METAR KATL 192352Z 20009KT 10SM SCT150 12/M08 A3014 RMK AO2 SLP211 ACC VC E-SE T01171083 10144 20111 55007=
200702192252 METAR KATL 192252Z 20013KT 10SM FEW150 13/M09 A3013 RMK AO2 SLP208 ACC DSNT W T01281094=
200702192152 METAR KATL 192152Z 21013KT 10SM FEW250 14/M09 A3013 RMK AO2 SLP209 T01391094=
200702192052 METAR KATL 192052Z 20009G16KT 10SM FEW150 SCT250 14/M09 A3016 RMK AO2 SLP217 T01391089 56036=
200702191952 METAR KATL 191952Z 24013G20KT 10SM FEW150 SCT250 14/M09 A3019 RMK AO2 SLP229 T01391094=
200702191852 METAR KATL 191852Z 23008KT 10SM FEW150 SCT250 12/M07 A3022 RMK AO2 SLP239 T01221072=
200702191752 METAR KATL 191752Z 20012KT 10SM FEW150 SCT250 12/M08 A3027 RMK AO2 SLP254 T01171078 10117 21022 58015=
200702191652 METAR KATL 191652Z 21008KT 10SM SCT250 09/M06 A3030 RMK AO2 SLP266 T00941061=
200702191552 METAR KATL 191552Z VRB04KT 10SM BKN250 07/M06 A3030 RMK AO2 SLP268 T00721056=
200702191452 METAR KATL 191452Z 17003KT 10SM SCT250 03/M06 A3031 RMK AO2 SLP273 T00331061 50017=
200702191352 METAR KATL 191352Z VRB03KT 10SM FEW250 01/M06 A3032 RMK AO2 SLP276 T00111061=
200702191252 METAR KATL 191252Z 23003KT 10SM FEW250 M02/M07 A3029 RMK AO2 SLP267 T10171067=
200702191152 METAR KATL 191152Z 00000KT 10SM FEW250 M02/M08 A3026 RMK AO2 SLP256 T10171078 10000 21028 50005=
200702191052 METAR KATL 191052Z 30008KT 10SM CLR M03/M07 A3027 RMK AO2 SLP259 T10281072=
200702190952 METAR KATL 190952Z 31003KT 10SM FEW250 M01/M07 A3025 RMK AO2 SLP252 T10111072=
200702190852 METAR KATL 190852Z 25003KT 10SM FEW250 M01/M07 A3024 RMK AO2 SLP249 T10111072 58004=
200702190752 METAR KATL 190752Z 34003KT 10SM CLR M01/M08 A3025 RMK AO2 SLP250 T10061078=
200702190652 METAR KATL 190652Z 28005KT 10SM CLR M01/M08 A3026 RMK AO2 SLP256 T10061078=
200702190552 METAR KATL 190552Z 28005KT 10SM CLR 00/M08 A3026 RMK AO2 SLP254 T00001078 10039 20000 53008=
200702190452 METAR KATL 190452Z 28006KT 10SM CLR 00/M08 A3024=
200702190352 METAR KATL 190352Z 28006KT 10SM CLR 01/M08 A3024 RMK AO2 SLP249 T00061078=
200702190252 METAR KATL 190252Z 28008KT 10SM CLR 01/M08 A3023 RMK AO2 SLP247 T00111083 51014=
200702190152 METAR KATL 190152Z 30012KT 10SM CLR 02/M08 A3022 RMK AO2 SLP245 T00221083=
200702190052 METAR KATL 190052Z 29011KT 10SM CLR 03/M09 A3022 RMK AO2 SLP242 T00331089=
200702182352 METAR KATL 182352Z 30014KT 10SM CLR 04/M09 A3019 RMK AO2 SLP233 T00391094 10072 20033 53016=
200702182252 METAR KATL 182252Z 29012G19KT 10SM CLR 06/M10 A3017 RMK AO2 SLP224 T00561100=
200702182152 METAR KATL 182152Z 30017G20KT 10SM CLR 07/M10 A3015 RMK AO2 SLP219 T00671100=
200702182052 METAR KATL 182052Z 29013G22KT 10SM CLR 07/M11 A3014 RMK AO2 SLP213 T00671106 56013=
200702181952 SPECI KATL 181952Z 29012G17KT 10SM CLR 06/M09 A3014 RMK AO2 SLP214 T00561094=
200702181852 METAR KATL 181852Z 30016G21KT 10SM CLR 05/M10 A3015 RMK AO2 SLP218 T00501100=
200702181752 METAR KATL 181752Z 31014G19KT 10SM CLR 03/M10 A3018 RMK AO2 SLP227 T00331100 10039 21039 58002=
200702181652 METAR KATL 181652Z 31015KT 10SM CLR 02/M10 A3019 RMK AO2 SLP231 T00221100=
200702181552 METAR KATL 181552Z 32017KT 10SM CLR 00/M11 A3019 RMK AO2 SLP231 T00001106=
200702181452 METAR KATL 181452Z 31019KT 10SM CLR M02/M11 A3019 RMK AO2 SLP230 T10171106 51027=
200702181352 METAR KATL 181352Z 30013G21KT 10SM FEW028 M03/M11 A3017 RMK AO2 SLP226 T10331106=
200702181252 METAR KATL 181252Z 32019G23KT 10SM FEW028 M04/M11 A3014 RMK AO2 PK WND 32026/1157 SLP215 T10391106=
200702181152 METAR KATL 181152Z 32013G24KT 10SM SCT028 BKN031 M03/M10 A3010 RMK AO2 SLP201 T10331100 10011 21033 53028=
200702181052 METAR KATL 181052Z 31014KT 10SM BKN028 OVC031 M02/M08 A3007 RMK AO2 SLP190 T10221083=
200702180952 METAR KATL 180952Z 31018G22KT 10SM BKN024 OVC032 M01/M07 A3004 RMK AO2 SLP178 T10111072=
200702180852 METAR KATL 180852Z 32016G22KT 10SM BKN025 OVC031 M01/M07 A3002 RMK AO2 SLP171 T10061067 53017=
200702180752 METAR KATL 180752Z 32016KT 10SM BKN021 OVC033 01/M05 A2999 RMK AO2 PK WND 32027/0734 SLP160 T00061050=
200702180652 METAR KATL 180652Z 31016KT 10SM BKN019 OVC023 01/M04 A2998 RMK AO2 PK WND 31028/0639 SLP159 T00111044=
200702180552 METAR KATL 180552Z 30015KT 10SM BKN023 OVC031 01/M04 A2997 RMK AO2 PK WND 31029/0516 SLP155 60000 T00111039 10078 20011 51009=
200702180504 SPECI KATL 180504Z 30017G25KT 10SM SCT019 BKN026 OVC041 02/M03 A2996 RMK AO2=
200702180504 SPECI KATL 180504Z 30017G25KT 10SM SCT019 BKN026 OVC041 02/M03 A2996 RMK AO2=
200702180452 METAR KATL 180452Z 31012G21KT 10SM FEW023 BKN039 02/M03 A2996 RMK AO2 PK WND 30026/0434 SLP153 T00221028 400941044=
200702180420 SPECI KATL 180420Z 31017G25KT 10SM SCT023 BKN037 02/M03 A2995 RMK AO2=
200702180420 SPECI KATL 180420Z 31017G25KT 10SM SCT023 BKN037 02/M03 A2995 RMK AO2=
200702180352 METAR KATL 180352Z 31014G19KT 10SM OVC023 03/M02 A2994 RMK AO2 SLP147 T00281022=
200702180339 SPECI KATL 180339Z 31012KT 10SM BKN023 BKN027 OVC050 03/M02 A2994 RMK AO2=
200702180339 SPECI KATL 180339Z 31012KT 10SM BKN023 BKN027 OVC050 03/M02 A2994 RMK AO2=
200702180252 METAR KATL 180252Z 31014G22KT 10SM FEW021 OVC047 03/M01 A2994 RMK AO2 RAE00B17E43 SLP146 P0000 60000 T00331011 53024=
200702180152 METAR KATL 180152Z 31012KT 10SM -RA SCT027 BKN049 OVC060 05/M01 A2992 RMK AO2 RAB48 SLP139 P0000 T00501011=
200702180052 METAR KATL 180052Z 30016G21KT 10SM FEW080 OVC095 07/M03 A2989 RMK AO2 SLP128 T00671028=
200702172352 METAR KATL 172352Z 28010G19KT 10SM SCT055 OVC085 08/M03 A2987 RMK AO2 SLP121 T00781033 10094 20044 53016=
200702172252 METAR KATL 172252Z 25011KT 10SM BKN060 09/M03 A2984 RMK AO2 SLP110 T00891033=
200702172152 METAR KATL 172152Z 22009KT 10SM BKN055 09/M04 A2982 RMK AO2 SLP105 T00891039=
200702172052 METAR KATL 172052Z 22017G22KT 10SM BKN055 08/M05 A2982 RMK AO2 SLP104 T00831050 56032=
200702171952 METAR KATL 171952Z 21013G20KT 9SM SCT055 BKN150 BKN200 08/M06 A2984 RMK AO2 SLP110 T00781056=
200702171852 METAR KATL 171852Z 21012KT 8SM SCT050 BKN065 BKN150 BKN200 06/M06 A2986 RMK AO2 SLP118 T00611061=
200702171752 METAR KATL 171752Z 21012KT 8SM BKN047 BKN055 OVC080 04/M07 A2991 RMK AO2 SLP138 T00441067 10044 21044 58022=
200702171652 METAR KATL 171652Z 22012KT 8SM OVC060 03/M07 A2995 RMK AO2 SLP152 T00281072=
200702171552 METAR KATL 171552Z 22011G16KT 8SM OVC060 02/M09 A2999 RMK AO2 SLP164 T00221094=
200702171452 METAR KATL 171452Z 21007KT 9SM BKN075 00/M10 A2998 RMK AO2 SLP163 T00001100 58010=
200702171352 METAR KATL 171352Z 22007KT 8SM BKN110 M02/M11 A3002 RMK AO2 SLP175 T10171106=
200702171252 METAR KATL 171252Z 22006KT 10SM BKN150 BKN250 M04/M11 A3002 RMK AO2 SLP177 T10391111=
200702171152 METAR KATL 171152Z 19003KT 10SM FEW180 M04/M12 A3001 RMK AO2 SLP174 T10391117 11022 21039 58006=
200702171052 METAR KATL 171052Z 25005KT 10SM CLR M04/M12 A3003 RMK AO2 SLP180 T10391122=
200702170952 METAR KATL 170952Z 28005KT 10SM SCT150 M04/M12 A3003 RMK AO2 SLP178 T10391122=
200702170852 METAR KATL 170852Z 24004KT 10SM SCT150 SCT250 M03/M12 A3003 RMK AO2 SLP178 T10281117 56010=
200702170752 METAR KATL 170752Z 23004KT 10SM SCT200 M03/M12 A3004 RMK AO2 SLP182 T10281117=
200702170652 METAR KATL 170652Z 23003KT 10SM BKN200 M03/M11 A3005 RMK AO2 SLP184 T10281111=
200702170552 METAR KATL 170552Z 25003KT 10SM SCT200 M02/M12 A3006 RMK AO2 SLP190 T10221122 10011 21022 56009=
200702170452 METAR KATL 170452Z 27003KT 10SM FEW250 M02/M13 A3007 RMK AO2 SLP192 T10171133 400441056=
200702170352 METAR KATL 170352Z 29005KT 10SM CLR M02/M13 A3008 RMK AO2 SLP198 T10171128=
200702170252 METAR KATL 170252Z 32006KT 10SM CLR M02/M12 A3009 RMK AO2 SLP201 T10171122 50006=
200702170152 METAR KATL 170152Z 29007KT 10SM CLR M01/M13 A3010 RMK AO2 SLP206 T10111128=
200702170052 METAR KATL 170052Z 28008KT 10SM CLR M01/M13 A3010 RMK AO2 SLP205 T10061128=
200702162352 METAR KATL 162352Z VRB05KT 10SM CLR 01/M14 A3007 RMK AO2 SLP196 T00111139 10044 20011 58002=
200702162252 METAR KATL 162252Z 32008KT 10SM CLR 03/M14 A3008 RMK AO2 SLP197 T00281144=
200702162152 METAR KATL 162152Z 32014KT 10SM CLR 04/M13 A3008 RMK AO2 SLP197 T00391133=
200702162052 METAR KATL 162052Z COR 31012KT 10SM CLR 04/M13 A3008 RMK AO2 SLP195 T00441128 55005=
200702161952 METAR KATL 161952Z 30014KT 10SM CLR 04/M13 A3007 RMK AO2 SLP192 T00391133=
200702161852 METAR KATL 161852Z 31010KT 10SM CLR 03/M13 A3008 RMK AO2 SLP195 T00331128=
200702161752 METAR KATL 161752Z 29010KT 10SM CLR 02/M12 A3010 RMK AO2 SLP201 T00171122 10017 21056 58006=
200702161652 METAR KATL 161652Z 30013G17KT 10SM CLR 01/M13 A3012 RMK AO2 SLP211 T00061128=
200702161552 METAR KATL 161552Z 31016G20KT 10SM CLR M01/M13 A3012 RMK AO2 SLP212 T10111128=
200702161452 METAR KATL 161452Z 32014KT 10SM FEW040 M03/M12 A3011 RMK AO2 SLP209 T10281122 53021=
200702161352 METAR KATL 161352Z 33013KT 10SM CLR M04/M12 A3009 RMK AO2 SLP202 T10441122=
200702161252 METAR KATL 161252Z 31016KT 10SM CLR M06/M12 A3007 RMK AO2 SLP194 T10561122=
200702161152 METAR KATL 161152Z 33015KT 10SM CLR M06/M13 A3005 RMK AO2 SLP188 T10561128 11022 21056 51006=
200702161052 METAR KATL 161052Z 32010KT 10SM CLR M05/M13 A3005 RMK AO2 SLP187 T10501133=
200702160952 METAR KATL 160952Z 31011KT 10SM CLR M04/M14 A3004 RMK AO2 SLP182 T10441139=
200702160852 METAR KATL 160852Z 32015KT 10SM FEW120 M04/M13 A3003 RMK AO2 SLP178 T10391133 50001=
200702160752 METAR KATL 160752Z 31015KT 10SM FEW120 SCT200 M03/M13 A3003 RMK AO2 SLP178 T10331133=
200702160652 METAR KATL 160652Z 32015KT 10SM CLR M03/M13 A3004 RMK AO2 SLP181 T10281128=
200702160552 METAR KATL 160552Z 32013KT 10SM CLR M02/M12 A3003 RMK AO2 SLP178 T10221122 10022 21022 56010=
200702160452 METAR KATL 160452Z 31010KT 10SM FEW075 M02/M13 A3004 RMK AO2 SLP182 T10171128 400561056=
200702160352 METAR KATL 160352Z 29008KT 10SM FEW075 BKN100 M01/M13 A3005 RMK AO2 SLP185 T10111133=
200702160252 METAR KATL 160252Z 32008KT 10SM FEW080 M01/M13 A3006 RMK AO2 SLP190 T10061133 51013=
200702160152 METAR KATL 160152Z 33009KT 10SM FEW080 00/M13 A3005 RMK AO2 SLP186 T00001133=
200702160052 METAR KATL 160052Z 33008KT 10SM FEW200 01/M12 A3004 RMK AO2 SLP184 T00111122=
200702152352 METAR KATL 152352Z 32008KT 10SM FEW200 02/M11 A3002 RMK AO2 SLP177 T00221111 10056 20017 53009=
200702152252 METAR KATL 152252Z 30010KT 10SM FEW150 SCT200 04/M11 A3001 RMK AO2 SLP172 T00391111=
200702152152 METAR KATL 152152Z 31007KT 10SM SCT250 04/M11 A3000 RMK AO2 SLP168 T00441111=
200702152052 METAR KATL 152052Z 30011KT 10SM FEW250 06/M10 A2999 RMK AO2 SLP165 T00561100 55014=
200702151952 METAR KATL 151952Z 29011KT 10SM FEW250 05/M10 A2998 RMK AO2 SLP162 T00501100=
200702151852 METAR KATL 151852Z 28009KT 10SM FEW250 04/M09 A2999 RMK AO2 PRESFR SLP165 T00391089=
200702151752 METAR KATL 151752Z 35009KT 10SM CLR 02/M09 A3004 RMK AO2 SLP181 T00221094 10022 21056 58014=
200702151652 METAR KATL 151652Z VRB05KT 10SM CLR 01/M09 A3008 RMK AO2 SLP197 T00061094=
200702151552 METAR KATL 151552Z 32008KT 10SM FEW095 M02/M10 A3009 RMK AO2 SLP201 T10171100=
200702151452 METAR KATL 151452Z 33010KT 10SM BKN100 BKN250 M02/M10 A3008 RMK AO2 SLP197 T10221100 51031=
200702151352 METAR KATL 151352Z 32010KT 10SM SCT100 SCT250 M04/M10 A3007 RMK AO2 SLP193 T10391100=
200702151252 METAR KATL 151252Z 30011KT 10SM BKN090 BKN250 M04/M10 A3005 RMK AO2 SLP187 T10441100=
200702151152 METAR KATL 151152Z 33010KT 10SM FEW100 SCT250 M06/M10 A2998 RMK AO2 SLP164 T10561100 11039 21056 50001=
200702151052 METAR KATL 151052Z 33011KT 10SM SCT120 M05/M10 A2999 RMK AO2 SLP165 T10501100=
200702150952 METAR KATL 150952Z 33008G19KT 10SM FEW120 M05/M10 A2999 RMK AO2 SLP166 T10501100=
200702150852 METAR KATL 150852Z 32009KT 10SM FEW120 M05/M10 A2998 RMK AO2 SLP161 T10501100 53002=
200702150752 METAR KATL 150752Z 34016KT 10SM CLR M04/M10 A2997 RMK AO2 SLP156 T10441100=
200702150652 METAR KATL 150652Z 33012KT 10SM CLR M04/M09 A2996 RMK AO2 SLP157 T10441094=
200702150552 SPECI KATL 150552Z 32012KT 10SM CLR M04/M09 A2997 RMK AO2 SLP161 T10391089 10011 21039 51014=
200702150452 METAR KATL 150452Z 32015KT 10SM CLR M03/M09 A2996 RMK AO2 SLP158 T10331089 401171033=
200702150352 METAR KATL 150352Z 33014KT 10SM CLR M03/M09 A2994 RMK AO2 PK WND 33027/0308 SLP151 T10281089=
200702150252 METAR KATL 150252Z 32016G26KT 10SM CLR M02/M08 A2993 RMK AO2 PK WND 33026/0243 SLP146 T10221083 50006=
200702150152 METAR KATL 150152Z 32017G24KT 10SM CLR M01/M08 A2993 RMK AO2 SLP146 T10111078=
200702150052 METAR KATL 150052Z 32015G20KT 10SM CLR M01/M08 A2994=
200702142352 METAR KATL 142352Z 32014G20KT 10SM CLR 01/M07 A2991 RMK AO2 SLP136 T00111072 10050 20000 53012=
200702142252 METAR KATL 142252Z 33012KT 10SM FEW250 03/M07 A2988 RMK AO2 SLP125 T00281072=
200702142152 METAR KATL 142152Z 32019G25KT 10SM FEW250 04/M06 A2987 RMK AO2 SLP121 T00391061=
200702142052 METAR KATL 142052Z 32019G23KT 10SM FEW250 04/M06 A2987 RMK AO2 SLP121 T00441056 55002=
200702141952 METAR KATL 141952Z 32019G24KT 10SM CLR 04/M06 A2987 RMK AO2 SLP117 T00391056=
200702141852 METAR KATL 141852Z COR 31017G23KT 10SM FEW024 02/M06 A2987 RMK AO2 PK WND 31026/1754 SLP118 T00221056=
200702141813 SPECI KATL 141813Z 32016G22KT 10SM SCT022 01/M06 A2988 RMK AO2 PK WND 31026/1754=
200702141813 SPECI KATL 141813Z 32016G22KT 10SM SCT022 01/M06 A2988 RMK AO2 PK WND 31026/1754=
200702141752 METAR KATL 141752Z 32020G25KT 10SM BKN020 00/M06 A2988 RMK AO2 PK WND 32026/1725 SLP122 60000 T00001056 10028 21011 50009=
200702141652 METAR KATL 141652Z COR 32019G23KT 9SM OVC018 M01/M06 A2989 RMK AO2 SNE11 SLP126 P0000 T10061056=
200702141617 SPECI KATL 141617Z 32018G22KT 5SM OVC016 M01/M04 A2988 RMK AO2 UPB12E13SNE11 P0000=
200702141617 SPECI KATL 141617Z 32018G22KT 5SM OVC016 M01/M04 A2988 RMK AO2 UPB12E13SNE11 P0000=
200702141552 METAR KATL 141552Z COR 29014KT 4SM -SN OVC014 M01/M04 A2988 RMK AO2 PK WND 30026/1525 SNB22E23B24E25B26E45B50 SLP122 P0000 T10061039=
200702141452 METAR KATL 141452Z 31018G26KT 8SM OVC014 00/M03 A2985 RMK AO2 PK WND 30027/1404 SLP112 T00001033 51036=
200702141352 METAR KATL 141352Z 30014G24KT 9SM OVC012 01/M02 A2983=
200702141252 METAR KATL 141252Z 31018G27KT 9SM OVC011 02/M01 A2978 RMK AO2 PK WND 32027/1249 SLP088 T00221006=
200702141227 SPECI KATL 141227Z 29020G24KT 8SM OVC006 02/00 A2976 RMK AO2=
200702141227 SPECI KATL 141227Z 29020G24KT 8SM OVC006 02/00 A2976 RMK AO2=
200702141152 METAR KATL 141152Z 30015G25KT 2SM BR OVC004 03/01 A2974 RMK AO2 PK WND 30026/1125 SFC VIS 6 SLP074 TWRINC 60000 70052 T00280011 10117 20028 51027=
200702141052 METAR KATL 141052Z 30019G23KT 6SM BR OVC005 04/02 A2972 RMK AO2 PK WND 30027/1026 SLP064 T00440022=
200702140952 METAR KATL 140952Z 30017G23KT 6SM BR OVC005 05/03 A2969 RMK AO2 PK WND 30028/0931 SLP055 T00500033=
200702140859 SPECI KATL 140859Z 31019G28KT 8SM OVC008 07/04 A2966 RMK AO2 PK WND 30028/0857=
200702140859 SPECI KATL 140859Z 31019G28KT 8SM OVC008 07/04 A2966 RMK AO2 PK WND 30028/0857=
200702140840 SPECI KATL 140840Z 30020G26KT 8SM OVC011 07/05 A2965 RMK AO2 PK WND 29030/0808=
200702140840 SPECI KATL 140840Z 30020G26KT 8SM OVC011 07/05 A2965 RMK AO2 PK WND 29030/0808=
200702140802 SPECI KATL 140802Z 28017KT 8SM BKN007 OVC011 10/08 A2964 RMK AO2 BKN007 V SCT CIG007V013=
200702140802 SPECI KATL 140802Z 28017KT 8SM BKN007 OVC011 10/08 A2964 RMK AO2 BKN007 V SCT CIG007V013=
200702140752 METAR KATL 140752Z 28018G25KT 8SM BKN010 OVC017 11/09 A2963 RMK AO2 RAB25E34 SLP031 P0000 T01110089=
200702140727 SPECI KATL 140727Z 27013G18KT 6SM -RA BR BKN010 BKN017 OVC021 12/10 A2962 RMK AO2 RAB25 P0000=
200702140727 SPECI KATL 140727Z 27013G18KT 6SM -RA BR BKN010 BKN017 OVC021 12/10 A2962 RMK AO2 RAB25 P0000=
200702140652 METAR KATL 140652Z 24009KT 6SM BR SCT013 BKN028 OVC035 12/11 A2962 RMK AO2 SLP028 T01170106=
200702140619 SPECI KATL 140619Z 24007KT 3SM BR BKN005 OVC036 11/10 A2962 RMK AO2 SFC VIS 5 CIG 002V010=
200702140619 SPECI KATL 140619Z 24007KT 3SM BR BKN005 OVC036 11/10 A2962 RMK AO2 SFC VIS 5 CIG 002V010=
200702140552 METAR KATL 140552Z 23007KT 1/2SM BR OVC003 11/10 A2962 RMK AO2 SFC VIS 6 SLP029 CIG 002V006 60009 T01110100 10122 20100 58007=
200702140517 SPECI KATL 140517Z 22004KT 1/2SM R09R/3000VP6000FT BR BKN002 OVC007 11/09 A2963 RMK AO2 SFC VIS 3 VIS NE-SE 1/2=
200702140517 SPECI KATL 140517Z 22004KT 1/2SM R09R/3000VP6000FT BR BKN002 OVC007 11/09 A2963 RMK AO2 SFC VIS 3 VIS NE-SE 1/2=
200702140508 SPECI KATL 140508Z 21004KT 1/4SM R09R/1800V3000FT FG VV001 11/09 A2963 RMK AO2=
200702140508 SPECI KATL 140508Z 21004KT 1/4SM R09R/1800V3000FT FG VV001 11/09 A2963 RMK AO2=
200702140452 METAR KATL 140452Z 20004KT 1/8SM R09R/1400V2000FT FG VV001 10/09 A2963 RMK AO2 SLP033 T01000094 401670100=
200702140427 SPECI KATL 140427Z 00000KT 1/4SM R09R/1600V1800FT FG VV001 11/09 A2963 RMK AO2 TWR VIS 1/2=
200702140427 SPECI KATL 140427Z 00000KT 1/4SM R09R/1600V1800FT FG VV001 11/09 A2963 RMK AO2 TWR VIS 1/2=
200702140407 SPECI KATL 140407Z 14004KT 1/2SM BR BKN003 BKN035 OVC085 11/09 A2964=
200702140401 SPECI KATL 140401Z 16004KT 1 1/2SM BR BKN003 BKN035 OVC085 11/10 A2964 RMK AO2 SFC VIS 5=
200702140401 SPECI KATL 140401Z 16004KT 1 1/2SM BR BKN003 BKN035 OVC085 11/10 A2964 RMK AO2 SFC VIS 5=
200702140352 METAR KATL 140352Z 17005KT 6SM BR FEW004 BKN032 OVC085 11/10 A2964 RMK AO2 TSB06E50RAE50 SLP036 TS DSIPTD P0009 T01110100=
200702140329 SPECI KATL 140329Z 00000KT 6SM -TSRA BR FEW004 SCT030CB OVC065 11/10 A2965 RMK AO2 TSB06 OCNL LTGICCG TS VC NE AND NW MOV NE P0009 $=
200702140329 SPECI KATL 140329Z 00000KT 6SM -TSRA BR FEW004 SCT030CB OVC065 11/10 A2965 RMK AO2 TSB06 OCNL LTGICCG TS VC NE AND NW MOV NE P0009 $=
200702140321 SPECI KATL 140321Z 07003KT 2 1/2SM -TSRA BR FEW005 SCT025CB OVC065 11/10 A2964 RMK AO2 SFC VIS 5 TSB06 OCNL LTGICCG TS VC NE AND NW MOV NE P0009 $=
200702140321 SPECI KATL 140321Z 07003KT 2 1/2SM -TSRA BR FEW005 SCT025CB OVC065 11/10 A2964 RMK AO2 SFC VIS 5 TSB06 OCNL LTGICCG TS VC NE AND NW MOV NE P0009 $=
200702140306 SPECI KATL 140306Z 00000KT 2 1/2SM -TSRA BR BKN006 BKN030CB OVC055 11/10 A2966 RMK AO2 SFC VIS 6 TSB06 OCNL LTGCG TS SW MOV NE P0000=
200702140306 SPECI KATL 140306Z 00000KT 2 1/2SM -TSRA BR BKN006 BKN030CB OVC055 11/10 A2966 RMK AO2 SFC VIS 6 TSB06 OCNL LTGCG TS SW MOV NE P0000=
200702140300 SPECI KATL 140300Z 13003KT 2 1/2SM BR BKN006 BKN030 OVC055 11/10 A2966 RMK AO2 SFC VIS 6 RAE00 P0000=
200702140300 SPECI KATL 140300Z 13003KT 2 1/2SM BR BKN006 BKN030 OVC055 11/10 A2966 RMK AO2 SFC VIS 6 RAE00 P0000=
200702140252 METAR KATL 140252Z 00000KT 7SM -RA FEW006 BKN055 OVC110 11/10 A2966=
200702140152 METAR KATL 140152Z 14004KT 10SM FEW010 SCT150 BKN250 11/10 A2964 RMK AO2 SLP038 T01110100=
200702140052 METAR KATL 140052Z 00000KT 10SM FEW040 12/09 A2965=
200702132352 METAR KATL 132352Z 18004KT 10SM FEW200 12/10 A2965 RMK AO2 SLP039 60043 T01220100 10161 20122 56018=
200702132252 METAR KATL 132252Z 15004KT 10SM SCT200 13/10 A2966 RMK AO2 SLP041 T01330100=
200702132152 METAR KATL 132152Z 00000KT 10SM FEW040 SCT110 BKN150 BKN250 13/09 A2967 RMK AO2 SLP047 VIRGA NE-SE T01280094=
200702132052 METAR KATL 132052Z 13006KT 10SM FEW015 SCT035 BKN095 BKN150 BKN250 13/10 A2970 RMK AO2 RAE37 SLP056 VIRGA ALQDS CBMAM DSNT NE-SE SHRA DSNT NE-SE P0012 60043 T01280100 58043=
200702132035 SPECI KATL 132035Z 11006KT 10SM -RA FEW015 BKN035 BKN100 BKN150 BKN250 12/10 A2971 RMK AO2 VIRGA ALQDS CBMAM DSNT NE-SE SHRA DSNT NE-SE P0012=
200702132035 SPECI KATL 132035Z 11006KT 10SM -RA FEW015 BKN035 BKN100 BKN150 BKN250 12/10 A2971 RMK AO2 VIRGA ALQDS CBMAM DSNT NE-SE SHRA DSNT NE-SE P0012=
200702131952 METAR KATL 131952Z VRB04KT 2SM RA BR FEW010 BKN030 OVC050 13/11 A2978 RMK AO2 SLP083 P0012 T01280111=
200702131852 METAR KATL 131852Z 26010KT 2SM -RA BR FEW017 BKN040 OVC050 13/11 A2981 RMK AO2 SFC VIS 4 SLP095 CB DSNT NE-SE MOV NE P0019 T01280106=
200702131829 SPECI KATL 131829Z 24009KT 2SM R09R/4500VP6000FT RA BR BKN017CB BKN025 OVC048 13/11 A2983 RMK AO2 SFC VIS 4 CB OHD-NE-SE MOV NE P0016=
200702131829 SPECI KATL 131829Z 24009KT 2SM R09R/4500VP6000FT RA BR BKN017CB BKN025 OVC048 13/11 A2983 RMK AO2 SFC VIS 4 CB OHD-NE-SE MOV NE P0016=
200702131823 SPECI KATL 131823Z 26010G24KT 1 1/4SM R09R/4500VP6000FT +RA FEW013 BKN020CB OVC033 13/11 A2983 RMK AO2 TWR VIS 4 CB OHD MOV NE P0010=
200702131823 SPECI KATL 131823Z 26010G24KT 1 1/4SM R09R/4500VP6000FT +RA FEW013 BKN020CB OVC033 13/11 A2983 RMK AO2 TWR VIS 4 CB OHD MOV NE P0010=
200702131820 SPECI KATL 131820Z 27013G24KT 1 3/4SM R09R/4500VP6000FT RA SCT020CB BKN026 OVC033 14/11 A2984 RMK AO2 TWR VIS 4 CB OHD MOV NE P0002=
200702131820 SPECI KATL 131820Z 27013G24KT 1 3/4SM R09R/4500VP6000FT RA SCT020CB BKN026 OVC033 14/11 A2984 RMK AO2 TWR VIS 4 CB OHD MOV NE P0002=
200702131818 SPECI KATL 131818Z 25018G24KT 3SM -RA SCT020CB BKN026 OVC033 14/11 A2984 RMK AO2 TWR VIS 4 CB OHD MOV NE P0002=
200702131818 SPECI KATL 131818Z 25018G24KT 3SM -RA SCT020CB BKN026 OVC033 14/11 A2984 RMK AO2 TWR VIS 4 CB OHD MOV NE P0002=
200702131752 METAR KATL 131752Z 20008KT 9SM -RA FEW020CB BKN025 OVC040 16/11 A2983 RMK AO2 RAB52 SLP099 CB VC SW-NW MOV NE SHRA VC SW-NW P0000 60000 T01610111 10167 20111 58023=
200702131733 SPECI KATL 131733Z 19008KT 9SM SCT020 BKN028 OVC055 17/11 A2985 RMK AO2 CB DSNT SW-NW=
200702131712 SPECI KATL 131712Z 18007KT 10SM SCT019 BKN045 BKN070 BKN150 BKN250 17/12 A2986 RMK AO2=
200702131712 SPECI KATL 131712Z 18007KT 10SM SCT019 BKN045 BKN070 BKN150 BKN250 17/12 A2986 RMK AO2=
200702131652 METAR KATL 131652Z 18007KT 8SM OVC019 16/11 A2988 RMK AO2 SLP116 T01560111=
200702131622 SPECI KATL 131622Z VRB05KT 7SM BKN015 BKN025 OVC030 15/11 A2989 RMK AO2=
200702131622 SPECI KATL 131622Z VRB05KT 7SM BKN015 BKN025 OVC030 15/11 A2989 RMK AO2=
200702131552 METAR KATL 131552Z 16006KT 7SM BKN011 OVC025 15/11 A2989 RMK AO2 SLP118 T01500111=
200702131511 SPECI KATL 131511Z 18011G19KT 4SM HZ BKN014 BKN023 OVC150 14/11 A2990 RMK AO2=
200702131511 SPECI KATL 131511Z 18011G19KT 4SM HZ BKN014 BKN023 OVC150 14/11 A2990 RMK AO2=
200702131452 METAR KATL 131452Z 18012KT 6SM HZ FEW018 BKN025 BKN150 BKN250 15/11 A2990 RMK AO2 SLP122 T01500106 58005=
200702131436 SPECI KATL 131436Z 16010KT 130V190 5SM HZ FEW025 SCT040 BKN150 BKN250 14/10 A2990 RMK AO2=
200702131436 SPECI KATL 131436Z 16010KT 130V190 5SM HZ FEW025 SCT040 BKN150 BKN250 14/10 A2990 RMK AO2=
200702131352 METAR KATL 131352Z 14008KT 2SM BR BKN044 12/10 A2991 RMK AO2 SFC VIS 3 SLP126 T01220100=
200702131259 SPECI KATL 131259Z 12006KT 2SM BR OVC044 12/09 A2991 RMK AO2 SFC VIS 3=
200702131259 SPECI KATL 131259Z 12006KT 2SM BR OVC044 12/09 A2991 RMK AO2 SFC VIS 3=
200702131252 METAR KATL 131252Z 12007KT 3SM BR BKN041 OVC050 11/09 A2991=
200702131152 METAR KATL 131152Z 10003KT 4SM BR OVC043 11/09 A2992 RMK AO2 SLP129 T01110089 10122 20100 56013=
200702131052 METAR KATL 131052Z 11004KT 4SM BR OVC045 11/08 A2993 RMK AO2 SLP132 T01060083=
200702130952 METAR KATL 130952Z 11003KT 6SM BR SCT038 BKN045 10/08 A2994 RMK AO2 SLP136 T01000078=
200702130852 METAR KATL 130852Z 14004KT 7SM BKN043 11/08 A2996 RMK AO2 SLP142 T01110078 56017=
200702130752 METAR KATL 130752Z 12005KT 8SM FEW150 BKN250 11/07 A2997 RMK AO2 SLP146 T01110072=
200702130652 METAR KATL 130652Z COR 14005KT 8SM HZ CLR 11/07 A2999 RMK AO2 SLP153 T01110072=
200702130552 METAR KATL 130552Z 12004KT 10SM SCT035 BKN150 BKN250 12/07 A3001 RMK AO2 SLP160 T01220072 10161 20117 58015=
200702130452 METAR KATL 130452Z 12003KT 10SM FEW200 SCT250 12/06 A3003 RMK AO2 SLP166 T01220061 401940056=
200702130352 METAR KATL 130352Z 15004KT 10SM FEW150 SCT200 BKN250 13/06 A3004 RMK AO2 SLP172 T01330056=
200702130252 METAR KATL 130252Z 16005KT 10SM BKN200 OVC250 13/02 A3006 RMK AO2 SLP177 T01330017 58005=
200702130152 METAR KATL 130152Z 14005KT 10SM FEW200 BKN250 14/M01 A3006 RMK AO2 SLP180 T01391006=
200702130052 METAR KATL 130052Z 14003KT 10SM FEW200 BKN250 15/M02 A3007 RMK AO2 SLP183 T01501017=
200702122352 METAR KATL 122352Z 16005KT 9SM BKN200 BKN250 16/M02 A3007 RMK AO2 SLP184 T01611017 10194 20161 55001=
200702122252 METAR KATL 122252Z 18006KT 10SM BKN200 OVC250 18/M04 A3006 RMK AO2 SLP180 T01781039=
200702122152 METAR KATL 122152Z 18007KT 10SM FEW150 BKN220 19/M03 A3007 RMK AO2 SLP182 VIRGA DSNT N T01891028=
200702122052 METAR KATL 122052Z 16007KT 10SM FEW150 BKN220 19/M03 A3007 RMK AO2 SLP183 VIRGA DSNT W T01891028 56032=
200702121952 METAR KATL 121952Z 18006KT 10SM SCT220 19/M03 A3010 RMK AO2 SLP191 T01891033=
200702121852 METAR KATL 121852Z 21007KT 9SM FEW120 SCT220 18/M03 A3012 RMK AO2 SLP200 T01781033=
200702121752 METAR KATL 121752Z 20006KT 10SM SCT220 17/M03 A3017 RMK AO2 SLP217 T01671033 10167 20061 58024=
200702121652 METAR KATL 121652Z 16006KT 10SM FEW120 SCT220 15/M03 A3020 RMK AO2 SLP229 T01501028=
200702121552 METAR KATL 121552Z 17004KT 9SM FEW120 SCT150 SCT220 13/M03 A3023 RMK AO2 SLP238 T01281028=
200702121452 METAR KATL 121452Z 00000KT 10SM FEW250 11/M03 A3024 RMK AO2 SLP244 T01061033 50008=
200702121352 METAR KATL 121352Z 14003KT 6SM HZ BKN150 BKN250 09/M02 A3025 RMK AO2 SLP245 T00891022=
200702121252 METAR KATL 121252Z 09003KT 10SM BKN180 06/M03 A3023 RMK AO2 SLP240 T00611033=
200702121152 METAR KATL 121152Z 00000KT 10SM BKN180 06/M03 A3022 RMK AO2 SLP236 T00611033 10072 20056 53009=
200702121052 METAR KATL 121052Z 00000KT 10SM BKN180 06/M03 A3020 RMK AO2 SLP230 T00611033=
200702120952 METAR KATL 120952Z 00000KT 10SM BKN180 07/M04 A3019 RMK AO2 SLP225 T00671044=
200702120852 METAR KATL 120852Z 00000KT 10SM BKN180 06/M04 A3019 RMK AO2 SLP226 T00611039 57010=
200702120752 METAR KATL 120752Z 12004KT 10SM BKN180 06/M04 A3020 RMK AO2 SLP227 T00611044=
200702120652 METAR KATL 120652Z 14003KT 10SM BKN200 07/M04 A3022 RMK AO2 SLP235 T00671044=
200702120552 METAR KATL 120552Z 17003KT 10SM BKN150 07/M05 A3022 RMK AO2 SLP237 T00721050 10111 20067 58004=
200702120452 METAR KATL 120452Z 17004KT 10SM SCT150 SCT250 07/M06 A3024 RMK AO2 SLP243 T00721061 401391028=
200702120352 METAR KATL 120352Z 16004KT 10SM FEW250 08/M07 A3024 RMK AO2 SLP245 T00831067=
200702120252 METAR KATL 120252Z 15003KT 10SM FEW250 08/M06 A3024 RMK AO2 SLP244 T00781056 51005=
200702120152 METAR KATL 120152Z 11004KT 10SM CLR 09/M07 A3023=
200702120052 METAR KATL 120052Z 15004KT 10SM CLR 10/M07 A3023 RMK AO2 SLP245 T01001067=
200702112352 METAR KATL 112352Z 14004KT 10SM FEW250 11/M07 A3022=
200702112252 METAR KATL 112252Z 12004KT 10SM FEW150 SCT250 13/M09 A3021 RMK AO2 SLP234 T01331089=
200702112152 METAR KATL 112152Z 00000KT 10SM FEW150 SCT250 14/M09 A3021 RMK AO2 SLP235 T01391094=
200702112052 METAR KATL 112052Z 00000KT 10SM BKN250 13/M10 A3021 RMK AO2 SLP234 T01331100 56018=
200702111952 METAR KATL 111952Z 00000KT 10SM SCT250 12/M10 A3021 RMK AO2 SLP236 T01221100=
200702111852 METAR KATL 111852Z 03004KT 10SM SCT250 12/M10 A3023 RMK AO2 SLP241 T01221100=
200702111752 METAR KATL 111752Z 00000KT 10SM SCT250 10/M12 A3026 RMK AO2 SLP254 T01001117 10100 21028 58010=
200702111652 METAR KATL 111652Z 20003KT 10SM SCT250 07/M12 A3029 RMK AO2 SLP264 T00721117=
200702111552 METAR KATL 111552Z 00000KT 10SM FEW250 06/M13 A3030 RMK AO2 SLP269 T00561128=
200702111452 METAR KATL 111452Z 06006KT 10SM FEW250 04/M13 A3029 RMK AO2 SLP266 T00391133 51017=
200702111352 METAR KATL 111352Z 02006KT 10SM FEW250 01/M14 A3028 RMK AO2 SLP264 T00111139=
200702111252 METAR KATL 111252Z 33005KT 10SM FEW250 M02/M15 A3026 RMK AO2 SLP258 T10221150=
200702111152 METAR KATL 111152Z 33006KT 10SM FEW250 M03/M15 A3024 RMK AO2 SLP250 T10281150 11006 21028 53009=
200702111052 METAR KATL 111052Z 34008KT 10SM CLR M02/M16 A3022 RMK AO2 SLP244 T10221156=
200702110952 METAR KATL 110952Z 33008KT 10SM BKN200 M01/M16 A3022 RMK AO2 SLP240 T10111156=
200702110852 METAR KATL 110852Z 31007KT 10SM BKN200 M02/M15 A3021 RMK AO2 SLP239 T10171150 53003=
200702110752 METAR KATL 110752Z 29005KT 10SM SCT250 M02/M15 A3021 RMK AO2 SLP239 T10171150=
200702110652 METAR KATL 110652Z 35006KT 10SM SCT250 M01/M16 A3020 RMK AO2 SLP236 T10111156=
200702110552 METAR KATL 110552Z 32010KT 10SM FEW250 M01/M16 A3021 RMK AO2 SLP237 T10061161 10033 21006 58001=
200702110452 METAR KATL 110452Z 31011KT 10SM CLR 00/M17 A3021 RMK AO2 SLP239 T00001167 400721028=
200702110352 METAR KATL 110352Z 32009KT 10SM CLR 01/M17 A3021 RMK AO2 SLP240 T00061172=
200702110252 METAR KATL 110252Z 31007KT 10SM CLR 01/M18 A3021 RMK AO2 SLP239 T00061178 51006=
200702110152 METAR KATL 110152Z 32006KT 10SM CLR 02/M18 A3021 RMK AO2 SLP238 T00171178=
200702110052 METAR KATL 110052Z 32008KT 10SM CLR 02/M18 A3019 RMK AO2 SLP235 T00221178=
200702102352 METAR KATL 102352Z 31011KT 10SM FEW250 03/M19 A3019 RMK AO2 SLP233 T00281189 10072 20028 53012=
200702102252 METAR KATL 102252Z 31010KT 10SM FEW250 04/M19 A3017 RMK AO2 SLP226 T00441194=
200702102152 METAR KATL 102152Z 31012KT 10SM FEW250 06/M19 A3016 RMK AO2 PK WND 33026/2109 SLP220 T00611189=
200702102052 METAR KATL 102052Z 30011KT 280V350 10SM FEW250 07/M19 A3015 RMK AO2 SLP219 T00671189 55008=
200702101952 METAR KATL 101952Z 31013KT 10SM FEW150 SCT200 SCT250 07/M21 A3015 RMK AO2 SLP218 T00671211=
200702101852 METAR KATL 101852Z 33014KT 10SM SCT150 SCT200 BKN250 07/M21 A3016 RMK AO2 SLP219 T00671206=
200702101752 METAR KATL 101752Z 32017KT 10SM FEW150 SCT200 BKN250 06/M19 A3018=
200702101652 METAR KATL 101652Z 33010KT 10SM SCT200 SCT250 04/M18 A3020 RMK AO2 SLP236 T00391178=
200702101552 METAR KATL 101552Z 31011KT 10SM FEW150 SCT200 SCT250 02/M17 A3019 RMK AO2 SLP233 T00221167=
200702101452 METAR KATL 101452Z 30012KT 10SM SCT150 SCT200 BKN250 00/M16 A3019 RMK AO2 SLP233 T00001156 51019=
200702101352 METAR KATL 101352Z 32012KT 10SM BKN250 M02/M14 A3018 RMK AO2 SLP229 T10221144=
200702101252 METAR KATL 101252Z 32014KT 10SM SCT250 M03/M14 A3015 RMK AO2 SLP222 T10281139=
200702101152 METAR KATL 101152Z 32014KT 10SM FEW250 M03/M13 A3013 RMK AO2 SLP213 T10281133 11006 21028 53005=
200702101052 METAR KATL 101052Z 32012KT 10SM CLR M02/M12 A3011 RMK AO2 SLP205 T10221122=
200702100952 METAR KATL 100952Z 33013KT 10SM CLR M02/M12 A3012 RMK AO2 SLP208 T10171117=
200702100852 METAR KATL 100852Z 32010KT 10SM CLR M02/M13 A3011 RMK AO2 SLP206 T10171128 52009=
200702100752 METAR KATL 100752Z 32015KT 10SM CLR M01/M13 A3010 RMK AO2 SLP202 T10111133=
200702100652 METAR KATL 100652Z 31012KT 10SM CLR M01/M15 A3010 RMK AO2 SLP201 T10061150=
200702100552 METAR KATL 100552Z 30011KT 10SM CLR M01/M16 A3009 RMK AO2 SLP197 T10061161 10022 21006 56009=
200702100452 METAR KATL 100452Z 31013KT 10SM FEW070 00/M17 A3010 RMK AO2 SLP200 T00001167 400440000=
200702100352 METAR KATL 100352Z 31011KT 10SM FEW070 01/M17 A3011 RMK AO2 SLP204 T00061167=
200702100252 METAR KATL 100252Z 31010KT 10SM FEW070 BKN085 01/M16 A3012=
200702100152 METAR KATL 100152Z 30009KT 10SM SCT075 OVC090 02/M14 A3011 RMK AO2 SLP203 T00171139=
200702100052 METAR KATL 100052Z 30008KT 10SM OVC085 02/M12 A3011 RMK AO2 SLP205 T00171122=
200702092352 METAR KATL 092352Z 33009KT 10SM OVC080 02/M11 A3009 RMK AO2 SLP197 60000 T00221111 10044 20022 51004=
200702092252 METAR KATL 092252Z 32009KT 10SM FEW035 OVC090 03/M09 A3008 RMK AO2 SLP195 T00331089=
200702092152 METAR KATL 092152Z 30009KT 10SM BKN035 BKN060 OVC080 03/M09 A3009=
200702092052 METAR KATL 092052Z 30009KT 10SM BKN035 BKN060 OVC080 04/M08 A3008 RMK AO2 RAE10 SLP191 P0000 60000 T00391078 55011=
200702091952 METAR KATL 091952Z 29007KT 10SM -RA BKN035 BKN060 BKN080 BKN150 03/M07 A3007 RMK AO2 RAB1854 SLP191 P0000 T00331067=
200702091852 METAR KATL 091852Z 29010KT 10SM BKN032 BKN080 OVC100 04/M11 A3009 RMK AO2 RAB04E16 SLP196 VIRGA OHD AND ALQDS SHRA DSNT NE AND NW P0000 T00441111=
200702091804 SPECI KATL 091804Z 30009KT 9SM -RA BKN030 BKN080 OVC100 04/M12 A3012 RMK AO2 RAB04 P0000=
200702091804 SPECI KATL 091804Z 30009KT 9SM -RA BKN030 BKN080 OVC100 04/M12 A3012 RMK AO2 RAB04 P0000=
200702091752 METAR KATL 091752Z 30008KT 10SM BKN033 BKN080 OVC100 04/M13 A3011 RMK AO2 SLP203 VIRGA OHD AND ALQDS T00391128 10039 20017 58008=
200702091652 METAR KATL 091652Z 32004KT 10SM BKN040 BKN080 OVC100 03/M14 A3012 RMK AO2 SLP208 VIRGA OHD-S-W T00331139=
200702091552 METAR KATL 091552Z VRB05KT 10SM FEW040 SCT080 BKN100 BKN150 03/M14 A3014 RMK AO2 SLP211 T00281144=
200702091508 SPECI KATL 091508Z 30008KT 10SM FEW040 BKN080 OVC100 02/M14 A3013 RMK AO2 VIRGA DSNT E-SW=
200702091508 SPECI KATL 091508Z 30008KT 10SM FEW040 BKN080 OVC100 02/M14 A3013 RMK AO2 VIRGA DSNT E-SW=
200702091452 METAR KATL 091452Z 33007KT 10SM FEW040 SCT060 BKN110 OVC150 02/M14 A3014 RMK AO2 SLP212 VIRGA E-S BINOVC NW T00171139 50006=
200702091352 METAR KATL 091352Z 29008KT 10SM SCT080 BKN110 BKN250 02/M14 A3014 RMK AO2 SLP213 T00171139=
200702091252 METAR KATL 091252Z 32010KT 10SM SCT080 BKN110 BKN250 02/M16 A3013 RMK AO2 SLP208 T00171156=
200702091152 METAR KATL 091152Z 31009KT 10SM BKN065 OVC085 02/M15 A3012 RMK AO2 SLP204 T00221150 10028 20017 53001=
200702091052 METAR KATL 091052Z 32011KT 10SM SCT070 OVC090 02/M13 A3012 RMK AO2 SLP203 T00221128=
200702090952 METAR KATL 090952Z 33012KT 10SM SCT080 BKN110 OVC250 02/M12 A3011 RMK AO2 SLP200 T00221117=
200702090852 METAR KATL 090852Z 32010KT 10SM BKN100 OVC250 02/M11 A3012 RMK AO2 SLP203 T00221106 56005=
200702090752 METAR KATL 090752Z 31010KT 10SM FEW080 BKN150 OVC250 02/M10 A3012 RMK AO2 SLP203 T00221100=
200702090652 METAR KATL 090652Z 34007KT 10SM FEW080 SCT150 BKN250 02/M10 A3012 RMK AO2 SLP204 T00221100=
200702090552 METAR KATL 090552Z 32007KT 10SM BKN250 03/M09 A3013 RMK AO2 SLP209 T00281089 10078 20028 58006=
200702090452 METAR KATL 090452Z 29005KT 10SM CLR 03/M09 A3014 RMK AO2 SLP209 T00331094 401000028=
200702090352 METAR KATL 090352Z 31005KT 10SM FEW250 04/M08 A3015 RMK AO2 SLP215 T00391083=
200702090252 METAR KATL 090252Z 31006KT 10SM FEW085 05/M08 A3015 RMK AO2 SLP214 T00501078 53001=
200702090152 METAR KATL 090152Z 30006KT 10SM FEW085 06/M08 A3015 RMK AO2 SLP213 T00611078=
200702090052 METAR KATL 090052Z 31007KT 10SM BKN085 08/M08 A3014 RMK AO2 SLP211 T00781078=
200702082352 METAR KATL 082352Z 31006KT 10SM SCT095 07/M08 A3015 RMK AO2 SLP213 60000 T00721083 10100 20072 53009=
200702082252 METAR KATL 082252Z 30007KT 10SM FEW100 09/M08 A3013 RMK AO2 SLP208 T00891083=
200702082152 METAR KATL 082152Z 30007KT 10SM FEW090 10/M08 A3013 RMK AO2 SLP206 T01001083=
200702082052 SPECI KATL 082052Z 30007KT 10SM BKN095 09/M07 A3012 RMK AO2 SLP203 60000 T00941072 56022=
200702081952 METAR KATL 081952Z 30009KT 10SM FEW080 BKN095 BKN200 09/M07 A3013 RMK AO2 SLP208 T00891072=
200702081852 METAR KATL 081852Z 30009KT 10SM BKN080 BKN100 BKN200 08/M09 A3015 RMK AO2 RAE1757 SLP215 VIRGA DSNT E P0000 T00831094=
200702081752 METAR KATL 081752Z 29011KT 10SM -RA BKN070 BKN100 BKN200 07/M09 A3018 RMK AO2 RAB43 SLP226 VIRGA NE AND NW P0000 60000 T00721094 10083 20028 58003=
200702081652 METAR KATL 081652Z 33009KT 10SM BKN075 BKN095 BKN200 07/M11 A3020 RMK AO2 SLP232 VIRGA NE-SE AND NW T00721106=
200702081552 METAR KATL 081552Z 33012KT 10SM FEW040 BKN095 BKN200 06/M09 A3020 RMK AO2 SLP231 T00611089=
200702081452 METAR KATL 081452Z 32015KT 10SM FEW040 BKN090 BKN200 06/M08 A3019 RMK AO2 SLP228 T00561083 53019=
200702081352 METAR KATL 081352Z 32010KT 10SM FEW035 SCT070 BKN250 04/M07 A3016 RMK AO2 SLP217 T00441067=
200702081252 METAR KATL 081252Z 30010KT 10SM FEW035 BKN075 03/M06 A3015 RMK AO2 SLP212 T00331056=
200702081152 METAR KATL 081152Z 31010KT 10SM BKN080 03/M06 A3013 RMK AO2 SLP207 T00331056 10067 20033 53010=
200702081052 METAR KATL 081052Z 32011KT 10SM BKN085 04/M05 A3012 RMK AO2 SLP201 T00391050=
200702080952 METAR KATL 080952Z 30008KT 10SM BKN070 04/M05 A3010=
200702080852 METAR KATL 080852Z 30007KT 10SM SCT070 04/M04 A3010 RMK AO2 SLP195 T00391044 55004=
200702080752 METAR KATL 080752Z 29006KT 10SM SCT070 04/M05 A3010 RMK AO2 SLP194 T00441050=
200702080652 METAR KATL 080652Z 31007KT 10SM SCT070 05/M04 A3011 RMK AO2 SLP197 T00501044=
200702080552 METAR KATL 080552Z 30005KT 10SM BKN070 06/M04 A3012 RMK AO2 SLP199 T00611039 10133 20061 50004=
200702080452 METAR KATL 080452Z 33009KT 10SM CLR 07/M04 A3013 RMK AO2 SLP202 T00721039 401830067=
200702080352 METAR KATL 080352Z 34011KT 10SM CLR 08/M03 A3011 RMK AO2 SLP199 T00831033=
200702080252 METAR KATL 080252Z 33011KT 10SM CLR 10/M01 A3011 RMK AO2 SLP195 T01001006 51008=
200702080152 METAR KATL 080152Z 31009KT 10SM CLR 11/00 A3010 RMK AO2 SLP194 T01060000=
200702080052 METAR KATL 080052Z 31009KT 10SM CLR 12/M01 A3009 RMK AO2 SLP192 T01221006=
200702072352 METAR KATL 072352Z 31008KT 10SM CLR 13/M01 A3008 RMK AO2 SLP188 T01281006 10183 20128 53008=
200702072252 METAR KATL 072252Z 31010KT 10SM CLR 16/M01 A3006 RMK AO2 SLP180 T01561006=
200702072152 METAR KATL 072152Z 31012KT 10SM FEW240 17/M01 A3006 RMK AO2 SLP179 T01721006=
200702072052 METAR KATL 072052Z 29014KT 10SM FEW240 18/00 A3006 RMK AO2 SLP178 T01780000 56014=
200702071952 METAR KATL 071952Z 31014G18KT 10SM SCT240 18/01 A3006 RMK AO2 SLP179 T01780011=
200702071852 METAR KATL 071852Z 29011KT 10SM FEW240 18/03 A3008 RMK AO2 SLP184 T01780033=
200702071752 METAR KATL 071752Z 30011KT 10SM SCT240 17/04 A3010 RMK AO2 SLP192 T01670039 10172 20067 58009=
200702071652 METAR KATL 071652Z 27012KT 10SM FEW240 16/04 A3012 RMK AO2 SLP200 T01560044=
200702071552 METAR KATL 071552Z 29015KT 10SM FEW240 11/04 A3013 RMK AO2 SLP205 T01060044=
200702071452 METAR KATL 071452Z 29015G19KT 10SM FEW240 11/04 A3013 RMK AO2 SLP204 T01060039 51013=
200702071352 METAR KATL 071352Z 27010KT 9SM FEW250 09/03 A3012 RMK AO2 SLP201 T00890033=
200702071252 METAR KATL 071252Z 27008KT 8SM CLR 07/03 A3010 RMK AO2 SLP196 T00670028=
200702071152 METAR KATL 071152Z 26009KT 9SM CLR 07/02 A3009 RMK AO2 SLP192 T00670022 10083 20067 53000=
200702071052 METAR KATL 071052Z 25010KT 10SM CLR 07/02 A3007 RMK AO2 SLP186 T00720022=
200702070952 METAR KATL 070952Z 25009KT 10SM CLR 07/02 A3008 RMK AO2 SLP187 T00720022=
200702070852 METAR KATL 070852Z 25011KT 10SM CLR 08/02 A3009 RMK AO2 SLP190 T00780017 58011=
200702070752 METAR KATL 070752Z 25009KT 10SM CLR 08/02 A3010 RMK AO2 SLP195 T00780017=
200702070652 METAR KATL 070652Z 25012G19KT 10SM CLR 08/01 A3012 RMK AO2 SLP201 T00830006=
200702070552 METAR KATL 070552Z 23011KT 10SM CLR 07/00 A3012 RMK AO2 SLP203 T00720000 10089 20061 56015=
200702070452 METAR KATL 070452Z 23009KT 10SM CLR 07/M01 A3013 RMK AO2 SLP206 T00671006 401171050=
200702070352 METAR KATL 070352Z 22007KT 10SM CLR 07/M01 A3015 RMK AO2 SLP217 T00671011=
200702070252 METAR KATL 070252Z 23006KT 10SM CLR 07/M01 A3016 RMK AO2 SLP221 T00721011 56013=
200702070152 METAR KATL 070152Z 22008KT 10SM CLR 08/M02 A3017 RMK AO2 SLP223 T00781017=
200702070052 METAR KATL 070052Z 20008KT 10SM CLR 08/M02 A3018 RMK AO2 SLP228 T00831017=
200702062352 METAR KATL 062352Z 22005KT 10SM CLR 09/M03 A3020 RMK AO2 SLP236 T00891028 10117 20067 55010=
200702062252 METAR KATL 062252Z 21010KT 10SM FEW140 11/M03 A3020 RMK AO2 SLP234 T01061033=
200702062152 METAR KATL 062152Z 21008KT 10SM FEW045 SCT130 SCT240 11/M04 A3021 RMK AO2 SLP237 T01111039=
200702062052 METAR KATL 062052Z 23011G16KT 10SM FEW045 11/M05 A3023 RMK AO2 SLP245 T01061050 56040=
200702061952 METAR KATL 061952Z VRB05KT 10SM FEW044 SCT240 09/M06 A3026 RMK AO2 SLP255 T00941061=
200702061852 METAR KATL 061852Z 24010KT 10SM FEW040 SCT240 08/M07 A3031 RMK AO2 SLP272 T00831072=
200702061752 METAR KATL 061752Z 23007KT 10SM SCT040 07/M09 A3036 RMK AO2 SLP287 T00721094 10072 21050 58023=
200702061652 METAR KATL 061652Z 24005KT 10SM CLR 05/M11 A3040 RMK AO2 SLP303 T00501111=
200702061552 METAR KATL 061552Z 00000KT 10SM FEW080 BKN130 03/M11 A3041 RMK AO2 SLP308 T00331111=
200702061452 METAR KATL 061452Z VRB03KT 10SM FEW080 00/M13 A3042 RMK AO2 SLP313 T00001133 51006=
200702061352 METAR KATL 061352Z 32003KT 10SM FEW080 M02/M15 A3042 RMK AO2 SLP312 T10221150=
200702061252 METAR KATL 061252Z 31005KT 10SM FEW080 M04/M14 A3042 RMK AO2 SLP313 T10441139=
200702061152 METAR KATL 061152Z 30003KT 10SM CLR M04/M15 A3040 RMK AO2 SLP307 T10441150 11022 21044 53004=
200702061052 METAR KATL 061052Z 32004KT 10SM CLR M04/M16 A3039 RMK AO2 SLP302 T10391156=
200702060952 METAR KATL 060952Z 32005KT 10SM CLR M04/M16 A3039 RMK AO2 SLP301 T10391156=
200702060852 METAR KATL 060852Z VRB05KT 10SM CLR M04/M16 A3039 RMK AO2 SLP301 T10391161 58004=
200702060752 METAR KATL 060752Z 32006KT 10SM CLR M03/M16 A3040 RMK AO2 SLP305 T10331156=
200702060652 METAR KATL 060652Z 30005KT 10SM CLR M03/M16 A3040 RMK AO2 SLP305 T10281156=
200702060552 METAR KATL 060552Z 33007KT 10SM CLR M02/M16 A3041 RMK AO2 SLP306 T10221161 10028 21022 50000=
200702060452 METAR KATL 060452Z 33008KT 10SM CLR M02/M16 A3041 RMK AO2 SLP308 T10171161 400671022=
200702060352 METAR KATL 060352Z 33007KT 10SM CLR M01/M14 A3041 RMK AO2 SLP309 T10111144=
200702060252 METAR KATL 060252Z 33008KT 10SM CLR M01/M13 A3040 RMK AO2 SLP306 T10061128 50003=
200702060152 METAR KATL 060152Z 33007KT 10SM FEW250 01/M13 A3041 RMK AO2 SLP307 T00111128=
200702060052 METAR KATL 060052Z 33009KT 10SM FEW250 02/M13 A3040 RMK AO2 SLP305 T00221128=
200702052352 METAR KATL 052352Z 34008KT 10SM FEW250 03/M12 A3039 RMK AO2 SLP303 T00281122 10067 20028 53013=
200702052252 METAR KATL 052252Z 32008KT 10SM FEW200 SCT250 04/M12 A3038 RMK AO2 SLP297 T00441122=
200702052152 METAR KATL 052152Z 30014KT 10SM FEW200 06/M11 A3037 RMK AO2 SLP291 T00561111=
200702052052 METAR KATL 052052Z 32014G21KT 10SM FEW200 SCT300 06/M11 A3035 RMK AO2 SLP287 T00611111 56019=
200702051952 METAR KATL 051952Z 33014G21KT 10SM FEW200 SCT300 06/M11 A3037 RMK AO2 SLP292 T00611106=
200702051852 METAR KATL 051852Z 33011KT 10SM FEW180 SCT200 BKN300 05/M11 A3039 RMK AO2 SLP299 T00501111=
200702051752 METAR KATL 051752Z 32011KT 10SM FEW180 BKN200 BKN300 04/M12 A3041 RMK AO2 SLP306 T00391117 10039 21017 58005=
200702051652 METAR KATL 051652Z 32013KT 10SM FEW180 BKN200 BKN300 03/M12 A3044 RMK AO2 SLP315 T00331117=
200702051552 METAR KATL 051552Z 33014KT 10SM FEW180 BKN200 BKN300 02/M12 A3044 RMK AO2 SLP319 T00171122=
200702051452 METAR KATL 051452Z 31016G23KT 10SM BKN250 00/M12 A3043 RMK AO2 SLP313 T00001117 53018=
200702051352 METAR KATL 051352Z 30013KT 10SM BKN250 M01/M12 A3040 RMK AO2 SLP305 T10061117=
200702051252 METAR KATL 051252Z 32012KT 10SM BKN250 M02/M13 A3038 RMK AO2 SLP299 T10171128=
200702051152 METAR KATL 051152Z 31008KT 10SM BKN250 M02/M12 A3037 RMK AO2 SLP294 T10171122 10000 21022 51015=
200702051052 METAR KATL 051052Z 30008KT 10SM SCT250 M02/M12 A3036 RMK AO2 SLP291 T10171117=
200702050952 METAR KATL 050952Z 31010KT 10SM BKN250 M01/M11 A3034 RMK AO2 SLP283 T10111111=
200702050852 METAR KATL 050852Z 31010KT 10SM FEW250 M01/M11 A3033=
200702050752 METAR KATL 050752Z 31009KT 10SM BKN250 M01/M11 A3035 RMK AO2 SLP283 T10061106=
200702050652 METAR KATL 050652Z 30010KT 10SM SCT200 00/M08 A3035 RMK AO2 SLP284 T00001083=
200702050552 METAR KATL 050552Z 29010KT 10SM SCT150 BKN200 00/M07 A3034 RMK AO2 SLP281 T00001072 10039 20000 50003=
200702050452 METAR KATL 050452Z 29008KT 10SM BKN200 01/M08 A3035 RMK AO2 SLP286 T00061078 401111022=
200702050352 METAR KATL 050352Z 31011KT 10SM SCT150 BKN200 02/M07 A3034 RMK AO2 SLP281 T00171072=
200702050252 METAR KATL 050252Z 31010KT 10SM SCT150 SCT200 02/M07 A3033 RMK AO2 SLP280 T00171067 51010=
200702050152 METAR KATL 050152Z 30009KT 10SM FEW150 02/M06 A3033 RMK AO2 SLP281 T00221061=
200702050052 METAR KATL 050052Z 30010KT 10SM FEW150 SCT200 03/M06 A3033 RMK AO2 SLP279 T00281061=
200702042352 METAR KATL 042352Z 31009KT 10SM FEW150 SCT200 BKN250 04/M05 A3030 RMK AO2 SLP270 T00391050 10111 20039 53018=
200702042252 METAR KATL 042252Z 33010KT 10SM SCT150 BKN200 BKN250 06/M05 A3028 RMK AO2 SLP262 T00561050=
200702042152 METAR KATL 042152Z 32015G21KT 10SM FEW150 OVC250 07/M04 A3026 RMK AO2 SLP256 T00721039=
200702042052 METAR KATL 042052Z 31014KT 10SM FEW060 BKN150 OVC250 09/M03 A3025 RMK AO2 SLP249 T00891033 55014=
200702041952 METAR KATL 041952Z 27016G23KT 10SM FEW060 SCT150 BKN250 11/M04 A3025 RMK AO2 SLP248 T01061039=
200702041852 METAR KATL 041852Z 28013KT 10SM FEW065 BKN250 10/M06 A3026 RMK AO2 SLP254 T01001056=
200702041752 METAR KATL 041752Z 25015G23KT 10SM FEW065 BKN250 09/M07 A3029 RMK AO2 SLP263 T00891072 10089 21022 58010=
200702041652 METAR KATL 041652Z 26013G20KT 10SM FEW060 BKN250 07/M08 A3032 RMK AO2 SLP274 T00721078=
200702041552 METAR KATL 041552Z 26012KT 10SM BKN250 06/M08 A3034 RMK AO2 SLP283 T00561078=
200702041452 METAR KATL 041452Z 25010KT 10SM BKN250 04/M07 A3032 RMK AO2 SLP274 T00391067 51011=
200702041352 METAR KATL 041352Z 24006KT 10SM BKN250 01/M06 A3032 RMK AO2 SLP275 T00111061=
200702041252 METAR KATL 041252Z 26006KT 10SM BKN250 M01/M07 A3030 RMK AO2 SLP271 T10111067=
200702041152 METAR KATL 041152Z 22005KT 10SM SCT250 M02/M07 A3029 RMK AO2 SLP266 T10221072 10006 21022 55003=
200702041052 METAR KATL 041052Z 21003KT 10SM FEW250 M02/M08 A3027 RMK AO2 SLP259 T10171078=
200702040952 METAR KATL 040952Z 23005KT 10SM CLR M02/M08 A3028=
200702040852 METAR KATL 040852Z 24006KT 10SM FEW250 M01/M08 A3029 RMK AO2 SLP267 T10111083 53004=
200702040752 METAR KATL 040752Z 22004KT 10SM BKN250 M01/M08 A3028 RMK AO2 SLP261 T10111078=
200702040652 METAR KATL 040652Z 25003KT 10SM FEW250 00/M08 A3027 RMK AO2 SLP258 T00001083=
200702040552 METAR KATL 040552Z 25003KT 10SM FEW250 01/M09 A3028 RMK AO2 SLP262 T00061094 10033 20006 50000=
200702040452 METAR KATL 040452Z 26005KT 10SM FEW200 BKN250 01/M10 A3028 RMK AO2 SLP264 T00111100 400561039=
200702040352 METAR KATL 040352Z 26005KT 10SM FEW080 SCT200 BKN250 02/M10 A3029 RMK AO2 SLP265 T00171100=
200702040252 METAR KATL 040252Z 27007KT 10SM OVC200 02/M10 A3028 RMK AO2 SLP263 T00221100 53012=
200702040152 METAR KATL 040152Z 26005KT 10SM BKN250 02/M11 A3026 RMK AO2 SLP258 T00171106=
200702040052 METAR KATL 040052Z 27005KT 10SM SCT250 03/M11 A3026 RMK AO2 SLP256 T00281111=
200702032352 METAR KATL 032352Z 27005KT 10SM FEW200 SCT250 03/M12 A3024 RMK AO2 SLP252 T00281117 10056 20028 53008=
200702032252 METAR KATL 032252Z 30009KT 10SM FEW120 BKN200 04/M12 A3023 RMK AO2 SLP246 T00441117=
200702032152 METAR KATL 032152Z 31009KT 10SM SCT120 OVC250 05/M10 A3022 RMK AO2 SLP242 T00501100=
200702032052 METAR KATL 032052Z 30010KT 10SM FEW080 BKN200 BKN250 05/M10 A3022 RMK AO2 SLP242 T00501100 55016=
200702031952 METAR KATL 031952Z 25012KT 10SM BKN200 BKN250 06/M09 A3022 RMK AO2 SLP242 T00561094=
200702031852 METAR KATL 031852Z 31011G18KT 270V340 10SM FEW095 SCT150 BKN200 BKN250 03/M09 A3024 RMK AO2 SLP251 T00331094=
200702031752 METAR KATL 031752Z 28010G17KT 10SM FEW050 SCT150 BKN200 BKN250 04/M08 A3027 RMK AO2 SLP258 T00391078 10044 21039 50001=
200702031652 METAR KATL 031652Z 28010G21KT 240V300 10SM SCT150 BKN200 BKN250 02/M08 A3028 RMK AO2 SLP265 T00221083=
200702031552 METAR KATL 031552Z 29012KT 10SM SCT200 BKN250 01/M09 A3029 RMK AO2 SLP265 T00111094=
200702031452 METAR KATL 031452Z 30012KT 10SM FEW150 BKN250 00/M08 A3026 RMK AO2 SLP259 T00001083 53022=
200702031352 METAR KATL 031352Z 29008KT 10SM BKN250 M02/M07 A3024 RMK AO2 SLP251 T10221072=
200702031252 METAR KATL 031252Z 29007KT 8SM BKN250 M03/M07 A3022 RMK AO2 SLP243 T10331072=
200702031152 METAR KATL 031152Z 30008KT 10SM SCT150 BKN250 M04/M07 A3020 RMK AO2 SLP236 T10391072 11022 21039 53022=
200702031052 METAR KATL 031052Z 30008KT 10SM SCT200 M04/M07 A3017 RMK AO2 SLP227 T10391067=
200702030952 METAR KATL 030952Z 29008KT 10SM FEW200 M03/M07 A3014 RMK AO2 SLP215 T10331067=
200702030852 METAR KATL 030852Z 28009KT 10SM FEW200 M03/M07 A3013 RMK AO2 SLP210 T10281067 51009=
200702030752 METAR KATL 030752Z 26006KT 10SM CLR M03/M06 A3012 RMK AO2 SLP206 T10281061=
200702030652 METAR KATL 030652Z 26005KT 10SM CLR M02/M07 A3012 RMK AO2 SLP206 T10221067=
200702030552 METAR KATL 030552Z 29006KT 10SM CLR M02/M06 A3010 RMK AO2 SLP201 T10221061 10028 21022 53016=
200702030452 METAR KATL 030452Z 30010KT 10SM FEW026 M01/M06 A3008 RMK AO2 SLP194 T10111061 400781011=
200702030352 METAR KATL 030352Z 29012KT 10SM FEW021 SCT026 M01/M04 A3005 RMK AO2 SLP185 T10061044=
200702030310 SPECI KATL 030310Z 30010KT 10SM BKN024 01/M04 A3004 RMK AO2=
200702030310 SPECI KATL 030310Z 30010KT 10SM BKN024 01/M04 A3004 RMK AO2=
200702030252 METAR KATL 030252Z 29009KT 10SM FEW026 01/M04 A3003 RMK AO2 SLP176 T00061044 51025=
200702030245 SPECI KATL 030245Z 30010KT 10SM SCT026 01/M04 A3003 RMK AO2=
200702030245 SPECI KATL 030245Z 30010KT 10SM SCT026 01/M04 A3003 RMK AO2=
200702030152 METAR KATL 030152Z 32013KT 10SM BKN024 OVC032 02/M03 A3001 RMK AO2 SLP169 T00171033=
200702030052 METAR KATL 030052Z 31015KT 10SM OVC027 03/M03 A2998 RMK AO2 SLP159 T00281028=
200702022352 METAR KATL 022352Z 31013G20KT 9SM SCT014 OVC024 03/M02 A2995 RMK AO2 SLP149 T00281017 10078 20028 53035=
200702022330 SPECI KATL 022330Z 31013G20KT 9SM BKN014 OVC024 03/M01 A2994 RMK AO2=
200702022330 SPECI KATL 022330Z 31013G20KT 9SM BKN014 OVC024 03/M01 A2994 RMK AO2=
200702022252 METAR KATL 022252Z 31015KT 7SM BKN015 OVC021 04/00 A2992 RMK AO2 SLP137 T00390000=
200702022152 METAR KATL 022152Z 29011G17KT 10SM BKN026 BKN035 06/01 A2988 RMK AO2 SLP122 T00610011=
200702022052 METAR KATL 022052Z 27016KT 10SM BKN023 BKN030 OVC040 07/02 A2985 RMK AO2 SLP112 T00670017 53016=
200702022032 SPECI KATL 022032Z 27011KT 10SM FEW023 BKN027 OVC040 07/03 A2983 RMK AO2=
200702022032 SPECI KATL 022032Z 27011KT 10SM FEW023 BKN027 OVC040 07/03 A2983 RMK AO2=
200702022014 SPECI KATL 022014Z 27013KT 10SM SCT025 BKN032 OVC040 07/03 A2981 RMK AO2=
200702022014 SPECI KATL 022014Z 27013KT 10SM SCT025 BKN032 OVC040 07/03 A2981 RMK AO2=
200702021952 METAR KATL 021952Z 26014KT 10SM SCT017 BKN026 BKN045 BKN250 07/03 A2981 RMK AO2 SLP099 T00720028=
200702021943 SPECI KATL 021943Z 27015G18KT 10SM SCT019 BKN026 BKN045 BKN250 08/03 A2981 RMK AO2=
200702021943 SPECI KATL 021943Z 27015G18KT 10SM SCT019 BKN026 BKN045 BKN250 08/03 A2981 RMK AO2=
200702021859 SPECI KATL 021859Z 29013KT 10SM FEW011 BKN013 OVC015 07/03 A2980 RMK AO2=
200702021859 SPECI KATL 021859Z 29013KT 10SM FEW011 BKN013 OVC015 07/03 A2980 RMK AO2=
200702021852 METAR KATL 021852Z 28011KT 10SM FEW011 BKN015 OVC018 07/03 A2980 RMK AO2 SLP095 T00670033=
200702021837 SPECI KATL 021837Z 29012KT 10SM FEW011 BKN015 OVC020 07/04 A2980 RMK AO2=
200702021837 SPECI KATL 021837Z 29012KT 10SM FEW011 BKN015 OVC020 07/04 A2980 RMK AO2=
200702021756 SPECI KATL 021756Z 27007KT 9SM BKN011 BKN015 OVC020 07/04 A2980 RMK AO2=
200702021756 SPECI KATL 021756Z 27007KT 9SM BKN011 BKN015 OVC020 07/04 A2980 RMK AO2=
200702021752 METAR KATL 021752Z 26010KT 9SM BKN008 BKN013 OVC020 07/04 A2980 RMK AO2 SLP095 60000 T00670044 10072 20033 50005=
200702021715 SPECI KATL 021715Z 27009KT 8SM OVC008 07/04 A2981 RMK AO2 CIG 006V011=
200702021652 METAR KATL 021652Z 27009KT 6SM BR OVC006 06/04 A2982 RMK AO2 SLP103 T00610039=
200702021552 METAR KATL 021552Z 25009KT 5SM BR OVC006 06/04 A2981 RMK AO2 SLP099 T00610039=
200702021452 METAR KATL 021452Z 33003KT 2 1/2SM BR BKN006 BKN016 OVC032 05/03 A2978 RMK AO2 SFC VIS 4 SLP091 60000 T00500033 50009=
200702021450 SPECI KATL 021450Z 30005KT 2 1/2SM BR BKN004 BKN016 OVC032 05/03 A2978=
200702021352 METAR KATL 021352Z 29007KT 1 1/2SM BR BKN004 OVC015 04/03 A2977 RMK AO2 SFC VIS 4 DZE49 SLP086 P0000 T00390028=
200702021252 METAR KATL 021252Z 27004KT 1 1/2SM -DZ BR BKN002 OVC007 04/03 A2976 RMK AO2 SFC VIS 2 VIS 1 3/4V3 SLP082 P0000 T00390028=
200702021230 SPECI KATL 021230Z 27003KT 1 1/2SM -DZ BR BKN002 OVC007 03/03 A2975 RMK AO2 SFC VIS 3 P0000=
200702021230 SPECI KATL 021230Z 27003KT 1 1/2SM -DZ BR BKN002 OVC007 03/03 A2975 RMK AO2 SFC VIS 3 P0000=
200702021152 METAR KATL 021152Z 26005KT 1/4SM -DZ BR OVC002 03/02 A2975 RMK AO2 SFC VIS 2 SLP080 TWRINC P0000 60000 70048 T00330022 10033 20028 53012=
200702021052 METAR KATL 021052Z 30004KT 1/4SM -DZ BR OVC002 03/02 A2972 RMK AO2 SFC VIS 1 3/4 SLP068 TWRINC P0000 T00330022=
200702020952 METAR KATL 020952Z 32006KT 1/4SM R09R/4000VP6000FT -DZ BR OVC002 03/02 A2971 RMK AO2 SFC VIS 3/4 SLP066 P0000 T00330022=
200702020852 METAR KATL 020852Z 36005KT 1/4SM R09R/3500VP6000FT -DZ BR OVC002 03/02 A2971 RMK AO2 SFC VIS 3/4 SLP067 P0000 60000 T00330022 58003=
200702020752 METAR KATL 020752Z 30003KT 1/4SM R09R/3500V5000FT -DZ BR OVC002 03/02 A2973 RMK AO2 SFC VIS 3/4 SLP073 P0000 T00330022=
200702020652 METAR KATL 020652Z 02005KT 1/4SM -DZ BR BKN003 OVC007 03/02 A2971 RMK AO2 SFC VIS 4 SLP065 TWRINC P0000 T00330022=
200702020552 METAR KATL 020552Z 02005KT 1/4SM -DZ BR OVC003 03/02 A2972 RMK AO2 SFC VIS 1 1/2 SLP070 CIG 002V006 P0000 60000 T00280017 10033 20028 58002=
200702020452 METAR KATL 020452Z 09003KT 1/4SM -DZ BR OVC003 03/02 A2976 RMK AO2 SFC VIS 1 1/2 SLP083 CIG 002V005 P0000 T00280017 400440006=
200702020400 SPECI KATL 020400Z 08006KT 1/4SM -DZ BR OVC002 03/02 A2973 RMK AO2 SFC VIS 1 1/2 P0000=
200702020400 SPECI KATL 020400Z 08006KT 1/4SM -DZ BR OVC002 03/02 A2973 RMK AO2 SFC VIS 1 1/2 P0000=
200702020352 METAR KATL 020352Z 08007KT 1/2SM -DZ BR OVC003 03/02 A2974 RMK AO2 SFC VIS 1 1/2 DZB34 SLP077 P0000 T00280017=
200702020252 METAR KATL 020252Z 06010KT 1/2SM BR OVC003 03/02 A2973 RMK AO2 SFC VIS 5 RAE48 SLP073 P0000 60000 T00280017 58003=
200702020152 METAR KATL 020152Z 07009KT 1/2SM -RA BR OVC003 03/02 A2974 RMK AO2 SFC VIS 4 SLP076 P0000 T00280017=
200702020052 METAR KATL 020052Z 08010KT 1/2SM -RA BR OVC003 03/02 A2974 RMK AO2 SFC VIS 4 SLP076 P0000 T00280017=
200702020044 SPECI KATL 020044Z 07012KT 1/2SM -RA BR OVC003 03/02 A2974 RMK AO2 SFC VIS 4 P0000=
200702020044 SPECI KATL 020044Z 07012KT 1/2SM -RA BR OVC003 03/02 A2974 RMK AO2 SFC VIS 4 P0000=
200702012352 METAR KATL 012352Z 09009KT 1/4SM -RA BR OVC003 03/02 A2974 RMK AO2 SFC VIS 6 SLP076 P0001 60001 T00280017 10044 20028 58002=
200702012252 METAR KATL 012252Z 07010KT 1/4SM -RA BR OVC003 03/02 A2975 RMK AO2 SFC VIS 2 1/2 DZE51RAB51 SLP082 P0000 T00330022=
200702012203 SPECI KATL 012203Z 08012KT 1/4SM -DZ BR OVC003 04/02 A2976 RMK AO2 SFC VIS 3 P0000=
200702012152 METAR KATL 012152Z 08011KT 1/2SM -DZ BR OVC003 04/03 A2976 RMK AO2 SFC VIS 2 SLP085 P0000 T00390028=
200702012052 METAR KATL 012052Z 08012KT 1/2SM -DZ BR OVC003 04/03 A2974 RMK AO2 SFC VIS 1 1/2 SLP079 P0000 60000 T00440028 58010=
200702012037 SPECI KATL 012037Z 09007KT 1/2SM -DZ BR OVC003 04/03 A2975 RMK AO2 SFC VIS 1 3/4 P0000=
200702012037 SPECI KATL 012037Z 09007KT 1/2SM -DZ BR OVC003 04/03 A2975 RMK AO2 SFC VIS 1 3/4 P0000=
200702011952 METAR KATL 011952Z 08010KT 1/2SM -DZ BR OVC005 04/03 A2976 RMK AO2 SFC VIS 3 SLP083 P0000 T00440028=
200702011852 METAR KATL 011852Z 09009KT 1/2SM -DZ BR OVC005 04/03 A2978 RMK AO2 SFC VIS 3 SLP088 P0000 T00440028=
200702011752 METAR KATL 011752Z 10010KT 1/4SM -DZ BR OVC005 03/02 A2982 RMK AO2 SFC VIS 2 CIG 003V007 PRESFR SLP103 P0000 60047 T00330022 10033 20011 58031=
200702011652 METAR KATL 011652Z 10009KT 2 1/2SM -DZ BR FEW003 BKN005 OVC028 03/02 A2987 RMK AO2 SFC VIS 5 SLP120 P0000 T00330017=
200702011637 SPECI KATL 011637Z 11009KT 2SM -DZ BR FEW003 BKN005 OVC028 03/01 A2988 RMK AO2 SFC VIS 6 P0000=
200702011637 SPECI KATL 011637Z 11009KT 2SM -DZ BR FEW003 BKN005 OVC028 03/01 A2988 RMK AO2 SFC VIS 6 P0000=
200702011600 SPECI KATL 011600Z 11008KT 2SM -DZ BR FEW003 SCT005 OVC032 02/01 A2990 RMK AO2 SFC VIS 4 P0000=
200702011600 SPECI KATL 011600Z 11008KT 2SM -DZ BR FEW003 SCT005 OVC032 02/01 A2990 RMK AO2 SFC VIS 4 P0000=
200702011552 METAR KATL 011552Z 10009KT 2SM -DZ BR FEW003 BKN005 OVC032 02/01 A2991 RMK AO2 SFC VIS 3 RAE50DZB50 SLP135 P0002 T00220011=
200702011545 SPECI KATL 011545Z 10008KT 2SM -RA BR BKN004 OVC030 02/01 A2991 RMK AO2 SFC VIS 2 1/2 P0002=
200702011545 SPECI KATL 011545Z 10008KT 2SM -RA BR BKN004 OVC030 02/01 A2991 RMK AO2 SFC VIS 2 1/2 P0002=
200702011534 SPECI KATL 011534Z 09010KT 1 3/4SM -RA BR BKN004 OVC030 02/01 A2991 RMK AO2 TWR VIS 2 P0002=
200702011534 SPECI KATL 011534Z 09010KT 1 3/4SM -RA BR BKN004 OVC030 02/01 A2991 RMK AO2 TWR VIS 2 P0002=
200702011452 METAR KATL 011452Z 09009KT 2SM -RA BR BKN004 OVC028 02/01 A2991 RMK AO2 SFC VIS 4 SLP136 P0006 60045 T00170006 58001=
200702011445 SPECI KATL 011445Z 09011KT 2SM -RA BR BKN004 OVC028 02/01 A2991 RMK AO2 SFC VIS 3 P0006=
200702011445 SPECI KATL 011445Z 09011KT 2SM -RA BR BKN004 OVC028 02/01 A2991 RMK AO2 SFC VIS 3 P0006=
200702011400 SPECI KATL 011400Z 08011KT 1SM -RA BR BKN004 OVC028 02/00 A2991 RMK AO2 SFC VIS 2 1/2 P0002=
200702011400 SPECI KATL 011400Z 08011KT 1SM -RA BR BKN004 OVC028 02/00 A2991 RMK AO2 SFC VIS 2 1/2 P0002=
200702011352 METAR KATL 011352Z 07012KT 1SM RA BR SCT004 OVC031 02/00 A2991 RMK AO2 SFC VIS 1 3/4 SLP136 P0020 T00170000=
200702011326 SPECI KATL 011326Z 05011KT 1SM RA BR BKN004 BKN026 OVC035 01/00 A2991 RMK AO2 SFC VIS 1 1/2 P0013=
200702011326 SPECI KATL 011326Z 05011KT 1SM RA BR BKN004 BKN026 OVC035 01/00 A2991 RMK AO2 SFC VIS 1 1/2 P0013=
200702011307 SPECI KATL 011307Z 07013KT 1 1/2SM +RA BR BKN004 OVC028 01/00 A2992 RMK AO2 SFC VIS 2 1/2 P0006=
200702011307 SPECI KATL 011307Z 07013KT 1 1/2SM +RA BR BKN004 OVC028 01/00 A2992 RMK AO2 SFC VIS 2 1/2 P0006=
200702011301 SPECI KATL 011301Z 03008KT 1 1/2SM RA BR SCT004 OVC028 01/00 A2994 RMK AO2 SFC VIS 3 P0003=
200702011301 SPECI KATL 011301Z 03008KT 1 1/2SM RA BR SCT004 OVC028 01/00 A2994 RMK AO2 SFC VIS 3 P0003=
200702011254 SPECI KATL 011254Z 06010KT 1 1/2SM RA BR FEW004 SCT022 OVC030 01/00 A2993 RMK AO2 SFC VIS 3 P0001=
200702011254 SPECI KATL 011254Z 06010KT 1 1/2SM RA BR FEW004 SCT022 OVC030 01/00 A2993 RMK AO2 SFC VIS 3 P0001=
200702011252 METAR KATL 011252Z 06009KT 2 1/2SM RA BR FEW004 SCT022 OVC030 01/00 A2993 RMK AO2 SFC VIS 3 SLP142 P0019 T00110000=
200702011224 SPECI KATL 011224Z 07011KT 2 1/2SM RA BR FEW004 OVC034 01/00 A2991 RMK AO2 SFC VIS 3 P0012=
200702011224 SPECI KATL 011224Z 07011KT 2 1/2SM RA BR FEW004 OVC034 01/00 A2991 RMK AO2 SFC VIS 3 P0012=
200702011214 SPECI KATL 011214Z 07013KT 2 1/2SM +RA BR OVC036 01/00 A2991 RMK AO2 P0008=
200702011214 SPECI KATL 011214Z 07013KT 2 1/2SM +RA BR OVC036 01/00 A2991 RMK AO2 P0008=
