##########################################################
# Query made at 04/19/2024 22:59:38 UTC
# Time interval: from 01/01/2007 12:00  to 01/31/2007 12:59  UTC
##########################################################

##########################################################
# KATL, Atlanta, Hartsfield - Jackson Atlanta International Airport (United States)
# WMO index: 72219. WIGOS ID: 0-20000-0-72219
# Latitude 33-38-59N. Longitude 084-25-00W. Altitude 312 m.
##########################################################

200701311252 METAR KATL 311252Z 34009KT 10SM FEW250 M06/M13 A3020 RMK AO2 SLP238 T10611133=
200701311152 METAR KATL 311152Z 32009KT 10SM FEW250 M06/M13 A3019 RMK AO2 SLP233 T10611133 10011 21061 53013=
200701311052 METAR KATL 311052Z 33011KT 10SM CLR M05/M13 A3016 RMK AO2 SLP221 T10501133=
200701310952 METAR KATL 310952Z 33014G20KT 10SM CLR M04/M13 A3014=
200701310852 METAR KATL 310852Z 34011KT 10SM CLR M03/M12 A3015 RMK AO2 SLP218 T10331122 53011=
200701310752 METAR KATL 310752Z 33013G20KT 10SM CLR M02/M13 A3014 RMK AO2 SLP213 T10171128=
200701310652 METAR KATL 310652Z 31016KT 10SM CLR M01/M14 A3012=
200701310552 METAR KATL 310552Z 32013KT 10SM CLR 01/M11 A3012 RMK AO2 SLP203 T00111111 10061 20011 52007=
200701310452 METAR KATL 310452Z 30013KT 10SM CLR 02/M09 A3011 RMK AO2 SLP201 T00221089 401061011=
200701310352 METAR KATL 310352Z 29014G17KT 10SM CLR 03/M08 A3010 RMK AO2 SLP199 T00281078=
200701310252 METAR KATL 310252Z 28006KT 10SM CLR 03/M07 A3009 RMK AO2 SLP197 T00281067 51007=
200701310152 METAR KATL 310152Z COR 28007KT 10SM CLR 04/M06 A3009 RMK AO2 SLP196 T00391061=
200701310052 METAR KATL 310052Z 28006KT 10SM CLR 05/M05 A3009 RMK AO2 SLP197 T00501050=
200701302352 METAR KATL 302352Z 27008KT 10SM CLR 06/M04 A3007 RMK AO2 SLP190 T00611044 10106 20061 53007=
200701302252 METAR KATL 302252Z 29012KT 10SM FEW200 08/M04 A3005 RMK AO2 SLP184 T00781044=
200701302152 METAR KATL 302152Z 26010G19KT 10SM FEW060 SCT090 SCT250 09/M05 A3005=
200701302052 METAR KATL 302052Z 24011KT 10SM FEW065 SCT090 SCT250 09/M06 A3005=
200701302020 SPECI KATL 302020Z 25017G22KT 10SM FEW065 SCT095 10/M06 A3005 RMK AO2 WSHFT 2000 ACSL DSNT NW-N=
200701302020 SPECI KATL 302020Z 25017G22KT 10SM FEW065 SCT095 10/M06 A3005 RMK AO2 WSHFT 2000 ACSL DSNT NW-N=
200701301952 METAR KATL 301952Z 23011KT 10SM FEW065 BKN090 09/M06 A3005 RMK AO2 SLP183 T00941056=
200701301852 METAR KATL 301852Z 21011KT 10SM FEW095 SCT120 SCT150 09/M06 A3009 RMK AO2 SLP195 ACSL DSNT NW-N T00891061=
200701301752 METAR KATL 301752Z 25011G16KT 10SM FEW120 SCT150 SCT250 09/M07 A3012=
200701301652 METAR KATL 301652Z 27011G17KT 10SM FEW120 SCT150 SCT250 08/M08 A3016 RMK AO2 SLP219 T00781078=
200701301552 METAR KATL 301552Z 28012KT 10SM FEW120 BKN150 BKN250 06/M09 A3017 RMK AO2 SLP222 T00611094=
200701301452 METAR KATL 301452Z 24009KT 10SM FEW120 SCT180 BKN250 04/M11 A3017 RMK AO2 SLP224 T00391106 51002=
200701301352 METAR KATL 301352Z 22006KT 10SM SCT110 BKN180 BKN250 00/M09 A3017 RMK AO2 SLP226 T00001094=
200701301252 METAR KATL 301252Z 23006KT 9SM FEW100 BKN180 OVC250 01/M11 A3017 RMK AO2 SLP226 T00061106=
200701301152 METAR KATL 301152Z 25006KT 10SM BKN110 OVC200 01/M12 A3017 RMK AO2 SLP224 T00061122 10006 21011 53005=
200701301052 METAR KATL 301052Z 27006KT 10SM FEW120 BKN200 OVC250 00/M12 A3016 RMK AO2 SLP222 T00001122=
200701300952 METAR KATL 300952Z 26004KT 10SM BKN120 BKN200 OVC250 00/M12 A3013 RMK AO2 SLP211 T00001117=
200701300852 METAR KATL 300852Z 24004KT 10SM SCT120 BKN200 OVC250 00/M12 A3015 RMK AO2 SLP217 T00001117 55013=
200701300752 METAR KATL 300752Z 27005KT 10SM SCT150 BKN200 BKN250 M01/M12 A3015 RMK AO2 SLP217 T10061122=
200701300652 METAR KATL 300652Z 23004KT 10SM FEW150 SCT200 BKN250 M01/M12 A3016 RMK AO2 SLP222 T10111122=
200701300552 METAR KATL 300552Z 22004KT 10SM FEW150 SCT200 BKN250 00/M13 A3019 RMK AO2 SLP233 T00001128 10022 20000 50003=
200701300452 METAR KATL 300452Z 27004KT 10SM FEW150 BKN200 OVC250 01/M15 A3020 RMK AO2 SLP235 T00061150 400441078=
200701300352 METAR KATL 300352Z 29005KT 10SM FEW150 SCT200 BKN250 00/M13 A3019 RMK AO2 SLP232 T00001133=
200701300252 METAR KATL 300252Z 25005KT 10SM FEW150 BKN250 01/M14 A3018 RMK AO2 SLP232 T00111139 51008=
200701300152 METAR KATL 300152Z 23005KT 10SM SCT150 SCT200 01/M13 A3017 RMK AO2 SLP228 T00111133=
200701300052 METAR KATL 300052Z 26005KT 10SM BKN150 BKN250 01/M15 A3017 RMK AO2 SLP229 T00111150=
200701292352 METAR KATL 292352Z 22004KT 10SM BKN150 BKN250 02/M14 A3016 RMK AO2 SLP224 T00221144 10044 20011 55007=
200701292252 METAR KATL 292252Z 25005KT 10SM FEW150 02/M16 A3015 RMK AO2 SLP222 T00221161=
200701292152 METAR KATL 292152Z VRB04KT 10SM FEW150 SCT250 04/M16 A3015 RMK AO2 SLP221 T00441161=
200701292052 METAR KATL 292052Z 29008KT 10SM FEW150 SCT250 04/M16 A3018 RMK AO2 SLP230 T00391156 56023=
200701291952 METAR KATL 291952Z 28006KT 10SM FEW250 04/M15 A3019 RMK AO2 SLP235 T00391150=
200701291852 METAR KATL 291852Z 26005KT 10SM FEW250 03/M15 A3021 RMK AO2 SLP241 T00281150=
200701291752 METAR KATL 291752Z 30006KT 10SM FEW250 01/M14 A3025 RMK AO2 PRESFR SLP253 T00111139 10011 21078 58018=
200701291652 METAR KATL 291652Z 28006KT 10SM FEW250 M01/M14 A3030 RMK AO2 SLP273 T10111139=
200701291552 METAR KATL 291552Z 28007KT 10SM FEW250 M03/M14 A3031 RMK AO2 SLP277 T10281139=
200701291452 METAR KATL 291452Z 30009KT 10SM FEW250 M05/M14 A3030 RMK AO2 SLP274 T10501144 53023=
200701291352 METAR KATL 291352Z 34008KT 10SM FEW250 M07/M15 A3028 RMK AO2 SLP268 T10671150=
200701291252 METAR KATL 291252Z 33010KT 10SM CLR M08/M16 A3025=
200701291152 METAR KATL 291152Z 31010KT 10SM CLR M08/M15 A3023 RMK AO2 SLP251 T10781150 11039 21078 51018=
200701291052 METAR KATL 291052Z 32009KT 10SM CLR M07/M16 A3023 RMK AO2 SLP248 T10721156=
200701290952 METAR KATL 290952Z 34009KT 10SM CLR M07/M16 A3018 RMK AO2 SLP232 T10671161=
200701290852 METAR KATL 290852Z 33011KT 10SM CLR M06/M16 A3018 RMK AO2 SLP229 T10611161 51013=
200701290752 METAR KATL 290752Z 32011KT 10SM CLR M06/M16 A3017 RMK AO2 PRESRR SLP227 T10561156=
200701290652 METAR KATL 290652Z 34015G22KT 10SM CLR M04/M16 A3015 RMK AO2 PK WND 32026/0554 SLP218 T10441156=
200701290552 METAR KATL 290552Z 32021G28KT 10SM CLR M04/M15 A3014 RMK AO2 PK WND 32031/0502 SLP214 T10391150 10006 21039 51026=
200701290452 METAR KATL 290452Z 30019G25KT 10SM CLR M03/M15 A3011 RMK AO2 PK WND 31028/0434 SLP206 T10281150 400721028=
200701290352 METAR KATL 290352Z 30014G23KT 10SM CLR M02/M15 A3009 RMK AO2 PK WND 30026/0327 SLP197 T10221150=
200701290252 METAR KATL 290252Z 30017G23KT 10SM CLR M01/M14 A3006 RMK AO2 SLP187 T10111144 51016=
200701290152 METAR KATL 290152Z 29017G22KT 10SM CLR M01/M13 A3005 RMK AO2 PK WND 30028/0134 SLP182 T10061133=
200701290052 METAR KATL 290052Z 29017G25KT 10SM FEW055 00/M12 A3003=
200701282352 METAR KATL 282352Z 29021G29KT 10SM FEW055 01/M12 A3001 RMK AO2 PK WND 30029/2348 SLP169 T00061122 10067 20006 53035=
200701282252 METAR KATL 282252Z 31021G25KT 10SM FEW055 02/M10 A2997 RMK AO2 PK WND 29029/2233 SLP155 T00221100=
200701282152 METAR KATL 282152Z 30019G26KT 10SM FEW055 04/M11 A2993 RMK AO2 PK WND 30030/2116 SLP139 T00441106=
200701282052 METAR KATL 282052Z 30025G33KT 10SM FEW055 06/M09 A2990=
200701281952 METAR KATL 281952Z 29019G24KT 10SM FEW050 06/M07 A2989 RMK AO2 PK WND 31026/1930 SLP126 T00561067=
200701281852 SPECI KATL 281852Z 29018G24KT 10SM FEW043 06/M06 A2988 RMK AO2 PK WND 28026/1812 SLP124 T00611056=
200701281752 METAR KATL 281752Z 30019G25KT 10SM FEW038 06/M05 A2991=
200701281652 METAR KATL 281652Z 30015G20KT 10SM FEW038 06/M04 A2993 RMK AO2 SLP139 T00611039=
200701281552 METAR KATL 281552Z 29017G22KT 10SM FEW028 06/M02 A2993=
200701281452 METAR KATL 281452Z 30013KT 10SM SCT021 06/00 A2991=
200701281420 SPECI KATL 281420Z 29015G21KT 10SM SCT015 SCT025 04/01 A2990 RMK AO2=
200701281420 SPECI KATL 281420Z 29015G21KT 10SM SCT015 SCT025 04/01 A2990 RMK AO2=
200701281409 SPECI KATL 281409Z 31017G25KT 10SM SCT012 BKN025 05/01 A2989 RMK AO2=
200701281409 SPECI KATL 281409Z 31017G25KT 10SM SCT012 BKN025 05/01 A2989 RMK AO2=
200701281352 METAR KATL 281352Z 31017G24KT 9SM BKN012 OVC019 05/02 A2989 RMK AO2 SLP123 T00500022=
200701281252 METAR KATL 281252Z 28010KT 7SM BKN010 OVC013 06/04 A2986=
200701281152 METAR KATL 281152Z 27008KT 7SM OVC023 06/04 A2984 RMK AO2 SLP106 60006 70010 T00610044 10067 20056 53005=
200701281052 METAR KATL 281052Z 28008KT 8SM BKN010 OVC023 06/04 A2983 RMK AO2 SLP103 T00560039=
200701280952 METAR KATL 280952Z 30007KT 6SM BR BKN008 OVC023 06/04 A2983 RMK AO2 SLP100 T00610044=
200701280852 METAR KATL 280852Z 30006KT 5SM BR BKN006 BKN009 OVC047 06/05 A2983 RMK AO2 RAE0758 SLP100 P0000 60006 T00610050 58014=
200701280815 SPECI KATL 280815Z 29007KT 6SM BR BKN006 OVC038 06/04 A2984 RMK AO2 RAE0758 P0000=
200701280815 SPECI KATL 280815Z 29007KT 6SM BR BKN006 OVC038 06/04 A2984 RMK AO2 RAE0758 P0000=
200701280752 METAR KATL 280752Z 27005KT 8SM -RA FEW004 SCT033 BKN047 06/04 A2984 RMK AO2 SLP106 P0003 T00610044=
200701280729 SPECI KATL 280729Z 27005KT 8SM -RA SCT015 OVC042 06/05 A2986 RMK AO2 P0003=
200701280729 SPECI KATL 280729Z 27005KT 8SM -RA SCT015 OVC042 06/05 A2986 RMK AO2 P0003=
200701280652 METAR KATL 280652Z 28005KT 6SM -RA BR BKN020 OVC030 06/04 A2988=
200701280452 METAR KATL 280452Z 00000KT 10SM -RA FEW045 OVC065 07/04 A2988 RMK AO2 PRESFR SLP118 P0001 T00720044 401560011=
200701280352 METAR KATL 280352Z 23004KT 8SM -RA FEW035 BKN042 OVC055 07/04 A2993 RMK AO2 SLP139 P0003 T00720039=
200701280252 METAR KATL 280252Z 24007KT 10SM -RA BKN037 OVC045 09/02 A2996 RMK AO2 SLP150 P0000 60000 T00890022 50002=
200701280152 METAR KATL 280152Z 23007KT 10SM -RA FEW035 OVC055 12/M02 A2997 RMK AO2 RAB24 SLP151 P0000 T01171017=
200701280052 METAR KATL 280052Z 25007KT 10SM BKN060 OVC085 12/M03 A2996 RMK AO2 SLP149 T01221028=
200701272352 METAR KATL 272352Z 23008KT 10SM OVC085 13/M04 A2996 RMK AO2 SLP147 T01281044 10156 20128 53008=
200701272252 METAR KATL 272252Z 24007KT 10SM OVC150 13/M03 A2994 RMK AO2 SLP141 T01331028=
200701272152 METAR KATL 272152Z 25010KT 10SM OVC150 14/M04 A2994 RMK AO2 SLP139 T01441044=
200701272052 METAR KATL 272052Z 20014KT 10SM SCT120 BKN150 BKN200 15/M04 A2993 RMK AO2 SLP137 T01501039 56024=
200701271952 METAR KATL 271952Z 23011KT 10SM SCT120 BKN150 BKN200 15/M04 A2994 RMK AO2 SLP141 T01501039=
200701271852 METAR KATL 271852Z 22012KT 10SM FEW150 SCT200 14/M03 A2996 RMK AO2 SLP146 T01441033=
200701271752 METAR KATL 271752Z 23006KT 10SM SCT150 SCT200 14/M02 A3000 RMK AO2 SLP162 T01391022 10139 20011 58031=
200701271652 METAR KATL 271652Z 24010KT 10SM SCT150 SCT200 BKN250 12/M02 A3005 RMK AO2 SLP179 T01221022=
200701271552 METAR KATL 271552Z 25006KT 10SM SCT150 BKN200 BKN250 11/M03 A3008 RMK AO2 SLP187 T01061028=
200701271452 METAR KATL 271452Z 23005KT 10SM FEW090 BKN250 07/M04 A3010 RMK AO2 SLP197 T00671044 53003=
200701271352 METAR KATL 271352Z 23006KT 10SM BKN250 03/M06 A3010 RMK AO2 SLP197 T00331056=
200701271252 METAR KATL 271252Z 00000KT 10SM FEW250 02/M07 A3009 RMK AO2 SLP194 T00171067=
200701271152 METAR KATL 271152Z 23003KT 10SM FEW250 02/M06 A3009 RMK AO2 SLP193 T00221061 10050 20017 55000=
200701271052 METAR KATL 271052Z 24003KT 10SM CLR 02/M07 A3009 RMK AO2 SLP192 T00171067=
200701270952 METAR KATL 270952Z 23003KT 10SM CLR 02/M06 A3009 RMK AO2 SLP192 T00221056=
200701270852 METAR KATL 270852Z 25004KT 10SM CLR 03/M07 A3009 RMK AO2 SLP193 T00331067 56009=
200701270752 METAR KATL 270752Z 24003KT 10SM CLR 03/M07 A3010 RMK AO2 SLP196 T00331067=
200701270652 METAR KATL 270652Z 24006KT 10SM CLR 04/M07 A3010 RMK AO2 SLP197 T00391067=
200701270552 METAR KATL 270552Z 24005KT 10SM CLR 05/M08 A3012 RMK AO2 SLP203 T00501078 10094 20050 55003=
200701270452 METAR KATL 270452Z 24006KT 10SM CLR 06/M08 A3010 RMK AO2 SLP198 T00561083 401221028=
200701270352 METAR KATL 270352Z 24004KT 10SM CLR 06/M08 A3011 RMK AO2 SLP203 T00561078=
200701270252 METAR KATL 270252Z 23006KT 10SM CLR 06/M06 A3012 RMK AO2 SLP208 T00561061 56003=
200701270152 METAR KATL 270152Z 24004KT 10SM CLR 07/M07 A3013 RMK AO2 SLP209 T00671067=
200701270052 METAR KATL 270052Z 22003KT 10SM CLR 08/M07 A3013 RMK AO2 SLP209 T00781072=
200701262352 METAR KATL 262352Z 00000KT 10SM CLR 09/M08 A3013 RMK AO2 SLP211 T00891078 10122 20078 56003=
200701262252 METAR KATL 262252Z 24005KT 10SM CLR 11/M10 A3013 RMK AO2 SLP210 T01111100=
200701262152 METAR KATL 262152Z 28005KT 10SM CLR 12/M11 A3014 RMK AO2 SLP211 T01171111=
200701262052 METAR KATL 262052Z 27005KT 10SM CLR 12/M12 A3014 RMK AO2 SLP211 T01221122 56020=
200701261952 METAR KATL 261952Z VRB04KT 10SM CLR 12/M12 A3015 RMK AO2 SLP214 T01171122=
200701261852 METAR KATL 261852Z VRB06KT 10SM CLR 10/M12 A3017 RMK AO2 SLP222 T01001122=
200701261752 METAR KATL 261752Z 27006KT 10SM CLR 08/M11 A3020 RMK AO2 SLP233 T00831111 10083 21022 58012=
200701261652 METAR KATL 261652Z VRB05KT 10SM CLR 06/M10 A3024 RMK AO2 SLP246 T00611100=
200701261552 METAR KATL 261552Z 30005KT 10SM CLR 04/M11 A3024 RMK AO2 SLP250 T00391106=
200701261452 METAR KATL 261452Z 33007KT 10SM CLR 02/M10 A3024 RMK AO2 SLP247 T00171100 53006=
200701261352 METAR KATL 261352Z 34007KT 10SM CLR M01/M09 A3023 RMK AO2 SLP245 T10061089=
200701261252 METAR KATL 261252Z 33009KT 10SM CLR M02/M09 A3022 RMK AO2 SLP244 T10221089=
200701261152 METAR KATL 261152Z 33008KT 10SM CLR M02/M09 A3022 RMK AO2 SLP242 T10221089 10000 21028 53001=
200701261052 METAR KATL 261052Z 33010KT 10SM CLR M02/M09 A3022 RMK AO2 SLP240 T10221089=
200701260952 METAR KATL 260952Z 32010KT 10SM CLR M02/M08 A3021 RMK AO2 SLP235 T10171083=
200701260852 METAR KATL 260852Z 31008KT 10SM CLR M02/M08 A3021 RMK AO2 SLP238 T10171083 53001=
200701260752 METAR KATL 260752Z 32008KT 10SM CLR M01/M08 A3021 RMK AO2 SLP235 T10111083=
200701260652 METAR KATL 260652Z 33009KT 10SM CLR M01/M08 A3021=
200701260552 SPECI KATL 260552Z 32010KT 10SM CLR 00/M08 A3021 RMK AO2 SLP236 T00001078 10050 20000 51011=
200701260452 METAR KATL 260452Z 33012KT 10SM CLR 01/M08 A3020 RMK AO2 SLP234 T00111078 400940011=
200701260352 METAR KATL 260352Z 33010KT 10SM CLR 02/M08 A3019=
200701260252 METAR KATL 260252Z 32011KT 10SM CLR 03/M07 A3018 RMK AO2 SLP226 T00281072 51013=
200701260152 METAR KATL 260152Z 31010KT 10SM CLR 03/M07 A3016 RMK AO2 SLP222 T00331067=
200701260052 METAR KATL 260052Z 31009KT 10SM CLR 04/M07 A3015 RMK AO2 SLP219 T00391067=
200701252352 METAR KATL 252352Z 32013KT 10SM CLR 05/M07 A3014 RMK AO2 SLP213 T00501067 10094 20050 53019=
200701252252 METAR KATL 252252Z 33012KT 10SM CLR 06/M06 A3011 RMK AO2 SLP202 T00611056=
200701252152 METAR KATL 252152Z 31015KT 10SM CLR 08/M04 A3009=
200701252052 METAR KATL 252052Z 32015G21KT 300V360 10SM CLR 09/M04 A3008 RMK AO2 SLP190 T00941039 55009=
200701251952 METAR KATL 251952Z 32019G27KT 10SM FEW050 09/M04 A3007 RMK AO2 PK WND 33027/1950 SLP186 T00891044=
200701251852 METAR KATL 251852Z 31015G21KT 10SM FEW040 09/M04 A3008 RMK AO2 SLP190 T00891039=
200701251752 METAR KATL 251752Z 31018KT 10SM FEW040 08/M04 A3011 RMK AO2 SLP199 T00831039 10083 20011 58003=
200701251652 METAR KATL 251652Z 33013G22KT 10SM FEW040 07/M04 A3013 RMK AO2 SLP206 T00671044=
200701251552 METAR KATL 251552Z COR 32018G24KT 10SM FEW040 FEW220 06/M04 A3014 RMK AO2 PK WND 32027/1521 SLP211 T00561039=
200701251452 METAR KATL 251452Z 33020G25KT 10SM FEW220 04/M03 A3012 RMK AO2 PK WND 33026/1441 SLP204 T00391033 51014=
200701251352 METAR KATL 251352Z 32012G21KT 10SM FEW200 SCT250 02/M03 A3011 RMK AO2 SLP204 T00221028=
200701251252 METAR KATL 251252Z 32013KT 10SM FEW150 SCT200 SCT250 02/M03 A3009 RMK AO2 SLP194 T00171028=
200701251152 METAR KATL 251152Z 32011KT 10SM BKN150 BKN200 BKN250 02/M03 A3007 RMK AO2 SLP190 T00221028 10056 20022 53003=
200701251052 METAR KATL 251052Z 33013G18KT 10SM BKN150 BKN200 BKN250 03/M02 A3006 RMK AO2 SLP185 T00281022=
200701250952 METAR KATL 250952Z 32010KT 10SM BKN150 BKN200 BKN250 03/M02 A3006 RMK AO2 SLP183 T00331022=
200701250852 METAR KATL 250852Z 34010G17KT 10SM BKN150 OVC250 04/M02 A3007 RMK AO2 SLP186 T00441022 58001=
200701250752 METAR KATL 250752Z 33009KT 10SM BKN150 OVC250 05/M02 A3007 RMK AO2 SLP188 T00501022=
200701250652 METAR KATL 250652Z 32010KT 10SM BKN150 OVC200 05/M02 A3008 RMK AO2 SLP190 T00501017=
200701250552 METAR KATL 250552Z 33009KT 10SM BKN150 OVC200 06/M02 A3007 RMK AO2 SLP187 T00561017 10072 20056 58002=
200701250452 METAR KATL 250452Z 33008KT 10SM SCT150 BKN200 OVC250 06/M02 A3008 RMK AO2 SLP191 T00561017 400830017=
200701250352 METAR KATL 250352Z 31008KT 10SM FEW150 BKN200 OVC250 06/M02 A3008 RMK AO2 SLP192 T00561017=
200701250252 METAR KATL 250252Z 29005KT 10SM FEW150 BKN200 OVC250 06/M02 A3008=
200701250152 METAR KATL 250152Z 30004KT 10SM FEW150 SCT200 BKN250 06/M02 A3007=
200701250052 METAR KATL 250052Z 32006KT 10SM OVC150 06/M02 A3006 RMK AO2 SLP186 T00611022=
200701242352 METAR KATL 242352Z 32007KT 10SM OVC150 07/M03 A3007 RMK AO2 SLP189 T00721028 10083 20056 56001=
200701242252 METAR KATL 242252Z 33010KT 10SM FEW120 BKN150 08/M03 A3007 RMK AO2 SLP189 T00781033=
200701242152 METAR KATL 242152Z 33011KT 10SM FEW120 BKN150 BKN250 08/M03 A3007 RMK AO2 SLP188 T00831033=
200701242052 METAR KATL 242052Z 32012KT 10SM FEW120 BKN150 BKN180 BKN250 08/M03 A3008 RMK AO2 SLP190 T00831033 57007=
200701241952 METAR KATL 241952Z 31010KT 10SM BKN150 BKN180 BKN250 07/M03 A3008 RMK AO2 SLP191 T00721033=
200701241852 METAR KATL 241852Z 31008KT 10SM FEW100 SCT150 BKN180 BKN250 07/M03 A3009 RMK AO2 SLP196 T00721033=
200701241752 METAR KATL 241752Z 32009KT 10SM FEW100 BKN150 OVC180 06/M03 A3010 RMK AO2 SLP197 T00561033 10061 20017 58007=
200701241652 METAR KATL 241652Z 32008KT 10SM FEW120 BKN150 BKN180 05/M03 A3013 RMK AO2 SLP210 T00501028=
200701241552 METAR KATL 241552Z 33006KT 10SM FEW090 SCT120 OVC150 03/M02 A3012 RMK AO2 SLP205 T00331022=
200701241452 METAR KATL 241452Z 32009KT 8SM FEW120 BKN150 OVC180 03/M02 A3012 RMK AO2 SLP206 T00281017 53010=
200701241352 METAR KATL 241352Z 32008KT 7SM BKN150 OVC250 02/M02 A3010 RMK AO2 SLP199 T00221017=
200701241252 METAR KATL 241252Z 30007KT 8SM OVC150 02/M02 A3010 RMK AO2 SLP198 T00171017=
200701241152 METAR KATL 241152Z 30007KT 8SM OVC150 02/M02 A3009 RMK AO2 SLP195 T00171017 10028 20017 51009=
200701241052 METAR KATL 241052Z 29005KT 8SM BKN150 OVC250 02/M02 A3007 RMK AO2 SLP190 T00171017=
200701240952 METAR KATL 240952Z 29009KT 8SM BKN150 OVC250 02/M02 A3009 RMK AO2 SLP195 T00171017=
200701240852 METAR KATL 240852Z 27006KT 9SM BKN150 OVC250 02/M02 A3006 RMK AO2 SLP184 T00171022 55004=
200701240752 METAR KATL 240752Z 29007KT 9SM OVC150 02/M02 A3005 RMK AO2 SLP182 T00221017=
200701240652 METAR KATL 240652Z 29007KT 9SM SCT150 BKN250 02/M02 A3007 RMK AO2 SLP188 T00171022=
200701240552 METAR KATL 240552Z 29006KT 10SM BKN150 OVC250 03/M02 A3007 RMK AO2 SLP189 T00281017 10056 20028 55007=
200701240452 METAR KATL 240452Z 29007KT 10SM BKN150 OVC250 03/M01 A3007 RMK AO2 SLP188 T00281011 400720022=
200701240352 METAR KATL 240352Z 28008KT 10SM BKN200 OVC250 03/M01 A3008 RMK AO2 SLP192 T00331011=
200701240252 METAR KATL 240252Z 26006KT 10SM FEW150 BKN200 OVC250 04/M01 A3009 RMK AO2 SLP196 T00391011 53009=
200701240152 METAR KATL 240152Z 29007KT 10SM BKN150 OVC200 04/M01 A3006 RMK AO2 SLP187 T00391011=
200701240052 METAR KATL 240052Z 29005KT 10SM BKN150 OVC200 05/M01 A3005=
200701232352 METAR KATL 232352Z 31007KT 10SM BKN150 OVC200 06/M01 A3006 RMK AO2 SLP186 T00561011 10072 20050 53007=
200701232252 METAR KATL 232252Z 30005KT 10SM BKN150 OVC200 06/M01 A3005 RMK AO2 SLP181 T00611011=
200701232152 METAR KATL 232152Z 29005KT 10SM FEW100 SCT150 OVC180 06/M02 A3004 RMK AO2 SLP179 T00611017=
200701232052 METAR KATL 232052Z 30008KT 10SM FEW150 BKN180 OVC250 07/M02 A3004 RMK AO2 SLP178 VIRGA ALQDS T00671017 55017=
200701231952 METAR KATL 231952Z 28008KT 10SM FEW150 BKN180 OVC250 07/M01 A3004 RMK AO2 SLP176 VIRGA NE-S T00671006=
200701231852 METAR KATL 231852Z 30008KT 10SM FEW150 BKN180 OVC250 06/M01 A3007=
200701231752 METAR KATL 231752Z 27009KT 10SM FEW150 BKN180 OVC250 05/M01 A3009 RMK AO2 SLP196 VIRGA DSNT NE AND S-NW T00501011 10056 20022 58005=
200701231652 METAR KATL 231652Z 31008KT 10SM FEW150 BKN180 OVC250 05/M01 A3010=
200701231552 METAR KATL 231552Z 33010KT 10SM FEW100 SCT150 OVC180 03/M02 A3012 RMK AO2 SLP206 VIRGA NE AND SW-NW T00331022=
200701231452 METAR KATL 231452Z 32010KT 10SM FEW100 SCT150 BKN180 OVC250 03/M02 A3011 RMK AO2 SLP202 VIRGA ALQDS T00281022 53025=
200701231352 METAR KATL 231352Z 32008KT 10SM SCT140 BKN200 OVC250 03/M02 A3008 RMK AO2 SLP191 VIRGA E-SE-S-SW T00281022=
200701231252 METAR KATL 231252Z 33012KT 10SM BKN140 OVC200 02/M02 A3005=
200701231152 METAR KATL 231152Z 32009KT 10SM FEW022 BKN150 OVC200 03/M02 A3003=
200701231052 METAR KATL 231052Z 31012KT 10SM CLR 03/M02 A3002 RMK AO2 SLP171 T00281017=
200701230952 METAR KATL 230952Z 32013KT 10SM SCT022 BKN150 OVC200 03/M02 A3002 RMK AO2 SLP170 T00331017=
200701230852 METAR KATL 230852Z 32012KT 10SM BKN022 BKN150 OVC200 04/M01 A3003 RMK AO2 SLP172 T00391011 53004=
200701230752 METAR KATL 230752Z 32013KT 10SM BKN022 BKN150 OVC200 04/M01 A3001 RMK AO2 SLP165 T00391006=
200701230652 METAR KATL 230652Z 31015G21KT 10SM BKN023 OVC200 04/M01 A3000 RMK AO2 SLP165 T00441006=
200701230640 SPECI KATL 230640Z 32014KT 10SM BKN023 OVC200 04/M01 A3000 RMK AO2=
200701230640 SPECI KATL 230640Z 32014KT 10SM BKN023 OVC200 04/M01 A3000 RMK AO2=
200701230552 METAR KATL 230552Z 32011KT 10SM SCT025 OVC200 04/M01 A3001 RMK AO2 SLP168 T00441006 10061 20044 55002=
200701230452 METAR KATL 230452Z COR 32010KT 10SM FEW022 BKN028 OVC200 05/00 A3001 RMK AO2 SLP165 T00500000 400890039=
200701230412 SPECI KATL 230412Z 32010KT 10SM BKN026 BKN150 OVC200 05/00 A3001 RMK AO2=
200701230412 SPECI KATL 230412Z 32010KT 10SM BKN026 BKN150 OVC200 05/00 A3001 RMK AO2=
200701230352 METAR KATL 230352Z 31010KT 10SM FEW025 SCT150 OVC200 05/00 A3000 RMK AO2 SLP165 T00500000=
200701230329 SPECI KATL 230329Z 30011G17KT 10SM SCT025 BKN200 OVC250 05/00 A3002 RMK AO2=
200701230329 SPECI KATL 230329Z 30011G17KT 10SM SCT025 BKN200 OVC250 05/00 A3002 RMK AO2=
200701230306 SPECI KATL 230306Z 31010G15KT 10SM BKN025 BKN200 OVC250 05/01 A3001 RMK AO2=
200701230306 SPECI KATL 230306Z 31010G15KT 10SM BKN025 BKN200 OVC250 05/01 A3001 RMK AO2=
200701230252 METAR KATL 230252Z 29008KT 10SM FEW025 BKN200 OVC250 05/01 A3002 RMK AO2 SLP170 T00500006 50009=
200701230152 METAR KATL 230152Z 31011KT 10SM FEW025 BKN150 OVC200 06/01 A3002 RMK AO2 SLP172 T00560011=
200701230115 SPECI KATL 230115Z 31014KT 10SM FEW017 SCT024 BKN150 OVC200 06/01 A2999 RMK AO2=
200701230115 SPECI KATL 230115Z 31014KT 10SM FEW017 SCT024 BKN150 OVC200 06/01 A2999 RMK AO2=
200701230052 METAR KATL 230052Z 31014G21KT 10SM FEW017 BKN024 OVC150 06/01 A2999 RMK AO2 PRESFR SLP159 T00560011=
200701222352 METAR KATL 222352Z 30013KT 10SM OVC017 06/02 A2999 RMK AO2 SLP160 T00610022 10083 20061 51012=
200701222252 METAR KATL 222252Z 30012KT 9SM BKN015 OVC022 07/03 A2998 RMK AO2 SLP157 T00720033=
200701222152 METAR KATL 222152Z 30010KT 10SM OVC018 08/04 A2998 RMK AO2 SLP156 T00780039=
200701222052 METAR KATL 222052Z 29009KT 10SM BKN020 BKN120 OVC150 08/04 A2996 RMK AO2 SLP148 T00830039 56008=
200701221952 METAR KATL 221952Z 28006KT 10SM BKN017 BKN070 OVC150 08/04 A2996 RMK AO2 SLP150 T00780039=
200701221852 METAR KATL 221852Z 27005KT 10SM BKN015 BKN070 OVC150 08/05 A2996 RMK AO2 SLP150 VIRGA OHD AND ALQDS T00830050=
200701221843 SPECI KATL 221843Z 28007KT 10SM SCT013 SCT070 OVC150 08/05 A2997 RMK AO2 VIRGA OHD AND ALQDS=
200701221843 SPECI KATL 221843Z 28007KT 10SM SCT013 SCT070 OVC150 08/05 A2997 RMK AO2 VIRGA OHD AND ALQDS=
200701221752 METAR KATL 221752Z 29010KT 8SM BKN013 BKN070 OVC150 08/06 A2998 RMK AO2 SLP157 60000 T00830056 10089 20050 58009=
200701221707 SPECI KATL 221707Z 29010KT 6SM BR BKN011 BKN070 OVC150 09/06 A3001 RMK AO2=
200701221707 SPECI KATL 221707Z 29010KT 6SM BR BKN011 BKN070 OVC150 09/06 A3001 RMK AO2=
200701221656 SPECI KATL 221656Z 28006KT 6SM BR FEW009 SCT013 SCT070 OVC150 08/06 A3000 RMK AO2=
200701221656 SPECI KATL 221656Z 28006KT 6SM BR FEW009 SCT013 SCT070 OVC150 08/06 A3000 RMK AO2=
200701221652 METAR KATL 221652Z 29007KT 6SM BR BKN013 BKN065 OVC150 08/06 A3000 RMK AO2 RAB33E44 SLP165 P0000 T00830061=
200701221638 SPECI KATL 221638Z 00000KT 6SM -RA BR BKN011 BKN070 OVC150 08/06 A3000 RMK AO2 RAB33 PRESFR P0000=
200701221638 SPECI KATL 221638Z 00000KT 6SM -RA BR BKN011 BKN070 OVC150 08/06 A3000 RMK AO2 RAB33 PRESFR P0000=
200701221622 SPECI KATL 221622Z 28006KT 6SM BR SCT009 BKN014 BKN110 OVC150 08/06 A3003 RMK AO2=
200701221622 SPECI KATL 221622Z 28006KT 6SM BR SCT009 BKN014 BKN110 OVC150 08/06 A3003 RMK AO2=
200701221552 METAR KATL 221552Z 27007KT 240V310 2 1/2SM BR BKN007 BKN120 OVC150 08/06 A3005 RMK AO2 SFC VIS 5 PRESRR SLP181 T00830061=
200701221536 SPECI KATL 221536Z 26006KT 2 1/2SM BR BKN005 BKN010 BKN120 OVC150 08/06 A3002 RMK AO2 SFC VIS 5 BINOVC=
200701221536 SPECI KATL 221536Z 26006KT 2 1/2SM BR BKN005 BKN010 BKN120 OVC150 08/06 A3002 RMK AO2 SFC VIS 5 BINOVC=
200701221452 METAR KATL 221452Z 28005KT 2SM BR BKN005 BKN008 BKN120 BKN150 07/06 A3001 RMK AO2 SFC VIS 5 SLP166 60000 T00720056 51015=
200701221446 SPECI KATL 221446Z 28006KT 1 1/2SM BR BKN003 BKN005 BKN120 BKN150 07/06 A3002 RMK AO2 SFC VIS 4=
200701221446 SPECI KATL 221446Z 28006KT 1 1/2SM BR BKN003 BKN005 BKN120 BKN150 07/06 A3002 RMK AO2 SFC VIS 4=
200701221443 SPECI KATL 221443Z 27007KT 1 1/2SM BR OVC003 07/06 A3001 RMK AO2 SFC VIS 3=
200701221443 SPECI KATL 221443Z 27007KT 1 1/2SM BR OVC003 07/06 A3001 RMK AO2 SFC VIS 3=
200701221440 SPECI KATL 221440Z 29007KT 1SM BR OVC003 07/06 A3001 RMK AO2 SFC VIS 3=
200701221440 SPECI KATL 221440Z 29007KT 1SM BR OVC003 07/06 A3001 RMK AO2 SFC VIS 3=
200701221429 SPECI KATL 221429Z 30008KT 1/2SM BR BKN002 OVC003 06/05 A3002 RMK AO2 SFC VIS 2 1/2=
200701221429 SPECI KATL 221429Z 30008KT 1/2SM BR BKN002 OVC003 06/05 A3002 RMK AO2 SFC VIS 2 1/2=
200701221352 METAR KATL 221352Z COR 30007KT 1/4SM BR OVC002 06/05 A3001 RMK AO2 SFC VIS 1 3/4 TWRINC SLP166 T00610050=
200701221252 METAR KATL 221252Z 30007KT 1/4SM BR OVC002 05/04 A2999 RMK AO2 SFC VIS 2 RAE07DZB19E48 SLP161 TWRINC P0000 T00500039=
200701221228 SPECI KATL 221228Z 31006KT 1/2SM -DZ BR OVC002 05/04 A2998 RMK AO2 SFC VIS 4 RAE07DZB19 TWRINC P0000=
200701221228 SPECI KATL 221228Z 31006KT 1/2SM -DZ BR OVC002 05/04 A2998 RMK AO2 SFC VIS 4 RAE07DZB19 TWRINC P0000=
200701221219 SPECI KATL 221219Z 29005KT 1SM -DZ BR OVC004 05/04 A2998 RMK AO2 SFC VIS 4 RAE07DZB19 CIG 001V005 P0000=
200701221219 SPECI KATL 221219Z 29005KT 1SM -DZ BR OVC004 05/04 A2998=
200701221152 METAR KATL 221152Z 31006KT 2 1/2SM -RA BR OVC004 05/03 A2996 RMK AO2 SFC VIS 5 SLP152 P0001 60019 70112 T00500033 10050 20039 58007=
200701221052 METAR KATL 221052Z 28004KT 2SM -RA BKN003 BKN055 OVC070 05/03 A2999 RMK AO2 SFC VIS 7 SLP159 P0001 T00500033=
200701221038 SPECI KATL 221038Z 28003KT 2SM -RA BR BKN003 BKN050 OVC110 05/03 A2998 RMK AO2 SFC VIS 6 P0001=
200701221038 SPECI KATL 221038Z 28003KT 2SM -RA BR BKN003 BKN050 OVC110 05/03 A2998 RMK AO2 SFC VIS 6 P0001=
200701221023 SPECI KATL 221023Z 00000KT 2SM -RA BR SCT003 BKN060 OVC100 05/03 A2997 RMK AO2 SFC VIS 6 P0001=
200701221023 SPECI KATL 221023Z 00000KT 2SM -RA BR SCT003 BKN060 OVC100 05/03 A2997 RMK AO2 SFC VIS 6 P0001=
200701220952 METAR KATL 220952Z COR 00000KT 2SM -RA FEW003 SCT080 OVC100 04/03 A2997 RMK AO2 SFC VIS 7 PRESRR SLP156 P0002 T00440033=
200701220935 SPECI KATL 220935Z 08005KT 2SM -RA SCT003 SCT050 OVC100 04/03 A2994 RMK AO2 SFC VIS 7 PRESFR P0002=
200701220935 SPECI KATL 220935Z 08005KT 2SM -RA SCT003 SCT050 OVC100 04/03 A2994 RMK AO2 SFC VIS 7 PRESFR P0002=
200701220903 SPECI KATL 220903Z 00000KT 2SM -RA BKN003 BKN050 OVC095 04/03 A2999 RMK AO2 SFC VIS 9 P0000=
200701220903 SPECI KATL 220903Z 00000KT 2SM -RA BKN003 BKN050 OVC095 04/03 A2999 RMK AO2 SFC VIS 9 P0000=
200701220852 METAR KATL 220852Z 07003KT 2SM -RA BR SCT003 SCT055 OVC095 04/03 A2999 RMK AO2 SFC VIS 6 SLP160 P0006 60015 T00440028 58008=
200701220850 SPECI KATL 220850Z 07004KT 2SM -RA BR SCT003 SCT055 OVC095 04/03 A2999 RMK AO2 SFC VIS 6 P0006=
200701220850 SPECI KATL 220850Z 07004KT 2SM -RA BR SCT003 SCT055 OVC095 04/03 A2999 RMK AO2 SFC VIS 6 P0006=
200701220752 METAR KATL 220752Z 00000KT 1 1/2SM R09R/4000VP6000FT RA BR BKN007 BKN039 OVC080 04/03 A3002 RMK AO2 SFC VIS 5 SLP170 P0005 T00390028=
200701220652 METAR KATL 220652Z 09004KT 1 1/2SM -RA BKN005 OVC008 04/03 A3001 RMK AO2 SFC VIS 9 SLP166 TWRINC P0004 T00390028=
200701220619 SPECI KATL 220619Z 07006KT 1 1/2SM -RA BKN005 BKN010 OVC020 04/02 A2999 RMK AO2 SFC VIS 9 P0004=
200701220619 SPECI KATL 220619Z 07006KT 1 1/2SM -RA BKN005 BKN010 OVC020 04/02 A2999 RMK AO2 SFC VIS 9 P0004=
200701220552 METAR KATL 220552Z 10004KT 1 1/2SM RA BR BKN003 BKN011 OVC020 04/03 A3001 RMK AO2 SFC VIS 4 SLP168 TWRINC P0005 60046 T00390028 10050 20039 56008=
200701220452 METAR KATL 220452Z 06008KT 1 1/2SM -RA BR OVC004 04/03 A3002 RMK AO2 SFC VIS 5 SLP169 P0007 T00390028 400780039=
200701220352 METAR KATL 220352Z 09008KT 1 1/2SM RA BR OVC004 04/03 A3001 RMK AO2 SFC VIS 5 SLP168 CIG 003V007 TWRINC P0009 T00390028=
200701220328 SPECI KATL 220328Z 10009KT 1 1/2SM -RA BR BKN004 BKN014 OVC055 04/03 A3002 RMK AO2 SFC VIS 5 CIG 004V007 P0004=
200701220328 SPECI KATL 220328Z 10009KT 1 1/2SM -RA BR BKN004 BKN014 OVC055 04/03 A3002 RMK AO2 SFC VIS 5 CIG 004V007 P0004=
200701220252 METAR KATL 220252Z 07009KT 2 1/2SM -RA BR OVC005 04/02 A3004 RMK AO2 SFC VIS 5 CIG 004V007 SLP176 P0011 60025 T00390022 50004=
200701220152 METAR KATL 220152Z 06013KT 1 1/2SM RA BR OVC006 04/03 A3005 RMK AO2 SFC VIS 4 SLP180 P0005 T00440028=
200701220107 SPECI KATL 220107Z VRB06KT 1 1/2SM RA BR BKN006 OVC011 04/03 A3005 RMK AO2 SFC VIS 4 CIG 005V012 P0003=
200701220107 SPECI KATL 220107Z VRB06KT 1 1/2SM RA BR BKN006 OVC011 04/03 A3005 RMK AO2 SFC VIS 4 CIG 005V012 P0003=
200701220052 METAR KATL 220052Z 05009KT 360V070 1 1/2SM -RA BR BKN004 OVC006 04/03 A3005 RMK AO2 SFC VIS 4 SLP182 CIG 003V008 TWRINC P0009 T00440033=
200701220022 SPECI KATL 220022Z 02009KT 1 1/2SM RA BR OVC004 05/03 A3006 RMK AO2 SFC VIS 4 CIG 003V008 TWRINC P0006=
200701220022 SPECI KATL 220022Z 02009KT 1 1/2SM RA BR OVC004 05/03 A3006 RMK AO2 SFC VIS 4 CIG 003V008 TWRINC P0006=
200701212352 METAR KATL 212352Z 09010KT 1/2SM RA BR OVC004 04/03 A3002 RMK AO2 SFC VIS 4 SLP171 CIG 003V008 TWRINC P0004 60047 T00440033 10078 20044 56010=
200701212342 SPECI KATL 212342Z 09010KT 1/2SM -RA BR OVC006 04/03 A3002 RMK AO2 SFC VIS 4 CIG 003V008 P0002=
200701212342 SPECI KATL 212342Z 09010KT 1/2SM -RA BR OVC006 04/03 A3002 RMK AO2 SFC VIS 4 CIG 003V008 P0002=
200701212252 METAR KATL 212252Z 08008KT 2 1/2SM -RA BR BKN006 OVC016 04/03 A3003 RMK AO2 SFC VIS 4 SLP174 P0003 T00440028=
200701212156 SPECI KATL 212156Z 09010KT 2SM -RA BR BKN006 OVC020 05/03 A3003 RMK AO2 SFC VIS 4 P0000=
200701212156 SPECI KATL 212156Z 09010KT 2SM -RA BR BKN006 OVC020 05/03 A3003 RMK AO2 SFC VIS 4 P0000=
200701212152 METAR KATL 212152Z 09012KT 4SM -RA BR BKN006 OVC020 05/03 A3004 RMK AO2 SLP176 P0011 T00500033=
200701212145 SPECI KATL 212145Z 09011KT 4SM -RA BR BKN006 OVC020 05/03 A3004 RMK AO2 P0011=
200701212145 SPECI KATL 212145Z 09011KT 4SM -RA BR BKN006 OVC020 05/03 A3004 RMK AO2 P0011=
200701212052 METAR KATL 212052Z 07010KT 2SM R09R/5500VP6000FT RA BR FEW002 BKN024 OVC038 06/03 A3006 RMK AO2 SLP182 P0021 60029 T00560033 55019=
200701212050 SPECI KATL 212050Z 07010KT 1 3/4SM R09R/5500VP6000FT RA BR FEW002 BKN024 OVC038 06/03 A3005 RMK AO2 P0020=
200701212050 SPECI KATL 212050Z 07010KT 1 3/4SM R09R/5500VP6000FT RA BR FEW002 BKN024 OVC038 06/03 A3005 RMK AO2 P0020=
200701212039 SPECI KATL 212039Z 06009KT 3/4SM R09R/4500VP6000FT +RA BR BKN021 OVC028 06/03 A3006 RMK AO2 P0011=
200701212039 SPECI KATL 212039Z 06009KT 3/4SM R09R/4500VP6000FT +RA BR BKN021 OVC028 06/03 A3006 RMK AO2 P0011=
200701212037 SPECI KATL 212037Z VRB06KT 1 1/2SM R09R/4500VP6000FT +RA BR BKN021 OVC028 06/03 A3007 RMK AO2 PRESRR P0007=
200701212037 SPECI KATL 212037Z VRB06KT 1 1/2SM R09R/4500VP6000FT +RA BR BKN021 OVC028 06/03 A3007 RMK AO2 PRESRR P0007=
200701212020 SPECI KATL 212020Z 09011KT 5SM -RA BKN026 OVC045 06/03 A3003 RMK AO2 P0005=
200701212020 SPECI KATL 212020Z 09011KT 5SM -RA BKN026 OVC045 06/03 A3003 RMK AO2 P0005=
200701212012 SPECI KATL 212012Z 09012KT 2SM RA BKN026 OVC045 06/03 A3004 RMK AO2 P0004=
200701212012 SPECI KATL 212012Z 09012KT 2SM RA BKN026 OVC045 06/03 A3004 RMK AO2 P0004=
200701211952 METAR KATL 211952Z 09011KT 6SM RA FEW020 OVC029 07/03 A3004 RMK AO2 SLP177 P0006 T00670028=
200701211852 METAR KATL 211852Z 09010KT 10SM -RA FEW021 OVC028 08/02 A3007 RMK AO2 RAB13 SLP188 P0002 T00780022=
200701211826 SPECI KATL 211826Z 10011KT 5SM RA FEW019 OVC028 07/02 A3009 RMK AO2 RAB13 P0001=
200701211826 SPECI KATL 211826Z 10011KT 5SM RA FEW019 OVC028 07/02 A3009 RMK AO2 RAB13 P0001=
200701211812 SPECI KATL 211812Z 10010KT 10SM SCT019 OVC031 08/00 A3010 RMK AO2=
200701211812 SPECI KATL 211812Z 10010KT 10SM SCT019 OVC031 08/00 A3010 RMK AO2=
200701211752 METAR KATL 211752Z 11008KT 10SM OVC019 08/00 A3011 RMK AO2 SLP201 60000 T00780000 10078 20061 58023=
200701211652 METAR KATL 211652Z 11009KT 10SM BKN020 OVC034 08/M01 A3015 RMK AO2 RAB26E38 SLP212 P0000 T00781006=
200701211552 METAR KATL 211552Z 11011KT 10SM OVC022 07/M01 A3018 RMK AO2 SLP224 T00721011=
200701211452 METAR KATL 211452Z 11009G16KT 10SM OVC022 07/M02 A3018 RMK AO2 SLP225 60000 T00721022 51005=
200701211357 SPECI KATL 211357Z AUTO 11010G18KT 10SM BKN024 OVC046 07/M03 A3018 RMK AO2 TSNO=
200701211357 SPECI KATL 211357Z AUTO 11010G18KT 10SM BKN024 OVC046 07/M03 A3018 RMK AO2 TSNO=
200701211352 METAR KATL 211352Z 12011KT 10SM FEW024 OVC046 07/M03 A3018 RMK AO2 SLP225 T00671028=
200701211252 METAR KATL 211252Z 11011KT 10SM OVC050 06/M03 A3020 RMK AO2 RAB43E52 SLP232 P0000 T00611033=
200701211152 METAR KATL 211152Z 12011KT 10SM BKN050 OVC070 06/M04 A3017 RMK AO2 SLP220 T00611039 10067 20061 58020=
200701211052 METAR KATL 211052Z 12010KT 10SM BKN055 OVC070 06/M03 A3019 RMK AO2 SLP229 T00611033=
200701210952 METAR KATL 210952Z 12008KT 10SM BKN055 BKN150 OVC200 06/M04 A3021 RMK AO2 SLP233 T00611039=
200701210852 METAR KATL 210852Z 11008KT 10SM BKN060 BKN150 06/M04 A3023 RMK AO2 SLP240 T00611039 53002=
200701210752 METAR KATL 210752Z 11006KT 10SM FEW055 BKN150 BKN200 06/M04 A3023 RMK AO2 SLP242 T00611044=
200701210652 METAR KATL 210652Z 12007KT 10SM BKN065 OVC150 07/M05 A3022 RMK AO2 SLP236 T00671050=
200701210552 METAR KATL 210552Z 10007KT 10SM FEW100 BKN150 OVC200 07/M06 A3022 RMK AO2 SLP238 T00671056 10078 20056 58005=
200701210452 METAR KATL 210452Z COR 12005KT 10SM FEW100 OVC200 06/M06 A3024 RMK AO2 SLP244 T00611056 401060006=
200701210352 METAR KATL 210352Z 09007KT 10SM FEW100 SCT120 06/M06 A3024 RMK AO2 SLP244 T00611056=
200701210252 METAR KATL 210252Z 07008KT 10SM FEW090 BKN120 BKN150 07/M07 A3024 RMK AO2 SLP244 T00721067 58002=
200701210152 METAR KATL 210152Z 03006KT 10SM SCT085 SCT120 OVC200 07/M07 A3024 RMK AO2 SLP248 T00721072=
200701210052 METAR KATL 210052Z 35004KT 10SM FEW095 SCT110 BKN200 07/M07 A3025 RMK AO2 SLP251 T00721072=
200701202352 METAR KATL 202352Z 35008KT 10SM SCT100 BKN150 BKN250 08/M08 A3024 RMK AO2 SLP247 T00781083 10106 20078 51008=
200701202252 METAR KATL 202252Z 33007KT 10SM SCT120 SCT150 BKN250 08/M08 A3024 RMK AO2 SLP246 T00831083=
200701202152 METAR KATL 202152Z 32004KT 10SM FEW110 SCT150 BKN200 BKN250 09/M09 A3023 RMK AO2 SLP241 T00941089=
200701202052 METAR KATL 202052Z 32007KT 10SM FEW090 SCT120 BKN150 BKN200 10/M09 A3022 RMK AO2 SLP238 T01001089 56018=
200701201952 METAR KATL 201952Z VRB03KT 10SM SCT120 BKN150 BKN200 BKN250 09/M09 A3024 RMK AO2 SLP244 T00941089=
200701201852 METAR KATL 201852Z 28008KT 10SM SCT120 BKN150 BKN250 09/M08 A3024 RMK AO2 SLP246 T00941083=
200701201752 METAR KATL 201752Z 34010KT 300V010 10SM FEW120 BKN150 BKN200 09/M09 A3027 RMK AO2 SLP256 T00941094 10094 20006 58011=
200701201652 METAR KATL 201652Z 33008KT 10SM FEW150 SCT200 SCT250 08/M10 A3029 RMK AO2 SLP263 T00781100=
200701201552 METAR KATL 201552Z 32008KT 10SM SCT150 SCT200 BKN250 06/M08 A3032 RMK AO2 SLP272 T00561083=
200701201452 METAR KATL 201452Z 36008KT 10SM FEW150 SCT200 BKN250 04/M08 A3031 RMK AO2 SLP269 T00391083 53009=
200701201352 METAR KATL 201352Z 34010KT 10SM BKN250 01/M08 A3029 RMK AO2 SLP263 T00111078 $=
200701201252 METAR KATL 201252Z 32006KT 10SM FEW120 SCT150 BKN250 01/M08 A3029 RMK AO2 SLP265 T00111083=
200701201152 METAR KATL 201152Z 32008KT 10SM FEW180 01/M08 A3028 RMK AO2 SLP261 T00061083 10028 20006 51006=
200701201052 METAR KATL 201052Z 34007KT 10SM SCT150 BKN250 02/M09 A3027 RMK AO2 SLP257 T00171089=
200701200952 METAR KATL 200952Z 33013KT 10SM BKN150 BKN250 02/M08 A3027 RMK AO2 SLP257 T00171083=
200701200852 METAR KATL 200852Z 33009KT 10SM SCT150 BKN250 02/M08 A3026 RMK AO2 SLP253 T00171078 50008=
200701200752 METAR KATL 200752Z 32014KT 10SM SCT120 BKN150 BKN250 02/M08 A3027 RMK AO2 SLP254 T00221078=
200701200652 METAR KATL 200652Z 32013KT 10SM FEW120 02/M07 A3025 RMK AO2 SLP248 T00221072=
200701200552 METAR KATL 200552Z 33012G20KT 10SM SCT120 BKN150 BKN250 03/M08 A3024 RMK AO2 SLP244 T00281078 10067 20028 58005=
200701200452 METAR KATL 200452Z 33009KT 10SM BKN150 BKN250 03/M07 A3025 RMK AO2 SLP250 T00281072 401060028=
200701200352 METAR KATL 200352Z 33015G21KT 10SM FEW150 BKN250 04/M08 A3024 RMK AO2 SLP247 T00391083=
200701200252 METAR KATL 200252Z 32010KT 10SM FEW120 BKN150 BKN200 04/M07 A3025 RMK AO2 SLP250 T00441072 51008=
200701200152 METAR KATL 200152Z 32009KT 10SM BKN150 BKN200 06/M06 A3024 RMK AO2 SLP245 T00561056=
200701200052 METAR KATL 200052Z 30008KT 10SM FEW150 SCT200 06/M06 A3024 RMK AO2 SLP245 T00561056=
200701192352 METAR KATL 192352Z 29008KT 10SM BKN150 BKN250 07/M06 A3023 RMK AO2 SLP241 T00671056 10106 20061 53005=
200701192252 METAR KATL 192252Z 31009KT 10SM FEW150 SCT200 BKN250 07/M07 A3021 RMK AO2 SLP235 T00671067=
200701192152 METAR KATL 192152Z 32009KT 10SM BKN220 BKN280 08/M06 A3021 RMK AO2 SLP235 T00831056=
200701192052 METAR KATL 192052Z 32013KT 10SM FEW150 BKN220 BKN280 09/M04 A3021 RMK AO2 SLP234 T00941044 56016=
200701191952 METAR KATL 191952Z 33008KT 10SM FEW150 BKN220 BKN280 10/M03 A3021 RMK AO2 SLP235 T01001028=
200701191852 METAR KATL 191852Z 33013KT 10SM FEW100 SCT150 BKN220 BKN280 09/M03 A3023 RMK AO2 SLP242 T00891033=
200701191752 METAR KATL 191752Z 33011G19KT 10SM FEW100 BKN220 BKN280 09/M02 A3026 RMK AO2 SLP252 T00891017 10089 20044 58005=
200701191652 METAR KATL 191652Z 30014KT 10SM FEW100 BKN220 BKN280 07/M01 A3029 RMK AO2 SLP261 T00721006=
200701191552 METAR KATL 191552Z 32014KT 10SM FEW018 SCT150 BKN220 06/01 A3029 RMK AO2 SLP263 T00610006=
200701191543 SPECI KATL 191543Z 32015KT 10SM FEW018 SCT150 BKN220 07/01 A3029 RMK AO2=
200701191543 SPECI KATL 191543Z 32015KT 10SM FEW018 SCT150 BKN220 07/01 A3029 RMK AO2=
200701191452 METAR KATL 191452Z 31013KT 10SM BKN018 BKN150 BKN220 05/01 A3028 RMK AO2 SLP258 T00500011 50010=
200701191450 SPECI KATL 191450Z 30014KT 10SM BKN018 BKN150 BKN220 05/02 A3028 RMK AO2=
200701191450 SPECI KATL 191450Z 30014KT 10SM BKN018 BKN150 BKN220 05/02 A3028 RMK AO2=
200701191422 SPECI KATL 191422Z 31013KT 8SM SCT016 BKN150 BKN220 05/02 A3027 RMK AO2=
200701191422 SPECI KATL 191422Z 31013KT 8SM SCT016 BKN150 BKN220 05/02 A3027 RMK AO2=
200701191352 METAR KATL 191352Z 31013KT 7SM BKN016 BKN140 BKN250 05/02 A3026 RMK AO2 SLP255 T00500022=
200701191327 SPECI KATL 191327Z 30010KT 7SM BKN016 BKN140 OVC250 05/02 A3025 RMK AO2=
200701191327 SPECI KATL 191327Z 30010KT 7SM BKN016 BKN140 OVC250 05/02 A3025 RMK AO2=
200701191252 METAR KATL 191252Z 30011KT 8SM BKN014 BKN140 OVC250 05/03 A3024 RMK AO2 SLP249 T00500028=
200701191152 METAR KATL 191152Z 30010KT 8SM BKN013 OVC140 06/03 A3022 RMK AO2 SLP240 60001 70006 T00560033 10056 20044 51006=
200701191052 METAR KATL 191052Z 28010KT 7SM OVC015 06/04 A3021 RMK AO2 SLP237 T00560039=
200701190952 METAR KATL 190952Z 29009KT 3SM OVC015 06/04 A3020 RMK AO2 SFC VIS 7 RAE07 SLP234 P0000 T00560039=
200701190852 METAR KATL 190852Z 27009KT 3SM -RA BR BKN004 BKN015 OVC110 05/04 A3021 RMK AO2 SFC VIS 5 RAB31 SLP236 P0000 60001 T00500039 58008=
200701190817 SPECI KATL 190817Z 28008KT 3SM BR SCT004 OVC100 05/04 A3021 RMK AO2 SFC VIS 5=
200701190817 SPECI KATL 190817Z 28008KT 3SM BR SCT004 OVC100 05/04 A3021 RMK AO2 SFC VIS 5=
200701190811 SPECI KATL 190811Z 26008KT 3SM BR BKN004 OVC100 05/04 A3020 RMK AO2 SFC VIS 5=
200701190811 SPECI KATL 190811Z 26008KT 3SM BR BKN004 OVC100 05/04 A3020 RMK AO2 SFC VIS 5=
200701190752 METAR KATL 190752Z 26008KT 1/4SM BR OVC002 05/04 A3021 RMK AO2 SFC VIS 5 RAE10B34E44 CIG 002V007 SLP239 TWRINC P0000 T00500039=
200701190652 METAR KATL 190652Z 28008KT 1/4SM -RA BR OVC002 04/03 A3023 RMK AO2 SFC VIS 2 1/2 SLP242 TWRINC P0001 T00440033=
200701190552 METAR KATL 190552Z 26006KT 1/4SM -RA BR OVC002 04/03 A3023 RMK AO2 SFC VIS 1 1/2 DZE10RAB10 SLP244 P0000 60000 T00440033 10044 20028 58013=
200701190452 METAR KATL 190452Z 25006KT 1/4SM -DZ BR OVC002 04/03 A3025 RMK AO2 SFC VIS 1 3/4 SLP251 PCPN VRY LGT P0000 T00390028 400390000=
200701190434 SPECI KATL 190434Z 22006KT 1/4SM -DZ BR OVC002 04/03 A3024 RMK AO2 SFC VIS 1 1/2 P0000=
200701190434 SPECI KATL 190434Z 22006KT 1/4SM -DZ BR OVC002 04/03 A3024 RMK AO2 SFC VIS 1 1/2 P0000=
200701190352 METAR KATL 190352Z 25005KT 1SM -DZ BR OVC003 03/02 A3026 RMK AO2 SFC VIS 2 SLP254 CIG 002V006 PCPN VRY LGT P0000 T00330022=
200701190252 METAR KATL 190252Z 22005KT 1 1/2SM -DZ BR OVC004 03/02 A3027 RMK AO2 SFC VIS 2 SLP259 P0000 60000 T00330022 55003=
200701190219 SPECI KATL 190219Z 00000KT 1 1/2SM -DZ BR OVC004 03/02 A3027 RMK AO2 SFC VIS 4 CIG 002V007 PCPN VRY LGT P0000=
200701190219 SPECI KATL 190219Z 00000KT 1 1/2SM -DZ BR OVC004 03/02 A3027 RMK AO2 SFC VIS 4 CIG 002V007 PCPN VRY LGT P0000=
200701190152 METAR KATL 190152Z 18003KT 1/2SM -DZ BR OVC002 03/02 A3026 RMK AO2 SFC VIS 1 3/4 SLP257 CIG 001V005 PCPN VRY LGT P0000 T00280022=
200701190052 METAR KATL 190052Z 18004KT 1/2SM -DZ BR OVC004 03/02 A3027 RMK AO2 SFC VIS 2 DZB50 SLP261 CIG 001V006 P0000 T00280022=
200701190044 SPECI KATL 190044Z 18004KT 1/2SM BR OVC003 03/02 A3027 RMK AO2 SFC VIS 2 1/2 CIG 001V005=
200701190044 SPECI KATL 190044Z 18004KT 1/2SM BR OVC003 03/02 A3027 RMK AO2 SFC VIS 2 1/2 CIG 001V005=
200701190038 SPECI KATL 190038Z 20003KT 1SM BR OVC003 03/02 A3028 RMK AO2 SFC VIS 2 1/2 CIG 001V005=
200701190038 SPECI KATL 190038Z 20003KT 1SM BR OVC003 03/02 A3028 RMK AO2 SFC VIS 2 1/2 CIG 001V005=
200701190026 SPECI KATL 190026Z 18004KT 1/2SM BR OVC003 03/02 A3028 RMK AO2 SFC VIS 2 1/2 CIG 001V005=
200701190026 SPECI KATL 190026Z 18004KT 1/2SM BR OVC003 03/02 A3028 RMK AO2 SFC VIS 2 1/2 CIG 001V005=
200701190007 SPECI KATL 190007Z 00000KT 1/4SM BR OVC002 03/02 A3029 RMK AO2 SFC VIS 2 1/2=
200701190007 SPECI KATL 190007Z 00000KT 1/4SM BR OVC002 03/02 A3029 RMK AO2 SFC VIS 2 1/2=
200701182352 METAR KATL 182352Z 00000KT 0SM BR OVC002 03/02 A3028 RMK AO2 SFC VIS 2 SLP263 CIG 001V004 60000 T00280017 10028 20017 56008=
200701182252 METAR KATL 182252Z 00000KT 0SM BR OVC003 03/02 A3029 RMK AO2 SFC VIS 1 1/2 SLP265 CIG 001V004 T00280017=
200701182152 METAR KATL 182152Z 12003KT 0SM R09R/P6000FT BR OVC002 03/02 A3030 RMK AO2 SFC VIS 1 SLP269 T00280017=
200701182052 METAR KATL 182052Z 10004KT 0SM R09R/5000VP6000FT BR BCFG OVC003 02/02 A3031 RMK AO2 SFC VIS 1 SLP271 60000 T00220017 56017=
200701182047 SPECI KATL 182047Z 00000KT 0SM R09R/5000VP6000FT BR BCFG OVC003 02/01 A3031 RMK AO2 SFC VIS 1=
200701182047 SPECI KATL 182047Z 00000KT 0SM R09R/5000VP6000FT BR BCFG OVC003 02/01 A3031 RMK AO2 SFC VIS 1=
200701181952 METAR KATL 181952Z 10005KT 1/2SM R09R/5500VP6000FT BR BCFG OVC003 02/01 A3032 RMK AO2 SFC VIS 1 1/2 DZE47 SLP277 P0000 T00220011=
200701181852 METAR KATL 181852Z 05005KT 1/2SM -DZ BR BCFG OVC003 02/01 A3036 RMK AO2 SFC VIS 1 1/2 SLP288 P0000 T00220011 $=
200701181812 SPECI KATL 181812Z 06005KT 1/2SM -DZ BR OVC003 02/01 A3036 RMK AO2 SFC VIS 2 CIG 003V006 P0000=
200701181812 SPECI KATL 181812Z 06005KT 1/2SM -DZ BR OVC003 02/01 A3036 RMK AO2 SFC VIS 2 CIG 003V006 P0000=
200701181752 METAR KATL 181752Z 08004KT 1/2SM R09R/P6000FT -DZ BR OVC005 02/01 A3038 RMK AO2 SFC VIS 1 PRESFR SLP296 P0000 60005 T00170006 10022 20000 58020=
200701181736 SPECI KATL 181736Z 08003KT 1SM -DZ BR OVC005 02/01 A3040 RMK AO2 SFC VIS 2 P0000=
200701181736 SPECI KATL 181736Z 08003KT 1SM -DZ BR OVC005 02/01 A3040 RMK AO2 SFC VIS 2 P0000=
200701181701 SPECI KATL 181701Z 09006KT 1/2SM R09R/5500VP6000FT -DZ BR OVC005 02/01 A3039 RMK AO2 SFC VIS 1 1/2 CIG 003V007 P0000=
200701181701 SPECI KATL 181701Z 09006KT 1/2SM R09R/5500VP6000FT -DZ BR OVC005 02/01 A3039 RMK AO2 SFC VIS 1 1/2 CIG 003V007 P0000=
200701181655 SPECI KATL 181655Z 09006KT 1SM -DZ BR OVC005 02/00 A3040 RMK AO2 SFC VIS 2 1/2 CIG 003V007 PRESFR P0000=
200701181655 SPECI KATL 181655Z 09006KT 1SM -DZ BR OVC005 02/00 A3040 RMK AO2 SFC VIS 2 1/2 CIG 003V007 PRESFR P0000=
200701181652 METAR KATL 181652Z 11006KT 1 1/2SM -DZ BR OVC005 02/01 A3041 RMK AO2 SFC VIS 3 CIG 003V007 SLP305 P0000 T00170006=
200701181552 METAR KATL 181552Z 10006KT 1 1/2SM -DZ BR BKN005 BKN010 OVC018 01/M01 A3042 RMK AO2 SFC VIS 2 1/2 DZE31B47RAB31E47 SLP309 P0002 T00111006=
200701181535 SPECI KATL 181535Z 10008KT 1 1/2SM -RA BR BKN005 OVC020 01/M01 A3042 RMK AO2 SFC VIS 2 DZE31RAB31 P0002=
200701181535 SPECI KATL 181535Z 10008KT 1 1/2SM -RA BR BKN005 OVC020 01/M01 A3042 RMK AO2 SFC VIS 2 DZE31RAB31 P0002=
200701181526 SPECI KATL 181526Z 09006KT 2SM -DZ BR OVC005 01/M01 A3043 RMK AO2 P0001=
200701181526 SPECI KATL 181526Z 09006KT 2SM -DZ BR OVC005 01/M01 A3043 RMK AO2 P0001=
200701181509 SPECI KATL 181509Z 09006KT 1 1/2SM R09R/5500VP6000FT -DZ BR OVC005 01/M01 A3044 RMK AO2 TWR VIS 2 P0001=
200701181509 SPECI KATL 181509Z 09006KT 1 1/2SM R09R/5500VP6000FT -DZ BR OVC005 01/M01 A3044 RMK AO2 TWR VIS 2 P0001=
200701181452 METAR KATL 181452Z 09005KT 2SM -DZ BR OVC005 01/M01 A3044 RMK AO2 SFC VIS 2 1/2 RAB16E48UPB33E35DZB48FZRAE16 CIG 004V008 SLP318 P0001 60003 T00061006 56002=
200701181433 SPECI KATL 181433Z 09007KT 2SM UP BR OVC005 01/M01 A3043 RMK AO2 SFC VIS 2 1/2 RAB16E33UPB33FZRAE16 CIG 004V009 P0001=
200701181433 SPECI KATL 181433Z 09007KT 2SM UP BR OVC005 01/M01 A3043 RMK AO2 SFC VIS 2 1/2 RAB16E33UPB33FZRAE16 CIG 004V009 P0001=
200701181417 SPECI KATL 181417Z 08009KT 1 3/4SM -RA BR BKN005 OVC018 01/M01 A3043 RMK AO2 TWR VIS 2 RAB16FZRAE16 CIG 004V011 P0001=
200701181417 SPECI KATL 181417Z 08009KT 1 3/4SM -RA BR BKN005 OVC018 01/M01 A3043 RMK AO2 TWR VIS 2 RAB16FZRAE16 CIG 004V011 P0001=
200701181352 METAR KATL 181352Z 07009KT 2SM -FZRA BR OVC005 00/M01 A3044 RMK AO2 CIG 004V010 SLP317 P0002 T00001011=
200701181311 SPECI KATL 181311Z 07010KT 2 1/2SM -FZRA BR OVC007 00/M02 A3044 RMK AO2 SFC VIS 3 P0001=
200701181311 SPECI KATL 181311Z 07010KT 2 1/2SM -FZRA BR OVC007 00/M02 A3044 RMK AO2 SFC VIS 3 P0001=
200701181252 METAR KATL 181252Z 07013KT 4SM -FZRA BR BKN007 OVC020 00/M02 A3044 RMK AO2 CIG 005V009 SLP317 P0000 T00001017=
200701181152 METAR KATL 181152Z 07011KT 4SM -FZRA BR BKN007 OVC013 00/M02 A3045 RMK AO2 RAE14FZRAB14 SLP318 P0002 60006 70006 T00001017 10028 20000 53002=
200701181115 SPECI KATL 181115Z 06012KT 5SM -FZRA BR OVC008 00/M02 A3044 RMK AO2 RAE14FZRAB14 CIG 005V011 P0001=
200701181115 SPECI KATL 181115Z 06012KT 5SM -FZRA BR OVC008 00/M02 A3044 RMK AO2 RAE14FZRAB14 CIG 005V011 P0001=
200701181052 METAR KATL 181052Z 06009KT 6SM -RA BR OVC008 01/M01 A3044 RMK AO2 RAB44FZRAE44 CIG 005V012 SLP314 P0002 T00061011=
200701181045 SPECI KATL 181045Z 07008KT 6SM -RA BR BKN008 OVC015 01/M01 A3043 RMK AO2 RAB44FZRAE44 P0002=
200701181045 SPECI KATL 181045Z 07008KT 6SM -RA BR BKN008 OVC015 01/M01 A3043 RMK AO2 RAB44FZRAE44 P0002=
200701181010 SPECI KATL 181010Z 08007KT 4SM -FZRA BR BKN006 BKN010 OVC016 00/M01 A3043 RMK AO2 CIG 005V010 P0001=
200701181010 SPECI KATL 181010Z 08007KT 4SM -FZRA BR BKN006 BKN010 OVC016 00/M01 A3043 RMK AO2 CIG 005V010 P0001=
200701180952 METAR KATL 180952Z COR 08008KT 5SM -FZRA BR FEW006 BKN010 OVC016 00/M02 A3042 RMK AO2 SLP310 DZE13RAB13E34FZRAB34 P0001 T00001017=
200701180936 SPECI KATL 180936Z 08010KT 4SM -FZRA BR BKN010 OVC016 00/M02 A3043 RMK AO2 CIG 007V013 DZE13RAB13E34FZRAB34 P0000=
200701180936 SPECI KATL 180936Z 08010KT 4SM -FZRA BR BKN010 OVC016 00/M02 A3043 RMK AO2 CIG 007V013 DZE13RAB13E34FZRAB34 P0000=
200701180852 METAR KATL 180852Z 09010KT 8SM -DZ BKN010 OVC017 01/M02 A3044 RMK AO2 RAE12DZB22 CIG 007V013 SLP315 P0000 60001 T00061017 58012=
200701180823 SPECI KATL 180823Z 09010KT 8SM -DZ FEW007 BKN010 OVC020 01/M02 A3044 RMK AO2 RAE12DZB22 P0000=
200701180823 SPECI KATL 180823Z 09010KT 8SM -DZ FEW007 BKN010 OVC020 01/M02 A3044 RMK AO2 RAE12DZB22 P0000=
200701180818 SPECI KATL 180818Z 10009KT 8SM SCT009 OVC020 01/M02 A3044 RMK AO2 RAE12 P0000=
200701180818 SPECI KATL 180818Z 10009KT 8SM SCT009 OVC020 01/M02 A3044 RMK AO2 RAE12 P0000=
200701180752 METAR KATL 180752Z 09008KT 6SM -RA OVC020 01/M02 A3045 RMK AO2 SLP318 P0001 T00061022=
200701180652 METAR KATL 180652Z 12009KT 10SM -RA OVC024 02/M04 A3048 RMK AO2 RAB20 SLP328 P0000 T00221039=
200701180640 SPECI KATL 180640Z 09009KT 10SM -RA BKN024 OVC046 02/M04 A3049 RMK AO2 RAB20 P0000=
200701180640 SPECI KATL 180640Z 09009KT 10SM -RA BKN024 OVC046 02/M04 A3049 RMK AO2 RAB20 P0000=
200701180552 METAR KATL 180552Z 10012KT 10SM FEW035 OVC055 03/M05 A3048 RMK AO2 RAE18 SLP327 931000 P0000 60000 T00281050 10050 20022 58011=
200701180452 METAR KATL 180452Z 08012KT 10SM -RA BKN032 OVC065 03/M04 A3051 RMK AO2 RAB48 SLP339 PCPN VRY LGT P0000 T00281044 400721006=
200701180352 METAR KATL 180352Z 09010KT 10SM FEW050 OVC070 03/M04 A3051 RMK AO2 RAE25 SLP338 P0000 T00281044=
200701180252 METAR KATL 180252Z 09014KT 10SM -RA BKN080 OVC110 03/M04 A3051 RMK AO2 PLE20 SLP340 PCPN VRY LGT P0000 60000 T00281039 50000=
200701180220 SPECI KATL 180220Z 09011KT 10SM -RA FEW045 BKN060 OVC090 03/M04 A3052 RMK AO2 PLE20 P0000=
200701180220 SPECI KATL 180220Z 09011KT 10SM -RA FEW045 BKN060 OVC090 03/M04 A3052 RMK AO2 PLE20 P0000=
200701180152 METAR KATL 180152Z 10009KT 10SM -PLRA FEW060 BKN075 OVC090 04/M06 A3052 RMK AO2 RAB24PLB25 SLP343 P0000 T00391056=
200701180125 SPECI KATL 180125Z 09011KT 10SM -PLRA FEW075 OVC090 04/M07 A3053 RMK AO2 RAB24PLB25 P0000=
200701180125 SPECI KATL 180125Z 09011KT 10SM -PLRA FEW075 OVC090 04/M07 A3053 RMK AO2 RAB24PLB25 P0000=
200701180052 METAR KATL 180052Z 09013KT 10SM OVC090 04/M07 A3053 RMK AO2 SLP346 T00441067=
200701172352 METAR KATL 172352Z 08010KT 10SM OVC090 05/M07 A3051 RMK AO2 SLP340 T00501067 10072 20050 53010=
200701172252 METAR KATL 172252Z 08017KT 10SM FEW100 BKN140 OVC200 06/M07 A3048 RMK AO2 SLP328 VIRGA S-SW T00561072=
200701172152 METAR KATL 172152Z 08011KT 10SM SCT150 BKN180 BKN250 06/M07 A3049 RMK AO2 SLP332 VIRGA DSNT W T00611067=
200701172052 METAR KATL 172052Z 07013KT 10SM FEW150 BKN180 BKN250 07/M07 A3048 RMK AO2 SLP328 T00671067 56016=
200701171952 METAR KATL 171952Z 06012KT 10SM FEW150 BKN180 BKN250 07/M07 A3049 RMK AO2 SLP331 ACC DSNT SE T00671067=
200701171852 METAR KATL 171852Z 08012KT 10SM FEW150 SCT180 BKN250 06/M07 A3048 RMK AO2 SLP329 T00611072=
200701171752 METAR KATL 171752Z 07012KT 10SM FEW150 SCT180 BKN250 07/M07 A3053 RMK AO2 SLP345 T00671072 10067 20000 58003=
200701171652 METAR KATL 171652Z 10010KT 10SM FEW150 SCT180 SCT250 06/M07 A3055 RMK AO2 SLP354 T00561072=
200701171552 METAR KATL 171552Z 07016KT 10SM SCT150 BKN180 BKN250 04/M06 A3053 RMK AO2 SLP346 T00441061=
200701171452 METAR KATL 171452Z 06016G20KT 10SM BKN150 BKN180 BKN250 02/M06 A3054 RMK AO2 SLP350 VIRGA S T00221061 51018=
200701171352 METAR KATL 171352Z 04010KT 10SM BKN150 BKN250 01/M05 A3052 RMK AO2 SLP346 T00111050=
200701171252 METAR KATL 171252Z 03009KT 10SM FEW150 BKN200 BKN250 01/M06 A3050 RMK AO2 SLP338 T00061056=
200701171152 METAR KATL 171152Z 02006KT 10SM BKN150 OVC200 00/M06 A3048 RMK AO2 SLP331 T00001056 10006 21006 53014=
200701171052 METAR KATL 171052Z 01008KT 10SM SCT150 OVC200 00/M06 A3046 RMK AO2 SLP323 T00001056=
200701170952 METAR KATL 170952Z 35009KT 10SM BKN150 OVC200 00/M06 A3044 RMK AO2 SLP317 T00001056=
200701170852 METAR KATL 170852Z 35010KT 10SM FEW120 BKN150 OVC200 00/M06 A3044 RMK AO2 SLP316 T00001056 50007=
200701170752 METAR KATL 170752Z 34010KT 10SM FEW120 BKN150 OVC200 01/M06 A3044 RMK AO2 SLP315 T00061056=
200701170652 METAR KATL 170652Z 35007KT 10SM FEW110 SCT150 OVC200 01/M06 A3043 RMK AO2 SLP312 T00061056=
200701170552 METAR KATL 170552Z 34011KT 10SM FEW100 SCT120 OVC150 01/M05 A3042 RMK AO2 SLP307 931000 60000 T00061050 10022 20006 51006=
200701170452 METAR KATL 170452Z 34015G20KT 10SM FEW090 SCT120 OVC150 01/M05 A3041 RMK AO2 SLP304 T00061050 401390006=
200701170352 METAR KATL 170352Z 34014G18KT 10SM FEW025 BKN120 OVC150 01/M05 A3042 RMK AO2 RAB05E23PLB05E23 SLP309 P0000 T00111050=
200701170325 SPECI KATL 170325Z 33015KT 10SM FEW025 SCT085 BKN120 OVC150 01/M04 A3041 RMK AO2 RAB05E23PLB05E23 P0000=
200701170325 SPECI KATL 170325Z 33015KT 10SM FEW025 SCT085 BKN120 OVC150 01/M04 A3041 RMK AO2 RAB05E23PLB05E23 P0000=
200701170305 SPECI KATL 170305Z 35012KT 10SM -PLRA FEW025 OVC090 01/M05 A3038 RMK AO2 RAB05PLB05 P0000=
200701170305 SPECI KATL 170305Z 35012KT 10SM -PLRA FEW025 OVC090 01/M05 A3038 RMK AO2 RAB05PLB05 P0000=
200701170252 METAR KATL 170252Z 35014G21KT 10SM FEW025 BKN100 OVC150 01/M05 A3040 RMK AO2 SLP300 T00111050 51012=
200701170152 METAR KATL 170152Z 33013G17KT 10SM FEW025 SCT110 OVC150 01/M04 A3039 RMK AO2 SLP296 T00111044=
200701170107 SPECI KATL 170107Z 33018G23KT 10SM SCT023 BKN120 OVC150 02/M04 A3038 RMK AO2=
200701170107 SPECI KATL 170107Z 33018G23KT 10SM SCT023 BKN120 OVC150 02/M04 A3038 RMK AO2=
200701170052 METAR KATL 170052Z 33012KT 10SM BKN023 BKN120 OVC150 02/M04 A3038 RMK AO2 SLP293 T00171039=
200701162352 METAR KATL 162352Z 32016G21KT 10SM SCT025 BKN150 OVC200 02/M04 A3036 RMK AO2 SLP286 T00221039 10072 20022 53038=
200701162252 METAR KATL 162252Z 31017G22KT 10SM FEW025 BKN150 OVC200 03/M03 A3032 RMK AO2 SLP274 T00281033=
200701162152 METAR KATL 162152Z 32018G22KT 10SM FEW024 SCT100 OVC150 04/M03 A3027 RMK AO2 SLP255 VIRGA OHD AND ALQDS T00391028=
200701162052 METAR KATL 162052Z 32015G19KT 10SM FEW025 SCT110 OVC150 04/M02 A3024 RMK AO2 SLP245 BINOVC DSNT NW T00441017 53004=
200701161952 METAR KATL 161952Z 34014G20KT 10SM SCT022 BKN110 BKN150 BKN250 06/M01 A3022 RMK AO2 SLP236 T00561011=
200701161906 SPECI KATL 161906Z 30018KT 10SM SCT022 BKN120 BKN150 BKN250 06/00 A3023 RMK AO2=
200701161906 SPECI KATL 161906Z 30018KT 10SM SCT022 BKN120 BKN150 BKN250 06/00 A3023 RMK AO2=
200701161852 METAR KATL 161852Z 32014KT 10SM BKN022 BKN120 BKN150 BKN250 06/00 A3023 RMK AO2 SLP239 BKN022 V SCT T00610000=
200701161847 SPECI KATL 161847Z 33014G19KT 10SM BKN022 BKN120 BKN150 BKN250 06/01 A3023 RMK AO2 BKN022 V SCT=
200701161847 SPECI KATL 161847Z 33014G19KT 10SM BKN022 BKN120 BKN150 BKN250 06/01 A3023 RMK AO2 BKN022 V SCT=
200701161752 METAR KATL 161752Z 32013G21KT 10SM SCT020 BKN120 BKN150 BKN250 07/01 A3024 RMK AO2 PK WND 33026/1729 SLP243 T00720011 10083 20061 50005=
200701161652 METAR KATL 161652Z 31014KT 10SM SCT018 BKN120 OVC150 07/02 A3025 RMK AO2 SLP246 SCT018 V BKN T00670017=
200701161552 METAR KATL 161552Z 31014KT 10SM FEW014 SCT018 SCT120 OVC150 07/03 A3024 RMK AO2 SLP242 T00670033=
200701161543 SPECI KATL 161543Z 32012KT 10SM FEW014 SCT018 SCT120 OVC150 07/03 A3023 RMK AO2=
200701161543 SPECI KATL 161543Z 32012KT 10SM FEW014 SCT018 SCT120 OVC150 07/03 A3023 RMK AO2=
200701161452 METAR KATL 161452Z 31015KT 10SM BKN018 BKN120 BKN150 OVC250 07/04 A3023 RMK AO2 SLP238 BKN018 V SCT T00720039 53023=
200701161427 SPECI KATL 161427Z 31012KT 10SM FEW012 BKN016 BKN020 BKN150 OVC250 08/04 A3022 RMK AO2=
200701161427 SPECI KATL 161427Z 31012KT 10SM FEW012 BKN016 BKN020 BKN150 OVC250 08/04 A3022 RMK AO2=
200701161352 METAR KATL 161352Z 31012KT 10SM BKN012 BKN120 BKN180 BKN250 08/05 A3020 RMK AO2 SLP227 T00780050=
200701161336 SPECI KATL 161336Z 31012KT 10SM BKN010 BKN020 BKN120 OVC200 08/06 A3020 RMK AO2=
200701161336 SPECI KATL 161336Z 31012KT 10SM BKN010 BKN020 BKN120 OVC200 08/06 A3020 RMK AO2=
200701161252 METAR KATL 161252Z 30014G17KT 10SM OVC008 08/06 A3019 RMK AO2 CIG 007V012 SLP223 T00780056=
200701161209 SPECI KATL 161209Z 30010KT 10SM OVC008 08/07 A3017 RMK AO2 CIG 007V013 $=
200701161209 SPECI KATL 161209Z 30010KT 10SM OVC008 08/07 A3017 RMK AO2 CIG 007V013 $=
200701161152 METAR KATL 161152Z 30009KT 10SM OVC010 08/06 A3016 RMK AO2 RAE01B29E51 SLP212 P0000 60008 70014 T00830061 10133 20083 51016 $=
200701161100 SPECI KATL 161100Z 31011KT 10SM -RA BKN012 BKN055 OVC120 09/07 A3014 RMK AO2 P0000 $=
200701161100 SPECI KATL 161100Z 31011KT 10SM -RA BKN012 BKN055 OVC120 09/07 A3014 RMK AO2 P0000 $=
200701161052 METAR KATL 161052Z 31011KT 10SM -RA FEW019 SCT032 BKN055 09/07 A3015 RMK AO2 SLP206 P0001 T00890067 $=
200701161047 SPECI KATL 161047Z 31012KT 10SM -RA SCT019 BKN032 OVC120 09/07 A3014 RMK AO2 P0001 $=
200701161047 SPECI KATL 161047Z 31012KT 10SM -RA SCT019 BKN032 OVC120 09/07 A3014 RMK AO2 P0001 $=
200701161029 SPECI KATL 161029Z 31016G24KT 10SM -RA SCT008 SCT012 OVC017 09/07 A3014 RMK AO2 P0001 $=
200701161029 SPECI KATL 161029Z 31016G24KT 10SM -RA SCT008 SCT012 OVC017 09/07 A3014 RMK AO2 P0001 $=
200701160952 METAR KATL 160952Z 32009KT 10SM -RA BKN006 OVC014 11/09 A3011 RMK AO2 CIG 003V007 SLP194 P0003 T01060094 $=
200701160905 SPECI KATL 160905Z 29010KT 10SM -RA BKN006 BKN010 OVC017 11/10 A3010 RMK AO2 P0001 $=
200701160905 SPECI KATL 160905Z 29010KT 10SM -RA BKN006 BKN010 OVC017 11/10 A3010 RMK AO2 P0001 $=
200701160852 METAR KATL 160852Z 29012G18KT 7SM -RA SCT008 BKN012 OVC030 12/11 A3011 RMK AO2 SLP192 P0001 60004 T01220106 53005 $=
200701160813 SPECI KATL 160813Z 29008KT 5SM -RA BR FEW006 BKN010 OVC035 13/11 A3011 RMK AO2 P0000 $=
200701160813 SPECI KATL 160813Z 29008KT 5SM -RA BR FEW006 BKN010 OVC035 13/11 A3011 RMK AO2 P0000 $=
200701160805 SPECI KATL 160805Z 29010KT 8SM -RA BKN006 BKN019 OVC032 13/11 A3010 RMK AO2 P0000 $=
200701160805 SPECI KATL 160805Z 29010KT 8SM -RA BKN006 BKN019 OVC032 13/11 A3010 RMK AO2 P0000 $=
200701160752 METAR KATL 160752Z 29008KT 10SM -RA FEW006 BKN034 OVC040 13/11 A3010 RMK AO2 SLP190 P0002 T01280111 $=
200701160735 SPECI KATL 160735Z 30009KT 10SM -RA SCT005 BKN032 OVC040 13/11 A3010 RMK AO2 P0002 $=
200701160735 SPECI KATL 160735Z 30009KT 10SM -RA SCT005 BKN032 OVC040 13/11 A3010 RMK AO2 P0002 $=
200701160652 METAR KATL 160652Z 29009KT 4SM -RA BR BKN005 OVC012 13/12 A3010 RMK AO2 SLP188 P0001 T01330117 $=
200701160623 SPECI KATL 160623Z 28006KT 6SM -RA BR BKN005 OVC030 13/12 A3009 RMK AO2 P0001 $=
200701160623 SPECI KATL 160623Z 28006KT 6SM -RA BR BKN005 OVC030 13/12 A3009 RMK AO2 P0001 $=
200701160552 METAR KATL 160552Z 26004KT 6SM -RA BR FEW007 BKN032 OVC045 13/12 A3009 RMK AO2 SLP187 P0000 60006 T01330122 10194 20133 56006 $=
200701160452 METAR KATL 160452Z 30007KT 10SM -RA FEW007 BKN038 OVC050 14/12 A3010 RMK AO2 RAE02B21 SLP188 PCPN VRY LGT P0001 T01390122 402280139=
200701160413 SPECI KATL 160413Z 31006KT 10SM SCT007 BKN035 OVC050 14/12 A3010 RMK AO2 RAE02 P0000=
200701160413 SPECI KATL 160413Z 31006KT 10SM SCT007 BKN035 OVC050 14/12 A3010 RMK AO2 RAE02 P0000=
200701160352 METAR KATL 160352Z 31006KT 8SM -RA BKN006 BKN040 OVC055 14/12 A3011 RMK AO2 SLP192 CIG 004V008 P0001 T01390122=
200701160305 SPECI KATL 160305Z 32008KT 5SM -RA BR BKN006 OVC035 14/13 A3011 RMK AO2 CIG 003V008 P0000=
200701160305 SPECI KATL 160305Z 32008KT 5SM -RA BR BKN006 OVC035 14/13 A3011 RMK AO2 CIG 003V008 P0000=
200701160252 METAR KATL 160252Z 32007KT 4SM -RA BR SCT006 BKN012 OVC030 14/13 A3011 RMK AO2 SLP194 P0002 60004 T01440128 53004=
200701160206 SPECI KATL 160206Z 34011KT 4SM -RA BR SCT007 BKN028 OVC040 14/13 A3010 RMK AO2 P0001=
200701160206 SPECI KATL 160206Z 34011KT 4SM -RA BR SCT007 BKN028 OVC040 14/13 A3010 RMK AO2 P0001=
200701160152 METAR KATL 160152Z 33011KT 4SM -RA BR BKN007 BKN025 OVC045 14/13 A3010 RMK AO2 RAE21B49 SLP191 P0001 T01440128=
200701160138 SPECI KATL 160138Z 32009KT 10SM BKN007 BKN025 OVC045 14/13 A3010 RMK AO2 RAE21 P0001=
200701160138 SPECI KATL 160138Z 32009KT 10SM BKN007 BKN025 OVC045 14/13 A3010 RMK AO2 RAE21 P0001=
200701160134 SPECI KATL 160134Z 32009KT 10SM SCT007 BKN025 OVC045 14/13 A3010 RMK AO2 RAE21 P0001=
200701160134 SPECI KATL 160134Z 32009KT 10SM SCT007 BKN025 OVC045 14/13 A3010 RMK AO2 RAE21 P0001=
200701160119 SPECI KATL 160119Z 33009KT 7SM -RA SCT008 BKN032 OVC045 14/13 A3009 RMK AO2 P0001=
200701160119 SPECI KATL 160119Z 33009KT 7SM -RA SCT008 BKN032 OVC045 14/13 A3009 RMK AO2 P0001=
200701160052 METAR KATL 160052Z 33016KT 5SM -RA BR SCT008 BKN022 OVC040 14/13 A3010 RMK AO2 WSHFT 0036 SLP190 P0001 T01440128 $=
200701160050 SPECI KATL 160050Z 33017KT 4SM RA BR SCT008 BKN022 OVC040 15/13 A3010 RMK AO2 WSHFT 0036 P0001 $=
200701160050 SPECI KATL 160050Z 33017KT 4SM RA BR SCT008 BKN022 OVC040 15/13 A3010 RMK AO2 WSHFT 0036 P0001 $=
200701160040 SPECI KATL 160040Z 31017G24KT 3SM RA FEW015 BKN025 OVC040 16/13 A3009 RMK AO2 P0000=
200701160040 SPECI KATL 160040Z 31017G24KT 3SM RA FEW015 BKN025 OVC040 16/13 A3009 RMK AO2 P0000=
200701152352 METAR KATL 152352Z 23007KT 8SM -RA BKN038 BKN045 OVC060 19/13 A3008 RMK AO2 RAB50 SLP182 P0000 60000 T01940133 10228 20194 50005=
200701152252 METAR KATL 152252Z 25011KT 10SM SCT035 BKN048 OVC060 19/13 A3008 RMK AO2 SLP182 T01940133=
200701152152 METAR KATL 152152Z 22008KT 7SM BKN043 BKN050 BKN060 21/12 A3007 RMK AO2 SLP176 T02110122=
200701152052 METAR KATL 152052Z 23011KT 10SM FEW038 OVC055 22/12 A3006 RMK AO2 SLP176 BINOVC T02170117 56017=
200701151952 METAR KATL 151952Z 22018KT 9SM SCT043 BKN180 22/11 A3007 RMK AO2 SLP177 T02170111=
200701151852 METAR KATL 151852Z 23018G22KT 8SM FEW042 SCT120 BKN180 22/11 A3009 RMK AO2 SLP183 T02220111=
200701151752 METAR KATL 151752Z 22010KT 8SM FEW028 SCT055 BKN180 20/13 A3012 RMK AO2 SLP193 60000 T02000128 10206 20161 58015=
200701151725 SPECI KATL 151725Z 22011KT 9SM SCT024 BKN050 20/13 A3014 RMK AO2=
200701151725 SPECI KATL 151725Z 22011KT 9SM SCT024 BKN050 20/13 A3014 RMK AO2=
200701151652 METAR KATL 151652Z 22008KT 8SM SCT019 BKN024 BKN050 19/14 A3015 RMK AO2 SLP205 T01890139=
200701151624 SPECI KATL 151624Z 21008KT 8SM FEW016 SCT024 BKN055 19/14 A3015 RMK AO2=
200701151624 SPECI KATL 151624Z 21008KT 8SM FEW016 SCT024 BKN055 19/14 A3015 RMK AO2=
200701151552 METAR KATL 151552Z 21010KT 7SM FEW013 BKN020 BKN055 18/14 A3016 RMK AO2 SLP210 T01830144=
200701151452 METAR KATL 151452Z 22008KT 9SM BKN010 BKN050 17/14 A3017 RMK AO2 CIG 007V015 SLP214 60000 T01720144 53003=
200701151401 SPECI KATL 151401Z 19008KT 9SM BKN008 OVC013 17/14 A3016 RMK AO2=
200701151401 SPECI KATL 151401Z 19008KT 9SM BKN008 OVC013 17/14 A3016 RMK AO2=
200701151352 METAR KATL 151352Z 20005KT 9SM BKN010 BKN015 OVC035 17/15 A3016 RMK AO2 RAB08E23 CIG 007V011 SLP208 P0000 T01670150=
200701151329 SPECI KATL 151329Z 20007KT 9SM FEW005 BKN010 OVC035 17/14 A3017 RMK AO2 RAB08E23 CIG 007V014 BINOVC P0000=
200701151329 SPECI KATL 151329Z 20007KT 9SM FEW005 BKN010 OVC035 17/14 A3017 RMK AO2 RAB08E23 CIG 007V014 BINOVC P0000=
200701151252 METAR KATL 151252Z 20007KT 10SM OVC007 17/14 A3017 RMK AO2 CIG 005V009 SLP212 T01670144=
200701151155 SPECI KATL 151155Z 20008KT 10SM OVC005 16/14 A3016 RMK AO2=
200701151155 SPECI KATL 151155Z 20008KT 10SM OVC005 16/14 A3016 RMK AO2=
200701151152 METAR KATL 151152Z 20008KT 1/2SM OVC003 16/14 A3016 RMK AO2 SFC VIS 9 CIG 002V008 SLP210 TWRINC T01610144 10161 20150 53001=
200701151121 SPECI KATL 151121Z 19008KT 1/2SM OVC003 16/14 A3016 RMK AO2 SFC VIS 7 TWRINC=
200701151121 SPECI KATL 151121Z 19008KT 1/2SM OVC003 16/14 A3016 RMK AO2 SFC VIS 7 TWRINC=
200701151113 SPECI KATL 151113Z 21007KT 1SM OVC003 16/14 A3017 RMK AO2 SFC VIS 8=
200701151113 SPECI KATL 151113Z 21007KT 1SM OVC003 16/14 A3017 RMK AO2 SFC VIS 8=
200701151052 METAR KATL 151052Z 19006KT 10SM OVC005 16/14 A3015 RMK AO2 SLP207 T01560139=
200701151032 SPECI KATL 151032Z 20006KT 10SM BKN007 OVC050 16/14 A3015 RMK AO2=
200701151032 SPECI KATL 151032Z 20006KT 10SM BKN007 OVC050 16/14 A3015 RMK AO2=
200701151028 SPECI KATL 151028Z 18009KT 10SM SCT007 OVC050 16/14 A3014 RMK AO2=
200701151028 SPECI KATL 151028Z 18009KT 10SM SCT007 OVC050 16/14 A3014 RMK AO2=
200701150952 METAR KATL 150952Z 18008KT 10SM BKN050 16/13 A3014 RMK AO2 SLP203 T01560133=
200701150852 METAR KATL 150852Z 18009KT 10SM BKN050 OVC150 16/13 A3016 RMK AO2 SLP208 T01560128 57013=
200701150752 METAR KATL 150752Z 19005KT 10SM SCT050 BKN150 BKN250 15/12 A3018 RMK AO2 SLP215 T01500117=
200701150652 METAR KATL 150652Z 18007KT 10SM SCT050 BKN150 BKN250 16/12 A3018 RMK AO2 SLP215 T01560117 $=
200701150552 METAR KATL 150552Z 18005KT 10SM BKN055 16/12 A3020 RMK AO2 SLP222 T01610117 10183 20156 58010 $=
200701150452 METAR KATL 150452Z 17006KT 10SM SCT050 17/12 A3021 RMK AO2 SLP228 T01670117 402110117=
200701150352 METAR KATL 150352Z 14005KT 10SM SCT050 16/12 A3022 RMK AO2 SLP231 T01610117=
200701150252 METAR KATL 150252Z 15003KT 10SM BKN055 17/12 A3023 RMK AO2 SLP235 T01670122 55000=
200701150152 METAR KATL 150152Z 15004KT 10SM SCT040 SCT055 17/12 A3023 RMK AO2 SLP234 T01720122=
200701150052 METAR KATL 150052Z 15006KT 10SM SCT041 SCT055 18/12 A3023 RMK AO2 SLP235 T01780122=
200701142352 METAR KATL 142352Z 14005KT 10SM SCT041 BKN055 BKN150 18/12 A3023 RMK AO2 SLP235 T01830117 10211 20183 53006=
200701142252 METAR KATL 142252Z 16004KT 10SM BKN050 BKN120 BKN150 19/12 A3022 RMK AO2 SLP231 T01940117=
200701142152 METAR KATL 142152Z 18006KT 10SM SCT049 SCT120 BKN150 BKN250 20/11 A3021 RMK AO2 SLP227 T02000111=
200701142052 METAR KATL 142052Z 20007KT 10SM BKN049 BKN150 21/11 A3021 RMK AO2 SLP227 T02060111 56021=
200701141952 METAR KATL 141952Z 20009KT 10SM BKN047 21/11 A3022 RMK AO2 SLP231 T02110111=
200701141852 METAR KATL 141852Z 21010KT 10SM BKN041 BKN080 BKN250 21/11 A3024 RMK AO2 SLP236 T02060111=
200701141752 METAR KATL 141752Z 19007KT 10SM FEW034 SCT150 BKN250 20/12 A3028 RMK AO2 SLP250 T02000117 10200 20117 58017=
200701141652 METAR KATL 141652Z 18004KT 10SM BKN047 BKN250 18/13 A3032 RMK AO2 SLP263 T01780128=
200701141552 METAR KATL 141552Z 18006KT 10SM OVC045 17/12 A3034 RMK AO2 SLP273 T01670117=
200701141452 METAR KATL 141452Z 14003KT 10SM BKN045 BKN250 15/11 A3033 RMK AO2 SLP269 T01500111 51006=
200701141352 METAR KATL 141352Z 19004KT 10SM BKN047 13/10 A3032 RMK AO2 SLP267 T01330100=
200701141252 METAR KATL 141252Z VRB05KT 10SM BKN047 BKN250 12/10 A3032 RMK AO2 SLP266 T01220100=
200701141152 METAR KATL 141152Z 00000KT 10SM BKN045 14/10 A3031 RMK AO2 SLP263 T01390100 10150 20122 53007=
200701141052 METAR KATL 141052Z 12003KT 10SM BKN043 13/10 A3030 RMK AO2 SLP259 T01280100=
200701140952 METAR KATL 140952Z 00000KT 10SM BKN043 14/10 A3029 RMK AO2 SLP254 T01390100=
200701140852 METAR KATL 140852Z 15004KT 10SM BKN043 14/11 A3029 RMK AO2 SLP254 T01440106 56000=
200701140752 METAR KATL 140752Z 00000KT 10SM BKN043 14/10 A3030 RMK AO2 SLP256 T01440100=
200701140652 METAR KATL 140652Z 00000KT 10SM BKN043 14/10 A3029 RMK AO2 SLP252 T01440100=
200701140552 METAR KATL 140552Z 16005KT 10SM OVC043 15/11 A3029 RMK AO2 SLP254 BINOVC T01500106 10172 20139 58009=
200701140452 METAR KATL 140452Z 16004KT 10SM OVC043 15/10 A3031 RMK AO2 SLP262 BINOVC T01500100 402000078=
200701140352 METAR KATL 140352Z COR 14003KT 10SM BKN045 14/10 A3032 RMK AO2 SLP265 T01440100=
200701140252 METAR KATL 140252Z 00000KT 10SM FEW047 SCT250 15/10 A3032 RMK AO2 SLP266 T01500100 53004=
200701140152 METAR KATL 140152Z 16005KT 10SM FEW150 SCT250 16/10 A3031 RMK AO2 SLP265 T01610100=
200701140052 METAR KATL 140052Z 14005KT 10SM FEW050 BKN250 16/11 A3031 RMK AO2 SLP263 T01610106=
200701132352 METAR KATL 132352Z 15004KT 10SM FEW050 BKN250 17/11 A3031 RMK AO2 SLP263 T01720106 10200 20172 51004=
200701132252 METAR KATL 132252Z 16005KT 10SM SCT050 BKN250 18/11 A3030 RMK AO2 SLP260 T01830106=
200701132152 METAR KATL 132152Z 18005KT 9SM BKN048 BKN150 BKN250 19/11 A3030 RMK AO2 SLP260 BKN048 V SCT T01940106=
200701132052 METAR KATL 132052Z 18008KT 9SM BKN048 BKN150 BKN200 20/11 A3029 RMK AO2 SLP256 T02000106 56018=
200701131952 METAR KATL 131952Z 20006KT 9SM SCT034 BKN046 BKN150 OVC200 19/12 A3030 RMK AO2 SLP259 T01940117=
200701131852 METAR KATL 131852Z 22007KT 9SM SCT043 BKN150 BKN200 BKN250 19/12 A3032 RMK AO2 SLP266 T01940117=
200701131752 METAR KATL 131752Z 20008KT 9SM FEW028 SCT150 BKN200 BKN250 19/12 A3035 RMK AO2 SLP274 T01940117 10194 20083 58020=
200701131652 METAR KATL 131652Z 19010KT 9SM FEW047 SCT150 BKN200 BKN250 18/12 A3038 RMK AO2 SLP288 T01780117=
200701131552 METAR KATL 131552Z 19007KT 7SM FEW049 BKN150 BKN200 BKN250 16/12 A3041 RMK AO2 SLP298 T01560117=
200701131452 METAR KATL 131452Z 13004KT 5SM BR BKN049 BKN150 OVC250 12/10 A3041 RMK AO2 SLP298 T01220100 51010=
200701131352 METAR KATL 131352Z 10004KT 4SM BR BKN050 OVC150 11/09 A3040 RMK AO2 SLP295 T01060089=
200701131252 METAR KATL 131252Z 08004KT 5SM BR OVC048 10/08 A3039 RMK AO2 SLP293 T01000083=
200701131152 METAR KATL 131152Z 08004KT 6SM BR BKN180 08/07 A3038 RMK AO2 SLP288 T00830067 10100 20078 55001=
200701131052 METAR KATL 131052Z 08007KT 6SM BR FEW250 08/06 A3037 RMK AO2 SLP284 T00780061=
200701130952 METAR KATL 130952Z 06005KT 7SM SCT250 08/07 A3037 RMK AO2 SLP285 T00830067=
200701130852 METAR KATL 130852Z 06006KT 8SM FEW100 BKN250 09/07 A3038 RMK AO2 SLP287 T00890067 56006=
200701130752 METAR KATL 130752Z 07007KT 8SM FEW055 BKN250 08/06 A3039 RMK AO2 SLP290 T00830061=
200701130652 METAR KATL 130652Z 08006KT 10SM FEW055 BKN250 08/06 A3039 RMK AO2 SLP291 T00830061=
200701130552 METAR KATL 130552Z 09003KT 10SM FEW055 BKN250 10/07 A3040 RMK AO2 SLP295 T01000067 10150 20094 58009=
200701130452 METAR KATL 130452Z 07005KT 10SM FEW055 BKN250 09/06 A3042 RMK AO2 SLP301 T00940061 401830067=
200701130352 METAR KATL 130352Z 08005KT 10SM FEW055 SCT150 BKN250 10/07 A3042 RMK AO2 SLP304 T01000067=
200701130252 METAR KATL 130252Z 09006KT 10SM FEW055 SCT250 11/07 A3043 RMK AO2 SLP305 T01060067 50000=
200701130152 METAR KATL 130152Z 09007KT 10SM FEW055 SCT150 BKN250 12/07 A3043 RMK AO2 SLP307 T01170072=
200701130052 METAR KATL 130052Z 09007KT 10SM FEW055 BKN250 13/08 A3043 RMK AO2 SLP305 T01330078=
200701122352 METAR KATL 122352Z 10006KT 10SM BKN055 BKN150 BKN250 15/08 A3043 RMK AO2 SLP304 T01500083 10183 20144 53005=
200701122252 METAR KATL 122252Z 11005KT 10SM FEW055 BKN150 BKN250 17/09 A3042 RMK AO2 SLP301 T01670089=
200701122152 METAR KATL 122152Z 11005KT 10SM FEW050 BKN150 BKN250 18/09 A3041 RMK AO2 SLP298 T01780089=
200701122052 METAR KATL 122052Z 06009KT 10SM FEW045 SCT055 BKN150 BKN250 18/09 A3041 RMK AO2 SLP298 T01780089 56016=
200701121952 METAR KATL 121952Z 00000KT 10SM FEW030 SCT060 BKN150 BKN250 17/09 A3042 RMK AO2 SLP301 T01720089=
200701121852 METAR KATL 121852Z 12005KT 10SM FEW030 SCT055 BKN150 BKN250 16/08 A3043 RMK AO2 SLP305 T01610078=
200701121752 METAR KATL 121752Z 13005KT 10SM FEW030 SCT060 BKN150 BKN250 14/07 A3046 RMK AO2 SLP316 T01440072 10144 20072 58016=
200701121652 METAR KATL 121652Z 13005KT 10SM FEW050 SCT080 BKN150 BKN250 13/06 A3050 RMK AO2 SLP329 VIRGA DSNT NW T01280061=
200701121552 METAR KATL 121552Z 13004KT 10SM FEW050 SCT100 BKN150 BKN250 12/06 A3052 RMK AO2 SLP337 T01170056=
200701121452 METAR KATL 121452Z 11005KT 10SM FEW050 BKN150 BKN250 10/04 A3051 RMK AO2 SLP334 T01000044 53014=
200701121352 METAR KATL 121352Z 09007KT 10SM FEW050 BKN150 BKN250 08/02 A3049 RMK AO2 SLP328 T00830022=
200701121252 METAR KATL 121252Z 08008KT 10SM SCT050 BKN150 BKN250 07/02 A3048 RMK AO2 SLP324 T00720017=
200701121221 SPECI KATL 121221Z 08008KT 10SM FEW008 BKN050 OVC150 07/01 A3048 RMK AO2=
200701121221 SPECI KATL 121221Z 08008KT 10SM FEW008 BKN050 OVC150 07/01 A3048 RMK AO2=
200701121152 METAR KATL 121152Z 07008KT 10SM BKN008 OVC044 07/01 A3047 RMK AO2 SLP321 T00720011 10078 20067 53007=
200701121105 SPECI KATL 121105Z 08006KT 10SM BKN008 BKN040 OVC150 07/01 A3046 RMK AO2=
200701121105 SPECI KATL 121105Z 08006KT 10SM BKN008 BKN040 OVC150 07/01 A3046 RMK AO2=
200701121052 METAR KATL 121052Z 07008KT 10SM SCT009 BKN040 OVC150 07/01 A3046 RMK AO2 SLP317 T00670006=
200701120952 METAR KATL 120952Z 08007KT 10SM FEW040 BKN150 BKN250 07/01 A3045 RMK AO2 SLP313 T00670011=
200701120852 METAR KATL 120852Z 08007KT 10SM FEW045 BKN150 BKN250 07/01 A3044 RMK AO2 SLP312 T00720006 58007=
200701120752 METAR KATL 120752Z 08006KT 10SM FEW045 BKN150 BKN250 07/00 A3046 RMK AO2 SLP316 T00720000=
200701120652 METAR KATL 120652Z 09009KT 10SM FEW045 BKN150 BKN250 07/M01 A3046 RMK AO2 SLP316 T00721006=
200701120552 METAR KATL 120552Z 09008KT 10SM FEW045 BKN150 BKN250 07/M01 A3047=
200701120452 METAR KATL 120452Z 09009KT 10SM FEW048 SCT150 SCT250 07/M01 A3047=
200701120352 METAR KATL 120352Z 10009KT 10SM OVC045 08/M02 A3048 RMK AO2 SLP325 BINOVC T00831017=
200701120252 METAR KATL 120252Z 08008KT 10SM OVC045 08/M02 A3048 RMK AO2 SLP328 T00831022 53011=
200701120152 METAR KATL 120152Z 09009KT 10SM BKN045 BKN250 09/M03 A3046 RMK AO2 SLP322 T00891028=
200701120052 METAR KATL 120052Z 09009KT 10SM BKN040 BKN250 09/M02 A3046 RMK AO2 SLP323 T00941017=
200701112352 METAR KATL 112352Z 11010KT 10SM FEW100 BKN150 BKN250 10/M01 A3045 RMK AO2 SLP318 T01001011 10122 20094 51007=
200701112252 METAR KATL 112252Z 11009KT 10SM FEW100 BKN250 11/M01 A3044 RMK AO2 SLP315 T01111011=
200701112152 METAR KATL 112152Z 13008KT 10SM FEW034 SCT100 BKN250 BKN280 12/M01 A3044 RMK AO2 SLP311 ACSL DSNT W T01221006=
200701112052 METAR KATL 112052Z 14010KT 10SM FEW035 SCT100 BKN250 OVC280 12/M02 A3043 RMK AO2 SLP308 T01221017 56017=
200701111952 METAR KATL 111952Z 11009KT 10SM SCT034 BKN250 BKN280 11/M04 A3043 RMK AO2 SLP310 T01111039=
200701111852 METAR KATL 111852Z 12007KT 10SM FEW027 BKN033 BKN250 11/M04 A3045 RMK AO2 SLP317 T01111044=
200701111752 METAR KATL 111752Z 11008KT 10SM BKN030 BKN250 BKN280 09/M06 A3048 RMK AO2 SLP326 T00941056 10094 21006 58020=
200701111720 SPECI KATL 111720Z 12009KT 10SM BKN030 BKN250 BKN280 09/M06 A3050 RMK AO2 PRESFR=
200701111720 SPECI KATL 111720Z 12009KT 10SM BKN030 BKN250 BKN280 09/M06 A3050 RMK AO2 PRESFR=
200701111652 METAR KATL 111652Z 13012KT 10SM BKN027 BKN250 BKN280 08/M07 A3052 RMK AO2 SLP342 T00831067=
200701111649 SPECI KATL 111649Z 13011KT 10SM BKN029 BKN250 BKN280 08/M07 A3053 RMK AO2=
200701111649 SPECI KATL 111649Z 13011KT 10SM BKN029 BKN250 BKN280 08/M07 A3053 RMK AO2=
200701111552 METAR KATL 111552Z 12010KT 10SM FEW040 SCT250 BKN280 07/M07 A3054 RMK AO2 SLP348 T00721067=
200701111452 METAR KATL 111452Z 12006KT 10SM FEW040 SCT250 BKN280 05/M07 A3053 RMK AO2 SLP346 T00501067 51013=
200701111352 METAR KATL 111352Z 09009KT 10SM BKN250 02/M06 A3052 RMK AO2 SLP341 T00221061=
200701111252 METAR KATL 111252Z 09005KT 10SM SCT250 00/M07 A3051 RMK AO2 SLP339 T00001072=
200701111152 METAR KATL 111152Z COR 09007KT 10SM FEW250 00/M07 A3049 RMK AO2 SLP333 T00001072 10028 20000 53014 $=
200701111052 METAR KATL 111052Z 09006KT 10SM CLR 01/M07 A3048 RMK AO2 SLP327 T00111072=
200701110952 METAR KATL 110952Z 12006KT 10SM FEW250 02/M07 A3046 RMK AO2 SLP319 T00221072=
200701110852 METAR KATL 110852Z 10005KT 10SM FEW250 02/M07 A3045 RMK AO2 SLP316 T00171072 53010=
200701110752 METAR KATL 110752Z 11006KT 10SM SCT250 01/M07 A3043 RMK AO2 SLP312 T00111067=
200701110652 METAR KATL 110652Z 07005KT 10SM SCT250 02/M07 A3043 RMK AO2 SLP310 T00221072=
200701110552 METAR KATL 110552Z 11004KT 10SM BKN250 03/M08 A3042 RMK AO2 SLP306 T00281083 10072 20028 58000=
200701110452 METAR KATL 110452Z 09004KT 10SM SCT250 03/M09 A3042 RMK AO2 SLP309 T00331089 401001006=
200701110352 METAR KATL 110352Z 09006KT 10SM FEW250 03/M08 A3043 RMK AO2 SLP311 T00281078=
200701110252 METAR KATL 110252Z 00000KT 10SM FEW250 04/M08 A3042 RMK AO2 SLP308 T00441083 53007=
200701110152 METAR KATL 110152Z 35007KT 10SM FEW250 06/M10 A3041 RMK AO2 SLP306 T00611100=
200701110052 METAR KATL 110052Z 35005KT 10SM FEW250 07/M11 A3040 RMK AO2 SLP301 T00671111=
200701102352 METAR KATL 102352Z 33006KT 10SM FEW250 07/M12 A3040 RMK AO2 SLP300 T00671117 10100 20067 53003=
200701102252 METAR KATL 102252Z 32005KT 10SM FEW250 07/M12 A3039 RMK AO2 SLP298 T00721117=
200701102152 METAR KATL 102152Z 23003KT 10SM FEW250 08/M11 A3038 RMK AO2 SLP296 T00831111=
200701102052 METAR KATL 102052Z 35007KT 10SM FEW250 09/M12 A3039 RMK AO2 SLP295 T00941117 55006=
200701101952 METAR KATL 101952Z VRB04KT 10SM FEW250 09/M12 A3038 RMK AO2 SLP293 T00941117=
200701101852 METAR KATL 101852Z 33005KT 10SM FEW250 08/M12 A3039 RMK AO2 SLP296 T00831122=
200701101752 METAR KATL 101752Z 36011KT 10SM FEW250 08/M12 A3040 RMK AO2 SLP302 T00781117 10078 21006 58007=
200701101652 METAR KATL 101652Z 01011KT 10SM FEW250 06/M11 A3043 RMK AO2 SLP312 T00611111=
200701101552 METAR KATL 101552Z 36010KT 10SM FEW250 05/M09 A3044 RMK AO2 SLP316 T00501089 $=
200701101452 METAR KATL 101452Z 33008KT 10SM FEW250 03/M07 A3042 RMK AO2 SLP310 T00281067 51018 $=
200701101352 METAR KATL 101352Z 34008KT 10SM CLR 01/M05 A3040 RMK AO2 SLP303 T00061055 PNO $=
200701101252 METAR KATL 101252Z 31009KT 10SM CLR M01/M06 A3040 RMK AO2 SLP302 T10061056=
200701101152 METAR KATL 101152Z 33009KT 10SM CLR 00/M06 A3037 RMK AO2 SLP291 T00001056 10022 20000 51016=
200701101052 METAR KATL 101052Z 32009KT 10SM CLR 00/M05 A3036 RMK AO2 SLP287 T00001050=
200701100952 METAR KATL 100952Z 33009KT 10SM CLR 01/M05 A3034 RMK AO2 SLP280 T00061050=
200701100852 METAR KATL 100852Z 33010KT 10SM CLR 01/M05 A3032 RMK AO2 SLP273 T00111050 53002=
200701100752 METAR KATL 100752Z 33012G19KT 10SM CLR 02/M04 A3032 RMK AO2 SLP272 T00171044=
200701100652 METAR KATL 100652Z 33011KT 10SM CLR 02/M04 A3031 RMK AO2 SLP268 T00171044=
200701100552 METAR KATL 100552Z 31008KT 10SM CLR 02/M04 A3031 RMK AO2 SLP271 T00221044 10067 20022 51005=
200701100452 METAR KATL 100452Z 32011KT 10SM CLR 03/M04 A3031 RMK AO2 SLP270 T00281044 401110017=
200701100352 METAR KATL 100352Z 32008KT 10SM CLR 03/M04 A3032 RMK AO2 SLP272 T00331039=
200701100252 METAR KATL 100252Z 34012KT 10SM CLR 04/M04 A3030 RMK AO2 SLP266 T00441039 53024=
200701100152 METAR KATL 100152Z 33011KT 10SM CLR 06/M05 A3027 RMK AO2 SLP257 T00561050=
200701100052 METAR KATL 100052Z 32011KT 10SM CLR 06/M05 A3025 RMK AO2 SLP248 T00611050=
200701092352 METAR KATL 092352Z 31009KT 10SM FEW060 07/M06 A3023 RMK AO2 SLP241 T00671056 10111 20067 51025=
200701092252 METAR KATL 092252Z 31015KT 10SM FEW060 08/M06 A3020 RMK AO2 PK WND 31030/2224 SLP232 T00781061=
200701092152 METAR KATL 092152Z 30017G24KT 10SM FEW065 09/M06 A3018 RMK AO2 PK WND 30028/2116 SLP224 T00891061=
200701092052 METAR KATL 092052Z 30019G23KT 10SM FEW065 09/M05 A3015 RMK AO2 PK WND 29028/1954 SLP214 T00941050 53008=
200701091952 METAR KATL 091952Z 30021G28KT 10SM FEW060 10/M06 A3013 RMK AO2 PK WND 29031/1859 SLP209 T01001056=
200701091852 METAR KATL 091852Z 30018G27KT 10SM FEW055 11/M03 A3012 RMK AO2 PK WND 31029/1833 SLP202 T01111028 $=
200701091752 METAR KATL 091752Z 30021G31KT 10SM BKN050 10/M03 A3012 RMK AO2 PK WND 29031/1749 SLP205 T01001028 10111 20028 58006=
200701091652 METAR KATL 091652Z 30016G23KT 10SM FEW050 10/M01 A3013 RMK AO2 SLP208 T01001011=
200701091552 METAR KATL 091552Z 27014KT 10SM FEW070 08/M02 A3015 RMK AO2 SLP214 T00831017=
200701091452 METAR KATL 091452Z 26013KT 10SM FEW070 07/M03 A3014 RMK AO2 SLP212 T00721028 53001=
200701091352 METAR KATL 091352Z 24008KT 10SM CLR 03/M03 A3013 RMK AO2 SLP209 T00331033=
200701091252 METAR KATL 091252Z 23007KT 10SM CLR 03/M04 A3012 RMK AO2 SLP205 T00281039=
200701091152 METAR KATL 091152Z 24009KT 10SM CLR 03/M04 A3014 RMK AO2 SLP211 T00281044 10033 20017 58008=
200701091052 METAR KATL 091052Z 25005KT 10SM CLR 02/M05 A3015 RMK AO2 SLP215 T00171050=
200701090952 METAR KATL 090952Z 25006KT 10SM CLR 02/M06 A3015 RMK AO2 SLP216 T00171056=
200701090852 METAR KATL 090852Z 26007KT 10SM CLR 02/M06 A3016 RMK AO2 SLP219 T00221061 50000=
200701090752 METAR KATL 090752Z 27008KT 10SM CLR 02/M07 A3018 RMK AO2 SLP224 T00221067=
200701090652 METAR KATL 090652Z 25005KT 10SM CLR 03/M07 A3017 RMK AO2 SLP220 T00281072=
200701090552 METAR KATL 090552Z 25006KT 10SM CLR 03/M08 A3016 RMK AO2 SLP217 T00331083 10072 20028 56001=
200701090452 METAR KATL 090452Z 26005KT 10SM CLR 03/M08 A3016 RMK AO2 SLP217 T00331083 401670033=
200701090352 METAR KATL 090352Z 26004KT 10SM CLR 04/M08 A3016 RMK AO2 SLP218 T00391083=
200701090252 METAR KATL 090252Z 28005KT 10SM CLR 04/M08 A3016 RMK AO2 SLP220 T00441078 51006=
200701090152 METAR KATL 090152Z 29007KT 10SM CLR 04/M07 A3016 RMK AO2 SLP217 T00441072=
200701090052 METAR KATL 090052Z 28008KT 10SM CLR 06/M09 A3016 RMK AO2 SLP217 T00611089=
200701082352 METAR KATL 082352Z 29010KT 10SM CLR 07/M10 A3015 RMK AO2 SLP213 T00721100 10117 20067 51018=
200701082252 METAR KATL 082252Z 29009KT 10SM CLR 08/M07 A3013 RMK AO2 SLP205 T00781067=
200701082152 METAR KATL 082152Z 31015G19KT 10SM FEW250 10/M09 A3011 RMK AO2 SLP199 T01001089=
200701082052 METAR KATL 082052Z 32018KT 10SM CLR 11/M08 A3009 RMK AO2 SLP191 T01061083 53006=
200701081952 METAR KATL 081952Z 31020G24KT 10SM CLR 11/M09 A3007 RMK AO2 SLP184 T01111089=
200701081852 METAR KATL 081852Z 31017KT 10SM CLR 11/M06 A3007 RMK AO2 SLP181 T01111056=
200701081752 METAR KATL 081752Z 31012KT 10SM FEW050 12/M01 A3008 RMK AO2 SLP183 T01171011 10117 20072 58007=
200701081652 METAR KATL 081652Z 31015KT 10SM FEW045 SCT250 11/M01 A3009 RMK AO2 SLP188 T01061006=
200701081552 METAR KATL 081552Z 31015G18KT 10SM FEW035 09/01 A3010 RMK AO2 SLP192 T00940011=
200701081452 METAR KATL 081452Z 29012G17KT 10SM FEW021 SCT250 08/03 A3010 RMK AO2 SLP191 T00830033 51026=
200701081352 METAR KATL 081352Z 29012KT 10SM FEW140 SCT250 07/03 A3008 RMK AO2 SLP185 T00720028=
200701081252 METAR KATL 081252Z 30012KT 10SM FEW140 SCT250 07/03 A3005 RMK AO2 SLP175 T00720028=
200701081152 METAR KATL 081152Z 31011KT 10SM FEW022 SCT140 BKN250 08/04 A3002 RMK AO2 SLP163 60010 70151 T00830044 10161 20083 53019=
200701081052 METAR KATL 081052Z 29011KT 10SM SCT021 BKN140 OVC250 09/06 A2998 RMK AO2 SLP150 T00890056=
200701081015 SPECI KATL 081015Z 29013KT 10SM FEW020 SCT025 SCT037 09/06 A2998 RMK AO2=
200701081015 SPECI KATL 081015Z 29013KT 10SM FEW020 SCT025 SCT037 09/06 A2998 RMK AO2=
200701080952 METAR KATL 080952Z 30018G23KT 10SM FEW016 BKN024 OVC040 10/06 A2998 RMK AO2 SLP148 T01000061=
200701080852 METAR KATL 080852Z 30015KT 10SM SCT012 OVC028 11/08 A2996 RMK AO2 RAE34 SLP143 P0002 60010 T01060083 53021=
200701080805 SPECI KATL 080805Z 30010KT 10SM -RA FEW008 SCT015 OVC025 12/09 A2994 RMK AO2 P0002=
200701080805 SPECI KATL 080805Z 30010KT 10SM -RA FEW008 SCT015 OVC025 12/09 A2994 RMK AO2 P0002=
200701080752 METAR KATL 080752Z 30014G23KT 8SM -RA FEW017 OVC023 12/09 A2992 RMK AO2 SLP129 P0007 T01170094=
200701080659 SPECI KATL 080659Z 27011KT 10SM -RA FEW008 BKN020 OVC038 14/12 A2991 RMK AO2 P0000 $=
200701080659 SPECI KATL 080659Z 27011KT 10SM -RA FEW008 BKN020 OVC038 14/12 A2991 RMK AO2 P0000 $=
200701080652 METAR KATL 080652Z 27009KT 10SM -RA FEW008 BKN012 OVC026 14/12 A2990 RMK AO2 SLP123 P0001 T01390122 $=
200701080627 SPECI KATL 080627Z 29011G20KT 10SM -RA FEW006 BKN012 OVC025 15/13 A2989 RMK AO2 P0001 $=
200701080627 SPECI KATL 080627Z 29011G20KT 10SM -RA FEW006 BKN012 OVC025 15/13 A2989 RMK AO2 P0001 $=
200701080607 SPECI KATL 080607Z 29012KT 9SM -RA BKN008 BKN013 OVC025 16/14 A2989 RMK AO2 P0000 $=
200701080607 SPECI KATL 080607Z 29012KT 9SM -RA BKN008 BKN013 OVC025 16/14 A2989 RMK AO2 P0000 $=
200701080552 METAR KATL 080552Z 27011G16KT 8SM -RA BKN010 BKN025 OVC095 16/14 A2990 RMK AO2 SLP120 P0004 60103 T01610144 10172 20161 56002 $=
200701080537 SPECI KATL 080537Z 25011KT 7SM -RA SCT011 BKN018 OVC100 17/15 A2989 RMK AO2 P0004=
200701080537 SPECI KATL 080537Z 25011KT 7SM -RA SCT011 BKN018 OVC100 17/15 A2989 RMK AO2 P0004=
200701080511 SPECI KATL 080511Z 25008KT 7SM -RA BKN011 BKN026 OVC033 17/15 A2989 RMK AO2 P0002 $=
200701080511 SPECI KATL 080511Z 25008KT 7SM -RA BKN011 BKN026 OVC033 17/15 A2989 RMK AO2 P0002 $=
200701080452 METAR KATL 080452Z 25007KT 6SM -RA BR FEW004 BKN029 OVC080 17/15 A2989 RMK AO2 SLP117 BKN029 V SCT P0006 T01720150 402000111 $=
200701080437 SPECI KATL 080437Z 25009KT 5SM -RA BR SCT030 BKN050 OVC090 17/16 A2990 RMK AO2 P0005=
200701080437 SPECI KATL 080437Z 25009KT 5SM -RA BR SCT030 BKN050 OVC090 17/16 A2990 RMK AO2 P0005=
200701080428 SPECI KATL 080428Z 23011KT 2 1/2SM -RA BR FEW004 SCT028 OVC075 17/16 A2991 RMK AO2 SFC VIS 4 P0004=
200701080428 SPECI KATL 080428Z 23011KT 2 1/2SM -RA BR FEW004 SCT028 OVC075 17/16 A2991 RMK AO2 SFC VIS 4 P0004=
200701080352 METAR KATL 080352Z 21006KT 2 1/2SM RA BR SCT004 BKN019 OVC047 17/16 A2990 RMK AO2 SFC VIS 3 SLP123 SCT004 V BKN TWRINC P0005 T01670156=
200701080338 SPECI KATL 080338Z 21008KT 2 1/2SM -RA BR SCT003 BKN008 OVC033 17/16 A2991 RMK AO2 SFC VIS 4 TWRINC P0002=
200701080338 SPECI KATL 080338Z 21008KT 2 1/2SM -RA BR SCT003 BKN008 OVC033 17/16 A2991 RMK AO2 SFC VIS 4 TWRINC P0002=
200701080252 METAR KATL 080252Z 20007KT 1 1/2SM -RA BR BKN004 BKN012 OVC033 17/15 A2991 RMK AO2 SFC VIS 4 SLP127 TWRINC P0005 60088 T01670150 58003=
200701080242 SPECI KATL 080242Z 18008KT 1 1/2SM -RA BR BKN004 BKN012 OVC095 17/15 A2991 RMK AO2 SFC VIS 4 P0005=
200701080242 SPECI KATL 080242Z 18008KT 1 1/2SM -RA BR BKN004 BKN012 OVC095 17/15 A2991 RMK AO2 SFC VIS 4 P0005=
200701080235 SPECI KATL 080235Z 19006KT 5SM -RA BR SCT004 BKN043 OVC090 17/15 A2992 RMK AO2 P0005=
200701080235 SPECI KATL 080235Z 19006KT 5SM -RA BR SCT004 BKN043 OVC090 17/15 A2992 RMK AO2 P0005=
200701080152 METAR KATL 080152Z 19006KT 5SM RA BR FEW033 BKN060 OVC090 17/15 A2992 RMK AO2 SLP130 P0010 T01670150=
200701080109 SPECI KATL 080109Z 18005KT 6SM RA BR SCT025 BKN050 OVC075 17/15 A2993 RMK AO2 TORNADO DSNT SE MOV E LTG DSNT NE-SE CB DSNT NE-S MOV E P0003 $=
200701080109 SPECI KATL 080109Z 18005KT 6SM RA BR SCT025 BKN050 OVC075 17/15 A2993 RMK AO2 TORNADO DSNT SE MOV E LTG DSNT NE-SE CB DSNT NE-S MOV E P0003 $=
200701080052 METAR KATL 080052Z 00000KT 2 1/2SM -RA BR SCT007 BKN028 OVC065 16/15 A2994 RMK AO2 PK WND 28027/0017 SFC VIS 5 TSB30E51 SLP135 TORNADO DSNT S-SE MOV E LTG DSNT NE-SE CB DSNT NE-S MOV E P0073 T01610150=
200701080039 SPECI KATL 080039Z 27004KT 2SM TSRA BR BKN008CB BKN027 OVC036 16/15 A2994 RMK AO2 PK WND 28027/0017 TWR VIS 2 1/2 TSB30 TORNADO DSNT SW MOV E OCNL LTGICCCCGCA TS VC NE-SW MOV E P0070=
200701080039 SPECI KATL 080039Z 27004KT 2SM TSRA BR BKN008CB BKN027 OVC036 16/15 A2994 RMK AO2 PK WND 28027/0017 TWR VIS 2 1/2 TSB30 TORNADO DSNT SW MOV E OCNL LTGICCCCGCA TS VC NE-SW MOV E P0070=
200701080030 SPECI KATL 080030Z 24004KT 3/4SM +TSRA BR BKN010CB BKN025 OVC034 17/16 A2994 RMK AO2 PK WND 28027/0017 TWR VIS 1 1/2 TSB30 TORNADO DSNT SW MOV E OCNL LTGICCCCG TS NE-OHD-SW MOV E P0057 RVRNO=
200701080030 SPECI KATL 080030Z 24004KT 3/4SM +TSRA BR BKN010CB BKN025 OVC034 17/16 A2994 RMK AO2 PK WND 28027/0017 TWR VIS 1 1/2 TSB30 TORNADO DSNT SW MOV E OCNL LTGICCCCG TS NE-OHD-SW MOV E P0057 RVRNO=
200701080025 SPECI KATL 080025Z 23008KT 3/4SM +RA BR BKN010CB BKN025 OVC032 17/15 A2996 RMK AO2 PK WND 28027/0017 TWR VIS 1 1/2 PRESRR TORNADO DSNT SW MOV E NE-OHD-SW MOV E P0034 RVRNO=
200701080025 SPECI KATL 080025Z 23008KT 3/4SM +RA BR BKN010CB BKN025 OVC032 17/15 A2996 RMK AO2 PK WND 28027/0017 TWR VIS 1 1/2 PRESRR TORNADO DSNT SW MOV E NE-OHD-SW MOV E P0034 RVRNO=
200701080019 SPECI KATL 080019Z 28016G26KT 1 1/4SM +RA BR BKN015CB BKN029 OVC044 17/15 A2994 RMK AO2 PK WND 28027/0017 TWR VIS 1 1/2 CB NE-OHD-SW MOV E P0015=
200701080019 SPECI KATL 080019Z 28016G26KT 1 1/4SM +RA BR BKN015CB BKN029 OVC044 17/15 A2994 RMK AO2 PK WND 28027/0017 TWR VIS 1 1/2 CB NE-OHD-SW MOV E P0015=
200701080016 SPECI KATL 080016Z 28023G26KT 2SM +RA BKN022CB BKN034 OVC044 18/16 A2995 RMK AO2 PK WND 28026/0015 PRESRR CB NE-OHD-SW MOV E P0008=
200701080016 SPECI KATL 080016Z 28023G26KT 2SM +RA BKN022CB BKN034 OVC044 18/16 A2995 RMK AO2 PK WND 28026/0015 PRESRR CB NE-OHD-SW MOV E P0008=
200701072352 METAR KATL 072352Z 20007KT 7SM -RA BKN038 BKN047 OVC075 19/17 A2992 RMK AO2 RAB39 SLP129 CB DSNT N-NE AND SW-N MOV E P0001 60016 T01940167 10200 20150 56008=
200701072252 METAR KATL 072252Z 18011KT 9SM SCT026 BKN032 OVC045 20/17 A2993 RMK AO2 SLP130 SCT026 V BKN CB DSNT N-NE AND SW-N MOV NE T02000167=
200701072231 SPECI KATL 072231Z 18010KT 9SM BKN027 BKN036 BKN046 20/17 A2993 RMK AO2 BKN027 V SCT=
200701072231 SPECI KATL 072231Z 18010KT 9SM BKN027 BKN036 BKN046 20/17 A2993 RMK AO2 BKN027 V SCT=
200701072152 METAR KATL 072152Z 17010KT 8SM FEW023 SCT048 SCT110 BKN150 BKN250 20/17 A2993 RMK AO2 RAB2055E04 SLP132 P0000 T02000172=
200701072115 SPECI KATL 072115Z 17007KT 6SM BR FEW023 BKN048 BKN095 BKN250 19/17 A2994 RMK AO2 RAB2055E04 P0000=
200701072115 SPECI KATL 072115Z 17007KT 6SM BR FEW023 BKN048 BKN095 BKN250 19/17 A2994 RMK AO2 RAB2055E04 P0000=
200701072052 METAR KATL 072052Z 18008KT 2SM BR FEW004 BKN025 OVC080 18/17 A2995 RMK AO2 SFC VIS 5 SLP138 60015 T01830167 58027=
200701072043 SPECI KATL 072043Z 18007KT 2SM BR FEW005 BKN012 OVC080 18/17 A2995 RMK AO2 SFC VIS 4=
200701072043 SPECI KATL 072043Z 18007KT 2SM BR FEW005 BKN012 OVC080 18/17 A2995 RMK AO2 SFC VIS 4=
200701072038 SPECI KATL 072038Z 18008KT 2SM BR SCT005 BKN009 OVC080 18/17 A2995 RMK AO2 SFC VIS 4=
200701072038 SPECI KATL 072038Z 18008KT 2SM BR SCT005 BKN009 OVC080 18/17 A2995 RMK AO2 SFC VIS 4=
200701072027 SPECI KATL 072027Z 18008KT 1 1/2SM BR BKN005 OVC014 18/17 A2995 RMK AO2 SFC VIS 4=
200701072027 SPECI KATL 072027Z 18008KT 1 1/2SM BR BKN005 OVC014 18/17 A2995 RMK AO2 SFC VIS 4=
200701071952 METAR KATL 071952Z 17008KT 1/2SM BR BKN003 OVC014 18/16 A2996 RMK AO2 SFC VIS 2 1/2 RAE29 SLP144 TWRINC P0004 T01780161=
200701071949 SPECI KATL 071949Z 18009KT 1/2SM BR FEW003 BKN012 OVC080 18/16 A2997 RMK AO2 SFC VIS 5 RAE29 P0004=
200701071949 SPECI KATL 071949Z 18009KT 1/2SM BR FEW003 BKN012 OVC080 18/16 A2997 RMK AO2 SFC VIS 5 RAE29 P0004=
200701071924 SPECI KATL 071924Z 18012KT 6SM -RA BR FEW003 SCT026 OVC049 17/16 A2998 RMK AO2 PRESFR P0004=
200701071924 SPECI KATL 071924Z 18012KT 6SM -RA BR FEW003 SCT026 OVC049 17/16 A2998 RMK AO2 PRESFR P0004=
200701071921 SPECI KATL 071921Z 19011KT 5SM -RA BR FEW003 BKN026 OVC049 17/16 A2999 RMK AO2 PRESFR P0004=
200701071921 SPECI KATL 071921Z 19011KT 5SM -RA BR FEW003 BKN026 OVC049 17/16 A2999 RMK AO2 PRESFR P0004=
200701071852 METAR KATL 071852Z 16006KT 1/4SM RA BR SCT001 BKN003 OVC005 16/14 A3002 RMK AO2 SFC VIS 1 1/4 RAB06 SLP163 CIG LWR N-E TWRINC P0011 T01560144 $=
200701071752 METAR KATL 071752Z 13006KT 1/4SM BR FEW001 BKN003 OVC006 16/14 A3003 RMK AO2 SFC VIS 2 1/2 RAE52 SLP168 TWRINC P0017 60022 T01560144 10156 20122 58031=
200701071739 SPECI KATL 071739Z 12006KT 1/4SM -RA BR FEW001 BKN003 OVC006 15/14 A3004 RMK AO2 SFC VIS 2 TWRINC P0017=
200701071739 SPECI KATL 071739Z 12006KT 1/4SM -RA BR FEW001 BKN003 OVC006 15/14 A3004 RMK AO2 SFC VIS 2 TWRINC P0017=
200701071702 SPECI KATL 071702Z 15008KT 0SM -RA FG SCT001 OVC003 15/14 A3007 RMK AO2 SFC VIS 1/2 P0003 RVRNO=
200701071702 SPECI KATL 071702Z 15008KT 0SM -RA FG SCT001 OVC003 15/14 A3007 RMK AO2 SFC VIS 1/2 P0003 RVRNO=
200701071652 METAR KATL 071652Z 15008KT 0SM -RA FG OVC001 14/14 A3008 RMK AO2 SFC VIS 1/4 RAB50 SLP185 P0000 T01440139 RVRNO=
200701071552 METAR KATL 071552Z 13009KT 0SM FG VV001 14/13 A3011 RMK AO2 SFC VIS 1/4 SLP195 T01390128 RVRNO=
200701071539 SPECI KATL 071539Z 14007KT 0SM FG VV001 13/13 A3012 RMK AO2 SFC VIS 1/4 TWRINC RVRNO=
200701071539 SPECI KATL 071539Z 14007KT 0SM FG VV001 13/13 A3012 RMK AO2 SFC VIS 1/4 TWRINC RVRNO=
200701071452 METAR KATL 071452Z 12008KT 1/4SM BR OVC003 13/12 A3013 RMK AO2 SFC VIS 3/4 SLP200 CIG 002V004 TWRINC 60005 T01280117 58002 RVRNO=
200701071420 SPECI KATL 071420Z 11008KT 3/4SM BR OVC004 13/11 A3012 RMK AO2 SFC VIS 1 1/4 CIG 003V005 TWRINC=
200701071420 SPECI KATL 071420Z 11008KT 3/4SM BR OVC004 13/11 A3012 RMK AO2 SFC VIS 1 1/4 CIG 003V005 TWRINC=
200701071401 SPECI KATL 071401Z 12006KT 1SM BR BKN003 OVC008 13/11 A3013 RMK AO2 SFC VIS 1 1/2=
200701071401 SPECI KATL 071401Z 12006KT 1SM BR BKN003 OVC008 13/11 A3013 RMK AO2 SFC VIS 1 1/2=
200701071352 METAR KATL 071352Z 12007KT 1 1/2SM BR BKN005 OVC012 13/11 A3013 RMK AO2 SFC VIS 1 3/4 RAE39 CIG 003V007 SLP201 P0002 T01280111=
200701071338 SPECI KATL 071338Z 12008KT 1 1/2SM -RA BR BKN005 OVC012 12/11 A3013 RMK AO2 SFC VIS 2 P0002=
200701071338 SPECI KATL 071338Z 12008KT 1 1/2SM -RA BR BKN005 OVC012 12/11 A3013 RMK AO2 SFC VIS 2 P0002=
200701071326 SPECI KATL 071326Z 11006KT 1 1/2SM -RA BR FEW009 BKN013 OVC019 12/11 A3012 RMK AO2 SFC VIS 2 P0002=
200701071326 SPECI KATL 071326Z 11006KT 1 1/2SM -RA BR FEW009 BKN013 OVC019 12/11 A3012 RMK AO2 SFC VIS 2 P0002=
200701071308 SPECI KATL 071308Z 12007KT 1 1/2SM -RA BR BKN009 OVC019 12/11 A3013 RMK AO2 SFC VIS 2 P0001=
200701071308 SPECI KATL 071308Z 12007KT 1 1/2SM -RA BR BKN009 OVC019 12/11 A3013 RMK AO2 SFC VIS 2 P0001=
200701071252 METAR KATL 071252Z 12008KT 3SM -RA BR BKN015 BKN041 OVC090 12/11 A3013 RMK AO2 SFC VIS 6 SLP202 P0003 T01220106=
200701071152 METAR KATL 071152Z 11008KT 5SM -RA BR SCT060 BKN080 OVC100 13/11 A3013 RMK AO2 SLP201 P0003 60004 70004 T01280106 10128 20111 55007=
200701071052 METAR KATL 071052Z 11005KT 5SM -RA BR FEW034 SCT055 OVC090 12/11 A3013 RMK AO2 RAB0956 SLP201 P0000 T01220106=
200701070952 METAR KATL 070952Z 12005KT 6SM BR FEW060 SCT075 OVC095 12/11 A3014 RMK AO2 RAB03E49 SLP202 P0001 T01220106=
200701070852 METAR KATL 070852Z 00000KT 7SM BKN070 OVC120 12/10 A3015 RMK AO2 SLP208 60000 T01170100 51006=
200701070752 METAR KATL 070752Z 00000KT 7SM BKN070 12/10 A3015 RMK AO2 RAB14E24 SLP207 P0000 T01220100=
200701070652 METAR KATL 070652Z 00000KT 8SM BKN150 12/10 A3014 RMK AO2 SLP203 T01170100=
200701070552 METAR KATL 070552Z 20003KT 8SM CLR 12/09 A3013 RMK AO2 SLP202 T01170094 10172 20117 50002=
200701070452 METAR KATL 070452Z 00000KT 8SM CLR 13/09 A3014 RMK AO2 SLP202 T01330094 402060094=
200701070352 METAR KATL 070352Z 03005KT 9SM CLR 14/09 A3014 RMK AO2 SLP204 T01390094=
200701070252 METAR KATL 070252Z 02007KT 9SM FEW034 15/10 A3013 RMK AO2 SLP201 T01500100 51012=
200701070152 METAR KATL 070152Z 36006KT 10SM FEW034 SCT250 15/11 A3013 RMK AO2 SLP200 T01500106=
200701070052 METAR KATL 070052Z 36005KT 10SM FEW110 SCT250 16/11 A3011 RMK AO2 SLP197 T01560111=
200701062352 METAR KATL 062352Z 34006KT 10SM FEW040 17/11 A3009 RMK AO2 SLP189 T01720106 10206 20161 53015=
200701062252 METAR KATL 062252Z 25003KT 10SM FEW040 18/11 A3007 RMK AO2 SLP181 T01830106=
200701062152 METAR KATL 062152Z 28006KT 10SM FEW035 19/11 A3006 RMK AO2 SLP178 T01940111=
200701062052 METAR KATL 062052Z 28006KT 10SM SCT034 21/12 A3005 RMK AO2 SLP173 T02060117 55003=
200701061952 METAR KATL 061952Z 27007KT 210V300 10SM SCT032 21/11 A3003 RMK AO2 SLP168 T02060111=
200701061852 METAR KATL 061852Z 27009KT 10SM SCT035 20/11 A3003 RMK AO2 SLP165 T02000111=
200701061752 METAR KATL 061752Z 26013KT 10SM SCT030 SCT150 18/11 A3006 RMK AO2 SLP176 T01830106 10194 20094 58014=
200701061652 METAR KATL 061652Z 25009KT 10SM SCT025 SCT150 19/12 A3008 RMK AO2 SLP184 T01890117=
200701061552 METAR KATL 061552Z 23006KT 10SM FEW035 SCT150 17/11 A3010 RMK AO2 SLP189 T01670111=
200701061452 METAR KATL 061452Z COR 26007KT 10SM FEW033 14/10 A3010 RMK AO2 SLP190 T01440100 52019=
200701061352 METAR KATL 061352Z 24004KT 8SM FEW034 SCT048 11/09 A3008 RMK AO2 SLP185 T01110094=
200701061252 METAR KATL 061252Z 23003KT 6SM BR FEW045 09/08 A3006 RMK AO2 SLP179 T00940078=
200701061152 METAR KATL 061152Z 00000KT 8SM FEW045 09/08 A3004 RMK AO2 SLP172 70070 T00940078 10117 20094 52014=
200701061052 METAR KATL 061052Z 23005KT 10SM FEW044 10/08 A3003 RMK AO2 SLP167 T01000083=
200701060952 METAR KATL 060952Z 21004KT 10SM BKN040 11/09 A3001 RMK AO2 SLP161 T01060089=
200701060852 METAR KATL 060852Z 24003KT 10SM OVC034 11/09 A3000 RMK AO2 SLP157 T01060094 53012=
200701060752 METAR KATL 060752Z 21004KT 8SM CLR 10/09 A2997 RMK AO2 SLP148 T01000089=
200701060652 METAR KATL 060652Z 25003KT 10SM CLR 11/09 A2996 RMK AO2 SLP145 T01060094=
200701060552 METAR KATL 060552Z 23005KT 10SM CLR 12/10 A2996 RMK AO2 SLP144 T01170100 10156 20111 53012=
200701060452 METAR KATL 060452Z 22005KT 10SM CLR 12/11 A2994 RMK AO2 SLP135 T01220106 402000122=
200701060352 METAR KATL 060352Z 24005KT 10SM CLR 13/11 A2993 RMK AO2 SLP132 T01330111=
200701060252 METAR KATL 060252Z 23004KT 10SM CLR 14/12 A2993 RMK AO2 SLP130 T01390117 51019=
200701060152 METAR KATL 060152Z 24005KT 10SM CLR 14/12 A2991 RMK AO2 SLP126 T01440122=
200701060052 METAR KATL 060052Z 24008KT 10SM FEW007 15/13 A2990 RMK AO2 SLP120 T01500128=
200701052352 METAR KATL 052352Z 23008KT 10SM FEW007 16/13 A2987 RMK AO2 SLP111 60028 T01560133 10167 20156 53017=
200701052252 METAR KATL 052252Z 22010KT 10SM FEW008 SCT013 BKN040 BKN150 17/14 A2985 RMK AO2 RAE28 SLP104 TCU DSNT E-SE P0004 T01670144=
200701052228 SPECI KATL 052228Z 21008KT 10SM SCT008 BKN014 BKN035 BKN150 17/15 A2984 RMK AO2 RAE28 CB DSNT NE P0004=
200701052228 SPECI KATL 052228Z 21008KT 10SM SCT008 BKN014 BKN035 BKN150 17/15 A2984 RMK AO2 RAE28 CB DSNT NE P0004=
200701052221 SPECI KATL 052221Z 23008KT 6SM -RA BR BKN008 BKN014 OVC030 16/15 A2984 RMK AO2 P0004=
200701052221 SPECI KATL 052221Z 23008KT 6SM -RA BR BKN008 BKN014 OVC030 16/15 A2984 RMK AO2 P0004=
200701052217 SPECI KATL 052217Z 23010KT 2SM RA BR BKN008 BKN014 OVC025 17/15 A2984 RMK AO2 TWR VIS 4 P0002=
200701052217 SPECI KATL 052217Z 23010KT 2SM RA BR BKN008 BKN014 OVC025 17/15 A2984 RMK AO2 TWR VIS 4 P0002=
200701052203 SPECI KATL 052203Z 20010KT 8SM -RA SCT008 BKN015 OVC025 17/14 A2983 RMK AO2 P0001=
200701052203 SPECI KATL 052203Z 20010KT 8SM -RA SCT008 BKN015 OVC025 17/14 A2983 RMK AO2 P0001=
200701052157 SPECI KATL 052157Z 20011G18KT 2 1/2SM -RA BR SCT009 BKN013 OVC027 17/15 A2983 RMK AO2 SFC VIS 4 CB MOV NE P0001=
200701052157 SPECI KATL 052157Z 20011G18KT 2 1/2SM -RA BR SCT009 BKN013 OVC027 17/15 A2983 RMK AO2 SFC VIS 4 CB MOV NE P0001=
200701052152 METAR KATL 052152Z 21013G18KT 1 1/2SM RA BR BKN009 BKN017CB OVC042 16/15 A2983 RMK AO2 SFC VIS 2 1/2 SLP096 CB OHD MOV NE P0018 T01610150=
200701052150 SPECI KATL 052150Z 20012KT 1 1/2SM RA BR BKN009 BKN017CB OVC042 16/14 A2983 RMK AO2 SFC VIS 2 1/2 CB OHD MOV NE P0016=
200701052150 SPECI KATL 052150Z 20012KT 1 1/2SM RA BR BKN009 BKN017CB OVC042 16/14 A2983 RMK AO2 SFC VIS 2 1/2 CB OHD MOV NE P0016=
200701052137 SPECI KATL 052137Z 19009KT 1 1/2SM RA BR FEW017CB BKN040 OVC050 17/14 A2983 RMK AO2 SFC VIS 2 CB OHD MOV NE P0001=
200701052137 SPECI KATL 052137Z 19009KT 1 1/2SM RA BR FEW017CB BKN040 OVC050 17/14 A2983 RMK AO2 SFC VIS 2 CB OHD MOV NE P0001=
200701052052 METAR KATL 052052Z 19011KT 10SM -RA FEW015 BKN050 BKN090 OVC150 17/14 A2982 RMK AO2 RAB07 SLP093 VIS LWR S SHRA P0000 60006 T01670139 56028=
200701051952 METAR KATL 051952Z 16008KT 10SM FEW050 SCT070 BKN100 BKN150 BKN250 17/14 A2982 RMK AO2 RAE45 SLP094 P0000 T01670144=
200701051855 SPECI KATL 051855Z 13006KT 10SM -RA FEW009 BKN030 BKN100 OVC150 16/14 A2982 RMK AO2 PRESFR P0000=
200701051855 SPECI KATL 051855Z 13006KT 10SM -RA FEW009 BKN030 BKN100 OVC150 16/14 A2982 RMK AO2 PRESFR P0000=
200701051852 METAR KATL 051852Z 14007KT 10SM -RA FEW009 BKN019 BKN100 OVC150 16/14 A2983 RMK AO2 SLP097 P0006 T01610139=
200701051818 SPECI KATL 051818Z 22009KT 9SM -RA FEW009 BKN022 OVC070 16/13 A2989 RMK AO2 P0003=
200701051818 SPECI KATL 051818Z 22009KT 9SM -RA FEW009 BKN022 OVC070 16/13 A2989 RMK AO2 P0003=
200701051752 METAR KATL 051752Z 22008KT 10SM -RA FEW020 SCT060 BKN090 BKN150 OVC250 17/14 A2990 RMK AO2 SLP122 VIS LWR SE-SW SHRA ACC DSNT NE BINOVC DSNT NE P0002 60042 T01670139 10200 20156 58005=
200701051720 SPECI KATL 051720Z 24006KT 9SM -RA FEW005 SCT016 BKN055 BKN150 OVC250 17/14 A2992 RMK AO2 PRESFR BINOVC P0002=
200701051720 SPECI KATL 051720Z 24006KT 9SM -RA FEW005 SCT016 BKN055 BKN150 OVC250 17/14 A2992 RMK AO2 PRESFR BINOVC P0002=
200701051712 SPECI KATL 051712Z 24007KT 8SM -RA FEW005 BKN018 OVC060 17/14 A2993 RMK AO2 P0001=
200701051712 SPECI KATL 051712Z 24007KT 8SM -RA FEW005 BKN018 OVC060 17/14 A2993 RMK AO2 P0001=
200701051652 METAR KATL 051652Z 26003KT 9SM -RA FEW005 SCT020 OVC055 16/14 A2995 RMK AO2 PK WND 23032/1611 WSHFT 1611 TSB08E36RAB15 SLP139 VIS LWR S-SW-W SHRA P0038 T01610139=
200701051649 SPECI KATL 051649Z 26005KT 10SM -RA FEW005 SCT020 OVC055 16/14 A2996 RMK AO2 PK WND 23032/1611 WSHFT 1611 TSB08E36RAB15 P0038=
200701051649 SPECI KATL 051649Z 26005KT 10SM -RA FEW005 SCT020 OVC055 16/14 A2996 RMK AO2 PK WND 23032/1611 WSHFT 1611 TSB08E36RAB15 P0038=
200701051641 SPECI KATL 051641Z 25005KT 10SM -RA SCT011 OVC055 16/14 A2996 RMK AO2 PK WND 23032/1611 WSHFT 1611 TSB08E36RAB15 LTG DSNT NE-SE TS MOV NE CB DSNT NE-SE MOV NE P0038 $=
200701051641 SPECI KATL 051641Z 25005KT 10SM -RA SCT011 OVC055 16/14 A2996 RMK AO2 PK WND 23032/1611 WSHFT 1611 TSB08E36RAB15 LTG DSNT NE-SE TS MOV NE CB DSNT NE-SE MOV NE P0038 $=
200701051636 SPECI KATL 051636Z 25008KT 5SM -RA BR SCT009 OVC055 16/14 A2996 RMK AO2 PK WND 23032/1611 WSHFT 1611 TSB08E36RAB15 LTG DSNT NE-SE TS MOV NE CB DSNT NE-SE MOV NE P0038 $=
200701051636 SPECI KATL 051636Z 25008KT 5SM -RA BR SCT009 OVC055 16/14 A2996 RMK AO2 PK WND 23032/1611 WSHFT 1611 TSB08E36RAB15 LTG DSNT NE-SE TS MOV NE CB DSNT NE-SE MOV NE P0038 $=
200701051633 SPECI KATL 051633Z 26010KT 4SM -TSRA FEW009CB BKN013 OVC050 16/14 A2996 RMK AO2 PK WND 23032/1611 WSHFT 1611 TSB08RAB15 OCNL LTGICCG TS NE-SE MOV NE P0037 $=
200701051633 SPECI KATL 051633Z 26010KT 4SM -TSRA FEW009CB BKN013 OVC050 16/14 A2996 RMK AO2 PK WND 23032/1611 WSHFT 1611 TSB08RAB15 OCNL LTGICCG TS NE-SE MOV NE P0037 $=
200701051628 SPECI KATL 051628Z 28011KT 1SM TSRA BKN011CB OVC016 16/14 A2995 RMK AO2 PK WND 23032/1611 WSHFT 1611 SFC VIS 3 TSB08RAB15 OCNL LTGICCG TS OHD-NE-SE MOV NE P0035 $=
200701051628 SPECI KATL 051628Z 28011KT 1SM TSRA BKN011CB OVC016 16/14 A2995 RMK AO2 PK WND 23032/1611 WSHFT 1611 SFC VIS 3 TSB08RAB15 OCNL LTGICCG TS OHD-NE-SE MOV NE P0035 $=
200701051626 SPECI KATL 051626Z 27011KT 1SM +TSRA BKN011CB OVC016 16/14 A2996 RMK AO2 PK WND 23032/1611 WSHFT 1611 TSB08RAB15 OCNL LTGICCG TS OHD-NE-SE MOV NE P0034 RVRNO $=
200701051626 SPECI KATL 051626Z 27011KT 1SM +TSRA BKN011CB OVC016 16/14 A2996 RMK AO2 PK WND 23032/1611 WSHFT 1611 TSB08RAB15 OCNL LTGICCG TS OHD-NE-SE MOV NE P0034 RVRNO $=
200701051624 SPECI KATL 051624Z 27010KT 1/2SM +TSRA BKN008CB OVC014 16/14 A2996 RMK AO2 PK WND 23032/1611 SFC VIS 3/4 TSB08RAB15 OCNL LTGICCG TS OHD-NE-SE MOV NE P0032 RVRNO $=
200701051624 SPECI KATL 051624Z 27010KT 1/2SM +TSRA BKN008CB OVC014 16/14 A2996 RMK AO2 PK WND 23032/1611 SFC VIS 3/4 TSB08RAB15 OCNL LTGICCG TS OHD-NE-SE MOV NE P0032 RVRNO $=
200701051618 SPECI KATL 051618Z 26016G32KT 1/2SM +TSRA SQ FEW004 BKN010CB OVC018 16/13 A2995 RMK AO2 PK WND 23032/1611 TSB08RAB15 PRESRR OCNL LTGICCG TS OHD MOV NE P0009 RVRNO $=
200701051618 SPECI KATL 051618Z 26016G32KT 1/2SM +TSRA SQ FEW004 BKN010CB OVC018 16/13 A2995 RMK AO2 PK WND 23032/1611 TSB08RAB15 PRESRR OCNL LTGICCG TS OHD MOV NE P0009 RVRNO $=
200701051617 SPECI KATL 051617Z 27016G32KT 1/2SM +TSRA SQ BKN010CB OVC018 16/14 A2996 RMK AO2 PK WND 23032/1611 TSB08RAB15 PRESRR OCNL LTGICCG TS OHD MOV NE P0000 RVRNO PNO=
200701051617 SPECI KATL 051617Z 27016G32KT 1/2SM +TSRA SQ BKN010CB OVC018 16/14 A2996 RMK AO2 PK WND 23032/1611 TSB08RAB15 PRESRR OCNL LTGICCG TS OHD MOV NE P0000 RVRNO PNO=
200701051614 SPECI KATL 051614Z 26026G32KT 1 1/4SM TS HZ SQ BKN010CB OVC018 18/16 A2995 RMK AO2 PK WND 23032/1611 TWR VIS 4 TSB08 PRESRR OCNL LTGICCG TS OHD-S-NW MOV NE=
200701051614 SPECI KATL 051614Z 26026G32KT 1 1/4SM TS HZ SQ BKN010CB OVC018 18/16 A2995 RMK AO2 PK WND 23032/1611 TWR VIS 4 TSB08 PRESRR OCNL LTGICCG TS OHD-S-NW MOV NE=
200701051608 SPECI KATL 051608Z 15009KT 10SM TS BKN012CB OVC018 19/17 A2991 RMK AO2 TSB08 OCNL LTGIC TS S-NW MOV NE=
200701051608 SPECI KATL 051608Z 15009KT 10SM TS BKN012CB OVC018 19/17 A2991 RMK AO2 TSB08 OCNL LTGIC TS S-NW MOV NE=
200701051559 SPECI KATL 051559Z 15012KT 10SM BKN012 OVC017 19/17 A2992 RMK AO2 LTG DSNT S-NW CB DSNT S-NW MOV NE=
200701051559 SPECI KATL 051559Z 15012KT 10SM BKN012 OVC017 19/17 A2992 RMK AO2 LTG DSNT S-NW CB DSNT S-NW MOV NE=
200701051552 METAR KATL 051552Z 15010KT 8SM SCT010 OVC015 20/17 A2992 RMK AO2 RAE1457 SLP125 P0000 T02000172=
200701051525 SPECI KATL 051525Z 16009KT 6SM BR SCT007 BKN010 OVC020 19/17 A2994 RMK AO2 RAE1457 P0000=
200701051525 SPECI KATL 051525Z 16009KT 6SM BR SCT007 BKN010 OVC020 19/17 A2994 RMK AO2 RAE1457 P0000=
200701051508 SPECI KATL 051508Z 17007KT 6SM BR BKN007 OVC011 19/17 A2995 RMK AO2 RAE1457 CIG 004V008 P0000=
200701051508 SPECI KATL 051508Z 17007KT 6SM BR BKN007 OVC011 19/17 A2995 RMK AO2 RAE1457 CIG 004V008 P0000=
200701051457 SPECI KATL 051457Z 16008KT 6SM BR BKN004 OVC007 19/17 A2995 RMK AO2 RAE57 P0000=
200701051457 SPECI KATL 051457Z 16008KT 6SM BR BKN004 OVC007 19/17 A2995 RMK AO2 RAE57 P0000=
200701051452 METAR KATL 051452Z 17008KT 3SM -RA BR OVC004 18/17 A2995 RMK AO2 SFC VIS 5 RAE09B44 CIG 004V008 SLP138 P0001 60002 T01830167 53002=
200701051424 SPECI KATL 051424Z 17007KT 3SM BR OVC004 18/17 A2995 RMK AO2 SFC VIS 5 RAE09 P0001=
200701051424 SPECI KATL 051424Z 17007KT 3SM BR OVC004 18/17 A2995 RMK AO2 SFC VIS 5 RAE09 P0001=
200701051352 METAR KATL 051352Z 17008KT 3SM RA BR OVC006 18/17 A2994 RMK AO2 DZE49RAB20E32B49 CIG 004V009 SLP135 VIS SE-SW 1 1/2 P0000 T01830167=
200701051339 SPECI KATL 051339Z 16007KT 3SM -DZ OVC004 18/17 A2994 RMK AO2 SFC VIS 8 RAB20E32 CIG 004V009 P0000=
200701051339 SPECI KATL 051339Z 16007KT 3SM -DZ OVC004 18/17 A2994 RMK AO2 SFC VIS 8 RAB20E32 CIG 004V009 P0000=
200701051303 SPECI KATL 051303Z 16007KT 2 1/2SM -DZ OVC004 18/17 A2994 RMK AO2 SFC VIS 7 CIG 003V008 P0000=
200701051303 SPECI KATL 051303Z 16007KT 2 1/2SM -DZ OVC004 18/17 A2994 RMK AO2 SFC VIS 7 CIG 003V008 P0000=
200701051252 METAR KATL 051252Z 17009KT 1SM -DZ BR OVC004 18/17 A2994 RMK AO2 SFC VIS 6 DZE29B47RAB29E42 SLP135 TWRINC P0001 T01830167=
200701051238 SPECI KATL 051238Z 17009KT 1SM -RA BR OVC004 18/17 A2993 RMK AO2 SFC VIS 4 DZE29RAB29 CIG 003V007 P0001=
200701051238 SPECI KATL 051238Z 17009KT 1SM -RA BR OVC004 18/17 A2993 RMK AO2 SFC VIS 4 DZE29RAB29 CIG 003V007 P0001=
200701051152 METAR KATL 051152Z 15007KT 2SM -DZ BR OVC004 18/16 A2994 RMK AO2 SFC VIS 5 RAE1055DZB00 SLP136 P0000 60000 70002 T01780161 10178 20167 56007=
200701051052 METAR KATL 051052Z 13005KT 2SM -RA BR OVC004 17/16 A2995 RMK AO2 SFC VIS 5 RAB0957E20B47DZB31E47 SLP139 P0000 T01720161=
200701051032 SPECI KATL 051032Z 13005KT 5SM -DZ BR OVC004 17/16 A2996 RMK AO2 RAB0957E20DZB31 P0000=
200701051032 SPECI KATL 051032Z 13005KT 5SM -DZ BR OVC004 17/16 A2996 RMK AO2 RAB0957E20DZB31 P0000=
200701050952 METAR KATL 050952Z 15006KT 8SM BKN008 OVC012 18/16 A2997 RMK AO2 CIG 005V009 SLP143 T01780161=
200701050852 METAR KATL 050852Z 15006KT 9SM OVC008 17/16 A2997 RMK AO2 SLP143 T01720156 56019=
200701050831 SPECI KATL 050831Z 16006KT 9SM BKN008 OVC012 18/16 A2997 RMK AO2=
200701050831 SPECI KATL 050831Z 16006KT 9SM BKN008 OVC012 18/16 A2997 RMK AO2=
200701050756 SPECI KATL 050756Z 16007KT 8SM FEW008 BKN012 OVC024 17/16 A2998 RMK AO2=
200701050756 SPECI KATL 050756Z 16007KT 8SM FEW008 BKN012 OVC024 17/16 A2998 RMK AO2=
200701050752 METAR KATL 050752Z 15007KT 8SM FEW008 BKN016 OVC022 17/16 A2998 RMK AO2 SLP148 T01720156=
200701050716 SPECI KATL 050716Z 17006KT 8SM FEW008 BKN015 OVC043 17/16 A3000 RMK AO2=
200701050716 SPECI KATL 050716Z 17006KT 8SM FEW008 BKN015 OVC043 17/16 A3000 RMK AO2=
200701050708 SPECI KATL 050708Z 17006KT 1 1/2SM SCT008 BKN015 OVC043 17/16 A3000 RMK AO2 SFC VIS 8=
200701050708 SPECI KATL 050708Z 17006KT 1 1/2SM SCT008 BKN015 OVC043 17/16 A3000 RMK AO2 SFC VIS 8=
200701050652 METAR KATL 050652Z 17007KT 1 1/2SM BKN008 OVC015 17/16 A3000 RMK AO2 SFC VIS 7 CIG 005V010 SLP156 T01720156=
200701050552 METAR KATL 050552Z 18008KT 1 1/2SM BKN006 OVC012 17/16 A3003 RMK AO2 SFC VIS 7 SLP164 60002 T01670156 10172 20161 58019=
200701050531 SPECI KATL 050531Z 18008KT 1 1/2SM BR OVC006 17/16 A3003 RMK AO2 SFC VIS 5 CIG 003V010=
200701050531 SPECI KATL 050531Z 18008KT 1 1/2SM BR OVC006 17/16 A3003 RMK AO2 SFC VIS 5 CIG 003V010=
200701050452 METAR KATL 050452Z 17009KT 1/4SM BR OVC002 17/16 A3005 RMK AO2 SFC VIS 3 RAE0356DZB0356E51 SLP172 CIG 001V004 P0000 T01670156 401830100=
200701050357 SPECI KATL 050357Z 15006KT 1/4SM -DZ BR OVC002 16/15 A3006 RMK AO2 SFC VIS 1 3/4 RAE56DZB56 CIG 001V005 PCPN VRY LGT P0000=
200701050357 SPECI KATL 050357Z 15006KT 1/4SM -DZ BR OVC002 16/15 A3006 RMK AO2 SFC VIS 1 3/4 RAE56DZB56 CIG 001V005 PCPN VRY LGT P0000=
200701050352 METAR KATL 050352Z 14006KT 1/4SM -RA BR BKN001 OVC005 16/15 A3007 RMK AO2 SFC VIS 1 DZE0259B19E42RAB0259E19B42 SLP179 P0002 T01610150 RVRNO=
200701050326 SPECI KATL 050326Z 13005KT 1/4SM -DZ BR OVC001 16/15 A3008 RMK AO2 SFC VIS 3/4 DZE0259B19RAB0259E19 P0001 RVRNO=
200701050326 SPECI KATL 050326Z 13005KT 1/4SM -DZ BR OVC001 16/15 A3008 RMK AO2 SFC VIS 3/4 DZE0259B19RAB0259E19 P0001 RVRNO=
200701050252 METAR KATL 050252Z 14006KT 1/4SM -DZ BR OVC002 16/15 A3008 RMK AO2 SFC VIS 1 3/4 RAE0157DZB50 SLP184 CIG 001V004 PCPN VRY LGT P0000 60000 T01610150 56004=
200701050215 SPECI KATL 050215Z 14007KT 1/4SM BR OVC003 16/15 A3009 RMK AO2 SFC VIS 4 RAE0157 P0000=
200701050215 SPECI KATL 050215Z 14007KT 1/4SM BR OVC003 16/15 A3009 RMK AO2 SFC VIS 4 RAE0157 P0000=
200701050200 SPECI KATL 050200Z 13007KT 1 1/2SM BR OVC003 16/15 A3009 RMK AO2 SFC VIS 5 RAE0157 P0000=
200701050200 SPECI KATL 050200Z 13007KT 1 1/2SM BR OVC003 16/15 A3009 RMK AO2 SFC VIS 5 RAE0157 P0000=
200701050152 METAR KATL 050152Z 13007KT 3SM -RA BR OVC004 17/15 A3009 RMK AO2 SFC VIS 5 RAB52 SLP186 P0000 T01670150=
200701050052 METAR KATL 050052Z 12009KT 6SM BR OVC005 17/14 A3009 RMK AO2 SLP186 T01670144=
200701042352 METAR KATL 042352Z 12011KT 8SM OVC009 17/14 A3010 RMK AO2 SLP189 60000 T01720144 10183 20167 55003=
200701042306 SPECI KATL 042306Z 13007KT 9SM OVC013 18/14 A3010 RMK AO2=
200701042306 SPECI KATL 042306Z 13007KT 9SM OVC013 18/14 A3010 RMK AO2=
200701042252 METAR KATL 042252Z 13007KT 10SM OVC015 18/13 A3009 RMK AO2 RAE06 SLP188 P0000 T01780133=
200701042152 METAR KATL 042152Z 11008KT 9SM -RA OVC016 18/13 A3009 RMK AO2 RAB31 SLP188 P0000 T01780133=
200701042052 METAR KATL 042052Z 12006KT 10SM OVC018 18/13 A3011 RMK AO2 RAB28E44 SLP193 P0000 60000 T01780128 55003=
200701041952 METAR KATL 041952Z 11007KT 10SM OVC020 18/12 A3010 RMK AO2 SLP192 T01780122=
200701041852 METAR KATL 041852Z 13007KT 10SM BKN026 BKN090 BKN150 OVC200 18/12 A3012 RMK AO2 SLP196 T01780117=
200701041850 SPECI KATL 041850Z 13006KT 10SM BKN026 BKN090 BKN150 OVC200 18/12 A3012 RMK AO2=
200701041850 SPECI KATL 041850Z 13006KT 10SM BKN026 BKN090 BKN150 OVC200 18/12 A3012 RMK AO2=
200701041752 METAR KATL 041752Z 11005KT 10SM FEW030 SCT120 SCT150 OVC200 17/11 A3015 RMK AO2 SLP209 T01670111 10167 20111 58030=
200701041652 METAR KATL 041652Z 12006KT 10SM FEW010 SCT120 SCT150 OVC200 16/10 A3020 RMK AO2 SLP225 T01560100=
200701041552 METAR KATL 041552Z 11007KT 10SM OVC007 14/09 A3023 RMK AO2 SLP236 T01440089=
200701041452 METAR KATL 041452Z 09009KT 9SM OVC009 13/08 A3024 RMK AO2 SLP242 T01330078 55004=
200701041352 METAR KATL 041352Z 09010KT 10SM OVC009 12/07 A3024 RMK AO2 SLP241 T01220072=
200701041349 SPECI KATL 041349Z 09011KT 10SM OVC009 12/07 A3024 RMK AO2=
200701041349 SPECI KATL 041349Z 09011KT 10SM OVC009 12/07 A3024 RMK AO2=
200701041252 METAR KATL 041252Z 09007KT 10SM OVC013 12/07 A3026 RMK AO2 SLP246 T01220072=
200701041233 SPECI KATL 041233Z 09003KT 10SM OVC013 12/07 A3025 RMK AO2=
200701041233 SPECI KATL 041233Z 09003KT 10SM OVC013 12/07 A3025 RMK AO2=
200701041152 METAR KATL 041152Z 10005KT 10SM FEW015 OVC024 12/06 A3024 RMK AO2 SLP243 T01170061 10117 20106 58002=
200701041127 SPECI KATL 041127Z 10005KT 10SM SCT013 OVC024 12/06 A3024 RMK AO2=
200701041127 SPECI KATL 041127Z 10005KT 10SM SCT013 OVC024 12/06 A3024 RMK AO2=
200701041052 METAR KATL 041052Z 08007KT 10SM OVC013 12/06 A3024 RMK AO2 SLP241 T01170061=
200701040952 METAR KATL 040952Z 08006KT 10SM OVC011 12/06 A3026 RMK AO2 SLP247 T01170061=
200701040852 METAR KATL 040852Z 08007KT 10SM OVC011 12/06 A3025 RMK AO2 SLP244 T01170061 58006=
200701040752 METAR KATL 040752Z 07006KT 10SM OVC013 11/06 A3028 RMK AO2 SLP254 T01110056=
200701040724 SPECI KATL 040724Z 08007KT 10SM OVC013 11/06 A3027 RMK AO2=
200701040724 SPECI KATL 040724Z 08007KT 10SM OVC013 11/06 A3027 RMK AO2=
200701040652 METAR KATL 040652Z 07007KT 10SM OVC015 11/06 A3026 RMK AO2 SLP249 T01060056=
200701040552 METAR KATL 040552Z 09007KT 10SM BKN015 OVC250 11/06 A3027 RMK AO2 SLP251 T01110056 10117 20100 58018=
200701040528 SPECI KATL 040528Z 09008KT 10SM BKN013 OVC250 11/06 A3028 RMK AO2=
200701040528 SPECI KATL 040528Z 09008KT 10SM BKN013 OVC250 11/06 A3028 RMK AO2=
200701040512 SPECI KATL 040512Z 08009KT 10SM SCT015 OVC250 11/06 A3029 RMK AO2=
200701040512 SPECI KATL 040512Z 08009KT 10SM SCT015 OVC250 11/06 A3029 RMK AO2=
200701040452 METAR KATL 040452Z 08007KT 10SM BKN017 BKN030 OVC250 11/06 A3030 RMK AO2 SLP263 T01060056 401280017=
200701040352 METAR KATL 040352Z 08007KT 10SM BKN018 OVC030 11/06 A3032 RMK AO2 SLP270 T01110056=
200701040252 METAR KATL 040252Z 09005KT 10SM BKN020 OVC028 11/06 A3032 RMK AO2 SLP272 T01060056 53003=
200701040152 METAR KATL 040152Z 09009KT 10SM BKN022 BKN035 OVC250 11/06 A3031 RMK AO2 SLP268 T01060056=
200701040123 SPECI KATL 040123Z 08008KT 10SM BKN020 OVC035 11/06 A3031 RMK AO2=
200701040123 SPECI KATL 040123Z 08008KT 10SM BKN020 OVC035 11/06 A3031 RMK AO2=
200701040052 METAR KATL 040052Z 08009KT 10SM BKN018 OVC030 11/06 A3032 RMK AO2 SLP271 T01110056=
200701032352 METAR KATL 032352Z 10008KT 10SM OVC018 12/06 A3032 RMK AO2 SLP271 T01170056 10128 20111 58002=
200701032252 METAR KATL 032252Z 10005KT 10SM BKN023 OVC030 12/06 A3032 RMK AO2 SLP273 T01170056=
200701032250 SPECI KATL 032250Z 10005KT 10SM BKN023 OVC030 12/06 A3032 RMK AO2=
200701032250 SPECI KATL 032250Z 10005KT 10SM BKN023 OVC030 12/06 A3032 RMK AO2=
200701032211 SPECI KATL 032211Z 08007KT 10SM SCT025 BKN032 OVC200 12/06 A3032 RMK AO2=
200701032211 SPECI KATL 032211Z 08007KT 10SM SCT025 BKN032 OVC200 12/06 A3032 RMK AO2=
200701032201 SPECI KATL 032201Z 11006KT 10SM BKN026 BKN035 OVC200 12/06 A3032 RMK AO2=
200701032201 SPECI KATL 032201Z 11006KT 10SM BKN026 BKN035 OVC200 12/06 A3032 RMK AO2=
200701032152 METAR KATL 032152Z 09007KT 10SM FEW020 SCT030 BKN035 OVC200 12/06 A3032 RMK AO2 SLP272 T01170061=
200701032052 METAR KATL 032052Z 09008KT 10SM FEW018 SCT030 BKN200 12/06 A3032 RMK AO2 SLP273 T01220056 56016=
200701032038 SPECI KATL 032038Z 07008KT 10SM FEW018 SCT030 BKN200 13/06 A3033 RMK AO2=
200701032038 SPECI KATL 032038Z 07008KT 10SM FEW018 SCT030 BKN200 13/06 A3033 RMK AO2=
200701031952 METAR KATL 031952Z 10006KT 10SM OVC020 13/06 A3033 RMK AO2 SLP276 BINOVC T01280056=
200701031852 METAR KATL 031852Z 10006KT 10SM BKN018 BKN030 BKN200 12/05 A3035 RMK AO2 SLP283 T01220050=
200701031752 METAR KATL 031752Z 12008KT 10SM BKN018 BKN030 BKN200 12/04 A3037 RMK AO2 SLP288 T01170039 10117 20017 58019=
200701031652 METAR KATL 031652Z 08011KT 10SM BKN016 BKN032 BKN200 11/03 A3041 RMK AO2 SLP302 T01060028=
200701031609 SPECI KATL 031609Z 08010KT 10SM FEW018 BKN030 BKN200 10/02 A3043 RMK AO2=
200701031609 SPECI KATL 031609Z 08010KT 10SM FEW018 BKN030 BKN200 10/02 A3043 RMK AO2=
200701031552 METAR KATL 031552Z 08010KT 10SM BKN030 BKN040 BKN200 09/02 A3044 RMK AO2 SLP313 T00890017=
200701031501 SPECI KATL 031501Z 08010KT 10SM BKN030 BKN250 07/02 A3043 RMK AO2=
200701031501 SPECI KATL 031501Z 08010KT 10SM BKN030 BKN250 07/02 A3043 RMK AO2=
200701031452 METAR KATL 031452Z 09012KT 10SM BKN028 BKN250 06/01 A3043 RMK AO2 SLP309 T00610011 51014=
200701031347 METAR KATL 031347Z COR 08008KT 10SM BKN024 BKN250 04/01 A3041 RMK AO2 SLP303 T00440006=
200701031341 SPECI KATL 031341Z 07009KT 10SM BKN024 BKN250 04/01 A3041 RMK AO2=
200701031341 SPECI KATL 031341Z 07009KT 10SM BKN024 BKN250 04/01 A3041 RMK AO2=
200701031252 METAR KATL 031252Z COR 08006KT 10SM FEW024 02/M01 A3041 RMK AO2 SLP302 T00221006=
200701031152 METAR KATL 031152Z 08008KT 10SM CLR 02/M01 A3039 RMK AO2 SLP296 T00171011 10050 20017 53003=
200701031052 METAR KATL 031052Z 07008KT 10SM CLR 02/M01 A3036 RMK AO2 SLP287 T00171006=
200701030952 METAR KATL 030952Z 10007KT 10SM CLR 02/M01 A3037 RMK AO2 SLP290 T00221006=
200701030852 METAR KATL 030852Z 10004KT 10SM CLR 03/M01 A3038 RMK AO2 SLP290 T00281006 53002 $=
200701030752 METAR KATL 030752Z 07008KT 10SM CLR 03/M01 A3037 RMK AO2 SLP289 T00281006=
200701030652 METAR KATL 030652Z 09005KT 10SM CLR 03/M01 A3037 RMK AO2 SLP288 T00331006=
200701030552 METAR KATL 030552Z COR 10004KT 10SM CLR 05/00 A3037 RMK AO2 SLP289 T00500000 10100 20044 55002=
200701030452 METAR KATL 030452Z 07007KT 10SM CLR 04/M01 A3037 RMK AO2 SLP288 T00441006 401440017=
200701030352 METAR KATL 030352Z 08007KT 10SM FEW250 06/00 A3038 RMK AO2 SLP292 T00560000=
200701030252 METAR KATL 030252Z 10007KT 10SM FEW250 08/M01 A3038 RMK AO2 SLP291 T00781006 51015=
200701030152 METAR KATL 030152Z 10005KT 10SM FEW250 08/M01 A3038 RMK AO2 SLP292 T00781011=
200701030052 METAR KATL 030052Z 09006KT 10SM FEW250 08/M01 A3035 RMK AO2 SLP285 T00831011=
200701022352 METAR KATL 022352Z 09007KT 10SM FEW250 09/M01 A3033 RMK AO2 SLP277 T00941011 10144 20094 51012=
200701022252 METAR KATL 022252Z 10006KT 10SM FEW200 11/M01 A3033 RMK AO2 SLP274 T01111011=
200701022152 METAR KATL 022152Z 09009KT 10SM FEW220 13/M01 A3031 RMK AO2 SLP267 T01331011=
200701022052 METAR KATL 022052Z 05008KT 10SM FEW220 14/M01 A3030 RMK AO2 SLP262 T01391011 56012=
200701021952 METAR KATL 021952Z 06007KT 360V130 10SM FEW220 14/M01 A3030 RMK AO2 SLP262 T01391006=
200701021852 METAR KATL 021852Z VRB05KT 10SM FEW220 12/M01 A3030 RMK AO2 SLP266 T01221006=
200701021752 METAR KATL 021752Z 00000KT 10SM FEW220 11/M01 A3033 RMK AO2 SLP276 T01061006 10111 20017 58008=
200701021652 METAR KATL 021652Z 07006KT 10SM FEW220 10/M01 A3035 RMK AO2 SLP283 T01001006=
200701021552 METAR KATL 021552Z 09007KT 10SM FEW220 08/M02 A3037 RMK AO2 SLP291 T00781017=
200701021452 METAR KATL 021452Z 07004KT 10SM FEW220 06/M01 A3036 RMK AO2 SLP286 T00611011 53031=
200701021352 METAR KATL 021352Z 34004KT 10SM CLR 03/M02 A3032 RMK AO2 SLP275 T00331017=
200701021252 METAR KATL 021252Z 36008KT 10SM FEW250 02/M02 A3030 RMK AO2 SLP265 T00171022=
200701021152 METAR KATL 021152Z 36008KT 10SM FEW250 02/M02 A3026 RMK AO2 SLP255 T00221022 10033 20017 53014=
200701021052 METAR KATL 021052Z 35008KT 10SM CLR 02/M02 A3024 RMK AO2 SLP244 T00221022=
200701020952 METAR KATL 020952Z 34009KT 10SM CLR 02/M02 A3021 RMK AO2 SLP235 T00221022=
200701020852 METAR KATL 020852Z 34011KT 10SM CLR 02/M02 A3022 RMK AO2 SLP238 T00221022 53006=
200701020752 METAR KATL 020752Z 34011KT 10SM CLR 03/M02 A3021 RMK AO2 SLP233 T00281022=
200701020652 METAR KATL 020652Z 33011KT 10SM CLR 03/M02 A3021 RMK AO2 SLP231 T00331022=
200701020552 METAR KATL 020552Z 33011KT 10SM FEW025 03/M02 A3020 RMK AO2 SLP230 T00331022 10078 20033 51003=
200701020452 METAR KATL 020452Z 33018G23KT 10SM FEW026 03/M02 A3020 RMK AO2 SLP230 T00331022 401560033=
200701020426 SPECI KATL 020426Z 33014G23KT 10SM SCT026 04/M02 A3022 RMK AO2=
200701020426 SPECI KATL 020426Z 33014G23KT 10SM SCT026 04/M02 A3022 RMK AO2=
200701020406 SPECI KATL 020406Z 33013KT 10SM BKN026 04/M02 A3022 RMK AO2=
200701020406 SPECI KATL 020406Z 33013KT 10SM BKN026 04/M02 A3022 RMK AO2=
200701020352 METAR KATL 020352Z 33013G20KT 10SM SCT028 04/M02 A3022 RMK AO2 PK WND 34026/0332 SLP235 T00391022=
200701020333 SPECI KATL 020333Z 34018G26KT 10SM SCT028 04/M02 A3021 RMK AO2 PK WND 34026/0332=
200701020333 SPECI KATL 020333Z 34018G26KT 10SM SCT028 04/M02 A3021 RMK AO2 PK WND 34026/0332=
200701020252 METAR KATL 020252Z 31019KT 10SM BKN025 05/M01 A3019 RMK AO2 SLP228 T00501011 53021=
200701020152 METAR KATL 020152Z 31014KT 10SM OVC025 06/01 A3016 RMK AO2 SLP217 T00610006=
200701020052 METAR KATL 020052Z 30017G21KT 10SM BKN030 07/01 A3014 RMK AO2 SLP209 T00670006=
200701012352 METAR KATL 012352Z 30011KT 10SM OVC030 08/01 A3013 RMK AO2 SLP205 BINOVC T00780011 10156 20078 51028=
200701012252 METAR KATL 012252Z 30014KT 10SM BKN032 BKN200 08/01 A3012 RMK AO2 SLP202 T00830011=
200701012152 METAR KATL 012152Z 32017G21KT 10SM SCT040 11/03 A3008 RMK AO2 SLP187 T01060028=
200701012052 METAR KATL 012052Z 30015G20KT 10SM FEW040 13/04 A3005 RMK AO2 SLP174 T01330039 53009=
200701011952 METAR KATL 011952Z 29010KT 10SM FEW050 SCT250 14/04 A3002 RMK AO2 SLP164 T01440044=
200701011852 METAR KATL 011852Z 27010KT 220V290 10SM SCT250 15/04 A3000 RMK AO2 SLP157 T01500044=
200701011752 METAR KATL 011752Z 27009KT 10SM BKN250 15/04 A3002 RMK AO2 SLP163 T01500039 10150 20100 58012=
200701011652 METAR KATL 011652Z 27011KT 10SM BKN250 15/06 A3004 RMK AO2 SLP169 T01500056=
200701011552 METAR KATL 011552Z 28011KT 10SM FEW200 13/06 A3005 RMK AO2 SLP172 T01330061=
200701011452 METAR KATL 011452Z 27007KT 10SM FEW095 SCT180 12/07 A3005 RMK AO2 SLP175 T01220072 52009=
200701011352 METAR KATL 011352Z 24003KT 10SM SCT180 11/08 A3004 RMK AO2 SLP171 T01060078=
200701011252 METAR KATL 011252Z 30007KT 10SM SCT055 SCT250 10/07 A3003 RMK AO2 SLP168 T01000067=
