##########################################################
# Query made at 04/19/2024 23:06:15 UTC
# Time interval: from 05/01/2008 12:00  to 05/31/2008 12:59  UTC
##########################################################

##########################################################
# KATL, Atlanta, Hartsfield - Jackson Atlanta International Airport (United States)
# WMO index: 72219. WIGOS ID: 0-20000-0-72219
# Latitude 33-38-59N. Longitude 084-25-00W. Altitude 312 m.
##########################################################

200805311252 METAR KATL 311252Z 27006KT 8SM FEW080 SCT250 24/20 A3011 RMK AO2 SLP186 T02440200=
200805311152 METAR KATL 311152Z 22004KT 5SM BR CLR 22/19 A3010 RMK AO2 SLP183 T02170194 10233 20211 50003=
200805311052 METAR KATL 311052Z 20004KT 5SM BR CLR 21/19 A3010 RMK AO2 SLP184 T02110194=
200805310952 METAR KATL 310952Z 00000KT 8SM SCT085 22/19 A3009 RMK AO2 SLP181 T02170194=
200805310852 METAR KATL 310852Z 20003KT 8SM SCT075 22/19 A3009 RMK AO2 SLP181 T02170194 53001=
200805310752 METAR KATL 310752Z 20003KT 9SM SCT050 22/19 A3009 RMK AO2 SLP181 T02220194=
200805310652 METAR KATL 310652Z 18006KT 9SM FEW042 SCT060 BKN070 23/19 A3008 RMK AO2 SLP178 T02330194=
200805310552 METAR KATL 310552Z 19004KT 9SM FEW049 23/19 A3009 RMK AO2 SLP179 T02280194 10272 20228 51003=
200805310452 METAR KATL 310452Z 19006KT 9SM FEW100 23/19 A3008 RMK AO2 SLP179 T02330194 402830178=
200805310352 METAR KATL 310352Z 19006KT 9SM FEW200 24/20 A3008 RMK AO2 SLP179 T02390200=
200805310252 METAR KATL 310252Z 18009KT 10SM FEW090 SCT200 25/20 A3008 RMK AO2 SLP175 T02500200 53002=
200805310152 METAR KATL 310152Z 17006KT 9SM FEW090 SCT150 BKN200 26/20 A3007 RMK AO2 SLP174 T02560200=
200805310052 METAR KATL 310052Z 18005KT 9SM FEW100 SCT250 26/19 A3007 RMK AO2 SLP173 T02610194=
200805302352 METAR KATL 302352Z 19007KT 9SM SCT090 SCT150 BKN250 27/19 A3007 RMK AO2 SLP174 T02720194 10283 20239 56008=
200805302252 METAR KATL 302252Z 19004KT 10SM FEW100 BKN140 27/19 A3007 RMK AO2 SLP175 T02720189=
200805302152 METAR KATL 302152Z 00000KT 9SM FEW040 SCT110 28/19 A3008 RMK AO2 SLP178 T02780189=
200805302052 METAR KATL 302052Z 18007KT 6SM HZ FEW030 SCT090 SCT150 27/19 A3010 RMK AO2 SLP183 T02720189 56019=
200805301952 METAR KATL 301952Z VRB03KT 5SM HZ FEW027 27/19 A3011 RMK AO2 SLP189 T02670194=
200805301852 METAR KATL 301852Z VRB03KT 5SM HZ SCT019 25/19 A3013 RMK AO2 SLP198 T02500194=
200805301834 SPECI KATL 301834Z 00000KT 5SM HZ SCT019 25/19 A3014 RMK AO2=
200805301834 SPECI KATL 301834Z 00000KT 5SM HZ SCT019 25/19 A3014 RMK AO2=
200805301752 METAR KATL 301752Z VRB05KT 6SM HZ SCT011 24/20 A3015 RMK AO2 SLP204 T02440200 10244 20183 56011=
200805301749 SPECI KATL 301749Z 16003KT 6SM HZ SCT011 24/19 A3016 RMK AO2=
200805301749 SPECI KATL 301749Z 16003KT 6SM HZ SCT011 24/19 A3016 RMK AO2=
200805301730 SPECI KATL 301730Z 14004KT 6SM HZ BKN011 23/19 A3017 RMK AO2=
200805301730 SPECI KATL 301730Z 14004KT 6SM HZ BKN011 23/19 A3017 RMK AO2=
200805301709 SPECI KATL 301709Z 11005KT 2 1/2SM HZ OVC011 22/19 A3018 RMK AO2 SFC VIS 5=
200805301709 SPECI KATL 301709Z 11005KT 2 1/2SM HZ OVC011 22/19 A3018 RMK AO2 SFC VIS 5=
200805301652 METAR KATL 301652Z 11006KT 2 1/2SM HZ OVC008 22/19 A3018 RMK AO2 SFC VIS 5 SLP215 T02220189=
200805301552 METAR KATL 301552Z 08008KT 2 1/2SM HZ OVC008 22/19 A3019 RMK AO2 SFC VIS 4 SLP216 T02170189=
200805301452 METAR KATL 301452Z 13003KT 2 1/2SM BR OVC006 21/19 A3018 RMK AO2 SFC VIS 5 SLP214 T02110189 50007=
200805301435 SPECI KATL 301435Z 00000KT 1 1/2SM BR OVC006 21/18 A3019 RMK AO2 SFC VIS 4=
200805301435 SPECI KATL 301435Z 00000KT 1 1/2SM BR OVC006 21/18 A3019 RMK AO2 SFC VIS 4=
200805301404 SPECI KATL 301404Z 00000KT 1 1/2SM BR OVC004 20/18 A3019 RMK AO2 SFC VIS 5=
200805301404 SPECI KATL 301404Z 00000KT 1 1/2SM BR OVC004 20/18 A3019 RMK AO2 SFC VIS 5=
200805301352 METAR KATL 301352Z 00000KT 1SM BR OVC004 20/18 A3019 RMK AO2 SFC VIS 5 SLP217 T02000183=
200805301252 METAR KATL 301252Z 00000KT 1SM BR OVC004 19/18 A3018 RMK AO2 SFC VIS 4 SLP215 T01940178=
200805301219 SPECI KATL 301219Z 17003KT 1SM BR OVC004 19/17 A3017 RMK AO2 SFC VIS 4=
200805301219 SPECI KATL 301219Z 17003KT 1SM BR OVC004 19/17 A3017 RMK AO2 SFC VIS 4=
200805301152 METAR KATL 301152Z 18004KT 2SM BR OVC004 18/17 A3016 RMK AO2 SFC VIS 4 SLP208 T01830172 10189 20178 55001=
200805301108 SPECI KATL 301108Z 17004KT 2SM BR OVC004 18/17 A3016 RMK AO2 SFC VIS 3=
200805301108 SPECI KATL 301108Z 17004KT 2SM BR OVC004 18/17 A3016 RMK AO2 SFC VIS 3=
200805301052 METAR KATL 301052Z 15005KT 3SM BR OVC004 18/17 A3016 RMK AO2 SFC VIS 4 SLP207 T01830167=
200805301013 SPECI KATL 301013Z 15004KT 6SM BR OVC004 18/17 A3016 RMK AO2=
200805301013 SPECI KATL 301013Z 15004KT 6SM BR OVC004 18/17 A3016 RMK AO2=
200805300952 METAR KATL 300952Z 00000KT 7SM OVC008 18/17 A3015 RMK AO2 CIG 005V009 SLP203 T01830167=
200805300926 SPECI KATL 300926Z 15003KT 7SM BKN008 OVC012 18/16 A3016 RMK AO2=
200805300926 SPECI KATL 300926Z 15003KT 7SM BKN008 OVC012 18/16 A3016 RMK AO2=
200805300900 SPECI KATL 300900Z 14003KT 7SM BKN012 BKN075 18/16 A3016 RMK AO2=
200805300900 SPECI KATL 300900Z 14003KT 7SM BKN012 BKN075 18/16 A3016 RMK AO2=
200805300852 METAR KATL 300852Z 15004KT 7SM SCT075 18/16 A3017 RMK AO2 SLP208 T01780161 53002=
200805300752 METAR KATL 300752Z 15003KT 7SM FEW080 18/16 A3015 RMK AO2 SLP202 T01780161=
200805300652 METAR KATL 300652Z 00000KT 7SM FEW080 18/16 A3014 RMK AO2 SLP202 T01780161=
200805300552 METAR KATL 300552Z 16004KT 8SM FEW080 18/16 A3016 RMK AO2 SLP207 T01780161 10239 20178 58003=
200805300452 METAR KATL 300452Z 16008KT 10SM FEW080 18/16 A3017 RMK AO2 SLP210 T01830161 402560144=
200805300352 METAR KATL 300352Z 16005KT 10SM FEW080 19/17 A3017 RMK AO2 SLP212 T01940167=
200805300252 METAR KATL 300252Z 14003KT 10SM CLR 21/17 A3017 RMK AO2 SLP211 T02110172 53010=
200805300152 METAR KATL 300152Z 11006KT 10SM FEW035 22/17 A3015 RMK AO2 SLP206 T02220167=
200805300052 METAR KATL 300052Z 09008KT 9SM SCT035 SCT070 22/17 A3014 RMK AO2 SLP201 T02170167=
200805292352 METAR KATL 292352Z 11006KT 9SM BKN034 OVC070 24/17 A3014 RMK AO2 SLP199 T02390167 10256 20194 55001=
200805292252 METAR KATL 292252Z VRB03KT 9SM SCT035 25/17 A3012 RMK AO2 SLP195 T02500167=
200805292152 METAR KATL 292152Z 00000KT 9SM FEW030 24/17 A3013 RMK AO2 SLP195 T02440167=
200805292052 METAR KATL 292052Z 00000KT 9SM FEW030 24/17 A3014 RMK AO2 SLP200 T02440167 58017=
200805291952 METAR KATL 291952Z 00000KT 9SM SCT027 23/16 A3017 RMK AO2 SLP209 T02330161=
200805291852 METAR KATL 291852Z 09005KT 9SM FEW020 21/16 A3018 RMK AO2 SLP214 T02060156=
200805291810 SPECI KATL 291810Z 08006KT 9SM SCT020 21/15 A3019 RMK AO2=
200805291810 SPECI KATL 291810Z 08006KT 9SM SCT020 21/15 A3019 RMK AO2=
200805291752 METAR KATL 291752Z VRB05KT 8SM BKN018 21/15 A3019 RMK AO2 SLP218 60000 T02060150 10206 20144 58008=
200805291707 SPECI KATL 291707Z VRB04KT 7SM OVC016 19/14 A3020 RMK AO2=
200805291707 SPECI KATL 291707Z VRB04KT 7SM OVC016 19/14 A3020 RMK AO2=
200805291652 METAR KATL 291652Z 10006KT 7SM OVC014 19/14 A3020 RMK AO2 SLP222 T01890144=
200805291552 METAR KATL 291552Z 06007KT 7SM OVC012 17/14 A3021 RMK AO2 SLP225 T01720139=
200805291452 METAR KATL 291452Z 06009KT 6SM HZ OVC010 16/13 A3022 RMK AO2 SLP226 60000 T01610133 51002=
200805291447 SPECI KATL 291447Z 07007KT 6SM HZ OVC010 16/13 A3021 RMK AO2=
200805291447 SPECI KATL 291447Z 07007KT 6SM HZ OVC010 16/13 A3021 RMK AO2=
200805291352 METAR KATL 291352Z 09011KT 6SM BR OVC008 15/13 A3021 RMK AO2 DZE47 SLP225 P0000 T01500128=
200805291252 METAR KATL 291252Z 07009KT 7SM -DZ OVC008 15/13 A3021 RMK AO2 SLP224 PCPN VRY LGT P0000 T01500128=
200805291152 METAR KATL 291152Z 06009KT 6SM -DZ BR OVC008 15/13 A3020 RMK AO2 SLP221 P0000 60000 70006 T01500133 10200 20150 51014=
200805291052 METAR KATL 291052Z 06009KT 8SM -DZ OVC008 15/13 A3019 RMK AO2 DZB52 SLP218 P0000 T01500128=
200805290952 METAR KATL 290952Z 07012KT 10SM OVC008 16/13 A3017 RMK AO2 DZE51 SLP211 P0000 T01560133=
200805290852 METAR KATL 290852Z 08012KT 9SM -DZ OVC006 16/14 A3016 RMK AO2 RAE27DZB45 SLP207 P0000 60000 T01560139 53007=
200805290752 METAR KATL 290752Z 08014KT 7SM -RA OVC008 17/15 A3015 RMK AO2 RAB45 SLP201 P0000 T01670150=
200805290652 METAR KATL 290652Z 08014G17KT 10SM OVC008 18/16 A3015 RMK AO2 SLP201 T01830156=
200805290605 SPECI KATL 290605Z 09014KT 10SM OVC008 19/17 A3014 RMK AO2=
200805290605 SPECI KATL 290605Z 09014KT 10SM OVC008 19/17 A3014 RMK AO2=
200805290552 METAR KATL 290552Z 09015KT 9SM OVC010 20/18 A3014 RMK AO2 SLP197 T02000178 10244 20200 51008=
200805290452 METAR KATL 290452Z 10013KT 9SM BKN014 BKN020 OVC150 22/19 A3014 RMK AO2 SLP196 T02170189 402780206=
200805290352 METAR KATL 290352Z 08010KT 9SM BKN018 BKN030 BKN150 OVC200 22/19 A3013 RMK AO2 SLP193 T02220189=
200805290252 METAR KATL 290252Z 09004KT 10SM SCT030 BKN055 BKN150 OVC250 23/19 A3011 RMK AO2 SLP188 T02330189 53009=
200805290152 METAR KATL 290152Z 09004KT 10SM SCT030 BKN150 BKN200 24/18 A3010 RMK AO2 SLP184 T02390183=
200805290052 METAR KATL 290052Z 33003KT 10SM FEW035 BKN140 BKN200 OVC250 24/19 A3009 RMK AO2 SLP181 T02390189=
200805282352 METAR KATL 282352Z 35005KT 10SM FEW035 SCT120 BKN150 OVC200 24/19 A3009 RMK AO2 SLP179 60006 T02440194 10278 20228 53003=
200805282252 METAR KATL 282252Z 31003KT 9SM FEW035 SCT100 BKN150 OVC200 24/21 A3008 RMK AO2 RAE14 SLP177 P0006 T02390206=
200805282152 METAR KATL 282152Z 30011KT 6SM RA FEW035 SCT090 BKN120 OVC150 24/21 A3008 RMK AO2 RAE2054B43 SLP178 VIS LWR SW P0000 T02390211=
200805282052 METAR KATL 282052Z 27005KT 10SM -RA FEW015 BKN037 OVC150 25/20 A3008 RMK AO2 RAB29 SLP176 LTG DSNT S CB DSNT S W MOV E P0000 60000 T02500200 55007=
200805282024 SPECI KATL 282024Z 31007KT 10SM SCT037 BKN047 BKN100 BKN250 27/18 A3007 RMK AO2 LTG DSNT SW CB DSNT SW MOV E=
200805282024 SPECI KATL 282024Z 31007KT 10SM SCT037 BKN047 BKN100 BKN250 27/18 A3007 RMK AO2 LTG DSNT SW CB DSNT SW MOV E=
200805281954 SPECI KATL 281954Z 33007KT 10SM BKN040 BKN100 BKN250 27/18 A3007 RMK AO2 LTG DSNT SW TS 15SM DSNT SW MOV ESE CB DSNT SW-W MOV ESE=
200805281954 SPECI KATL 281954Z 33007KT 10SM BKN040 BKN100 BKN250 27/18 A3007 RMK AO2 LTG DSNT SW TS 15SM DSNT SW MOV ESE CB DSNT SW-W MOV ESE=
200805281952 METAR KATL 281952Z 35007KT 10SM BKN040 BKN100 BKN250 27/18 A3007 RMK AO2 SLP175 CB DSNT SW-W MOV ESE T02720183=
200805281852 METAR KATL 281852Z 00000KT 10SM FEW035 SCT095 SCT150 BKN250 27/18 A3008 RMK AO2 SLP178 T02720183=
200805281752 METAR KATL 281752Z 32011KT 10SM FEW030 BKN150 BKN180 BKN250 27/19 A3010 RMK AO2 SLP182 T02720189 10272 20217 58003=
200805281652 METAR KATL 281652Z 26008KT 9SM FEW030 BKN150 BKN180 BKN250 26/18 A3010 RMK AO2 SLP185 T02610183=
200805281552 METAR KATL 281552Z 31011KT 10SM SCT035 BKN150 BKN180 BKN250 27/18 A3011 RMK AO2 SLP187 T02670183=
200805281452 METAR KATL 281452Z 30007KT 10SM BKN150 BKN180 BKN250 26/18 A3011 RMK AO2 SLP185 T02560183 51009=
200805281352 METAR KATL 281352Z 30007KT 10SM FEW150 SCT180 BKN250 24/17 A3010 RMK AO2 SLP183 T02440172=
200805281252 METAR KATL 281252Z 26004KT 9SM BKN150 22/18 A3009 RMK AO2 SLP181 T02220183=
200805281152 METAR KATL 281152Z 21003KT 7SM FEW042 BKN150 22/18 A3008 RMK AO2 SLP176 T02170183 10222 20206 53014=
200805281052 METAR KATL 281052Z 27003KT 8SM SCT065 BKN080 BKN150 21/18 A3006 RMK AO2 SLP172 T02060178=
200805280952 METAR KATL 280952Z 00000KT 9SM SCT065 BKN150 21/18 A3004 RMK AO2 SLP165 T02110183=
200805280852 METAR KATL 280852Z 27003KT 10SM BKN150 21/18 A3004 RMK AO2 SLP161 T02110178 55004=
200805280752 METAR KATL 280752Z 00000KT 9SM BKN150 22/18 A3002 RMK AO2 SLP157 T02170183=
200805280652 METAR KATL 280652Z 26003KT 9SM FEW120 BKN150 22/18 A3003 RMK AO2 SLP160 T02170183=
200805280552 METAR KATL 280552Z 27003KT 9SM FEW120 BKN150 22/19 A3005 RMK AO2 SLP165 T02220189 10261 20222 58000=
200805280452 METAR KATL 280452Z 00000KT 10SM FEW120 BKN150 23/19 A3005 RMK AO2 SLP167 T02280189 402940189=
200805280352 METAR KATL 280352Z 00000KT 10SM BKN110 BKN150 23/18 A3005 RMK AO2 SLP164 T02330183=
200805280252 METAR KATL 280252Z 26003KT 10SM BKN120 24/18 A3005 RMK AO2 SLP166 T02390183 51008=
200805280152 METAR KATL 280152Z 27005KT 10SM BKN120 24/19 A3005 RMK AO2 SLP166 T02440189=
200805280052 METAR KATL 280052Z 26003KT 10SM SCT120 BKN150 25/18 A3003 RMK AO2 SLP161 T02500183=
200805272352 METAR KATL 272352Z 28004KT 10SM SCT120 BKN150 26/18 A3002 RMK AO2 SLP159 60000 T02560183 10294 20250 53003=
200805272252 METAR KATL 272252Z 32006KT 10SM FEW085 SCT120 BKN150 BKN250 27/18 A3001 RMK AO2 RAE13 SLP155 P0000 T02670183=
200805272152 METAR KATL 272152Z 32007KT 10SM -RA SCT050TCU BKN090 OVC150 26/18 A3002 RMK AO2 RAB42 SLP157 TCU SW P0000 T02560183=
200805272052 METAR KATL 272052Z 21007G14KT 10SM BKN060 29/16 A3002 RMK AO2 SLP155 CB DSNT NW MOV E T02940156 56018=
200805271952 METAR KATL 271952Z 22008KT 10SM SCT055 28/16 A3003 RMK AO2 SLP158 T02830156=
200805271852 METAR KATL 271852Z 25008KT 10SM BKN055 BKN110 28/16 A3005 RMK AO2 SLP167 T02830156=
200805271752 METAR KATL 271752Z VRB06KT 10SM FEW050 SCT250 28/16 A3007 RMK AO2 SLP172 T02830156 10283 20194 58006=
200805271652 METAR KATL 271652Z VRB04KT 10SM FEW044 SCT100 SCT250 27/15 A3009 RMK AO2 SLP179 T02720150=
200805271552 METAR KATL 271552Z 20008KT 10SM FEW120 SCT250 26/15 A3009 RMK AO2 SLP182 T02610150=
200805271452 METAR KATL 271452Z 20009KT 10SM CLR 24/15 A3009 RMK AO2 SLP179 T02440150 50002=
200805271352 METAR KATL 271352Z 21006KT 10SM FEW120 22/15 A3009 RMK AO2 SLP180 T02220150=
200805271252 METAR KATL 271252Z 22007KT 10SM FEW120 21/14 A3008 RMK AO2 SLP178 T02110144=
200805271152 METAR KATL 271152Z 21004KT 10SM FEW120 SCT200 19/14 A3008 RMK AO2 SLP177 T01940139 10211 20189 50013=
200805271052 METAR KATL 271052Z 00000KT 10SM FEW120 BKN180 19/13 A3008 RMK AO2 SLP178 T01890133=
200805270952 METAR KATL 270952Z 00000KT 10SM FEW110 SCT180 19/14 A3006 RMK AO2 SLP171 T01890139=
200805270852 METAR KATL 270852Z 00000KT 10SM FEW110 19/13 A3004 RMK AO2 SLP164 T01940133 55000=
200805270752 METAR KATL 270752Z 24003KT 10SM SCT110 21/13 A3004 RMK AO2 SLP164 T02060133=
200805270652 METAR KATL 270652Z 19006KT 10SM SCT110 21/14 A3003 RMK AO2 SLP161 T02060139=
200805270552 METAR KATL 270552Z 20009KT 10SM SCT120 21/14 A3004 RMK AO2 SLP164 T02110144 10267 20206 58012=
200805270452 METAR KATL 270452Z 20006KT 10SM FEW110 22/14 A3006 RMK AO2 SLP170 T02170144 402780167=
200805270352 METAR KATL 270352Z 22003KT 10SM BKN060 BKN110 23/14 A3007 RMK AO2 SLP175 T02280144=
200805270252 METAR KATL 270252Z 23003KT 10SM FEW085 SCT110 24/14 A3008 RMK AO2 SLP177 T02390144 53007=
200805270152 METAR KATL 270152Z 00000KT 10SM FEW250 24/15 A3006 RMK AO2 SLP172 T02440150=
200805270052 METAR KATL 270052Z 21003KT 10SM FEW060 26/14 A3006 RMK AO2 SLP169 T02560144=
200805262352 METAR KATL 262352Z 24006KT 10SM SCT060 SCT250 27/13 A3006 RMK AO2 SLP170 T02670133 10278 20256 52000=
200805262252 METAR KATL 262252Z 22003KT 10SM BKN060 BKN250 27/13 A3006 RMK AO2 SLP170 T02720133=
200805262152 METAR KATL 262152Z 24008KT 10SM SCT060 SCT250 27/13 A3006 RMK AO2 SLP170 T02670128=
200805262052 METAR KATL 262052Z 21006KT 10SM SCT060 SCT250 27/13 A3006 RMK AO2 SLP170 T02720128 56019=
200805261952 METAR KATL 261952Z 20008KT 10SM SCT060 SCT250 27/13 A3007 RMK AO2 SLP174 T02670133=
200805261852 METAR KATL 261852Z 19005KT 10SM SCT049 SCT250 27/13 A3009 RMK AO2 SLP182 T02670133=
200805261752 METAR KATL 261752Z VRB04KT 10SM SCT045 SCT250 26/14 A3012 RMK AO2 SLP189 T02610139 10267 20172 58009=
200805261652 METAR KATL 261652Z 19004KT 10SM FEW050 SCT250 25/14 A3014 RMK AO2 SLP197 T02500144=
200805261552 METAR KATL 261552Z 19007KT 10SM FEW250 24/14 A3013 RMK AO2 SLP195 T02390144=
200805261452 METAR KATL 261452Z 19009KT 10SM FEW250 23/14 A3014 RMK AO2 SLP199 T02280144 50005=
200805261352 METAR KATL 261352Z 18006KT 10SM FEW250 21/14 A3015 RMK AO2 SLP203 T02110144=
200805261252 METAR KATL 261252Z 19007KT 10SM FEW250 19/14 A3015 RMK AO2 SLP200 T01940144=
200805261152 METAR KATL 261152Z 19005KT 10SM FEW250 17/14 A3013 RMK AO2 SLP195 T01720144 10200 20167 51015=
200805261052 METAR KATL 261052Z 21004KT 9SM FEW250 17/14 A3012 RMK AO2 SLP192 T01670139=
200805260952 METAR KATL 260952Z 17005KT 10SM CLR 17/14 A3010 RMK AO2 SLP185 T01720139=
200805260852 METAR KATL 260852Z 17007KT 10SM CLR 18/13 A3008 RMK AO2 SLP178 T01780128 53005=
200805260752 METAR KATL 260752Z 18010KT 10SM CLR 18/13 A3008 RMK AO2 SLP176 T01830133=
200805260652 METAR KATL 260652Z 17009KT 10SM CLR 19/12 A3007 RMK AO2 SLP173 T01940122=
200805260552 METAR KATL 260552Z 15006KT 10SM CLR 20/12 A3007 RMK AO2 SLP173 T02000122 10261 20200 58001=
200805260452 METAR KATL 260452Z 15006KT 10SM CLR 21/13 A3008 RMK AO2 SLP177 T02060128 402780172=
200805260352 METAR KATL 260352Z 15005KT 10SM CLR 21/13 A3008 RMK AO2 SLP177 T02110128=
200805260252 METAR KATL 260252Z 15006KT 10SM CLR 22/13 A3007 RMK AO2 SLP174 T02220128 53004=
200805260152 METAR KATL 260152Z 13006KT 10SM CLR 23/12 A3006 RMK AO2 SLP171 T02330122=
200805260052 METAR KATL 260052Z 12007KT 10SM FEW060 25/12 A3006 RMK AO2 SLP171 T02500122=
200805252352 METAR KATL 252352Z 13005KT 10SM FEW060 SCT250 26/12 A3006 RMK AO2 SLP171 T02610122 10278 20250 55004=
200805252252 METAR KATL 252252Z 17005KT 10SM FEW060 SCT250 27/12 A3006 RMK AO2 SLP169 T02670122=
200805252152 METAR KATL 252152Z 00000KT 10SM FEW060 BKN250 26/12 A3007 RMK AO2 SLP173 T02610117=
200805252052 METAR KATL 252052Z 00000KT 10SM SCT060 BKN250 27/13 A3007 RMK AO2 SLP175 T02720128 56013=
200805251952 METAR KATL 251952Z 10006KT 10SM SCT055 BKN250 27/13 A3008 RMK AO2 SLP177 T02720133=
200805251852 METAR KATL 251852Z VRB04KT 10SM SCT050 BKN250 27/13 A3009 RMK AO2 SLP182 T02670133=
200805251752 METAR KATL 251752Z 14007KT 110V170 10SM SCT050 BKN250 26/13 A3011 RMK AO2 SLP187 T02560128 10256 20178 58008=
200805251652 METAR KATL 251652Z 15005KT 10SM SCT050 BKN250 24/12 A3013 RMK AO2 SLP193 T02440122=
200805251552 METAR KATL 251552Z 13006KT 10SM BKN046 BKN250 23/12 A3014 RMK AO2 SLP196 T02330122=
200805251452 METAR KATL 251452Z 14006G15KT 10SM SCT042 BKN250 22/12 A3014 RMK AO2 SLP196 T02220117 50007=
200805251352 METAR KATL 251352Z VRB05KT 9SM BKN038 BKN050 BKN250 21/14 A3014 RMK AO2 SLP199 T02060139=
200805251252 METAR KATL 251252Z 12008KT 8SM FEW035 SCT250 19/14 A3013 RMK AO2 SLP196 T01890139=
200805251152 METAR KATL 251152Z 14005KT 8SM FEW070 BKN250 18/14 A3011 RMK AO2 SLP189 T01780144 10206 20172 53022=
200805251052 METAR KATL 251052Z 12007KT 8SM FEW034 SCT100 17/14 A3009 RMK AO2 SLP180 T01720144=
200805250952 METAR KATL 250952Z 11006KT 10SM FEW250 18/15 A3006 RMK AO2 SLP171 T01780150=
200805250852 METAR KATL 250852Z 09007KT 8SM FEW250 18/16 A3005 RMK AO2 SLP166 T01780156 53008=
200805250752 METAR KATL 250752Z 11006KT 9SM SCT250 19/16 A3003 RMK AO2 SLP159 T01890161=
200805250652 METAR KATL 250652Z 11004KT 8SM BKN250 19/17 A3002 RMK AO2 SLP158 T01940172=
200805250552 METAR KATL 250552Z 11006KT 8SM BKN250 21/17 A3002 RMK AO2 SLP157 T02060172 10272 20200 53004=
200805250452 METAR KATL 250452Z 07005KT 10SM BKN250 22/15 A3002 RMK AO2 SLP155 T02170150 403000172=
200805250352 METAR KATL 250352Z 05005KT 10SM FEW250 23/16 A3001 RMK AO2 SLP153 T02280156=
200805250252 METAR KATL 250252Z 01005KT 10SM FEW250 24/16 A3001 RMK AO2 SLP153 T02390156 51010=
200805250152 METAR KATL 250152Z 34009KT 10SM SCT250 24/16 A3001 RMK AO2 SLP153 T02440156=
200805250052 METAR KATL 250052Z 34010KT 10SM FEW090 SCT250 26/16 A2999 RMK AO2 SLP147 T02560156=
200805242352 METAR KATL 242352Z 34010KT 10SM FEW055 BKN250 27/14 A2998 RMK AO2 SLP143 T02720144 10300 20272 53005=
200805242252 METAR KATL 242252Z 34012KT 10SM FEW050 BKN250 28/15 A2997 RMK AO2 SLP140 CB DSNT E T02830150=
200805242152 METAR KATL 242152Z 35015G21KT 10SM FEW055 SCT090 SCT250 29/16 A2997 RMK AO2 SLP138 MDT CU VC NE T02940161=
200805242052 METAR KATL 242052Z 35012KT 10SM SCT055 SCT250 30/18 A2997 RMK AO2 SLP138 CB DSNT NE TCU DSNT E T03000178 56007=
200805241952 METAR KATL 241952Z 34010G18KT 10SM SCT060 30/17 A2997 RMK AO2 SLP139 CB DSNT E-SE T03000172=
200805241852 METAR KATL 241852Z 35014G18KT 10SM SCT048 BKN075 28/17 A2998 RMK AO2 SLP143 CB DSNT N-E T02830172=
200805241752 METAR KATL 241752Z 36012KT 10SM BKN047 29/18 A2999 RMK AO2 SLP145 CB DSNT N-NE T02940178 10294 20189 58000=
200805241652 METAR KATL 241652Z 31012KT 10SM SCT038 28/18 A2999 RMK AO2 SLP145 T02780178=
200805241552 METAR KATL 241552Z 36009KT 9SM FEW035 27/18 A2999 RMK AO2 SLP147 T02720183=
200805241452 METAR KATL 241452Z 33010KT 8SM CLR 26/19 A2999 RMK AO2 SLP146 T02560189 50003=
200805241352 METAR KATL 241352Z 34009KT 8SM CLR 23/19 A3000 RMK AO2 SLP150 T02330189=
200805241252 METAR KATL 241252Z 32010KT 7SM CLR 21/18 A2999 RMK AO2 SLP148 T02110178=
200805241152 METAR KATL 241152Z 28004KT 7SM FEW250 19/17 A2998 RMK AO2 SLP146 70001 T01890172 10200 20172 50010=
200805241052 METAR KATL 241052Z 29005KT 4SM BR SCT250 17/17 A2998 RMK AO2 SLP146 T01720167=
200805240952 METAR KATL 240952Z 31004KT 6SM BR FEW001 18/17 A2995 RMK AO2 SLP137 T01780167=
200805240942 SPECI KATL 240942Z 31004KT 6SM BR SCT001 18/17 A2995 RMK AO2=
200805240942 SPECI KATL 240942Z 31004KT 6SM BR SCT001 18/17 A2995 RMK AO2=
200805240852 METAR KATL 240852Z 31005KT 5SM BR FEW200 18/17 A2995 RMK AO2 SLP135 T01830172 55002=
200805240752 METAR KATL 240752Z 32003KT 5SM BR CLR 19/18 A2995 RMK AO2 SLP133 T01890178=
200805240652 METAR KATL 240652Z 35004KT 6SM BR CLR 19/18 A2996 RMK AO2 SLP135 T01940178=
200805240552 METAR KATL 240552Z 00000KT 7SM FEW200 19/18 A2996 RMK AO2 SLP135 T01940178 10228 20194 58009=
200805240452 METAR KATL 240452Z 00000KT 8SM FEW200 21/18 A2997 RMK AO2 SLP140 T02060178 402890194=
200805240352 METAR KATL 240352Z 00000KT 9SM FEW150 SCT250 20/18 A2997 RMK AO2 SLP139 T02000183=
200805240252 METAR KATL 240252Z COR 33004KT 10SM OVC150 21/18 A2998 RMK AO2 SLP144 T02110183 53007=
200805240152 METAR KATL 240152Z 21004KT 10SM BKN140 BKN250 22/18 A2996 RMK AO2 SLP138 T02170183=
200805240052 METAR KATL 240052Z 08003KT 10SM SCT120 BKN150 BKN250 22/18 A2996 RMK AO2 SLP138 T02170178=
200805232352 METAR KATL 232352Z 11006KT 10SM FEW120 BKN150 BKN250 22/18 A2996 RMK AO2 SLP139 60001 T02220178 10289 20217 53008=
200805232252 METAR KATL 232252Z 07007KT 10SM FEW120 BKN150 BKN250 23/17 A2994 RMK AO2 SLP131 CB DSNT SE T02330172=
200805232152 METAR KATL 232152Z 06005KT 10SM FEW120 BKN150 OVC200 22/18 A2995 RMK AO2 RAE2058 SLP133 P0000 T02220178=
200805232052 METAR KATL 232052Z 34008KT 6SM -RA SCT015 BKN036 BKN150 OVC250 22/18 A2994 RMK AO2 SLP130 LTG DSNT N-NE-E CB DSNT N-NE-E P0001 60001 T02170183 50001=
200805232050 SPECI KATL 232050Z 33009KT 6SM -RA SCT015 BKN036 BKN150 OVC250 22/18 A2994 RMK AO2 LTG DSNT N-NE-E CB DSNT N-NE-E P0001=
200805232050 SPECI KATL 232050Z 33009KT 6SM -RA SCT015 BKN036 BKN150 OVC250 22/18 A2994 RMK AO2 LTG DSNT N-NE-E CB DSNT N-NE-E P0001=
200805232043 SPECI KATL 232043Z 34009KT 6SM -RA BKN017 BKN034 BKN060 OVC150 22/19 A2994 RMK AO2 LTG DSNT N-NE CB DSNT N-NE P0001=
200805232043 SPECI KATL 232043Z 34009KT 6SM -RA BKN017 BKN034 BKN060 OVC150 22/19 A2994 RMK AO2 LTG DSNT N-NE CB DSNT N-NE P0001=
200805232032 SPECI KATL 232032Z 30007KT 6SM -RA FEW017 BKN034 OVC150 22/19 A2995 RMK AO2 LTG DSNT N-NE CB DSNT N-NE P0001=
200805232032 SPECI KATL 232032Z 30007KT 6SM -RA FEW017 BKN034 OVC150 22/19 A2995 RMK AO2 LTG DSNT N-NE CB DSNT N-NE P0001=
200805232020 SPECI KATL 232020Z 27006KT 8SM -RA BKN030 BKN040 OVC150 23/18 A2995 RMK AO2 LTG DSNT N-NE CB DSNT N-NE P0000=
200805232020 SPECI KATL 232020Z 27006KT 8SM -RA BKN030 BKN040 OVC150 23/18 A2995 RMK AO2 LTG DSNT N-NE CB DSNT N-NE P0000=
200805231952 METAR KATL 231952Z 28008G16KT 9SM -RA FEW025CB SCT040 BKN110 OVC150 23/19 A2994 RMK AO2 TSB1858E16B27E49RAB49 SLP131 FRQ LTGICCG DSNT NW-N-NE TS 11SM DSNT NW-N-NE MOV ENE CB DSNT NW-N-NE BINOVC DSNT NE P0000 T0233=
200805231946 SPECI KATL 231946Z 28011G16KT 9SM TS FEW025CB SCT040 BKN110 OVC150 23/19 A2994 RMK AO2 TSB1858E16B27 FRQ LTGICCG TS 10SM VC NW-N-NE MOV ENE CB VC NW-N-NE MOV ENE BINOVC DSNT NE=
200805231946 SPECI KATL 231946Z 28011G16KT 9SM TS FEW025CB SCT040 BKN110 OVC150 23/19 A2994 RMK AO2 TSB1858E16B27 FRQ LTGICCG TS 10SM VC NW-N-NE MOV ENE CB VC NW-N-NE MOV ENE BINOVC DSNT NE=
200805231927 SPECI KATL 231927Z 23007KT 10SM TS FEW030CB SCT110 BKN150 BKN250 25/19 A2994 RMK AO2 TSB1858E16B27 FRQ LTGICCG TS 10SM VC NW-N MOV NNE CB VC NW-N MOV NNE=
200805231927 SPECI KATL 231927Z 23007KT 10SM TS FEW030CB SCT110 BKN150 BKN250 25/19 A2994 RMK AO2 TSB1858E16B27 FRQ LTGICCG TS 10SM VC NW-N MOV NNE CB VC NW-N MOV NNE=
200805231916 SPECI KATL 231916Z 23008KT 10SM FEW030CB SCT110 BKN150 BKN250 25/19 A2994 RMK AO2 TSB1858E16 LTG DSNT SE S W NW TS DSIPT CB VC N DSNT SE S W NW=
200805231916 SPECI KATL 231916Z 23008KT 10SM FEW030CB SCT110 BKN150 BKN250 25/19 A2994 RMK AO2 TSB1858E16 LTG DSNT SE S W NW TS DSIPT CB VC N DSNT SE S W NW=
200805231911 SPECI KATL 231911Z 25008KT 10SM TS FEW044CB SCT110 BKN150 BKN250 25/19 A2994 RMK AO2 TSB1858 OCNL LTGICCG TS 5SM NW MOV NNW CB NW MOV NNW=
200805231911 SPECI KATL 231911Z 25008KT 10SM TS FEW044CB SCT110 BKN150 BKN250 25/19 A2994 RMK AO2 TSB1858 OCNL LTGICCG TS 5SM NW MOV NNW CB NW MOV NNW=
200805231859 SPECI KATL 231859Z 22008KT 10SM TS FEW044CB BKN110 BKN150 BKN250 26/19 A2994 RMK AO2 TSB58 FRQ LTGICCG TS 4SM N MOV N CB N MOV N=
200805231859 SPECI KATL 231859Z 22008KT 10SM TS FEW044CB BKN110 BKN150 BKN250 26/19 A2994 RMK AO2 TSB58 FRQ LTGICCG TS 4SM N MOV N CB N MOV N=
200805231852 METAR KATL 231852Z 23009KT 10SM FEW044TCU BKN110 BKN150 BKN250 26/19 A2993 RMK AO2 TSB10E39 SLP127 LTG DSNT SE-S-SW-NW TS DSIPT CB DSNT SE-S-SW-NW TCU OHD-NW-N T02610189=
200805231839 SPECI KATL 231839Z 23010KT 10SM FEW044 SCT060 BKN150 BKN250 27/17 A2994 RMK AO2 TSB10E39 LTG DSNT SE-S-SW-NW TS DSIPT CB DSNT SE-S-SW-NW=
200805231839 SPECI KATL 231839Z 23010KT 10SM FEW044 SCT060 BKN150 BKN250 27/17 A2994 RMK AO2 TSB10E39 LTG DSNT SE-S-SW-NW TS DSIPT CB DSNT SE-S-SW-NW=
200805231832 SPECI KATL 231832Z 20010KT 10SM TS FEW040CB SCT060 BKN150 BKN250 28/17 A2994 RMK AO2 TSB10 FRQ LTGICCG TS 5SM SW MOV NNW CB SW MOV NNW=
200805231832 SPECI KATL 231832Z 20010KT 10SM TS FEW040CB SCT060 BKN150 BKN250 28/17 A2994 RMK AO2 TSB10 FRQ LTGICCG TS 5SM SW MOV NNW CB SW MOV NNW=
200805231827 SPECI KATL 231827Z 18005KT 10SM TS FEW040CB SCT060 BKN150 BKN250 28/17 A2994 RMK AO2 TSB10 OCNL LTGICCG TS VC S MOV N CB VC S MOV N=
200805231827 SPECI KATL 231827Z 18005KT 10SM TS FEW040CB SCT060 BKN150 BKN250 28/17 A2994 RMK AO2 TSB10 OCNL LTGICCG TS VC S MOV N CB VC S MOV N=
200805231823 SPECI KATL 231823Z 15005KT 10SM TS FEW040CB SCT060 BKN150 BKN250 28/17 A2994 RMK AO2 TSB10 OCNL LTGICCG TS VC S-SW MOV N CB VC S-SW MOV N=
200805231823 SPECI KATL 231823Z 15005KT 10SM TS FEW040CB SCT060 BKN150 BKN250 28/17 A2994 RMK AO2 TSB10 OCNL LTGICCG TS VC S-SW MOV N CB VC S-SW MOV N=
200805231810 SPECI KATL 231810Z 18004KT 10SM TS FEW040CB SCT060 BKN150 BKN250 28/18 A2995 RMK AO2 TSB10 FRQ LTGICCG TS VC S MOV N CB VC S MOV N=
200805231810 SPECI KATL 231810Z 18004KT 10SM TS FEW040CB SCT060 BKN150 BKN250 28/18 A2995 RMK AO2 TSB10 FRQ LTGICCG TS VC S MOV N CB VC S MOV N=
200805231752 METAR KATL 231752Z 17006KT 10SM FEW040TCU SCT060 BKN150 BKN250 29/18 A2995 RMK AO2 SLP133 LTG DSNT S-SW-W CB DSNT S-SW-W TCU VC N DSNT SE-NW T02890183 10289 20211 58012=
200805231652 METAR KATL 231652Z 15004KT 10SM SCT037TCU BKN060 BKN150 27/17 A2997 RMK AO2 SLP139 TCU SE-N T02670172=
200805231552 METAR KATL 231552Z 00000KT 8SM FEW030 SCT060 BKN250 27/18 A2998 RMK AO2 SLP143 MDT CU SE T02670183=
200805231452 METAR KATL 231452Z 00000KT 7SM FEW060 BKN150 BKN250 25/19 A2999 RMK AO2 SLP146 T02500189 51013=
200805231352 METAR KATL 231352Z 00000KT 8SM FEW050 SCT070 OVC150 23/18 A2998 RMK AO2 SLP144 T02330178=
200805231252 METAR KATL 231252Z COR 00000KT 7SM FEW042 SCT100 BKN150 OVC200 22/17 A2997 RMK AO2 SLP139 T02170172=
200805231152 METAR KATL 231152Z 00000KT 8SM FEW100 BKN150 OVC200 21/17 A2995 RMK AO2 SLP132 T02110172 10217 20194 53015=
200805231052 METAR KATL 231052Z 00000KT 10SM FEW150 BKN200 BKN250 20/17 A2992 RMK AO2 SLP123 T02000167=
200805230952 METAR KATL 230952Z 00000KT 10SM FEW150 SCT200 BKN250 20/17 A2990 RMK AO2 SLP116 T02000167=
200805230852 METAR KATL 230852Z 00000KT 10SM FEW044 SCT150 SCT200 BKN250 20/17 A2990 RMK AO2 SLP117 T02000167 55005=
200805230752 METAR KATL 230752Z 00000KT 10SM FEW150 SCT200 BKN250 21/17 A2990 RMK AO2 SLP116 T02060167=
200805230652 METAR KATL 230652Z 00000KT 10SM FEW150 SCT200 BKN250 21/17 A2990 RMK AO2 SLP117 T02110167=
200805230552 METAR KATL 230552Z 00000KT 10SM FEW150 SCT200 BKN250 22/17 A2992 RMK AO2 SLP122 T02170172 10261 20217 58007=
200805230452 METAR KATL 230452Z 00000KT 10SM FEW150 BKN200 BKN250 22/17 A2994 RMK AO2 SLP129 T02170172 402780139=
200805230352 METAR KATL 230352Z 30003KT 10SM FEW150 SCT200 BKN250 23/16 A2994 RMK AO2 SLP129 T02280161=
200805230252 METAR KATL 230252Z 29005KT 10SM FEW150 SCT200 BKN250 23/16 A2994 RMK AO2 SLP130 T02280161 53027=
200805230152 METAR KATL 230152Z 21006KT 10SM FEW150 BKN250 23/16 A2990 RMK AO2 SLP118 T02330161=
200805230052 METAR KATL 230052Z 21005KT 10SM FEW150 SCT200 BKN250 25/16 A2987 RMK AO2 SLP108 T02500156=
200805222352 METAR KATL 222352Z 20005KT 10SM FEW150 BKN250 27/14 A2986 RMK AO2 SLP102 T02670144 10278 20250 55003=
200805222252 METAR KATL 222252Z 32004KT 10SM FEW200 SCT250 27/14 A2985 RMK AO2 SLP100 T02720144=
200805222152 METAR KATL 222152Z 25007KT 10SM FEW150 SCT250 27/13 A2987 RMK AO2 SLP106 T02720133=
200805222052 METAR KATL 222052Z 31010KT 10SM FEW080 SCT150 BKN250 27/14 A2987 RMK AO2 SLP106 T02720139 55010=
200805221952 METAR KATL 221952Z 29007KT 10SM FEW200 SCT250 27/14 A2986 RMK AO2 SLP106 T02670139=
200805221852 METAR KATL 221852Z 29006KT 10SM FEW100 SCT200 BKN250 27/12 A2990 RMK AO2 SLP116 ACC DSNT N-NE T02670122=
200805221752 METAR KATL 221752Z VRB03KT 10SM FEW100 BKN200 BKN250 25/09 A2990 RMK AO2 SLP116 ACC DSNT N T02500094 10250 20183 57003=
200805221652 METAR KATL 221652Z 26006KT 10SM FEW200 BKN250 24/09 A2990 RMK AO2 SLP120 T02390089=
200805221552 METAR KATL 221552Z 19007KT 10SM FEW200 BKN250 23/09 A2990 RMK AO2 SLP117 T02280089=
200805221452 METAR KATL 221452Z VRB03KT 10SM FEW200 SCT250 22/08 A2990 RMK AO2 SLP120 T02220078 51017=
200805221352 METAR KATL 221352Z VRB04KT 10SM FEW200 SCT250 22/07 A2989 RMK AO2 SLP116 T02170072=
200805221252 METAR KATL 221252Z 10003KT 10SM FEW250 20/08 A2988 RMK AO2 SLP110 T02000083=
200805221152 METAR KATL 221152Z 03006KT 10SM FEW150 SCT250 18/08 A2985 RMK AO2 SLP102 T01830078 10183 20139 53012=
200805221052 METAR KATL 221052Z 02009KT 10SM FEW150 SCT250 16/09 A2984 RMK AO2 SLP098 T01610089=
200805220952 METAR KATL 220952Z 33004KT 10SM FEW150 SCT250 14/09 A2983 RMK AO2 SLP095 T01440094=
200805220852 METAR KATL 220852Z 00000KT 10SM FEW250 14/09 A2982 RMK AO2 SLP091 T01440094 53008=
200805220752 METAR KATL 220752Z 30003KT 10SM FEW250 14/09 A2980 RMK AO2 SLP084 T01440094=
200805220652 METAR KATL 220652Z 36004KT 10SM FEW250 17/08 A2979 RMK AO2 SLP081 T01670083=
200805220552 METAR KATL 220552Z 34006KT 10SM FEW250 17/09 A2979 RMK AO2 SLP082 T01670094 10228 20167 50007=
200805220452 METAR KATL 220452Z 32005KT 10SM FEW250 17/10 A2980 RMK AO2 SLP083 T01670100 402500139=
200805220352 METAR KATL 220352Z 33005KT 10SM FEW250 18/09 A2978 RMK AO2 SLP078 T01780094=
200805220252 METAR KATL 220252Z 33005KT 10SM FEW250 19/09 A2977 RMK AO2 SLP075 T01890094 53015=
200805220152 METAR KATL 220152Z 32005KT 10SM CLR 19/09 A2976 RMK AO2 SLP070 T01940089=
200805220052 METAR KATL 220052Z 32007KT 10SM CLR 21/08 A2974 RMK AO2 SLP065 T02060083=
200805212352 METAR KATL 212352Z 32008KT 10SM CLR 23/08 A2973 RMK AO2 SLP061 T02280078 10250 20228 53004=
200805212252 METAR KATL 212252Z 30013KT 10SM CLR 24/08 A2972 RMK AO2 SLP056 T02390078=
200805212152 METAR KATL 212152Z 29015G19KT 10SM FEW065 24/08 A2972 RMK AO2 SLP056 T02440083=
200805212052 METAR KATL 212052Z 26016G21KT 10SM FEW060 25/09 A2972 RMK AO2 SLP056 T02500089 58013=
200805211952 METAR KATL 211952Z 28012G19KT 10SM FEW055 25/11 A2973 RMK AO2 SLP061 T02500106=
200805211852 METAR KATL 211852Z 31012G19KT 10SM FEW055 24/09 A2974 RMK AO2 SLP064 T02390094=
200805211752 METAR KATL 211752Z 29015G22KT 10SM FEW050 23/11 A2975 RMK AO2 SLP069 T02330106 10239 20150 58008=
200805211652 METAR KATL 211652Z 26015G19KT 10SM FEW045 23/12 A2976 RMK AO2 SLP071 T02280117=
200805211552 METAR KATL 211552Z 28011KT 10SM CLR 22/12 A2978 RMK AO2 SLP078 T02170117=
200805211452 SPECI KATL 211452Z 32008KT 10SM CLR 20/11 A2978 RMK AO2 SLP077 T02000106 51006=
200805211352 METAR KATL 211352Z 31008KT 10SM CLR 18/11 A2977 RMK AO2 SLP076 T01830111=
200805211252 METAR KATL 211252Z 32007KT 10SM CLR 17/12 A2977 RMK AO2 SLP075 T01670117=
200805211152 METAR KATL 211152Z 32006KT 10SM FEW060 15/11 A2976 RMK AO2 SLP070 70012 T01500111 10178 20139 53021=
200805211052 METAR KATL 211052Z 31007KT 10SM FEW060 SCT250 14/11 A2973 RMK AO2 SLP061 T01440111=
200805210952 METAR KATL 210952Z 31006KT 10SM FEW065 SCT250 14/12 A2971 RMK AO2 SLP053 T01440117=
200805210852 METAR KATL 210852Z 33007KT 10SM FEW250 15/12 A2970 RMK AO2 SLP049 T01500122 53006=
200805210752 METAR KATL 210752Z 33009KT 10SM FEW250 16/13 A2969 RMK AO2 SLP044 T01610133=
200805210652 METAR KATL 210652Z 29006KT 10SM FEW250 17/16 A2969 RMK AO2 SLP043 T01720156=
200805210552 METAR KATL 210552Z 30005KT 10SM FEW075 SCT250 18/16 A2968 RMK AO2 SLP042 60012 T01780161 10267 20178 53005=
200805210452 METAR KATL 210452Z 30007KT 10SM FEW070 SCT250 18/17 A2968 RMK AO2 SLP041 T01830167 402890183=
200805210352 METAR KATL 210352Z 29006KT 10SM FEW070 SCT200 BKN250 19/17 A2966 RMK AO2 SLP036 T01890167=
200805210252 METAR KATL 210252Z 27009KT 10SM SCT150 OVC200 19/17 A2966 RMK AO2 SLP037 60012 T01890167 53023=
200805210152 METAR KATL 210152Z 27004KT 10SM FEW070 BKN150 OVC200 19/17 A2962 RMK AO2 TSE20 SLP025 FRQ LTG DSNT SE-SW TS MOV SE T01890167=
200805210120 SPECI KATL 210120Z 33003KT 10SM FEW035 SCT090 BKN150 BKN200 19/17 A2964 RMK AO2 TSE20 FRQ LTG DSNT SE-SW TS MOV SE=
200805210120 SPECI KATL 210120Z 33003KT 10SM FEW035 SCT090 BKN150 BKN200 19/17 A2964 RMK AO2 TSE20 FRQ LTG DSNT SE-SW TS MOV SE=
200805210052 METAR KATL 210052Z 32007KT 10SM TS FEW035CB SCT100 BKN150 BKN200 19/17 A2962 RMK AO2 PK WND 35030/0007 WSHFT 2354 TSB00RAE36 SLP023 CONS LTGICCGCA TS VC SE-SW MOV SE CBMAM OHD-W P0012 T01940167=
200805210019 SPECI KATL 210019Z 32018G27KT 7SM -TSRA SCT040CB BKN070 BKN100 OVC150 19/17 A2962 RMK AO2 PK WND 35030/0007 WSHFT 2354 TSB00 FRQ LTGICCG TS E-S-W MOV SE P0009=
200805210019 SPECI KATL 210019Z 32018G27KT 7SM -TSRA SCT040CB BKN070 BKN100 OVC150 19/17 A2962 RMK AO2 PK WND 35030/0007 WSHFT 2354 TSB00 FRQ LTGICCG TS E-S-W MOV SE P0009=
200805210011 SPECI KATL 210011Z 36021G30KT 2SM +TSRA FEW015 BKN040CB OVC070 21/17 A2961 RMK AO2 PK WND 35030/0007 WSHFT 2354 TSB00 FRQ LTGICCG TS NE-OHD-SW MOV SE P0000=
200805210011 SPECI KATL 210011Z 36021G30KT 2SM +TSRA FEW015 BKN040CB OVC070 21/17 A2961 RMK AO2 PK WND 35030/0007 WSHFT 2354 TSB00 FRQ LTGICCG TS NE-OHD-SW MOV SE P0000=
200805210010 SPECI KATL 210010Z 36021G30KT 4SM TSRA BKN040CB BKN060 OVC110 22/17 A2961 RMK AO2 PK WND 35030/0007 WSHFT 2354 TSB00 FRQ LTGICCG TS NE-OHD-SW MOV SE P0000=
200805210010 SPECI KATL 210010Z 36021G30KT 4SM TSRA BKN040CB BKN060 OVC110 22/17 A2961 RMK AO2 PK WND 35030/0007 WSHFT 2354 TSB00 FRQ LTGICCG TS NE-OHD-SW MOV SE P0000=
200805210000 SPECI KATL 210000Z 29010KT 10SM -TSRA SCT045CB BKN060 BKN110 OVC150 26/18 A2961 RMK AO2 TSB00 FRQ LTGICCG TS VC W-NW AND DSNT E-SE MOV SE P0000=
200805210000 SPECI KATL 210000Z 29010KT 10SM -TSRA SCT045CB BKN060 BKN110 OVC150 26/18 A2961 RMK AO2 TSB00 FRQ LTGICCG TS VC W-NW AND DSNT E-SE MOV SE P0000=
200805202352 METAR KATL 202352Z 28010G18KT 10SM -RA SCT045 BKN070 BKN120 OVC200 27/17 A2959 RMK AO2 RAB52 SLP011 FRQ LTG DSNT NE-E AND W-NW P0000 60000 T02670172 10289 20267 55007=
200805202252 METAR KATL 202252Z 26011G19KT 10SM FEW045 SCT060 BKN200 27/17 A2957 RMK AO2 SLP002 CB DSNT N-NE T02720172=
200805202152 METAR KATL 202152Z 26013G19KT 10SM SCT045 BKN070 BKN150 27/17 A2959 RMK AO2 SLP009 MDT CU E-SE AND NW T02720172=
200805202052 METAR KATL 202052Z 26013G24KT 10SM FEW045 SCT065 SCT150 28/17 A2961 RMK AO2 SLP018 LTG DSNT E-SE CB DSNT E-SE MOV E T02830167 58023=
200805202024 SPECI KATL 202024Z 28012G23KT 10SM FEW045 SCT065 SCT200 28/18 A2963 RMK AO2 LTG DSNT SE CB DSNT SE MOV E=
200805202024 SPECI KATL 202024Z 28012G23KT 10SM FEW045 SCT065 SCT200 28/18 A2963 RMK AO2 LTG DSNT SE CB DSNT SE MOV E=
200805202013 SPECI KATL 202013Z 27013G19KT 10SM FEW047 SCT060 SCT070 28/18 A2963 RMK AO2 CNS LTG DSNT SE-S TS 13SM DSNT SE 15SM DSNT S MOV E CB DSNT SE-S MOV E=
200805202013 SPECI KATL 202013Z 27013G19KT 10SM FEW047 SCT060 SCT070 28/18 A2963 RMK AO2 CNS LTG DSNT SE-S TS 13SM DSNT SE 15SM DSNT S MOV E CB DSNT SE-S MOV E=
200805201952 METAR KATL 201952Z 27014G20KT 10SM FEW047 SCT060 BKN070 28/17 A2964 RMK AO2 SLP027 LTG DSNT S-SW CB DSNT SE-SW MOV E T02830172=
200805201852 METAR KATL 201852Z 25014G21KT 10SM SCT045 BKN055 BKN150 27/17 A2967 RMK AO2 SLP036 T02720167=
200805201752 METAR KATL 201752Z 27012G20KT 230V290 10SM BKN043 BKN150 BKN200 28/17 A2968 RMK AO2 SLP042 CB DSNT S MOV E T02780172 10278 20206 58015=
200805201652 METAR KATL 201652Z 27018G23KT 10SM FEW040 SCT150 SCT200 27/17 A2970 RMK AO2 SLP049 T02720172=
200805201552 METAR KATL 201552Z 26016G28KT 10SM FEW035 SCT150 SCT200 26/17 A2972 RMK AO2 PK WND 25031/1533 SLP055 ACC DSNT NW-N T02560167=
200805201452 METAR KATL 201452Z 26015G23KT 10SM FEW030 SCT150 BKN200 24/17 A2973 RMK AO2 SLP058 T02390172 58001=
200805201352 METAR KATL 201352Z 26016G23KT 10SM BKN150 22/17 A2973 RMK AO2 SLP058 T02220167=
200805201252 METAR KATL 201252Z 24016G25KT 10SM BKN150 BKN200 22/17 A2973 RMK AO2 PK WND 25027/1211 SLP059 T02170167=
200805201152 METAR KATL 201152Z 24014G21KT 10SM FEW150 SCT200 21/16 A2973 RMK AO2 SLP058 T02060161 10217 20194 50005=
200805201052 METAR KATL 201052Z 24011G19KT 10SM FEW150 SCT200 19/16 A2973 RMK AO2 SLP058 T01940161=
200805200952 METAR KATL 200952Z 24012G19KT 10SM FEW150 SCT200 20/16 A2972 RMK AO2 SLP055 T02000156=
200805200852 METAR KATL 200852Z 24011G19KT 10SM FEW150 SCT200 21/16 A2971 RMK AO2 SLP052 T02060156 56003=
200805200752 METAR KATL 200752Z 25011G19KT 10SM FEW150 SCT200 21/16 A2972 RMK AO2 SLP054 T02110156=
200805200652 METAR KATL 200652Z 23009KT 10SM FEW150 SCT200 21/14 A2971 RMK AO2 SLP052 T02110144=
200805200552 METAR KATL 200552Z 22011KT 10SM FEW150 21/14 A2972 RMK AO2 SLP055 T02110139 10261 20206 58015=
200805200452 METAR KATL 200452Z 23007KT 10SM FEW150 21/13 A2975 RMK AO2 SLP064 T02060128 402720150=
200805200352 METAR KATL 200352Z 22010KT 10SM CLR 21/12 A2976 RMK AO2 SLP067 T02110122=
200805200252 METAR KATL 200252Z 22007KT 10SM CLR 22/12 A2977 RMK AO2 SLP073 T02170122 51004=
200805200152 METAR KATL 200152Z 22004KT 10SM CLR 22/13 A2977 RMK AO2 SLP072 T02220128=
200805200052 METAR KATL 200052Z 22005KT 10SM CLR 24/12 A2977 RMK AO2 SLP072 T02390122=
200805192352 METAR KATL 192352Z 23008KT 10SM CLR 26/11 A2976 RMK AO2 SLP068 T02610106 10272 20256 55008=
200805192252 METAR KATL 192252Z 26010G15KT 10SM CLR 27/10 A2975 RMK AO2 SLP067 T02670100=
200805192152 METAR KATL 192152Z 27006KT 10SM FEW070 27/10 A2977 RMK AO2 SLP074 T02720100=
200805192052 METAR KATL 192052Z 27007G16KT 10SM FEW070 27/11 A2978 RMK AO2 SLP076 T02720106 58018=
200805191952 METAR KATL 191952Z VRB06KT 10SM FEW070 27/09 A2980 RMK AO2 SLP083 T02670094=
200805191852 METAR KATL 191852Z 26009G18KT 10SM FEW060 27/11 A2982 RMK AO2 SLP088 T02670111=
200805191752 METAR KATL 191752Z 28011G16KT 10SM FEW060 26/11 A2983 RMK AO2 SLP095 T02560106 10256 20167 58008=
200805191652 METAR KATL 191652Z 25007KT 210V270 10SM FEW045 24/14 A2985 RMK AO2 SLP103 T02440139=
200805191552 METAR KATL 191552Z 23006G14KT 10SM FEW030 23/14 A2986 RMK AO2 SLP105 T02330139=
200805191452 METAR KATL 191452Z 20006KT 10SM FEW020 21/16 A2986 RMK AO2 SLP104 T02110161 51010=
200805191352 METAR KATL 191352Z VRB03KT 10SM FEW018 19/15 A2986 RMK AO2 SLP104 T01940150=
200805191252 METAR KATL 191252Z 31005KT 10SM FEW012 18/16 A2984 RMK AO2 SLP098 T01830156=
200805191152 METAR KATL 191152Z 28004KT 8SM FEW010 17/15 A2983 RMK AO2 SLP093 60000 70010 T01670150 10172 20150 53015=
200805191052 METAR KATL 191052Z 27004KT 10SM CLR 15/14 A2980 RMK AO2 SLP086 T01500144=
200805190952 METAR KATL 190952Z 00000KT 10SM CLR 16/14 A2979 RMK AO2 SLP080 T01560144=
200805190852 METAR KATL 190852Z 28005KT 9SM FEW100 16/14 A2978 RMK AO2 SLP077 60000 T01560144 53004=
200805190752 METAR KATL 190752Z 30006KT 10SM FEW065 SCT100 16/15 A2977 RMK AO2 SLP074 T01610150=
200805190652 METAR KATL 190652Z 28007KT 10SM FEW070 BKN100 17/15 A2976 RMK AO2 RAE15 SLP071 P0000 T01720150=
200805190552 METAR KATL 190552Z 26010KT 10SM -RA SCT045 BKN070 BKN100 BKN200 17/15 A2977 RMK AO2 RAB19 SLP074 P0006 60010 T01720150 10228 20167 51006=
200805190452 METAR KATL 190452Z 30003KT 10SM SCT048 BKN060 17/16 A2976 RMK AO2 RAE15 SLP071 P0002 T01670156 402500144=
200805190352 METAR KATL 190352Z 27008KT 9SM -RA SCT045 BKN070 BKN150 18/15 A2977 RMK AO2 SLP075 P0000 T01780150=
200805190252 METAR KATL 190252Z 27005KT 10SM -RA FEW045 SCT090 BKN150 BKN250 18/15 A2975 RMK AO2 TSE01 SLP068 TS DSIPTD P0002 60002 T01780150 52021=
200805190205 SPECI KATL 190205Z 32011KT 6SM RA FEW043 SCT060 BKN095 BKN150 19/15 A2975 RMK AO2 TSE01 TS DSIPTD P0001=
200805190205 SPECI KATL 190205Z 32011KT 6SM RA FEW043 SCT060 BKN095 BKN150 19/15 A2975 RMK AO2 TSE01 TS DSIPTD P0001=
200805190152 METAR KATL 190152Z 28008KT 8SM -TSRA FEW045CB SCT060 BKN080 BKN150 21/13 A2973 RMK AO2 TSB38RAB44 SLP061 OCNL LTGIC TS VC NE MOV SE P0000 T02060133=
200805190139 SPECI KATL 190139Z 25006KT 10SM TS FEW045CB BKN095 22/13 A2972 RMK AO2 TSB38 OCNL LTGIC TS VC NW-N MOV SE=
200805190139 SPECI KATL 190139Z 25006KT 10SM TS FEW045CB BKN095 22/13 A2972 RMK AO2 TSB38 OCNL LTGIC TS VC NW-N MOV SE=
200805190052 METAR KATL 190052Z 24007KT 10SM FEW045 SCT100 22/13 A2970 RMK AO2 SLP051 CB DSNT NW T02170128=
200805182352 METAR KATL 182352Z 25009G17KT 10SM FEW045 23/12 A2968 RMK AO2 SLP045 T02280122 10250 20228 56003=
200805182252 METAR KATL 182252Z 25011G20KT 10SM FEW047 SCT110 SCT150 23/12 A2969 RMK AO2 SLP045 T02330122=
200805182152 METAR KATL 182152Z 25015G21KT 10SM FEW047 SCT110 SCT150 23/12 A2969 RMK AO2 SLP046 CB DSNT SE-S T02330122=
200805182052 METAR KATL 182052Z 28012G19KT 10SM BKN050 BKN070 BKN250 23/12 A2969 RMK AO2 SLP047 T02330122 56010=
200805181952 METAR KATL 181952Z 27013G20KT 10SM SCT055 BKN150 BKN250 24/12 A2970 RMK AO2 SLP049 T02390117=
200805181852 METAR KATL 181852Z 27015G26KT 10SM SCT055 BKN075 BKN150 24/11 A2971 RMK AO2 PK WND 27027/1830 SLP055 T02440106=
200805181752 METAR KATL 181752Z 27012G23KT 10SM SCT055 BKN080 BKN150 24/11 A2972 RMK AO2 SLP058 MDT CU ALQDS 60000 T02390111 10244 20156 58016=
200805181652 METAR KATL 181652Z 24013G22KT 10SM SCT050 BKN070 BKN150 23/11 A2975 RMK AO2 SLP068 T02330111=
200805181552 METAR KATL 181552Z 27014G20KT 10SM SCT100 SCT150 22/11 A2976 RMK AO2 SLP072 T02220111=
200805181452 METAR KATL 181452Z 25013G17KT 10SM SCT060 BKN095 19/11 A2977 RMK AO2 RAB13E33 SLP075 P0000 60000 T01940111 56009 $=
200805181352 METAR KATL 181352Z 25012G18KT 10SM BKN110 20/09 A2979 RMK AO2 SLP080 T02000094=
200805181252 METAR KATL 181252Z 26004KT 10SM BKN110 17/11 A2978 RMK AO2 RAB03E14 SLP079 P0000 T01670106=
200805181152 METAR KATL 181152Z 23006KT 10SM BKN110 16/10 A2980 RMK AO2 SLP085 T01560100 10161 20144 55000=
200805181052 METAR KATL 181052Z 25005KT 10SM BKN150 BKN200 15/10 A2979 RMK AO2 SLP083 T01500100=
200805180952 METAR KATL 180952Z 27005KT 10SM BKN200 15/10 A2978 RMK AO2 SLP080 T01500100=
200805180852 METAR KATL 180852Z 27006KT 10SM BKN200 16/10 A2980 RMK AO2 SLP084 T01560100 56008=
200805180752 METAR KATL 180752Z 27006KT 10SM SCT250 15/10 A2980 RMK AO2 SLP085 T01500100=
200805180652 METAR KATL 180652Z 26005KT 10SM BKN250 16/10 A2981 RMK AO2 SLP088 T01560100=
200805180552 METAR KATL 180552Z 27006KT 10SM BKN250 16/09 A2982 RMK AO2 SLP094 T01610094 10206 20161 58019=
200805180452 METAR KATL 180452Z 26006KT 10SM BKN250 17/09 A2985 RMK AO2 SLP103 T01670094 402280094=
200805180352 METAR KATL 180352Z 26006KT 10SM BKN250 17/09 A2987 RMK AO2 SLP112 T01720089=
200805180252 METAR KATL 180252Z 27005KT 10SM BKN250 17/09 A2988 RMK AO2 SLP115 T01670089 51008=
200805180152 METAR KATL 180152Z 27004KT 10SM BKN250 18/09 A2987 RMK AO2 SLP113 T01780089=
200805180052 METAR KATL 180052Z 26005KT 10SM SCT250 19/08 A2987 RMK AO2 SLP111 T01890078=
200805172352 METAR KATL 172352Z 29008KT 10SM FEW150 BKN250 21/07 A2986 RMK AO2 SLP108 T02060072 10228 20206 55006=
200805172252 METAR KATL 172252Z 29009KT 10SM FEW150 BKN250 22/07 A2986 RMK AO2 SLP107 T02170072=
200805172152 METAR KATL 172152Z 26009G14KT 10SM SCT150 BKN250 22/06 A2986 RMK AO2 SLP108 T02220061=
200805172052 METAR KATL 172052Z 30011KT 10SM SCT150 BKN250 23/04 A2988 RMK AO2 SLP113 T02280044 58017=
200805171952 METAR KATL 171952Z 29007KT 10SM BKN150 BKN250 22/06 A2990 RMK AO2 SLP121 T02220056=
200805171852 METAR KATL 171852Z 28008G15KT 10SM BKN150 BKN250 21/04 A2992 RMK AO2 SLP129 T02110044=
200805171752 METAR KATL 171752Z 34010KT 10SM SCT150 BKN250 21/06 A2993 RMK AO2 SLP131 T02110061 10211 20106 58019=
200805171652 METAR KATL 171652Z 31007KT 260V330 10SM FEW095 SCT150 BKN250 20/08 A2996 RMK AO2 SLP141 T02000078=
200805171552 METAR KATL 171552Z 34004KT 10SM FEW150 SCT250 18/08 A2997 RMK AO2 SLP148 T01830078=
200805171452 METAR KATL 171452Z VRB03KT 10SM FEW040 SCT250 17/08 A2999 RMK AO2 SLP152 T01670083 50004=
200805171352 METAR KATL 171352Z 35005KT 10SM FEW250 16/08 A2999 RMK AO2 SLP153 T01560078=
200805171252 METAR KATL 171252Z 34007KT 10SM FEW250 13/08 A2999 RMK AO2 SLP152 T01330078=
200805171152 METAR KATL 171152Z 34006KT 7SM FEW250 11/08 A2997 RMK AO2 SLP149 T01060083 10111 20094 53016=
200805171052 METAR KATL 171052Z 34008KT 6SM BR FEW259 09/08 A2995 RMK AO2 SLP141 T00940078=
200805170952 METAR KATL 170952Z 32010KT 8SM SCT200 09/08 A2993 RMK AO2 SLP132 T00940078=
200805170852 METAR KATL 170852Z 31008KT 8SM CLR 10/08 A2993 RMK AO2 SLP132 T01000078 55001=
200805170752 METAR KATL 170752Z 32008KT 9SM CLR 10/08 A2992 RMK AO2 SLP129 T01000078=
200805170652 METAR KATL 170652Z 34009KT 10SM CLR 11/08 A2992 RMK AO2 SLP127 T01060078=
200805170552 METAR KATL 170552Z 33009KT 10SM CLR 11/08 A2993 RMK AO2 SLP131 T01110078 10172 20111 58004=
200805170452 METAR KATL 170452Z 33010KT 10SM FEW250 12/08 A2993 RMK AO2 SLP132 T01170083 402500117=
200805170352 METAR KATL 170352Z 33009KT 10SM FEW030 BKN250 13/08 A2995 RMK AO2 SLP137 T01280083=
200805170252 METAR KATL 170252Z 33007KT 10SM FEW030 SCT200 BKN250 13/08 A2994 RMK AO2 SLP134 T01330083 51018=
200805170152 METAR KATL 170152Z 32010KT 10SM FEW025 SCT200 BKN250 14/08 A2993 RMK AO2 SLP130 T01390083=
200805170052 METAR KATL 170052Z 33010KT 10SM SCT028 BKN035 BKN200 16/10 A2992 RMK AO2 SLP126 T01560100=
200805162352 METAR KATL 162352Z 31014KT 10SM FEW032 BKN040 BKN200 BKN250 17/11 A2989 RMK AO2 SLP116 T01720106 10244 20172 53010=
200805162252 METAR KATL 162252Z 32014G24KT 10SM SCT032 BKN040 BKN200 OVC250 18/12 A2987 RMK AO2 SLP109 T01830117=
200805162152 METAR KATL 162152Z 31014G23KT 10SM BKN034 BKN200 OVC250 20/12 A2987 RMK AO2 SLP107 T02000122=
200805162052 METAR KATL 162052Z 31014KT 10SM SCT028 SCT065 OVC200 21/14 A2986 RMK AO2 SLP105 BINOVC DSNT NW T02060139 58003=
200805161952 METAR KATL 161952Z 29014G24KT 10SM FEW023 SCT065 OVC200 21/14 A2987 RMK AO2 SLP110 T02110144=
200805161852 METAR KATL 161852Z 31016G19KT 10SM FEW025 SCT065 OVC200 23/17 A2986 RMK AO2 SLP104 T02280167=
200805161841 SPECI KATL 161841Z 31013KT 10SM BKN028 BKN038 BKN065 23/17 A2986 RMK AO2=
200805161841 SPECI KATL 161841Z 31013KT 10SM BKN028 BKN038 BKN065 23/17 A2986 RMK AO2=
200805161752 METAR KATL 161752Z 29013KT 10SM BKN030 BKN060 OVC200 23/17 A2987 RMK AO2 SLP107 T02330167 10250 20194 50002=
200805161652 METAR KATL 161652Z 30014G21KT 10SM BKN030 BKN040 BKN200 24/17 A2988 RMK AO2 SLP110 TCU DSNT NE SE NW T02390167=
200805161552 METAR KATL 161552Z 27011KT 10SM FEW020 BKN030TCU BKN050 BKN200 22/17 A2988 RMK AO2 SLP111 TCU NE-SW NW T02220172=
200805161515 SPECI KATL 161515Z 26010KT 10SM SCT020 BKN030 BKN040 23/17 A2987 RMK AO2 MDT CU ALQDS=
200805161515 SPECI KATL 161515Z 26010KT 10SM SCT020 BKN030 BKN040 23/17 A2987 RMK AO2 MDT CU ALQDS=
200805161452 METAR KATL 161452Z 27014KT 10SM SCT020 BKN025 BKN030 23/18 A2986 RMK AO2 SLP105 MDT CU ALQDS T02280178 50000=
200805161352 METAR KATL 161352Z 24012KT 10SM BKN016 BKN022 21/18 A2988 RMK AO2 SLP110 T02110178=
200805161321 SPECI KATL 161321Z 25010KT 10SM BKN012 BKN065 BKN250 21/18 A2987 RMK AO2=
200805161321 SPECI KATL 161321Z 25010KT 10SM BKN012 BKN065 BKN250 21/18 A2987 RMK AO2=
200805161314 SPECI KATL 161314Z 24009KT 10SM SCT010 BKN024 BKN065 BKN250 21/18 A2987 RMK AO2=
200805161314 SPECI KATL 161314Z 24009KT 10SM SCT010 BKN024 BKN065 BKN250 21/18 A2987 RMK AO2=
200805161252 METAR KATL 161252Z 24008KT 10SM FEW010 SCT024 SCT065 21/18 A2986 RMK AO2 SLP104 T02060178=
200805161152 METAR KATL 161152Z 24008KT 8SM SCT008 BKN016 BKN065 19/18 A2986 RMK AO2 SLP106 70085 T01940178 10194 20189 58004=
200805161134 SPECI KATL 161134Z 26006KT 8SM SCT008 SCT016 BKN065 19/18 A2987 RMK AO2=
200805161134 SPECI KATL 161134Z 26006KT 8SM SCT008 SCT016 BKN065 19/18 A2987 RMK AO2=
200805161052 METAR KATL 161052Z 25005KT 6SM BR OVC006 19/18 A2988 RMK AO2 CIG 005V010 SLP110 T01890178=
200805161019 SPECI KATL 161019Z 24007KT 10SM BKN006 BKN018 BKN065 19/18 A2987 RMK AO2=
200805161019 SPECI KATL 161019Z 24007KT 10SM BKN006 BKN018 BKN065 19/18 A2987 RMK AO2=
200805160952 METAR KATL 160952Z 24007KT 10SM FEW006 SCT018 SCT060 19/18 A2987 RMK AO2 SLP108 T01890178=
200805160852 METAR KATL 160852Z 27007KT 10SM SCT006 SCT012 BKN060 19/18 A2988 RMK AO2 SLP111 T01890178 55003=
200805160752 METAR KATL 160752Z 24006KT 10SM BKN006 BKN012 19/18 A2987 RMK AO2 SLP110 T01890178=
200805160709 SPECI KATL 160709Z 25004KT 10SM BKN008 BKN028 BKN036 19/18 A2988 RMK AO2=
200805160709 SPECI KATL 160709Z 25004KT 10SM BKN008 BKN028 BKN036 19/18 A2988 RMK AO2=
200805160652 METAR KATL 160652Z 25006KT 10SM FEW008 BKN028 19/18 A2988 RMK AO2 SLP113 T01890178=
200805160642 SPECI KATL 160642Z 26006KT 10SM FEW008 BKN028 19/18 A2988 RMK AO2=
200805160642 SPECI KATL 160642Z 26006KT 10SM FEW008 BKN028 19/18 A2988 RMK AO2=
200805160552 METAR KATL 160552Z 26007KT 10SM FEW008 SCT012 19/18 A2988 RMK AO2 SLP113 60002 T01940183 10200 20194 51002=
200805160502 SPECI KATL 160502Z 26007KT 10SM FEW008 SCT020 20/18 A2988 RMK AO2=
200805160502 SPECI KATL 160502Z 26007KT 10SM FEW008 SCT020 20/18 A2988 RMK AO2=
200805160452 METAR KATL 160452Z 26007KT 10SM FEW008 BKN020 BKN035 20/18 A2988 RMK AO2 SLP113 T02000183 402110172=
200805160435 SPECI KATL 160435Z 26007KT 9SM FEW008 BKN015 BKN050 20/19 A2989 RMK AO2=
200805160435 SPECI KATL 160435Z 26007KT 9SM FEW008 BKN015 BKN050 20/19 A2989 RMK AO2=
200805160352 METAR KATL 160352Z 24009KT 9SM FEW010 OVC045 20/19 A2989 RMK AO2 SLP114 T02000189=
200805160333 SPECI KATL 160333Z 24010KT 9SM SCT010 OVC045 20/19 A2989 RMK AO2=
200805160333 SPECI KATL 160333Z 24010KT 9SM SCT010 OVC045 20/19 A2989 RMK AO2=
200805160252 METAR KATL 160252Z 24008KT 10SM BKN010 OVC050 20/18 A2988 RMK AO2 SLP111 CIG 008V014 60002 T02000183 53015=
200805160221 SPECI KATL 160221Z 24010G18KT 10SM SCT008 BKN015 OVC050 20/18 A2986 RMK AO2=
200805160221 SPECI KATL 160221Z 24010G18KT 10SM SCT008 BKN015 OVC050 20/18 A2986 RMK AO2=
200805160202 SPECI KATL 160202Z 24012G18KT 9SM BKN008 BKN013 OVC044 20/18 A2986 RMK AO2 CIG 006V011=
200805160202 SPECI KATL 160202Z 24012G18KT 9SM BKN008 BKN013 OVC044 20/18 A2986 RMK AO2 CIG 006V011=
200805160152 METAR KATL 160152Z 24012G18KT 10SM BKN010 OVC030 20/18 A2985 RMK AO2 SLP103 CIG 007V012 T02000183=
200805160052 METAR KATL 160052Z 23006KT 8SM BKN012 OVC030 19/18 A2983 RMK AO2 RAE25 SLP096 CIG 008V015 P0002 T01940183=
200805160029 SPECI KATL 160029Z 20005KT 8SM FEW005 BKN012 OVC030 19/18 A2983 RMK AO2 RAE25 P0002=
200805160029 SPECI KATL 160029Z 20005KT 8SM FEW005 BKN012 OVC030 19/18 A2983 RMK AO2 RAE25 P0002=
200805152352 METAR KATL 152352Z 15006KT 3SM -RA BR SCT006 BKN015 OVC030 19/18 A2983 RMK AO2 SFC VIS 4 SLP096 P0010 60079 T01890183 10194 20183 56009=
200805152350 SPECI KATL 152350Z 17005KT 3SM -RA BR FEW006 BKN015 OVC030 19/18 A2983 RMK AO2 SFC VIS 4 P0010=
200805152350 SPECI KATL 152350Z 17005KT 3SM -RA BR FEW006 BKN015 OVC030 19/18 A2983 RMK AO2 SFC VIS 4 P0010=
200805152252 METAR KATL 152252Z 10010KT 2SM RA BR SCT006 BKN015 OVC030 19/18 A2984 RMK AO2 SLP098 P0018 T01940183=
200805152152 METAR KATL 152152Z 13008KT 2 1/2SM -RA BR FEW005 BKN020 BKN050 OVC140 19/18 A2986 RMK AO2 SFC VIS 4 SLP105 P0008 T01940183=
200805152144 SPECI KATL 152144Z 13008KT 2 1/2SM -RA BR FEW006 SCT020 BKN050 OVC140 19/18 A2986 RMK AO2 SFC VIS 4 P0008=
200805152144 SPECI KATL 152144Z 13008KT 2 1/2SM -RA BR FEW006 SCT020 BKN050 OVC140 19/18 A2986 RMK AO2 SFC VIS 4 P0008=
200805152130 SPECI KATL 152130Z 13007KT 2 1/2SM RA BR SCT006 BKN014 OVC040 19/18 A2988 RMK AO2 P0005=
200805152130 SPECI KATL 152130Z 13007KT 2 1/2SM RA BR SCT006 BKN014 OVC040 19/18 A2988 RMK AO2 P0005=
200805152109 SPECI KATL 152109Z 13006KT 3SM -RA BR SCT006 BKN014 OVC025 19/18 A2990 RMK AO2 SFC VIS 3 P0001=
200805152109 SPECI KATL 152109Z 13006KT 3SM -RA BR SCT006 BKN014 OVC025 19/18 A2990 RMK AO2 SFC VIS 3 P0001=
200805152052 METAR KATL 152052Z 14008G16KT 3SM -RA BR FEW006 BKN016 OVC030 19/18 A2990 RMK AO2 SLP121 P0010 60043 T01890178 58026=
200805152035 SPECI KATL 152035Z 15008G18KT 3SM RA BR FEW008 BKN015 OVC030 19/18 A2992 RMK AO2 P0006=
200805152035 SPECI KATL 152035Z 15008G18KT 3SM RA BR FEW008 BKN015 OVC030 19/18 A2992 RMK AO2 P0006=
200805152031 SPECI KATL 152031Z 16012G18KT 3SM RA BR FEW008 BKN015 OVC030 19/18 A2993 RMK AO2 SFC VIS 4 P0005=
200805152031 SPECI KATL 152031Z 16012G18KT 3SM RA BR FEW008 BKN015 OVC030 19/18 A2993 RMK AO2 SFC VIS 4 P0005=
200805152025 SPECI KATL 152025Z 16013G17KT 3SM -RA BR FEW006 BKN013 OVC021 19/18 A2993 RMK AO2 SFC VIS 4 P0004=
200805152025 SPECI KATL 152025Z 16013G17KT 3SM -RA BR FEW006 BKN013 OVC021 19/18 A2993 RMK AO2 SFC VIS 4 P0004=
200805152014 SPECI KATL 152014Z 16011KT 3SM R09R/6000VP6000FT RA BR SCT008 OVC013 19/18 A2993 RMK AO2 SFC VIS 5 P0001=
200805152014 SPECI KATL 152014Z 16011KT 3SM R09R/6000VP6000FT RA BR SCT008 OVC013 19/18 A2993 RMK AO2 SFC VIS 5 P0001=
200805151954 SPECI KATL 151954Z 16010KT 3SM -RA BR BKN008 OVC014 19/18 A2993 RMK AO2 SFC VIS 5 PRESFR P0000=
200805151954 SPECI KATL 151954Z 16010KT 3SM -RA BR BKN008 OVC014 19/18 A2993 RMK AO2 SFC VIS 5 PRESFR P0000=
200805151952 METAR KATL 151952Z 16010KT 2SM -RA BR BKN008 OVC016 19/18 A2994 RMK AO2 SFC VIS 5 PRESFR SLP131 P0004 T01940178=
200805151852 METAR KATL 151852Z 16009KT 2SM -RA BR BKN008 OVC013 18/18 A2998 RMK AO2 SFC VIS 3 SLP148 P0029 T01830178=
200805151850 SPECI KATL 151850Z 17007KT 2SM -RA BR BKN006 OVC013 18/18 A2999 RMK AO2 SFC VIS 3 P0029=
200805151850 SPECI KATL 151850Z 17007KT 2SM -RA BR BKN006 OVC013 18/18 A2999 RMK AO2 SFC VIS 3 P0029=
200805151840 SPECI KATL 151840Z 16008KT 1 1/2SM R09R/3500VP6000FT +RA BR BKN008 BKN013 OVC018 18/17 A2999 RMK AO2 P0027=
200805151840 SPECI KATL 151840Z 16008KT 1 1/2SM R09R/3500VP6000FT +RA BR BKN008 BKN013 OVC018 18/17 A2999 RMK AO2 P0027=
200805151835 SPECI KATL 151835Z 16011KT 1 3/4SM R09R/3500VP6000FT RA BR BKN008 BKN013 OVC021 18/17 A3000 RMK AO2 TWR VIS 2 1/2 P0020=
200805151835 SPECI KATL 151835Z 16011KT 1 3/4SM R09R/3500VP6000FT RA BR BKN008 BKN013 OVC021 18/17 A3000 RMK AO2 TWR VIS 2 1/2 P0020=
200805151819 SPECI KATL 151819Z 16009KT 2SM R09R/5000VP6000FT RA BR SCT007 OVC013 18/17 A3000 RMK AO2 TWR VIS 2 1/2 P0015=
200805151819 SPECI KATL 151819Z 16009KT 2SM R09R/5000VP6000FT RA BR SCT007 OVC013 18/17 A3000 RMK AO2 TWR VIS 2 1/2 P0015=
200805151813 SPECI KATL 151813Z 16008KT 1 1/2SM R09R/4500VP6000FT +RA BR OVC012 18/17 A3001 RMK AO2 TWR VIS 2 1/2 P0012=
200805151813 SPECI KATL 151813Z 16008KT 1 1/2SM R09R/4500VP6000FT +RA BR OVC012 18/17 A3001 RMK AO2 TWR VIS 2 1/2 P0012=
200805151810 SPECI KATL 151810Z 17009KT 2SM R09R/4500VP6000FT +RA BR BKN010 OVC014 18/17 A3001 RMK AO2 TWR VIS 2 1/2 P0010=
200805151810 SPECI KATL 151810Z 17009KT 2SM R09R/4500VP6000FT +RA BR BKN010 OVC014 18/17 A3001 RMK AO2 TWR VIS 2 1/2 P0010=
200805151802 SPECI KATL 151802Z 17012KT 2 1/2SM R09R/6000VP6000FT RA BR BKN010 OVC014 19/17 A3001 RMK AO2 SFC VIS 3 CIG 007V012 P0003=
200805151802 SPECI KATL 151802Z 17012KT 2 1/2SM R09R/6000VP6000FT RA BR BKN010 OVC014 19/17 A3001 RMK AO2 SFC VIS 3 CIG 007V012 P0003=
200805151752 METAR KATL 151752Z 16008KT 5SM -RA BR FEW007 BKN010 OVC013 19/17 A3001 RMK AO2 SLP156 P0002 60004 T01890172 10211 20178 50001=
200805151652 METAR KATL 151652Z 17005KT 6SM -RA BR BKN014 BKN018 OVC020 19/17 A3002 RMK AO2 SLP158 P0002 T01940172=
200805151640 SPECI KATL 151640Z 17007KT 6SM -RA BR BKN014 OVC018 19/17 A3002 RMK AO2 P0002=
200805151640 SPECI KATL 151640Z 17007KT 6SM -RA BR BKN014 OVC018 19/17 A3002 RMK AO2 P0002=
200805151552 METAR KATL 151552Z 18005KT 8SM -RA BKN016 BKN037 OVC100 20/16 A3002 RMK AO2 RAB34 SLP158 P0000 T02000161=
200805151539 SPECI KATL 151539Z 15007KT 9SM -RA BKN016 BKN037 OVC100 20/16 A3001 RMK AO2 RAB34 P0000=
200805151539 SPECI KATL 151539Z 15007KT 9SM -RA BKN016 BKN037 OVC100 20/16 A3001 RMK AO2 RAB34 P0000=
200805151452 METAR KATL 151452Z 14006KT 10SM FEW020 SCT100 OVC150 21/16 A3000 RMK AO2 SLP154 T02060161 58002=
200805151352 METAR KATL 151352Z 15004KT 9SM FEW015 SCT100 SCT120 OVC150 19/15 A3001 RMK AO2 SLP157 T01940150=
200805151252 METAR KATL 151252Z 16006KT 10SM FEW024 BKN095 OVC200 18/14 A3001 RMK AO2 SLP156 T01830144=
200805151230 SPECI KATL 151230Z 14005KT 10SM SCT024 BKN090 OVC120 18/14 A3000 RMK AO2=
200805151230 SPECI KATL 151230Z 14005KT 10SM SCT024 BKN090 OVC120 18/14 A3000 RMK AO2=
200805151201 SPECI KATL 151201Z 13004KT 10SM BKN024 OVC090 18/14 A3001 RMK AO2=
200805151201 SPECI KATL 151201Z 13004KT 10SM BKN024 OVC090 18/14 A3001 RMK AO2=
200805151152 METAR KATL 151152Z 13003KT 10SM FEW065 BKN090 OVC120 18/14 A3001 RMK AO2 SLP156 T01780139 10183 20172 53003=
200805151052 METAR KATL 151052Z COR 11005KT 10SM OVC085 17/14 A3000 RMK AO2 SLP151 T01720139=
200805150952 METAR KATL 150952Z 11003KT 10SM BKN085 BKN120 OVC200 18/14 A3000 RMK AO2 SLP151 T01780139=
200805150852 METAR KATL 150852Z 09004KT 10SM BKN090 BKN120 OVC200 18/14 A3000 RMK AO2 SLP153 T01780139 55005=
200805150752 METAR KATL 150752Z 00000KT 10SM BKN090 BKN150 OVC200 18/13 A2999 RMK AO2 SLP151 T01780133=
200805150652 METAR KATL 150652Z 11004KT 10SM BKN050 BKN110 OVC150 18/13 A3001 RMK AO2 SLP156 T01780133=
200805150552 METAR KATL 150552Z 09006KT 10SM FEW055 SCT100 BKN150 OVC200 18/14 A3002 RMK AO2 SLP159 T01780139 10222 20178 58013=
200805150452 METAR KATL 150452Z 10005KT 10SM FEW060 BKN110 BKN150 OVC200 19/14 A3003 RMK AO2 SLP164 T01890139 402220144=
200805150352 METAR KATL 150352Z 06009KT 10SM BKN120 BKN150 OVC200 19/14 A3005 RMK AO2 SLP170 T01940144=
200805150252 METAR KATL 150252Z 08005KT 10SM FEW150 BKN200 OVC250 19/14 A3005 RMK AO2 SLP172 T01890144 51006=
200805150152 METAR KATL 150152Z 08008KT 10SM FEW150 BKN200 OVC250 20/14 A3005 RMK AO2 SLP171 T02000144=
200805150052 METAR KATL 150052Z 10004KT 10SM FEW050 SCT100 BKN150 OVC200 21/14 A3006 RMK AO2 SLP174 T02060144=
200805142352 METAR KATL 142352Z 12005KT 10SM FEW095 BKN150 OVC200 22/13 A3004 RMK AO2 SLP166 T02220133 10222 20206 57014=
200805142252 METAR KATL 142252Z 15006KT 10SM FEW095 SCT140 BKN200 BKN250 22/13 A3004 RMK AO2 SLP169 T02220133=
200805142152 METAR KATL 142152Z 16005KT 10SM BKN095 BKN120 OVC150 22/14 A3007 RMK AO2 SLP177 T02220139=
200805142052 METAR KATL 142052Z 14003KT 10SM BKN095 BKN150 BKN180 22/13 A3008 RMK AO2 SLP180 VIRGA W T02170133 58015=
200805141952 METAR KATL 141952Z 18008KT 10SM SCT100 SCT150 BKN180 BKN250 21/13 A3009 RMK AO2 SLP185 T02110128=
200805141852 METAR KATL 141852Z 18005KT 10SM FEW080 SCT110 BKN150 BKN180 21/12 A3012 RMK AO2 SLP193 T02060122=
200805141752 METAR KATL 141752Z 17009KT 10SM BKN095 BKN150 OVC180 20/12 A3012 RMK AO2 SLP195 VIRGA DSNT N-NE BINOVC DSNT NW 60000 T02000122 10211 20150 58011=
200805141652 METAR KATL 141652Z 17007KT 9SM BKN100 BKN150 BKN180 19/12 A3015 RMK AO2 SLP205 SHRA DSNT N-NE T01940117=
200805141552 METAR KATL 141552Z 20007KT 10SM FEW080 BKN110 BKN150 BKN180 18/11 A3018 RMK AO2 SLP215 VIRGA NW T01830111=
200805141452 METAR KATL 141452Z 14007KT 10SM BKN110 BKN150 OVC180 18/11 A3016 RMK AO2 RAB1357E07 SLP207 VIRGA NW BINOVC DSNT NE P0000 60000 T01780111 50005=
200805141352 METAR KATL 141352Z 20007KT 10SM FEW100 BKN150 BKN180 17/11 A3017 RMK AO2 SLP212 VIRGA DSNT N-NE W T01670111=
200805141252 METAR KATL 141252Z 15007KT 10SM FEW100 SCT140 BKN180 OVC250 16/11 A3014 RMK AO2 SLP202 VIRGA VC W-NW ACC VC NE AND VC SW-W T01610111=
200805141152 METAR KATL 141152Z 14006KT 10SM FEW140 BKN180 BKN250 15/11 A3014 RMK AO2 SLP202 T01500106 10167 20144 51021=
200805141052 METAR KATL 141052Z 14004KT 10SM SCT150 BKN200 OVC250 14/10 A3013 RMK AO2 SLP196 T01440100=
200805140952 METAR KATL 140952Z 16005KT 10SM FEW150 BKN200 OVC250 15/09 A3011 RMK AO2 SLP190 T01500094=
200805140852 METAR KATL 140852Z 13004KT 10SM SCT150 BKN200 OVC250 15/09 A3008 RMK AO2 SLP179 T01500094 55009=
200805140752 METAR KATL 140752Z 15005KT 10SM SCT150 BKN200 BKN250 16/09 A3007 RMK AO2 SLP177 T01560094=
200805140652 METAR KATL 140652Z 13005KT 10SM FEW150 BKN200 BKN250 16/10 A3008 RMK AO2 SLP181 T01610100=
200805140552 METAR KATL 140552Z 13005KT 10SM SCT200 BKN250 17/10 A3010 RMK AO2 SLP188 T01670100 10217 20161 56005=
200805140452 METAR KATL 140452Z 15003KT 10SM SCT200 BKN250 17/10 A3012 RMK AO2 SLP192 T01670100 402390100=
200805140352 METAR KATL 140352Z 13003KT 10SM FEW150 SCT200 BKN250 17/11 A3010 RMK AO2 SLP187 T01720106=
200805140252 METAR KATL 140252Z 16004KT 10SM SCT200 BKN250 18/11 A3012 RMK AO2 SLP194 T01830111 50005=
200805140152 METAR KATL 140152Z 00000KT 10SM BKN200 BKN250 19/10 A3013 RMK AO2 SLP199 T01890100=
200805140052 METAR KATL 140052Z 20004KT 10SM FEW150 BKN200 BKN250 19/11 A3012 RMK AO2 SLP196 T01940106=
200805132352 METAR KATL 132352Z 17005KT 10SM FEW150 BKN200 OVC250 22/09 A3010 RMK AO2 SLP190 T02170089 10239 20217 53007=
200805132252 METAR KATL 132252Z 16006KT 10SM FEW150 BKN200 OVC250 23/06 A3009 RMK AO2 SLP187 T02280061=
200805132152 METAR KATL 132152Z 12004KT 10SM FEW150 BKN180 OVC200 23/06 A3009 RMK AO2 SLP185 T02280056=
200805132052 METAR KATL 132052Z 17005KT 10SM FEW150 BKN180 OVC250 23/06 A3008 RMK AO2 SLP182 T02330061 58007=
200805131952 METAR KATL 131952Z 11006KT 10SM FEW150 BKN180 BKN250 23/06 A3009 RMK AO2 SLP186 T02330056=
200805131852 METAR KATL 131852Z 18003KT 10SM FEW150 BKN200 BKN250 23/06 A3011 RMK AO2 SLP190 T02280056=
200805131752 METAR KATL 131752Z 00000KT 10SM FEW200 SCT250 23/04 A3010 RMK AO2 SLP190 T02280044 10228 20139 58016=
200805131652 METAR KATL 131652Z 00000KT 10SM FEW200 SCT250 22/06 A3012 RMK AO2 SLP197 T02170056=
200805131552 METAR KATL 131552Z VRB04KT 10SM FEW250 20/07 A3015 RMK AO2 SLP206 T02000067=
200805131452 METAR KATL 131452Z 12008KT 10SM FEW250 19/06 A3015 RMK AO2 SLP206 T01890061 51014=
200805131352 METAR KATL 131352Z 10006KT 10SM FEW250 18/06 A3014 RMK AO2 SLP203 T01780061=
200805131252 METAR KATL 131252Z 08006KT 10SM FEW250 16/06 A3013 RMK AO2 SLP200 T01560061=
200805131152 METAR KATL 131152Z 06006KT 10SM FEW250 14/06 A3011 RMK AO2 SLP192 T01390061 10139 20100 53028=
200805131052 METAR KATL 131052Z 35003KT 10SM FEW250 12/06 A3008 RMK AO2 SLP181 T01170061=
200805130952 METAR KATL 130952Z 33003KT 10SM FEW250 11/07 A3004 RMK AO2 SLP169 T01110067=
200805130852 METAR KATL 130852Z 34004KT 10SM FEW250 12/06 A3002 RMK AO2 SLP163 T01170061 53011=
200805130752 METAR KATL 130752Z 33005KT 10SM FEW250 12/06 A3000 RMK AO2 SLP155 T01170061=
200805130652 METAR KATL 130652Z 35006KT 10SM FEW250 13/06 A2999 RMK AO2 SLP152 T01330061=
200805130552 METAR KATL 130552Z 33006KT 10SM CLR 13/07 A2999 RMK AO2 SLP152 T01280067 10200 20128 51005=
200805130452 METAR KATL 130452Z 31006KT 10SM CLR 13/07 A2999 RMK AO2 SLP151 T01280067 402220111=
200805130352 METAR KATL 130352Z 31006KT 10SM CLR 15/07 A2999 RMK AO2 SLP151 T01500067=
200805130252 METAR KATL 130252Z 31005KT 10SM CLR 16/06 A2997 RMK AO2 SLP148 T01560061 53021=
200805130152 METAR KATL 130152Z 32003KT 10SM CLR 18/06 A2995 RMK AO2 SLP138 T01780056=
200805130052 METAR KATL 130052Z 32006KT 10SM CLR 18/05 A2993 RMK AO2 SLP131 T01830050=
200805122352 METAR KATL 122352Z 32009KT 10SM CLR 20/04 A2991 RMK AO2 SLP125 T02000044 10222 20189 53007=
200805122252 METAR KATL 122252Z 32014G19KT 10SM CLR 21/04 A2990 RMK AO2 SLP123 T02110039=
200805122152 METAR KATL 122152Z 33013G24KT 10SM CLR 22/04 A2989 RMK AO2 SLP118 T02170039=
200805122052 METAR KATL 122052Z 30012KT 10SM CLR 22/06 A2989 RMK AO2 SLP117 T02170056 58005=
200805121952 METAR KATL 121952Z 33017G24KT 10SM CLR 21/05 A2989 RMK AO2 SLP118 T02110050=
200805121852 METAR KATL 121852Z 31018G24KT 10SM CLR 20/06 A2990 RMK AO2 PK WND 31027/1820 SLP121 T02000056=
200805121752 METAR KATL 121752Z 31018G22KT 10SM CLR 19/06 A2990 RMK AO2 SLP123 T01890061 10194 20117 50002=
200805121652 METAR KATL 121652Z 32019G26KT 10SM FEW050 18/06 A2991 RMK AO2 PK WND 33026/1652 SLP125 T01830061=
200805121552 METAR KATL 121552Z 32014G23KT 10SM FEW045 17/06 A2991 RMK AO2 PK WND 32027/1456 SLP126 T01720056=
200805121452 METAR KATL 121452Z 31020G27KT 10SM FEW040 16/06 A2990 RMK AO2 PK WND 32027/1450 SLP122 T01560056 53017=
200805121352 METAR KATL 121352Z 32020G26KT 10SM FEW032 14/06 A2988 RMK AO2 PK WND 32028/1318 SLP115 T01390056=
200805121252 METAR KATL 121252Z 34019G25KT 10SM FEW030 13/06 A2987 RMK AO2 SLP111 T01330056=
200805121152 METAR KATL 121152Z 33013KT 10SM CLR 12/06 A2985 RMK AO2 SLP104 T01170056 10144 20111 53017=
200805121052 METAR KATL 121052Z 32010KT 10SM CLR 11/06 A2982 RMK AO2 SLP093 T01110056=
200805120952 METAR KATL 120952Z 31014KT 10SM CLR 12/06 A2980 RMK AO2 SLP086 T01170056=
200805120852 METAR KATL 120852Z 32015G20KT 10SM FEW044 13/06 A2980 RMK AO2 SLP085 T01280056 53003=
200805120752 METAR KATL 120752Z 32014G28KT 10SM SCT043 13/06 A2979 RMK AO2 PK WND 34028/0749 SLP083 T01330056=
200805120652 METAR KATL 120652Z 31009G20KT 10SM BKN045 14/06 A2979 RMK AO2 PK WND 30026/0631 SLP081 T01390056=
200805120552 METAR KATL 120552Z 31017G22KT 10SM BKN050 14/06 A2979 RMK AO2 PK WND 31029/0456 SLP081 T01390056 10194 20139 53003=
200805120452 METAR KATL 120452Z 31019G27KT 10SM BKN050 14/05 A2978 RMK AO2 PK WND 33030/0428 SLP080 T01440050 402440144=
200805120352 METAR KATL 120352Z 32023G33KT 10SM SCT050 15/05 A2978 RMK AO2 PK WND 32036/0325 SLP078 T01500050=
200805120252 METAR KATL 120252Z 32022G30KT 10SM BKN050 16/06 A2978 RMK AO2 PK WND 30030/0246 SLP078 T01560056 51032=
200805120152 METAR KATL 120152Z 30018G25KT 10SM BKN060 16/06 A2976 RMK AO2 PK WND 31035/0103 SLP073 T01610061=
200805120052 METAR KATL 120052Z 31020G32KT 10SM FEW055 17/06 A2973 RMK AO2 PK WND 31037/0040 SLP062 T01670056=
200805112352 METAR KATL 112352Z 30019G29KT 10SM SCT065 19/07 A2968 RMK AO2 PK WND 31034/2306 SLP045 T01940072 10244 20194 53024=
200805112252 METAR KATL 112252Z 30019G31KT 10SM SCT065 21/07 A2964 RMK AO2 PK WND 31036/2242 SLP029 T02110067=
200805112152 METAR KATL 112152Z 29023G32KT 10SM SCT065 22/07 A2963 RMK AO2 PK WND 28039/2101 SLP025 T02220067=
200805112052 METAR KATL 112052Z 28020G29KT 10SM SCT060 BKN070 23/08 A2961 RMK AO2 PK WND 29035/1953 SLP018 T02280078 55008=
200805111952 METAR KATL 111952Z 28023G33KT 10SM SCT075 24/06 A2960 RMK AO2 PK WND 28037/1942 SLP015 T02440061=
200805111852 METAR KATL 111852Z 26019G27KT 10SM FEW060 24/09 A2962 RMK AO2 PK WND 28032/1823 SLP021 T02390089=
200805111752 METAR KATL 111752Z 27015G23KT 10SM FEW055 23/09 A2963 RMK AO2 PK WND 26030/1709 SLP026 T02330094 10239 20178 58006=
200805111652 METAR KATL 111652Z 26017G27KT 10SM FEW055 23/08 A2965 RMK AO2 PK WND 28030/1607 SLP030 T02280078=
200805111552 METAR KATL 111552Z 26019G29KT 10SM SCT040 23/12 A2965 RMK AO2 PK WND 28032/1541 SLP030 T02330117 $=
200805111452 METAR KATL 111452Z 29015G19KT 10SM SCT019 SCT027 BKN039 22/16 A2965 RMK AO2 SLP032 T02220161 58003 $=
200805111444 SPECI KATL 111444Z 28011G18KT 10SM SCT019 SCT025 BKN030 22/17 A2965 RMK AO2 $=
200805111444 SPECI KATL 111444Z 28011G18KT 10SM SCT019 SCT025 BKN030 22/17 A2965 RMK AO2 $=
200805111404 SPECI KATL 111404Z 27010KT 8SM SCT013 BKN022 BKN028 21/18 A2966 RMK AO2 $=
200805111404 SPECI KATL 111404Z 27010KT 8SM SCT013 BKN022 BKN028 21/18 A2966 RMK AO2 $=
200805111352 METAR KATL 111352Z 26010KT 8SM SCT020 SCT026 21/18 A2967 RMK AO2 SLP038 T02060178 $=
200805111252 METAR KATL 111252Z 20005KT 6SM BR BKN025 BKN070 19/17 A2966 RMK AO2 SLP036 T01890167 $=
200805111152 METAR KATL 111152Z 20005KT 7SM SCT180 18/17 A2966 RMK AO2 SLP036 60148 70148 T01780167 10206 20172 53007 $=
200805111052 METAR KATL 111052Z 00000KT 10SM FEW090 SCT150 SCT200 18/16 A2962 RMK AO2 RAE19 SLP022 P0003 T01780161 $=
200805110952 METAR KATL 110952Z 01005KT 6SM RA BR FEW007 OVC031 18/16 A2968 RMK AO2 PK WND 35035/0909 WSHFT 0905 TSE49 SLP040 TS MOV SE-S P0114 T01780161 $=
200805110924 SPECI KATL 110924Z 33023G34KT 3SM +TSRA FEW001 BKN007CB OVC018 18/18 A2969 RMK AO2 PK WND 35035/0909 WSHFT 0905 CONS LTGICCG TS N-SW MOV E P0102 $=
200805110924 SPECI KATL 110924Z 33023G34KT 3SM +TSRA FEW001 BKN007CB OVC018 18/18 A2969 RMK AO2 PK WND 35035/0909 WSHFT 0905 CONS LTGICCG TS N-SW MOV E P0102 $=
200805110919 SPECI KATL 110919Z 32024G34KT 1SM R09R/1200VP6000FT +TSRA BKN005CB BKN030 OVC055 19/18 A2968 RMK AO2 PK WND 35035/0909 WSHFT 0905 CONS LTGICCG TS N-SW MOV E P0098 $=
200805110919 SPECI KATL 110919Z 32024G34KT 1SM R09R/1200VP6000FT +TSRA BKN005CB BKN030 OVC055 19/18 A2968 RMK AO2 PK WND 35035/0909 WSHFT 0905 CONS LTGICCG TS N-SW MOV E P0098 $=
200805110910 SPECI KATL 110910Z 36027G35KT 3/4SM R09R/1200VP6000FT +TSRA SQ BKN005CB BKN030 OVC055 20/19 A2962 RMK AO2 PK WND 35035/0909 CONS LTGICCG TS ALQDS MOV E P0060 $=
200805110910 SPECI KATL 110910Z 36027G35KT 3/4SM R09R/1200VP6000FT +TSRA SQ BKN005CB BKN030 OVC055 20/19 A2962 RMK AO2 PK WND 35035/0909 CONS LTGICCG TS ALQDS MOV E P0060 $=
200805110908 SPECI KATL 110908Z 35023G33KT 270V010 1SM R09R/2200VP6000FT +TSRA BKN005CB BKN030 OVC055 20/19 A2961 RMK AO2 PK WND 01033/0908 CONS LTGICCG TS ALQDS MOV E P0051 $=
200805110908 SPECI KATL 110908Z 35023G33KT 270V010 1SM R09R/2200VP6000FT +TSRA BKN005CB BKN030 OVC055 20/19 A2961 RMK AO2 PK WND 01033/0908 CONS LTGICCG TS ALQDS MOV E P0051 $=
200805110856 SPECI KATL 110856Z VRB04KT 1 3/4SM R09R/3500VP6000FT +TSRA BKN005 BKN010 OVC040 21/20 A2965 RMK AO2 PRESRR P0002 $=
200805110856 SPECI KATL 110856Z VRB04KT 1 3/4SM R09R/3500VP6000FT +TSRA BKN005 BKN010 OVC040 21/20 A2965 RMK AO2 PRESRR P0002 $=
200805110852 METAR KATL 110852Z VRB03KT 3SM TSRA BKN005CB BKN065 OVC095 21/19 A2964 RMK AO2 SLP027 RAB759 CONS LTGICCG TS SW-W-NW MOV E P0009 60031 T02060194 56030 $=
200805110843 SPECI KATL 110843Z 14007KT 4SM TSRA BKN005CB BKN065 OVC095 21/19 A2959 RMK AO2 RAB759 FRQ LTGICCG TS SW-W-NW MOV E P0005 $=
200805110843 SPECI KATL 110843Z 14007KT 4SM TSRA BKN005CB BKN065 OVC095 21/19 A2959 RMK AO2 RAB759 FRQ LTGICCG TS SW-W-NW MOV E P0005 $=
200805110800 SPECI KATL 110800Z 14007KT 6SM -TSRA SCT017CB OVC085 20/18 A2963 RMK AO2 TSE0759B00RAB0759 P0000 $=
200805110800 SPECI KATL 110800Z 14007KT 6SM -TSRA SCT017CB OVC085 20/18 A2963 RMK AO2 TSE0759B00RAB0759 P0000 $=
200805110752 METAR KATL 110752Z 13005KT 6SM TS BR SCT017CB BKN090 OVC110 20/18 A2964 RMK AO2 TSE28B46 SLP029 FRQ LTGICCG TS W-NW MOV E P0001 T02000183 $=
200805110746 SPECI KATL 110746Z 14006KT 7SM TS SCT017CB BKN090 OVC110 20/18 A2965 RMK AO2 TSE28B46 FRQ LTGICCG NW-W TS W-NW MOV E $=
200805110746 SPECI KATL 110746Z 14006KT 7SM TS SCT017CB BKN090 OVC110 20/18 A2965 RMK AO2 TSE28B46 FRQ LTGICCG NW-W TS W-NW MOV E $=
200805110734 SPECI KATL 110734Z 14006KT 6SM BKN019 BKN028 OVC095 21/18 A2966 RMK AO2 TSE28 PRESFR DSNT LTG W-NW TS MOV NE $=
200805110734 SPECI KATL 110734Z 14006KT 6SM BKN019 BKN028 OVC095 21/18 A2966 RMK AO2 TSE28 PRESFR DSNT LTG W-NW TS MOV NE $=
200805110652 METAR KATL 110652Z 00000KT 6SM TS BR FEW007CB OVC028 20/18 A2973 RMK AO2 TSB02RAB11E45 SLP059 FRQ LTGICCG TS N-E MOV E P0021 T02000183 $=
200805110639 SPECI KATL 110639Z 27003KT 6SM -TSRA BKN028CB BKN040 20/18 A2974 RMK AO2 TSB02RAB11 FRQ LTGICCG TS N-E-S MOV E P0021 $=
200805110639 SPECI KATL 110639Z 27003KT 6SM -TSRA BKN028CB BKN040 20/18 A2974 RMK AO2 TSB02RAB11 FRQ LTGICCG TS N-E-S MOV E P0021 $=
200805110627 SPECI KATL 110627Z VRB04G17KT 2 1/2SM R09R/5000VP6000FT +TSRA FEW019CB BKN028 BKN036 21/18 A2975 RMK AO2 TSB02RAB11 PRESRR CON LTGICCG TS ALQDS MOV E P0012=
200805110627 SPECI KATL 110627Z VRB04G17KT 2 1/2SM R09R/5000VP6000FT +TSRA FEW019CB BKN028 BKN036 21/18 A2975 RMK AO2 TSB02RAB11 PRESRR CON LTGICCG TS ALQDS MOV E P0012=
200805110603 SPECI KATL 110603Z 08008KT 7SM TS SCT034CB SCT080 BKN200 21/18 A2973 RMK AO2 TSB02 PRESFR FRQ LTGICCG TS SE-SW=
200805110603 SPECI KATL 110603Z 08008KT 7SM TS SCT034CB SCT080 BKN200 21/18 A2973 RMK AO2 TSB02 PRESFR FRQ LTGICCG TS SE-SW=
200805110552 METAR KATL 110552Z 08005KT 7SM FEW030 SCT060 OVC200 22/18 A2976 RMK AO2 SLP069 T02170178 10250 20211 55009=
200805110452 METAR KATL 110452Z 15003KT 8SM SCT020 SCT060 BKN200 22/18 A2975 RMK AO2 SLP065 T02170178 402670194=
200805110352 METAR KATL 110352Z 17005KT 9SM BKN033 BKN060 BKN200 22/17 A2978 RMK AO2 SLP073 T02170172=
200805110252 METAR KATL 110252Z 11006KT 10SM SCT039 BKN060 BKN200 23/15 A2979 RMK AO2 SLP079 T02280150 55005=
200805110152 METAR KATL 110152Z 12003KT 10SM SCT039 BKN070 BKN200 23/16 A2979 RMK AO2 SLP077 CB DSIPT T02330156=
200805110052 METAR KATL 110052Z 04004KT 10SM FEW045 SCT070 SCT150 BKN200 24/14 A2980 RMK AO2 SLP083 CB DSNT SE-SW MOV E T02440144=
200805102352 METAR KATL 102352Z 36004KT 10SM SCT045 SCT070 BKN150 BKN200 25/15 A2981 RMK AO2 SLP085 CB DSNT SE MOV E T02500150 10267 20250 55000=
200805102252 METAR KATL 102252Z 32005KT 9SM FEW040 SCT075 BKN150 BKN200 26/16 A2981 RMK AO2 SLP085 CB DSNT SE-S MOV E T02560156=
200805102152 METAR KATL 102152Z 01003KT 10SM FEW040TCU SCT075 BKN150 BKN200 26/16 A2980 RMK AO2 SLP082 CB DSNT SE-S MOV E TCU VC SW T02610156=
200805102052 METAR KATL 102052Z 33003KT 9SM SCT040CB SCT075 BKN150 26/16 A2981 RMK AO2 SLP084 CB VC SE-SW MOV E T02610161 56015=
200805102027 SPECI KATL 102027Z 35007KT 9SM SCT040CB BKN150 BKN200 26/16 A2981 RMK AO2 CB VC S-SW-W MOV E=
200805102027 SPECI KATL 102027Z 35007KT 9SM SCT040CB BKN150 BKN200 26/16 A2981 RMK AO2 CB VC S-SW-W MOV E=
200805101952 METAR KATL 101952Z 30005KT 10SM FEW040 SCT150 BKN200 26/16 A2982 RMK AO2 SLP089 CB DSNT SE AND W T02560161=
200805101852 METAR KATL 101852Z COR 30005KT 10SM FEW035 SCT150 OVC200 25/16 A2983 RMK AO2 SLP093 CB DSNT SE AND SW T02500156=
200805101752 METAR KATL 101752Z 33007KT 10SM SCT038 OVC200 26/16 A2985 RMK AO2 SLP100 T02560161 10261 20194 58002=
200805101652 METAR KATL 101652Z 27005KT 10SM SCT038 OVC200 25/17 A2986 RMK AO2 SLP101 T02500167=
200805101552 METAR KATL 101552Z 27004KT 10SM SCT035 BKN150 BKN200 25/16 A2987 RMK AO2 SLP105 T02500161=
200805101452 METAR KATL 101452Z 29004KT 10SM FEW030 SCT150 BKN250 24/16 A2986 RMK AO2 SLP101 T02440161 51006=
200805101352 METAR KATL 101352Z 32007KT 10SM FEW055 BKN250 23/17 A2985 RMK AO2 SLP101 T02280172=
200805101252 METAR KATL 101252Z 31008KT 6SM HZ SCT037 21/17 A2986 RMK AO2 SLP102 T02110172=
200805101152 METAR KATL 101152Z 28007KT 6SM BR FEW200 19/18 A2984 RMK AO2 SLP096 T01940178 10211 20194 53019=
200805101052 METAR KATL 101052Z 29007KT 6SM BR BKN030 BKN150 19/18 A2982 RMK AO2 SLP089 T01940178=
200805100952 METAR KATL 100952Z 28007KT 8SM FEW150 20/18 A2980 RMK AO2 SLP082 T02000183=
200805100852 METAR KATL 100852Z 25008KT 9SM FEW150 21/18 A2978 RMK AO2 SLP075 T02060178 55008=
200805100752 METAR KATL 100752Z 23008KT 10SM FEW150 19/17 A2978 RMK AO2 SLP075 T01940167=
200805100652 METAR KATL 100652Z 21006KT 10SM FEW060 SCT080 20/17 A2979 RMK AO2 SLP078 T02000167=
200805100552 METAR KATL 100552Z 23004KT 10SM BKN065 21/16 A2981 RMK AO2 SLP084 T02060161 10250 20206 58006=
200805100452 METAR KATL 100452Z 24004KT 10SM FEW090 21/16 A2981 RMK AO2 SLP087 T02110161 402670172=
200805100352 METAR KATL 100352Z 28005KT 10SM FEW085 21/16 A2982 RMK AO2 SLP090 T02060161=
200805100252 METAR KATL 100252Z 25005KT 10SM FEW100 22/16 A2982 RMK AO2 SLP092 T02220156 53012=
200805100152 METAR KATL 100152Z 23004KT 10SM FEW250 22/16 A2980 RMK AO2 SLP084 T02220161=
200805100052 METAR KATL 100052Z 24006KT 10SM CLR 24/16 A2980 RMK AO2 SLP082 T02390156=
200805092352 METAR KATL 092352Z 25005KT 10SM FEW045 25/15 A2979 RMK AO2 SLP080 T02500150 10267 20239 50004=
200805092252 METAR KATL 092252Z 25010KT 10SM FEW045 26/15 A2979 RMK AO2 SLP080 T02560150=
200805092152 METAR KATL 092152Z 24008KT 10SM SCT045 26/15 A2978 RMK AO2 SLP077 T02610150=
200805092052 METAR KATL 092052Z 22010KT 10SM FEW045 26/15 A2978 RMK AO2 SLP074 T02610150 58015=
200805091952 METAR KATL 091952Z 22007KT 10SM FEW043 26/16 A2979 RMK AO2 SLP079 T02560156=
200805091852 METAR KATL 091852Z 29008G18KT 10SM BKN040 25/15 A2982 RMK AO2 SLP091 T02500150=
200805091752 METAR KATL 091752Z 27009KT 10SM SCT040 25/15 A2982 RMK AO2 SLP090 T02500150 10250 20178 58003=
200805091652 METAR KATL 091652Z 32011KT 10SM FEW027 BKN035 BKN040 22/15 A2985 RMK AO2 SLP101 T02220150=
200805091649 SPECI KATL 091649Z 27008G14KT 10SM FEW027 BKN035 23/16 A2985 RMK AO2=
200805091649 SPECI KATL 091649Z 27008G14KT 10SM FEW027 BKN035 23/16 A2985 RMK AO2=
200805091557 SPECI KATL 091557Z 30005KT 10SM BKN024 BKN030 21/16 A2983 RMK AO2=
200805091557 SPECI KATL 091557Z 30005KT 10SM BKN024 BKN030 21/16 A2983 RMK AO2=
200805091552 METAR KATL 091552Z 32006KT 10SM SCT026 BKN030 21/16 A2983 RMK AO2 SLP095 T02110156=
200805091521 SPECI KATL 091521Z 28010KT 10SM FEW020 BKN030 21/15 A2982 RMK AO2=
200805091521 SPECI KATL 091521Z 28010KT 10SM FEW020 BKN030 21/15 A2982 RMK AO2=
200805091452 METAR KATL 091452Z 28006KT 10SM FEW016 BKN028 20/16 A2982 RMK AO2 SLP092 T02000156 50004=
200805091416 SPECI KATL 091416Z 29007KT 9SM FEW016 BKN028 19/16 A2983 RMK AO2=
200805091416 SPECI KATL 091416Z 29007KT 9SM FEW016 BKN028 19/16 A2983 RMK AO2=
200805091352 METAR KATL 091352Z 29009KT 10SM FEW010 SCT015 BKN030 19/16 A2983 RMK AO2 SLP093 T01890161=
200805091252 METAR KATL 091252Z 28008KT 9SM FEW008 SCT022 BKN034 19/17 A2981 RMK AO2 SLP088 T01890167=
200805091247 SPECI KATL 091247Z 27008KT 8SM FEW008 SCT022 BKN034 19/16 A2981 RMK AO2=
200805091247 SPECI KATL 091247Z 27008KT 8SM FEW008 SCT022 BKN034 19/16 A2981 RMK AO2=
200805091208 SPECI KATL 091208Z 27008KT 8SM FEW008 BKN015 OVC034 18/16 A2980 RMK AO2 BINOVC=
200805091208 SPECI KATL 091208Z 27008KT 8SM FEW008 BKN015 OVC034 18/16 A2980 RMK AO2 BINOVC=
200805091152 METAR KATL 091152Z 27007KT 8SM SCT014 BKN034 18/16 A2979 RMK AO2 SLP080 70016 T01780161 10194 20172 53018=
200805091137 SPECI KATL 091137Z 25006KT 8SM SCT014 BKN034 18/16 A2979 RMK AO2=
200805091137 SPECI KATL 091137Z 25006KT 8SM SCT014 BKN034 18/16 A2979 RMK AO2=
200805091128 SPECI KATL 091128Z 26006KT 7SM BKN016 OVC032 18/16 A2978 RMK AO2 BINOVC=
200805091128 SPECI KATL 091128Z 26006KT 7SM BKN016 OVC032 18/16 A2978 RMK AO2 BINOVC=
200805091108 SPECI KATL 091108Z 27005KT 7SM FEW016 OVC032 18/16 A2978 RMK AO2 BINOVC=
200805091108 SPECI KATL 091108Z 27005KT 7SM FEW016 OVC032 18/16 A2978 RMK AO2 BINOVC=
200805091052 METAR KATL 091052Z 27006KT 8SM FEW010 BKN018 BKN030 18/16 A2977 RMK AO2 SLP074 T01780161=
200805090952 METAR KATL 090952Z 28007KT 10SM FEW008 BKN016 BKN028 BKN250 18/17 A2975 RMK AO2 SLP067 T01780167=
200805090943 SPECI KATL 090943Z 28008KT 10SM SCT016 BKN028 BKN250 18/17 A2975 RMK AO2=
200805090943 SPECI KATL 090943Z 28008KT 10SM SCT016 BKN028 BKN250 18/17 A2975 RMK AO2=
200805090852 METAR KATL 090852Z 27007KT 10SM FEW046 SCT065 SCT250 18/17 A2974 RMK AO2 SLP061 T01830167 53003=
200805090752 METAR KATL 090752Z 26006KT 10SM FEW060 SCT200 18/17 A2972 RMK AO2 SLP055 T01830167=
200805090652 METAR KATL 090652Z 27006KT 10SM BKN060 BKN200 19/18 A2971 RMK AO2 SLP052 T01890178=
200805090552 METAR KATL 090552Z 24006KT 10SM FEW006 BKN050 BKN150 BKN200 19/18 A2973 RMK AO2 SLP057 60016 T01940183 10244 20189 53001=
200805090452 METAR KATL 090452Z 23005KT 8SM FEW006 BKN050 BKN080 OVC150 19/18 A2972 RMK AO2 RAE25 SLP054 P0004 T01940183 402830178=
200805090409 SPECI KATL 090409Z 24006KT 7SM -RA FEW006 SCT020 OVC035 19/18 A2972 RMK AO2 P0004=
200805090409 SPECI KATL 090409Z 24006KT 7SM -RA FEW006 SCT020 OVC035 19/18 A2972 RMK AO2 P0004=
200805090352 METAR KATL 090352Z 27004KT 4SM +RA BR SCT007 BKN015 OVC030 19/18 A2973 RMK AO2 RAB0257 SLP059 P0011 T01890183=
200805090342 SPECI KATL 090342Z 29007KT 7SM -RA BKN008 OVC025 19/18 A2973 RMK AO2 RAB0257 P0001=
200805090342 SPECI KATL 090342Z 29007KT 7SM -RA BKN008 OVC025 19/18 A2973 RMK AO2 RAB0257 P0001=
200805090328 SPECI KATL 090328Z 26006KT 7SM -RA BKN028 BKN035 OVC050 19/18 A2973 RMK AO2 RAB0257 P0000=
200805090328 SPECI KATL 090328Z 26006KT 7SM -RA BKN028 BKN035 OVC050 19/18 A2973 RMK AO2 RAB0257 P0000=
200805090252 METAR KATL 090252Z 22008KT 10SM BKN038 BKN060 OVC100 19/18 A2972 RMK AO2 RAB0156E47 SLP058 P0001 60001 T01940178 51014=
200805090152 METAR KATL 090152Z 27009KT 10SM SCT048 BKN060 OVC090 21/17 A2972 RMK AO2 RAB07E34 SLP056 P0000 T02060167=
200805090052 METAR KATL 090052Z 20009G18KT 10SM FEW070 BKN110 OVC150 24/14 A2970 RMK AO2 RAB40E48 SLP049 P0000 T02390144=
200805082352 METAR KATL 082352Z 19014G25KT 10SM FEW090 SCT120 BKN150 OVC200 24/14 A2968 RMK AO2 RAE2259B28E48 SLP043 P0000 60000 T02440139 10283 20239 55014=
200805082252 METAR KATL 082252Z 19014G21KT 9SM -RA FEW050 SCT100 BKN120 OVC150 24/14 A2968 RMK AO2 RAB32 SLP041 P0000 T02390144=
200805082152 METAR KATL 082152Z 19012KT 10SM FEW120 BKN150 OVC200 26/12 A2970 RMK AO2 SLP049 T02560122=
200805082052 METAR KATL 082052Z 21012KT 10SM SCT075 BKN095 OVC150 27/11 A2972 RMK AO2 PK WND 23026/1958 SLP056 VIRGA SW-NW CBMAM DSNT W-N T02670106 58018=
200805081952 METAR KATL 081952Z 20012G21KT 10SM BKN085 BKN150 BKN250 27/11 A2976 RMK AO2 PK WND 20026/1859 SLP066 T02720111=
200805081852 METAR KATL 081852Z 18017G30KT 10SM FEW070 SCT150 BKN250 28/10 A2976 RMK AO2 PK WND 20030/1845 SLP067 T02780100=
200805081756 SPECI KATL 081756Z 20018G30KT 10SM FEW060 SCT150 SCT250 28/11 A2978 RMK AO2 PK WND 18030/1753=
200805081756 SPECI KATL 081756Z 20018G30KT 10SM FEW060 SCT150 SCT250 28/11 A2978 RMK AO2 PK WND 18030/1753=
200805081754 SPECI KATL 081754Z 18024G30KT 1 3/4SM HZ FEW001 28/11 A2978 RMK AO2 PK WND 18030/1753 VIS 3/4V5=
200805081754 SPECI KATL 081754Z 18024G30KT 1 3/4SM HZ FEW001 28/11 A2978 RMK AO2 PK WND 18030/1753 VIS 3/4V5=
200805081752 METAR KATL 081752Z 18018G27KT 10SM FEW060 SCT150 SCT250 28/11 A2978 RMK AO2 PK WND 19029/1706 SLP074 BLDU OVR RWY T02780111 10278 20178 58029=
200805081658 SPECI KATL 081658Z 19020G26KT 10SM FEW060 SCT150 SCT250 26/13 A2981 RMK AO2 PK WND 19026/1657=
200805081658 SPECI KATL 081658Z 19020G26KT 10SM FEW060 SCT150 SCT250 26/13 A2981 RMK AO2 PK WND 19026/1657=
200805081652 METAR KATL 081652Z COR 19017G27KT 10SM FEW060 SCT150 SCT250 26/13 A2981 RMK AO2 PK WND 19027/1648 SLP086 ACC DSNT E T02560133=
200805081552 METAR KATL 081552Z 18014KT 10SM BKN150 23/13 A2985 RMK AO2 SLP099 ACC OHD ALQDS T02330133=
200805081452 METAR KATL 081452Z COR 18011G18KT 10SM SCT150 SCT250 BKN300 21/14 A2987 RMK AO2 SLP106 ACC OHD ALQDS T02110139 56011=
200805081352 METAR KATL 081352Z 18009KT 10SM BKN150 19/14 A2988 RMK AO2 SLP111 T01940139=
200805081252 METAR KATL 081252Z 15008KT 10SM FEW140 BKN200 BKN250 18/13 A2988 RMK AO2 SLP110 T01830133=
200805081152 METAR KATL 081152Z 19007KT 10SM FEW100 BKN140 OVC200 18/13 A2990 RMK AO2 SLP118 VIRGA VC SW-NW T01830128 10217 20183 53003=
200805081052 METAR KATL 081052Z 19006KT 10SM FEW100 BKN140 BKN200 OVC250 18/12 A2990 RMK AO2 SLP115 VIRGA VC NE AND VC W-NW T01830117=
200805080952 METAR KATL 080952Z 18007KT 10SM SCT100 BKN140 OVC200 19/12 A2990 RMK AO2 SLP114 VIRGA OHD-ALQDS T01890117=
200805080852 METAR KATL 080852Z 19005KT 10SM BKN140 OVC200 19/12 A2989 RMK AO2 SLP114 T01940122 55001=
200805080752 METAR KATL 080752Z 19006KT 10SM FEW085 SCT140 BKN200 BKN250 20/12 A2988 RMK AO2 SLP110 T02000122=
200805080652 METAR KATL 080652Z 20006KT 10SM FEW085 SCT140 BKN200 BKN250 21/13 A2989 RMK AO2 SLP110 T02110128=
200805080552 METAR KATL 080552Z 21007KT 10SM FEW090 BKN200 OVC250 22/12 A2990 RMK AO2 SLP115 T02170122 10256 20217 58003=
200805080452 METAR KATL 080452Z 21010KT 10SM FEW060 BKN200 OVC250 22/13 A2991 RMK AO2 SLP119 T02220128 402780156=
200805080352 METAR KATL 080352Z 18012KT 10SM FEW060 BKN200 BKN250 23/13 A2990 RMK AO2 SLP116 T02280128=
200805080252 METAR KATL 080252Z 15005KT 10SM FEW065 BKN200 BKN250 23/13 A2991 RMK AO2 SLP119 T02280128 50002=
200805080152 METAR KATL 080152Z 16005KT 10SM SCT070 BKN200 BKN250 23/13 A2991 RMK AO2 SLP121 T02330133=
200805080052 METAR KATL 080052Z 18007KT 10SM FEW150 SCT200 BKN250 24/13 A2990 RMK AO2 SLP119 T02440128=
200805072352 METAR KATL 072352Z 19008KT 10SM FEW065 SCT250 26/12 A2990 RMK AO2 SLP119 T02610122 10278 20256 58007=
200805072252 METAR KATL 072252Z 19010G17KT 10SM BKN065 BKN250 27/12 A2991 RMK AO2 SLP121 T02670122=
200805072152 METAR KATL 072152Z 19013KT 10SM FEW060 BKN250 27/12 A2992 RMK AO2 SLP125 T02720122=
200805072126 SPECI KATL 072126Z 18011G19KT 10SM FEW060 BKN250 27/12 A2991 RMK AO2=
200805072126 SPECI KATL 072126Z 18011G19KT 10SM FEW060 BKN250 27/12 A2991 RMK AO2=
200805072052 METAR KATL 072052Z 22009G17KT 10SM FEW060 SCT200 BKN250 27/12 A2992 RMK AO2 SLP125 T02720122 56022=
200805071952 METAR KATL 071952Z 17010KT 10SM FEW060 SCT250 27/12 A2994 RMK AO2 SLP129 T02720117=
200805071852 METAR KATL 071852Z 19010G20KT 10SM SCT055 27/13 A2997 RMK AO2 SLP139 T02670128=
200805071752 METAR KATL 071752Z 18010G17KT 10SM FEW060 SCT250 26/13 A2999 RMK AO2 SLP147 T02560128 10267 20167 56020=
200805071652 METAR KATL 071652Z 17012G20KT 10SM FEW050 SCT120 SCT180 26/14 A3001 RMK AO2 SLP154 T02560139=
200805071552 METAR KATL 071552Z 17013KT 10SM FEW120 SCT180 24/14 A3003 RMK AO2 SLP161 T02390139=
200805071452 METAR KATL 071452Z 19009KT 9SM FEW120 SCT180 SCT250 22/14 A3005 RMK AO2 SLP169 T02220139 58001=
200805071352 METAR KATL 071352Z 19005KT 10SM BKN120 BKN180 BKN250 19/13 A3007 RMK AO2 SLP174 T01890128=
200805071252 METAR KATL 071252Z 14004KT 10SM SCT110 BKN200 BKN250 18/13 A3006 RMK AO2 SLP172 T01780128=
200805071152 METAR KATL 071152Z 16004KT 10SM BKN120 BKN200 BKN250 17/12 A3005 RMK AO2 SLP171 T01670117 10194 20156 53019=
200805071052 METAR KATL 071052Z 15005KT 9SM SCT150 SCT200 BKN250 16/11 A3002 RMK AO2 SLP160 T01610111=
200805070952 METAR KATL 070952Z 13003KT 10SM SCT150 SCT200 BKN250 16/09 A3001 RMK AO2 SLP155 T01610094=
200805070852 METAR KATL 070852Z 10004KT 10SM FEW150 SCT200 SCT250 17/09 A3000 RMK AO2 SLP151 T01670089 55005=
200805070752 METAR KATL 070752Z 13004KT 10SM SCT200 BKN250 18/08 A2999 RMK AO2 SLP148 T01780083=
200805070652 METAR KATL 070652Z 00000KT 10SM FEW200 SCT250 19/08 A3000 RMK AO2 SLP151 T01890078=
200805070552 METAR KATL 070552Z 00000KT 10SM BKN200 BKN250 19/08 A3001 RMK AO2 SLP155 T01940078 10250 20189 58008=
200805070452 METAR KATL 070452Z 00000KT 10SM BKN200 20/07 A3004 RMK AO2 SLP164 T02000067 402720117=
200805070352 METAR KATL 070352Z 00000KT 10SM SCT250 19/07 A3004 RMK AO2 SLP166 T01890072=
200805070252 METAR KATL 070252Z 00000KT 10SM FEW250 21/06 A3004 RMK AO2 SLP164 T02060056 53004=
200805070152 METAR KATL 070152Z 00000KT 10SM SCT200 BKN250 23/05 A3002 RMK AO2 SLP158 T02280050=
200805070052 METAR KATL 070052Z 00000KT 10SM SCT200 BKN250 23/04 A3002 RMK AO2 SLP157 T02330044=
200805062352 METAR KATL 062352Z 27003KT 10SM FEW200 BKN250 24/03 A3003 RMK AO2 SLP161 T02440033 10272 20239 50000=
200805062252 METAR KATL 062252Z 24004KT 10SM BKN250 26/03 A3003 RMK AO2 SLP163 T02560033=
200805062152 METAR KATL 062152Z 00000KT 10SM SCT250 26/02 A3002 RMK AO2 SLP162 T02610017=
200805062052 METAR KATL 062052Z 11004KT 10SM FEW240 27/02 A3003 RMK AO2 SLP161 T02670022 58021=
200805061952 METAR KATL 061952Z 07003KT 10SM CLR 27/03 A3005 RMK AO2 SLP169 T02670033=
200805061852 METAR KATL 061852Z 00000KT 10SM CLR 26/04 A3008 RMK AO2 SLP178 T02610039=
200805061752 METAR KATL 061752Z COR 00000KT 10SM CLR 26/06 A3009 RMK AO2 SLP183 T02560056 10256 20144 58010=
200805061652 METAR KATL 061652Z 17005KT 10SM CLR 24/04 A3010 RMK AO2 SLP187 T02390044=
200805061552 METAR KATL 061552Z 08008KT 040V120 10SM CLR 23/05 A3012 RMK AO2 SLP192 T02330050=
200805061452 METAR KATL 061452Z 07008KT 10SM CLR 22/05 A3012 RMK AO2 SLP193 T02220050 51010=
200805061352 METAR KATL 061352Z 06010KT 10SM CLR 21/06 A3012 RMK AO2 SLP192 T02060056=
200805061252 METAR KATL 061252Z 35006KT 10SM FEW250 18/04 A3010 RMK AO2 SLP187 T01830044=
200805061152 METAR KATL 061152Z 34006KT 10SM FEW200 SCT250 14/05 A3009 RMK AO2 SLP184 T01390050 10156 20117 53013=
200805061052 METAR KATL 061052Z 34006KT 10SM SCT200 BKN250 12/04 A3007 RMK AO2 SLP176 T01220044=
200805060952 METAR KATL 060952Z 33003KT 10SM SCT200 BKN250 12/04 A3005 RMK AO2 SLP171 T01170044=
200805060852 METAR KATL 060852Z 36004KT 10SM FEW200 BKN250 14/04 A3005 RMK AO2 SLP169 T01440039 55000=
200805060752 METAR KATL 060752Z 33006KT 10SM FEW200 SCT250 13/04 A3003 RMK AO2 SLP164 T01330044=
200805060652 METAR KATL 060652Z 33005KT 10SM FEW200 SCT250 14/04 A3003 RMK AO2 SLP163 T01390044=
200805060552 METAR KATL 060552Z 32007KT 10SM FEW200 15/04 A3005 RMK AO2 SLP170 T01500044 10222 20144 50003=
200805060452 METAR KATL 060452Z 33008KT 10SM FEW250 16/05 A3005 RMK AO2 SLP171 T01610050 402560117=
200805060352 METAR KATL 060352Z 31009KT 10SM FEW250 16/06 A3005 RMK AO2 SLP169 T01560061=
200805060252 METAR KATL 060252Z 31006KT 10SM FEW250 17/05 A3004 RMK AO2 SLP168 T01720050 51009=
200805060152 METAR KATL 060152Z 33005KT 10SM FEW250 19/04 A3004 RMK AO2 SLP167 T01940039=
200805060052 METAR KATL 060052Z 33007KT 10SM SCT250 21/03 A3003 RMK AO2 SLP164 T02060028=
200805052352 METAR KATL 052352Z 33012KT 10SM BKN250 22/02 A3001 RMK AO2 SLP159 T02220022 10256 20222 53003=
200805052252 METAR KATL 052252Z 32011KT 10SM SCT250 24/02 A3000 RMK AO2 SLP156 T02390022=
200805052152 METAR KATL 052152Z 35012KT 10SM FEW250 25/M02 A3000 RMK AO2 SLP152 T02501017=
200805052052 METAR KATL 052052Z 33011G18KT 10SM FEW070 SCT250 25/03 A3000 RMK AO2 SLP155 T02500028 58010=
200805051952 METAR KATL 051952Z 27010G17KT 10SM FEW075 SCT250 24/06 A3001 RMK AO2 SLP158 T02440061=
200805051852 METAR KATL 051852Z 32009G17KT 10SM FEW065 SCT250 24/07 A3003 RMK AO2 SLP162 T02440072=
200805051752 METAR KATL 051752Z 34006KT 10SM SCT250 24/08 A3003 RMK AO2 SLP164 T02440083 10244 20128 58004=
200805051652 METAR KATL 051652Z VRB04KT 10SM BKN250 23/08 A3004 RMK AO2 SLP168 T02330078=
200805051552 METAR KATL 051552Z 02004KT 10SM FEW250 22/07 A3005 RMK AO2 SLP172 T02170067=
200805051452 METAR KATL 051452Z 35009KT 10SM FEW250 21/08 A3005 RMK AO2 SLP169 T02060078 51005=
200805051352 METAR KATL 051352Z 34012G18KT 10SM FEW250 18/07 A3005 RMK AO2 SLP170 T01780067=
200805051252 METAR KATL 051252Z 32013KT 10SM FEW250 15/07 A3004 RMK AO2 SLP170 T01500067=
200805051152 METAR KATL 051152Z 32010KT 10SM FEW250 13/06 A3003 RMK AO2 SLP165 T01280061 10150 20117 53008=
200805051052 METAR KATL 051052Z 32009KT 10SM FEW200 12/06 A3002 RMK AO2 SLP161 T01170061=
200805050952 METAR KATL 050952Z 30008KT 10SM FEW250 12/07 A3001 RMK AO2 SLP158 T01170072=
200805050852 METAR KATL 050852Z 32009KT 10SM FEW250 12/08 A3001 RMK AO2 SLP156 T01220078 55003=
200805050752 METAR KATL 050752Z 31009KT 10SM FEW250 13/08 A3000 RMK AO2 SLP154 T01280083=
200805050652 METAR KATL 050652Z 30008KT 10SM FEW200 14/08 A3000 RMK AO2 SLP154 T01390083=
200805050552 METAR KATL 050552Z 30007KT 10SM FEW200 14/09 A3002 RMK AO2 SLP158 T01440089 10222 20139 58003=
200805050452 METAR KATL 050452Z 31006KT 10SM FEW055 16/09 A3003 RMK AO2 SLP163 T01610094 402560150=
200805050352 METAR KATL 050352Z 31005KT 10SM FEW055 16/09 A3003 RMK AO2 SLP163 T01610094=
200805050252 METAR KATL 050252Z 31006KT 10SM FEW060 18/09 A3003 RMK AO2 SLP162 T01780094 51015=
200805050152 METAR KATL 050152Z 31008KT 10SM FEW060 19/09 A3002 RMK AO2 SLP159 T01890094=
200805050052 METAR KATL 050052Z 31009KT 10SM FEW060 SCT080 21/11 A3000 RMK AO2 SLP154 T02060111=
200805042352 METAR KATL 042352Z 33010KT 10SM FEW060 SCT080 22/11 A2998 RMK AO2 SLP147 T02220111 10256 20222 53003=
200805042252 METAR KATL 042252Z 34010KT 10SM SCT060 BKN080 23/12 A2997 RMK AO2 SLP144 TCU DSNT NE-E T02330122=
200805042152 METAR KATL 042152Z 22008KT 10SM SCT060 BKN085 24/11 A2997 RMK AO2 SLP142 MDT CU ALQDS T02440111=
200805042052 METAR KATL 042052Z COR 24009G16KT 10SM SCT060TCU BKN085 25/11 A2997 RMK AO2 SLP143 TCU OHD-NW AND DSNT SW T02500106 57016=
200805041952 METAR KATL 041952Z 27009G17KT 10SM SCT055 BKN075 26/12 A2999 RMK AO2 SLP148 TCU DSNT NW T02560117=
200805041852 METAR KATL 041852Z 24009KT 10SM SCT050TCU SCT065 BKN075 24/12 A3000 RMK AO2 SLP154 TCU OHD AND DSNT NE AND NW T02390117=
200805041752 METAR KATL 041752Z 24009KT 10SM SCT040TCU BKN050 BKN065 24/13 A3002 RMK AO2 SLP159 TCU OHD-ALQDS-DSNT T02390133 10244 20156 58009=
200805041652 METAR KATL 041652Z 24008KT 10SM SCT029TCU 23/15 A3004 RMK AO2 SLP167 TCU ALQDS-DSNT T02280150=
200805041552 METAR KATL 041552Z 22007KT 10SM SCT025 22/16 A3005 RMK AO2 SLP169 T02170156=
200805041452 METAR KATL 041452Z 00000KT 10SM FEW020 20/14 A3005 RMK AO2 SLP170 T02000144 51005=
200805041352 METAR KATL 041352Z VRB03KT 7SM SCT010 18/14 A3004 RMK AO2 SLP169 SCT010 V BKN T01830144=
200805041338 SPECI KATL 041338Z 00000KT 7SM BKN010 17/15 A3004 RMK AO2=
200805041338 SPECI KATL 041338Z 00000KT 7SM BKN010 17/15 A3004 RMK AO2=
200805041252 METAR KATL 041252Z 33005KT 3SM BR OVC006 16/14 A3005 RMK AO2 SFC VIS 6 SLP171 T01560144=
200805041152 METAR KATL 041152Z 33004KT 5SM BR OVC006 16/14 A3003 RMK AO2 SLP165 60000 70002 T01560139 10156 20150 53012=
200805041052 METAR KATL 041052Z 29004KT 6SM BR OVC008 16/14 A3001 RMK AO2 CIG 004V010 SLP157 T01560144=
200805041048 SPECI KATL 041048Z 31004KT 6SM BR OVC008 16/14 A3001 RMK AO2 CIG 004V010=
200805041048 SPECI KATL 041048Z 31004KT 6SM BR OVC008 16/14 A3001 RMK AO2 CIG 004V010=
200805040952 METAR KATL 040952Z 00000KT 6SM BR BKN003 OVC008 16/15 A3000 RMK AO2 SLP152 T01560150=
200805040923 SPECI KATL 040923Z 23004KT 6SM BR BKN003 OVC007 16/15 A2999 RMK AO2 CIG 001V005=
200805040923 SPECI KATL 040923Z 23004KT 6SM BR BKN003 OVC007 16/15 A2999 RMK AO2 CIG 001V005=
200805040852 METAR KATL 040852Z 24005KT 4SM BR OVC001 16/15 A2999=
200805040752 METAR KATL 040752Z 24003KT 4SM -RA BR OVC001 15/14 A2999 RMK AO2 RAB50 SLP151 P0000 T01500144=
200805040748 SPECI KATL 040748Z 23004KT 4SM BR OVC001 15/14 A2999 RMK AO2=
200805040748 SPECI KATL 040748Z 23004KT 4SM BR OVC001 15/14 A2999 RMK AO2=
200805040705 SPECI KATL 040705Z 22003KT 9SM FEW003 BKN042 BKN060 15/14 A2998 RMK AO2=
200805040705 SPECI KATL 040705Z 22003KT 9SM FEW003 BKN042 BKN060 15/14 A2998 RMK AO2=
200805040652 METAR KATL 040652Z 26003KT 9SM SCT047 BKN068 15/14 A2998 RMK AO2 SLP149 T01500139=
200805040552 METAR KATL 040552Z 20003KT 10SM FEW048 SCT120 15/14 A2999 RMK AO2 SLP152 T01500139 10194 20150 58002=
200805040452 METAR KATL 040452Z 19004KT 10SM FEW080 15/14 A3000 RMK AO2 SLP154 T01500139 402110150=
200805040352 METAR KATL 040352Z 20003KT 10SM FEW080 16/14 A2999 RMK AO2 SLP153 T01560139=
200805040252 METAR KATL 040252Z 21003KT 10SM FEW080 17/14 A3000 RMK AO2 SLP154 T01670139 51018=
200805040152 METAR KATL 040152Z 00000KT 10SM FEW080 SCT200 17/14 A2998 RMK AO2 SLP149 T01670139=
200805040052 METAR KATL 040052Z 22003KT 10SM FEW030 SCT080 SCT200 18/14 A2996 RMK AO2 SLP142 T01780139=
200805032352 METAR KATL 032352Z 24007KT 10SM FEW030 SCT080 SCT200 19/14 A2995 RMK AO2 SLP135 ACC DSNT SE 60000 T01940139 10211 20189 50002=
200805032252 METAR KATL 032252Z 22011KT 10SM SCT030 BKN200 20/14 A2995 RMK AO2 SLP135 T02000139=
200805032152 METAR KATL 032152Z 23009G17KT 10SM BKN030 BKN200 21/14 A2994 RMK AO2 SLP135 T02110144=
200805032052 METAR KATL 032052Z 21012G17KT 10SM SCT019 SCT025 BKN120 21/15 A2994 RMK AO2 SLP133 60000 T02060150 56014=
200805031952 METAR KATL 031952Z 22008KT 10SM FEW015 SCT120 OVC200 19/15 A2996 RMK AO2 RAE1858 SLP138 P0000 T01890150=
200805031852 METAR KATL 031852Z COR 15015G27KT 10SM -RA FEW020 BKN036CB BKN100 19/15 A2996 RMK AO2 PK WND 15027/1846 RAB41 SLP115 CB N-OHD-S MOV E P0000 T01890150=
200805031752 METAR KATL 031752Z 16009KT 10SM FEW015 BKN110 OVC200 19/14 A2998 RMK AO2 RAB22E31 SLP146 VIRGA VC NW P0000 60002 T01940144 10194 20167 58024=
200805031652 SPECI KATL 031652Z 22008G14KT 10SM FEW015 BKN080 OVC200 19/15 A3005 RMK AO2 RAB13E24 SLP168 CB DSNT SE P0000 T01890150=
200805031552 METAR KATL 031552Z 19011KT 8SM SCT044 OVC060 18/15 A3005 RMK AO2 TSE27RAB05E41 SLP169 CB DSNT SW-NW P0002 T01830150=
200805031527 SPECI KATL 031527Z 20007KT 7SM -RA SCT020CB BKN060 OVC075 18/14 A3006 RMK AO2 TSE27RAB05 CB OHD-ALQDS MOV E P0002=
200805031527 SPECI KATL 031527Z 20007KT 7SM -RA SCT020CB BKN060 OVC075 18/14 A3006 RMK AO2 TSE27RAB05 CB OHD-ALQDS MOV E P0002=
200805031452 METAR KATL 031452Z 28005KT 7SM TS BKN030CB BKN035 OVC070 18/13 A3005 RMK AO2 WSHFT 1407 TSB23RAB32E51 SLP171 OCNL LTGIC TS ALQDS MOV E P0000 60000 T01780133 53020=
200805031423 SPECI KATL 031423Z 28013G20KT 10SM TS SCT032CB SCT075 BKN095 18/12 A3005 RMK AO2 WSHFT 1407 TSB23 PRESRR OCNL LTGIC TS NE-OHD-SW=
200805031423 SPECI KATL 031423Z 28013G20KT 10SM TS SCT032CB SCT075 BKN095 18/12 A3005 RMK AO2 WSHFT 1407 TSB23 PRESRR OCNL LTGIC TS NE-OHD-SW=
200805031352 METAR KATL 031352Z COR 18012KT 10SM FEW050 BKN090 OVC200 18/12 A2997 RMK AO2 SLP143 CB DSNT SW-NW T01830117=
200805031252 METAR KATL 031252Z 18009KT 10SM FEW050 BKN095 OVC200 17/11 A2999 RMK AO2 SLP150 T01720111=
200805031152 METAR KATL 031152Z 18008KT 10SM FEW050 BKN100 OVC200 17/12 A3000 RMK AO2 SLP151 T01670117 10194 20161 53004=
200805031052 METAR KATL 031052Z 17009KT 10SM FEW050 BKN110 OVC200 17/12 A2999 RMK AO2 SLP149 T01670117=
200805030952 METAR KATL 030952Z 15007KT 10SM FEW050 BKN200 OVC250 16/11 A2998 RMK AO2 SLP145 T01610111=
200805030852 METAR KATL 030852Z 17006KT 10SM FEW050 BKN200 OVC250 17/11 A2998 RMK AO2 SLP144 T01720111 55007=
200805030752 METAR KATL 030752Z 15008KT 10SM FEW050 BKN200 OVC250 17/12 A2996 RMK AO2 SLP136 T01720117=
200805030652 METAR KATL 030652Z 14006KT 10SM BKN200 OVC250 18/12 A2998 RMK AO2 SLP143 T01830122=
200805030552 METAR KATL 030552Z 20008KT 10SM BKN200 OVC250 20/12 A3000 RMK AO2 SLP151 T02000122 10244 20200 57002=
200805030452 METAR KATL 030452Z 20012KT 10SM BKN200 OVC250 21/12 A3001 RMK AO2 SLP154 T02060122 402720150=
200805030352 METAR KATL 030352Z 17007KT 10SM SCT200 OVC250 21/12 A3000 RMK AO2 SLP151 T02110122=
200805030252 METAR KATL 030252Z 16008KT 10SM FEW200 BKN250 22/12 A3001 RMK AO2 SLP155 T02170122 50010=
200805030152 METAR KATL 030152Z 17006KT 10SM SCT200 OVC250 22/13 A3002 RMK AO2 SLP160 T02170128=
200805030052 METAR KATL 030052Z 19006KT 10SM BKN200 OVC250 22/12 A3000 RMK AO2 SLP154 T02220122=
200805022352 METAR KATL 022352Z 20007KT 10SM BKN200 OVC250 24/12 A2998 RMK AO2 SLP146 T02440117 10272 20244 55006=
200805022252 METAR KATL 022252Z 19014G18KT 10SM FEW065 SCT200 BKN250 26/11 A2997 RMK AO2 SLP142 T02560111=
200805022152 METAR KATL 022152Z 20015G24KT 10SM FEW065 SCT250 26/11 A2999 RMK AO2 SLP147 T02610106=
200805022052 METAR KATL 022052Z 18017G21KT 10SM FEW065 SCT250 27/11 A3000 RMK AO2 SLP151 T02670111 56018=
200805021952 METAR KATL 021952Z 17012KT 10SM FEW055 SCT250 26/12 A3001 RMK AO2 SLP155 T02610117=
200805021852 METAR KATL 021852Z 18015G21KT 10SM FEW055 SCT250 26/12 A3004 RMK AO2 SLP164 T02560117=
200805021752 METAR KATL 021752Z 17009KT 10SM SCT044 BKN250 24/13 A3005 RMK AO2 SLP170 T02440133 10250 20150 56018=
200805021652 METAR KATL 021652Z 18010G19KT 10SM FEW040 SCT250 24/13 A3006 RMK AO2 SLP174 T02390133=
200805021552 METAR KATL 021552Z 19014G19KT 10SM FEW030 SCT250 23/14 A3009 RMK AO2 SLP183 T02280139=
200805021452 METAR KATL 021452Z 20012KT 10SM SCT025 SCT250 21/14 A3011 RMK AO2 SLP188 T02060144 53007=
200805021352 METAR KATL 021352Z 18010KT 10SM FEW020 SCT250 19/14 A3010 RMK AO2 SLP187 T01890139=
200805021252 METAR KATL 021252Z 18011KT 10SM FEW250 17/12 A3009 RMK AO2 SLP182 T01670122=
200805021152 METAR KATL 021152Z 17008KT 10SM SCT250 15/12 A3008 RMK AO2 SLP181 T01500117 10189 20150 53017=
200805021052 METAR KATL 021052Z 16007KT 10SM SCT250 15/11 A3005 RMK AO2 SLP170 T01500111=
200805020952 METAR KATL 020952Z 17006KT 10SM SCT200 16/11 A3005 RMK AO2 SLP168 T01560111=
200805020852 METAR KATL 020852Z 17008KT 10SM SCT200 16/11 A3003 RMK AO2 SLP163 T01610106 56004=
200805020752 METAR KATL 020752Z 17011G17KT 10SM BKN200 OVC250 17/10 A3004 RMK AO2 SLP165 T01670100=
200805020652 METAR KATL 020652Z 16010KT 10SM BKN200 OVC250 18/09 A3004 RMK AO2 SLP165 T01780089=
200805020552 METAR KATL 020552Z 18008KT 10SM BKN200 OVC250 19/08 A3004 RMK AO2 SLP167 T01890078 10233 20189 51004=
200805020452 METAR KATL 020452Z 17009KT 10SM BKN200 OVC250 19/08 A3004 RMK AO2 SLP165 T01940078 402610122=
200805020352 METAR KATL 020352Z 18007KT 10SM BKN200 OVC250 21/08 A3004 RMK AO2 SLP164 T02060078=
200805020252 METAR KATL 020252Z 17008KT 10SM BKN200 OVC250 21/07 A3003 RMK AO2 SLP162 T02110072 53006=
200805020152 METAR KATL 020152Z 15007KT 10SM BKN200 OVC250 21/07 A3002 RMK AO2 SLP159 T02110072=
200805020052 METAR KATL 020052Z 15006KT 10SM BKN200 BKN250 22/07 A3001 RMK AO2 SLP157 T02220067=
200805012352 METAR KATL 012352Z 16006KT 10SM FEW200 OVC250 23/06 A3001 RMK AO2 SLP158 T02330056 10261 20233 58005=
200805012252 METAR KATL 012252Z 18013KT 10SM FEW200 OVC250 25/05 A3002 RMK AO2 SLP161 T02500050=
200805012152 METAR KATL 012152Z 17012G19KT 10SM FEW200 OVC250 26/05 A3002 RMK AO2 SLP160 T02560050=
200805012052 METAR KATL 012052Z 18012KT 10SM FEW200 BKN250 OVC300 26/06 A3003 RMK AO2 SLP162 T02610056 58022=
200805011952 METAR KATL 011952Z 19014G21KT 10SM FEW200 SCT250 BKN300 26/06 A3005 RMK AO2 SLP170 T02610056=
200805011852 METAR KATL 011852Z 19011G20KT 10SM FEW200 SCT250 BKN300 26/06 A3007 RMK AO2 SLP178 T02560061=
200805011752 METAR KATL 011752Z 17011KT 10SM FEW200 SCT250 BKN300 24/06 A3010 RMK AO2 SLP185 T02440056 10244 20144 58015=
200805011652 METAR KATL 011652Z 20014G22KT 10SM FEW200 SCT250 SCT300 24/05 A3012 RMK AO2 SLP193 T02390050=
200805011552 METAR KATL 011552Z 17010KT 10SM FEW200 SCT250 SCT300 22/08 A3013 RMK AO2 SLP197 T02220078=
200805011452 METAR KATL 011452Z COR 18010KT 10SM FEW200 SCT250 BKN300 21/07 A3014 RMK AO2 SLP201 T02060072 51005=
200805011352 METAR KATL 011352Z 18008KT 10SM FEW250 18/08 A3014 RMK AO2 SLP201 T01830078=
200805011252 METAR KATL 011252Z 18009KT 10SM SCT250 17/06 A3014 RMK AO2 SLP200 T01670061=
