##########################################################
# Query made at 04/19/2024 23:05:23 UTC
# Time interval: from 03/01/2008 12:00  to 03/31/2008 12:59  UTC
##########################################################

##########################################################
# KATL, Atlanta, Hartsfield - Jackson Atlanta International Airport (United States)
# WMO index: 72219. WIGOS ID: 0-20000-0-72219
# Latitude 33-38-59N. Longitude 084-25-00W. Altitude 312 m.
##########################################################

200803311252 METAR KATL 311252Z 08013KT 1/2SM R09R/5000VP6000FT -DZ BR OVC002 06/06 A3032 RMK AO2 SFC VIS 1 1/2 SLP273 P0000 T00610056=
200803311247 SPECI KATL 311247Z 08012KT 1/2SM R09R/5500VP6000FT -DZ BR OVC002 06/06 A3033 RMK AO2 SFC VIS 1 1/2 P0000=
200803311247 SPECI KATL 311247Z 08012KT 1/2SM R09R/5500VP6000FT -DZ BR OVC002 06/06 A3033 RMK AO2 SFC VIS 1 1/2 P0000=
200803311223 SPECI KATL 311223Z 08009KT 1/8SM R09R/5500VP6000FT -DZ BR OVC002 06/05 A3033 RMK AO2 SFC VIS 1 1/2 TWRINC P0000=
200803311223 SPECI KATL 311223Z 08009KT 1/8SM R09R/5500VP6000FT -DZ BR OVC002 06/05 A3033 RMK AO2 SFC VIS 1 1/2 TWRINC P0000=
200803311152 METAR KATL 311152Z 09011KT 1SM -DZ BR OVC004 06/05 A3033 RMK AO2 SFC VIS 2 SLP274 P0000 60000 T00610050 10072 20061 53001=
200803311111 SPECI KATL 311111Z 09011KT 1SM -DZ BR OVC004 06/05 A3033 RMK AO2 SFC VIS 5 TWRINC P0000=
200803311111 SPECI KATL 311111Z 09011KT 1SM -DZ BR OVC004 06/05 A3033 RMK AO2 SFC VIS 5 TWRINC P0000=
200803311052 METAR KATL 311052Z 09010KT 4SM -DZ BR OVC004 06/05 A3032 RMK AO2 SLP273 P0000 T00610050=
200803311017 SPECI KATL 311017Z 09009KT 4SM -DZ BR OVC004 06/05 A3032 RMK AO2 P0000=
200803311017 SPECI KATL 311017Z 09009KT 4SM -DZ BR OVC004 06/05 A3032 RMK AO2 P0000=
200803310952 METAR KATL 310952Z 09011KT 4SM -DZ BR OVC005 06/05 A3032 RMK AO2 DZB09 SLP271 P0000 T00610050=
200803310852 METAR KATL 310852Z 09013KT 6SM BR OVC007 06/05 A3032 RMK AO2 SLP272 T00610050 56007=
200803310752 METAR KATL 310752Z 08013KT 10SM OVC009 07/04 A3033 RMK AO2 SLP276 T00670044=
200803310748 SPECI KATL 310748Z 08014KT 10SM OVC009 07/04 A3033 RMK AO2 CIG 008V011=
200803310748 SPECI KATL 310748Z 08014KT 10SM OVC009 07/04 A3033 RMK AO2 CIG 008V011=
200803310652 METAR KATL 310652Z 09009KT 10SM OVC013 07/04 A3034 RMK AO2 SLP279 T00670039=
200803310650 SPECI KATL 310650Z 08011KT 10SM OVC013 07/04 A3034 RMK AO2=
200803310650 SPECI KATL 310650Z 08011KT 10SM OVC013 07/04 A3034 RMK AO2=
200803310552 METAR KATL 310552Z 08011KT 10SM OVC015 07/04 A3036 RMK AO2 SLP284 60000 T00720039 10078 20072 58007=
200803310452 METAR KATL 310452Z 09011KT 10SM OVC015 08/04 A3036 RMK AO2 SLP287 T00780039 401000061=
200803310352 METAR KATL 310352Z 09015KT 10SM OVC015 08/04 A3037 RMK AO2 SLP289 T00780044=
200803310252 METAR KATL 310252Z 10013KT 10SM FEW014 OVC017 08/04 A3038 RMK AO2 SLP291 60000 T00780044 51008=
200803310152 METAR KATL 310152Z 09013KT 9SM FEW014 OVC019 08/04 A3037 RMK AO2 SLP290 T00780044=
200803310052 METAR KATL 310052Z 10010KT 8SM OVC011 08/05 A3035 RMK AO2 RAB2359E08 SLP283 P0000 T00780050=
200803302352 METAR KATL 302352Z 08012KT 8SM OVC012 08/05 A3034 RMK AO2 SLP279 60000 T00780050 10083 20072 53002=
200803302252 SPECI KATL 302252Z 09014KT 7SM OVC012 08/05 A3034 RMK AO2 SLP279 T00780050=
200803302152 METAR KATL 302152Z 08013KT 7SM OVC012 08/06 A3033 RMK AO2 RAB04E06 SLP276 P0000 T00830056=
200803302052 METAR KATL 302052Z 08011KT 8SM OVC012 08/05 A3034 RMK AO2 SLP277 T00780050 56006=
200803301952 METAR KATL 301952Z 09012KT 7SM OVC012 08/05 A3035 RMK AO2 SLP280 T00780050=
200803301852 METAR KATL 301852Z 10013G19KT 7SM OVC010 08/05 A3034 RMK AO2 SLP277 T00830050=
200803301817 SPECI KATL 301817Z 08010KT 6SM HZ OVC010 08/05 A3036 RMK AO2=
200803301817 SPECI KATL 301817Z 08010KT 6SM HZ OVC010 08/05 A3036 RMK AO2=
200803301752 METAR KATL 301752Z 08015G18KT 6SM BR OVC008 07/05 A3036 RMK AO2 SLP283 T00720050 10072 20061 58001=
200803301652 METAR KATL 301652Z 09012KT 2 1/2SM BR OVC008 07/05 A3039 RMK AO2 SFC VIS 5 SLP293 T00670050=
200803301552 METAR KATL 301552Z 09014KT 2 1/2SM BR OVC006 06/04 A3039 RMK AO2 SFC VIS 4 SLP293 T00610044=
200803301529 SPECI KATL 301529Z 07016KT 2 1/2SM BR OVC006 06/04 A3038 RMK AO2 SFC VIS 4=
200803301529 SPECI KATL 301529Z 07016KT 2 1/2SM BR OVC006 06/04 A3038 RMK AO2 SFC VIS 4=
200803301521 SPECI KATL 301521Z 07013KT 1 1/2SM BR OVC006 06/04 A3037 RMK AO2 SFC VIS 4=
200803301521 SPECI KATL 301521Z 07013KT 1 1/2SM BR OVC006 06/04 A3037 RMK AO2 SFC VIS 4=
200803301452 METAR KATL 301452Z 08014KT 1 1/2SM BR OVC004 06/04 A3036 RMK AO2 SFC VIS 3 SLP284 T00610044 50009=
200803301428 SPECI KATL 301428Z 10010KT 1 1/2SM BR OVC004 06/05 A3035 RMK AO2 SFC VIS 3=
200803301428 SPECI KATL 301428Z 10010KT 1 1/2SM BR OVC004 06/05 A3035 RMK AO2 SFC VIS 3=
200803301420 SPECI KATL 301420Z 10010G19KT 2 1/2SM BR OVC004 06/05 A3035 RMK AO2 SFC VIS 4=
200803301420 SPECI KATL 301420Z 10010G19KT 2 1/2SM BR OVC004 06/05 A3035 RMK AO2 SFC VIS 4=
200803301352 METAR KATL 301352Z 09014KT 2 1/2SM BR OVC006 06/04 A3036 RMK AO2 SFC VIS 4 SLP284 T00610044=
200803301307 SPECI KATL 301307Z 09012G21KT 2 1/2SM BR OVC006 06/04 A3036 RMK AO2 SFC VIS 5=
200803301307 SPECI KATL 301307Z 09012G21KT 2 1/2SM BR OVC006 06/04 A3036 RMK AO2 SFC VIS 5=
200803301252 METAR KATL 301252Z 09013KT 6SM BR OVC005 06/04 A3036 RMK AO2 SLP282 T00610044=
200803301152 METAR KATL 301152Z 09010KT 6SM BR OVC005 07/06 A3033 RMK AO2 SLP273 60005 70129 T00670056 10094 20067 53014 $=
200803301052 METAR KATL 301052Z 08018KT 6SM BR BKN005 OVC100 07/06 A3032 RMK AO2 SLP268 T00670056 $=
200803300952 METAR KATL 300952Z 09017KT 6SM BR OVC005 07/06 A3029 RMK AO2 RAE25 SLP260 P0002 T00670056 $=
200803300852 METAR KATL 300852Z 09011KT 5SM RA BR BKN005 OVC014 07/07 A3029 RMK AO2 CIG 004V009 SLP259 P0002 60003 T00720067 50002 $=
200803300752 METAR KATL 300752Z 09010KT 6SM -RA BR BKN005 OVC012 08/07 A3030 RMK AO2 RAB0655 SLP260 P0001 T00830072 $=
200803300652 METAR KATL 300652Z 10015G19KT 6SM BR BKN007 OVC120 08/07 A3029 RMK AO2 RAE21 SLP255 P0000 T00830072 $=
200803300552 METAR KATL 300552Z 08013KT 6SM -RA BR BKN007 OVC100 09/08 A3028 RMK AO2 SLP252 P0002 60079 T00940083 10144 20094 53012 $=
200803300452 METAR KATL 300452Z 08013G19KT 6SM -RA BR BKN007 OVC012 10/09 A3027 RMK AO2 SLP248 LTG DSNT SE CB DSNT SE P0013 T01000089 402440100 $=
200803300352 METAR KATL 300352Z 08016KT 5SM +RA BR BKN005 OVC010 11/09 A3026 RMK AO2 TSE07 SLP243 TS DSIPTD LTG DSNT SE-S CB DSNT SE-S P0015 T01060094 $=
200803300309 SPECI KATL 300309Z 07015KT 5SM -RA BR OVC005 12/11 A3025 RMK AO2 TSE07 CIG 003V009 TS DSIPTD LTG DSNT SE-S CB DSNT SE-S P0003 $=
200803300309 SPECI KATL 300309Z 07015KT 5SM -RA BR OVC005 12/11 A3025 RMK AO2 TSE07 CIG 003V009 TS DSIPTD LTG DSNT SE-S CB DSNT SE-S P0003 $=
200803300252 METAR KATL 300252Z 08014G22KT 4SM TSRA BR BKN005 OVC013CB 12/11 A3025 RMK AO2 SLP240 OCNL LTGIC TS ALQDS MOV NE P0031 60049 T01170106 51025 $=
200803300234 SPECI KATL 300234Z 09015KT 3SM TSRA BR BKN004 OVC015CB 12/11 A3024 RMK AO2 OCNL LTGICCA TS NE AND SE MOV NE P0023 $=
200803300234 SPECI KATL 300234Z 09015KT 3SM TSRA BR BKN004 OVC015CB 12/11 A3024 RMK AO2 OCNL LTGICCA TS NE AND SE MOV NE P0023 $=
200803300218 SPECI KATL 300218Z 10015KT 2 1/2SM +TSRA BR SCT009 OVC020CB 12/11 A3024 RMK AO2 OCNL LTGICCA TS SE MOV NE P0014 $=
200803300218 SPECI KATL 300218Z 10015KT 2 1/2SM +TSRA BR SCT009 OVC020CB 12/11 A3024 RMK AO2 OCNL LTGICCA TS SE MOV NE P0014 $=
200803300201 SPECI KATL 300201Z 10015G21KT 4SM TSRA BR FEW007 SCT011CB OVC023 12/11 A3025 RMK AO2 OCNL LTGIC TS VC SW MOV NE P0003 $=
200803300201 SPECI KATL 300201Z 10015G21KT 4SM TSRA BR FEW007 SCT011CB OVC023 12/11 A3025 RMK AO2 OCNL LTGIC TS VC SW MOV NE P0003 $=
200803300154 SPECI KATL 300154Z 09017KT 3SM TSRA BR FEW007 BKN011CB OVC019 12/12 A3024 RMK AO2 P0001 $=
200803300154 SPECI KATL 300154Z 09017KT 3SM TSRA BR FEW007 BKN011CB OVC019 12/12 A3024 RMK AO2 P0001 $=
200803300152 METAR KATL 300152Z 09016KT 2 1/2SM +TSRA BR FEW007 BKN011CB OVC018 13/12 A3024 RMK AO2 TSB11RAB07 SLP238 FRQ LTGICCG SE-S AND DSNT SW TS OHD-E-S MOV NE P0018 T01280117 $=
200803300112 SPECI KATL 300112Z 04012KT 6SM -TSRA BR OVC006CB 14/12 A3023 RMK AO2 TSB11RAB07 OCNL LTGIC TS VC S MOV NE P0000 $=
200803300112 SPECI KATL 300112Z 04012KT 6SM -TSRA BR OVC006CB 14/12 A3023 RMK AO2 TSB11RAB07 OCNL LTGIC TS VC S MOV NE P0000 $=
200803300052 METAR KATL 300052Z 06012KT 6SM BR OVC008 14/13 A3021 RMK AO2 RAE19 CIG 006V012 SLP229 LTG DSNT NE CB DSNT NE P0000 T01390128 $=
200803292352 METAR KATL 292352Z 07014KT 5SM -RA BR BKN006 OVC100 14/13 A3017 RMK AO2 TSE07 SLP216 TS MOV NE P0002 60045 T01440133 10228 20144 53007 $=
200803292323 SPECI KATL 292323Z 07014KT 4SM -RA BR BKN007 OVC070 14/13 A3016 RMK AO2 TSE07 TS MOV NE P0002 $=
200803292323 SPECI KATL 292323Z 07014KT 4SM -RA BR BKN007 OVC070 14/13 A3016 RMK AO2 TSE07 TS MOV NE P0002 $=
200803292308 SPECI KATL 292308Z 07013G20KT 7SM -RA FEW009 SCT020 OVC070 15/13 A3017 RMK AO2 TSE07 TS MOV NE P0001 $=
200803292308 SPECI KATL 292308Z 07013G20KT 7SM -RA FEW009 SCT020 OVC070 15/13 A3017 RMK AO2 TSE07 TS MOV NE P0001 $=
200803292300 SPECI KATL 292300Z 05015KT 6SM -TSRA BR FEW009 SCT020CB OVC070 15/13 A3016 RMK AO2 OCNL LTGIC TS VC NE MOV NE P0001 $=
200803292300 SPECI KATL 292300Z 05015KT 6SM -TSRA BR FEW009 SCT020CB OVC070 15/13 A3016 RMK AO2 OCNL LTGIC TS VC NE MOV NE P0001 $=
200803292252 METAR KATL 292252Z 06013KT 3SM -TSRA BR FEW006 BKN022CB OVC070 15/13 A3016 RMK AO2 RAB2157 SLP212 OCNL LTGIC TS NE-SE MOV NE P0030 T01500133 $=
200803292249 SPECI KATL 292249Z 06013KT 2SM TSRA BR FEW006 BKN024CB OVC070 15/13 A3016 RMK AO2 SFC VIS 2 1/2 RAB2157 OCNL LTGIC TS NE-SE MOV NE P0028 $=
200803292249 SPECI KATL 292249Z 06013KT 2SM TSRA BR FEW006 BKN024CB OVC070 15/13 A3016 RMK AO2 SFC VIS 2 1/2 RAB2157 OCNL LTGIC TS NE-SE MOV NE P0028 $=
200803292244 SPECI KATL 292244Z 07015KT 2SM TSRA BR BKN012CB OVC075 15/13 A3016 RMK AO2 SFC VIS 2 1/2 RAB2157 OCNL LTGIC TS OHD-NE-SE MOV NE P0026 $=
200803292244 SPECI KATL 292244Z 07015KT 2SM TSRA BR BKN012CB OVC075 15/13 A3016 RMK AO2 SFC VIS 2 1/2 RAB2157 OCNL LTGIC TS OHD-NE-SE MOV NE P0026 $=
200803292231 SPECI KATL 292231Z 06016G20KT 1 1/2SM R09R/4500VP6000FT +TSRA BR OVC012CB 15/14 A3016 RMK AO2 RAB2157 FRQ LTGICCG TS ALQDS MOV NE P0015=
200803292231 SPECI KATL 292231Z 06016G20KT 1 1/2SM R09R/4500VP6000FT +TSRA BR OVC012CB 15/14 A3016 RMK AO2 RAB2157 FRQ LTGICCG TS ALQDS MOV NE P0015=
200803292222 SPECI KATL 292222Z 06009KT 5SM -TSRA BR OVC010CB 16/13 A3018 RMK AO2 RAB2157 OCNL LTGICCG TS OHD-S-W-N MOV NE P0000=
200803292222 SPECI KATL 292222Z 06009KT 5SM -TSRA BR OVC010CB 16/13 A3018 RMK AO2 RAB2157 OCNL LTGICCG TS OHD-S-W-N MOV NE P0000=
200803292205 SPECI KATL 292205Z 34010KT 7SM -TSRA BKN009CB BKN060 OVC085 16/14 A3017 RMK AO2 RAB2157 PRESRR OCNL LTGIC TS OHD-SW-NW MOV NE P0000=
200803292205 SPECI KATL 292205Z 34010KT 7SM -TSRA BKN009CB BKN060 OVC085 16/14 A3017 RMK AO2 RAB2157 PRESRR OCNL LTGIC TS OHD-SW-NW MOV NE P0000=
200803292152 METAR KATL 292152Z 05009KT 7SM TS FEW009CB BKN060 OVC085 16/14 A3015 RMK AO2 TSB34RAB12E28 SLP207 OCNL LTGIC TS SW-NW MOV NE P0000 T01610139=
200803292149 SPECI KATL 292149Z 06010KT 7SM TS FEW009CB BKN060 OVC080 16/14 A3015 RMK AO2 TSB34RAB12E28 OCNL LTGIC TS SW-NW MOV NE P0000=
200803292149 SPECI KATL 292149Z 06010KT 7SM TS FEW009CB BKN060 OVC080 16/14 A3015 RMK AO2 TSB34RAB12E28 OCNL LTGIC TS SW-NW MOV NE P0000=
200803292135 SPECI KATL 292135Z 07014KT 7SM TS FEW014CB OVC065 16/14 A3014 RMK AO2 TSB34RAB12E28 OCNL LTGIC TS SW-NW MOV NE P0000=
200803292135 SPECI KATL 292135Z 07014KT 7SM TS FEW014CB OVC065 16/14 A3014 RMK AO2 TSB34RAB12E28 OCNL LTGIC TS SW-NW MOV NE P0000=
200803292052 METAR KATL 292052Z 09011KT 8SM SCT012 SCT045 BKN085 16/14 A3015 RMK AO2 TSE42RAE42 SLP207 CB DSNT SE AND SW-NW P0013 60013 T01610139 51005=
200803292042 SPECI KATL 292042Z 06007KT 8SM FEW010 SCT045 BKN085 17/14 A3014 RMK AO2 TSE42RAE42 CB DSNT SE AND SW-NW P0013=
200803292042 SPECI KATL 292042Z 06007KT 8SM FEW010 SCT045 BKN085 17/14 A3014 RMK AO2 TSE42RAE42 CB DSNT SE AND SW-NW P0013=
200803292005 SPECI KATL 292005Z 07013KT 4SM R09R/3500VP6000FT +TSRA BR BKN021CB BKN060 16/14 A3014 RMK AO2 OCNL LTGICCG TS ALQDS MOV E P0012=
200803292005 SPECI KATL 292005Z 07013KT 4SM R09R/3500VP6000FT +TSRA BR BKN021CB BKN060 16/14 A3014 RMK AO2 OCNL LTGICCG TS ALQDS MOV E P0012=
200803291952 METAR KATL 291952Z COR 07012KT 9SM -TSRA FEW015 SCT050CB BKN060 17/13 A3014 RMK AO2 SLP204 OCNL LTGICCG TS VC S-SW-W MOV E P0000 T01670133=
200803291852 METAR KATL 291852Z 03016G22KT 8SM -TSRA FEW020 BKN045CB BKN070 18/12 A3016 RMK AO2 PK WND 04027/1821 RAE28B47 SLP209 OCNL LTGICCG TS ALQDS MOV SE P0000 T01780122=
200803291752 METAR KATL 291752Z 02008KT 8SM -TSRA BKN041CB BKN049 23/14 A3013 RMK AO2 TSB39RAB20 SLP198 OCNL LTGICCG TS ALQDS MOV SE P0000 60000 T02330139 10244 20139 58006=
200803291739 SPECI KATL 291739Z VRB03KT 7SM -TSRA BKN043CB BKN055TCU 23/14 A3013 RMK AO2 TSB39RAB20 OCNL LTGIC TS NE-OHD-NW MOV SE P0000=
200803291739 SPECI KATL 291739Z VRB03KT 7SM -TSRA BKN043CB BKN055TCU 23/14 A3013 RMK AO2 TSB39RAB20 OCNL LTGIC TS NE-OHD-NW MOV SE P0000=
200803291652 METAR KATL 291652Z 29007KT 9SM SCT039CB BKN070TCU BKN150 23/14 A3015 RMK AO2 SLP202 CB VC NE AND NW MOV SE TCU ALQDS T02330144=
200803291552 METAR KATL 291552Z 26008KT 9SM FEW030 SCT070 BKN150 BKN200 22/14 A3016 RMK AO2 SLP208 T02220144=
200803291452 METAR KATL 291452Z 29006KT 8SM FEW025 SCT150 SCT200 BKN250 21/15 A3015 RMK AO2 SLP204 T02110150 51007=
200803291352 METAR KATL 291352Z 22005KT 8SM FEW015 SCT100 SCT180 BKN250 19/14 A3014 RMK AO2 SLP203 T01890144=
200803291252 METAR KATL 291252Z 17004KT 6SM BR SCT070 SCT090 16/13 A3014 RMK AO2 SLP202 T01560133=
200803291152 METAR KATL 291152Z 00000KT 6SM BR SCT150 BKN250 13/12 A3013 RMK AO2 SLP200 T01330122 10161 20133 53016=
200803291052 METAR KATL 291052Z 00000KT 7SM SCT100 BKN250 14/13 A3011 RMK AO2 SLP192 T01440128=
200803290952 METAR KATL 290952Z 00000KT 8SM SCT050 BKN070 16/13 A3010 RMK AO2 SLP187 T01560133=
200803290852 METAR KATL 290852Z 22003KT 7SM BKN060 14/13 A3008 RMK AO2 SLP182 T01440128 55001=
200803290752 METAR KATL 290752Z 22005KT 8SM SCT070 BKN250 15/13 A3008 RMK AO2 SLP182 T01500128=
200803290652 METAR KATL 290652Z 22004KT 8SM FEW150 SCT250 15/13 A3008 RMK AO2 SLP182 T01500128=
200803290552 METAR KATL 290552Z 24003KT 9SM FEW080 SCT250 16/13 A3008 RMK AO2 SLP183 T01610133 10200 20156 50002=
200803290452 METAR KATL 290452Z 00000KT 10SM FEW080 17/13 A3009 RMK AO2 SLP184 T01670133 402170128=
200803290352 METAR KATL 290352Z 23003KT 10SM BKN080 BKN250 17/13 A3009 RMK AO2 SLP185 T01670133=
200803290252 METAR KATL 290252Z 23003KT 10SM FEW080 BKN250 17/13 A3008 RMK AO2 SLP183 T01720133 51010=
200803290152 METAR KATL 290152Z 00000KT 10SM FEW080 18/13 A3007 RMK AO2 SLP181 T01780133=
200803290052 METAR KATL 290052Z 00000KT 10SM FEW038 SCT080 SCT250 19/13 A3006 RMK AO2 SLP175 T01890128=
200803282352 METAR KATL 282352Z 00000KT 10SM FEW038 SCT075 SCT250 20/13 A3005 RMK AO2 SLP172 T02000128 10217 20200 53004=
200803282252 METAR KATL 282252Z 26003KT 10SM SCT038 SCT075 BKN250 21/13 A3004 RMK AO2 SLP168 T02110128=
200803282152 METAR KATL 282152Z 27009KT 10SM FEW050 BKN080 OVC250 21/13 A3004 RMK AO2 SLP167 T02110128=
200803282052 METAR KATL 282052Z 28009KT 10SM FEW040 BKN050 OVC060 21/13 A3004 RMK AO2 SLP167 T02060128 56014=
200803281952 METAR KATL 281952Z COR 25012KT 10SM FEW035 SCT050 BKN060 BKN180 21/13 A3004 RMK AO2 SLP168 T02060128=
200803281852 METAR KATL 281852Z 26012G18KT 220V290 9SM SCT032 BKN180 OVC280 20/13 A3006 RMK AO2 SLP174 BINOVC NE T02000128=
200803281830 SPECI KATL 281830Z 25009KT 9SM BKN030 BKN035 BKN280 21/13 A3006 RMK AO2=
200803281830 SPECI KATL 281830Z 25009KT 9SM BKN030 BKN035 BKN280 21/13 A3006 RMK AO2=
200803281752 METAR KATL 281752Z 25011KT 9SM BKN024 BKN030 BKN280 19/13 A3008 RMK AO2 SLP181 T01940128 10200 20133 58008 $=
200803281652 METAR KATL 281652Z COR 25011G16KT 9SM BKN022 BKN180 BKN280 19/13 A3010 RMK AO2 SLP188 T01890128=
200803281609 SPECI KATL 281609Z 25007G14KT 8SM BKN016 OVC022 17/13 A3011 RMK AO2=
200803281609 SPECI KATL 281609Z 25007G14KT 8SM BKN016 OVC022 17/13 A3011 RMK AO2=
200803281552 METAR KATL 281552Z 23007KT 8SM OVC014 17/13 A3012 RMK AO2 SLP195 BINOVC T01670128=
200803281452 METAR KATL 281452Z 24011KT 8SM OVC012 16/13 A3010 RMK AO2 SLP191 T01610128 53014=
200803281352 METAR KATL 281352Z 23010KT 7SM BKN010 BKN050 BKN250 14/12 A3008 RMK AO2 SLP181 BKN010 V SCT T01440122=
200803281255 SPECI KATL 281255Z 23006KT 5SM BR FEW007 SCT022 SCT046 SCT200 BKN250 14/12 A3008 RMK AO2=
200803281255 SPECI KATL 281255Z 23006KT 5SM BR FEW007 SCT022 SCT046 SCT200 BKN250 14/12 A3008 RMK AO2=
200803281252 METAR KATL 281252Z 22007KT 5SM BR FEW024 SCT046 SCT200 SCT250 13/12 A3008 RMK AO2 SLP182 T01330117=
200803281241 SPECI KATL 281241Z 23006KT 7SM FEW025 SCT046 SCT200 SCT250 13/12 A3007 RMK AO2=
200803281241 SPECI KATL 281241Z 23006KT 7SM FEW025 SCT046 SCT200 SCT250 13/12 A3007 RMK AO2=
200803281152 METAR KATL 281152Z 24006KT 10SM FEW016 BKN026 BKN200 BKN250 13/12 A3006 RMK AO2 SLP176 T01330117 10156 20128 53021=
200803281052 METAR KATL 281052Z 28004KT 10SM FEW010 BKN022 BKN150 BKN250 13/11 A3004 RMK AO2 SLP167 T01280106=
200803281032 SPECI KATL 281032Z 26004KT 10SM BKN022 BKN150 BKN250 13/11 A3003 RMK AO2=
200803281032 SPECI KATL 281032Z 26004KT 10SM BKN022 BKN150 BKN250 13/11 A3003 RMK AO2=
200803280952 METAR KATL 280952Z COR 24005KT 10SM FEW022 SCT150 SCT250 13/11 A3002 RMK AO2 SLP160 T01280106=
200803280852 METAR KATL 280852Z 21006KT 10SM FEW150 SCT250 13/11 A3000 RMK AO2 SLP152 T01330106 53001=
200803280752 METAR KATL 280752Z 22007KT 10SM FEW150 SCT250 14/11 A2999 RMK AO2 SLP151 T01390106=
200803280652 METAR KATL 280652Z 22006KT 10SM FEW150 15/09 A2999 RMK AO2 SLP151 T01500094=
200803280552 METAR KATL 280552Z 22009KT 10SM FEW150 16/09 A2999 RMK AO2 SLP151 T01560089 10200 20156 55005=
200803280452 METAR KATL 280452Z 21011KT 10SM BKN150 16/08 A2999 RMK AO2 SLP151 T01610078 402280078=
200803280352 METAR KATL 280352Z 20009KT 10SM BKN150 16/07 A3000 RMK AO2 SLP154 T01610072=
200803280252 METAR KATL 280252Z 20007KT 10SM FEW150 17/07 A3001 RMK AO2 SLP160 T01670072 50003=
200803280152 METAR KATL 280152Z 19008KT 10SM SCT150 18/08 A3002 RMK AO2 SLP162 T01780083=
200803280052 METAR KATL 280052Z 19011KT 10SM CLR 19/09 A3000 RMK AO2 SLP158 T01890089=
200803272352 METAR KATL 272352Z 20010KT 10SM FEW200 20/08 A3000 RMK AO2 SLP157 T02000083 10228 20200 56004=
200803272252 METAR KATL 272252Z 20011G20KT 10SM FEW060 22/08 A3000 RMK AO2 SLP157 T02170078=
200803272152 METAR KATL 272152Z 23009G19KT 10SM FEW060 22/07 A3001 RMK AO2 SLP158 T02220072=
200803272052 METAR KATL 272052Z 24007G16KT 10SM FEW060 SCT250 SCT280 23/08 A3001 RMK AO2 SLP160 T02280078 56023=
200803271952 METAR KATL 271952Z 22007G20KT 10SM FEW060 SCT250 SCT280 22/07 A3003 RMK AO2 SLP166 T02220072=
200803271852 METAR KATL 271852Z 17013G17KT 10SM FEW065 SCT200 SCT250 22/07 A3006 RMK AO2 SLP176 T02220067=
200803271752 METAR KATL 271752Z 23011G18KT 10SM FEW065 SCT250 SCT280 21/05 A3008 RMK AO2 SLP184 T02060050 10206 20083 58017=
200803271652 METAR KATL 271652Z 24009KT 10SM FEW060 SCT250 19/06 A3011 RMK AO2 SLP191 T01940056=
200803271552 METAR KATL 271552Z 23012KT 10SM FEW065 SCT250 SCT280 18/06 A3012 RMK AO2 SLP199 T01780061=
200803271452 METAR KATL 271452Z 24010KT 9SM FEW200 SCT250 BKN280 14/08 A3013 RMK AO2 SLP202 T01440083 57005=
200803271352 METAR KATL 271352Z 24007KT 9SM FEW200 BKN250 BKN280 11/07 A3014 RMK AO2 SLP206 T01110072=
200803271252 METAR KATL 271252Z 22006KT 10SM BKN200 BKN250 10/05 A3014 RMK AO2 SLP207 T01000050=
200803271152 METAR KATL 271152Z 23004KT 10SM FEW150 BKN250 08/03 A3015 RMK AO2 SLP208 T00830028 10117 20078 58002=
200803271052 METAR KATL 271052Z 19003KT 10SM FEW150 SCT250 08/02 A3015 RMK AO2 SLP210 T00830022=
200803270952 METAR KATL 270952Z 22003KT 10SM FEW150 SCT250 09/02 A3016 RMK AO2 SLP210 T00890017=
200803270852 METAR KATL 270852Z 25005KT 10SM FEW250 10/01 A3016 RMK AO2 SLP210 T01000011 55004=
200803270752 METAR KATL 270752Z 22008KT 10SM FEW150 SCT250 11/00 A3015 RMK AO2 SLP208 T01060000=
200803270652 METAR KATL 270652Z 20006KT 10SM FEW070 SCT150 SCT250 10/01 A3015 RMK AO2 SLP209 T01000011=
200803270552 METAR KATL 270552Z 21007KT 10SM FEW070 SCT250 12/01 A3017 RMK AO2 SLP214 T01170006 10178 20111 58013=
200803270452 METAR KATL 270452Z 20007KT 10SM CLR 12/01 A3018 RMK AO2 SLP218 T01220006 402060039=
200803270352 METAR KATL 270352Z 21006KT 10SM CLR 12/01 A3020 RMK AO2 SLP225 T01220011=
200803270252 METAR KATL 270252Z 21004KT 10SM CLR 14/01 A3021 RMK AO2 SLP228 T01390006 53007=
200803270152 METAR KATL 270152Z 21004KT 10SM FEW070 14/02 A3020 RMK AO2 SLP227 T01440017=
200803270052 METAR KATL 270052Z 22004KT 10SM FEW070 16/02 A3019 RMK AO2 SLP225 T01610022=
200803262352 METAR KATL 262352Z 23004KT 10SM FEW070 18/01 A3019 RMK AO2 SLP223 T01780006 10206 20178 56004=
200803262252 METAR KATL 262252Z 23008KT 10SM FEW250 19/01 A3019 RMK AO2 SLP223 T01940006=
200803262152 METAR KATL 262152Z 20010KT 10SM SCT250 20/00 A3019 RMK AO2 SLP221 T02000000=
200803262052 METAR KATL 262052Z VRB04G14KT 10SM SCT250 20/M01 A3020 RMK AO2 SLP226 T02001011 56032=
200803261952 METAR KATL 261952Z 24007KT 10SM BKN250 20/M01 A3023 RMK AO2 SLP235 T02001006=
200803261852 METAR KATL 261852Z 00000KT 10SM BKN250 19/M03 A3027 RMK AO2 SLP249 T01941028=
200803261752 METAR KATL 261752Z VRB03KT 10SM BKN250 18/M04 A3030 RMK AO2 SLP260 T01781039 10183 20039 58020=
200803261652 METAR KATL 261652Z 26005KT 10SM SCT250 17/M04 A3032 RMK AO2 SLP269 T01721039=
200803261552 METAR KATL 261552Z 22011KT 10SM FEW250 16/M08 A3035 RMK AO2 SLP279 T01561078=
200803261452 METAR KATL 261452Z 24007KT 10SM FEW250 13/M03 A3036 RMK AO2 SLP282 T01331033 51003=
200803261352 METAR KATL 261352Z 27006KT 10SM FEW250 11/M01 A3036 RMK AO2 SLP281 T01111006=
200803261252 METAR KATL 261252Z 00000KT 10SM FEW100 SCT250 06/M02 A3036 RMK AO2 SLP284 T00611017=
200803261152 METAR KATL 261152Z 00000KT 10SM FEW150 SCT250 04/M03 A3035 RMK AO2 SLP280 T00391028 10067 20039 53012=
200803261052 METAR KATL 261052Z 00000KT 10SM CLR 04/M04 A3033 RMK AO2 SLP272 T00441039=
200803260952 METAR KATL 260952Z 24004KT 10SM CLR 05/M04 A3032 RMK AO2 SLP269 T00501044=
200803260852 METAR KATL 260852Z 25003KT 10SM CLR 06/M05 A3031 RMK AO2 SLP267 T00561050 55004=
200803260752 METAR KATL 260752Z 21004KT 10SM CLR 06/M04 A3030 RMK AO2 SLP264 T00561039=
200803260652 METAR KATL 260652Z 22004KT 10SM CLR 06/M04 A3032 RMK AO2 SLP269 T00561039=
200803260552 METAR KATL 260552Z 21005KT 8SM CLR 06/M03 A3032 RMK AO2 SLP272 T00611033 10122 20061 55002=
200803260452 METAR KATL 260452Z 21005KT 10SM CLR 07/M04 A3032 RMK AO2 SLP270 T00671039 401441011=
200803260352 METAR KATL 260352Z 20004KT 10SM CLR 08/M05 A3032 RMK AO2 SLP272 T00781050=
200803260252 METAR KATL 260252Z 22003KT 10SM CLR 09/M04 A3033 RMK AO2 SLP275 T00891039 53011=
200803260152 METAR KATL 260152Z 23003KT 10SM CLR 11/M06 A3032 RMK AO2 SLP272 T01061061=
200803260052 METAR KATL 260052Z 20004KT 10SM CLR 11/M04 A3030 RMK AO2 SLP266 T01061039=
200803252352 METAR KATL 252352Z 18006KT 10SM CLR 12/M06 A3030 RMK AO2 SLP264 T01221056 10144 20111 56003=
200803252252 METAR KATL 252252Z 17010KT 10SM CLR 14/M06 A3030 RMK AO2 SLP264 T01391061=
200803252152 METAR KATL 252152Z 20010G16KT 10SM CLR 14/M07 A3030 RMK AO2 SLP264 T01441067=
200803252052 METAR KATL 252052Z 24008KT 10SM FEW250 14/M09 A3030 RMK AO2 SLP267 T01391089 56027=
200803251952 METAR KATL 251952Z 21012G17KT 10SM FEW250 13/M08 A3033 RMK AO2 SLP274 T01331078=
200803251852 METAR KATL 251852Z 19007KT 150V220 10SM FEW250 12/M08 A3036 RMK AO2 SLP285 T01221083=
200803251752 METAR KATL 251752Z 19006G15KT 10SM FEW250 11/M07 A3039 RMK AO2 SLP296 T01111067 10111 21006 58013=
200803251652 METAR KATL 251652Z 17007KT 10SM FEW250 09/M06 A3041 RMK AO2 SLP302 T00941056=
200803251552 METAR KATL 251552Z 18006KT 10SM FEW250 08/M06 A3043 RMK AO2 SLP309 T00781061=
200803251452 METAR KATL 251452Z 19005KT 10SM CLR 07/M06 A3043 RMK AO2 SLP310 T00671056 51015=
200803251352 METAR KATL 251352Z VRB03KT 10SM CLR 04/M04 A3042 RMK AO2 SLP307 T00441044=
200803251252 METAR KATL 251252Z 32005KT 10SM CLR 02/M04 A3041 RMK AO2 SLP303 T00221044=
200803251152 METAR KATL 251152Z 32003KT 10SM CLR 00/M06 A3038 RMK AO2 SLP296 T00001061 10011 21011 53012=
200803251052 METAR KATL 251052Z 32004KT 10SM CLR M01/M06 A3036 RMK AO2 SLP289 T10061061=
200803250952 METAR KATL 250952Z 33003KT 10SM CLR M01/M06 A3035 RMK AO2 SLP284 T10061061=
200803250852 METAR KATL 250852Z 31006KT 10SM CLR M01/M06 A3035 RMK AO2 SLP282 T10061061 52002=
200803250752 METAR KATL 250752Z 32004KT 10SM CLR 01/M07 A3034 RMK AO2 SLP280 T00061067=
200803250552 METAR KATL 250552Z 32004KT 10SM CLR 01/M07 A3034 RMK AO2 SLP281 T00111067 10061 20011 50005=
200803250452 METAR KATL 250452Z 34006KT 10SM CLR 02/M07 A3034 RMK AO2 SLP281 T00221067 400940006=
200803250352 METAR KATL 250352Z 31004KT 10SM CLR 02/M07 A3035 RMK AO2 SLP285 T00221067=
200803250252 METAR KATL 250252Z 33008KT 10SM CLR 03/M07 A3032 RMK AO2 SLP275 T00331072 51012=
200803250152 METAR KATL 250152Z 34011KT 10SM CLR 04/M08 A3032 RMK AO2 SLP272 T00441078=
200803250052 METAR KATL 250052Z 33011G17KT 10SM CLR 05/M08 A3030 RMK AO2 SLP267 T00501083=
200803242352 METAR KATL 242352Z 34009KT 10SM FEW065 06/M08 A3029 RMK AO2 SLP263 T00611083 10094 20061 53015=
200803242252 METAR KATL 242252Z 32015G21KT 10SM FEW065 07/M08 A3027 RMK AO2 PK WND 35030/2159 SLP257 T00721083=
200803242152 METAR KATL 242152Z 32011G20KT 10SM SCT065 08/M08 A3025 RMK AO2 PK WND 35029/2142 SLP249 T00831078=
200803242052 METAR KATL 242052Z 34020G26KT 10SM BKN065 09/M07 A3024 RMK AO2 PK WND 32029/2029 SLP246 T00891072 55009=
200803241952 METAR KATL 241952Z 35018G22KT 10SM FEW055 BKN065 BKN075 08/M08 A3024 RMK AO2 PK WND 01028/1936 SLP245 T00831078=
200803241852 METAR KATL 241852Z 34022G28KT 10SM BKN065 BKN075 BKN250 07/M08 A3025 RMK AO2 PK WND 33028/1852 SLP248 VIRGA DSNT NE SE VC NW T00721078=
200803241752 METAR KATL 241752Z 32019G23KT 10SM FEW050 SCT065 SCT250 07/M06 A3027 RMK AO2 WSHFT 1713 SLP256 VIRGA DSNT NE W SHSN SHRA DSNT NE NW-N T00671056 10072 20006 58003=
200803241729 SPECI KATL 241729Z 34015KT 10SM FEW050 SCT060 BKN250 06/M06 A3028 RMK AO2 WSHFT 1713 VIRGA NE SHSN DSNT NW=
200803241729 SPECI KATL 241729Z 34015KT 10SM FEW050 SCT060 BKN250 06/M06 A3028 RMK AO2 WSHFT 1713 VIRGA NE SHSN DSNT NW=
200803241720 SPECI KATL 241720Z 32016G22KT 10SM FEW050 SCT060 BKN250 07/M07 A3028 RMK AO2 VIRGA NE SHSN DSNT NW=
200803241720 SPECI KATL 241720Z 32016G22KT 10SM FEW050 SCT060 BKN250 07/M07 A3028 RMK AO2 VIRGA NE SHSN DSNT NW=
200803241652 METAR KATL 241652Z 31015G21KT 10SM SCT050 SCT060 07/M06 A3028 RMK AO2 SLP260 SHSN DSNT NW-N T00671061=
200803241608 SPECI KATL 241608Z 32013KT 10SM SCT040 BKN050 BKN060 07/M04 A3029 RMK AO2 SHSN DSNT NW=
200803241608 SPECI KATL 241608Z 32013KT 10SM SCT040 BKN050 BKN060 07/M04 A3029 RMK AO2 SHSN DSNT NW=
200803241552 METAR KATL 241552Z 32014G20KT 10SM BKN042 BKN060 BKN250 06/M04 A3029 RMK AO2 SLP261 SHSN DSNT NE T00561044=
200803241510 SPECI KATL 241510Z 35012KT 10SM BKN039 BKN060 BKN250 06/M04 A3028 RMK AO2 SHSN DSNT N-NE=
200803241510 SPECI KATL 241510Z 35012KT 10SM BKN039 BKN060 BKN250 06/M04 A3028 RMK AO2 SHSN DSNT N-NE=
200803241458 SPECI KATL 241458Z 31011KT 10SM BKN037 BKN060 BKN250 05/M04 A3028 RMK AO2 SHSN DSNT N=
200803241458 SPECI KATL 241458Z 31011KT 10SM BKN037 BKN060 BKN250 05/M04 A3028 RMK AO2 SHSN DSNT N=
200803241452 METAR KATL 241452Z COR 31010G16KT 10SM SCT035 SCT060 SCT250 06/M03 A3028 RMK AO2 SLP259 T00611028 53013=
200803241352 METAR KATL 241352Z 35011KT 10SM FEW060 04/M03 A3026 RMK AO2 SLP253 T00441028=
200803241252 METAR KATL 241252Z 33008KT 10SM FEW060 03/M04 A3025 RMK AO2 SLP249 T00281039=
200803241152 METAR KATL 241152Z 32006KT 10SM CLR 01/M04 A3024 RMK AO2 SLP245 T00061044 10050 20006 52010=
200803241052 METAR KATL 241052Z VRB06KT 10SM FEW200 02/M05 A3023 RMK AO2 SLP240 T00171050=
200803240952 METAR KATL 240952Z 34008KT 10SM FEW200 02/M06 A3022 RMK AO2 SLP236 T00221056=
200803240852 METAR KATL 240852Z 33009KT 10SM FEW200 02/M05 A3021 RMK AO2 SLP232 T00221050 58005=
200803240752 METAR KATL 240752Z 33006KT 10SM FEW200 02/M05 A3021 RMK AO2 SLP233 T00221050=
200803240652 METAR KATL 240652Z 36008KT 10SM FEW250 04/M06 A3022 RMK AO2 SLP236 T00391056=
200803240552 METAR KATL 240552Z 35009KT 10SM FEW150 04/M06 A3022 RMK AO2 SLP237 T00441061 10117 20044 50001=
200803240452 METAR KATL 240452Z 35010KT 10SM FEW150 05/M06 A3023 RMK AO2 SLP239 T00501056 401560022=
200803240352 METAR KATL 240352Z 35013KT 10SM FEW150 06/M06 A3022 RMK AO2 SLP238 T00611056=
200803240252 METAR KATL 240252Z 34011G21KT 10SM CLR 07/M05 A3022 RMK AO2 SLP238 T00721050 51029=
200803240152 METAR KATL 240152Z 35014G19KT 10SM CLR 08/M05 A3020 RMK AO2 SLP230 T00831050=
200803240052 METAR KATL 240052Z 34015G20KT 10SM FEW120 10/M04 A3017 RMK AO2 SLP219 T01001044=
200803232352 METAR KATL 232352Z 33011G20KT 10SM FEW120 12/M07 A3013 RMK AO2 PK WND 34026/2328 SLP208 T01171067 10156 20111 53008=
200803232252 METAR KATL 232252Z 34013KT 10SM FEW120 13/M03 A3012 RMK AO2 SLP203 T01281033 $=
200803232152 METAR KATL 232152Z 35013G23KT 10SM FEW120 SCT250 14/M03 A3011 RMK AO2 SLP200 T01391033=
200803232052 METAR KATL 232052Z 31010G18KT 10SM FEW070 SCT120 SCT150 BKN250 14/M03 A3011 RMK AO2 SLP198 T01441028 56007=
200803231952 METAR KATL 231952Z 35014G21KT 10SM FEW110 SCT150 BKN250 14/M04 A3012 RMK AO2 SLP199 T01441039=
200803231852 METAR KATL 231852Z 32013G18KT 10SM FEW150 SCT250 15/M03 A3012 RMK AO2 SLP201 T01501028=
200803231752 METAR KATL 231752Z 36005KT 10SM SCT150 SCT250 14/M02 A3013 RMK AO2 SLP203 T01391017 10139 20022 58008=
200803231652 METAR KATL 231652Z 31006KT 10SM FEW045 SCT150 SCT250 12/00 A3015 RMK AO2 SLP211 T01220000=
200803231552 METAR KATL 231552Z 33008KT 10SM FEW040 SCT150 BKN250 11/00 A3017 RMK AO2 SLP218 T01060000=
200803231452 METAR KATL 231452Z 33010KT 10SM SCT150 BKN250 08/M01 A3016 RMK AO2 SLP213 T00781006 51012=
200803231352 METAR KATL 231352Z 36009KT 10SM SCT120 BKN250 06/M01 A3015 RMK AO2 SLP211 T00561011=
200803231252 METAR KATL 231252Z 33010KT 10SM BKN250 04/M01 A3015 RMK AO2 SLP209 T00391011=
200803231152 METAR KATL 231152Z 32013G20KT 10SM FEW250 03/M02 A3012 RMK AO2 SLP201 T00281017 10100 20028 53020=
200803231052 METAR KATL 231052Z 32013KT 10SM CLR 03/M01 A3010 RMK AO2 SLP192 T00281011=
200803230952 METAR KATL 230952Z 33010KT 10SM CLR 03/M01 A3007 RMK AO2 SLP181 T00331011=
200803230852 METAR KATL 230852Z 33013KT 10SM CLR 04/M01 A3006 RMK AO2 SLP179 T00441006 55003=
200803230752 METAR KATL 230752Z 33015G21KT 10SM FEW250 07/00 A3005 RMK AO2 SLP174 T00670000=
200803230652 METAR KATL 230652Z 34014KT 10SM SCT250 08/01 A3007 RMK AO2 SLP179 T00830006=
200803230552 METAR KATL 230552Z 34014G20KT 10SM BKN250 10/00 A3007 RMK AO2 SLP180 T01000000 10189 20100 51005=
200803230452 METAR KATL 230452Z 34011KT 10SM FEW250 11/M01 A3007 RMK AO2 SLP180 T01111011 402280089=
200803230352 METAR KATL 230352Z 33011KT 10SM CLR 12/M02 A3006 RMK AO2 SLP179 T01221022=
200803230252 METAR KATL 230252Z 34012G19KT 10SM CLR 14/M04 A3006 RMK AO2 SLP175 T01391039 51027=
200803230152 METAR KATL 230152Z 33013G17KT 10SM CLR 16/M07 A3003 RMK AO2 SLP167 T01611072 $=
200803230052 METAR KATL 230052Z 33011KT 10SM FEW250 17/M07 A3000 RMK AO2 SLP158 T01721067=
200803222352 METAR KATL 222352Z 33009KT 10SM FEW250 18/M06 A2997 RMK AO2 SLP148 T01831056 10228 20183 53009=
200803222252 METAR KATL 222252Z 33008KT 10SM FEW250 21/M03 A2996 RMK AO2 SLP140 T02111033=
200803222152 METAR KATL 222152Z 30009G18KT 10SM FEW250 22/00 A2995 RMK AO2 SLP137 T02170000=
200803222052 METAR KATL 222052Z 30012G20KT 10SM FEW250 22/M01 A2995 RMK AO2 SLP136 T02221006 56016=
200803221952 METAR KATL 221952Z 28017KT 10SM FEW085 SCT250 22/00 A2996 RMK AO2 SLP142 T02220000=
200803221852 METAR KATL 221852Z 30011G20KT 10SM FEW075 SCT200 22/02 A2997 RMK AO2 SLP147 T02220022=
200803221752 METAR KATL 221752Z 27009G20KT 10SM FEW075 SCT200 22/03 A2999 RMK AO2 SLP153 T02220033 10222 20089 58009=
200803221652 METAR KATL 221652Z 33014G20KT 10SM FEW200 21/04 A3001 RMK AO2 SLP160 T02110039=
200803221552 METAR KATL 221552Z 30009KT 10SM FEW200 19/06 A3002 RMK AO2 SLP165 T01890056=
200803221452 METAR KATL 221452Z 30009KT 10SM FEW200 17/05 A3002 RMK AO2 SLP165 T01670050 56002=
200803221352 METAR KATL 221352Z 28007KT 10SM FEW180 14/06 A3003 RMK AO2 SLP165 T01440061=
200803221252 METAR KATL 221252Z 25004KT 10SM FEW180 SCT250 11/04 A3003 RMK AO2 SLP167 T01110044=
200803221152 METAR KATL 221152Z 24004KT 10SM SCT150 BKN250 09/03 A3003 RMK AO2 SLP168 T00940028 10122 20094 55001=
200803221052 METAR KATL 221052Z 22004KT 10SM SCT150 BKN250 11/03 A3003 RMK AO2 SLP166 T01110033=
200803220952 METAR KATL 220952Z 24006KT 10SM BKN250 12/02 A3003 RMK AO2 SLP164 T01220022=
200803220852 METAR KATL 220852Z 25007KT 10SM BKN200 12/01 A3003 RMK AO2 SLP167 T01170011 58014=
200803220752 METAR KATL 220752Z 24005KT 10SM BKN180 11/01 A3005 RMK AO2 SLP174 T01060011=
200803220652 METAR KATL 220652Z 25005KT 10SM FEW150 SCT250 11/01 A3007 RMK AO2 SLP182 T01110011=
200803220552 METAR KATL 220552Z 24006KT 10SM FEW150 SCT250 12/01 A3007 RMK AO2 SLP182 T01170011 10172 20111 58007=
200803220452 METAR KATL 220452Z 23004KT 10SM FEW150 BKN250 12/01 A3008 RMK AO2 SLP185 T01220011 402000044 $=
200803220352 METAR KATL 220352Z 21005KT 10SM FEW150 BKN250 12/02 A3009 RMK AO2 SLP188 T01220017=
200803220252 METAR KATL 220252Z 19006KT 10SM FEW140 SCT250 13/02 A3010 RMK AO2 SLP190 T01330022 53003=
200803220152 METAR KATL 220152Z 20006KT 10SM FEW140 SCT250 14/02 A3010 RMK AO2 SLP192 T01440017=
200803220052 METAR KATL 220052Z 17006KT 10SM FEW140 SCT250 16/01 A3008 RMK AO2 SLP187 T01560011=
200803212352 METAR KATL 212352Z 18006KT 10SM FEW140 SCT250 17/01 A3009 RMK AO2 SLP189 T01720011 10200 20167 56015=
200803212252 METAR KATL 212252Z 17009KT 10SM FEW250 19/M01 A3010 RMK AO2 SLP191 T01941011=
200803212152 METAR KATL 212152Z 14007KT 10SM FEW250 20/M02 A3011 RMK AO2 SLP194 T02001017=
200803212052 METAR KATL 212052Z 17008KT 10SM FEW250 19/M02 A3013 RMK AO2 SLP203 T01941022 58032=
200803211952 METAR KATL 211952Z 21005KT 10SM FEW250 19/M02 A3017 RMK AO2 SLP215 T01891022=
200803211852 METAR KATL 211852Z 15003KT 10SM FEW250 18/M02 A3020 RMK AO2 SLP228 T01781022=
200803211752 METAR KATL 211752Z 19003G14KT 10SM FEW250 17/M03 A3023 RMK AO2 SLP237 T01671028 10167 20061 58023=
200803211652 SPECI KATL 211652Z 15007KT 10SM FEW250 16/M01 A3026 RMK AO2 SLP247 T01561011=
200803211552 METAR KATL 211552Z 14009KT 10SM FEW250 14/M01 A3029 RMK AO2 SLP257 T01441011=
200803211452 METAR KATL 211452Z 14007KT 10SM FEW250 13/M02 A3030 RMK AO2 SLP260 T01281017 50003=
200803211352 METAR KATL 211352Z 11006KT 10SM SCT250 SCT300 11/M01 A3030 RMK AO2 SLP263 T01061006=
200803211252 METAR KATL 211252Z 06008KT 10SM FEW250 09/M01 A3029 RMK AO2 SLP259 T00891006=
200803211152 METAR KATL 211152Z 02003KT 10SM FEW250 06/00 A3029 RMK AO2 SLP259 T00610000 10078 20044 53013=
200803211052 METAR KATL 211052Z 34004KT 10SM FEW250 05/00 A3027 RMK AO2 SLP252 T00500000=
200803210952 METAR KATL 210952Z 00000KT 10SM CLR 06/M01 A3025 RMK AO2 SLP246 T00611006 $=
200803210852 METAR KATL 210852Z 00000KT 10SM CLR 07/M01 A3025 RMK AO2 SLP245 T00671006 56007 $=
200803210752 METAR KATL 210752Z 34005KT 10SM CLR 06/M01 A3025 RMK AO2 SLP245 T00611006 $=
200803210652 METAR KATL 210652Z 32004KT 10SM CLR 07/M01 A3026 RMK AO2 SLP249 T00721006 $=
200803210552 METAR KATL 210552Z 33004KT 10SM CLR 08/00 A3027 RMK AO2 SLP252 T00780000 10133 20072 58000=
200803210452 METAR KATL 210452Z 33004KT 10SM CLR 08/M01 A3028 RMK AO2 SLP255 T00831011 401560044=
200803210352 METAR KATL 210352Z 01005KT 10SM CLR 11/M03 A3027 RMK AO2 SLP252 T01061028=
200803210252 METAR KATL 210252Z 02006KT 10SM CLR 11/M03 A3027 RMK AO2 SLP254 T01111028 51016=
200803210152 METAR KATL 210152Z 01008KT 10SM CLR 12/M03 A3026 RMK AO2 SLP250 T01221028=
200803210052 METAR KATL 210052Z 36008KT 10SM CLR 13/M03 A3024 RMK AO2 SLP245 T01281033=
200803202352 METAR KATL 202352Z 35009KT 10SM CLR 13/M03 A3022 RMK AO2 SLP237 T01331033 10156 20133 53007=
200803202252 METAR KATL 202252Z 34012G20KT 10SM CLR 14/M04 A3021 RMK AO2 SLP231 T01441039=
200803202152 METAR KATL 202152Z 34015KT 10SM CLR 15/M03 A3020 RMK AO2 SLP229 T01501033=
200803202052 METAR KATL 202052Z 34012G22KT 10SM CLR 16/M03 A3020 RMK AO2 SLP228 T01561033 55002=
200803201952 METAR KATL 201952Z 31016G23KT 10SM CLR 14/M04 A3020 RMK AO2 SLP226 T01441039=
200803201852 METAR KATL 201852Z 34015G21KT 10SM CLR 14/M04 A3020 RMK AO2 SLP228 T01441039=
200803201752 METAR KATL 201752Z 33010G21KT 10SM CLR 13/M04 A3021 RMK AO2 SLP230 T01331039 10133 20044 51009=
200803201652 METAR KATL 201652Z 32016G21KT 10SM CLR 11/M03 A3021 RMK AO2 SLP230 T01111033=
200803201552 METAR KATL 201552Z 33012KT 10SM CLR 10/M02 A3020 RMK AO2 SLP229 T01001022=
200803201452 METAR KATL 201452Z 35011G19KT 10SM CLR 08/M02 A3018 RMK AO2 SLP221 T00781022 51031=
200803201352 METAR KATL 201352Z 34012KT 10SM CLR 06/M02 A3015 RMK AO2 SLP212 T00611017=
200803201252 METAR KATL 201252Z 33017G23KT 10SM CLR 05/M02 A3012 RMK AO2 PK WND 32026/1220 SLP202 T00501017=
200803201152 METAR KATL 201152Z 34023G30KT 10SM FEW032 05/M02 A3009 RMK AO2 PK WND 33034/1142 SLP189 70115 T00501017 10083 20050 53031=
200803201052 METAR KATL 201052Z 33019G24KT 10SM BKN030 06/00 A3005 RMK AO2 PK WND 33027/1021 SLP175 T00610000=
200803201002 SPECI KATL 201002Z 33012G20KT 10SM OVC030 07/01 A3002 RMK AO2 BINOVC=
200803201002 SPECI KATL 201002Z 33012G20KT 10SM OVC030 07/01 A3002 RMK AO2 BINOVC=
200803200952 METAR KATL 200952Z 34017G26KT 10SM OVC028 07/01 A3002 RMK AO2 PK WND 34032/0921 SLP165 T00670006=
200803200941 SPECI KATL 200941Z 33017G24KT 10SM OVC028 07/01 A3001 RMK AO2 PK WND 34032/0921=
200803200941 SPECI KATL 200941Z 33017G24KT 10SM OVC028 07/01 A3001 RMK AO2 PK WND 34032/0921=
200803200926 SPECI KATL 200926Z 34020G32KT 10SM OVC030 07/01 A3000 RMK AO2 PK WND 34032/0921 $=
200803200926 SPECI KATL 200926Z 34020G32KT 10SM OVC030 07/01 A3000 RMK AO2 PK WND 34032/0921 $=
200803200852 METAR KATL 200852Z 33016G23KT 10SM OVC027 07/01 A2999 RMK AO2 PK WND 35031/0829 SLP156 T00670011 51026=
200803200752 METAR KATL 200752Z 33019G29KT 10SM OVC027 07/02 A2997 RMK AO2 PK WND 31033/0735 SLP147 T00720017=
200803200652 METAR KATL 200652Z 33023G33KT 10SM OVC025 08/02 A2994 RMK AO2 PK WND 33033/0645 SLP138 T00780022=
200803200552 METAR KATL 200552Z 33019G26KT 10SM OVC025 08/03 A2991 RMK AO2 PK WND 32034/0508 SLP128 60000 T00830033 10172 20083 51034=
200803200452 METAR KATL 200452Z 32023G32KT 10SM BKN022 OVC030 10/05 A2988 RMK AO2 PK WND 33032/0451 SLP115 T01000050 401940100=
200803200352 METAR KATL 200352Z 30016G32KT 10SM BKN022 OVC035 12/08 A2985 RMK AO2 PK WND 31032/0344 SLP105 T01220078=
200803200252 METAR KATL 200252Z 31021G27KT 10SM BKN025 BKN045 OVC070 14/09 A2981 RMK AO2 PK WND 32029/0213 WSHFT 0156 RAB00E19 SLP090 P0000 60000 T01390094 53035=
200803200214 SPECI KATL 200214Z 30020G29KT 10SM -RA SCT024 BKN045 BKN070 16/11 A2978 RMK AO2 PK WND 32029/0213 WSHFT 0156 RAB00 P0000=
200803200214 SPECI KATL 200214Z 30020G29KT 10SM -RA SCT024 BKN045 BKN070 16/11 A2978 RMK AO2 PK WND 32029/0213 WSHFT 0156 RAB00 P0000=
200803200205 SPECI KATL 200205Z 31014G27KT 10SM -RA SCT020 BKN026 OVC080 16/12 A2978 RMK AO2 PK WND 30027/0202 RAB00 PRESRR P0000=
200803200205 SPECI KATL 200205Z 31014G27KT 10SM -RA SCT020 BKN026 OVC080 16/12 A2978 RMK AO2 PK WND 30027/0202 RAB00 PRESRR P0000=
200803200152 METAR KATL 200152Z 24011G18KT 10SM FEW022 SCT040 BKN070 17/13 A2976 RMK AO2 SLP071 T01670128=
200803200052 METAR KATL 200052Z 23011G20KT 10SM SCT025 BKN040 17/13 A2973 RMK AO2 SLP063 T01670128=
200803192352 METAR KATL 192352Z 22014G24KT 10SM FEW035 BKN048 BKN060 17/13 A2970 RMK AO2 SLP053 60093 T01720128 10194 20172 53015=
200803192252 METAR KATL 192252Z 23013G27KT 10SM FEW028 BKN150 BKN200 18/13 A2968 RMK AO2 PK WND 22027/2247 SLP044 T01830128=
200803192152 METAR KATL 192152Z 23017G32KT 10SM SCT027 BKN150 BKN200 19/14 A2967 RMK AO2 PK WND 25032/2145 SLP041 T01890139=
200803192052 METAR KATL 192052Z 21013G18KT 10SM FEW010 SCT050 SCT110 OVC150 19/17 A2966 RMK AO2 PK WND 20026/2014 RAE21 SLP038 P0003 60093 T01890167 56020=
200803192026 SPECI KATL 192026Z 22016G22KT 10SM FEW010 SCT016 SCT048 OVC150 19/17 A2967 RMK AO2 PK WND 20026/2014 RAE21 P0003=
200803192026 SPECI KATL 192026Z 22016G22KT 10SM FEW010 SCT016 SCT048 OVC150 19/17 A2967 RMK AO2 PK WND 20026/2014 RAE21 P0003=
200803192003 SPECI KATL 192003Z 21013G17KT 10SM -RA SCT008 BKN015 OVC020 18/17 A2968 RMK AO2 P0003=
200803192003 SPECI KATL 192003Z 21013G17KT 10SM -RA SCT008 BKN015 OVC020 18/17 A2968 RMK AO2 P0003=
200803191959 SPECI KATL 191959Z 21011KT 4SM RA BR SCT006 BKN013 OVC018 18/17 A2968 RMK AO2 P0003=
200803191959 SPECI KATL 191959Z 21011KT 4SM RA BR SCT006 BKN013 OVC018 18/17 A2968 RMK AO2 P0003=
200803191952 METAR KATL 191952Z 20011KT 4SM RA BR BKN006 BKN012 OVC022 18/17 A2967 RMK AO2 SLP043 P0013 T01830172=
200803191932 SPECI KATL 191932Z 19011G17KT 6SM -RA BR BKN006 BKN014 OVC019 18/17 A2968 RMK AO2 CB DSNT NE-S MOV NE P0010=
200803191932 SPECI KATL 191932Z 19011G17KT 6SM -RA BR BKN006 BKN014 OVC019 18/17 A2968 RMK AO2 CB DSNT NE-S MOV NE P0010=
200803191924 SPECI KATL 191924Z 19011KT 8SM -RA FEW004 BKN007 OVC022 18/17 A2970 RMK AO2 CB DSNT NE-S MOV NE P0010=
200803191924 SPECI KATL 191924Z 19011KT 8SM -RA FEW004 BKN007 OVC022 18/17 A2970 RMK AO2 CB DSNT NE-S MOV NE P0010=
200803191858 SPECI KATL 191858Z 19013KT 2 1/2SM RA BR FEW006 OVC022 18/17 A2971 RMK AO2 SFC VIS 4 LTG DSNT S CB DSNT NE-S MOV NE P0003=
200803191858 SPECI KATL 191858Z 19013KT 2 1/2SM RA BR FEW006 OVC022 18/17 A2971 RMK AO2 SFC VIS 4 LTG DSNT S CB DSNT NE-S MOV NE P0003=
200803191852 METAR KATL 191852Z 20011KT 2 1/2SM R09R/6000VP6000FT RA BR BKN022CB BKN030 OVC045 18/17 A2972 RMK AO2 WSHFT 1823 SFC VIS 3 SLP058 LTG DSNT S CB OHD DSNT NE-S MOV NE P0077 T01780172=
200803191848 SPECI KATL 191848Z 20011KT 2 1/2SM R09R/6000VP6000FT +RA BR BKN022CB BKN030 OVC045 18/17 A2973 RMK AO2 WSHFT 1823 SFC VIS 3 LTG DSNT S CB OHD DSNT NE-S MOV NE P0074=
200803191848 SPECI KATL 191848Z 20011KT 2 1/2SM R09R/6000VP6000FT +RA BR BKN022CB BKN030 OVC045 18/17 A2973 RMK AO2 WSHFT 1823 SFC VIS 3 LTG DSNT S CB OHD DSNT NE-S MOV NE P0074=
200803191839 SPECI KATL 191839Z 18014KT 2 1/2SM -RA BR BKN018 OVC025 18/17 A2971 RMK AO2 WSHFT 1823 SFC VIS 5 CB DSNT NE-S MOV NE P0070=
200803191839 SPECI KATL 191839Z 18014KT 2 1/2SM -RA BR BKN018 OVC025 18/17 A2971 RMK AO2 WSHFT 1823 SFC VIS 5 CB DSNT NE-S MOV NE P0070=
200803191823 SPECI KATL 191823Z 22012G18KT 1 1/2SM R09R/4000VP6000FT RA BR BKN008CB BKN016 OVC027 18/17 A2973 RMK AO2 SFC VIS 2 1/2 CB OHD-NE-SE-SW MOV NE P0056=
200803191823 SPECI KATL 191823Z 22012G18KT 1 1/2SM R09R/4000VP6000FT RA BR BKN008CB BKN016 OVC027 18/17 A2973 RMK AO2 SFC VIS 2 1/2 CB OHD-NE-SE-SW MOV NE P0056=
200803191814 SPECI KATL 191814Z 24010KT 1 1/2SM R09R/3500V5000FT +RA BR SCT008CB BKN016 OVC027 18/17 A2973 RMK AO2 CB OHD ALQDS MOV NE P0041=
200803191814 SPECI KATL 191814Z 24010KT 1 1/2SM R09R/3500V5000FT +RA BR SCT008CB BKN016 OVC027 18/17 A2973 RMK AO2 CB OHD ALQDS MOV NE P0041=
200803191803 SPECI KATL 191803Z 22009G24KT 1 1/2SM R09R/4000VP6000FT +RA BR SCT016CB OVC023 18/17 A2973 RMK AO2 TWR VIS 2 1/2 LTG DSNT NW CB OHD-NE-SW DSNT NW MOV NE P0011=
200803191803 SPECI KATL 191803Z 22009G24KT 1 1/2SM R09R/4000VP6000FT +RA BR SCT016CB OVC023 18/17 A2973 RMK AO2 TWR VIS 2 1/2 LTG DSNT NW CB OHD-NE-SW DSNT NW MOV NE P0011=
200803191755 SPECI KATL 191755Z 18016G24KT 2SM R09R/5500VP6000FT +RA BR BKN018CB OVC025 18/17 A2972 RMK AO2 TWR VIS 2 1/2 LTG DSNT NW CB OHD DSNT SW-N MOV NE P0003=
200803191755 SPECI KATL 191755Z 18016G24KT 2SM R09R/5500VP6000FT +RA BR BKN018CB OVC025 18/17 A2972 RMK AO2 TWR VIS 2 1/2 LTG DSNT NW CB OHD DSNT=
200803191752 METAR KATL 191752Z 19016G20KT 3SM R09R/5500VP6000FT +RA BR BKN020CB OVC028 18/17 A2972 RMK AO2 PK WND 18027/1736 RAB1658 SLP059 LTG DSNT NW CB OHD DSNT SW-N MOV NE P0022 60022 T01830167 10194 20167 58026=
200803191747 SPECI KATL 191747Z 18013G19KT 3SM RA BR BKN018CB OVC028 18/17 A2971 RMK AO2 PK WND 18027/1736 RAB1658 LTG DSNT NW CB OHD DSNT NE W-N MOV NE P0020=
200803191747 SPECI KATL 191747Z 18013G19KT 3SM RA BR BKN018CB OVC028 18/17 A2971 RMK AO2 PK WND 18027/1736 RAB1658 LTG DSNT NW CB OHD DSNT NE W-N MOV NE P0020=
200803191735 SPECI KATL 191735Z 17017G24KT 3SM RA BR BKN020CB OVC028 18/17 A2972 RMK AO2 PK WND 19026/1653 RAB1658 CB OHD-SW-N MOV NE P0015=
200803191735 SPECI KATL 191735Z 17017G24KT 3SM RA BR BKN020CB OVC028 18/17 A2972 RMK AO2 PK WND 19026/1653 RAB1658 CB OHD-SW-N MOV NE P0015=
200803191719 SPECI KATL 191719Z 18017G24KT 3SM RA BKN020CB OVC028 19/16 A2974 RMK AO2 PK WND 19026/1653 SFC VIS 4 RAB1658 CB OHD-SW-NW MOV NE P0006=
200803191719 SPECI KATL 191719Z 18017G24KT 3SM RA BKN020CB OVC028 19/16 A2974 RMK AO2 PK WND 19026/1653 SFC VIS 4 RAB1658 CB OHD-SW-NW MOV NE P0006=
200803191706 SPECI KATL 191706Z 19014G24KT 4SM RA BKN020CB BKN025 OVC033 19/16 A2974 RMK AO2 PK WND 19026/1653 RAB1658 VIS LWR SW-NW SHRA CB OHD-SW-NW MOV NE P0001=
200803191706 SPECI KATL 191706Z 19014G24KT 4SM RA BKN020CB BKN025 OVC033 19/16 A2974 RMK AO2 PK WND 19026/1653 RAB1658 VIS LWR SW-NW SHRA CB OHD-SW-NW MOV NE P0001=
200803191702 SPECI KATL 191702Z 19016G24KT 6SM -RA BKN020CB OVC025 19/16 A2975 RMK AO2 PK WND 19026/1653 RAB1658 LTG DSNT W VIS LWR SW-NW SHRA CB SW-NW MOV NE P0000=
200803191702 SPECI KATL 191702Z 19016G24KT 6SM -RA BKN020CB OVC025 19/16 A2975 RMK AO2 PK WND 19026/1653 RAB1658 LTG DSNT W VIS LWR SW-NW SHRA CB SW-NW MOV NE P0000=
200803191652 METAR KATL 191652Z 19022G34KT 8SM OVC022CB 19/16 A2976 RMK AO2 PK WND 19034/1646 SLP070 VIS LWR VC S-NW SHRA CB VC S-NW MOV NE T01940156=
200803191649 SPECI KATL 191649Z 18022G34KT 9SM OVC022CB 19/16 A2975 RMK AO2 PK WND 19034/1646 VIS LWR VC S-NW SHRA CB VC S-NW MOV NE=
200803191649 SPECI KATL 191649Z 18022G34KT 9SM OVC022CB 19/16 A2975 RMK AO2 PK WND 19034/1646 VIS LWR VC S-NW SHRA CB VC S-NW MOV NE=
200803191552 METAR KATL 191552Z 18017G23KT 9SM OVC019 19/15 A2979 RMK AO2 PK WND 17027/1529 SLP081 T01890150=
200803191452 METAR KATL 191452Z 18016G24KT 10SM OVC015 18/14 A2980 RMK AO2 PK WND 17029/1411 SLP085 T01830144 58012=
200803191352 METAR KATL 191352Z 17018G27KT 9SM OVC015 17/14 A2981 RMK AO2 PK WND 17032/1322 SLP090 T01720139=
200803191326 SPECI KATL 191326Z 17019G32KT 10SM OVC015 17/14 A2983 RMK AO2 PK WND 17032/1322=
200803191326 SPECI KATL 191326Z 17019G32KT 10SM OVC015 17/14 A2983 RMK AO2 PK WND 17032/1322=
200803191252 METAR KATL 191252Z 17016G24KT 10SM OVC013 17/14 A2984 RMK AO2 PK WND 16026/1210 SLP098 T01670139=
200803191247 SPECI KATL 191247Z 17015G24KT 10SM OVC013 17/14 A2984 RMK AO2 PK WND 16026/1210=
200803191247 SPECI KATL 191247Z 17015G24KT 10SM OVC013 17/14 A2984 RMK AO2 PK WND 16026/1210=
200803191152 METAR KATL 191152Z 17015G25KT 10SM OVC015 17/14 A2987 RMK AO2 SLP110 T01670139 10172 20161 58016=
200803191052 METAR KATL 191052Z 17011G18KT 10SM BKN015 OVC026 17/13 A2989 RMK AO2 SLP115 T01670133=
200803190952 METAR KATL 190952Z 16011KT 10SM BKN015 OVC028 16/13 A2991 RMK AO2 SLP120 T01610133=
200803190852 METAR KATL 190852Z 16009KT 10SM BKN016 BKN034 BKN060 BKN250 16/13 A2992 RMK AO2 SLP126 T01610133 58022=
200803190752 METAR KATL 190752Z 16008KT 10SM BKN018 OVC055 17/13 A2995 RMK AO2 SLP135 T01670133=
200803190700 SPECI KATL 190700Z 14010KT 10SM BKN018 BKN055 BKN250 17/13 A2996 RMK AO2=
200803190700 SPECI KATL 190700Z 14010KT 10SM BKN018 BKN055 BKN250 17/13 A2996 RMK AO2=
200803190652 METAR KATL 190652Z 15009KT 10SM SCT018 BKN055 BKN250 17/13 A2996 RMK AO2 SLP142 T01670133=
200803190552 METAR KATL 190552Z 15010KT 10SM BKN032 BKN050 BKN250 17/13 A2999 RMK AO2 SLP150 T01720128 10206 20172 56016=
200803190452 METAR KATL 190452Z 14007KT 10SM BKN034 OVC050 17/12 A3000 RMK AO2 SLP154 T01720117 402220106=
200803190352 METAR KATL 190352Z 17006KT 10SM BKN050 BKN250 18/12 A3001 RMK AO2 SLP161 T01830117=
200803190252 METAR KATL 190252Z 16008KT 10SM BKN050 BKN250 18/11 A3003 RMK AO2 SLP168 T01830111 53008=
200803190152 METAR KATL 190152Z 15006KT 10SM SCT055 19/11 A3003 RMK AO2 SLP166 T01890111=
200803190052 METAR KATL 190052Z 15010KT 10SM BKN055 BKN250 20/11 A3001 RMK AO2 SLP160 T02000111=
200803182352 METAR KATL 182352Z 16010KT 10SM FEW050 21/11 A3001 RMK AO2 SLP160 T02060106 10222 20183 55018=
200803182252 METAR KATL 182252Z 18010G17KT 10SM SCT050 BKN250 22/11 A3001 RMK AO2 SLP158 T02170106=
200803182152 METAR KATL 182152Z 17014G25KT 10SM BKN055 BKN250 22/10 A3003 RMK AO2 SLP165 T02220100=
200803182052 METAR KATL 182052Z 16012KT 10SM SCT047 SCT250 22/11 A3006 RMK AO2 SLP177 T02170106 58039=
200803181952 METAR KATL 181952Z 15013KT 10SM SCT040 SCT250 20/11 A3010 RMK AO2 SLP189 T02000111=
200803181852 METAR KATL 181852Z 16014G21KT 10SM BKN035 BKN045 BKN250 18/11 A3015 RMK AO2 SLP207 T01830106=
200803181752 SPECI KATL 181752Z 16014G22KT 10SM FEW030 BKN045 BKN250 18/11 A3018 RMK AO2 SLP218 T01830111 10183 20106 58029=
200803181712 SPECI KATL 181712Z 14008KT 10SM BKN025 BKN035 BKN050 16/10 A3022 RMK AO2=
200803181712 SPECI KATL 181712Z 14008KT 10SM BKN025 BKN035 BKN050 16/10 A3022 RMK AO2=
200803181652 METAR KATL 181652Z 14010KT 10SM FEW020 BKN030 BKN050 16/10 A3023 RMK AO2 SLP235 T01560100=
200803181625 SPECI KATL 181625Z 13007KT 10SM SCT020 BKN030 BKN050 14/09 A3024 RMK AO2=
200803181625 SPECI KATL 181625Z 13007KT 10SM SCT020 BKN030 BKN050 14/09 A3024 RMK AO2=
200803181552 METAR KATL 181552Z 12006KT 10SM BKN018 OVC032 13/08 A3026 RMK AO2 SLP247 BINOVC T01280083=
200803181537 SPECI KATL 181537Z 12010KT 10SM OVC016 12/08 A3027 RMK AO2 BINOVC=
200803181537 SPECI KATL 181537Z 12010KT 10SM OVC016 12/08 A3027 RMK AO2 BINOVC=
200803181452 METAR KATL 181452Z 11007KT 10SM OVC014 12/08 A3027 RMK AO2 SLP250 T01170078 50003=
200803181352 METAR KATL 181352Z 10008KT 10SM OVC014 11/07 A3028 RMK AO2 SLP252 T01060072=
200803181252 METAR KATL 181252Z 12009KT 10SM OVC014 11/07 A3027 RMK AO2 SLP249 T01060067=
200803181152 METAR KATL 181152Z 11011KT 10SM OVC014 11/06 A3026 RMK AO2 SLP247 T01060061 10128 20106 53002=
200803181128 SPECI KATL 181128Z 13011G18KT 9SM OVC014 11/07 A3026 RMK AO2=
200803181128 SPECI KATL 181128Z 13011G18KT 9SM OVC014 11/07 A3026 RMK AO2=
200803181052 METAR KATL 181052Z 13009KT 10SM OVC016 11/06 A3026 RMK AO2 SLP244 T01110061=
200803180952 METAR KATL 180952Z 12010KT 10SM OVC018 12/06 A3026 RMK AO2 SLP244 T01170061=
200803180852 METAR KATL 180852Z 11009KT 10SM OVC020 12/07 A3025 RMK AO2 SLP243 T01170067 56015=
200803180809 SPECI KATL 180809Z 11010KT 10SM BKN022 OVC055 12/06 A3026 RMK AO2=
200803180809 SPECI KATL 180809Z 11010KT 10SM BKN022 OVC055 12/06 A3026 RMK AO2=
200803180752 METAR KATL 180752Z 11009KT 10SM SCT022 BKN055 OVC250 12/06 A3026 RMK AO2 SLP246 T01220061=
200803180736 SPECI KATL 180736Z 11011KT 10SM BKN022 BKN055 OVC250 12/06 A3027 RMK AO2=
200803180736 SPECI KATL 180736Z 11011KT 10SM BKN022 BKN055 OVC250 12/06 A3027 RMK AO2=
200803180652 METAR KATL 180652Z 11009KT 10SM OVC050 13/06 A3028 RMK AO2 SLP253 T01280056=
200803180552 METAR KATL 180552Z 11011KT 10SM OVC050 13/06 A3030 RMK AO2 SLP258 T01280056 10172 20128 58008=
200803180452 METAR KATL 180452Z 11008KT 10SM FEW050 BKN250 13/04 A3031 RMK AO2 SLP263 T01280044 401890078=
200803180352 METAR KATL 180352Z 11010G15KT 10SM OVC050 14/04 A3032 RMK AO2 SLP265 T01390039=
200803180252 METAR KATL 180252Z 11008KT 10SM OVC050 15/04 A3032 RMK AO2 SLP268 BINOVC T01500039 50008=
200803180152 METAR KATL 180152Z 11007KT 10SM FEW055 SCT250 15/03 A3032 RMK AO2 SLP269 T01500033=
200803180052 METAR KATL 180052Z 10008KT 10SM FEW200 SCT250 14/04 A3030 RMK AO2 SLP263 T01440039=
200803172352 METAR KATL 172352Z 11010KT 10SM FEW150 BKN200 BKN250 17/03 A3030 RMK AO2 SLP260 T01720033 10189 20156 55002=
200803172252 METAR KATL 172252Z 12006G15KT 10SM BKN180 OVC250 18/03 A3029 RMK AO2 SLP256 T01780028=
200803172152 METAR KATL 172152Z 12011KT 10SM OVC200 18/03 A3029 RMK AO2 SLP257 T01780028=
200803172052 METAR KATL 172052Z 12013G18KT 10SM BKN200 OVC250 18/03 A3031 RMK AO2 SLP262 T01830028 56019=
200803171952 METAR KATL 171952Z 13011G20KT 10SM FEW090 SCT150 BKN250 18/03 A3032 RMK AO2 SLP266 T01830033=
200803171852 METAR KATL 171852Z 13008G19KT 10SM FEW090 SCT150 BKN250 17/03 A3034 RMK AO2 SLP273 T01720033=
200803171752 METAR KATL 171752Z 12010G15KT 10SM SCT150 BKN250 16/03 A3036 RMK AO2 SLP282 T01610033 10161 20078 58019=
200803171652 METAR KATL 171652Z 10013G17KT 10SM SCT150 BKN250 15/03 A3039 RMK AO2 SLP290 T01500028=
200803171552 METAR KATL 171552Z 09015KT 10SM SCT150 BKN250 13/02 A3041 RMK AO2 SLP297 T01330017=
200803171452 METAR KATL 171452Z 10010G18KT 10SM FEW100 BKN180 BKN250 12/01 A3042 RMK AO2 SLP302 T01170011 51018=
200803171352 METAR KATL 171352Z 11012KT 10SM FEW100 BKN150 BKN250 10/01 A3042 RMK AO2 SLP302 T01000006=
200803171252 METAR KATL 171252Z 10012KT 10SM FEW100 BKN150 BKN250 09/01 A3040 RMK AO2 SLP296 T00890011=
200803171152 METAR KATL 171152Z 09009KT 10SM BKN180 BKN250 08/01 A3037 RMK AO2 SLP284 T00780011 10111 20078 53022=
200803171052 METAR KATL 171052Z 10010KT 10SM FEW200 SCT250 08/01 A3033 RMK AO2 SLP272 T00830011=
200803170952 METAR KATL 170952Z 09010KT 10SM FEW250 08/02 A3032 RMK AO2 SLP265 T00830017=
200803170852 METAR KATL 170852Z 09011KT 10SM FEW250 09/02 A3030 RMK AO2 SLP260 T00940022 51003=
200803170752 METAR KATL 170752Z 09010KT 10SM FEW250 09/03 A3030 RMK AO2 SLP260 T00890033=
200803170652 METAR KATL 170652Z 05008KT 10SM FEW250 11/02 A3030 RMK AO2 SLP258 T01060022=
200803170552 METAR KATL 170552Z 01004KT 10SM FEW200 11/03 A3029 RMK AO2 SLP257 T01060028 10161 20106 51007=
200803170452 METAR KATL 170452Z 36006KT 10SM FEW250 12/03 A3028 RMK AO2 SLP253 T01170028 401940078=
200803170352 METAR KATL 170352Z 33005KT 10SM CLR 11/03 A3028 RMK AO2 SLP254 T01110033=
200803170252 METAR KATL 170252Z 34006KT 10SM FEW250 12/03 A3027 RMK AO2 SLP251 T01220028 51020=
200803170152 METAR KATL 170152Z 34007KT 10SM FEW250 13/03 A3026 RMK AO2 SLP246 T01330033=
200803170052 METAR KATL 170052Z 32008KT 10SM FEW250 14/03 A3023 RMK AO2 SLP239 T01440033=
200803162352 METAR KATL 162352Z 33009KT 10SM FEW250 16/03 A3021 RMK AO2 SLP229 T01610033 10194 20161 53019=
200803162252 METAR KATL 162252Z 33009KT 10SM FEW250 18/02 A3018 RMK AO2 SLP218 T01780022=
200803162152 METAR KATL 162152Z 36011G15KT 10SM FEW250 18/02 A3016 RMK AO2 SLP213 T01830022=
200803162052 METAR KATL 162052Z VRB05KT 10SM FEW150 SCT250 18/03 A3015 RMK AO2 SLP208 T01830028 50001=
200803161952 METAR KATL 161952Z 31007KT 280V350 10SM FEW150 SCT250 18/02 A3015 RMK AO2 SLP209 T01780022=
200803161852 METAR KATL 161852Z 01009KT 320V050 10SM FEW250 18/04 A3015 RMK AO2 SLP209 T01780039=
200803161752 METAR KATL 161752Z 02005G14KT 10SM FEW250 17/03 A3015 RMK AO2 SLP208 T01670028 10167 20078 50008=
200803161652 METAR KATL 161652Z 02009G16KT 10SM FEW250 16/03 A3016 RMK AO2 SLP210 T01560028=
200803161552 METAR KATL 161552Z 34008KT 10SM FEW250 14/04 A3014 RMK AO2 SLP204 T01390039=
200803161452 METAR KATL 161452Z 01007KT 10SM FEW250 11/03 A3013 RMK AO2 SLP201 T01110033 51031=
200803161352 METAR KATL 161352Z 34010KT 10SM FEW250 09/04 A3010 RMK AO2 SLP192 T00940039=
200803161252 METAR KATL 161252Z 33010KT 10SM CLR 08/03 A3007 RMK AO2 SLP181 T00830033=
200803161152 METAR KATL 161152Z 33012KT 10SM FEW023 08/04 A3003 RMK AO2 SLP168 70022 T00830039 10122 20083 53046=
200803161107 SPECI KATL 161107Z 33016G25KT 10SM SCT023 09/04 A2999 RMK AO2=
200803161107 SPECI KATL 161107Z 33016G25KT 10SM SCT023 09/04 A2999 RMK AO2=
200803161052 METAR KATL 161052Z 34019G22KT 10SM BKN023 09/04 A2998 RMK AO2 SLP149 T00940044=
200803160952 METAR KATL 160952Z 33016G23KT 10SM BKN023 09/05 A2993 RMK AO2 PK WND 33027/0930 SLP134 T00940050=
200803160924 SPECI KATL 160924Z 34020G24KT 10SM BKN023 10/05 A2991 RMK AO2=
200803160924 SPECI KATL 160924Z 34020G24KT 10SM BKN023 10/05 A2991 RMK AO2=
200803160852 METAR KATL 160852Z 32020G23KT 10SM SCT070 10/06 A2989 RMK AO2 SLP120 T01000056 51018=
200803160752 METAR KATL 160752Z 31014KT 10SM FEW065 SCT120 11/07 A2988 RMK AO2 SLP115 T01110072=
200803160652 METAR KATL 160652Z 31013KT 10SM FEW120 12/08 A2986 RMK AO2 SLP107 T01170078=
200803160552 METAR KATL 160552Z 30012KT 10SM FEW045 12/08 A2984 RMK AO2 SLP100 T01220083 10178 20122 53022=
200803160452 METAR KATL 160452Z 28008G15KT 10SM FEW045 13/09 A2982 RMK AO2 SLP093 T01280094 402390128=
200803160352 METAR KATL 160352Z 32011KT 10SM CLR 13/10 A2979 RMK AO2 SLP083 T01330100=
200803160252 METAR KATL 160252Z 31012KT 10SM CLR 14/10 A2977 RMK AO2 SLP077 T01440100 51038=
200803160152 METAR KATL 160152Z 31016G22KT 10SM FEW065 15/10 A2973 RMK AO2 PK WND 33026/0140 SLP066 T01500100=
200803160052 METAR KATL 160052Z 31017G27KT 10SM FEW060 16/10 A2970 RMK AO2 PK WND 32027/0046 SLP052 T01610100=
200803152352 METAR KATL 152352Z 31019G24KT 10SM SCT055 SCT085 18/11 A2965 RMK AO2 PK WND 32030/2332 SLP038 60022 T01780111 10239 20161 53036=
200803152252 METAR KATL 152252Z 29012KT 10SM FEW025TCU SCT075 SCT250 21/16 A2959 RMK AO2 RAE04 SLP015 TCU VC NE P0000 T02060156=
200803152152 METAR KATL 152152Z 27005KT 8SM -RA FEW025 SCT050 BKN080 BKN250 18/16 A2956 RMK AO2 WSHFT 2051 TSE30RAE33B50 SLP005 TS MOV E CB DSNT E AND SW P0008 T01830161=
200803152132 SPECI KATL 152132Z 31009KT 9SM -RA FEW025 BKN050 BKN070 18/16 A2955 RMK AO2 WSHFT 2051 TSE30 TS MOV SE CB DSNT SW P0008=
200803152132 SPECI KATL 152132Z 31009KT 9SM -RA FEW025 BKN050 BKN070 18/16 A2955 RMK AO2 WSHFT 2051 TSE30 TS MOV SE CB DSNT SW P0008=
200803152111 SPECI KATL 152111Z 28009G20KT 6SM -TSRA SCT018CB BKN047 17/13 A2956 RMK AO2 WSHFT 2051 OCNL LTGICCA TS SE-SW MOV E P0007=
200803152111 SPECI KATL 152111Z 28009G20KT 6SM -TSRA SCT018CB BKN047 17/13 A2956 RMK AO2 WSHFT 2051 OCNL LTGICCA TS SE-SW MOV E P0007=
200803152052 METAR KATL 152052Z COR 29015G30KT 8SM R09R/3500VP6000FT -TSRA SCT018CB BKN044 BKN050 18/14 A2955 RMK AO2 PK WND 33046/2039 WSHFT 2020 TSB1958GRB44E50 SLP001 OCNL LTGIC TS E-OHD-S-W MOV NE P0014 60014=
200803152044 SPECI KATL 152044Z 33017G46KT 1SM R09R/2400VP6000FT +TSRAGR BR SCT024CB BKN046 16/14 A2956 RMK TORNADO B09 8N MOV E TORNADO E13 AO2 PK WND 33046/2039 WSHFT 2020 TSB1958GRB44 FRQ LTGCGCCICCA N TS ALQDS MOV NE CB DS=
200803152044 SPECI KATL 152044Z 33017G46KT 1SM R09R/2400VP6000FT +TSRAGR BR SCT024CB BKN046 16/14 A2956 RMK TORNADO B09 8N MOV E TORNADO E13 AO2 PK WND 33046/2039 WSHFT 2020 TSB1958GRB44 FRQ LTGCGCCICCA N TS ALQDS MOV NE CB DS=
200803152037 SPECI KATL 152037Z 35016G21KT 7SM TSRA SCT020CB BKN046 19/15 A2951 RMK TORNADO B09 8N MOV E TORNADO E13 AO2 PK WND 23039/2005 WSHFT 2020 TSB1958 FRQ LTGCGCCICCA N TS ALQDS MOV NE CB DSNT W P0001=
200803152037 SPECI KATL 152037Z 35016G21KT 7SM TSRA SCT020CB BKN046 19/15 A2951 RMK TORNADO B09 8N MOV E TORNADO E13 AO2 PK WND 23039/2005 WSHFT 2020 TSB1958 FRQ LTGCGCCICCA N TS ALQDS MOV NE CB DSNT W P0001=
200803152014 SPECI KATL 152014Z 25021G39KT 9SM -TSRA SCT042CB BKN050 BKN065 24/14 A2953 RMK TORNADO B09 8N MOV E TORNADO E13 AO2 PK WND 23039/2005 TSB1958 TORNADO B07 8N MOV E FRQ LTG OHD-NW-N TS NE-OHD-SW MOV NE CB DSNT W-NW=
200803152014 SPECI KATL 152014Z 25021G39KT 9SM -TSRA SCT042CB BKN050 BKN065 24/14 A2953 RMK TORNADO B09 8N MOV E TORNADO E13 AO2 PK WND 23039/2005 TSB1958 TORNADO B07 8N MOV E FRQ LTG OHD-NW-N TS NE-OHD-SW MOV NE CB DSNT W-NW=
200803152011 SPECI KATL 152011Z 26023G39KT 9SM +FC -TSRA SCT042CB BKN050 BKN065 24/15 A2955 RMK TORNADO B09 8N MOV E AO2 PK WND 23039/2005 TSB1958 PRESRR TORNADO B07 8N MOV E FRQ LTG OHD-NW-N TS NE-OHD-SW MOV NE CB DSNT W-NW P=
200803152011 SPECI KATL 152011Z 26023G39KT 9SM +FC -TSRA SCT042CB BKN050 BKN065 24/15 A2955 RMK TORNADO B09 8N MOV E AO2 PK WND 23039/2005 TSB1958 PRESRR TORNADO B07 8N MOV E FRQ LTG OHD-NW-N TS NE-OHD-SW MOV NE CB DSNT W-NW P=
200803151958 SPECI KATL 151958Z 21018G24KT 9SM -TSRA SCT042CB BKN050 BKN065 23/14 A2949 RMK AO2 TSB58 PRESFR FRQ LTG OHD-NW-N TS NE-OHD-SW MOV NE CB DSNT W-NW P0000=
200803151958 SPECI KATL 151958Z 21018G24KT 9SM -TSRA SCT042CB BKN050 BKN065 23/14 A2949 RMK AO2 TSB58 PRESFR FRQ LTG OHD-NW-N TS NE-OHD-SW MOV NE CB DSNT W-NW P0000=
200803151952 METAR KATL 151952Z 23012G21KT 9SM -RA SCT042CB BKN050 BKN060 23/14 A2951 RMK AO2 PK WND 21028/1901 RAE13B41 SLP988 CB NE-OHD-SE MOV NE CB DSNT W-NW P0000 T02280144=
200803151852 METAR KATL 151852Z 22016G25KT 10SM -RA SCT037 BKN046 BKN060 22/15 A2957 RMK AO2 PK WND 21033/1753 RAB51 SLP005 CB DSNT N-NE AND W-NW P0000 T02220150=
200803151752 METAR KATL 151752Z 22018G22KT 9SM SCT030 BKN035 BKN070 21/16 A2961 RMK AO2 RAE07B27E50 SLP022 SCT030 V BKN CB DSNT N P0000 60000 T02110156 10211 20133 58014=
200803151709 SPECI KATL 151709Z 21014G24KT 8SM SCT021 SCT030 BKN060 20/15 A2965 RMK AO2 RAE07 CB DSNT NW P0000=
200803151709 SPECI KATL 151709Z 21014G24KT 8SM SCT021 SCT030 BKN060 20/15 A2965 RMK AO2 RAE07 CB DSNT NW P0000=
200803151652 METAR KATL 151652Z 21014G25KT 8SM -RA SCT019 BKN023 BKN055 20/15 A2965 RMK AO2 RAB51 SLP038 CB DSNT NW P0000 T02000150 $=
200803151552 METAR KATL 151552Z 18015KT 9SM BKN015 BKN019 OVC025 18/15 A2966 RMK AO2 SLP038 T01830150=
200803151543 SPECI KATL 151543Z 19014KT 9SM BKN015 OVC022 18/15 A2967 RMK AO2=
200803151543 SPECI KATL 151543Z 19014KT 9SM BKN015 OVC022 18/15 A2967 RMK AO2=
200803151513 SPECI KATL 151513Z 18014G21KT 8SM OVC012 18/16 A2966 RMK AO2=
200803151513 SPECI KATL 151513Z 18014G21KT 8SM OVC012 18/16 A2966 RMK AO2=
200803151452 METAR KATL 151452Z 16014G18KT 7SM OVC007 17/15 A2965 RMK AO2 SLP036 CIG 005V007 T01720150 58025=
200803151409 SPECI KATL 151409Z 15010KT 8SM BKN007 OVC011 16/14 A2971 RMK AO2=
200803151409 SPECI KATL 151409Z 15010KT 8SM BKN007 OVC011 16/14 A2971 RMK AO2=
200803151402 SPECI KATL 151402Z 15008KT 9SM SCT007 OVC011 15/13 A2971 RMK AO2 CIG 008V011 SCT007 V BKN=
200803151402 SPECI KATL 151402Z 15008KT 9SM SCT007 OVC011 15/13 A2971 RMK AO2 CIG 008V011 SCT007 V BKN=
200803151352 METAR KATL 151352Z 13007KT 10SM BKN012 OVC019 15/13 A2971 RMK AO2 SLP057 T01500128=
200803151346 SPECI KATL 151346Z 14007KT 10SM BKN012 OVC019 14/13 A2971 RMK AO2 BKN012 V SCT=
200803151346 SPECI KATL 151346Z 14007KT 10SM BKN012 OVC019 14/13 A2971 RMK AO2 BKN012 V SCT=
200803151252 METAR KATL 151252Z 00000KT 10SM SCT010 BKN025 14/12 A2975 RMK AO2 SLP071 T01390122=
200803151234 SPECI KATL 151234Z 00000KT 10SM BKN025 BKN033 BKN120 14/12 A2976 RMK AO2=
200803151234 SPECI KATL 151234Z 00000KT 10SM BKN025 BKN033 BKN120 14/12 A2976 RMK AO2=
200803151152 METAR KATL 151152Z 24003KT 10SM FEW070 SCT150 BKN200 14/12 A2973 RMK AO2 SLP064 60018 70094 T01390117 10156 20128 58002=
200803151052 METAR KATL 151052Z 21012KT 10SM BKN070 15/11 A2974 RMK AO2 PK WND 23037/1025 TSB00E47RAE52 SLP066 FRQ DSNT LTG E-SE TS MOV E P0018 T01500111=
200803151047 SPECI KATL 151047Z 22011KT 10SM -RA OVC070 15/11 A2975 RMK AO2 PK WND 23037/1025 TSB00E47 FRQ DSNT LTG E-SE TS MOV E P0018=
200803151047 SPECI KATL 151047Z 22011KT 10SM -RA OVC070 15/11 A2975 RMK AO2 PK WND 23037/1025 TSB00E47 FRQ DSNT LTG E-SE TS MOV E P0018=
200803151033 SPECI KATL 151033Z 22021G37KT 1 1/2SM -TSRA FEW005 BKN022CB OVC070 13/11 A2976 RMK AO2 PK WND 23037/1025 SFC VIS 7 TSB00 CON LTGICCG TS NE-SE MOV E P0016=
200803151033 SPECI KATL 151033Z 22021G37KT 1 1/2SM -TSRA FEW005 BKN022CB OVC070 13/11 A2976 RMK AO2 PK WND 23037/1025 SFC VIS 7 TSB00 CON LTGICCG TS NE-SE MOV E P0016=
200803151014 SPECI KATL 151014Z 26009KT 1 1/2SM R09R/5500VP6000FT +TSRA BR SCT011 BKN024 OVC070 16/15 A2980 RMK AO2 SFC VIS 2 1/2 TSB00 PRESRR CON LTGICCG TS OHD AND SW MOV E P0005=
200803151014 SPECI KATL 151014Z 26009KT 1 1/2SM R09R/5500VP6000FT +TSRA BR SCT011 BKN024 OVC070 16/15 A2980 RMK AO2 SFC VIS 2 1/2 TSB00 PRESRR CON LTGICCG TS OHD AND SW MOV E P0005=
200803151001 SPECI KATL 151001Z 14003KT 1 1/2SM -TSRA BR SCT011 BKN020CB OVC080 15/14 A2974 RMK AO2 SFC VIS 3 TSB00 FRQ LTGICCG W AND SW MOV E P0000=
200803151001 SPECI KATL 151001Z 14003KT 1 1/2SM -TSRA BR SCT011 BKN020CB OVC080 15/14 A2974 RMK AO2 SFC VIS 3 TSB00 FRQ LTGICCG W AND SW MOV E P0000=
200803150952 METAR KATL 150952Z 21003KT 1 1/2SM -RA BR SCT011 BKN020 OVC075 15/15 A2974 RMK AO2 SFC VIS 4 DZE23RAB49 SLP066 LTG DSNT W P0000 T01500150=
200803150939 SPECI KATL 150939Z 22005KT 1 1/2SM BR FEW008 BKN013 OVC028 15/15 A2976 RMK AO2 SFC VIS 4 DZE23 P0000=
200803150939 SPECI KATL 150939Z 22005KT 1 1/2SM BR FEW008 BKN013 OVC028 15/15 A2976 RMK AO2 SFC VIS 4 DZE23 P0000=
200803150929 SPECI KATL 150929Z 19006KT 1/2SM R09R/5500VP6000FT BR FEW007 BKN016 OVC050 15/14 A2974 RMK AO2 SFC VIS 2 DZE23 P0000=
200803150929 SPECI KATL 150929Z 19006KT 1/2SM R09R/5500VP6000FT BR FEW007 BKN016 OVC050 15/14 A2974 RMK AO2 SFC VIS 2 DZE23 P0000=
200803150852 METAR KATL 150852Z 14003KT 1/4SM R09R/2400V3500FT DZ FG BKN003 OVC007 15/14 A2973 RMK AO2 TWR VIS 1/2 RAB35E45DZB50 CIG 001V004 SLP066 P0000 60000 T01500144 58007=
200803150834 SPECI KATL 150834Z 00000KT 1/2SM R09R/2400V3000FT FG BKN003 OVC007 15/14 A2974 RMK AO2 CIG 001V005=
200803150834 SPECI KATL 150834Z 00000KT 1/2SM R09R/2400V3000FT FG BKN003 OVC007 15/14 A2974 RMK AO2 CIG 001V005=
200803150824 SPECI KATL 150824Z 11003KT 1/2SM R09R/2000V2800FT FG SCT001 OVC007 15/14 A2974 RMK AO2=
200803150824 SPECI KATL 150824Z 11003KT 1/2SM R09R/2000V2800FT FG SCT001 OVC007 15/14 A2974 RMK AO2=
200803150802 SPECI KATL 150802Z 00000KT 1/2SM R09R/1800V2000FT FG VV001 15/14 A2974 RMK AO2=
200803150802 SPECI KATL 150802Z 00000KT 1/2SM R09R/1800V2000FT FG VV001 15/14 A2974 RMK AO2=
200803150752 METAR KATL 150752Z 15003KT 1/4SM R09R/1800V2200FT FG VV001 15/14 A2974 RMK AO2 TWR VIS 1/2 SLP066 T01500144=
200803150722 SPECI KATL 150722Z 00000KT 1/4SM R09R/1800V2200FT FG VV001 15/14 A2974 RMK AO2 TWR VIS 1/2=
200803150722 SPECI KATL 150722Z 00000KT 1/4SM R09R/1800V2200FT FG VV001 15/14 A2974 RMK AO2 TWR VIS 1/2=
200803150701 SPECI KATL 150701Z 00000KT 1/2SM R09R/5000VP6000FT BR OVC001 14/14 A2975 RMK AO2 SFC VIS 1=
200803150701 SPECI KATL 150701Z 00000KT 1/2SM R09R/5000VP6000FT BR OVC001 14/14 A2975 RMK AO2 SFC VIS 1=
200803150652 METAR KATL 150652Z 00000KT 1 3/4SM BR OVC003 14/14 A2976 RMK AO2 CIG 001V005 SLP073 T01440139=
200803150647 SPECI KATL 150647Z 00000KT 2SM BR OVC003 14/13 A2976 RMK AO2 CIG 001V007=
200803150647 SPECI KATL 150647Z 00000KT 2SM BR OVC003 14/13 A2976 RMK AO2 CIG 001V007=
200803150609 SPECI KATL 150609Z 00000KT 8SM BKN007 OVC014 14/13 A2976 RMK AO2=
200803150609 SPECI KATL 150609Z 00000KT 8SM BKN007 OVC014 14/13 A2976 RMK AO2=
200803150555 SPECI KATL 150555Z 00000KT 8SM FEW008 OVC014 14/13 A2975 RMK AO2=
200803150555 SPECI KATL 150555Z 00000KT 8SM FEW008 OVC014 14/13 A2975 RMK AO2=
200803150552 METAR KATL 150552Z 00000KT 10SM BKN015 14/13 A2976 RMK AO2 SLP074 60057 T01390128 10172 20128 50003=
200803150539 SPECI KATL 150539Z 00000KT 10SM BKN017 13/12 A2976 RMK AO2=
200803150539 SPECI KATL 150539Z 00000KT 10SM BKN017 13/12 A2976 RMK AO2=
200803150452 METAR KATL 150452Z 00000KT 10SM FEW025 SCT045 BKN070 BKN250 13/12 A2977 RMK AO2 SLP077 OCNL LTG DSNT NE-E T01280122 401720111=
200803150352 METAR KATL 150352Z 00000KT 10SM FEW015 BKN045 BKN250 14/13 A2976 RMK AO2 TSE41RAE23 SLP075 FRQ LTG DSNT E-SE AND NW TS MOV SE P0057 T01390128=
200803150342 SPECI KATL 150342Z 00000KT 10SM FEW025 BKN050 BKN250 14/13 A2976 RMK AO2 TSE41RAE23 FRQ LTG DSNT SE TS MOV SE P0057=
200803150342 SPECI KATL 150342Z 00000KT 10SM FEW025 BKN050 BKN250 14/13 A2976 RMK AO2 TSE41RAE23 FRQ LTG DSNT SE TS MOV SE P0057=
200803150323 SPECI KATL 150323Z VRB03KT 10SM TS FEW008 SCT025CB BKN050 OVC200 15/13 A2977 RMK AO2 RAE23 CONS LTGICCG TS VC NE-SE-S MOV SE P0057=
200803150323 SPECI KATL 150323Z VRB03KT 10SM TS FEW008 SCT025CB BKN050 OVC200 15/13 A2977 RMK AO2 RAE23 CONS LTGICCG TS VC NE-SE-S MOV SE P0057=
200803150317 SPECI KATL 150317Z 00000KT 4SM R09R/3000VP6000FT TSRA BR FEW010 BKN025CB OVC050 15/13 A2977 RMK AO2 CONS LTGICCG TS NE-SE-SW MOV SE P0057=
200803150317 SPECI KATL 150317Z 00000KT 4SM R09R/3000VP6000FT TSRA BR FEW010 BKN025CB OVC050 15/13 A2977 RMK AO2 CONS LTGICCG TS NE-SE-SW MOV SE P0057=
200803150310 SPECI KATL 150310Z 27015G23KT 230V310 1SM R09R/3000VP6000FT +TSRA BR FEW010 OVC025CB 14/13 A2978 RMK AO2 PRESRR CONS LTGICCG TS OHD-ALQDS MOV SE P0027=
200803150310 SPECI KATL 150310Z 27015G23KT 230V310 1SM R09R/3000VP6000FT +TSRA BR FEW010 OVC025CB 14/13 A2978 RMK AO2 PRESRR CONS LTGICCG TS OHD-ALQDS MOV SE P0027=
200803150305 SPECI KATL 150305Z 36013KT 2 1/2SM R09R/6000VP6000FT +TSRA BR BKN025CB OVC050 16/13 A2977 RMK AO2 CONS LTGICCG TS OHD-ALQDS MOV SE P0001=
200803150305 SPECI KATL 150305Z 36013KT 2 1/2SM R09R/6000VP6000FT +TSRA BR BKN025CB OVC050 16/13 A2977 RMK AO2 CONS LTGICCG TS OHD-ALQDS MOV SE P0001=
200803150252 METAR KATL 150252Z 06005KT 10SM -TSRA FEW025CB BKN045 BKN090 BKN200 17/13 A2975 RMK AO2 TSE10B40RAB52 SLP070 FRQ LTGICCG TS W-NW MOV SE P0000 60000 T01670133 51013=
200803150240 SPECI KATL 150240Z 00000KT 10SM TS FEW025CB BKN045 BKN060 BKN200 17/13 A2975 RMK AO2 TSE10B40 FRQ LTGICCG TS VC NW MOV SE=
200803150240 SPECI KATL 150240Z 00000KT 10SM TS FEW025CB BKN045 BKN060 BKN200 17/13 A2975 RMK AO2 TSE10B40 FRQ LTGICCG TS VC NW MOV SE=
200803150210 SPECI KATL 150210Z 33008KT 10SM SCT014 BKN050 BKN070 BKN250 17/14 A2975 RMK AO2 TSE10 FRQ LTG DSNT NE-E TS MOV SE=
200803150210 SPECI KATL 150210Z 33008KT 10SM SCT014 BKN050 BKN070 BKN250 17/14 A2975 RMK AO2 TSE10 FRQ LTG DSNT NE-E TS MOV SE=
200803150152 METAR KATL 150152Z 22005KT 10SM TS FEW025CB SCT060 BKN075 BKN250 16/14 A2974 RMK AO2 TSB36 SLP067 FRQ LTGICCGCA TS VC N-NE MOV SE T01560139=
200803150136 SPECI KATL 150136Z 19007KT 10SM TS FEW025CB SCT090 BKN250 16/14 A2972 RMK AO2 TSB36 CONS LTGICCGCA TS VC NW-N-NE MOV SE=
200803150136 SPECI KATL 150136Z 19007KT 10SM TS FEW025CB SCT090 BKN250 16/14 A2972 RMK AO2 TSB36 CONS LTGICCGCA TS VC NW-N-NE MOV SE=
200803150052 METAR KATL 150052Z 14003KT 10SM SCT060 BKN075 BKN250 16/13 A2972 RMK AO2 SLP063 FRQ LTG DSNT NW T01560133=
200803142352 METAR KATL 142352Z 00000KT 10SM SCT200 16/14 A2971 RMK AO2 SLP058 60013 T01610139 10172 20139 53001=
200803142252 METAR KATL 142252Z 28004KT 10SM FEW018 SCT030 BKN060 BKN250 17/14 A2970 RMK AO2 SLP055 MDT CU NE-E T01720139=
200803142152 METAR KATL 142152Z 22006KT 10SM SCT015 BKN028 OVC050 17/14 A2970 RMK AO2 SLP055 T01670139=
200803142121 SPECI KATL 142121Z 21005KT 9SM FEW025 SCT040 BKN150 16/14 A2970 RMK AO2=
200803142121 SPECI KATL 142121Z 21005KT 9SM FEW025 SCT040 BKN150 16/14 A2970 RMK AO2=
200803142052 METAR KATL 142052Z 21004KT 6SM BR FEW008 BKN024 BKN031 16/14 A2971 RMK AO2 RAB1955E41 SLP057 P0001 60013 T01560139 56027=
200803141952 METAR KATL 141952Z 20006KT 6SM BR FEW006 BKN026 OVC120 15/13 A2971 RMK AO2 RAE21 SLP060 P0002 T01500128=
200803141913 SPECI KATL 141913Z 19006KT 5SM -RA BR FEW006 BKN023 OVC040 14/13 A2973 RMK AO2 P0002=
200803141913 SPECI KATL 141913Z 19006KT 5SM -RA BR FEW006 BKN023 OVC040 14/13 A2973 RMK AO2 P0002=
200803141859 SPECI KATL 141859Z 20005KT 6SM -RA BR FEW006 SCT023 OVC034 14/13 A2974 RMK AO2 P0000=
200803141859 SPECI KATL 141859Z 20005KT 6SM -RA BR FEW006 SCT023 OVC034 14/13 A2974 RMK AO2 P0000=
200803141852 METAR KATL 141852Z 19005KT 5SM -RA BR FEW023 BKN036 OVC047 14/13 A2974 RMK AO2 SLP069 CB MOV E P0010 T01390128=
200803141811 SPECI KATL 141811Z 20007KT 5SM RA BR FEW014 BKN036 OVC045 14/12 A2976 RMK AO2 CB MOV E P0007=
200803141811 SPECI KATL 141811Z 20007KT 5SM RA BR FEW014 BKN036 OVC045 14/12 A2976 RMK AO2 CB MOV E P0007=
200803141800 SPECI KATL 141800Z 20008KT 3SM +RA BR FEW013CB BKN027 OVC060 14/12 A2977 RMK AO2 CB OHD-SE MOV E P0004=
200803141800 SPECI KATL 141800Z 20008KT 3SM +RA BR FEW013CB BKN027 OVC060 14/12 A2977 RMK AO2 CB OHD-SE MOV E P0004=
200803141752 METAR KATL 141752Z 27006KT 3SM +RA BR FEW015CB SCT050 BKN060 OVC150 14/12 A2979 RMK AO2 SLP086 CB OHD MOV E BINOVC DSNT S P0002 60006 T01390122 10144 20111 58005=
200803141729 SPECI KATL 141729Z 18009KT 7SM -RA FEW020 SCT050 BKN070 OVC150 14/12 A2977 RMK AO2 P0001=
200803141729 SPECI KATL 141729Z 18009KT 7SM -RA FEW020 SCT050 BKN070 OVC150 14/12 A2977 RMK AO2 P0001=
200803141652 METAR KATL 141652Z 17007KT 6SM -RA BR BKN018 BKN040 BKN080 OVC150 13/11 A2980 RMK AO2 RAB15 SLP088 P0003 T01330111=
200803141623 SPECI KATL 141623Z 23003KT 8SM -RA BKN018 BKN090 OVC150 14/11 A2981 RMK AO2 RAB15 P0000=
200803141623 SPECI KATL 141623Z 23003KT 8SM -RA BKN018 BKN090 OVC150 14/11 A2981 RMK AO2 RAB15 P0000=
200803141552 METAR KATL 141552Z 19008KT 10SM FEW025 SCT095 BKN110 OVC150 13/10 A2981 RMK AO2 RAE1453 SLP093 T01330100=
200803141452 METAR KATL 141452Z 15008KT 8SM -RA FEW015 SCT030 SCT110 BKN150 12/09 A2980 RMK AO2 RAE03B21 SLP091 VIRGA NW CB DSNT NW P0000 60001 T01170089 56006=
200803141445 SPECI KATL 141445Z 16006KT 8SM -RA SCT027 SCT031 BKN150 12/09 A2981 RMK AO2 RAE03B21 PRESFR VIRGA NW CB DSNT NW P0000=
200803141445 SPECI KATL 141445Z 16006KT 8SM -RA SCT027 SCT031 BKN150 12/09 A2981 RMK AO2 RAE03B21 PRESFR VIRGA NW CB DSNT NW P0000=
200803141411 SPECI KATL 141411Z 28003KT 8SM BKN022 BKN029 BKN090 OVC150 12/08 A2983 RMK AO2 RAE03 P0000=
200803141411 SPECI KATL 141411Z 28003KT 8SM BKN022 BKN029 BKN090 OVC150 12/08 A2983 RMK AO2 RAE03 P0000=
200803141352 METAR KATL 141352Z 00000KT 6SM -RA HZ FEW055 BKN090 OVC150 11/08 A2982 RMK AO2 RAB34 SLP095 BINOVC DSNT NE-E P0001 T01110078=
200803141252 METAR KATL 141252Z 16003KT 10SM FEW075 BKN100 BKN200 BKN250 11/07 A2980 RMK AO2 SLP088 VIRGA OHD-ALQDS T01110072=
200803141152 METAR KATL 141152Z 15005KT 10SM SCT085 BKN150 BKN200 BKN250 11/07 A2982 RMK AO2 SLP097 VIRGA VC W-NW T01110072 10133 20111 58015=
200803141052 METAR KATL 141052Z 23007KT 10SM OVC080 12/07 A2986 RMK AO2 SLP108 T01170067=
200803140952 METAR KATL 140952Z 23005KT 10SM FEW110 BKN150 OVC200 12/06 A2985 RMK AO2 SLP103 T01170061=
200803140852 METAR KATL 140852Z 22005KT 10SM FEW110 BKN150 OVC200 12/06 A2987 RMK AO2 SLP112 T01170056 58010=
200803140752 METAR KATL 140752Z 23005KT 10SM FEW110 BKN150 OVC200 12/05 A2989 RMK AO2 SLP116 T01220050=
200803140652 METAR KATL 140652Z 23007KT 10SM BKN150 OVC200 13/04 A2989 RMK AO2 SLP119 T01280039=
200803140552 METAR KATL 140552Z 22009KT 10SM SCT150 BKN200 OVC250 13/03 A2990 RMK AO2 SLP122 T01280028 10189 20122 56010=
200803140452 METAR KATL 140452Z 20007KT 10SM BKN250 13/03 A2991 RMK AO2 SLP124 T01280028 402220094=
200803140352 METAR KATL 140352Z 21008KT 10SM BKN250 14/03 A2992 RMK AO2 SLP129 T01390028=
200803140252 METAR KATL 140252Z 21008KT 10SM BKN250 15/02 A2993 RMK AO2 SLP133 T01500022 53004=
200803140152 METAR KATL 140152Z 20008KT 10SM SCT200 BKN250 16/03 A2993 RMK AO2 SLP132 T01560028=
200803140052 METAR KATL 140052Z 19005KT 10SM SCT200 BKN250 17/03 A2992 RMK AO2 SLP130 T01670028=
200803132352 METAR KATL 132352Z 22007KT 10SM FEW200 19/02 A2992 RMK AO2 SLP129 T01890022 10222 20189 53003=
200803132252 METAR KATL 132252Z 22013KT 10SM SCT200 21/01 A2990 RMK AO2 SLP122 T02110006=
200803132152 METAR KATL 132152Z 21009G17KT 10SM BKN200 BKN250 21/01 A2989 RMK AO2 SLP117 T02110011=
200803132052 METAR KATL 132052Z 22012G17KT 10SM FEW200 BKN250 BKN300 22/01 A2991 RMK AO2 SLP125 T02170011 56026=
200803131952 METAR KATL 131952Z 22011KT 10SM FEW200 BKN250 BKN300 22/01 A2992 RMK AO2 SLP130 T02170011=
200803131852 METAR KATL 131852Z 20011G14KT 10SM BKN250 BKN300 22/03 A2996 RMK AO2 SLP141 T02170028=
200803131752 METAR KATL 131752Z VRB03KT 10SM FEW250 BKN300 21/03 A2999 RMK AO2 SLP152 T02110028 10211 20100 58016=
200803131652 METAR KATL 131652Z VRB04KT 10SM BKN250 BKN300 20/03 A3002 RMK AO2 SLP162 T02000028=
200803131552 METAR KATL 131552Z VRB03KT 10SM BKN250 BKN300 19/03 A3003 RMK AO2 SLP166 T01940033=
200803131452 METAR KATL 131452Z 32006KT 10SM FEW250 BKN300 17/02 A3004 RMK AO2 SLP170 T01670022 53012=
200803131352 METAR KATL 131352Z 29004KT 10SM SCT250 14/02 A3003 RMK AO2 SLP166 T01440022=
200803131252 METAR KATL 131252Z 00000KT 10SM FEW200 SCT250 11/03 A3001 RMK AO2 SLP160 T01060028=
200803131152 METAR KATL 131152Z 28005KT 8SM FEW250 10/01 A3000 RMK AO2 SLP159 T01000011 10122 20094 53006=
200803131052 METAR KATL 131052Z 29006KT 9SM FEW250 10/01 A3000 RMK AO2 SLP155 T01000011=
200803130952 METAR KATL 130952Z 28004KT 9SM CLR 11/01 A2999 RMK AO2 SLP153 T01060006=
200803130852 METAR KATL 130852Z 27004KT 9SM CLR 11/00 A2999 RMK AO2 SLP152 T01060000 54000=
200803130752 METAR KATL 130752Z 27005KT 9SM CLR 11/00 A2998 RMK AO2 SLP151 T01110000=
200803130652 METAR KATL 130652Z 25004KT 8SM CLR 12/00 A2999 RMK AO2 SLP154 T01170000=
200803130552 METAR KATL 130552Z 24003KT 10SM CLR 11/01 A2999 RMK AO2 SLP152 T01110011 10172 20111 53001=
200803130452 METAR KATL 130452Z 25004KT 10SM CLR 13/M01 A2999 RMK AO2 SLP152 T01331006 402000028=
200803130352 METAR KATL 130352Z 24003KT 10SM CLR 12/01 A2998 RMK AO2 SLP152 T01220006=
200803130252 METAR KATL 130252Z 25005KT 10SM CLR 14/M01 A2998 RMK AO2 SLP153 T01441006 51012=
200803130152 METAR KATL 130152Z 25003KT 10SM CLR 14/00 A2998 RMK AO2 SLP151 T01390000=
200803130052 METAR KATL 130052Z 29004KT 10SM CLR 16/M01 A2996 RMK AO2 SLP147 T01611011=
200803122352 METAR KATL 122352Z 29004KT 10SM CLR 17/M02 A2995 RMK AO2 SLP142 T01721022 10200 20172 55002=
200803122252 METAR KATL 122252Z 28007KT 10SM CLR 18/M02 A2994 RMK AO2 SLP139 T01831017=
200803122152 METAR KATL 122152Z 32011G15KT 10SM CLR 19/M01 A2994 RMK AO2 SLP139 T01941011=
200803122052 METAR KATL 122052Z 27007KT 10SM CLR 19/M02 A2995 RMK AO2 SLP143 T01941017 56020=
200803121952 METAR KATL 121952Z 28012G17KT 10SM CLR 19/M01 A2997 RMK AO2 SLP148 T01941006=
200803121852 METAR KATL 121852Z 33010G14KT 10SM CLR 18/M01 A2999 RMK AO2 SLP154 T01831011=
200803121752 SPECI KATL 121752Z 34010KT 10SM CLR 17/M02 A3002 RMK AO2 SLP165 T01721017 10172 20028 58006=
200803121652 METAR KATL 121652Z 32007KT 10SM CLR 16/M01 A3003 RMK AO2 SLP170 T01561006=
200803121552 METAR KATL 121552Z 33010KT 310V020 10SM CLR 13/M01 A3004 RMK AO2 SLP173 T01331006=
200803121452 METAR KATL 121452Z 31011G19KT 10SM CLR 11/00 A3003 RMK AO2 SLP172 T01110000 51011=
200803121352 METAR KATL 121352Z 31011KT 10SM CLR 08/M01 A3003 RMK AO2 SLP171 T00831006=
200803121252 METAR KATL 121252Z 30009KT 10SM CLR 06/M01 A3001 RMK AO2 SLP167 T00561006=
200803121152 METAR KATL 121152Z 29006KT 10SM CLR 03/M02 A3000 RMK AO2 SLP163 T00331017 10061 20028 53007=
200803121052 METAR KATL 121052Z 30005KT 10SM CLR 03/M02 A2998 RMK AO2 SLP155 T00281017=
200803120952 METAR KATL 120952Z 30005KT 10SM CLR 03/M01 A2997 RMK AO2 SLP152 T00331011=
200803120852 METAR KATL 120852Z 29005KT 10SM CLR 05/M01 A2998 RMK AO2 SLP154 T00501011 58012=
200803120752 METAR KATL 120752Z 29003KT 10SM CLR 05/00 A2999 RMK AO2 SLP158 T00500000=
200803120652 METAR KATL 120652Z 29004KT 10SM CLR 06/01 A3001 RMK AO2 SLP164 T00560011=
200803120552 METAR KATL 120552Z 31007KT 10SM CLR 06/03 A3001 RMK AO2 SLP165 T00610033 10111 20061 55005=
200803120452 METAR KATL 120452Z 28007KT 10SM CLR 08/04 A3001 RMK AO2 SLP165 T00780044 401330072=
200803120352 METAR KATL 120352Z 27003KT 10SM CLR 08/04 A3002 RMK AO2 SLP166 T00780039=
200803120252 METAR KATL 120252Z 30003KT 10SM CLR 09/04 A3003 RMK AO2 SLP171 T00890039 56002=
200803120152 METAR KATL 120152Z 00000KT 10SM CLR 09/04 A3003 RMK AO2 SLP173 T00890039=
200803120052 METAR KATL 120052Z 29003KT 10SM CLR 10/03 A3003 RMK AO2 SLP170 T01000033=
200803112352 METAR KATL 112352Z 00000KT 10SM FEW070 11/03 A3004 RMK AO2 SLP173 T01110033 10133 20106 56012=
200803112252 METAR KATL 112252Z 30008KT 10SM BKN060 OVC080 12/04 A3005 RMK AO2 SLP177 T01170039=
200803112152 METAR KATL 112152Z 33005KT 10SM BKN055 OVC075 11/04 A3006 RMK AO2 SLP179 T01110039=
200803112052 METAR KATL 112052Z 30006KT 10SM BKN055 BKN070 OVC150 12/04 A3007 RMK AO2 SLP184 T01220039 56021=
200803111952 METAR KATL 111952Z 30008KT 10SM SCT055 BKN070 OVC150 13/04 A3008 RMK AO2 SLP187 T01280039=
200803111852 METAR KATL 111852Z 31008KT 10SM BKN080 BKN110 OVC150 13/03 A3011 RMK AO2 SLP196 T01330033=
200803111752 METAR KATL 111752Z 28007KT 10SM FEW070 SCT110 OVC150 13/03 A3014 RMK AO2 SLP206 VIRGA DSNT NE SE NW T01280033 10128 20078 58007=
200803111652 METAR KATL 111652Z 30008KT 10SM FEW060 SCT090 OVC150 11/03 A3016 RMK AO2 SLP215 VIRGA OHD ALQDS T01110028=
200803111622 SPECI KATL 111622Z 28003KT 10SM FEW050 BKN060 BKN110 OVC150 11/03 A3017 RMK AO2 VIRGA OHD ALQDS=
200803111622 SPECI KATL 111622Z 28003KT 10SM FEW050 BKN060 BKN110 OVC150 11/03 A3017 RMK AO2 VIRGA OHD ALQDS=
200803111552 METAR KATL 111552Z 29006KT 10SM BKN070 BKN110 OVC150 11/03 A3018 RMK AO2 SLP219 VIRGA DSNT SE-SW T01110028=
200803111452 METAR KATL 111452Z 31004KT 10SM FEW080 SCT110 BKN150 BKN180 11/03 A3016 RMK AO2 SLP213 T01060033 58003 $=
200803111352 METAR KATL 111352Z 31004KT 10SM FEW080 SCT100 BKN150 BKN180 OVC250 08/02 A3017 RMK AO2 SLP218 VIRGA OHD-S-SW-W BINOVC DSNT N-NE T00830022=
200803111252 METAR KATL 111252Z 00000KT 10SM FEW090 SCT120 BKN200 BKN250 08/02 A3017 RMK AO2 SLP217 VIRGA SE-SW T00830017=
200803111152 METAR KATL 111152Z 31005KT 10SM FEW080 BKN120 OVC200 08/02 A3017 RMK AO2 SLP215 VIRGA VC SW-NW T00780017 10100 20072 53001=
200803111052 METAR KATL 111052Z 33005KT 10SM FEW080 BKN140 OVC200 08/01 A3015 RMK AO2 SLP210 T00780011=
200803110952 METAR KATL 110952Z 30005KT 10SM FEW080 BKN140 OVC200 08/02 A3015 RMK AO2 SLP211 T00780017=
200803110852 METAR KATL 110852Z 30004KT 10SM SCT080 BKN200 BKN250 07/02 A3016 RMK AO2 SLP215 T00720017 58017=
200803110752 METAR KATL 110752Z 29003KT 10SM SCT080 BKN200 BKN250 08/01 A3019 RMK AO2 SLP223 T00830011=
200803110652 METAR KATL 110652Z 00000KT 10SM SCT080 BKN200 BKN250 09/01 A3020 RMK AO2 SLP227 T00890006=
200803110552 METAR KATL 110552Z 00000KT 10SM FEW080 SCT250 09/01 A3022 RMK AO2 SLP232 T00890006 10161 20089 58006=
200803110452 METAR KATL 110452Z 00000KT 10SM FEW080 SCT200 10/01 A3022 RMK AO2 SLP233 T01000011 401830028=
200803110352 METAR KATL 110352Z 00000KT 10SM FEW080 12/M01 A3024 RMK AO2 SLP239 T01221006=
200803110252 METAR KATL 110252Z 32005KT 10SM CLR 12/M01 A3023 RMK AO2 SLP238 T01221006 53003=
200803110152 METAR KATL 110152Z 00000KT 10SM CLR 13/00 A3022 RMK AO2 SLP233 T01330000=
200803110052 METAR KATL 110052Z 28003KT 10SM FEW150 14/M02 A3022 RMK AO2 SLP234 T01441017=
200803102352 METAR KATL 102352Z 29005KT 10SM FEW150 16/M02 A3022 RMK AO2 SLP236 T01611022 10183 20156 56008=
200803102252 METAR KATL 102252Z 21006KT 10SM FEW200 17/M01 A3023 RMK AO2 SLP236 T01721006=
200803102152 METAR KATL 102152Z 21007KT 10SM FEW200 18/M02 A3023 RMK AO2 SLP237 T01781017=
200803102052 METAR KATL 102052Z VRB04KT 10SM FEW250 18/M02 A3025 RMK AO2 SLP244 T01781017 56029=
200803101952 METAR KATL 101952Z 23008KT 10SM CLR 17/M02 A3027 RMK AO2 SLP251 T01721017=
200803101852 METAR KATL 101852Z 27005KT 10SM FEW250 17/M02 A3031 RMK AO2 SLP263 T01721017=
200803101752 METAR KATL 101752Z 00000KT 10SM FEW250 16/M02 A3034 RMK AO2 SLP274 T01561022 10156 20039 58018=
200803101652 METAR KATL 101652Z 00000KT 10SM SCT250 14/M02 A3038 RMK AO2 SLP288 T01441022=
200803101552 METAR KATL 101552Z 15003KT 10SM BKN250 13/M02 A3039 RMK AO2 SLP293 T01331022=
200803101452 METAR KATL 101452Z 00000KT 10SM BKN250 12/M02 A3039 RMK AO2 SLP294 T01221022 53006=
200803101352 METAR KATL 101352Z 00000KT 10SM FEW250 09/M01 A3038 RMK AO2 SLP293 T00891011=
200803101252 METAR KATL 101252Z 00000KT 10SM FEW250 06/M01 A3038 RMK AO2 SLP291 T00611011=
200803101152 METAR KATL 101152Z 00000KT 10SM FEW200 04/M02 A3037 RMK AO2 SLP289 T00441017 10067 20028 53005=
200803101052 METAR KATL 101052Z 00000KT 10SM FEW250 04/M01 A3037 RMK AO2 SLP288 T00391011=
200803100952 METAR KATL 100952Z 00000KT 10SM FEW250 04/M02 A3036 RMK AO2 SLP283 T00391017=
200803100852 METAR KATL 100852Z 00000KT 10SM FEW250 05/M01 A3036 RMK AO2 SLP283 T00501011 56006=
200803100752 METAR KATL 100752Z 00000KT 10SM FEW250 06/M02 A3036 RMK AO2 SLP284 T00561017=
200803100652 METAR KATL 100652Z 00000KT 10SM FEW250 04/M02 A3037 RMK AO2 SLP288 T00441017=
200803100552 METAR KATL 100552Z 00000KT 10SM SCT250 07/M02 A3037 RMK AO2 SLP290 T00671022 10117 20050 51001=
200803100452 METAR KATL 100452Z 00000KT 10SM SCT250 07/M01 A3037 RMK AO2 SLP289 T00671011 401281022=
200803100352 METAR KATL 100352Z 00000KT 10SM FEW250 07/M01 A3038 RMK AO2 SLP292 T00671006=
200803100252 METAR KATL 100252Z 00000KT 10SM FEW250 08/M01 A3037 RMK AO2 SLP290 T00781011 53011=
200803100152 METAR KATL 100152Z 00000KT 10SM SCT259 08/M02 A3035 RMK AO2 SLP284 T00831022=
200803100052 METAR KATL 100052Z 00000KT 10SM SCT250 11/M04 A3034 RMK AO2 SLP281 T01061044=
200803092352 METAR KATL 092352Z 00000KT 10SM FEW250 12/M06 A3034 RMK AO2 SLP280 T01171056 10128 20083 55000=
200803092252 METAR KATL 092252Z 00000KT 10SM FEW250 12/M05 A3033 RMK AO2 SLP277 T01221050 $=
200803092152 METAR KATL 092152Z 00000KT 10SM FEW250 13/M06 A3033 RMK AO2 SLP275 T01281061 $=
200803092052 METAR KATL 092052Z VRB05KT 10SM FEW250 12/M05 A3034 RMK AO2 SLP279 T01221050 56015 $=
200803091952 METAR KATL 091952Z VRB05KT 10SM FEW250 11/M04 A3034 RMK AO2 SLP281 T01111044 $=
200803091852 METAR KATL 091852Z VRB06KT 10SM CLR 10/M04 A3036 RMK AO2 SLP288 T01001039 $=
200803091752 METAR KATL 091752Z 36010G18KT 10SM CLR 09/M03 A3039 RMK AO2 SLP296 T00891033 10089 21022 58000 $=
200803091652 METAR KATL 091652Z 30011G16KT 10SM CLR 08/M03 A3041 RMK AO2 SLP306 T00781033 $=
200803091552 METAR KATL 091552Z 32010G15KT 10SM CLR 06/M04 A3041 RMK AO2 SLP305 T00561044 $=
200803091452 METAR KATL 091452Z 33005KT 10SM CLR 04/M06 A3039 RMK AO2 SLP298 T00391056 51022 $=
200803091352 METAR KATL 091352Z 32005KT 10SM FEW250 02/M06 A3037 RMK AO2 SLP292 T00171056 $=
200803091252 METAR KATL 091252Z 31006KT 10SM CLR M01/M06 A3035 RMK AO2 SLP286 T10061056 $=
200803091152 METAR KATL 091152Z 26003KT 10SM FEW250 M02/M06 A3032 RMK AO2 SLP277 T10171061 10000 21017 53022 $=
200803091052 METAR KATL 091052Z 28003KT 10SM FEW250 M02/M06 A3028 RMK AO2 SLP264 T10171061 $=
200803090952 METAR KATL 090952Z 00000KT 10SM CLR M01/M06 A3027 RMK AO2 SLP259 T10111061 $=
200803090852 METAR KATL 090852Z 00000KT 10SM CLR M01/M06 A3025 RMK AO2 SLP252 T10061061 50005 $=
200803090752 METAR KATL 090752Z 28004KT 10SM CLR M01/M07 A3026 RMK AO2 SLP255 T10061067 $=
200803090652 METAR KATL 090652Z 29003KT 10SM CLR M01/M07 A3026 RMK AO2 SLP255 T10061067 $=
200803090552 METAR KATL 090552Z 29004KT 10SM CLR 00/M06 A3024 RMK AO2 SLP248 T00001061 10033 20000 53010 $=
200803090452 METAR KATL 090452Z 29004KT 10SM CLR 00/M06 A3023 RMK AO2 SLP245 T00001061 401441006 $=
200803090352 METAR KATL 090352Z 30006KT 10SM CLR 01/M06 A3021 RMK AO2 SLP241 T00111061 $=
200803090252 METAR KATL 090252Z 27005KT 10SM CLR 01/M06 A3021 RMK AO2 SLP238 T00111061 53019 $=
200803090152 METAR KATL 090152Z 27004KT 10SM CLR 02/M06 A3017 RMK AO2 SLP225 T00171061 $=
200803090052 METAR KATL 090052Z 28007KT 10SM CLR 02/M06 A3015 RMK AO2 SLP219 T00221061 $=
200803082352 METAR KATL 082352Z 30011KT 10SM FEW045 03/M07 A3015 RMK AO2 SLP217 T00281067 10050 20022 53028 $=
200803082252 METAR KATL 082252Z 29015G18KT 10SM FEW045 04/M06 A3012 RMK AO2 SLP205 T00391061 $=
200803082152 METAR KATL 082152Z 29014KT 10SM FEW045 04/M06 A3008 RMK AO2 PK WND 29028/2055 SLP192 T00441061 $=
200803082052 METAR KATL 082052Z 28017G22KT 10SM SCT040 04/M05 A3006 RMK AO2 PK WND 31029/2024 SLP184 T00441050 53019 $=
200803081952 METAR KATL 081952Z 30013G20KT 10SM SCT040 04/M04 A3001 RMK AO2 PK WND 30030/1931 SLP168 T00441044 $=
200803081852 METAR KATL 081852Z 29014G27KT 10SM SCT035 04/M04 A2999 RMK AO2 PK WND 28028/1814 SLP159 T00391044 $=
200803081752 METAR KATL 081752Z 30019G32KT 10SM BKN035 BKN150 02/M05 A3000 RMK AO2 PK WND 29032/1743 SLP163 MDT CU ALQDS 60000 T00221050 10028 21006 51040 $=
200803081652 METAR KATL 081652Z 29024G33KT 10SM BKN035 BKN150 01/M06 A2997 RMK AO2 PK WND 29033/1645 SNE30 SLP150 P0000 T00061061 $=
200803081631 SPECI KATL 081631Z 28020G31KT 8SM SCT035 BKN042 BKN150 00/M07 A2995 RMK AO2 PK WND 27031/1626 SNE30 SHSN DSNT E P0000 $=
200803081631 SPECI KATL 081631Z 28020G31KT 8SM SCT035 BKN042 BKN150 00/M07 A2995 RMK AO2 PK WND 27031/1626 SNE30 SHSN DSNT E P0000 $=
200803081617 SPECI KATL 081617Z 28021G29KT 8SM -SN SCT031 BKN040 BKN150 00/M06 A2995 RMK AO2 PK WND 30031/1604 SHSN VC NW P0000=
200803081617 SPECI KATL 081617Z 28021G29KT 8SM -SN SCT031 BKN040 BKN150 00/M06 A2995 RMK AO2 PK WND 30031/1604 SHSN VC NW P0000=
200803081608 SPECI KATL 081608Z 28021G31KT 8SM SCT031 BKN040 00/M06 A2994 RMK AO2 PK WND 30031/1604 SNE07 P0000=
200803081608 SPECI KATL 081608Z 28021G31KT 8SM SCT031 BKN040 00/M06 A2994 RMK AO2 PK WND 30031/1604 SNE07 P0000=
200803081552 METAR KATL 081552Z 29018G31KT 8SM -SN BKN032 BKN042 00/M06 A2993 RMK AO2 PK WND 28033/1535 SLP138 SHSN VC NE-SE AND DSNT NW P0000 T00001061=
200803081541 SPECI KATL 081541Z 28022G33KT 8SM -SN BKN030 BKN040 00/M06 A2993 RMK AO2 PK WND 28033/1535 SHSN VC N-NE AND NW-N P0000=
200803081541 SPECI KATL 081541Z 28022G33KT 8SM -SN BKN030 BKN040 00/M06 A2993 RMK AO2 PK WND 28033/1535 SHSN VC N-NE AND NW-N P0000=
200803081528 SPECI KATL 081528Z 28023G31KT 8SM -SN BKN026 BKN034 BKN043 00/M06 A2991 RMK AO2 PK WND 29031/1527 BKN026 V SCT SHSN VC NW P0000=
200803081528 SPECI KATL 081528Z 28023G31KT 8SM -SN BKN026 BKN034 BKN043 00/M06 A2991 RMK AO2 PK WND 29031/1527 BKN026 V SCT SHSN VC NW P0000=
200803081519 SPECI KATL 081519Z 26016G25KT 8SM SCT026 BKN034 BKN043 01/M05 A2990 RMK AO2 PK WND 27029/1504 SNE19 SCT026 V SCT SHSN DSNT E AND NW P0000=
200803081519 SPECI KATL 081519Z 26016G25KT 8SM SCT026 BKN034 BKN043 01/M05 A2990 RMK AO2 PK WND 27029/1504 SNE19 SCT026 V SCT SHSN DSNT E AND NW P0000=
200803081510 SPECI KATL 081510Z 29018G29KT 8SM -SN SCT023 BKN028 BKN042 01/M04 A2990 RMK AO2 PK WND 27029/1504 SHSN DSNT E AND NW P0000=
200803081510 SPECI KATL 081510Z 29018G29KT 8SM -SN SCT023 BKN028 BKN042 01/M04 A2990 RMK AO2 PK WND 27029/1504 SHSN DSNT E AND NW P0000=
200803081452 METAR KATL 081452Z 28020G29KT 4SM -SN SCT028 BKN038 01/M04 A2988 RMK AO2 PK WND 27029/1450 SLP121 SCT028 V BKN VIS 1 N-E VIS 1 W-N P0000 60000 T00061039 51038 $=
200803081450 SPECI KATL 081450Z 28022G29KT 4SM -SN SCT028 BKN038 00/M04 A2988 RMK AO2 PK WND 27029/1450 PRESRR SCT028 V BKN VIS 1 N-E VIS 1 W-N P0000 $=
200803081450 SPECI KATL 081450Z 28022G29KT 4SM -SN SCT028 BKN038 00/M04 A2988 RMK AO2 PK WND 27029/1450 PRESRR SCT028 V BKN VIS 1 N-E VIS 1 W-N P0000 $=
200803081435 SPECI KATL 081435Z 28021G29KT 5SM -SN SCT014 BKN027 OVC035 01/M03 A2986 RMK AO2 PK WND 29029/1435 SCT014 V BKN P0000=
200803081435 SPECI KATL 081435Z 28021G29KT 5SM -SN SCT014 BKN027 OVC035 01/M03 A2986 RMK AO2 PK WND 29029/1435 SCT014 V BKN P0000=
200803081352 METAR KATL 081352Z 27016G22KT 1 1/2SM -SN BR BKN014 BKN020 OVC040 01/M01 A2982 RMK AO2 SFC VIS 2 SLP099 P0000 T00111011=
200803081252 METAR KATL 081252Z 26015G23KT 1 1/2SM -SN BR SCT008 BKN014 OVC040 01/M01 A2977 RMK AO2 PK WND 26029/1226 SFC VIS 3 RAE17PLB04E33SNB17 SLP081 P0000 T00111011=
200803081247 SPECI KATL 081247Z 26013G22KT 1 1/2SM -SN BR SCT008 BKN014 OVC040 01/M01 A2977 RMK AO2 PK WND 26029/1226 SFC VIS 2 1/2 RAE17PLB04E33SNB17 P0000=
200803081247 SPECI KATL 081247Z 26013G22KT 1 1/2SM -SN BR SCT008 BKN014 OVC040 01/M01 A2977 RMK AO2 PK WND 26029/1226 SFC VIS 2 1/2 RAE17PLB04E33SNB17 P0000=
200803081241 SPECI KATL 081241Z 26012G23KT 1 1/2SM -SN BR FEW004 SCT008 OVC012 01/M01 A2976 RMK AO2 PK WND 26029/1226 SFC VIS 2 1/2 RAE17PLB04E33SNB17 P0000=
200803081241 SPECI KATL 081241Z 26012G23KT 1 1/2SM -SN BR FEW004 SCT008 OVC012 01/M01 A2976 RMK AO2 PK WND 26029/1226 SFC VIS 2 1/2 RAE17PLB04E33SNB17 P0000=
200803081226 SPECI KATL 081226Z 26020G29KT 1 1/2SM -SNPL BR FEW004 BKN008 OVC012 01/M01 A2975 RMK AO2 PK WND 26029/1226 RAE17PLB04SNB17 P0000=
200803081226 SPECI KATL 081226Z 26020G29KT 1 1/2SM -SNPL BR FEW004 BKN008 OVC012 01/M01 A2975 RMK AO2 PK WND 26029/1226 RAE17PLB04SNB17 P0000=
200803081221 SPECI KATL 081221Z 27018G26KT 1 1/2SM -PLSN BR FEW005 OVC012 02/M01 A2975 RMK AO2 PK WND 25026/1221 SFC VIS 2 RAE17PLB04SNB17 P0000=
200803081221 SPECI KATL 081221Z 27018G26KT 1 1/2SM -PLSN BR FEW005 OVC012 02/M01 A2975 RMK AO2 PK WND 25026/1221 SFC VIS 2 RAE17PLB04SNB17 P0000=
200803081219 SPECI KATL 081219Z 26016G22KT 2 1/2SM -PLSN OVC012 02/M01 A2974 RMK AO2 PK WND 27026/1207 RAE17PLB04SNB17 VIS W-N 1 1/2 P0000=
200803081219 SPECI KATL 081219Z 26016G22KT 2 1/2SM -PLSN OVC012 02/M01 A2974 RMK AO2 PK WND 27026/1207 RAE17PLB04SNB17 VIS W-N 1 1/2 P0000=
200803081205 SPECI KATL 081205Z 26015G26KT 7SM -PLRA BKN014 OVC029 02/M01 A2973 RMK AO2 PK WND 25026/1159 PLB04 PCPN VRY LGT P0000=
200803081205 SPECI KATL 081205Z 26015G26KT 7SM -PLRA BKN014 OVC029 02/M01 A2973 RMK AO2 PK WND 25026/1159 PLB04 PCPN VRY LGT P0000=
200803081152 METAR KATL 081152Z 25013G23KT 5SM -RA BR OVC014 03/01 A2972 RMK AO2 PK WND 25027/1132 RAB40 SLP064 P0000 60000 70023 T00280006 10122 20028 53023=
200803081150 SPECI KATL 081150Z 25015G23KT 5SM -RA BR OVC014 03/01 A2972 RMK AO2 PK WND 25027/1132 RAB40 P0000=
200803081150 SPECI KATL 081150Z 25015G23KT 5SM -RA BR OVC014 03/01 A2972 RMK AO2 PK WND 25027/1132 RAB40 P0000=
200803081114 SPECI KATL 081114Z 23013G22KT 10SM BKN015 BKN031 OVC060 03/01 A2970 RMK AO2=
200803081114 SPECI KATL 081114Z 23013G22KT 10SM BKN015 BKN031 OVC060 03/01 A2970 RMK AO2=
200803081052 METAR KATL 081052Z 24012G21KT 10SM SCT015 BKN031 BKN060 04/01 A2970 RMK AO2 PK WND 24028/1007 RAB27E36 SLP056 P0000 T00390011=
200803081045 SPECI KATL 081045Z 25014G24KT 10SM SCT017 BKN043 BKN060 04/01 A2969 RMK AO2 PK WND 24028/1007 RAB27E36 P0000=
200803081045 SPECI KATL 081045Z 25014G24KT 10SM SCT017 BKN043 BKN060 04/01 A2969 RMK AO2 PK WND 24028/1007 RAB27E36 P0000=
200803080952 METAR KATL 080952Z 24013G20KT 10SM SCT020 BKN028 BKN055 05/02 A2966 RMK AO2 PK WND 23033/0920 RAB19E32 SLP043 P0000 T00500017=
200803080852 METAR KATL 080852Z 25015G24KT 10SM SCT014 BKN017 OVC030 07/02 A2965 RMK AO2 PK WND 22029/0832 SLP038 60000 T00670022 53016=
200803080820 SPECI KATL 080820Z 24016G23KT 10SM BKN017 BKN028 OVC036 08/04 A2964 RMK AO2=
200803080820 SPECI KATL 080820Z 24016G23KT 10SM BKN017 BKN028 OVC036 08/04 A2964 RMK AO2=
200803080752 METAR KATL 080752Z 25014G21KT 10SM BKN014 OVC022 08/06 A2964 RMK AO2 PK WND 27027/0722 RAB23E43 SLP034 P0000 T00830056=
200803080656 SPECI KATL 080656Z 26013G19KT 10SM BKN014 OVC022 11/08 A2961 RMK AO2=
200803080656 SPECI KATL 080656Z 26013G19KT 10SM BKN014 OVC022 11/08 A2961 RMK AO2=
200803080652 METAR KATL 080652Z 25009G19KT 9SM BKN015 OVC022 11/08 A2961 RMK AO2 RAB02E26 SLP023 P0000 T01110083=
200803080552 METAR KATL 080552Z 24013G19KT 9SM BKN016 BKN024 OVC070 12/09 A2960 RMK AO2 SLP020 T01220089 10178 20122 53010=
200803080528 SPECI KATL 080528Z 26012G23KT 10SM BKN018 BKN029 OVC070 13/09 A2958 RMK AO2=
200803080528 SPECI KATL 080528Z 26012G23KT 10SM BKN018 BKN029 OVC070 13/09 A2958 RMK AO2=
200803080452 METAR KATL 080452Z 24011G25KT 10SM FEW015 SCT025 BKN035 14/11 A2957 RMK AO2 WSHFT 0423 SLP009 T01440111 402000106=
200803080440 SPECI KATL 080440Z 25012KT 10SM BKN016 BKN025 OVC040 15/12 A2956 RMK AO2 WSHFT 0423=
200803080440 SPECI KATL 080440Z 25012KT 10SM BKN016 BKN025 OVC040 15/12 A2956 RMK AO2 WSHFT 0423=
200803080424 SPECI KATL 080424Z 22018G22KT 10SM BKN022 BKN035 BKN060 17/13 A2956 RMK AO2=
200803080424 SPECI KATL 080424Z 22018G22KT 10SM BKN022 BKN035 BKN060 17/13 A2956 RMK AO2=
200803080406 SPECI KATL 080406Z 19011G20KT 10SM SCT015 BKN030 BKN065 16/14 A2956 RMK AO2=
200803080406 SPECI KATL 080406Z 19011G20KT 10SM SCT015 BKN030 BKN065 16/14 A2956 RMK AO2=
200803080352 METAR KATL 080352Z 19011G20KT 10SM BKN015 BKN028 BKN050 17/14 A2957 RMK AO2 SLP009 T01670139=
200803080318 SPECI KATL 080318Z 17012KT 10SM BKN016 BKN035 BKN110 17/14 A2957 RMK AO2=
200803080318 SPECI KATL 080318Z 17012KT 10SM BKN016 BKN035 BKN110 17/14 A2957 RMK AO2=
200803080252 METAR KATL 080252Z 17012KT 10SM FEW015 SCT080 SCT250 17/14 A2957 RMK AO2 SLP008 T01670139 56010=
200803080218 SPECI KATL 080218Z 16010KT 10SM FEW015 BKN090 BKN250 17/14 A2957 RMK AO2=
200803080218 SPECI KATL 080218Z 16010KT 10SM FEW015 BKN090 BKN250 17/14 A2957 RMK AO2=
200803080206 SPECI KATL 080206Z 17010KT 10SM BKN015 BKN090 BKN250 17/14 A2957 RMK AO2 BKN015 V SCT=
200803080206 SPECI KATL 080206Z 17010KT 10SM BKN015 BKN090 BKN250 17/14 A2957 RMK AO2 BKN015 V SCT=
200803080152 METAR KATL 080152Z 16010KT 10SM FEW018 BKN095 BKN250 17/14 A2958 RMK AO2 SLP012 T01670144=
200803080052 METAR KATL 080052Z 15008KT 10SM FEW018 SCT025 BKN110 BKN250 17/14 A2957 RMK AO2 SLP012 T01720144=
200803080011 SPECI KATL 080011Z 17010KT 10SM BKN022 BKN100 BKN250 17/14 A2960 RMK AO2 CB DSNT W-NW=
200803080011 SPECI KATL 080011Z 17010KT 10SM BKN022 BKN100 BKN250 17/14 A2960 RMK AO2 CB DSNT W-NW=
200803072352 METAR KATL 072352Z 18010KT 10SM FEW025 SCT100 BKN150 BKN250 18/14 A2960 RMK AO2 RAE12 SLP020 CB DSNT SW AND NW-N P0000 60000 T01780139 10200 20178 51006=
200803072252 METAR KATL 072252Z 18014G21KT 10SM -RA SCT025 BKN035 OVC140 19/14 A2960 RMK AO2 RAB52 SLP019 P0000 T01890139=
200803072152 METAR KATL 072152Z 16013KT 10SM FEW030 SCT120 OVC150 20/13 A2959 RMK AO2 SLP018 VIRGA DSNT SW-N T02000133=
200803072052 METAR KATL 072052Z 16009KT 10SM FEW030 SCT060 BKN150 BKN200 19/13 A2958 RMK AO2 SLP013 VIRGA DSNT W T01940133 58036=
200803071952 METAR KATL 071952Z 20008KT 10SM FEW027 SCT032TCU BKN070 OVC200 19/14 A2964 RMK AO2 SLP034 TCU DSNT E VC W-N BINOVC T01940144=
200803071915 SPECI KATL 071915Z 18005KT 10SM SCT020 BKN030 OVC065 19/14 A2967 RMK AO2 BINOVC=
200803071915 SPECI KATL 071915Z 18005KT 10SM SCT020 BKN030 OVC065 19/14 A2967 RMK AO2 BINOVC=
200803071852 METAR KATL 071852Z 18009KT 10SM BKN025 BKN032 OVC050 18/14 A2967 RMK AO2 SLP045 T01830139=
200803071844 SPECI KATL 071844Z 19005KT 10SM BKN025 BKN032 OVC050 19/14 A2967 RMK AO2=
200803071844 SPECI KATL 071844Z 19005KT 10SM BKN025 BKN032 OVC050 19/14 A2967 RMK AO2=
200803071814 SPECI KATL 071814Z 20012G15KT 10SM FEW019 SCT025 OVC032 18/14 A2968 RMK AO2=
200803071814 SPECI KATL 071814Z 20012G15KT 10SM FEW019 SCT025 OVC032 18/14 A2968 RMK AO2=
200803071759 SPECI KATL 071759Z 18007KT 10SM FEW019 BKN025 OVC033 18/14 A2969 RMK AO2=
200803071759 SPECI KATL 071759Z 18007KT 10SM FEW019 BKN025 OVC033 18/14 A2969 RMK AO2=
200803071752 METAR KATL 071752Z 20009KT 10SM SCT023 BKN033 OVC040 18/14 A2969 RMK AO2 SLP049 60023 T01780139 10183 20117 53006=
200803071652 METAR KATL 071652Z 18011KT 10SM BKN018 BKN025 OVC095 18/14 A2967 RMK AO2 SLP044 T01780139=
200803071623 SPECI KATL 071623Z 19014G18KT 10SM FEW015 BKN025 BKN095 18/14 A2966 RMK AO2=
200803071623 SPECI KATL 071623Z 19014G18KT 10SM FEW015 BKN025 BKN095 18/14 A2966 RMK AO2=
200803071552 METAR KATL 071552Z 17008KT 10SM BKN010 BKN035 OVC095 16/14 A2966 RMK AO2 SLP040 BINOVC T01610139=
200803071512 SPECI KATL 071512Z 16010G15KT 9SM BKN010 BKN015 OVC095 15/13 A2966 RMK AO2 BINOVC=
200803071512 SPECI KATL 071512Z 16010G15KT 9SM BKN010 BKN015 OVC095 15/13 A2966 RMK AO2 BINOVC=
200803071452 METAR KATL 071452Z 15009G18KT 9SM BKN008 BKN014 OVC095 15/13 A2967 RMK AO2 SLP044 BINOVC 60023 T01500133 58011=
200803071422 SPECI KATL 071422Z 14007KT 10SM BKN010 BKN014 OVC095 14/13 A2967 RMK AO2 BINOVC=
200803071422 SPECI KATL 071422Z 14007KT 10SM BKN010 BKN014 OVC095 14/13 A2967 RMK AO2 BINOVC=
200803071352 METAR KATL 071352Z 16012G21KT 9SM FEW004 BKN008 OVC070 14/13 A2968 RMK AO2 PK WND 14034/1314 RAE25 SLP048 P0002 T01440128=
200803071324 SPECI KATL 071324Z 15017G32KT 6SM -RA BR SCT004 BKN008 OVC120 14/13 A2966 RMK AO2 PK WND 14034/1314 P0002=
200803071324 SPECI KATL 071324Z 15017G32KT 6SM -RA BR SCT004 BKN008 OVC120 14/13 A2966 RMK AO2 PK WND 14034/1314 P0002=
200803071318 SPECI KATL 071318Z 15022G34KT 3SM -RA BR SCT004 BKN008 OVC015 13/13 A2963 RMK AO2 PK WND 14034/1314 SFC VIS 5 P0002=
200803071318 SPECI KATL 071318Z 15022G34KT 3SM -RA BR SCT004 BKN008 OVC015 13/13 A2963 RMK AO2 PK WND 14034/1314 SFC VIS 5 P0002=
200803071314 SPECI KATL 071314Z 14022G34KT 2SM -RA BR BKN004 OVC008 13/12 A2962 RMK AO2 PK WND 14034/1314 SFC VIS 4 PRESFR P0002=
200803071314 SPECI KATL 071314Z 14022G34KT 2SM -RA BR BKN004 OVC008 13/12 A2962 RMK AO2 PK WND 14034/1314 SFC VIS 4 PRESFR P0002=
200803071252 METAR KATL 071252Z 15011KT 1SM -RA BR OVC004 13/12 A2972 RMK AO2 SFC VIS 2 SLP060 P0021 T01280117=
200803071229 SPECI KATL 071229Z 15011KT 1SM RA BR OVC004 12/11 A2971 RMK AO2 SFC VIS 2 P0014=
200803071229 SPECI KATL 071229Z 15011KT 1SM RA BR OVC004 12/11 A2971 RMK AO2 SFC VIS 2 P0014=
200803071210 SPECI KATL 071210Z 14011G16KT 2SM RA BR OVC006 12/11 A2970 RMK AO2 SFC VIS 3 P0008=
200803071210 SPECI KATL 071210Z 14011G16KT 2SM RA BR OVC006 12/11 A2970 RMK AO2 SFC VIS 3 P0008=
200803071152 METAR KATL 071152Z 14013G19KT 3SM RA BR OVC007 11/11 A2970 RMK AO2 SLP056 CIG 003V010 P0012 60049 70049 T01110106 10139 20106 56033=
200803071110 SPECI KATL 071110Z 12012G18KT 7SM -RA BKN009 OVC015 11/10 A2971 RMK AO2 P0001=
200803071110 SPECI KATL 071110Z 12012G18KT 7SM -RA BKN009 OVC015 11/10 A2971 RMK AO2 P0001=
200803071052 METAR KATL 071052Z COR 10010KT 5SM -RA BR BKN010 OVC016 11/09 A2972 RMK AO2 PRESFR SLP060 P0012 T01060094=
200803071042 SPECI KATL 071042Z 11010KT 5SM -RA BR BKN014 OVC019 11/09 A2973 RMK AO2 PRESFR CB MOV N P0011=
200803071042 SPECI KATL 071042Z 11010KT 5SM -RA BR BKN014 OVC019 11/09 A2973 RMK AO2 PRESFR CB MOV N P0011=
200803070952 METAR KATL 070952Z 12006KT 4SM RA BR SCT012 OVC028 11/09 A2978 RMK AO2 TSE49 SLP080 LTG DSNT N TS MOV N CB DSNT NW-NE MOV N P0023 T01060089=
200803070949 SPECI KATL 070949Z 13007KT 4SM RA BR SCT012 OVC028 11/09 A2978 RMK AO2 TSE49 LTG DSNT N TS MOV N CB DSNT NW-NE MOV N P0022=
200803070949 SPECI KATL 070949Z 13007KT 4SM RA BR SCT012 OVC028 11/09 A2978 RMK AO2 TSE49 LTG DSNT N TS MOV N CB DSNT NW-NE MOV N P0022=
200803070934 SPECI KATL 070934Z 12009KT 3SM +TSRA SCT015 OVC028CB 11/08 A2978 RMK AO2 OCNL LTGIC VC N TS OHD-W-N MOV N CB DSNT SW-N MOV N P0014=
200803070934 SPECI KATL 070934Z 12009KT 3SM +TSRA SCT015 OVC028CB 11/08 A2978 RMK AO2 OCNL LTGIC VC N TS OHD-W-N MOV N CB DSNT SW-N MOV N P0014=
200803070852 METAR KATL 070852Z 14008KT 6SM TSRA BKN036CB OVC070 13/07 A2981 RMK AO2 TSB21RAB38 SLP089 OCNL LTGICCG SW AND NW TS SW-NW MOV N CB DSNT S-W MOV N P0002 60002 T01280067 56033=
200803070821 SPECI KATL 070821Z 12009KT 10SM TS BKN040CB OVC070 13/04 A2980 RMK AO2 TSB21 OCNL LTGICCG TS VC NW MOV N CB DSNT S-W MOV N=
200803070821 SPECI KATL 070821Z 12009KT 10SM TS BKN040CB OVC070 13/04 A2980 RMK AO2 TSB21 OCNL LTGICCG TS VC NW MOV N CB DSNT S-W MOV N=
200803070752 METAR KATL 070752Z 12008KT 10SM BKN042 OVC070 12/03 A2983 RMK AO2 RAB12E22 SLP097 CB DSNT S-W MOV N P0000 T01220033=
200803070652 METAR KATL 070652Z 10006KT 10SM BKN044 BKN075 OVC250 13/01 A2987 RMK AO2 SLP113 T01280011=
200803070552 METAR KATL 070552Z 11007KT 10SM BKN075 OVC250 14/M01 A2991 RMK AO2 SLP124 T01391006 10178 20122 58017=
200803070452 METAR KATL 070452Z 10004KT 10SM OVC080 13/00 A2994 RMK AO2 SLP136 T01280000 402060022=
200803070352 METAR KATL 070352Z 11004KT 10SM FEW250 12/M01 A2993 RMK AO2 SLP134 T01221006=
200803070252 METAR KATL 070252Z 12005KT 10SM FEW250 14/M01 A2996 RMK AO2 SLP144 T01391011 58003=
200803070152 METAR KATL 070152Z 11003KT 10SM FEW250 15/M01 A2996 RMK AO2 SLP145 T01501011=
200803070052 METAR KATL 070052Z 11005KT 10SM FEW090 16/M01 A2997 RMK AO2 SLP150 T01611006=
200803062352 METAR KATL 062352Z 12005KT 10SM FEW090 18/M02 A2997 RMK AO2 SLP148 T01781017 10206 20178 53003=
200803062252 METAR KATL 062252Z 13006KT 10SM FEW090 19/M01 A2997 RMK AO2 SLP148 T01941011=
200803062152 METAR KATL 062152Z 12005KT 10SM FEW200 20/M01 A2995 RMK AO2 SLP143 T02001011=
200803062052 SPECI KATL 062052Z VRB05KT 10SM FEW200 20/M01 A2996 RMK AO2 SLP145 T02001006 56025=
200803061952 METAR KATL 061952Z VRB04KT 10SM FEW240 19/00 A2998 RMK AO2 SLP153 T01940000=
200803061852 METAR KATL 061852Z 07008KT 10SM FEW240 19/M02 A3000 RMK AO2 SLP158 T01941022=
200803061752 METAR KATL 061752Z VRB03KT 10SM FEW240 18/M01 A3003 RMK AO2 SLP171 T01781006 10183 20022 58019=
200803061652 METAR KATL 061652Z 05007KT 10SM CLR 16/M01 A3007 RMK AO2 SLP184 T01611006=
200803061552 METAR KATL 061552Z 01009KT 10SM FEW240 14/M02 A3009 RMK AO2 SLP189 T01391017=
200803061452 METAR KATL 061452Z 36012KT 10SM FEW240 12/01 A3009 RMK AO2 SLP192 T01170011 51008=
200803061352 METAR KATL 061352Z 34010KT 10SM FEW250 08/02 A3009 RMK AO2 SLP192 T00780017=
200803061252 METAR KATL 061252Z 32006KT 10SM FEW250 03/01 A3008 RMK AO2 SLP190 T00330006=
200803061152 METAR KATL 061152Z 32004KT 10SM FEW250 03/M01 A3007 RMK AO2 SLP185 T00281006 10061 20022 53013=
200803061052 METAR KATL 061052Z 34003KT 10SM FEW250 03/00 A3005 RMK AO2 SLP177 T00280000=
200803060952 METAR KATL 060952Z 31004KT 10SM FEW250 03/00 A3004 RMK AO2 SLP175 T00280000=
200803060852 METAR KATL 060852Z 31006KT 10SM FEW250 03/01 A3003 RMK AO2 SLP171 T00330006 53003=
200803060752 METAR KATL 060752Z 31007KT 10SM FEW250 04/01 A3003 RMK AO2 SLP171 T00390006=
200803060652 METAR KATL 060652Z 00000KT 10SM FEW250 06/01 A3001 RMK AO2 SLP166 T00560011=
200803060552 METAR KATL 060552Z 34005KT 10SM FEW250 06/01 A3002 RMK AO2 SLP169 T00560011 10117 20056 58007=
200803060452 METAR KATL 060452Z 34005KT 10SM FEW250 07/01 A3003 RMK AO2 SLP173 T00670011 401440011=
200803060352 METAR KATL 060352Z 31005KT 10SM FEW250 07/01 A3004 RMK AO2 SLP178 T00720011=
200803060252 METAR KATL 060252Z 31005KT 10SM FEW250 08/02 A3004 RMK AO2 SLP177 T00830017 51020=
200803060152 METAR KATL 060152Z 31005KT 10SM FEW250 09/01 A3002 RMK AO2 SLP172 T00890011=
200803060052 METAR KATL 060052Z 33005KT 10SM FEW250 11/01 A3000 RMK AO2 SLP163 T01060011=
200803052352 METAR KATL 052352Z 33008KT 10SM FEW250 12/01 A2998 RMK AO2 SLP157 T01170011 10144 20089 53007=
200803052252 METAR KATL 052252Z 30008KT 10SM FEW250 13/01 A2997 RMK AO2 SLP152 T01330011=
200803052152 METAR KATL 052152Z 33005KT 10SM FEW240 14/01 A2996 RMK AO2 SLP147 T01390011=
200803052052 METAR KATL 052052Z 31011KT 10SM FEW240 13/01 A2996 RMK AO2 SLP147 T01330011 56013=
200803051952 METAR KATL 051952Z 32006KT 10SM FEW240 13/01 A2996 RMK AO2 SLP147 T01280011=
200803051852 METAR KATL 051852Z 31009KT 10SM FEW240 11/01 A2997 RMK AO2 SLP152 T01110011=
200803051752 METAR KATL 051752Z 32007KT 10SM CLR 09/01 A3000 RMK AO2 SLP161 T00890006 10089 20011 58004=
200803051652 METAR KATL 051652Z 29009KT 10SM CLR 07/M01 A3001 RMK AO2 SLP164 T00671006=
200803051552 METAR KATL 051552Z 34010KT 10SM CLR 06/M01 A3001 RMK AO2 SLP167 T00561011=
200803051452 METAR KATL 051452Z 30011G16KT 10SM FEW018 03/M01 A3001 RMK AO2 SLP167 T00331011 51025=
200803051443 SPECI KATL 051443Z 30009KT 10SM SCT018 03/M02 A3001 RMK AO2=
200803051443 SPECI KATL 051443Z 30009KT 10SM SCT018 03/M02 A3001 RMK AO2=
200803051352 METAR KATL 051352Z 31013KT 10SM BKN017 02/M02 A2999 RMK AO2 SLP160 T00171022=
200803051252 METAR KATL 051252Z 31011KT 10SM OVC016 01/M03 A2997 RMK AO2 SLP152 BINOVC T00111028=
200803051152 METAR KATL 051152Z 32015KT 10SM OVC016 01/M02 A2993 RMK AO2 SLP140 70085 T00111022 10067 20011 50011=
200803051052 METAR KATL 051052Z 29011KT 10SM OVC017 02/M02 A2994 RMK AO2 SLP139 T00221017=
200803050952 METAR KATL 050952Z 30014KT 10SM OVC017 02/M01 A2990 RMK AO2 SLP127 T00221011=
200803050852 METAR KATL 050852Z 29013KT 10SM OVC019 03/M01 A2990 RMK AO2 SLP125 T00331006 53018=
200803050752 METAR KATL 050752Z 29010KT 10SM OVC023 04/M01 A2987 RMK AO2 SLP115 T00391011=
200803050652 METAR KATL 050652Z 31016G22KT 10SM OVC023 05/00 A2986 RMK AO2 SLP108 T00500000=
200803050552 METAR KATL 050552Z 28012G21KT 10SM OVC025 07/02 A2985 RMK AO2 SLP105 T00670017 10128 20067 53016=
200803050452 METAR KATL 050452Z 27016G22KT 10SM OVC028 08/02 A2983 RMK AO2 SLP100 T00780022 402170078=
200803050413 SPECI KATL 050413Z 28011G18KT 10SM OVC028 08/02 A2981 RMK AO2=
200803050413 SPECI KATL 050413Z 28011G18KT 10SM OVC028 08/02 A2981 RMK AO2=
200803050352 METAR KATL 050352Z 29014G23KT 10SM OVC030 08/03 A2981 RMK AO2 SLP093 T00830028=
200803050252 METAR KATL 050252Z 28010KT 10SM BKN030 09/03 A2980 RMK AO2 SLP089 T00890028 52032=
200803050152 METAR KATL 050152Z 28014G25KT 10SM FEW030 09/04 A2976 RMK AO2 SLP077 T00940039=
200803050052 METAR KATL 050052Z 28014G25KT 10SM FEW030 11/05 A2974 RMK AO2 SLP067 T01060050=
200803042352 METAR KATL 042352Z 27011G23KT 10SM FEW030 13/06 A2970 RMK AO2 SLP054 60032 T01280056 10217 20128 53028=
200803042252 METAR KATL 042252Z 27016G25KT 10SM FEW030 16/06 A2966 RMK AO2 PK WND 27032/2156 SLP039 T01560061=
200803042152 METAR KATL 042152Z 27019G27KT 10SM FEW030 17/08 A2963 RMK AO2 PK WND 26032/2058 SLP028 CB DSNT NE-SE T01720078=
200803042052 METAR KATL 042052Z 26015G25KT 10SM FEW020 SCT030 17/12 A2962 RMK AO2 PK WND 28031/2006 SLP025 CB DSNT NE-SE MOV NE 60032 T01720117 51008=
200803042046 SPECI KATL 042046Z 26019G25KT 10SM FEW020 SCT030 17/12 A2962 RMK AO2 PK WND 28031/2006 CB DSNT NE-SE MOV NE=
200803042046 SPECI KATL 042046Z 26019G25KT 10SM FEW020 SCT030 17/12 A2962 RMK AO2 PK WND 28031/2006 CB DSNT NE-SE MOV NE=
200803042002 SPECI KATL 042002Z 25018G25KT 10SM BKN015 BKN024 BKN048 18/15 A2960 RMK AO2 CIG 009V021 LTG DSNT NE TS MOV NE CB DSNT NE-SE MOV NE=
200803042002 SPECI KATL 042002Z 25018G25KT 10SM BKN015 BKN024 BKN048 18/15 A2960 RMK AO2 CIG 009V021 LTG DSNT NE TS MOV NE CB DSNT NE-SE MOV NE=
200803041952 METAR KATL 041952Z 26013G22KT 10SM BKN014 BKN029 OVC060 18/16 A2960 RMK AO2 PK WND 18031/1853 WSHFT 1937 TSB17E48RAB1854E37 SLP017 LTG DSNT NE TS MOV NE CB DSNT NE-SE MOV NE SHRA DSNT NE-SE P0032 T01830161=
200803041949 SPECI KATL 041949Z 27015G22KT 9SM BKN014 BKN027 OVC060 18/16 A2959 RMK AO2 PK WND 18031/1853 TSB17E48RAB1854E37 TS MOV NE CB DSNT NE-SE MOV NE SHRA DSNT NE-SE P0032=
200803041949 SPECI KATL 041949Z 27015G22KT 9SM BKN014 BKN027 OVC060 18/16 A2959 RMK AO2 PK WND 18031/1853 TSB17E48RAB1854E37 TS MOV NE CB DSNT NE-SE MOV NE SHRA DSNT NE-SE P0032=
200803041932 SPECI KATL 041932Z 22015G28KT 9SM R09R/5000VP6000FT -TSRA SCT012CB BKN027 OVC046 18/16 A2958 RMK AO2 PK WND 18031/1853 TSB17RAB1854 VIS LWR N-SE SHRA OCNL LTGICCG TS VC N-SE MOV NE CB VC N-SE MOV NE P0032=
200803041932 SPECI KATL 041932Z 22015G28KT 9SM R09R/5000VP6000FT -TSRA SCT012CB BKN027 OVC046 18/16 A2958 RMK AO2 PK WND 18031/1853 TSB17RAB1854 VIS LWR N-SE SHRA OCNL LTGICCG TS VC N-SE MOV NE CB VC N-SE MOV NE P0032=
200803041927 SPECI KATL 041927Z 19022G26KT 3SM R09R/4000VP6000FT TSRA BR SCT012CB BKN027 OVC032 18/16 A2958 RMK AO2 PK WND 18031/1853 TWR VIS 4 TSB17RAB1854 OCNL LTGICCG TS VC SE NW MOV NE CB VC SE NW MOV NE P0032=
200803041927 SPECI KATL 041927Z 19022G26KT 3SM R09R/4000VP6000FT TSRA BR SCT012CB BKN027 OVC032 18/16 A2958 RMK AO2 PK WND 18031/1853 TWR VIS 4 TSB17RAB1854 OCNL LTGICCG TS VC SE NW MOV NE CB VC SE NW MOV NE P0032=
200803041924 SPECI KATL 041924Z 20020G29KT 3SM R09R/4000VP6000FT +TSRA SCT014CB BKN027 OVC032 19/16 A2957 RMK AO2 PK WND 18031/1853 TWR VIS 4 TSB17RAB1854 OCNL LTGICCG TS OHD-SE-N MOV NE CB OHD-SE-N MOV NE P0028=
200803041924 SPECI KATL 041924Z 20020G29KT 3SM R09R/4000VP6000FT +TSRA SCT014CB BKN027 OVC032 19/16 A2957 RMK AO2 PK WND 18031/1853 TWR VIS 4 TSB17RAB1854 OCNL LTGICCG TS OHD-SE-N MOV NE CB OHD-SE-N MOV NE P0028=
200803041920 SPECI KATL 041920Z 20018G29KT 3SM R09R/5500VP6000FT +TSRA SCT016CB BKN025 OVC032 19/16 A2957 RMK AO2 PK WND 18031/1853 TWR VIS 4 TSB17RAB1854 OCNL LTGICCG TS OHD-S-NW MOV NE CB OHD-S-NW MOV NE P0024=
200803041920 SPECI KATL 041920Z 20018G29KT 3SM R09R/5500VP6000FT +TSRA SCT016CB BKN025 OVC032 19/16 A2957 RMK AO2 PK WND 18031/1853 TWR VIS 4 TSB17RAB1854 OCNL LTGICCG TS OHD-S-NW MOV NE CB OHD-S-NW MOV NE P0024=
200803041917 SPECI KATL 041917Z 19022G29KT 2 1/2SM R09R/5500VP6000FT +TSRA SCT016CB BKN030 OVC044 19/16 A2956 RMK AO2 PK WND 18031/1853 TWR VIS 4 TSB17RAB1854 PRESFR OCNL LTGICCG TS OHD-S-NW MOV NE CB OHD-S-NW MOV NE P0022=
200803041917 SPECI KATL 041917Z 19022G29KT 2 1/2SM R09R/5500VP6000FT +TSRA SCT016CB BKN030 OVC044 19/16 A2956 RMK AO2 PK WND 18031/1853 TWR VIS 4 TSB17RAB1854 PRESFR OCNL LTGICCG TS OHD-S-NW MOV NE CB OHD-S-NW MOV NE P0022=
200803041912 SPECI KATL 041912Z 18016G21KT 4SM R09R/5500VP6000FT +RA SCT016CB BKN030 OVC055 19/16 A2957 RMK AO2 PK WND 18031/1853 RAB1854 CB OHD-S-SW-NW MOV NE P0017=
200803041912 SPECI KATL 041912Z 18016G21KT 4SM R09R/5500VP6000FT +RA SCT016CB BKN030 OVC055 19/16 A2957 RMK AO2 PK WND 18031/1853 RAB1854 CB OHD-S-SW-NW MOV NE P0017=
200803041904 SPECI KATL 041904Z 20010G30KT 4SM R09R/3000VP6000FT RA SCT016CB BKN030 OVC060 19/16 A2958 RMK AO2 PK WND 18031/1853 RAB1854 CB OHD-S-SW-NW MOV NE P0012 $=
200803041904 SPECI KATL 041904Z 20010G30KT 4SM R09R/3000VP6000FT RA SCT016CB BKN030 OVC060 19/16 A2958 RMK AO2 PK WND 18031/1853 RAB1854 CB OHD-S-SW-NW MOV NE P0012 $=
200803041857 SPECI KATL 041857Z 18024G31KT 6SM R09R/3000VP6000FT +RA SCT030CB BKN044 OVC070 20/16 A2959 RMK AO2 PK WND 18031/1853 RAB54 VIS LWR VC S SHRA CB OHD-S DSNT SW-NW MOV NE P0000 $=
200803041857 SPECI KATL 041857Z 18024G31KT 6SM R09R/3000VP6000FT +RA SCT030CB BKN044 OVC070 20/16 A2959 RMK AO2 PK WND 18031/1853 RAB54 VIS LWR VC S SHRA CB OHD-S DSNT SW-NW MOV NE P0000 $=
200803041852 METAR KATL 041852Z 18025G31KT 10SM SCT030 BKN044 OVC075 21/16 A2959 RMK AO2 PK WND 18033/1842 SLP013 CB DSNT SW-NW MOV NE SHRA VC SW DSNT SW-NW T02110156=
200803041829 SPECI KATL 041829Z 18017G28KT 10SM SCT020TCU BKN029 BKN036 22/16 A2961 RMK AO2 PK WND 18029/1757 CB DSNT SW-NW MOV NE TCU VC SW-NW=
200803041829 SPECI KATL 041829Z 18017G28KT 10SM SCT020TCU BKN029 BKN036 22/16 A2961 RMK AO2 PK WND 18029/1757 CB DSNT SW-NW MOV NE TCU VC SW-NW=
200803041752 METAR KATL 041752Z 19017G25KT 10SM BKN017 BKN023 21/17 A2964 RMK AO2 PK WND 18028/1728 SLP029 60053 T02060167 10206 20161 58030=
200803041732 SPECI KATL 041732Z 18017G28KT 10SM FEW010 BKN017 OVC030 19/17 A2965 RMK AO2 PK WND 18028/1728 BINOVC=
200803041732 SPECI KATL 041732Z 18017G28KT 10SM FEW010 BKN017 OVC030 19/17 A2965 RMK AO2 PK WND 18028/1728 BINOVC=
200803041659 SPECI KATL 041659Z 17017G24KT 10SM BKN009 BKN016 OVC030 18/17 A2968 RMK AO2 PRESFR BINOVC=
200803041659 SPECI KATL 041659Z 17017G24KT 10SM BKN009 BKN016 OVC030 18/17 A2968 RMK AO2 PRESFR BINOVC=
200803041652 METAR KATL 041652Z 17016G25KT 10SM FEW009 BKN012 OVC020 18/17 A2969 RMK AO2 PK WND 16027/1640 RAB1554E38 SLP046 CB DSNT SE MOV NE P0001 T01830167=
200803041644 SPECI KATL 041644Z 17017G27KT 10SM FEW009 BKN012 OVC020 18/17 A2970 RMK AO2 PK WND 16027/1640 RAB1554E38 CB DSNT SE MOV NE P0001=
200803041644 SPECI KATL 041644Z 17017G27KT 10SM FEW009 BKN012 OVC020 18/17 A2970 RMK AO2 PK WND 16027/1640 RAB1554E38 CB DSNT SE MOV NE P0001=
200803041635 SPECI KATL 041635Z 17016G26KT 10SM -RA BKN009 OVC016 18/16 A2970 RMK AO2 PK WND 16026/1628 RAB1554 CIG 007V012 CB DSNT SE AND NW MOV NE P0001=
200803041635 SPECI KATL 041635Z 17016G26KT 10SM -RA BKN009 OVC016 18/16 A2970 RMK AO2 PK WND 16026/1628 RAB1554 CIG 007V012 CB DSNT SE AND NW MOV NE P0001=
200803041617 SPECI KATL 041617Z 17021G26KT 5SM -RA BR BKN009 BKN012 OVC016 18/16 A2971 RMK AO2 PK WND 18026/1616 RAB1554 P0000=
200803041617 SPECI KATL 041617Z 17021G26KT 5SM -RA BR BKN009 BKN012 OVC016 18/16 A2971 RMK AO2 PK WND 18026/1616 RAB1554 P0000=
200803041556 SPECI KATL 041556Z 17016G25KT 9SM -RA FEW009 BKN012 OVC020 17/16 A2971 RMK AO2 RAB54 P0000=
200803041556 SPECI KATL 041556Z 17016G25KT 9SM -RA FEW009 BKN012 OVC020 17/16 A2971 RMK AO2 RAB54 P0000=
200803041552 METAR KATL 041552Z 17017G27KT 10SM BKN009 BKN012 OVC015 17/16 A2971 RMK AO2 PK WND 17027/1546 RAE40 SLP055 CB DSNT W-NW MOV NE P0004 T01720156=
200803041537 SPECI KATL 041537Z 17021G27KT 9SM -RA FEW009 BKN012 OVC020 17/16 A2972 RMK AO2 PK WND 18027/1536 CB DSNT W-NW MOV NE P0004=
200803041537 SPECI KATL 041537Z 17021G27KT 9SM -RA FEW009 BKN012 OVC020 17/16 A2972 RMK AO2 PK WND 18027/1536 CB DSNT W-NW MOV NE P0004=
200803041534 SPECI KATL 041534Z 17017G27KT 9SM -RA BKN009 OVC015 17/16 A2972 RMK AO2 PK WND 17027/1532 CIG 007V011 CB DSNT W-NW MOV NE P0004=
200803041534 SPECI KATL 041534Z 17017G27KT 9SM -RA BKN009 OVC015 17/16 A2972 RMK AO2 PK WND 17027/1532 CIG 007V011 CB DSNT W-NW MOV NE P0004=
200803041509 SPECI KATL 041509Z 16013G21KT 6SM -RA BR BKN009 OVC016 17/16 A2972 RMK AO2 CIG 005V012 P0003=
200803041509 SPECI KATL 041509Z 16013G21KT 6SM -RA BR BKN009 OVC016 17/16 A2972 RMK AO2 CIG 005V012 P0003=
200803041452 METAR KATL 041452Z 15012G22KT 2SM RA BR OVC009 17/16 A2973 RMK AO2 SFC VIS 3 CIG 005V013 PRESFR SLP062 P0018 60048 T01670156 58022=
200803041355 SPECI KATL 041355Z 17011G21KT 2SM RA BR BKN009 OVC018 16/15 A2978 RMK AO2 SFC VIS 2 1/2 P0002=
200803041355 SPECI KATL 041355Z 17011G21KT 2SM RA BR BKN009 OVC018 16/15 A2978 RMK AO2 SFC VIS 2 1/2 P0002=
200803041352 METAR KATL 041352Z 17013KT 2SM RA BR BKN010 OVC018 16/15 A2978 RMK AO2 SFC VIS 3 SLP079 P0025 T01610150=
200803041323 SPECI KATL 041323Z 16012KT 2SM RA BR BKN013 OVC018 16/15 A2978 RMK AO2 CB DSIPT P0016=
200803041323 SPECI KATL 041323Z 16012KT 2SM RA BR BKN013 OVC018 16/15 A2978 RMK AO2 CB DSIPT P0016=
200803041256 SPECI KATL 041256Z 18010G19KT 2SM +RA BR OVC016 17/14 A2979 RMK AO2 SFC VIS 2 1/2 CB DSNT W-NW MOV NE P0002 $=
200803041256 SPECI KATL 041256Z 18010G19KT 2SM +RA BR OVC016 17/14 A2979 RMK AO2 SFC VIS 2 1/2 CB DSNT W-NW MOV NE P0002 $=
200803041252 METAR KATL 041252Z 18015G19KT 4SM RA BR OVC016 17/14 A2979 RMK AO2 PK WND 18028/1232 SLP081 CB DSNT SW-NW MOV NE P0005 T01670144 $=
200803041152 METAR KATL 041152Z COR 18015G30KT 10SM -RA BKN024 BKN040 OVC065 18/13 A2980 RMK AO2 PK WND 18030/1145 RAB17 SLP084 CB DSNT SW-NW MOV NE P0000 60000 70000 T01780133 10178 20161 58010=
200803041148 SPECI KATL 041148Z 18016G30KT 10SM -RA BKN026 BKN040 OVC065 18/13 A2980 RMK AO2 PK WND 18030/1145 RAB17 P0000=
200803041148 SPECI KATL 041148Z 18016G30KT 10SM -RA BKN026 BKN040 OVC065 18/13 A2980 RMK AO2 PK WND 18030/1145 RAB17 P0000=
200803041134 SPECI KATL 041134Z 16015G21KT 10SM -RA SCT026 BKN040 OVC065 18/13 A2980 RMK AO2 PK WND 18026/1057 RAB17 P0000=
200803041134 SPECI KATL 041134Z 16015G21KT 10SM -RA SCT026 BKN040 OVC065 18/13 A2980 RMK AO2 PK WND 18026/1057 RAB17 P0000=
200803041052 METAR KATL 041052Z 17014KT 10SM BKN027 BKN033 OVC050 18/13 A2981 RMK AO2 RAB34E49 SLP089 P0000 T01780128=
200803041041 SPECI KATL 041041Z 17014KT 10SM -RA BKN027 BKN033 OVC050 17/13 A2981 RMK AO2 RAB34 P0000=
200803041041 SPECI KATL 041041Z 17014KT 10SM -RA BKN027 BKN033 OVC050 17/13 A2981 RMK AO2 RAB34 P0000=
200803040952 METAR KATL 040952Z 17012G20KT 10SM FEW025 BKN034 BKN070 OVC150 17/12 A2983 RMK AO2 SLP094 T01720122=
200803040852 METAR KATL 040852Z 15011KT 10SM FEW045 SCT080 BKN150 OVC250 16/11 A2983 RMK AO2 SLP095 T01610111 58023=
200803040752 METAR KATL 040752Z 15011G17KT 10SM FEW050 SCT080 BKN150 OVC250 18/11 A2986 RMK AO2 SLP104 T01780111=
200803040652 METAR KATL 040652Z 16010KT 10SM FEW050 SCT090 SCT150 BKN250 17/11 A2988 RMK AO2 SLP113 T01720111=
200803040552 METAR KATL 040552Z 16010KT 10SM FEW055 SCT150 BKN250 18/11 A2990 RMK AO2 SLP119 T01780106 10200 20178 57020=
200803040452 METAR KATL 040452Z 18014KT 10SM BKN060 OVC090 18/10 A2992 RMK AO2 SLP126 T01830100 402280072=
200803040352 METAR KATL 040352Z 16012KT 10SM FEW060 BKN085 BKN250 19/11 A2994 RMK AO2 SLP132 T01890111=
200803040252 METAR KATL 040252Z 16010KT 10SM OVC075 19/11 A2996 RMK AO2 SLP141 T01890106 56007=
200803040152 METAR KATL 040152Z 15010G19KT 10SM BKN075 BKN250 19/10 A2996 RMK AO2 SLP142 T01940100=
200803040052 METAR KATL 040052Z 15009KT 10SM SCT075 BKN200 BKN250 19/09 A2996 RMK AO2 SLP143 T01940094=
200803032352 METAR KATL 032352Z 16009KT 10SM FEW070 SCT200 BKN250 20/08 A2998 RMK AO2 SLP151 T02000083 10228 20194 56017=
200803032252 METAR KATL 032252Z 18014G20KT 10SM BKN070 BKN250 21/08 A3000 RMK AO2 SLP156 T02110083=
200803032152 METAR KATL 032152Z 18019G24KT 10SM FEW060 SCT250 22/08 A3001 RMK AO2 SLP158 T02170078=
200803032052 METAR KATL 032052Z 19015G21KT 10SM FEW060 SCT250 22/08 A3003 RMK AO2 SLP167 T02170078 56031=
200803031952 METAR KATL 031952Z 18015G24KT 10SM SCT060 SCT250 21/08 A3005 RMK AO2 PK WND 18026/1942 SLP173 T02110083=
200803031852 METAR KATL 031852Z 16015G24KT 10SM SCT055 SCT250 21/08 A3008 RMK AO2 SLP183 T02110078=
200803031752 METAR KATL 031752Z 17012G20KT 10SM BKN050 BKN250 20/08 A3013 RMK AO2 SLP198 T02000083 10200 20078 58024=
200803031652 METAR KATL 031652Z 16012G21KT 10SM SCT045 BKN055 19/09 A3016 RMK AO2 SLP209 T01890089=
200803031552 METAR KATL 031552Z 16015G20KT 10SM BKN045 BKN055 17/09 A3018 RMK AO2 SLP218 T01720089=
200803031452 METAR KATL 031452Z 15009KT 10SM FEW035 SCT100 SCT250 15/08 A3020 RMK AO2 SLP224 T01500083 53002 PNO=
200803031352 METAR KATL 031352Z 14010KT 10SM FEW250 11/07 A3020 RMK AO2 SLP225 T01110072 PNO=
200803031252 METAR KATL 031252Z 12007KT 10SM CLR 09/06 A3018 RMK AO2 SLP220 T00890061 PNO=
200803031152 METAR KATL 031152Z 10006KT 10SM FEW050 08/04 A3019 RMK AO2 SLP222 T00780044 10117 20072 53010 PNO=
200803031052 METAR KATL 031052Z 11006KT 10SM CLR 08/04 A3018 RMK AO2 SLP217 T00830039 PNO $=
200803030952 METAR KATL 030952Z 12005KT 10SM CLR 09/03 A3016 RMK AO2 SLP212 T00890033 PNO $=
200803030852 METAR KATL 030852Z 11006KT 10SM CLR 09/03 A3016 RMK AO2 SLP211 T00940033 58006 PNO $=
200803030752 METAR KATL 030752Z 13007KT 10SM CLR 11/02 A3017 RMK AO2 SLP213 T01060017 PNO $=
200803030652 METAR KATL 030652Z 11006KT 10SM CLR 10/01 A3018 RMK AO2 SLP217 T01000011 PNO $=
200803030552 METAR KATL 030552Z 10005KT 10SM CLR 12/01 A3018 RMK AO2 SLP218 T01170006 10183 20111 50000 PNO $=
200803030452 METAR KATL 030452Z 13004KT 10SM CLR 13/01 A3019 RMK AO2 SLP220 T01280006 402110056 PNO $=
200803030352 METAR KATL 030352Z 13004KT 10SM CLR 14/01 A3018 RMK AO2 SLP218 T01390011 PNO $=
200803030252 METAR KATL 030252Z COR 15006KT 10SM CLR 15/01 A3018 RMK AO2 SLP217 T01500011 53003 PNO $=
200803030152 METAR KATL 030152Z 13006KT 10SM FEW200 16/01 A3017 RMK AO2 SLP215 T01610011 PNO $=
200803030052 METAR KATL 030052Z 13005KT 10SM FEW200 18/01 A3016 RMK AO2 SLP214 T01780006 PNO $=
200803022352 METAR KATL 022352Z 14007KT 10SM FEW200 18/01 A3017 RMK AO2 SLP215 T01830006 10211 20183 53000 PNO $=
200803022252 METAR KATL 022252Z 14006KT 10SM CLR 21/01 A3016 RMK AO2 SLP212 T02060006 PNO $=
200803022152 METAR KATL 022152Z 13004KT 10SM CLR 21/01 A3016 RMK AO2 SLP212 T02110006 PNO $=
200803022052 METAR KATL 022052Z 13008KT 10SM FEW075 21/02 A3017 RMK AO2 SLP214 T02110017 56020 PNO $=
200803021952 METAR KATL 021952Z COR 13006KT 10SM FEW070 21/03 A3018 RMK A02 SLP218 T02110033 PNO $=
200803021852 METAR KATL 021852Z 11008KT 10SM FEW250 21/04 A3020 RMK AO2 SLP223 T02060039 PNO $=
200803021752 METAR KATL 021752Z 00000KT 10SM FEW055 SCT250 19/05 A3023 RMK AO2 SLP235 T01940050 10194 20061 58015 PNO $=
200803021652 METAR KATL 021652Z 10003KT 10SM SCT060 SCT250 18/02 A3025 RMK AO2 SLP243 T01780022 PNO $=
200803021552 METAR KATL 021552Z COR 13005KT 10SM FEW250 16/01 A3027 RMK AO2 RAB52 SLP250 P0000 T01610006=
200803021452 METAR KATL 021452Z 13005KT 10SM FEW250 13/01 A3027 RMK AO2 SLP252 T01330011 51012=
200803021352 METAR KATL 021352Z 16003KT 10SM FEW100 SCT250 11/02 A3027 RMK AO2 SLP251 T01060017=
200803021252 METAR KATL 021252Z 09004KT 10SM FEW200 08/01 A3025 RMK AO2 SLP246 T00780011=
200803021152 METAR KATL 021152Z 08004KT 10SM FEW250 08/00 A3024 RMK AO2 SLP240 T00830000 10117 20056 53014=
200803021052 METAR KATL 021052Z 00000KT 10SM FEW250 06/01 A3023 RMK AO2 SLP237 T00610006=
200803020952 METAR KATL 020952Z 00000KT 10SM CLR 07/01 A3020 RMK AO2 SLP227 T00720006=
200803020852 METAR KATL 020852Z 00000KT 10SM FEW080 SCT200 07/01 A3020 RMK AO2 SLP225 T00720006 55002=
200803020752 METAR KATL 020752Z 00000KT 10SM FEW080 BKN200 09/M01 A3019 RMK AO2 SLP223 T00941006=
200803020652 METAR KATL 020652Z 01003KT 10SM FEW080 SCT120 BKN200 12/M02 A3020 RMK AO2 SLP224 T01171017=
200803020552 METAR KATL 020552Z COR 36004KT 10SM FEW120 BKN250 11/M01 A3020 RMK AO2 SLP226 T01061011 10150 20100 58007=
200803020452 METAR KATL 020452Z 35005KT 10SM FEW002 SCT150 BKN250 11/00 A3021 RMK AO2 SLP229 FU FEW002 T01110000 401890078=
200803020352 METAR KATL 020352Z 33004KT 10SM SCT250 11/M01 A3022 RMK AO2 SLP234 T01111006=
200803020252 METAR KATL 020252Z 32006KT 10SM FEW250 12/M01 A3022 RMK AO2 SLP235 T01171006 51004=
200803020152 METAR KATL 020152Z 31003KT 10SM FEW250 13/M01 A3022 RMK AO2 SLP234 T01331006=
200803020052 METAR KATL 020052Z 32005KT 10SM SCT250 14/M01 A3022 RMK AO2 SLP234 T01391006=
200803012352 METAR KATL 012352Z 32007KT 10SM FEW250 15/00 A3021 RMK AO2 SLP231 T01500000 10189 20144 53003=
200803012252 METAR KATL 012252Z 33010KT 10SM FEW250 17/M01 A3020 RMK AO2 SLP226 T01671006=
200803012152 METAR KATL 012152Z 32010KT 10SM FEW150 SCT250 18/02 A3020 RMK AO2 SLP223 T01830017=
200803012052 METAR KATL 012052Z 33013KT 10SM SCT250 18/01 A3020 RMK AO2 SLP226 T01830011 56024=
200803011952 METAR KATL 011952Z 31011G20KT 10SM FEW070 SCT250 18/01 A3022 RMK AO2 SLP231 T01830011=
200803011852 METAR KATL 011852Z 29011G16KT 10SM FEW055 18/03 A3024 RMK AO2 SLP239 T01830033=
200803011752 METAR KATL 011752Z 31011KT 10SM SCT048 17/04 A3028 RMK AO2 SLP251 T01720044 10172 20078 58014=
200803011652 METAR KATL 011652Z 32010G16KT 10SM SCT040 16/06 A3030 RMK AO2 SLP258 T01610056=
200803011552 METAR KATL 011552Z 33009KT 10SM FEW025 14/07 A3031 RMK AO2 SLP264 T01440067=
200803011452 METAR KATL 011452Z 31007KT 10SM SCT020 SCT250 13/07 A3032 RMK AO2 SLP267 T01280072 51011=
200803011400 SPECI KATL 011400Z 30007KT 9SM SCT020 SCT250 11/07 A3032 RMK AO2=
200803011400 SPECI KATL 011400Z 30007KT 9SM SCT020 SCT250 11/07 A3032 RMK AO2=
200803011352 METAR KATL 011352Z 29005KT 9SM BKN019 BKN250 10/07 A3032 RMK AO2 SLP268 T01000072=
200803011252 METAR KATL 011252Z 31008KT 7SM FEW008 OVC017 09/07 A3030 RMK AO2 SLP261 BINOVC T00890072=
200803011244 SPECI KATL 011244Z 31008KT 7SM SCT008 OVC017 09/07 A3030 RMK AO2 BINOVC=
200803011244 SPECI KATL 011244Z 31008KT 7SM SCT008 OVC017 09/07 A3030 RMK AO2 BINOVC=
200803011218 SPECI KATL 011218Z 29008KT 8SM BKN008 BKN200 BKN250 09/07 A3029 RMK AO2=
200803011218 SPECI KATL 011218Z 29008KT 8SM BKN008 BKN200 BKN250 09/07 A3029 RMK AO2=
200803011201 SPECI KATL 011201Z 31009KT 10SM BKN010 BKN200 BKN250 09/06 A3029 RMK AO2=
200803011201 SPECI KATL 011201Z 31009KT 10SM BKN010 BKN200 BKN250 09/06 A3029 RMK AO2=
