##########################################################
# Query made at 04/19/2024 23:04:35 UTC
# Time interval: from 01/01/2008 12:00  to 01/31/2008 12:59  UTC
##########################################################

##########################################################
# KATL, Atlanta, Hartsfield - Jackson Atlanta International Airport (United States)
# WMO index: 72219. WIGOS ID: 0-20000-0-72219
# Latitude 33-38-59N. Longitude 084-25-00W. Altitude 312 m.
##########################################################

200801311252 METAR KATL 311252Z 07015KT 10SM FEW095 BKN120 BKN200 BKN250 03/M09 A3027 RMK AO2 SLP258 VIRGA VC SW AND NW-N T00281094=
200801311152 METAR KATL 311152Z 07013KT 10SM FEW095 BKN110 BKN200 BKN250 03/M09 A3026 RMK AO2 SLP253 VIRGA OHD-ALQDS T00281089 10028 21033 53034 $=
200801311052 METAR KATL 311052Z 08011KT 10SM BKN120 OVC200 02/M09 A3021 RMK AO2 SLP236 T00171089=
200801310952 METAR KATL 310952Z 10009KT 10SM BKN140 OVC200 00/M09 A3017 RMK AO2 SLP223 T00001089=
200801310852 METAR KATL 310852Z 08009KT 10SM SCT140 SCT200 BKN250 M02/M09 A3015 RMK AO2 SLP218 T10171094 55004=
200801310752 METAR KATL 310752Z 08008KT 10SM FEW120 SCT250 M03/M09 A3015 RMK AO2 SLP216 T10281089=
200801310652 METAR KATL 310652Z 03003KT 10SM FEW200 00/M10 A3015 RMK AO2 SLP218 T00001100=
200801310552 METAR KATL 310552Z 00000KT 10SM FEW200 M01/M11 A3017 RMK AO2 SLP223 T10111106 10044 21011 53008=
200801310452 METAR KATL 310452Z COR 00000KT 10SM FEW200 00/M12 A3016 RMK AO2 SLP220 T00001122 401501017=
200801310352 METAR KATL 310352Z 34004KT 10SM FEW200 01/M12 A3015 RMK AO2 SLP217 T00061122=
200801310252 METAR KATL 310252Z 34008KT 10SM FEW200 SCT250 01/M12 A3014 RMK AO2 SLP216 T00111122 51005=
200801310152 METAR KATL 310152Z 35009KT 10SM FEW200 SCT250 02/M12 A3013 RMK AO2 SLP213 T00221122=
200801310052 METAR KATL 310052Z 33006KT 10SM FEW200 SCT250 03/M12 A3014 RMK AO2 SLP216 T00281122=
200801302352 METAR KATL 302352Z 35009KT 10SM SCT200 BKN250 04/M13 A3013 RMK AO2 SLP211 T00441128 10078 20044 51020=
200801302252 METAR KATL 302252Z 33009KT 10SM SCT200 BKN250 06/M14 A3012 RMK AO2 SLP208 T00561139=
200801302152 METAR KATL 302152Z 31011G14KT 10SM CLR 08/M13 A3009 RMK AO2 SLP194 T00781133=
200801302052 METAR KATL 302052Z 34010KT 10SM FEW280 08/M14 A3007 RMK AO2 SLP187 T00781144 56012 $=
200801301952 METAR KATL 301952Z 33006KT 10SM CLR 07/M14 A3007 RMK AO2 SLP187 T00671139 PNO $=
200801301852 METAR KATL 301852Z COR 32010KT 10SM CLR 06/M15 A3008 RMK AO2 SLP190 T00561150 $=
200801301752 METAR KATL 301752Z 31008G14KT 10SM CLR 05/M14 A3010 RMK AO2 SLP196 T00501144 10056 21017 50002=
200801301652 METAR KATL 301652Z 32012G16KT 10SM CLR 04/M14 A3013 RMK AO2 SLP204 T00441139=
200801301552 METAR KATL 301552Z 30013G18KT 10SM CLR 02/M13 A3013 RMK AO2 SLP204 T00221133=
200801301452 METAR KATL 301452Z 34012G22KT 10SM FEW280 01/M13 A3010 RMK AO2 SLP196 T00111133 53020=
200801301352 METAR KATL 301352Z 33011G19KT 10SM FEW200 M01/M12 A3008 RMK AO2 SLP188 T10061122=
200801301252 METAR KATL 301252Z 32014KT 10SM FEW200 M02/M12 A3006 RMK AO2 SLP182 T10171117=
200801301152 METAR KATL 301152Z 32010KT 10SM FEW250 M01/M11 A3004 RMK AO2 SLP175 60000 70014 T10111106 10150 21011 51034=
200801301052 METAR KATL 301052Z 32015G18KT 10SM FEW250 00/M09 A3001 RMK AO2 SLP166 T00001094=
200801300952 METAR KATL 300952Z 32016G23KT 10SM FEW250 01/M07 A2998 RMK AO2 PK WND 31027/0904 SLP152 T00111067=
200801300852 METAR KATL 300852Z 29015G25KT 10SM FEW150 SCT250 03/M06 A2993 RMK AO2 PK WND 31031/0815 SLP138 60000 T00281056 51063=
200801300752 METAR KATL 300752Z 31021G27KT 10SM FEW060 SCT150 BKN250 06/M05 A2988 RMK AO2 PK WND 31038/0710 SLP120 T00561050=
200801300652 METAR KATL 300652Z COR 30023G35KT 10SM BKN048 BKN065 OVC250 09/01 A2982 RMK AO2 PK WND 30037/0605 WSHFT 0549 FROPA RAE04 SLP097 P0000 T00940006=
200801300621 SPECI KATL 300621Z 32026G36KT 10SM FEW015 SCT028 OVC045 11/03 A2979 RMK AO2 PK WND 30037/0605 WSHFT 0549 RAE04 P0000=
200801300621 SPECI KATL 300621Z 32026G36KT 10SM FEW015 SCT028 OVC045 11/03 A2979 RMK AO2 PK WND 30037/0605 WSHFT 0549 RAE04 P0000=
200801300603 SPECI KATL 300603Z 30026G36KT 10SM -RA SCT010 BKN018 OVC026 14/11 A2976 RMK AO2 PK WND 30036/0602 WSHFT 0549 PRESRR P0000=
200801300603 SPECI KATL 300603Z 30026G36KT 10SM -RA SCT010 BKN018 OVC026 14/11 A2976 RMK AO2 PK WND 30036/0602 WSHFT 0549 PRESRR P0000=
200801300552 METAR KATL 300552Z 24013G23KT 10SM -RA BKN012 BKN020 OVC035 15/13 A2974 RMK AO2 PK WND 22029/0506 WSHFT 0454 RAE10B36 SLP068 CIG 009V014 P0000 60014 T01500128 10161 20133 53002=
200801300531 SPECI KATL 300531Z 22012G18KT 10SM BKN012 OVC030 14/13 A2972 RMK AO2 PK WND 22029/0506 WSHFT 0454 RAE10 CIG 009V015 P0000=
200801300531 SPECI KATL 300531Z 22012G18KT 10SM BKN012 OVC030 14/13 A2972 RMK AO2 PK WND 22029/0506 WSHFT 0454 RAE10 CIG 009V015 P0000=
200801300512 SPECI KATL 300512Z 23013G29KT 10SM SCT008 BKN018 OVC035 14/13 A2972 RMK AO2 PK WND 22029/0506 WSHFT 0454 RAE10 P0000=
200801300512 SPECI KATL 300512Z 23013G29KT 10SM SCT008 BKN018 OVC035 14/13 A2972 RMK AO2 PK WND 22029/0506 WSHFT 0454 RAE10 P0000=
200801300458 SPECI KATL 300458Z 25013G21KT 8SM -RA BKN008 BKN020 OVC050 14/13 A2974 RMK AO2 CIG 006V012 P0000=
200801300458 SPECI KATL 300458Z 25013G21KT 8SM -RA BKN008 BKN020 OVC050 14/13 A2974 RMK AO2 CIG 006V012 P0000=
200801300452 METAR KATL 300452Z VRB06G20KT 8SM -RA BKN008 BKN025 OVC050 14/13 A2974 RMK AO2 PK WND 20029/0421 WSHFT 0436 RAB31 SLP068 CIG 006V012 P0000 T01390128 401830039=
200801300352 METAR KATL 300352Z 20015G25KT 10SM BKN008 OVC020 14/12 A2971 RMK AO2 RAE43 SLP059 CIG 006V012 P0007 T01390122=
200801300338 SPECI KATL 300338Z 22011G19KT 10SM -RA BKN008 BKN015 OVC030 14/12 A2970 RMK AO2 P0007=
200801300338 SPECI KATL 300338Z 22011G19KT 10SM -RA BKN008 BKN015 OVC030 14/12 A2970 RMK AO2 P0007=
200801300322 SPECI KATL 300322Z 18017G24KT 10SM -RA BKN010 BKN025 OVC050 14/12 A2969 RMK AO2 P0006=
200801300322 SPECI KATL 300322Z 18017G24KT 10SM -RA BKN010 BKN025 OVC050 14/12 A2969 RMK AO2 P0006=
200801300252 METAR KATL 300252Z 20012KT 7SM RA BKN025 BKN045 OVC060 14/12 A2974 RMK AO2 PK WND 20027/0209 RAB08 SLP069 P0007 60007 T01390122 55007=
200801300152 METAR KATL 300152Z 20018G30KT 10SM BKN026 OVC040 16/11 A2974 RMK AO2 PK WND 19030/0147 SLP069 SHRA SW-NW-NE T01560106=
200801300052 METAR KATL 300052Z 20017G26KT 10SM BKN028 BKN045 OVC150 16/10 A2975 RMK AO2 PK WND 19030/0036 SLP075 T01610100=
200801292352 METAR KATL 292352Z 19014G21KT 10SM BKN040 BKN140 OVC200 16/09 A2976 RMK AO2 SLP078 T01610094 10183 20161 58016=
200801292252 METAR KATL 292252Z 19018G24KT 10SM SCT045 BKN140 BKN200 BKN250 16/09 A2978 RMK AO2 SLP085 T01610089=
200801292152 METAR KATL 292152Z 20017G28KT 10SM FEW040 SCT150 BKN180 BKN250 17/08 A2979 RMK AO2 PK WND 19028/2150 SLP088 T01720083=
200801292052 METAR KATL 292052Z 21017G27KT 10SM FEW040 SCT180 BKN250 17/08 A2981 RMK AO2 PK WND 19028/2039 SLP093 T01720078 56030=
200801291952 METAR KATL 291952Z 20015KT 10SM SCT037 SCT180 BKN250 17/09 A2981 RMK AO2 PK WND 22029/1858 SLP094 T01720089=
200801291852 METAR KATL 291852Z 21016G28KT 10SM SCT035 BKN180 BKN250 17/09 A2984 RMK AO2 PK WND 21029/1832 SLP106 T01670089=
200801291752 METAR KATL 291752Z 22015G22KT 10SM FEW030 SCT060 BKN180 BKN250 16/08 A2990 RMK AO2 PK WND 22026/1734 SLP125 T01610083 10161 20039 58038=
200801291652 METAR KATL 291652Z 20012KT 10SM FEW020 SCT110 SCT150 BKN250 13/07 A2995 RMK AO2 SLP143 T01330072=
200801291552 METAR KATL 291552Z 20011KT 10SM FEW020 SCT110 BKN150 BKN250 11/06 A2999 RMK AO2 SLP157 T01110061=
200801291452 METAR KATL 291452Z 20008KT 10SM FEW020 SCT110 BKN150 BKN250 07/03 A3001 RMK AO2 SLP166 T00720028 53001=
200801291352 METAR KATL 291352Z 24004KT 10SM FEW110 BKN150 BKN200 BKN250 06/01 A3001 RMK AO2 SLP165 VIRGA NW-N T00610011=
200801291252 METAR KATL 291252Z 20006KT 10SM FEW110 BKN150 BKN200 BKN250 04/M01 A2999 RMK AO2 SLP159 VIRGA VC NW T00441006=
200801291152 METAR KATL 291152Z 20006KT 10SM BKN150 BKN200 OVC250 04/M02 A3001 RMK AO2 SLP165 T00391017 10072 20039 56009=
200801291052 METAR KATL 291052Z 21004KT 10SM SCT150 BKN200 BKN250 04/M02 A3002 RMK AO2 SLP168 T00441017=
200801290952 METAR KATL 290952Z 00000KT 10SM FEW150 SCT200 BKN250 05/M02 A3001 RMK AO2 SLP165 T00501022=
200801290852 METAR KATL 290852Z 22004KT 10SM FEW150 SCT200 BKN250 06/M02 A3004 RMK AO2 SLP173 T00561017 56004=
200801290752 METAR KATL 290752Z 23005KT 10SM FEW150 SCT200 BKN250 06/M02 A3005 RMK AO2 SLP177 T00611022=
200801290652 METAR KATL 290652Z 22005KT 10SM FEW150 SCT200 BKN250 06/M02 A3004 RMK AO2 SLP174 T00611022=
200801290552 METAR KATL 290552Z 20007KT 10SM FEW150 SCT200 BKN250 07/M02 A3005 RMK AO2 SLP178 T00721017 10133 20072 56022=
200801290452 METAR KATL 290452Z 20005KT 10SM FEW150 SCT200 BKN250 07/M02 A3006 RMK AO2 SLP182 T00721017 401560000=
200801290352 METAR KATL 290352Z 18007KT 10SM FEW200 BKN250 08/M02 A3008 RMK AO2 SLP186 T00831022=
200801290252 METAR KATL 290252Z 18005KT 10SM FEW150 BKN200 BKN250 09/M02 A3012 RMK AO2 SLP202 T00941017 53003=
200801290152 METAR KATL 290152Z 18006KT 10SM FEW150 BKN250 09/M01 A3011 RMK AO2 SLP202 T00941011=
200801290052 METAR KATL 290052Z 16004KT 10SM SCT150 BKN200 11/M03 A3010 RMK AO2 SLP198 T01111033=
200801282352 METAR KATL 282352Z 14004KT 10SM BKN150 BKN250 13/M05 A3011 RMK AO2 SLP200 T01331050 10156 20122 51004=
200801282252 METAR KATL 282252Z 18007KT 10SM BKN150 BKN250 13/M03 A3010 RMK AO2 SLP196 T01331028=
200801282152 METAR KATL 282152Z 21003KT 10SM FEW150 SCT200 BKN250 15/M04 A3011 RMK AO2 SLP199 T01501044=
200801282052 METAR KATL 282052Z 00000KT 10SM FEW150 SCT200 SCT250 15/M06 A3009 RMK AO2 SLP193 T01501056 56029=
200801281952 METAR KATL 281952Z 17008KT 10SM BKN150 BKN200 BKN250 15/M04 A3010 RMK AO2 SLP195 T01501044=
200801281852 METAR KATL 281852Z 17008KT 10SM FEW150 SCT200 BKN250 14/M05 A3013 RMK AO2 SLP207 T01391050=
200801281752 METAR KATL 281752Z 00000KT 10SM FEW150 SCT200 SCT250 12/M07 A3018 RMK AO2 SLP224 T01221072 10128 20000 58021=
200801281652 METAR KATL 281652Z 15005KT 10SM FEW200 SCT250 11/M06 A3022 RMK AO2 SLP238 T01111061=
200801281552 METAR KATL 281552Z 06004KT 10SM SCT250 10/M05 A3024 RMK AO2 SLP245 T01001050=
200801281452 METAR KATL 281452Z 36005KT 10SM SCT250 08/M04 A3025 RMK AO2 SLP247 T00781039 51015=
200801281352 METAR KATL 281352Z 34009KT 10SM SCT250 04/M04 A3024 RMK AO2 SLP245 T00391039=
200801281252 METAR KATL 281252Z 35003KT 10SM FEW250 01/M05 A3022 RMK AO2 SLP240 T00111050=
200801281152 METAR KATL 281152Z 32007KT 10SM FEW250 00/M05 A3020 RMK AO2 SLP233 T00001050 10028 20000 55004=
200801281052 METAR KATL 281052Z 32008KT 10SM FEW250 01/M05 A3018 RMK AO2 SLP227 T00061050=
200801280952 METAR KATL 280952Z 34005KT 10SM FEW250 02/M05 A3018 RMK AO2 SLP226 T00171050=
200801280852 METAR KATL 280852Z 32007KT 10SM FEW250 01/M04 A3021 RMK AO2 SLP236 T00111044 51006=
200801280752 METAR KATL 280752Z 31008KT 10SM CLR 02/M04 A3021 RMK AO2 SLP235 T00221044=
200801280652 METAR KATL 280652Z 32006KT 10SM CLR 02/M04 A3020 RMK AO2 SLP231 T00221039=
200801280552 METAR KATL 280552Z 32009KT 10SM CLR 02/M03 A3019 RMK AO2 SLP229 T00221033 10083 20022 51004=
200801280452 METAR KATL 280452Z 31009KT 10SM CLR 03/M03 A3019 RMK AO2 SLP229 T00281028 401220000=
200801280352 METAR KATL 280352Z 31007KT 10SM CLR 03/M03 A3019 RMK AO2 SLP231 T00281028=
200801280252 METAR KATL 280252Z 32006KT 10SM CLR 04/M03 A3018 RMK AO2 SLP227 T00441028 58007=
200801280152 METAR KATL 280152Z 30005KT 10SM CLR 06/M03 A3021 RMK AO2 SLP238 T00611028=
200801280052 METAR KATL 280052Z 31005KT 10SM CLR 07/M03 A3021 RMK AO2 SLP238 T00721028=
200801272352 METAR KATL 272352Z 30010KT 10SM FEW250 08/M03 A3020 RMK AO2 SLP233 T00831028 10122 20083 51021=
200801272252 METAR KATL 272252Z 32013G18KT 10SM CLR 09/M04 A3018 RMK AO2 SLP225 T00941039=
200801272152 METAR KATL 272152Z 32015G20KT 10SM CLR 11/M04 A3016 RMK AO2 SLP220 T01111044=
200801272052 METAR KATL 272052Z 32012KT 10SM CLR 12/M06 A3014 RMK AO2 SLP210 T01171056 56022=
200801271952 METAR KATL 271952Z 32008KT 10SM CLR 12/M05 A3014 RMK AO2 SLP211 T01171050=
200801271852 METAR KATL 271852Z 31013G20KT 10SM CLR 12/M03 A3017 RMK AO2 SLP222 T01171033=
200801271752 METAR KATL 271752Z 31009G16KT 10SM CLR 10/M02 A3021 RMK AO2 SLP233 T01001017 10100 20006 58009=
200801271652 METAR KATL 271652Z 32006KT 10SM CLR 08/M01 A3021 RMK AO2 SLP234 T00781006=
200801271552 METAR KATL 271552Z 32009KT 10SM CLR 06/00 A3023 RMK AO2 SLP243 T00560000=
200801271452 METAR KATL 271452Z 32012KT 7SM FEW010 03/00 A3023 RMK AO2 SLP243 T00330000 53015=
200801271352 METAR KATL 271352Z 32012KT 5SM BR FEW009 01/M01 A3021 RMK AO2 SLP236 T00111006=
200801271341 SPECI KATL 271341Z 32011KT 5SM BR SCT009 01/M01 A3020 RMK AO2=
200801271341 SPECI KATL 271341Z 32011KT 5SM BR SCT009 01/M01 A3020 RMK AO2=
200801271252 METAR KATL 271252Z 32009KT 4SM BR BKN007 01/M01 A3020 RMK AO2 SLP233 T00061011=
200801271220 SPECI KATL 271220Z 31012KT 6SM BR BKN007 01/M01 A3018 RMK AO2=
200801271220 SPECI KATL 271220Z 31012KT 6SM BR BKN007 01/M01 A3018 RMK AO2=
200801271152 METAR KATL 271152Z 31013KT 5SM BR SCT005 01/M01 A3019 RMK AO2 SLP229 T00061011 10022 20000 53020=
200801271052 METAR KATL 271052Z 31011KT 4SM BR BKN005 01/M01 A3016 RMK AO2 SLP221 T00061006=
200801271042 SPECI KATL 271042Z 31009KT 5SM BR BKN005 00/M01 A3016 RMK AO2=
200801271042 SPECI KATL 271042Z 31009KT 5SM BR BKN005 00/M01 A3016 RMK AO2=
200801270952 METAR KATL 270952Z 31010KT 5SM BR CLR 01/M01 A3013 RMK AO2 SLP211 T00061006=
200801270852 METAR KATL 270852Z 32009KT 5SM BR CLR 01/M01 A3013 RMK AO2 SLP208 T00061006 58003=
200801270752 METAR KATL 270752Z 29006KT 6SM BR CLR 01/M01 A3014 RMK AO2 SLP214 T00111006=
200801270652 METAR KATL 270652Z 30008KT 7SM CLR 02/M01 A3014 RMK AO2 SLP214 T00171006=
200801270552 METAR KATL 270552Z 26003KT 9SM CLR 02/00 A3013 RMK AO2 SLP211 T00220000 10067 20022 56013=
200801270452 METAR KATL 270452Z 25003KT 10SM CLR 03/00 A3014 RMK AO2 SLP215 T00280000 400720006=
200801270352 METAR KATL 270352Z 29003KT 10SM FEW020 04/00 A3016 RMK AO2 SLP221 T00390000=
200801270321 SPECI KATL 270321Z 32007KT 10SM SCT020 04/01 A3016 RMK AO2=
200801270321 SPECI KATL 270321Z 32007KT 10SM SCT020 04/01 A3016 RMK AO2=
200801270252 METAR KATL 270252Z 30010KT 10SM OVC020 05/01 A3017 RMK AO2 SLP225 T00500006 53007=
200801270152 METAR KATL 270152Z 31009KT 10SM OVC022 06/01 A3016 RMK AO2 SLP221 T00610011=
200801270052 METAR KATL 270052Z 30009KT 10SM OVC022 07/02 A3015 RMK AO2 SLP218 T00670017=
200801262352 METAR KATL 262352Z 28005KT 10SM OVC024 06/02 A3015 RMK AO2 SLP217 T00610022 10072 20039 53002=
200801262252 METAR KATL 262252Z 26005KT 10SM OVC024 07/02 A3015 RMK AO2 SLP216 T00670017=
200801262152 METAR KATL 262152Z 27004KT 10SM OVC024 07/02 A3015 RMK AO2 SLP214 T00720017=
200801262052 METAR KATL 262052Z 27005KT 10SM SCT022 OVC026 07/02 A3015 RMK AO2 SLP214 T00720017 56024=
200801262028 SPECI KATL 262028Z 24004KT 10SM SCT022 OVC028 07/02 A3014 RMK AO2 SCT022 V BKN=
200801262028 SPECI KATL 262028Z 24004KT 10SM SCT022 OVC028 07/02 A3014 RMK AO2 SCT022 V BKN=
200801261952 METAR KATL 261952Z 26007KT 10SM SCT021 OVC032 07/01 A3015 RMK AO2 SLP217 T00670011=
200801261852 METAR KATL 261852Z 27004KT 10SM SCT017 OVC036 06/01 A3017 RMK AO2 SLP223 T00560006=
200801261814 SPECI KATL 261814Z 23004KT 9SM SCT017 SCT022 OVC038 04/00 A3020 RMK AO2 SCT022 V BKN=
200801261814 SPECI KATL 261814Z 23004KT 9SM SCT017 SCT022 OVC038 04/00 A3020 RMK AO2 SCT022 V BKN=
200801261752 METAR KATL 261752Z 26005KT 9SM BKN017 OVC022 04/00 A3022 RMK AO2 SLP241 60000 T00390000 10039 20006 58017=
200801261652 METAR KATL 261652Z 25003KT 9SM OVC022 03/M01 A3026 RMK AO2 SLP254 T00281006=
200801261552 METAR KATL 261552Z 00000KT 9SM OVC021 02/M02 A3028 RMK AO2 SLP263 T00171017=
200801261452 METAR KATL 261452Z 17003KT 10SM OVC024 01/M03 A3027 RMK AO2 SLP260 60000 T00061028 58004=
200801261352 METAR KATL 261352Z 17003KT 10SM OVC027 01/M04 A3028 RMK AO2 SLP262 T00111039=
200801261315 SPECI KATL 261315Z 00000KT 10SM BKN029 01/M04 A3029 RMK AO2=
200801261315 SPECI KATL 261315Z 00000KT 10SM BKN029 01/M04 A3029 RMK AO2=
200801261252 METAR KATL 261252Z 00000KT 10SM OVC031 01/M06 A3029 RMK AO2 RAE1154 SLP264 P0000 T00111056=
200801261152 METAR KATL 261152Z 14003KT 10SM -RA BKN037 BKN043 OVC065 01/M06 A3028 RMK AO2 RAB19 SLP264 P0000 60000 70001 T00061061 10017 20006 53007=
200801261052 METAR KATL 261052Z 00000KT 10SM OVC035 01/M09 A3027 RMK AO2 SLP260 T00111089=
200801260952 METAR KATL 260952Z 00000KT 10SM OVC043 01/M08 A3027 RMK AO2 SLP257 T00111083=
200801260752 METAR KATL 260752Z 06005KT 10SM SCT050 OVC060 01/M09 A3029 RMK AO2 SLP265 T00111089=
200801260652 METAR KATL 260652Z 00000KT 10SM BKN055 OVC070 01/M10 A3031 RMK AO2 RAE07SNE07PLE07 SLP273 P0000 T00111100=
200801260613 SPECI KATL 260613Z 00000KT 10SM OVC075 01/M09 A3032 RMK AO2 RAE07SNE07PLE07 P0000=
200801260613 SPECI KATL 260613Z 00000KT 10SM OVC075 01/M09 A3032 RMK AO2 RAE07SNE07PLE07 P0000=
200801260552 METAR KATL 260552Z 00000KT 10SM -RAPLSN FEW055 BKN070 OVC090 01/M09 A3034 RMK AO2 SLP281 P0000 60001 931000 T00111094 10028 20006 58009=
200801260452 METAR KATL 260452Z 00000KT 10SM -RAPLSN SCT060 BKN075 OVC090 01/M11 A3035 RMK AO2 RAB12SNB12PLB12 SLP285 P0001 T00111111 400561067=
200801260412 SPECI KATL 260412Z 14007KT 10SM -RAPLSN OVC065 02/M13 A3035 RMK AO2 RAB12SNB12PLB12 P0000=
200801260412 SPECI KATL 260412Z 14007KT 10SM -RAPLSN OVC065 02/M13 A3035 RMK AO2 RAB12SNB12PLB12 P0000=
200801260352 METAR KATL 260352Z 11003KT 10SM BKN065 OVC090 02/M14 A3036 RMK AO2 SLP292 T00171139=
200801260252 METAR KATL 260252Z 08007KT 10SM FEW070 SCT090 BKN120 OVC150 02/M13 A3037 RMK AO2 SLP293 T00171128 53003=
200801260152 METAR KATL 260152Z 13007KT 10SM BKN090 BKN110 OVC150 02/M13 A3036 RMK AO2 SLP291 VIRGA OHD-ALQDS T00221133=
200801260052 METAR KATL 260052Z 10009KT 10SM BKN090 OVC140 03/M12 A3036 RMK AO2 PRESFR SLP293 T00281122=
200801252352 METAR KATL 252352Z 10005KT 10SM BKN100 OVC150 03/M13 A3036 RMK AO2 SLP292 T00281128 10056 20028 56007=
200801252252 METAR KATL 252252Z 11009KT 10SM BKN110 BKN150 OVC200 03/M13 A3036 RMK AO2 SLP291 T00331133=
200801252152 METAR KATL 252152Z 09007KT 10SM FEW100 BKN150 OVC180 04/M14 A3037 RMK AO2 SLP297 VIRGA DSNT S-SW T00441139=
200801252052 METAR KATL 252052Z 14006KT 10SM FEW100 BKN150 OVC180 04/M14 A3038 RMK AO2 SLP298 VIRGA VC N AND DSNT NE-S T00441144 56017=
200801251952 METAR KATL 251952Z 13004KT 10SM FEW100 BKN150 BKN180 BKN250 04/M15 A3039 RMK AO2 SLP303 VIRGA DSNT NE SW-NW T00441150=
200801251852 METAR KATL 251852Z 09006KT 10SM SCT150 SCT180 BKN250 05/M15 A3039 RMK AO2 SLP302 T00501150=
200801251752 METAR KATL 251752Z VRB06KT 10SM FEW150 BKN180 BKN250 04/M14 A3043 RMK AO2 SLP314 VIRGA DSNT NW T00441139 10044 21061 58015=
200801251652 METAR KATL 251652Z 12006KT 10SM FEW150 SCT200 BKN250 02/M14 A3046 RMK AO2 SLP326 T00221139=
200801251552 METAR KATL 251552Z 08007KT 10SM FEW150 SCT200 BKN250 01/M13 A3048 RMK AO2 SLP332 T00061133=
200801251452 METAR KATL 251452Z 09010KT 10SM FEW150 SCT200 BKN250 M02/M13 A3047 RMK AO2 SLP332 T10171133 50014=
200801251352 METAR KATL 251352Z 07007KT 10SM SCT150 SCT200 BKN250 M04/M13 A3048 RMK AO2 SLP333 T10391128=
200801251252 METAR KATL 251252Z 01005KT 10SM FEW200 SCT250 M06/M13 A3045 RMK AO2 SLP324 T10611128=
200801251152 METAR KATL 251152Z 01006KT 10SM FEW200 BKN250 M06/M13 A3043 RMK AO2 SLP319 T10611128 11044 21067 53015=
200801251052 METAR KATL 251052Z 34005KT 10SM FEW150 SCT200 BKN250 M06/M13 A3041 RMK AO2 SLP311 T10611128=
200801250952 METAR KATL 250952Z 36005KT 10SM SCT200 BKN250 M06/M13 A3040 RMK AO2 SLP306 T10611128=
200801250852 METAR KATL 250852Z 35009KT 10SM FEW200 BKN250 M06/M13 A3039 RMK AO2 SLP301 T10561133 51011=
200801250752 METAR KATL 250752Z 35008KT 10SM FEW200 BKN250 M06/M13 A3039 RMK AO2 SLP300 T10561133=
200801250652 METAR KATL 250652Z 35009KT 10SM FEW200 SCT250 M05/M13 A3036 RMK AO2 SLP291 T10501133=
200801250552 METAR KATL 250552Z 33011KT 10SM FEW250 M04/M13 A3035 RMK AO2 SLP289 T10441128 10006 21044 50011=
200801250452 METAR KATL 250452Z 33012G17KT 10SM FEW250 M03/M12 A3036 RMK AO2 SLP289 T10331122 400671033=
200801250352 METAR KATL 250352Z 34013KT 10SM FEW250 M02/M12 A3034 RMK AO2 SLP284 T10221122=
200801250252 METAR KATL 250252Z 34013KT 10SM CLR M02/M11 A3032 RMK AO2 SLP277 T10171111 53016=
200801250152 METAR KATL 250152Z 33010KT 10SM CLR M01/M11 A3030 RMK AO2 SLP269 T10111106=
200801250052 METAR KATL 250052Z 33012G18KT 10SM CLR 00/M11 A3028 RMK AO2 SLP263 T00001106=
200801242352 METAR KATL 242352Z 33016G25KT 10SM CLR 01/M10 A3027 RMK AO2 SLP259 T00061100 10067 20006 51039=
200801242252 METAR KATL 242252Z 34017G22KT 10SM CLR 03/M08 A3024 RMK AO2 SLP245 T00281078=
200801242152 METAR KATL 242152Z 33016G23KT 10SM FEW180 SCT250 04/M07 A3020 RMK AO2 PK WND 32028/2101 SLP231 T00441072=
200801242052 METAR KATL 242052Z 31015KT 10SM FEW180 SCT250 06/M07 A3016 RMK AO2 PK WND 31027/2041 SLP217 T00561067 53012=
200801241952 METAR KATL 241952Z 31016G23KT 10SM FEW150 SCT180 BKN250 05/M06 A3014 RMK AO2 SLP212 VIRGA DSNT NE S-SW-W T00501061=
200801241852 METAR KATL 241852Z 33018G25KT 10SM FEW150 BKN180 BKN250 05/M07 A3012 RMK AO2 SLP206 VIRGA OHD ALQDS T00501067=
200801241752 METAR KATL 241752Z 32014KT 10SM FEW150 SCT200 BKN250 06/M03 A3012 RMK AO2 SLP205 T00561033 10056 20033 50001=
200801241652 METAR KATL 241652Z 33018KT 10SM FEW025 SCT150 BKN180 BKN250 04/M02 A3014 RMK AO2 SLP213 T00391022=
200801241552 METAR KATL 241552Z 31014KT 10SM FEW024 SCT150 BKN250 04/M02 A3014 RMK AO2 SLP212 T00391017=
200801241452 METAR KATL 241452Z 30013G19KT 10SM FEW020 SCT150 BKN200 03/M01 A3012 RMK AO2 SLP204 T00331011 51020=
200801241352 METAR KATL 241352Z 30016G20KT 8SM BKN020 OVC050 04/M01 A3011 RMK AO2 SLP201 T00391006=
200801241252 METAR KATL 241252Z 30010KT 9SM BKN018 OVC042 04/00 A3007 RMK AO2 SLP188 T00390000=
200801241152 METAR KATL 241152Z 31016G23KT 10SM OVC016 04/01 A3006 RMK AO2 SLP182 T00440006 10044 20033 53008=
200801241052 METAR KATL 241052Z 30012KT 10SM OVC018 04/02 A3003 RMK AO2 SLP174 T00390017=
200801241036 SPECI KATL 241036Z 30009KT 10SM BKN018 OVC041 04/02 A3002 RMK AO2=
200801241036 SPECI KATL 241036Z 30009KT 10SM BKN018 OVC041 04/02 A3002 RMK AO2=
200801241023 SPECI KATL 241023Z 30010KT 10SM SCT018 OVC041 04/02 A3002 RMK AO2=
200801241023 SPECI KATL 241023Z 30010KT 10SM SCT018 OVC041 04/02 A3002 RMK AO2=
200801240952 METAR KATL 240952Z 29006KT 10SM OVC016 04/02 A3002 RMK AO2 SLP171 T00440017=
200801240852 METAR KATL 240852Z 28006KT 10SM OVC016 03/01 A3003 RMK AO2 SLP174 T00330011 58007=
200801240822 SPECI KATL 240822Z 29005KT 10SM BKN016 BKN065 OVC150 03/01 A3004 RMK AO2=
200801240822 SPECI KATL 240822Z 29005KT 10SM BKN016 BKN065 OVC150 03/01 A3004 RMK AO2=
200801240752 METAR KATL 240752Z 29006KT 10SM SCT065 BKN110 OVC150 03/01 A3004 RMK AO2 SLP178 T00330011=
200801240652 METAR KATL 240652Z 28005KT 10SM FEW100 OVC150 03/01 A3004 RMK AO2 SLP177 T00330011=
200801240552 METAR KATL 240552Z 29004KT 10SM BKN150 BKN250 03/01 A3005 RMK AO2 SLP181 T00330011 10067 20033 55009=
200801240452 METAR KATL 240452Z 30003KT 10SM FEW100 OVC150 04/01 A3005 RMK AO2 SLP179 T00440011 401000039=
200801240352 METAR KATL 240352Z 34004KT 10SM BKN150 OVC250 05/02 A3005 RMK AO2 SLP182 T00500017=
200801240252 METAR KATL 240252Z 32005KT 10SM OVC150 05/02 A3008 RMK AO2 SLP190 T00500017 57001=
200801240152 METAR KATL 240152Z 31006KT 10SM BKN150 OVC200 05/02 A3008 RMK AO2 SLP192 T00500017=
200801240052 METAR KATL 240052Z 33006KT 10SM FEW120 BKN150 OVC200 06/02 A3008 RMK AO2 SLP191 T00560017=
200801232352 METAR KATL 232352Z 32006KT 10SM OVC150 07/02 A3008 RMK AO2 SLP192 T00670017 10100 20067 51006=
200801232252 METAR KATL 232252Z COR 29006KT 10SM SCT140 BKN200 BKN250 07/02 A3008 RMK AO2 SLP190 T00720017=
200801232152 METAR KATL 232152Z 28005KT 10SM FEW030 SCT150 BKN250 08/02 A3008 RMK AO2 SLP189 T00830022=
200801232052 METAR KATL 232052Z 30006KT 10SM FEW030 SCT150 SCT200 BKN250 09/02 A3007 RMK AO2 SLP186 T00890022 56018=
200801231952 METAR KATL 231952Z VRB05KT 10SM FEW030 SCT200 BKN250 10/02 A3007 RMK AO2 SLP186 T01000022=
200801231852 METAR KATL 231852Z 28008KT 10SM FEW022 SCT250 09/03 A3009 RMK AO2 SLP195 T00940028=
200801231838 SPECI KATL 231838Z 27007KT 10SM FEW022 SCT250 09/03 A3009 RMK AO2=
200801231838 SPECI KATL 231838Z 27007KT 10SM FEW022 SCT250 09/03 A3009 RMK AO2=
200801231752 METAR KATL 231752Z 31011KT 10SM BKN020 BKN250 08/02 A3012 RMK AO2 SLP204 T00780022 10089 20044 58014=
200801231652 METAR KATL 231652Z 33010KT 10SM BKN020 BKN250 09/03 A3014 RMK AO2 SLP212 T00890033=
200801231552 METAR KATL 231552Z 32009KT 10SM BKN018 BKN250 08/03 A3015 RMK AO2 SLP214 T00780028=
200801231503 SPECI KATL 231503Z 31006KT 8SM SCT011 SCT250 06/03 A3016 RMK AO2=
200801231503 SPECI KATL 231503Z 31006KT 8SM SCT011 SCT250 06/03 A3016 RMK AO2=
200801231452 METAR KATL 231452Z 30007KT 7SM BKN011 BKN250 06/04 A3016 RMK AO2 SLP220 T00560039 53012=
200801231406 SPECI KATL 231406Z 29006KT 3SM BKN008 BKN014 BKN250 05/03 A3015 RMK AO2 SFC VIS 9=
200801231406 SPECI KATL 231406Z 29006KT 3SM BKN008 BKN014 BKN250 05/03 A3015 RMK AO2 SFC VIS 9=
200801231352 METAR KATL 231352Z 29005KT 3SM SCT008 BKN014 BKN250 05/03 A3015 RMK AO2 SFC VIS 8 SLP216 T00500033=
200801231254 SPECI KATL 231254Z 32005KT 3SM OVC009 05/03 A3013 RMK AO2 SFC VIS 8 CIG 006V013=
200801231254 SPECI KATL 231254Z 32005KT 3SM OVC009 05/03 A3013 RMK AO2 SFC VIS 8 CIG 006V013=
200801231252 METAR KATL 231252Z 32005KT 2SM OVC009 05/03 A3013 RMK AO2 SFC VIS 9 CIG 007V013 SLP208 T00500033=
200801231152 METAR KATL 231152Z 29004KT 2SM BKN005 OVC012 04/04 A3013 RMK AO2 SFC VIS 8 DZE49 CIG 003V009 SLP207 P0000 60000 70011 T00440039 10050 20044 53009=
200801231052 METAR KATL 231052Z 31006KT 2SM -DZ BR OVC003 04/04 A3011 RMK AO2 SFC VIS 4 DZB47 SLP201 P0000 T00440039=
200801231021 SPECI KATL 231021Z 31005KT 2SM BKN007 OVC016 04/04 A3010 RMK AO2 SFC VIS 7 CIG 004V009=
200801231021 SPECI KATL 231021Z 31005KT 2SM BKN007 OVC016 04/04 A3010 RMK AO2 SFC VIS 7 CIG 004V009=
200801231012 SPECI KATL 231012Z 31007KT 2SM FEW007 OVC016 04/04 A3010 RMK AO2 SFC VIS 8=
200801231012 SPECI KATL 231012Z 31007KT 2SM FEW007 OVC016 04/04 A3010 RMK AO2 SFC VIS 8=
200801230952 METAR KATL 230952Z 30005KT 2SM OVC018 04/04 A3010 RMK AO2 SFC VIS 9 SLP199 T00440039=
200801230918 SPECI KATL 230918Z 29004KT 2SM SCT004 OVC018 04/04 A3010 RMK AO2 SFC VIS 8=
200801230918 SPECI KATL 230918Z 29004KT 2SM SCT004 OVC018 04/04 A3010 RMK AO2 SFC VIS 8=
200801230852 METAR KATL 230852Z 32004KT 2SM BKN004 OVC014 04/04 A3010 RMK AO2 SFC VIS 7 DZE49 SLP198 P0000 60000 T00440039 58011=
200801230752 METAR KATL 230752Z 32005KT 2SM -DZ BR OVC003 04/04 A3010 RMK AO2 SFC VIS 6 CIG 002V006 SLP200 P0000 T00440039=
200801230652 METAR KATL 230652Z 32008KT 2SM -DZ BR OVC003 04/04 A3013 RMK AO2 SFC VIS 5 DZB27 SLP211 P0000 T00440039=
200801230552 METAR KATL 230552Z 31008KT 2SM BR OVC003 05/04 A3013 RMK AO2 SFC VIS 3 SLP210 CIG 002V006 60010 T00500044 10050 20039 58009=
200801230452 METAR KATL 230452Z 30006KT 2SM BR BKN003 BKN010 OVC020 04/04 A3014 RMK AO2 SFC VIS 4 RAE04 SLP215 P0000 T00440039 400500006=
200801230441 SPECI KATL 230441Z 30005KT 2SM BR SCT003 BKN010 OVC020 04/04 A3015 RMK AO2 SFC VIS 4 RAE04 P0000=
200801230441 SPECI KATL 230441Z 30005KT 2SM BR SCT003 BKN010 OVC020 04/04 A3015 RMK AO2 SFC VIS 4 RAE04 P0000=
200801230352 METAR KATL 230352Z 30004KT 2SM -RA BR BKN003 BKN020 OVC050 05/04 A3016 RMK AO2 SFC VIS 4 SLP219 BKN003 V SCT P0005 T00500039=
200801230330 SPECI KATL 230330Z 24003KT 2SM -RA BR BKN004 BKN020 OVC050 05/04 A3016 RMK AO2 SFC VIS 4 CIG 002V006 P0003=
200801230330 SPECI KATL 230330Z 24003KT 2SM -RA BR BKN004 BKN020 OVC050 05/04 A3016 RMK AO2 SFC VIS 4 CIG 002V006 P0003=
200801230315 SPECI KATL 230315Z 00000KT 2SM -RA BR SCT003 BKN015 OVC050 04/04 A3016 RMK AO2 SFC VIS 3 P0003=
200801230315 SPECI KATL 230315Z 00000KT 2SM -RA BR SCT003 BKN015 OVC050 04/04 A3016 RMK AO2 SFC VIS 3 P0003=
200801230252 METAR KATL 230252Z 22003KT 2SM -RA BR BKN004 BKN015 OVC050 04/04 A3016 RMK AO2 SFC VIS 3 SLP220 CIG 002V006 P0005 60005 T00440039 50001=
200801230152 METAR KATL 230152Z 27003KT 1/2SM -RA BR OVC003 04/03 A3018 RMK AO2 SFC VIS 2 1/2 RAB0055E17B48 SLP226 CIG 002V006 P0000 T00390033=
200801230111 SPECI KATL 230111Z 22003KT 1/2SM -RA BR BKN002 OVC006 04/03 A3017 RMK AO2 SFC VIS 1 3/4 RAB0055 PCPN VRY LGT P0000=
200801230111 SPECI KATL 230111Z 22003KT 1/2SM -RA BR BKN002 OVC006 04/03 A3017 RMK AO2 SFC VIS 1 3/4 RAB0055 PCPN VRY LGT P0000=
200801230059 SPECI KATL 230059Z 19004KT 1SM -RA BR OVC003 04/03 A3017 RMK AO2 SFC VIS 3 RAB55 CIG 002V006 PCPN VRY LGT P0000=
200801230059 SPECI KATL 230059Z 19004KT 1SM -RA BR OVC003 04/03 A3017 RMK AO2 SFC VIS 3 RAB55 CIG 002V006 PCPN VRY LGT P0000=
200801230056 SPECI KATL 230056Z 20003KT 2 1/2SM -RA BR OVC004 04/03 A3017 RMK AO2 SFC VIS 4 RAB55 CIG 003V007 P0000=
200801230056 SPECI KATL 230056Z 20003KT 2 1/2SM -RA BR OVC004 04/03 A3017 RMK AO2 SFC VIS 4 RAB55 CIG 003V007 P0000=
200801230052 METAR KATL 230052Z COR 19003KT 2 1/2SM BR OVC006 04/03 A3017 RMK AO2 SFC VIS 5 RAB37E47 SLP224 CIG 004V007 P0000 T00390033=
200801230036 SPECI KATL 230036Z VRB04KT 2 1/2SM BR OVC006 04/03 A3018 RMK AO2 SFC VIS 5 CIG 004V007=
200801230036 SPECI KATL 230036Z VRB04KT 2 1/2SM BR OVC006 04/03 A3018 RMK AO2 SFC VIS 5 CIG 004V007=
200801222352 METAR KATL 222352Z 14004KT 9SM OVC006 04/02 A3016 RMK AO2 SLP220 VCSH N-NE 60001 T00390022 10044 20028 56007=
200801222252 METAR KATL 222252Z 14004KT 9SM OVC008 04/02 A3016 RMK AO2 SLP221 T00390017=
200801222215 SPECI KATL 222215Z 14004KT 10SM OVC009 04/02 A3017 RMK AO2=
200801222215 SPECI KATL 222215Z 14004KT 10SM OVC009 04/02 A3017 RMK AO2=
200801222152 METAR KATL 222152Z 18005KT 8SM OVC011 04/02 A3018 RMK AO2 SLP227 T00440017=
200801222052 METAR KATL 222052Z 12003KT 9SM OVC013 04/01 A3018 RMK AO2 SLP227 60001 T00440006 56030=
200801221952 METAR KATL 221952Z 00000KT 8SM OVC013 04/00 A3020 RMK AO2 RAE1855 SLP236 P0000 T00390000=
200801221940 SPECI KATL 221940Z 00000KT 9SM OVC013 03/M01 A3021 RMK AO2 RAE1855 P0000=
200801221940 SPECI KATL 221940Z 00000KT 9SM OVC013 03/M01 A3021 RMK AO2 RAE1855 P0000=
200801221853 SPECI KATL 221853Z 15003KT 9SM -RA OVC015 03/M01 A3023 RMK AO2 P0000=
200801221853 SPECI KATL 221853Z 15003KT 9SM -RA OVC015 03/M01 A3023 RMK AO2 P0000=
200801221852 METAR KATL 221852Z 00000KT 5SM -RA BKN015 OVC025 03/M01 A3023 RMK AO2 RAB21 SLP246 P0001 T00331006=
200801221845 SPECI KATL 221845Z 14003KT 5SM -RA BKN015 OVC025 03/M01 A3024 RMK AO2 RAB21 P0000=
200801221845 SPECI KATL 221845Z 14003KT 5SM -RA BKN015 OVC025 03/M01 A3024 RMK AO2 RAB21 P0000=
200801221824 SPECI KATL 221824Z 13003KT 8SM -RA BKN013 BKN027 OVC040 03/M01 A3025 RMK AO2 RAB21 P0000=
200801221824 SPECI KATL 221824Z 13003KT 8SM -RA BKN013 BKN027 OVC040 03/M01 A3025 RMK AO2 RAB21 P0000=
200801221752 METAR KATL 221752Z 12004KT 9SM FEW012 BKN015 OVC025 03/M02 A3027 RMK AO2 RAB1653E46 SLP259 P0000 60000 T00281017 10028 20006 58033=
200801221656 SPECI KATL 221656Z 09004KT 6SM -RA OVC012 02/M03 A3032 RMK AO2 RAB53 P0000=
200801221656 SPECI KATL 221656Z 09004KT 6SM -RA OVC012 02/M03 A3032 RMK AO2 RAB53 P0000=
200801221615 SPECI KATL 221615Z 09006KT 9SM BKN012 BKN015 OVC040 02/M04 A3033 RMK AO2 RAE02 P0000=
200801221615 SPECI KATL 221615Z 09006KT 9SM BKN012 BKN015 OVC040 02/M04 A3033 RMK AO2 RAE02 P0000=
200801221556 SPECI KATL 221556Z 10006KT 7SM -RA BKN012 BKN015 OVC040 02/M04 A3035 RMK AO2 P0000=
200801221556 SPECI KATL 221556Z 10006KT 7SM -RA BKN012 BKN015 OVC040 02/M04 A3035 RMK AO2 P0000=
200801221552 METAR KATL 221552Z 11006KT 10SM -RA BKN012 BKN015 OVC040 02/M04 A3035 RMK AO2 RAB51 SLP285 P0000 T00171044=
200801221452 METAR KATL 221452Z 09007KT 10SM BKN012 BKN039 OVC075 02/M05 A3037 RMK AO2 SLP293 T00171050 58006=
200801221352 METAR KATL 221352Z 09007KT 10SM OVC012 01/M06 A3039 RMK AO2 SLP299 T00111056=
200801221252 METAR KATL 221252Z 08008KT 10SM OVC014 01/M07 A3039 RMK AO2 SLP302 T00061067=
200801221152 METAR KATL 221152Z 08009KT 10SM OVC014 01/M08 A3039 RMK AO2 SLP301 T00061078 10017 20006 55003=
200801221002 SPECI KATL 221002Z 09009KT 10SM OVC014 01/M11 A3037 RMK AO2=
200801221002 SPECI KATL 221002Z 09009KT 10SM OVC014 01/M11 A3037 RMK AO2=
200801220952 METAR KATL 220952Z 09011KT 10SM OVC016 01/M11 A3037 RMK AO2 SLP294 T00111111=
200801220852 METAR KATL 220852Z 09009KT 10SM OVC016 01/M12 A3040 RMK AO2 SLP302 T00111117 56032=
200801220752 METAR KATL 220752Z 10010KT 10SM OVC016 01/M13 A3042 RMK AO2 SLP309 T00111128=
200801220652 METAR KATL 220652Z 11012G18KT 10SM OVC018 02/M14 A3045 RMK AO2 SLP321 T00171139=
200801220552 METAR KATL 220552Z 09011KT 10SM OVC020 02/M14 A3050 RMK AO2 SLP336 T00171139 10028 20011 58011=
200801220452 METAR KATL 220452Z 11010KT 10SM OVC020 02/M14 A3051 RMK AO2 SLP340 T00221139 400501067=
200801220352 METAR KATL 220352Z 12010KT 10SM OVC024 02/M14 A3053 RMK AO2 SLP348 T00221139=
200801220252 METAR KATL 220252Z 11011G16KT 10SM OVC025 02/M14 A3053 RMK AO2 SLP349 T00221144 53002=
200801220152 METAR KATL 220152Z 09011KT 10SM OVC025 02/M14 A3052 RMK AO2 SLP348 T00221139=
200801220118 SPECI KATL 220118Z 09009KT 10SM OVC028 02/M13 A3052 RMK AO2=
200801220118 SPECI KATL 220118Z 09009KT 10SM OVC028 02/M13 A3052 RMK AO2=
200801220052 METAR KATL 220052Z 09008KT 10SM FEW040 SCT250 01/M13 A3052 RMK AO2 SLP348 T00111128=
200801212352 METAR KATL 212352Z 10008KT 10SM FEW030 BKN042 BKN250 03/M13 A3052 RMK AO2 SLP349 T00281133 10050 20022 55007=
200801212252 METAR KATL 212252Z 09009G16KT 10SM BKN030 BKN250 03/M13 A3051 RMK AO2 SLP343 T00331133=
200801212233 SPECI KATL 212233Z 09012KT 10SM OVC028 04/M13 A3051 RMK AO2=
200801212233 SPECI KATL 212233Z 09012KT 10SM OVC028 04/M13 A3051 RMK AO2=
200801212152 METAR KATL 212152Z 10009KT 10SM BKN036 BKN044 BKN280 04/M14 A3052 RMK AO2 SLP347 T00441139=
200801212052 METAR KATL 212052Z 12007KT 10SM FEW040 SCT250 SCT280 05/M14 A3055 RMK AO2 SLP354 T00501144 56028=
200801211952 METAR KATL 211952Z 09008KT 10SM FEW280 05/M14 A3056 RMK AO2 SLP359 T00501139=
200801211852 METAR KATL 211852Z 13009KT 10SM FEW280 04/M14 A3058 RMK AO2 SLP369 T00391139=
200801211752 METAR KATL 211752Z 12009G17KT 10SM FEW250 SCT280 02/M14 A3063 RMK AO2 SLP386 T00221144 10028 21067 58015=
200801211652 METAR KATL 211652Z 11008G15KT 10SM FEW250 SCT280 01/M13 A3068 RMK AO2 SLP401 T00111133=
200801211552 METAR KATL 211552Z 11010KT 10SM FEW250 SCT280 M01/M14 A3069 RMK AO2 SLP407 T10061139=
200801211452 METAR KATL 211452Z 10009KT 10SM FEW280 M03/M14 A3068 RMK AO2 SLP402 T10281144 53015=
200801211352 METAR KATL 211352Z 09012KT 10SM FEW250 M04/M14 A3066 RMK AO2 SLP398 T10441139=
200801211252 METAR KATL 211252Z 09010KT 10SM CLR M07/M14 A3064 RMK AO2 SLP393 T10671139=
200801211152 METAR KATL 211152Z 08007KT 10SM CLR M07/M14 A3063 RMK AO2 SLP388 T10671144 11050 21067 53019=
200801211052 METAR KATL 211052Z 09008KT 10SM CLR M07/M14 A3060 RMK AO2 SLP379 T10671139=
200801210952 METAR KATL 210952Z 07010KT 10SM CLR M06/M15 A3059 RMK AO2 SLP371 T10561150=
200801210852 METAR KATL 210852Z 05007KT 10SM CLR M06/M16 A3057 RMK AO2 SLP367 T10561161 51005=
200801210752 METAR KATL 210752Z 01003KT 10SM CLR M06/M17 A3057 RMK AO2 SLP367 T10561167=
200801210652 METAR KATL 210652Z 02005KT 10SM CLR M06/M17 A3056 RMK AO2 SLP364 T10561172=
200801210552 METAR KATL 210552Z 01006KT 10SM CLR M06/M16 A3056 RMK AO2 SLP363 T10561161 11033 21061 51006=
200801210452 METAR KATL 210452Z VRB05KT 10SM CLR M05/M17 A3055 RMK AO2 SLP360 T10501172 410061083=
200801210352 METAR KATL 210352Z 34006KT 10SM CLR M05/M17 A3056 RMK AO2 SLP363 T10501172=
200801210252 METAR KATL 210252Z 33009KT 10SM CLR M04/M16 A3054 RMK AO2 SLP358 T10441161 50008=
200801210152 METAR KATL 210152Z 33009KT 10SM CLR M04/M16 A3054 RMK AO2 SLP360 T10391161=
200801210052 METAR KATL 210052Z 33007KT 10SM CLR M04/M16 A3053 RMK AO2 SLP356 T10391156=
200801202352 METAR KATL 202352Z 33006KT 10SM FEW250 M03/M16 A3052 RMK AO2 SLP349 T10281156 11006 21033 53016=
200801202252 METAR KATL 202252Z 33010KT 10SM FEW250 M02/M17 A3050 RMK AO2 SLP341 T10221167=
200801202152 METAR KATL 202152Z 33010KT 10SM FEW250 M01/M17 A3048 RMK AO2 SLP336 T10111172=
200801202052 METAR KATL 202052Z 34015KT 10SM FEW250 M01/M16 A3047 RMK AO2 SLP330 T10111161 56004=
200801201952 METAR KATL 201952Z 32011KT 10SM FEW250 M02/M16 A3047 RMK AO2 SLP330 T10171156=
200801201852 METAR KATL 201852Z 32015G19KT 10SM FEW250 M02/M17 A3047 RMK AO2 SLP331 T10221167=
200801201752 METAR KATL 201752Z 32012KT 10SM FEW250 M03/M16 A3048 RMK AO2 SLP335 T10331161 11033 21083 50010=
200801201652 METAR KATL 201652Z 32010KT 10SM FEW250 M04/M16 A3050 RMK AO2 SLP341 T10441156=
200801201552 METAR KATL 201552Z 34013G18KT 10SM FEW250 M06/M16 A3049 RMK AO2 SLP337 T10561161=
200801201452 METAR KATL 201452Z 34011KT 10SM FEW250 M07/M16 A3045 RMK AO2 SLP325 T10671161 53034=
200801201352 METAR KATL 201352Z COR 32013KT 10SM FEW250 M08/M16 A3041 RMK AO2 SLP312 T10831161=
200801201252 METAR KATL 201252Z 32010KT 10SM FEW250 M08/M16 A3038 RMK AO2 SLP300 T10831156=
200801201152 METAR KATL 201152Z 32013KT 10SM CLR M08/M15 A3035 RMK AO2 SLP290 70018 T10781150 11022 21078 53030=
200801201052 METAR KATL 201052Z 33014KT 10SM CLR M07/M14 A3030 RMK AO2 SLP275 T10721144=
200801200952 METAR KATL 200952Z 33011KT 10SM CLR M07/M14 A3028 RMK AO2 SLP267 T10671144=
200801200852 METAR KATL 200852Z 34014KT 10SM CLR M05/M13 A3026 RMK AO2 SLP257 T10501128 51017=
200801200752 METAR KATL 200752Z 32012KT 10SM CLR M04/M11 A3025 RMK AO2 SLP254 T10441111=
200801200652 METAR KATL 200652Z 31013KT 10SM CLR M03/M09 A3023 RMK AO2 SLP250 T10331089=
200801200452 METAR KATL 200452Z 32012KT 10SM CLR M02/M07 A3018 RMK AO2 SLP232 T10171067 400611017=
200801200352 METAR KATL 200352Z 33018G24KT 10SM FEW120 M01/M07 A3017 RMK AO2 SLP227 T10061067=
200801200152 METAR KATL 200152Z 32011KT 10SM BKN085 OVC110 01/M03 A3014 RMK AO2 SLP215 T00111028=
200801200052 METAR KATL 200052Z 30007KT 10SM OVC070 01/M02 A3011 RMK AO2 SLP206 T00061022=
200801192352 METAR KATL 192352Z 32008KT 10SM OVC075 01/M02 A3009 RMK AO2 SNE17 SLP198 931003 4/001 P0000 60003 T00061017 10011 21006 51032=
200801192252 METAR KATL 192252Z 34009KT 5SM -SN FEW030 OVC046 01/M02 A3007 RMK AO2 SLP191 PCPN VRY LGT P0000 T00111017=
200801192152 METAR KATL 192152Z 33012KT 8SM -SN OVC049 01/M01 A3003 RMK AO2 SNB34 SLP177 P0000 T00061011=
200801192101 SPECI KATL 192101Z 35009KT 8SM SCT008 OVC044 01/M01 A3000 RMK AO2=
200801192101 SPECI KATL 192101Z 35009KT 8SM SCT008 OVC044 01/M01 A3000 RMK AO2=
200801192052 METAR KATL 192052Z 34009KT 8SM BKN008 OVC044 01/M01 A2999 RMK AO2 SNE50 SLP164 BKN008 V SCT P0000 60003 T00061006 56035=
200801192033 SPECI KATL 192033Z 35010KT 3SM -SN BR OVC008 01/M01 A2999 RMK AO2 P0000=
200801192033 SPECI KATL 192033Z 35010KT 3SM -SN BR OVC008 01/M01 A2999 RMK AO2 P0000=
200801191952 METAR KATL 191952Z 33010KT 1SM -SN BR OVC007 00/M01 A3003 RMK AO2 SFC VIS 1 1/4 SLP175 P0001 T00001011=
200801191852 METAR KATL 191852Z 33012KT 1SM -SN BR BKN008 OVC011 00/M02 A3005 RMK AO2 SFC VIS 1 1/2 SLP185 P0002 T00001017=
200801191752 METAR KATL 191752Z 33010KT 1SM R09R/P6000FT -SN BR OVC006 M01/M02 A3010 RMK AO2 SLP201 931005 4/001 P0004 60015 T10061017 10022 21006 50006=
200801191708 SPECI KATL 191708Z 32012KT 1SM R09R/P6000FT -SN BR BKN008 OVC025 M01/M02 A3013 RMK AO2 VIS LWR W-N P0001=
200801191708 SPECI KATL 191708Z 32012KT 1SM R09R/P6000FT -SN BR BKN008 OVC025 M01/M02 A3013 RMK AO2 VIS LWR W-N P0001=
200801191652 METAR KATL 191652Z 33011KT 1SM R09R/4000V5500FT -SN BR OVC012 M01/M02 A3012 RMK AO2 SLP209 VIS LWR W-N P0003 T10061017=
200801191637 SPECI KATL 191637Z 32011KT 1 1/4SM R09R/5000VP6000FT -SN BR BKN012 OVC032 00/M02 A3013 RMK AO2 BKN012 V SCT P0002=
200801191637 SPECI KATL 191637Z 32011KT 1 1/4SM R09R/5000VP6000FT -SN BR BKN012 OVC032 00/M02 A3013 RMK AO2 BKN012 V SCT P0002=
200801191552 METAR KATL 191552Z 32012KT 2SM R09R/6000VP6000FT -SN BR OVC036 01/M02 A3011 RMK AO2 RAE29 SLP204 P0004 T00061017=
200801191539 SPECI KATL 191539Z 32008KT 2 1/2SM -SN BR OVC039 01/M02 A3010 RMK AO2 SFC VIS 4 RAE29 P0004=
200801191539 SPECI KATL 191539Z 32008KT 2 1/2SM -SN BR OVC039 01/M02 A3010 RMK AO2 SFC VIS 4 RAE29 P0004=
200801191452 METAR KATL 191452Z 28005KT 8SM -SNRA OVC047 01/M02 A3008 RMK AO2 SNB49 SLP193 P0002 60004 T00111017 55000=
200801191352 METAR KATL 191352Z 32004KT 10SM -RA OVC060 02/M02 A3003 RMK AO2 SLP175 P0000 T00171022=
200801191252 METAR KATL 191252Z 34009KT 7SM -RA BKN048 OVC070 02/M02 A3005 RMK AO2 SLP179 P0002 T00171022=
200801191152 METAR KATL 191152Z 31005KT 10SM -RA BKN075 OVC085 02/M01 A3008 RMK AO2 RAB1054 SLP192 P0001 60004 70004 T00221011 10056 20017 58005=
200801191052 METAR KATL 191052Z COR 25003KT 10SM BKN055 OVC070 02/M01 A3010 RMK AO2 RAE51 SLP199 P0002 T00221011=
200801190952 METAR KATL 190952Z 33006KT 10SM -RA OVC046 03/M03 A3008 RMK AO2 RAB04 SLP192 P0001 T00281028=
200801190852 METAR KATL 190852Z 34008KT 10SM BKN065 OVC100 04/M06 A3010 RMK AO2 RAE35 SLP196 P0000 60000 T00391061 58003=
200801190752 METAR KATL 190752Z 33008KT 10SM -RA BKN060 OVC085 05/M07 A3011 RMK AO2 RAB48 SLP200 P0000 T00501072=
200801190652 METAR KATL 190652Z 32010KT 10SM OVC090 06/M08 A3011 RMK AO2 SLP199 T00561083=
200801190552 METAR KATL 190552Z 33009KT 10SM SCT100 BKN150 OVC200 06/M07 A3011 RMK AO2 SLP199 T00561072 10100 20056 58004=
200801190452 METAR KATL 190452Z 34005KT 10SM SCT110 BKN150 OVC200 06/M06 A3011 RMK AO2 SLP201 T00611056 401220033=
200801190352 METAR KATL 190352Z 33006KT 10SM OVC200 06/M04 A3014 RMK AO2 SLP212 T00611039=
200801190252 METAR KATL 190252Z 33008KT 10SM OVC200 07/M03 A3012 RMK AO2 SLP204 T00721028 50003=
200801190152 METAR KATL 190152Z 33008KT 10SM BKN200 OVC250 08/01 A3013 RMK AO2 SLP207 T00780006=
200801190052 METAR KATL 190052Z 28003KT 10SM BKN200 OVC250 09/02 A3012 RMK AO2 SLP205 T00890022=
200801182352 METAR KATL 182352Z 00000KT 10SM FEW090 BKN200 OVC250 10/02 A3011 RMK AO2 SLP200 T01000017 10122 20100 53002=
200801182252 METAR KATL 182252Z 00000KT 10SM SCT085 BKN180 OVC250 10/01 A3010 RMK AO2 SLP196 T01000011=
200801182152 METAR KATL 182152Z 30004KT 10SM FEW150 SCT200 BKN300 11/01 A3009 RMK AO2 SLP194 T01060011=
200801182052 METAR KATL 182052Z 26006KT 10SM FEW150 SCT200 BKN300 12/01 A3011 RMK AO2 SLP199 T01170011 55006=
200801181952 METAR KATL 181952Z 27006KT 10SM SCT150 SCT200 BKN300 11/02 A3010 RMK AO2 SLP195 T01110017=
200801181852 METAR KATL 181852Z 30009KT 10SM FEW200 SCT300 11/01 A3012 RMK AO2 SLP202 T01110011=
200801181752 METAR KATL 181752Z VRB04KT 10SM FEW150 BKN200 10/02 A3012 RMK AO2 SLP205 T01000022 10106 20033 58003=
200801181652 METAR KATL 181652Z 30008KT 10SM FEW150 BKN200 09/03 A3015 RMK AO2 SLP214 T00940028=
200801181552 METAR KATL 181552Z 32009KT 10SM FEW020 SCT150 BKN200 07/02 A3016 RMK AO2 SLP218 T00720022=
200801181452 METAR KATL 181452Z 31007KT 8SM FEW120 BKN150 BKN200 06/03 A3013 RMK AO2 SLP210 T00560028 53010=
200801181352 METAR KATL 181352Z 32005KT 8SM FEW120 SCT200 BKN250 05/02 A3013 RMK AO2 SLP207 T00500022=
200801181252 METAR KATL 181252Z 33009KT 8SM SCT120 SCT200 SCT250 03/02 A3011 RMK AO2 SLP203 T00330022=
200801181152 METAR KATL 181152Z 31008KT 6SM BR SCT120 BKN200 BKN250 04/02 A3010 RMK AO2 SLP201 60000 T00390022 10044 20033 51009=
200801181052 METAR KATL 181052Z 29005KT 6SM BR FEW004 SCT012 BKN140 BKN250 04/03 A3010 RMK AO2 SLP199 T00390028=
200801180952 METAR KATL 180952Z 29004KT 5SM BR FEW004 SCT010 SCT250 03/03 A3008 RMK AO2 DZE24 SLP194 P0000 T00330028=
200801180927 SPECI KATL 180927Z 30004KT 5SM BR FEW004 SCT010 SCT250 03/03 A3008 RMK AO2 DZE24 P0000=
200801180927 SPECI KATL 180927Z 30004KT 5SM BR FEW004 SCT010 SCT250 03/03 A3008 RMK AO2 DZE24 P0000=
200801180910 SPECI KATL 180910Z 25003KT 5SM -DZ BR SCT010 04/03 A3009 RMK AO2 P0000=
200801180910 SPECI KATL 180910Z 25003KT 5SM -DZ BR SCT010 04/03 A3009 RMK AO2 P0000=
200801180852 METAR KATL 180852Z 27004KT 5SM -DZ BR SCT006 BKN012 04/03 A3008 RMK AO2 SLP191 PCPN VRY LGT P0000 60000 T00390033 55002=
200801180847 SPECI KATL 180847Z 26003KT 6SM -DZ BR SCT006 OVC012 04/03 A3008 RMK AO2 P0000=
200801180847 SPECI KATL 180847Z 26003KT 6SM -DZ BR SCT006 OVC012 04/03 A3008 RMK AO2 P0000=
200801180800 SPECI KATL 180800Z 30005KT 5SM -DZ BR BKN004 OVC015 04/04 A3007 RMK AO2 P0000=
200801180800 SPECI KATL 180800Z 30005KT 5SM -DZ BR BKN004 OVC015 04/04 A3007 RMK AO2 P0000=
200801180752 METAR KATL 180752Z 30006KT 5SM -DZ BR SCT004 OVC015 04/03 A3006 RMK AO2 SLP186 PCPN VRY LGT P0000 T00440033=
200801180721 SPECI KATL 180721Z 29006KT 5SM -DZ BR BKN004 OVC012 04/03 A3007 RMK AO2 P0000=
200801180721 SPECI KATL 180721Z 29006KT 5SM -DZ BR BKN004 OVC012 04/03 A3007 RMK AO2 P0000=
200801180700 SPECI KATL 180700Z 29008KT 5SM -DZ BR BKN006 OVC014 04/03 A3009 RMK AO2 CIG 004V010 P0000=
200801180700 SPECI KATL 180700Z 29008KT 5SM -DZ BR BKN006 OVC014 04/03 A3009 RMK AO2 CIG 004V010 P0000=
200801180552 METAR KATL 180552Z 27005KT 6SM BR FEW004 OVC018 04/03 A3008 RMK AO2 SLP193 T00440033 10044 20039 50003=
200801180452 METAR KATL 180452Z 26003KT 3SM BR FEW004 OVC017 04/03 A3009 RMK AO2 SFC VIS 5 SLP195 SCT V BKN T00440028 400440000=
200801180419 SPECI KATL 180419Z 27004KT 3SM BR SCT004 OVC018 04/03 A3009 RMK AO2 SFC VIS 5 SCT V BKN=
200801180419 SPECI KATL 180419Z 27004KT 3SM BR SCT004 OVC018 04/03 A3009 RMK AO2 SFC VIS 5 SCT V BKN=
200801180352 METAR KATL 180352Z 26005KT 3SM BR BKN004 OVC020 04/03 A3008 RMK AO2 SFC VIS 4 SLP195 CIG 003V007 T00390028=
200801180307 SPECI KATL 180307Z 26003KT 3SM BR BKN005 OVC020 04/03 A3008 RMK AO2 SFC VIS 4=
200801180307 SPECI KATL 180307Z 26003KT 3SM BR BKN005 OVC020 04/03 A3008 RMK AO2 SFC VIS 4=
200801180304 SPECI KATL 180304Z 26004KT 2SM BR BKN005 OVC020 04/03 A3008 RMK AO2 SFC VIS 4=
200801180304 SPECI KATL 180304Z 26004KT 2SM BR BKN005 OVC020 04/03 A3008 RMK AO2 SFC VIS 4=
200801180252 METAR KATL 180252Z 27005KT 2SM BR SCT005 OVC020 04/03 A3007 RMK AO2 SFC VIS 4 SLP191 SCT V BKN T00390028 53016=
200801180152 SPECI KATL 180152Z 28004KT 2SM BR BKN005 OVC020 04/03 A3006 RMK AO2 SFC VIS 4 SLP185 T00390028=
200801180052 METAR KATL 180052Z 00000KT 2SM BR BKN005 OVC020 04/03 A3004 RMK AO2 SFC VIS 4 SLP179 T00390028=
200801172352 METAR KATL 172352Z 33005KT 2SM BR BKN006 OVC014 04/03 A3002 RMK AO2 SFC VIS 4 SLP174 60000 T00390028 10039 20022 51017=
200801172252 METAR KATL 172252Z 33005KT 2SM BR BKN006 OVC012 04/02 A3001 RMK AO2 SFC VIS 4 DZE52 SLP171 P0000 T00390022=
200801172208 SPECI KATL 172208Z 32004KT 2SM -DZ BR OVC008 04/02 A3001 RMK AO2 SFC VIS 4 P0000=
200801172208 SPECI KATL 172208Z 32004KT 2SM -DZ BR OVC008 04/02 A3001 RMK AO2 SFC VIS 4 P0000=
200801172152 SPECI KATL 172152Z 33004KT 3SM -DZ BR OVC008 04/02 A3000 RMK AO2 SFC VIS 4 SLP167 P0000 T00390022=
200801172052 METAR KATL 172052Z 07003KT 3SM -DZ BR OVC008 03/02 A2997 RMK AO2 SFC VIS 4 DZB48 SLP157 P0000 60000 T00330017 55009=
200801171952 METAR KATL 171952Z 08005KT 3SM BR OVC006 03/02 A2996 RMK AO2 SFC VIS 5 SLP155 T00330017=
200801171852 METAR KATL 171852Z 08006KT 3SM BR OVC006 03/02 A2998 RMK AO2 SFC VIS 5 SLP160 T00280017=
200801171752 METAR KATL 171752Z 03008KT 3SM BR OVC006 02/01 A3000 RMK AO2 SFC VIS 5 SLP167 60000 T00220011 10022 20011 58012=
200801171652 METAR KATL 171652Z 06009KT 3SM BR OVC006 02/01 A3002 RMK AO2 SFC VIS 6 SLP174 T00220006=
200801171649 SPECI KATL 171649Z 06010KT 3SM BR OVC006 02/01 A3002 RMK AO2 SFC VIS 6=
200801171649 SPECI KATL 171649Z 06010KT 3SM BR OVC006 02/01 A3002 RMK AO2 SFC VIS 6=
200801171552 METAR KATL 171552Z 05009KT 2SM BR OVC006 02/01 A3004 RMK AO2 SFC VIS 5 DZE43 SLP180 P0000 T00170006=
200801171550 SPECI KATL 171550Z 05009KT 2SM BR OVC006 02/01 A3004 RMK AO2 SFC VIS 5 DZE43 P0000=
200801171550 SPECI KATL 171550Z 05009KT 2SM BR OVC006 02/01 A3004 RMK AO2 SFC VIS 5 DZE43 P0000=
200801171452 METAR KATL 171452Z 06010KT 3SM -DZ BR OVC006 02/01 A3003 RMK AO2 SFC VIS 4 DZB1354 CIG 005V010 SLP176 P0000 60000 T00170006 53011=
200801171352 METAR KATL 171352Z 06009KT 3SM OVC006 01/00 A3002 RMK AO2 SFC VIS 8 DZB1253E25RAB25E52 CIG 005V009 SLP174 P0000 T00110000=
200801171252 METAR KATL 171252Z 06011KT 3SM OVC006 01/00 A2999 RMK AO2 SFC VIS 10 RAE20 SLP166 P0000 T00110000=
200801171152 METAR KATL 171152Z 07010KT 3SM -RA OVC006 01/00 A2999 RMK AO2 SFC VIS 9 CIG 004V009 SLP165 P0005 60025 70075 T00110000 10011 20000 55005=
200801171052 METAR KATL 171052Z 08012KT 3SM RA OVC006 01/M01 A2998 RMK AO2 SFC VIS 7 RAE25B44 SLP162 P0001 T00061006 $=
200801170952 METAR KATL 170952Z 08013G19KT 3SM -RA BR OVC006 01/M01 A2998 RMK AO2 SFC VIS 10 SLP160 P0000 T00061006 $=
200801170852 METAR KATL 170852Z 09017G23KT 3SM -RA BR OVC006 01/M01 A3001 RMK AO2 SFC VIS 10 CIG 005V010 SLP169 P0002 60019 T00061006 58007 $=
200801170752 METAR KATL 170752Z 08013G20KT 3SM -RA BR OVC006 00/M01 A3001 RMK AO2 PK WND 08030/0724 SFC VIS 10 RAB35FZRAE35 SLP169 P0004 T00001006 $=
200801170736 SPECI KATL 170736Z 10007G19KT 070V130 3SM -RA BR OVC008 01/M01 A3001 RMK AO2 PK WND 08030/0724 SFC VIS 10 RAB35FZRAE35 CIG 005V013 P0004 $=
200801170736 SPECI KATL 170736Z 10007G19KT 070V130 3SM -RA BR OVC008 01/M01 A3001 RMK AO2 PK WND 08030/0724 SFC VIS 10 RAB35FZRAE35 CIG 005V013 P0004 $=
200801170719 SPECI KATL 170719Z 09017G20KT 3SM -FZRA BR OVC008 00/M01 A3004 RMK AO2 SFC VIS 7 CIG 005V010 P0004 $=
200801170719 SPECI KATL 170719Z 09017G20KT 3SM -FZRA BR OVC008 00/M01 A3004 RMK AO2 SFC VIS 7 CIG 005V010 P0004 $=
200801170711 SPECI KATL 170711Z 09012G20KT 3SM FZRA BR OVC008 00/M01 A3004 RMK AO2 SFC VIS 5 CIG 005V010 P0003 $=
200801170711 SPECI KATL 170711Z 09012G20KT 3SM FZRA BR OVC008 00/M01 A3004 RMK AO2 SFC VIS 5 CIG 005V010 P0003 $=
200801170652 METAR KATL 170652Z 11007G17KT 3SM -FZRA BR BKN006 OVC010 00/M01 A3003 RMK AO2 SFC VIS 5 RAE38FZRAB38 SLP179 P0013 T00001006 $=
200801170639 SPECI KATL 170639Z 08012KT 3SM FZRA BR OVC008 00/M01 A3003 RMK AO2 SFC VIS 5 RAE38FZRAB38 CIG 005V011 P0010 $=
200801170639 SPECI KATL 170639Z 08012KT 3SM FZRA BR OVC008 00/M01 A3003 RMK AO2 SFC VIS 5 RAE38FZRAB38 CIG 005V011 P0010 $=
200801170552 METAR KATL 170552Z 09017G25KT 3SM RA BR OVC006 00/M01 A3003 RMK AO2 PK WND 08027/0527 SFC VIS 4 CIG 005V011 SLP177 931000 P0004 60040 T00001011 10006 20000 58033 $=
200801170515 SPECI KATL 170515Z 08018G24KT 3SM -RA BR OVC008 00/M01 A3005 RMK AO2 SFC VIS 5 CIG 005V010 P0001 $=
200801170515 SPECI KATL 170515Z 08018G24KT 3SM -RA BR OVC008 00/M01 A3005 RMK AO2 SFC VIS 5 CIG 005V010 P0001 $=
200801170452 METAR KATL 170452Z 07018G24KT 2 1/2SM -RA BR BKN008 OVC015 00/M01 A3006 RMK AO2 PK WND 06026/0410 SFC VIS 4 PLE00 SLP188 P0014 T00001011 400391006=
200801170401 SPECI KATL 170401Z 08018KT 2 1/2SM -RA BR OVC008 00/M01 A3009 RMK AO2 SFC VIS 4 PLE00 P0002=
200801170401 SPECI KATL 170401Z 08018KT 2 1/2SM -RA BR OVC008 00/M01 A3009 RMK AO2 SFC VIS 4 PLE00 P0002=
200801170352 METAR KATL 170352Z 08018KT 2 1/2SM -RAPL BR OVC008 00/M01 A3011 RMK AO2 SFC VIS 5 PLB50 SLP204 P0008 T00001011=
200801170252 METAR KATL 170252Z 08014G24KT 2 1/2SM -RA BR OVC008 00/M01 A3013 RMK AO2 SFC VIS 6 CIG 006V010 SLP211 P0005 60014 T00001011 58005=
200801170108 SPECI KATL 170108Z 08013KT 2 1/2SM -FZRA BR OVC008 00/M01 A3015 RMK AO2 SFC VIS 5 PLE08 CIG 006V012 P0002=
200801170108 SPECI KATL 170108Z 08013KT 2 1/2SM -FZRA BR OVC008 00/M01 A3015 RMK AO2 SFC VIS 5 PLE08 CIG 006V012 P0002=
200801170052 METAR KATL 170052Z 09012KT 2 1/2SM -FZRAPL BR BKN009 OVC030 00/M01 A3016 RMK AO2 PK WND 06026/0013 SFC VIS 5 SNE12 SLP223 CIG 007V012 P0005 T00001011=
200801162352 METAR KATL 162352Z 08019G23KT 2 1/2SM -FZRASNPL BR BKN008 BKN028 OVC040 00/M02 A3014 RMK AO2 SFC VIS 3 PRESFR SLP217 FZRAB52 931004 P0003 60010 T00001017 10039 20000 58017=
200801162341 SPECI KATL 162341Z 08015KT 2 1/2SM -SNPL BR BKN010 BKN028 OVC040 00/M02 A3017 RMK AO2 PRESFR P0002=
200801162341 SPECI KATL 162341Z 08015KT 2 1/2SM -SNPL BR BKN010 BKN028 OVC040 00/M02 A3017 RMK AO2 PRESFR P0002=
200801162316 SPECI KATL 162316Z 08012KT 2 1/2SM -SNPL BR FEW010 BKN026 OVC040 00/M02 A3020 RMK AO2 SFC VIS 5 P0001=
200801162316 SPECI KATL 162316Z 08012KT 2 1/2SM -SNPL BR FEW010 BKN026 OVC040 00/M02 A3020 RMK AO2 SFC VIS 5 P0001=
200801162252 METAR KATL 162252Z 08012KT 2 1/2SM -SNPL BR BKN032 OVC040 00/M02 A3018 RMK AO2 SFC VIS 4 PLE2158B38 SLP229 P0007 T00001022=
200801162239 SPECI KATL 162239Z 08013KT 2 1/2SM -SNPL BKN037 OVC045 01/M02 A3019 RMK AO2 SFC VIS 4 PLE2158B38 P0006=
200801162239 SPECI KATL 162239Z 08013KT 2 1/2SM -SNPL BKN037 OVC045 01/M02 A3019 RMK AO2 SFC VIS 4 PLE2158B38 P0006=
200801162226 SPECI KATL 162226Z 08013KT 2 1/2SM -SN BKN037 OVC045 01/M02 A3018 RMK AO2 PLE2158 P0003=
200801162226 SPECI KATL 162226Z 08013KT 2 1/2SM -SN BKN037 OVC045 01/M02 A3018 RMK AO2 PLE2158 P0003=
200801162206 SPECI KATL 162206Z 08011KT 3SM -SN FEW024 BKN034 OVC041 01/M03 A3021 RMK AO2 SFC VIS 5 PLE2158 P0002=
200801162206 SPECI KATL 162206Z 08011KT 3SM -SN FEW024 BKN034 OVC041 01/M03 A3021 RMK AO2 SFC VIS 5 PLE2158 P0002=
200801162152 METAR KATL 162152Z 10007KT 2 1/2SM -SNPL FEW008 SCT027 OVC040 01/M03 A3020 RMK AO2 SFC VIS 3 PLB46 SLP237 P0000 T00061028=
200801162126 SPECI KATL 162126Z 11009KT 2 1/2SM -SN FEW005 SCT015 OVC040 01/M03 A3020 RMK AO2 SFC VIS 4 P0000=
200801162126 SPECI KATL 162126Z 11009KT 2 1/2SM -SN FEW005 SCT015 OVC040 01/M03 A3020 RMK AO2 SFC VIS 4 P0000=
200801162120 SPECI KATL 162120Z 10009G17KT 2 1/2SM -SN FEW005 SCT015 OVC040 01/M03 A3021 RMK AO2 SFC VIS 3 P0000=
200801162120 SPECI KATL 162120Z 10009G17KT 2 1/2SM -SN FEW005 SCT015 OVC040 01/M03 A3021 RMK AO2 SFC VIS 3 P0000=
200801162105 SPECI KATL 162105Z 13013G19KT 2 1/2SM -SN OVC018 02/M04 A3019 RMK AO2 SFC VIS 3 P0000=
200801162105 SPECI KATL 162105Z 13013G19KT 2 1/2SM -SN OVC018 02/M04 A3019 RMK AO2 SFC VIS 3 P0000=
200801162059 SPECI KATL 162059Z 12012G21KT 2 1/2SM -SN BKN020 OVC048 02/M06 A3019 RMK AO2 SFC VIS 4 P0000=
200801162059 SPECI KATL 162059Z 12012G21KT 2 1/2SM -SN BKN020 OVC048 02/M06 A3019 RMK AO2 SFC VIS 4 P0000=
200801162057 SPECI KATL 162057Z 11013G21KT 2 1/2SM -SN BKN022 OVC048 02/M06 A3020 RMK AO2 SFC VIS 6 P0000=
200801162057 SPECI KATL 162057Z 11013G21KT 2 1/2SM -SN BKN022 OVC048 02/M06 A3020 RMK AO2 SFC VIS 6 P0000=
200801162055 SPECI KATL 162055Z 10011G21KT 6SM -SN BKN024 OVC048 03/M06 A3020 RMK AO2 P0000=
200801162055 SPECI KATL 162055Z 10011G21KT 6SM -SN BKN024 OVC048 03/M06 A3020 RMK AO2 P0000=
200801162052 METAR KATL 162052Z 11013G20KT 9SM -SN BKN030 BKN050 OVC100 03/M07 A3019 RMK AO2 SNB50 SLP233 VIS LWR E-S SHSN P0000 60000 T00331072 53004=
200801161952 METAR KATL 161952Z 10009KT 10SM BKN060 BKN070 OVC150 04/M08 A3017 RMK AO2 SLP226 VIRGA OHD ALQDS T00391078=
200801161918 SPECI KATL 161918Z 11009KT 10SM FEW060 SCT080 OVC150 03/M08 A3017 RMK AO2 VIRGA OHD ALQDS=
200801161918 SPECI KATL 161918Z 11009KT 10SM FEW060 SCT080 OVC150 03/M08 A3017 RMK AO2 VIRGA OHD ALQDS=
200801161852 METAR KATL 161852Z 11008KT 10SM FEW090 BKN150 OVC180 03/M08 A3016 RMK AO2 SLP222 VIRGA OHD ALQDS T00331083=
200801161752 METAR KATL 161752Z 10011KT 10SM FEW100 BKN150 OVC180 03/M08 A3018 RMK AO2 SLP229 VIRGA OHD ALQDS T00331083 10033 20000 58023=
200801161652 METAR KATL 161652Z 10009KT 10SM FEW110 BKN150 OVC180 03/M08 A3021 RMK AO2 SLP239 VIRGA OHD ALQDS T00281078=
200801161552 METAR KATL 161552Z 09010KT 10SM FEW110 BKN150 OVC180 03/M08 A3025 RMK AO2 SLP250 VIRGA OHD ALQDS T00281078=
200801161452 METAR KATL 161452Z 09010KT 10SM FEW080 BKN150 OVC180 02/M08 A3025 RMK AO2 SLP252 VIRGA OHD ALQDS T00171078 53000=
200801161352 METAR KATL 161352Z 09008KT 10SM SCT140 OVC180 01/M08 A3024 RMK AO2 SLP249 T00061078=
200801161252 METAR KATL 161252Z 09010KT 10SM FEW150 OVC200 00/M08 A3023 RMK AO2 SLP244 T00001083=
200801161152 METAR KATL 161152Z 09006KT 10SM SCT150 OVC200 00/M08 A3025 RMK AO2 SLP252 T00001083 10022 21006 53024=
200801161052 METAR KATL 161052Z 08007KT 10SM FEW150 BKN200 OVC250 M01/M08 A3020 RMK AO2 SLP236 T10061083=
200801160952 METAR KATL 160952Z 07008KT 10SM FEW150 BKN200 OVC250 01/M09 A3019 RMK AO2 SLP227 T00061089=
200801160852 METAR KATL 160852Z 09005KT 10SM BKN200 BKN250 01/M10 A3018 RMK AO2 SLP225 T00061100 55000=
200801160752 METAR KATL 160752Z 00000KT 10SM BKN200 OVC250 01/M09 A3018 RMK AO2 SLP226 T00111094=
200801160652 METAR KATL 160652Z 00000KT 10SM OVC200 02/M11 A3017 RMK AO2 SLP222 T00221106=
200801160552 METAR KATL 160552Z 33003KT 10SM OVC200 02/M11 A3018 RMK AO2 SLP225 T00171106 10050 20017 50001=
200801160452 METAR KATL 160452Z 36005KT 10SM OVC250 03/M11 A3018 RMK AO2 SLP226 T00281106 400941006=
200801160352 METAR KATL 160352Z 01008KT 10SM OVC250 03/M09 A3017 RMK AO2 SLP224 T00281094=
200801160252 METAR KATL 160252Z 01007KT 10SM BKN250 03/M09 A3017 RMK AO2 SLP225 T00331089 51013=
200801160152 METAR KATL 160152Z 36006KT 10SM BKN250 04/M10 A3016 RMK AO2 SLP220 T00391100=
200801152352 METAR KATL 152352Z 34006KT 10SM FEW200 SCT250 05/M12 A3014 RMK AO2 SLP213 T00501117 10094 20050 51014=
200801152252 METAR KATL 152252Z 32008KT 10SM FEW200 SCT250 06/M11 A3013 RMK AO2 SLP209 T00611111=
200801152152 METAR KATL 152152Z 33009KT 10SM FEW200 SCT250 BKN280 08/M11 A3011 RMK AO2 SLP202 T00831111=
200801152052 METAR KATL 152052Z 31011KT 10SM FEW200 SCT280 09/M11 A3009 RMK AO2 SLP197 T00891106 55008=
200801151952 METAR KATL 151952Z 29015G23KT 10SM FEW280 09/M08 A3009 RMK AO2 SLP193 T00891083=
200801151852 METAR KATL 151852Z 31014KT 10SM FEW280 08/M07 A3010 RMK AO2 SLP197 T00831072=
200801151752 METAR KATL 151752Z 27012KT 10SM FEW280 08/M08 A3012 RMK AO2 SLP206 T00781078 10078 21006 58013=
200801151652 METAR KATL 151652Z 30010KT 10SM FEW280 07/M07 A3015 RMK AO2 SLP216 T00671072=
200801151552 METAR KATL 151552Z 31013G18KT 10SM FEW280 04/M06 A3017 RMK AO2 SLP224 T00441061=
200801151452 METAR KATL 151452Z 30012KT 10SM FEW280 03/M04 A3016 RMK AO2 SLP220 T00281044 53016=
200801151352 METAR KATL 151352Z 29009KT 10SM FEW060 SCT250 01/M04 A3014 RMK AO2 SLP213 T00111039=
200801151252 METAR KATL 151252Z 28007KT 10SM FEW060 SCT250 00/M04 A3013 RMK AO2 SLP209 T00001039=
200801151152 METAR KATL 151152Z 28007KT 10SM FEW250 M01/M04 A3011 RMK AO2 SLP204 T10061044 10028 21006 53002=
200801151052 METAR KATL 151052Z 28007KT 10SM SCT250 00/M04 A3010 RMK AO2 SLP199 T00001044=
200801150952 METAR KATL 150952Z 28007KT 10SM SCT250 01/M04 A3011 RMK AO2 SLP201 T00061039=
200801150852 METAR KATL 150852Z 27005KT 10SM SCT250 01/M04 A3011 RMK AO2 SLP201 T00061039 58001=
200801150752 METAR KATL 150752Z 26005KT 10SM FEW250 01/M04 A3011 RMK AO2 SLP201 T00111039=
200801150652 METAR KATL 150652Z 28009KT 10SM FEW250 02/M04 A3011 RMK AO2 SLP201 T00221039=
200801150552 METAR KATL 150552Z 28008KT 10SM FEW250 02/M04 A3011 RMK AO2 SLP201 T00221044 10061 20022 58010=
200801150452 METAR KATL 150452Z 27008KT 10SM FEW250 03/M05 A3012 RMK AO2 SLP205 T00281050 400941011=
200801150352 METAR KATL 150352Z 26006KT 10SM CLR 03/M05 A3014 RMK AO2 SLP212 T00331050=
200801150252 METAR KATL 150252Z 27007KT 10SM CLR 04/M05 A3014 RMK AO2 SLP214 T00391050 58000=
200801150152 METAR KATL 150152Z 26006KT 10SM CLR 05/M06 A3014 RMK AO2 SLP216 T00501056=
200801150052 METAR KATL 150052Z 26008KT 10SM CLR 06/M06 A3015 RMK AO2 SLP218 T00561056=
200801142352 METAR KATL 142352Z 29007KT 10SM CLR 06/M06 A3014 RMK AO2 SLP215 T00611061 10094 20061 52008=
200801142252 METAR KATL 142252Z 29010KT 10SM FEW200 07/M07 A3013 RMK AO2 SLP211 T00671067=
200801142152 METAR KATL 142152Z 29015G20KT 10SM FEW200 08/M07 A3013 RMK AO2 SLP207 T00831067=
200801142052 METAR KATL 142052Z 28013KT 10SM FEW200 09/M07 A3012 RMK AO2 SLP203 T00941067 56017=
200801141952 METAR KATL 141952Z 31016G22KT 10SM CLR 09/M08 A3012 RMK AO2 SLP205 T00941078=
200801141852 METAR KATL 141852Z 29013G20KT 10SM CLR 09/M07 A3014 RMK AO2 SLP211 T00891072=
200801141752 METAR KATL 141752Z 28010G16KT 10SM CLR 07/M08 A3017 RMK AO2 SLP221 T00721078 10072 21011 58012=
200801141652 METAR KATL 141652Z 30010KT 10SM CLR 05/M08 A3020 RMK AO2 SLP231 T00501078=
200801141552 METAR KATL 141552Z 29011KT 10SM CLR 03/M06 A3022 RMK AO2 SLP241 T00281061=
200801141452 METAR KATL 141452Z 32013G17KT 10SM CLR 01/M06 A3020 RMK AO2 SLP234 T00111056 53022=
200801141352 METAR KATL 141352Z 31013KT 7SM CLR M01/M06 A3017 RMK AO2 SLP225 T10061056=
200801141252 METAR KATL 141252Z 31014KT 7SM CLR M01/M06 A3015 RMK AO2 SLP216 T10111056=
200801141152 METAR KATL 141152Z 31012KT 10SM CLR M01/M04 A3014 RMK AO2 SLP211 T10061044 10050 21006 51011=
200801141052 METAR KATL 141052Z 31012KT 10SM FEW250 00/M04 A3012 RMK AO2 SLP206 T00001039=
200801140952 METAR KATL 140952Z 29012KT 10SM FEW250 01/M03 A3012 RMK AO2 SLP202 T00061033=
200801140852 METAR KATL 140852Z 30010G18KT 10SM FEW250 01/M03 A3010 RMK AO2 SLP197 T00111033 53011=
200801140752 METAR KATL 140752Z 30016G22KT 10SM CLR 02/M04 A3009 RMK AO2 SLP191 T00221039=
200801140652 METAR KATL 140652Z 31016G22KT 10SM CLR 04/M02 A3006 RMK AO2 SLP183 T00391022=
200801140552 METAR KATL 140552Z 31013G19KT 10SM CLR 05/M01 A3007 RMK AO2 SLP185 T00501006 10100 20050 51008=
200801140452 METAR KATL 140452Z 30010KT 10SM FEW050 06/M01 A3006 RMK AO2 SLP184 T00611006 401500033=
200801140352 METAR KATL 140352Z 29010KT 10SM SCT050 07/M01 A3005 RMK AO2 SLP180 T00671006=
200801140252 METAR KATL 140252Z COR 27006KT 10SM FEW055 07/M01 A3004 RMK AO2 SLP178 T00721011 51010=
200801140152 METAR KATL 140152Z 29004KT 10SM FEW060 08/M01 A3004 RMK AO2 SLP176 T00781011=
200801140052 METAR KATL 140052Z 30006KT 10SM CLR 09/M01 A3003 RMK AO2 SLP172 T00891011=
200801132352 METAR KATL 132352Z 30005KT 10SM FEW065 09/M01 A3001 RMK AO2 SLP167 T00941006 10150 20094 53021=
200801132252 METAR KATL 132252Z 32006KT 10SM FEW065 11/M01 A2999 RMK AO2 SLP158 T01111006=
200801132152 METAR KATL 132152Z 31011KT 10SM FEW065 13/M01 A2997 RMK AO2 SLP151 T01331011=
200801132052 METAR KATL 132052Z 30009KT 10SM SCT060 14/M01 A2995 RMK AO2 SLP143 T01441006 55002=
200801131952 METAR KATL 131952Z 32007KT 10SM SCT050 14/02 A2994 RMK AO2 SLP140 T01440017=
200801131852 METAR KATL 131852Z 30006KT 10SM FEW040 13/03 A2995 RMK AO2 SLP142 T01330028=
200801131752 METAR KATL 131752Z 33005KT 9SM FEW012 SCT030 SCT150 11/03 A2995 RMK AO2 SLP144 T01110033 10117 20033 58010=
200801131652 METAR KATL 131652Z 00000KT 6SM HZ FEW008 SCT120 09/04 A2998 RMK AO2 SLP153 T00890039=
200801131626 SPECI KATL 131626Z 00000KT 6SM HZ FEW008 SCT120 09/04 A2999 RMK AO2=
200801131626 SPECI KATL 131626Z 00000KT 6SM HZ FEW008 SCT120 09/04 A2999 RMK AO2=
200801131552 METAR KATL 131552Z 11005KT 7SM BKN110 BKN150 07/03 A3000 RMK AO2 SLP161 T00720033=
200801131452 METAR KATL 131452Z 08007KT 8SM FEW008 BKN100 BKN150 06/03 A2998 RMK AO2 SLP157 T00610028 53009=
200801131352 METAR KATL 131352Z 09007KT 6SM HZ BKN100 06/02 A2997 RMK AO2 SLP151 T00560022=
200801131252 METAR KATL 131252Z 08007KT 7SM SCT110 BKN180 05/02 A2997 RMK AO2 SLP150 T00500017=
200801131152 METAR KATL 131152Z 08006KT 10SM SCT250 03/01 A2995 RMK AO2 SLP146 T00330006 10072 20033 53008=
200801131052 METAR KATL 131052Z 08007KT 10SM SCT250 03/01 A2993 RMK AO2 SLP139 T00330006=
200801130952 METAR KATL 130952Z 08008KT 10SM BKN250 04/01 A2993 RMK AO2 SLP135 T00440011=
200801130852 METAR KATL 130852Z 08007KT 10SM CLR 04/01 A2993 RMK AO2 SLP136 T00440011 56009=
200801130752 METAR KATL 130752Z 07007KT 10SM CLR 06/01 A2994 RMK AO2 SLP140 T00560011=
200801130652 METAR KATL 130652Z 09006KT 10SM CLR 05/01 A2995 RMK AO2 SLP142 T00500011=
200801130552 METAR KATL 130552Z 05007KT 10SM CLR 07/02 A2996 RMK AO2 SLP145 T00720022 10128 20067 58004=
200801130452 METAR KATL 130452Z 07006KT 10SM CLR 07/02 A2997 RMK AO2 SLP150 T00720022 401500022=
200801130352 METAR KATL 130352Z 07004KT 10SM CLR 08/02 A2998 RMK AO2 SLP154 T00780017=
200801130252 METAR KATL 130252Z 07007KT 10SM CLR 09/02 A2997 RMK AO2 SLP151 T00940017 50003=
200801130152 METAR KATL 130152Z 07006KT 10SM CLR 11/01 A2997 RMK AO2 SLP153 T01060011=
200801130052 METAR KATL 130052Z 35006KT 10SM FEW110 SCT200 12/01 A2997 RMK AO2 SLP153 T01170006=
200801122352 METAR KATL 122352Z 11003KT 10SM FEW110 SCT150 BKN200 13/00 A2996 RMK AO2 SLP149 T01280000 10150 20128 53009=
200801122252 METAR KATL 122252Z 12005KT 10SM FEW080 SCT110 BKN200 14/M01 A2994 RMK AO2 SLP141 VIRGA SW-NW T01391011=
200801122152 METAR KATL 122152Z 15003KT 10SM SCT060 BKN150 BKN200 14/01 A2995 RMK AO2 SLP142 T01440011=
200801122052 METAR KATL 122052Z 00000KT 10SM BKN150 BKN200 BKN250 15/M01 A2993 RMK AO2 SLP137 T01501011 56010=
200801121952 METAR KATL 121952Z 00000KT 10SM SCT150 BKN200 BKN250 14/M01 A2993 RMK AO2 SLP138 T01441011=
200801121852 METAR KATL 121852Z 00000KT 10SM FEW150 SCT200 SCT250 15/00 A2994 RMK AO2 SLP140 T01500000=
200801121752 METAR KATL 121752Z 00000KT 10SM FEW150 SCT200 13/00 A2996 RMK AO2 SLP148 T01330000 10139 20022 58014=
200801121652 METAR KATL 121652Z 00000KT 10SM FEW180 SCT250 12/01 A2999 RMK AO2 SLP159 T01170006=
200801121552 METAR KATL 121552Z 05005KT 10SM FEW180 BKN250 11/00 A3001 RMK AO2 SLP164 T01060000=
200801121452 METAR KATL 121452Z 06006KT 10SM SCT180 BKN250 08/02 A3001 RMK AO2 SLP164 T00830017 53017=
200801121352 METAR KATL 121352Z 33006KT 10SM BKN200 04/02 A2998 RMK AO2 SLP156 T00440017=
200801121252 METAR KATL 121252Z 32007KT 9SM FEW070 SCT200 02/01 A2996 RMK AO2 SLP151 T00220006=
200801121152 METAR KATL 121152Z 32008KT 10SM FEW070 03/01 A2996 RMK AO2 SLP148 T00280006 10056 20028 53009=
200801121052 METAR KATL 121052Z 32007KT 10SM FEW070 03/01 A2994 RMK AO2 SLP141 T00330011=
200801120952 METAR KATL 120952Z 32007KT 10SM FEW250 04/01 A2993 RMK AO2 SLP138 T00390011=
200801120852 METAR KATL 120852Z 32005KT 10SM FEW250 03/01 A2993 RMK AO2 SLP137 T00330011 56001=
200801120752 METAR KATL 120752Z 32006KT 10SM FEW180 03/01 A2993 RMK AO2 SLP137 T00330011=
200801120652 METAR KATL 120652Z 30004KT 10SM CLR 04/01 A2993 RMK AO2 SLP137 T00390011=
200801120552 METAR KATL 120552Z 00000KT 10SM FEW250 06/02 A2993 RMK AO2 SLP137 T00560017 10100 20050 51005=
200801120452 METAR KATL 120452Z 32006KT 10SM FEW250 06/02 A2993 RMK AO2 SLP137 T00560017 401500056=
200801120352 METAR KATL 120352Z 29004KT 10SM CLR 07/02 A2992 RMK AO2 SLP135 T00720017=
200801120252 METAR KATL 120252Z VRB06KT 10SM FEW200 07/02 A2991 RMK AO2 SLP133 T00720017 51010=
200801120152 METAR KATL 120152Z 32005KT 10SM FEW200 08/02 A2992 RMK AO2 SLP133 T00780017=
200801120052 METAR KATL 120052Z 32006KT 10SM FEW150 BKN250 09/02 A2990 RMK AO2 SLP128 T00890022=
200801112352 METAR KATL 112352Z 32005KT 10SM FEW150 SCT250 10/02 A2988 RMK AO2 SLP119 T01000017 10139 20100 51011=
200801112252 METAR KATL 112252Z 31008KT 10SM FEW150 BKN250 11/02 A2987 RMK AO2 SLP114 T01110017=
200801112152 METAR KATL 112152Z 30008KT 10SM BKN220 BKN280 13/02 A2987 RMK AO2 SLP113 T01280022=
200801112052 METAR KATL 112052Z 26006KT 10SM FEW150 SCT220 BKN280 13/02 A2985 RMK AO2 SLP106 T01330017 55004=
200801111952 METAR KATL 111952Z VRB05KT 10SM FEW150 SCT220 BKN280 13/02 A2985 RMK AO2 SLP106 T01330017=
200801111852 METAR KATL 111852Z 29010G14KT 10SM FEW220 BKN280 12/03 A2985 RMK AO2 SLP107 T01220028=
200801111752 METAR KATL 111752Z 00000KT 10SM FEW150 SCT220 BKN280 11/03 A2986 RMK AO2 SLP112 T01110028 10122 20078 58012=
200801111652 METAR KATL 111652Z 31006KT 10SM FEW220 BKN280 11/03 A2990 RMK AO2 SLP123 T01060028=
200801111552 METAR KATL 111552Z 28008KT 10SM FEW150 SCT220 BKN280 09/03 A2991 RMK AO2 SLP129 T00940033=
200801111452 METAR KATL 111452Z 31010KT 10SM FEW150 SCT220 SCT280 08/02 A2990 RMK AO2 SLP123 T00830022 51022=
200801111352 METAR KATL 111352Z 31011KT 10SM FEW028 SCT085 SCT250 08/03 A2989 RMK AO2 SLP119 T00780028=
200801111252 METAR KATL 111252Z 30011G17KT 10SM SCT085 SCT250 08/04 A2986 RMK AO2 SLP109 T00830039=
200801111152 METAR KATL 111152Z 29013KT 10SM BKN065 BKN250 12/08 A2983 RMK AO2 RAE1054 SLP099 P0000 60021 70091 T01170078 10150 20117 51021=
200801111052 METAR KATL 111052Z 28015G20KT 10SM -RA FEW008 OVC039 13/10 A2981 RMK AO2 RAB22 SLP091 P0001 T01280100=
200801111047 SPECI KATL 111047Z 28014G20KT 10SM -RA FEW010 OVC037 13/11 A2981 RMK AO2 RAB22 P0001=
200801111047 SPECI KATL 111047Z 28014G20KT 10SM -RA FEW010 OVC037 13/11 A2981 RMK AO2 RAB22 P0001=
200801111017 SPECI KATL 111017Z 22007KT 10SM BKN022 OVC048 14/13 A2978 RMK AO2=
200801111017 SPECI KATL 111017Z 22007KT 10SM BKN022 OVC048 14/13 A2978 RMK AO2=
200801110952 METAR KATL 110952Z 22008KT 10SM SCT030 OVC055 15/13 A2977 RMK AO2 SLP076 T01500133=
200801110902 SPECI KATL 110902Z 22008KT 10SM SCT007 BKN045 OVC060 14/13 A2976 RMK AO2=
200801110902 SPECI KATL 110902Z 22008KT 10SM SCT007 BKN045 OVC060 14/13 A2976 RMK AO2=
200801110852 METAR KATL 110852Z 22007KT 10SM BKN007 BKN015 OVC048 14/13 A2976 RMK AO2 RAE01 CIG 004V011 SLP074 P0000 60020 T01440133 55015=
200801110800 SPECI KATL 110800Z 20009KT 10SM -RA BKN007 OVC013 14/13 A2976 RMK AO2 CIG 005V012 P0000=
200801110800 SPECI KATL 110800Z 20009KT 10SM -RA BKN007 OVC013 14/13 A2976 RMK AO2 CIG 005V012 P0000=
200801110752 METAR KATL 110752Z 20008KT 10SM -RA BKN010 OVC015 14/13 A2976 RMK AO2 TSE07 CIG 005V012 SLP072 P0004 T01440133=
200801110724 SPECI KATL 110724Z 22008KT 10SM -RA SCT012 BKN017 OVC065 14/13 A2978 RMK AO2 TSE07 TS MOV NE P0002=
200801110724 SPECI KATL 110724Z 22008KT 10SM -RA SCT012 BKN017 OVC065 14/13 A2978 RMK AO2 TSE07 TS MOV NE P0002=
200801110708 SPECI KATL 110708Z 20010KT 9SM -RA FEW008 BKN044 OVC060 14/13 A2978 RMK AO2 TSE07 TS MOV NE P0002=
200801110708 SPECI KATL 110708Z 20010KT 9SM -RA FEW008 BKN044 OVC060 14/13 A2978 RMK AO2 TSE07 TS MOV NE P0002=
200801110656 SPECI KATL 110656Z 20012KT 10SM -TSRA FEW008 BKN038CB OVC065 14/13 A2979 RMK AO2 OCNL LTGIC TS VC NE-SE MOV NE P0001=
200801110656 SPECI KATL 110656Z 20012KT 10SM -TSRA FEW008 BKN038CB OVC065 14/13 A2979 RMK AO2 OCNL LTGIC TS VC NE-SE MOV NE P0001=
200801110652 METAR KATL 110652Z 19012KT 9SM -TSRA SCT010 BKN038CB OVC050 14/13 A2978 RMK AO2 TSE25B43 SLP078 OCNL LTGIC TS N-E-S MOV NE P0016 T01440133=
200801110645 SPECI KATL 110645Z 19011KT 8SM -TSRA SCT010 BKN038CB OVC050 14/13 A2978 RMK AO2 TSE25B43 OCNL LTGIC TS N-E-S MOV NE P0016=
200801110645 SPECI KATL 110645Z 19011KT 8SM -TSRA SCT010 BKN038CB OVC050 14/13 A2978 RMK AO2 TSE25B43 OCNL LTGIC TS N-E-S MOV NE P0016=
200801110626 SPECI KATL 110626Z 19010KT 8SM -RA SCT008 BKN016 OVC045 14/13 A2978 RMK AO2 TSE25 TS MOV NE P0011=
200801110626 SPECI KATL 110626Z 19010KT 8SM -RA SCT008 BKN016 OVC045 14/13 A2978 RMK AO2 TSE25 TS MOV NE P0011=
200801110552 METAR KATL 110552Z 20012KT 6SM TSRA BR SCT012 BKN025CB OVC050 14/13 A2981 RMK AO2 SLP090 OCNL LTGICCG TS VC SW-NW MOV NE P0013 60070 T01440133 10189 20144 58013=
200801110512 SPECI KATL 110512Z 19011KT 8SM -TSRA FEW012 SCT030CB BKN060 OVC140 15/13 A2979 RMK AO2 PRESFR OCNL LTGICCG TS VC NE-SE MOV NE P0007=
200801110512 SPECI KATL 110512Z 19011KT 8SM -TSRA FEW012 SCT030CB BKN060 OVC140 15/13 A2979 RMK AO2 PRESFR OCNL LTGICCG TS VC NE-SE MOV NE P0007=
200801110452 METAR KATL 110452Z 20013KT 5SM TSRA BR SCT014 BKN028CB OVC060 15/14 A2982 RMK AO2 TSE36B51 SLP096 OCNL LTGICCA TS E-SE MOV NE P0038 T01500139 402000144=
200801110436 SPECI KATL 110436Z 22014G20KT 6SM RA BR FEW015 BKN032 OVC080 15/13 A2984 RMK AO2 TSE36 TS MOV NE P0033=
200801110436 SPECI KATL 110436Z 22014G20KT 6SM RA BR FEW015 BKN032 OVC080 15/13 A2984 RMK AO2 TSE36 TS MOV NE P0033=
200801110402 SPECI KATL 110402Z 22014G20KT 4SM R09R/6000VP6000FT TSRA BR FEW020 BKN030CB OVC060 15/14 A2985 RMK AO2 OCNL LTGIC TS NE-SE-SW MOV NE P0015=
200801110402 SPECI KATL 110402Z 22014G20KT 4SM R09R/6000VP6000FT TSRA BR FEW020 BKN030CB OVC060 15/14 A2985 RMK AO2 OCNL LTGIC TS NE-SE-SW MOV NE P0015=
200801110356 SPECI KATL 110356Z 23012G20KT 2 1/2SM R09R/6000VP6000FT +TSRA BR FEW020 BKN030CB OVC060 15/13 A2985 RMK AO2 OCNL LTGIC TS OHD-SW MOV NE P0004=
200801110356 SPECI KATL 110356Z 23012G20KT 2 1/2SM R09R/6000VP6000FT +TSRA BR FEW020 BKN030CB OVC060 15/13 A2985 RMK AO2 OCNL LTGIC TS OHD-SW MOV NE P0004=
200801110352 METAR KATL 110352Z 25013G19KT 4SM +TSRA BR FEW020 BKN032CB OVC060 16/13 A2985 RMK AO2 PK WND 25026/0334 SLP103 OCNL LTGIC TS SW MOV NE P0018 T01560133=
200801110252 METAR KATL 110252Z 20016G20KT 6SM TSRA SCT028 BKN035CB OVC050 18/14 A2985 RMK AO2 TSB30RAB38 SLP103 OCNL LTGIC TS SW-NW MOV NE P0001 60001 T01830139 55003=
200801110230 SPECI KATL 110230Z 21014G24KT 10SM TS BKN030CB BKN070 BKN090 OVC150 19/13 A2985 RMK AO2 TSB30 OCNL LTGIC TS VC SW-W MOV NE=
200801110230 SPECI KATL 110230Z 21014G24KT 10SM TS BKN030CB BKN070 BKN090 OVC150 19/13 A2985 RMK AO2 TSB30 OCNL LTGIC TS VC SW-W MOV NE=
200801110152 METAR KATL 110152Z 19014G22KT 10SM FEW055 SCT070 BKN150 OVC200 18/13 A2984 RMK AO2 SLP099 OCNL LTG DSNT W-NW T01830133=
200801110052 METAR KATL 110052Z 17012G18KT 10SM FEW035 BKN080 BKN095 OVC200 18/13 A2984 RMK AO2 SLP100 T01830133=
200801102352 METAR KATL 102352Z 17010KT 10SM SCT060 BKN085 BKN100 OVC200 18/13 A2986 RMK AO2 SLP105 T01830133 10200 20183 58007=
200801102252 METAR KATL 102252Z 17012G20KT 10SM BKN060 BKN075 BKN100 OVC200 19/13 A2986 RMK AO2 SLP108 T01940128=
200801102152 METAR KATL 102152Z 18015KT 10SM FEW060 BKN070 OVC100 20/13 A2988 RMK AO2 SLP113 CB DSNT NW MOV NE SHRA DSNT NW T02000133=
200801102052 METAR KATL 102052Z 18011KT 10SM FEW030 SCT040 BKN100 OVC240 20/14 A2988 RMK AO2 SLP112 SHRA DSNT NW T02000139 56031=
200801101952 METAR KATL 101952Z 18011G18KT 10SM FEW030 BKN040 OVC090 20/14 A2990 RMK AO2 SLP121 T02000139=
200801101930 SPECI KATL 101930Z 19012KT 10SM BKN030 BKN040 OVC080 20/14 A2991 RMK AO2=
200801101930 SPECI KATL 101930Z 19012KT 10SM BKN030 BKN040 OVC080 20/14 A2991 RMK AO2=
200801101914 SPECI KATL 101914Z 19011KT 10SM BKN029 BKN035 OVC080 20/14 A2992 RMK AO2=
200801101914 SPECI KATL 101914Z 19011KT 10SM BKN029 BKN035 OVC080 20/14 A2992 RMK AO2=
200801101852 METAR KATL 101852Z 18012KT 10SM FEW027 BKN035 BKN070 BKN240 20/14 A2993 RMK AO2 SLP130 T02000144=
200801101752 METAR KATL 101752Z 19012KT 10SM FEW020 SCT030 BKN085 BKN240 19/15 A2997 RMK AO2 SLP145 60000 T01940150 10194 20156 56028=
200801101749 SPECI KATL 101749Z 18012KT 10SM FEW020 SCT030 BKN085 BKN240 19/16 A2997 RMK AO2=
200801101749 SPECI KATL 101749Z 18012KT 10SM FEW020 SCT030 BKN085 BKN240 19/16 A2997 RMK AO2=
200801101652 METAR KATL 101652Z 19009KT 10SM SCT012 BKN020 OVC030 18/16 A3002 RMK AO2 SLP161 T01830156=
200801101643 SPECI KATL 101643Z 19009KT 10SM SCT012 BKN024 OVC030 18/15 A3003 RMK AO2=
200801101643 SPECI KATL 101643Z 19009KT 10SM SCT012 BKN024 OVC030 18/15 A3003 RMK AO2=
200801101552 METAR KATL 101552Z 19008KT 9SM BKN014 BKN024 OVC030 18/16 A3006 RMK AO2 SLP174 T01780156=
200801101452 METAR KATL 101452Z 19012KT 6SM BR SCT008 SCT013 OVC021 17/16 A3007 RMK AO2 SLP179 60000 T01720156 53003=
200801101446 SPECI KATL 101446Z 20010KT 6SM BR SCT008 BKN013 OVC021 17/16 A3007 RMK AO2=
200801101446 SPECI KATL 101446Z 20010KT 6SM BR SCT008 BKN013 OVC021 17/16 A3007 RMK AO2=
200801101352 METAR KATL 101352Z 19007KT 2SM BR BKN006 OVC017 17/16 A3006 RMK AO2 SFC VIS 6 SLP176 T01670156=
200801101252 METAR KATL 101252Z 15003KT 2SM BR OVC006 16/16 A3006 RMK AO2 SFC VIS 5 RAE22 CIG 003V010 SLP176 P0000 T01610156=
200801101241 SPECI KATL 101241Z 17003KT 2SM BR OVC004 16/16 A3006 RMK AO2 SFC VIS 5 RAE22 CIG 003V006 P0000=
200801101241 SPECI KATL 101241Z 17003KT 2SM BR OVC004 16/16 A3006 RMK AO2 SFC VIS 5 RAE22 CIG 003V006 P0000=
200801101234 SPECI KATL 101234Z 00000KT 5SM BR BKN004 OVC008 16/16 A3006 RMK AO2 RAE22 CIG 003V006 P0000=
200801101234 SPECI KATL 101234Z 00000KT 5SM BR BKN004 OVC008 16/16 A3006 RMK AO2 RAE22 CIG 003V006 P0000=
200801101152 METAR KATL 101152Z 20003KT 4SM -RA BR BKN008 OVC012 16/16 A3006 RMK AO2 RAB47 SLP175 P0000 60000 70019 T01610156 10161 20144 53001=
200801101140 SPECI KATL 101140Z 22004KT 6SM BR BKN008 OVC012 16/16 A3005 RMK AO2=
200801101140 SPECI KATL 101140Z 22004KT 6SM BR BKN008 OVC012 16/16 A3005 RMK AO2=
200801101122 SPECI KATL 101122Z 22004KT 6SM BR SCT006 OVC012 16/16 A3005 RMK AO2=
200801101122 SPECI KATL 101122Z 22004KT 6SM BR SCT006 OVC012 16/16 A3005 RMK AO2=
200801101059 SPECI KATL 101059Z 22006KT 1SM BR OVC005 16/16 A3005 RMK AO2 SFC VIS 6 CIG 002V009=
200801101059 SPECI KATL 101059Z 22006KT 1SM BR OVC005 16/16 A3005 RMK AO2 SFC VIS 6 CIG 002V009=
200801101052 METAR KATL 101052Z 22005KT 1SM BR BKN003 OVC007 16/16 A3005 RMK AO2 SFC VIS 5 SLP173 T01610156=
200801101044 SPECI KATL 101044Z 21005KT 1SM BR BKN003 OVC007 16/16 A3005 RMK AO2 SFC VIS 4=
200801101044 SPECI KATL 101044Z 21005KT 1SM BR BKN003 OVC007 16/16 A3005 RMK AO2 SFC VIS 4=
200801101007 SPECI KATL 101007Z 19005KT 1/2SM R09R/1800V4000FT FG VV001 16/15 A3003 RMK AO2=
200801101007 SPECI KATL 101007Z 19005KT 1/2SM R09R/1800V4000FT FG VV001 16/15 A3003 RMK AO2=
200801101000 SPECI KATL 101000Z 17003KT 1/4SM R09R/1800V2000FT FG VV001 15/15 A3003 RMK AO2 TWR VIS 1/2=
200801101000 SPECI KATL 101000Z 17003KT 1/4SM R09R/1800V2000FT FG VV001 15/15 A3003 RMK AO2 TWR VIS 1/2=
200801100952 METAR KATL 100952Z 16004KT 1/2SM R09R/1800V2600FT FG VV001 15/15 A3004 RMK AO2 SLP169 T01500150=
200801100905 SPECI KATL 100905Z 00000KT 1/2SM BR OVC001 16/14 A3005 RMK AO2 SFC VIS 3 TWRINC=
200801100905 SPECI KATL 100905Z 00000KT 1/2SM BR OVC001 16/14 A3005 RMK AO2 SFC VIS 3 TWRINC=
200801100852 METAR KATL 100852Z 00000KT 1/2SM BR OVC003 15/14 A3006 RMK AO2 SFC VIS 4 SLP174 TWRINC T01500144 58005=
200801100825 SPECI KATL 100825Z 00000KT 3/4SM BR BKN003 OVC009 15/14 A3006 RMK AO2 SFC VIS 5=
200801100825 SPECI KATL 100825Z 00000KT 3/4SM BR BKN003 OVC009 15/14 A3006 RMK AO2 SFC VIS 5=
200801100813 SPECI KATL 100813Z 13003KT 5SM BR BKN008 OVC012 14/14 A3006 RMK AO2 CIG 005V011=
200801100813 SPECI KATL 100813Z 13003KT 5SM BR BKN008 OVC012 14/14 A3006 RMK AO2 CIG 005V011=
200801100752 METAR KATL 100752Z 00000KT 4SM BR FEW003 BKN012 OVC040 14/13 A3007 RMK AO2 SLP180 T01440133=
200801100742 SPECI KATL 100742Z 00000KT 3SM BR SCT003 BKN018 OVC038 14/13 A3007 RMK AO2=
200801100742 SPECI KATL 100742Z 00000KT 3SM BR SCT003 BKN018 OVC038 14/13 A3007 RMK AO2=
200801100736 SPECI KATL 100736Z 14004KT 3/4SM BR SCT003 BKN018 OVC038 14/13 A3007 RMK AO2 SFC VIS 5 TWRINC=
200801100736 SPECI KATL 100736Z 14004KT 3/4SM BR SCT003 BKN018 OVC038 14/13 A3007 RMK AO2 SFC VIS 5 TWRINC=
200801100657 SPECI KATL 100657Z 00000KT 3/4SM BR BKN004 BKN015 OVC032 14/13 A3006 RMK AO2 SFC VIS 5 TWRINC=
200801100657 SPECI KATL 100657Z 00000KT 3/4SM BR BKN004 BKN015 OVC032 14/13 A3006 RMK AO2 SFC VIS 5 TWRINC=
200801100652 METAR KATL 100652Z 12003KT 6SM BR SCT015 BKN032 BKN060 BKN250 14/13 A3006 RMK AO2 SLP178 T01440133=
200801100552 METAR KATL 100552Z 13003KT 8SM BKN020 BKN030 OVC060 14/13 A3007 RMK AO2 SLP180 60019 T01440133 10161 20144 58007=
200801100548 SPECI KATL 100548Z 12003KT 8SM BKN020 BKN030 OVC060 14/13 A3007 RMK AO2=
200801100548 SPECI KATL 100548Z 12003KT 8SM BKN020 BKN030 OVC060 14/13 A3007 RMK AO2=
200801100500 SPECI KATL 100500Z 11004KT 8SM SCT025 BKN032 OVC060 14/13 A3008 RMK AO2=
200801100500 SPECI KATL 100500Z 11004KT 8SM SCT025 BKN032 OVC060 14/13 A3008 RMK AO2=
200801100452 METAR KATL 100452Z 09004KT 8SM SCT018 BKN025 OVC035 15/13 A3008 RMK AO2 SLP185 T01500133 401780139=
200801100352 METAR KATL 100352Z 14003KT 9SM BKN015 OVC030 14/13 A3009 RMK AO2 TSB16E51RAB10E51 SLP187 TS MOV NE P0019 T01440128=
200801100323 SPECI KATL 100323Z 11004KT 7SM R09R/5500VP6000FT -TSRA BKN016CB OVC030 14/13 A3009 RMK AO2 TSB16RAB10 OCNL LTGIC TS N-NE MOV NE P0019=
200801100323 SPECI KATL 100323Z 11004KT 7SM R09R/5500VP6000FT -TSRA BKN016CB OVC030 14/13 A3009 RMK AO2 TSB16RAB10 OCNL LTGIC TS N-NE MOV NE P0019=
200801100317 SPECI KATL 100317Z 00000KT 2 1/2SM R09R/5500VP6000FT +TSRA BR BKN018CB OVC030 14/13 A3009 RMK AO2 TSB16RAB10 OCNL LTGIC TS OHD-SW MOV NE P0016=
200801100317 SPECI KATL 100317Z 00000KT 2 1/2SM R09R/5500VP6000FT +TSRA BR BKN018CB OVC030 14/13 A3009 RMK AO2 TSB16RAB10 OCNL LTGIC TS OHD-SW MOV NE P0016=
200801100252 METAR KATL 100252Z 11003KT 10SM BKN022 BKN050 OVC110 15/12 A3009 RMK AO2 SLP187 T01500122 51006=
200801100235 SPECI KATL 100235Z 00000KT 10SM BKN022 BKN030 OVC110 16/12 A3009 RMK AO2=
200801100235 SPECI KATL 100235Z 00000KT 10SM BKN022 BKN030 OVC110 16/12 A3009 RMK AO2=
200801100159 SPECI KATL 100159Z 12003KT 10SM SCT022 OVC110 16/12 A3008 RMK AO2=
200801100159 SPECI KATL 100159Z 12003KT 10SM SCT022 OVC110 16/12 A3008 RMK AO2=
200801100152 METAR KATL 100152Z 12003KT 10SM BKN022 OVC100 16/12 A3008 RMK AO2 SLP185 T01610122=
200801100052 METAR KATL 100052Z 00000KT 10SM OVC022 16/12 A3009 RMK AO2 SLP186 T01610122=
200801092352 METAR KATL 092352Z 00000KT 10SM BKN028 BKN070 BKN250 16/12 A3007 RMK AO2 SLP182 T01610122 10178 20150 50000=
200801092332 SPECI KATL 092332Z 00000KT 10SM SCT022 BKN032 BKN070 BKN250 17/12 A3007 RMK AO2=
200801092332 SPECI KATL 092332Z 00000KT 10SM SCT022 BKN032 BKN070 BKN250 17/12 A3007 RMK AO2=
200801092310 SPECI KATL 092310Z 00000KT 10SM BKN023 OVC032 17/12 A3008 RMK AO2=
200801092310 SPECI KATL 092310Z 00000KT 10SM BKN023 OVC032 17/12 A3008 RMK AO2=
200801092252 METAR KATL 092252Z 01003KT 10SM SCT024 OVC032 17/12 A3008 RMK AO2 SLP183 T01670122=
200801092235 SPECI KATL 092235Z 08003KT 10SM BKN024 BKN200 BKN250 17/12 A3008 RMK AO2=
200801092235 SPECI KATL 092235Z 08003KT 10SM BKN024 BKN200 BKN250 17/12 A3008 RMK AO2=
200801092152 METAR KATL 092152Z 00000KT 10SM FEW025 SCT035 BKN250 17/12 A3008 RMK AO2 SLP181 T01720122=
200801092052 METAR KATL 092052Z 00000KT 10SM OVC025 17/12 A3007 RMK AO2 SLP180 T01720122 55010=
200801092016 SPECI KATL 092016Z 00000KT 10SM SCT020 BKN029 BKN200 BKN280 17/12 A3007 RMK AO2=
200801092016 SPECI KATL 092016Z 00000KT 10SM SCT020 BKN029 BKN200 BKN280 17/12 A3007 RMK AO2=
200801091952 METAR KATL 091952Z 00000KT 10SM SCT020 SCT200 BKN280 18/12 A3007 RMK AO2 SLP180 T01780122=
200801091852 METAR KATL 091852Z 00000KT 10SM OVC015 15/12 A3009 RMK AO2 SLP186 T01500117=
200801091752 METAR KATL 091752Z 30003KT 10SM OVC013 15/12 A3010 RMK AO2 SLP192 60000 T01500117 10150 20139 58007=
200801091652 SPECI KATL 091652Z 29004KT 10SM OVC013 15/12 A3012 RMK AO2 SLP199 T01500117=
200801091552 METAR KATL 091552Z 34006KT 10SM BKN013 OVC018 14/12 A3014 RMK AO2 SLP205 T01440117=
200801091452 METAR KATL 091452Z 33007KT 10SM FEW010 OVC020 14/12 A3013 RMK AO2 SLP200 60000 T01440122 51015=
200801091352 METAR KATL 091352Z 32009KT 10SM FEW012 OVC022 14/12 A3012 RMK AO2 SLP197 RAB11E21 BINOVC P0000 T01390117=
200801091252 METAR KATL 091252Z 32008KT 10SM FEW011 OVC020 14/13 A3010 RMK AO2 SLP192 T01440133=
200801091152 METAR KATL 091152Z 27003KT 10SM OVC018 15/14 A3008 RMK AO2 RAE48 SLP184 P0001 60006 70006 T01500139 10161 20150 53007=
200801091101 SPECI KATL 091101Z 29006KT 10SM SCT006 SCT011 OVC016 15/14 A3008 RMK AO2 RAE1059 P0000=
200801091101 SPECI KATL 091101Z 29006KT 10SM SCT006 SCT011 OVC016 15/14 A3008 RMK AO2 RAE1059 P0000=
200801091052 METAR KATL 091052Z 30007KT 8SM -RA BKN006 BKN011 OVC016 15/14 A3008 RMK AO2 RAB13 CIG 003V009 SLP181 P0004 T01500139=
200801091022 SPECI KATL 091022Z 26005KT 3SM RA BR BKN004 OVC011 16/15 A3006 RMK AO2 RAB13 P0002=
200801091022 SPECI KATL 091022Z 26005KT 3SM RA BR BKN004 OVC011 16/15 A3006 RMK AO2 RAB13 P0002=
200801090952 METAR KATL 090952Z 20007KT 8SM OVC006 16/15 A3005 RMK AO2 SLP173 T01610150=
200801090920 SPECI KATL 090920Z 21007KT 9SM BKN008 OVC013 16/14 A3006 RMK AO2=
200801090920 SPECI KATL 090920Z 21007KT 9SM BKN008 OVC013 16/14 A3006 RMK AO2=
200801090852 METAR KATL 090852Z 20008KT 9SM BKN010 OVC015 16/14 A3006 RMK AO2 CIG 006V012 SLP174 60001 T01610144 56022=
200801090752 METAR KATL 090752Z 19007KT 8SM BKN014 BKN050 OVC095 16/14 A3007 RMK AO2 SLP178 T01560144=
200801090718 SPECI KATL 090718Z 18007KT 8SM BKN014 BKN110 OVC200 16/14 A3007 RMK AO2=
200801090718 SPECI KATL 090718Z 18007KT 8SM BKN014 BKN110 OVC200 16/14 A3007 RMK AO2=
200801090655 SPECI KATL 090655Z 18006KT 8SM SCT016 BKN055 OVC150 16/14 A3007 RMK AO2=
200801090655 SPECI KATL 090655Z 18006KT 8SM SCT016 BKN055 OVC150 16/14 A3007 RMK AO2=
200801090652 METAR KATL 090652Z 18007KT 9SM BKN016 BKN055 OVC150 16/14 A3007 RMK AO2 TSE10RAE27 SLP179 TS MOV NE P0001 T01560144=
200801090618 SPECI KATL 090618Z 20005KT 10SM -RA SCT012 BKN018 OVC025 16/14 A3010 RMK AO2 TSE10 PRESFR TS MOV NE P0001=
200801090618 SPECI KATL 090618Z 20005KT 10SM -RA SCT012 BKN018 OVC025 16/14 A3010 RMK AO2 TSE10 PRESFR TS MOV NE P0001=
200801090610 SPECI KATL 090610Z 23005KT 9SM -RA BKN010 OVC025 16/14 A3011 RMK AO2 TSE10 TS MOV NE CIG 008V013 P0001=
200801090610 SPECI KATL 090610Z 23005KT 9SM -RA BKN010 OVC025 16/14 A3011 RMK AO2 TSE10 TS MOV NE CIG 008V013 P0001=
200801090552 METAR KATL 090552Z 26008KT 8SM -TSRA BKN010 OVC025CB 16/14 A3013 RMK AO2 TSB26RAB40 SLP198 OCNL LTGICCG TS N-NE MOV NE P0000 60000 T01610144 10178 20156 53012=
200801090540 SPECI KATL 090540Z 24008G16KT 10SM -TSRA BKN012 BKN025CB OVC080 16/14 A3012 RMK AO2 TSB26RAB40 PRESRR OCNL LTGICCG TS W-N MOV NE P0000=
200801090540 SPECI KATL 090540Z 24008G16KT 10SM -TSRA BKN012 BKN025CB OVC080 16/14 A3012 RMK AO2 TSB26RAB40 PRESRR OCNL LTGICCG TS W-N MOV NE P0000=
200801090526 SPECI KATL 090526Z 21012KT 10SM TS SCT012 SCT025CB BKN080 OVC200 16/14 A3010 RMK AO2 TSB26 OCNL LTGICCG TS VC W-NW MOV NE=
200801090526 SPECI KATL 090526Z 21012KT 10SM TS SCT012 SCT025CB BKN080 OVC200 16/14 A3010 RMK AO2 TSB26 OCNL LTGICCG TS VC W-NW MOV NE=
200801090452 METAR KATL 090452Z 20013G21KT 10SM SCT012 BKN200 OVC250 16/14 A3009 RMK AO2 SLP188 FRQ LTG DSNT W-NW T01610144 402060117=
200801090352 METAR KATL 090352Z 19012KT 10SM FEW030 BKN200 BKN250 16/14 A3010 RMK AO2 SLP190 T01610139=
200801090252 METAR KATL 090252Z 18009KT 10SM SCT200 BKN250 16/14 A3009 RMK AO2 SLP187 T01560139 58018=
200801090152 METAR KATL 090152Z 17009KT 10SM FEW090 SCT250 16/14 A3011 RMK AO2 SLP195 T01610139=
200801090052 METAR KATL 090052Z 19009KT 10SM FEW060 17/13 A3013 RMK AO2 SLP200 T01670133=
200801082352 METAR KATL 082352Z 19009KT 10SM SCT055 17/13 A3014 RMK AO2 SLP205 T01720133 10206 20172 53000=
200801082252 METAR KATL 082252Z 19008KT 10SM FEW030 18/13 A3013 RMK AO2 SLP200 T01830128=
200801082152 METAR KATL 082152Z 18007KT 10SM FEW030 SCT040 SCT250 19/14 A3013 RMK AO2 SLP200 T01940139=
200801082052 METAR KATL 082052Z 17014KT 10SM SCT027 BKN043 BKN250 20/14 A3014 RMK AO2 SLP204 T02000139 56022=
200801081952 METAR KATL 081952Z 17014G19KT 10SM SCT024 SCT031 BKN041 BKN250 19/14 A3015 RMK AO2 SLP208 T01940144=
200801081852 METAR KATL 081852Z 19013KT 10SM FEW023 SCT032 SCT200 BKN250 20/14 A3017 RMK AO2 SLP215 T02000139=
200801081752 METAR KATL 081752Z 20013KT 10SM FEW015 BKN200 BKN250 18/14 A3021 RMK AO2 SLP228 T01830144 10183 20122 58024=
200801081729 SPECI KATL 081729Z 19011KT 10SM BKN011 BKN015 BKN200 17/14 A3023 RMK AO2=
200801081729 SPECI KATL 081729Z 19011KT 10SM BKN011 BKN015 BKN200 17/14 A3023 RMK AO2=
200801081652 METAR KATL 081652Z 18011KT 8SM OVC008 16/14 A3025 RMK AO2 CIG 007V012 SLP243 T01610139=
200801081552 METAR KATL 081552Z 19008KT 6SM BR OVC006 16/14 A3028 RMK AO2 SLP252 T01560139=
200801081522 SPECI KATL 081522Z 18008KT 6SM BR OVC006 15/13 A3029 RMK AO2=
200801081522 SPECI KATL 081522Z 18008KT 6SM BR OVC006 15/13 A3029 RMK AO2=
200801081503 SPECI KATL 081503Z 17008KT 2 1/2SM BR OVC004 14/13 A3029 RMK AO2 SFC VIS 6=
200801081503 SPECI KATL 081503Z 17008KT 2 1/2SM BR OVC004 14/13 A3029 RMK AO2 SFC VIS 6=
200801081452 METAR KATL 081452Z 15004KT 1 1/2SM BR OVC002 14/13 A3028 RMK AO2 SFC VIS 6 SLP253 TWRINC T01440133 51015=
200801081438 SPECI KATL 081438Z 16005KT 1 1/2SM BR OVC002 14/13 A3028 RMK AO2 SFC VIS 5 TWRINC=
200801081438 SPECI KATL 081438Z 16005KT 1 1/2SM BR OVC002 14/13 A3028 RMK AO2 SFC VIS 5 TWRINC=
200801081354 SPECI KATL 081354Z 15003KT 1/2SM BR OVC002 13/13 A3028 RMK AO2 SFC VIS 4 TWRINC=
200801081354 SPECI KATL 081354Z 15003KT 1/2SM BR OVC002 13/13 A3028 RMK AO2 SFC VIS 4 TWRINC=
200801081352 METAR KATL 081352Z 14003KT 1/4SM BR OVC002 13/13 A3028 RMK AO2 SFC VIS 3 SLP252 TWRINC T01330128=
200801081252 METAR KATL 081252Z 17005KT 1/4SM BR OVC002 13/12 A3026 RMK AO2 SFC VIS 3 SLP245 TWRINC T01280122=
200801081212 SPECI KATL 081212Z 15006KT 1/4SM BR OVC002 12/12 A3025 RMK AO2 SFC VIS 4 TWRINC=
200801081212 SPECI KATL 081212Z 15006KT 1/4SM BR OVC002 12/12 A3025 RMK AO2 SFC VIS 4 TWRINC=
200801081152 METAR KATL 081152Z 15006KT 3/4SM BR OVC003 12/12 A3024 RMK AO2 SFC VIS 4 SLP238 TWRINC T01220117 10133 20117 55000=
200801081136 SPECI KATL 081136Z 14006KT 3/4SM BR OVC003 12/12 A3023 RMK AO2 SFC VIS 4 TWRINC=
200801081136 SPECI KATL 081136Z 14006KT 3/4SM BR OVC003 12/12 A3023 RMK AO2 SFC VIS 4 TWRINC=
200801081119 SPECI KATL 081119Z 15005KT 2SM BR OVC003 12/11 A3024 RMK AO2 SFC VIS 4=
200801081119 SPECI KATL 081119Z 15005KT 2SM BR OVC003 12/11 A3024 RMK AO2 SFC VIS 4=
200801081052 METAR KATL 081052Z 14003KT 6SM BR OVC004 12/11 A3023 RMK AO2 SLP236 BINOVC T01220111=
200801081039 SPECI KATL 081039Z 13004KT 6SM BR BKN004 BKN050 BKN150 BKN250 12/11 A3024 RMK AO2=
200801081039 SPECI KATL 081039Z 13004KT 6SM BR BKN004 BKN050 BKN150 BKN250 12/11 A3024 RMK AO2=
200801081024 SPECI KATL 081024Z 12005KT 8SM FEW006 SCT050 SCT150 BKN250 12/11 A3024 RMK AO2=
200801081024 SPECI KATL 081024Z 12005KT 8SM FEW006 SCT050 SCT150 BKN250 12/11 A3024 RMK AO2=
200801080952 METAR KATL 080952Z 13005KT 10SM FEW150 SCT200 BKN250 12/11 A3024 RMK AO2 SLP238 T01220111=
200801080852 METAR KATL 080852Z 14005KT 10SM FEW150 SCT200 BKN250 13/11 A3024 RMK AO2 SLP236 T01280111 56010=
200801080752 METAR KATL 080752Z 15007KT 10SM FEW150 SCT200 BKN250 12/11 A3024 RMK AO2 SLP238 T01220106=
200801080652 METAR KATL 080652Z 14006KT 10SM BKN250 13/11 A3025 RMK AO2 SLP241 T01280106=
200801080552 METAR KATL 080552Z 15006KT 10SM BKN250 13/11 A3027 RMK AO2 SLP247 T01280106 10172 20128 58010=
200801080452 METAR KATL 080452Z 15005KT 10SM BKN250 13/11 A3029 RMK AO2 SLP254 T01330106 402170067=
200801080352 METAR KATL 080352Z 13004KT 10SM BKN250 14/10 A3030 RMK AO2 SLP258 T01440100=
200801080252 METAR KATL 080252Z 14008KT 10SM BKN250 14/09 A3030 RMK AO2 SLP260 T01440094 50002=
200801080152 METAR KATL 080152Z 13004KT 10SM BKN250 16/09 A3031 RMK AO2 SLP263 T01560089=
200801080052 METAR KATL 080052Z 15007KT 10SM FEW048 SCT250 16/09 A3031 RMK AO2 SLP264 T01610089=
200801072352 METAR KATL 072352Z 16005KT 10SM FEW050 SCT250 17/09 A3030 RMK AO2 SLP260 T01670094 10217 20167 53008=
200801072252 METAR KATL 072252Z 16005KT 10SM FEW045 SCT250 18/09 A3028 RMK AO2 SLP252 T01830089=
200801072152 METAR KATL 072152Z 17006KT 10SM FEW045 SCT250 20/10 A3028 RMK AO2 SLP252 T02000100=
200801072052 METAR KATL 072052Z 20008KT 10SM FEW050 SCT250 21/10 A3027 RMK AO2 SLP249 T02110100 56019=
200801071952 METAR KATL 071952Z 18008KT 10SM SCT042 SCT250 20/11 A3027 RMK AO2 SLP249 T02000106=
200801071852 METAR KATL 071852Z 20008KT 10SM FEW040 SCT250 21/11 A3029 RMK AO2 SLP255 T02060106=
200801071752 METAR KATL 071752Z VRB05KT 10SM FEW035 SCT250 19/11 A3033 RMK AO2 SLP269 T01940111 10194 20067 58014=
200801071652 METAR KATL 071652Z 20005KT 10SM FEW025 SCT250 18/11 A3036 RMK AO2 SLP281 T01780111=
200801071552 METAR KATL 071552Z 17007KT 10SM FEW250 16/11 A3037 RMK AO2 SLP283 T01560111=
200801071452 METAR KATL 071452Z 12004KT 10SM FEW250 13/10 A3037 RMK AO2 SLP284 T01280100 53017=
200801071352 METAR KATL 071352Z 00000KT 10SM FEW250 09/08 A3034 RMK AO2 SLP276 T00940083=
200801071252 METAR KATL 071252Z 09004KT 9SM FEW250 07/07 A3033 RMK AO2 SLP272 T00720067=
200801071152 METAR KATL 071152Z 09007KT 10SM CLR 07/06 A3032 RMK AO2 SLP269 T00670056 10117 20067 53007=
200801071052 METAR KATL 071052Z 00000KT 8SM CLR 09/08 A3031 RMK AO2 SLP264 T00890078=
200801070952 METAR KATL 070952Z 00000KT 9SM CLR 09/08 A3030 RMK AO2 SLP259 T00940078=
200801070852 METAR KATL 070852Z 00000KT 10SM CLR 10/08 A3030 RMK AO2 SLP258 T01000083 50004=
200801070752 METAR KATL 070752Z 21005KT 10SM CLR 10/08 A3030 RMK AO2 SLP259 T01000078=
200801070652 METAR KATL 070652Z 00000KT 10SM CLR 11/08 A3030 RMK AO2 SLP257 T01110083=
200801070452 METAR KATL 070452Z 17005KT 10SM CLR 11/08 A3029 RMK AO2 SLP257 T01110083 401940050=
200801070352 METAR KATL 070352Z 17003KT 10SM CLR 12/08 A3030 RMK AO2 SLP259 T01220083=
200801070252 METAR KATL 070252Z 15004KT 10SM CLR 13/08 A3029 RMK AO2 SLP259 T01330083 51003=
200801070152 METAR KATL 070152Z 16005KT 10SM CLR 13/08 A3029 RMK AO2 SLP259 T01330083=
200801070052 METAR KATL 070052Z 17005KT 10SM CLR 14/09 A3029 RMK AO2 SLP259 T01390089=
200801062352 METAR KATL 062352Z 18006KT 10SM FEW250 14/09 A3028 RMK AO2 SLP255 T01440089 10194 20144 53008=
200801062252 METAR KATL 062252Z 18006KT 10SM FEW250 17/09 A3027 RMK AO2 SLP249 T01670094=
200801062152 METAR KATL 062152Z 18006KT 10SM FEW250 18/09 A3026 RMK AO2 SLP247 T01830089=
200801062052 METAR KATL 062052Z 17007KT 10SM FEW050 SCT090 SCT250 19/09 A3026 RMK AO2 SLP246 T01890089 56019=
200801061952 METAR KATL 061952Z 19007KT 10SM SCT050 SCT150 BKN250 18/09 A3027 RMK AO2 SLP250 T01830089=
200801061852 METAR KATL 061852Z 21009KT 10SM SCT050 SCT150 18/09 A3029 RMK AO2 SLP256 T01830089=
200801061752 METAR KATL 061752Z 16003KT 10SM BKN049 BKN150 BKN250 17/09 A3031 RMK AO2 SLP265 BKN049 V SCT T01670089 10167 20050 58018=
200801061652 METAR KATL 061652Z VRB03KT 10SM SCT049 SCT150 BKN250 16/08 A3034 RMK AO2 SLP277 T01560083=
200801061552 METAR KATL 061552Z 13004KT 9SM FEW100 BKN180 BKN250 12/06 A3037 RMK AO2 SLP285 T01220061=
200801061452 METAR KATL 061452Z 00000KT 9SM SCT085 BKN150 BKN250 09/05 A3037 RMK AO2 SLP287 T00940050 53012=
200801061352 METAR KATL 061352Z 13004KT 9SM SCT100 BKN250 07/04 A3035 RMK AO2 SLP280 T00720039=
200801061252 METAR KATL 061252Z 10003KT 9SM FEW095 SCT250 06/03 A3034 RMK AO2 SLP277 T00560028=
200801061152 METAR KATL 061152Z 09004KT 10SM BKN095 06/03 A3033 RMK AO2 SLP275 T00610033 10072 20056 53003=
200801061052 METAR KATL 061052Z 09004KT 10SM BKN090 07/03 A3033 RMK AO2 SLP273 T00720033=
200801060952 METAR KATL 060952Z 00000KT 10SM BKN095 07/03 A3032 RMK AO2 SLP268 T00670033=
200801060852 METAR KATL 060852Z 10003KT 10SM BKN095 07/03 A3032 RMK AO2 SLP271 T00670033 55000=
200801060752 METAR KATL 060752Z 12004KT 10SM OVC095 07/03 A3031 RMK AO2 SLP267 T00720033=
200801060652 METAR KATL 060652Z 11005KT 10SM FEW095 06/03 A3032 RMK AO2 SLP270 T00610028=
200801060552 METAR KATL 060552Z 13003KT 10SM FEW095 07/03 A3032 RMK AO2 SLP272 T00720028 10100 20072 58001=
200801060452 METAR KATL 060452Z 08003KT 10SM SCT095 SCT150 07/03 A3033 RMK AO2 SLP275 T00720028 401281006=
200801060352 METAR KATL 060352Z 08005KT 10SM SCT110 BKN150 08/03 A3033 RMK AO2 SLP275 T00780028=
200801060252 METAR KATL 060252Z COR 08005KT 10SM FEW080 OVC200 08/03 A3033 RMK AO2 SLP275 T00830033 56001=
200801060152 METAR KATL 060152Z 14003KT 10SM SCT080 OVC200 10/03 A3033 RMK AO2 SLP276 T01000028=
200801060052 METAR KATL 060052Z 14004KT 10SM FEW080 OVC200 10/03 A3031 RMK AO2 SLP270 T01000028=
200801052352 METAR KATL 052352Z 15006KT 10SM FEW090 BKN150 OVC250 10/03 A3033 RMK AO2 SLP278 T01000028 10128 20100 58003=
200801052252 METAR KATL 052252Z 16004KT 10SM FEW090 BKN150 OVC250 11/03 A3034 RMK AO2 SLP280 T01060033=
200801052152 METAR KATL 052152Z 17008KT 10SM FEW035 SCT090 BKN150 OVC250 12/03 A3034 RMK AO2 SLP278 T01170028=
200801052052 METAR KATL 052052Z 17009KT 10SM FEW040 BKN150 OVC250 12/02 A3034 RMK AO2 SLP280 T01220022 56016=
200801051952 METAR KATL 051952Z 20009KT 10SM SCT040 BKN150 OVC250 12/02 A3035 RMK AO2 SLP283 T01220017=
200801051852 METAR KATL 051852Z 19008KT 10SM FEW040 BKN150 OVC250 12/01 A3036 RMK AO2 SLP288 BINOVC N T01170011=
200801051752 METAR KATL 051752Z 19008KT 10SM FEW040 BKN150 BKN250 10/00 A3039 RMK AO2 SLP297 T01000000 10100 21006 58028=
200801051652 METAR KATL 051652Z 18005KT 10SM FEW040 BKN150 BKN250 08/M02 A3044 RMK AO2 SLP315 T00831017=
200801051552 METAR KATL 051552Z 14004KT 10SM BKN150 BKN250 06/M09 A3047 RMK AO2 SLP325 T00561089=
200801051452 METAR KATL 051452Z VRB03KT 10SM BKN150 BKN250 04/M10 A3048 RMK AO2 SLP328 T00391100 53008=
200801051352 METAR KATL 051352Z 09006KT 10SM BKN150 BKN250 01/M09 A3047 RMK AO2 SLP326 T00111089=
200801051252 METAR KATL 051252Z 07005KT 10SM FEW250 00/M11 A3046 RMK AO2 SLP324 T00001106=
200801051152 METAR KATL 051152Z 08005KT 10SM SCT250 00/M09 A3045 RMK AO2 SLP321 T00001089 10017 20000 53005=
200801051052 METAR KATL 051052Z 00000KT 10SM BKN250 01/M11 A3044 RMK AO2 SLP315 T00111106=
200801050952 METAR KATL 050952Z 10003KT 10SM BKN250 01/M09 A3043 RMK AO2 SLP310 T00111094=
200801050852 METAR KATL 050852Z 12003KT 10SM BKN250 01/M11 A3044 RMK AO2 SLP313 T00111106 58014=
200801050752 METAR KATL 050752Z 14003KT 10SM BKN250 01/M11 A3046 RMK AO2 SLP322 T00111111=
200801050652 METAR KATL 050652Z 15004KT 10SM BKN250 01/M11 A3047 RMK AO2 SLP324 T00111111=
200801050552 METAR KATL 050552Z 14003KT 10SM BKN250 01/M12 A3048 RMK AO2 SLP329 T00111117 10050 20011 58018=
200801050452 METAR KATL 050452Z 14004KT 10SM BKN250 02/M12 A3050 RMK AO2 SLP336 T00171117 400831039=
200801050352 METAR KATL 050352Z 15003KT 10SM BKN250 02/M12 A3052 RMK AO2 SLP344 T00221122=
200801050252 METAR KATL 050252Z 14003KT 10SM FEW200 SCT250 02/M12 A3053 RMK AO2 SLP349 T00221122 58006=
200801050152 METAR KATL 050152Z 15004KT 10SM FEW200 BKN250 03/M11 A3054 RMK AO2 SLP353 T00281111=
200801050052 METAR KATL 050052Z 14004KT 10SM BKN250 04/M12 A3055 RMK AO2 SLP355 T00391117=
200801042352 METAR KATL 042352Z 14004KT 10SM SCT250 05/M14 A3055 RMK AO2 SLP357 T00501139 10083 20050 55004=
200801042252 METAR KATL 042252Z 15006KT 10SM SCT250 06/M14 A3055 RMK AO2 SLP354 T00611139=
200801042152 METAR KATL 042152Z 21004KT 10SM FEW220 SCT250 SCT300 07/M14 A3056 RMK AO2 SLP357 T00721139=
200801042052 METAR KATL 042052Z 15004KT 10SM FEW220 SCT250 SCT300 08/M14 A3057 RMK AO2 SLP359 T00781144 56023 $=
200801041952 METAR KATL 041952Z 20004KT 10SM FEW220 SCT250 BKN300 07/M14 A3057 RMK AO2 SLP362 T00721144=
200801041852 METAR KATL 041852Z 00000KT 10SM FEW220 SCT250 BKN300 06/M16 A3060 RMK AO2 SLP370 T00611161=
200801041752 METAR KATL 041752Z 12005KT 10SM FEW250 07/M13 A3063 RMK AO2 SLP383 T00671128 10067 21039 58020=
200801041652 METAR KATL 041652Z 11006KT 10SM FEW250 04/M13 A3067 RMK AO2 SLP397 T00441128=
200801041552 METAR KATL 041552Z VRB03KT 10SM FEW250 03/M12 A3070 RMK AO2 SLP405 T00331117=
200801041452 METAR KATL 041452Z 00000KT 10SM FEW250 01/M11 A3069 RMK AO2 SLP405 T00061111 51005=
200801041352 METAR KATL 041352Z 00000KT 10SM FEW250 M01/M08 A3069 RMK AO2 SLP406 T10111078=
200801041252 METAR KATL 041252Z 00000KT 10SM FEW250 M03/M11 A3069 RMK AO2 SLP405 T10331106=
200801041152 METAR KATL 041152Z 00000KT 10SM FEW250 M04/M11 A3068 RMK AO2 SLP401 T10391111 11017 21039 53007=
200801041052 METAR KATL 041052Z 00000KT 10SM FEW250 M03/M10 A3067 RMK AO2 SLP397 T10331100 $=
200801040952 METAR KATL 040952Z 00000KT 10SM FEW250 M03/M12 A3066 RMK AO2 SLP392 T10331117 $=
200801040852 METAR KATL 040852Z 00000KT 10SM FEW250 M03/M12 A3066 RMK AO2 SLP393 T10281122 58005 $=
200801040752 METAR KATL 040752Z 00000KT 10SM SCT250 M03/M12 A3067 RMK AO2 SLP396 T10281122 $=
200801040652 METAR KATL 040652Z 00000KT 10SM SCT250 M02/M11 A3067 RMK AO2 SLP396 T10221111 $=
200801040552 METAR KATL 040552Z 00000KT 10SM BKN250 M02/M13 A3067 RMK AO2 SLP398 T10171128 10022 21017 58001 $=
200801040452 METAR KATL 040452Z 19004KT 10SM SCT250 M01/M12 A3068 RMK AO2 SLP400 T10111122 400441094 $=
200801040352 METAR KATL 040352Z 00000KT 10SM SCT250 M01/M13 A3068 RMK AO2 SLP403 T10061133 $=
200801040252 METAR KATL 040252Z 17003KT 10SM SCT250 00/M13 A3068 RMK AO2 SLP402 T00001133 53003 $=
200801040152 METAR KATL 040152Z 16003KT 10SM SCT250 00/M10 A3067 RMK AO2 SLP401 T00001100 $=
200801040052 METAR KATL 040052Z 00000KT 10SM SCT250 01/M16 A3067 RMK AO2 SLP401 T00111156 $=
200801032352 METAR KATL 032352Z 00000KT 10SM FEW250 02/M17 A3067 RMK AO2 SLP399 T00171172 10044 20011 53003 $=
200801032252 METAR KATL 032252Z 28003KT 10SM FEW250 03/M18 A3066 RMK AO2 SLP397 T00281183=
200801032152 METAR KATL 032152Z 26004KT 10SM FEW250 04/M16 A3065 RMK AO2 SLP393 T00391161=
200801032052 METAR KATL 032052Z 00000KT 10SM FEW250 04/M18 A3066 RMK AO2 SLP395 T00391183 56014=
200801031952 METAR KATL 031952Z 00000KT 10SM FEW250 03/M17 A3067 RMK AO2 SLP398 T00331172=
200801031852 METAR KATL 031852Z 00000KT 10SM CLR 03/M15 A3068 RMK AO2 SLP402 T00281150=
200801031752 METAR KATL 031752Z 00000KT 10SM CLR 02/M14 A3070 RMK AO2 SLP411 T00171144 10022 21094 58009=
200801031652 METAR KATL 031652Z 36004KT 10SM CLR 01/M13 A3073 RMK AO2 SLP420 T00061133=
200801031552 METAR KATL 031552Z 00000KT 10SM CLR M02/M13 A3074 RMK AO2 SLP424 T10221133=
200801031452 METAR KATL 031452Z 32005KT 10SM CLR M06/M13 A3073 RMK AO2 SLP423 T10561133 51012=
200801031352 METAR KATL 031352Z 34006KT 10SM CLR M08/M13 A3072 RMK AO2 SLP420 T10781133 $=
200801031252 METAR KATL 031252Z 32006KT 10SM CLR M09/M13 A3071 RMK AO2 SLP416 T10941133 $=
200801031152 METAR KATL 031152Z 34007KT 10SM CLR M09/M14 A3069 RMK AO2 SLP411 T10891139 11072 21094 53009 $=
200801031052 METAR KATL 031052Z 33009KT 10SM CLR M09/M14 A3068 RMK AO2 SLP406 T10891139 $=
200801030952 METAR KATL 030952Z 32010KT 10SM CLR M09/M14 A3068 RMK AO2 SLP404 T10891139 $=
200801030852 METAR KATL 030852Z 31009G18KT 10SM CLR M08/M14 A3067 RMK AO2 SLP401 T10831139 53007 $=
200801030752 METAR KATL 030752Z 34008KT 10SM CLR M08/M14 A3065 RMK AO2 SLP394 T10781139 $=
200801030652 METAR KATL 030652Z 34008KT 10SM CLR M08/M14 A3064 RMK AO2 SLP390 T10781139 $=
200801030552 METAR KATL 030552Z 33011G18KT 10SM CLR M07/M14 A3065 RMK AO2 SLP392 T10721144 11039 21072 51006 $=
200801030452 METAR KATL 030452Z 33014KT 10SM CLR M07/M14 A3063 RMK AO2 SLP389 T10671144 410111067 $=
200801030352 METAR KATL 030352Z 33015KT 10SM CLR M06/M14 A3064 RMK AO2 SLP391 T10611144 $=
200801030252 METAR KATL 030252Z 33013KT 10SM CLR M06/M15 A3063 RMK AO2 SLP387 T10561150 53019 $=
200801030152 METAR KATL 030152Z 34015G22KT 10SM CLR M05/M16 A3061 RMK AO2 PK WND 34026/0140 SLP381 T10501156 $=
200801030052 METAR KATL 030052Z 34015G25KT 10SM CLR M04/M16 A3059 RMK AO2 SLP374 T10441156=
200801022352 METAR KATL 022352Z 33013G26KT 10SM CLR M04/M16 A3057 RMK AO2 PK WND 34026/2345 SLP368 T10391156 11011 21039 51025=
200801022252 METAR KATL 022252Z 34013G23KT 10SM CLR M03/M16 A3054 RMK AO2 SLP357 T10331161=
200801022152 METAR KATL 022152Z 32016G22KT 10SM CLR M02/M16 A3053 RMK AO2 SLP351 T10221156=
200801022052 METAR KATL 022052Z 33013G24KT 10SM CLR M02/M15 A3049 RMK AO2 PK WND 33027/2001 SLP340 T10171150 53005=
200801021952 METAR KATL 021952Z 33019G26KT 10SM CLR M02/M15 A3048 RMK AO2 PK WND 31030/1856 SLP335 T10171150=
200801021852 METAR KATL 021852Z 32017G25KT 10SM CLR M02/M15 A3047 RMK AO2 PK WND 32031/1817 SLP331 T10171150=
200801021752 METAR KATL 021752Z 31017G24KT 10SM FEW060 M02/M15 A3048 RMK AO2 PK WND 34031/1740 SLP334 T10221150 11017 21061 50002=
200801021652 METAR KATL 021652Z 32014G23KT 10SM FEW050 M02/M16 A3048 RMK AO2 PK WND 34027/1620 SLP336 T10221156=
200801021552 METAR KATL 021552Z 32018G23KT 10SM FEW050 M03/M15 A3049 RMK AO2 PK WND 32028/1508 SLP336 T10331150=
200801021452 METAR KATL 021452Z 32016G22KT 10SM FEW050 M04/M14 A3047 RMK AO2 SLP331 T10441144 51019=
200801021352 METAR KATL 021352Z 32017G21KT 10SM FEW050 M06/M15 A3046 RMK AO2 SLP328 T10561150=
200801021252 METAR KATL 021252Z 31013G20KT 10SM CLR M06/M15 A3043 RMK AO2 SLP318 T10611150=
200801021152 METAR KATL 021152Z 32011G18KT 10SM FEW055 M06/M16 A3041 RMK AO2 SLP311 60000 931000 T10611161 11017 21061 53025=
200801021052 METAR KATL 021052Z 31014KT 10SM FEW060 M06/M16 A3039 RMK AO2 SLP301 T10561161 $=
200801020952 METAR KATL 020952Z 31013G23KT 10SM FEW060 M05/M17 A3035 RMK AO2 PK WND 31028/0913 SLP289 T10501167 $=
200801020852 METAR KATL 020852Z 31019G24KT 10SM FEW065 M04/M17 A3034 RMK AO2 PK WND 31026/0822 SLP283 60000 T10441167 53011 $=
200801020752 METAR KATL 020752Z 31023G29KT 10SM FEW050 M03/M17 A3033 RMK AO2 PK WND 32029/0751 SNB18E30 SLP278 P0000 T10331167 $=
200801020652 METAR KATL 020652Z 31016G21KT 10SM FEW055 SCT065 M03/M13 A3031 RMK AO2 PK WND 30029/0557 SLP272 SHSN VC NW T10281128 $=
200801020552 METAR KATL 020552Z 31016G27KT 10SM FEW060 M02/M14 A3031 RMK AO2 PK WND 31030/0509 SLP271 931000 60000 T10171139 10033 21017 51009 $=
200801020452 METAR KATL 020452Z 30017G28KT 10SM FEW060 M01/M13 A3030 RMK AO2 PK WND 29036/0415 SLP269 T10111133 400831011 $=
200801020352 METAR KATL 020352Z 30019G35KT 10SM FEW050 01/M11 A3029 RMK AO2 PK WND 31035/0344 SNB04E33 SLP264 P0000 T00061106 $=
200801020252 METAR KATL 020252Z 29014G20KT 10SM FEW050 SCT065 BKN080 01/M08 A3028 RMK AO2 SLP261 SNSH VC NW-N T00111078 53003 $=
200801020152 METAR KATL 020152Z 29013KT 10SM FEW065 02/M08 A3027 RMK AO2 SLP260 T00171083 $=
200801020052 METAR KATL 020052Z 30011G20KT 10SM FEW065 02/M09 A3027 RMK AO2 SLP258 T00221089 $=
200801012352 METAR KATL 012352Z 31018G25KT 10SM FEW065 03/M09 A3027 RMK AO2 SLP257 T00331094 10072 20033 53013 $=
200801012252 METAR KATL 012252Z 30015KT 10SM FEW065 04/M10 A3025 RMK AO2 PK WND 31031/2153 SLP248 T00391100 $=
200801012152 METAR KATL 012152Z 31026G33KT 10SM FEW065 06/M12 A3023 RMK AO2 PK WND 31033/2151 SLP243 T00611117 $=
200801012052 METAR KATL 012052Z 30016G25KT 10SM FEW065 07/M09 A3023 RMK AO2 PK WND 30030/2023 SLP240 T00671094 55003 $=
200801011952 METAR KATL 011952Z 31017G24KT 10SM FEW060 07/M09 A3022 RMK AO2 PK WND 33028/1856 SLP239 T00721089 $=
200801011852 METAR KATL 011852Z 30018G27KT 10SM FEW060 07/M08 A3022 RMK AO2 PK WND 30030/1809 SLP239 T00671083 $=
200801011752 METAR KATL 011752Z 31018G26KT 10SM FEW055 06/M06 A3024 RMK AO2 PK WND 30029/1727 SLP244 T00611056 10067 20033 50004 $=
200801011652 METAR KATL 011652Z 30016G25KT 10SM FEW055 06/M06 A3026 RMK AO2 PK WND 31031/1621 SLP252 T00611056 $=
200801011552 METAR KATL 011552Z 30017G25KT 10SM FEW050 06/M05 A3024 RMK AO2 PK WND 32028/1513 SLP246 T00561050 $=
200801011452 METAR KATL 011452Z 32018G25KT 10SM CLR 04/M05 A3022 RMK AO2 SLP240 T00441050 51025 $=
200801011352 METAR KATL 011352Z 31014G20KT 10SM CLR 03/M05 A3021 RMK AO2 SLP234 T00331050 $=
200801011252 METAR KATL 011252Z 31013G19KT 10SM CLR 03/M04 A3018 RMK AO2 SLP223 T00331044 $=
