##########################################################
# Query made at 04/19/2024 23:08:21 UTC
# Time interval: from 10/01/2008 12:00  to 10/31/2008 12:59  UTC
##########################################################

##########################################################
# KATL, Atlanta, Hartsfield - Jackson Atlanta International Airport (United States)
# WMO index: 72219. WIGOS ID: 0-20000-0-72219
# Latitude 33-38-59N. Longitude 084-25-00W. Altitude 312 m.
##########################################################

200810311252 METAR KATL 311252Z 08003KT 10SM CLR 08/00 A3057 RMK AO2 SLP355 T00830000=
200810311152 METAR KATL 311152Z 00000KT 10SM CLR 06/00 A3056 RMK AO2 SLP350 T00560000 10094 20050 51008=
200810311052 METAR KATL 311052Z 00000KT 10SM CLR 05/00 A3055 RMK AO2 SLP348 T00500000=
200810310952 METAR KATL 310952Z 06004KT 10SM CLR 07/M01 A3055 RMK AO2 SLP344 T00721006=
200810310852 METAR KATL 310852Z 03003KT 10SM CLR 07/00 A3053 RMK AO2 SLP340 T00720000 53003=
200810310752 METAR KATL 310752Z 05004KT 10SM CLR 08/00 A3053 RMK AO2 SLP338 T00830000=
200810310652 METAR KATL 310652Z 07003KT 10SM CLR 08/01 A3053 RMK AO2 SLP338 T00780011=
200810310552 METAR KATL 310552Z 06003KT 10SM CLR 09/01 A3052 RMK AO2 SLP337 T00890006 10144 20083 51003=
200810310452 METAR KATL 310452Z 09005KT 10SM CLR 09/01 A3052 RMK AO2 SLP336 T00890006 401830033=
200810310352 METAR KATL 310352Z 00000KT 10SM CLR 11/00 A3052 RMK AO2 SLP335 T01060000=
200810310252 METAR KATL 310252Z 13003KT 10SM CLR 12/01 A3051 RMK AO2 SLP334 T01170006 52012=
200810310152 METAR KATL 310152Z 13003KT 10SM CLR 12/00 A3050 RMK AO2 SLP331 T01220000=
200810310052 METAR KATL 310052Z 00000KT 10SM CLR 13/01 A3049 RMK AO2 SLP327 T01280011=
200810302352 METAR KATL 302352Z 13003KT 10SM CLR 14/M01 A3048 RMK AO2 SLP323 T01441011 10183 20144 53011=
200810302252 METAR KATL 302252Z 11005KT 10SM CLR 16/M02 A3046 RMK AO2 SLP316 T01561017=
200810302152 METAR KATL 302152Z 09005KT 10SM CLR 17/M02 A3045 RMK AO2 SLP312 T01671022=
200810302052 SPECI KATL 302052Z 00000KT 10SM CLR 18/M03 A3044 RMK AO2 SLP311 T01781028 56012=
200810301952 METAR KATL 301952Z 22003KT 10SM CLR 17/M03 A3045 RMK AO2 SLP312 T01721033=
200810301852 METAR KATL 301852Z VRB03KT 10SM CLR 17/M03 A3046 RMK AO2 SLP315 T01721028=
200810301752 METAR KATL 301752Z VRB06KT 10SM CLR 16/M03 A3048 RMK AO2 SLP323 T01611028 10167 20039 58001=
200810301652 METAR KATL 301652Z 15008KT 10SM CLR 16/M03 A3050 RMK AO2 SLP330 T01561028=
200810301552 METAR KATL 301552Z 10007KT 10SM CLR 15/M03 A3050 RMK AO2 SLP330 T01501028=
200810301452 METAR KATL 301452Z 06009KT 10SM CLR 13/M02 A3048 RMK AO2 SLP325 T01331022 51029=
200810301352 METAR KATL 301352Z 02008KT 10SM CLR 11/M02 A3047 RMK AO2 SLP320 T01061017=
200810301252 METAR KATL 301252Z 33005KT 10SM CLR 06/M01 A3043 RMK AO2 SLP309 T00611006=
200810301152 METAR KATL 301152Z 34005KT 10SM CLR 04/M01 A3040 RMK AO2 SLP297 T00391011 10061 20033 53018=
200810301052 METAR KATL 301052Z 33007KT 10SM CLR 04/M01 A3037 RMK AO2 SLP289 T00441011=
200810300952 METAR KATL 300952Z 33008KT 10SM CLR 06/M01 A3035 RMK AO2 SLP279 T00561011 $=
200810300852 METAR KATL 300852Z 32008KT 10SM CLR 04/M01 A3034 RMK AO2 SLP278 T00391006 51007 $=
200810300752 METAR KATL 300752Z 31007KT 10SM CLR 04/M01 A3034 RMK AO2 SLP276 T00441006 $=
200810300652 METAR KATL 300652Z 30005KT 10SM CLR 05/M01 A3032 RMK AO2 SLP271 T00501011 $=
200810300552 METAR KATL 300552Z 30007KT 10SM CLR 06/M01 A3032 RMK AO2 SLP271 T00561006 10100 20050 51008 $=
200810300452 METAR KATL 300452Z 30005KT 10SM CLR 07/M01 A3032 RMK AO2 SLP271 T00671011 401500006 $=
200810300352 METAR KATL 300352Z 28006KT 10SM CLR 06/M01 A3031 RMK AO2 SLP266 T00611011 $=
200810300252 METAR KATL 300252Z 26003KT 10SM CLR 08/M01 A3030 RMK AO2 SLP264 T00831011 53019=
200810300152 METAR KATL 300152Z 29007KT 10SM CLR 08/M01 A3027 RMK AO2 SLP256 T00831011=
200810300052 METAR KATL 300052Z 29007KT 10SM CLR 08/M01 A3025 RMK AO2 SLP249 T00831011=
200810292352 METAR KATL 292352Z 29005KT 10SM CLR 10/M02 A3024 RMK AO2 SLP245 T01001017 10150 20094 53007=
200810292252 METAR KATL 292252Z 28008KT 10SM CLR 11/M02 A3022 RMK AO2 SLP238 T01111022=
200810292152 METAR KATL 292152Z 27009KT 10SM CLR 13/M02 A3022 RMK AO2 SLP237 T01331022=
200810292052 METAR KATL 292052Z 29012KT 10SM CLR 14/M03 A3022 RMK AO2 SLP236 T01391028 56015=
200810291952 METAR KATL 291952Z 31010G14KT 10SM CLR 14/M03 A3023 RMK AO2 SLP238 T01441033=
200810291852 METAR KATL 291852Z 32009KT 10SM CLR 13/M04 A3024 RMK AO2 SLP244 T01331044=
200810291752 METAR KATL 291752Z 31007KT 10SM CLR 12/M04 A3026 RMK AO2 SLP252 T01221044 10122 20006 58011=
200810291652 METAR KATL 291652Z 32010G18KT 10SM CLR 11/M05 A3029 RMK AO2 SLP262 T01111050=
200810291552 METAR KATL 291552Z 33015G19KT 10SM CLR 10/M05 A3031 RMK AO2 SLP268 T01001050=
200810291452 METAR KATL 291452Z 34014G20KT 10SM CLR 07/M04 A3030 RMK AO2 SLP264 T00721044 51012=
200810291352 METAR KATL 291352Z 31009KT 10SM CLR 05/M03 A3029 RMK AO2 SLP263 T00501033=
200810291252 METAR KATL 291252Z 30007KT 10SM CLR 02/M03 A3028 RMK AO2 SLP259 T00221033=
200810291152 METAR KATL 291152Z 30007KT 10SM CLR 01/M04 A3026 RMK AO2 SLP254 T00111039 10022 20006 53005=
200810291052 METAR KATL 291052Z 31007KT 10SM CLR 01/M04 A3024 RMK AO2 SLP247 T00111039=
200810290952 METAR KATL 290952Z 30007KT 10SM CLR 02/M04 A3024 RMK AO2 SLP246 T00171039=
200810290852 METAR KATL 290852Z 31010KT 10SM CLR 02/M04 A3024 RMK AO2 SLP247 T00171039 56013=
200810290752 METAR KATL 290752Z 29006KT 10SM CLR 02/M04 A3025 RMK AO2 SLP249 T00171039=
200810290652 METAR KATL 290652Z 30008KT 10SM CLR 02/M04 A3027 RMK AO2 SLP254 T00221039=
200810290552 METAR KATL 290552Z 29007KT 10SM CLR 02/M04 A3028 RMK AO2 SLP260 T00221039 10061 20022 56009=
200810290452 METAR KATL 290452Z 30006KT 10SM CLR 03/M03 A3030 RMK AO2 SLP265 T00281033 401000017=
200810290352 METAR KATL 290352Z 30005KT 10SM CLR 03/M03 A3030 RMK AO2 SLP265 T00281033=
200810290252 METAR KATL 290252Z 29005KT 10SM CLR 03/M03 A3031 RMK AO2 SLP270 T00331033 53006=
200810290152 METAR KATL 290152Z 27004KT 10SM CLR 04/M03 A3030 RMK AO2 SLP266 T00441033=
200810290052 METAR KATL 290052Z 28003KT 10SM CLR 05/M04 A3030 RMK AO2 SLP267 T00501039=
200810282352 METAR KATL 282352Z 28004KT 10SM CLR 06/M05 A3029 RMK AO2 SLP264 T00611050 10100 20056 53005=
200810282252 METAR KATL 282252Z 30008KT 10SM CLR 07/M05 A3028 RMK AO2 SLP261 T00721050=
200810282152 METAR KATL 282152Z 33012KT 10SM CLR 09/M06 A3027 RMK AO2 SLP256 T00891056=
200810282052 SPECI KATL 282052Z 33017G23KT 10SM FEW060 10/M05 A3028 RMK AO2 SLP257 T01001050 55007=
200810281952 METAR KATL 281952Z 33016G21KT 10SM FEW055 10/M05 A3027 RMK AO2 SLP254 T01001050=
200810281852 SPECI KATL 281852Z 33014G23KT 10SM SCT050 09/M04 A3027 RMK AO2 SLP257 T00891044=
200810281752 METAR KATL 281752Z 32016KT 10SM BKN045 08/M03 A3030 RMK AO2 SLP265 T00831033 10089 20017 58004=
200810281652 METAR KATL 281652Z 34013G21KT 10SM BKN040 07/M02 A3032 RMK AO2 SLP274 T00671022=
200810281552 METAR KATL 281552Z 32010G20KT 10SM BKN040 08/M02 A3032 RMK AO2 PK WND 33026/1454 SLP273 T00781022=
200810281452 METAR KATL 281452Z 34018G25KT 10SM SCT030 06/M03 A3031 RMK AO2 PK WND 32026/1433 SLP270 T00611028 51014=
200810281352 METAR KATL 281352Z 32014G20KT 10SM FEW030 04/M02 A3030 RMK AO2 SLP266 T00441022 $=
200810281252 METAR KATL 281252Z 31010KT 10SM CLR 03/M02 A3028 RMK AO2 SLP261 T00281022=
200810281152 METAR KATL 281152Z 31009KT 10SM FEW250 02/M03 A3027 RMK AO2 SLP255 T00221028 10039 20022 53012=
200810281052 METAR KATL 281052Z 31007KT 10SM CLR 02/M03 A3026 RMK AO2 SLP251 T00221028=
200810280952 METAR KATL 280952Z 30010KT 10SM CLR 02/M03 A3024 RMK AO2 SLP246 T00221028=
200810280852 METAR KATL 280852Z 30007KT 10SM CLR 02/M03 A3023 RMK AO2 SLP242 T00221028 58001=
200810280752 METAR KATL 280752Z 31008KT 10SM CLR 03/M03 A3023 RMK AO2 SLP241 T00281028=
200810280652 METAR KATL 280652Z 32009KT 10SM CLR 04/M03 A3024 RMK AO2 SLP243 T00391028=
200810280552 METAR KATL 280552Z 31009KT 10SM CLR 04/M03 A3023 RMK AO2 SLP241 T00391033 10083 20039 56005=
200810280452 METAR KATL 280452Z 32007KT 10SM CLR 04/M04 A3024 RMK AO2 SLP243 T00441039 401500044=
200810280352 METAR KATL 280352Z 33009KT 10SM CLR 05/M04 A3024 RMK AO2 SLP245 T00501039=
200810280252 METAR KATL 280252Z 33009KT 10SM CLR 06/M04 A3025 RMK AO2 SLP246 T00611039 51015=
200810280152 METAR KATL 280152Z 33010KT 10SM CLR 07/M04 A3023 RMK AO2 SLP241 T00671039=
200810280052 METAR KATL 280052Z 33012G18KT 10SM CLR 07/M04 A3022 RMK AO2 SLP237 T00721039=
200810272352 METAR KATL 272352Z 33013KT 10SM FEW065 08/M04 A3020 RMK AO2 SLP230 T00831039 10128 20083 53018=
200810272252 METAR KATL 272252Z 32017G23KT 10SM FEW065 09/M06 A3018 RMK AO2 PK WND 32029/2208 SLP221 T00941056=
200810272152 METAR KATL 272152Z 32014G23KT 10SM FEW065 11/M06 A3016 RMK AO2 PK WND 32028/2124 SLP214 T01061056=
200810272052 METAR KATL 272052Z 31019G24KT 10SM FEW065 12/M06 A3015 RMK AO2 PK WND 33026/2003 SLP209 T01171061 55006=
200810271952 METAR KATL 271952Z 31021G26KT 10SM CLR 12/M07 A3015 RMK AO2 PK WND 32026/1945 SLP208 T01221067=
200810271852 METAR KATL 271852Z 32017G22KT 10SM CLR 13/M06 A3015 RMK AO2 SLP209 T01281061=
200810271752 METAR KATL 271752Z 33018G23KT 10SM CLR 12/M07 A3017 RMK AO2 PK WND 31028/1703 SLP214 T01221072 10122 20094 58009=
200810271652 METAR KATL 271652Z 30020G24KT 10SM CLR 11/M08 A3019 RMK AO2 PK WND 31028/1609 SLP223 T01111083=
200810271552 METAR KATL 271552Z 33019G27KT 10SM CLR 11/M09 A3019 RMK AO2 PK WND 32029/1511 SLP225 T01061094=
200810271452 METAR KATL 271452Z 33022G31KT 10SM CLR 10/M09 A3019 RMK AO2 PK WND 33032/1427 SLP224 T01001094 51027=
200810271352 METAR KATL 271352Z 32018G26KT 10SM CLR 09/M08 A3018 RMK AO2 PK WND 32033/1313 SLP220 T00941083=
200810271252 METAR KATL 271252Z 33015G28KT 10SM FEW065 SCT140 10/M04 A3015 RMK AO2 PK WND 33034/1200 SLP211 T01001039=
200810271152 METAR KATL 271152Z 32020G29KT 10SM BKN065 BKN140 11/01 A3011 RMK AO2 PK WND 33033/1127 SLP195 T01110011 10150 20111 53026=
200810271052 METAR KATL 271052Z 33020G28KT 10SM SCT030 12/06 A3007 RMK AO2 PK WND 33028/1051 SLP181 T01220056=
200810270952 METAR KATL 270952Z 31009G19KT 10SM FEW050 12/09 A3005 RMK AO2 SLP171 T01220089=
200810270852 METAR KATL 270852Z 28006KT 10SM CLR 12/09 A3003 RMK AO2 SLP166 T01220089 58011=
200810270752 METAR KATL 270752Z 28008KT 10SM FEW150 13/09 A3004 RMK AO2 SLP169 T01330089=
200810270652 METAR KATL 270652Z 28007KT 10SM SCT055 BKN150 14/08 A3006 RMK AO2 SLP173 T01390083=
200810270552 METAR KATL 270552Z 26008KT 10SM FEW150 14/08 A3007 RMK AO2 SLP177 T01440078 10167 20139 58006=
200810270452 METAR KATL 270452Z 25007KT 10SM CLR 15/07 A3008 RMK AO2 SLP182 T01500067 402110056=
200810270352 METAR KATL 270352Z 27008KT 10SM CLR 14/07 A3009 RMK AO2 SLP188 T01440067=
200810270252 METAR KATL 270252Z 26007KT 10SM CLR 14/07 A3009 RMK AO2 SLP187 T01440067 51013=
200810270152 METAR KATL 270152Z 28009KT 10SM CLR 15/06 A3008 RMK AO2 SLP184 T01500061=
200810270052 METAR KATL 270052Z 27006KT 10SM CLR 16/06 A3007 RMK AO2 SLP183 T01560056=
200810262352 METAR KATL 262352Z 00000KT 10SM CLR 17/06 A3005 RMK AO2 SLP175 T01670061 10211 20167 53008=
200810262252 METAR KATL 262252Z 25003KT 10SM CLR 18/04 A3003 RMK AO2 SLP168 T01830044=
200810262152 METAR KATL 262152Z 30006KT 10SM CLR 20/04 A3002 RMK AO2 SLP165 T02000044=
200810262052 METAR KATL 262052Z 33008KT 10SM CLR 21/04 A3002 RMK AO2 SLP165 T02110039 56016=
200810261952 METAR KATL 261952Z 33008KT 10SM CLR 21/04 A3004 RMK AO2 SLP170 T02060039=
200810261852 METAR KATL 261852Z 33011KT 10SM CLR 21/04 A3005 RMK AO2 SLP175 T02060039=
200810261752 METAR KATL 261752Z 34010G16KT 10SM CLR 20/03 A3007 RMK AO2 SLP181 T02000028 10200 20061 58012=
200810261652 METAR KATL 261652Z 31012KT 10SM FEW250 18/03 A3010 RMK AO2 SLP190 T01780033=
200810261552 METAR KATL 261552Z 34014KT 10SM CLR 16/04 A3011 RMK AO2 SLP196 T01610044=
200810261452 METAR KATL 261452Z 32011KT 10SM CLR 13/04 A3011 RMK AO2 SLP196 T01280044 51016=
200810261352 METAR KATL 261352Z 32010KT 10SM CLR 11/04 A3010 RMK AO2 SLP194 T01060044=
200810261252 METAR KATL 261252Z 32010KT 10SM CLR 08/04 A3007 RMK AO2 SLP184 T00780039=
200810261152 METAR KATL 261152Z 31009KT 10SM CLR 06/03 A3006 RMK AO2 SLP181 T00610033 10083 20056 53008=
200810261052 METAR KATL 261052Z 31004KT 10SM CLR 06/03 A3005 RMK AO2 SLP177 T00560033=
200810260952 METAR KATL 260952Z 29005KT 10SM CLR 06/03 A3004 RMK AO2 SLP173 T00610033=
200810260852 METAR KATL 260852Z 30006KT 10SM CLR 07/04 A3004 RMK AO2 SLP170 T00670039 56003=
200810260752 METAR KATL 260752Z 29004KT 10SM CLR 07/04 A3004 RMK AO2 SLP170 T00720039=
200810260652 METAR KATL 260652Z 28004KT 10SM CLR 07/04 A3004 RMK AO2 SLP171 T00720039=
200810260552 METAR KATL 260552Z 31005KT 10SM CLR 08/04 A3004 RMK AO2 SLP172 T00830044 10139 20083 58001=
200810260452 METAR KATL 260452Z 31006KT 10SM CLR 09/04 A3006 RMK AO2 SLP178 T00890044 401940089=
200810260352 METAR KATL 260352Z 30005KT 10SM CLR 10/04 A3005 RMK AO2 SLP177 T01000044=
200810260252 METAR KATL 260252Z 31006KT 10SM CLR 11/04 A3005 RMK AO2 SLP176 T01060044 51015=
200810260152 METAR KATL 260152Z 31006KT 10SM CLR 12/06 A3003 RMK AO2 SLP171 T01170056=
200810260052 METAR KATL 260052Z 29005KT 10SM CLR 12/06 A3002 RMK AO2 SLP167 T01220056=
200810252352 METAR KATL 252352Z 30006KT 10SM CLR 14/07 A3000 RMK AO2 SLP159 T01390067 10194 20139 53010=
200810252252 METAR KATL 252252Z 29007KT 10SM FEW250 16/06 A2997 RMK AO2 SLP149 T01560061=
200810252152 METAR KATL 252152Z 28007KT 10SM FEW250 17/06 A2996 RMK AO2 SLP145 T01720061=
200810252052 METAR KATL 252052Z 31012KT 10SM FEW050 SCT150 SCT250 18/07 A2997 RMK AO2 SLP147 T01830067 56012=
200810251952 METAR KATL 251952Z 31011KT 10SM FEW050 SCT150 SCT250 19/06 A2998 RMK AO2 SLP149 T01890061=
200810251852 METAR KATL 251852Z 30011G18KT 260V340 10SM FEW050 SCT150 SCT250 19/07 A2999 RMK AO2 SLP152 T01940067=
200810251752 METAR KATL 251752Z 30014KT 10SM FEW045 SCT250 18/07 A3001 RMK AO2 SLP159 T01830072 10183 20100 58014=
200810251652 METAR KATL 251652Z 32013G21KT 10SM FEW035 SCT250 17/07 A3003 RMK AO2 SLP168 T01670072=
200810251552 METAR KATL 251552Z 31008KT 10SM FEW020 SCT250 15/09 A3005 RMK AO2 SLP174 T01500089=
200810251452 METAR KATL 251452Z 31012KT 10SM SCT010 BKN250 13/09 A3005 RMK AO2 SLP175 T01280089 50011=
200810251439 SPECI KATL 251439Z 32009KT 10SM SCT010 12/09 A3004 RMK AO2=
200810251439 SPECI KATL 251439Z 32009KT 10SM SCT010 12/09 A3004 RMK AO2=
200810251352 METAR KATL 251352Z 33010G19KT 10SM OVC010 11/08 A3005 RMK AO2 PK WND 32027/1333 SLP178 BINOVC OHD AND E T01060083=
200810251343 SPECI KATL 251343Z 32012G22KT 10SM OVC010 10/08 A3005 RMK AO2 PK WND 32027/1333=
200810251343 SPECI KATL 251343Z 32012G22KT 10SM OVC010 10/08 A3005 RMK AO2 PK WND 32027/1333=
200810251252 METAR KATL 251252Z 31010G20KT 10SM OVC008 11/08 A3003 RMK AO2 CIG 005V010 SLP169 T01060083=
200810251152 METAR KATL 251152Z 32010KT 10SM OVC008 10/08 A3001 RMK AO2 DZE27 CIG 006V013 SLP164 P0000 60000 70058 T01000083 10117 20100 51012=
200810251108 SPECI KATL 251108Z 31011KT 6SM -DZ BR BKN005 OVC011 10/09 A3001 RMK AO2 P0000=
200810251108 SPECI KATL 251108Z 31011KT 6SM -DZ BR BKN005 OVC011 10/09 A3001 RMK AO2 P0000=
200810251053 SPECI KATL 251053Z 31011KT 1/2SM -DZ OVC004 10/09 A3001 RMK AO2 SFC VIS 10 CIG 002V008 P0000=
200810251053 SPECI KATL 251053Z 31011KT 1/2SM -DZ OVC004 10/09 A3001 RMK AO2 SFC VIS 10 CIG 002V008 P0000=
200810251052 METAR KATL 251052Z 32011KT 1/8SM -DZ BR OVC004 10/09 A3001 RMK AO2 SFC VIS 4 DZB31 CIG 002V008 SLP161 P0000 T01000089=
200810251032 SPECI KATL 251032Z 31012KT 1/8SM -DZ BR OVC002 10/09 A3000 RMK AO2 SFC VIS 2 1/2 DZB31 P0000=
200810251032 SPECI KATL 251032Z 31012KT 1/8SM -DZ BR OVC002 10/09 A3000 RMK AO2 SFC VIS 2 1/2 DZB31 P0000=
200810250952 METAR KATL 250952Z 32010KT 1/8SM BR OVC001 11/09 A2999 RMK AO2 SFC VIS 2 SLP157 T01060094=
200810250852 METAR KATL 250852Z 29008KT 1/8SM R09R/1600V2600FT FG BKN001 OVC005 11/10 A2998 RMK AO2 SFC VIS 1/2 SLP152 T01110100 55002=
200810250816 SPECI KATL 250816Z 31008KT 1/8SM R09R/1200V1800FT FG VV001 11/11 A2997 RMK AO2 SFC VIS 1/4=
200810250816 SPECI KATL 250816Z 31008KT 1/8SM R09R/1200V1800FT FG VV001 11/11 A2997 RMK AO2 SFC VIS 1/4=
200810250806 SPECI KATL 250806Z 33008KT 1/8SM R09R/1800V3500FT FG VV001 11/11 A2996 RMK AO2 SFC VIS 1/2=
200810250806 SPECI KATL 250806Z 33008KT 1/8SM R09R/1800V3500FT FG VV001 11/11 A2996 RMK AO2 SFC VIS 1/2=
200810250752 METAR KATL 250752Z 31006KT 1/8SM R09R/3000VP6000FT BR OVC002 11/11 A2997 RMK AO2 SFC VIS 1 SLP149 T01110106=
200810250747 SPECI KATL 250747Z 34005KT 1 1/2SM R09R/3000VP6000FT BR OVC002 11/11 A2997 RMK AO2 TWR VIS 2=
200810250747 SPECI KATL 250747Z 34005KT 1 1/2SM R09R/3000VP6000FT BR OVC002 11/11 A2997 RMK AO2 TWR VIS 2=
200810250652 METAR KATL 250652Z 31006KT 2SM BR BKN002 OVC030 12/11 A2998 RMK AO2 SFC VIS 5 SLP152 T01170106=
200810250552 METAR KATL 250552Z 32007KT 2SM BR BKN003 OVC030 12/11 A2998 RMK AO2 SFC VIS 5 RAE0456 SLP154 P0000 60004 T01170111 10117 20117 55006=
200810250452 METAR KATL 250452Z 32004KT 2SM -RA BR BKN004 OVC030 12/11 A2998 RMK AO2 SFC VIS 6 SLP154 CIG 003V008 PCPN VRY LGT P0004 T01170111 401220083=
200810250404 SPECI KATL 250404Z 34004KT 2 1/2SM -RA BR BKN004 BKN010 OVC026 12/11 A2999 RMK AO2 P0001=
200810250404 SPECI KATL 250404Z 34004KT 2 1/2SM -RA BR BKN004 BKN010 OVC026 12/11 A2999 RMK AO2 P0001=
200810250352 METAR KATL 250352Z 36006KT 4SM -RA BR BKN004 BKN010 OVC028 12/11 A2999 RMK AO2 SLP157 P0000 T01170111=
200810250318 SPECI KATL 250318Z 34007KT 6SM BR SCT004 BKN009 OVC030 12/11 A3000 RMK AO2 RAE18 P0000=
200810250318 SPECI KATL 250318Z 34007KT 6SM BR SCT004 BKN009 OVC030 12/11 A3000 RMK AO2 RAE18 P0000=
200810250252 METAR KATL 250252Z 35005KT 3SM -RA BR BKN004 OVC012 12/11 A3000 RMK AO2 SFC VIS 7 DZE06RAB06 SLP160 PCPN VRY LGT P0000 60000 T01170106 50000=
200810250206 SPECI KATL 250206Z 34008KT 3SM -RA BR BKN004 OVC008 12/11 A3001 RMK AO2 SFC VIS 5 DZE06RAB06 P0000=
200810250206 SPECI KATL 250206Z 34008KT 3SM -RA BR BKN004 OVC008 12/11 A3001 RMK AO2 SFC VIS 5 DZE06RAB06 P0000=
200810250152 METAR KATL 250152Z 34007KT 1 1/2SM -DZ BR OVC004 12/11 A3001 RMK AO2 SFC VIS 3 SLP162 CIG 003V007 P0000 T01170106=
200810250052 METAR KATL 250052Z 36006KT 1 1/2SM -DZ BR OVC004 12/11 A3001 RMK AO2 SFC VIS 2 RAE50DZB50 SLP162 CIG 003V007 P0000 T01170106=
200810250012 SPECI KATL 250012Z 36006KT 2SM -RA BR BKN005 OVC020 12/11 A3000 RMK AO2 SFC VIS 3 CIG 004V009 P0000=
200810250012 SPECI KATL 250012Z 36006KT 2SM -RA BR BKN005 OVC020 12/11 A3000 RMK AO2 SFC VIS 3 CIG 004V009 P0000=
200810242352 METAR KATL 242352Z 36008KT 1 1/2SM -RA BR BKN005 OVC020 12/11 A3000 RMK AO2 SFC VIS 2 1/2 SLP160 CIG 004V009 P0002 60006 T01170111 10122 20111 53007=
200810242318 SPECI KATL 242318Z 35008KT 1 1/2SM -RA BR BKN006 OVC020 12/11 A3000 RMK AO2 SFC VIS 2 CIG 004V009 P0001=
200810242318 SPECI KATL 242318Z 35008KT 1 1/2SM -RA BR BKN006 OVC020 12/11 A3000 RMK AO2 SFC VIS 2 CIG 004V009 P0001=
200810242252 METAR KATL 242252Z 35006KT 3/4SM -RA BR BKN005 OVC020 12/11 A2999 RMK AO2 SFC VIS 1 1/2 SLP156 CIG 003V008 P0003 T01220111=
200810242244 SPECI KATL 242244Z 36006KT 3/4SM -RA BR BKN005 OVC020 12/11 A2999 RMK AO2 SFC VIS 1 1/2 CIG 003V008 P0003=
200810242244 SPECI KATL 242244Z 36006KT 3/4SM -RA BR BKN005 OVC020 12/11 A2999 RMK AO2 SFC VIS 1 1/2 CIG 003V008 P0003=
200810242211 SPECI KATL 242211Z 35008KT 1/2SM -RA BR BKN004 OVC015 12/12 A2999 RMK AO2 SFC VIS 1 1/4 CIG 003V008 P0001=
200810242211 SPECI KATL 242211Z 35008KT 1/2SM -RA BR BKN004 OVC015 12/12 A2999 RMK AO2 SFC VIS 1 1/4 CIG 003V008 P0001=
200810242152 METAR KATL 242152Z 35007KT 1/4SM R09R/6000VP6000FT -RA BR OVC004 12/12 A2999 RMK AO2 SFC VIS 1 DZE04RAB04 SLP155 CIG 002V007 P0001 T01220117=
200810242104 SPECI KATL 242104Z 03007KT 1/4SM R09R/P6000FT -RA FG OVC002 12/12 A2998 RMK AO2 SFC VIS 1/2 DZE04RAB04 P0000=
200810242104 SPECI KATL 242104Z 03007KT 1/4SM R09R/P6000FT -RA FG OVC002 12/12 A2998 RMK AO2 SFC VIS 1/2 DZE04RAB04 P0000=
200810242052 METAR KATL 242052Z 05008KT 1/4SM R09R/P6000FT DZ FG OVC002 12/12 A2998 RMK AO2 SFC VIS 1/2 DZB43 SLP153 P0000 60000 T01220117 55015=
200810241952 METAR KATL 241952Z 09013KT 1/4SM BR OVC002 12/11 A2998 RMK AO2 SFC VIS 3 SLP151 T01220111=
200810241852 METAR KATL 241852Z 09013G19KT 1/4SM BR BCFG OVC002 12/11 A2998 RMK AO2 SFC VIS 2 SLP154 VIS 3/4SM NE 1SM E SE 1SM T01220111=
200810241822 SPECI KATL 241822Z 10012KT 1/4SM R09R/P6000FT BR OVC002 12/11 A2999 RMK AO2 SFC VIS 1=
200810241822 SPECI KATL 241822Z 10012KT 1/4SM R09R/P6000FT BR OVC002 12/11 A2999 RMK AO2 SFC VIS 1=
200810241757 SPECI KATL 241757Z 10011KT 1/4SM BR OVC002 11/11 A3002 RMK AO2 SFC VIS 2 PRESFR=
200810241757 SPECI KATL 241757Z 10011KT 1/4SM BR OVC002 11/11 A3002 RMK AO2 SFC VIS 2 PRESFR=
200810241752 METAR KATL 241752Z 10010KT 1/4SM BR OVC003 11/10 A3003 RMK AO2 SFC VIS 3 RAE01 SLP168 TWRINC P0000 60048 T01110100 10111 20089 58036=
200810241723 SPECI KATL 241723Z 10011KT 1/2SM BR OVC003 11/09 A3005 RMK AO2 SFC VIS 4 RAE01 TWRINC P0000=
200810241723 SPECI KATL 241723Z 10011KT 1/2SM BR OVC003 11/09 A3005 RMK AO2 SFC VIS 4 RAE01 TWRINC P0000=
200810241715 SPECI KATL 241715Z 10010KT 1/2SM BR OVC005 11/09 A3006 RMK AO2 SFC VIS 5 RAE01 P0000=
200810241715 SPECI KATL 241715Z 10010KT 1/2SM BR OVC005 11/09 A3006 RMK AO2 SFC VIS 5 RAE01 P0000=
200810241652 METAR KATL 241652Z 10011KT 2SM -RA BR BKN005 OVC008 11/09 A3008 RMK AO2 SFC VIS 4 SLP185 P0003 T01060094=
200810241616 SPECI KATL 241616Z 10010G19KT 2SM -RA BR OVC005 10/09 A3008 RMK AO2 SFC VIS 3 CIG 004V008 P0001 $=
200810241616 SPECI KATL 241616Z 10010G19KT 2SM -RA BR OVC005 10/09 A3008 RMK AO2 SFC VIS 3 CIG 004V008 P0001 $=
200810241552 METAR KATL 241552Z 08010KT 3SM -RA BR BKN005 BKN008 OVC010 10/09 A3010 RMK AO2 SFC VIS 5 SLP193 P0004 T01000089 $=
200810241528 SPECI KATL 241528Z 08015KT 3SM -RA BR BKN006 OVC009 10/09 A3010 RMK AO2 SFC VIS 5 P0004=
200810241528 SPECI KATL 241528Z 08015KT 3SM -RA BR BKN006 OVC009 10/09 A3010 RMK AO2 SFC VIS 5 P0004=
200810241452 METAR KATL 241452Z 08014G18KT 3SM RA BR OVC006 09/08 A3014 RMK AO2 CIG 005V010 SLP206 P0014 60041 T00940083 58022=
200810241421 SPECI KATL 241421Z 09017G22KT 2 1/2SM RA BR OVC006 09/08 A3014 RMK AO2 TWR VIS 3 CIG 004V008 P0007=
200810241421 SPECI KATL 241421Z 09017G22KT 2 1/2SM RA BR OVC006 09/08 A3014 RMK AO2 TWR VIS 3 CIG 004V008 P0007=
200810241352 METAR KATL 241352Z 09014G21KT 3SM -RA BR OVC006 09/08 A3017 RMK AO2 PK WND 09028/1328 SFC VIS 5 SLP217 P0006 T00940083=
200810241303 SPECI KATL 241303Z 07017KT 3SM RA BR OVC006 09/08 A3017 RMK AO2 SFC VIS 4 CIG 005V010 P0002=
200810241303 SPECI KATL 241303Z 07017KT 3SM RA BR OVC006 09/08 A3017 RMK AO2 SFC VIS 4 CIG 005V010 P0002=
200810241252 METAR KATL 241252Z 07017KT 2 1/2SM RA BR BKN006 OVC010 09/08 A3017 RMK AO2 SFC VIS 3 SLP219 P0021 T00890078=
200810241201 SPECI KATL 241201Z 07013KT 2 1/2SM RA BR BKN006 OVC010 09/07 A3021 RMK AO2 SFC VIS 4 P0003=
200810241201 SPECI KATL 241201Z 07013KT 2 1/2SM RA BR BKN006 OVC010 09/07 A3021 RMK AO2 SFC VIS 4 P0003=
200810241152 METAR KATL 241152Z 08013KT 4SM RA BR BKN008 OVC014 09/07 A3020 RMK AO2 SLP229 P0011 60029 70030 T00890072 10100 20083 56003=
200810241052 METAR KATL 241052Z 08014KT 6SM RA BR BKN008 OVC014 09/07 A3021 RMK AO2 SLP232 P0007 T00890072=
200810241043 SPECI KATL 241043Z 08015KT 6SM -RA BR BKN008 OVC014 09/07 A3022 RMK AO2 CIG 007V012 P0005=
200810241043 SPECI KATL 241043Z 08015KT 6SM -RA BR BKN008 OVC014 09/07 A3022 RMK AO2 CIG 007V012 P0005=
200810241020 SPECI KATL 241020Z 09010KT 7SM -RA BKN010 OVC017 09/07 A3023 RMK AO2 CIG 008V013 P0002=
200810241020 SPECI KATL 241020Z 09010KT 7SM -RA BKN010 OVC017 09/07 A3023 RMK AO2 CIG 008V013 P0002=
200810240952 METAR KATL 240952Z 08014KT 10SM -RA BKN017 OVC030 09/07 A3020 RMK AO2 SLP229 P0001 T00890072=
200810240852 METAR KATL 240852Z 09012KT 7SM -RA BKN019 OVC075 09/07 A3021 RMK AO2 SLP232 P0005 60010 T00890067 58013=
200810240752 METAR KATL 240752Z 09013KT 7SM -RA BKN019 OVC075 09/07 A3022 RMK AO2 SLP235 P0004 T00890067=
200810240652 METAR KATL 240652Z 10013G19KT 9SM -RA BKN019 OVC075 09/06 A3025 RMK AO2 PK WND 11028/0609 SLP245 P0001 T00940061=
200810240633 SPECI KATL 240633Z 10012G17KT 10SM -RA BKN019 BKN075 OVC090 10/06 A3024 RMK AO2 PK WND 11028/0609 P0001=
200810240633 SPECI KATL 240633Z 10012G17KT 10SM -RA BKN019 BKN075 OVC090 10/06 A3024 RMK AO2 PK WND 11028/0609 P0001=
200810240620 SPECI KATL 240620Z 10017G25KT 10SM -RA FEW019 BKN075 OVC090 10/06 A3024 RMK AO2 PK WND 11028/0609 P0001=
200810240620 SPECI KATL 240620Z 10017G25KT 10SM -RA FEW019 BKN075 OVC090 10/06 A3024 RMK AO2 PK WND 11028/0609 P0001=
200810240552 METAR KATL 240552Z 11016G24KT 10SM -RA BKN019 BKN060 OVC100 09/06 A3025 RMK AO2 SLP245 P0001 60001 T00940056 10128 20094 58022=
200810240452 METAR KATL 240452Z 11013G20KT 10SM -RA OVC025 11/04 A3031 RMK AO2 PK WND 12027/0404 SLP263 P0000 T01110039 401670094=
200810240352 METAR KATL 240352Z 11017G22KT 10SM -RA OVC025 12/02 A3031 RMK AO2 PK WND 11027/0325 SLP263 P0000 T01220022=
200810240252 METAR KATL 240252Z 11017G23KT 10SM -RA OVC027 13/01 A3032 RMK AO2 PK WND 12026/0224 RAB51 SLP268 PCPN VRY LGT P0000 60000 T01280006 58002=
200810240152 METAR KATL 240152Z 10014G23KT 10SM OVC029 13/01 A3032 RMK AO2 SLP267 T01280006=
200810240052 METAR KATL 240052Z 09015G20KT 10SM BKN032 BKN045 OVC080 13/02 A3033 RMK AO2 SLP273 T01280017=
200810232352 METAR KATL 232352Z 09015KT 10SM FEW032 BKN045 OVC150 13/02 A3033 RMK AO2 SLP270 T01280022 10150 20128 50005=
200810232252 METAR KATL 232252Z 08013KT 10SM BKN046 OVC150 13/03 A3033 RMK AO2 SLP272 T01330028=
200810232152 METAR KATL 232152Z 09014KT 10SM BKN043 OVC150 13/02 A3032 RMK AO2 SLP266 T01330022=
200810232052 METAR KATL 232052Z 09016G23KT 10SM FEW045 BKN150 OVC200 14/02 A3031 RMK AO2 SLP264 VIRGA N-NE T01390022 56015=
200810231952 METAR KATL 231952Z 09020G23KT 10SM FEW048 SCT100 BKN150 BKN250 14/02 A3032 RMK AO2 SLP268 VIRGA OHD ALQDS T01390017=
200810231852 METAR KATL 231852Z 09014G21KT 10SM BKN047 BKN150 BKN250 14/01 A3034 RMK AO2 SLP274 T01440011=
200810231752 METAR KATL 231752Z 11016G21KT 10SM BKN047 BKN150 BKN250 14/01 A3036 RMK AO2 PK WND 08027/1713 SLP280 T01440006 10167 20094 58015=
200810231652 METAR KATL 231652Z 11017G22KT 10SM SCT043 BKN150 BKN250 15/02 A3038 RMK AO2 PK WND 08026/1625 SLP287 T01500022=
200810231552 METAR KATL 231552Z 10015G27KT 10SM FEW050 SCT120 BKN150 BKN250 13/02 A3040 RMK AO2 PK WND 07031/1504 SLP295 T01330017=
200810231452 METAR KATL 231452Z 08020G27KT 10SM FEW050 SCT120 SCT250 13/02 A3040 RMK AO2 PK WND 10027/1445 SLP294 T01280022 50012=
200810231352 METAR KATL 231352Z 09017G24KT 10SM FEW050 SCT120 SCT250 11/02 A3040 RMK AO2 SLP296 T01110017=
200810231252 METAR KATL 231252Z 09017G24KT 10SM BKN046 BKN150 BKN200 10/02 A3039 RMK AO2 SLP291 T01000017=
200810231152 METAR KATL 231152Z 08016KT 10SM SCT039 BKN150 09/01 A3037 RMK AO2 SLP283 T00940011 10122 20094 51012=
200810231052 METAR KATL 231052Z 09013KT 10SM BKN037 BKN180 10/01 A3036 RMK AO2 SLP281 T01000006=
200810230952 METAR KATL 230952Z 10011KT 10SM FEW038 SCT150 BKN200 11/01 A3035 RMK AO2 SLP277 T01060006=
200810230852 METAR KATL 230852Z 09012G21KT 10SM BKN150 OVC200 11/02 A3033 RMK AO2 SLP269 T01060017 51005=
200810230752 METAR KATL 230752Z 09012KT 10SM BKN150 OVC200 11/02 A3032 RMK AO2 SLP267 T01110022=
200810230652 METAR KATL 230652Z 08011KT 10SM SCT150 OVC200 12/03 A3034 RMK AO2 SLP271 T01170028=
200810230552 METAR KATL 230552Z 08011KT 10SM SCT150 OVC200 10/04 A3031 RMK AO2 SLP264 T01000039 10156 20100 52005=
200810230452 METAR KATL 230452Z 10009KT 10SM FEW150 OVC200 12/04 A3031 RMK AO2 SLP263 T01220039 402000111=
200810230352 METAR KATL 230352Z 09013KT 10SM FEW150 BKN250 13/04 A3030 RMK AO2 SLP259 T01280044=
200810230252 METAR KATL 230252Z COR 09011KT 10SM SCT200 BKN250 13/05 A3030 RMK AO2 SLP258 T01330050 51016=
200810230152 METAR KATL 230152Z 09010KT 10SM SCT200 BKN250 14/05 A3028 RMK AO2 SLP255 T01390050=
200810230052 METAR KATL 230052Z 09008KT 10SM FEW150 BKN250 14/06 A3027 RMK AO2 SLP250 T01440056=
200810222352 METAR KATL 222352Z 09009KT 10SM FEW150 BKN250 15/05 A3025 RMK AO2 SLP243 T01500050 10200 20150 53016=
200810222252 METAR KATL 222252Z 10009KT 10SM FEW150 SCT250 17/05 A3022 RMK AO2 SLP232 T01670050=
200810222152 METAR KATL 222152Z 09009KT 10SM FEW150 SCT250 18/06 A3020 RMK AO2 SLP225 T01830056=
200810222052 METAR KATL 222052Z 09008KT 10SM FEW150 SCT300 19/06 A3020 RMK AO2 SLP224 T01940056 56013=
200810221952 METAR KATL 221952Z 07008KT 10SM FEW150 SCT300 19/06 A3021 RMK AO2 SLP227 T01940056=
200810221852 METAR KATL 221852Z 07010KT 10SM FEW150 SCT300 19/05 A3021 RMK AO2 SLP230 T01890050=
200810221752 METAR KATL 221752Z 08008KT 10SM FEW150 18/04 A3024 RMK AO2 SLP237 T01830044 10183 20111 58011=
200810221652 METAR KATL 221652Z 09012G18KT 10SM FEW150 17/03 A3027 RMK AO2 SLP247 T01720033=
200810221552 METAR KATL 221552Z 07012G16KT 10SM CLR 16/03 A3028 RMK AO2 SLP251 T01610033=
200810221452 METAR KATL 221452Z 08015KT 10SM CLR 15/03 A3027 RMK AO2 SLP250 T01500033 51013=
200810221352 METAR KATL 221352Z 09013G20KT 10SM FEW300 13/04 A3027 RMK AO2 SLP250 T01280044=
200810221252 METAR KATL 221252Z 08011KT 10SM CLR 12/06 A3026 RMK AO2 SLP244 T01170061=
200810221152 METAR KATL 221152Z 08012KT 10SM FEW250 11/07 A3023 RMK AO2 SLP236 T01110072 10133 20111 53019=
200810221052 METAR KATL 221052Z 06010KT 9SM CLR 12/08 A3021 RMK AO2 SLP227 T01220083=
200810220952 METAR KATL 220952Z 04007KT 8SM CLR 13/09 A3019 RMK AO2 SLP219 T01330089=
200810220852 METAR KATL 220852Z 01007KT 9SM CLR 13/09 A3018 RMK AO2 SLP214 T01280094 53000=
200810220752 METAR KATL 220752Z 34004KT 9SM CLR 12/09 A3017 RMK AO2 SLP213 T01220089=
200810220652 METAR KATL 220652Z 33005KT 10SM FEW250 12/09 A3017 RMK AO2 SLP212 T01220089=
200810220552 METAR KATL 220552Z 34003KT 10SM FEW250 13/09 A3017 RMK AO2 SLP214 T01330089 10178 20133 58001=
200810220452 METAR KATL 220452Z 00000KT 10SM FEW250 14/09 A3018 RMK AO2 SLP217 T01390094 402220072=
200810220352 METAR KATL 220352Z 34006KT 10SM FEW250 15/09 A3018 RMK AO2 SLP215 T01500094=
200810220252 METAR KATL 220252Z 34005KT 10SM FEW250 16/09 A3018 RMK AO2 SLP217 T01560094 53008=
200810220152 METAR KATL 220152Z 32005KT 10SM FEW250 16/09 A3016 RMK AO2 SLP213 T01560094=
200810220052 METAR KATL 220052Z 31005KT 10SM FEW250 17/09 A3016 RMK AO2 SLP211 T01670094=
200810212352 METAR KATL 212352Z 00000KT 10SM FEW250 18/09 A3015 RMK AO2 SLP210 T01780089 10222 20178 55001=
200810212252 METAR KATL 212252Z 30005KT 10SM FEW250 19/08 A3015 RMK AO2 SLP208 T01890083=
200810212152 METAR KATL 212152Z 31007KT 10SM FEW250 21/08 A3015 RMK AO2 SLP207 T02060083=
200810212052 METAR KATL 212052Z 35008KT 10SM FEW250 22/08 A3015 RMK AO2 SLP209 T02220078 56014=
200810211952 METAR KATL 211952Z 30007KT 10SM FEW250 22/07 A3016 RMK AO2 SLP209 T02220067=
200810211852 METAR KATL 211852Z 31004KT 10SM FEW250 22/07 A3017 RMK AO2 SLP214 T02170072=
200810211752 METAR KATL 211752Z 32011KT 10SM FEW250 21/08 A3020 RMK AO2 SLP223 T02110083 10211 20072 58015=
200810211652 METAR KATL 211652Z 34012G15KT 10SM FEW250 BKN300 19/08 A3023 RMK AO2 SLP234 T01940083=
200810211552 METAR KATL 211552Z 33008KT 10SM FEW250 18/08 A3024 RMK AO2 SLP238 T01830083=
200810211452 METAR KATL 211452Z 31008KT 10SM FEW250 SCT300 16/08 A3024 RMK AO2 SLP240 T01560078 50003=
200810211352 METAR KATL 211352Z 30007KT 10SM FEW250 BKN300 12/07 A3025 RMK AO2 SLP244 T01220067=
200810211252 METAR KATL 211252Z 30006KT 10SM BKN250 09/06 A3024 RMK AO2 SLP243 T00940056=
200810211152 METAR KATL 211152Z 30005KT 10SM FEW250 08/04 A3023 RMK AO2 SLP238 T00780044 10106 20078 53005=
200810211052 METAR KATL 211052Z 30004KT 10SM CLR 08/05 A3023 RMK AO2 SLP236 T00830050=
200810210952 METAR KATL 210952Z 31006KT 10SM CLR 08/05 A3021 RMK AO2 SLP230 T00780050=
200810210852 METAR KATL 210852Z 31005KT 10SM CLR 09/05 A3021 RMK AO2 SLP230 T00890050 58006=
200810210752 METAR KATL 210752Z 31006KT 10SM FEW250 09/05 A3022 RMK AO2 SLP230 T00940050=
200810210652 METAR KATL 210652Z 30003KT 10SM SCT250 11/04 A3023 RMK AO2 SLP235 T01060044=
200810210552 METAR KATL 210552Z 26003KT 10SM SCT250 11/04 A3023 RMK AO2 SLP237 T01060039 10156 20083 58007=
200810210452 METAR KATL 210452Z 31005KT 10SM BKN250 11/04 A3024 RMK AO2 SLP240 T01060044 401890067=
200810210352 METAR KATL 210352Z 00000KT 10SM SCT250 12/04 A3025 RMK AO2 SLP241 T01220039=
200810210252 METAR KATL 210252Z 24003KT 10SM SCT250 12/06 A3025 RMK AO2 SLP245 T01170056 53002=
200810210152 METAR KATL 210152Z 00000KT 10SM FEW250 13/04 A3025 RMK AO2 SLP243 T01330039=
200810210052 METAR KATL 210052Z 00000KT 10SM FEW250 14/04 A3024 RMK AO2 SLP243 T01390044=
200810202352 METAR KATL 202352Z 00000KT 10SM FEW250 16/02 A3025 RMK AO2 SLP244 T01560022 10189 20139 55001=
200810202252 METAR KATL 202252Z 22004KT 10SM SCT250 17/02 A3024 RMK AO2 SLP240 T01670022=
200810202152 METAR KATL 202152Z 20004KT 10SM SCT250 18/01 A3024 RMK AO2 SLP239 T01830006=
200810202052 METAR KATL 202052Z 00000KT 10SM SCT250 19/01 A3025 RMK AO2 SLP243 T01890006 56019=
200810201952 METAR KATL 201952Z 00000KT 10SM FEW250 19/01 A3026 RMK AO2 SLP246 T01890006=
200810201852 METAR KATL 201852Z 00000KT 10SM FEW250 18/03 A3027 RMK AO2 SLP251 T01780033=
200810201752 METAR KATL 201752Z 00000KT 10SM FEW250 17/01 A3031 RMK AO2 SLP264 T01670011 10172 20072 58019 $=
200810201652 METAR KATL 201652Z VRB04KT 10SM SCT250 17/03 A3035 RMK AO2 SLP275 T01670028 $=
200810201552 METAR KATL 201552Z 11003KT 10SM FEW250 15/02 A3036 RMK AO2 SLP281 T01500022 $=
200810201452 METAR KATL 201452Z 14003KT 10SM FEW250 13/03 A3037 RMK AO2 SLP284 T01280028 50010 $=
200810201352 METAR KATL 201352Z 10006KT 10SM FEW250 11/04 A3037 RMK AO2 SLP285 T01110039 $=
200810201252 METAR KATL 201252Z 09006KT 10SM FEW250 09/04 A3036 RMK AO2 SLP281 T00890039 $=
200810201152 METAR KATL 201152Z 08007KT 10SM CLR 07/03 A3034 RMK AO2 SLP274 T00720028 10094 20067 51008=
200810201052 METAR KATL 201052Z 08005KT 10SM CLR 07/03 A3034 RMK AO2 SLP274 T00670028=
200810200952 METAR KATL 200952Z 09005KT 10SM CLR 07/03 A3032 RMK AO2 SLP269 T00720028 $=
200810200852 METAR KATL 200852Z 08004KT 10SM CLR 08/03 A3031 RMK AO2 SLP265 T00780033 51005 $=
200810200752 METAR KATL 200752Z 09003KT 10SM CLR 09/03 A3031 RMK AO2 SLP264 T00890033 $=
200810200652 METAR KATL 200652Z 08005KT 10SM CLR 09/03 A3031 RMK AO2 SLP263 T00890033 $=
200810200552 METAR KATL 200552Z 12003KT 10SM CLR 08/03 A3030 RMK AO2 SLP260 T00780033 10144 20078 51002 $=
200810200452 METAR KATL 200452Z 12005KT 10SM FEW250 11/03 A3029 RMK AO2 SLP257 T01060033 401830100 $=
200810200352 METAR KATL 200352Z 12004KT 10SM CLR 12/03 A3030 RMK AO2 SLP259 T01170033 $=
200810200252 METAR KATL 200252Z 12004KT 10SM CLR 12/03 A3029 RMK AO2 SLP258 T01220033 51009 $=
200810200152 METAR KATL 200152Z 09005KT 10SM FEW250 12/04 A3028 RMK AO2 SLP255 T01170044 $=
200810200052 METAR KATL 200052Z 09005KT 10SM FEW250 13/04 A3028 RMK AO2 SLP253 T01280039=
200810192352 METAR KATL 192352Z 10007KT 10SM FEW250 14/04 A3026 RMK AO2 SLP248 T01390044 10183 20133 53001=
200810192252 METAR KATL 192252Z 09007KT 10SM FEW250 15/04 A3025 RMK AO2 SLP244 T01500039=
200810192152 METAR KATL 192152Z 09007KT 10SM FEW250 17/04 A3025 RMK AO2 SLP242 T01670039=
200810192052 METAR KATL 192052Z VRB03KT 10SM FEW250 18/04 A3026 RMK AO2 SLP246 T01780039 55008=
200810191952 METAR KATL 191952Z 06009KT 10SM FEW250 17/04 A3026 RMK AO2 SLP244 T01720039=
200810191852 METAR KATL 191852Z 07009KT 10SM FEW055 17/04 A3026 RMK AO2 SLP246 T01720039=
200810191752 METAR KATL 191752Z 07011G15KT 10SM FEW050 17/04 A3029 RMK AO2 SLP255 T01670039 10167 20100 58009=
200810191652 METAR KATL 191652Z VRB06KT 10SM CLR 16/03 A3031 RMK AO2 SLP262 T01560033=
200810191552 METAR KATL 191552Z 09009KT 10SM CLR 14/03 A3032 RMK AO2 SLP267 T01440028=
200810191452 METAR KATL 191452Z 09011KT 10SM CLR 13/03 A3032 RMK AO2 SLP266 T01330033 51022 $=
200810191352 METAR KATL 191352Z 08011KT 10SM CLR 12/03 A3030 RMK AO2 SLP262 T01220033 $=
200810191252 METAR KATL 191252Z 06009KT 10SM CLR 11/04 A3028 RMK AO2 SLP253 T01110044 $=
200810191152 METAR KATL 191152Z 07007KT 10SM FEW050 10/04 A3025 RMK AO2 SLP243 T01000039 10122 20100 51014 $=
200810191052 METAR KATL 191052Z 06006KT 10SM FEW050 10/04 A3024 RMK AO2 SLP240 T01000039 $=
200810190952 METAR KATL 190952Z 08005KT 10SM BKN050 11/04 A3023 RMK AO2 SLP233 T01060044 $=
200810190852 METAR KATL 190852Z 08005KT 10SM OVC048 11/05 A3021 RMK AO2 SLP227 T01060050 53003 $=
200810190752 METAR KATL 190752Z 06006KT 10SM BKN046 12/04 A3020 RMK AO2 SLP225 T01220044 $=
200810190652 METAR KATL 190652Z 08006KT 10SM BKN042 12/04 A3020 RMK AO2 SLP226 T01220044 $=
200810190552 METAR KATL 190552Z 05007KT 10SM BKN034 12/04 A3020 RMK AO2 SLP224 T01220044 10144 20094 51005 $=
200810190452 METAR KATL 190452Z 36007KT 10SM SCT034 11/03 A3019 RMK AO2 SLP222 T01110033 401940094 $=
200810190352 METAR KATL 190352Z 35006KT 10SM FEW050 11/03 A3019 RMK AO2 SLP224 T01110033 $=
200810190252 METAR KATL 190252Z VRB06KT 10SM FEW050 12/03 A3018 RMK AO2 SLP220 T01220033 51014 $=
200810190152 METAR KATL 190152Z 36009KT 10SM FEW050 13/03 A3017 RMK AO2 SLP217 T01330033 $=
200810190052 METAR KATL 190052Z 34009KT 10SM CLR 13/04 A3016 RMK AO2 SLP212 T01330044 $=
200810182352 METAR KATL 182352Z 34010KT 10SM CLR 14/04 A3014 RMK AO2 SLP205 T01440044 10194 20144 53022 $=
200810182252 METAR KATL 182252Z 33011KT 10SM FEW050 16/04 A3012 RMK AO2 SLP198 T01560039 $=
200810182152 METAR KATL 182152Z 34014KT 10SM FEW050 18/04 A3008 RMK AO2 SLP185 T01780039 $=
200810182052 METAR KATL 182052Z 33013G18KT 10SM FEW050 19/06 A3007 RMK AO2 SLP181 T01890056 55003 $=
200810181952 METAR KATL 181952Z 31012G18KT 10SM FEW050 18/06 A3007 RMK AO2 SLP179 T01830061 $=
200810181852 METAR KATL 181852Z 31013G18KT 10SM FEW045 18/06 A3007 RMK AO2 SLP179 T01830061 $=
200810181752 METAR KATL 181752Z 31012KT 10SM SCT040 18/08 A3008 RMK AO2 SLP185 60000 T01830078 10183 20111 58004 $=
200810181652 METAR KATL 181652Z 35009KT 10SM SCT035 17/08 A3009 RMK AO2 SLP188 T01720083 $=
200810181603 SPECI KATL 181603Z 32008KT 10SM SCT024 SCT029 BKN060 16/09 A3010 RMK AO2 $=
200810181603 SPECI KATL 181603Z 32008KT 10SM SCT024 SCT029 BKN060 16/09 A3010 RMK AO2 $=
200810181552 METAR KATL 181552Z 31007KT 10SM SCT024 BKN029 BKN060 15/09 A3010 RMK AO2 SLP189 SCT024V BKN T01500089 $=
200810181452 METAR KATL 181452Z 32008KT 9SM BKN019 BKN029 BKN060 14/09 A3010 RMK AO2 SLP189 60000 T01390094 50012 $=
200810181352 METAR KATL 181352Z 34006KT 7SM BKN017 BKN021 12/09 A3010 RMK AO2 SLP191 T01220094 $=
200810181252 METAR KATL 181252Z 32009KT 6SM BR BKN014 OVC018 12/10 A3008 RMK AO2 DZB12E49 SLP184 P0000 T01170100 $=
200810181152 METAR KATL 181152Z 33008KT 7SM OVC014 12/10 A3006 RMK AO2 SLP177 70077 T01170100 10128 20106 53020 $=
200810181052 METAR KATL 181052Z 33009KT 8SM BKN014 OVC018 11/09 A3004 RMK AO2 SLP170 T01110094 $=
200810180952 METAR KATL 180952Z 01009KT 9SM BKN014 11/09 A3001 RMK AO2 SLP159 T01110089 $=
200810180924 SPECI KATL 180924Z 35008KT 9SM BKN013 11/09 A3001 RMK AO2 $=
200810180924 SPECI KATL 180924Z 35008KT 9SM BKN013 11/09 A3001 RMK AO2 $=
200810180852 METAR KATL 180852Z COR 33010KT 9SM FEW015 11/09 A3000 RMK AO2 SLP156 T01060089 55002 $=
200810180752 METAR KATL 180752Z 32011G20KT 10SM CLR 11/09 A3000 RMK AO2 SLP155 T01110089 $=
200810180652 METAR KATL 180652Z 32010KT 10SM CLR 12/10 A3000 RMK AO2 SLP156 T01220100 $=
200810180552 METAR KATL 180552Z 31007KT 10SM FEW200 13/11 A3001 RMK AO2 SLP157 T01280111 10161 20128 56012 $=
200810180452 METAR KATL 180452Z 29008KT 10SM FEW200 13/12 A3001 RMK AO2 SLP160 T01330117 402060133=
200810180352 METAR KATL 180352Z 29006KT 10SM FEW150 SCT200 14/12 A3003 RMK AO2 SLP166 T01390122=
200810180252 METAR KATL 180252Z 30008KT 10SM FEW150 BKN200 14/13 A3004 RMK AO2 SLP170 T01440128 50003=
200810180152 METAR KATL 180152Z 31007KT 10SM FEW040 SCT150 BKN200 15/13 A3005 RMK AO2 SLP170 T01500133=
200810180052 METAR KATL 180052Z 32007KT 10SM FEW006 SCT035 BKN050 OVC200 16/13 A3004 RMK AO2 SLP167 T01560133=
200810180049 SPECI KATL 180049Z 32008KT 10SM FEW006 SCT035 BKN050 OVC200 16/13 A3004 RMK AO2=
200810180049 SPECI KATL 180049Z 32008KT 10SM FEW006 SCT035 BKN050 OVC200 16/13 A3004 RMK AO2=
200810180008 SPECI KATL 180008Z 32006KT 9SM FEW006 SCT012 OVC028 16/14 A3003 RMK AO2=
200810180008 SPECI KATL 180008Z 32006KT 9SM FEW006 SCT012 OVC028 16/14 A3003 RMK AO2=
200810172352 METAR KATL 172352Z 32011KT 8SM SCT007 BKN013 OVC030 16/14 A3003 RMK AO2 RAE19 SLP165 P0000 60039 T01610144 10189 20161 53008=
200810172315 SPECI KATL 172315Z 33011KT 7SM -RA SCT007 BKN013 OVC030 16/14 A3002 RMK AO2 PCPN VRY LGT P0000=
200810172315 SPECI KATL 172315Z 33011KT 7SM -RA SCT007 BKN013 OVC030 16/14 A3002 RMK AO2 PCPN VRY LGT P0000=
200810172252 METAR KATL 172252Z 33010KT 3SM -RA BR BKN007 OVC035 17/15 A3001 RMK AO2 SFC VIS 4 SLP156 CIG 005V010 P0002 T01670150=
200810172152 METAR KATL 172152Z 32007KT 3SM -RA SCT005 BKN009 OVC015 18/16 A3001 RMK AO2 SFC VIS 7 SLP157 PCPN VRY LGT P0011 T01780161=
200810172149 SPECI KATL 172149Z 31007KT 3SM -RA SCT005 BKN009 OVC015 18/17 A3001 RMK AO2 SFC VIS 7 P0011=
200810172149 SPECI KATL 172149Z 31007KT 3SM -RA SCT005 BKN009 OVC015 18/17 A3001 RMK AO2 SFC VIS 7 P0011=
200810172137 SPECI KATL 172137Z 31008KT 3SM -RA BR SCT005 BKN012 OVC020 18/17 A3000 RMK AO2 SFC VIS 6 P0011=
200810172137 SPECI KATL 172137Z 31008KT 3SM -RA BR SCT005 BKN012 OVC020 18/17 A3000 RMK AO2 SFC VIS 6 P0011=
200810172052 METAR KATL 172052Z 25008KT 2SM RA BR BKN007 OVC011 19/17 A3001 RMK AO2 SFC VIS 3 CIG 003V008 SLP156 P0010 60026 T01890172 55005=
200810172048 SPECI KATL 172048Z 24006KT 2SM RA BR OVC007 19/17 A3001 RMK AO2 SFC VIS 4 CIG 003V010 P0009=
200810172048 SPECI KATL 172048Z 24006KT 2SM RA BR OVC007 19/17 A3001 RMK AO2 SFC VIS 4 CIG 003V010 P0009=
200810172039 SPECI KATL 172039Z 23006KT 2SM -RA BR SCT005 BKN011 OVC040 18/17 A3000 RMK AO2 SFC VIS 3 P0008=
200810172039 SPECI KATL 172039Z 23006KT 2SM -RA BR SCT005 BKN011 OVC040 18/17 A3000 RMK AO2 SFC VIS 3 P0008=
200810172027 SPECI KATL 172027Z 23005KT 2SM RA BR BKN007 BKN011 OVC031 18/17 A3001 RMK AO2 SFC VIS 3 CIG 003V011 P0006=
200810172027 SPECI KATL 172027Z 23005KT 2SM RA BR BKN007 BKN011 OVC031 18/17 A3001 RMK AO2 SFC VIS 3 CIG 003V011 P0006=
200810171952 METAR KATL 171952Z 22007KT 3SM RA BR BKN007 BKN012 OVC018 18/17 A3001 RMK AO2 SLP158 P0009 T01830172=
200810171923 SPECI KATL 171923Z 23010KT 3SM -RA BR BKN007 OVC023 18/17 A3002 RMK AO2 SFC VIS 4 CIG 004V011 P0002=
200810171923 SPECI KATL 171923Z 23010KT 3SM -RA BR BKN007 OVC023 18/17 A3002 RMK AO2 SFC VIS 4 CIG 004V011 P0002=
200810171852 METAR KATL 171852Z 23009KT 3SM -RA BR SCT008 BKN029 OVC046 18/17 A3002 RMK AO2 SFC VIS 5 SLP161 P0007 T01830167=
200810171834 SPECI KATL 171834Z 23009KT 3SM -RA BR FEW008 BKN029 OVC048 18/17 A3003 RMK AO2 SFC VIS 5 P0006=
200810171834 SPECI KATL 171834Z 23009KT 3SM -RA BR FEW008 BKN029 OVC048 18/17 A3003 RMK AO2 SFC VIS 5 P0006=
200810171819 SPECI KATL 171819Z 23011KT 3SM -RA BR SCT008 BKN031 OVC048 19/17 A3004 RMK AO2 SFC VIS 5 P0005=
200810171819 SPECI KATL 171819Z 23011KT 3SM -RA BR SCT008 BKN031 OVC048 19/17 A3004 RMK AO2 SFC VIS 5 P0005=
200810171802 SPECI KATL 171802Z 22009KT 2 1/2SM -RA BR FEW008 BKN011 OVC038 19/17 A3005 RMK AO2 SFC VIS 3 P0003=
200810171802 SPECI KATL 171802Z 22009KT 2 1/2SM -RA BR FEW008 BKN011 OVC038 19/17 A3005 RMK AO2 SFC VIS 3 P0003=
200810171752 METAR KATL 171752Z 22008KT 2 1/2SM RA BR FEW008 SCT012 OVC035 19/17 A3005 RMK AO2 SFC VIS 3 SLP170 P0007 60038 T01890172 10200 20183 58010=
200810171734 SPECI KATL 171734Z 22008KT 2 1/2SM -RA BR FEW006 BKN033 OVC042 19/17 A3006 RMK AO2 SFC VIS 3 P0005=
200810171734 SPECI KATL 171734Z 22008KT 2 1/2SM -RA BR FEW006 BKN033 OVC042 19/17 A3006 RMK AO2 SFC VIS 3 P0005=
200810171722 SPECI KATL 171722Z 21006KT 2 1/2SM -RA BR SCT006 BKN019 OVC042 19/18 A3006 RMK AO2 SFC VIS 3 P0004=
200810171722 SPECI KATL 171722Z 21006KT 2 1/2SM -RA BR SCT006 BKN019 OVC042 19/18 A3006 RMK AO2 SFC VIS 3 P0004=
200810171652 METAR KATL 171652Z 23006KT 2 1/2SM -RA BR BKN006 BKN009 OVC035 19/18 A3008 RMK AO2 SFC VIS 3 SLP179 P0007 T01890178=
200810171640 SPECI KATL 171640Z 22006KT 2 1/2SM R09R/4500VP6000FT RA BR FEW004 BKN006 OVC035 19/18 A3008 RMK AO2 SFC VIS 3 P0005=
200810171640 SPECI KATL 171640Z 22006KT 2 1/2SM R09R/4500VP6000FT RA BR FEW004 BKN006 OVC035 19/18 A3008 RMK AO2 SFC VIS 3 P0005=
200810171617 SPECI KATL 171617Z 23006KT 2 1/2SM -RA BR BKN004 OVC009 19/17 A3008 RMK AO2 SFC VIS 3 CIG 003V007 P0003=
200810171617 SPECI KATL 171617Z 23006KT 2 1/2SM -RA BR BKN004 OVC009 19/17 A3008 RMK AO2 SFC VIS 3 CIG 003V007 P0003=
200810171557 SPECI KATL 171557Z 24006KT 2 1/2SM -RA BR BKN006 BKN012 OVC035 19/17 A3008 RMK AO2 SFC VIS 4 P0001=
200810171557 SPECI KATL 171557Z 24006KT 2 1/2SM -RA BR BKN006 BKN012 OVC035 19/17 A3008 RMK AO2 SFC VIS 4 P0001=
200810171555 SPECI KATL 171555Z 26007KT 1 1/2SM -RA BR BKN006 BKN012 OVC035 19/17 A3008 RMK AO2 SFC VIS 3 P0001=
200810171555 SPECI KATL 171555Z 26007KT 1 1/2SM -RA BR BKN006 BKN012 OVC035 19/17 A3008 RMK AO2 SFC VIS 3 P0001=
200810171552 METAR KATL 171552Z 27004KT 1 1/2SM -RA BR SCT004 SCT008 OVC035 19/17 A3008 RMK AO2 SFC VIS 3 SLP180 P0020 T01890172=
200810171550 SPECI KATL 171550Z 27005KT 1 1/2SM -RA BR SCT004 SCT012 OVC035 19/17 A3008 RMK AO2 SFC VIS 3 P0020=
200810171550 SPECI KATL 171550Z 27005KT 1 1/2SM -RA BR SCT004 SCT012 OVC035 19/17 A3008 RMK AO2 SFC VIS 3 P0020=
200810171510 SPECI KATL 171510Z 26004KT 1 1/2SM R09R/5500VP6000FT +RA BR SCT025 BKN030 OVC040 18/17 A3009 RMK AO2 SFC VIS 2 P0005=
200810171510 SPECI KATL 171510Z 26004KT 1 1/2SM R09R/5500VP6000FT +RA BR SCT025 BKN030 OVC040 18/17 A3009 RMK AO2 SFC VIS 2 P0005=
200810171507 SPECI KATL 171507Z 27005KT 2SM R09R/6000VP6000FT RA BR SCT025 BKN030 OVC040 19/17 A3009 RMK AO2 TWR VIS 2 1/2 P0004=
200810171507 SPECI KATL 171507Z 27005KT 2SM R09R/6000VP6000FT RA BR SCT025 BKN030 OVC040 19/17 A3009 RMK AO2 TWR VIS 2 1/2 P0004=
200810171505 SPECI KATL 171505Z 26004KT 1 3/4SM RA BR SCT023 BKN028 OVC038 19/17 A3009 RMK AO2 TWR VIS 2 1/2 P0002=
200810171505 SPECI KATL 171505Z 26004KT 1 3/4SM RA BR SCT023 BKN028 OVC038 19/17 A3009 RMK AO2 TWR VIS 2 1/2 P0002=
200810171459 SPECI KATL 171459Z 25005KT 2 1/2SM RA BR BKN027 OVC038 19/17 A3009 RMK AO2 P0001=
200810171459 SPECI KATL 171459Z 25005KT 2 1/2SM RA BR BKN027 OVC038 19/17 A3009 RMK AO2 P0001=
200810171452 METAR KATL 171452Z 24003KT 2 1/2SM -RA BR FEW020 SCT030 OVC040 19/17 A3009 RMK AO2 SFC VIS 3 SLP183 P0004 60004 T01890167 51004=
200810171442 SPECI KATL 171442Z 25005KT 2 1/2SM -RA BR BKN029 BKN040 OVC060 19/17 A3009 RMK AO2 SFC VIS 4 P0002=
200810171442 SPECI KATL 171442Z 25005KT 2 1/2SM -RA BR BKN029 BKN040 OVC060 19/17 A3009 RMK AO2 SFC VIS 4 P0002=
200810171354 SPECI KATL 171354Z 30006KT 3SM -RA BR FEW023 BKN043 OVC060 19/17 A3009 RMK AO2 SFC VIS 5 P0000=
200810171354 SPECI KATL 171354Z 30006KT 3SM -RA BR FEW023 BKN043 OVC060 19/17 A3009 RMK AO2 SFC VIS 5 P0000=
200810171352 METAR KATL 171352Z 31006KT 2SM -RA BR SCT023 BKN043 OVC060 19/17 A3009 RMK AO2 SFC VIS 4 RAB44 SLP182 P0000 T01940167=
200810171349 SPECI KATL 171349Z 32006KT 2SM -RA SCT023 BKN039 OVC060 19/17 A3009 RMK AO2 SFC VIS 4 RAB44 P0000=
200810171349 SPECI KATL 171349Z 32006KT 2SM -RA SCT023 BKN039 OVC060 19/17 A3009 RMK AO2 SFC VIS 4 RAB44 P0000=
200810171346 SPECI KATL 171346Z 29007KT 3SM -RA SCT023 BKN039 OVC060 19/17 A3009 RMK AO2 SFC VIS 5 RAB44 P0000=
200810171346 SPECI KATL 171346Z 29007KT 3SM -RA SCT023 BKN039 OVC060 19/17 A3009 RMK AO2 SFC VIS 5 RAB44 P0000=
200810171252 METAR KATL 171252Z 29004KT 8SM BKN060 OVC075 20/16 A3007 RMK AO2 SLP177 T02000161=
200810171152 METAR KATL 171152Z 00000KT 10SM FEW060 BKN075 OVC110 20/17 A3007 RMK AO2 SLP176 T02000167 10206 20194 51004=
200810171052 METAR KATL 171052Z 00000KT 10SM BKN075 OVC090 20/16 A3007 RMK AO2 SLP174 T02000161=
200810170952 METAR KATL 170952Z 00000KT 10SM SCT060 OVC100 19/17 A3007 RMK AO2 SLP172 T01940167=
200810170852 METAR KATL 170852Z 29003KT 10SM OVC110 19/17 A3006 RMK AO2 SLP170 T01940167 58012=
200810170752 METAR KATL 170752Z 29004KT 10SM SCT150 BKN200 19/17 A3007 RMK AO2 SLP174 T01940167=
200810170652 METAR KATL 170652Z 28003KT 10SM BKN120 OVC200 20/16 A3009 RMK AO2 SLP179 T02000161=
200810170552 METAR KATL 170552Z 00000KT 10SM BKN120 OVC200 20/16 A3010 RMK AO2 SLP182 T02000161 10233 20200 58010=
200810170452 METAR KATL 170452Z 30003KT 10SM BKN150 BKN200 21/16 A3011 RMK AO2 SLP188 T02060161 402830156=
200810170352 METAR KATL 170352Z 28003KT 10SM BKN150 OVC200 21/16 A3012 RMK AO2 SLP192 T02110161=
200810170252 METAR KATL 170252Z 00000KT 10SM BKN150 BKN200 21/16 A3012 RMK AO2 SLP193 T02110161 53006=
200810170152 METAR KATL 170152Z 30004KT 10SM SCT150 BKN200 22/16 A3012 RMK AO2 SLP192 T02170161=
200810170052 METAR KATL 170052Z 32007KT 10SM FEW150 SCT200 22/16 A3011 RMK AO2 SLP190 T02220156=
200810162352 METAR KATL 162352Z 31005KT 10SM FEW050 SCT150 SCT250 23/14 A3010 RMK AO2 SLP188 T02330144 10283 20233 53003=
200810162252 METAR KATL 162252Z 27005KT 10SM SCT050 BKN150 BKN250 25/14 A3010 RMK AO2 SLP187 T02500144=
200810162152 METAR KATL 162152Z 27009KT 10SM FEW055 SCT150 BKN250 27/14 A3009 RMK AO2 SLP183 T02670139=
200810162052 METAR KATL 162052Z 28007KT 10SM FEW055 SCT150 SCT250 27/13 A3010 RMK AO2 SLP183 T02720133 56013=
200810161952 METAR KATL 161952Z 27007KT 10SM SCT050 SCT150 27/14 A3010 RMK AO2 SLP185 T02720144=
200810161852 METAR KATL 161852Z 27010KT 10SM FEW047 SCT150 27/15 A3011 RMK AO2 SLP190 T02720150=
200810161752 METAR KATL 161752Z 26008KT 10SM SCT045 SCT150 27/14 A3014 RMK AO2 SLP196 T02720144 10272 20161 58016=
200810161652 METAR KATL 161652Z 28007KT 10SM FEW045 SCT150 SCT250 26/16 A3016 RMK AO2 SLP205 T02610156=
200810161552 METAR KATL 161552Z 26007KT 10SM FEW040 SCT150 SCT250 25/15 A3018 RMK AO2 SLP212 T02500150=
200810161452 METAR KATL 161452Z 29009KT 10SM FEW150 SCT250 23/14 A3019 RMK AO2 SLP214 T02330144 51008=
200810161352 METAR KATL 161352Z COR 29007KT 10SM FEW150 SCT250 22/14 A3018 RMK AO2 SLP214 T02170144=
200810161252 METAR KATL 161252Z 28003KT 10SM FEW250 18/14 A3018 RMK AO2 SLP213 T01830144=
200810161152 METAR KATL 161152Z 00000KT 10SM FEW150 SCT250 16/13 A3016 RMK AO2 SLP207 T01610128 10189 20156 52002=
200810161052 METAR KATL 161052Z 30004KT 10SM SCT150 16/12 A3016 RMK AO2 SLP206 T01610122=
200810160952 METAR KATL 160952Z 30003KT 10SM SCT150 16/13 A3015 RMK AO2 SLP204 T01610128=
200810160852 METAR KATL 160852Z 31005KT 10SM SCT150 17/13 A3015 RMK AO2 SLP203 T01670128 56005=
200810160752 METAR KATL 160752Z 30004KT 10SM SCT150 18/13 A3016 RMK AO2 SLP204 T01780128=
200810160652 METAR KATL 160652Z 28003KT 10SM SCT150 17/13 A3016 RMK AO2 SLP206 T01720128=
200810160552 METAR KATL 160552Z 31004KT 10SM FEW150 19/13 A3017 RMK AO2 SLP208 T01940128 10233 20183 51001=
200810160452 METAR KATL 160452Z 00000KT 10SM FEW250 19/13 A3017 RMK AO2 SLP208 T01890133 402720150=
200810160352 METAR KATL 160352Z 00000KT 10SM FEW250 19/13 A3018 RMK AO2 SLP211 T01940133=
200810160252 METAR KATL 160252Z 24003KT 10SM FEW250 21/13 A3017 RMK AO2 SLP209 T02060133 53005=
200810160152 METAR KATL 160152Z 26003KT 10SM FEW250 21/13 A3016 RMK AO2 SLP207 T02110133=
200810160052 METAR KATL 160052Z 00000KT 10SM FEW250 22/14 A3016 RMK AO2 SLP206 T02220139=
200810152352 METAR KATL 152352Z 00000KT 10SM FEW250 23/13 A3015 RMK AO2 SLP204 T02330133 10272 20233 53002=
200810152252 METAR KATL 152252Z 20004KT 10SM FEW250 26/12 A3014 RMK AO2 SLP201 T02560122=
200810152152 METAR KATL 152152Z 21003KT 10SM CLR 27/11 A3014 RMK AO2 SLP199 T02670106=
200810152052 METAR KATL 152052Z 20006KT 10SM CLR 27/11 A3015 RMK AO2 SLP202 T02720111 56019=
200810151952 METAR KATL 151952Z 23007KT 10SM CLR 27/11 A3016 RMK AO2 SLP207 T02720111=
200810151852 METAR KATL 151852Z 26005KT 10SM CLR 27/12 A3017 RMK AO2 SLP210 T02720122=
200810151752 METAR KATL 151752Z COR VRB04KT 10SM FEW055 26/13 A3020 RMK AO2 SLP221 T02560128 10261 20161 58018=
200810151652 METAR KATL 151652Z VRB04KT 10SM FEW045 25/13 A3023 RMK AO2 SLP228 T02500133=
200810151552 METAR KATL 151552Z 20005KT 10SM CLR 23/14 A3024 RMK AO2 SLP235 T02330139=
200810151452 METAR KATL 151452Z 00000KT 10SM CLR 22/14 A3026 RMK AO2 SLP240 T02220139 51011=
200810151352 METAR KATL 151352Z 00000KT 10SM CLR 20/13 A3025 RMK AO2 SLP239 T02000133=
200810151252 METAR KATL 151252Z 00000KT 10SM CLR 18/14 A3024 RMK AO2 SLP235 T01830139=
200810151152 METAR KATL 151152Z 09003KT 10SM CLR 16/12 A3023 RMK AO2 SLP230 T01610122 10178 20150 51007=
200810151052 METAR KATL 151052Z 00000KT 10SM CLR 15/12 A3022 RMK AO2 SLP228 T01500122=
200810150952 METAR KATL 150952Z 00000KT 10SM CLR 15/12 A3021 RMK AO2 SLP226 T01500122=
200810150852 METAR KATL 150852Z 00000KT 10SM CLR 16/13 A3021 RMK AO2 SLP222 T01560128 56005=
200810150752 METAR KATL 150752Z 00000KT 10SM FEW250 16/13 A3020 RMK AO2 SLP221 T01610128=
200810150652 METAR KATL 150652Z 34003KT 10SM CLR 16/13 A3022 RMK AO2 SLP225 T01610128=
200810150552 METAR KATL 150552Z 00000KT 10SM CLR 18/14 A3022 RMK AO2 SLP227 T01780139 10228 20178 56004=
200810150452 METAR KATL 150452Z 00000KT 10SM CLR 19/13 A3022 RMK AO2 SLP227 T01890133 402670161=
200810150352 METAR KATL 150352Z 00000KT 10SM CLR 20/13 A3023 RMK AO2 SLP229 T02000133=
200810150252 METAR KATL 150252Z 00000KT 10SM CLR 19/13 A3023 RMK AO2 SLP231 T01940133 53008=
200810150152 METAR KATL 150152Z 00000KT 10SM CLR 21/13 A3022 RMK AO2 SLP229 T02110133=
200810150052 METAR KATL 150052Z 13003KT 10SM CLR 21/14 A3021 RMK AO2 SLP225 T02110139=
200810142352 METAR KATL 142352Z 14003KT 10SM FEW250 23/13 A3021 RMK AO2 SLP223 T02280133 10267 20228 53001=
200810142252 METAR KATL 142252Z 14004KT 10SM FEW250 24/12 A3020 RMK AO2 SLP219 T02440122=
200810142152 METAR KATL 142152Z 15005KT 10SM FEW250 26/12 A3020 RMK AO2 SLP219 T02560122=
200810142052 METAR KATL 142052Z 17007KT 10SM FEW250 26/12 A3020 RMK AO2 SLP221 T02560122 56023=
200810141952 METAR KATL 141952Z 16005KT 10SM FEW250 26/13 A3022 RMK AO2 SLP226 T02560128=
200810141852 METAR KATL 141852Z 11004KT 10SM FEW050 26/13 A3024 RMK AO2 SLP232 T02560128=
200810141752 METAR KATL 141752Z 09005KT 10SM FEW040 25/14 A3028 RMK AO2 SLP245 T02500139 10250 20167 58021=
200810141652 METAR KATL 141652Z 09006KT 10SM FEW030 24/14 A3030 RMK AO2 SLP256 T02390139=
200810141552 METAR KATL 141552Z 08008KT 10SM FEW030 SCT250 22/14 A3032 RMK AO2 SLP263 T02220144=
200810141452 METAR KATL 141452Z 10006KT 10SM FEW025 SCT250 22/15 A3034 RMK AO2 SLP268 T02170150 51009=
200810141352 METAR KATL 141352Z 07009KT 10SM FEW025 SCT250 19/14 A3034 RMK AO2 SLP268 T01940144=
200810141339 SPECI KATL 141339Z 06008KT 10SM SCT029 SCT250 19/14 A3034 RMK AO2=
200810141339 SPECI KATL 141339Z 06008KT 10SM SCT029 SCT250 19/14 A3034 RMK AO2=
200810141304 SPECI KATL 141304Z 05006KT 10SM BKN029 BKN250 18/14 A3034 RMK AO2=
200810141304 SPECI KATL 141304Z 05006KT 10SM BKN029 BKN250 18/14 A3034 RMK AO2=
200810141252 METAR KATL 141252Z 05005KT 10SM BKN031 BKN250 18/13 A3033 RMK AO2 SLP266 T01830133=
200810141152 METAR KATL 141152Z 05006KT 10SM SCT031 BKN250 17/13 A3031 RMK AO2 SLP259 T01670133 10172 20161 53006=
200810141052 METAR KATL 141052Z 07007KT 10SM BKN031 17/13 A3030 RMK AO2 SLP256 T01670133=
200810140952 METAR KATL 140952Z 07007KT 10SM SCT033 16/13 A3030 RMK AO2 SLP253 T01610133=
200810140852 METAR KATL 140852Z 05006KT 10SM BKN031 17/13 A3029 RMK AO2 SLP251 T01670133 55010=
200810140752 METAR KATL 140752Z 09006KT 10SM CLR 17/13 A3029 RMK AO2 SLP252 T01670133=
200810140652 METAR KATL 140652Z 09004KT 10SM FEW250 17/13 A3031 RMK AO2 SLP258 T01670133=
200810140552 METAR KATL 140552Z 08005KT 10SM FEW250 17/13 A3032 RMK AO2 SLP262 T01720133 10217 20172 58003=
200810140452 METAR KATL 140452Z 09004KT 10SM FEW250 17/14 A3033 RMK AO2 SLP265 T01720139 402500172=
200810140352 METAR KATL 140352Z 08007KT 10SM FEW250 18/14 A3033 RMK AO2 SLP267 T01780139=
200810140252 METAR KATL 140252Z 08007KT 10SM FEW250 19/14 A3033 RMK AO2 SLP266 T01890144 51010=
200810140152 METAR KATL 140152Z 08008KT 10SM FEW250 20/15 A3033 RMK AO2 SLP264 T02000150=
200810140052 METAR KATL 140052Z 09008KT 10SM FEW035 21/15 A3032 RMK AO2 SLP261 T02110150=
200810132352 METAR KATL 132352Z 09007KT 10SM FEW055 21/15 A3030 RMK AO2 SLP255 T02110150 10250 20211 53000=
200810132252 METAR KATL 132252Z 10007KT 10SM FEW035 SCT250 23/15 A3029 RMK AO2 SLP250 T02280150=
200810132152 METAR KATL 132152Z 10012KT 10SM SCT036 24/15 A3029 RMK AO2 SLP250 T02440150=
200810132052 METAR KATL 132052Z 10010G15KT 10SM FEW035 SCT055 25/15 A3030 RMK AO2 SLP252 T02500150 56019=
200810131952 METAR KATL 131952Z 06011KT 10SM FEW035 SCT045 BKN055 24/15 A3032 RMK AO2 SLP260 T02390150=
200810131852 METAR KATL 131852Z 08013KT 10SM FEW028 SCT045 BKN055 23/15 A3033 RMK AO2 SLP264 T02280150=
200810131752 METAR KATL 131752Z 07013KT 10SM FEW025 BKN045 OVC055 22/15 A3036 RMK AO2 SLP273 T02220150 10228 20183 58014=
200810131652 METAR KATL 131652Z 07016KT 10SM FEW026 BKN044 23/15 A3038 RMK AO2 SLP280 T02280150=
200810131614 SPECI KATL 131614Z 07013KT 10SM SCT022 BKN040 OVC050 22/16 A3039 RMK AO2=
200810131614 SPECI KATL 131614Z 07013KT 10SM SCT022 BKN040 OVC050 22/16 A3039 RMK AO2=
200810131552 METAR KATL 131552Z 08015KT 10SM BKN022 OVC050 21/15 A3040 RMK AO2 SLP287 T02110150=
200810131452 METAR KATL 131452Z 08015G18KT 10SM BKN020 BKN050 21/14 A3040 RMK AO2 SLP288 T02060144 53010=
200810131352 METAR KATL 131352Z 10012G20KT 10SM FEW008 SCT020 BKN050 19/14 A3038 RMK AO2 SLP283 T01940144=
200810131342 SPECI KATL 131342Z 08015KT 10SM FEW008 BKN019 BKN048 19/14 A3038 RMK AO2=
200810131342 SPECI KATL 131342Z 08015KT 10SM FEW008 BKN019 BKN048 19/14 A3038 RMK AO2=
200810131341 SPECI KATL 131341Z 09014KT 10SM FEW008 SCT019 BKN048 19/14 A3038 RMK AO2=
200810131341 SPECI KATL 131341Z 09014KT 10SM FEW008 SCT019 BKN048 19/14 A3038 RMK AO2=
200810131252 METAR KATL 131252Z 09018G23KT 10SM FEW020 BKN050 BKN100 19/14 A3038 RMK AO2 SLP281 T01890144=
200810131231 SPECI KATL 131231Z 09013KT 10SM SCT022 SCT038 BKN050 18/14 A3037 RMK AO2=
200810131231 SPECI KATL 131231Z 09013KT 10SM SCT022 SCT038 BKN050 18/14 A3037 RMK AO2=
200810131152 METAR KATL 131152Z 08013KT 10SM BKN022 BKN030 18/15 A3037 RMK AO2 RAE11 SLP278 P0000 60001 70001 T01830150 10211 20178 52014=
200810131052 METAR KATL 131052Z 07013KT 8SM -RA OVC016 18/15 A3036 RMK AO2 SLP274 P0001 T01780150=
200810130952 METAR KATL 130952Z 06014KT 9SM -RA BKN016 OVC020 19/16 A3034 RMK AO2 RAE19B42 SLP267 P0000 T01890156=
200810130852 METAR KATL 130852Z 10015G20KT 10SM -RA OVC020 21/16 A3033 RMK AO2 RAB52 SLP261 P0000 60000 T02060156 51001=
200810130752 METAR KATL 130752Z 09013G22KT 9SM BKN020 OVC025 20/16 A3032 RMK AO2 SLP260 T02000156=
200810130652 METAR KATL 130652Z 09011KT 8SM OVC020 21/16 A3033 RMK AO2 SLP263 T02060156=
200810130552 METAR KATL 130552Z 10016KT 10SM BKN022 OVC270 21/16 A3032 RMK AO2 SLP260 60000 T02110156 10222 20211 58000=
200810130452 METAR KATL 130452Z 10014G19KT 10SM OVC022 21/16 A3032 RMK AO2 SLP261 T02110156 402500167=
200810130352 METAR KATL 130352Z 08014G20KT 10SM OVC022 21/16 A3033 RMK AO2 PK WND 09026/0316 SLP265 T02110156=
200810130252 METAR KATL 130252Z 09018G24KT 10SM BKN024 OVC035 21/15 A3032 RMK AO2 PK WND 11029/0239 SLP262 60000 T02110150 51012=
200810130230 SPECI KATL 130230Z 08020G28KT 10SM BKN026 OVC036 21/15 A3032 RMK AO2 PK WND 09028/0221 BINOVC=
200810130230 SPECI KATL 130230Z 08020G28KT 10SM BKN026 OVC036 21/15 A3032 RMK AO2 PK WND 09028/0221 BINOVC=
200810130152 METAR KATL 130152Z 10013G22KT 10SM BKN030 OVC085 21/14 A3031 RMK AO2 RAE0055 SLP258 BINOVC P0000 T02110144=
200810130052 METAR KATL 130052Z 10016G23KT 10SM -RA OVC030 22/14 A3031 RMK AO2 PK WND 07027/2355 RAB44 SLP257 P0000 T02170139=
200810122352 METAR KATL 122352Z 08015KT 10SM FEW031 BKN037 OVC046 22/14 A3029 RMK AO2 RAB45E52 SLP250 P0000 60000 T02220144 10250 20222 52011=
200810122252 METAR KATL 122252Z 08018G23KT 10SM BKN037 OVC055 23/15 A3027 RMK AO2 SLP246 T02280150=
200810122152 METAR KATL 122152Z 09016G22KT 10SM BKN038 OVC047 23/15 A3026 RMK AO2 PK WND 08027/2123 SLP242 T02330150=
200810122052 METAR KATL 122052Z 07019G24KT 10SM SCT040 SCT070 BKN150 24/15 A3025 RMK AO2 PK WND 10028/2014 SLP237 T02440150 56009=
200810121952 METAR KATL 121952Z 09015G22KT 10SM SCT039 BKN050 BKN085 24/15 A3026 RMK AO2 PK WND 07028/1941 SLP240 T02390150=
200810121852 METAR KATL 121852Z 07016G22KT 10SM BKN033 BKN075 BKN150 23/14 A3027 RMK AO2 SLP244 T02330144=
200810121752 METAR KATL 121752Z 08014KT 10SM SCT031 BKN070 BKN150 23/14 A3028 RMK AO2 SLP248 T02330139 10233 20178 58005=
200810121652 METAR KATL 121652Z 07017KT 10SM BKN025 21/13 A3031 RMK AO2 SLP257 T02110133=
200810121552 METAR KATL 121552Z 07014KT 10SM OVC019 19/13 A3031 RMK AO2 PK WND 08028/1458 SLP258 T01890133=
200810121452 METAR KATL 121452Z 08023G29KT 10SM BKN021 OVC032 19/13 A3030 RMK AO2 PK WND 08029/1452 SLP253 T01940133 53014=
200810121352 METAR KATL 121352Z 08019G25KT 10SM SCT020 BKN027 BKN040 18/13 A3028 RMK AO2 PK WND 07029/1310 SLP247 T01830128=
200810121252 METAR KATL 121252Z 08017G26KT 10SM BKN020 BKN028 OVC035 18/13 A3027 RMK AO2 PK WND 07028/1239 SLP243 BINOVC OHD T01830128=
200810121152 METAR KATL 121152Z 07021G27KT 10SM FEW012 OVC024 18/13 A3025 RMK AO2 PK WND 07027/1152 SLP239 60000 T01780128 10189 20167 51012=
200810121052 METAR KATL 121052Z 07013G22KT 10SM FEW012 OVC020 17/12 A3025 RMK AO2 SLP238 T01720122=
200810120952 METAR KATL 120952Z 06015G22KT 10SM FEW011 BKN017 OVC024 17/13 A3023 RMK AO2 PK WND 07028/0908 SLP232 T01720128=
200810120919 SPECI KATL 120919Z 07018G27KT 10SM SCT010 BKN015 OVC024 17/13 A3022 RMK AO2 PK WND 07028/0908=
200810120919 SPECI KATL 120919Z 07018G27KT 10SM SCT010 BKN015 OVC024 17/13 A3022 RMK AO2 PK WND 07028/0908=
200810120852 METAR KATL 120852Z 07022G29KT 10SM BKN010 OVC024 17/14 A3022 RMK AO2 PK WND 08031/0823 SLP227 60000 T01720139 55007=
200810120752 METAR KATL 120752Z 07021G27KT 10SM BKN010 OVC024 17/14 A3021 RMK AO2 PK WND 07029/0736 RAE01 SLP223 P0000 T01720144=
200810120652 METAR KATL 120652Z 07016G24KT 8SM -RA BKN010 BKN024 OVC049 17/14 A3023 RMK AO2 RAB0559 SLP230 P0000 T01670144=
200810120641 SPECI KATL 120641Z 07017KT 8SM -RA BKN012 BKN024 OVC049 17/14 A3023 RMK AO2 RAB0559 P0000=
200810120641 SPECI KATL 120641Z 07017KT 8SM -RA BKN012 BKN024 OVC049 17/14 A3023 RMK AO2 RAB0559 P0000=
200810120552 METAR KATL 120552Z 07016G24KT 10SM FEW019 BKN024 OVC049 18/14 A3024 RMK AO2 PK WND 08029/0538 SLP233 60000 T01780139 10222 20178 58002=
200810120452 METAR KATL 120452Z 06014G25KT 10SM BKN019 OVC055 18/14 A3025 RMK AO2 SLP237 T01830139 402560183=
200810120440 SPECI KATL 120440Z 06016G23KT 10SM BKN019 BKN036 OVC055 19/14 A3025 RMK AO2=
200810120440 SPECI KATL 120440Z 06016G23KT 10SM BKN019 BKN036 OVC055 19/14 A3025 RMK AO2=
200810120352 METAR KATL 120352Z 07017KT 10SM SCT032 BKN060 BKN075 21/13 A3025 RMK AO2 PK WND 07028/0322 SLP236 T02060128=
200810120252 METAR KATL 120252Z COR 07019G24KT 10SM FEW032 SCT041 OVC050 21/13 A3024 RMK AO2 PK WND 07027/0225 SLP235 60000 T02110128 51014=
200810120152 METAR KATL 120152Z 07017G24KT 10SM FEW026 SCT035 OVC050 21/14 A3024 RMK AO2 DZB20E31 SLP234 P0000 T02110139=
200810120132 SPECI KATL 120132Z 08015KT 10SM FEW024 BKN035 OVC050 21/14 A3024 RMK AO2 DZB20E31 P0000=
200810120132 SPECI KATL 120132Z 08015KT 10SM FEW024 BKN035 OVC050 21/14 A3024 RMK AO2 DZB20E31 P0000=
200810120120 SPECI KATL 120120Z 06020G25KT 9SM -DZ BKN029 OVC036 22/14 A3023 RMK AO2 DZB20 P0000=
200810120120 SPECI KATL 120120Z 06020G25KT 9SM -DZ BKN029 OVC036 22/14 A3023 RMK AO2 DZB20 P0000=
200810120052 METAR KATL 120052Z 07013KT 10SM OVC032 22/14 A3022 RMK AO2 SLP228 T02220144=
200810112352 METAR KATL 112352Z 08015G20KT 10SM OVC032 22/14 A3020 RMK AO2 SLP220 T02220144 10250 20222 53003=
200810112252 METAR KATL 112252Z 07017KT 10SM SCT036 OVC055 23/14 A3019 RMK AO2 PK WND 06028/2153 SLP216 SHRA E-SE T02280144=
200810112152 METAR KATL 112152Z 06019G27KT 10SM BKN037 BKN050 23/14 A3019 RMK AO2 PK WND 04027/2143 SLP217 T02330144=
200810112052 METAR KATL 112052Z 07017G22KT 10SM BKN033 24/15 A3019 RMK AO2 PK WND 08028/2027 SLP216 T02390150 58006=
200810111952 METAR KATL 111952Z 07014G23KT 10SM BKN030 BKN040 23/15 A3020 RMK AO2 SLP220 T02330150=
200810111852 METAR KATL 111852Z 06017G23KT 10SM BKN033 BKN045 24/16 A3020 RMK AO2 PK WND 06028/1806 SLP220 T02440156=
200810111752 METAR KATL 111752Z 06016KT 10SM SCT029 BKN036 24/16 A3021 RMK AO2 SLP222 SCT029V BKN T02440156 10256 20189 58008=
200810111748 SPECI KATL 111748Z 04013G23KT 10SM SCT029 BKN036 26/16 A3021 RMK AO2 SCT029V BKN=
200810111748 SPECI KATL 111748Z 04013G23KT 10SM SCT029 BKN036 26/16 A3021 RMK AO2 SCT029V BKN=
200810111740 SPECI KATL 111740Z 08016G23KT 10SM SCT029 BKN036 26/16 A3021 RMK AO2 SCT029V BKN=
200810111740 SPECI KATL 111740Z 08016G23KT 10SM SCT029 BKN036 26/16 A3021 RMK AO2 SCT029V BKN=
200810111652 METAR KATL 111652Z 08016KT 10SM BKN028 24/16 A3023 RMK AO2 PK WND 07026/1615 SLP229 T02390161=
200810111552 METAR KATL 111552Z 09020G23KT 10SM BKN020 BKN026 22/16 A3024 RMK AO2 PK WND 08026/1512 SLP233 T02220156=
200810111452 METAR KATL 111452Z 07017G25KT 10SM OVC018 21/16 A3023 RMK AO2 PK WND 08028/1433 SLP231 T02060156 51012=
200810111425 SPECI KATL 111425Z 07013G22KT 10SM OVC016 21/16 A3023 RMK AO2 BINOVC OHD=
200810111425 SPECI KATL 111425Z 07013G22KT 10SM OVC016 21/16 A3023 RMK AO2 BINOVC OHD=
200810111352 METAR KATL 111352Z 08013G21KT 10SM OVC014 19/16 A3022 RMK AO2 SLP227 T01940156=
200810111252 METAR KATL 111252Z 07017G22KT 10SM OVC012 19/16 A3021 RMK AO2 SLP224 T01890161=
200810111152 METAR KATL 111152Z 07016KT 10SM OVC013 19/16 A3020 RMK AO2 SLP219 T01940161 10200 20194 53016=
200810111106 SPECI KATL 111106Z 06014G19KT 10SM OVC014 19/16 A3018 RMK AO2=
200810111106 SPECI KATL 111106Z 06014G19KT 10SM OVC014 19/16 A3018 RMK AO2=
200810111052 METAR KATL 111052Z 06014KT 10SM OVC016 19/16 A3018 RMK AO2 SLP211 T01940161=
200810110952 METAR KATL 110952Z 07016KT 10SM BKN016 20/16 A3016 RMK AO2 SLP205 T02000161=
200810110852 METAR KATL 110852Z 07015KT 10SM BKN018 20/16 A3015 RMK AO2 SLP201 T02000161 55005=
200810110752 METAR KATL 110752Z 07011KT 10SM FEW014 BKN020 20/17 A3015 RMK AO2 SLP200 T02000167=
200810110727 SPECI KATL 110727Z 08010KT 10SM SCT014 BKN020 20/17 A3015 RMK AO2=
200810110727 SPECI KATL 110727Z 08010KT 10SM SCT014 BKN020 20/17 A3015 RMK AO2=
200810110657 SPECI KATL 110657Z 07011KT 10SM BKN013 BKN019 19/17 A3015 RMK AO2=
200810110657 SPECI KATL 110657Z 07011KT 10SM BKN013 BKN019 19/17 A3015 RMK AO2=
200810110652 METAR KATL 110652Z 07012KT 10SM BKN015 19/17 A3015 RMK AO2 SLP204 T01940167=
200810110648 SPECI KATL 110648Z 07010KT 10SM BKN015 19/17 A3016 RMK AO2=
200810110648 SPECI KATL 110648Z 07010KT 10SM BKN015 19/17 A3016 RMK AO2=
200810110552 METAR KATL 110552Z 07010KT 10SM BKN022 19/17 A3016 RMK AO2 SLP208 T01940167 10233 20194 51004=
200810110537 SPECI KATL 110537Z 08009KT 10SM BKN021 20/16 A3016 RMK AO2=
200810110537 SPECI KATL 110537Z 08009KT 10SM BKN021 20/16 A3016 RMK AO2=
200810110452 METAR KATL 110452Z 08011KT 10SM CLR 19/16 A3016 RMK AO2 SLP206 T01940161 402500178=
200810110352 METAR KATL 110352Z 08011KT 10SM FEW045 20/16 A3016 RMK AO2 SLP206 T02000156=
200810110252 METAR KATL 110252Z 08011KT 10SM FEW045 21/16 A3015 RMK AO2 SLP203 T02110156 53016=
200810110152 METAR KATL 110152Z 07011KT 10SM SCT045 22/17 A3014 RMK AO2 SLP198 T02220167=
200810110052 METAR KATL 110052Z 06008KT 10SM SCT035 23/17 A3011 RMK AO2 SLP191 T02280172=
200810102352 METAR KATL 102352Z 05010KT 10SM SCT035 23/17 A3010 RMK AO2 SLP187 T02330167 10250 20217 53006=
200810102252 METAR KATL 102252Z 05009KT 10SM FEW030 24/17 A3009 RMK AO2 SLP181 T02440167=
200810102152 METAR KATL 102152Z 06008KT 10SM FEW030 24/17 A3008 RMK AO2 SLP179 T02440167=
200810102052 METAR KATL 102052Z 07010KT 10SM FEW028 SCT035 25/16 A3008 RMK AO2 SLP180 T02500161 55007=
200810101952 METAR KATL 101952Z 05012KT 10SM SCT027 SCT034 24/17 A3008 RMK AO2 SLP179 T02390167=
200810101852 METAR KATL 101852Z 07010KT 10SM SCT020 BKN030 23/17 A3009 RMK AO2 SLP183 T02280167=
200810101812 SPECI KATL 101812Z 09011KT 10SM FEW015 SCT019 BKN030 23/17 A3010 RMK AO2=
200810101812 SPECI KATL 101812Z 09011KT 10SM FEW015 SCT019 BKN030 23/17 A3010 RMK AO2=
200810101752 METAR KATL 101752Z 09009KT 10SM OVC019 22/17 A3010 RMK AO2 SLP188 60000 T02170167 10228 20189 50000=
200810101652 METAR KATL 101652Z 08010KT 10SM OVC021 22/16 A3011 RMK AO2 SLP191 T02170161=
200810101552 METAR KATL 101552Z 07010KT 10SM BKN018 BKN024 22/16 A3011 RMK AO2 SLP190 T02170161=
200810101452 METAR KATL 101452Z 07011KT 10SM FEW012 BKN016 BKN020 21/16 A3010 RMK AO2 SLP187 60000 T02110161 51014=
200810101438 SPECI KATL 101438Z 07014KT 10SM FEW012 BKN016 BKN020 21/16 A3011 RMK AO2=
200810101438 SPECI KATL 101438Z 07014KT 10SM FEW012 BKN016 BKN020 21/16 A3011 RMK AO2=
200810101352 METAR KATL 101352Z 06010KT 8SM FEW009 BKN012 BKN020 20/17 A3010 RMK AO2 DZB13E43 SLP186 P0000 T02000167=
200810101345 SPECI KATL 101345Z 07010KT 8SM FEW009 BKN012 BKN020 19/17 A3010 RMK AO2 DZB13E43 P0000=
200810101345 SPECI KATL 101345Z 07010KT 8SM FEW009 BKN012 BKN020 19/17 A3010 RMK AO2 DZB13E43 P0000=
200810101314 SPECI KATL 101314Z 09010KT 3SM -DZ BR OVC007 19/17 A3010 RMK AO2 SFC VIS 5 DZB13 CIG 006V012 P0000=
200810101314 SPECI KATL 101314Z 09010KT 3SM -DZ BR OVC007 19/17 A3010 RMK AO2 SFC VIS 5 DZB13 CIG 006V012 P0000=
200810101252 METAR KATL 101252Z 08012KT 3SM BR BKN007 OVC011 19/17 A3009 RMK AO2 SFC VIS 6 SLP182 T01890167=
200810101152 METAR KATL 101152Z COR 09010KT 6SM BR OVC007 19/17 A3006 RMK AO2 SLP174 T01890167 10189 20178 53016=
200810101052 METAR KATL 101052Z 09011KT 6SM BR OVC007 19/17 A3005 RMK AO2 SLP167 T01890167=
200810100952 METAR KATL 100952Z 06008KT 6SM BR OVC009 18/16 A3003 RMK AO2 CIG 007V011 SLP161 T01830161=
200810100852 METAR KATL 100852Z 08008KT 6SM BR SCT014 BKN029 OVC038 18/16 A3002 RMK AO2 SLP158 T01830161 50001=
200810100752 METAR KATL 100752Z 04007KT 6SM BR BKN022 18/16 A3002 RMK AO2 SLP158 T01830161=
200810100734 SPECI KATL 100734Z 05007KT 6SM BR BKN020 18/16 A3002 RMK AO2=
200810100734 SPECI KATL 100734Z 05007KT 6SM BR BKN020 18/16 A3002 RMK AO2=
200810100652 METAR KATL 100652Z 05007KT 9SM SCT014 18/16 A3002 RMK AO2 SLP158 T01830161=
200810100552 METAR KATL 100552Z 07009KT 10SM BKN014 19/16 A3001 RMK AO2 SLP157 T01890161 10222 20189 58003=
200810100452 METAR KATL 100452Z 04009KT 10SM OVC014 19/17 A3002 RMK AO2 SLP160 T01940167 402390172=
200810100450 SPECI KATL 100450Z 03007KT 10SM OVC014 19/17 A3002 RMK AO2 402390172=
200810100450 SPECI KATL 100450Z 03007KT 10SM OVC014 19/17 A3002 RMK AO2 402390172=
200810100424 SPECI KATL 100424Z 03008KT 10SM BKN018 BKN250 19/17 A3002 RMK AO2=
200810100424 SPECI KATL 100424Z 03008KT 10SM BKN018 BKN250 19/17 A3002 RMK AO2=
200810100352 METAR KATL 100352Z 06008KT 10SM FEW030 SCT200 BKN250 19/17 A3002 RMK AO2 SLP159 T01940167=
200810100252 METAR KATL 100252Z 05009KT 10SM BKN030 OVC200 21/17 A3002 RMK AO2 SLP160 T02060167 53016=
200810100152 METAR KATL 100152Z 05010G14KT 10SM SCT025 BKN200 OVC250 22/17 A3001 RMK AO2 SLP155 T02170172 $=
200810100135 SPECI KATL 100135Z 05008KT 10SM BKN025 BKN150 OVC200 22/17 A3000 RMK AO2=
200810100135 SPECI KATL 100135Z 05008KT 10SM BKN025 BKN150 OVC200 22/17 A3000 RMK AO2=
200810100052 METAR KATL 100052Z 05010KT 10SM FEW025 BKN150 OVC200 22/17 A2999 RMK AO2 SLP148 T02220167=
200810092352 METAR KATL 092352Z 05010KT 10SM FEW025 SCT150 BKN250 22/16 A2997 RMK AO2 SLP143 T02220161 10239 20217 53006=
200810092252 METAR KATL 092252Z 05006KT 10SM FEW027TCU SCT040 BKN250 23/16 A2996 RMK AO2 SLP140 TCU OHD-SE AND NW T02280161=
200810092152 METAR KATL 092152Z 04006KT 10SM FEW030TCU SCT200 BKN250 23/16 A2996 RMK AO2 SLP138 TCU NE-SE AND DSNT SW T02330161=
200810092052 METAR KATL 092052Z 07009KT 10SM FEW030 SCT150 SCT240 23/16 A2996 RMK AO2 SLP137 TCU DSNT N NE T02280161 56010=
200810091952 METAR KATL 091952Z 09006KT 10SM FEW020 SCT030 BKN040 22/16 A2996 RMK AO2 SLP137 T02220161=
200810091852 METAR KATL 091852Z 07007KT 10SM FEW015 BKN019 BKN022 22/16 A2996 RMK AO2 SLP139 T02170161=
200810091752 METAR KATL 091752Z 08009KT 10SM FEW020TCU BKN030 BKN050 22/17 A2999 RMK AO2 SLP148 TCU W AND NW T02220167 10222 20172 58004=
200810091652 METAR KATL 091652Z 08009KT 10SM FEW012 BKN015 BKN020 21/16 A2999 RMK AO2 SLP151 T02060161=
200810091614 SPECI KATL 091614Z 07012KT 10SM FEW012 BKN015 BKN018 21/16 A2999 RMK AO2=
200810091614 SPECI KATL 091614Z 07012KT 10SM FEW012 BKN015 BKN018 21/16 A2999 RMK AO2=
200810091552 METAR KATL 091552Z 07012KT 10SM FEW009 BKN011 OVC016 20/16 A3000 RMK AO2 SLP152 BINOVC NW T02000161=
200810091452 METAR KATL 091452Z 10011KT 10SM FEW009 BKN011 OVC020 19/16 A3000 RMK AO2 SLP152 T01940161 51009=
200810091411 SPECI KATL 091411Z 08013KT 10SM FEW007 SCT009 OVC013 19/16 A2999 RMK AO2=
200810091411 SPECI KATL 091411Z 08013KT 10SM FEW007 SCT009 OVC013 19/16 A2999 RMK AO2=
200810091352 METAR KATL 091352Z 08011KT 10SM OVC007 19/16 A2999 RMK AO2 CIG 006V010 SLP150 T01890161=
200810091252 METAR KATL 091252Z 06011KT 6SM BR BKN007 BKN016 18/16 A2998 RMK AO2 SLP149 T01780156=
200810091152 METAR KATL 091152Z 06008KT 6SM BR FEW007 BKN016 17/16 A2997 RMK AO2 SLP144 60002 70155 T01720156 10172 20172 51006=
200810091150 SPECI KATL 091150Z 05009KT 6SM BR FEW007 BKN016 17/16 A2997 RMK AO2=
200810091150 SPECI KATL 091150Z 05009KT 6SM BR FEW007 BKN016 17/16 A2997 RMK AO2=
200810091123 SPECI KATL 091123Z 06009KT 10SM SCT007 OVC013 17/16 A2997 RMK AO2=
200810091123 SPECI KATL 091123Z 06009KT 10SM SCT007 OVC013 17/16 A2997 RMK AO2=
200810091052 METAR KATL 091052Z 05009KT 6SM BR BKN007 OVC011 17/16 A2996 RMK AO2 SLP141 T01720156=
200810090952 METAR KATL 090952Z 04010KT 10SM OVC007 17/16 A2995 RMK AO2 SLP137 T01720156=
200810090852 METAR KATL 090852Z 04007KT 6SM BR BKN005 OVC009 17/16 A2994 RMK AO2 SLP135 60002 T01720156 55001=
200810090752 METAR KATL 090752Z 04005KT 6SM BR OVC005 17/16 A2993 RMK AO2 RAE02 SLP130 P0000 T01720156=
200810090652 METAR KATL 090652Z 06004KT 5SM -RA BR OVC005 17/16 A2995 RMK AO2 CIG 003V008 SLP135 P0002 T01720156=
200810090552 METAR KATL 090552Z 08006KT 3SM -RA BR OVC005 17/16 A2995 RMK AO2 RAB0459 SLP135 P0000 60000 T01720156 10178 20172 58002=
200810090452 METAR KATL 090452Z 08006KT 8SM OVC005 17/16 A2995 RMK AO2 RAB24E35 SLP139 CIG 003V008 P0000 T01720156 402220172=
200810090352 METAR KATL 090352Z 06010KT 10SM OVC005 17/16 A2996 RMK AO2 SLP141 CIG 004V009 T01720156=
200810090252 METAR KATL 090252Z 08008KT 10SM BKN006 OVC015 17/16 A2995 RMK AO2 SLP138 T01720156 53011=
200810090222 SPECI KATL 090222Z 08007KT 10SM BKN005 BKN015 OVC022 17/16 A2996 RMK AO2=
200810090222 SPECI KATL 090222Z 08007KT 10SM BKN005 BKN015 OVC022 17/16 A2996 RMK AO2=
200810090152 METAR KATL 090152Z 09006KT 9SM BKN004 BKN015 OVC022 17/16 A2994 RMK AO2 SLP134 T01720156=
200810090142 SPECI KATL 090142Z 11006KT 9SM SCT004 BKN022 BKN100 17/16 A2994 RMK AO2=
200810090142 SPECI KATL 090142Z 11006KT 9SM SCT004 BKN022 BKN100 17/16 A2994 RMK AO2=
200810090102 SPECI KATL 090102Z 10008KT 3SM BKN004 BKN075 OVC100 17/16 A2993 RMK AO2 SFC VIS 8=
200810090102 SPECI KATL 090102Z 10008KT 3SM BKN004 BKN075 OVC100 17/16 A2993 RMK AO2 SFC VIS 8=
200810090052 METAR KATL 090052Z 10007KT 10SM SCT005 BKN090 BKN200 17/16 A2993 RMK AO2 SLP129 SCT005 V BKN T01720161=
200810082352 METAR KATL 082352Z 11008KT 10SM FEW005 BKN075 BKN100 BKN200 18/16 A2992 RMK AO2 SLP126 60080 T01780161 10200 20178 58004=
200810082252 METAR KATL 082252Z 11009KT 10SM FEW030 BKN070 BKN100 BKN200 18/16 A2992 RMK AO2 RAE12 SLP128 P0000 T01780161=
200810082152 METAR KATL 082152Z 08008KT 10SM -RA FEW004 BKN090 BKN150 OVC200 18/17 A2992 RMK AO2 WSHFT 2039 TSE28 SLP127 TS MOV NE P0012 T01830167=
200810082128 SPECI KATL 082128Z 07014G18KT 9SM -RA FEW004 BKN090 OVC150 18/17 A2989 RMK AO2 WSHFT 2039 TSE28 TS MOV NE P0010=
200810082128 SPECI KATL 082128Z 07014G18KT 9SM -RA FEW004 BKN090 OVC150 18/17 A2989 RMK AO2 WSHFT 2039 TSE28 TS MOV NE P0010=
200810082116 SPECI KATL 082116Z 06015KT 6SM -TSRA BR FEW008CB BKN047 OVC090 18/17 A2991 RMK AO2 WSHFT 2039 OCNL LTGICCG NE-SE TS NE-SE MOV NE P0009=
200810082116 SPECI KATL 082116Z 06015KT 6SM -TSRA BR FEW008CB BKN047 OVC090 18/17 A2991 RMK AO2 WSHFT 2039 OCNL LTGICCG NE-SE TS NE-SE MOV NE P0009=
200810082103 SPECI KATL 082103Z 04015KT 1 1/2SM TSRA BR FEW008CB BKN020 OVC037 18/17 A2994 RMK AO2 WSHFT 2039 SFC VIS 4 OCNL LTGICCG NE-SE TS NE-SE MOV NE P0008=
200810082103 SPECI KATL 082103Z 04015KT 1 1/2SM TSRA BR FEW008CB BKN020 OVC037 18/17 A2994 RMK AO2 WSHFT 2039 SFC VIS 4 OCNL LTGICCG NE-SE TS NE-SE MOV NE P0008=
200810082059 SPECI KATL 082059Z 04014KT 1/2SM R09R/5000VP6000FT +TSRA BR FEW002 BKN008CB OVC013 18/17 A2993 RMK AO2 WSHFT 2039 SFC VIS 2 1/2 OCNL LTGICCG NE-SE TS NE-SE MOV NE P0007=
200810082059 SPECI KATL 082059Z 04014KT 1/2SM R09R/5000VP6000FT +TSRA BR FEW002 BKN008CB OVC013 18/17 A2993 RMK AO2 WSHFT 2039 SFC VIS 2 1/2 OCNL LTGICCG NE-SE TS NE-SE MOV NE P0007=
200810082052 METAR KATL 082052Z 03015KT 1/2SM R09R/3000VP6000FT +TSRA BR SCT002 BKN008CB OVC013 18/17 A2993 RMK AO2 WSHFT 2027 SFC VIS 1 1/4 TSB14RAB17 PRESFR SLP129 OCNL LTGICCG OHD-NE-SE TS OHD-NE-SE MOV NE P0066 60068 T0183=
200810082044 SPECI KATL 082044Z 33012G24KT 1/2SM R09R/3000VP6000FT +TSRA BR SCT004CB BKN008 OVC040 18/17 A2996 RMK AO2 WSHFT 2027 SFC VIS 1 TSB14RAB17 OCNL LTGICCG OHD TS OHD MOV NE P0039=
200810082044 SPECI KATL 082044Z 33012G24KT 1/2SM R09R/3000VP6000FT +TSRA BR SCT004CB BKN008 OVC040 18/17 A2996 RMK AO2 WSHFT 2027 SFC VIS 1 TSB14RAB17 OCNL LTGICCG OHD TS OHD MOV NE P0039=
200810082042 SPECI KATL 082042Z 32016G24KT 1/2SM R09R/4000VP6000FT +TSRA BR SCT004CB BKN008 OVC040 18/17 A2996 RMK AO2 WSHFT 2027 SFC VIS 1 1/2 TSB14RAB17 OCNL LTGICCG OHD TS OHD MOV NE P0034=
200810082042 SPECI KATL 082042Z 32016G24KT 1/2SM R09R/4000VP6000FT +TSRA BR SCT004CB BKN008 OVC040 18/17 A2996 RMK AO2 WSHFT 2027 SFC VIS 1 1/2 TSB14RAB17 OCNL LTGICCG OHD TS OHD MOV NE P0034=
200810082038 SPECI KATL 082038Z 33020G24KT 1/2SM R09R/4000VP6000FT +TSRA BR BKN004CB BKN008 OVC040 18/17 A2995 RMK AO2 SFC VIS 1 1/2 TSB14RAB17 OCNL LTGICCG OHD TS OHD MOV NE P0023=
200810082038 SPECI KATL 082038Z 33020G24KT 1/2SM R09R/4000VP6000FT +TSRA BR BKN004CB BKN008 OVC040 18/17 A2995 RMK AO2 SFC VIS 1 1/2 TSB14RAB17 OCNL LTGICCG OHD TS OHD MOV NE P0023=
200810082032 SPECI KATL 082032Z 31014G21KT 1/2SM R09R/4500VP6000FT +TSRA FG OVC004CB 19/17 A2995 RMK AO2 TSB14RAB17 PRESRR OCNL LTGICCG OHD TS OHD MOV NE P0008=
200810082032 SPECI KATL 082032Z 31014G21KT 1/2SM R09R/4500VP6000FT +TSRA FG OVC004CB 19/17 A2995 RMK AO2 TSB14RAB17 PRESRR OCNL LTGICCG OHD TS OHD MOV NE P0008=
200810082022 SPECI KATL 082022Z 00000KT 1/2SM -TSRA BR OVC004CB 20/19 A2992 RMK AO2 SFC VIS 3 TSB14RAB17 OCNL LTGICCG SW-NW TS SW-NW MOV NE CB SW-NW MOV NE P0000=
200810082022 SPECI KATL 082022Z 00000KT 1/2SM -TSRA BR OVC004CB 20/19 A2992 RMK AO2 SFC VIS 3 TSB14RAB17 OCNL LTGICCG SW-NW TS SW-NW MOV NE CB SW-NW MOV NE P0000=
200810082016 SPECI KATL 082016Z 12005KT 3SM TS BR OVC004CB 20/18 A2992 RMK AO2 SFC VIS 5 TSB14 OCNL LTGICCG SW-NW TS SW-NW MOV NE CB SW-NW MOV NE=
200810082016 SPECI KATL 082016Z 12005KT 3SM TS BR OVC004CB 20/18 A2992 RMK AO2 SFC VIS 5 TSB14 OCNL LTGICCG SW-NW TS SW-NW MOV NE CB SW-NW MOV NE=
200810081952 METAR KATL 081952Z 11007KT 3SM BR OVC004 19/18 A2992 RMK AO2 SFC VIS 6 RAE45 CIG 003V009 SLP126 LTG DSNT SW-NW CB DSNT SW-NW MOV NE P0000 T01940183=
200810081927 SPECI KATL 081927Z 12008KT 3SM BR OVC006 19/18 A2992 RMK AO2 SFC VIS 6 RAE13 CIG 003V009 LTG DSNT SW-NW CB DSNT SW-NW MOV NE P0000=
200810081927 SPECI KATL 081927Z 12008KT 3SM BR OVC006 19/18 A2992 RMK AO2 SFC VIS 6 RAE13 CIG 003V009 LTG DSNT SW-NW CB DSNT SW-NW MOV NE P0000=
200810081852 METAR KATL 081852Z 12008KT 3SM -RA BR BKN004 BKN010 OVC030 19/18 A2992 RMK AO2 SFC VIS 5 SLP125 CB DSNT SW-NW MOV NE P0002 T01940178=
200810081848 SPECI KATL 081848Z 12007KT 3SM -RA BR BKN004 BKN010 OVC030 19/18 A2992 RMK AO2 SFC VIS 5 CB DSNT SW-NW MOV NE P0002=
200810081848 SPECI KATL 081848Z 12007KT 3SM -RA BR BKN004 BKN010 OVC030 19/18 A2992 RMK AO2 SFC VIS 5 CB DSNT SW-NW MOV NE P0002=
200810081830 SPECI KATL 081830Z 13008KT 3SM BR BKN006 OVC010 19/18 A2994 RMK AO2 SFC VIS 6 RAE30 CB DSNT SW-NW MOV NE P0002=
200810081830 SPECI KATL 081830Z 13008KT 3SM BR BKN006 OVC010 19/18 A2994 RMK AO2 SFC VIS 6 RAE30 CB DSNT SW-NW MOV NE P0002=
200810081752 METAR KATL 081752Z 14008KT 3SM -RA BR BKN006 BKN009 OVC021 19/17 A2996 RMK AO2 SLP140 P0016 60073 T01890172 10189 20178 56015=
200810081748 SPECI KATL 081748Z 13008KT 3SM -RA BR BKN006 OVC011 19/17 A2996 RMK AO2 CIG 003V008 P0015=
200810081748 SPECI KATL 081748Z 13008KT 3SM -RA BR BKN006 OVC011 19/17 A2996 RMK AO2 CIG 003V008 P0015=
200810081741 SPECI KATL 081741Z 12008G15KT 3SM R09R/3500VP6000FT RA BR BKN004 BKN009 OVC022 18/17 A2997 RMK AO2 CB E MOV NE P0014=
200810081741 SPECI KATL 081741Z 12008G15KT 3SM R09R/3500VP6000FT RA BR BKN004 BKN009 OVC022 18/17 A2997 RMK AO2 CB E MOV NE P0014=
200810081715 SPECI KATL 081715Z 12010KT 3SM R09R/3500VP6000FT -RA BR BKN006CB OVC009 18/17 A2998 RMK AO2 CB E MOV NE P0009=
200810081715 SPECI KATL 081715Z 12010KT 3SM R09R/3500VP6000FT -RA BR BKN006CB OVC009 18/17 A2998 RMK AO2 CB E MOV NE P0009=
200810081712 SPECI KATL 081712Z 12007KT 1SM R09R/3500VP6000FT +RA BR OVC006CB 18/17 A2998 RMK AO2 TWR VIS 3 CB OHD-SE MOV NE P0008=
200810081712 SPECI KATL 081712Z 12007KT 1SM R09R/3500VP6000FT +RA BR OVC006CB 18/17 A2998 RMK AO2 TWR VIS 3 CB OHD-SE MOV NE P0008=
200810081710 SPECI KATL 081710Z 12009KT 1 3/4SM R09R/3500VP6000FT RA BR OVC006 18/17 A2998 RMK AO2 TWR VIS 3 CIG 003V007 P0004=
200810081710 SPECI KATL 081710Z 12009KT 1 3/4SM R09R/3500VP6000FT RA BR OVC006 18/17 A2998 RMK AO2 TWR VIS 3 CIG 003V007 P0004=
200810081652 METAR KATL 081652Z 12010G16KT 3SM -RA BR BKN006 OVC009 18/17 A2999 RMK AO2 SFC VIS 6 SLP148 P0009 T01830167=
200810081635 SPECI KATL 081635Z 12010KT 3SM RA BR BKN006 BKN015 OVC026 18/17 A2999 RMK AO2 P0004=
200810081635 SPECI KATL 081635Z 12010KT 3SM RA BR BKN006 BKN015 OVC026 18/17 A2999 RMK AO2 P0004=
200810081618 SPECI KATL 081618Z 12010G18KT 3SM -RA BR SCT006 BKN026 OVC045 18/17 A3000 RMK AO2 SFC VIS 4 P0000=
200810081618 SPECI KATL 081618Z 12010G18KT 3SM -RA BR SCT006 BKN026 OVC045 18/17 A3000 RMK AO2 SFC VIS 4 P0000=
200810081603 SPECI KATL 081603Z 12010KT 3SM -RA BR SCT006 BKN012 OVC043 18/17 A3000 RMK AO2 SFC VIS 6 CIG 009V018 P0000=
200810081603 SPECI KATL 081603Z 12010KT 3SM -RA BR SCT006 BKN012 OVC043 18/17 A3000 RMK AO2 SFC VIS 6 CIG 009V018 P0000=
200810081552 METAR KATL 081552Z 12011G17KT 3SM -RA BR BKN006 BKN011 OVC032 18/17 A3001 RMK AO2 SFC VIS 6 SLP155 P0023 T01830167=
200810081539 SPECI KATL 081539Z 12011G15KT 3SM -RA BR BKN006 BKN015 OVC030 18/17 A3001 RMK AO2 SFC VIS 5 P0023=
200810081539 SPECI KATL 081539Z 12011G15KT 3SM -RA BR BKN006 BKN015 OVC030 18/17 A3001 RMK AO2 SFC VIS 5 P0023=
200810081528 SPECI KATL 081528Z 13009G18KT 2SM R09R/4500VP6000FT +RA BR BKN006 BKN010 OVC032 18/17 A3002 RMK AO2 P0022=
200810081528 SPECI KATL 081528Z 13009G18KT 2SM R09R/4500VP6000FT +RA BR BKN006 BKN010 OVC032 18/17 A3002 RMK AO2 P0022=
200810081513 SPECI KATL 081513Z 13009KT 2SM R09R/5000VP6000FT -RA BR BKN006 OVC013 18/17 A3003 RMK AO2 SFC VIS 3 P0018=
200810081513 SPECI KATL 081513Z 13009KT 2SM R09R/5000VP6000FT -RA BR BKN006 OVC013 18/17 A3003 RMK AO2 SFC VIS 3 P0018=
200810081507 SPECI KATL 081507Z 13010KT 1SM R09R/3500VP6000FT +RA BR BKN006 OVC012 18/17 A3003 RMK AO2 SFC VIS 2 P0016=
200810081507 SPECI KATL 081507Z 13010KT 1SM R09R/3500VP6000FT +RA BR BKN006 OVC012 18/17 A3003 RMK AO2 SFC VIS 2 P0016=
200810081458 SPECI KATL 081458Z 13009G15KT 1SM R09R/3500VP6000FT +RA BR SCT006 BKN012 OVC019 18/17 A3003 RMK AO2 SFC VIS 2 P0008=
200810081458 SPECI KATL 081458Z 13009G15KT 1SM R09R/3500VP6000FT +RA BR SCT006 BKN012 OVC019 18/17 A3003 RMK AO2 SFC VIS 2 P0008=
200810081454 SPECI KATL 081454Z 15010KT 2SM R09R/4000VP6000FT +RA BR SCT006 BKN012 OVC019 18/17 A3003 RMK AO2 TWR VIS 3 P0002=
200810081454 SPECI KATL 081454Z 15010KT 2SM R09R/4000VP6000FT +RA BR SCT006 BKN012 OVC019 18/17 A3003 RMK AO2 TWR VIS 3 P0002=
200810081452 METAR KATL 081452Z 14008G15KT 3SM R09R/5500VP6000FT +RA BR SCT006 BKN012 OVC019 18/17 A3003 RMK AO2 SLP164 P0011 60025 T01830167 55003=
200810081450 SPECI KATL 081450Z 14008G15KT 3SM R09R/5500VP6000FT +RA BR SCT006 BKN010 OVC016 18/17 A3003 RMK AO2 P0009=
200810081450 SPECI KATL 081450Z 14008G15KT 3SM R09R/5500VP6000FT +RA BR SCT006 BKN010 OVC016 18/17 A3003 RMK AO2 P0009=
200810081429 SPECI KATL 081429Z 14011KT 3SM RA BR BKN008 BKN016 OVC030 18/17 A3004 RMK AO2 SFC VIS 3 CIG 006V012 P0002=
200810081429 SPECI KATL 081429Z 14011KT 3SM RA BR BKN008 BKN016 OVC030 18/17 A3004 RMK AO2 SFC VIS 3 CIG 006V012 P0002=
200810081420 SPECI KATL 081420Z 14007G15KT 3SM -RA BR SCT008 BKN016 OVC033 19/17 A3004 RMK AO2 SFC VIS 6 P0000=
200810081420 SPECI KATL 081420Z 14007G15KT 3SM -RA BR SCT008 BKN016 OVC033 19/17 A3004 RMK AO2 SFC VIS 6 P0000=
200810081411 SPECI KATL 081411Z 13008KT 3SM BR BKN008 BKN016 OVC032 19/17 A3003 RMK AO2 SFC VIS 6 RAE10 CIG 005V013 P0000=
200810081411 SPECI KATL 081411Z 13008KT 3SM BR BKN008 BKN016 OVC032 19/17 A3003 RMK AO2 SFC VIS 6 RAE10 CIG 005V013 P0000=
200810081403 SPECI KATL 081403Z 13010KT 3SM -RA FEW006 BKN011 OVC032 19/17 A3003 RMK AO2 SFC VIS 7 P0000=
200810081403 SPECI KATL 081403Z 13010KT 3SM -RA FEW006 BKN011 OVC032 19/17 A3003 RMK AO2 SFC VIS 7 P0000=
200810081352 METAR KATL 081352Z 14009KT 3SM RA BR FEW010 BKN021 OVC029 18/17 A3004 RMK AO2 SFC VIS 3 SLP165 P0006 T01830167=
200810081342 SPECI KATL 081342Z 14009G16KT 3SM -RA BR SCT012 BKN019 OVC032 19/17 A3004 RMK AO2 SFC VIS 5 P0002=
200810081342 SPECI KATL 081342Z 14009G16KT 3SM -RA BR SCT012 BKN019 OVC032 19/17 A3004 RMK AO2 SFC VIS 5 P0002=
200810081328 SPECI KATL 081328Z 14011KT 3SM -RA BR FEW008 BKN012 OVC034 19/17 A3005 RMK AO2 SFC VIS 5 P0001=
200810081328 SPECI KATL 081328Z 14011KT 3SM -RA BR FEW008 BKN012 OVC034 19/17 A3005 RMK AO2 SFC VIS 5 P0001=
200810081302 SPECI KATL 081302Z 13010KT 3SM -RA BR BKN006 BKN011 OVC033 19/17 A3004 RMK AO2 SFC VIS 5 CIG 005V010 P0000=
200810081302 SPECI KATL 081302Z 13010KT 3SM -RA BR BKN006 BKN011 OVC033 19/17 A3004 RMK AO2 SFC VIS 5 CIG 005V010 P0000=
200810081252 METAR KATL 081252Z 14008G14KT 3SM -RA BR SCT009 BKN016 OVC033 18/17 A3004 RMK AO2 SFC VIS 5 SLP166 P0008 T01830167=
200810081159 SPECI KATL 081159Z 13007G14KT 3SM -RA BR BKN007 BKN040 OVC065 18/17 A3004 RMK AO2 SFC VIS 6 P0000=
200810081159 SPECI KATL 081159Z 13007G14KT 3SM -RA BR BKN007 BKN040 OVC065 18/17 A3004 RMK AO2 SFC VIS 6 P0000=
200810081152 METAR KATL 081152Z 12008KT 6SM -RA BR BKN039 BKN049 OVC065 18/17 A3004 RMK AO2 SLP166 P0002 60027 70027 T01830167 10206 20183 58002=
200810081052 METAR KATL 081052Z 14010G15KT 3SM RA BR BKN009 BKN014 OVC020 19/17 A3005 RMK AO2 RAE22B43 SLP168 P0002 T01890167=
200810081008 SPECI KATL 081008Z 13009KT 5SM -RA BR BKN007 OVC010 19/17 A3005 RMK AO2 P0000=
200810081008 SPECI KATL 081008Z 13009KT 5SM -RA BR BKN007 OVC010 19/17 A3005 RMK AO2 P0000=
200810081001 SPECI KATL 081001Z 13007KT 6SM -RA BR SCT007 BKN010 OVC050 19/17 A3005 RMK AO2 P0000=
200810081001 SPECI KATL 081001Z 13007KT 6SM -RA BR SCT007 BKN010 OVC050 19/17 A3005 RMK AO2 P0000=
200810080952 METAR KATL 080952Z 12007G14KT 5SM -RA BR BKN010 BKN021 OVC055 19/17 A3005 RMK AO2 SLP167 P0011 T01890172=
200810080936 SPECI KATL 080936Z 12008KT 6SM -RA BR FEW010 SCT021 OVC055 19/17 A3005 RMK AO2 P0011=
200810080936 SPECI KATL 080936Z 12008KT 6SM -RA BR FEW010 SCT021 OVC055 19/17 A3005 RMK AO2 P0011=
200810080858 SPECI KATL 080858Z 16011KT 2 1/2SM +RA BR FEW009 BKN019 OVC055 19/17 A3006 RMK AO2 P0005=
200810080858 SPECI KATL 080858Z 16011KT 2 1/2SM +RA BR FEW009 BKN019 OVC055 19/17 A3006 RMK AO2 P0005=
200810080852 METAR KATL 080852Z 15011G15KT 6SM RA BR FEW009 SCT036 OVC055 19/17 A3006 RMK AO2 SLP170 P0008 60012 T01890172 56012=
200810080827 SPECI KATL 080827Z 13008G21KT 4SM -RA BR FEW007 BKN033 OVC070 19/17 A3005 RMK AO2 P0008=
200810080827 SPECI KATL 080827Z 13008G21KT 4SM -RA BR FEW007 BKN033 OVC070 19/17 A3005 RMK AO2 P0008=
200810080820 SPECI KATL 080820Z 14011G18KT 2 1/2SM +RA BR SCT007 BKN015 OVC033 19/17 A3006 RMK AO2 P0006=
200810080820 SPECI KATL 080820Z 14011G18KT 2 1/2SM +RA BR SCT007 BKN015 OVC033 19/17 A3006 RMK AO2 P0006=
200810080805 SPECI KATL 080805Z 15010G18KT 4SM -RA BR SCT007 BKN011 OVC029 19/17 A3007 RMK AO2 P0001=
200810080805 SPECI KATL 080805Z 15010G18KT 4SM -RA BR SCT007 BKN011 OVC029 19/17 A3007 RMK AO2 P0001=
200810080752 METAR KATL 080752Z 13010G16KT 6SM -RA BR BKN009 BKN017 OVC090 19/17 A3006 RMK AO2 CIG 007V014 SLP172 P0003 T01940172=
200810080717 SPECI KATL 080717Z 14007G14KT 8SM -RA SCT014 BKN036 OVC085 19/17 A3007 RMK AO2 P0003=
200810080717 SPECI KATL 080717Z 14007G14KT 8SM -RA SCT014 BKN036 OVC085 19/17 A3007 RMK AO2 P0003=
200810080652 METAR KATL 080652Z 14010G14KT 6SM -RA SCT016 BKN022 OVC037 20/17 A3008 RMK AO2 RAE01B22 SLP176 P0001 T02000172=
200810080628 SPECI KATL 080628Z 13007KT 10SM -RA FEW020 BKN024 OVC070 21/17 A3009 RMK AO2 RAE01B22 P0000=
200810080628 SPECI KATL 080628Z 13007KT 10SM -RA FEW020 BKN024 OVC070 21/17 A3009 RMK AO2 RAE01B22 P0000=
200810080610 SPECI KATL 080610Z 15011G18KT 10SM FEW023 SCT029 BKN075 21/17 A3009 RMK AO2 RAE01 P0000=
200810080610 SPECI KATL 080610Z 15011G18KT 10SM FEW023 SCT029 BKN075 21/17 A3009 RMK AO2 RAE01 P0000=
200810080552 METAR KATL 080552Z 14007KT 7SM -RA BKN023 BKN029 OVC085 21/17 A3009 RMK AO2 RAB12 SLP181 P0000 60000 T02060172 10244 20206 58005=
200810080542 SPECI KATL 080542Z 14010KT 9SM -RA BKN025 BKN043 OVC075 21/17 A3009 RMK AO2 RAB12 P0000=
200810080542 SPECI KATL 080542Z 14010KT 9SM -RA BKN025 BKN043 OVC075 21/17 A3009 RMK AO2 RAB12 P0000=
200810080452 METAR KATL 080452Z 13011G20KT 10SM FEW025 BKN055 OVC070 22/16 A3010 RMK AO2 RAB33E43 SLP184 P0000 T02220156 402780144=
200810080352 METAR KATL 080352Z 11009KT 10SM SCT026 BKN045 OVC065 23/13 A3011 RMK AO2 SLP188 T02280133=
200810080252 METAR KATL 080252Z 10013G19KT 10SM BKN037 OVC055 23/12 A3011 RMK AO2 SLP188 T02280122 58001=
200810080152 METAR KATL 080152Z 09013KT 10SM BKN055 OVC065 23/12 A3012 RMK AO2 SLP192 T02330117=
200810080052 METAR KATL 080052Z 11011KT 10SM BKN055 OVC065 24/12 A3013 RMK AO2 SLP195 T02440122=
200810072352 METAR KATL 072352Z 11010KT 10SM BKN055 OVC100 24/13 A3011 RMK AO2 SLP190 T02440128 10278 20244 55002=
200810072252 METAR KATL 072252Z 13008KT 10SM FEW055 BKN100 BKN250 26/13 A3011 RMK AO2 SLP188 T02560133=
200810072152 METAR KATL 072152Z 12009KT 10SM SCT055 SCT110 BKN200 26/13 A3011 RMK AO2 SLP188 T02610133=
200810072052 METAR KATL 072052Z 13013G19KT 10SM FEW050 SCT070 SCT100 BKN200 27/13 A3012 RMK AO2 SLP190 T02670128 56025=
200810071952 METAR KATL 071952Z 10012KT 10SM FEW050 SCT100 SCT200 27/12 A3014 RMK AO2 SLP197 T02720122=
200810071852 METAR KATL 071852Z 12011G18KT 10SM FEW050 SCT100 BKN200 26/12 A3016 RMK AO2 SLP205 T02610117=
200810071752 METAR KATL 071752Z 12010G19KT 10SM FEW035 BKN095 BKN200 26/11 A3019 RMK AO2 SLP216 T02560111 10261 20156 58018=
200810071652 METAR KATL 071652Z 11009G18KT 10SM FEW035 SCT095 BKN200 25/11 A3022 RMK AO2 SLP226 T02500106=
200810071552 METAR KATL 071552Z 12011G17KT 10SM FEW035 SCT100 SCT200 24/10 A3025 RMK AO2 SLP235 T02390100=
200810071452 METAR KATL 071452Z 10012G18KT 10SM FEW100 SCT200 22/10 A3025 RMK AO2 SLP236 T02220100 50002=
200810071352 METAR KATL 071352Z 09008KT 10SM FEW100 SCT200 19/10 A3026 RMK AO2 SLP242 T01940100=
200810071252 METAR KATL 071252Z 09007KT 10SM FEW070 SCT250 17/11 A3026 RMK AO2 SLP241 T01720111=
200810071152 METAR KATL 071152Z 08007KT 10SM FEW070 SCT250 16/11 A3024 RMK AO2 SLP235 T01560111 10200 20144 51012=
200810071052 METAR KATL 071052Z 07006KT 10SM FEW250 16/11 A3023 RMK AO2 SLP231 T01560111=
200810070952 METAR KATL 070952Z 09005KT 10SM SCT150 17/11 A3022 RMK AO2 SLP225 T01670111=
200810070852 METAR KATL 070852Z 11006KT 10SM CLR 18/11 A3021 RMK AO2 SLP221 T01780106 55003=
200810070752 METAR KATL 070752Z COR 11006KT 10SM CLR 18/10 A3020 RMK AO2 SLP219 T01830100=
200810070652 METAR KATL 070652Z COR 11006KT 10SM CLR 18/10 A3021 RMK AO2 SLP222 T01830100=
200810070552 METAR KATL 070552Z 11009KT 10SM SCT095 20/09 A3022 RMK AO2 SLP224 T02000094 10239 20200 55002=
200810070452 METAR KATL 070452Z 11009KT 10SM FEW100 21/10 A3021 RMK AO2 SLP224 T02060100 402780150=
200810070352 METAR KATL 070352Z 10008KT 10SM FEW100 21/12 A3022 RMK AO2 SLP227 T02060117=
200810070252 METAR KATL 070252Z 09009KT 10SM SCT100 21/12 A3022 RMK AO2 SLP227 T02110122 51014=
200810070152 METAR KATL 070152Z 09008KT 10SM FEW100 22/13 A3021 RMK AO2 SLP225 T02170128=
200810070052 METAR KATL 070052Z 09009KT 10SM BKN100 23/13 A3020 RMK AO2 SLP221 T02280128=
200810062352 METAR KATL 062352Z 10008KT 10SM FEW095 SCT120 24/13 A3018 RMK AO2 SLP215 T02390128 10278 20239 53005=
200810062252 METAR KATL 062252Z 09009KT 10SM FEW055 SCT100 25/13 A3017 RMK AO2 SLP212 T02500128=
200810062152 METAR KATL 062152Z 08008KT 10SM FEW055 SCT100 BKN200 27/13 A3017 RMK AO2 SLP208 T02720128=
200810062052 METAR KATL 062052Z 07010KT 10SM SCT050 SCT100 27/12 A3017 RMK AO2 SLP208 T02670122 56017=
200810061952 METAR KATL 061952Z 11006KT 10SM SCT047 SCT100 27/13 A3017 RMK AO2 SLP208 T02720128=
200810061852 METAR KATL 061852Z 06005KT 10SM FEW045 SCT055 BKN100 26/13 A3019 RMK AO2 SLP217 T02610133=
200810061752 METAR KATL 061752Z 14008KT 10SM FEW042 BKN100 25/13 A3022 RMK AO2 SLP227 T02500128 10261 20156 58014=
200810061652 METAR KATL 061652Z 07006G16KT 10SM BKN035 BKN040 24/12 A3025 RMK AO2 SLP236 T02440122=
200810061552 METAR KATL 061552Z 10010KT 10SM FEW032 SCT045 24/12 A3026 RMK AO2 SLP239 T02390122=
200810061452 METAR KATL 061452Z 09009KT 10SM FEW045 23/13 A3026 RMK AO2 SLP241 T02280128 51010=
200810061352 METAR KATL 061352Z 07007KT 9SM FEW070 SCT250 19/12 A3026 RMK AO2 SLP239 T01940122=
200810061252 METAR KATL 061252Z 07006KT 7SM FEW070 17/12 A3024 RMK AO2 SLP235 T01720117=
200810061152 METAR KATL 061152Z 07006KT 8SM FEW250 16/11 A3023 RMK AO2 SLP232 T01560111 10183 20150 53010=
200810061052 METAR KATL 061052Z 06006KT 9SM CLR 16/11 A3022 RMK AO2 SLP227 T01610111=
200810060952 METAR KATL 060952Z 07004KT 10SM CLR 16/11 A3021 RMK AO2 SLP223 T01610106=
200810060852 METAR KATL 060852Z 07005KT 10SM CLR 16/11 A3020 RMK AO2 SLP220 T01610106 57007=
200810060752 METAR KATL 060752Z 10005KT 10SM CLR 17/11 A3021 RMK AO2 SLP221 T01720106=
200810060652 METAR KATL 060652Z 08005KT 10SM CLR 17/11 A3022 RMK AO2 SLP224 T01670106=
200810060552 METAR KATL 060552Z 10004KT 10SM CLR 18/11 A3022 RMK AO2 SLP225 T01830106 10244 20178 55001=
200810060452 METAR KATL 060452Z 00000KT 10SM CLR 19/11 A3022 RMK AO2 SLP225 T01890106 402830150=
200810060352 METAR KATL 060352Z 12004KT 10SM CLR 20/11 A3022 RMK AO2 SLP227 T02000106=
200810060252 METAR KATL 060252Z 11003KT 10SM CLR 21/11 A3022 RMK AO2 SLP228 T02060106 51016=
200810060152 METAR KATL 060152Z 12003KT 10SM CLR 22/11 A3021 RMK AO2 SLP223 T02220106=
200810060052 METAR KATL 060052Z 14004KT 10SM FEW070 23/10 A3019 RMK AO2 SLP217 T02280100=
200810052352 METAR KATL 052352Z 13003KT 10SM FEW070 24/09 A3017 RMK AO2 SLP212 T02440094 10283 20244 53000=
200810052252 METAR KATL 052252Z 12005KT 10SM FEW075 26/09 A3017 RMK AO2 SLP209 T02610089=
200810052152 METAR KATL 052152Z 08006KT 10SM SCT075 27/08 A3017 RMK AO2 SLP207 T02720083=
200810052052 METAR KATL 052052Z 00000KT 10SM SCT075 27/09 A3017 RMK AO2 SLP209 T02720089 56017=
200810051952 METAR KATL 051952Z 14003KT 10SM SCT070 27/08 A3018 RMK AO2 SLP212 T02670083=
200810051852 METAR KATL 051852Z 07007KT 10SM SCT065 28/09 A3019 RMK AO2 SLP216 T02830094=
200810051752 METAR KATL 051752Z VRB05KT 10SM SCT065 28/09 A3023 RMK AO2 SLP226 T02830094 10283 20161 58015=
200810051652 METAR KATL 051652Z 00000KT 10SM SCT065 26/10 A3026 RMK AO2 SLP238 T02610100=
200810051552 METAR KATL 051552Z 00000KT 8SM CLR 25/12 A3027 RMK AO2 SLP242 T02500117=
200810051452 METAR KATL 051452Z 00000KT 8SM CLR 23/12 A3027 RMK AO2 SLP244 T02280122 50007=
200810051352 METAR KATL 051352Z 00000KT 8SM CLR 19/12 A3027 RMK AO2 SLP245 T01940122=
200810051252 METAR KATL 051252Z 08003KT 8SM CLR 17/12 A3027 RMK AO2 SLP244 T01720122=
200810051152 METAR KATL 051152Z 05003KT 8SM CLR 16/11 A3025 RMK AO2 SLP238 T01610111 10194 20150 53016=
200810051052 METAR KATL 051052Z 08004KT 9SM CLR 16/11 A3023 RMK AO2 SLP231 T01560111=
200810050952 METAR KATL 050952Z 10004KT 9SM FEW070 17/11 A3022 RMK AO2 SLP225 T01670111=
200810050852 METAR KATL 050852Z 09004KT 10SM FEW070 17/11 A3020 RMK AO2 SLP221 T01720111 53001=
200810050752 METAR KATL 050752Z 09004KT 10SM SCT070 18/11 A3019 RMK AO2 SLP217 T01830111=
200810050652 METAR KATL 050652Z 00000KT 10SM BKN070 19/11 A3020 RMK AO2 SLP219 T01940111=
200810050552 METAR KATL 050552Z 11003KT 10SM SCT070 SCT180 19/11 A3020 RMK AO2 SLP219 T01940111 10244 20183 51004=
200810050452 METAR KATL 050452Z 08003KT 9SM SCT070 BKN180 19/11 A3020 RMK AO2 SLP218 T01940111 402830144=
200810050352 METAR KATL 050352Z COR 07004KT 10SM FEW070 SCT200 19/12 A3020 RMK AO2 SLP218 T01940117=
200810050252 METAR KATL 050252Z 24003KT 10SM FEW070 SCT180 19/11 A3019 RMK AO2 SLP216 T01940106 53011=
200810050152 METAR KATL 050152Z 13003KT 10SM FEW070 SCT180 22/11 A3017 RMK AO2 SLP210 T02220111=
200810050052 METAR KATL 050052Z 00000KT 10SM SCT075 23/11 A3017 RMK AO2 SLP210 T02280106=
200810042352 METAR KATL 042352Z 00000KT 10SM FEW070 SCT200 24/09 A3016 RMK AO2 SLP206 T02440089 10283 20244 51007=
200810042252 METAR KATL 042252Z 19003KT 10SM SCT070 26/08 A3015 RMK AO2 SLP204 T02610083=
200810042152 METAR KATL 042152Z 00000KT 10SM SCT070 26/08 A3014 RMK AO2 SLP199 T02610083=
200810042052 METAR KATL 042052Z 18004KT 10SM SCT070 26/09 A3013 RMK AO2 SLP198 T02610089 55013=
200810041952 METAR KATL 041952Z 22003KT 10SM SCT070 27/08 A3013 RMK AO2 SLP197 T02670083=
200810041852 METAR KATL 041852Z 24008KT 10SM SCT065 27/10 A3015 RMK AO2 SLP201 T02720100=
200810041752 METAR KATL 041752Z 29007KT 10SM SCT060 26/11 A3018 RMK AO2 SLP211 T02610106 10272 20144 58009=
200810041652 METAR KATL 041652Z 00000KT 10SM SCT055 26/10 A3020 RMK AO2 SLP218 T02560100=
200810041552 METAR KATL 041552Z 32008KT 10SM SCT050 25/11 A3020 RMK AO2 SLP219 T02500111=
200810041452 METAR KATL 041452Z 00000KT 10SM CLR 23/11 A3020 RMK AO2 SLP221 T02330111 51013 $=
200810041352 METAR KATL 041352Z 00000KT 10SM FEW250 21/10 A3019 RMK AO2 SLP218 T02110100 $=
200810041252 METAR KATL 041252Z 00000KT 9SM FEW050 18/12 A3018 RMK AO2 SLP214 T01780122 $=
200810041152 METAR KATL 041152Z 30003KT 7SM CLR 15/11 A3017 RMK AO2 SLP210 T01500111 10172 20144 53013 $=
200810041052 METAR KATL 041052Z 00000KT 8SM FEW060 15/11 A3015 RMK AO2 SLP202 T01500111 $=
200810040952 METAR KATL 040952Z 00000KT 9SM SCT060 16/11 A3014 RMK AO2 SLP199 T01560111 $=
200810040852 METAR KATL 040852Z 26004KT 9SM FEW060 15/11 A3013 RMK AO2 SLP195 T01500106 53006 $=
200810040752 METAR KATL 040752Z 32005KT 10SM CLR 16/11 A3012 RMK AO2 SLP192 T01560106 $=
200810040652 METAR KATL 040652Z 00000KT 10SM CLR 17/11 A3011 RMK AO2 SLP191 T01670111 $=
200810040552 METAR KATL 040552Z 00000KT 10SM CLR 17/11 A3011 RMK AO2 SLP188 T01720106 10228 20167 51003 $=
200810040452 METAR KATL 040452Z 00000KT 10SM FEW060 17/11 A3011 RMK AO2 SLP188 T01720111 402670144 $=
200810040352 METAR KATL 040352Z 00000KT 10SM FEW060 20/11 A3011 RMK AO2 SLP190 T02000106 $=
200810040252 METAR KATL 040252Z 00000KT 10SM SCT060 20/11 A3010 RMK AO2 SLP186 T02000106 53019 $=
200810040152 METAR KATL 040152Z 29003KT 10SM SCT065 22/11 A3008 RMK AO2 SLP179 T02170106 $=
200810040052 METAR KATL 040052Z 00000KT 10SM BKN065 22/11 A3006 RMK AO2 SLP172 T02170111 $=
200810032352 METAR KATL 032352Z 27003KT 10SM FEW060 23/10 A3004 RMK AO2 SLP168 T02280100 10267 20228 53009=
200810032252 METAR KATL 032252Z 29004KT 10SM FEW060 23/10 A3002 RMK AO2 SLP162 T02330100=
200810032152 METAR KATL 032152Z 26006KT 10SM SCT065 25/09 A3002 RMK AO2 SLP159 T02500094=
200810032052 METAR KATL 032052Z VRB04KT 10SM SCT065 26/09 A3002 RMK AO2 SLP158 T02610094 56011=
200810031952 METAR KATL 031952Z 27005KT 10SM SCT060 25/09 A3002 RMK AO2 SLP158 T02500094=
200810031852 METAR KATL 031852Z 31007KT 10SM BKN060 24/10 A3003 RMK AO2 SLP164 T02440100=
200810031752 METAR KATL 031752Z 26007KT 10SM SCT055 25/09 A3005 RMK AO2 SLP169 T02500094 10250 20144 58004=
200810031652 METAR KATL 031652Z 31009G14KT 10SM SCT055 24/10 A3006 RMK AO2 SLP173 T02440100=
200810031552 METAR KATL 031552Z 00000KT 10SM FEW050 22/09 A3006 RMK AO2 SLP174 T02220094=
200810031452 METAR KATL 031452Z 00000KT 10SM CLR 21/09 A3006 RMK AO2 SLP174 T02060089 51014=
200810031352 METAR KATL 031352Z 14005KT 10SM CLR 18/07 A3005 RMK AO2 SLP171 T01830067=
200810031252 METAR KATL 031252Z 11003KT 10SM FEW070 17/07 A3004 RMK AO2 SLP166 T01670067=
200810031152 METAR KATL 031152Z 09003KT 10SM SCT055 SCT070 15/07 A3002 RMK AO2 SLP162 T01500067 10161 20144 53013=
200810031052 METAR KATL 031052Z 12003KT 10SM BKN060 BKN070 14/08 A3001 RMK AO2 SLP156 T01440078=
200810030952 METAR KATL 030952Z 00000KT 10SM OVC065 16/07 A2999 RMK AO2 SLP151 T01560072=
200810030852 METAR KATL 030852Z 00000KT 10SM FEW055 15/09 A2998 RMK AO2 SLP147 T01500089 53001=
200810030752 METAR KATL 030752Z 00000KT 10SM SCT055 15/09 A2998 RMK AO2 SLP146 T01500089=
200810030652 METAR KATL 030652Z 00000KT 10SM SCT060 16/08 A2998 RMK AO2 SLP145 T01560078=
200810030552 METAR KATL 030552Z 00000KT 10SM SCT060 16/08 A2998 RMK AO2 SLP145 T01610078 10194 20161 51003=
200810030452 METAR KATL 030452Z 14003KT 10SM FEW065 16/09 A2998 RMK AO2 SLP146 T01610089 402330100=
200810030352 METAR KATL 030352Z 00000KT 10SM SCT065 18/07 A2998 RMK AO2 SLP145 T01780072=
200810030252 METAR KATL 030252Z 01004KT 10SM BKN060 19/07 A2997 RMK AO2 SLP143 T01940067 53013=
200810030152 METAR KATL 030152Z 00000KT 10SM FEW070 19/07 A2995 RMK AO2 SLP139 T01890067=
200810030052 METAR KATL 030052Z 34005KT 10SM CLR 19/07 A2994 RMK AO2 SLP135 T01940067=
200810022352 METAR KATL 022352Z 32005KT 10SM CLR 19/07 A2993 RMK AO2 SLP132 T01940067 10233 20194 53004=
200810022252 METAR KATL 022252Z 31006KT 10SM CLR 21/06 A2992 RMK AO2 SLP128 T02060061=
200810022152 METAR KATL 022152Z 34008KT 10SM FEW070 22/06 A2991 RMK AO2 SLP126 T02220061=
200810022052 METAR KATL 022052Z 32007KT 10SM FEW065 22/06 A2992 RMK AO2 SLP127 T02220061 56013=
200810021952 METAR KATL 021952Z 34009G18KT 10SM FEW065 23/06 A2992 RMK AO2 SLP128 T02280061=
200810021852 METAR KATL 021852Z 30012KT 10SM FEW065 23/06 A2993 RMK AO2 SLP131 T02280061=
200810021752 METAR KATL 021752Z 28013G18KT 10SM FEW065 22/06 A2996 RMK AO2 SLP140 T02220056 10222 20106 58015=
200810021652 METAR KATL 021652Z 31013G18KT 10SM FEW065 21/06 A2998 RMK AO2 SLP147 T02110056=
200810021552 METAR KATL 021552Z 33010G14KT 10SM FEW085 19/05 A3000 RMK AO2 SLP154 T01940050=
200810021452 METAR KATL 021452Z 31005KT 10SM CLR 18/06 A3000 RMK AO2 SLP156 T01780056 51014=
200810021352 METAR KATL 021352Z 31008KT 10SM CLR 14/07 A3000 RMK AO2 SLP154 T01440067=
200810021252 METAR KATL 021252Z 31008KT 10SM CLR 12/06 A2998 RMK AO2 SLP150 T01220061 $=
200810021152 METAR KATL 021152Z 30005KT 10SM CLR 11/06 A2996 RMK AO2 SLP143 T01060056 10133 20100 53009 $=
200810021052 METAR KATL 021052Z 31007KT 10SM CLR 11/06 A2995 RMK AO2 SLP138 T01060056=
200810020952 METAR KATL 020952Z 29006KT 10SM CLR 11/06 A2994 RMK AO2 SLP136 T01060056=
200810020852 METAR KATL 020852Z 27003KT 10SM CLR 11/06 A2993 RMK AO2 SLP132 T01110056 55000=
200810020752 METAR KATL 020752Z 30004KT 10SM CLR 12/06 A2993 RMK AO2 SLP130 T01170056=
200810020652 METAR KATL 020652Z 32006KT 10SM CLR 12/06 A2993 RMK AO2 SLP131 T01220056=
200810020552 METAR KATL 020552Z 31004KT 10SM CLR 13/06 A2993 RMK AO2 SLP131 T01330056 10194 20128 50003=
200810020452 METAR KATL 020452Z 29004KT 10SM CLR 13/06 A2994 RMK AO2 SLP133 T01280056 402330128=
200810020352 METAR KATL 020352Z 29004KT 10SM CLR 14/05 A2993 RMK AO2 SLP131 T01440050=
200810020252 METAR KATL 020252Z 32003KT 10SM CLR 16/05 A2992 RMK AO2 SLP129 T01610050 51018=
200810020152 METAR KATL 020152Z 32005KT 10SM CLR 17/04 A2991 RMK AO2 SLP125 T01720044=
200810020052 METAR KATL 020052Z 34009KT 10SM CLR 19/04 A2989 RMK AO2 SLP118 T01890044=
200810012352 METAR KATL 012352Z 33009KT 10SM CLR 19/04 A2987 RMK AO2 SLP110 T01940044 10233 20194 53012=
200810012252 METAR KATL 012252Z 33013G20KT 10SM CLR 21/04 A2985 RMK AO2 SLP102 T02110039=
200810012152 METAR KATL 012152Z 30012KT 10SM CLR 22/04 A2984 RMK AO2 SLP097 T02220039=
200810012052 METAR KATL 012052Z 32015G20KT 10SM FEW070 23/04 A2984 RMK AO2 SLP097 T02280039 55005=
200810011952 METAR KATL 011952Z 31012G21KT 10SM CLR 23/05 A2983 RMK AO2 SLP095 T02280050=
200810011852 METAR KATL 011852Z 31010G23KT 10SM CLR 23/05 A2983 RMK AO2 SLP095 T02280050=
200810011752 METAR KATL 011752Z 31017G23KT 10SM FEW250 23/04 A2985 RMK AO2 SLP101 T02280044 10228 20150 58011=
200810011652 METAR KATL 011652Z 33012G20KT 10SM CLR 22/06 A2987 RMK AO2 SLP106 T02170056=
200810011552 METAR KATL 011552Z 34015G19KT 10SM CLR 21/06 A2988 RMK AO2 SLP110 T02060061=
200810011452 METAR KATL 011452Z 32013KT 10SM CLR 19/08 A2989 RMK AO2 SLP113 T01890083 51011=
200810011352 METAR KATL 011352Z 32013KT 10SM CLR 18/08 A2988 RMK AO2 SLP112 T01780083=
200810011252 METAR KATL 011252Z 32009KT 10SM CLR 16/09 A2987 RMK AO2 SLP107 T01610089=
