##########################################################
# Query made at 04/19/2024 23:09:08 UTC
# Time interval: from 12/01/2008 12:00  to 12/31/2008 12:59  UTC
##########################################################

##########################################################
# KATL, Atlanta, Hartsfield - Jackson Atlanta International Airport (United States)
# WMO index: 72219. WIGOS ID: 0-20000-0-72219
# Latitude 33-38-59N. Longitude 084-25-00W. Altitude 312 m.
##########################################################

200812311252 METAR KATL 311252Z 32015G21KT 10SM FEW250 08/01 A2996 RMK AO2 SLP147 T00780006=
200812311152 METAR KATL 311152Z 29012KT 10SM CLR 07/01 A2994 RMK AO2 SLP139 T00720006 10111 20072 55006=
200812311052 METAR KATL 311052Z 28010KT 10SM CLR 07/01 A2993 RMK AO2 SLP134 T00720006=
200812310952 METAR KATL 310952Z 26008KT 10SM CLR 08/00 A2994 RMK AO2 SLP136 T00830000=
200812310852 METAR KATL 310852Z 27010KT 10SM CLR 09/M01 A2996 RMK AO2 SLP144 T00891006 58004=
200812310752 METAR KATL 310752Z 27009KT 10SM CLR 08/M01 A2997 RMK AO2 SLP148 T00831011=
200812310652 METAR KATL 310652Z 27010KT 10SM CLR 10/M01 A2998 RMK AO2 SLP151 T01001011=
200812310552 METAR KATL 310552Z 25009KT 10SM SCT250 11/M01 A2997 RMK AO2 SLP148 T01111011 10139 20100 56017=
200812310452 METAR KATL 310452Z 24008KT 10SM BKN250 11/M02 A2998 RMK AO2 SLP152 T01111017 401940028=
200812310352 METAR KATL 310352Z 23006KT 10SM BKN250 10/M01 A2999 RMK AO2 SLP157 T01001006=
200812310252 METAR KATL 310252Z 25009KT 10SM BKN250 12/M02 A3002 RMK AO2 SLP168 T01221017 58004=
200812310152 METAR KATL 310152Z 25009KT 10SM BKN250 13/M01 A3004 RMK AO2 SLP172 T01281011=
200812310052 METAR KATL 310052Z 25005KT 10SM BKN250 13/M01 A3004 RMK AO2 SLP175 T01331006=
200812302352 METAR KATL 302352Z 23006KT 10SM BKN250 13/01 A3004 RMK AO2 SLP174 T01330006 10194 20133 55005=
200812302252 METAR KATL 302252Z 20006KT 10SM BKN250 15/02 A3003 RMK AO2 SLP172 T01500022=
200812302152 METAR KATL 302152Z 22005KT 10SM SCT250 18/M01 A3003 RMK AO2 SLP171 T01781011=
200812302052 METAR KATL 302052Z 24009KT 10SM FEW250 19/M01 A3005 RMK AO2 SLP177 T01891011 56023=
200812301952 METAR KATL 301952Z 26007KT 10SM FEW250 19/M01 A3007 RMK AO2 SLP182 T01891011=
200812301852 METAR KATL 301852Z 27005KT 10SM FEW250 18/M01 A3009 RMK AO2 SLP190 T01781011=
200812301752 METAR KATL 301752Z 31007KT 10SM FEW250 16/00 A3012 RMK AO2 SLP201 T01610000 10161 20033 58023=
200812301652 METAR KATL 301652Z 30006KT 10SM FEW250 14/M01 A3016 RMK AO2 SLP215 T01391011=
200812301552 METAR KATL 301552Z 31008KT 10SM CLR 11/M02 A3019 RMK AO2 SLP225 T01111022=
200812301452 METAR KATL 301452Z 29008KT 10SM CLR 08/M03 A3019 RMK AO2 SLP228 T00781028 53003=
200812301352 METAR KATL 301352Z 30005KT 10SM CLR 06/M03 A3018 RMK AO2 SLP225 T00561028=
200812301252 METAR KATL 301252Z 27004KT 10SM CLR 04/M04 A3018 RMK AO2 SLP225 T00391039=
200812301152 METAR KATL 301152Z 28008KT 10SM CLR 03/M03 A3018 RMK AO2 SLP226 T00331033 10050 20028 55000=
200812301052 METAR KATL 301052Z 29006KT 10SM CLR 03/M03 A3016 RMK AO2 SLP216 T00331033=
200812300952 METAR KATL 300952Z 29006KT 10SM CLR 03/M03 A3017 RMK AO2 SLP218 T00331028=
200812300852 METAR KATL 300852Z 30005KT 10SM CLR 04/M03 A3018 RMK AO2 SLP224 T00391028 56010=
200812300752 METAR KATL 300752Z 29003KT 10SM CLR 05/M03 A3019 RMK AO2 SLP224 T00501028=
200812300652 METAR KATL 300652Z 28006KT 10SM CLR 04/M03 A3020 RMK AO2 SLP229 T00441028=
200812300552 METAR KATL 300552Z 28006KT 10SM CLR 05/M03 A3021 RMK AO2 SLP233 T00501028 10100 20050 56007=
200812300452 METAR KATL 300452Z 29005KT 10SM CLR 06/M03 A3022 RMK AO2 SLP235 T00611028 401500061=
200812300352 METAR KATL 300352Z 27005KT 10SM CLR 07/M03 A3022 RMK AO2 SLP238 T00721028=
200812300252 METAR KATL 300252Z 29006KT 10SM CLR 07/M02 A3023 RMK AO2 SLP241 T00721017 51005=
200812300152 METAR KATL 300152Z 30006KT 10SM CLR 08/M02 A3023 RMK AO2 SLP242 T00781017=
200812300052 METAR KATL 300052Z 29005KT 10SM CLR 09/M02 A3023 RMK AO2 SLP241 T00891017=
200812292352 METAR KATL 292352Z 31006KT 10SM CLR 09/M03 A3022 RMK AO2 SLP237 T00941028 10150 20094 53008=
200812292252 METAR KATL 292252Z 32008KT 10SM CLR 11/M03 A3021 RMK AO2 SLP232 T01111033=
200812292152 METAR KATL 292152Z 32012G19KT 10SM CLR 13/M04 A3020 RMK AO2 SLP228 T01281039=
200812292052 METAR KATL 292052Z 30010KT 10SM FEW280 14/M04 A3020 RMK AO2 SLP226 T01391039 55005=
200812291952 METAR KATL 291952Z 29012KT 10SM FEW280 14/M03 A3019 RMK AO2 SLP224 T01441033=
200812291852 METAR KATL 291852Z 30016KT 10SM FEW280 14/M04 A3020 RMK AO2 SLP225 T01441039=
200812291752 METAR KATL 291752Z 31009G17KT 10SM FEW280 14/M02 A3021 RMK AO2 SLP231 T01391017 10139 20072 58010=
200812291652 METAR KATL 291652Z 33010KT 10SM FEW250 SCT280 12/M02 A3024 RMK AO2 SLP241 T01221017=
200812291552 METAR KATL 291552Z 32006KT 10SM FEW150 SCT250 SCT280 11/M01 A3025 RMK AO2 SLP245 T01061006=
200812291452 METAR KATL 291452Z 32012KT 10SM FEW150 SCT250 09/01 A3024 RMK AO2 SLP243 T00890006 51014=
200812291352 METAR KATL 291352Z 32012KT 10SM FEW090 SCT120 SCT250 08/02 A3024 RMK AO2 SLP241 T00780022=
200812291252 METAR KATL 291252Z 31007KT 10SM BKN110 BKN150 07/03 A3022 RMK AO2 SLP234 VIRGA E-SE AND S-SW T00720028=
200812291152 METAR KATL 291152Z 32009KT 10SM BKN110 BKN150 08/03 A3020 RMK AO2 SLP230 70010 T00780033 10106 20072 53009=
200812291052 METAR KATL 291052Z 31009KT 10SM FEW070 SCT120 BKN150 08/04 A3019 RMK AO2 SLP223 T00780044=
200812290952 METAR KATL 290952Z 32006KT 10SM SCT055 SCT070 BKN150 08/06 A3017 RMK AO2 SLP216 T00830056=
200812290852 METAR KATL 290852Z 32010KT 10SM SCT080 BKN150 09/07 A3017 RMK AO2 SLP219 T00940067 53003=
200812290752 METAR KATL 290752Z 31006KT 10SM SCT110 BKN150 10/08 A3017 RMK AO2 SLP217 VIRGA OHD-NE T01000078=
200812290652 METAR KATL 290652Z 32006KT 10SM BKN100 BKN150 10/08 A3016 RMK AO2 SLP214 VIRGA OHD-N-NE T01000083=
200812290552 METAR KATL 290552Z 32005KT 10SM SCT110 BKN150 11/09 A3017 RMK AO2 RAE12 SLP215 VIRGA OHD-E-S P0000 60000 T01060089 10122 20106 58005=
200812290452 METAR KATL 290452Z 34008KT 10SM -RA FEW010 SCT026 BKN100 11/08 A3017 RMK AO2 RAB50 PRESFR SLP215 P0000 T01110083 401780111=
200812290352 METAR KATL 290352Z 30005KT 10SM OVC019 11/08 A3018 RMK AO2 SLP220 VIRGA S-W T01110083=
200812290252 METAR KATL 290252Z 31005KT 10SM BKN019 OVC026 12/08 A3018 RMK AO2 SLP218 CIG 018V021 T01170083 50000=
200812290152 METAR KATL 290152Z 32004KT 10SM OVC018 12/09 A3020 RMK AO2 SLP224 CIG 017V020 T01170089=
200812290052 METAR KATL 290052Z 29003KT 10SM OVC015 12/08 A3019 RMK AO2 SLP222 CIG 014V017 T01170083=
200812282352 METAR KATL 282352Z 31006KT 10SM OVC015 12/08 A3018 RMK AO2 RAE2257 SLP218 CIG 014V017 P0000 60000 T01220083 10139 20122 53004=
200812282333 SPECI KATL 282333Z 33005KT 10SM BKN016 OVC120 12/08 A3017 RMK AO2 RAE2257 P0000=
200812282333 SPECI KATL 282333Z 33005KT 10SM BKN016 OVC120 12/08 A3017 RMK AO2 RAE2257 P0000=
200812282319 SPECI KATL 282319Z 34005KT 10SM SCT021 SCT046 BKN120 12/08 A3017 RMK AO2 RAE2257 P0000=
200812282319 SPECI KATL 282319Z 34005KT 10SM SCT021 SCT046 BKN120 12/08 A3017 RMK AO2 RAE2257 P0000=
200812282252 METAR KATL 282252Z 32006KT 9SM -RA BKN016 BKN024 OVC040 13/09 A3017 RMK AO2 RAB45 SLP214 P0000 T01280094=
200812282237 SPECI KATL 282237Z 31005KT 10SM FEW013 OVC016 13/09 A3017 RMK AO2=
200812282237 SPECI KATL 282237Z 31005KT 10SM FEW013 OVC016 13/09 A3017 RMK AO2=
200812282152 METAR KATL 282152Z 31006KT 10SM OVC014 13/10 A3017 RMK AO2 TSB04E23 SLP216 CB DSPTD CIG 013V016 T01330100=
200812282124 SPECI KATL 282124Z 30008KT 9SM OVC013 13/11 A3017 RMK AO2 TSB04E23 CB DSPTD VIRGA OHD-ALQDS=
200812282124 SPECI KATL 282124Z 30008KT 9SM OVC013 13/11 A3017 RMK AO2 TSB04E23 CB DSPTD VIRGA OHD-ALQDS=
200812282104 SPECI KATL 282104Z 30005KT 9SM TS OVC011CB 13/11 A3016 RMK AO2 TSB04 OCNL LTGIC TS OHD-NW-N MOV NE CB OHD-NW-N MOV NE VIRGA OHD-NW-N=
200812282104 SPECI KATL 282104Z 30005KT 9SM TS OVC011CB 13/11 A3016 RMK AO2 TSB04 OCNL LTGIC TS OHD-NW-N MOV NE CB OHD-NW-N MOV NE VIRGA OHD-NW-N=
200812282052 SPECI KATL 282052Z 30006KT 9SM OVC011CB 14/11 A3017 RMK AO2 RAB1953E06 SLP213 CB OHD-NW-N VIRGA OHD-NW-N P0000 60000 T01390111 55006=
200812281952 METAR KATL 281952Z 29004KT 9SM OVC013 14/12 A3015 RMK AO2 SLP208 T01390122=
200812281852 METAR KATL 281852Z 30004KT 9SM OVC013 14/12 A3016 RMK AO2 RAB00E37 SLP211 P0000 T01390117=
200812281752 METAR KATL 281752Z 29008KT 7SM SCT004 OVC013 14/12 A3019 RMK AO2 RAB1656E51 SLP220 P0000 60010 T01390122 10178 20139 58000=
200812281749 SPECI KATL 281749Z 31008KT 7SM -RA SCT004 OVC013 14/13 A3019 RMK AO2 RAB1656 P0000=
200812281749 SPECI KATL 281749Z 31008KT 7SM -RA SCT004 OVC013 14/13 A3019 RMK AO2 RAB1656 P0000=
200812281723 SPECI KATL 281723Z 33007KT 6SM -RA BR BKN004 OVC009 14/13 A3019 RMK AO2 RAB1656 CIG 003V009 P0000=
200812281723 SPECI KATL 281723Z 33007KT 6SM -RA BR BKN004 OVC009 14/13 A3019 RMK AO2 RAB1656 CIG 003V009 P0000=
200812281701 SPECI KATL 281701Z 32007KT 1/2SM -RA BR BKN004 OVC009 14/14 A3020 RMK AO2 SFC VIS 5 RAB1656 P0000=
200812281701 SPECI KATL 281701Z 32007KT 1/2SM -RA BR BKN004 OVC009 14/14 A3020 RMK AO2 SFC VIS 5 RAB1656 P0000=
200812281652 METAR KATL 281652Z 32007KT 2SM BR BKN004 OVC009 14/14 A3021 RMK AO2 SFC VIS 5 RAE09 SLP226 CIG 002V008 P0000 T01440139=
200812281624 SPECI KATL 281624Z 32010KT 3SM BR BKN004 OVC010 15/14 A3022 RMK AO2 SFC VIS 5 RAE09 CIG 002V0008 P0000 $=
200812281624 SPECI KATL 281624Z 32010KT 3SM BR BKN004 OVC010 15/14 A3022 RMK AO2 SFC VIS 5 RAE09 CIG 002V0008 P0000 $=
200812281622 SPECI KATL 281622Z 30009KT 1/2SM BR BKN004 OVC010 15/14 A3021 RMK AO2 SFC VIS 3 RAE09 CIG 002V0008 P0000=
200812281622 SPECI KATL 281622Z 30009KT 1/2SM BR BKN004 OVC010 15/14 A3021 RMK AO2 SFC VIS 3 RAE09 CIG 002V0008 P0000=
200812281613 SPECI KATL 281613Z 32008KT 1SM BR BKN004 OVC010 16/15 A3021 RMK AO2 SFC VIS 2 RAE09 CIG 002V010 P0000=
200812281613 SPECI KATL 281613Z 32008KT 1SM BR BKN004 OVC010 16/15 A3021 RMK AO2 SFC VIS 2 RAE09 CIG 002V010 P0000=
200812281552 SPECI KATL 281552Z 31009KT 2SM R09R/5500VP6000FT -RA BR OVC006 15/14 A3021 RMK AO2 RAE1454B28 SLP227 CIG 002V008 P0004 T01500144=
200812281533 SPECI KATL 281533Z 24006KT 1 1/2SM R09R/5500VP6000FT -RA BR BKN006 OVC010 18/17 A3020 RMK AO2 SFC VIS 1 3/4 RAE1454B28 P0001=
200812281533 SPECI KATL 281533Z 24006KT 1 1/2SM R09R/5500VP6000FT -RA BR BKN006 OVC010 18/17 A3020 RMK AO2 SFC VIS 1 3/4 RAE1454B28 P0001=
200812281452 METAR KATL 281452Z 20008KT 5SM -RA BR BKN008 BKN013 OVC019 18/17 A3019 RMK AO2 RAE29B45 SLP219 CIG 005V010 P0005 60006 T01780172 50008=
200812281427 SPECI KATL 281427Z 20009KT 5SM -RA BR BKN008 BKN013 OVC019 18/17 A3018 RMK AO2 BKN008V SCT P0005=
200812281427 SPECI KATL 281427Z 20009KT 5SM -RA BR BKN008 BKN013 OVC019 18/17 A3018 RMK AO2 BKN008V SCT P0005=
200812281418 SPECI KATL 281418Z 20008KT 5SM -RA BR SCT008 BKN013 OVC019 18/17 A3018 RMK AO2 P0004=
200812281418 SPECI KATL 281418Z 20008KT 5SM -RA BR SCT008 BKN013 OVC019 18/17 A3018 RMK AO2 P0004=
200812281405 SPECI KATL 281405Z 18009KT 5SM -RA BR SCT008 BKN017 18/17 A3017 RMK AO2 P0002=
200812281405 SPECI KATL 281405Z 18009KT 5SM -RA BR SCT008 BKN017 18/17 A3017 RMK AO2 P0002=
200812281352 METAR KATL 281352Z 22009KT 4SM -RA BR BKN008 OVC014 18/17 A3019 RMK AO2 RAB1255E09B28 SLP219 P0001 T01780167=
200812281252 METAR KATL 281252Z 20008KT 10SM OVC006 17/17 A3017 RMK AO2 SLP212 T01720167=
200812281152 METAR KATL 281152Z 20008KT 9SM OVC006 17/16 A3016 RMK AO2 SLP211 60004 70004 T01720161 10172 20144 55001=
200812281052 METAR KATL 281052Z 20009KT 10SM OVC008 16/16 A3016 RMK AO2 SLP209 T01610156=
200812281006 SPECI KATL 281006Z 19008KT 10SM OVC009 16/15 A3015 RMK AO2 CIG 006V011=
200812281006 SPECI KATL 281006Z 19008KT 10SM OVC009 16/15 A3015 RMK AO2 CIG 006V011=
200812280952 METAR KATL 280952Z 17008KT 10SM OVC011 16/15 A3015 RMK AO2 RAE08 CIG 009V015 SLP207 P0001 T01560150=
200812280934 SPECI KATL 280934Z 18006KT 9SM OVC013 15/14 A3015 RMK AO2 RAE08 P0001=
200812280934 SPECI KATL 280934Z 18006KT 9SM OVC013 15/14 A3015 RMK AO2 RAE08 P0001=
200812280852 METAR KATL 280852Z 19003KT 3SM -RA BR SCT015 BKN024 OVC055 15/14 A3016 RMK AO2 RAB25 SLP212 P0003 60003 T01500144 55010=
200812280843 SPECI KATL 280843Z 19005KT 3SM -RA BR SCT015 BKN027 OVC055 15/14 A3017 RMK AO2 RAB25 P0002=
200812280843 SPECI KATL 280843Z 19005KT 3SM -RA BR SCT015 BKN027 OVC055 15/14 A3017 RMK AO2 RAB25 P0002=
200812280813 SPECI KATL 280813Z 18005KT 10SM SCT015 BKN050 BKN080 14/14 A3016 RMK AO2=
200812280813 SPECI KATL 280813Z 18005KT 10SM SCT015 BKN050 BKN080 14/14 A3016 RMK AO2=
200812280752 METAR KATL 280752Z 15007KT 9SM BKN015 BKN050 BKN080 15/13 A3016 RMK AO2 SLP210 T01500133=
200812280727 SPECI KATL 280727Z 18007KT 8SM BKN015 BKN050 BKN080 15/14 A3018 RMK AO2=
200812280727 SPECI KATL 280727Z 18007KT 8SM BKN015 BKN050 BKN080 15/14 A3018 RMK AO2=
200812280652 METAR KATL 280652Z 15008KT 9SM FEW002 SCT042 BKN080 14/13 A3017 RMK AO2 SLP213 T01440133=
200812280608 SPECI KATL 280608Z 14003KT 9SM FEW002 BKN042 OVC080 14/13 A3020 RMK AO2=
200812280608 SPECI KATL 280608Z 14003KT 9SM FEW002 BKN042 OVC080 14/13 A3020 RMK AO2=
200812280552 METAR KATL 280552Z 11004KT 9SM BKN042 BKN055 OVC080 14/13 A3020 RMK AO2 SLP223 T01440133 10150 20139 53002=
200812280452 METAR KATL 280452Z 13004KT 8SM BKN042 OVC065 14/14 A3020 RMK AO2 SLP226 T01440139 401670094=
200812280352 METAR KATL 280352Z 13007KT 6SM BR SCT001 BKN048 14/14 A3018 RMK AO2 SLP219 T01390139=
200812280344 SPECI KATL 280344Z 13006KT 6SM BR FEW001 SCT048 14/14 A3019 RMK AO2=
200812280344 SPECI KATL 280344Z 13006KT 6SM BR FEW001 SCT048 14/14 A3019 RMK AO2=
200812280336 SPECI KATL 280336Z 13006KT 2 1/2SM BR SCT001 BKN003 BKN048 14/14 A3019 RMK AO2 SFC VIS 3=
200812280336 SPECI KATL 280336Z 13006KT 2 1/2SM BR SCT001 BKN003 BKN048 14/14 A3019 RMK AO2 SFC VIS 3=
200812280327 SPECI KATL 280327Z 14007KT 1SM BR FEW001 SCT003 OVC048 14/14 A3018 RMK AO2 SFC VIS 2 1/2=
200812280327 SPECI KATL 280327Z 14007KT 1SM BR FEW001 SCT003 OVC048 14/14 A3018 RMK AO2 SFC VIS 2 1/2=
200812280259 SPECI KATL 280259Z 12005KT 1SM BR FEW001 BKN003 BKN050 14/14 A3019 RMK AO2 SFC VIS 2 1/2=
200812280259 SPECI KATL 280259Z 12005KT 1SM BR FEW001 BKN003 BKN050 14/14 A3019 RMK AO2 SFC VIS 2 1/2=
200812280252 METAR KATL 280252Z 13005KT 1/16SM BR FEW001 BKN003 OVC050 14/14 A3019 RMK AO2 SFC VIS 2 SLP223 BINOVC OHD-W T01440139 58004=
200812280213 SPECI KATL 280213Z 13004KT 1/16SM R09R/6000VP6000FT BR FEW001 BKN002 OVC005 14/14 A3019 RMK AO2 SFC VIS 1 1/4=
200812280213 SPECI KATL 280213Z 13004KT 1/16SM R09R/6000VP6000FT BR FEW001 BKN002 OVC005 14/14 A3019 RMK AO2 SFC VIS 1 1/4=
200812280152 METAR KATL 280152Z 12006KT 1/16SM R09R/5000VP6000FT FG OVC001 14/14 A3019 RMK AO2 SFC VIS 1/4 SLP223 T01440144=
200812280052 METAR KATL 280052Z 12005KT 1/16SM R09R/4500VP6000FT FG VV001 14/14 A3021 RMK AO2 SFC VIS 1/8 SLP230 T01440144=
200812280034 SPECI KATL 280034Z 11007KT 1/16SM R09R/5000VP6000FT FG VV001 14/14 A3020 RMK AO2=
200812280034 SPECI KATL 280034Z 11007KT 1/16SM R09R/5000VP6000FT FG VV001 14/14 A3020 RMK AO2=
200812280016 SPECI KATL 280016Z 11007KT 1/8SM R09R/3500V5500FT FG VV001 14/14 A3021 RMK AO2 SFC VIS 1/4=
200812280016 SPECI KATL 280016Z 11007KT 1/8SM R09R/3500V5500FT FG VV001 14/14 A3021 RMK AO2 SFC VIS 1/4=
200812272352 METAR KATL 272352Z 11008KT 1/8SM R09R/3500VP6000FT FG OVC002 14/14 A3020 RMK AO2 SFC VIS 1/4 SLP228 CIG 001V003 T01440144 10167 20144 53007=
200812272311 SPECI KATL 272311Z 12008KT 1/2SM R09R/P6000FT BR OVC002 15/14 A3019 RMK AO2 SFC VIS 1 CIG 001V004=
200812272311 SPECI KATL 272311Z 12008KT 1/2SM R09R/P6000FT BR OVC002 15/14 A3019 RMK AO2 SFC VIS 1 CIG 001V004=
200812272252 METAR KATL 272252Z 11007KT 3/4SM BR OVC002 15/14 A3019 RMK AO2 SFC VIS 1 1/2 SLP223 CIG 001V004 T01500144=
200812272236 SPECI KATL 272236Z 11010KT 3/4SM BR OVC003 15/14 A3018 RMK AO2 SFC VIS 2 1/2=
200812272236 SPECI KATL 272236Z 11010KT 3/4SM BR OVC003 15/14 A3018 RMK AO2 SFC VIS 2 1/2=
200812272155 SPECI KATL 272155Z 11008KT 2SM BR OVC003 16/14 A3018 RMK AO2 SFC VIS 6 BINOVC OHD $=
200812272155 SPECI KATL 272155Z 11008KT 2SM BR OVC003 16/14 A3018 RMK AO2 SFC VIS 6 BINOVC OHD $=
200812272152 METAR KATL 272152Z 10009KT 6SM BR OVC004 16/14 A3018 RMK AO2 SLP221 BINOVC OHD T01560144=
200812272145 SPECI KATL 272145Z 11008KT 6SM BR OVC004 16/14 A3018 RMK AO2=
200812272145 SPECI KATL 272145Z 11008KT 6SM BR OVC004 16/14 A3018 RMK AO2=
200812272052 METAR KATL 272052Z 10008KT 6SM BR OVC006 16/14 A3018 RMK AO2 SLP220 VIRGA DSNT S-SW T01610144 56027=
200812271952 METAR KATL 271952Z 10007KT 6SM BR BKN006 OVC009 17/14 A3020 RMK AO2 SLP226 T01670144=
200812271852 METAR KATL 271852Z 09008KT 6SM BR BKN006 BKN009 16/14 A3023 RMK AO2 SLP236 T01560139=
200812271810 SPECI KATL 271810Z 13006KT 5SM BR BKN005 OVC009 15/14 A3026 RMK AO2=
200812271810 SPECI KATL 271810Z 13006KT 5SM BR BKN005 OVC009 15/14 A3026 RMK AO2=
200812271752 METAR KATL 271752Z 13005KT 4SM BR OVC003 14/13 A3027 RMK AO2 SLP249 CIG 001V007 TWRINC 60000 T01440133 10144 20100 58024=
200812271744 SPECI KATL 271744Z 12008KT 4SM BR OVC003 14/13 A3027 RMK AO2 CIG 003V007 CIG 001V007 TWRINC=
200812271744 SPECI KATL 271744Z 12008KT 4SM BR OVC003 14/13 A3027 RMK AO2 CIG 003V007 CIG 001V007 TWRINC=
200812271735 SPECI KATL 271735Z 11007KT 1 1/2SM BR OVC003 14/13 A3027 RMK AO2 SFC VIS 4 CIG 001V007 TWRINC=
200812271735 SPECI KATL 271735Z 11007KT 1 1/2SM BR OVC003 14/13 A3027 RMK AO2 SFC VIS 4 CIG 001V007 TWRINC=
200812271716 SPECI KATL 271716Z 13007KT 1SM BR OVC003 14/13 A3028 RMK AO2 SFC VIS 3 CIG 001V007 TWRINC=
200812271716 SPECI KATL 271716Z 13007KT 1SM BR OVC003 14/13 A3028 RMK AO2 SFC VIS 3 CIG 001V007 TWRINC=
200812271658 SPECI KATL 271658Z 13007KT 1/4SM BR OVC003 13/13 A3029 RMK AO2 SFC VIS 3 TWRINC=
200812271658 SPECI KATL 271658Z 13007KT 1/4SM BR OVC003 13/13 A3029 RMK AO2 SFC VIS 3 TWRINC=
200812271652 METAR KATL 271652Z 13008KT 1/4SM BR OVC001 13/13 A3030 RMK AO2 SFC VIS 3 SLP261 TWRINC T01330128=
200812271552 METAR KATL 271552Z 13007KT 1/8SM BR OVC001 12/12 A3033 RMK AO2 SFC VIS 1 1/4 SLP273 TWRINC T01170117=
200812271452 METAR KATL 271452Z 12005KT 1/8SM R09R/3500V4500FT FG OVC001 11/11 A3034 RMK AO2 SFC VIS 1/2 SLP275 TWRINC 60000 T01110111 53003=
200812271423 SPECI KATL 271423Z 11007KT 1/8SM R09R/3000V3500FT BR OVC001 11/11 A3034 RMK AO2 SFC VIS 3/4 TWRINC=
200812271423 SPECI KATL 271423Z 11007KT 1/8SM R09R/3000V3500FT BR OVC001 11/11 A3034 RMK AO2 SFC VIS 3/4 TWRINC=
200812271352 METAR KATL 271352Z 11005KT 1/8SM R09R/5000VP6000FT BR OVC001 10/10 A3034 RMK AO2 SFC VIS 1 DZE32 SLP275 P0000 T01000100=
200812271252 METAR KATL 271252Z 11007KT 1/8SM R09R/P6000FT -DZ BR OVC001 10/10 A3033 RMK AO2 SFC VIS 1 DZE14B49 SLP271 P0000 T01000100=
200812271152 METAR KATL 271152Z 09008KT 1/8SM R09R/3000V4500FT -DZ FG VV001 10/09 A3033 RMK AO2 SFC VIS 1/2 SLP272 P0000 60000 70010 T01000094 10100 20094 55000=
200812271052 METAR KATL 271052Z 10008KT 1/8SM R09R/2400V2600FT -DZ FG VV001 09/09 A3032 RMK AO2 SFC VIS 1/2 SLP269 P0000 T00940094=
200812271041 SPECI KATL 271041Z 09008KT 1/8SM R09R/2000V2600FT -DZ FG VV001 09/09 A3031 RMK AO2 SFC VIS 1/2 P0000=
200812271041 SPECI KATL 271041Z 09008KT 1/8SM R09R/2000V2600FT -DZ FG VV001 09/09 A3031 RMK AO2 SFC VIS 1/2 P0000=
200812270952 METAR KATL 270952Z 09009KT 1/8SM R09R/2000FT -DZ FG VV001 10/09 A3032 RMK AO2 SFC VIS 1/4 SLP268 P0000 T01000094=
200812270855 SPECI KATL 270855Z 09006KT 1/8SM R09R/2000V2200FT -DZ FG VV001 10/09 A3033 RMK AO2 SFC VIS 1/2 P0000=
200812270855 SPECI KATL 270855Z 09006KT 1/8SM R09R/2000V2200FT -DZ FG VV001 10/09 A3033 RMK AO2 SFC VIS 1/2 P0000=
200812270852 METAR KATL 270852Z 08007KT 1/8SM R09R/2000V2400FT -DZ FG VV001 10/10 A3033 RMK AO2 SFC VIS 1/2 SLP272 P0000 60000 T01000100 57005=
200812270752 METAR KATL 270752Z 08008KT 1/8SM R09R/3500FT -DZ BR OVC001 09/09 A3034 RMK AO2 SFC VIS 3/4 SLP275 P0000 T00940094=
200812270652 METAR KATL 270652Z 09008KT 1/8SM R09R/2600V5000FT -DZ FG OVC001 09/09 A3034 RMK AO2 SFC VIS 1/2 SLP274 P0000 T00940094=
200812270552 METAR KATL 270552Z COR 09009KT 1/8SM R09R/2400V2800FT -DZ FG VV001 09/09 A3034 RMK AO2 SFC VIS 1/2 RAE03DZB03 SLP277 P0000 60010 T00940094 10100 20094 58008=
200812270538 SPECI KATL 270538Z 09008KT 1/8SM R09R/2400V3000FT -DZ BR VV001 09/09 A3035 RMK AO2 SFC VIS 1/2 RAE03DZB03 P0000=
200812270538 SPECI KATL 270538Z 09008KT 1/8SM R09R/2400V3000FT -DZ BR VV001 09/09 A3035 RMK AO2 SFC VIS 1/2 RAE03DZB03 P0000=
200812270452 METAR KATL 270452Z 09007KT 1/8SM -RA BR OVC002 09/09 A3037 RMK AO2 SFC VIS 2 DZE48RAB48 SLP285 P0001 T00940094 401280094=
200812270352 METAR KATL 270352Z 09007KT 1/16SM R09R/2800V3500FT -DZ FG VV001 09/09 A3037 RMK AO2 SFC VIS 1/2 SLP287 P0000 T00940094=
200812270259 SPECI KATL 270259Z 10007KT 1/16SM R09R/3500V5500FT -DZ BR OVC001 09/09 A3037 RMK AO2 SFC VIS 3/4 P0000=
200812270259 SPECI KATL 270259Z 10007KT 1/16SM R09R/3500V5500FT -DZ BR OVC001 09/09 A3037 RMK AO2 SFC VIS 3/4 P0000=
200812270252 METAR KATL 270252Z 09008KT 1/2SM R09R/4000V5000FT -DZ BR OVC002 09/09 A3037 RMK AO2 SFC VIS 3/4 RAE23DZB23 SLP285 P0000 60009 T00940094 51006=
200812270212 SPECI KATL 270212Z 10011KT 1/2SM -RA BR OVC003 10/09 A3036 RMK AO2 SFC VIS 6 P0000=
200812270212 SPECI KATL 270212Z 10011KT 1/2SM -RA BR OVC003 10/09 A3036 RMK AO2 SFC VIS 6 P0000=
200812270152 METAR KATL 270152Z 09010KT 1SM -RA BR BKN004 OVC012 10/09 A3036 RMK AO2 SFC VIS 5 DZE08RAB08 SLP283 CIG 003V007 P0008 T01000089=
200812270052 METAR KATL 270052Z 08011KT 1/2SM -DZ BR OVC002 09/09 A3037 RMK AO2 SFC VIS 1 3/4 RAE09DZB09 SLP284 P0001 T00940094=
200812262352 METAR KATL 262352Z 09012KT 1/2SM -RA BR OVC002 10/09 A3035 RMK AO2 SFC VIS 1 1/2 DZE50RAB50 SLP279 P0000 60000 T01000094 10122 20100 53003=
200812262252 METAR KATL 262252Z 08011KT 1/2SM -DZ BR OVC002 10/10 A3035 RMK AO2 SFC VIS 1 1/2 SLP277 P0000 T01000100=
200812262152 METAR KATL 262152Z 10008KT 1/2SM R09R/P6000FT -DZ BR BCFG OVC002 11/10 A3034 RMK AO2 SFC VIS 1 DZB52 SLP276 P0000 T01060100=
200812262052 METAR KATL 262052Z 09012KT 1/2SM R09R/6000VP6000FT BR BCFG OVC003 12/11 A3034 RMK AO2 SFC VIS 3 SLP274 VIS NE 1 E 2 SE 2 60000 T01170106 55006=
200812261952 METAR KATL 261952Z 07011KT 1/2SM BR BKN003 OVC005 12/11 A3033 RMK AO2 SFC VIS 4 SLP272 VIS NE 2 E 1 SE 2 T01170111=
200812261926 SPECI KATL 261926Z 08010KT 1/2SM BR OVC003 12/11 A3033 RMK AO2 SFC VIS 4=
200812261926 SPECI KATL 261926Z 08010KT 1/2SM BR OVC003 12/11 A3033 RMK AO2 SFC VIS 4=
200812261852 METAR KATL 261852Z 09009KT 1/8SM R09R/5000VP6000FT BR OVC002 12/12 A3034 RMK AO2 SFC VIS 3 DZE47 SLP274 P0000 T01220117=
200812261752 METAR KATL 261752Z 07010KT 1/8SM R09R/4500VP6000FT -DZ BR OVC002 12/12 A3036 RMK AO2 SFC VIS 1 SLP281 P0000 60000 T01220117 10128 20117 58005=
200812261652 METAR KATL 261652Z 09011KT 1/8SM -DZ BR OVC002 13/12 A3037 RMK AO2 SFC VIS 1 1/2 SLP286 P0000 T01280122=
200812261627 SPECI KATL 261627Z 08008KT 1/8SM R09R/5000VP6000FT -DZ BR OVC002 13/12 A3038 RMK AO2 SFC VIS 1 1/2 P0000=
200812261627 SPECI KATL 261627Z 08008KT 1/8SM R09R/5000VP6000FT -DZ BR OVC002 13/12 A3038 RMK AO2 SFC VIS 1 1/2 P0000=
200812261552 METAR KATL 261552Z 09010KT 1/8SM R09R/P6000FT -DZ BR OVC003 13/12 A3038 RMK AO2 SFC VIS 1 DZB47 SLP289 TWRINC P0000 T01280117=
200812261543 SPECI KATL 261543Z 09011KT 1/8SM BR OVC003 12/12 A3038 RMK AO2 SFC VIS 3 TWRINC=
200812261543 SPECI KATL 261543Z 09011KT 1/8SM BR OVC003 12/12 A3038 RMK AO2 SFC VIS 3 TWRINC=
200812261539 SPECI KATL 261539Z 08012KT 1/8SM BR OVC005 12/12 A3039 RMK AO2 SFC VIS 3 TWRINC=
200812261539 SPECI KATL 261539Z 08012KT 1/8SM BR OVC005 12/12 A3039 RMK AO2 SFC VIS 3 TWRINC=
200812261520 SPECI KATL 261520Z 08009KT 1 1/2SM BR OVC005 12/11 A3038 RMK AO2 SFC VIS 3=
200812261520 SPECI KATL 261520Z 08009KT 1 1/2SM BR OVC005 12/11 A3038 RMK AO2 SFC VIS 3=
200812261508 SPECI KATL 261508Z 09009KT 2SM BR OVC005 12/11 A3038 RMK AO2 SFC VIS 4=
200812261508 SPECI KATL 261508Z 09009KT 2SM BR OVC005 12/11 A3038 RMK AO2 SFC VIS 4=
200812261452 METAR KATL 261452Z 08009KT 2 1/2SM BR OVC007 12/11 A3037 RMK AO2 SFC VIS 5 SLP286 T01220111 53011=
200812261352 METAR KATL 261352Z 09009KT 10SM OVC007 12/10 A3035 RMK AO2 SLP278 T01170100=
200812261252 METAR KATL 261252Z 10007KT 9SM OVC008 12/09 A3035 RMK AO2 SLP276 T01170089=
200812261209 SPECI KATL 261209Z 08008KT 10SM OVC008 11/08 A3034 RMK AO2 CIG 008V011=
200812261209 SPECI KATL 261209Z 08008KT 10SM OVC008 11/08 A3034 RMK AO2 CIG 008V011=
200812261152 METAR KATL 261152Z 07008KT 10SM OVC010 11/08 A3034 RMK AO2 CIG 008V013 SLP274 70005 T01110083 10128 20111 53009=
200812261052 METAR KATL 261052Z 08008KT 10SM OVC012 12/08 A3033 RMK AO2 SLP270 T01170078=
200812261017 SPECI KATL 261017Z 07010KT 10SM OVC010 12/08 A3032 RMK AO2=
200812261017 SPECI KATL 261017Z 07010KT 10SM OVC010 12/08 A3032 RMK AO2=
200812260952 METAR KATL 260952Z 07009KT 10SM OVC008 12/09 A3032 RMK AO2 SLP266 T01220089=
200812260852 METAR KATL 260852Z 08006KT 10SM OVC008 12/09 A3031 RMK AO2 SLP264 T01220089 53000=
200812260752 METAR KATL 260752Z 08005KT 10SM OVC009 12/09 A3031 RMK AO2 SLP264 T01220089=
200812260652 METAR KATL 260652Z 09003KT 10SM OVC009 12/08 A3030 RMK AO2 SLP262 T01220083=
200812260647 SPECI KATL 260647Z 09003KT 10SM OVC009 12/08 A3031 RMK AO2=
200812260647 SPECI KATL 260647Z 09003KT 10SM OVC009 12/08 A3031 RMK AO2=
200812260552 METAR KATL 260552Z 09003KT 10SM OVC010 12/08 A3031 RMK AO2 SLP265 60001 T01220078 10128 20117 55002=
200812260452 METAR KATL 260452Z 08003KT 10SM OVC012 12/09 A3031 RMK AO2 SLP265 T01220089 401500100=
200812260446 SPECI KATL 260446Z 07003KT 10SM BKN012 OVC060 12/08 A3031 RMK AO2 401500100=
200812260446 SPECI KATL 260446Z 07003KT 10SM BKN012 OVC060 12/08 A3031 RMK AO2 401500100=
200812260430 SPECI KATL 260430Z 00000KT 10SM SCT012 OVC060 12/09 A3031 RMK AO2=
200812260430 SPECI KATL 260430Z 00000KT 10SM SCT012 OVC060 12/09 A3031 RMK AO2=
200812260409 SPECI KATL 260409Z 00000KT 10SM BKN012 OVC020 12/09 A3031 RMK AO2=
200812260409 SPECI KATL 260409Z 00000KT 10SM BKN012 OVC020 12/09 A3031 RMK AO2=
200812260352 METAR KATL 260352Z 03003KT 10SM SCT012 BKN020 OVC070 12/08 A3032 RMK AO2 RAE14 SLP268 P0001 T01220078=
200812260333 SPECI KATL 260333Z 33004KT 10SM BKN012 BKN023 OVC070 12/09 A3032 RMK AO2 RAE14 P0001=
200812260333 SPECI KATL 260333Z 33004KT 10SM BKN012 BKN023 OVC070 12/09 A3032 RMK AO2 RAE14 P0001=
200812260324 SPECI KATL 260324Z 34004KT 10SM FEW016 BKN023 OVC070 12/09 A3032 RMK AO2 RAE14 P0001=
200812260324 SPECI KATL 260324Z 34004KT 10SM FEW016 BKN023 OVC070 12/09 A3032 RMK AO2 RAE14 P0001=
200812260257 SPECI KATL 260257Z 00000KT 6SM -RA SCT015 OVC045 12/09 A3031 RMK AO2 P0000=
200812260257 SPECI KATL 260257Z 00000KT 6SM -RA SCT015 OVC045 12/09 A3031 RMK AO2 P0000=
200812260252 METAR KATL 260252Z 00000KT 7SM -RA BKN015 OVC050 12/09 A3032 RMK AO2 RAB41 SLP267 P0000 60000 T01220094 51007=
200812260227 SPECI KATL 260227Z 22004KT 10SM BKN018 BKN065 OVC080 12/09 A3031 RMK AO2=
200812260227 SPECI KATL 260227Z 22004KT 10SM BKN018 BKN065 OVC080 12/09 A3031 RMK AO2=
200812260152 METAR KATL 260152Z 00000KT 10SM SCT020 BKN040 OVC080 13/09 A3031 RMK AO2 SLP265 T01280094=
200812260140 SPECI KATL 260140Z 00000KT 10SM SCT022 BKN050 OVC080 13/09 A3031 RMK AO2=
200812260140 SPECI KATL 260140Z 00000KT 10SM SCT022 BKN050 OVC080 13/09 A3031 RMK AO2=
200812260056 SPECI KATL 260056Z 00000KT 10SM BKN024 BKN080 OVC120 13/08 A3031 RMK AO2=
200812260056 SPECI KATL 260056Z 00000KT 10SM BKN024 BKN080 OVC120 13/08 A3031 RMK AO2=
200812260052 METAR KATL 260052Z 00000KT 10SM SCT025 BKN080 OVC120 13/08 A3031 RMK AO2 SLP264 T01280083=
200812260034 SPECI KATL 260034Z 00000KT 10SM SCT026 BKN075 BKN120 12/09 A3030 RMK AO2=
200812260034 SPECI KATL 260034Z 00000KT 10SM SCT026 BKN075 BKN120 12/09 A3030 RMK AO2=
200812260008 SPECI KATL 260008Z 00000KT 10SM BKN028 BKN080 12/08 A3030 RMK AO2=
200812260008 SPECI KATL 260008Z 00000KT 10SM BKN028 BKN080 12/08 A3030 RMK AO2=
200812252352 METAR KATL 252352Z 00000KT 10SM FEW028 SCT060 BKN080 13/08 A3029 RMK AO2 SLP259 T01280083 10139 20117 52003=
200812252311 SPECI KATL 252311Z 00000KT 10SM SCT025 BKN033 OVC060 14/08 A3029 RMK AO2=
200812252311 SPECI KATL 252311Z 00000KT 10SM SCT025 BKN033 OVC060 14/08 A3029 RMK AO2=
200812252252 METAR KATL 252252Z 00000KT 10SM BKN026 OVC045 14/07 A3029 RMK AO2 SLP258 T01390072=
200812252152 METAR KATL 252152Z 00000KT 10SM BKN026 BKN200 14/07 A3029 RMK AO2 SLP256 VIRGA ALQDS AND DSNT ALQDS T01390072=
200812252052 METAR KATL 252052Z 00000KT 10SM BKN024 BKN200 14/06 A3029 RMK AO2 SLP255 VIRGA ALQDS AND DSNT ALQDS T01390061 55009=
200812251952 METAR KATL 251952Z 31003KT 10SM BKN022 BKN200 13/07 A3028 RMK AO2 SLP254 VIRGA ALQDS AND DSNT ALQDS T01330067=
200812251852 METAR KATL 251852Z 00000KT 10SM BKN022 OVC200 13/07 A3029 RMK AO2 SLP256 VIRGA ALQDS AND DSNT ALQDS T01280072=
200812251752 METAR KATL 251752Z 00000KT 10SM BKN022 OVC200 12/07 A3031 RMK AO2 SLP265 VIRGA E-SE AND W AND DSNT ALQDS 60004 T01170072 10117 20100 58003=
200812251652 METAR KATL 251652Z 31004KT 10SM BKN024 OVC200 11/07 A3033 RMK AO2 SLP270 VIRGA ALQDS AND DSNT ALQDS T01110072=
200812251552 METAR KATL 251552Z 30003KT 10SM BKN026 OVC200 11/08 A3034 RMK AO2 SLP272 T01060078=
200812251452 METAR KATL 251452Z 32005KT 10SM FEW005 BKN028 BKN043 11/09 A3032 RMK AO2 SLP266 60004 T01060089 53018=
200812251414 SPECI KATL 251414Z 31007KT 10SM FEW005 BKN032 BKN085 10/09 A3031 RMK AO2=
200812251414 SPECI KATL 251414Z 31007KT 10SM FEW005 BKN032 BKN085 10/09 A3031 RMK AO2=
200812251352 METAR KATL 251352Z 31006KT 10SM FEW005 BKN029 BKN085 11/09 A3030 RMK AO2 SLP259 T01060094=
200812251309 SPECI KATL 251309Z 32007KT 10SM FEW005 BKN029 BKN085 11/09 A3029 RMK AO2=
200812251309 SPECI KATL 251309Z 32007KT 10SM FEW005 BKN029 BKN085 11/09 A3029 RMK AO2=
200812251252 METAR KATL 251252Z 30006KT 10SM SCT005 BKN047 BKN090 11/10 A3028 RMK AO2 RAE29 SLP252 P0004 T01060100=
200812251152 METAR KATL 251152Z 29004KT 9SM -RA FEW005 BKN050 OVC060 12/11 A3027 RMK AO2 RAB33 SLP248 P0000 60008 70091 T01170106 10139 20117 53012=
200812251052 METAR KATL 251052Z 32003KT 10SM SCT039 OVC060 12/11 A3023 RMK AO2 SLP236 T01170111=
200812250952 METAR KATL 250952Z 32004KT 9SM BKN039 OVC045 12/11 A3023 RMK AO2 SLP235 T01220111=
200812250852 METAR KATL 250852Z 32008KT 10SM SCT037 BKN046 BKN095 13/12 A3023 RMK AO2 RAE38 SLP236 P0002 60008 T01280117 51004=
200812250752 METAR KATL 250752Z 30007KT 7SM RA FEW003 SCT039 OVC050 13/13 A3023 RMK AO2 RAE11B34 SLP235 P0002 T01330128=
200812250716 SPECI KATL 250716Z 30003KT 7SM FEW003 BKN041 OVC065 14/13 A3022 RMK AO2 RAE11 P0001=
200812250716 SPECI KATL 250716Z 30003KT 7SM FEW003 BKN041 OVC065 14/13 A3022 RMK AO2 RAE11 P0001=
200812250652 METAR KATL 250652Z 27003KT 7SM RA FEW027 BKN040 OVC070 13/13 A3022 RMK AO2 SLP233 P0004 T01330128=
200812250552 METAR KATL 250552Z 30006KT 7SM -RA FEW009 BKN024 OVC045 14/13 A3022 RMK AO2 SLP232 P0012 60071 T01390133 10183 20139 50019=
200812250452 METAR KATL 250452Z 33003KT 5SM -RA BR SCT006 BKN017 OVC037 15/14 A3022 RMK AO2 SLP233 P0029 T01500144 401830044=
200812250446 SPECI KATL 250446Z 34003KT 4SM -RA BR FEW007 BKN017 OVC037 15/14 A3022 RMK AO2 P0029 401830044=
200812250446 SPECI KATL 250446Z 34003KT 4SM -RA BR FEW007 BKN017 OVC037 15/14 A3022 RMK AO2 P0029 401830044=
200812250428 SPECI KATL 250428Z 32005G15KT 2 1/2SM +RA BR SCT008 BKN020 OVC037 15/14 A3022 RMK AO2 P0019=
200812250428 SPECI KATL 250428Z 32005G15KT 2 1/2SM +RA BR SCT008 BKN020 OVC037 15/14 A3022 RMK AO2 P0019=
200812250414 SPECI KATL 250414Z 35012KT 6SM -RA BR SCT008 BKN020 OVC037 16/14 A3021 RMK AO2 P0007=
200812250414 SPECI KATL 250414Z 35012KT 6SM -RA BR SCT008 BKN020 OVC037 16/14 A3021 RMK AO2 P0007=
200812250357 SPECI KATL 250357Z 32009KT 4SM RA BR SCT009 BKN014 OVC037 16/16 A3020 RMK AO2 P0002=
200812250357 SPECI KATL 250357Z 32009KT 4SM RA BR SCT009 BKN014 OVC037 16/16 A3020 RMK AO2 P0002=
200812250352 METAR KATL 250352Z 34008G19KT 3SM +RA BR BKN009 BKN014 OVC037 16/16 A3020 RMK AO2 WSHFT 0317 TSB20E45RAB12 SLP228 TS DSIPT P0030 T01610156=
200812250346 SPECI KATL 250346Z 31014G19KT 3SM +RA BR BKN009 OVC014 17/16 A3022 RMK AO2 WSHFT 0317 TSB20E45RAB12 TS DSIPT P0024=
200812250346 SPECI KATL 250346Z 31014G19KT 3SM +RA BR BKN009 OVC014 17/16 A3022 RMK AO2 WSHFT 0317 TSB20E45RAB12 TS DSIPT P0024=
200812250333 SPECI KATL 250333Z 30011G24KT 2SM R09R/6000VP6000FT +TSRA BR OVC009CB 17/16 A3022 RMK AO2 WSHFT 0317 TSB20RAB12 PRESRR OCNL LTGIC TS OHD-SW-NW MOV E P0013=
200812250333 SPECI KATL 250333Z 30011G24KT 2SM R09R/6000VP6000FT +TSRA BR OVC009CB 17/16 A3022 RMK AO2 WSHFT 0317 TSB20RAB12 PRESRR OCNL LTGIC TS OHD-SW-NW MOV E P0013=
200812250330 SPECI KATL 250330Z 29011G24KT 2 1/2SM R09R/6000VP6000FT TSRA BR OVC009CB 18/17 A3020 RMK AO2 TSB20RAB12 OCNL LTGIC TS OHD-SW-NW MOV E P0007=
200812250330 SPECI KATL 250330Z 29011G24KT 2 1/2SM R09R/6000VP6000FT TSRA BR OVC009CB 18/17 A3020 RMK AO2 TSB20RAB12 OCNL LTGIC TS OHD-SW-NW MOV E P0007=
200812250321 SPECI KATL 250321Z 23013KT 6SM -TSRA BR OVC010CB 18/17 A3019 RMK AO2 TSB20RAB12 PRESRR OCNL LTGIC TS SW-NW MOV E P0001=
200812250321 SPECI KATL 250321Z 23013KT 6SM -TSRA BR OVC010CB 18/17 A3019 RMK AO2 TSB20RAB12 PRESRR OCNL LTGIC TS SW-NW MOV E P0001=
200812250252 METAR KATL 250252Z 20015KT 10SM BKN010 OVC014 18/17 A3016 RMK AO2 RAE01 SLP212 P0000 60000 T01830167 58010=
200812250152 METAR KATL 250152Z 19011KT 9SM -RA OVC010 18/16 A3018 RMK AO2 RAB51 SLP220 P0000 T01780161=
200812250052 METAR KATL 250052Z 21012KT 9SM BKN012 OVC018 18/16 A3019 RMK AO2 RAE2359 SLP224 P0000 T01780161=
200812242352 METAR KATL 242352Z 19010KT 8SM -RA BKN012 OVC018 17/16 A3019 RMK AO2 RAE11B43 SLP224 P0001 60012 T01670156 10167 20133 55004=
200812242255 SPECI KATL 242255Z 18012KT 4SM -RA BR BKN010 BKN018 OVC040 16/16 A3018 RMK AO2 P0000=
200812242255 SPECI KATL 242255Z 18012KT 4SM -RA BR BKN010 BKN018 OVC040 16/16 A3018 RMK AO2 P0000=
200812242252 METAR KATL 242252Z 19013KT 2 1/2SM -RA BR BKN010 BKN018 OVC040 17/16 A3018 RMK AO2 SFC VIS 4 RAB30 SLP222 P0010 T01670156=
200812242232 SPECI KATL 242232Z 19012KT 2 1/2SM -RA BR OVC010 16/15 A3020 RMK AO2 SFC VIS 3 RAB30 P0000=
200812242232 SPECI KATL 242232Z 19012KT 2 1/2SM -RA BR OVC010 16/15 A3020 RMK AO2 SFC VIS 3 RAB30 P0000=
200812242152 METAR KATL 242152Z 19010KT 6SM BR BKN012 OVC020 16/14 A3020 RMK AO2 DZE45 SLP228 P0001 T01560144=
200812242052 METAR KATL 242052Z 18008KT 2 1/2SM -DZ BR OVC012 15/14 A3021 RMK AO2 SFC VIS 3 DZB21 SLP231 P0000 60000 T01500139 58004=
200812242034 SPECI KATL 242034Z 18007KT 2 1/2SM -DZ BR OVC012 15/14 A3021 RMK AO2 SFC VIS 3 DZB21 P0000=
200812242034 SPECI KATL 242034Z 18007KT 2 1/2SM -DZ BR OVC012 15/14 A3021 RMK AO2 SFC VIS 3 DZB21 P0000=
200812242021 SPECI KATL 242021Z 19006KT 3SM -DZ BR OVC012 15/13 A3021 RMK AO2 SFC VIS 4 DZB21 P0000=
200812242021 SPECI KATL 242021Z 19006KT 3SM -DZ BR OVC012 15/13 A3021 RMK AO2 SFC VIS 4 DZB21 P0000=
200812241952 METAR KATL 241952Z 20007KT 10SM OVC012 15/12 A3021 RMK AO2 SLP232 T01500122=
200812241852 METAR KATL 241852Z 18005KT 9SM OVC012 14/11 A3022 RMK AO2 SLP236 T01390106=
200812241752 METAR KATL 241752Z 18011G17KT 10SM OVC012 13/10 A3022 RMK AO2 SLP235 60000 T01330100 10133 20056 58032=
200812241652 METAR KATL 241652Z 17010KT 10SM BKN010 BKN020 OVC090 12/08 A3028 RMK AO2 RAB13E21 SLP255 P0000 T01170083=
200812241552 METAR KATL 241552Z 15011KT 10SM BKN010 BKN020 OVC090 09/04 A3029 RMK AO2 RAB43E52 SLP262 P0000 T00890044=
200812241509 SPECI KATL 241509Z 14006KT 10SM BKN011 BKN022 OVC090 08/03 A3031 RMK AO2=
200812241509 SPECI KATL 241509Z 14006KT 10SM BKN011 BKN022 OVC090 08/03 A3031 RMK AO2=
200812241452 METAR KATL 241452Z 13007KT 10SM FEW015 BKN028 BKN090 BKN250 08/03 A3032 RMK AO2 SLP270 T00780033 58001=
200812241352 METAR KATL 241352Z 12006KT 10SM FEW008 BKN028 07/02 A3032 RMK AO2 SLP272 T00720022=
200812241323 SPECI KATL 241323Z 11005KT 10SM BKN010 OVC028 07/02 A3033 RMK AO2 CIG 008V012=
200812241323 SPECI KATL 241323Z 11005KT 10SM BKN010 OVC028 07/02 A3033 RMK AO2 CIG 008V012=
200812241252 METAR KATL 241252Z 12007KT 10SM BKN028 BKN060 BKN080 06/01 A3032 RMK AO2 SLP272 T00610006=
200812241152 METAR KATL 241152Z 12005KT 10SM BKN012 OVC070 06/01 A3032 RMK AO2 SLP271 T00560006 10056 20044 55001=
200812241149 SPECI KATL 241149Z 12006KT 10SM BKN012 OVC070 06/01 A3031 RMK AO2=
200812241149 SPECI KATL 241149Z 12006KT 10SM BKN012 OVC070 06/01 A3031 RMK AO2=
200812241052 METAR KATL 241052Z 12006KT 10SM SCT060 SCT070 06/00 A3031 RMK AO2 SLP270 T00560000=
200812241034 SPECI KATL 241034Z 12008KT 10SM FEW023 BKN060 BKN070 06/00 A3031 RMK AO2=
200812241034 SPECI KATL 241034Z 12008KT 10SM FEW023 BKN060 BKN070 06/00 A3031 RMK AO2=
200812241007 SPECI KATL 241007Z 12008KT 10SM BKN023 BKN029 OVC070 06/M01 A3031 RMK AO2=
200812241007 SPECI KATL 241007Z 12008KT 10SM BKN023 BKN029 OVC070 06/M01 A3031 RMK AO2=
200812240952 METAR KATL 240952Z 11008KT 10SM SCT029 BKN070 06/M01 A3032 RMK AO2 SLP271 T00561006=
200812240852 METAR KATL 240852Z 10008KT 10SM SCT016 BKN065 OVC250 05/M02 A3034 RMK AO2 SLP280 T00501017 56012=
200812240836 SPECI KATL 240836Z 12010G15KT 10SM SCT016 BKN065 OVC250 05/M02 A3034 RMK AO2=
200812240836 SPECI KATL 240836Z 12010G15KT 10SM SCT016 BKN065 OVC250 05/M02 A3034 RMK AO2=
200812240752 METAR KATL 240752Z 10010KT 10SM BKN018 OVC250 05/M02 A3035 RMK AO2 SLP284 T00501022=
200812240652 METAR KATL 240652Z 09011KT 10SM SCT014 BKN020 04/M02 A3035 RMK AO2 SLP284 T00441022=
200812240552 METAR KATL 240552Z 10009KT 10SM BKN014 BKN040 BKN250 05/M03 A3038 RMK AO2 SLP292 T00501028 10067 20050 58009=
200812240524 SPECI KATL 240524Z 09010KT 10SM OVC014 05/M03 A3039 RMK AO2=
200812240524 SPECI KATL 240524Z 09010KT 10SM OVC014 05/M03 A3039 RMK AO2=
200812240452 METAR KATL 240452Z 10011KT 10SM OVC016 06/M04 A3040 RMK AO2 SLP301 T00561039 400891044=
200812240352 METAR KATL 240352Z 10011KT 10SM BKN023 OVC030 06/M03 A3041 RMK AO2 SLP305 T00611028=
200812240328 SPECI KATL 240328Z 09011G17KT 10SM BKN024 BKN030 OVC040 06/M02 A3041 RMK AO2=
200812240328 SPECI KATL 240328Z 09011G17KT 10SM BKN024 BKN030 OVC040 06/M02 A3041 RMK AO2=
200812240252 METAR KATL 240252Z 10012KT 10SM BKN040 OVC050 07/M02 A3040 RMK AO2 SLP302 T00671017 58005=
200812240152 METAR KATL 240152Z 11010KT 10SM FEW030 OVC037 07/M02 A3041 RMK AO2 SLP306 T00671022=
200812240138 SPECI KATL 240138Z 11010KT 10SM SCT029 OVC035 07/M02 A3041 RMK AO2=
200812240138 SPECI KATL 240138Z 11010KT 10SM SCT029 OVC035 07/M02 A3041 RMK AO2=
200812240052 METAR KATL 240052Z 11009KT 10SM BKN028 OVC035 06/M03 A3042 RMK AO2 SLP310 T00611028=
200812240050 SPECI KATL 240050Z 12006KT 10SM BKN028 OVC035 06/M03 A3042 RMK AO2=
200812240050 SPECI KATL 240050Z 12006KT 10SM BKN028 OVC035 06/M03 A3042 RMK AO2=
200812232352 METAR KATL 232352Z 11007KT 10SM SCT030 06/M03 A3042 RMK AO2 SLP308 T00611028 10089 20056 53003=
200812232252 METAR KATL 232252Z 11009KT 10SM FEW120 07/M02 A3041 RMK AO2 SLP305 T00721017=
200812232152 METAR KATL 232152Z 11008KT 10SM FEW070 SCT120 SCT250 08/M02 A3041 RMK AO2 SLP304 T00831017=
200812232052 METAR KATL 232052Z 13009G17KT 10SM FEW070 SCT120 SCT250 08/M02 A3041 RMK AO2 SLP305 T00831022 56023=
200812231952 METAR KATL 231952Z 13009KT 10SM FEW023 SCT120 SCT250 08/M04 A3042 RMK AO2 SLP310 T00831039=
200812231903 SPECI KATL 231903Z 12012KT 10SM SCT023 BKN070 BKN120 BKN250 07/M05 A3044 RMK AO2=
200812231903 SPECI KATL 231903Z 12012KT 10SM SCT023 BKN070 BKN120 BKN250 07/M05 A3044 RMK AO2=
200812231852 METAR KATL 231852Z 11009KT 10SM BKN023 BKN070 BKN250 06/M07 A3045 RMK AO2 SLP320 T00611067=
200812231752 METAR KATL 231752Z 12011G18KT 10SM OVC023 06/M09 A3048 RMK AO2 SLP331 T00561094 10061 21006 58025=
200812231715 SPECI KATL 231715Z 12009G17KT 10SM BKN027 BKN070 BKN250 06/M11 A3050 RMK AO2=
200812231715 SPECI KATL 231715Z 12009G17KT 10SM BKN027 BKN070 BKN250 06/M11 A3050 RMK AO2=
200812231652 METAR KATL 231652Z 11007KT 10SM BKN070 BKN120 BKN250 04/M12 A3052 RMK AO2 SLP346 T00441117=
200812231552 METAR KATL 231552Z 11009KT 10SM FEW120 BKN150 BKN250 02/M13 A3056 RMK AO2 SLP360 T00221128=
200812231452 METAR KATL 231452Z 10016G21KT 10SM BKN120 BKN150 BKN250 02/M12 A3055 RMK AO2 SLP358 T00171122 50012=
200812231352 METAR KATL 231352Z 11010KT 10SM SCT120 BKN150 BKN250 00/M12 A3057 RMK AO2 SLP362 T00001122=
200812231252 METAR KATL 231252Z 12008KT 10SM SCT120 BKN150 BKN250 M01/M12 A3055 RMK AO2 SLP356 T10061117=
200812231152 METAR KATL 231152Z 11011KT 10SM FEW050 BKN110 BKN200 M01/M12 A3052 RMK AO2 SLP346 T10061122 11006 21044 53007=
200812231052 METAR KATL 231052Z 10009KT 10SM BKN110 BKN200 M01/M12 A3050 RMK AO2 SLP341 T10111117=
200812230952 METAR KATL 230952Z 09007KT 10SM BKN150 M01/M12 A3050 RMK AO2 SLP340 T10111122=
200812230852 METAR KATL 230852Z 11008KT 10SM BKN150 M02/M12 A3050 RMK AO2 SLP339 T10171122 53010=
200812230752 METAR KATL 230752Z 11008KT 10SM SCT150 BKN200 M03/M11 A3047 RMK AO2 SLP331 T10281111=
200812230652 METAR KATL 230652Z 12004KT 10SM SCT150 BKN200 M03/M11 A3049 RMK AO2 SLP337 T10331106=
200812230552 METAR KATL 230552Z 08007KT 10SM FEW250 M04/M11 A3047 RMK AO2 SLP331 T10441111 11017 21044 50000=
200812230452 METAR KATL 230452Z 06006KT 10SM SCT250 M03/M12 A3047 RMK AO2 SLP333 T10331117 400061078=
200812230352 METAR KATL 230352Z 04006KT 10SM SCT250 M03/M12 A3047 RMK AO2 SLP331 T10281122=
200812230252 METAR KATL 230252Z 36004KT 10SM SCT250 M03/M12 A3047 RMK AO2 SLP332 T10281122 51005=
200812230152 METAR KATL 230152Z 35006KT 10SM SCT250 M02/M13 A3046 RMK AO2 SLP329 T10221133=
200812230052 METAR KATL 230052Z 33006KT 10SM SCT250 M02/M13 A3046 RMK AO2 SLP331 T10221133=
200812222352 METAR KATL 222352Z 34006KT 10SM FEW250 M02/M14 A3045 RMK AO2 SLP327 T10171139 10006 21022 53011=
200812222252 METAR KATL 222252Z 34007KT 10SM FEW250 M01/M14 A3045 RMK AO2 SLP324 T10111144=
200812222152 METAR KATL 222152Z 31005KT 10SM FEW250 M01/M14 A3042 RMK AO2 SLP316 T10061144=
200812222052 METAR KATL 222052Z 33009KT 10SM FEW250 01/M15 A3042 RMK AO2 SLP314 T00061150 56006=
200812221952 METAR KATL 221952Z 34007KT 10SM FEW250 01/M15 A3042 RMK AO2 SLP315 T00061150=
200812221852 METAR KATL 221852Z 34012KT 10SM FEW250 00/M15 A3042 RMK AO2 SLP315 T00001150=
200812221752 METAR KATL 221752Z 34010KT 10SM FEW250 M01/M16 A3044 RMK AO2 SLP320 T10111156 11011 21078 58005=
200812221652 METAR KATL 221652Z 32008G14KT 300V360 10SM FEW250 M03/M16 A3046 RMK AO2 SLP328 T10281156=
200812221552 METAR KATL 221552Z 35008KT 10SM FEW250 M04/M16 A3047 RMK AO2 SLP329 T10391161=
200812221452 METAR KATL 221452Z 32011KT 10SM CLR M06/M17 A3045 RMK AO2 SLP326 T10611167 53029=
200812221352 METAR KATL 221352Z 33012G19KT 10SM CLR M07/M16 A3042 RMK AO2 SLP315 T10721161=
200812221252 METAR KATL 221252Z 33011KT 10SM CLR M08/M16 A3039 RMK AO2 SLP306 T10781156=
200812221152 METAR KATL 221152Z 33009G19KT 10SM CLR M07/M17 A3037 RMK AO2 SLP295 T10721167 11022 21072 53020=
200812221052 METAR KATL 221052Z 34013G19KT 10SM CLR M07/M17 A3034 RMK AO2 SLP287 T10721167=
200812220952 METAR KATL 220952Z 33009G19KT 10SM CLR M07/M16 A3032 RMK AO2 PK WND 31028/0918 SLP279 T10671161=
200812220852 METAR KATL 220852Z 33018G24KT 10SM CLR M06/M16 A3031 RMK AO2 SLP272 T10561161 53031=
200812220752 METAR KATL 220752Z 33014G22KT 10SM CLR M05/M14 A3027 RMK AO2 PK WND 32030/0706 SLP260 T10501144=
200812220652 METAR KATL 220652Z 32016G23KT 10SM CLR M04/M14 A3024 RMK AO2 PK WND 33027/0624 SLP249 T10391144=
200812220552 METAR KATL 220552Z 31015G23KT 10SM CLR M02/M13 A3021 RMK AO2 PK WND 32029/0522 SLP237 T10221133 10033 21022 53020=
200812220452 METAR KATL 220452Z 31018G23KT 10SM CLR M01/M13 A3019 RMK AO2 PK WND 30029/0415 SLP230 T10111133 401831011=
200812220352 METAR KATL 220352Z 31019G25KT 10SM CLR M01/M13 A3016 RMK AO2 PK WND 31028/0341 SLP221 T10061128=
200812220252 METAR KATL 220252Z 31015G20KT 10SM CLR 00/M12 A3015 RMK AO2 PK WND 31030/0208 SLP216 T00001117 52016=
200812220152 METAR KATL 220152Z 29015G22KT 10SM CLR 01/M10 A3013 RMK AO2 SLP209 T00111100=
200812220052 METAR KATL 220052Z 30014G18KT 10SM CLR 02/M09 A3012 RMK AO2 SLP204 T00171089=
200812212352 METAR KATL 212352Z 30015G26KT 10SM CLR 03/M11 A3010 RMK AO2 PK WND 30032/2325 SLP197 T00331106 10094 20028 51020=
200812212252 METAR KATL 212252Z 31021G32KT 10SM FEW150 SCT250 04/M12 A3008 RMK AO2 PK WND 31032/2249 SLP191 T00391122=
200812212152 METAR KATL 212152Z 31016G22KT 10SM SCT150 SCT250 06/M08 A3006 RMK AO2 PK WND 30030/2107 SLP180 T00561083=
200812212052 METAR KATL 212052Z 29017G26KT 10SM FEW150 BKN250 07/M08 A3004 RMK AO2 PK WND 31026/2048 SLP171 T00721078 53005=
200812211952 METAR KATL 211952Z 33016G24KT 10SM FEW150 BKN250 08/M09 A3002 RMK AO2 PK WND 32028/1927 SLP165 T00831089=
200812211852 METAR KATL 211852Z 32015G28KT 10SM FEW150 SCT250 09/M08 A3001 RMK AO2 PK WND 30033/1837 SLP162 T00891083=
200812211752 METAR KATL 211752Z 31014G25KT 10SM FEW150 SCT250 08/M07 A3002 RMK AO2 PK WND 30028/1722 SLP166 T00831067 10100 20061 50001=
200812211652 METAR KATL 211652Z 34016G22KT 10SM FEW150 SCT250 08/M03 A3005 RMK AO2 PK WND 32028/1555 SLP174 T00781033=
200812211552 METAR KATL 211552Z 31020G29KT 10SM FEW030 SCT150 BKN250 07/M01 A3005 RMK AO2 PK WND 32029/1549 SLP177 T00671011=
200812211452 METAR KATL 211452Z 33016G28KT 10SM SCT020 BKN150 OVC250 07/01 A3002 RMK AO2 PK WND 32028/1446 SLP167 SCT020V BKN T00670011 51048=
200812211352 METAR KATL 211352Z 33016G27KT 10SM BKN020 BKN065 BKN200 07/03 A2998 RMK AO2 PK WND 31031/1330 SLP151 T00720028=
200812211252 METAR KATL 211252Z 31019G24KT 10SM SCT019 BKN025 BKN065 08/06 A2993 RMK AO2 PK WND 32026/1233 PRESRR SLP133 T00830056=
200812211241 SPECI KATL 211241Z 32017G26KT 10SM SCT019 BKN025 BKN065 08/06 A2991 RMK AO2 PK WND 32026/1233=
200812211241 SPECI KATL 211241Z 32017G26KT 10SM SCT019 BKN025 BKN065 08/06 A2991 RMK AO2 PK WND 32026/1233=
200812211209 SPECI KATL 211209Z 31015KT 10SM SCT017 BKN065 10/07 A2989 RMK AO2=
200812211209 SPECI KATL 211209Z 31015KT 10SM SCT017 BKN065 10/07 A2989 RMK AO2=
200812211152 METAR KATL 211152Z 31017G22KT 10SM BKN015 OVC065 10/08 A2988 RMK AO2 RAE1055 SLP114 P0000 60026 70026 T01000078 10183 20100 51024=
200812211125 SPECI KATL 211125Z 29010KT 10SM BKN015 OVC065 11/09 A2987 RMK AO2 RAE1055 P0000=
200812211125 SPECI KATL 211125Z 29010KT 10SM BKN015 OVC065 11/09 A2987 RMK AO2 RAE1055 P0000=
200812211052 METAR KATL 211052Z 31012KT 10SM -RA FEW015 SCT033 OVC048 11/09 A2985 RMK AO2 PK WND 31027/1006 SLP106 P0000 T01060089=
200812211027 SPECI KATL 211027Z 29012KT 10SM FEW015 SCT033 OVC048 11/08 A2984 RMK AO2 PK WND 31027/1006 RAE14 P0000=
200812211027 SPECI KATL 211027Z 29012KT 10SM FEW015 SCT033 OVC048 11/08 A2984 RMK AO2 PK WND 31027/1006 RAE14 P0000=
200812210955 SPECI KATL 210955Z 28013G21KT 6SM -RA BR SCT015 BKN030 OVC055 11/09 A2983 RMK AO2 P0000=
200812210955 SPECI KATL 210955Z 28013G21KT 6SM -RA BR SCT015 BKN030 OVC055 11/09 A2983 RMK AO2 P0000=
200812210952 METAR KATL 210952Z 29012G21KT 5SM -RA BR BKN015 BKN030 OVC050 11/09 A2983 RMK AO2 PK WND 31031/0858 WSHFT 0843 SLP099 P0019 T01110089=
200812210920 SPECI KATL 210920Z 29019G25KT 3SM RA BR FEW008 BKN015 OVC043 13/12 A2983 RMK AO2 PK WND 31031/0858 WSHFT 0843 P0016=
200812210920 SPECI KATL 210920Z 29019G25KT 3SM RA BR FEW008 BKN015 OVC043 13/12 A2983 RMK AO2 PK WND 31031/0858 WSHFT 0843 P0016=
200812210859 SPECI KATL 210859Z 31025G32KT 2SM +RA BR FEW008 BKN015 OVC021 14/13 A2981 RMK AO2 PK WND 31031/0858 WSHFT 0843 PRESRR FROPA P0008=
200812210859 SPECI KATL 210859Z 31025G32KT 2SM +RA BR FEW008 BKN015 OVC021 14/13 A2981 RMK AO2 PK WND 31031/0858 WSHFT 0843 PRESRR FROPA P0008=
200812210855 SPECI KATL 210855Z 31024G32KT 2SM +RA BR FEW008 BKN015 OVC021 15/14 A2981 RMK AO2 PK WND 31030/0855 PRESRR FROPA P0005=
200812210855 SPECI KATL 210855Z 31024G32KT 2SM +RA BR FEW008 BKN015 OVC021 15/14 A2981 RMK AO2 PK WND 31030/0855 PRESRR FROPA P0005=
200812210852 METAR KATL 210852Z 30025G32KT 3SM -RA BR BKN015 BKN021 OVC050 17/16 A2980 RMK AO2 PK WND 29032/0852 RAB10 PRESRR SLP086 P0007 60007 T01670156 55008=
200812210752 METAR KATL 210752Z 22012G19KT 10SM BKN017 BKN022 OVC038 18/16 A2979 RMK AO2 RAB43E52 SLP080 P0000 T01830156=
200812210652 METAR KATL 210652Z 23014G19KT 10SM BKN017 OVC022 18/16 A2980 RMK AO2 SLP086 T01830156=
200812210552 METAR KATL 210552Z 23012G19KT 10SM OVC017 18/16 A2983 RMK AO2 SLP093 T01830156 10194 20167 58015=
200812210521 SPECI KATL 210521Z 22013KT 10SM BKN019 BKN036 18/15 A2984 RMK AO2=
200812210521 SPECI KATL 210521Z 22013KT 10SM BKN019 BKN036 18/15 A2984 RMK AO2=
200812210452 METAR KATL 210452Z 22012G18KT 10SM FEW018 SCT150 BKN250 18/15 A2984 RMK AO2 SLP100 T01780150 402060167=
200812210352 METAR KATL 210352Z 21012KT 10SM BKN070 18/15 A2987 RMK AO2 SLP109 T01780150=
200812210252 METAR KATL 210252Z 19008KT 10SM FEW065 SCT080 17/14 A2987 RMK AO2 SLP110 T01670144 58014=
200812210152 METAR KATL 210152Z 21008KT 10SM FEW036 BKN065 18/15 A2989 RMK AO2 SLP116 T01780150=
200812210052 METAR KATL 210052Z 21009KT 10SM OVC060 19/14 A2990 RMK AO2 SLP120 T01890144=
200812202352 METAR KATL 202352Z 23009KT 10SM FEW041 OVC049 19/14 A2991 RMK AO2 SLP124 60000 T01940144 10206 20194 50003=
200812202252 METAR KATL 202252Z 23012G19KT 10SM FEW018 OVC039 19/15 A2992 RMK AO2 SLP125 T01940150=
200812202152 METAR KATL 202152Z 22013G17KT 9SM SCT030 BKN044 20/15 A2990 RMK AO2 RAE10DZB10E25 SLP121 P0000 T02000150 $=
200812202052 METAR KATL 202052Z 23010G17KT 9SM -RA BKN036 BKN043 20/16 A2990 RMK AO2 DZB20E27RAB27 SLP121 SHRA W P0000 60000 T02000156 55011=
200812202010 SPECI KATL 202010Z 22012KT 9SM SCT025 BKN036 BKN046 21/16 A2990 RMK AO2 SHRA DSNT W-NW=
200812202010 SPECI KATL 202010Z 22012KT 9SM SCT025 BKN036 BKN046 21/16 A2990 RMK AO2 SHRA DSNT W-NW=
200812201952 METAR KATL 201952Z 22018KT 8SM BKN023 BKN031 BKN044 21/16 A2990 RMK AO2 SLP120 T02060156=
200812201852 METAR KATL 201852Z 23013G21KT 8SM BKN023 OVC032 21/16 A2991 RMK AO2 SLP121 BINOVC OHD T02060161=
200812201752 METAR KATL 201752Z 24012G17KT 8SM BKN020 OVC026 20/16 A2994 RMK AO2 SLP133 T02000161 10206 20178 58019=
200812201652 METAR KATL 201652Z 24011KT 8SM OVC016 20/16 A2996 RMK AO2 SLP140 BINOVC OHD T02000161=
200812201647 SPECI KATL 201647Z 24011G22KT 8SM OVC016 20/16 A2996 RMK AO2 BINOVC OHD=
200812201647 SPECI KATL 201647Z 24011G22KT 8SM OVC016 20/16 A2996 RMK AO2 BINOVC OHD=
200812201552 METAR KATL 201552Z 23012G18KT 7SM OVC010 19/17 A2999 RMK AO2 SLP149 T01890167=
200812201452 METAR KATL 201452Z 24014G20KT 7SM BKN012 OVC016 18/17 A2999 RMK AO2 SLP152 T01830167 53000=
200812201413 SPECI KATL 201413Z 23010G17KT 7SM OVC010 18/17 A2999 RMK AO2=
200812201413 SPECI KATL 201413Z 23010G17KT 7SM OVC010 18/17 A2999 RMK AO2=
200812201352 METAR KATL 201352Z 24008G16KT 8SM OVC008 18/17 A3000 RMK AO2 SLP152 T01830167=
200812201252 METAR KATL 201252Z 23012G17KT 9SM BKN009 OVC018 18/17 A2999 RMK AO2 SLP150 T01780167=
200812201204 SPECI KATL 201204Z 24009KT 10SM BKN009 OVC021 18/16 A3000 RMK AO2=
200812201204 SPECI KATL 201204Z 24009KT 10SM BKN009 OVC021 18/16 A3000 RMK AO2=
200812201152 METAR KATL 201152Z 24008KT 10SM BKN010 OVC021 18/16 A2999 RMK AO2 SLP151 T01780161 10178 20172 56006=
200812201124 SPECI KATL 201124Z 24007KT 10SM BKN011 BKN022 BKN031 17/16 A3000 RMK AO2=
200812201124 SPECI KATL 201124Z 24007KT 10SM BKN011 BKN022 BKN031 17/16 A3000 RMK AO2=
200812201052 METAR KATL 201052Z 22006KT 10SM SCT011 BKN022 BKN031 17/16 A2999 RMK AO2 SLP151 T01720156=
200812201049 SPECI KATL 201049Z 23006KT 10SM SCT011 BKN022 BKN031 17/16 A3000 RMK AO2=
200812201049 SPECI KATL 201049Z 23006KT 10SM SCT011 BKN022 BKN031 17/16 A3000 RMK AO2=
200812200952 METAR KATL 200952Z 24008KT 10SM SCT022 BKN031 OVC065 18/16 A3000 RMK AO2 SLP153 T01780156=
200812200940 SPECI KATL 200940Z 24007KT 10SM SCT022 BKN031 OVC065 18/16 A3000 RMK AO2=
200812200940 SPECI KATL 200940Z 24007KT 10SM SCT022 BKN031 OVC065 18/16 A3000 RMK AO2=
200812200852 METAR KATL 200852Z 25005KT 10SM BKN022 BKN026 BKN065 18/16 A3001 RMK AO2 SLP158 T01780156 56001=
200812200752 METAR KATL 200752Z 24008KT 10SM BKN025 BKN065 17/16 A3001 RMK AO2 SLP158 T01720156=
200812200734 SPECI KATL 200734Z 24009KT 10SM BKN028 BKN065 17/16 A3001 RMK AO2=
200812200734 SPECI KATL 200734Z 24009KT 10SM BKN028 BKN065 17/16 A3001 RMK AO2=
200812200652 METAR KATL 200652Z 22007KT 10SM SCT030 17/16 A3001 RMK AO2 SLP155 T01720156=
200812200552 METAR KATL 200552Z 23006KT 10SM FEW032 17/16 A3002 RMK AO2 SLP160 T01720156 10189 20172 58011=
200812200452 METAR KATL 200452Z 23009KT 10SM FEW065 SCT250 18/16 A3003 RMK AO2 SLP165 T01780156 402060139=
200812200352 METAR KATL 200352Z 24008KT 10SM FEW045 BKN065 18/16 A3005 RMK AO2 SLP170 T01780156=
200812200252 METAR KATL 200252Z 24007KT 10SM FEW045 18/16 A3005 RMK AO2 SLP171 T01780156 56006=
200812200152 METAR KATL 200152Z 23006KT 10SM FEW045 18/16 A3005 RMK AO2 SLP174 T01780156=
200812200052 METAR KATL 200052Z 23007KT 10SM FEW070 18/16 A3006 RMK AO2 SLP176 T01830156=
200812192352 METAR KATL 192352Z 23006KT 10SM FEW045 BKN070 19/16 A3007 RMK AO2 SLP178 T01890156 10206 20178 50001=
200812192252 METAR KATL 192252Z 22008KT 10SM BKN065 19/16 A3007 RMK AO2 SLP179 T01890156=
200812192152 METAR KATL 192152Z 24009KT 10SM FEW025 SCT040 BKN060 19/15 A3008 RMK AO2 SLP180 SHRA NW T01940150=
200812192107 SPECI KATL 192107Z 23012G18KT 10SM SCT025 BKN030 BKN040 19/15 A3007 RMK AO2=
200812192107 SPECI KATL 192107Z 23012G18KT 10SM SCT025 BKN030 BKN040 19/15 A3007 RMK AO2=
200812192052 METAR KATL 192052Z 24014KT 10SM BKN025 BKN040 BKN100 20/15 A3007 RMK AO2 SLP177 T02000150 55006=
200812191952 METAR KATL 191952Z 23015G24KT 10SM BKN025 BKN100 BKN250 20/15 A3006 RMK AO2 SLP174 T02000150=
200812191949 SPECI KATL 191949Z 24016G21KT 10SM BKN025 BKN100 BKN250 20/15 A3006 RMK AO2=
200812191949 SPECI KATL 191949Z 24016G21KT 10SM BKN025 BKN100 BKN250 20/15 A3006 RMK AO2=
200812191914 SPECI KATL 191914Z 23016G20KT 10SM FEW020 SCT030 SCT250 19/15 A3007 RMK AO2=
200812191914 SPECI KATL 191914Z 23016G20KT 10SM FEW020 SCT030 SCT250 19/15 A3007 RMK AO2=
200812191852 METAR KATL 191852Z 24015G20KT 10SM BKN020 BKN028 BKN250 19/15 A3009 RMK AO2 SLP185 T01890150=
200812191752 METAR KATL 191752Z 23015G19KT 10SM BKN016 BKN020 OVC030 18/14 A3011 RMK AO2 DZE19 SLP194 P0000 60000 T01780144 10178 20150 58021=
200812191719 SPECI KATL 191719Z 22014G18KT 10SM FEW012 SCT020 BKN028 BKN250 17/15 A3013 RMK AO2 DZE19 PRESFR P0000 $=
200812191719 SPECI KATL 191719Z 22014G18KT 10SM FEW012 SCT020 BKN028 BKN250 17/15 A3013 RMK AO2 DZE19 PRESFR P0000 $=
200812191652 METAR KATL 191652Z 24009KT 8SM -DZ SCT009 BKN015 OVC022 17/15 A3016 RMK AO2 DZE30B47 SLP209 P0000 T01670150 $=
200812191630 SPECI KATL 191630Z 24009G15KT 8SM BKN009 BKN015 OVC030 16/15 A3017 RMK AO2 DZE30 P0000 $=
200812191630 SPECI KATL 191630Z 24009G15KT 8SM BKN009 BKN015 OVC030 16/15 A3017 RMK AO2 DZE30 P0000 $=
200812191621 SPECI KATL 191621Z 24010G15KT 2SM -DZ BR BKN009 BKN015 OVC030 16/14 A3018 RMK AO2 SFC VIS 4 P0000 $=
200812191621 SPECI KATL 191621Z 24010G15KT 2SM -DZ BR BKN009 BKN015 OVC030 16/14 A3018 RMK AO2 SFC VIS 4 P0000 $=
200812191618 SPECI KATL 191618Z 25010KT 3SM -DZ BR BKN009 BKN015 OVC030 16/14 A3018 RMK AO2 SFC VIS 4 P0000=
200812191618 SPECI KATL 191618Z 25010KT 3SM -DZ BR BKN009 BKN015 OVC030 16/14 A3018 RMK AO2 SFC VIS 4 P0000=
200812191615 SPECI KATL 191615Z 24009G17KT 3SM -DZ BR BKN009 BKN015 OVC030 17/14 A3018 RMK AO2 SFC VIS 6 P0000=
200812191615 SPECI KATL 191615Z 24009G17KT 3SM -DZ BR BKN009 BKN015 OVC030 17/14 A3018 RMK AO2 SFC VIS 6 P0000=
200812191552 METAR KATL 191552Z 24010KT 7SM -DZ BKN011 BKN014 OVC024 16/14 A3017 RMK AO2 DZB46 SLP214 P0000 T01610144=
200812191452 METAR KATL 191452Z 23011KT 8SM BKN010 BKN015 OVC025 16/14 A3018 RMK AO2 SLP216 T01610139 53006=
200812191439 SPECI KATL 191439Z 24010KT 7SM BKN010 BKN015 OVC025 16/14 A3018 RMK AO2=
200812191439 SPECI KATL 191439Z 24010KT 7SM BKN010 BKN015 OVC025 16/14 A3018 RMK AO2=
200812191418 SPECI KATL 191418Z 23008KT 7SM BKN009 BKN014 BKN026 16/14 A3017 RMK AO2=
200812191418 SPECI KATL 191418Z 23008KT 7SM BKN009 BKN014 BKN026 16/14 A3017 RMK AO2=
200812191410 SPECI KATL 191410Z 22009KT 7SM SCT009 BKN014 OVC026 16/14 A3017 RMK AO2=
200812191410 SPECI KATL 191410Z 22009KT 7SM SCT009 BKN014 OVC026 16/14 A3017 RMK AO2=
200812191352 METAR KATL 191352Z 22010KT 6SM BR BKN009 BKN026 15/14 A3015 RMK AO2 SLP209 T01500139=
200812191252 METAR KATL 191252Z 25007KT 8SM BKN009 BKN014 BKN033 16/14 A3018 RMK AO2 SLP216 T01560139=
200812191152 METAR KATL 191152Z 23008KT 6SM BR FEW009 BKN014 BKN038 16/14 A3016 RMK AO2 SLP209 T01560144 10156 20139 56005=
200812191052 METAR KATL 191052Z 24007KT 6SM BR BKN005 OVC010 16/15 A3016 RMK AO2 SLP210 T01560150=
200812190952 METAR KATL 190952Z 24006KT 6SM BR OVC003 15/15 A3017 RMK AO2 SLP211 T01500150=
200812190924 SPECI KATL 190924Z 24008KT 4SM BR OVC003 15/15 A3018 RMK AO2=
200812190924 SPECI KATL 190924Z 24008KT 4SM BR OVC003 15/15 A3018 RMK AO2=
200812190852 METAR KATL 190852Z 23006KT 1/2SM R09R/4000VP6000FT FG OVC001 15/15 A3018 RMK AO2 SLP215 T01500150 56010=
200812190833 SPECI KATL 190833Z 23006KT 1/2SM R09R/2000V3000FT FG VV001 15/15 A3018 RMK AO2=
200812190833 SPECI KATL 190833Z 23006KT 1/2SM R09R/2000V3000FT FG VV001 15/15 A3018 RMK AO2=
200812190810 SPECI KATL 190810Z 22007KT 1/4SM R09R/1800V2200FT FG BKN001 OVC007 14/14 A3018 RMK AO2=
200812190810 SPECI KATL 190810Z 22007KT 1/4SM R09R/1800V2200FT FG BKN001 OVC007 14/14 A3018 RMK AO2=
200812190754 SPECI KATL 190754Z 22005KT 1/4SM R09R/1600V4000FT FG BKN001 OVC007 14/14 A3019 RMK AO2=
200812190754 SPECI KATL 190754Z 22005KT 1/4SM R09R/1600V4000FT FG BKN001 OVC007 14/14 A3019 RMK AO2=
200812190752 METAR KATL 190752Z 22004KT 1/8SM R09R/1400V1600FT FG BKN001 OVC007 14/14 A3019 RMK AO2 SLP220 T01440144=
200812190652 METAR KATL 190652Z 21004KT 1/8SM R09R/0800V1000FT FG BKN001 OVC005 14/14 A3020 RMK AO2 SLP221 T01440139=
200812190607 SPECI KATL 190607Z 00000KT 1/4SM R09R/1200V1800FT FG BKN001 BKN015 BKN250 14/14 A3020 RMK AO2=
200812190607 SPECI KATL 190607Z 00000KT 1/4SM R09R/1200V1800FT FG BKN001 BKN015 BKN250 14/14 A3020 RMK AO2=
200812190552 METAR KATL 190552Z 19003KT 1/4SM R09R/2000VP6000FT FG BKN001 BKN250 15/14 A3021 RMK AO2 SLP225 T01500144 10189 20150 58011=
200812190520 SPECI KATL 190520Z 00000KT 1/4SM R09R/2400VP6000FT FG BKN001 BKN250 15/15 A3022 RMK AO2 VIS NW-N 1=
200812190520 SPECI KATL 190520Z 00000KT 1/4SM R09R/2400VP6000FT FG BKN001 BKN250 15/15 A3022 RMK AO2 VIS NW-N 1=
200812190511 SPECI KATL 190511Z 00000KT 2SM R09R/6000VP6000FT BR FEW025 BKN250 16/15 A3022 RMK AO2 VIS SE-SW-W 3/4 NW-N 4=
200812190511 SPECI KATL 190511Z 00000KT 2SM R09R/6000VP6000FT BR FEW025 BKN250 16/15 A3022 RMK AO2 VIS SE-SW-W 3/4 NW-N 4=
200812190452 METAR KATL 190452Z 00000KT 4SM BR FEW025 BKN250 16/15 A3023 RMK AO2 SLP233 T01560150 402170156=
200812190352 METAR KATL 190352Z 00000KT 6SM BR FEW020 BKN250 16/15 A3024 RMK AO2 SLP235 T01560150=
200812190313 SPECI KATL 190313Z 00000KT 8SM SCT022 BKN250 17/16 A3024 RMK AO2=
200812190313 SPECI KATL 190313Z 00000KT 8SM SCT022 BKN250 17/16 A3024 RMK AO2=
200812190252 METAR KATL 190252Z 00000KT 8SM BKN018 OVC025 17/16 A3024 RMK AO2 SLP238 T01720161 58003=
200812190152 METAR KATL 190152Z 24003KT 8SM BKN024 BKN250 16/16 A3025 RMK AO2 SLP241 T01610156=
200812190150 SPECI KATL 190150Z 24003KT 8SM BKN024 BKN250 16/16 A3025 RMK AO2=
200812190150 SPECI KATL 190150Z 24003KT 8SM BKN024 BKN250 16/16 A3025 RMK AO2=
200812190052 METAR KATL 190052Z 00000KT 10SM SCT050 BKN250 17/16 A3025 RMK AO2 SLP240 T01670156=
200812182352 METAR KATL 182352Z 00000KT 10SM FEW150 BKN250 18/16 A3025 RMK AO2 SLP240 60000 T01830156 10211 20178 53002=
200812182252 METAR KATL 182252Z 03003KT 10SM FEW060 BKN250 18/16 A3025 RMK AO2 SLP239 T01830156=
200812182152 METAR KATL 182152Z 03004KT 10SM FEW030 SCT060 OVC250 19/16 A3024 RMK AO2 SLP236 T01940161=
200812182052 METAR KATL 182052Z 03004KT 9SM FEW030 BKN055 BKN080 OVC250 19/17 A3025 RMK AO2 RAB05E16 SLP238 P0000 60000 T01940167 56013=
200812182036 SPECI KATL 182036Z 36007KT 10SM FEW020 BKN060 BKN080 20/17 A3025 RMK AO2 RAB05E16 P0000=
200812182036 SPECI KATL 182036Z 36007KT 10SM FEW020 BKN060 BKN080 20/17 A3025 RMK AO2 RAB05E16 P0000=
200812181952 METAR KATL 181952Z 35004KT 6SM HZ BKN024 BKN030 OVC080 21/17 A3026 RMK AO2 SLP241 SHRA N-NE T02060167=
200812181852 METAR KATL 181852Z 29007KT 10SM BKN024 BKN030 OVC080 20/16 A3027 RMK AO2 SLP245 T02000161=
200812181752 METAR KATL 181752Z 31006KT 10SM BKN020 BKN030 OVC080 21/17 A3029 RMK AO2 SLP251 T02110167 10217 20167 58012=
200812181652 METAR KATL 181652Z 29004KT 10SM SCT017 BKN025 BKN080 BKN250 21/17 A3032 RMK AO2 SLP261 T02060167=
200812181619 SPECI KATL 181619Z 29004KT 10SM SCT013 SCT047 BKN080 20/17 A3033 RMK AO2=
200812181619 SPECI KATL 181619Z 29004KT 10SM SCT013 SCT047 BKN080 20/17 A3033 RMK AO2=
200812181552 METAR KATL 181552Z 28005KT 7SM BKN013 BKN020 BKN100 19/17 A3033 RMK AO2 SLP265 T01940167=
200812181542 SPECI KATL 181542Z 28004KT 7SM BKN013 BKN020 BKN100 19/17 A3033 RMK AO2=
200812181542 SPECI KATL 181542Z 28004KT 7SM BKN013 BKN020 BKN100 19/17 A3033 RMK AO2=
200812181452 METAR KATL 181452Z 25004KT 6SM BR FEW005 BKN015 OVC020 18/17 A3032 RMK AO2 SLP264 T01780167 53016=
200812181426 SPECI KATL 181426Z 24004KT 6SM BR FEW005 BKN015 OVC020 17/17 A3031 RMK AO2=
200812181426 SPECI KATL 181426Z 24004KT 6SM BR FEW005 BKN015 OVC020 17/17 A3031 RMK AO2=
200812181352 METAR KATL 181352Z 24004KT 6SM BR FEW003 BKN016 BKN023 17/17 A3030 RMK AO2 SLP257 T01720167=
200812181252 METAR KATL 181252Z 00000KT 6SM BR FEW003 BKN017 BKN030 17/16 A3029 RMK AO2 SLP253 T01670161=
200812181152 METAR KATL 181152Z 25004KT 6SM BR FEW003 BKN019 OVC028 17/16 A3027 RMK AO2 SLP248 60000 70003 T01670161 10172 20167 53009=
200812181052 METAR KATL 181052Z 00000KT 6SM BR FEW003 BKN026 OVC030 17/16 A3026 RMK AO2 SLP241 T01670161=
200812180952 METAR KATL 180952Z 24003KT 6SM BR OVC024 17/17 A3025 RMK AO2 SLP240 T01670167=
200812180852 METAR KATL 180852Z 23003KT 7SM BKN024 OVC030 17/17 A3025 RMK AO2 SLP238 60000 T01670167 53001=
200812180830 SPECI KATL 180830Z 23003KT 4SM BR BKN024 BKN030 BKN075 17/16 A3025 RMK AO2=
200812180830 SPECI KATL 180830Z 23003KT 4SM BR BKN024 BKN030 BKN075 17/16 A3025 RMK AO2=
200812180752 METAR KATL 180752Z 24003KT 6SM BR SCT026 BKN032 BKN075 17/16 A3025 RMK AO2 SLP238 T01670161=
200812180717 SPECI KATL 180717Z 25003KT 6SM BR BKN024 BKN050 OVC085 17/17 A3024 RMK AO2=
200812180717 SPECI KATL 180717Z 25003KT 6SM BR BKN024 BKN050 OVC085 17/17 A3024 RMK AO2=
200812180652 METAR KATL 180652Z 00000KT 6SM BR SCT005 BKN050 OVC085 17/17 A3024 RMK AO2 RAE12 SLP234 P0000 T01720167=
200812180552 METAR KATL 180552Z 26003KT 5SM -RA BR BKN005 BKN020 OVC035 17/17 A3024 RMK AO2 SLP236 CIG 003V009 P0001 60003 T01720167 10189 20172 50001=
200812180514 SPECI KATL 180514Z 26003KT 4SM -RA BR BKN006 BKN018 OVC030 17/17 A3025 RMK AO2 CIG 004V009 P0001=
200812180514 SPECI KATL 180514Z 26003KT 4SM -RA BR BKN006 BKN018 OVC030 17/17 A3025 RMK AO2 CIG 004V009 P0001=
200812180452 METAR KATL 180452Z 31005KT 4SM -RA BR FEW005 SCT012 OVC028 17/17 A3025 RMK AO2 RAB24 SLP237 P0002 T01720167 402170167=
200812180440 SPECI KATL 180440Z 31006KT 2 1/2SM -RA BR SCT006 BKN011 OVC045 18/17 A3025 RMK AO2 RAB24 P0001=
200812180440 SPECI KATL 180440Z 31006KT 2 1/2SM -RA BR SCT006 BKN011 OVC045 18/17 A3025 RMK AO2 RAB24 P0001=
200812180432 SPECI KATL 180432Z 30005KT 5SM -RA BR BKN006 BKN011 OVC045 18/17 A3025 RMK AO2 RAB24 P0000=
200812180432 SPECI KATL 180432Z 30005KT 5SM -RA BR BKN006 BKN011 OVC045 18/17 A3025 RMK AO2 RAB24 P0000=
200812180424 SPECI KATL 180424Z 30004KT 6SM -RA BR SCT006 BKN011 OVC045 18/17 A3025 RMK AO2 RAB24 P0000=
200812180424 SPECI KATL 180424Z 30004KT 6SM -RA BR SCT006 BKN011 OVC045 18/17 A3025 RMK AO2 RAB24 P0000=
200812180352 METAR KATL 180352Z 24003KT 10SM FEW018 SCT029 OVC040 18/17 A3025 RMK AO2 SLP238 T01780167=
200812180252 METAR KATL 180252Z 22005KT 9SM FEW035 BKN045 BKN080 OVC250 18/17 A3024 RMK AO2 SLP235 T01780167 53003=
200812180152 METAR KATL 180152Z 21005KT 10SM BKN045 OVC070 18/17 A3023 RMK AO2 SLP233 T01830167=
200812180052 METAR KATL 180052Z 21007KT 10SM FEW035 BKN090 OVC250 18/17 A3023 RMK AO2 SLP232 T01830167=
200812172352 METAR KATL 172352Z 22006KT 10SM FEW035 BKN100 OVC250 19/17 A3023 RMK AO2 SLP232 T01890167 10217 20189 51012=
200812172252 METAR KATL 172252Z 22005KT 10SM BKN055 BKN200 OVC250 20/17 A3022 RMK AO2 SLP228 T02000167=
200812172152 METAR KATL 172152Z 24008KT 10SM FEW025 SCT050 BKN250 21/16 A3021 RMK AO2 SLP223 SHRA DSNT N-NE T02110161=
200812172052 METAR KATL 172052Z 24010KT 10SM FEW020 SCT050 BKN250 21/16 A3019 RMK AO2 SLP218 T02110161 56006=
200812171952 METAR KATL 171952Z 25010KT 10SM FEW020 SCT050 BKN250 21/16 A3019 RMK AO2 SLP218 T02110161=
200812171852 METAR KATL 171852Z 25009KT 10SM FEW020 BKN050 BKN250 21/17 A3020 RMK AO2 SLP220 T02110167=
200812171752 METAR KATL 171752Z 25009KT 10SM BKN020 BKN040 BKN250 21/17 A3021 RMK AO2 SLP224 T02110167 10211 20178 56010=
200812171652 METAR KATL 171652Z 24008KT 10SM BKN016 BKN024 OVC034 20/17 A3022 RMK AO2 SLP230 BINOVC NE-E T02000172=
200812171622 SPECI KATL 171622Z 24009KT 10SM FEW009 BKN014 OVC024 19/17 A3023 RMK AO2=
200812171622 SPECI KATL 171622Z 24009KT 10SM FEW009 BKN014 OVC024 19/17 A3023 RMK AO2=
200812171615 SPECI KATL 171615Z 24007KT 10SM BKN011 OVC014 19/17 A3024 RMK AO2 CIG 008V011=
200812171615 SPECI KATL 171615Z 24007KT 10SM BKN011 OVC014 19/17 A3024 RMK AO2 CIG 008V011=
200812171552 METAR KATL 171552Z 25006KT 8SM BKN009 BKN013 OVC024 19/18 A3024 RMK AO2 SLP237 T01890178=
200812171517 SPECI KATL 171517Z 22007KT 6SM BR FEW006 SCT011 OVC024 19/18 A3024 RMK AO2=
200812171517 SPECI KATL 171517Z 22007KT 6SM BR FEW006 SCT011 OVC024 19/18 A3024 RMK AO2=
200812171515 SPECI KATL 171515Z 23007KT 2 1/2SM BR FEW006 SCT011 OVC024 19/18 A3023 RMK AO2 SFC VIS 6=
200812171515 SPECI KATL 171515Z 23007KT 2 1/2SM BR FEW006 SCT011 OVC024 19/18 A3023 RMK AO2 SFC VIS 6=
200812171500 SPECI KATL 171500Z 22006KT 2 1/2SM BR BKN006 BKN011 OVC024 18/18 A3024 RMK AO2 SFC VIS 6 CIG 004V009=
200812171500 SPECI KATL 171500Z 22006KT 2 1/2SM BR BKN006 BKN011 OVC024 18/18 A3024 RMK AO2 SFC VIS 6 CIG 004V009=
200812171452 METAR KATL 171452Z 23007KT 2 1/2SM BR OVC004 18/18 A3023 RMK AO2 SFC VIS 6 CIG 004V009 SLP233 T01830178 53013=
200812171409 SPECI KATL 171409Z 23005KT 2 1/2SM BR OVC004 18/17 A3022 RMK AO2 SFC VIS 5 CIG 003V008=
200812171409 SPECI KATL 171409Z 23005KT 2 1/2SM BR OVC004 18/17 A3022 RMK AO2 SFC VIS 5 CIG 003V008=
200812171352 METAR KATL 171352Z 23006KT 3SM BR BKN004 OVC010 18/17 A3021 RMK AO2 SFC VIS 5 SLP228 T01780172=
200812171322 SPECI KATL 171322Z 22006KT 6SM BR BKN004 OVC010 18/17 A3021 RMK AO2=
200812171322 SPECI KATL 171322Z 22006KT 6SM BR BKN004 OVC010 18/17 A3021 RMK AO2=
200812171252 METAR KATL 171252Z 21007KT 5SM BR BKN009 OVC018 18/17 A3021 RMK AO2 SLP225 T01780172=
200812171152 METAR KATL 171152Z 22005KT 6SM BR BKN009 OVC016 18/17 A3019 RMK AO2 CIG 005V013 SLP219 60000 70002 T01780167 10178 20172 51004=
200812171103 SPECI KATL 171103Z 23006KT 6SM BR BKN009 OVC015 18/17 A3019 RMK AO2 CIG 005V013=
200812171103 SPECI KATL 171103Z 23006KT 6SM BR BKN009 OVC015 18/17 A3019 RMK AO2 CIG 005V013=
200812171052 METAR KATL 171052Z 24007KT 6SM BR SCT006 OVC012 18/17 A3019 RMK AO2 SLP218 T01780167=
200812171048 SPECI KATL 171048Z 23007KT 6SM BR SCT006 OVC012 18/17 A3019 RMK AO2=
200812171048 SPECI KATL 171048Z 23007KT 6SM BR SCT006 OVC012 18/17 A3019 RMK AO2=
200812170952 METAR KATL 170952Z 22007KT 5SM BR OVC004 17/17 A3018 RMK AO2 CIG 003V008 SLP215 T01720167=
200812170927 SPECI KATL 170927Z 22006KT 5SM BR OVC004 17/17 A3018 RMK AO2=
200812170927 SPECI KATL 170927Z 22006KT 5SM BR OVC004 17/17 A3018 RMK AO2=
200812170852 METAR KATL 170852Z 22006KT 5SM BR OVC006 17/17 A3018 RMK AO2 SLP217 60000 T01720167 55000=
200812170752 METAR KATL 170752Z 23007KT 5SM BR BKN006 OVC010 17/17 A3018 RMK AO2 SLP214 T01720167=
200812170732 SPECI KATL 170732Z 23009KT 5SM BR BKN006 OVC010 17/17 A3017 RMK AO2=
200812170732 SPECI KATL 170732Z 23009KT 5SM BR BKN006 OVC010 17/17 A3017 RMK AO2=
200812170652 METAR KATL 170652Z 21010KT 6SM BR FEW008 BKN049 BKN069 17/16 A3017 RMK AO2 RAE03 SLP211 P0000 T01720161=
200812170643 SPECI KATL 170643Z 20011KT 6SM BR FEW008 BKN039 OVC049 17/16 A3017 RMK AO2 RAE03 P0000=
200812170643 SPECI KATL 170643Z 20011KT 6SM BR FEW008 BKN039 OVC049 17/16 A3017 RMK AO2 RAE03 P0000=
200812170552 METAR KATL 170552Z 22007KT 8SM -RA BKN014 OVC045 17/16 A3019 RMK AO2 RAB50 SLP218 P0000 60002 T01720161 10172 20167 58004=
200812170452 METAR KATL 170452Z 21006KT 6SM BR SCT004 BKN020 OVC035 17/16 A3020 RMK AO2 SLP222 T01670161 402000117=
200812170446 SPECI KATL 170446Z 20006KT 6SM BR SCT004 OVC020 17/16 A3020 RMK AO2 402000117=
200812170446 SPECI KATL 170446Z 20006KT 6SM BR SCT004 OVC020 17/16 A3020 RMK AO2 402000117=
200812170431 SPECI KATL 170431Z 19005KT 2SM BR BKN004 BKN020 OVC100 17/16 A3020 RMK AO2 SFC VIS 6 CIG 003V007=
200812170431 SPECI KATL 170431Z 19005KT 2SM BR BKN004 BKN020 OVC100 17/16 A3020 RMK AO2 SFC VIS 6 CIG 003V007=
200812170428 SPECI KATL 170428Z 18007KT 6SM BR SCT004 BKN008 OVC020 17/16 A3019 RMK AO2=
200812170428 SPECI KATL 170428Z 18007KT 6SM BR SCT004 BKN008 OVC020 17/16 A3019 RMK AO2=
200812170352 METAR KATL 170352Z 17006KT 6SM BR FEW004 BKN024 OVC050 17/16 A3020 RMK AO2 SLP223 T01670161=
200812170252 METAR KATL 170252Z 19006KT 8SM FEW004 BKN027 OVC070 17/17 A3020 RMK AO2 SLP226 60002 T01670167 53001=
200812170212 SPECI KATL 170212Z 15005KT 9SM FEW005 SCT024 OVC035 17/17 A3020 RMK AO2=
200812170212 SPECI KATL 170212Z 15005KT 9SM FEW005 SCT024 OVC035 17/17 A3020 RMK AO2=
200812170202 SPECI KATL 170202Z 18006KT 9SM FEW005 BKN024 OVC045 17/17 A3020 RMK AO2=
200812170202 SPECI KATL 170202Z 18006KT 9SM FEW005 BKN024 OVC045 17/17 A3020 RMK AO2=
200812170152 METAR KATL 170152Z 18007KT 8SM FEW006 BKN045 OVC080 17/17 A3020 RMK AO2 RAE43 SLP223 P0002 T01720167=
200812170133 SPECI KATL 170133Z 17008KT 6SM -RA BR FEW008 SCT025 OVC050 17/17 A3020 RMK AO2 P0002=
200812170133 SPECI KATL 170133Z 17008KT 6SM -RA BR FEW008 SCT025 OVC050 17/17 A3020 RMK AO2 P0002=
200812170052 METAR KATL 170052Z 18006KT 9SM -RA FEW006 BKN023 OVC050 17/16 A3020 RMK AO2 RAB30 SLP225 P0000 T01720161=
200812170046 SPECI KATL 170046Z 17006KT 9SM -RA FEW008 BKN023 OVC050 17/16 A3020 RMK AO2 RAB30 P0000=
200812170046 SPECI KATL 170046Z 17006KT 9SM -RA FEW008 BKN023 OVC050 17/16 A3020 RMK AO2 RAB30 P0000=
200812170031 SPECI KATL 170031Z 17006KT 9SM -RA FEW010 SCT024 OVC045 17/16 A3020 RMK AO2 RAB30 P0000=
200812170031 SPECI KATL 170031Z 17006KT 9SM -RA FEW010 SCT024 OVC045 17/16 A3020 RMK AO2 RAB30 P0000=
200812170023 SPECI KATL 170023Z 16006KT 9SM BKN024 BKN035 OVC050 17/16 A3020 RMK AO2=
200812170023 SPECI KATL 170023Z 16006KT 9SM BKN024 BKN035 OVC050 17/16 A3020 RMK AO2=
200812162352 METAR KATL 162352Z 19007KT 10SM FEW032 BKN045 OVC055 17/16 A3020 RMK AO2 SLP225 60000 T01720161 10200 20172 53003=
200812162252 METAR KATL 162252Z 18007KT 10SM FEW008 BKN038 OVC055 18/16 A3019 RMK AO2 SLP223 T01780161=
200812162157 SPECI KATL 162157Z 17007KT 10SM FEW010 BKN040 OVC060 18/16 A3019 RMK AO2=
200812162157 SPECI KATL 162157Z 17007KT 10SM FEW010 BKN040 OVC060 18/16 A3019 RMK AO2=
200812162152 METAR KATL 162152Z 18007KT 10SM FEW005 BKN020 OVC040 18/16 A3019 RMK AO2 RAE16 SLP222 P0000 T01780161=
200812162136 SPECI KATL 162136Z 19008KT 10SM BKN015 BKN045 OVC060 18/16 A3020 RMK AO2 RAE16 P0000=
200812162136 SPECI KATL 162136Z 19008KT 10SM BKN015 BKN045 OVC060 18/16 A3020 RMK AO2 RAE16 P0000=
200812162052 METAR KATL 162052Z 18009KT 10SM -RA SCT020 BKN050 OVC060 18/16 A3019 RMK AO2 RAB17 SLP221 P0000 60000 T01830156 56008=
200812162021 SPECI KATL 162021Z 20010KT 8SM -RA SCT023 BKN035 OVC070 19/15 A3019 RMK AO2 RAB17 P0000=
200812162021 SPECI KATL 162021Z 20010KT 8SM -RA SCT023 BKN035 OVC070 19/15 A3019 RMK AO2 RAB17 P0000=
200812162013 SPECI KATL 162013Z 19013KT 10SM FEW025 BKN030 BKN075 BKN150 19/15 A3019 RMK AO2=
200812162013 SPECI KATL 162013Z 19013KT 10SM FEW025 BKN030 BKN075 BKN150 19/15 A3019 RMK AO2=
200812161952 METAR KATL 161952Z 19011KT 10SM FEW017 BKN023 BKN110 BKN150 19/16 A3019 RMK AO2 SLP220 T01940156=
200812161852 METAR KATL 161852Z 18008KT 10SM BKN017 BKN035 BKN150 19/16 A3019 RMK AO2 SLP222 T01940156=
200812161839 SPECI KATL 161839Z 20011KT 10SM BKN017 BKN110 BKN150 19/16 A3020 RMK AO2=
200812161839 SPECI KATL 161839Z 20011KT 10SM BKN017 BKN110 BKN150 19/16 A3020 RMK AO2=
200812161805 SPECI KATL 161805Z 18011KT 10SM BKN014 BKN110 BKN150 18/16 A3021 RMK AO2=
200812161805 SPECI KATL 161805Z 18011KT 10SM BKN014 BKN110 BKN150 18/16 A3021 RMK AO2=
200812161752 METAR KATL 161752Z 18010KT 10SM FEW016 SCT110 BKN150 BKN200 18/16 A3022 RMK AO2 SLP229 60000 T01830156 10189 20122 58020=
200812161652 METAR KATL 161652Z 20005KT 9SM FEW008 SCT012 SCT100 BKN150 BKN200 18/15 A3025 RMK AO2 SLP241 T01830150=
200812161617 SPECI KATL 161617Z 18008KT 6SM BR FEW005 SCT100 BKN150 BKN200 17/14 A3026 RMK AO2=
200812161617 SPECI KATL 161617Z 18008KT 6SM BR FEW005 SCT100 BKN150 BKN200 17/14 A3026 RMK AO2=
200812161557 SPECI KATL 161557Z 18008KT 2 1/2SM BR FEW002 BKN005 BKN100 16/14 A3027 RMK AO2 SFC VIS 5=
200812161557 SPECI KATL 161557Z 18008KT 2 1/2SM BR FEW002 BKN005 BKN100 16/14 A3027 RMK AO2 SFC VIS 5=
200812161554 SPECI KATL 161554Z 16006KT 1 1/2SM BR FEW002 BKN005 BKN100 16/14 A3027 RMK AO2 SFC VIS 4=
200812161554 SPECI KATL 161554Z 16006KT 1 1/2SM BR FEW002 BKN005 BKN100 16/14 A3027 RMK AO2 SFC VIS 4=
200812161552 METAR KATL 161552Z 16007KT 1SM BR FEW002 BKN005 BKN100 16/14 A3027 RMK AO2 SFC VIS 4 RAB10E39 SLP250 P0000 T01560144=
200812161547 SPECI KATL 161547Z 17004KT 1SM BR FEW002 BKN005 BKN100 15/14 A3028 RMK AO2 SFC VIS 4 RAB10E39 P0000=
200812161547 SPECI KATL 161547Z 17004KT 1SM BR FEW002 BKN005 BKN100 15/14 A3028 RMK AO2 SFC VIS 4 RAB10E39 P0000=
200812161542 SPECI KATL 161542Z 16004KT 1/2SM BR OVC002 15/14 A3028 RMK AO2 SFC VIS 3 RAB10E39 P0000=
200812161542 SPECI KATL 161542Z 16004KT 1/2SM BR OVC002 15/14 A3028 RMK AO2 SFC VIS 3 RAB10E39 P0000=
200812161526 SPECI KATL 161526Z 15005KT 3/4SM BR OVC002 14/13 A3028 RMK AO2 SFC VIS 2 1/2 RAB10E25 P0000=
200812161526 SPECI KATL 161526Z 15005KT 3/4SM BR OVC002 14/13 A3028 RMK AO2 SFC VIS 2 1/2 RAB10E25 P0000=
200812161452 METAR KATL 161452Z 14004KT 1/8SM R09R/5000VP6000FT BR OVC002 14/13 A3028 RMK AO2 SFC VIS 2 SLP250 T01390128 51004=
200812161355 SPECI KATL 161355Z 00000KT 1/4SM BR OVC002 13/12 A3028 RMK AO2 SFC VIS 2=
200812161355 SPECI KATL 161355Z 00000KT 1/4SM BR OVC002 13/12 A3028 RMK AO2 SFC VIS 2=
200812161352 METAR KATL 161352Z 00000KT 3/4SM BR BKN002 OVC006 13/12 A3028 RMK AO2 SFC VIS 1 3/4 SLP251 T01280122=
200812161305 SPECI KATL 161305Z 11003KT 3/4SM BR BKN006 OVC046 13/12 A3027 RMK AO2 SFC VIS 5=
200812161305 SPECI KATL 161305Z 11003KT 3/4SM BR BKN006 OVC046 13/12 A3027 RMK AO2 SFC VIS 5=
200812161300 SPECI KATL 161300Z 00000KT 3SM BR BKN006 OVC046 13/12 A3027 RMK AO2 SFC VIS 6=
200812161300 SPECI KATL 161300Z 00000KT 3SM BR BKN006 OVC046 13/12 A3027 RMK AO2 SFC VIS 6=
200812161252 METAR KATL 161252Z 09003KT 1 1/2SM BR BKN006 OVC048 13/12 A3027 RMK AO2 SFC VIS 5 SLP249 T01280117=
200812161238 SPECI KATL 161238Z 00000KT 5SM BR BKN006 OVC048 12/11 A3027 RMK AO2=
200812161238 SPECI KATL 161238Z 00000KT 5SM BR BKN006 OVC048 12/11 A3027 RMK AO2=
200812161152 METAR KATL 161152Z 00000KT 5SM BR SCT006 BKN050 12/11 A3026 RMK AO2 SLP247 60000 T01220111 10133 20117 53004=
200812161052 METAR KATL 161052Z 10003KT 6SM BR BKN016 OVC050 12/11 A3025 RMK AO2 SLP243 T01220111=
200812160952 METAR KATL 160952Z 00000KT 6SM BR BKN016 BKN035 OVC090 12/11 A3025 RMK AO2 SLP243 T01220111=
200812160950 SPECI KATL 160950Z 00000KT 6SM BR BKN016 BKN035 OVC090 12/11 A3025 RMK AO2=
200812160950 SPECI KATL 160950Z 00000KT 6SM BR BKN016 BKN035 OVC090 12/11 A3025 RMK AO2=
200812160852 METAR KATL 160852Z 11003KT 7SM SCT016 BKN035 OVC090 13/11 A3027 RMK AO2 SLP247 60000 T01280111 56005=
200812160752 METAR KATL 160752Z 03003KT 6SM BR FEW018 BKN040 BKN060 13/11 A3027 RMK AO2 SLP249 T01280111=
200812160736 SPECI KATL 160736Z 09003KT 7SM SCT018 BKN040 OVC065 13/12 A3027 RMK AO2=
200812160736 SPECI KATL 160736Z 09003KT 7SM SCT018 BKN040 OVC065 13/12 A3027 RMK AO2=
200812160652 METAR KATL 160652Z 09003KT 7SM SCT018 BKN024 OVC065 13/12 A3027 RMK AO2 RAE0556 SLP249 P0000 T01280117=
200812160624 SPECI KATL 160624Z 09003KT 8SM SCT020 BKN030 OVC060 13/12 A3027 RMK AO2 RAE0556 P0000=
200812160624 SPECI KATL 160624Z 09003KT 8SM SCT020 BKN030 OVC060 13/12 A3027 RMK AO2 RAE0556 P0000=
200812160552 METAR KATL 160552Z 08003KT 8SM -RA BKN024 BKN035 OVC060 13/12 A3028 RMK AO2 RAB30 SLP253 P0000 60000 T01330117 10161 20128 58005=
200812160549 SPECI KATL 160549Z 09003KT 8SM -RA BKN024 BKN035 OVC060 13/12 A3028 RMK AO2 RAB30 P0000=
200812160549 SPECI KATL 160549Z 09003KT 8SM -RA BKN024 BKN035 OVC060 13/12 A3028 RMK AO2 RAB30 P0000=
200812160452 METAR KATL 160452Z 10004KT 9SM FEW020 BKN030 OVC070 13/12 A3029 RMK AO2 SLP257 T01330117 401720061=
200812160436 SPECI KATL 160436Z 08003KT 9SM SCT020 BKN028 OVC060 13/12 A3030 RMK AO2=
200812160436 SPECI KATL 160436Z 08003KT 9SM SCT020 BKN028 OVC060 13/12 A3030 RMK AO2=
200812160352 METAR KATL 160352Z 09005KT 10SM FEW028 SCT080 BKN120 OVC200 13/11 A3030 RMK AO2 SLP259 T01330111=
200812160252 METAR KATL 160252Z 00000KT 10SM OVC080 14/12 A3030 RMK AO2 SLP260 T01440117 55002=
200812160152 METAR KATL 160152Z 11003KT 10SM FEW060 BKN100 OVC200 14/12 A3030 RMK AO2 SLP259 T01440117=
200812160052 METAR KATL 160052Z 10006KT 10SM FEW025 BKN060 BKN100 OVC150 15/12 A3030 RMK AO2 SLP260 T01500117=
200812160016 SPECI KATL 160016Z 10003KT 10SM SCT024 BKN035 BKN060 OVC150 16/12 A3030 RMK AO2=
200812160016 SPECI KATL 160016Z 10003KT 10SM SCT024 BKN035 BKN060 OVC150 16/12 A3030 RMK AO2=
200812152352 METAR KATL 152352Z 09004KT 10SM BKN022 OVC035 16/12 A3030 RMK AO2 SLP262 T01610122 10172 20144 53006=
200812152305 SPECI KATL 152305Z 09004KT 10SM BKN024 BKN035 OVC060 16/12 A3030 RMK AO2=
200812152305 SPECI KATL 152305Z 09004KT 10SM BKN024 BKN035 OVC060 16/12 A3030 RMK AO2=
200812152252 METAR KATL 152252Z 11003KT 10SM SCT024 BKN035 BKN060 OVC150 16/12 A3029 RMK AO2 SLP259 T01610122=
200812152152 METAR KATL 152152Z 11006KT 9SM FEW020 SCT060 BKN100 17/12 A3028 RMK AO2 SLP254 T01670122=
200812152052 METAR KATL 152052Z 11006KT 10SM SCT026 BKN040 OVC070 17/12 A3029 RMK AO2 SLP256 T01720122 56012=
200812152029 SPECI KATL 152029Z 00000KT 10SM BKN028 BKN060 OVC090 17/12 A3029 RMK AO2=
200812152029 SPECI KATL 152029Z 00000KT 10SM BKN028 BKN060 OVC090 17/12 A3029 RMK AO2=
200812151952 METAR KATL 151952Z 00000KT 10SM BKN030 BKN060 OVC090 17/12 A3029 RMK AO2 SLP257 VIRGA NW T01670122=
200812151852 METAR KATL 151852Z 12004KT 8SM FEW020 SCT040 BKN065 16/12 A3029 RMK AO2 SLP257 T01610117=
200812151805 SPECI KATL 151805Z 00000KT 8SM SCT013 BKN070 OVC120 15/11 A3031 RMK AO2=
200812151805 SPECI KATL 151805Z 00000KT 8SM SCT013 BKN070 OVC120 15/11 A3031 RMK AO2=
200812151752 METAR KATL 151752Z 00000KT 8SM BKN013 BKN065 OVC120 14/11 A3032 RMK AO2 SLP269 T01440106 10144 20083 58014=
200812151734 SPECI KATL 151734Z 00000KT 8SM BKN011 BKN065 OVC120 14/11 A3033 RMK AO2=
200812151734 SPECI KATL 151734Z 00000KT 8SM BKN011 BKN065 OVC120 14/11 A3033 RMK AO2=
200812151652 METAR KATL 151652Z 13005KT 7SM OVC007 13/10 A3033 RMK AO2 SLP274 T01330100=
200812151552 METAR KATL 151552Z 13004KT 5SM BR OVC007 11/09 A3037 RMK AO2 SLP286 T01110089=
200812151452 METAR KATL 151452Z 12004KT 5SM HZ OVC005 11/08 A3037 RMK AO2 SLP286 T01060078 53012=
200812151352 METAR KATL 151352Z 11006KT 6SM HZ OVC007 09/07 A3035 RMK AO2 SLP282 T00940067=
200812151252 METAR KATL 151252Z 10006KT 6SM HZ BKN007 BKN090 09/06 A3034 RMK AO2 SLP276 T00890061=
200812151152 METAR KATL 151152Z 08005KT 6SM HZ OVC007 08/06 A3033 RMK AO2 SLP275 T00830056 10083 20067 51007=
200812151137 SPECI KATL 151137Z 09005KT 6SM HZ BKN007 OVC090 08/06 A3032 RMK AO2=
200812151137 SPECI KATL 151137Z 09005KT 6SM HZ BKN007 OVC090 08/06 A3032 RMK AO2=
200812151122 SPECI KATL 151122Z 09006KT 6SM BR SCT009 OVC090 08/06 A3032 RMK AO2=
200812151122 SPECI KATL 151122Z 09006KT 6SM BR SCT009 OVC090 08/06 A3032 RMK AO2=
200812151052 METAR KATL 151052Z 08005KT 6SM HZ OVC009 08/05 A3032 RMK AO2 SLP272 T00780050=
200812150952 METAR KATL 150952Z 08004KT 6SM HZ BKN009 BKN016 OVC044 08/05 A3032 RMK AO2 SLP269 T00830050=
200812150940 SPECI KATL 150940Z 10005KT 7SM BKN009 BKN017 OVC090 08/05 A3031 RMK AO2=
200812150940 SPECI KATL 150940Z 10005KT 7SM BKN009 BKN017 OVC090 08/05 A3031 RMK AO2=
200812150852 METAR KATL 150852Z 10005KT 7SM FEW009 OVC090 08/05 A3031 RMK AO2 SLP267 T00780050 56000=
200812150752 METAR KATL 150752Z 09006KT 7SM FEW009 BKN085 OVC095 07/04 A3031 RMK AO2 SLP267 T00720039=
200812150652 METAR KATL 150652Z 09007KT 8SM SCT009 BKN075 OVC090 07/04 A3030 RMK AO2 SLP265 T00720039=
200812150552 METAR KATL 150552Z 10008KT 10SM BKN009 OVC080 07/03 A3031 RMK AO2 SLP269 T00670033 10072 20061 58003=
200812150545 SPECI KATL 150545Z 10007KT 10SM SCT009 BKN085 07/03 A3031 RMK AO2=
200812150545 SPECI KATL 150545Z 10007KT 10SM SCT009 BKN085 07/03 A3031 RMK AO2=
200812150509 SPECI KATL 150509Z 10009KT 10SM BKN008 OVC075 07/03 A3032 RMK AO2=
200812150509 SPECI KATL 150509Z 10009KT 10SM BKN008 OVC075 07/03 A3032 RMK AO2=
200812150452 METAR KATL 150452Z 09007KT 10SM BKN011 OVC075 06/03 A3032 RMK AO2 SLP271 T00610028 400780022=
200812150352 METAR KATL 150352Z 09008KT 10SM FEW070 SCT085 BKN150 06/02 A3032 RMK AO2 SLP273 T00610022=
200812150252 METAR KATL 150252Z 09008KT 10SM FEW075 BKN150 07/02 A3032 RMK AO2 SLP272 T00670022 50013=
200812150152 METAR KATL 150152Z 10010KT 10SM FEW043 SCT055 BKN150 07/03 A3032 RMK AO2 SLP274 T00670028=
200812150052 METAR KATL 150052Z 09008KT 10SM SCT060 BKN150 07/03 A3032 RMK AO2 SLP274 T00720028=
200812142352 METAR KATL 142352Z 11010KT 10SM FEW060 BKN150 OVC200 07/03 A3028 RMK AO2 SLP259 VIRGA W-NW 60000 T00720028 10078 20061 58006=
200812142252 METAR KATL 142252Z 08010KT 10SM SCT150 OVC250 07/02 A3030 RMK AO2 SLP267 T00670022=
200812142152 METAR KATL 142152Z COR 09010KT 10SM SCT060 BKN150 OVC250 08/03 A3031 RMK AO2 SLP270 T00780028=
200812142052 METAR KATL 142052Z 09011KT 10SM BKN065 OVC200 08/02 A3030 RMK AO2 SLP265 VIRGA N-E-S AND W AND DSNT ALQDS 60000 T00780022 58018=
200812141952 METAR KATL 141952Z COR 08010KT 10SM BKN047 BKN060 OVC200 07/02 A3032 RMK AO2 SLP273 VIRGA OHD AND S-SW AND W-N AND DSNT ALQDS T00720022=
200812141852 METAR KATL 141852Z 10010KT 10SM SCT050 BKN060 OVC200 07/02 A3033 RMK AO2 DZE27 SLP278 VIRGA OHD-ALQDS AND DSNT ALQDS P0000 T00670017=
200812141752 METAR KATL 141752Z 09010KT 10SM -DZ SCT047 BKN055 OVC200 07/01 A3035 RMK AO2 DZB51 SLP285 VIRGA N AND S-SW AND DSNT ALQDS P0000 60000 T00670011 10067 20022 58021=
200812141652 SPECI KATL 141652Z 10007KT 10SM BKN055 OVC200 06/01 A3039 RMK AO2 SLP297 VIRGA OHD-ALQDS AND DSNT ALQDS T00610006=
200812141552 METAR KATL 141552Z 10011KT 10SM OVC055 06/M01 A3041 RMK AO2 SLP303 VIRGA OHD-ALQDS AND DSNT ALQDS T00561006=
200812141452 METAR KATL 141452Z 10009KT 10SM OVC055 04/M01 A3042 RMK AO2 SLP306 VIRGA OHD-ALQDS AND DSNT ALQDS T00441011 53013=
200812141352 METAR KATL 141352Z 09009KT 10SM FEW040 SCT055 BKN250 04/M02 A3039 RMK AO2 SLP299 T00391017=
200812141252 METAR KATL 141252Z 09008KT 10SM FEW043 BKN055 BKN250 03/M02 A3039 RMK AO2 SLP297 T00281022=
200812141152 METAR KATL 141152Z 09008KT 10SM SCT046 BKN250 02/M03 A3038 RMK AO2 SLP293 T00221028 10033 20022 53005=
200812141052 METAR KATL 141052Z 09009KT 10SM BKN043 BKN250 02/M03 A3036 RMK AO2 SLP288 T00221028=
200812140952 METAR KATL 140952Z 08007KT 10SM OVC039 03/M02 A3037 RMK AO2 SLP289 T00281022=
200812140852 METAR KATL 140852Z 12007KT 10SM BKN033 BKN250 03/M03 A3036 RMK AO2 SLP286 T00331028 53005=
200812140829 SPECI KATL 140829Z 12007KT 10SM BKN031 BKN250 03/M03 A3036 RMK AO2=
200812140829 SPECI KATL 140829Z 12007KT 10SM BKN031 BKN250 03/M03 A3036 RMK AO2=
200812140759 SPECI KATL 140759Z 11010G16KT 10SM BKN028 BKN250 03/M03 A3035 RMK AO2=
200812140759 SPECI KATL 140759Z 11010G16KT 10SM BKN028 BKN250 03/M03 A3035 RMK AO2=
200812140752 METAR KATL 140752Z 12013KT 10SM SCT028 BKN250 03/M03 A3035 RMK AO2 SLP281 T00331033=
200812140652 METAR KATL 140652Z 11007KT 10SM BKN250 03/M03 A3034 RMK AO2 SLP280 T00281033=
200812140552 METAR KATL 140552Z 12007KT 10SM BKN250 03/M03 A3034 RMK AO2 SLP281 T00281033 10067 20028 50000=
200812140452 METAR KATL 140452Z 12007KT 10SM FEW250 03/M03 A3035 RMK AO2 SLP283 T00331033 400891028=
200812140352 METAR KATL 140352Z 13006KT 10SM CLR 04/M03 A3035 RMK AO2 SLP284 T00391033=
200812140252 METAR KATL 140252Z 11009KT 10SM CLR 04/M03 A3034 RMK AO2 SLP282 T00391033 50008=
200812140152 METAR KATL 140152Z 10005KT 10SM CLR 03/M03 A3036 RMK AO2 SLP290 T00331033=
200812140052 METAR KATL 140052Z 12005KT 10SM FEW150 SCT250 06/M03 A3033 RMK AO2 SLP281 T00561033=
200812132352 METAR KATL 132352Z 14006KT 10SM SCT150 OVC250 07/M04 A3032 RMK AO2 SLP275 T00671039 10089 20067 53002=
200812132252 METAR KATL 132252Z 14007KT 10SM BKN150 OVC250 07/M04 A3032 RMK AO2 SLP276 VIRGA ALQDS T00721039=
200812132152 METAR KATL 132152Z 14007KT 10SM SCT150 OVC250 08/M04 A3030 RMK AO2 SLP269 VIRGA S-W-N T00781039=
200812132052 METAR KATL 132052Z 14005KT 10SM FEW110 OVC250 08/M04 A3031 RMK AO2 SLP271 VIRGA DSNT S-W T00831044 55002=
200812131952 METAR KATL 131952Z 18003KT 10SM OVC250 08/M04 A3030 RMK AO2 SLP267 T00831044=
200812131852 METAR KATL 131852Z 15006KT 10SM OVC250 08/M06 A3031 RMK AO2 SLP270 T00781056=
200812131752 METAR KATL 131752Z 14006KT 10SM OVC250 07/M06 A3032 RMK AO2 SLP274 T00721061 10072 21028 58016=
200812131652 METAR KATL 131652Z 14008KT 10SM FEW150 OVC250 06/M06 A3036 RMK AO2 SLP287 T00611056=
200812131552 METAR KATL 131552Z 12005KT 10SM FEW150 OVC250 05/M06 A3037 RMK AO2 SLP293 T00501056=
200812131452 METAR KATL 131452Z 05005KT 10SM FEW150 BKN250 03/M04 A3037 RMK AO2 SLP291 T00281044 53017=
200812131352 METAR KATL 131352Z 01006KT 10SM BKN250 00/M04 A3034 RMK AO2 SLP283 T00001044=
200812131252 METAR KATL 131252Z 32006KT 10SM SCT250 M02/M04 A3033 RMK AO2 SLP280 T10221044=
200812131152 METAR KATL 131152Z 33006KT 10SM SCT250 M02/M05 A3032 RMK AO2 SLP275 T10221050 11006 21022 53009=
200812131052 METAR KATL 131052Z 34005KT 10SM FEW250 M02/M05 A3030 RMK AO2 SLP268 T10221050=
200812130952 METAR KATL 130952Z 32007G17KT 10SM CLR M02/M04 A3029 RMK AO2 SLP263 T10171044=
200812130852 METAR KATL 130852Z 31005KT 10SM CLR M02/M05 A3029 RMK AO2 SLP264 T10171050 50008=
200812130752 METAR KATL 130752Z 29004KT 10SM CLR M01/M05 A3029 RMK AO2 SLP264 T10111050=
200812130652 METAR KATL 130652Z 30004KT 10SM CLR M01/M05 A3027 RMK AO2 SLP257 T10061050=
200812130552 METAR KATL 130552Z 31005KT 10SM CLR M01/M05 A3026 RMK AO2 SLP255 T10061050 10050 21006 51003=
200812130452 METAR KATL 130452Z 33006KT 10SM CLR 00/M05 A3026 RMK AO2 SLP255 T00001050 400940000=
200812130352 METAR KATL 130352Z 33004KT 10SM CLR 01/M05 A3026 RMK AO2 SLP255 T00111050=
200812130252 METAR KATL 130252Z 34010KT 10SM CLR 02/M05 A3025 RMK AO2 SLP252 T00221050 50015=
200812130152 METAR KATL 130152Z 34014G21KT 10SM CLR 03/M05 A3026 RMK AO2 SLP254 T00281050=
200812130052 METAR KATL 130052Z 35013KT 10SM CLR 04/M04 A3024 RMK AO2 SLP247 T00391044=
200812122352 METAR KATL 122352Z 33011G18KT 10SM CLR 05/M04 A3021 RMK AO2 SLP236 T00501039 10094 20044 53025=
200812122252 METAR KATL 122252Z 33012KT 10SM FEW250 06/M05 A3018 RMK AO2 SLP225 T00611050=
200812122152 METAR KATL 122152Z COR 32016G21KT 10SM FEW050 08/M04 A3015 RMK AO2 SLP216 T00781039=
200812122052 METAR KATL 122052Z 31014G19KT 10SM FEW050 08/M02 A3013 RMK AO2 SLP208 T00831017 53013=
200812121952 METAR KATL 121952Z 32011G24KT 10SM FEW047 09/M02 A3011 RMK AO2 SLP199 T00891017=
200812121852 METAR KATL 121852Z 31016KT 10SM FEW045 09/M02 A3010 RMK AO2 SLP196 T00891022=
200812121752 METAR KATL 121752Z 29012KT 10SM CLR 08/M02 A3009 RMK AO2 SLP194 T00831022 10083 20022 50003=
200812121652 METAR KATL 121652Z 30010KT 10SM CLR 07/M02 A3010 RMK AO2 SLP198 T00721022=
200812121552 METAR KATL 121552Z 30010KT 10SM CLR 06/M02 A3010 RMK AO2 SLP197 T00561022=
200812121452 METAR KATL 121452Z 32015KT 10SM CLR 04/M02 A3008 RMK AO2 SLP192 T00441022 51036=
200812121352 METAR KATL 121352Z 32010KT 10SM CLR 03/M02 A3005 RMK AO2 SLP180 T00281017=
200812121252 METAR KATL 121252Z 31014KT 10SM CLR 02/M02 A3001 RMK AO2 SLP168 T00221017=
200812121152 METAR KATL 121152Z 32012KT 10SM CLR 02/M01 A2997 RMK AO2 SLP154 60000 70035 T00221011 10056 20022 53042=
200812121052 METAR KATL 121052Z 32014G23KT 10SM CLR 03/M01 A2993 RMK AO2 SLP140 T00281006=
200812120952 METAR KATL 120952Z 32017KT 10SM FEW026 04/00 A2988 RMK AO2 PK WND 31026/0906 SLP120 T00390000=
200812120852 METAR KATL 120852Z 33020G26KT 10SM FEW026 04/01 A2985 RMK AO2 PK WND 34029/0807 SLP108 60000 T00440006 51029=
200812120752 METAR KATL 120752Z 32022G29KT 10SM BKN022 BKN027 05/02 A2981 RMK AO2 PK WND 32029/0750 SLP093 T00500017=
200812120652 METAR KATL 120652Z 31015KT 10SM BKN014 BKN020 05/03 A2976 RMK AO2 PK WND 32031/0608 RAE44 SLP078 P0000 T00500028=
200812120650 SPECI KATL 120650Z 32014KT 10SM BKN014 BKN020 05/03 A2976 RMK AO2 PK WND 32031/0608 RAE44 P0000=
200812120650 SPECI KATL 120650Z 32014KT 10SM BKN014 BKN020 05/03 A2976 RMK AO2 PK WND 32031/0608 RAE44 P0000=
200812120610 SPECI KATL 120610Z 31021G31KT 7SM -RA BKN009 OVC013 06/04 A2974 RMK AO2 PK WND 32031/0608 CIG 006V011 P0000=
200812120610 SPECI KATL 120610Z 31021G31KT 7SM -RA BKN009 OVC013 06/04 A2974 RMK AO2 PK WND 32031/0608 CIG 006V011 P0000=
200812120552 METAR KATL 120552Z 29017G23KT 7SM -RA OVC010 06/04 A2973 RMK AO2 RAE0459B28 SLP067 CIG 007V013 P0000 60000 T00560044 10100 20056 51027=
200812120452 METAR KATL 120452Z 29012G19KT 10SM -RA BKN014 OVC020 06/04 A2970 RMK AO2 RAB51 SLP056 P0000 T00610039 401780061=
200812120352 METAR KATL 120352Z COR 29015G20KT 10SM SCT017 BKN025 OVC060 07/04 A2969 RMK AO2 SLP052 T00720039=
200812120252 METAR KATL 120252Z 29014G20KT 10SM BKN017 OVC120 08/04 A2965 RMK AO2 SLP038 60000 T00780044 53024=
200812120152 METAR KATL 120152Z 29015G22KT 10SM BKN015 OVC120 08/06 A2961 RMK AO2 SLP027 T00830056=
200812120149 SPECI KATL 120149Z 29013KT 10SM BKN015 OVC120 08/06 A2961 RMK AO2=
200812120149 SPECI KATL 120149Z 29013KT 10SM BKN015 OVC120 08/06 A2961 RMK AO2=
200812120052 METAR KATL 120052Z 29015G22KT 10SM SCT020 BKN110 OVC150 09/06 A2958 RMK AO2 RAE13 SLP015 P0000 T00940061=
200812112352 METAR KATL 112352Z 27010KT 10SM -RA FEW018 OVC048 10/07 A2957 RMK AO2 RAB44 SLP012 P0000 60000 T01000067 10161 20100 53014=
200812112252 METAR KATL 112252Z 22009KT 10SM FEW060 BKN100 OVC150 11/08 A2956 RMK AO2 SLP006 T01110078=
200812112152 METAR KATL 112152Z 21009KT 10SM FEW020 BKN060 BKN070 BKN250 12/08 A2955 RMK AO2 PK WND 22029/2121 RAB22E48 SLP004 VIRGA DSNT S SHRA NE NW P0000 T01170083=
200812112119 SPECI KATL 112119Z 22019G29KT 10SM FEW045 BKN060 BKN075 14/06 A2954 RMK AO2 PK WND 22029/2114 SHRA SE S-SW-W=
200812112119 SPECI KATL 112119Z 22019G29KT 10SM FEW045 BKN060 BKN075 14/06 A2954 RMK AO2 PK WND 22029/2114 SHRA SE S-SW-W=
200812112052 METAR KATL 112052Z 21011G18KT 10SM FEW030 SCT050 BKN065 14/07 A2953 RMK AO2 SLP997 SHRA DSNT SW-W T01440072 55012=
200812111952 SPECI KATL 111952Z 21014KT 10SM FEW030 SCT040 16/08 A2952 RMK AO2 PK WND 18028/1926 SLP992 T01560078=
200812111852 METAR KATL 111852Z 21013G23KT 10SM FEW025 BKN040 BKN045 15/09 A2955 RMK AO2 PK WND 22026/1812 SLP002 T01500089=
200812111752 METAR KATL 111752Z 22017G23KT 10SM FEW020 SCT030 SCT040 15/10 A2957 RMK AO2 PK WND 21035/1725 SLP010 60035 T01500100 10178 20139 58005=
200812111714 SPECI KATL 111714Z 22015G26KT 10SM SCT023 BKN030 BKN040 15/11 A2958 RMK AO2 PK WND 21027/1704=
200812111714 SPECI KATL 111714Z 22015G26KT 10SM SCT023 BKN030 BKN040 15/11 A2958 RMK AO2 PK WND 21027/1704=
200812111652 METAR KATL 111652Z 21015G23KT 10SM FEW008 BKN020 BKN055 15/12 A2958 RMK AO2 SLP015 T01500122=
200812111629 SPECI KATL 111629Z 21017G22KT 10SM FEW007 SCT012 BKN055 BKN150 BKN250 15/13 A2959 RMK AO2=
200812111629 SPECI KATL 111629Z 21017G22KT 10SM FEW007 SCT012 BKN055 BKN150 BKN250 15/13 A2959 RMK AO2=
200812111555 SPECI KATL 111555Z 19007KT 10SM SCT012 BKN017 BKN040 BKN150 14/13 A2958 RMK AO2=
200812111555 SPECI KATL 111555Z 19007KT 10SM SCT012 BKN017 BKN040 BKN150 14/13 A2958 RMK AO2=
200812111552 METAR KATL 111552Z 20011G24KT 10SM BKN012 BKN017 BKN150 14/13 A2958 RMK AO2 PK WND 20030/1521 RAE50 SLP015 P0007 T01440133=
200812111513 SPECI KATL 111513Z 19016G23KT 8SM -RA FEW007 BKN014 OVC028 17/16 A2958 RMK AO2 P0006=
200812111513 SPECI KATL 111513Z 19016G23KT 8SM -RA FEW007 BKN014 OVC028 17/16 A2958 RMK AO2 P0006=
200812111511 SPECI KATL 111511Z 18016G23KT 2SM -RA BR SCT009 BKN014 OVC026 17/16 A2958 RMK AO2 SFC VIS 9 P0006=
200812111511 SPECI KATL 111511Z 18016G23KT 2SM -RA BR SCT009 BKN014 OVC026 17/16 A2958 RMK AO2 SFC VIS 9 P0006=
200812111502 SPECI KATL 111502Z 16011G22KT 2SM +RA BR SCT010 BKN018 OVC047 18/17 A2958 RMK AO2 SFC VIS 3 P0004=
200812111502 SPECI KATL 111502Z 16011G22KT 2SM +RA BR SCT010 BKN018 OVC047 18/17 A2958 RMK AO2 SFC VIS 3 P0004=
200812111452 METAR KATL 111452Z 18013KT 2SM RA BR BKN010 OVC018 18/17 A2959 RMK AO2 SLP014 P0017 60028 T01780167 55013=
200812111445 SPECI KATL 111445Z 18010KT 2SM RA BR SCT008 OVC018 18/17 A2958 RMK AO2 P0014=
200812111445 SPECI KATL 111445Z 18010KT 2SM RA BR SCT008 OVC018 18/17 A2958 RMK AO2 P0014=
200812111428 SPECI KATL 111428Z 14013G19KT 2SM RA BR BKN008 BKN013 OVC018 17/17 A2958 RMK AO2 CIG 005V009 P0008=
200812111428 SPECI KATL 111428Z 14013G19KT 2SM RA BR BKN008 BKN013 OVC018 17/17 A2958 RMK AO2 CIG 005V009 P0008=
200812111352 METAR KATL 111352Z 11011G20KT 2SM -RA BR BKN006 BKN009 OVC012 17/16 A2956 RMK AO2 SFC VIS 5 RAE20B37 SLP007 P0002 T01720161=
200812111346 SPECI KATL 111346Z 11014G20KT 2SM -RA BR BKN006 BKN009 OVC012 17/16 A2957 RMK AO2 SFC VIS 5 RAE20B37 CIG 003V008 P0002=
200812111346 SPECI KATL 111346Z 11014G20KT 2SM -RA BR BKN006 BKN009 OVC012 17/16 A2957 RMK AO2 SFC VIS 5 RAE20B37 CIG 003V008 P0002=
200812111252 METAR KATL 111252Z 11010KT 5SM -RA BR BKN008 BKN011 OVC014 17/16 A2963 RMK AO2 SLP028 P0009 T01670161=
200812111156 SPECI KATL 111156Z 11011KT 3SM -RA BR BKN008 OVC015 17/16 A2964 RMK AO2 SFC VIS 5 CIG 005V011 P0001=
200812111156 SPECI KATL 111156Z 11011KT 3SM -RA BR BKN008 OVC015 17/16 A2964 RMK AO2 SFC VIS 5 CIG 005V011 P0001=
200812111152 METAR KATL 111152Z 11010KT 1/2SM -RA BR BKN008 BKN015 OVC023 16/16 A2964 RMK AO2 SFC VIS 5 CIG 005V011 SLP034 P0021 60050 70226 T01610156 10167 20156 56035=
200812111124 SPECI KATL 111124Z 12012KT 1/2SM RA BR SCT005 BKN010 OVC037 16/16 A2967 RMK AO2 SFC VIS 5 P0015=
200812111124 SPECI KATL 111124Z 12012KT 1/2SM RA BR SCT005 BKN010 OVC037 16/16 A2967 RMK AO2 SFC VIS 5 P0015=
200812111052 METAR KATL 111052Z 12004KT 1/2SM +RA BR OVC005 16/16 A2965 RMK AO2 SFC VIS 5 CIG 002V008 SLP038 P0017 T01610156=
200812111017 SPECI KATL 111017Z 09007KT 1/2SM -RA BR OVC005 16/16 A2968 RMK AO2 SFC VIS 5 CIG 003V008 P0008=
200812111017 SPECI KATL 111017Z 09007KT 1/2SM -RA BR OVC005 16/16 A2968 RMK AO2 SFC VIS 5 CIG 003V008 P0008=
200812110952 METAR KATL 110952Z 11009KT 1/2SM RA BR OVC003 16/16 A2970 RMK AO2 SFC VIS 5 SLP052 P0006 T01610156=
200812110852 METAR KATL 110852Z 11010KT 1/4SM -RA BR OVC003 16/16 A2975 RMK AO2 SFC VIS 5 SLP070 P0002 60006 T01610156 58023=
200812110752 METAR KATL 110752Z 12007KT 1/4SM -RA BR OVC003 16/16 A2978 RMK AO2 SFC VIS 4 CIG 001V006 SLP080 P0003 T01610156=
200812110652 METAR KATL 110652Z 13006KT 1/4SM -RA BR OVC001 16/16 A2981 RMK AO2 SFC VIS 4 SLP092 P0001 T01610156=
200812110552 METAR KATL 110552Z 13008KT 1/4SM -RA BR OVC001 16/16 A2982 RMK AO2 SFC VIS 2 1/2 RAB27 SLP095 P0001 60008 T01610156 10172 20156 58019=
200812110452 METAR KATL 110452Z 11009KT 1/4SM R09R/5500VP6000FT BR OVC001 16/16 A2984 RMK AO2 SFC VIS 1 1/2 RAB20E43 SLP102 P0000 T01610156 401780150=
200812110352 METAR KATL 110352Z 12003KT 1/2SM BR OVC003 16/16 A2987 RMK AO2 SFC VIS 6 RAE13 CIG 002V006 SLP112 CIG 002V007 P0000 T01610156=
200812110306 SPECI KATL 110306Z 12006KT 1/2SM -RA BKN003 OVC110 16/16 A2988 RMK AO2 SFC VIS 7 CIG 002V007 P0000=
200812110306 SPECI KATL 110306Z 12006KT 1/2SM -RA BKN003 OVC110 16/16 A2988 RMK AO2 SFC VIS 7 CIG 002V007 P0000=
200812110252 METAR KATL 110252Z 12006KT 7SM -RA SCT003 BKN009 OVC110 16/16 A2988 RMK AO2 SLP114 P0003 60007 T01610156 58008=
200812110247 SPECI KATL 110247Z 12006KT 7SM -RA SCT003 BKN012 BKN090 OVC150 16/16 A2988 RMK AO2 P0003=
200812110247 SPECI KATL 110247Z 12006KT 7SM -RA SCT003 BKN012 BKN090 OVC150 16/16 A2988 RMK AO2 P0003=
200812110218 SPECI KATL 110218Z 12003KT 2SM -RA BKN004 OVC085 16/16 A2989 RMK AO2 SFC VIS 7 CIG 003V009 P0002=
200812110218 SPECI KATL 110218Z 12003KT 2SM -RA BKN004 OVC085 16/16 A2989 RMK AO2 SFC VIS 7 CIG 003V009 P0002=
200812110155 SPECI KATL 110155Z 15003KT 7SM -RA OVC006 16/16 A2990 RMK AO2 CIG 004V009 P0000=
200812110155 SPECI KATL 110155Z 15003KT 7SM -RA OVC006 16/16 A2990 RMK AO2 CIG 004V009 P0000=
200812110152 METAR KATL 110152Z 15004KT 2SM -RA OVC006 16/16 A2990 RMK AO2 SFC VIS 7 SLP122 CIG 003V009 P0001 T01610156=
200812110118 SPECI KATL 110118Z 15004KT 2SM -RA BR BKN006 BKN015 OVC060 16/16 A2991 RMK AO2 SFC VIS 6 CIG 004V008 P0001=
200812110118 SPECI KATL 110118Z 15004KT 2SM -RA BR BKN006 BKN015 OVC060 16/16 A2991 RMK AO2 SFC VIS 6 CIG 004V008 P0001=
200812110052 METAR KATL 110052Z 16006KT 2SM -RA BKN004 BKN020 OVC040 16/16 A2992 RMK AO2 SFC VIS 7 SLP127 P0003 T01610156=
200812110026 SPECI KATL 110026Z 15006KT 2SM -RA BR BKN004 BKN030 OVC100 16/16 A2990 RMK AO2 SFC VIS 6 CIG 003V008 P0003=
200812110026 SPECI KATL 110026Z 15006KT 2SM -RA BR BKN004 BKN030 OVC100 16/16 A2990 RMK AO2 SFC VIS 6 CIG 003V008 P0003=
200812102352 METAR KATL 102352Z 15007KT 2SM -RA BR BKN006 BKN015 OVC100 16/16 A2990 RMK AO2 SFC VIS 6 SLP123 BKN006 V SCT P0004 60023 T01610156 10167 20150 52001=
200812102336 SPECI KATL 102336Z 14006KT 2SM -RA BR BKN006 BKN030 OVC090 16/16 A2990 RMK AO2 SFC VIS 6 P0003=
200812102336 SPECI KATL 102336Z 14006KT 2SM -RA BR BKN006 BKN030 OVC090 16/16 A2990 RMK AO2 SFC VIS 6 P0003=
200812102326 SPECI KATL 102326Z 15008KT 3SM -RA BKN006 BKN014 OVC090 17/16 A2990 RMK AO2 SFC VIS 7 P0002=
200812102326 SPECI KATL 102326Z 15008KT 3SM -RA BKN006 BKN014 OVC090 17/16 A2990 RMK AO2 SFC VIS 7 P0002=
200812102257 SPECI KATL 102257Z 16008KT 3SM -RA BR SCT005 BKN012 OVC090 17/16 A2990 RMK AO2 SFC VIS 6 P0000=
200812102257 SPECI KATL 102257Z 16008KT 3SM -RA BR SCT005 BKN012 OVC090 17/16 A2990 RMK AO2 SFC VIS 6 P0000=
200812102252 METAR KATL 102252Z 16008KT 1SM -RA BR SCT005 BKN012 OVC085 17/16 A2990 RMK AO2 SFC VIS 6 SLP122 P0006 T01670156=
200812102241 SPECI KATL 102241Z 15007KT 1SM -RA BR BKN004 OVC085 16/16 A2990 RMK AO2 SFC VIS 6 CIG 003V007 P0005=
200812102241 SPECI KATL 102241Z 15007KT 1SM -RA BR BKN004 OVC085 16/16 A2990 RMK AO2 SFC VIS 6 CIG 003V007 P0005=
200812102152 METAR KATL 102152Z 14010KT 1/2SM -RA BR BKN002 BKN005 OVC070 16/16 A2990 RMK AO2 SFC VIS 4 SLP123 P0001 T01560156=
200812102052 METAR KATL 102052Z 14011KT 1/2SM -RA BR BKN003 BKN005 OVC030 16/16 A2990 RMK AO2 SFC VIS 4 SLP121 TWRINC P0001 60012 T01610156 56020=
200812102008 SPECI KATL 102008Z 12003KT 1/2SM -RA BR BKN003 OVC007 16/16 A2992 RMK AO2 SFC VIS 5 TWRINC P0000=
200812102008 SPECI KATL 102008Z 12003KT 1/2SM -RA BR BKN003 OVC007 16/16 A2992 RMK AO2 SFC VIS 5 TWRINC P0000=
200812102001 SPECI KATL 102001Z 11004KT 1SM -RA BR BKN003 BKN030 OVC070 16/16 A2992 RMK AO2 SFC VIS 5 P0000=
200812102001 SPECI KATL 102001Z 11004KT 1SM -RA BR BKN003 BKN030 OVC070 16/16 A2992 RMK AO2 SFC VIS 5 P0000=
200812101952 METAR KATL 101952Z 15003KT 2SM -RA BR BKN005 BKN030 OVC080 16/16 A2993 RMK AO2 SFC VIS 5 SLP129 P0002 T01610156=
200812101948 SPECI KATL 101948Z 13003KT 2SM -RA BR BKN005 BKN030 OVC080 16/16 A2993 RMK AO2 SFC VIS 5 P0002=
200812101948 SPECI KATL 101948Z 13003KT 2SM -RA BR BKN005 BKN030 OVC080 16/16 A2993 RMK AO2 SFC VIS 5 P0002=
200812101940 SPECI KATL 101940Z 14004KT 3SM -RA BR FEW003 BKN070 OVC100 16/16 A2993 RMK AO2 SFC VIS 6 P0001=
200812101940 SPECI KATL 101940Z 14004KT 3SM -RA BR FEW003 BKN070 OVC100 16/16 A2993 RMK AO2 SFC VIS 6 P0001=
200812101910 SPECI KATL 101910Z 14005KT 6SM -RA BR FEW003 SCT018 BKN090 OVC150 16/15 A2993 RMK AO2 P0001=
200812101910 SPECI KATL 101910Z 14005KT 6SM -RA BR FEW003 SCT018 BKN090 OVC150 16/15 A2993 RMK AO2 P0001=
200812101858 SPECI KATL 101858Z 13006KT 1SM -RA BR SCT003 BKN015 OVC080 16/15 A2993 RMK AO2 SFC VIS 5 P0001=
200812101858 SPECI KATL 101858Z 13006KT 1SM -RA BR SCT003 BKN015 OVC080 16/15 A2993 RMK AO2 SFC VIS 5 P0001=
200812101852 METAR KATL 101852Z 12006KT 1SM -RA BR SCT003 BKN015 OVC022 16/15 A2993 RMK AO2 SFC VIS 5 SLP133 TWRINC P0009 T01560150=
200812101850 SPECI KATL 101850Z 12006KT 1SM -RA BR SCT003 BKN015 OVC080 16/15 A2994 RMK AO2 SFC VIS 5 TWRINC P0009=
200812101850 SPECI KATL 101850Z 12006KT 1SM -RA BR SCT003 BKN015 OVC080 16/15 A2994 RMK AO2 SFC VIS 5 TWRINC P0009=
200812101830 SPECI KATL 101830Z 11007KT 1/4SM -RA BR BKN003 OVC020 15/15 A2994 RMK AO2 SFC VIS 6 TWRINC P0007=
200812101830 SPECI KATL 101830Z 11007KT 1/4SM -RA BR BKN003 OVC020 15/15 A2994 RMK AO2 SFC VIS 6 TWRINC P0007=
200812101808 SPECI KATL 101808Z 12004KT 1/4SM RA BR BKN003 BKN015 OVC023 15/15 A2995 RMK AO2 SFC VIS 3 P0004=
200812101808 SPECI KATL 101808Z 12004KT 1/4SM RA BR BKN003 BKN015 OVC023 15/15 A2995 RMK AO2 SFC VIS 3 P0004=
200812101752 METAR KATL 101752Z 11005KT 2SM RA BR BKN003 BKN017 OVC046 15/15 A2996 RMK AO2 SFC VIS 5 SLP143 P0016 60145 T01500150 10172 20150 56018=
200812101652 METAR KATL 101652Z 07005KT 2SM -RA BR FEW005 BKN023 OVC040 15/14 A2999 RMK AO2 SFC VIS 5 SLP152 P0017 T01500144=
200812101552 METAR KATL 101552Z 12011KT 2SM +RA BR FEW005 BKN024 OVC049 15/14 A2999 RMK AO2 SFC VIS 2 1/2 TSB1458E14 PRESFR SLP152 P0031 T01500144=
200812101527 SPECI KATL 101527Z 19010KT 2SM RA BR BKN024 OVC050 15/14 A3004 RMK AO2 SFC VIS 4 TSB1458E14 LTG DSNT NE-SE TS MOV E P0020=
200812101527 SPECI KATL 101527Z 19010KT 2SM RA BR BKN024 OVC050 15/14 A3004 RMK AO2 SFC VIS 4 TSB1458E14 LTG DSNT NE-SE TS MOV E P0020=
200812101514 SPECI KATL 101514Z 17008KT 2SM RA BR FEW006 OVC020 16/14 A3001 RMK AO2 SFC VIS 3 TSB1458E14 LTG DSNT NE-SE TS MOV E P0016=
200812101514 SPECI KATL 101514Z 17008KT 2SM RA BR FEW006 OVC020 16/14 A3001 RMK AO2 SFC VIS 3 TSB1458E14 LTG DSNT NE-SE TS MOV E P0016=
200812101500 SPECI KATL 101500Z 20008KT 1SM -TSRA BR OVC011CB 16/15 A3002 RMK AO2 SFC VIS 3 TSB1458 OCNL LTGICCG TS OHD MOV E P0010=
200812101500 SPECI KATL 101500Z 20008KT 1SM -TSRA BR OVC011CB 16/15 A3002 RMK AO2 SFC VIS 3 TSB1458 OCNL LTGICCG TS OHD MOV E P0010=
200812101454 SPECI KATL 101454Z AUTO 20008KT 1SM R09R/4500VP6000FT +TSRA BR OVC011CB 16/16 A3002 RMK AO2 FRQ LTGICCG TS OHD MOV E P0006=
200812101454 SPECI KATL 101454Z AUTO 20008KT 1SM R09R/4500VP6000FT +TSRA BR OVC011CB 16/16 A3002 RMK AO2 FRQ LTGICCG TS OHD MOV E P0006=
200812101450 METAR KATL 101450Z 21009KT 1SM R09R/4000VP6000FT +TSRA BR OVC010CB 16/16 A3002 RMK AO2 PK WND 25026/1416 WSHFT 1407 TSB04E48B49 SLP161 OCNL LTGICCG TS OHD MOV E P0076 60081 T01560156 53025=
200812101449 SPECI KATL 101449Z 21008KT 1SM R09R/4000VP6000FT +TSRA BR OVC010CB 16/16 A3002 RMK AO2 PK WND 25026/1416 WSHFT 1407 TSB04E48B49 OCNL LTGICCG TS OHD MOV E P0075=
200812101449 SPECI KATL 101449Z 21008KT 1SM R09R/4000VP6000FT +TSRA BR OVC010CB 16/16 A3002 RMK AO2 PK WND 25026/1416 WSHFT 1407 TSB04E48B49 OCNL LTGICCG TS OHD MOV E P0075=
200812101433 SPECI KATL 101433Z 21010KT 1SM R09R/4500VP6000FT +TSRA BR OVC005CB 16/16 A2999 RMK AO2 PK WND 25026/1416 WSHFT 1407 SFC VIS 2 TSB04 PRESRR OCNL LTGICCG TS NE-E-SE-S MOV E P0050=
200812101433 SPECI KATL 101433Z 21010KT 1SM R09R/4500VP6000FT +TSRA BR OVC005CB 16/16 A2999 RMK AO2 PK WND 25026/1416 WSHFT 1407 SFC VIS 2 TSB04 PRESRR OCNL LTGICCG TS NE-E-SE-S MOV E P0050=
200812101427 SPECI KATL 101427Z 24009G21KT 1/4SM R09R/2800V5500FT +TSRA BR OVC005CB 16/16 A2997 RMK AO2 PK WND 25026/1416 WSHFT 1407 SFC VIS 1 TSB04 OCNL LTGICCG TS OHD-NE-SE MOV E P0037=
200812101427 SPECI KATL 101427Z 24009G21KT 1/4SM R09R/2800V5500FT +TSRA BR OVC005CB 16/16 A2997 RMK AO2 PK WND 25026/1416 WSHFT 1407 SFC VIS 1 TSB04 OCNL LTGICCG TS OHD-NE-SE MOV E P0037=
200812101424 SPECI KATL 101424Z 25011G26KT 1/4SM R09R/2800VP6000FT +TSRA BR OVC005CB 17/16 A2997 RMK AO2 PK WND 25026/1416 WSHFT 1407 SFC VIS 1/2 TSB04 OCNL LTGICCG TS OHD MOV E P0029=
200812101424 SPECI KATL 101424Z 25011G26KT 1/4SM R09R/2800VP6000FT +TSRA BR OVC005CB 17/16 A2997 RMK AO2 PK WND 25026/1416 WSHFT 1407 SFC VIS 1/2 TSB04 OCNL LTGICCG TS OHD MOV E P0029=
200812101419 SPECI KATL 101419Z 26015G26KT 1/4SM R09R/2800VP6000FT +TSRA FG OVC005CB 17/16 A2997 RMK AO2 PK WND 25026/1416 SFC VIS 1 TSB04 OCNL LTGICCG TS OHD MOV E P0006=
200812101419 SPECI KATL 101419Z 26015G26KT 1/4SM R09R/2800VP6000FT +TSRA FG OVC005CB 17/16 A2997 RMK AO2 PK WND 25026/1416 SFC VIS 1 TSB04 OCNL LTGICCG TS OHD MOV E P0006=
200812101415 SPECI KATL 101415Z 20016G21KT 180V240 1 1/2SM TSRA BR OVC005CB 17/16 A2992 RMK AO2 SFC VIS 3 TSB04 OCNL LTGICCG TS SW-NW MOV E P0004=
200812101415 SPECI KATL 101415Z 20016G21KT 180V240 1 1/2SM TSRA BR OVC005CB 17/16 A2992 RMK AO2 SFC VIS 3 TSB04 OCNL LTGICCG TS SW-NW MOV E P0004=
200812101404 SPECI KATL 101404Z 18010KT 3SM -TSRA BR OVC005CB 17/16 A2994 RMK AO2 SFC VIS 5 TSB04 OCNL LTGICCG TS SW-NW MOV E P0001=
200812101404 SPECI KATL 101404Z 18010KT 3SM -TSRA BR OVC005CB 17/16 A2994 RMK AO2 SFC VIS 5 TSB04 OCNL LTGICCG TS SW-NW MOV E P0001=
200812101352 METAR KATL 101352Z 17011KT 3SM -RA BR BKN007 OVC009 17/16 A2993 RMK AO2 SFC VIS 6 SLP133 P0004 T01670156=
200812101252 METAR KATL 101252Z 18010KT 6SM -RA BR BKN009 OVC012 17/16 A2994 RMK AO2 RAB37 SLP136 P0001 T01670156=
200812101226 SPECI KATL 101226Z 19017G22KT 10SM OVC009 17/15 A2994 RMK AO2=
200812101226 SPECI KATL 101226Z 19017G22KT 10SM OVC009 17/15 A2994 RMK AO2=
200812101152 METAR KATL 101152Z 18012G21KT 10SM OVC011 17/14 A2994 RMK AO2 SLP135 70008 T01670144 10178 20167 56008=
200812101121 SPECI KATL 101121Z 17012G20KT 10SM BKN013 OVC020 17/14 A2994 RMK AO2=
200812101121 SPECI KATL 101121Z 17012G20KT 10SM BKN013 OVC020 17/14 A2994 RMK AO2=
200812101052 METAR KATL 101052Z 17012KT 10SM SCT015 BKN022 OVC055 17/14 A2994 RMK AO2 SLP135 T01670139=
200812100952 METAR KATL 100952Z 18016G21KT 10SM BKN018 BKN024 OVC032 17/14 A2995 RMK AO2 SLP139 T01720139=
200812100931 SPECI KATL 100931Z 18011KT 10SM FEW022 BKN032 OVC042 17/14 A2996 RMK AO2=
200812100931 SPECI KATL 100931Z 18011KT 10SM FEW022 BKN032 OVC042 17/14 A2996 RMK AO2=
200812100852 METAR KATL 100852Z 18014G20KT 10SM BKN022 BKN026 OVC200 18/14 A2997 RMK AO2 PK WND 19028/0805 SLP142 T01780144 56004=
200812100752 METAR KATL 100752Z 20015G26KT 10SM BKN022 OVC035 18/14 A2997 RMK AO2 PK WND 20026/0749 SLP145 T01780139=
200812100652 METAR KATL 100652Z 19019G25KT 10SM BKN020 OVC070 18/14 A2996 RMK AO2 SLP141 T01780144=
200812100552 METAR KATL 100552Z 18015G24KT 10SM BKN022 BKN075 OVC110 18/14 A2998 RMK AO2 PK WND 17026/0511 SLP148 60008 T01780144 10178 20161 55005=
200812100452 METAR KATL 100452Z 18016G23KT 10SM BKN022 BKN035 OVC055 17/14 A2997 RMK AO2 RAE05B32E42 SLP147 P0000 T01720144 401940050=
200812100414 SPECI KATL 100414Z 17014G20KT 10SM SCT020 BKN032 OVC055 17/14 A2998 RMK AO2 RAE05 P0000=
200812100414 SPECI KATL 100414Z 17014G20KT 10SM SCT020 BKN032 OVC055 17/14 A2998 RMK AO2 RAE05 P0000=
200812100352 METAR KATL 100352Z 17013KT 9SM -RA BKN022 BKN055 OVC080 17/14 A2999 RMK AO2 RAE0256B32 SLP153 P0003 T01670144=
200812100252 METAR KATL 100252Z 16008KT 10SM -RA BKN025 BKN050 OVC110 16/14 A2999 RMK AO2 SLP156 P0001 60005 T01610139 56007=
200812100219 SPECI KATL 100219Z 16006KT 10SM -RA BKN026 OVC050 16/14 A3000 RMK AO2 P0001=
200812100219 SPECI KATL 100219Z 16006KT 10SM -RA BKN026 OVC050 16/14 A3000 RMK AO2 P0001=
200812100152 METAR KATL 100152Z 15010KT 5SM RA BR SCT028 BKN040 OVC070 16/14 A2999 RMK AO2 RAB33 SLP157 P0004 T01610139=
200812100052 METAR KATL 100052Z COR 15011KT 10SM BKN065 BKN090 OVC200 17/12 A2999 RMK AO2 SLP157 T01670122=
200812092352 METAR KATL 092352Z 14008KT 10SM BKN048 BKN065 OVC100 18/12 A3001 RMK AO2 SLP163 T01780122 10194 20150 58005=
200812092252 METAR KATL 092252Z 16007KT 10SM BKN048 BKN110 OVC250 18/12 A3002 RMK AO2 SLP166 T01780122=
200812092152 METAR KATL 092152Z COR 16010KT 10SM BKN040 BKN100 BKN250 18/12 A3003 RMK AO2 SLP169 T01830122=
200812092052 METAR KATL 092052Z 17013G18KT 10SM BKN035 BKN055 BKN250 18/12 A3003 RMK AO2 SLP169 T01830117 56021=
200812091952 METAR KATL 091952Z 19013G22KT 10SM FEW025 SCT050 BKN060 BKN250 19/11 A3004 RMK AO2 PK WND 17028/1923 SLP173 T01890111=
200812091852 METAR KATL 091852Z 17016G26KT 10SM FEW025 BKN055 BKN250 18/12 A3007 RMK AO2 PK WND 16026/1851 SLP181 T01780117=
200812091752 METAR KATL 091752Z 16009KT 10SM FEW020 BKN060 BKN250 15/11 A3009 RMK AO2 SLP192 60000 T01500106 10150 20056 58035=
200812091652 METAR KATL 091652Z COR 14007KT 10SM FEW015 BKN060 BKN250 12/09 A3015 RMK AO2 SLP213 T01220089=
200812091552 METAR KATL 091552Z 14008KT 10SM FEW010 SCT040 BKN060 BKN250 11/08 A3018 RMK AO2 RAE20 SLP223 P0000 T01060078=
200812091510 SPECI KATL 091510Z 12010KT 8SM -RA SCT008 BKN038 OVC060 08/07 A3020 RMK AO2 P0000=
200812091510 SPECI KATL 091510Z 12010KT 8SM -RA SCT008 BKN038 OVC060 08/07 A3020 RMK AO2 P0000=
200812091452 METAR KATL 091452Z 11010KT 8SM -RA BKN008 BKN045 OVC060 08/06 A3020 RMK AO2 RAB44 SLP231 P0000 60000 T00830061 58001=
200812091419 SPECI KATL 091419Z 10006KT 10SM SCT008 BKN028 BKN060 BKN250 08/05 A3021 RMK AO2=
200812091419 SPECI KATL 091419Z 10006KT 10SM SCT008 BKN028 BKN060 BKN250 08/05 A3021 RMK AO2=
200812091352 METAR KATL 091352Z 10007KT 8SM BKN008 BKN050 07/04 A3021 RMK AO2 SLP235 T00720044=
200812091252 METAR KATL 091252Z 09008KT 8SM BKN008 BKN055 BKN250 07/04 A3021 RMK AO2 SLP234 T00670039 $=
200812091245 SPECI KATL 091245Z 08008KT 10SM BKN008 BKN055 07/04 A3022 RMK AO2 $=
200812091245 SPECI KATL 091245Z 08008KT 10SM BKN008 BKN055 07/04 A3022 RMK AO2 $=
200812091221 SPECI KATL 091221Z 09009KT 10SM FEW008 BKN055 06/04 A3021 RMK AO2=
200812091221 SPECI KATL 091221Z 09009KT 10SM FEW008 BKN055 06/04 A3021 RMK AO2=
200812091152 METAR KATL 091152Z 08007KT 10SM SCT010 BKN055 06/04 A3020 RMK AO2 SLP231 T00610039 10067 20050 55003=
200812091052 METAR KATL 091052Z 09008KT 10SM SCT011 BKN049 05/03 A3019 RMK AO2 SLP227 T00500033 $=
200812090952 METAR KATL 090952Z 09008KT 10SM FEW050 SCT200 05/03 A3020 RMK AO2 SLP230 T00500033 $=
200812090852 METAR KATL 090852Z 10007KT 10SM FEW100 BKN200 OVC250 06/03 A3021 RMK AO2 SLP233 T00610033 56008 $=
200812090752 METAR KATL 090752Z 10006KT 10SM BKN200 BKN250 06/03 A3022 RMK AO2 SLP237 T00610028 $=
200812090652 METAR KATL 090652Z 10007KT 10SM BKN200 BKN250 06/01 A3022 RMK AO2 SLP236 T00610011 $=
200812090552 METAR KATL 090552Z 09007KT 10SM BKN200 BKN250 05/M01 A3024 RMK AO2 SLP243 T00501006 10094 20044 58000 $=
200812090452 METAR KATL 090452Z 09008KT 10SM BKN200 06/M02 A3025 RMK AO2 SLP247 T00611022 401221022 $=
200812090352 METAR KATL 090352Z 08007KT 10SM BKN200 05/M03 A3025 RMK AO2 SLP248 T00501033 $=
200812090252 METAR KATL 090252Z 09007KT 10SM BKN200 05/M04 A3024 RMK AO2 SLP245 T00501039 58005 $=
200812090152 METAR KATL 090152Z 11008KT 10SM SCT200 BKN250 08/M04 A3024 RMK AO2 SLP248 T00781044 $=
200812090052 METAR KATL 090052Z 10007KT 10SM BKN200 OVC250 07/M04 A3025 RMK AO2 SLP251 T00721044 $=
200812082352 METAR KATL 082352Z 11004KT 10SM OVC200 09/M05 A3025 RMK AO2 SLP251 T00891050 10122 20089 53004 $=
200812082252 METAR KATL 082252Z 13005KT 10SM SCT180 BKN200 BKN250 10/M06 A3023 RMK AO2 SLP244 T01001056 $=
200812082152 METAR KATL 082152Z 14004KT 10SM FEW180 SCT200 BKN250 11/M06 A3024 RMK AO2 SLP246 T01111061=
200812082052 METAR KATL 082052Z 14006KT 10SM BKN200 BKN250 12/M08 A3024 RMK AO2 SLP245 T01171078 56014=
200812081952 METAR KATL 081952Z 12006KT 10SM SCT200 BKN250 12/M08 A3024 RMK AO2 SLP245 T01171083=
200812081852 METAR KATL 081852Z 12007KT 10SM BKN200 BKN250 11/M09 A3026 RMK AO2 SLP252 T01061089=
200812081752 METAR KATL 081752Z 13008KT 10SM FEW200 BKN250 10/M08 A3028 RMK AO2 SLP260 T01001083 10100 21022 58018=
200812081652 METAR KATL 081652Z 15008KT 10SM FEW200 BKN250 08/M09 A3032 RMK AO2 SLP273 T00831089=
200812081552 METAR KATL 081552Z 12005KT 10SM FEW200 BKN250 06/M09 A3034 RMK AO2 SLP281 T00611089=
200812081452 METAR KATL 081452Z 11006KT 10SM SCT250 03/M08 A3034 RMK AO2 SLP281 T00331078 51013=
200812081352 METAR KATL 081352Z 08007KT 10SM SCT250 01/M08 A3033 RMK AO2 SLP280 T00111083=
200812081252 METAR KATL 081252Z 09006KT 10SM FEW050 M01/M08 A3032 RMK AO2 SLP276 T10111083=
200812081152 METAR KATL 081152Z 08006KT 10SM FEW050 M02/M09 A3030 RMK AO2 SLP269 T10171089 10000 21017 53013=
200812081052 METAR KATL 081052Z 07007KT 10SM CLR M01/M09 A3027 RMK AO2 SLP258 T10061089=
200812080952 METAR KATL 080952Z 03003KT 10SM CLR M01/M09 A3026 RMK AO2 SLP254 T10061094=
200812080852 METAR KATL 080852Z 00000KT 10SM FEW055 M01/M09 A3026 RMK AO2 SLP254 T10111094 51012=
200812080752 METAR KATL 080752Z 00000KT 10SM CLR M01/M10 A3025 RMK AO2 SLP251 T10111100=
200812080652 METAR KATL 080652Z 33004KT 10SM CLR M01/M10 A3024 RMK AO2 SLP246 T10111100=
200812080552 METAR KATL 080552Z 00000KT 10SM CLR M01/M10 A3022 RMK AO2 SLP242 T10061100 10028 21006 58007=
200812080452 METAR KATL 080452Z 00000KT 10SM CLR 00/M11 A3023 RMK AO2 SLP246 T00001111 400721011=
200812080352 METAR KATL 080352Z 32003KT 10SM CLR 00/M11 A3024 RMK AO2 SLP249 T00001106=
200812080252 METAR KATL 080252Z 33005KT 10SM CLR 01/M11 A3024 RMK AO2 SLP250 T00061106 50006=
200812080152 METAR KATL 080152Z 33006KT 10SM CLR 01/M11 A3024 RMK AO2 SLP250 T00111111=
200812080052 METAR KATL 080052Z 33007KT 10SM CLR 02/M11 A3023 RMK AO2 SLP246 T00171111=
200812072352 METAR KATL 072352Z 31006KT 10SM CLR 02/M12 A3022 RMK AO2 SLP244 T00221117 10072 20022 51015=
200812072252 METAR KATL 072252Z 33006KT 10SM CLR 04/M13 A3021 RMK AO2 SLP240 T00391128=
200812072152 METAR KATL 072152Z 32010KT 10SM CLR 06/M15 A3021 RMK AO2 SLP238 T00561150=
200812072052 METAR KATL 072052Z 30009KT 10SM CLR 07/M13 A3018 RMK AO2 SLP228 T00671133 53000=
200812071952 METAR KATL 071952Z 33015G19KT 10SM CLR 07/M15 A3018 RMK AO2 SLP228 T00671150=
200812071852 METAR KATL 071852Z 33011KT 10SM CLR 07/M14 A3017 RMK AO2 SLP223 T00721139=
200812071752 METAR KATL 071752Z 34008G17KT 10SM CLR 06/M12 A3018 RMK AO2 SLP226 T00611117 10061 21006 58002=
200812071652 METAR KATL 071652Z 31010KT 10SM CLR 05/M11 A3021 RMK AO2 SLP236 T00501106=
200812071552 METAR KATL 071552Z 31009KT 10SM CLR 04/M09 A3021 RMK AO2 SLP237 T00391089=
200812071452 METAR KATL 071452Z 31011KT 10SM CLR 02/M06 A3019 RMK AO2 SLP230 T00221056 51023=
200812071352 METAR KATL 071352Z 31009KT 10SM CLR 01/M04 A3016 RMK AO2 SLP223 T00111044=
200812071252 METAR KATL 071252Z 31008KT 10SM CLR M01/M05 A3014 RMK AO2 SLP215 T10061050=
200812071152 METAR KATL 071152Z 31008KT 10SM CLR M01/M05 A3011 RMK AO2 SLP205 T10061050 10000 21011 53014=
200812071052 METAR KATL 071052Z 29007KT 10SM CLR M01/M06 A3008 RMK AO2 SLP194 T10111056=
200812070952 METAR KATL 070952Z 27007KT 10SM CLR M01/M07 A3007 RMK AO2 SLP191 T10111067=
200812070852 METAR KATL 070852Z 28007KT 10SM CLR M01/M07 A3007 RMK AO2 SLP191 T10111067 53008=
200812070752 METAR KATL 070752Z 29006KT 10SM CLR M01/M07 A3006 RMK AO2 SLP186 T10061067=
200812070652 METAR KATL 070652Z 28008KT 10SM CLR M01/M07 A3005 RMK AO2 SLP181 T10061067=
200812070552 METAR KATL 070552Z 30008KT 10SM CLR 00/M07 A3005 RMK AO2 SLP181 T00001067 10044 20000 50003=
200812070452 METAR KATL 070452Z 30009KT 10SM CLR 01/M07 A3005 RMK AO2 SLP181 T00061067 400781022=
200812070352 METAR KATL 070352Z 29009KT 10SM CLR 01/M07 A3004 RMK AO2 SLP180 T00061067=
200812070252 METAR KATL 070252Z 29006KT 10SM CLR 01/M06 A3004 RMK AO2 SLP180 T00111061 51013 $=
200812070152 METAR KATL 070152Z 30007KT 10SM FEW070 02/M06 A3003 RMK AO2 SLP179 T00171056 $=
200812070052 METAR KATL 070052Z 26005KT 10SM CLR 02/M06 A3002 RMK AO2 SLP174 T00221056 $=
200812062352 METAR KATL 062352Z 27003KT 10SM FEW110 04/M06 A3000 RMK AO2 SLP167 T00441061 10078 20039 51008 $=
200812062252 METAR KATL 062252Z 31006KT 10SM SCT110 BKN250 05/M07 A2999 RMK AO2 SLP164 T00501067 $=
200812062152 METAR KATL 062152Z 10SM BKN060 BKN085 BKN110 06/M06 A3000 RMK AO2 SLP165 VIRGA ALQDS-DSNT T00611056 $=
200812062052 METAR KATL 062052Z 34005KT 10SM BKN090 OVC200 07/M06 A2997 RMK AO2 SLP158 VIRGA ALQDS-DSNT T00671061 56016=
200812061952 METAR KATL 061952Z 32004KT 10SM BKN085 OVC200 07/M06 A2998 RMK AO2 SLP160 T00671056=
200812061852 METAR KATL 061852Z 32004KT 10SM BKN100 OVC200 07/M06 A3000 RMK AO2 SLP166 T00721056 $=
200812061752 METAR KATL 061752Z 00000KT 10SM BKN100 OVC200 08/M07 A3002 RMK AO2 SLP174 T00781067 10078 21022 58024=
200812061652 METAR KATL 061652Z VRB03KT 10SM BKN100 OVC200 07/M06 A3006 RMK AO2 SLP186 T00721056 $=
200812061552 METAR KATL 061552Z 28003KT 10SM BKN100 BKN180 BKN250 06/M08 A3010 RMK AO2 SLP199 T00561078=
200812061452 METAR KATL 061452Z 00000KT 10SM SCT100 BKN180 BKN250 02/M06 A3010 RMK AO2 SLP200 T00221056 55001=
200812061352 METAR KATL 061352Z 00000KT 10SM SCT100 BKN180 01/M06 A3009 RMK AO2 SLP198 T00111061=
200812061252 METAR KATL 061252Z 00000KT 10SM FEW100 BKN200 M02/M06 A3010 RMK AO2 SLP202 T10171061=
200812061152 METAR KATL 061152Z 00000KT 10SM FEW100 SCT250 M02/M07 A3010 RMK AO2 SLP203 T10171067 10000 21022 56005=
200812061052 METAR KATL 061052Z 34004KT 10SM FEW100 SCT250 M02/M07 A3010 RMK AO2 SLP202 T10221072=
200812060952 METAR KATL 060952Z 33005KT 10SM FEW250 M02/M07 A3010 RMK AO2 SLP200 T10171072=
200812060852 METAR KATL 060852Z 33004KT 10SM SCT250 M02/M07 A3012 RMK AO2 SLP205 T10171072 58017=
200812060752 METAR KATL 060752Z 35003KT 10SM SCT250 M01/M08 A3013 RMK AO2 SLP210 T10061078=
200812060652 METAR KATL 060652Z 00000KT 10SM BKN250 M01/M08 A3016 RMK AO2 SLP218 T10061078=
200812060552 METAR KATL 060552Z 32004KT 10SM BKN250 M01/M08 A3017 RMK AO2 SLP222 T10111078 10028 21011 58014=
200812060452 METAR KATL 060452Z 33004KT 10SM BKN250 M01/M07 A3020 RMK AO2 SLP234 T10061072 400891017=
200812060352 METAR KATL 060352Z 34004KT 10SM FEW250 00/M08 A3020 RMK AO2 SLP237 T00001083=
200812060252 METAR KATL 060252Z 34007KT 10SM FEW150 01/M08 A3021 RMK AO2 SLP239 T00061078 58004=
200812060152 METAR KATL 060152Z 33004KT 10SM SCT150 BKN250 02/M07 A3023 RMK AO2 SLP245 T00171072=
200812060052 METAR KATL 060052Z 32006KT 10SM BKN250 02/M07 A3023 RMK AO2 SLP245 T00221067=
200812052352 METAR KATL 052352Z 32006KT 10SM SCT250 03/M08 A3022 RMK AO2 SLP244 T00281078 10089 20028 58003=
200812052252 METAR KATL 052252Z 32007KT 10SM FEW200 SCT250 04/M08 A3023 RMK AO2 SLP244 T00391083=
200812052152 METAR KATL 052152Z 31007KT 10SM BKN250 06/M07 A3023 RMK AO2 SLP245 T00611072=
200812052052 METAR KATL 052052Z 33008KT 10SM BKN250 08/M07 A3023 RMK AO2 SLP245 T00781072 56016=
200812051952 METAR KATL 051952Z 32009KT 10SM BKN250 09/M07 A3025 RMK AO2 SLP249 T00891067=
200812051852 METAR KATL 051852Z 29006KT 10SM BKN250 08/M05 A3025 RMK AO2 SLP251 T00831050=
200812051752 METAR KATL 051752Z 31011KT 10SM BKN250 07/M04 A3028 RMK AO2 SLP261 T00721044 10072 21017 58012=
200812051652 METAR KATL 051652Z 31004KT 10SM BKN250 06/M04 A3029 RMK AO2 SLP265 T00611044=
200812051552 METAR KATL 051552Z 32008KT 10SM SCT250 03/M04 A3033 RMK AO2 SLP278 T00281039=
200812051452 METAR KATL 051452Z 32012KT 10SM FEW250 02/M04 A3032 RMK AO2 SLP274 T00171039 53014=
200812051352 METAR KATL 051352Z 31010KT 10SM FEW150 M01/M04 A3030 RMK AO2 SLP269 T10061044=
200812051252 METAR KATL 051252Z 32009KT 9SM FEW120 M02/M04 A3029 RMK AO2 SLP265 T10171044=
200812051152 METAR KATL 051152Z 32007KT 9SM CLR M02/M04 A3028 RMK AO2 SLP260 70019 T10171039 10028 21017 53004=
200812051052 METAR KATL 051052Z 33007KT 9SM FEW010 M01/M04 A3026 RMK AO2 SLP254 T10111039=
200812050952 METAR KATL 050952Z 32010G18KT 280V340 9SM FEW009 M01/M03 A3026 RMK AO2 SLP254 T10061028=
200812050852 METAR KATL 050852Z 31006KT 10SM SCT009 00/M02 A3027 RMK AO2 SLP256 T00001017 58002=
200812050848 SPECI KATL 050848Z 32007KT 10SM SCT009 00/M02 A3027 RMK AO2=
200812050848 SPECI KATL 050848Z 32007KT 10SM SCT009 00/M02 A3027 RMK AO2=
200812050752 METAR KATL 050752Z 32010KT 10SM OVC007 01/M01 A3027 RMK AO2 CIG 007V011 SLP259 T00111011=
200812050652 METAR KATL 050652Z 32010KT 10SM OVC007 02/M01 A3027 RMK AO2 SLP258 T00171006=
200812050552 METAR KATL 050552Z 35012KT 10SM OVC007 03/01 A3027 RMK AO2 SLP256 60000 T00280006 10083 20028 50007=
200812050452 METAR KATL 050452Z 33010G19KT 10SM OVC006 04/02 A3027 RMK AO2 SLP255 T00390017 401170033=
200812050352 METAR KATL 050352Z 34013KT 10SM OVC006 04/03 A3027 RMK AO2 SLP254 T00440028=
200812050252 METAR KATL 050252Z 33011KT 10SM BKN008 OVC028 06/04 A3025 RMK AO2 SLP248 60000 T00610039 51006=
200812050249 SPECI KATL 050249Z 32010KT 10SM BKN008 OVC028 06/04 A3025 RMK AO2=
200812050249 SPECI KATL 050249Z 32010KT 10SM BKN008 OVC028 06/04 A3025 RMK AO2=
200812050214 SPECI KATL 050214Z 31007KT 10SM SCT008 BKN028 OVC070 07/05 A3025 RMK AO2 SCT008 V BKN=
200812050214 SPECI KATL 050214Z 31007KT 10SM SCT008 BKN028 OVC070 07/05 A3025 RMK AO2 SCT008 V BKN=
200812050152 METAR KATL 050152Z 33009KT 10SM BKN008 BKN028 OVC070 07/06 A3025 RMK AO2 DZE14 SLP247 CIG 006V012 P0000 T00720056=
200812050115 SPECI KATL 050115Z 34012G17KT 7SM OVC006 08/07 A3024 RMK AO2 DZE14 CIG 004V010 P0000=
200812050115 SPECI KATL 050115Z 34012G17KT 7SM OVC006 08/07 A3024 RMK AO2 DZE14 CIG 004V010 P0000=
200812050052 METAR KATL 050052Z 32009KT 2SM -DZ BR OVC004 08/07 A3023 RMK AO2 SFC VIS 3 DZB43 SLP242 CIG 002V007 P0000 T00830072=
200812050042 SPECI KATL 050042Z 31006KT 2SM BR OVC004 08/07 A3023 RMK AO2 SFC VIS 3 CIG 002V007=
200812050042 SPECI KATL 050042Z 31006KT 2SM BR OVC004 08/07 A3023 RMK AO2 SFC VIS 3 CIG 002V007=
200812050025 SPECI KATL 050025Z 32005KT 1/2SM BR OVC003 08/07 A3023 RMK AO2 SFC VIS 2 1/2 CIG 002V006=
200812050025 SPECI KATL 050025Z 32005KT 1/2SM BR OVC003 08/07 A3023 RMK AO2 SFC VIS 2 1/2 CIG 002V006=
200812050007 SPECI KATL 050007Z 31004KT 2SM BR OVC005 08/07 A3023 RMK AO2 SFC VIS 5 CIG 003V008=
200812050007 SPECI KATL 050007Z 31004KT 2SM BR OVC005 08/07 A3023 RMK AO2 SFC VIS 5 CIG 003V008=
200812050003 SPECI KATL 050003Z 31004KT 3SM BR BKN005 OVC020 08/07 A3023 RMK AO2 SFC VIS 6 CIG 004V009=
200812050003 SPECI KATL 050003Z 31004KT 3SM BR BKN005 OVC020 08/07 A3023 RMK AO2 SFC VIS 6 CIG 004V009=
200812042352 METAR KATL 042352Z 30004KT 8SM FEW004 BKN011 OVC018 08/07 A3023 RMK AO2 SLP239 60019 T00830067 10094 20067 53007=
200812042316 SPECI KATL 042316Z 00000KT 8SM FEW007 BKN013 OVC019 08/06 A3022 RMK AO2=
200812042316 SPECI KATL 042316Z 00000KT 8SM FEW007 BKN013 OVC019 08/06 A3022 RMK AO2=
200812042252 METAR KATL 042252Z 32003KT 7SM OVC020 08/06 A3022 RMK AO2 SLP238 T00780061=
200812042152 METAR KATL 042152Z 30009KT 9SM OVC023 08/06 A3021 RMK AO2 SLP235 T00780061 $=
200812042113 SPECI KATL 042113Z 31007KT 5SM BR BKN005 BKN026 OVC060 07/06 A3021 RMK AO2=
200812042113 SPECI KATL 042113Z 31007KT 5SM BR BKN005 BKN026 OVC060 07/06 A3021 RMK AO2=
200812042058 SPECI KATL 042058Z 30008KT 7SM FEW005 BKN028 OVC060 07/06 A3021 RMK AO2=
200812042058 SPECI KATL 042058Z 30008KT 7SM FEW005 BKN028 OVC060 07/06 A3021 RMK AO2=
200812042052 METAR KATL 042052Z 30008KT 6SM BR FEW010 SCT028 OVC065 07/06 A3020 RMK AO2 RAE07 SLP233 P0000 60019 T00720056 55003=
200812042030 SPECI KATL 042030Z 30008KT 8SM FEW010 SCT030 OVC080 07/05 A3020 RMK AO2 RAE07 PRESRR P0000=
200812042030 SPECI KATL 042030Z 30008KT 8SM FEW010 SCT030 OVC080 07/05 A3020 RMK AO2 RAE07 PRESRR P0000=
200812041952 METAR KATL 041952Z 12008KT 6SM -RA BR BKN030 BKN050 BKN080 07/04 A3014 RMK AO2 SLP210 P0011 T00670044=
200812041948 SPECI KATL 041948Z 12009KT 6SM -RA BR SCT030 BKN040 BKN070 07/04 A3013 RMK AO2 PRESFR P0011=
200812041948 SPECI KATL 041948Z 12009KT 6SM -RA BR SCT030 BKN040 BKN070 07/04 A3013 RMK AO2 PRESFR P0011=
200812041944 SPECI KATL 041944Z 12009KT 2 1/2SM -RA BR BKN029 BKN042 OVC070 07/04 A3015 RMK AO2 SFC VIS 5 PRESFR P0011=
200812041944 SPECI KATL 041944Z 12009KT 2 1/2SM -RA BR BKN029 BKN042 OVC070 07/04 A3015 RMK AO2 SFC VIS 5 PRESFR P0011=
200812041937 SPECI KATL 041937Z 11007KT 2 1/2SM -RA BR BKN031 BKN042 OVC060 07/04 A3017 RMK AO2 SFC VIS 5 PRESFR P0010=
200812041937 SPECI KATL 041937Z 11007KT 2 1/2SM -RA BR BKN031 BKN042 OVC060 07/04 A3017 RMK AO2 SFC VIS 5 PRESFR P0010=
200812041918 SPECI KATL 041918Z 12003KT 2 1/2SM RA FEW020 BKN040 OVC050 07/04 A3019 RMK AO2 SFC VIS 4 P0007=
200812041918 SPECI KATL 041918Z 12003KT 2 1/2SM RA FEW020 BKN040 OVC050 07/04 A3019 RMK AO2 SFC VIS 4 P0007=
200812041911 SPECI KATL 041911Z 10003KT 2 1/2SM -RA BR SCT020 SCT030 OVC044 07/04 A3020 RMK AO2 SFC VIS 6 P0005=
200812041911 SPECI KATL 041911Z 10003KT 2 1/2SM -RA BR SCT020 SCT030 OVC044 07/04 A3020 RMK AO2 SFC VIS 6 P0005=
200812041856 SPECI KATL 041856Z 06005KT 2 1/2SM -RA BR SCT029 BKN037 OVC044 07/04 A3020 RMK AO2 SFC VIS 5 PRESFR P0001=
200812041856 SPECI KATL 041856Z 06005KT 2 1/2SM -RA BR SCT029 BKN037 OVC044 07/04 A3020 RMK AO2 SFC VIS 5 PRESFR P0001=
200812041852 METAR KATL 041852Z 03005KT 2 1/2SM RA BR BKN029 BKN037 OVC044 07/04 A3021 RMK AO2 SFC VIS 4 RAB11 SLP235 P0008 T00670044=
200812041845 SPECI KATL 041845Z 32006KT 2 1/2SM RA BR BKN029 OVC037 07/04 A3023 RMK AO2 SFC VIS 4 RAB11 P0006=
200812041845 SPECI KATL 041845Z 32006KT 2 1/2SM RA BR BKN029 OVC037 07/04 A3023 RMK AO2 SFC VIS 4 RAB11 P0006=
200812041841 SPECI KATL 041841Z 33006KT 2 1/2SM -RA BKN029 OVC037 07/03 A3023 RMK AO2 SFC VIS 5 RAB11 P0005=
200812041841 SPECI KATL 041841Z 33006KT 2 1/2SM -RA BKN029 OVC037 07/03 A3023 RMK AO2 SFC VIS 5 RAB11 P0005=
200812041824 SPECI KATL 041824Z 32011KT 5SM -RA OVC029 08/02 A3023 RMK AO2 RAB11 P0001=
200812041824 SPECI KATL 041824Z 32011KT 5SM -RA OVC029 08/02 A3023 RMK AO2 RAB11 P0001=
200812041752 METAR KATL 041752Z 34010KT 10SM BKN027 BKN035 OVC060 09/02 A3021 RMK AO2 SLP235 T00940017 10117 20056 58008=
200812041656 SPECI KATL 041656Z 31005KT 10SM BKN025 BKN035 OVC065 11/03 A3022 RMK AO2=
200812041656 SPECI KATL 041656Z 31005KT 10SM BKN025 BKN035 OVC065 11/03 A3022 RMK AO2=
200812041652 METAR KATL 041652Z 30006KT 10SM SCT025 BKN035 OVC065 11/03 A3023 RMK AO2 SLP240 T01060028=
200812041552 METAR KATL 041552Z 17006KT 10SM BKN045 BKN065 BKN250 10/02 A3023 RMK AO2 SLP239 T01000017=
200812041452 METAR KATL 041452Z 17009KT 10SM FEW040 SCT080 BKN250 08/01 A3024 RMK AO2 SLP243 T00830006 50002=
200812041352 METAR KATL 041352Z 17003KT 9SM BKN029 BKN070 06/01 A3024 RMK AO2 SLP247 CIG 029V033 BKN029V SCT T00610006=
200812041252 METAR KATL 041252Z 14005KT 10SM BKN035 06/01 A3024 RMK AO2 SLP245 T00610006=
200812041152 METAR KATL 041152Z 00000KT 10SM BKN035 06/00 A3023 RMK AO2 SLP241 T00610000 10061 20033 53018=
200812041052 METAR KATL 041052Z 15003KT 10SM BKN037 OVC250 04/M01 A3019 RMK AO2 SLP228 T00441006=
200812040952 METAR KATL 040952Z COR 14003KT 10SM BKN037 BKN250 04/M01 A3017 RMK AO2 SLP221 T00391006=
200812040852 METAR KATL 040852Z 13004KT 10SM SCT250 04/M01 A3018 RMK AO2 SLP222 T00391006 56023=
200812040752 METAR KATL 040752Z 12004KT 10SM SCT250 04/M01 A3019 RMK AO2 SLP228 T00391006=
200812040652 METAR KATL 040652Z 14004KT 10SM SCT250 04/M01 A3022 RMK AO2 SLP239 T00441011=
200812040552 METAR KATL 040552Z 14003KT 10SM FEW028 BKN250 05/M01 A3025 RMK AO2 SLP246 T00501011 10083 20044 56008=
200812040547 SPECI KATL 040547Z 14003KT 10SM SCT028 BKN250 05/M01 A3024 RMK AO2=
200812040547 SPECI KATL 040547Z 14003KT 10SM SCT028 BKN250 05/M01 A3024 RMK AO2=
200812040527 SPECI KATL 040527Z 14003KT 10SM BKN029 BKN250 05/M01 A3025 RMK AO2=
200812040527 SPECI KATL 040527Z 14003KT 10SM BKN029 BKN250 05/M01 A3025 RMK AO2=
200812040452 METAR KATL 040452Z 14003KT 10SM BKN032 BKN250 05/M01 A3025 RMK AO2 SLP248 T00501011 401111017=
200812040352 METAR KATL 040352Z 14003KT 10SM FEW250 06/M01 A3026 RMK AO2 SLP253 T00561011=
200812040252 METAR KATL 040252Z 14004KT 10SM SCT250 06/M01 A3027 RMK AO2 SLP256 T00611011 50004=
200812040152 METAR KATL 040152Z 15004KT 10SM BKN250 07/M01 A3028 RMK AO2 SLP262 T00671011=
200812040052 METAR KATL 040052Z 15007KT 10SM BKN250 07/M01 A3027 RMK AO2 SLP258 T00721011=
200812032352 METAR KATL 032352Z 14005KT 10SM BKN250 08/M01 A3026 RMK AO2 SLP253 T00831011 10111 20083 53003=
200812032252 METAR KATL 032252Z 15004KT 10SM SCT250 09/M02 A3026 RMK AO2 SLP251 T00941017=
200812032152 METAR KATL 032152Z 17007KT 10SM SCT250 11/M01 A3025 RMK AO2 SLP248 T01061011=
200812032052 METAR KATL 032052Z 18008KT 10SM FEW250 11/M02 A3025 RMK AO2 SLP248 T01111017 56011 $=
200812031952 METAR KATL 031952Z 18006KT 10SM FEW250 11/M02 A3025 RMK AO2 SLP249 T01111017=
200812031852 METAR KATL 031852Z 19009KT 10SM FEW250 11/M02 A3026 RMK AO2 SLP254 T01061017=
200812031752 METAR KATL 031752Z 20011KT 10SM FEW250 10/M01 A3028 RMK AO2 SLP260 T01001011 10100 21017 58013=
200812031652 METAR KATL 031652Z 18010KT 10SM FEW250 09/M02 A3031 RMK AO2 PRESFR SLP270 T00891017=
200812031552 METAR KATL 031552Z 18010KT 10SM FEW250 07/M02 A3034 RMK AO2 SLP279 T00721017=
200812031452 METAR KATL 031452Z 13005KT 10SM FEW250 04/M01 A3032 RMK AO2 SLP274 T00441011 50008=
200812031352 METAR KATL 031352Z 00000KT 10SM FEW150 SCT250 01/M02 A3034 RMK AO2 SLP282 T00111022=
200812031252 METAR KATL 031252Z 00000KT 10SM FEW150 SCT250 M01/M03 A3030 RMK AO2 SLP271 T10111033=
200812031152 METAR KATL 031152Z 10003KT 10SM SCT250 M01/M03 A3030 RMK AO2 SLP268 T10111033 10006 21017 53004=
200812031052 METAR KATL 031052Z 00000KT 10SM CLR M01/M04 A3029 RMK AO2 SLP267 T10111044=
200812030952 METAR KATL 030952Z 00000KT 10SM CLR M01/M04 A3028 RMK AO2 SLP263 T10061039=
200812030852 METAR KATL 030852Z 00000KT 10SM CLR 00/M03 A3028 RMK AO2 SLP262 T00001033 55000=
200812030752 METAR KATL 030752Z 00000KT 10SM CLR M01/M03 A3028 RMK AO2 SLP261 T10061028=
200812030652 METAR KATL 030652Z 00000KT 10SM CLR M01/M03 A3026 RMK AO2 SLP256 T10061033=
200812030552 METAR KATL 030552Z 00000KT 10SM CLR 00/M04 A3029 RMK AO2 SLP264 T00001039 10044 21006 58001=
200812030452 METAR KATL 030452Z 00000KT 10SM CLR 02/M03 A3030 RMK AO2 SLP266 T00171033 400831011=
200812030352 METAR KATL 030352Z 00000KT 10SM CLR 02/M04 A3030 RMK AO2 SLP267 T00171039=
200812030252 METAR KATL 030252Z 00000KT 10SM CLR 02/M03 A3029 RMK AO2 SLP265 T00171033 53012=
200812030152 METAR KATL 030152Z 00000KT 10SM CLR 02/M03 A3028 RMK AO2 SLP261 T00221028=
200812030052 METAR KATL 030052Z 00000KT 10SM CLR 03/M03 A3026 RMK AO2 SLP257 T00331033=
200812022352 METAR KATL 022352Z 00000KT 10SM CLR 04/M04 A3025 RMK AO2 SLP253 T00441044 10083 20044 51006=
200812022252 METAR KATL 022252Z 00000KT 10SM CLR 06/M05 A3025 RMK AO2 SLP251 T00561050=
200812022152 SPECI KATL 022152Z 30008KT 10SM FEW048 06/M04 A3025 RMK AO2 SLP250 T00611044=
200812022052 METAR KATL 022052Z 32008KT 10SM SCT046 07/M04 A3024 RMK AO2 SLP246 T00721039 55002=
200812021952 METAR KATL 021952Z 26007G15KT 10SM BKN048 07/M04 A3023 RMK AO2 SLP245 T00721044=
200812021852 SPECI KATL 021852Z 30010KT 10SM BKN044 06/M04 A3024 RMK AO2 SLP246 T00611039 $=
200812021752 SPECI KATL 021752Z 29012KT 10SM BKN042 06/M04 A3024 RMK AO2 SLP248 T00561039 10067 21006 58005=
200812021652 METAR KATL 021652Z 29009KT 10SM BKN038 05/M04 A3026 RMK AO2 SLP255 T00501039=
200812021552 METAR KATL 021552Z 29011G17KT 10SM FEW035 06/M04 A3027 RMK AO2 SLP258 T00561039=
200812021452 METAR KATL 021452Z 29008KT 10SM FEW030 04/M03 A3026 RMK AO2 SLP254 T00391028 53019=
200812021352 METAR KATL 021352Z 24005KT 10SM FEW040 02/M03 A3024 RMK AO2 SLP247 T00171028=
200812021252 METAR KATL 021252Z 22003KT 10SM FEW040 M01/M03 A3022 RMK AO2 SLP242 T10061033=
200812021152 METAR KATL 021152Z 24003KT 10SM SCT034 00/M04 A3020 RMK AO2 SLP236 T00001039 10006 21011 53013=
200812021052 METAR KATL 021052Z 26003KT 10SM BKN034 00/M03 A3019 RMK AO2 SLP230 T00001033=
200812020952 METAR KATL 020952Z 00000KT 10SM SCT036 M01/M03 A3017 RMK AO2 SLP224 T10061028=
200812020852 METAR KATL 020852Z 29005KT 10SM SCT050 M01/M03 A3016 RMK AO2 SLP222 T10061033 53013=
200812020752 METAR KATL 020752Z 28005KT 10SM FEW060 M01/M03 A3014 RMK AO2 SLP215 T10061033=
200812020652 METAR KATL 020652Z 29007KT 10SM FEW060 01/M03 A3013 RMK AO2 SLP211 T00061028=
200812020552 METAR KATL 020552Z 27006KT 10SM FEW060 01/M03 A3012 RMK AO2 SLP208 T00061028 10033 20006 51017=
200812020452 METAR KATL 020452Z 23005KT 10SM SCT060 01/M03 A3011 RMK AO2 SLP204 T00111028 400610011=
200812020352 METAR KATL 020352Z 31005KT 10SM FEW060 02/M03 A3009 RMK AO2 SLP196 T00171028=
200812020252 METAR KATL 020252Z 28005KT 10SM SCT060 02/M03 A3007 RMK AO2 SLP191 T00221028 51020=
200812020152 METAR KATL 020152Z 27004KT 10SM BKN065 03/M03 A3006 RMK AO2 SLP186 T00281028=
200812020052 METAR KATL 020052Z 00000KT 10SM BKN065 03/M03 A3004 RMK AO2 SLP181 T00281033=
200812012352 METAR KATL 012352Z 28005KT 10SM BKN065 03/M04 A3001 RMK AO2 SLP170 60000 T00331039 10061 20033 53021=
200812012252 METAR KATL 012252Z 27008KT 10SM SCT065 04/M04 A2998 RMK AO2 SLP160 T00391044=
200812012152 METAR KATL 012152Z 27010G17KT 10SM FEW035 SCT045 BKN065 06/M04 A2997 RMK AO2 SLP153 SHRA DSNT N T00561039=
200812012052 METAR KATL 012052Z 27008G18KT 10SM FEW038 SCT045 BKN065 06/M03 A2995 RMK AO2 SLP146 SHRA DSNT N-NE 60000 T00611033 53020=
200812011952 METAR KATL 011952Z 25009KT 10SM FEW025 SCT040 BKN050 06/M02 A2992 RMK AO2 RAE1853 SLP138 T00561017=
200812011852 METAR KATL 011852Z 25010G16KT 10SM -RA SCT030 OVC044 04/M02 A2990 RMK AO2 RAB51 SLP132 SHRA N SE P0000 T00441017=
200812011752 METAR KATL 011752Z 26007KT 10SM FEW030 SCT040 OVC050 05/M02 A2989 RMK AO2 SLP125 T00501022 10050 20017 51013=
200812011715 SPECI KATL 011715Z 24011G18KT 10SM SCT027 BKN038 BKN060 04/M02 A2988 RMK AO2=
200812011715 SPECI KATL 011715Z 24011G18KT 10SM SCT027 BKN038 BKN060 04/M02 A2988 RMK AO2=
200812011652 METAR KATL 011652Z 24011G16KT 10SM SCT023 BKN029 BKN060 04/M02 A2988 RMK AO2 SLP123 T00391017=
200812011552 METAR KATL 011552Z 24011G18KT 10SM BKN025 BKN030 OVC060 03/M02 A2988 RMK AO2 SLP122 T00281022=
200812011541 SPECI KATL 011541Z 24014G20KT 10SM FEW020 BKN030 BKN060 03/M02 A2988 RMK AO2=
200812011541 SPECI KATL 011541Z 24014G20KT 10SM FEW020 BKN030 BKN060 03/M02 A2988 RMK AO2=
200812011516 SPECI KATL 011516Z 26011KT 10SM SCT022 BKN029 OVC060 03/M02 A2986 RMK AO2=
200812011516 SPECI KATL 011516Z 26011KT 10SM SCT022 BKN029 OVC060 03/M02 A2986 RMK AO2=
200812011452 METAR KATL 011452Z 25010G21KT 10SM FEW018 SCT025 BKN060 03/M02 A2985 RMK AO2 SLP112 T00281017 51024=
200812011449 SPECI KATL 011449Z 25011G21KT 10SM FEW018 SCT025 BKN060 03/M02 A2984 RMK AO2=
200812011449 SPECI KATL 011449Z 25011G21KT 10SM FEW018 SCT025 BKN060 03/M02 A2984 RMK AO2=
200812011440 SPECI KATL 011440Z 25012KT 10SM BKN018 BKN060 03/M02 A2984 RMK AO2=
200812011440 SPECI KATL 011440Z 25012KT 10SM BKN018 BKN060 03/M02 A2984 RMK AO2=
200812011352 METAR KATL 011352Z 24015G23KT 10SM FEW018 SCT050 SCT070 02/M02 A2981 RMK AO2 SLP100 T00221022=
200812011252 METAR KATL 011252Z 25014KT 10SM SCT035 BKN050 02/M03 A2978 RMK AO2 SLP088 T00171028=
