##########################################################
# Query made at 04/19/2024 23:07:32 UTC
# Time interval: from 08/01/2008 12:00  to 08/31/2008 12:59  UTC
##########################################################

##########################################################
# KATL, Atlanta, Hartsfield - Jackson Atlanta International Airport (United States)
# WMO index: 72219. WIGOS ID: 0-20000-0-72219
# Latitude 33-38-59N. Longitude 084-25-00W. Altitude 312 m.
##########################################################

200808311252 METAR KATL 311252Z 09007KT 7SM OVC006 23/21 A3010 RMK AO2 SLP182 T02330206=
200808311152 METAR KATL 311152Z 06010KT 3SM HZ OVC007 23/20 A3009 RMK AO2 SFC VIS 6 SLP178 T02280200 10244 20222 53012=
200808311052 METAR KATL 311052Z 06007KT 9SM BKN009 BKN150 BKN250 23/19 A3007 RMK AO2 SLP173 T02280194=
200808311036 SPECI KATL 311036Z 06008KT 9SM BKN009 BKN150 BKN250 23/19 A3007 RMK AO2=
200808311036 SPECI KATL 311036Z 06008KT 9SM BKN009 BKN150 BKN250 23/19 A3007 RMK AO2=
200808311017 SPECI KATL 311017Z 06006KT 9SM BKN010 BKN150 BKN250 23/20 A3007 RMK AO2=
200808311017 SPECI KATL 311017Z 06006KT 9SM BKN010 BKN150 BKN250 23/20 A3007 RMK AO2=
200808310952 METAR KATL 310952Z COR 07007KT 10SM SCT012 BKN150 BKN250 22/20 A3006 RMK AO2 SLP169 T02220200=
200808310852 METAR KATL 310852Z 09006KT 10SM BKN250 23/20 A3005 RMK AO2 SLP165 T02280200 53003=
200808310752 METAR KATL 310752Z 09006KT 10SM BKN250 23/20 A3005 RMK AO2 SLP164 T02330200=
200808310652 METAR KATL 310652Z 07007KT 10SM BKN250 23/20 A3004 RMK AO2 SLP162 T02330200=
200808310552 METAR KATL 310552Z 11007KT 10SM SCT250 24/20 A3004 RMK AO2 SLP163 T02440200 10294 20244 58001=
200808310452 METAR KATL 310452Z 12006KT 10SM SCT250 25/20 A3005 RMK AO2 SLP163 T02500200 403170217=
200808310352 METAR KATL 310352Z 10006KT 8SM FEW042 SCT120 BKN250 26/21 A3006 RMK AO2 SLP167 T02560211=
200808310252 METAR KATL 310252Z 15006KT 9SM FEW038 SCT120 BKN250 27/21 A3005 RMK AO2 SLP163 T02670206 51016=
200808310152 METAR KATL 310152Z 11005KT 10SM FEW060 SCT250 28/20 A3004 RMK AO2 SLP160 T02780200=
200808310052 METAR KATL 310052Z 12006KT 10SM SCT250 28/19 A3002 RMK AO2 SLP155 T02830194=
200808302352 METAR KATL 302352Z 12007KT 8SM FEW055 29/19 A3000 RMK AO2 SLP148 TCU DSNT N T02940189 10317 20294 53005=
200808302252 METAR KATL 302252Z 13005KT 10SM FEW055 31/17 A2999 RMK AO2 SLP145 T03060172=
200808302152 METAR KATL 302152Z VRB04KT 10SM FEW055 31/18 A2998 RMK AO2 SLP141 T03110178=
200808302052 METAR KATL 302052Z 10008KT 10SM FEW050TCU SCT070 SCT090 30/17 A2998 RMK AO2 SLP142 TCU SW T03000172 56016=
200808301952 METAR KATL 301952Z 10007KT 10SM SCT060TCU 31/17 A2999 RMK AO2 SLP144 TCU SW AND DSNT N T03110167=
200808301852 METAR KATL 301852Z 15005KT 10SM SCT050TCU BKN070 31/17 A3001 RMK AO2 SLP151 TCU OHD AND DSNT N AND SE T03110167=
200808301752 METAR KATL 301752Z COR 06009KT 10SM SCT047TCU SCT055 29/18 A3003 RMK AO2 SLP158 TCU OHD T02940178 10311 20228 58007=
200808301652 METAR KATL 301652Z 11008G15KT 070V140 10SM SCT046 BKN055 31/18 A3005 RMK AO2 SLP163 TCU DSNT N AND SW T03060178=
200808301552 METAR KATL 301552Z 07008G14KT 10SM SCT039 SCT055 BKN150 29/19 A3006 RMK AO2 SLP167 TCU DSNT NE W AND NW T02940194=
200808301452 METAR KATL 301452Z 08005KT 10SM FEW035 SCT150 28/19 A3005 RMK AO2 SLP165 T02830194 51013=
200808301352 METAR KATL 301352Z 08004KT 10SM FEW150 SCT250 27/20 A3004 RMK AO2 SLP161 T02670200=
200808301252 METAR KATL 301252Z 08004KT 9SM FEW250 25/19 A3003 RMK AO2 SLP158 T02500194=
200808301152 METAR KATL 301152Z 07004KT 10SM FEW200 23/19 A3001 RMK AO2 SLP152 T02330189 10250 20217 53012=
200808301052 METAR KATL 301052Z 04003KT 10SM FEW200 23/18 A2999 RMK AO2 SLP143 T02280178=
200808300952 METAR KATL 300952Z 08005KT 10SM FEW200 23/18 A2998 RMK AO2 SLP141 T02280178=
200808300852 METAR KATL 300852Z 00000KT 10SM CLR 24/17 A2998 RMK AO2 SLP140 T02390172 55000=
200808300752 METAR KATL 300752Z 05003KT 10SM CLR 25/17 A2997 RMK AO2 SLP138 T02500172=
200808300652 METAR KATL 300652Z 00000KT 10SM CLR 25/17 A2997 RMK AO2 SLP138 T02500172=
200808300552 METAR KATL 300552Z 08003KT 10SM FEW250 25/17 A2998 RMK AO2 SLP139 T02500172 10294 20244 50000=
200808300452 METAR KATL 300452Z 00000KT 10SM FEW250 26/17 A2999 RMK AO2 SLP142 T02560172 403170194=
200808300352 METAR KATL 300352Z 06003KT 10SM CLR 27/17 A2998 RMK AO2 SLP140 T02670167=
200808300252 METAR KATL 300252Z 06006KT 10SM CLR 27/16 A2998 RMK AO2 SLP140 T02720161 53017=
200808300152 METAR KATL 300152Z 04006KT 10SM FEW060 28/16 A2996 RMK AO2 SLP134 T02830156=
200808300052 METAR KATL 300052Z 01006KT 10SM FEW060 29/16 A2994 RMK AO2 SLP128 T02890156=
200808292352 METAR KATL 292352Z 33009KT 10SM SCT065 BKN090 BKN250 29/15 A2993 RMK AO2 SLP124 T02940150 10317 20294 55001=
200808292252 METAR KATL 292252Z 35005KT 10SM FEW060 SCT080 SCT250 31/16 A2992 RMK AO2 SLP121 T03060156=
200808292152 METAR KATL 292152Z 32008KT 10SM SCT060 31/16 A2992 RMK AO2 SLP123 T03110161=
200808292052 METAR KATL 292052Z 10004KT 10SM SCT060 30/15 A2993 RMK AO2 SLP124 T03000150 56012=
200808291952 METAR KATL 291952Z 08004KT 10SM BKN060 BKN250 29/16 A2994 RMK AO2 SLP128 T02940161=
200808291852 METAR KATL 291852Z VRB03KT 10SM SCT055 30/16 A2995 RMK AO2 SLP130 MDT CU ALQDS T03000161=
200808291752 METAR KATL 291752Z VRB03KT 10SM SCT065 SCT250 30/14 A2996 RMK AO2 SLP136 T03000139 10311 20200 58007=
200808291652 METAR KATL 291652Z 05008KT 10SM FEW060 SCT250 29/14 A2998 RMK AO2 SLP140 T02940144=
200808291552 METAR KATL 291552Z 01007KT 10SM FEW055 SCT250 29/14 A2998 RMK AO2 SLP141 T02890144=
200808291452 METAR KATL 291452Z 35006KT 10SM SCT250 27/18 A2999 RMK AO2 SLP143 T02720178 51010=
200808291352 METAR KATL 291352Z 00000KT 10SM SCT250 24/19 A2998 RMK AO2 SLP140 T02440189 $=
200808291252 METAR KATL 291252Z VRB04KT 10SM FEW200 23/19 A2998 RMK AO2 SLP141 T02280189 $=
200808291152 METAR KATL 291152Z 33004KT 9SM FEW120 20/18 A2996 RMK AO2 SLP134 T02000183 10228 20194 53005 $=
200808291052 METAR KATL 291052Z 32004KT 9SM FEW050 19/18 A2995 RMK AO2 SLP131 T01940178=
200808290952 METAR KATL 290952Z 31005KT 8SM FEW050 20/18 A2994 RMK AO2 SLP129 T02000178=
200808290852 METAR KATL 290852Z 01005KT 10SM FEW050 22/18 A2994 RMK AO2 SLP127 T02170183 55000=
200808290752 METAR KATL 290752Z 33005KT 10SM CLR 21/18 A2994 RMK AO2 SLP128 T02060183=
200808290652 METAR KATL 290652Z 01003KT 10SM CLR 23/18 A2994 RMK AO2 SLP127 T02280183=
200808290552 METAR KATL 290552Z 33006KT 10SM CLR 22/19 A2994 RMK AO2 SLP128 T02220189 10272 20222 53012=
200808290452 METAR KATL 290452Z 32005KT 10SM CLR 23/18 A2991 RMK AO2 SLP117 T02280183 403000200=
200808290352 METAR KATL 290352Z 31004KT 10SM CLR 24/18 A2990 RMK AO2 SLP115 T02390183=
200808290252 METAR KATL 290252Z 32005KT 10SM CLR 24/18 A2990 RMK AO2 SLP116 T02440178 50008=
200808290152 METAR KATL 290152Z 32004KT 10SM CLR 25/18 A2991 RMK AO2 SLP117 T02500178=
200808290052 METAR KATL 290052Z 33005KT 10SM CLR 26/18 A2989 RMK AO2 SLP112 T02610178=
200808282352 METAR KATL 282352Z 32008KT 10SM FEW045 27/17 A2988 RMK AO2 SLP109 T02720172 10300 20272 55002=
200808282252 METAR KATL 282252Z 30008KT 10SM FEW045 28/18 A2988 RMK AO2 SLP108 T02830178=
200808282152 METAR KATL 282152Z 31008KT 10SM FEW045 29/18 A2988 RMK AO2 SLP108 T02890178=
200808282052 METAR KATL 282052Z 32009KT 10SM SCT049 30/18 A2989 RMK AO2 SLP110 T03000178 58008=
200808281952 METAR KATL 281952Z 34011G18KT 10SM SCT043 29/18 A2990 RMK AO2 SLP114 T02940178=
200808281852 METAR KATL 281852Z 34013KT 10SM SCT045 29/18 A2991 RMK AO2 SLP116 T02890183=
200808281752 METAR KATL 281752Z 31008KT 10SM SCT039 29/18 A2991 RMK AO2 SLP118 T02890178 10289 20206 58009=
200808281652 METAR KATL 281652Z 33012G15KT 10SM SCT037 28/18 A2992 RMK AO2 SLP122 T02830178=
200808281552 METAR KATL 281552Z 29009KT 10SM FEW035 SCT090 27/19 A2994 RMK AO2 SLP128 T02670189=
200808281452 METAR KATL 281452Z 32009KT 10SM FEW030 BKN090 26/19 A2994 RMK AO2 SLP129 T02610189 51007=
200808281352 METAR KATL 281352Z 32007KT 10SM FEW090 24/19 A2994 RMK AO2 SLP128 T02440189=
200808281252 METAR KATL 281252Z 32007KT 10SM FEW080 SCT250 22/19 A2993 RMK AO2 SLP125 T02220189=
200808281152 METAR KATL 281152Z 31005KT 10SM FEW080 SCT250 20/18 A2992 RMK AO2 SLP122 70001 T02000183 10217 20200 53010=
200808281052 METAR KATL 281052Z 31004KT 10SM FEW080 SCT250 20/18 A2990 RMK AO2 SLP118 T02000183=
200808280952 METAR KATL 280952Z 30004KT 10SM CLR 20/18 A2989 RMK AO2 SLP112 T02000183=
200808280852 METAR KATL 280852Z 28004KT 10SM CLR 21/19 A2989 RMK AO2 SLP111 T02060189 55000=
200808280752 METAR KATL 280752Z 00000KT 10SM CLR 21/19 A2989 RMK AO2 SLP110 T02110189=
200808280652 METAR KATL 280652Z 25004KT 10SM CLR 22/19 A2988 RMK AO2 SLP110 T02170189=
200808280552 METAR KATL 280552Z 24004KT 10SM FEW250 21/19 A2989 RMK AO2 SLP112 T02110189 10244 20211 58004=
200808280452 METAR KATL 280452Z 00000KT 10SM CLR 22/19 A2990 RMK AO2 SLP116 T02170189 402670217=
200808280352 METAR KATL 280352Z 00000KT 10SM FEW040 22/19 A2990 RMK AO2 SLP116 T02220189=
200808280252 METAR KATL 280252Z 29003KT 10SM FEW070 23/18 A2990 RMK AO2 SLP116 T02280183 53009=
200808280152 METAR KATL 280152Z 27003KT 10SM FEW070 23/18 A2989 RMK AO2 SLP113 T02280183=
200808280052 METAR KATL 280052Z 29004KT 10SM FEW070 23/18 A2988 RMK AO2 SLP108 T02280183=
200808272352 METAR KATL 272352Z 29006KT 10SM BKN070 24/18 A2987 RMK AO2 SLP106 T02440183 10267 20239 50003=
200808272252 METAR KATL 272252Z 29006KT 10SM FEW030 BKN065 25/18 A2988 RMK AO2 SLP107 T02500183=
200808272152 METAR KATL 272152Z 30012KT 10SM FEW030 BKN055 26/18 A2987 RMK AO2 SLP105 T02560178=
200808272052 METAR KATL 272052Z 31011G22KT 250V020 10SM FEW030 SCT040 BKN050 26/19 A2987 RMK AO2 SLP104 T02560189 56007=
200808271952 METAR KATL 271952Z 27007KT 10SM FEW030 SCT040 BKN050 26/19 A2987 RMK AO2 SLP104 T02610189=
200808271852 METAR KATL 271852Z 28009KT 10SM FEW025 BKN043 26/19 A2988 RMK AO2 SLP109 T02560194=
200808271752 METAR KATL 271752Z 25008KT 10SM FEW017 OVC032 24/19 A2989 RMK AO2 RAB38E47 SLP111 P0000 60001 T02390189 10244 20217 50002=
200808271748 SPECI KATL 271748Z 26007KT 10SM SCT017 BKN030 OVC038 24/19 A2989 RMK AO2 RAB38E47 P0000=
200808271748 SPECI KATL 271748Z 26007KT 10SM SCT017 BKN030 OVC038 24/19 A2989 RMK AO2 RAB38E47 P0000=
200808271705 SPECI KATL 271705Z 27009KT 10SM FEW019 BKN029 OVC036 23/19 A2989 RMK AO2=
200808271705 SPECI KATL 271705Z 27009KT 10SM FEW019 BKN029 OVC036 23/19 A2989 RMK AO2=
200808271652 METAR KATL 271652Z 27009KT 10SM FEW019 BKN030 OVC034 23/19 A2989 RMK AO2 SLP112 T02330189=
200808271559 SPECI KATL 271559Z 28009KT 10SM FEW022 SCT028 BKN034 23/19 A2988 RMK AO2=
200808271559 SPECI KATL 271559Z 28009KT 10SM FEW022 SCT028 BKN034 23/19 A2988 RMK AO2=
200808271552 METAR KATL 271552Z 25009KT 10SM FEW022 BKN028 BKN034 24/19 A2988 RMK AO2 RAB15E28 SLP110 P0000 T02390194=
200808271452 METAR KATL 271452Z 28011KT 10SM FEW013 BKN028 BKN050 24/20 A2987 RMK AO2 RAE01 SLP105 P0000 60001 T02440200 53009=
200808271418 SPECI KATL 271418Z 27007KT 10SM SCT012 BKN024 23/21 A2986 RMK AO2 RAE01 P0000=
200808271418 SPECI KATL 271418Z 27007KT 10SM SCT012 BKN024 23/21 A2986 RMK AO2 RAE01 P0000=
200808271404 SPECI KATL 271404Z 27006KT 10SM SCT007 BKN014 OVC024 22/20 A2985 RMK AO2 RAE01 P0000=
200808271404 SPECI KATL 271404Z 27006KT 10SM SCT007 BKN014 OVC024 22/20 A2985 RMK AO2 RAE01 P0000=
200808271352 METAR KATL 271352Z 28008KT 6SM R09R/6000VP6000FT -RA BR BKN007 BKN013 OVC044 22/20 A2985 RMK AO2 RAB46 SLP101 P0000 T02220200=
200808271348 SPECI KATL 271348Z 27007KT 4SM R09R/6000VP6000FT -RA BR BKN007 BKN011 OVC044 22/20 A2985 RMK AO2 RAB46 P0000=
200808271348 SPECI KATL 271348Z 27007KT 4SM R09R/6000VP6000FT -RA BR BKN007 BKN011 OVC044 22/20 A2985 RMK AO2 RAB46 P0000=
200808271259 SPECI KATL 271259Z 24006KT 10SM BKN009 BKN013 OVC050 22/21 A2985 RMK AO2=
200808271259 SPECI KATL 271259Z 24006KT 10SM BKN009 BKN013 OVC050 22/21 A2985 RMK AO2=
200808271252 METAR KATL 271252Z 25005KT 9SM SCT007 BKN011 OVC050 22/21 A2985 RMK AO2 RAB02E33 SLP099 P0001 T02220206=
200808271231 SPECI KATL 271231Z 24006KT 7SM -RA BKN007 BKN024 OVC041 22/21 A2984 RMK AO2 RAB02 P0001=
200808271231 SPECI KATL 271231Z 24006KT 7SM -RA BKN007 BKN024 OVC041 22/21 A2984 RMK AO2 RAB02 P0001=
200808271212 SPECI KATL 271212Z 23005KT 2 1/2SM -RA BR OVC007 22/20 A2984 RMK AO2 VIS 2V3 RAB02 CIG 004V010 P0001=
200808271212 SPECI KATL 271212Z 23005KT 2 1/2SM -RA BR OVC007 22/20 A2984 RMK AO2 VIS 2V3 RAB02 CIG 004V010 P0001=
200808271152 METAR KATL 271152Z 22006KT 7SM BKN007 BKN012 BKN023 22/21 A2984 RMK AO2 SLP096 60001 70062 T02220206 10222 20217 53014=
200808271052 METAR KATL 271052Z 21008KT 10SM BKN009 BKN014 BKN020 22/20 A2982 RMK AO2 SLP090 T02170200=
200808270952 METAR KATL 270952Z 22007KT 6SM BR BKN007 BKN014 OVC019 22/21 A2981 RMK AO2 RAB0856E06 CIG 003V011 SLP084 P0000 T02170206=
200808270852 METAR KATL 270852Z 20007KT 6SM BR BKN005 OVC010 22/20 A2980 RMK AO2 RAB01E16 SLP081 P0001 60001 T02170200 56003=
200808270803 SPECI KATL 270803Z 20006KT 4SM -RA BR BKN007 BKN019 OVC029 22/21 A2980 RMK AO2 RAB01 P0000=
200808270803 SPECI KATL 270803Z 20006KT 4SM -RA BR BKN007 BKN019 OVC029 22/21 A2980 RMK AO2 RAB01 P0000=
200808270752 METAR KATL 270752Z 20006KT 6SM BR SCT009 BKN020 OVC029 22/20 A2980 RMK AO2 RAB0659E08 SLP080 P0000 T02170200=
200808270655 SPECI KATL 270655Z 20005KT 7SM BKN007 BKN013 OVC020 22/20 A2981 RMK AO2 CIG 005V011=
200808270655 SPECI KATL 270655Z 20005KT 7SM BKN007 BKN013 OVC020 22/20 A2981 RMK AO2 CIG 005V011=
200808270652 METAR KATL 270652Z 20005KT 6SM BR BKN014 OVC020 22/20 A2981 RMK AO2 SLP084 T02170200=
200808270649 SPECI KATL 270649Z 20005KT 6SM BR BKN014 OVC020 22/20 A2981 RMK AO2=
200808270649 SPECI KATL 270649Z 20005KT 6SM BR BKN014 OVC020 22/20 A2981 RMK AO2=
200808270605 SPECI KATL 270605Z 20008KT 7SM FEW007 SCT017 BKN080 22/20 A2982 RMK AO2=
200808270605 SPECI KATL 270605Z 20008KT 7SM FEW007 SCT017 BKN080 22/20 A2982 RMK AO2=
200808270552 METAR KATL 270552Z 21007KT 7SM FEW007 BKN017 BKN075 22/20 A2982 RMK AO2 SLP089 T02220200 10233 20222 51005=
200808270452 METAR KATL 270452Z 21008KT 10SM BKN009 OVC075 22/21 A2982 RMK AO2 SLP088 CIG 007V012 T02220206 402830222=
200808270430 SPECI KATL 270430Z 22004KT 10SM BKN010 OVC075 22/21 A2982 RMK AO2 CIG 008V013=
200808270430 SPECI KATL 270430Z 22004KT 10SM BKN010 OVC075 22/21 A2982 RMK AO2 CIG 008V013=
200808270352 METAR KATL 270352Z 21005KT 10SM SCT010 OVC075 22/21 A2982 RMK AO2 SLP087 T02220206=
200808270350 SPECI KATL 270350Z 21006KT 10SM SCT010 OVC075 22/21 A2982 RMK AO2=
200808270350 SPECI KATL 270350Z 21006KT 10SM SCT010 OVC075 22/21 A2982 RMK AO2=
200808270310 SPECI KATL 270310Z 21005KT 10SM BKN010 OVC075 22/21 A2981 RMK AO2 CIG 008V015=
200808270310 SPECI KATL 270310Z 21005KT 10SM BKN010 OVC075 22/21 A2981 RMK AO2 CIG 008V015=
200808270252 METAR KATL 270252Z 22005KT 10SM SCT008 OVC075 22/21 A2981 RMK AO2 SLP084 T02220206 51011=
200808270152 METAR KATL 270152Z 24006KT 10SM FEW012 BKN070 OVC200 23/21 A2980 RMK AO2 SLP081 T02280206=
200808270052 METAR KATL 270052Z 22005KT 10SM FEW010 SCT035 BKN085 OVC150 23/21 A2979 RMK AO2 SLP079 T02280206=
200808262352 METAR KATL 262352Z 24007KT 10SM FEW015 BKN055 BKN070 OVC150 23/21 A2977 RMK AO2 SLP072 CB DSNT NE-E 60021 T02330206 10283 20222 53003=
200808262252 METAR KATL 262252Z 24008KT 10SM FEW030 BKN070 OVC150 23/21 A2977 RMK AO2 PK WND 23028/2215 RAB16E52 SLP072 CB DSNT N-NE AND SE P0021 T02280206=
200808262229 SPECI KATL 262229Z 22015G21KT 4SM RA FEW015CB SCT040 BKN075 OVC150 22/20 A2978 RMK AO2 PK WND 23028/2215 RAB16 CB N-NE MOV NE P0018=
200808262229 SPECI KATL 262229Z 22015G21KT 4SM RA FEW015CB SCT040 BKN075 OVC150 22/20 A2978 RMK AO2 PK WND 23028/2215 RAB16 CB N-NE MOV NE P0018=
200808262219 SPECI KATL 262219Z 24015G28KT 1/2SM R09R/2200VP6000FT +RA BKN015CB BKN030 BKN075 BKN150 23/21 A2978 RMK AO2 PK WND 23028/2215 SFC VIS 1 RAB16 PRESRR CB SW-OHD MOV NE P0006=
200808262219 SPECI KATL 262219Z 24015G28KT 1/2SM R09R/2200VP6000FT +RA BKN015CB BKN030 BKN075 BKN150 23/21 A2978 RMK AO2 PK WND 23028/2215 SFC VIS 1 RAB16 PRESRR CB SW-OHD MOV NE P0006=
200808262152 METAR KATL 262152Z 23004KT 10SM FEW020 SCT200 BKN250 27/21 A2976 RMK AO2 SLP066 CB DSNT NE-SE AND SW T02670206=
200808262052 METAR KATL 262052Z 27012G18KT 10SM FEW020 BKN060 BKN100 BKN200 25/21 A2976 RMK AO2 SLP069 CB DSNT N NE S SW MOV NE SHRA DSNT N NE S SW NW 60000 T02500206 55002=
200808261952 METAR KATL 261952Z 22015G29KT 10SM FEW030 BKN060 BKN200 28/19 A2976 RMK AO2 PK WND 21029/1943 SLP066 CB DSNT NE NW TCU DSNT NE SHRA DSNT NW T02780194=
200808261852 METAR KATL 261852Z 20012G20KT 10SM FEW020 SCT040 SCT200 27/22 A2976 RMK AO2 RAB22E30 SLP069 LTG DSNT NE CB NE-E MOV NE TCU DSNT N SHRA NE-E P0000 T02670217=
200808261833 SPECI KATL 261833Z 20014G18KT 10SM FEW020CB SCT040 SCT200 26/22 A2976 RMK AO2 RAB22E30 CB NE-SE MOV NE SHRA NE-SE P0000=
200808261833 SPECI KATL 261833Z 20014G18KT 10SM FEW020CB SCT040 SCT200 26/22 A2976 RMK AO2 RAB22E30 CB NE-SE MOV NE SHRA NE-SE P0000=
200808261823 SPECI KATL 261823Z 20013G20KT 8SM -RA FEW023CB SCT040 BKN050 BKN150 BKN200 26/22 A2977 RMK AO2 RAB22 VIS LWR SE-S SHRA CB SE-S MOV NE P0000=
200808261823 SPECI KATL 261823Z 20013G20KT 8SM -RA FEW023CB SCT040 BKN050 BKN150 BKN200 26/22 A2977 RMK AO2 RAB22 VIS LWR SE-S SHRA CB SE-S MOV NE P0000=
200808261752 METAR KATL 261752Z 22011KT 10SM FEW018 SCT030 SCT040 SCT200 26/22 A2977 RMK AO2 RAB18E43 SLP072 CB DSNT NE-E MOV NE SHRA DSNT NE-E P0001 60040 T02560222 10261 20222 58004=
200808261743 SPECI KATL 261743Z 22011KT 10SM FEW020CB SCT040 SCT200 25/22 A2978 RMK AO2 RAB18E43 CB NE-E MOV NE SHRA NE-E P0001=
200808261743 SPECI KATL 261743Z 22011KT 10SM FEW020CB SCT040 SCT200 25/22 A2978 RMK AO2 RAB18E43 CB NE-E MOV NE SHRA NE-E P0001=
200808261731 SPECI KATL 261731Z 23009G21KT 5SM -RA BR SCT020CB BKN028 OVC036 24/22 A2978 RMK AO2 RAB18 CB N MOV NE P0001=
200808261731 SPECI KATL 261731Z 23009G21KT 5SM -RA BR SCT020CB BKN028 OVC036 24/22 A2978 RMK AO2 RAB18 CB N MOV NE P0001=
200808261711 SPECI KATL 261711Z 18009KT 10SM SCT020 BKN050 OVC065 26/22 A2978 RMK AO2 TCU SW-NW SHRA SW-NW BINOVC=
200808261711 SPECI KATL 261711Z 18009KT 10SM SCT020 BKN050 OVC065 26/22 A2978 RMK AO2 TCU SW-NW SHRA SW-NW BINOVC=
200808261652 METAR KATL 261652Z 20008KT 10SM FEW018CB SCT028TCU BKN060 BKN200 26/23 A2978 RMK AO2 RAB21E39 SLP074 CB NW MOV N TCU NE-E-SE-S SHRA NE NW P0001 T02610228=
200808261648 SPECI KATL 261648Z 20011KT 10SM FEW018CB BKN039TCU BKN060 BKN200 26/22 A2978 RMK AO2 RAB21E39 CB NE NW MOV N TCU NE-E-SE-S SHRA NE NW P0001=
200808261648 SPECI KATL 261648Z 20011KT 10SM FEW018CB BKN039TCU BKN060 BKN200 26/22 A2978 RMK AO2 RAB21E39 CB NE NW MOV N TCU NE-E-SE-S SHRA NE NW P0001=
200808261626 SPECI KATL 261626Z 19011KT 7SM -RA FEW020 BKN029 BKN055 BKN200 25/22 A2978 RMK AO2 RAB21 P0000=
200808261626 SPECI KATL 261626Z 19011KT 7SM -RA FEW020 BKN029 BKN055 BKN200 25/22 A2978 RMK AO2 RAB21 P0000=
200808261624 SPECI KATL 261624Z 19010G18KT 9SM -RA SCT020 BKN029 BKN055 BKN200 25/22 A2978 RMK AO2 RAB21 P0000=
200808261624 SPECI KATL 261624Z 19010G18KT 9SM -RA SCT020 BKN029 BKN055 BKN200 25/22 A2978 RMK AO2 RAB21 P0000=
200808261552 METAR KATL 261552Z 19013G23KT 10SM SCT015 BKN025 BKN045 BKN200 26/22 A2978 RMK AO2 SLP076 T02560217=
200808261525 SPECI KATL 261525Z 18012G18KT 10SM SCT015 BKN020 BKN090 BKN200 25/22 A2979 RMK AO2=
200808261525 SPECI KATL 261525Z 18012G18KT 10SM SCT015 BKN020 BKN090 BKN200 25/22 A2979 RMK AO2=
200808261452 METAR KATL 261452Z 17011KT 10SM FEW020 SCT045 SCT090 BKN200 24/22 A2979 RMK AO2 RAE34 SLP077 CB DSNT NE-SE SHRA DSNT NE-SE P0015 60038 T02390217 51011=
200808261445 SPECI KATL 261445Z 16008KT 10SM FEW013 SCT025 BKN045 BKN150 BKN250 23/22 A2978 RMK AO2 RAE34 P0015=
200808261445 SPECI KATL 261445Z 16008KT 10SM FEW013 SCT025 BKN045 BKN150 BKN250 23/22 A2978 RMK AO2 RAE34 P0015=
200808261435 SPECI KATL 261435Z 15011KT 6SM BR FEW007 BKN026 OVC042 23/21 A2978 RMK AO2 RAE34 P0015=
200808261435 SPECI KATL 261435Z 15011KT 6SM BR FEW007 BKN026 OVC042 23/21 A2978 RMK AO2 RAE34 P0015=
200808261423 SPECI KATL 261423Z 17011KT 6SM R09R/4000VP6000FT -RA BR FEW007 BKN014 OVC029 22/21 A2978 RMK AO2 VIS LWR E-SE-S SHRA P0015=
200808261423 SPECI KATL 261423Z 17011KT 6SM R09R/4000VP6000FT -RA BR FEW007 BKN014 OVC029 22/21 A2978 RMK AO2 VIS LWR E-SE-S SHRA P0015=
200808261420 SPECI KATL 261420Z 18010KT 2SM R09R/4000VP6000FT -RA BR FEW009 BKN014 OVC026 22/21 A2978 RMK AO2 P0015=
200808261420 SPECI KATL 261420Z 18010KT 2SM R09R/4000VP6000FT -RA BR FEW009 BKN014 OVC026 22/21 A2978 RMK AO2 P0015=
200808261404 SPECI KATL 261404Z 17012G17KT 4SM R09R/6000VP6000FT RA BR SCT009 BKN014 OVC036 22/21 A2978 RMK AO2 P0006=
200808261404 SPECI KATL 261404Z 17012G17KT 4SM R09R/6000VP6000FT RA BR SCT009 BKN014 OVC036 22/21 A2978 RMK AO2 P0006=
200808261352 METAR KATL 261352Z 16011G18KT 3SM R09R/4500VP6000FT +RA BR FEW010 BKN028 OVC050 22/21 A2978 RMK AO2 PK WND 17026/1322 SLP077 P0016 T02220206=
200808261340 SPECI KATL 261340Z 16011G23KT 3SM -RA BR FEW014 BKN037 OVC050 23/21 A2978 RMK AO2 PK WND 17026/1322 P0010=
200808261340 SPECI KATL 261340Z 16011G23KT 3SM -RA BR FEW014 BKN037 OVC050 23/21 A2978 RMK AO2 PK WND 17026/1322 P0010=
200808261338 SPECI KATL 261338Z 17015G23KT 5SM -RA BR FEW008 SCT025 OVC050 23/21 A2978 RMK AO2 PK WND 17026/1322 P0010=
200808261338 SPECI KATL 261338Z 17015G23KT 5SM -RA BR FEW008 SCT025 OVC050 23/21 A2978 RMK AO2 PK WND 17026/1322 P0010=
200808261325 SPECI KATL 261325Z 17017G26KT 8SM -RA FEW006 BKN017 OVC050 23/21 A2979 RMK AO2 PK WND 17026/1322 P0010=
200808261325 SPECI KATL 261325Z 17017G26KT 8SM -RA FEW006 BKN017 OVC050 23/21 A2979 RMK AO2 PK WND 17026/1322 P0010=
200808261318 SPECI KATL 261318Z 18015G23KT 3SM R09R/5500VP6000FT -RA BR SCT006 BKN014 OVC050 23/21 A2979 RMK AO2 P0010=
200808261318 SPECI KATL 261318Z 18015G23KT 3SM R09R/5500VP6000FT -RA BR SCT006 BKN014 OVC050 23/21 A2979 RMK AO2 P0010=
200808261312 SPECI KATL 261312Z 18017G23KT 1 1/2SM R09R/4500VP6000FT RA BR SCT006 BKN014 OVC035 23/21 A2979 RMK AO2 P0009=
200808261312 SPECI KATL 261312Z 18017G23KT 1 1/2SM R09R/4500VP6000FT RA BR SCT006 BKN014 OVC035 23/21 A2979 RMK AO2 P0009=
200808261305 SPECI KATL 261305Z 19012G24KT 1 3/4SM R09R/4500VP6000FT +RA BR BKN014 BKN026 OVC060 23/21 A2978 RMK AO2 P0003=
200808261305 SPECI KATL 261305Z 19012G24KT 1 3/4SM R09R/4500VP6000FT +RA BR BKN014 BKN026 OVC060 23/21 A2978 RMK AO2 P0003=
200808261252 METAR KATL 261252Z 15019G29KT 4SM -RA BR BKN014 BKN028 OVC060 23/21 A2978 RMK AO2 PK WND 18030/1227 SLP076 P0007 T02280211=
200808261239 SPECI KATL 261239Z 17017G28KT 4SM -RA BR FEW009 BKN017 OVC065 23/21 A2978 RMK AO2 PK WND 18030/1227 P0006=
200808261239 SPECI KATL 261239Z 17017G28KT 4SM -RA BR FEW009 BKN017 OVC065 23/21 A2978 RMK AO2 PK WND 18030/1227 P0006=
200808261228 SPECI KATL 261228Z 18019G30KT 2 1/2SM RA BR SCT009 BKN019 OVC048 23/21 A2978 RMK AO2 PK WND 18030/1227 P0003=
200808261228 SPECI KATL 261228Z 18019G30KT 2 1/2SM RA BR SCT009 BKN019 OVC048 23/21 A2978 RMK AO2 PK WND 18030/1227 P0003=
200808261152 METAR KATL 261152Z 14013G23KT 3SM RA BR BKN007 OVC011 23/22 A2975 RMK AO2 CIG 004V009 SLP067 P0023 60049 70096 T02280217 10228 20222 56016=
200808261052 METAR KATL 261052Z 12011G17KT 4SM +RA BR BKN007 BKN029 OVC085 23/21 A2977 RMK AO2 SLP071 P0012 T02280211=
200808260952 METAR KATL 260952Z 14009G17KT 6SM -RA BR BKN004 OVC009 22/21 A2979 RMK AO2 SLP078 P0004 T02220211=
200808260852 METAR KATL 260852Z 13008KT 8SM -RA BKN004 OVC009 22/21 A2980 RMK AO2 RAB0756 CIG 003V007 SLP083 P0010 60010 T02220211 56013=
200808260752 METAR KATL 260752Z 13011KT 7SM BKN008 OVC012 22/21 A2981 RMK AO2 SLP085 T02220206=
200808260652 METAR KATL 260652Z 12010G17KT 7SM BKN008 BKN010 OVC017 22/20 A2982 RMK AO2 SLP087 T02220200=
200808260552 METAR KATL 260552Z 13009KT 10SM BKN008 OVC014 23/21 A2984 RMK AO2 RAB31E40 CIG 004V009 SLP095 P0000 60015 T02280211 10228 20217 58011=
200808260452 METAR KATL 260452Z 12007KT 10SM BKN008 BKN080 OVC150 22/21 A2985 RMK AO2 SLP100 T02220206 402560211=
200808260449 SPECI KATL 260449Z 12007KT 10SM BKN008 BKN080 OVC150 22/21 A2985 RMK AO2 402560211=
200808260449 SPECI KATL 260449Z 12007KT 10SM BKN008 BKN080 OVC150 22/21 A2985 RMK AO2 402560211=
200808260425 SPECI KATL 260425Z 14006KT 10SM BKN010 BKN075 OVC150 22/21 A2986 RMK AO2=
200808260425 SPECI KATL 260425Z 14006KT 10SM BKN010 BKN075 OVC150 22/21 A2986 RMK AO2=
200808260352 METAR KATL 260352Z 14010G23KT 10SM FEW005 SCT030 BKN070 OVC150 22/20 A2986 RMK AO2 RAB15E50 SLP103 P0007 T02220200=
200808260341 SPECI KATL 260341Z 13013G20KT 7SM -RA FEW005 BKN025 OVC060 22/21 A2987 RMK AO2 RAB15 P0007=
200808260341 SPECI KATL 260341Z 13013G20KT 7SM -RA FEW005 BKN025 OVC060 22/21 A2987 RMK AO2 RAB15 P0007=
200808260258 SPECI KATL 260258Z 11006KT 10SM BKN006 BKN020 OVC035 22/20 A2987 RMK AO2=
200808260258 SPECI KATL 260258Z 11006KT 10SM BKN006 BKN020 OVC035 22/20 A2987 RMK AO2=
200808260252 METAR KATL 260252Z 17006G15KT 10SM SCT006 BKN022 BKN035 OVC150 22/20 A2987 RMK AO2 RAE02B28E51 SLP107 P0008 60008 T02220200 51003=
200808260244 SPECI KATL 260244Z 17012G16KT 6SM -RA BR BKN022 OVC035 22/20 A2986 RMK AO2 RAE02B28 P0008=
200808260244 SPECI KATL 260244Z 17012G16KT 6SM -RA BR BKN022 OVC035 22/20 A2986 RMK AO2 RAE02B28 P0008=
200808260240 SPECI KATL 260240Z 08012G16KT 2SM R09R/6000VP6000FT +RA BR BKN020 OVC035 22/20 A2987 RMK AO2 RAE02B28 P0000=
200808260240 SPECI KATL 260240Z 08012G16KT 2SM R09R/6000VP6000FT +RA BR BKN020 OVC035 22/20 A2987 RMK AO2 RAE02B28 P0000=
200808260220 SPECI KATL 260220Z 13006KT 10SM BKN020 BKN032 OVC080 22/20 A2987 RMK AO2 RAE02 P0000=
200808260220 SPECI KATL 260220Z 13006KT 10SM BKN020 BKN032 OVC080 22/20 A2987 RMK AO2 RAE02 P0000=
200808260152 METAR KATL 260152Z 11008KT 10SM -RA FEW010 BKN075 OVC090 22/20 A2987 RMK AO2 RAB18 SLP106 PCPN VRY LGT P0000 T02220200=
200808260052 METAR KATL 260052Z 09009KT 10SM FEW040 SCT085 BKN120 OVC150 22/20 A2987 RMK AO2 RAE38 SLP106 P0000 T02170200=
200808252352 METAR KATL 252352Z 09009KT 9SM -RA FEW040 SCT090 BKN120 OVC150 22/20 A2986 RMK AO2 SLP104 P0001 60023 T02220200 10244 20211 56005=
200808252252 METAR KATL 252252Z 10007KT 10SM -RA FEW045 BKN120 OVC150 23/19 A2987 RMK AO2 RAB25 SLP105 P0000 T02280194=
200808252152 METAR KATL 252152Z 12007KT 10SM FEW046 SCT120 OVC150 23/20 A2987 RMK AO2 SLP106 T02280200=
200808252052 METAR KATL 252052Z 17005KT 10SM FEW015 SCT070 SCT100 OVC150 22/19 A2988 RMK AO2 RAB1953E42 SLP109 P0000 60022 T02220194 58015=
200808251952 METAR KATL 251952Z 17006KT 10SM FEW015 SCT070 SCT100 OVC150 23/19 A2991 RMK AO2 PK WND 18031/1855 RAE22 SLP118 LTG DSNT N-NE SE CB DSNT N-NE SE P0018 T02280194=
200808251916 SPECI KATL 251916Z 15007G15KT 10SM -RA SCT020CB BKN040 BKN070 OVC150 22/19 A2992 RMK AO2 PK WND 18031/1855 VIS LWR N-NE-E SHRA CB N-NE-E MOV N P0018=
200808251916 SPECI KATL 251916Z 15007G15KT 10SM -RA SCT020CB BKN040 BKN070 OVC150 22/19 A2992 RMK AO2 PK WND 18031/1855 VIS LWR N-NE-E SHRA CB N-NE-E MOV N P0018=
200808251909 SPECI KATL 251909Z 15011G18KT 5SM R09R/6000VP6000FT RA BR SCT015 BKN021CB OVC040 22/19 A2993 RMK AO2 PK WND 18031/1855 CB OHD-N-NE-E MOV N P0017=
200808251909 SPECI KATL 251909Z 15011G18KT 5SM R09R/6000VP6000FT RA BR SCT015 BKN021CB OVC040 22/19 A2993 RMK AO2 PK WND 18031/1855 CB OHD-N-NE-E MOV N P0017=
200808251903 SPECI KATL 251903Z 16012G31KT 1/4SM R09R/2400VP6000FT +RA FG SCT017 BKN025CB OVC038 21/19 A2993 RMK AO2 PK WND 18031/1855 SFC VIS 1/2 CB OHD MOV N P0016=
200808251903 SPECI KATL 251903Z 16012G31KT 1/4SM R09R/2400VP6000FT +RA FG SCT017 BKN025CB OVC038 21/19 A2993 RMK AO2 PK WND 18031/1855 SFC VIS 1/2 CB OHD MOV N P0016=
200808251901 SPECI KATL 251901Z 17017G31KT 1/2SM R09R/2400VP6000FT +RA FG FEW017 BKN025CB OVC050 21/19 A2994 RMK AO2 PK WND 18031/1855 TWR VIS 4 PRESRR CB OHD MOV N P0011=
200808251901 SPECI KATL 251901Z 17017G31KT 1/2SM R09R/2400VP6000FT +RA FG FEW017 BKN025CB OVC050 21/19 A2994 RMK AO2 PK WND 18031/1855 TWR VIS 4 PRESRR CB OHD MOV N P0011=
200808251857 SPECI KATL 251857Z 18022G31KT 1 1/2SM R09R/2400VP6000FT -RA BR SCT025 SCT038 BKN050 23/21 A2992 RMK AO2 PK WND 18031/1855 TWR VIS 4 P0000=
200808251857 SPECI KATL 251857Z 18022G31KT 1 1/2SM R09R/2400VP6000FT -RA BR SCT025 SCT038 BKN050 23/21 A2992 RMK AO2 PK WND 18031/1855 TWR VIS 4 P0000=
200808251852 METAR KATL 251852Z 15007KT 7SM -RA FEW015CB SCT025TCU SCT075 OVC150 24/22 A2991 RMK AO2 SLP120 CB N SE-S-SW-W-NW MOV N TCU NW SHRA NE S-SW-W P0004 T02390217=
200808251839 SPECI KATL 251839Z 17007KT 9SM -RA FEW015CB SCT025TCU BKN075 OVC150 24/21 A2991 RMK AO2 CB N E S-SW MOV N TCU NW P0004=
200808251839 SPECI KATL 251839Z 17007KT 9SM -RA FEW015CB SCT025TCU BKN075 OVC150 24/21 A2991 RMK AO2 CB N E S-SW MOV N TCU NW P0004=
200808251816 SPECI KATL 251816Z 13007KT 6SM -RA BR FEW016CB SCT037 BKN055 OVC150 24/22 A2991 RMK AO2 CB DSNT N VC SE S-SW MOV N P0004=
200808251816 SPECI KATL 251816Z 13007KT 6SM -RA BR FEW016CB SCT037 BKN055 OVC150 24/22 A2991 RMK AO2 CB DSNT N VC SE S-SW MOV N P0004=
200808251752 METAR KATL 251752Z 15008KT 5SM R09R/4500VP6000FT +RA FEW007 BKN017CB OVC050 24/22 A2992 RMK AO2 RAB41 SLP124 VIS 1SM S-SW SHRA CB N OHD-S-SW-W MOV N P0009 60009 T02440217 10256 20233 56010=
200808251748 SPECI KATL 251748Z 16009KT 7SM R09R/4500VP6000FT +RA SCT017CB BKN023 BKN055 OVC150 24/22 A2993 RMK AO2 RAB41 VIS LWR S-SW-W SHRA CB N OHD-S-SW-W MOV N P0003=
200808251748 SPECI KATL 251748Z 16009KT 7SM R09R/4500VP6000FT +RA SCT017CB BKN023 BKN055 OVC150 24/22 A2993 RMK AO2 RAB41 VIS LWR S-SW-W SHRA CB N OHD-S-SW-W MOV N P0003=
200808251715 SPECI KATL 251715Z 13005KT 10SM FEW017 SCT024 BKN030 OVC150 26/21 A2994 RMK AO2 CB VC E DSNT SE-S-SW-W MOV N SHRA VC E DSNT SE-S-SW-W=
200808251715 SPECI KATL 251715Z 13005KT 10SM FEW017 SCT024 BKN030 OVC150 26/21 A2994 RMK AO2 CB VC E DSNT SE-S-SW-W MOV N SHRA VC E DSNT SE-S-SW-W=
200808251711 SPECI KATL 251711Z 15005KT 10SM FEW017 SCT024 BKN031 OVC150 26/21 A2994 RMK AO2=
200808251711 SPECI KATL 251711Z 15005KT 10SM FEW017 SCT024 BKN031 OVC150 26/21 A2994 RMK AO2=
200808251652 METAR KATL 251652Z 14006KT 10SM FEW017 BKN029 BKN150 OVC250 26/21 A2994 RMK AO2 SLP130 CB DSNT S-SW MOV N SHRA DSNT S-SW T02560211=
200808251552 METAR KATL 251552Z 13008KT 10SM FEW013 BKN025 BKN150 BKN250 26/21 A2996 RMK AO2 SLP134 T02560211=
200808251509 SPECI KATL 251509Z 12008KT 10SM FEW009 SCT015 OVC025 25/22 A2996 RMK AO2=
200808251509 SPECI KATL 251509Z 12008KT 10SM FEW009 SCT015 OVC025 25/22 A2996 RMK AO2=
200808251500 SPECI KATL 251500Z 13007KT 10SM SCT011 SCT023 OVC027 25/22 A2996 RMK AO2=
200808251500 SPECI KATL 251500Z 13007KT 10SM SCT011 SCT023 OVC027 25/22 A2996 RMK AO2=
200808251452 METAR KATL 251452Z 13006KT 10SM FEW009 BKN014 OVC026 24/22 A2996 RMK AO2 SLP134 T02440217 53003=
200808251352 METAR KATL 251352Z 14006KT 7SM FEW009 BKN015 OVC020 24/22 A2994 RMK AO2 SLP130 BINOVC T02440217=
200808251347 SPECI KATL 251347Z 13008KT 7SM FEW009 BKN015 BKN021 24/22 A2995 RMK AO2=
200808251347 SPECI KATL 251347Z 13008KT 7SM FEW009 BKN015 BKN021 24/22 A2995 RMK AO2=
200808251252 METAR KATL 251252Z 14006KT 3SM BR BKN007 BKN015 24/22 A2995 RMK AO2 SFC VIS 6 SLP132 T02390217=
200808251152 METAR KATL 251152Z 14005KT 3SM BR BKN005 BKN009 BKN035 23/22 A2994 RMK AO2 SFC VIS 6 SLP130 60000 70037 T02330217 10233 20228 53006=
200808251059 SPECI KATL 251059Z 12005KT 3SM SCT005 BKN031 23/22 A2993 RMK AO2 SFC VIS 7=
200808251059 SPECI KATL 251059Z 12005KT 3SM SCT005 BKN031 23/22 A2993 RMK AO2 SFC VIS 7=
200808251052 METAR KATL 251052Z 12004KT 3SM BR SCT005 BKN010 BKN025 23/22 A2993 RMK AO2 SFC VIS 6 RAB0954E03 SLP126 P0000 T02330217=
200808251022 SPECI KATL 251022Z 13004KT 3SM BR SCT005 BKN020 BKN036 23/22 A2993 RMK AO2 SFC VIS 6 RAB0954E03 P0000=
200808251022 SPECI KATL 251022Z 13004KT 3SM BR SCT005 BKN020 BKN036 23/22 A2993 RMK AO2 SFC VIS 6 RAB0954E03 P0000=
200808250952 METAR KATL 250952Z 13003KT 3SM BR BKN005 BKN011 OVC033 23/22 A2992 RMK AO2 SFC VIS 6 SLP123 T02330217=
200808250852 METAR KATL 250852Z 14005KT 3SM BR BKN005 BKN011 23/22 A2992 RMK AO2 SFC VIS 6 SLP123 T02330217 56008=
200808250752 METAR KATL 250752Z 13006KT 3SM BR BKN003 OVC006 23/22 A2992 RMK AO2 SFC VIS 6 SLP123 T02330217=
200808250652 METAR KATL 250652Z 13005KT 3SM BR BKN003 OVC006 23/22 A2993 RMK AO2 SFC VIS 6 SLP125 T02280217=
200808250552 METAR KATL 250552Z 11006KT 3SM BR BKN003 OVC006 23/22 A2995 RMK AO2 SFC VIS 6 SLP131 60033 T02280217 10244 20217 56008=
200808250452 METAR KATL 250452Z 12005KT 3SM OVC003 22/21 A2995 RMK AO2 SFC VIS 8 SLP133 T02220211 402830217=
200808250412 SPECI KATL 250412Z 11004KT 3SM OVC003 22/21 A2996 RMK AO2 SFC VIS 8=
200808250412 SPECI KATL 250412Z 11004KT 3SM OVC003 22/21 A2996 RMK AO2 SFC VIS 8=
200808250352 METAR KATL 250352Z 10005KT 9SM BKN005 OVC095 22/21 A2995 RMK AO2 RAE48 SLP133 P0003 T02170206=
200808250329 SPECI KATL 250329Z 13004KT 9SM -RA BKN007 BKN019 OVC095 22/21 A2996 RMK AO2 P0002=
200808250329 SPECI KATL 250329Z 13004KT 9SM -RA BKN007 BKN019 OVC095 22/21 A2996 RMK AO2 P0002=
200808250317 SPECI KATL 250317Z 13004KT 8SM -RA SCT007 SCT014 OVC095 22/21 A2996 RMK AO2 P0002=
200808250317 SPECI KATL 250317Z 13004KT 8SM -RA SCT007 SCT014 OVC095 22/21 A2996 RMK AO2 P0002=
200808250252 METAR KATL 250252Z 11007KT 8SM -RA FEW006 BKN018 OVC100 22/21 A2997 RMK AO2 RAB13 SLP141 P0017 60030 T02220206 53009 $=
200808250226 SPECI KATL 250226Z 11007KT 4SM -RA BR SCT006 SCT014 OVC065 23/21 A2998 RMK AO2 RAB13 TCU OHD-W P0010=
200808250226 SPECI KATL 250226Z 11007KT 4SM -RA BR SCT006 SCT014 OVC065 23/21 A2998 RMK AO2 RAB13 TCU OHD-W P0010=
200808250152 METAR KATL 250152Z 10010KT 10SM BKN008 BKN043 OVC060 23/22 A2997 RMK AO2 RAE48 SLP139 CIG 005V010 P0009 T02280217=
200808250105 SPECI KATL 250105Z 12007KT 4SM -RA BR BKN008 BKN023 OVC041 23/21 A2996 RMK AO2 P0006=
200808250105 SPECI KATL 250105Z 12007KT 4SM -RA BR BKN008 BKN023 OVC041 23/21 A2996 RMK AO2 P0006=
200808250052 METAR KATL 250052Z 13009KT 7SM -RA FEW009 SCT024 OVC036 23/21 A2995 RMK AO2 TSE32 SLP132 TS DSIPT P0004 T02330211=
200808250050 SPECI KATL 250050Z 13008KT 7SM -RA FEW009 SCT018 OVC036 23/21 A2995 RMK AO2 TSE32 TS DSIPT P0004=
200808250050 SPECI KATL 250050Z 13008KT 7SM -RA FEW009 SCT018 OVC036 23/21 A2995 RMK AO2 TSE32 TS DSIPT P0004=
200808250047 SPECI KATL 250047Z 12009KT 8SM -RA FEW009 BKN018 OVC042 23/21 A2994 RMK AO2 TSE32 TS DSIPT P0003=
200808250047 SPECI KATL 250047Z 12009KT 8SM -RA FEW009 BKN018 OVC042 23/21 A2994 RMK AO2 TSE32 TS DSIPT P0003=
200808250033 SPECI KATL 250033Z 12011G15KT 10SM -RA FEW009 BKN012 OVC018 23/21 A2994 RMK AO2 TSE32 TS DSIPT P0002=
200808250033 SPECI KATL 250033Z 12011G15KT 10SM -RA FEW009 BKN012 OVC018 23/21 A2994 RMK AO2 TSE32 TS DSIPT P0002=
200808250015 SPECI KATL 250015Z 14008KT 10SM -TSRA FEW009 BKN018 OVC034CB 24/22 A2993 RMK AO2 OCNL LTGIC N-NE AND S-SW TS N-NE AND S-SW MOV NW P0000=
200808250015 SPECI KATL 250015Z 14008KT 10SM -TSRA FEW009 BKN018 OVC034CB 24/22 A2993 RMK AO2 OCNL LTGIC N-NE AND S-SW TS N-NE AND S-SW MOV NW P0000=
200808242352 METAR KATL 242352Z 15011G16KT 10SM -TSRA FEW011 BKN024CB OVC150 24/22 A2993 RMK AO2 TSE26B45RAE01B36 SLP125 OCNL LTGICCG SW-NW TS SW-NW MOV NW CB DSNT NE P0001 60003 T02440217 10283 20244 53003=
200808242346 SPECI KATL 242346Z 15008G16KT 10SM -TSRA FEW011 SCT024CB OVC150 25/22 A2992 RMK AO2 TSE26B45RAE01B36 OCNL LTGIC SW-NW TS SW-NW MOV NW P0000=
200808242346 SPECI KATL 242346Z 15008G16KT 10SM -TSRA FEW011 SCT024CB OVC150 25/22 A2992 RMK AO2 TSE26B45RAE01B36 OCNL LTGIC SW-NW TS SW-NW MOV NW P0000=
200808242328 SPECI KATL 242328Z 13010G18KT 10SM FEW029 SCT038 BKN150 OVC250 25/22 A2992 RMK AO2 TSE26RAE01 TS MOV NW CB DSNT E AND NW SHRA E AND NW P0000=
200808242328 SPECI KATL 242328Z 13010G18KT 10SM FEW029 SCT038 BKN150 OVC250 25/22 A2992 RMK AO2 TSE26RAE01 TS MOV NW CB DSNT E AND NW SHRA E AND NW P0000=
200808242252 METAR KATL 242252Z 11009KT 9SM -TSRA SCT022CB BKN032 BKN075 BKN250 27/22 A2992 RMK AO2 TSB16RAB52 SLP121 OCNL LTGICCG SW-NW TS SW-NW MOV NW CB DSNT SE-SW P0000 T02670217=
200808242244 SPECI KATL 242244Z 10008KT 10SM TS SCT021CB BKN029 BKN075 BKN250 27/22 A2992 RMK AO2 TSB16 OCNL LTGICCG TS OHD-SW-NW MOV NW SHRA SW-NW=
200808242244 SPECI KATL 242244Z 10008KT 10SM TS SCT021CB BKN029 BKN075 BKN250 27/22 A2992 RMK AO2 TSB16 OCNL LTGICCG TS OHD-SW-NW MOV NW SHRA SW-NW=
200808242217 SPECI KATL 242217Z 12007KT 10SM TS SCT020CB SCT120 BKN250 27/22 A2992 RMK AO2 TSB16 OCNL LTGICCG TS S MOV NW=
200808242217 SPECI KATL 242217Z 12007KT 10SM TS SCT020CB SCT120 BKN250 27/22 A2992 RMK AO2 TSB16 OCNL LTGICCG TS S MOV NW=
200808242152 METAR KATL 242152Z 12008KT 10SM FEW023 SCT150 BKN250 27/22 A2992 RMK AO2 RAE09 SLP120 CB DSNT SE AND S-SW AND NW P0000 T02720222=
200808242052 METAR KATL 242052Z 12012G15KT 10SM -RA SCT025CB BKN035 BKN050 28/21 A2992 RMK AO2 RAB52 SLP120 CB OHD-ALQDS MOV NW AND DSNT N AND NE SHRA E-SE P0000 60002 T02780211 58016=
200808241952 METAR KATL 241952Z 13011G17KT 10SM SCT022 BKN033 BKN055 28/21 A2993 RMK AO2 SLP126 CB DSNT N NE SE AND SW T02780211=
200808241852 METAR KATL 241852Z 11013G21KT 10SM SCT022 BKN035 BKN090 27/21 A2995 RMK AO2 RAB1755E11 SLP133 CB DSNT NE E-SE AND NW SHRA DSNT E-SE P0002 T02720211=
200808241832 SPECI KATL 241832Z 13011G17KT 10SM SCT022 BKN031 BKN045 27/22 A2996 RMK AO2 RAB1755E11 CB DSNT SE AND NW SHRA DSNT SE AND NW P0002=
200808241832 SPECI KATL 241832Z 13011G17KT 10SM SCT022 BKN031 BKN045 27/22 A2996 RMK AO2 RAB1755E11 CB DSNT SE AND NW SHRA DSNT SE AND NW P0002=
200808241802 SPECI KATL 241802Z 14008G19KT 8SM -RA SCT020CB BKN025 OVC040 26/22 A2997 RMK AO2 RAB1755 CB OHD-SW-NW MOV NW SHRA SW-NW P0002=
200808241802 SPECI KATL 241802Z 14008G19KT 8SM -RA SCT020CB BKN025 OVC040 26/22 A2997 RMK AO2 RAB1755 CB OHD-SW-NW MOV NW SHRA SW-NW P0002=
200808241752 METAR KATL 241752Z 11014G21KT 8SM SCT021CB BKN030 OVC040 27/21 A2997 RMK AO2 RAB19E29 SLP137 CB S-SW MOV NW SHRA S-SW P0000 60001 T02670206 10272 20222 58007=
200808241733 SPECI KATL 241733Z 12009KT 8SM SCT022 SCT027 OVC037 27/22 A2998 RMK AO2 RAB19E29 CB DSNT S BINOVC OHD P0000=
200808241733 SPECI KATL 241733Z 12009KT 8SM SCT022 SCT027 OVC037 27/22 A2998 RMK AO2 RAB19E29 CB DSNT S BINOVC OHD P0000=
200808241652 METAR KATL 241652Z 11012G16KT 9SM SCT014 BKN020 OVC031 25/22 A2999 RMK AO2 RAE48 SLP145 CB DSNT S AND NW P0000 T02500217=
200808241608 SPECI KATL 241608Z 11012G20KT 9SM -RA BKN016 OVC022 24/21 A2999 RMK AO2 CB DSNT SW-NW P0000=
200808241608 SPECI KATL 241608Z 11012G20KT 9SM -RA BKN016 OVC022 24/21 A2999 RMK AO2 CB DSNT SW-NW P0000=
200808241552 METAR KATL 241552Z 11013G21KT 9SM -RA OVC014 24/21 A3000 RMK AO2 RAB49 SLP148 CB DSNT SW-W P0000 T02440211=
200808241452 METAR KATL 241452Z 11011G20KT 8SM OVC013 23/21 A2999 RMK AO2 RAE09 SLP145 CB DSNT SW-W P0000 60001 T02330206 53002=
200808241439 SPECI KATL 241439Z 11015G21KT 8SM OVC012 23/21 A2999 RMK AO2 RAE09 CB DSNT SW-W P0000=
200808241439 SPECI KATL 241439Z 11015G21KT 8SM OVC012 23/21 A2999 RMK AO2 RAE09 CB DSNT SW-W P0000=
200808241352 METAR KATL 241352Z 10014G20KT 6SM -RA BR OVC009 23/21 A2999 RMK AO2 RAE11B52 SLP146 CB DSNT SE P0001 T02280206=
200808241252 METAR KATL 241252Z 09016G23KT 3SM R09R/6000VP6000FT -RA BR BKN009 OVC014 23/21 A2998 RMK AO2 SFC VIS 6 RAB10 SLP142 P0000 T02280206=
200808241152 METAR KATL 241152Z 10016G23KT 3SM BR BKN009 OVC014 22/21 A2998 RMK AO2 PK WND 10026/1128 SFC VIS 5 RAE42 SLP143 P0002 60007 70018 T02220206 10228 20222 53002=
200808241132 SPECI KATL 241132Z 09018G26KT 3SM -RA BR BKN009 OVC016 22/21 A2998 RMK AO2 PK WND 10026/1128 P0002=
200808241132 SPECI KATL 241132Z 09018G26KT 3SM -RA BR BKN009 OVC016 22/21 A2998 RMK AO2 PK WND 10026/1128 P0002=
200808241108 SPECI KATL 241108Z 09015G24KT 3SM -RA BR BKN010 OVC016 22/21 A2997 RMK AO2 SFC VIS 5 P0000=
200808241108 SPECI KATL 241108Z 09015G24KT 3SM -RA BR BKN010 OVC016 22/21 A2997 RMK AO2 SFC VIS 5 P0000=
200808241052 METAR KATL 241052Z 09016KT 8SM -RA BKN010 OVC016 22/20 A2997 RMK AO2 SLP139 P0000 T02220200=
200808240952 METAR KATL 240952Z 09017G23KT 9SM -RA BKN010 OVC016 22/20 A2997 RMK AO2 RAE14B37 SLP138 P0001 T02220200=
200808240852 METAR KATL 240852Z 08017KT 6SM -RA BR BKN010 OVC016 22/21 A2997 RMK AO2 RAE24B48 SLP141 P0000 60004 T02220206 58004=
200808240752 METAR KATL 240752Z 09016G20KT 7SM -RA BKN010 BKN016 OVC024 22/21 A2998 RMK AO2 RAB08E17B47 SLP143 P0000 T02220206=
200808240727 SPECI KATL 240727Z 09015KT 8SM BKN010 BKN016 OVC024 22/21 A2998 RMK AO2 RAB08E17 P0000=
200808240727 SPECI KATL 240727Z 09015KT 8SM BKN010 BKN016 OVC024 22/21 A2998 RMK AO2 RAB08E17 P0000=
200808240716 SPECI KATL 240716Z 09017KT 9SM -RA SCT010 BKN016 OVC024 22/21 A2997 RMK AO2 RAB08 P0000=
200808240716 SPECI KATL 240716Z 09017KT 9SM -RA SCT010 BKN016 OVC024 22/21 A2997 RMK AO2 RAB08 P0000=
200808240652 METAR KATL 240652Z 09016G22KT 9SM BKN010 OVC018 22/21 A2998 RMK AO2 RAE46 SLP144 P0004 T02220206=
200808240552 METAR KATL 240552Z 08017G24KT 8SM -RA BKN013 OVC020 23/21 A2999 RMK AO2 PK WND 08026/0533 RAB20 SLP145 P0000 60011 T02280206 10244 20222 58009=
200808240452 METAR KATL 240452Z 10016G22KT 10SM FEW009 BKN012 OVC018 23/21 A3000 RMK AO2 SLP150 T02280206 402560222=
200808240418 SPECI KATL 240418Z 09017G22KT 10SM BKN012 BKN018 OVC036 23/21 A3000 RMK AO2=
200808240418 SPECI KATL 240418Z 09017G22KT 10SM BKN012 BKN018 OVC036 23/21 A3000 RMK AO2=
200808240407 SPECI KATL 240407Z 09016G24KT 10SM SCT012 BKN018 OVC039 23/21 A3000 RMK AO2=
200808240407 SPECI KATL 240407Z 09016G24KT 10SM SCT012 BKN018 OVC039 23/21 A3000 RMK AO2=
200808240352 METAR KATL 240352Z 08017G24KT 10SM BKN009 OVC018 23/21 A3000 RMK AO2 PK WND 08028/0315 RAE33 SLP152 CIG RGD P0000 T02280206=
200808240330 SPECI KATL 240330Z 08017G24KT 10SM -RA BKN009 BKN020 OVC070 22/20 A3000 RMK AO2 PK WND 08028/0315 P0000=
200808240330 SPECI KATL 240330Z 08017G24KT 10SM -RA BKN009 BKN020 OVC070 22/20 A3000 RMK AO2 PK WND 08028/0315 P0000=
200808240252 METAR KATL 240252Z 08017G23KT 10SM -RA FEW010 SCT028 BKN055 OVC150 23/20 A3002 RMK AO2 RAE07B47 SLP156 P0011 60011 T02280200 53005=
200808240231 SPECI KATL 240231Z 08015G23KT 10SM FEW007 SCT025 BKN070 OVC150 22/20 A3001 RMK AO2 RAE07 P0011=
200808240231 SPECI KATL 240231Z 08015G23KT 10SM FEW007 SCT025 BKN070 OVC150 22/20 A3001 RMK AO2 RAE07 P0011=
200808240216 SPECI KATL 240216Z 08015G23KT 10SM FEW015 SCT022 BKN043 OVC150 22/20 A3001 RMK AO2 RAE07 P0011=
200808240216 SPECI KATL 240216Z 08015G23KT 10SM FEW015 SCT022 BKN043 OVC150 22/20 A3001 RMK AO2 RAE07 P0011=
200808240203 SPECI KATL 240203Z 08016G23KT 10SM -RA FEW014 BKN026 BKN050 22/20 A3001 RMK AO2 P0011=
200808240203 SPECI KATL 240203Z 08016G23KT 10SM -RA FEW014 BKN026 BKN050 22/20 A3001 RMK AO2 P0011=
200808240156 SPECI KATL 240156Z 08019G23KT 2SM +RA BR FEW007 BKN029 OVC060 22/20 A3001 RMK AO2 P0006=
200808240156 SPECI KATL 240156Z 08019G23KT 2SM +RA BR FEW007 BKN029 OVC060 22/20 A3001 RMK AO2 P0006=
200808240152 METAR KATL 240152Z 09015G23KT 6SM -RA FEW018 SCT029 BKN065 23/19 A3001 RMK AO2 PK WND 07028/0106 RAB50 SLP155 P0000 T02280194=
200808240052 METAR KATL 240052Z 08021KT 10SM FEW028 BKN037 BKN046 23/19 A3000 RMK AO2 PK WND 08027/0002 RAB07E27 SLP151 P0000 T02330194=
200808232352 METAR KATL 232352Z 09021G29KT 10SM FEW021 SCT039 BKN060 OVC150 24/19 A3000 RMK AO2 PK WND 08030/2327 SLP149 SHRA NE 60000 T02440189 10256 20244 55000=
200808232318 SPECI KATL 232318Z 09021G26KT 10SM FEW021 SCT027 SCT075 OVC150 24/19 A3000 RMK AO2 PK WND 07029/2305=
200808232318 SPECI KATL 232318Z 09021G26KT 10SM FEW021 SCT027 SCT075 OVC150 24/19 A3000 RMK AO2 PK WND 07029/2305=
200808232307 SPECI KATL 232307Z 09021G29KT 10SM BKN021 BKN042 OVC150 24/19 A3000 RMK AO2 PK WND 07029/2305=
200808232307 SPECI KATL 232307Z 09021G29KT 10SM BKN021 BKN042 OVC150 24/19 A3000 RMK AO2 PK WND 07029/2305=
200808232252 METAR KATL 232252Z 08019G31KT 10SM FEW025 SCT037 SCT065 OVC150 25/19 A3000 RMK AO2 PK WND 08032/2210 SLP148 T02500189=
200808232152 METAR KATL 232152Z 08017KT 10SM SCT027 BKN040 OVC150 25/19 A3000 RMK AO2 PK WND 08030/2114 RAE02 SLP148 SHRA NE AND SW P0000 T02500194=
200808232137 SPECI KATL 232137Z 09018G24KT 10SM SCT033 BKN048 OVC150 25/19 A3000 RMK AO2 PK WND 08030/2114 RAE02 SHRA NE AND SW P0000=
200808232137 SPECI KATL 232137Z 09018G24KT 10SM SCT033 BKN048 OVC150 25/19 A3000 RMK AO2 PK WND 08030/2114 RAE02 SHRA NE AND SW P0000=
200808232052 METAR KATL 232052Z 08022G28KT 10SM -RA BKN028 OVC036 24/19 A3000 RMK AO2 PK WND 09028/2052 RAB13 SLP150 CIG 028V033 BKN028V SCT P0000 60000 T02440194 56018=
200808232019 SPECI KATL 232019Z 08015G25KT 10SM -RA BKN030 BKN038 OVC045 25/19 A3000 RMK AO2 PK WND 07026/1954 RAB13 CIG 028V030 BKN030V SCT P0000=
200808232019 SPECI KATL 232019Z 08015G25KT 10SM -RA BKN030 BKN038 OVC045 25/19 A3000 RMK AO2 PK WND 07026/1954 RAB13 CIG 028V030 BKN030V SCT P0000=
200808231952 METAR KATL 231952Z 08018KT 10SM BKN028 OVC037 25/19 A3002 RMK AO2 PK WND 06029/1903 RAB28E39 SLP155 BKN028V SCT P0000 T02500189=
200808231923 SPECI KATL 231923Z 09019G25KT 10SM BKN026 BKN030 OVC038 25/19 A3002 RMK AO2 PK WND 06029/1903 BKN026V SCT=
200808231923 SPECI KATL 231923Z 09019G25KT 10SM BKN026 BKN030 OVC038 25/19 A3002 RMK AO2 PK WND 06029/1903 BKN026V SCT=
200808231908 SPECI KATL 231908Z 07020G29KT 10SM SCT024 BKN030 OVC038 25/19 A3002 RMK AO2 PK WND 06029/1903 SCT024V BKN=
200808231908 SPECI KATL 231908Z 07020G29KT 10SM SCT024 BKN030 OVC038 25/19 A3002 RMK AO2 PK WND 06029/1903 SCT024V BKN=
200808231852 METAR KATL 231852Z 08021G31KT 10SM BKN024 BKN030 OVC038 25/19 A3003 RMK AO2 PK WND 09031/1844 SLP159 BKN024V SCT T02500189=
200808231752 METAR KATL 231752Z 08019G32KT 10SM OVC020 24/19 A3005 RMK AO2 PK WND 07033/1726 SLP168 60000 T02440189 10244 20222 58012=
200808231652 METAR KATL 231652Z 08018G27KT 10SM OVC016 23/19 A3007 RMK AO2 PK WND 08030/1633 RAE16 SLP175 P0000 T02330189=
200808231552 METAR KATL 231552Z 08024G30KT 10SM -RA OVC014 23/19 A3008 RMK AO2 PK WND 07032/1515 RAB33 SLP179 P0000 T02280189=
200808231452 METAR KATL 231452Z 08019G33KT 10SM OVC012 23/19 A3009 RMK AO2 PK WND 07033/1443 RAE32 SLP181 P0000 60000 T02280189 53006=
200808231352 METAR KATL 231352Z 08020G26KT 10SM -RA OVC012 23/19 A3008 RMK AO2 PK WND 07034/1314 RAB14 SLP175 P0000 T02280189=
200808231252 METAR KATL 231252Z 07020G26KT 10SM OVC012 22/19 A3008 RMK AO2 PK WND 08029/1240 SLP176 T02220189=
200808231152 METAR KATL 231152Z 07018G26KT 10SM OVC012 22/19 A3007 RMK AO2 PK WND 08029/1126 SLP175 60000 70001 T02220189 10228 20222 53006=
200808231052 METAR KATL 231052Z 08020G35KT 10SM OVC012 22/19 A3006 RMK AO2 PK WND 07035/1046 SLP169 T02220194=
200808230952 METAR KATL 230952Z 07019G24KT 10SM BKN013 OVC017 23/19 A3005 RMK AO2 SLP168 T02280194=
200808230852 METAR KATL 230852Z 08017G27KT 10SM BKN011 OVC017 23/19 A3005 RMK AO2 PK WND 07027/0849 SLP168 60000 T02280194 56007=
200808230752 METAR KATL 230752Z 07020KT 9SM BKN011 OVC017 22/20 A3006 RMK AO2 PK WND 07026/0654 RAB25E39 SLP169 P0000 T02220200=
200808230652 METAR KATL 230652Z 07020G25KT 9SM BKN010 OVC015 22/20 A3006 RMK AO2 RAB10E38 SLP171 P0000 T02220200=
200808230639 SPECI KATL 230639Z 07017G25KT 10SM BKN010 OVC015 22/20 A3006 RMK AO2 RAB10E38 P0000=
200808230639 SPECI KATL 230639Z 07017G25KT 10SM BKN010 OVC015 22/20 A3006 RMK AO2 RAB10E38 P0000=
200808230558 SPECI KATL 230558Z 07018KT 10SM OVC009 22/20 A3007 RMK AO2 CIG 009V015=
200808230558 SPECI KATL 230558Z 07018KT 10SM OVC009 22/20 A3007 RMK AO2 CIG 009V015=
200808230552 METAR KATL 230552Z 07016G24KT 10SM OVC011 22/20 A3007 RMK AO2 RAB15E27 SLP175 P0000 60001 T02220200 10239 20217 58007=
200808230452 METAR KATL 230452Z 07018G23KT 10SM BKN012 OVC025 22/20 A3009 RMK AO2 RAE0358 SLP179 CIG 009V015 P0000 T02220200 402780217=
200808230403 SPECI KATL 230403Z 07017G21KT 10SM OVC014 22/20 A3010 RMK AO2 RAE0358 P0000=
200808230403 SPECI KATL 230403Z 07017G21KT 10SM OVC014 22/20 A3010 RMK AO2 RAE0358 P0000=
200808230352 METAR KATL 230352Z 06013KT 9SM -RA BKN016 OVC030 22/20 A3009 RMK AO2 PK WND 06026/0334 RAB22 SLP181 P0001 T02220200=
200808230252 METAR KATL 230252Z 07018G24KT 10SM BKN016 OVC025 22/19 A3010 RMK AO2 PK WND 08029/0215 RAE0156B37E49 SLP182 P0000 60000 T02220194 53004=
200808230152 METAR KATL 230152Z 07018KT 10SM -RA OVC020 23/19 A3008 RMK AO2 PK WND 05027/0120 RAE0055B45 SLP178 PCPN VRY LGT P0000 T02330189=
200808230052 METAR KATL 230052Z 07021G28KT 10SM -RA OVC020 23/19 A3008 RMK AO2 PK WND 08028/0046 RAB38 SLP178 P0000 T02330189=
200808222352 METAR KATL 222352Z 06018G23KT 10SM OVC018 23/19 A3008 RMK AO2 PK WND 07030/2304 RAB28E46 SLP178 P0000 60000 T02330189 10256 20233 56005=
200808222252 METAR KATL 222252Z 06016G24KT 10SM OVC024 24/18 A3009 RMK AO2 PK WND 07029/2215 SLP179 T02440183=
200808222152 METAR KATL 222152Z 06015KT 10SM BKN027 OVC035 25/18 A3008 RMK AO2 SLP178 T02500183=
200808222052 METAR KATL 222052Z 07018G21KT 10SM BKN020 OVC050 24/18 A3010 RMK AO2 PK WND 07026/2024 SLP182 60000 T02440183 56006=
200808221952 METAR KATL 221952Z 07020G25KT 10SM OVC023 24/18 A3010 RMK AO2 PK WND 05026/1910 SLP183 T02440183=
200808221852 METAR KATL 221852Z 05019G24KT 10SM BKN029 BKN049 OVC150 26/18 A3010 RMK AO2 PK WND 07028/1818 RAE1758 SLP182 P0000 T02560178=
200808221752 METAR KATL 221752Z 08019G23KT 10SM -RA BKN027 BKN050 OVC150 25/18 A3011 RMK AO2 PK WND 08032/1724 RAB50 SLP188 P0000 60000 T02500178 10278 20228 53002=
200808221733 SPECI KATL 221733Z 09020G32KT 10SM BKN027 OVC032 25/18 A3012 RMK AO2 PK WND 08032/1724=
200808221733 SPECI KATL 221733Z 09020G32KT 10SM BKN027 OVC032 25/18 A3012 RMK AO2 PK WND 08032/1724=
200808221652 METAR KATL 221652Z 08022G32KT 10SM FEW035 SCT090 BKN150 BKN250 27/17 A3011 RMK AO2 PK WND 08033/1627 SLP185 T02670172=
200808221609 SPECI KATL 221609Z 07024G30KT 10SM BKN038 BKN100 BKN250 27/16 A3011 RMK AO2 PK WND 08030/1609=
200808221609 SPECI KATL 221609Z 07024G30KT 10SM BKN038 BKN100 BKN250 27/16 A3011 RMK AO2 PK WND 08030/1609=
200808221552 METAR KATL 221552Z 07023G30KT 10SM SCT042 SCT100 BKN150 BKN250 28/16 A3011 RMK AO2 PK WND 08031/1453 SLP185 T02780156=
200808221452 METAR KATL 221452Z 08024G32KT 10SM FEW045 SCT100 BKN150 BKN250 26/16 A3011 RMK AO2 PK WND 08033/1423 SLP184 T02610156 53005=
200808221352 METAR KATL 221352Z 07017G27KT 10SM FEW047 SCT100 SCT150 BKN250 25/16 A3010 RMK AO2 PK WND 06027/1346 SLP182 T02500161=
200808221252 METAR KATL 221252Z 07019G24KT 10SM FEW055 SCT150 BKN180 24/16 A3009 RMK AO2 PK WND 06026/1227 SLP181 T02390161=
200808221152 METAR KATL 221152Z 07016G22KT 10SM FEW055 SCT140 BKN180 23/17 A3009 RMK AO2 SLP180 T02330167 10239 20228 53007=
200808221052 METAR KATL 221052Z 07013KT 9SM FEW050 SCT140 BKN180 23/17 A3008 RMK AO2 SLP174 T02280172=
200808220952 METAR KATL 220952Z 07014KT 9SM BKN150 23/18 A3008 RMK AO2 SLP174 T02280178=
200808220852 METAR KATL 220852Z 07013KT 10SM SCT180 23/17 A3007 RMK AO2 SLP171 T02280172 55002=
200808220752 METAR KATL 220752Z 07013KT 10SM SCT180 23/17 A3006 RMK AO2 SLP170 T02330172=
200808220652 METAR KATL 220652Z 06011KT 10SM SCT180 24/17 A3007 RMK AO2 SLP172 T02390172=
200808220552 METAR KATL 220552Z 08014KT 10SM FEW180 24/16 A3007 RMK AO2 SLP174 T02390161 10278 20239 58006=
200808220452 METAR KATL 220452Z 08013KT 10SM FEW060 SCT250 24/16 A3008 RMK AO2 SLP177 T02390161 402940228=
200808220352 METAR KATL 220352Z 09009KT 10SM FEW200 BKN250 25/16 A3009 RMK AO2 SLP180 T02500161=
200808220252 METAR KATL 220252Z 07011KT 10SM FEW200 BKN250 26/15 A3009 RMK AO2 SLP180 T02560150 52011=
200808220152 METAR KATL 220152Z 07010KT 10SM FEW080 SCT200 BKN250 27/15 A3009 RMK AO2 SLP178 T02670150=
200808220052 METAR KATL 220052Z 08013KT 10SM SCT070 BKN085 BKN200 27/15 A3007 RMK AO2 SLP171 T02720150=
200808212352 METAR KATL 212352Z 09010KT 10SM FEW065 SCT080 BKN200 28/16 A3006 RMK AO2 SLP169 60000 T02780156 10294 20261 55003=
200808212252 METAR KATL 212252Z 08010KT 10SM FEW050 SCT065 BKN200 29/17 A3005 RMK AO2 SLP164 T02890172=
200808212152 METAR KATL 212152Z 09014G19KT 10SM SCT048 BKN250 29/18 A3005 RMK AO2 SLP166 T02890178=
200808212052 METAR KATL 212052Z 09011G19KT 10SM FEW050 SCT070 BKN250 29/18 A3007 RMK AO2 RAB1959E08 SLP171 P0000 60000 T02890183 58017=
200808211952 METAR KATL 211952Z 09012G21KT 10SM FEW030 BKN040 BKN150 OVC250 27/18 A3009 RMK AO2 SLP180 T02720183=
200808211852 METAR KATL 211852Z 08010G19KT 10SM SCT029 BKN040 BKN150 BKN250 27/19 A3011 RMK AO2 SLP185 T02670189=
200808211752 METAR KATL 211752Z 08014KT 10SM SCT027 BKN040 BKN250 27/19 A3012 RMK AO2 SLP189 60000 T02670194 10267 20228 58002=
200808211652 METAR KATL 211652Z 09013G21KT 10SM OVC024 26/19 A3012 RMK AO2 SLP191 BINOVC NE T02560189=
200808211552 METAR KATL 211552Z 08014KT 10SM OVC020 24/19 A3014 RMK AO2 SLP195 T02440189=
200808211452 METAR KATL 211452Z 08013G20KT 10SM OVC018 24/19 A3012 RMK AO2 RAE00 SLP191 P0000 60000 T02390194 53014=
200808211352 METAR KATL 211352Z 08012KT 10SM -RA SCT015 BKN021 OVC027 24/19 A3011 RMK AO2 RAB50 SLP185 P0000 T02390194=
200808211252 METAR KATL 211252Z 08015KT 10SM BKN017 BKN150 23/19 A3009 RMK AO2 SLP180 T02330194=
200808211152 METAR KATL 211152Z 08014KT 10SM BKN015 BKN150 23/19 A3008 RMK AO2 SLP176 T02280194 10239 20228 51011=
200808211148 SPECI KATL 211148Z 08013KT 10SM BKN015 BKN150 23/19 A3008 RMK AO2=
200808211148 SPECI KATL 211148Z 08013KT 10SM BKN015 BKN150 23/19 A3008 RMK AO2=
200808211052 METAR KATL 211052Z 08016KT 10SM FEW020 SCT150 SCT250 23/19 A3006 RMK AO2 SLP168 T02280194=
200808210952 METAR KATL 210952Z 08013KT 10SM SCT150 23/19 A3005 RMK AO2 SLP163 T02280189=
200808210852 METAR KATL 210852Z 08013KT 10SM FEW070 SCT150 23/19 A3003 RMK AO2 SLP158 T02280189 56009=
200808210752 METAR KATL 210752Z 07009KT 10SM FEW150 23/19 A3004 RMK AO2 SLP159 T02330189=
200808210652 METAR KATL 210652Z 09008KT 10SM FEW150 23/19 A3004 RMK AO2 SLP162 T02330189=
200808210552 METAR KATL 210552Z 07008KT 10SM FEW150 24/19 A3006 RMK AO2 SLP168 T02390189 10300 20239 55000=
200808210452 METAR KATL 210452Z 09008KT 10SM FEW100 SCT150 BKN250 25/18 A3005 RMK AO2 SLP165 T02500183 403220211=
200808210352 METAR KATL 210352Z 12009KT 10SM FEW100 SCT150 BKN250 26/19 A3006 RMK AO2 SLP168 T02560189=
200808210252 METAR KATL 210252Z 14008KT 10SM FEW030 SCT100 BKN250 27/19 A3006 RMK AO2 SLP168 T02670194 53023=
200808210152 METAR KATL 210152Z 15014G19KT 10SM BKN070 BKN100 BKN250 28/19 A3004 RMK AO2 WSHFT 0136 SLP160 T02780189=
200808210052 METAR KATL 210052Z 10007KT 10SM BKN075 BKN150 BKN250 29/14 A3001 RMK AO2 SLP151 T02940144=
200808202352 METAR KATL 202352Z 09009KT 10SM FEW075 SCT250 30/14 A2999 RMK AO2 SLP145 T03000144 10322 20300 55002=
200808202252 METAR KATL 202252Z 09009KT 10SM FEW075 SCT150 BKN250 31/14 A2999 RMK AO2 SLP143 T03110144=
200808202152 METAR KATL 202152Z 11009KT 10SM SCT075 BKN250 32/13 A2999 RMK AO2 SLP144 T03220133=
200808202052 METAR KATL 202052Z 09009KT 10SM SCT070 SCT250 32/16 A3000 RMK AO2 SLP147 T03220156 56014=
200808201952 METAR KATL 201952Z 10012G23KT 10SM FEW070 SCT250 SCT300 32/14 A3001 RMK AO2 SLP151 T03170144=
200808201852 METAR KATL 201852Z 09012KT 10SM FEW065 SCT250 SCT300 31/15 A3002 RMK AO2 SLP156 T03060150=
200808201752 METAR KATL 201752Z 09014G19KT 10SM FEW065 SCT250 SCT300 31/16 A3004 RMK AO2 SLP161 T03110156 10311 20228 58009=
200808201652 METAR KATL 201652Z 09013G21KT 10SM FEW055 SCT250 SCT300 30/17 A3006 RMK AO2 SLP166 T03000167=
200808201552 METAR KATL 201552Z 08013G19KT 10SM FEW050 SCT250 SCT300 29/18 A3007 RMK AO2 SLP170 T02890178=
200808201452 METAR KATL 201452Z 09012KT 10SM SCT035 SCT250 27/19 A3007 RMK AO2 SLP171 T02670189 51010=
200808201352 METAR KATL 201352Z 06009KT 9SM FEW025 SCT250 26/19 A3006 RMK AO2 SLP169 T02610194=
200808201252 METAR KATL 201252Z 05008KT 10SM FEW070 SCT140 SCT250 24/19 A3005 RMK AO2 SLP166 T02440194=
200808201152 METAR KATL 201152Z 05009KT 9SM FEW140 SCT250 23/19 A3004 RMK AO2 SLP161 T02280189 10244 20211 51007=
200808201052 METAR KATL 201052Z 06007KT 9SM FEW070 SCT140 SCT250 22/18 A3003 RMK AO2 SLP159 T02220183=
200808200952 METAR KATL 200952Z 07005KT 9SM CLR 22/18 A3002 RMK AO2 SLP156 T02170183=
200808200852 METAR KATL 200852Z 07005KT 8SM FEW250 22/18 A3002 RMK AO2 SLP153 T02170178 57004=
200808200752 METAR KATL 200752Z 08005KT 8SM FEW250 22/18 A3002 RMK AO2 SLP155 T02220178=
200808200652 METAR KATL 200652Z 12003KT 10SM CLR 24/18 A3002 RMK AO2 SLP154 T02390178=
200808200552 METAR KATL 200552Z 00000KT 9SM CLR 24/17 A3003 RMK AO2 SLP157 T02440172 10306 20244 51005=
200808200452 METAR KATL 200452Z 14004KT 10SM CLR 26/17 A3003 RMK AO2 SLP155 T02610167 403220206=
200808200352 METAR KATL 200352Z 13003KT 10SM CLR 26/17 A3002 RMK AO2 SLP154 T02610172=
200808200252 METAR KATL 200252Z 00000KT 10SM FEW080 27/17 A3001 RMK AO2 SLP152 T02670167 51017=
200808200152 METAR KATL 200152Z 18004KT 10SM FEW250 27/17 A3001 RMK AO2 SLP150 T02720167=
200808200052 METAR KATL 200052Z 16006KT 10SM CLR 28/16 A2998 RMK AO2 SLP141 T02830161=
200808192352 METAR KATL 192352Z 14007KT 10SM CLR 31/15 A2996 RMK AO2 SLP134 T03060150 10322 20294 55004=
200808192252 METAR KATL 192252Z 10007KT 10SM FEW060 31/16 A2995 RMK AO2 SLP131 T03060156=
200808192152 METAR KATL 192152Z 11008G17KT 10SM FEW065 32/15 A2996 RMK AO2 SLP134 T03170150=
200808192052 METAR KATL 192052Z 08006KT 10SM FEW070 SCT200 BKN300 32/15 A2997 RMK AO2 SLP138 T03170150 58017=
200808191952 METAR KATL 191952Z 10008G15KT 10SM FEW070 SCT200 BKN300 32/16 A2999 RMK AO2 SLP143 T03170156=
200808191852 METAR KATL 191852Z 11010KT 10SM FEW060 SCT200 SCT300 31/16 A3001 RMK AO2 SLP151 T03110156=
200808191752 METAR KATL 191752Z 11007G23KT 9SM FEW050 SCT200 SCT300 30/17 A3002 RMK AO2 SLP155 T03000172 10306 20222 58010=
200808191652 METAR KATL 191652Z 10005KT 9SM FEW040 SCT200 SCT300 29/18 A3004 RMK AO2 SLP161 T02890178=
200808191552 METAR KATL 191552Z 05008KT 8SM FEW200 SCT300 28/19 A3004 RMK AO2 SLP161 T02830189=
200808191452 METAR KATL 191452Z 08006KT 7SM FEW200 SCT300 27/19 A3005 RMK AO2 SLP166 T02670189 51010=
200808191352 METAR KATL 191352Z 08006KT 6SM HZ SCT200 25/19 A3005 RMK AO2 SLP165 T02500194=
200808191252 METAR KATL 191252Z 07004KT 6SM HZ SCT150 23/19 A3004 RMK AO2 SLP161 T02330189=
200808191152 METAR KATL 191152Z 00000KT 6SM HZ CLR 22/19 A3002 RMK AO2 SLP156 T02220189 10228 20206 53004=
200808191052 METAR KATL 191052Z 04005KT 6SM HZ CLR 21/18 A3001 RMK AO2 SLP152 T02110183=
200808190952 METAR KATL 190952Z 07003KT 7SM CLR 21/18 A3000 RMK AO2 SLP149 T02060183=
200808190852 METAR KATL 190852Z 09003KT 7SM CLR 21/18 A3001 RMK AO2 SLP151 T02110183 58002=
200808190752 METAR KATL 190752Z 00000KT 7SM FEW180 21/18 A3001 RMK AO2 SLP153 T02110183=
200808190652 METAR KATL 190652Z 15004KT 7SM CLR 21/18 A3001 RMK AO2 SLP153 T02110178=
200808190552 METAR KATL 190552Z 00000KT 9SM FEW250 22/17 A3001 RMK AO2 SLP153 T02220172 10283 20222 50001=
200808190452 METAR KATL 190452Z 14004KT 10SM FEW250 23/17 A3001 RMK AO2 SLP154 T02330167 403000206=
200808190352 METAR KATL 190352Z 00000KT 10SM FEW250 23/17 A3002 RMK AO2 SLP157 T02330167=
200808190252 METAR KATL 190252Z 15004KT 10SM FEW250 23/17 A3001 RMK AO2 SLP153 T02330172 51014=
200808190152 METAR KATL 190152Z 15005KT 10SM CLR 26/17 A3000 RMK AO2 SLP149 T02560167=
200808190052 METAR KATL 190052Z 15005KT 10SM CLR 27/16 A2998 RMK AO2 SLP142 T02720161=
200808182352 METAR KATL 182352Z 14004KT 10SM CLR 28/15 A2997 RMK AO2 SLP138 T02830150 10300 20272 55001=
200808182252 METAR KATL 182252Z 10005KT 10SM CLR 29/16 A2996 RMK AO2 SLP135 T02890156=
200808182152 METAR KATL 182152Z 15007KT 9SM CLR 30/15 A2996 RMK AO2 SLP135 T03000150=
200808182052 METAR KATL 182052Z 14006KT 9SM FEW050 29/16 A2997 RMK AO2 SLP139 T02890156 58021=
200808181952 METAR KATL 181952Z 11007KT 9SM FEW045 29/17 A2999 RMK AO2 SLP146 T02940167=
200808181852 METAR KATL 181852Z 15006KT 7SM SCT040TCU 28/18 A3002 RMK AO2 SLP155 TCU NW-N T02830183=
200808181752 METAR KATL 181752Z 15009KT 6SM HZ BKN030 28/19 A3004 RMK AO2 SLP160 T02780189 10283 20211 58005=
200808181652 METAR KATL 181652Z 12007KT 5SM HZ SCT025 27/20 A3005 RMK AO2 SLP166 T02670200=
200808181552 METAR KATL 181552Z 09008KT 4SM HZ SCT017 26/21 A3006 RMK AO2 SLP168 T02560206=
200808181452 METAR KATL 181452Z 09006KT 4SM HZ FEW015 24/20 A3005 RMK AO2 SLP167 T02440200 51014=
200808181352 METAR KATL 181352Z 08011KT 4SM HZ FEW025 SCT150 BKN250 23/19 A3004 RMK AO2 SLP163 T02330194=
200808181252 METAR KATL 181252Z 09008KT 4SM HZ SCT180 23/19 A3003 RMK AO2 SLP159 T02280194=
200808181152 METAR KATL 181152Z 08006KT 4SM BR FEW022 SCT180 SCT250 21/19 A3001 RMK AO2 SLP153 T02110189 10239 20206 53008=
200808181052 METAR KATL 181052Z 08006KT 5SM HZ FEW022 21/18 A2999 RMK AO2 SLP148 T02110183=
200808180952 METAR KATL 180952Z 05006KT 6SM HZ CLR 22/19 A2999 RMK AO2 SLP145 T02170189=
200808180852 METAR KATL 180852Z 08004KT 4SM BR SCT014 21/19 A2998 RMK AO2 SLP143 T02110189 56007=
200808180752 METAR KATL 180752Z 10003KT 6SM HZ FEW027 22/19 A2999 RMK AO2 SLP144 T02220189=
200808180652 METAR KATL 180652Z 12003KT 7SM CLR 23/19 A2999 RMK AO2 SLP146 T02280194=
200808180552 METAR KATL 180552Z 11004KT 7SM FEW250 24/19 A3001 RMK AO2 SLP150 T02390194 10278 20233 50003=
200808180452 METAR KATL 180452Z 14004KT 7SM FEW250 24/19 A3001 RMK AO2 SLP153 T02440194 402940217=
200808180352 METAR KATL 180352Z 15005KT 8SM BKN250 25/19 A3001 RMK AO2 SLP152 T02500189=
200808180252 METAR KATL 180252Z 16005KT 8SM FEW050 BKN250 25/19 A3000 RMK AO2 TSE46 SLP148 TS MOV SW FRQ LTG DSNT SW CB DSNT SW T02500189 53014=
200808180247 SPECI KATL 180247Z 15004KT 8SM FEW050CB SCT070 BKN250 25/19 A3000 RMK AO2 TSE46 TS MOV SW FRQ LTG DSNT SW CB DSNT SW=
200808180247 SPECI KATL 180247Z 15004KT 8SM FEW050CB SCT070 BKN250 25/19 A3000 RMK AO2 TSE46 TS MOV SW FRQ LTG DSNT SW CB DSNT SW=
200808180152 METAR KATL 180152Z 13003KT 8SM TS SCT050CB BKN250 26/18 A2998 RMK AO2 TSB21 SLP144 OCNL LTGICCA SW TS SW MOV STNRY T02610183=
200808180122 SPECI KATL 180122Z 12006KT 7SM TS FEW045CB BKN250 27/18 A2997 RMK AO2 TSB21 FRQ LTGICCA SW TS SW MOV E=
200808180122 SPECI KATL 180122Z 12006KT 7SM TS FEW045CB BKN250 27/18 A2997 RMK AO2 TSB21 FRQ LTGICCA SW TS SW MOV E=
200808180052 METAR KATL 180052Z 12003KT 8SM FEW065 BKN250 27/18 A2996 RMK AO2 SLP136 T02720178=
200808172352 METAR KATL 172352Z 10005KT 7SM FEW046TCU BKN250 28/18 A2996 RMK AO2 SLP134 TCU SW T02780178 10294 20272 53001=
200808172252 METAR KATL 172252Z 06004KT 7SM FEW046 SCT060 SCT090 SCT250 28/18 A2995 RMK AO2 TSE04 SLP132 TS DSIPT TCU DSNT E-SE T02780178=
200808172205 SPECI KATL 172205Z 10004KT 7SM FEW046TCU SCT075 SCT090 BKN250 28/17 A2995 RMK AO2 TSE04 TS DSIPT TCU W=
200808172205 SPECI KATL 172205Z 10004KT 7SM FEW046TCU SCT075 SCT090 BKN250 28/17 A2995 RMK AO2 TSE04 TS DSIPT TCU W=
200808172152 METAR KATL 172152Z 08006KT 7SM TS SCT046CB BKN060 BKN250 28/17 A2995 RMK AO2 TSB18 SLP131 OCNL LTGICCG N TS N MOV S TCU OHD-W SHRA N-NE T02830172=
200808172119 SPECI KATL 172119Z 11004KT 7SM TS BKN045CB BKN250 29/18 A2995 RMK AO2 TSB18 OCNL LTGIC N TS N MOV SE TCU OHD AND DSNT E SHRA N=
200808172119 SPECI KATL 172119Z 11004KT 7SM TS BKN045CB BKN250 29/18 A2995 RMK AO2 TSB18 OCNL LTGIC N TS N MOV SE TCU OHD AND DSNT E SHRA N=
200808172052 SPECI KATL 172052Z 00000KT 7SM SCT045TCU BKN060 BKN250 29/17 A2995 RMK AO2 SLP132 TCU NE OHD-W AND NW CB DSNT N-NE AND NW-N T02940172 56019=
200808171952 METAR KATL 171952Z 16004KT 7SM SCT045TCU BKN250 29/18 A2997 RMK AO2 SLP138 TCU OHD S AND W CB DSNT N-NE T02890178=
200808171852 METAR KATL 171852Z 14006KT 7SM SCT040TCU 28/18 A2999 RMK AO2 SLP145 TCU OHD AND DSNT NW-N T02830178=
200808171752 METAR KATL 171752Z VRB03KT 7SM SCT035TCU 28/19 A3001 RMK AO2 SLP151 TCU W T02780189 10278 20222 58014=
200808171652 SPECI KATL 171652Z VRB06KT 7SM SCT030 BKN250 27/19 A3003 RMK AO2 SLP158 T02670189=
200808171552 METAR KATL 171552Z 08006KT 7SM FEW030 SCT060 SCT150 26/19 A3005 RMK AO2 SLP164 T02560189=
200808171452 METAR KATL 171452Z 09009KT 7SM SCT060 BKN200 24/18 A3005 RMK AO2 SLP167 T02440183 50009=
200808171352 METAR KATL 171352Z 08009KT 8SM BKN060 BKN120 OVC200 23/18 A3005 RMK AO2 SLP168 T02280178=
200808171252 METAR KATL 171252Z 06008KT 6SM HZ FEW060 BKN090 OVC130 23/18 A3004 RMK AO2 SLP165 T02280178=
200808171152 METAR KATL 171152Z 00000KT 6SM HZ FEW060 BKN090 OVC130 22/18 A3002 RMK AO2 SLP158 70022 T02220178 10244 20217 53006 $=
200808171052 METAR KATL 171052Z 07006KT 7SM BKN090 BKN130 OVC250 22/18 A3001 RMK AO2 SLP154 T02170178 $=
200808170952 METAR KATL 170952Z 07006KT 8SM FEW090 BKN130 BKN250 22/18 A3001 RMK AO2 SLP153 T02220178 $=
200808170852 METAR KATL 170852Z 07006KT 8SM FEW090 BKN130 22/17 A3000 RMK AO2 SLP150 T02220172 56006 $=
200808170752 METAR KATL 170752Z COR 05007KT 9SM FEW090 BKN130 23/17 A3001 RMK AO2 SLP150 T02330172 $=
200808170724 SPECI KATL 170724Z 06006KT 9SM OVC085 23/18 A3001 RMK AO2 $=
200808170724 SPECI KATL 170724Z 06006KT 9SM OVC085 23/18 A3001 RMK AO2 $=
200808170652 METAR KATL 170652Z 9SM OVC085 23/18 A3002 RMK AO2 SLP154 T02330178 $=
200808170552 METAR KATL 170552Z 04003KT 10SM OVC090 24/17 A3002 RMK AO2 SLP156 T02440172 10261 20233 58000=
200808170452 METAR KATL 170452Z 33004KT 10SM FEW090 OVC110 24/17 A3003 RMK AO2 SLP158 T02390172 403000211=
200808170352 METAR KATL 170352Z 30004KT 10SM OVC100 24/18 A3003 RMK AO2 SLP158 T02390178=
200808170252 METAR KATL 170252Z 00000KT 10SM FEW090 BKN110 24/17 A3003 RMK AO2 SLP157 T02440172 51009=
200808170152 METAR KATL 170152Z VRB03KT 10SM SCT090 BKN110 25/18 A3002 RMK AO2 SLP155 T02500183=
200808170052 METAR KATL 170052Z 00000KT 8SM FEW065 BKN110 25/19 A3001 RMK AO2 SLP151 T02500189=
200808162352 METAR KATL 162352Z 11004KT 8SM FEW065 BKN100 26/17 A3000 RMK AO2 RAE02 SLP149 SHRA SE P0000 60022 T02610172 10300 20233 51002=
200808162252 METAR KATL 162252Z 01006KT 7SM -RA FEW017 SCT032CB BKN070 BKN250 26/18 A2999 RMK AO2 TSE12RAE22B43 SLP147 TS DSIPT CB NE-OHD-W MOV E P0001 T02610178=
200808162213 SPECI KATL 162213Z 09006KT 8SM -RA FEW018 SCT050 BKN070 24/19 A2999 RMK AO2 TSE12 TS DSIPT P0001=
200808162213 SPECI KATL 162213Z 09006KT 8SM -RA FEW018 SCT050 BKN070 24/19 A2999 RMK AO2 TSE12 TS DSIPT P0001=
200808162152 METAR KATL 162152Z COR 08008KT 6SM -TSRA FEW013 BKN055CB BKN080 23/18 A3000 RMK AO2 TSB52RAB30 SLP151 OCNL LTGIC OHD-E-S AND W TS OHD-E-S AND W MOV SE P0021 T02330183=
200808162144 SPECI KATL 162144Z VRB06KT 6SM R09R/2600VP6000FT -RA BKN055CB BKN080 25/18 A3000 RMK AO2 RAB30 CB OHD-S MOV SE CB DSNT N-NE SHRA=
200808162144 SPECI KATL 162144Z VRB06KT 6SM R09R/2600VP6000FT -RA BKN055CB BKN080 25/18 A3000 RMK AO2 RAB30 CB OHD-S MOV SE CB DSNT N-NE SHRA SE-S P0003=
200808162052 METAR KATL 162052Z COR 04006KT 10SM BKN050CB BKN070 BKN095 28/17 A2999 RMK AO2 SLP145 CB OHD-ALQDS AND NW-N MOV E CB DSNT N-NE VIRGA=
200808161952 METAR KATL 161952Z 29004KT 10SM BKN055CB BKN075 BKN090 29/16 A3001 RMK AO2 SLP150 CB N-NE MOV E CB DSNT W T02890156=
200808161852 METAR KATL 161852Z VRB03KT 10SM BKN050CB BKN090 BKN150 29/16 A3003 RMK AO2 SLP158 CB N-NE MOV E TCU DSNT NW-N T02940161=
200808161752 METAR KATL 161752Z 00000KT 10SM SCT050TCU BKN150 BKN200 29/16 A3006 RMK AO2 SLP167 TCU W-NW-N T02890161 10294 20222 58006=
200808161652 METAR KATL 161652Z 17003KT 10SM FEW040 BKN150 BKN200 28/17 A3008 RMK AO2 SLP174 T02780172=
200808161552 METAR KATL 161552Z 16006KT 10SM FEW045 BKN150 BKN200 27/16 A3008 RMK AO2 SLP174 T02720161=
200808161452 METAR KATL 161452Z 08007KT 10SM BKN150 BKN200 26/17 A3007 RMK AO2 SLP173 T02610167 51009=
200808161352 METAR KATL 161352Z 05009KT 10SM FEW095 BKN150 BKN200 26/16 A3007 RMK AO2 SLP170 T02560156=
200808161252 METAR KATL 161252Z 06004KT 10SM FEW140 BKN180 BKN250 24/15 A3006 RMK AO2 SLP168 T02440150=
200808161152 METAR KATL 161152Z 01005KT 10SM FEW140 BKN180 OVC250 23/16 A3005 RMK AO2 SLP164 T02280156 10244 20211 51006=
200808161052 METAR KATL 161052Z 32003KT 10SM BKN200 22/16 A3004 RMK AO2 SLP162 T02170161=
200808160952 METAR KATL 160952Z 34005KT 8SM BKN140 OVC250 22/17 A3003 RMK AO2 SLP160 T02170167=
200808160852 METAR KATL 160852Z 01005KT 9SM BKN140 OVC250 23/16 A3003 RMK AO2 SLP157 T02330161 55003=
200808160752 METAR KATL 160752Z 33004KT 8SM FEW070 BKN140 23/17 A3002 RMK AO2 SLP156 T02280167=
200808160652 METAR KATL 160652Z 34006KT 8SM SCT140 23/17 A3003 RMK AO2 SLP157 T02330167=
200808160552 METAR KATL 160552Z 29003KT 9SM BKN150 OVC250 24/17 A3004 RMK AO2 SLP160 T02390167 10278 20239 58003=
200808160452 METAR KATL 160452Z 31006KT 10SM BKN150 OVC200 25/16 A3004 RMK AO2 SLP162 T02500161 403060194=
200808160352 METAR KATL 160352Z 30006KT 10SM SCT150 OVC200 25/16 A3005 RMK AO2 SLP164 T02500161=
200808160252 METAR KATL 160252Z 30006KT 10SM FEW150 OVC200 26/17 A3005 RMK AO2 SLP164 T02560167 51015=
200808160152 METAR KATL 160152Z 31006KT 10SM FEW150 OVC200 27/17 A3004 RMK AO2 SLP161 T02670167=
200808160052 METAR KATL 160052Z 30007KT 10SM BKN150 OVC200 27/16 A3002 RMK AO2 SLP156 T02720156=
200808152352 METAR KATL 152352Z 28005KT 10SM FEW150 OVC200 28/16 A3000 RMK AO2 SLP149 T02780156 10306 20278 53001=
200808152252 METAR KATL 152252Z 26006KT 10SM FEW150 BKN200 BKN250 29/15 A2999 RMK AO2 SLP146 T02890150=
200808152152 METAR KATL 152152Z 27007KT 10SM FEW060 BKN250 29/14 A2999 RMK AO2 SLP146 T02940144=
200808152052 METAR KATL 152052Z 27007KT 10SM FEW065 SCT250 BKN300 30/14 A3000 RMK AO2 SLP148 T03000144 58011=
200808151952 METAR KATL 151952Z 32007KT 10SM FEW070 SCT250 SCT300 30/14 A3001 RMK AO2 SLP153 T03000139=
200808151852 METAR KATL 151852Z 00000KT 10SM FEW065 SCT250 BKN300 30/13 A3002 RMK AO2 SLP156 T03000133=
200808151752 METAR KATL 151752Z VRB06KT 10SM FEW060 SCT250 BKN300 29/13 A3003 RMK AO2 SLP158 T02940133 10294 20200 58001 $=
200808151652 METAR KATL 151652Z 35008KT 10SM FEW050 SCT200 SCT250 BKN300 29/15 A3004 RMK AO2 SLP161 T02890150 $=
200808151552 METAR KATL 151552Z 36005KT 10SM FEW200 BKN250 OVC300 28/16 A3003 RMK AO2 SLP158 T02780161=
200808151452 METAR KATL 151452Z 31004KT 9SM FEW200 BKN250 BKN300 26/17 A3003 RMK AO2 SLP160 T02560172 51009=
200808151352 METAR KATL 151352Z 33004KT 7SM FEW200 BKN250 BKN300 23/17 A3003 RMK AO2 SLP158 T02330167=
200808151252 METAR KATL 151252Z 33004KT 7SM SCT140 BKN180 22/16 A3002 RMK AO2 SLP156 T02170156=
200808151152 METAR KATL 151152Z 30004KT 7SM FEW070 SCT140 BKN180 20/16 A3000 RMK AO2 SLP151 T02000156 10222 20194 53019=
200808151052 METAR KATL 151052Z 30006KT 7SM FEW070 SCT150 20/16 A2999 RMK AO2 SLP145 T02000156 $=
200808150952 METAR KATL 150952Z 29006KT 8SM CLR 20/16 A2996 RMK AO2 SLP136 T02000156 $=
200808150852 METAR KATL 150852Z 28004KT 7SM SCT150 20/17 A2995 RMK AO2 SLP132 T02000167 55003 $=
200808150752 METAR KATL 150752Z 28004KT 9SM SCT150 21/16 A2995 RMK AO2 SLP131 T02110161 $=
200808150652 METAR KATL 150652Z 00000KT 9SM FEW150 22/18 A2994 RMK AO2 SLP130 T02170183 $=
200808150552 METAR KATL 150552Z 00000KT 9SM FEW070 22/18 A2996 RMK AO2 SLP135 T02220183 10272 20222 50003 $=
200808150452 METAR KATL 150452Z 00000KT 9SM FEW070 23/19 A2996 RMK AO2 SLP135 T02280189 402890200 $=
200808150352 METAR KATL 150352Z 22003KT 10SM SCT070 24/19 A2995 RMK AO2 SLP134 T02390189 $=
200808150252 METAR KATL 150252Z 00000KT 10SM CLR 24/19 A2995 RMK AO2 SLP132 T02390189 53015 $=
200808150152 METAR KATL 150152Z 28003KT 9SM FEW120 26/18 A2993 RMK AO2 SLP125 T02560178 $=
200808150052 METAR KATL 150052Z 00000KT 9SM FEW120 26/18 A2992 RMK AO2 SLP122 T02610178 $=
200808142352 METAR KATL 142352Z 26003KT 9SM FEW120 27/17 A2990 RMK AO2 SLP117 T02720172 10289 20267 53002 $=
200808142252 METAR KATL 142252Z 00000KT 9SM FEW120 28/17 A2990 RMK AO2 SLP114 T02830172 $=
200808142152 METAR KATL 142152Z 30006KT 8SM FEW040 28/17 A2989 RMK AO2 SLP114 T02830172 $=
200808142052 METAR KATL 142052Z 20006KT 8SM SCT040 SCT100 28/17 A2990 RMK AO2 SLP114 T02830172 56005 $=
200808141952 METAR KATL 141952Z 00000KT 7SM FEW034TCU BKN050 BKN100 27/18 A2990 RMK AO2 SLP115 TCU W T02720183 $=
200808141852 METAR KATL 141852Z 28003KT 8SM FEW030CB SCT070 BKN100 27/18 A2991 RMK AO2 SLP118 CB E NW MOV SE CMAM DSNT SW T02670183 $=
200808141752 METAR KATL 141752Z 00000KT 7SM FEW030TCU BKN070 27/19 A2991 RMK AO2 SLP120 CB DSNT SW W MOV SE TCU VC NE NW-N T02670189 10278 20206 58001 $=
200808141652 METAR KATL 141652Z 00000KT 6SM HZ FEW020 SCT070 25/19 A2992 RMK AO2 SLP124 T02500194 $=
200808141611 SPECI KATL 141611Z 20005KT 6SM HZ SCT014 SCT018 SCT060 24/19 A2992 RMK AO2 $=
200808141611 SPECI KATL 141611Z 20005KT 6SM HZ SCT014 SCT018 SCT060 24/19 A2992 RMK AO2 $=
200808141609 SPECI KATL 141609Z 20005KT 5SM HZ SCT016 SCT060 24/19 A2992 RMK AO2 $=
200808141609 SPECI KATL 141609Z 20005KT 5SM HZ SCT016 SCT060 24/19 A2992 RMK AO2 $=
200808141552 METAR KATL 141552Z 20005KT 6SM HZ FEW012 BKN014 BKN018 24/19 A2992 RMK AO2 SLP123 T02390194 $=
200808141505 SPECI KATL 141505Z 00000KT 6SM HZ BKN012 BKN018 OVC060 23/19 A2991 RMK AO2=
200808141505 SPECI KATL 141505Z 00000KT 6SM HZ BKN012 BKN018 OVC060 23/19 A2991 RMK AO2=
200808141452 METAR KATL 141452Z 00000KT 9SM FEW010 BKN014 BKN060 23/19 A2991 RMK AO2 SLP120 T02330194 51012=
200808141410 SPECI KATL 141410Z 00000KT 9SM FEW010 SCT014 SCT060 23/19 A2990 RMK AO2=
200808141410 SPECI KATL 141410Z 00000KT 9SM FEW010 SCT014 SCT060 23/19 A2990 RMK AO2=
200808141352 METAR KATL 141352Z 16004KT 9SM BKN008 BKN012 22/19 A2990 RMK AO2 SLP116 T02220189=
200808141252 METAR KATL 141252Z 15003KT 10SM BKN008 OVC050 21/18 A2991 RMK AO2 SLP117 T02110183=
200808141203 SPECI KATL 141203Z 14005KT 10SM BKN008 BKN050 21/18 A2989 RMK AO2=
200808141203 SPECI KATL 141203Z 14005KT 10SM BKN008 BKN050 21/18 A2989 RMK AO2=
200808141152 METAR KATL 141152Z 15007KT 7SM FEW010 SCT020 SCT050 21/18 A2988 RMK AO2 SLP108 70002 T02060178 10222 20200 51010=
200808141150 SPECI KATL 141150Z 15007KT 7SM FEW010 SCT020 SCT050 21/18 A2988 RMK AO2=
200808141150 SPECI KATL 141150Z 15007KT 7SM FEW010 SCT020 SCT050 21/18 A2988 RMK AO2=
200808141107 SPECI KATL 141107Z 08005KT 10SM SCT006 OVC014 20/18 A2988 RMK AO2=
200808141107 SPECI KATL 141107Z 08005KT 10SM SCT006 OVC014 20/18 A2988 RMK AO2=
200808141052 METAR KATL 141052Z 08004KT 7SM BKN014 OVC060 20/18 A2987 RMK AO2 SLP105 T02000183=
200808141049 SPECI KATL 141049Z 07005KT 7SM BKN014 OVC055 20/18 A2987 RMK AO2=
200808141049 SPECI KATL 141049Z 07005KT 7SM BKN014 OVC055 20/18 A2987 RMK AO2=
200808141025 SPECI KATL 141025Z 08005KT 7SM SCT018 OVC055 20/18 A2986 RMK AO2=
200808141025 SPECI KATL 141025Z 08005KT 7SM SCT018 OVC055 20/18 A2986 RMK AO2=
200808140952 METAR KATL 140952Z 00000KT 10SM BKN016 BKN140 21/18 A2985 RMK AO2 SLP098 T02060178=
200808140852 METAR KATL 140852Z 16003KT 10SM SCT055 21/18 A2984 RMK AO2 SLP095 T02060178 56005=
200808140752 METAR KATL 140752Z 00000KT 10SM FEW050 21/18 A2984 RMK AO2 SLP096 T02110178=
200808140652 METAR KATL 140652Z 16004KT 10SM SCT044 BKN140 22/18 A2985 RMK AO2 SLP097 T02170183=
200808140552 METAR KATL 140552Z 14006KT 10SM FEW044 BKN140 22/18 A2986 RMK AO2 SLP101 T02220183 10256 20222 50006=
200808140452 METAR KATL 140452Z 13005KT 10SM SCT035 BKN045 BKN060 23/19 A2986 RMK AO2 SLP103 T02330189 402720194=
200808140352 METAR KATL 140352Z 11003KT 7SM FEW025 BKN034 OVC045 24/20 A2985 RMK AO2 SLP100 T02390200=
200808140252 METAR KATL 140252Z 23005KT 8SM FEW030 SCT050 BKN090 24/19 A2984 RMK AO2 SLP095 CB DSNT N-NE T02440194 53014=
200808140152 METAR KATL 140152Z 23003KT 8SM SCT050 BKN070 25/19 A2983 RMK AO2 SLP090 T02500194=
200808140052 METAR KATL 140052Z 20003KT 8SM FEW035 SCT070 BKN100 25/19 A2981 RMK AO2 SLP085 TCU DSNT NE T02500194=
200808132352 METAR KATL 132352Z 27005KT 8SM FEW032 SCT050 BKN090 26/19 A2980 RMK AO2 SLP082 T02560189 10272 20244 52008=
200808132252 METAR KATL 132252Z 23004KT 10SM SCT036 SCT050 BKN090 27/18 A2979 RMK AO2 SLP077 T02670178=
200808132152 METAR KATL 132152Z 24003KT 10SM SCT032 BKN050 27/18 A2978 RMK AO2 SLP076 T02670183=
200808132052 METAR KATL 132052Z 00000KT 10SM FEW030 27/18 A2977 RMK AO2 SLP072 T02720178 58002=
200808131955 SPECI KATL 131955Z VRB04KT 9SM FEW030 SCT050 26/19 A2977 RMK AO2=
200808131955 SPECI KATL 131955Z VRB04KT 9SM FEW030 SCT050 26/19 A2977 RMK AO2=
200808131952 METAR KATL 131952Z 10007KT 9SM BKN035 BKN055 26/19 A2977 RMK AO2 SLP074 T02560189=
200808131914 SPECI KATL 131914Z 06005KT 9SM BKN026 BKN040 OVC050 25/18 A2978 RMK AO2=
200808131914 SPECI KATL 131914Z 06005KT 9SM BKN026 BKN040 OVC050 25/18 A2978 RMK AO2=
200808131852 METAR KATL 131852Z 09003KT 8SM BKN026 BKN034 25/18 A2978 RMK AO2 SLP077 T02500183=
200808131832 SPECI KATL 131832Z 03005KT 8SM BKN026 BKN034 25/18 A2978 RMK AO2=
200808131832 SPECI KATL 131832Z 03005KT 8SM BKN026 BKN034 25/18 A2978 RMK AO2=
200808131752 METAR KATL 131752Z 05005KT 9SM FEW020 BKN030 25/18 A2978 RMK AO2 SLP075 60002 T02500183 10250 20206 51002=
200808131750 SPECI KATL 131750Z VRB04KT 9SM FEW020 BKN030 24/18 A2978 RMK AO2=
200808131750 SPECI KATL 131750Z VRB04KT 9SM FEW020 BKN030 24/18 A2978 RMK AO2=
200808131652 SPECI KATL 131652Z 05003KT 10SM BKN018 23/18 A2978 RMK AO2 SLP075 T02330183=
200808131601 SPECI KATL 131601Z 05007KT 9SM OVC018 23/18 A2978 RMK AO2=
200808131601 SPECI KATL 131601Z 05007KT 9SM OVC018 23/18 A2978 RMK AO2=
200808131552 METAR KATL 131552Z 04006KT 10SM BKN016 23/18 A2977 RMK AO2 SLP073 T02330183=
200808131452 METAR KATL 131452Z 03007KT 8SM OVC010 22/19 A2977 RMK AO2 SLP072 BINOVC NW 60002 T02170189 53008=
200808131445 SPECI KATL 131445Z 04007KT 6SM HZ OVC012 22/19 A2976 RMK AO2=
200808131445 SPECI KATL 131445Z 04007KT 6SM HZ OVC012 22/19 A2976 RMK AO2=
200808131352 METAR KATL 131352Z 05006KT 6SM BR OVC007 21/19 A2975 RMK AO2 CIG 005V009 SLP066 P0001 T02110189=
200808131336 SPECI KATL 131336Z 06007KT 6SM BR BKN007 OVC036 21/19 A2975 RMK AO2 CIG 005V010 P0001=
200808131336 SPECI KATL 131336Z 06007KT 6SM BR BKN007 OVC036 21/19 A2975 RMK AO2 CIG 005V010 P0001=
200808131311 SPECI KATL 131311Z 07005KT 2SM BR BKN005 OVC024 21/19 A2974 RMK AO2 SFC VIS 5 CIG 003V009 P0001=
200808131311 SPECI KATL 131311Z 07005KT 2SM BR BKN005 OVC024 21/19 A2974 RMK AO2 SFC VIS 5 CIG 003V009 P0001=
200808131302 SPECI KATL 131302Z 08005KT 1SM BR BKN005 OVC024 21/19 A2974 RMK AO2 SFC VIS 4 CIG 003V009 P0001=
200808131302 SPECI KATL 131302Z 08005KT 1SM BR BKN005 OVC024 21/19 A2974 RMK AO2 SFC VIS 4 CIG 003V009 P0001=
200808131252 METAR KATL 131252Z 07004KT 1/2SM BR BKN005 BKN009 OVC022 21/19 A2974 RMK AO2 SFC VIS 5 RAE30 CIG 003V007 SLP064 P0001 T02060189=
200808131152 METAR KATL 131152Z 06006KT 1/2SM -RA BR BKN005 OVC013 20/19 A2974 RMK AO2 SFC VIS 1 3/4 CIG 003V009 SLP064 P0003 60029 70053 T02000189 10200 20194 53001=
200808131124 SPECI KATL 131124Z 07006KT 1/2SM -RA BR BKN005 OVC010 20/19 A2974 RMK AO2 SFC VIS 2 1/2 P0002=
200808131124 SPECI KATL 131124Z 07006KT 1/2SM -RA BR BKN005 OVC010 20/19 A2974 RMK AO2 SFC VIS 2 1/2 P0002=
200808131052 METAR KATL 131052Z 06006KT 1/2SM -RA BR BKN003 OVC008 20/19 A2974 RMK AO2 SFC VIS 2 SLP063 P0005 T02000189=
200808131021 SPECI KATL 131021Z 07005KT 1/2SM -RA BR BKN003 OVC008 20/19 A2973 RMK AO2 SFC VIS 1 3/4 P0003=
200808131021 SPECI KATL 131021Z 07005KT 1/2SM -RA BR BKN003 OVC008 20/19 A2973 RMK AO2 SFC VIS 1 3/4 P0003=
200808131004 SPECI KATL 131004Z 07006KT 1 3/4SM -RA BR BKN005 OVC012 19/18 A2973 RMK AO2 CIG 001V007 P0002 $=
200808131004 SPECI KATL 131004Z 07006KT 1 3/4SM -RA BR BKN005 OVC012 19/18 A2973 RMK AO2 CIG 001V007 P0002 $=
200808130952 METAR KATL 130952Z 07006KT 2SM -RA BR OVC005 20/18 A2973 RMK AO2 CIG 001V007 SLP061 P0008 T02000183 $=
200808130946 SPECI KATL 130946Z 07006KT 2SM -RA BR OVC005 20/19 A2973 RMK AO2 CIG 001V008 P0008 $=
200808130946 SPECI KATL 130946Z 07006KT 2SM -RA BR OVC005 20/19 A2973 RMK AO2 CIG 001V008 P0008 $=
200808130852 METAR KATL 130852Z 11003KT 1 3/4SM -RA BR BKN003 OVC010 20/19 A2974 RMK AO2 CIG 002V006 SLP061 P0007 60013 T02000189 55010 $=
200808130848 SPECI KATL 130848Z 11004KT 1 3/4SM -RA BR BKN003 BKN010 OVC020 20/19 A2974 RMK AO2 CIG 002V006 P0007 $=
200808130848 SPECI KATL 130848Z 11004KT 1 3/4SM -RA BR BKN003 BKN010 OVC020 20/19 A2974 RMK AO2 CIG 002V006 P0007 $=
200808130835 SPECI KATL 130835Z 10003KT 2SM -RA BR BKN005 BKN010 OVC021 20/19 A2973 RMK AO2 CIG 002V007 P0005 $=
200808130835 SPECI KATL 130835Z 10003KT 2SM -RA BR BKN005 BKN010 OVC021 20/19 A2973 RMK AO2 CIG 002V007 P0005 $=
200808130822 SPECI KATL 130822Z 00000KT 1 3/4SM RA BR BKN005 BKN010 OVC013 20/19 A2974 RMK AO2 CIG 003V007 P0003 $=
200808130822 SPECI KATL 130822Z 00000KT 1 3/4SM RA BR BKN005 BKN010 OVC013 20/19 A2974 RMK AO2 CIG 003V007 P0003 $=
200808130810 SPECI KATL 130810Z 11003KT 2SM -RA BR OVC007 20/19 A2974 RMK AO2 CIG 003V008 P0001 $=
200808130810 SPECI KATL 130810Z 11003KT 2SM -RA BR OVC007 20/19 A2974 RMK AO2 CIG 003V008 P0001 $=
200808130752 METAR KATL 130752Z 07003KT 3SM -RA BR OVC007 20/18 A2975 RMK AO2 RAB14 CIG 003V011 SLP064 P0003 T02000183 $=
200808130739 SPECI KATL 130739Z 00000KT 3SM -RA BR OVC005 20/18 A2976 RMK AO2 RAB14 CIG 003V007 P0002 $=
200808130739 SPECI KATL 130739Z 00000KT 3SM -RA BR OVC005 20/18 A2976 RMK AO2 RAB14 CIG 003V007 P0002 $=
200808130726 SPECI KATL 130726Z 00000KT 2 1/2SM -RA BR OVC005 20/18 A2976 RMK AO2 RAB14 CIG 003V007 P0001 $=
200808130726 SPECI KATL 130726Z 00000KT 2 1/2SM -RA BR OVC005 20/18 A2976 RMK AO2 RAB14 CIG 003V007 P0001 $=
200808130652 METAR KATL 130652Z 11004KT 3SM BR BKN005 OVC012 20/18 A2977 RMK AO2 RAE50 CIG 003V008 SLP070 P0003 T02000183 $=
200808130615 SPECI KATL 130615Z 13004KT 4SM -RA BR FEW005 OVC014 20/18 A2977 RMK AO2 P0000 $=
200808130615 SPECI KATL 130615Z 13004KT 4SM -RA BR FEW005 OVC014 20/18 A2977 RMK AO2 P0000 $=
200808130552 METAR KATL 130552Z 12005KT 4SM -RA BR BKN016 OVC020 20/18 A2978 RMK AO2 RAE27B43 SLP076 P0001 60012 T02000178 10211 20200 58017 $=
200808130452 METAR KATL 130452Z 11004KT 6SM -RA BR BKN020 BKN080 OVC120 20/18 A2979 RMK AO2 SLP080 P0000 T02000178 402720200=
200808130431 SPECI KATL 130431Z 09004KT 6SM -RA BR BKN022 BKN080 OVC120 20/18 A2980 RMK AO2 P0000=
200808130431 SPECI KATL 130431Z 09004KT 6SM -RA BR BKN022 BKN080 OVC120 20/18 A2980 RMK AO2 P0000=
200808130352 METAR KATL 130352Z 09003KT 7SM -RA FEW030 BKN080 OVC120 21/18 A2982 RMK AO2 SLP089 P0000 T02060178=
200808130252 METAR KATL 130252Z 03006KT 7SM -RA FEW070 BKN100 OVC140 21/18 A2983 RMK AO2 SLP094 P0001 60011 T02060178 56006=
200808130152 METAR KATL 130152Z 03004KT 6SM -RA FEW050 BKN080 OVC120 21/18 A2983 RMK AO2 SLP095 P0005 T02060178=
200808130052 METAR KATL 130052Z 00000KT 6SM -RA FEW060 BKN100 OVC140 21/17 A2984 RMK AO2 SLP099 P0005 T02060172=
200808122352 METAR KATL 122352Z 09003KT 4SM RA FEW030 BKN070 OVC100 21/17 A2985 RMK AO2 SLP100 P0008 60012 T02110167 10272 20206 51004=
200808122252 METAR KATL 122252Z COR 33006KT 5SM -RA FEW050 BKN080 OVC140 21/18 A2985 RMK AO2 SLP100 P0003 T02110183=
200808122152 METAR KATL 122152Z 32008KT 7SM -RA FEW050 SCT070 BKN120 OVC150 22/18 A2984 RMK AO2 SLP097 P0001 T02220178=
200808122052 METAR KATL 122052Z 33007KT 10SM -RA FEW020 BKN075 OVC100 26/16 A2984 RMK AO2 RAB43 SLP093 P0000 60000 T02560156 55015=
200808121952 METAR KATL 121952Z 14003KT 10SM FEW070 BKN110 OVC180 27/14 A2983 RMK AO2 SLP092 VIRGA DSNT NW T02720144=
200808121852 METAR KATL 121852Z VRB04KT 10SM FEW080 SCT120 BKN180 BKN250 27/14 A2985 RMK AO2 SLP099 T02670139=
200808121752 METAR KATL 121752Z 03003KT 10SM BKN070 BKN100 OVC180 26/14 A2988 RMK AO2 SLP109 BINOVC T02560139 10256 20217 58012=
200808121652 METAR KATL 121652Z VRB05KT 10SM FEW070 SCT100 BKN180 BKN250 24/13 A2990 RMK AO2 SLP116 T02440133=
200808121552 METAR KATL 121552Z 08007KT 10SM FEW070 SCT100 BKN180 OVC250 23/13 A2992 RMK AO2 SLP121 T02330128=
200808121452 METAR KATL 121452Z 07009KT 10SM SCT070 BKN100 BKN180 BKN250 23/12 A2992 RMK AO2 SLP121 T02280122 51004=
200808121352 METAR KATL 121352Z 08013KT 10SM FEW070 SCT100 BKN150 BKN250 22/12 A2991 RMK AO2 SLP119 T02170117=
200808121252 METAR KATL 121252Z 06009KT 10SM SCT070 BKN120 BKN180 22/11 A2992 RMK AO2 SLP121 T02220111=
200808121152 METAR KATL 121152Z 07014KT 10SM FEW080 BKN120 BKN180 22/11 A2990 RMK AO2 SLP116 T02170111 10239 20217 53008=
200808121052 METAR KATL 121052Z 07013KT 10SM FEW075 BKN100 BKN120 22/11 A2989 RMK AO2 SLP110 T02170111=
200808120952 METAR KATL 120952Z 06011KT 10SM BKN095 OVC180 23/11 A2988 RMK AO2 SLP108 T02280111=
200808120852 METAR KATL 120852Z 04008KT 10SM BKN090 OVC180 24/12 A2988 RMK AO2 SLP106 T02390117 53000=
200808120752 METAR KATL 120752Z 02005KT 10SM SCT090 BKN180 23/13 A2986 RMK AO2 SLP101 T02330133=
200808120652 METAR KATL 120652Z 31004KT 9SM FEW080 BKN180 22/17 A2987 RMK AO2 SLP103 T02220167=
200808120552 METAR KATL 120552Z 30005KT 9SM BKN200 23/17 A2988 RMK AO2 SLP105 T02280167 10283 20228 58004=
200808120452 METAR KATL 120452Z 22004KT 10SM BKN200 23/17 A2988 RMK AO2 SLP108 T02280167 403110217=
200808120352 METAR KATL 120352Z 17003KT 10SM BKN200 25/14 A2988 RMK AO2 SLP108 T02500144=
200808120252 METAR KATL 120252Z 26004KT 10SM BKN200 26/14 A2989 RMK AO2 SLP109 T02560144 53012=
200808120152 METAR KATL 120152Z 36007KT 10SM SCT200 28/10 A2988 RMK AO2 SLP105 T02830100=
200808120052 METAR KATL 120052Z 29005KT 10SM SCT200 27/14 A2986 RMK AO2 SLP102 T02670144=
200808112352 METAR KATL 112352Z 28004KT 10SM FEW065 SCT200 28/14 A2985 RMK AO2 SLP098 T02780139 10311 20278 56007=
200808112252 METAR KATL 112252Z 26006KT 10SM FEW070 29/13 A2985 RMK AO2 SLP099 T02940133=
200808112152 METAR KATL 112152Z 26007KT 10SM FEW070 30/13 A2986 RMK AO2 SLP101 T03000128=
200808112052 METAR KATL 112052Z 28008KT 10SM FEW070 31/13 A2987 RMK AO2 SLP105 T03060133 56015=
200808111952 METAR KATL 111952Z 30009G17KT 10SM FEW070 31/13 A2988 RMK AO2 SLP108 T03060128=
200808111852 METAR KATL 111852Z 30009KT 240V340 10SM FEW070 30/12 A2991 RMK AO2 SLP116 T03000122=
200808111752 METAR KATL 111752Z 02004KT 10SM FEW070 30/13 A2992 RMK AO2 SLP120 T03000133 10300 20222 58010=
200808111652 METAR KATL 111652Z 35007KT 10SM FEW070 30/13 A2993 RMK AO2 SLP124 T03000128=
200808111552 METAR KATL 111552Z 35007KT 320V040 10SM CLR 29/14 A2994 RMK AO2 SLP128 T02890139=
200808111452 METAR KATL 111452Z 36005KT 10SM FEW150 SCT250 28/16 A2995 RMK AO2 SLP131 T02780156 50007=
200808111352 METAR KATL 111352Z 32004KT 10SM FEW100 SCT150 SCT250 25/17 A2995 RMK AO2 SLP132 T02500167=
200808111252 METAR KATL 111252Z 32006KT 10SM FEW120 BKN150 BKN200 23/16 A2994 RMK AO2 SLP129 T02330161=
200808111152 METAR KATL 111152Z 32006KT 10SM FEW120 BKN150 22/16 A2993 RMK AO2 SLP125 T02220161 10233 20217 53013=
200808111052 METAR KATL 111052Z 31005KT 10SM FEW120 BKN150 22/16 A2991 RMK AO2 SLP119 T02170161=
200808110952 METAR KATL 110952Z 32007KT 10SM BKN150 22/17 A2990 RMK AO2 SLP114 T02170167=
200808110852 METAR KATL 110852Z 31007KT 10SM FEW120 BKN150 22/16 A2989 RMK AO2 SLP111 T02220161 56005=
200808110752 METAR KATL 110752Z 31007KT 10SM FEW120 BKN150 22/16 A2989 RMK AO2 SLP112 T02220161=
200808110652 METAR KATL 110652Z 31008KT 10SM FEW120 BKN150 23/16 A2990 RMK AO2 SLP113 T02280161=
200808110552 METAR KATL 110552Z 28006KT 10SM FEW070 SCT120 BKN150 23/16 A2990 RMK AO2 SLP116 T02280156 10267 20228 58001=
200808110452 METAR KATL 110452Z 28007KT 10SM FEW070 SCT120 BKN150 23/15 A2992 RMK AO2 SLP120 T02330150 402940189=
200808110352 METAR KATL 110352Z 28006KT 10SM SCT120 BKN150 24/14 A2992 RMK AO2 SLP120 T02390144=
200808110252 METAR KATL 110252Z 29004KT 10SM BKN150 24/14 A2991 RMK AO2 SLP118 T02440139 53008=
200808110152 METAR KATL 110152Z 28007KT 10SM FEW120 SCT150 SCT200 24/14 A2990 RMK AO2 SLP115 T02440144=
200808110052 METAR KATL 110052Z 27006KT 10SM FEW100 SCT130 26/14 A2988 RMK AO2 SLP110 VIRGA W T02560144=
200808102352 METAR KATL 102352Z 27007KT 10SM FEW060 SCT130 BKN200 27/14 A2988 RMK AO2 SLP110 T02670144 10294 20267 57003=
200808102252 METAR KATL 102252Z 27008KT 10SM FEW055 SCT150 SCT250 27/13 A2988 RMK AO2 SLP110 T02720133=
200808102152 METAR KATL 102152Z 25006KT 10SM FEW055 SCT150 SCT250 28/13 A2989 RMK AO2 SLP113 T02830128=
200808102052 METAR KATL 102052Z 27008KT 10SM FEW110 SCT150 SCT250 29/12 A2989 RMK AO2 SLP113 T02890122 56014=
200808101952 METAR KATL 101952Z 26007KT 10SM FEW055 SCT110 BKN150 28/13 A2990 RMK AO2 SLP116 T02830133=
200808101852 METAR KATL 101852Z 31006KT 10SM FEW050 SCT110 BKN150 27/15 A2992 RMK AO2 SLP121 T02720150=
200808101752 METAR KATL 101752Z 25007KT 10SM SCT045 SCT095 BKN150 27/17 A2994 RMK AO2 SLP128 T02720167 10283 20194 58001=
200808101652 METAR KATL 101652Z 28007KT 10SM SCT050 SCT095 BKN150 27/16 A2994 RMK AO2 SLP129 T02720156=
200808101552 METAR KATL 101552Z VRB04KT 10SM FEW045 BKN150 27/16 A2994 RMK AO2 SLP129 T02670156=
200808101452 METAR KATL 101452Z 32003KT 10SM BKN150 26/17 A2994 RMK AO2 SLP128 T02560167 51005=
200808101352 METAR KATL 101352Z 00000KT 10SM BKN150 25/16 A2994 RMK AO2 SLP127 T02500156=
200808101152 METAR KATL 101152Z 31005KT 8SM FEW060 SCT200 19/16 A2992 RMK AO2 SLP123 T01940156 10211 20189 51011=
200808101052 METAR KATL 101052Z 32004KT 10SM FEW060 SCT200 19/15 A2991 RMK AO2 SLP119 T01940150=
200808100952 METAR KATL 100952Z 34006KT 10SM FEW060 SCT200 19/15 A2990 RMK AO2 SLP116 T01940150=
200808100852 METAR KATL 100852Z 32008KT 10SM CLR BKN200 20/15 A2989 RMK AO2 SLP112 T02000150 55003=
200808100752 METAR KATL 100752Z 30006KT 10SM BKN200 21/15 A2988 RMK AO2 SLP109 T02060150=
200808100652 METAR KATL 100652Z 28006KT 10SM SCT200 21/15 A2988 RMK AO2 SLP109 T02060150=
200808100552 METAR KATL 100552Z 29006KT 10SM SCT200 21/15 A2990 RMK AO2 SLP113 T02110150 10278 20211 58003=
200808100452 METAR KATL 100452Z 29006KT 10SM FEW250 22/16 A2990 RMK AO2 SLP115 T02170156 402940178=
200808100352 METAR KATL 100352Z 28003KT 10SM CLR 23/15 A2990 RMK AO2 SLP115 T02330150=
200808100252 METAR KATL 100252Z 30004KT 10SM CLR 24/15 A2990 RMK AO2 SLP116 T02440150 51007=
200808100152 METAR KATL 100152Z 31006KT 10SM FEW250 26/14 A2990 RMK AO2 SLP116 T02560144=
200808100052 METAR KATL 100052Z 28004KT 10SM FEW250 27/12 A2989 RMK AO2 SLP112 T02670122=
200808092352 METAR KATL 092352Z 29004KT 10SM FEW070 SCT250 28/11 A2988 RMK AO2 SLP109 T02780111 10294 20278 56005=
200808092252 METAR KATL 092252Z 25005KT 10SM FEW070 SCT250 29/11 A2988 RMK AO2 SLP110 T02890111=
200808092152 METAR KATL 092152Z 25003KT 10SM FEW065 SCT250 29/13 A2989 RMK AO2 SLP112 T02940128=
200808092052 METAR KATL 092052Z 00000KT 10SM SCT065 29/13 A2990 RMK AO2 SLP114 T02890128 55008=
200808091952 METAR KATL 091952Z 21007KT 10SM FEW070 SCT150 SCT250 29/12 A2989 RMK AO2 SLP112 T02940122=
200808091852 METAR KATL 091852Z 18010G15KT 9SM FEW060 SCT150 SCT250 29/13 A2991 RMK AO2 SLP118 T02890128=
200808091752 METAR KATL 091752Z 21009KT 10SM FEW060 SCT250 29/13 A2992 RMK AO2 SLP123 T02890128 10289 20183 56009=
200808091652 METAR KATL 091652Z 00000KT 10SM FEW050 SCT150 28/14 A2993 RMK AO2 SLP124 T02780144=
200808091552 METAR KATL 091552Z VRB03KT 10SM FEW150 27/15 A2994 RMK AO2 SLP129 T02670150=
200808091452 METAR KATL 091452Z 10006KT 10SM FEW120 26/16 A2995 RMK AO2 SLP131 T02560161 50007=
200808091352 METAR KATL 091352Z 09007KT 10SM FEW120 23/15 A2996 RMK AO2 SLP135 T02330150=
200808091252 METAR KATL 091252Z 32003KT 10SM FEW070 21/14 A2995 RMK AO2 SLP132 T02060139=
200808091152 METAR KATL 091152Z 30006KT 10SM FEW070 18/13 A2993 RMK AO2 SLP126 T01830133 10200 20178 53016=
200808091052 METAR KATL 091052Z 01004KT 10SM FEW090 19/13 A2990 RMK AO2 SLP114 T01890128=
200808090952 METAR KATL 090952Z 34005KT 10SM CLR 18/13 A2989 RMK AO2 SLP111 T01830128=
200808090852 METAR KATL 090852Z 33007KT 10SM CLR 18/13 A2988 RMK AO2 SLP108 T01830128 55005=
200808090752 METAR KATL 090752Z 32004KT 10SM CLR 19/13 A2987 RMK AO2 SLP107 T01890128=
200808090652 METAR KATL 090652Z 34007KT 10SM CLR 20/13 A2988 RMK AO2 SLP110 T02000128=
200808090552 METAR KATL 090552Z 31006KT 10SM CLR 19/13 A2989 RMK AO2 SLP113 T01940128 10272 20194 58002=
200808090452 METAR KATL 090452Z 32003KT 10SM CLR 22/12 A2989 RMK AO2 SLP112 T02170117 403000211=
200808090352 METAR KATL 090352Z 31005KT 10SM CLR 22/12 A2990 RMK AO2 SLP115 T02170117=
200808090252 METAR KATL 090252Z 34006KT 10SM CLR 24/11 A2990 RMK AO2 SLP115 T02390106 51011=
200808090152 METAR KATL 090152Z 34007KT 10SM CLR 24/10 A2989 RMK AO2 SLP112 T02440100=
200808090052 METAR KATL 090052Z 34009KT 10SM CLR 26/11 A2988 RMK AO2 SLP109 T02610106=
200808082352 METAR KATL 082352Z 34011KT 10SM CLR 27/11 A2987 RMK AO2 SLP103 T02720106 10300 20272 53002=
200808082252 METAR KATL 082252Z 36011KT 10SM CLR 28/11 A2986 RMK AO2 SLP101 T02830111=
200808082152 METAR KATL 082152Z 35014KT 10SM FEW070 29/11 A2986 RMK AO2 SLP102 T02890111=
200808082052 METAR KATL 082052Z 32012KT 10SM FEW070 29/11 A2986 RMK AO2 SLP101 T02890106 58011=
200808081952 METAR KATL 081952Z 35014G19KT 10SM FEW065 29/11 A2988 RMK AO2 SLP105 T02940106=
200808081852 METAR KATL 081852Z 32009G17KT 10SM FEW065 29/14 A2988 RMK AO2 SLP108 T02890139=
200808081752 METAR KATL 081752Z 30012KT 10SM FEW065 29/12 A2990 RMK AO2 SLP112 T02940122 10294 20222 58005=
200808081652 METAR KATL 081652Z 36011KT 10SM FEW055 29/13 A2990 RMK AO2 SLP114 T02890133=
200808081552 METAR KATL 081552Z 35007KT 10SM FEW040 SCT250 29/16 A2991 RMK AO2 SLP117 T02890156=
200808081452 METAR KATL 081452Z 32007KT 10SM FEW250 27/18 A2991 RMK AO2 SLP118 T02670178 50005=
200808081352 METAR KATL 081352Z 32008KT 10SM FEW150 SCT250 25/18 A2991 RMK AO2 SLP118 T02500183=
200808081252 METAR KATL 081252Z 32007KT 9SM SCT180 BKN250 23/19 A2990 RMK AO2 SLP117 T02330189=
200808081152 METAR KATL 081152Z 33008KT 7SM BKN180 BKN250 22/19 A2989 RMK AO2 SLP113 T02220189 10233 20217 53012=
200808081052 METAR KATL 081052Z 32007KT 6SM BR BKN150 BKN200 22/19 A2988 RMK AO2 SLP109 T02170194=
200808080952 METAR KATL 080952Z 32005KT 8SM BKN140 22/19 A2987 RMK AO2 SLP104 T02220194=
200808080852 METAR KATL 080852Z 32006KT 8SM BKN120 BKN200 23/20 A2986 RMK AO2 SLP101 T02280200 56008=
200808080752 METAR KATL 080752Z 31008KT 8SM BKN110 OVC140 23/20 A2986 RMK AO2 SLP100 T02330200=
200808080652 METAR KATL 080652Z 31007KT 9SM BKN100 BKN140 OVC200 23/20 A2986 RMK AO2 SLP101 T02330200=
200808080552 METAR KATL 080552Z 31006KT 10SM BKN150 BKN200 23/19 A2988 RMK AO2 SLP107 T02330194 10250 20233 58006=
200808080452 METAR KATL 080452Z 31009KT 10SM SCT150 BKN200 23/19 A2989 RMK AO2 SLP110 T02330194 403220233=
200808080352 METAR KATL 080352Z 31007KT 10SM FEW150 SCT200 BKN250 23/20 A2990 RMK AO2 SLP112 T02330200=
200808080252 METAR KATL 080252Z 31008KT 10SM BKN150 BKN200 24/20 A2990 RMK AO2 SLP113 T02390200 53007=
200808080152 METAR KATL 080152Z 31009KT 10SM SCT150 BKN200 BKN250 24/19 A2990 RMK AO2 SLP115 T02440194=
200808080052 METAR KATL 080052Z 30003KT 10SM FEW150 SCT200 BKN250 24/19 A2987 RMK AO2 SLP105 T02440194=
200808072352 METAR KATL 072352Z 30007KT 10SM FEW150 BKN200 BKN250 25/19 A2988 RMK AO2 SLP107 T02500189 10311 20250 56011=
200808072252 METAR KATL 072252Z 29008KT 10SM FEW150 SCT200 BKN250 26/19 A2988 RMK AO2 SLP109 T02560189=
200808072152 METAR KATL 072152Z 31011KT 10SM FEW150 BKN200 BKN250 26/19 A2991 RMK AO2 SLP116 T02610189=
200808072052 METAR KATL 072052Z 34012G23KT 10SM FEW030 SCT085 BKN150 OVC200 25/19 A2991 RMK AO2 PK WND 32026/2007 SLP118 BINOVC DSNT NW T02500189 58008=
200808071952 METAR KATL 071952Z 32012KT 10SM FEW030TCU SCT065 SCT085 OVC150 27/18 A2993 RMK AO2 PK WND 32026/1859 WSHFT 1859 TSB01E31 SLP125 VIRGA NW CB DSNT E TCU SE T02670183=
200808071931 SPECI KATL 071931Z 34016KT 10SM FEW030TCU SCT050 BKN150 OVC200 27/19 A2994 RMK AO2 PK WND 32026/1859 WSHFT 1859 TSB01E31 LTG DSNT E TS MOV E CB DSNT NE-E TCU NE-E-SE-S=
200808071931 SPECI KATL 071931Z 34016KT 10SM FEW030TCU SCT050 BKN150 OVC200 27/19 A2994 RMK AO2 PK WND 32026/1859 WSHFT 1859 TSB01E31 LTG DSNT E TS MOV E CB DSNT NE-E TCU NE-E-SE-S=
200808071915 SPECI KATL 071915Z 35016G22KT 10SM TS FEW035CB SCT050TCU OVC150 28/19 A2994 RMK AO2 PK WND 32026/1859 WSHFT 1859 TSB01 FRQ LTGICCG NE TS NE MOV E CB NE MOV E TCU NE-E-SE-S-SW=
200808071915 SPECI KATL 071915Z 35016G22KT 10SM TS FEW035CB SCT050TCU OVC150 28/19 A2994 RMK AO2 PK WND 32026/1859 WSHFT 1859 TSB01 FRQ LTGICCG NE TS NE MOV E CB NE MOV E TCU NE-E-SE-S-SW=
200808071906 SPECI KATL 071906Z 34018G26KT 10SM TS FEW040CB BKN050 OVC150 28/19 A2994 RMK AO2 PK WND 32026/1859 TSB01 FRQ LTGICCG NE TS NE MOV E CB NE MOV E=
200808071906 SPECI KATL 071906Z 34018G26KT 10SM TS FEW040CB BKN050 OVC150 28/19 A2994 RMK AO2 PK WND 32026/1859 TSB01 FRQ LTGICCG NE TS NE MOV E CB NE MOV E=
200808071901 SPECI KATL 071901Z 33020G26KT 10SM TS FEW040CB BKN150 OVC200 29/21 A2993 RMK AO2 PK WND 32026/1859 TSB01 FRQ LTGICCG N TS N MOV E CB N MOV E=
200808071901 SPECI KATL 071901Z 33020G26KT 10SM TS FEW040CB BKN150 OVC200 29/21 A2993 RMK AO2 PK WND 32026/1859 TSB01 FRQ LTGICCG N TS N MOV E CB N MOV E=
200808071852 METAR KATL 071852Z 25006KT 10SM FEW040TCU BKN150 OVC200 30/21 A2992 RMK AO2 SLP120 LTG DSNT N-NE SE NW CB DSNT N-NE SE NW MOV E CBMAM NW TCU W-NW-N T03000206=
200808071847 SPECI KATL 071847Z 27007KT 10SM FEW040TCU BKN150 OVC200 30/20 A2992 RMK AO2 LTG DSNT N-NE SE NW CB DSNT N-NE SE NW MOV E CBMAM NW TCU W-NW-N=
200808071847 SPECI KATL 071847Z 27007KT 10SM FEW040TCU BKN150 OVC200 30/20 A2992 RMK AO2 LTG DSNT N-NE SE NW CB DSNT N-NE SE NW MOV E CBMAM NW TCU W-NW-N=
200808071752 METAR KATL 071752Z COR 30007KT 10SM FEW050 BKN200 OVC300 31/20 A2994 RMK AO2 SLP125 CB DSNT NW MOV SE TCU DSNT NW T03110200 10322 20256 58015=
200808071652 METAR KATL 071652Z VRB04KT 10SM SCT046TCU SCT200 SCT300 31/20 A2995 RMK AO2 SLP130 TCU OHD-S T03110200=
200808071552 METAR KATL 071552Z 34010G14KT 10SM FEW040 SCT200 BKN300 31/21 A2997 RMK AO2 SLP136 T03110206=
200808071452 METAR KATL 071452Z 34006KT 10SM FEW200 SCT250 BKN300 30/21 A2998 RMK AO2 SLP139 T03000211 58002=
200808071352 METAR KATL 071352Z 30007KT 10SM SCT180 BKN250 28/21 A2999 RMK AO2 SLP143 T02830211=
200808071252 METAR KATL 071252Z COR 31008KT 10SM SCT180 BKN250 27/21 A2999 RMK AO2 SLP145 T02670206=
200808071152 METAR KATL 071152Z 29006KT 10SM SCT180 26/20 A2999 RMK AO2 SLP143 T02560200 10267 20244 53005=
200808071052 METAR KATL 071052Z 30006KT 10SM FEW070 SCT200 24/20 A2998 RMK AO2 SLP141 T02440200=
200808070952 METAR KATL 070952Z 29004KT 10SM CLR 24/20 A2997 RMK AO2 SLP137 T02440200=
200808070852 METAR KATL 070852Z 31007KT 10SM CLR 26/21 A2997 RMK AO2 SLP136 T02560206 55010=
200808070752 METAR KATL 070752Z 30007KT 240V320 10SM CLR 26/21 A2997 RMK AO2 SLP136 T02560206=
200808070652 METAR KATL 070652Z 29007KT 10SM CLR 26/21 A2999 RMK AO2 SLP141 T02610206=
200808070552 METAR KATL 070552Z 28005KT 10SM CLR 26/21 A3001 RMK AO2 SLP147 T02610206 10317 20261 58003=
200808070452 METAR KATL 070452Z 27004KT 10SM FEW250 27/21 A3001 RMK AO2 SLP147 T02720206 403440239=
200808070352 METAR KATL 070352Z 29004KT 10SM FEW250 27/21 A3002 RMK AO2 SLP151 T02720211=
200808070252 METAR KATL 070252Z 30005KT 10SM FEW250 29/21 A3001 RMK AO2 SLP150 T02890211 53005=
200808070152 METAR KATL 070152Z 29006KT 10SM FEW250 29/21 A3001 RMK AO2 SLP149 T02890211=
200808070052 METAR KATL 070052Z 27005KT 10SM FEW150 30/21 A3000 RMK AO2 SLP146 T03000211=
200808062352 METAR KATL 062352Z 27006KT 10SM FEW055 32/21 A3000 RMK AO2 SLP146 T03170206 10344 20317 56006=
200808062252 METAR KATL 062252Z 26009KT 10SM FEW055 33/20 A3000 RMK AO2 SLP146 T03280200=
200808062152 METAR KATL 062152Z 29007KT 10SM FEW065 34/19 A3000 RMK AO2 SLP147 T03390194=
200808062052 METAR KATL 062052Z 28007KT 250V310 10SM FEW065 SCT200 SCT250 34/19 A3002 RMK AO2 SLP151 CB DSNT S T03390194 57020=
200808061952 METAR KATL 061952Z 28011G14KT 10SM FEW060 34/19 A3004 RMK AO2 SLP158 T03390194=
200808061852 METAR KATL 061852Z 32006KT 10SM FEW060 SCT250 33/20 A3006 RMK AO2 SLP165 T03330200=
200808061752 METAR KATL 061752Z 35008KT 10SM FEW055 34/19 A3008 RMK AO2 SLP172 T03390194 10339 20256 58008=
200808061652 METAR KATL 061652Z 31007KT 10SM FEW050 33/20 A3009 RMK AO2 SLP175 T03280200=
200808061552 METAR KATL 061552Z 01007KT 10SM FEW045 32/21 A3010 RMK AO2 SLP180 T03220211=
200808061452 METAR KATL 061452Z 31004KT 10SM FEW250 31/22 A3010 RMK AO2 SLP181 T03060222 51006=
200808061352 METAR KATL 061352Z 31009KT 10SM CLR 29/22 A3010 RMK AO2 SLP182 T02890217=
200808061252 METAR KATL 061252Z 31008KT 8SM CLR 27/21 A3010 RMK AO2 SLP180 T02670206=
200808061152 METAR KATL 061152Z 30006KT 8SM CLR 26/21 A3009 RMK AO2 SLP176 T02560206 10267 20239 53005=
200808061052 METAR KATL 061052Z 29005KT 7SM SCT200 24/21 A3007 RMK AO2 SLP170 T02390206 $=
200808060952 METAR KATL 060952Z 29005KT 9SM CLR 24/21 A3008 RMK AO2 SLP173 T02440206 $=
200808060852 METAR KATL 060852Z 29005KT 9SM CLR 25/21 A3007 RMK AO2 SLP170 T02500206 54000 $=
200808060752 METAR KATL 060752Z 31006KT 10SM CLR 26/21 A3007 RMK AO2 SLP168 T02610206 $=
200808060652 METAR KATL 060652Z 29006KT 9SM CLR 26/21 A3007 RMK AO2 SLP171 T02610206 $=
200808060552 METAR KATL 060552Z 31006KT 10SM CLR 27/21 A3007 RMK AO2 SLP169 T02670206 10311 20267 53001 $=
200808060452 METAR KATL 060452Z 28006KT 10SM CLR 27/20 A3006 RMK AO2 SLP165 T02720200 403330239 $=
200808060352 METAR KATL 060352Z 29005KT 10SM CLR 28/21 A3006 RMK AO2 SLP165 T02780206 $=
200808060252 METAR KATL 060252Z 28005KT 10SM CLR 28/21 A3006 RMK AO2 SLP169 T02830211 51005=
200808060152 METAR KATL 060152Z 26004KT 10SM FEW250 29/21 A3006 RMK AO2 SLP167 T02890211=
200808060052 METAR KATL 060052Z 27005KT 10SM FEW150 30/21 A3006 RMK AO2 SLP167 T03000206=
200808052352 METAR KATL 052352Z 27006KT 10SM FEW150 31/21 A3005 RMK AO2 SLP164 T03110206 10333 20311 58006=
200808052252 METAR KATL 052252Z 27007KT 10SM FEW050 SCT250 32/21 A3006 RMK AO2 SLP167 CB DSNT NE T03220206=
200808052152 METAR KATL 052152Z 30008KT 10SM FEW055 33/21 A3007 RMK AO2 SLP169 T03280211=
200808052052 METAR KATL 052052Z VRB03KT 10SM FEW050 SCT200 33/21 A3007 RMK AO2 SLP170 T03280211 56015=
200808051952 METAR KATL 051952Z 30007KT 250V330 10SM SCT050 SCT200 33/22 A3008 RMK AO2 SLP173 T03330217=
200808051852 METAR KATL 051852Z 29008KT 10SM FEW048 SCT200 33/21 A3010 RMK AO2 SLP180 T03280211=
200808051752 METAR KATL 051752Z 27010KT 10SM SCT047 SCT200 32/21 A3011 RMK AO2 SLP185 T03220211 10322 20244 58001=
200808051652 METAR KATL 051652Z 31009KT 10SM FEW040 SCT200 32/21 A3012 RMK AO2 SLP187 T03170211=
200808051552 METAR KATL 051552Z 27006KT 10SM FEW200 31/22 A3012 RMK AO2 SLP186 T03060222=
200808051452 METAR KATL 051452Z 29006KT 10SM FEW200 29/22 A3012 RMK AO2 SLP187 T02940222 51008=
200808051352 METAR KATL 051352Z 29008KT 10SM FEW200 28/22 A3012 RMK AO2 SLP187 T02780217=
200808051252 METAR KATL 051252Z 28007KT 10SM CLR 26/21 A3010 RMK AO2 SLP182 T02610211=
200808051152 METAR KATL 051152Z 28005KT 10SM SCT250 24/21 A3009 RMK AO2 SLP178 T02440206 10267 20239 53007=
200808051052 METAR KATL 051052Z 28005KT 10SM FEW250 24/20 A3009 RMK AO2 SLP177 T02390200=
200808050952 METAR KATL 050952Z 25003KT 10SM CLR 24/21 A3007 RMK AO2 SLP171 T02440206=
200808050852 METAR KATL 050852Z 00000KT 9SM CLR 24/22 A3007 RMK AO2 SLP171 T02440217 53002=
200808050752 METAR KATL 050752Z 30004KT 10SM CLR 25/21 A3006 RMK AO2 SLP166 T02500211 $=
200808050652 METAR KATL 050652Z 30005KT 9SM FEW250 26/22 A3006 RMK AO2 SLP167 T02560217=
200808050552 METAR KATL 050552Z 00000KT 10SM FEW250 27/22 A3007 RMK AO2 SLP169 T02670217 10306 20261 53004=
200808050452 METAR KATL 050452Z 00000KT 10SM BKN250 27/21 A3006 RMK AO2 SLP169 T02720211 403280222=
200808050352 METAR KATL 050352Z 00000KT 10SM BKN250 28/21 A3005 RMK AO2 SLP164 T02780211=
200808050252 METAR KATL 050252Z 00000KT 10SM BKN250 28/21 A3005 RMK AO2 SLP165 T02780206 53004=
200808050152 METAR KATL 050152Z 27005KT 10SM SCT250 28/21 A3005 RMK AO2 SLP164 T02830211=
200808050052 METAR KATL 050052Z 24003KT 10SM FEW250 30/21 A3004 RMK AO2 SLP161 T03000211=
200808042352 METAR KATL 042352Z 28005KT 10SM FEW045 SCT250 31/21 A3004 RMK AO2 SLP162 T03060206 10328 20306 53000=
200808042252 METAR KATL 042252Z 26005KT 10SM FEW045 SCT250 32/21 A3004 RMK AO2 SLP162 T03170206=
200808042152 METAR KATL 042152Z 29008KT 9SM FEW045 SCT200 32/20 A3004 RMK AO2 SLP160 T03220200=
200808042052 METAR KATL 042052Z 30004KT 9SM FEW045 SCT200 32/21 A3004 RMK AO2 SLP162 T03170211 56014=
200808041952 METAR KATL 041952Z 28007KT 9SM FEW045 SCT055 32/22 A3005 RMK AO2 SLP164 T03220217=
200808041852 METAR KATL 041852Z VRB06KT 9SM SCT040 SCT055 31/22 A3007 RMK AO2 SLP171 T03110217=
200808041752 METAR KATL 041752Z VRB03KT 9SM SCT030TCU 31/22 A3008 RMK AO2 SLP175 TCU NE S W T03110222 10311 20233 51002=
200808041652 METAR KATL 041652Z VRB03KT 9SM SCT024TCU 30/23 A3008 RMK AO2 SLP176 TCU NE W NW T03000233=
200808041552 METAR KATL 041552Z 30006KT 9SM FEW022 29/23 A3008 RMK AO2 SLP175 T02940233=
200808041452 METAR KATL 041452Z 30006KT 10SM FEW025 28/23 A3008 RMK AO2 SLP174 T02830228 51012=
200808041352 METAR KATL 041352Z 29007KT 9SM CLR 27/22 A3007 RMK AO2 SLP172 T02720222=
200808041252 METAR KATL 041252Z 26004KT 7SM CLR 26/21 A3006 RMK AO2 SLP168 T02560211=
200808041152 METAR KATL 041152Z 00000KT 7SM FEW250 23/21 A3004 RMK AO2 SLP162 T02330206 10239 20222 53014=
200808041052 METAR KATL 041052Z 30006KT 7SM FEW250 23/20 A3002 RMK AO2 SLP155 T02280200 $=
200808040952 METAR KATL 040952Z 29004KT 8SM CLR 22/20 A3000 RMK AO2 SLP150 T02220200=
200808040852 METAR KATL 040852Z 00000KT 9SM FEW070 SCT150 23/20 A3000 RMK AO2 SLP148 T02280200 55001=
200808040752 METAR KATL 040752Z 29004KT 9SM CLR 23/20 A3000 RMK AO2 SLP146 T02280200=
200808040652 METAR KATL 040652Z 00000KT 10SM CLR 24/19 A3000 RMK AO2 SLP147 T02390194=
200808040552 METAR KATL 040552Z 00000KT 9SM CLR 24/20 A3000 RMK AO2 SLP147 T02390200 10278 20239 51009=
200808040452 METAR KATL 040452Z 24004KT 10SM CLR 24/19 A3000 RMK AO2 SLP147 T02440194 403280222=
200808040352 METAR KATL 040352Z 26003KT 9SM CLR 24/19 A2999 RMK AO2 SLP143 T02440194=
200808040252 METAR KATL 040252Z 24003KT 8SM FEW250 25/21 A2997 RMK AO2 SLP139 T02500206 53014=
200808040152 METAR KATL 040152Z 23004KT 7SM FEW250 25/21 A2996 RMK AO2 SLP134 T02500211=
200808040052 METAR KATL 040052Z 22003KT 6SM HZ BKN250 26/22 A2994 RMK AO2 SLP127 T02560217=
200808032352 METAR KATL 032352Z COR 24003KT 7SM FEW045 BKN250 28/21 A2993 RMK AO2 SLP125 T02780206 10328 20272 58003=
200808032252 METAR KATL 032252Z 24004KT 7SM FEW150 BKN250 27/21 A2992 RMK AO2 SLP123 T02720211=
200808032152 METAR KATL 032152Z COR 21007KT 9SM FEW044 SCT100 BKN250 28/18 A2995 RMK AO2 TSE43 SLP132 TS MOV S CB DSNT SE AND S T02780183=
200808032143 SPECI KATL 032143Z 22005KT 8SM FEW044CB SCT100 BKN250 28/18 A2994 RMK AO2 TSE43 OCNL LTGCG DSNT E AND S TS MOV S CB DSNT E AND S=
200808032143 SPECI KATL 032143Z 22005KT 8SM FEW044CB SCT100 BKN250 28/18 A2994 RMK AO2 TSE43 OCNL LTGCG DSNT E AND S TS MOV S CB DSNT E AND S=
200808032052 METAR KATL 032052Z 26013G18KT 7SM TS BKN044CB BKN100 BKN250 28/18 A2994 RMK AO2 TSB1959 SLP128 FRQ LTGICCG TS SW MOV SE CB OHD-E MOV SE T02830183 56010=
200808032029 SPECI KATL 032029Z 31011G17KT 7SM TS BKN044CB BKN100 BKN250 31/21 A2994 RMK AO2 TSB1959 FRQ LTGICCG TS SW MOV SE CB OHD-SW MOV SE=
200808032029 SPECI KATL 032029Z 31011G17KT 7SM TS BKN044CB BKN100 BKN250 31/21 A2994 RMK AO2 TSB1959 FRQ LTGICCG TS SW MOV SE CB OHD-SW MOV SE=
200808032000 SPECI KATL 032000Z 24004KT 8SM TS BKN044CB 32/21 A2994 RMK AO2 TSB1959 OCNL LTGIC TS W MOV SE=
200808032000 SPECI KATL 032000Z 24004KT 8SM TS BKN044CB 32/21 A2994 RMK AO2 TSB1959 OCNL LTGIC TS W MOV SE=
200808031952 METAR KATL 031952Z VRB03KT 8SM SCT044CB 32/21 A2994 RMK AO2 SLP128 CB W MOV SE TCU OHD-W T03170206=
200808031852 METAR KATL 031852Z 26003KT 9SM SCT040 SCT070 32/22 A2996 RMK AO2 SLP132 TCU DSNT E SE AND S T03220222=
200808031752 METAR KATL 031752Z 28005KT 10SM SCT036TCU BKN045 31/22 A2997 RMK AO2 SLP138 TCU OHD-S AND DSNT N E AND W T03110217 10311 20233 58005=
200808031652 METAR KATL 031652Z VRB03KT 10SM SCT033 31/22 A2998 RMK AO2 SLP141 TCU DSNT S T03060217=
200808031552 METAR KATL 031552Z 29004KT 10SM FEW030 29/22 A2998 RMK AO2 SLP142 T02940222=
200808031452 METAR KATL 031452Z 30003KT 10SM FEW025 SCT150 28/21 A2999 RMK AO2 SLP144 T02780211 51015=
200808031352 METAR KATL 031352Z 29006KT 10SM FEW025 SCT060 BKN150 BKN250 27/20 A2998 RMK AO2 SLP142 T02670200 $=
200808031252 METAR KATL 031252Z 27003KT 10SM SCT060 BKN150 OVC250 24/19 A2996 RMK AO2 SLP136 T02440194=
200808031152 METAR KATL 031152Z 20007KT 10SM FEW040 BKN070 BKN200 23/19 A2994 RMK AO2 SLP132 70082 T02330194 10239 20222 53013=
200808031052 METAR KATL 031052Z 31004KT 10SM FEW041 SCT070 BKN200 23/19 A2992 RMK AO2 SLP120 T02280189=
200808030952 METAR KATL 030952Z 29006KT 10SM FEW150 BKN250 23/18 A2991 RMK AO2 SLP117 T02280183=
200808030852 METAR KATL 030852Z 28005KT 10SM FEW050 SCT150 BKN250 23/18 A2990 RMK AO2 SLP114 T02280178 55009=
200808030752 METAR KATL 030752Z 29006KT 10SM FEW050 SCT150 BKN250 23/18 A2989 RMK AO2 SLP110 T02280178=
200808030652 METAR KATL 030652Z 22003KT 10SM SCT050 SCT150 BKN250 23/18 A2991 RMK AO2 SLP117 T02330183=
200808030552 METAR KATL 030552Z 30003KT 10SM SCT060 SCT150 BKN250 23/18 A2993 RMK AO2 SLP125 60001 T02280183 10233 20200 50016=
200808030452 METAR KATL 030452Z 00000KT 10SM FEW150 OVC250 23/19 A2994 RMK AO2 SLP128 T02280189 403330194=
200808030352 METAR KATL 030352Z 29004KT 10SM FEW120 OVC250 23/19 A2991 RMK AO2 SLP117 T02280189=
200808030252 METAR KATL 030252Z 30005KT 10SM FEW120 OVC250 22/19 A2988 RMK AO2 SLP109 60001 T02220189 55005=
200808030152 METAR KATL 030152Z 31004KT 10SM FEW120 SCT150 OVC250 23/18 A2988 RMK AO2 SLP107 T02280183=
200808030052 METAR KATL 030052Z 24006KT 10SM FEW070 SCT095 BKN120 BKN250 22/18 A2990 RMK AO2 WSHFT 2339 TSE19RAE08 SLP115 CB DSNT E-S CONS LTGICCACG DSNT E-S TS MOV S SHRA DSNT SE-S P0001 T02170183=
200808030020 SPECI KATL 030020Z 23007KT 10SM SCT070 SCT095 BKN120 BKN250 22/18 A2989 RMK AO2 WSHFT 2339 TSE19RAE08 CB DSNT SE-SW CONS LTGICCCCACG DSNT SE-SW TS MOV S SHRA DSNT SE-SW P0001=
200808030020 SPECI KATL 030020Z 23007KT 10SM SCT070 SCT095 BKN120 BKN250 22/18 A2989 RMK AO2 WSHFT 2339 TSE19RAE08 CB DSNT SE-SW CONS LTGICCCCACG DSNT SE-SW TS MOV S SHRA DSNT SE-SW P0001=
200808030008 SPECI KATL 030008Z 17007KT 10SM TS FEW016 SCT045CB BKN095 BKN250 23/18 A2989 RMK AO2 WSHFT 2339 RAE08 CONS LTGICCG SE-SW TS SE-SW MOV S SHRA SE-SW P0001=
200808030008 SPECI KATL 030008Z 17007KT 10SM TS FEW016 SCT045CB BKN095 BKN250 23/18 A2989 RMK AO2 WSHFT 2339 RAE08 CONS LTGICCG SE-SW TS SE-SW MOV S SHRA SE-SW P0001=
200808022358 SPECI KATL 022358Z 12011KT 7SM R09R/6000VP6000FT -TSRA FEW016 BKN036CB BKN060 BKN250 21/19 A2989 RMK AO2 WSHFT 2339 PRESFR CONS LTGICCG E-OHD-W TS E-OHD-W MOV S P0001=
200808022358 SPECI KATL 022358Z 12011KT 7SM R09R/6000VP6000FT -TSRA FEW016 BKN036CB BKN060 BKN250 21/19 A2989 RMK AO2 WSHFT 2339 PRESFR CONS LTGICCG E-OHD-W TS E-OHD-W MOV S P0001=
200808022352 METAR KATL 022352Z 13011G20KT 5SM R09R/2400VP6000FT +TSRA BR FEW009 BKN050CB BKN080 BKN250 20/18 A2990 RMK AO2 PK WND 01062/2339 WSHFT 2323 TSB10RAB35 SLP117 CONS LTGICCG ALQDS TS ALQDS MOV S P0081 60081 T02000183=
200808022344 SPECI KATL 022344Z 09014G62KT 050V110 1/4SM R09R/0700VP6000FT +TSRA FG FEW007 BKN045CB OVC060 19/18 A2997 RMK AO2 PK WND 01062/2339 WSHFT 2323 TSB10RAB35 CONS LTGICCG ALQDS TS ALQDS MOV S P0035=
200808022344 SPECI KATL 022344Z 09014G62KT 050V110 1/4SM R09R/0700VP6000FT +TSRA FG FEW007 BKN045CB OVC060 19/18 A2997 RMK AO2 PK WND 01062/2339 WSHFT 2323 TSB10RAB35 CONS LTGICCG ALQDS TS ALQDS MOV S P0035=
200808022341 SPECI KATL 022341Z 35039G62KT 1/2SM R09R/0700VP6000FT +TSRA BKN045CB BKN060 OVC250 21/17 A2998 RMK AO2 PK WND 01062/2339 WSHFT 2323 TSB10RAB35 CONS LTGICCG ALQDS TS ALQDS MOV S P0005=
200808022341 SPECI KATL 022341Z 35039G62KT 1/2SM R09R/0700VP6000FT +TSRA BKN045CB BKN060 OVC250 21/17 A2998 RMK AO2 PK WND 01062/2339 WSHFT 2323 TSB10RAB35 CONS LTGICCG ALQDS TS ALQDS MOV S P0005=
200808022327 SPECI KATL 022327Z 01031G43KT 9SM TS SQ SCT045CB BKN110 BKN250 30/19 A2992 RMK AO2 PK WND 01043/2326 TSB10 PRESRR FRQ LTGICCG TS N-NE AND NW-N MOV S SHRA N-NE AND W-N=
200808022327 SPECI KATL 022327Z 01031G43KT 9SM TS SQ SCT045CB BKN110 BKN250 30/19 A2992 RMK AO2 PK WND 01043/2326 TSB10 PRESRR FRQ LTGICCG TS N-NE AND NW-N MOV S SHRA N-NE AND W-N=
200808022311 SPECI KATL 022311Z 28007KT 10SM TS FEW045CB SCT250 32/21 A2986 RMK AO2 TSB10 OCNL LTGICCG TS N-NE AND NW-N MOV S=
200808022311 SPECI KATL 022311Z 28007KT 10SM TS FEW045CB SCT250 32/21 A2986 RMK AO2 TSB10 OCNL LTGICCG TS N-NE AND NW-N MOV S=
200808022252 METAR KATL 022252Z 27007KT 10SM SCT045 SCT150 BKN250 32/21 A2986 RMK AO2 SLP098 CB DSNT N-NE AND NW-N TCU DSNT E T03220211=
200808022152 METAR KATL 022152Z 28009KT 10SM SCT050 33/21 A2986 RMK AO2 SLP101 CB DSNT N-NE AND NW-N T03280211=
200808022052 METAR KATL 022052Z 28004KT 9SM SCT048 33/21 A2986 RMK AO2 SLP100 CB DSNT N-NE AND NW-N T03280211 56018=
200808021952 METAR KATL 021952Z VRB05KT 10SM SCT050 33/21 A2988 RMK AO2 SLP105 CB DSNT NW T03280211=
200808021852 METAR KATL 021852Z 30008KT 10SM SCT045 32/21 A2990 RMK AO2 SLP112 TCU DSNT N T03220206=
200808021752 METAR KATL 021752Z 29007KT 250V310 10SM SCT041 32/21 A2992 RMK AO2 SLP119 T03170206 10317 20233 58006=
200808021652 METAR KATL 021652Z 29008KT 10SM SCT033 BKN250 31/22 A2993 RMK AO2 SLP123 T03110222=
200808021552 METAR KATL 021552Z 34009KT 10SM SCT027 BKN250 30/22 A2994 RMK AO2 SLP128 T03000222=
200808021452 METAR KATL 021452Z 28006KT 10SM FEW025 SCT250 29/22 A2994 RMK AO2 SLP125 T02890222 51006=
200808021352 METAR KATL 021352Z 29008KT 9SM CLR 28/22 A2993 RMK AO2 SLP125 T02780217=
200808021252 METAR KATL 021252Z 26005KT 8SM FEW180 26/22 A2993 RMK AO2 SLP123 T02560217=
200808021152 METAR KATL 021152Z 25004KT 6SM BR FEW180 23/21 A2992 RMK AO2 SLP120 T02330211 10250 20228 53009=
200808021052 METAR KATL 021052Z 25003KT 7SM CLR 23/21 A2991 RMK AO2 SLP117 T02280206=
200808020952 METAR KATL 020952Z 00000KT 7SM CLR 23/21 A2990 RMK AO2 SLP113 T02330211=
200808020852 METAR KATL 020852Z 30004KT 7SM CLR 23/21 A2989 RMK AO2 SLP111 T02280206 56008=
200808020752 METAR KATL 020752Z 32006KT 9SM CLR 23/21 A2990 RMK AO2 SLP113 T02330206=
200808020652 METAR KATL 020652Z 30004KT 10SM CLR 24/20 A2990 RMK AO2 SLP113 T02390200=
200808020552 METAR KATL 020552Z 31005KT 10SM CLR 24/20 A2991 RMK AO2 SLP119 T02390200 10294 20239 58008=
200808020452 METAR KATL 020452Z 31005KT 10SM CLR 26/19 A2993 RMK AO2 SLP123 T02560194 403170211=
200808020352 METAR KATL 020352Z 31005KT 10SM CLR 26/19 A2993 RMK AO2 SLP125 T02610189=
200808020252 METAR KATL 020252Z 27003KT 10SM FEW200 27/19 A2994 RMK AO2 SLP127 T02720189 53016=
200808020152 METAR KATL 020152Z 29004KT 9SM FEW250 27/19 A2992 RMK AO2 SLP122 T02670194=
200808020052 METAR KATL 020052Z 28005KT 8SM FEW150 SCT250 28/19 A2990 RMK AO2 SLP115 T02780194=
200808012352 METAR KATL 012352Z 27006KT 9SM FEW200 SCT250 29/19 A2989 RMK AO2 SLP111 T02940194 10317 20289 55001=
200808012252 METAR KATL 012252Z 32007KT 9SM FEW200 31/19 A2989 RMK AO2 SLP109 T03060189=
200808012152 METAR KATL 012152Z 32007KT 8SM FEW045 31/19 A2989 RMK AO2 SLP110 T03110194=
200808012052 METAR KATL 012052Z 30007KT 8SM FEW045 31/19 A2990 RMK AO2 SLP112 T03060194 56014=
200808011952 METAR KATL 011952Z 32007KT 6SM HZ SCT034 30/22 A2991 RMK AO2 SLP116 T03000217=
200808011852 METAR KATL 011852Z 29007KT 6SM HZ SCT030 29/22 A2992 RMK AO2 SLP122 T02940217=
200808011752 METAR KATL 011752Z 28007KT 9SM SCT030 28/22 A2994 RMK AO2 SLP128 T02830217 10294 20222 58004=
200808011652 METAR KATL 011652Z 26005KT 9SM SCT022 SCT030 SCT180 28/22 A2995 RMK AO2 SLP131 T02830222=
200808011552 METAR KATL 011552Z VRB03KT 9SM SCT019 SCT180 27/22 A2996 RMK AO2 SLP134 T02720222=
200808011459 SPECI KATL 011459Z VRB06KT 9SM SCT012 SCT180 27/22 A2995 RMK AO2=
200808011459 SPECI KATL 011459Z VRB06KT 9SM SCT012 SCT180 27/22 A2995 RMK AO2=
200808011452 METAR KATL 011452Z 31007KT 9SM BKN012 BKN180 26/22 A2995 RMK AO2 SLP134 T02610222 50005=
200808011352 METAR KATL 011352Z 31008KT 6SM HZ BKN009 BKN180 24/22 A2996 RMK AO2 SLP136 T02440217=
200808011340 SPECI KATL 011340Z 31007KT 6SM HZ OVC008 24/21 A2996 RMK AO2 BINOVC=
200808011340 SPECI KATL 011340Z 31007KT 6SM HZ OVC008 24/21 A2996 RMK AO2 BINOVC=
200808011314 SPECI KATL 011314Z 28005KT 10SM FEW008 SCT034 24/21 A2996 RMK AO2=
200808011314 SPECI KATL 011314Z 28005KT 10SM FEW008 SCT034 24/21 A2996 RMK AO2=
200808011252 METAR KATL 011252Z 28005KT 6SM BR SCT028 BKN140 BKN180 23/21 A2995 RMK AO2 SLP133 T02330211 $=
