##########################################################
# Query made at 04/19/2024 23:07:04 UTC
# Time interval: from 07/01/2008 12:00  to 07/31/2008 12:59  UTC
##########################################################

##########################################################
# KATL, Atlanta, Hartsfield - Jackson Atlanta International Airport (United States)
# WMO index: 72219. WIGOS ID: 0-20000-0-72219
# Latitude 33-38-59N. Longitude 084-25-00W. Altitude 312 m.
##########################################################

200807311252 METAR KATL 311252Z 26007KT 7SM FEW011 SCT080 BKN180 26/22 A2992 RMK AO2 SLP119 T02560222=
200807311152 METAR KATL 311152Z 26008KT 7SM FEW009 SCT065 BKN200 24/22 A2991 RMK AO2 SLP117 T02440217 10250 20239 51012=
200807311052 METAR KATL 311052Z 25007KT 8SM SCT009 SCT250 24/22 A2990 RMK AO2 SLP113 T02390217=
200807310952 METAR KATL 310952Z 25006KT 8SM FEW006 SCT010 24/22 A2989 RMK AO2 SLP109 T02440217=
200807310852 METAR KATL 310852Z 25006KT 8SM SCT250 24/22 A2988 RMK AO2 SLP104 T02440217 56006=
200807310752 METAR KATL 310752Z 24008KT 9SM SCT250 24/22 A2988 RMK AO2 SLP106 T02440217=
200807310652 METAR KATL 310652Z 24007KT 10SM SCT250 24/21 A2989 RMK AO2 SLP108 T02440211=
200807310552 METAR KATL 310552Z 23006KT 10SM SCT250 25/21 A2990 RMK AO2 SLP112 T02500211 10311 20244 58008=
200807310452 METAR KATL 310452Z 21006KT 10SM FEW060 SCT250 26/21 A2991 RMK AO2 SLP117 T02560206 403220222=
200807310352 METAR KATL 310352Z 22005KT 10SM FEW060 SCT250 27/20 A2991 RMK AO2 SLP116 T02670200=
200807310252 METAR KATL 310252Z 20010KT 10SM SCT042 BKN055 BKN250 28/20 A2992 RMK AO2 SLP120 T02780200 53011=
200807310152 METAR KATL 310152Z 20009KT 10SM SCT045 BKN060 BKN250 29/21 A2990 RMK AO2 SLP113 T02940206=
200807310052 METAR KATL 310052Z 00000KT 10SM FEW045 SCT250 30/21 A2989 RMK AO2 SLP110 FRQ LTG DSNT S CB DSNT S-SW T03000206=
200807302352 METAR KATL 302352Z 22006KT 10SM FEW045TCU SCT200 31/20 A2988 RMK AO2 SLP108 TCU NE AND DSNT SE-SW T03110200 10322 20294 53000=
200807302252 METAR KATL 302252Z 22007KT 10SM FEW045 SCT200 32/21 A2988 RMK AO2 SLP106 TCU DSNT S-SW T03170206=
200807302152 METAR KATL 302152Z 19004KT 10SM FEW045 32/21 A2987 RMK AO2 SLP105 TCU DSNT SW T03170206=
200807302052 METAR KATL 302052Z VRB06KT 10SM FEW043TCU 32/21 A2988 RMK AO2 SLP107 TCU NE E T03220206 56024=
200807301952 METAR KATL 301952Z 28007KT 10SM SCT040TCU 32/21 A2990 RMK AO2 SLP113 TCU=
200807301852 METAR KATL 301852Z VRB04KT 10SM SCT035TCU 31/22 A2992 RMK AO2 SLP122 TCU NW-N T03060217=
200807301752 METAR KATL 301752Z 24007KT 180V310 10SM SCT030 29/22 A2996 RMK AO2 SLP133 T02940217 10300 20233 58016=
200807301703 SPECI KATL 301703Z 26005KT 10SM SCT026 BKN030 BKN040 29/22 A2998 RMK AO2=
200807301703 SPECI KATL 301703Z 26005KT 10SM SCT026 BKN030 BKN040 29/22 A2998 RMK AO2=
200807301652 METAR KATL 301652Z 25004KT 10SM BKN026 BKN035 28/22 A2998 RMK AO2 SLP142 T02830222=
200807301552 METAR KATL 301552Z VRB05KT 10SM BKN020 BKN150 28/22 A3000 RMK AO2 SLP147 T02780222=
200807301452 METAR KATL 301452Z 26006KT 10SM BKN015 BKN029 27/22 A3001 RMK AO2 SLP150 T02670217 51004=
200807301357 SPECI KATL 301357Z 26007KT 10SM SCT013 SCT025 26/22 A3000 RMK AO2=
200807301357 SPECI KATL 301357Z 26007KT 10SM SCT013 SCT025 26/22 A3000 RMK AO2=
200807301352 METAR KATL 301352Z COR 25007KT 8SM SCT013 SCT025 26/22 A3000 RMK AO2 SLP149 T02610222 TSNO=
200807301312 SPECI KATL 301312Z 27008KT 6SM HZ BKN010 25/22 A3000 RMK AO2=
200807301312 SPECI KATL 301312Z 27008KT 6SM HZ BKN010 25/22 A3000 RMK AO2=
200807301255 SPECI KATL 301255Z 27005KT 9SM BKN009 25/22 A2999 RMK AO2 CIG 008V014=
200807301255 SPECI KATL 301255Z 27005KT 9SM BKN009 25/22 A2999 RMK AO2 CIG 008V014=
200807301252 METAR KATL 301252Z 26007KT 9SM FEW009 SCT020 BKN140 25/22 A2999 RMK AO2 SLP147 T02500222=
200807301245 SPECI KATL 301245Z 25006KT 8SM FEW009 SCT020 BKN140 25/22 A2999 RMK AO2=
200807301245 SPECI KATL 301245Z 25006KT 8SM FEW009 SCT020 BKN140 25/22 A2999 RMK AO2=
200807301152 METAR KATL 301152Z 23005KT 6SM BR FEW014 SCT140 23/22 A2998 RMK AO2 SLP142 70001 T02330217 10233 20222 51007=
200807301114 SPECI KATL 301114Z 22004KT 6SM BR SCT014 BKN060 23/21 A2998 RMK AO2=
200807301114 SPECI KATL 301114Z 22004KT 6SM BR SCT014 BKN060 23/21 A2998 RMK AO2=
200807301052 METAR KATL 301052Z 22003KT 8SM BKN014 OVC049 23/21 A2998 RMK AO2 SLP142 T02280211=
200807300952 METAR KATL 300952Z 00000KT 7SM FEW020 SCT045 SCT200 23/21 A2997 RMK AO2 SLP137 T02280206=
200807300852 METAR KATL 300852Z 00000KT 7SM FEW140 SCT200 23/21 A2996 RMK AO2 SLP132 T02280211 53001=
200807300752 METAR KATL 300752Z 00000KT 7SM SCT140 BKN200 23/21 A2995 RMK AO2 SLP131 T02280206=
200807300652 METAR KATL 300652Z 28004KT 8SM SCT200 23/21 A2995 RMK AO2 SLP130 T02280206=
200807300552 METAR KATL 300552Z 00000KT 9SM FEW080 SCT200 BKN250 23/21 A2995 RMK AO2 SLP132 60001 T02280206 10239 20228 56013=
200807300452 METAR KATL 300452Z 00000KT 10SM SCT150 BKN200 BKN250 23/21 A2996 RMK AO2 SLP133 T02330211 403330228=
200807300352 METAR KATL 300352Z 22004KT 10SM BKN150 BKN200 OVC250 24/21 A2999 RMK AO2 SLP143 T02390211=
200807300252 METAR KATL 300252Z 25003KT 10SM SCT150 BKN200 OVC250 24/21 A2999 RMK AO2 SLP146 60001 T02390211 53009=
200807300152 METAR KATL 300152Z 00000KT 10SM BKN140 BKN200 OVC250 24/21 A2999 RMK AO2 SLP144 T02390211=
200807300052 METAR KATL 300052Z 14005KT 9SM FEW045 SCT120 BKN150 OVC200 24/21 A2997 RMK AO2 RAE29 SLP139 OCNL LTG DSNT SE P0001 T02390211=
200807292352 METAR KATL 292352Z 19006KT 7SM -RA FEW045 SCT120 BKN150 OVC200 24/21 A2997 RMK AO2 TSE33 SLP139 TS MOV SE FRQ LTG DSNT SE P0000 60000 T02390211 10333 20239 51019=
200807292333 SPECI KATL 292333Z 22010KT 9SM -RA FEW045 SCT120 BKN150 OVC200 24/21 A2997 RMK AO2 TSE33 TS MOV SE FRQ LTG DSNT SE-S P0000=
200807292333 SPECI KATL 292333Z 22010KT 9SM -RA FEW045 SCT120 BKN150 OVC200 24/21 A2997 RMK AO2 TSE33 TS MOV SE FRQ LTG DSNT SE-S P0000=
200807292252 METAR KATL 292252Z 23006KT 9SM -TSRA FEW045CB SCT100 BKN140 OVC200 26/21 A2996 RMK AO2 WSHFT 2139 RAB17 PRESRR SLP135 FRQ LTGICCG TS VC SE-SW MOV SE P0000 T02610206=
200807292155 SPECI KATL 292155Z 33016G23KT 8SM TS BKN045CB BKN060 BKN150 OVC200 28/21 A2993 RMK AO2 WSHFT 2139 FRQ LTGICCG TS VC N-NE MOV SE=
200807292155 SPECI KATL 292155Z 33016G23KT 8SM TS BKN045CB BKN060 BKN150 OVC200 28/21 A2993 RMK AO2 WSHFT 2139 FRQ LTGICCG TS VC N-NE MOV SE=
200807292152 METAR KATL 292152Z 32015G23KT 8SM TS BKN045CB BKN060 BKN150 OVC200 28/21 A2993 RMK AO2 WSHFT 2138 TSB19 SLP124 FRQ LTGICCG TS VC N-NE MOV SE T02830206=
200807292119 SPECI KATL 292119Z 21009KT 9SM TS FEW050CB SCT080 BKN150 BKN200 32/21 A2992 RMK AO2 TSB19 FRQ LTGICCG TS VC NW-N MOV SE=
200807292119 SPECI KATL 292119Z 21009KT 9SM TS FEW050CB SCT080 BKN150 BKN200 32/21 A2992 RMK AO2 TSB19 FRQ LTGICCG TS VC NW-N MOV SE=
200807292052 METAR KATL 292052Z 19006KT 10SM FEW050TCU SCT080 SCT200 33/20 A2991 RMK AO2 SLP116 CB DSNT NW-N MOV SE TCU VC N T03280200 56020=
200807291952 METAR KATL 291952Z 18007KT 10SM SCT048TCU SCT200 33/22 A2992 RMK AO2 SLP121 CB DSNT W MOV SE TCU NE W-N T03280217=
200807291852 METAR KATL 291852Z 20006KT 10SM SCT050TCU BKN080 BKN200 32/21 A2995 RMK AO2 SLP129 CB DSNT NW-N TCU NE SW NW T03220206=
200807291824 SPECI KATL 291824Z VRB03KT 10SM FEW045 SCT055 SCT200 32/21 A2995 RMK AO2 LTG DSNT NW TS 15SM DSNT NW MOV SE CB DSNT NW=
200807291824 SPECI KATL 291824Z VRB03KT 10SM FEW045 SCT055 SCT200 32/21 A2995 RMK AO2 LTG DSNT NW TS 15SM DSNT NW MOV SE CB DSNT NW=
200807291752 METAR KATL 291752Z VRB03KT 10SM SCT045 SCT200 31/21 A2997 RMK AO2 SLP136 CB DSNT SE-S NW-N TCU DSNT S T03110206 10317 20233 58013=
200807291652 METAR KATL 291652Z 31004KT 10SM SCT035 32/22 A3000 RMK AO2 SLP145 MDT CU NE-SW T03170217=
200807291552 METAR KATL 291552Z VRB05KT 9SM FEW030 30/22 A3001 RMK AO2 SLP149 T03000222=
200807291452 METAR KATL 291452Z 25003KT 9SM FEW020 28/22 A3001 RMK AO2 SLP149 T02830222 50004=
200807291352 METAR KATL 291352Z VRB03KT 7SM FEW020 26/22 A3001 RMK AO2 SLP150 T02610217=
200807291252 METAR KATL 291252Z 22004KT 7SM FEW200 24/21 A3000 RMK AO2 SLP149 T02440211=
200807291152 METAR KATL 291152Z 22005KT 6SM HZ FEW200 23/21 A2999 RMK AO2 SLP145 T02330206 10256 20228 53014=
200807291052 METAR KATL 291052Z 21006KT 6SM HZ FEW140 SCT200 23/20 A2998 RMK AO2 SLP138 T02280200=
200807290952 METAR KATL 290952Z 18004KT 8SM SCT140 23/20 A2997 RMK AO2 SLP136 T02330200 $=
200807290852 METAR KATL 290852Z 00000KT 9SM SCT150 24/19 A2995 RMK AO2 SLP131 T02390194 56004 $=
200807290752 METAR KATL 290752Z 00000KT 9SM FEW070 SCT150 24/20 A2995 RMK AO2 SLP131 T02440200 $=
200807290652 METAR KATL 290652Z 00000KT 10SM SCT250 25/19 A2996 RMK AO2 SLP133 T02500189 $=
200807290552 METAR KATL 290552Z 21004KT 9SM FEW150 SCT250 25/20 A2996 RMK AO2 SLP135 T02500200 10322 20250 $=
200807290452 METAR KATL 290452Z 00000KT 10SM FEW150 SCT250 26/20 A2996 RMK AO2 SLP132 OCNL LTG DSNT NE T02610200 403390233 $=
200807290352 METAR KATL 290352Z 17005KT 10SM SCT100 BKN200 BKN250 26/19 A2997 RMK AO2 SLP137 T02610194 $=
200807290332 SPECI KATL 290332Z 18008KT 10SM FEW050 SCT100 BKN200 OVC250 27/18 A2998 RMK AO2 TSE32 TS DSIPTD $=
200807290332 SPECI KATL 290332Z 18008KT 10SM FEW050 SCT100 BKN200 OVC250 27/18 A2998 RMK AO2 TSE32 TS DSIPTD $=
200807290252 METAR KATL 290252Z 15011KT 10SM TS FEW050CB BKN065 BKN100 OVC200 28/18 A2998 RMK AO2 WSHFT 0143 TSB11 SLP140 OCNL LTGICCG TS VC SE-S AND DSNT NE-E MOV E T02780178 53025 $=
200807290211 SPECI KATL 290211Z 18011G15KT 9SM TS FEW050CB SCT070 BKN250 29/19 A2997 RMK AO2 WSHFT 0143 TSB11 FRQ LTGICCG TS VC NE-SE AND S-SW MOV NE $=
200807290211 SPECI KATL 290211Z 18011G15KT 9SM TS FEW050CB SCT070 BKN250 29/19 A2997 RMK AO2 WSHFT 0143 TSB11 FRQ LTGICCG TS VC NE-SE AND S-SW MOV NE $=
200807290203 SPECI KATL 290203Z 19008KT 9SM FEW055 SCT070 BKN250 29/19 A2996 RMK AO2 WSHFT 0143 FRQ LTG DSNT E-SE AND S-SW $=
200807290203 SPECI KATL 290203Z 19008KT 9SM FEW055 SCT070 BKN250 29/19 A2996 RMK AO2 WSHFT 0143 FRQ LTG DSNT E-SE AND S-SW $=
200807290152 METAR KATL 290152Z 17018G21KT 9SM SCT055 BKN070 BKN250 30/19 A2996 RMK AO2 SLP132 OCNL LTG DSNT E AND SE T03000189 $=
200807290052 METAR KATL 290052Z 27005KT 10SM FEW055 SCT150 BKN250 30/20 A2992 RMK AO2 SLP120 CB DSNT SE T03000200 $=
200807282352 METAR KATL 282352Z 27005KT 10SM FEW060 SCT200 32/19 A2991 RMK AO2 SLP115 CB DSNT SE T03170194 10339 20317 53001=
200807282252 METAR KATL 282252Z 31004KT 8SM FEW060 SCT250 33/19 A2990 RMK AO2 SLP112 T03330189=
200807282152 METAR KATL 282152Z 00000KT 7SM FEW060 33/18 A2989 RMK AO2 SLP111 T03330183=
200807282052 METAR KATL 282052Z 18005KT 7SM FEW060 SCT250 33/18 A2990 RMK AO2 SLP113 T03330183 56014=
200807281952 METAR KATL 281952Z VRB03KT 7SM FEW055 SCT200 SCT250 33/19 A2991 RMK AO2 SLP117 T03280189=
200807281852 METAR KATL 281852Z 00000KT 7SM FEW055 SCT150 BKN250 33/19 A2993 RMK AO2 SLP123 T03280189=
200807281752 METAR KATL 281752Z 20003KT 9SM FEW055 SCT110 SCT250 32/18 A2995 RMK AO2 SLP128 T03220183 10328 20250 58005=
200807281652 METAR KATL 281652Z 00000KT 9SM FEW055 SCT200 BKN250 32/18 A2996 RMK AO2 SLP134 T03170183=
200807281552 METAR KATL 281552Z 24005KT 9SM SCT050 SCT250 31/19 A2998 RMK AO2 SLP138 T03110194=
200807281452 METAR KATL 281452Z 00000KT 9SM FEW045 SCT100 SCT250 31/19 A2996 RMK AO2 SLP133 T03060189 52006=
200807281352 METAR KATL 281352Z 00000KT 7SM FEW120 29/22 A2995 RMK AO2 SLP131 T02890217=
200807281252 METAR KATL 281252Z 00000KT 7SM CLR 27/22 A2995 RMK AO2 SLP130 T02720222=
200807281152 METAR KATL 281152Z 33003KT 7SM FEW120 25/21 A2994 RMK AO2 SLP127 T02500211 10256 20233 53013=
200807281052 METAR KATL 281052Z 00000KT 7SM FEW070 SCT250 24/21 A2993 RMK AO2 SLP121 T02390206=
200807280952 METAR KATL 280952Z 31003KT 8SM CLR 24/21 A2991 RMK AO2 SLP118 T02390206 $=
200807280852 METAR KATL 280852Z 30005KT 8SM CLR 24/21 A2990 RMK AO2 SLP114 T02390206 55003 $=
200807280752 METAR KATL 280752Z 31004KT 8SM CLR 24/21 A2990 RMK AO2 SLP112 T02390206 $=
200807280652 METAR KATL 280652Z 28003KT 8SM CLR 24/21 A2990 RMK AO2 SLP111 T02440206 $=
200807280552 METAR KATL 280552Z 31008KT 9SM FEW250 26/21 A2991 RMK AO2 SLP117 T02560206 10300 20250 58006 $=
200807280452 METAR KATL 280452Z 32003KT 10SM FEW250 26/20 A2993 RMK AO2 SLP122 T02610200 403220222 $=
200807280352 METAR KATL 280352Z 28003KT 9SM SCT250 27/20 A2993 RMK AO2 SLP123 T02670200 $=
200807280252 METAR KATL 280252Z 26004KT 10SM SCT250 27/20 A2993 RMK AO2 SLP124 T02720200 51008 $=
200807280152 METAR KATL 280152Z 29005KT 9SM SCT250 28/19 A2992 RMK AO2 SLP121 T02780194 $=
200807280052 METAR KATL 280052Z 27006KT 7SM FEW140 SCT250 29/19 A2992 RMK AO2 SLP120 T02890194 $=
200807272352 METAR KATL 272352Z 27006KT 9SM FEW180 BKN250 30/19 A2991 RMK AO2 SLP116 T03000194 10322 20300 55000 $=
200807272252 METAR KATL 272252Z 28008KT 10SM FEW050 BKN250 31/20 A2990 RMK AO2 SLP113 T03110200 $=
200807272152 METAR KATL 272152Z 28005KT 10SM FEW040 SCT250 32/21 A2990 RMK AO2 SLP113 T03170206 $=
200807272052 METAR KATL 272052Z 26007KT 10SM FEW040 SCT050 32/22 A2991 RMK AO2 SLP116 T03170217 56016 $=
200807271952 METAR KATL 271952Z VRB05KT 10SM SCT043 SCT055 32/21 A2992 RMK AO2 SLP120 T03170211 $=
200807271852 METAR KATL 271852Z VRB04KT 10SM SCT041 31/22 A2994 RMK AO2 SLP126 T03110217 $=
200807271752 METAR KATL 271752Z 30004KT 10SM SCT032 SCT044 31/22 A2995 RMK AO2 SLP132 T03060217 10306 20222 58008 $=
200807271652 METAR KATL 271652Z VRB03KT 10SM SCT022 SCT028 29/22 A2997 RMK AO2 SLP137 T02890222 $=
200807271605 SPECI KATL 271605Z 31008KT 10SM BKN022 27/22 A2998 RMK AO2 BKN022V SCT $=
200807271605 SPECI KATL 271605Z 31008KT 10SM BKN022 27/22 A2998 RMK AO2 BKN022V SCT $=
200807271552 METAR KATL 271552Z 29007KT 10SM SCT018 SCT150 27/22 A2998 RMK AO2 SLP142 T02720222 $=
200807271521 SPECI KATL 271521Z 30006KT 9SM SCT014 BKN150 BKN250 27/22 A2998 RMK AO2 $=
200807271521 SPECI KATL 271521Z 30006KT 9SM SCT014 BKN150 BKN250 27/22 A2998 RMK AO2 $=
200807271452 METAR KATL 271452Z 31006KT 8SM BKN012 BKN150 26/22 A2998 RMK AO2 SLP142 T02560217 50005 $=
200807271426 SPECI KATL 271426Z 33005KT 7SM BKN011 25/22 A2998 RMK AO2 CIG 006V014 $=
200807271426 SPECI KATL 271426Z 33005KT 7SM BKN011 25/22 A2998 RMK AO2 CIG 006V014 $=
200807271419 SPECI KATL 271419Z 33005KT 7SM OVC009 25/22 A2998 RMK AO2 $=
200807271419 SPECI KATL 271419Z 33005KT 7SM OVC009 25/22 A2998 RMK AO2 $=
200807271352 METAR KATL 271352Z 33008KT 2SM BR BKN005 OVC009 24/22 A2998 RMK AO2 SFC VIS 5 SLP144 T02390217=
200807271259 SPECI KATL 271259Z 32006KT 2SM BR OVC005 23/22 A2999 RMK AO2 SFC VIS 4 $=
200807271259 SPECI KATL 271259Z 32006KT 2SM BR OVC005 23/22 A2999 RMK AO2 SFC VIS 4 $=
200807271252 METAR KATL 271252Z 33005KT 2SM BR OVC003 23/21 A2998 RMK AO2 SFC VIS 4 SLP144 T02330211=
200807271222 SPECI KATL 271222Z 32006KT 1 1/2SM BR OVC002 23/21 A2997 RMK AO2 SFC VIS 3 CIG 001V007=
200807271222 SPECI KATL 271222Z 32006KT 1 1/2SM BR OVC002 23/21 A2997 RMK AO2 SFC VIS 3 CIG 001V007=
200807271218 SPECI KATL 271218Z 31006KT 1/2SM BR OVC002 23/21 A2997 RMK AO2 SFC VIS 2 CIG 001V006=
200807271218 SPECI KATL 271218Z 31006KT 1/2SM BR OVC002 23/21 A2997 RMK AO2 SFC VIS 2 CIG 001V006=
200807271152 METAR KATL 271152Z 30003KT 1/4SM R09R/6000VP6000FT BR OVC002 22/22 A2997 RMK AO2 SFC VIS 1 SLP138 70118 T02220217 10233 20222 53005=
200807271052 METAR KATL 271052Z 32006KT 1/4SM BR OVC002 22/21 A2996 RMK AO2 SFC VIS 1 1/2 SLP136 T02220211=
200807271030 SPECI KATL 271030Z 33007KT 1/4SM BR OVC002 22/21 A2995 RMK AO2 SFC VIS 1 1/2=
200807271030 SPECI KATL 271030Z 33007KT 1/4SM BR OVC002 22/21 A2995 RMK AO2 SFC VIS 1 1/2=
200807271012 SPECI KATL 271012Z 32008KT 1SM BR OVC003 23/21 A2995 RMK AO2 SFC VIS 3=
200807271012 SPECI KATL 271012Z 32008KT 1SM BR OVC003 23/21 A2995 RMK AO2 SFC VIS 3=
200807271003 SPECI KATL 271003Z 32006KT 8SM OVC004 23/21 A2994 RMK AO2=
200807271003 SPECI KATL 271003Z 32006KT 8SM OVC004 23/21 A2994 RMK AO2=
200807270952 METAR KATL 270952Z 29004KT 7SM BKN006 BKN180 BKN250 22/21 A2994 RMK AO2 SLP127 T02220211=
200807270943 SPECI KATL 270943Z 28003KT 7SM BKN006 BKN180 BKN250 22/21 A2994 RMK AO2=
200807270943 SPECI KATL 270943Z 28003KT 7SM BKN006 BKN180 BKN250 22/21 A2994 RMK AO2=
200807270852 METAR KATL 270852Z 28003KT 7SM SCT008 SCT250 22/21 A2995 RMK AO2 SLP130 T02220211 55006=
200807270810 SPECI KATL 270810Z 23003KT 9SM FEW005 SCT250 23/21 A2994 RMK AO2=
200807270810 SPECI KATL 270810Z 23003KT 9SM FEW005 SCT250 23/21 A2994 RMK AO2=
200807270752 METAR KATL 270752Z 30008KT 9SM FEW250 23/21 A2994 RMK AO2 SLP126 T02280211=
200807270652 METAR KATL 270652Z 30005KT 9SM FEW250 23/21 A2994 RMK AO2 SLP129 T02280211=
200807270552 METAR KATL 270552Z 29003KT 9SM SCT250 23/22 A2997 RMK AO2 SLP137 T02330217 10250 20228 58004=
200807270452 METAR KATL 270452Z 27003KT 9SM FEW250 23/22 A2998 RMK AO2 SLP141 T02330217 403060222=
200807270352 METAR KATL 270352Z 23003KT 8SM FEW041 SCT100 BKN250 24/22 A2998 RMK AO2 SLP142 T02390222=
200807270252 METAR KATL 270252Z 00000KT 9SM FEW100 BKN200 24/22 A2998 RMK AO2 SLP141 T02440222 53001=
200807270152 METAR KATL 270152Z 00000KT 10SM SCT150 BKN200 24/22 A2998 RMK AO2 SLP141 T02440222=
200807270052 METAR KATL 270052Z 28003KT 8SM FEW110 SCT150 BKN200 24/22 A2997 RMK AO2 SLP140 T02440222=
200807262352 METAR KATL 262352Z 33005KT 8SM FEW028 SCT060 OVC250 25/22 A2998 RMK AO2 TSE21RAB04E33 SLP142 TS MOV E CB DSNT E P0000 60118 T02500222 10306 20239 51005=
200807262323 SPECI KATL 262323Z 31006KT 8SM -RA FEW028 BKN070 OVC250 25/22 A2997 RMK AO2 TSE21RAB04 FRQ LTGCG NE-SE AND SW TS MOV E CB DSNT NE-SE AND SW P0000=
200807262323 SPECI KATL 262323Z 31006KT 8SM -RA FEW028 BKN070 OVC250 25/22 A2997 RMK AO2 TSE21RAB04 FRQ LTGCG NE-SE AND SW TS MOV E CB DSNT NE-SE AND SW P0000=
200807262302 SPECI KATL 262302Z 00000KT 8SM TS FEW003 SCT038CB BKN070 BKN250 24/22 A2997 RMK AO2 OCNL LTGICCG TS VC NE-SE MOV E SHRA VC NE-SE=
200807262302 SPECI KATL 262302Z 00000KT 8SM TS FEW003 SCT038CB BKN070 BKN250 24/22 A2997 RMK AO2 OCNL LTGICCG TS VC NE-SE MOV E SHRA VC NE-SE=
200807262256 SPECI KATL 262256Z 00000KT 10SM TS FEW003 SCT020 BKN038CB OVC250 24/22 A2997 RMK AO2 OCNL LTGICCG TS E-SE MOV SE SHRA E-SE=
200807262256 SPECI KATL 262256Z 00000KT 10SM TS FEW003 SCT020 BKN038CB OVC250 24/22 A2997 RMK AO2 OCNL LTGICCG TS E-SE MOV SE SHRA E-SE=
200807262252 METAR KATL 262252Z 16003KT 10SM TS FEW003 SCT020 BKN038CB OVC250 25/21 A2997 RMK AO2 TSB10RAE50 SLP139 FRQ LTGICCG TS E-S MOV SE P0118 T02500211=
200807262250 SPECI KATL 262250Z 18004KT 10SM TS FEW003 SCT022CB BKN050 OVC250 24/21 A2997 RMK AO2 TSB10RAE50 CONS LTGICCG TS E-S MOV SE P0118=
200807262250 SPECI KATL 262250Z 18004KT 10SM TS FEW003 SCT022CB BKN050 OVC250 24/21 A2997 RMK AO2 TSB10RAE50 CONS LTGICCG TS E-S MOV SE P0118=
200807262242 SPECI KATL 262242Z 00000KT 7SM R09R/2800VP6000FT TSRA SCT003 BKN019CB OVC050 24/22 A2997 RMK AO2 TSB10 CONS LTGICCG TS OHD-SE-S MOV SE VIS SE-SW 1/2 P0118=
200807262242 SPECI KATL 262242Z 00000KT 7SM R09R/2800VP6000FT TSRA SCT003 BKN019CB OVC050 24/22 A2997 RMK AO2 TSB10 CONS LTGICCG TS OHD-SE-S MOV SE VIS SE-SW 1/2 P0118=
200807262228 SPECI KATL 262228Z 33010G19KT 1/2SM R09R/2200VP6000FT +TSRA FEW009 BKN023 OVC035CB 25/22 A2999 RMK AO2 TSB10 PRESRR OCNL LTGICCG TS OHD-ALQDS MOV SE P0057=
200807262228 SPECI KATL 262228Z 33010G19KT 1/2SM R09R/2200VP6000FT +TSRA FEW009 BKN023 OVC035CB 25/22 A2999 RMK AO2 TSB10 PRESRR OCNL LTGICCG TS OHD-ALQDS MOV SE P0057=
200807262223 SPECI KATL 262223Z 09007G14KT 050V120 5SM R09R/2600VP6000FT +TSRA FEW009 BKN035CB OVC080 24/22 A2998 RMK AO2 TSB10 OCNL LTGIC TS OHD-E-SE AND W MOV SE VIS E-S1/2 P0033=
200807262223 SPECI KATL 262223Z 09007G14KT 050V120 5SM R09R/2600VP6000FT +TSRA FEW009 BKN035CB OVC080 24/22 A2998 RMK AO2 TSB10 OCNL LTGIC TS OHD-E-SE AND W MOV SE VIS E-S1/2 P0033=
200807262214 SPECI KATL 262214Z 14010KT 3/4SM R09R/2800VP6000FT +TSRA FEW024 BKN035CB OVC080 26/23 A2997 RMK AO2 TSB10 OCNL LTGIC TS OHD-SE MOV SE P0014=
200807262214 SPECI KATL 262214Z 14010KT 3/4SM R09R/2800VP6000FT +TSRA FEW024 BKN035CB OVC080 26/23 A2997 RMK AO2 TSB10 OCNL LTGIC TS OHD-SE MOV SE P0014=
200807262211 SPECI KATL 262211Z 16007KT 2SM R09R/2800VP6000FT +TSRA FEW024 BKN035CB OVC080 26/22 A2997 RMK AO2 TSB10 OCNL LTGIC TS SE-OHD-W MOV SE P0005=
200807262211 SPECI KATL 262211Z 16007KT 2SM R09R/2800VP6000FT +TSRA FEW024 BKN035CB OVC080 26/22 A2997 RMK AO2 TSB10 OCNL LTGIC TS SE-OHD-W MOV SE P0005=
200807262152 METAR KATL 262152Z COR 20005KT 10SM -RA SCT035TCU SCT110 BKN150 BKN250 29/21 A2996 RMK AO2 RAB51 SLP134 TCU E-OHD-SW MOV SE P0000 T02940211=
200807262052 METAR KATL 262052Z 00000KT 10SM SCT030 BKN150 BKN250 29/21 A2998 RMK AO2 SLP140 CB DSNT NE TCU DSNT W 60000 T02940211 56024=
200807261952 METAR KATL 261952Z COR 29006KT 10SM SCT031TCU BKN150 BKN250 29/22 A2999 RMK AO2 RAE06 SLP145 TCU VC E CB DSNT N AND NE SHRA DSNT NW-N P0000 T02890217=
200807261852 METAR KATL 261852Z 25006KT 10SM -RA SCT028 SCT070 BKN150 BKN250 29/22 A3001 RMK AO2 RAB48 SLP152 LTG DSNT NW CB DSNT N AND NE AND NW P0000 T02890217=
200807261811 SPECI KATL 261811Z 27007KT 10SM SCT032CB SCT070 BKN150 BKN250 30/22 A3004 RMK AO2 CB VC SW-NW MOV E TCU DSNT NE=
200807261811 SPECI KATL 261811Z 27007KT 10SM SCT032CB SCT070 BKN150 BKN250 30/22 A3004 RMK AO2 CB VC SW-NW MOV E TCU DSNT NE=
200807261752 METAR KATL 261752Z 24004KT 10SM FEW030 SCT070 BKN150 BKN250 29/22 A3005 RMK AO2 SLP165 CB DSNT W-NW T02940217 10294 20239 58008=
200807261652 METAR KATL 261652Z 30005KT 10SM FEW030 SCT065 BKN075 BKN150 28/21 A3006 RMK AO2 SLP170 CB DSNT E T02830211=
200807261552 METAR KATL 261552Z 26005KT 9SM SCT040 SCT050 BKN065 BKN150 28/21 A3007 RMK AO2 SLP173 CB DSNT NE AND NW MOV E T02830206=
200807261452 METAR KATL 261452Z COR VRB04KT 7SM FEW025 SCT039 BKN150 BKN250 28/21 A3008 RMK AO2 SLP173 T02780211 56002=
200807261352 METAR KATL 261352Z 25003KT 6SM HZ SCT120 BKN150 BKN250 26/19 A3008 RMK AO2 SLP173 T02610194=
200807261252 METAR KATL 261252Z 00000KT 5SM HZ SCT120 BKN150 OVC250 24/20 A3008 RMK AO2 SLP174 T02440200=
200807261152 METAR KATL 261152Z 32003KT 5SM HZ SCT110 BKN150 OVC250 24/21 A3008 RMK AO2 SLP175 70001 T02390206 10250 20222 53004=
200807261052 METAR KATL 261052Z 00000KT 5SM HZ SCT130 BKN250 24/21 A3007 RMK AO2 SLP172 T02390206=
200807260952 METAR KATL 260952Z 00000KT 6SM BR FEW150 22/21 A3007 RMK AO2 SLP172 T02220206=
200807260852 METAR KATL 260852Z 30006KT 7SM SCT150 23/21 A3007 RMK AO2 SLP171 T02330211 55008=
200807260752 METAR KATL 260752Z COR 00000KT 7SM SCT150 25/20 A3006 RMK AO2 SLP170 T02500200=
200807260652 METAR KATL 260652Z 00000KT 7SM FEW100 BKN150 25/21 A3009 RMK AO2 SLP177 T02500211=
200807260552 METAR KATL 260552Z 00000KT 7SM FEW100 BKN150 25/21 A3010 RMK AO2 SLP180 T02500211 10278 20239 58006=
200807260452 METAR KATL 260452Z 00000KT 8SM FEW090 BKN150 25/21 A3011 RMK AO2 SLP184 T02500211 403170217=
200807260352 METAR KATL 260352Z 29003KT 7SM BKN150 24/22 A3011 RMK AO2 SLP186 T02390217=
200807260252 METAR KATL 260252Z 24003KT 7SM BKN150 BKN250 26/22 A3011 RMK AO2 SLP186 T02560217 53002=
200807260152 METAR KATL 260152Z 20004KT 7SM BKN140 OVC200 27/21 A3010 RMK AO2 SLP182 T02670211=
200807260052 METAR KATL 260052Z 00000KT 8SM BKN140 BKN200 28/19 A3009 RMK AO2 SLP179 T02780194=
200807252352 SPECI KATL 252352Z 00000KT 7SM SCT120 BKN150 OVC200 28/20 A3011 RMK AO2 SLP184 60001 T02780200 10317 20256 58002=
200807252252 METAR KATL 252252Z 02004KT 8SM FEW090 BKN120 BKN150 27/20 A3011 RMK AO2 RAB24E38 SLP186 P0000 T02720200=
200807252152 METAR KATL 252152Z 35006KT 10SM FEW050 SCT080 BKN120 OVC150 29/18 A3012 RMK AO2 SLP189 CB DSNT SW T02890178=
200807252052 METAR KATL 252052Z 03005KT 9SM FEW110 SCT150 SCT250 31/18 A3011 RMK AO2 SLP186 CB DSNT W-NW MOV SE 60001 T03060178 58010=
200807251952 METAR KATL 251952Z 02005KT 9SM FEW110 BKN150 BKN250 29/19 A3012 RMK AO2 TSE00RAE19 SLP190 CB DSNT N MOV SE SHRA DSNT N P0001 T02940194=
200807251918 SPECI KATL 251918Z 33009KT 8SM -RA FEW025 SCT043 BKN110 OVC150 26/22 A3014 RMK AO2 TSE00 VIS LWR N-NE S SHRA TS DSIPT BINOVC NW P0001=
200807251918 SPECI KATL 251918Z 33009KT 8SM -RA FEW025 SCT043 BKN110 OVC150 26/22 A3014 RMK AO2 TSE00 VIS LWR N-NE S SHRA TS DSIPT BINOVC NW P0001=
200807251910 SPECI KATL 251910Z 32012G18KT 8SM -RA BKN025 BKN043 BKN110 OVC150 26/22 A3014 RMK AO2 TSE00 VIS LWR NE-SE SHRA TS DSIPT P0001=
200807251910 SPECI KATL 251910Z 32012G18KT 8SM -RA BKN025 BKN043 BKN110 OVC150 26/22 A3014 RMK AO2 TSE00 VIS LWR NE-SE SHRA TS DSIPT P0001=
200807251900 SPECI KATL 251900Z 31009KT 6SM -RA SCT045CB BKN110 OVC150 28/21 A3014 RMK AO2 TSE00 CB VC N SW MOV SSE TS DSIPT P0000=
200807251900 SPECI KATL 251900Z 31009KT 6SM -RA SCT045CB BKN110 OVC150 28/21 A3014 RMK AO2 TSE00 CB VC N SW MOV SSE TS DSIPT P0000=
200807251852 METAR KATL 251852Z 28007KT 9SM -TSRA FEW040CB BKN110 BKN150 BKN250 28/20 A3013 RMK AO2 TSB26RAB47 SLP193 OCNL LTGICCG TS 8SM VC W 6SM VC NW MOV SSE CB VC W NW MOV SSE P0000 T02830200=
200807251837 SPECI KATL 251837Z 28004KT 9SM TS SCT040CB BKN048 BKN150 BKN250 29/19 A3014 RMK AO2 TSB26 FRQ LTGICCG TS 8SM VC W 6SM VC NW MOV SSE CB VC W NW MOV SSE SHRA VC W NW=
200807251837 SPECI KATL 251837Z 28004KT 9SM TS SCT040CB BKN048 BKN150 BKN250 29/19 A3014 RMK AO2 TSB26 FRQ LTGICCG TS 8SM VC W 6SM VC NW MOV SSE CB VC W NW MOV SSE SHRA VC W NW=
200807251826 SPECI KATL 251826Z 18004KT 9SM TS SCT038CB BKN048 BKN150 BKN250 29/20 A3013 RMK AO2 TSB26 FRQ LTGICCG TS 10SM VC NW MOV SSE CB VC NW MOV SSE SHRA VC NW=
200807251826 SPECI KATL 251826Z 18004KT 9SM TS SCT038CB BKN048 BKN150 BKN250 29/20 A3013 RMK AO2 TSB26 FRQ LTGICCG TS 10SM VC NW MOV SSE CB VC NW MOV SSE SHRA VC NW=
200807251814 SPECI KATL 251814Z 00000KT 9SM SCT040 BKN150 BKN250 29/20 A3014 RMK AO2 LTG DSNT NW TS 12SM DSNT NW MOV SE CB DSNT NW=
200807251814 SPECI KATL 251814Z 00000KT 9SM SCT040 BKN150 BKN250 29/20 A3014 RMK AO2 LTG DSNT NW TS 12SM DSNT NW MOV SE CB DSNT NW=
200807251752 METAR KATL 251752Z 00000KT 10SM FEW040 BKN150 BKN250 29/19 A3014 RMK AO2 SLP197 CB DSNT NW MOV SE T02890194 10294 20239 58001=
200807251652 METAR KATL 251652Z VRB03KT 10SM FEW030 SCT050 BKN150 29/21 A3015 RMK AO2 SLP200 T02890206=
200807251552 METAR KATL 251552Z 22004KT 10SM FEW090 BKN150 BKN250 28/19 A3015 RMK AO2 SLP200 T02780194=
200807251452 METAR KATL 251452Z 21006KT 10SM FEW090 BKN150 BKN250 27/18 A3015 RMK AO2 SLP198 T02720178 50004=
200807251352 METAR KATL 251352Z 16003KT 10SM FEW090 BKN150 BKN250 27/14 A3015 RMK AO2 SLP200 T02670139=
200807251252 METAR KATL 251252Z 00000KT 9SM BKN180 BKN250 26/17 A3015 RMK AO2 SLP198 T02560167=
200807251152 METAR KATL 251152Z 00000KT 10SM BKN180 BKN250 24/16 A3013 RMK AO2 SLP193 T02390161 10239 20217 51012=
200807251052 METAR KATL 251052Z 00000KT 10SM FEW065 SCT150 BKN200 23/16 A3013 RMK AO2 SLP192 T02280156 $=
200807250952 METAR KATL 250952Z 00000KT 10SM SCT070 BKN150 BKN200 23/15 A3011 RMK AO2 SLP184 T02330150 $=
200807250852 METAR KATL 250852Z 00000KT 10SM SCT250 23/14 A3010 RMK AO2 SLP181 T02330139 53001 $=
200807250752 METAR KATL 250752Z 00000KT 10SM SCT250 22/15 A3009 RMK AO2 SLP178 T02220150=
200807250652 METAR KATL 250652Z 29003KT 10SM SCT250 23/14 A3009 RMK AO2 SLP178 T02330144=
200807250552 METAR KATL 250552Z 00000KT 10SM FEW200 23/15 A3009 RMK AO2 SLP180 T02280150 10289 20228 58003=
200807250452 METAR KATL 250452Z 00000KT 10SM FEW200 26/12 A3010 RMK AO2 SLP182 T02560117 403110211=
200807250352 METAR KATL 250352Z 09003KT 10SM FEW200 SCT250 27/11 A3010 RMK AO2 SLP182 T02670106=
200807250252 METAR KATL 250252Z 00000KT 10SM SCT200 BKN250 26/14 A3010 RMK AO2 SLP183 T02610144 53013=
200807250152 METAR KATL 250152Z 02007KT 10SM BKN200 BKN250 28/11 A3008 RMK AO2 SLP176 T02780106=
200807250052 METAR KATL 250052Z 36007KT 10SM BKN180 BKN250 28/14 A3007 RMK AO2 SLP173 T02830139=
200807242352 METAR KATL 242352Z 35007KT 10SM BKN180 OVC250 29/14 A3006 RMK AO2 SLP169 T02890144 10311 20289 53004=
200807242252 METAR KATL 242252Z 35007KT 10SM BKN200 OVC250 29/15 A3005 RMK AO2 SLP167 T02940150=
200807242152 METAR KATL 242152Z 33007KT 300V360 10SM FEW060 BKN200 BKN250 30/15 A3005 RMK AO2 SLP166 T03000150=
200807242052 METAR KATL 242052Z 31010G17KT 10SM FEW065 BKN200 BKN250 31/14 A3005 RMK AO2 SLP165 T03060144 58008=
200807241952 METAR KATL 241952Z VRB04KT 10SM FEW065 SCT200 BKN250 31/16 A3006 RMK AO2 SLP167 T03060156=
200807241852 METAR KATL 241852Z 30008KT 10SM FEW065 SCT200 BKN250 31/16 A3007 RMK AO2 SLP173 T03060156=
200807241752 METAR KATL 241752Z VRB06G14KT 9SM SCT060 SCT250 31/15 A3008 RMK AO2 SLP173 T03060150 10306 20228 58006=
200807241652 METAR KATL 241652Z COR 35008KT 10SM SCT060 30/15 A3010 RMK AO2 SLP180 T03000150=
200807241552 METAR KATL 241552Z COR 18004KT 10SM FEW050 28/15 A3010 RMK AO2 SLP182 T02780150=
200807241452 METAR KATL 241452Z 20004KT 10SM FEW250 27/16 A3009 RMK AO2 SLP180 T02720161 53013=
200807241352 METAR KATL 241352Z 13003KT 10SM FEW250 26/17 A3008 RMK AO2 SLP176 T02610172=
200807241252 METAR KATL 241252Z 06004KT 10SM CLR 24/19 A3006 RMK AO2 SLP169 T02440189=
200807241152 METAR KATL 241152Z 35004KT 7SM FEW250 23/20 A3005 RMK AO2 SLP167 T02280200 10228 20211 51018=
200807241052 METAR KATL 241052Z 33005KT 6SM BR FEW020 SCT180 21/19 A3005 RMK AO2 SLP165 T02110194=
200807240952 METAR KATL 240952Z 31006KT 10SM CLR 22/19 A3001 RMK AO2 SLP153 T02170194=
200807240852 METAR KATL 240852Z 35006KT 10SM CLR 22/19 A3000 RMK AO2 SLP148 T02170194 56008=
200807240752 METAR KATL 240752Z 33010KT 10SM SCT180 22/19 A3000 RMK AO2 SLP149 T02220194=
200807240652 METAR KATL 240652Z 31010KT 10SM SCT060 BKN180 22/19 A3001 RMK AO2 SLP153 T02220189=
200807240552 METAR KATL 240552Z 29009KT 8SM BKN060 BKN075 23/19 A3003 RMK AO2 SLP157 60000 T02280194 10278 20228 50005=
200807240452 METAR KATL 240452Z 26006KT 10SM FEW080 SCT250 23/19 A3003 RMK AO2 SLP159 T02330194 403060206=
200807240352 METAR KATL 240352Z 22006KT 10SM SCT018 SCT040 BKN080 BKN200 24/21 A3003 RMK AO2 SLP157 T02440211=
200807240252 METAR KATL 240252Z 31007KT 10SM FEW100 SCT150 BKN250 25/21 A3001 RMK AO2 SLP152 FRQ LTG DSNT S-SW 60000 T02500211 53007=
200807240152 METAR KATL 240152Z 28003KT 10SM FEW100 SCT150 BKN200 BKN250 26/21 A2999 RMK AO2 RAE34 SLP144 P0000 T02610211=
200807240052 METAR KATL 240052Z 25004KT 9SM -RA FEW070 SCT120 BKN150 OVC200 27/20 A2997 RMK AO2 RAB52 SLP140 CBMAM W-N P0000 T02720200=
200807232352 METAR KATL 232352Z 27006KT 9SM FEW040 SCT200 BKN250 28/19 A2999 RMK AO2 PRESRR SLP145 T02780194 10306 20272 53006=
200807232252 METAR KATL 232252Z 26006KT 9SM FEW045 29/19 A2996 RMK AO2 SLP135 T02940189=
200807232152 METAR KATL 232152Z 32009KT 9SM FEW045 30/18 A2997 RMK AO2 SLP137 T03000183=
200807232052 METAR KATL 232052Z 33010KT 7SM FEW040 30/19 A2997 RMK AO2 SLP138 T03000194 58020=
200807231952 METAR KATL 231952Z 31009KT 7SM FEW030 29/20 A3000 RMK AO2 SLP147 T02890200=
200807231852 METAR KATL 231852Z 29008KT 6SM HZ FEW027 SCT095 BKN150 28/21 A3002 RMK AO2 SLP154 T02830206=
200807231830 SPECI KATL 231830Z 29010KT 6SM HZ SCT027 BKN150 BKN250 27/21 A3002 RMK AO2=
200807231830 SPECI KATL 231830Z 29010KT 6SM HZ SCT027 BKN150 BKN250 27/21 A3002 RMK AO2=
200807231808 SPECI KATL 231808Z 31008KT 6SM HZ SCT027 28/21 A3002 RMK AO2=
200807231808 SPECI KATL 231808Z 31008KT 6SM HZ SCT027 28/21 A3002 RMK AO2=
200807231752 METAR KATL 231752Z 30006KT 8SM BKN025 BKN150 BKN250 27/21 A3003 RMK AO2 SLP160 T02720206 10272 20211 58011=
200807231711 SPECI KATL 231711Z 33010KT 9SM SCT029 BKN150 BKN250 27/21 A3005 RMK AO2=
200807231711 SPECI KATL 231711Z 33010KT 9SM SCT029 BKN150 BKN250 27/21 A3005 RMK AO2=
200807231659 SPECI KATL 231659Z 29008KT 9SM FEW022 BKN027 BKN150 BKN250 27/21 A3005 RMK AO2=
200807231659 SPECI KATL 231659Z 29008KT 9SM FEW022 BKN027 BKN150 BKN250 27/21 A3005 RMK AO2=
200807231652 METAR KATL 231652Z 30009KT 9SM SCT022 BKN150 BKN250 27/21 A3005 RMK AO2 SLP167 T02670206=
200807231552 METAR KATL 231552Z 29009KT 9SM BKN020 BKN080 BKN250 26/21 A3006 RMK AO2 SLP169 T02560206=
200807231452 METAR KATL 231452Z 29005KT 8SM FEW020 SCT080 BKN150 BKN250 24/19 A3006 RMK AO2 SLP171 T02440194 51006=
200807231352 METAR KATL 231352Z 27007KT 9SM FEW020 BKN080 BKN250 23/19 A3006 RMK AO2 SLP171 T02330194=
200807231252 METAR KATL 231252Z 00000KT 6SM HZ FEW075 SCT140 BKN250 22/19 A3005 RMK AO2 SLP169 T02220194=
200807231152 METAR KATL 231152Z 28005KT 6SM HZ FEW075 BKN140 22/19 A3004 RMK AO2 SLP167 70016 T02170189 10217 20206 53010=
200807231052 METAR KATL 231052Z 29005KT 7SM FEW075 BKN140 BKN250 21/19 A3003 RMK AO2 SLP162 T02060189=
200807230952 METAR KATL 230952Z 27004KT 6SM BR SCT140 OVC200 21/19 A3002 RMK AO2 SLP154 T02110189=
200807230852 METAR KATL 230852Z 26003KT 7SM SCT140 OVC200 21/19 A3001 RMK AO2 SLP152 T02110189 53000=
200807230752 METAR KATL 230752Z 29004KT 7SM BKN140 OVC250 21/19 A3001 RMK AO2 SLP151 T02110189=
200807230652 METAR KATL 230652Z 28006KT 7SM SCT120 BKN140 OVC200 21/19 A3000 RMK AO2 SLP148 T02110189=
200807230552 METAR KATL 230552Z 22003KT 7SM BKN140 OVC200 22/19 A3001 RMK AO2 SLP151 60009 T02170194 10228 20217 58006=
200807230452 METAR KATL 230452Z 24004KT 9SM FEW090 BKN140 OVC200 22/19 A3004 RMK AO2 SLP162 T02170194 403330211=
200807230352 METAR KATL 230352Z 24004KT 9SM BKN085 BKN120 OVC150 22/19 A3005 RMK AO2 SLP167 T02170194=
200807230252 METAR KATL 230252Z 27005KT 10SM SCT150 BKN200 OVC250 22/19 A3003 RMK AO2 SLP159 60009 T02170194 50003=
200807230152 METAR KATL 230152Z 27006KT 10SM FEW090 SCT120 BKN150 OVC200 22/20 A3005 RMK AO2 RAE40 SLP165 P0000 T02170200=
200807230052 METAR KATL 230052Z 09008KT 9SM -RA SCT075 BKN120 OVC150 22/19 A3005 RMK AO2 TSE25 SLP167 TS DSIPTD OCNL LTG DSNT SE P0009 T02220194=
200807230025 SPECI KATL 230025Z 00000KT 7SM -RA FEW035 BKN060 BKN100 OVC150 22/19 A3003 RMK AO2 TSE25 TS DSIPTD P0008=
200807230025 SPECI KATL 230025Z 00000KT 7SM -RA FEW035 BKN060 BKN100 OVC150 22/19 A3003 RMK AO2 TSE25 TS DSIPTD P0008=
200807222352 METAR KATL 222352Z COR 33014KT 7SM -TSRA FEW035CB SCT060 BKN090 OVC150 22/19 A3002 RMK AO2 PK WND 34030/2300 SLP159 OCNL LTGICCA TS W-NW MOV E P0002 60007 T02170194 10333 20217 50023=
200807222252 METAR KATL 222252Z 31015KT 5SM TSRA SCT035CB BKN060 BKN100 OVC150 22/19 A3002 RMK AO2 PK WND 29038/2232 TSB06RAB18 PRESRR SLP160 FRQ LTGICCGCA TS VC NE-SE MOV SE P0005 T02220194=
200807222225 SPECI KATL 222225Z 30020G28KT 7SM -TSRA FEW008 SCT035CB BKN070 OVC200 24/20 A2999 RMK AO2 PK WND 29034/2214 TSB06RAB18 FRQ LTGICCG TS SW-NW MOV SE TCU N-E-S P0000=
200807222225 SPECI KATL 222225Z 30020G28KT 7SM -TSRA FEW008 SCT035CB BKN070 OVC200 24/20 A2999 RMK AO2 PK WND 29034/2214 TSB06RAB18 FRQ LTGICCG TS SW-NW MOV SE TCU N-E-S P0000=
200807222206 SPECI KATL 222206Z 25016G23KT 8SM TS FEW045CB SCT070 BKN150 OVC200 31/22 A2998 RMK AO2 TSB06 PRESRR FRQ LTGICCG TS VC W-NW MOV SE=
200807222206 SPECI KATL 222206Z 25016G23KT 8SM TS FEW045CB SCT070 BKN150 OVC200 31/22 A2998 RMK AO2 TSB06 PRESRR FRQ LTGICCG TS VC W-NW MOV SE=
200807222152 METAR KATL 222152Z 22011KT 8SM FEW045TCU SCT150 OVC200 32/21 A2995 RMK AO2 SLP132 TCU VC W CB DSNT SW-NW T03170211=
200807222052 METAR KATL 222052Z 15003KT 7SM FEW050 SCT200 SCT250 33/20 A2995 RMK AO2 SLP131 CB DSNT S-NW MOV SE TCU DSNT NE T03280200 56029=
200807221952 METAR KATL 221952Z VRB03KT 7SM FEW250 33/19 A2997 RMK AO2 SLP135 CB DSNT SW NW MOV SE T03330194=
200807221852 METAR KATL 221852Z 00000KT 8SM FEW080 BKN150 BKN250 32/20 A3000 RMK AO2 SLP148 T03170200=
200807221752 METAR KATL 221752Z VRB03KT 9SM FEW100 BKN150 BKN250 30/20 A3004 RMK AO2 SLP162 T03000200 10306 20222 58002=
200807221652 METAR KATL 221652Z 29004KT 9SM FEW100 BKN150 BKN250 31/20 A3005 RMK AO2 SLP166 T03060200=
200807221552 METAR KATL 221552Z 00000KT 9SM FEW110 SCT150 BKN250 29/20 A3005 RMK AO2 SLP166 T02940200=
200807221452 METAR KATL 221452Z 31007KT 10SM FEW090 SCT150 SCT250 28/19 A3005 RMK AO2 SLP164 T02780194 53005=
200807221352 METAR KATL 221352Z VRB05KT 10SM FEW150 SCT200 BKN250 26/19 A3004 RMK AO2 SLP161 T02560194=
200807221252 METAR KATL 221252Z 33007KT 9SM SCT140 BKN250 24/19 A3003 RMK AO2 SLP158 T02390194=
200807221152 METAR KATL 221152Z 28003KT 7SM FEW140 SCT180 BKN250 22/19 A3003 RMK AO2 SLP158 70009 T02170194 10222 20211 53005=
200807221052 METAR KATL 221052Z 28006KT 6SM BR SCT140 SCT180 21/19 A3003 RMK AO2 SLP156 T02110194=
200807220952 METAR KATL 220952Z 33004KT 9SM BKN140 OVC200 22/19 A3002 RMK AO2 SLP152 T02170194 $=
200807220852 METAR KATL 220852Z 32006KT 8SM BKN140 OVC200 22/19 A3002 RMK AO2 SLP152 T02220194 55016 $=
200807220752 METAR KATL 220752Z 26005KT 8SM BKN150 OVC200 22/19 A3001 RMK AO2 SLP151 T02170194 $=
200807220659 SPECI KATL 220659Z 18008KT 7SM FEW006 SCT080 BKN150 OVC200 22/20 A3002 RMK AO2 $=
200807220659 SPECI KATL 220659Z 18008KT 7SM FEW006 SCT080 BKN150 OVC200 22/20 A3002 RMK AO2 $=
200807220652 METAR KATL 220652Z 17006KT 7SM SCT080 BKN150 OVC200 22/20 A3002 RMK AO2 SLP154 T02170200 $=
200807220552 METAR KATL 220552Z 18010KT 8SM FEW080 SCT150 OVC200 22/19 A3006 RMK AO2 SLP168 60009 T02170194 10328 20217 56020 $=
200807220452 METAR KATL 220452Z 17006KT 10SM FEW120 SCT150 OVC200 23/19 A3007 RMK AO2 WSHFT 0352 SLP172 T02280194 403500228 $=
200807220412 SPECI KATL 220412Z 03006KT 10SM FEW120 SCT150 OVC200 23/19 A3009 RMK AO2 WSHFT 0352 $=
200807220412 SPECI KATL 220412Z 03006KT 10SM FEW120 SCT150 OVC200 23/19 A3009 RMK AO2 WSHFT 0352 $=
200807220352 METAR KATL 220352Z 04012G19KT 10SM FEW100 BKN150 BKN250 23/19 A3007 RMK AO2 PK WND 07034/0256 TSE45RAE45 SLP170 TS DSIPTD FRQ LTG DSNT S-SW P0009 T02330194 $=
200807220345 SPECI KATL 220345Z 06014KT 10SM FEW100 BKN150 BKN250 23/19 A3007 RMK AO2 PK WND 07034/0256 TSE45RAE45 TS DSIPTD FRQ LTG DSNT S-SW P0009 $=
200807220345 SPECI KATL 220345Z 06014KT 10SM FEW100 BKN150 BKN250 23/19 A3007 RMK AO2 PK WND 07034/0256 TSE45RAE45 TS DSIPTD FRQ LTG DSNT S-SW P0009 $=
200807220252 METAR KATL 220252Z COR 06021G34KT 7SM -TSRA FEW030 BKN050CB OVC080 24/20 A3012 RMK AO2 PK WND 05037/0234 WSHFT 0214 TSB27RAB41 SLP189 FRQ LTGICCG TS SE-SW-NW AND VC NE MOV S P0000 60000 T02440200 53051 $=
200807220231 SPECI KATL 220231Z 04021G28KT 10SM TS FEW050CB BKN065 OVC080 32/17 A3006 RMK AO2 PK WND 03028/0230 WSHFT 0214 TSB27 PRESRR FRQ LTGICCG TS VC NW AND DSNT NE MOV S $=
200807220231 SPECI KATL 220231Z 04021G28KT 10SM TS FEW050CB BKN065 OVC080 32/17 A3006 RMK AO2 PK WND 03028/0230 WSHFT 0214 TSB27 PRESRR FRQ LTGICCG TS VC NW AND DSNT NE MOV S $=
200807220227 SPECI KATL 220227Z 03022G28KT 10SM TS FEW050CB BKN065 OVC080 32/17 A3004 RMK AO2 PK WND 03028/0227 TSB27 PRESRR FRQ LTGICCG TS VC NW AND DSNT NE MOV S $=
200807220227 SPECI KATL 220227Z 03022G28KT 10SM TS FEW050CB BKN065 OVC080 32/17 A3004 RMK AO2 PK WND 03028/0227 TSB27 PRESRR FRQ LTGICCG TS VC NW AND DSNT NE MOV S $=
200807220152 METAR KATL 220152Z 34004KT 10SM FEW150 32/19 A3000 RMK AO2 SLP147 FRQ LTG DSNT NE-SE T03220194 $=
200807220052 METAR KATL 220052Z 30006KT 9SM FEW100 32/19 A2998 RMK AO2 SLP141 CB DSNT E-SE T03170189 $=
200807212352 METAR KATL 212352Z 27005KT 10SM FEW060 32/19 A2997 RMK AO2 SLP135 TCU DSNT NE-E T03220189 10350 20322 55003 $=
200807212252 METAR KATL 212252Z 32005KT 10SM FEW060 34/18 A2996 RMK AO2 SLP134 TCU DSNT NE T03390183 $=
200807212152 METAR KATL 212152Z 28006KT 10SM FEW065 34/19 A2996 RMK AO2 SLP134 T03440194 $=
200807212052 METAR KATL 212052Z 28006KT 10SM FEW065 34/19 A2998 RMK AO2 SLP137 T03440189 58024=
200807211952 METAR KATL 211952Z VRB04KT 9SM FEW065 34/19 A3000 RMK AO2 SLP146 T03440194=
200807211852 METAR KATL 211852Z VRB04KT 9SM FEW060 34/19 A3002 RMK AO2 SLP154 T03390189=
200807211752 METAR KATL 211752Z 28007KT 8SM FEW055 33/20 A3005 RMK AO2 SLP162 T03330200 10339 20250 58007=
200807211652 METAR KATL 211652Z 35011KT 7SM FEW050 SCT250 33/20 A3006 RMK AO2 SLP165 T03280200=
200807211552 METAR KATL 211552Z 30007KT 270V350 7SM FEW250 32/21 A3007 RMK AO2 SLP168 T03170211=
200807211452 METAR KATL 211452Z VRB05KT 6SM HZ FEW250 31/20 A3007 RMK AO2 SLP169 T03060200 50010=
200807211352 METAR KATL 211352Z 32008KT 6SM HZ SCT250 28/19 A3007 RMK AO2 SLP171 T02830194=
200807211252 METAR KATL 211252Z 33007KT 6SM HZ FEW120 SCT250 27/19 A3006 RMK AO2 SLP167 T02670189=
200807211152 METAR KATL 211152Z 29004KT 5SM HZ SCT250 25/19 A3004 RMK AO2 SLP159 T02500189 10261 20233 53007=
200807211052 METAR KATL 211052Z 27005KT 5SM HZ FEW075 SCT180 24/18 A3002 RMK AO2 SLP155 T02390183=
200807210952 METAR KATL 210952Z 27004KT 7SM FEW250 23/19 A3001 RMK AO2 SLP150 T02330189=
200807210852 METAR KATL 210852Z 00000KT 7SM CLR 24/19 A3001 RMK AO2 SLP150 T02440194 58007=
200807210752 METAR KATL 210752Z 22003KT 7SM CLR 24/19 A3002 RMK AO2 SLP153 T02440194=
200807210652 METAR KATL 210652Z 00000KT 7SM CLR 26/19 A3003 RMK AO2 SLP156 T02560189=
200807210552 METAR KATL 210552Z 00000KT 7SM CLR 26/19 A3004 RMK AO2 SLP158 T02610189 10317 20261 57008=
200807210452 METAR KATL 210452Z 32005KT 7SM CLR 27/19 A3004 RMK AO2 SLP161 T02670189 403440228=
200807210352 METAR KATL 210352Z 33007KT 7SM CLR 28/19 A3005 RMK AO2 SLP164 T02780189=
200807210252 METAR KATL 210252Z 33006KT 8SM FEW120 28/18 A3006 RMK AO2 SLP166 T02830183 53009=
200807210152 METAR KATL 210152Z 33005KT 8SM FEW120 29/18 A3004 RMK AO2 SLP160 T02940178=
200807210052 METAR KATL 210052Z 32004KT 6SM HZ FEW150 31/17 A3003 RMK AO2 SLP157 T03060172=
200807202352 METAR KATL 202352Z 34006KT 6SM HZ FEW150 32/17 A3003 RMK AO2 SLP158 T03170167 10344 20317 57007 $=
200807202252 METAR KATL 202252Z 34009G14KT 6SM HZ FEW150 33/17 A3004 RMK AO2 SLP159 T03280167=
200807202152 METAR KATL 202152Z 35009KT 7SM FEW070 SCT100 SCT150 33/15 A3005 RMK AO2 SLP163 T03330150=
200807202052 METAR KATL 202052Z VRB05KT 7SM FEW075 SCT150 34/16 A3005 RMK AO2 SLP165 T03390156 58016=
200807201952 METAR KATL 201952Z 33009G15KT 290V350 7SM FEW075 SCT150 34/15 A3007 RMK AO2 SLP171 T03390150=
200807201852 METAR KATL 201852Z 35011G16KT 6SM HZ FEW075 SCT150 34/15 A3009 RMK AO2 SLP177 T03390150=
200807201752 METAR KATL 201752Z 35008KT 6SM HZ FEW065 33/17 A3010 RMK AO2 SLP181 T03280167 10333 20244 58006=
200807201652 METAR KATL 201652Z 31010KT 6SM HZ FEW060 32/17 A3011 RMK AO2 SLP183 T03220172=
200807201552 METAR KATL 201552Z 32009KT 6SM HZ CLR 31/18 A3012 RMK AO2 SLP186 T03110183=
200807201452 METAR KATL 201452Z 32009KT 6SM HZ CLR 30/18 A3012 RMK AO2 SLP187 T03000183 50005=
200807201352 METAR KATL 201352Z 31009KT 8SM CLR 28/18 A3012 RMK AO2 SLP188 T02780183=
200807201252 METAR KATL 201252Z 32008KT 7SM SCT120 26/17 A3012 RMK AO2 SLP187 T02560172=
200807201152 METAR KATL 201152Z 33005KT 6SM HZ BKN120 24/17 A3010 RMK AO2 SLP183 T02440167 10250 20228 52014=
200807201052 METAR KATL 201052Z 33006KT 6SM HZ BKN120 24/17 A3009 RMK AO2 SLP179 T02390172=
200807200952 METAR KATL 200952Z 32005KT 7SM BKN120 23/17 A3007 RMK AO2 SLP171 T02280172=
200807200852 METAR KATL 200852Z 31004KT 7SM BKN110 23/17 A3006 RMK AO2 SLP167 T02330172 53002=
200807200752 METAR KATL 200752Z 30004KT 7SM SCT110 24/17 A3004 RMK AO2 SLP162 T02390172=
200807200652 METAR KATL 200652Z 30005KT 8SM FEW110 24/17 A3004 RMK AO2 SLP162 T02390172=
200807200552 METAR KATL 200552Z 30004KT 8SM FEW110 25/17 A3006 RMK AO2 SLP166 T02500167 10300 20250 50000=
200807200452 METAR KATL 200452Z 31004KT 8SM SCT100 27/16 A3006 RMK AO2 SLP167 T02670161 403280222=
200807200352 METAR KATL 200352Z 32005KT 8SM FEW120 27/17 A3007 RMK AO2 SLP170 T02670172=
200807200252 METAR KATL 200252Z 32005KT 9SM FEW120 27/17 A3006 RMK AO2 SLP166 T02720167 53008 $=
200807200152 METAR KATL 200152Z 31005KT 9SM CLR 28/17 A3004 RMK AO2 SLP161 T02780167=
200807200052 METAR KATL 200052Z 31006KT 7SM FEW070 29/16 A3004 RMK AO2 SLP160 T02890161=
200807192352 METAR KATL 192352Z 28005KT 7SM FEW070 30/16 A3003 RMK AO2 SLP158 T03000161 10328 20300 55006=
200807192252 METAR KATL 192252Z 29007KT 7SM FEW070 31/14 A3003 RMK AO2 SLP156 T03060144=
200807192152 METAR KATL 192152Z 28006KT 7SM FEW065 32/14 A3003 RMK AO2 SLP160 MDT CU DSNT E T03220144=
200807192052 METAR KATL 192052Z 01006KT 7SM FEW065 SCT150 32/14 A3005 RMK AO2 SLP163 T03220139 56014=
200807191952 METAR KATL 191952Z 32009KT 9SM SCT065 SCT080 BKN150 32/16 A3007 RMK AO2 SLP169 CB DSNT NE-SE TCU DSNT W T03220161=
200807191852 METAR KATL 191852Z 31007KT 9SM SCT065 BKN150 32/16 A3007 RMK AO2 SLP173 CB DSNT NE-E AND SE T03170156=
200807191752 METAR KATL 191752Z VRB03KT 9SM SCT055CB BKN150 31/17 A3009 RMK AO2 SLP178 CB VC NE-SE AND DSNT NE AND DSNT SE MOV E T03110172 10311 20239 58006=
200807191727 SPECI KATL 191727Z 30004KT 9SM SCT050CB BKN110 30/18 A3010 RMK AO2 CB VC NE-DSNT NE AND DSNT S MOV E TCU DSNT E AND NW=
200807191727 SPECI KATL 191727Z 30004KT 9SM SCT050CB BKN110 30/18 A3010 RMK AO2 CB VC NE-DSNT NE AND DSNT S MOV E TCU DSNT E AND NW=
200807191652 METAR KATL 191652Z 25004KT 9SM SCT040TCU BKN048 BKN095 29/19 A3011 RMK AO2 SLP184 TCU OHD AND DSNT NE E S AND SW T02890189=
200807191552 METAR KATL 191552Z 16004KT 10SM SCT035TCU BKN050 29/19 A3012 RMK AO2 SLP186 TCU OHD AND VC S AND DSNT N AND NW T02890189=
200807191452 METAR KATL 191452Z 00000KT 9SM CLR 29/20 A3011 RMK AO2 SLP184 T02890200 51007=
200807191352 METAR KATL 191352Z 00000KT 9SM FEW150 27/19 A3011 RMK AO2 SLP183 T02720194=
200807191252 METAR KATL 191252Z 04005KT 8SM FEW070 SCT140 26/18 A3010 RMK AO2 SLP182 T02560183=
200807191152 METAR KATL 191152Z 02005KT 8SM SCT070 BKN150 24/17 A3009 RMK AO2 SLP178 T02390172 10244 20222 53012=
200807191052 METAR KATL 191052Z 35005KT 7SM BKN065 23/17 A3008 RMK AO2 SLP174 T02280167=
200807190952 METAR KATL 190952Z 33005KT 8SM FEW070 22/17 A3006 RMK AO2 SLP169 T02220172=
200807190852 METAR KATL 190852Z 31003KT 9SM FEW080 23/17 A3005 RMK AO2 SLP166 T02280172 53003=
200807190752 METAR KATL 190752Z 33005KT 9SM FEW150 23/17 A3004 RMK AO2 SLP161 T02280167=
200807190652 METAR KATL 190652Z 32004KT 9SM FEW080 SCT150 23/17 A3004 RMK AO2 SLP161 T02280172=
200807190552 METAR KATL 190552Z 33004KT 10SM FEW150 24/17 A3005 RMK AO2 SLP163 T02390167 10300 20233 58002 $=
200807190452 METAR KATL 190452Z 00000KT 10SM FEW150 26/16 A3005 RMK AO2 SLP164 T02560161 403220217=
200807190352 METAR KATL 190352Z 02005KT 10SM FEW150 28/14 A3005 RMK AO2 SLP164 T02780144=
200807190252 METAR KATL 190252Z 01006KT 10SM FEW200 28/14 A3005 RMK AO2 SLP164 T02830144 53006=
200807190152 METAR KATL 190152Z 36007KT 10SM FEW150 SCT200 29/14 A3004 RMK AO2 SLP160 T02890139=
200807190052 METAR KATL 190052Z 35008KT 10SM FEW150 SCT200 29/15 A3004 RMK AO2 SLP160 T02890150=
200807182352 METAR KATL 182352Z COR 34010KT 10SM SCT150 30/14 A3003 RMK AO2 SLP158 T03000144 10322 20289 55003=
200807182252 METAR KATL 182252Z 32009KT 10SM FEW070 SCT150 31/14 A3003 RMK AO2 SLP156 T03110144=
200807182152 METAR KATL 182152Z 30009KT 10SM FEW070 SCT150 32/15 A3003 RMK AO2 SLP158 T03170150=
200807182052 METAR KATL 182052Z 07006KT 10SM FEW070 31/14 A3004 RMK AO2 SLP161 T03060139 56016=
200807181952 METAR KATL 181952Z 10007KT 10SM FEW065 31/15 A3004 RMK AO2 SLP163 T03110150=
200807181852 METAR KATL 181852Z VRB04KT 10SM SCT065 SCT150 31/15 A3007 RMK AO2 SLP172 T03060150=
200807181752 METAR KATL 181752Z 02006KT 10SM SCT060 SCT150 31/16 A3009 RMK AO2 SLP177 T03060156 10311 20233 58008=
200807181652 METAR KATL 181652Z VRB05KT 10SM FEW050 BKN150 30/15 A3010 RMK AO2 SLP182 T03000150=
200807181552 METAR KATL 181552Z 09006G14KT 10SM FEW050 SCT150 29/17 A3012 RMK AO2 SLP186 T02890167=
200807181452 METAR KATL 181452Z 09008KT 10SM CLR 28/17 A3011 RMK AO2 SLP185 T02780167 50004=
200807181352 METAR KATL 181352Z 08006KT 8SM CLR 27/17 A3011 RMK AO2 SLP186 T02670167=
200807181252 METAR KATL 181252Z 07007KT 8SM CLR 25/15 A3010 RMK AO2 SLP183 T02500150=
200807181152 METAR KATL 181152Z 04008KT 7SM R09R/5000VP6000FT CLR 23/14 A3010 RMK AO2 SLP181 T02330144 10239 20217 53012=
200807181052 METAR KATL 181052Z 04006KT 7SM CLR 23/14 A3009 RMK AO2 SLP177 T02280139=
200807180952 METAR KATL 180952Z 06005KT 10SM CLR 23/14 A3007 RMK AO2 SLP172 T02280139=
200807180852 METAR KATL 180852Z 03005KT 8SM CLR 23/14 A3006 RMK AO2 SLP169 T02280139 55003 $=
200807180752 METAR KATL 180752Z 09006KT 8SM CLR 22/14 A3005 RMK AO2 SLP166 T02170144=
200807180652 METAR KATL 180652Z 07006KT 8SM CLR 23/14 A3006 RMK AO2 SLP169 T02280144=
200807180552 METAR KATL 180552Z 07007KT 8SM CLR 24/14 A3007 RMK AO2 SLP171 T02440144 10283 20244 57005=
200807180452 METAR KATL 180452Z 07004KT 9SM CLR 24/15 A3008 RMK AO2 SLP175 T02440150 403110211=
200807180352 METAR KATL 180352Z 06007KT 9SM CLR 26/14 A3008 RMK AO2 SLP175 T02610144=
200807180252 METAR KATL 180252Z 07006KT 9SM CLR 26/15 A3009 RMK AO2 SLP177 T02610150 53002=
200807180152 METAR KATL 180152Z 07005KT 9SM FEW250 27/15 A3008 RMK AO2 SLP176 T02670150=
200807180052 METAR KATL 180052Z 08007KT 9SM FEW250 27/15 A3008 RMK AO2 SLP173 T02720150=
200807172352 METAR KATL 172352Z 08010KT 9SM FEW080 SCT250 28/15 A3008 RMK AO2 SLP175 T02830150 10311 20283 56008=
200807172252 METAR KATL 172252Z 07008KT 9SM FEW060 SCT250 29/14 A3009 RMK AO2 SLP178 T02890144=
200807172152 METAR KATL 172152Z 06005G14KT 9SM FEW065 SCT080 SCT250 29/14 A3009 RMK AO2 SLP181 T02940139=
200807172052 METAR KATL 172052Z COR 05012KT 10SM FEW070 SCT200 31/15 A3011 RMK AO2 SLP184 T03060150 56015=
200807171952 METAR KATL 171952Z 04007KT 10SM FEW060 31/14 A3012 RMK AO2 SLP187 T03060139=
200807171852 METAR KATL 171852Z 03007G15KT 10SM SCT065 30/15 A3013 RMK AO2 SLP192 T03000150=
200807171752 METAR KATL 171752Z 05011G17KT 10SM FEW065 31/14 A3015 RMK AO2 SLP198 T03060139 10306 20233 58009=
200807171652 METAR KATL 171652Z 06011G18KT 10SM SCT060 29/13 A3016 RMK AO2 SLP202 T02940133=
200807171552 METAR KATL 171552Z 06009KT 9SM FEW050 28/15 A3017 RMK AO2 SLP206 T02830150=
200807171452 METAR KATL 171452Z 10009KT 8SM CLR 27/16 A3018 RMK AO2 SLP207 T02720156 51004=
200807171352 METAR KATL 171352Z 08007KT 7SM FEW250 26/16 A3017 RMK AO2 SLP207 T02610161=
200807171252 METAR KATL 171252Z 06008KT 7SM FEW075 24/16 A3017 RMK AO2 SLP207 T02440156=
200807171152 METAR KATL 171152Z 05008KT 7SM FEW075 24/15 A3017 RMK AO2 SLP204 T02390150 10239 20211 51010=
200807171052 METAR KATL 171052Z 05009KT 7SM FEW075 22/15 A3016 RMK AO2 SLP203 T02220150 $=
200807170952 METAR KATL 170952Z 08004KT 7SM SCT140 22/16 A3014 RMK AO2 SLP197 T02170156=
200807170852 METAR KATL 170852Z 09004KT 8SM FEW080 SCT140 22/16 A3014 RMK AO2 SLP194 T02220156 55002=
200807170752 METAR KATL 170752Z 07006KT 9SM FEW080 BKN140 23/16 A3013 RMK AO2 SLP193 T02280156=
200807170652 METAR KATL 170652Z 09005KT 9SM FEW080 SCT140 23/16 A3013 RMK AO2 SLP192 T02330156=
200807170552 METAR KATL 170552Z 08008KT 10SM FEW080 SCT140 24/16 A3014 RMK AO2 SLP196 T02440156 10294 20244 50001=
200807170452 METAR KATL 170452Z 04009KT 10SM FEW080 SCT140 26/16 A3014 RMK AO2 SLP196 T02610156 403170217=
200807170352 METAR KATL 170352Z 04008KT 10SM FEW080 27/16 A3014 RMK AO2 SLP195 T02670156=
200807170252 METAR KATL 170252Z 05008KT 10SM CLR 28/15 A3014 RMK AO2 SLP194 T02780150 53011=
200807170152 METAR KATL 170152Z 09005KT 10SM CLR 27/15 A3013 RMK AO2 SLP191 T02720150=
200807170052 METAR KATL 170052Z 09006KT 10SM CLR 28/14 A3011 RMK AO2 SLP186 T02780144=
200807162352 METAR KATL 162352Z 09006KT 10SM FEW065 29/14 A3010 RMK AO2 SLP183 T02940144 10317 20289 56004=
200807162252 METAR KATL 162252Z 10008KT 10SM FEW065 30/15 A3010 RMK AO2 SLP183 T03000150=
200807162152 METAR KATL 162152Z 10007KT 10SM FEW065 31/14 A3012 RMK AO2 SLP187 MDT CU VC E-SE T03060144=
200807162052 METAR KATL 162052Z 06008KT 10SM FEW065 31/15 A3012 RMK AO2 SLP187 T03060150 56016=
200807161952 SPECI KATL 161952Z 06004KT 10SM FEW065 31/15 A3013 RMK AO2 SLP192 T03060150=
200807161852 METAR KATL 161852Z 07009KT 10SM FEW065 30/15 A3015 RMK AO2 SLP197 T03000150=
200807161752 METAR KATL 161752Z 08010KT 10SM FEW060 30/16 A3016 RMK AO2 SLP203 T03000156 10306 20233 58006 $=
200807161652 METAR KATL 161652Z 07009G18KT 10SM FEW060 29/16 A3018 RMK AO2 SLP210 T02940161 $=
200807161552 METAR KATL 161552Z 08011KT 10SM FEW055 SCT080 SCT250 29/16 A3019 RMK AO2 SLP211 T02890156 $=
200807161452 METAR KATL 161452Z 05006KT 10SM FEW070 28/17 A3018 RMK AO2 SLP209 T02830167 51010 $=
200807161352 METAR KATL 161352Z 08006KT 8SM FEW065 27/18 A3018 RMK AO2 SLP207 T02670178 $=
200807161252 METAR KATL 161252Z 09008KT 7SM CLR 24/17 A3016 RMK AO2 SLP203 T02440172 $=
200807161152 METAR KATL 161152Z 05009KT 9SM CLR 23/17 A3015 RMK AO2 SLP199 T02330167 10256 20217 51017 $=
200807161052 METAR KATL 161052Z 05008KT 8SM CLR 22/17 A3014 RMK AO2 SLP195 T02220167=
200807160952 METAR KATL 160952Z 06008KT 9SM CLR 22/17 A3012 RMK AO2 SLP189 T02220172 $=
200807160852 METAR KATL 160852Z 07006KT 9SM CLR 22/17 A3010 RMK AO2 SLP182 T02170172 50000 $=
200807160752 METAR KATL 160752Z 08007KT 9SM CLR 23/17 A3010 RMK AO2 SLP182 T02280172 $=
200807160652 METAR KATL 160652Z 07007KT 10SM FEW070 24/17 A3010 RMK AO2 SLP182 T02390172 $=
200807160552 METAR KATL 160552Z 04006KT 9SM SCT080 25/17 A3010 RMK AO2 SLP181 T02500172 10294 20250 50004=
200807160452 METAR KATL 160452Z 03006KT 10SM FEW080 26/17 A3010 RMK AO2 SLP181 T02560172 403170206=
200807160352 METAR KATL 160352Z 08004KT 10SM CLR 26/17 A3010 RMK AO2 SLP179 T02610172=
200807160252 METAR KATL 160252Z 00000KT 10SM FEW080 27/18 A3009 RMK AO2 SLP177 T02670178 51014=
200807160152 METAR KATL 160152Z 12003KT 10SM FEW055 28/17 A3007 RMK AO2 SLP173 T02830167=
200807160052 METAR KATL 160052Z 11003KT 10SM FEW055 28/17 A3006 RMK AO2 SLP169 T02830167=
200807152352 METAR KATL 152352Z 11006KT 10SM FEW055 29/16 A3004 RMK AO2 SLP163 T02940161 10317 20289 53001=
200807152252 METAR KATL 152252Z 09004KT 10SM FEW060 30/17 A3003 RMK AO2 SLP159 T03000167=
200807152152 METAR KATL 152152Z 09008KT 10SM FEW060 30/16 A3004 RMK AO2 SLP161 MDT CU=
200807152052 METAR KATL 152052Z 08006KT 10SM FEW060 30/16 A3004 RMK AO2 SLP163 MDT CU=
200807151952 METAR KATL 151952Z 13005KT 10SM FEW060 31/16 A3005 RMK AO2 SLP165 MDT CU NE NW T03060161=
200807151852 METAR KATL 151852Z 08009KT 10SM SCT050 31/17 A3006 RMK AO2 SLP168 T03060172=
200807151752 METAR KATL 151752Z 06007G15KT 10SM SCT050 30/18 A3007 RMK AO2 SLP173 T03000178 10306 20222 50001=
200807151652 METAR KATL 151652Z 10011KT 10SM SCT050 30/18 A3008 RMK AO2 SLP176 T03000178=
200807151552 METAR KATL 151552Z 10010G16KT 10SM SCT040 29/18 A3008 RMK AO2 SLP175 T02890178=
200807151452 METAR KATL 151452Z 09010KT 10SM FEW030 28/19 A3007 RMK AO2 SLP171 T02780189=
200807151352 METAR KATL 151352Z 08009KT 10SM FEW025 26/21 A3006 RMK AO2 SLP170 T02610206 $=
200807151252 METAR KATL 151252Z 09008KT 8SM FEW060 SCT080 24/19 A3005 RMK AO2 SLP164 T02390194=
200807151152 METAR KATL 151152Z 09009KT 9SM BKN080 23/17 A3002 RMK AO2 SLP157 T02280167 10233 20206 53019=
200807151052 METAR KATL 151052Z 06007KT 10SM SCT080 SCT180 22/16 A3000 RMK AO2 SLP150 T02170156=
200807150952 METAR KATL 150952Z 03004KT 10SM SCT140 22/15 A2998 RMK AO2 SLP139 T02170150=
200807150852 METAR KATL 150852Z 02006KT 10SM CLR 22/15 A2997 RMK AO2 SLP136 T02170150 55000=
200807150752 METAR KATL 150752Z 34003KT 10SM CLR 22/15 A2996 RMK AO2 SLP133 T02170150=
200807150652 METAR KATL 150652Z 34003KT 10SM CLR 22/15 A2996 RMK AO2 SLP133 T02170150=
200807150552 METAR KATL 150552Z 04004KT 10SM CLR 23/14 A2997 RMK AO2 SLP137 T02330144 10289 20228 50003=
200807150452 METAR KATL 150452Z 01005KT 10SM CLR 23/14 A2997 RMK AO2 SLP139 T02330139 403110217=
200807150352 METAR KATL 150352Z 33005KT 10SM CLR 23/14 A2996 RMK AO2 SLP135 T02330144=
200807150252 METAR KATL 150252Z 33006KT 10SM CLR 24/14 A2996 RMK AO2 SLP133 T02440139 53014=
200807150152 METAR KATL 150152Z 33006KT 10SM CLR 25/14 A2994 RMK AO2 SLP129 T02500139=
200807150052 METAR KATL 150052Z 33008KT 10SM CLR 27/12 A2993 RMK AO2 SLP124 T02670117=
200807142352 SPECI KATL 142352Z 33008KT 10SM FEW065 28/08 A2991 RMK AO2 SLP120 T02830078 10311 20283 53009=
200807142252 METAR KATL 142252Z 33011KT 10SM FEW055 29/13 A2989 RMK AO2 SLP111 T02940128=
200807142152 METAR KATL 142152Z 33012G20KT 10SM FEW050 31/17 A2989 RMK AO2 SLP109 T03060167=
200807142052 METAR KATL 142052Z 32013G20KT 10SM SCT045 31/18 A2989 RMK AO2 SLP109 MDT CU OHD-NE T03060183 56013=
200807141952 METAR KATL 141952Z 33013KT 10SM BKN050 31/18 A2989 RMK AO2 SLP109 MDT CU ALQDS T03110183=
200807141852 METAR KATL 141852Z 36006KT 10SM BKN040TCU 31/19 A2991 RMK AO2 SLP117 TCU VC SW-NW MDT CU ALQDS T03060194=
200807141752 METAR KATL 141752Z 33003KT 10SM BKN040 29/19 A2993 RMK AO2 SLP122 T02890189 10294 20222 58003=
200807141652 METAR KATL 141652Z 05008KT 10SM SCT035 29/19 A2993 RMK AO2 SLP125 T02940194=
200807141552 METAR KATL 141552Z 04008KT 10SM BKN030 BKN040 BKN300 29/20 A2994 RMK AO2 SLP128 T02890200 $=
200807141452 METAR KATL 141452Z 03010KT 10SM FEW030 SCT200 SCT300 27/19 A2994 RMK AO2 SLP127 T02720194 53009 $=
200807141352 METAR KATL 141352Z 36009KT 7SM FEW150 SCT250 26/20 A2993 RMK AO2 SLP124 T02560200=
200807141252 METAR KATL 141252Z 35008KT 6SM HZ FEW070 SCT150 SCT250 24/21 A2991 RMK AO2 SLP120 T02390206=
200807141234 SPECI KATL 141234Z 35007KT 6SM HZ FEW005 SCT150 SCT250 23/21 A2991 RMK AO2 $=
200807141234 SPECI KATL 141234Z 35007KT 6SM HZ FEW005 SCT150 SCT250 23/21 A2991 RMK AO2 $=
200807141152 METAR KATL 141152Z COR 34007KT 3SM BR BKN005 22/21 A2991 RMK AO2 SFC VIS 5 SLP119 70210 T02220206 10228 20217 53013 $=
200807141052 METAR KATL 141052Z 34008KT 3SM BR BKN005 22/21 A2989 RMK AO2 SFC VIS 4 SLP112 T02220206=
200807140952 METAR KATL 140952Z 33008G18KT 6SM BR BKN005 OVC010 22/21 A2987 RMK AO2 SLP106 T02220206=
200807140909 SPECI KATL 140909Z 33007KT 6SM BR BKN005 22/21 A2987 RMK AO2 CIG 003V008=
200807140909 SPECI KATL 140909Z 33007KT 6SM BR BKN005 22/21 A2987 RMK AO2 CIG 003V008=
200807140852 METAR KATL 140852Z 32006KT 6SM BR FEW005 SCT090 22/21 A2987 RMK AO2 SLP106 T02170206 56007=
200807140813 SPECI KATL 140813Z 33006KT 6SM BR SCT005 BKN090 22/21 A2987 RMK AO2=
200807140813 SPECI KATL 140813Z 33006KT 6SM BR SCT005 BKN090 22/21 A2987 RMK AO2=
200807140752 METAR KATL 140752Z 33007KT 6SM BR BKN005 OVC090 22/21 A2988 RMK AO2 SLP107 T02220206=
200807140652 METAR KATL 140652Z 33003KT 6SM BR FEW005 BKN095 23/21 A2988 RMK AO2 SLP108 T02280211=
200807140552 METAR KATL 140552Z 00000KT 7SM SCT003 SCT075 OVC100 23/22 A2989 RMK AO2 SLP112 T02280217 10233 20228 58005=
200807140452 METAR KATL 140452Z 31004KT 7SM SCT003 BKN070 BKN110 OVC150 23/22 A2990 RMK AO2 SLP117 T02280217 402940217=
200807140441 SPECI KATL 140441Z 30005KT 8SM FEW003 BKN075 BKN110 OVC150 23/22 A2991 RMK AO2=
200807140441 SPECI KATL 140441Z 30005KT 8SM FEW003 BKN075 BKN110 OVC150 23/22 A2991 RMK AO2=
200807140352 METAR KATL 140352Z 29005KT 7SM FEW013 SCT100 BKN150 OVC250 23/22 A2990 RMK AO2 SLP117 T02280217=
200807140252 METAR KATL 140252Z 28003KT 7SM FEW004 SCT100 BKN150 OVC250 23/22 A2990 RMK AO2 SLP115 T02280217 53005=
200807140237 SPECI KATL 140237Z 00000KT 7SM FEW004 BKN150 23/22 A2990 RMK AO2=
200807140237 SPECI KATL 140237Z 00000KT 7SM FEW004 BKN150 23/22 A2990 RMK AO2=
200807140152 METAR KATL 140152Z 29005KT 7SM OVC004 23/22 A2990 RMK AO2 SLP115 T02280217=
200807140143 SPECI KATL 140143Z 29005KT 7SM OVC004 23/22 A2990 RMK AO2=
200807140143 SPECI KATL 140143Z 29005KT 7SM OVC004 23/22 A2990 RMK AO2=
200807140052 METAR KATL 140052Z 28004KT 7SM FEW005 OVC008 23/22 A2989 RMK AO2 SLP111 T02280217=
200807140050 SPECI KATL 140050Z 28003KT 7SM FEW006 OVC011 23/21 A2989 RMK AO2=
200807140050 SPECI KATL 140050Z 28003KT 7SM FEW006 OVC011 23/21 A2989 RMK AO2=
200807140039 SPECI KATL 140039Z 27003KT 8SM BKN011 OVC150 23/21 A2989 RMK AO2=
200807140039 SPECI KATL 140039Z 27003KT 8SM BKN011 OVC150 23/21 A2989 RMK AO2=
200807132352 METAR KATL 132352Z 00000KT 10SM FEW150 OVC250 23/21 A2987 RMK AO2 SLP106 60017 T02330211 10239 20217 55016=
200807132252 METAR KATL 132252Z 19004KT 10SM BKN130 OVC250 23/21 A2987 RMK AO2 SLP105 T02280206=
200807132152 METAR KATL 132152Z 00000KT 10SM FEW060 BKN120 OVC250 22/21 A2989 RMK AO2 TSE24RAE27 SLP114 TS MOV E SHRA NE BINOVC W P0005 T02220206=
200807132127 SPECI KATL 132127Z 20004KT 10SM SCT016 BKN060 BKN110 BKN250 22/20 A2990 RMK AO2 TSE24RAE27 TS MOV E SHRA NE AND SE P0005=
200807132127 SPECI KATL 132127Z 20004KT 10SM SCT016 BKN060 BKN110 BKN250 22/20 A2990 RMK AO2 TSE24RAE27 TS MOV E SHRA NE AND SE P0005=
200807132052 SPECI KATL 132052Z 24005KT 4SM TSRA BR FEW011 BKN025CB OVC049 22/19 A2992 RMK AO2 TSB08RAB02 SLP124 OCNL LTGIC TS OHD-ALQDS MOV SE P0011 60012 T02170194 57017=
200807132019 SPECI KATL 132019Z 24008KT 5SM -TSRA BR SCT014 BKN025CB OVC037 23/21 A2994 RMK AO2 TSB08RAB02 OCNL LTGIC TS OHD-ALQDS MOV SE P0002=
200807132019 SPECI KATL 132019Z 24008KT 5SM -TSRA BR SCT014 BKN025CB OVC037 23/21 A2994 RMK AO2 TSB08RAB02 OCNL LTGIC TS OHD-ALQDS MOV SE P0002=
200807132008 SPECI KATL 132008Z 27005KT 9SM -TSRA FEW010 BKN037CB BKN070 23/22 A2996 RMK AO2 TSB08RAB02 OCNL LTGIC TS OHD-ALQDS MOV SE P0000=
200807132008 SPECI KATL 132008Z 27005KT 9SM -TSRA FEW010 BKN037CB BKN070 23/22 A2996 RMK AO2 TSB08RAB02 OCNL LTGIC TS OHD-ALQDS MOV SE P0000=
200807131952 METAR KATL 131952Z 26007KT 10SM FEW010 SCT070CB BKN150 OVC200 24/21 A2996 RMK AO2 SLP137 CB VC SW-N MOV SE T02390211=
200807131852 METAR KATL 131852Z 14006KT 9SM FEW005 SCT038 BKN150 23/21 A2993 RMK AO2 TSE25RAE14 SLP127 CB DSNT E-S AND SW-NW P0001 T02280206 $=
200807131827 SPECI KATL 131827Z 14004KT 8SM FEW005 SCT016CB BKN040 22/21 A2994 RMK AO2 TSE25RAE14 CB VC NE-SE-SW MOV SE P0001 $=
200807131827 SPECI KATL 131827Z 14004KT 8SM FEW005 SCT016CB BKN040 22/21 A2994 RMK AO2 TSE25RAE14 CB VC NE-SE-SW MOV SE P0001 $=
200807131752 METAR KATL 131752Z COR 11006KT 3SM -TSRA BR BKN020 BKN040 BKN049 22/21 A2997 RMK AO2 PRESFR SLP141 OCNL LTGICCG TS OHD-ALQDS MOV SE P0041 60193 T02220206 10283 20217 50003 $=
200807131717 SPECI KATL 131717Z 15005KT 2 1/2SM R09R/5500VP6000FT +TSRA BR SCT005 BKN020CB OVC046 22/21 A3001 RMK AO2 TWR VIS 3 FRQ LTGICCGCA TS OHD-ALQDS MOV SE P0017 $=
200807131717 SPECI KATL 131717Z 15005KT 2 1/2SM R09R/5500VP6000FT +TSRA BR SCT005 BKN020CB OVC046 22/21 A3001 RMK AO2 TWR VIS 3 FRQ LTGICCGCA TS OHD-ALQDS MOV SE P0017 $=
200807131659 SPECI KATL 131659Z 19008KT 1 1/2SM R09R/5000VP6000FT +TSRA BR SCT005 BKN014CB OVC044 22/21 A3000 RMK AO2 TWR VIS 3 FRQ LTGIC TS OHD-ALQDS MOV SE P0004 $=
200807131659 SPECI KATL 131659Z 19008KT 1 1/2SM R09R/5000VP6000FT +TSRA BR SCT005 BKN014CB OVC044 22/21 A3000 RMK AO2 TWR VIS 3 FRQ LTGIC TS OHD-ALQDS MOV SE P0004 $=
200807131652 METAR KATL 131652Z 18010KT 2SM TSRA BR SCT005 OVC018CB 22/21 A3000 RMK AO2 TWR VIS 3 SLP149 FRQ LTGIC TS OHD-ALQDS MOV SE P0028 T02220211 $=
200807131630 SPECI KATL 131630Z 21014G19KT 3SM R09R/6000VP6000FT +TSRA BR SCT005 BKN035CB OVC044 22/21 A2999 RMK AO2 PRESRR CONS LTGICCG TS OHD-ALQDS MOV SE P0011 $=
200807131630 SPECI KATL 131630Z 21014G19KT 3SM R09R/6000VP6000FT +TSRA BR SCT005 BKN035CB OVC044 22/21 A2999 RMK AO2 PRESRR CONS LTGICCG TS OHD-ALQDS MOV SE P0011 $=
200807131604 SPECI KATL 131604Z 13005KT 4SM TSRA BR SCT005 OVC027CB 22/21 A2998 RMK AO2 CONS LTGICCG TS OHD-ALQDS MOV SE P0003 $=
200807131604 SPECI KATL 131604Z 13005KT 4SM TSRA BR SCT005 OVC027CB 22/21 A2998 RMK AO2 CONS LTGICCG TS OHD-ALQDS MOV SE P0003 $=
200807131552 METAR KATL 131552Z COR 17005KT 3SM R09R/5500VP6000FT TSRA BR VV015CB 22/21 A2999 RMK AO2 PK WND 30035/1509 TSB1459 SLP146 CONS LTGICCG TS OHD-ALQDS MOV SE P0124 T02220206 $=
200807131549 SPECI KATL 131549Z 19005KT 2SM R09R/5500VP6000FT +TSRA BR VV015 22/21 A2999 RMK AO2 PK WND 30035/1509 TSB1459 CONS LTGICCG TS OHD-ALQDS MOV SE TWRINC P0123 $=
200807131549 SPECI KATL 131549Z 19005KT 2SM R09R/5500VP6000FT +TSRA BR VV015 22/21 A2999 RMK AO2 PK WND 30035/1509 TSB1459 CONS LTGICCG TS OHD-ALQDS MOV SE TWRINC P0123 $=
200807131537 SPECI KATL 131537Z 22006KT 1SM R09R/4000VP6000FT +TSRA BR BKN001 OVC005CB 24/22 A2999 RMK AO2 PK WND 30035/1509 TWR VIS 2 TSB1459 CONS LTGICCG TS OHD-ALQDS MOV SE TWRINC P0114 $=
200807131537 SPECI KATL 131537Z 22006KT 1SM R09R/4000VP6000FT +TSRA BR BKN001 OVC005CB 24/22 A2999 RMK AO2 PK WND 30035/1509 TWR VIS 2 TSB1459 CONS LTGICCG TS OHD-ALQDS MOV SE TWRINC P0114 $=
200807131511 SPECI KATL 131511Z 29027G35KT 1SM R09R/1800VP6000FT +TSRA BR SCT005 BKN025CB BKN036 24/22 A2996 RMK AO2 PK WND 30035/1509 TWR VIS 2 TSB1459 FRQ LTGICCG TS OHD-ALQDS MOV SE P0015 $=
200807131511 SPECI KATL 131511Z 29027G35KT 1SM R09R/1800VP6000FT +TSRA BR SCT005 BKN025CB BKN036 24/22 A2996 RMK AO2 PK WND 30035/1509 TWR VIS 2 TSB1459 FRQ LTGICCG TS OHD-ALQDS MOV SE P0015 $=
200807131500 SPECI KATL 131500Z 7SM -TSRA SCT025 BKN036CB BKN050 28/24 A2996 RMK AO2 TSB1459 OCNL LTGICCG W TS OHD-ALQDS MOV SE PNO $=
200807131500 SPECI KATL 131500Z 7SM -TSRA SCT025 BKN036CB BKN050 28/24 A2996 RMK AO2 TSB1459 OCNL LTGICCG W TS OHD-ALQDS MOV SE PNO $=
200807131452 METAR KATL 131452Z 00000KT 10SM -RA SCT020 BKN036CB BKN050 28/23 A2996 RMK AO2 RAB26 SLP134 CB OHD-ALQDS MOV SE 6//// T02830228 58009 PNO $=
200807131352 METAR KATL 131352Z VRB04KT 10SM SCT025CB BKN150 BKN200 28/21 A2997 RMK AO2 SLP138 CB VC SW-N MOV SE T02830211=
200807131252 METAR KATL 131252Z 00000KT 10SM FEW015 SCT150 BKN200 26/22 A2999 RMK AO2 SLP143 CB DSNT W-N T02610222=
200807131152 METAR KATL 131152Z 29003KT 10SM FEW010 SCT150 BKN200 24/22 A2999 RMK AO2 SLP145 T02440217 10256 20228 53007=
200807131052 METAR KATL 131052Z 00000KT 9SM FEW140 SCT250 23/21 A2998 RMK AO2 SLP139 T02280211=
200807130952 METAR KATL 130952Z 28004KT 10SM FEW150 SCT250 23/21 A2996 RMK AO2 SLP134 T02280206=
200807130852 METAR KATL 130852Z 27003KT 10SM FEW150 23/21 A2997 RMK AO2 SLP136 T02280206 55011=
200807130752 METAR KATL 130752Z COR 25003KT 10SM FEW150 24/20 A2997 RMK AO2 SLP136 T02390200=
200807130652 METAR KATL 130652Z 00000KT 10SM FEW100 SCT150 25/21 A2998 RMK AO2 SLP140 T02500206=
200807130552 METAR KATL 130552Z 00000KT 10SM FEW100 SCT150 26/19 A3000 RMK AO2 SLP147 T02560194 10289 20250 58012=
200807130452 METAR KATL 130452Z 30007KT 10SM FEW120 SCT150 25/21 A3002 RMK AO2 SLP153 T02500206 403390211=
200807130352 METAR KATL 130352Z 30007KT 10SM BKN150 26/21 A3004 RMK AO2 SLP160 T02610206=
200807130252 METAR KATL 130252Z 00000KT 10SM SCT150 27/21 A3004 RMK AO2 SLP160 T02670206 50000=
200807130152 METAR KATL 130152Z 23003KT 10SM FEW150 27/21 A3003 RMK AO2 SLP159 T02670211=
200807130052 METAR KATL 130052Z 25003KT 10SM FEW065 SCT110 SCT150 28/21 A3004 RMK AO2 SLP162 T02780206=
200807122352 METAR KATL 122352Z 28003KT 10SM FEW060 SCT110 BKN150 BKN250 29/21 A3004 RMK AO2 SLP161 T02890206 10339 20289 55001=
200807122252 METAR KATL 122252Z 29010KT 10SM FEW070 BKN150 BKN250 30/21 A3003 RMK AO2 SLP158 T03000206=
200807122152 METAR KATL 122152Z 09006KT 10SM SCT070 SCT150 32/16 A3003 RMK AO2 SLP157 T03220156=
200807122052 METAR KATL 122052Z VRB04KT 10SM SCT070 BKN090 BKN150 33/16 A3004 RMK AO2 SLP160 T03330161 58016=
200807121952 METAR KATL 121952Z 00000KT 10SM BKN065 32/15 A3006 RMK AO2 SLP167 TCU DSNT W-NW T03220150=
200807121852 METAR KATL 121852Z 10004KT 10SM BKN060 32/17 A3008 RMK AO2 SLP174 CB DSNT W-NW T03170167=
200807121752 METAR KATL 121752Z VRB05KT 10SM SCT055 32/18 A3009 RMK AO2 SLP176 TCU DSNT NW T03220178 10322 20217 58019=
200807121652 METAR KATL 121652Z 00000KT 10SM SCT042 32/19 A3011 RMK AO2 SLP185 T03220189=
200807121552 METAR KATL 121552Z 36004KT 10SM SCT040 SCT250 30/19 A3014 RMK AO2 SLP194 T03000194=
200807121452 METAR KATL 121452Z 32004KT 10SM FEW025 SCT250 28/22 A3014 RMK AO2 SLP197 T02780217 50003=
200807121352 METAR KATL 121352Z 36009G19KT 220V150 9SM FEW010 SCT250 26/22 A3016 RMK AO2 SLP201 T02610217=
200807121308 SPECI KATL 121308Z 32004KT 3SM BR FEW003 SCT250 23/22 A3015 RMK AO2=
200807121308 SPECI KATL 121308Z 32004KT 3SM BR FEW003 SCT250 23/22 A3015 RMK AO2=
200807121258 SPECI KATL 121258Z 31004KT 2SM R09R/6000VP6000FT BR FEW002 BKN250 23/22 A3015 RMK AO2 VIS W-NW 1=
200807121258 SPECI KATL 121258Z 31004KT 2SM R09R/6000VP6000FT BR FEW002 BKN250 23/22 A3015 RMK AO2 VIS W-NW 1=
200807121252 METAR KATL 121252Z 30005KT 1 1/2SM BR SCT002 BKN250 22/21 A3015 RMK AO2 SLP199 VIS W-NW 3/4 T02220211=
200807121246 SPECI KATL 121246Z 29005KT 1 1/4SM R09R/5000VP6000FT BR SCT002 BKN250 22/21 A3015 RMK AO2 VIS W-NW 3/4=
200807121246 SPECI KATL 121246Z 29005KT 1 1/4SM R09R/5000VP6000FT BR SCT002 BKN250 22/21 A3015 RMK AO2 VIS W-NW 3/4=
200807121211 SPECI KATL 121211Z 30004KT 3/4SM R09R/1000V2800FT BCFG BR SCT002 BKN250 22/21 A3014 RMK AO2 VIS W-N-NE 1/4=
200807121211 SPECI KATL 121211Z 30004KT 3/4SM R09R/1000V2800FT BCFG BR SCT002 BKN250 22/21 A3014 RMK AO2 VIS W-N-NE 1/4=
200807121159 SPECI KATL 121159Z 29005KT 3/4SM R09R/0800V1200FT BCFG BR SCT002 BKN250 22/21 A3014 RMK AO2 VIS SW-NW-NE 1/4=
200807121159 SPECI KATL 121159Z 29005KT 3/4SM R09R/0800V1200FT BCFG BR SCT002 BKN250 22/21 A3014 RMK AO2 VIS SW-NW-NE 1/4=
200807121152 METAR KATL 121152Z 28004KT 1 1/4SM R09R/0800V1800FT BCFG BR SCT002 BKN250 22/21 A3013 RMK AO2 SLP195 VIS SW-NW-NE 1/2 T02170206 10228 20211 51010=
200807121144 SPECI KATL 121144Z 28004KT 1 1/2SM R09R/0800VP6000FT BR SCT002 BKN250 22/21 A3013 RMK AO2 VIS SW-NW 1/2=
200807121144 SPECI KATL 121144Z 28004KT 1 1/2SM R09R/0800VP6000FT BR SCT002 BKN250 22/21 A3013 RMK AO2 VIS SW-NW 1/2=
200807121138 SPECI KATL 121138Z 00000KT 2 1/2SM R09R/3000VP6000FT BR FEW002 SCT250 22/21 A3013 RMK AO2 VIS SW-W 1=
200807121138 SPECI KATL 121138Z 00000KT 2 1/2SM R09R/3000VP6000FT BR FEW002 SCT250 22/21 A3013 RMK AO2 VIS SW-W 1=
200807121055 SPECI KATL 121055Z 00000KT 3SM BR FEW004 SCT250 21/20 A3013 RMK AO2 VIS N-NE 2=
200807121055 SPECI KATL 121055Z 00000KT 3SM BR FEW004 SCT250 21/20 A3013 RMK AO2 VIS N-NE 2=
200807121052 METAR KATL 121052Z 00000KT 3SM BR FEW250 21/20 A3013 RMK AO2 SLP193 VIS N-NE 2 T02110200=
200807120952 METAR KATL 120952Z 27003KT 6SM BR FEW180 22/21 A3011 RMK AO2 SLP187 T02170206=
200807120852 METAR KATL 120852Z 00000KT 7SM FEW180 22/21 A3010 RMK AO2 SLP184 T02220206 55003=
200807120752 METAR KATL 120752Z 27005KT 7SM CLR 22/21 A3010 RMK AO2 SLP183 T02170206=
200807120652 METAR KATL 120652Z 27003KT 9SM FEW150 22/21 A3011 RMK AO2 SLP183 T02220206=
200807120552 METAR KATL 120552Z 28003KT 9SM FEW150 23/21 A3011 RMK AO2 SLP187 T02280206 10289 20228 58003=
200807120452 METAR KATL 120452Z 26005KT 10SM FEW150 23/21 A3013 RMK AO2 SLP193 T02330211 403170222=
200807120352 METAR KATL 120352Z 24004KT 10SM FEW200 24/21 A3013 RMK AO2 SLP193 T02440211=
200807120252 METAR KATL 120252Z 21003KT 10SM FEW200 26/21 A3012 RMK AO2 SLP191 T02610211 51015=
200807120152 METAR KATL 120152Z 00000KT 10SM SCT150 SCT200 27/21 A3011 RMK AO2 SLP186 T02670211=
200807120052 METAR KATL 120052Z 22003KT 10SM FEW030 SCT120 BKN200 28/21 A3010 RMK AO2 SLP182 CB DSNT SE-SW AND NW T02780211=
200807112352 METAR KATL 112352Z 32006KT 10SM FEW040 SCT100 SCT200 29/21 A3008 RMK AO2 SLP175 CB DSNT SE-SW 60000 T02890206 10317 20278 56001=
200807112252 METAR KATL 112252Z 30006KT 10SM FEW040 BKN100 BKN200 29/20 A3008 RMK AO2 SLP176 CB DSNT SE-SW T02940200=
200807112152 METAR KATL 112152Z COR 35007KT 10SM FEW040 SCT060 SCT095 BKN200 29/19 A3007 RMK AO2 RAE02 SLP173 CB DSNT SW AND NW P0000 T02890189=
200807112052 METAR KATL 112052Z 35009G17KT 10SM -RA FEW060 BKN095 BKN200 28/19 A3008 RMK AO2 PK WND 01026/2016 WSHFT 2009 RAB30 SLP177 CB DSNT W MOV SE TCU DSNT SE-S P0000 60000 T02780189 56015=
200807112029 SPECI KATL 112029Z 01015G23KT 10SM FEW040 BKN060 BKN200 28/19 A3009 RMK AO2 PK WND 01026/2016 WSHFT 2009 LTG DSNT E CB DSNT E W MOV SE=
200807112029 SPECI KATL 112029Z 01015G23KT 10SM FEW040 BKN060 BKN200 28/19 A3009 RMK AO2 PK WND 01026/2016 WSHFT 2009 LTG DSNT E CB DSNT E W MOV SE=
200807112013 SPECI KATL 112013Z 35018G23KT 10SM BKN040 BKN200 31/20 A3009 RMK AO2 LTG DSNT NE TS 14SM DSNT NE MOV SE CB DSNT N-NE NW MOV SE SHRA DSNT N-NE NW=
200807112013 SPECI KATL 112013Z 35018G23KT 10SM BKN040 BKN200 31/20 A3009 RMK AO2 LTG DSNT NE TS 14SM DSNT NE MOV SE CB DSNT N-NE NW MOV SE SHRA DSNT N-NE NW=
200807111952 METAR KATL 111952Z 28010G15KT 10SM SCT039 SCT200 32/21 A3009 RMK AO2 SLP177 CB DSNT N MOV SE TCU NE T03170206=
200807111852 METAR KATL 111852Z 28008KT 10SM BKN037 BKN200 30/21 A3011 RMK AO2 SLP183 CB DSNT N TCU DSNT N-NE T03000211=
200807111752 METAR KATL 111752Z 29004KT 10SM SCT035 SCT150 29/21 A3013 RMK AO2 SLP191 TCU DSNT N T02940211 10300 20228 58011=
200807111652 METAR KATL 111652Z 27008KT 10SM BKN023TCU BKN150 BKN250 28/22 A3015 RMK AO2 SLP199 TCU W-N T02830222=
200807111552 METAR KATL 111552Z 30007KT 9SM FEW019 BKN150 BKN250 27/22 A3016 RMK AO2 SLP204 T02720217=
200807111524 SPECI KATL 111524Z 28008KT 9SM BKN019 BKN150 BKN250 26/22 A3016 RMK AO2=
200807111524 SPECI KATL 111524Z 28008KT 9SM BKN019 BKN150 BKN250 26/22 A3016 RMK AO2=
200807111452 METAR KATL 111452Z 29007KT 9SM OVC016 25/21 A3016 RMK AO2 SLP204 T02500211 51010=
200807111352 METAR KATL 111352Z 30008KT 7SM BKN010 BKN150 BKN250 25/22 A3015 RMK AO2 SLP201 T02500217=
200807111338 SPECI KATL 111338Z 29007KT 6SM HZ BKN010 BKN150 BKN180 24/21 A3015 RMK AO2=
200807111338 SPECI KATL 111338Z 29007KT 6SM HZ BKN010 BKN150 BKN180 24/21 A3015 RMK AO2=
200807111259 SPECI KATL 111259Z 29007KT 5SM BR BKN006 BKN180 23/21 A3015 RMK AO2 CIG 006V010=
200807111259 SPECI KATL 111259Z 29007KT 5SM BR BKN006 BKN180 23/21 A3015 RMK AO2 CIG 006V010=
200807111252 METAR KATL 111252Z 29007KT 5SM BR SCT008 BKN080 BKN180 23/21 A3015 RMK AO2 SLP200 T02330211=
200807111152 METAR KATL 111152Z 28007KT 3SM BR SCT006 BKN200 23/21 A3013 RMK AO2 SFC VIS 4 SLP193 70112 T02280211 10228 20222 53012=
200807111141 SPECI KATL 111141Z 28007KT 3SM BR BKN006 BKN010 23/21 A3013 RMK AO2 SFC VIS 4=
200807111141 SPECI KATL 111141Z 28007KT 3SM BR BKN006 BKN010 23/21 A3013 RMK AO2 SFC VIS 4=
200807111110 SPECI KATL 111110Z 27008KT 3SM BR OVC004 22/21 A3012 RMK AO2 SFC VIS 3=
200807111110 SPECI KATL 111110Z 27008KT 3SM BR OVC004 22/21 A3012 RMK AO2 SFC VIS 3=
200807111052 METAR KATL 111052Z 27007KT 2SM BR OVC004 22/21 A3012 RMK AO2 SFC VIS 3 SLP190 T02220211=
200807111036 SPECI KATL 111036Z 27006KT 2SM BR OVC004 22/21 A3011 RMK AO2 SFC VIS 5=
200807111036 SPECI KATL 111036Z 27006KT 2SM BR OVC004 22/21 A3011 RMK AO2 SFC VIS 5=
200807110952 METAR KATL 110952Z 26006KT 5SM BR OVC004 22/21 A3010 RMK AO2 SLP186 T02220211=
200807110852 METAR KATL 110852Z 26005KT 5SM BR OVC004 22/21 A3009 RMK AO2 SLP182 T02220211 55005=
200807110833 SPECI KATL 110833Z 27005KT 6SM BR BKN004 22/21 A3009 RMK AO2=
200807110833 SPECI KATL 110833Z 27005KT 6SM BR BKN004 22/21 A3009 RMK AO2=
200807110752 METAR KATL 110752Z 27005KT 7SM BKN006 OVC150 22/21 A3009 RMK AO2 SLP181 T02220211=
200807110709 SPECI KATL 110709Z 23003KT 8SM BKN006 22/21 A3009 RMK AO2=
200807110709 SPECI KATL 110709Z 23003KT 8SM BKN006 22/21 A3009 RMK AO2=
200807110652 METAR KATL 110652Z 26004KT 8SM SCT006 BKN150 22/21 A3009 RMK AO2 SLP182 T02220211=
200807110640 SPECI KATL 110640Z 24003KT 8SM SCT006 SCT150 23/21 A3009 RMK AO2=
200807110640 SPECI KATL 110640Z 24003KT 8SM SCT006 SCT150 23/21 A3009 RMK AO2=
200807110552 METAR KATL 110552Z 25005KT 10SM SCT090 BKN150 OVC250 23/21 A3011 RMK AO2 SLP187 60000 T02280211 10250 20228 58001=
200807110452 METAR KATL 110452Z 23006KT 10SM SCT140 BKN200 OVC250 23/21 A3011 RMK AO2 SLP186 T02330211 403060217=
200807110352 METAR KATL 110352Z 27005KT 10SM SCT140 BKN200 OVC250 23/22 A3011 RMK AO2 SLP187 T02330217=
200807110252 METAR KATL 110252Z 25005KT 10SM SCT140 BKN200 OVC250 24/22 A3011 RMK AO2 RAE03 SLP185 P0000 60000 T02390217 51008=
200807110152 METAR KATL 110152Z 23008KT 8SM -RA FEW050 BKN140 OVC200 24/22 A3010 RMK AO2 RAB24 SLP184 P0000 T02390222=
200807110052 METAR KATL 110052Z 21004KT 7SM FEW100 BKN140 OVC200 24/22 A3010 RMK AO2 SLP183 T02390222=
200807102352 METAR KATL 102352Z 23004KT 7SM FEW100 BKN140 OVC200 24/22 A3009 RMK AO2 SLP179 60040 T02390222 10239 20217 55003=
200807102252 METAR KATL 102252Z 24006KT 7SM FEW100 BKN140 OVC200 23/22 A3006 RMK AO2 RAE48 SLP172 P0003 T02330217=
200807102152 METAR KATL 102152Z 28004KT 7SM -RA FEW060 BKN130 OVC150 23/21 A3009 RMK AO2 SLP182 P0004 T02280211=
200807102052 METAR KATL 102052Z 27010KT 6SM -RA BR FEW010 SCT060 BKN100 OVC250 23/22 A3010 RMK AO2 RAB28 SLP182 CB DSNT N-NE P0000 60033 T02330217 56016=
200807102033 SPECI KATL 102033Z 24007KT 8SM -RA FEW010 SCT050 BKN100 BKN250 23/22 A3009 RMK AO2 RAB28 CB DSNT NE DSNT W-N P0000=
200807102033 SPECI KATL 102033Z 24007KT 8SM -RA FEW010 SCT050 BKN100 BKN250 23/22 A3009 RMK AO2 RAB28 CB DSNT NE DSNT W-N P0000=
200807101952 METAR KATL 101952Z 19008KT 10SM FEW080 BKN100 BKN150 BKN250 23/21 A3010 RMK AO2 RAE00 SLP183 CB DSNT NE W-N MOV E P0000 T02330211=
200807101852 METAR KATL 101852Z 26006KT 9SM -RA FEW018 SCT044 BKN095 BKN250 23/20 A3009 RMK AO2 TSE43 SLP181 LTG DSNT N-NE TS MOV ENE CB DSNT N-SW MOV ENE P0033 T02280200=
200807101843 SPECI KATL 101843Z 29004KT 9SM -RA FEW018 BKN042 BKN095 BKN150 22/20 A3009 RMK AO2 TSE43 LTG DSNT N TS MOV ENE CB DSNT N-SW MOV ENE SHRA DSNT N-SW P0033=
200807101843 SPECI KATL 101843Z 29004KT 9SM -RA FEW018 BKN042 BKN095 BKN150 22/20 A3009 RMK AO2 TSE43 LTG DSNT N TS MOV ENE CB DSNT N-SW MOV ENE SHRA DSNT N-SW P0033=
200807101829 SPECI KATL 101829Z 27008KT 6SM -TSRA BR FEW018CB BKN047 BKN095 OVC150 23/21 A3012 RMK AO2 FRQ LTGICCG TS NE SW MOV ENE CB NE SW MOV ENE P0031=
200807101829 SPECI KATL 101829Z 27008KT 6SM -TSRA BR FEW018CB BKN047 BKN095 OVC150 23/21 A3012 RMK AO2 FRQ LTGICCG TS NE SW MOV ENE CB NE SW MOV ENE P0031=
200807101820 SPECI KATL 101820Z 27006KT 10SM -TSRA BKN018CB BKN047 OVC090 23/20 A3013 RMK AO2 FRQ LTGICCG TS SW-N MOV ENE CB NE-SE SW-N MOV ENE P0031=
200807101820 SPECI KATL 101820Z 27006KT 10SM -TSRA BKN018CB BKN047 OVC090 23/20 A3013 RMK AO2 FRQ LTGICCG TS SW-N MOV ENE CB NE-SE SW-N MOV ENE P0031=
200807101814 SPECI KATL 101814Z 24007G17KT 10SM -TSRA BKN018CB BKN047 OVC085 23/20 A3013 RMK AO2 FRQ LTGICCG TS W-NW MOV ENE CB NE-SE W-NW MOV ENE P0029=
200807101814 SPECI KATL 101814Z 24007G17KT 10SM -TSRA BKN018CB BKN047 OVC085 23/20 A3013 RMK AO2 FRQ LTGICCG TS W-NW MOV ENE CB NE-SE W-NW MOV ENE P0029=
200807101811 SPECI KATL 101811Z 24007G17KT 10SM -TSRA BKN013CB BKN047 OVC085 23/20 A3013 RMK AO2 FRQ LTGICCG TS NE-SE SW NW MOV ENE CB NE-SE SW NW MOV ENE P0028=
200807101811 SPECI KATL 101811Z 24007G17KT 10SM -TSRA BKN013CB BKN047 OVC085 23/20 A3013 RMK AO2 FRQ LTGICCG TS NE-SE SW NW MOV ENE CB NE-SE SW NW MOV ENE P0028=
200807101802 SPECI KATL 101802Z 25008KT 1SM R09R/2200VP6000FT TSRA BKN008 BKN025CB OVC040 23/20 A3014 RMK AO2 SFC VIS 2 FRQ LTGICCG TS OHD-N-SE MOV ENE CB OHD-N-SE MOV ENE P0024=
200807101802 SPECI KATL 101802Z 25008KT 1SM R09R/2200VP6000FT TSRA BKN008 BKN025CB OVC040 23/20 A3014 RMK AO2 SFC VIS 2 FRQ LTGICCG TS OHD-N-SE MOV ENE CB OHD-N-SE MOV ENE P0024=
200807101756 SPECI KATL 101756Z 34006KT 1SM R09R/2200VP6000FT TSRA BKN008 BKN025CB OVC040 22/19 A3014 RMK AO2 SFC VIS 3 FRQ LTGICCG TS OHD NE-SE MOV ENE CB OHD NE-SE MOV ENE P0008=
200807101756 SPECI KATL 101756Z 34006KT 1SM R09R/2200VP6000FT TSRA BKN008 BKN025CB OVC040 22/19 A3014 RMK AO2 SFC VIS 3 FRQ LTGICCG TS OHD NE-SE MOV ENE CB OHD NE-SE MOV ENE P0008=
200807101749 SPECI KATL 101749Z VRB05G17KT 1SM R09R/1600V5500FT +TSRA BKN005 BKN025CB OVC033 23/18 A3014 RMK AO2 PK WND 21027/1720 WSHFT 1715 VIS 1/2 SM N-SE SHRA CNS LTGICCG TS OHD ALQDS MOV ENE CB OHD ALQDS MOV ENE P0064=
200807101749 SPECI KATL 101749Z VRB05G17KT 1SM R09R/1600V5500FT +TSRA BKN005 BKN025CB OVC033 23/18 A3014 RMK AO2 PK WND 21027/1720 WSHFT 1715 VIS 1/2 SM N-SE SHRA CNS LTGICCG TS OHD ALQDS MOV ENE CB OHD ALQDS MOV ENE P0064=
200807101742 SPECI KATL 101742Z VRB06G26KT 1/2SM R09R/2200V4500FT +TSRA SCT005 BKN025CB OVC043 23/19 A3015 RMK AO2 PK WND 21027/1720 WSHFT 1715 PRESRR CNS LTGICCG TS OHD MOV ENE CB OHD MOV ENE P0039=
200807101742 SPECI KATL 101742Z VRB06G26KT 1/2SM R09R/2200V4500FT +TSRA SCT005 BKN025CB OVC043 23/19 A3015 RMK AO2 PK WND 21027/1720 WSHFT 1715 PRESRR CNS LTGICCG TS OHD MOV ENE CB OHD MOV ENE P0039=
200807101735 SPECI KATL 101735Z 24019G26KT 8SM R09R/3000VP6000FT -TSRA FEW005 BKN027CB BKN034TCU OVC150 23/21 A3014 RMK AO2 PK WND 21027/1720 WSHFT 1715 VIS LWR SE-W SHRA CNS LTGICCG TS OHD-SE-W MOV ENE CB OHD-SE-W MOV ENE TCU=
200807101735 SPECI KATL 101735Z 24019G26KT 8SM R09R/3000VP6000FT -TSRA FEW005 BKN027CB BKN034TCU OVC150 23/21 A3014 RMK AO2 PK WND 21027/1720 WSHFT 1715 VIS LWR SE-W SHRA CNS LTGICCG TS OHD-SE-W MOV ENE CB OHD-SE-W MOV ENE TCU=
200807101729 SPECI KATL 101729Z 22016G27KT 9SM R09R/3500VP6000FT -TSRA SCT027CB BKN034TCU BKN150 BKN250 23/21 A3013 RMK AO2 PK WND 21027/1720 WSHFT 1715 VIS LWR SE-W SHRA CNS LTGICCG TS OHD-SE-W MOV ENE CB OHD-SE-W MOV ENE TCU=
200807101729 SPECI KATL 101729Z 22016G27KT 9SM R09R/3500VP6000FT -TSRA SCT027CB BKN034TCU BKN150 BKN250 23/21 A3013 RMK AO2 PK WND 21027/1720 WSHFT 1715 VIS LWR SE-W SHRA CNS LTGICCG TS OHD-SE-W MOV ENE CB OHD-SE-W MOV ENE TCU=
200807101724 SPECI KATL 101724Z 22011G27KT 9SM -TSRA BKN027CB BKN040TCU BKN150 BKN250 24/20 A3012 RMK AO2 PK WND 21027/1720 VIS LWR SE-SW SHRA CNS LTGICCG TS 2SM VC SE-SW MOV ENE CB VC SE-SW MOV ENE TCU NE P0001=
200807101724 SPECI KATL 101724Z 22011G27KT 9SM -TSRA BKN027CB BKN040TCU BKN150 BKN250 24/20 A3012 RMK AO2 PK WND 21027/1720 VIS LWR SE-SW SHRA CNS LTGICCG TS 2SM VC SE-SW MOV ENE CB VC SE-SW MOV ENE TCU NE P0001=
200807101716 SPECI KATL 101716Z 23016G25KT 9SM -TSRA FEW015CB SCT030TCU BKN150 BKN250 27/22 A3012 RMK AO2 CNS LTGICCG TS 4SM VC S-SW MOV ENE CB VC E S-SW MOV E TCU SE NW SHRA VC E S-SW P0001=
200807101716 SPECI KATL 101716Z 23016G25KT 9SM -TSRA FEW015CB SCT030TCU BKN150 BKN250 27/22 A3012 RMK AO2 CNS LTGICCG TS 4SM VC S-SW MOV ENE CB VC E S-SW MOV E TCU SE NW SHRA VC E S-SW P0001=
200807101711 SPECI KATL 101711Z 35006KT 9SM -TSRA FEW015CB SCT030TCU BKN150 BKN250 28/23 A3012 RMK AO2 CNS LTGICCG TS 4SM VC SW MOV ENE CB VC E SW MOV E TCU SE NW P0001=
200807101711 SPECI KATL 101711Z 35006KT 9SM -TSRA FEW015CB SCT030TCU BKN150 BKN250 28/23 A3012 RMK AO2 CNS LTGICCG TS 4SM VC SW MOV ENE CB VC E SW MOV E TCU SE NW P0001=
200807101705 SPECI KATL 101705Z 33007KT 9SM -TSRA FEW015CB SCT030TCU BKN150 BKN250 28/22 A3012 RMK AO2 FRQ LTGICCG TS 6SM VC SW MOV ENE CB VC E SW MOV E TCU SE-S P0001=
200807101705 SPECI KATL 101705Z 33007KT 9SM -TSRA FEW015CB SCT030TCU BKN150 BKN250 28/22 A3012 RMK AO2 FRQ LTGICCG TS 6SM VC SW MOV ENE CB VC E SW MOV E TCU SE-S P0001=
200807101658 SPECI KATL 101658Z 36008KT 9SM -TSRA FEW013CB SCT032TCU BKN150 BKN250 27/23 A3012 RMK AO2 FRQ LTGICCG TS VC NE SW MOV E CB VC NE SW MOV E P0001=
200807101658 SPECI KATL 101658Z 36008KT 9SM -TSRA FEW013CB SCT032TCU BKN150 BKN250 27/23 A3012 RMK AO2 FRQ LTGICCG TS VC NE SW MOV E CB VC NE SW MOV E P0001=
200807101652 METAR KATL 101652Z 35012G17KT 6SM TSRA FEW040CB SCT050TCU BKN150 BKN250 27/23 A3012 RMK AO2 TSB32RAB49 SLP191 VIS LWR NE-E SHRA FRQ LTGICCG TS 5SM VC NE MOV E CB VC NE MOV E TCU SE-S W-NW P0000 T02720233=
200807101649 SPECI KATL 101649Z 33012G17KT 4SM TSRA FEW040CB SCT050TCU BKN150 BKN250 28/22 A3013 RMK AO2 TSB32RAB49 FRQ LTGICCG TS 5SM VC NE MOV E CB VC NE MOV E TCU SE-S W-NW P0000=
200807101649 SPECI KATL 101649Z 33012G17KT 4SM TSRA FEW040CB SCT050TCU BKN150 BKN250 28/22 A3013 RMK AO2 TSB32RAB49 FRQ LTGICCG TS 5SM VC NE MOV E CB VC NE MOV E TCU SE-S W-NW P0000=
200807101647 SPECI KATL 101647Z 32014G17KT 10SM TS FEW040CB SCT050TCU BKN150 BKN250 29/22 A3013 RMK AO2 TSB32 FRQ LTGICCG TS 5SM VC NE MOV E CB VC NE MOV E TCU SE-S W-NW=
200807101647 SPECI KATL 101647Z 32014G17KT 10SM TS FEW040CB SCT050TCU BKN150 BKN250 29/22 A3013 RMK AO2 TSB32 FRQ LTGICCG TS 5SM VC NE MOV E CB VC NE MOV E TCU SE-S W-NW=
200807101640 SPECI KATL 101640Z 24007KT 10SM TS SCT040CB BKN150 OVC180 30/22 A3013 RMK AO2 TSB32 CNS LTGICCG TS 3SM VC N-NE MOV E CB VC N-NE MOV E=
200807101640 SPECI KATL 101640Z 24007KT 10SM TS SCT040CB BKN150 OVC180 30/22 A3013 RMK AO2 TSB32 CNS LTGICCG TS 3SM VC N-NE MOV E CB VC N-NE MOV E=
200807101632 SPECI KATL 101632Z VRB06KT 10SM TS BKN033CB BKN042 BKN150 BKN250 30/22 A3013 RMK AO2 TSB32 FRQ LTGICCG TS VC NW-N MOV E CB VC NW-N MOV E=
200807101632 SPECI KATL 101632Z VRB06KT 10SM TS BKN033CB BKN042 BKN150 BKN250 30/22 A3013 RMK AO2 TSB32 FRQ LTGICCG TS VC NW-N MOV E CB VC=
200807101552 METAR KATL 101552Z 30007KT 10SM FEW035 BKN150 BKN250 29/21 A3014 RMK AO2 SLP194 T02940211=
200807101452 METAR KATL 101452Z 28006KT 10SM FEW030 SCT150 SCT250 30/22 A3013 RMK AO2 SLP192 T03000217 50006=
200807101352 METAR KATL 101352Z 28008KT 10SM FEW150 SCT250 27/21 A3013 RMK AO2 SLP193 T02720211=
200807101252 METAR KATL 101252Z 27008KT 10SM SCT150 BKN250 26/21 A3012 RMK AO2 SLP189 T02560211=
200807101152 METAR KATL 101152Z 25006KT 10SM SCT140 23/21 A3011 RMK AO2 SLP187 T02330206 10239 20228 51013=
200807101052 METAR KATL 101052Z 23004KT 10SM FEW090 SCT140 BKN250 23/20 A3010 RMK AO2 SLP182 T02280200=
200807100952 METAR KATL 100952Z 23003KT 10SM FEW200 23/20 A3009 RMK AO2 SLP177 T02280200=
200807100852 METAR KATL 100852Z 24003KT 10SM FEW140 23/20 A3007 RMK AO2 SLP172 T02280200 55012=
200807100752 METAR KATL 100752Z 21007KT 10SM SCT140 23/20 A3007 RMK AO2 SLP172 T02330200=
200807100652 METAR KATL 100652Z 25003KT 10SM SCT140 BKN200 24/19 A3008 RMK AO2 SLP175 T02390194=
200807100552 METAR KATL 100552Z 23005KT 10SM SCT045 BKN140 OVC200 24/20 A3011 RMK AO2 SLP185 60000 T02390200 10283 20233 55002=
200807100452 METAR KATL 100452Z 23004KT 10SM FEW050 SCT140 OVC200 24/19 A3011 RMK AO2 SLP184 T02390194 403170228=
200807100352 METAR KATL 100352Z 00000KT 10SM FEW045 BKN140 OVC200 24/19 A3010 RMK AO2 TSE10 SLP183 TS DSIPTD T02440194=
200807100310 SPECI KATL 100310Z 36008KT 10SM FEW045 SCT150 BKN200 OVC250 24/19 A3010 RMK AO2 TSE10 TS DSIPTD=
200807100310 SPECI KATL 100310Z 36008KT 10SM FEW045 SCT150 BKN200 OVC250 24/19 A3010 RMK AO2 TSE10 TS DSIPTD=
200807100252 METAR KATL 100252Z 34010G20KT 10SM TS FEW045CB SCT070 BKN200 OVC250 25/19 A3011 RMK AO2 TSB51 SLP186 OCNL LTGIC TS VC NW MOV E 60000 T02500194 53016=
200807100152 METAR KATL 100152Z 33009KT 10SM FEW080 SCT120 BKN150 OVC200 26/20 A3008 RMK AO2 RAB04E13 SLP175 P0000 T02560200=
200807100052 METAR KATL 100052Z COR 01007KT 10SM SCT050TCU BKN080 BKN150 OVC200 27/18 A3007 RMK AO2 WSHFT 2340 SLP173 TCU VC SE-SW T02720178=
200807092356 SPECI KATL 092356Z 05018KT 10SM SCT050 BKN080 OVC200 27/19 A3006 RMK AO2 WSHFT 2340 CB DSNT NE-E AND NW=
200807092356 SPECI KATL 092356Z 05018KT 10SM SCT050 BKN080 OVC200 27/19 A3006 RMK AO2 WSHFT 2340 CB DSNT NE-E AND NW=
200807092352 METAR KATL 092352Z 05015KT 10SM SCT050 BKN080 OVC200 27/19 A3007 RMK AO2 SLP171 CB DSNT NE-E AND NW T02720194 10317 20272 53010=
200807092345 SPECI KATL 092345Z 05017G24KT 10SM SCT050 BKN080 OVC200 27/19 A3007 RMK AO2 CB DSNT N AND NE=
200807092345 SPECI KATL 092345Z 05017G24KT 10SM SCT050 BKN080 OVC200 27/19 A3007 RMK AO2 CB DSNT N AND NE=
200807092252 METAR KATL 092252Z 24009KT 10SM SCT045 SCT080 BKN200 OVC250 31/19 A3004 RMK AO2 SLP163 CB DSNT N AND NE MDT CU SE T03110189=
200807092152 METAR KATL 092152Z 22008KT 10SM SCT050 BKN200 BKN250 31/19 A3004 RMK AO2 SLP160 MDT CU ALQDS T03110194=
200807092052 METAR KATL 092052Z 21010KT 10SM FEW048 SCT060 BKN180 BKN250 31/20 A3004 RMK AO2 SLP160 LTG DSNT NE CB DSNT NE MOV E T03110200 56020=
200807091952 SPECI KATL 091952Z 22013KT 10SM FEW050TCU BKN080 BKN250 31/19 A3005 RMK AO2 SLP164 LTG DSNT N-NE CB DSNT N-NE MOV E TCU VC NE T03060194=
200807091852 METAR KATL 091852Z 22008KT 10SM SCT040TCU SCT250 31/21 A3008 RMK AO2 SLP173 TCU NW-N T03110206=
200807091752 METAR KATL 091752Z 22011KT 10SM FEW035 SCT250 31/21 A3010 RMK AO2 SLP180 T03060211 10306 20228 58011=
200807091652 METAR KATL 091652Z 23008KT 9SM SCT035 SCT250 29/21 A3012 RMK AO2 SLP190 MDT CU NE-S T02940211=
200807091552 METAR KATL 091552Z 23010KT 190V260 10SM FEW030 SCT250 29/21 A3013 RMK AO2 SLP192 T02890211=
200807091452 METAR KATL 091452Z 22008KT 10SM FEW020 SCT040 SCT250 28/21 A3013 RMK AO2 SLP193 T02780206 50005=
200807091352 METAR KATL 091352Z 25007KT 10SM FEW020 SCT250 SCT300 26/21 A3014 RMK AO2 SLP195 T02610211=
200807091252 METAR KATL 091252Z 24008KT 6SM HZ SCT250 24/21 A3013 RMK AO2 SLP192 T02390211=
200807091152 METAR KATL 091152Z COR 21005KT 6SM BR FEW047 SCT140 BKN200 23/21 A3012 RMK SLP188 70069 T02280211 10244 20228 53006=
200807091052 METAR KATL 091052Z 00000KT 6SM BR FEW055 SCT140 BKN200 23/21 A3011 RMK AO2 SLP184 T02280211=
200807090952 METAR KATL 090952Z 00000KT 9SM FEW140 BKN200 23/21 A3010 RMK AO2 SLP181 T02280211=
200807090852 METAR KATL 090852Z 32005KT 10SM FEW140 SCT200 23/21 A3010 RMK AO2 SLP181 T02330211 55001=
200807090752 METAR KATL 090752Z 00000KT 10SM FEW140 BKN200 24/21 A3009 RMK AO2 SLP176 T02390211=
200807090652 METAR KATL 090652Z 22004KT 10SM SCT140 BKN200 24/22 A3010 RMK AO2 SLP181 T02440217=
200807090552 METAR KATL 090552Z 16003KT 9SM FEW070 BKN140 OVC200 24/23 A3010 RMK AO2 RAE02 SLP182 P0000 60069 T02440228 10294 20233 58002=
200807090452 METAR KATL 090452Z 00000KT 10SM -RA FEW070 BKN140 OVC200 24/22 A3012 RMK AO2 RAE02B49 SLP188 OCNL LTG DSNT E-SE P0000 T02440222 403220222=
200807090352 METAR KATL 090352Z 00000KT 10SM -RA FEW040 BKN120 OVC150 24/22 A3012 RMK AO2 TSE26 SLP190 TS MOV E FRQ LTG DSNT NE-E P0006 T02440222=
200807090326 SPECI KATL 090326Z 28004KT 7SM -RA BKN040 BKN055 OVC080 24/22 A3012 RMK AO2 TSE26 TS MOV E FRQ LTG DSNT NE-E P0003=
200807090326 SPECI KATL 090326Z 28004KT 7SM -RA BKN040 BKN055 OVC080 24/22 A3012 RMK AO2 TSE26 TS MOV E FRQ LTG DSNT NE-E P0003=
200807090252 METAR KATL 090252Z 30005KT 6SM -TSRA BR FEW025 BKN045CB OVC070 24/22 A3011 RMK AO2 SLP185 CONS LTGICCG TS VC NE MOV NE P0063 60063 T02440222 53019=
200807090232 SPECI KATL 090232Z 35011KT 4SM +TSRA BR FEW025 BKN040CB OVC070 24/22 A3011 RMK AO2 FRQ LTGICCG TS NE-OHD-W MOV NE VIS NW-NE 2 P0050=
200807090232 SPECI KATL 090232Z 35011KT 4SM +TSRA BR FEW025 BKN040CB OVC070 24/22 A3011 RMK AO2 FRQ LTGICCG TS NE-OHD-W MOV NE VIS NW-NE 2 P0050=
200807090152 METAR KATL 090152Z 19008KT 10SM -TSRA FEW040CB BKN055 BKN150 OVC200 27/21 A3008 RMK AO2 TSB33RAB44 SLP175 FRQ LTGICCG TS VC W-NW MOV E P0000 T02720211=
200807090134 SPECI KATL 090134Z 20006KT 10SM TS FEW045CB BKN065 BKN150 BKN200 28/21 A3007 RMK AO2 TSB33 FRQ LTGICCG TS VC W-NW MOV E=
200807090134 SPECI KATL 090134Z 20006KT 10SM TS FEW045CB BKN065 BKN150 BKN200 28/21 A3007 RMK AO2 TSB33 FRQ LTGICCG TS VC W-NW MOV E=
200807090052 METAR KATL 090052Z 17007KT 10SM FEW045 SCT080 BKN150 BKN200 29/20 A3006 RMK AO2 SLP167 OCNL LTG DSNT NE AND SW-W T02890200=
200807082352 METAR KATL 082352Z 19008KT 10SM FEW040 SCT150 BKN200 BKN250 29/20 A3005 RMK AO2 SLP165 FRQ LTG DSNT NW-N T02940200 10322 20283 55003=
200807082252 METAR KATL 082252Z 16009KT 10SM FEW045 SCT140 BKN200 BKN250 31/19 A3004 RMK AO2 SLP161 CB DSNT NW-N T03060194=
200807082152 METAR KATL 082152Z 21009KT 10SM FEW045TCU SCT200 BKN250 31/19 A3005 RMK AO2 TSE2055 SLP164 TS DSIPT TCU VC W-NW AND DSNT NE T03060189=
200807082141 SPECI KATL 082141Z 21009KT 10SM FEW045 BKN200 BKN250 32/19 A3005 RMK AO2 TSE2055 TS DSIPT CB DSNT W-NW=
200807082141 SPECI KATL 082141Z 21009KT 10SM FEW045 BKN200 BKN250 32/19 A3005 RMK AO2 TSE2055 TS DSIPT CB DSNT W-NW=
200807082055 SPECI KATL 082055Z 09008KT 10SM SCT045CB BKN060 BKN250 30/21 A3006 RMK AO2 TSE55 TS DSIPT CB VC E MOV S SHRA VC E=
200807082055 SPECI KATL 082055Z 09008KT 10SM SCT045CB BKN060 BKN250 30/21 A3006 RMK AO2 TSE55 TS DSIPT CB VC E MOV S SHRA VC E=
200807082052 METAR KATL 082052Z 09010G14KT 10SM TS BKN045CB BKN065 BKN250 31/20 A3006 RMK AO2 SLP168 VIS LWR VC N-NE-E SHRA OCNL LTGICCG TS 5SM VC E MOV S CB VC N-NE-E MOV S T03060200 58017=
200807082034 SPECI KATL 082034Z 06011KT 10SM TS SCT045CB BKN055 BKN250 30/19 A3007 RMK AO2 VIS LWR VC E SHRA OCNL LTGICCG TS 5SM VC E MOV S CB VC E MOV S=
200807082034 SPECI KATL 082034Z 06011KT 10SM TS SCT045CB BKN055 BKN250 30/19 A3007 RMK AO2 VIS LWR VC E SHRA OCNL LTGICCG TS 5SM VC E MOV S CB VC E MOV S=
200807082026 SPECI KATL 082026Z 05016G21KT 9SM TS BKN045CB BKN065 BKN250 29/17 A3007 RMK AO2 VIS LWR NE-E SHRA OCNL LTGICCG TS 5SM NE-E MOV S CB=
200807082026 SPECI KATL 082026Z 05016G21KT 9SM TS BKN045CB BKN065 BKN250 29/17 A3007 RMK AO2 VIS LWR NE-E SHRA OCNL LTGICCG TS 5SM NE-E MOV S CB NE-E MOV S=
200807082019 SPECI KATL 082019Z 07013G21KT 9SM TS BKN047CB BKN065 BKN250 28/18 A3007 RMK AO2 VIS LWR NE SHRA FRQ LTGICCG TS 5SM NE MOV S CB NE MOV S=
200807082019 SPECI KATL 082019Z 07013G21KT 9SM TS BKN047CB BKN065 BKN250 28/18 A3007 RMK AO2 VIS LWR NE SHRA FRQ LTGICCG TS 5SM NE MOV S CB NE MOV S=
200807082012 SPECI KATL 082012Z 08005KT 9SM TS SCT047CB BKN055 BKN070 BKN250 30/19 A3008 RMK AO2 VIS LWR NE SHRA CNS LTGICCG TS 4SM NE MOV S CB NE MOV S=
200807082012 SPECI KATL 082012Z 08005KT 9SM TS SCT047CB BKN055 BKN070 BKN250 30/19 A3008 RMK AO2 VIS LWR NE SHRA CNS LTGICCG TS 4SM NE MOV S CB NE MOV S=
200807082006 SPECI KATL 082006Z 05006KT 10SM TS SCT050CB BKN070 BKN250 31/19 A3008 RMK AO2 VIS LWR NE SHRA CNS LTGICCG TS 5SM VC NE MOV S CB VC NE MOV S=
200807082006 SPECI KATL 082006Z 05006KT 10SM TS SCT050CB BKN070 BKN250 31/19 A3008 RMK AO2 VIS LWR NE SHRA CNS LTGICCG TS 5SM VC NE MOV S CB VC NE MOV S=
200807081957 SPECI KATL 081957Z 22006KT 10SM TS FEW048CB SCT060 BKN075 BKN250 32/19 A3008 RMK AO2 VIS LWR NE SHRA FRQ LTGICCG TS 6SM VC NE MOV SE CB VC NE MOV SE=
200807081957 SPECI KATL 081957Z 22006KT 10SM TS FEW048CB SCT060 BKN075 BKN250 32/19 A3008 RMK AO2 VIS LWR NE SHRA FRQ LTGICCG TS 6SM VC NE MOV SE CB VC NE MOV SE=
200807081952 SPECI KATL 081952Z 22007G16KT 10SM TS FEW050CB BKN065 BKN250 32/19 A3008 RMK AO2 TSB48 SLP175 FRQ LTGICCG TS VC N-NE STNRY SHRA VC N-NE T03220194=
200807081948 SPECI KATL 081948Z 19006G16KT 10SM TS FEW050CB BKN065 BKN250 32/19 A3009 RMK AO2 TSB48 FRQ LTGICCG TS VC N-NE STNRY SHRA VC N-NE=
200807081948 SPECI KATL 081948Z 19006G16KT 10SM TS FEW050CB BKN065 BKN250 32/19 A3009 RMK AO2 TSB48 FRQ LTGICCG TS VC N-NE STNRY SHRA VC N-NE=
200807081923 SPECI KATL 081923Z 22007KT 10SM FEW050CB BKN065 BKN250 32/19 A3009 RMK AO2 CB VC NE MOV E SHRA VC NE=
200807081923 SPECI KATL 081923Z 22007KT 10SM FEW050CB BKN065 BKN250 32/19 A3009 RMK AO2 CB VC NE MOV E SHRA VC NE=
200807081852 METAR KATL 081852Z VRB05G14KT 10SM SCT050TCU SCT250 32/18 A3009 RMK AO2 SLP177 TCU NW-N MDT CU SE-SW T03220183=
200807081752 METAR KATL 081752Z 17007KT 10SM SCT046 SCT250 31/19 A3011 RMK AO2 SLP184 MDT CU NW-N T03110189 10317 20222 58013=
200807081652 METAR KATL 081652Z 22003KT 10SM SCT040 SCT200 30/19 A3013 RMK AO2 SLP191 MDT CU NW T03000194=
200807081552 METAR KATL 081552Z VRB03KT 10SM FEW040 SCT150 SCT250 30/21 A3014 RMK AO2 SLP195 MDT CU SW-NW T03000206=
200807081452 METAR KATL 081452Z 00000KT 10SM FEW100 BKN150 BKN250 29/21 A3015 RMK AO2 SLP198 T02890206 51005=
200807081352 METAR KATL 081352Z 23003KT 10SM FEW150 SCT200 SCT250 27/21 A3015 RMK AO2 SLP198 T02670206=
200807081252 METAR KATL 081252Z 23005KT 10SM BKN180 BKN250 24/21 A3014 RMK AO2 SLP197 T02390206=
200807081152 METAR KATL 081152Z 21005KT 9SM FEW180 SCT250 22/20 A3014 RMK AO2 SLP195 T02220200 10244 20222 51006=
200807081052 METAR KATL 081052Z 19003KT 10SM FEW120 SCT180 SCT250 22/20 A3014 RMK AO2 SLP194 T02220200=
200807080952 METAR KATL 080952Z 20004KT 10SM BKN180 OVC250 23/20 A3012 RMK AO2 SLP189 T02280200=
200807080852 METAR KATL 080852Z 21003KT 10SM BKN180 OVC250 23/20 A3012 RMK AO2 SLP187 T02330200 53001=
200807080752 METAR KATL 080752Z 19003KT 10SM BKN150 OVC200 24/20 A3012 RMK AO2 SLP187 T02390200=
200807080652 METAR KATL 080652Z 24005KT 10SM SCT150 OVC200 24/20 A3011 RMK AO2 SLP185 T02440200=
200807080552 METAR KATL 080552Z 21009KT 10SM BKN120 OVC200 24/20 A3011 RMK AO2 SLP187 T02440200 10289 20244 51002=
200807080452 METAR KATL 080452Z 20009KT 10SM BKN120 OVC200 26/20 A3011 RMK AO2 SLP184 T02560200 403110206=
200807080352 METAR KATL 080352Z 19007KT 10SM FEW050 BKN120 OVC200 26/21 A3012 RMK AO2 SLP189 T02560206=
200807080252 METAR KATL 080252Z 27005KT 10SM FEW090 BKN140 OVC200 27/20 A3011 RMK AO2 SLP185 T02670200 50008=
200807080152 METAR KATL 080152Z 15004KT 10SM BKN090 BKN120 BKN150 OVC200 27/19 A3011 RMK AO2 TSE26 SLP186 TS DSIPTD OCNL LTG DSNT NW T02720194=
200807080126 SPECI KATL 080126Z 15006KT 10SM FEW045 BKN120 BKN150 OVC200 28/19 A3010 RMK AO2 TSE26 TS DSIPTD OCNL LTG DSNT NW=
200807080126 SPECI KATL 080126Z 15006KT 10SM FEW045 BKN120 BKN150 OVC200 28/19 A3010 RMK AO2 TSE26 TS DSIPTD OCNL LTG DSNT NW=
200807080052 METAR KATL 080052Z COR 15004KT 10SM TS FEW045CB BKN120 BKN150 OVC200 28/19 A3010 RMK AO2 TSB52 SLP182 OCNL LTGCC TS VC NW MOV E FRQ LTG DSNT NW-N T02780189=
200807072352 METAR KATL 072352Z 16006KT 10SM FEW045 BKN170 OVC200 29/20 A3009 RMK AO2 SLP178 CB DSNT N T02890200 10311 20289 53002=
200807072252 METAR KATL 072252Z 18009KT 9SM FEW050 BKN200 OVC250 29/19 A3007 RMK AO2 SLP174 T02940194=
200807072152 METAR KATL 072152Z 19009KT 10SM FEW045 SCT070 OVC200 30/20 A3008 RMK AO2 SLP177 T03000200=
200807072052 METAR KATL 072052Z 13006KT 9SM SCT047 BKN055 BKN070 31/19 A3008 RMK AO2 SLP175 T03060194 56014=
200807071952 METAR KATL 071952Z 14007KT 10SM SCT043 BKN055 BKN200 31/19 A3009 RMK AO2 SLP179 CB DSNT NE T03060194=
200807071852 METAR KATL 071852Z 16009KT 10SM BKN041TCU BKN055 29/19 A3011 RMK AO2 SLP185 TCU OHD-NW AND DSNT NE T02940194=
200807071752 METAR KATL 071752Z 17008KT 9SM SCT040 BKN065 29/21 A3012 RMK AO2 SLP191 T02940206 10300 20211 58009=
200807071652 METAR KATL 071652Z 18005KT 9SM BKN030 BKN044 BKN055 28/21 A3014 RMK AO2 SLP197 T02830206=
200807071628 SPECI KATL 071628Z 18005KT 9SM BKN030 BKN037 BKN055 28/21 A3015 RMK AO2 CIG 028V030 BKN030V SCT=
200807071628 SPECI KATL 071628Z 18005KT 9SM BKN030 BKN037 BKN055 28/21 A3015 RMK AO2 CIG 028V030 BKN030V SCT=
200807071552 METAR KATL 071552Z 00000KT 9SM BKN028 27/20 A3015 RMK AO2 SLP199 T02720200=
200807071523 SPECI KATL 071523Z 00000KT 9SM BKN024 28/21 A3015 RMK AO2 BKN024V SCT=
200807071523 SPECI KATL 071523Z 00000KT 9SM BKN024 28/21 A3015 RMK AO2 BKN024V SCT=
200807071452 METAR KATL 071452Z 00000KT 10SM SCT030 27/21 A3015 RMK AO2 SLP200 T02720206 53010=
200807071352 METAR KATL 071352Z 31003KT 10SM FEW016 SCT150 26/21 A3013 RMK AO2 SLP194 T02560206=
200807071252 METAR KATL 071252Z 00000KT 10SM SCT006 SCT080 BKN200 22/19 A3012 RMK AO2 SLP192 T02220194=
200807071152 METAR KATL 071152Z 15003KT 7SM FEW008 SCT080 SCT150 21/19 A3012 RMK AO2 SLP190 60000 70037 T02110189 10222 20206 53009=
200807071144 SPECI KATL 071144Z 13003KT 8SM FEW008 SCT080 SCT150 21/19 A3012 RMK AO2=
200807071144 SPECI KATL 071144Z 13003KT 8SM FEW008 SCT080 SCT150 21/19 A3012 RMK AO2=
200807071052 METAR KATL 071052Z 00000KT 10SM FEW250 21/19 A3010 RMK AO2 SLP185 T02110189=
200807070952 METAR KATL 070952Z 27004KT 10SM FEW250 21/19 A3009 RMK AO2 SLP182 T02110189=
200807070852 METAR KATL 070852Z 23004KT 10SM SCT110 21/19 A3009 RMK AO2 RAE09 SLP180 P0000 60000 T02110189 58000=
200807070752 METAR KATL 070752Z 00000KT 10SM -RA SCT036 BKN048 BKN065 22/19 A3010 RMK AO2 RAB45 SLP185 P0000 T02170189=
200807070652 METAR KATL 070652Z 34005KT 10SM BKN038 BKN055 22/19 A3010 RMK AO2 SLP187 T02170189=
200807070552 METAR KATL 070552Z 22007KT 10SM FEW070 SCT120 21/19 A3009 RMK AO2 SLP182 LTG DSNT W-NW T02110189 10256 20211 50002=
200807070452 METAR KATL 070452Z 16006KT 10SM FEW044 SCT070 22/19 A3010 RMK AO2 SLP185 T02170189 402780194=
200807070352 METAR KATL 070352Z 15004KT 10SM FEW049 SCT250 22/20 A3011 RMK AO2 SLP186 T02220200=
200807070252 METAR KATL 070252Z 17005KT 10SM SCT250 23/20 A3008 RMK AO2 SLP178 CONS LTG DSNT NW CB DSNT NW T02330200 51019=
200807070152 METAR KATL 070152Z 00000KT 10SM SCT250 24/20 A3007 RMK AO2 SLP174 LGT DSNT NW CB DSNT NW T02390200=
200807070052 METAR KATL 070052Z 20004KT 10SM SCT250 25/20 A3004 RMK AO2 SLP163 T02500200=
200807062352 METAR KATL 062352Z 19006KT 10SM SCT250 26/21 A3003 RMK AO2 SLP158 CB DSNT NW 60037 T02560206 10261 20194 58006=
200807062252 METAR KATL 062252Z 18009KT 10SM FEW030 SCT250 26/19 A3003 RMK AO2 SLP161 CB DSNT SW T02610194=
200807062152 METAR KATL 062152Z 15011KT 10SM SCT250 26/20 A3005 RMK AO2 SLP166 T02560200=
200807062052 METAR KATL 062052Z 12006KT 10SM FEW020 SCT150 SCT250 25/20 A3004 RMK AO2 SLP165 60037 T02500200 55018=
200807061952 METAR KATL 061952Z 00000KT 10SM FEW013 BKN150 BKN250 22/19 A3003 RMK AO2 TSE34RAE24 SLP163 CB DSNT E-S AND SW P0005 T02170194=
200807061934 SPECI KATL 061934Z 00000KT 10SM FEW013 SCT028 SCT047 BKN150 22/19 A3005 RMK AO2 TSE34RAE24 LTG DSNT SE CB DSNT E-S AND SW P0005=
200807061934 SPECI KATL 061934Z 00000KT 10SM FEW013 SCT028 SCT047 BKN150 22/19 A3005 RMK AO2 TSE34RAE24 LTG DSNT SE CB DSNT E-S AND SW P0005=
200807061852 METAR KATL 061852Z 19006KT 8SM -TSRA SCT020 BKN028CB BKN047 20/18 A3007 RMK AO2 SLP176 FRQ LTGICCG TS OHD-ALQDS MOV E VIS LWR E-SE-SW SHRA P0032 T02000183=
200807061837 SPECI KATL 061837Z 10005KT 4SM TSRA BR SCT018 BKN038CB OVC047 19/18 A3008 RMK AO2 FRQ LTGICCG TS OHD-ALQDS MOV E P0031=
200807061837 SPECI KATL 061837Z 10005KT 4SM TSRA BR SCT018 BKN038CB OVC047 19/18 A3008 RMK AO2 FRQ LTGICCG TS OHD-ALQDS MOV E P0031=
200807061830 SPECI KATL 061830Z 10009KT 1 3/4SM R09R/4500VP6000FT +TSRA SCT012 BKN036CB OVC047 20/17 A3009 RMK AO2 FRQ LTGICCG TS OHD-ALQDS MOV E P0026=
200807061830 SPECI KATL 061830Z 10009KT 1 3/4SM R09R/4500VP6000FT +TSRA SCT012 BKN036CB OVC047 20/17 A3009 RMK AO2 FRQ LTGICCG TS OHD-ALQDS MOV E P0026=
200807061816 SPECI KATL 061816Z 02010G15KT 2 1/2SM +TSRA SCT026 BKN037CB OVC047 21/18 A3011 RMK AO2 OCNL LTGICCG TS OHD-ALQDS MOV E P0008=
200807061816 SPECI KATL 061816Z 02010G15KT 2 1/2SM +TSRA SCT026 BKN037CB OVC047 21/18 A3011 RMK AO2 OCNL LTGICCG TS OHD-ALQDS MOV E P0008=
200807061752 METAR KATL 061752Z 02015G22KT 6SM -TSRA SCT025 BKN033CB BKN041 22/18 A3010 RMK AO2 WSHFT 1719 TSB1659 SLP184 OCNL LTGICCG TS OHD-ALQDS MOV E VIS LWR N-E AND SE-S SHRA P0000 60000 T02220178 10278 20222 53010=
200807061737 SPECI KATL 061737Z 02016KT 7SM -TSRA SCT023 BKN029CB BKN037 23/18 A3008 RMK AO2 WSHFT 1719 TSB1659 OCNL LTGICCG TS OHD-ALQDS MOV E VIS LWR N-E SHRA P0000=
200807061737 SPECI KATL 061737Z 02016KT 7SM -TSRA SCT023 BKN029CB BKN037 23/18 A3008 RMK AO2 WSHFT 1719 TSB1659 OCNL LTGICCG TS OHD-ALQDS MOV E VIS LWR N-E SHRA P0000=
200807061659 SPECI KATL 061659Z 20010KT 9SM -TSRA BKN029CB BKN042 OVC095 27/21 A3006 RMK AO2 TSB59 OCNL LTGICCG TS OHD-ALQDS MOV SE P0000=
200807061659 SPECI KATL 061659Z 20010KT 9SM -TSRA BKN029CB BKN042 OVC095 27/21 A3006 RMK AO2 TSB59 OCNL LTGICCG TS OHD-ALQDS MOV SE P0000=
200807061652 METAR KATL 061652Z 20006KT 9SM -RA BKN028CB BKN038 OVC060 27/21 A3006 RMK AO2 RAB51 SLP169 CB OHD-ALQDS MOV SE LTG DSNT NW-N SHRA VC N P0000 T02670206=
200807061631 SPECI KATL 061631Z 18007KT 10SM BKN023 BKN033 BKN150 27/20 A3007 RMK AO2 BKN023V SCT LTG DSNT NW-N CB DSNT NW-N=
200807061631 SPECI KATL 061631Z 18007KT 10SM BKN023 BKN033 BKN150 27/20 A3007 RMK AO2 BKN023V SCT LTG DSNT NW-N CB DSNT NW-N=
200807061552 METAR KATL 061552Z 00000KT 9SM SCT025 SCT120 BKN150 OVC200 27/21 A3008 RMK AO2 SLP176 T02670206=
200807061452 METAR KATL 061452Z 00000KT 9SM FEW020 SCT120 BKN150 OVC250 25/21 A3007 RMK AO2 SLP173 T02500206 53011=
200807061352 METAR KATL 061352Z 25005KT 9SM SCT120 BKN150 OVC250 24/21 A3006 RMK AO2 SLP169 T02440206=
200807061252 METAR KATL 061252Z 27006KT 10SM SCT110 BKN150 BKN250 24/20 A3004 RMK AO2 SLP164 T02390200=
200807061152 METAR KATL 061152Z 29005KT 10SM FEW100 BKN140 BKN250 22/19 A3003 RMK AO2 SLP161 70053 T02220194 10222 20211 50002=
200807061052 METAR KATL 061052Z 28006KT 10SM BKN140 BKN250 21/19 A3003 RMK AO2 SLP161 T02110189=
200807060952 METAR KATL 060952Z 25005KT 10SM FEW050 SCT120 BKN250 21/19 A3003 RMK AO2 SLP160 T02110189=
200807060852 METAR KATL 060852Z 23004KT 10SM FEW050 SCT120 BKN250 22/19 A3003 RMK AO2 SLP159 T02170189 53001=
200807060752 METAR KATL 060752Z 24005KT 10SM FEW050 SCT120 BKN250 22/19 A3002 RMK AO2 SLP157 T02170189=
200807060652 METAR KATL 060652Z 00000KT 10SM FEW055 SCT110 SCT250 21/18 A3002 RMK AO2 SLP157 T02110183=
200807060552 METAR KATL 060552Z 24006KT 10SM FEW060 SCT110 BKN250 22/18 A3002 RMK AO2 SLP158 T02220178 10261 20222 56001=
200807060452 METAR KATL 060452Z 23006KT 10SM FEW060 SCT110 SCT250 23/16 A3003 RMK AO2 TSE0359 SLP159 TS DSIPTD T02330161 403110206=
200807060400 SPECI KATL 060400Z 28005KT 10SM FEW060 SCT110 BKN250 23/17 A3002 RMK AO2 TSE0359 TS DSIPTD=
200807060400 SPECI KATL 060400Z 28005KT 10SM FEW060 SCT110 BKN250 23/17 A3002 RMK AO2 TSE0359 TS DSIPTD=
200807060352 METAR KATL 060352Z 28005KT 10SM TS FEW025CB SCT110 BKN250 23/17 A3002 RMK AO2 TSB12 SLP154 OCNL LTGIC TS VC NE MOV NE LTG DSNT NE T02280172=
200807060313 SPECI KATL 060313Z 28006KT 10SM TS FEW025CB SCT110 BKN250 23/18 A3002 RMK AO2 TSB12 OCNL LTGIC TS VC NW MOV NE LTG DSNT NE=
200807060313 SPECI KATL 060313Z 28006KT 10SM TS FEW025CB SCT110 BKN250 23/18 A3002 RMK AO2 TSB12 OCNL LTGIC TS VC NW MOV NE LTG DSNT NE=
200807060252 METAR KATL 060252Z 27009KT 10SM FEW060 BKN250 23/18 A3003 RMK AO2 SLP157 T02330178 51017=
200807060152 METAR KATL 060152Z 25006KT 10SM FEW044 OVC250 24/18 A3000 RMK AO2 SLP149 T02440178=
200807060052 METAR KATL 060052Z 24005KT 10SM FEW065 SCT110 OVC250 25/18 A3000 RMK AO2 SLP151 T02500178=
200807052352 METAR KATL 052352Z 23005KT 10SM FEW030 OVC250 27/19 A2998 RMK AO2 SLP141 60029 T02670189 10272 20233 55006=
200807052252 METAR KATL 052252Z 19008KT 10SM FEW024 BKN250 27/21 A2997 RMK AO2 TSE05 SLP140 TS DSIPTD CB DSNT SW T02670211=
200807052206 SPECI KATL 052206Z 20007KT 10SM FEW020CB SCT100 BKN250 26/21 A2999 RMK AO2 TSE05 TS DSIPTD CB DSNT SW=
200807052206 SPECI KATL 052206Z 20007KT 10SM FEW020CB SCT100 BKN250 26/21 A2999 RMK AO2 TSE05 TS DSIPTD CB DSNT SW=
200807052152 METAR KATL 052152Z 22006KT 10SM TS FEW022CB SCT150 SCT250 26/21 A2999 RMK AO2 TSB50 SLP146 OCNL LTGIC TS SW-W MOV SE SHRA SW T02560211=
200807052052 METAR KATL 052052Z 18008KT 10SM FEW025 SCT150 SCT250 27/21 A3000 RMK AO2 TSE18 SLP148 CB DSNT SW-W TCU DSNT NW 60029 T02720206 56013=
200807052018 SPECI KATL 052018Z 20011KT 10SM FEW020 SCT050 SCT075 BKN150 26/20 A2999 RMK AO2 TSE18 CB DSNT SE TCU DSNT W-NW-N=
200807052018 SPECI KATL 052018Z 20011KT 10SM FEW020 SCT050 SCT075 BKN150 26/20 A2999 RMK AO2 TSE18 CB DSNT SE TCU DSNT W-NW-N=
200807051952 METAR KATL 051952Z 19007KT 10SM TS SCT018 SCT046CB BKN120 25/21 A3000 RMK AO2 WSHFT 1922 RAB1855E43 SLP151 OCNL LTGIC TS N-OHD-S MOV E SHRA VC E-S P0029 T02500206=
200807051939 SPECI KATL 051939Z 19010KT 9SM -TSRA SCT009 BKN040CB BKN060 24/20 A3001 RMK AO2 WSHFT 1922 RAB1855 OCNL LTGICCG TS N-OHD-S MOV E SHRA VC E-SW P0029=
200807051939 SPECI KATL 051939Z 19010KT 9SM -TSRA SCT009 BKN040CB BKN060 24/20 A3001 RMK AO2 WSHFT 1922 RAB1855 OCNL LTGICCG TS N-OHD-S MOV E SHRA VC E-SW P0029=
200807051936 SPECI KATL 051936Z 18013KT 5SM R09R/5000VP6000FT -TSRA SCT009 BKN040CB BKN060 24/21 A3002 RMK AO2 WSHFT 1922 RAB1855 FRQ LTGICCG TS OHD-ALQDS MOV E P0029=
200807051936 SPECI KATL 051936Z 18013KT 5SM R09R/5000VP6000FT -TSRA SCT009 BKN040CB BKN060 24/21 A3002 RMK AO2 WSHFT 1922 RAB1855 FRQ LTGICCG TS OHD-ALQDS MOV E P0029=
200807051852 METAR KATL 051852Z 34008KT 10SM TS SCT025CB BKN050 BKN065 27/21 A3002 RMK AO2 TSE40B48 SLP156 OCNL LTGICCG TS SW-N MOV E SHRA SW-N T02720206=
200807051849 SPECI KATL 051849Z 28003KT 10SM TS SCT025CB BKN050 BKN065 27/21 A3002 RMK AO2 TSE40B48 OCNL LTGICCG TS SW-N MOV E SHRA VC SW-N=
200807051849 SPECI KATL 051849Z 28003KT 10SM TS SCT025CB BKN050 BKN065 27/21 A3002 RMK AO2 TSE40B48 OCNL LTGICCG TS SW-N MOV E SHRA VC SW-N=
200807051840 SPECI KATL 051840Z 00000KT 10SM SCT025CB SCT047 BKN055 27/21 A3001 RMK AO2 TSE40 CB VC SW-NW MOV E SHRA VC SW-NW=
200807051840 SPECI KATL 051840Z 00000KT 10SM SCT025CB SCT047 BKN055 27/21 A3001 RMK AO2 TSE40 CB VC SW-NW MOV E SHRA VC SW-NW=
200807051752 METAR KATL 051752Z 00000KT 10SM TS FEW015 SCT049CB BKN110 26/21 A3004 RMK AO2 PK WND 34026/1653 WSHFT 1644 RAE19 SLP161 FRQ LTGICCG TS VC E-S AND W MOV E P0024 60024 T02560206 10311 20222 58008=
200807051710 SPECI KATL 051710Z 18008KT 7SM -TSRA FEW008 SCT038CB BKN050 23/20 A3006 RMK AO2 PK WND 34026/1653 WSHFT 1644 FRQ LTGICCG TS OHD-ALQDS MOV E P0024=
200807051710 SPECI KATL 051710Z 18008KT 7SM -TSRA FEW008 SCT038CB BKN050 23/20 A3006 RMK AO2 PK WND 34026/1653 WSHFT 1644 FRQ LTGICCG TS OHD-ALQDS MOV E P0024=
200807051703 SPECI KATL 051703Z 08007KT 1 1/4SM R09R/2600VP6000FT +TSRA FEW001 SCT015CB BKN040 23/19 A3006 RMK AO2 PK WND 34026/1653 WSHFT 1644 FRQ LTGICCG TS OHD-ALQDS MOV E P0024=
200807051703 SPECI KATL 051703Z 08007KT 1 1/4SM R09R/2600VP6000FT +TSRA FEW001 SCT015CB BKN040 23/19 A3006 RMK AO2 PK WND 34026/1653 WSHFT 1644 FRQ LTGICCG TS OHD-ALQDS MOV E P0024=
200807051652 METAR KATL 051652Z 34024G30KT 4SM R09R/3000VP6000FT TSRA HZ SCT040CB BKN047 BKN150 25/19 A3006 RMK AO2 PK WND 34030/1651 TSB21RAB51 SLP168 OCNL LTGICCG TS OHD-ALQDS MOV E P0000 T02500189=
200807051621 SPECI KATL 051621Z 28009G14KT 10SM TS SCT037CB BKN047 BKN150 30/19 A3005 RMK AO2 TSB21 OCNL LTGICCG TS VC W-NW MOV E=
200807051621 SPECI KATL 051621Z 28009G14KT 10SM TS SCT037CB BKN047 BKN150 30/19 A3005 RMK AO2 TSB21 OCNL LTGICCG TS VC W-NW MOV E=
200807051552 METAR KATL 051552Z COR 24006KT 10SM SCT032 BKN150 BKN250 29/19 A3005 RMK AO2 SLP166 CB DSNT W-NW T02890194=
200807051452 METAR KATL 051452Z 30007KT 10SM FEW035 SCT150 BKN250 28/19 A3006 RMK AO2 SLP167 T02830189 50003=
200807051352 METAR KATL 051352Z 24003KT 10SM FEW095 SCT150 BKN250 26/18 A3007 RMK AO2 SLP170 T02610183=
200807051252 METAR KATL 051252Z 22003KT 10SM SCT090 SCT150 BKN220 23/18 A3006 RMK AO2 SLP170 T02280178=
200807051152 METAR KATL 051152Z 27003KT 10SM FEW090 BKN140 BKN220 22/18 A3005 RMK AO2 PK WND 32026/1137 SLP165 70001 T02220178 10233 20206 51008=
200807051052 METAR KATL 051052Z 00000KT 10SM FEW050 SCT095 BKN140 BKN220 21/17 A3005 RMK AO2 SLP163 T02110172=
200807050952 METAR KATL 050952Z 26004KT 10SM FEW055 SCT140 BKN200 21/17 A3004 RMK AO2 SLP160 T02060172=
200807050852 METAR KATL 050852Z 28005KT 10SM SCT060 BKN140 BKN200 22/17 A3003 RMK AO2 SLP157 T02170172 56007=
200807050752 METAR KATL 050752Z 26004KT 10SM FEW110 SCT150 BKN200 22/18 A3003 RMK AO2 SLP159 T02220178=
200807050652 METAR KATL 050652Z 30004KT 10SM SCT110 BKN150 BKN200 23/18 A3004 RMK AO2 SLP162 T02280178=
200807050552 METAR KATL 050552Z 27005KT 10SM SCT110 BKN150 BKN200 24/18 A3005 RMK AO2 SLP164 T02390183 10300 20233 58004=
200807050452 METAR KATL 050452Z 00000KT 10SM BKN120 BKN150 OVC200 24/19 A3006 RMK AO2 SLP167 T02440189 403220217=
200807050352 METAR KATL 050352Z 19005KT 10SM FEW150 BKN200 OVC250 25/19 A3006 RMK AO2 SLP169 T02500189=
200807050252 METAR KATL 050252Z 24008KT 10SM FEW150 SCT200 BKN250 27/18 A3006 RMK AO2 SLP168 T02670183 53019=
200807050152 METAR KATL 050152Z 23008KT 10SM SCT110 BKN150 BKN250 28/17 A3004 RMK AO2 SLP160 T02780172=
200807050052 METAR KATL 050052Z 27006KT 10SM FEW140 SCT200 BKN250 28/18 A3001 RMK AO2 SLP151 CB DSNT N AND S T02830178=
200807042352 METAR KATL 042352Z 24008KT 10SM SCT140 BKN250 30/18 A3000 RMK AO2 SLP149 60001 T03000183 10322 20244 56005=
200807042252 METAR KATL 042252Z 24009KT 10SM FEW060 SCT140 SCT250 31/17 A3001 RMK AO2 SLP150 T03110167=
200807042152 METAR KATL 042152Z 26007KT 10SM FEW060 SCT200 32/16 A3000 RMK AO2 SLP149 T03170161=
200807042052 METAR KATL 042052Z 24007KT 10SM FEW060 SCT110 BKN200 31/15 A3002 RMK AO2 SLP154 TCU DSNT E 60001 T03110150 58020=
200807041952 METAR KATL 041952Z 24007KT 10SM FEW055 SCT110 BKN200 29/19 A3004 RMK AO2 TSE15RAE1855 SLP161 P0000 T02940194=
200807041916 SPECI KATL 041916Z 16004KT 9SM SCT055 BKN100 BKN200 27/19 A3006 RMK AO2 TSE15RAE1855 TS DSIPT P0000=
200807041916 SPECI KATL 041916Z 16004KT 9SM SCT055 BKN100 BKN200 27/19 A3006 RMK AO2 TSE15RAE1855 TS DSIPT P0000=
200807041852 METAR KATL 041852Z 20008KT 7SM -TSRA FEW020 BKN055CB BKN090 BKN200 24/18 A3008 RMK AO2 WSHFT 1835 TSB37RAB38 SLP176 OCNL LTGCG TS OHD-SE-SW MOV E P0001 T02440183=
200807041850 SPECI KATL 041850Z 20011KT 7SM -TSRA FEW020 BKN055CB BKN090 BKN200 25/19 A3008 RMK AO2 WSHFT 1835 TSB37RAB38 OCNL LTGCG TS OHD-SE-SW MOV E P0001=
200807041850 SPECI KATL 041850Z 20011KT 7SM -TSRA FEW020 BKN055CB BKN090 BKN200 25/19 A3008 RMK AO2 WSHFT 1835 TSB37RAB38 OCNL LTGCG TS OHD-SE-SW MOV E P0001=
200807041838 SPECI KATL 041838Z 20020G23KT 8SM -TSRA SCT055CB BKN090 BKN200 28/19 A3007 RMK AO2 TSB37RAB38 OCNL LTGCG TS SE-SW MOV E P0000=
200807041838 SPECI KATL 041838Z 20020G23KT 8SM -TSRA SCT055CB BKN090 BKN200 28/19 A3007 RMK AO2 TSB37RAB38 OCNL LTGCG TS SE-SW MOV E P0000=
200807041752 METAR KATL 041752Z VRB03KT 10SM SCT055 BKN090 BKN200 31/18 A3009 RMK AO2 RAB17E30 SLP177 TCU DSNT N P0000 60000 T03060183 10311 20222 58009=
200807041652 METAR KATL 041652Z 25006KT 10SM SCT055TCU BKN200 31/17 A3010 RMK AO2 SLP182 TCU VC NW T03110172=
200807041552 METAR KATL 041552Z VRB05KT 10SM FEW060 SCT200 30/18 A3012 RMK AO2 SLP188 T03000178=
200807041452 METAR KATL 041452Z 25006KT 10SM FEW200 29/19 A3012 RMK AO2 SLP187 T02890189 50003=
200807041352 METAR KATL 041352Z 26005KT 10SM FEW200 27/19 A3013 RMK AO2 SLP191 T02670194=
200807041252 METAR KATL 041252Z 23007KT 8SM BKN250 24/19 A3012 RMK AO2 SLP190 T02390194=
200807041152 METAR KATL 041152Z 21006KT 10SM BKN250 22/19 A3011 RMK AO2 SLP185 T02220194 10250 20217 53012=
200807041052 METAR KATL 041052Z 22003KT 10SM FEW150 BKN250 22/19 A3010 RMK AO2 SLP181 T02220194=
200807040952 METAR KATL 040952Z 21005KT 10SM FEW150 22/19 A3008 RMK AO2 SLP176 T02220194=
200807040852 METAR KATL 040852Z 23005KT 10SM SCT090 23/19 A3007 RMK AO2 SLP171 T02330194 56004=
200807040752 METAR KATL 040752Z 22008KT 10SM BKN100 BKN120 24/19 A3008 RMK AO2 SLP173 T02390189=
200807040652 METAR KATL 040652Z 21005KT 10SM BKN100 OVC150 24/19 A3007 RMK AO2 SLP172 T02440189=
200807040552 METAR KATL 040552Z 21005KT 10SM BKN100 OVC110 25/18 A3009 RMK AO2 SLP176 T02500183 10306 20244 50002=
200807040452 METAR KATL 040452Z 24005KT 10SM FEW150 25/18 A3009 RMK AO2 SLP178 T02500178 403280206=
200807040352 METAR KATL 040352Z 23006KT 10SM FEW150 26/17 A3010 RMK AO2 SLP179 T02560172=
200807040252 METAR KATL 040252Z 20006KT 10SM FEW150 27/17 A3008 RMK AO2 SLP174 T02670167 53010=
200807040152 METAR KATL 040152Z 21006KT 10SM FEW200 28/16 A3007 RMK AO2 SLP172 T02780161=
200807040052 METAR KATL 040052Z 00000KT 10SM FEW140 29/15 A3006 RMK AO2 SLP168 T02890150=
200807032352 METAR KATL 032352Z 20007KT 10SM FEW120 SCT200 BKN250 31/14 A3005 RMK AO2 SLP165 T03060139 10328 20306 53002=
200807032252 METAR KATL 032252Z AUTO 22004KT 10SM FEW065 BKN120 BKN250 31/14 A3004 RMK AO2 SLP163 T03060139=
200807032152 METAR KATL 032152Z 22007KT 10SM FEW065 SCT100 BKN250 31/14 A3004 RMK AO2 SLP162 T03110144=
200807032052 METAR KATL 032052Z 17010G14KT 10SM FEW080 SCT100 SCT250 32/14 A3004 RMK AO2 SLP163 MDT CU W-N T03170144 56022=
200807031952 METAR KATL 031952Z 21008KT 10SM FEW080 SCT100 SCT250 32/13 A3007 RMK AO2 SLP170 MDT CU SW T03220133=
200807031852 METAR KATL 031852Z 24005KT 10SM FEW070 SCT100 SCT250 32/13 A3009 RMK AO2 SLP177 T03170133=
200807031752 METAR KATL 031752Z VRB05KT 10SM FEW065 SCT100 32/13 A3011 RMK AO2 SLP185 T03170133 10317 20222 58008=
200807031652 METAR KATL 031652Z 24010KT 10SM SCT060 SCT100 31/14 A3013 RMK AO2 SLP193 T03110139=
200807031552 METAR KATL 031552Z 23010KT 10SM FEW070 SCT100 30/12 A3013 RMK AO2 SLP193 T03000122=
200807031452 METAR KATL 031452Z COR 23006KT 10SM SCT095 29/15 A3014 RMK AO2 SLP194 T02890150 51009=
200807031352 METAR KATL 031352Z 22005KT 10SM FEW100 27/15 A3013 RMK AO2 SLP192 T02670150=
200807031252 METAR KATL 031252Z 19004KT 9SM SCT080 23/13 A3012 RMK AO2 SLP191 T02330133=
200807031152 METAR KATL 031152Z 20003KT 7SM BKN090 22/13 A3011 RMK AO2 SLP186 T02220128 10233 20206 51009=
200807031052 METAR KATL 031052Z 15003KT 8SM SCT090 21/12 A3010 RMK AO2 SLP184 T02110122=
200807030952 METAR KATL 030952Z 00000KT 10SM SCT090 21/13 A3009 RMK AO2 SLP180 T02110128=
200807030852 METAR KATL 030852Z 00000KT 10SM SCT085 21/13 A3008 RMK AO2 SLP176 T02060128 53004=
200807030752 METAR KATL 030752Z 14004KT 10SM CLR 21/12 A3007 RMK AO2 SLP174 T02060122=
200807030652 METAR KATL 030652Z 00000KT 10SM FEW250 22/11 A3007 RMK AO2 SLP172 T02220106=
200807030552 METAR KATL 030552Z 00000KT 10SM FEW250 23/12 A3007 RMK AO2 SLP171 T02280117 10289 20228 58009=
200807030452 METAR KATL 030452Z COR 25003KT 10SM CLR 23/10 A3008 RMK AO2 SLP176 T02330100 403060172=
200807030352 METAR KATL 030352Z 00000KT 10SM CLR 24/11 A3009 RMK AO2 SLP180 T02390111=
200807030252 METAR KATL 030252Z 00000KT 10SM CLR 26/11 A3010 RMK AO2 SLP180 T02560106 51007=
200807030152 METAR KATL 030152Z 00000KT 10SM CLR 27/09 A3009 RMK AO2 SLP178 T02670089=
200807030052 METAR KATL 030052Z 29008KT 10SM CLR 27/08 A3008 RMK AO2 SLP175 T02720083=
200807022352 METAR KATL 022352Z 00000KT 10SM FEW080 28/08 A3007 RMK AO2 SLP175 T02830083 10306 20283 55001=
200807022252 METAR KATL 022252Z 21006KT 10SM FEW080 29/08 A3006 RMK AO2 SLP171 T02940083=
200807022152 METAR KATL 022152Z 22006KT 10SM FEW085 29/08 A3007 RMK AO2 SLP173 T02940078=
200807022052 METAR KATL 022052Z 18007KT 150V220 10SM FEW085 29/07 A3008 RMK AO2 SLP176 T02940072 56015=
200807021952 METAR KATL 021952Z 22008KT 10SM FEW090 30/08 A3009 RMK AO2 SLP180 T03000078=
200807021852 METAR KATL 021852Z VRB04KT 10SM FEW090 30/07 A3011 RMK AO2 SLP185 T03000072=
200807021752 METAR KATL 021752Z 19007KT 10SM FEW080 29/09 A3012 RMK AO2 SLP191 T02940089 10300 20206 58010=
200807021652 METAR KATL 021652Z VRB03KT 10SM FEW075 28/08 A3015 RMK AO2 SLP199 T02780083=
200807021552 METAR KATL 021552Z 14003KT 10SM SCT070 27/09 A3017 RMK AO2 SLP205 T02720094=
200807021452 METAR KATL 021452Z 29003KT 10SM FEW070 28/10 A3015 RMK AO2 SLP200 T02780100 51007=
200807021352 METAR KATL 021352Z 00000KT 10SM CLR 26/10 A3015 RMK AO2 SLP198 T02610100=
200807021252 METAR KATL 021252Z 05004KT 10SM CLR 25/11 A3014 RMK AO2 SLP196 T02500111=
200807021152 METAR KATL 021152Z 00000KT 10SM CLR 21/12 A3013 RMK AO2 SLP194 T02060122 10211 20172 53013=
200807021052 METAR KATL 021052Z 01003KT 10SM FEW250 19/11 A3011 RMK AO2 SLP187 T01890111=
200807020952 METAR KATL 020952Z 33004KT 10SM FEW250 18/11 A3010 RMK AO2 SLP183 T01830111=
200807020852 METAR KATL 020852Z 00000KT 10SM CLR 19/11 A3009 RMK AO2 SLP181 T01890111 55001=
200807020752 METAR KATL 020752Z 00000KT 10SM CLR 19/11 A3008 RMK AO2 SLP178 T01890111=
200807020652 METAR KATL 020652Z 00000KT 10SM CLR 20/11 A3009 RMK AO2 SLP180 T02000106=
200807020552 METAR KATL 020552Z 33004KT 10SM CLR 20/10 A3009 RMK AO2 SLP182 T02000100 10272 20200 50001=
200807020452 METAR KATL 020452Z 00000KT 10SM CLR 22/10 A3011 RMK AO2 SLP185 T02220100 402940167=
200807020352 METAR KATL 020352Z 00000KT 10SM CLR 23/10 A3010 RMK AO2 SLP184 T02280100=
200807020252 METAR KATL 020252Z 03004KT 10SM CLR 25/08 A3009 RMK AO2 SLP180 T02500083 53013=
200807020152 METAR KATL 020152Z 36004KT 10SM CLR 26/08 A3007 RMK AO2 SLP172 T02560078=
200807020052 METAR KATL 020052Z 32005KT 10SM CLR 26/06 A3006 RMK AO2 SLP169 T02560061=
200807012352 METAR KATL 012352Z 33008KT 10SM FEW080 27/07 A3005 RMK AO2 SLP168 T02720067 10294 20267 55004=
200807012252 METAR KATL 012252Z 33010G15KT 10SM SCT085 28/07 A3005 RMK AO2 SLP167 T02830067=
200807012152 METAR KATL 012152Z 26006KT 10SM FEW085 28/07 A3005 RMK AO2 SLP168 T02830072=
200807012052 METAR KATL 012052Z 02009G14KT 10SM FEW080 28/07 A3006 RMK AO2 SLP171 T02830067 58015=
200807011952 METAR KATL 011952Z 36006KT 10SM SCT080 29/07 A3008 RMK AO2 SLP178 T02890067=
200807011852 METAR KATL 011852Z 00000KT 10SM SCT080 27/06 A3010 RMK AO2 SLP182 T02670061=
200807011752 METAR KATL 011752Z 03006KT 10SM FEW085 28/06 A3011 RMK AO2 SLP186 T02780061 10283 20183 58005=
200807011652 METAR KATL 011652Z 03008G17KT 10SM FEW085 28/05 A3011 RMK AO2 SLP187 T02780050=
200807011552 METAR KATL 011552Z 02007G14KT 360V060 10SM FEW085 27/06 A3012 RMK AO2 SLP189 T02670056=
200807011452 METAR KATL 011452Z 35008KT 10SM CLR 25/09 A3012 RMK AO2 SLP191 T02500089 50008=
200807011352 METAR KATL 011352Z 36007KT 330V040 10SM CLR 24/11 A3013 RMK AO2 SLP193 T02390111=
200807011252 METAR KATL 011252Z 33005KT 10SM CLR 21/11 A3012 RMK AO2 SLP190 T02110111=
