##########################################################
# Query made at 04/19/2024 23:05:50 UTC
# Time interval: from 04/01/2008 12:00  to 04/30/2008 12:59  UTC
##########################################################

##########################################################
# KATL, Atlanta, Hartsfield - Jackson Atlanta International Airport (United States)
# WMO index: 72219. WIGOS ID: 0-20000-0-72219
# Latitude 33-38-59N. Longitude 084-25-00W. Altitude 312 m.
##########################################################

200804301252 METAR KATL 301252Z 00000KT 10SM CLR 12/04 A3016 RMK AO2 SLP211 T01170039=
200804301152 METAR KATL 301152Z 00000KT 10SM CLR 08/03 A3014 RMK AO2 SLP206 T00830033 10089 20061 53019=
200804301052 METAR KATL 301052Z 32004KT 10SM CLR 06/03 A3011 RMK AO2 SLP198 T00610028=
200804300952 METAR KATL 300952Z 00000KT 10SM CLR 08/02 A3009 RMK AO2 SLP189 T00830017=
200804300852 METAR KATL 300852Z 33003KT 10SM CLR 08/02 A3008 RMK AO2 SLP186 T00780017 55003=
200804300752 METAR KATL 300752Z 32004KT 10SM CLR 07/02 A3007 RMK AO2 SLP183 T00720017=
200804300652 METAR KATL 300652Z 34006KT 10SM CLR 08/02 A3007 RMK AO2 SLP183 T00830017=
200804300552 METAR KATL 300552Z 32006KT 10SM CLR 08/02 A3009 RMK AO2 SLP190 T00830017 10150 20083 50001=
200804300452 METAR KATL 300452Z 31006KT 10SM CLR 09/01 A3009 RMK AO2 SLP190 T00890011 401720061=
200804300352 METAR KATL 300352Z 30006KT 10SM CLR 09/01 A3009 RMK AO2 SLP190 T00940011=
200804300252 METAR KATL 300252Z 31005KT 10SM CLR 11/01 A3008 RMK AO2 SLP188 T01060006 51012=
200804300152 METAR KATL 300152Z 31006KT 10SM CLR 12/M01 A3007 RMK AO2 SLP183 T01171006=
200804300052 METAR KATL 300052Z 32006KT 10SM CLR 13/M01 A3006 RMK AO2 SLP182 T01331011=
200804292352 METAR KATL 292352Z 34007KT 10SM CLR 15/M02 A3005 RMK AO2 SLP176 T01501017 10172 20144 55000=
200804292252 METAR KATL 292252Z 32008G16KT 10SM CLR 16/M02 A3004 RMK AO2 SLP174 T01611017=
200804292152 METAR KATL 292152Z 35013G17KT 10SM CLR 17/M02 A3005 RMK AO2 SLP174 T01721022=
200804292052 METAR KATL 292052Z 34013G17KT 10SM CLR 17/M02 A3005 RMK AO2 SLP175 T01671022 58016=
200804291952 METAR KATL 291952Z COR 30012G19KT 10SM CLR 16/M01 A3007 RMK AO2 SLP181 T01611011=
200804291852 METAR KATL 291852Z 32011KT 10SM FEW200 16/M01 A3008 RMK AO2 SLP186 T01611006=
200804291752 METAR KATL 291752Z 33009G17KT 10SM FEW200 14/M01 A3010 RMK AO2 SLP192 T01441011 10144 20061 58002=
200804291652 METAR KATL 291652Z 35014G17KT 10SM FEW200 14/M01 A3011 RMK AO2 SLP195 T01391011=
200804291552 METAR KATL 291552Z 36013KT 10SM CLR 12/M02 A3011 RMK AO2 SLP196 T01171017=
200804291452 METAR KATL 291452Z 34015G22KT 10SM FEW200 11/M02 A3010 RMK AO2 SLP195 T01111022 50006=
200804291352 METAR KATL 291352Z 34013G21KT 10SM CLR 09/M02 A3011 RMK AO2 SLP196 T00941017=
200804291252 METAR KATL 291252Z 33014G18KT 10SM CLR 08/M01 A3011 RMK AO2 SLP196 T00781011=
200804291152 METAR KATL 291152Z 33010KT 10SM CLR 06/M01 A3009 RMK AO2 SLP189 T00611006 10111 20061 53020=
200804291052 METAR KATL 291052Z 33010KT 10SM CLR 06/M01 A3006 RMK AO2 SLP181 T00611011=
200804290952 METAR KATL 290952Z 33012KT 10SM CLR 07/00 A3004 RMK AO2 SLP170 T00720000=
200804290852 METAR KATL 290852Z 33010KT 10SM CLR 08/02 A3003 RMK AO2 SLP167 T00830022 52009=
200804290752 METAR KATL 290752Z 33006G15KT 10SM FEW080 09/03 A3002 RMK AO2 SLP163 T00890028=
200804290652 METAR KATL 290652Z 34007KT 10SM FEW080 10/04 A3001 RMK AO2 SLP160 T01000039=
200804290552 METAR KATL 290552Z 34011KT 10SM FEW080 11/04 A3000 RMK AO2 SLP156 T01110044 10161 20106 53009=
200804290452 METAR KATL 290452Z 30006KT 10SM CLR 12/04 A2998 RMK AO2 SLP149 T01170044 402000111=
200804290352 METAR KATL 290352Z 28005KT 10SM FEW250 11/05 A2998 RMK AO2 SLP148 T01110050=
200804290252 METAR KATL 290252Z 27006KT 10SM CLR 12/05 A2997 RMK AO2 SLP147 T01170050 53018=
200804290152 METAR KATL 290152Z 27005KT 10SM CLR 12/06 A2996 RMK AO2 SLP142 T01220056=
200804290052 METAR KATL 290052Z 29007KT 10SM CLR 14/05 A2993 RMK AO2 SLP134 T01440050=
200804282352 METAR KATL 282352Z 30009KT 10SM FEW250 16/04 A2992 RMK AO2 SLP128 T01610039 10200 20161 53013=
200804282252 METAR KATL 282252Z 31016KT 10SM FEW250 17/03 A2990 RMK AO2 PK WND 30029/2208 SLP121 T01720033=
200804282152 METAR KATL 282152Z 29015G22KT 10SM FEW050 SCT250 19/06 A2988 RMK AO2 SLP114 T01890056=
200804282052 METAR KATL 282052Z 31013G19KT 10SM SCT050 SCT250 19/08 A2988 RMK AO2 SLP113 T01890078 58010=
200804281952 METAR KATL 281952Z 32015G20KT 10SM FEW045 SCT055 SCT250 19/08 A2989 RMK AO2 SLP116 T01890078=
200804281852 METAR KATL 281852Z 28014G19KT 10SM FEW040 SCT050 19/11 A2990 RMK AO2 SLP121 T01890106=
200804281752 METAR KATL 281752Z 30010KT 10SM FEW025 BKN030 BKN040 18/11 A2991 RMK AO2 SLP124 60000 T01780111 10183 20161 58001=
200804281749 SPECI KATL 281749Z 32010KT 10SM FEW025 BKN030 BKN040 17/11 A2991 RMK AO2=
200804281749 SPECI KATL 281749Z 32010KT 10SM FEW025 BKN030 BKN040 17/11 A2991 RMK AO2=
200804281652 METAR KATL 281652Z 32010KT 10SM SCT020 OVC027 16/12 A2993 RMK AO2 SLP129 T01610117=
200804281557 SPECI KATL 281557Z 30011G15KT 10SM FEW009 BKN020 OVC040 17/13 A2992 RMK AO2=
200804281557 SPECI KATL 281557Z 30011G15KT 10SM FEW009 BKN020 OVC040 17/13 A2992 RMK AO2=
200804281552 METAR KATL 281552Z 30012G15KT 10SM BKN010 BKN040 BKN250 17/13 A2991 RMK AO2 RAB1455E06 SLP125 P0000 T01720133=
200804281531 SPECI KATL 281531Z 29011KT 10SM BKN010 BKN015 OVC039 16/13 A2991 RMK AO2 RAB1455E06 P0000=
200804281531 SPECI KATL 281531Z 29011KT 10SM BKN010 BKN015 OVC039 16/13 A2991 RMK AO2 RAB1455E06 P0000=
200804281452 METAR KATL 281452Z 30016G19KT 10SM FEW013 BKN026 OVC032 17/14 A2990 RMK AO2 SLP121 T01720139 51005=
200804281429 SPECI KATL 281429Z 29010KT 10SM FEW013 BKN024 BKN043 BKN250 17/14 A2990 RMK AO2=
200804281429 SPECI KATL 281429Z 29010KT 10SM FEW013 BKN024 BKN043 BKN250 17/14 A2990 RMK AO2=
200804281352 METAR KATL 281352Z 30008KT 10SM FEW023 OVC037 17/15 A2990 RMK AO2 SLP119 BINOVC T01720150=
200804281348 SPECI KATL 281348Z 29007KT 10SM FEW010 SCT023 OVC037 17/15 A2990 RMK AO2 BINOVC=
200804281348 SPECI KATL 281348Z 29007KT 10SM FEW010 SCT023 OVC037 17/15 A2990 RMK AO2 BINOVC=
200804281333 SPECI KATL 281333Z 28008KT 10SM SCT008 BKN021 OVC035 17/14 A2990 RMK AO2=
200804281333 SPECI KATL 281333Z 28008KT 10SM SCT008 BKN021 OVC035 17/14 A2990 RMK AO2=
200804281319 SPECI KATL 281319Z 29009KT 9SM BKN008 BKN012 OVC017 16/15 A2990 RMK AO2 CIG 006V011=
200804281319 SPECI KATL 281319Z 29009KT 9SM BKN008 BKN012 OVC017 16/15 A2990 RMK AO2 CIG 006V011=
200804281252 METAR KATL 281252Z 28009KT 10SM SCT008 BKN018 BKN070 OVC200 17/15 A2989 RMK AO2 SLP116 T01670150=
200804281152 METAR KATL 281152Z 27008KT 10SM FEW008 BKN015 OVC050 16/15 A2988 RMK AO2 RAE17 SLP114 P0000 60011 70053 T01610150 10183 20161 53008=
200804281113 SPECI KATL 281113Z 27008KT 10SM -RA SCT008 BKN018 OVC050 16/15 A2987 RMK AO2 P0000=
200804281113 SPECI KATL 281113Z 27008KT 10SM -RA SCT008 BKN018 OVC050 16/15 A2987 RMK AO2 P0000=
200804281110 SPECI KATL 281110Z 26009KT 10SM -RA SCT005 BKN013 OVC055 16/15 A2987 RMK AO2 P0000=
200804281110 SPECI KATL 281110Z 26009KT 10SM -RA SCT005 BKN013 OVC055 16/15 A2987 RMK AO2 P0000=
200804281052 METAR KATL 281052Z 28007KT 4SM -RA BR BKN007 BKN011 OVC024 16/16 A2987 RMK AO2 CIG 004V009 SLP108 P0003 T01610156=
200804281011 SPECI KATL 281011Z 26005KT 8SM -RA BKN007 BKN029 OVC035 17/16 A2986 RMK AO2 CIG 005V013 P0000=
200804281011 SPECI KATL 281011Z 26005KT 8SM -RA BKN007 BKN029 OVC035 17/16 A2986 RMK AO2 CIG 005V013 P0000=
200804280952 METAR KATL 280952Z 24009KT 7SM -RA FEW007 BKN023 OVC042 17/16 A2986 RMK AO2 SLP106 P0006 T01720156=
200804280942 SPECI KATL 280942Z 22008KT 3SM RA BR FEW011 BKN021 OVC042 17/16 A2986 RMK AO2 P0004=
200804280942 SPECI KATL 280942Z 22008KT 3SM RA BR FEW011 BKN021 OVC042 17/16 A2986 RMK AO2 P0004=
200804280852 METAR KATL 280852Z 22005KT 8SM -RA FEW010 BKN070 OVC080 17/16 A2987 RMK AO2 RAB10 SLP108 P0002 60002 T01720161 56012=
200804280847 SPECI KATL 280847Z 22004KT 9SM -RA SCT008 BKN070 OVC080 17/16 A2987 RMK AO2 RAB10 P0002=
200804280847 SPECI KATL 280847Z 22004KT 9SM -RA SCT008 BKN070 OVC080 17/16 A2987 RMK AO2 RAB10 P0002=
200804280838 SPECI KATL 280838Z 22005KT 7SM -RA BKN007 BKN046 OVC060 17/16 A2987 RMK AO2 RAB10 P0002=
200804280838 SPECI KATL 280838Z 22005KT 7SM -RA BKN007 BKN046 OVC060 17/16 A2987 RMK AO2 RAB10 P0002=
200804280752 METAR KATL 280752Z 25003KT 6SM BR BKN004 BKN008 OVC043 17/16 A2988 RMK AO2 CIG 003V006 SLP114 T01720161=
200804280735 SPECI KATL 280735Z 00000KT 6SM BR SCT008 BKN050 BKN110 OVC200 17/16 A2989 RMK AO2=
200804280735 SPECI KATL 280735Z 00000KT 6SM BR SCT008 BKN050 BKN110 OVC200 17/16 A2989 RMK AO2=
200804280652 METAR KATL 280652Z 19004KT 6SM BR FEW026 SCT048 BKN110 OVC200 17/16 A2990 RMK AO2 SLP120 LTG DSNT NE CB DSNT NE T01720161=
200804280552 METAR KATL 280552Z 16003KT 8SM FEW008 SCT065 BKN110 OVC200 17/16 A2992 RMK AO2 TSE48RAE22 SLP128 LTG DSNT NE CB DSNT NE TS MOV NE P0000 60003 T01720161 10200 20172 56011=
200804280550 SPECI KATL 280550Z 17003KT 8SM FEW008 SCT065 BKN110 OVC200 17/16 A2993 RMK AO2 TSE48RAE22 LTG DSNT NE CB DSNT NE TS MOV NE P0000=
200804280550 SPECI KATL 280550Z 17003KT 8SM FEW008 SCT065 BKN110 OVC200 17/16 A2993 RMK AO2 TSE48RAE22 LTG DSNT NE CB DSNT NE TS MOV NE P0000=
200804280525 SPECI KATL 280525Z 20003KT 8SM TS SCT010 BKN028CB BKN065 OVC200 18/17 A2994 RMK AO2 RAE22 OCNL LTGICCG TS VC NE-SE MOV NE P0000=
200804280525 SPECI KATL 280525Z 20003KT 8SM TS SCT010 BKN028CB BKN065 OVC200 18/17 A2994 RMK AO2 RAE22 OCNL LTGICCG TS VC NE-SE MOV NE P0000=
200804280501 SPECI KATL 280501Z 29003KT 9SM TS FEW008 BKN014 OVC026CB 18/17 A2995 RMK AO2 RAE01 OCNL LTGIC TS NW AND VC N AND SW MOV NE P0000=
200804280501 SPECI KATL 280501Z 29003KT 9SM TS FEW008 BKN014 OVC026CB 18/17 A2995 RMK AO2 RAE01 OCNL LTGIC TS NW AND VC N AND SW MOV NE P0000=
200804280457 SPECI KATL 280457Z 29004KT 9SM -TSRA FEW010 BKN024CB OVC045 18/16 A2995 RMK AO2 OCNL LTGIC TS NW AND VC N AND SW MOV NE P0000=
200804280457 SPECI KATL 280457Z 29004KT 9SM -TSRA FEW010 BKN024CB OVC045 18/16 A2995 RMK AO2 OCNL LTGIC TS NW AND VC N AND SW MOV NE P0000=
200804280452 METAR KATL 280452Z 26006KT 6SM -TSRA BR BKN036CB OVC049 18/16 A2995 RMK AO2 TSB36 SLP136 OCNL LTGIC TS NW-NE AND VC SE MOV NE P0003 T01780161 402000167=
200804280437 SPECI KATL 280437Z 22004KT 6SM -TSRA BR BKN036CB OVC049 18/16 A2995 RMK AO2 TSB36 OCNL LTGIC TS NW-NE AND VC SE MOV NE P0001=
200804280437 SPECI KATL 280437Z 22004KT 6SM -TSRA BR BKN036CB OVC049 18/16 A2995 RMK AO2 TSB36 OCNL LTGIC TS NW-NE AND VC SE MOV NE P0001=
200804280352 METAR KATL 280352Z 19006KT 8SM -RA SCT030 BKN090 OVC110 18/16 A2996 RMK AO2 RAB48 SLP139 P0000 T01830161=
200804280252 METAR KATL 280252Z 16006KT 10SM FEW048 SCT090 BKN120 OVC200 19/17 A2997 RMK AO2 SLP142 T01890167 58003=
200804280152 METAR KATL 280152Z 16006KT 10SM BKN090 BKN120 OVC200 19/16 A2998 RMK AO2 SLP145 T01890161=
200804280052 METAR KATL 280052Z 16004KT 10SM BKN120 OVC200 19/17 A2998 RMK AO2 SLP147 T01940167=
200804272352 METAR KATL 272352Z 20004KT 10SM FEW070 SCT120 BKN200 20/17 A2998 RMK AO2 SLP146 60000 T02000167 10200 20194 55004=
200804272252 METAR KATL 272252Z 21005KT 10SM FEW080 BKN100 20/16 A2996 RMK AO2 SLP141 T02000161=
200804272152 METAR KATL 272152Z 19006KT 10SM FEW070 BKN110 OVC150 20/16 A2998 RMK AO2 RAE02 SLP147 P0000 T02000161=
200804272052 METAR KATL 272052Z 15007KT 10SM -RA FEW015 SCT070 OVC090 20/16 A2999 RMK AO2 RAB51 SLP151 P0000 60000 T02000161 58025=
200804271952 METAR KATL 271952Z 17005KT 10SM FEW015 SCT065 OVC090 19/16 A3003 RMK AO2 RAB30E40 SLP164 P0000 T01940161=
200804271852 METAR KATL 271852Z 00000KT 10SM SCT014 BKN090 OVC150 19/16 A3005 RMK AO2 SLP172 SCT014 V BKN T01940161=
200804271826 SPECI KATL 271826Z 14006KT 10SM BKN014 BKN120 OVC150 19/17 A3006 RMK AO2=
200804271826 SPECI KATL 271826Z 14006KT 10SM BKN014 BKN120 OVC150 19/17 A3006 RMK AO2=
200804271752 METAR KATL 271752Z 16005KT 10SM SCT010 BKN100 OVC150 19/16 A3007 RMK AO2 RAE39 SLP177 P0000 60039 T01940161 10200 20167 58008=
200804271652 METAR KATL 271652Z 15003KT 8SM -RA FEW007 SCT047 BKN095 OVC150 18/17 A3009 RMK AO2 SLP183 CB DSNT N-E AND W-N P0000 T01830167=
200804271629 SPECI KATL 271629Z 00000KT 6SM -RA BR FEW007 SCT029 OVC090 19/17 A3010 RMK AO2 CB DSNT N-E AND W-N P0000=
200804271629 SPECI KATL 271629Z 00000KT 6SM -RA BR FEW007 SCT029 OVC090 19/17 A3010 RMK AO2 CB DSNT N-E AND W-N P0000=
200804271611 SPECI KATL 271611Z 00000KT 5SM -RA BR FEW007 BKN029CB OVC085 18/17 A3010 RMK AO2 CB N-E AND W-N MOV NE P0000=
200804271611 SPECI KATL 271611Z 00000KT 5SM -RA BR FEW007 BKN029CB OVC085 18/17 A3010 RMK AO2 CB N-E AND W-N MOV NE P0000=
200804271600 SPECI KATL 271600Z 00000KT 4SM -RA BR SCT013 OVC029CB 18/17 A3011 RMK AO2 CB N-E AND W-N MOV NE P0000=
200804271600 SPECI KATL 271600Z 00000KT 4SM -RA BR SCT013 OVC029CB 18/17 A3011 RMK AO2 CB N-E AND W-N MOV NE P0000=
200804271552 METAR KATL 271552Z 23003KT 2SM R09R/6000VP6000FT -RA BR BKN013 OVC029CB 18/17 A3011 RMK AO2 RAB00 SLP192 CB OHD-ALQDS MOV NE P0039 T01780167=
200804271529 SPECI KATL 271529Z 26006KT 1 1/4SM R09R/4500VP6000FT +RA BR BKN013 BKN038CB OVC050 18/17 A3011 RMK AO2 TWR VIS 2 RAB00 CB OHD-ALQDS MOV NE P0016=
200804271529 SPECI KATL 271529Z 26006KT 1 1/4SM R09R/4500VP6000FT +RA BR BKN013 BKN038CB OVC050 18/17 A3011 RMK AO2 TWR VIS 2 RAB00 CB OHD-ALQDS MOV NE P0016=
200804271523 SPECI KATL 271523Z 22003KT 2SM R09R/4500VP6000FT +RA BR BKN015 BKN039CB OVC050 18/17 A3011 RMK AO2 SFC VIS 2 1/2 RAB00 CB OHD-ALQDS MOV NE P0008=
200804271523 SPECI KATL 271523Z 22003KT 2SM R09R/4500VP6000FT +RA BR BKN015 BKN039CB OVC050 18/17 A3011 RMK AO2 SFC VIS 2 1/2 RAB00 CB OHD-ALQDS MOV NE P0008=
200804271519 SPECI KATL 271519Z 21009KT 9SM RA BKN015 BKN039CB OVC050 18/17 A3011 RMK AO2 RAB00 CB OHD-ALQDS MOV NE P0000=
200804271519 SPECI KATL 271519Z 21009KT 9SM RA BKN015 BKN039CB OVC050 18/17 A3011 RMK AO2 RAB00 CB OHD-ALQDS MOV NE P0000=
200804271452 METAR KATL 271452Z COR 00000KT 9SM FEW015 SCT055CB BKN150 OVC200 19/16 A3009 RMK AO2 SLP185 CB VC SE-W T01940161 53003=
200804271352 METAR KATL 271352Z 00000KT 10SM FEW015 SCT120 BKN150 OVC200 20/14 A3009 RMK AO2 SLP182 T02000144=
200804271252 METAR KATL 271252Z 33004KT 7SM FEW110 BKN150 OVC200 17/15 A3009 RMK AO2 SLP183 T01720150=
200804271152 METAR KATL 271152Z 34007KT 6SM BR FEW060 BKN100 17/16 A3008 RMK AO2 RAE15 SLP182 P0001 60010 70027 T01670156 10183 20167 53008=
200804271052 METAR KATL 271052Z 36008KT 6SM -RA BR FEW055 BKN075 OVC090 17/16 A3008 RMK AO2 SLP179 P0008 T01720156=
200804270952 METAR KATL 270952Z 33007KT 6SM -RA BR BKN060 OVC080 17/15 A3007 RMK AO2 SLP174 P0001 T01720150=
200804270852 METAR KATL 270852Z 35007KT 6SM -RA BR BKN075 OVC100 17/16 A3006 RMK AO2 RAE05B24 SLP171 P0000 60000 T01720156 55004=
200804270752 METAR KATL 270752Z 00000KT 10SM -RA OVC095 18/15 A3005 RMK AO2 RAB46 SLP167 P0000 T01830150=
200804270652 METAR KATL 270652Z 33004KT 10SM SCT045 BKN085 18/16 A3005 RMK AO2 SLP169 T01780156=
200804270552 METAR KATL 270552Z 34004KT 10SM SCT055 BKN200 18/16 A3007 RMK AO2 SLP178 60013 T01780156 10194 20178 58007=
200804270452 METAR KATL 270452Z 29004KT 10SM FEW028 BKN050 BKN090 OVC250 18/16 A3009 RMK AO2 TSE35RAE16 SLP184 LTGIC DSNT N TS MOV N P0000 T01780156 402670167=
200804270437 SPECI KATL 270437Z 24005KT 10SM FEW028 SCT047 BKN095 OVC250 18/15 A3009 RMK AO2 TSE35RAE16 TS MOV N P0000=
200804270437 SPECI KATL 270437Z 24005KT 10SM FEW028 SCT047 BKN095 OVC250 18/15 A3009 RMK AO2 TSE35RAE16 TS MOV N P0000=
200804270352 METAR KATL 270352Z 30006KT 5SM -TSRA BR FEW005 SCT026CB OVC095 18/16 A3009 RMK AO2 TSB41RAB0257 SLP183 OCNL LTGIC TS NW-NE MOV NE P0013 T01830161=
200804270343 SPECI KATL 270343Z 31008KT 4SM TSRA BR SCT026CB BKN048 OVC085 18/17 A3010 RMK AO2 TSB41RAB0257 OCNL LTGIC TS OHD-W MOV NE P0011=
200804270343 SPECI KATL 270343Z 31008KT 4SM TSRA BR SCT026CB BKN048 OVC085 18/17 A3010 RMK AO2 TSB41RAB0257 OCNL LTGIC TS OHD-W MOV NE P0011=
200804270252 METAR KATL 270252Z 28006KT 10SM FEW060 SCT110 OVC250 18/17 A3009 RMK AO2 SLP184 T01830167 53017=
200804270152 METAR KATL 270152Z 00000KT 10SM FEW060 BKN250 19/16 A3007 RMK AO2 SLP177 T01890156=
200804270052 METAR KATL 270052Z 31004KT 10SM FEW030 SCT120 BKN250 19/16 A3005 RMK AO2 SLP170 T01890156=
200804262352 METAR KATL 262352Z 35006KT 10SM FEW030 SCT120 BKN250 19/15 A3004 RMK AO2 TSE18RAE11 SLP167 TS DSIPTD CB DSNT SW SHRA VC NE P0001 60002 T01940150 10267 20189 50006=
200804262324 SPECI KATL 262324Z 34007KT 10SM FEW030 SCT100 BKN250 19/16 A3004 RMK AO2 TSE18RAE11 TS DSIPTD CB DSNT SW SHRA NW-NE P0001=
200804262324 SPECI KATL 262324Z 34007KT 10SM FEW030 SCT100 BKN250 19/16 A3004 RMK AO2 TSE18RAE11 TS DSIPTD CB DSNT SW SHRA NW-NE P0001=
200804262252 METAR KATL 262252Z COR 32013KT 7SM -TSRA BKN030 BKN055CB BKN110 BKN250 20/16 A3004 RMK AO2 TSB31RAB41 SLP169 OCNL LTGIC TS OHD-NW-NE MOV NE CB DSNT W VIS LWR NW-N P0000 T02000156=
200804262234 SPECI KATL 262234Z 33014KT 10SM TS BKN055CB BKN150 BKN250 22/15 A3004 RMK AO2 TSB31 OCNL LTGIC TS NW-N MOV NE CB DSNT W=
200804262234 SPECI KATL 262234Z 33014KT 10SM TS BKN055CB BKN150 BKN250 22/15 A3004 RMK AO2 TSB31 OCNL LTGIC TS NW-N MOV NE CB DSNT W=
200804262152 METAR KATL 262152Z COR 00000KT 10SM FEW050 SCT150 BKN250 25/14 A3004 RMK AO2 TSE52 SLP165 LTG DSNT NW TS DSPTD CB DSNT W AND NW T02500139=
200804262052 METAR KATL 262052Z 22008KT 10SM TS FEW055CB SCT150 BKN250 27/13 A3002 RMK AO2 TSB50 SLP158 OCNL LTGCGIC TS VC W-N MOV SE 60001 T02670128 58022=
200804261952 METAR KATL 261952Z 21012KT 10SM FEW035 SCT150 BKN250 24/16 A3005 RMK AO2 SLP168 CB DSNT W-N T02440161=
200804261852 METAR KATL 261852Z 20007KT 10SM SCT036CB SCT080 BKN150 22/17 A3007 RMK AO2 TSE25RAE22 SLP177 CB OHD-SE-SW MOV NE P0001 T02220167=
200804261826 SPECI KATL 261826Z 15004KT 10SM SCT036CB BKN080 BKN150 21/16 A3008 RMK AO2 TSE25RAE22 CB OHD-SE-SW MOV NE SHRA VC SE-SW P0001=
200804261826 SPECI KATL 261826Z 15004KT 10SM SCT036CB BKN080 BKN150 21/16 A3008 RMK AO2 TSE25RAE22 CB OHD-SE-SW MOV NE SHRA VC SE-SW P0001=
200804261752 METAR KATL 261752Z 23009KT 9SM TSRA SCT028CB BKN055 BKN090 19/15 A3009 RMK AO2 WSHFT 1734 TSB11RAE02B28 SLP184 OCNL LTGIC TS ALQDS MOV NE SHRA VC S P0002 60002 T01940150 10244 20178 57009=
200804261711 SPECI KATL 261711Z 16008KT 9SM TS SCT038CB BKN060 BKN100 22/17 A3009 RMK AO2 TSB11RAE02 OCNL LTGIC TS ALQDS MOV E P0001=
200804261711 SPECI KATL 261711Z 16008KT 9SM TS SCT038CB BKN060 BKN100 22/17 A3009 RMK AO2 TSB11RAE02 OCNL LTGIC TS ALQDS MOV E P0001=
200804261652 METAR KATL 261652Z 23006KT 8SM -RA SCT038CB BKN060 BKN150 23/15 A3010 RMK AO2 RAB46 SLP184 CB E-OHD-W SHRA SW P0000 T02330150=
200804261552 METAR KATL 261552Z VRB03KT 10SM SCT031 BKN150 BKN250 24/16 A3011 RMK AO2 SLP189 T02390161=
200804261452 METAR KATL 261452Z 32008KT 10SM FEW020 SCT110 BKN250 22/17 A3012 RMK AO2 SLP191 T02220167 51009=
200804261352 METAR KATL 261352Z 26004KT 10SM BKN110 BKN250 19/17 A3011 RMK AO2 SLP189 T01940167=
200804261252 METAR KATL 261252Z 30009KT 9SM BKN090 18/16 A3011 RMK AO2 SLP190 T01830161=
200804261152 METAR KATL 261152Z 28007KT 10SM SCT090 BKN150 18/16 A3009 RMK AO2 SLP182 T01830161 10183 20167 53008=
200804261052 METAR KATL 261052Z 26005KT 10SM FEW070 SCT150 17/16 A3007 RMK AO2 SLP177 T01720156=
200804260952 METAR KATL 260952Z 25005KT 10SM FEW060 BKN075 BKN090 17/15 A3007 RMK AO2 SLP175 T01720150=
200804260852 METAR KATL 260852Z 25006KT 10SM FEW180 17/15 A3006 RMK AO2 SLP173 T01720150 53002=
200804260752 METAR KATL 260752Z 22003KT 10SM FEW180 17/15 A3005 RMK AO2 SLP168 T01720150=
200804260652 METAR KATL 260652Z 23003KT 10SM SCT070 17/14 A3005 RMK AO2 SLP167 T01720144=
200804260552 METAR KATL 260552Z 19005KT 10SM FEW080 18/15 A3006 RMK AO2 SLP171 60000 T01780150 10244 20178 56011=
200804260452 METAR KATL 260452Z 22005KT 10SM FEW060 19/15 A3007 RMK AO2 SLP175 T01890150 402670172=
200804260352 METAR KATL 260352Z 18005KT 10SM FEW060 19/15 A3008 RMK AO2 SLP176 T01940150=
200804260252 METAR KATL 260252Z 21006KT 10SM BKN060 BKN100 21/15 A3009 RMK AO2 SLP183 60000 T02060150 52015=
200804260152 METAR KATL 260152Z 21004KT 10SM SCT100 BKN150 22/15 A3008 RMK AO2 SLP178 T02170150=
200804260052 METAR KATL 260052Z 21004KT 10SM SCT090 BKN120 BKN200 22/15 A3006 RMK AO2 RAB17E30 SLP173 P0000 T02220150=
200804252352 METAR KATL 252352Z 16006KT 10SM FEW050 SCT090 BKN120 BKN250 24/13 A3005 RMK AO2 SLP167 T02440133 10267 20244 57005=
200804252252 METAR KATL 252252Z 18005KT 10SM FEW050 BKN110 BKN140 24/13 A3006 RMK AO2 SLP171 T02440133=
200804252152 METAR KATL 252152Z 17010KT 10SM FEW050 BKN100 25/13 A3005 RMK AO2 SLP169 T02500133=
200804252052 METAR KATL 252052Z 17009KT 10SM FEW055TCU SCT100 OVC150 25/13 A3006 RMK AO2 SLP172 TCU NW T02500133 56020=
200804251952 METAR KATL 251952Z 17011KT 10SM FEW055 SCT080 BKN150 26/13 A3008 RMK AO2 SLP177 T02610128=
200804251852 METAR KATL 251852Z 18011KT 10SM FEW050TCU SCT090 SCT200 26/13 A3010 RMK AO2 SLP184 TC NW MDT CU ALQDS T02610133=
200804251752 METAR KATL 251752Z 15008G15KT 10SM SCT050TCU BKN075 BKN095 26/13 A3012 RMK AO2 SLP191 TCU SE-NW T02560128 10256 20172 58013=
200804251652 METAR KATL 251652Z 19011KT 10SM SCT050TCU SCT070 SCT200 25/13 A3014 RMK AO2 SLP197 TCU DSNT N-NE-E VC W NW T02500128=
200804251552 METAR KATL 251552Z 19010G16KT 10SM FEW030 SCT070 SCT200 24/13 A3015 RMK AO2 SLP203 T02440133=
200804251452 METAR KATL 251452Z 17007KT 10SM FEW030 SCT070 BKN090 BKN200 23/16 A3016 RMK AO2 SLP205 ACC ALQDS T02280156 52004=
200804251352 METAR KATL 251352Z 17005KT 10SM SCT070 BKN200 BKN300 21/15 A3016 RMK AO2 SLP205 ACC DSNT N-NE VC E-NW T02060150=
200804251252 METAR KATL 251252Z 17009KT 10SM FEW080 SCT150 SCT250 19/15 A3015 RMK AO2 SLP202 ACC VC N T01890150=
200804251152 METAR KATL 251152Z COR 15003KT 10SM FEW080 SCT150 SCT250 17/14 A3015 RMK AO2 SLP202 T01720144 10200 20172 53014=
200804251052 METAR KATL 251052Z 15005KT 10SM FEW080 BKN150 BKN200 BKN250 17/14 A3013 RMK AO2 SLP195 T01720139=
200804250952 METAR KATL 250952Z 17006KT 10SM FEW080 SCT150 SCT200 SCT250 18/14 A3011 RMK AO2 SLP189 T01780139=
200804250852 METAR KATL 250852Z 18006KT 10SM SCT150 SCT200 BKN250 18/14 A3010 RMK AO2 SLP186 T01830139 55000=
200804250752 METAR KATL 250752Z 18007KT 10SM BKN150 BKN200 BKN250 19/14 A3010 RMK AO2 SLP185 T01890139=
200804250652 METAR KATL 250652Z 16009KT 10SM SCT150 BKN200 BKN250 20/13 A3010 RMK AO2 SLP184 T02000133=
200804250552 METAR KATL 250552Z 15003KT 10SM FEW150 SCT200 BKN250 20/13 A3011 RMK AO2 SLP187 T02000133 10239 20200 56007=
200804250452 METAR KATL 250452Z 14003KT 10SM FEW150 BKN200 BKN250 21/13 A3011 RMK AO2 SLP189 T02060133 402610139=
200804250352 METAR KATL 250352Z 13003KT 10SM BKN200 OVC250 21/13 A3012 RMK AO2 SLP192 T02110133=
200804250252 METAR KATL 250252Z 15003KT 10SM OVC200 22/13 A3013 RMK AO2 SLP195 T02170133 51008=
200804250152 METAR KATL 250152Z 15003KT 10SM OVC200 22/13 A3013 RMK AO2 SLP196 T02220128=
200804250052 METAR KATL 250052Z 15004KT 10SM OVC200 23/13 A3011 RMK AO2 SLP191 T02330128=
200804242352 METAR KATL 242352Z 16006KT 10SM BKN180 OVC250 24/12 A3010 RMK AO2 SLP188 T02390117 10261 20239 56005=
200804242252 METAR KATL 242252Z 17007KT 10SM FEW055 BKN200 OVC250 24/12 A3011 RMK AO2 SLP189 T02440122=
200804242152 METAR KATL 242152Z 16009KT 10SM FEW055 BKN250 25/11 A3010 RMK AO2 SLP188 T02500111=
200804242052 METAR KATL 242052Z 15006KT 10SM FEW055 SCT200 BKN300 26/11 A3012 RMK AO2 SLP192 T02560111 56021=
200804241952 METAR KATL 241952Z 17008KT 10SM SCT060 SCT200 25/11 A3013 RMK AO2 SLP198 T02500111=
200804241852 METAR KATL 241852Z 10006KT 10SM SCT050 SCT200 26/12 A3017 RMK AO2 SLP208 T02560117=
200804241752 METAR KATL 241752Z VRB06KT 10SM SCT050 24/12 A3018 RMK AO2 SLP213 T02440122 10244 20150 58013=
200804241652 METAR KATL 241652Z 15005KT 10SM BKN040 23/13 A3020 RMK AO2 SLP221 MDT CU ALQDS T02330133=
200804241552 METAR KATL 241552Z 16006KT 10SM SCT030 SCT200 22/13 A3022 RMK AO2 SLP227 T02220133=
200804241452 METAR KATL 241452Z 17004KT 10SM FEW030 SCT200 21/13 A3022 RMK AO2 SLP228 T02060133 51007=
200804241352 METAR KATL 241352Z 09006KT 10SM FEW200 19/13 A3021 RMK AO2 SLP225 T01890133=
200804241252 METAR KATL 241252Z 08009KT 10SM FEW250 17/13 A3021 RMK AO2 SLP225 T01720128=
200804241152 METAR KATL 241152Z 08009KT 10SM FEW250 15/12 A3020 RMK AO2 SLP221 T01500122 10178 20139 53010=
200804241052 METAR KATL 241052Z 08007KT 9SM FEW250 14/11 A3018 RMK AO2 SLP215 T01390111=
200804240952 METAR KATL 240952Z 07007KT 10SM CLR 14/12 A3017 RMK AO2 SLP210 T01440117=
200804240852 METAR KATL 240852Z 07007KT 10SM SCT080 SCT250 16/12 A3017 RMK AO2 SLP210 T01610122 53008=
200804240752 METAR KATL 240752Z 08004KT 10SM FEW070 SCT250 16/12 A3016 RMK AO2 SLP207 T01560117=
200804240652 METAR KATL 240652Z 11005KT 10SM FEW070 SCT200 SCT250 17/12 A3014 RMK AO2 SLP199 T01670117=
200804240552 METAR KATL 240552Z 11007KT 10SM FEW070 SCT200 BKN250 18/12 A3015 RMK AO2 SLP202 T01780117 10233 20167 58001=
200804240452 METAR KATL 240452Z 12007KT 10SM FEW070 18/12 A3016 RMK AO2 SLP208 T01830117 402610139=
200804240352 METAR KATL 240352Z 11005KT 10SM FEW070 19/12 A3016 RMK AO2 SLP205 T01890117=
200804240252 METAR KATL 240252Z 12006KT 10SM FEW070 20/11 A3015 RMK AO2 SLP204 T02000111 51021=
200804240152 METAR KATL 240152Z 13005KT 10SM FEW250 21/11 A3014 RMK AO2 SLP199 T02110111=
200804240052 METAR KATL 240052Z 11007KT 10SM FEW070 23/11 A3011 RMK AO2 SLP190 T02280106=
200804232352 METAR KATL 232352Z 09008KT 10SM FEW060 24/11 A3009 RMK AO2 SLP182 T02390106 10261 20228 53001=
200804232252 METAR KATL 232252Z 10010KT 10SM FEW060 24/11 A3007 RMK AO2 SLP176 T02440106=
200804232152 METAR KATL 232152Z 08011KT 10SM FEW060 SCT250 25/11 A3007 RMK AO2 SLP176 T02500111=
200804232052 METAR KATL 232052Z 09010G15KT 10SM FEW065 SCT200 SCT300 26/11 A3009 RMK AO2 SLP182 T02610111 56015=
200804231952 METAR KATL 231952Z 08008G17KT 10SM SCT060 SCT200 BKN300 26/11 A3009 RMK AO2 SLP185 T02560111=
200804231852 METAR KATL 231852Z 09010KT 10SM SCT055 BKN200 BKN300 25/12 A3012 RMK AO2 SLP192 T02500117=
200804231752 METAR KATL 231752Z 00000KT 10SM FEW050 SCT200 BKN300 23/12 A3013 RMK AO2 SLP197 T02280117 10244 20150 58012=
200804231652 METAR KATL 231652Z VRB05KT 10SM FEW040 SCT200 SCT300 23/12 A3015 RMK AO2 SLP202 T02280122=
200804231552 METAR KATL 231552Z 04006KT 10SM FEW030 SCT200 22/13 A3016 RMK AO2 SLP207 T02170128=
200804231452 METAR KATL 231452Z 07007KT 10SM FEW025 SCT200 19/13 A3017 RMK AO2 SLP210 T01940128 50006=
200804231352 METAR KATL 231352Z 07011KT 10SM FEW020 18/13 A3017 RMK AO2 SLP211 T01780128=
200804231252 METAR KATL 231252Z 08009KT 10SM FEW250 17/12 A3016 RMK AO2 SLP207 T01670122=
200804231152 METAR KATL 231152Z 07011KT 10SM FEW250 15/12 A3015 RMK AO2 SLP203 T01500117 10161 20139 53023=
200804231052 METAR KATL 231052Z COR 07008KT 10SM FEW250 14/11 A3011 RMK AO2 SLP192 T01440106=
200804230952 METAR KATL 230952Z 08007KT 10SM FEW250 14/11 A3009 RMK AO2 SLP184 T01440106=
200804230852 METAR KATL 230852Z 08008KT 10SM FEW250 14/11 A3008 RMK AO2 SLP180 T01440106 55006=
200804230752 METAR KATL 230752Z 06009KT 10SM FEW080 SCT250 16/11 A3008 RMK AO2 SLP179 T01560106=
200804230652 METAR KATL 230652Z 08007KT 10SM FEW080 SCT250 15/11 A3009 RMK AO2 SLP182 T01500106=
200804230552 METAR KATL 230552Z 08007KT 10SM FEW080 SCT250 16/11 A3010 RMK AO2 SLP186 T01610106 10239 20161 50007=
200804230452 METAR KATL 230452Z 07006KT 10SM FEW080 17/11 A3010 RMK AO2 SLP187 T01720106 402560122=
200804230352 METAR KATL 230352Z 13003KT 10SM CLR 19/10 A3009 RMK AO2 SLP182 T01890100=
200804230252 METAR KATL 230252Z 11004KT 10SM FEW250 19/10 A3008 RMK AO2 SLP179 T01890100 53023=
200804230152 METAR KATL 230152Z 11007KT 10SM FEW070 21/10 A3005 RMK AO2 SLP172 T02060100=
200804230052 METAR KATL 230052Z 15004KT 10SM FEW070 SCT250 22/09 A3002 RMK AO2 SLP160 T02170094=
200804222352 METAR KATL 222352Z 16005KT 10SM FEW070 BKN250 24/08 A3001 RMK AO2 SLP156 T02390083 10256 20222 53003=
200804222252 METAR KATL 222252Z 00000KT 10SM FEW070 SCT250 24/08 A3000 RMK AO2 SLP155 T02440078=
200804222152 METAR KATL 222152Z 13004KT 10SM FEW065 BKN250 24/08 A2999 RMK AO2 SLP152 T02390083=
200804222052 METAR KATL 222052Z 11007KT 10SM FEW070 SCT250 24/08 A3000 RMK AO2 SLP152 T02390083 58012=
200804221952 METAR KATL 221952Z 00000KT 10SM FEW060 SCT250 24/09 A3001 RMK AO2 SLP155 T02440089=
200804221852 METAR KATL 221852Z 25004KT 10SM FEW060 SCT250 23/09 A3002 RMK AO2 SLP161 T02330094=
200804221752 METAR KATL 221752Z 00000KT 10SM FEW050 SCT250 22/10 A3003 RMK AO2 SLP165 T02220100 10228 20128 58009=
200804221652 METAR KATL 221652Z VRB04KT 10SM FEW045 SCT250 22/11 A3005 RMK AO2 SLP170 T02170106=
200804221552 METAR KATL 221552Z 00000KT 10SM FEW040 SCT250 20/11 A3006 RMK AO2 SLP175 T02000106=
200804221452 METAR KATL 221452Z 06006KT 10SM FEW250 19/11 A3006 RMK AO2 SLP174 T01890106 51006=
200804221352 METAR KATL 221352Z 11005KT 10SM FEW250 17/10 A3006 RMK AO2 SLP174 T01720100=
200804221252 METAR KATL 221252Z 10006KT 10SM CLR 16/09 A3005 RMK AO2 SLP172 T01560094=
200804221152 METAR KATL 221152Z COR 10005KT 10SM FEW250 13/08 A3004 RMK AO2 SLP168 T01280083 10161 20122 53015=
200804221052 METAR KATL 221052Z 11004KT 10SM FEW250 12/07 A3002 RMK AO2 SLP160 T01220072=
200804220952 METAR KATL 220952Z 09005KT 10SM CLR 12/07 A3000 RMK AO2 SLP156 T01220072=
200804220852 METAR KATL 220852Z 08006KT 10SM CLR 12/07 A2999 RMK AO2 SLP153 T01220067 53001=
200804220752 METAR KATL 220752Z 08007KT 10SM CLR 14/07 A2999 RMK AO2 SLP149 T01390067=
200804220652 METAR KATL 220652Z 13003KT 10SM CLR 16/06 A2998 RMK AO2 SLP145 T01560061=
200804220552 METAR KATL 220552Z 00000KT 10SM CLR 16/07 A2999 RMK AO2 SLP150 T01560067 10222 20139 50001=
200804220452 METAR KATL 220452Z 09004KT 10SM CLR 16/06 A3000 RMK AO2 SLP152 T01560061 402390100=
200804220352 METAR KATL 220352Z 29003KT 10SM CLR 17/05 A2999 RMK AO2 SLP149 T01720050=
200804220252 METAR KATL 220252Z VRB03KT 10SM CLR 18/04 A2999 RMK AO2 SLP149 T01780044 51012=
200804220152 METAR KATL 220152Z 31004KT 10SM CLR 19/04 A2998 RMK AO2 SLP148 T01940039=
200804220052 METAR KATL 220052Z 33008KT 10SM CLR 21/03 A2997 RMK AO2 SLP145 T02060033=
200804212352 METAR KATL 212352Z 32009KT 10SM CLR 22/02 A2995 RMK AO2 SLP137 T02220022 10239 20217 53001=
200804212252 METAR KATL 212252Z 33008KT 10SM CLR 23/03 A2994 RMK AO2 SLP134 T02330028=
200804212152 METAR KATL 212152Z 33008G15KT 10SM CLR 23/04 A2994 RMK AO2 SLP135 T02330039=
200804212052 METAR KATL 212052Z 00000KT 10SM CLR 23/04 A2995 RMK AO2 SLP136 T02330044 56014=
200804211952 METAR KATL 211952Z 32011G14KT 10SM FEW250 24/06 A2996 RMK AO2 SLP138 T02390056=
200804211852 METAR KATL 211852Z 30006G16KT 10SM FEW250 23/07 A2998 RMK AO2 SLP146 T02280067=
200804211752 METAR KATL 211752Z 29007G15KT 10SM FEW250 22/07 A2999 RMK AO2 SLP151 T02170072 10228 20111 58012=
200804211652 METAR KATL 211652Z 01010G14KT 10SM FEW250 21/06 A3000 RMK AO2 SLP155 T02110061=
200804211552 METAR KATL 211552Z 30007G14KT 10SM FEW250 20/07 A3002 RMK AO2 SLP160 T02000067=
200804211452 METAR KATL 211452Z VRB05KT 10SM FEW250 19/07 A3003 RMK AO2 SLP162 T01890072 50009=
200804211352 METAR KATL 211352Z 32005KT 10SM CLR 17/07 A3003 RMK AO2 SLP165 T01720067=
200804211252 METAR KATL 211252Z 32005KT 10SM CLR 14/08 A3002 RMK AO2 SLP162 T01390078=
200804211152 METAR KATL 211152Z 30003KT 10SM CLR 12/07 A3000 RMK AO2 SLP154 T01170072 10144 20100 53015=
200804211052 METAR KATL 211052Z 32006KT 10SM FEW250 11/07 A2998 RMK AO2 SLP147 T01060067=
200804210952 METAR KATL 210952Z 31005KT 10SM CLR 11/07 A2996 RMK AO2 SLP142 T01110067=
200804210852 METAR KATL 210852Z 32003KT 10SM FEW180 12/06 A2995 RMK AO2 SLP137 T01220061 55001=
200804210752 METAR KATL 210752Z 01003KT 10SM BKN180 14/06 A2995 RMK AO2 SLP136 T01440056=
200804210652 METAR KATL 210652Z 01005KT 10SM BKN180 14/06 A2995 RMK AO2 SLP137 T01440061=
200804210552 METAR KATL 210552Z 32005KT 10SM BKN180 14/07 A2995 RMK AO2 SLP139 T01390067 10200 20139 58002=
200804210452 METAR KATL 210452Z 35005KT 10SM FEW180 BKN250 16/06 A2995 RMK AO2 SLP139 T01560056 402280100=
200804210352 METAR KATL 210352Z 36005KT 10SM FEW100 BKN250 16/06 A2996 RMK AO2 SLP142 T01610056=
200804210252 METAR KATL 210252Z 02007KT 10SM FEW250 17/06 A2996 RMK AO2 SLP141 T01720056 51013=
200804210152 METAR KATL 210152Z 01007KT 10SM FEW250 18/06 A2995 RMK AO2 SLP140 T01830056=
200804210052 METAR KATL 210052Z 34006KT 10SM FEW250 19/06 A2994 RMK AO2 SLP134 T01890056=
200804202352 METAR KATL 202352Z 32008KT 10SM FEW250 20/06 A2992 RMK AO2 SLP130 T02000056 10228 20200 50001=
200804202252 METAR KATL 202252Z 33013G17KT 10SM FEW070 SCT250 22/06 A2992 RMK AO2 SLP129 T02170061=
200804202152 METAR KATL 202152Z 34012G19KT 10SM FEW070 SCT250 22/06 A2992 RMK AO2 SLP127 T02220061=
200804202052 METAR KATL 202052Z 30010G18KT 10SM SCT065 SCT250 22/06 A2992 RMK AO2 SLP126 T02220061 56010=
200804201952 METAR KATL 201952Z 30009G18KT 10SM SCT065 22/07 A2992 RMK AO2 SLP127 T02220067=
200804201852 METAR KATL 201852Z 31010G18KT 10SM SCT060 22/07 A2994 RMK AO2 SLP133 T02170072=
200804201752 METAR KATL 201752Z 27013G22KT 10SM SCT055 21/08 A2995 RMK AO2 SLP137 T02110078 10211 20111 58014=
200804201652 METAR KATL 201652Z 29014G17KT 10SM SCT050 20/07 A2996 RMK AO2 SLP141 T02000072=
200804201552 METAR KATL 201552Z 30011G15KT 10SM FEW045 18/07 A2999 RMK AO2 SLP152 T01830067=
200804201452 METAR KATL 201452Z 32010KT 10SM FEW045 17/06 A2999 RMK AO2 SLP153 T01720056 53009=
200804201352 METAR KATL 201352Z 33007KT 10SM FEW200 15/07 A2998 RMK AO2 SLP150 T01500067=
200804201252 METAR KATL 201252Z 30004KT 10SM FEW200 13/07 A2997 RMK AO2 SLP147 T01280072=
200804201152 METAR KATL 201152Z VRB05KT 10SM FEW180 11/07 A2996 RMK AO2 SLP144 T01110072 10133 20100 53015=
200804201052 METAR KATL 201052Z 31005KT 10SM FEW180 10/06 A2994 RMK AO2 SLP136 T01000061=
200804200952 METAR KATL 200952Z 31005KT 10SM CLR 11/06 A2992 RMK AO2 SLP130 T01060061=
200804200852 METAR KATL 200852Z 30010KT 10SM CLR 12/07 A2992 RMK AO2 SLP126 T01220067 53000=
200804200752 METAR KATL 200752Z 27007KT 10SM CLR 13/06 A2991 RMK AO2 SLP124 T01280061=
200804200652 METAR KATL 200652Z 27006KT 10SM CLR 13/06 A2991 RMK AO2 SLP125 T01280061=
200804200552 METAR KATL 200552Z 23005KT 10SM FEW080 13/06 A2992 RMK AO2 SLP126 T01330061 10189 20133 58007=
200804200452 METAR KATL 200452Z 24005KT 10SM FEW080 14/06 A2993 RMK AO2 SLP130 T01390056 402220139=
200804200352 METAR KATL 200352Z 23005KT 10SM FEW080 14/06 A2994 RMK AO2 SLP134 T01390056=
200804200252 METAR KATL 200252Z 24004KT 10SM FEW080 16/05 A2994 RMK AO2 SLP134 T01610050 51005=
200804200152 METAR KATL 200152Z 26004KT 10SM CLR 16/04 A2994 RMK AO2 SLP135 T01610044=
200804200052 METAR KATL 200052Z 25004KT 10SM FEW080 17/03 A2994 RMK AO2 SLP134 T01720033=
200804192352 METAR KATL 192352Z 26008KT 10SM FEW080 19/03 A2992 RMK AO2 SLP130 T01890028 10222 20183 51008=
200804192252 METAR KATL 192252Z 26007KT 10SM FEW070 20/04 A2992 RMK AO2 SLP127 T02000039=
200804192152 METAR KATL 192152Z 28014G19KT 10SM FEW070 21/05 A2991 RMK AO2 SLP124 T02060050=
200804192052 METAR KATL 192052Z 24012G17KT 10SM FEW070 22/04 A2990 RMK AO2 SLP120 T02170044 56012=
200804191952 METAR KATL 191952Z 24009KT 10SM SCT060 21/07 A2990 RMK AO2 SLP121 T02110067=
200804191852 METAR KATL 191852Z 27008G18KT 250V330 10SM SCT050 21/09 A2993 RMK AO2 SLP127 T02110089=
200804191752 METAR KATL 191752Z 23010G18KT 10SM SCT047 21/09 A2994 RMK AO2 SLP131 60000 T02060089 10206 20144 58009=
200804191652 METAR KATL 191652Z 26010G14KT 10SM SCT038 20/11 A2996 RMK AO2 SLP138 MDT CU ALQDS T02000111=
200804191552 METAR KATL 191552Z 27010KT 10SM FEW022 SCT031 BKN055 19/12 A2997 RMK AO2 SLP142 T01890122=
200804191524 SPECI KATL 191524Z 27008KT 10SM SCT022 BKN035 BKN055 18/13 A2997 RMK AO2=
200804191524 SPECI KATL 191524Z 27008KT 10SM SCT022 BKN035 BKN055 18/13 A2997 RMK AO2=
200804191452 METAR KATL 191452Z 24009KT 10SM SCT011 SCT018 BKN025 18/14 A2997 RMK AO2 SLP142 SCT018 V BKN 60000 T01830139 51007=
200804191434 SPECI KATL 191434Z 26009KT 10SM SCT013 BKN017 BKN025 17/14 A2997 RMK AO2 CIG 013V017 BKN017 V SCT=
200804191434 SPECI KATL 191434Z 26009KT 10SM SCT013 BKN017 BKN025 17/14 A2997 RMK AO2 CIG 013V017 BKN017 V SCT=
200804191417 SPECI KATL 191417Z 22006KT 8SM SCT010 BKN013 BKN029 17/14 A2996 RMK AO2=
200804191417 SPECI KATL 191417Z 22006KT 8SM SCT010 BKN013 BKN029 17/14 A2996 RMK AO2=
200804191407 SPECI KATL 191407Z 23008KT 8SM BKN010 BKN016 BKN025 16/14 A2996 RMK AO2=
200804191407 SPECI KATL 191407Z 23008KT 8SM BKN010 BKN016 BKN025 16/14 A2996 RMK AO2=
200804191352 METAR KATL 191352Z 23007KT 8SM BKN008 OVC014 16/14 A2996 RMK AO2 DZB24E45 SLP140 P0000 T01610144=
200804191252 METAR KATL 191252Z 21007KT 6SM BR BKN006 OVC012 15/14 A2995 RMK AO2 RAB11E28 SLP139 P0000 T01500139=
200804191152 METAR KATL 191152Z 20009KT 8SM BKN006 OVC012 14/13 A2994 RMK AO2 SLP135 60019 70019 T01440133 10178 20144 53001=
200804191109 SPECI KATL 191109Z 20009KT 8SM BKN008 OVC012 14/13 A2994 RMK AO2 CIG 006V011=
200804191109 SPECI KATL 191109Z 20009KT 8SM BKN008 OVC012 14/13 A2994 RMK AO2 CIG 006V011=
200804191052 METAR KATL 191052Z 19009KT 7SM BKN012 OVC044 14/13 A2994 RMK AO2 SLP132 T01440128=
200804190959 SPECI KATL 190959Z 18011KT 6SM BR SCT017 BKN030 OVC060 14/13 A2992 RMK AO2=
200804190959 SPECI KATL 190959Z 18011KT 6SM BR SCT017 BKN030 OVC060 14/13 A2992 RMK AO2=
200804190952 METAR KATL 190952Z 19009KT 6SM BR SCT017 BKN027 OVC050 15/13 A2993 RMK AO2 RAE46 SLP128 P0010 T01500133=
200804190852 METAR KATL 190852Z 19008KT 6SM -RA BR BKN047 OVC090 15/13 A2994 RMK AO2 SLP132 P0005 60009 T01500133 58006=
200804190752 METAR KATL 190752Z 21005KT 5SM RA BR FEW026 OVC060 16/13 A2995 RMK AO2 SLP137 P0004 T01560133=
200804190652 METAR KATL 190652Z 19009KT 10SM -RA OVC065 17/12 A2995 RMK AO2 RAB35 SLP136 P0000 T01720122=
200804190552 METAR KATL 190552Z 18010KT 8SM BKN150 BKN250 18/11 A2996 RMK AO2 SLP139 T01780111 10217 20172 56019=
200804190452 METAR KATL 190452Z COR 18010KT 10SM BKN150 BKN250 18/11 A2997 RMK AO2 SLP144 T01780106 402440106=
200804190352 METAR KATL 190352Z COR 18008KT 10SM FEW055 BKN150 BKN250 18/10 A3000 RMK AO2 SLP152 T01830100=
200804190252 METAR KATL 190252Z 17011KT 10SM FEW060 BKN150 OVC200 19/09 A3002 RMK AO2 SLP159 T01890094 53004=
200804190152 METAR KATL 190152Z 16007KT 10SM BKN150 BKN250 19/09 A3001 RMK AO2 SLP156 T01940089=
200804190052 METAR KATL 190052Z 15007KT 10SM FEW150 SCT200 BKN250 20/08 A2997 RMK AO2 SLP146 T02000083=
200804182352 METAR KATL 182352Z 19011KT 10SM FEW150 BKN200 OVC250 21/08 A3000 RMK AO2 SLP157 T02110078 10244 20211 58009=
200804182252 METAR KATL 182252Z 20011KT 10SM FEW150 BKN200 OVC250 23/07 A3001 RMK AO2 SLP159 T02280067=
200804182152 METAR KATL 182152Z 18009G17KT 10SM FEW150 BKN200 OVC250 23/07 A3002 RMK AO2 SLP163 T02330067=
200804182052 METAR KATL 182052Z 19010G20KT 9SM FEW075 SCT150 BKN250 24/06 A3003 RMK AO2 SLP164 T02390056 58033=
200804181952 METAR KATL 181952Z 19009G17KT 10SM FEW070 SCT150 BKN250 24/07 A3007 RMK AO2 SLP177 T02390072=
200804181852 METAR KATL 181852Z 21011KT 10SM FEW070 SCT150 BKN250 23/08 A3010 RMK AO2 SLP189 T02330078=
200804181752 METAR KATL 181752Z 20012G17KT 10SM FEW060 SCT150 SCT250 23/06 A3013 RMK AO2 SLP198 T02280061 10228 20111 58019=
200804181652 METAR KATL 181652Z 19009G14KT 10SM FEW150 SCT250 22/06 A3015 RMK AO2 SLP204 T02170056=
200804181552 METAR KATL 181552Z 19007KT 10SM FEW150 BKN250 21/07 A3018 RMK AO2 SLP214 T02060067=
200804181452 METAR KATL 181452Z 32004KT 10SM FEW150 BKN250 19/09 A3019 RMK AO2 SLP218 T01890094 51010=
200804181352 METAR KATL 181352Z 31006KT 10SM SCT150 BKN250 17/09 A3018 RMK AO2 SLP214 T01720094=
200804181252 METAR KATL 181252Z 23005KT 10SM SCT150 BKN250 13/06 A3018 RMK AO2 SLP216 T01280061=
200804181152 METAR KATL 181152Z 00000KT 9SM BKN250 11/05 A3016 RMK AO2 SLP209 T01110050 10139 20106 53013=
200804181052 METAR KATL 181052Z 00000KT 10SM BKN250 12/04 A3014 RMK AO2 SLP202 T01170039=
200804180952 METAR KATL 180952Z 23003KT 10SM SCT250 12/04 A3013 RMK AO2 SLP199 T01170039=
200804180852 METAR KATL 180852Z 23003KT 10SM CLR 12/03 A3012 RMK AO2 SLP195 T01220033 55003=
200804180752 METAR KATL 180752Z 00000KT 10SM FEW250 12/03 A3011 RMK AO2 SLP192 T01220033=
200804180652 METAR KATL 180652Z 00000KT 10SM CLR 13/03 A3012 RMK AO2 SLP193 T01330033=
200804180552 METAR KATL 180552Z 21003KT 10SM CLR 14/04 A3013 RMK AO2 SLP199 T01390039 10217 20139 58002=
200804180452 METAR KATL 180452Z 00000KT 10SM CLR 15/03 A3013 RMK AO2 SLP200 T01500028 402390089=
200804180352 METAR KATL 180352Z 21003KT 10SM CLR 16/04 A3013 RMK AO2 SLP200 T01560039=
200804180252 METAR KATL 180252Z 24004KT 10SM CLR 18/03 A3014 RMK AO2 SLP201 T01780028 51005=
200804180152 METAR KATL 180152Z 22004KT 10SM CLR 18/03 A3014 RMK AO2 SLP201 T01830033=
200804180052 METAR KATL 180052Z 00000KT 10SM CLR 19/04 A3012 RMK AO2 SLP198 T01890039=
200804172352 METAR KATL 172352Z 20005KT 10SM CLR 22/03 A3012 RMK AO2 SLP198 T02170033 10239 20217 56007=
200804172252 METAR KATL 172252Z 22005KT 10SM CLR 23/01 A3012 RMK AO2 SLP197 T02330011=
200804172152 METAR KATL 172152Z VRB03KT 10SM CLR 23/01 A3013 RMK AO2 SLP200 T02330006=
200804172052 METAR KATL 172052Z 00000KT 10SM FEW250 23/01 A3014 RMK AO2 SLP204 T02330006 58023=
200804171952 METAR KATL 171952Z 00000KT 10SM FEW250 23/02 A3017 RMK AO2 SLP212 T02330017=
200804171852 METAR KATL 171852Z 19007KT 10SM FEW250 23/02 A3019 RMK AO2 SLP220 T02280022=
200804171752 METAR KATL 171752Z 00000KT 10SM FEW250 22/03 A3021 RMK AO2 SLP228 T02170028 10222 20094 58012=
200804171652 METAR KATL 171652Z 27005KT 10SM FEW250 21/03 A3023 RMK AO2 SLP234 T02060033=
200804171552 METAR KATL 171552Z 00000KT 10SM FEW250 19/03 A3025 RMK AO2 SLP241 T01940028=
200804171452 METAR KATL 171452Z 30006KT 10SM FEW250 18/03 A3025 RMK AO2 SLP241 T01780033 51007=
200804171352 METAR KATL 171352Z 28007KT 10SM FEW250 16/03 A3025 RMK AO2 SLP240 T01610028=
200804171252 METAR KATL 171252Z 28004KT 10SM FEW250 13/04 A3025 RMK AO2 SLP241 T01280044=
200804171152 METAR KATL 171152Z 28003KT 10SM FEW250 09/02 A3023 RMK AO2 SLP235 T00940022 10122 20089 53017=
200804171052 METAR KATL 171052Z 00000KT 10SM CLR 09/02 A3021 RMK AO2 SLP227 T00940017=
200804170952 METAR KATL 170952Z 00000KT 10SM CLR 10/01 A3019 RMK AO2 SLP221 T01000011=
200804170852 METAR KATL 170852Z 00000KT 10SM CLR 09/04 A3018 RMK AO2 SLP217 T00940039 56010=
200804170752 METAR KATL 170752Z 00000KT 10SM CLR 11/02 A3018 RMK AO2 SLP218 T01110017=
200804170652 METAR KATL 170652Z 20003KT 10SM CLR 12/01 A3019 RMK AO2 SLP223 T01170011=
200804170552 METAR KATL 170552Z 23004KT 10SM CLR 12/01 A3021 RMK AO2 SLP227 T01220011 10189 20117 55001=
200804170452 METAR KATL 170452Z 00000KT 10SM CLR 13/01 A3021 RMK AO2 SLP226 T01330011 402110044=
200804170352 METAR KATL 170352Z 18003KT 10SM CLR 14/02 A3021 RMK AO2 SLP227 T01390022=
200804170252 METAR KATL 170252Z 19004KT 10SM CLR 14/03 A3021 RMK AO2 SLP228 T01390028 53009=
200804170152 METAR KATL 170152Z 18003KT 10SM CLR 16/02 A3020 RMK AO2 SLP224 T01610017=
200804170052 METAR KATL 170052Z 18003KT 10SM CLR 17/02 A3018 RMK AO2 SLP220 T01720022=
200804162352 METAR KATL 162352Z 19005KT 10SM CLR 19/01 A3018 RMK AO2 SLP220 T01890011 10211 20178 56004=
200804162252 METAR KATL 162252Z VRB05KT 10SM CLR 20/M01 A3018 RMK AO2 SLP221 T02001011=
200804162152 METAR KATL 162152Z VRB04KT 10SM CLR 20/M01 A3018 RMK AO2 SLP220 T02001011=
200804162052 METAR KATL 162052Z 17004KT 10SM CLR 20/01 A3019 RMK AO2 SLP223 T02000006 56022=
200804161952 METAR KATL 161952Z 00000KT 10SM CLR 19/00 A3021 RMK AO2 SLP229 T01940000=
200804161852 METAR KATL 161852Z VRB05KT 10SM CLR 19/01 A3023 RMK AO2 SLP237 T01890006=
200804161752 METAR KATL 161752Z VRB04KT 10SM CLR 18/M01 A3026 RMK AO2 SLP247 T01781006 10183 20056 58018=
200804161652 METAR KATL 161652Z 00000KT 10SM CLR 17/00 A3029 RMK AO2 SLP257 T01720000=
200804161552 METAR KATL 161552Z 20006KT 10SM CLR 16/M01 A3032 RMK AO2 SLP266 T01611011=
200804161452 METAR KATL 161452Z 00000KT 10SM CLR 15/M01 A3031 RMK AO2 SLP265 T01501006 51012=
200804161352 METAR KATL 161352Z 00000KT 10SM CLR 13/00 A3031 RMK AO2 SLP263 T01280000=
200804161252 METAR KATL 161252Z 00000KT 10SM CLR 11/M01 A3030 RMK AO2 SLP262 T01061006=
200804161152 METAR KATL 161152Z 00000KT 10SM CLR 06/00 A3028 RMK AO2 SLP256 T00560000 10083 20044 53022=
200804161052 METAR KATL 161052Z 34003KT 10SM CLR 06/M01 A3026 RMK AO2 SLP247 T00561006=
200804160952 METAR KATL 160952Z 29004KT 10SM CLR 06/00 A3023 RMK AO2 SLP239 T00560000=
200804160852 METAR KATL 160852Z 00000KT 10SM CLR 07/M01 A3021 RMK AO2 SLP232 T00671006 55001=
200804160752 METAR KATL 160752Z 00000KT 10SM CLR 07/M01 A3021 RMK AO2 SLP230 T00671006=
200804160652 METAR KATL 160652Z 00000KT 10SM CLR 08/M02 A3021 RMK AO2 SLP230 T00781017=
200804160552 METAR KATL 160552Z 15004KT 10SM CLR 08/01 A3022 RMK AO2 SLP233 T00780006 10144 20078 55000=
200804160452 METAR KATL 160452Z 00000KT 10SM CLR 09/M02 A3021 RMK AO2 SLP231 T00891017 401720022=
200804160352 METAR KATL 160352Z 33005KT 10SM CLR 10/M03 A3022 RMK AO2 SLP233 T01001033=
200804160252 METAR KATL 160252Z 34009KT 10SM CLR 12/M03 A3022 RMK AO2 SLP233 T01171028 53018=
200804160152 METAR KATL 160152Z 32006KT 10SM CLR 12/M02 A3020 RMK AO2 SLP227 T01221022=
200804160052 METAR KATL 160052Z 29004KT 10SM CLR 12/M03 A3018 RMK AO2 SLP221 T01221028=
200804152352 METAR KATL 152352Z 31007KT 10SM CLR 14/M03 A3016 RMK AO2 SLP216 T01441033 10172 20139 53001=
200804152252 METAR KATL 152252Z 32005KT 10SM FEW075 16/M04 A3016 RMK AO2 SLP215 T01561039=
200804152152 METAR KATL 152152Z 00000KT 10SM FEW080 16/M04 A3015 RMK AO2 SLP213 T01611039=
200804152052 METAR KATL 152052Z 00000KT 10SM FEW075 16/M03 A3016 RMK AO2 SLP214 T01611028 58018=
200804151952 METAR KATL 151952Z VRB05KT 10SM FEW075 16/M02 A3018 RMK AO2 SLP222 T01561022=
200804151852 METAR KATL 151852Z VRB03KT 10SM FEW070 15/M02 A3020 RMK AO2 SLP228 T01501022=
200804151752 METAR KATL 151752Z 03009KT 10SM FEW065 14/M02 A3021 RMK AO2 SLP233 T01441022 10144 20028 58012=
200804151652 METAR KATL 151652Z VRB06KT 10SM FEW050 13/M01 A3023 RMK AO2 SLP238 T01331006=
200804151552 METAR KATL 151552Z 02007KT 10SM FEW040 12/M01 A3024 RMK AO2 SLP243 T01171006=
200804151452 METAR KATL 151452Z 01008KT 10SM FEW030 11/00 A3025 RMK AO2 SLP246 T01060000 51019=
200804151352 METAR KATL 151352Z 35008KT 10SM CLR 08/01 A3024 RMK AO2 SLP244 T00830011=
200804151252 METAR KATL 151252Z 34009KT 10SM FEW055 06/01 A3022 RMK AO2 SLP238 T00560011=
200804151152 METAR KATL 151152Z 33007KT 8SM FEW055 03/01 A3019 RMK AO2 SLP230 T00280006 10044 20022 53023=
200804151052 METAR KATL 151052Z 33005KT 10SM FEW055 SCT100 02/00 A3016 RMK AO2 SLP220 T00220000=
200804150952 METAR KATL 150952Z 34009KT 10SM FEW100 03/00 A3014 RMK AO2 SLP213 T00280000=
200804150852 METAR KATL 150852Z 34010KT 10SM FEW100 03/00 A3012 RMK AO2 SLP205 T00330000 53002=
200804150752 METAR KATL 150752Z 32010KT 10SM FEW100 03/00 A3011 RMK AO2 SLP201 T00330000=
200804150652 METAR KATL 150652Z 33009KT 10SM SCT100 03/01 A3011 RMK AO2 SLP202 T00330006=
200804150552 METAR KATL 150552Z 33011G18KT 10SM FEW100 04/01 A3012 RMK AO2 SLP203 T00440006 10072 20044 53001=
200804150452 METAR KATL 150452Z 33013KT 10SM SCT110 05/01 A3011 RMK AO2 SLP202 T00500006 401000022=
200804150352 METAR KATL 150352Z 34012G20KT 10SM BKN100 06/00 A3011 RMK AO2 SLP201 T00560000=
200804150252 METAR KATL 150252Z 33012KT 10SM BKN100 06/00 A3011 RMK AO2 SLP202 T00610000 53017=
200804150152 METAR KATL 150152Z 33015G22KT 10SM BKN100 07/00 A3010 RMK AO2 SLP196 T00670000=
200804150052 METAR KATL 150052Z 33012G18KT 10SM SCT080 OVC110 07/M01 A3008 RMK AO2 PK WND 36027/0008 SLP189 T00671006=
200804142352 METAR KATL 142352Z 32010KT 10SM FEW035 BKN110 OVC150 07/01 A3006 RMK AO2 SLP185 SHRA VC NW-N 60000 T00720011 10100 20067 52015=
200804142252 METAR KATL 142252Z 32015G20KT 10SM SCT038 BKN100 OVC200 08/01 A3005 RMK AO2 RAE2158 SLP180 P0000 T00780011=
200804142152 METAR KATL 142152Z 32017G27KT 10SM -RA SCT040 BKN055 OVC100 07/02 A3003 RMK AO2 PK WND 34027/2144 RAB41 SLP175 P0000 T00720022=
200804142052 METAR KATL 142052Z 32017G20KT 10SM FEW035 BKN100 OVC150 09/01 A3002 RMK AO2 RAE03 SLP169 SHRA DSNT N-NE BINOVC NW P0000 60000 T00940006 58004=
200804141952 METAR KATL 141952Z 35014G20KT 9SM -RA FEW025 BKN050 OVC090 07/02 A3003 RMK AO2 RAB48 SLP173 VIRGA VC NW SHRA DSNT NE SE S P0000 T00720017=
200804141852 METAR KATL 141852Z 33013G17KT 10SM FEW030 SCT060 BKN090 OVC150 09/02 A3003 RMK AO2 RAB25E34 SLP173 TCU DSNT NW SHRA DSNT NE P0000 T00890022=
200804141752 METAR KATL 141752Z 33012KT 10SM BKN030 BKN040 OVC060 08/01 A3003 RMK AO2 RAB1654E17 SLP173 SHRA DSNT NW P0000 60000 T00830006 10089 20028 58002=
200804141739 SPECI KATL 141739Z 31012KT 10SM SCT027 BKN032 BKN042 OVC150 09/01 A3003 RMK AO2 RAB1654E17 P0000=
200804141739 SPECI KATL 141739Z 31012KT 10SM SCT027 BKN032 BKN042 OVC150 09/01 A3003 RMK AO2 RAB1654E17 P0000=
200804141710 SPECI KATL 141710Z 35012KT 10SM -RA BKN029 BKN060 OVC080 07/02 A3004 RMK AO2 RAB1654 P0000=
200804141710 SPECI KATL 141710Z 35012KT 10SM -RA BKN029 BKN060 OVC080 07/02 A3004 RMK AO2 RAB1654 P0000=
200804141652 METAR KATL 141652Z 35016G19KT 10SM FEW030 BKN040 OVC060 07/01 A3004 RMK AO2 RAB38E51 SLP178 SHRA VC NE NW P0000 T00720011=
200804141552 METAR KATL 141552Z 31010KT 10SM SCT030 BKN080 OVC200 08/01 A3004 RMK AO2 SLP177 T00830006=
200804141452 METAR KATL 141452Z 33009G15KT 10SM SCT027 BKN080 BKN200 07/00 A3004 RMK AO2 SLP175 T00720000 51008=
200804141352 METAR KATL 141352Z 30008KT 10SM FEW015 BKN075 06/01 A3003 RMK AO2 SLP173 T00560006=
200804141252 METAR KATL 141252Z 30009KT 10SM BKN075 04/01 A3003 RMK AO2 SLP172 T00440006=
200804141152 METAR KATL 141152Z 29007KT 10SM FEW060 BKN200 03/00 A3001 RMK AO2 SLP167 T00280000 10056 20022 53006=
200804141052 METAR KATL 141052Z 30006KT 10SM BKN250 02/M01 A3000 RMK AO2 SLP163 T00221006=
200804140952 METAR KATL 140952Z 31006KT 10SM FEW200 03/M01 A2999 RMK AO2 SLP159 T00281006=
200804140852 METAR KATL 140852Z 33006KT 10SM CLR 04/M01 A2999 RMK AO2 SLP158 T00391006 56012=
200804140752 METAR KATL 140752Z 31006KT 10SM CLR 04/M01 A3000 RMK AO2 SLP161 T00391011=
200804140652 METAR KATL 140652Z 33008KT 10SM FEW200 05/M01 A3001 RMK AO2 SLP165 T00501011=
200804140552 METAR KATL 140552Z 34006KT 10SM FEW080 06/M02 A3003 RMK AO2 SLP170 T00561017 10111 20056 58004=
200804140452 METAR KATL 140452Z 32007KT 10SM FEW080 06/M02 A3003 RMK AO2 SLP170 T00611017 401560056=
200804140352 METAR KATL 140352Z 32008KT 10SM CLR 07/M02 A3005 RMK AO2 SLP176 T00721022=
200804140252 METAR KATL 140252Z 34013KT 10SM CLR 08/M03 A3004 RMK AO2 SLP174 T00831028 53020=
200804140152 METAR KATL 140152Z 32010G18KT 10SM FEW080 09/M02 A3002 RMK AO2 SLP166 T00941022=
200804140052 METAR KATL 140052Z 32010KT 10SM FEW065 10/M02 A3000 RMK AO2 SLP160 T01001017=
200804132352 METAR KATL 132352Z 31013G20KT 10SM FEW065 11/M02 A2998 RMK AO2 SLP155 T01111017 10156 20111 53008=
200804132252 METAR KATL 132252Z 30013G22KT 10SM SCT070 13/M02 A2997 RMK AO2 SLP150 T01331022=
200804132152 METAR KATL 132152Z 29012G27KT 10SM SCT070 SCT090 13/M02 A2996 RMK AO2 PK WND 31028/2126 SLP146 T01331022=
200804132052 METAR KATL 132052Z 30020G25KT 10SM BKN075 BKN095 14/M01 A2995 RMK AO2 PK WND 31029/2026 SLP144 T01441011 55005=
200804131952 METAR KATL 131952Z 29018G25KT 10SM BKN070 14/M02 A2995 RMK AO2 PK WND 29029/1858 SLP142 T01441017=
200804131852 METAR KATL 131852Z 27011G21KT 10SM BKN075 14/M01 A2996 RMK AO2 PK WND 32028/1823 SLP144 MDT CU ALQDS T01441006=
200804131752 METAR KATL 131752Z 28021G29KT 10SM SCT060 SCT250 14/M01 A2997 RMK AO2 PK WND 30029/1749 SLP148 T01441006 10144 20061 58008=
200804131652 METAR KATL 131652Z 29018G25KT 10SM FEW250 13/M02 A2998 RMK AO2 PK WND 30026/1635 SLP152 T01331017=
200804131552 METAR KATL 131552Z 29015G21KT 10SM FEW250 12/M01 A3000 RMK AO2 SLP158 T01171011=
200804131452 METAR KATL 131452Z 30012G19KT 10SM FEW250 11/M01 A2999 RMK AO2 PK WND 30026/1420 SLP156 T01061011 51012=
200804131352 METAR KATL 131352Z 31011G23KT 10SM FEW250 09/M01 A2998 RMK AO2 SLP153 T00941011=
200804131252 METAR KATL 131252Z 28013G20KT 10SM FEW250 08/M01 A2997 RMK AO2 SLP150 T00781006=
200804131152 METAR KATL 131152Z 28006KT 10SM FEW250 06/01 A2996 RMK AO2 SLP145 70004 T00610011 10111 20056 51011=
200804131052 METAR KATL 131052Z 31008KT 10SM FEW250 07/01 A2995 RMK AO2 SLP141 T00670006=
200804130952 METAR KATL 130952Z 31009KT 10SM CLR 08/02 A2994 RMK AO2 SLP138 T00780017=
200804130852 METAR KATL 130852Z 29009KT 10SM CLR 08/02 A2992 RMK AO2 SLP132 T00830022 55007=
200804130752 METAR KATL 130752Z 27005KT 10SM CLR 08/02 A2992 RMK AO2 SLP130 T00830017=
200804130652 METAR KATL 130652Z 29005KT 10SM CLR 09/02 A2993 RMK AO2 SLP135 T00940017=
200804130552 METAR KATL 130552Z 31007KT 10SM FEW200 11/02 A2995 RMK AO2 SLP140 T01110022 10167 20111 51013=
200804130452 METAR KATL 130452Z 30011KT 10SM FEW200 12/02 A2994 RMK AO2 SLP136 T01220017 401830122=
200804130352 METAR KATL 130352Z 29010KT 10SM CLR 13/02 A2992 RMK AO2 SLP129 T01330017=
200804130252 METAR KATL 130252Z 28007KT 10SM CLR 13/03 A2991 RMK AO2 SLP126 T01330028 53019=
200804130152 METAR KATL 130152Z 26005KT 10SM CLR 14/07 A2989 RMK AO2 SLP118 T01440072=
200804130052 METAR KATL 130052Z 23009KT 10SM FEW200 16/07 A2986 RMK AO2 SLP110 T01560067=
200804122352 METAR KATL 122352Z 23011KT 10SM SCT200 BKN250 17/07 A2985 RMK AO2 SLP104 T01670067 10183 20167 53004=
200804122252 METAR KATL 122252Z 23011KT 10SM FEW150 BKN200 17/06 A2985 RMK AO2 SLP102 T01720061=
200804122152 METAR KATL 122152Z 25009KT 10SM SCT180 BKN250 18/05 A2984 RMK AO2 SLP100 T01780050=
200804122052 METAR KATL 122052Z 26012G18KT 10SM BKN150 BKN200 BKN250 18/05 A2984 RMK AO2 SLP099 T01780050 56013=
200804121952 METAR KATL 121952Z 25012G19KT 10SM SCT150 BKN200 18/06 A2984 RMK AO2 SLP100 T01780061=
200804121852 METAR KATL 121852Z 25008G18KT 10SM FEW035 SCT150 BKN200 17/09 A2986 RMK AO2 SLP108 T01720089=
200804121752 METAR KATL 121752Z 24010KT 10SM FEW030 SCT120 BKN200 17/09 A2988 RMK AO2 SLP113 60004 T01670089 10167 20139 58008=
200804121652 METAR KATL 121652Z 25007KT 10SM FEW030 SCT110 BKN200 16/09 A2988 RMK AO2 SLP115 T01610094=
200804121552 METAR KATL 121552Z 25006KT 10SM FEW020 BKN110 15/10 A2991 RMK AO2 RAE1457 SLP124 CB DSNT E-S P0000 T01500100=
200804121452 METAR KATL 121452Z 26007KT 10SM -RA FEW010 OVC085 14/12 A2990 RMK AO2 RAE1353B11 PRESRR SLP122 CB DSNT E-S P0000 60004 T01440117 53018=
200804121352 METAR KATL 121352Z 30008KT 8SM -RA FEW010 BKN060 OVC070 16/12 A2988 RMK AO2 TSB20E43 SLP114 CB DSNT N-NE AND SE P0004 T01560122=
200804121343 SPECI KATL 121343Z 30007KT 8SM -RA FEW010 OVC060 15/12 A2988 RMK AO2 TSB20E43 CB DSNT N-NE AND SE P0004=
200804121343 SPECI KATL 121343Z 30007KT 8SM -RA FEW010 OVC060 15/12 A2988 RMK AO2 TSB20E43 CB DSNT N-NE AND SE P0004=
200804121320 SPECI KATL 121320Z 29006KT 7SM -TSRA OVC050CB 15/13 A2988 RMK AO2 TSB20 OCNL LTGCG TS VC W-NW MOV NE P0001=
200804121320 SPECI KATL 121320Z 29006KT 7SM -TSRA OVC050CB 15/13 A2988 RMK AO2 TSB20 OCNL LTGCG TS VC W-NW MOV NE P0001=
200804121252 METAR KATL 121252Z 29005KT 10SM -RA BKN048 16/12 A2986 RMK AO2 RAB19 SLP106 P0000 T01560117=
200804121152 METAR KATL 121152Z 27006KT 10SM BKN048 17/14 A2985 RMK AO2 SLP100 70045 T01670139 10183 20167 51016=
200804121052 METAR KATL 121052Z 27006KT 10SM BKN046 BKN120 17/14 A2983 RMK AO2 SLP094 T01720144=
200804120952 METAR KATL 120952Z 28006KT 10SM BKN050 BKN120 17/16 A2982 RMK AO2 SLP090 T01720161=
200804120852 METAR KATL 120852Z 27004KT 6SM BR FEW004 BKN044 BKN055 18/17 A2980 RMK AO2 SLP083 T01780172 56006=
200804120824 SPECI KATL 120824Z 24005KT 7SM SCT003 BKN042 OVC048 18/17 A2980 RMK AO2=
200804120824 SPECI KATL 120824Z 24005KT 7SM SCT003 BKN042 OVC048 18/17 A2980 RMK AO2=
200804120752 METAR KATL 120752Z 26004KT 6SM BR BKN003 BKN034 OVC050 18/17 A2980 RMK AO2 SLP083 OCNL LTN DSNT SE T01780172=
200804120737 SPECI KATL 120737Z 25006KT 6SM BR FEW003 BKN034 OVC048 18/17 A2981 RMK AO2 OCNL LTN DIST SE=
200804120737 SPECI KATL 120737Z 25006KT 6SM BR FEW003 BKN034 OVC048 18/17 A2981 RMK AO2 OCNL LTN DIST SE=
200804120727 SPECI KATL 120727Z 27006KT 6SM BR SCT027 BKN032 OVC050 18/17 A2982 RMK AO2=
200804120727 SPECI KATL 120727Z 27006KT 6SM BR SCT027 BKN032 OVC050 18/17 A2982 RMK AO2=
200804120652 METAR KATL 120652Z 27005KT 10SM BKN029 OVC034 18/17 A2981 RMK AO2 SLP087 T01780172=
200804120639 SPECI KATL 120639Z 21007KT 10SM BKN029 BKN035 BKN075 18/17 A2982 RMK AO2=
200804120639 SPECI KATL 120639Z 21007KT 10SM BKN029 BKN035 BKN075 18/17 A2982 RMK AO2=
200804120552 METAR KATL 120552Z 23003KT 10SM SCT031 SCT047 BKN075 18/17 A2982 RMK AO2 RAB0459E48 SLP089 P0003 60045 T01780167 10256 20172 58014=
200804120452 METAR KATL 120452Z 22004KT 10SM FEW025 BKN045 BKN060 OVC150 18/16 A2986 RMK AO2 SLP103 OCNL LTG DSNT SW T01780161 402780172=
200804120352 METAR KATL 120352Z 22004KT 10SM FEW008 SCT030 BKN120 OVC200 17/16 A2986 RMK AO2 TSE18RAE38 SLP105 OCNL LTG DSNT SE TS MOV NE P0001 T01720161=
200804120319 SPECI KATL 120319Z 20014KT 10SM -RA FEW040 SCT090 BKN120 OVC150 18/16 A2985 RMK AO2 TSE18 FRQ LTG DSNT E-S TS MOV NE P0001=
200804120319 SPECI KATL 120319Z 20014KT 10SM -RA FEW040 SCT090 BKN120 OVC150 18/16 A2985 RMK AO2 TSE18 FRQ LTG DSNT E-S TS MOV NE P0001=
200804120252 METAR KATL 120252Z 23007KT 9SM -TSRA FEW015 SCT035CB OVC065 19/17 A2986 RMK AO2 SLP105 OCNL LTGICCA TS SW-W AND DSNT NE-SE MOV NE P0034 60041 T01890167 50010=
200804120211 SPECI KATL 120211Z 16007KT 5SM TSRA BR FEW010 BKN035CB OVC070 19/17 A2986 RMK AO2 FRQ LTGICCGCA TS OHD-ALQDS MOV NE P0025 $=
200804120211 SPECI KATL 120211Z 16007KT 5SM TSRA BR FEW010 BKN035CB OVC070 19/17 A2986 RMK AO2 FRQ LTGICCGCA TS OHD-ALQDS MOV NE P0025 $=
200804120204 SPECI KATL 120204Z VRB04G21KT 1 1/4SM R09R/3500VP6000FT +TSRA BR FEW015 OVC035CB 19/18 A2989 RMK AO2 PRESRR FRQ LTGICCGCA TS OHD-ALQDS MOV NE P0002 $=
200804120204 SPECI KATL 120204Z VRB04G21KT 1 1/4SM R09R/3500VP6000FT +TSRA BR FEW015 OVC035CB 19/18 A2989 RMK AO2 PRESRR FRQ LTGICCGCA TS OHD-ALQDS MOV NE P0002 $=
200804120152 METAR KATL 120152Z 33006KT 6SM TSRA BR FEW015 BKN045CB OVC070 20/18 A2986 RMK AO2 PK WND 33028/0128 WSHFT 0126 RAB09 SLP106 FRQ LTGICCGCA TS OHD-ALQDS MOV NE P0007 T02000178=
200804120144 SPECI KATL 120144Z 33014KT 7SM -TSRA FEW015 BKN045CB OVC070 20/18 A2987 RMK AO2 PK WND 33028/0128 WSHFT 0126 RAB09 OCNL LTGICCGCA TS OHD-ALQDS MOV NE P0003=
200804120144 SPECI KATL 120144Z 33014KT 7SM -TSRA FEW015 BKN045CB OVC070 20/18 A2987 RMK AO2 PK WND 33028/0128 WSHFT 0126 RAB09 OCNL LTGICCGCA TS OHD-ALQDS MOV NE P0003=
200804120052 METAR KATL 120052Z 19008KT 10SM TS FEW040CB BKN060 OVC100 24/15 A2983 RMK AO2 TSB49 SLP093 OCNL LTGIC TS VC W-NW MOV NE T02390150=
200804120050 SPECI KATL 120050Z 18007KT 10SM TS FEW040CB BKN060 OVC100 24/16 A2983 RMK AO2 TSB49 OCNL LTGIC TS VC W-NW MOV NE=
200804120050 SPECI KATL 120050Z 18007KT 10SM TS FEW040CB BKN060 OVC100 24/16 A2983 RMK AO2 TSB49 OCNL LTGIC TS VC W-NW MOV NE=
200804112352 METAR KATL 112352Z 21009KT 10SM FEW050 SCT100 OVC200 25/14 A2982 RMK AO2 SLP091 T02500144 10278 20250 58003=
200804112252 METAR KATL 112252Z 21009KT 10SM FEW055 BKN100 BKN200 26/14 A2983 RMK AO2 SLP091 T02610144=
200804112152 METAR KATL 112152Z 24012G19KT 10SM SCT055 BKN090 BKN250 27/14 A2984 RMK AO2 SLP095 T02670139=
200804112052 METAR KATL 112052Z 21017G21KT 10SM FEW060 BKN080 BKN200 27/15 A2983 RMK AO2 PK WND 22026/2018 SLP093 T02720150 56031=
200804111952 METAR KATL 111952Z 20019G23KT 10SM SCT060 BKN080 BKN200 26/15 A2985 RMK AO2 PK WND 22026/1942 SLP100 T02610150=
200804111852 METAR KATL 111852Z 22018G25KT 10SM FEW050 SCT060 SCT200 26/15 A2988 RMK AO2 PK WND 19027/1831 SLP110 T02610150=
200804111752 METAR KATL 111752Z 23017G24KT 10SM SCT050 SCT070 SCT200 26/14 A2993 RMK AO2 PK WND 21027/1732 SLP126 T02610144 10261 20172 58022=
200804111652 METAR KATL 111652Z 22016G27KT 10SM FEW045 BKN070 BKN200 25/14 A2997 RMK AO2 PK WND 22027/1646 SLP141 T02500144=
200804111552 METAR KATL 111552Z 19016G21KT 10SM FEW040 SCT080 BKN200 24/15 A2999 RMK AO2 SLP147 ACSL NE SW-N T02390150=
200804111452 METAR KATL 111452Z 20011G19KT 10SM FEW050 SCT080 BKN200 22/16 A3000 RMK AO2 SLP151 T02220156 58003=
200804111352 METAR KATL 111352Z 18010G20KT 10SM FEW050 SCT080 BKN200 21/15 A3000 RMK AO2 SLP153 T02060150=
200804111326 SPECI KATL 111326Z 18009KT 10SM SCT050 SCT080 BKN200 19/14 A3001 RMK AO2=
200804111326 SPECI KATL 111326Z 18009KT 10SM SCT050 SCT080 BKN200 19/14 A3001 RMK AO2=
200804111252 METAR KATL 111252Z 17008KT 10SM SCT048 BKN080 BKN200 18/15 A3002 RMK AO2 SLP158 T01780150=
200804111152 METAR KATL 111152Z 15006KT 10SM SCT048 SCT080 17/15 A3001 RMK AO2 SLP155 MDT CU DSNT W T01720150 10200 20172 53003=
200804111052 METAR KATL 111052Z 14005KT 10SM SCT048 BKN080 18/15 A3000 RMK AO2 SLP153 T01780150=
200804110952 METAR KATL 110952Z 15004KT 10SM BKN048 BKN080 18/15 A3000 RMK AO2 SLP151 T01830150=
200804110852 METAR KATL 110852Z 17006KT 10SM BKN050 OVC080 19/15 A3000 RMK AO2 SLP151 T01890150 53005=
200804110752 METAR KATL 110752Z 18007KT 10SM FEW043 BKN055 19/15 A2999 RMK AO2 SLP148 T01890150=
200804110652 METAR KATL 110652Z 18008KT 10SM BKN060 19/15 A2998 RMK AO2 SLP143 T01940150=
200804110552 METAR KATL 110552Z 19008KT 10SM BKN055 20/14 A2998 RMK AO2 SLP145 T02000144 10228 20200 58008=
200804110452 METAR KATL 110452Z 17007KT 10SM SCT055 20/14 A2999 RMK AO2 SLP148 T02000144 402440133=
200804110352 METAR KATL 110352Z 17009KT 10SM SCT045 BKN060 21/14 A3001 RMK AO2 SLP154 T02060144=
200804110252 METAR KATL 110252Z 16010KT 10SM OVC070 21/14 A3001 RMK AO2 SLP155 T02110144 53003=
200804110152 METAR KATL 110152Z 15006KT 10SM BKN050 BKN250 21/14 A3000 RMK AO2 SLP155 T02110139=
200804110052 METAR KATL 110052Z 16008KT 10SM BKN055 BKN250 22/14 A3000 RMK AO2 SLP153 T02220139=
200804102352 METAR KATL 102352Z 16007KT 10SM FEW050 BKN250 23/13 A3000 RMK AO2 SLP153 T02280133 10244 20228 56013=
200804102252 METAR KATL 102252Z 16010KT 10SM BKN050 BKN090 24/14 A3000 RMK AO2 SLP155 T02390139=
200804102152 METAR KATL 102152Z 18008KT 10SM SCT050 BKN085 BKN200 24/14 A3002 RMK AO2 SLP159 T02440139=
200804102052 METAR KATL 102052Z 15008KT 10SM FEW050 BKN080 BKN200 24/13 A3004 RMK AO2 SLP166 T02390128 58012=
200804101952 METAR KATL 101952Z 16008KT 10SM BKN047 BKN060 BKN200 23/13 A3006 RMK AO2 SLP174 T02330128=
200804101852 METAR KATL 101852Z 16011KT 10SM BKN050 BKN065 BKN200 23/12 A3007 RMK AO2 SLP176 T02330122=
200804101752 METAR KATL 101752Z 13010G17KT 100V170 9SM SCT044 BKN200 23/12 A3008 RMK AO2 SLP179 T02280117 10233 20133 56017=
200804101652 METAR KATL 101652Z COR 15010G20KT 10SM BKN040 BKN200 22/12 A3010 RMK AO2 SLP186 T02220117=
200804101552 METAR KATL 101552Z 16012KT 10SM FEW042 SCT055 SCT200 21/12 A3010 RMK AO2 SLP189 T02060117=
200804101452 METAR KATL 101452Z 16010G17KT 10SM FEW040 BKN200 19/12 A3013 RMK AO2 SLP196 T01890117 53008=
200804101352 METAR KATL 101352Z 13005KT 10SM BKN040 BKN200 17/13 A3012 RMK AO2 SLP193 T01670128=
200804101252 METAR KATL 101252Z 13006KT 8SM FEW060 SCT200 BKN250 15/12 A3011 RMK AO2 SLP192 T01500117=
200804101152 METAR KATL 101152Z 12006KT 10SM FEW055 SCT200 BKN250 13/11 A3010 RMK AO2 SLP189 T01330106 10156 20133 53009=
200804101052 METAR KATL 101052Z COR 13003KT 10SM FEW055 SCT200 BKN250 13/10 A3008 RMK AO2 SLP182 T01330100=
200804100952 METAR KATL 100952Z 13003KT 10SM FEW200 BKN250 13/09 A3008 RMK AO2 SLP181 T01330094=
200804100852 METAR KATL 100852Z 14006KT 10SM BKN200 OVC250 14/09 A3008 RMK AO2 SLP179 T01440094 58009=
200804100752 METAR KATL 100752Z 13005KT 10SM BKN200 BKN250 14/10 A3009 RMK AO2 SLP183 T01440100=
200804100652 METAR KATL 100652Z 10004KT 10SM SCT200 BKN250 14/09 A3009 RMK AO2 SLP186 T01440094=
200804100552 METAR KATL 100552Z 09003KT 10SM FEW250 15/10 A3010 RMK AO2 SLP189 T01500100 10217 20150 55004=
200804100452 METAR KATL 100452Z 12004KT 10SM FEW250 17/10 A3010 RMK AO2 SLP188 T01670100 402330094=
200804100352 METAR KATL 100352Z 11004KT 10SM FEW250 17/09 A3011 RMK AO2 SLP192 T01720094=
200804100252 METAR KATL 100252Z 13003KT 10SM FEW250 18/10 A3011 RMK AO2 SLP193 T01830100 51010=
200804100152 METAR KATL 100152Z 11003KT 10SM FEW250 20/10 A3011 RMK AO2 SLP193 T02000100=
200804100052 METAR KATL 100052Z 15004KT 10SM FEW250 20/10 A3010 RMK AO2 SLP188 T02000100=
200804092352 METAR KATL 092352Z 16006KT 10SM SCT250 22/09 A3008 RMK AO2 SLP184 T02170094 10233 20206 56009=
200804092252 METAR KATL 092252Z 15005KT 10SM FEW250 23/09 A3009 RMK AO2 SLP187 T02280094=
200804092152 METAR KATL 092152Z 21004KT 10SM FEW050 SCT200 23/09 A3010 RMK AO2 SLP190 T02280094=
200804092052 METAR KATL 092052Z 00000KT 10SM FEW050 SCT200 SCT250 23/10 A3011 RMK AO2 SLP193 T02330100 56022=
200804091952 METAR KATL 091952Z VRB03KT 10SM FEW050 SCT200 BKN250 22/10 A3013 RMK AO2 SLP200 T02220100=
200804091852 METAR KATL 091852Z VRB03KT 10SM FEW047 SCT200 SCT250 22/11 A3016 RMK AO2 SLP209 T02170106=
200804091752 METAR KATL 091752Z VRB03KT 10SM FEW040 SCT200 SCT250 21/11 A3018 RMK AO2 SLP217 T02060106 10206 20106 58012=
200804091652 METAR KATL 091652Z 14007KT 10SM FEW040 SCT200 SCT250 19/11 A3019 RMK AO2 SLP222 T01940106=
200804091552 METAR KATL 091552Z 13007KT 10SM FEW200 18/11 A3020 RMK AO2 SLP226 T01780106=
200804091452 METAR KATL 091452Z 11005KT 10SM FEW200 16/10 A3022 RMK AO2 SLP230 T01610100 51010=
200804091352 METAR KATL 091352Z 09008KT 8SM FEW200 14/09 A3021 RMK AO2 SLP227 T01440094=
200804091252 METAR KATL 091252Z 08007KT 7SM FEW200 12/09 A3020 RMK AO2 SLP225 T01220089=
200804091152 METAR KATL 091152Z 08008KT 8SM FEW150 SCT200 10/08 A3018 RMK AO2 SLP220 T01000083 10117 20094 53013=
200804091052 METAR KATL 091052Z 08007KT 9SM FEW250 11/08 A3017 RMK AO2 SLP214 T01060083=
200804090952 METAR KATL 090952Z 08007KT 10SM FEW200 10/08 A3015 RMK AO2 SLP208 T01000083=
200804090852 METAR KATL 090852Z 09005KT 10SM FEW200 11/08 A3015 RMK AO2 SLP206 T01060083 56008=
200804090752 METAR KATL 090752Z 07006KT 10SM FEW250 11/08 A3016 RMK AO2 SLP211 T01110083=
200804090652 METAR KATL 090652Z 10008KT 10SM FEW250 11/09 A3015 RMK AO2 SLP208 T01110089=
200804090552 METAR KATL 090552Z 10006KT 10SM FEW250 12/09 A3017 RMK AO2 SLP215 T01170089 10178 20117 50004=
200804090452 METAR KATL 090452Z 12006KT 10SM FEW250 13/09 A3017 RMK AO2 SLP215 T01330094 402110128=
200804090352 METAR KATL 090352Z 10006KT 10SM FEW250 13/09 A3017 RMK AO2 SLP214 T01330094=
200804090252 METAR KATL 090252Z 10008KT 10SM FEW250 14/09 A3016 RMK AO2 SLP211 T01440094 53014=
200804090152 METAR KATL 090152Z 09008KT 10SM FEW250 15/10 A3015 RMK AO2 SLP206 T01500100=
200804090052 METAR KATL 090052Z 09010KT 10SM SCT055 SCT250 17/10 A3013 RMK AO2 SLP200 T01670100=
200804082352 METAR KATL 082352Z 09009KT 10SM FEW050 18/10 A3012 RMK AO2 SLP196 T01780100 10211 20178 53003=
200804082252 METAR KATL 082252Z 12007KT 10SM FEW045 20/09 A3011 RMK AO2 SLP192 T02000094=
200804082152 METAR KATL 082152Z 14006KT 10SM FEW045 SCT200 21/10 A3011 RMK AO2 SLP190 T02060100=
200804082052 METAR KATL 082052Z 09008KT 10SM FEW040 SCT200 BKN250 21/10 A3011 RMK AO2 SLP192 T02060100 56014=
200804081952 METAR KATL 081952Z 10010G14KT 10SM FEW040 SCT250 20/11 A3012 RMK AO2 SLP195 T02000106=
200804081852 METAR KATL 081852Z 09007KT 10SM FEW035 SCT250 20/11 A3014 RMK AO2 SLP202 T02000106=
200804081752 METAR KATL 081752Z 10006KT 10SM SCT032 SCT250 18/11 A3015 RMK AO2 SLP207 T01830106 10183 20128 58007=
200804081741 SPECI KATL 081741Z 14007G15KT 10SM BKN031 18/10 A3016 RMK AO2=
200804081741 SPECI KATL 081741Z 14007G15KT 10SM BKN031 18/10 A3016 RMK AO2=
200804081652 METAR KATL 081652Z VRB04KT 10SM OVC027 17/09 A3018 RMK AO2 SLP215 BINOVC T01670094=
200804081552 METAR KATL 081552Z 09006KT 10SM OVC025 16/10 A3018 RMK AO2 SLP218 BINOVC T01610100=
200804081452 METAR KATL 081452Z 11006KT 10SM SCT018 BKN032 BKN250 15/10 A3017 RMK AO2 SLP215 T01500100 51007=
200804081352 METAR KATL 081352Z 10008KT 10SM SCT018 OVC034 13/09 A3017 RMK AO2 SLP215 BINOVC T01330094=
200804081252 METAR KATL 081252Z 10012KT 10SM SCT014 OVC034 13/09 A3016 RMK AO2 SLP212 BINOVC T01280094=
200804081210 METAR KATL 081210Z 10006KT 10SM BKN014 OVC022 13/11 A3015 AO2 SLP208 T01330106 10150 20133 53016=
200804081152 METAR KATL 081152Z COR 10006KT 10SM BKN014 OVC022 13/11 A3015 RMK AO2 SLP208 T01330106 10150 20133 53016=
200804081052 METAR KATL 081052Z COR 11010KT 10SM OVC014 14/11 A3013 RMK AO2 SLP200 T01390111=
200804080954 SPECI KATL 080954Z 12007KT 10SM FEW012 SCT025 OVC034 14/11 A3011 RMK AO2=
200804080954 SPECI KATL 080954Z 12007KT 10SM FEW012 SCT025 OVC034 14/11 A3011 RMK AO2=
200804080952 METAR KATL 080952Z 12008KT 10SM FEW012 BKN026 OVC034 14/11 A3011 RMK AO2 SLP194 T01440111=
200804080941 SPECI KATL 080941Z 12008KT 10SM SCT012 BKN018 OVC028 14/12 A3011 RMK AO2=
200804080941 SPECI KATL 080941Z 12008KT 10SM SCT012 BKN018 OVC028 14/12 A3011 RMK AO2=
200804080854 SPECI KATL 080854Z 13008KT 10SM BKN012 BKN020 OVC032 14/12 A3010 RMK AO2=
200804080854 SPECI KATL 080854Z 13008KT 10SM BKN012 BKN020 OVC032 14/12 A3010 RMK AO2=
200804080852 METAR KATL 080852Z 13007KT 10SM FEW012 SCT020 OVC032 14/12 A3010 RMK AO2 SLP191 T01440122 56005=
200804080752 METAR KATL 080752Z 13003KT 10SM OVC032 15/12 A3010 RMK AO2 SLP191 T01500122=
200804080722 SPECI KATL 080722Z 11004KT 10SM OVC031 15/12 A3011 RMK AO2=
200804080722 SPECI KATL 080722Z 11004KT 10SM OVC031 15/12 A3011 RMK AO2=
200804080652 METAR KATL 080652Z 10003KT 10SM OVC029 15/12 A3011 RMK AO2 SLP194 T01500122=
200804080552 METAR KATL 080552Z 09005KT 10SM OVC027 15/12 A3012 RMK AO2 SLP197 T01500122 10161 20150 51002=
200804080452 METAR KATL 080452Z 10006KT 10SM OVC023 15/12 A3012 RMK AO2 SLP197 T01500117 401720122=
200804080352 METAR KATL 080352Z 11005KT 10SM OVC021 15/12 A3012 RMK AO2 SLP196 T01500117=
200804080311 SPECI KATL 080311Z 12004KT 10SM BKN023 BKN035 OVC080 15/12 A3012 RMK AO2=
200804080311 SPECI KATL 080311Z 12004KT 10SM BKN023 BKN035 OVC080 15/12 A3012 RMK AO2=
200804080252 METAR KATL 080252Z 11003KT 10SM FEW032 BKN080 15/12 A3011 RMK AO2 SLP196 T01500117 52016=
200804080152 METAR KATL 080152Z 11004KT 10SM SCT075 15/12 A3010 RMK AO2 SLP192 T01500117=
200804080052 METAR KATL 080052Z 12004KT 10SM FEW022 SCT070 16/12 A3008 RMK AO2 SLP184 T01560117=
200804072352 METAR KATL 072352Z 10007KT 10SM SCT020 BKN070 16/12 A3007 RMK AO2 SLP179 T01610117 10172 20150 51003=
200804072252 METAR KATL 072252Z 09006KT 9SM SCT022 OVC065 17/12 A3006 RMK AO2 SLP177 T01670117=
200804072249 SPECI KATL 072249Z 08006KT 10SM SCT022 OVC065 17/12 A3006 RMK AO2=
200804072249 SPECI KATL 072249Z 08006KT 10SM SCT022 OVC065 17/12 A3006 RMK AO2=
200804072152 METAR KATL 072152Z 12006KT 8SM BKN022 OVC030 17/12 A3006 RMK AO2 SLP178 T01720117=
200804072052 METAR KATL 072052Z 10008KT 8SM OVC021 17/12 A3006 RMK AO2 SLP176 T01720117 55008=
200804071952 METAR KATL 071952Z 08008KT 8SM OVC019 17/12 A3005 RMK AO2 SLP175 T01670117=
200804071852 METAR KATL 071852Z 07008KT 8SM OVC015 16/11 A3008 RMK AO2 SLP182 T01560111=
200804071821 SPECI KATL 071821Z 07010KT 7SM OVC015 15/11 A3007 RMK AO2=
200804071821 SPECI KATL 071821Z 07010KT 7SM OVC015 15/11 A3007 RMK AO2=
200804071752 SPECI KATL 071752Z 09013KT 6SM HZ OVC013 16/12 A3008 RMK AO2 SLP184 60000 T01560117 10156 20122 58007=
200804071708 SPECI KATL 071708Z 08010KT 2 1/2SM HZ OVC011 14/11 A3010 RMK AO2 SFC VIS 6=
200804071708 SPECI KATL 071708Z 08010KT 2 1/2SM HZ OVC011 14/11 A3010 RMK AO2 SFC VIS 6=
200804071652 METAR KATL 071652Z 10009KT 2 1/2SM HZ OVC009 13/11 A3011 RMK AO2 SFC VIS 6 SLP193 T01330106=
200804071552 METAR KATL 071552Z 09011KT 2 1/2SM HZ OVC009 13/11 A3011 RMK AO2 SFC VIS 6 SLP195 T01330106=
200804071452 METAR KATL 071452Z 09010KT 2 1/2SM BR OVC007 12/11 A3010 RMK AO2 SFC VIS 5 SLP192 BINOVC 60000 T01220106 51015=
200804071352 METAR KATL 071352Z 08012KT 2 1/2SM BR OVC005 12/11 A3009 RMK AO2 SFC VIS 4 DZE49 SLP188 P0000 T01220106=
200804071252 METAR KATL 071252Z 08013KT 2 1/2SM -DZ BR OVC005 12/11 A3008 RMK AO2 SFC VIS 4 DZB49 SLP184 PCPN VRY LGT P0000 T01220111=
200804071152 METAR KATL 071152Z 07010KT 2 1/2SM BR OVC006 13/12 A3006 RMK AO2 SFC VIS 5 SLP176 T01280117 10150 20128 53020=
200804071126 SPECI KATL 071126Z 08012KT 2 1/2SM BR OVC006 13/12 A3003 RMK AO2 SFC VIS 6=
200804071126 SPECI KATL 071126Z 08012KT 2 1/2SM BR OVC006 13/12 A3003 RMK AO2 SFC VIS 6=
200804071052 METAR KATL 071052Z 09012KT 6SM BR OVC006 13/12 A3002 RMK AO2 SLP164 T01330117=
200804070952 METAR KATL 070952Z 08010KT 8SM OVC007 14/12 A3000 RMK AO2 SLP155 T01390122=
200804070852 METAR KATL 070852Z 09009KT 8SM OVC007 14/13 A3000 RMK AO2 SLP154 T01390128 56005=
200804070752 METAR KATL 070752Z 08009KT 6SM BR OVC007 14/13 A3000 RMK AO2 SLP156 T01440128=
200804070739 SPECI KATL 070739Z 08010KT 7SM BKN007 OVC050 14/13 A3000 RMK AO2=
200804070739 SPECI KATL 070739Z 08010KT 7SM BKN007 OVC050 14/13 A3000 RMK AO2=
200804070659 SPECI KATL 070659Z 09006KT 6SM BR FEW006 SCT022 SCT060 14/13 A3001 RMK AO2=
200804070659 SPECI KATL 070659Z 09006KT 6SM BR FEW006 SCT022 SCT060 14/13 A3001 RMK AO2=
200804070652 METAR KATL 070652Z 10006KT 7SM FEW022 SCT060 14/13 A3000 RMK AO2 SLP157 T01390128=
200804070552 METAR KATL 070552Z 08005KT 7SM SCT022 BKN048 15/13 A3001 RMK AO2 SLP160 T01500128 10178 20139 53005=
200804070452 METAR KATL 070452Z 10004KT 8SM BKN048 14/13 A3000 RMK AO2 SLP158 T01440128 401890117=
200804070352 METAR KATL 070352Z 09004KT 7SM FEW042 SCT200 14/12 A3000=
200804070252 METAR KATL 070252Z 09008KT 7SM BKN200 15/13 A2999 RMK AO2 SLP156 T01500128 53009=
200804070152 METAR KATL 070152Z 08007KT 8SM FEW150 OVC200 16/13 A2998 RMK AO2 SLP152 T01610128=
200804070052 METAR KATL 070052Z 07009KT 8SM BKN200 18/13 A2997 RMK AO2 SLP146 T01780128=
200804062352 METAR KATL 062352Z 08005KT 7SM FEW022 SCT150 SCT250 18/12 A2997 RMK AO2 SLP145 T01780122 10189 20161 55003=
200804062252 METAR KATL 062252Z 10003KT 7SM BKN130 OVC200 19/13 A2996 RMK AO2 SLP143 T01890128=
200804062152 METAR KATL 062152Z COR 00000KT 6SM HZ FEW150 OVC200 18/13 A2996 RMK AO2 SLP144 T01830128=
200804062052 METAR KATL 062052Z 00000KT 3SM HZ FEW020 SCT150 BKN200 18/13 A2998 RMK AO2 SFC VIS 6 SLP149 T01780128 58010=
200804062042 SPECI KATL 062042Z 00000KT 3SM HZ SCT020 BKN200 18/13 A2998 RMK AO2 SFC VIS 6=
200804062042 SPECI KATL 062042Z 00000KT 3SM HZ SCT020 BKN200 18/13 A2998 RMK AO2 SFC VIS 6=
200804062027 SPECI KATL 062027Z 00000KT 3SM HZ BKN018 OVC200 17/12 A2999 RMK AO2 SFC VIS 6=
200804062027 SPECI KATL 062027Z 00000KT 3SM HZ BKN018 OVC200 17/12 A2999 RMK AO2 SFC VIS 6=
200804061952 METAR KATL 061952Z 19004KT 3SM HZ BKN014 16/13 A2999 RMK AO2 SFC VIS 6 SLP153 T01610128=
200804061852 METAR KATL 061852Z 19005KT 3SM HZ BKN016 17/13 A3000 RMK AO2 SFC VIS 6 SLP158 T01670128=
200804061829 SPECI KATL 061829Z VRB03KT 3SM HZ OVC016 16/12 A3001 RMK AO2 SFC VIS 6=
200804061829 SPECI KATL 061829Z VRB03KT 3SM HZ OVC016 16/12 A3001 RMK AO2 SFC VIS 6=
200804061752 METAR KATL 061752Z 20004KT 3SM HZ OVC014 16/12 A3001 RMK AO2 SFC VIS 6 SLP159 BKINOVC OHD AND NW T01560122 10156 20117 51002 $=
200804061706 SPECI KATL 061706Z 17003KT 3SM HZ SCT009 BKN012 BKN200 16/13 A3001 RMK AO2 SFC VIS 5=
200804061706 SPECI KATL 061706Z 17003KT 3SM HZ SCT009 BKN012 BKN200 16/13 A3001 RMK AO2 SFC VIS 5=
200804061652 METAR KATL 061652Z 00000KT 3SM BR BKN009 BKN014 OVC200 14/12 A3001 RMK AO2 SFC VIS 5 SLP159 BKN009 V SCT T01440122=
200804061615 SPECI KATL 061615Z 00000KT 2SM BR OVC007 14/12 A3002 RMK AO2 SFC VIS 4 BINOVC OHD=
200804061615 SPECI KATL 061615Z 00000KT 2SM BR OVC007 14/12 A3002 RMK AO2 SFC VIS 4 BINOVC OHD=
200804061552 METAR KATL 061552Z 00000KT 1 1/2SM BR OVC005 13/11 A3001 RMK AO2 SFC VIS 3 SLP161 BINOVC OHD T01330111=
200804061513 SPECI KATL 061513Z 21003KT 1 1/2SM BR OVC005 13/11 A3001 RMK AO2 SFC VIS 2 1/2=
200804061513 SPECI KATL 061513Z 21003KT 1 1/2SM BR OVC005 13/11 A3001 RMK AO2 SFC VIS 2 1/2=
200804061452 METAR KATL 061452Z 00000KT 1 1/2SM BR OVC003 13/11 A3000 RMK AO2 SFC VIS 2 SLP158 TWRINC T01280111 51010=
200804061443 SPECI KATL 061443Z 00000KT 1SM BR OVC003 12/11 A3000 RMK AO2 SFC VIS 2 TWRINC=
200804061443 SPECI KATL 061443Z 00000KT 1SM BR OVC003 12/11 A3000 RMK AO2 SFC VIS 2 TWRINC=
200804061352 METAR KATL 061352Z 00000KT 1/8SM R09R/4500VP6000FT BR OVC001 12/11 A2999 RMK AO2 SFC VIS 1 SLP155 TWRINC T01170111=
200804061252 METAR KATL 061252Z 29004KT 1/8SM R09R/2800V4500FT FG VV001 12/11 A2999 RMK AO2 SFC VIS 1/2 SLP153 T01170111=
200804061152 METAR KATL 061152Z 33004KT 1/8SM R09R/2600V6000FT FG OVC001 12/11 A2997 RMK AO2 SFC VIS 1/2 SLP148 70026 T01170111 10133 20117 53018=
200804061138 SPECI KATL 061138Z 00000KT 1/2SM R09R/2800VP6000FT BR VV001 12/11 A2997 RMK AO2 SFC VIS 3/4=
200804061138 SPECI KATL 061138Z 00000KT 1/2SM R09R/2800VP6000FT BR VV001 12/11 A2997 RMK AO2 SFC VIS 3/4=
200804061052 METAR KATL 061052Z 36005KT 1/2SM R09R/6000VP6000FT BR OVC002 12/11 A2994 RMK AO2 SFC VIS 1 1/2 SLP138 T01170111=
200804060952 METAR KATL 060952Z 33004KT 1/2SM BR OVC002 12/11 A2992 RMK AO2 SFC VIS 3 SLP131 T01220111=
200804060926 SPECI KATL 060926Z 32004KT 1/2SM BR OVC002 12/12 A2992 RMK AO2 SFC VIS 3=
200804060926 SPECI KATL 060926Z 32004KT 1/2SM BR OVC002 12/12 A2992 RMK AO2 SFC VIS 3=
200804060852 METAR KATL 060852Z 30004KT 4SM BR OVC002 12/12 A2992 RMK AO2 SLP128 T01220117 53000=
200804060752 METAR KATL 060752Z 33007KT 6SM BR OVC004 13/12 A2991 RMK AO2 SLP126 T01280117=
200804060652 METAR KATL 060652Z 33007KT 6SM BR OVC004 13/12 A2992 RMK AO2 SLP128 T01280122=
200804060552 METAR KATL 060552Z 35005KT 6SM BR BKN004 OVC050 13/12 A2992 RMK AO2 SLP128 60000 T01330122 10161 20133 50002=
200804060516 SPECI KATL 060516Z 33006KT 6SM BR BKN004 OVC050 13/12 A2992 RMK AO2=
200804060516 SPECI KATL 060516Z 33006KT 6SM BR BKN004 OVC050 13/12 A2992 RMK AO2=
200804060452 METAR KATL 060452Z 29006KT 6SM BR FEW004 SCT023 BKN050 14/13 A2993 RMK AO2 SLP132 T01390128 401670139=
200804060438 SPECI KATL 060438Z 29004KT 7SM FEW005 SCT023 BKN065 14/13 A2993 RMK AO2=
200804060438 SPECI KATL 060438Z 29004KT 7SM FEW005 SCT023 BKN065 14/13 A2993 RMK AO2=
200804060420 SPECI KATL 060420Z 30006KT 6SM BR SCT006 BKN023 14/13 A2993 RMK AO2=
200804060420 SPECI KATL 060420Z 30006KT 6SM BR SCT006 BKN023 14/13 A2993 RMK AO2=
200804060352 METAR KATL 060352Z 29007KT 7SM BKN006 OVC022 14/13 A2992 RMK AO2 SLP130 T01390128=
200804060252 METAR KATL 060252Z 30007KT 8SM BKN006 OVC017 14/13 A2991 RMK AO2 SLP126 60000 T01440128 53020=
200804060152 METAR KATL 060152Z 34009KT 8SM OVC006 14/13 A2989 RMK AO2 CIG 004V008 SLP118 T01440133=
200804060052 METAR KATL 060052Z 32006KT 7SM BKN006 BKN010 OVC016 16/14 A2986 RMK AO2 DZE33 CIG 004V009 SLP108 P0000 T01560144=
200804060024 SPECI KATL 060024Z 32007KT 5SM -DZ BR BKN006 BKN013 16/14 A2985 RMK AO2 P0000=
200804060024 SPECI KATL 060024Z 32007KT 5SM -DZ BR BKN006 BKN013 16/14 A2985 RMK AO2 P0000=
200804052352 METAR KATL 052352Z 26005KT 2 1/2SM -DZ BR BKN006 OVC015 16/15 A2985 RMK AO2 SLP106 CIG 004V008 P0000 60002 T01610150 10167 20156 53010=
200804052315 SPECI KATL 052315Z 26006KT 3SM -DZ BR FEW003 BKN006 OVC024 16/15 A2984 RMK AO2 SFC VIS 5 PCPN VRY LGT P0000=
200804052315 SPECI KATL 052315Z 26006KT 3SM -DZ BR FEW003 BKN006 OVC024 16/15 A2984 RMK AO2 SFC VIS 5 PCPN VRY LGT P0000=
200804052252 METAR KATL 052252Z 27005KT 2 1/2SM -DZ BR BKN006 BKN013 OVC024 16/15 A2983 RMK AO2 RAE04B29E45DZB04E29B45 SLP098 CIG 003V008 P0000 T01610150=
200804052231 SPECI KATL 052231Z 27004KT 2 1/2SM -RA BR BKN006 BKN013 OVC021 16/15 A2982 RMK AO2 RAE04B29DZB04E29 P0000=
200804052231 SPECI KATL 052231Z 27004KT 2 1/2SM -RA BR BKN006 BKN013 OVC021 16/15 A2982 RMK AO2 RAE04B29DZB04E29 P0000=
200804052216 SPECI KATL 052216Z 24005KT 3SM -DZ BR BKN006 BKN013 OVC021 16/15 A2982 RMK AO2 SFC VIS 5 RAE04DZB04 SHRA NE AND S-W P0000=
200804052216 SPECI KATL 052216Z 24005KT 3SM -DZ BR BKN006 BKN013 OVC021 16/15 A2982 RMK AO2 SFC VIS 5 RAE04DZB04 SHRA NE AND S-W P0000=
200804052152 METAR KATL 052152Z 21005KT 2SM -RA BR BKN006 OVC013 16/15 A2981 RMK AO2 DZE19RAB19 SLP092 P0001 T01610150=
200804052130 SPECI KATL 052130Z 22003KT 2SM -RA BR BKN006 OVC016 16/15 A2982 RMK AO2 SFC VIS 2 1/2 DZE19RAB19 P0000=
200804052130 SPECI KATL 052130Z 22003KT 2SM -RA BR BKN006 OVC016 16/15 A2982 RMK AO2 SFC VIS 2 1/2 DZE19RAB19 P0000=
200804052052 METAR KATL 052052Z 21006KT 7SM -DZ BKN007 BKN012 OVC017 16/15 A2982 RMK AO2 RAB04E17DZB17 SLP095 BKN007 V SCT P0000 60001 T01610150 58007=
200804052034 SPECI KATL 052034Z 20008KT 2SM -DZ BR BKN007 OVC014 16/15 A2982 RMK AO2 SFC VIS 5 RAB04E17DZB17 BKN007 V SCT P0000=
200804052034 SPECI KATL 052034Z 20008KT 2SM -DZ BR BKN007 OVC014 16/15 A2982 RMK AO2 SFC VIS 5 RAB04E17DZB17 BKN007 V SCT P0000=
200804052018 SPECI KATL 052018Z 20006KT 2SM -DZ BR SCT007 BKN010 OVC028 16/15 A2983 RMK AO2 SFC VIS 4 RAB04E17DZB17 SCT007 V BKN P0000=
200804052018 SPECI KATL 052018Z 20006KT 2SM -DZ BR SCT007 BKN010 OVC028 16/15 A2983 RMK AO2 SFC VIS 4 RAB04E17DZB17 SCT007 V BKN P0000=
200804051952 METAR KATL 051952Z 19005KT 2SM BR BKN007 OVC015 16/15 A2984 RMK AO2 SFC VIS 4 RAB28E47 SLP100 BKN007 V SCT P0001 T01560150=
200804051935 SPECI KATL 051935Z 19003KT 2SM -RA BR BKN007 OVC015 16/14 A2984 RMK AO2 SFC VIS 4 RAB28 P0000=
200804051935 SPECI KATL 051935Z 19003KT 2SM -RA BR BKN007 OVC015 16/14 A2984 RMK AO2 SFC VIS 4 RAB28 P0000=
200804051852 METAR KATL 051852Z 18005KT 7SM OVC006 16/14 A2986 RMK AO2 SLP109 T01560144=
200804051831 SPECI KATL 051831Z 00000KT 7SM OVC006 16/14 A2987 RMK AO2 CIG 002V008=
200804051831 SPECI KATL 051831Z 00000KT 7SM OVC006 16/14 A2987 RMK AO2 CIG 002V008=
200804051752 METAR KATL 051752Z 10009G17KT 6SM BR BKN004 OVC009 16/14 A2984 RMK AO2 RAB1657E49 SLP102 CIG 002V009 P0001 60024 T01560144 10156 20144 58027=
200804051748 SPECI KATL 051748Z 11007G17KT 6SM -RA BR BKN004 OVC009 16/14 A2982 RMK AO2 RAB1657 CIG 002V009 P0001=
200804051748 SPECI KATL 051748Z 11007G17KT 6SM -RA BR BKN004 OVC009 16/14 A2982 RMK AO2 RAB1657 CIG 002V009 P0001=
200804051652 METAR KATL 051652Z 14004KT 5SM BR OVC006 16/14 A2993 RMK AO2 RAE02 SLP134 CIG 003V010 P0000 T01560139=
200804051634 SPECI KATL 051634Z 16005KT 3SM BR OVC006 16/14 A2992 RMK AO2 SFC VIS 5 RAE02 CIG 003V010 P0000=
200804051634 SPECI KATL 051634Z 16005KT 3SM BR OVC006 16/14 A2992 RMK AO2 SFC VIS 5 RAE02 CIG 003V010 P0000=
200804051612 SPECI KATL 051612Z 14004KT 3SM BR OVC004 15/14 A2993 RMK AO2 SFC VIS 5 RAE02 P0000=
200804051612 SPECI KATL 051612Z 14004KT 3SM BR OVC004 15/14 A2993 RMK AO2 SFC VIS 5 RAE02 P0000=
200804051552 METAR KATL 051552Z 13010G20KT 1 1/2SM -RA BR BKN005 OVC009 15/14 A2988 RMK AO2 SFC VIS 5 SLP116 P0004 T01500139=
200804051516 SPECI KATL 051516Z 10005KT 1 1/2SM -RA BR OVC005 15/14 A2993 RMK AO2 SFC VIS 5 CIG 003V008 P0001=
200804051516 SPECI KATL 051516Z 10005KT 1 1/2SM -RA BR OVC005 15/14 A2993 RMK AO2 SFC VIS 5 CIG 003V008 P0001=
200804051452 METAR KATL 051452Z 09006KT 1 1/2SM -RA BR OVC003 15/14 A2992 RMK AO2 SFC VIS 5 RAE30B49 SLP131 TWRINC P0002 60019 T01500139 50001=
200804051428 SPECI KATL 051428Z 09006KT 1 1/2SM -RA BR OVC003 15/14 A2991 RMK AO2 SFC VIS 5 CIG 003V006 TWRINC P0002=
200804051428 SPECI KATL 051428Z 09006KT 1 1/2SM -RA BR OVC003 15/14 A2991 RMK AO2 SFC VIS 5 CIG 003V006 TWRINC P0002=
200804051417 SPECI KATL 051417Z 09007KT 1 1/2SM -RA BR OVC006 15/14 A2992 RMK AO2 SFC VIS 5 P0002=
200804051417 SPECI KATL 051417Z 09007KT 1 1/2SM -RA BR OVC006 15/14 A2992 RMK AO2 SFC VIS 5 P0002=
200804051352 METAR KATL 051352Z 11005KT 2 1/2SM -RA BR BKN007 OVC022 14/14 A2993 RMK AO2 SFC VIS 5 SLP133 BKN007 V SCT P0007 T01440139=
200804051307 SPECI KATL 051307Z 05005KT 1 1/2SM -RA BR BKN007 OVC026 15/14 A2993 RMK AO2 SFC VIS 5 P0002=
200804051307 SPECI KATL 051307Z 05005KT 1 1/2SM -RA BR BKN007 OVC026 15/14 A2993 RMK AO2 SFC VIS 5 P0002=
200804051252 METAR KATL 051252Z 09005KT 2 1/2SM -RA BR BKN007 OVC035 14/14 A2993 RMK AO2 SFC VIS 4 SLP132 P0010 T01440139=
200804051152 METAR KATL 051152Z 15004KT 2 1/2SM -RA BR BKN004 BKN048 OVC080 14/14 A2992 RMK AO2 SFC VIS 5 SLP128 P0012 60046 70143 T01440139 10156 20144 51008=
200804051144 SPECI KATL 051144Z 14004KT 2 1/2SM RA BR FEW004 BKN055 OVC080 14/14 A2992 RMK AO2 SFC VIS 4 P0009=
200804051144 SPECI KATL 051144Z 14004KT 2 1/2SM RA BR FEW004 BKN055 OVC080 14/14 A2992 RMK AO2 SFC VIS 4 P0009=
200804051130 SPECI KATL 051130Z 00000KT 2 1/2SM -RA BR BKN046 BKN055 OVC080 14/14 A2990 RMK AO2 SFC VIS 6 P0008=
200804051130 SPECI KATL 051130Z 00000KT 2 1/2SM -RA BR BKN046 BKN055 OVC080 14/14 A2990 RMK AO2 SFC VIS 6 P0008=
200804051052 METAR KATL 051052Z 08004KT 6SM RA BR BKN027 OVC080 14/13 A2991 RMK AO2 SLP124 P0012 T01440133=
200804051000 SPECI KATL 051000Z 00000KT 4SM -RA BR SCT002 BKN019 OVC085 15/14 A2991 RMK AO2 P0002=
200804051000 SPECI KATL 051000Z 00000KT 4SM -RA BR SCT002 BKN019 OVC085 15/14 A2991 RMK AO2 P0002=
200804050952 METAR KATL 050952Z 00000KT 2 1/2SM +RA BR FEW002 BKN015 OVC049 14/14 A2991 RMK AO2 SLP125 P0013 T01440139=
200804050948 SPECI KATL 050948Z 00000KT 2 1/2SM +RA BR SCT002 BKN019 OVC049 14/14 A2993 RMK AO2 P0010=
200804050948 SPECI KATL 050948Z 00000KT 2 1/2SM +RA BR SCT002 BKN019 OVC049 14/14 A2993 RMK AO2 P0010=
200804050852 METAR KATL 050852Z 32007KT 6SM -RA BR SCT003 BKN050 OVC060 15/14 A2990 RMK AO2 SLP119 P0007 60009 T01500139 58001=
200804050850 SPECI KATL 050850Z 32008KT 5SM -RA BR SCT003 BKN044 OVC060 15/14 A2989 RMK AO2 P0007=
200804050850 SPECI KATL 050850Z 32008KT 5SM -RA BR SCT003 BKN044 OVC060 15/14 A2989 RMK AO2 P0007=
200804050752 METAR KATL 050752Z 17003KT 4SM -RA BR BKN001 BKN027 OVC055 15/14 A2992 RMK AO2 RAB18 SLP126 P0002 T01500144=
200804050652 METAR KATL 050652Z 00000KT 5SM BR BKN001 OVC050 16/14 A2989 RMK AO2 SLP118 T01560144=
200804050628 SPECI KATL 050628Z 00000KT 3SM BR SCT001 OVC050 15/14 A2990 RMK AO2=
200804050628 SPECI KATL 050628Z 00000KT 3SM BR SCT001 OVC050 15/14 A2990 RMK AO2=
200804050604 SPECI KATL 050604Z 11004KT 4SM BR BKN001 BKN050 OVC100 15/14 A2989 RMK AO2=
200804050604 SPECI KATL 050604Z 11004KT 4SM BR BKN001 BKN050 OVC100 15/14 A2989 RMK AO2=
200804050552 METAR KATL 050552Z 00000KT 5SM BR SCT001 BKN050 OVC100 16/14 A2990 RMK AO2 RAB17E37 SLP122 P0000 60041 T01560144 10172 20150 58006=
200804050452 METAR KATL 050452Z 17003KT 9SM FEW005 SCT055 BKN070 OVC200 16/14 A2992 RMK AO2 RAE28 SLP128 P0003 T01560144 402170078=
200804050352 METAR KATL 050352Z 22007KT 4SM RA BR FEW030 BKN055 OVC080 16/15 A2996 RMK AO2 RAB10 SLP143 P0004 T01560150=
200804050252 METAR KATL 050252Z 00000KT 10SM SCT065 BKN110 OVC150 16/14 A2992 RMK AO2 TSE36RAE46 SLP129 TS DSIPTD P0008 60034 T01560144 53012=
200804050238 SPECI KATL 050238Z 00000KT 10SM -RA FEW020 SCT060 BKN120 OVC150 16/14 A2993 RMK AO2 TSE36 TS DSIPTD P0008=
200804050238 SPECI KATL 050238Z 00000KT 10SM -RA FEW020 SCT060 BKN120 OVC150 16/14 A2993 RMK AO2 TSE36 TS DSIPTD P0008=
200804050152 METAR KATL 050152Z 36008KT 10SM -TSRA FEW015CB SCT055 OVC110 16/15 A2990 RMK AO2 SLP125 OCNL LTGICCA TS VC NE-E AND DSNT SW MOV NE P0012 T01610150=
200804050052 METAR KATL 050052Z 34005KT 10SM -TSRA SCT007 SCT015CB BKN070 OVC150 17/16 A2989 RMK AO2 TSB12RAB18 SLP122 OCNL LTGICCA TS VC NE-SE MOV NE P0014 T01670156=
200804050035 SPECI KATL 050035Z 00000KT 4SM +TSRA BR FEW007 BKN015CB OVC060 17/16 A2989 RMK AO2 TSB12RAB18 FRQ LTGICCGCA TS S-OHD MOV NE P0013=
200804050035 SPECI KATL 050035Z 00000KT 4SM +TSRA BR FEW007 BKN015CB OVC060 17/16 A2989 RMK AO2 TSB12RAB18 FRQ LTGICCGCA TS S-OHD MOV NE P0013=
200804050012 SPECI KATL 050012Z 34009KT 10SM TS FEW015CB BKN065 BKN100 OVC150 17/16 A2987 RMK AO2 TSB12 OCNL LTGICCGCA TS VC SW-NW MOV NE=
200804050012 SPECI KATL 050012Z 34009KT 10SM TS FEW015CB BKN065 BKN100 OVC150 17/16 A2987 RMK AO2 TSB12 OCNL LTGICCGCA TS VC SW-NW MOV NE=
200804042352 METAR KATL 042352Z 31009KT 10SM FEW006 SCT015 BKN070 OVC150 17/16 A2988 RMK AO2 TSE29RAE50 SLP118 TS MOV NE CB DSNT SE AND SW P0043 60056 T01720161 10217 20167 51008=
200804042329 SPECI KATL 042329Z 35005KT 10SM -RA FEW006 SCT015CB BKN045 OVC150 18/17 A2987 RMK AO2 TSE29 PRESFR TS MOV NE P0043=
200804042329 SPECI KATL 042329Z 35005KT 10SM -RA FEW006 SCT015CB BKN045 OVC150 18/17 A2987 RMK AO2 TSE29 PRESFR TS MOV NE P0043=
200804042319 SPECI KATL 042319Z 32006KT 4SM TSRA BR SCT015CB BKN028 OVC050 18/17 A2989 RMK AO2 FRQ LTGICCG TS NE-E TS MOV NE P0043=
200804042319 SPECI KATL 042319Z 32006KT 4SM TSRA BR SCT015CB BKN028 OVC050 18/17 A2989 RMK AO2 FRQ LTGICCG TS NE-E TS MOV NE P0043=
200804042310 SPECI KATL 042310Z 29010G19KT 1 3/4SM R09R/3500VP6000FT +TSRA BKN015CB BKN030 OVC050 19/17 A2991 RMK AO2 PRESRR FRQ LTGICCG TS OHD-ALQDS TS MOV NE P0009=
200804042310 SPECI KATL 042310Z 29010G19KT 1 3/4SM R09R/3500VP6000FT +TSRA BKN015CB BKN030 OVC050 19/17 A2991 RMK AO2 PRESRR FRQ LTGICCG TS OHD-ALQDS TS MOV NE P0009=
200804042303 SPECI KATL 042303Z 24009KT 7SM -TSRA BKN016CB BKN045 OVC100 19/17 A2989 RMK AO2 FRQ LTGICCG TS NE-SE AND SW-W TS MOV NE P0007 $=
200804042303 SPECI KATL 042303Z 24009KT 7SM -TSRA BKN016CB BKN045 OVC100 19/17 A2989 RMK AO2 FRQ LTGICCG TS NE-SE AND SW-W TS MOV NE P0007 $=
200804042257 SPECI KATL 042257Z 19009KT 2SM +TSRA BR BKN020CB BKN045 OVC100 19/18 A2989 RMK AO2 PRESRR FRQ LTGICCG TS OHD-ALQDS TS MOV NE P0004 $=
200804042257 SPECI KATL 042257Z 19009KT 2SM +TSRA BR BKN020CB BKN045 OVC100 19/18 A2989 RMK AO2 PRESRR FRQ LTGICCG TS OHD-ALQDS TS MOV NE P0004 $=
200804042252 METAR KATL 042252Z 28006KT 3SM -TSRA BR FEW020CB BKN045 BKN090 OVC200 19/18 A2988 RMK AO2 SFC VIS 6 TSE26B48RAE06B48 PRESRR SLP116 FRQ LTGICCG TS S-SW MOV NE P0000 T01940178=
200804042249 SPECI KATL 042249Z 29008KT 3SM -TSRA FEW020CB BKN050 BKN090 OVC200 19/18 A2987 RMK AO2 SFC VIS 7 TSE26B48RAE06B48 PRESRR FRQ LTGICCG TS S-SW MOV NE P0000=
200804042249 SPECI KATL 042249Z 29008KT 3SM -TSRA FEW020CB BKN050 BKN090 OVC200 19/18 A2987 RMK AO2 SFC VIS 7 TSE26B48RAE06B48 PRESRR FRQ LTGICCG TS S-SW MOV NE P0000=
200804042226 SPECI KATL 042226Z 00000KT 3SM FEW020TCU SCT090 BKN140 OVC200 19/18 A2985 RMK AO2 SFC VIS 7 TSE26RAE06 TS MOV NE TCU VC NE AND SE P0000=
200804042226 SPECI KATL 042226Z 00000KT 3SM FEW020TCU SCT090 BKN140 OVC200 19/18 A2985 RMK AO2 SFC VIS 7 TSE26RAE06 TS MOV NE TCU VC NE AND SE P0000=
200804042152 METAR KATL 042152Z 14007KT 3SM -TSRA BR FEW020CB BKN055 BKN100 OVC200 19/18 A2986 RMK AO2 SFC VIS 6 RAE19B39 SLP108 OCNL LTGICCG TS VC NE-SE AND DSNT SW-W MOV NE P0006 T01940178=
200804042102 SPECI KATL 042102Z 00000KT 3SM -TSRA BR FEW015CB BKN060 OVC110 19/18 A2986 RMK AO2 SFC VIS 6 FRQ LTGICCG TS N-SE MOV NE CB N-SE MOV NE P0006=
200804042102 SPECI KATL 042102Z 00000KT 3SM -TSRA BR FEW015CB BKN060 OVC110 19/18 A2986 RMK AO2 SFC VIS 6 FRQ LTGICCG TS N-SE MOV NE CB N-SE MOV NE P0006=
200804042057 SPECI KATL 042057Z 00000KT 2 1/2SM -TSRA BR FEW015CB BKN060 OVC110 19/18 A2985 RMK AO2 TWR VIS 3 FRQ LTGICCG TS SE-S NW-N MOV NE CB=
200804042057 SPECI KATL 042057Z 00000KT 2 1/2SM -TSRA BR FEW015CB BKN060 OVC110 19/18 A2985 RMK AO2 TWR VIS 3 FRQ LTGICCG TS SE-S NW-N MOV NE CB=
200804042052 METAR KATL 042052Z 06004KT 3SM TSRA FEW010CB BKN080 OVC110 19/18 A2984 RMK AO2 SFC VIS 7 TSB46RAB10 SLP104 FRQ LTGICCG TS VC S-NW MOV NE CB VC S-NW MOV NE P0004 60007 T01940178 56034=
200804042046 SPECI KATL 042046Z 06003KT 3SM TS FEW010CB SCT030TCU OVC110 19/17 A2985 RMK AO2 SFC VIS 8 TSB46RAB10E44 FRQ LTGICCG TS VC SW MOV NE CB VC NE-E VC SW MOV NE TCU NE-SE P0003=
200804042046 SPECI KATL 042046Z 06003KT 3SM TS FEW010CB SCT030TCU OVC110 19/17 A2985 RMK AO2 SFC VIS 8 TSB46RAB10E44 FRQ LTGICCG TS VC SW MOV NE CB VC NE-E VC SW MOV NE TCU NE-SE P0003=
200804042032 SPECI KATL 042032Z 10003KT 3SM R09R/5000VP6000FT -RA FEW025CB BKN070 OVC080 20/17 A2985 RMK AO2 SFC VIS 5 RAB10 LTG DSNT SW CB VC=
200804042032 SPECI KATL 042032Z 10003KT 3SM R09R/5000VP6000FT -RA FEW025CB BKN070 OVC080 20/17 A2985 RMK AO2 SFC VIS 5 RAB10 LTG DSNT SW CB VC=
200804042022 SPECI KATL 042022Z 08007KT 8SM -RA FEW045 BKN065 OVC080 20/17 A2984 RMK AO2 RAB10 LTG DSNT SW CB DSNT S SW NW MOV NE TCU DSNT NW P0000=
200804042022 SPECI KATL 042022Z 08007KT 8SM -RA FEW045 BKN065 OVC080 20/17 A2984 RMK AO2 RAB10 LTG DSNT SW CB DSNT S SW NW MOV NE TCU DSNT NW P0000=
200804041952 METAR KATL 041952Z 08008KT 8SM FEW060 BKN100 BKN150 BKN250 21/18 A2985 RMK AO2 RAB21E23 SLP107 CB DSNT NW MOV NE P0000 T02060178=
200804041852 METAR KATL 041852Z VRB03KT 5SM BR FEW009 SCT030CB SCT060 BKN150 BKN250 18/16 A2990 RMK AO2 RAB00E25 SLP124 CB VC N MOV NE SHRA VC N P0003 T01830161=
200804041831 SPECI KATL 041831Z 14008KT 5SM BR FEW005 SCT030CB BKN060 BKN150 18/16 A2992 RMK AO2 RAB00E25 CB VC W MOV NE SHRA VC W P0003=
200804041831 SPECI KATL 041831Z 14008KT 5SM BR FEW005 SCT030CB BKN060 BKN150 18/16 A2992 RMK AO2 RAB00E25 CB VC W MOV NE SHRA VC W P0003=
200804041825 SPECI KATL 041825Z 14006KT 5SM BR FEW005 SCT030 BKN090 BKN150 17/16 A2992 RMK AO2 RAB00E25 P0003=
200804041825 SPECI KATL 041825Z 14006KT 5SM BR FEW005 SCT030 BKN090 BKN150 17/16 A2992 RMK AO2 RAB00E25 P0003=
200804041800 SPECI KATL 041800Z 14008KT 5SM RA BR BKN040 BKN090 BKN150 17/14 A2994 RMK AO2 RAB00 P0000=
200804041800 SPECI KATL 041800Z 14008KT 5SM RA BR BKN040 BKN090 BKN150 17/14 A2994 RMK AO2 RAB00 P0000=
200804041752 METAR KATL 041752Z 13005KT 6SM BR FEW009 BKN055 BKN090 BKN150 17/14 A2994 RMK AO2 SLP139 60000 T01720144 10172 20083 58020=
200804041708 SPECI KATL 041708Z 13006KT 1 1/2SM BR BKN005 BKN030 OVC060 16/14 A2997 RMK AO2 SFC VIS 5=
200804041708 SPECI KATL 041708Z 13006KT 1 1/2SM BR BKN005 BKN030 OVC060 16/14 A2997 RMK AO2 SFC VIS 5=
200804041652 METAR KATL 041652Z 12004KT 1 1/2SM BR BKN003 OVC005 15/14 A2997 RMK AO2 SFC VIS 4 SLP150 BINOVC T01500139=
200804041635 SPECI KATL 041635Z 14005KT 1 1/2SM BR BCFG BKN003 OVC005 13/13 A2999 RMK AO2 SFC VIS 4=
200804041635 SPECI KATL 041635Z 14005KT 1 1/2SM BR BCFG BKN003 OVC005 13/13 A2999 RMK AO2 SFC VIS 4=
200804041552 METAR KATL 041552Z 12005KT 1/4SM R09R/4500VP6000FT BR BCFG BKN002 OVC005 12/12 A3000 RMK AO2 SFC VIS 2 1/2 DZE42 SLP158 VIS LWR BCFG TWRINC P0000 T01220117=
200804041520 SPECI KATL 041520Z 13005KT 1/4SM R09R/3500V5000FT -DZ BR OVC002 12/11 A3000 RMK AO2 SFC VIS 1 1/2 P0000=
200804041520 SPECI KATL 041520Z 13005KT 1/4SM R09R/3500V5000FT -DZ BR OVC002 12/11 A3000 RMK AO2 SFC VIS 1 1/2 P0000=
200804041452 METAR KATL 041452Z 13005KT 1/4SM R09R/1400V2400FT -DZ FG VV001 11/10 A3000 RMK AO2 SFC VIS 1/2 DZB46 SLP162 P0000 60000 T01060100 58012=
200804041352 METAR KATL 041352Z 14004KT 1/4SM R09R/1400V1600FT FG VV001 09/09 A3003 RMK AO2 SFC VIS 1/2 DZE44 SLP173 P0000 T00940094=
200804041302 SPECI KATL 041302Z 12006KT 1/4SM R09R/1600V2000FT -DZ FG VV001 09/08 A3003 RMK AO2 P0000=
200804041302 SPECI KATL 041302Z 12006KT 1/4SM R09R/1600V2000FT -DZ FG VV001 09/08 A3003 RMK AO2 P0000=
200804041252 METAR KATL 041252Z 11007KT 1/4SM R09R/1600V2400FT -DZ FG VV001 09/08 A3004 RMK AO2 SLP174 P0000 T00890083=
200804041231 SPECI KATL 041231Z 11007KT 1/4SM R09R/1800V3000FT -DZ FG VV001 09/08 A3004 RMK AO2 P0000=
200804041231 SPECI KATL 041231Z 11007KT 1/4SM R09R/1800V3000FT -DZ FG VV001 09/08 A3004 RMK AO2 P0000=
200804041223 SPECI KATL 041223Z 10005KT 1/4SM R09R/1800V2200FT -DZ FG VV001 09/08 A3004 RMK AO2 P0000=
200804041223 SPECI KATL 041223Z 10005KT 1/4SM R09R/1800V2200FT -DZ FG VV001 09/08 A3004 RMK AO2 P0000=
200804041152 METAR KATL 041152Z 12007KT 1/4SM R09R/3000V3500FT -DZ FG OVC001 08/08 A3004 RMK AO2 SFC VIS 1/2 SLP175 P0000 60000 T00830083 10083 20083 53003=
200804041052 METAR KATL 041052Z 11006KT 1/4SM R09R/3500V6000FT -DZ FG VV001 08/08 A3003 RMK AO2 SFC VIS 1/2 SLP171 P0000 T00830078=
200804040952 METAR KATL 040952Z 10007KT 1/4SM R09R/3500VP6000FT -DZ FG VV001 08/08 A3004 RMK AO2 SFC VIS 1/2 SLP174 P0000 T00830078=
200804040852 METAR KATL 040852Z 09007KT 1/4SM R09R/4000V5000FT -DZ FG OVC001 08/08 A3003 RMK AO2 SFC VIS 1/2 SLP171 P0000 60000 T00830078 56014=
200804040842 SPECI KATL 040842Z 10006KT 1/4SM R09R/4000V4500FT -DZ FG OVC001 08/08 A3003 RMK AO2 SFC VIS 1/2 P0000=
200804040842 SPECI KATL 040842Z 10006KT 1/4SM R09R/4000V4500FT -DZ FG OVC001 08/08 A3003 RMK AO2 SFC VIS 1/2 P0000=
200804040752 METAR KATL 040752Z 11006KT 1/4SM R09R/4500V5000FT -DZ BR OVC002 08/08 A3004 RMK AO2 SFC VIS 3/4 SLP175 P0000 T00830078=
200804040652 METAR KATL 040652Z 11005KT 1/4SM R09R/5000V5500FT -DZ BR OVC002 08/08 A3004 RMK AO2 SFC VIS 3/4 SLP173 P0000 T00830078=
200804040634 SPECI KATL 040634Z 11009KT 1/4SM R09R/5500V6000FT -DZ BR OVC002 08/08 A3004 RMK AO2 SFC VIS 3/4 PRESFR P0000=
200804040634 SPECI KATL 040634Z 11009KT 1/4SM R09R/5500V6000FT -DZ BR OVC002 08/08 A3004 RMK AO2 SFC VIS 3/4 PRESFR P0000=
200804040552 METAR KATL 040552Z 11008KT 1/2SM -DZ BR OVC002 08/08 A3007 RMK AO2 SFC VIS 2 SLP185 TWRINC P0000 60000 T00830078 10094 20078 56026=
200804040452 METAR KATL 040452Z COR 10009KT 1/2SM -DZ BR OVC002 08/07 A3009 RMK AO2 SFC VIS 1 1/2 SLP192 P0000 T00780072 401830078=
200804040352 METAR KATL 040352Z 10008KT 1/2SM R09R/5000VP6000FT -DZ BR OVC002 08/08 A3013 RMK AO2 SFC VIS 1 SLP205 P0000 T00830078=
200804040252 METAR KATL 040252Z 09011KT 1/2SM -DZ BR OVC002 08/08 A3015 RMK AO2 SFC VIS 1 1/2 SLP212 P0000 60000 T00830078 50004=
200804040249 SPECI KATL 040249Z 08010KT 1/2SM -DZ BR OVC002 08/08 A3016 RMK AO2 SFC VIS 1 1/2 P0000=
200804040249 SPECI KATL 040249Z 08010KT 1/2SM -DZ BR OVC002 08/08 A3016 RMK AO2 SFC VIS 1 1/2 P0000=
200804040152 METAR KATL 040152Z 08013KT 1SM -DZ BR OVC003 08/08 A3016 RMK AO2 SFC VIS 2 SLP214 P0000 T00830078=
200804040052 METAR KATL 040052Z 09012KT 1SM -DZ BR OVC004 09/08 A3014 RMK AO2 SFC VIS 2 1/2 SLP208 P0000 T00940083=
200804040006 SPECI KATL 040006Z 10010KT 1SM -DZ BR OVC004 09/08 A3014 RMK AO2 SFC VIS 1 3/4 CIG 003V006 P0000=
200804040006 SPECI KATL 040006Z 10010KT 1SM -DZ BR OVC004 09/08 A3014 RMK AO2 SFC VIS 1 3/4 CIG 003V006 P0000=
200804032352 METAR KATL 032352Z 09009KT 2SM -DZ BR OVC004 09/08 A3015 RMK AO2 SFC VIS 2 1/2 SLP209 P0000 60000 T00940083 10122 20094 51010=
200804032350 SPECI KATL 032350Z 09010KT 2SM -DZ BR OVC004 09/08 A3015 RMK AO2 SFC VIS 2 1/2 P0000=
200804032350 SPECI KATL 032350Z 09010KT 2SM -DZ BR OVC004 09/08 A3015 RMK AO2 SFC VIS 2 1/2 P0000=
200804032252 METAR KATL 032252Z 08014KT 2SM -DZ BR OVC005 10/09 A3014 RMK AO2 SFC VIS 5 SLP205 PCPN VRY LGT P0000 T01000089=
200804032152 METAR KATL 032152Z 09014KT 2SM -DZ BR OVC005 11/09 A3012 RMK AO2 SFC VIS 5 SLP197 PCPN VRY LGT P0000 T01060089=
200804032052 METAR KATL 032052Z 08015KT 2SM -DZ BR OVC006 11/09 A3013 RMK AO2 SFC VIS 4 SLP203 P0000 60000 T01060089 58022=
200804031952 METAR KATL 031952Z 09010KT 2SM -DZ BR OVC006 12/10 A3016 RMK AO2 SFC VIS 5 SLP211 P0000 T01170100=
200804031852 METAR KATL 031852Z 08015G19KT 2SM -DZ BR OVC006 12/11 A3017 RMK AO2 SFC VIS 5 DZB44 SLP216 P0000 T01220106=
200804031752 METAR KATL 031752Z 11012G17KT 2SM BR OVC006 12/11 A3020 RMK AO2 SFC VIS 6 DZE50 SLP224 P0000 60000 T01220106 10144 20122 58012=
200804031652 METAR KATL 031652Z 11010G19KT 2SM -DZ BR OVC006 13/11 A3021 RMK AO2 SFC VIS 4 RAE08DZB52 SLP227 P0000 T01280111=
200804031552 METAR KATL 031552Z 11010KT 2SM -RA BR OVC008 13/11 A3023 RMK AO2 SFC VIS 4 DZE36RAB43 CIG 006V010 SLP235 P0000 T01280111=
200804031452 METAR KATL 031452Z 10013KT 2SM -DZ BR OVC006 13/11 A3024 RMK AO2 SFC VIS 5 SLP236 P0000 60000 T01280111 51008=
200804031352 METAR KATL 031352Z 09013KT 2SM -DZ BR OVC006 13/12 A3023 RMK AO2 SFC VIS 4 CIG 004V008 SLP234 P0000 T01330122=
200804031301 SPECI KATL 031301Z 10014G19KT 2SM -DZ OVC006 14/13 A3023 RMK AO2 SFC VIS 7 CIG 003V009 P0000=
200804031301 SPECI KATL 031301Z 10014G19KT 2SM -DZ OVC006 14/13 A3023 RMK AO2 SFC VIS 7 CIG 003V009 P0000=
200804031252 METAR KATL 031252Z 10013G17KT 2SM -DZ BR BKN004 OVC008 14/13 A3023 RMK AO2 SFC VIS 5 SLP232 P0000 T01390128=
200804031222 SPECI KATL 031222Z 09014KT 1SM -DZ BR OVC004 14/13 A3021 RMK AO2 SFC VIS 1 3/4 P0000=
200804031222 SPECI KATL 031222Z 09014KT 1SM -DZ BR OVC004 14/13 A3021 RMK AO2 SFC VIS 1 3/4 P0000=
200804031152 METAR KATL 031152Z COR 07013KT 1SM R09R/6000VP6000FT -DZ BR OVC005 14/13 A3021 RMK AO2 SFC VIS 2 SLP225 P0000 60000 T01390133 10183 20139 53009=
200804031139 SPECI KATL 031139Z 07012KT 1SM -DZ BR OVC006 14/13 A3021 RMK AO2 SFC VIS 3 CIG 004V009 P0000=
200804031139 SPECI KATL 031139Z 07012KT 1SM -DZ BR OVC006 14/13 A3021 RMK AO2 SFC VIS 3 CIG 004V009 P0000=
200804031114 SPECI KATL 031114Z 08011KT 2SM -DZ BR OVC008 14/13 A3020 RMK AO2 SFC VIS 4 P0000=
200804031114 SPECI KATL 031114Z 08011KT 2SM -DZ BR OVC008 14/13 A3020 RMK AO2 SFC VIS 4 P0000=
200804031052 METAR KATL 031052Z 09013KT 7SM -DZ OVC012 15/12 A3019 RMK AO2 DZB42 SLP219 P0000 T01500122=
200804030952 METAR KATL 030952Z 07012KT 10SM OVC012 16/10 A3019 RMK AO2 SLP216 T01610100=
200804030908 SPECI KATL 030908Z 07011KT 10SM OVC014 17/11 A3018 RMK AO2=
200804030908 SPECI KATL 030908Z 07011KT 10SM OVC014 17/11 A3018 RMK AO2=
200804030852 METAR KATL 030852Z 08015KT 10SM OVC016 17/11 A3018 RMK AO2 SLP215 T01670106 58003=
200804030759 SPECI KATL 030759Z 08012KT 10SM OVC016 18/13 A3019 RMK AO2=
200804030759 SPECI KATL 030759Z 08012KT 10SM OVC016 18/13 A3019 RMK AO2=
200804030752 METAR KATL 030752Z 09011G17KT 10SM OVC014 18/13 A3019 RMK AO2 SLP216 T01780133=
200804030713 SPECI KATL 030713Z 08011KT 10SM BKN014 OVC060 18/13 A3019 RMK AO2=
200804030713 SPECI KATL 030713Z 08011KT 10SM BKN014 OVC060 18/13 A3019 RMK AO2=
200804030652 METAR KATL 030652Z 08011KT 10SM BKN055 BKN150 BKN250 18/12 A3019 RMK AO2 SLP217 T01780122=
200804030552 METAR KATL 030552Z 06008KT 10SM FEW065 BKN150 BKN250 18/10 A3019 RMK AO2 SLP218 T01780100 10222 20178 58005=
200804030452 METAR KATL 030452Z 03005KT 10SM FEW060 SCT150 BKN250 18/10 A3020 RMK AO2 SLP221 T01830100 402500133=
200804030352 METAR KATL 030352Z 01006KT 10SM FEW150 BKN200 19/09 A3021 RMK AO2 SLP224 T01890094=
200804030252 METAR KATL 030252Z 02007KT 10SM SCT150 BKN250 19/09 A3021 RMK AO2 SLP225 T01890089 51017=
200804030152 METAR KATL 030152Z 35008KT 10SM BKN250 20/09 A3020 RMK AO2 SLP222 T02000094=
200804030052 METAR KATL 030052Z 34006KT 10SM FEW200 BKN250 21/11 A3017 RMK AO2 SLP214 T02110106=
200804022352 METAR KATL 022352Z 33005KT 10SM FEW150 SCT200 BKN250 22/11 A3016 RMK AO2 SLP208 T02220111 10250 20222 53001=
200804022252 METAR KATL 022252Z 35006KT 10SM SCT200 BKN250 24/12 A3015 RMK AO2 SLP204 T02390117=
200804022152 METAR KATL 022152Z 00000KT 10SM SCT200 BKN250 24/11 A3014 RMK AO2 SLP201 T02440111=
200804022052 METAR KATL 022052Z 31006KT 10SM FEW075 BKN240 BKN280 24/12 A3015 RMK AO2 SLP205 T02440122 58020=
200804021952 METAR KATL 021952Z 35004KT 10SM FEW045 SCT075 BKN240 OVC280 24/12 A3018 RMK AO2 SLP212 T02440122=
200804021852 METAR KATL 021852Z 30010KT 10SM FEW080 BKN240 BKN280 24/13 A3020 RMK AO2 SLP220 T02390128=
200804021752 METAR KATL 021752Z 31007KT 10SM FEW070 SCT120 BKN240 OVC280 23/13 A3021 RMK AO2 SLP226 T02280128 10228 20133 58007=
200804021652 METAR KATL 021652Z 32007KT 10SM BKN070 BKN120 BKN280 22/12 A3023 RMK AO2 SLP233 T02170117=
200804021552 METAR KATL 021552Z 34006KT 10SM FEW120 SCT240 BKN280 21/12 A3024 RMK AO2 SLP236 T02110122=
200804021452 METAR KATL 021452Z 34008KT 10SM FEW120 SCT240 BKN280 18/12 A3024 RMK AO2 SLP234 T01830122 53017=
200804021352 METAR KATL 021352Z 32007KT 8SM FEW120 SCT240 BKN280 16/12 A3022 RMK AO2 SLP230 T01560117=
200804021252 METAR KATL 021252Z 34005KT 10SM FEW250 14/12 A3020 RMK AO2 SLP222 T01440122=
200804021152 METAR KATL 021152Z 34005KT 7SM FEW006 SCT120 SCT250 13/12 A3019 RMK AO2 SLP218 70001 T01330122 10172 20133 51007=
200804021134 SPECI KATL 021134Z 33005KT 7SM SCT006 SCT120 BKN250 13/12 A3019 RMK AO2=
200804021134 SPECI KATL 021134Z 33005KT 7SM SCT006 SCT120 BKN250 13/12 A3019 RMK AO2=
200804021052 METAR KATL 021052Z 33005KT 8SM BKN006 BKN120 BKN250 14/12 A3018 RMK AO2 SLP216 T01390122=
200804021016 SPECI KATL 021016Z 32009KT 8SM BKN006 BKN070 14/13 A3018 RMK AO2=
200804021016 SPECI KATL 021016Z 32009KT 8SM BKN006 BKN070 14/13 A3018 RMK AO2=
200804021012 SPECI KATL 021012Z 32008KT 10SM FEW006 SCT070 14/13 A3018 RMK AO2=
200804021012 SPECI KATL 021012Z 32008KT 10SM FEW006 SCT070 14/13 A3018 RMK AO2=
200804020952 METAR KATL 020952Z 32009KT 10SM FEW070 14/13 A3017 RMK AO2 SLP213 T01390128=
200804020852 METAR KATL 020852Z 31006KT 10SM FEW070 14/13 A3017 RMK AO2 SLP210 T01440128 55007=
200804020752 METAR KATL 020752Z 32007KT 10SM FEW026 SCT070 SCT150 16/13 A3016 RMK AO2 SLP208 T01560128=
200804020652 METAR KATL 020652Z 33008KT 10SM FEW028 BKN070 BKN150 17/13 A3017 RMK AO2 SLP209 T01670133=
200804020552 METAR KATL 020552Z 29007KT 10SM FEW028 BKN065 BKN150 17/14 A3019 RMK AO2 SLP217 T01670144 10217 20167 51009=
200804020452 METAR KATL 020452Z 28005KT 10SM FEW028 BKN060 17/14 A3018 RMK AO2 SLP216 T01720144 402390128=
200804020352 METAR KATL 020352Z 25005KT 10SM FEW035 SCT250 18/14 A3016 RMK AO2 SLP211 T01780144=
200804020252 METAR KATL 020252Z 25005KT 10SM SCT250 18/14 A3016 RMK AO2 SLP208 T01830144 53015=
200804020152 METAR KATL 020152Z 24005KT 10SM BKN250 19/14 A3014 RMK AO2 SLP202 T01940139=
200804020052 METAR KATL 020052Z 24005KT 10SM FEW040 SCT250 20/14 A3012 RMK AO2 SLP197 T02000139=
200804012352 METAR KATL 012352Z 25006KT 10SM FEW040 SCT250 22/14 A3011 RMK AO2 SLP192 T02170139 10239 20211 53004=
200804012252 METAR KATL 012252Z 27008KT 10SM FEW045 SCT200 BKN250 23/13 A3010 RMK AO2 SLP189 T02330133=
200804012152 METAR KATL 012152Z 28011KT 10SM SCT042 BKN200 BKN250 23/14 A3010 RMK AO2 SLP188 T02330144=
200804012052 METAR KATL 012052Z 24011KT 10SM FEW049 BKN200 BKN250 23/14 A3010 RMK AO2 SLP187 T02280139 57012=
200804011952 METAR KATL 011952Z 26010KT 9SM SCT040 BKN200 BKN250 23/14 A3011 RMK AO2 SLP193 T02280144=
200804011901 SPECI KATL 011901Z 26014G17KT 10SM SCT029 BKN200 BKN250 23/15 A3012 RMK AO2=
200804011901 SPECI KATL 011901Z 26014G17KT 10SM SCT029 BKN200 BKN250 23/15 A3012 RMK AO2=
200804011852 METAR KATL 011852Z 23008G15KT 10SM BKN029 BKN200 BKN250 23/16 A3012 RMK AO2 SLP196 T02280156=
200804011841 SPECI KATL 011841Z 25006KT 10SM BKN029 BKN150 BKN200 23/16 A3013 RMK AO2=
200804011841 SPECI KATL 011841Z 25006KT 10SM BKN029 BKN150 BKN200 23/16 A3013 RMK AO2=
200804011752 METAR KATL 011752Z 24010KT 10SM FEW020 SCT100 BKN150 BKN200 21/16 A3013 RMK AO2 RAB35E48 SLP201 P0000 60001 T02060156 10206 20139 55006=
200804011652 METAR KATL 011652Z 21010KT 9SM FEW015 SCT080 BKN150 BKN180 19/16 A3013 RMK AO2 RAB34E45 SLP201 P0000 T01890156=
200804011626 SPECI KATL 011626Z 20012KT 8SM FEW015 SCT080 BKN150 OVC180 18/15 A3014 RMK AO2=
200804011626 SPECI KATL 011626Z 20012KT 8SM FEW015 SCT080 BKN150 OVC180 18/15 A3014 RMK AO2=
200804011552 METAR KATL 011552Z 20012KT 3SM BR FEW008 SCT010 OVC150 17/15 A3015 RMK AO2 SFC VIS 6 SLP209 T01720150=
200804011529 SPECI KATL 011529Z 21009KT 3SM BR BKN006 OVC009 17/15 A3016 RMK AO2 SFC VIS 6 CIG 003V008=
200804011529 SPECI KATL 011529Z 21009KT 3SM BR BKN006 OVC009 17/15 A3016 RMK AO2 SFC VIS 6 CIG 003V008=
200804011525 SPECI KATL 011525Z 21007KT 3SM BR BKN004 OVC008 17/15 A3016 RMK AO2 SFC VIS 5 CIG 003V007=
200804011525 SPECI KATL 011525Z 21007KT 3SM BR BKN004 OVC008 17/15 A3016 RMK AO2 SFC VIS 5 CIG 003V007=
200804011452 METAR KATL 011452Z 18009KT 1/4SM BR OVC002 16/14 A3015 RMK AO2 SFC VIS 3 SLP209 60001 T01560144 58014=
200804011352 METAR KATL 011352Z 17006KT 1/4SM BR BKN004 OVC008 14/13 A3017 RMK AO2 SFC VIS 3 SLP215 TWRINC T01440133=
200804011252 METAR KATL 011252Z 16003KT 1/4SM BR BKN004 OVC010 14/13 A3020 RMK AO2 SFC VIS 3 RAE17DZB21E31 SLP225 TWRINC P0001 T01390133=
200804011204 SPECI KATL 011204Z 31005KT 1/4SM R09R/6000VP6000FT RA BR BKN002 OVC007 14/13 A3021 RMK AO2 SFC VIS 2 TWRINC P0000=
200804011204 SPECI KATL 011204Z 31005KT 1/4SM R09R/6000VP6000FT RA BR BKN002 OVC007 14/13 A3021 RMK AO2 SFC VIS 2 TWRINC P0000=
