##########################################################
# Query made at 04/19/2024 23:04:58 UTC
# Time interval: from 02/01/2008 12:00  to 02/29/2008 12:59  UTC
##########################################################

##########################################################
# KATL, Atlanta, Hartsfield - Jackson Atlanta International Airport (United States)
# WMO index: 72219. WIGOS ID: 0-20000-0-72219
# Latitude 33-38-59N. Longitude 084-25-00W. Altitude 312 m.
##########################################################

200802291252 METAR KATL 291252Z 00000KT 10SM FEW200 02/M03 A3040 RMK AO2 SLP302 T00221033=
200802291152 METAR KATL 291152Z 00000KT 10SM FEW150 SCT200 02/M04 A3040 RMK AO2 SLP301 T00221039 10044 20022 52010=
200802291052 METAR KATL 291052Z 18004KT 10SM FEW150 SCT200 03/M04 A3039 RMK AO2 SLP296 T00281039=
200802290952 METAR KATL 290952Z 22003KT 10SM SCT150 BKN200 03/M04 A3038 RMK AO2 SLP294 T00331039=
200802290852 METAR KATL 290852Z 19003KT 10SM FEW085 SCT200 BKN250 03/M03 A3037 RMK AO2 SLP290 T00331033 53006=
200802290752 METAR KATL 290752Z 15003KT 10SM SCT085 OVC200 04/M04 A3034 RMK AO2 SLP280 T00391039=
200802290652 METAR KATL 290652Z 00000KT 10SM FEW120 BKN200 04/M04 A3034 RMK AO2 SLP281 T00391039=
200802290552 METAR KATL 290552Z 00000KT 10SM BKN200 04/M04 A3035 RMK AO2 SLP284 T00391044 10072 20039 53008=
200802290452 METAR KATL 290452Z 22003KT 10SM BKN250 04/M04 A3034 RMK AO2 SLP282 T00391044 400891050=
200802290352 METAR KATL 290352Z 20004KT 10SM BKN250 04/M04 A3033 RMK AO2 SLP279 T00441039=
200802290252 METAR KATL 290252Z 00000KT 10SM OVC200 06/M04 A3033 RMK AO2 SLP277 T00561044 53012=
200802290152 METAR KATL 290152Z 21003KT 10SM BKN250 05/M04 A3031 RMK AO2 SLP274 T00501039=
200802290052 METAR KATL 290052Z 18004KT 10SM SCT250 06/M04 A3029 RMK AO2 SLP267 T00611039=
200802282352 METAR KATL 282352Z 20004KT 10SM FEW250 07/M04 A3029 RMK AO2 SLP265 T00721039 10089 20050 53003=
200802282252 METAR KATL 282252Z 25003KT 10SM FEW100 SCT250 08/M07 A3028 RMK AO2 SLP261 T00831072=
200802282152 METAR KATL 282152Z 19003KT 10SM FEW250 08/M08 A3026 RMK AO2 SLP255 T00831078=
200802282052 METAR KATL 282052Z COR 28009KT 10SM FEW200 SCT250 09/M07 A3028 RMK AO2 SLP261 T00891067 56012=
200802281952 METAR KATL 281952Z 28007KT 10SM FEW200 SCT250 SCT300 08/M07 A3028 RMK AO2 SLP263 T00781067=
200802281852 METAR KATL 281852Z VRB03KT 10SM FEW200 SCT250 BKN300 06/M09 A3030 RMK AO2 SLP268 T00561089=
200802281752 METAR KATL 281752Z VRB03G15KT 10SM FEW250 05/M08 A3031 RMK AO2 SLP274 T00501078 10050 21050 $=
200802281652 METAR KATL 281652Z 29008KT 10SM FEW150 SCT250 03/M08 A3034 RMK AO2 SLP284 T00331078 $=
200802281452 METAR KATL 281452Z 30009KT 10SM FEW250 00/M08 A3034 RMK A02 SLP285 T00001083 51035=
200802281352 METAR KATL 281352Z COR 29008KT 10SM FEW250 M02/M08 A3032 RMK AO2 SLP279 T10221083=
200802281252 METAR KATL 281252Z 29003KT 10SM FEW250 M04/M08 A3026 RMK AO2 SLP260 T10391083=
200802281152 METAR KATL 281152Z 30006KT 10SM SKC M05/M09 A3024 A02 SLP252 T10501089 11028 21050 53016=
200802281052 METAR KATL 281052Z COR 28005KT 10SM CLR M04/M09 A3022 RMK AO2 SLP246 T10441094=
200802280952 METAR KATL 280952Z COR 26005KT 10SM CLR M04/M09 A3020 RMK AO2 SLP239 T10441094=
200802280852 METAR KATL 280852Z 31007KT 10SM CLR M04/M09 A3019 A02 234 T10391094 51003=
200802280752 METAR KATL 280752Z 29006KT 10SM CLR M03/M09 A3019 RMK AO2 SLP232 T10331094=
200802280652 METAR KATL 280652Z 28006KT 10SM CLR M03/M09 A3019 RMK AO2 SLP233 T10331094=
200802280552 METAR KATL 280552Z 32009KT 10SM CLR M03/M09 A3018 RMK AO2 SLP231 T10281094 11006 21028 50007=
200802280452 METAR KATL 280452Z 29008KT 10SM CLR M03/M09 A3018 RMK AO2 SLP232 T10281089 400331028=
200802280352 METAR KATL 280352Z COR 28008KT 10SM CLR M02/M08 A3017 RMK AO2 SLP228 T10221083=
200802280252 METAR KATL 280252Z 29007KT 10SM CLR M02/M09 A3016 RMK AO2 SLP224 T10221089 53018=
200802280152 METAR KATL 280152Z 31009KT 10SM FEW045 M02/M09 A3014 RMK AO2 SLP216 T10171094=
200802280052 METAR KATL 280052Z 31011KT 10SM FEW045 M01/M10 A3012 RMK AO2 SLP212 T10111100=
200802272352 METAR KATL 272352Z 31012G20KT 10SM FEW045 M01/M11 A3011 RMK AO2 SLP205 T10061106 10028 21006 53020=
200802272252 METAR KATL 272252Z COR 32011G22KT 10SM SCT045 01/M10 A3008 RMK AO2 PK WND 32026/2222 SLP196 T00061100=
200802272152 METAR KATL 272152Z 30020G28KT 10SM SCT050 01/M11 A3006 RMK AO2 PK WND 30028/2151 SLP189 T00111106=
200802271952 METAR KATL 271952Z 33018G22KT 10SM FEW055 02/M10 A3003 RMK AO2 PK WND 30027/1939 SLP178 T00221100=
200802271852 METAR KATL 271852Z 31014G21KT 10SM FEW050 01/M09 A3003 RMK AO2 PK WND 32028/1757 SLP179 T00111094=
200802271752 METAR KATL 271752Z 31012G19KT 10SM FEW047 02/M08 A3005 RMK AO2 PK WND 28027/1715 SLP183 60000 T00171083 10017 21022 50005=
200802271652 METAR KATL 271652Z 31016G23KT 10SM SCT042 01/M09 A3005 RMK AO2 PK WND 30027/1633 SLP184 T00061089=
200802271552 METAR KATL 271552Z COR 34018G26KT 10SM BKN038 M01/M10 A3004 RMK AO2 PK WND 31028/1537 SNB07E20 SLP182 SHSN DSNT NE P0000 T10061100=
200802271521 SPECI KATL 271521Z 32018G23KT 10SM BKN036 M01/M09 A3004 RMK AO2 SNB07E20 SHSN DSNT NE P0000=
200802271521 SPECI KATL 271521Z 32018G23KT 10SM BKN036 M01/M09 A3004 RMK AO2 SNB07E20 SHSN DSNT NE P0000=
200802271452 METAR KATL 271452Z 32013G23KT 10SM BKN036 M01/M09 A3003 RMK AO2 PK WND 31027/1354 SNB30E40 SLP179 SHSN DSNT NW P0000 60000 T10111089 51024=
200802271352 METAR KATL 271352Z 31013G29KT 10SM BKN036 M02/M09 A3001 RMK AO2 PK WND 30029/1347 SLP172 T10171094=
200802271252 METAR KATL 271252Z 30017G25KT 10SM FEW025 SCT037 M02/M09 A2999 RMK AO2 PK WND 32029/1157 SLP164 T10221089=
200802271152 METAR KATL 271152Z 32016G26KT 10SM FEW025 BKN035 M02/M08 A2996 RMK AO2 PK WND 29029/1115 SLP153 60000 70030 T10171083 10028 21017 53020=
200802271052 METAR KATL 271052Z 30015G28KT 10SM BKN030 OVC035 M01/M07 A2994 RMK AO2 PK WND 29028/1048 SLP145 T10061067=
200802270952 METAR KATL 270952Z 30016G22KT 10SM SCT029 BKN034 00/M06 A2992 RMK AO2 PK WND 29027/0853 SLP137 T00001056=
200802270900 SPECI KATL 270900Z 30012G27KT 10SM SCT024 OVC036 01/M04 A2990 RMK AO2 PK WND 29027/0853=
200802270900 SPECI KATL 270900Z 30012G27KT 10SM SCT024 OVC036 01/M04 A2990 RMK AO2 PK WND 29027/0853=
200802270752 METAR KATL 270752Z 31019G25KT 9SM -SN BKN024 BKN029 OVC040 01/M03 A2988 RMK AO2 PK WND 30029/0709 SLP123 PCPN VRY LGT P0000 T00111028=
200802270552 METAR KATL 270552Z 30014G24KT 10SM -SN BKN025 BKN045 OVC060 03/M02 A2986 RMK AO2 PK WND 31028/0458 RAB29E49SNB29 SLP112 931000 PCPN VRY LGT P0000 60000 T00281022 10056 20028 58001=
200802270452 METAR KATL 270452Z 29010G19KT 10SM BKN028 OVC040 03/M02 A2986 RMK AO2 SLP111 T00331017 401610033=
200802270446 SPECI KATL 270446Z 30009G19KT 10SM SCT027 BKN034 OVC041 03/M02 A2986 RMK AO2 401610033=
200802270446 SPECI KATL 270446Z 30009G19KT 10SM SCT027 BKN034 OVC041 03/M02 A2986 RMK AO2 401610033=
200802270352 METAR KATL 270352Z 30012G19KT 10SM BKN030 OVC040 03/M02 A2987 AO2 RAB25RAE50 SNB25SNE50 SLP115 P0000 T00331022=
200802270252 METAR KATL 270252Z 31014G20KT 10SM SCT028 OVC036 04/M02 A2986 RMK AO2 PK WND 30029/0217 SLP114 T00391022 51019=
200802270239 SPECI KATL 270239Z 31017G25KT 10SM SCT028 OVC036 04/M02 A2986 RMK AO2 PK WND 30029/0217=
200802270239 SPECI KATL 270239Z 31017G25KT 10SM SCT028 OVC036 04/M02 A2986 RMK AO2 PK WND 30029/0217=
200802270152 METAR KATL 270152Z 31017G27KT 10SM BKN028 OVC035 04/M02 A2985 RMK AO2 PK WND 31029/0140 SLP112 T00391017=
200802270140 SPECI KATL 270140Z 31018G29KT 10SM BKN027 OVC035 04/M01 A2985 RMK AO2 PK WND 31029/0140=
200802270140 SPECI KATL 270140Z 31018G29KT 10SM BKN027 OVC035 04/M01 A2985 RMK AO2 PK WND 31029/0140=
200802270052 METAR KATL 270052Z 32019G26KT 10SM BKN030 OVC036 05/M01 A2983 RMK AO2 PK WND 31029/0042 SLP103 T00501011=
200802262352 METAR KATL 262352Z 31018G30KT 10SM OVC030 06/M01 A2980 RMK AO2 PK WND 31030/2350 SLP095 T00561006 10161 20056 53037=
200802262252 METAR KATL 262252Z 29011G24KT 10SM BKN024 OVC030 07/02 A2976 RMK AO2 PK WND 31029/2155 SLP079 T00670017=
200802262225 SPECI KATL 262225Z 31017G24KT 10SM BKN025 OVC040 07/02 A2975 RMK AO2 PK WND 31029/2155=
200802262225 SPECI KATL 262225Z 31017G24KT 10SM BKN025 OVC040 07/02 A2975 RMK AO2 PK WND 31029/2155=
200802262152 METAR KATL 262152Z 31022G31KT 10SM BKN030 OVC040 08/03 A2972 RMK AO2 PK WND 32031/2146 SLP065 T00830028=
200802262101 SPECI KATL 262101Z 30023G31KT 10SM BKN028 BKN036 OVC250 10/04 A2970 RMK AO2 PK WND 29031/2100 BINOVC=
200802262101 SPECI KATL 262101Z 30023G31KT 10SM BKN028 BKN036 OVC250 10/04 A2970 RMK AO2 PK WND 29031/2100 BINOVC=
200802262021 SPECI KATL 262021Z 27017G25KT 10SM SCT024 BKN030 BKN040 BKN250 11/06 A2967 RMK AO2 PK WND 30028/2007=
200802262021 SPECI KATL 262021Z 27017G25KT 10SM SCT024 BKN030 BKN040 BKN250 11/06 A2967 RMK AO2 PK WND 30028/2007=
200802261952 METAR KATL 261952Z 30019G24KT 10SM BKN020 BKN030 OVC040 12/07 A2963 RMK AO2 PK WND 31036/1855 WSHFT 1850 PRESFR SLP031 FROPA BINOVC T01170072=
200802261923 SPECI KATL 261923Z 31024G34KT 9SM BKN020 OVC031 12/07 A2964 RMK AO2 PK WND 31036/1855 WSHFT 1850 FROPA=
200802261923 SPECI KATL 261923Z 31024G34KT 9SM BKN020 OVC031 12/07 A2964 RMK AO2 PK WND 31036/1855 WSHFT 1850 FROPA=
200802261905 SPECI KATL 261905Z 30021G35KT 10SM FEW024 BKN030 BKN040 OVC150 13/08 A2964 RMK AO2 PK WND 31036/1855 WSHFT 1850 FROPA=
200802261905 SPECI KATL 261905Z 30021G35KT 10SM FEW024 BKN030 BKN040 OVC150 13/08 A2964 RMK AO2 PK WND 31036/1855 WSHFT 1850 FROPA=
200802261852 METAR KATL 261852Z 28016G25KT 260V330 10SM FEW030 BKN060 BKN150 OVC250 16/09 A2962 RMK AO2 PK WND 27026/1802 SLP027 SHRA DSNT NE T01560094=
200802261752 METAR KATL 261752Z COR 28015G20KT 10SM FEW016 SCT024 BKN030 OVC150 16/10 A2965 RMK AO2 SLP037 60030 T01560100 10156 20106 55004=
200802261713 SPECI KATL 261713Z 26013KT 10SM SCT014 BKN024 BKN050 16/12 A2964 RMK AO2=
200802261713 SPECI KATL 261713Z 26013KT 10SM SCT014 BKN024 BKN050 16/12 A2964 RMK AO2=
200802261652 METAR KATL 261652Z 27010G17KT 9SM BKN014 BKN020 BKN080 15/12 A2964 RMK AO2 SLP036 T01500122=
200802261614 SPECI KATL 261614Z 25009KT 8SM BKN010 BKN020 OVC040 14/12 A2966 RMK AO2=
200802261614 SPECI KATL 261614Z 25009KT 8SM BKN010 BKN020 OVC040 14/12 A2966 RMK AO2=
200802261552 METAR KATL 261552Z COR 24008KT 10SM FEW007 BKN030 OVC050 13/12 A2966 RMK AO2 RAE18 SLP042 P0001 T01330122=
200802261546 SPECI KATL 261546Z 22009KT 10SM FEW007 BKN030 OVC050 13/12 A2966 RMK AO2 RAE18 P0001=
200802261546 SPECI KATL 261546Z 22009KT 10SM FEW007 BKN030 OVC050 13/12 A2966 RMK AO2 RAE18 P0001=
200802261529 SPECI KATL 261529Z 22007KT 10SM FEW021 SCT026 OVC031 13/12 A2966 RMK AO2 RAE18 P0001=
200802261529 SPECI KATL 261529Z 22007KT 10SM FEW021 SCT026 OVC031 13/12 A2966 RMK AO2 RAE18 P0001=
200802261452 METAR KATL 261452Z COR 24005KT 6SM -RA BR FEW003 SCT007 OVC025 12/12 A2966 RMK AO2 TSB1358E27RAE35B51 SLP044 TS MOV E P0006 60029 T01220117 53005=
200802261443 SPECI KATL 261443Z 21008KT 6SM BR BKN003 OVC027 12/12 A2966 RMK AO2 TSB1358E27RAE35 LTG DSNT E TS MOV E TWRINC P0006=
200802261443 SPECI KATL 261443Z 21008KT 6SM BR BKN003 OVC027 12/12 A2966 RMK AO2 TSB1358E27RAE35 LTG DSNT E TS MOV E TWRINC P0006=
200802261430 SPECI KATL 261430Z COR 21008KT 1 1/2SM -RA BR BKN003 OVC045 12/11 A2965 RMK AO2 SFC VIS 5 TSB1358E27 LTG DSNT E TS MOV E TWRINC P0006=
200802261430 SPECI KATL 261430Z COR 21008KT 1 1/2SM -RA BR BKN003 OVC045 12/11 A2965 RMK AO2 SFC VIS 5 TSB1358E27 LTG DSNT E TS MOV E TWRINC P0006=
200802261358 SPECI KATL 261358Z 17012KT 6SM TSRA BR BKN031CB OVC085 11/11 A2964 RMK AO2 TSB58 OCLN LTGICG TS N AND W MOV E P0001=
200802261358 SPECI KATL 261358Z 17012KT 6SM TSRA BR BKN031CB OVC085 11/11 A2964 RMK AO2 TSB58 OCLN LTGICG TS N AND W MOV E P0001=
200802261352 METAR KATL 261352Z 17009KT 6SM RA BR BKN029 OVC085 11/11 A2965 RMK AO2 SLP038 P0017 T01110106=
200802261335 SPECI KATL 261335Z 18007KT 4SM RA BR BKN027 OVC075 11/11 A2965 RMK AO2 P0012=
200802261335 SPECI KATL 261335Z 18007KT 4SM RA BR BKN027 OVC075 11/11 A2965 RMK AO2 P0012=
200802261252 METAR KATL 261252Z COR 19004KT 6SM RA BR SCT037 BKN060 OVC080 11/09 A2965 RMK AO2 WSHFT 1139 TSE18 SLP037 TS MOV E P0006 T01060094=
200802261159 SPECI KATL 261159Z 33014G28KT 8SM -TSRA BKN008CB BKN019 OVC065 12/09 A2967 RMK AO2 WSHFT 1139 P0001=
200802261159 SPECI KATL 261159Z 33014G28KT 8SM -TSRA BKN008CB BKN019 OVC065 12/09 A2967 RMK AO2 WSHFT 1139 P0001=
200802261149 SPECI KATL 261149Z 32021G45KT 6SM R09R/3000VP6000FT +TSRA OVC008CB 12/12 A2968 RMK AO2 PK WND 31045/1143 WSHFT 1135 TSB36RAB33 PRESRR FRQ LTGICCG TS N AND W MOV E P0007=
200802261149 SPECI KATL 261149Z 32021G45KT 6SM R09R/3000VP6000FT +TSRA OVC008CB 12/12 A2968 RMK AO2 PK WND 31045/1143 WSHFT 1135 TSB36RAB33 PRESRR FRQ LTGICCG TS N AND W MOV E P0007=
200802261120 SPECI KATL 261120Z 17016G21KT 6SM BR OVC008 15/13 A2956 RMK AO2 PRESFR LTG DSNT N AND W=
200802261120 SPECI KATL 261120Z 17016G21KT 6SM BR OVC008 15/13 A2956 RMK AO2 PRESFR LTG DSNT N AND W=
200802261052 METAR KATL 261052Z 18010KT 6SM BR BKN010 OVC016 14/13 A2962 RMK AO2 RAB11E38 CIG 007V013 SLP027 P0000 T01440128=
200802261040 SPECI KATL 261040Z 18008KT 7SM BKN010 OVC013 14/13 A2962 RMK AO2 RAB11E38 CIG 007V012 PRESFR P0000=
200802261040 SPECI KATL 261040Z 18008KT 7SM BKN010 OVC013 14/13 A2962 RMK AO2 RAB11E38 CIG 007V012 PRESFR P0000=
200802260952 METAR KATL 260952Z 19008KT 6SM BR OVC009 13/12 A2967 RMK AO2 SLP045 T01330117=
200802260852 METAR KATL 260852Z 18006KT 6SM BR OVC011 13/11 A2972 RMK AO2 SLP060 T01280106 58028=
200802260752 METAR KATL 260752Z COR 19007KT 7SM BKN013 OVC026 13/10 A2976 RMK AO2 SLP076 T01330100=
200802260706 SPECI KATL 260706Z 22010KT 10SM BKN013 BKN026 13/09 A2978 RMK AO2=
200802260706 SPECI KATL 260706Z 22010KT 10SM BKN013 BKN026 13/09 A2978 RMK AO2=
200802260652 METAR KATL 260652Z 21008KT 10SM SCT026 BKN150 13/09 A2978 RMK AO2 SLP081 T01280089=
200802260552 METAR KATL 260552Z COR 21009KT 10SM BKN034 OVC150 13/08 A2980 RMK AO2 SLP090 T01280078 10156 20117 56017=
200802260452 METAR KATL 260452Z 18006KT 10SM BKN150 BKN250 13/07 A2981 RMK AO2 SLP092 T01280067 401830050=
200802260352 METAR KATL 260352Z 15005KT 10SM FEW150 BKN250 13/06 A2983 RMK AO2 SLP101 T01280056=
200802260252 METAR KATL 260252Z 16003KT 10SM FEW150 SCT200 13/06 A2986 RMK AO2 SLP110 T01280056 58006=
200802260152 METAR KATL 260152Z 18005KT 10SM BKN200 14/06 A2986 RMK AO2 SLP113 T01390061=
200802260052 METAR KATL 260052Z COR 00000KT 10SM SCT200 15/04 A2988 RMK AO2 SLP118 T01500044=
200802252352 METAR KATL 252352Z 22004KT 10SM SCT200 16/05 A2987 RMK AO2 SLP116 T01560050 10183 20139 55012=
200802252252 METAR KATL 252252Z 19009KT 10SM FEW200 17/05 A2987 RMK AO2 SLP114 T01720050=
200802252152 METAR KATL 252152Z 21008KT 10SM FEW250 18/05 A2989 RMK AO2 SLP121 T01780050=
200802252052 METAR KATL 252052Z 21009KT 10SM FEW250 18/05 A2991 RMK AO2 SLP127 T01780050 56024=
200802251952 METAR KATL 251952Z 20009KT 10SM FEW250 17/04 A2992 RMK AO2 SLP132 T01720044=
200802251852 METAR KATL 251852Z 23008KT 10SM CLR 16/06 A2996 RMK AO2 SLP147 T01560056=
200802251752 METAR KATL 251752Z 00000KT 10SM CLR 14/06 A2998 RMK AO2 SLP153 T01390056 10139 20050 58027=
200802251652 METAR KATL 251652Z 00000KT 10SM CLR 12/05 A3002 RMK AO2 SLP167 T01220050=
200802251552 METAR KATL 251552Z 01003KT 10SM CLR 10/04 A3005 RMK AO2 SLP178 T01000044=
200802251452 METAR KATL 251452Z 29007KT 8SM CLR 08/04 A3006 RMK AO2 SLP182 T00830039 51013=
200802251352 METAR KATL 251352Z 28007KT 8SM CLR 07/04 A3006 RMK AO2 SLP180 T00720039=
200802251252 METAR KATL 251252Z 25004KT 6SM BR FEW080 06/04 A3004 RMK AO2 SLP174 T00560044=
200802251152 METAR KATL 251152Z 00000KT 6SM BR FEW250 06/04 A3002 RMK AO2 SLP169 T00560039 10089 20050 51007=
200802251052 METAR KATL 251052Z 31007KT 8SM FEW250 06/04 A3002 RMK AO2 SLP169 T00560039=
200802250952 METAR KATL 250952Z 28005KT 8SM SCT250 06/04 A3001 RMK AO2 SLP163 T00610039=
200802250852 METAR KATL 250852Z 27003KT 10SM SCT250 07/04 A3000 RMK AO2 SLP160 T00670044 57015=
200802250752 METAR KATL 250752Z 32006KT 10SM SCT250 07/04 A3002 RMK AO2 SLP166 T00720039=
200802250652 METAR KATL 250652Z 32007KT 10SM FEW075 08/04 A3003 RMK AO2 SLP172 T00780044=
200802250552 METAR KATL 250552Z 32006KT 10SM FEW075 08/04 A3005 RMK AO2 SLP177 T00830044 10139 20083 55007=
200802250452 METAR KATL 250452Z 31003KT 10SM SCT075 09/04 A3005 RMK AO2 SLP176 T00940039 401560006=
200802250252 METAR KATL 250252Z 33006KT 10SM BKN070 11/04 A3007 RMK AO2 SLP186 T01060044 53010=
200802250152 METAR KATL 250152Z 32003KT 10SM BKN070 12/03 A3005 RMK AO2 SLP178 T01170028=
200802250052 METAR KATL 250052Z 34004KT 10SM FEW070 12/02 A3005 RMK AO2 SLP178 T01220022=
200802242352 METAR KATL 242352Z 32004KT 10SM BKN060 14/03 A3004 RMK AO2 SLP176 60000 T01390033 10156 20100 53005=
200802242252 METAR KATL 242252Z 28003KT 10SM SCT055 BKN070 14/03 A3003 RMK AO2 SLP172 T01440033=
200802242152 METAR KATL 242152Z 21007KT 10SM FEW070 15/03 A3001 RMK AO2 SLP167 T01500028=
200802242052 METAR KATL 242052Z 00000KT 10SM FEW070 SCT150 15/02 A3003 RMK AO2 SLP171 60000 T01500017 58021=
200802241952 METAR KATL 241952Z 00000KT 10SM SCT070 SCT150 13/02 A3005 RMK AO2 SLP179 T01280022=
200802241852 METAR KATL 241852Z 00000KT 10SM SCT100 BKN150 BKN200 11/03 A3008 RMK AO2 RAE1756 SLP190 P0000 T01110028=
200802241752 METAR KATL 241752Z 12004KT 10SM -RA SCT085 BKN100 BKN150 10/03 A3009 RMK AO2 RAB45 SLP194 P0000 60000 T01000028 10100 20011 58016=
200802241652 METAR KATL 241652Z 00000KT 10SM SCT090 BKN120 BKN150 09/02 A3012 RMK AO2 SLP204 T00890022=
200802241552 METAR KATL 241552Z 08006KT 10SM SCT120 BKN150 BKN250 09/03 A3013 RMK AO2 SLP209 T00890028=
200802241452 METAR KATL 241452Z 35008KT 9SM BKN150 BKN250 06/01 A3014 RMK AO2 SLP212 T00610011 51012=
200802241352 METAR KATL 241352Z 36006KT 7SM BKN150 04/00 A3013 RMK AO2 SLP209 T00390000=
200802241252 METAR KATL 241252Z 34006KT 7SM BKN150 02/M01 A3012 RMK AO2 SLP205 T00171006=
200802241152 METAR KATL 241152Z 34005KT 9SM BKN150 01/M01 A3010 RMK AO2 SLP201 T00111011 10017 20006 53013=
200802241052 METAR KATL 241052Z 01004KT 10SM BKN250 01/M01 A3007 RMK AO2 SLP190 T00111011=
200802240952 METAR KATL 240952Z 34005KT 9SM SCT200 01/M01 A3006 RMK AO2 SLP186 T00061011=
200802240852 METAR KATL 240852Z 30003KT 10SM FEW200 01/M01 A3007 RMK AO2 SLP187 T00061011 58009=
200802240752 METAR KATL 240752Z 29005KT 10SM CLR 01/M01 A3009 RMK AO2 SLP193 T00111011=
200802240652 METAR KATL 240652Z 27008KT 10SM CLR 02/M01 A3010 RMK AO2 SLP197 T00171006=
200802240552 METAR KATL 240552Z 27005KT 10SM CLR 02/M01 A3009 RMK AO2 SLP196 T00171006 10050 20017 53005=
200802240452 METAR KATL 240452Z 28004KT 10SM CLR 02/M01 A3008 RMK AO2 SLP189 T00221006 401000022=
200802240352 METAR KATL 240352Z 28005KT 10SM CLR 03/00 A3009 RMK AO2 SLP194 T00280000=
200802240214 SPECI KATL 240214Z 33009KT 10SM SCT014 04/01 A3008 RMK AO2=
200802240214 SPECI KATL 240214Z 33009KT 10SM SCT014 04/01 A3008 RMK AO2=
200802240152 METAR KATL 240152Z 32011KT 10SM OVC014 04/01 A3009 RMK AO2 SLP192 BINOVC T00440006=
200802240052 METAR KATL 240052Z 31010KT 10SM OVC014 05/02 A3009 RMK AO2 SLP194 T00500017=
200802232352 METAR KATL 232352Z 31011KT 9SM OVC013 05/02 A3007 RMK AO2 SLP187 T00500022 10089 20050 51013=
200802232252 METAR KATL 232252Z 33012KT 9SM OVC014 07/03 A3006 RMK AO2 SLP183 T00670028=
200802232152 SPECI KATL 232152Z COR 29011KT 10SM BKN017 08/03 A3005 RMK AO2 SLP178 T00780033=
200802232052 METAR KATL 232052Z 31010KT 10SM BKN017 08/04 A3003 RMK AO2 SLP173 T00830039 53005=
200802231952 METAR KATL 231952Z 31012KT 10SM BKN018 09/04 A3001 RMK AO2 SLP163 T00890044=
200802231752 METAR KATL 231752Z 30010KT 10SM OVC013 08/04 A3002 RMK AO2 SLP167 T00780044 10100 20078 50011=
200802231652 METAR KATL 231652Z 29012KT 10SM BKN014 08/05 A3002 RMK AO2 SLP169 T00830050=
200802231552 METAR KATL 231552Z 29011KT 10SM OVC014 09/06 A3001 RMK AO2 SLP165 CIG 014V016 T00890056=
200802231536 SPECI KATL 231536Z 32015KT 10SM BKN014 09/06 A3000 RMK AO2=
200802231536 SPECI KATL 231536Z 32015KT 10SM BKN014 09/06 A3000 RMK AO2=
200802231501 SPECI KATL 231501Z 30013KT 10SM SCT011 BKN018 09/07 A2999 RMK AO2=
200802231501 SPECI KATL 231501Z 30013KT 10SM SCT011 BKN018 09/07 A2999 RMK AO2=
200802231452 METAR KATL 231452Z 30015G19KT 9SM BKN011 BKN018 09/07 A2998 RMK AO2 SLP155 CIG 008V014 BKN011 V SCT T00940072 53023=
200802231418 SPECI KATL 231418Z 30012G19KT 7SM BKN010 BKN013 BKN021 09/08 A2996 RMK AO2=
200802231418 SPECI KATL 231418Z 30012G19KT 7SM BKN010 BKN013 BKN021 09/08 A2996 RMK AO2=
200802231352 METAR KATL 231352Z 32013KT 5SM BR BKN005 09/09 A2996 RMK AO2 SLP146 T00940089=
200802231350 SPECI KATL 231350Z 31012KT 5SM BR BKN005 09/09 A2995 RMK AO2=
200802231350 SPECI KATL 231350Z 31012KT 5SM BR BKN005 09/09 A2995 RMK AO2=
200802231338 SPECI KATL 231338Z 31008KT 2 1/2SM BR OVC003 10/09 A2995 RMK AO2 SFC VIS 4 CIG 001V007=
200802231338 SPECI KATL 231338Z 31008KT 2 1/2SM BR OVC003 10/09 A2995 RMK AO2 SFC VIS 4 CIG 001V007=
200802231331 SPECI KATL 231331Z 32009KT 1 1/2SM BR BKN001 OVC006 10/09 A2995 RMK AO2 SFC VIS 3=
200802231331 SPECI KATL 231331Z 32009KT 1 1/2SM BR BKN001 OVC006 10/09 A2995 RMK AO2 SFC VIS 3=
200802231252 METAR KATL 231252Z COR 33008KT 1/2SM R09R/4500V6000FT BR OVC001 10/09 A2993 RMK AO2 SFC VIS 1 SLP137 T01000094=
200802231206 SPECI KATL 231206Z 33007KT 1/2SM BR OVC001 09/09 A2991 RMK AO2 SFC VIS 1 1/4=
200802231206 SPECI KATL 231206Z 33007KT 1/2SM BR OVC001 09/09 A2991 RMK AO2 SFC VIS 1 1/4=
200802231152 METAR KATL 231152Z 31006KT 1 1/4SM R09R/5000VP6000FT BR OVC001 10/09 A2991 RMK AO2 SLP130 60000 70033 T01000094 10100 20083 53016=
200802231052 METAR KATL 231052Z 32004KT 1/4SM R09R/2200V2600FT FG OVC001 09/09 A2988 RMK AO2 SLP120 T00940089=
200802231044 SPECI KATL 231044Z 30004KT 1/4SM R09R/2000V2600FT FG OVC001 10/09 A2988 RMK AO2=
200802231044 SPECI KATL 231044Z 30004KT 1/4SM R09R/2000V2600FT FG OVC001 10/09 A2988 RMK AO2=
200802230952 METAR KATL 230952Z 00000KT 1/4SM R09R/2000V2200FT FG VV001 09/09 A2987 RMK AO2 TWR VIS 1/2 SLP115 T00940089=
200802230941 SPECI KATL 230941Z 00000KT 1/4SM R09R/2200FT FG VV001 09/09 A2987 RMK AO2 TWR VIS 1/2=
200802230941 SPECI KATL 230941Z 00000KT 1/4SM R09R/2200FT FG VV001 09/09 A2987 RMK AO2 TWR VIS 1/2=
200802230927 SPECI KATL 230927Z 00000KT 1/4SM R09R/2000V2400FT FG VV001 09/09 A2988 RMK AO2 TWR VIS 1/2=
200802230927 SPECI KATL 230927Z 00000KT 1/4SM R09R/2000V2400FT FG VV001 09/09 A2988 RMK AO2 TWR VIS 1/2=
200802230852 METAR KATL 230852Z 00000KT 1/16SM R09R/1800V2200FT FG VV001 09/09 A2986 RMK AO2 TWR VIS 1/2 DZE45 SLP115 P0000 60000 T00940089 56002=
200802230752 METAR KATL 230752Z 32003KT 1/16SM R09R/1400V1600FT -DZ FG VV001 09/09 A2987 RMK AO2 TWR VIS 1/2 SLP117 PCPN VRY LGT P0000 T00940089=
200802230652 METAR KATL 230652Z 14004KT 1/16SM R09R/1200FT -DZ FG VV001 09/08 A2986 RMK AO2 TWR VIS 1/2 SLP114 PCPN VRY LT P0000 T00890083=
200802230552 METAR KATL 230552Z 17003KT 1/4SM R09R/1400V1600FT -DZ FG VV001 08/08 A2987 RMK AO2 TWR VIS 1/2 SLP118 PCPN VRY LGT P0000 60003 T00830083 10089 20083 58009=
200802230528 SPECI KATL 230528Z 00000KT 1/4SM R09R/1800V2200FT -DZ FG VV001 08/08 A2987 RMK AO2 TWR VIS 1/2 PCPN VRY LGT P0000=
200802230528 SPECI KATL 230528Z 00000KT 1/4SM R09R/1800V2200FT -DZ FG VV001 08/08 A2987 RMK AO2 TWR VIS 1/2 PCPN VRY LGT P0000=
200802230509 SPECI KATL 230509Z 00000KT 1/2SM R09R/6000VP6000FT -DZ BR OVC001 08/08 A2987 RMK AO2 SFC VIS 3/4 PCPN VRY LGT P0000=
200802230509 SPECI KATL 230509Z 00000KT 1/2SM R09R/6000VP6000FT -DZ BR OVC001 08/08 A2987 RMK AO2 SFC VIS 3/4 PCPN VRY LGT P0000=
200802230445 SPECI KATL 230445Z 13003KT 1/2SM -DZ BR OVC003 08/08 A2988 RMK AO2 SFC VIS 5 P0000=
200802230445 SPECI KATL 230445Z 13003KT 1/2SM -DZ BR OVC003 08/08 A2988 RMK AO2 SFC VIS 5 P0000=
200802230411 SPECI KATL 230411Z 00000KT 3SM -DZ BR BKN004 BKN015 OVC028 08/08 A2990 RMK AO2 SFC VIS 5 PCPN VRY LGT P0000=
200802230411 SPECI KATL 230411Z 00000KT 3SM -DZ BR BKN004 BKN015 OVC028 08/08 A2990 RMK AO2 SFC VIS 5 PCPN VRY LGT P0000=
200802230403 SPECI KATL 230403Z 00000KT 3SM -DZ BR SCT004 BKN015 OVC028 08/08 A2990 RMK AO2 SFC VIS 5 PCPN VRY LGT P0000=
200802230403 SPECI KATL 230403Z 00000KT 3SM -DZ BR SCT004 BKN015 OVC028 08/08 A2990 RMK AO2 SFC VIS 5 PCPN VRY LGT P0000=
200802230402 SPECI KATL 230402Z 00000KT 1/2SM -DZ BR SCT004 SCT014 OVC028 08/08 A2990 RMK AO2 SFC VIS 5 P0000=
200802230402 SPECI KATL 230402Z 00000KT 1/2SM -DZ BR SCT004 SCT014 OVC028 08/08 A2990 RMK AO2 SFC VIS 5 P0000=
200802230352 METAR KATL 230352Z 09003KT 1/2SM -DZ BR BKN004 BKN015 OVC030 08/08 A2990 RMK AO2 SFC VIS 4 DZE25B52RAB25E46 SLP128 CIG 002V006 P0001 T00830078=
200802230252 METAR KATL 230252Z 11004KT 1/2SM -DZ BR OVC003 08/08 A2990 RMK AO2 SFC VIS 2 SLP128 P0001 60002 T00830078 53000=
200802230152 METAR KATL 230152Z 10003KT 1/2SM -DZ BR OVC003 08/08 A2991 RMK AO2 SFC VIS 2 SLP131 P0000 T00830078=
200802230052 METAR KATL 230052Z COR 07009KT 1/2SM -DZ BR OVC003 08/08 A2988 RMK AO2 SFC VIS 2 DZE09B52RAB09E52 SLP121 P0001 T00830078=
200802222352 METAR KATL 222352Z 12005KT 1/2SM -DZ BR OVC003 08/08 A2990 RMK AO2 SFC VIS 2 1/2 CIG 002V006 SLP128 P0000 60000 T00830078 10089 20072 53009=
200802222252 METAR KATL 222252Z 10003KT 1/2SM -DZ BR OVC003 08/08 A2989 RMK AO2 SFC VIS 2 1/2 RAE49DZB49 PRESRR SLP127 P0000 T00830078=
200802222152 METAR KATL 222152Z 09006KT 1/2SM -RA BR OVC003 09/08 A2985 RMK AO2 SFC VIS 2 1/2 DZE43RAB43 SLP110 P0000 T00890078=
200802222052 METAR KATL 222052Z COR 09005KT 1/2SM -DZ BR OVC003 08/07 A2987 RMK AO2 SFC VIS 4 DZB48 SLP118 P0000 60000 T00830072 55000=
200802221952 METAR KATL 221952Z VRB03KT 1/2SM BR OVC002 08/07 A2987 RMK AO2 SFC VIS 4 SLP117 T00780072=
200802221852 METAR KATL 221852Z 11005KT 1/2SM BR OVC002 08/07 A2987 RMK AO2 SFC VIS 3 SLP119 T00780067=
200802221812 SPECI KATL 221812Z 08005KT 1/2SM BR OVC002 07/07 A2988 RMK AO2 SFC VIS 4=
200802221812 SPECI KATL 221812Z 08005KT 1/2SM BR OVC002 07/07 A2988 RMK AO2 SFC VIS 4=
200802221752 METAR KATL 221752Z 07007KT 1/2SM BR OVC002 07/07 A2987 RMK AO2 SFC VIS 2 SLP118 60030 T00720067 10072 20050 56031=
200802221739 SPECI KATL 221739Z 07007KT 1/2SM BR OVC002 07/06 A2989 RMK AO2 SFC VIS 1 1/2=
200802221739 SPECI KATL 221739Z 07007KT 1/2SM BR OVC002 07/06 A2989 RMK AO2 SFC VIS 1 1/2=
200802221652 METAR KATL 221652Z 09009KT 1/2SM BR OVC003 07/06 A2991 RMK AO2 SFC VIS 4 PRESFR SLP131 TWRINC T00670056=
200802221552 METAR KATL 221552Z 12007KT 1/2SM BR OVC003 06/05 A2989 RMK AO2 SFC VIS 5 RAE34 SLP127 TWRINC P0006 T00610050=
200802221452 METAR KATL 221452Z 15006KT 1/2SM RA BR BKN003 OVC005 06/05 A2996 RMK AO2 SFC VIS 5 SLP151 TWRINC P0014 60024 T00560050 53002=
200802221352 METAR KATL 221352Z 13007KT 1/2SM -RA BR OVC003 05/04 A2993 RMK AO2 SFC VIS 4 SLP138 P0005 T00500044=
200802221252 METAR KATL 221252Z COR 12009KT 1SM -RA BR OVC003 05/04 A2993 RMK AO2 SFC VIS 4 SLP140 P0005 T00500039=
200802221152 METAR KATL 221152Z 12007KT 1 1/2SM -RA BR OVC003 05/04 A2996 RMK AO2 SFC VIS 4 SLP149 P0006 60028 70156 T00500039 10072 20050 55001=
200802221132 SPECI KATL 221132Z 10007KT 1 1/2SM RA BR OVC003 05/04 A2995 RMK AO2 SFC VIS 4 P0003=
200802221132 SPECI KATL 221132Z 10007KT 1 1/2SM RA BR OVC003 05/04 A2995 RMK AO2 SFC VIS 4 P0003=
200802221052 METAR KATL 221052Z 09007KT 4SM -RA BR BKN003 OVC005 05/04 A2995 SLP148 T0010 T005000044=
200802220952 METAR KATL 220952Z COR 09011KT 4SM -RA BR BKN003 OVC005 06/04 A2994 RMK AO2 PRESFR SLP144 LTG DSNT S AND W P0006 T00560044=
200802220852 METAR KATL 220852Z COR 06010KT 1SM -RA BR OVC003 06/05 A2996 RMK AO2 SFC VIS 4 SLP150 P0006 60006 T00610050 56020=
200802220752 METAR KATL 220752Z COR 11010KT 1SM -RA BR OVC003 07/06 A2997 RMK AO2 SFC VIS 5 RAB32 SLP152 P0000 T00670056=
200802220655 METAR KATL 220655Z 09011G17KT 1SM BR OVC003 07/06 A2999 SFC VIS 4SM RE37 SLP160 T0000 T006700617=
200802220652 METAR KATL 220652Z COR 09011G17KT 1SM BR OVC003 07/06 A2999 RMK AO2 SFC VIS 4 RAE37 SLP160 P0000 T00670061=
200802220513 SPECI KATL 220513Z 11011G17KT 10SM -RA BKN007 OVC022 07/06 A3000 RMK AO2 CIG 005V009 P0000=
200802220513 SPECI KATL 220513Z 11011G17KT 10SM -RA BKN007 OVC022 07/06 A3000 RMK AO2 CIG 005V009 P0000=
200802220452 METAR KATL 220452Z COR 12011G17KT 10SM -RA FEW007 BKN024 OVC035 07/06 A3001 RMK AO2 RAE04B51 SLP165 PCPN VRY LGT P0000 T00720056 401060061=
200802220404 SPECI KATL 220404Z 11009KT 10SM FEW007 BKN028 OVC035 07/06 A3002 RMK AO2 RAE04 P0000=
200802220404 SPECI KATL 220404Z 11009KT 10SM FEW007 BKN028 OVC035 07/06 A3002 RMK AO2 RAE04 P0000=
200802220340 SPECI KATL 220340Z 10006KT 10SM SCT007 BKN032 OVC040 07/06 A3004 RMK AO2 RAE00 P0000=
200802220340 SPECI KATL 220340Z 10006KT 10SM SCT007 BKN032 OVC040 07/06 A3004 RMK AO2 RAE00 P0000=
200802220252 METAR KATL 220252Z COR 10014G18KT 9SM -RA FEW005 BKN040 OVC060 07/06 A3007 RMK AO2 SLP185 P0016 60042 T00720061 58009=
200802220152 METAR KATL 220152Z 10013KT 8SM -RA FEW005 BKN040 OVC060 07/06 A3009 RMK AO2 SLP192 P0008 T00720061=
200802220052 METAR KATL 220052Z 05013KT 2SM +RA BR SCT006 BKN028 OVC040 07/06 A3012 RMK AO2 SFC VIS 2 1/2 SLP203 P0018 T00720061=
200802212252 METAR KATL 212252Z COR 07010KT 2SM -RA BR FEW004 SCT035 OVC045 07/06 A3010 RMK AO2 SFC VIS 3 SLP197 P0010 T00720061=
200802212241 SPECI KATL 212241Z 05010KT 2SM +RA BR FEW004 SCT030 OVC045 07/06 A3011 RMK AO2 SFC VIS 3 P0007=
200802212241 SPECI KATL 212241Z 05010KT 2SM +RA BR FEW004 SCT030 OVC045 07/06 A3011 RMK AO2 SFC VIS 3 P0007=
200802212152 METAR KATL 212152Z 06015KT 1SM RA BR FEW005 SCT026 OVC050 07/06 A3011 RMK AO2 SFC VIS 3 SLP199 P0023 T00670056=
200802212137 SPECI KATL 212137Z 06012KT 1SM +RA BR SCT005 BKN024 OVC040 06/06 A3011 RMK AO2 SFC VIS 2 P0017=
200802212137 SPECI KATL 212137Z 06012KT 1SM +RA BR SCT005 BKN024 OVC040 06/06 A3011 RMK AO2 SFC VIS 2 P0017=
200802212052 METAR KATL 212052Z COR 08006KT 2 1/2SM RA BR BKN005 BKN030 OVC050 07/06 A3014 RMK AO2 SFC VIS 3 PRESRR SLP212 P0013 60032 T00670061 55012=
200802211952 METAR KATL 211952Z 10009KT 2SM RA BR SCT005 BKN030 OVC070 07/06 A3011 RMK AO2 TWR VIS 2 1/2 SLP200 P0011 T00670061=
200802211939 SPECI KATL 211939Z 08010KT 2 1/2SM RA BR FEW005 BKN030 OVC070 07/06 A3011 RMK AO2 SFC VIS 3 P0007=
200802211939 SPECI KATL 211939Z 08010KT 2 1/2SM RA BR FEW005 BKN030 OVC070 07/06 A3011 RMK AO2 SFC VIS 3 P0007=
200802211920 SPECI KATL 211920Z 07009KT 2 1/2SM -RA BR FEW005 BKN025 OVC075 07/06 A3012 RMK AO2 SFC VIS 4 P0004=
200802211920 SPECI KATL 211920Z 07009KT 2 1/2SM -RA BR FEW005 BKN025 OVC075 07/06 A3012 RMK AO2 SFC VIS 4 P0004=
200802211752 METAR KATL 211752Z COR 06008KT 030V090 5SM RA BR FEW015 BKN034 OVC070 07/05 A3018 RMK AO2 SLP223 P0010 60017 T00720050 10100 20072 58004=
200802211713 SPECI KATL 211713Z 11006KT 4SM RA BR SCT020 BKN040 OVC070 08/06 A3020 RMK AO2 P0004=
200802211713 SPECI KATL 211713Z 11006KT 4SM RA BR SCT020 BKN040 OVC070 08/06 A3020 RMK AO2 P0004=
200802211652 METAR KATL 211652Z 11008KT 9SM -RA FEW020 BKN040 OVC070 08/04 A3020 RMK AO2 SLP228 P0004 T00780044=
200802211552 METAR KATL 211552Z 10006KT 7SM -RA FEW020 SCT040 OVC065 08/04 A3022 RMK AO2 SLP233 P0002 T00830039=
200802211516 SPECI KATL 211516Z 10003KT 9SM -RA BKN029 BKN047 BKN070 OVC150 09/02 A3020 RMK AO2 P0001=
200802211516 SPECI KATL 211516Z 10003KT 9SM -RA BKN029 BKN047 BKN070 OVC150 09/02 A3020 RMK AO2 P0001=
200802211452 METAR KATL 211452Z 10003KT 9SM -RA FEW018 SCT050 OVC070 09/01 A3019 RMK AO2 RAB24 SLP226 P0001 60001 T00890006 53018=
200802211352 METAR KATL 211352Z 10005KT 10SM BKN085 BKN110 OVC200 09/00 A3017 RMK AO2 SLP216 T00940000=
200802211252 METAR KATL 211252Z 09005KT 10SM FEW010 SCT150 OVC200 09/00 A3015 RMK AO2 SLP209 T00890000=
200802211152 METAR KATL 211152Z 00000KT 10SM BKN200 07/01 A3014 RMK AO2 SLP208 T00720006 10106 20067 53000=
200802211052 METAR KATL 211052Z 00000KT 10SM BKN200 08/M01 A3014 RMK AO2 SLP207 T00781011=
200802210952 METAR KATL 210952Z 00000KT 10SM BKN180 08/M02 A3014 RMK AO2 SLP206 T00781017=
200802210852 METAR KATL 210852Z 00000KT 10SM BKN180 09/M02 A3014 RMK AO2 SLP205 T00891022 58002=
200802210752 METAR KATL 210752Z 00000KT 10SM SCT150 07/M01 A3015 RMK AO2 SLP211 T00721006=
200802210652 METAR KATL 210652Z 00000KT 10SM SCT080 08/M01 A3015 RMK AO2 SLP209 T00831011=
200802210552 METAR KATL 210552Z 00000KT 10SM SCT080 09/M02 A3015 RMK AO2 SLP208 T00941022 10150 20094 51003=
200802210452 METAR KATL 210452Z 00000KT 10SM FEW080 11/M03 A3014 RMK AO2 SLP206 T01111028 401890011=
200802210352 METAR KATL 210352Z 28004KT 10SM FEW085 SCT140 SCT250 12/M03 A3014 RMK AO2 SLP207 T01221033=
200802210252 METAR KATL 210252Z 29005KT 10SM FEW090 BKN140 BKN250 13/M03 A3014 RMK AO2 SLP206 T01281033 53007=
200802210152 METAR KATL 210152Z 25004KT 10SM FEW090 BKN140 BKN250 14/M04 A3013 RMK AO2 SLP205 T01391039=
200802210052 METAR KATL 210052Z 24006KT 10SM FEW090 SCT150 BKN250 14/M04 A3012 RMK AO2 SLP203 T01441039=
200802202352 METAR KATL 202352Z 22007KT 10SM BKN090 BKN200 BKN250 16/M03 A3012 RMK AO2 SLP201 T01561028 10189 20156 55000=
200802202252 METAR KATL 202252Z 24008KT 10SM SCT090 BKN150 BKN200 17/M05 A3010 RMK AO2 SLP196 T01671050=
200802202152 METAR KATL 202152Z COR 27008KT 10SM BKN090 BKN200 BKN240 17/M05 A3011 RMK AO2 SLP197 ACSL DSNT W T01721050=
200802202052 METAR KATL 202052Z 26008G18KT 230V290 10SM SCT085 SCT200 BKN240 18/M06 A3012 RMK AO2 SLP200 ACSL ALQDS T01781056 56021=
200802201952 METAR KATL 201952Z 26015G23KT 10SM FEW090 BKN200 BKN240 17/M07 A3012 RMK AO2 SLP202 ACSL NE SW-N T01721067=
200802201852 METAR KATL 201852Z 23013G20KT 10SM FEW090 SCT180 BKN240 17/M05 A3015 RMK AO2 SLP211 T01671050=
200802201752 METAR KATL 201752Z 25016G20KT 10SM FEW090 BKN180 BKN240 16/M04 A3018 RMK AO2 SLP221 T01611039 10172 20011 58016 $=
200802201652 METAR KATL 201652Z 24016G22KT 10SM FEW090 BKN180 BKN240 15/M04 A3021 RMK AO2 SLP232 T01501039=
200802201552 METAR KATL 201552Z 24011G16KT 10SM FEW090 SCT240 BKN300 13/M03 A3022 RMK AO2 SLP236 T01331033=
200802201452 METAR KATL 201452Z 23010KT 10SM BKN090 BKN240 BKN300 10/M03 A3023 RMK AO2 SLP241 T01001033 51019=
200802201352 METAR KATL 201352Z 22007KT 10SM FEW110 SCT200 BKN250 05/M03 A3022 RMK AO2 SLP238 T00501033=
200802201252 METAR KATL 201252Z 22005KT 10SM FEW200 SCT250 02/M04 A3019 RMK AO2 SLP231 T00221039=
200802201152 METAR KATL 201152Z 21003KT 10SM FEW200 02/M04 A3017 RMK AO2 SLP222 T00171044 10044 20011 50001=
200802201052 METAR KATL 201052Z 00000KT 10SM FEW250 01/M04 A3018 RMK AO2 SLP225 T00111039=
200802200952 METAR KATL 200952Z COR 21003KT 10SM FEW250 02/M04 A3018 RMK AO2 SLP223 T00221039=
200802200852 METAR KATL 200852Z 22004KT 10SM CLR 02/M04 A3017 RMK AO2 SLP220 T00221039 56007=
200802200752 METAR KATL 200752Z 23003KT 10SM SCT250 02/M03 A3018 RMK AO2 SLP223 T00221033=
200802200652 METAR KATL 200652Z 00000KT 10SM BKN250 03/M03 A3018 RMK AO2 SLP223 T00331033=
200802200552 METAR KATL 200552Z COR 00000KT 10SM BKN250 04/M04 A3019 RMK AO2 SLP227 T00441039 10089 20039 58001=
200802200452 METAR KATL 200452Z 28004KT 10SM SCT250 04/M04 A3020 RMK AO2 SLP231 T00441044 401440011=
200802200352 METAR KATL 200352Z 27004KT 10SM SCT250 05/M05 A3020 RMK AO2 SLP230 T00501050=
200802200252 METAR KATL 200252Z 27004KT 10SM SCT250 06/M05 A3019 RMK AO2 SLP229 T00561050 51011=
200802200152 METAR KATL 200152Z 31006KT 10SM FEW200 SCT250 07/M05 A3019 RMK AO2 SLP227 T00671050=
200802200052 METAR KATL 200052Z 30006KT 10SM SCT250 07/M06 A3017 RMK AO2 SLP224 T00721056=
200802192352 METAR KATL 192352Z 31011KT 10SM BKN250 09/M06 A3016 RMK AO2 SLP219 T00891056 10144 20089 53016=
200802192252 METAR KATL 192252Z 30010G21KT 10SM SCT250 11/M06 A3014 RMK AO2 PK WND 29027/2230 SLP211 T01111061=
200802192152 METAR KATL 192152Z 26014G23KT 10SM FEW250 13/M07 A3013 RMK AO2 PK WND 28029/2112 SLP205 T01281067=
200802192052 METAR KATL 192052Z 29018G32KT 10SM FEW080 SCT250 13/M07 A3011 RMK AO2 PK WND 29032/2046 SLP200 T01331067 56015=
200802191952 METAR KATL 191952Z 29020G30KT 10SM FEW075 SCT250 13/M05 A3012 RMK AO2 PK WND 27034/1853 SLP202 T01331050=
200802191852 METAR KATL 191852Z 28026G34KT 10SM FEW080 SCT250 13/M06 A3013 RMK AO2 PK WND 28034/1851 SLP204 T01331056=
200802191752 METAR KATL 191752Z COR 26020G26KT 10SM FEW080 12/M05 A3016 RMK AO2 PK WND 26035/1716 SLP216 T01171050 10122 20011 58014=
200802191652 METAR KATL 191652Z 26013G26KT 10SM FEW065 SCT100 11/M05 A3018 RMK AO2 PK WND 27026/1649 SLP225 T01061050=
200802191552 METAR KATL 191552Z 25012G19KT 10SM FEW100 09/M06 A3020 RMK AO2 SLP229 T00941056=
200802191452 METAR KATL 191452Z 25009G15KT 10SM FEW100 07/M04 A3020 RMK AO2 SLP231 T00721044 51011=
200802191352 METAR KATL 191352Z 24007KT 10SM FEW100 04/M04 A3019 RMK AO2 SLP229 T00441044=
200802191252 METAR KATL 191252Z 23007KT 10SM FEW110 02/M05 A3018 RMK AO2 SLP225 T00171050=
200802191152 METAR KATL 191152Z 24004KT 10SM CLR 01/M05 A3017 RMK AO2 SLP220 T00111050 10039 20011 51015=
200802191052 METAR KATL 191052Z 27005KT 10SM CLR 02/M06 A3016 RMK AO2 SLP217 T00171056=
200802190952 METAR KATL 190952Z 28005KT 10SM CLR 02/M06 A3014 RMK AO2 SLP209 T00171056=
200802190852 METAR KATL 190852Z COR 26004KT 10SM CLR 02/M04 A3012 RMK AO2 SLP203 T00221044 53006=
200802190752 METAR KATL 190752Z COR 25004KT 10SM CLR 03/M04 A3012 RMK AO2 SLP202 T00281044=
200802190652 METAR KATL 190652Z COR 28003KT 10SM FEW070 03/M04 A3010 RMK AO2 SLP197 T00331044=
200802190552 METAR KATL 190552Z COR 30007KT 10SM FEW070 04/M04 A3010 RMK AO2 SLP197 T00391044 10094 20039 51012=
200802190452 METAR KATL 190452Z 29005KT 10SM FEW070 04/M04 A3009 RMK AO2 SLP195 T00441039 401560044=
200802190352 METAR KATL 190352Z 30007KT 10SM CLR 05/M04 A3008 RMK AO2 SLP190 T00501039=
200802190252 METAR KATL 190252Z COR 31009KT 10SM CLR 06/M04 A3006 RMK AO2 SLP184 T00611039 51035=
200802190152 METAR KATL 190152Z COR 30007KT 10SM CLR 07/M03 A3004 RMK AO2 SLP175 T00671033=
200802190052 METAR KATL 190052Z 31012KT 10SM CLR 08/M03 A3000 RMK AO2 SLP163 T00781033=
200802182352 METAR KATL 182352Z COR 27009KT 10SM CLR 09/M03 A2996 RMK AO2 SLP146 T00941033 10128 20094 53016=
200802182252 METAR KATL 182252Z 27015G22KT 10SM FEW060 11/M04 A2993 RMK AO2 SLP135 T01111039=
200802182152 METAR KATL 182152Z 27012KT 10SM FEW060 12/M03 A2992 RMK AO2 SLP130 T01221028=
200802182052 METAR KATL 182052Z 27014G19KT 10SM FEW030 12/M02 A2991 RMK AO2 SLP127 T01221017 56004=
200802181852 METAR KATL 181852Z 31011KT 10SM FEW030 11/01 A2991 RMK AO2 SLP126 T01110011=
200802181705 SPECI KATL 181705Z 30018KT 10SM BKN030 09/02 A2995 RMK AO2=
200802181705 SPECI KATL 181705Z 30018KT 10SM BKN030 09/02 A2995 RMK AO2=
200802181652 METAR KATL 181652Z 30014KT 10SM BKN028 08/02 A2995 RMK AO2 SLP141 T00780017=
200802181552 METAR KATL 181552Z 30015G22KT 10SM BKN026 08/02 A2993 RMK AO2 SLP134 T00830022=
200802181452 METAR KATL 181452Z 29014G23KT 10SM BKN025 08/02 A2989 RMK AO2 SLP122 T00830022 53023=
200802181422 SPECI KATL 181422Z 30012G20KT 10SM BKN025 08/03 A2988 RMK AO2=
200802181422 SPECI KATL 181422Z 30012G20KT 10SM BKN025 08/03 A2988 RMK AO2=
200802181352 METAR KATL 181352Z 31014KT 10SM FEW026 08/03 A2987 RMK AO2 SLP113 T00780028=
200802181252 METAR KATL 181252Z COR 29009KT 10SM FEW024 SCT250 07/03 A2985 RMK AO2 SLP106 T00720028=
200802181227 SPECI KATL 181227Z 30011KT 10SM FEW024 SCT250 07/03 A2984 RMK AO2=
200802181227 SPECI KATL 181227Z 30011KT 10SM FEW024 SCT250 07/03 A2984 RMK AO2=
200802181205 SPECI KATL 181205Z 29017G21KT 10SM SCT014 BKN024 BKN250 08/04 A2983 RMK AO2=
200802181205 SPECI KATL 181205Z 29017G21KT 10SM SCT014 BKN024 BKN250 08/04 A2983 RMK AO2=
200802181152 METAR KATL 181152Z 31012KT 10SM BKN014 BKN024 BKN250 09/06 A2982 RMK AO2 SLP097 70057 T00890061 10156 20089 53028=
200802181128 SPECI KATL 181128Z 28006KT 10SM BKN018 BKN250 09/07 A2981 RMK AO2=
200802181128 SPECI KATL 181128Z 28006KT 10SM BKN018 BKN250 09/07 A2981 RMK AO2=
200802181052 METAR KATL 181052Z 30010KT 10SM FEW015 SCT022 SCT250 10/07 A2980 RMK AO2 SLP088 T01000072 $=
200802181045 SPECI KATL 181045Z 30013KT 10SM FEW015 SCT022 SCT250 11/07 A2979 RMK AO2 $=
200802181045 SPECI KATL 181045Z 30013KT 10SM FEW015 SCT022 SCT250 11/07 A2979 RMK AO2 $=
200802181031 SPECI KATL 181031Z 32010KT 10SM BKN016 BKN028 BKN250 11/08 A2978 RMK AO2 $=
200802181031 SPECI KATL 181031Z 32010KT 10SM BKN016 BKN028 BKN250 11/08 A2978 RMK AO2 $=
200802181015 SPECI KATL 181015Z 33014KT 10SM BKN012 BKN024 BKN250 11/09 A2977 RMK AO2 $=
200802181015 SPECI KATL 181015Z 33014KT 10SM BKN012 BKN024 BKN250 11/09 A2977 RMK AO2 $=
200802180952 METAR KATL 180952Z 30008KT 10SM FEW012 BKN020 BKN250 12/10 A2975 RMK AO2 SLP072 T01170100 $=
200802180940 SPECI KATL 180940Z 29010KT 10SM BKN013 BKN025 BKN250 12/10 A2975 RMK AO2 $=
200802180940 SPECI KATL 180940Z 29010KT 10SM BKN013 BKN025 BKN250 12/10 A2975 RMK AO2 $=
200802180916 SPECI KATL 180916Z 29007KT 10SM BKN015 BKN250 13/11 A2974 RMK AO2 $=
200802180916 SPECI KATL 180916Z 29007KT 10SM BKN015 BKN250 13/11 A2974 RMK AO2 $=
200802180852 METAR KATL 180852Z COR 28008KT 10SM FEW012 SCT250 13/11 A2974 RMK AO2 SLP066 T01280111 50003 $=
200802180752 METAR KATL 180752Z 26006KT 10SM FEW012 SCT250 14/12 A2974 RMK AO2 SLP065 T01390122 $=
200802180708 SPECI KATL 180708Z 27006KT 10SM SCT012 SCT250 14/13 A2973 RMK AO2 $=
200802180708 SPECI KATL 180708Z 27006KT 10SM SCT012 SCT250 14/13 A2973 RMK AO2 $=
200802180652 METAR KATL 180652Z 27007KT 10SM FEW008 BKN012 BKN030 BKN250 15/13 A2973 RMK AO2 SLP064 T01500133 $=
200802180631 SPECI KATL 180631Z 25007KT 10SM SCT008 SCT012 BKN020 15/13 A2973 RMK AO2 $=
200802180631 SPECI KATL 180631Z 25007KT 10SM SCT008 SCT012 BKN020 15/13 A2973 RMK AO2 $=
200802180452 METAR KATL 180452Z 22005KT 10SM BKN009 15/14 A2972 RMK AO2 SLP061 T01500139 402060106 $=
200802180352 METAR KATL 180352Z 22007KT 10SM FEW015 SCT070 BKN150 BKN250 16/14 A2973 RMK AO2 SLP063 T01610144 $=
200802180336 SPECI KATL 180336Z 22007KT 10SM SCT017 SCT070 BKN150 BKN250 16/14 A2973 RMK AO2 $=
200802180336 SPECI KATL 180336Z 22007KT 10SM SCT017 SCT070 BKN150 BKN250 16/14 A2973 RMK AO2 $=
200802180252 METAR KATL 180252Z 23008KT 10SM BKN016 OVC070 17/14 A2972 RMK AO2 SLP062 60000 T01670144 52007 $=
200802180204 SPECI KATL 180204Z 20012KT 10SM BKN018 BKN070 17/14 A2972 RMK AO2 $=
200802180204 SPECI KATL 180204Z 20012KT 10SM BKN018 BKN070 17/14 A2972 RMK AO2 $=
200802180152 METAR KATL 180152Z 21013KT 10SM SCT018 SCT070 17/14 A2971 RMK AO2 RAB05E14 SLP059 P0000 T01720144 $=
200802180147 SPECI KATL 180147Z 21011KT 10SM FEW018 SCT023 BKN070 17/14 A2971 RMK AO2 RAB05E14 P0000 $=
200802180147 SPECI KATL 180147Z 21011KT 10SM FEW018 SCT023 BKN070 17/14 A2971 RMK AO2 RAB05E14 P0000 $=
200802172352 METAR KATL 172352Z 17012KT 9SM SCT017 BKN042 OVC080 18/16 A2970 RMK AO2 TSE15RAE42 SLP056 CB DSNT NW-NE TS DSIPTD P0003 60057 T01780161 10206 20161 58007 $=
200802172228 SPECI KATL 172228Z 00000KT 2SM +TSRA BR SCT008 BKN022CB OVC045 16/15 A2973 RMK AO2 TWR VIS 2 1/2 OCNL LTGICCA TS VC SE MOV NE P0025 $=
200802172228 SPECI KATL 172228Z 00000KT 2SM +TSRA BR SCT008 BKN022CB OVC045 16/15 A2973 RMK AO2 TWR VIS 2 1/2 OCNL LTGICCA TS VC SE MOV NE P0025 $=
200802172219 SPECI KATL 172219Z 26006KT 2 1/2SM -TSRA BR FEW008 BKN022CB OVC045 17/15 A2975 RMK AO2 OCNL LTGICCA TS VC NE MOV NE P0015 $=
200802172219 SPECI KATL 172219Z 26006KT 2 1/2SM -TSRA BR FEW008 BKN022CB OVC045 17/15 A2975 RMK AO2 OCNL LTGICCA TS VC NE MOV NE P0015 $=
200802172216 SPECI KATL 172216Z 26009KT 2 1/2SM TS BR BKN022CB OVC045 17/16 A2975 RMK AO2 RAEMM OCNL LTGICCA TS VC NE MOV NE P0011 $=
200802172216 SPECI KATL 172216Z 26009KT 2 1/2SM TS BR BKN022CB OVC045 17/16 A2975 RMK AO2 RAEMM OCNL LTGICCA TS VC NE MOV NE P0011 $=
200802172152 METAR KATL 172152Z 17018G25KT 3SM +TSRA BKN022CB OVC029 18/16 A2972 RMK AO2 SFC VIS 5 TSB07RAB05 SLP061 FRQ LTGICCCCGCA ALQDS TS OHD ALQDS MOV NE P0011 T01780156 $=
200802172108 SPECI KATL 172108Z COR 18019G24KT 10SM -TSRA BKN033CB BKN042 BKN048 19/14 A2973 RMK AO2 TSB07RAB05 OCNL LTGICCC ALQDS TS ALQDS MOV NE P0000=
200802172108 SPECI KATL 172108Z COR 18019G24KT 10SM -TSRA BKN033CB BKN042 BKN048 19/14 A2973 RMK AO2 TSB07RAB05 OCNL LTGICCC ALQDS TS ALQDS MOV NE P0000=
200802172052 METAR KATL 172052Z 17013G26KT 10SM OVC033 19/14 A2973 RMK AO2 PK WND 14028/1958 SLP062 LTG DSNT W CB DSNT W T01940139 56031=
200802171952 METAR KATL 171952Z COR 17019G23KT 10SM BKN036 OVC045 20/13 A2973 RMK AO2 PK WND 16029/1917 SLP065 T02000133=
200802171852 METAR KATL 171852Z 17021G25KT 10SM BKN032 OVC041 19/13 A2977 RMK AO2 PK WND 17029/1819 SLP077 T01940128=
200802171839 SPECI KATL 171839Z 18021G28KT 10SM BKN034 BKN042 19/13 A2977 RMK AO2 PK WND 17029/1819=
200802171839 SPECI KATL 171839Z 18021G28KT 10SM BKN034 BKN042 19/13 A2977 RMK AO2 PK WND 17029/1819=
200802171752 SPECI KATL 171752Z 17015G25KT 10SM BKN028 BKN033 BKN150 19/12 A2982 RMK AO2 PK WND 14027/1737 SLP095 BKN028 V SCT T01890122 10189 20111 58057=
200802171718 SPECI KATL 171718Z 16015G21KT 10SM SCT022 BKN055 17/12 A2987 RMK AO2 PRESFR=
200802171718 SPECI KATL 171718Z 16015G21KT 10SM SCT022 BKN055 17/12 A2987 RMK AO2 PRESFR=
200802171652 METAR KATL 171652Z 15010G14KT 9SM BKN019 BKN027 OVC055 15/11 A2992 RMK AO2 PRESFR SLP128 T01500106=
200802171552 METAR KATL 171552Z 15010G15KT 8SM OVC020 13/09 A2997 RMK AO2 SLP147 T01330094=
200802171452 METAR KATL 171452Z 14011G16KT 7SM SCT016 OVC023 12/09 A3000 RMK AO2 SLP155 T01220089 56006=
200802171352 METAR KATL 171352Z 15010G17KT 8SM BKN016 OVC040 12/08 A3000 RMK AO2 SLP156 T01170083=
200802171323 SPECI KATL 171323Z 13010G16KT 7SM BKN021 OVC041 11/07 A2999 RMK AO2=
200802171323 SPECI KATL 171323Z 13010G16KT 7SM BKN021 OVC041 11/07 A2999 RMK AO2=
200802171252 METAR KATL 171252Z 13011KT 9SM BKN043 BKN075 BKN250 11/07 A3000 RMK AO2 SLP156 T01110072=
200802171152 METAR KATL 171152Z 12008KT 10SM BKN041 BKN075 BKN250 11/06 A3002 RMK AO2 SLP163 T01110056 10144 20106 55000=
200802171052 METAR KATL 171052Z 13012G18KT 10SM FEW070 SCT250 11/03 A3000 RMK AO2 SLP156 T01110033=
200802170952 METAR KATL 170952Z COR 12010G21KT 10SM FEW070 SCT250 12/04 A3001 RMK AO2 SLP158 T01170044=
200802170852 METAR KATL 170852Z 13008KT 10SM FEW200 SCT250 12/05 A3002 RMK AO2 SLP161 T01220050 55000=
200802170752 METAR KATL 170752Z 12009KT 10SM BKN250 13/06 A3001 RMK AO2 SLP159 T01280061=
200802170652 METAR KATL 170652Z 12008KT 10SM FEW120 BKN250 13/06 A3002 RMK AO2 SLP162 T01330056=
200802170552 METAR KATL 170552Z 12007KT 10SM FEW120 14/06 A3002 RMK AO2 SLP161 T01440056 10172 20139 56017=
200802170452 METAR KATL 170452Z 12008KT 10SM CLR 15/06 A3003 RMK AO2 SLP167 T01500061 401940094=
200802170352 METAR KATL 170352Z 12007KT 10SM FEW100 15/07 A3005 RMK AO2 SLP172 T01500067=
200802170252 METAR KATL 170252Z 11009KT 10SM BKN100 OVC250 16/07 A3007 RMK AO2 SLP180 T01610067 57003=
200802170152 METAR KATL 170152Z 12005KT 10SM BKN100 OVC250 17/07 A3007 RMK AO2 SLP182 T01670067=
200802170052 METAR KATL 170052Z 11004KT 10SM FEW100 SCT150 BKN250 17/07 A3007 RMK AO2 SLP181 T01670067=
200802162352 METAR KATL 162352Z 09006KT 10SM SCT100 BKN250 17/07 A3008 RMK AO2 SLP184 T01670067 10194 20167 56008=
200802162252 SPECI KATL 162252Z 10004KT 10SM SCT120 BKN250 18/07 A3008 RMK AO2 SLP185 T01830067=
200802162152 METAR KATL 162152Z 00000KT 10SM SCT150 BKN200 BKN250 19/06 A3009 RMK AO2 SLP187 T01890061=
200802162052 METAR KATL 162052Z 12003KT 10SM SCT150 BKN200 OVC250 19/07 A3010 RMK AO2 SLP191 BINOVC SE AND S T01940067 56021=
200802161952 METAR KATL 161952Z 17006KT 10SM SCT150 BKN200 BKN250 19/07 A3010 RMK AO2 SLP192 T01890067=
200802161852 METAR KATL 161852Z COR 15006KT 10SM SCT150 OVC200 18/06 A3013 RMK AO2 SLP201 T01830061=
200802161752 METAR KATL 161752Z 19003KT 10SM SCT150 BKN200 OVC250 18/07 A3017 RMK AO2 SLP214 T01780072 10183 20094 58016=
200802161652 METAR KATL 161652Z 00000KT 10SM SCT150 BKN200 OVC250 18/07 A3019 RMK AO2 SLP222 T01780067=
200802161552 METAR KATL 161552Z 03004KT 10SM SCT150 SCT200 BKN250 17/07 A3021 RMK AO2 SLP229 T01670072=
200802161452 METAR KATL 161452Z 02005KT 10SM FEW100 SCT140 SCT180 BKN250 14/07 A3022 RMK AO2 SLP231 T01440072 50002=
200802161352 METAR KATL 161352Z 01005KT 10SM FEW140 SCT180 BKN250 13/08 A3022 RMK AO2 SLP234 T01280078=
200802161252 METAR KATL 161252Z 00000KT 10SM FEW075 SCT140 SCT200 BKN250 09/07 A3022 RMK AO2 SLP234 T00940072=
200802161152 METAR KATL 161152Z 32005KT 10SM BKN070 BKN250 11/07 A3021 RMK AO2 SLP230 T01060072 10122 20106 55003=
200802161052 METAR KATL 161052Z 32005KT 10SM BKN080 BKN250 11/08 A3020 RMK AO2 SLP227 T01110078=
200802160952 METAR KATL 160952Z COR 33004KT 10SM BKN080 BKN140 BKN250 11/07 A3020 RMK AO2 SLP226 T01110072=
200802160852 METAR KATL 160852Z 32007KT 10SM BKN080 BKN140 BKN250 12/07 A3022 RMK AO2 SLP231 T01170072 53003=
200802160752 METAR KATL 160752Z COR 31008KT 10SM OVC080 11/07 A3021 RMK AO2 SLP229 T01110072=
200802160652 METAR KATL 160652Z 32005KT 10SM BKN090 BKN150 BKN250 11/07 A3021 RMK AO2 SLP228 T01110067=
200802160552 METAR KATL 160552Z 29004KTKT 10SMSM BKN090 OVC150 07/01 A3021=
200802160452 METAR KATL 160452Z 00000KT 10SM BKN085 BKN120 OVC150 12/07 A3021 RMK AO2 SLP231 T01220072 401670011=
200802160352 METAR KATL 160352Z 29005KT 10SM FEW090 SCT110 OVC150 12/07 A3023 RMK AO2 SLP237 T01220072=
200802160152 METAR KATL 160152Z 28004KT 10SM FEW090 OVC150 13/07 A3024 RMK AO2 SLP244 T01280072=
200802160052 METAR KATL 160052Z 29004KT 10SM BKN100 BKN250 13/07 A3024 RMK AO2 SLP245 T01330072=
200802152352 METAR KATL 152352Z 33005KT 10SM FEW100 SCT200 BKN250 14/06 A3022 RMK AO2 SLP237 T01390061 10167 20139 56003=
200802152252 METAR KATL 152252Z 28006KT 10SM FEW150 BKN200 BKN250 15/06 A3022 RMK AO2 SLP236 T01500061=
200802152152 METAR KATL 152152Z 29008KT 10SM FEW040 SCT090 BKN220 BKN250 16/06 A3022 RMK AO2 SLP235 T01610061=
200802152052 METAR KATL 152052Z 32007KT 10SM FEW090 SCT150 BKN220 BKN250 17/06 A3023 RMK AO2 SLP238 T01670056 56017=
200802151952 METAR KATL 151952Z 27005KT 10SM FEW090 SCT150 BKN220 OVC250 16/05 A3023 RMK AO2 SLP238 T01610050=
200802151852 METAR KATL 151852Z 35008KT 10SM FEW090 SCT150 BKN220 OVC250 16/06 A3025 RMK AO2 SLP247 T01610056=
200802151752 METAR KATL 151752Z VRB04KT 10SM FEW150 SCT250 OVC280 15/03 A3028 RMK AO2 SLP255 T01500033 10150 20017 58016=
200802151652 METAR KATL 151652Z 30008KT 10SM FEW150 BKN250 OVC280 13/02 A3031 RMK AO2 SLP267 T01330022=
200802151552 METAR KATL 151552Z COR 27007KT 10SM FEW150 BKN250 BKN280 13/M01 A3032 RMK AO2 SLP271 T01281011=
200802151452 METAR KATL 151452Z 24003KT 10SM FEW220 BKN250 BKN280 09/M02 A3033 RMK AO2 SLP274 T00891022 51009=
200802151352 METAR KATL 151352Z 22003KT 10SM FEW140 SCT200 BKN250 04/M02 A3033 RMK AO2 SLP274 T00441022=
200802151252 METAR KATL 151252Z COR 00000KT 10SM FEW140 SCT200 BKN250 02/M03 A3030 RMK AO2 SLP267 T00171033=
200802151152 METAR KATL 151152Z 00000KT 10SM FEW120 SCT200 BKN250 02/M04 A3030 RMK AO2 SLP265 T00171039 10050 20011 53007=
200802151052 METAR KATL 151052Z 23003KT 10SM FEW200 SCT250 01/M04 A3029 RMK AO2 SLP263 T00111039=
200802150952 METAR KATL 150952Z COR 00000KT 10SM FEW200 BKN250 02/M04 A3027 RMK AO2 SLP256 T00221044=
200802150852 METAR KATL 150852Z COR 29003KT 10SM FEW200 SCT250 02/M04 A3028 RMK AO2 SLP256 T00171044 50011=
200802150752 METAR KATL 150752Z COR 28003KT 10SM FEW250 03/M05 A3028 RMK AO2 SLP258 T00281050=
200802150652 METAR KATL 150652Z 22004KT 10SM FEW200 SCT250 02/M04 A3025 RMK AO2 SLP250 T00171039=
200802150552 METAR KATL 150552Z COR 22003KT 10SM FEW200 BKN250 04/M05 A3024 RMK AO2 SLP246 T00441050 10100 20044 52003=
200802150452 METAR KATL 150452Z COR 17005KT 10SM SCT250 04/M03 A3024 RMK AO2 SLP246 T00441033 401331056=
200802150352 METAR KATL 150352Z COR 20003KT 10SM FEW200 BKN250 06/M04 A3023 RMK AO2 SLP245 T00561039=
200802150252 METAR KATL 150252Z 22003KT 10SM FEW200 06/M04 A3023 RMK AO2 SLP245 T00611039 51007=
200802150152 METAR KATL 150152Z 00000KT 10SM FEW200 SCT250 07/M04 A3022 RMK AO2 SLP243 T00721044=
200802150052 METAR KATL 150052Z 00000KT 10SM SCT200 BKN250 09/M06 A3023 RMK AO2 SLP244 T00941056=
200802142352 METAR KATL 142352Z 00000KT 10SM BKN200 BKN250 10/M04 A3021 RMK AO2 SLP238 T01001044 10133 20078 53007=
200802142252 METAR KATL 142252Z 21005KT 10SM BKN200 BKN250 12/M04 A3020 RMK AO2 SLP233 T01171044=
200802142152 METAR KATL 142152Z 21006KT 10SM FEW200 BKN250 13/M07 A3019 RMK AO2 SLP230 T01331067=
200802142052 METAR KATL 142052Z 20005KT 10SM FEW200 BKN250 13/M07 A3019 RMK AO2 SLP230 T01281072 56012=
200802141952 METAR KATL 141952Z 00000KT 10SM BKN250 12/M08 A3019 RMK AO2 SLP230 T01171083=
200802141852 SPECI KATL 141852Z 00000KT 10SM FEW250 11/M07 A3022 RMK AO2 SLP239 T01061067=
200802141752 METAR KATL 141752Z 00000KT 10SM FEW250 08/M07 A3023 RMK AO2 SLP243 T00781067 10078 21056 58004=
200802141652 METAR KATL 141652Z 00000KT 10SM CLR 05/M06 A3025 RMK AO2 SLP252 T00501056=
200802141552 METAR KATL 141552Z VRB04KT 10SM CLR 02/M06 A3025 RMK AO2 SLP255 T00171061=
200802141452 METAR KATL 141452Z 29006KT 10SM CLR M01/M07 A3024 RMK AO2 SLP251 T10061067 52028=
200802141352 METAR KATL 141352Z 31006KT 10SM CLR M03/M08 A3021 RMK AO2 SLP243 T10331078=
200802141252 METAR KATL 141252Z 33009KT 10SM CLR M05/M08 A3018 RMK AO2 SLP232 T10501083=
200802141152 METAR KATL 141152Z 33009KT 10SM CLR M05/M08 A3015 RMK AO2 SLP223 T10501083 11039 21056 53019=
200802141052 METAR KATL 141052Z 33010KT 10SM CLR M05/M08 A3012 RMK AO2 SLP213 T10501083=
200802140952 METAR KATL 140952Z 31009KT 10SM CLR M05/M08 A3012 RMK AO2 SLP212 T10501083=
200802140852 METAR KATL 140852Z 31008KT 10SM CLR M05/M08 A3009 RMK AO2 SLP203 T10501083 51015=
200802140752 METAR KATL 140752Z 33009KT 10SM CLR M04/M08 A3008 RMK AO2 SLP198 T10441083=
200802140652 METAR KATL 140652Z 33010KT 10SM CLR M04/M08 A3007 RMK AO2 SLP192 T10441083=
200802140552 METAR KATL 140552Z 31009KT 10SM CLR M04/M08 A3005 RMK AO2 SLP187 T10391083 11011 21039 51013=
200802140452 METAR KATL 140452Z 30011KT 10SM FEW022 M04/M08 A3004 RMK AO2 SLP182 T10391078 401391039=
200802140352 METAR KATL 140352Z 31014G22KT 10SM FEW022 M03/M08 A3004 RMK AO2 PK WND 32028/0331 SLP182 T10331078=
200802140252 METAR KATL 140252Z 31019G25KT 10SM SCT023 M03/M08 A3001 RMK AO2 PK WND 32028/0154 SLP171 SCT V BKN T10281078 52025=
200802140152 METAR KATL 140152Z 31014G22KT 10SM BKN025 M02/M07 A2999 RMK AO2 SLP163 T10221072=
200802140052 METAR KATL 140052Z 31021G29KT 10SM BKN026 M02/M07 A2996 RMK AO2 PK WND 31029/0051 SLP151 T10221072=
200802132352 METAR KATL 132352Z 31017KT 10SM BKN028 M01/M07 A2993 RMK AO2 SLP142 T10111067 10000 21011 53029=
200802132252 METAR KATL 132252Z COR 30014G19KT 10SM OVC026 M01/M06 A2989 RMK AO2 PK WND 32027/2222 SLP128 BINOVC T10061056=
200802132152 METAR KATL 132152Z 30016G29KT 10SM BKN020 M01/M06 A2986 RMK AO2 PK WND 30029/2143 SLP118 T10061056=
200802132052 METAR KATL 132052Z 30013G22KT 8SM OVC016 M01/M05 A2984 RMK AO2 PK WND 30028/2035 SLP110 T10061050 53017=
200802132012 SPECI KATL 132012Z 30016G23KT 7SM OVC014 M01/M04 A2983 RMK AO2=
200802132012 SPECI KATL 132012Z 30016G23KT 7SM OVC014 M01/M04 A2983 RMK AO2=
200802131900 SPECI KATL 131900Z 30020G24KT 3SM BR OVC010 M01/M03 A2981 RMK AO2 SFC VIS 5=
200802131900 SPECI KATL 131900Z 30020G24KT 3SM BR OVC010 M01/M03 A2981 RMK AO2 SFC VIS 5=
200802131852 METAR KATL 131852Z 31017G24KT 3SM BR OVC008 M01/M03 A2981 RMK AO2 PK WND 29027/1824 SFC VIS 5 SLP098 T10061028=
200802131752 METAR KATL 131752Z 31019G24KT 3SM BR OVC008 00/M02 A2979 RMK AO2 PK WND 30026/1736 SFC VIS 5 SLP092 60000 T00001022 10094 20000 50015=
200802131622 SPECI KATL 131622Z 32019G24KT 6SM BR OVC008 02/M01 A2979 RMK AO2 DZE16 P0000=
200802131622 SPECI KATL 131622Z 32019G24KT 6SM BR OVC008 02/M01 A2979 RMK AO2 DZE16 P0000=
200802131454 SPECI KATL 131454Z 30015KT 3SM -DZ BR OVC006 03/01 A2975 RMK AO2 SFC VIS 5 DZB54 P0000=
200802131454 SPECI KATL 131454Z 30015KT 3SM -DZ BR OVC006 03/01 A2975 RMK AO2 SFC VIS 5 DZB54 P0000=
200802131452 METAR KATL 131452Z 30016G21KT 6SM BR OVC006 03/01 A2975 RMK AO2 SLP074 60000 T00280011 53027=
200802131352 METAR KATL 131352Z COR 31017G22KT 10SM OVC008 04/03 A2972 RMK AO2 PK WND 31026/1316 DZE47 SLP064 P0000 T00440028=
200802131304 SPECI KATL 131304Z 32016G21KT 2SM -DZ BR OVC006 07/06 A2970 RMK AO2 SFC VIS 6 P0000=
200802131304 SPECI KATL 131304Z 32016G21KT 2SM -DZ BR OVC006 07/06 A2970 RMK AO2 SFC VIS 6 P0000=
200802131252 METAR KATL 131252Z COR 32016KT 8SM -DZ OVC007 08/06 A2968 RMK AO2 DZB46 CIG 006V010 SLP051 P0000 T00780061=
200802131152 METAR KATL 131152Z COR 30012KT 10SM BKN007 OVC012 09/08 A2966 RMK AO2 SLP043 60000 70026 T00940078 10139 20094 53005=
200802131052 METAR KATL 131052Z COR 31012KT 10SM BKN006 OVC012 11/09 A2966 RMK AO2 SLP039 T01060089=
200802131002 SPECI KATL 131002Z 30007KT 10SM BKN010 BKN046 OVC140 11/09 A2965 RMK AO2=
200802131002 SPECI KATL 131002Z 30007KT 10SM BKN010 BKN046 OVC140 11/09 A2965 RMK AO2=
200802130952 METAR KATL 130952Z 30009KT 10SM SCT008 OVC045 11/09 A2965 RMK AO2 SLP035 T01060094=
200802130932 SPECI KATL 130932Z 30008KT 10SM FEW008 BKN038 OVC140 11/09 A2965 RMK AO2=
200802130932 SPECI KATL 130932Z 30008KT 10SM FEW008 BKN038 OVC140 11/09 A2965 RMK AO2=
200802130855 SPECI KATL 130855Z 30009KT 10SM SCT010 OVC050 11/09 A2965 RMK AO2=
200802130855 SPECI KATL 130855Z 30009KT 10SM SCT010 OVC050 11/09 A2965 RMK AO2=
200802130852 METAR KATL 130852Z 31012KT 10SM SCT010 BKN020 OVC049 11/09 A2965 RMK AO2 RAE41 SLP037 P0000 60000 T01110094 58003=
200802130849 SPECI KATL 130849Z 30012KT 10SM SCT010 BKN018 OVC049 11/10 A2965 RMK AO2 RAE41 P0000=
200802130849 SPECI KATL 130849Z 30012KT 10SM SCT010 BKN018 OVC049 11/10 A2965 RMK AO2 RAE41 P0000=
200802130839 SPECI KATL 130839Z 30014KT 9SM -RA FEW008 BKN012 OVC042 12/10 A2965 RMK AO2 P0000=
200802130839 SPECI KATL 130839Z 30014KT 9SM -RA FEW008 BKN012 OVC042 12/10 A2965 RMK AO2 P0000=
200802130723 SPECI KATL 130723Z 21007KT 1 1/2SM -DZ OVC003 13/13 A2965 RMK AO2 SFC VIS 8 DZB23 TWRINC P0000=
200802130723 SPECI KATL 130723Z 21007KT 1 1/2SM -DZ OVC003 13/13 A2965 RMK AO2 SFC VIS 8 DZB23 TWRINC P0000=
200802130715 SPECI KATL 130715Z 20006KT 9SM BKN003 OVC010 13/13 A2966 RMK AO2=
200802130715 SPECI KATL 130715Z 20006KT 9SM BKN003 OVC010 13/13 A2966 RMK AO2=
200802130652 METAR KATL 130652Z 17006KT 10SM SCT005 BKN012 OVC075 13/13 A2966 RMK AO2 SLP039 T01330128=
200802130649 SPECI KATL 130649Z 17007KT 10SM SCT005 BKN012 OVC075 13/13 A2966 RMK AO2=
200802130649 SPECI KATL 130649Z 17007KT 10SM SCT005 BKN012 OVC075 13/13 A2966 RMK AO2=
200802130552 METAR KATL 130552Z 20007KT 10SM BKN007 BKN020 OVC090 13/13 A2970 RMK AO2 RAE05 SLP054 P0001 60026 T01330128 10178 20133 56021=
200802130542 SPECI KATL 130542Z 18008KT 10SM FEW008 BKN020 BKN090 BKN200 13/12 A2970 RMK AO2 RAE05 P0001=
200802130542 SPECI KATL 130542Z 18008KT 10SM FEW008 BKN020 BKN090 BKN200 13/12 A2970 RMK AO2 RAE05 P0001=
200802130452 METAR KATL 130452Z 15006KT 6SM -RA BR FEW012 BKN035 OVC090 13/12 A2971 RMK AO2 PRESFR SLP059 P0025 T01330122 402000083=
200802130450 SPECI KATL 130450Z 16004KT 6SM -RA BR FEW012 BKN035 OVC090 13/13 A2972 RMK AO2 PRESFR P0025 402000083=
200802130450 SPECI KATL 130450Z 16004KT 6SM -RA BR FEW012 BKN035 OVC090 13/13 A2972 RMK AO2 PRESFR P0025 402000083=
200802130407 SPECI KATL 130407Z 22008KT 2 1/2SM +RA BR BKN022 OVC030 14/12 A2976 RMK AO2 SFC VIS 3 P0006=
200802130407 SPECI KATL 130407Z 22008KT 2 1/2SM +RA BR BKN022 OVC030 14/12 A2976 RMK AO2 SFC VIS 3 P0006=
200802130402 SPECI KATL 130402Z 22008KT 6SM RA BKN025 OVC040 15/12 A2976 RMK AO2 P0001=
200802130402 SPECI KATL 130402Z 22008KT 6SM RA BKN025 OVC040 15/12 A2976 RMK AO2 P0001=
200802130352 METAR KATL 130352Z 18009KT 10SM -RA SCT026 BKN035 OVC050 15/11 A2975 RMK AO2 RAB32 SLP070 P0000 T01500111=
200802130252 SPECI KATL 130252Z 16009KT 10SM FEW080 BKN100 BKN250 16/11 A2976 RMK AO2 SLP077 T01560106 56022=
200802130152 METAR KATL 130152Z 15009KT 10SM FEW055 SCT200 BKN250 16/10 A2978 RMK AO2 SLP082 T01610100=
200802130052 METAR KATL 130052Z COR 15010KT 10SM FEW045 SCT080 BKN250 17/09 A2981 RMK AO2 SLP091 T01670089=
200802122352 METAR KATL 122352Z 16009KT 10SM FEW050 SCT065 BKN080 BKN250 18/08 A2983 RMK AO2 SLP099 MDT CU VC NE T01780083 10200 20172 56013=
200802122152 METAR KATL 122152Z 18012KT 10SM SCT065 BKN080 BKN250 19/08 A2984 RMK AO2 PK WND 17027/2128 PRESFR SLP102 T01890078=
200802122052 METAR KATL 122052Z COR 17017G24KT 10SM FEW050 SCT070 BKN085 BKN250 19/08 A2987 RMK AO2 SLP112 T01940083 58045=
200802121852 METAR KATL 121852Z 17017KT 10SM FEW050 SCT060 BKN080 BKN180 OVC250 18/09 A2998 RMK AO2 SLP150 T01830089=
200802121752 METAR KATL 121752Z 19012G20KT 10SM SCT040 BKN050 BKN070 OVC180 17/08 A3000 RMK AO2 SLP159 T01720083 10172 20094 58027=
200802121652 METAR KATL 121652Z 18012G18KT 10SM SCT048 BKN065 BKN180 BKN250 16/08 A3004 RMK AO2 SLP170 T01610078=
200802121552 METAR KATL 121552Z 12009KT 10SM FEW050 SCT070 BKN180 BKN250 13/04 A3007 RMK AO2 SLP182 T01330044=
200802121452 METAR KATL 121452Z 12006KT 10SM BKN060 BKN250 12/03 A3009 RMK AO2 SLP188 T01170028 50000=
200802121352 METAR KATL 121352Z 10008KT 10SM BKN060 BKN200 BKN250 10/01 A3010 RMK AO2 SLP192 T01000006=
200802121252 METAR KATL 121252Z COR 11006KT 10SM SCT060 SCT110 BKN200 OVC250 09/00 A3010 RMK AO2 SLP192 VIRGA OHD-ALQDS T00940000=
200802121152 METAR KATL 121152Z 12005KT 10SM FEW120 BKN200 OVC250 09/00 A3009 RMK AO2 SLP189 T00940000 10094 20083 56012=
200802121052 METAR KATL 121052Z 14005KT 10SM SCT120 BKN200 OVC250 09/M01 A3010 RMK AO2 SLP192 T00941006=
200802120952 METAR KATL 120952Z 16007KT 10SM BKN120 OVC200 09/M01 A3011 RMK AO2 SLP194 T00891006=
200802120852 METAR KATL 120852Z 14006KT 10SM SCT110 OVC200 08/M02 A3012 RMK AO2 SLP199 T00831017 58013=
200802120752 METAR KATL 120752Z 14004KT 10SM FEW150 BKN200 BKN250 09/M02 A3015 RMK AO2 SLP207 T00941022=
200802120652 METAR KATL 120652Z 20004KT 10SM SCT200 BKN250 09/M02 A3016 RMK AO2 SLP213 T00891017=
200802120552 METAR KATL 120552Z 18006KT 10SM FEW200 BKN250 09/M01 A3016 RMK AO2 SLP214 T00941011 10139 20094 56006=
200802120452 METAR KATL 120452Z 17005KT 10SM BKN250 11/M01 A3017 RMK AO2 SLP217 T01061011 401831011=
200802120352 METAR KATL 120352Z 17007KT 10SM FEW120 SCT250 11/M02 A3017 RMK AO2 SLP218 T01111022=
200802120252 METAR KATL 120252Z 17006KT 10SM BKN200 12/M02 A3018 RMK AO2 SLP223 T01221022 50002=
200802120152 METAR KATL 120152Z 17006KT 10SM SCT200 12/M03 A3019 RMK AO2 SLP227 T01221028=
200802120052 METAR KATL 120052Z 20006KT 10SM FEW200 13/M03 A3018 RMK AO2 SLP226 T01281028=
200802112352 METAR KATL 112352Z 21004KT 10SM FEW200 14/M02 A3017 RMK AO2 SLP223 T01391022 10183 20139 55004=
200802112252 METAR KATL 112252Z 22007KT 10SM FEW250 17/M04 A3017 RMK AO2 SLP219 T01721044=
200802112152 METAR KATL 112152Z 25006KT 10SM FEW250 18/M05 A3017 RMK AO2 SLP219 T01781050=
200802112052 METAR KATL 112052Z 24009KT 10SM FEW250 18/M06 A3019 RMK AO2 SLP224 T01831056 56029=
200802111952 METAR KATL 111952Z 25007G18KT 10SM FEW250 18/M06 A3021 RMK AO2 SLP232 T01781061=
200802111852 METAR KATL 111852Z 23011G15KT 10SM CLR 17/M05 A3023 RMK AO2 SLP239 T01671050=
200802111752 METAR KATL 111752Z 00000KT 10SM CLR 14/M07 A3027 RMK AO2 SLP254 T01441067 10144 21011 58014=
200802111652 METAR KATL 111652Z 00000KT 10SM CLR 11/M08 A3030 RMK AO2 SLP262 FU DSNT NW-NE T01111078=
200802111552 METAR KATL 111552Z VRB03KT 10SM FEW010 08/M12 A3032 RMK AO2 SLP270 FU FEW010 T00781117=
200802111452 METAR KATL 111452Z 31003KT 10SM FEW010 04/M13 A3032 RMK AO2 SLP271 FU FEW010 T00391128 51009=
200802111352 METAR KATL 111352Z 33005KT 10SM SCT010 01/M14 A3031 RMK AO2 SLP269 FU SCT010 T00111139=
200802111252 METAR KATL 111252Z 31006KT 10SM FEW008 M01/M13 A3030 RMK AO2 SLP266 FU FEW008 T10061128=
200802111152 METAR KATL 111152Z 33004KT 10SM CLR M01/M12 A3029 RMK AO2 SLP262 T10061122 10061 21006 55001=
200802111052 METAR KATL 111052Z 32004KT 10SM CLR 00/M11 A3029 RMK AO2 SLP260 T00001111=
200802110952 METAR KATL 110952Z 32006KT 10SM CLR 01/M09 A3028 RMK AO2 SLP258 T00061089=
200802110852 METAR KATL 110852Z 31007KT 10SM CLR 01/M07 A3029 RMK AO2 SLP261 T00111067 51002=
200802110752 METAR KATL 110752Z 31005KT 10SM FEW250 02/M06 A3029 RMK AO2 SLP259 T00221061=
200802110652 METAR KATL 110652Z 31009KT 10SM FEW250 04/M03 A3030 RMK AO2 SLP260 T00391033=
200802110552 METAR KATL 110552Z 32012KT 10SM CLR 06/M03 A3028 RMK AO2 SLP256 T00561028 10128 20056 51003=
200802110452 METAR KATL 110452Z 30007KT 10SM CLR 07/M03 A3028 RMK AO2 SLP255 T00721028 401780039=
200802110352 METAR KATL 110352Z 28006KT 10SM CLR 09/M03 A3028 RMK AO2 SLP256 T00891033=
200802110252 METAR KATL 110252Z 30006KT 10SM CLR 09/M03 A3027 RMK AO2 SLP254 T00941033 53004=
200802110152 METAR KATL 110152Z 29009KT 10SM CLR 11/M04 A3027 RMK AO2 SLP252 T01061039=
200802110052 METAR KATL 110052Z 29011KT 10SM FEW250 12/M04 A3026 RMK AO2 SLP251 T01171044=
200802102252 METAR KATL 102252Z 32017G30KT 10SM FEW250 14/M06 A3025 RMK AO2 PK WND 31030/2243 SLP246 T01441056=
200802102152 METAR KATL 102152Z 31012G26KT 10SM FEW150 SCT250 16/M06 A3024 RMK AO2 PK WND 31032/2117 SLP243 T01611056=
200802102052 METAR KATL 102052Z 30017G22KT 10SM FEW250 17/M06 A3024 RMK AO2 PK WND 31031/2015 SLP241 T01671056 55006=
200802101952 METAR KATL 101952Z 29019G28KT 10SM CLR 17/M06 A3023 RMK AO2 PK WND 29028/1951 SLP237 T01721061=
200802101852 METAR KATL 101852Z COR 30022G33KT 10SM CLR 17/M08 A3024 RMK AO2 PK WND 31033/1850 SLP239 T01721078=
200802101752 METAR KATL 101752Z COR 28014G25KT 10SM CLR 17/M07 A3026 RMK AO2 PK WND 31030/1738 SLP247 T01671067 10172 20039 58005=
200802101652 METAR KATL 101652Z 28010G19KT 10SM CLR 15/M07 A3028 RMK AO2 SLP255 T01501067=
200802101552 METAR KATL 101552Z 26007KT 10SM CLR 12/M05 A3029 RMK AO2 SLP257 T01221050=
200802101452 METAR KATL 101452Z 27008KT 10SM CLR 10/M04 A3027 RMK AO2 SLP254 T01001039 52013=
200802101352 METAR KATL 101352Z 27008KT 10SM CLR 08/M04 A3026 RMK AO2 SLP251 T00781044=
200802101252 METAR KATL 101252Z 28006KT 10SM CLR 04/M06 A3024 RMK AO2 SLP246 T00441056=
200802101152 METAR KATL 101152Z 28007KT 10SM CLR 04/M06 A3023 RMK AO2 SLP241 T00441056 10072 20044 53018=
200802101052 METAR KATL 101052Z 27008KT 10SM CLR 06/M06 A3021 RMK AO2 SLP230 T00611061=
200802100952 METAR KATL 100952Z 27009KT 10SM CLR 07/M06 A3019 RMK AO2 SLP225 T00671061=
200802100852 METAR KATL 100852Z 26008KT 10SM CLR 07/M06 A3018 RMK AO2 SLP220 T00671061 50000=
200802100752 METAR KATL 100752Z 25006KT 10SM CLR 07/M07 A3018 RMK AO2 SLP219 T00671067=
200802100652 METAR KATL 100652Z 25005KT 10SM CLR 07/M07 A3018 RMK AO2 SLP221 T00721067=
200802100552 METAR KATL 100552Z 27005KT 10SM CLR 06/M06 A3018 RMK AO2 SLP221 T00611061 10122 20061 50010=
200802100452 METAR KATL 100452Z 26004KT 10SM CLR 07/M06 A3018 RMK AO2 SLP222 T00721061 401780044=
200802100352 METAR KATL 100352Z 28005KT 10SM CLR 08/M07 A3017 RMK AO2 SLP218 T00831072=
200802100252 METAR KATL 100252Z 29006KT 10SM CLR 09/M07 A3015 RMK AO2 SLP211 T00891072 53023=
200802100152 METAR KATL 100152Z 28005KT 10SM CLR 10/M08 A3012 RMK AO2 SLP203 T01001083=
200802100052 METAR KATL 100052Z 29004KT 10SM CLR 11/M08 A3010 RMK AO2 SLP195 T01111078=
200802092352 METAR KATL 092352Z 30007KT 10SM CLR 12/M08 A3008 RMK AO2 SLP189 T01221083 10178 20122 53020=
200802092252 METAR KATL 092252Z 29012KT 10SM CLR 14/M08 A3006 RMK AO2 SLP180 T01441083=
200802092152 METAR KATL 092152Z 28018G23KT 10SM CLR 16/M09 A3004 RMK AO2 PK WND 29027/2134 SLP173 T01611089=
200802092052 METAR KATL 092052Z 30015G23KT 10SM CLR 17/M07 A3002 RMK AO2 PK WND 31026/2021 SLP166 T01721067 55001=
200802091952 METAR KATL 091952Z 30013KT 10SM CLR 18/M04 A3000 RMK AO2 SLP161 T01781039=
200802091852 METAR KATL 091852Z 30012G21KT 10SM CLR 17/M03 A3001 RMK AO2 SLP161 T01721033=
200802091752 METAR KATL 091752Z 27009G21KT 10SM CLR 17/01 A3002 RMK AO2 SLP168 T01720006 10172 20044 58001=
200802091652 METAR KATL 091652Z 28010KT 10SM CLR 15/03 A3004 RMK AO2 SLP172 T01500033=
200802091552 METAR KATL 091552Z 27010KT 10SM FEW250 13/04 A3004 RMK AO2 SLP172 T01280039=
200802091452 METAR KATL 091452Z 26010KT 10SM FEW250 11/04 A3003 RMK AO2 SLP168 T01110044 53013=
200802091352 METAR KATL 091352Z 25007KT 10SM FEW150 07/01 A3001 RMK AO2 SLP164 T00720011=
200802091252 METAR KATL 091252Z 23008KT 10SM FEW250 05/00 A3000 RMK AO2 SLP161 T00500000=
200802091152 METAR KATL 091152Z 22006KT 10SM FEW250 04/M01 A2999 RMK A02 SLP157 T00441006=
200802091052 METAR KATL 091052Z 23005KT 10SM CLR 04/M01 A2997 RMK AO2 SLP152 T00441006=
200802090952 METAR KATL 090952Z 23005KT 10SM FEW250 05/M01 A2997 RMK AO2 SLP148 T00501006=
200802090852 METAR KATL 090852Z 23004KT 10SM SCT250 05/M01 A2997 RMK AO2 SLP150 T00501006 50002=
200802090752 METAR KATL 090752Z 22003KT 10SM SCT250 06/M01 A2997 RMK AO2 SLP151 T00561006=
200802090652 METAR KATL 090652Z 26005KT 10SM FEW250 06/M01 A2998 RMK AO2 SLP153 T00561006=
200802090552 METAR KATL 090552Z 24003KT 10SM SCT250 06/00 A2996 RMK AO2 SLP147 T00610000 10122 20061 56006=
200802090452 METAR KATL 090452Z 21003KT 10SM FEW250 07/01 A2997 RMK AO2 SLP148 T00720006 401500017=
200802090352 METAR KATL 090352Z 00000KT 10SM FEW250 08/00 A2997 RMK AO2 SLP152 T00830000=
200802090252 METAR KATL 090252Z 24004KT 10SM FEW250 09/M02 A2998 RMK AO2 SLP154 T00941017 53012=
200802090152 METAR KATL 090152Z 00000KT 10SM CLR 10/M02 A2996 RMK AO2 SLP148 T01001017=
200802090052 METAR KATL 090052Z 21003KT 10SM CLR 11/M01 A2995 RMK AO2 SLP145 T01061006=
200802082352 METAR KATL 082352Z 21006KT 10SM CLR 12/M01 A2994 RMK AO2 SLP144 T01171011 10150 20117 51006=
200802082252 METAR KATL 082252Z 24006KT 10SM CLR 14/M02 A2994 RMK AO2 SLP142 T01391022=
200802082152 METAR KATL 082152Z 21008KT 10SM CLR 14/M03 A2994 RMK AO2 SLP140 T01441028=
200802082052 METAR KATL 082052Z 25008KT 10SM CLR 14/M03 A2993 RMK AO2 SLP136 T01441028 56015=
200802081952 METAR KATL 081952Z 21006G14KT 10SM CLR 14/M02 A2993 RMK AO2 SLP137 T01441017=
200802081852 METAR KATL 081852Z 22008KT 10SM FEW060 14/M02 A2994 RMK AO2 SLP141 T01391017=
200802081752 METAR KATL 081752Z VRB06KT 10SM CLR 13/01 A2997 RMK AO2 SLP150 T01330011 10133 20017 58012=
200802081652 METAR KATL 081652Z 18003KT 10SM CLR 11/01 A2999 RMK AO2 SLP158 T01110011=
200802081552 METAR KATL 081552Z 00000KT 10SM CLR 09/00 A3000 RMK AO2 SLP163 T00940000=
200802081452 METAR KATL 081452Z 19005KT 10SM CLR 07/M01 A3001 RMK AO2 SLP165 T00721006 53016=
200802081352 METAR KATL 081352Z 00000KT 10SM CLR 04/M01 A2999 RMK AO2 SLP159 T00441011=
200802081252 METAR KATL 081252Z 00000KT 10SM CLR 02/M02 A2997 RMK AO2 SLP152 T00221017=
200802081152 METAR KATL 081152Z 00000KT 10SM CLR 02/M02 A2996 RMK AO2 SLP149 T00171022 10056 20017 53009=
200802081052 METAR KATL 081052Z 00000KT 10SM CLR 02/M02 A2994 RMK AO2 SLP142 T00221022=
200802080952 METAR KATL 080952Z 00000KT 10SM FEW100 03/M02 A2994 RMK AO2 SLP141 T00331022=
200802080852 METAR KATL 080852Z 00000KT 10SM CLR 03/M02 A2993 RMK AO2 SLP137 T00331022 56005=
200802080752 METAR KATL 080752Z 28003KT 10SM CLR 04/M02 A2993 RMK AO2 SLP138 T00441022=
200802080652 METAR KATL 080652Z 29006KT 10SM CLR 04/M02 A2993 RMK AO2 SLP140 T00441022=
200802080552 METAR KATL 080552Z 26005KT 10SM CLR 06/M02 A2994 RMK AO2 SLP143 T00561022 10106 20050 51012=
200802080452 METAR KATL 080452Z 25005KT 10SM CLR 06/M02 A2993 RMK AO2 SLP139 T00561017 401330006=
200802080352 METAR KATL 080352Z 24003KT 10SM FEW250 07/M02 A2993 RMK AO2 SLP139 T00671022=
200802080252 METAR KATL 080252Z 26005KT 10SM CLR 08/M02 A2991 RMK AO2 SLP132 T00781022 56000=
200802080152 METAR KATL 080152Z 27008KT 10SM CLR 09/M02 A2991 RMK AO2 SLP133 T00891022=
200802080052 METAR KATL 080052Z 22005KT 10SM CLR 09/M01 A2990 RMK AO2 SLP130 T00941011=
200802072352 METAR KATL 072352Z 22004KT 10SM FEW250 11/M01 A2991 RMK AO2 SLP132 T01061011 10133 20094 53001=
200802072252 METAR KATL 072252Z 25007KT 10SM FEW200 12/M03 A2990 RMK AO2 SLP129 T01221033=
200802072152 METAR KATL 072152Z 21007KT 10SM FEW200 13/M02 A2990 RMK AO2 SLP129 T01281017=
200802072052 METAR KATL 072052Z 19008KT 170V240 10SM FEW200 13/M02 A2991 RMK AO2 SLP130 T01281017 56024=
200802071952 METAR KATL 071952Z 20005KT 10SM FEW200 12/M02 A2992 RMK AO2 SLP135 T01171022=
200802071852 METAR KATL 071852Z VRB03KT 10SM CLR 11/M02 A2994 RMK AO2 SLP140 T01111017=
200802071752 METAR KATL 071752Z 25006KT 10SM CLR 10/M01 A2998 RMK AO2 SLP154 T01001011 10100 20006 58010=
200802071652 METAR KATL 071652Z 29008KT 10SM CLR 08/M01 A3001 RMK AO2 SLP163 T00831006=
200802071552 METAR KATL 071552Z 27005KT 10SM CLR 06/M02 A3003 RMK AO2 SLP171 T00611017=
200802071452 METAR KATL 071452Z 32009KT 10SM CLR 04/M02 A3001 RMK AO2 SLP165 T00441022 51008=
200802071352 METAR KATL 071352Z 31007KT 10SM CLR 03/M02 A3001 RMK AO2 SLP165 T00281017=
200802071252 METAR KATL 071252Z 32010KT 10SM CLR 01/M02 A2999 RMK AO2 SLP159 T00111022=
200802071152 METAR KATL 071152Z 31007KT 10SM CLR 01/M02 A2998 RMK AO2 SLP156 70037 T00111022 10067 20011 53007=
200802071052 METAR KATL 071052Z 29007KT 10SM CLR 02/M02 A2998 RMK AO2 SLP152 T00171022=
200802070952 METAR KATL 070952Z 29007KT 10SM CLR 02/M02 A2997 RMK AO2 SLP147 T00221022=
200802070852 METAR KATL 070852Z 30008KT 10SM CLR 03/M02 A2996 RMK AO2 SLP146 T00281017 50008=
200802070752 METAR KATL 070752Z 30011G18KT 10SM CLR 03/M02 A2997 RMK AO2 SLP149 T00331017=
200802070652 METAR KATL 070652Z 29009KT 10SM CLR 04/M01 A2995 RMK AO2 SLP144 T00441006=
200802070552 METAR KATL 070552Z 30013KT 10SM CLR 06/00 A2994 RMK AO2 SLP137 T00610000 10156 20061 51016=
200802070452 METAR KATL 070452Z 30015G20KT 10SM CLR 08/M01 A2992 RMK AO2 SLP132 T00831006 401890083=
200802070352 METAR KATL 070352Z 29007KT 10SM CLR 09/M01 A2991 RMK AO2 SLP127 T00941006=
200802070252 METAR KATL 070252Z 27012G21KT 10SM CLR 11/M02 A2989 RMK AO2 SLP118 T01111017 52023=
200802070152 METAR KATL 070152Z 27011KT 10SM CLR 12/M02 A2986 RMK AO2 SLP109 T01221022=
200802070052 METAR KATL 070052Z 26015G19KT 10SM FEW200 14/M01 A2984 RMK AO2 SLP102 T01391011=
200802062352 METAR KATL 062352Z 27011G17KT 10SM FEW150 16/01 A2982 RMK AO2 SLP093 60003 T01560006 10183 20150 53031=
200802062252 METAR KATL 062252Z 24012G19KT 10SM FEW100 17/02 A2978 RMK AO2 SLP079 T01720022=
200802062152 METAR KATL 062152Z 24008G18KT 10SM FEW090 SCT180 BKN250 18/06 A2975 RMK AO2 SLP069 T01830056=
200802062052 METAR KATL 062052Z 24009G18KT 10SM FEW040 SCT090 SCT250 18/08 A2972 RMK AO2 SLP060 60003 T01780078 58017=
200802061952 METAR KATL 061952Z 23010G19KT 10SM FEW040 SCT060 BKN090 BKN250 17/10 A2973 RMK AO2 SLP063 T01670100=
200802061852 METAR KATL 061852Z 24010G20KT 10SM FEW013 BKN030 BKN040 OVC180 17/11 A2977 RMK AO2 PK WND 26033/1822 RAE46 SLP078 P0003 T01670111=
200802061838 SPECI KATL 061838Z 24015G25KT 10SM -RA FEW013 BKN024 OVC040 17/12 A2978 RMK AO2 PK WND 26033/1822 VIS LWR NE-S SHRA P0003=
200802061838 SPECI KATL 061838Z 24015G25KT 10SM -RA FEW013 BKN024 OVC040 17/12 A2978 RMK AO2 PK WND 26033/1822 VIS LWR NE-S SHRA P0003=
200802061824 SPECI KATL 061824Z 24022G33KT 4SM RA BR SCT010 BKN016 OVC029 18/16 A2978 RMK AO2 PK WND 26033/1822 P0002=
200802061824 SPECI KATL 061824Z 24022G33KT 4SM RA BR SCT010 BKN016 OVC029 18/16 A2978 RMK AO2 PK WND 26033/1822 P0002=
200802061819 SPECI KATL 061819Z 24012G18KT 5SM -RA BR BKN010 BKN016 OVC029 18/17 A2977 RMK AO2 P0001=
200802061819 SPECI KATL 061819Z 24012G18KT 5SM -RA BR BKN010 BKN016 OVC029 18/17 A2977 RMK AO2 P0001=
200802061752 METAR KATL 061752Z 21015G21KT 2 1/2SM -RA BR BKN014 BKN018 OVC023 18/17 A2977 RMK AO2 SFC VIS 4 RAB39 SLP077 P0001 60034 T01830167 10189 20167 55012=
200802061747 SPECI KATL 061747Z 22012KT 2 1/2SM -RA BR BKN014 OVC021 18/17 A2977 RMK AO2 SFC VIS 3 RAB39 P0000=
200802061747 SPECI KATL 061747Z 22012KT 2 1/2SM -RA BR BKN014 OVC021 18/17 A2977 RMK AO2 SFC VIS 3 RAB39 P0000=
200802061734 SPECI KATL 061734Z 20012KT 10SM BKN014 OVC018 19/17 A2978 RMK AO2=
200802061734 SPECI KATL 061734Z 20012KT 10SM BKN014 OVC018 19/17 A2978 RMK AO2=
200802061726 SPECI KATL 061726Z 21015KT 10SM BKN016 OVC022 19/17 A2978 RMK AO2=
200802061726 SPECI KATL 061726Z 21015KT 10SM BKN016 OVC022 19/17 A2978 RMK AO2=
200802061652 METAR KATL 061652Z 21014KT 10SM FEW009 SCT020 BKN028 OVC180 19/17 A2980 RMK AO2 PK WND 21029/1600 RAE21 SLP086 P0002 T01890167=
200802061641 SPECI KATL 061641Z 21013KT 10SM FEW009 BKN028 OVC180 18/17 A2980 RMK AO2 PK WND 21029/1600 RAE21 P0002=
200802061641 SPECI KATL 061641Z 21013KT 10SM FEW009 BKN028 OVC180 18/17 A2980 RMK AO2 PK WND 21029/1600 RAE21 P0002=
200802061552 METAR KATL 061552Z 19015G25KT 9SM -RA FEW015 SCT025 SCT055 OVC180 18/17 A2981 RMK AO2 PK WND 20030/1532 TSE25 SLP089 VIS LWR NE-S SHRA TS MOV E CBMAM OHD ALQDS P0027 T01830167=
200802061546 SPECI KATL 061546Z 19018G25KT 9SM -RA FEW015 SCT025 SCT055 OVC180 18/17 A2980 RMK AO2 PK WND 20030/1532 TSE25 VIS LWR NE-S SHRA TS MOV E CBMAM OHD ALQDS P0027=
200802061546 SPECI KATL 061546Z 19018G25KT 9SM -RA FEW015 SCT025 SCT055 OVC180 18/17 A2980 RMK AO2 PK WND 20030/1532 TSE25 VIS LWR NE-S SHRA TS MOV E CBMAM OHD ALQDS P0027=
200802061529 SPECI KATL 061529Z 20018G29KT 2 1/2SM -RA BR FEW011 SCT019 OVC027 18/17 A2980 RMK AO2 PK WND 20029/1525 SFC VIS 6 TSE25 LTG DSNT NE SE TS DSNT 15SM NE 15SM SE MOV ENE P0023=
200802061529 SPECI KATL 061529Z 20018G29KT 2 1/2SM -RA BR FEW011 SCT019 OVC027 18/17 A2980 RMK AO2 PK WND 20029/1525 SFC VIS 6 TSE25 LTG DSNT NE SE TS DSNT 15SM NE 15SM SE MOV ENE P0023=
200802061526 SPECI KATL 061526Z 20022G29KT 1SM RA BR FEW011 BKN027 OVC037 18/17 A2981 RMK AO2 PK WND 20029/1525 SFC VIS 5 TSE25 LTG DSNT NE SE TS DSNT 15SM NE 15SM SE MOV ENE P0023=
200802061526 SPECI KATL 061526Z 20022G29KT 1SM RA BR FEW011 BKN027 OVC037 18/17 A2981 RMK AO2 PK WND 20029/1525 SFC VIS 5 TSE25 LTG DSNT NE SE TS DSNT 15SM NE 15SM SE MOV ENE P0023=
200802061504 SPECI KATL 061504Z 19013G21KT 1SM R09R/4500VP6000FT TSRA BR FEW009 OVC018CB 18/17 A2982 RMK AO2 SFC VIS 3 OCNL LTGIC TS OHD-NE-SW MOV E P0013=
200802061504 SPECI KATL 061504Z 19013G21KT 1SM R09R/4500VP6000FT TSRA BR FEW009 OVC018CB 18/17 A2982 RMK AO2 SFC VIS 3 OCNL LTGIC TS OHD-NE-SW MOV E P0013=
200802061450 SPECI KATL 061450Z COR 19016G22KT 1SM +TSRA BR OVC018CB 18/17 A2981 RMK AO2 SFC VIS 3 TSB46RAB28 OCNL LTGIC TS OHD ALQDS MOV E P0003=
200802061450 SPECI KATL 061450Z COR 19016G22KT 1SM +TSRA BR OVC018CB 18/17 A2981 RMK AO2 SFC VIS 3 TSB46RAB28 OCNL LTGIC TS OHD ALQDS MOV E P0003=
200802061447 SPECI KATL 061447Z 19014G22KT 3SM -TSRA BR BKN018CB OVC024 18/16 A2981 RMK AO2 SFC VIS 6 TSB46RAB28 OCNL LTGIC TS VC SW-N MOV E P0001=
200802061447 SPECI KATL 061447Z 19014G22KT 3SM -TSRA BR BKN018CB OVC024 18/16 A2981 RMK AO2 SFC VIS 6 TSB46RAB28 OCNL LTGIC TS VC SW-N MOV E P0001=
200802061430 SPECI KATL 061430Z 18015G21KT 3SM -RA BKN016 BKN021 OVC027 19/16 A2981 RMK AO2 SFC VIS 6 RAB28 P0000=
200802061430 SPECI KATL 061430Z 18015G21KT 3SM -RA BKN016 BKN021 OVC027 19/16 A2981 RMK AO2 SFC VIS 6 RAB28 P0000=
200802061352 METAR KATL 061352Z 18015G21KT 10SM BKN016 OVC022 18/16 A2981 RMK AO2 SLP090 T01830161=
200802061330 SPECI KATL 061330Z 19015G23KT 10SM BKN016 OVC023 18/16 A2982 RMK AO2=
200802061330 SPECI KATL 061330Z 19015G23KT 10SM BKN016 OVC023 18/16 A2982 RMK AO2=
200802061310 SPECI KATL 061310Z 18013KT 10SM BKN014 BKN021 OVC034 18/16 A2982 RMK AO2=
200802061310 SPECI KATL 061310Z 18013KT 10SM BKN014 BKN021 OVC034 18/16 A2982 RMK AO2=
200802061252 METAR KATL 061252Z 17013KT 10SM BKN018 BKN035 OVC200 18/16 A2983 RMK AO2 RAB00E12 SLP095 P0000 T01780156=
200802061152 METAR KATL 061152Z 17007KT 10SM SCT012 BKN016 OVC028 17/15 A2986 RMK AO2 SLP108 T01670150 10172 20156 55014=
200802061052 METAR KATL 061052Z 17009KT 10SM SCT010 BKN016 OVC025 17/14 A2986 RMK AO2 SLP106 T01670144 $=
200802060959 SPECI KATL 060959Z 17007KT 10SM OVC013 16/14 A2988 RMK AO2 $=
200802060959 SPECI KATL 060959Z 17007KT 10SM OVC013 16/14 A2988 RMK AO2 $=
200802060952 METAR KATL 060952Z 16006KT 10SM OVC015 16/14 A2987 RMK AO2 SLP112 T01610139 $=
200802060852 METAR KATL 060852Z 16006KT 10SM OVC015 17/14 A2991 RMK AO2 SLP122 T01670139 58015 $=
200802060752 METAR KATL 060752Z 19008KT 10SM SCT016 BKN028 BKN250 16/14 A2993 RMK AO2 SLP133 T01560139 $=
200802060652 METAR KATL 060652Z 20010KT 10SM BKN015 BKN022 BKN250 17/14 A2995 RMK AO2 SLP138 T01670139 $=
200802060630 SPECI KATL 060630Z 20009KT 10SM BKN017 BKN250 16/13 A2995 RMK AO2 $=
200802060630 SPECI KATL 060630Z 20009KT 10SM BKN017 BKN250 16/13 A2995 RMK AO2 $=
200802060552 METAR KATL 060552Z 18012KT 10SM FEW250 17/13 A2995 RMK AO2 SLP138 T01720133 10183 20167 58007 $=
200802060452 METAR KATL 060452Z 19011KT 10SM FEW250 18/13 A2997 RMK AO2 SLP146 T01780133 401940111 $=
200802060352 METAR KATL 060352Z 19009KT 10SM FEW040 18/14 A2998 RMK AO2 SLP147 T01780139 $=
200802060252 METAR KATL 060252Z 18011KT 10SM FEW080 18/15 A2997 RMK AO2 SLP146 T01780150 56018 $=
200802060152 METAR KATL 060152Z 14004KT 10SM FEW080 17/15 A2999 RMK AO2 SLP152 T01720150 $=
200802060052 METAR KATL 060052Z 13005KT 10SM FEW080 18/16 A3001 RMK AO2 SLP159 T01780156 $=
200802052352 METAR KATL 052352Z 13004KT 10SM BKN085 18/15 A3003 RMK AO2 SLP165 60000 T01780150 10194 20172 57004 $=
200802052252 METAR KATL 052252Z 16006KT 10SM FEW075 19/16 A3003 RMK AO2 SLP165 T01890156 $=
200802052204 SPECI KATL 052204Z 17008KT 10SM FEW020 SCT030 18/16 A3003 RMK AO2 $=
200802052204 SPECI KATL 052204Z 17008KT 10SM FEW020 SCT030 18/16 A3003 RMK AO2 $=
200802052152 METAR KATL 052152Z COR 17008KT 10SM FEW020 SCT030 18/16 A3004 RMK AO2 DZE2058 SLP169 P0000 T01830161 $=
200802052150 SPECI KATL 052150Z 17008KT 3SM FEW020 SCT030 19/16 A3004 RMK AO2 SFC VIS 10 DZE2058 P0000 $=
200802052150 SPECI KATL 052150Z 17008KT 3SM FEW020 SCT030 19/16 A3004 RMK AO2 SFC VIS 10 DZE2058 P0000 $=
200802052108 SPECI KATL 052108Z 18007KT 3SM BR FEW006 SCT010 OVC016 18/16 A3006 RMK AO2 SFC VIS 6 DZE2058 P0000 $=
200802052108 SPECI KATL 052108Z 18007KT 3SM BR FEW006 SCT010 OVC016 18/16 A3006 RMK AO2 SFC VIS 6 DZE2058 P0000 $=
200802052059 SPECI KATL 052059Z 19008KT 3SM BR BKN006 BKN011 OVC016 17/16 A3006 RMK AO2 SFC VIS 6 DZE58 CIG 003V008 P0000 $=
200802052059 SPECI KATL 052059Z 19008KT 3SM BR BKN006 BKN011 OVC016 17/16 A3006 RMK AO2 SFC VIS 6 DZE58 CIG 003V008 P0000 $=
200802052052 METAR KATL 052052Z 19006KT 2 1/2SM -DZ BR BKN006 OVC013 17/16 A3006 RMK AO2 SFC VIS 6 RAE1954DZB1954E24B49 CIG 003V010 SLP178 P0000 60000 T01720161 56021 $=
200802052028 SPECI KATL 052028Z 19007KT 2 1/2SM BR OVC004 17/16 A3006 RMK AO2 SFC VIS 5 RAE1954DZB1954E24 CIG 004V007 P0000=
200802052028 SPECI KATL 052028Z 19007KT 2 1/2SM BR OVC004 17/16 A3006 RMK AO2 SFC VIS 5 RAE1954DZB1954E24 CIG 004V007 P0000=
200802051954 SPECI KATL 051954Z 17009KT 2 1/2SM -DZ BR OVC006 18/16 A3007 RMK AO2 SFC VIS 5 RAE54DZB54 CIG 005V010 P0000=
200802051954 SPECI KATL 051954Z 17009KT 2 1/2SM -DZ BR OVC006 18/16 A3007 RMK AO2 SFC VIS 5 RAE54DZB54 CIG 005V010 P0000=
200802051952 METAR KATL 051952Z 17009KT 5SM -RA BR OVC006 18/16 A3007 RMK AO2 RAB47 CIG 005V010 SLP180 VIS LWR E-SW SHRA P0000 T01780161=
200802051948 SPECI KATL 051948Z 18007KT 5SM -RA BR OVC006 18/16 A3007 RMK AO2 RAB47 VIS LWR E-SW SHRA P0000=
200802051948 SPECI KATL 051948Z 18007KT 5SM -RA BR OVC006 18/16 A3007 RMK AO2 RAB47 VIS LWR E-SW SHRA P0000=
200802051852 METAR KATL 051852Z 18005KT 8SM OVC008 18/16 A3009 RMK AO2 SLP188 T01830161=
200802051752 METAR KATL 051752Z 18008KT 6SM BR OVC008 18/16 A3013 RMK AO2 SLP199 60000 T01780161 10178 20122 58017=
200802051652 METAR KATL 051652Z 17005KT 6SM BR OVC008 17/15 A3016 RMK AO2 CIG 007V013 SLP210 T01720150=
200802051607 SPECI KATL 051607Z 19004KT 6SM BR OVC006 17/15 A3018 RMK AO2 CIG 005V009=
200802051607 SPECI KATL 051607Z 19004KT 6SM BR OVC006 17/15 A3018 RMK AO2 CIG 005V009=
200802051552 METAR KATL 051552Z 20005KT 1/2SM BR BKN006 OVC010 17/15 A3018 RMK AO2 SFC VIS 5 SLP216 T01670150=
200802051547 SPECI KATL 051547Z 20004KT 1/2SM BR BKN006 OVC010 17/15 A3018 RMK AO2 SFC VIS 5=
200802051547 SPECI KATL 051547Z 20004KT 1/2SM BR BKN006 OVC010 17/15 A3018 RMK AO2 SFC VIS 5=
200802051452 METAR KATL 051452Z 00000KT 1/2SM BR BKN002 OVC005 15/14 A3018 RMK AO2 SFC VIS 2 DZB14E42 SLP215 P0000 60000 T01500139 50000=
200802051352 METAR KATL 051352Z 00000KT 1/2SM BR OVC003 14/13 A3018 RMK AO2 SFC VIS 2 DZE51 SLP217 TWRINC P0000 T01390128=
200802051349 SPECI KATL 051349Z 00000KT 1/2SM R09R/5500VP6000FT -DZ BR OVC001 14/13 A3018 RMK AO2 SFC VIS 1 3/4 P0000=
200802051349 SPECI KATL 051349Z 00000KT 1/2SM R09R/5500VP6000FT -DZ BR OVC001 14/13 A3018 RMK AO2 SFC VIS 1 3/4 P0000=
200802051252 METAR KATL 051252Z 00000KT 1/2SM -DZ BR OVC003 13/12 A3017 RMK AO2 SFC VIS 4 DZB47 SLP216 TWRINC P0000 T01330117=
200802051235 SPECI KATL 051235Z 14003KT 1SM BR OVC003 13/11 A3017 RMK AO2 SFC VIS 6 CIG 002V007 TWRINC=
200802051235 SPECI KATL 051235Z 14003KT 1SM BR OVC003 13/11 A3017 RMK AO2 SFC VIS 6 CIG 002V007 TWRINC=
200802051230 SPECI KATL 051230Z 15003KT 1/4SM BR OVC003 13/11 A3017 RMK AO2 SFC VIS 5 TWRINC=
200802051230 SPECI KATL 051230Z 15003KT 1/4SM BR OVC003 13/11 A3017 RMK AO2 SFC VIS 5 TWRINC=
200802051152 METAR KATL 051152Z 00000KT 7SM BKN007 OVC023 13/11 A3016 RMK AO2 SLP213 T01280106 10156 20111 53001=
200802051122 SPECI KATL 051122Z 09003KT 6SM BR BKN007 OVC019 12/11 A3016 RMK AO2=
200802051122 SPECI KATL 051122Z 09003KT 6SM BR BKN007 OVC019 12/11 A3016 RMK AO2=
200802051112 SPECI KATL 051112Z 10004KT 6SM BR FEW007 OVC019 12/11 A3016 RMK AO2=
200802051112 SPECI KATL 051112Z 10004KT 6SM BR FEW007 OVC019 12/11 A3016 RMK AO2=
200802051101 SPECI KATL 051101Z 09003KT 6SM BR BKN019 OVC050 12/11 A3016 RMK AO2=
200802051101 SPECI KATL 051101Z 09003KT 6SM BR BKN019 OVC050 12/11 A3016 RMK AO2=
200802051052 METAR KATL 051052Z 10003KT 6SM BR SCT017 SCT022 OVC048 12/11 A3016 RMK AO2 SLP211 T01220106=
200802050952 METAR KATL 050952Z 07005KT 6SM BR OVC044 12/11 A3015 RMK AO2 SLP207 T01220111=
200802050852 METAR KATL 050852Z 07005KT 6SM BR OVC044 12/11 A3016 RMK AO2 SLP210 T01220106 58001=
200802050752 METAR KATL 050752Z 08004KT 6SM BR FEW040 SCT200 BKN250 11/10 A3016 RMK AO2 SLP213 T01110100=
200802050652 METAR KATL 050652Z 07006KT 10SM FEW040 SCT200 BKN250 12/11 A3017 RMK AO2 SLP213 T01220106=
200802050552 METAR KATL 050552Z 12005KT 10SM SCT040 BKN200 BKN250 16/13 A3016 RMK AO2 SLP212 T01560128 10183 20150 58002=
200802050452 METAR KATL 050452Z 14005KT 10SM FEW040 SCT200 BKN250 16/13 A3017 RMK AO2 SLP213 T01560128 402110089=
200802050352 METAR KATL 050352Z 13005KT 10SM BKN040 OVC250 16/13 A3017 RMK AO2 SLP217 T01610128=
200802050252 METAR KATL 050252Z 14004KT 10SM BKN040 BKN200 BKN250 17/13 A3017 RMK AO2 SLP216 T01670128 51009=
200802050152 METAR KATL 050152Z 15006KT 10SM FEW100 SCT200 BKN250 17/13 A3017 RMK AO2 SLP214 T01670128=
200802050052 METAR KATL 050052Z 14005KT 10SM SCT200 BKN250 18/13 A3016 RMK AO2 SLP211 T01780128=
200802042352 METAR KATL 042352Z 18004KT 10SM FEW150 BKN200 BKN250 17/13 A3014 RMK AO2 SLP206 T01720128 10211 20172 52010 $=
200802042252 METAR KATL 042252Z 20012KT 10SM FEW090 SCT180 BKN250 19/13 A3013 RMK AO2 SLP201 T01940128=
200802042152 METAR KATL 042152Z 19011KT 10SM FEW030 SCT080 BKN200 21/13 A3012 RMK AO2 SLP199 T02110128=
200802042052 METAR KATL 042052Z 20011KT 10SM FEW030 SCT040 BKN250 21/13 A3011 RMK AO2 SLP194 T02110128 58010=
200802041952 METAR KATL 041952Z 16007KT 10SM FEW020 SCT030 BKN250 20/14 A3012 RMK AO2 SLP196 T02000139=
200802041852 METAR KATL 041852Z 20004KT 10SM BKN023 BKN032 BKN250 19/13 A3014 RMK AO2 SLP206 T01890133 $=
200802041752 METAR KATL 041752Z 11004KT 10SM BKN030 16/11 A3018 RMK AO2 SLP218 T01560106 10156 20094 58011=
200802041750 SPECI KATL 041750Z 11004KT 10SM BKN030 16/11 A3018 RMK AO2=
200802041750 SPECI KATL 041750Z 11004KT 10SM BKN030 16/11 A3018 RMK AO2=
200802041659 SPECI KATL 041659Z 13004KT 10SM FEW010 SCT025 BKN027 14/09 A3021 RMK AO2=
200802041659 SPECI KATL 041659Z 13004KT 10SM FEW010 SCT025 BKN027 14/09 A3021 RMK AO2=
200802041652 METAR KATL 041652Z 16003KT 10SM FEW010 SCT025 BKN030 14/09 A3021 RMK AO2 SLP229 T01390094=
200802041618 SPECI KATL 041618Z 12004KT 9SM FEW008 SCT010 OVC024 12/08 A3021 RMK AO2=
200802041618 SPECI KATL 041618Z 12004KT 9SM FEW008 SCT010 OVC024 12/08 A3021 RMK AO2=
200802041607 SPECI KATL 041607Z 11005KT 10SM BKN008 OVC022 12/08 A3022 RMK AO2=
200802041607 SPECI KATL 041607Z 11005KT 10SM BKN008 OVC022 12/08 A3022 RMK AO2=
200802041559 SPECI KATL 041559Z 10004KT 10SM SCT008 OVC022 12/08 A3022 RMK AO2=
200802041559 SPECI KATL 041559Z 10004KT 10SM SCT008 OVC022 12/08 A3022 RMK AO2=
200802041552 METAR KATL 041552Z 11005KT 10SM BKN008 OVC020 11/08 A3021 RMK AO2 SLP231 T01110078=
200802041532 SPECI KATL 041532Z 12005KT 10SM OVC008 11/07 A3021 RMK AO2 CIG 007V010=
200802041532 SPECI KATL 041532Z 12005KT 10SM OVC008 11/07 A3021 RMK AO2 CIG 007V010=
200802041452 METAR KATL 041452Z 09007KT 10SM OVC010 11/07 A3021 RMK AO2 SLP231 T01060072 51007=
200802041352 METAR KATL 041352Z 10005KT 10SM BKN012 OVC018 10/07 A3020 RMK AO2 SLP228 T01000072=
200802041252 METAR KATL 041252Z 10005KT 10SM OVC024 09/08 A3020 RMK AO2 SLP227 T00940078=
200802041152 METAR KATL 041152Z 09005KT 10SM BKN022 OVC060 09/07 A3019 RMK AO2 SLP223 60018 70018 T00940072 10122 20089 51008=
200802041147 SPECI KATL 041147Z 09004KT 10SM BKN022 BKN060 09/07 A3018 RMK AO2=
200802041147 SPECI KATL 041147Z 09004KT 10SM BKN022 BKN060 09/07 A3018 RMK AO2=
200802041052 METAR KATL 041052Z 09006KT 10SM FEW080 BKN150 09/07 A3017 RMK AO2 SLP215 T00940072=
200802040952 METAR KATL 040952Z 12006KT 8SM SCT009 OVC043 10/07 A3016 RMK AO2 RAE44 SLP213 P0016 T01000072=
200802040927 SPECI KATL 040927Z 11004KT 6SM RA SCT009 OVC043 10/07 A3018 RMK AO2 P0016=
200802040927 SPECI KATL 040927Z 11004KT 6SM RA SCT009 OVC043 10/07 A3018 RMK AO2 P0016=
200802040915 SPECI KATL 040915Z 00000KT 2 1/2SM R09R/5500VP6000FT +RA SCT009 OVC043 10/07 A3020 RMK AO2 P0009=
200802040915 SPECI KATL 040915Z 00000KT 2 1/2SM R09R/5500VP6000FT +RA SCT009 OVC043 10/07 A3020 RMK AO2 P0009=
200802040852 METAR KATL 040852Z 08004KT 8SM -RA BKN043 OVC055 11/07 A3018 RMK AO2 RAB07 SLP219 P0002 60002 T01060072 55000=
200802040752 METAR KATL 040752Z 12006KT 10SM BKN043 OVC095 12/05 A3017 RMK AO2 RAB31E42 SLP215 P0000 T01220050=
200802040652 METAR KATL 040652Z 10004KT 10SM BKN110 BKN180 12/06 A3018 RMK AO2 SLP219 T01170056=
200802040552 METAR KATL 040552Z 09005KT 10SM FEW065 BKN085 BKN180 12/05 A3018 RMK AO2 SLP219 60000 T01170050 10150 20111 53000=
200802040452 METAR KATL 040452Z 10004KT 10SM FEW060 BKN085 12/05 A3017 RMK AO2 SLP215 T01220050 401780028=
200802040352 METAR KATL 040352Z 10004KT 10SM FEW060 BKN110 12/06 A3018 RMK AO2 RAE13 SLP219 P0000 T01220061=
200802040252 METAR KATL 040252Z 09008KT 10SM -RA FEW045 SCT075 OVC100 12/06 A3018 RMK AO2 RAB06 PRESFR SLP220 P0000 60000 T01220061 58012=
200802040152 METAR KATL 040152Z 07007KT 10SM FEW065 OVC100 13/05 A3020 RMK AO2 SLP230 T01330050=
200802040052 METAR KATL 040052Z 05009KT 10SM FEW045 OVC090 14/05 A3021 RMK AO2 RAB26E41 SLP232 SHRA VC NW-NE P0000 T01440050=
200802032352 METAR KATL 032352Z 34010KT 10SM FEW045 OVC075 15/04 A3021 RMK AO2 PRESRR SLP234 T01500044 10178 20150 53028=
200802032252 METAR KATL 032252Z 36006KT 10SM BKN085 OVC110 17/04 A3016 RMK AO2 SLP213 T01670039=
200802032152 METAR KATL 032152Z 12007KT 9SM SCT080 BKN110 BKN150 17/04 A3012 RMK AO2 SLP200 T01720039=
200802032052 METAR KATL 032052Z 10005KT 9SM SCT070 BKN110 BKN150 17/04 A3013 RMK AO2 SLP203 T01720039 56026=
200802031952 METAR KATL 031952Z 00000KT 9SM BKN070 BKN100 OVC150 17/03 A3017 RMK AO2 SLP216 T01670033=
200802031852 METAR KATL 031852Z 00000KT 10SM FEW070 SCT095 BKN150 BKN250 16/03 A3016 RMK AO2 SLP216 T01610028=
200802031752 METAR KATL 031752Z 14003KT 10SM FEW070 SCT100 BKN150 BKN250 16/04 A3021 RMK AO2 SLP230 T01560039 10161 20028 58016=
200802031652 METAR KATL 031652Z 00000KT 10SM BKN150 BKN250 15/04 A3024 RMK AO2 SLP241 T01500044=
200802031552 METAR KATL 031552Z 15003KT 10SM FEW150 SCT250 13/04 A3024 RMK AO2 SLP242 T01280039=
200802031452 METAR KATL 031452Z 00000KT 10SM FEW150 SCT200 11/03 A3026 RMK AO2 SLP248 T01060028 50003=
200802031352 METAR KATL 031352Z 00000KT 10SM FEW150 SCT200 06/01 A3026 RMK AO2 SLP251 T00560011=
200802031252 METAR KATL 031252Z 00000KT 10SM FEW150 SCT200 04/M01 A3025 RMK AO2 SLP249 T00391011=
200802031152 METAR KATL 031152Z 00000KT 10SM FEW250 03/M01 A3025 RMK AO2 SLP247 T00331011 10061 20028 53008=
200802031052 METAR KATL 031052Z 00000KT 10SM FEW200 04/M01 A3022 RMK AO2 SLP237 T00441011=
200802030952 METAR KATL 030952Z 00000KT 10SM SCT150 05/M01 A3021 RMK AO2 SLP232 T00501006=
200802030852 METAR KATL 030852Z 00000KT 10SM SCT150 04/00 A3022 RMK AO2 SLP236 T00440000 57001=
200802030752 METAR KATL 030752Z 00000KT 10SM SCT150 BKN200 06/M01 A3022 RMK AO2 SLP235 T00561011=
200802030652 METAR KATL 030652Z 00000KT 10SM BKN200 06/M01 A3023 RMK AO2 SLP238 T00561011=
200802030552 METAR KATL 030552Z 00000KT 10SM BKN200 06/M02 A3023 RMK AO2 SLP239 T00561017 10117 20056 50005=
200802030452 METAR KATL 030452Z 00000KT 10SM FEW150 BKN200 07/M02 A3023 RMK AO2 SLP240 T00721022 401391017=
200802030352 METAR KATL 030352Z 00000KT 10SM SCT150 BKN200 08/M02 A3022 RMK AO2 SLP240 T00781022=
200802030252 METAR KATL 030252Z 00000KT 10SM FEW100 BKN250 08/M01 A3021 RMK AO2 SLP234 T00781011 50005=
200802030152 METAR KATL 030152Z 00000KT 10SM SCT250 11/M04 A3021 RMK AO2 SLP236 T01061039=
200802030052 METAR KATL 030052Z 29003KT 10SM FEW250 11/M03 A3021 RMK AO2 SLP236 T01061033=
200802022352 METAR KATL 022352Z 00000KT 10SM SCT250 12/M02 A3019 RMK AO2 SLP230 T01171017 10139 20100 55001=
200802022252 METAR KATL 022252Z 00000KT 10SM FEW200 BKN250 13/M02 A3018 RMK AO2 SLP225 T01331017=
200802022152 METAR KATL 022152Z 21004KT 10SM SCT150 SCT200 BKN250 14/M03 A3018 RMK AO2 SLP226 T01391028=
200802022052 METAR KATL 022052Z 23004KT 10SM SCT150 SCT200 BKN250 14/M02 A3020 RMK AO2 SLP230 T01391022 56020=
200802021952 METAR KATL 021952Z 22007KT 10SM SCT150 BKN200 BKN250 13/M04 A3021 RMK AO2 SLP235 T01281039=
200802021852 METAR KATL 021852Z 27005KT 10SM FEW150 BKN200 BKN250 13/M03 A3023 RMK AO2 SLP241 T01281033=
200802021752 METAR KATL 021752Z 00000KT 10SM SCT150 BKN200 BKN250 10/M01 A3026 RMK AO2 SLP251 T01001011 10106 21017 58006=
200802021652 METAR KATL 021652Z 33005KT 10SM SCT150 BKN200 BKN250 07/M01 A3029 RMK AO2 SLP265 T00721006=
200802021552 METAR KATL 021552Z 00000KT 10SM FEW150 BKN200 BKN250 05/M01 A3029 RMK AO2 SLP263 T00501006=
200802021452 METAR KATL 021452Z 00000KT 10SM SCT120 BKN180 OVC250 03/M02 A3028 RMK AO2 SLP260 T00331017 50005=
200802021352 METAR KATL 021352Z 32004KT 8SM BKN250 01/M02 A3028 RMK AO2 SLP262 T00061022=
200802021252 METAR KATL 021252Z 32005KT 7SM BKN250 M01/M03 A3028 RMK AO2 SLP261 T10111033=
200802021152 METAR KATL 021152Z 29004KT 10SM BKN250 M02/M03 A3026 RMK AO2 SLP255 T10171033 10011 21017 51024=
200802021052 METAR KATL 021052Z 30005KT 10SM FEW250 M02/M03 A3025 RMK AO2 SLP250 T10171033=
200802020952 METAR KATL 020952Z 27006KT 10SM SCT250 M01/M03 A3022 RMK AO2 SLP241 T10111033=
200802020852 METAR KATL 020852Z 34005KT 10SM SCT250 M01/M03 A3019 RMK AO2 SLP229 T10111028 58004=
200802020752 METAR KATL 020752Z 33004KT 10SM SCT250 M01/M03 A3021 RMK AO2 SLP236 T10061028=
200802020652 METAR KATL 020652Z 29004KT 10SM SCT250 00/M02 A3022 RMK AO2 SLP239 T00001022=
200802020552 METAR KATL 020552Z 34004KT 10SM BKN250 01/M02 A3020 RMK AO2 SLP233 T00111022 10056 20000 56008=
200802020452 METAR KATL 020452Z 31005KT 10SM FEW250 02/M02 A3021 RMK AO2 SLP235 T00221017 400940022=
200802020352 METAR KATL 020352Z 00000KT 10SM CLR 03/M02 A3021 RMK AO2 SLP237 T00281022=
200802020252 METAR KATL 020252Z 27004KT 10SM CLR 03/M02 A3023 RMK AO2 SLP241 T00281022 51017=
200802020152 METAR KATL 020152Z 29004KT 10SM CLR 04/M02 A3021 RMK AO2 SLP236 T00441017=
200802020052 METAR KATL 020052Z 28003KT 10SM CLR 06/M02 A3019 RMK AO2 SLP230 T00561017=
200802012352 METAR KATL 012352Z 29006KT 10SM CLR 06/M02 A3018 RMK AO2 SLP224 T00561017 10094 20056 53020=
200802012252 METAR KATL 012252Z 29010KT 10SM CLR 07/M01 A3015 RMK AO2 SLP216 T00721011=
200802012152 METAR KATL 012152Z 30009KT 10SM CLR 09/M01 A3013 RMK AO2 SLP208 T00891006=
200802012052 METAR KATL 012052Z 27010KT 10SM FEW040 09/M01 A3011 RMK AO2 SLP202 T00891006 53001=
200802011952 METAR KATL 011952Z 28008G16KT 10SM FEW040 09/00 A3009 RMK AO2 SLP195 T00940000=
200802011852 METAR KATL 011852Z 27012G21KT 10SM FEW028 08/01 A3010 RMK AO2 SLP196 T00780011=
200802011842 SPECI KATL 011842Z 26011G18KT 10SM SCT028 08/01 A3010 RMK AO2=
200802011842 SPECI KATL 011842Z 26011G18KT 10SM SCT028 08/01 A3010 RMK AO2=
200802011839 SPECI KATL 011839Z 25011G18KT 10SM SCT028 08/01 A3010 RMK AO2=
200802011839 SPECI KATL 011839Z 25011G18KT 10SM SCT028 08/01 A3010 RMK AO2=
200802011752 METAR KATL 011752Z COR 27014G22KT 10SM BKN028 07/01 A3011 RMK AO2 SLP202 60000 T00670006 10072 20044 50015=
200802011652 METAR KATL 011652Z 28011G20KT 10SM OVC025 06/01 A3013 RMK AO2 SLP207 T00560011=
200802011552 METAR KATL 011552Z 28014G20KT 10SM BKN025 05/01 A3010 RMK AO2 PK WND 25026/1516 SLP200 T00500006=
200802011452 METAR KATL 011452Z 27013G19KT 10SM FEW012 BKN016 BKN020 06/02 A3006 RMK AO2 PRESRR SLP186 60000 T00610022 53023=
200802011352 METAR KATL 011352Z 27008KT 10SM FEW008 BKN016 BKN038 06/04 A3003 RMK AO2 SLP173 MDT CU NW-NE T00560044=
200802011311 SPECI KATL 011311Z 27007KT 9SM FEW004 BKN016 OVC038 05/04 A3000 RMK AO2 BINOVC=
200802011311 SPECI KATL 011311Z 27007KT 9SM FEW004 BKN016 OVC038 05/04 A3000 RMK AO2 BINOVC=
200802011252 METAR KATL 011252Z 26005KT 1 1/2SM SCT003 BKN008 BKN038 05/04 A3000 RMK AO2 SFC VIS 8 RAE1157DZB02E49 SLP164 P0000 T00500039=
200802011250 SPECI KATL 011250Z 26006KT 1 1/2SM SCT003 BKN008 BKN038 04/04 A2999 RMK AO2 SFC VIS 8 RAE1157DZB02E49 P0000=
200802011250 SPECI KATL 011250Z 26006KT 1 1/2SM SCT003 BKN008 BKN038 04/04 A2999 RMK AO2 SFC VIS 8 RAE1157DZB02E49 P0000=
200802011207 SPECI KATL 011207Z 30004KT 1 1/2SM -DZ BR SCT003 BKN012 OVC021 04/04 A2996 RMK AO2 SFC VIS 5 RAE1157DZB02 P0000=
200802011207 SPECI KATL 011207Z 30004KT 1 1/2SM -DZ BR SCT003 BKN012 OVC021 04/04 A2996 RMK AO2 SFC VIS 5 RAE1157DZB02 P0000=
