##########################################################
# Query made at 04/19/2024 23:07:58 UTC
# Time interval: from 09/01/2008 12:00  to 09/30/2008 12:59  UTC
##########################################################

##########################################################
# KATL, Atlanta, Hartsfield - Jackson Atlanta International Airport (United States)
# WMO index: 72219. WIGOS ID: 0-20000-0-72219
# Latitude 33-38-59N. Longitude 084-25-00W. Altitude 312 m.
##########################################################

200809301252 METAR KATL 301252Z 30003KT 7SM CLR 19/15 A2998 RMK AO2 SLP143 T01890150=
200809301152 METAR KATL 301152Z 00000KT 7SM FEW250 17/14 A2996 RMK AO2 SLP140 T01720144 10211 20167 53001 $=
200809301052 METAR KATL 301052Z 33004KT 7SM FEW070 SCT250 18/15 A2995 RMK AO2 SLP134 T01780150 $=
200809300952 METAR KATL 300952Z 33003KT 7SM FEW070 17/14 A2995 RMK AO2 SLP133 T01720144 $=
200809300852 METAR KATL 300852Z 32005KT 7SM FEW070 SCT150 18/15 A2996 RMK AO2 SLP137 T01780150 58005 $=
200809300752 METAR KATL 300752Z 33004KT 7SM FEW150 18/16 A2997 RMK AO2 SLP139 T01830156 $=
200809300652 METAR KATL 300652Z 33005KT 8SM SCT150 19/16 A2998 RMK AO2 SLP142 T01940156 $=
200809300552 METAR KATL 300552Z 00000KT 10SM SCT150 BKN250 21/17 A2998 RMK AO2 SLP141 T02110167 10256 20206 58006 $=
200809300452 METAR KATL 300452Z 06003KT 10SM FEW070 BKN250 21/17 A2999 RMK AO2 SLP144 T02060167 403000189 $=
200809300152 METAR KATL 300152Z 33005KT 10SM FEW055 SCT200 BKN250 24/14 A2999 RMK AO2 SLP145 T02390139 $=
200809300052 METAR KATL 300052Z 32004KT 10SM FEW055 BKN200 BKN250 25/14 A2997 RMK AO2 SLP141 OCNL LTG DSNT NE T02500139 $=
200809292352 METAR KATL 292352Z 32006KT 10SM FEW055 SCT200 BKN250 26/14 A2997 RMK AO2 SLP140 CB DSNT NE-SE T02560139 10300 20256 53004 $=
200809292252 METAR KATL 292252Z 32008KT 10SM FEW055TCU BKN250 27/14 A2996 RMK AO2 SLP136 TCU NE AND SE T02720139 $=
200809292152 METAR KATL 292152Z 31009KT 10SM FEW060TCU SCT075 BKN250 29/14 A2995 RMK AO2 SLP134 TCU NE-E AND DSNT SE T02890139 $=
200809292052 METAR KATL 292052Z 32004KT 10SM SCT060 29/13 A2996 RMK AO2 SLP135 CB DSNT SE T02940133 56020 $=
200809291952 METAR KATL 291952Z COR 25007KT 10SM SCT060 BKN090 30/14 A2997 RMK AO2 SLP139 CB DSNT SE-S TCU DSNT N-NE T03000139 $=
200809291852 METAR KATL 291852Z COR 34004KT 10SM SCT048TCU BKN080 BKN100 28/16 A3000 RMK AO2 SLP149 TCU OHD-W AND DSNT N NE E S W AND NW T02780161 $=
200809291752 METAR KATL 291752Z 23007KT 10SM SCT050TCU BKN075 28/16 A3002 RMK AO2 SLP156 TCU OHD AND SE AND DSNT NW T02830161 10283 20189 58014 $=
200809291652 METAR KATL 291652Z 12004KT 10SM BKN040 28/16 A3004 RMK AO2 SLP162 T02780161 $=
200809291552 METAR KATL 291552Z 00000KT 10SM FEW040 26/16 A3006 RMK AO2 SLP169 T02610161 $=
200809291452 METAR KATL 291452Z 06004KT 10SM CLR 25/17 A3006 RMK AO2 SLP170 T02500167 50005 $=
200809291352 METAR KATL 291352Z 08006KT 10SM FEW120 23/16 A3006 RMK AO2 SLP170 T02280161=
200809291252 METAR KATL 291252Z 08007KT 9SM SCT120 21/16 A3006 RMK AO2 SLP171 T02060161=
200809291152 METAR KATL 291152Z 08005KT 8SM SCT120 19/16 A3004 RMK AO2 SLP165 T01890156 10206 20189 53008=
200809291052 METAR KATL 291052Z 03006KT 10SM SCT120 19/15 A3003 RMK AO2 SLP161 T01940150=
200809290952 METAR KATL 290952Z 34003KT 10SM FEW090 19/15 A3002 RMK AO2 SLP157 T01890150=
200809290852 METAR KATL 290852Z 34004KT 10SM BKN100 19/15 A3002 RMK AO2 SLP156 T01890150 55002=
200809290752 METAR KATL 290752Z 33004KT 10SM FEW095 19/15 A3002 RMK AO2 SLP155 T01890150=
200809290652 METAR KATL 290652Z 33003KT 10SM CLR 19/15 A3002 RMK AO2 SLP158 T01940150=
200809290552 METAR KATL 290552Z 34004KT 10SM CLR 20/15 A3003 RMK AO2 SLP158 T02000150 10256 20200 51002=
200809290452 METAR KATL 290452Z 34003KT 10SM CLR 22/14 A3002 RMK AO2 SLP157 T02170144 403000172=
200809290352 METAR KATL 290352Z 32004KT 10SM CLR 22/14 A3002 RMK AO2 SLP158 T02170144=
200809290252 METAR KATL 290252Z 33005KT 10SM CLR 22/14 A3002 RMK AO2 SLP156 T02220144 51007=
200809290152 METAR KATL 290152Z 33007KT 10SM CLR 24/14 A3002 RMK AO2 SLP156 T02390144=
200809290052 METAR KATL 290052Z 33006KT 10SM CLR 24/14 A3001 RMK AO2 SLP154 T02440144=
200809282352 METAR KATL 282352Z 32007KT 10SM FEW065 26/14 A3000 RMK AO2 SLP151 T02560144 10300 20256 53008=
200809282252 METAR KATL 282252Z 32009KT 10SM FEW065 SCT110 27/14 A2999 RMK AO2 SLP147 T02720139=
200809282152 METAR KATL 282152Z 31009KT 10SM FEW065 29/13 A2998 RMK AO2 SLP142 T02890133=
200809282052 METAR KATL 282052Z 32008KT 10SM FEW065 SCT085 SCT200 29/13 A2997 RMK AO2 SLP141 T02940128 56013=
200809281952 METAR KATL 281952Z 33004KT 10SM SCT060 SCT090 29/13 A2998 RMK AO2 SLP144 T02940133=
200809281852 METAR KATL 281852Z 30007KT 270V340 10SM SCT055 BKN085 29/14 A2999 RMK AO2 SLP147 T02890139=
200809281752 METAR KATL 281752Z 34007KT 300V040 10SM SCT047 SCT055 27/15 A3001 RMK AO2 SLP155 T02720150 10289 20172 58004=
200809281652 METAR KATL 281652Z 34009KT 10SM SCT043 28/16 A3002 RMK AO2 SLP157 T02780161=
200809281552 METAR KATL 281552Z VRB04KT 10SM FEW040 26/16 A3003 RMK AO2 SLP160 T02610161=
200809281452 METAR KATL 281452Z 33008KT 10SM CLR 24/17 A3002 RMK AO2 SLP159 T02440167 51012=
200809281352 METAR KATL 281352Z 34008KT 10SM CLR 22/17 A3002 RMK AO2 SLP157 T02220167=
200809281252 METAR KATL 281252Z 32009KT 10SM CLR 19/16 A3000 RMK AO2 SLP152 T01940161=
200809281152 METAR KATL 281152Z COR 30005KT 8SM FEW080 17/16 A2999 RMK AO2 SLP149 T01720156 10200 20172 53008=
200809281052 METAR KATL 281052Z 31007KT 10SM FEW080 17/16 A2998 RMK AO2 SLP147 T01720156=
200809280952 METAR KATL 280952Z 31006KT 10SM CLR 17/16 A2997 RMK AO2 SLP143 T01720156=
200809280852 METAR KATL 280852Z 27004KT 10SM CLR 18/16 A2997 RMK AO2 SLP140 T01780156 56006=
200809280752 METAR KATL 280752Z 27004KT 10SM FEW080 18/16 A2997 RMK AO2 SLP140 T01830156=
200809280652 METAR KATL 280652Z 31005KT 10SM SCT080 18/16 A2998 RMK AO2 SLP144 T01830156=
200809280552 METAR KATL 280552Z 28004KT 10SM SCT075 18/16 A2998 RMK AO2 SLP146 T01830156 10228 20183 58001=
200809280452 METAR KATL 280452Z 30004KT 10SM FEW080 19/16 A2999 RMK AO2 SLP147 T01940156 402500156=
200809280352 METAR KATL 280352Z 31004KT 10SM FEW070 20/16 A2999 RMK AO2 SLP147 T02000156=
200809280252 METAR KATL 280252Z 31005KT 10SM FEW070 21/16 A2999 RMK AO2 SLP147 T02110156 51010=
200809280152 METAR KATL 280152Z 31004KT 10SM BKN065 22/16 A2998 RMK AO2 SLP146 T02170156=
200809280052 METAR KATL 280052Z 31005KT 10SM OVC060 22/16 A2997 RMK AO2 SLP143 T02220156=
200809272352 METAR KATL 272352Z 32006KT 10SM OVC060 23/16 A2996 RMK AO2 SLP138 T02280156 10244 20228 51010=
200809272152 METAR KATL 272152Z 33006KT 10SM FEW032 OVC055 24/15 A2994 RMK AO2 SLP131 T02390150=
200809272052 METAR KATL 272052Z 31008KT 10SM SCT033 OVC055 24/15 A2993 RMK AO2 SLP127 BINOVC W T02390150 55002=
200809271952 METAR KATL 271952Z 31008KT 10SM SCT032 OVC050 24/15 A2992 RMK AO2 SLP126 BINOVC OHD T02390150=
200809271852 METAR KATL 271852Z 31010KT 10SM SCT032 BKN050 OVC150 24/16 A2992 RMK AO2 SLP125 T02440156=
200809271752 METAR KATL 271752Z 29009KT 10SM SCT034 BKN050 BKN150 24/15 A2993 RMK AO2 SLP128 T02390150 10250 20156 58002=
200809271732 SPECI KATL 271732Z 32009KT 10SM SCT028 BKN050 OVC150 24/15 A2993 RMK AO2 SCT028V BKN=
200809271732 SPECI KATL 271732Z 32009KT 10SM SCT028 BKN050 OVC150 24/15 A2993 RMK AO2 SCT028V BKN=
200809271652 METAR KATL 271652Z 34011KT 10SM BKN028 BKN031 BKN150 24/16 A2994 RMK AO2 SLP131 T02440156=
200809271552 METAR KATL 271552Z 33009KT 10SM BKN024 BKN150 BKN250 22/15 A2995 RMK AO2 SLP133 T02220150=
200809271455 SPECI KATL 271455Z 34011G21KT 10SM BKN022 BKN150 BKN250 21/14 A2994 RMK AO2=
200809271455 SPECI KATL 271455Z 34011G21KT 10SM BKN022 BKN150 BKN250 21/14 A2994 RMK AO2=
200809271452 METAR KATL 271452Z 32012G21KT 10SM SCT020 BKN150 BKN250 21/14 A2994 RMK AO2 SLP130 T02110144 51015=
200809271352 METAR KATL 271352Z 31006KT 10SM FEW008 SCT150 BKN250 19/15 A2993 RMK AO2 SLP128 T01940150=
200809271328 SPECI KATL 271328Z 31007KT 10SM FEW008 SCT150 SCT250 18/14 A2992 RMK AO2=
200809271328 SPECI KATL 271328Z 31007KT 10SM FEW008 SCT150 SCT250 18/14 A2992 RMK AO2=
200809271252 METAR KATL 271252Z 30007KT 10SM FEW150 SCT250 17/14 A2992 RMK AO2 SLP125 T01670144=
200809271152 METAR KATL 271152Z 30004KT 10SM FEW150 SCT250 16/14 A2989 RMK AO2 SLP116 T01560139 10183 20156 53010=
200809271052 METAR KATL 271052Z 29005KT 10SM FEW150 SCT250 16/13 A2987 RMK AO2 SLP109 T01560133=
200809270952 METAR KATL 270952Z 29006KT 10SM FEW150 BKN250 16/14 A2986 RMK AO2 SLP106 T01610139=
200809270852 METAR KATL 270852Z 28004KT 10SM SCT150 BKN250 17/13 A2986 RMK AO2 SLP104 T01670133 55003=
200809270752 METAR KATL 270752Z 32007KT 10SM SCT150 BKN250 17/13 A2986 RMK AO2 SLP101 T01720133=
200809270652 METAR KATL 270652Z 31007KT 10SM FEW050 SCT150 BKN250 18/13 A2986 RMK AO2 SLP104 T01780133=
200809270552 METAR KATL 270552Z 30007KT 10SM FEW050 BKN150 BKN250 18/13 A2987 RMK AO2 SLP106 T01830133 10228 20183 58003=
200809270352 METAR KATL 270352Z 32009KT 10SM FEW060 BKN150 BKN250 19/13 A2988 RMK AO2 SLP109 T01940133=
200809270252 METAR KATL 270252Z 31005KT 10SM FEW060 SCT150 BKN250 21/13 A2988 RMK AO2 SLP110 T02060128 51006=
200809270152 METAR KATL 270152Z 33007KT 10SM FEW070 SCT150 BKN250 22/13 A2987 RMK AO2 SLP110 T02170128=
200809270052 METAR KATL 270052Z 32009KT 10SM FEW070 BKN150 BKN250 22/13 A2987 RMK AO2 SLP107 T02220128=
200809262352 METAR KATL 262352Z 31010G19KT 10SM FEW070 BKN150 BKN250 23/13 A2986 RMK AO2 SLP105 T02280128 10272 20228 53012=
200809262152 METAR KATL 262152Z 34011KT 10SM SCT150 BKN200 OVC250 25/12 A2984 RMK AO2 SLP096 VIRGA DSNT N-NE T02500122=
200809262052 METAR KATL 262052Z 33010G19KT 10SM SCT055 BKN150 BKN250 27/13 A2982 RMK AO2 SLP091 T02670128 55008=
200809261952 METAR KATL 261952Z 32012KT 10SM FEW060 BKN150 OVC250 27/12 A2982 RMK AO2 SLP090 T02670122=
200809261852 METAR KATL 261852Z 28009KT 10SM FEW060 BKN150 OVC250 27/12 A2983 RMK AO2 SLP093 T02670122=
200809261752 METAR KATL 261752Z 29012KT 10SM SCT060 BKN150 OVC250 27/12 A2985 RMK AO2 SLP098 T02670122 10267 20150 58016=
200809261652 METAR KATL 261652Z 34010KT 10SM SCT055 BKN150 OVC250 24/11 A2987 RMK AO2 SLP106 T02440111=
200809261552 METAR KATL 261552Z 30010KT 10SM BKN050 BKN150 OVC250 24/11 A2988 RMK AO2 SLP111 T02390111=
200809261452 METAR KATL 261452Z 31008KT 10SM SCT050 BKN150 OVC250 22/10 A2989 RMK AO2 SLP116 T02170100 53005=
200809261352 METAR KATL 261352Z 33009KT 10SM FEW120 SCT180 BKN250 19/09 A2989 RMK AO2 SLP114 T01940089=
200809261252 METAR KATL 261252Z 32009KT 10SM FEW100 SCT200 BKN250 17/08 A2989 RMK AO2 SLP113 T01670078=
200809261152 METAR KATL 261152Z 32010KT 10SM FEW100 SCT200 BKN250 15/08 A2988 RMK AO2 SLP111 T01500078 10172 20150 55001=
200809261052 METAR KATL 261052Z 32008KT 10SM SCT200 BKN250 15/07 A2987 RMK AO2 SLP109 T01500072=
200809260952 METAR KATL 260952Z 31009KT 10SM OVC200 16/07 A2987 RMK AO2 SLP109 T01560072=
200809260852 METAR KATL 260852Z COR 32008KT 10SM BKN200 16/07 A2988 RMK AO2 SLP111 T01610072 58016=
200809260752 METAR KATL 260752Z 32009KT 10SM BKN200 BKN250 17/07 A2990 RMK AO2 SLP116 T01670067=
200809260652 METAR KATL 260652Z 32007KT 10SM SCT200 BKN250 17/07 A2992 RMK AO2 SLP123 T01670067=
200809260552 METAR KATL 260552Z 31007KT 10SM SCT200 BKN250 17/07 A2993 RMK AO2 SLP128 T01720067 10239 20172 56019=
200809260452 METAR KATL 260452Z 33007KT 10SM SCT200 BKN250 18/07 A2995 RMK AO2 SLP133 T01780072 402780133=
200809260352 METAR KATL 260352Z 32006KT 10SM BKN250 18/08 A2997 RMK AO2 SLP140 T01830083=
200809260252 METAR KATL 260252Z 32006KT 10SM CLR 20/09 A2999 RMK AO2 SLP148 T02000094 58005=
200809260152 METAR KATL 260152Z 32005KT 10SM FEW200 BKN250 22/11 A3000 RMK AO2 SLP152 T02170111=
200809260052 METAR KATL 260052Z 32006KT 10SM SCT200 BKN250 23/10 A3000 RMK AO2 SLP152 T02330100=
200809252352 METAR KATL 252352Z 05007KT 10SM SCT180 BKN250 24/09 A3000 RMK AO2 SLP153 T02390094 10278 20239 58005=
200809252252 METAR KATL 252252Z 04011KT 10SM FEW060 BKN200 26/10 A3002 RMK AO2 SLP160 T02560100=
200809252152 METAR KATL 252152Z 05014KT 10SM FEW060 BKN200 27/10 A3002 RMK AO2 SLP159 T02720100=
200809252052 METAR KATL 252052Z 07011G17KT 10SM FEW070 SCT150 BKN250 27/09 A3002 RMK AO2 SLP157 T02720094 56019=
200809251952 METAR KATL 251952Z 03012KT 10SM FEW150 SCT250 27/06 A3003 RMK AO2 SLP161 T02720056=
200809251852 METAR KATL 251852Z 04013G18KT 10SM FEW250 27/M02 A3005 RMK AO2 SLP169 T02721017=
200809251752 METAR KATL 251752Z 05011G17KT 10SM FEW250 26/00 A3007 RMK AO2 SLP177 T02610000 10261 20139 58021=
200809251652 METAR KATL 251652Z 05009G16KT 10SM FEW250 24/00 A3009 RMK AO2 SLP183 T02440000=
200809251552 METAR KATL 251552Z 05013KT 010V070 10SM FEW250 23/02 A3012 RMK AO2 SLP194 T02330017=
200809251452 METAR KATL 251452Z 03012G17KT 10SM FEW250 22/03 A3014 RMK AO2 SLP199 T02170028 58004=
200809251352 METAR KATL 251352Z 02008KT 10SM FEW250 19/07 A3015 RMK AO2 SLP203 T01890072=
200809251252 METAR KATL 251252Z 04009KT 10SM FEW250 17/08 A3015 RMK AO2 SLP204 T01670078=
200809251152 METAR KATL 251152Z 36005KT 10SM FEW250 14/08 A3015 RMK AO2 SLP204 T01440078 10167 20133 55001=
200809251052 METAR KATL 251052Z 04009KT 10SM FEW250 14/08 A3014 RMK AO2 SLP200 T01390078=
200809250952 METAR KATL 250952Z 03006KT 10SM CLR 14/07 A3015 RMK AO2 SLP203 T01390072=
200809250852 METAR KATL 250852Z 06009KT 10SM CLR 14/07 A3015 RMK AO2 SLP204 T01440072 58010=
200809250752 METAR KATL 250752Z 06007KT 10SM CLR 15/07 A3017 RMK AO2 SLP209 T01500067=
200809250652 METAR KATL 250652Z 06007KT 10SM SCT250 16/07 A3018 RMK AO2 SLP214 T01560067=
200809250552 METAR KATL 250552Z 04009KT 10SM SCT250 16/06 A3018 RMK AO2 SLP215 T01610061 10222 20161 58004=
200809250452 METAR KATL 250452Z 04008KT 10SM BKN250 17/06 A3019 RMK AO2 SLP217 T01720061 402560150=
200809250352 METAR KATL 250352Z 06007KT 10SM SCT250 17/06 A3019 RMK AO2 SLP218 T01720056=
200809250252 METAR KATL 250252Z 06008KT 10SM SCT250 19/05 A3019 RMK AO2 SLP218 T01890050 51007=
200809250152 METAR KATL 250152Z 07009KT 10SM SCT250 19/04 A3019 RMK AO2 SLP219 T01940044=
200809250052 METAR KATL 250052Z 07007KT 10SM SCT250 21/04 A3018 RMK AO2 SLP216 T02060039=
200809242352 METAR KATL 242352Z 05009KT 10SM CLR 22/03 A3017 RMK AO2 SLP212 T02220028 10256 20222 53004=
200809242252 METAR KATL 242252Z 05008KT 10SM SCT250 23/02 A3016 RMK AO2 SLP208 T02330022=
200809242152 METAR KATL 242152Z 03011KT 10SM SCT250 24/03 A3016 RMK AO2 SLP206 T02440033=
200809242052 METAR KATL 242052Z 04012G20KT 10SM FEW250 25/04 A3016 RMK AO2 SLP207 T02500039 56025=
200809241952 METAR KATL 241952Z 06011G20KT 10SM FEW250 25/04 A3018 RMK AO2 SLP212 T02500044=
200809241852 METAR KATL 241852Z 05007G16KT 10SM FEW250 24/04 A3020 RMK AO2 SLP221 T02440044=
200809241752 METAR KATL 241752Z 07012KT 10SM FEW250 23/06 A3024 RMK AO2 SLP233 T02330056 10239 20150 58016=
200809241652 METAR KATL 241652Z 07011G18KT 10SM FEW250 23/06 A3026 RMK AO2 SLP241 T02280056=
200809241552 METAR KATL 241552Z 06014G21KT 10SM FEW250 22/06 A3028 RMK AO2 SLP248 T02170056=
200809241452 METAR KATL 241452Z 07014KT 10SM FEW250 20/07 A3028 RMK AO2 SLP249 T02000067 53002=
200809241352 METAR KATL 241352Z 07014G20KT 10SM FEW250 18/09 A3028 RMK AO2 SLP249 T01830089=
200809241252 METAR KATL 241252Z 07014KT 10SM FEW250 17/11 A3028 RMK AO2 SLP247 T01670106=
200809241152 METAR KATL 241152Z 07010KT 9SM FEW250 15/11 A3028 RMK AO2 SLP247 T01500106 10189 20150 51002=
200809241052 METAR KATL 241052Z 07012G17KT 10SM CLR 16/11 A3027 RMK AO2 SLP246 T01610111 $=
200809240952 METAR KATL 240952Z 07012KT 9SM CLR 16/11 A3028 RMK AO2 SLP248 T01560111 $=
200809240852 METAR KATL 240852Z 07011KT 9SM CLR 16/12 A3027 RMK AO2 SLP244 T01610117 55002 $=
200809240752 METAR KATL 240752Z 07012KT 8SM CLR 17/12 A3027 RMK AO2 SLP242 T01670117 $=
200809240652 METAR KATL 240652Z 08010KT 7SM CLR 17/12 A3028 RMK AO2 SLP245 T01670122 $=
200809240552 METAR KATL 240552Z 07010KT 8SM CLR 18/12 A3028 RMK AO2 SLP246 T01780122 10233 20178 $=
200809240452 METAR KATL 240452Z 07012KT 10SM CLR 18/12 A3028 RMK AO2 SLP246 T01830122 402780178 $=
200809240352 METAR KATL 240352Z 07012KT 10SM CLR 19/12 A3028 RMK AO2 SLP247 T01940122=
200809240252 METAR KATL 240252Z 08009KT 10SM CLR 19/12 A3028 RMK AO2 SLP246 T01940122 51015=
200809240152 METAR KATL 240152Z 07011KT 10SM CLR 21/12 A3027 RMK AO2 SLP245 T02110117=
200809240052 METAR KATL 240052Z 07008KT 10SM CLR 22/11 A3025 RMK AO2 SLP237 T02220111=
200809232352 METAR KATL 232352Z 07011KT 10SM CLR 23/11 A3023 RMK AO2 SLP232 T02330111 10278 20233 53007=
200809232252 METAR KATL 232252Z 06013KT 10SM CLR 24/11 A3022 RMK AO2 SLP227 T02440111=
200809232152 METAR KATL 232152Z 06013KT 10SM FEW065 26/11 A3021 RMK AO2 SLP223 T02610106=
200809232052 METAR KATL 232052Z 07015KT 10SM FEW070 27/09 A3021 RMK AO2 SLP223 T02670089 56022=
200809231952 METAR KATL 231952Z 07016G20KT 10SM FEW065 27/08 A3023 RMK AO2 SLP227 T02720083=
200809231852 METAR KATL 231852Z 08008G25KT 050V120 10SM FEW070 27/09 A3025 RMK AO2 SLP234 T02670089=
200809231752 METAR KATL 231752Z 08015G20KT 10SM CLR 27/09 A3028 RMK AO2 SLP244 T02670094 10267 20178 58016=
200809231652 METAR KATL 231652Z 06016KT 10SM CLR 25/11 A3030 RMK AO2 SLP254 T02500106=
200809231552 METAR KATL 231552Z 07017G24KT 10SM FEW050 24/12 A3032 RMK AO2 SLP261 T02440117=
200809231452 METAR KATL 231452Z 08019G24KT 10SM CLR 23/12 A3033 RMK AO2 SLP262 T02280122 51009=
200809231352 METAR KATL 231352Z 07015KT 10SM CLR 21/12 A3032 RMK AO2 SLP261 T02110117=
200809231252 METAR KATL 231252Z 07013KT 10SM CLR 19/12 A3031 RMK AO2 SLP257 T01940122=
200809231152 METAR KATL 231152Z 06011KT 10SM CLR 18/12 A3030 RMK AO2 SLP254 T01780122 10200 20178 53013=
200809231052 METAR KATL 231052Z 06011KT 10SM CLR 18/12 A3028 RMK AO2 SLP247 T01780122=
200809230952 METAR KATL 230952Z 06008KT 10SM CLR 18/12 A3027 RMK AO2 SLP242 T01830122=
200809230852 METAR KATL 230852Z 07007KT 10SM CLR 18/12 A3026 RMK AO2 SLP239 T01830122 55002=
200809230752 METAR KATL 230752Z 07009KT 10SM CLR 19/12 A3026 RMK AO2 SLP238 T01940122=
200809230652 METAR KATL 230652Z 07010KT 10SM CLR 19/13 A3027 RMK AO2 SLP240 T01940128=
200809230552 METAR KATL 230552Z 07008KT 10SM CLR 19/13 A3027 RMK AO2 SLP241 T01940133 10256 20194 51003=
200809230452 METAR KATL 230452Z 07008KT 10SM CLR 21/13 A3027 RMK AO2 SLP241 T02060133 402890167=
200809230352 METAR KATL 230352Z 07006KT 10SM CLR 21/13 A3026 RMK AO2 SLP240 T02060133=
200809230252 METAR KATL 230252Z 07008KT 10SM CLR 22/13 A3026 RMK AO2 SLP239 T02220133 51015=
200809230152 METAR KATL 230152Z 07009KT 10SM CLR 23/13 A3025 RMK AO2 SLP236 T02280128=
200809230052 METAR KATL 230052Z 07010KT 10SM CLR 24/12 A3023 RMK AO2 SLP232 T02440122=
200809222352 METAR KATL 222352Z 06008KT 10SM CLR 26/11 A3022 RMK AO2 SLP225 T02560111 10289 20256 53004=
200809222252 METAR KATL 222252Z 04009KT 10SM CLR 27/11 A3021 RMK AO2 SLP222 T02670111=
200809222152 METAR KATL 222152Z 04006KT 10SM FEW065 28/11 A3020 RMK AO2 SLP220 T02780111=
200809222052 METAR KATL 222052Z 04009KT 10SM FEW065 28/11 A3020 RMK AO2 SLP219 T02830106 56015=
200809221952 METAR KATL 221952Z VRB06KT 10SM FEW060 28/12 A3021 RMK AO2 SLP223 T02780117=
200809221852 METAR KATL 221852Z 06005KT 10SM FEW060 28/11 A3022 RMK AO2 SLP227 T02780111=
200809221752 METAR KATL 221752Z 06007KT 10SM FEW060 27/12 A3025 RMK AO2 SLP235 T02720122 10272 20172 58013=
200809221652 METAR KATL 221652Z 07010G17KT 10SM FEW050 26/13 A3026 RMK AO2 SLP241 T02610133=
200809221552 METAR KATL 221552Z 07009KT 10SM CLR 24/14 A3028 RMK AO2 SLP247 T02440139=
200809221452 METAR KATL 221452Z 05010KT 10SM CLR 23/14 A3029 RMK AO2 SLP249 T02280139 51007=
200809221352 METAR KATL 221352Z 07009KT 10SM FEW150 21/14 A3028 RMK AO2 SLP248 T02060139=
200809221252 METAR KATL 221252Z 07008KT 10SM FEW050 18/14 A3028 RMK AO2 SLP248 T01830144=
200809221152 METAR KATL 221152Z 06006KT 10SM FEW180 17/14 A3027 RMK AO2 SLP243 T01720139 10178 20167 53011=
200809221052 METAR KATL 221052Z 06006KT 10SM FEW180 17/14 A3025 RMK AO2 SLP238 T01670139=
200809220952 METAR KATL 220952Z 06006KT 10SM FEW180 17/14 A3024 RMK AO2 SLP233 T01720139=
200809220852 METAR KATL 220852Z 06005KT 10SM FEW180 17/14 A3023 RMK AO2 SLP232 T01720139 57004=
200809220752 METAR KATL 220752Z 05008KT 10SM FEW180 17/14 A3024 RMK AO2 SLP233 T01720144=
200809220652 METAR KATL 220652Z 05007KT 10SM FEW150 18/14 A3024 RMK AO2 SLP234 T01780144=
200809220552 METAR KATL 220552Z 06009KT 10SM FEW150 18/14 A3024 RMK AO2 SLP236 T01780144 10211 20178 58004=
200809220452 METAR KATL 220452Z 05007KT 10SM FEW100 SCT150 18/15 A3026 RMK AO2 SLP240 T01830150 402390161=
200809220352 METAR KATL 220352Z 06007KT 10SM FEW100 SCT150 19/15 A3026 RMK AO2 SLP240 T01890150=
200809220252 METAR KATL 220252Z 06007KT 10SM FEW035 SCT100 BKN150 19/15 A3026 RMK AO2 SLP240 T01940150 51006=
200809220152 METAR KATL 220152Z 07009KT 10SM FEW035 SCT090 SCT150 19/15 A3025 RMK AO2 SLP240 T01940150=
200809220052 METAR KATL 220052Z 09009KT 10SM FEW035 SCT090 BKN150 20/15 A3024 RMK AO2 SLP237 T02000150=
200809212352 METAR KATL 212352Z 09009KT 10SM SCT035 BKN090 BKN150 21/15 A3024 RMK AO2 SLP235 T02110150 10239 20211 53011=
200809212252 METAR KATL 212252Z 07007KT 10SM SCT032 BKN041 BKN150 22/14 A3022 RMK AO2 SLP229 T02170144=
200809212152 METAR KATL 212152Z 06008KT 10SM BKN035 BKN150 BKN200 22/14 A3021 RMK AO2 SLP225 T02220139=
200809212052 METAR KATL 212052Z 07006KT 10SM SCT035 BKN150 BKN200 23/13 A3021 RMK AO2 SLP222 T02280133 55005=
200809211952 METAR KATL 211952Z 08006KT 10SM SCT035 BKN150 BKN200 23/14 A3020 RMK AO2 SLP221 T02280144=
200809211852 METAR KATL 211852Z 05009KT 030V090 10SM SCT035 BKN150 BKN200 23/14 A3020 RMK AO2 SLP221 T02280144=
200809211752 METAR KATL 211752Z 04008KT 10SM SCT029 BKN150 BKN200 22/14 A3022 RMK AO2 SLP228 T02220139 10233 20167 58011=
200809211652 METAR KATL 211652Z 06008KT 10SM SCT030 BKN150 BKN200 22/14 A3025 RMK AO2 SLP238 T02170139=
200809211552 METAR KATL 211552Z 06008KT 10SM FEW025 SCT120 BKN150 BKN200 21/14 A3026 RMK AO2 SLP241 T02110139=
200809211452 METAR KATL 211452Z 06012KT 10SM FEW100 BKN150 BKN200 20/13 A3025 RMK AO2 SLP239 T02000133 51007=
200809211352 METAR KATL 211352Z 07008KT 10SM FEW080 BKN150 BKN200 18/13 A3025 RMK AO2 SLP237 T01830128=
200809211252 METAR KATL 211252Z 06010KT 10SM FEW070 SCT150 BKN200 17/12 A3024 RMK AO2 SLP235 T01720122=
200809211152 METAR KATL 211152Z 07009KT 10SM FEW070 SCT140 BKN180 17/12 A3023 RMK AO2 SLP231 T01670117 10183 20161 51011=
200809211052 METAR KATL 211052Z 07008KT 10SM BKN150 17/11 A3022 RMK AO2 SLP227 T01670111=
200809210952 METAR KATL 210952Z 07008KT 10SM BKN180 17/11 A3021 RMK AO2 SLP224 T01670111=
200809210852 METAR KATL 210852Z 09007KT 10SM SCT140 16/11 A3020 RMK AO2 SLP219 T01610111 53000=
200809210752 METAR KATL 210752Z 09006KT 10SM SCT150 BKN250 17/11 A3020 RMK AO2 SLP218 T01670111=
200809210652 METAR KATL 210652Z 08009KT 10SM SCT150 BKN250 18/12 A3019 RMK AO2 SLP218 T01780117=
200809210552 METAR KATL 210552Z 06007KT 10SM SCT120 BKN150 18/12 A3020 RMK AO2 SLP219 T01830117 10228 20178 50004=
200809210452 METAR KATL 210452Z 07007KT 10SM FEW120 SCT180 18/12 A3020 RMK AO2 SLP220 T01830122 402610156=
200809210352 METAR KATL 210352Z 08004KT 10SM BKN150 18/12 A3020 RMK AO2 SLP221 T01830117=
200809210252 METAR KATL 210252Z 07006KT 10SM FEW100 BKN150 19/12 A3018 RMK AO2 SLP215 T01890117 53008=
200809210152 METAR KATL 210152Z 09008KT 10SM FEW100 BKN150 20/11 A3018 RMK AO2 SLP214 T02000111=
200809210052 METAR KATL 210052Z 09006KT 10SM FEW100 SCT150 21/11 A3016 RMK AO2 SLP209 T02060111=
200809202352 METAR KATL 202352Z 07010KT 10SM FEW100 SCT150 23/11 A3016 RMK AO2 SLP207 T02280106 10261 20228 53005=
200809202252 METAR KATL 202252Z 07007KT 10SM FEW060 SCT140 24/10 A3015 RMK AO2 SLP205 T02390100=
200809202152 METAR KATL 202152Z 05007KT 10SM FEW060 SCT140 25/09 A3014 RMK AO2 SLP199 T02500094=
200809202052 METAR KATL 202052Z 09009KT 10SM FEW060 SCT150 26/11 A3014 RMK AO2 SLP201 T02560106 56021=
200809201952 METAR KATL 201952Z 09008G15KT 050V120 10SM SCT055 SCT150 26/11 A3016 RMK AO2 SLP207 T02560111=
200809201852 METAR KATL 201852Z 05010G14KT 10SM FEW055 SCT150 SCT250 24/11 A3018 RMK AO2 SLP214 T02440111=
200809201752 METAR KATL 201752Z VRB03KT 10SM FEW050 SCT150 SCT250 24/11 A3021 RMK AO2 SLP222 T02390106 10239 20161 58015=
200809201652 METAR KATL 201652Z 06011KT 10SM FEW045 BKN150 BKN250 23/11 A3022 RMK AO2 SLP227 T02330111=
200809201552 METAR KATL 201552Z 07011G18KT 10SM SCT150 BKN200 22/11 A3024 RMK AO2 SLP234 T02170111=
200809201452 METAR KATL 201452Z 07015G19KT 10SM SCT150 SCT200 21/11 A3025 RMK AO2 SLP237 T02060111 51005=
200809201352 METAR KATL 201352Z 09012KT 10SM FEW150 SCT200 19/12 A3025 RMK AO2 SLP237 T01890117=
200809201252 METAR KATL 201252Z 07012KT 10SM SCT150 SCT200 17/12 A3024 RMK AO2 SLP236 T01720122=
200809201152 METAR KATL 201152Z 08008KT 10SM SCT150 SCT200 16/13 A3024 RMK AO2 SLP233 T01610128 10194 20156 53013=
200809201052 METAR KATL 201052Z 08010KT 10SM FEW040 SCT200 16/13 A3022 RMK AO2 SLP227 T01610128=
200809200952 METAR KATL 200952Z 09010KT 10SM BKN180 17/13 A3021 RMK AO2 SLP223 T01670128=
200809200852 METAR KATL 200852Z 09009KT 10SM CLR 17/13 A3020 RMK AO2 SLP218 T01720128 58001=
200809200752 METAR KATL 200752Z 08008KT 10SM FEW180 18/13 A3021 RMK AO2 SLP221 T01780128=
200809200652 METAR KATL 200652Z 08010KT 10SM SCT180 18/13 A3020 RMK AO2 SLP219 T01830128=
200809200552 METAR KATL 200552Z 08012KT 10SM BKN150 19/13 A3020 RMK AO2 SLP219 T01940128 10228 20189 50004=
200809200452 METAR KATL 200452Z 10010G18KT 10SM SCT150 BKN200 20/13 A3021 RMK AO2 SLP221 T02000128 402720167=
200809200352 METAR KATL 200352Z 09014KT 10SM BKN150 BKN200 21/13 A3020 RMK AO2 SLP219 T02060128=
200809200252 METAR KATL 200252Z 08013KT 10SM SCT150 BKN200 21/12 A3019 RMK AO2 SLP214 T02110122 50004=
200809200152 METAR KATL 200152Z 07010KT 10SM SCT150 BKN200 22/12 A3019 RMK AO2 SLP216 T02170122=
200809200052 METAR KATL 200052Z 09009KT 10SM FEW150 SCT200 22/12 A3018 RMK AO2 SLP213 T02170117=
200809192352 METAR KATL 192352Z 09010KT 10SM FEW055 SCT150 SCT200 23/11 A3017 RMK AO2 SLP212 T02280111 10272 20228 53002=
200809192252 METAR KATL 192252Z 09011KT 10SM FEW060 SCT200 24/11 A3017 RMK AO2 SLP208 T02440106=
200809192152 METAR KATL 192152Z 09011KT 10SM FEW065 SCT200 26/11 A3016 RMK AO2 SLP206 T02610111=
200809192052 METAR KATL 192052Z 07013G20KT 10SM FEW065 27/11 A3017 RMK AO2 SLP208 T02670106 56017=
200809191952 METAR KATL 191952Z 09013G18KT 10SM FEW065 SCT250 27/11 A3018 RMK AO2 SLP212 T02670106=
200809191852 METAR KATL 191852Z 07015G20KT 10SM FEW060 SCT250 26/10 A3020 RMK AO2 SLP218 T02610100=
200809191752 METAR KATL 191752Z 08012G20KT 10SM FEW250 26/10 A3022 RMK AO2 SLP226 T02560100 10256 20172 58016=
200809191652 METAR KATL 191652Z 10013G19KT 10SM FEW050 SCT250 25/11 A3024 RMK AO2 SLP233 T02500111=
200809191552 METAR KATL 191552Z 08016G20KT 10SM FEW045 SCT250 24/12 A3026 RMK AO2 SLP240 T02440117=
200809191452 METAR KATL 191452Z 10009KT 10SM FEW250 23/12 A3027 RMK AO2 SLP242 T02280122 53007=
200809191352 METAR KATL 191352Z 09010KT 10SM FEW250 21/13 A3026 RMK AO2 SLP240 T02060128=
200809191252 METAR KATL 191252Z 08010KT 9SM SCT250 19/13 A3025 RMK AO2 SLP237 T01890133=
200809191152 METAR KATL 191152Z 08009KT 9SM FEW250 17/13 A3025 RMK AO2 SLP236 T01720133 10206 20167 53015=
200809191052 METAR KATL 191052Z 08007KT 9SM FEW048 SCT200 17/13 A3023 RMK AO2 SLP230 T01720133=
200809190952 METAR KATL 190952Z 07009KT 9SM FEW048 SCT150 18/14 A3021 RMK AO2 SLP223 T01780139=
200809190852 METAR KATL 190852Z 08005KT 10SM FEW150 17/13 A3020 RMK AO2 SLP220 T01720133 53003=
200809190752 METAR KATL 190752Z 08007KT 10SM CLR 18/14 A3019 RMK AO2 SLP216 T01780139=
200809190652 METAR KATL 190652Z 09010KT 10SM CLR 19/14 A3019 RMK AO2 SLP214 T01890139=
200809190552 METAR KATL 190552Z 08010KT 10SM CLR 19/14 A3019 RMK AO2 SLP215 T01940144 10244 20194 51004=
200809190452 METAR KATL 190452Z 08008KT 10SM CLR 19/15 A3019 RMK AO2 SLP215 T01940150 402780189=
200809190352 METAR KATL 190352Z 08006KT 10SM CLR 20/15 A3018 RMK AO2 SLP214 T02000150=
200809190252 METAR KATL 190252Z 08008KT 10SM CLR 21/15 A3018 RMK AO2 SLP212 T02110150 51014=
200809190152 METAR KATL 190152Z 09007KT 10SM CLR 22/15 A3017 RMK AO2 SLP210 T02170150=
200809190052 METAR KATL 190052Z 11006KT 10SM CLR 24/14 A3015 RMK AO2 SLP203 T02390144=
200809182352 METAR KATL 182352Z 10006KT 10SM FEW050 24/14 A3014 RMK AO2 SLP199 T02440144 10278 20244 52003=
200809182252 METAR KATL 182252Z 11008KT 10SM FEW050 26/14 A3014 RMK AO2 SLP197 T02610144=
200809182152 METAR KATL 182152Z 10006KT 10SM FEW050 SCT075 27/14 A3013 RMK AO2 SLP194 T02670144=
200809182052 METAR KATL 182052Z 07007KT 10SM SCT050 26/14 A3013 RMK AO2 SLP195 T02610144 56014=
200809181952 METAR KATL 181952Z 05008KT 10SM SCT048 26/14 A3014 RMK AO2 SLP198 T02610144=
200809181852 METAR KATL 181852Z 07007KT 10SM SCT050 27/15 A3015 RMK AO2 SLP202 T02670150=
200809181752 METAR KATL 181752Z 06007KT 030V100 10SM SCT040 27/15 A3017 RMK AO2 SLP208 T02670150 10267 20189 58008=
200809181652 METAR KATL 181652Z 06008KT 10SM SCT035 25/16 A3019 RMK AO2 SLP214 T02500156=
200809181552 METAR KATL 181552Z 10007KT 10SM FEW030 SCT045 SCT090 24/15 A3020 RMK AO2 SLP219 T02390150=
200809181452 METAR KATL 181452Z 08009KT 10SM FEW035 SCT045 23/15 A3020 RMK AO2 SLP219 T02330150 51011=
200809181352 METAR KATL 181352Z 07008KT 10SM SCT033 BKN047 21/15 A3019 RMK AO2 SLP216 T02060150=
200809181252 METAR KATL 181252Z 07007KT 10SM BKN031 19/14 A3018 RMK AO2 SLP213 T01940144=
200809181152 METAR KATL 181152Z 06008KT 10SM BKN035 BKN060 19/14 A3016 RMK AO2 SLP208 T01890144 10200 20189 53010=
200809181052 METAR KATL 181052Z 07010KT 10SM BKN031 19/14 A3014 RMK AO2 SLP202 T01940144=
200809181016 SPECI KATL 181016Z 07008KT 10SM BKN031 19/15 A3014 RMK AO2=
200809181016 SPECI KATL 181016Z 07008KT 10SM BKN031 19/15 A3014 RMK AO2=
200809180952 METAR KATL 180952Z 05008KT 10SM BKN029 19/15 A3013 RMK AO2 SLP198 T01940150=
200809180852 METAR KATL 180852Z 06010KT 10SM BKN029 19/15 A3013 RMK AO2 SLP197 T01940150 55004=
200809180752 METAR KATL 180752Z 07005KT 10SM BKN027 19/16 A3013 RMK AO2 SLP196 T01940156=
200809180652 METAR KATL 180652Z 07006KT 10SM BKN027 OVC036 19/16 A3013 RMK AO2 SLP197 T01940161=
200809180552 METAR KATL 180552Z 06006KT 9SM BKN024 OVC034 19/16 A3014 RMK AO2 SLP201 BKN024V SCT T01940161 10194 20194 58005=
200809180452 METAR KATL 180452Z 07006KT 9SM SCT025 OVC036 19/16 A3015 RMK AO2 SLP204 T01940161 402060172=
200809180430 SPECI KATL 180430Z 08006KT 9SM SCT024 BKN032 OVC040 19/16 A3015 RMK AO2=
200809180430 SPECI KATL 180430Z 08006KT 9SM SCT024 BKN032 OVC040 19/16 A3015 RMK AO2=
200809180352 METAR KATL 180352Z 08006KT 9SM BKN023 BKN030 OVC040 19/16 A3016 RMK AO2 SLP206 T01940161=
200809180326 SPECI KATL 180326Z 07005KT 8SM BKN022 OVC038 19/16 A3016 RMK AO2=
200809180326 SPECI KATL 180326Z 07005KT 8SM BKN022 OVC038 19/16 A3016 RMK AO2=
200809180311 SPECI KATL 180311Z 08006KT 8SM SCT025 OVC038 19/16 A3016 RMK AO2=
200809180311 SPECI KATL 180311Z 08006KT 8SM SCT025 OVC038 19/16 A3016 RMK AO2=
200809180252 METAR KATL 180252Z 08006KT 8SM FEW018 BKN024 OVC040 19/16 A3016 RMK AO2 SLP207 T01940161 51011=
200809180152 METAR KATL 180152Z 09006KT 8SM BKN015 BKN022 OVC030 19/16 A3015 RMK AO2 SLP206 T01940161=
200809180052 METAR KATL 180052Z 10006KT 8SM FEW015 BKN023 OVC030 19/16 A3013 RMK AO2 SLP199 T01940161=
200809172352 METAR KATL 172352Z 08006KT 7SM BKN016 OVC022 19/16 A3012 RMK AO2 SLP196 60000 T01940161 10206 20189 57000=
200809172309 SPECI KATL 172309Z 06006KT 7SM BKN016 OVC022 20/16 A3012 RMK AO2=
200809172309 SPECI KATL 172309Z 06006KT 7SM BKN016 OVC022 20/16 A3012 RMK AO2=
200809172252 METAR KATL 172252Z 05005KT 7SM BKN014 OVC020 19/16 A3012 RMK AO2 SLP196 T01940161=
200809172152 METAR KATL 172152Z 06009KT 7SM OVC011 19/16 A3013 RMK AO2 RAE07 SLP196 P0000 T01940161=
200809172052 METAR KATL 172052Z 08007KT 5SM -RA OVC011 19/16 A3013 RMK AO2 RAB48 SLP196 P0000 60000 T01890161 56007=
200809171952 METAR KATL 171952Z 08010KT 8SM OVC011 19/16 A3013 RMK AO2 SLP196 T01940161=
200809171852 METAR KATL 171852Z 08010KT 8SM SCT009 BKN011 OVC020 20/16 A3014 RMK AO2 SLP199 T02000161=
200809171752 METAR KATL 171752Z 07009KT 8SM OVC009 19/16 A3015 RMK AO2 SLP204 T01890161 10189 20178 58001=
200809171652 METAR KATL 171652Z 05009KT 7SM OVC008 19/16 A3016 RMK AO2 SLP206 T01890161=
200809171552 METAR KATL 171552Z 06010KT 6SM HZ OVC007 19/16 A3016 RMK AO2 SLP207 T01890161=
200809171452 METAR KATL 171452Z 08009KT 6SM HZ OVC007 18/16 A3015 RMK AO2 SLP205 T01830156 53011=
200809171352 METAR KATL 171352Z 06009KT 6SM HZ OVC009 18/16 A3014 RMK AO2 SLP200 T01830156=
200809171252 METAR KATL 171252Z 06007G17KT 6SM BR OVC009 18/16 A3013 RMK AO2 SLP198 T01780156=
200809171152 METAR KATL 171152Z 06011KT 6SM HZ OVC009 18/15 A3012 RMK AO2 SLP193 60000 T01780150 10189 20172 53008=
200809171052 METAR KATL 171052Z 07008KT 7SM BKN009 OVC012 18/16 A3010 RMK AO2 DZE24 SLP187 P0000 T01780156=
200809170952 METAR KATL 170952Z 09007KT 3SM -DZ BR OVC007 17/16 A3010 RMK AO2 DZB45 CIG 004V009 SLP187 P0000 T01720156=
200809170934 SPECI KATL 170934Z 08008KT 6SM BR OVC009 18/16 A3010 RMK AO2 CIG 006V012=
200809170934 SPECI KATL 170934Z 08008KT 6SM BR OVC009 18/16 A3010 RMK AO2 CIG 006V012=
200809170852 METAR KATL 170852Z 10010KT 7SM OVC011 18/15 A3009 RMK AO2 SLP184 T01830150 56004=
200809170752 METAR KATL 170752Z 08011KT 7SM OVC013 19/15 A3010 RMK AO2 SLP183 T01890150=
200809170652 METAR KATL 170652Z 06010KT 10SM OVC015 19/15 A3010 RMK AO2 SLP185 T01890150=
200809170552 METAR KATL 170552Z 06010KT 10SM BKN015 OVC018 19/15 A3011 RMK AO2 SLP187 T01890150 10211 20189 58005=
200809170452 METAR KATL 170452Z 08010KT 10SM OVC015 19/16 A3012 RMK AO2 SLP192 T01940156 402670172=
200809170352 METAR KATL 170352Z 08013KT 10SM OVC015 19/16 A3013 RMK AO2 SLP195 T01940156=
200809170252 METAR KATL 170252Z 06010KT 10SM BKN016 BKN150 BKN250 20/16 A3012 RMK AO2 SLP193 T02000156 51016=
200809170235 SPECI KATL 170235Z 07010KT 10SM BKN015 BKN150 BKN250 20/16 A3012 RMK AO2=
200809170235 SPECI KATL 170235Z 07010KT 10SM BKN015 BKN150 BKN250 20/16 A3012 RMK AO2=
200809170215 SPECI KATL 170215Z 07009KT 10SM SCT015 BKN150 BKN250 20/16 A3012 RMK AO2=
200809170215 SPECI KATL 170215Z 07009KT 10SM SCT015 BKN150 BKN250 20/16 A3012 RMK AO2=
200809170052 METAR KATL 170052Z 07010KT 10SM SCT015 BKN150 BKN200 21/17 A3009 RMK AO2 SLP184 T02060167=
200809162352 METAR KATL 162352Z 05008KT 10SM BKN018 BKN045 BKN150 21/17 A3008 RMK AO2 SLP178 T02110167 10267 20211 53010=
200809162336 SPECI KATL 162336Z 05010KT 10SM BKN018 BKN045 BKN150 22/17 A3007 RMK AO2=
200809162336 SPECI KATL 162336Z 05010KT 10SM BKN018 BKN045 BKN150 22/17 A3007 RMK AO2=
200809162252 METAR KATL 162252Z 07011KT 10SM FEW030 BKN140 OVC200 22/17 A3007 RMK AO2 SLP175 T02220167=
200809162152 METAR KATL 162152Z 06010KT 10SM FEW035 BKN150 OVC250 24/17 A3005 RMK AO2 SLP169 T02390167=
200809162052 METAR KATL 162052Z 05006KT 10SM FEW040 BKN150 BKN250 25/15 A3004 RMK AO2 SLP167 T02500150 55007=
200809161952 METAR KATL 161952Z 04008KT 10SM FEW040 SCT050 BKN150 BKN250 25/14 A3004 RMK AO2 SLP166 T02500144=
200809161852 METAR KATL 161852Z 05008KT 10SM SCT042 BKN150 BKN250 26/15 A3005 RMK AO2 SLP169 T02560150=
200809161752 METAR KATL 161752Z 03008KT 10SM SCT040 BKN150 BKN250 26/14 A3006 RMK AO2 SLP173 T02560144 10267 20172 58004=
200809161652 METAR KATL 161652Z 33008KT 10SM BKN030 BKN150 BKN250 24/16 A3008 RMK AO2 SLP177 T02440156=
200809161552 METAR KATL 161552Z 03004KT 10SM SCT023 SCT150 SCT250 24/16 A3009 RMK AO2 SLP181 T02390156=
200809161540 SPECI KATL 161540Z 36005KT 10SM SCT025 SCT150 SCT250 23/17 A3008 RMK AO2=
200809161540 SPECI KATL 161540Z 36005KT 10SM SCT025 SCT150 SCT250 23/17 A3008 RMK AO2=
200809161528 SPECI KATL 161528Z 08006KT 10SM FEW020 SCT025 BKN150 22/16 A3008 RMK AO2=
200809161528 SPECI KATL 161528Z 08006KT 10SM FEW020 SCT025 BKN150 22/16 A3008 RMK AO2=
200809161459 SPECI KATL 161459Z 33004KT 10SM BKN018 BKN075 BKN150 21/16 A3008 RMK AO2=
200809161459 SPECI KATL 161459Z 33004KT 10SM BKN018 BKN075 BKN150 21/16 A3008 RMK AO2=
200809161452 METAR KATL 161452Z 34006KT 10SM FEW020 SCT120 BKN150 22/16 A3008 RMK AO2 SLP177 T02170161 51013=
200809161352 METAR KATL 161352Z 35005KT 10SM SCT013 BKN019 BKN150 19/15 A3006 RMK AO2 SLP173 T01940150=
200809161252 METAR KATL 161252Z 34008KT 8SM BKN013 BKN140 18/14 A3006 RMK AO2 SLP172 T01830144=
200809161201 SPECI KATL 161201Z 33007KT 10SM BKN013 BKN140 18/14 A3004 RMK AO2=
200809161201 SPECI KATL 161201Z 33007KT 10SM BKN013 BKN140 18/14 A3004 RMK AO2=
200809161152 METAR KATL 161152Z 32008KT 9SM SCT013 BKN140 BKN180 17/14 A3004 RMK AO2 SLP165 T01720139 10178 20172 53006=
200809161052 METAR KATL 161052Z 32005KT 10SM SCT140 BKN180 BKN250 17/14 A3003 RMK AO2 SLP162 T01720139=
200809160952 METAR KATL 160952Z 31004KT 10SM BKN140 OVC200 18/14 A3001 RMK AO2 SLP156 T01780139=
200809160852 METAR KATL 160852Z 31005KT 10SM BKN140 18/14 A3002 RMK AO2 SLP157 T01780139 53001=
200809160752 METAR KATL 160752Z 32006KT 10SM BKN120 BKN180 18/14 A3000 RMK AO2 SLP152 T01780139=
200809160652 METAR KATL 160652Z 32003KT 10SM SCT140 17/14 A3001 RMK AO2 SLP154 T01720139=
200809160552 METAR KATL 160552Z 31007KT 10SM SCT140 SCT200 18/14 A3001 RMK AO2 SLP156 T01780139 10228 20178 58003=
200809160452 METAR KATL 160452Z 32008KT 10SM FEW140 SCT200 19/14 A3002 RMK AO2 SLP159 T01890139 402610189=
200809160352 METAR KATL 160352Z 31006KT 10SM FEW110 SCT150 BKN200 19/14 A3003 RMK AO2 SLP160 T01940139=
200809160252 METAR KATL 160252Z 33007KT 10SM BKN110 BKN150 BKN200 20/14 A3002 RMK AO2 SLP158 T02000139 50005=
200809160152 METAR KATL 160152Z 35010KT 10SM FEW042 SCT080 BKN150 OVC200 21/13 A3002 RMK AO2 SLP158 T02110133=
200809160052 METAR KATL 160052Z 33012KT 10SM FEW045 OVC065 22/15 A3001 RMK AO2 SLP154 T02220150=
200809152352 METAR KATL 152352Z 34007KT 10SM BKN040 OVC065 23/15 A3001 RMK AO2 SLP152 T02280150 10261 20228 53010=
200809152252 METAR KATL 152252Z 33010G17KT 10SM OVC037 24/16 A2999 RMK AO2 SLP147 T02390156=
200809152152 METAR KATL 152152Z 33008KT 10SM OVC037 24/17 A2998 RMK AO2 SLP142 T02390172=
200809152052 METAR KATL 152052Z 32010KT 10SM FEW025 OVC036 24/17 A2997 RMK AO2 SLP141 T02440172 58009=
200809151952 METAR KATL 151952Z 31007KT 10SM FEW025 OVC032 24/18 A2999 RMK AO2 SLP145 T02390178=
200809151852 METAR KATL 151852Z 33007KT 10SM FEW025 BKN030 BKN060 26/18 A3000 RMK AO2 SLP149 T02560178=
200809151849 SPECI KATL 151849Z 33007KT 10SM SCT025 BKN032 BKN060 25/18 A3000 RMK AO2=
200809151849 SPECI KATL 151849Z 33007KT 10SM SCT025 BKN032 BKN060 25/18 A3000 RMK AO2=
200809151759 SPECI KATL 151759Z VRB06KT 10SM SCT023 BKN029 OVC038 26/19 A3001 RMK AO2=
200809151759 SPECI KATL 151759Z VRB06KT 10SM SCT023 BKN029 OVC038 26/19 A3001 RMK AO2=
200809151752 METAR KATL 151752Z 33007KT 10SM SCT023 BKN032 BKN040 26/19 A3001 RMK AO2 SLP152 T02560189 10261 20228 58002=
200809151652 METAR KATL 151652Z 32011G15KT 10SM SCT023 BKN032 BKN050 26/19 A3002 RMK AO2 SLP156 T02560189=
200809151626 SPECI KATL 151626Z 34007KT 10SM FEW025 BKN035 BKN055 26/19 A3003 RMK AO2=
200809151626 SPECI KATL 151626Z 34007KT 10SM FEW025 BKN035 BKN055 26/19 A3003 RMK AO2=
200809151552 METAR KATL 151552Z 31008KT 10SM FEW025 SCT035 SCT055 26/19 A3003 RMK AO2 SLP159 T02560189=
200809151452 METAR KATL 151452Z 31007KT 10SM FEW025 BKN037 BKN070 24/18 A3002 RMK AO2 SLP154 T02440183 53010=
200809151352 METAR KATL 151352Z 33007KT 10SM FEW020 SCT047 SCT070 24/18 A3000 RMK AO2 SLP149 T02390183=
200809151252 METAR KATL 151252Z 34005KT 10SM SCT036 SCT100 23/18 A2999 RMK AO2 SLP146 T02330178=
200809151152 METAR KATL 151152Z 32006KT 10SM FEW013 SCT044 23/19 A2999 RMK AO2 SLP144 T02280194 10256 20228 53010=
200809151052 METAR KATL 151052Z 30007KT 10SM SCT015 BKN039 23/20 A2998 RMK AO2 SLP139 T02280200=
200809151028 SPECI KATL 151028Z 30007KT 10SM BKN013 BKN031 23/20 A2997 RMK AO2=
200809151028 SPECI KATL 151028Z 30007KT 10SM BKN013 BKN031 23/20 A2997 RMK AO2=
200809151013 SPECI KATL 151013Z 31006KT 10SM SCT013 BKN033 23/20 A2996 RMK AO2=
200809151013 SPECI KATL 151013Z 31006KT 10SM SCT013 BKN033 23/20 A2996 RMK AO2=
200809150952 METAR KATL 150952Z 31006KT 10SM FEW013 BKN029 OVC035 23/20 A2996 RMK AO2 SLP133 T02280200=
200809150910 SPECI KATL 150910Z 31007KT 10SM SCT019 SCT025 BKN030 23/19 A2995 RMK AO2=
200809150910 SPECI KATL 150910Z 31007KT 10SM SCT019 SCT025 BKN030 23/19 A2995 RMK AO2=
200809150852 METAR KATL 150852Z 31008KT 10SM BKN019 BKN027 23/19 A2994 RMK AO2 SLP129 T02330194 55002=
200809150752 METAR KATL 150752Z 33009KT 10SM BKN015 BKN022 BKN028 24/20 A2994 RMK AO2 SLP129 T02390200=
200809150721 SPECI KATL 150721Z 26007KT 10SM BKN028 OVC055 25/21 A2994 RMK AO2=
200809150721 SPECI KATL 150721Z 26007KT 10SM BKN028 OVC055 25/21 A2994 RMK AO2=
200809150652 METAR KATL 150652Z 25006KT 10SM FEW028 BKN049 25/21 A2995 RMK AO2 SLP128 T02500206=
200809150552 METAR KATL 150552Z 24006KT 10SM OVC055 26/21 A2995 RMK AO2 SLP130 T02560206 10283 20250 58002=
200809150452 METAR KATL 150452Z 22007KT 10SM BKN055 26/21 A2996 RMK AO2 SLP133 T02560206 403110222=
200809150352 METAR KATL 150352Z 22007KT 10SM BKN060 26/21 A2995 RMK AO2 SLP131 T02560211=
200809150252 METAR KATL 150252Z 21007KT 10SM BKN055 BKN250 26/21 A2995 RMK AO2 SLP132 T02610206 53009=
200809150152 METAR KATL 150152Z 21005KT 10SM FEW060 SCT250 26/21 A2995 RMK AO2 SLP133 T02610206=
200809150052 METAR KATL 150052Z 19006KT 10SM FEW060 SCT250 27/20 A2993 RMK AO2 SLP123 T02720200=
200809142352 METAR KATL 142352Z 22006KT 10SM FEW055 SCT150 SCT250 28/20 A2993 RMK AO2 SLP124 T02830200 10311 20283 53002=
200809142252 METAR KATL 142252Z 22011KT 10SM FEW044 BKN250 29/19 A2992 RMK AO2 SLP122 T02890194=
200809142152 METAR KATL 142152Z 21013KT 10SM SCT044 BKN055 29/19 A2992 RMK AO2 SLP122 T02940189=
200809142052 METAR KATL 142052Z 22011KT 10SM SCT045 BKN250 30/18 A2992 RMK AO2 SLP121 T03000183 58019=
200809141952 METAR KATL 141952Z 22016G21KT 10SM SCT047 BKN250 30/18 A2994 RMK AO2 SLP128 T03000183=
200809141852 METAR KATL 141852Z COR 21012G17KT 10SM SCT045 OVC250 30/18 A2996 RMK AO2 SLP136 T03000183 $=
200809141752 METAR KATL 141752Z 22012G20KT 10SM SCT041 OVC250 30/18 A2998 RMK AO2 SLP140 T03000183 10300 20228 58009=
200809141652 METAR KATL 141652Z 20015G20KT 10SM SCT035 BKN250 29/18 A2999 RMK AO2 SLP145 T02890178=
200809141552 METAR KATL 141552Z 21014G21KT 10SM FEW028 SCT035 BKN250 28/18 A3000 RMK AO2 SLP148 T02780183=
200809141452 METAR KATL 141452Z 22009G15KT 10SM SCT021 BKN250 27/20 A3001 RMK AO2 SLP149 T02670200 50002=
200809141352 METAR KATL 141352Z 23010G19KT 10SM SCT014 BKN250 24/20 A3001 RMK AO2 SLP152 T02440200=
200809141316 SPECI KATL 141316Z 22007KT 10SM SCT010 BKN250 24/21 A3000 RMK AO2 SCT010V BKN=
200809141316 SPECI KATL 141316Z 22007KT 10SM SCT010 BKN250 24/21 A3000 RMK AO2 SCT010V BKN=
200809141252 METAR KATL 141252Z 20011KT 10SM BKN010 BKN250 23/21 A3000 RMK AO2 SLP150 T02330206=
200809141245 SPECI KATL 141245Z 21009KT 10SM BKN010 BKN250 23/21 A3000 RMK AO2=
200809141245 SPECI KATL 141245Z 21009KT 10SM BKN010 BKN250 23/21 A3000 RMK AO2=
200809141216 SPECI KATL 141216Z 20009KT 3SM FEW004 SCT010 BKN250 23/21 A3000 RMK AO2 SFC VIS 7=
200809141216 SPECI KATL 141216Z 20009KT 3SM FEW004 SCT010 BKN250 23/21 A3000 RMK AO2 SFC VIS 7=
200809141204 SPECI KATL 141204Z 22008KT 3SM SCT004 BKN010 BKN250 23/21 A3000 RMK AO2 SFC VIS 7=
200809141204 SPECI KATL 141204Z 22008KT 3SM SCT004 BKN010 BKN250 23/21 A3000 RMK AO2 SFC VIS 7=
200809141152 METAR KATL 141152Z 22009KT 3SM BR OVC004 23/21 A3000 RMK AO2 SFC VIS 5 SLP148 T02280211 10244 20222 53006=
200809141118 SPECI KATL 141118Z 20006KT 3SM BR BKN004 BKN008 BKN250 22/21 A2998 RMK AO2 SFC VIS 5=
200809141118 SPECI KATL 141118Z 20006KT 3SM BR BKN004 BKN008 BKN250 22/21 A2998 RMK AO2 SFC VIS 5=
200809141054 SPECI KATL 141054Z 18007KT 8SM BKN008 BKN250 22/21 A2997 RMK AO2=
200809141054 SPECI KATL 141054Z 18007KT 8SM BKN008 BKN250 22/21 A2997 RMK AO2=
200809141052 METAR KATL 141052Z 18007KT 8SM SCT009 BKN250 22/21 A2997 RMK AO2 SLP139 T02220206=
200809141045 SPECI KATL 141045Z 18007KT 8SM FEW009 BKN250 22/21 A2997 RMK AO2=
200809141045 SPECI KATL 141045Z 18007KT 8SM FEW009 BKN250 22/21 A2997 RMK AO2=
200809140952 METAR KATL 140952Z 18007KT 10SM BKN250 23/21 A2997 RMK AO2 SLP138 T02280206=
200809140852 METAR KATL 140852Z 18006KT 10SM FEW200 BKN250 23/21 A2998 RMK AO2 SLP141 T02280206 56012=
200809140752 METAR KATL 140752Z 20005KT 10SM FEW200 BKN250 23/21 A2998 RMK AO2 SLP142 T02330206=
200809140652 METAR KATL 140652Z 17005KT 10SM FEW200 SCT250 24/21 A2999 RMK AO2 SLP146 T02390206=
200809140552 METAR KATL 140552Z 17006KT 10SM FEW250 24/21 A3001 RMK AO2 SLP152 T02440206 10278 20244 56004=
200809140452 METAR KATL 140452Z 14004KT 10SM FEW250 24/21 A3001 RMK AO2 SLP152 T02440206 403000228=
200809140352 METAR KATL 140352Z 16006KT 10SM FEW250 25/21 A3003 RMK AO2 SLP157 T02500211=
200809140252 METAR KATL 140252Z 14007KT 10SM FEW040 SCT100 SCT250 26/21 A3003 RMK AO2 SLP158 T02560211 51009=
200809140152 METAR KATL 140152Z 13005KT 10SM FEW250 27/21 A3003 RMK AO2 SLP158 T02670211=
200809140052 METAR KATL 140052Z 14005KT 10SM FEW250 27/21 A3001 RMK AO2 SLP153 T02670211=
200809132352 METAR KATL 132352Z 16006KT 10SM FEW037 SCT250 28/21 A3000 RMK AO2 SLP149 T02780211 10300 20278 56002=
200809132252 METAR KATL 132252Z 15006KT 10SM FEW037 SCT250 29/20 A3000 RMK AO2 SLP148 T02890200=
200809132152 METAR KATL 132152Z 15007KT 10SM FEW037 SCT150 30/19 A2999 RMK AO2 SLP146 TCU DSNT SE T03000194=
200809132052 METAR KATL 132052Z 18008KT 10SM SCT046TCU BKN075 BKN150 29/20 A3000 RMK AO2 SLP149 TCU NE AND DSNT SW T02940200 56016=
200809131952 METAR KATL 131952Z 15004KT 10SM SCT035 SCT045 BKN065 30/21 A3002 RMK AO2 SLP153 T03000206=
200809131852 METAR KATL 131852Z 14008KT 10SM SCT032 BKN037 BKN060 29/21 A3004 RMK AO2 SLP161 TCU DSNT SW AND W T02890206=
200809131818 SPECI KATL 131818Z 15008KT 10SM SCT028TCU BKN033 BKN041 29/21 A3005 RMK AO2 TCU SW SCT028V BKN=
200809131818 SPECI KATL 131818Z 15008KT 10SM SCT028TCU BKN033 BKN041 29/21 A3005 RMK AO2 TCU SW SCT028V BKN=
200809131803 SPECI KATL 131803Z 15006KT 10SM BKN026TCU BKN036 BKN044 28/21 A3005 RMK AO2 TCU SW BKN026V SCT=
200809131803 SPECI KATL 131803Z 15006KT 10SM BKN026TCU BKN036 BKN044 28/21 A3005 RMK AO2 TCU SW BKN026V SCT=
200809131752 METAR KATL 131752Z 15005KT 10SM SCT026 SCT031 BKN039 28/21 A3005 RMK AO2 SLP166 T02830211 10283 20233 58011=
200809131719 SPECI KATL 131719Z 16008KT 10SM SCT021TCU SCT029 BKN033 27/21 A3007 RMK AO2 TCU W AND DSNT S=
200809131719 SPECI KATL 131719Z 16008KT 10SM SCT021TCU SCT029 BKN033 27/21 A3007 RMK AO2 TCU W AND DSNT S=
200809131652 METAR KATL 131652Z 10004KT 10SM BKN021 BKN027 BKN034 27/21 A3008 RMK AO2 SLP174 T02720211=
200809131552 METAR KATL 131552Z 18005KT 9SM BKN018 26/21 A3009 RMK AO2 SLP180 T02610211=
200809131535 SPECI KATL 131535Z 17007KT 9SM OVC016 26/21 A3009 RMK AO2=
200809131535 SPECI KATL 131535Z 17007KT 9SM OVC016 26/21 A3009 RMK AO2=
200809131452 METAR KATL 131452Z 18005KT 8SM BKN014 25/21 A3009 RMK AO2 SLP178 T02500211 53005 $=
200809131409 SPECI KATL 131409Z 19003KT 8SM OVC010 24/21 A3008 RMK AO2 BINOVC OHD AND E=
200809131409 SPECI KATL 131409Z 19003KT 8SM OVC010 24/21 A3008 RMK AO2 BINOVC OHD AND E=
200809131352 METAR KATL 131352Z 21006KT 8SM BKN006 OVC012 24/21 A3008 RMK AO2 SLP177 T02440211=
200809131252 METAR KATL 131252Z 15006KT 9SM OVC006 23/21 A3008 RMK AO2 SLP175 T02330211 $=
200809131152 METAR KATL 131152Z 15003KT 10SM OVC006 23/21 A3007 RMK AO2 SLP173 BINOVC 70001 T02330211 10239 20228 53007=
200809131052 METAR KATL 131052Z 14004KT 10SM OVC006 23/21 A3005 RMK AO2 CIG 005V010 SLP164 T02330211=
200809130952 METAR KATL 130952Z 12005KT 10SM OVC008 23/21 A3005 RMK AO2 CIG 005V010 SLP163 T02330211=
200809130852 METAR KATL 130852Z 13005KT 10SM OVC006 23/21 A3005 RMK AO2 CIG 004V009 SLP165 T02280211 56015=
200809130806 SPECI KATL 130806Z 12003KT 9SM BKN006 BKN020 23/21 A3006 RMK AO2=
200809130806 SPECI KATL 130806Z 12003KT 9SM BKN006 BKN020 23/21 A3006 RMK AO2=
200809130752 METAR KATL 130752Z 11005KT 10SM SCT006 BKN020 23/21 A3006 RMK AO2 SLP167 T02330211=
200809130744 SPECI KATL 130744Z 11006KT 10SM FEW006 BKN020 23/21 A3006 RMK AO2=
200809130744 SPECI KATL 130744Z 11006KT 10SM FEW006 BKN020 23/21 A3006 RMK AO2=
200809130652 METAR KATL 130652Z 10005KT 10SM FEW020 23/21 A3007 RMK AO2 SLP173 T02330211=
200809130552 METAR KATL 130552Z 00000KT 10SM FEW020 24/22 A3010 RMK AO2 SLP181 T02390217 10283 20239 58000=
200809130452 METAR KATL 130452Z 12005KT 10SM FEW024 24/21 A3011 RMK AO2 SLP185 T02440211 403060222=
200809130447 SPECI KATL 130447Z 12006KT 10SM SCT024 SCT250 24/21 A3010 RMK AO2 403060222=
200809130447 SPECI KATL 130447Z 12006KT 10SM SCT024 SCT250 24/21 A3010 RMK AO2 403060222=
200809130436 SPECI KATL 130436Z 12007KT 10SM BKN024 BKN250 24/21 A3011 RMK AO2=
200809130436 SPECI KATL 130436Z 12007KT 10SM BKN024 BKN250 24/21 A3011 RMK AO2=
200809130352 METAR KATL 130352Z 13005KT 10SM FEW250 25/21 A3010 RMK AO2 SLP181 T02500211=
200809130252 METAR KATL 130252Z 10006KT 10SM FEW250 26/21 A3010 RMK AO2 SLP183 T02560206 51013=
200809130152 METAR KATL 130152Z COR 12007KT 10SM FEW250 26/21 A3010 RMK AO2 SLP182 T02610211=
200809130052 METAR KATL 130052Z 11008KT 10SM FEW070 BKN250 27/21 A3007 RMK AO2 SLP173 T02720211=
200809122352 METAR KATL 122352Z 11008KT 10SM FEW035 BKN250 28/21 A3006 RMK AO2 SLP169 T02830211 10306 20278 55001=
200809122252 METAR KATL 122252Z 12005KT 10SM FEW035 SCT250 29/20 A3005 RMK AO2 SLP166 CB DSNT SE T02940200=
200809122152 METAR KATL 122152Z 14008KT 10SM FEW040TCU SCT065 31/19 A3006 RMK AO2 SLP168 TCU E AND NW T03060194=
200809122052 METAR KATL 122052Z 12003KT 10SM FEW035TCU SCT060 29/19 A3006 RMK AO2 SLP169 TCU W NW T02940194 56025=
200809121952 METAR KATL 121952Z 12008KT 10SM FEW035TCU SCT055 29/20 A3008 RMK AO2 SLP175 TCU E T02940200=
200809121852 METAR KATL 121852Z 13005G14KT 10SM BKN035 BKN055 28/20 A3011 RMK AO2 SLP186 TCU DSNT S T02830200=
200809121752 METAR KATL 121752Z 13007KT 10SM SCT025 SCT050 28/21 A3014 RMK AO2 SLP196 60001 T02830211 10283 20222 58012=
200809121659 SPECI KATL 121659Z 11009KT 10SM SCT015 BKN020 BKN040 26/21 A3016 RMK AO2=
200809121659 SPECI KATL 121659Z 11009KT 10SM SCT015 BKN020 BKN040 26/21 A3016 RMK AO2=
200809121652 METAR KATL 121652Z 12008KT 10SM FEW015 SCT020 BKN040 26/22 A3017 RMK AO2 SLP205 T02610217=
200809121649 SPECI KATL 121649Z VRB06KT 10SM FEW015 SCT020 BKN040 27/22 A3017 RMK AO2=
200809121649 SPECI KATL 121649Z VRB06KT 10SM FEW015 SCT020 BKN040 27/22 A3017 RMK AO2=
200809121637 SPECI KATL 121637Z 10006KT 10SM BKN015 BKN020 BKN040 26/22 A3017 RMK AO2=
200809121637 SPECI KATL 121637Z 10006KT 10SM BKN015 BKN020 BKN040 26/22 A3017 RMK AO2=
200809121611 SPECI KATL 121611Z 11008KT 9SM BKN011 BKN015 BKN040 26/22 A3017 RMK AO2=
200809121611 SPECI KATL 121611Z 11008KT 9SM BKN011 BKN015 BKN040 26/22 A3017 RMK AO2=
200809121552 METAR KATL 121552Z 14006KT 9SM BKN007 BKN012 BKN020 25/22 A3017 RMK AO2 DZE46 SLP209 P0000 T02500217=
200809121548 SPECI KATL 121548Z 14006KT 8SM BKN007 BKN010 BKN020 24/22 A3018 RMK AO2 DZE46 P0000=
200809121548 SPECI KATL 121548Z 14006KT 8SM BKN007 BKN010 BKN020 24/22 A3018 RMK AO2 DZE46 P0000=
200809121452 METAR KATL 121452Z 12007KT 2SM -DZ BR OVC007 23/22 A3017 RMK AO2 SFC VIS 5 DZE30B49 CIG 005V011 SLP209 P0000 60001 T02330217 53005=
200809121435 SPECI KATL 121435Z 13005KT 2SM BR OVC005 23/22 A3017 RMK AO2 SFC VIS 6 DZE30 P0000=
200809121435 SPECI KATL 121435Z 13005KT 2SM BR OVC005 23/22 A3017 RMK AO2 SFC VIS 6 DZE30 P0000=
200809121403 SPECI KATL 121403Z 12007KT 1SM -DZ BR OVC005 23/21 A3016 RMK AO2 SFC VIS 5 CIG 003V009 P0000=
200809121403 SPECI KATL 121403Z 12007KT 1SM -DZ BR OVC005 23/21 A3016 RMK AO2 SFC VIS 5 CIG 003V009 P0000=
200809121352 METAR KATL 121352Z 12007KT 3/4SM -DZ BR OVC005 23/21 A3016 RMK AO2 SFC VIS 3 CIG 003V007 SLP205 P0001 T02280211=
200809121341 SPECI KATL 121341Z 11008KT 3/4SM -DZ BR OVC005 23/21 A3016 RMK AO2 SFC VIS 3 CIG 003V009 P0001=
200809121341 SPECI KATL 121341Z 11008KT 3/4SM -DZ BR OVC005 23/21 A3016 RMK AO2 SFC VIS 3 CIG 003V009 P0001=
200809121152 METAR KATL 121152Z 10007KT 1/4SM BR OVC003 22/21 A3016 RMK AO2 SFC VIS 2 1/2 DZE46 SLP203 P0000 60000 T02220211 10228 20222 53002=
200809121121 SPECI KATL 121121Z 10008KT 1/4SM -DZ BR OVC003 22/21 A3015 RMK AO2 SFC VIS 3 CIG 001V007 P0000=
200809121121 SPECI KATL 121121Z 10008KT 1/4SM -DZ BR OVC003 22/21 A3015 RMK AO2 SFC VIS 3 CIG 001V007 P0000=
200809121052 METAR KATL 121052Z 09007KT 1/2SM -DZ BR OVC003 22/21 A3015 RMK AO2 SFC VIS 2 RAE01DZB42 SLP202 P0000 T02220211=
200809121017 SPECI KATL 121017Z 12008KT 1/2SM BR OVC003 22/21 A3015 RMK AO2 SFC VIS 5 RAE01 P0000=
200809121017 SPECI KATL 121017Z 12008KT 1/2SM BR OVC003 22/21 A3015 RMK AO2 SFC VIS 5 RAE01 P0000=
200809120952 METAR KATL 120952Z 11007KT 4SM -RA BR OVC003 22/21 A3014 RMK AO2 DZB16E50RAB51 SLP198 P0000 T02220211=
200809120918 SPECI KATL 120918Z 11009KT 3SM -DZ BR OVC003 22/21 A3015 RMK AO2 DZB16 P0000=
200809120918 SPECI KATL 120918Z 11009KT 3SM -DZ BR OVC003 22/21 A3015 RMK AO2 DZB16 P0000=
200809120852 METAR KATL 120852Z 10008KT 6SM BR OVC005 22/21 A3015 RMK AO2 DZE18RAB18E26 SLP202 P0000 60000 T02220211 56009=
200809120752 METAR KATL 120752Z 10007KT 3SM -DZ BR BKN005 OVC010 23/21 A3016 RMK AO2 RAB24E33DZB49 CIG 003V008 SLP203 P0000 T02280211=
200809120726 SPECI KATL 120726Z 10008KT 2SM -RA BR OVC005 23/21 A3017 RMK AO2 RAB24 CIG 003V010 P0000=
200809120726 SPECI KATL 120726Z 10008KT 2SM -RA BR OVC005 23/21 A3017 RMK AO2 RAB24 CIG 003V010 P0000=
200809120652 METAR KATL 120652Z 10008KT 6SM BR OVC005 23/21 A3017 RMK AO2 SLP207 T02280211=
200809120552 METAR KATL 120552Z 11009KT 6SM BR OVC007 23/21 A3018 RMK AO2 SLP212 T02280211 10250 20228 50006=
200809120452 METAR KATL 120452Z 11012KT 10SM OVC007 23/21 A3019 RMK AO2 SLP213 T02330206 402830222=
200809120433 SPECI KATL 120433Z 10009KT 10SM OVC008 23/21 A3019 RMK AO2=
200809120433 SPECI KATL 120433Z 10009KT 10SM OVC008 23/21 A3019 RMK AO2=
200809120352 METAR KATL 120352Z 09009KT 10SM OVC010 23/21 A3018 RMK AO2 SLP210 T02330206=
200809120330 SPECI KATL 120330Z 08014KT 10SM OVC012 23/21 A3018 RMK AO2=
200809120330 SPECI KATL 120330Z 08014KT 10SM OVC012 23/21 A3018 RMK AO2=
200809120311 SPECI KATL 120311Z 08010KT 10SM BKN016 BKN150 23/21 A3017 RMK AO2=
200809120311 SPECI KATL 120311Z 08010KT 10SM BKN016 BKN150 23/21 A3017 RMK AO2=
200809120252 METAR KATL 120252Z 08011KT 10SM FEW015 SCT120 BKN150 23/21 A3016 RMK AO2 SLP205 T02330206 50004=
200809120212 SPECI KATL 120212Z 08015KT 10SM FEW015 SCT022 BKN040 24/21 A3017 RMK AO2=
200809120212 SPECI KATL 120212Z 08015KT 10SM FEW015 SCT022 BKN040 24/21 A3017 RMK AO2=
200809120152 METAR KATL 120152Z 09012KT 10SM FEW016 BKN022 OVC035 24/21 A3018 RMK AO2 SLP209 T02440206=
200809120052 METAR KATL 120052Z 09011KT 10SM BKN023 OVC045 24/21 A3016 RMK AO2 SLP204 T02440206=
200809120041 SPECI KATL 120041Z 10009KT 10SM BKN024 OVC045 25/21 A3016 RMK AO2=
200809120041 SPECI KATL 120041Z 10009KT 10SM BKN024 OVC045 25/21 A3016 RMK AO2=
200809112352 METAR KATL 112352Z 09010KT 10SM FEW018 SCT025 BKN150 25/21 A3015 RMK AO2 SLP201 T02500206 10283 20250 53010=
200809112252 METAR KATL 112252Z 08012KT 10SM FEW020 BKN026 OVC050 26/21 A3013 RMK AO2 SLP195 T02560206=
200809112152 METAR KATL 112152Z 07011KT 10SM FEW020 SCT035 BKN050 OVC150 26/21 A3012 RMK AO2 SLP191 T02560206=
200809112143 SPECI KATL 112143Z 07011KT 10SM SCT020 BKN035 OVC045 26/21 A3012 RMK AO2=
200809112143 SPECI KATL 112143Z 07011KT 10SM SCT020 BKN035 OVC045 26/21 A3012 RMK AO2=
200809112052 METAR KATL 112052Z 07013KT 10SM SCT018 OVC025 26/21 A3012 RMK AO2 SLP190 T02610206 56019=
200809111952 METAR KATL 111952Z 07014KT 10SM BKN020 BKN030 BKN150 27/21 A3013 RMK AO2 SLP193 T02670211=
200809111856 SPECI KATL 111856Z 08009KT 10SM FEW020 BKN025 BKN040 BKN150 27/21 A3015 RMK AO2=
200809111856 SPECI KATL 111856Z 08009KT 10SM FEW020 BKN025 BKN040 BKN150 27/21 A3015 RMK AO2=
200809111852 METAR KATL 111852Z 09012KT 10SM FEW025 SCT040 SCT150 27/21 A3015 RMK AO2 SLP199 T02720211=
200809111845 SPECI KATL 111845Z 09013KT 10SM FEW025 SCT040 SCT150 27/21 A3015 RMK AO2=
200809111845 SPECI KATL 111845Z 09013KT 10SM FEW025 SCT040 SCT150 27/21 A3015 RMK AO2=
200809111752 METAR KATL 111752Z 07010KT 10SM BKN025 BKN045 BKN200 26/21 A3018 RMK AO2 SLP210 T02610211 10267 20228 58009=
200809111736 SPECI KATL 111736Z 07011KT 10SM SCT020 BKN040 OVC200 26/21 A3018 RMK AO2=
200809111736 SPECI KATL 111736Z 07011KT 10SM SCT020 BKN040 OVC200 26/21 A3018 RMK AO2=
200809111652 METAR KATL 111652Z 10011G16KT 10SM BKN020 BKN040 BKN200 26/21 A3020 RMK AO2 SLP217 T02610206=
200809111604 SPECI KATL 111604Z 08011KT 10SM FEW014 BKN016 OVC020 24/21 A3021 RMK AO2=
200809111604 SPECI KATL 111604Z 08011KT 10SM FEW014 BKN016 OVC020 24/21 A3021 RMK AO2=
200809111552 METAR KATL 111552Z 07013KT 10SM BKN014 OVC019 25/21 A3021 RMK AO2 SLP220 T02500206=
200809111452 METAR KATL 111452Z 08011KT 10SM OVC012 24/21 A3021 RMK AO2 SLP220 T02390206 53013=
200809111352 METAR KATL 111352Z 08012KT 8SM BKN010 OVC013 23/21 A3018 RMK AO2 CIG 007V011 SLP212 T02330211=
200809111252 METAR KATL 111252Z 10010KT 6SM BR BKN008 OVC014 23/21 A3017 RMK AO2 SLP208 T02330211=
200809111152 METAR KATL 111152Z 09009KT 6SM BR BKN008 OVC014 23/21 A3017 RMK AO2 CIG 005V011 SLP205 70006 T02280211 10228 20222 53013=
200809111052 METAR KATL 111052Z 09008KT 6SM BR OVC006 23/21 A3014 RMK AO2 SLP196 T02280206=
200809110952 METAR KATL 110952Z 08011KT 6SM BR OVC006 22/21 A3013 RMK AO2 SLP194 T02220206=
200809110852 METAR KATL 110852Z 10008KT 10SM OVC006 23/21 A3013 RMK AO2 SLP192 T02280206 53002=
200809110752 METAR KATL 110752Z 09008KT 10SM BKN008 BKN020 22/21 A3013 RMK AO2 SLP191 T02220206=
200809110709 SPECI KATL 110709Z 08008KT 10SM BKN010 BKN020 22/20 A3012 RMK AO2=
200809110709 SPECI KATL 110709Z 08008KT 10SM BKN010 BKN020 22/20 A3012 RMK AO2=
200809110652 METAR KATL 110652Z 09008KT 10SM SCT010 BKN024 22/20 A3013 RMK AO2 SLP191 T02220200=
200809110648 SPECI KATL 110648Z 09008KT 10SM SCT010 BKN024 22/20 A3012 RMK AO2=
200809110648 SPECI KATL 110648Z 09008KT 10SM SCT010 BKN024 22/20 A3012 RMK AO2=
200809110552 METAR KATL 110552Z 10010KT 10SM FEW100 SCT140 BKN180 22/20 A3012 RMK AO2 RAE0455 SLP190 P0000 60006 T02220200 10272 20222 58001=
200809110452 METAR KATL 110452Z 13005KT 10SM -RA FEW015 BKN090 BKN120 BKN150 23/21 A3015 RMK AO2 RAB06 SLP198 P0006 T02280211 403060222=
200809110428 SPECI KATL 110428Z 14010G16KT 10SM -RA SCT015 BKN050 OVC080 23/21 A3015 RMK AO2 RAB06 P0003=
200809110428 SPECI KATL 110428Z 14010G16KT 10SM -RA SCT015 BKN050 OVC080 23/21 A3015 RMK AO2 RAB06 P0003=
200809110352 METAR KATL 110352Z 11010G16KT 10SM BKN015 OVC050 25/21 A3014 RMK AO2 SLP196 OCNL LTG DSNT SE-S T02500211=
200809110336 SPECI KATL 110336Z 10012G18KT 10SM BKN015 OVC050 25/21 A3014 RMK AO2 OCNL LTG DSNT SE-S=
200809110336 SPECI KATL 110336Z 10012G18KT 10SM BKN015 OVC050 25/21 A3014 RMK AO2 OCNL LTG DSNT SE-S=
200809110252 METAR KATL 110252Z 09010KT 10SM FEW150 SCT200 BKN250 24/21 A3012 RMK AO2 SLP190 OCNL LTG DSNT SE T02440206 51020=
200809110152 METAR KATL 110152Z 08008KT 10SM FEW150 BKN200 BKN250 25/20 A3011 RMK AO2 SLP188 FRQ LTG DSNT SE T02500200=
200809110052 METAR KATL 110052Z 07010KT 10SM FEW150 26/20 A3008 RMK AO2 SLP178 T02610200=
200809102352 METAR KATL 102352Z 07008KT 10SM FEW150 27/20 A3006 RMK AO2 SLP170 T02720200 10306 20272 53006=
200809102252 METAR KATL 102252Z 10009KT 10SM FEW045 SCT250 29/18 A3005 RMK AO2 SLP167 T02890183=
200809102152 METAR KATL 102152Z 11006KT 10SM FEW045 SCT080 SCT250 29/18 A3004 RMK AO2 SLP163 T02890183=
200809102052 METAR KATL 102052Z 13008KT 10SM SCT043 SCT080 BKN250 29/19 A3005 RMK AO2 SLP163 CB DSNT NW T02940189 56017=
200809101952 METAR KATL 101952Z 15006KT 10SM SCT037 SCT080 SCT250 29/19 A3005 RMK AO2 SLP166 TCU DSNT NW-N T02890189=
200809101852 METAR KATL 101852Z 11008KT 10SM BKN040TCU BKN080 BKN250 28/19 A3008 RMK AO2 SLP174 TCU S-SW-W-NW-N T02830194=
200809101752 METAR KATL 101752Z 10008KT 10SM SCT030 SCT080 SCT250 29/20 A3010 RMK AO2 SLP180 60000 T02890200 10289 20222 58012=
200809101652 METAR KATL 101652Z 16007KT 10SM FEW030 SCT080 SCT250 27/19 A3011 RMK AO2 SLP185 T02720194=
200809101552 METAR KATL 101552Z 13008KT 10SM FEW025 BKN080 BKN150 BKN250 26/19 A3013 RMK AO2 SLP195 T02560189=
200809101452 METAR KATL 101452Z 11006KT 10SM FEW015 SCT040 BKN150 BKN250 25/19 A3013 RMK AO2 SLP194 60000 T02500194 51014=
200809101405 SPECI KATL 101405Z 12006KT 10SM FEW010 BKN030 BKN040 BKN200 23/19 A3013 RMK AO2=
200809101405 SPECI KATL 101405Z 12006KT 10SM FEW010 BKN030 BKN040 BKN200 23/19 A3013 RMK AO2=
200809101352 METAR KATL 101352Z 10008KT 10SM FEW010 BKN028 BKN120 BKN200 23/19 A3013 RMK AO2 SLP193 T02280194=
200809101302 SPECI KATL 101302Z 09010KT 10SM SCT013 OVC019 22/19 A3012 RMK AO2=
200809101302 SPECI KATL 101302Z 09010KT 10SM SCT013 OVC019 22/19 A3012 RMK AO2=
200809101252 METAR KATL 101252Z 09011G19KT 10SM BKN008 OVC011 22/19 A3012 RMK AO2 RAB05E20 SLP191 P0000 T02220194=
200809101152 METAR KATL 101152Z 09010KT 6SM BR OVC006 23/21 A3009 RMK AO2 SLP181 T02280211 10239 20222 53017=
200809101134 SPECI KATL 101134Z 09008KT 6SM BR OVC006 23/21 A3008 RMK AO2=
200809101134 SPECI KATL 101134Z 09008KT 6SM BR OVC006 23/21 A3008 RMK AO2=
200809101052 METAR KATL 101052Z 08010KT 6SM BR FEW013 SCT090 BKN150 22/21 A3007 RMK AO2 SLP174 T02220206=
200809100952 METAR KATL 100952Z 08007KT 6SM BR BKN150 23/21 A3006 RMK AO2 SLP167 T02280206=
200809100852 METAR KATL 100852Z 06007KT 9SM BKN150 23/20 A3004 RMK AO2 SLP161 T02330200 55005=
200809100752 METAR KATL 100752Z 05006KT 10SM FEW200 23/19 A3004 RMK AO2 SLP161 T02330194=
200809100652 METAR KATL 100652Z 04004KT 10SM FEW019 SCT060 BKN140 24/19 A3004 RMK AO2 SLP163 T02390189=
200809100552 METAR KATL 100552Z 35007KT 10SM SCT090 BKN140 OVC200 24/19 A3006 RMK AO2 SLP167 60000 T02390194 10261 20233 55007=
200809100452 METAR KATL 100452Z 01005KT 10SM BKN140 OVC200 24/20 A3005 RMK AO2 SLP166 T02390200 403110222=
200809100352 METAR KATL 100352Z 33005KT 10SM FEW040 BKN140 OVC200 24/21 A3006 RMK AO2 RAB11E46 SLP171 P0000 T02390206 $=
200809100252 METAR KATL 100252Z 33004KT 10SM FEW070 BKN150 OVC200 24/20 A3008 RMK AO2 SLP175 T02440200 51017=
200809100152 METAR KATL 100152Z 34004KT 10SM FEW070 BKN150 OVC200 26/20 A3007 RMK AO2 SLP173 T02560200=
200809100052 METAR KATL 100052Z 19007KT 10SM FEW040 BKN150 BKN200 26/19 A3005 RMK AO2 SLP167 MDT CU NW-N T02560194 $=
200809092352 METAR KATL 092352Z 35006KT 10SM FEW030 BKN150 BKN200 26/19 A3002 RMK AO2 SLP158 CB DSNT SE-S T02610189 10311 20261 53008=
200809092252 METAR KATL 092252Z 34008KT 10SM FEW030 BKN150 BKN200 27/18 A3001 RMK AO2 SLP152 CB DSNT S TCU DSNT SE T02720183=
200809092152 METAR KATL 092152Z 35011KT 9SM FEW030 BKN150 OVC200 28/21 A3001 RMK AO2 PK WND 36026/2105 SLP152 TCU DSNT SE T02780211=
200809092052 METAR KATL 092052Z 32013G18KT 10SM SCT050 BKN150 BKN200 29/20 A3000 RMK AO2 SLP147 CB DSNT NE NW TCU DSNT NE T02890200 56018=
200809091952 METAR KATL 091952Z VRB03KT 10SM FEW060TCU SCT110 BKN200 31/18 A3002 RMK AO2 SLP153 CB DSNT W-NW-N TCU N SE T03110178=
200809091852 METAR KATL 091852Z VRB06KT 10SM FEW050TCU SCT110 SCT200 30/18 A3003 RMK AO2 SLP157 CB DSNT NW TCU E NW T03000183=
200809091752 METAR KATL 091752Z 20009KT 10SM FEW035TCU SCT050 BKN200 29/20 A3006 RMK AO2 SLP166 CB DSNT NE NW TCU NE S T02890200 10294 20222 58012 $=
200809091652 METAR KATL 091652Z 19007KT 10SM FEW023TCU SCT037 BKN200 28/21 A3008 RMK AO2 SLP174 TCU NE SE W T02830211 $=
200809091620 SPECI KATL 091620Z 16003KT 10SM SCT023 BKN033 BKN048 BKN200 28/22 A3009 RMK AO2 $=
200809091620 SPECI KATL 091620Z 16003KT 10SM SCT023 BKN033 BKN048 BKN200 28/22 A3009 RMK AO2 $=
200809091552 METAR KATL 091552Z 21003KT 10SM BKN020 BKN030 BKN200 27/21 A3009 RMK AO2 SLP179 TCU DSNT S T02670211 $=
200809091549 SPECI KATL 091549Z 00000KT 10SM BKN020 BKN030 BKN200 27/21 A3009 RMK AO2 TCU DSNT S $=
200809091549 SPECI KATL 091549Z 00000KT 10SM BKN020 BKN030 BKN200 27/21 A3009 RMK AO2 TCU DSNT S $=
200809091518 SPECI KATL 091518Z 23004KT 10SM SCT018 SCT040 BKN200 26/21 A3009 RMK AO2 $=
200809091518 SPECI KATL 091518Z 23004KT 10SM SCT018 SCT040 BKN200 26/21 A3009 RMK AO2 $=
200809091452 METAR KATL 091452Z 25005KT 10SM BKN016 BKN039 BKN200 26/22 A3009 RMK AO2 SLP181 T02610217 53008 $=
200809091352 METAR KATL 091352Z 19004KT 9SM FEW009 SCT150 BKN200 24/21 A3008 RMK AO2 SLP178 T02440211 $=
200809091320 SPECI KATL 091320Z 16006KT 6SM BR OVC005 23/21 A3008 RMK AO2 CIG 003V009 $=
200809091320 SPECI KATL 091320Z 16006KT 6SM BR OVC005 23/21 A3008 RMK AO2 CIG 003V009 $=
200809091311 SPECI KATL 091311Z 16006KT 3SM BR OVC005 23/21 A3008 RMK AO2 SFC VIS 6 CIG 002V007 $=
200809091311 SPECI KATL 091311Z 16006KT 3SM BR OVC005 23/21 A3008 RMK AO2 SFC VIS 6 CIG 002V007 $=
200809091301 SPECI KATL 091301Z 16006KT 2 1/2SM OVC005 23/21 A3008 RMK AO2 SFC VIS 7 CIG 001V009 $=
200809091301 SPECI KATL 091301Z 16006KT 2 1/2SM OVC005 23/21 A3008 RMK AO2 SFC VIS 7 CIG 001V009 $=
200809091252 METAR KATL 091252Z 16006KT 1 1/2SM BR OVC003 23/21 A3008 RMK AO2 SFC VIS 5 CIG 001V005 SLP176 T02280211 $=
200809091250 SPECI KATL 091250Z 16006KT 1 1/2SM BR OVC003 23/21 A3008 RMK AO2 SFC VIS 5 CIG 001V005 $=
200809091250 SPECI KATL 091250Z 16006KT 1 1/2SM BR OVC003 23/21 A3008 RMK AO2 SFC VIS 5 CIG 001V005 $=
200809091234 SPECI KATL 091234Z 21005KT 1/2SM BR OVC001 23/21 A3008 RMK AO2 SFC VIS 3=
200809091234 SPECI KATL 091234Z 21005KT 1/2SM BR OVC001 23/21 A3008 RMK AO2 SFC VIS 3=
200809091230 SPECI KATL 091230Z 19006KT 1/16SM BR OVC001 23/21 A3008 RMK AO2 SFC VIS 2 1/2=
200809091230 SPECI KATL 091230Z 19006KT 1/16SM BR OVC001 23/21 A3008 RMK AO2 SFC VIS 2 1/2=
200809091219 SPECI KATL 091219Z 18005KT 1/16SM BR OVC003 23/21 A3008 RMK AO2 SFC VIS 2 1/2=
200809091219 SPECI KATL 091219Z 18005KT 1/16SM BR OVC003 23/21 A3008 RMK AO2 SFC VIS 2 1/2=
200809091152 METAR KATL 091152Z 18006KT 3/4SM BR OVC003 22/21 A3007 RMK AO2 SFC VIS 5 SLP174 70021 T02220211 10239 20222 53002=
200809091108 SPECI KATL 091108Z 19006KT 3/4SM BR OVC003 22/21 A3006 RMK AO2 SFC VIS 6=
200809091108 SPECI KATL 091108Z 19006KT 3/4SM BR OVC003 22/21 A3006 RMK AO2 SFC VIS 6=
200809091052 METAR KATL 091052Z 17006KT 6SM BR OVC005 23/21 A3006 RMK AO2 SLP170 T02280211=
200809091014 SPECI KATL 091014Z 16004KT 10SM BKN007 BKN150 23/20 A3006 RMK AO2 $=
200809091014 SPECI KATL 091014Z 16004KT 10SM BKN007 BKN150 23/20 A3006 RMK AO2 $=
200809091006 SPECI KATL 091006Z 15005KT 10SM SCT009 BKN150 22/20 A3007 RMK AO2 $=
200809091006 SPECI KATL 091006Z 15005KT 10SM SCT009 BKN150 22/20 A3007 RMK AO2 $=
200809090952 METAR KATL 090952Z 14005KT 10SM FEW048 BKN150 BKN250 23/20 A3007 RMK AO2 SLP171 T02280200 $=
200809090852 METAR KATL 090852Z 15005KT 10SM SCT046 BKN150 23/19 A3006 RMK AO2 SLP171 T02280194 55008 $=
200809090752 METAR KATL 090752Z 15004KT 10SM FEW048 SCT060 23/20 A3006 RMK AO2 SLP169 T02280200 $=
200809090652 METAR KATL 090652Z 14003KT 10SM SCT045 BKN060 BKN150 23/20 A3007 RMK AO2 SLP170 T02330200 $=
200809090552 METAR KATL 090552Z 13003KT 9SM SCT050 SCT060 BKN150 24/20 A3009 RMK AO2 SLP177 T02390200 10244 20228 58002 $=
200809090452 METAR KATL 090452Z 00000KT 8SM SCT060 OVC150 23/21 A3009 RMK AO2 SLP178 T02330206 403220222 $=
200809090352 METAR KATL 090352Z 00000KT 9SM SCT150 OVC200 24/19 A3010 RMK AO2 SLP183 T02390194 $=
200809090252 METAR KATL 090252Z 00000KT 9SM BKN150 BKN250 23/21 A3009 RMK AO2 SLP181 T02330206 51012 $=
200809090152 METAR KATL 090152Z 00000KT 10SM FEW055 BKN150 BKN250 23/20 A3009 RMK AO2 SLP178 T02330200 $=
200809090052 METAR KATL 090052Z 00000KT 10SM BKN050 OVC070 24/19 A3008 RMK AO2 SLP176 T02390194 $=
200809082352 METAR KATL 082352Z 26003KT 10SM FEW100 BKN140 OVC200 23/18 A3006 RMK AO2 PK WND 05027/2302 TSE34RAE34 SLP169 TS MOV NW P0001 60021 T02330178 10322 20222 58001 $=
200809082335 SPECI KATL 082335Z 00000KT 10SM FEW030 SCT090 BKN140 OVC200 23/18 A3006 RMK AO2 PK WND 05027/2302 TSE34RAE34 TS MOV NW P0001 $=
200809082335 SPECI KATL 082335Z 00000KT 10SM FEW030 SCT090 BKN140 OVC200 23/18 A3006 RMK AO2 PK WND 05027/2302 TSE34RAE34 TS MOV NW P0001 $=
200809082304 SPECI KATL 082304Z 06023G27KT 7SM -TSRA FEW015 SCT030CB BKN060 OVC150 23/18 A3007 RMK AO2 PK WND 05027/2302 FRQ LTGICCG NE-E AND NW TS NE-E AND NW MOV NW P0001 $=
200809082304 SPECI KATL 082304Z 06023G27KT 7SM -TSRA FEW015 SCT030CB BKN060 OVC150 23/18 A3007 RMK AO2 PK WND 05027/2302 FRQ LTGICCG NE-E AND NW TS NE-E AND NW MOV NW P0001 $=
200809082255 SPECI KATL 082255Z 07017G21KT 1SM R09R/6000VP6000FT +TSRA BKN020CB BKN035 OVC050 24/21 A3009 RMK AO2 PRESRR FRQ LTGICCG OHD-NE TS OHD-NE MOV NW P0000 $=
200809082255 SPECI KATL 082255Z 07017G21KT 1SM R09R/6000VP6000FT +TSRA BKN020CB BKN035 OVC050 24/21 A3009 RMK AO2 PRESRR FRQ LTGICCG OHD-NE TS OHD-NE MOV NW P0000 $=
200809082252 METAR KATL 082252Z 04008KT 1 1/2SM R09R/4500VP6000FT +TSRA SCT020CB BKN035 BKN100 OVC150 24/21 A3008 RMK AO2 TSB39RAB21 PRESRR SLP177 FRQ LTGICCG NE-SE TS NE-SE MOV NW P0016 T02440211 $=
200809082239 SPECI KATL 082239Z 02006KT 6SM -TSRA FEW020CB BKN040 BKN100 OVC150 24/19 A3006 RMK AO2 TSB39RAB21 OCNL LTGCG SE-S TS SE-S MOV NW P0006 $=
200809082239 SPECI KATL 082239Z 02006KT 6SM -TSRA FEW020CB BKN040 BKN100 OVC150 24/19 A3006 RMK AO2 TSB39RAB21 OCNL LTGCG SE-S TS SE-S MOV NW P0006 $=
200809082152 METAR KATL 082152Z 00000KT 10SM FEW030 SCT150 OVC200 27/21 A3006 RMK AO2 SLP169 CB DSNT NE T02720206 $=
200809082052 METAR KATL 082052Z 35005KT 10SM FEW030 SCT040 BKN150 OVC250 25/19 A3006 RMK AO2 PK WND 05042/2008 WSHFT 2006 TSB07E44RAE23 SLP170 LTG DSNT NW TS MOV NW CB DSNT NW MOV NW P0004 60004 T02500189 56017 $=
200809082044 SPECI KATL 082044Z 35007KT 10SM FEW031 SCT038 BKN150 OVC250 24/19 A3006 RMK AO2 PK WND 05042/2008 WSHFT 2006 TSB07E44RAE23 LTG DSNT NW TS MOV NW CB DSNT NW MOV NW P0004 $=
200809082044 SPECI KATL 082044Z 35007KT 10SM FEW031 SCT038 BKN150 OVC250 24/19 A3006 RMK AO2 PK WND 05042/2008 WSHFT 2006 TSB07E44RAE23 LTG DSNT NW TS MOV NW CB DSNT NW MOV NW P0004 $=
200809082029 SPECI KATL 082029Z 02004KT 10SM TS FEW028 BKN036CB OVC080 27/19 A3007 RMK AO2 PK WND 05042/2008 WSHFT 2006 TSB07RAE23 VIS LWR NW-N SHRA FRQ LTGICCG NW-N TS NW-N MOV NW P0004 $=
200809082029 SPECI KATL 082029Z 02004KT 10SM TS FEW028 BKN036CB OVC080 27/19 A3007 RMK AO2 PK WND 05042/2008 WSHFT 2006 TSB07RAE23 VIS LWR=
200809082022 SPECI KATL 082022Z 01009G22KT 10SM -TSRA FEW030 BKN040CB OVC080 26/19 A3008 RMK AO2 PK WND 05042/2008 WSHFT 2006 TSB07 VIS LWR NW SHRA OCNL LTGICCG NW TS NW MOV NW P0004 $=
200809082022 SPECI KATL 082022Z 01009G22KT 10SM -TSRA FEW030 BKN040CB OVC080 26/19 A3008 RMK AO2 PK WND 05042/2008 WSHFT 2006 TSB07 VIS LWR NW SHRA OCNL LTGICCG NW TS NW MOV NW P0004 $=
200809082010 SPECI KATL 082010Z 03028G42KT 1SM R09R/4500VP6000FT +TSRA SQ BKN040CB BKN070 OVC150 26/19 A3007 RMK AO2 PK WND 05042/2008 SFC VIS 2 TSB07 OCNL LTGICCG OHD TS OHD MOV NW P0000=
200809082010 SPECI KATL 082010Z 03028G42KT 1SM R09R/4500VP6000FT +TSRA SQ BKN040CB BKN070 OVC150 26/19 A3007 RMK AO2 PK WND 05042/2008 SFC VIS 2 TSB07 OCNL LTGICCG OHD TS OHD MOV NW P0000=
200809082008 SPECI KATL 082008Z 05026G42KT 1SM +TSRA BKN040CB BKN070 OVC150 28/20 A3008 RMK AO2 PK WND 05042/2008 SFC VIS 2 TSB07 OCNL LTGICCG NW TS OHD-NW MOV NW P0000=
200809082008 SPECI KATL 082008Z 05026G42KT 1SM +TSRA BKN040CB BKN070 OVC150 28/20 A3008 RMK AO2 PK WND 05042/2008 SFC VIS 2 TSB07 OCNL LTGICCG NW TS OHD-NW MOV NW P0000=
200809081952 METAR KATL 081952Z 08006KT 8SM -RA BKN040CB BKN070 OVC150 29/21 A3007 RMK AO2 RAB22E30B46 SLP171 CB SE NW MOV NW P0000 T02940206=
200809081930 SPECI KATL 081930Z 14005KT 8SM FEW043CB BKN075 OVC150 31/20 A3007 RMK AO2 RAB22E30 CB OHD-NW-N MOV NW SHRA NW-N P0000=
200809081930 SPECI KATL 081930Z 14005KT 8SM FEW043CB BKN075 OVC150 31/20 A3007 RMK AO2 RAB22E30 CB OHD-NW-N MOV NW SHRA NW-N P0000=
200809081922 SPECI KATL 081922Z 16009KT 6SM -RA BKN045CB BKN070 BKN085 31/20 A3008 RMK AO2 RAB22 CB OHD MOV E P0000=
200809081922 SPECI KATL 081922Z 16009KT 6SM -RA BKN045CB BKN070 BKN085 31/20 A3008 RMK AO2 RAB22 CB OHD MOV E P0000=
200809081852 METAR KATL 081852Z 13009KT 100V160 10SM SCT050 SCT150 32/21 A3008 RMK AO2 SLP175 TCU DSNT S T03220206=
200809081752 METAR KATL 081752Z 10008KT 10SM SCT050TCU BKN150 31/20 A3011 RMK AO2 SLP184 TCU NE-E S-SW T03060200 10317 20233 58010=
200809081652 METAR KATL 081652Z 12006KT 10SM FEW045 SCT080 SCT250 31/20 A3013 RMK AO2 SLP190 T03110200=
200809081552 METAR KATL 081552Z 13005KT 10SM FEW250 31/21 A3014 RMK AO2 SLP194 T03060206=
200809081452 METAR KATL 081452Z 09004KT 10SM BKN250 BKN300 28/20 A3014 RMK AO2 SLP196 T02780200 53005=
200809081352 METAR KATL 081352Z 09005KT 10SM FEW150 BKN250 BKN300 26/20 A3013 RMK AO2 SLP191 T02610200=
200809081252 METAR KATL 081252Z 09006KT 9SM FEW150 SCT250 BKN300 25/19 A3013 RMK AO2 SLP192 T02500194=
200809081152 METAR KATL 081152Z 07006KT 10SM FEW150 SCT300 23/18 A3013 RMK AO2 SLP190 T02330183 10256 20222 53012=
200809081052 METAR KATL 081052Z 06005KT 10SM FEW080 SCT250 23/18 A3011 RMK AO2 SLP185 T02330178=
200809080952 METAR KATL 080952Z 03004KT 10SM CLR 24/18 A3009 RMK AO2 SLP180 T02390178 $=
200809080852 METAR KATL 080852Z VRB03KT 10SM CLR 24/18 A3009 RMK AO2 SLP178 T02390178 56004 $=
200809080752 METAR KATL 080752Z 00000KT 10SM CLR 23/18 A3009 RMK AO2 SLP179 T02330183 $=
200809080652 METAR KATL 080652Z 00000KT 10SM FEW250 24/18 A3010 RMK AO2 SLP181 T02390183 $=
200809080552 METAR KATL 080552Z 01003KT 10SM FEW250 26/18 A3010 RMK AO2 SLP182 T02560178 10283 20244 58001 $=
200809080452 METAR KATL 080452Z 32003KT 10SM FEW250 25/19 A3011 RMK AO2 SLP185 T02500189 403170206 $=
200809080352 METAR KATL 080352Z 33003KT 10SM CLR 26/19 A3011 RMK AO2 SLP185 T02610189 $=
200809080252 METAR KATL 080252Z 00000KT 10SM CLR 27/19 A3011 RMK AO2 SLP184 T02670189 51017 $=
200809080152 METAR KATL 080152Z 26003KT 10SM CLR 27/19 A3009 RMK AO2 SLP180 T02720189 $=
200809080052 METAR KATL 080052Z 00000KT 10SM FEW250 27/19 A3007 RMK AO2 SLP173 T02720189=
200809072352 METAR KATL 072352Z 26004KT 10SM FEW250 28/18 A3006 RMK AO2 SLP169 T02830183 10317 20278 53005=
200809072252 METAR KATL 072252Z 27005KT 10SM FEW050 SCT250 30/18 A3005 RMK AO2 SLP165 T03000178=
200809072152 METAR KATL 072152Z VRB04KT 10SM FEW055 SCT250 31/18 A3005 RMK AO2 SLP163 T03060183=
200809072052 METAR KATL 072052Z 25005KT 10SM FEW055 SCT250 31/18 A3004 RMK AO2 SLP162 T03110178 57015=
200809071952 METAR KATL 071952Z VRB04KT 10SM FEW055 31/18 A3005 RMK AO2 SLP166 T03060178=
200809071852 METAR KATL 071852Z 27005KT 10SM FEW045 31/19 A3007 RMK AO2 SLP173 T03060189=
200809071752 METAR KATL 071752Z VRB04KT 10SM FEW040 29/19 A3009 RMK AO2 SLP177 T02940189 10294 20206 58009=
200809071652 METAR KATL 071652Z VRB04KT 10SM FEW040 28/19 A3010 RMK AO2 SLP182 T02830189=
200809071552 METAR KATL 071552Z 32008KT 10SM SCT030 28/19 A3011 RMK AO2 SLP187 T02780194=
200809071452 METAR KATL 071452Z 31005KT 10SM FEW025 SCT250 27/19 A3011 RMK AO2 SLP187 T02670194 51013=
200809071352 METAR KATL 071352Z 33005KT 10SM CLR 25/19 A3010 RMK AO2 SLP185 T02500194=
200809071252 METAR KATL 071252Z 32008KT 9SM CLR 22/19 A3009 RMK AO2 SLP182 T02220189=
200809071152 METAR KATL 071152Z 31005KT 7SM CLR 21/19 A3007 RMK AO2 SLP176 70047 T02060189 10228 20206 53016=
200809071052 METAR KATL 071052Z 00000KT 10SM CLR 21/19 A3005 RMK AO2 SLP166 T02110189=
200809070952 METAR KATL 070952Z 32003KT 10SM CLR 21/19 A3003 RMK AO2 SLP161 T02110189=
200809070852 METAR KATL 070852Z 34003KT 10SM CLR 21/19 A3002 RMK AO2 SLP158 T02110189 58001=
200809070752 METAR KATL 070752Z 32005KT 10SM CLR 22/19 A3003 RMK AO2 SLP158 T02170194=
200809070652 METAR KATL 070652Z 30004KT 10SM CLR 22/20 A3003 RMK AO2 SLP157 T02170200=
200809070552 METAR KATL 070552Z 30006KT 10SM CLR 23/21 A3003 RMK AO2 SLP157 T02280206 10250 20228 51004=
200809070452 METAR KATL 070452Z 29003KT 10SM CLR 23/21 A3002 RMK AO2 SLP155 T02280206 403060194=
200809070352 METAR KATL 070352Z 30005KT 10SM FEW080 23/21 A3003 RMK AO2 SLP156 T02330211=
200809070252 METAR KATL 070252Z 28004KT 10SM SCT080 24/22 A3002 RMK AO2 SLP154 T02390217 52017=
200809070152 METAR KATL 070152Z 25005KT 10SM FEW039 SCT055 BKN150 BKN250 24/22 A3000 RMK AO2 SLP151 T02390217=
200809070052 METAR KATL 070052Z 23004KT 10SM FEW037 SCT080 SCT150 BKN250 24/22 A2998 RMK AO2 SLP141 T02390217=
200809062352 METAR KATL 062352Z 22005KT 8SM FEW060 SCT085 SCT150 BKN250 25/22 A2996 RMK AO2 RAE10 SLP138 CB DSNT W P0000 60047 T02500217 10306 20239 51009=
200809062316 SPECI KATL 062316Z 21006KT 8SM FEW060 SCT085 SCT150 BKN250 26/22 A2996 RMK AO2 RAE10 OCNL LTGCG DSNT S CB DSNT S P0000 $=
200809062316 SPECI KATL 062316Z 21006KT 8SM FEW060 SCT085 SCT150 BKN250 26/22 A2996 RMK AO2 RAE10 OCNL LTGCG DSNT S CB DSNT S P0000 $=
200809062252 METAR KATL 062252Z 25007KT 8SM -RA FEW050 SCT070 BKN150 BKN250 27/22 A2996 RMK AO2 TSB25E49RAB45 SLP135 TS DSIPT VIS LWR S-SW P0001 T02670222=
200809062250 SPECI KATL 062250Z 26005KT 8SM -RA FEW050 SCT070 BKN150 BKN250 27/22 A2996 RMK AO2 TSB25E49RAB45 TS DSIPT P0000=
200809062250 SPECI KATL 062250Z 26005KT 8SM -RA FEW050 SCT070 BKN150 BKN250 27/22 A2996 RMK AO2 TSB25E49RAB45 TS DSIPT P0000=
200809062226 SPECI KATL 062226Z 00000KT 9SM TS FEW034CB BKN048 BKN095 OVC150 28/22 A2996 RMK AO2 TSB25 OCNL LTGIC SW TS SW MOV E SHRA SW=
200809062226 SPECI KATL 062226Z 00000KT 9SM TS FEW034CB BKN048 BKN095 OVC150 28/22 A2996 RMK AO2 TSB25 OCNL LTGIC SW TS SW MOV E SHRA SW=
200809062152 METAR KATL 062152Z 22003KT 9SM FEW034TCU SCT095 BKN150 BKN250 28/22 A2995 RMK AO2 TSE09 SLP132 TS MOV E TCU NW CB DSNT SW SHRA NW T02780217=
200809062110 SPECI KATL 062110Z 00000KT 9SM FEW044CB SCT090 BKN150 BKN250 28/22 A2994 RMK AO2 TSE09 TS MOV E CB DSNT S=
200809062110 SPECI KATL 062110Z 00000KT 9SM FEW044CB SCT090 BKN150 BKN250 28/22 A2994 RMK AO2 TSE09 TS MOV E CB DSNT S=
200809062052 METAR KATL 062052Z 02004KT 8SM TS SCT013 BKN034CB BKN042 27/22 A2994 RMK AO2 TSB13RAB04RAEMM SLP127 OCNL LTGIC TS OHD-N-E AND NW MOV E CB OHD-N-E AND NW MOV E P0046 60046 T02720217 55003=
200809062047 SPECI KATL 062047Z 08003KT 7SM TS SCT013 BKN034CB BKN042 26/22 A2993 RMK AO2 TSB13RAB04RAEMM OCNL LTGICCG TS OHD-N-E AND NW MOV E CB OHD-N-E AND NW MOV E P0046=
200809062047 SPECI KATL 062047Z 08003KT 7SM TS SCT013 BKN034CB BKN042 26/22 A2993 RMK AO2 TSB13RAB04RAEMM OCNL LTGICCG TS OHD-N-E AND NW MOV E CB OHD-N-E AND NW MOV E P0046=
200809062036 SPECI KATL 062036Z 08005KT 3SM TS HZ SCT009 BKN034CB BKN042 26/22 A2993 RMK AO2 TSB13RAB04RAEMM OCNL LTGICCG TS OHD-ALQDS MOV E CB OHD-ALQDS MOV E P0046 $=
200809062036 SPECI KATL 062036Z 08005KT 3SM TS HZ SCT009 BKN034CB BKN042 26/22 A2993 RMK AO2 TSB13RAB04RAEMM OCNL LTGICCG TS OHD-ALQDS MOV E CB OHD-ALQDS MOV E P0046 $=
200809062028 SPECI KATL 062028Z 08005KT 2SM R09R/5000VP6000FT -TSRA BKN011CB BKN034 OVC042 25/22 A2993 RMK AO2 TSB13RAB04 OCNL LTGICCG TS OHD-ALQDS MOV E CB OHD-ALQDS MOV E P0046=
200809062028 SPECI KATL 062028Z 08005KT 2SM R09R/5000VP6000FT -TSRA BKN011CB BKN034 OVC042 25/22 A2993 RMK AO2 TSB13RAB04 OCNL LTGICCG TS OHD-ALQDS MOV E CB OHD-ALQDS MOV E P0046=
200809062013 SPECI KATL 062013Z 34006G18KT 1/2SM R09R/2200V4500FT +TSRA SCT002 BKN034CB OVC050 24/22 A2994 RMK AO2 TSB13RAB04 OCNL LTGICCG TS OHD-ALQDS MOV E CB OHD-ALQDS MOV E P0026=
200809062013 SPECI KATL 062013Z 34006G18KT 1/2SM R09R/2200V4500FT +TSRA SCT002 BKN034CB OVC050 24/22 A2994 RMK AO2 TSB13RAB04 OCNL LTGICCG TS OHD-ALQDS MOV E CB OHD-ALQDS MOV E P0026=
200809062007 SPECI KATL 062007Z 30013G20KT 1 1/4SM R09R/2400VP6000FT +RA SCT034CB BKN041 BKN060 26/22 A2993 RMK AO2 RAB04 CB OHD-ALQDS MOV E SHRA SW-NW P0001=
200809062007 SPECI KATL 062007Z 30013G20KT 1 1/4SM R09R/2400VP6000FT +RA SCT034CB BKN041 BKN060 26/22 A2993 RMK AO2 RAB04 CB OHD-ALQDS MOV E SHRA SW-NW P0001=
200809061952 METAR KATL 061952Z 34004KT 10SM SCT035CB BKN047 BKN060 29/20 A2993 RMK AO2 SLP126 CB OHD-ALQDS MOV E SHRA SW-NW T02890200=
200809061852 METAR KATL 061852Z COR 31009KT 10SM SCT036 BKN045 BKN150 31/21 A2994 RMK AO2 SLP126 CB DSNT E AND S-SW-W T03060206=
200809061752 METAR KATL 061752Z COR 26008KT 10SM SCT035CB BKN045 BKN080 29/21 A2994 RMK AO2 RAB29E50 SLP129 CB N-NE AND E AND S P0000 60000 T02890206 10300 20206 51005=
200809061652 METAR KATL 061652Z 30005KT 10SM BKN033 BKN043 BKN050 29/21 A2994 RMK AO2 SLP129 T02890206=
200809061552 METAR KATL 061552Z 30009KT 10SM FEW035 SCT150 SCT200 29/19 A2994 RMK AO2 SLP127 T02890194=
200809061452 METAR KATL 061452Z 31005KT 10SM FEW150 SCT200 27/19 A2993 RMK AO2 SLP123 T02670194 53013=
200809061352 METAR KATL 061352Z 29006KT 10SM FEW200 24/18 A2991 RMK AO2 SLP119 T02440183=
200809061252 METAR KATL 061252Z 31009KT 10SM FEW080 SCT200 22/18 A2990 RMK AO2 SLP114 T02220178 $=
200809061152 METAR KATL 061152Z 28004KT 10SM FEW090 SCT200 21/17 A2989 RMK AO2 SLP111 T02060167 10217 20194 53013 $=
200809061052 METAR KATL 061052Z 27003KT 10SM FEW200 20/15 A2987 RMK AO2 SLP104 T02000150 $=
200809060952 METAR KATL 060952Z 28005KT 10SM FEW250 21/14 A2986 RMK AO2 SLP100 T02060144 $=
200809060852 METAR KATL 060852Z 28005KT 10SM FEW250 20/14 A2985 RMK AO2 SLP098 T02000144 53004 $=
200809060752 METAR KATL 060752Z 23004KT 10SM FEW250 20/14 A2984 RMK AO2 SLP094 T02000144 $=
200809060652 METAR KATL 060652Z 00000KT 10SM FEW250 21/14 A2984 RMK AO2 SLP094 T02110144 $=
200809060552 METAR KATL 060552Z 31004KT 10SM FEW250 22/14 A2984 RMK AO2 SLP093 T02170144 10283 20217 58007 $=
200809060452 METAR KATL 060452Z 32004KT 10SM FEW250 22/14 A2984 RMK AO2 SLP096 T02220144 403110194 $=
200809060352 METAR KATL 060352Z 32004KT 10SM FEW250 23/14 A2985 RMK AO2 SLP098 T02330144 $=
200809060252 METAR KATL 060252Z 01005KT 10SM SCT250 26/14 A2986 RMK AO2 SLP100 T02610139 50008 $=
200809060152 METAR KATL 060152Z 06005KT 10SM FEW150 BKN250 26/14 A2986 RMK AO2 SLP101 T02610139 $=
200809060052 METAR KATL 060052Z 03007KT 10SM FEW150 BKN250 28/12 A2985 RMK AO2 SLP097 T02830122 $=
200809052352 METAR KATL 052352Z 35007KT 10SM FEW150 SCT250 29/12 A2983 RMK AO2 SLP093 T02890122 10311 20283 55002 $=
200809052252 METAR KATL 052252Z 05007KT 10SM FEW150 SCT250 29/12 A2983 RMK AO2 SLP090 T02940117 $=
200809052152 METAR KATL 052152Z 06011G16KT 10SM FEW150 SCT250 30/13 A2983 RMK AO2 SLP091 T03000128 $=
200809052052 METAR KATL 052052Z 05006KT 10SM FEW150 SCT250 30/12 A2984 RMK AO2 SLP094 T03000122 56020 $=
200809051952 METAR KATL 051952Z 05008KT 360V080 10SM FEW150 SCT250 31/14 A2985 RMK AO2 SLP098 T03060139 $=
200809051852 METAR KATL 051852Z 05009G15KT 10SM FEW150 SCT250 30/14 A2988 RMK AO2 SLP107 T03000139 $=
200809051752 METAR KATL 051752Z 06005KT 10SM FEW150 SCT250 29/14 A2990 RMK AO2 SLP114 T02890139 10289 20200 58018 $=
200809051652 METAR KATL 051652Z 09007KT 10SM FEW150 SCT250 28/15 A2992 RMK AO2 SLP122 T02780150 $=
200809051552 METAR KATL 051552Z 09007KT 10SM FEW150 SCT250 27/14 A2995 RMK AO2 SLP131 T02670144 $=
200809051452 METAR KATL 051452Z 09008KT 10SM FEW060 SCT250 25/17 A2996 RMK AO2 SLP134 T02500167 51002 $=
200809051352 METAR KATL 051352Z 08006KT 10SM FEW060 SCT250 23/18 A2995 RMK AO2 SLP134 T02330178 $=
200809051252 METAR KATL 051252Z 08008KT 10SM FEW060 SCT180 22/18 A2995 RMK AO2 SLP134 T02170183 $=
200809051152 METAR KATL 051152Z 09006KT 10SM FEW060 SCT180 SCT250 20/18 A2995 RMK AO2 SLP133 T02000178 10228 20194 53008 $=
200809051052 METAR KATL 051052Z 00000KT 10SM SCT200 BKN250 20/17 A2994 RMK AO2 SLP129 T02000172 $=
200809050952 METAR KATL 050952Z 10004KT 10SM FEW060 19/17 A2993 RMK AO2 SLP125 T01940172 $=
200809050852 METAR KATL 050852Z 10004KT 10SM CLR 21/17 A2993 RMK AO2 SLP124 T02060172 55000 $=
200809050752 METAR KATL 050752Z 13004KT 10SM CLR 22/17 A2993 RMK AO2 SLP124 T02170172 $=
200809050652 METAR KATL 050652Z 13004KT 10SM CLR 22/17 A2992 RMK AO2 SLP122 T02220172 $=
200809050552 METAR KATL 050552Z 13009KT 10SM FEW060 23/17 A2993 RMK AO2 SLP124 T02280172 10267 20228 56001 $=
200809050452 METAR KATL 050452Z 13006KT 10SM FEW060 23/17 A2993 RMK AO2 SLP124 T02330172 402940183 $=
200809050352 METAR KATL 050352Z 11006KT 10SM FEW250 24/17 A2993 RMK AO2 SLP123 T02390167 $=
200809050252 METAR KATL 050252Z 12004KT 10SM FEW250 24/17 A2993 RMK AO2 SLP125 T02440167 51006 $=
200809050152 METAR KATL 050152Z 14003KT 10SM FEW250 25/17 A2993 RMK AO2 SLP125 T02500167 $=
200809050052 METAR KATL 050052Z 15004KT 10SM FEW055 26/16 A2992 RMK AO2 SLP124 T02560161 $=
200809042352 METAR KATL 042352Z 15007KT 10SM FEW050 27/16 A2991 RMK AO2 SLP121 T02670156 10294 20267 53003 $=
200809042252 METAR KATL 042252Z 16009KT 10SM SCT050 SCT250 28/15 A2991 RMK AO2 SLP118 T02780150 $=
200809042152 METAR KATL 042152Z 17011KT 10SM FEW055 29/15 A2990 RMK AO2 SLP115 T02890150 $=
200809042052 METAR KATL 042052Z 18011KT 10SM FEW060 SCT250 29/14 A2990 RMK AO2 SLP116 T02890139 56018 $=
200809041952 METAR KATL 041952Z 13007G15KT 10SM FEW050 SCT250 29/15 A2991 RMK AO2 SLP120 T02940150 $=
200809041852 METAR KATL 041852Z 16012G16KT 10SM FEW060 SCT250 29/14 A2994 RMK AO2 SLP128 T02890144 $=
200809041752 METAR KATL 041752Z 13008G16KT 10SM FEW060 SCT250 28/14 A2996 RMK AO2 SLP134 T02830139 10289 20189 58014 $=
200809041652 METAR KATL 041652Z 15012G18KT 10SM FEW060 SCT250 28/12 A2997 RMK AO2 SLP140 T02830122 $=
200809041552 METAR KATL 041552Z 14010G15KT 10SM FEW050 SCT150 SCT250 27/14 A3000 RMK AO2 SLP148 T02720144 $=
200809041452 METAR KATL 041452Z 14010G16KT 10SM FEW040 SCT150 SCT250 26/16 A3000 RMK AO2 SLP150 T02560161 58001 $=
200809041352 METAR KATL 041352Z 16007KT 10SM FEW150 SCT250 24/17 A3000 RMK AO2 SLP150 T02390172 $=
200809041252 METAR KATL 041252Z 17008KT 9SM SCT250 SCT300 22/17 A3000 RMK AO2 SLP152 T02170172 $=
200809041152 METAR KATL 041152Z 15004KT 10SM FEW070 SCT250 19/17 A3000 RMK AO2 SLP153 T01890167 10211 20183 53013 $=
200809041052 METAR KATL 041052Z 14003KT 10SM FEW250 18/16 A2998 RMK AO2 SLP144 T01830156=
200809040952 METAR KATL 040952Z 14004KT 10SM FEW070 19/15 A2997 RMK AO2 SLP139 T01890150=
200809040852 METAR KATL 040852Z COR 15005KT 10SM FEW060 19/15 A2997 RMK AO2 SLP138 T01940150 55002=
200809040752 METAR KATL 040752Z 10005KT 10SM CLR 18/14 A2996 RMK AO2 SLP137 T01830144=
200809040652 METAR KATL 040652Z 08004KT 9SM CLR 20/14 A2996 RMK AO2 SLP137 T02000144=
200809040552 METAR KATL 040552Z 06003KT 10SM CLR 21/14 A2997 RMK AO2 SLP140 T02110144 10244 20206 58001=
200809040452 METAR KATL 040452Z 09005KT 10SM SCT250 21/15 A2997 RMK AO2 SLP141 T02110150 402830194=
200809040352 METAR KATL 040352Z 08006KT 10SM SCT250 21/15 A2998 RMK AO2 SLP142 T02060150=
200809040252 METAR KATL 040252Z 00000KT 10SM SCT250 22/14 A2997 RMK AO2 SLP140 T02220144 52007=
200809040152 METAR KATL 040152Z 00000KT 10SM FEW150 23/16 A2996 RMK AO2 SLP137 T02280156=
200809040052 METAR KATL 040052Z 20003KT 10SM FEW150 23/16 A2996 RMK AO2 SLP136 T02330156=
200809032352 METAR KATL 032352Z 20005KT 10SM FEW150 SCT200 24/16 A2995 RMK AO2 SLP133 T02440156 10283 20244 56006=
200809032252 METAR KATL 032252Z 19006KT 10SM FEW150 SCT200 26/14 A2995 RMK AO2 SLP132 T02610144=
200809032152 METAR KATL 032152Z 17006KT 10SM FEW150 SCT250 28/14 A2996 RMK AO2 SLP134 T02780139=
200809032052 METAR KATL 032052Z 11006KT 10SM FEW055 SCT150 BKN250 27/13 A2997 RMK AO2 SLP138 T02720133 56019=
200809031952 METAR KATL 031952Z VRB06KT 10SM FEW055 BKN150 BKN250 28/14 A2998 RMK AO2 SLP143 T02780139=
200809031852 METAR KATL 031852Z 17008KT 10SM FEW050 SCT150 BKN250 27/14 A3001 RMK AO2 SLP152 T02720139=
200809031752 METAR KATL 031752Z 13006KT 10SM SCT045 BKN150 BKN250 27/15 A3003 RMK AO2 SLP157 58010 T02670150 10278 20200 $=
200809031652 METAR KATL 031652Z 15008KT 10SM FEW045 BKN150 BKN250 27/14 A3004 RMK AO2 SLP163 T02670144 $=
200809031552 METAR KATL 031552Z 13007KT 10SM SCT037 BKN150 BKN250 26/16 A3005 RMK AO2 SLP166 T02560161 $=
200809031452 METAR KATL 031452Z 16007KT 10SM SCT020 BKN060 BKN250 24/18 A3005 RMK AO2 SLP168 T02390178 51002 $=
200809031352 METAR KATL 031352Z 13004KT 10SM FEW047 SCT150 BKN250 23/18 A3005 RMK AO2 SLP166 T02280178 $=
200809031252 METAR KATL 031252Z 00000KT 10SM FEW047 SCT150 BKN250 22/18 A3006 RMK AO2 SLP169 T02220178=
200809031152 METAR KATL 031152Z 08005KT 7SM BKN047 BKN150 BKN250 20/17 A3005 RMK AO2 SLP167 T02000172 10228 20194 53008=
200809031052 METAR KATL 031052Z 07006KT 9SM SCT048 BKN150 BKN250 20/17 A3003 RMK AO2 SLP161 T02000172=
200809030952 METAR KATL 030952Z 11003KT 10SM BKN150 21/17 A3002 RMK AO2 SLP158 T02060172 $=
200809030852 METAR KATL 030852Z 12006KT 10SM FEW250 21/17 A3003 RMK AO2 SLP157 T02110172 56006 $=
200809030752 METAR KATL 030752Z 12005KT 10SM FEW250 22/17 A3003 RMK AO2 SLP159 T02170172 $=
200809030652 METAR KATL 030652Z 09004KT 9SM SCT150 BKN250 21/18 A3003 RMK AO2 SLP160 T02110178 $=
200809030552 METAR KATL 030552Z 11005KT 10SM BKN250 23/18 A3004 RMK AO2 SLP163 T02280178 10272 20228 58002 $=
200809030452 METAR KATL 030452Z 12004KT 10SM BKN250 23/17 A3005 RMK AO2 SLP165 T02330172 402940217=
200809030352 METAR KATL 030352Z 09007KT 10SM FEW200 BKN250 24/18 A3005 RMK AO2 SLP166 T02390178=
200809030252 METAR KATL 030252Z 09007KT 10SM BKN200 OVC250 24/18 A3005 RMK AO2 SLP165 T02440183 51013=
200809030152 METAR KATL 030152Z 12004KT 10SM BKN250 26/18 A3005 RMK AO2 SLP164 T02610183=
200809030052 METAR KATL 030052Z 10006KT 10SM OVC250 26/18 A3002 RMK AO2 SLP156 T02610183=
200809022352 METAR KATL 022352Z 11007KT 10SM FEW200 OVC250 27/18 A3001 RMK AO2 SLP152 T02720178 10294 20272 58009=
200809022252 METAR KATL 022252Z 09008KT 10SM FEW200 OVC250 27/18 A3002 RMK AO2 SLP156 T02720178=
200809022152 METAR KATL 022152Z 13008KT 10SM FEW040 BKN250 28/17 A3003 RMK AO2 SLP157 T02830172=
200809022052 METAR KATL 022052Z 09003KT 10SM SCT043 BKN060 BKN250 29/18 A3004 RMK AO2 SLP160 T02940183 56017=
200809021952 METAR KATL 021952Z 12007KT 090V150 10SM FEW040 SCT050 BKN060 29/18 A3005 RMK AO2 SLP164 T02890178=
200809021852 METAR KATL 021852Z 08008KT 10SM SCT040 BKN050 BKN250 28/18 A3007 RMK AO2 SLP171 T02830183=
200809021752 METAR KATL 021752Z 12006KT 10SM BKN040 BKN250 28/18 A3009 RMK AO2 SLP178 T02830183 10283 20222 58012=
200809021652 METAR KATL 021652Z 08008KT 10SM SCT034 SCT250 27/18 A3011 RMK AO2 SLP186 T02670178=
200809021552 METAR KATL 021552Z 09014G17KT 10SM SCT030 SCT250 27/18 A3012 RMK AO2 SLP189 T02670183=
200809021452 METAR KATL 021452Z 11008KT 10SM FEW025 SCT040 SCT150 26/18 A3013 RMK AO2 SLP191 T02560183 51006=
200809021352 METAR KATL 021352Z 11009G17KT 10SM FEW020 SCT080 SCT250 24/19 A3012 RMK AO2 SLP190 T02440189=
200809021252 METAR KATL 021252Z 09010KT 6SM HZ BKN035 BKN180 BKN250 23/19 A3013 RMK AO2 SLP192 T02330189 $=
200809021152 METAR KATL 021152Z 09009KT 5SM HZ FEW031 SCT150 22/19 A3011 RMK AO2 SLP186 T02220189 10244 20217 53011 $=
200809021052 METAR KATL 021052Z 08008KT 6SM HZ FEW033 SCT060 SCT150 22/19 A3009 RMK AO2 SLP180 T02220194 $=
200809021021 SPECI KATL 021021Z 09009KT 5SM BR SCT009 BKN033 22/20 A3008 RMK AO2 $=
200809021021 SPECI KATL 021021Z 09009KT 5SM BR SCT009 BKN033 22/20 A3008 RMK AO2 $=
200809020952 METAR KATL 020952Z 08008KT 5SM BR BKN011 BKN017 23/21 A3008 RMK AO2 SLP176 T02280206 $=
200809020852 METAR KATL 020852Z 09006KT 6SM HZ BKN014 BKN019 OVC027 23/21 A3007 RMK AO2 SLP174 T02330206 55004 $=
200809020806 SPECI KATL 020806Z 11009KT 8SM SCT014 BKN027 BKN060 24/21 A3007 RMK AO2 $=
200809020806 SPECI KATL 020806Z 11009KT 8SM SCT014 BKN027 BKN060 24/21 A3007 RMK AO2 $=
200809020752 METAR KATL 020752Z 11009KT 8SM BKN014 BKN060 24/21 A3007 RMK AO2 SLP173 T02390206 $=
200809020739 SPECI KATL 020739Z 10009KT 8SM SCT014 SCT019 BKN060 24/21 A3008 RMK AO2 $=
200809020739 SPECI KATL 020739Z 10009KT 8SM SCT014 SCT019 BKN060 24/21 A3008 RMK AO2 $=
200809020652 METAR KATL 020652Z 12009KT 7SM BKN012 OVC055 24/21 A3008 RMK AO2 SLP176 T02390211 $=
200809020614 SPECI KATL 020614Z 12010KT 7SM BKN014 OVC055 24/21 A3008 RMK AO2 $=
200809020614 SPECI KATL 020614Z 12010KT 7SM BKN014 OVC055 24/21 A3008 RMK AO2 $=
200809020552 METAR KATL 020552Z 11008KT 9SM SCT014 SCT039 BKN055 24/21 A3009 RMK AO2 SLP178 T02390211 10256 20239 50001 $=
200809020538 SPECI KATL 020538Z 12008KT 9SM FEW012 SCT027 BKN040 24/21 A3009 RMK AO2 $=
200809020538 SPECI KATL 020538Z 12008KT 9SM FEW012 SCT027 BKN040 24/21 A3009 RMK AO2 $=
200809020518 SPECI KATL 020518Z 11010KT 9SM BKN026 BKN033 24/21 A3009 RMK AO2 $=
200809020518 SPECI KATL 020518Z 11010KT 9SM BKN026 BKN033 24/21 A3009 RMK AO2 $=
200809020452 METAR KATL 020452Z 10010G14KT 10SM BKN035 BKN150 OVC250 24/21 A3009 RMK AO2 SLP178 T02440211 402720233 $=
200809020352 METAR KATL 020352Z 11009KT 10SM FEW065 SCT150 BKN250 25/22 A3009 RMK AO2 SLP178 T02500217 $=
200809020252 METAR KATL 020252Z 11010KT 10SM FEW032 OVC065 26/22 A3008 RMK AO2 SLP177 T02560217 52008 $=
200809020152 METAR KATL 020152Z 10008KT 10SM SCT045 BKN150 OVC250 26/21 A3008 RMK AO2 SLP175 T02560211 $=
200809020052 METAR KATL 020052Z 09008KT 10SM BKN150 OVC250 26/21 A3006 RMK AO2 SLP170 T02560211 $=
200809012352 METAR KATL 012352Z 09009KT 10SM BKN150 OVC250 26/21 A3006 RMK AO2 SLP168 T02560211 10272 20256 56004 $=
200809012252 METAR KATL 012252Z 09008KT 10SM BKN150 OVC250 26/21 A3006 RMK AO2 SLP170 T02610211 $=
200809012152 METAR KATL 012152Z 09010KT 10SM BKN150 OVC250 27/21 A3006 RMK AO2 SLP169 T02670211 $=
200809012052 METAR KATL 012052Z 09013KT 10SM SCT024 SCT060 BKN150 27/21 A3007 RMK AO2 SLP172 T02670206 58016 $=
200809011952 METAR KATL 011952Z 10012KT 10SM SCT022 BKN060 BKN150 27/20 A3009 RMK AO2 SLP179 T02670200 $=
200809011904 SPECI KATL 011904Z 10010G17KT 10SM SCT022 BKN030 OVC055 26/21 A3010 RMK AO2 SCT022V BKN $=
200809011904 SPECI KATL 011904Z 10010G17KT 10SM SCT022 BKN030 OVC055 26/21 A3010 RMK AO2 SCT022V BKN $=
200809011852 METAR KATL 011852Z 09011KT 10SM BKN022 BKN030 OVC055 26/21 A3011 RMK AO2 SLP186 BKN022V SCT T02610206 $=
200809011752 METAR KATL 011752Z 08015G19KT 10SM SCT021 BKN027 OVC039 26/21 A3012 RMK AO2 SLP189 60000 T02610206 10261 20233 56006 $=
200809011652 METAR KATL 011652Z 09013KT 9SM BKN019 BKN023 OVC035 26/21 A3012 RMK AO2 RAB00E10 SLP189 P0000 T02560211 $=
200809011629 SPECI KATL 011629Z 08014KT 9SM BKN016 BKN020 OVC037 26/21 A3012 RMK AO2 RAB00E10 CIG 014V016 BINOVC OHD P0000 $=
200809011629 SPECI KATL 011629Z 08014KT 9SM BKN016 BKN020 OVC037 26/21 A3012 RMK AO2 RAB00E10 CIG 014V016 BINOVC OHD P0000 $=
200809011602 SPECI KATL 011602Z 09013KT 9SM -RA BKN014 BKN020 OVC037 24/21 A3013 RMK AO2 RAB00 BKN014V SCT P0000 $=
200809011602 SPECI KATL 011602Z 09013KT 9SM -RA BKN014 BKN020 OVC037 24/21 A3013 RMK AO2 RAB00 BKN014V SCT P0000 $=
200809011552 METAR KATL 011552Z 10014KT 9SM SCT014 BKN020 BKN037 25/21 A3013 RMK AO2 RAB00E22 SLP194 SCT014V BKN P0000 T02500211 $=
200809011539 SPECI KATL 011539Z 09015KT 9SM SCT014 BKN018 BKN037 26/21 A3013 RMK AO2 RAB00E22 SCT014V BKN P0000 $=
200809011539 SPECI KATL 011539Z 09015KT 9SM SCT014 BKN018 BKN037 26/21 A3013 RMK AO2 RAB00E22 SCT014V BKN P0000 $=
200809011452 METAR KATL 011452Z 09011KT 9SM OVC014 24/21 A3014 RMK AO2 SLP195 T02440206 53015 $=
200809011352 METAR KATL 011352Z 09013G18KT 8SM OVC010 24/21 A3012 RMK AO2 SLP189 CIG 009V014 T02390206 $=
200809011252 METAR KATL 011252Z 09013KT 6SM HZ BKN010 OVC013 24/21 A3010 RMK AO2 SLP183 T02390206 $=
