##########################################################
# Query made at 04/19/2024 23:11:17 UTC
# Time interval: from 05/01/2009 12:00  to 05/31/2009 12:59  UTC
##########################################################

##########################################################
# KATL, Atlanta, Hartsfield - Jackson Atlanta International Airport (United States)
# WMO index: 72219. WIGOS ID: 0-20000-0-72219
# Latitude 33-38-59N. Longitude 084-25-00W. Altitude 312 m.
##########################################################

200905311252 METAR KATL 311252Z 28008KT 10SM CLR 23/17 A3001 RMK AO2 SLP151 T02330172=
200905311152 METAR KATL 311152Z 31008KT 10SM CLR 21/16 A2999 RMK AO2 SLP146 T02110161 10211 20183 51010=
200905311052 METAR KATL 311052Z 31006KT 10SM CLR 19/16 A2998 RMK AO2 SLP144 T01890161=
200905310952 METAR KATL 310952Z 31007KT 10SM CLR 18/16 A2997 RMK AO2 SLP140 T01830156=
200905310852 METAR KATL 310852Z 32007KT 10SM CLR 18/16 A2996 RMK AO2 SLP136 T01830156 55001=
200905310752 METAR KATL 310752Z 32008KT 10SM CLR 19/16 A2996 RMK AO2 SLP134 T01940156=
200905310652 METAR KATL 310652Z 32007KT 10SM CLR 19/16 A2995 RMK AO2 SLP134 T01940156=
200905310552 METAR KATL 310552Z 28006KT 10SM CLR 20/15 A2996 RMK AO2 SLP137 T02000150 10261 20200 55001=
200905310452 METAR KATL 310452Z 00000KT 10SM CLR 21/16 A2996 RMK AO2 SLP136 T02110156 402830156=
200905310352 METAR KATL 310352Z 29005KT 10SM CLR 22/14 A2996 RMK AO2 SLP137 T02220144=
200905310252 METAR KATL 310252Z 29004KT 10SM CLR 23/14 A2997 RMK AO2 SLP139 T02280144 53014=
200905310152 METAR KATL 310152Z 00000KT 10SM CLR 24/14 A2995 RMK AO2 SLP133 T02390139=
200905310052 METAR KATL 310052Z 32006KT 10SM CLR 25/13 A2994 RMK AO2 SLP129 T02500133=
200905302352 METAR KATL 302352Z 32006KT 10SM CLR 27/14 A2992 RMK AO2 SLP125 T02670139 10283 20261 51002=
200905302252 METAR KATL 302252Z 33011KT 10SM FEW060 28/13 A2992 RMK AO2 SLP125 T02780128=
200905302152 METAR KATL 302152Z 34014G19KT 10SM FEW060 28/13 A2992 RMK AO2 SLP123 T02780128=
200905302052 METAR KATL 302052Z VRB06KT 10SM FEW060 SCT250 28/13 A2992 RMK AO2 SLP122 T02780128 56008=
200905301952 METAR KATL 301952Z 33007KT 10SM FEW055 SCT250 28/13 A2992 RMK AO2 SLP123 T02830133=
200905301852 SPECI KATL 301852Z 00000KT 10SM FEW055 SCT250 27/14 A2993 RMK AO2 SLP127 T02720139=
200905301752 METAR KATL 301752Z 30005KT 10SM FEW055 26/14 A2994 RMK AO2 SLP131 T02610139 10267 20172 56005=
200905301652 METAR KATL 301652Z 25004KT 10SM FEW045 25/14 A2995 RMK AO2 SLP133 T02500139=
200905301552 METAR KATL 301552Z 01004KT 10SM FEW040 24/14 A2995 RMK AO2 SLP135 T02440139=
200905301452 METAR KATL 301452Z VRB05KT 10SM CLR 23/15 A2996 RMK AO2 SLP137 T02280150 51008=
200905301352 METAR KATL 301352Z 32005KT 10SM CLR 21/15 A2995 RMK AO2 SLP135 T02110150=
200905301252 METAR KATL 301252Z 34008KT 10SM CLR 19/15 A2995 RMK AO2 SLP134 T01890150=
200905301152 METAR KATL 301152Z 33008KT 9SM CLR 17/15 A2993 RMK AO2 SLP129 T01670150 10178 20156 53009=
200905301052 METAR KATL 301052Z 33008KT 10SM CLR 16/14 A2992 RMK AO2 SLP125 T01560144=
200905300952 METAR KATL 300952Z 32010KT 10SM CLR 16/14 A2990 RMK AO2 SLP119 T01610144=
200905300852 METAR KATL 300852Z 32005KT 10SM CLR 16/14 A2990 RMK AO2 SLP119 T01610144 53002=
200905300752 METAR KATL 300752Z 33008KT 10SM CLR 17/15 A2989 RMK AO2 SLP116 T01720150=
200905300652 METAR KATL 300652Z 32008KT 10SM CLR 17/15 A2989 RMK AO2 SLP115 T01720150=
200905300552 METAR KATL 300552Z 32008KT 10SM CLR 18/15 A2990 RMK AO2 SLP117 T01780150 10233 20178 56008=
200905300452 METAR KATL 300452Z 32009KT 10SM CLR 18/16 A2990 RMK AO2 SLP118 T01830156 402670183=
200905300352 METAR KATL 300352Z 31008KT 10SM CLR 19/16 A2991 RMK AO2 SLP120 T01890156=
200905300252 METAR KATL 300252Z 31008KT 10SM CLR 20/16 A2992 RMK AO2 SLP124 T02000156 53016=
200905300152 METAR KATL 300152Z 32008KT 10SM CLR 21/15 A2991 RMK AO2 SLP120 T02110150=
200905300052 METAR KATL 300052Z 31010KT 10SM CLR 22/15 A2989 RMK AO2 SLP112 T02220150=
200905292352 METAR KATL 292352Z 31010KT 10SM FEW040 23/16 A2988 RMK AO2 SLP109 T02330161 10267 20233 53003=
200905292252 METAR KATL 292252Z 30009KT 10SM FEW040 SCT070 24/17 A2986 RMK AO2 SLP104 T02440167=
200905292152 METAR KATL 292152Z 30011G19KT 10SM FEW040 OVC070 24/16 A2987 RMK AO2 SLP106 T02440161=
200905292052 METAR KATL 292052Z 30014KT 10SM FEW040 BKN070 BKN250 26/17 A2987 RMK AO2 SLP105 T02560172 57010=
200905291952 METAR KATL 291952Z 30012KT 10SM SCT050 BKN065 BKN250 26/17 A2988 RMK AO2 SLP108 T02560167=
200905291852 METAR KATL 291852Z 30011G15KT 10SM SCT040 BKN055 BKN250 26/16 A2989 RMK AO2 SLP111 T02610161=
200905291752 METAR KATL 291752Z 29007KT 10SM BKN040 BKN050 BKN250 24/16 A2990 RMK AO2 SLP115 T02440161 10256 20194 50001=
200905291652 METAR KATL 291652Z 27007KT 10SM BKN037 BKN250 25/17 A2990 RMK AO2 SLP116 T02500167=
200905291552 METAR KATL 291552Z 27009KT 10SM SCT035 SCT250 24/17 A2990 RMK AO2 SLP116 T02440167=
200905291452 METAR KATL 291452Z 29008KT 10SM FEW028 24/16 A2989 RMK AO2 SLP114 T02390161 50001=
200905291352 METAR KATL 291352Z 28006KT 10SM FEW015 22/18 A2990 RMK AO2 SLP116 T02220178=
200905291252 METAR KATL 291252Z 28006KT 10SM FEW050 21/17 A2990 RMK AO2 SLP115 T02060172=
200905291152 METAR KATL 291152Z 29007KT 10SM FEW250 19/17 A2989 RMK AO2 SLP114 T01940172 10222 20183 51014=
200905291052 METAR KATL 291052Z 28004KT 9SM FEW060 SCT150 18/17 A2988 RMK AO2 SLP108 T01830172=
200905290952 METAR KATL 290952Z 29006KT 10SM FEW060 SCT150 19/18 A2987 RMK AO2 SLP105 T01940178=
200905290852 METAR KATL 290852Z 30006KT 10SM FEW150 20/18 A2985 RMK AO2 SLP098 T02000178 53001=
200905290752 METAR KATL 290752Z 31008KT 10SM FEW150 21/18 A2983 RMK AO2 SLP092 T02060183=
200905290652 METAR KATL 290652Z 30008KT 10SM SCT250 22/19 A2984 RMK AO2 SLP094 OCNL LTG DSNT SE T02170194=
200905290552 METAR KATL 290552Z 27005KT 10SM BKN060 BKN250 22/20 A2985 RMK AO2 SLP097 OCNL LTG DSNT S T02220200 10261 20222 50000=
200905290452 METAR KATL 290452Z 24005KT 10SM FEW040 SCT250 23/20 A2985 RMK AO2 SLP099 FRQ LTG DSNT NE AND S-SW T02280200 402890194=
200905290352 METAR KATL 290352Z 20005KT 10SM FEW040 SCT060 BKN075 BKN250 23/19 A2985 RMK AO2 SLP100 OCNL LTG DSNT NW-N T02280194=
200905290252 METAR KATL 290252Z 22004KT 10SM FEW250 23/19 A2985 RMK AO2 SLP097 T02280189 51013=
200905290152 METAR KATL 290152Z 22007KT 10SM FEW250 23/18 A2983 RMK AO2 SLP093 T02330183=
200905290052 METAR KATL 290052Z 22008KT 10SM FEW035 SCT250 25/18 A2983 RMK AO2 SLP090 TCU DSNT NW-N T02500183=
200905282352 METAR KATL 282352Z 22008KT 10SM FEW035 26/19 A2981 RMK AO2 SLP084 TCU DSNT N AND NE 60000 T02610194 10289 20261 55001=
200905282252 METAR KATL 282252Z 26013G19KT 10SM FEW040TCU SCT055 SCT200 28/19 A2980 RMK AO2 SLP081 TCU E-S AND DSNT SW-W T02830194=
200905282152 METAR KATL 282152Z 22011G17KT 10SM FEW040 SCT200 28/19 A2980 RMK AO2 SLP080 T02830189=
200905282052 METAR KATL 282052Z 21012KT 10SM SCT038TCU SCT055 28/19 A2981 RMK AO2 SLP086 TCU S & NW & N 60000 T02780194 56020=
200905281952 METAR KATL 281952Z 21013KT 10SM SCT044 28/19 A2983 RMK AO2 RAB12E23 SLP091 TCU DSNT SE P0000 T02780194=
200905281907 SPECI KATL 281907Z 21011KT 10SM SCT037TCU BKN050 BKN150 28/19 A2985 RMK AO2 TCU S-SW & NW SHRA S-SW & NW=
200905281907 SPECI KATL 281907Z 21011KT 10SM SCT037TCU BKN050 BKN150 28/19 A2985 RMK AO2 TCU S-SW & NW SHRA S-SW & NW=
200905281852 METAR KATL 281852Z 20009KT 10SM FEW035TCU SCT055 SCT150 28/19 A2985 RMK AO2 SLP099 TCU SE & W & NW T02780194=
200905281752 METAR KATL 281752Z 20007KT 10SM FEW030TCU BKN040 BKN150 27/19 A2987 RMK AO2 SLP107 TCU NE T02720189 10272 20200 58005=
200905281715 SPECI KATL 281715Z 20004KT 10SM FEW027TCU BKN030 BKN050 27/20 A2988 RMK AO2 TCU SW & N=
200905281715 SPECI KATL 281715Z 20004KT 10SM FEW027TCU BKN030 BKN050 27/20 A2988 RMK AO2 TCU SW & N=
200905281652 METAR KATL 281652Z 28006KT 10SM BKN027 BKN034 BKN250 26/20 A2988 RMK AO2 SLP111 T02560200=
200905281552 METAR KATL 281552Z VRB04KT 10SM FEW025 SCT150 BKN250 25/19 A2989 RMK AO2 SLP112 T02500194=
200905281452 METAR KATL 281452Z 28003KT 9SM FEW020 BKN150 BKN200 23/19 A2989 RMK AO2 SLP113 T02330189 50004=
200905281352 METAR KATL 281352Z COR 22004KT 7SM FEW012 BKN150 BKN200 22/19 A2990 RMK AO2 SLP116 T02170189=
200905281252 METAR KATL 281252Z 23006KT 5SM BR SCT009 BKN012 21/19 A2989 RMK AO2 SLP113 T02110189=
200905281237 SPECI KATL 281237Z 22003KT 5SM BR BKN006 BKN011 21/19 A2988 RMK AO2=
200905281237 SPECI KATL 281237Z 22003KT 5SM BR BKN006 BKN011 21/19 A2988 RMK AO2=
200905281209 SPECI KATL 281209Z 24005KT 2 1/2SM BR BKN006 21/19 A2988 RMK AO2 SFC VIS 5=
200905281209 SPECI KATL 281209Z 24005KT 2 1/2SM BR BKN006 21/19 A2988 RMK AO2 SFC VIS 5=
200905281152 METAR KATL 281152Z 22004KT 3/4SM BR BKN004 BKN009 BKN120 20/19 A2988 RMK AO2 SFC VIS 4 SLP109 T02000194 10211 20194 51009=
200905281108 SPECI KATL 281108Z 25003KT 3/4SM BR OVC003 20/19 A2986 RMK AO2 SFC VIS 3=
200905281108 SPECI KATL 281108Z 25003KT 3/4SM BR OVC003 20/19 A2986 RMK AO2 SFC VIS 3=
200905281052 METAR KATL 281052Z 23005KT 2 1/2SM BR OVC003 20/19 A2986 RMK AO2 SFC VIS 3 SLP102 T02000194=
200905281015 SPECI KATL 281015Z 23003KT 2 1/2SM BR OVC003 20/20 A2985 RMK AO2 SFC VIS 4 CIG 002V007=
200905281015 SPECI KATL 281015Z 23003KT 2 1/2SM BR OVC003 20/20 A2985 RMK AO2 SFC VIS 4 CIG 002V007=
200905280955 SPECI KATL 280955Z 00000KT 1/2SM BR OVC003 20/19 A2985 RMK AO2 SFC VIS 3=
200905280955 SPECI KATL 280955Z 00000KT 1/2SM BR OVC003 20/19 A2985 RMK AO2 SFC VIS 3=
200905280952 METAR KATL 280952Z 26003KT 1/4SM BR OVC001 20/19 A2985 RMK AO2 SFC VIS 3 SLP099 T02000194=
200905280909 SPECI KATL 280909Z 23004KT 1/4SM R09R/3500V5000FT FG VV001 20/20 A2984 RMK AO2 SFC VIS 1/2=
200905280909 SPECI KATL 280909Z 23004KT 1/4SM R09R/3500V5000FT FG VV001 20/20 A2984 RMK AO2 SFC VIS 1/2=
200905280852 METAR KATL 280852Z 25004KT 3/4SM R09R/4000VP6000FT BR VV001 20/20 A2985 RMK AO2 TWR VIS 1 SLP097 T02000200 55000=
200905280839 SPECI KATL 280839Z 24003KT 1/2SM R09R/2600V3500FT FG VV001 20/20 A2984 RMK AO2 TWR VIS 1=
200905280839 SPECI KATL 280839Z 24003KT 1/2SM R09R/2600V3500FT FG VV001 20/20 A2984 RMK AO2 TWR VIS 1=
200905280830 SPECI KATL 280830Z 24004KT 1/2SM R09R/2400V4500FT FG OVC002 20/20 A2985 RMK AO2 TWR VIS 1=
200905280830 SPECI KATL 280830Z 24004KT 1/2SM R09R/2400V4500FT FG OVC002 20/20 A2985 RMK AO2 TWR VIS 1=
200905280822 SPECI KATL 280822Z 00000KT 1SM R09R/3000VP6000FT BR OVC002 20/20 A2984 RMK AO2=
200905280822 SPECI KATL 280822Z 00000KT 1SM R09R/3000VP6000FT BR OVC002 20/20 A2984 RMK AO2=
200905280803 SPECI KATL 280803Z 00000KT 1/4SM BR OVC002 20/19 A2984 RMK AO2 SFC VIS 5 CIG 001V006=
200905280803 SPECI KATL 280803Z 00000KT 1/4SM BR OVC002 20/19 A2984 RMK AO2 SFC VIS 5 CIG 001V006=
200905280752 METAR KATL 280752Z 00000KT 6SM BR BKN004 OVC010 19/19 A2984 RMK AO2 SLP093 T01940194=
200905280744 SPECI KATL 280744Z 20003KT 6SM BR SCT004 OVC010 19/19 A2983 RMK AO2=
200905280744 SPECI KATL 280744Z 20003KT 6SM BR SCT004 OVC010 19/19 A2983 RMK AO2=
200905280652 METAR KATL 280652Z 21004KT 8SM SCT150 BKN200 19/19 A2983 RMK AO2 SLP093 T01940189=
200905280552 METAR KATL 280552Z 19003KT 10SM SCT200 19/18 A2985 RMK AO2 SLP097 60000 T01940183 10244 20194 58007=
200905280452 METAR KATL 280452Z 22003KT 10SM FEW150 BKN200 BKN250 19/19 A2986 RMK AO2 SLP103 T01940189 402830189=
200905280352 METAR KATL 280352Z 00000KT 10SM FEW040 BKN200 BKN250 21/19 A2987 RMK AO2 SLP105 T02060189=
200905280252 METAR KATL 280252Z 14004KT 10SM FEW040 SCT150 OVC200 21/19 A2987 RMK AO2 SLP106 60000 T02060194 53011=
200905280152 METAR KATL 280152Z 00000KT 10SM FEW030 SCT150 BKN200 BKN250 21/19 A2985 RMK AO2 SLP099 OCNL LTG DSNT NE T02110194=
200905280052 METAR KATL 280052Z COR 17006KT 10SM FEW030 SCT050 BKN150 BKN250 22/19 A2985 RMK AO2 TSE43RAB2355E36 SLP102 FRQ LTG DSNT SE-SW AND=
200905280043 SPECI KATL 280043Z 17007KT 10SM SCT035 BKN050 BKN150 BKN250 22/19 A2985 RMK AO2 TSE43RAB2355E36 FRQ LTGICCG DSNT SE-SW TS MOV SE SHRA E-SE P0000=
200905280043 SPECI KATL 280043Z 17007KT 10SM SCT035 BKN050 BKN150 BKN250 22/19 A2985 RMK AO2 TSE43RAB2355E36 FRQ LTGICCG DSNT SE-SW TS MOV SE SHRA E-SE P0000=
200905272352 METAR KATL 272352Z 15010KT 10SM TS FEW030CB SCT040 BKN200 BKN250 24/21 A2983 RMK AO2 TSB39 SLP094 FRQ LTGICCG SE-SW TS SE-SW MOV SE T02440206 10283 20244 55001=
200905272339 SPECI KATL 272339Z 10005KT 10SM TS FEW035CB SCT100 BKN250 26/20 A2982 RMK AO2 TSB39 OCNL LTGICCG S TS S MOV SE=
200905272339 SPECI KATL 272339Z 10005KT 10SM TS FEW035CB SCT100 BKN250 26/20 A2982 RMK AO2 TSB39 OCNL LTGICCG S TS S MOV SE=
200905272252 METAR KATL 272252Z 00000KT 10SM FEW035TCU SCT100 BKN250 27/19 A2981 RMK AO2 SLP086 TCU S-SW CB DSNT SE T02720189=
200905272152 METAR KATL 272152Z 36006KT 10SM SCT035TCU SCT055 BKN080 27/19 A2983 RMK AO2 SLP094 TCU SE-SW CB DSNT E-SE T02670194=
200905272052 METAR KATL 272052Z 21005KT 10SM FEW038CB BKN055 BKN075 27/19 A2984 RMK AO2 SLP095 CB NE & NW MOV SE SHRA NE & NW T02670194 56019=
200905272028 SPECI KATL 272028Z 21007KT 10SM SCT038CB BKN060 BKN200 27/19 A2984 RMK AO2 CB NE & NW MOV SE SHRA NE & NW=
200905272028 SPECI KATL 272028Z 21007KT 10SM SCT038CB BKN060 BKN200 27/19 A2984 RMK AO2 CB NE & NW MOV SE SHRA NE & NW=
200905271952 METAR KATL 271952Z 23005KT 10SM FEW038 BKN050 BKN200 27/19 A2985 RMK AO2 SLP099 CB DSNT NW-N SHRA DSNT NW-N T02670189=
200905271852 METAR KATL 271852Z 25006KT 10SM BKN040 BKN060 BKN200 28/19 A2987 RMK AO2 SLP106 CB DSNT NW TCU DSNT NE T02780194=
200905271752 METAR KATL 271752Z VRB06KT 10SM SCT030 27/19 A2990 RMK AO2 SLP114 CB DSNT E SHRA DSNT E 60000 T02670194 10267 20194 58014=
200905271652 METAR KATL 271652Z 00000KT 10SM SCT019TCU BKN035 BKN070 23/19 A2992 RMK AO2 RAB50E52 SLP124 TCU N-NE-E & S & W & NW SHRA NE-E P0000 T02330194=
200905271615 SPECI KATL 271615Z 22005KT 10SM FEW019 BKN036 BKN070 24/19 A2993 RMK AO2=
200905271615 SPECI KATL 271615Z 22005KT 10SM FEW019 BKN036 BKN070 24/19 A2993 RMK AO2=
200905271552 METAR KATL 271552Z 19006KT 10SM BKN017 BKN035 BKN080 23/19 A2994 RMK AO2 SLP129 T02330194=
200905271458 SPECI KATL 271458Z 23004KT 10SM BKN017 BKN025 OVC080 22/19 A2994 RMK AO2=
200905271458 SPECI KATL 271458Z 23004KT 10SM BKN017 BKN025 OVC080 22/19 A2994 RMK AO2=
200905271452 METAR KATL 271452Z 22005KT 10SM BKN014 BKN020 OVC080 22/19 A2994 RMK AO2 SLP131 T02170189 53003=
200905271352 METAR KATL 271352Z VRB04KT 9SM FEW009 SCT012 BKN080 21/19 A2993 RMK AO2 SLP129 T02110189=
200905271349 SPECI KATL 271349Z 20003KT 9SM FEW009 SCT012 BKN080 22/19 A2993 RMK AO2=
200905271349 SPECI KATL 271349Z 20003KT 9SM FEW009 SCT012 BKN080 22/19 A2993 RMK AO2=
200905271252 METAR KATL 271252Z 16004KT 10SM BKN009 BKN080 20/18 A2993 RMK AO2 SLP129 T02000178=
200905271159 SPECI KATL 271159Z 00000KT 10SM BKN009 BKN080 19/18 A2992 RMK AO2=
200905271159 SPECI KATL 271159Z 00000KT 10SM BKN009 BKN080 19/18 A2992 RMK AO2=
200905271152 METAR KATL 271152Z 17003KT 10SM SCT011 BKN075 BKN090 BKN150 19/18 A2992 RMK AO2 SLP124 T01940178 10194 20189 53007=
200905271052 METAR KATL 271052Z 00000KT 10SM SCT060 BKN085 19/17 A2991 RMK AO2 SLP122 T01890172=
200905271009 SPECI KATL 271009Z 00000KT 10SM SCT012 BKN024 19/17 A2990 RMK AO2=
200905271009 SPECI KATL 271009Z 00000KT 10SM SCT012 BKN024 19/17 A2990 RMK AO2=
200905270952 METAR KATL 270952Z 00000KT 7SM BKN010 OVC013 19/17 A2990 RMK AO2 SLP117 T01890172=
200905270852 METAR KATL 270852Z 19004KT 7SM BKN008 OVC012 19/18 A2989 RMK AO2 SLP114 T01890178 55001=
200905270752 METAR KATL 270752Z 18006KT 7SM BKN008 OVC010 19/18 A2988 RMK AO2 SLP113 T01940178=
200905270652 METAR KATL 270652Z 17005KT 6SM BR BKN007 OVC010 19/18 A2988 RMK AO2 SLP110 T01890178=
200905270552 METAR KATL 270552Z 20006KT 6SM BR OVC006 19/18 A2989 RMK AO2 CIG 004V009 SLP113 60000 T01940183 10222 20194 58003=
200905270452 METAR KATL 270452Z 18006KT 10SM OVC006 19/18 A2989 RMK AO2 SLP114 CIG 005V009 T01940183 402560178=
200905270352 METAR KATL 270352Z 18003KT 10SM OVC007 20/19 A2990 RMK AO2 SLP117 CIG 005V009 T02000189=
200905270306 SPECI KATL 270306Z 17005KT 10SM BKN007 BKN200 20/19 A2990 RMK AO2=
200905270306 SPECI KATL 270306Z 17005KT 10SM BKN007 BKN200 20/19 A2990 RMK AO2=
200905270252 METAR KATL 270252Z 17004KT 10SM SCT007 BKN011 BKN150 20/19 A2990 RMK AO2 RAE20 SLP117 P0000 60000 T02000189 51013=
200905270248 SPECI KATL 270248Z 18003KT 10SM SCT007 BKN011 BKN150 20/19 A2990 RMK AO2 RAE20 P0000=
200905270248 SPECI KATL 270248Z 18003KT 10SM SCT007 BKN011 BKN150 20/19 A2990 RMK AO2 RAE20 P0000=
200905270232 SPECI KATL 270232Z 15004KT 10SM SCT009 BKN080 BKN150 21/19 A2989 RMK AO2 RAE20 P0000=
200905270232 SPECI KATL 270232Z 15004KT 10SM SCT009 BKN080 BKN150 21/19 A2989 RMK AO2 RAE20 P0000=
200905270152 METAR KATL 270152Z 16003KT 10SM -RA FEW010 SCT090 BKN120 OVC150 21/19 A2990 RMK AO2 RAB52 SLP116 P0000 T02060189=
200905270052 METAR KATL 270052Z 17004KT 10SM FEW120 BKN150 OVC200 21/18 A2989 RMK AO2 SLP115 T02110183=
200905262352 METAR KATL 262352Z 14005KT 10SM FEW010 BKN200 OVC250 22/19 A2986 RMK AO2 SLP105 60023 T02220189 10256 20211 58009=
200905262252 METAR KATL 262252Z 17007KT 10SM FEW015 SCT150 OVC200 22/19 A2986 RMK AO2 SLP105 T02220189=
200905262152 METAR KATL 262152Z 18009KT 10SM FEW012 BKN150 OVC200 23/19 A2989 RMK AO2 RAE34 SLP114 P0000 T02330189=
200905262052 METAR KATL 262052Z 20006KT 8SM -RA FEW007 SCT070 OVC150 22/20 A2989 RMK AO2 TSE05RAB05 SLP114 CB DSNT NE-E-SE TCU DSNT NE P0000 60023 T02170200 56004=
200905262005 SPECI KATL 262005Z 23006KT 9SM -RA FEW010CB SCT040 SCT090 OVC150 22/19 A2989 RMK AO2 TSE05RAB05 TS MOV N CB N-NE-E MOV N SHRA N-NE-E P0000=
200905262005 SPECI KATL 262005Z 23006KT 9SM -RA FEW010CB SCT040 SCT090 OVC150 22/19 A2989 RMK AO2 TSE05RAB05 TS MOV N CB N-NE-E MOV N SHRA N-NE-E P0000=
200905261952 METAR KATL 261952Z 21009KT 9SM TS FEW025CB BKN035 OVC070 22/19 A2989 RMK AO2 TSB07E42B49RAB19E51 SLP115 FRQ LTGICCG N TS N MOV N CB N-NE-E MOV N P0023 T02170194=
200905261950 SPECI KATL 261950Z 21007KT 9SM -TSRA FEW025CB BKN035 OVC070 22/19 A2989 RMK AO2 TSB07E42B49RAB19 FRQ LTGICCG N TS N MOV N CB N-NE-E P0023=
200905261950 SPECI KATL 261950Z 21007KT 9SM -TSRA FEW025CB BKN035 OVC070 22/19 A2989 RMK AO2 TSB07E42B49RAB19 FRQ LTGICCG N TS N MOV N CB N-NE-E P0023=
200905261944 SPECI KATL 261944Z 24006KT 9SM -RA SCT025CB BKN035TCU OVC070 21/19 A2989 RMK AO2 TSB07E42RAB19 TS DSIPT CB NW-N MOV N TCU N-NE-E-SE SHRA NW-N P0023=
200905261944 SPECI KATL 261944Z 24006KT 9SM -RA SCT025CB BKN035TCU OVC070 21/19 A2989 RMK AO2 TSB07E42RAB19 TS DSIPT CB NW-N MOV N TCU N-NE-E-SE SHRA NW-N P0023=
200905261932 SPECI KATL 261932Z 24008KT 1SM R09R/P6000FT +TSRA BKN025CB BKN032 BKN046 OVC200 22/19 A2990 RMK AO2 TWR VIS 4 TSB07RAB19 OCNL LTGICCG ALQDS TS ALQDS MOV N P0000=
200905261932 SPECI KATL 261932Z 24008KT 1SM R09R/P6000FT +TSRA BKN025CB BKN032 BKN046 OVC200 22/19 A2990 RMK AO2 TWR VIS 4 TSB07RAB19 OCNL LTGICCG ALQDS TS ALQDS MOV N P0000=
200905261921 SPECI KATL 261921Z 22012KT 8SM -TSRA BKN025CB BKN032 BKN046 OVC200 23/19 A2989 RMK AO2 TSB07RAB19 OCNL LTGICCG S-SW-W TS S-SW-W MOV N P0000=
200905261921 SPECI KATL 261921Z 22012KT 8SM -TSRA BKN025CB BKN032 BKN046 OVC200 23/19 A2989 RMK AO2 TSB07RAB19 OCNL LTGICCG S-SW-W TS S-SW-W MOV N P0000=
200905261914 SPECI KATL 261914Z 20009KT 10SM TS SCT025CB BKN044 BKN200 25/19 A2990 RMK AO2 TSB07 OCNL LTGICCG SW TS SW MOV N=
200905261914 SPECI KATL 261914Z 20009KT 10SM TS SCT025CB BKN044 BKN200 25/19 A2990 RMK AO2 TSB07 OCNL LTGICCG SW TS SW MOV N=
200905261908 SPECI KATL 261908Z 16006KT 10SM TS FEW025CB SCT039TCU SCT047 BKN200 25/20 A2990 RMK AO2 TSB07 OCNL LTGICCG S-SW TS S-SW MOV N TCU N-NE=
200905261908 SPECI KATL 261908Z 16006KT 10SM TS FEW025CB SCT039TCU SCT047 BKN200 25/20 A2990 RMK AO2 TSB07 OCNL LTGICCG S-SW TS S-SW MOV N TCU N-NE=
200905261852 METAR KATL 261852Z 18008KT 9SM FEW025CB SCT036TCU SCT060 BKN200 25/19 A2990 RMK AO2 SLP116 CB NE & NW & DSNT S-SW-W-NW MOV N TCU E-SE & W-NW T02500194=
200905261752 METAR KATL 261752Z 15010KT 10SM FEW020 SCT026TCU BKN032 25/19 A2992 RMK AO2 SLP124 TCU OHD & ALQDS 60000 T02500194 10250 20189 58013=
200905261703 SPECI KATL 261703Z 13010KT 10SM SCT018TCU BKN030 BKN045 25/20 A2993 RMK AO2 TCU OHD & ALQDS=
200905261703 SPECI KATL 261703Z 13010KT 10SM SCT018TCU BKN030 BKN045 25/20 A2993 RMK AO2 TCU OHD & ALQDS=
200905261652 METAR KATL 261652Z 14009KT 10SM BKN016TCU BKN025 BKN030 24/20 A2994 RMK AO2 SLP129 TCU OHD & ALQDS T02440200=
200905261641 SPECI KATL 261641Z 14008KT 10SM BKN016 BKN030 BKN070 24/20 A2994 RMK AO2 BINOVC=
200905261641 SPECI KATL 261641Z 14008KT 10SM BKN016 BKN030 BKN070 24/20 A2994 RMK AO2 BINOVC=
200905261628 SPECI KATL 261628Z 14006KT 10SM BKN015 BKN021 OVC027 24/20 A2995 RMK AO2=
200905261628 SPECI KATL 261628Z 14006KT 10SM BKN015 BKN021 OVC027 24/20 A2995 RMK AO2=
200905261552 METAR KATL 261552Z 12005KT 9SM BKN012 BKN020 BKN070 23/20 A2996 RMK AO2 SLP136 BINOVC T02330200=
200905261531 SPECI KATL 261531Z 12006KT 9SM FEW009 BKN017 OVC070 23/20 A2996 RMK AO2 BINOVC=
200905261531 SPECI KATL 261531Z 12006KT 9SM FEW009 BKN017 OVC070 23/20 A2996 RMK AO2 BINOVC=
200905261514 SPECI KATL 261514Z 15006KT 9SM SCT011 BKN019 OVC070 23/20 A2996 RMK AO2 BINOVC=
200905261514 SPECI KATL 261514Z 15006KT 9SM SCT011 BKN019 OVC070 23/20 A2996 RMK AO2 BINOVC=
200905261454 SPECI KATL 261454Z 13006KT 10SM OVC011 22/19 A2996 RMK AO2=
200905261454 SPECI KATL 261454Z 13006KT 10SM OVC011 22/19 A2996 RMK AO2=
200905261452 METAR KATL 261452Z 13006KT 9SM OVC009 22/19 A2996 RMK AO2 CIG 007V013 SLP138 60000 T02220194 51004=
200905261352 METAR KATL 261352Z 11006KT 6SM BR OVC005 21/19 A2996 RMK AO2 RAB21E31 CIG 004V009 SLP136 P0000 T02110194=
200905261320 SPECI KATL 261320Z 12006KT 6SM BR OVC005 21/19 A2996 RMK AO2=
200905261320 SPECI KATL 261320Z 12006KT 6SM BR OVC005 21/19 A2996 RMK AO2=
200905261315 SPECI KATL 261315Z 11005KT 1 1/2SM BR OVC002 21/19 A2996 RMK AO2 SFC VIS 6=
200905261315 SPECI KATL 261315Z 11005KT 1 1/2SM BR OVC002 21/19 A2996 RMK AO2 SFC VIS 6=
200905261252 METAR KATL 261252Z 12006KT 1/2SM BR OVC002 20/19 A2996 RMK AO2 SFC VIS 4 SLP137 T02000189=
200905261152 METAR KATL 261152Z 12005KT 1/2SM R09R/P6000FT BR OVC002 19/18 A2995 RMK AO2 SFC VIS 1 SLP134 70001 T01890183 10189 20178 53014=
200905261052 METAR KATL 261052Z 12006KT 1/2SM BR BKN004 OVC007 19/18 A2993 RMK AO2 SFC VIS 6 SLP128 T01890183=
200905260957 SPECI KATL 260957Z 12005KT 6SM BR BKN004 OVC011 19/18 A2991 RMK AO2 CIG 003V007=
200905260957 SPECI KATL 260957Z 12005KT 6SM BR BKN004 OVC011 19/18 A2991 RMK AO2 CIG 003V007=
200905260952 METAR KATL 260952Z 11003KT 6SM BR BKN011 BKN017 OVC120 19/18 A2991 RMK AO2 SLP120 T01890178=
200905260945 SPECI KATL 260945Z 11003KT 6SM BR BKN011 BKN017 OVC120 18/17 A2991 RMK AO2=
200905260945 SPECI KATL 260945Z 11003KT 6SM BR BKN011 BKN017 OVC120 18/17 A2991 RMK AO2=
200905260936 SPECI KATL 260936Z 10003KT 10SM SCT011 BKN017 18/17 A2991 RMK AO2=
200905260936 SPECI KATL 260936Z 10003KT 10SM SCT011 BKN017 18/17 A2991 RMK AO2=
200905260852 METAR KATL 260852Z 08005KT 10SM SCT028 BKN150 18/17 A2990 RMK AO2 SLP118 T01830172 55007=
200905260752 METAR KATL 260752Z 10003KT 10SM FEW150 18/17 A2990 RMK AO2 SLP117 T01830172=
200905260652 METAR KATL 260652Z 00000KT 10SM FEW029 SCT150 19/17 A2991 RMK AO2 SLP120 T01890172=
200905260552 METAR KATL 260552Z 15004KT 10SM FEW050 SCT120 OVC150 19/17 A2993 RMK AO2 SLP126 60001 T01890172 10233 20189 58000=
200905260452 METAR KATL 260452Z 14004KT 10SM BKN032 BKN100 OVC150 19/18 A2994 RMK AO2 RAE28 SLP131 P0000 T01940178 402670189=
200905260410 SPECI KATL 260410Z 15007KT 10SM -RA FEW008 OVC050 20/18 A2993 RMK AO2 P0000=
200905260410 SPECI KATL 260410Z 15007KT 10SM -RA FEW008 OVC050 20/18 A2993 RMK AO2 P0000=
200905260352 METAR KATL 260352Z 14007KT 10SM -RA FEW018 SCT060 BKN120 OVC150 21/18 A2993 RMK AO2 TSE05RAB27 SLP129 TS DSIPTD P0001 T02060183=
200905260305 SPECI KATL 260305Z 14004KT 10SM FEW015 SCT120 BKN150 BKN200 21/19 A2993 RMK AO2 TSE05 TS DSIPTD=
200905260305 SPECI KATL 260305Z 14004KT 10SM FEW015 SCT120 BKN150 BKN200 21/19 A2993 RMK AO2 TSE05 TS DSIPTD=
200905260252 METAR KATL 260252Z 14005KT 10SM TS FEW015CB SCT050 BKN110 OVC200 21/19 A2993 RMK AO2 TSB48RAB32E48 SLP126 OCNL LTGIC NW TS NW MOV NW P0000 60000 T02110189 53014=
200905260249 SPECI KATL 260249Z 14007KT 10SM TS FEW015CB SCT050 BKN110 OVC200 21/19 A2993 RMK AO2 TSB48RAB32E48 OCNL LTGIC NW TS NW MOV NW P0000=
200905260249 SPECI KATL 260249Z 14007KT 10SM TS FEW015CB SCT050 BKN110 OVC200 21/19 A2993 RMK AO2 TSB48RAB32E48 OCNL LTGIC NW TS NW MOV NW P0000=
200905260152 METAR KATL 260152Z 11004KT 10SM FEW150 BKN200 BKN250 22/19 A2989 RMK AO2 SLP115 OCNL LTG DSNT SE T02170189=
200905260052 METAR KATL 260052Z 14005KT 10SM FEW150 BKN200 BKN250 23/19 A2989 RMK AO2 SLP115 T02330194=
200905252352 METAR KATL 252352Z 18005KT 10SM FEW040 SCT150 BKN200 23/19 A2989 RMK AO2 SLP113 CB DSNT NE T02330194 10267 20233 55004=
200905252252 METAR KATL 252252Z 18009KT 10SM FEW025CB SCT045 BKN200 24/20 A2988 RMK AO2 SLP110 CB NW AND DSNT NE-E MOV N SHRA NW T02440200=
200905252152 METAR KATL 252152Z 12008KT 10SM FEW025 SCT200 26/19 A2988 RMK AO2 SLP109 CB DSNT SE AND S-SW TCU DSNT NE T02610194=
200905252052 METAR KATL 252052Z 13007KT 9SM SCT023 BKN055 26/19 A2990 RMK AO2 SLP116 CB DSNT NE-E AND SE T02610189 56025=
200905251952 METAR KATL 251952Z 14008KT 7SM SCT018CB SCT024 BKN060 26/19 A2992 RMK AO2 SLP122 CB E-SE MOV NW T02610194=
200905251852 METAR KATL 251852Z 15009KT 8SM SCT018 SCT029 BKN050 24/19 A2994 RMK AO2 SLP133 CB DSNT N AND SE AND NW T02440194=
200905251815 SPECI KATL 251815Z 15006KT 8SM SCT018 BKN037 BKN050 23/19 A2996 RMK AO2 CB DSNT SE-S AND NW $=
200905251815 SPECI KATL 251815Z 15006KT 8SM SCT018 BKN037 BKN050 23/19 A2996 RMK AO2 CB DSNT SE-S AND NW $=
200905251752 METAR KATL 251752Z 13006KT 8SM SCT012 BKN026 BKN034 23/20 A2997 RMK AO2 SLP143 CB DSNT W-NW 60000 T02280200 10233 20194 56010=
200905251746 SPECI KATL 251746Z 14006KT 8SM SCT012 BKN026 BKN034 23/20 A2998 RMK AO2 CB DSNT W-NW=
200905251746 SPECI KATL 251746Z 14006KT 8SM SCT012 BKN026 BKN034 23/20 A2998 RMK AO2 CB DSNT W-NW=
200905251725 SPECI KATL 251725Z 13003KT 7SM SCT009 BKN013 BKN020 23/20 A2998 RMK AO2 CB DSNT W=
200905251725 SPECI KATL 251725Z 13003KT 7SM SCT009 BKN013 BKN020 23/20 A2998 RMK AO2 CB DSNT W=
200905251652 METAR KATL 251652Z 10008KT 7SM OVC009 22/19 A2999 RMK AO2 SLP149 T02170194=
200905251552 METAR KATL 251552Z 15006KT 5SM BR OVC005 21/19 A3000 RMK AO2 RAB11E38 SLP154 CB DSNT NW SHRA NW P0000 T02110194=
200905251530 SPECI KATL 251530Z 15006KT 4SM -RA BR OVC005CB 21/19 A3000 RMK AO2 RAB11 CB N AND NW MOV N P0000=
200905251530 SPECI KATL 251530Z 15006KT 4SM -RA BR OVC005CB 21/19 A3000 RMK AO2 RAB11 CB N AND NW MOV N P0000=
200905251516 SPECI KATL 251516Z 14006KT 2SM -RA BR OVC005CB 21/19 A3000 RMK AO2 RAB11 CB OHD-S AND NW MOV N P0000=
200905251516 SPECI KATL 251516Z 14006KT 2SM -RA BR OVC005CB 21/19 A3000 RMK AO2 RAB11 CB OHD-S AND NW MOV N P0000=
200905251504 SPECI KATL 251504Z 15006KT 7SM OVC005CB 21/19 A3000 RMK AO2 CB S AND W MOV N=
200905251504 SPECI KATL 251504Z 15006KT 7SM OVC005CB 21/19 A3000 RMK AO2 CB S AND W MOV N=
200905251452 METAR KATL 251452Z 15005KT 7SM OVC005CB 21/19 A3000 RMK AO2 SLP153 CB NE AND W MOV N T02060194 51004=
200905251440 SPECI KATL 251440Z 13006KT 7SM OVC005CB 21/19 A3000 RMK AO2 CB E AND SW=
200905251440 SPECI KATL 251440Z 13006KT 7SM OVC005CB 21/19 A3000 RMK AO2 CB E AND SW=
200905251352 METAR KATL 251352Z 16005KT 7SM OVC005 21/19 A3000 RMK AO2 SLP153 T02060189=
200905251252 METAR KATL 251252Z 11005KT 6SM BR OVC005 19/18 A3000 RMK AO2 SLP151 T01940183=
200905251211 SPECI KATL 251211Z 11003KT 6SM BR OVC005 19/19 A2999 RMK AO2 CIG 003V008=
200905251211 SPECI KATL 251211Z 11003KT 6SM BR OVC005 19/19 A2999 RMK AO2 CIG 003V008=
200905251152 METAR KATL 251152Z 11004KT 6SM BR OVC003 19/19 A2999 RMK AO2 CIG 002V006 SLP150 70008 T01940189 10194 20189 51007=
200905251131 SPECI KATL 251131Z 12003KT 4SM BR OVC003 19/18 A2999 RMK AO2 CIG 002V008=
200905251131 SPECI KATL 251131Z 12003KT 4SM BR OVC003 19/18 A2999 RMK AO2 CIG 002V008=
200905251052 METAR KATL 251052Z 12005KT 6SM BR OVC005 19/18 A2999 RMK AO2 SLP148 T01890183=
200905250952 METAR KATL 250952Z 15003KT 6SM BR BKN005 OVC008 19/18 A2997 RMK AO2 SLP143 T01890183=
200905250852 METAR KATL 250852Z 15005KT 6SM BR BKN007 OVC010 19/18 A2997 RMK AO2 SLP140 T01890183 55005=
200905250752 METAR KATL 250752Z 13005KT 6SM BR BKN007 OVC010 19/18 A2996 RMK AO2 SLP137 T01890183=
200905250652 METAR KATL 250652Z 13005KT 6SM BR BKN005 OVC009 19/18 A2998 RMK AO2 SLP142 T01890183=
200905250645 SPECI KATL 250645Z 13003KT 6SM BR BKN005 OVC009 19/18 A2998 RMK AO2=
200905250645 SPECI KATL 250645Z 13003KT 6SM BR BKN005 OVC009 19/18 A2998 RMK AO2=
200905250552 METAR KATL 250552Z 11006KT 6SM BR OVC003 19/18 A2998 RMK AO2 SLP146 60002 T01890183 10206 20189 57006=
200905250452 METAR KATL 250452Z 13003KT 6SM BR BKN005 OVC120 19/18 A2999 RMK AO2 SLP148 T01890178 402610189=
200905250441 SPECI KATL 250441Z 13004KT 6SM BR BKN005 BKN120 19/18 A2999 RMK AO2=
200905250441 SPECI KATL 250441Z 13004KT 6SM BR BKN005 BKN120 19/18 A2999 RMK AO2=
200905250352 METAR KATL 250352Z 11004KT 10SM FEW005 SCT120 BKN150 OVC250 19/18 A3000 RMK AO2 SLP152 T01890178=
200905250252 METAR KATL 250252Z 12005KT 10SM FEW004 SCT110 BKN150 19/18 A3000 RMK AO2 SLP153 60002 T01940183 52019=
200905250205 SPECI KATL 250205Z 13007KT 7SM FEW005 SCT095 BKN110 19/19 A3000 RMK AO2=
200905250205 SPECI KATL 250205Z 13007KT 7SM FEW005 SCT095 BKN110 19/19 A3000 RMK AO2=
200905250157 SPECI KATL 250157Z 13006KT 7SM BKN005 BKN110 19/19 A2999 RMK AO2=
200905250157 SPECI KATL 250157Z 13006KT 7SM BKN005 BKN110 19/19 A2999 RMK AO2=
200905250152 METAR KATL 250152Z 13006KT 7SM SCT005 OVC110 19/19 A2999 RMK AO2 RAB23E39 SLP150 P0000 T01940189=
200905250150 SPECI KATL 250150Z 14006KT 7SM SCT005 OVC120 19/19 A2999 RMK AO2 RAB23E39 P0000=
200905250150 SPECI KATL 250150Z 14006KT 7SM SCT005 OVC120 19/19 A2999 RMK AO2 RAB23E39 P0000=
200905250103 SPECI KATL 250103Z 15006KT 8SM SCT014 BKN120 BKN250 20/19 A2996 RMK AO2=
200905250103 SPECI KATL 250103Z 15006KT 8SM SCT014 BKN120 BKN250 20/19 A2996 RMK AO2=
200905250052 METAR KATL 250052Z 15007KT 7SM FEW005 BKN014 BKN120 BKN250 20/19 A2996 RMK AO2 RAE51 SLP138 P0002 T02000189=
200905250036 SPECI KATL 250036Z 15007KT 6SM -RA BR FEW005 BKN014 OVC100 20/19 A2996 RMK AO2 P0002=
200905250036 SPECI KATL 250036Z 15007KT 6SM -RA BR FEW005 BKN014 OVC100 20/19 A2996 RMK AO2 P0002=
200905250014 SPECI KATL 250014Z 15005KT 6SM -RA BR FEW009 BKN015 OVC100 21/19 A2995 RMK AO2 P0000=
200905250014 SPECI KATL 250014Z 15005KT 6SM -RA BR FEW009 BKN015 OVC100 21/19 A2995 RMK AO2 P0000=
200905242352 METAR KATL 242352Z 12005KT 8SM -RA FEW008 SCT020 BKN100 BKN250 21/19 A2995 RMK AO2 TSE48RAB25 SLP134 TS MOV NW P0001 60006 T02060189 10261 20206 53003=
200905242349 SPECI KATL 242349Z 11006KT 8SM -RA FEW009 SCT020 BKN100 BKN250 21/18 A2995 RMK AO2 TSE48RAB25 TS MOV NW P0000=
200905242349 SPECI KATL 242349Z 11006KT 8SM -RA FEW009 SCT020 BKN100 BKN250 21/18 A2995 RMK AO2 TSE48RAB25 TS MOV NW P0000=
200905242314 SPECI KATL 242314Z 13009G16KT 8SM TS SCT020CB SCT038 SCT110 BKN150 OVC250 22/18 A2994 RMK AO2 FRQ LTGICCACG N-NE TS N-NE MOV N SHRA N-NE=
200905242314 SPECI KATL 242314Z 13009G16KT 8SM TS SCT020CB SCT038 SCT110 BKN150 OVC250 22/18 A2994 RMK AO2 FRQ LTGICCACG N-NE TS N-NE MOV N SHRA N-NE=
200905242252 METAR KATL 242252Z 10007KT 8SM TS SCT024CB SCT038 BKN065 BKN150 BKN250 23/20 A2992 RMK AO2 TSE06B17RAE08B36E51 SLP125 OCNL LTGICCG E TS E MOV N CB DSNT NE-E & NW P0003 T02330200=
200905242217 SPECI KATL 242217Z 11007KT 10SM TS SCT024CB SCT050 BKN250 24/21 A2993 RMK AO2 TSE06B17RAE08 OCNL LTGIC SW & NW TS SW & NW MOV N CB DSNT SW P0003=
200905242217 SPECI KATL 242217Z 11007KT 10SM TS SCT024CB SCT050 BKN250 24/21 A2993 RMK AO2 TSE06B17RAE08 OCNL LTGIC SW & NW TS SW & NW MOV N CB DSNT SW P0003=
200905242207 SPECI KATL 242207Z 10009KT 8SM -RA FEW004 SCT039 SCT050 BKN250 24/21 A2993 RMK AO2 TSE06 TS DSIPT CB NE MOV N CB DSNT SW VIS NE 2 P0003=
200905242207 SPECI KATL 242207Z 10009KT 8SM -RA FEW004 SCT039 SCT050 BKN250 24/21 A2993 RMK AO2 TSE06 TS DSIPT CB NE MOV N CB DSNT SW VIS NE 2 P0003=
200905242152 METAR KATL 242152Z COR 09011KT 5SM -TSRA SCT022CB BKN037 BKN090 BKN150 BKN250 23/21 A2993 RMK AO2 TSB34RAB02E12B45 SLP128 OCNL LTGIC OHD-NW TS OHD-NW MOV N P0002 T02330206=
200905242135 SPECI KATL 242135Z 09010KT 10SM TS SCT022CB SCT090 SCT150 BKN250 26/19 A2992 RMK AO2 TSB34RAB02E12 OCNL LTGIC NW TS NW MOV N TCU OHD-SE P0000=
200905242135 SPECI KATL 242135Z 09010KT 10SM TS SCT022CB SCT090 SCT150 BKN250 26/19 A2992 RMK AO2 TSB34RAB02E12 OCNL LTGIC NW TS NW MOV N TCU OHD-SE P0000=
200905242052 METAR KATL 242052Z 15008KT 8SM SCT022CB SCT039 BKN150 25/20 A2993 RMK AO2 TSE22RAE1957B14E27 SLP128 CB OHD AND N-SE AND NW-N MOV N P0000 60000 T02500200 58020=
200905242035 SPECI KATL 242035Z 16007KT 8SM SCT022CB BKN039 BKN150 26/20 A2994 RMK AO2 TSE22RAE1957B14E27 CB N-E AND NW-N MOV N P0000=
200905242035 SPECI KATL 242035Z 16007KT 8SM SCT022CB BKN039 BKN150 26/20 A2994 RMK AO2 TSE22RAE1957B14E27 CB N-E AND NW-N MOV N P0000=
200905242022 SPECI KATL 242022Z 13007KT 8SM -RA BKN022CB BKN029 BKN039 24/21 A2995 RMK AO2 TSE22RAE1957B14 CB OHD-NW-N MOV N P0000=
200905242022 SPECI KATL 242022Z 13007KT 8SM -RA BKN022CB BKN029 BKN039 24/21 A2995 RMK AO2 TSE22RAE1957B14 CB OHD-NW-N MOV N P0000=
200905241952 METAR KATL 241952Z VRB05KT 8SM -TSRA BKN023CB BKN030 BKN041 26/21 A2996 RMK AO2 TSB51RAB40 SLP136 OCNL LTGIC OHD-N TS OHD-N MOV N SHRA N-NE AND NW-N P0000 T02560211=
200905241944 SPECI KATL 241944Z 11005KT 8SM -RA BKN023TCU BKN030 BKN041 24/21 A2996 RMK AO2 RAB40 TCU OHD-N AND E AND W VIS 1 N-NE AND NW-N SHRA CB DSNT E-SE P0000=
200905241944 SPECI KATL 241944Z 11005KT 8SM -RA BKN023TCU BKN030 BKN041 24/21 A2996 RMK AO2 RAB40 TCU OHD-N AND E AND W VIS 1 N-NE AND NW-N SHRA CB DSNT E-SE P0000=
200905241914 SPECI KATL 241914Z 15008G14KT 10SM SCT023TCU BKN036 BKN044 26/20 A2997 RMK AO2 TCU OHD-N AND E AND W CB DSNT SE=
200905241914 SPECI KATL 241914Z 15008G14KT 10SM SCT023TCU BKN036 BKN044 26/20 A2997 RMK AO2 TCU OHD-N AND E AND W CB DSNT SE=
200905241852 METAR KATL 241852Z 15009KT 10SM BKN021 BKN028 BKN034 26/20 A2998 RMK AO2 SLP143 CB DSNT NE AND SE T02560200=
200905241835 SPECI KATL 241835Z 15010KT 10SM BKN019 BKN150 24/19 A2998 RMK AO2 BKN019V SCT CB DSNT NE-E=
200905241835 SPECI KATL 241835Z 15010KT 10SM BKN019 BKN150 24/19 A2998 RMK AO2 BKN019V SCT CB DSNT NE-E=
200905241801 SPECI KATL 241801Z 13007KT 10SM SCT012 SCT019 BKN150 23/19 A2999 RMK AO2 SCT019V BKN CB DSNT NE-SE=
200905241801 SPECI KATL 241801Z 13007KT 10SM SCT012 SCT019 BKN150 23/19 A2999 RMK AO2 SCT019V BKN CB DSNT NE-SE=
200905241752 METAR KATL 241752Z 13006KT 10SM BKN012 BKN019 BKN150 23/19 A3000 RMK AO2 SLP150 CB DSNT NE-SE T02280194 10228 20194 58013=
200905241652 METAR KATL 241652Z 14007KT 8SM OVC012 22/19 A3003 RMK AO2 SLP161 T02170194=
200905241552 METAR KATL 241552Z 15008KT 7SM OVC010 21/19 A3003 RMK AO2 SLP163 T02110194=
200905241508 SPECI KATL 241508Z 14006KT 7SM OVC012 21/19 A3004 RMK AO2=
200905241508 SPECI KATL 241508Z 14006KT 7SM OVC012 21/19 A3004 RMK AO2=
200905241452 METAR KATL 241452Z 14006KT 7SM OVC007 21/19 A3003 RMK AO2 SLP164 T02110189 51005=
200905241352 METAR KATL 241352Z 13007KT 7SM BKN007 OVC013 21/19 A3003 RMK AO2 CIG 005V010 SLP163 T02060189=
200905241252 METAR KATL 241252Z 13006KT 6SM BR BKN007 OVC010 20/19 A3003 RMK AO2 SLP162 T02000189=
200905241152 METAR KATL 241152Z 13007KT 6SM BR OVC007 19/19 A3002 RMK AO2 CIG 004V011 SLP159 60003 70033 T01940189 10200 20189 53007=
200905241052 METAR KATL 241052Z 13009KT 6SM BR BKN005 OVC010 19/19 A3001 RMK AO2 SLP155 T01940189=
200905240952 METAR KATL 240952Z 12006KT 6SM BR BKN007 OVC010 19/19 A3000 RMK AO2 SLP151 T01940189=
200905240852 METAR KATL 240852Z 13006KT 6SM BR BKN007 OVC013 20/19 A3000 RMK AO2 RAE06 CIG 004V010 SLP151 P0000 60003 T02000189 56007=
200905240752 METAR KATL 240752Z 11008KT 6SM -RA BR BKN007 OVC012 20/19 A3000 RMK AO2 SLP151 P0002 T02000189=
200905240652 METAR KATL 240652Z 12007KT 6SM -RA BR BKN005 OVC008 20/19 A3001 RMK AO2 SLP155 P0001 T02000194=
200905240552 METAR KATL 240552Z 10009KT 6SM -RA BR OVC005 20/19 A3002 RMK AO2 RAE0459B19 CIG 004V008 SLP158 P0000 60015 T02000194 10206 20200 58002=
200905240452 METAR KATL 240452Z 11008KT 7SM -RA OVC005 20/19 A3003 RMK AO2 DZB33E45RAB50 SLP161 P0000 T02000194 402560183=
200905240352 METAR KATL 240352Z 11010KT 7SM OVC005 20/19 A3003 RMK AO2 CIG 004V009 SLP162 T02000194=
200905240252 METAR KATL 240252Z 10009KT 7SM OVC005 20/19 A3003 RMK AO2 RAB0158E17 CIG 004V009 SLP162 P0000 60015 T02000189 53003=
200905240232 SPECI KATL 240232Z 10011KT 7SM BKN007 BKN013 OVC055 20/19 A3002 RMK AO2 RAB0158E17 P0000=
200905240232 SPECI KATL 240232Z 10011KT 7SM BKN007 BKN013 OVC055 20/19 A3002 RMK AO2 RAB0158E17 P0000=
200905240220 SPECI KATL 240220Z 10009KT 7SM SCT007 BKN013 OVC055 20/19 A3003 RMK AO2 RAB0158E17 P0000=
200905240220 SPECI KATL 240220Z 10009KT 7SM SCT007 BKN013 OVC055 20/19 A3003 RMK AO2 RAB0158E17 P0000=
200905240152 METAR KATL 240152Z 11007KT 5SM BR BKN004 OVC021 20/19 A3003 RMK AO2 RAE52 SLP161 P0005 T02000194=
200905240150 SPECI KATL 240150Z 11008KT 5SM -RA BR BKN004 OVC021 20/19 A3002 RMK AO2 P0005=
200905240150 SPECI KATL 240150Z 11008KT 5SM -RA BR BKN004 OVC021 20/19 A3002 RMK AO2 P0005=
200905240126 SPECI KATL 240126Z 10008KT 3SM -RA BR BKN007 OVC021 20/19 A3002 RMK AO2 P0004=
200905240126 SPECI KATL 240126Z 10008KT 3SM -RA BR BKN007 OVC021 20/19 A3002 RMK AO2 P0004=
200905240052 METAR KATL 240052Z 08010KT 4SM -RA BR FEW007 OVC025 20/19 A3002 RMK AO2 SLP158 P0010 T02000189 $=
200905240048 SPECI KATL 240048Z 08009KT 3SM RA BR FEW007 OVC025 20/19 A3002 RMK AO2 P0009 $=
200905240048 SPECI KATL 240048Z 08009KT 3SM RA BR FEW007 OVC025 20/19 A3002 RMK AO2 P0009 $=
200905240033 SPECI KATL 240033Z 11008KT 5SM -RA BR SCT005 BKN013 OVC070 20/19 A3002 RMK AO2 P0005 $=
200905240033 SPECI KATL 240033Z 11008KT 5SM -RA BR SCT005 BKN013 OVC070 20/19 A3002 RMK AO2 P0005 $=
200905240011 SPECI KATL 240011Z 11007G15KT 4SM -RA BR BKN008 OVC014 20/19 A3002 RMK AO2 P0002=
200905240011 SPECI KATL 240011Z 11007G15KT 4SM -RA BR BKN008 OVC014 20/19 A3002 RMK AO2 P0002=
200905232352 METAR KATL 232352Z 10008KT 10SM -RA BKN011 OVC022 21/19 A3002 RMK AO2 RAB46 SLP160 CB DSNT SW P0000 60008 T02060189 10256 20206 53003=
200905232305 SPECI KATL 232305Z 10009G20KT 10SM BKN013 OVC055 21/18 A3001 RMK AO2 CB DSNT SE-SW=
200905232305 SPECI KATL 232305Z 10009G20KT 10SM BKN013 OVC055 21/18 A3001 RMK AO2 CB DSNT SE-SW=
200905232252 METAR KATL 232252Z COR 09018G25KT 10SM SCT015 BKN050 BKN150 OVC250 22/18 A3001 RMK AO2 PK WND 08028/2209 SLP154 CB DSNT SE-SW T02170183=
200905232230 SPECI KATL 232230Z 11018KT 10SM SCT028 BKN048 BKN150 23/18 A3001 RMK AO2 PK WND 08028/2209=
200905232230 SPECI KATL 232230Z 11018KT 10SM SCT028 BKN048 BKN150 23/18 A3001 RMK AO2 PK WND 08028/2209=
200905232221 SPECI KATL 232221Z 08021G26KT 10SM BKN028 BKN110 OVC150 24/18 A3000 RMK AO2 PK WND 08028/2209=
200905232221 SPECI KATL 232221Z 08021G26KT 10SM BKN028 BKN110 OVC150 24/18 A3000 RMK AO2 PK WND 08028/2209=
200905232210 SPECI KATL 232210Z 08021G28KT 10SM SCT028 BKN100 BKN150 BKN250 24/18 A3000 RMK AO2 PK WND 08028/2209=
200905232210 SPECI KATL 232210Z 08021G28KT 10SM SCT028 BKN100 BKN150 BKN250 24/18 A3000 RMK AO2 PK WND 08028/2209=
200905232152 METAR KATL 232152Z 09014KT 10SM BKN025 BKN150 23/18 A3000 RMK AO2 SLP150 CB DSNT SE T02330183=
200905232141 SPECI KATL 232141Z 08018G23KT 10SM BKN023 BKN050 BKN150 23/19 A3000 RMK AO2=
200905232141 SPECI KATL 232141Z 08018G23KT 10SM BKN023 BKN050 BKN150 23/19 A3000 RMK AO2=
200905232052 METAR KATL 232052Z 08020KT 10SM FEW018 SCT027 SCT050 23/18 A3001 RMK AO2 RAB37E47 SLP156 P0000 60008 T02330183 58012=
200905232044 SPECI KATL 232044Z 08018KT 10SM -RA FEW018 SCT027 BKN050 24/19 A3002 RMK AO2 RAB37 P0000=
200905232044 SPECI KATL 232044Z 08018KT 10SM -RA FEW018 SCT027 BKN050 24/19 A3002 RMK AO2 RAB37 P0000=
200905231952 METAR KATL 231952Z 09015KT 10SM SCT015 BKN024 BKN150 22/19 A3003 RMK AO2 RAE1854B16E49 SLP164 SCT015V BKN P0000 T02220194=
200905231919 SPECI KATL 231919Z 10015KT 8SM -RA SCT013 BKN018CB BKN047 22/19 A3004 RMK AO2 RAE1854B16 CB W-N MOV NW P0000=
200905231919 SPECI KATL 231919Z 10015KT 8SM -RA SCT013 BKN018CB BKN047 22/19 A3004 RMK AO2 RAE1854B16 CB W-N MOV NW P0000=
200905231905 SPECI KATL 231905Z 09016KT 8SM FEW013 BKN036CB BKN047 22/20 A3004 RMK AO2 RAE1854 CB W-N MOV NW SHRA W-N P0000=
200905231905 SPECI KATL 231905Z 09016KT 8SM FEW013 BKN036CB BKN047 22/20 A3004 RMK AO2 RAE1854 CB W-N MOV NW SHRA W-N P0000=
200905231852 METAR KATL 231852Z 09012G20KT 7SM -RA FEW013 BKN026CB OVC036 22/21 A3004 RMK AO2 RAB25 SLP167 CB N-NE AND W-N MOV NW VIS 2 N-NE AND=
200905231846 SPECI KATL 231846Z 09015G20KT 4SM -RA BR FEW013 BKN026CB OVC036 21/19 A3005 RMK AO2 RAB25 CB NE-OHD-SE MOV NW VIS 2 N-NE P0008 $=
200905231846 METAR KATL 231846Z COR 09015G20KT 4SM -RA BR FEW013 BKN026CB OVC036 21/19 A3005 RMK AO2 RAB25 CB NE-OVHD-SW MOV NW VIS 2 N-NE P0008 $=
200905231833 SPECI KATL 231833Z 11012G25KT 2 1/2SM R09R/4000VP6000FT +RA BR BKN025CB BKN032 OVC044 21/19 A3005 RMK AO2 TWR VIS 3 RAB25 CB OHD-ALQDS MOV NW P0004=
200905231833 SPECI KATL 231833Z 11012G25KT 2 1/2SM R09R/4000VP6000FT +RA BR BKN025CB BKN032 OVC044 21/19 A3005 RMK AO2 TWR VIS 3 RAB25 CB OHD-ALQDS MOV NW P0004=
200905231828 SPECI KATL 231828Z 11018G25KT 5SM R09R/4500VP6000FT -RA SCT025CB BKN032 BKN044 22/18 A3005 RMK AO2 RAB25 CB OHD-ALQDS MOV NW P0000=
200905231828 SPECI KATL 231828Z 11018G25KT 5SM R09R/4500VP6000FT -RA SCT025CB BKN032 BKN044 22/18 A3005 RMK AO2 RAB25 CB OHD-ALQDS MOV NW P0000=
200905231814 SPECI KATL 231814Z 09013KT 10SM SCT023CB BKN029 BKN042 24/18 A3004 RMK AO2 CB E-S MOV NW SHRA E-S=
200905231814 SPECI KATL 231814Z 09013KT 10SM SCT023CB BKN029 BKN042 24/18 A3004 RMK AO2 CB E-S MOV NW SHRA E-S=
200905231752 METAR KATL 231752Z 09010G17KT 10SM SCT022 BKN027 BKN036 24/19 A3005 RMK AO2 SLP167 CB DSNT E-SE SHRA DSNT E AND SE 60007 T02440189 10244 20189 58015=
200905231735 SPECI KATL 231735Z 09013KT 10SM SCT022 BKN036 OVC050 24/19 A3006 RMK AO2 CB DSNT SE=
200905231735 SPECI KATL 231735Z 09013KT 10SM SCT022 BKN036 OVC050 24/19 A3006 RMK AO2 CB DSNT SE=
200905231652 METAR KATL 231652Z 09013KT 9SM BKN021 BKN032 BKN042 23/19 A3007 RMK AO2 SLP175 T02280189=
200905231552 METAR KATL 231552Z 09015G19KT 8SM SCT012 BKN021 OVC031 22/19 A3009 RMK AO2 RAE1457B17E44 SLP182 SCT012V BKN P0006 T02170194=
200905231452 METAR KATL 231452Z 09011KT 6SM -RA BR BKN010 OVC016 20/19 A3009 RMK AO2 RAB17 SLP184 P0001 60001 T02000189 51005=
200905231352 METAR KATL 231352Z 08012G17KT 9SM BKN010 BKN017 OVC024 20/18 A3009 RMK AO2 SLP183 BKN010V SCT T02000183=
200905231341 SPECI KATL 231341Z 09011KT 9SM SCT010 BKN017 OVC033 19/18 A3009 RMK AO2=
200905231341 SPECI KATL 231341Z 09011KT 9SM SCT010 BKN017 OVC033 19/18 A3009 RMK AO2=
200905231317 SPECI KATL 231317Z 09011KT 9SM SCT008 SCT012 OVC035 19/18 A3009 RMK AO2 SCT012V BKN=
200905231317 SPECI KATL 231317Z 09011KT 9SM SCT008 SCT012 OVC035 19/18 A3009 RMK AO2 SCT012V BKN=
200905231252 METAR KATL 231252Z 08013KT 9SM SCT008 BKN012 OVC037 19/18 A3009 RMK AO2 SLP182 T01940183=
200905231241 SPECI KATL 231241Z 09011KT 9SM SCT008 OVC012 19/18 A3009 RMK AO2=
200905231241 SPECI KATL 231241Z 09011KT 9SM SCT008 OVC012 19/18 A3009 RMK AO2=
200905231154 SPECI KATL 231154Z 08011KT 10SM BKN008 OVC040 19/18 A3008 RMK AO2=
200905231154 SPECI KATL 231154Z 08011KT 10SM BKN008 OVC040 19/18 A3008 RMK AO2=
200905231152 METAR KATL 231152Z 08010KT 10SM SCT008 BKN014 OVC040 19/18 A3008 RMK AO2 RAB1057E37 SLP179 P0001 60001 70011 T01890178 10200 20183 53005=
200905231138 SPECI KATL 231138Z 08009KT 10SM FEW007 BKN014 OVC040 19/18 A3008 RMK AO2 RAB1057E37 P0001=
200905231138 SPECI KATL 231138Z 08009KT 10SM FEW007 BKN014 OVC040 19/18 A3008 RMK AO2 RAB1057E37 P0001=
200905231052 METAR KATL 231052Z 08010KT 10SM BKN010 OVC060 19/18 A3007 RMK AO2 RAB18E47 SLP177 P0000 T01890178=
200905230952 METAR KATL 230952Z COR 09010KT 10SM BKN011 BKN075 OVC200 19/18 A3006 RMK AO2 SLP174 T01890178=
200905230852 METAR KATL 230852Z 09009KT 10SM BKN011 BKN120 OVC200 19/18 A3006 RMK AO2 SLP173 T01890178 56006=
200905230846 SPECI KATL 230846Z 09009KT 10SM BKN011 BKN120 OVC200 19/18 A3006 RMK AO2=
200905230846 SPECI KATL 230846Z 09009KT 10SM BKN011 BKN120 OVC200 19/18 A3006 RMK AO2=
200905230752 METAR KATL 230752Z 09010KT 10SM FEW011 SCT065 BKN120 OVC200 19/18 A3007 RMK AO2 SLP176 T01890178=
200905230652 METAR KATL 230652Z 10011KT 10SM SCT065 BKN120 OVC200 19/18 A3008 RMK AO2 SLP180 T01940178=
200905230552 METAR KATL 230552Z 10009KT 10SM BKN060 BKN110 OVC200 20/18 A3009 RMK AO2 SLP183 60000 T02000178 10206 20194 58001=
200905230452 METAR KATL 230452Z 09006KT 10SM FEW050 BKN140 OVC200 19/18 A3010 RMK AO2 RAB0354E06 SLP184 P0000 T01940183 402330178=
200905230408 SPECI KATL 230408Z 11006KT 10SM FEW008 SCT028 BKN050 OVC150 19/19 A3010 RMK AO2 RAB0354E06 P0000=
200905230408 SPECI KATL 230408Z 11006KT 10SM FEW008 SCT028 BKN050 OVC150 19/19 A3010 RMK AO2 RAB0354E06 P0000=
200905230352 METAR KATL 230352Z 13005KT 10SM FEW008 BKN028 BKN040 OVC150 19/18 A3010 RMK AO2 RAB0256E07 SLP185 P0000 T01940183=
200905230339 SPECI KATL 230339Z 14006KT 10SM SCT008 BKN030 BKN070 OVC150 19/18 A3010 RMK AO2 RAB0256E07 P0000=
200905230339 SPECI KATL 230339Z 14006KT 10SM SCT008 BKN030 BKN070 OVC150 19/18 A3010 RMK AO2 RAB0256E07 P0000=
200905230252 METAR KATL 230252Z 09007KT 10SM SCT035 BKN060 BKN120 OVC150 20/18 A3009 RMK AO2 SLP184 T02000183 53003=
200905230152 METAR KATL 230152Z 07008KT 10SM BKN050 BKN150 OVC200 20/18 A3009 RMK AO2 SLP182 T02000183=
200905230052 METAR KATL 230052Z 07007KT 10SM FEW100 BKN140 OVC200 20/19 A3008 RMK AO2 SLP180 T02000189=
200905222352 METAR KATL 222352Z 08006KT 10SM FEW020 SCT065 BKN110 OVC150 19/18 A3008 RMK AO2 RAB2255E47 SLP182 P0003 60005 T01940178 10228 20194 56008=
200905222252 METAR KATL 222252Z 08010KT 10SM FEW015 BKN085 OVC150 22/19 A3009 RMK AO2 RAE21 SLP183 P0000 T02170189=
200905222152 METAR KATL 222152Z 09010KT 10SM -RA FEW022 SCT060 BKN140 OVC200 22/19 A3010 RMK AO2 RAB2053 SLP186 P0002 T02170189=
200905222052 METAR KATL 222052Z 08012KT 10SM SCT020 BKN065 BKN085 22/17 A3011 RMK AO2 SLP190 CB DSNT SE-SW 60000 T02220172 56012=
200905221952 METAR KATL 221952Z 07012KT 10SM SCT019 OVC065 22/18 A3011 RMK AO2 RAB25E34 SLP191 CB DSNT SE-S P0000 T02220178=
200905221852 METAR KATL 221852Z 09010KT 10SM SCT016 OVC065 22/18 A3013 RMK AO2 RAB08E46 SLP198 P0000 T02170183=
200905221752 METAR KATL 221752Z 10010KT 10SM SCT020 SCT036 OVC043 21/17 A3015 RMK AO2 PK WND 10026/1718 RAB04E16 SLP202 P0000 60005 T02110172 10233 20183 56005=
200905221737 SPECI KATL 221737Z 07015KT 10SM SCT020 BKN036 OVC043 21/17 A3015 RMK AO2 PK WND 10026/1718 RAB04E16 P0000=
200905221737 SPECI KATL 221737Z 07015KT 10SM SCT020 BKN036 OVC043 21/17 A3015 RMK AO2 PK WND 10026/1718 RAB04E16 P0000=
200905221705 SPECI KATL 221705Z 12014KT 10SM -RA BKN026 BKN031 OVC050 22/17 A3015 RMK AO2 RAB04 BKN026V SCT P0000=
200905221705 SPECI KATL 221705Z 12014KT 10SM -RA BKN026 BKN031 OVC050 22/17 A3015 RMK AO2 RAB04 BKN026V SCT P0000=
200905221652 METAR KATL 221652Z 11011G17KT 10SM SCT026 BKN045 OVC050 23/17 A3015 RMK AO2 SLP202 T02280167=
200905221552 METAR KATL 221552Z 09015G20KT 10SM SCT024 SCT031 BKN050 22/17 A3015 RMK AO2 SLP205 T02220167=
200905221503 SPECI KATL 221503Z 09011KT 10SM SCT014 SCT023 BKN049 22/18 A3016 RMK AO2 SCT023V BKN=
200905221503 SPECI KATL 221503Z 09011KT 10SM SCT014 SCT023 BKN049 22/18 A3016 RMK AO2 SCT023V BKN=
200905221452 METAR KATL 221452Z 09013KT 10SM SCT014 BKN023 BKN047 21/18 A3016 RMK AO2 SLP208 60005 T02110183 51005=
200905221441 SPECI KATL 221441Z 09013G17KT 10SM SCT011 BKN018 BKN047 20/18 A3016 RMK AO2 SCT011V BKN=
200905221441 SPECI KATL 221441Z 09013G17KT 10SM SCT011 BKN018 BKN047 20/18 A3016 RMK AO2 SCT011V BKN=
200905221352 METAR KATL 221352Z 08012KT 9SM SCT006 BKN010 OVC039 19/18 A3016 RMK AO2 RAE12 SLP208 SCT006V BKN P0000 T01940178=
200905221306 SPECI KATL 221306Z 07012KT 3SM -RA BR BKN006 BKN012 OVC033 18/18 A3016 RMK AO2 SFC VIS 4 P0000=
200905221306 SPECI KATL 221306Z 07012KT 3SM -RA BR BKN006 BKN012 OVC033 18/18 A3016 RMK AO2 SFC VIS 4 P0000=
200905221252 METAR KATL 221252Z 08010KT 2SM -RA BR BKN006 OVC012 18/18 A3016 RMK AO2 SLP208 P0005 T01830178=
200905221152 METAR KATL 221152Z 07012KT 2SM R09R/6000VP6000FT -RA BR BKN006 BKN012 OVC028 18/17 A3015 RMK AO2 SLP203 VIS 1 1/2V2 1/2 P0003 60005 70006 T01830172 10189 20178 53009=
200905221144 SPECI KATL 221144Z 08014KT 2 1/2SM -RA BR BKN006 OVC012 18/17 A3015 RMK AO2 P0003=
200905221144 SPECI KATL 221144Z 08014KT 2 1/2SM -RA BR BKN006 OVC012 18/17 A3015 RMK AO2 P0003=
200905221127 SPECI KATL 221127Z 08011KT 1 3/4SM -RA BR BKN006 OVC011 18/17 A3014 RMK AO2 P0002=
200905221127 SPECI KATL 221127Z 08011KT 1 3/4SM -RA BR BKN006 OVC011 18/17 A3014 RMK AO2 P0002=
200905221058 SPECI KATL 221058Z 08011KT 2SM -RA BR BKN007 OVC012 18/17 A3014 RMK AO2 P0000=
200905221058 SPECI KATL 221058Z 08011KT 2SM -RA BR BKN007 OVC012 18/17 A3014 RMK AO2 P0000=
200905221052 METAR KATL 221052Z 08011KT 3SM -RA BR BKN007 OVC012 18/17 A3014 RMK AO2 SLP200 P0001 T01780172=
200905221022 SPECI KATL 221022Z 08011KT 3SM -RA BR BKN007 OVC012 18/17 A3013 RMK AO2 P0000=
200905221022 SPECI KATL 221022Z 08011KT 3SM -RA BR BKN007 OVC012 18/17 A3013 RMK AO2 P0000=
200905220952 METAR KATL 220952Z 07012KT 3SM -RA BR SCT007 BKN012 OVC020 18/17 A3012 RMK AO2 RAE0857B24 SLP195 P0001 T01780172=
200905220946 SPECI KATL 220946Z 08015KT 3SM -RA BR FEW007 BKN012 OVC020 18/17 A3012 RMK AO2 RAE0857B24 P0001=
200905220946 SPECI KATL 220946Z 08015KT 3SM -RA BR FEW007 BKN012 OVC020 18/17 A3012 RMK AO2 RAE0857B24 P0001=
200905220859 SPECI KATL 220859Z 08013KT 10SM BKN013 BKN022 OVC030 18/17 A3012 RMK AO2 RAE57 P0000=
200905220859 SPECI KATL 220859Z 08013KT 10SM BKN013 BKN022 OVC030 18/17 A3012 RMK AO2 RAE57 P0000=
200905220852 METAR KATL 220852Z 08013KT 5SM -RA BR SCT020 BKN027 OVC039 18/17 A3012 RMK AO2 RAB19 SLP194 P0000 60000 T01830167 58007=
200905220806 SPECI KATL 220806Z 08012KT 10SM SCT020 BKN027 OVC039 19/17 A3012 RMK AO2=
200905220806 SPECI KATL 220806Z 08012KT 10SM SCT020 BKN027 OVC039 19/17 A3012 RMK AO2=
200905220752 METAR KATL 220752Z 09013KT 10SM SCT020 BKN039 OVC050 18/17 A3012 RMK AO2 SLP195 T01830167=
200905220743 SPECI KATL 220743Z 09014KT 10SM SCT018 OVC050 18/17 A3013 RMK AO2=
200905220743 SPECI KATL 220743Z 09014KT 10SM SCT018 OVC050 18/17 A3013 RMK AO2=
200905220652 METAR KATL 220652Z 09012KT 10SM BKN018 OVC050 19/17 A3014 RMK AO2 SLP200 T01890167=
200905220559 SPECI KATL 220559Z 09011KT 10SM BKN020 OVC055 19/17 A3014 RMK AO2=
200905220559 SPECI KATL 220559Z 09011KT 10SM BKN020 OVC055 19/17 A3014 RMK AO2=
200905220552 METAR KATL 220552Z 09010KT 10SM BKN030 BKN055 OVC200 19/17 A3014 RMK AO2 SLP201 60000 T01890167 10206 20189 58008=
200905220452 METAR KATL 220452Z 09011KT 10SM SCT030 BKN055 OVC200 19/17 A3015 RMK AO2 SLP204 T01890172 402220172=
200905220352 METAR KATL 220352Z 08010KT 10SM BKN050 BKN070 OVC200 19/17 A3016 RMK AO2 SLP209 T01890172=
200905220252 METAR KATL 220252Z 09008KT 10SM BKN032 OVC080 19/17 A3017 RMK AO2 RAE07 SLP210 P0000 60000 T01890172 53009=
200905220152 METAR KATL 220152Z 08015G20KT 8SM -RA SCT022 BKN034 OVC045 19/17 A3015 RMK AO2 PK WND 08027/0059 SLP206 P0000 T01890172=
200905220147 SPECI KATL 220147Z 09014G20KT 5SM -RA BR BKN022 BKN032 OVC040 19/17 A3016 RMK AO2 PK WND 08027/0059 P0000=
200905220147 SPECI KATL 220147Z 09014G20KT 5SM -RA BR BKN022 BKN032 OVC040 19/17 A3016 RMK AO2 PK WND 08027/0059 P0000=
200905220118 SPECI KATL 220118Z 10012KT 10SM -RA SCT024 BKN030 OVC060 19/17 A3015 RMK AO2 PK WND 08027/0059 P0000=
200905220118 SPECI KATL 220118Z 10012KT 10SM -RA SCT024 BKN030 OVC060 19/17 A3015 RMK AO2 PK WND 08027/0059 P0000=
200905220104 SPECI KATL 220104Z 10016G27KT 7SM -RA BKN024 BKN032 OVC065 20/17 A3015 RMK AO2 PK WND 08027/0059 P0000=
200905220104 SPECI KATL 220104Z 10016G27KT 7SM -RA BKN024 BKN032 OVC065 20/17 A3015 RMK AO2 PK WND 08027/0059 P0000=
200905220052 METAR KATL 220052Z 08015G20KT 10SM -RA FEW024 BKN032 OVC065 21/17 A3015 RMK AO2 RAB47 SLP203 P0000 T02060167=
200905212352 METAR KATL 212352Z 08011KT 10SM FEW025 BKN037 OVC050 20/17 A3014 RMK AO2 RAB14E41 SLP200 P0000 60001 T02000172 10222 20189 55004=
200905212344 SPECI KATL 212344Z 08011KT 10SM SCT026 BKN035 OVC050 20/18 A3014 RMK AO2 RAB14E41 P0000=
200905212344 SPECI KATL 212344Z 08011KT 10SM SCT026 BKN035 OVC050 20/18 A3014 RMK AO2 RAB14E41 P0000=
200905212318 SPECI KATL 212318Z 08014KT 7SM -RA BKN026 BKN032 OVC040 21/17 A3014 RMK AO2 RAB14 P0000=
200905212318 SPECI KATL 212318Z 08014KT 7SM -RA BKN026 BKN032 OVC040 21/17 A3014 RMK AO2 RAB14 P0000=
200905212252 METAR KATL 212252Z 07015G21KT 10SM SCT026 BKN032 OVC040 22/16 A3013 RMK AO2 SLP197 T02170161=
200905212152 METAR KATL 212152Z 07017G24KT 10SM FEW027 BKN035 BKN050 OVC200 22/16 A3013 RMK AO2 SLP198 T02170161=
200905212148 SPECI KATL 212148Z 07017G24KT 10SM SCT027 BKN035 BKN050 OVC200 22/16 A3013 RMK AO2=
200905212148 SPECI KATL 212148Z 07017G24KT 10SM SCT027 BKN035 BKN050 OVC200 22/16 A3013 RMK AO2=
200905212126 SPECI KATL 212126Z 07018G22KT 10SM BKN025 BKN032 OVC065 22/16 A3015 RMK AO2=
200905212126 SPECI KATL 212126Z 07018G22KT 10SM BKN025 BKN032 OVC065 22/16 A3015 RMK AO2=
200905212052 METAR KATL 212052Z 08019G24KT 10SM FEW015 SCT024 BKN033 22/17 A3015 RMK AO2 RAE11 SLP203 P0000 60001 T02170167 56012=
200905212049 SPECI KATL 212049Z 07016KT 10SM FEW015 SCT024 BKN033 21/17 A3015 RMK AO2 RAE11 P0000=
200905212049 SPECI KATL 212049Z 07016KT 10SM FEW015 SCT024 BKN033 21/17 A3015 RMK AO2 RAE11 P0000=
200905211952 METAR KATL 211952Z 08013G21KT 9SM -RA FEW008 BKN028 OVC033 21/17 A3017 RMK AO2 RAB1855E04B31 SLP211 P0000 T02060172=
200905211852 METAR KATL 211852Z 06014KT 7SM FEW008 BKN015 OVC033 20/18 A3019 RMK AO2 RAE40 SLP216 P0001 T02000178=
200905211849 SPECI KATL 211849Z 07015KT 7SM FEW008 BKN015 OVC033 20/18 A3019 RMK AO2 RAE40 P0001=
200905211849 SPECI KATL 211849Z 07015KT 7SM FEW008 BKN015 OVC033 20/18 A3019 RMK AO2 RAE40 P0001=
200905211815 SPECI KATL 211815Z 08015KT 3SM -RA BR FEW015 SCT020 OVC030 19/18 A3020 RMK AO2 SFC VIS 6 P0001=
200905211815 SPECI KATL 211815Z 08015KT 3SM -RA BR FEW015 SCT020 OVC030 19/18 A3020 RMK AO2 SFC VIS 6 P0001=
200905211808 SPECI KATL 211808Z 08017G23KT 3SM -RA BR SCT020 BKN027 OVC034 19/17 A3020 RMK AO2 P0000=
200905211808 SPECI KATL 211808Z 08017G23KT 3SM -RA BR SCT020 BKN027 OVC034 19/17 A3020 RMK AO2 P0000=
200905211752 METAR KATL 211752Z 08016G24KT 3SM -RA BKN020 OVC027 19/17 A3020 RMK AO2 SFC VIS 5 RAB27 SLP221 VIS LWR NE-E-SE-S SHRA P0000 60000 T01940167 10211 20178 58009=
200905211744 SPECI KATL 211744Z 07020G24KT 3SM -RA BKN022 OVC028 21/16 A3020 RMK AO2 SFC VIS 5 RAB27 VIS LWR NE-E-SE-S SHRA P0000=
200905211744 SPECI KATL 211744Z 07020G24KT 3SM -RA BKN022 OVC028 21/16 A3020 RMK AO2 SFC VIS 5 RAB27 VIS LWR NE-E-SE-S SHRA P0000=
200905211652 METAR KATL 211652Z 07014G22KT 10SM BKN022 OVC028 21/16 A3021 RMK AO2 PK WND 07028/1605 SLP224 T02060156=
200905211552 METAR KATL 211552Z 08021KT 10SM BKN020 OVC030 21/16 A3021 RMK AO2 SLP226 T02060156=
200905211500 SPECI KATL 211500Z 06017KT 10SM BKN016 BKN020 OVC030 19/15 A3022 RMK AO2=
200905211500 SPECI KATL 211500Z 06017KT 10SM BKN016 BKN020 OVC030 19/15 A3022 RMK AO2=
200905211452 METAR KATL 211452Z 06017G23KT 10SM BKN014 BKN020 OVC030 19/15 A3023 RMK AO2 PK WND 07026/1358 DZE09 SLP229 P0000 60000 T01890150 51006=
200905211400 SPECI KATL 211400Z 07017G26KT 8SM -DZ BKN014 BKN019 OVC036 19/16 A3022 RMK AO2 PK WND 07026/1358 P0000=
200905211400 SPECI KATL 211400Z 07017G26KT 8SM -DZ BKN014 BKN019 OVC036 19/16 A3022 RMK AO2 PK WND 07026/1358 P0000=
200905211352 METAR KATL 211352Z 07017KT 8SM -DZ BKN016 OVC036 18/15 A3023 RMK AO2 PK WND 07026/1326 DZB47 SLP230 P0000 T01830150=
200905211320 SPECI KATL 211320Z 06020G26KT 10SM BKN016 BKN028 OVC038 19/16 A3022 RMK AO2 PK WND 08026/1313=
200905211320 SPECI KATL 211320Z 06020G26KT 10SM BKN016 BKN028 OVC038 19/16 A3022 RMK AO2 PK WND 08026/1313=
200905211252 METAR KATL 211252Z 07014KT 10SM BKN014 OVC018 18/15 A3022 RMK AO2 SLP228 T01780150=
200905211152 METAR KATL 211152Z 07016G23KT 10SM BKN014 BKN020 BKN200 18/15 A3021 RMK AO2 SLP223 T01780150 10183 20172 53012=
200905211112 SPECI KATL 211112Z 07015G21KT 10SM BKN014 BKN020 18/15 A3019 RMK AO2=
200905211112 SPECI KATL 211112Z 07015G21KT 10SM BKN014 BKN020 18/15 A3019 RMK AO2=
200905211052 METAR KATL 211052Z 07016G22KT 10SM BKN016 BKN200 17/15 A3018 RMK AO2 SLP215 T01720150=
200905210952 METAR KATL 210952Z 08013G21KT 10SM BKN016 OVC021 18/15 A3017 RMK AO2 SLP210 T01780150=
200905210852 METAR KATL 210852Z 08014G23KT 10SM SCT016 BKN020 18/15 A3017 RMK AO2 SLP210 T01780150 56007=
200905210822 SPECI KATL 210822Z 07016G22KT 10SM SCT018 SCT023 18/15 A3017 RMK AO2=
200905210822 SPECI KATL 210822Z 07016G22KT 10SM SCT018 SCT023 18/15 A3017 RMK AO2=
200905210752 METAR KATL 210752Z 08013KT 10SM BKN020 18/15 A3018 RMK AO2 SLP211 T01830150=
200905210652 METAR KATL 210652Z 08012KT 10SM FEW045 18/14 A3018 RMK AO2 SLP212 T01830144=
200905210552 METAR KATL 210552Z 08015KT 10SM SCT150 18/13 A3019 RMK AO2 SLP217 T01830133 10222 20183 58003=
200905210452 METAR KATL 210452Z 08015KT 10SM FEW045 SCT250 19/12 A3020 RMK AO2 SLP220 T01940122 402610150=
200905210352 METAR KATL 210352Z 07013KT 10SM FEW045 BKN250 19/13 A3020 RMK AO2 SLP221 T01940128=
200905210252 METAR KATL 210252Z 08011KT 10SM BKN250 20/14 A3020 RMK AO2 SLP221 T02000139 56000=
200905210152 METAR KATL 210152Z 08013KT 10SM BKN250 21/14 A3020 RMK AO2 SLP221 T02060139=
200905210052 METAR KATL 210052Z 08013G21KT 10SM SCT200 BKN250 21/14 A3020 RMK AO2 SLP220 T02110139=
200905202352 METAR KATL 202352Z 09019G24KT 10SM FEW065 BKN250 22/14 A3020 RMK AO2 PK WND 07029/2338 SLP221 T02220139 10261 20222 53002=
200905202252 METAR KATL 202252Z 08022G26KT 10SM FEW045 SCT065 BKN250 24/14 A3019 RMK AO2 PK WND 09026/2252 SLP218 T02390139=
200905202152 METAR KATL 202152Z 09014G23KT 10SM BKN060 BKN250 24/13 A3020 RMK AO2 PK WND 08026/2139 SLP221 T02390133=
200905202052 METAR KATL 202052Z 10018G28KT 10SM SCT050 SCT280 25/13 A3020 RMK AO2 PK WND 07029/1954 SLP219 T02500128 57016=
200905201952 METAR KATL 201952Z 07016G23KT 10SM SCT050 SCT280 25/13 A3021 RMK AO2 PK WND 07031/1929 SLP223 T02500133=
200905201852 METAR KATL 201852Z 07018G27KT 10SM FEW050 SCT280 24/13 A3023 RMK AO2 PK WND 08027/1850 SLP231 T02440128=
200905201752 METAR KATL 201752Z 08018G26KT 10SM FEW045 BKN280 24/13 A3024 RMK AO2 PK WND 08027/1724 SLP236 T02390133 10239 20156 57013=
200905201652 METAR KATL 201652Z 09021G29KT 10SM FEW040 SCT120 BKN280 22/13 A3025 RMK AO2 PK WND 08029/1645 SLP239 T02220128=
200905201552 METAR KATL 201552Z 06016G25KT 10SM FEW035 SCT120 BKN280 21/12 A3027 RMK AO2 PK WND 07027/1544 SLP245 T02110117=
200905201452 METAR KATL 201452Z 08015G21KT 10SM BKN032 BKN280 20/10 A3028 RMK AO2 SLP249 T02000100 51002=
200905201439 SPECI KATL 201439Z 08018G24KT 10SM BKN030 BKN280 19/10 A3028 RMK AO2=
200905201439 SPECI KATL 201439Z 08018G24KT 10SM BKN030 BKN280 19/10 A3028 RMK AO2=
200905201352 METAR KATL 201352Z 08017G25KT 10SM BKN028 BKN280 19/08 A3028 RMK AO2 PK WND 06026/1309 SLP249 T01890083=
200905201348 SPECI KATL 201348Z 08016G25KT 10SM BKN028 BKN280 18/08 A3028 RMK AO2 PK WND 06026/1309=
200905201348 SPECI KATL 201348Z 08016G25KT 10SM BKN028 BKN280 18/08 A3028 RMK AO2 PK WND 06026/1309=
200905201319 SPECI KATL 201319Z 06019G23KT 10SM FEW028 SCT250 18/07 A3028 RMK AO2 PK WND 06026/1309=
200905201319 SPECI KATL 201319Z 06019G23KT 10SM FEW028 SCT250 18/07 A3028 RMK AO2 PK WND 06026/1309=
200905201252 METAR KATL 201252Z 06017G26KT 10SM BKN026 17/06 A3028 RMK AO2 PK WND 07026/1244 SLP249 T01670061=
200905201152 METAR KATL 201152Z 06015KT 10SM SCT024 BKN040 BKN150 16/06 A3027 RMK AO2 SLP246 T01610061 10172 20150 53010=
200905201100 SPECI KATL 201100Z 06014KT 10SM SCT024 BKN036 16/06 A3026 RMK AO2=
200905201100 SPECI KATL 201100Z 06014KT 10SM SCT024 BKN036 16/06 A3026 RMK AO2=
200905201052 METAR KATL 201052Z 06017G23KT 10SM BKN024 BKN036 16/06 A3026 RMK AO2 SLP241 T01560056=
200905200952 METAR KATL 200952Z 05017KT 10SM BKN025 BKN030 16/05 A3024 RMK AO2 SLP237 T01610050=
200905200944 SPECI KATL 200944Z 06015KT 10SM BKN027 16/05 A3025 RMK AO2=
200905200944 SPECI KATL 200944Z 06015KT 10SM BKN027 16/05 A3025 RMK AO2=
200905200852 METAR KATL 200852Z 06013KT 10SM FEW029 BKN043 16/05 A3024 RMK AO2 SLP234 T01610050 56007=
200905200808 SPECI KATL 200808Z 06014KT 10SM BKN029 OVC043 17/04 A3024 RMK AO2=
200905200808 SPECI KATL 200808Z 06014KT 10SM BKN029 OVC043 17/04 A3024 RMK AO2=
200905200752 METAR KATL 200752Z 07015KT 10SM BKN031 OVC043 17/04 A3024 RMK AO2 SLP235 T01670044=
200905200652 METAR KATL 200652Z 07013G21KT 10SM BKN039 BKN150 17/04 A3024 RMK AO2 SLP237 T01670044=
200905200552 METAR KATL 200552Z 07017KT 10SM BKN035 BKN044 17/04 A3026 RMK AO2 SLP241 T01720039 10194 20167 58007=
200905200452 METAR KATL 200452Z 06016KT 10SM OVC040 17/04 A3026 RMK AO2 SLP244 T01720044 402110100=
200905200352 METAR KATL 200352Z 07017KT 10SM OVC044 17/04 A3028 RMK AO2 SLP249 T01720044=
200905200252 METAR KATL 200252Z 06011KT 10SM BKN060 BKN250 17/04 A3028 RMK AO2 SLP251 T01720044 51012=
200905200152 METAR KATL 200152Z 07011KT 10SM FEW060 SCT250 18/03 A3027 RMK AO2 SLP246 T01780033=
200905200052 METAR KATL 200052Z 07013KT 10SM SCT060 BKN250 18/03 A3026 RMK AO2 SLP245 T01830033=
200905192352 METAR KATL 192352Z 08015KT 10SM FEW050 SCT060 BKN250 19/03 A3024 RMK AO2 SLP239 T01940033 10211 20194 55001=
200905192252 METAR KATL 192252Z 07013G19KT 10SM FEW050 SCT250 21/03 A3023 RMK AO2 SLP235 T02060028=
200905192152 METAR KATL 192152Z 05012G20KT 10SM FEW060 SCT250 21/03 A3023 RMK AO2 SLP235 T02110028=
200905192052 METAR KATL 192052Z 07016KT 10SM FEW120 SCT200 SCT300 21/03 A3025 RMK AO2 SLP240 T02110028 58015=
200905191952 METAR KATL 191952Z 07014KT 10SM FEW200 21/03 A3026 RMK AO2 SLP246 T02060028=
200905191852 METAR KATL 191852Z 05013G19KT 10SM SCT200 21/03 A3028 RMK AO2 SLP250 T02060033=
200905191752 METAR KATL 191752Z 07012G21KT 10SM SCT200 19/03 A3029 RMK AO2 SLP256 T01940028 10194 20111 58014=
200905191652 METAR KATL 191652Z 08019G25KT 10SM FEW200 19/02 A3031 RMK AO2 PK WND 06029/1555 SLP261 T01890022=
200905191552 METAR KATL 191552Z 06020KT 10SM FEW200 17/01 A3032 RMK AO2 PK WND 08032/1525 SLP267 T01720011=
200905191452 METAR KATL 191452Z 07024G34KT 10SM FEW200 16/01 A3033 RMK AO2 PK WND 06034/1443 SLP270 T01610006 51008=
200905191352 METAR KATL 191352Z 07022G29KT 10SM FEW200 14/02 A3033 RMK AO2 PK WND 07029/1351 SLP270 T01440017=
200905191252 METAR KATL 191252Z 07015G20KT 10SM FEW250 13/02 A3032 RMK AO2 SLP266 T01280022=
200905191152 METAR KATL 191152Z 05012KT 10SM FEW250 11/02 A3031 RMK AO2 SLP261 T01110022 10117 20100 53017=
200905191052 METAR KATL 191052Z 06011KT 10SM FEW250 10/02 A3028 RMK AO2 SLP253 T01000017=
200905190952 METAR KATL 190952Z 05011KT 10SM FEW250 10/02 A3027 RMK AO2 SLP249 T01000022=
200905190852 METAR KATL 190852Z 05008KT 10SM CLR 10/02 A3026 RMK AO2 SLP243 T01000017 55001=
200905190752 METAR KATL 190752Z 06008KT 10SM CLR 11/02 A3025 RMK AO2 SLP240 T01060022=
200905190652 METAR KATL 190652Z 05009KT 10SM CLR 11/02 A3025 RMK AO2 SLP240 T01110022=
200905190552 METAR KATL 190552Z 06008KT 10SM CLR 12/03 A3026 RMK AO2 SLP245 T01170028 10172 20111 50001=
200905190452 METAR KATL 190452Z 08008KT 10SM FEW250 12/03 A3026 RMK AO2 SLP247 T01170028 402000106=
200905190352 METAR KATL 190352Z 08009KT 10SM FEW250 13/03 A3027 RMK AO2 SLP248 T01280028=
200905190252 METAR KATL 190252Z 09010KT 10SM FEW250 13/05 A3026 RMK AO2 SLP245 T01330050 53018=
200905190152 METAR KATL 190152Z 08008KT 10SM FEW250 14/06 A3024 RMK AO2 SLP238 T01440056=
200905190052 METAR KATL 190052Z 09010KT 10SM FEW200 15/06 A3021 RMK AO2 SLP230 T01500061=
200905182352 METAR KATL 182352Z 08012KT 10SM FEW050 SCT200 17/05 A3020 RMK AO2 SLP226 T01720050 10200 20161 53009=
200905182252 METAR KATL 182252Z 08011KT 10SM FEW200 19/06 A3018 RMK AO2 SLP219 T01890056=
200905182152 METAR KATL 182152Z 07011G19KT 10SM FEW050 19/06 A3018 RMK AO2 SLP217 T01890056=
200905182052 METAR KATL 182052Z 06013G20KT 10SM FEW050 SCT250 19/06 A3018 RMK AO2 SLP216 T01940056 58011=
200905181952 METAR KATL 181952Z 05012G21KT 10SM FEW044 SCT250 19/07 A3019 RMK AO2 SLP221 T01890072=
200905181852 METAR KATL 181852Z 06013G20KT 010V070 10SM SCT042 SCT250 19/08 A3020 RMK AO2 SLP226 T01890083=
200905181752 METAR KATL 181752Z 05012KT 10SM BKN040 BKN250 17/08 A3021 RMK AO2 SLP228 T01720083 10172 20117 51002=
200905181652 METAR KATL 181652Z 05014G20KT 10SM BKN040 BKN250 16/07 A3021 RMK AO2 SLP228 T01610072=
200905181552 METAR KATL 181552Z 07017G21KT 10SM BKN030 BKN250 16/08 A3021 RMK AO2 SLP227 T01610078=
200905181510 SPECI KATL 181510Z 07014G24KT 10SM BKN030 BKN070 BKN250 15/09 A3020 RMK AO2=
200905181510 SPECI KATL 181510Z 07014G24KT 10SM BKN030 BKN070 BKN250 15/09 A3020 RMK AO2=
200905181452 METAR KATL 181452Z 07017G21KT 10SM BKN024 BKN029 BKN250 14/09 A3020 RMK AO2 SLP227 T01440089 51008=
200905181352 METAR KATL 181352Z 07017G24KT 10SM BKN020 13/08 A3020 RMK AO2 SLP227 T01280083=
200905181252 METAR KATL 181252Z 08017KT 10SM BKN019 BKN050 BKN250 12/08 A3020 RMK AO2 SLP225 T01220083=
200905181248 SPECI KATL 181248Z 08018KT 10SM BKN019 BKN050 BKN250 12/08 A3019 RMK AO2=
200905181248 SPECI KATL 181248Z 08018KT 10SM BKN019 BKN050 BKN250 12/08 A3019 RMK AO2=
200905181226 SPECI KATL 181226Z 07013KT 10SM SCT019 SCT050 BKN250 12/08 A3019 RMK AO2=
200905181226 SPECI KATL 181226Z 07013KT 10SM SCT019 SCT050 BKN250 12/08 A3019 RMK AO2=
200905181152 METAR KATL 181152Z 05011KT 10SM FEW050 BKN250 12/08 A3018 RMK AO2 SLP220 70023 T01170083 10122 20106 53016=
200905181052 METAR KATL 181052Z 05010KT 10SM FEW050 SCT250 11/08 A3015 RMK AO2 SLP209 T01110078=
200905180952 METAR KATL 180952Z 04008KT 10SM FEW050 SCT200 11/08 A3013 RMK AO2 SLP203 T01060083=
200905180852 METAR KATL 180852Z 04009KT 10SM BKN050 BKN200 12/08 A3013 RMK AO2 SLP202 T01170083 55001=
200905180752 METAR KATL 180752Z 08011KT 10SM OVC050 12/09 A3012 RMK AO2 SLP197 T01220089=
200905180652 METAR KATL 180652Z 07010KT 10SM FEW018 BKN042 OVC200 12/09 A3012 RMK AO2 SLP196 T01220094=
200905180602 SPECI KATL 180602Z 07013KT 10SM SCT018 BKN043 OVC200 12/10 A3013 RMK AO2=
200905180602 SPECI KATL 180602Z 07013KT 10SM SCT018 BKN043 OVC200 12/10 A3013 RMK AO2=
200905180552 METAR KATL 180552Z 06008KT 10SM BKN018 BKN043 OVC200 12/10 A3013 RMK AO2 SLP202 60001 T01220100 10139 20122 53009=
200905180452 METAR KATL 180452Z 07014KT 10SM FEW011 BKN015 OVC042 12/10 A3012 RMK AO2 SLP196 T01220100 401890122=
200905180439 SPECI KATL 180439Z 07015KT 10SM FEW011 BKN018 OVC035 12/10 A3011 RMK AO2=
200905180439 SPECI KATL 180439Z 07015KT 10SM FEW011 BKN018 OVC035 12/10 A3011 RMK AO2=
200905180410 SPECI KATL 180410Z 06013G20KT 10SM FEW009 OVC035 13/11 A3011 RMK AO2=
200905180410 SPECI KATL 180410Z 06013G20KT 10SM FEW009 OVC035 13/11 A3011 RMK AO2=
200905180352 METAR KATL 180352Z 05012KT 8SM SCT009 OVC024 13/12 A3011 RMK AO2 RAE30DZB34E50 SLP196 P0001 T01330117=
200905180334 SPECI KATL 180334Z 05011KT 6SM -DZ BR FEW009 BKN017 OVC026 13/12 A3011 RMK AO2 RAE30DZB34 P0001=
200905180334 SPECI KATL 180334Z 05011KT 6SM -DZ BR FEW009 BKN017 OVC026 13/12 A3011 RMK AO2 RAE30DZB34 P0001=
200905180252 METAR KATL 180252Z 02013G22KT 5SM -RA BR SCT009 OVC013 13/11 A3011 RMK AO2 RAB21 SLP193 P0000 60000 T01280111 53018=
200905180152 METAR KATL 180152Z 35009KT 10SM FEW009 OVC021 12/11 A3007 RMK AO2 SLP181 T01220111=
200905180130 SPECI KATL 180130Z 34008KT 8SM FEW009 BKN021 OVC100 13/11 A3007 RMK AO2=
200905180130 SPECI KATL 180130Z 34008KT 8SM FEW009 BKN021 OVC100 13/11 A3007 RMK AO2=
200905180112 SPECI KATL 180112Z 34008KT 8SM SCT009 BKN100 13/12 A3007 RMK AO2=
200905180112 SPECI KATL 180112Z 34008KT 8SM SCT009 BKN100 13/12 A3007 RMK AO2=
200905180052 METAR KATL 180052Z 33008KT 8SM BKN009 BKN060 OVC110 13/12 A3005 RMK AO2 RAE36 SLP174 P0000 T01280117=
200905180048 SPECI KATL 180048Z 32011KT 7SM BKN009 BKN060 OVC110 13/12 A3005 RMK AO2 RAE36 P0000=
200905180048 SPECI KATL 180048Z 32011KT 7SM BKN009 BKN060 OVC110 13/12 A3005 RMK AO2 RAE36 P0000=
200905180012 SPECI KATL 180012Z 33009KT 7SM -RA SCT007 SCT029 BKN100 OVC150 13/12 A3005 RMK AO2 P0000=
200905180012 SPECI KATL 180012Z 33009KT 7SM -RA SCT007 SCT029 BKN100 OVC150 13/12 A3005 RMK AO2 P0000=
200905172352 METAR KATL 172352Z 32009KT 7SM -RA BKN006 OVC100 14/13 A3004 RMK AO2 SLP170 P0001 60012 T01390128 10172 20139 53007=
200905172347 SPECI KATL 172347Z 33009KT 10SM -RA BKN006 OVC100 14/13 A3004 RMK AO2 P0001=
200905172347 SPECI KATL 172347Z 33009KT 10SM -RA BKN006 OVC100 14/13 A3004 RMK AO2 P0001=
200905172252 METAR KATL 172252Z 33008KT 8SM -RA FEW007 OVC090 14/13 A3003 RMK AO2 RAB01 SLP166 P0000 T01440133=
200905172210 SPECI KATL 172210Z 33011KT 8SM -RA SCT007 OVC080 14/13 A3003 RMK AO2 RAB01 P0000=
200905172210 SPECI KATL 172210Z 33011KT 8SM -RA SCT007 OVC080 14/13 A3003 RMK AO2 RAB01 P0000=
200905172152 METAR KATL 172152Z 33008KT 7SM BKN007 BKN023 OVC080 15/14 A3003 RMK AO2 RAE24 SLP165 P0000 T01500139=
200905172052 METAR KATL 172052Z 33012KT 7SM -RA BKN009 BKN023 OVC080 16/14 A3002 RMK AO2 SLP162 P0004 60011 T01560144 56007=
200905171952 METAR KATL 171952Z 32012KT 6SM -RA BR BKN007 OVC047 16/15 A3003 RMK AO2 SLP164 P0003 T01610150=
200905171852 METAR KATL 171852Z 33014G21KT 6SM -RA BR BKN007 OVC014 17/16 A3004 RMK AO2 SLP166 BKN007V SCT P0004 T01720156=
200905171837 SPECI KATL 171837Z 34013KT 4SM -RA BR BKN007 BKN012 OVC032 17/16 A3004 RMK AO2 BKN007V SCT CB DSNT NW P0003=
200905171837 SPECI KATL 171837Z 34013KT 4SM -RA BR BKN007 BKN012 OVC032 17/16 A3004 RMK AO2 BKN007V SCT CB DSNT NW P0003=
200905171826 SPECI KATL 171826Z 33011KT 4SM -RA BR SCT005 BKN012 OVC034 17/16 A3004 RMK AO2 CB DSNT NW P0003=
200905171826 SPECI KATL 171826Z 33011KT 4SM -RA BR SCT005 BKN012 OVC034 17/16 A3004 RMK AO2 CB DSNT NW P0003=
200905171752 METAR KATL 171752Z 31008KT 4SM -RA BR BKN005 BKN008 OVC046 17/17 A3005 RMK AO2 CIG 003V007 SLP170 P0003 60010 T01720167 10189 20172 58004=
200905171652 METAR KATL 171652Z 30007KT 5SM -RA BR BKN007 OVC120 17/17 A3006 RMK AO2 SLP173 P0004 T01720167=
200905171552 METAR KATL 171552Z 32006KT 7SM -RA OVC006 18/17 A3007 RMK AO2 RAB01 SLP176 P0003 T01780167=
200905171452 METAR KATL 171452Z 32008KT 7SM BKN008 OVC120 18/16 A3006 RMK AO2 RAB32E44 SLP173 P0000 60000 T01780161 51004=
200905171352 METAR KATL 171352Z 33010KT 7SM OVC007 18/17 A3006 RMK AO2 SLP172 T01830172=
200905171306 SPECI KATL 171306Z 33006KT 7SM BKN007 OVC110 19/17 A3006 RMK AO2=
200905171306 SPECI KATL 171306Z 33006KT 7SM BKN007 OVC110 19/17 A3006 RMK AO2=
200905171252 METAR KATL 171252Z 32005KT 3SM SCT007 BKN110 OVC250 19/17 A3005 RMK AO2 SFC VIS 8 SLP170 T01890172=
200905171246 SPECI KATL 171246Z 32007KT 3SM SCT007 BKN110 OVC250 19/17 A3005 RMK AO2 SFC VIS 8=
200905171246 SPECI KATL 171246Z 32007KT 3SM SCT007 BKN110 OVC250 19/17 A3005 RMK AO2 SFC VIS 8=
200905171152 METAR KATL 171152Z 33009KT 3SM BKN005 OVC050 18/17 A3005 RMK AO2 SFC VIS 7 SLP168 60000 70110 T01830172 10189 20178 51009=
200905171124 SPECI KATL 171124Z 34009KT 3SM BKN005 OVC050 18/17 A3004 RMK AO2 SFC VIS 7=
200905171124 SPECI KATL 171124Z 34009KT 3SM BKN005 OVC050 18/17 A3004 RMK AO2 SFC VIS 7=
200905171118 SPECI KATL 171118Z 33008KT 3SM FEW005 SCT050 BKN110 OVC250 18/17 A3004 RMK AO2 SFC VIS 8=
200905171118 SPECI KATL 171118Z 33008KT 3SM FEW005 SCT050 BKN110 OVC250 18/17 A3004 RMK AO2 SFC VIS 8=
200905171052 METAR KATL 171052Z 32008KT 10SM FEW010 BKN110 OVC250 18/17 A3004 RMK AO2 SLP166 T01780172=
200905170952 METAR KATL 170952Z 33006KT 10SM FEW030 BKN100 OVC250 18/18 A3003 RMK AO2 SLP163 T01830178=
200905170852 METAR KATL 170852Z 00000KT 10SM FEW030 BKN120 OVC250 18/18 A3002 RMK AO2 SLP159 60000 T01830178 56015=
200905170752 METAR KATL 170752Z 31004KT 9SM FEW030 SCT065 BKN120 BKN250 18/18 A3003 RMK AO2 RAE0653 SLP162 T01830178=
200905170652 METAR KATL 170652Z 31005KT 10SM -RA FEW035 SCT065 BKN110 OVC250 19/18 A3005 RMK AO2 RAB44 SLP170 P0000 T01890178=
200905170552 METAR KATL 170552Z 00000KT 10SM FEW035 SCT065 BKN100 BKN250 18/18 A3006 RMK AO2 SLP175 60002 T01830178 10211 20183 58008=
200905170452 METAR KATL 170452Z 15003KT 10SM FEW039 BKN065 BKN080 OVC250 19/18 A3008 RMK AO2 TSE26RAB06E42 SLP181 TS DSIPT P0002 T01890178 402280189=
200905170426 SPECI KATL 170426Z 06004KT 10SM -RA FEW033 BKN049 OVC075 19/18 A3008 RMK AO2 TSE26RAB06 TS DSIPT OCNL LTGIC DSNT S CB DSNT S P0002=
200905170426 SPECI KATL 170426Z 06004KT 10SM -RA FEW033 BKN049 OVC075 19/18 A3008 RMK AO2 TSE26RAB06 TS DSIPT OCNL LTGIC DSNT S CB DSNT S P0002=
200905170353 SPECI KATL 170353Z 03007KT 10SM TS FEW026 BKN035 OVC043 20/18 A3009 RMK AO2=
200905170353 SPECI KATL 170353Z 03007KT 10SM TS FEW026 BKN035 OVC043 20/18 A3009 RMK AO2=
200905170352 METAR KATL 170352Z 02007KT 8SM TS FEW008 BKN024CB OVC049 20/18 A3009 RMK AO2 TSB36RAB25E36 SLP182 OCNL LTGIC SW-W CB SW-W MOV E P0000 T02000178=
200905170336 SPECI KATL 170336Z 34010KT 8SM TS FEW008 BKN024CB OVC049 20/18 A3010 RMK AO2 TSB36RAB25E36 OCNL LTGIC SW CB N & SW MOV E P0000=
200905170336 SPECI KATL 170336Z 34010KT 8SM TS FEW008 BKN024CB OVC049 20/18 A3010 RMK AO2 TSB36RAB25E36 OCNL LTGIC SW CB N & SW MOV E P0000=
200905170252 METAR KATL 170252Z 31003KT 10SM FEW048 BKN110 BKN150 OVC250 20/18 A3009 RMK AO2 SLP182 T02000183 53008=
200905170152 METAR KATL 170152Z 00000KT 10SM BKN120 BKN250 20/19 A3007 RMK AO2 SLP178 T02000189=
200905170052 METAR KATL 170052Z 00000KT 10SM CLR 21/18 A3005 RMK AO2 SLP170 T02060183=
200905162352 METAR KATL 162352Z 24003KT 10SM FEW014 BKN110 BKN150 BKN250 21/18 A3006 RMK AO2 SLP174 60001 T02110178 10217 20194 51005=
200905162252 METAR KATL 162252Z 25005KT 10SM FEW012 BKN110 BKN150 22/18 A3006 RMK AO2 SLP173 T02170183=
200905162152 METAR KATL 162152Z 19004KT 10SM FEW012 BKN150 BKN250 22/18 A3005 RMK AO2 SLP170 T02170183=
200905162052 METAR KATL 162052Z VRB03KT 10SM SCT010 BKN150 21/18 A3005 RMK AO2 SLP168 60001 T02110183 56025=
200905161952 METAR KATL 161952Z 30008KT 10SM FEW005 BKN150 20/18 A3007 RMK AO2 SLP177 T02000183=
200905161852 METAR KATL 161852Z 27007KT 10SM SCT006 SCT016 BKN150 19/18 A3009 RMK AO2 RAE52 SLP183 CB DSNT SE AND SW-W P0001 T01940183=
200905161752 SPECI KATL 161752Z 25003KT 5SM -RA BR FEW001 OVC018 19/18 A3012 RMK AO2 TSE44 SLP193 CB DSNT N-E-SE AND SW P0013 60107 T01940183 10228 20189 58009=
200905161744 SPECI KATL 161744Z 00000KT 4SM -RA BR FEW001 OVC018 19/18 A3013 RMK AO2 TSE44 CB DSNT N-E-SE AND SW P0012=
200905161744 SPECI KATL 161744Z 00000KT 4SM -RA BR FEW001 OVC018 19/18 A3013 RMK AO2 TSE44 CB DSNT N-E-SE AND SW P0012=
200905161717 SPECI KATL 161717Z COR 25004KT 3SM TSRA BR FEW001 SCT012CB OVC026 19/18 A3014 RMK AO2 OCNL LTGIC N-E TS N-E MOV NE P0006=
200905161717 SPECI KATL 161717Z COR 25004KT 3SM TSRA BR FEW001 SCT012CB OVC026 19/18 A3014 RMK AO2 OCNL LTGIC N-E TS N-E MOV NE P0006=
200905161652 METAR KATL 161652Z 26004KT 3SM -TSRA BR FEW001 SCT012CB OVC030 19/18 A3015 RMK AO2 TSB07RAB11 SLP204 OCNL LTGICCG OHD-NE-SE TS OHD-NE-SE MOV NE P0092 T01890183 $=
200905161646 SPECI KATL 161646Z 29004KT 3SM -TSRA BR FEW001 OVC025CB 19/18 A3015 RMK AO2 TSB07RAB11 OCNL LTGICCG OHD-NE-SE TS OHD-NE-SE MOV NE P0092 $=
200905161646 SPECI KATL 161646Z 29004KT 3SM -TSRA BR FEW001 OVC025CB 19/18 A3015 RMK AO2 TSB07RAB11 OCNL LTGICCG OHD-NE-SE TS OHD-NE-SE MOV NE P0092 $=
200905161642 SPECI KATL 161642Z 27005KT 1SM R09R/6000VP6000FT -TSRA BR FEW001 OVC012CB 19/18 A3016 RMK AO2 TSB07RAB11 OCNL LTGICCG OHD-NE-SE TS OHD-NE-SE MOV NE P0091 $=
200905161642 SPECI KATL 161642Z 27005KT 1SM R09R/6000VP6000FT -TSRA BR FEW001 OVC012CB 19/18 A3016 RMK AO2 TSB07RAB11 OCNL LTGICCG OHD-NE-SE TS OHD-NE-SE MOV NE P0091 $=
200905161632 SPECI KATL 161632Z 27005KT 1/4SM R09R/1600V6000FT +TSRA FG FEW001 OVC007CB 19/18 A3016 RMK AO2 TSB07RAB11 FRQ LTGICCG OHD TS OHD MOV NE P0085=
200905161632 SPECI KATL 161632Z 27005KT 1/4SM R09R/1600V6000FT +TSRA FG FEW001 OVC007CB 19/18 A3016 RMK AO2 TSB07RAB11 FRQ LTGICCG OHD TS OHD MOV NE P0085=
200905161627 SPECI KATL 161627Z 29008G18KT 1/4SM R09R/1600V3000FT +TSRA FG FEW001 BKN010CB OVC016 19/18 A3015 RMK AO2 TSB07RAB11 FRQ LTGICCG OHD TS OHD MOV NE P0058=
200905161627 SPECI KATL 161627Z 29008G18KT 1/4SM R09R/1600V3000FT +TSRA FG FEW001 BKN010CB OVC016 19/18 A3015 RMK AO2 TSB07RAB11 FRQ LTGICCG OHD TS OHD MOV NE P0058=
200905161626 SPECI KATL 161626Z 29008G20KT 1/4SM R09R/1600V4000FT +TSRA FG FEW001 BKN010CB OVC016 19/18 A3015 RMK AO2 TSB07RAB11 FRQ LTGICCG OHD TS OHD MOV NE P0050=
200905161626 SPECI KATL 161626Z 29008G20KT 1/4SM R09R/1600V4000FT +TSRA FG FEW001 BKN010CB OVC016 19/18 A3015 RMK AO2 TSB07RAB11 FRQ LTGICCG OHD TS OHD MOV NE P0050=
200905161621 SPECI KATL 161621Z 28014G22KT 3/4SM R09R/1800VP6000FT +TSRA BR FEW010 BKN016CB OVC065 19/18 A3016 RMK AO2 TSB07RAB11 OCNL LTGIC OHD TS OHD MOV NE P0009=
200905161621 SPECI KATL 161621Z 28014G22KT 3/4SM R09R/1800VP6000FT +TSRA BR FEW010 BKN016CB OVC065 19/18 A3016 RMK AO2 TSB07RAB11 OCNL LTGIC OHD TS OHD MOV NE P0009=
200905161607 SPECI KATL 161607Z 23005KT 9SM TS SCT012 BKN016CB BKN060 23/20 A3014 RMK AO2 TSB07 OCNL LTGIC SW-W TS SW-NW MOV NE=
200905161607 SPECI KATL 161607Z 23005KT 9SM TS SCT012 BKN016CB BKN060 23/20 A3014 RMK AO2 TSB07 OCNL LTGIC SW-W TS SW-NW MOV NE=
200905161552 METAR KATL 161552Z 19007KT 10SM SCT010 BKN016CB BKN060 23/20 A3014 RMK AO2 RAE1453B12E24 SLP199 CB NE AND SW-NW MOV NE SCT010V BKN P0000 T02280200=
200905161531 SPECI KATL 161531Z 24005KT 8SM SCT008 BKN012CB BKN043 22/19 A3014 RMK AO2 RAE1453B12E24 CB E AND SW-NW MOV NE P0000=
200905161531 SPECI KATL 161531Z 24005KT 8SM SCT008 BKN012CB BKN043 22/19 A3014 RMK AO2 RAE1453B12E24 CB E AND SW-NW MOV NE P0000=
200905161515 SPECI KATL 161515Z 00000KT 8SM -RA SCT010CB BKN025 BKN047 22/21 A3014 RMK AO2 RAE1453B12 CB E-SE MOV NE CB DSNT SW-NW P0000=
200905161515 SPECI KATL 161515Z 00000KT 8SM -RA SCT010CB BKN025 BKN047 22/21 A3014 RMK AO2 RAE1453B12 CB E-SE MOV NE CB DSNT SW-NW P0000=
200905161503 SPECI KATL 161503Z 00000KT 8SM SCT007 BKN012CB BKN025 21/19 A3015 RMK AO2 RAE1453 CB OHD-E-S MOV NE=
200905161503 SPECI KATL 161503Z 00000KT 8SM SCT007 BKN012CB BKN025 21/19 A3015 RMK AO2 RAE1453 CB OHD-E-S MOV NE=
200905161452 METAR KATL 161452Z 00000KT 8SM -RA BKN010 BKN015CB OVC025 21/19 A3015 RMK AO2 RAB1353 SLP202 CB OHD-SE-S MOV NE P0002 60002 T02110194 50008=
200905161352 METAR KATL 161352Z 21003KT 8SM OVC010 21/19 A3015 RMK AO2 RAB35E44 SLP204 CB DSNT SW-W P0000 T02110189=
200905161327 SPECI KATL 161327Z 00000KT 8SM OVC010 21/19 A3015 RMK AO2 CIG 007V014=
200905161327 SPECI KATL 161327Z 00000KT 8SM OVC010 21/19 A3015 RMK AO2 CIG 007V014=
200905161252 METAR KATL 161252Z 18004KT 3SM OVC006 21/19 A3014 RMK AO2 SFC VIS 9 SLP198 T02060189=
200905161207 SPECI KATL 161207Z 17007KT 3SM OVC006 20/19 A3013 RMK AO2 SFC VIS 8=
200905161207 SPECI KATL 161207Z 17007KT 3SM OVC006 20/19 A3013 RMK AO2 SFC VIS 8=
200905161152 METAR KATL 161152Z 15007KT 3SM BR OVC004 20/19 A3012 RMK AO2 SFC VIS 6 SLP193 T02000189 10200 20194 51007=
200905161147 SPECI KATL 161147Z 15007KT 3SM BR OVC004 20/19 A3013 RMK AO2 SFC VIS 6=
200905161147 SPECI KATL 161147Z 15007KT 3SM BR OVC004 20/19 A3013 RMK AO2 SFC VIS 6=
200905161117 SPECI KATL 161117Z 15007KT 2 1/2SM BR OVC004 19/19 A3012 RMK AO2 SFC VIS 6=
200905161117 SPECI KATL 161117Z 15007KT 2 1/2SM BR OVC004 19/19 A3012 RMK AO2 SFC VIS 6=
200905161052 METAR KATL 161052Z 14007KT 1/2SM BR OVC004 19/19 A3012 RMK AO2 SFC VIS 5 SLP189 T01940189=
200905161044 SPECI KATL 161044Z 15006KT 1/2SM OVC004 19/19 A3012 RMK AO2 SFC VIS 8=
200905161044 SPECI KATL 161044Z 15006KT 1/2SM OVC004 19/19 A3012 RMK AO2 SFC VIS 8=
200905161032 SPECI KATL 161032Z 14005KT 1 1/2SM BKN004 OVC020 19/18 A3012 RMK AO2 SFC VIS 9=
200905161032 SPECI KATL 161032Z 14005KT 1 1/2SM BKN004 OVC020 19/18 A3012 RMK AO2 SFC VIS 9=
200905160952 METAR KATL 160952Z 14004KT 10SM BKN006 OVC020 19/18 A3011 RMK AO2 SLP188 T01940183=
200905160912 SPECI KATL 160912Z 11004KT 10SM BKN006 BKN020 OVC110 19/18 A3011 RMK AO2=
200905160912 SPECI KATL 160912Z 11004KT 10SM BKN006 BKN020 OVC110 19/18 A3011 RMK AO2=
200905160852 METAR KATL 160852Z 11003KT 10SM SCT006 BKN020 OVC110 19/18 A3010 RMK AO2 SLP185 T01940183 58007=
200905160801 SPECI KATL 160801Z 15003KT 10SM SCT008 BKN020 OVC250 19/18 A3012 RMK AO2=
200905160801 SPECI KATL 160801Z 15003KT 10SM SCT008 BKN020 OVC250 19/18 A3012 RMK AO2=
200905160752 METAR KATL 160752Z 15003KT 10SM BKN008 BKN015 OVC025 19/18 A3012 RMK AO2 SLP189 T01940183=
200905160702 SPECI KATL 160702Z 11004KT 10SM BKN008 BKN015 OVC025 20/18 A3012 RMK AO2=
200905160702 SPECI KATL 160702Z 11004KT 10SM BKN008 BKN015 OVC025 20/18 A3012 RMK AO2=
200905160652 METAR KATL 160652Z 11004KT 10SM FEW008 BKN015 OVC250 20/18 A3012 RMK AO2 SLP191 T02000183=
200905160614 SPECI KATL 160614Z 10004KT 10SM FEW008 BKN015 BKN025 OVC250 20/18 A3013 RMK AO2=
200905160614 SPECI KATL 160614Z 10004KT 10SM FEW008 BKN015 BKN025 OVC250 20/18 A3013 RMK AO2=
200905160552 METAR KATL 160552Z 12004KT 10SM BKN015 BKN025 OVC250 20/18 A3012 RMK AO2 SLP192 60000 T02000183 10250 20200 58003=
200905160458 SPECI KATL 160458Z 12004KT 10SM BKN016 BKN150 BKN250 21/18 A3012 RMK AO2=
200905160458 SPECI KATL 160458Z 12004KT 10SM BKN016 BKN150 BKN250 21/18 A3012 RMK AO2=
200905160452 METAR KATL 160452Z 12004KT 10SM SCT015 BKN150 BKN250 21/18 A3012 RMK AO2 SLP192 T02060183 402940189=
200905160352 METAR KATL 160352Z 14004KT 10SM SCT020 BKN140 OVC250 21/18 A3014 RMK AO2 SLP198 T02110183=
200905160348 SPECI KATL 160348Z 14004KT 10SM FEW014 BKN020 OVC250 21/18 A3015 RMK AO2=
200905160348 SPECI KATL 160348Z 14004KT 10SM FEW014 BKN020 OVC250 21/18 A3015 RMK AO2=
200905160252 METAR KATL 160252Z 15007KT 10SM FEW120 SCT150 BKN250 21/18 A3013 RMK AO2 SLP195 60000 T02110178 53015=
200905160152 METAR KATL 160152Z 15011KT 10SM FEW110 SCT150 BKN250 22/17 A3011 RMK AO2 SLP189 FRQ LTG DSNT W-NW T02170172=
200905160052 METAR KATL 160052Z 14008KT 10SM FEW040 SCT120 BKN150 BKN200 23/17 A3010 RMK AO2 TSE02RAE14 SLP182 FRQ LTG DSNT NW TS DSIPTD P0000 T02330172=
200905160002 SPECI KATL 160002Z 14013G21KT 10SM -RA FEW040 SCT070 BKN120 BKN200 24/19 A3009 RMK AO2 TSE02 TS DSIPTD P0000=
200905160002 SPECI KATL 160002Z 14013G21KT 10SM -RA FEW040 SCT070 BKN120 BKN200 24/19 A3009 RMK AO2 TSE02 TS DSIPTD P0000=
200905152352 METAR KATL 152352Z 11008KT 10SM -TSRA FEW045CB BKN080 BKN110 BKN200 25/19 A3009 RMK AO2 TSB2255E17B23RAB30 SLP179 OCNL LTGICCG W-NW TS W-NW MOV NW P0000 60000 T02500189 10294 20250 53001=
200905152323 SPECI KATL 152323Z 13012KT 10SM TS SCT045CB BKN065 BKN100 BKN250 27/18 A3008 RMK AO2 TSB2255E17B23 FRQ LTGICCG SW TS SW MOV NW TCU NE-OHD-W SHRA S-SW=
200905152323 SPECI KATL 152323Z 13012KT 10SM TS SCT045CB BKN065 BKN100 BKN250 27/18 A3008 RMK AO2 TSB2255E17B23 FRQ LTGICCG SW TS SW MOV NW TCU NE-OHD-W SHRA S-SW=
200905152318 SPECI KATL 152318Z 14013G17KT 10SM SCT045TCU BKN065 BKN100 BKN250 27/18 A3008 RMK AO2 TSB2255E17 TS DSIPTD TCU NE-SE-SW-W SHRA E-S=
200905152318 SPECI KATL 152318Z 14013G17KT 10SM SCT045TCU BKN065 BKN100 BKN250 27/18 A3008 RMK AO2 TSB2255E17 TS DSIPTD TCU NE-SE-SW-W SHRA E-S=
200905152255 SPECI KATL 152255Z 14006KT 10SM TS SCT045CB SCT080 BKN250 29/17 A3007 RMK AO2 TSB55 OCNL LTGICCG E-SE TS E-SE MOV NW TCU N-NE AND S-W=
200905152255 SPECI KATL 152255Z 14006KT 10SM TS SCT045CB SCT080 BKN250 29/17 A3007 RMK AO2 TSB55 OCNL LTGICCG E-SE TS E-SE MOV NW TCU N-NE AND S-W=
200905152252 METAR KATL 152252Z 12008KT 10SM SCT045CB SCT080 BKN250 29/17 A3007 RMK AO2 SLP173 CB E-SE MOV NW TCU N-NE AND S-W SHRA E-SE T02890167=
200905152152 METAR KATL 152152Z 14006KT 10SM SCT050 BKN070 BKN250 28/16 A3007 RMK AO2 SLP174 TCU DSNT NE-SE-SW AND NW T02830161=
200905152052 METAR KATL 152052Z 19007KT 10SM FEW050TCU SCT200 SCT300 29/17 A3008 RMK AO2 SLP176 TCU N & NE & DSNT SE & DSNT SW T02940172 56030=
200905151952 METAR KATL 151952Z 17005KT 10SM FEW045TCU SCT200 SCT300 29/17 A3011 RMK AO2 SLP187 TCU SE & S & DSNT N & NW T02890172=
200905151852 METAR KATL 151852Z 15008KT 120V190 10SM FEW050 SCT060 SCT200 29/18 A3014 RMK AO2 SLP197 TCU DSNT SE & SW T02890178=
200905151752 METAR KATL 151752Z COR 12008KT 10SM SCT046TCU BKN060 BKN200 27/17 A3017 RMK AO2 SLP209 TCU N & NE & W T02670172 10283 20211 58013=
200905151652 METAR KATL 151652Z 00000KT 10SM BKN040 BKN200 26/18 A3020 RMK AO2 SLP218 T02610178=
200905151552 METAR KATL 151552Z 14007KT 100V190 10SM SCT037 SCT200 27/18 A3021 RMK AO2 SLP221 T02670178=
200905151452 METAR KATL 151452Z 16004KT 10SM FEW030 SCT200 BKN300 25/18 A3021 RMK AO2 SLP223 T02500178 53000=
200905151352 METAR KATL 151352Z 16006KT 10SM SCT250 24/18 A3021 RMK AO2 SLP222 T02390178=
200905151252 METAR KATL 151252Z 10005KT 10SM SCT250 23/18 A3021 RMK AO2 SLP222 T02280183=
200905151152 METAR KATL 151152Z 00000KT 10SM SCT250 21/18 A3021 RMK AO2 SLP222 T02110183 10211 20189 53013=
200905151052 METAR KATL 151052Z 02003KT 10SM FEW050 SCT250 20/17 A3019 RMK AO2 SLP214 T02000172=
200905150952 METAR KATL 150952Z 09003KT 10SM FEW250 19/17 A3018 RMK AO2 SLP211 T01940172=
200905150852 METAR KATL 150852Z 07003KT 10SM FEW180 20/18 A3017 RMK AO2 SLP209 T02000178 53001=
200905150752 METAR KATL 150752Z 00000KT 10SM FEW180 20/18 A3016 RMK AO2 SLP205 T02000178=
200905150652 METAR KATL 150652Z 12004KT 10SM FEW180 21/18 A3016 RMK AO2 SLP202 T02110178=
200905150552 METAR KATL 150552Z 00000KT 10SM FEW180 21/18 A3017 RMK AO2 SLP208 T02110178 10261 20211 58010=
200905150452 METAR KATL 150452Z 14005KT 10SM FEW045 22/18 A3018 RMK AO2 SLP213 T02170178 402720178=
200905150352 METAR KATL 150352Z 09005KT 10SM FEW055 22/18 A3019 RMK AO2 TSE17 SLP215 TS DSIPTD T02170178=
200905150317 SPECI KATL 150317Z 14004KT 10SM FEW040 SCT150 23/18 A3019 RMK AO2 TSE17 TS DSIPTD=
200905150317 SPECI KATL 150317Z 14004KT 10SM FEW040 SCT150 23/18 A3019 RMK AO2 TSE17 TS DSIPTD=
200905150252 METAR KATL 150252Z 13003KT 10SM TS BKN040CB BKN055 BKN150 24/18 A3020 RMK AO2 TSB45 SLP218 OCNL LTGICCG NW-N TS NW-N MOV STNRY T02390183 51020=
200905150245 SPECI KATL 150245Z 14004KT 10SM TS BKN040CB BKN055 BKN110 24/18 A3020 RMK AO2 TSB45 OCNL LTGICCG NW-N TS NW-N MOV STNRY=
200905150245 SPECI KATL 150245Z 14004KT 10SM TS BKN040CB BKN055 BKN110 24/18 A3020 RMK AO2 TSB45 OCNL LTGICCG NW-N TS NW-N MOV STNRY=
200905150152 METAR KATL 150152Z 15005KT 10SM SCT040 BKN048 BKN110 24/18 A3018 RMK AO2 SLP212 FRQ LTGICCG DSNT NW-N T02440183=
200905150052 METAR KATL 150052Z 13004KT 10SM BKN040TCU BKN055 26/18 A3016 RMK AO2 SLP205 TCU OHD-SW T02560178=
200905142352 METAR KATL 142352Z 14004KT 10SM FEW040 26/17 A3014 RMK AO2 SLP198 T02610172 10272 20239 55003=
200905142252 METAR KATL 142252Z 15004KT 10SM FEW040 26/18 A3013 RMK AO2 SLP195 T02610178=
200905142152 METAR KATL 142152Z 18003KT 10SM SCT038 SCT250 27/18 A3013 RMK AO2 SLP196 T02670178=
200905142052 METAR KATL 142052Z 00000KT 10SM FEW040 SCT080 SCT230 26/18 A3015 RMK AO2 SLP201 TCU DSNT NE & DSNT S-SW T02610178 56025=
200905141952 METAR KATL 141952Z 00000KT 10SM BKN033 BKN070 BKN230 26/18 A3017 RMK AO2 SLP208 T02610183=
200905141852 METAR KATL 141852Z 00000KT 10SM FEW030 BKN070 BKN080 26/19 A3020 RMK AO2 SLP217 T02610189=
200905141806 SPECI KATL 141806Z VRB03KT 10SM SCT028 BKN070 BKN080 25/19 A3022 RMK AO2=
200905141806 SPECI KATL 141806Z VRB03KT 10SM SCT028 BKN070 BKN080 25/19 A3022 RMK AO2=
200905141752 METAR KATL 141752Z 17003KT 10SM BKN028 BKN085 24/18 A3023 RMK AO2 SLP228 T02440183 10244 20189 58008=
200905141717 SPECI KATL 141717Z 00000KT 10SM BKN028 BKN085 24/17 A3023 RMK AO2=
200905141717 SPECI KATL 141717Z 00000KT 10SM BKN028 BKN085 24/17 A3023 RMK AO2=
200905141652 METAR KATL 141652Z 00000KT 10SM FEW024 BKN080 24/18 A3024 RMK AO2 SLP236 T02390183=
200905141552 METAR KATL 141552Z 00000KT 10SM OVC022 23/18 A3026 RMK AO2 SLP241 BINOVC NE T02280178=
200905141452 METAR KATL 141452Z 14006KT 10SM OVC022 22/17 A3025 RMK AO2 SLP238 BINOVC SE T02170172 50008=
200905141352 METAR KATL 141352Z 09004KT 10SM FEW015 SCT020 OVC027 21/17 A3026 RMK AO2 SLP240 T02110172=
200905141307 SPECI KATL 141307Z 08006KT 6SM HZ FEW009 SCT020 20/17 A3024 RMK AO2=
200905141307 SPECI KATL 141307Z 08006KT 6SM HZ FEW009 SCT020 20/17 A3024 RMK AO2=
200905141252 METAR KATL 141252Z COR 10005KT 6SM BR FEW009 BKN020 19/17 A3023 RMK AO2 SLP233 T01940172=
200905141152 METAR KATL 141152Z 09006KT 6SM BR SCT009 OVC020 19/17 A3023 RMK AO2 SLP230 T01890167 10194 20183 50015=
200905141149 SPECI KATL 141149Z 09006KT 6SM BR BKN009 OVC020 19/17 A3023 RMK AO2=
200905141149 SPECI KATL 141149Z 09006KT 6SM BR BKN009 OVC020 19/17 A3023 RMK AO2=
200905141126 SPECI KATL 141126Z 08005KT 6SM BR SCT009 BKN020 19/17 A3022 RMK AO2=
200905141126 SPECI KATL 141126Z 08005KT 6SM BR SCT009 BKN020 19/17 A3022 RMK AO2=
200905141052 METAR KATL 141052Z 12005KT 6SM BR BKN020 BKN025 19/17 A3020 RMK AO2 SLP220 T01890167=
200905140952 METAR KATL 140952Z 13006KT 7SM BKN017 OVC020 18/17 A3018 RMK AO2 SLP214 T01830167=
200905140852 METAR KATL 140852Z 14005KT 7SM BKN014 OVC017 18/17 A3018 RMK AO2 SLP214 T01830167 53004=
200905140752 METAR KATL 140752Z 12010G15KT 7SM BKN014 OVC017 19/17 A3016 RMK AO2 SLP208 T01890167=
200905140748 SPECI KATL 140748Z 12008KT 7SM BKN014 OVC017 19/17 A3016 RMK AO2=
200905140748 SPECI KATL 140748Z 12008KT 7SM BKN014 OVC017 19/17 A3016 RMK AO2=
200905140652 METAR KATL 140652Z 13007KT 7SM BKN017 18/17 A3017 RMK AO2 SLP210 T01830167=
200905140620 SPECI KATL 140620Z 13007KT 7SM BKN017 18/17 A3016 RMK AO2=
200905140620 SPECI KATL 140620Z 13007KT 7SM BKN017 18/17 A3016 RMK AO2=
200905140552 METAR KATL 140552Z COR 13007KT 10SM FEW030 SCT200 18/17 A3018 RMK AO2 SLP215 T01830167 10194 20172 58010=
200905140452 METAR KATL 140452Z 10005KT 10SM FEW026 SCT250 17/15 A3020 RMK AO2 SLP222 T01720150 402060144=
200905140424 SPECI KATL 140424Z 09007KT 10SM SCT026 BKN250 17/14 A3021 RMK AO2=
200905140424 SPECI KATL 140424Z 09007KT 10SM SCT026 BKN250 17/14 A3021 RMK AO2=
200905140352 METAR KATL 140352Z 09008KT 10SM BKN026 BKN250 17/14 A3021 RMK AO2 SLP225 T01720139=
200905140252 METAR KATL 140252Z 08010KT 10SM FEW150 BKN200 18/14 A3021=
200905140152 METAR KATL 140152Z 07012KT 10SM SCT150 BKN200 18/14 A3019 RMK AO2 SLP220 T01830139=
200905140052 METAR KATL 140052Z 09008KT 10SM SCT120 BKN150 BKN200 19/13 A3018 RMK AO2 SLP217 T01890133=
200905132352 METAR KATL 132352Z 09009KT 10SM FEW100 BKN150 BKN250 19/13 A3017 RMK AO2 SLP212 60000 T01940133 10206 20194 58006=
200905132252 METAR KATL 132252Z 06008KT 10SM FEW045 SCT090 BKN110 OVC200 20/13 A3018 RMK AO2 RAE02 SLP217 P0000 T02000133=
200905132152 METAR KATL 132152Z 06008KT 10SM -RA FEW040 SCT120 BKN150 OVC200 21/13 A3018 RMK AO2 RAB10 SLP217 P0000 T02060133=
200905132052 METAR KATL 132052Z 09007KT 10SM FEW040 BKN110 OVC150 20/12 A3019 RMK AO2 SLP218 T02000117 58015=
200905131952 METAR KATL 131952Z 10008KT 10SM FEW070 SCT110 OVC150 20/12 A3021 RMK AO2 SLP226 T02000122=
200905131852 METAR KATL 131852Z 11007KT 10SM FEW040 BKN090 OVC150 20/12 A3023 RMK AO2 SLP234 T02000122=
200905131752 METAR KATL 131752Z 07012KT 10SM FEW070 SCT100 OVC150 20/12 A3023 RMK AO2 SLP233 60000 T02000122 10206 20156 58003=
200905131652 METAR KATL 131652Z 08009KT 030V110 10SM FEW040 BKN070 OVC110 19/12 A3024 RMK AO2 RAE05 SLP238 P0000 T01890122=
200905131552 METAR KATL 131552Z 10009KT 10SM -RA BKN038 BKN095 OVC110 18/12 A3026 RMK AO2 RAB47 SLP242 P0000 T01780122=
200905131452 METAR KATL 131452Z 12005KT 10SM BKN035 BKN095 OVC120 17/12 A3024 RMK AO2 RAE12B43E52 SLP238 BINOVC DSNT NE P0000 60000 T01720122 53004=
200905131352 METAR KATL 131352Z 12009KT 10SM -RA FEW038 BKN050 BKN110 OVC150 16/12 A3024 RMK AO2 RAB14 SLP235 P0000 T01610122=
200905131252 METAR KATL 131252Z 12010KT 10SM FEW037 BKN085 BKN150 16/12 A3023 RMK AO2 SLP232 T01610122=
200905131152 METAR KATL 131152Z 15003KT 10SM BKN039 BKN085 BKN150 16/12 A3023 RMK AO2 SLP232 T01560122 10161 20144 53020=
200905131052 METAR KATL 131052Z 14004KT 10SM FEW040 SCT150 SCT200 14/12 A3020 RMK AO2 SLP223 T01440122=
200905130952 METAR KATL 130952Z 12005KT 10SM SCT040 BKN200 14/12 A3018 RMK AO2 SLP215 T01440122=
200905130852 METAR KATL 130852Z 12005KT 10SM SCT200 15/12 A3017 RMK AO2 SLP212 T01500122 55004=
200905130752 METAR KATL 130752Z 13005KT 10SM FEW250 15/12 A3016 RMK AO2 SLP210 T01500122=
200905130652 METAR KATL 130652Z 13004KT 10SM FEW150 16/12 A3017 RMK AO2 SLP211 T01560122=
200905130552 METAR KATL 130552Z 14003KT 10SM CLR 16/12 A3018 RMK AO2 SLP216 T01610122 10206 20161 50003=
200905130452 METAR KATL 130452Z 16003KT 10SM FEW050 SCT250 16/12 A3019 RMK AO2 SLP218 T01610122 402220144=
200905130352 METAR KATL 130352Z 14004KT 10SM SCT050 BKN250 17/12 A3018 RMK AO2 SLP216 T01720117=
200905130252 METAR KATL 130252Z 15006KT 10SM SCT250 18/12 A3017 RMK AO2 SLP213 T01780122 53015=
200905130152 SPECI KATL 130152Z 14006KT 10SM FEW050 BKN250 18/12 A3015 RMK AO2 SLP206 T01830122=
200905130052 METAR KATL 130052Z 14005KT 10SM FEW050 SCT250 19/12 A3014 RMK AO2 SLP202 T01940122=
200905122352 METAR KATL 122352Z 14005KT 10SM FEW040 SCT150 SCT250 21/12 A3013 RMK AO2 SLP197 T02060117 10222 20200 56004=
200905122252 METAR KATL 122252Z 16006KT 10SM FEW045 SCT250 21/11 A3013 RMK AO2 SLP198 T02110111=
200905122152 METAR KATL 122152Z 14007KT 120V190 10SM FEW045 SCT250 22/11 A3013 RMK AO2 SLP199 T02170111=
200905122052 METAR KATL 122052Z 12006KT 10SM FEW040 SCT250 22/11 A3014 RMK AO2 SLP201 T02220111 58019=
200905121952 METAR KATL 121952Z 09008KT 10SM FEW040 SCT060 SCT250 21/12 A3016 RMK AO2 SLP208 T02110117=
200905121852 METAR KATL 121852Z 16010KT 10SM FEW040 BKN055 BKN250 21/11 A3019 RMK AO2 SLP218 T02060111=
200905121752 METAR KATL 121752Z 08008KT 10SM FEW050 BKN060 BKN250 21/11 A3020 RMK AO2 SLP220 T02110106 10211 20144 58008=
200905121652 METAR KATL 121652Z 14009KT 10SM BKN060 BKN250 19/09 A3021 RMK AO2 SLP227 T01940089=
200905121552 METAR KATL 121552Z 13010KT 10SM BKN050 BKN250 19/10 A3022 RMK AO2 SLP228 T01890100=
200905121452 METAR KATL 121452Z 10010KT 10SM FEW045 SCT060 BKN250 18/11 A3022 RMK AO2 SLP229 T01780106 50008=
200905121352 METAR KATL 121352Z 09011KT 10SM FEW005 BKN046 BKN055 16/11 A3023 RMK AO2 SLP231 T01610106=
200905121252 METAR KATL 121252Z 08012KT 10SM FEW005 BKN048 BKN055 15/11 A3021 RMK AO2 SLP226 T01500106=
200905121152 METAR KATL 121152Z 09012KT 10SM FEW005 BKN042 BKN050 14/10 A3020 RMK AO2 SLP222 T01440100 10161 20144 51020=
200905121052 METAR KATL 121052Z 09011KT 10SM FEW005 BKN040 BKN045 14/11 A3018 RMK AO2 SLP216 T01440106=
200905120952 METAR KATL 120952Z 09009KT 10SM FEW005 BKN040 OVC045 14/12 A3016 RMK AO2 SLP209 T01440117=
200905120852 METAR KATL 120852Z 10008KT 10SM BKN034 OVC038 15/12 A3014 RMK AO2 SLP200 T01500117 53002=
200905120752 METAR KATL 120752Z 09010KT 10SM BKN030 OVC035 15/12 A3012 RMK AO2 SLP195 T01500117=
200905120652 METAR KATL 120652Z 10006KT 10SM BKN026 OVC030 16/12 A3013 RMK AO2 SLP196 T01560117=
200905120552 METAR KATL 120552Z 11007KT 10SM BKN017 OVC024 16/12 A3013 RMK AO2 SLP197 60000 T01610122 10194 20161 51007=
200905120539 SPECI KATL 120539Z 08010KT 10SM BKN017 OVC020 16/13 A3013 RMK AO2=
200905120539 SPECI KATL 120539Z 08010KT 10SM BKN017 OVC020 16/13 A3013 RMK AO2=
200905120452 METAR KATL 120452Z 09013KT 10SM OVC013 17/14 A3012 RMK AO2 DZE20 SLP195 P0000 T01670139 402500161=
200905120431 SPECI KATL 120431Z 08015KT 10SM OVC014 17/14 A3012 RMK AO2 DZE20 P0000=
200905120431 SPECI KATL 120431Z 08015KT 10SM OVC014 17/14 A3012 RMK AO2 DZE20 P0000=
200905120352 METAR KATL 120352Z 08013KT 10SM -DZ OVC016 18/14 A3011 RMK AO2 DZB50 SLP192 P0000 T01780144=
200905120252 METAR KATL 120252Z 01006KT 10SM BKN027 OVC055 18/13 A3011 RMK AO2 SLP190 T01830128 51008=
200905120246 SPECI KATL 120246Z 01005KT 10SM BKN028 OVC055 18/13 A3011 RMK AO2=
200905120246 SPECI KATL 120246Z 01005KT 10SM BKN028 OVC055 18/13 A3011 RMK AO2=
200905120152 METAR KATL 120152Z 34007KT 10SM FEW030 OVC055 18/13 A3009 RMK AO2 SLP183 T01830128=
200905120052 METAR KATL 120052Z 02008KT 10SM BKN055 BKN200 OVC250 19/13 A3008 RMK AO2 SLP182 T01890128=
200905112352 METAR KATL 112352Z 35009KT 10SM FEW060 SCT150 OVC200 19/13 A3006 RMK AO2 SLP175 T01940133 10250 20194 58007=
200905112252 METAR KATL 112252Z 32011KT 10SM BKN060 OVC150 21/13 A3007 RMK AO2 SLP178 T02060133=
200905112152 METAR KATL 112152Z 33011KT 10SM BKN060 OVC150 21/14 A3007 RMK AO2 SLP179 T02110144=
200905112052 METAR KATL 112052Z 32010KT 10SM FEW030 BKN040 OVC070 22/14 A3008 RMK AO2 SLP181 T02220144 53004=
200905111952 METAR KATL 111952Z 33011KT 10SM FEW035 BKN070 BKN150 BKN280 24/16 A3007 RMK AO2 SLP178 T02390161=
200905111852 METAR KATL 111852Z 32010G15KT 10SM FEW035 SCT080 BKN280 25/16 A3006 RMK AO2 SLP173 T02500161=
200905111752 METAR KATL 111752Z 32007KT 10SM FEW030 BKN080 BKN150 23/16 A3007 RMK AO2 SLP176 T02330161 10239 20167 50000=
200905111652 METAR KATL 111652Z 33010KT 10SM SCT028 SCT075 BKN150 23/17 A3007 RMK AO2 SLP177 T02330167=
200905111622 SPECI KATL 111622Z 32011KT 10SM BKN026 BKN032 BKN075 OVC150 22/16 A3009 RMK AO2=
200905111622 SPECI KATL 111622Z 32011KT 10SM BKN026 BKN032 BKN075 OVC150 22/16 A3009 RMK AO2=
200905111552 METAR KATL 111552Z 30010KT 10SM FEW030 SCT085 BKN150 OVC280 22/16 A3008 RMK AO2 SLP179 T02170161=
200905111452 METAR KATL 111452Z VRB05KT 10SM FEW100 SCT150 SCT280 22/16 A3007 RMK AO2 SLP176 T02170156 58001=
200905111352 METAR KATL 111352Z 32005KT 10SM SCT110 SCT250 21/16 A3007 RMK AO2 SLP177 ACC DSNT SE-S-SW T02060156=
200905111252 METAR KATL 111252Z 32006KT 10SM FEW040 SCT110 BKN140 BKN250 17/16 A3008 RMK AO2 SLP180 T01720156=
200905111152 METAR KATL 111152Z 26003KT 10SM FEW040 SCT100 BKN130 BKN250 17/16 A3007 RMK AO2 SLP178 60015 70016 T01670156 10178 20161 51017=
200905111052 METAR KATL 111052Z 34004KT 10SM FEW035 SCT100 BKN150 BKN250 16/15 A3007 RMK AO2 TSE21RAE05 SLP178 TS MOV E CB MOV E P0002 T01610150=
200905111021 SPECI KATL 111021Z 00000KT 10SM SCT035 BKN075 BKN150 BKN250 17/14 A3005 RMK AO2 TSE21RAE05 OCNL LTGCG DSNT E TS MOV E CB DSNT E MOV E P0002=
200905111021 SPECI KATL 111021Z 00000KT 10SM SCT035 BKN075 BKN150 BKN250 17/14 A3005 RMK AO2 TSE21RAE05 OCNL LTGCG DSNT E TS MOV E CB DSNT E MOV E P0002=
200905110952 METAR KATL 110952Z 00000KT 5SM TSRA BR FEW010 BKN035CB OVC075 16/15 A3006 RMK AO2 TSB05RAB23 SLP174 FRQ LTGICCG OHD-E-S TS OHD-E-SW MOV NE CB MOV E P0013 T01610150=
200905110924 SPECI KATL 110924Z 25003KT 9SM -TSRA BKN035CB OVC075 17/14 A3004 RMK AO2 TSB05RAB23 PRESRR FRQ LTGICCG OHD-S-W TS OHD-S-W MOV NE CB DSNT N AND E MOV E P0000=
200905110924 SPECI KATL 110924Z 25003KT 9SM -TSRA BKN035CB OVC075 17/14 A3004 RMK AO2 TSB05RAB23 PRESRR FRQ LTGICCG OHD-S-W TS OHD-S-W MOV NE CB DSNT N AND E MOV E P0000=
200905110906 SPECI KATL 110906Z 30003KT 10SM TS SCT040CB BKN090 BKN150 OVC250 17/14 A3002 RMK AO2 TSB05 OCNL LTGCG E AND DSNT N TS E MOV E CB DSNT N AND SW MOV E=
200905110906 SPECI KATL 110906Z 30003KT 10SM TS SCT040CB BKN090 BKN150 OVC250 17/14 A3002 RMK AO2 TSB05 OCNL LTGCG E AND DSNT N TS E MOV E CB DSNT N AND SW MOV E=
200905110852 METAR KATL 110852Z 00000KT 10SM FEW060 BKN090 BKN150 OVC250 17/14 A3002 RMK AO2 SLP160 OCNL LTGCG DSNT N CB DSNT N MOV E T01720139 56019=
200905110752 METAR KATL 110752Z 00000KT 10SM FEW040 SCT100 BKN150 OVC250 17/15 A3003 RMK AO2 SLP163 T01720150=
200905110652 METAR KATL 110652Z 00000KT 10SM BKN150 OVC250 17/16 A3005 RMK AO2 SLP169 T01720156=
200905110552 METAR KATL 110552Z 00000KT 10SM BKN150 OVC250 17/16 A3008 RMK AO2 SLP177 T01720156 10200 20172 53001=
200905110452 METAR KATL 110452Z 30004KT 10SM FEW130 BKN180 OVC250 18/16 A3007 RMK AO2 SLP175 T01780156 402610178=
200905110352 METAR KATL 110352Z 33005KT 10SM SCT130 BKN180 BKN250 18/16 A3005 RMK AO2 SLP170 T01830156=
200905110252 METAR KATL 110252Z 32006KT 10SM FEW180 SCT250 18/16 A3007 RMK AO2 SLP177 T01830156 56002=
200905110152 METAR KATL 110152Z 32005KT 10SM SCT150 BKN250 18/16 A3008 RMK AO2 SLP180 T01830156=
200905110052 METAR KATL 110052Z 00000KT 10SM SCT110 BKN150 20/15 A3007 RMK AO2 SLP175 T02000150=
200905102352 METAR KATL 102352Z 36006KT 10SM FEW075 SCT110 SCT150 BKN250 19/16 A3008 RMK AO2 SLP180 60001 T01940156 10256 20194 58006=
200905102252 METAR KATL 102252Z 31007KT 10SM FEW075 SCT110 BKN200 BKN250 19/16 A3010 RMK AO2 SLP186 T01940161=
200905102152 METAR KATL 102152Z 31007KT 10SM FEW047 SCT110 BKN150 OVC200 19/16 A3009 RMK AO2 RAE41 SLP184 P0000 T01940161=
200905102052 METAR KATL 102052Z 33012KT 10SM -RA FEW015 SCT070 BKN095 20/16 A3010 RMK AO2 RAE21B48 SLP186 CB DSNT SW-W P0001 60001 T02000156 58004=
200905101952 METAR KATL 101952Z 32012KT 10SM -RA SCT025 BKN065 BKN080 22/16 A3011 RMK AO2 RAE05B51 SLP189 CB DSNT SW-NW P0000 T02220156=
200905101852 METAR KATL 101852Z 31014KT 10SM -RA SCT036 BKN060 OVC085 24/17 A3012 RMK AO2 RAB10 SLP190 P0000 T02390172=
200905101752 METAR KATL 101752Z 29009KT 10SM SCT043 SCT150 BKN250 26/16 A3011 RMK AO2 SLP188 T02560156 10261 20189 58004=
200905101652 METAR KATL 101652Z 30010KT 10SM FEW055 SCT150 SCT250 26/12 A3012 RMK AO2 SLP191 T02560117=
200905101552 METAR KATL 101552Z 27004KT 10SM FEW035 BKN120 BKN250 23/14 A3012 RMK AO2 SLP193 T02330144=
200905101452 METAR KATL 101452Z 29006KT 10SM FEW025 SCT070 BKN120 23/16 A3013 RMK AO2 SLP193 T02280156 51015=
200905101352 METAR KATL 101352Z 31008KT 10SM SCT020 SCT150 BKN250 21/17 A3012 RMK AO2 SLP191 T02110167=
200905101252 METAR KATL 101252Z 27007KT 10SM FEW020 SCT150 BKN250 20/17 A3011 RMK AO2 SLP188 T02000172=
200905101152 METAR KATL 101152Z 25004KT 10SM FEW030 BKN150 BKN250 19/18 A3008 RMK AO2 SLP178 60003 70003 T01890178 10217 20183 53019=
200905101052 METAR KATL 101052Z 29005KT 10SM FEW023 SCT100 BKN200 19/18 A3006 RMK AO2 SLP171 T01890178=
200905100952 METAR KATL 100952Z 27003KT 10SM FEW010 SCT023 BKN100 OVC200 19/18 A3003 RMK AO2 SLP160 T01890183=
200905100921 SPECI KATL 100921Z 00000KT 10SM FEW010 SCT023 BKN100 19/19 A3002 RMK AO2=
200905100921 SPECI KATL 100921Z 00000KT 10SM FEW010 SCT023 BKN100 19/19 A3002 RMK AO2=
200905100859 SPECI KATL 100859Z 00000KT 10SM FEW010 BKN023 19/19 A3002 RMK AO2=
200905100859 SPECI KATL 100859Z 00000KT 10SM FEW010 BKN023 19/19 A3002 RMK AO2=
200905100852 METAR KATL 100852Z 28003KT 10SM BKN010 BKN100 OVC200 19/19 A3002 RMK AO2 SLP158 60003 T01940189 55003=
200905100752 METAR KATL 100752Z 00000KT 10SM BKN010 BKN110 OVC200 20/18 A2999 RMK AO2 PRESFR SLP147 T02000183=
200905100719 SPECI KATL 100719Z 24006G14KT 10SM BKN010 BKN020 BKN110 OVC200 20/19 A3002 RMK AO2=
200905100719 SPECI KATL 100719Z 24006G14KT 10SM BKN010 BKN020 BKN110 OVC200 20/19 A3002 RMK AO2=
200905100706 SPECI KATL 100706Z 25010KT 10SM FEW008 SCT020 SCT110 BKN200 20/19 A3004 RMK AO2 PRESRR=
200905100706 SPECI KATL 100706Z 25010KT 10SM FEW008 SCT020 SCT110 BKN200 20/19 A3004 RMK AO2 PRESRR=
200905100652 METAR KATL 100652Z VRB03KT 10SM FEW020 SCT045 BKN110 OVC200 20/19 A3000 RMK AO2 PK WND 32028/0606 WSHFT 0618 TSE18RAE33 SLP151 TS DSIPT P0003 T02000189=
200905100633 SPECI KATL 100633Z 32015G23KT 10SM SCT020 SCT047 BKN110 OVC200 21/19 A2999 RMK AO2 PK WND 32028/0606 WSHFT 0618 TSE18RAE33 TS DSIPT P0003=
200905100633 SPECI KATL 100633Z 32015G23KT 10SM SCT020 SCT047 BKN110 OVC200 21/19 A2999 RMK AO2 PK WND 32028/0606 WSHFT 0618 TSE18RAE33 TS DSIPT P0003=
200905100619 SPECI KATL 100619Z 36016KT 8SM -RA SCT020 BKN047 BKN110 OVC200 21/19 A2994 RMK AO2 PK WND 32028/0606 TSE18 PRESFR TS DSIPT P0003=
200905100619 SPECI KATL 100619Z 36016KT 8SM -RA SCT020 BKN047 BKN110 OVC200 21/19 A2994 RMK AO2 PK WND 32028/0606 TSE18 PRESFR TS DSIPT P0003=
200905100552 METAR KATL 100552Z 32020G26KT 10SM -TSRA BKN020CB BKN040 OVC200 22/19 A3003 RMK AO2 PK WND 32026/0551 TSB29RAB45 PRESFR SLP161 OCNL LTGICCG SW-W TS SW-W MOV E P0000 60000 T02170189 10250 20217 58006=
200905100544 SPECI KATL 100544Z 31016G22KT 10SM TS BKN020CB BKN040 OVC200 22/19 A3006 RMK AO2 TSB29 OCNL LTGICCG SW-W TS SW-W MOV E=
200905100544 SPECI KATL 100544Z 31016G22KT 10SM TS BKN020CB BKN040 OVC200 22/19 A3006 RMK AO2 TSB29 OCNL LTGICCG SW-W TS SW-W MOV E=
200905100530 SPECI KATL 100530Z 30011KT 10SM TS SCT020CB BKN040 OVC200 22/19 A3007 RMK AO2 TSB29 FRQ LTGICCG SW-W MOV E TS SW-W MOV E=
200905100530 SPECI KATL 100530Z 30011KT 10SM TS SCT020CB BKN040 OVC200 22/19 A3007 RMK AO2 TSB29 FRQ LTGICCG SW-W MOV E TS SW-W MOV E=
200905100452 METAR KATL 100452Z 28006KT 10SM BKN038 OVC200 22/19 A3006 RMK AO2 SLP172 OCNL DSNT LTG SW-W CB DSNT SW-W T02220194 402780194=
200905100352 METAR KATL 100352Z 29006KT 10SM FEW042 SCT055 BKN130 22/19 A3006 RMK AO2 SLP170 T02220194=
200905100252 METAR KATL 100252Z 29006KT 10SM FEW065 SCT150 BKN200 BKN250 23/19 A3005 RMK AO2 SLP167 T02280194 53013=
200905100152 METAR KATL 100152Z 29006KT 10SM SCT055 SCT080 SCT250 23/19 A3004 RMK AO2 SLP164 T02280189=
200905100052 METAR KATL 100052Z 26004KT 10SM FEW080 SCT150 SCT250 24/19 A3002 RMK AO2 SLP156 T02390189=
200905092352 METAR KATL 092352Z 27007KT 10SM FEW040 SCT060 SCT080 BKN250 25/19 A3001 RMK AO2 SLP155 60000 T02500189 10278 20239 53006=
200905092252 METAR KATL 092252Z 27007KT 10SM FEW040 BKN080 27/19 A2999 RMK AO2 SLP148 T02670189=
200905092152 METAR KATL 092152Z 24010KT 10SM FEW039 BKN060 BKN075 BKN150 27/18 A2999 RMK AO2 SLP147 T02670183=
200905092052 METAR KATL 092052Z 25013G20KT 10SM SCT039 BKN150 28/19 A2999 RMK AO2 SLP147 60000 T02780189 56019=
200905091952 METAR KATL 091952Z 26013KT 10SM SCT034 BKN150 27/19 A3000 RMK AO2 SLP149 T02720189=
200905091852 METAR KATL 091852Z 24010KT 9SM SCT026 SCT032 BKN055 26/19 A3003 RMK AO2 RAB23E38 PRESFR SLP158 P0000 T02560189=
200905091752 METAR KATL 091752Z 24011G19KT 10SM SCT028 BKN037 BKN046 24/18 A3005 RMK AO2 RAE1658 SLP167 P0000 60000 T02440183 10256 20200 58003=
200905091714 SPECI KATL 091714Z 26009KT 10SM FEW024 SCT028 BKN050 24/18 A3006 RMK AO2 RAE1658 P0000=
200905091714 SPECI KATL 091714Z 26009KT 10SM FEW024 SCT028 BKN050 24/18 A3006 RMK AO2 RAE1658 P0000=
200905091652 METAR KATL 091652Z 26013KT 9SM -RA SCT022 BKN028 BKN033 23/18 A3008 RMK AO2 RAB50 SLP178 SCT022V BKN P0000 T02330183=
200905091618 SPECI KATL 091618Z 24011G17KT 10SM BKN022 BKN031 BKN040 24/19 A3008 RMK AO2 BKN022V SCT=
200905091618 SPECI KATL 091618Z 24011G17KT 10SM BKN022 BKN031 BKN040 24/19 A3008 RMK AO2 BKN022V SCT=
200905091552 METAR KATL 091552Z 23013KT 10SM SCT021 BKN033 23/19 A3008 RMK AO2 SLP177 T02330189=
200905091518 SPECI KATL 091518Z 27011KT 10SM SCT021 BKN028 OVC032 22/18 A3008 RMK AO2=
200905091518 SPECI KATL 091518Z 27011KT 10SM SCT021 BKN028 OVC032 22/18 A3008 RMK AO2=
200905091452 METAR KATL 091452Z 26012KT 10SM BKN030 BKN150 23/19 A3006 RMK AO2 SLP170 BKN030V SCT T02330189 51015=
200905091352 METAR KATL 091352Z 26010G17KT 10SM BKN020 BKN200 22/18 A3005 RMK AO2 SLP168 T02220183=
200905091252 METAR KATL 091252Z 24011KT 10SM BKN020 BKN200 22/18 A3003 RMK AO2 SLP161 T02170183=
200905091236 SPECI KATL 091236Z 24008KT 9SM BKN020 BKN200 21/18 A3002 RMK AO2=
200905091236 SPECI KATL 091236Z 24008KT 9SM BKN020 BKN200 21/18 A3002 RMK AO2=
200905091152 METAR KATL 091152Z 25007KT 9SM SCT020 SCT200 20/18 A3001 RMK AO2 SLP155 T02000183 10217 20194 53019=
200905091114 SPECI KATL 091114Z 25007KT 8SM SCT020 SCT200 19/18 A3000 RMK AO2=
200905091114 SPECI KATL 091114Z 25007KT 8SM SCT020 SCT200 19/18 A3000 RMK AO2=
200905091102 SPECI KATL 091102Z 23005KT 8SM BKN020 BKN200 19/18 A2999 RMK AO2=
200905091102 SPECI KATL 091102Z 23005KT 8SM BKN020 BKN200 19/18 A2999 RMK AO2=
200905091052 METAR KATL 091052Z 24005KT 8SM SCT019 SCT200 19/18 A2999 RMK AO2 SLP147 T01940178=
200905090959 SPECI KATL 090959Z 22005KT 9SM SCT017 SCT200 19/18 A2997 RMK AO2=
200905090959 SPECI KATL 090959Z 22005KT 9SM SCT017 SCT200 19/18 A2997 RMK AO2=
200905090952 METAR KATL 090952Z 23006KT 10SM BKN015 BKN200 19/18 A2997 RMK AO2 SLP141 T01940178=
200905090924 SPECI KATL 090924Z 24006KT 10SM BKN015 19/18 A2997 RMK AO2=
200905090924 SPECI KATL 090924Z 24006KT 10SM BKN015 19/18 A2997 RMK AO2=
200905090852 METAR KATL 090852Z 24006KT 10SM FEW015 20/18 A2996 RMK AO2 SLP135 T02000178 53003=
200905090752 METAR KATL 090752Z 25006KT 10SM CLR 21/18 A2995 RMK AO2 SLP132 T02060178=
200905090652 METAR KATL 090652Z 23008KT 10SM CLR 21/18 A2994 RMK AO2 SLP131 T02110178=
200905090552 METAR KATL 090552Z 24007KT 10SM FEW250 22/18 A2995 RMK AO2 SLP133 T02170178 10250 20217 55002=
200905090452 METAR KATL 090452Z 22009KT 10SM FEW250 22/18 A2994 RMK AO2 SLP131 T02170183 402780200=
200905090352 METAR KATL 090352Z 23005KT 10SM SCT250 22/19 A2996 RMK AO2 SLP136 T02220189=
200905090252 METAR KATL 090252Z 21007KT 10SM FEW200 BKN250 23/19 A2995 RMK AO2 SLP135 T02280189 51003=
200905090152 METAR KATL 090152Z 20007KT 10SM SCT200 BKN250 23/19 A2995 RMK AO2 SLP134 T02280194=
200905090052 METAR KATL 090052Z 21004KT 10SM SCT200 BKN250 24/19 A2995 RMK AO2 SLP134 T02390194=
200905082352 METAR KATL 082352Z 21004KT 10SM FEW200 BKN250 26/19 A2995 RMK AO2 SLP131 T02560194 10278 20233 51007=
200905082252 METAR KATL 082252Z 24007KT 10SM FEW040 OVC250 27/18 A2994 RMK AO2 SLP130 T02670183=
200905082152 METAR KATL 082152Z 25012KT 10SM SCT045 OVC250 28/18 A2994 RMK AO2 SLP128 T02780178=
200905082052 METAR KATL 082052Z 20012KT 10SM FEW030 SCT040 SCT250 27/20 A2993 RMK AO2 SLP124 T02720200 56023=
200905081952 METAR KATL 081952Z 22010KT 10SM FEW024 SCT030 SCT250 26/21 A2995 RMK AO2 SLP132 T02610206=
200905081924 SPECI KATL 081924Z 21010KT 10SM FEW015 SCT021 SCT025 26/21 A2996 RMK AO2=
200905081924 SPECI KATL 081924Z 21010KT 10SM FEW015 SCT021 SCT025 26/21 A2996 RMK AO2=
200905081852 METAR KATL 081852Z 22009KT 9SM FEW014 BKN023 BKN030 24/21 A2997 RMK AO2 SLP140 T02440211=
200905081752 METAR KATL 081752Z 22008KT 9SM BKN016 OVC023 24/21 A3000 RMK AO2 SLP150 T02390206 10239 20211 50008=
200905081727 SPECI KATL 081727Z 24010KT 9SM BKN016 OVC023 24/21 A3000 RMK AO2=
200905081727 SPECI KATL 081727Z 24010KT 9SM BKN016 OVC023 24/21 A3000 RMK AO2=
200905081652 METAR KATL 081652Z 23007KT 9SM OVC012 23/21 A3000 RMK AO2 SLP151 T02330206=
200905081552 METAR KATL 081552Z 22008KT 6SM BR BKN012 OVC015 23/21 A2998 RMK AO2 SLP143 T02280206=
200905081542 SPECI KATL 081542Z 23006KT 3SM BR OVC011 23/21 A2998 RMK AO2 SFC VIS 6=
200905081542 SPECI KATL 081542Z 23006KT 3SM BR OVC011 23/21 A2998 RMK AO2 SFC VIS 6=
200905081452 METAR KATL 081452Z 22006KT 3SM BR OVC007 22/20 A2997 RMK AO2 SFC VIS 6 SLP141 T02170200 51012=
200905081409 SPECI KATL 081409Z 22009KT 3SM BR OVC005 21/20 A2996 RMK AO2 SFC VIS 5 CIG 005V008=
200905081409 SPECI KATL 081409Z 22009KT 3SM BR OVC005 21/20 A2996 RMK AO2 SFC VIS 5 CIG 005V008=
200905081352 METAR KATL 081352Z 22008KT 3SM BR OVC009 22/20 A2996 RMK AO2 SFC VIS 6 CIG 006V011 SLP139 T02170200=
200905081252 METAR KATL 081252Z 23005KT 3SM BR BKN007 BKN010 21/19 A2997 RMK AO2 SFC VIS 5 SLP139 T02110194=
200905081152 METAR KATL 081152Z 22008KT 3SM BR BKN007 OVC010 21/19 A2994 RMK AO2 SFC VIS 5 SLP128 70004 T02110194 10211 20200 53001=
200905081117 SPECI KATL 081117Z 23006KT 3SM BR OVC007 21/19 A2994 RMK AO2 SFC VIS 5=
200905081117 SPECI KATL 081117Z 23006KT 3SM BR OVC007 21/19 A2994 RMK AO2 SFC VIS 5=
200905081052 METAR KATL 081052Z 24007KT 3SM BR BKN004 OVC009 21/19 A2994 RMK AO2 SFC VIS 5 SLP129 T02060194=
200905080952 METAR KATL 080952Z 24006KT 3SM BR OVC004 21/20 A2993 RMK AO2 SFC VIS 4 CIG 003V007 SLP126 T02060200=
200905080914 SPECI KATL 080914Z 24006KT 3SM BR OVC004 21/20 A2994 RMK AO2 SFC VIS 5=
200905080914 SPECI KATL 080914Z 24006KT 3SM BR OVC004 21/20 A2994 RMK AO2 SFC VIS 5=
200905080852 METAR KATL 080852Z 25005KT 1SM BR OVC002 21/20 A2993 RMK AO2 SFC VIS 4 SLP127 T02060200 55006=
200905080752 METAR KATL 080752Z 25005KT 1SM BR OVC004 21/20 A2992 RMK AO2 SFC VIS 6 SLP123 T02060200=
200905080742 SPECI KATL 080742Z 24005KT 1SM BR OVC004 20/19 A2992 RMK AO2 SFC VIS 6=
200905080742 SPECI KATL 080742Z 24005KT 1SM BR OVC004 20/19 A2992 RMK AO2 SFC VIS 6=
200905080712 SPECI KATL 080712Z 22005KT 6SM BR BKN004 20/19 A2993 RMK AO2=
200905080712 SPECI KATL 080712Z 22005KT 6SM BR BKN004 20/19 A2993 RMK AO2=
200905080652 METAR KATL 080652Z 24005KT 6SM BR FEW060 20/19 A2994 RMK AO2 SLP129 T02000194=
200905080552 METAR KATL 080552Z 25006KT 6SM BR CLR 21/19 A2995 RMK AO2 SLP133 T02060194 10250 20206 58006=
200905080452 METAR KATL 080452Z 24008KT 10SM CLR 21/20 A2996 RMK AO2 SLP135 T02110200 402780189=
200905080352 METAR KATL 080352Z 22005KT 10SM CLR 21/20 A2997 RMK AO2 SLP141 T02110200=
200905080252 METAR KATL 080252Z 23006KT 10SM SCT040 22/20 A2997 RMK AO2 SLP141 T02220200 51015=
200905080152 METAR KATL 080152Z 24004KT 10SM SCT042 BKN060 23/19 A2996 RMK AO2 SLP138 T02280189=
200905080052 METAR KATL 080052Z 23004KT 10SM FEW035 23/18 A2995 RMK AO2 SLP132 T02280183=
200905072352 METAR KATL 072352Z 26005KT 10SM FEW040 25/17 A2993 RMK AO2 SLP125 TCU DSNT SE 60004 T02500172 10278 20233 53000=
200905072252 METAR KATL 072252Z 27007KT 10SM FEW025 SCT050 26/19 A2992 RMK AO2 SLP122 TCU DSNT SE T02610194=
200905072152 METAR KATL 072152Z 21003KT 10SM FEW030 SCT045 BKN110 25/20 A2992 RMK AO2 RAB2055E31 SLP124 CB DSNT SE TCU DSNT NE-E AND SW P0004 T02500200=
200905072115 SPECI KATL 072115Z 21005KT 10SM -RA FEW020CB SCT045 SCT060 23/19 A2991 RMK AO2 RAB2055 VIS LWR E-SE-S-SW-W SHRA CB E-SE-S-SW-W MOV E P0004=
200905072115 SPECI KATL 072115Z 21005KT 10SM -RA FEW020CB SCT045 SCT060 23/19 A2991 RMK AO2 RAB2055 VIS LWR E-SE-S-SW-W SHRA CB E-SE-S-SW-W MOV E P0004=
200905072052 METAR KATL 072052Z 32008KT 10SM SCT045CB BKN060 BKN110 26/18 A2993 RMK AO2 SLP125 CB NE-E & W MOV E TCU DSNT E SHRA E & W 60000 T02560178 56008=
200905072007 SPECI KATL 072007Z 24010G15KT 10SM FEW045CB SCT070 SCT090 27/19 A2992 RMK AO2 CB NW MOV E CB DSNT E SHRA NW=
200905072007 SPECI KATL 072007Z 24010G15KT 10SM FEW045CB SCT070 SCT090 27/19 A2992 RMK AO2 CB NW MOV E CB DSNT E SHRA NW=
200905071952 METAR KATL 071952Z 30009KT 10SM FEW045CB SCT070 BKN090 27/19 A2993 RMK AO2 RAB23E43 SLP126 CB E MOV E TCU DSNT W & NW SHRA E P0000 T02720194=
200905071927 SPECI KATL 071927Z 26007KT 9SM -RA SCT045CB SCT055TCU BKN075 26/18 A2994 RMK AO2 RAB23 CB OHD MOV E TCU NE P0000=
200905071927 SPECI KATL 071927Z 26007KT 9SM -RA SCT045CB SCT055TCU BKN075 26/18 A2994 RMK AO2 RAB23 CB OHD MOV E TCU NE P0000=
200905071922 SPECI KATL 071922Z 27010KT 10SM BKN048TCU BKN090 27/18 A2994 RMK AO2 TCU NE & OHD-W-NW SHRA NE & W=
200905071922 SPECI KATL 071922Z 27010KT 10SM BKN048TCU BKN090 27/18 A2994 RMK AO2 TCU NE & OHD-W-NW SHRA NE & W=
200905071852 SPECI KATL 071852Z 24010G19KT 10SM SCT044TCU 27/18 A2995 RMK AO2 SLP131 TCU NE & NW T02720178=
200905071752 METAR KATL 071752Z 23009G19KT 10SM SCT039 SCT200 27/18 A2995 RMK AO2 SLP134 T02670183 10267 20200 58010=
200905071652 METAR KATL 071652Z 24010KT 10SM FEW034TCU SCT050 26/18 A2997 RMK AO2 SLP140 TCU NW T02610183=
200905071552 METAR KATL 071552Z 21007KT 10SM FEW020TCU BKN050 24/19 A2997 RMK AO2 SLP143 TCU NE & NW T02440194=
200905071452 METAR KATL 071452Z 20009KT 10SM SCT015 SCT020 23/20 A2998 RMK AO2 SLP146 T02330200 56004=
200905071449 SPECI KATL 071449Z 20008KT 10SM SCT015 SCT020 23/20 A2998 RMK AO2=
200905071449 SPECI KATL 071449Z 20008KT 10SM SCT015 SCT020 23/20 A2998 RMK AO2=
200905071424 SPECI KATL 071424Z VRB06KT 10SM SCT013 BKN019 BKN049 23/19 A2999 RMK AO2=
200905071424 SPECI KATL 071424Z VRB06KT 10SM SCT013 BKN019 BKN049 23/19 A2999 RMK AO2=
200905071352 METAR KATL 071352Z 22007KT 10SM BKN013 BKN018 BKN050 22/19 A2999 RMK AO2 SLP147 T02220194=
200905071252 METAR KATL 071252Z 23005KT 6SM BR SCT007 BKN100 21/19 A3000 RMK AO2 SLP151 T02110194=
200905071247 SPECI KATL 071247Z 24006KT 6SM BR SCT007 BKN100 21/19 A2999 RMK AO2=
200905071247 SPECI KATL 071247Z 24006KT 6SM BR SCT007 BKN100 21/19 A2999 RMK AO2=
200905071224 SPECI KATL 071224Z 23008KT 6SM BR BKN007 BKN011 20/19 A2999 RMK AO2=
200905071224 SPECI KATL 071224Z 23008KT 6SM BR BKN007 BKN011 20/19 A2999 RMK AO2=
200905071152 METAR KATL 071152Z 23004KT 6SM BR SCT007 BKN050 BKN090 20/19 A2997 RMK AO2 SLP144 60011 70056 T02000189 10200 20189 53003=
200905071052 METAR KATL 071052Z 23003KT 6SM BR BKN013 OVC023 19/19 A2997 RMK AO2 RAE28 SLP141 P0001 T01940189=
200905071035 SPECI KATL 071035Z 22004KT 6SM BR BKN013 BKN023 OVC095 19/19 A2996 RMK AO2 RAE28 P0001=
200905071035 SPECI KATL 071035Z 22004KT 6SM BR BKN013 BKN023 OVC095 19/19 A2996 RMK AO2 RAE28 P0001=
200905071011 SPECI KATL 071011Z 24004KT 6SM -RA BR SCT014 BKN060 OVC110 19/18 A2997 RMK AO2 P0000=
200905071011 SPECI KATL 071011Z 24004KT 6SM -RA BR SCT014 BKN060 OVC110 19/18 A2997 RMK AO2 P0000=
200905070952 METAR KATL 070952Z 24006KT 6SM -RA BR BKN004 BKN017 OVC023 19/18 A2997 RMK AO2 CIG 003V008 SLP141 P0005 T01940183=
200905070945 SPECI KATL 070945Z 24004KT 6SM -RA BR BKN004 OVC008 19/18 A2996 RMK AO2 P0005=
200905070945 SPECI KATL 070945Z 24004KT 6SM -RA BR BKN004 OVC008 19/18 A2996 RMK AO2 P0005=
200905070852 METAR KATL 070852Z 00000KT 5SM -RA BR BKN006 OVC010 19/18 A2997 RMK AO2 SLP141 P0005 60005 T01890183 53002=
200905070816 SPECI KATL 070816Z 00000KT 6SM BR BKN008 BKN010 OVC060 19/18 A2996 RMK AO2 RAE13 P0000=
200905070816 SPECI KATL 070816Z 00000KT 6SM BR BKN008 BKN010 OVC060 19/18 A2996 RMK AO2 RAE13 P0000=
200905070752 METAR KATL 070752Z 28004KT 6SM -RA BR BKN010 BKN029 OVC060 19/18 A2996 RMK AO2 RAB27 SLP139 P0000 T01890178=
200905070727 SPECI KATL 070727Z 29004KT 10SM -RA BKN013 BKN029 OVC060 19/18 A2996 RMK AO2 RAB27 P0000=
200905070727 SPECI KATL 070727Z 29004KT 10SM -RA BKN013 BKN029 OVC060 19/18 A2996 RMK AO2 RAB27 P0000=
200905070652 METAR KATL 070652Z 25006KT 7SM FEW060 BKN110 OVC250 19/18 A2996 RMK AO2 SLP141 T01890178=
200905070552 METAR KATL 070552Z 21009KT 10SM BKN085 BKN120 19/18 A2996 RMK AO2 SLP137 T01890178 10194 20189 58009=
200905070452 METAR KATL 070452Z 22006KT 10SM FEW005 BKN120 BKN250 19/18 A2997 RMK AO2 SLP141 T01890178 402500183=
200905070352 METAR KATL 070352Z 22008KT 10SM SCT007 BKN095 OVC120 19/18 A2999 RMK AO2 SLP147 T01890183=
200905070318 SPECI KATL 070318Z 22006KT 10SM SCT007 OVC110 19/18 A2998 RMK AO2=
200905070318 SPECI KATL 070318Z 22006KT 10SM SCT007 OVC110 19/18 A2998 RMK AO2=
200905070252 METAR KATL 070252Z 21009KT 10SM BKN007 OVC110 19/18 A2999 RMK AO2 SLP147 CIG 005V009 T01940183 53010=
200905070152 METAR KATL 070152Z 20009KT 10SM OVC006 19/18 A2997 RMK AO2 SLP143 T01940183=
200905070059 SPECI KATL 070059Z 18010KT 10SM BKN007 OVC100 19/18 A2996 RMK AO2=
200905070059 SPECI KATL 070059Z 18010KT 10SM BKN007 OVC100 19/18 A2996 RMK AO2=
200905070052 METAR KATL 070052Z 19009KT 10SM SCT007 BKN100 OVC250 19/18 A2996 RMK AO2 SLP140 SCT007 V BKN T01940183=
200905070030 SPECI KATL 070030Z 20008KT 10SM SCT008 BKN100 OVC200 19/18 A2996 RMK AO2=
200905070030 SPECI KATL 070030Z 20008KT 10SM SCT008 BKN100 OVC200 19/18 A2996 RMK AO2=
200905070021 SPECI KATL 070021Z 20011G17KT 10SM BKN008 BKN100 OVC200 19/18 A2996 RMK AO2=
200905070021 SPECI KATL 070021Z 20011G17KT 10SM BKN008 BKN100 OVC200 19/18 A2996 RMK AO2=
200905062352 METAR KATL 062352Z 20011KT 10SM FEW005 BKN100 BKN150 OVC200 19/18 A2995 RMK AO2 RAE27 SLP137 P0001 60045 T01940183 10250 20183 57002=
200905062252 METAR KATL 062252Z 20011KT 10SM -RA FEW060 BKN110 OVC150 21/18 A2996 RMK AO2 RAB49 SLP137 P0000 T02060183=
200905062152 METAR KATL 062152Z 20013KT 10SM FEW070 BKN110 BKN150 OVC200 22/18 A2996 RMK AO2 SLP138 T02170183=
200905062052 METAR KATL 062052Z 21010KT 10SM FEW070 BKN150 OVC250 21/18 A2996 RMK AO2 RAE17 SLP139 VIRGA DSNT NE-E-SE P0000 60044 T02060183 58025=
200905061952 METAR KATL 061952Z 21011KT 10SM -RA FEW020 SCT070 BKN150 BKN250 19/17 A2999 RMK AO2 TSE24 SLP150 TS MOV NE VIRGA DSNT NW CB DSNT NE-E-SE P0041 T01890172=
200905061925 SPECI KATL 061925Z 24010G16KT 6SM -RA BR BKN027 BKN040 OVC150 18/17 A3002 RMK AO2 TSE24 FRQ LTG DSNT NE-E-SE TS MOV NE CB DSNT NE-E-SE P0040=
200905061925 SPECI KATL 061925Z 24010G16KT 6SM -RA BR BKN027 BKN040 OVC150 18/17 A3002 RMK AO2 TSE24 FRQ LTG DSNT NE-E-SE TS MOV NE CB DSNT NE-E-SE P0040=
200905061908 SPECI KATL 061908Z 23011G18KT 6SM -TSRA FEW009CB BKN018 BKN040 OVC150 18/17 A3002 RMK AO2 FRQ LTGICCG NE-E-SE TS NE-E-SE MOV NE P0036=
200905061908 SPECI KATL 061908Z 23011G18KT 6SM -TSRA FEW009CB BKN018 BKN040 OVC150 18/17 A3002 RMK AO2 FRQ LTGICCG NE-E-SE TS NE-E-SE MOV NE P0036=
200905061900 SPECI KATL 061900Z 25007G26KT 1SM R09R/2600V5500FT TSRA BKN009CB BKN040 OVC070 18/17 A3003 RMK AO2 SFC VIS 1 1/2 FRQ LTGICCG OHD-NE-E-SE TS OHD-NE-E-SE MOV NE P0026=
200905061900 SPECI KATL 061900Z 25007G26KT 1SM R09R/2600V5500FT TSRA BKN009CB BKN040 OVC070 18/17 A3003 RMK AO2 SFC VIS 1 1/2 FRQ LTGICCG OHD-NE-E-SE TS OHD-NE-E-SE MOV NE P0026=
200905061855 SPECI KATL 061855Z 26014G34KT 1/2SM R09R/2600VP6000FT +TSRA FG BKN009CB OVC038 18/17 A3003 RMK AO2 TWR VIS 1 FRQ LTGICCG OHD TS OHD MOV NE P0012=
200905061855 SPECI KATL 061855Z 26014G34KT 1/2SM R09R/2600VP6000FT +TSRA FG BKN009CB OVC038 18/17 A3003 RMK AO2 TWR VIS 1 FRQ LTGICCG OHD TS OHD MOV NE P0012=
200905061852 METAR KATL 061852Z 27018G34KT 1SM R09R/2600VP6000FT +TSRA BR BKN020CB OVC040 19/17 A3004 RMK AO2 PK WND 28034/1847 TSB37RAB47 PRESRR SLP165 FRQ LTGICCG OHD TS OHD MOV NE P0003 T01890167=
200905061837 SPECI KATL 061837Z 22012G20KT 10SM TS FEW025CB SCT070 BKN150 OVC250 24/18 A3000 RMK AO2 TSB37 FRQ LTGICCG SW-W-NW TS SW-W-NW MOV NE CBMAM OHD & ALQDS=
200905061837 SPECI KATL 061837Z 22012G20KT 10SM TS FEW025CB SCT070 BKN150 OVC250 24/18 A3000 RMK AO2 TSB37 FRQ LTGICCG SW-W-NW TS SW-W-NW MOV NE CBMAM OHD & ALQDS=
200905061823 SPECI KATL 061823Z 22015G22KT 10SM FEW037 SCT070 BKN150 BKN250 24/18 A2999 RMK AO2 FRQ LTG DSNT SW-W CB DSNT SW-W-NW CBMAM DSNT=
200905061823 SPECI KATL 061823Z 22015G22KT 10SM FEW037 SCT070 BKN150 BKN250 24/18 A2999 RMK AO2 FRQ LTG DSNT SW-W CB DSNT SW-W-NW CBMAM DSNT SW-W SHRA DSNT SW-W-NW=
200905061752 METAR KATL 061752Z 24012G21KT 10SM FEW030TCU SCT050 SCT070 OVC150 25/18 A3001 RMK AO2 RAB18E28 SLP152 TCU NE & E P0000 60000 T02500183 10250 20194 56007=
200905061652 METAR KATL 061652Z 20013G18KT 10SM FEW030TCU BKN065 BKN250 25/19 A3001 RMK AO2 SLP154 TCU NE & W T02500194=
200905061552 METAR KATL 061552Z 18015G22KT 10SM SCT020 BKN030 BKN150 BKN250 24/19 A2999 RMK AO2 SLP148 T02390189=
200905061542 SPECI KATL 061542Z 19018KT 10SM SCT020 BKN030 BKN150 24/19 A2999 RMK AO2=
200905061542 SPECI KATL 061542Z 19018KT 10SM SCT020 BKN030 BKN150 24/19 A2999 RMK AO2=
200905061452 METAR KATL 061452Z 20011G16KT 10SM BKN015 BKN030 OVC150 23/19 A3003 RMK AO2 SLP160 T02280194 53008=
200905061352 METAR KATL 061352Z 19005KT 9SM FEW015 SCT019 BKN035 BKN150 22/19 A3001 RMK AO2 SLP153 T02170194=
200905061326 SPECI KATL 061326Z 19008KT 8SM SCT011 BKN017 OVC024 21/19 A3002 RMK AO2=
200905061326 SPECI KATL 061326Z 19008KT 8SM SCT011 BKN017 OVC024 21/19 A3002 RMK AO2=
200905061320 SPECI KATL 061320Z 21005KT 7SM BKN011 OVC017 21/19 A3002 RMK AO2 CIG 008V012=
200905061320 SPECI KATL 061320Z 21005KT 7SM BKN011 OVC017 21/19 A3002 RMK AO2 CIG 008V012=
200905061252 METAR KATL 061252Z 22007KT 6SM BR BKN007 OVC012 21/19 A3002 RMK AO2 SLP158 T02060194=
200905061152 METAR KATL 061152Z 21009KT 6SM BR BKN005 OVC009 19/19 A3000 RMK AO2 SLP151 T01940189 10200 20189 53012=
200905061052 METAR KATL 061052Z 20007KT 6SM BR BKN005 OVC009 19/18 A2998 RMK AO2 SLP143 T01890183=
200905060952 METAR KATL 060952Z 19007KT 7SM BKN005 BKN009 BKN085 OVC250 19/18 A2997 RMK AO2 SLP139 T01890178=
200905060852 METAR KATL 060852Z 20005KT 6SM BR SCT007 BKN075 OVC085 19/18 A2997 RMK AO2 SLP140 T01890178 55007=
200905060835 SPECI KATL 060835Z 20006KT 6SM BR SCT007 BKN075 BKN085 19/18 A2997 RMK AO2=
200905060835 SPECI KATL 060835Z 20006KT 6SM BR SCT007 BKN075 BKN085 19/18 A2997 RMK AO2=
200905060752 METAR KATL 060752Z 19006KT 6SM BR BKN007 OVC065 19/18 A2996 RMK AO2 SLP138 T01890183=
200905060702 SPECI KATL 060702Z 21010KT 8SM BKN007 BKN065 OVC080 19/18 A2997 RMK AO2=
200905060702 SPECI KATL 060702Z 21010KT 8SM BKN007 BKN065 OVC080 19/18 A2997 RMK AO2=
200905060652 METAR KATL 060652Z 20011KT 8SM FEW007 BKN070 BKN080 OVC250 19/18 A2998 RMK AO2 SLP143 T01940178=
200905060552 METAR KATL 060552Z 00000KT 10SM SCT055 BKN150 OVC250 20/18 A2999 RMK AO2 SLP147 T02000178 10244 20194 58004=
200905060452 METAR KATL 060452Z 20006KT 10SM FEW150 BKN200 OVC250 21/18 A3000 RMK AO2 SLP152 T02060178 402670178=
200905060352 METAR KATL 060352Z 19005KT 10SM SCT065 BKN150 OVC250 21/17 A3001 RMK AO2 SLP154 T02110167=
200905060252 METAR KATL 060252Z 00000KT 10SM FEW070 SCT150 OVC250 22/16 A3000 RMK AO2 SLP152 T02220161 51009=
200905060152 METAR KATL 060152Z 23004KT 10SM FEW120 OVC150 23/16 A3000 RMK AO2 SLP152 T02280161=
200905060052 METAR KATL 060052Z 24004KT 10SM OVC110 23/16 A3000 RMK AO2 SLP152 T02330161=
200905052352 METAR KATL 052352Z 25006KT 10SM FEW050 BKN100 BKN250 24/16 A2998 RMK AO2 SLP143 T02440161 10267 20244 53007=
200905052252 METAR KATL 052252Z 27008KT 10SM FEW050 SCT090 BKN250 26/16 A2996 RMK AO2 SLP138 T02560161=
200905052152 METAR KATL 052152Z 26012G16KT 10SM SCT050 SCT250 27/16 A2996 RMK AO2 SLP135 T02670161=
200905052052 METAR KATL 052052Z 29011KT 10SM SCT050 SCT060 26/16 A2995 RMK AO2 SLP135 T02560161 56016=
200905051952 METAR KATL 051952Z 29009G19KT 10SM FEW040 SCT065 SCT200 27/17 A2996 RMK AO2 SLP138 CB DSNT SE T02670172=
200905051852 METAR KATL 051852Z 23007G19KT 10SM FEW035 SCT065 26/18 A2998 RMK AO2 SLP145 T02610183=
200905051752 METAR KATL 051752Z 26011G18KT 10SM FEW040 BKN065 BKN200 24/17 A3000 RMK AO2 SLP152 CB DSNT SE & W SHRA DSNT W T02440172 10261 20189 58009=
200905051652 METAR KATL 051652Z 26008KT 10SM FEW028TCU BKN048 BKN200 24/18 A3002 RMK AO2 SLP157 TCU W-NW-N T02390178=
200905051552 METAR KATL 051552Z 28008KT 10SM SCT025 SCT050 BKN200 24/19 A3002 RMK AO2 SLP160 T02390189=
200905051452 METAR KATL 051452Z 24006KT 10SM FEW015 SCT050 SCT150 BKN200 22/19 A3003 RMK AO2 SLP161 T02220189 51006=
200905051413 SPECI KATL 051413Z 27005KT 9SM FEW012 BKN050 BKN150 21/18 A3003 RMK AO2=
200905051413 SPECI KATL 051413Z 27005KT 9SM FEW012 BKN050 BKN150 21/18 A3003 RMK AO2=
200905051352 METAR KATL 051352Z 24008KT 9SM BKN010 BKN065 BKN150 21/18 A3003 RMK AO2 SLP161 T02060178=
200905051322 SPECI KATL 051322Z 25006KT 10SM BKN010 OVC065 20/18 A3002 RMK AO2=
200905051322 SPECI KATL 051322Z 25006KT 10SM BKN010 OVC065 20/18 A3002 RMK AO2=
200905051252 METAR KATL 051252Z 25005KT 6SM BR BKN008 BKN060 19/18 A3002 RMK AO2 SLP159 T01940178=
200905051152 METAR KATL 051152Z 25006KT 6SM BR BKN008 OVC060 19/18 A3001 RMK AO2 CIG 006V010 SLP156 60000 70027 T01890178 10189 20178 53020=
200905051121 SPECI KATL 051121Z 24005KT 6SM BR FEW006 SCT070 BKN250 18/18 A2998 RMK AO2=
200905051121 SPECI KATL 051121Z 24005KT 6SM BR FEW006 SCT070 BKN250 18/18 A2998 RMK AO2=
200905051052 METAR KATL 051052Z 24006KT 6SM BR FEW019 SCT060 BKN250 18/18 A2998 RMK AO2 SLP144 T01830178=
200905050952 METAR KATL 050952Z 22008KT 6SM BR SCT004 BKN017 18/18 A2996 RMK AO2 SLP138 T01830178=
200905050852 METAR KATL 050852Z 22006KT 6SM BR SCT009 OVC017 18/18 A2995 RMK AO2 SLP134 60000 T01830178 56008=
200905050831 SPECI KATL 050831Z 22006KT 7SM BKN009 OVC013 19/18 A2995 RMK AO2=
200905050831 SPECI KATL 050831Z 22006KT 7SM BKN009 OVC013 19/18 A2995 RMK AO2=
200905050752 METAR KATL 050752Z 21005KT 7SM BKN013 OVC020 18/18 A2995 RMK AO2 SLP137 T01830178=
200905050652 METAR KATL 050652Z 19009KT 7SM FEW005 BKN018 OVC150 18/18 A2995 RMK AO2 RAB0557E12 SLP136 P0000 T01830178=
200905050552 METAR KATL 050552Z 18005KT 10SM OVC022 19/17 A2997 RMK AO2 SLP143 60003 T01890172 10217 20189 58003=
200905050452 METAR KATL 050452Z 18005KT 10SM SCT027 BKN032 OVC040 19/18 A2998 RMK AO2 RAE0358 SLP146 P0000 T01890178 402390167=
200905050352 METAR KATL 050352Z 20008KT 9SM -RA FEW030CB BKN038 OVC060 19/18 A2999 RMK AO2 RAB39 SLP149 CB NE-SE MOV NE P0003 T01940178=
200905050252 METAR KATL 050252Z 18003KT 10SM SCT035 BKN080 BKN110 OVC200 20/17 A2998 RMK AO2 SLP146 T02000172 53016=
200905050152 METAR KATL 050152Z 00000KT 10SM FEW060 BKN080 OVC110 20/17 A2996 RMK AO2 SLP141 T02000167=
200905050052 METAR KATL 050052Z 21006KT 10SM FEW050 BKN060 BKN200 21/17 A2995 RMK AO2 SLP135 T02060167=
200905042352 METAR KATL 042352Z 22007KT 10SM FEW035 BKN050 BKN200 22/17 A2993 RMK AO2 SLP130 T02170167 10239 20211 58003=
200905042252 METAR KATL 042252Z 22009KT 10SM FEW038 BKN050 OVC200 22/16 A2994 RMK AO2 SLP132 T02220161=
200905042152 METAR KATL 042152Z 21013KT 10SM SCT038 BKN055 BKN200 23/16 A2994 RMK AO2 SLP131 T02330156=
200905042052 METAR KATL 042052Z 21011G19KT 10SM FEW030 SCT045 SCT070 BKN200 23/16 A2994 RMK AO2 SLP133 SHRA DSNT N T02330161 58011=
200905041952 METAR KATL 041952Z 20012KT 10SM FEW020 SCT040 SCT070 BKN200 23/17 A2995 RMK AO2 SLP134 T02280172=
200905041852 METAR KATL 041852Z 22010G18KT 10SM FEW025 SCT040 OVC050 22/17 A2997 RMK AO2 SLP143 T02170172=
200905041807 SPECI KATL 041807Z 18009KT 10SM SCT020 BKN030 OVC045 22/18 A2997 RMK AO2=
200905041807 SPECI KATL 041807Z 18009KT 10SM SCT020 BKN030 OVC045 22/18 A2997 RMK AO2=
200905041752 METAR KATL 041752Z 18008KT 10SM FEW015 BKN020 BKN030 OVC150 21/18 A2998 RMK AO2 SLP144 60024 T02110183 10211 20167 58011=
200905041655 SPECI KATL 041655Z 13006KT 10SM FEW012 BKN025 BKN080 OVC150 21/18 A3000 RMK AO2=
200905041655 SPECI KATL 041655Z 13006KT 10SM FEW012 BKN025 BKN080 OVC150 21/18 A3000 RMK AO2=
200905041652 METAR KATL 041652Z 14007KT 10SM SCT012 BKN030 BKN080 OVC150 20/18 A2999 RMK AO2 SLP151 T02000178=
200905041641 SPECI KATL 041641Z 16010KT 10SM SCT013 BKN028 OVC080 20/18 A3000 RMK AO2=
200905041641 SPECI KATL 041641Z 16010KT 10SM SCT013 BKN028 OVC080 20/18 A3000 RMK AO2=
200905041612 SPECI KATL 041612Z 14005KT 10SM SCT015 BKN043 OVC070 20/18 A3001 RMK AO2=
200905041612 SPECI KATL 041612Z 14005KT 10SM SCT015 BKN043 OVC070 20/18 A3001 RMK AO2=
200905041552 METAR KATL 041552Z 17004KT 10SM FEW010 BKN024 BKN085 OVC150 20/17 A3001 RMK AO2 SLP157 T02000172=
200905041526 SPECI KATL 041526Z 15003KT 10SM FEW010 BKN024 BKN085 OVC150 20/17 A3001 RMK AO2=
200905041526 SPECI KATL 041526Z 15003KT 10SM FEW010 BKN024 BKN085 OVC150 20/17 A3001 RMK AO2=
200905041452 METAR KATL 041452Z 10004KT 10SM FEW010 SCT040 SCT100 BKN150 BKN250 20/18 A3001 RMK AO2 SLP157 60024 T02000178 50004 $=
200905041352 METAR KATL 041352Z 00000KT 9SM FEW005 SCT020 SCT100 BKN150 18/17 A3003 RMK AO2 RAE17 SLP163 P0001 T01780167 $=
200905041305 SPECI KATL 041305Z 00000KT 6SM -RA BR FEW004 SCT021 BKN085 BKN150 17/17 A3002 RMK AO2 P0001 $=
200905041305 SPECI KATL 041305Z 00000KT 6SM -RA BR FEW004 SCT021 BKN085 BKN150 17/17 A3002 RMK AO2 P0001 $=
200905041252 METAR KATL 041252Z 26003KT 6SM -RA BR SCT004 BKN024 BKN090 17/16 A3003 RMK AO2 SLP163 P0023 T01670161 $=
200905041244 SPECI KATL 041244Z 24004KT 7SM -RA FEW001 BKN004 BKN012 17/16 A3003 RMK AO2 P0023 $=
200905041244 SPECI KATL 041244Z 24004KT 7SM -RA FEW001 BKN004 BKN012 17/16 A3003 RMK AO2 P0023 $=
200905041231 SPECI KATL 041231Z 21005KT 2SM RA BR FEW001 BKN004 OVC029 17/16 A3003 RMK AO2 SFC VIS 3 P0021 $=
200905041231 SPECI KATL 041231Z 21005KT 2SM RA BR FEW001 BKN004 OVC029 17/16 A3003 RMK AO2 SFC VIS 3 P0021 $=
200905041213 SPECI KATL 041213Z 19004KT 2SM -RA BR SCT002 BKN007 OVC022 17/16 A3001 RMK AO2 SFC VIS 4 P0019 $=
200905041213 SPECI KATL 041213Z 19004KT 2SM -RA BR SCT002 BKN007 OVC022 17/16 A3001 RMK AO2 SFC VIS 4 P0019 $=
200905041152 METAR KATL 041152Z 21006KT 1SM R09R/5000VP6000FT +RA BR BKN002 BKN009 OVC045 17/16 A3000 RMK AO2 TSB1056E21 SLP153 FRQ LTG DSNT SW TS DSPTD P0058 60063 70072 T01670161 10178 20167 51013 $=
200905041140 SPECI KATL 041140Z 22004KT 1SM +RA BR SCT002 BKN013 OVC050 17/17 A3000 RMK AO2 SFC VIS 2 TSB1056E21 TS DSPTD P0035 $=
200905041140 SPECI KATL 041140Z 22004KT 1SM +RA BR SCT002 BKN013 OVC050 17/17 A3000 RMK AO2 SFC VIS 2 TSB1056E21 TS DSPTD P0035 $=
200905041125 SPECI KATL 041125Z 00000KT 2 1/2SM RA BR SCT002 BKN013 OVC050 17/16 A2999 RMK AO2 SFC VIS 4 TSB1056E21 OCNL LTG DSNT SW TS DSPTD P0026 $=
200905041125 SPECI KATL 041125Z 00000KT 2 1/2SM RA BR SCT002 BKN013 OVC050 17/16 A2999 RMK AO2 SFC VIS 4 TSB1056E21 OCNL LTG DSNT SW TS DSPTD P0026 $=
200905041108 SPECI KATL 041108Z 21006KT 1 1/2SM TSRA BR SCT037CB BKN048 OVC100 17/16 A2999 RMK AO2 SFC VIS 1 3/4 VIS 1 1/2V2 1/2 TSB1056 OCNL LTGICCG OHD TS OHD MOV E P0014 $=
200905041108 SPECI KATL 041108Z 21006KT 1 1/2SM TSRA BR SCT037CB BKN048 OVC100 17/16 A2999 RMK AO2 SFC VIS 1 3/4 VIS 1 1/2V2 1/2 TSB1056 OCNL LTGICCG OHD TS OHD MOV E P0014 $=
200905041105 SPECI KATL 041105Z 22007KT 1 3/4SM +TSRA BR SCT037CB BKN048 OVC100 17/16 A3000 RMK AO2 TSB1056 OCNL LTGICCG SW TS SW MOV E P0009 $=
200905041105 SPECI KATL 041105Z 22007KT 1 3/4SM +TSRA BR SCT037CB BKN048 OVC100 17/16 A3000 RMK AO2 TSB1056 OCNL LTGICCG SW TS SW MOV E P0009 $=
200905041100 SPECI KATL 041100Z 23007KT 3SM +TSRA BR SCT037CB BKN048 OVC100 17/16 A2999 RMK AO2 TSB1056 OCNL LTGICCG SW TS SW MOV E P0002 $=
200905041100 SPECI KATL 041100Z 23007KT 3SM +TSRA BR SCT037CB BKN048 OVC100 17/16 A2999 RMK AO2 TSB1056 OCNL LTGICCG SW TS SW MOV E P0002 $=
200905041052 METAR KATL 041052Z 21009KT 7SM -RA SCT027 BKN045 BKN095 17/16 A2999 RMK AO2 SLP150 P0005 T01670161 $=
200905040952 METAR KATL 040952Z 22004KT 6SM -RA BR BKN048 OVC070 17/16 A2997 RMK AO2 RAE01B34 SLP140 P0000 T01720161 $=
200905040852 METAR KATL 040852Z 22005KT 10SM -RA FEW011 BKN060 OVC095 17/16 A2996 RMK AO2 RAB0753 SLP137 P0000 60000 T01720161 53000 $=
200905040752 METAR KATL 040752Z 24007KT 10SM BKN060 BKN200 18/16 A2994 RMK AO2 SLP132 T01780156 $=
200905040652 METAR KATL 040652Z 23007KT 10SM BKN046 BKN070 BKN090 17/16 A2996 RMK AO2 SLP135 T01720156 $=
200905040552 METAR KATL 040552Z 22010KT 10SM BKN039 BKN250 17/16 A2996 RMK AO2 SLP136 60000 T01720161 10183 20172 53007 $=
200905040452 METAR KATL 040452Z 22008KT 10SM SCT047 SCT120 BKN250 17/16 A2995 RMK AO2 SLP135 T01720161 402670172 $=
200905040352 METAR KATL 040352Z 21010KT 10SM SCT120 BKN250 18/16 A2993 RMK AO2 SLP129 T01780161 $=
200905040252 METAR KATL 040252Z 20008KT 10SM FEW120 BKN250 18/16 A2993 RMK AO2 SLP130 60000 T01780161 51016 $=
200905040152 METAR KATL 040152Z 20006KT 10SM FEW110 SCT200 BKN250 18/17 A2993 RMK AO2 SLP129 T01780167 $=
200905040052 METAR KATL 040052Z 18007KT 10SM FEW006 SCT075 BKN120 BKN200 18/17 A2989 RMK AO2 RAB2353E30 SLP116 P0000 T01830172=
200905032352 METAR KATL 032352Z 18011KT 10SM FEW008 SCT044 BKN110 OVC200 18/17 A2989 RMK AO2 TSE14RAE50 SLP115 TS MOV E P0002 60009 T01830167 10267 20183 50012=
200905032314 SPECI KATL 032314Z 17009KT 7SM -RA FEW036 BKN090 OVC200 19/18 A2988 RMK AO2 TSE14 CB DSNT NE-SE TS MOV E P0001=
200905032314 SPECI KATL 032314Z 17009KT 7SM -RA FEW036 BKN090 OVC200 19/18 A2988 RMK AO2 TSE14 CB DSNT NE-SE TS MOV E P0001=
200905032302 SPECI KATL 032302Z 21006G14KT 4SM -TSRA BR FEW036 SCT048CB BKN090 OVC200 19/17 A2989 RMK AO2 PRESFR OCNL LTGIC NE-SE TS NE-SE MOV NE P0001 $=
200905032302 SPECI KATL 032302Z 21006G14KT 4SM -TSRA BR FEW036 SCT048CB BKN090 OVC200 19/17 A2989 RMK AO2 PRESFR OCNL LTGIC NE-SE TS NE-SE MOV NE P0001 $=
200905032252 METAR KATL 032252Z 24009G21KT 2 1/2SM TSRA FEW018 SCT048CB OVC090 19/17 A2992 RMK AO2 PK WND 23042/2239 TSB22RAB39 SLP124 OCNL LTGICCG NE-SE TS NE-SE MOV NE P0007 T01940167=
200905032248 SPECI KATL 032248Z 25013G42KT 2SM R09R/3500VP6000FT TSRA SCT018 SCT048CB OVC090 20/17 A2993 RMK AO2 PK WND 23042/2239 TSB22RAB39 PRESRR OCNL LTGICCG OHD-NE-SE TS OHD-NE-SE MOV NE P0006=
200905032248 SPECI KATL 032248Z 25013G42KT 2SM R09R/3500VP6000FT TSRA SCT018 SCT048CB OVC090 20/17 A2993 RMK AO2 PK WND 23042/2239 TSB22RAB39 PRESRR OCNL LTGICCG OHD-NE-SE TS OHD-NE-SE MOV NE P0006=
200905032242 SPECI KATL 032242Z 25017G42KT 3/4SM R09R/3500VP6000FT +TSRA SCT030 BKN046CB BKN090 OVC200 21/17 A2991 RMK AO2 PK WND 23042/2239 TSB22RAB39 PRESRR OCNL LTGICCG OHD-SW-NW TS OHD-SW-NW MOV NE P0000=
200905032242 SPECI KATL 032242Z 25017G42KT 3/4SM R09R/3500VP6000FT +TSRA SCT030 BKN046CB BKN090 OVC200 21/17 A2991 RMK AO2 PK WND 23042/2239 TSB22RAB39 PRESRR OCNL LTGICCG OHD-SW-NW TS OHD-SW-NW MOV NE P0000=
200905032222 SPECI KATL 032222Z 21013G22KT 10SM TS FEW046CB SCT090 OVC200 25/17 A2987 RMK AO2 TSB22 OCNL LTGIC SW-NW TS SW-NW MOV NE=
200905032222 SPECI KATL 032222Z 21013G22KT 10SM TS FEW046CB SCT090 OVC200 25/17 A2987 RMK AO2 TSB22 OCNL LTGIC SW-NW TS SW-NW MOV NE=
200905032152 METAR KATL 032152Z 18019G23KT 10SM FEW045 SCT100 OVC200 26/17 A2985 RMK AO2 SLP100 CB DSNT SW-W T02610172=
200905032052 METAR KATL 032052Z 20019G23KT 10SM SCT045 BKN055 BKN200 26/17 A2988 RMK AO2 SLP110 CB DSNT NW T02610167 56018=
200905031952 METAR KATL 031952Z 18014G22KT 10SM SCT043 SCT060 BKN150 26/18 A2989 RMK AO2 SLP112 T02610178=
200905031852 METAR KATL 031852Z 22013G22KT 10SM SCT045 BKN150 BKN250 27/17 A2991 RMK AO2 PRESFR SLP119 T02670172=
200905031752 METAR KATL 031752Z 22011G19KT 10SM SCT034 SCT042 BKN150 26/18 A2994 RMK AO2 SLP129 T02560178 10256 20194 58014=
200905031652 METAR KATL 031652Z 24011KT 10SM SCT025 BKN150 23/18 A2997 RMK AO2 SLP140 SCT025V BKN T02330178=
200905031552 METAR KATL 031552Z 21010KT 10SM SCT023 SCT042 BKN150 23/18 A2997 RMK AO2 PK WND 22026/1459 SLP142 T02280183=
200905031452 METAR KATL 031452Z 23010KT 10SM SCT016 BKN022 BKN055 22/18 A2998 RMK AO2 SLP145 T02170183 50013=
200905031426 SPECI KATL 031426Z 22010KT 9SM BKN017 BKN024 BKN060 21/18 A2999 RMK AO2 BKN017V SCT=
200905031426 SPECI KATL 031426Z 22010KT 9SM BKN017 BKN024 BKN060 21/18 A2999 RMK AO2 BKN017V SCT=
200905031400 SPECI KATL 031400Z 24009G17KT 8SM BKN014 BKN023 BKN043 21/18 A2999 RMK AO2 BKN014V SCT=
200905031400 SPECI KATL 031400Z 24009G17KT 8SM BKN014 BKN023 BKN043 21/18 A2999 RMK AO2 BKN014V SCT=
200905031352 METAR KATL 031352Z 23009KT 8SM SCT012 BKN020 BKN034 21/18 A2999 RMK AO2 SLP148 T02060183=
200905031345 SPECI KATL 031345Z 24007KT 9SM SCT014 BKN020 OVC034 21/18 A2998 RMK AO2 SCT014V BKN=
200905031345 SPECI KATL 031345Z 24007KT 9SM SCT014 BKN020 OVC034 21/18 A2998 RMK AO2 SCT014V BKN=
200905031317 SPECI KATL 031317Z 23010G14KT 8SM BKN012 OVC020 20/18 A2997 RMK AO2=
200905031317 SPECI KATL 031317Z 23010G14KT 8SM BKN012 OVC020 20/18 A2997 RMK AO2=
200905031307 SPECI KATL 031307Z 22012KT 7SM BKN008 OVC012 20/18 A2996 RMK AO2=
200905031307 SPECI KATL 031307Z 22012KT 7SM BKN008 OVC012 20/18 A2996 RMK AO2=
200905031252 METAR KATL 031252Z 21009KT 9SM SCT008 BKN015 BKN025 OVC200 21/19 A2995 RMK AO2 SLP136 T02060189=
200905031152 METAR KATL 031152Z 18007KT 8SM SCT008 BKN015 OVC025 19/18 A2994 RMK AO2 PRESFR SLP132 60005 70023 T01940183 10194 20189 58002=
200905031107 SPECI KATL 031107Z 23007KT 8SM SCT009 BKN017 OVC025 19/18 A2998 RMK AO2=
200905031107 SPECI KATL 031107Z 23007KT 8SM SCT009 BKN017 OVC025 19/18 A2998 RMK AO2=
200905031052 METAR KATL 031052Z 24006KT 8SM SCT007 BKN010 OVC025 19/18 A2998 RMK AO2 SLP145 T01940183=
200905031022 SPECI KATL 031022Z 22008KT 9SM SCT007 BKN010 OVC025 19/18 A2997 RMK AO2=
200905031022 SPECI KATL 031022Z 22008KT 9SM SCT007 BKN010 OVC025 19/18 A2997 RMK AO2=
200905030952 METAR KATL 030952Z 22008KT 9SM BKN009 OVC021 19/18 A2995 RMK AO2 SLP137 T01940183=
200905030946 SPECI KATL 030946Z 22008KT 9SM BKN009 OVC021 19/18 A2995 RMK AO2=
200905030946 SPECI KATL 030946Z 22008KT 9SM BKN009 OVC021 19/18 A2995 RMK AO2=
200905030920 SPECI KATL 030920Z 22011KT 10SM FEW007 BKN014 OVC021 19/18 A2995 RMK AO2=
200905030920 SPECI KATL 030920Z 22011KT 10SM FEW007 BKN014 OVC021 19/18 A2995 RMK AO2=
200905030852 METAR KATL 030852Z 21011KT 10SM FEW007 BKN015 OVC030 19/18 A2995 RMK AO2 SLP134 60005 T01890183 56009=
200905030844 SPECI KATL 030844Z 21012KT 10SM FEW007 BKN015 OVC030 19/18 A2994 RMK AO2=
200905030844 SPECI KATL 030844Z 21012KT 10SM FEW007 BKN015 OVC030 19/18 A2994 RMK AO2=
200905030811 SPECI KATL 030811Z 21009KT 10SM BKN015 19/18 A2995 RMK AO2=
200905030811 SPECI KATL 030811Z 21009KT 10SM BKN015 19/18 A2995 RMK AO2=
200905030752 METAR KATL 030752Z 22008KT 10SM FEW030 SCT100 BKN250 19/18 A2995 RMK AO2 SLP134 T01890183=
200905030652 METAR KATL 030652Z 22009KT 10SM SCT030 BKN100 BKN250 19/18 A2995 RMK AO2 RAB0557E37 SLP133 P0005 T01890178=
200905030552 METAR KATL 030552Z 20010KT 10SM BKN032 BKN100 BKN150 BKN250 19/17 A2997 RMK AO2 SLP143 T01890172 10206 20183 58001=
200905030452 METAR KATL 030452Z 19006KT 10SM FEW045 SCT100 BKN150 BKN250 19/18 A2998 RMK AO2 SLP145 T01890178 402560161=
200905030352 METAR KATL 030352Z 16006KT 10SM FEW100 SCT250 19/18 A2998 RMK AO2 SLP147 T01890178=
200905030252 METAR KATL 030252Z 17003KT 10SM FEW100 SCT250 19/18 A2998 RMK AO2 SLP144 T01940183 53002=
200905030152 METAR KATL 030152Z 00000KT 10SM FEW100 SCT250 19/18 A2996 RMK AO2 SLP138 T01940183=
200905030052 METAR KATL 030052Z 00000KT 10SM FEW075 SCT100 BKN120 BKN250 20/18 A2997 RMK AO2 SLP141 T02000183=
200905022352 METAR KATL 022352Z 00000KT 9SM FEW043 BKN060 BKN090 OVC250 21/18 A2997 RMK AO2 RAB25E47 SLP143 SHRA E P0000 60018 T02060183 10256 20200 58012=
200905022252 METAR KATL 022252Z 21004KT 9SM BKN060 BKN090 OVC150 21/19 A2998 RMK AO2 RAE07 SLP147 SHRA NE P0000 T02060189=
200905022152 METAR KATL 022152Z 26005KT 8SM -RA FEW013 SCT055 BKN090 OVC150 21/19 A3000 RMK AO2 SLP152 TSE30 TS MOV SE CB DSNT SE P0011 T02060189=
200905022132 SPECI KATL 022132Z 26006KT 7SM -RA SCT015 BKN032 BKN100 BKN150 21/19 A3000 RMK AO2 TSE30 TS MOV SE CB DSNT SE P0011=
200905022132 SPECI KATL 022132Z 26006KT 7SM -RA SCT015 BKN032 BKN100 BKN150 21/19 A3000 RMK AO2 TSE30 TS MOV SE CB DSNT SE P0011=
200905022052 METAR KATL 022052Z 28007KT 4SM -TSRA BR BKN017CB BKN036 OVC042 21/19 A3000 RMK AO2 TSB04RAB24 SLP155 OCNL LTGICCG SW TS SW MOV E P0007 60007 T02060189 55010 $=
200905022035 SPECI KATL 022035Z 32010G20KT 3SM R09R/4500VP6000FT -TSRA BKN039CB BKN065 OVC100 21/18 A3000 RMK AO2 TSB04RAB24 OCNL LTGICCG NE AND NW TS NE AND NW MOV E P0001=
200905022035 SPECI KATL 022035Z 32010G20KT 3SM R09R/4500VP6000FT -TSRA BKN039CB BKN065 OVC100 21/18 A3000 RMK AO2 TSB04RAB24 OCNL LTGICCG NE AND NW TS NE AND NW MOV E P0001=
200905022023 SPECI KATL 022023Z 30007KT 10SM TS BKN036CB BKN065 BKN100 24/17 A3000 RMK AO2 TSB04 OCNL LTGICCG NE AND NW TS NE AND NW MOV E=
200905022023 SPECI KATL 022023Z 30007KT 10SM TS BKN036CB BKN065 BKN100 24/17 A3000 RMK AO2 TSB04 OCNL LTGICCG NE AND NW TS NE AND NW MOV E=
200905022004 SPECI KATL 022004Z 24006KT 10SM TS SCT036CB BKN150 BKN200 24/17 A3000 RMK AO2 TSB04 OCNL LTGIC TS SW-N MOV E=
200905022004 SPECI KATL 022004Z 24006KT 10SM TS SCT036CB BKN150 BKN200 24/17 A3000 RMK AO2 TSB04 OCNL LTGIC TS SW-N MOV E=
200905021952 METAR KATL 021952Z 24009KT 10SM SCT035CB BKN150 BKN200 24/17 A3000 RMK AO2 SLP153 CB SW-N MOV E T02440172=
200905021932 SPECI KATL 021932Z 23010KT 10SM SCT039 BKN150 BKN200 25/17 A3000 RMK AO2 CB DSNT SW-N=
200905021932 SPECI KATL 021932Z 23010KT 10SM SCT039 BKN150 BKN200 25/17 A3000 RMK AO2 CB DSNT SW-N=
200905021852 METAR KATL 021852Z 23011KT 10SM SCT037CB BKN045 BKN065 25/17 A3001 RMK AO2 SLP156 CB N-NE MOV E SHRA N-NE T02500172 $=
200905021752 METAR KATL 021752Z 24011KT 10SM SCT033CB BKN042 BKN150 24/17 A3003 RMK AO2 SLP164 CB W-NW-N MOV E T02390172 10250 20172 58009=
200905021739 SPECI KATL 021739Z 24009KT 10SM SCT027 BKN032 BKN041 24/18 A3004 RMK AO2 CB DSNT SW-NW=
200905021739 SPECI KATL 021739Z 24009KT 10SM SCT027 BKN032 BKN041 24/18 A3004 RMK AO2 CB DSNT SW-NW=
200905021712 SPECI KATL 021712Z 25009G15KT 10SM SCT026 BKN032 BKN041 24/18 A3004 RMK AO2 CB DSNT N AND NE=
200905021712 SPECI KATL 021712Z 25009G15KT 10SM SCT026 BKN032 BKN041 24/18 A3004 RMK AO2 CB DSNT N AND NE=
200905021652 METAR KATL 021652Z COR 23009G14KT 10SM BKN024 BKN034 BKN150 24/18 A3006 RMK AO2 SLP171 BKN024V SCT CB DSNT N AND NE T02440183=
200905021552 METAR KATL 021552Z 24009KT 10SM SCT018 BKN024 BKN030 22/18 A3007 RMK AO2 SLP175 T02220183=
200905021512 SPECI KATL 021512Z 23009G18KT 10SM BKN016 BKN150 OVC250 23/19 A3006 RMK AO2=
200905021512 SPECI KATL 021512Z 23009G18KT 10SM BKN016 BKN150 OVC250 23/19 A3006 RMK AO2=
200905021452 METAR KATL 021452Z 24009G18KT 10SM BKN014 BKN150 OVC250 22/19 A3006 RMK AO2 SLP174 T02220189 58006=
200905021415 SPECI KATL 021415Z 24010G18KT 10SM BKN014 BKN150 OVC250 22/19 A3008 RMK AO2=
200905021415 SPECI KATL 021415Z 24010G18KT 10SM BKN014 BKN150 OVC250 22/19 A3008 RMK AO2=
200905021352 METAR KATL 021352Z 23009KT 10SM SCT015 BKN150 OVC250 21/18 A3008 RMK AO2 SLP179 T02110183=
200905021314 SPECI KATL 021314Z 24009KT 10SM SCT019 BKN080 BKN120 19/17 A3008 RMK AO2=
200905021314 SPECI KATL 021314Z 24009KT 10SM SCT019 BKN080 BKN120 19/17 A3008 RMK AO2=
200905021252 METAR KATL 021252Z 23006KT 10SM BKN023 BKN080 BKN120 18/17 A3008 RMK AO2 SLP179 T01830167=
200905021245 SPECI KATL 021245Z 23006KT 10SM BKN023 BKN080 BKN120 18/16 A3008 RMK AO2=
200905021245 SPECI KATL 021245Z 23006KT 10SM BKN023 BKN080 BKN120 18/16 A3008 RMK AO2=
200905021152 METAR KATL 021152Z 23006KT 10SM FEW030 SCT100 BKN200 17/16 A3008 RMK AO2 SLP181 60008 70038 T01720156 10172 20161 51012=
200905021052 METAR KATL 021052Z 23007KT 10SM FEW030 SCT100 SCT200 16/15 A3006 RMK AO2 SLP175 T01610150=
200905020952 METAR KATL 020952Z 22005KT 10SM FEW030 SCT100 16/16 A3007 RMK AO2 SLP176 T01610156=
200905020852 METAR KATL 020852Z 23006KT 10SM FEW030 BKN110 17/16 A3005 RMK AO2 SLP167 60008 T01670161 55020=
200905020752 METAR KATL 020752Z 19007KT 10SM FEW003 SCT030 OVC090 17/16 A3004 RMK AO2 RAB04E40 SLP168 P0002 T01670161=
200905020735 SPECI KATL 020735Z 19005KT 10SM -RA FEW003 SCT030 OVC090 17/17 A3006 RMK AO2 RAB04 P0002=
200905020735 SPECI KATL 020735Z 19005KT 10SM -RA FEW003 SCT030 OVC090 17/17 A3006 RMK AO2 RAB04 P0002=
200905020652 METAR KATL 020652Z 00000KT 10SM SCT030 BKN090 OVC110 17/16 A3010 RMK AO2 TSE47RAE50 SLP187 TS MOV SE P0006 T01720161=
200905020648 SPECI KATL 020648Z 00000KT 10SM -RA SCT030 BKN095 OVC110 17/16 A3011 RMK AO2 TSE47 PRESFR TS MOV SE P0006=
200905020648 SPECI KATL 020648Z 00000KT 10SM -RA SCT030 BKN095 OVC110 17/16 A3011 RMK AO2 TSE47 PRESFR TS MOV SE P0006=
200905020552 METAR KATL 020552Z 33009G24KT 3SM +TSRA BR FEW005 SCT030CB OVC042 17/16 A3016 RMK AO2 TSB36RAB40 SLP206 OCNL LTGICCG NW TS W-N MOV SE P0007 60030 T01720161 10233 20172 55004=
200905020545 SPECI KATL 020545Z 32018G24KT 8SM -TSRA FEW005 SCT030CB OVC042 17/16 A3017 RMK AO2 TSB36RAB40 OCNL LTGICCG NW TS W-N MOV SE P0000=
200905020545 SPECI KATL 020545Z 32018G24KT 8SM -TSRA FEW005 SCT030CB OVC042 17/16 A3017 RMK AO2 TSB36RAB40 OCNL LTGICCG NW TS W-N MOV SE P0000=
200905020536 SPECI KATL 020536Z 32013G17KT 10SM TS SCT030CB BKN042 OVC090 17/17 A3016 RMK AO2 TSB36 PRESRR OCNL LTGICCG NW TS W-N MOV SE=
200905020536 SPECI KATL 020536Z 32013G17KT 10SM TS SCT030CB BKN042 OVC090 17/17 A3016 RMK AO2 TSB36 PRESRR OCNL LTGICCG NW TS W-N MOV SE=
200905020452 METAR KATL 020452Z 00000KT 10SM SCT028 SCT050 OVC090 18/17 A3013 RMK AO2 TSB08E35RAE35 SLP196 TS DSIPT P0007 T01780167 402500172=
200905020435 SPECI KATL 020435Z 00000KT 9SM SCT028 BKN050 OVC090 18/16 A3013 RMK AO2 TSB08E35RAE35 TS DSIPT P0007=
200905020435 SPECI KATL 020435Z 00000KT 9SM SCT028 BKN050 OVC090 18/16 A3013 RMK AO2 TSB08E35RAE35 TS DSIPT P0007=
200905020422 SPECI KATL 020422Z 00000KT 5SM -TSRA BR BKN025CB BKN050 OVC100 18/16 A3014 RMK AO2 TSB08 OCNL LTGIC OHD-W TS OHD-W MOV E P0007=
200905020422 SPECI KATL 020422Z 00000KT 5SM -TSRA BR BKN025CB BKN050 OVC100 18/16 A3014 RMK AO2 TSB08 OCNL LTGIC OHD-W TS OHD-W MOV E P0007=
200905020408 SPECI KATL 020408Z 00000KT 10SM -TSRA FEW035CB BKN050 OVC100 18/16 A3013 RMK AO2 TSB08 OCNL LTGIC W TS W MOV E P0000=
200905020408 SPECI KATL 020408Z 00000KT 10SM -TSRA FEW035CB BKN050 OVC100 18/16 A3013 RMK AO2 TSB08 OCNL LTGIC W TS W MOV E P0000=
200905020352 METAR KATL 020352Z 03005KT 10SM -RA SCT038 BKN050 OVC080 18/16 A3014 RMK AO2 TSE08 SLP199 TS DSIPTD P0004 T01780161=
200905020309 SPECI KATL 020309Z 36004KT 9SM -RA BKN050 OVC070 17/16 A3015 RMK AO2 TSE08 TS DSIPTD P0003=
200905020309 SPECI KATL 020309Z 36004KT 9SM -RA BKN050 OVC070 17/16 A3015 RMK AO2 TSE08 TS DSIPTD P0003=
200905020252 METAR KATL 020252Z 33007KT 7SM -TSRA FEW035CB BKN050 OVC070 17/16 A3017 RMK AO2 WSHFT 0159 RAB12 SLP211 OCNL LTGICCGCA SE-SW-W TS SE-SW-W MOV SE P0012 60012 T01720161 53024=
200905020217 SPECI KATL 020217Z 34016G25KT 10SM -TSRA SCT035CB BKN048 OVC060 21/14 A3016 RMK AO2 WSHFT 0159 RAB12 OCNL LTGICCG NW-NE TS NW-NE MOV SE P0000=
200905020217 SPECI KATL 020217Z 34016G25KT 10SM -TSRA SCT035CB BKN048 OVC060 21/14 A3016 RMK AO2 WSHFT 0159 RAB12 OCNL LTGICCG NW-NE TS NW-NE MOV SE P0000=
200905020152 METAR KATL 020152Z 26003KT 10SM TS FEW030CB SCT070 BKN100 OVC200 22/17 A3014 RMK AO2 TSB52 SLP198 OCNL LTGICCG NW-NE TS NW-NE MOV SE T02170167=
200905020052 METAR KATL 020052Z 21005KT 10SM FEW150 OVC200 22/16 A3010 RMK AO2 SLP186 FRQ LTG DSNT NW T02220161=
200905012352 METAR KATL 012352Z 21006KT 10SM FEW045 OVC200 23/16 A3010 RMK AO2 SLP185 T02330161 10250 20222 58006=
200905012252 METAR KATL 012252Z 21010KT 10SM FEW040 OVC250 24/16 A3011 RMK AO2 SLP188 T02390156=
200905012152 METAR KATL 012152Z 20009KT 10SM FEW040 SCT070 24/16 A3011 RMK AO2 SLP187 T02440156=
200905012052 METAR KATL 012052Z 22011KT 10SM FEW040 SCT070 BKN250 25/16 A3011 RMK AO2 SLP190 T02500161 58020=
200905011952 METAR KATL 011952Z 22008KT 10SM FEW040 SCT070 SCT150 BKN250 24/15 A3014 RMK AO2 SLP197 VIRGA NW-N T02390150=
200905011852 METAR KATL 011852Z VRB05KT 10SM FEW035 SCT070 SCT150 BKN250 24/16 A3016 RMK AO2 SLP206 SHRA DSNT NW-N T02440156=
200905011752 METAR KATL 011752Z 27006KT 10SM FEW026 SCT070 BKN150 BKN250 22/16 A3018 RMK AO2 SLP211 T02220161 10233 20189 58015=
200905011652 METAR KATL 011652Z 25007KT 10SM FEW025 BKN060 OVC150 22/17 A3021 RMK AO2 SLP223 T02170167=
200905011552 METAR KATL 011552Z 31007KT 10SM FEW029TCU SCT040 BKN060 OVC150 22/16 A3022 RMK AO2 SLP227 TCU SW T02170161=
200905011452 METAR KATL 011452Z 27013G17KT 10SM FEW023 BKN090 BKN150 BKN250 22/16 A3022 RMK AO2 SLP226 T02170161 51016=
200905011352 METAR KATL 011352Z 23005KT 10SM FEW020 BKN100 BKN150 20/16 A3021 RMK AO2 SLP223 T02000161=
200905011252 METAR KATL 011252Z 22006KT 10SM BKN100 BKN150 19/16 A3020 RMK AO2 SLP221 T01940161=
