##########################################################
# Query made at 04/19/2024 23:10:27 UTC
# Time interval: from 03/01/2009 12:00  to 03/31/2009 12:59  UTC
##########################################################

##########################################################
# KATL, Atlanta, Hartsfield - Jackson Atlanta International Airport (United States)
# WMO index: 72219. WIGOS ID: 0-20000-0-72219
# Latitude 33-38-59N. Longitude 084-25-00W. Altitude 312 m.
##########################################################

200903311252 METAR KATL 311252Z COR 08011KT 10SM BKN150 BKN200 12/04 A2999 RMK AO2 SLP155 VIRGA ALQDS T01170044=
200903311152 METAR KATL 311152Z 10007KT 10SM BKN150 BKN200 11/04 A3001 RMK AO2 SLP159 T01110039 10133 20094 53012=
200903311052 METAR KATL 311052Z 08008KT 10SM OVC200 10/04 A3000 RMK AO2 SLP156 T01000039=
200903310952 METAR KATL 310952Z 08007KT 10SM FEW180 BKN250 09/04 A2997 RMK AO2 SLP148 T00940039=
200903310852 METAR KATL 310852Z 09007KT 10SM SCT180 OVC250 10/04 A2997 RMK AO2 SLP146 T01000044 58013=
200903310752 METAR KATL 310752Z 09004KT 10SM BKN180 OVC250 11/03 A2999 RMK AO2 SLP152 T01110033=
200903310652 METAR KATL 310652Z 00000KT 10SM OVC200 12/03 A3000 RMK AO2 SLP156 T01220028=
200903310552 METAR KATL 310552Z 09006KT 10SM OVC200 13/03 A3001 RMK AO2 SLP159 T01330028 10172 20122 56004=
200903310452 METAR KATL 310452Z 00000KT 10SM FEW150 OVC200 14/02 A3001 RMK AO2 SLP162 T01390022 401940028=
200903310352 METAR KATL 310352Z 07004KT 10SM OVC200 13/02 A3001 RMK AO2 SLP162 T01330022=
200903310252 METAR KATL 310252Z 05003KT 10SM SCT200 BKN250 14/00 A3002 RMK AO2 SLP165 T01390000 51012=
200903310152 METAR KATL 310152Z 31003KT 10SM BKN200 BKN250 14/01 A3001 RMK AO2 SLP164 T01440011=
200903310052 METAR KATL 310052Z 23004KT 10SM BKN200 OVC250 15/03 A3000 RMK AO2 SLP158 T01500028=
200903302352 METAR KATL 302352Z 00000KT 10SM FEW150 BKN200 OVC250 17/00 A2998 RMK AO2 SLP154 T01720000 10194 20156 58003=
200903302252 METAR KATL 302252Z 31004KT 10SM FEW150 OVC200 18/00 A3000 RMK AO2 SLP158 T01780000=
200903302152 METAR KATL 302152Z 28004KT 10SM FEW150 BKN200 OVC250 19/02 A2999 RMK AO2 SLP157 T01890017=
200903302052 METAR KATL 302052Z 00000KT 10SM FEW150 SCT250 BKN280 19/00 A2999 RMK AO2 SLP158 T01940000 58019=
200903301952 METAR KATL 301952Z VRB05KT 10SM FEW150 SCT250 BKN280 19/01 A3001 RMK AO2 SLP163 T01890006=
200903301852 METAR KATL 301852Z VRB04KT 10SM FEW150 BKN250 BKN280 17/01 A3004 RMK AO2 SLP173 T01720011=
200903301752 METAR KATL 301752Z 29006KT 10SM FEW150 BKN250 BKN280 16/00 A3005 RMK AO2 SLP177 T01560000 10161 20033 55005=
200903301652 METAR KATL 301652Z 29005KT 10SM FEW150 BKN250 BKN280 14/01 A3005 RMK AO2 SLP177 T01390011=
200903301552 METAR KATL 301552Z 35008KT 10SM FEW150 BKN250 BKN280 12/M01 A3006 RMK AO2 SLP181 T01221006=
200903301452 METAR KATL 301452Z 32010KT 10SM BKN250 11/02 A3007 RMK AO2 SLP184 T01060022 51009=
200903301352 METAR KATL 301352Z 33008KT 10SM FEW250 08/03 A3006 RMK AO2 SLP183 T00830028=
200903301252 METAR KATL 301252Z 32006KT 10SM FEW050 SCT300 06/02 A3005 RMK AO2 SLP178 T00560022=
200903301152 METAR KATL 301152Z 29004KT 10SM FEW050 SCT300 03/02 A3004 RMK AO2 SLP177 T00330017 10056 20028 53015=
200903301052 METAR KATL 301052Z 32007KT 10SM FEW250 03/01 A3001 RMK AO2 SLP167 T00280011=
200903300952 METAR KATL 300952Z 32007KT 10SM CLR 03/02 A3000 RMK AO2 SLP163 T00330017=
200903300852 METAR KATL 300852Z 32005KT 10SM CLR 04/02 A3000 RMK AO2 SLP161 T00390017 50002=
200903300752 METAR KATL 300752Z 31004KT 10SM CLR 04/02 A3000 RMK AO2 SLP164 T00390017=
200903300652 METAR KATL 300652Z 30004KT 10SM CLR 05/02 A2999 RMK AO2 SLP161 T00500017=
200903300552 METAR KATL 300552Z 29003KT 10SM CLR 06/02 A2999 RMK AO2 SLP159 T00560022 10100 20056 51008=
200903300452 METAR KATL 300452Z 28003KT 10SM CLR 06/02 A2999 RMK AO2 SLP157 T00560022 401670056=
200903300352 METAR KATL 300352Z 31004KT 10SM CLR 06/02 A2998 RMK AO2 SLP156 T00610022=
200903300252 METAR KATL 300252Z 31005KT 10SM CLR 07/03 A2996 RMK AO2 SLP150 T00670028 53022=
200903300152 METAR KATL 300152Z 33006KT 10SM CLR 07/03 A2994 RMK AO2 SLP143 T00720028=
200903300052 METAR KATL 300052Z 30007KT 10SM FEW041 08/03 A2991 RMK AO2 SLP132 T00830028=
200903292352 METAR KATL 292352Z 31010KT 10SM FEW041 10/03 A2990 RMK AO2 SLP126 T01000028 10117 20078 53016=
200903292252 METAR KATL 292252Z 30010KT 10SM FEW037 11/03 A2988 RMK AO2 SLP120 T01060028=
200903292152 METAR KATL 292152Z 31015G20KT 10SM SCT037 11/03 A2986 RMK AO2 SLP113 T01110028=
200903292052 SPECI KATL 292052Z 29010G17KT 10SM BKN037 10/03 A2985 RMK AO2 SLP109 T01000033 51010=
200903291952 METAR KATL 291952Z 27014G19KT 10SM OVC032 09/02 A2984 RMK AO2 SLP106 BINOVC OHD T00890022=
200903291852 METAR KATL 291852Z 29015G21KT 10SM OVC030 08/02 A2984 RMK AO2 SLP105 T00830022=
200903291844 SPECI KATL 291844Z 30017G22KT 10SM OVC028 08/02 A2984 RMK AO2=
200903291844 SPECI KATL 291844Z 30017G22KT 10SM OVC028 08/02 A2984 RMK AO2=
200903291752 METAR KATL 291752Z 28013G20KT 10SM OVC028 08/03 A2982 RMK AO2 SLP096 T00830028 10094 20067 53025=
200903291652 METAR KATL 291652Z 28015G20KT 10SM OVC028 09/03 A2979 RMK AO2 SLP085 T00940033=
200903291552 METAR KATL 291552Z 26010KT 10SM OVC026 09/04 A2976 RMK AO2 SLP077 T00890039=
200903291452 METAR KATL 291452Z COR 25011G17KT 10SM OVC028 08/03 A2974 RMK AO2 SLP070 T00830028 52011=
200903291445 SPECI KATL 291445Z 24010G15KT 10SM OVC028 08/03 A2974 RMK AO2=
200903291445 SPECI KATL 291445Z 24010G15KT 10SM OVC028 08/03 A2974 RMK AO2=
200903291413 SPECI KATL 291413Z 25008G16KT 10SM OVC030 08/03 A2973 RMK AO2=
200903291413 SPECI KATL 291413Z 25008G16KT 10SM OVC030 08/03 A2973 RMK AO2=
200903291352 METAR KATL 291352Z 24008KT 10SM OVC028 08/03 A2972 RMK AO2 SLP064 T00780028=
200903291329 SPECI KATL 291329Z 25007KT 10SM OVC028 08/03 A2972 RMK AO2=
200903291329 SPECI KATL 291329Z 25007KT 10SM OVC028 08/03 A2972 RMK AO2=
200903291252 METAR KATL 291252Z 24009KT 10SM BKN030 07/02 A2972 RMK AO2 SLP065 T00720022=
200903291152 METAR KATL 291152Z 25006KT 10SM SCT032 BKN180 07/02 A2971 RMK AO2 SLP059 70099 T00670017 10156 20067 51016=
200903291052 METAR KATL 291052Z 25007KT 10SM FEW028 SCT180 07/02 A2969 RMK AO2 SLP054 T00670022=
200903290952 METAR KATL 290952Z 25006KT 10SM SCT028 08/02 A2968 RMK AO2 SLP049 T00780022=
200903290852 METAR KATL 290852Z 28007KT 10SM CLR 07/02 A2966 RMK AO2 SLP042 T00720022 51014=
200903290752 METAR KATL 290752Z 28013G19KT 10SM SCT028 09/04 A2965 RMK AO2 SLP041 T00940044=
200903290652 METAR KATL 290652Z 28016G23KT 10SM FEW025 12/06 A2964 RMK AO2 WSHFT 0539 SLP036 T01170061=
200903290557 SPECI KATL 290557Z 26012G23KT 10SM FEW018 SCT024 BKN036 15/11 A2962 RMK AO2 WSHFT 0539=
200903290557 SPECI KATL 290557Z 26012G23KT 10SM FEW018 SCT024 BKN036 15/11 A2962 RMK AO2 WSHFT 0539=
200903290552 METAR KATL 290552Z 28013G25KT 10SM FEW016 SCT023 BKN027 16/12 A2962 RMK AO2 SLP025 60000 T01560117 10172 20156 53007=
200903290457 SPECI KATL 290457Z 20012G20KT 10SM FEW016 BKN023 OVC038 17/15 A2959 RMK AO2=
200903290457 SPECI KATL 290457Z 20012G20KT 10SM FEW016 BKN023 OVC038 17/15 A2959 RMK AO2=
200903290452 METAR KATL 290452Z 20011KT 10SM FEW013 SCT021 OVC038 17/15 A2959 RMK AO2 SLP016 T01720150 401720150=
200903290442 SPECI KATL 290442Z 20011KT 10SM FEW013 SCT021 OVC038 17/15 A2959 RMK AO2=
200903290442 SPECI KATL 290442Z 20011KT 10SM FEW013 SCT021 OVC038 17/15 A2959 RMK AO2=
200903290408 SPECI KATL 290408Z 21011G22KT 10SM FEW008 BKN022 BKN042 17/16 A2958 RMK AO2=
200903290408 SPECI KATL 290408Z 21011G22KT 10SM FEW008 BKN022 BKN042 17/16 A2958 RMK AO2=
200903290352 METAR KATL 290352Z 20012G19KT 10SM SCT008 BKN011 OVC020 17/16 A2958 RMK AO2 SLP013 T01670156=
200903290252 METAR KATL 290252Z 19010G19KT 7SM BKN006 OVC018 17/16 A2960 RMK AO2 SLP017 CIG 005V008 60000 T01670156 56001=
200903290246 SPECI KATL 290246Z 17011KT 3SM BR OVC005 16/16 A2960 RMK AO2 SFC VIS 5 CIG 004V007=
200903290246 SPECI KATL 290246Z 17011KT 3SM BR OVC005 16/16 A2960 RMK AO2 SFC VIS 5 CIG 004V007=
200903290152 METAR KATL 290152Z 16010G18KT 3SM BR OVC004 16/16 A2958 RMK AO2 SFC VIS 5 SLP013 CIG 003V005 T01610156=
200903290052 METAR KATL 290052Z 17011KT 3SM BR OVC004 16/16 A2960 RMK AO2 SFC VIS 5 DZE44 SLP019 CIG 003V005 P0000 T01610156=
200903290044 SPECI KATL 290044Z 15009KT 3SM BR OVC004 16/16 A2960 RMK AO2 SFC VIS 6 DZE44 P0000=
200903290044 SPECI KATL 290044Z 15009KT 3SM BR OVC004 16/16 A2960 RMK AO2 SFC VIS 6 DZE44 P0000=
200903282352 METAR KATL 282352Z 15008KT 1/2SM -DZ BR OVC002 16/16 A2963 RMK AO2 SFC VIS 1 1/2 SLP029 CIG 001V004 TWRINC P0000 60003 T01610156 10161 20156 53008=
200903282252 METAR KATL 282252Z 15009KT 1/2SM -DZ BR OVC003 16/16 A2960 RMK AO2 SFC VIS 1 3/4 DZB03 SLP020 TWRINC P0000 T01610156=
200903282222 SPECI KATL 282222Z 13008KT 1/2SM -DZ BR OVC004 16/16 A2959 RMK AO2 SFC VIS 1 1/4 DZB03 CIG 003V005 TWRINC P0000=
200903282222 SPECI KATL 282222Z 13008KT 1/2SM -DZ BR OVC004 16/16 A2959 RMK AO2 SFC VIS 1 1/4 DZB03 CIG 003V005 TWRINC P0000=
200903282210 SPECI KATL 282210Z 14009G16KT 2SM -DZ BR OVC004 16/16 A2959 RMK AO2 SFC VIS 2 1/2 DZB03 P0000=
200903282210 SPECI KATL 282210Z 14009G16KT 2SM -DZ BR OVC004 16/16 A2959 RMK AO2 SFC VIS 2 1/2 DZB03 P0000=
200903282205 SPECI KATL 282205Z 13009G16KT 3SM -DZ BR OVC005 16/16 A2958 RMK AO2 SFC VIS 4 DZB03 P0000=
200903282205 SPECI KATL 282205Z 13009G16KT 3SM -DZ BR OVC005 16/16 A2958 RMK AO2 SFC VIS 4 DZB03 P0000=
200903282152 METAR KATL 282152Z 13010KT 7SM OVC006 16/15 A2959 RMK AO2 CIG 004V009 SLP014 T01610150=
200903282052 METAR KATL 282052Z 13007KT 5SM BR OVC006 16/15 A2960 RMK AO2 SLP020 CB DSNT NE AND E 60003 T01610150 58017=
200903282034 SPECI KATL 282034Z 12009KT 5SM BR OVC006CB 16/15 A2962 RMK AO2 PRESFR CB N-NE AND E AND SE MOV NE=
200903282034 SPECI KATL 282034Z 12009KT 5SM BR OVC006CB 16/15 A2962 RMK AO2 PRESFR CB N-NE AND E AND SE MOV NE=
200903281952 METAR KATL 281952Z 14008KT 5SM BR BKN006 OVC010CB 16/15 A2962 RMK AO2 RAE29 SLP027 CB S AND NW MOV NE P0000 T01560150=
200903281926 SPECI KATL 281926Z 10008KT 5SM -RA BR OVC008CB 16/15 A2965 RMK AO2 CB S AND W MOV NE P0000=
200903281926 SPECI KATL 281926Z 10008KT 5SM -RA BR OVC008CB 16/15 A2965 RMK AO2 CB S AND W MOV NE P0000=
200903281858 SPECI KATL 281858Z 13006KT 2 1/2SM -RA BR BKN008 BKN017 OVC055 16/15 A2966 RMK AO2 SFC VIS 6 CB OHD DSPTD CB DSNT SW-W P0000=
200903281858 SPECI KATL 281858Z 13006KT 2 1/2SM -RA BR BKN008 BKN017 OVC055 16/15 A2966 RMK AO2 SFC VIS 6 CB OHD DSPTD CB DSNT SW-W P0000=
200903281852 METAR KATL 281852Z 14006KT 2 1/2SM -RA BR BKN008 OVC019CB 16/15 A2966 RMK AO2 SFC VIS 5 RAB20 SLP039 CB OHD MOV NE P0003 T01560150=
200903281846 SPECI KATL 281846Z 13007KT 2 1/2SM RA BR BKN008 OVC019CB 16/14 A2965 RMK AO2 SFC VIS 5 RAB20 CB W MOV NE P0002=
200903281846 SPECI KATL 281846Z 13007KT 2 1/2SM RA BR BKN008 OVC019CB 16/14 A2965 RMK AO2 SFC VIS 5 RAB20 CB W MOV NE P0002=
200903281841 SPECI KATL 281841Z 11010KT 6SM RA BR BKN010 OVC019CB 16/14 A2963 RMK AO2 RAB20 PRESFR CB W MOV NE P0001=
200903281841 SPECI KATL 281841Z 11010KT 6SM RA BR BKN010 OVC019CB 16/14 A2963 RMK AO2 RAB20 PRESFR CB W MOV NE P0001=
200903281819 SPECI KATL 281819Z 14006KT 10SM BKN010 16/14 A2967 RMK AO2 CB DSNT SW AND W=
200903281819 SPECI KATL 281819Z 14006KT 10SM BKN010 16/14 A2967 RMK AO2 CB DSNT SW AND W=
200903281752 METAR KATL 281752Z 15008G17KT 10SM SCT008 BKN055 BKN110 16/14 A2964 RMK AO2 WSHFT 1722 RAE33 SLP033 CB DSNT NE-SE-SW P0000 60096 T01560144 10161 20150 55028=
200903281741 SPECI KATL 281741Z 13010G22KT 10SM FEW008 BKN055 BKN110 16/14 A2964 RMK AO2 WSHFT 1722 RAE33 CB DSNT NE-SE-SW P0000=
200903281741 SPECI KATL 281741Z 13010G22KT 10SM FEW008 BKN055 BKN110 16/14 A2964 RMK AO2 WSHFT 1722 RAE33 CB DSNT NE-SE-SW P0000=
200903281652 METAR KATL 281652Z 12013G19KT 9SM -RA FEW009 SCT036 BKN085 16/14 A2962 RMK AO2 PK WND 11033/1610 TSB10E34 SLP024 CB DSNT NE-SE-SW P0003 T01560139=
200903281635 SPECI KATL 281635Z 12015G29KT 8SM -RA FEW009 BKN036CB BKN065 16/14 A2961 RMK AO2 PK WND 11033/1610 TSB10E34 CB NE-SE-SW MOV NE P0003=
200903281635 SPECI KATL 281635Z 12015G29KT 8SM -RA FEW009 BKN036CB BKN065 16/14 A2961 RMK AO2 PK WND 11033/1610 TSB10E34 CB NE-SE-SW MOV NE P0003=
200903281610 SPECI KATL 281610Z 11024G33KT 2 1/2SM -TSRA BR SCT005 OVC027CB 15/14 A2962 RMK AO2 PK WND 11033/1610 SFC VIS 4 TSB10 PRESFR OCNL LTGIC OHD-W TS OHD-W MOV NE P0003=
200903281610 SPECI KATL 281610Z 11024G33KT 2 1/2SM -TSRA BR SCT005 OVC027CB 15/14 A2962 RMK AO2 PK WND 11033/1610 SFC VIS 4 TSB10 PRESFR OCNL LTGIC OHD-W TS OHD-W MOV NE P0003=
200903281552 METAR KATL 281552Z 13013G20KT 2 1/2SM RA BR SCT005 OVC022CB 15/14 A2971 RMK AO2 SFC VIS 4 TSE19 SLP058 CB OHD-ALQDS MOV NE P0026 T01500144=
200903281528 SPECI KATL 281528Z 13011G18KT 2 1/2SM RA BR SCT005 OVC019CB 15/14 A2973 RMK AO2 SFC VIS 3 TSE19 CB OHD-ALQDS MOV NE P0017=
200903281528 SPECI KATL 281528Z 13011G18KT 2 1/2SM RA BR SCT005 OVC019CB 15/14 A2973 RMK AO2 SFC VIS 3 TSE19 CB OHD-ALQDS MOV NE P0017=
200903281519 SPECI KATL 281519Z 13013G18KT 1 1/2SM +RA BR SCT005 OVC019CB 15/14 A2973 RMK AO2 SFC VIS 3 TSE19 CB OHD-ALQDS MOV NE P0011=
200903281519 SPECI KATL 281519Z 13013G18KT 1 1/2SM +RA BR SCT005 OVC019CB 15/14 A2973 RMK AO2 SFC VIS 3 TSE19 CB OHD-ALQDS MOV NE P0011=
200903281452 METAR KATL 281452Z 12014G19KT 1 1/2SM TSRA BR BKN002 OVC014CB 15/14 A2972 RMK AO2 SFC VIS 3 SLP062 OCNL LTGIC OHD-W TS OHD-W MOV NE P0031 60067 T01500144 58007=
200903281436 SPECI KATL 281436Z 11012G17KT 1SM TSRA BR BKN002 OVC017CB 15/14 A2974 RMK AO2 SFC VIS 3 PRESFR OCNL LTGIC S-OHD-NW TS S-OHD-NW MOV NE P0023=
200903281436 SPECI KATL 281436Z 11012G17KT 1SM TSRA BR BKN002 OVC017CB 15/14 A2974 RMK AO2 SFC VIS 3 PRESFR OCNL LTGIC S-OHD-NW TS S-OHD-NW MOV NE P0023=
200903281423 SPECI KATL 281423Z 11010KT 1/2SM TSRA BR SCT002 OVC017CB 15/14 A2976 RMK AO2 SFC VIS 3 OCNL LTGIC S-OHD-NW TS S-OHD-NW MOV NE P0017=
200903281423 SPECI KATL 281423Z 11010KT 1/2SM TSRA BR SCT002 OVC017CB 15/14 A2976 RMK AO2 SFC VIS 3 OCNL LTGIC S-OHD-NW TS S-OHD-NW MOV NE P0017=
200903281352 METAR KATL 281352Z 12006KT 1/2SM TSRA BR BKN002 OVC019CB 15/14 A2977 RMK AO2 SFC VIS 2 1/2 TSE17B52 SLP076 OCNL LTGIC SE TS SE MOV NE P0023 T01500144=
200903281317 SPECI KATL 281317Z 11007KT 1/2SM RA BR OVC002CB 15/14 A2976 RMK AO2 SFC VIS 3 TSE17 CB OHD-ALQDS MOV NE P0010=
200903281317 SPECI KATL 281317Z 11007KT 1/2SM RA BR OVC002CB 15/14 A2976 RMK AO2 SFC VIS 3 TSE17 CB OHD-ALQDS MOV NE P0010=
200903281252 METAR KATL 281252Z 12009KT 1/2SM TSRA BR OVC002CB 15/14 A2977 RMK AO2 SFC VIS 3 SLP077 OCNL LTGIC S-W TS S-W MOV NE P0013 T01500144=
200903281215 SPECI KATL 281215Z 15007KT 1/2SM -TSRA BR BKN002 OVC018CB 15/14 A2977 RMK AO2 SFC VIS 3 OCNL LTGICCC OHD-S-W TS OHD-S-W MOV NE P0004=
200903281215 SPECI KATL 281215Z 15007KT 1/2SM -TSRA BR BKN002 OVC018CB 15/14 A2977 RMK AO2 SFC VIS 3 OCNL LTGICCC OHD-S-W TS OHD-S-W MOV NE P0004=
200903281212 SPECI KATL 281212Z 15007KT 1SM -TSRA BR BKN002 OVC018CB 15/14 A2977 RMK AO2 SFC VIS 3 OCNL LTGICCC OHD-S-W TS OHD-S-W MOV NE P0004=
200903281212 SPECI KATL 281212Z 15007KT 1SM -TSRA BR BKN002 OVC018CB 15/14 A2977 RMK AO2 SFC VIS 3 OCNL LTGICCC OHD-S-W TS OHD-S-W MOV NE P0004=
200903281152 METAR KATL 281152Z 00000KT 1SM TSRA BR SCT002CB BKN024 OVC090 15/14 A2975 RMK AO2 SFC VIS 4 TSB28 SLP069 OCNL LTGICCC OHD-SW TS OHD-SW MOV NE P0009 60016 70158 T01500144 10156 20150 58007=
200903281140 SPECI KATL 281140Z 12005KT 1SM -TSRA BR SCT002CB BKN024 OVC090 15/14 A2974 RMK AO2 SFC VIS 4 TSB28 OCNL LTGCCCG SW TS SW MOV NE P0007=
200903281140 SPECI KATL 281140Z 12005KT 1SM -TSRA BR SCT002CB BKN024 OVC090 15/14 A2974 RMK AO2 SFC VIS 4 TSB28 OCNL LTGCCCG SW TS SW MOV NE P0007=
200903281136 SPECI KATL 281136Z 10005KT 3SM -TSRA BR SCT002CB BKN024 OVC090 15/14 A2974 RMK AO2 SFC VIS 5 TSB28 OCNL LTGCCCG SW TS SW MOV NE P0006=
200903281136 SPECI KATL 281136Z 10005KT 3SM -TSRA BR SCT002CB BKN024 OVC090 15/14 A2974 RMK AO2 SFC VIS 5 TSB28 OCNL LTGCCCG SW TS SW MOV NE P0006=
200903281130 SPECI KATL 281130Z 10004KT 3SM -TSRA BR BKN002CB BKN020 OVC090 15/14 A2974 RMK AO2 SFC VIS 5 TSB28 OCNL LTGCC SW TS SW MOV NE P0006=
200903281130 SPECI KATL 281130Z 10004KT 3SM -TSRA BR BKN002CB BKN020 OVC090 15/14 A2974 RMK AO2 SFC VIS 5 TSB28 OCNL LTGCC SW TS SW MOV NE P0006=
200903281117 SPECI KATL 281117Z 10003KT 3SM -RA BR BKN002 BKN005 OVC020 15/14 A2975 RMK AO2 SFC VIS 4 P0005=
200903281117 SPECI KATL 281117Z 10003KT 3SM -RA BR BKN002 BKN005 OVC020 15/14 A2975 RMK AO2 SFC VIS 4 P0005=
200903281052 METAR KATL 281052Z 14003KT 3SM -RA BR BKN005 OVC017 15/14 A2977 RMK AO2 SFC VIS 5 SLP078 P0007 T01500144=
200903281015 SPECI KATL 281015Z 15004KT 3SM -RA BR OVC005 15/14 A2978 RMK AO2 SFC VIS 6 P0001=
200903281015 SPECI KATL 281015Z 15004KT 3SM -RA BR OVC005 15/14 A2978 RMK AO2 SFC VIS 6 P0001=
200903280952 METAR KATL 280952Z 22004KT 3SM -RA OVC004 16/14 A2978 RMK AO2 SFC VIS 8 RAB44 SLP079 P0000 T01560144=
200903280852 METAR KATL 280852Z 19006KT 3SM OVC004 16/14 A2977 RMK AO2 SFC VIS 10 SLP077 T01560144 55016=
200903280752 METAR KATL 280752Z 00000KT 3SM OVC004 16/15 A2977 RMK AO2 SFC VIS 8 SLP076 T01560150=
200903280749 SPECI KATL 280749Z 00000KT 3SM OVC004 16/15 A2977 RMK AO2 SFC VIS 8=
200903280749 SPECI KATL 280749Z 00000KT 3SM OVC004 16/15 A2977 RMK AO2 SFC VIS 8=
200903280655 SPECI KATL 280655Z 20005KT 1SM OVC003 16/15 A2979 RMK AO2 SFC VIS 8=
200903280655 SPECI KATL 280655Z 20005KT 1SM OVC003 16/15 A2979 RMK AO2 SFC VIS 8=
200903280652 METAR KATL 280652Z 21006KT 9SM OVC004 16/15 A2979 RMK AO2 SLP084 T01560150=
200903280552 METAR KATL 280552Z 21006KT 7SM OVC004 16/15 A2982 RMK AO2 SLP093 T01560150 10167 20156 53008=
200903280527 SPECI KATL 280527Z 19004KT 7SM OVC005 16/15 A2981 RMK AO2=
200903280527 SPECI KATL 280527Z 19004KT 7SM OVC005 16/15 A2981 RMK AO2=
200903280452 METAR KATL 280452Z COR 20007KT 2SM OVC004 16/15 A2980 RMK AO2 SFC VIS 7 SLP087 CIG 003V006 T01610150 401780139=
200903280352 METAR KATL 280352Z 19006KT 9SM OVC004 16/16 A2979 RMK AO2 SLP085 CIG 003V008 T01610156=
200903280252 METAR KATL 280252Z 20007KT 10SM BKN005 OVC020 16/16 A2979 RMK AO2 SLP086 CIG 004V008 T01610156 51020=
200903280235 SPECI KATL 280235Z 18006KT 10SM BKN005 OVC020 16/16 A2978 RMK AO2 CIG 004V008=
200903280235 SPECI KATL 280235Z 18006KT 10SM BKN005 OVC020 16/16 A2978 RMK AO2 CIG 004V008=
200903280152 METAR KATL 280152Z 17006KT 10SM FEW006 BKN013 OVC020 17/16 A2977 RMK AO2 SLP076 T01670156=
200903280131 SPECI KATL 280131Z 20005KT 10SM SCT008 BKN013 OVC020 17/16 A2977 RMK AO2=
200903280131 SPECI KATL 280131Z 20005KT 10SM SCT008 BKN013 OVC020 17/16 A2977 RMK AO2=
200903280052 METAR KATL 280052Z 22006KT 10SM BKN009 OVC020 17/16 A2976 RMK AO2 SLP074 CIG 006V012 T01670156=
200903272352 METAR KATL 272352Z 19006KT 9SM BKN009 BKN015 OVC030 17/16 A2973 RMK AO2 RAE05 SLP065 P0000 60004 T01670161 10178 20161 53010=
200903272252 METAR KATL 272252Z 19006KT 3SM -RA BR BKN007 BKN014 OVC020 17/16 A2971 RMK AO2 SFC VIS 6 SLP057 P0001 T01670161=
200903272152 METAR KATL 272152Z 20010KT 3SM -RA BR SCT007 BKN014 OVC030 17/16 A2971 RMK AO2 SFC VIS 5 SLP058 P0000 T01670156=
200903272112 SPECI KATL 272112Z 19013KT 3SM -RA BR SCT007 BKN013 OVC025 17/16 A2970 RMK AO2 SFC VIS 4 P0000=
200903272112 SPECI KATL 272112Z 19013KT 3SM -RA BR SCT007 BKN013 OVC025 17/16 A2970 RMK AO2 SFC VIS 4 P0000=
200903272052 METAR KATL 272052Z 19009KT 3SM R09R/6000VP6000FT -RA BR BKN007 OVC013 17/16 A2970 RMK AO2 RAB40 CIG 005V009 SLP055 P0000 60003 T01670156 55005=
200903272047 SPECI KATL 272047Z 18011KT 3SM R09R/6000VP6000FT -RA BR BKN010 OVC016 17/16 A2970 RMK AO2 TWR VIS 4 RAB40 CIG 006V013 P0000=
200903272047 SPECI KATL 272047Z 18011KT 3SM R09R/6000VP6000FT -RA BR BKN010 OVC016 17/16 A2970 RMK AO2 TWR VIS 4 RAB40 CIG 006V013 P0000=
200903272004 SPECI KATL 272004Z 17007KT 9SM SCT010 BKN016 OVC038 18/16 A2970 RMK AO2=
200903272004 SPECI KATL 272004Z 17007KT 9SM SCT010 BKN016 OVC038 18/16 A2970 RMK AO2=
200903271952 METAR KATL 271952Z 17009KT 8SM BKN010 BKN020 OVC050 17/16 A2970 RMK AO2 DZE24 SLP053 P0000 T01720156=
200903271925 SPECI KATL 271925Z 14007KT 7SM BKN006 BKN010 OVC050 17/16 A2970 RMK AO2 DZE24 P0000=
200903271925 SPECI KATL 271925Z 14007KT 7SM BKN006 BKN010 OVC050 17/16 A2970 RMK AO2 DZE24 P0000=
200903271907 SPECI KATL 271907Z 12006KT 3SM -DZ BR BKN006 BKN030 OVC050 17/16 A2971 RMK AO2 SFC VIS 6 P0000=
200903271907 SPECI KATL 271907Z 12006KT 3SM -DZ BR BKN006 BKN030 OVC050 17/16 A2971 RMK AO2 SFC VIS 6 P0000=
200903271852 METAR KATL 271852Z 11008KT 1 1/2SM -DZ BR BKN006 BKN030 OVC050 17/16 A2972 RMK AO2 SFC VIS 5 RAE34DZB45 SLP059 P0003 T01720161=
200903271848 SPECI KATL 271848Z 10006KT 1 1/2SM -DZ BR BKN004 BKN030 OVC050 17/16 A2972 RMK AO2 SFC VIS 5 RAE34DZB45 P0003=
200903271848 SPECI KATL 271848Z 10006KT 1 1/2SM -DZ BR BKN004 BKN030 OVC050 17/16 A2972 RMK AO2 SFC VIS 5 RAE34DZB45 P0003=
200903271815 SPECI KATL 271815Z 12010KT 1 1/2SM R09R/5000VP6000FT -RA BR SCT004 BKN018 OVC050 16/16 A2973 RMK AO2 SFC VIS 3 P0002=
200903271815 SPECI KATL 271815Z 12010KT 1 1/2SM R09R/5000VP6000FT -RA BR SCT004 BKN018 OVC050 16/16 A2973 RMK AO2 SFC VIS 3 P0002=
200903271752 METAR KATL 271752Z 12009KT 1 1/2SM -RA BR BKN006 BKN020 OVC030 16/15 A2974 RMK AO2 SFC VIS 4 SLP067 VIS LWR NE-E-SE SHRA P0003 60138 T01610150 10161 20144 55012=
200903271703 SPECI KATL 271703Z 10007KT 1 1/2SM -RA BR BKN006 BKN016 OVC030 16/15 A2974 RMK AO2 SFC VIS 5 P0001=
200903271703 SPECI KATL 271703Z 10007KT 1 1/2SM -RA BR BKN006 BKN016 OVC030 16/15 A2974 RMK AO2 SFC VIS 5 P0001=
200903271652 METAR KATL 271652Z 13011G18KT 1 1/2SM -RA BR SCT006 SCT009 OVC016 16/15 A2972 RMK AO2 SFC VIS 4 SLP062 P0025 T01560150=
200903271643 SPECI KATL 271643Z 13012KT 1 1/2SM -RA BR BKN006 BKN009 OVC019 16/15 A2973 RMK AO2 SFC VIS 3 PRESFR P0025=
200903271643 SPECI KATL 271643Z 13012KT 1 1/2SM -RA BR BKN006 BKN009 OVC019 16/15 A2973 RMK AO2 SFC VIS 3 PRESFR P0025=
200903271636 SPECI KATL 271636Z 13010G17KT 1 1/2SM RA BR SCT006 OVC013 16/15 A2975 RMK AO2 SFC VIS 2 P0024=
200903271636 SPECI KATL 271636Z 13010G17KT 1 1/2SM RA BR SCT006 OVC013 16/15 A2975 RMK AO2 SFC VIS 2 P0024=
200903271552 METAR KATL 271552Z 12010KT 1 1/2SM +RA BR BKN006 BKN013 OVC020 15/14 A2976 RMK AO2 SFC VIS 2 SLP076 LTG DSNT E & S CB DSNT E & S P0032 T01500144=
200903271545 SPECI KATL 271545Z 10012KT 1 1/2SM R09R/5000VP6000FT +RA BR SCT006 BKN013 OVC020 15/14 A2976 RMK AO2 SFC VIS 2 LTG DSNT E & S CB DSNT E & S P0028=
200903271545 SPECI KATL 271545Z 10012KT 1 1/2SM R09R/5000VP6000FT +RA BR SCT006 BKN013 OVC020 15/14 A2976 RMK AO2 SFC VIS 2 LTG DSNT E & S CB DSNT E & S P0028=
200903271452 METAR KATL 271452Z 09009KT 1 1/2SM RA BR OVC006 15/14 A2978 RMK AO2 SFC VIS 3 CIG 003V009 SLP080 LTG DSNT S CB DSNT S P0023 60078 T01500144 56021=
200903271417 SPECI KATL 271417Z 09012KT 1 1/2SM RA BR BKN006 OVC014 15/14 A2978 RMK AO2 SFC VIS 5 CIG 004V010 P0004=
200903271417 SPECI KATL 271417Z 09012KT 1 1/2SM RA BR BKN006 OVC014 15/14 A2978 RMK AO2 SFC VIS 5 CIG 004V010 P0004=
200903271409 SPECI KATL 271409Z 09011KT 1 1/2SM RA BR SCT006 BKN014 OVC019 15/14 A2979 RMK AO2 SFC VIS 4 P0002=
200903271409 SPECI KATL 271409Z 09011KT 1 1/2SM RA BR SCT006 BKN014 OVC019 15/14 A2979 RMK AO2 SFC VIS 4 P0002=
200903271352 METAR KATL 271352Z 09012KT 1 1/2SM RA BR FEW005 BKN020 OVC030 15/14 A2980 RMK AO2 SFC VIS 5 SLP087 P0026 T01500139=
200903271338 SPECI KATL 271338Z 08010KT 1 1/2SM RA BR FEW004 BKN020 OVC026 14/14 A2981 RMK AO2 SFC VIS 4 P0023=
200903271338 SPECI KATL 271338Z 08010KT 1 1/2SM RA BR FEW004 BKN020 OVC026 14/14 A2981 RMK AO2 SFC VIS 4 P0023=
200903271334 SPECI KATL 271334Z 09008KT 1/2SM RA BR SCT004 BKN014 OVC028 14/14 A2982 RMK AO2 SFC VIS 4 P0022=
200903271334 SPECI KATL 271334Z 09008KT 1/2SM RA BR SCT004 BKN014 OVC028 14/14 A2982 RMK AO2 SFC VIS 4 P0022=
200903271252 METAR KATL 271252Z 09009KT 1/2SM RA BR BKN004 BKN017 OVC024 14/14 A2981 RMK AO2 SFC VIS 4 SLP090 LTG DSNT E P0029 T01440139=
200903271240 SPECI KATL 271240Z 09009KT 1/2SM RA BR SCT004 BKN017 OVC032 14/14 A2982 RMK AO2 SFC VIS 4 P0025=
200903271240 SPECI KATL 271240Z 09009KT 1/2SM RA BR SCT004 BKN017 OVC032 14/14 A2982 RMK AO2 SFC VIS 4 P0025=
200903271235 SPECI KATL 271235Z 09009KT 1 1/2SM RA BR SCT004 BKN017 OVC032 14/14 A2982 RMK AO2 SFC VIS 4 P0022=
200903271235 SPECI KATL 271235Z 09009KT 1 1/2SM RA BR SCT004 BKN017 OVC032 14/14 A2982 RMK AO2 SFC VIS 4 P0022=
200903271214 SPECI KATL 271214Z 09011KT 1 1/2SM RA BR SCT018 BKN024 OVC049 14/14 A2983 RMK AO2 SFC VIS 5 P0012=
200903271214 SPECI KATL 271214Z 09011KT 1 1/2SM RA BR SCT018 BKN024 OVC049 14/14 A2983 RMK AO2 SFC VIS 5 P0012=
200903271204 SPECI KATL 271204Z 10007KT 1 1/2SM RA BR FEW004 BKN030 OVC037 14/14 A2984 RMK AO2 SFC VIS 4 P0008=
200903271204 SPECI KATL 271204Z 10007KT 1 1/2SM RA BR FEW004 BKN030 OVC037 14/14 A2984 RMK AO2 SFC VIS 4 P0008=
200903271152 METAR KATL 271152Z 12006KT 1/2SM RA BR SCT004 BKN013 OVC049 14/14 A2984 RMK AO2 SFC VIS 4 SLP101 P0025 60026 70125 T01440139 10150 20139 51004=
200903271150 SPECI KATL 271150Z 11005KT 1/2SM RA BR SCT004 BKN015 OVC049 14/14 A2984 RMK AO2 SFC VIS 3 P0025=
200903271150 SPECI KATL 271150Z 11005KT 1/2SM RA BR SCT004 BKN015 OVC049 14/14 A2984 RMK AO2 SFC VIS 3 P0025=
200903271122 SPECI KATL 271122Z 14005KT 1/2SM RA BR BKN004 OVC013 14/14 A2986 RMK AO2 SFC VIS 4 CIG 002V007 P0006=
200903271122 SPECI KATL 271122Z 14005KT 1/2SM RA BR BKN004 OVC013 14/14 A2986 RMK AO2 SFC VIS 4 CIG 002V007 P0006=
200903271052 METAR KATL 271052Z 13007KT 1/4SM -RA BR OVC002 14/14 A2984 RMK AO2 SFC VIS 5 RAB38 SLP102 P0000 T01390139=
200903270952 METAR KATL 270952Z 09006KT 1/4SM BR OVC002 14/14 A2983 RMK AO2 SFC VIS 4 RAB07E28 SLP096 P0001 T01440139=
200903270921 SPECI KATL 270921Z 10004KT 1SM -RA BR OVC004 14/14 A2983 RMK AO2 SFC VIS 4 RAB07 P0001=
200903270921 SPECI KATL 270921Z 10004KT 1SM -RA BR OVC004 14/14 A2983 RMK AO2 SFC VIS 4 RAB07 P0001=
200903270852 METAR KATL 270852Z 11005KT 6SM BR BKN004 OVC030 14/14 A2985 RMK AO2 SLP103 T01440139 56016=
200903270752 METAR KATL 270752Z 11004KT 6SM BR BKN004 OVC008 14/14 A2986 RMK AO2 SLP108 T01440139=
200903270652 METAR KATL 270652Z 11003KT 6SM BR BKN006 OVC250 14/14 A2986 RMK AO2 CIG 005V010 SLP109 T01440139=
200903270625 SPECI KATL 270625Z 00000KT 6SM BR SCT008 OVC250 15/14 A2987 RMK AO2=
200903270625 SPECI KATL 270625Z 00000KT 6SM BR SCT008 OVC250 15/14 A2987 RMK AO2=
200903270552 METAR KATL 270552Z 19005KT 6SM BR OVC008 15/14 A2989 RMK AO2 CIG 004V010 SLP120 T01500144 10189 20144 55008=
200903270542 SPECI KATL 270542Z 00000KT 10SM OVC008 15/14 A2989 RMK AO2 CIG 004V013=
200903270542 SPECI KATL 270542Z 00000KT 10SM OVC008 15/14 A2989 RMK AO2 CIG 004V013=
200903270527 SPECI KATL 270527Z 14003KT 10SM BKN012 OVC250 14/14 A2989 RMK AO2=
200903270527 SPECI KATL 270527Z 14003KT 10SM BKN012 OVC250 14/14 A2989 RMK AO2=
200903270452 METAR KATL 270452Z 14004KT 10SM FEW012 SCT030 OVC250 15/14 A2989 RMK AO2 SLP120 T01500144 401940128=
200903270418 SPECI KATL 270418Z 14003KT 10SM SCT029 BKN045 OVC250 16/14 A2990 RMK AO2=
200903270418 SPECI KATL 270418Z 14003KT 10SM SCT029 BKN045 OVC250 16/14 A2990 RMK AO2=
200903270352 METAR KATL 270352Z 14003KT 10SM BKN027 BKN250 16/14 A2990 RMK AO2 SLP124 T01560144=
200903270332 SPECI KATL 270332Z 12003KT 10SM BKN027 BKN250 16/14 A2991 RMK AO2=
200903270332 SPECI KATL 270332Z 12003KT 10SM BKN027 BKN250 16/14 A2991 RMK AO2=
200903270252 METAR KATL 270252Z 16004KT 10SM FEW018 SCT055 BKN250 16/14 A2992 RMK AO2 SLP129 T01610144 51011=
200903270152 METAR KATL 270152Z 19004KT 10SM FEW035 SCT055 BKN250 17/15 A2992 RMK AO2 SLP127 T01720150=
200903270117 SPECI KATL 270117Z 20006KT 10SM FEW015 SCT028 BKN200 18/15 A2991 RMK AO2=
200903270117 SPECI KATL 270117Z 20006KT 10SM FEW015 SCT028 BKN200 18/15 A2991 RMK AO2=
200903270052 METAR KATL 270052Z 17008KT 10SM SCT016 BKN022 BKN035 OVC200 18/16 A2991 RMK AO2 SLP124 T01830156=
200903270020 SPECI KATL 270020Z 00000KT 10SM BKN022 BKN030 BKN200 18/16 A2990 RMK AO2=
200903270020 SPECI KATL 270020Z 00000KT 10SM BKN022 BKN030 BKN200 18/16 A2990 RMK AO2=
200903262352 METAR KATL 262352Z 00000KT 10SM FEW025 SCT032 BKN200 19/16 A2989 RMK AO2 SLP116 TCU DSNT E AND SE 60001 T01890156 10194 20161 56002=
200903262306 SPECI KATL 262306Z 20005KT 10SM SCT022 BKN035 BKN150 BKN200 19/16 A2989 RMK AO2 TCU DSNT SE=
200903262306 SPECI KATL 262306Z 20005KT 10SM SCT022 BKN035 BKN150 BKN200 19/16 A2989 RMK AO2 TCU DSNT SE=
200903262252 METAR KATL 262252Z 18004KT 10SM SCT020 BKN028 BKN150 OVC200 19/16 A2989 RMK AO2 SLP116 TCU DSNT SE-S T01940161=
200903262152 METAR KATL 262152Z 23004KT 10SM FEW015 SCT022 BKN150 OVC200 19/16 A2988 RMK AO2 RAE07 SLP115 TCU DSNT E P0000 T01890161=
200903262148 SPECI KATL 262148Z 22005KT 10SM FEW015 SCT022TCU BKN150 OVC200 19/17 A2988 RMK AO2 RAE07 TCU E P0000=
200903262148 SPECI KATL 262148Z 22005KT 10SM FEW015 SCT022TCU BKN150 OVC200 19/17 A2988 RMK AO2 RAE07 TCU E P0000=
200903262126 SPECI KATL 262126Z 22006KT 10SM SCT015 BKN022 BKN150 BKN200 19/16 A2989 RMK AO2 RAE07 P0000=
200903262126 SPECI KATL 262126Z 22006KT 10SM SCT015 BKN022 BKN150 BKN200 19/16 A2989 RMK AO2 RAE07 P0000=
200903262111 SPECI KATL 262111Z 21005KT 10SM FEW015 SCT028 BKN150 BKN200 19/17 A2988 RMK AO2 RAE07 P0000=
200903262111 SPECI KATL 262111Z 21005KT 10SM FEW015 SCT028 BKN150 BKN200 19/17 A2988 RMK AO2 RAE07 P0000=
200903262052 METAR KATL 262052Z 24003KT 9SM -RA FEW015 BKN020 OVC030 18/16 A2989 RMK AO2 RAB35 SLP118 P0001 60001 T01830161 55007=
200903262008 SPECI KATL 262008Z 21004KT 10SM FEW010 BKN030 OVC040 18/16 A2989 RMK AO2=
200903262008 SPECI KATL 262008Z 21004KT 10SM FEW010 BKN030 OVC040 18/16 A2989 RMK AO2=
200903261959 SPECI KATL 261959Z 21007KT 10SM FEW010 BKN017 OVC036 18/16 A2989 RMK AO2=
200903261959 SPECI KATL 261959Z 21007KT 10SM FEW010 BKN017 OVC036 18/16 A2989 RMK AO2=
200903261952 METAR KATL 261952Z 19005KT 10SM BKN009 BKN015 OVC030 18/16 A2989 RMK AO2 SLP117 T01780161=
200903261852 METAR KATL 261852Z 19005KT 8SM BKN007 BKN015 OVC040 16/15 A2988 RMK AO2 RAE31 SLP117 P0000 T01610150=
200903261818 SPECI KATL 261818Z 18008KT 5SM -RA BR BKN007 BKN012 OVC040 16/15 A2991 RMK AO2 P0000=
200903261818 SPECI KATL 261818Z 18008KT 5SM -RA BR BKN007 BKN012 OVC040 16/15 A2991 RMK AO2 P0000=
200903261752 METAR KATL 261752Z 16007KT 8SM -RA BKN007 BKN020 OVC040 16/15 A2991 RMK AO2 RAE10B51 SLP127 P0000 60098 T01610150 10161 20139 50018=
200903261726 SPECI KATL 261726Z 19007KT 10SM BKN007 BKN016 OVC040 16/14 A2992 RMK AO2 RAE10 P0000=
200903261726 SPECI KATL 261726Z 19007KT 10SM BKN007 BKN016 OVC040 16/14 A2992 RMK AO2 RAE10 P0000=
200903261702 SPECI KATL 261702Z 19005KT 6SM -RA BR FEW007 BKN018 OVC037 16/15 A2993 RMK AO2 P0000=
200903261702 SPECI KATL 261702Z 19005KT 6SM -RA BR FEW007 BKN018 OVC037 16/15 A2993 RMK AO2 P0000=
200903261652 METAR KATL 261652Z 18005KT 5SM -RA BR FEW008 SCT020 OVC040 16/14 A2993 RMK AO2 RAB26 SLP131 VIS LWR NE-E-SE-S SHRA P0003 T01560144=
200903261636 SPECI KATL 261636Z 19008KT 4SM -RA BR FEW008 BKN030 OVC070 15/14 A2993 RMK AO2 RAB26 P0001=
200903261636 SPECI KATL 261636Z 19008KT 4SM -RA BR FEW008 BKN030 OVC070 15/14 A2993 RMK AO2 RAB26 P0001=
200903261615 SPECI KATL 261615Z 17009KT 10SM SCT008 BKN050 OVC070 15/14 A2993 RMK AO2=
200903261615 SPECI KATL 261615Z 17009KT 10SM SCT008 BKN050 OVC070 15/14 A2993 RMK AO2=
200903261552 METAR KATL 261552Z 16007KT 10SM BKN008 BKN012 OVC080 15/14 A2992 RMK AO2 RAE09 SLP132 P0002 T01500139=
200903261516 SPECI KATL 261516Z 13006KT 10SM BKN007 BKN027 OVC080 15/13 A2993 RMK AO2 RAE09 P0002=
200903261516 SPECI KATL 261516Z 13006KT 10SM BKN007 BKN027 OVC080 15/13 A2993 RMK AO2 RAE09 P0002=
200903261452 METAR KATL 261452Z 14016G27KT 10SM -RA FEW003 SCT020 BKN070 OVC150 14/13 A2986 RMK AO2 PK WND 14027/1450 PRESFR SLP109 CBMAM N-NE CB DSNT E-SE-S MOV NE P0028 60093 T01440133 58019=
200903261434 SPECI KATL 261434Z 15009KT 10SM -RA FEW003 BKN023 OVC040 14/14 A2991 RMK AO2 CB DSNT E-SE-S MOV NE P0028=
200903261434 SPECI KATL 261434Z 15009KT 10SM -RA FEW003 BKN023 OVC040 14/14 A2991 RMK AO2 CB DSNT E-SE-S MOV NE P0028=
200903261421 SPECI KATL 261421Z 13004KT 2 1/2SM RA BR FEW003 BKN018 OVC040 14/14 A2992 RMK AO2 SFC VIS 4 CB DSNT E-SE-S MOV NE P0026=
200903261421 SPECI KATL 261421Z 13004KT 2 1/2SM RA BR FEW003 BKN018 OVC040 14/14 A2992 RMK AO2 SFC VIS 4 CB DSNT E-SE-S MOV NE P0026=
200903261355 SPECI KATL 261355Z 25010KT 1 1/2SM R09R/4500VP6000FT +RA BR BKN009 BKN015 OVC040 14/13 A2996 RMK AO2 SFC VIS 2 LTG DSNT S CB DSNT NE & S MOV NE P0005=
200903261355 SPECI KATL 261355Z 25010KT 1 1/2SM R09R/4500VP6000FT +RA BR BKN009 BKN015 OVC040 14/13 A2996 RMK AO2 SFC VIS 2 LTG DSNT S CB DSNT NE & S MOV NE P0005=
200903261352 METAR KATL 261352Z 24006KT 1 1/2SM R09R/4500VP6000FT +RA BR SCT009 SCT015 OVC040 14/13 A2997 RMK AO2 WSHFT 1315 SFC VIS 3 SLP146 LTG DSNT S CB DSNT NE & S MOV NE P0065 T01440133=
200903261350 SPECI KATL 261350Z 24009KT 1 1/2SM R09R/4500VP6000FT +RA BR SCT009 SCT015 OVC040 14/13 A2996 RMK AO2 WSHFT 1315 SFC VIS 3 LTG DSNT S CB DSNT NE & S MOV NE P0060=
200903261350 SPECI KATL 261350Z 24009KT 1 1/2SM R09R/4500VP6000FT +RA BR SCT009 SCT015 OVC040 14/13 A2996 RMK AO2 WSHFT 1315 SFC VIS 3 LTG DSNT S CB DSNT NE & S MOV NE P0060=
200903261346 SPECI KATL 261346Z 24010KT 2SM R09R/6000VP6000FT +RA BR BKN009 BKN015 OVC040 14/13 A2996 RMK AO2 WSHFT 1315 SFC VIS 4 CB DSNT NE & S MOV NE P0056 $=
200903261346 SPECI KATL 261346Z 24010KT 2SM R09R/6000VP6000FT +RA BR BKN009 BKN015 OVC040 14/13 A2996 RMK AO2 WSHFT 1315 SFC VIS 4 CB DSNT NE & S MOV NE P0056 $=
200903261331 SPECI KATL 261331Z 26012G21KT 1 1/4SM R09R/3000VP6000FT +RA BR SCT006CB BKN011 OVC016 14/13 A2996 RMK AO2 WSHFT 1315 SFC VIS 1 1/2 CB OHD-NE & DSNT S MOV NE P0040 $=
200903261331 SPECI KATL 261331Z 26012G21KT 1 1/4SM R09R/3000VP6000FT +RA BR SCT006CB BKN011 OVC016 14/13 A2996 RMK AO2 WSHFT 1315 SFC VIS 1 1/2 CB OHD-NE & DSNT S MOV NE P0040 $=
200903261324 SPECI KATL 261324Z 29015G21KT 3/4SM R09R/3000VP6000FT +RA BR FEW006CB SCT011 OVC016 14/13 A2997 RMK AO2 CB OHD MOV NE P0020=
200903261324 SPECI KATL 261324Z 29015G21KT 3/4SM R09R/3000VP6000FT +RA BR FEW006CB SCT011 OVC016 14/13 A2997 RMK AO2 CB OHD MOV NE P0020=
200903261321 SPECI KATL 261321Z 30011G20KT 1 1/4SM R09R/3500VP6000FT +RA BR FEW006 OVC014 14/13 A2997 RMK AO2 PRESRR P0011=
200903261321 SPECI KATL 261321Z 30011G20KT 1 1/4SM R09R/3500VP6000FT +RA BR FEW006 OVC014 14/13 A2997 RMK AO2 PRESRR P0011=
200903261318 SPECI KATL 261318Z 29016G20KT 2 1/2SM RA BR FEW010 OVC016 14/13 A2998 RMK AO2 PRESRR P0008=
200903261318 SPECI KATL 261318Z 29016G20KT 2 1/2SM RA BR FEW010 OVC016 14/13 A2998 RMK AO2 PRESRR P0008=
200903261304 SPECI KATL 261304Z 20009G16KT 4SM -RA BR BKN018 BKN050 OVC065 15/13 A2993 RMK AO2 P0002=
200903261304 SPECI KATL 261304Z 20009G16KT 4SM -RA BR BKN018 BKN050 OVC065 15/13 A2993 RMK AO2 P0002=
200903261252 METAR KATL 261252Z 19010KT 7SM -RA SCT020 BKN050 OVC065 15/12 A2992 RMK AO2 RAB24 SLP128 P0000 T01500122=
200903261152 METAR KATL 261152Z 16010KT 10SM FEW060 BKN075 OVC100 14/12 A2991 RMK AO2 SLP126 70015 T01440117 10144 20133 56013=
200903261052 METAR KATL 261052Z 15010KT 10SM FEW100 SCT110 OVC200 14/12 A2992 RMK AO2 SLP128 T01440117=
200903260952 METAR KATL 260952Z 14008KT 7SM SCT070 BKN095 13/12 A2993 RMK AO2 SLP134 T01330122=
200903260933 SPECI KATL 260933Z 12009KT 6SM BR FEW036 OVC095 14/13 A2994 RMK AO2=
200903260933 SPECI KATL 260933Z 12009KT 6SM BR FEW036 OVC095 14/13 A2994 RMK AO2=
200903260852 METAR KATL 260852Z 11009KT 1/2SM BR SCT006 OVC090 14/13 A2995 RMK AO2 SFC VIS 5 SLP140 T01390128 56009=
200903260752 METAR KATL 260752Z 13008KT 1/2SM BR SCT006 OVC080 14/13 A2996 RMK AO2 SFC VIS 6 SLP142 T01390128=
200903260747 SPECI KATL 260747Z 12008KT 1/2SM BR SCT004 OVC080 14/13 A2996 RMK AO2 SFC VIS 6=
200903260747 SPECI KATL 260747Z 12008KT 1/2SM BR SCT004 OVC080 14/13 A2996 RMK AO2 SFC VIS 6=
200903260652 METAR KATL 260652Z 11007KT 1/2SM BR OVC002 13/13 A2998 RMK AO2 SFC VIS 4 SLP149 T01330128=
200903260552 METAR KATL 260552Z 11009KT 1/2SM BR OVC004 13/13 A2999 RMK AO2 SFC VIS 3 SLP155 60003 T01330128 10150 20128 56028=
200903260452 METAR KATL 260452Z 11016G19KT 1/2SM BR OVC002 13/12 A3000 RMK AO2 SFC VIS 2 PRESFR SLP156 T01280122 401890128=
200903260352 METAR KATL 260352Z 10007KT 1/2SM BR OVC002 13/12 A3006 RMK AO2 SFC VIS 2 1/2 RAE03 SLP176 TWRINC P0000 T01280122=
200903260252 METAR KATL 260252Z 10009KT 1/2SM -RA BR OVC003 13/12 A3008 RMK AO2 SFC VIS 3 RAE18B43 SLP184 CIG 002V005 TWRINC P0001 60003 T01280122 55003=
200903260210 SPECI KATL 260210Z 10010KT 1/2SM -RA BR OVC003 13/12 A3008 RMK AO2 SFC VIS 4 TWRINC P0000=
200903260210 SPECI KATL 260210Z 10010KT 1/2SM -RA BR OVC003 13/12 A3008 RMK AO2 SFC VIS 4 TWRINC P0000=
200903260152 METAR KATL 260152Z 10011KT 3SM -RA BR OVC004 13/12 A3008 RMK AO2 SFC VIS 4 RAE0058B50 SLP184 CIG 003V007 P0000 T01280122=
200903260052 METAR KATL 260052Z 10010G17KT 3SM -RA BR OVC005 13/13 A3006 RMK AO2 SFC VIS 5 SLP180 CIG 003V007 PCPN VRY LGT P0002 T01330128=
200903252352 METAR KATL 252352Z 10009KT 3SM -RA BR SCT005 BKN009 OVC050 15/14 A3009 RMK AO2 SLP186 P0004 60012 T01500139 10189 20150 51002=
200903252343 SPECI KATL 252343Z 09009KT 3SM -RA BR SCT005 BKN009 OVC050 15/14 A3009 RMK AO2 P0004=
200903252343 SPECI KATL 252343Z 09009KT 3SM -RA BR SCT005 BKN009 OVC050 15/14 A3009 RMK AO2 P0004=
200903252326 SPECI KATL 252326Z 09009KT 3SM -RA BR FEW005 BKN045 OVC060 15/14 A3009 RMK AO2 SFC VIS 4 P0002=
200903252326 SPECI KATL 252326Z 09009KT 3SM -RA BR FEW005 BKN045 OVC060 15/14 A3009 RMK AO2 SFC VIS 4 P0002=
200903252252 METAR KATL 252252Z 08009KT 7SM -RA FEW005 SCT045 OVC065 16/14 A3009 RMK AO2 SLP186 P0002 T01560139=
200903252152 METAR KATL 252152Z 15006KT 3SM -RA BR FEW020 SCT032 OVC065 16/14 A3008 RMK AO2 SFC VIS 5 SLP185 P0005 T01560139=
200903252139 SPECI KATL 252139Z 15005KT 3SM -RA BR BKN032 BKN045 OVC060 16/14 A3009 RMK AO2 SFC VIS 4 P0003=
200903252139 SPECI KATL 252139Z 15005KT 3SM -RA BR BKN032 BKN045 OVC060 16/14 A3009 RMK AO2 SFC VIS 4 P0003=
200903252052 METAR KATL 252052Z 15008KT 8SM -RA FEW020 SCT040 BKN070 OVC150 17/13 A3008 RMK AO2 SLP183 P0000 60001 T01720128 56006=
200903251952 METAR KATL 251952Z 14005KT 10SM -RA FEW020 SCT050 BKN080 OVC150 18/12 A3008 RMK AO2 SLP184 P0001 T01780122=
200903251852 METAR KATL 251852Z 14012KT 10SM -RA FEW030 SCT040 BKN090 OVC150 18/11 A3009 RMK AO2 RAB52 SLP186 P0000 T01830106=
200903251752 METAR KATL 251752Z 14009G16KT 10SM FEW075 SCT095 OVC150 18/11 A3010 RMK AO2 RAE43 SLP189 BINOVC NE P0000 60000 T01780111 10178 20144 58021=
200903251652 METAR KATL 251652Z 15010KT 10SM -RA FEW030 SCT080 OVC150 17/12 A3013 RMK AO2 SLP200 BINOVC NW P0000 T01670117=
200903251552 METAR KATL 251552Z 12009KT 10SM -RA FEW020 SCT040 SCT070 OVC150 16/12 A3014 RMK AO2 SLP204 P0000 T01560117=
200903251504 SPECI KATL 251504Z 13006KT 9SM -RA FEW009 BKN020 BKN080 OVC150 14/11 A3016 RMK AO2 P0000=
200903251504 SPECI KATL 251504Z 13006KT 9SM -RA FEW009 BKN020 BKN080 OVC150 14/11 A3016 RMK AO2 P0000=
200903251502 SPECI KATL 251502Z 13007KT 10SM -RA FEW006 BKN025 BKN042 OVC150 14/11 A3016 RMK AO2 P0000=
200903251502 SPECI KATL 251502Z 13007KT 10SM -RA FEW006 BKN025 BKN042 OVC150 14/11 A3016 RMK AO2 P0000=
200903251452 METAR KATL 251452Z 13007KT 10SM -RA FEW040 SCT080 OVC150 14/11 A3016 RMK AO2 SLP212 P0000 60000 T01440106 50008=
200903251352 METAR KATL 251352Z 14007G14KT 10SM -RA FEW015 SCT040 BKN085 OVC150 14/11 A3017 RMK AO2 RAB05E17B40 SLP214 P0000 T01440106=
200903251252 METAR KATL 251252Z 14008KT 10SM BKN080 BKN180 14/10 A3016 RMK AO2 SLP211 T01440100=
200903251152 METAR KATL 251152Z 14007KT 10SM FEW090 SCT100 BKN180 14/10 A3014 RMK AO2 SLP203 60001 70001 T01440100 10167 20133 53001=
200903251052 METAR KATL 251052Z 15007KT 10SM BKN085 14/10 A3015 RMK AO2 SLP205 T01440100=
200903250952 METAR KATL 250952Z 13006KT 10SM SCT110 BKN150 OVC180 13/10 A3012 RMK AO2 RAE06 SLP196 P0000 T01330100=
200903250852 METAR KATL 250852Z 15009KT 10SM -RA SCT080 OVC095 14/11 A3014 RMK AO2 SLP202 P0001 60001 T01440106 56014=
200903250752 METAR KATL 250752Z 15012KT 10SM -RA BKN080 OVC120 16/10 A3014 RMK AO2 RAB42 SLP201 P0000 T01560100=
200903250652 METAR KATL 250652Z 15013G16KT 10SM BKN120 OVC180 16/11 A3015 RMK AO2 SLP205 T01610106=
200903250552 METAR KATL 250552Z 15010KT 10SM SCT050 OVC070 17/11 A3018 RMK AO2 SLP216 T01670111 10194 20167 50001=
200903250452 METAR KATL 250452Z 16013KT 10SM FEW060 OVC085 17/12 A3018 RMK AO2 SLP218 T01720117 402060094=
200903250352 METAR KATL 250352Z 14008KT 10SM BKN085 BKN150 OVC200 17/11 A3018 RMK AO2 SLP216 T01720111=
200903250252 METAR KATL 250252Z 15007KT 10SM FEW090 BKN140 OVC200 18/11 A3018 RMK AO2 SLP217 T01780111 53013=
200903250152 METAR KATL 250152Z 14007KT 10SM FEW150 BKN200 OVC250 18/11 A3016 RMK AO2 SLP212 T01830111=
200903250052 METAR KATL 250052Z 13007KT 10SM FEW150 BKN200 BKN250 18/11 A3014 RMK AO2 SLP205 T01830106=
200903242352 METAR KATL 242352Z 14007KT 10SM SCT150 BKN200 BKN250 19/11 A3014 RMK AO2 SLP204 T01940106 10206 20172 56011=
200903242252 SPECI KATL 242252Z 15009KT 10SM FEW045 SCT090 BKN150 OVC200 20/11 A3015 RMK AO2 SLP206 T02000106=
200903242152 METAR KATL 242152Z 17011KT 10SM FEW045 BKN090 BKN150 OVC200 21/11 A3016 RMK AO2 SLP209 T02060106=
200903242052 METAR KATL 242052Z 15010G14KT 10SM BKN045 BKN055 OVC085 21/11 A3017 RMK AO2 SLP214 T02060106 56020=
200903241952 METAR KATL 241952Z 16013G16KT 10SM BKN040 BKN060 BKN250 21/11 A3018 RMK AO2 SLP217 T02060111=
200903241852 METAR KATL 241852Z 13007KT 10SM FEW027 SCT055 BKN075 BKN250 21/13 A3020 RMK AO2 SLP224 T02060128=
200903241801 SPECI KATL 241801Z 14003KT 10SM SCT024 BKN034 BKN070 18/13 A3023 RMK AO2=
200903241801 SPECI KATL 241801Z 14003KT 10SM SCT024 BKN034 BKN070 18/13 A3023 RMK AO2=
200903241752 METAR KATL 241752Z 14006KT 10SM BKN020 BKN030 BKN070 18/13 A3023 RMK AO2 SLP235 T01780128 10178 20100 58008=
200903241704 SPECI KATL 241704Z 11006KT 10SM OVC016 17/13 A3025 RMK AO2=
200903241704 SPECI KATL 241704Z 11006KT 10SM OVC016 17/13 A3025 RMK AO2=
200903241652 METAR KATL 241652Z VRB04KT 10SM BKN014 BKN020 BKN060 16/13 A3025 RMK AO2 SLP243 T01610128=
200903241616 SPECI KATL 241616Z 14008KT 8SM BKN009 BKN012 15/12 A3026 RMK AO2=
200903241616 SPECI KATL 241616Z 14008KT 8SM BKN009 BKN012 15/12 A3026 RMK AO2=
200903241553 SPECI KATL 241553Z 12007KT 3SM BR OVC007 15/12 A3026 RMK AO2 SFC VIS 6 CIG 004V009=
200903241553 SPECI KATL 241553Z 12007KT 3SM BR OVC007 15/12 A3026 RMK AO2 SFC VIS 6 CIG 004V009=
200903241552 METAR KATL 241552Z 13007KT 1 1/2SM BR OVC007 15/12 A3026 RMK AO2 SFC VIS 6 CIG 004V009 SLP246 T01500122=
200903241513 SPECI KATL 241513Z 12007KT 1 1/2SM BR BKN003 OVC005 13/12 A3026 RMK AO2 SFC VIS 5=
200903241513 SPECI KATL 241513Z 12007KT 1 1/2SM BR BKN003 OVC005 13/12 A3026 RMK AO2 SFC VIS 5=
200903241452 METAR KATL 241452Z 14005KT 1/2SM BR BKN002 OVC005 13/12 A3026 RMK AO2 SFC VIS 5 SLP246 T01280122 53009=
200903241352 METAR KATL 241352Z 00000KT 1/2SM R09R/2200V4500FT BR BCFG BKN002 OVC004 12/12 A3025 RMK AO2 SFC VIS 3 SLP241 VIS LWR NE-E-SE-S BCFG T01170117=
200903241332 SPECI KATL 241332Z 14005KT 1/2SM R09R/2800VP6000FT BR BKN002 OVC004 11/11 A3025 RMK AO2 SFC VIS 1=
200903241332 SPECI KATL 241332Z 14005KT 1/2SM R09R/2800VP6000FT BR BKN002 OVC004 11/11 A3025 RMK AO2 SFC VIS 1=
200903241252 METAR KATL 241252Z 14005KT 1/2SM BR OVC003 11/11 A3024 RMK AO2 SFC VIS 5 SLP237 T01110106=
200903241231 SPECI KATL 241231Z 12005KT 1 1/2SM OVC003 12/09 A3024 RMK AO2 SFC VIS 8=
200903241231 SPECI KATL 241231Z 12005KT 1 1/2SM OVC003 12/09 A3024 RMK AO2 SFC VIS 8=
200903241204 SPECI KATL 241204Z 09005KT 1/2SM OVC003 10/08 A3023 RMK AO2 SFC VIS 7=
200903241204 SPECI KATL 241204Z 09005KT 1/2SM OVC003 10/08 A3023 RMK AO2 SFC VIS 7=
200903241152 METAR KATL 241152Z 09005KT 8SM BKN005 BKN055 10/08 A3023 RMK AO2 SLP236 T01000083 10139 20094 51012=
200903241139 SPECI KATL 241139Z 08006KT 9SM BKN005 BKN055 10/08 A3023 RMK AO2=
200903241139 SPECI KATL 241139Z 08006KT 9SM BKN005 BKN055 10/08 A3023 RMK AO2=
200903241135 SPECI KATL 241135Z 07006KT 9SM FEW005 SCT055 10/08 A3023 RMK AO2=
200903241135 SPECI KATL 241135Z 07006KT 9SM FEW005 SCT055 10/08 A3023 RMK AO2=
200903241052 METAR KATL 241052Z 00000KT 10SM FEW055 12/10 A3023 RMK AO2 SLP232 T01170100=
200903240952 METAR KATL 240952Z 17003KT 10SM FEW055 11/09 A3021 RMK AO2 SLP227 T01110094=
200903240852 METAR KATL 240852Z 17005KT 10SM SCT055 12/09 A3019 RMK AO2 SLP222 T01170094 58002=
200903240752 METAR KATL 240752Z 16004KT 10SM CLR 12/08 A3020 RMK AO2 SLP225 T01170078=
200903240652 METAR KATL 240652Z 18009KT 10SM CLR 13/05 A3020 RMK AO2 SLP224 T01280050=
200903240552 METAR KATL 240552Z 14003KT 10SM CLR 14/02 A3020 RMK AO2 SLP223 T01390022 10189 20133 55003=
200903240452 METAR KATL 240452Z 13003KT 10SM FEW200 13/03 A3019 RMK AO2 SLP222 T01330028 402170078=
200903240352 METAR KATL 240352Z 00000KT 10SM FEW250 14/02 A3021 RMK AO2 SLP228 T01440022=
200903240252 METAR KATL 240252Z 17005KT 10SM FEW200 15/03 A3021 RMK AO2 SLP228 T01500028 51006=
200903240152 METAR KATL 240152Z 14005KT 10SM SCT200 BKN250 17/02 A3020 RMK AO2 SLP226 T01670022=
200903240052 METAR KATL 240052Z 15005KT 10SM SCT250 18/02 A3020 RMK AO2 SLP224 T01780017=
200903232352 METAR KATL 232352Z 16006KT 10SM FEW180 SCT250 19/02 A3019 RMK AO2 SLP223 T01890017 10217 20189 55007=
200903232252 METAR KATL 232252Z 18006KT 10SM SCT180 BKN250 21/01 A3019 RMK AO2 SLP220 T02060011=
200903232152 METAR KATL 232152Z 19009KT 10SM SCT180 BKN250 21/01 A3020 RMK AO2 SLP223 T02110011=
200903232052 METAR KATL 232052Z 15006KT 10SM FEW150 BKN180 BKN250 21/01 A3021 RMK AO2 SLP229 VIRGA W & NW T02060011 56018=
200903231952 METAR KATL 231952Z VRB03KT 10SM BKN250 21/02 A3023 RMK AO2 SLP232 T02110022=
200903231852 METAR KATL 231852Z 12004KT 10SM BKN250 21/02 A3024 RMK AO2 SLP237 T02060017=
200903231752 METAR KATL 231752Z 14006KT 10SM BKN250 20/02 A3027 RMK AO2 SLP247 T02000022 10206 20078 58015=
200903231652 METAR KATL 231652Z 11006KT 10SM FEW250 19/03 A3029 RMK AO2 SLP256 T01890028=
200903231552 METAR KATL 231552Z VRB05KT 10SM SCT250 18/03 A3030 RMK AO2 SLP260 T01780028=
200903231452 METAR KATL 231452Z 19005KT 10SM SCT250 16/02 A3031 RMK AO2 SLP263 T01560022 51010=
200903231352 METAR KATL 231352Z 20005KT 10SM FEW250 13/01 A3031 RMK AO2 SLP262 T01330011=
200903231252 METAR KATL 231252Z 00000KT 10SM FEW250 11/06 A3029 RMK AO2 SLP257 T01110056=
200903231152 METAR KATL 231152Z 00000KT 10SM SCT250 08/04 A3028 RMK AO2 SLP253 T00830039 10122 20083 53009=
200903231052 METAR KATL 231052Z 00000KT 10SM FEW250 08/04 A3027 RMK AO2 SLP249 T00830039=
200903230952 METAR KATL 230952Z 00000KT 10SM CLR 09/03 A3026 RMK AO2 SLP245 T00940028=
200903230852 METAR KATL 230852Z 00000KT 10SM CLR 09/03 A3025 RMK AO2 SLP243 T00940028 56004=
200903230752 METAR KATL 230752Z 00000KT 10SM FEW250 11/02 A3026 RMK AO2 SLP244 T01110022=
200903230652 METAR KATL 230652Z 00000KT 10SM FEW250 12/03 A3026 RMK AO2 SLP245 T01170028=
200903230552 METAR KATL 230552Z 23004KT 10SM CLR 12/03 A3027 RMK AO2 SLP247 T01170028 10178 20117 58007=
200903230452 METAR KATL 230452Z 20004KT 10SM CLR 12/03 A3027 RMK AO2 SLP250 T01220033 402000050=
200903230352 METAR KATL 230352Z 19005KT 10SM CLR 13/03 A3029 RMK AO2 SLP254 T01330028=
200903230252 METAR KATL 230252Z 19003KT 10SM CLR 14/03 A3029 RMK AO2 SLP255 T01390033 51004=
200903230152 METAR KATL 230152Z 19005KT 10SM CLR 15/02 A3029 RMK AO2 SLP256 T01500022=
200903230052 METAR KATL 230052Z 18004KT 10SM CLR 16/02 A3028 RMK AO2 SLP254 T01610022=
200903222352 METAR KATL 222352Z 18004KT 10SM FEW100 18/01 A3028 RMK AO2 SLP253 T01780011 10200 20178 55005=
200903222252 METAR KATL 222252Z 17004KT 10SM FEW090 19/M01 A3027 RMK AO2 SLP252 T01891011=
200903222152 METAR KATL 222152Z 32003KT 10SM FEW065 20/00 A3028 RMK AO2 SLP252 T02000000=
200903222052 METAR KATL 222052Z 15005KT 10SM CLR 19/M01 A3029 RMK AO2 SLP256 T01941006 56026=
200903221952 METAR KATL 221952Z 00000KT 10SM CLR 19/M01 A3031 RMK AO2 SLP262 T01891006=
200903221852 METAR KATL 221852Z 16003KT 10SM CLR 18/00 A3033 RMK AO2 SLP270 T01830000=
200903221752 METAR KATL 221752Z 00000KT 10SM FEW150 18/03 A3037 RMK AO2 SLP282 T01780033 10178 20056 58021=
200903221652 METAR KATL 221652Z 11004KT 10SM FEW150 17/03 A3040 RMK AO2 SLP292 T01670028=
200903221552 METAR KATL 221552Z 11003KT 10SM FEW250 15/03 A3042 RMK AO2 SLP300 T01500028=
200903221452 METAR KATL 221452Z 12004KT 10SM CLR 12/02 A3043 RMK AO2 SLP306 T01220022 50005=
200903221352 METAR KATL 221352Z 13004KT 10SM CLR 11/03 A3044 RMK AO2 SLP308 T01060028=
200903221252 METAR KATL 221252Z 09005KT 10SM CLR 08/03 A3043 RMK AO2 SLP306 T00780028=
200903221152 METAR KATL 221152Z 09005KT 10SM FEW090 06/02 A3042 RMK AO2 SLP301 T00560017 10111 20050 53012=
200903221052 METAR KATL 221052Z 08007KT 10SM FEW090 06/02 A3040 RMK AO2 SLP297 T00560017=
200903220952 METAR KATL 220952Z 08005KT 10SM FEW090 07/02 A3039 RMK AO2 SLP291 T00670017=
200903220852 METAR KATL 220852Z 07008KT 10SM FEW090 07/02 A3038 RMK AO2 SLP288 T00670022 50000=
200903220752 METAR KATL 220752Z 09006KT 10SM FEW095 08/02 A3038 RMK AO2 SLP289 T00780017=
200903220652 METAR KATL 220652Z 09005KT 10SM SCT095 09/01 A3038 RMK AO2 SLP290 T00890011=
200903220552 METAR KATL 220552Z 11006KT 10SM BKN095 11/01 A3038 RMK AO2 SLP286 T01110011 10156 20111 58004=
200903220452 METAR KATL 220452Z 12007KT 10SM BKN090 12/01 A3039 RMK AO2 SLP290 T01170011 401780050=
200903220352 METAR KATL 220352Z 10007KT 10SM FEW100 SCT150 12/02 A3039 RMK AO2 SLP292 T01170017=
200903220252 METAR KATL 220252Z 10006KT 10SM FEW120 12/02 A3039 RMK AO2 SLP292 T01170017 51014=
200903220152 METAR KATL 220152Z 09007KT 10SM BKN110 BKN150 13/01 A3038 RMK AO2 SLP288 T01330011=
200903220052 METAR KATL 220052Z 12006KT 10SM FEW120 SCT150 BKN250 14/00 A3036 RMK AO2 SLP283 T01440000=
200903212352 METAR KATL 212352Z 11007KT 10SM SCT150 BKN250 16/00 A3035 RMK AO2 SLP278 T01560000 10178 20150 55001=
200903212252 METAR KATL 212252Z 10005KT 10SM SCT150 BKN250 16/M01 A3034 RMK AO2 SLP275 T01611006=
200903212152 METAR KATL 212152Z 19003KT 10SM SCT150 BKN250 17/M02 A3034 RMK AO2 SLP276 T01671017=
200903212052 METAR KATL 212052Z VRB03KT 10SM SCT150 BKN250 18/00 A3035 RMK AO2 SLP278 T01780000 56018=
200903211952 METAR KATL 211952Z VRB06KT 10SM SCT150 BKN250 17/01 A3036 RMK AO2 SLP283 T01670006=
200903211852 METAR KATL 211852Z VRB04KT 10SM SCT150 OVC250 16/00 A3038 RMK AO2 SLP289 T01610000=
200903211752 METAR KATL 211752Z VRB04KT 10SM SCT150 BKN250 15/01 A3041 RMK AO2 SLP297 T01500006 10150 20056 58007=
200903211652 METAR KATL 211652Z 15009KT 10SM SCT150 BKN250 13/01 A3043 RMK AO2 SLP304 T01330006=
200903211552 METAR KATL 211552Z 09008KT 10SM FEW150 SCT250 13/02 A3044 RMK AO2 SLP309 T01280017=
200903211452 METAR KATL 211452Z 11005KT 10SM BKN250 11/M01 A3043 RMK AO2 SLP305 T01111011 51023=
200903211352 METAR KATL 211352Z 07010KT 10SM FEW200 SCT250 09/M03 A3041 RMK AO2 SLP300 T00941033=
200903211252 METAR KATL 211252Z 08013KT 10SM FEW200 SCT250 07/M04 A3039 RMK AO2 SLP292 T00721039=
200903211152 METAR KATL 211152Z 08009KT 10SM FEW150 SCT250 06/M03 A3036 RMK AO2 SLP281 T00561028 10094 20050 53023=
200903211052 METAR KATL 211052Z 08008KT 10SM FEW250 06/M02 A3032 RMK AO2 SLP269 T00561022=
200903210952 METAR KATL 210952Z COR 09006KT 10SM FEW250 06/M03 A3030 RMK AO2 SLP260 T00561028=
200903210852 METAR KATL 210852Z 07009KT 10SM SCT250 06/M02 A3029 RMK AO2 SLP256 T00611022 51007=
200903210752 METAR KATL 210752Z 07008KT 10SM SCT250 07/M03 A3028 RMK AO2 SLP253 T00671033=
200903210652 METAR KATL 210652Z 03004KT 10SM FEW250 09/M07 A3028 RMK AO2 SLP253 T00941067=
200903210552 METAR KATL 210552Z 01004KT 10SM FEW250 09/M07 A3026 RMK AO2 SLP249 T00891067 10150 20083 53005=
200903210452 METAR KATL 210452Z 35004KT 10SM FEW250 09/M06 A3026 RMK AO2 SLP245 T00891056 401890083=
200903210352 METAR KATL 210352Z 33005KT 10SM FEW250 10/M07 A3026 RMK AO2 SLP245 T01001067=
200903210252 METAR KATL 210252Z 34005KT 10SM FEW250 11/M07 A3025 RMK AO2 SLP244 T01111067 51013=
200903210152 METAR KATL 210152Z 33006KT 10SM FEW250 12/M07 A3024 RMK AO2 SLP241 T01171067=
200903210052 METAR KATL 210052Z 33011KT 10SM FEW250 14/M06 A3022 RMK AO2 SLP235 T01391061=
200903202352 METAR KATL 202352Z 32010KT 10SM SCT250 16/M05 A3021 RMK AO2 SLP230 T01561050 10189 20156 53009=
200903202252 METAR KATL 202252Z 34011KT 10SM FEW250 18/M04 A3019 RMK AO2 SLP222 T01781044=
200903202152 METAR KATL 202152Z 33008KT 10SM FEW250 18/M01 A3018 RMK AO2 SLP218 T01831011=
200903202052 METAR KATL 202052Z 00000KT 10SM FEW250 19/M01 A3018 RMK AO2 SLP219 T01891006 56017=
200903201952 METAR KATL 201952Z 31010KT 10SM CLR 18/00 A3019 RMK AO2 SLP223 T01830000=
200903201852 METAR KATL 201852Z 01007KT 330V080 10SM CLR 18/01 A3022 RMK AO2 SLP231 T01780006=
200903201752 METAR KATL 201752Z VRB04KT 10SM CLR 16/01 A3023 RMK AO2 SLP237 T01610011 10167 20089 58010=
200903201652 METAR KATL 201652Z 02008G14KT 10SM CLR 16/01 A3025 RMK AO2 SLP243 T01560011=
200903201552 METAR KATL 201552Z 08010KT 10SM CLR 14/01 A3026 RMK AO2 SLP247 T01440011=
200903201452 METAR KATL 201452Z 09011KT 10SM CLR 13/01 A3026 RMK AO2 SLP247 T01330011 51018=
200903201352 METAR KATL 201352Z 06010KT 10SM CLR 12/01 A3025 RMK AO2 SLP243 T01170011=
200903201252 METAR KATL 201252Z 04010KT 10SM CLR 11/02 A3023 RMK AO2 SLP236 T01060017=
200903201152 METAR KATL 201152Z 02008KT 10SM FEW038 09/02 A3021 RMK AO2 SLP227 T00940017 10106 20083 51024=
200903201052 METAR KATL 201052Z 36007KT 10SM SCT038 09/01 A3019 RMK AO2 SLP221 T00890011=
200903200952 METAR KATL 200952Z 01010KT 10SM BKN030 09/01 A3016 RMK AO2 SLP210 T00940011=
200903200938 SPECI KATL 200938Z 01009KT 10SM BKN028 09/01 A3015 RMK AO2=
200903200938 SPECI KATL 200938Z 01009KT 10SM BKN028 09/01 A3015 RMK AO2=
200903200852 METAR KATL 200852Z 36006KT 10SM CLR 09/02 A3014 RMK AO2 SLP202 T00890017 53003=
200903200752 METAR KATL 200752Z 33009KT 10SM CLR 09/02 A3013 RMK AO2 SLP199 T00940017=
200903200652 METAR KATL 200652Z 34009KT 10SM CLR 10/02 A3013 RMK AO2 SLP199 T01000022=
200903200552 METAR KATL 200552Z 34009KT 10SM FEW200 11/03 A3012 RMK AO2 SLP199 T01060033 10206 20106 58001=
200903200452 METAR KATL 200452Z 32008G16KT 10SM SCT200 12/06 A3013 RMK AO2 SLP201 T01170061 402330083=
200903200352 METAR KATL 200352Z 33012KT 10SM SCT200 13/07 A3013 RMK AO2 SLP200 T01280072=
200903200252 METAR KATL 200252Z 32014G19KT 10SM FEW250 14/08 A3013 RMK AO2 SLP199 T01440083 51024=
200903200152 METAR KATL 200152Z 34011KT 10SM FEW250 17/09 A3011 RMK AO2 SLP193 T01670089=
200903200052 METAR KATL 200052Z 35016G21KT 10SM FEW070 BKN095 BKN250 18/09 A3008 RMK AO2 WSHFT 2356 SLP185 T01830089=
200903200013 SPECI KATL 200013Z 35017G23KT 10SM FEW070 BKN090 BKN250 19/09 A3007 RMK AO2 WSHFT 2356=
200903200013 SPECI KATL 200013Z 35017G23KT 10SM FEW070 BKN090 BKN250 19/09 A3007 RMK AO2 WSHFT 2356=
200903192352 METAR KATL 192352Z 28007KT 10SM SCT070TCU SCT090 BKN250 20/06 A3005 RMK AO2 SLP175 TCU OHD-NE T02000056 10233 20200 55001=
200903192252 METAR KATL 192252Z 29009KT 10SM FEW070 SCT250 22/06 A3005 RMK AO2 SLP173 T02170061=
200903192152 METAR KATL 192152Z 27011KT 10SM SCT070 SCT200 BKN250 23/07 A3005 RMK AO2 SLP173 T02280072=
200903192052 METAR KATL 192052Z 33005G14KT 10SM BKN070 BKN250 22/08 A3006 RMK AO2 SLP175 T02220078 56020=
200903191952 METAR KATL 191952Z 31006KT 10SM SCT060 SCT250 22/08 A3007 RMK AO2 SLP180 T02220078=
200903191852 METAR KATL 191852Z 36010KT 10SM BKN060 BKN250 22/08 A3009 RMK AO2 SLP187 T02220083=
200903191752 METAR KATL 191752Z 29008KT 10SM BKN055 BKN250 20/09 A3012 RMK AO2 SLP197 T02000089 10217 20089 58015=
200903191652 METAR KATL 191652Z 31009G15KT 10SM SCT050 SCT250 21/09 A3015 RMK AO2 SLP205 T02060089=
200903191552 METAR KATL 191552Z 24005KT 10SM FEW045 SCT070 SCT250 19/08 A3016 RMK AO2 SLP211 T01940083=
200903191452 METAR KATL 191452Z 25004KT 10SM FEW250 18/08 A3017 RMK AO2 SLP212 T01780083 50003=
200903191352 METAR KATL 191352Z 00000KT 9SM FEW250 14/08 A3017 RMK AO2 SLP215 T01390083=
200903191252 METAR KATL 191252Z 00000KT 7SM CLR 11/07 A3017 RMK AO2 SLP215 T01060072=
200903191152 METAR KATL 191152Z 34004KT 8SM FEW300 09/06 A3016 RMK AO2 SLP211 T00940061 10122 20083 53008=
200903191052 METAR KATL 191052Z 00000KT 10SM CLR 09/06 A3015 RMK AO2 SLP207 T00940061=
200903190952 METAR KATL 190952Z 00000KT 10SM CLR 09/06 A3013 RMK AO2 SLP203 T00890056=
200903190852 METAR KATL 190852Z 00000KT 10SM CLR 10/06 A3013 RMK AO2 SLP201 T01000061 56008=
200903190752 METAR KATL 190752Z 00000KT 10SM CLR 11/06 A3013 RMK AO2 SLP202 T01060061=
200903190652 METAR KATL 190652Z 00000KT 10SM SCT250 12/06 A3015 RMK AO2 SLP208 T01170061=
200903190552 METAR KATL 190552Z 00000KT 10SM SCT250 12/06 A3016 RMK AO2 SLP211 T01220061 10172 20117 58005=
200903190452 METAR KATL 190452Z 00000KT 10SM CLR 12/07 A3016 RMK AO2 SLP214 T01220067 401890083=
200903190352 METAR KATL 190352Z 00000KT 10SM CLR 13/07 A3017 RMK AO2 SLP215 T01330067=
200903190252 METAR KATL 190252Z 00000KT 10SM CLR 14/07 A3017 RMK AO2 SLP217 T01440067 51001=
200903190152 METAR KATL 190152Z 13003KT 10SM CLR 15/07 A3017 RMK AO2 SLP217 T01500072=
200903190052 METAR KATL 190052Z 00000KT 10SM CLR 16/07 A3017 RMK AO2 SLP217 T01610072=
200903182352 METAR KATL 182352Z 16004KT 10SM CLR 17/08 A3017 RMK AO2 SLP215 T01720078 10189 20150 55002=
200903182252 METAR KATL 182252Z 12004KT 10SM CLR 18/06 A3017 RMK AO2 SLP214 T01830061=
200903182152 METAR KATL 182152Z 00000KT 10SM FEW050 19/06 A3017 RMK AO2 SLP214 T01890056=
200903182052 METAR KATL 182052Z 21003KT 10SM FEW050 18/07 A3018 RMK AO2 SLP216 T01830067 56028=
200903181952 METAR KATL 181952Z 00000KT 10SM FEW040 18/07 A3020 RMK AO2 SLP225 T01780067=
200903181852 METAR KATL 181852Z 17005KT 10SM FEW030 17/09 A3023 RMK AO2 SLP234 T01670089=
200903181752 METAR KATL 181752Z 17004KT 10SM FEW023 15/09 A3026 RMK AO2 SLP246 60000 T01500089 10150 20094 58012 $=
200903181652 METAR KATL 181652Z 08005KT 10SM SCT014 13/09 A3028 RMK AO2 SLP254 T01330094=
200903181612 SPECI KATL 181612Z 07008KT 8SM BKN010 12/09 A3030 RMK AO2=
200903181612 SPECI KATL 181612Z 07008KT 8SM BKN010 12/09 A3030 RMK AO2=
200903181552 METAR KATL 181552Z 07007KT 6SM BR FEW006 OVC008 11/09 A3030 RMK AO2 SLP260 T01060089=
200903181535 SPECI KATL 181535Z 09008KT 6SM BR FEW004 SCT006 OVC008 11/09 A3030 RMK AO2=
200903181535 SPECI KATL 181535Z 09008KT 6SM BR FEW004 SCT006 OVC008 11/09 A3030 RMK AO2=
200903181534 SPECI KATL 181534Z 07009KT 3SM BR FEW004 SCT006 OVC008 11/09 A3030 RMK AO2 SFC VIS 6=
200903181534 SPECI KATL 181534Z 07009KT 3SM BR FEW004 SCT006 OVC008 11/09 A3030 RMK AO2 SFC VIS 6=
200903181521 SPECI KATL 181521Z 09008KT 3SM BR OVC006 11/09 A3030 RMK AO2 SFC VIS 6=
200903181521 SPECI KATL 181521Z 09008KT 3SM BR OVC006 11/09 A3030 RMK AO2 SFC VIS 6=
200903181505 SPECI KATL 181505Z 07008KT 2 1/2SM BR OVC005 10/09 A3030 RMK AO2 SFC VIS 5=
200903181505 SPECI KATL 181505Z 07008KT 2 1/2SM BR OVC005 10/09 A3030 RMK AO2 SFC VIS 5=
200903181450 METAR KATL 181450Z 10006KT 1 1/2SM BR OVC005 10/09 A3030 RMK AO2 SFC VIS 4 SLP260 60000 T01000094 51015=
200903181449 SPECI KATL 181449Z 10005KT 1 1/2SM BR OVC005 10/09 A3030 RMK AO2 SFC VIS 4=
200903181449 SPECI KATL 181449Z 10005KT 1 1/2SM BR OVC005 10/09 A3030 RMK AO2 SFC VIS 4=
200903181435 SPECI KATL 181435Z 09008KT 1/2SM BR OVC004 10/09 A3030 RMK AO2 SFC VIS 4=
200903181435 SPECI KATL 181435Z 09008KT 1/2SM BR OVC004 10/09 A3030 RMK AO2 SFC VIS 4=
200903181352 METAR KATL 181352Z 08010KT 1/4SM BR OVC002 10/09 A3029 RMK AO2 SFC VIS 2 DZE50 SLP258 P0000 T01000094=
200903181252 METAR KATL 181252Z 10008KT 1/8SM R09R/4000VP6000FT -DZ BR OVC002 09/09 A3028 RMK AO2 SFC VIS 1 DZB45 SLP253 P0000 T00940094=
200903181204 SPECI KATL 181204Z 10006KT 1/8SM R09R/5500VP6000FT BR OVC002 10/09 A3026 RMK AO2 SFC VIS 1 1/4 CIG 001V004=
200903181204 SPECI KATL 181204Z 10006KT 1/8SM R09R/5500VP6000FT BR OVC002 10/09 A3026 RMK AO2 SFC VIS 1 1/4 CIG 001V004=
200903181152 METAR KATL 181152Z 12008KT 1/2SM BR OVC004 10/09 A3025 RMK AO2 SFC VIS 4 CIG 001V005 SLP244 T01000089 10122 20083 53009=
200903181146 SPECI KATL 181146Z 12005KT 1/2SM BR OVC004 10/09 A3025 RMK AO2 SFC VIS 4 CIG 002V006=
200903181146 SPECI KATL 181146Z 12005KT 1/2SM BR OVC004 10/09 A3025 RMK AO2 SFC VIS 4 CIG 002V006=
200903181145 SPECI KATL 181145Z 12004KT 2 1/2SM BR OVC004 10/09 A3025 RMK AO2 SFC VIS 4 CIG 002V006=
200903181145 SPECI KATL 181145Z 12004KT 2 1/2SM BR OVC004 10/09 A3025 RMK AO2 SFC VIS 4 CIG 002V006=
200903181127 SPECI KATL 181127Z 10005KT 2 1/2SM BR OVC006 10/08 A3024 RMK AO2 SFC VIS 6 CIG 004V008=
200903181127 SPECI KATL 181127Z 10005KT 2 1/2SM BR OVC006 10/08 A3024 RMK AO2 SFC VIS 6 CIG 004V008=
200903181116 SPECI KATL 181116Z 08005KT 6SM BR OVC008 09/08 A3024 RMK AO2 CIG 006V010=
200903181116 SPECI KATL 181116Z 08005KT 6SM BR OVC008 09/08 A3024 RMK AO2 CIG 006V010=
200903181052 METAR KATL 181052Z 08005KT 6SM BR BKN010 09/08 A3024 RMK AO2 SLP238 T00940078=
200903180952 METAR KATL 180952Z 08005KT 9SM CLR 09/07 A3023 RMK AO2 SLP235 T00890072=
200903180852 METAR KATL 180852Z 12004KT 10SM CLR 11/08 A3022 RMK AO2 SLP233 T01060078 58004=
200903180752 METAR KATL 180752Z 12004KT 10SM CLR 11/08 A3023 RMK AO2 SLP236 T01110078=
200903180652 METAR KATL 180652Z 13005KT 10SM CLR 12/08 A3023 RMK AO2 SLP236 T01220078=
200903180552 METAR KATL 180552Z 13004KT 10SM CLR 13/08 A3024 RMK AO2 SLP237 T01280078 10183 20128 50001=
200903180452 METAR KATL 180452Z 12004KT 10SM CLR 13/08 A3024 RMK AO2 SLP238 T01330078 402060083=
200903180352 METAR KATL 180352Z 13004KT 10SM CLR 14/08 A3024 RMK AO2 SLP238 T01440078=
200903180252 METAR KATL 180252Z 12006KT 10SM CLR 16/07 A3023 RMK AO2 SLP236 T01560072 53016=
200903180152 METAR KATL 180152Z 00000KT 10SM CLR 16/07 A3022 RMK AO2 SLP232 T01560072=
200903180052 METAR KATL 180052Z 11004KT 10SM CLR 18/07 A3020 RMK AO2 SLP225 T01780072=
200903172352 METAR KATL 172352Z 09006KT 10SM CLR 17/07 A3019 RMK AO2 SLP222 T01720072 10206 20172 53004=
200903172252 METAR KATL 172252Z 06004KT 10SM CLR 19/07 A3017 RMK AO2 SLP214 T01940067=
200903172152 METAR KATL 172152Z 07005KT 10SM CLR 20/08 A3017 RMK AO2 SLP214 T02000078=
200903172052 METAR KATL 172052Z 00000KT 10SM FEW050 21/08 A3017 RMK AO2 SLP216 T02060078 56017=
200903171952 METAR KATL 171952Z 00000KT 10SM FEW050 19/07 A3019 RMK AO2 SLP220 T01940072=
200903171852 METAR KATL 171852Z 05008KT 020V100 10SM SCT045 19/09 A3020 RMK AO2 SLP226 T01890089=
200903171752 METAR KATL 171752Z VRB03KT 10SM FEW035 18/09 A3023 RMK AO2 SLP233 T01780094 10178 20083 58005=
200903171652 METAR KATL 171652Z 10006KT 10SM FEW025 17/09 A3024 RMK AO2 SLP240 T01670094=
200903171552 METAR KATL 171552Z 09007KT 10SM FEW020 14/10 A3025 RMK AO2 SLP242 T01440100=
200903171452 METAR KATL 171452Z 08008KT 10SM FEW015 14/10 A3024 RMK AO2 SLP240 T01390100 51017=
200903171352 METAR KATL 171352Z 03008KT 10SM FEW015 13/09 A3023 RMK AO2 SLP234 T01280094=
200903171252 METAR KATL 171252Z 34005KT 6SM BR CLR 10/08 A3021 RMK AO2 SLP230 T01000083=
200903171152 METAR KATL 171152Z 34006KT 5SM BR CLR 08/08 A3019 RMK AO2 SLP225 70040 T00830078 10111 20083 53013=
200903171052 METAR KATL 171052Z 33008KT 5SM BR CLR 09/08 A3017 RMK AO2 SLP218 T00890083=
200903170952 METAR KATL 170952Z 32007KT 5SM BR CLR 09/08 A3016 RMK AO2 SLP215 T00890083=
200903170852 METAR KATL 170852Z 32006KT 4SM BR CLR 09/08 A3015 RMK AO2 SLP211 T00890083 58007=
200903170752 METAR KATL 170752Z 33007KT 7SM CLR 10/09 A3016 RMK AO2 SLP214 T01000094=
200903170652 METAR KATL 170652Z 33007KT 7SM CLR 11/10 A3017 RMK AO2 SLP215 T01060100=
200903170552 METAR KATL 170552Z 33006KT 4SM BR CLR 11/11 A3017 RMK AO2 SLP218 60003 T01110106 10139 20111 56002=
200903170452 METAR KATL 170452Z 33006KT 8SM SCT006 BKN015 12/12 A3018 RMK AO2 SLP220 BKN V SCT T01220117 401440106=
200903170443 SPECI KATL 170443Z 33008KT 9SM FEW005 SCT017 13/12 A3018 RMK AO2=
200903170443 SPECI KATL 170443Z 33008KT 9SM FEW005 SCT017 13/12 A3018 RMK AO2=
200903170406 SPECI KATL 170406Z 31006KT 8SM FEW005 BKN009 12/12 A3018 RMK AO2=
200903170406 SPECI KATL 170406Z 31006KT 8SM FEW005 BKN009 12/12 A3018 RMK AO2=
200903170352 METAR KATL 170352Z 31005KT 9SM FEW005 12/12 A3018 RMK AO2 SLP218 T01170117=
200903170333 SPECI KATL 170333Z 32006KT 10SM SCT005 SCT012 13/12 A3017 RMK AO2=
200903170333 SPECI KATL 170333Z 32006KT 10SM SCT005 SCT012 13/12 A3017 RMK AO2=
200903170314 SPECI KATL 170314Z 33009KT 9SM BKN005 OVC012 13/13 A3018 RMK AO2=
200903170314 SPECI KATL 170314Z 33009KT 9SM BKN005 OVC012 13/13 A3018 RMK AO2=
200903170302 SPECI KATL 170302Z 32006KT 9SM SCT004 BKN011 OVC140 13/13 A3018 RMK AO2=
200903170302 SPECI KATL 170302Z 32006KT 9SM SCT004 BKN011 OVC140 13/13 A3018 RMK AO2=
200903170252 METAR KATL 170252Z 31006KT 9SM FEW004 BKN140 BKN250 13/12 A3018 RMK AO2 SLP220 60003 T01280122 53007=
200903170152 METAR KATL 170152Z 34006KT 10SM FEW005 BKN130 BKN250 14/13 A3015 RMK AO2 SLP210 T01390128=
200903170103 SPECI KATL 170103Z 36005KT 10SM SCT005 BKN120 OVC150 14/13 A3013 RMK AO2=
200903170103 SPECI KATL 170103Z 36005KT 10SM SCT005 BKN120 OVC150 14/13 A3013 RMK AO2=
200903170052 METAR KATL 170052Z 32005KT 10SM BKN005 BKN080 OVC120 14/13 A3015 RMK AO2 RAE41 SLP211 P0003 T01390133=
200903170049 SPECI KATL 170049Z 31004KT 10SM BKN005 BKN080 OVC120 14/13 A3015 RMK AO2 RAE41 P0003=
200903170049 SPECI KATL 170049Z 31004KT 10SM BKN005 BKN080 OVC120 14/13 A3015 RMK AO2 RAE41 P0003=
200903162352 METAR KATL 162352Z 33005KT 7SM -RA FEW004 BKN035 OVC065 14/13 A3016 RMK AO2 RAB20 SLP213 P0001 60009 T01390133 10144 20133 51003=
200903162348 SPECI KATL 162348Z 33005KT 4SM -RA BR SCT004 BKN030 OVC065 14/14 A3016 RMK AO2 RAB20 P0001=
200903162348 SPECI KATL 162348Z 33005KT 4SM -RA BR SCT004 BKN030 OVC065 14/14 A3016 RMK AO2 RAB20 P0001=
200903162340 SPECI KATL 162340Z 32004KT 10SM -RA BKN004 BKN035 OVC060 14/13 A3016 RMK AO2 RAB20 BKN004 V SCT P0000=
200903162340 SPECI KATL 162340Z 32004KT 10SM -RA BKN004 BKN035 OVC060 14/13 A3016 RMK AO2 RAB20 BKN004 V SCT P0000=
200903162252 METAR KATL 162252Z 21003KT 10SM FEW005 BKN045 BKN070 OVC150 14/13 A3015 RMK AO2 RAE51 SLP211 P0003 T01440133=
200903162237 SPECI KATL 162237Z 00000KT 7SM -RA FEW005 SCT025 BKN040 OVC150 14/14 A3014 RMK AO2 P0003=
200903162237 SPECI KATL 162237Z 00000KT 7SM -RA FEW005 SCT025 BKN040 OVC150 14/14 A3014 RMK AO2 P0003=
200903162211 SPECI KATL 162211Z 31004KT 2SM -RA BR SCT005 BKN015 OVC022 14/14 A3016 RMK AO2 SFC VIS 3 P0002=
200903162211 SPECI KATL 162211Z 31004KT 2SM -RA BR SCT005 BKN015 OVC022 14/14 A3016 RMK AO2 SFC VIS 3 P0002=
200903162152 METAR KATL 162152Z 31004KT 1 3/4SM R09R/5500VP6000FT -RA BR OVC005 14/14 A3016 RMK AO2 SLP213 CIG 003V008 P0002 T01440139=
200903162136 SPECI KATL 162136Z 29005KT 2 1/2SM -RA BR OVC005 14/13 A3016 RMK AO2 CIG 003V008 P0001=
200903162136 SPECI KATL 162136Z 29005KT 2 1/2SM -RA BR OVC005 14/13 A3016 RMK AO2 CIG 003V008 P0001=
200903162118 SPECI KATL 162118Z 26006KT 3SM -RA BR OVC005 14/14 A3016 RMK AO2 SFC VIS 5 CIG 003V007 P0001=
200903162118 SPECI KATL 162118Z 26006KT 3SM -RA BR OVC005 14/14 A3016 RMK AO2 SFC VIS 5 CIG 003V007 P0001=
200903162052 METAR KATL 162052Z 22005KT 3SM -RA BR BKN003 OVC005 14/13 A3015 RMK AO2 SFC VIS 5 SLP210 P0002 60003 T01440133 55006=
200903162037 SPECI KATL 162037Z 20006KT 3SM -RA BR BKN003 OVC005 14/13 A3014 RMK AO2 SFC VIS 5 P0002=
200903162037 SPECI KATL 162037Z 20006KT 3SM -RA BR BKN003 OVC005 14/13 A3014 RMK AO2 SFC VIS 5 P0002=
200903161952 METAR KATL 161952Z 20007KT 1SM -RA BR BKN003 OVC005 14/13 A3015 RMK AO2 SFC VIS 5 SLP208 P0000 T01390133=
200903161852 METAR KATL 161852Z 20003KT 1SM -RA BR BKN003 BKN005 OVC007 14/13 A3014 RMK AO2 SFC VIS 4 RAE04B48 SLP207 P0001 T01390133=
200903161819 SPECI KATL 161819Z 00000KT 2SM BR BKN003 OVC005 13/13 A3016 RMK AO2 SFC VIS 6 RAE04 P0001=
200903161819 SPECI KATL 161819Z 00000KT 2SM BR BKN003 OVC005 13/13 A3016 RMK AO2 SFC VIS 6 RAE04 P0001=
200903161752 METAR KATL 161752Z 20003KT 1 1/2SM -RA BR OVC003 13/12 A3017 RMK AO2 SFC VIS 5 SLP216 P0000 60028 T01330122 10133 20106 58012=
200903161652 METAR KATL 161652Z 00000KT 1 1/2SM -RA BR OVC003 12/12 A3019 RMK AO2 SFC VIS 6 SLP226 P0002 T01220117=
200903161552 METAR KATL 161552Z 12004KT 1 1/2SM -RA BR OVC003 12/12 A3019 RMK AO2 SFC VIS 5 SLP223 P0008 T01220117=
200903161452 METAR KATL 161452Z 14006KT 1 1/2SM -RA BR OVC003 12/11 A3021 RMK AO2 SFC VIS 3 SLP230 P0004 60018 T01170106 51018=
200903161352 METAR KATL 161352Z 12004KT 1 1/2SM -RA BR OVC003 12/11 A3019 RMK AO2 SFC VIS 4 SLP224 P0006 T01170106=
200903161252 METAR KATL 161252Z 13003KT 1/2SM -RA BR BKN003 OVC008 11/10 A3017 RMK AO2 SFC VIS 3 SLP218 P0008 T01110100=
200903161152 METAR KATL 161152Z 13004KT 1/2SM -RA BR OVC003 11/11 A3015 RMK AO2 SFC VIS 6 SLP211 P0003 60024 70064 T01060106 10111 20106 55002=
200903161052 METAR KATL 161052Z 11006KT 1/2SM -RA BR BKN003 BKN055 OVC090 11/10 A3012 RMK AO2 SFC VIS 5 SLP201 P0002 T01060100=
200903161049 SPECI KATL 161049Z 10006KT 2SM -RA BR BKN003 BKN055 OVC090 11/10 A3013 RMK AO2 SFC VIS 5 P0002=
200903161049 SPECI KATL 161049Z 10006KT 2SM -RA BR BKN003 BKN055 OVC090 11/10 A3013 RMK AO2 SFC VIS 5 P0002=
200903161013 SPECI KATL 161013Z 08006KT 2SM -RA BR SCT003 BKN045 OVC090 11/10 A3014 RMK AO2 SFC VIS 5 P0002=
200903161013 SPECI KATL 161013Z 08006KT 2SM -RA BR SCT003 BKN045 OVC090 11/10 A3014 RMK AO2 SFC VIS 5 P0002=
200903160952 METAR KATL 160952Z 07003KT 2SM RA BR BKN005 OVC019 11/11 A3016 RMK AO2 SFC VIS 5 SLP213 P0016 T01110106=
200903160852 METAR KATL 160852Z 06004KT 2SM RA BR SCT001 BKN008 OVC075 11/10 A3013 RMK AO2 SFC VIS 4 RAB0754 SLP205 P0003 60003 T01060100 58001=
200903160837 SPECI KATL 160837Z 05005KT 2SM -RA BR BKN001 OVC006 11/10 A3013 RMK AO2 SFC VIS 5 RAB0754 CIG 001V004 P0001=
200903160837 SPECI KATL 160837Z 05005KT 2SM -RA BR BKN001 OVC006 11/10 A3013 RMK AO2 SFC VIS 5 RAB0754 CIG 001V004 P0001=
200903160759 SPECI KATL 160759Z 05006KT 1/8SM -RA BR OVC001 11/10 A3013 RMK AO2 SFC VIS 1 3/4 RAB54 P0000=
200903160759 SPECI KATL 160759Z 05006KT 1/8SM -RA BR OVC001 11/10 A3013 RMK AO2 SFC VIS 1 3/4 RAB54 P0000=
200903160752 METAR KATL 160752Z 06005KT 1 1/4SM BR OVC001 11/10 A3013 RMK AO2 RAB25E45 SLP205 P0000 T01060100=
200903160652 METAR KATL 160652Z 10003KT 3SM BR BKN003 OVC034 11/10 A3014 RMK AO2 CIG 001V005 SLP208 T01110100=
200903160603 SPECI KATL 160603Z 16003KT 1 3/4SM BR OVC003 11/11 A3015 RMK AO2=
200903160603 SPECI KATL 160603Z 16003KT 1 3/4SM BR OVC003 11/11 A3015 RMK AO2=
200903160552 METAR KATL 160552Z 16005KT 5SM BR BKN003 OVC037 11/10 A3014 RMK AO2 SLP207 T01110100 10111 20111 50000=
200903160539 SPECI KATL 160539Z 00000KT 5SM BR BKN003 OVC037 11/11 A3014 RMK AO2 CIG 002V005=
200903160539 SPECI KATL 160539Z 00000KT 5SM BR BKN003 OVC037 11/11 A3014 RMK AO2 CIG 002V005=
200903160452 METAR KATL 160452Z 09003KT 6SM BR FEW002 OVC037 11/11 A3014 RMK AO2 SLP207 T01110106 401170067=
200903160352 METAR KATL 160352Z 15003KT 8SM FEW004 OVC039 11/11 A3015 RMK AO2 SLP212 T01110106=
200903160252 METAR KATL 160252Z 11005KT 8SM FEW007 OVC041 11/11 A3014 RMK AO2 SLP208 T01110106 50007=
200903160231 SPECI KATL 160231Z 00000KT 6SM BR SCT007 OVC041 11/11 A3014 RMK AO2=
200903160231 SPECI KATL 160231Z 00000KT 6SM BR SCT007 OVC041 11/11 A3014 RMK AO2=
200903160152 METAR KATL 160152Z 00000KT 2 1/2SM BR SCT004 OVC008 11/11 A3014 RMK AO2 SFC VIS 5 SLP208 CIG 006V010 T01110106=
200903160124 SPECI KATL 160124Z 00000KT 2 1/2SM BR OVC006 11/11 A3013 RMK AO2 SFC VIS 5 CIG 003V009=
200903160124 SPECI KATL 160124Z 00000KT 2 1/2SM BR OVC006 11/11 A3013 RMK AO2 SFC VIS 5 CIG 003V009=
200903160052 METAR KATL 160052Z 13003KT 1 1/2SM BR OVC004 11/10 A3013 RMK AO2 SFC VIS 5 SLP205 CIG 003V007 T01110100=
200903152352 METAR KATL 152352Z 11004KT 1SM BR OVC004 11/11 A3012 RMK AO2 SFC VIS 3 SLP200 CIG 003V006 60001 T01110106 10117 20094 53013=
200903152252 METAR KATL 152252Z 10003KT 1 1/2SM BR OVC004 12/11 A3010 RMK AO2 SFC VIS 5 SLP193 CIG 003V006 T01170106=
200903152237 SPECI KATL 152237Z 11004KT 1 1/2SM BR OVC004 11/11 A3009 RMK AO2 SFC VIS 4 CIG 003V006=
200903152237 SPECI KATL 152237Z 11004KT 1 1/2SM BR OVC004 11/11 A3009 RMK AO2 SFC VIS 4 CIG 003V006=
200903152216 SPECI KATL 152216Z 11004KT 1 1/2SM BR OVC005 12/11 A3009 RMK AO2 SFC VIS 5 CIG 004V007=
200903152216 SPECI KATL 152216Z 11004KT 1 1/2SM BR OVC005 12/11 A3009 RMK AO2 SFC VIS 5 CIG 004V007=
200903152152 METAR KATL 152152Z 10003KT 3/4SM BR OVC004 12/11 A3009 RMK AO2 SFC VIS 4 SLP190 CIG 003V005 T01170106=
200903152142 SPECI KATL 152142Z 09004KT 3/4SM BR OVC004 11/11 A3009 RMK AO2 SFC VIS 3 CIG 003V006=
200903152142 SPECI KATL 152142Z 09004KT 3/4SM BR OVC004 11/11 A3009 RMK AO2 SFC VIS 3 CIG 003V006=
200903152052 METAR KATL 152052Z 07005KT 1/4SM BR OVC004 11/10 A3008 RMK AO2 SFC VIS 4 RAB10E34 SLP188 P0000 60001 T01110100 56005=
200903152022 SPECI KATL 152022Z 06004KT 1/4SM -RA BR OVC004 11/09 A3007 RMK AO2 SFC VIS 4 RAB10 P0000=
200903152022 SPECI KATL 152022Z 06004KT 1/4SM -RA BR OVC004 11/09 A3007 RMK AO2 SFC VIS 4 RAB10 P0000=
200903151956 SPECI KATL 151956Z 07003KT 2SM BR OVC004 10/09 A3008 RMK AO2 SFC VIS 5=
200903151956 SPECI KATL 151956Z 07003KT 2SM BR OVC004 10/09 A3008 RMK AO2 SFC VIS 5=
200903151952 METAR KATL 151952Z 06004KT 3SM BR OVC004 10/09 A3008 RMK AO2 SFC VIS 5 RAE01 SLP188 P0000 T01000094=
200903151852 METAR KATL 151852Z 06006KT 3SM -RA BR OVC004 10/09 A3007 RMK AO2 SFC VIS 5 SLP187 P0001 T01000089=
200903151752 METAR KATL 151752Z 07006KT 3SM -RA BR BKN004 OVC010 09/08 A3009 RMK AO2 SFC VIS 4 SLP193 CIG 004V006 BKN004V SCT P0005 60039 T00940083 10094 20072 58002=
200903151736 SPECI KATL 151736Z 06006KT 3SM -RA BR BKN004 OVC010 09/08 A3010 RMK AO2 SFC VIS 4 P0004=
200903151736 SPECI KATL 151736Z 06006KT 3SM -RA BR BKN004 OVC010 09/08 A3010 RMK AO2 SFC VIS 4 P0004=
200903151652 SPECI KATL 151652Z 04006KT 2 1/2SM -RA BR OVC004 09/08 A3010 RMK AO2 SLP197 P0003 T00890078=
200903151642 SPECI KATL 151642Z 06007KT 2 1/2SM -RA BR OVC004 08/08 A3010 RMK AO2 P0002=
200903151642 SPECI KATL 151642Z 06007KT 2 1/2SM -RA BR OVC004 08/08 A3010 RMK AO2 P0002=
200903151631 SPECI KATL 151631Z 05006KT 1 3/4SM R09R/5500VP6000FT -RA BR OVC004 08/07 A3010 RMK AO2 TWR VIS 2 1/2 P0002=
200903151631 SPECI KATL 151631Z 05006KT 1 3/4SM R09R/5500VP6000FT -RA BR OVC004 08/07 A3010 RMK AO2 TWR VIS 2 1/2 P0002=
200903151552 METAR KATL 151552Z 06007KT 3SM R09R/6000VP6000FT -RA BR OVC004 08/07 A3010 RMK AO2 SLP195 P0009 T00830072=
200903151452 METAR KATL 151452Z 09007KT 3SM R09R/6000VP6000FT RA BR OVC004 08/07 A3010 RMK AO2 SLP196 P0010 60022 T00780067 53011=
200903151352 METAR KATL 151352Z 07009KT 3SM RA BR BKN004 OVC009 07/07 A3008 RMK AO2 SFC VIS 5 SLP191 P0002 T00720067=
200903151252 METAR KATL 151252Z 07009KT 1 1/2SM -RA BR BKN004 OVC009 07/06 A3008 RMK AO2 SFC VIS 5 SLP189 P0010 T00720061=
200903151152 METAR KATL 151152Z 00000KT 1 1/2SM RA OVC006 07/07 A3007 RMK AO2 SFC VIS 7 CIG 003V009 SLP185 P0020 60076 70121 T00720067 10072 20067 53006=
200903151052 METAR KATL 151052Z 11006KT 1 1/2SM RA BR OVC003 07/07 A3003 RMK AO2 SFC VIS 4 RAB06 SLP172 P0008 T00720067=
200903150952 METAR KATL 150952Z 11007KT 1 1/2SM BR OVC003 07/07 A3003 RMK AO2 SFC VIS 5 RAE37 SLP172 P0007 T00720067=
200903150852 METAR KATL 150852Z 10008KT 1 1/2SM RA BR OVC003 07/06 A3005 RMK AO2 SFC VIS 3 SLP178 P0015 60041 T00670061 58017=
200903150752 METAR KATL 150752Z 07007KT 1 1/2SM RA BR BKN003 OVC010 07/06 A3007 RMK AO2 SFC VIS 3 SLP186 P0017 T00670061=
200903150652 METAR KATL 150652Z 08008KT 1 1/2SM -RA BR OVC003 07/06 A3008 RMK AO2 SFC VIS 3 SLP191 P0009 T00670061=
200903150552 METAR KATL 150552Z 10008KT 1 1/2SM -RA BR OVC003 07/06 A3010 RMK AO2 SFC VIS 3 SLP196 P0004 60014 T00670061 10072 20067 58005=
200903150452 METAR KATL 150452Z 10008KT 1 1/2SM -RA BR OVC003 07/06 A3011 RMK AO2 SFC VIS 3 SLP200 CIG 002V004 TWRINC P0002 T00670061 400720044=
200903150352 METAR KATL 150352Z 10009KT 1 1/2SM -RA OVC004 07/06 A3011 RMK AO2 SFC VIS 7 RAE31B47 SLP201 CIG 003V005 TWRINC P0001 T00720061=
200903150252 METAR KATL 150252Z 10008KT 1 1/2SM -RA BR OVC003 07/06 A3011 RMK AO2 SFC VIS 5 SLP202 TWRINC P0000 60007 T00670061 53006=
200903150152 METAR KATL 150152Z 10008KT 1 1/2SM -RA BR OVC003 07/06 A3010 RMK AO2 SFC VIS 4 SLP197 TWRINC P0003 T00720061=
200903150052 METAR KATL 150052Z 10006KT 1 1/2SM -RA BR OVC004 07/06 A3009 RMK AO2 SFC VIS 4 SLP195 CIG 003V006 TWRINC P0004 T00720061=
200903150002 SPECI KATL 150002Z 10008KT 1 1/2SM -RA BR BKN004 OVC008 07/07 A3009 RMK AO2 SFC VIS 4 CIG 003V006 TWRINC P0002=
200903150002 SPECI KATL 150002Z 10008KT 1 1/2SM -RA BR BKN004 OVC008 07/07 A3009 RMK AO2 SFC VIS 4 CIG 003V006 TWRINC P0002=
200903142352 METAR KATL 142352Z 11007KT 1/2SM -RA BR BKN004 OVC008 07/07 A3009 RMK AO2 SFC VIS 4 SLP196 CIG 003V006 TWRINC P0004 60019 T00720067 10072 20061 50003=
200903142252 METAR KATL 142252Z 10009KT 1/2SM -RA BR FEW002 OVC004 07/07 A3010 RMK AO2 SFC VIS 2 1/2 SLP198 CIG 003V006 TWRINC P0008 T00720067=
200903142215 SPECI KATL 142215Z 10010KT 1/2SM -RA BR FEW002 OVC004 07/07 A3010 RMK AO2 SFC VIS 3 CIG 003V005 TWRINC P0002=
200903142215 SPECI KATL 142215Z 10010KT 1/2SM -RA BR FEW002 OVC004 07/07 A3010 RMK AO2 SFC VIS 3 CIG 003V005 TWRINC P0002=
200903142152 METAR KATL 142152Z 10008KT 1/8SM -RA BR FEW002 OVC004 07/07 A3010 RMK AO2 SFC VIS 2 1/2 SLP197 CIG 003V005 TWRINC P0005 T00720067=
200903142052 METAR KATL 142052Z 10010KT 1/8SM R09R/P6000FT -RA BR OVC002 07/07 A3008 RMK AO2 SFC VIS 3/4 SLP192 TWRINC P0001 60002 T00720067 56014=
200903141952 METAR KATL 141952Z 09007KT 1/8SM R09R/2400V3500FT -RA FG OVC002 07/07 A3009 RMK AO2 SFC VIS 1/4 RAE08B40 SLP194 TWRINC P0000 T00670067=
200903141852 METAR KATL 141852Z 13010KT 1/8SM R09R/3500V5500FT -RA FG OVC002 07/06 A3009 RMK AO2 SFC VIS 1/2 SLP194 TWRINC P0001 T00670061=
200903141752 METAR KATL 141752Z 10010KT 1/8SM -RA BR OVC002 06/06 A3013 RMK AO2 SFC VIS 2 SLP207 TWRINC P0003 60012 T00610056 10061 20044 58013=
200903141652 METAR KATL 141652Z 10009KT 1/8SM R09R/P6000FT -RA BR OVC002 06/06 A3016 RMK AO2 SFC VIS 3/4 SLP217 TWRINC P0000 T00610056=
200903141552 METAR KATL 141552Z 10009KT 1/8SM R09R/P6000FT -RA BR OVC002 06/06 A3017 RMK AO2 SFC VIS 1 SLP221 TWRINC P0000 T00610056=
200903141452 METAR KATL 141452Z 11006KT 1/8SM -RA BR OVC002 06/05 A3017 RMK AO2 SFC VIS 4 SLP220 TWRINC P0002 60009 T00560050 51005=
200903141352 METAR KATL 141352Z 11011KT 1/8SM -RA BR OVC002 05/04 A3016 RMK AO2 SFC VIS 4 SLP219 TWRINC P0004 T00500044=
200903141252 METAR KATL 141252Z 10009KT 1/8SM -RA BR OVC002 05/04 A3016 RMK AO2 SFC VIS 3 SLP215 P0003 T00500044=
200903141152 METAR KATL 141152Z 10009KT 1/8SM -RA BR OVC002 04/04 A3015 RMK AO2 SFC VIS 3 DZE49RAB49 SLP214 P0002 60002 70002 T00440044 10061 20044 58000=
200903141052 METAR KATL 141052Z 09010KT 1/2SM -DZ BR OVC004 04/04 A3017 RMK AO2 SFC VIS 3 SLP218 P0000 T00440039=
200903141032 SPECI KATL 141032Z 08011KT 1/2SM -DZ BR OVC004 04/04 A3015 RMK AO2 SFC VIS 4 P0000=
200903141032 SPECI KATL 141032Z 08011KT 1/2SM -DZ BR OVC004 04/04 A3015 RMK AO2 SFC VIS 4 P0000=
200903141023 SPECI KATL 141023Z 10010KT 1/8SM -DZ BR OVC004 04/04 A3015 RMK AO2 SFC VIS 3 P0000=
200903141023 SPECI KATL 141023Z 10010KT 1/8SM -DZ BR OVC004 04/04 A3015 RMK AO2 SFC VIS 3 P0000=
200903140952 METAR KATL 140952Z 09009KT 3SM -DZ BR OVC004 05/04 A3014 RMK AO2 DZB42 SLP209 P0000 T00500039=
200903140914 SPECI KATL 140914Z 08012KT 4SM BR OVC004 05/04 A3015 RMK AO2=
200903140914 SPECI KATL 140914Z 08012KT 4SM BR OVC004 05/04 A3015 RMK AO2=
200903140852 METAR KATL 140852Z 10011KT 6SM BR OVC006 05/04 A3015 RMK AO2 SLP212 60000 T00500039 58004=
200903140837 SPECI KATL 140837Z 10012KT 6SM BR OVC006 05/04 A3015 RMK AO2=
200903140837 SPECI KATL 140837Z 10012KT 6SM BR OVC006 05/04 A3015 RMK AO2=
200903140806 SPECI KATL 140806Z 10011KT 2SM BR OVC006 05/04 A3015 RMK AO2 SFC VIS 6 CIG 004V008=
200903140806 SPECI KATL 140806Z 10011KT 2SM BR OVC006 05/04 A3015 RMK AO2 SFC VIS 6 CIG 004V008=
200903140752 METAR KATL 140752Z 09011KT 2SM BR OVC004 05/04 A3016 RMK AO2 SFC VIS 5 CIG 003V008 SLP214 T00500044=
200903140652 METAR KATL 140652Z 09009KT 2SM BR OVC004 06/05 A3016 RMK AO2 SFC VIS 6 RAE0556DZB05E49 SLP216 P0000 T00560050=
200903140620 SPECI KATL 140620Z 10010KT 2SM -DZ BR OVC004 06/05 A3016 RMK AO2 SFC VIS 5 RAE0556DZB05 P0000=
200903140620 SPECI KATL 140620Z 10010KT 2SM -DZ BR OVC004 06/05 A3016 RMK AO2 SFC VIS 5 RAE0556DZB05 P0000=
200903140552 METAR KATL 140552Z 10010KT 1SM -RA BR OVC004 06/06 A3016 RMK AO2 SFC VIS 3 RAB31 SLP216 CIG 003V006 P0000 60000 T00610056 10100 20061 58011=
200903140547 SPECI KATL 140547Z 09012KT 1SM -RA BR OVC004 06/05 A3016 RMK AO2 SFC VIS 2 1/2 RAB31 P0000=
200903140547 SPECI KATL 140547Z 09012KT 1SM -RA BR OVC004 06/05 A3016 RMK AO2 SFC VIS 2 1/2 RAB31 P0000=
200903140452 METAR KATL 140452Z 08014KT 8SM OVC008 07/05 A3018 RMK AO2 SLP223 T00670050 401440067=
200903140352 METAR KATL 140352Z 09009KT 8SM OVC009 07/05 A3020 RMK AO2 SLP230 T00720050=
200903140252 METAR KATL 140252Z 11012KT 8SM OVC009 07/05 A3020 RMK AO2 RAB04E13 SLP229 P0000 60000 T00720050 51008=
200903140152 METAR KATL 140152Z 07015KT 9SM OVC009 08/05 A3020 RMK AO2 SLP228 T00780050=
200903140052 METAR KATL 140052Z 09014KT 10SM OVC013 09/06 A3019 RMK AO2 SLP226 T00890056=
200903132352 METAR KATL 132352Z 08014KT 10SM FEW015 OVC022 10/06 A3017 RMK AO2 SLP219 T01000056 10144 20100 55000=
200903132252 METAR KATL 132252Z 07012KT 10SM BKN024 BKN120 OVC150 12/06 A3016 RMK AO2 SLP216 T01170056=
200903132250 SPECI KATL 132250Z 07013KT 10SM BKN024 BKN120 OVC150 12/06 A3017 RMK AO2=
200903132250 SPECI KATL 132250Z 07013KT 10SM BKN024 BKN120 OVC150 12/06 A3017 RMK AO2=
200903132152 METAR KATL 132152Z 08012KT 10SM FEW025 BKN120 OVC150 13/06 A3017 RMK AO2 SLP216 T01280061=
200903132052 METAR KATL 132052Z 08012KT 10SM FEW028 BKN050 BKN120 14/06 A3017 RMK AO2 SLP217 T01390061 56017=
200903131952 METAR KATL 131952Z 11011G14KT 10SM FEW028 BKN050 BKN110 14/07 A3018 RMK AO2 SLP221 T01440067=
200903131911 SPECI KATL 131911Z 07011G16KT 10SM FEW024 BKN050 BKN120 13/06 A3020 RMK AO2=
200903131911 SPECI KATL 131911Z 07011G16KT 10SM FEW024 BKN050 BKN120 13/06 A3020 RMK AO2=
200903131852 METAR KATL 131852Z 08007KT 10SM BKN024 BKN050 BKN120 13/06 A3020 RMK AO2 SLP228 T01280056=
200903131752 METAR KATL 131752Z 07012KT 10SM OVC020 12/06 A3022 RMK AO2 SLP235 T01220056 10128 20094 58008=
200903131652 METAR KATL 131652Z 09012KT 10SM OVC020 12/06 A3024 RMK AO2 SLP239 T01170056=
200903131552 METAR KATL 131552Z 09010KT 10SM OVC018 11/04 A3024 RMK AO2 SLP242 T01060044=
200903131452 METAR KATL 131452Z 08012KT 10SM OVC018 10/03 A3025 RMK AO2 SLP243 T01000033 50010=
200903131352 METAR KATL 131352Z 07011KT 10SM OVC018 10/02 A3025 RMK AO2 SLP243 T01000022=
200903131252 METAR KATL 131252Z 10012KT 10SM OVC018 10/02 A3023 RMK AO2 SLP237 T01000022=
200903131152 METAR KATL 131152Z 09013G19KT 10SM OVC018 10/01 A3021 RMK AO2 SLP231 T01000011 10117 20100 51007=
200903131052 METAR KATL 131052Z 09009KT 10SM OVC020 10/00 A3020 RMK AO2 SLP226 T01000000=
200903130952 METAR KATL 130952Z 08011KT 10SM OVC020 11/M01 A3021 RMK AO2 SLP226 T01061006=
200903130852 METAR KATL 130852Z 09012KT 10SM OVC020 11/M01 A3019 RMK AO2 SLP222 T01061011 58007=
200903130752 METAR KATL 130752Z 08014KT 10SM OVC022 11/M02 A3020 RMK AO2 SLP225 T01111017=
200903130652 METAR KATL 130652Z 07012KT 10SM BKN027 BKN085 12/M02 A3021 RMK AO2 SLP228 T01171022=
200903130552 METAR KATL 130552Z 07011KT 10SM SCT070 SCT095 12/M03 A3022 RMK AO2 SLP229 T01171028 10167 20117 58001=
200903130452 METAR KATL 130452Z 06012KT 10SM FEW070 12/M02 A3022 RMK AO2 SLP230 T01221022 402220072=
200903130352 METAR KATL 130352Z 06009KT 10SM BKN075 14/00 A3022 RMK AO2 SLP232 T01390000=
200903130252 METAR KATL 130252Z 07012KT 10SM SCT065 SCT200 15/02 A3022 RMK AO2 SLP231 T01500017 51014=
200903130152 METAR KATL 130152Z 07010KT 10SM SCT070 BKN200 16/03 A3022 RMK AO2 SLP233 T01560033=
200903130052 METAR KATL 130052Z 34005KT 10SM FEW080 SCT200 15/04 A3019 RMK AO2 SLP225 T01500039=
200903122352 METAR KATL 122352Z 35011KT 10SM FEW055 SCT080 BKN250 17/04 A3018 RMK AO2 SLP219 T01670044 10222 20167 53005=
200903122252 METAR KATL 122252Z 08011KT 10SM SCT055 BKN080 BKN250 20/09 A3016 RMK AO2 SLP212 T02000089=
200903122152 METAR KATL 122152Z 09009KT 10SM FEW050 BKN200 BKN250 22/10 A3016 RMK AO2 SLP211 T02170100=
200903122052 METAR KATL 122052Z 05009KT 10SM FEW050 SCT150 BKN250 22/10 A3016 RMK AO2 SLP212 T02220100 56024=
200903121952 METAR KATL 121952Z VRB03KT 10SM FEW100 SCT200 BKN250 21/09 A3019 RMK AO2 SLP222 T02110094=
200903121852 METAR KATL 121852Z 07005KT 10SM FEW050 SCT100 BKN200 21/09 A3020 RMK AO2 SLP226 T02060089=
200903121752 METAR KATL 121752Z 09005KT 10SM FEW100 BKN200 BKN250 21/09 A3023 RMK AO2 SLP235 T02060089 10206 20072 58014=
200903121652 METAR KATL 121652Z VRB03KT 10SM FEW050 SCT100 BKN200 19/08 A3026 RMK AO2 SLP244 T01890078=
200903121552 METAR KATL 121552Z 08009KT 10SM BKN050 BKN250 17/07 A3027 RMK AO2 SLP249 T01670067=
200903121452 METAR KATL 121452Z COR 03006KT 10SM FEW050 SCT110 BKN250 13/02 A3028 RMK AO2 SLP251 ACC NE-E-SE-S T01330022 50009=
200903121352 METAR KATL 121352Z 33007KT 10SM FEW100 SCT150 BKN250 10/00 A3028 RMK AO2 SLP254 ACC N & NE-E-SE-S T01000000=
200903121252 METAR KATL 121252Z 36006KT 10SM SCT049 SCT065 BKN150 08/M02 A3026 RMK AO2 SLP248 T00781017=
200903121152 METAR KATL 121152Z 34007KT 10SM SCT050 SCT065 BKN120 07/M02 A3025 RMK AO2 SLP243 T00721017 10117 20072 53012=
200903121052 METAR KATL 121052Z 33006KT 10SM BKN065 BKN120 BKN250 08/M01 A3023 RMK AO2 SLP237 T00781011=
200903120952 METAR KATL 120952Z 33009KT 10SM FEW060 SCT150 OVC250 08/01 A3022 RMK AO2 SLP229 T00830011=
200903120852 METAR KATL 120852Z 33005KT 10SM SCT060 BKN150 OVC250 09/03 A3021 RMK AO2 SLP228 T00890028 58001=
200903120752 METAR KATL 120752Z 33010KT 10SM FEW150 SCT200 OVC250 10/04 A3022 RMK AO2 SLP229 T01000039=
200903120652 METAR KATL 120652Z 33010KT 10SM FEW150 SCT200 OVC250 11/04 A3021 RMK AO2 SLP226 T01060044=
200903120552 METAR KATL 120552Z 33009KT 10SM SCT150 BKN200 OVC250 12/04 A3021 RMK AO2 SLP228 T01170044 10183 20117 58001=
200903120452 METAR KATL 120452Z 33008KT 10SM BKN200 OVC250 12/04 A3022 RMK AO2 SLP231 T01220044 402500122=
200903120352 METAR KATL 120352Z 33009KT 10SM BKN200 OVC250 13/05 A3023 RMK AO2 SLP232 T01330050=
200903120252 METAR KATL 120252Z 34009KT 10SM BKN180 OVC250 14/05 A3022 RMK AO2 SLP229 T01440050 51003=
200903120152 METAR KATL 120152Z 34009KT 10SM BKN180 OVC250 16/06 A3022 RMK AO2 SLP229 T01560056=
200903120052 METAR KATL 120052Z 33008KT 10SM BKN180 OVC250 17/08 A3022 RMK AO2 SLP230 T01720083=
200903112352 METAR KATL 112352Z 34011KT 10SM OVC200 18/10 A3021 RMK AO2 SLP227 T01830100 10250 20183 53013=
200903112252 METAR KATL 112252Z 35011G18KT 10SM FEW040 OVC200 21/12 A3019 RMK AO2 SLP219 T02110117=
200903112152 METAR KATL 112152Z 32012KT 10SM FEW040 BKN200 OVC250 23/13 A3016 RMK AO2 SLP209 T02330133=
200903112052 METAR KATL 112052Z 32012KT 10SM FEW038 BKN200 BKN250 23/14 A3017 RMK AO2 SLP210 T02330139 55007=
200903111952 METAR KATL 111952Z 31011G16KT 10SM FEW045 SCT065 BKN250 25/14 A3017 RMK AO2 SLP209 T02500139=
200903111852 METAR KATL 111852Z 34013G20KT 310V010 10SM BKN040 BKN060 BKN250 24/15 A3018 RMK AO2 SLP215 T02390150=
200903111752 METAR KATL 111752Z 32012G21KT 10SM BKN035 BKN050 BKN250 23/15 A3019 RMK AO2 SLP218 T02330150 10244 20144 58004=
200903111652 METAR KATL 111652Z 31007KT 10SM BKN038 BKN046 BKN250 23/14 A3020 RMK AO2 SLP220 T02280139=
200903111552 METAR KATL 111552Z 26011G14KT 10SM FEW030 BKN250 22/14 A3020 RMK AO2 SLP222 T02220144=
200903111452 METAR KATL 111452Z 26005KT 10SM BKN250 20/14 A3020 RMK AO2 SLP222 T02000139 51009=
200903111352 METAR KATL 111352Z 28006KT 10SM BKN250 18/14 A3020 RMK AO2 SLP219 T01830139=
200903111252 METAR KATL 111252Z 26006KT 10SM SCT250 16/13 A3019 RMK AO2 SLP219 T01560133=
200903111152 METAR KATL 111152Z 23004KT 10SM SCT180 SCT250 14/12 A3018 RMK AO2 SLP213 T01440122 10178 20144 53010=
200903111052 METAR KATL 111052Z 25004KT 10SM FEW180 SCT250 14/12 A3016 RMK AO2 SLP208 T01440122=
200903110952 METAR KATL 110952Z 22005KT 10SM CLR 15/12 A3015 RMK AO2 SLP203 T01500122=
200903110852 METAR KATL 110852Z 24009KT 10SM CLR 17/12 A3014 RMK AO2 SLP201 T01670122 50003=
200903110752 METAR KATL 110752Z 24008KT 10SM FEW250 17/12 A3015 RMK AO2 SLP202 T01670117=
200903110652 METAR KATL 110652Z 23005KT 10SM SCT250 17/12 A3015 RMK AO2 SLP201 T01670117=
200903110552 METAR KATL 110552Z 23005KT 10SM FEW250 17/12 A3014 RMK AO2 SLP198 T01720117 10233 20172 55000=
200903110452 METAR KATL 110452Z 23004KT 10SM SCT250 18/12 A3012 RMK AO2 SLP194 T01780117 402670161=
200903110352 METAR KATL 110352Z 24003KT 10SM SCT250 19/12 A3014 RMK AO2 SLP199 T01890117=
200903110252 METAR KATL 110252Z 22006KT 10SM FEW060 BKN250 21/12 A3014 RMK AO2 SLP198 T02060122 51009=
200903110152 METAR KATL 110152Z 20003KT 10SM BKN065 BKN250 21/12 A3014 RMK AO2 SLP199 T02110122=
200903110052 METAR KATL 110052Z 22003KT 10SM FEW060 BKN250 22/12 A3012 RMK AO2 SLP195 T02220122=
200903102352 METAR KATL 102352Z 23004KT 10SM FEW060 BKN250 23/12 A3011 RMK AO2 SLP189 T02330117 10267 20233 53006=
200903102252 METAR KATL 102252Z 20009KT 10SM FEW060 BKN250 25/12 A3009 RMK AO2 SLP183 T02500117=
200903102152 METAR KATL 102152Z 21010KT 10SM FEW060 BKN250 26/12 A3009 RMK AO2 SLP182 T02560117=
200903102052 METAR KATL 102052Z 25007KT 10SM FEW060 SCT250 BKN300 26/12 A3009 RMK AO2 SLP182 T02560122 56018=
200903101952 METAR KATL 101952Z 20008KT 170V230 10SM FEW050 SCT250 BKN300 26/13 A3010 RMK AO2 SLP186 T02560128=
200903101852 METAR KATL 101852Z 24008KT 10SM FEW050 SCT250 25/13 A3012 RMK AO2 SLP193 T02500133=
200903101752 METAR KATL 101752Z 21010KT 10SM SCT045 SCT250 24/14 A3014 RMK AO2 SLP200 T02440139 10250 20161 58017=
200903101652 METAR KATL 101652Z 16006KT 10SM FEW038 24/14 A3016 RMK AO2 SLP208 T02390144=
200903101552 METAR KATL 101552Z COR 20007KT 10SM FEW025 22/15 A3018 RMK AO2 SLP213 T02220150=
200903101452 METAR KATL 101452Z VRB05KT 10SM FEW150 SCT250 22/15 A3019 RMK AO2 SLP218 T02170150 52008=
200903101352 METAR KATL 101352Z 28005KT 9SM FEW150 19/16 A3019 RMK AO2 SLP218 T01890156=
200903101252 METAR KATL 101252Z 00000KT 7SM BKN150 BKN200 17/15 A3017 RMK AO2 SLP212 T01720150=
200903101152 METAR KATL 101152Z 28003KT 6SM BR BKN180 16/14 A3017 RMK AO2 SLP211 T01610144 10178 20161 53016=
200903101052 METAR KATL 101052Z 26003KT 7SM SCT180 17/14 A3015 RMK AO2 SLP204 T01670144=
200903100952 METAR KATL 100952Z 23004KT 7SM BKN150 16/14 A3013 RMK AO2 SLP196 T01610144=
200903100852 METAR KATL 100852Z 22003KT 8SM BKN180 16/14 A3012 RMK AO2 SLP193 T01610144 58010=
200903100752 METAR KATL 100752Z 25003KT 7SM SCT180 17/15 A3013 RMK AO2 SLP197 T01670150=
200903100652 METAR KATL 100652Z 25003KT 8SM FEW180 SCT250 17/15 A3014 RMK AO2 SLP200 T01670150=
200903100552 METAR KATL 100552Z 23003KT 9SM FEW180 BKN250 18/15 A3015 RMK AO2 SLP204 T01780150 10239 20178 58002=
200903100452 METAR KATL 100452Z 25005KT 10SM BKN250 19/15 A3016 RMK AO2 SLP206 T01890150 402670156=
200903100352 METAR KATL 100352Z 25004KT 10SM SCT250 20/15 A3016 RMK AO2 SLP206 T02000150=
200903100252 METAR KATL 100252Z 25006KT 10SM BKN250 21/15 A3016 RMK AO2 SLP206 T02060150 50009=
200903100152 METAR KATL 100152Z 24008KT 10SM FEW055 BKN250 22/15 A3016 RMK AO2 SLP207 T02170150=
200903100052 METAR KATL 100052Z 22005KT 10SM FEW055 SCT080 BKN250 22/15 A3014 RMK AO2 SLP200 T02220150=
200903092352 METAR KATL 092352Z 27003KT 10SM SCT055 BKN080 BKN250 24/14 A3013 RMK AO2 SLP196 T02390139 10267 20233 53004=
200903092252 METAR KATL 092252Z 27004KT 10SM SCT055 BKN080 BKN250 24/14 A3011 RMK AO2 SLP191 T02440144=
200903092152 METAR KATL 092152Z 30003KT 10SM SCT055 BKN080 BKN250 26/14 A3011 RMK AO2 SLP188 T02610144=
200903092052 METAR KATL 092052Z VRB03KT 10SM FEW050 SCT070 SCT250 26/14 A3011 RMK AO2 SLP191 T02560144 56020=
200903091952 SPECI KATL 091952Z VRB05KT 10SM BKN044 BKN250 26/15 A3013 RMK AO2 SLP195 T02560150=
200903091852 METAR KATL 091852Z 00000KT 10SM FEW045 SCT250 25/16 A3015 RMK AO2 SLP202 T02500156=
200903091752 METAR KATL 091752Z 26006KT 10SM SCT033 SCT250 24/16 A3018 RMK AO2 SLP211 T02390156 10244 20167 58009=
200903091652 METAR KATL 091652Z 28011G16KT 10SM FEW030 SCT250 23/16 A3019 RMK AO2 SLP217 T02330156=
200903091552 METAR KATL 091552Z 29007KT 10SM FEW020 SCT250 22/16 A3020 RMK AO2 SLP220 T02170156=
200903091452 METAR KATL 091452Z 29008KT 10SM SCT013 19/16 A3021 RMK AO2 SLP223 T01940156 52019=
200903091412 SPECI KATL 091412Z 26006KT 10SM BKN011 18/15 A3020 RMK AO2=
200903091412 SPECI KATL 091412Z 26006KT 10SM BKN011 18/15 A3020 RMK AO2=
200903091352 METAR KATL 091352Z 27007KT 8SM BKN009 18/16 A3019 RMK AO2 SLP218 T01780156=
200903091252 METAR KATL 091252Z 26006KT 6SM BR BKN008 17/15 A3016 RMK AO2 SLP209 T01670150=
200903091152 METAR KATL 091152Z 26008KT 6SM BR BKN007 17/15 A3015 RMK AO2 SLP203 T01670150 10172 20156 53014=
200903091052 METAR KATL 091052Z 25010KT 6SM BR BKN009 16/14 A3013 RMK AO2 SLP197 T01610144=
200903090952 METAR KATL 090952Z 24008KT 10SM BKN009 16/14 A3011 RMK AO2 SLP191 T01610144=
200903090932 SPECI KATL 090932Z 25010KT 10SM BKN011 16/14 A3011 RMK AO2=
200903090932 SPECI KATL 090932Z 25010KT 10SM BKN011 16/14 A3011 RMK AO2=
200903090852 METAR KATL 090852Z 25007KT 10SM SCT180 16/14 A3011 RMK AO2 SLP188 T01610139 58004=
200903090752 METAR KATL 090752Z 25009KT 10SM SCT180 17/14 A3011 RMK AO2 SLP191 T01670139=
200903090652 METAR KATL 090652Z 25010G17KT 10SM FEW180 17/14 A3012 RMK AO2 SLP193 T01720139=
200903090552 METAR KATL 090552Z 24011G16KT 10SM FEW180 18/14 A3012 RMK AO2 SLP194 T01780139 10217 20178 50002=
200903090452 METAR KATL 090452Z 24009KT 10SM FEW180 BKN250 18/13 A3012 RMK AO2 SLP194 T01830128 402330100=
200903090352 METAR KATL 090352Z 22009KT 10SM FEW250 18/12 A3011 RMK AO2 SLP193 T01830122=
200903090252 METAR KATL 090252Z 22009KT 10SM CLR 18/12 A3011 RMK AO2 SLP194 T01830117 53005=
200903090152 METAR KATL 090152Z 21008KT 10SM FEW060 18/12 A3010 RMK AO2 SLP191 T01830117=
200903090052 METAR KATL 090052Z 23006KT 10SM FEW200 19/12 A3010 RMK AO2 SLP192 T01940117=
200903082352 METAR KATL 082352Z 22011KT 10SM FEW065 SCT250 22/11 A3010 RMK AO2 SLP188 T02170111 10233 20200 55000=
200903082252 METAR KATL 082252Z 21011KT 10SM SCT055 BKN250 22/12 A3009 RMK AO2 SLP186 T02220117=
200903082152 METAR KATL 082152Z 22014G19KT 10SM SCT050 BKN250 23/12 A3009 RMK AO2 SLP185 T02330117=
200903082052 METAR KATL 082052Z 23012G19KT 10SM BKN049 23/12 A3010 RMK AO2 SLP188 T02330117 56025=
200903081952 METAR KATL 081952Z 25011G18KT 10SM SCT041 23/12 A3011 RMK AO2 SLP192 T02280122=
200903081852 METAR KATL 081852Z 26011G18KT 10SM SCT033 21/13 A3014 RMK AO2 SLP203 T02110128=
200903081752 METAR KATL 081752Z 23015G20KT 10SM SCT028 SCT035 BKN250 20/13 A3017 RMK AO2 SLP215 T02000128 10206 20100 58018=
200903081652 METAR KATL 081652Z 21008KT 10SM SCT021 SCT250 18/13 A3020 RMK AO2 SLP223 T01830128=
200903081624 SPECI KATL 081624Z 25008KT 10SM SCT015 BKN250 18/13 A3022 RMK AO2 SCT015V BKN=
200903081624 SPECI KATL 081624Z 25008KT 10SM SCT015 BKN250 18/13 A3022 RMK AO2 SCT015V BKN=
200903081552 METAR KATL 081552Z 23008KT 9SM BKN015 16/12 A3023 RMK AO2 SLP233 T01610122=
200903081532 SPECI KATL 081532Z 26009KT 9SM BKN015 BKN150 BKN250 17/13 A3023 RMK AO2 BKN015V SCT=
200903081532 SPECI KATL 081532Z 26009KT 9SM BKN015 BKN150 BKN250 17/13 A3023 RMK AO2 BKN015V SCT=
200903081452 METAR KATL 081452Z 24007KT 8SM SCT007 BKN150 BKN250 14/12 A3023 RMK AO2 SLP234 SCT007V BKN T01440117 51008=
200903081442 SPECI KATL 081442Z 24005KT 10SM SCT007 SCT150 14/12 A3023 RMK AO2=
200903081442 SPECI KATL 081442Z 24005KT 10SM SCT007 SCT150 14/12 A3023 RMK AO2=
200903081352 METAR KATL 081352Z 27004KT 3SM BR OVC004 12/11 A3023 RMK AO2 SFC VIS 5 SLP235 T01170111=
200903081341 SPECI KATL 081341Z 28006KT 3SM BR OVC004 12/11 A3023 RMK AO2 SFC VIS 5=
200903081341 SPECI KATL 081341Z 28006KT 3SM BR OVC004 12/11 A3023 RMK AO2 SFC VIS 5=
200903081303 SPECI KATL 081303Z 27004KT 3SM BR BKN006 12/11 A3021 RMK AO2 SFC VIS 5=
200903081303 SPECI KATL 081303Z 27004KT 3SM BR BKN006 12/11 A3021 RMK AO2 SFC VIS 5=
200903081252 METAR KATL 081252Z 28006KT 7SM SCT008 BKN250 12/11 A3020 RMK AO2 SLP226 T01170106=
200903081152 METAR KATL 081152Z 19005KT 6SM BR FEW060 SCT250 10/09 A3017 RMK AO2 SLP213 T01000089 10139 20100 53004=
200903081052 METAR KATL 081052Z 00000KT 8SM FEW250 11/09 A3016 RMK AO2 SLP209 T01060094=
200903080952 METAR KATL 080952Z 19003KT 7SM FEW250 11/10 A3015 RMK AO2 SLP206 T01060100=
200903080852 METAR KATL 080852Z 18005KT 7SM FEW250 11/09 A3015 RMK AO2 SLP208 T01060094 58014=
200903080752 METAR KATL 080752Z 22005KT 9SM CLR 12/10 A3017 RMK AO2 SLP212 T01220100=
200903080652 METAR KATL 080652Z 22003KT 10SM FEW250 13/11 A3019 RMK AO2 SLP218 T01280106=
200903080552 METAR KATL 080552Z 22004KT 10SM FEW250 13/10 A3020 RMK AO2 SLP223 T01330100 10194 20128 58003=
200903080452 METAR KATL 080452Z 00000KT 10SM FEW250 14/10 A3020 RMK AO2 SLP223 T01390100 402330106=
200903080352 METAR KATL 080352Z 22005KT 10SM FEW250 16/10 A3021 RMK AO2 SLP227 T01560100=
200903080252 METAR KATL 080252Z 20006KT 10SM FEW250 16/09 A3021 RMK AO2 SLP227 T01560089 50005=
200903080152 METAR KATL 080152Z 20004KT 10SM FEW250 16/09 A3021 RMK AO2 SLP228 T01610089=
200903080052 METAR KATL 080052Z 20007KT 10SM FEW250 18/09 A3020 RMK AO2 SLP225 T01780089=
200903072352 METAR KATL 072352Z 19003KT 10SM FEW250 19/09 A3019 RMK AO2 SLP222 T01940094 10233 20189 56007=
200903072252 METAR KATL 072252Z 20009KT 10SM FEW250 21/08 A3019 RMK AO2 SLP222 T02110078=
200903072152 METAR KATL 072152Z 18011KT 10SM FEW250 22/08 A3019 RMK AO2 SLP221 T02220078=
200903072052 METAR KATL 072052Z 24011KT 10SM FEW250 23/09 A3021 RMK AO2 SLP227 T02280089 56021=
200903071952 METAR KATL 071952Z 19009KT 10SM FEW250 22/12 A3022 RMK AO2 SLP231 T02220117=
200903071852 METAR KATL 071852Z 20006KT 10SM FEW035 SCT250 21/11 A3024 RMK AO2 SLP238 T02110111=
200903071752 METAR KATL 071752Z 26006KT 10SM SCT029 SCT250 20/12 A3028 RMK AO2 SLP250 T02000117 10200 20117 58014=
200903071702 SPECI KATL 071702Z 24006KT 10SM SCT024 BKN250 18/12 A3031 RMK AO2=
200903071702 SPECI KATL 071702Z 24006KT 10SM SCT024 BKN250 18/12 A3031 RMK AO2=
200903071652 METAR KATL 071652Z 27004KT 10SM BKN022 18/12 A3031 RMK AO2 SLP261 BKN022V SCT T01780117=
200903071552 METAR KATL 071552Z 29006KT 7SM SCT012 BKN018 16/12 A3032 RMK AO2 SLP266 T01560122=
200903071542 SPECI KATL 071542Z 28005KT 3SM HZ SCT012 BKN018 16/12 A3032 RMK AO2 SFC VIS 6=
200903071542 SPECI KATL 071542Z 28005KT 3SM HZ SCT012 BKN018 16/12 A3032 RMK AO2 SFC VIS 6=
200903071527 SPECI KATL 071527Z 27008KT 3SM HZ BKN012 BKN018 16/13 A3032 RMK AO2 SFC VIS 6 CIG 012V016 BKN012V SCT=
200903071527 SPECI KATL 071527Z 27008KT 3SM HZ BKN012 BKN018 16/13 A3032 RMK AO2 SFC VIS 6 CIG 012V016 BKN012V SCT=
200903071516 SPECI KATL 071516Z 29007KT 3SM BR SCT009 OVC016 15/13 A3032 RMK AO2 SFC VIS 6=
200903071516 SPECI KATL 071516Z 29007KT 3SM BR SCT009 OVC016 15/13 A3032 RMK AO2 SFC VIS 6=
200903071452 METAR KATL 071452Z 26005KT 2 1/2SM BR BKN009 OVC012 14/13 A3032 RMK AO2 SFC VIS 5 SLP266 T01390128 51010=
200903071433 SPECI KATL 071433Z 26005KT 2 1/2SM BR OVC006 13/12 A3032 RMK AO2 SFC VIS 4=
200903071433 SPECI KATL 071433Z 26005KT 2 1/2SM BR OVC006 13/12 A3032 RMK AO2 SFC VIS 4=
200903071352 METAR KATL 071352Z 26005KT 1 1/2SM BR OVC004 13/12 A3032 RMK AO2 SFC VIS 3 SLP264 T01330122=
200903071252 METAR KATL 071252Z 25003KT 1 1/2SM BR OVC004 13/12 A3030 RMK AO2 SFC VIS 3 SLP258 T01280122=
200903071223 SPECI KATL 071223Z 24003KT 1 1/2SM BR OVC004 12/12 A3030 RMK AO2 SFC VIS 2 1/2=
200903071223 SPECI KATL 071223Z 24003KT 1 1/2SM BR OVC004 12/12 A3030 RMK AO2 SFC VIS 2 1/2=
200903071152 METAR KATL 071152Z 00000KT 4SM BR OVC004 12/11 A3029 RMK AO2 SLP255 T01170111 10133 20106 53003=
200903071145 SPECI KATL 071145Z 00000KT 4SM BR OVC004 12/11 A3029 RMK AO2=
200903071145 SPECI KATL 071145Z 00000KT 4SM BR OVC004 12/11 A3029 RMK AO2=
200903071052 METAR KATL 071052Z 00000KT 3SM BR OVC008 11/11 A3029 RMK AO2 SLP254 T01110106=
200903071042 SPECI KATL 071042Z 00000KT 1 1/2SM BR BKN008 11/11 A3028 RMK AO2=
200903071042 SPECI KATL 071042Z 00000KT 1 1/2SM BR BKN008 11/11 A3028 RMK AO2=
200903071033 SPECI KATL 071033Z 00000KT 4SM BR BKN008 11/11 A3028 RMK AO2=
200903071033 SPECI KATL 071033Z 00000KT 4SM BR BKN008 11/11 A3028 RMK AO2=
200903070952 METAR KATL 070952Z 26003KT 6SM BR CLR 12/11 A3028 RMK AO2 SLP250 T01220111=
200903070852 METAR KATL 070852Z 24003KT 7SM CLR 12/11 A3028 RMK AO2 SLP251 T01170106 53002=
200903070752 METAR KATL 070752Z 23003KT 9SM CLR 12/11 A3027 RMK AO2 SLP249 T01220106=
200903070652 METAR KATL 070652Z 00000KT 10SM CLR 12/10 A3027=
200903070552 METAR KATL 070552Z 20004KT 10SM CLR 13/10 A3027=
200903070452 METAR KATL 070452Z 17004KT 10SM CLR 14/10 A3028 RMK AO2 SLP252 T01390100 402110094=
200903070352 METAR KATL 070352Z 18004KT 10SM CLR 14/11 A3028 RMK AO2 SLP253 T01440106=
200903070252 METAR KATL 070252Z 19005KT 10SM CLR 16/11 A3028 RMK AO2 SLP252 T01560106 53006=
200903070152 METAR KATL 070152Z 20007KT 10SM CLR 16/11 A3027 RMK AO2 SLP249 T01610106=
200903070052 METAR KATL 070052Z 19006KT 10SM FEW250 17/11 A3027 RMK AO2 SLP247 T01670106=
200903062352 METAR KATL 062352Z 19007KT 10SM FEW250 18/11 A3026 RMK AO2 SLP246 T01830106 10211 20183 55002=
200903062252 METAR KATL 062252Z 20012KT 10SM BKN250 20/11 A3025 RMK AO2 SLP242 T02000106=
200903062152 METAR KATL 062152Z 20014KT 10SM FEW045 SCT250 BKN300 21/11 A3026 RMK AO2 SLP244 T02110106=
200903062052 METAR KATL 062052Z 21010KT 10SM FEW045 SCT250 BKN300 21/11 A3027 RMK AO2 SLP248 T02110106 56021=
200903061952 METAR KATL 061952Z VRB06KT 10SM FEW045 SCT300 21/09 A3028 RMK AO2 SLP252 T02110094=
200903061852 METAR KATL 061852Z 24009KT 10SM SCT037 21/11 A3030 RMK AO2 SLP259 T02060111=
200903061752 METAR KATL 061752Z 20011G17KT 10SM BKN035 18/11 A3033 RMK AO2 SLP270 T01830106 10189 20106 58014=
200903061652 METAR KATL 061652Z 23007KT 10SM FEW030 BKN038 BKN110 17/10 A3036 RMK AO2 SLP279 T01720100=
200903061552 METAR KATL 061552Z 23009G17KT 10SM FEW020 SCT030 SCT300 16/10 A3036 RMK AO2 SLP281 T01610100=
200903061452 METAR KATL 061452Z 23012KT 10SM FEW020 14/10 A3037 RMK AO2 SLP285 T01440100 50005=
200903061414 SPECI KATL 061414Z 22015G20KT 10SM SCT016 SCT025 SCT200 13/09 A3038 RMK AO2=
200903061414 SPECI KATL 061414Z 22015G20KT 10SM SCT016 SCT025 SCT200 13/09 A3038 RMK AO2=
200903061356 SPECI KATL 061356Z 24009KT 10SM SCT016 BKN025 BKN200 13/09 A3038 RMK AO2=
200903061356 SPECI KATL 061356Z 24009KT 10SM SCT016 BKN025 BKN200 13/09 A3038 RMK AO2=
200903061352 METAR KATL 061352Z 23008KT 10SM BKN014 BKN025 BKN200 13/10 A3038 RMK AO2 SLP288 T01280100=
200903061252 METAR KATL 061252Z 24009KT 8SM BKN012 BKN025 BKN200 12/09 A3037 RMK AO2 SLP285 T01170094=
200903061248 SPECI KATL 061248Z 24007KT 8SM BKN012 BKN025 BKN200 12/09 A3037 RMK AO2=
200903061248 SPECI KATL 061248Z 24007KT 8SM BKN012 BKN025 BKN200 12/09 A3037 RMK AO2=
200903061213 SPECI KATL 061213Z 23004KT 9SM SCT012 SCT025 BKN200 11/09 A3036 RMK AO2=
200903061213 SPECI KATL 061213Z 23004KT 9SM SCT012 SCT025 BKN200 11/09 A3036 RMK AO2=
200903061152 METAR KATL 061152Z 24003KT 10SM SCT012 BKN025 BKN200 11/09 A3036 RMK AO2 SLP279 T01110089 10117 20094 51015=
200903061052 METAR KATL 061052Z 24006KT 10SM SCT014 BKN022 BKN200 12/09 A3035 RMK AO2 SLP275 T01170089=
200903060952 METAR KATL 060952Z 24004KT 10SM SCT014 BKN022 BKN200 11/09 A3033 RMK AO2 SLP270 T01110089=
200903060934 SPECI KATL 060934Z 24005KT 10SM SCT014 BKN020 BKN200 11/08 A3032 RMK AO2=
200903060934 SPECI KATL 060934Z 24005KT 10SM SCT014 BKN020 BKN200 11/08 A3032 RMK AO2=
200903060916 SPECI KATL 060916Z 25004KT 10SM BKN014 BKN200 11/08 A3032 RMK AO2=
200903060916 SPECI KATL 060916Z 25004KT 10SM BKN014 BKN200 11/08 A3032 RMK AO2=
200903060852 METAR KATL 060852Z 25003KT 10SM FEW200 09/07 A3031 RMK AO2 SLP264 T00940067 58002=
200903060752 METAR KATL 060752Z 22003KT 10SM SCT250 10/06 A3032 RMK AO2 SLP265 T01000061=
200903060652 METAR KATL 060652Z 21007KT 10SM SCT250 11/06 A3032 RMK AO2 SLP268 T01060056=
200903060552 METAR KATL 060552Z 18008KT 10SM FEW250 11/04 A3032 RMK AO2 SLP267 T01060044 10150 20100 58002=
200903060452 METAR KATL 060452Z 18005KT 10SM FEW250 11/04 A3034 RMK AO2 SLP274 T01060039 401720011=
200903060352 METAR KATL 060352Z 18007KT 10SM FEW250 11/04 A3033 RMK AO2 SLP273 T01110039=
200903060252 METAR KATL 060252Z 16008KT 10SM FEW250 12/03 A3033 RMK AO2 SLP271 T01170028 53006=
200903060152 METAR KATL 060152Z 16007KT 10SM FEW250 12/02 A3032 RMK AO2 SLP270 T01220017=
200903060052 METAR KATL 060052Z 15006KT 10SM FEW250 13/01 A3031 RMK AO2 SLP268 T01330006=
200903052352 METAR KATL 052352Z 15006KT 10SM FEW250 15/00 A3031 RMK AO2 SLP267 T01500000 10172 20144 56008=
200903052252 METAR KATL 052252Z 17009KT 10SM SCT250 17/M01 A3031 RMK AO2 SLP267 T01671011=
200903052152 METAR KATL 052152Z 20007KT 10SM SCT250 17/M01 A3032 RMK AO2 SLP269 T01671011=
200903052052 METAR KATL 052052Z 20010KT 10SM FEW200 SCT250 17/M01 A3033 RMK AO2 SLP273 T01721011 56024=
200903051952 METAR KATL 051952Z 18010KT 10SM FEW250 17/M01 A3035 RMK AO2 SLP279 T01671006=
200903051852 METAR KATL 051852Z 14007KT 110V170 10SM SCT250 16/M02 A3037 RMK AO2 SLP287 T01561022=
200903051752 METAR KATL 051752Z 14006KT 10SM SCT250 14/M03 A3041 RMK AO2 SLP299 T01441028 10144 20011 58019=
200903051652 METAR KATL 051652Z 15007KT 10SM SCT250 13/M03 A3044 RMK AO2 SLP310 T01281033=
200903051552 METAR KATL 051552Z 19007KT 10SM SCT250 11/M04 A3047 RMK AO2 SLP320 T01111044=
200903051452 METAR KATL 051452Z 17006KT 10SM FEW250 09/M04 A3046 RMK AO2 SLP321 T00891039 51015=
200903051352 METAR KATL 051352Z 12005KT 10SM FEW250 06/M06 A3046 RMK AO2 SLP318 T00561056=
200903051252 METAR KATL 051252Z 11003KT 10SM FEW100 SCT250 03/M04 A3043 RMK AO2 SLP311 T00331044=
200903051152 METAR KATL 051152Z 00000KT 10SM SCT250 03/M07 A3042 RMK AO2 SLP306 T00281067 10050 20017 52016=
200903051052 METAR KATL 051052Z 00000KT 10SM FEW250 02/M05 A3040 RMK AO2 SLP300 T00171050=
200903050952 METAR KATL 050952Z 00000KT 10SM CLR 02/M04 A3039 RMK AO2 SLP295 T00221044=
200903050852 METAR KATL 050852Z 00000KT 10SM FEW250 03/M06 A3037 RMK AO2 SLP289 T00331056 58002=
200903050752 METAR KATL 050752Z 00000KT 10SM FEW250 04/M06 A3038 RMK AO2 SLP292 T00391061=
200903050652 METAR KATL 050652Z 00000KT 10SM FEW250 04/M07 A3039 RMK AO2 SLP294 T00441072=
200903050552 METAR KATL 050552Z 00000KT 10SM FEW250 05/M07 A3038 RMK AO2 SLP291 T00501072 10094 20050 50001=
200903050452 METAR KATL 050452Z 00000KT 10SM FEW250 06/M07 A3038 RMK AO2 SLP291 T00611072 401221011=
200903050352 METAR KATL 050352Z 15003KT 10SM CLR 06/M06 A3037 RMK AO2 SLP291 T00611061=
200903050252 METAR KATL 050252Z 14004KT 10SM CLR 07/M06 A3037 RMK AO2 SLP290 T00671056 53008=
200903050152 METAR KATL 050152Z 14004KT 10SM FEW250 08/M06 A3036 RMK AO2 SLP288 T00831061=
200903050052 METAR KATL 050052Z 16005KT 10SM FEW200 09/M05 A3034 RMK AO2 SLP282 T00891050=
200903042352 METAR KATL 042352Z 17005KT 10SM FEW200 09/M04 A3035 RMK AO2 SLP283 T00941039 10122 20083 53002=
200903042252 METAR KATL 042252Z 17006KT 10SM FEW200 11/M07 A3033 RMK AO2 SLP277 T01111067=
200903042152 METAR KATL 042152Z 17003KT 10SM FEW250 12/M08 A3034 RMK AO2 SLP278 T01171078=
200903042052 METAR KATL 042052Z 13005KT 10SM CLR 12/M07 A3034 RMK AO2 SLP280 T01171072 56024=
200903041952 METAR KATL 041952Z 15005KT 10SM FEW250 11/M07 A3035 RMK AO2 SLP284 T01111072=
200903041852 METAR KATL 041852Z 09005KT 10SM FEW250 10/M07 A3038 RMK AO2 SLP293 T01001072=
200903041752 METAR KATL 041752Z 21003KT 10SM FEW150 SCT250 08/M07 A3041 RMK AO2 SLP305 T00831067 10089 20000 58019=
200903041652 METAR KATL 041652Z 00000KT 10SM FEW150 SCT250 07/M06 A3045=
200903041552 METAR KATL 041552Z VRB03KT 10SM FEW150 SCT250 06/M07 A3046 RMK AO2 SLP321 T00561067=
200903041452 METAR KATL 041452Z 17003KT 10SM FEW150 SCT180 BKN250 04/M06 A3047 RMK AO2 SLP326 T00391061 52021=
200903041352 METAR KATL 041352Z 00000KT 10SM SCT180 BKN250 01/M07 A3045 RMK AO2 SLP321 T00111067=
200903041252 METAR KATL 041252Z 00000KT 10SM BKN180 BKN250 01/M07 A3043 RMK AO2 SLP312 T00061067=
200903041152 METAR KATL 041152Z 12004KT 10SM SCT180 BKN250 00/M07 A3041 RMK AO2 SLP305 T00001072 10011 21011 52009=
200903041052 METAR KATL 041052Z 00000KT 10SM SCT180 M01/M07 A3040 RMK AO2 SLP302 T10061067=
200903040952 METAR KATL 040952Z 09004KT 10SM SCT180 M01/M07 A3039 RMK AO2 SLP298 T10061067=
200903040852 METAR KATL 040852Z 08004KT 10SM CLR M01/M07 A3038 RMK AO2 SLP295 T10061072 53003=
200903040752 METAR KATL 040752Z 09004KT 10SM SCT180 00/M07 A3037 RMK AO2 SLP293 T00001067=
200903040652 METAR KATL 040652Z 00000KT 10SM FEW180 01/M07 A3037 RMK AO2 SLP294 T00061067=
200903040552 METAR KATL 040552Z 00000KT 10SM FEW250 01/M06 A3037 RMK AO2 SLP293 T00111061 10050 20011 50003=
200903040452 METAR KATL 040452Z 00000KT 10SM SCT200 BKN250 02/M07 A3038 RMK AO2 SLP294 T00221072 400781061=
200903040352 METAR KATL 040352Z 00000KT 10SM SCT150 BKN250 03/M07 A3037 RMK AO2 SLP294 T00281067=
200903040252 METAR KATL 040252Z 12004KT 10SM SCT180 BKN250 03/M10 A3036 RMK AO2 SLP291 T00281100 53009=
200903040152 METAR KATL 040152Z 36006KT 10SM BKN250 04/M12 A3035 RMK AO2 SLP286 T00441122=
200903040052 METAR KATL 040052Z 33005KT 10SM BKN250 05/M12 A3035 RMK AO2 SLP286 T00501117=
200903032352 METAR KATL 032352Z 31004KT 10SM FEW200 BKN250 05/M11 A3034 RMK AO2 SLP283 T00501111 10078 20028 53001=
200903032252 METAR KATL 032252Z 31005KT 10SM BKN250 06/M10 A3033 RMK AO2 SLP281 T00611100=
200903032152 METAR KATL 032152Z 00000KT 10SM SCT300 07/M11 A3032 RMK AO2 SLP276 T00721111=
200903032052 METAR KATL 032052Z 00000KT 10SM BKN300 07/M09 A3033 RMK AO2 SLP280 T00671094 56014=
200903031952 METAR KATL 031952Z 19003KT 10SM BKN300 06/M09 A3033 RMK AO2 SLP282 T00561094=
200903031852 METAR KATL 031852Z 00000KT 10SM FEW300 04/M10 A3035 RMK AO2 SLP287 T00441100=
200903031752 METAR KATL 031752Z 00000KT 10SM SCT300 03/M10 A3037 RMK AO2 SLP295 T00281100 10028 21061 58000=
200903031652 METAR KATL 031652Z 00000KT 10SM BKN300 02/M11 A3038 RMK AO2 SLP297 T00171106=
200903031552 METAR KATL 031552Z 14003KT 10SM SCT300 00/M11 A3038 RMK AO2 SLP297 T00001106=
200903031452 METAR KATL 031452Z VRB04KT 10SM FEW300 M01/M11 A3037 RMK AO2 SLP296 T10111111 51016=
200903031352 METAR KATL 031352Z 33007KT 10SM FEW300 M03/M12 A3036 RMK AO2 SLP293 T10331122=
200903031252 METAR KATL 031252Z 33007KT 10SM CLR M05/M12 A3035 RMK AO2 SLP288 T10501122=
200903031152 METAR KATL 031152Z 34006KT 10SM CLR M06/M12 A3033 RMK AO2 SLP280 T10561122 11022 21061 53024=
200903031052 METAR KATL 031052Z 34005KT 10SM CLR M06/M13 A3030 RMK AO2 SLP271 T10561128=
200903030952 METAR KATL 030952Z 34007KT 10SM CLR M04/M13 A3027 RMK AO2 SLP261 T10441128=
200903030852 METAR KATL 030852Z 34010KT 10SM CLR M04/M13 A3025 RMK AO2 SLP255 T10391133 51006=
200903030752 METAR KATL 030752Z 34007KT 10SM CLR M03/M13 A3025 RMK AO2 SLP252 T10331128=
200903030652 METAR KATL 030652Z 33011KT 10SM CLR M03/M13 A3024 RMK AO2 SLP251 T10281128=
200903030552 METAR KATL 030552Z 34008KT 10SM CLR M02/M13 A3023 RMK AO2 SLP248 T10221128 10028 21022 53010=
200903030452 METAR KATL 030452Z 32014KT 10SM CLR M01/M12 A3022 RMK AO2 SLP242 T10111122 400561028=
200903030352 METAR KATL 030352Z 33013G18KT 10SM FEW250 M01/M12 A3022 RMK AO2 SLP243 T10061117=
200903030252 METAR KATL 030252Z 34015G21KT 10SM CLR 01/M12 A3020 RMK AO2 SLP238 T00061117 51014=
200903030152 METAR KATL 030152Z 34009KT 10SM CLR 01/M11 A3019 RMK AO2 SLP233 T00111111=
200903030052 METAR KATL 030052Z 34009KT 10SM CLR 02/M11 A3018 RMK AO2 SLP230 T00171106=
200903022352 METAR KATL 022352Z 33009G19KT 10SM CLR 03/M11 A3016 RMK AO2 SLP222 T00281111 10056 20028 53014=
200903022252 METAR KATL 022252Z 34017G22KT 10SM CLR 04/M12 A3014 RMK AO2 SLP214 T00391122=
200903022152 METAR KATL 022152Z 33017G22KT 10SM CLR 05/M12 A3013 RMK AO2 SLP211 T00501117=
200903022052 METAR KATL 022052Z 31017G23KT 10SM CLR 05/M09 A3012 RMK AO2 SLP206 T00501094 55003=
200903021952 METAR KATL 021952Z 33015G23KT 10SM CLR 05/M08 A3011 RMK AO2 SLP204 T00501083=
200903021852 METAR KATL 021852Z 32016G22KT 10SM CLR 04/M07 A3012 RMK AO2 SLP206 T00391072=
200903021752 METAR KATL 021752Z 34016KT 10SM CLR 03/M07 A3013 RMK AO2 SLP211 T00281072 10028 21028 58001=
200903021652 METAR KATL 021652Z 32012G21KT 10SM FEW150 01/M07 A3013 RMK AO2 SLP213 T00111072=
200903021552 METAR KATL 021552Z 32015KT 10SM SCT150 SCT250 00/M08 A3014 RMK AO2 SLP214 T00001078=
200903021452 METAR KATL 021452Z 34016G23KT 10SM BKN150 M02/M08 A3013 RMK AO2 PK WND 33033/1404 SLP213 T10171083 51030=
200903021352 METAR KATL 021352Z 33018G28KT 10SM FEW150 SCT250 M02/M09 A3011 RMK AO2 PK WND 32029/1332 SLP204 T10221089=
200903021252 METAR KATL 021252Z 32021G30KT 10SM FEW250 M03/M09 A3008 RMK AO2 PK WND 33030/1250 SLP194 T10281089=
200903021152 METAR KATL 021152Z 33021G28KT 10SM FEW250 M03/M09 A3004 RMK AO2 PK WND 33030/1122 SLP182 70084 T10281089 10006 21028 53006=
200903021052 METAR KATL 021052Z 32022G34KT 10SM CLR M02/M08 A3003 RMK AO2 PK WND 33034/1044 SLP178 T10221083=
200903020952 METAR KATL 020952Z 32019G27KT 10SM CLR M02/M08 A3002 RMK AO2 PK WND 32027/0950 SLP176 T10171078=
200903020852 METAR KATL 020852Z 34012G24KT 10SM CLR M01/M07 A3002 RMK AO2 SLP175 T10111072 58001=
200903020752 METAR KATL 020752Z 33015G25KT 10SM CLR M01/M07 A3003 RMK AO2 PK WND 33028/0729 SLP180 T10061067=
200903020652 METAR KATL 020652Z 33018G26KT 10SM CLR 00/M07 A3004 RMK AO2 PK WND 33032/0623 SLP181 T00001067=
200903020552 METAR KATL 020552Z 33018G31KT 10SM CLR 01/M07 A3002 RMK AO2 PK WND 32033/0517 SLP176 T00061067 10039 20006 53014=
200903020452 METAR KATL 020452Z 33018G31KT 10SM CLR 01/M07 A3000 RMK AO2 PK WND 33036/0412 SLP167 T00111067 401110006=
200903020352 METAR KATL 020352Z 33021G30KT 10SM FEW250 02/M06 A2998 RMK AO2 PK WND 34031/0256 SLP161 T00171061=
200903020252 METAR KATL 020252Z 33020G27KT 10SM FEW250 02/M06 A2998 RMK AO2 PK WND 32030/0213 SLP159 T00221056 51042=
200903020152 METAR KATL 020152Z 33011G27KT 10SM SCT100 BKN250 03/M05 A2995=
200903020052 METAR KATL 020052Z 34015G24KT 10SM BKN100 04/M04 A2990 RMK AO2 PK WND 33034/0031 PRESRR SLP132 T00391039=
200903012352 METAR KATL 012352Z 33018G34KT 10SM FEW055 BKN095 03/M02 A2985 RMK AO2 PK WND 33034/2349 SLP114 931017 4/002 60024 T00331022 10033 20006 53037=
200903012252 METAR KATL 012252Z COR 33021G29KT 10SM SCT008 SCT019 BKN030 02/00 A2981 RMK AO2 PK WND 32030/2214 SLP099 SNE47 P0001 T00220000=
200903012238 SPECI KATL 012238Z 32020G27KT 5SM -SN BR FEW008 SCT019 OVC027 02/00 A2980 RMK AO2 PK WND 32030/2214 P0001=
200903012238 SPECI KATL 012238Z 32020G27KT 5SM -SN BR FEW008 SCT019 OVC027 02/00 A2980 RMK AO2 PK WND 32030/2214 P0001=
200903012212 SPECI KATL 012212Z 33021G26KT 1 1/2SM -SN BR BKN008 OVC014 02/00 A2977 RMK AO2 PK WND 33029/2157 SFC VIS 2 P0001=
200903012212 SPECI KATL 012212Z 33021G26KT 1 1/2SM -SN BR BKN008 OVC014 02/00 A2977 RMK AO2 PK WND 33029/2157 SFC VIS 2 P0001=
200903012152 METAR KATL 012152Z 32017G27KT 1 1/2SM -SN BR BKN010 OVC014 02/00 A2976 RMK AO2 PK WND 33033/2132 SFC VIS 1 3/4 SLP085 SNINCR 1/2 P0006 T00170000=
200903012133 SPECI KATL 012133Z 33024G33KT 1 1/2SM -SN BR BKN010 OVC017 02/01 A2976 RMK AO2 PK WND 33033/2132 P0003=
200903012133 SPECI KATL 012133Z 33024G33KT 1 1/2SM -SN BR BKN010 OVC017 02/01 A2976 RMK AO2 PK WND 33033/2132 P0003=
200903012121 SPECI KATL 012121Z 32017G27KT 1SM R09R/6000VP6000FT -SN BR BKN006 OVC013 01/01 A2976 RMK AO2 PK WND 33027/2118 P0002=
200903012121 SPECI KATL 012121Z 32017G27KT 1SM R09R/6000VP6000FT -SN BR BKN006 OVC013 01/01 A2976 RMK AO2 PK WND 33027/2118 P0002=
200903012052 METAR KATL 012052Z 31015G23KT 1/2SM R09R/5000VP6000FT SN FG BKN006 OVC010 01/00 A2974 RMK AO2 SLP077 P0005 60017 T00110000 53011=
200903011952 METAR KATL 011952Z 31018G24KT 1/2SM R09R/3000V6000FT SN FG OVC006 01/00 A2971 RMK AO2 SLP066 P0003 T00060000 $=
200903011939 SPECI KATL 011939Z 31015KT 1SM R09R/P6000FT -SN BR BKN004 OVC009 01/00 A2971 RMK AO2 P0002 $=
200903011939 SPECI KATL 011939Z 31015KT 1SM R09R/P6000FT -SN BR BKN004 OVC009 01/00 A2971 RMK AO2 P0002 $=
200903011928 SPECI KATL 011928Z 31014KT 2 1/2SM -SN BR BKN004 OVC010 01/00 A2972 RMK AO2 P0002=
200903011928 SPECI KATL 011928Z 31014KT 2 1/2SM -SN BR BKN004 OVC010 01/00 A2972 RMK AO2 P0002=
200903011920 SPECI KATL 011920Z 31011KT 1SM R09R/4500VP6000FT -SN BR OVC004 01/00 A2971 RMK AO2 SFC VIS 1 1/4 CB DSNT SW P0002=
200903011920 SPECI KATL 011920Z 31011KT 1SM R09R/4500VP6000FT -SN BR OVC004 01/00 A2971 RMK AO2 SFC VIS 1 1/4 CB DSNT SW P0002=
200903011852 METAR KATL 011852Z 31013KT 1/4SM R09R/3000V4000FT +SN FG OVC002CB 01/00 A2971 RMK AO2 TSE51 SLP065 CB OHD-ALQDS MOV SW P0009 T00060000=
200903011752 METAR KATL 011752Z 32015KT 1/4SM R09R/3500V4500FT +TSSN FG OVC004CB 01/00 A2972 RMK AO2 TSB37 SLP067 OCNL LTGIC OHD TS OHD-ALQDS MOV SW 4/001 P0013 60060 T00060000 10067 20006 51013=
200903011738 SPECI KATL 011738Z 32013KT 1/4SM R09R/3000V4000FT +TSSN FG OVC004CB 01/00 A2972 RMK AO2 TSB37 OCNL LTGIC OHD TS OHD-ALQDS MOV SW P0011=
200903011738 SPECI KATL 011738Z 32013KT 1/4SM R09R/3000V4000FT +TSSN FG OVC004CB 01/00 A2972 RMK AO2 TSB37 OCNL LTGIC OHD TS OHD-ALQDS MOV SW P0011=
200903011659 SPECI KATL 011659Z 32012KT 1/4SM R09R/3500V4500FT +SN FG OVC004CB 01/00 A2972 RMK AO2 SFC VIS 1/2 CB OHD-S-W MOV SW P0002=
200903011659 SPECI KATL 011659Z 32012KT 1/4SM R09R/3500V4500FT +SN FG OVC004CB 01/00 A2972 RMK AO2 SFC VIS 1/2 CB OHD-S-W MOV SW P0002=
200903011652 METAR KATL 011652Z 32010KT 1/2SM R09R/3500V5500FT SN FG OVC005CB 01/00 A2972 RMK AO2 RAE19 SLP068 CB OHD-S-W MOV SW P0022 T00060000=
200903011620 SPECI KATL 011620Z 32013KT 3/4SM R09R/5000VP6000FT -SN BR OVC007CB 01/01 A2971 RMK AO2 SFC VIS 1 RAE19 CB OHD-ALQDS MOV SW P0011=
200903011620 SPECI KATL 011620Z 32013KT 3/4SM R09R/5000VP6000FT -SN BR OVC007CB 01/01 A2971 RMK AO2 SFC VIS 1 RAE19 CB OHD-ALQDS MOV SW P0011=
200903011552 METAR KATL 011552Z COR 32014KT 2SM -RASN BR SCT009 OVC013CB 03/02 A2969 RMK AO2 PLB06E31SNB50 SLP058 CB OHD-S MOV SW P0013 T00280017=
200903011533 SPECI KATL 011533Z 33012KT 2SM RA BR FEW005 OVC011 03/03 A2969 RMK AO2 PLB06E31 CB DSNT S-SW-NW P0010=
200903011533 SPECI KATL 011533Z 33012KT 2SM RA BR FEW005 OVC011 03/03 A2969 RMK AO2 PLB06E31 CB DSNT S-SW-NW P0010=
200903011518 SPECI KATL 011518Z 32013G18KT 2SM R09R/4500VP6000FT PLRA BR FEW005 BKN008CB OVC022 04/03 A2969 RMK AO2 PLB06 CB W-NW MOV W P0008=
200903011518 SPECI KATL 011518Z 32013G18KT 2SM R09R/4500VP6000FT PLRA BR FEW005 BKN008CB OVC022 04/03 A2969 RMK AO2 PLB06 CB W-NW MOV W P0008=
200903011507 SPECI KATL 011507Z 34007KT 2SM PLRA BR FEW006 SCT012CB OVC020 05/04 A2968 RMK AO2 PLB06 LTG DSNT NW CB OHD-ALQDS MOV W P0003=
200903011507 SPECI KATL 011507Z 34007KT 2SM PLRA BR FEW006 SCT012CB OVC020 05/04 A2968 RMK AO2 PLB06 LTG DSNT NW CB OHD-ALQDS MOV W P0003=
200903011452 METAR KATL 011452Z COR 36010KT 2SM -RA BR FEW006 BKN016CB OVC029 05/04 A2968 RMK AO2 SLP052 CB OHD-ALQDS MOV W P0010 60012 T00500039 58009=
200903011437 SPECI KATL 011437Z 03010G18KT 2SM RA BR SCT006 BKN016CB OVC027 05/04 A2968 RMK AO2 CB OHD-ALQDS MOV W P0009=
200903011437 SPECI KATL 011437Z 03010G18KT 2SM RA BR SCT006 BKN016CB OVC027 05/04 A2968 RMK AO2 CB OHD-ALQDS MOV W P0009=
200903011430 SPECI KATL 011430Z 03015KT 1SM R09R/5000VP6000FT RA BR SCT006 BKN011CB OVC021 06/04 A2969 RMK AO2 CB OHD-ALQDS MOV W P0005=
200903011430 SPECI KATL 011430Z 03015KT 1SM R09R/5000VP6000FT RA BR SCT006 BKN011CB OVC021 06/04 A2969 RMK AO2 CB OHD-ALQDS MOV W P0005=
200903011352 METAR KATL 011352Z 05008KT 1 1/4SM R09R/4500VP6000FT -RA BR BKN006 OVC012 06/04 A2970 RMK AO2 DZE16RAB16 SLP058 P0001 T00560044=
200903011328 SPECI KATL 011328Z 06008KT 1 3/4SM -RA BR BKN006 OVC013 05/04 A2969 RMK AO2 DZE16RAB16 P0000=
200903011328 SPECI KATL 011328Z 06008KT 1 3/4SM -RA BR BKN006 OVC013 05/04 A2969 RMK AO2 DZE16RAB16 P0000=
200903011305 SPECI KATL 011305Z 06010KT 2SM -DZ BR BKN006 OVC010 06/04 A2970 RMK AO2 P0000=
200903011305 SPECI KATL 011305Z 06010KT 2SM -DZ BR BKN006 OVC010 06/04 A2970 RMK AO2 P0000=
200903011252 METAR KATL 011252Z 05010G19KT 3SM -DZ BR BKN005 OVC010 06/04 A2970 RMK AO2 RAB01E15 SLP058 P0001 T00560044=
200903011215 SPECI KATL 011215Z 04012KT 3SM -DZ BR OVC005 06/06 A2969 RMK AO2 RAB01E15 P0001=
200903011215 SPECI KATL 011215Z 04012KT 3SM -DZ BR OVC005 06/06 A2969 RMK AO2 RAB01E15 P0001=
