##########################################################
# Query made at 04/19/2024 23:14:22 UTC
# Time interval: from 12/01/2009 12:00  to 12/31/2009 12:59  UTC
##########################################################

##########################################################
# KATL, Atlanta, Hartsfield - Jackson Atlanta International Airport (United States)
# WMO index: 72219. WIGOS ID: 0-20000-0-72219
# Latitude 33-38-59N. Longitude 084-25-00W. Altitude 312 m.
##########################################################

200912311252 METAR KATL 311252Z 11004KT 1/2SM BR OVC002 03/03 A3009 RMK AO2 SFC VIS 4 RAE1158B31E44 SLP197 P0000 T00280028=
200912311152 METAR KATL 311152Z 09008KT 1/2SM -RA BR OVC004 03/02 A3009 RMK AO2 SFC VIS 4 RAB38 SLP197 P0000 60002 70029 T00280022 10028 20028 55011=
200912311125 SPECI KATL 311125Z 10006KT 1/2SM BR OVC004 03/02 A3009 RMK AO2 SFC VIS 5=
200912311125 SPECI KATL 311125Z 10006KT 1/2SM BR OVC004 03/02 A3009 RMK AO2 SFC VIS 5=
200912311052 METAR KATL 311052Z 09006KT 5SM BR OVC004 03/02 A3009 RMK AO2 RAB0958E31 SLP195 P0000 T00280022=
200912311038 SPECI KATL 311038Z 11006KT 6SM BR OVC004 03/02 A3010 RMK AO2 RAB0958E31 P0000=
200912311038 SPECI KATL 311038Z 11006KT 6SM BR OVC004 03/02 A3010 RMK AO2 RAB0958E31 P0000=
200912310952 METAR KATL 310952Z 08007KT 6SM BR SCT004 BKN010 OVC044 03/02 A3011 RMK AO2 RAE37PLB0857E05 SLP201 P0001 T00280022=
200912310914 SPECI KATL 310914Z 09005KT 6SM -RA BR FEW005 OVC010 03/02 A3012 RMK AO2 PLB0857E05 P0000=
200912310914 SPECI KATL 310914Z 09005KT 6SM -RA BR FEW005 OVC010 03/02 A3012 RMK AO2 PLB0857E05 P0000=
200912310852 METAR KATL 310852Z COR 09006KT 6SM RA BR BKN012 BKN019 OVC050 03/02 A3013 RMK AO2 RAB0753PLB51E52 SLP207 P0001 60001 T00280022 56013=
200912310752 METAR KATL 310752Z 12005KT 7SM SCT035 OVC040 03/02 A3014 RMK AO2 SLP212 T00280017=
200912310652 METAR KATL 310652Z 12006KT 7SM FEW046 OVC060 03/01 A3014 RMK AO2 SLP213 T00280011=
200912310552 METAR KATL 310552Z 08007KT 10SM BKN050 OVC070 03/01 A3017 RMK AO2 RAE10 SLP221 P0000 60023 T00280011 10044 20028 56030=
200912310452 METAR KATL 310452Z 08008KT 10SM -RA BKN065 OVC080 03/02 A3018 RMK AO2 SLP227 RAE08B26 P0000 T00280017 400780000=
200912310352 METAR KATL 310352Z 09008KT 10SM -RA FEW055 OVC075 03/01 A3022 RMK AO2 PLE09 SLP242 P0007 T00280011=
200912310310 SPECI KATL 310310Z 10008KT 7SM -RA FEW030 SCT045 OVC060 03/01 A3023 RMK AO2 PLE09 PRESFR P0003=
200912310310 SPECI KATL 310310Z 10008KT 7SM -RA FEW030 SCT045 OVC060 03/01 A3023 RMK AO2 PLE09 PRESFR P0003=
200912310252 METAR KATL 310252Z COR 11005KT 7SM -RAPL FEW045 OVC060 03/01 A3026 RMK AO2 PLB51 SLP253 P0006 60016 T00280006 53005=
200912310152 METAR KATL 310152Z 11006KT 9SM -RA SCT045 OVC065 03/01 A3024 RMK AO2 SLP247 P0005 T00330006=
200912310052 METAR KATL 310052Z 09009KT 10SM -RA FEW055 OVC070 03/01 A3024 RMK AO2 PLE49 SLP248 P0005 T00330006=
200912310049 SPECI KATL 310049Z 09008KT 9SM -RA FEW055 OVC070 03/01 A3024 RMK AO2 PLE49 P0005=
200912310049 SPECI KATL 310049Z 09008KT 9SM -RA FEW055 OVC070 03/01 A3024 RMK AO2 PLE49 P0005=
200912310013 SPECI KATL 310013Z 11003KT 9SM -PLRA FEW025 BKN055 OVC075 04/01 A3025 RMK AO2 P0002=
200912310013 SPECI KATL 310013Z 11003KT 9SM -PLRA FEW025 BKN055 OVC075 04/01 A3025 RMK AO2 P0002=
200912302352 METAR KATL 302352Z COR 11005KT 8SM -RAPL SCT035 BKN050 OVC070 04/01 A3024 RMK AO2 PLB52 SLP248 P0004 60004 T00440006 10078 20044 56001=
200912302252 METAR KATL 302252Z 12006KT 10SM -RA OVC065 06/M02 A3025 RMK AO2 SLP249 P0000 T00611022=
200912302152 METAR KATL 302152Z 09009KT 10SM -RA FEW028 BKN065 OVC100 07/M04 A3022 RMK AO2 RAE00B31E32B51PLE04 SLP241 P0000 T00671039=
200912302105 SPECI KATL 302105Z 10008KT 10SM FEW027 SCT080 OVC150 07/M03 A3025 RMK AO2 RAE00PLE04 P0000=
200912302105 SPECI KATL 302105Z 10008KT 10SM FEW027 SCT080 OVC150 07/M03 A3025 RMK AO2 RAE00PLE04 P0000=
200912302052 METAR KATL 302052Z 10006KT 10SM -PLRA FEW027 BKN080 OVC150 07/M02 A3025 RMK AO2 RAB28PLB42 SLP248 P0000 60000 T00721022 55007=
200912302042 SPECI KATL 302042Z 12005KT 10SM -PLRA FEW027 SCT080 OVC150 07/M03 A3026 RMK AO2 RAB28PLB42 PRESFR P0000=
200912302042 SPECI KATL 302042Z 12005KT 10SM -PLRA FEW027 SCT080 OVC150 07/M03 A3026 RMK AO2 RAB28PLB42 PRESFR P0000=
200912301952 METAR KATL 301952Z 12007KT 10SM FEW027 BKN080 OVC150 08/M04 A3024 RMK AO2 SLP247 T00781039=
200912301852 METAR KATL 301852Z 14006KT 10SM FEW027 BKN080 BKN150 07/M04 A3026 RMK AO2 SLP255 T00721044=
200912301847 SPECI KATL 301847Z 14007KT 10SM FEW027 BKN080 BKN150 07/M04 A3027 RMK AO2=
200912301847 SPECI KATL 301847Z 14007KT 10SM FEW027 BKN080 BKN150 07/M04 A3027 RMK AO2=
200912301817 SPECI KATL 301817Z 12005KT 10SM BKN028 BKN100 BKN150 07/M05 A3030 RMK AO2=
200912301817 SPECI KATL 301817Z 12005KT 10SM BKN028 BKN100 BKN150 07/M05 A3030 RMK AO2=
200912301752 METAR KATL 301752Z 13008KT 10SM FEW028 SCT100 BKN150 BKN250 07/M06 A3031 RMK AO2 SLP269 T00721056 10078 20028 58031=
200912301720 SPECI KATL 301720Z 11008KT 10SM FEW028 SCT080 SCT250 07/M06 A3033 RMK AO2 PRESFR=
200912301720 SPECI KATL 301720Z 11008KT 10SM FEW028 SCT080 SCT250 07/M06 A3033 RMK AO2 PRESFR=
200912301652 METAR KATL 301652Z 14009KT 10SM BKN028 BKN080 BKN250 07/M06 A3037 RMK AO2 SLP291 T00671061=
200912301552 METAR KATL 301552Z 10007KT 10SM FEW080 SCT110 BKN150 BKN250 05/M06 A3040 RMK AO2 SLP302 T00501061=
200912301452 METAR KATL 301452Z 13005KT 10SM FEW085 SCT110 BKN150 04/M06 A3041 RMK AO2 SLP305 T00391061 53011=
200912301352 METAR KATL 301352Z 11008KT 10SM BKN090 BKN150 03/M06 A3037 RMK AO2 SLP293 T00281056=
200912301252 METAR KATL 301252Z 12009KT 10SM BKN095 BKN200 03/M06 A3039 RMK AO2 SLP298 T00281061=
200912301152 METAR KATL 301152Z 11008KT 10SM BKN100 OVC150 03/M06 A3038 RMK AO2 SLP293 T00281056 10028 20006 53015=
200912301052 METAR KATL 301052Z 09006KT 10SM OVC100 02/M05 A3036 RMK AO2 SLP287 T00221050=
200912300952 METAR KATL 300952Z 09006KT 10SM BKN120 BKN200 02/M05 A3034 RMK AO2 SLP279 T00221050=
200912300852 METAR KATL 300852Z 11007KT 10SM BKN150 OVC250 03/M06 A3033 RMK AO2 SLP277 T00281056 56000=
200912300752 METAR KATL 300752Z 14003KT 10SM SCT150 OVC250 03/M06 A3034 RMK AO2 SLP279 T00281056=
200912300652 METAR KATL 300652Z 13005KT 10SM OVC250 02/M05 A3032 RMK AO2 SLP274 T00221050=
200912300552 METAR KATL 300552Z 12004KT 10SM OVC250 01/M05 A3033 RMK AO2 SLP279 T00111050 10056 20000 58002=
200912300452 METAR KATL 300452Z 08005KT 10SM FEW150 BKN250 01/M06 A3035 RMK AO2 SLP287 T00111061 400781022=
200912300352 METAR KATL 300352Z 07004KT 10SM SCT250 02/M07 A3036 RMK AO2 SLP290 T00221067=
200912300252 METAR KATL 300252Z 07005KT 10SM FEW250 02/M06 A3034 RMK AO2 SLP283 T00221061 51014=
200912300152 METAR KATL 300152Z 03008KT 10SM FEW250 04/M07 A3034 RMK AO2 SLP281 T00441067=
200912300052 METAR KATL 300052Z 34008KT 10SM FEW200 SCT250 04/M07 A3033 RMK AO2 SLP281 T00391067=
200912292352 METAR KATL 292352Z 35006KT 10SM FEW200 SCT250 06/M07 A3030 RMK AO2 SLP268 T00561072 10078 20050 53009=
200912292252 METAR KATL 292252Z 01006KT 10SM FEW200 SCT250 06/M08 A3029 RMK AO2 SLP264 T00611078=
200912292152 METAR KATL 292152Z 35005KT 10SM BKN250 08/M07 A3027 RMK AO2 SLP259 T00781072=
200912292052 METAR KATL 292052Z 36006KT 10SM BKN250 08/M07 A3027 RMK AO2 SLP258 T00781072 55006=
200912291952 METAR KATL 291952Z 32008KT 10SM BKN250 07/M06 A3026 RMK AO2 SLP255 T00721061=
200912291852 METAR KATL 291852Z 30005KT 10SM BKN250 07/M06 A3028 RMK AO2 SLP261 T00671061=
200912291752 METAR KATL 291752Z 33008KT 10SM BKN250 06/M06 A3029 RMK AO2 SLP265 T00561061 10056 21022 58013=
200912291652 METAR KATL 291652Z 31011KT 10SM BKN250 04/M06 A3031 RMK AO2 SLP274 T00441056=
200912291552 METAR KATL 291552Z 32008KT 10SM FEW250 03/M06 A3033 RMK AO2 SLP279 T00281056=
200912291452 METAR KATL 291452Z 32012KT 10SM FEW250 01/M06 A3033 RMK AO2 SLP280 T00061061 53022=
200912291352 METAR KATL 291352Z 32011KT 10SM CLR M01/M06 A3030 RMK AO2 SLP270 T10061061=
200912291252 METAR KATL 291252Z 31010KT 10SM CLR M02/M06 A3028 RMK AO2 SLP264 T10171061=
200912291152 METAR KATL 291152Z 32012KT 10SM CLR M02/M06 A3026 RMK AO2 SLP257 T10171061 10006 21017 53013=
200912291052 METAR KATL 291052Z 32014KT 10SM CLR M01/M06 A3024 RMK AO2 SLP250 T10111061=
200912290952 METAR KATL 290952Z 33013KT 10SM FEW025 M01/M06 A3021 RMK AO2 SLP239 T10061056=
200912290912 SPECI KATL 290912Z 33013G17KT 10SM SCT025 M01/M06 A3022 RMK AO2=
200912290912 SPECI KATL 290912Z 33013G17KT 10SM SCT025 M01/M06 A3022 RMK AO2=
200912290852 METAR KATL 290852Z 33012KT 10SM BKN025 00/M05 A3022 RMK AO2 SLP242 T00001050 53007=
200912290804 SPECI KATL 290804Z 33012G18KT 10SM BKN025 00/M06 A3021 RMK AO2=
200912290804 SPECI KATL 290804Z 33012G18KT 10SM BKN025 00/M06 A3021 RMK AO2=
200912290752 METAR KATL 290752Z 32010G21KT 10SM FEW025 00/M06 A3021 RMK AO2 SLP237 T00001056=
200912290652 METAR KATL 290652Z 33015G21KT 10SM CLR 00/M06 A3018 RMK AO2 SLP228 T00001056=
200912290552 METAR KATL 290552Z 30010KT 10SM CLR 00/M06 A3020 RMK AO2 SLP235 T00001061 10022 20000 58001=
200912290452 METAR KATL 290452Z 29011KT 10SM CLR 00/M06 A3022 RMK AO2 SLP241 T00001061 400560000=
200912290352 METAR KATL 290352Z 29009KT 10SM CLR 00/M07 A3022 RMK AO2 SLP241 T00001067=
200912290252 METAR KATL 290252Z 30005KT 10SM CLR 00/M07 A3020 RMK AO2 SLP237 T00001072 51016=
200912290152 METAR KATL 290152Z 29006KT 10SM CLR 01/M07 A3019 RMK AO2 SLP233 T00061072=
200912290052 METAR KATL 290052Z 28009KT 10SM CLR 02/M07 A3019 RMK AO2 SLP230 T00171072=
200912282352 METAR KATL 282352Z 30010KT 10SM CLR 02/M07 A3016 RMK AO2 SLP221 T00221072 10056 20022 53010=
200912282252 METAR KATL 282252Z 29008G17KT 10SM CLR 03/M07 A3015 RMK AO2 SLP217 T00281072=
200912282152 METAR KATL 282152Z 32013KT 10SM CLR 04/M07 A3013 RMK AO2 SLP211 T00391072=
200912282052 METAR KATL 282052Z 31015G20KT 10SM CLR 06/M08 A3012 RMK AO2 SLP208 T00561078 55004=
200912281952 METAR KATL 281952Z 32014KT 10SM CLR 05/M09 A3011 RMK AO2 SLP204 T00501094=
200912281852 METAR KATL 281852Z 31017G24KT 10SM CLR 04/M09 A3012 RMK AO2 SLP206 T00391089=
200912281752 METAR KATL 281752Z 32013G22KT 10SM CLR 04/M08 A3014 RMK AO2 SLP212 T00391078 10039 20000 50004=
200912281652 METAR KATL 281652Z 31013G22KT 10SM CLR 03/M08 A3015 RMK AO2 SLP217 T00331078=
200912281552 METAR KATL 281552Z 32014G24KT 10SM FEW040 02/M07 A3015 RMK AO2 PK WND 33027/1458 SLP215 T00221067=
200912281452 METAR KATL 281452Z 32022G28KT 10SM FEW035 02/M07 A3012 RMK AO2 PK WND 32028/1451 SLP208 T00171067 53026=
200912281352 METAR KATL 281352Z 33019G25KT 10SM SCT032 01/M06 A3009 RMK AO2 PK WND 32028/1331 SLP196 T00111061=
200912281252 METAR KATL 281252Z 29010KT 10SM BKN032 BKN150 01/M04 A3006 RMK AO2 SLP186 T00061039=
200912281152 METAR KATL 281152Z 30014KT 10SM FEW150 00/M04 A3005 RMK AO2 SLP180 T00001039 10033 20000 53013=
200912281052 METAR KATL 281052Z 29010KT 10SM CLR 01/M03 A3002 RMK AO2 SLP169 T00061033=
200912280952 METAR KATL 280952Z 29009KT 10SM FEW150 01/M03 A3001 RMK AO2 SLP167 T00111033=
200912280852 METAR KATL 280852Z 29010KT 10SM FEW200 02/M03 A3001 RMK AO2 SLP166 T00171033 56005=
200912280752 METAR KATL 280752Z 27009KT 10SM CLR 02/M03 A3001 RMK AO2 SLP166 T00221033=
200912280652 METAR KATL 280652Z 27008KT 10SM CLR 03/M03 A3001 RMK AO2 SLP165 T00281028=
200912280552 METAR KATL 280552Z 28008KT 10SM CLR 03/M01 A3002 RMK AO2 SLP170 T00331011 10094 20028 58004=
200912280452 METAR KATL 280452Z 26005KT 10SM CLR 04/M01 A3003 RMK AO2 SLP174 T00441011 401171017=
200912280352 METAR KATL 280352Z 27007KT 10SM CLR 05/M01 A3004 RMK AO2 SLP178 T00501006=
200912280252 METAR KATL 280252Z 28010KT 10SM CLR 06/01 A3004 RMK AO2 SLP176 T00610006 53013=
200912280152 METAR KATL 280152Z 26011KT 10SM FEW047 08/02 A3002 RMK AO2 SLP172 T00780017=
200912280052 METAR KATL 280052Z 26008KT 10SM SCT047 BKN060 09/02 A3001 RMK AO2 SLP167 T00890022=
200912272352 METAR KATL 272352Z 24009KT 10SM BKN040 BKN060 09/02 A3000 RMK AO2 SLP163 T00940022 10117 20094 51003=
200912272252 METAR KATL 272252Z 25010G21KT 10SM BKN045 10/01 A2999 RMK AO2 SLP162 T01000006=
200912272152 METAR KATL 272152Z 24014G20KT 10SM BKN044 11/M01 A2999 RMK AO2 SLP160 T01061006=
200912272052 METAR KATL 272052Z 22009KT 10SM SCT055 BKN070 11/00 A2999 RMK AO2 SLP159 T01060000 56018=
200912271952 METAR KATL 271952Z 24013G19KT 10SM SCT048 BKN065 11/01 A3000 RMK AO2 SLP162 T01110006=
200912271852 METAR KATL 271852Z 24013KT 10SM BKN048 BKN150 12/M01 A3001 RMK AO2 SLP168 T01171006=
200912271752 METAR KATL 271752Z 25010KT 10SM FEW050 SCT150 SCT250 12/M03 A3004 RMK AO2 SLP177 T01171028 10117 21011 58024=
200912271652 METAR KATL 271652Z 21012KT 10SM SCT150 BKN250 10/M03 A3007 RMK AO2 SLP189 T01001033=
200912271552 METAR KATL 271552Z 22007KT 10SM FEW150 SCT250 08/M02 A3010 RMK AO2 SLP198 T00831022=
200912271452 METAR KATL 271452Z 22005KT 10SM FEW150 SCT250 05/M02 A3011 RMK AO2 SLP202 T00501022 53009=
200912271352 METAR KATL 271352Z 23003KT 10SM FEW200 01/M03 A3010 RMK AO2 SLP201 T00111028=
200912271252 METAR KATL 271252Z 00000KT 10SM CLR M01/M04 A3010 RMK AO2 SLP200 T10111044=
200912271152 METAR KATL 271152Z 19003KT 10SM CLR M01/M04 A3009 RMK AO2 SLP195 T10111039 10022 21017 55000=
200912271052 METAR KATL 271052Z 00000KT 10SM CLR M01/M04 A3008 RMK AO2 SLP194 T10061039=
200912270952 METAR KATL 270952Z 00000KT 10SM CLR 01/M04 A3008 RMK AO2 SLP194 T00061039=
200912270852 METAR KATL 270852Z 00000KT 10SM CLR 01/M04 A3008 RMK AO2 SLP193 T00061039 53002=
200912270752 METAR KATL 270752Z 26003KT 10SM CLR 02/M04 A3008 RMK AO2 SLP192 T00171044=
200912270652 METAR KATL 270652Z 27005KT 10SM CLR 02/M04 A3008 RMK AO2 SLP191 T00171039=
200912270552 METAR KATL 270552Z 22003KT 10SM CLR 02/M03 A3008 RMK AO2 SLP190 T00171033 10056 20017 56002=
200912270452 METAR KATL 270452Z 25004KT 10SM CLR 02/M03 A3008 RMK AO2 SLP194 T00221033 400891011=
200912270352 METAR KATL 270352Z 00000KT 10SM SCT180 BKN250 03/M03 A3007 RMK AO2 SLP190 T00331033=
200912270252 METAR KATL 270252Z 24003KT 10SM BKN180 OVC250 04/M04 A3008 RMK AO2 SLP194 T00391044 50001=
200912270152 METAR KATL 270152Z 00000KT 10SM CLR 04/M06 A3009 RMK AO2 SLP196 T00441056=
200912270052 METAR KATL 270052Z 22004KT 10SM SCT150 BKN200 04/M05 A3009 RMK AO2 SLP198 T00441050=
200912262352 METAR KATL 262352Z 00000KT 10SM SCT150 BKN200 05/M06 A3008 RMK AO2 SLP194 T00501061 10089 20050 53006=
200912262252 METAR KATL 262252Z 27007KT 10SM BKN150 BKN200 06/M06 A3007 RMK AO2 SLP191 T00561056=
200912262152 METAR KATL 262152Z 28007KT 10SM BKN150 BKN200 07/M06 A3007 RMK AO2 SLP188 T00721061=
200912262052 SPECI KATL 262052Z 26007KT 10SM BKN150 BKN200 BKN250 08/M08 A3006 RMK AO2 SLP186 T00781078 55004=
200912261952 METAR KATL 261952Z 29006KT 10SM BKN150 BKN250 08/M06 A3006 RMK AO2 SLP185 T00781061=
200912261852 SPECI KATL 261852Z VRB05KT 10SM BKN150 BKN250 07/M07 A3005 RMK AO2 SLP183 T00671067=
200912261752 METAR KATL 261752Z 29006KT 10SM BKN150 BKN250 07/M06 A3007 RMK AO2 SLP190 T00671056 10067 21011 58004=
200912261652 METAR KATL 261652Z 32008KT 10SM FEW045 BKN150 OVC250 05/M06 A3009 RMK AO2 SLP196 T00501056=
200912261552 METAR KATL 261552Z 34007KT 10SM SCT150 BKN200 BKN250 04/M04 A3008 RMK AO2 SLP195 T00391039=
200912261452 METAR KATL 261452Z 32005KT 10SM FEW150 BKN250 02/M03 A3008 RMK AO2 SLP195 T00171033 51010=
200912261352 METAR KATL 261352Z 31005KT 10SM BKN250 00/M03 A3008 RMK AO2 SLP194 T00001033=
200912261252 METAR KATL 261252Z 32005KT 10SM BKN250 M01/M04 A3007 RMK AO2 SLP189 T10111039=
200912261152 METAR KATL 261152Z 32007KT 10SM SCT250 M01/M03 A3005 RMK AO2 SLP185 T10061033 10006 21011 53012=
200912261052 METAR KATL 261052Z 32007KT 10SM CLR M01/M03 A3003 RMK AO2 SLP177 T10111033=
200912260952 METAR KATL 260952Z 32009KT 10SM FEW250 M01/M03 A3002 RMK AO2 SLP172 T10111033=
200912260852 METAR KATL 260852Z 31009KT 10SM SCT250 M01/M03 A3002 RMK AO2 SLP171 T10061028 53014=
200912260752 METAR KATL 260752Z 31008KT 10SM FEW250 M01/M03 A3000 RMK AO2 SLP164 T10061028=
200912260652 METAR KATL 260652Z 32010KT 10SM FEW250 00/M03 A2998 RMK AO2 SLP156 T00001028=
200912260552 METAR KATL 260552Z 32009KT 10SM FEW250 01/M02 A2998 RMK AO2 SLP155 T00061022 10056 20006 51004=
200912260452 METAR KATL 260452Z 32009KT 10SM CLR 01/M02 A2997 RMK AO2 SLP154 T00061022 401170006=
200912260352 METAR KATL 260352Z 30010KT 10SM CLR 02/M02 A2998 RMK AO2 SLP155 T00171017=
200912260252 METAR KATL 260252Z 30009KT 10SM FEW025 02/M01 A2996 RMK AO2 SLP150 T00221011 51017=
200912260152 METAR KATL 260152Z 29010KT 10SM FEW025 03/M01 A2995 RMK AO2 SLP147 T00331006=
200912260118 SPECI KATL 260118Z 29010KT 10SM SCT024 04/00 A2994 RMK AO2=
200912260118 SPECI KATL 260118Z 29010KT 10SM SCT024 04/00 A2994 RMK AO2=
200912260109 SPECI KATL 260109Z 29008KT 10SM BKN024 04/00 A2994 RMK AO2=
200912260109 SPECI KATL 260109Z 29008KT 10SM BKN024 04/00 A2994 RMK AO2=
200912260052 METAR KATL 260052Z 29009KT 10SM SCT022 05/01 A2993 RMK AO2 SLP141 T00500006=
200912252352 METAR KATL 252352Z 27009KT 10SM OVC022 06/02 A2991 RMK AO2 SLP131 T00610017 10117 20061 53025=
200912252252 METAR KATL 252252Z 27007G15KT 10SM OVC022 07/03 A2988 RMK AO2 SLP121 T00720033=
200912252152 METAR KATL 252152Z 25007KT 10SM BKN020 BKN028 08/04 A2985 RMK AO2 SLP110 T00830044=
200912252052 METAR KATL 252052Z 25013G19KT 10SM FEW020 BKN026 BKN030 09/04 A2983 RMK AO2 SLP103 T00940044 53012=
200912252026 SPECI KATL 252026Z 25012KT 10SM FEW020 BKN030 BKN250 10/06 A2982 RMK AO2=
200912252026 SPECI KATL 252026Z 25012KT 10SM FEW020 BKN030 BKN250 10/06 A2982 RMK AO2=
200912251952 METAR KATL 251952Z 24009KT 10SM BKN020 BKN030 BKN250 10/06 A2980 RMK AO2 SLP092 T01000061=
200912251859 SPECI KATL 251859Z 23012G18KT 10SM FEW020 BKN025 BKN250 12/06 A2978 RMK AO2=
200912251859 SPECI KATL 251859Z 23012G18KT 10SM FEW020 BKN025 BKN250 12/06 A2978 RMK AO2=
200912251852 METAR KATL 251852Z 25011KT 10SM FEW020 BKN030 BKN250 12/06 A2977 RMK AO2 SLP083 T01170061=
200912251755 SPECI KATL 251755Z 25010G17KT 10SM FEW022 BKN030 OVC040 11/07 A2980 RMK AO2=
200912251755 SPECI KATL 251755Z 25010G17KT 10SM FEW022 BKN030 OVC040 11/07 A2980 RMK AO2=
200912251752 METAR KATL 251752Z 24010G17KT 10SM BKN022 BKN030 OVC040 11/07 A2980 RMK AO2 SLP091 T01110067 10111 20083 50004=
200912251652 METAR KATL 251652Z 23010G18KT 10SM FEW015 BKN027 BKN040 11/07 A2980 RMK AO2 SLP092 T01110067=
200912251552 METAR KATL 251552Z 23009G16KT 10SM FEW010 BKN027 BKN040 11/07 A2980 RMK AO2 SLP092 T01060072=
200912251508 SPECI KATL 251508Z 23006KT 10SM FEW005 BKN020 BKN030 11/09 A2979 RMK AO2=
200912251508 SPECI KATL 251508Z 23006KT 10SM FEW005 BKN020 BKN030 11/09 A2979 RMK AO2=
200912251452 METAR KATL 251452Z 00000KT 10SM FEW005 SCT015 BKN030 11/09 A2978 RMK AO2 SLP087 T01060089 51018=
200912251352 METAR KATL 251352Z 14005KT 9SM FEW016 OVC028 09/08 A2977 RMK AO2 SLP081 BINOVC NE T00890083=
200912251252 METAR KATL 251252Z 09005KT 10SM FEW016 OVC022 08/08 A2975 RMK AO2 SLP077 T00830078=
200912251152 METAR KATL 251152Z 06004KT 9SM SCT003 OVC022 09/08 A2973 RMK AO2 RAB04E17 SLP069 P0000 60162 70225 T00890083 10094 20078 53004=
200912251148 SPECI KATL 251148Z 06004KT 3SM SCT003 OVC022 09/08 A2973 RMK AO2 SFC VIS 9 RAB04E17 P0000=
200912251148 SPECI KATL 251148Z 06004KT 3SM SCT003 OVC022 09/08 A2973 RMK AO2 SFC VIS 9 RAB04E17 P0000=
200912251052 METAR KATL 251052Z 10007KT 10SM BKN004 OVC015 08/08 A2971 RMK AO2 RAE48 SLP062 P0002 T00830078=
200912250955 SPECI KATL 250955Z 09012G22KT 3SM -RA BR BKN004 OVC015 08/07 A2969 RMK AO2 P0001=
200912250955 SPECI KATL 250955Z 09012G22KT 3SM -RA BR BKN004 OVC015 08/07 A2969 RMK AO2 P0001=
200912250952 METAR KATL 250952Z 09017G22KT 2 1/2SM +RA BR OVC004 08/07 A2969 RMK AO2 SLP057 P0048 T00780072=
200912250906 SPECI KATL 250906Z 08017KT 2 1/2SM +RA BR OVC004 08/08 A2971 RMK AO2 P0012=
200912250906 SPECI KATL 250906Z 08017KT 2 1/2SM +RA BR OVC004 08/08 A2971 RMK AO2 P0012=
200912250852 METAR KATL 250852Z 10012KT 5SM RA BR OVC004 09/08 A2972 RMK AO2 SLP064 P0032 60112 T00890078 56008=
200912250845 SPECI KATL 250845Z 09014G21KT 6SM -RA BR OVC004 09/08 A2971 RMK AO2 P0031=
200912250845 SPECI KATL 250845Z 09014G21KT 6SM -RA BR OVC004 09/08 A2971 RMK AO2 P0031=
200912250752 METAR KATL 250752Z 11018G24KT 3SM +RA BR OVC005 09/08 A2974 RMK AO2 SLP071 P0039 T00940083=
200912250739 SPECI KATL 250739Z 10016G22KT 3SM RA BR OVC005 09/08 A2973 RMK AO2 P0029=
200912250739 SPECI KATL 250739Z 10016G22KT 3SM RA BR OVC005 09/08 A2973 RMK AO2 P0029=
200912250713 SPECI KATL 250713Z 11017G22KT 2 1/2SM +RA BR OVC005 09/08 A2971 RMK AO2 P0019=
200912250713 SPECI KATL 250713Z 11017G22KT 2 1/2SM +RA BR OVC005 09/08 A2971 RMK AO2 P0019=
200912250712 SPECI KATL 250712Z 10016G22KT 2 1/2SM +RA BR OVC005 09/08 A2971 RMK AO2 P0018=
200912250712 SPECI KATL 250712Z 10016G22KT 2 1/2SM +RA BR OVC005 09/08 A2971 RMK AO2 P0018=
200912250652 METAR KATL 250652Z 10013G23KT 3SM +RA BR BKN006 OVC013 09/08 A2972 RMK AO2 SLP065 P0041 T00890083=
200912250552 METAR KATL 250552Z 10016G23KT 3SM +RA BR BKN008 OVC015 09/08 A2974 RMK AO2 SLP073 P0022 60056 T00890078 10089 20078 58030=
200912250452 METAR KATL 250452Z 10013G22KT 3SM RA BR BKN008 BKN015 OVC030 08/07 A2978 RMK AO2 PK WND 11027/0438 SLP085 P0020 T00780067 401000033=
200912250439 SPECI KATL 250439Z 10016G27KT 2 1/2SM +RA BR BKN008 OVC015 08/07 A2978 RMK AO2 PK WND 11027/0438 P0016=
200912250439 SPECI KATL 250439Z 10016G27KT 2 1/2SM +RA BR BKN008 OVC015 08/07 A2978 RMK AO2 PK WND 11027/0438 P0016=
200912250352 METAR KATL 250352Z 10013G21KT 3SM RA BR OVC013 08/07 A2981 RMK AO2 PK WND 10029/0313 SLP096 P0010 T00780067=
200912250315 SPECI KATL 250315Z 10016G29KT 10SM -RA OVC013 08/06 A2982 RMK AO2 PK WND 10029/0313 P0001=
200912250315 SPECI KATL 250315Z 10016G29KT 10SM -RA OVC013 08/06 A2982 RMK AO2 PK WND 10029/0313 P0001=
200912250252 METAR KATL 250252Z 09016G25KT 10SM -RA OVC015 08/06 A2983 RMK AO2 PK WND 11027/0226 SLP106 P0001 60004 T00780061 58037=
200912250152 METAR KATL 250152Z 10017G26KT 10SM -RA OVC018 08/06 A2988 RMK AO2 PK WND 10028/0130 RAE14B48 SLP122 P0000 T00780056=
200912250052 METAR KATL 250052Z 10017G24KT 8SM -RA FEW010 BKN018 OVC090 08/06 A2991 RMK AO2 PK WND 08026/0036 SLP134 P0003 T00780056=
200912242352 METAR KATL 242352Z 10015G20KT 7SM -RA BKN018 BKN025 OVC040 08/06 A2995 RMK AO2 RAB12 SLP145 P0005 60007 T00780056 10100 20078 58013=
200912242252 METAR KATL 242252Z 10011G18KT 10SM FEW010 BKN020 OVC035 08/05 A2998 RMK AO2 RAE48 SLP156 P0000 T00830050=
200912242152 METAR KATL 242152Z 09010KT 7SM -RA FEW010 BKN020 OVC040 08/05 A2998 RMK AO2 SLP156 P0002 T00830050=
200912242052 METAR KATL 242052Z 09018KT 10SM -RA FEW010 BKN020 OVC100 09/05 A2999 RMK AO2 RAE00B33 SLP158 P0000 60000 T00940050 58025=
200912241952 METAR KATL 241952Z 10011KT 10SM -RA FEW010 BKN020 OVC040 10/04 A3003 RMK AO2 RAB22 PRESRR SLP171 P0000 T01000044=
200912241852 METAR KATL 241852Z 10011KT 10SM BKN025 BKN045 OVC120 10/04 A3004 RMK AO2 SLP175 T01000044=
200912241752 METAR KATL 241752Z 10011G20KT 10SM BKN027 BKN045 OVC120 09/04 A3006 RMK AO2 SLP183 T00940044 10100 20039 58028=
200912241654 SPECI KATL 241654Z 10016G21KT 10SM BKN027 BKN045 BKN200 09/04 A3009 RMK AO2=
200912241654 SPECI KATL 241654Z 10016G21KT 10SM BKN027 BKN045 BKN200 09/04 A3009 RMK AO2=
200912241652 METAR KATL 241652Z 09012G21KT 10SM SCT025 BKN045 BKN200 09/04 A3009 RMK AO2 SLP193 T00940044=
200912241552 METAR KATL 241552Z 10015G21KT 10SM SCT012 BKN030 BKN040 08/03 A3013 RMK AO2 SLP208 T00780033=
200912241541 SPECI KATL 241541Z 10014G20KT 10SM SCT012 BKN043 BKN120 08/03 A3014 RMK AO2=
200912241541 SPECI KATL 241541Z 10014G20KT 10SM SCT012 BKN043 BKN120 08/03 A3014 RMK AO2=
200912241452 METAR KATL 241452Z 09013KT 10SM BKN010 BKN030 OVC120 06/02 A3015 RMK AO2 SLP214 T00610017 53007=
200912241354 SPECI KATL 241354Z 08014KT 10SM BKN012 BKN035 BKN120 05/01 A3013 RMK AO2=
200912241354 SPECI KATL 241354Z 08014KT 10SM BKN012 BKN035 BKN120 05/01 A3013 RMK AO2=
200912241352 METAR KATL 241352Z 08013KT 10SM BKN015 BKN033 BKN120 05/00 A3013 RMK AO2 SLP209 T00500000=
200912241349 SPECI KATL 241349Z 08011KT 10SM BKN015 BKN033 BKN120 05/00 A3013 RMK AO2=
200912241349 SPECI KATL 241349Z 08011KT 10SM BKN015 BKN033 BKN120 05/00 A3013 RMK AO2=
200912241252 METAR KATL 241252Z 10011KT 10SM SCT030 BKN120 BKN250 04/M01 A3012 RMK AO2 SLP206 T00391006=
200912241152 METAR KATL 241152Z 10013KT 10SM BKN035 OVC110 04/M01 A3013 RMK AO2 SLP206 T00441006 10061 20033 55003=
200912241052 METAR KATL 241052Z 09013KT 10SM SCT035 BKN110 BKN250 04/00 A3012 RMK AO2 SLP204 T00440000=
200912240952 METAR KATL 240952Z 10010KT 10SM FEW110 SCT250 04/01 A3013 RMK AO2 SLP206 T00440006=
200912240852 METAR KATL 240852Z 09010KT 10SM FEW110 SCT250 04/01 A3013 RMK AO2 SLP207 T00390006 53000=
200912240752 METAR KATL 240752Z 10008KT 10SM FEW110 04/01 A3013 RMK AO2 SLP207 T00390011=
200912240652 METAR KATL 240652Z 10008KT 10SM CLR 06/01 A3013 RMK AO2 SLP206 T00560011=
200912240552 METAR KATL 240552Z 10007KT 10SM FEW250 06/02 A3013 RMK AO2 SLP207 T00610017 10089 20061 56007=
200912240452 METAR KATL 240452Z 10009KT 10SM FEW250 07/02 A3014 RMK AO2 SLP208 T00670017 401280028=
200912240352 METAR KATL 240352Z 10007KT 10SM FEW100 SCT200 BKN250 07/02 A3015 RMK AO2 SLP211 T00720022=
200912240252 METAR KATL 240252Z 10009KT 10SM FEW050 SCT200 BKN250 07/03 A3015 RMK AO2 SLP216 T00720028 56008=
200912240152 METAR KATL 240152Z 09009KT 10SM SCT050 BKN200 OVC250 08/03 A3016 RMK AO2 SLP218 T00780033=
200912240052 METAR KATL 240052Z 08011KT 10SM FEW050 BKN200 OVC250 08/04 A3017 RMK AO2 SLP221 T00830039=
200912232352 METAR KATL 232352Z 09006KT 10SM BKN200 OVC250 09/04 A3018 RMK AO2 SLP224 T00890039 10128 20089 53009=
200912232252 METAR KATL 232252Z 10008KT 10SM FEW150 BKN200 OVC250 10/04 A3015 RMK AO2 SLP215 T01000044=
200912232152 METAR KATL 232152Z 12009KT 10SM FEW110 SCT180 BKN250 12/04 A3015 RMK AO2 SLP214 T01170039=
200912232052 METAR KATL 232052Z 12009KT 10SM FEW110 BKN180 OVC250 12/04 A3015 RMK AO2 SLP213 VIRGA ALQDS T01220039 56015=
200912231952 METAR KATL 231952Z 14008KT 10SM FEW110 SCT180 BKN250 12/04 A3015 RMK AO2 SLP213 T01220044=
200912231852 METAR KATL 231852Z 13007KT 10SM FEW110 BKN180 OVC250 12/04 A3016 RMK AO2 SLP217 VIRGA ALQDS BINOVC DSNT N T01170044=
200912231752 METAR KATL 231752Z 13006KT 10SM FEW110 SCT180 BKN250 11/04 A3019 RMK AO2 SLP228 T01110039 10117 20028 58015=
200912231652 METAR KATL 231652Z 13004KT 10SM FEW050 SCT180 BKN250 11/04 A3023 RMK AO2 SLP238 T01060039=
200912231552 METAR KATL 231552Z VRB05KT 10SM FEW050 SCT180 BKN250 09/03 A3023 RMK AO2 SLP241 T00890033=
200912231452 METAR KATL 231452Z 09006KT 9SM FEW180 SCT200 BKN250 06/02 A3024 RMK AO2 SLP244 T00610022 53009=
200912231352 METAR KATL 231352Z 06008KT 8SM FEW200 BKN250 05/02 A3022 RMK AO2 SLP238 T00500017=
200912231252 METAR KATL 231252Z 09006KT 7SM FEW200 BKN250 04/02 A3021 RMK AO2 SLP236 T00390017=
200912231152 METAR KATL 231152Z 07006KT 8SM BKN250 03/01 A3021 RMK AO2 SLP234 T00330011 10061 20028 53004=
200912231052 METAR KATL 231052Z 08007KT 8SM BKN250 04/02 A3018 RMK AO2 SLP224 T00390017=
200912230952 METAR KATL 230952Z 07007KT 9SM BKN250 04/02 A3018 RMK AO2 SLP223 T00440022=
200912230852 METAR KATL 230852Z 08006KT 9SM BKN250 04/02 A3020 RMK AO2 SLP228 T00390017 53003=
200912230752 METAR KATL 230752Z 07005KT 9SM BKN250 04/02 A3019 RMK AO2 SLP224 T00440022=
200912230652 METAR KATL 230652Z 09006KT 10SM BKN250 06/02 A3018 RMK AO2 SLP223 T00560022=
200912230552 METAR KATL 230552Z 08004KT 10SM BKN250 06/02 A3019 RMK AO2 SLP225 T00560022 10111 20056 58001=
200912230452 METAR KATL 230452Z 12003KT 10SM BKN250 07/03 A3020 RMK AO2 SLP228 T00720028 401500006=
200912230352 METAR KATL 230352Z 11004KT 10SM BKN250 07/03 A3019 RMK AO2 SLP227 T00720028=
200912230252 METAR KATL 230252Z 12003KT 10SM BKN250 08/03 A3019 RMK AO2 SLP228 T00780028 51009=
200912230152 METAR KATL 230152Z COR 11004KT 10SM SCT250 08/03 A3019 RMK AO2 SLP229 T00830028=
200912230052 METAR KATL 230052Z 10004KT 10SM BKN250 09/03 A3018 RMK AO2 SLP224 T00890028=
200912222352 METAR KATL 222352Z 13003KT 10SM BKN250 12/03 A3017 RMK AO2 SLP219 T01170028 10150 20111 53005=
200912222252 METAR KATL 222252Z 00000KT 10SM SCT250 12/02 A3016 RMK AO2 SLP217 T01220022=
200912222152 METAR KATL 222152Z 00000KT 10SM SCT250 14/02 A3015 RMK AO2 SLP213 T01440017=
200912222052 METAR KATL 222052Z 32005KT 10SM FEW055 SCT250 15/02 A3015 RMK AO2 SLP213 T01500022 56014=
200912221952 METAR KATL 221952Z 33006KT 10SM FEW055 SCT250 15/02 A3015 RMK AO2 SLP214 T01500017=
200912221852 METAR KATL 221852Z 00000KT 10SM FEW250 14/03 A3016 RMK AO2 SLP215 T01440028=
200912221752 METAR KATL 221752Z 33003KT 10SM FEW250 13/04 A3019 RMK AO2 SLP227 T01280039 10128 20006 58014=
200912221652 METAR KATL 221652Z 11003KT 10SM FEW250 11/03 A3023 RMK AO2 SLP240 T01110033=
200912221552 METAR KATL 221552Z 00000KT 9SM FEW250 09/03 A3024 RMK AO2 SLP245 T00940033=
200912221452 METAR KATL 221452Z 00000KT 10SM CLR 07/03 A3023 RMK AO2 SLP243 T00720033 51015=
200912221352 METAR KATL 221352Z 00000KT 6SM BR CLR 04/03 A3022 RMK AO2 SLP239 T00440028=
200912221252 METAR KATL 221252Z 00000KT 7SM FEW250 02/01 A3021 RMK AO2 SLP237 T00170006=
200912221152 METAR KATL 221152Z 00000KT 9SM CLR 03/01 A3019 RMK AO2 SLP228 T00280011 10056 20011 53006=
200912221052 METAR KATL 221052Z 00000KT 9SM CLR 02/01 A3018 RMK AO2 SLP223 T00220006=
200912220952 METAR KATL 220952Z 25003KT 9SM CLR 02/01 A3017 RMK AO2 SLP222 T00220006=
200912220852 METAR KATL 220852Z 00000KT 10SM CLR 03/01 A3017 RMK AO2 SLP221 T00280006 56002=
200912220752 METAR KATL 220752Z 00000KT 10SM CLR 03/01 A3017 RMK AO2 SLP221 T00280006=
200912220652 METAR KATL 220652Z 00000KT 10SM CLR 04/01 A3017 RMK AO2 SLP221 T00440011=
200912220552 METAR KATL 220552Z 27003KT 10SM CLR 05/01 A3018 RMK AO2 SLP223 T00500011 10083 20039 58001=
200912220452 METAR KATL 220452Z 31007KT 10SM CLR 04/01 A3019 RMK AO2 SLP227 T00440011 401221028=
200912220352 METAR KATL 220352Z 26004KT 10SM CLR 06/01 A3019 RMK AO2 SLP227 T00560011=
200912220252 METAR KATL 220252Z 00000KT 10SM CLR 06/01 A3018 RMK AO2 SLP226 T00560011 51005=
200912220152 METAR KATL 220152Z 00000KT 10SM CLR 06/01 A3017 RMK AO2 SLP225 T00610011=
200912220052 METAR KATL 220052Z 28005KT 10SM CLR 08/01 A3017 RMK AO2 SLP224 T00830006=
200912212352 METAR KATL 212352Z 25003KT 10SM FEW250 08/02 A3016 RMK AO2 SLP221 T00780017 10122 20078 53004=
200912212252 METAR KATL 212252Z 23004KT 10SM FEW250 09/01 A3016 RMK AO2 SLP218 T00940011=
200912212152 METAR KATL 212152Z 28007KT 10SM FEW250 11/01 A3015 RMK AO2 SLP215 T01110011=
200912212052 METAR KATL 212052Z 27007KT 10SM FEW250 12/01 A3015 RMK AO2 SLP216 T01170011 55013=
200912211952 METAR KATL 211952Z 28006KT 10SM FEW250 11/01 A3015 RMK AO2 SLP214 T01110011=
200912211852 METAR KATL 211852Z 25006KT 10SM FEW250 10/01 A3016 RMK AO2 SLP220 T01000011=
200912211752 METAR KATL 211752Z 29007KT 10SM FEW250 09/01 A3019 RMK AO2 SLP230 T00890011 10089 21022 58014=
200912211652 METAR KATL 211652Z 28005KT 10SM FEW250 08/01 A3021 RMK AO2 SLP238 T00780011=
200912211552 METAR KATL 211552Z 31007KT 9SM FEW250 05/00 A3023 RMK AO2 SLP246 T00500000=
200912211452 METAR KATL 211452Z 29007KT 9SM FEW250 03/M01 A3023 RMK AO2 SLP246 T00331006 53008=
200912211352 METAR KATL 211352Z 26003KT 7SM FEW250 01/M01 A3022 RMK AO2 SLP243 T00111011=
200912211252 METAR KATL 211252Z 00000KT 7SM FEW250 M02/M03 A3021 RMK AO2 SLP241 T10171033=
200912211152 METAR KATL 211152Z 27003KT 7SM CLR M01/M03 A3021 RMK AO2 SLP239 T10111033 11011 21028 50002=
200912211052 METAR KATL 211052Z 00000KT 7SM FEW120 M03/M04 A3021 RMK AO2 SLP239 T10281039=
200912210952 METAR KATL 210952Z 27003KT 7SM CLR M02/M04 A3020 RMK AO2 SLP236 T10171039=
200912210852 METAR KATL 210852Z 29003KT 8SM CLR M02/M03 A3020 RMK AO2 SLP235 T10171033 53004=
200912210752 METAR KATL 210752Z 31004KT 7SM CLR M02/M04 A3018 RMK AO2 SLP229 T10221039=
200912210652 METAR KATL 210652Z 00000KT 8SM CLR M01/M03 A3019 RMK AO2 SLP230 T10111033=
200912210552 METAR KATL 210552Z 30003KT 8SM CLR M01/M03 A3019 RMK AO2 SLP231 T10111033 10017 21011 58002=
200912210452 METAR KATL 210452Z 00000KT 8SM FEW250 M01/M03 A3020 RMK AO2 SLP235 T10061033 400561011=
200912210352 METAR KATL 210352Z 30004KT 9SM CLR M01/M03 A3020 RMK AO2 SLP235 T10061033=
200912210252 METAR KATL 210252Z 31005KT 10SM CLR 00/M03 A3019 RMK AO2 SLP233 T00001033 51004=
200912210152 METAR KATL 210152Z 30006KT 10SM CLR 00/M03 A3018 RMK AO2 SLP230 T00001033=
200912210052 METAR KATL 210052Z 30008KT 10SM FEW250 01/M03 A3019 RMK AO2 SLP232 T00111028=
200912202352 METAR KATL 202352Z 31007KT 10SM FEW250 02/M03 A3018 RMK AO2 SLP228 T00171028 10056 20017 51010=
200912202252 METAR KATL 202252Z 31009KT 10SM FEW250 03/M03 A3017 RMK AO2 SLP224 T00281028=
200912202152 METAR KATL 202152Z 33008KT 10SM FEW250 04/M03 A3017 RMK AO2 SLP222 T00441028=
200912202052 METAR KATL 202052Z 32009KT 10SM FEW030 SCT250 05/M03 A3015 RMK AO2 SLP215 T00501028 55002=
200912201952 METAR KATL 201952Z 32013KT 10SM SCT031 05/M02 A3014 RMK AO2 SLP214 T00501022=
200912201852 METAR KATL 201852Z 31012KT 10SM SCT031 06/M03 A3014 RMK AO2 SLP213 T00561028=
200912201752 METAR KATL 201752Z 32012G19KT 10SM BKN031 04/M03 A3015 RMK AO2 SLP218 T00391028 10056 20017 58001=
200912201652 METAR KATL 201652Z 34012KT 10SM BKN031 04/M03 A3017 RMK AO2 SLP222 T00391028=
200912201624 SPECI KATL 201624Z 34013G18KT 10SM BKN031 03/M03 A3018 RMK AO2=
200912201624 SPECI KATL 201624Z 34013G18KT 10SM BKN031 03/M03 A3018 RMK AO2=
200912201552 METAR KATL 201552Z 35014G20KT 10SM BKN029 03/M03 A3017 RMK AO2 SLP224 T00281033=
200912201452 METAR KATL 201452Z 31010G18KT 10SM BKN024 OVC031 02/M02 A3016 RMK AO2 SLP219 T00221022 53029=
200912201407 SPECI KATL 201407Z 30010KT 10SM BKN024 OVC031 02/M02 A3013 RMK AO2=
200912201407 SPECI KATL 201407Z 30010KT 10SM BKN024 OVC031 02/M02 A3013 RMK AO2=
200912201352 METAR KATL 201352Z 31011KT 10SM FEW025 OVC033 02/M02 A3012 RMK AO2 SLP206 T00171022=
200912201252 METAR KATL 201252Z 29009KT 10SM OVC030 02/M02 A3010 RMK AO2 SLP199 T00171022=
200912201152 METAR KATL 201152Z 30011KT 10SM OVC033 02/M02 A3007 RMK AO2 SLP188 70001 T00171022 10033 20017 53015=
200912201104 SPECI KATL 201104Z 31013G17KT 10SM OVC031 02/M02 A3005 RMK AO2=
200912201104 SPECI KATL 201104Z 31013G17KT 10SM OVC031 02/M02 A3005 RMK AO2=
200912201052 METAR KATL 201052Z 31009KT 10SM OVC028 02/M02 A3005 RMK AO2 SLP182 T00221022=
200912201019 SPECI KATL 201019Z 31010G20KT 10SM OVC029 02/M03 A3004 RMK AO2=
200912201019 SPECI KATL 201019Z 31010G20KT 10SM OVC029 02/M03 A3004 RMK AO2=
200912201000 SPECI KATL 201000Z 30010KT 10SM OVC031 03/M03 A3003 RMK AO2=
200912201000 SPECI KATL 201000Z 30010KT 10SM OVC031 03/M03 A3003 RMK AO2=
200912200952 METAR KATL 200952Z 30011KT 10SM OVC029 03/M02 A3003 RMK AO2 SLP174 T00281022=
200912200852 METAR KATL 200852Z 32013G23KT 10SM OVC024 03/M02 A3002 RMK AO2 PK WND 32029/0817 SLP171 T00281017 51015=
200912200752 METAR KATL 200752Z 31014G22KT 10SM OVC021 03/M02 A3001 RMK AO2 PK WND 32027/0741 SLP166 T00281017=
200912200652 METAR KATL 200652Z 31015KT 10SM OVC019 03/M01 A2999 RMK AO2 SLP162 T00281011=
200912200552 METAR KATL 200552Z 31012G22KT 10SM OVC021 03/M01 A2997 RMK AO2 SLP155 T00331011 10050 20033 51017=
200912200452 METAR KATL 200452Z 30013G22KT 10SM SCT019 OVC027 03/M01 A2996 RMK AO2 SLP151 T00331006 400780033=
200912200352 METAR KATL 200352Z 31013G20KT 10SM OVC019 04/00 A2995 RMK AO2 SLP147 T00390000=
200912200252 METAR KATL 200252Z 29013KT 10SM BKN018 BKN023 04/01 A2992 RMK AO2 SLP138 T00390011 51014=
200912200152 METAR KATL 200152Z 29012G19KT 10SM SCT021 BKN027 04/01 A2991 RMK AO2 SLP135 T00390006=
200912200149 SPECI KATL 200149Z 29013KT 10SM SCT021 BKN027 04/01 A2991 RMK AO2=
200912200149 SPECI KATL 200149Z 29013KT 10SM SCT021 BKN027 04/01 A2991 RMK AO2=
200912200052 METAR KATL 200052Z 30013G18KT 10SM FEW023 OVC037 05/01 A2990 RMK AO2 SLP130 T00500011=
200912200038 SPECI KATL 200038Z 30012KT 10SM FEW023 OVC035 05/01 A2990 RMK AO2=
200912200038 SPECI KATL 200038Z 30012KT 10SM FEW023 OVC035 05/01 A2990 RMK AO2=
200912200002 SPECI KATL 200002Z 30008G18KT 10SM BKN023 OVC048 05/02 A2989 RMK AO2=
200912200002 SPECI KATL 200002Z 30008G18KT 10SM BKN023 OVC048 05/02 A2989 RMK AO2=
200912192352 METAR KATL 192352Z 30014KT 10SM FEW023 OVC048 05/02 A2988 RMK AO2 SLP124 60000 T00500017 10078 20050 51025=
200912192320 SPECI KATL 192320Z 30011KT 10SM SCT021 OVC048 06/02 A2987 RMK AO2 $=
200912192320 SPECI KATL 192320Z 30011KT 10SM SCT021 OVC048 06/02 A2987 RMK AO2 $=
200912192307 SPECI KATL 192307Z 29009KT 10SM BKN021 BKN032 OVC050 06/02 A2986 RMK AO2 $=
200912192307 SPECI KATL 192307Z 29009KT 10SM BKN021 BKN032 OVC050 06/02 A2986 RMK AO2 $=
200912192252 METAR KATL 192252Z 28009KT 10SM SCT015 OVC032 06/03 A2986 RMK AO2 DZE28 SLP115 P0000 T00560028=
200912192152 METAR KATL 192152Z 29013KT 9SM -DZ BKN019 BKN026 OVC042 06/03 A2983 RMK AO2 RAB10E27DZB51 SLP107 P0000 T00610028=
200912192114 SPECI KATL 192114Z 28013G20KT 8SM -RA SCT019 BKN024 OVC037 07/03 A2982 RMK AO2 RAB10 P0000=
200912192114 SPECI KATL 192114Z 28013G20KT 8SM -RA SCT019 BKN024 OVC037 07/03 A2982 RMK AO2 RAB10 P0000=
200912192052 METAR KATL 192052Z 29008G16KT 9SM SCT023 BKN031 BKN065 BKN150 07/03 A2981 RMK AO2 SLP097 T00720033 53007=
200912192031 SPECI KATL 192031Z 27010G16KT 9SM SCT023 SCT028 BKN065 BKN150 07/03 A2980 RMK AO2=
200912192031 SPECI KATL 192031Z 27010G16KT 9SM SCT023 SCT028 BKN065 BKN150 07/03 A2980 RMK AO2=
200912192007 SPECI KATL 192007Z 28012G18KT 9SM BKN023 BKN032 OVC055 07/03 A2979 RMK AO2=
200912192007 SPECI KATL 192007Z 28012G18KT 9SM BKN023 BKN032 OVC055 07/03 A2979 RMK AO2=
200912191952 METAR KATL 191952Z 28010KT 8SM SCT023 SCT028 BKN045 BKN150 07/03 A2979 RMK AO2 SLP092 T00720033=
200912191852 METAR KATL 191852Z 28011KT 10SM BKN022 BKN028 07/03 A2978 RMK AO2 SLP088 T00670033=
200912191752 METAR KATL 191752Z 28009KT 10SM BKN022 OVC029 07/03 A2978 RMK AO2 SLP090 60001 T00670033 10072 20044 50004=
200912191652 METAR KATL 191652Z 29010KT 10SM SCT013 BKN019 BKN055 07/04 A2979 RMK AO2 SLP090 T00670039=
200912191645 SPECI KATL 191645Z 30011KT 10SM SCT013 BKN019 BKN055 07/04 A2978 RMK AO2=
200912191645 SPECI KATL 191645Z 30011KT 10SM SCT013 BKN019 BKN055 07/04 A2978 RMK AO2=
200912191616 SPECI KATL 191616Z 29009KT 9SM BKN011 BKN019 BKN040 06/04 A2978 RMK AO2=
200912191616 SPECI KATL 191616Z 29009KT 9SM BKN011 BKN019 BKN040 06/04 A2978 RMK AO2=
200912191552 METAR KATL 191552Z 28007KT 9SM BKN009 BKN014 BKN047 06/04 A2978 RMK AO2 RAB37E47 SLP089 P0000 T00610044=
200912191519 SPECI KATL 191519Z 27006KT 8SM BKN009 BKN015 OVC035 06/04 A2978 RMK AO2=
200912191519 SPECI KATL 191519Z 27006KT 8SM BKN009 BKN015 OVC035 06/04 A2978 RMK AO2=
200912191510 SPECI KATL 191510Z 27006KT 8SM SCT007 BKN012 OVC035 06/04 A2978 RMK AO2=
200912191510 SPECI KATL 191510Z 27006KT 8SM SCT007 BKN012 OVC035 06/04 A2978 RMK AO2=
200912191452 METAR KATL 191452Z 27007KT 8SM BKN010 BKN015 OVC032 05/04 A2977 RMK AO2 RAE50 SLP086 P0001 60001 T00500039 53018=
200912191352 METAR KATL 191352Z 28009KT 10SM -RA BKN013 OVC050 05/03 A2975 RMK AO2 RAB36 SLP078 P0000 T00500033=
200912191327 SPECI KATL 191327Z 27006KT 10SM BKN013 OVC050 05/03 A2973 RMK AO2=
200912191327 SPECI KATL 191327Z 27006KT 10SM BKN013 OVC050 05/03 A2973 RMK AO2=
200912191252 METAR KATL 191252Z 30004KT 10SM OVC018 05/03 A2972 RMK AO2 SLP070 BINOVC E T00500033=
200912191152 METAR KATL 191152Z 29008KT 10SM FEW014 OVC022 05/03 A2971 RMK AO2 SLP067 60000 70188 T00500028 10056 20044 51017=
200912191052 METAR KATL 191052Z 29011G22KT 10SM SCT014 OVC022 06/03 A2970 RMK AO2 SLP062 T00560033=
200912191046 SPECI KATL 191046Z 29015G22KT 10SM SCT014 OVC022 06/03 A2970 RMK AO2=
200912191046 SPECI KATL 191046Z 29015G22KT 10SM SCT014 OVC022 06/03 A2970 RMK AO2=
200912191006 SPECI KATL 191006Z 29009KT 10SM BKN014 OVC018 05/04 A2969 RMK AO2=
200912191006 SPECI KATL 191006Z 29009KT 10SM BKN014 OVC018 05/04 A2969 RMK AO2=
200912190959 SPECI KATL 190959Z 29011KT 10SM SCT009 OVC016 05/04 A2969 RMK AO2=
200912190959 SPECI KATL 190959Z 29011KT 10SM SCT009 OVC016 05/04 A2969 RMK AO2=
200912190952 METAR KATL 190952Z 30010G17KT 10SM BKN009 OVC016 05/04 A2968 RMK AO2 SLP056 T00500039=
200912190852 METAR KATL 190852Z 31010KT 10SM OVC005 05/04 A2966 RMK AO2 SLP049 60000 T00500039 58002=
200912190752 METAR KATL 190752Z 30008KT 7SM OVC006 04/04 A2967 RMK AO2 DZB22E42 SLP053 P0000 T00440039=
200912190712 SPECI KATL 190712Z 29007KT 8SM SCT003 OVC008 04/04 A2967 RMK AO2=
200912190712 SPECI KATL 190712Z 29007KT 8SM SCT003 OVC008 04/04 A2967 RMK AO2=
200912190652 METAR KATL 190652Z 28007KT 6SM BR BKN003 OVC008 04/04 A2967 RMK AO2 DZE27 SLP054 P0000 T00440039=
200912190624 SPECI KATL 190624Z 30007KT 5SM -DZ BR BKN003 OVC008 04/04 A2967 RMK AO2 P0000=
200912190624 SPECI KATL 190624Z 30007KT 5SM -DZ BR BKN003 OVC008 04/04 A2967 RMK AO2 P0000=
200912190552 METAR KATL 190552Z 28006KT 1/2SM -DZ BR BKN002 OVC008 04/04 A2967 RMK AO2 SFC VIS 3 SLP053 DZB11 P0000 60000 T00440039 10044 20028 58000=
200912190536 SPECI KATL 190536Z 28004KT 1/2SM -DZ BR OVC002 04/04 A2967 RMK AO2 SFC VIS 3 DZB11 P0000=
200912190536 SPECI KATL 190536Z 28004KT 1/2SM -DZ BR OVC002 04/04 A2967 RMK AO2 SFC VIS 3 DZB11 P0000=
200912190511 SPECI KATL 190511Z 26003KT 2SM BR BKN003 OVC010 04/04 A2968 RMK AO2 SFC VIS 4=
200912190511 SPECI KATL 190511Z 26003KT 2SM BR BKN003 OVC010 04/04 A2968 RMK AO2 SFC VIS 4=
200912190452 METAR KATL 190452Z 00000KT 9SM BKN006 OVC013 04/03 A2968 RMK AO2 RAE34 SLP056 P0000 T00390033 400610017=
200912190440 SPECI KATL 190440Z 30003KT 10SM SCT006 OVC013 04/03 A2968 RMK AO2 RAE34 P0000=
200912190440 SPECI KATL 190440Z 30003KT 10SM SCT006 OVC013 04/03 A2968 RMK AO2 RAE34 P0000=
200912190411 SPECI KATL 190411Z 29006KT 5SM -RA BR BKN013 BKN020 OVC035 03/03 A2969 RMK AO2 P0000=
200912190411 SPECI KATL 190411Z 29006KT 5SM -RA BR BKN013 BKN020 OVC035 03/03 A2969 RMK AO2 P0000=
200912190352 METAR KATL 190352Z 30006KT 5SM -RA BR FEW015 BKN025 OVC050 03/02 A2968 RMK AO2 RAB50 SLP059 P0000 T00330022=
200912190252 METAR KATL 190252Z 35006KT 10SM FEW007 SCT020 03/02 A2967 RMK AO2 SLP054 60000 T00330022 50000=
200912190250 SPECI KATL 190250Z 36004KT 10SM FEW007 SCT020 03/02 A2967 RMK AO2=
200912190250 SPECI KATL 190250Z 36004KT 10SM FEW007 SCT020 03/02 A2967 RMK AO2=
200912190152 SPECI KATL 190152Z 03013G21KT 10SM FEW009 BKN020 OVC035 04/02 A2967 RMK AO2 DZE31 SLP054 P0000 T00390022=
200912190052 METAR KATL 190052Z 36009KT 6SM -DZ BR SCT007 BKN012 OVC025 04/03 A2967 RMK AO2 RAE44DZB44 SLP053 P0000 T00390028=
200912182352 METAR KATL 182352Z 02015G21KT 5SM -RA BR FEW008 BKN014 OVC025 03/02 A2967 RMK AO2 SLP053 P0000 60050 T00330017 10033 20028 53003=
200912182252 METAR KATL 182252Z 02013KT 5SM -RA BR SCT008 BKN014 OVC030 03/02 A2966 RMK AO2 SLP049 P0000 T00330017=
200912182152 METAR KATL 182152Z 03010KT 3SM -RA BR SCT008 BKN014 OVC030 03/02 A2967 RMK AO2 TWR VIS 4 SLP051 P0003 T00330017=
200912182112 SPECI KATL 182112Z 04012KT 3SM -RA BR BKN008 BKN018 OVC040 03/02 A2966 RMK AO2 TWR VIS 4 P0001=
200912182112 SPECI KATL 182112Z 04012KT 3SM -RA BR BKN008 BKN018 OVC040 03/02 A2966 RMK AO2 TWR VIS 4 P0001=
200912182105 SPECI KATL 182105Z 04012KT 2SM -RA BR BKN008 BKN018 OVC040 03/02 A2966 RMK AO2 TWR VIS 4 P0001=
200912182105 SPECI KATL 182105Z 04012KT 2SM -RA BR BKN008 BKN018 OVC040 03/02 A2966 RMK AO2 TWR VIS 4 P0001=
200912182056 SPECI KATL 182056Z 03012KT 1 3/4SM -RA BR FEW008 BKN013 OVC020 03/02 A2966 RMK AO2 TWR VIS 4 P0000=
200912182056 SPECI KATL 182056Z 03012KT 1 3/4SM -RA BR FEW008 BKN013 OVC020 03/02 A2966 RMK AO2 TWR VIS 4 P0000=
200912182052 METAR KATL 182052Z 04012G19KT 5SM -RA BR FEW008 BKN013 OVC020 03/02 A2966 RMK AO2 SLP050 P0002 60047 T00330017 55028=
200912182035 SPECI KATL 182035Z 05016KT 5SM -RA BR FEW008 BKN013 OVC020 03/02 A2965 RMK AO2 P0001=
200912182035 SPECI KATL 182035Z 05016KT 5SM -RA BR FEW008 BKN013 OVC020 03/02 A2965 RMK AO2 P0001=
200912182008 SPECI KATL 182008Z 04015KT 9SM -RA BKN010 BKN015 OVC040 03/02 A2964 RMK AO2 P0001=
200912182008 SPECI KATL 182008Z 04015KT 9SM -RA BKN010 BKN015 OVC040 03/02 A2964 RMK AO2 P0001=
200912181952 METAR KATL 181952Z 04014G20KT 2SM -RA BR BKN008 BKN010 OVC040 03/02 A2966 RMK AO2 SFC VIS 3 SLP047 P0025 T00330017=
200912181854 SPECI KATL 181854Z 03010G24KT 2SM RA BR BKN008 BKN010 OVC040 03/02 A2969 RMK AO2 SFC VIS 3 P0000=
200912181854 SPECI KATL 181854Z 03010G24KT 2SM RA BR BKN008 BKN010 OVC040 03/02 A2969 RMK AO2 SFC VIS 3 P0000=
200912181852 METAR KATL 181852Z 03010G24KT 2SM RA BR FEW006 BKN010 OVC024 03/02 A2968 RMK AO2 SFC VIS 3 SLP055 P0020 T00280017=
200912181752 METAR KATL 181752Z 36009KT 2SM R09R/4500VP6000FT +RA BR BKN008 BKN010 OVC020 03/02 A2975 RMK AO2 SLP079 P0032 60138 T00280017 10033 20017 58015=
200912181724 SPECI KATL 181724Z 01009G14KT 2SM R09R/4000VP6000FT +RA BR BKN008 BKN010 OVC020 02/01 A2979 RMK AO2 P0008=
200912181724 SPECI KATL 181724Z 01009G14KT 2SM R09R/4000VP6000FT +RA BR BKN008 BKN010 OVC020 02/01 A2979 RMK AO2 P0008=
200912181704 SPECI KATL 181704Z 07016G25KT 2SM R09R/6000VP6000FT -RA BR FEW006 BKN010 OVC020 02/01 A2974 RMK AO2 P0002=
200912181704 SPECI KATL 181704Z 07016G25KT 2SM R09R/6000VP6000FT -RA BR FEW006 BKN010 OVC020 02/01 A2974 RMK AO2 P0002=
200912181654 SPECI KATL 181654Z 06017G24KT 1 3/4SM RA BR FEW006 BKN010 OVC020 02/01 A2975 RMK AO2 P0000=
200912181654 SPECI KATL 181654Z 06017G24KT 1 3/4SM RA BR FEW006 BKN010 OVC020 02/01 A2975 RMK AO2 P0000=
200912181652 METAR KATL 181652Z 06018G24KT 2SM RA BR FEW006 BKN010 OVC020 02/01 A2976 RMK AO2 PK WND 06031/1614 SLP082 P0018 T00220011=
200912181552 METAR KATL 181552Z 06019G25KT 2SM RA BR FEW007 BKN010 OVC020 02/01 A2980 RMK AO2 PK WND 08031/1529 SLP094 P0032 T00220006=
200912181549 SPECI KATL 181549Z 07018G25KT 2SM R09R/6000VP6000FT +RA BR FEW007 BKN010 OVC020 02/01 A2980 RMK AO2 PK WND 08031/1529 P0032=
200912181549 SPECI KATL 181549Z 07018G25KT 2SM R09R/6000VP6000FT +RA BR FEW007 BKN010 OVC020 02/01 A2980 RMK AO2 PK WND 08031/1529 P0032=
200912181459 SPECI KATL 181459Z 07018G30KT 2SM +RA BR BKN010 BKN020 OVC030 02/01 A2980 RMK AO2 PK WND 07030/1456 PRESFR P0003=
200912181459 SPECI KATL 181459Z 07018G30KT 2SM +RA BR BKN010 BKN020 OVC030 02/01 A2980 RMK AO2 PK WND 07030/1456 PRESFR P0003=
200912181452 METAR KATL 181452Z 07020G30KT 3SM +RA BR BKN010 BKN020 OVC030 02/01 A2981 RMK AO2 PK WND 07031/1433 SLP100 P0028 60056 T00220006 56034=
200912181430 SPECI KATL 181430Z 07021KT 2 1/2SM +RA BR FEW002 BKN020 OVC030 02/01 A2982 RMK AO2 PK WND 07030/1356 P0017=
200912181430 SPECI KATL 181430Z 07021KT 2 1/2SM +RA BR FEW002 BKN020 OVC030 02/01 A2982 RMK AO2 PK WND 07030/1356 P0017=
200912181352 METAR KATL 181352Z 06021G28KT 4SM +RA BR BKN020 OVC038 02/00 A2986 RMK AO2 PK WND 06031/1317 SLP117 P0019 T00220000=
200912181252 METAR KATL 181252Z 06019G28KT 6SM RA BR BKN020 OVC038 03/M01 A2991 RMK AO2 PK WND 05028/1251 SLP134 P0009 T00281006=
200912181152 METAR KATL 181152Z 06013KT 6SM -RA BR OVC022 03/M01 A2994 RMK AO2 SLP142 P0001 60001 70001 T00331006 10061 20033 56025=
200912181052 METAR KATL 181052Z 07014G21KT 8SM -RA BKN022 OVC060 04/M03 A2996 RMK AO2 RAB0958 SLP151 P0000 T00441033=
200912180952 METAR KATL 180952Z 06012KT 8SM SCT020 BKN031 OVC090 06/M06 A2998 RMK AO2 SLP156 T00561061=
200912180852 METAR KATL 180852Z 07014KT 10SM OVC027 06/M05 A3001 RMK AO2 SLP167 T00561050 58030=
200912180752 METAR KATL 180752Z 07013KT 10SM OVC025 06/M05 A3005 RMK AO2 SLP179 T00611050=
200912180652 METAR KATL 180652Z 08013KT 8SM OVC025 06/M04 A3007 RMK AO2 SLP187 T00611044=
200912180552 METAR KATL 180552Z 09010KT 10SM BKN025 OVC110 06/M04 A3011 RMK AO2 SLP198 T00611044 10072 20056 58023=
200912180514 SPECI KATL 180514Z 09011KT 10SM BKN028 BKN110 OVC150 06/M04 A3012 RMK AO2=
200912180514 SPECI KATL 180514Z 09011KT 10SM BKN028 BKN110 OVC150 06/M04 A3012 RMK AO2=
200912180452 METAR KATL 180452Z 09010KT 10SM FEW027 BKN110 OVC150 06/M04 A3014 RMK AO2 SLP210 T00611044 400940000=
200912180352 METAR KATL 180352Z 08011KT 10SM BKN100 OVC150 06/M04 A3016 RMK AO2 SLP218 T00611044=
200912180252 METAR KATL 180252Z 09010KT 10SM FEW070 BKN090 OVC150 06/M04 A3018 RMK AO2 SLP224 T00611044 58010=
200912180152 METAR KATL 180152Z 10010KT 10SM OVC150 07/M05 A3020 RMK AO2 SLP234 T00671050=
200912180052 METAR KATL 180052Z 09009KT 10SM BKN150 OVC200 07/M04 A3019 RMK AO2 SLP230 T00671044=
200912172352 METAR KATL 172352Z 10007KT 10SM BKN150 OVC200 07/M03 A3021 RMK AO2 SLP235 T00721033 10094 20067 55008=
200912172252 METAR KATL 172252Z 10009KT 10SM BKN150 OVC200 08/M03 A3020 RMK AO2 SLP234 VIRGA OHD-ALQDS T00781033=
200912172152 METAR KATL 172152Z 10008KT 10SM BKN150 BKN180 OVC200 08/M03 A3022 RMK AO2 SLP239 VIRGA N & S & W T00831033=
200912172052 METAR KATL 172052Z 08009KT 10SM BKN150 BKN180 OVC200 09/M03 A3023 RMK AO2 SLP242 VIRGA DSNT S-SW-W T00891033 56014=
200912171952 METAR KATL 171952Z 09007KT 10SM FEW120 BKN150 OVC200 09/M04 A3024 RMK AO2 SLP244 T00941039=
200912171852 METAR KATL 171852Z 09008KT 010V100 10SM BKN150 BKN200 BKN250 09/M04 A3024 RMK AO2 SLP245 T00941044=
200912171752 METAR KATL 171752Z 08006KT 10SM FEW150 SCT200 BKN250 09/M03 A3027 RMK AO2 SLP258 T00891033 10089 20011 58025=
200912171652 METAR KATL 171652Z 09006KT 10SM FEW150 BKN200 BKN250 07/M03 A3031 RMK AO2 SLP269 T00721033=
200912171552 METAR KATL 171552Z 08009KT 10SM FEW150 BKN200 BKN250 06/M03 A3034 RMK AO2 SLP280 T00611028=
200912171452 METAR KATL 171452Z 09006KT 10SM FEW150 BKN200 BKN250 04/M02 A3035 RMK AO2 SLP284 T00391022 53010=
200912171352 METAR KATL 171352Z 08008KT 10SM SCT180 BKN250 02/M03 A3032 RMK AO2 SLP277 T00221028=
200912171252 METAR KATL 171252Z 08009KT 10SM SCT180 BKN250 02/M03 A3031 RMK AO2 SLP273 T00171028=
200912171152 METAR KATL 171152Z 06006KT 10SM BKN200 02/M03 A3032 RMK AO2 SLP274 T00171028 10028 20000 56001=
200912171052 METAR KATL 171052Z 04003KT 10SM FEW200 02/M02 A3032 RMK AO2 SLP274 T00221022=
200912170952 METAR KATL 170952Z 00000KT 10SM CLR 00/M02 A3032 RMK AO2 SLP274 T00001022=
200912170852 METAR KATL 170852Z 03003KT 10SM FEW200 02/M02 A3032 RMK AO2 SLP274 T00171017 58002=
200912170752 METAR KATL 170752Z 00000KT 10SM SCT250 02/M02 A3032 RMK AO2 SLP274 T00171017=
200912170652 METAR KATL 170652Z 00000KT 10SM BKN250 02/M02 A3033 RMK AO2 SLP276 T00171017=
200912170552 METAR KATL 170552Z 35003KT 10SM BKN250 01/M02 A3033 RMK AO2 SLP275 T00111017 10044 20011 58004=
200912170452 METAR KATL 170452Z 34004KT 10SM FEW200 BKN250 02/M01 A3034 RMK AO2 SLP278 T00221011 401000017=
200912170352 METAR KATL 170352Z 32004KT 10SM FEW200 BKN250 02/M01 A3035 RMK AO2 SLP283 T00171011=
200912170252 METAR KATL 170252Z 32004KT 10SM FEW200 BKN250 02/M01 A3034 RMK AO2 SLP282 T00221011 58004=
200912170152 METAR KATL 170152Z 33004KT 10SM SCT200 BKN250 03/M01 A3035 RMK AO2 SLP284 T00331011=
200912170052 METAR KATL 170052Z 34006KT 10SM BKN200 BKN250 04/M01 A3036 RMK AO2 SLP287 T00391011=
200912162352 METAR KATL 162352Z 33006KT 10SM BKN200 BKN250 04/M01 A3035 RMK AO2 SLP286 T00441011 10100 20044 53008=
200912162252 METAR KATL 162252Z 34007KT 10SM BKN200 BKN250 06/M01 A3034 RMK AO2 SLP281 T00561011=
200912162152 METAR KATL 162152Z 34008KT 10SM FEW180 BKN250 BKN280 07/M01 A3033 RMK AO2 SLP277 T00721011=
200912162052 METAR KATL 162052Z 35009KT 10SM BKN180 BKN250 BKN280 08/M01 A3033 RMK AO2 SLP275 T00831011 55004=
200912161952 METAR KATL 161952Z 34007KT 10SM FEW150 BKN200 BKN250 09/M01 A3032 RMK AO2 SLP273 T00891011=
200912161852 METAR KATL 161852Z 32007KT 10SM FEW150 BKN200 BKN250 09/M01 A3033 RMK AO2 SLP275 T00891011=
200912161816 SPECI KATL 161816Z 33010KT 10SM FEW150 BKN200 BKN250 09/M01 A3033 RMK AO2=
200912161816 SPECI KATL 161816Z 33010KT 10SM FEW150 BKN200 BKN250 09/M01 A3033 RMK AO2=
200912161752 METAR KATL 161752Z 34007KT 10SM FEW150 BKN200 BKN250 09/M02 A3034 RMK AO2 SLP278 T00941017 10100 20022 58013=
200912161652 METAR KATL 161652Z 32007KT 10SM FEW180 BKN250 BKN280 09/M02 A3037 RMK AO2 SLP289 T00941017=
200912161619 SPECI KATL 161619Z 32005KT 10SM FEW180 SCT250 BKN280 09/M01 A3038 RMK AO2=
200912161619 SPECI KATL 161619Z 32005KT 10SM FEW180 SCT250 BKN280 09/M01 A3038 RMK AO2=
200912161552 METAR KATL 161552Z 34008KT 10SM FEW180 SCT250 BKN280 08/M01 A3038 RMK AO2 SLP293 T00831011=
200912161452 METAR KATL 161452Z 32011KT 10SM FEW180 BKN250 BKN280 06/M01 A3038 RMK AO2 SLP293 T00561006 51015=
200912161352 METAR KATL 161352Z 32012KT 10SM FEW180 BKN250 04/M01 A3037 RMK AO2 SLP290 T00391006=
200912161252 METAR KATL 161252Z 32011KT 10SM FEW180 BKN250 02/M01 A3036 RMK AO2 SLP286 T00221011=
200912161152 METAR KATL 161152Z 32011KT 10SM BKN200 03/M01 A3033 RMK AO2 SLP277 70003 T00281006 10056 20028 51019=
200912161052 METAR KATL 161052Z 32013G25KT 10SM FEW150 BKN200 03/M01 A3031 RMK AO2 SLP268 T00281006=
200912160952 METAR KATL 160952Z 34011KT 10SM FEW150 BKN200 03/00 A3030 RMK AO2 SLP264 T00330000=
200912160852 METAR KATL 160852Z 32014KT 10SM FEW150 BKN200 04/01 A3028 RMK AO2 SLP256 T00390006 50001=
200912160752 METAR KATL 160752Z 33014KT 10SM FEW150 BKN200 04/01 A3028 RMK AO2 PK WND 33027/0727 SLP258 T00440011=
200912160652 METAR KATL 160652Z 32015KT 10SM FEW150 OVC200 05/02 A3028 RMK AO2 SLP256 T00500017=
200912160552 METAR KATL 160552Z 32013KT 10SM FEW150 OVC200 06/02 A3027 RMK AO2 SLP253 T00560022 10106 20056 51005=
200912160452 METAR KATL 160452Z 32012KT 10SM FEW150 OVC200 06/03 A3027 RMK AO2 SLP252 T00610033 401720061=
200912160352 METAR KATL 160352Z 33010KT 10SM FEW080 OVC200 07/03 A3027 RMK AO2 SLP252 T00670033=
200912160252 METAR KATL 160252Z 33013KT 10SM BKN080 OVC200 08/04 A3026 RMK AO2 SLP247 T00780039 51019=
200912160152 METAR KATL 160152Z 33011KT 10SM FEW080 OVC200 08/04 A3024 RMK AO2 SLP240 T00830044=
200912160052 METAR KATL 160052Z 32011KT 10SM FEW080 SCT150 OVC200 09/06 A3022 RMK AO2 SLP233 T00940056=
200912152352 METAR KATL 152352Z 33010G19KT 10SM FEW080 BKN150 OVC200 11/07 A3020 RMK AO2 SLP226 60000 T01060067 10139 20106 53024=
200912152252 METAR KATL 152252Z 32011KT 10SM OVC065 12/08 A3017 RMK AO2 SLP214 T01170078=
200912152152 METAR KATL 152152Z 32008KT 10SM FEW015 OVC050 13/09 A3014 RMK AO2 SLP204 T01280094=
200912152100 SPECI KATL 152100Z 31010G19KT 10SM FEW016 SCT020 OVC045 13/10 A3013 RMK AO2=
200912152100 SPECI KATL 152100Z 31010G19KT 10SM FEW016 SCT020 OVC045 13/10 A3013 RMK AO2=
200912152052 METAR KATL 152052Z 32014G20KT 10SM BKN016 BKN021 OVC045 13/10 A3013 RMK AO2 SLP200 60000 T01330100 51012=
200912152049 SPECI KATL 152049Z 32011KT 10SM BKN016 BKN021 OVC043 13/10 A3013 RMK AO2=
200912152049 SPECI KATL 152049Z 32011KT 10SM BKN016 BKN021 OVC043 13/10 A3013 RMK AO2=
200912151952 METAR KATL 151952Z 32011KT 8SM OVC012 13/12 A3010 RMK AO2 DZE04 SLP191 P0000 T01330117=
200912151942 SPECI KATL 151942Z 33010KT 8SM BKN012 BKN023 OVC029 13/12 A3010 RMK AO2 DZE04 P0000=
200912151942 SPECI KATL 151942Z 33010KT 8SM BKN012 BKN023 OVC029 13/12 A3010 RMK AO2 DZE04 P0000=
200912151852 METAR KATL 151852Z 33009KT 6SM -DZ BR FEW008 BKN016 OVC020 14/12 A3009 RMK AO2 DZB52 SLP188 P0000 T01390122=
200912151850 SPECI KATL 151850Z 33010KT 8SM FEW008 BKN016 OVC020 14/12 A3009 RMK AO2=
200912151850 SPECI KATL 151850Z 33010KT 8SM FEW008 BKN016 OVC020 14/12 A3009 RMK AO2=
200912151807 SPECI KATL 151807Z 32009KT 3SM BR FEW006 SCT008 OVC014 14/13 A3010 RMK AO2 SFC VIS 5=
200912151807 SPECI KATL 151807Z 32009KT 3SM BR FEW006 SCT008 OVC014 14/13 A3010 RMK AO2 SFC VIS 5=
200912151752 METAR KATL 151752Z 34013G17KT 3SM BR BKN006 BKN009 OVC015 14/13 A3010 RMK AO2 WSHFT 1654 SFC VIS 5 DZB1655E50 SLP189 P0000 60003 T01390128 10167 20139 50001=
200912151730 SPECI KATL 151730Z 33012KT 3SM -DZ BR BKN006 BKN009 OVC015 14/13 A3009 RMK AO2 WSHFT 1654 SFC VIS 5 DZB1655 P0000=
200912151730 SPECI KATL 151730Z 33012KT 3SM -DZ BR BKN006 BKN009 OVC015 14/13 A3009 RMK AO2 WSHFT 1654 SFC VIS 5 DZB1655 P0000=
200912151710 SPECI KATL 151710Z 35013KT 2SM -DZ BR FEW004 BKN006 OVC009 14/13 A3009 RMK AO2 WSHFT 1654 SFC VIS 2 1/2 DZB1655 P0000=
200912151710 SPECI KATL 151710Z 35013KT 2SM -DZ BR FEW004 BKN006 OVC009 14/13 A3009 RMK AO2 WSHFT 1654 SFC VIS 2 1/2 DZB1655 P0000=
200912151655 SPECI KATL 151655Z 33014G17KT 2SM R09R/6000VP6000FT -DZ BR FEW004 BKN009 OVC016 16/16 A3010 RMK AO2 SFC VIS 2 1/2 DZB55 P0000=
200912151655 SPECI KATL 151655Z 33014G17KT 2SM R09R/6000VP6000FT -DZ BR FEW004 BKN009 OVC016 16/16 A3010 RMK AO2 SFC VIS 2 1/2 DZB55 P0000=
200912151652 METAR KATL 151652Z 30008KT 2SM BR BKN004 OVC006 17/16 A3010 RMK AO2 SFC VIS 3 RAE21 SLP189 P0002 T01670156=
200912151605 SPECI KATL 151605Z 31010KT 2SM -RA BR BKN004 OVC006 17/16 A3010 RMK AO2 P0001=
200912151605 SPECI KATL 151605Z 31010KT 2SM -RA BR BKN004 OVC006 17/16 A3010 RMK AO2 P0001=
200912151552 METAR KATL 151552Z 31008KT 1 1/2SM R09R/5500VP6000FT -RA BR BKN004 OVC006 17/16 A3010 RMK AO2 TWR VIS 2 DZE49RAB49 SLP192 P0001 T01670161=
200912151507 SPECI KATL 151507Z 27008KT 1 1/2SM R09R/4500VP6000FT -DZ BR OVC004 17/16 A3010 RMK AO2 TWR VIS 2 CIG 001V008 P0000=
200912151507 SPECI KATL 151507Z 27008KT 1 1/2SM R09R/4500VP6000FT -DZ BR OVC004 17/16 A3010 RMK AO2 TWR VIS 2 CIG 001V008 P0000=
200912151452 METAR KATL 151452Z 26008KT 2SM -DZ BR OVC004 17/16 A3009 RMK AO2 DZB48 CIG 001V009 SLP188 P0000 60000 T01670161 53018=
200912151448 SPECI KATL 151448Z 25007KT 2SM -DZ BR OVC006 17/16 A3009 RMK AO2 DZB48 CIG 001V009 P0000=
200912151448 SPECI KATL 151448Z 25007KT 2SM -DZ BR OVC006 17/16 A3009 RMK AO2 DZB48 CIG 001V009 P0000=
200912151434 SPECI KATL 151434Z 26008KT 2SM BR BKN006 OVC010 17/16 A3009 RMK AO2 SFC VIS 4=
200912151434 SPECI KATL 151434Z 26008KT 2SM BR BKN006 OVC010 17/16 A3009 RMK AO2 SFC VIS 4=
200912151352 METAR KATL 151352Z 24009KT 8SM BKN006 OVC010 17/16 A3007 RMK AO2 SLP181 T01670156=
200912151309 SPECI KATL 151309Z 24007KT 8SM BKN009 OVC018 17/16 A3005 RMK AO2 CIG 005V013=
200912151309 SPECI KATL 151309Z 24007KT 8SM BKN009 OVC018 17/16 A3005 RMK AO2 CIG 005V013=
200912151252 METAR KATL 151252Z 24006KT 10SM FEW008 OVC018 17/16 A3005 RMK AO2 SLP172 T01670156=
200912151152 METAR KATL 151152Z 26008KT 8SM BKN006 OVC010 17/16 A3004 RMK AO2 SLP170 60000 70050 T01670161 10172 20161 53004=
200912151052 METAR KATL 151052Z 25005KT 8SM BKN010 OVC150 17/16 A3003 RMK AO2 SLP166 T01670161=
200912151040 SPECI KATL 151040Z 25007KT 8SM SCT005 OVC010 17/16 A3003 RMK AO2=
200912151040 SPECI KATL 151040Z 25007KT 8SM SCT005 OVC010 17/16 A3003 RMK AO2=
200912150952 METAR KATL 150952Z 24008KT 1/2SM BKN005 OVC009 17/16 A3002 RMK AO2 SFC VIS 8 CIG 003V008 SLP165 T01670161=
200912150904 SPECI KATL 150904Z 23007KT 1/2SM BKN007 OVC012 17/16 A3002 RMK AO2 SFC VIS 8 CIG 005V010=
200912150904 SPECI KATL 150904Z 23007KT 1/2SM BKN007 OVC012 17/16 A3002 RMK AO2 SFC VIS 8 CIG 005V010=
200912150852 METAR KATL 150852Z 23006KT 1/2SM FEW007 BKN014 OVC150 17/16 A3003 RMK AO2 SFC VIS 8 SLP166 60001 T01670161 56002=
200912150807 SPECI KATL 150807Z 25005KT 1/2SM FEW003 BKN017 OVC150 16/16 A3004 RMK AO2 SFC VIS 8=
200912150807 SPECI KATL 150807Z 25005KT 1/2SM FEW003 BKN017 OVC150 16/16 A3004 RMK AO2 SFC VIS 8=
200912150752 METAR KATL 150752Z 24004KT 1/2SM SCT013 BKN150 OVC250 16/16 A3003 RMK AO2 SFC VIS 8 SLP167 T01610156=
200912150731 SPECI KATL 150731Z 22005KT 1/2SM FEW003 SCT055 OVC150 16/16 A3003 RMK AO2 SFC VIS 8 P0001=
200912150731 SPECI KATL 150731Z 22005KT 1/2SM FEW003 SCT055 OVC150 16/16 A3003 RMK AO2 SFC VIS 8 P0001=
200912150652 METAR KATL 150652Z 21007KT 1/2SM BKN003 OVC007 16/16 A3001 RMK AO2 SFC VIS 7 RAE0559 SLP159 P0000 T01610161=
200912150552 METAR KATL 150552Z 22008KT 1/2SM -RA OVC003 16/16 A3003 RMK AO2 SFC VIS 7 RAE09B51 SLP167 P0001 60006 T01610161 10161 20139 58003=
200912150452 METAR KATL 150452Z 20006KT 1/2SM -RA BR BKN003 OVC020 16/16 A3005 RMK AO2 SFC VIS 4 RAB40 SLP173 P0000 T01560156 401560089=
200912150352 METAR KATL 150352Z 00000KT 1/2SM R09R/5500VP6000FT BR BKN003 OVC020 14/14 A3004 RMK AO2 SFC VIS 1 RAE0253 SLP172 VIS NW-N 3 T01440144=
200912150252 METAR KATL 150252Z 11004KT 1/2SM R09R/P6000FT -RA BR BKN002 OVC050 14/14 A3004 RMK AO2 SFC VIS 3/4 SLP172 VIS NW-N 1 1/2 P0002 60005 T01440144 58002=
200912150152 METAR KATL 150152Z 18003KT 1/2SM R09R/3500V4500FT -RA BR OVC002 14/14 A3006 RMK AO2 SFC VIS 1 RAB44 SLP178 VIS NW-N 3 P0001 T01440144=
200912150118 SPECI KATL 150118Z 18005KT 1/2SM BKN003 BKN045 OVC075 14/14 A3005 RMK AO2 SFC VIS 8=
200912150118 SPECI KATL 150118Z 18005KT 1/2SM BKN003 BKN045 OVC075 14/14 A3005 RMK AO2 SFC VIS 8=
200912150052 METAR KATL 150052Z 16007KT 10SM FEW003 BKN075 BKN100 OVC150 14/14 A3005 RMK AO2 RAE37 SLP174 P0002 T01440144=
200912150004 SPECI KATL 150004Z 17005KT 6SM -RA BR FEW003 SCT035 BKN070 OVC150 14/14 A3005 RMK AO2 P0001=
200912150004 SPECI KATL 150004Z 17005KT 6SM -RA BR FEW003 SCT035 BKN070 OVC150 14/14 A3005 RMK AO2 P0001=
200912142352 METAR KATL 142352Z 13003KT 1 1/2SM -RA BR SCT003 BKN020 OVC070 14/14 A3005 RMK AO2 SFC VIS 5 TSB10E38 SLP175 TS DSIPTD P0020 60043 T01440144 10144 20128 58002=
200912142338 SPECI KATL 142338Z 09004KT 1 1/2SM -RA BR SCT003 BKN020 OVC070 14/14 A3006 RMK AO2 SFC VIS 5 TSB10E38 TS DSIPTD P0018=
200912142338 SPECI KATL 142338Z 09004KT 1 1/2SM -RA BR SCT003 BKN020 OVC070 14/14 A3006 RMK AO2 SFC VIS 5 TSB10E38 TS DSIPTD P0018=
200912142312 SPECI KATL 142312Z 20003KT 1/2SM -TSRA BR BKN004CB OVC040 14/14 A3008 RMK AO2 SFC VIS 5 TSB10 OCNL LTGIC VC S-SW TS VC S-SW MOV E P0002=
200912142312 SPECI KATL 142312Z 20003KT 1/2SM -TSRA BR BKN004CB OVC040 14/14 A3008 RMK AO2 SFC VIS 5 TSB10 OCNL LTGIC VC S-SW TS VC S-SW MOV E P0002=
200912142258 SPECI KATL 142258Z 17006KT 1/2SM -RA BR BKN003 BKN040 OVC070 14/14 A3006 RMK AO2 SFC VIS 6 P0001=
200912142258 SPECI KATL 142258Z 17006KT 1/2SM -RA BR BKN003 BKN040 OVC070 14/14 A3006 RMK AO2 SFC VIS 6 P0001=
200912142252 METAR KATL 142252Z 18007KT 3SM -RA BR FEW004 BKN045 BKN070 OVC150 14/14 A3007 RMK AO2 SFC VIS 4 TSB2157E51RAB05 SLP183 TS MOV NE P0023 T01390139=
200912142226 SPECI KATL 142226Z 15003KT 3SM -TSRA BR FEW010CB SCT045 BKN070 OVC150 13/13 A3006 RMK AO2 SFC VIS 5 TSB2157RAB05 OCNL LTGICCG VC E-SE TS VC E-SE MOV NE P0022 $=
200912142226 SPECI KATL 142226Z 15003KT 3SM -TSRA BR FEW010CB SCT045 BKN070 OVC150 13/13 A3006 RMK AO2 SFC VIS 5 TSB2157RAB05 OCNL LTGICCG VC E-SE TS VC E-SE MOV NE P0022 $=
200912142220 SPECI KATL 142220Z 13005KT 3SM -TSRA BR SCT004 BKN010CB OVC045 13/13 A3005 RMK AO2 TSB2157RAB05 OCNL LTGICCG SE TS SE MOV NE P0021 $=
200912142220 SPECI KATL 142220Z 13005KT 3SM -TSRA BR SCT004 BKN010CB OVC045 13/13 A3005 RMK AO2 TSB2157RAB05 OCNL LTGICCG SE TS SE MOV NE P0021 $=
200912142216 SPECI KATL 142216Z 14003KT 1SM R09R/3500VP6000FT TSRA BR BKN004CB BKN040 OVC070 13/13 A3006 RMK AO2 SFC VIS 1 1/2 TSB2157RAB05 OCNL LTGICCG SE-S TS SE-S MOV NE P0020=
200912142216 SPECI KATL 142216Z 14003KT 1SM R09R/3500VP6000FT TSRA BR BKN004CB BKN040 OVC070 13/13 A3006 RMK AO2 SFC VIS 1 1/2 TSB2157RAB05 OCNL LTGICCG SE-S TS SE-S MOV NE P0020=
200912142207 SPECI KATL 142207Z 19003KT 0SM R09R/1600V3500FT -TSRA BR OVC002CB 13/13 A3007 RMK AO2 SFC VIS 3/4 TSB2157RAB05 PRESRR OCNL LTGICCG SE-SW TS SE-SW MOV NE P0000=
200912142207 SPECI KATL 142207Z 19003KT 0SM R09R/1600V3500FT -TSRA BR OVC002CB 13/13 A3007 RMK AO2 SFC VIS 3/4 TSB2157RAB05 PRESRR OCNL LTGICCG SE-SW TS SE-SW MOV NE P0000=
200912142157 SPECI KATL 142157Z 00000KT 0SM R09R/1400V2200FT TS FG OVC002CB 13/13 A3005 RMK AO2 SFC VIS 1/4 TSB57 OCNL LTGIC S-SW TS VC S-SW MOV NE=
200912142157 SPECI KATL 142157Z 00000KT 0SM R09R/1400V2200FT TS FG OVC002CB 13/13 A3005 RMK AO2 SFC VIS 1/4 TSB57 OCNL LTGIC S-SW TS VC S-SW MOV NE=
200912142152 METAR KATL 142152Z 12004KT 0SM R09R/1400V2200FT FG VV002 13/13 A3004 RMK AO2 SFC VIS 1/4 SLP173 T01330133=
200912142052 METAR KATL 142052Z 14003KT 0SM R09R/1400V1600FT FG VV002 13/13 A3005 RMK AO2 SFC VIS 1/4 SLP177 60000 T01330133 55004=
200912141952 METAR KATL 141952Z 14004KT 0SM R09R/1400V1800FT FG OVC002 13/13 A3004 RMK AO2 SFC VIS 1/2 SLP173 T01330133=
200912141939 SPECI KATL 141939Z 15006KT 0SM R09R/2000V2600FT FG OVC002 13/13 A3005 RMK AO2 SFC VIS 1/2=
200912141939 SPECI KATL 141939Z 15006KT 0SM R09R/2000V2600FT FG OVC002 13/13 A3005 RMK AO2 SFC VIS 1/2=
200912141929 SPECI KATL 141929Z 14004KT 0SM R09R/1800V2200FT FG OVC002 13/13 A3005 RMK AO2 SFC VIS 1/2=
200912141929 SPECI KATL 141929Z 14004KT 0SM R09R/1800V2200FT FG OVC002 13/13 A3005 RMK AO2 SFC VIS 1/2=
200912141852 METAR KATL 141852Z 12004KT 0SM R09R/3000V5500FT FG OVC002 13/13 A3006 RMK AO2 SFC VIS 1/2 RAB20E40 SLP181 P0000 T01330128=
200912141752 METAR KATL 141752Z 12003KT 0SM R09R/2400V2800FT BR OVC002 13/13 A3009 RMK AO2 SFC VIS 1 DZE26 SLP191 P0000 60001 T01280128 10128 20094 58017=
200912141726 SPECI KATL 141726Z 14003KT 0SM R09R/4000VP6000FT BR OVC002 13/12 A3011 RMK AO2 SFC VIS 1 DZE26 P0000=
200912141726 SPECI KATL 141726Z 14003KT 0SM R09R/4000VP6000FT BR OVC002 13/12 A3011 RMK AO2 SFC VIS 1 DZE26 P0000=
200912141652 METAR KATL 141652Z 13003KT 0SM R09R/2200V2600FT -DZ BR OVC002 12/12 A3013 RMK AO2 SFC VIS 1/2 DZB48 SLP205 P0000 T01220122=
200912141618 SPECI KATL 141618Z 12003KT 0SM R09R/2000V2600FT FG OVC002 12/12 A3014 RMK AO2 SFC VIS 1/4=
200912141618 SPECI KATL 141618Z 12003KT 0SM R09R/2000V2600FT FG OVC002 12/12 A3014 RMK AO2 SFC VIS 1/4=
200912141614 SPECI KATL 141614Z 12004KT 0SM R09R/2000V2200FT FG OVC002 12/12 A3014 RMK AO2 SFC VIS 1/4=
200912141614 SPECI KATL 141614Z 12004KT 0SM R09R/2000V2200FT FG OVC002 12/12 A3014 RMK AO2 SFC VIS 1/4=
200912141552 METAR KATL 141552Z 00000KT 0SM R09R/2800V3500FT FG OVC002 12/12 A3016 RMK AO2 SFC VIS 1/2 DZE48 SLP212 P0000 T01170117=
200912141452 METAR KATL 141452Z COR 00000KT 0SM R09R/2400V3500FT -DZ FG OVC002 11/11 A3015 RMK AO2 SFC VIS 1/2 DZB1353 SLP210 P0001 60001 T01110111 51012 TSNO=
200912141424 SPECI KATL 141424Z 13003KT 0SM R09R/2400V4000FT -DZ FG OVC002 11/11 A3014 RMK AO2 SFC VIS 1/2 DZB1353 P0001=
200912141424 SPECI KATL 141424Z 13003KT 0SM R09R/2400V4000FT -DZ FG OVC002 11/11 A3014 RMK AO2 SFC VIS 1/2 DZB1353 P0001=
200912141419 SPECI KATL 141419Z 00000KT 0SM R09R/2200V4000FT -DZ FG OVC002 11/11 A3014 RMK AO2 SFC VIS 1/8 DZB1353 P0001=
200912141419 SPECI KATL 141419Z 00000KT 0SM R09R/2200V4000FT -DZ FG OVC002 11/11 A3014 RMK AO2 SFC VIS 1/8 DZB1353 P0001=
200912141357 SPECI KATL 141357Z 09003KT 0SM R09R/1800V2200FT -DZ FG OVC002 11/10 A3014 RMK AO2 SFC VIS 1/8 DZB53 P0000=
200912141357 SPECI KATL 141357Z 09003KT 0SM R09R/1800V2200FT -DZ FG OVC002 11/10 A3014 RMK AO2 SFC VIS 1/8 DZB53 P0000=
200912141352 METAR KATL 141352Z 10004KT 1/4SM R09R/2000V2200FT FG OVC002 10/10 A3014 RMK AO2 TWR VIS 1/2 SLP207 T01000100=
200912141252 METAR KATL 141252Z 11003KT 1/4SM R09R/2000V2200FT FG OVC002 09/09 A3013 RMK AO2 TWR VIS 1/2 SLP204 T00940094=
200912141239 SPECI KATL 141239Z 00000KT 1/2SM R09R/2000V2400FT FG OVC002 09/09 A3013 RMK AO2=
200912141239 SPECI KATL 141239Z 00000KT 1/2SM R09R/2000V2400FT FG OVC002 09/09 A3013 RMK AO2=
200912141221 SPECI KATL 141221Z 00000KT 1/4SM R09R/1600V1800FT FG OVC002 09/09 A3012 RMK AO2 TWR VIS 1/2=
200912141221 SPECI KATL 141221Z 00000KT 1/4SM R09R/1600V1800FT FG OVC002 09/09 A3012 RMK AO2 TWR VIS 1/2=
200912141152 METAR KATL 141152Z 13003KT 1/4SM R09R/3500VP6000FT FG OVC002 09/09 A3011 RMK AO2 TWR VIS 1/2 SLP198 60000 70025 T00940094 10100 20089 53005=
200912141119 SPECI KATL 141119Z 00000KT 1/4SM R09R/2000V2200FT FG OVC002 09/09 A3011 RMK AO2 TWR VIS 1/2=
200912141119 SPECI KATL 141119Z 00000KT 1/4SM R09R/2000V2200FT FG OVC002 09/09 A3011 RMK AO2 TWR VIS 1/2=
200912141052 METAR KATL 141052Z 17004KT 1/2SM R09R/2400V3000FT FG OVC002 09/09 A3010 RMK AO2 SLP196 T00940094=
200912140952 METAR KATL 140952Z 00000KT 1/2SM R09R/6000VP6000FT BR OVC002 09/09 A3010 RMK AO2 SFC VIS 1 1/4 SLP194 T00940094=
200912140852 METAR KATL 140852Z 00000KT 1/2SM R09R/2600V3500FT FG OVC002 09/09 A3010 RMK AO2 SLP194 60000 T00940094 50001=
200912140838 SPECI KATL 140838Z 00000KT 1/2SM R09R/2000V2600FT FG OVC002 09/09 A3010 RMK AO2=
200912140838 SPECI KATL 140838Z 00000KT 1/2SM R09R/2000V2600FT FG OVC002 09/09 A3010 RMK AO2=
200912140819 SPECI KATL 140819Z 00000KT 1/4SM R09R/2200FT FG OVC002 09/09 A3010 RMK AO2 TWR VIS 1/2=
200912140819 SPECI KATL 140819Z 00000KT 1/4SM R09R/2200FT FG OVC002 09/09 A3010 RMK AO2 TWR VIS 1/2=
200912140752 METAR KATL 140752Z 06004KT 1/2SM R09R/2600V3000FT FG OVC002 09/09 A3010 RMK AO2 SLP195 T00940089=
200912140724 SPECI KATL 140724Z 00000KT 1/2SM R09R/2000V2200FT FG OVC002 09/09 A3011 RMK AO2=
200912140724 SPECI KATL 140724Z 00000KT 1/2SM R09R/2000V2200FT FG OVC002 09/09 A3011 RMK AO2=
200912140652 METAR KATL 140652Z 00000KT 1/2SM R09R/2400V4000FT FG OVC002 09/09 A3010 RMK AO2 DZB12E48 SLP198 P0000 T00940089=
200912140613 SPECI KATL 140613Z 22003KT 1/2SM R09R/1800V2400FT -DZ FG OVC002 09/09 A3010 RMK AO2 DZB12 P0000=
200912140613 SPECI KATL 140613Z 22003KT 1/2SM R09R/1800V2400FT -DZ FG OVC002 09/09 A3010 RMK AO2 DZB12 P0000=
200912140605 SPECI KATL 140605Z 22005KT 1/2SM R09R/1800V2200FT FG OVC002 09/09 A3010 RMK AO2=
200912140605 SPECI KATL 140605Z 22005KT 1/2SM R09R/1800V2200FT FG OVC002 09/09 A3010 RMK AO2=
200912140552 METAR KATL 140552Z 00000KT 1/2SM R09R/1800V2400FT FG OVC002 09/09 A3009 RMK AO2 SLP194 60000 T00890089 10094 20089 56004=
200912140536 SPECI KATL 140536Z 00000KT 1/2SM R09R/2000V2200FT FG OVC002 09/09 A3009 RMK AO2=
200912140536 SPECI KATL 140536Z 00000KT 1/2SM R09R/2000V2200FT FG OVC002 09/09 A3009 RMK AO2=
200912140452 METAR KATL 140452Z 28003KT 1/2SM R09R/P6000FT FG OVC002 09/09 A3009 RMK AO2 SLP194 T00940089 400940017=
200912140352 METAR KATL 140352Z 30005KT 1/2SM R09R/5000VP6000FT BR OVC002 09/09 A3010 RMK AO2 SFC VIS 1 SLP198 T00940089=
200912140316 SPECI KATL 140316Z 00000KT 1/2SM R09R/5000VP6000FT BR OVC002 09/09 A3010 RMK AO2 SFC VIS 3/4=
200912140316 SPECI KATL 140316Z 00000KT 1/2SM R09R/5000VP6000FT BR OVC002 09/09 A3010 RMK AO2 SFC VIS 3/4=
200912140309 SPECI KATL 140309Z 00000KT 1/2SM R09R/P6000FT BR OVC001 09/09 A3011 RMK AO2 SFC VIS 1=
200912140309 SPECI KATL 140309Z 00000KT 1/2SM R09R/P6000FT BR OVC001 09/09 A3011 RMK AO2 SFC VIS 1=
200912140252 METAR KATL 140252Z 30003KT 1 1/4SM BR OVC003 09/09 A3010 RMK AO2 SFC VIS 1 1/2 SLP199 60000 T00890089 51002=
200912140152 METAR KATL 140152Z 28004KT 1 1/4SM BR OVC004 09/08 A3010 RMK AO2 SFC VIS 2 DZB33E51 SLP198 CIG 002V007 P0000 T00890083=
200912140059 SPECI KATL 140059Z 29003KT 1 1/4SM BR BKN002 OVC007 09/08 A3010 RMK AO2 SFC VIS 1 1/2=
200912140059 SPECI KATL 140059Z 29003KT 1 1/4SM BR BKN002 OVC007 09/08 A3010 RMK AO2 SFC VIS 1 1/2=
200912140052 METAR KATL 140052Z 28003KT 1/4SM BR BKN002 OVC007 09/08 A3010 RMK AO2 SFC VIS 1 1/2 SLP198 T00890083=
200912132352 METAR KATL 132352Z 35004KT 1/4SM R09R/P6000FT FG OVC002 09/08 A3010 RMK AO2 SFC VIS 1/2 CIG 001V004 SLP197 CIG 001V004 60000 T00890083 10089 20050 53002=
200912132252 METAR KATL 132252Z 00000KT 1/4SM R09R/2800V6000FT FG OVC002 08/08 A3009 RMK AO2 SFC VIS 1/2 SLP196 CIG 001V004 TWRINC T00830078=
200912132235 SPECI KATL 132235Z 00000KT 1/4SM R09R/1800V3000FT FG OVC002 08/08 A3009 RMK AO2 TWR VIS 1/4 TWRINC=
200912132235 SPECI KATL 132235Z 00000KT 1/4SM R09R/1800V3000FT FG OVC002 08/08 A3009 RMK AO2 TWR VIS 1/4 TWRINC=
200912132221 SPECI KATL 132221Z 00000KT 1/4SM R09R/1800V2200FT FG OVC002 08/08 A3009 RMK AO2 TWR VIS 1/4 TWRINC=
200912132221 SPECI KATL 132221Z 00000KT 1/4SM R09R/1800V2200FT FG OVC002 08/08 A3009 RMK AO2 TWR VIS 1/4 TWRINC=
200912132152 METAR KATL 132152Z 00000KT 1/4SM R09R/5500VP6000FT BR OVC002 08/08 A3009 RMK AO2 SFC VIS 1 SLP193 TWRINC T00830083=
200912132052 METAR KATL 132052Z 31003KT 1/4SM BR OVC004 08/08 A3009 RMK AO2 SFC VIS 2 SLP196 60000 T00830078 55004=
200912131952 METAR KATL 131952Z 00000KT 1/4SM R09R/P6000FT BR OVC002 07/07 A3008 RMK AO2 SFC VIS 1 DZE39 SLP191 TWRINC P0000 T00720072=
200912131852 METAR KATL 131852Z 00000KT 1/4SM R09R/2800V4500FT -DZ FG OVC002 06/06 A3008 RMK AO2 DZB52 SLP192 TWRINC P0000 T00610061=
200912131839 SPECI KATL 131839Z 00000KT 1/4SM R09R/2600V3000FT FG OVC002 06/06 A3009 RMK AO2 SFC VIS 1/2 TWRINC=
200912131839 SPECI KATL 131839Z 00000KT 1/4SM R09R/2600V3000FT FG OVC002 06/06 A3009 RMK AO2 SFC VIS 1/2 TWRINC=
200912131752 METAR KATL 131752Z 00000KT 3/4SM R09R/5500VP6000FT BR OVC002 05/05 A3011 RMK AO2 SFC VIS 1 1/4 SLP201 TWRINC 60025 T00500050 10050 20022 58009=
200912131652 METAR KATL 131652Z 10004KT 3/4SM BR OVC004 04/04 A3013 RMK AO2 SFC VIS 1 3/4 RAE38 SLP209 P0005 T00440044=
200912131643 SPECI KATL 131643Z 09004KT 3/4SM BR OVC004 04/04 A3014 RMK AO2 SFC VIS 1 1/4 RAE38 P0005=
200912131643 SPECI KATL 131643Z 09004KT 3/4SM BR OVC004 04/04 A3014 RMK AO2 SFC VIS 1 1/4 RAE38 P0005=
200912131552 METAR KATL 131552Z 00000KT 1/8SM R09R/4000V6000FT -RA FG OVC002 04/03 A3015 RMK AO2 SFC VIS 1/2 RAB18 SLP216 TWRINC P0001 T00390033=
200912131510 SPECI KATL 131510Z 12005KT 1/8SM R09R/3500V6000FT FG OVC002 03/03 A3014 RMK AO2 SFC VIS 1/2 TWRINC=
200912131510 SPECI KATL 131510Z 12005KT 1/8SM R09R/3500V6000FT FG OVC002 03/03 A3014 RMK AO2 SFC VIS 1/2 TWRINC=
200912131452 METAR KATL 131452Z 11005KT 1/8SM BR OVC002 03/03 A3013 RMK AO2 SFC VIS 1 1/2 RAB1354E12B43E52UPB1355E1356 SLP212 TWRINC P0000 60019 T00330028 55000=
200912131352 METAR KATL 131352Z 10005KT 1/4SM BR OVC002 03/02 A3013 RMK AO2 SFC VIS 5 RAE48 SLP209 TWRINC P0013 T00280022=
200912131252 METAR KATL 131252Z 10006KT 1/8SM R09R/P6000FT RA BR OVC002 02/02 A3011 RMK AO2 SFC VIS 3/4 SLP206 P0006 T00220022=
200912131152 METAR KATL 131152Z 10009KT 1/8SM R09R/2800V3500FT -RA FG OVC002 02/02 A3013 RMK AO2 SFC VIS 1/2 RAB39 SLP213 P0000 60004 70014 T00220017 10022 20017 56018=
200912131052 METAR KATL 131052Z 10006KT 1/8SM R09R/2000V2400FT FG OVC002 02/02 A3015 RMK AO2 SFC VIS 1/4 RAB0957E01 SLP218 P0000 T00170017=
200912131020 SPECI KATL 131020Z 10007KT 1/8SM R09R/2000V2200FT FG OVC002 02/02 A3016 RMK AO2 SFC VIS 1/4 RAB0957E01 P0000=
200912131020 SPECI KATL 131020Z 10007KT 1/8SM R09R/2000V2200FT FG OVC002 02/02 A3016 RMK AO2 SFC VIS 1/4 RAB0957E01 P0000=
200912130952 METAR KATL 130952Z 09008KT 1/8SM R09R/2200V2400FT FG OVC002 02/02 A3016 RMK AO2 SFC VIS 1/4 RAE23 SLP223 P0000 T00170017=
200912130852 METAR KATL 130852Z 09011KT 1/8SM R09R/5000VP6000FT -RA BR OVC002 02/01 A3019 RMK AO2 SFC VIS 1 RAE09B52 SLP231 P0001 60004 T00170011 56022=
200912130752 METAR KATL 130752Z 10011KT 1/8SM -RA BR OVC002 02/02 A3022 RMK AO2 SFC VIS 1 3/4 PRESFR SLP240 P0003 T00170017=
200912130652 METAR KATL 130652Z 10012KT 1/8SM R09R/2600V4000FT -RA FG OVC002 02/02 A3022 RMK AO2 SFC VIS 1/2 RAB42 SLP240 P0000 T00220017=
200912130552 METAR KATL 130552Z 08014KT 1/8SM R09R/3000V3500FT FG OVC002 02/02 A3025 RMK AO2 SFC VIS 1/4 SLP253 RAB02E20DZE02 P0000 60002 T00220017 10022 20011 58023=
200912130512 SPECI KATL 130512Z 07012KT 1/8SM R09R/6000VP6000FT -RA BR OVC002 02/02 A3027 RMK AO2 SFC VIS 3/4 RAB02DZE02 P0000=
200912130512 SPECI KATL 130512Z 07012KT 1/8SM R09R/6000VP6000FT -RA BR OVC002 02/02 A3027 RMK AO2 SFC VIS 3/4 RAB02DZE02 P0000=
200912130452 METAR KATL 130452Z 09013KT 1 1/2SM -DZ BR OVC003 02/02 A3028 RMK AO2 RAB03E29DZB50 SLP263 P0000 T00220017 400390006=
200912130352 METAR KATL 130352Z 08011KT 1 1/2SM BR OVC003 02/01 A3031 RMK AO2 SFC VIS 2 1/2 SLP273 T00170011=
200912130258 SPECI KATL 130258Z 09012KT 1 1/2SM BR OVC003 01/01 A3032 RMK AO2 SFC VIS 2 1/2=
200912130258 SPECI KATL 130258Z 09012KT 1 1/2SM BR OVC003 01/01 A3032 RMK AO2 SFC VIS 2 1/2=
200912130252 METAR KATL 130252Z 09010KT 2SM BR OVC003 01/01 A3032 RMK AO2 SFC VIS 3 DZE28 SLP278 P0000 60002 T00110006 58008=
200912130228 SPECI KATL 130228Z 09013KT 2SM BR OVC004 01/01 A3033 RMK AO2 SFC VIS 3 DZE28 P0000=
200912130228 SPECI KATL 130228Z 09013KT 2SM BR OVC004 01/01 A3033 RMK AO2 SFC VIS 3 DZE28 P0000=
200912130212 SPECI KATL 130212Z 09010KT 3SM -DZ BR OVC004 01/00 A3033 RMK AO2 SFC VIS 5 CIG 004V010 P0000=
200912130212 SPECI KATL 130212Z 09010KT 3SM -DZ BR OVC004 01/00 A3033 RMK AO2 SFC VIS 5 CIG 004V010 P0000=
200912130157 SPECI KATL 130157Z 09012G19KT 3SM -DZ BR OVC006 01/00 A3033 RMK AO2 SFC VIS 5 CIG 005V010 P0000=
200912130157 SPECI KATL 130157Z 09012G19KT 3SM -DZ BR OVC006 01/00 A3033 RMK AO2 SFC VIS 5 CIG 005V010 P0000=
200912130152 METAR KATL 130152Z 09014KT 5SM -DZ BR BKN006 OVC011 01/00 A3032 RMK AO2 RAE38DZB38 PRESFR SLP277 P0001 T00110000=
200912130122 SPECI KATL 130122Z 09012KT 6SM -RA BR BKN008 OVC014 01/M01 A3035 RMK AO2 P0001=
200912130122 SPECI KATL 130122Z 09012KT 6SM -RA BR BKN008 OVC014 01/M01 A3035 RMK AO2 P0001=
200912130115 SPECI KATL 130115Z 09012KT 6SM -RA BR FEW008 OVC014 01/M01 A3036 RMK AO2 P0001=
200912130115 SPECI KATL 130115Z 09012KT 6SM -RA BR FEW008 OVC014 01/M01 A3036 RMK AO2 P0001=
200912130052 METAR KATL 130052Z 09011KT 6SM -RA BR FEW010 OVC014 01/M01 A3036 RMK AO2 SLP291 P0001 T00111006=
200912130040 SPECI KATL 130040Z 09008KT 7SM -RA OVC014 01/M01 A3038 RMK AO2 P0001=
200912130040 SPECI KATL 130040Z 09008KT 7SM -RA OVC014 01/M01 A3038 RMK AO2 P0001=
200912122352 METAR KATL 122352Z 10011KT 8SM -RA OVC015 01/M01 A3035 RMK AO2 SLP286 P0004 60008 T00111011 10033 20011 56006=
200912122349 SPECI KATL 122349Z 09012KT 8SM -RA OVC015 01/M01 A3035 RMK AO2 P0004=
200912122349 SPECI KATL 122349Z 09012KT 8SM -RA OVC015 01/M01 A3035 RMK AO2 P0004=
200912122252 METAR KATL 122252Z 10011KT 6SM -RA OVC014 01/M02 A3035 RMK AO2 SLP287 P0001 T00111017=
200912122152 METAR KATL 122152Z 09013KT 8SM -RA OVC014 02/M02 A3034 RMK AO2 RAE08B27 SLP284 P0000 T00171022=
200912122052 METAR KATL 122052Z 08013KT 10SM -RA OVC016 02/M03 A3037 RMK AO2 SLP293 P0003 60003 T00171033 55019=
200912121952 METAR KATL 121952Z 09011KT 10SM -RA OVC020 03/M05 A3036 RMK AO2 RAE19B45 SLP292 P0000 T00281050=
200912121852 METAR KATL 121852Z 08010KT 10SM -RA OVC024 03/M07 A3039 RMK AO2 SLP299 P0000 T00281067=
200912121752 METAR KATL 121752Z 09011KT 10SM -RA BKN024 BKN037 OVC048 03/M08 A3042 RMK AO2 RAB45 SLP311 P0000 60000 T00331078 10039 20011 58023=
200912121745 SPECI KATL 121745Z 10011KT 10SM -RA BKN024 BKN039 OVC048 04/M08 A3042 RMK AO2 RAB45 P0000=
200912121745 SPECI KATL 121745Z 10011KT 10SM -RA BKN024 BKN039 OVC048 04/M08 A3042 RMK AO2 RAB45 P0000=
200912121733 SPECI KATL 121733Z 09010KT 10SM SCT024 BKN039 OVC055 03/M08 A3043 RMK AO2=
200912121733 SPECI KATL 121733Z 09010KT 10SM SCT024 BKN039 OVC055 03/M08 A3043 RMK AO2=
200912121652 METAR KATL 121652Z 08010KT 10SM OVC028 03/M09 A3047 RMK AO2 SLP326 T00331089=
200912121624 SPECI KATL 121624Z 08009KT 10SM OVC028 03/M09 A3048 RMK AO2=
200912121624 SPECI KATL 121624Z 08009KT 10SM OVC028 03/M09 A3048 RMK AO2=
200912121552 METAR KATL 121552Z 07013KT 10SM BKN030 BKN075 BKN150 OVC200 03/M10 A3048 RMK AO2 SLP329 T00281100=
200912121452 METAR KATL 121452Z 09013KT 10SM BKN075 BKN150 OVC200 02/M11 A3049 RMK AO2 SLP335 T00221106 51018=
200912121352 METAR KATL 121352Z 09010G15KT 10SM BKN140 OVC250 02/M10 A3049 RMK AO2 SLP333 T00171100=
200912121252 METAR KATL 121252Z 08012KT 10SM BKN140 OVC250 01/M10 A3046 RMK AO2 SLP324 T00111100=
200912121152 METAR KATL 121152Z 08011KT 10SM BKN150 BKN250 01/M09 A3044 RMK AO2 SLP316 T00111094 10011 20006 55004=
200912121052 METAR KATL 121052Z COR 09011KT 10SM BKN150 BKN250 01/M10 A3043 RMK AO2 SLP313 T00111100=
200912120952 METAR KATL 120952Z 09008KT 10SM SCT150 OVC250 01/M10 A3043 RMK AO2 SLP312 T00111100=
200912120852 METAR KATL 120852Z 09007KT 10SM BKN150 OVC250 01/M09 A3045 RMK AO2 SLP320 T00061094 51002=
200912120752 METAR KATL 120752Z 09008KT 10SM BKN150 OVC250 01/M09 A3045 RMK AO2 SLP319 T00061094=
200912120652 METAR KATL 120652Z 09007KT 10SM BKN150 OVC250 01/M10 A3045 RMK AO2 SLP321 T00111100=
200912120552 METAR KATL 120552Z 10008KT 10SM SCT150 BKN200 OVC250 01/M11 A3045 RMK AO2 SLP318 T00111106 10033 20011 56001=
200912120452 METAR KATL 120452Z 09007KT 10SM SCT150 BKN250 01/M10 A3045 RMK AO2 SLP322 T00111100 400501028=
200912120352 METAR KATL 120352Z 09008KT 10SM BKN150 OVC200 01/M09 A3043 RMK AO2 SLP315 T00111094=
200912120252 METAR KATL 120252Z 11006KT 10SM BKN150 OVC200 02/M10 A3045 RMK AO2 SLP321 T00171100 53010=
200912120152 METAR KATL 120152Z 11005KT 10SM BKN150 OVC200 02/M11 A3043 RMK AO2 SLP317 T00221106=
200912120052 METAR KATL 120052Z 11006KT 10SM BKN150 OVC200 03/M11 A3043 RMK AO2 SLP315 T00281106=
200912112352 METAR KATL 112352Z 12008KT 10SM BKN150 OVC200 03/M11 A3042 RMK AO2 SLP311 T00331106 10050 20028 53013=
200912112252 METAR KATL 112252Z 09006KT 10SM BKN150 OVC200 03/M11 A3040 RMK AO2 SLP304 VIRGA E-OHD-W T00331106=
200912112152 METAR KATL 112152Z 07006KT 10SM FEW150 BKN180 BKN250 04/M12 A3040 RMK AO2 SLP303 VIRGA NE & S & W T00391117=
200912112052 METAR KATL 112052Z 06008KT 10SM FEW150 BKN180 BKN250 04/M13 A3038 RMK AO2 SLP296 VIRGA E-SE-S-SW-W T00441128 55002=
200912111952 METAR KATL 111952Z 36003KT 10SM FEW100 SCT150 BKN180 OVC250 04/M13 A3038 RMK AO2 SLP296 T00441128=
200912111852 METAR KATL 111852Z 00000KT 10SM FEW100 BKN150 BKN200 03/M14 A3037 RMK AO2 SLP294 T00331139=
200912111752 METAR KATL 111752Z VRB04KT 10SM FEW100 BKN150 OVC200 03/M14 A3039 RMK AO2 SLP299 T00331139 10033 21028 58010=
200912111652 METAR KATL 111652Z 03003KT 10SM FEW110 BKN150 BKN200 02/M14 A3041 RMK AO2 SLP306 T00221144=
200912111552 METAR KATL 111552Z 34008KT 10SM BKN100 BKN150 BKN200 01/M13 A3043 RMK AO2 SLP314 VIRGA N T00111128=
200912111452 METAR KATL 111452Z 33008KT 10SM FEW100 BKN150 BKN200 M01/M13 A3042 RMK AO2 SLP311 T10061133 53026=
200912111352 METAR KATL 111352Z 34009KT 10SM SCT150 BKN300 M02/M13 A3037 RMK AO2 SLP295 T10171128=
200912111252 METAR KATL 111252Z 34006KT 10SM FEW150 SCT300 M02/M13 A3036 RMK AO2 SLP289 T10221133=
200912111152 METAR KATL 111152Z 32006KT 10SM SCT250 M02/M13 A3034 RMK AO2 SLP284 T10221133 11011 21028 53015=
200912111052 METAR KATL 111052Z 34006KT 10SM SCT200 M02/M13 A3031 RMK AO2 SLP275 T10221133=
200912110952 METAR KATL 110952Z 33007KT 10SM SCT200 M02/M14 A3032 RMK AO2 SLP275 T10171139=
200912110852 METAR KATL 110852Z 34009KT 10SM OVC150 M01/M14 A3029 RMK AO2 SLP266 T10111139 53007=
200912110752 METAR KATL 110752Z 35011KT 10SM BKN150 M01/M13 A3027 RMK AO2 SLP260 T10111133=
200912110652 METAR KATL 110652Z 33010KT 10SM SCT150 BKN250 M01/M12 A3028 RMK AO2 SLP261 T10111122=
200912110552 METAR KATL 110552Z 33009KT 10SM FEW150 SCT250 M01/M13 A3027 RMK AO2 SLP259 T10111133 10028 21011 50006=
200912110452 METAR KATL 110452Z 32009KT 10SM SCT250 M01/M13 A3028 RMK AO2 SLP261 T10061128 400721006=
200912110352 METAR KATL 110352Z 33010KT 10SM SCT250 M01/M13 A3027 RMK AO2 SLP258 T10061128=
200912110252 METAR KATL 110252Z 31007KT 10SM SCT250 00/M13 A3025 RMK AO2 SLP254 T00001128 51019=
200912110152 METAR KATL 110152Z 32009KT 10SM CLR 01/M12 A3024 RMK AO2 SLP248 T00111122=
200912110052 METAR KATL 110052Z 32007KT 10SM BKN250 02/M12 A3022 RMK AO2 SLP241 T00171122=
200912102352 METAR KATL 102352Z 31006KT 10SM FEW200 BKN250 02/M11 A3020 RMK AO2 SLP234 T00221106 10072 20022 52018=
200912102252 METAR KATL 102252Z 31007KT 10SM SCT200 BKN250 03/M11 A3017 RMK AO2 SLP226 T00331111=
200912102152 METAR KATL 102152Z 33013G21KT 10SM FEW200 BKN250 05/M13 A3016 RMK AO2 SLP221 T00501128=
200912102052 METAR KATL 102052Z 30008KT 10SM FEW200 BKN250 06/M11 A3014 RMK AO2 SLP213 T00611106 53011=
200912101952 METAR KATL 101952Z 32018G26KT 10SM FEW200 BKN250 07/M11 A3012 RMK AO2 PK WND 32026/1950 SLP205 T00671106=
200912101852 METAR KATL 101852Z 32013KT 10SM FEW200 BKN250 06/M10 A3012 RMK AO2 SLP203 T00611100=
200912101752 METAR KATL 101752Z 30014G20KT 10SM FEW250 06/M08 A3011 RMK AO2 SLP200 T00611083 10061 20006 50006=
200912101652 SPECI KATL 101652Z 32012G23KT 10SM FEW200 SCT250 05/M09 A3011 RMK AO2 SLP202 T00501089=
200912101552 METAR KATL 101552Z 32011G18KT 10SM FEW200 04/M09 A3010 RMK AO2 SLP199 T00391089=
200912101452 METAR KATL 101452Z 32012G19KT 10SM FEW200 02/M08 A3009 RMK AO2 SLP193 T00221078 51031=
200912101352 METAR KATL 101352Z 31015G19KT 10SM FEW250 01/M07 A3006 RMK AO2 SLP183 T00111072=
200912101252 METAR KATL 101252Z 31013KT 10SM FEW250 01/M08 A3003 RMK AO2 SLP172 T00061078=
200912101152 METAR KATL 101152Z 31015G21KT 10SM SCT150 BKN250 01/M08 A2999 RMK AO2 SLP160 70001 T00111078 10061 20011 53028=
200912101052 METAR KATL 101052Z 31013G20KT 10SM SCT150 BKN250 02/M05 A2995 RMK AO2 SLP146 T00221050=
200912100952 METAR KATL 100952Z 31012KT 10SM SCT150 BKN250 03/M04 A2993 RMK AO2 SLP135 T00281039=
200912100852 METAR KATL 100852Z 31009G16KT 10SM BKN150 BKN250 04/M04 A2991 RMK AO2 SLP127 T00391044 51016=
200912100752 METAR KATL 100752Z 28007KT 10SM SCT150 BKN250 04/M04 A2989 RMK AO2 SLP123 T00441039=
200912100652 METAR KATL 100652Z 31014G19KT 10SM BKN150 BKN250 05/M05 A2988 RMK AO2 SLP117 T00501050=
200912100552 METAR KATL 100552Z 29012G19KT 10SM FEW150 BKN250 06/M04 A2986 RMK AO2 SLP110 T00611044 10133 20056 51022=
200912100452 METAR KATL 100452Z 30012KT 10SM SCT150 BKN250 07/M04 A2984 RMK AO2 SLP104 T00721044 402060072=
200912100352 METAR KATL 100352Z 29013G20KT 10SM FEW150 BKN250 09/M05 A2982 RMK AO2 SLP095 T00891050=
200912100252 METAR KATL 100252Z 28009KT 10SM BKN150 BKN250 09/M03 A2979 RMK AO2 SLP087 T00941028 53015=
200912100152 METAR KATL 100152Z 28012KT 10SM FEW150 BKN250 11/M04 A2978 RMK AO2 SLP082 T01061039=
200912100052 METAR KATL 100052Z 29013KT 10SM FEW150 BKN250 12/M03 A2976 RMK AO2 SLP075 T01171028=
200912092352 METAR KATL 092352Z 27013G19KT 10SM FEW150 SCT200 BKN250 13/M03 A2975 RMK AO2 SLP071 T01331028 10206 20133 53024=
200912092252 METAR KATL 092252Z 28014G21KT 10SM FEW150 SCT200 BKN250 14/M04 A2973 RMK AO2 PK WND 25026/2234 SLP063 T01441039=
200912092152 METAR KATL 092152Z 28012KT 10SM SCT150 SCT250 17/M02 A2969 RMK AO2 SLP050 T01671022=
200912092052 METAR KATL 092052Z 26013G23KT 10SM FEW150 BKN250 18/M02 A2967 RMK AO2 PK WND 28035/2008 SLP042 T01831022 53003=
200912091952 METAR KATL 091952Z 26020G27KT 10SM FEW250 19/M02 A2966 RMK AO2 PK WND 25031/1854 SLP039 T01941017=
200912091852 METAR KATL 091852Z 26017G30KT 10SM CLR 20/02 A2966 RMK AO2 PK WND 24036/1812 SLP039 T02000017=
200912091752 METAR KATL 091752Z COR 27013G24KT 10SM FEW060 19/06 A2966 RMK AO2 PK WND 29028/1729 SLP042 T01940056 10194 20167 58003=
200912091652 METAR KATL 091652Z 26008G21KT 240V300 10SM FEW048 19/06 A2967 RMK AO2 PK WND 25026/1608 SLP046 T01890056=
200912091552 METAR KATL 091552Z 26015G21KT 10SM FEW040 SCT060 18/07 A2969 RMK AO2 PK WND 28026/1522 SLP051 T01830072=
200912091454 SPECI KATL 091454Z 25011G17KT 10SM SCT016 BKN027 BKN040 17/14 A2967 RMK AO2 $=
200912091454 SPECI KATL 091454Z 25011G17KT 10SM SCT016 BKN027 BKN040 17/14 A2967 RMK AO2 $=
200912091452 METAR KATL 091452Z 25009G18KT 10SM SCT016 BKN030 OVC055 17/14 A2967 RMK AO2 SLP047 60001 T01720144 53015 $=
200912091352 METAR KATL 091352Z 24008G17KT 10SM SCT013 BKN036 17/15 A2965 RMK AO2 SLP037 T01670150=
200912091313 SPECI KATL 091313Z 24009G17KT 10SM BKN015 17/14 A2963 RMK AO2=
200912091313 SPECI KATL 091313Z 24009G17KT 10SM BKN015 17/14 A2963 RMK AO2=
200912091252 METAR KATL 091252Z 24013G18KT 10SM FEW019 SCT085 SCT250 17/14 A2962 RMK AO2 SLP031 P0001 T01670144=
200912091240 SPECI KATL 091240Z 23010G18KT 10SM FEW019 SCT085 SCT250 16/14 A2963 RMK AO2=
200912091240 SPECI KATL 091240Z 23010G18KT 10SM FEW019 SCT085 SCT250 16/14 A2963 RMK AO2=
200912091152 METAR KATL 091152Z 22005KT 10SM BKN019 BKN150 16/14 A2963 RMK AO2 SLP032 60059 70125 T01610144 10194 20094 53014 $=
200912091112 SPECI KATL 091112Z 24009KT 10SM BKN021 BKN029 OVC037 17/15 A2962 RMK AO2 $=
200912091112 SPECI KATL 091112Z 24009KT 10SM BKN021 BKN029 OVC037 17/15 A2962 RMK AO2 $=
200912091052 METAR KATL 091052Z 24009KT 10SM SCT025 17/15 A2961 RMK AO2 SLP026 T01720150 $=
200912090952 METAR KATL 090952Z 24012G22KT 10SM FEW085 SCT100 17/14 A2959 RMK AO2 PK WND 24036/0854 WSHFT 0841 RAE27 SLP020 P0021 T01720144 $=
200912090908 SPECI KATL 090908Z 23018G31KT 7SM -RA BKN010 OVC035 19/17 A2958 RMK AO2 PK WND 24036/0854 WSHFT 0841 P0020 $=
200912090908 SPECI KATL 090908Z 23018G31KT 7SM -RA BKN010 OVC035 19/17 A2958 RMK AO2 PK WND 24036/0854 WSHFT 0841 P0020 $=
200912090901 SPECI KATL 090901Z 24023G36KT 1 3/4SM R09R/4500VP6000FT -RA BR BKN008 OVC013 19/17 A2958 RMK AO2 PK WND 24036/0854 WSHFT 0841 P0019 $=
200912090901 SPECI KATL 090901Z 24023G36KT 1 3/4SM R09R/4500VP6000FT -RA BR BKN008 OVC013 19/17 A2958 RMK AO2 PK WND 24036/0854 WSHFT 0841 P0019 $=
200912090852 METAR KATL 090852Z 24023G33KT 1 1/2SM R09R/3000VP6000FT -RA BR BKN008 OVC013 19/18 A2958 RMK AO2 PK WND 25033/0851 TSB15E50RAB0755 PRESRR SLP015 OCNL LTGIC NE TS MOV NE P0037 60038 T01890178 55029 $=
200912090848 SPECI KATL 090848Z 26016G27KT 3SM R09R/5500VP6000FT -TSRA BR BKN013CB OVC019 19/18 A2956 RMK AO2 PK WND 20032/0835 TSB15RAB0755 OCNL LTGIC SW-NW TS SW-NW MOV NE P0037 $=
200912090848 SPECI KATL 090848Z 26016G27KT 3SM R09R/5500VP6000FT -TSRA BR BKN013CB OVC019 19/18 A2956 RMK AO2 PK WND 20032/0835 TSB15RAB0755 OCNL LTGIC SW-NW TS SW-NW MOV NE P0037 $=
200912090838 SPECI KATL 090838Z 20022G32KT 1 3/4SM R09R/5500VP6000FT +TSRA BR BKN013CB OVC019 18/18 A2954 RMK AO2 PK WND 20032/0835 TSB15RAB0755 OCNL LTGIC SW-NW TS SW-NW MOV NE P0023 $=
200912090838 SPECI KATL 090838Z 20022G32KT 1 3/4SM R09R/5500VP6000FT +TSRA BR BKN013CB OVC019 18/18 A2954 RMK AO2 PK WND 20032/0835 TSB15RAB0755 OCNL LTGIC SW-NW TS SW-NW MOV NE P0023 $=
200912090821 SPECI KATL 090821Z 20021G30KT 9SM +TSRA BKN013CB OVC019 18/18 A2956 RMK AO2 PK WND 20030/0813 TSB15RAB0755 FRQ LTGIC W-NW TS W-NW MOV NE P0008 $=
200912090821 SPECI KATL 090821Z 20021G30KT 9SM +TSRA BKN013CB OVC019 18/18 A2956 RMK AO2 PK WND 20030/0813 TSB15RAB0755 FRQ LTGIC W-NW TS W-NW MOV NE P0008 $=
200912090752 METAR KATL 090752Z 20017G23KT 6SM BR FEW006 BKN011 OVC016 18/17 A2957 RMK AO2 PK WND 21028/0735 RAE38 SLP011 P0000 T01780167 $=
200912090744 SPECI KATL 090744Z 21014G28KT 1/2SM BR FEW004 BKN012 OVC030 17/17 A2957 RMK AO2 PK WND 21028/0735 SFC VIS 6 RAE38 P0000 $=
200912090744 SPECI KATL 090744Z 21014G28KT 1/2SM BR FEW004 BKN012 OVC030 17/17 A2957 RMK AO2 PK WND 21028/0735 SFC VIS 6 RAE38 P0000 $=
200912090718 SPECI KATL 090718Z 00000KT 1/2SM R09R/2000V5500FT -RA FG BKN001 BKN008 OVC011 12/12 A2960 RMK AO2 P0000 $=
200912090718 SPECI KATL 090718Z 00000KT 1/2SM R09R/2000V5500FT -RA FG BKN001 BKN008 OVC011 12/12 A2960 RMK AO2 P0000 $=
200912090652 METAR KATL 090652Z 13005KT 1/2SM R09R/1800V2200FT -RA FG VV001 11/11 A2962 RMK AO2 SLP031 P0001 T01060106 $=
200912090639 SPECI KATL 090639Z 13007KT 1/2SM R09R/2200V2800FT -RA BR OVC001 11/11 A2964 RMK AO2 SFC VIS 3/4 P0001 $=
200912090639 SPECI KATL 090639Z 13007KT 1/2SM R09R/2200V2800FT -RA BR OVC001 11/11 A2964 RMK AO2 SFC VIS 3/4 P0001 $=
200912090628 SPECI KATL 090628Z 13006KT 1/2SM R09R/2000V2200FT -RA BR OVC001 11/11 A2965 RMK AO2 SFC VIS 3/4 P0001 $=
200912090628 SPECI KATL 090628Z 13006KT 1/2SM R09R/2000V2200FT -RA BR OVC001 11/11 A2965 RMK AO2 SFC VIS 3/4 P0001 $=
200912090626 SPECI KATL 090626Z 13006KT 3/4SM R09R/2000V2200FT -RA BR OVC001 11/11 A2965 RMK AO2 TWR VIS 1 P0001 $=
200912090626 SPECI KATL 090626Z 13006KT 3/4SM R09R/2000V2200FT -RA BR OVC001 11/11 A2965 RMK AO2 TWR VIS 1 P0001 $=
200912090552 METAR KATL 090552Z 14008KT 1SM R09R/3500V5000FT -RA BR OVC002 09/09 A2967 RMK AO2 RAE14B49 SLP049 P0001 60022 T00940094 10094 20067 58044 $=
200912090452 METAR KATL 090452Z 12010KT 1SM R09R/6000VP6000FT -RA BR OVC002 08/08 A2972 RMK AO2 SFC VIS 2 PRESFR SLP066 P0002 T00830078 400830056 $=
200912090352 METAR KATL 090352Z 12009KT 1SM R09R/4500V6000FT -RA BR OVC002 08/07 A2977 RMK AO2 SFC VIS 1 1/4 SLP084 P0002 T00780072 $=
200912090345 SPECI KATL 090345Z 12008KT 1SM R09R/4500V5000FT -RA BR OVC002 08/07 A2978 RMK AO2 SFC VIS 1 1/4 P0002 $=
200912090345 SPECI KATL 090345Z 12008KT 1SM R09R/4500V5000FT -RA BR OVC002 08/07 A2978 RMK AO2 SFC VIS 1 1/4 P0002 $=
200912090318 SPECI KATL 090318Z 13006KT 3/4SM R09R/2800V3500FT -RA BR OVC002 08/07 A2979 RMK AO2 TWR VIS 1 P0001 $=
200912090318 SPECI KATL 090318Z 13006KT 3/4SM R09R/2800V3500FT -RA BR OVC002 08/07 A2979 RMK AO2 TWR VIS 1 P0001 $=
200912090252 METAR KATL 090252Z 12008KT 1SM -RA BR OVC002 07/07 A2980 RMK AO2 SFC VIS 2 SLP095 P0002 60017 T00720072 58022 $=
200912090152 METAR KATL 090152Z 11011G19KT 1SM -RA BR OVC003 07/07 A2984 RMK AO2 SFC VIS 6 SLP107 CIG 002V005 P0000 T00720067 $=
200912090143 SPECI KATL 090143Z 11014G19KT 1SM -RA BR OVC003 07/06 A2984 RMK AO2 SFC VIS 6 P0000 $=
200912090143 SPECI KATL 090143Z 11014G19KT 1SM -RA BR OVC003 07/06 A2984 RMK AO2 SFC VIS 6 P0000 $=
200912090104 SPECI KATL 090104Z 11013G18KT 2SM -RA BR OVC004 07/06 A2986 RMK AO2 SFC VIS 6 CIG 002V006 P0000 $=
200912090104 SPECI KATL 090104Z 11013G18KT 2SM -RA BR OVC004 07/06 A2986 RMK AO2 SFC VIS 6 CIG 002V006 P0000 $=
200912090052 METAR KATL 090052Z 10011G17KT 6SM -RA BR OVC005 07/06 A2987 RMK AO2 SLP119 CIG 003V009 P0015 T00670061 $=
200912090050 SPECI KATL 090050Z 10012G17KT 6SM -RA BR OVC005 07/06 A2987 RMK AO2 CIG 003V009 P0015 $=
200912090050 SPECI KATL 090050Z 10012G17KT 6SM -RA BR OVC005 07/06 A2987 RMK AO2 CIG 003V009 P0015 $=
200912082352 METAR KATL 082352Z 10011KT 2SM RA BR OVC004 07/06 A2990 RMK AO2 SFC VIS 4 SLP127 CIG 003V007 P0013 60028 T00670061 10078 20067 56017 $=
200912082327 SPECI KATL 082327Z 12010KT 2SM -RA BR OVC004 07/06 A2988 RMK AO2 SFC VIS 5 CIG 002V007 P0010 $=
200912082327 SPECI KATL 082327Z 12010KT 2SM -RA BR OVC004 07/06 A2988 RMK AO2 SFC VIS 5 CIG 002V007 P0010 $=
200912082312 SPECI KATL 082312Z 10014G19KT 1 1/2SM RA BR OVC004 07/06 A2992 RMK AO2 SFC VIS 4 CIG 002V007 P0008 $=
200912082312 SPECI KATL 082312Z 10014G19KT 1 1/2SM RA BR OVC004 07/06 A2992 RMK AO2 SFC VIS 4 CIG 002V007 P0008 $=
200912082252 METAR KATL 082252Z 10013G19KT 3/4SM RA BR OVC003 07/07 A2991 RMK AO2 SFC VIS 4 DZE08RAB08 PRESFR SLP132 CIG 002V006 P0011 T00720067 $=
200912082152 METAR KATL 082152Z 10011KT 1/4SM R09R/P6000FT -DZ BR OVC002 07/07 A2993 RMK AO2 SFC VIS 1 SLP138 TWRINC P0000 T00720067 $=
200912082052 METAR KATL 082052Z 10012G22KT 1/4SM -DZ BR OVC002 07/07 A2995 RMK AO2 SFC VIS 2 RAE38DZB48 SLP145 TWRINC P0000 60004 T00720067 56033 $=
200912082014 SPECI KATL 082014Z 11013KT 1/4SM -RA BR OVC004 07/07 A2997 RMK AO2 SFC VIS 5 TWRINC P0000 $=
200912082014 SPECI KATL 082014Z 11013KT 1/4SM -RA BR OVC004 07/07 A2997 RMK AO2 SFC VIS 5 TWRINC P0000 $=
200912081952 METAR KATL 081952Z 10011G18KT 1SM -RA BR BKN004 OVC007 07/07 A2997 RMK AO2 SFC VIS 5 SLP152 P0001 T00720067=
200912081935 SPECI KATL 081935Z 09013KT 1SM -RA BR BKN004 OVC007 08/07 A2998 RMK AO2 SFC VIS 5 P0001 $=
200912081935 SPECI KATL 081935Z 09013KT 1SM -RA BR BKN004 OVC007 08/07 A2998 RMK AO2 SFC VIS 5 P0001 $=
200912081854 SPECI KATL 081854Z 09013KT 1 1/2SM -RA BR OVC003 08/07 A3001 RMK AO2 SFC VIS 5 P0000 $=
200912081854 SPECI KATL 081854Z 09013KT 1 1/2SM -RA BR OVC003 08/07 A3001 RMK AO2 SFC VIS 5 P0000 $=
200912081852 METAR KATL 081852Z 09011KT 2 1/2SM -RA BR OVC005 08/07 A3002 RMK AO2 SFC VIS 5 SLP168 P0003 T00780067 $=
200912081752 METAR KATL 081752Z 10011KT 2 1/2SM -RA BR OVC005 07/07 A3005 RMK AO2 SFC VIS 4 CIG 001V007 SLP180 P0005 60016 T00720067 10078 20067 58039 $=
200912081735 SPECI KATL 081735Z 11012G19KT 2 1/2SM -RA BR OVC005 07/07 A3006 RMK AO2 SFC VIS 5 PRESFR P0002 $=
200912081735 SPECI KATL 081735Z 11012G19KT 2 1/2SM -RA BR OVC005 07/07 A3006 RMK AO2 SFC VIS 5 PRESFR P0002 $=
200912081652 METAR KATL 081652Z 10012KT 1 1/2SM R09R/6000VP6000FT -RA BR OVC005 07/07 A3011 RMK AO2 SFC VIS 3 SLP200 P0005 T00720067 $=
200912081622 SPECI KATL 081622Z 10010KT 1 1/2SM -RA BR OVC005 07/07 A3013 RMK AO2 SFC VIS 4 P0001 $=
200912081622 SPECI KATL 081622Z 10010KT 1 1/2SM -RA BR OVC005 07/07 A3013 RMK AO2 SFC VIS 4 P0001 $=
200912081601 SPECI KATL 081601Z 10008KT 3/4SM -RA BR BKN004 OVC006 07/06 A3014 RMK AO2 SFC VIS 3 P0000 $=
200912081601 SPECI KATL 081601Z 10008KT 3/4SM -RA BR BKN004 OVC006 07/06 A3014 RMK AO2 SFC VIS 3 P0000 $=
200912081552 METAR KATL 081552Z 10010KT 1/2SM -RA BR BKN003 OVC006 07/06 A3013 RMK AO2 SFC VIS 3 SLP209 P0005 T00720061 $=
200912081529 SPECI KATL 081529Z AUTO 09012KT 1 1/2SM RA BR OVC006 07/06 A3015 RMK AO2 SFC VIS 2 CIG 001V009 P0002 TSNO=
200912081529 SPECI KATL 081529Z AUTO 09012KT 1 1/2SM RA BR OVC006 07/06 A3015 RMK AO2 SFC VIS 2 CIG 001V009 P0002 TSNO=
200912081521 SPECI KATL 081521Z 09013KT 2 1/2SM -RA BR OVC006 07/06 A3016 RMK AO2 SFC VIS 3 CIG 004V009 P0001=
200912081521 SPECI KATL 081521Z 09013KT 2 1/2SM -RA BR OVC006 07/06 A3016 RMK AO2 SFC VIS 3 CIG 004V009 P0001=
200912081452 METAR KATL 081452Z 08014KT 3SM -RA BR OVC008 07/06 A3017 RMK AO2 RAB39 SLP220 P0000 60001 T00670056 58001=
200912081443 SPECI KATL 081443Z 09013G18KT 3SM -RA BR OVC008 07/06 A3017 RMK AO2 RAB39 P0000=
200912081443 SPECI KATL 081443Z 09013G18KT 3SM -RA BR OVC008 07/06 A3017 RMK AO2 RAB39 P0000=
200912081352 METAR KATL 081352Z 07011KT 4SM BR BKN008 OVC017 08/06 A3017 RMK AO2 SLP220 T00780061=
200912081335 SPECI KATL 081335Z 08011KT 4SM BR BKN010 OVC017 07/06 A3016 RMK AO2=
200912081335 SPECI KATL 081335Z 08011KT 4SM BR BKN010 OVC017 07/06 A3016 RMK AO2=
200912081252 METAR KATL 081252Z 09009KT 6SM BR SCT010 OVC017 08/06 A3017 RMK AO2 RAE35 SLP222 P0001 T00780061=
200912081152 METAR KATL 081152Z 07004KT 6SM -RA BR OVC018 07/06 A3017 RMK AO2 RAB1056E04B44 SLP222 P0000 60000 T00720056 10078 20061 55000=
200912081105 SPECI KATL 081105Z 07008KT 6SM BR FEW007 SCT013 OVC020 07/06 A3014 RMK AO2 RAB1056E04 P0000=
200912081105 SPECI KATL 081105Z 07008KT 6SM BR FEW007 SCT013 OVC020 07/06 A3014 RMK AO2 RAB1056E04 P0000=
200912081052 METAR KATL 081052Z 08007KT 7SM OVC020 07/06 A3014 RMK AO2 SLP210 T00720056=
200912081035 SPECI KATL 081035Z 11007KT 6SM BR OVC020 07/06 A3012 RMK AO2=
200912081035 SPECI KATL 081035Z 11007KT 6SM BR OVC020 07/06 A3012 RMK AO2=
200912080952 METAR KATL 080952Z 07007KT 5SM BR OVC004 07/05 A3015 RMK AO2 SLP212 T00670050=
200912080852 METAR KATL 080852Z 06004KT 6SM BR BKN004 BKN021 OVC080 07/05 A3017 RMK AO2 SLP219 T00670050 56012=
200912080759 SPECI KATL 080759Z 09004KT 6SM BR BKN004 BKN007 OVC015 07/04 A3017 RMK AO2=
200912080759 SPECI KATL 080759Z 09004KT 6SM BR BKN004 BKN007 OVC015 07/04 A3017 RMK AO2=
200912080752 METAR KATL 080752Z 00000KT 6SM BR SCT005 BKN026 OVC080 07/04 A3018 RMK AO2 SLP221 T00670044=
200912080750 SPECI KATL 080750Z 00000KT 6SM BR SCT005 BKN026 OVC080 07/04 A3018 RMK AO2=
200912080750 SPECI KATL 080750Z 00000KT 6SM BR SCT005 BKN026 OVC080 07/04 A3018 RMK AO2=
200912080652 METAR KATL 080652Z 00000KT 6SM HZ BKN006 BKN026 OVC031 07/04 A3021 RMK AO2 SLP233 T00670039=
200912080552 METAR KATL 080552Z 07008KT 8SM SCT026 BKN032 OVC075 06/03 A3018 RMK AO2 SLP224 T00610033 10078 20050 58013=
200912080452 METAR KATL 080452Z 11003KT 8SM BKN035 BKN100 06/03 A3022 RMK AO2 SLP237 T00560028 401000006=
200912080352 METAR KATL 080352Z 00000KT 8SM FEW100 06/03 A3022 RMK AO2 SLP237 T00610028=
200912080252 METAR KATL 080252Z 00000KT 9SM BKN110 06/03 A3022 RMK AO2 SLP238 T00610033 53001=
200912080152 METAR KATL 080152Z 09005KT 9SM BKN110 07/03 A3021 RMK AO2 SLP236 T00670033=
200912080052 METAR KATL 080052Z 05006KT 9SM FEW100 08/03 A3022 RMK AO2 SLP239 T00780033=
200912072352 METAR KATL 072352Z 09005KT 9SM FEW100 06/03 A3022 RMK AO2 SLP238 T00610028 10100 20061 51003=
200912072252 METAR KATL 072252Z 07006KT 10SM FEW100 08/04 A3022 RMK AO2 SLP237 T00830039=
200912072152 METAR KATL 072152Z 02006KT 9SM FEW100 SCT150 BKN280 09/04 A3022 RMK AO2 SLP239 T00940039=
200912072052 METAR KATL 072052Z 00000KT 10SM FEW017 SCT100 BKN150 BKN280 10/04 A3021 RMK AO2 SLP234 VIRGA SE & NW T01000039 55011=
200912071952 METAR KATL 071952Z 00000KT 10SM FEW100 BKN150 BKN280 10/04 A3021 RMK AO2 SLP233 VIRGA NE & SE & W & NW T01000039=
200912071852 METAR KATL 071852Z 00000KT 10SM FEW015 SCT100 BKN150 BKN280 09/03 A3022 RMK AO2 SLP239 VIRGA NW-N T00890033=
200912071752 METAR KATL 071752Z 05004KT 10SM FEW015 SCT100 BKN150 BKN280 09/03 A3024 RMK AO2 SLP246 T00890028 10089 20033 56015=
200912071750 SPECI KATL 071750Z 04003KT 10SM FEW015 SCT100 BKN150 BKN280 09/03 A3025 RMK AO2=
200912071750 SPECI KATL 071750Z 04003KT 10SM FEW015 SCT100 BKN150 BKN280 09/03 A3025 RMK AO2=
200912071652 METAR KATL 071652Z 11003KT 10SM OVC011 07/02 A3027 RMK AO2 SLP258 T00720022=
200912071552 METAR KATL 071552Z 07006KT 10SM OVC011 07/01 A3029 RMK AO2 SLP261 T00670011=
200912071452 METAR KATL 071452Z 09006KT 10SM OVC011 06/01 A3029 RMK AO2 SLP263 T00560006 53005=
200912071415 SPECI KATL 071415Z 09007KT 10SM OVC011 05/00 A3027 RMK AO2=
200912071415 SPECI KATL 071415Z 09007KT 10SM OVC011 05/00 A3027 RMK AO2=
200912071352 METAR KATL 071352Z 10007KT 10SM BKN009 OVC012 04/M01 A3026 RMK AO2 SLP254 T00441006=
200912071252 METAR KATL 071252Z 06006KT 10SM BKN013 OVC017 04/00 A3027 RMK AO2 SLP258 T00390000=
200912071238 SPECI KATL 071238Z 08008KT 10SM BKN013 OVC017 04/M01 A3028 RMK AO2=
200912071238 SPECI KATL 071238Z 08008KT 10SM BKN013 OVC017 04/M01 A3028 RMK AO2=
200912071152 METAR KATL 071152Z 06006KT 10SM BKN017 OVC027 03/M01 A3027 RMK AO2 SLP257 T00331006 10033 20006 53009=
200912071052 METAR KATL 071052Z 09007KT 10SM BKN017 BKN027 03/M01 A3024 RMK AO2 SLP247 T00281006 $=
200912070952 METAR KATL 070952Z 09007KT 10SM OVC015 03/M01 A3024 RMK AO2 SLP248 T00281006 $=
200912070852 METAR KATL 070852Z 09007KT 10SM BKN029 02/M01 A3024 RMK AO2 SLP247 T00221006 56003 $=
200912070808 SPECI KATL 070808Z 09007KT 10SM BKN029 02/M01 A3024 RMK AO2 $=
200912070808 SPECI KATL 070808Z 09007KT 10SM BKN029 02/M01 A3024 RMK AO2 $=
200912070752 METAR KATL 070752Z 08006KT 10SM BKN031 01/M01 A3025 RMK AO2 SLP250 T00111011 $=
200912070652 METAR KATL 070652Z 08008KT 10SM CLR 02/M01 A3024 RMK AO2 SLP246 T00171011 $=
200912070552 METAR KATL 070552Z 10007KT 10SM CLR 01/M01 A3025 RMK AO2 SLP251 T00111011 10061 20011 50000 $=
200912070452 METAR KATL 070452Z 08007KT 10SM CLR 01/M01 A3026 RMK AO2 SLP255 T00111011 400781033 $=
200912070352 METAR KATL 070352Z 11005KT 10SM FEW150 SCT200 04/M01 A3027 RMK AO2 SLP257 T00391006 $=
200912070252 METAR KATL 070252Z 11008KT 10SM FEW150 BKN200 04/00 A3025 RMK AO2 SLP251 T00390000 58001 $=
200912070152 METAR KATL 070152Z 09009KT 10SM BKN200 04/00 A3027 RMK AO2 SLP257 T00440000 $=
200912070052 METAR KATL 070052Z 08007KT 10SM FEW150 BKN250 05/00 A3026 RMK AO2 SLP257 T00500000 $=
200912062352 METAR KATL 062352Z 06007KT 10SM FEW150 BKN250 06/00 A3025 RMK AO2 SLP254 T00560000 10078 20050 50001 $=
200912062252 METAR KATL 062252Z 07005KT 10SM BKN150 BKN250 06/00 A3027 RMK AO2 SLP258 T00610000 $=
200912062152 METAR KATL 062152Z 13004KT 10SM SCT150 BKN200 BKN250 07/M01 A3027 RMK AO2 SLP257 T00671006 $=
200912062052 METAR KATL 062052Z 12006KT 10SM SCT150 BKN200 BKN250 07/00 A3025 RMK AO2 SLP252 T00720000 55007 $=
200912061952 SPECI KATL 061952Z 14005KT 10SM FEW150 BKN200 BKN250 07/M01 A3023 RMK AO2 SLP245 T00671006 $=
200912061852 METAR KATL 061852Z 14006KT 10SM FEW150 BKN200 OVC250 07/00 A3026 RMK AO2 SLP256 T00670000 $=
200912061752 METAR KATL 061752Z 13009KT 10SM OVC200 06/00 A3027 RMK AO2 SLP259 T00560000 10061 21028 58012=
200912061652 METAR KATL 061652Z 15009KT 10SM FEW110 SCT150 OVC250 05/M01 A3029 RMK AO2 SLP264 T00501006=
200912061552 METAR KATL 061552Z 13006KT 10SM FEW100 SCT150 OVC250 04/M02 A3030 RMK AO2 SLP270 T00391017=
200912061452 METAR KATL 061452Z 10008KT 10SM FEW015 BKN150 BKN250 03/M02 A3031 RMK AO2 SLP272 T00281017 53017=
200912061352 METAR KATL 061352Z 10005KT 10SM BKN250 M01/M03 A3028 RMK AO2 SLP264 T10061033 $=
200912061252 METAR KATL 061252Z 32003KT 9SM BKN250 M02/M04 A3027 RMK AO2 SLP259 T10171044 $=
200912061152 METAR KATL 061152Z 34003KT 10SM BKN250 M03/M05 A3025 RMK AO2 SLP256 T10281050 11011 21033 53014 $=
200912061052 METAR KATL 061052Z 36007KT 10SM SCT250 M02/M04 A3023 RMK AO2 SLP245 T10221044 $=
200912060952 METAR KATL 060952Z 34006KT 10SM FEW250 M03/M05 A3022 RMK AO2 SLP245 T10281050 $=
200912060852 METAR KATL 060852Z 34006KT 10SM FEW250 M03/M05 A3021 RMK AO2 SLP239 T10281050 51011 $=
200912060752 METAR KATL 060752Z 33005KT 10SM SCT250 M03/M05 A3020 RMK AO2 SLP238 T10281050 $=
200912060652 METAR KATL 060652Z 33005KT 10SM SCT250 M02/M04 A3019 RMK AO2 SLP232 T10221044 $=
200912060552 METAR KATL 060552Z 31009KT 10SM SCT250 M01/M04 A3018 RMK AO2 SLP228 T10111039 10017 21017 50011 $=
200912060452 METAR KATL 060452Z 27005KT 10SM CLR M01/M03 A3018 RMK AO2 SLP230 T10111033 400611011 $=
200912060352 METAR KATL 060352Z 31006KT 10SM CLR M01/M03 A3017 RMK AO2 SLP226 T10061033 $=
200912060252 METAR KATL 060252Z 32007KT 10SM CLR 00/M03 A3014 RMK AO2 SLP217 T00001033 53003 $=
200912060152 METAR KATL 060152Z 33008KT 10SM CLR 01/M03 A3013 RMK AO2 SLP212 T00061033 $=
200912060052 METAR KATL 060052Z 34006KT 10SM CLR 01/M03 A3012 RMK AO2 SLP209 T00111033 $=
200912052352 METAR KATL 052352Z 34007KT 10SM CLR 02/M03 A3014 RMK AO2 SLP212 T00171028 10050 20017 53015 $=
200912052252 METAR KATL 052252Z 34007KT 10SM CLR 02/M03 A3012 RMK AO2 SLP208 T00221028 $=
200912052152 METAR KATL 052152Z 32009KT 10SM FEW025 03/M03 A3009 RMK AO2 SLP197 T00331028 $=
200912052052 METAR KATL 052052Z 31010KT 10SM SCT031 05/M02 A3009 RMK AO2 SLP195 T00501022 53006 $=
200912052028 SPECI KATL 052028Z 34013KT 10SM SCT028 04/M02 A3008 RMK AO2 $=
200912052028 SPECI KATL 052028Z 34013KT 10SM SCT028 04/M02 A3008 RMK AO2 $=
200912051952 METAR KATL 051952Z 34015KT 10SM BKN024 04/M02 A3007 RMK AO2 SLP189 T00391022 $=
200912051852 METAR KATL 051852Z 32018G23KT 10SM BKN020 03/M02 A3006 RMK AO2 SLP184 T00331017 $=
200912051752 METAR KATL 051752Z 32017G23KT 10SM BKN018 03/M01 A3007 RMK AO2 PK WND 32027/1656 SLP188 60000 T00331011 10039 20022 50005 $=
200912051652 METAR KATL 051652Z 33020G25KT 10SM BKN016 BKN050 04/M01 A3008 RMK AO2 SLP190 T00391011 $=
200912051552 METAR KATL 051552Z 32012KT 10SM BKN016 BKN050 03/M01 A3007 RMK AO2 SLP188 T00331006 $=
200912051500 SPECI KATL 051500Z 33011G20KT 10SM BKN016 OVC045 03/00 A3006 RMK AO2 BINOVC OHD $=
200912051500 SPECI KATL 051500Z 33011G20KT 10SM BKN016 OVC045 03/00 A3006 RMK AO2 BINOVC OHD $=
200912051452 METAR KATL 051452Z 32014G19KT 10SM BKN014 OVC045 03/M01 A3005 RMK AO2 SLP182 BINOVC OHD 60000 T00281006 51019 $=
200912051352 METAR KATL 051352Z 32016G19KT 10SM BKN013 OVC029 03/00 A3003 RMK AO2 RAE04PLE07 SLP175 P0000 T00280000 $=
200912051307 SPECI KATL 051307Z 33012KT 10SM BKN012 OVC028 02/01 A3002 RMK AO2 RAE04PLE07 P0000 $=
200912051307 SPECI KATL 051307Z 33012KT 10SM BKN012 OVC028 02/01 A3002 RMK AO2 RAE04PLE07 P0000 $=
200912051304 SPECI KATL 051304Z 33013KT 10SM -PL BKN012 OVC028 02/01 A3002 RMK AO2 RAE04 PCPN VRY LGT P0000 $=
200912051304 SPECI KATL 051304Z 33013KT 10SM -PL BKN012 OVC028 02/01 A3002 RMK AO2 RAE04 PCPN VRY LGT P0000 $=
200912051252 METAR KATL 051252Z 33016KT 7SM -RAPL BKN012 OVC025 02/01 A3002 RMK AO2 RAB36PLB50 SLP172 P0000 T00220006 $=
200912051211 SPECI KATL 051211Z 32014KT 10SM BKN014 OVC029 03/01 A3000 RMK AO2 $=
200912051211 SPECI KATL 051211Z 32014KT 10SM BKN014 OVC029 03/01 A3000 RMK AO2 $=
200912051152 METAR KATL 051152Z 31015KT 10SM SCT015 OVC028 04/01 A3000 RMK AO2 SLP162 T00390006 10061 20039 53004 $=
200912051117 SPECI KATL 051117Z 31014KT 10SM OVC028 04/01 A2998 RMK AO2 $=
200912051117 SPECI KATL 051117Z 31014KT 10SM OVC028 04/01 A2998 RMK AO2 $=
200912051052 METAR KATL 051052Z 31007KT 9SM OVC030 04/01 A2999 RMK AO2 SLP158 T00440011 $=
200912050952 METAR KATL 050952Z 32009KT 9SM BKN030 OVC120 04/01 A2999 RMK AO2 SLP158 T00440011 $=
200912050859 SPECI KATL 050859Z 32009KT 10SM FEW031 04/02 A2999 RMK AO2 $=
200912050859 SPECI KATL 050859Z 32009KT 10SM FEW031 04/02 A2999 RMK AO2 $=
200912050852 METAR KATL 050852Z 31009KT 10SM OVC029 05/02 A2998 RMK AO2 SLP157 T00500017 56003 $=
200912050752 METAR KATL 050752Z 31005KT 10SM OVC027 05/02 A2999 RMK AO2 SLP159 T00500022 $=
200912050652 METAR KATL 050652Z 32008KT 10SM OVC027 06/03 A2998 RMK AO2 SLP157 T00560028 $=
200912050552 METAR KATL 050552Z 33006KT 10SM OVC028 06/03 A2999 RMK AO2 SLP160 T00610033 10078 20056 50004 $=
200912050452 METAR KATL 050452Z 32005KT 10SM OVC028 06/03 A3002 RMK AO2 SLP170 T00610033 400940028 $=
200912050352 METAR KATL 050352Z 34005KT 10SM OVC030 07/03 A3003 RMK AO2 SLP171 T00670033 $=
200912050309 SPECI KATL 050309Z 07005KT 10SM BKN027 OVC150 07/03 A3001 RMK AO2 $=
200912050309 SPECI KATL 050309Z 07005KT 10SM BKN027 OVC150 07/03 A3001 RMK AO2 $=
200912050252 METAR KATL 050252Z 07006KT 10SM SCT032 OVC150 07/03 A2998 RMK AO2 PRESFR SLP157 T00670028 58015 $=
200912050152 METAR KATL 050152Z 09006KT 10SM SCT032 BKN150 BKN250 07/03 A3002 RMK AO2 SLP171 T00670028 $=
200912050052 METAR KATL 050052Z 10006KT 10SM FEW035 SCT150 BKN250 07/03 A3002 RMK AO2 SLP170 T00670028=
200912042352 METAR KATL 042352Z 08005KT 10SM BKN035 BKN150 OVC200 07/03 A3003 RMK AO2 SLP173 T00720033 10094 20072 50000=
200912042252 METAR KATL 042252Z 07007KT 10SM OVC032 08/03 A3004 RMK AO2 SLP177 T00830033=
200912042152 METAR KATL 042152Z 11003KT 10SM FEW030 SCT120 BKN150 OVC200 08/03 A3005 RMK AO2 SLP182 T00830028=
200912042052 METAR KATL 042052Z 06006KT 10SM FEW030 SCT090 BKN150 BKN250 09/03 A3003 RMK AO2 SLP173 T00890028 56017=
200912041952 METAR KATL 041952Z 00000KT 10SM FEW030 BKN090 BKN150 BKN250 09/03 A3005 RMK AO2 SLP179 T00940028=
200912041852 METAR KATL 041852Z VRB04KT 10SM BKN150 BKN180 BKN250 09/03 A3004 RMK AO2 SLP176 T00890028=
200912041752 METAR KATL 041752Z 07006KT 10SM FEW110 BKN150 OVC180 08/03 A3008 RMK AO2 SLP191 T00830028 10089 20028 58020=
200912041652 METAR KATL 041652Z 04005KT 10SM FEW110 SCT150 BKN250 08/03 A3010 RMK AO2 SLP197 T00830028=
200912041552 METAR KATL 041552Z 36005KT 10SM BKN110 BKN150 BKN250 07/02 A3014 RMK AO2 SLP210 T00720022=
200912041452 METAR KATL 041452Z 35006KT 10SM FEW100 BKN150 BKN250 06/02 A3014 RMK AO2 SLP212 ACC NW T00560017 51013=
200912041352 METAR KATL 041352Z 34006KT 9SM SCT150 BKN250 04/01 A3014 RMK AO2 SLP211 T00390011 $=
200912041252 METAR KATL 041252Z 34005KT 8SM SCT180 BKN250 03/01 A3012 RMK AO2 SLP206 T00280006 $=
200912041152 METAR KATL 041152Z 34007KT 8SM SCT250 03/01 A3010 RMK AO2 SLP199 T00330006 10056 20033 50008=
200912041052 METAR KATL 041052Z 33007KT 8SM BKN250 04/01 A3011 RMK AO2 SLP200 T00390006 $=
200912040952 METAR KATL 040952Z 33007KT 7SM BKN150 04/01 A3010 RMK AO2 SLP196 T00390006 $=
200912040852 METAR KATL 040852Z 35009KT 7SM SCT200 04/01 A3008 RMK AO2 SLP190 T00440006 50003 $=
200912040815 SPECI KATL 040815Z 34011KT 7SM SCT018 BKN200 04/01 A3008 RMK AO2 $=
200912040815 SPECI KATL 040815Z 34011KT 7SM SCT018 BKN200 04/01 A3008 RMK AO2 $=
200912040752 METAR KATL 040752Z 34009KT 7SM BKN018 BKN200 05/01 A3009 RMK AO2 SLP194 T00500011 $=
200912040652 METAR KATL 040652Z 32013G20KT 270V340 10SM OVC018 06/02 A3009 RMK AO2 SLP194 T00560017 $=
200912040552 METAR KATL 040552Z 34014G19KT 10SM OVC018 05/02 A3007 RMK AO2 SLP187 T00500017 10061 20050 58007 $=
200912040452 METAR KATL 040452Z 32010G18KT 10SM BKN020 06/01 A3009 RMK AO2 SLP193 T00560011 401060056 $=
200912040352 METAR KATL 040352Z 33009KT 10SM OVC022 06/01 A3008 RMK AO2 SLP192 T00560011 $=
200912040252 METAR KATL 040252Z 34012KT 10SM OVC022 06/01 A3009 RMK AO2 SLP194 T00560011 51010 $=
200912040152 METAR KATL 040152Z 33009KT 10SM BKN024 06/01 A3008 RMK AO2 SLP190 T00560011 $=
200912040052 METAR KATL 040052Z 33013G18KT 10SM OVC020 06/02 A3007 RMK AO2 SLP188 T00560017 $=
200912032352 METAR KATL 032352Z 33012KT 10SM OVC020 06/02 A3006 RMK AO2 SLP183 T00610017 10089 20061 51022 $=
200912032252 METAR KATL 032252Z 32010KT 10SM OVC022 07/02 A3004 RMK AO2 SLP177 T00670017=
200912032152 METAR KATL 032152Z 31012KT 10SM BKN024 07/02 A3002 RMK AO2 SLP169 T00670022=
200912032052 METAR KATL 032052Z 33010KT 10SM BKN024 07/02 A2999 RMK AO2 SLP158 T00720022 53013=
200912031952 METAR KATL 031952Z 33014G18KT 10SM BKN024 08/02 A2997 RMK AO2 SLP152 T00780022=
200912031852 METAR KATL 031852Z 33010KT 10SM BKN024 09/03 A2996 RMK AO2 SLP146 T00890028=
200912031752 METAR KATL 031752Z 30011KT 10SM BKN024 08/03 A2995 RMK AO2 SLP144 T00830033 10089 20072 50006=
200912031652 METAR KATL 031652Z 32015KT 10SM BKN022 08/03 A2997 RMK AO2 SLP150 T00830028=
200912031552 METAR KATL 031552Z 31015G18KT 10SM BKN022 08/03 A2995 RMK AO2 SLP143 T00780033=
200912031452 METAR KATL 031452Z 31012KT 10SM OVC018 07/03 A2993 RMK AO2 SLP138 T00720033 53033=
200912031352 METAR KATL 031352Z 31011G16KT 10SM SCT020 BKN024 BKN200 07/03 A2990 RMK AO2 SLP126 T00720033=
200912031252 METAR KATL 031252Z 30014G19KT 10SM BKN024 07/03 A2986 RMK AO2 SLP110 T00720033=
200912031152 METAR KATL 031152Z 31012KT 10SM OVC019 07/04 A2984 RMK AO2 SLP103 70247 T00720039 10100 20072 51016=
200912031052 METAR KATL 031052Z 30011G18KT 10SM BKN019 OVC025 08/04 A2983 RMK AO2 SLP099 T00830044=
200912030952 METAR KATL 030952Z 28011G17KT 10SM BKN017 OVC024 09/05 A2981 RMK AO2 SLP094 T00890050=
200912030852 METAR KATL 030852Z 28009KT 10SM FEW019 BKN027 OVC200 09/06 A2979 RMK AO2 SLP087 T00890056 53017=
200912030752 METAR KATL 030752Z 26008KT 10SM BKN023 OVC028 10/06 A2978 RMK AO2 SLP086 T01000061=
200912030732 SPECI KATL 030732Z 24006KT 10SM BKN028 OVC035 10/06 A2978 RMK AO2=
200912030732 SPECI KATL 030732Z 24006KT 10SM BKN028 OVC035 10/06 A2978 RMK AO2=
200912030652 METAR KATL 030652Z 25007KT 10SM FEW026 BKN032 BKN200 10/06 A2974 RMK AO2 SLP070 T01000056=
200912030648 SPECI KATL 030648Z 24007KT 10SM FEW026 BKN032 BKN200 10/06 A2974 RMK AO2=
200912030648 SPECI KATL 030648Z 24007KT 10SM FEW026 BKN032 BKN200 10/06 A2974 RMK AO2=
200912030552 METAR KATL 030552Z 26009KT 10SM BKN028 10/06 A2974 RMK AO2 SLP070 60005 T01000061 10161 20100 51031=
200912030531 SPECI KATL 030531Z 26009KT 10SM BKN028 10/06 A2973 RMK AO2=
200912030531 SPECI KATL 030531Z 26009KT 10SM BKN028 10/06 A2973 RMK AO2=
200912030452 METAR KATL 030452Z 25007KT 10SM FEW028 11/07 A2971 RMK AO2 PK WND 27026/0407 SLP061 T01060067 401610061=
200912030352 METAR KATL 030352Z 25009KT 10SM SCT035 12/09 A2968 RMK AO2 SLP050 T01170089=
200912030252 METAR KATL 030252Z COR 25009KT 10SM FEW150 13/10 A2964 RMK AO2 SLP037 60006 T01280100 51033=
200912030152 METAR KATL 030152Z 25009KT 10SM FEW045 BKN150 BKN250 13/11 A2962 RMK AO2 PK WND 26031/0101 WSHFT 0055 RAB02E23 SLP031 P0005 T01330106=
200912030115 SPECI KATL 030115Z 26009G24KT 8SM -RA FEW020 BKN045 OVC060 14/12 A2961 RMK AO2 PK WND 26031/0101 WSHFT 0055 RAB02 P0005=
200912030115 SPECI KATL 030115Z 26009G24KT 8SM -RA FEW020 BKN045 OVC060 14/12 A2961 RMK AO2 PK WND 26031/0101 WSHFT 0055 RAB02 P0005=
200912030106 SPECI KATL 030106Z 25018G31KT 4SM RA SCT020 BKN045 OVC080 14/11 A2961 RMK AO2 PK WND 26031/0101 RAB02 PRESRR P0002=
200912030106 SPECI KATL 030106Z 25018G31KT 4SM RA SCT020 BKN045 OVC080 14/11 A2961 RMK AO2 PK WND 26031/0101 RAB02 PRESRR P0002=
200912030052 METAR KATL 030052Z 21017G23KT 10SM FEW020 SCT050 BKN080 16/13 A2958 RMK AO2 SLP015 SHRA SW-NW T01610133=
200912030036 SPECI KATL 030036Z 21013G19KT 10SM SCT024 BKN100 16/13 A2957 RMK AO2=
200912030036 SPECI KATL 030036Z 21013G19KT 10SM SCT024 BKN100 16/13 A2957 RMK AO2=
200912030010 SPECI KATL 030010Z 20014G22KT 10SM BKN024 16/13 A2955 RMK AO2=
200912030010 SPECI KATL 030010Z 20014G22KT 10SM BKN024 16/13 A2955 RMK AO2=
200912022352 METAR KATL 022352Z COR 20015G21KT 10SM FEW020 SCT035 16/13 A2954 RMK AO2 SLP002 60017 T01610133 10161 20100 53003=
200912022252 METAR KATL 022252Z 19012G15KT 10SM SCT022 BKN045 16/14 A2953 RMK AO2 SLP000 T01560144=
200912022223 SPECI KATL 022223Z 17007KT 7SM SCT006 BKN020 BKN040 15/14 A2954 RMK AO2 P0001=
200912022223 SPECI KATL 022223Z 17007KT 7SM SCT006 BKN020 BKN040 15/14 A2954 RMK AO2 P0001=
200912022207 SPECI KATL 022207Z 16008KT 2SM FEW003 SCT010 BKN040 14/14 A2953 RMK AO2 SFC VIS 7 $=
200912022207 SPECI KATL 022207Z 16008KT 2SM FEW003 SCT010 BKN040 14/14 A2953 RMK AO2 SFC VIS 7 $=
200912022156 SPECI KATL 022156Z 16006KT 1/2SM BR BKN004 BKN007 OVC010 14/14 A2954 RMK AO2 SFC VIS 5 $=
200912022156 SPECI KATL 022156Z 16006KT 1/2SM BR BKN004 BKN007 OVC010 14/14 A2954 RMK AO2 SFC VIS 5 $=
200912022152 METAR KATL 022152Z 15007KT 1/2SM BR OVC003 14/14 A2953 RMK AO2 SFC VIS 5 RAE03 SLP000 P0000 T01390139=
200912022052 METAR KATL 022052Z 14008KT 1/2SM R09R/4500VP6000FT -RA BR OVC003 13/13 A2953 RMK AO2 SFC VIS 2 RAB52 SLP000 P0001 60017 T01330128 55033=
200912022037 SPECI KATL 022037Z 16006KT 1/2SM R09R/5000VP6000FT BR OVC003 13/13 A2953 RMK AO2 SFC VIS 2=
200912022037 SPECI KATL 022037Z 16006KT 1/2SM R09R/5000VP6000FT BR OVC003 13/13 A2953 RMK AO2 SFC VIS 2=
200912021952 METAR KATL 021952Z 14006KT 1/2SM BR BKN004 OVC006 12/12 A2951 RMK AO2 SFC VIS 5 SLP994 T01220117=
200912021852 METAR KATL 021852Z 09012G24KT 1/2SM BR BKN003 OVC006 11/11 A2944 RMK AO2 PK WND 08026/1826 SFC VIS 5 RAE46 PRESFR SLP971 TWRINC P0016 T01110106=
200912021840 SPECI KATL 021840Z 09017KT 1/2SM -RA BR BKN003 OVC006 11/10 A2948 RMK AO2 PK WND 08026/1826 SFC VIS 5 PRESFR P0015=
200912021840 SPECI KATL 021840Z 09017KT 1/2SM -RA BR BKN003 OVC006 11/10 A2948 RMK AO2 PK WND 08026/1826 SFC VIS 5 PRESFR P0015=
200912021752 METAR KATL 021752Z 04010G15KT 1/2SM +RA BR BKN004 BKN008 OVC010 11/10 A2963 RMK AO2 SFC VIS 3 SLP035 P0029 60127 T01060100 10106 20078 56037=
200912021747 SPECI KATL 021747Z 05006KT 1/2SM +RA BR BKN004 BKN008 OVC010 11/10 A2964 RMK AO2 SFC VIS 3 P0026=
200912021747 SPECI KATL 021747Z 05006KT 1/2SM +RA BR BKN004 BKN008 OVC010 11/10 A2964 RMK AO2 SFC VIS 3 P0026=
200912021652 METAR KATL 021652Z 08008KT 1/2SM RA BR BKN004 BKN008 OVC015 10/09 A2967 RMK AO2 SFC VIS 5 SLP048 P0017 T01000094=
200912021552 METAR KATL 021552Z 10009KT 1/2SM RA BR BKN003 BKN008 OVC015 09/08 A2970 RMK AO2 SFC VIS 3 SLP060 P0027 T00890083=
200912021452 METAR KATL 021452Z 08014G17KT 1/2SM RA BR BKN004 BKN008 OVC015 08/08 A2974 RMK AO2 WSHFT 1417 SFC VIS 4 SLP073 P0017 60054 T00830078 50003=
200912021433 SPECI KATL 021433Z 09014KT 2 1/2SM -RA BR BKN004 BKN015 OVC040 08/08 A2974 RMK AO2 WSHFT 1417 SFC VIS 5 P0013=
200912021433 SPECI KATL 021433Z 09014KT 2 1/2SM -RA BR BKN004 BKN015 OVC040 08/08 A2974 RMK AO2 WSHFT 1417 SFC VIS 5 P0013=
200912021428 SPECI KATL 021428Z 08013KT 2 1/2SM RA BR BKN004 BKN015 OVC040 08/08 A2975 RMK AO2 SFC VIS 5 P0012=
200912021428 SPECI KATL 021428Z 08013KT 2 1/2SM RA BR BKN004 BKN015 OVC040 08/08 A2975 RMK AO2 SFC VIS 5 P0012=
200912021411 SPECI KATL 021411Z VRB04KT 2SM R09R/2400VP6000FT RA BR BKN004 BKN015 OVC040 08/08 A2977 RMK AO2 SFC VIS 3 P0006=
200912021411 SPECI KATL 021411Z VRB04KT 2SM R09R/2400VP6000FT RA BR BKN004 BKN015 OVC040 08/08 A2977 RMK AO2 SFC VIS 3 P0006=
200912021355 SPECI KATL 021355Z 09011KT 2SM RA BR OVC002 08/08 A2976 RMK AO2 CIG 001V005 P0002=
200912021355 SPECI KATL 021355Z 09011KT 2SM RA BR OVC002 08/08 A2976 RMK AO2 CIG 001V005 P0002=
200912021352 METAR KATL 021352Z 09013KT 1/2SM R09R/5500VP6000FT +RA BR OVC002 08/08 A2977 RMK AO2 SFC VIS 1 1/2 CIG 001V004 SLP082 P0037 T00830078=
200912021252 METAR KATL 021252Z 10011KT 1/2SM -RA BR OVC002 08/07 A2973 RMK AO2 SFC VIS 3 RAB1155E14B52 SLP071 P0000 T00780072=
200912021210 SPECI KATL 021210Z 10013G22KT 1/2SM -RA BR OVC003 08/07 A2972 RMK AO2 SFC VIS 3 RAB1155 P0000=
200912021210 SPECI KATL 021210Z 10013G22KT 1/2SM -RA BR OVC003 08/07 A2972 RMK AO2 SFC VIS 3 RAB1155 P0000=
200912021209 SPECI KATL 021209Z 11014G22KT 3/4SM -RA BR OVC003 08/07 A2972 RMK AO2 SFC VIS 3 RAB1155 P0000=
200912021209 SPECI KATL 021209Z 11014G22KT 3/4SM -RA BR OVC003 08/07 A2972 RMK AO2 SFC VIS 3 RAB1155 P0000=
200912021201 SPECI KATL 021201Z 12013G24KT 1 1/2SM -RA BR OVC003 08/07 A2972 RMK AO2 SFC VIS 4 RAB1155 P0000=
200912021201 SPECI KATL 021201Z 12013G24KT 1 1/2SM -RA BR OVC003 08/07 A2972 RMK AO2 SFC VIS 4 RAB1155 P0000=
200912021152 METAR KATL 021152Z 10014G22KT 1 1/2SM BR OVC005 08/07 A2972 RMK AO2 SFC VIS 4 RAE29 SLP067 P0003 60091 70098 T00780072 10078 20061 58020=
200912021052 METAR KATL 021052Z 10012G23KT 7SM RA BKN005 OVC009 08/07 A2975 RMK AO2 SLP076 P0009 T00780072=
200912021022 SPECI KATL 021022Z 12011G18KT 5SM RA BR BKN005 OVC020 08/07 A2975 RMK AO2 P0006=
200912021022 SPECI KATL 021022Z 12011G18KT 5SM RA BR BKN005 OVC020 08/07 A2975 RMK AO2 P0006=
200912021010 SPECI KATL 021010Z 09020G24KT 4SM RA BR OVC003 08/07 A2978 RMK AO2 CIG 001V007 P0004=
200912021010 SPECI KATL 021010Z 09020G24KT 4SM RA BR OVC003 08/07 A2978 RMK AO2 CIG 001V007 P0004=
200912020952 METAR KATL 020952Z 08017G22KT 4SM RA BR OVC005 08/07 A2977 RMK AO2 PK WND 10026/0942 SLP084 P0021 T00780067=
200912020930 SPECI KATL 020930Z 09016G24KT 3SM RA BR OVC005 07/06 A2976 RMK AO2 P0018=
200912020930 SPECI KATL 020930Z 09016G24KT 3SM RA BR OVC005 07/06 A2976 RMK AO2 P0018=
200912020852 METAR KATL 020852Z 10017G23KT 2 1/2SM +RA BR OVC005 07/06 A2978 RMK AO2 SLP087 P0038 60058 T00670056 56046=
200912020817 SPECI KATL 020817Z 09019G24KT 3SM +RA BR BKN006 OVC018 06/05 A2981 RMK AO2 P0018=
200912020817 SPECI KATL 020817Z 09019G24KT 3SM +RA BR BKN006 OVC018 06/05 A2981 RMK AO2 P0018=
200912020801 SPECI KATL 020801Z 08015G25KT 2 1/2SM +RA BR BKN008 OVC018 06/05 A2983 RMK AO2 P0007=
200912020801 SPECI KATL 020801Z 08015G25KT 2 1/2SM +RA BR BKN008 OVC018 06/05 A2983 RMK AO2 P0007=
200912020752 METAR KATL 020752Z 08019G27KT 4SM RA BR BKN011 BKN017 OVC060 06/05 A2983 RMK AO2 PK WND 09027/0744 SLP105 P0015 T00610050=
200912020652 METAR KATL 020652Z 08021G26KT 6SM RA BR BKN015 BKN025 OVC065 06/04 A2986 RMK AO2 PK WND 07028/0639 SLP114 P0005 T00610044=
200912020552 METAR KATL 020552Z 08016KT 9SM -RA BKN020 BKN026 OVC080 06/04 A2992 RMK AO2 PRESFR SLP135 P0002 60007 T00610044 10094 20061 58035=
200912020539 SPECI KATL 020539Z 08012KT 10SM -RA BKN020 OVC080 06/04 A2995 RMK AO2 P0002=
200912020539 SPECI KATL 020539Z 08012KT 10SM -RA BKN020 OVC080 06/04 A2995 RMK AO2 P0002=
200912020452 METAR KATL 020452Z 07015KT 9SM -RA FEW025 BKN055 OVC080 07/03 A2996 RMK AO2 SLP150 P0004 T00670033 401110006=
200912020352 METAR KATL 020352Z 09013KT 10SM -RA FEW040 BKN060 OVC080 07/03 A3000 RMK AO2 SLP162 P0001 T00720033=
200912020252 METAR KATL 020252Z 09011KT 10SM -RA FEW040 BKN055 OVC090 08/02 A3003 RMK AO2 RAB21 SLP171 P0000 60000 T00830022 56003=
200912020152 METAR KATL 020152Z 10008KT 10SM FEW035 BKN090 OVC140 09/01 A3003 RMK AO2 SLP173 VIRGA OHD-ALQDS T00940006=
200912020052 METAR KATL 020052Z 10009KT 10SM SCT035 OVC150 09/01 A3003 RMK AO2 SLP173 VIRGA OHD-ALQDS T00940006=
200912012352 METAR KATL 012352Z 10008KT 10SM FEW120 OVC150 09/01 A3004 RMK AO2 SLP175 VIRGA OHD-ALQDS T00940006 10111 20094 53002=
200912012252 METAR KATL 012252Z 09010KT 10SM FEW120 OVC150 10/01 A3001 RMK AO2 SLP168 VIRGA OHD-ALQDS T01000006=
200912012152 METAR KATL 012152Z 10010KT 10SM FEW110 BKN150 OVC180 10/00 A3002 RMK AO2 SLP171 VIRGA OHD & ALQDS T01000000=
200912012052 METAR KATL 012052Z 09011KT 10SM FEW090 BKN150 OVC180 11/M01 A3003 RMK AO2 SLP173 VIRGA OHD & ALQDS T01061006 56018=
200912011952 METAR KATL 011952Z 10009KT 10SM FEW100 BKN150 OVC180 11/M01 A3004 RMK AO2 SLP179 VIRGA OHD & ALQDS T01061006=
200912011852 METAR KATL 011852Z 10007KT 10SM BKN150 BKN180 OVC200 11/M01 A3006 RMK AO2 SLP184 T01111011=
200912011752 METAR KATL 011752Z 09007KT 10SM FEW150 BKN180 BKN250 11/00 A3008 RMK AO2 SLP191 T01060000 10106 20011 58014=
200912011652 METAR KATL 011652Z 10008KT 10SM BKN250 09/00 A3010 RMK AO2 PRESFR SLP196 T00890000=
200912011552 METAR KATL 011552Z 10010KT 10SM BKN250 08/02 A3012 RMK AO2 SLP205 T00830017=
200912011452 METAR KATL 011452Z 11009KT 10SM BKN250 07/01 A3013 RMK AO2 SLP206 T00670006 51005=
200912011352 METAR KATL 011352Z 06010KT 10SM FEW012 BKN150 BKN250 05/01 A3012 RMK AO2 SLP206 T00500006=
200912011252 METAR KATL 011252Z 03005KT 10SM FEW012 SCT150 BKN250 03/01 A3012 RMK AO2 SLP203 T00280006=
