##########################################################
# Query made at 04/19/2024 23:12:58 UTC
# Time interval: from 09/01/2009 12:00  to 09/30/2009 12:59  UTC
##########################################################

##########################################################
# KATL, Atlanta, Hartsfield - Jackson Atlanta International Airport (United States)
# WMO index: 72219. WIGOS ID: 0-20000-0-72219
# Latitude 33-38-59N. Longitude 084-25-00W. Altitude 312 m.
##########################################################

200909301252 METAR KATL 301252Z 33005KT 10SM FEW250 12/09 A3005 RMK AO2 SLP172 T01170094=
200909301152 METAR KATL 301152Z 33005KT 10SM FEW250 10/08 A3002 RMK AO2 SLP164 T01000083 10122 20100 53009=
200909301052 METAR KATL 301052Z 32006KT 10SM CLR 10/08 A3001 RMK AO2 SLP161 T01000083=
200909300952 METAR KATL 300952Z 30006KT 10SM CLR 11/09 A3000 RMK AO2 SLP155 T01060089=
200909300852 METAR KATL 300852Z 31007KT 10SM CLR 11/09 A2999 RMK AO2 SLP153 T01060089 58005=
200909300752 METAR KATL 300752Z 30006KT 10SM CLR 11/09 A3000 RMK AO2 SLP156 T01110089=
200909300652 METAR KATL 300652Z 30005KT 10SM CLR 12/09 A3000 RMK AO2 SLP157 T01170089 $=
200909300552 METAR KATL 300552Z 31005KT 10SM CLR 12/09 A3001 RMK AO2 SLP159 T01220089 10178 20117 50003=
200909300452 METAR KATL 300452Z 30004KT 10SM FEW250 12/09 A3001 RMK AO2 SLP160 T01220089 402220106=
200909300352 METAR KATL 300352Z 29004KT 10SM FEW250 13/08 A3001 RMK AO2 SLP160 T01330083=
200909300252 METAR KATL 300252Z 31007KT 10SM FEW250 14/08 A3000 RMK AO2 SLP156 T01440083 51013=
200909300152 METAR KATL 300152Z 31008KT 10SM FEW250 16/08 A2999 RMK AO2 SLP152 T01560078=
200909300052 METAR KATL 300052Z 31007KT 10SM FEW250 17/07 A2998 RMK AO2 SLP150 T01670072=
200909292352 METAR KATL 292352Z 30008KT 10SM FEW250 18/07 A2996 RMK AO2 SLP143 T01780067 10222 20172 51006=
200909292252 METAR KATL 292252Z 31011KT 10SM SCT250 19/06 A2995 RMK AO2 SLP141 T01940061=
200909292152 METAR KATL 292152Z 30013KT 10SM FEW200 SCT250 21/06 A2995 RMK AO2 SLP139 T02060061=
200909292052 METAR KATL 292052Z 29012G19KT 10SM FEW200 SCT250 22/07 A2994 RMK AO2 SLP135 T02170067 56014=
200909291952 METAR KATL 291952Z 28010G19KT 10SM FEW200 BKN250 22/07 A2995 RMK AO2 SLP137 T02220072=
200909291852 METAR KATL 291852Z 28013G22KT 10SM FEW250 21/08 A2997 RMK AO2 SLP144 T02110078=
200909291752 METAR KATL 291752Z 29013G18KT 10SM FEW250 21/07 A2998 RMK AO2 SLP149 T02060072 10211 20106 58015=
200909291652 METAR KATL 291652Z 30012G18KT 10SM FEW250 20/07 A3001 RMK AO2 SLP157 T02000067=
200909291552 METAR KATL 291552Z 32013G20KT 10SM FEW250 19/07 A3002 RMK AO2 SLP162 T01890072=
200909291452 METAR KATL 291452Z 32015G19KT 10SM CLR 18/07 A3003 RMK AO2 SLP164 T01780072 52010=
200909291352 METAR KATL 291352Z 32005KT 10SM CLR 16/08 A3002 RMK AO2 SLP161 T01560078=
200909291252 METAR KATL 291252Z 29007KT 10SM CLR 14/07 A3001 RMK AO2 SLP157 T01390072=
200909291152 METAR KATL 291152Z 28006KT 10SM CLR 11/07 A3000 RMK AO2 SLP154 T01060072 10150 20106 53017=
200909291052 METAR KATL 291052Z 27005KT 10SM CLR 12/07 A2998 RMK AO2 SLP145 T01170067=
200909290952 METAR KATL 290952Z 28006KT 10SM CLR 12/07 A2996 RMK AO2 SLP138 T01170067 $=
200909290852 METAR KATL 290852Z 30007KT 10SM CLR 13/07 A2995 RMK AO2 SLP134 T01280067 53003=
200909290752 METAR KATL 290752Z 30007KT 10SM CLR 13/07 A2994 RMK AO2 SLP131 T01330067=
200909290652 METAR KATL 290652Z 32010KT 10SM CLR 14/07 A2993 RMK AO2 SLP130 T01440067=
200909290552 METAR KATL 290552Z 32010KT 10SM CLR 15/07 A2994 RMK AO2 SLP130 T01500067 10222 20150 51009=
200909290452 METAR KATL 290452Z 31012KT 10SM CLR 16/07 A2993 RMK AO2 SLP129 T01610067 402830161=
200909290352 METAR KATL 290352Z 31008KT 10SM CLR 16/08 A2993 RMK AO2 SLP127 T01610078=
200909290252 METAR KATL 290252Z 31011KT 10SM CLR 18/08 A2991 RMK AO2 SLP121 T01780078 53023=
200909290152 METAR KATL 290152Z 31011KT 10SM CLR 19/08 A2989 RMK AO2 SLP114 T01940078=
200909290052 METAR KATL 290052Z 31010KT 10SM CLR 21/11 A2986 RMK AO2 SLP105 T02060111=
200909282352 METAR KATL 282352Z 31014G22KT 10SM FEW045 22/12 A2984 RMK AO2 SLP098 T02220122 10283 20222 53015=
200909282252 METAR KATL 282252Z 31017G20KT 10SM FEW035 25/17 A2981 RMK AO2 SLP088 T02500172=
200909282152 METAR KATL 282152Z 27011G17KT 10SM FEW040 27/18 A2981 RMK AO2 SLP085 T02720178=
200909282052 METAR KATL 282052Z 27011G22KT 10SM SCT034 27/19 A2980 RMK AO2 SLP082 T02720189 56012=
200909281952 METAR KATL 281952Z 26011G17KT 10SM FEW029 27/21 A2980 RMK AO2 SLP083 T02720211=
200909281900 SPECI KATL 281900Z 27017G23KT 10SM FEW030 SCT040 SCT050 27/20 A2981 RMK AO2=
200909281900 SPECI KATL 281900Z 27017G23KT 10SM FEW030 SCT040 SCT050 27/20 A2981 RMK AO2=
200909281852 METAR KATL 281852Z 27012G19KT 10SM SCT025 BKN035 OVC045 27/21 A2982 RMK AO2 SLP089 T02670206=
200909281812 SPECI KATL 281812Z 25013G21KT 10SM BKN025 BKN035 BKN050 26/20 A2983 RMK AO2=
200909281812 SPECI KATL 281812Z 25013G21KT 10SM BKN025 BKN035 BKN050 26/20 A2983 RMK AO2=
200909281752 METAR KATL 281752Z 26011G19KT 10SM FEW024 BKN030 BKN050 27/21 A2983 RMK AO2 SLP094 60000 T02670206 10267 20194 58010=
200909281652 METAR KATL 281652Z 27010G17KT 10SM FEW020 SCT030 SCT050 26/21 A2985 RMK AO2 RAB02E13 SLP101 P0000 T02610211=
200909281640 SPECI KATL 281640Z 27009G16KT 10SM FEW020 SCT030 SCT050 26/21 A2986 RMK AO2 RAB02E13 P0000=
200909281640 SPECI KATL 281640Z 27009G16KT 10SM FEW020 SCT030 SCT050 26/21 A2986 RMK AO2 RAB02E13 P0000=
200909281552 METAR KATL 281552Z 27011G17KT 240V300 10SM BKN020 BKN035 26/21 A2986 RMK AO2 RAB22E50 SLP105 P0000 T02560206=
200909281549 SPECI KATL 281549Z 26009G15KT 10SM -RA BKN020 BKN035 26/21 A2986 RMK AO2 RAB22 P0000=
200909281549 SPECI KATL 281549Z 26009G15KT 10SM -RA BKN020 BKN035 26/21 A2986 RMK AO2 RAB22 P0000=
200909281452 METAR KATL 281452Z 25011G22KT 10SM SCT040 24/20 A2987 RMK AO2 SLP107 T02440200 58001=
200909281352 METAR KATL 281352Z 25014G19KT 10SM FEW040 BKN045 BKN055 22/19 A2988 RMK AO2 SLP111 T02220189=
200909281252 METAR KATL 281252Z 23010KT 10SM SCT055 21/18 A2988 RMK AO2 SLP112 T02110178=
200909281152 METAR KATL 281152Z 23010KT 10SM BKN055 19/17 A2987 RMK AO2 SLP110 T01940167 10194 20172 50002=
200909281052 METAR KATL 281052Z 22008KT 10SM SCT050 18/16 A2988 RMK AO2 SLP110 T01780161=
200909280952 METAR KATL 280952Z 22007KT 10SM SCT043 18/16 A2987 RMK AO2 SLP107 T01780161 $=
200909280852 METAR KATL 280852Z 24005KT 10SM CLR 17/16 A2987 RMK AO2 SLP106 T01720156 53001 $=
200909280752 METAR KATL 280752Z 23005KT 10SM CLR 17/16 A2986 RMK AO2 SLP104 T01720156 $=
200909280652 METAR KATL 280652Z 23005KT 10SM CLR 18/15 A2987 RMK AO2 SLP105 T01780150 $=
200909280552 METAR KATL 280552Z 23006KT 10SM CLR 18/15 A2987 RMK AO2 SLP105 T01780150 10211 20178 58004 $=
200909280452 METAR KATL 280452Z 24004KT 10SM CLR 18/15 A2987 RMK AO2 SLP107 T01830150 402670178 $=
200909280352 METAR KATL 280352Z 24004KT 10SM CLR 18/15 A2987 RMK AO2 SLP108 T01830150 $=
200909280252 METAR KATL 280252Z 24004KT 10SM CLR 19/15 A2988 RMK AO2 SLP109 T01940150 53006 $=
200909280152 METAR KATL 280152Z 25004KT 10SM CLR 20/15 A2987 RMK AO2 SLP108 T02000150 $=
200909280052 METAR KATL 280052Z 27005KT 10SM CLR 20/14 A2986 RMK AO2 SLP105 T02000144 $=
200909272352 METAR KATL 272352Z 27005KT 10SM CLR 21/14 A2986 RMK AO2 SLP104 T02110144 10267 20211 53008 $=
200909272252 METAR KATL 272252Z 29007KT 10SM FEW050 23/14 A2985 RMK AO2 SLP101 T02330144 $=
200909272152 METAR KATL 272152Z 29009KT 10SM FEW050 25/14 A2984 RMK AO2 SLP095 T02500139 $=
200909272052 METAR KATL 272052Z 30010KT 10SM SCT050 24/14 A2983 RMK AO2 SLP095 T02440139 56013 $=
200909271952 METAR KATL 271952Z 28011G17KT 10SM SCT050 26/14 A2984 RMK AO2 SLP096 T02610144 $=
200909271852 METAR KATL 271852Z 28012G17KT 10SM BKN050 26/15 A2985 RMK AO2 SLP099 T02610150 $=
200909271752 METAR KATL 271752Z 25011G19KT 10SM BKN043 BKN050 26/16 A2987 RMK AO2 SLP107 T02610156 10261 20194 58013 $=
200909271652 METAR KATL 271652Z 28010G19KT 10SM SCT038 BKN200 24/16 A2989 RMK AO2 SLP115 T02440161 $=
200909271552 METAR KATL 271552Z 26014G17KT 10SM SCT025 BKN037 BKN200 24/17 A2991 RMK AO2 SLP119 T02390172 $=
200909271519 SPECI KATL 271519Z 27006KT 9SM SCT017 SCT025 BKN200 24/18 A2991 RMK AO2 $=
200909271519 SPECI KATL 271519Z 27006KT 9SM SCT017 SCT025 BKN200 24/18 A2991 RMK AO2 $=
200909271452 METAR KATL 271452Z 29009KT 8SM BKN015 BKN020 22/19 A2991 RMK AO2 SLP122 T02220189 51010 $=
200909271408 SPECI KATL 271408Z 25008KT 7SM SCT009 BKN017 22/19 A2991 RMK AO2 $=
200909271408 SPECI KATL 271408Z 25008KT 7SM SCT009 BKN017 22/19 A2991 RMK AO2 $=
200909271352 METAR KATL 271352Z 27008KT 7SM BKN009 BKN060 22/19 A2991 RMK AO2 SLP120 T02170194 $=
200909271328 SPECI KATL 271328Z 27007KT 7SM BKN009 BKN060 21/19 A2990 RMK AO2 $=
200909271328 SPECI KATL 271328Z 27007KT 7SM BKN009 BKN060 21/19 A2990 RMK AO2 $=
200909271252 METAR KATL 271252Z 27006KT 7SM SCT005 BKN070 21/19 A2989 RMK AO2 SLP116 T02060189 $=
200909271203 SPECI KATL 271203Z 27007KT 6SM BR SCT005 BKN150 19/19 A2988 RMK AO2 $=
200909271203 SPECI KATL 271203Z 27007KT 6SM BR SCT005 BKN150 19/19 A2988 RMK AO2 $=
200909271153 SPECI KATL 271153Z 28008KT 5SM BR BKN005 OVC200 19/19 A2988 RMK AO2 $=
200909271153 SPECI KATL 271153Z 28008KT 5SM BR BKN005 OVC200 19/19 A2988 RMK AO2 $=
200909271152 METAR KATL 271152Z 28008KT 3SM BR BKN005 OVC200 19/19 A2988 RMK AO2 SFC VIS 5 SLP112 70105 T01940189 10194 20183 53003 $=
200909271052 METAR KATL 271052Z 29006KT 3SM BR BKN005 OVC200 19/19 A2987 RMK AO2 SFC VIS 6 SLP109 T01940189 $=
200909271043 SPECI KATL 271043Z VRB05KT 3SM BR OVC005 19/19 A2987 RMK AO2 SFC VIS 6 $=
200909271043 SPECI KATL 271043Z VRB05KT 3SM BR OVC005 19/19 A2987 RMK AO2 SFC VIS 6 $=
200909271018 SPECI KATL 271018Z 28005KT 2SM BR OVC002 19/19 A2987 RMK AO2 SFC VIS 3 $=
200909271018 SPECI KATL 271018Z 28005KT 2SM BR OVC002 19/19 A2987 RMK AO2 SFC VIS 3 $=
200909271006 SPECI KATL 271006Z 26006KT 1SM BR OVC002 19/19 A2987 RMK AO2 SFC VIS 2 1/2 $=
200909271006 SPECI KATL 271006Z 26006KT 1SM BR OVC002 19/19 A2987 RMK AO2 SFC VIS 2 1/2 $=
200909270956 SPECI KATL 270956Z 27006KT 2 1/2SM BR OVC002 19/19 A2987 RMK AO2 $=
200909270956 SPECI KATL 270956Z 27006KT 2 1/2SM BR OVC002 19/19 A2987 RMK AO2 $=
200909270952 METAR KATL 270952Z 26004KT 1 3/4SM BR OVC002 19/19 A2987 RMK AO2 SLP108 T01940189 $=
200909270852 METAR KATL 270852Z 25006KT 1 3/4SM R09R/5500VP6000FT BR OVC002 19/19 A2987 RMK AO2 SLP109 T01890189 56005 $=
200909270837 SPECI KATL 270837Z 25005KT 2SM BR OVC002 19/18 A2987 RMK AO2 $=
200909270837 SPECI KATL 270837Z 25005KT 2SM BR OVC002 19/18 A2987 RMK AO2 $=
200909270821 SPECI KATL 270821Z 26003KT 1SM R09R/P6000FT BR OVC002 19/18 A2987 RMK AO2 $=
200909270821 SPECI KATL 270821Z 26003KT 1SM R09R/P6000FT BR OVC002 19/18 A2987 RMK AO2 $=
200909270815 SPECI KATL 270815Z 27005KT 2 1/2SM BR OVC003 19/18 A2987 RMK AO2 $=
200909270815 SPECI KATL 270815Z 27005KT 2 1/2SM BR OVC003 19/18 A2987 RMK AO2 $=
200909270806 SPECI KATL 270806Z 26004KT 5SM BR OVC004 19/18 A2987 RMK AO2 $=
200909270806 SPECI KATL 270806Z 26004KT 5SM BR OVC004 19/18 A2987 RMK AO2 $=
200909270752 METAR KATL 270752Z 00000KT 10SM BKN005 OVC012 19/18 A2987 RMK AO2 SLP108 T01890183 $=
200909270652 METAR KATL 270652Z 00000KT 10SM BKN005 OVC012 19/18 A2988 RMK AO2 SLP110 T01890178 $=
200909270640 SPECI KATL 270640Z 00000KT 10SM BKN005 OVC012 19/18 A2988 RMK AO2 $=
200909270640 SPECI KATL 270640Z 00000KT 10SM BKN005 OVC012 19/18 A2988 RMK AO2 $=
200909270552 METAR KATL 270552Z 00000KT 10SM FEW004 OVC012 19/17 A2989 RMK AO2 SLP111 60000 T01890172 10194 20183 58015 $=
200909270548 SPECI KATL 270548Z 00000KT 10SM FEW004 OVC012 18/17 A2989 RMK AO2 $=
200909270548 SPECI KATL 270548Z 00000KT 10SM FEW004 OVC012 18/17 A2989 RMK AO2 $=
200909270452 METAR KATL 270452Z 00000KT 10SM FEW004 OVC015 19/17 A2991 RMK AO2 SLP117 T01890172 402940183 $=
200909270352 METAR KATL 270352Z 08003KT 10SM FEW004 OVC015 18/17 A2992 RMK AO2 SLP123 T01830172 $=
200909270252 METAR KATL 270252Z 08003KT 10SM SCT005 OVC017 18/18 A2993 RMK AO2 SLP128 60000 T01830178 58003 $=
200909270152 METAR KATL 270152Z 09004KT 10SM FEW004 BKN018 OVC100 19/18 A2994 RMK AO2 RAB0059E14 SLP133 P0000 T01890178 $=
200909270113 SPECI KATL 270113Z 07005KT 10SM -RA SCT006 BKN015 OVC100 19/17 A2994 RMK AO2 RAB0059 P0000 $=
200909270113 SPECI KATL 270113Z 07005KT 10SM -RA SCT006 BKN015 OVC100 19/17 A2994 RMK AO2 RAB0059 P0000 $=
200909270052 SPECI KATL 270052Z 10006KT 10SM BKN006 BKN015 OVC110 19/18 A2994 RMK AO2 RAB2358E31 SLP132 P0000 T01890178 $=
200909262352 METAR KATL 262352Z 07008KT 10SM BKN006 OVC015 19/18 A2994 RMK AO2 RAE22 SLP132 P0004 60105 T01940183 10289 20194 57001 $=
200909262311 SPECI KATL 262311Z 05011KT 9SM -RA BKN006 BKN015 OVC070 20/19 A2994 RMK AO2 P0004 $=
200909262311 SPECI KATL 262311Z 05011KT 9SM -RA BKN006 BKN015 OVC070 20/19 A2994 RMK AO2 P0004 $=
200909262301 SPECI KATL 262301Z 08010KT 7SM -RA SCT006 BKN025 OVC080 21/20 A2994 RMK AO2 P0004 $=
200909262301 SPECI KATL 262301Z 08010KT 7SM -RA SCT006 BKN025 OVC080 21/20 A2994 RMK AO2 P0004 $=
200909262252 METAR KATL 262252Z 06011G15KT 3SM RA BR BKN006 BKN020 OVC080 21/20 A2994 RMK AO2 TSE38 SLP131 TS MOV E P0018 T02060200 $=
200909262238 SPECI KATL 262238Z 03007KT 5SM RA BR SCT006 BKN018 OVC040 21/20 A2995 RMK AO2 TSE38 TS MOV E P0015 $=
200909262238 SPECI KATL 262238Z 03007KT 5SM RA BR SCT006 BKN018 OVC040 21/20 A2995 RMK AO2 TSE38 TS MOV E P0015 $=
200909262152 METAR KATL 262152Z 01009KT 4SM TSRA BR FEW008 BKN020CB OVC040 21/21 A2995 RMK AO2 TSB09RAB06 SLP133 OCNL LTGICCA NE-SE-S TS NE-SE-S MOV E P0038 T02060206 $=
200909262147 SPECI KATL 262147Z 02011KT 2 1/2SM +TSRA BR SCT008 BKN015CB OVC030 21/21 A2995 RMK AO2 TSB09RAB06 OCNL LTGICCA NE-OHD-S TS NE-OHD-S MOV E P0034 $=
200909262147 SPECI KATL 262147Z 02011KT 2 1/2SM +TSRA BR SCT008 BKN015CB OVC030 21/21 A2995 RMK AO2 TSB09RAB06 OCNL LTGICCA NE-OHD-S TS NE-OHD-S MOV E P0034 $=
200909262138 SPECI KATL 262138Z 36008G18KT 1 1/4SM R09R/3500VP6000FT +TSRA BR BKN008 BKN015CB OVC030 21/21 A2996 RMK AO2 TSB09RAB06 OCNL LTGIC OHD-ALQDS TS OHD-ALQDS MOV E P0015 $=
200909262138 SPECI KATL 262138Z 36008G18KT 1 1/4SM R09R/3500VP6000FT +TSRA BR BKN008 BKN015CB OVC030 21/21 A2996 RMK AO2 TSB09RAB06 OCNL LTGIC OHD-ALQDS TS OHD-ALQDS MOV E P0015 $=
200909262133 SPECI KATL 262133Z 36012G18KT 2SM R09R/4500VP6000FT +TSRA BR BKN008 BKN015CB OVC030 21/21 A2995 RMK AO2 TSB09RAB06 OCNL LTGIC OHD-ALQDS TS OHD-ALQDS MOV E P0003 $=
200909262133 SPECI KATL 262133Z 36012G18KT 2SM R09R/4500VP6000FT +TSRA BR BKN008 BKN015CB OVC030 21/21 A2995 RMK AO2 TSB09RAB06 OCNL LTGIC OHD-ALQDS TS OHD-ALQDS MOV E P0003 $=
200909262109 SPECI KATL 262109Z 02011KT 6SM -TSRA BR BKN005 BKN027CB OVC060 22/21 A2994 RMK AO2 TSB09RAB06 OCNL LTGIC NW TS NW MOV E CB NW MOV E P0000 $=
200909262109 SPECI KATL 262109Z 02011KT 6SM -TSRA BR BKN005 BKN027CB OVC060 22/21 A2994 RMK AO2 TSB09RAB06 OCNL LTGIC NW TS NW MOV E CB NW MOV E P0000 $=
200909262052 METAR KATL 262052Z COR 05009KT 6SM BR BKN005 BKN027CB OVC060 22/21 A2993 RMK AO2 RAE02 SLP125 CB NW MOV E CB DSNT NE-E AND SW-N P0004 60045 T02220211 55012 $=
200909261952 METAR KATL 261952Z 05009KT 3SM R09R/6000VP6000FT RA BR SCT008 BKN015CB BKN027 23/22 A2992 RMK AO2 TSE44 SLP123 CB NE-SE-OHD-W MOV NE P0017 T02280222 $=
200909261944 SPECI KATL 261944Z 06009KT 5SM -RA BR SCT008 BKN015CB BKN027 23/22 A2992 RMK AO2 TSE44 CB NE-SE-OHD-W MOV NE P0013 $=
200909261944 SPECI KATL 261944Z 06009KT 5SM -RA BR SCT008 BKN015CB BKN027 23/22 A2992 RMK AO2 TSE44 CB NE-SE-OHD-W MOV NE P0013 $=
200909261931 SPECI KATL 261931Z 04007KT 4SM -TSRA BR SCT017 BKN029CB BKN041 23/22 A2992 RMK AO2 OCNL LTGIC NE TS NE MOV NE CB N-NE AND SW AND=
200909261931 SPECI KATL 261931Z 04007KT 4SM -TSRA BR SCT017 BKN029CB BKN041 23/22 A2992 RMK AO2 OCNL LTGIC NE TS NE MOV NE CB N-NE AND SW AND NW-N MOV NE P0013 $=
200909261919 SPECI KATL 261919Z 06008KT 1 1/2SM R09R/3500VP6000FT +TSRA BR SCT011 BKN025CB BKN039 23/22 A2993 RMK AO2 OCNL LTGIC NE TS NE MOV NE CB NE AND SE-W MOV NE P0010 $=
200909261919 SPECI KATL 261919Z 06008KT 1 1/2SM R09R/3500VP6000FT +TSRA BR SCT011 BKN025CB BKN039 23/22 A2993 RMK AO2 OCNL LTGIC NE TS NE MOV NE CB NE AND SE-W MOV NE P0010 $=
200909261900 SPECI KATL 261900Z 04007KT 6SM -TSRA BR SCT008 BKN025CB BKN039 24/22 A2994 RMK AO2 OCNL LTGIC NE TS NE MOV NE CB N-E-SE MOV NE SHRA N-E P0000 $=
200909261900 SPECI KATL 261900Z 04007KT 6SM -TSRA BR SCT008 BKN025CB BKN039 24/22 A2994 RMK AO2 OCNL LTGIC NE TS NE MOV NE CB N-E-SE MOV NE SHRA N-E P0000 $=
200909261852 METAR KATL 261852Z VRB06KT 1SM R09R/3000VP6000FT TSRA BR FEW009 BKN015CB OVC039 24/23 A2994 RMK AO2 TSB49RAB31 SLP130 OCNL LTGIC NE TS NE MOV NE CB OHD-ALQDS MOV NE P0024 T02390228 $=
200909261849 SPECI KATL 261849Z 03005KT 1SM R09R/2600VP6000FT TSRA BR SCT011 BKN020CB OVC039 24/23 A2994 RMK AO2 TSB49RAB31 OCNL LTGIC NE TS NE MOV NE CB OHD-ALQDS MOV NE P0024 $=
200909261849 SPECI KATL 261849Z 03005KT 1SM R09R/2600VP6000FT TSRA BR SCT011 BKN020CB OVC039 24/23 A2994 RMK AO2 TSB49RAB31 OCNL LTGIC NE TS NE MOV NE CB OHD-ALQDS MOV NE P0024 $=
200909261844 SPECI KATL 261844Z 35008KT 1SM R09R/2600VP6000FT +RA BR FEW015 BKN023CB BKN039 24/23 A2994 RMK AO2 RAB31 CB OHD-W AND NW MOV NE P0020 $=
200909261844 SPECI KATL 261844Z 35008KT 1SM R09R/2600VP6000FT +RA BR FEW015 BKN023CB BKN039 24/23 A2994 RMK AO2 RAB31 CB OHD-W AND NW MOV NE P0020 $=
200909261825 SPECI KATL 261825Z 09010KT 8SM FEW010 BKN029CB BKN039 26/22 A2994 RMK AO2 CB SW AND NW MOV NE $=
200909261825 SPECI KATL 261825Z 09010KT 8SM FEW010 BKN029CB BKN039 26/22 A2994 RMK AO2 CB SW AND NW MOV NE $=
200909261752 METAR KATL 261752Z COR 17007KT 8SM FEW005 BKN029 BKN039 28/22 A2996 RMK AO2 SLP135 CB DSNT W AND NW SHRA DSNT W AND NW T02830217 10294 20228 58033 $=
200909261722 SPECI KATL 261722Z 18007KT 8SM FEW005 BKN029 BKN036 28/22 A2998 RMK AO2 CB DSNT W AND NW SHRA DSNT NW $=
200909261722 SPECI KATL 261722Z 18007KT 8SM FEW005 BKN029 BKN036 28/22 A2998 RMK AO2 CB DSNT W AND NW SHRA DSNT NW $=
200909261652 METAR KATL 261652Z 16009G16KT 8SM SCT029 BKN045 BKN080 29/22 A3001 RMK AO2 SLP150 CB DSNT NW T02890217 $=
200909261640 SPECI KATL 261640Z 17009KT 8SM SCT026 BKN050 BKN080 28/22 A3002 RMK AO2 CB DSNT NW $=
200909261640 SPECI KATL 261640Z 17009KT 8SM SCT026 BKN050 BKN080 28/22 A3002 RMK AO2 CB DSNT NW $=
200909261552 METAR KATL 261552Z 17006KT 7SM SCT020 BKN025 BKN090 27/22 A3004 RMK AO2 SLP160 T02720217 $=
200909261452 METAR KATL 261452Z 12006KT 7SM SCT015 SCT070 BKN150 26/22 A3006 RMK AO2 SLP169 T02610222 51001 $=
200909261410 SPECI KATL 261410Z 12006KT 6SM HZ SCT008 SCT150 BKN250 25/22 A3006 RMK AO2 $=
200909261410 SPECI KATL 261410Z 12006KT 6SM HZ SCT008 SCT150 BKN250 25/22 A3006 RMK AO2 $=
200909261352 METAR KATL 261352Z 12006KT 3SM BR BKN008 BKN033 BKN150 24/22 A3006 RMK AO2 SFC VIS 6 SLP170 T02390217 $=
200909261341 SPECI KATL 261341Z 12007KT 3SM BR BKN008 BKN033 24/22 A3006 RMK AO2 SFC VIS 6 $=
200909261341 SPECI KATL 261341Z 12007KT 3SM BR BKN008 BKN033 24/22 A3006 RMK AO2 SFC VIS 6 $=
200909261325 SPECI KATL 261325Z 10007KT 3SM BR BKN004 BKN033 23/22 A3007 RMK AO2 SFC VIS 6 $=
200909261325 SPECI KATL 261325Z 10007KT 3SM BR BKN004 BKN033 23/22 A3007 RMK AO2 SFC VIS 6 $=
200909261252 METAR KATL 261252Z 12007KT 2 1/2SM BR BKN004 OVC033 23/22 A3006 RMK AO2 SFC VIS 5 SLP171 BINOVC N T02280222 $=
200909261152 METAR KATL 261152Z 10008KT 2 1/2SM BR BKN004 OVC035 23/22 A3006 RMK AO2 SFC VIS 5 SLP169 T02280222 10244 20228 53001 $=
200909261110 SPECI KATL 261110Z 11005KT 2 1/2SM BR BKN004 BKN050 OVC150 23/22 A3006 RMK AO2 SFC VIS 6 $=
200909261110 SPECI KATL 261110Z 11005KT 2 1/2SM BR BKN004 BKN050 OVC150 23/22 A3006 RMK AO2 SFC VIS 6 $=
200909261052 METAR KATL 261052Z 10004KT 1 1/2SM BR BKN004 BKN050 OVC150 23/22 A3006 RMK AO2 SFC VIS 6 SLP169 T02280222 $=
200909261030 SPECI KATL 261030Z 09006KT 1SM BR BKN004 BKN050 OVC150 23/22 A3006 RMK AO2 SFC VIS 6 $=
200909261030 SPECI KATL 261030Z 09006KT 1SM BR BKN004 BKN050 OVC150 23/22 A3006 RMK AO2 SFC VIS 6 $=
200909261016 SPECI KATL 261016Z 08007KT 2 1/2SM BR SCT004 BKN050 OVC150 23/22 A3006 RMK AO2 SFC VIS 6 $=
200909261016 SPECI KATL 261016Z 08007KT 2 1/2SM BR SCT004 BKN050 OVC150 23/22 A3006 RMK AO2 SFC VIS 6 $=
200909260952 METAR KATL 260952Z 08008KT 10SM BKN050 BKN150 BKN250 23/22 A3006 RMK AO2 SLP168 T02330217 $=
200909260852 METAR KATL 260852Z 00000KT 10SM SCT055 BKN150 BKN250 23/22 A3006 RMK AO2 SLP168 T02330217 56010 $=
200909260752 METAR KATL 260752Z 00000KT 10SM SCT060 SCT150 BKN250 23/22 A3006 RMK AO2 SLP169 T02330222 $=
200909260652 METAR KATL 260652Z 00000KT 10SM FEW060 SCT150 BKN250 24/22 A3007 RMK AO2 SLP172 T02390222 $=
200909260552 METAR KATL 260552Z 00000KT 10SM FEW060 SCT150 SCT250 24/23 A3009 RMK AO2 SLP178 T02440228 10278 20239 58005 $=
200909260452 METAR KATL 260452Z 00000KT 10SM FEW150 SCT250 25/23 A3010 RMK AO2 SLP183 T02500228 403060222=
200909260352 METAR KATL 260352Z 00000KT 10SM FEW150 25/23 A3010 RMK AO2 SLP182 T02500228=
200909260252 METAR KATL 260252Z 00000KT 10SM FEW150 SCT250 26/23 A3010 RMK AO2 SLP183 T02560233 51009=
200909260152 METAR KATL 260152Z 33003KT 10SM BKN150 BKN250 26/22 A3010 RMK AO2 SLP181 T02610222=
200909260052 METAR KATL 260052Z 00000KT 10SM FEW035 SCT150 BKN250 27/23 A3009 RMK AO2 TSE36 SLP181 TS DSIPTD T02670228=
200909260036 SPECI KATL 260036Z 34006KT 10SM FEW035 SCT150 BKN250 27/23 A3009 RMK AO2 TSE36 TS DSIPTD=
200909260036 SPECI KATL 260036Z 34006KT 10SM FEW035 SCT150 BKN250 27/23 A3009 RMK AO2 TSE36 TS DSIPTD=
200909252352 METAR KATL 252352Z 31004KT 10SM TS SCT035CB BKN050 BKN150 BKN250 27/22 A3008 RMK AO2 TSB38 SLP175 OCNL LTGIC VC NE-E TS VC NE-E MOV E T02720222 10306 20272 53006=
200909252339 SPECI KATL 252339Z 24003KT 10SM TS SCT035CB BKN150 BKN250 28/22 A3008 RMK AO2 TSB38 OCNL LTGIC VC NE-E TS VC NE-E MOV STNRY=
200909252339 SPECI KATL 252339Z 24003KT 10SM TS SCT035CB BKN150 BKN250 28/22 A3008 RMK AO2 TSB38 OCNL LTGIC VC NE-E TS VC NE-E MOV STNRY=
200909252252 METAR KATL 252252Z 23005KT 10SM SCT045TCU BKN150 BKN200 28/22 A3007 RMK AO2 SLP171 TCU NE-E AND SW-NW SHRA NE-E T02830222=
200909252152 METAR KATL 252152Z 20006KT 10SM SCT040TCU BKN250 30/21 A3006 RMK AO2 SLP167 TCU OHD-NE T03000211=
200909252052 METAR KATL 252052Z 17005KT 10SM FEW044TCU SCT200 BKN250 31/22 A3006 RMK AO2 SLP168 CB DSNT NW-N TCU S & NW T03060217 56014=
200909251952 METAR KATL 251952Z VRB04KT 10SM FEW040TCU SCT070 SCT200 BKN250 31/22 A3007 RMK AO2 SLP170 CB DSNT NW TCU S & W T03060222=
200909251852 METAR KATL 251852Z VRB03KT 10SM FEW030TCU SCT070 BKN200 30/22 A3008 RMK AO2 SLP176 TCU SW & NW T03000217=
200909251752 METAR KATL 251752Z 19004KT 10SM FEW030TCU SCT070 BKN200 29/22 A3010 RMK AO2 SLP182 TCU E-SE-S & W T02940217 10294 20228 58009=
200909251652 METAR KATL 251652Z 00000KT 10SM SCT030 BKN200 BKN250 28/21 A3012 RMK AO2 SLP189 T02830211=
200909251552 METAR KATL 251552Z 19006KT 10SM FEW025 SCT150 BKN250 28/21 A3013 RMK AO2 SLP191 T02780211=
200909251452 METAR KATL 251452Z 21004KT 10SM FEW020 SCT150 SCT250 27/22 A3013 RMK AO2 SLP191 T02670222 51007=
200909251352 METAR KATL 251352Z 19004KT 10SM FEW150 BKN250 26/22 A3012 RMK AO2 SLP191 T02560222=
200909251252 METAR KATL 251252Z 20003KT 10SM BKN150 BKN250 24/22 A3012 RMK AO2 SLP189 T02390222=
200909251152 METAR KATL 251152Z 00000KT 9SM BKN150 23/21 A3011 RMK AO2 SLP186 T02280211 10239 20222 53007=
200909251052 METAR KATL 251052Z 00000KT 10SM BKN150 23/21 A3009 RMK AO2 SLP179 T02280211=
200909250952 METAR KATL 250952Z 00000KT 10SM BKN150 22/21 A3009 RMK AO2 SLP178 T02220211=
200909250852 METAR KATL 250852Z 00000KT 10SM SCT150 23/21 A3009 RMK AO2 SLP178 T02280211 55003=
200909250752 METAR KATL 250752Z 00000KT 10SM FEW150 23/21 A3008 RMK AO2 SLP175 T02280211=
200909250652 METAR KATL 250652Z 00000KT 10SM CLR 23/21 A3009 RMK AO2 SLP180 T02280211=
200909250552 METAR KATL 250552Z 00000KT 9SM FEW150 23/22 A3010 RMK AO2 SLP181 T02330217 10267 20233 50000=
200909250452 METAR KATL 250452Z 00000KT 10SM FEW150 SCT250 24/22 A3011 RMK AO2 SLP186 T02390217 402940211=
200909250352 METAR KATL 250352Z 00000KT 10SM SCT150 BKN250 24/22 A3011 RMK AO2 SLP186 T02440217=
200909250252 METAR KATL 250252Z 00000KT 10SM FEW035 SCT250 25/22 A3010 RMK AO2 SLP181 T02500217 51012=
200909250152 METAR KATL 250152Z 00000KT 10SM FEW035 SCT150 SCT250 26/22 A3009 RMK AO2 SLP180 T02560217=
200909250052 METAR KATL 250052Z 00000KT 10SM FEW035 SCT250 26/22 A3007 RMK AO2 SLP175 T02610217=
200909242352 METAR KATL 242352Z 00000KT 10SM FEW200 BKN250 26/22 A3006 RMK AO2 SLP170 T02610217 10294 20261 56004=
200909242252 METAR KATL 242252Z 17005KT 10SM SCT250 28/21 A3006 RMK AO2 SLP171 T02780211=
200909242152 METAR KATL 242152Z 14005KT 10SM FEW035 SCT250 28/21 A3006 RMK AO2 SLP168 T02830211=
200909242052 METAR KATL 242052Z VRB05KT 10SM FEW035TCU SCT085 SCT250 28/21 A3007 RMK AO2 SLP173 TCU S & NW T02830206 56014=
200909241952 METAR KATL 241952Z 19006KT 10SM FEW035TCU BKN050 BKN250 29/22 A3008 RMK AO2 SLP177 TCU NW T02890217=
200909241852 METAR KATL 241852Z 18008KT 10SM FEW030 SCT040 SCT250 28/21 A3010 RMK AO2 SLP182 T02830211=
200909241752 METAR KATL 241752Z 11007KT 10SM FEW030 BKN035 BKN250 28/22 A3011 RMK AO2 SLP186 T02830217 10283 20222 58010=
200909241652 METAR KATL 241652Z 16009KT 10SM FEW022 BKN028 BKN250 27/22 A3013 RMK AO2 SLP192 T02720217=
200909241625 SPECI KATL 241625Z 15008KT 10SM FEW020 SCT025 SCT250 27/22 A3013 RMK AO2=
200909241625 SPECI KATL 241625Z 15008KT 10SM FEW020 SCT025 SCT250 27/22 A3013 RMK AO2=
200909241552 METAR KATL 241552Z 15007KT 10SM BKN015 BKN020 BKN250 26/22 A3014 RMK AO2 SLP197 T02560217=
200909241505 SPECI KATL 241505Z 16006KT 10SM BKN015 BKN250 24/22 A3014 RMK AO2=
200909241505 SPECI KATL 241505Z 16006KT 10SM BKN015 BKN250 24/22 A3014 RMK AO2=
200909241452 METAR KATL 241452Z 14006KT 10SM BKN013 BKN016 BKN250 24/22 A3014 RMK AO2 SLP199 T02440217 53003=
200909241404 SPECI KATL 241404Z AUTO 13005KT 10SM BKN010 BKN016 BKN250 24/22 A3014 RMK AO2=
200909241404 SPECI KATL 241404Z AUTO 13005KT 10SM BKN010 BKN016 BKN250 24/22 A3014 RMK AO2=
200909241352 METAR KATL 241352Z 16005KT 10SM BKN008 BKN016 BKN250 24/22 A3014 RMK AO2 SLP197 T02390217=
200909241252 METAR KATL 241252Z 10006KT 7SM FEW005 SCT016 BKN150 23/21 A3014 RMK AO2 SLP196 T02280211=
200909241249 SPECI KATL 241249Z VRB05KT 7SM SCT005 BKN016 BKN150 23/21 A3013 RMK AO2=
200909241249 SPECI KATL 241249Z VRB05KT 7SM SCT005 BKN016 BKN150 23/21 A3013 RMK AO2=
200909241152 METAR KATL 241152Z 11005KT 6SM BR BKN005 BKN008 22/21 A3014 RMK AO2 SLP197 T02220211 10233 20211 53003=
200909241052 METAR KATL 241052Z 09005KT 7SM BKN007 BKN010 22/21 A3013 RMK AO2 SLP195 T02220206=
200909240952 METAR KATL 240952Z 10004KT 7SM BKN008 OVC011 22/21 A3012 RMK AO2 SLP192 T02220206=
200909240923 SPECI KATL 240923Z 07006KT 10SM BKN008 BKN011 22/21 A3013 RMK AO2=
200909240923 SPECI KATL 240923Z 07006KT 10SM BKN008 BKN011 22/21 A3013 RMK AO2=
200909240909 SPECI KATL 240909Z 08004KT 10SM BKN011 22/21 A3013 RMK AO2=
200909240909 SPECI KATL 240909Z 08004KT 10SM BKN011 22/21 A3013 RMK AO2=
200909240852 METAR KATL 240852Z 08004KT 10SM FEW050 21/20 A3013 RMK AO2 SLP193 T02110200 55003=
200909240752 METAR KATL 240752Z 10004KT 10SM FEW150 22/20 A3012 RMK AO2 SLP189 T02170200=
200909240652 METAR KATL 240652Z 07005KT 10SM SCT025 22/20 A3013 RMK AO2 SLP191 T02220200=
200909240552 METAR KATL 240552Z 04005KT 10SM BKN032 BKN043 23/20 A3014 RMK AO2 SLP195 T02330200 10256 20228 58001=
200909240452 METAR KATL 240452Z 07006KT 10SM FEW050 BKN250 23/21 A3014 RMK AO2 SLP196 T02280206 402830200=
200909240352 METAR KATL 240352Z 07004KT 10SM SCT150 BKN250 23/21 A3014 RMK AO2 SLP198 T02280211=
200909240252 METAR KATL 240252Z 08007KT 10SM BKN150 BKN250 23/21 A3014 RMK AO2 SLP197 T02330211 51010=
200909240152 METAR KATL 240152Z 05009KT 10SM BKN150 BKN250 26/21 A3014 RMK AO2 SLP196 T02560206=
200909240052 METAR KATL 240052Z 09004KT 10SM BKN150 BKN250 25/21 A3012 RMK AO2 SLP191 T02500211=
200909232352 METAR KATL 232352Z 10005KT 10SM FEW030 BKN150 BKN250 25/21 A3011 RMK AO2 SLP188 T02500206 10283 20250 55000=
200909232252 METAR KATL 232252Z 10005KT 10SM FEW030 BKN150 BKN200 26/21 A3011 RMK AO2 SLP185 T02610206=
200909232152 METAR KATL 232152Z 07007KT 10SM FEW030 BKN150 BKN200 27/21 A3011 RMK AO2 SLP186 T02670206=
200909232052 METAR KATL 232052Z 09007KT 10SM FEW030 BKN040 BKN150 BKN250 27/20 A3011 RMK AO2 SLP188 T02670200 56017=
200909231952 METAR KATL 231952Z VRB05KT 10SM SCT030 BKN100 BKN250 28/21 A3012 RMK AO2 SLP191 T02780206=
200909231852 METAR KATL 231852Z 13006KT 10SM FEW025 SCT030 SCT100 BKN250 27/21 A3014 RMK AO2 SLP199 T02720206=
200909231803 SPECI KATL 231803Z 09008KT 10SM BKN030 BKN050 BKN250 26/20 A3017 RMK AO2=
200909231803 SPECI KATL 231803Z 09008KT 10SM BKN030 BKN050 BKN250 26/20 A3017 RMK AO2=
200909231752 METAR KATL 231752Z 10007KT 10SM BKN025 BKN050 BKN250 26/20 A3016 RMK AO2 SLP206 T02610200 10261 20206 58008=
200909231652 METAR KATL 231652Z 07007KT 10SM BKN024 BKN040 BKN250 26/21 A3018 RMK AO2 SLP210 T02610206=
200909231552 METAR KATL 231552Z 11008KT 10SM BKN017 BKN020 BKN250 25/21 A3019 RMK AO2 SLP216 T02500206=
200909231452 METAR KATL 231452Z 09009KT 10SM FEW012 BKN015 BKN020 23/21 A3019 RMK AO2 SLP214 T02330206 51010=
200909231356 SPECI KATL 231356Z 08011G17KT 10SM FEW008 BKN016 BKN020 22/21 A3018 RMK AO2=
200909231356 SPECI KATL 231356Z 08011G17KT 10SM FEW008 BKN016 BKN020 22/21 A3018 RMK AO2=
200909231352 METAR KATL 231352Z 09012G17KT 9SM BKN007 BKN008 BKN018 22/21 A3018 RMK AO2 SLP212 T02220206=
200909231319 SPECI KATL 231319Z 08010KT 3SM BR BKN005 BKN014 BKN018 22/20 A3017 RMK AO2 SFC VIS 6=
200909231319 SPECI KATL 231319Z 08010KT 3SM BR BKN005 BKN014 BKN018 22/20 A3017 RMK AO2 SFC VIS 6=
200909231316 SPECI KATL 231316Z 09009KT 1 1/2SM BR BKN005 OVC014 21/20 A3017 RMK AO2 SFC VIS 6 CIG 003V009=
200909231316 SPECI KATL 231316Z 09009KT 1 1/2SM BR BKN005 OVC014 21/20 A3017 RMK AO2 SFC VIS 6 CIG 003V009=
200909231254 SPECI KATL 231254Z 08011KT 1 1/2SM BR OVC003 21/20 A3017 RMK AO2 SFC VIS 4=
200909231254 SPECI KATL 231254Z 08011KT 1 1/2SM BR OVC003 21/20 A3017 RMK AO2 SFC VIS 4=
200909231252 METAR KATL 231252Z 09011KT 1/2SM BR OVC003 21/20 A3017 RMK AO2 SFC VIS 4 SLP207 T02060200=
200909231214 SPECI KATL 231214Z 08010KT 1/2SM BR OVC003 21/20 A3016 RMK AO2 SFC VIS 4=
200909231214 SPECI KATL 231214Z 08010KT 1/2SM BR OVC003 21/20 A3016 RMK AO2 SFC VIS 4=
200909231158 SPECI KATL 231158Z 07009KT 1 1/2SM BR BKN005 21/19 A3016 RMK AO2 SFC VIS 5=
200909231158 SPECI KATL 231158Z 07009KT 1 1/2SM BR BKN005 21/19 A3016 RMK AO2 SFC VIS 5=
200909231152 METAR KATL 231152Z 08009KT 5SM BR BKN005 21/19 A3016 RMK AO2 SLP204 T02060194 10222 20200 53004=
200909231135 SPECI KATL 231135Z 07007KT 5SM BR BKN005 21/19 A3015 RMK AO2=
200909231135 SPECI KATL 231135Z 07007KT 5SM BR BKN005 21/19 A3015 RMK AO2=
200909231052 METAR KATL 231052Z 07008KT 6SM BR FEW005 SCT010 21/19 A3014 RMK AO2 SLP198 T02060194=
200909231020 SPECI KATL 231020Z 06010KT 6SM BR FEW005 21/19 A3014 RMK AO2=
200909231020 SPECI KATL 231020Z 06010KT 6SM BR FEW005 21/19 A3014 RMK AO2=
200909230952 METAR KATL 230952Z 06007KT 7SM FEW120 21/19 A3014 RMK AO2 SLP197 T02060194=
200909230852 METAR KATL 230852Z 06006KT 8SM SCT250 21/19 A3015 RMK AO2 SLP199 T02060194 55003=
200909230752 METAR KATL 230752Z 07009KT 9SM SCT250 21/19 A3014 RMK AO2 SLP199 T02110194=
200909230652 METAR KATL 230652Z 07008KT 10SM SCT250 21/19 A3015 RMK AO2 SLP201 T02110194=
200909230552 METAR KATL 230552Z 07008KT 10SM FEW150 22/19 A3016 RMK AO2 SLP203 T02220194 10250 20217 58002=
200909230452 METAR KATL 230452Z 08006KT 10SM CLR 22/20 A3018 RMK AO2 SLP209 T02220200 402890200=
200909230352 METAR KATL 230352Z 08005KT 10SM CLR 22/20 A3017 RMK AO2 SLP207 T02220200=
200909230252 METAR KATL 230252Z 08007KT 10SM CLR 23/20 A3016 RMK AO2 SLP206 T02280200 51020=
200909230152 METAR KATL 230152Z 09006KT 10SM FEW031 23/21 A3016 RMK AO2 SLP205 T02330206=
200909230052 METAR KATL 230052Z 09005KT 10SM BKN033 24/21 A3015 RMK AO2 SLP201 T02440206=
200909222352 METAR KATL 222352Z 09007KT 10SM FEW036 SCT250 24/20 A3010 RMK AO2 SLP185 T02440200 10289 20244 55001=
200909222252 METAR KATL 222252Z 10006KT 10SM FEW036 26/20 A3009 RMK AO2 SLP180 T02610200=
200909222152 METAR KATL 222152Z 09011KT 10SM SCT034 SCT250 27/20 A3009 RMK AO2 SLP181 T02720200=
200909222052 METAR KATL 222052Z 10007KT 10SM SCT034 28/21 A3010 RMK AO2 SLP185 T02780206 56022=
200909221952 METAR KATL 221952Z 09008KT 10SM SCT030 SCT200 28/21 A3012 RMK AO2 SLP191 T02780206=
200909221852 METAR KATL 221852Z VRB03KT 10SM FEW025 SCT060 SCT200 28/21 A3014 RMK AO2 SLP198 T02780206=
200909221752 METAR KATL 221752Z 00000KT 10SM FEW025 SCT060 27/21 A3017 RMK AO2 SLP208 T02670206 10272 20200 58012=
200909221652 METAR KATL 221652Z VRB05KT 10SM SCT019 BKN050 BKN075 26/21 A3019 RMK AO2 SLP213 T02560211=
200909221552 METAR KATL 221552Z 10007KT 10SM SCT017 BKN045 BKN070 25/21 A3020 RMK AO2 SLP218 T02500206 $=
200909221452 METAR KATL 221452Z 07006KT 10SM FEW010 BKN045 BKN065 23/21 A3021 RMK AO2 SLP221 T02280206 53011=
200909221352 METAR KATL 221352Z 09009KT 9SM FEW007 BKN040 BKN060 22/21 A3019 RMK AO2 SLP217 T02220206=
200909221252 METAR KATL 221252Z 09008KT 3SM BR SCT004 BKN040 21/20 A3018 RMK AO2 SFC VIS 6 SLP214 T02110200=
200909221242 SPECI KATL 221242Z 09008KT 3SM BR BKN004 BKN040 21/20 A3019 RMK AO2 SFC VIS 6=
200909221242 SPECI KATL 221242Z 09008KT 3SM BR BKN004 BKN040 21/20 A3019 RMK AO2 SFC VIS 6=
200909221152 METAR KATL 221152Z 07009KT 1SM BR BKN004 BKN018 20/19 A3017 RMK AO2 SFC VIS 6 SLP211 60000 70180 T02000194 10211 20200 51009=
200909221103 SPECI KATL 221103Z 08007KT 1SM BR OVC004 20/19 A3016 RMK AO2 SFC VIS 6=
200909221103 SPECI KATL 221103Z 08007KT 1SM BR OVC004 20/19 A3016 RMK AO2 SFC VIS 6=
200909221052 METAR KATL 221052Z 08006KT 2SM BR BKN004 OVC013 20/19 A3016 RMK AO2 SFC VIS 6 SLP207 T02000194=
200909221026 SPECI KATL 221026Z 09006KT 2SM BR BKN004 OVC013 20/20 A3016 RMK AO2 SFC VIS 6=
200909221026 SPECI KATL 221026Z 09006KT 2SM BR BKN004 OVC013 20/20 A3016 RMK AO2 SFC VIS 6=
200909220952 METAR KATL 220952Z 08007KT 6SM BR BKN004 OVC013 21/20 A3016 RMK AO2 CIG 002V008 SLP207 T02060200=
200909220920 SPECI KATL 220920Z 08005KT 6SM BR SCT004 BKN055 BKN090 21/20 A3015 RMK AO2=
200909220920 SPECI KATL 220920Z 08005KT 6SM BR SCT004 BKN055 BKN090 21/20 A3015 RMK AO2=
200909220852 METAR KATL 220852Z 07003KT 6SM BR SCT030 BKN055 20/20 A3014 RMK AO2 SLP201 60000 T02000200 56001=
200909220752 METAR KATL 220752Z 00000KT 7SM BKN080 21/20 A3015 RMK AO2 SLP201 T02060200=
200909220705 SPECI KATL 220705Z 16003KT 10SM FEW005 SCT009 BKN085 21/20 A3013 RMK AO2=
200909220705 SPECI KATL 220705Z 16003KT 10SM FEW005 SCT009 BKN085 21/20 A3013 RMK AO2=
200909220652 METAR KATL 220652Z 16003KT 6SM BR BKN005 BKN037 21/20 A3014 RMK AO2 RAB04E14 SLP197 P0000 T02060200=
200909220615 SPECI KATL 220615Z 12004KT 6SM BR BKN007 BKN037 21/20 A3014 RMK AO2 RAB04E14 P0000=
200909220615 SPECI KATL 220615Z 12004KT 6SM BR BKN007 BKN037 21/20 A3014 RMK AO2 RAB04E14 P0000=
200909220552 METAR KATL 220552Z 13006KT 6SM BR BKN004 OVC009 21/20 A3015 RMK AO2 SLP200 60000 T02110200 10217 20211 53001=
200909220510 SPECI KATL 220510Z 12008KT 6SM BR OVC004 21/20 A3014 RMK AO2=
200909220510 SPECI KATL 220510Z 12008KT 6SM BR OVC004 21/20 A3014 RMK AO2=
200909220452 METAR KATL 220452Z 12008KT 2SM BR OVC004 21/21 A3014 RMK AO2 SFC VIS 6 CIG 003V007 SLP197 CIG 003V008 T02110206 402610211=
200909220411 SPECI KATL 220411Z 11007KT 2SM BR OVC004 21/21 A3014 RMK AO2 SFC VIS 4 CIG 003V008=
200909220411 SPECI KATL 220411Z 11007KT 2SM BR OVC004 21/21 A3014 RMK AO2 SFC VIS 4 CIG 003V008=
200909220352 METAR KATL 220352Z 10009KT 4SM BR BKN004 BKN060 OVC075 21/21 A3014 RMK AO2 SLP198 CIG 003V006 T02110206=
200909220348 SPECI KATL 220348Z 09008KT 5SM BR BKN004 BKN060 BKN075 21/21 A3014 RMK AO2=
200909220348 SPECI KATL 220348Z 09008KT 5SM BR BKN004 BKN060 BKN075 21/21 A3014 RMK AO2=
200909220334 SPECI KATL 220334Z 10007KT 5SM BR SCT003 BKN060 OVC075 21/21 A3015 RMK AO2=
200909220334 SPECI KATL 220334Z 10007KT 5SM BR SCT003 BKN060 OVC075 21/21 A3015 RMK AO2=
200909220252 METAR KATL 220252Z 10008KT 1SM BR OVC003 21/21 A3015 RMK AO2 SFC VIS 5 SLP200 CIG 002V005 TWRINC 60000 T02110206 50005=
200909220245 SPECI KATL 220245Z 09008KT 1SM BR OVC003 21/21 A3015 RMK AO2 SFC VIS 5 CIG 002V005 TWRINC=
200909220245 SPECI KATL 220245Z 09008KT 1SM BR OVC003 21/21 A3015 RMK AO2 SFC VIS 5 CIG 002V005 TWRINC=
200909220222 SPECI KATL 220222Z 10006KT 7SM BKN004 BKN041 OVC075 21/21 A3015 RMK AO2 CIG 003V006=
200909220222 SPECI KATL 220222Z 10006KT 7SM BKN004 BKN041 OVC075 21/21 A3015 RMK AO2 CIG 003V006=
200909220152 METAR KATL 220152Z 10007KT 10SM FEW004 SCT045 BKN120 BKN250 21/21 A3015 RMK AO2 SLP202 T02110206=
200909220052 METAR KATL 220052Z 10006KT 7SM SCT004 SCT025 BKN055 21/21 A3014 RMK AO2 RAE2356 SLP197 P0000 T02110206=
200909220048 SPECI KATL 220048Z 09010KT 7SM SCT004 SCT025 BKN055 21/21 A3013 RMK AO2 RAE2356 P0000=
200909220048 SPECI KATL 220048Z 09010KT 7SM SCT004 SCT025 BKN055 21/21 A3013 RMK AO2 RAE2356 P0000=
200909220025 SPECI KATL 220025Z 10007KT 6SM BR BKN004 BKN039 21/21 A3012 RMK AO2 RAE2356 P0000=
200909220025 SPECI KATL 220025Z 10007KT 6SM BR BKN004 BKN039 21/21 A3012 RMK AO2 RAE2356 P0000=
200909212352 METAR KATL 212352Z 08006KT 6SM -RA BR BKN006 BKN023 OVC037 22/21 A3012 RMK AO2 RAB23 SLP192 CIG 004V007 P0001 60179 T02170206 10256 20211 55001=
200909212340 SPECI KATL 212340Z 08005KT 6SM -RA BR SCT004 SCT020 BKN045 OVC130 21/21 A3011 RMK AO2 RAB23 P0001=
200909212340 SPECI KATL 212340Z 08005KT 6SM -RA BR SCT004 SCT020 BKN045 OVC130 21/21 A3011 RMK AO2 RAB23 P0001=
200909212315 SPECI KATL 212315Z 12006KT 8SM BKN004 BKN250 22/21 A3011 RMK AO2 CIG 003V007=
200909212315 SPECI KATL 212315Z 12006KT 8SM BKN004 BKN250 22/21 A3011 RMK AO2 CIG 003V007=
200909212252 METAR KATL 212252Z 08008KT 10SM SCT006 SCT075 BKN130 OVC250 22/21 A3011 RMK AO2 RAE02 SLP186 CB DSNT SE P0000 T02170211=
200909212152 METAR KATL 212152Z 06010KT 7SM -RA FEW006 SCT016CB BKN060 BKN130 OVC250 22/21 A3012 RMK AO2 TSE17 SLP190 TS MOV NE CB E-SE MOV NE P0023 T02220211=
200909212145 SPECI KATL 212145Z 07009KT 6SM -RA BR SCT006 BKN018CB BKN033 OVC130 22/21 A3012 RMK AO2 TSE17 TS MOV NE CB E-SE MOV NE P0023=
200909212145 SPECI KATL 212145Z 07009KT 6SM -RA BR SCT006 BKN018CB BKN033 OVC130 22/21 A3012 RMK AO2 TSE17 TS MOV NE CB E-SE MOV NE P0023=
200909212137 SPECI KATL 212137Z 05011KT 2SM -RA BR SCT006 BKN018 OVC035 22/21 A3011 RMK AO2 SFC VIS 5 TSE17 TS MOV NE CB DSNT NE-E-SE P0023=
200909212137 SPECI KATL 212137Z 05011KT 2SM -RA BR SCT006 BKN018 OVC035 22/21 A3011 RMK AO2 SFC VIS 5 TSE17 TS MOV NE CB DSNT NE-E-SE P0023=
200909212117 SPECI KATL 212117Z 03010KT 2SM -RA BR SCT006 BKN012 OVC018 22/21 A3012 RMK AO2 SFC VIS 4 TSE17 OCNL LTGICCG DSNT NE-E & S TS MOV NE CB DSNT NE-E & S P0021=
200909212117 SPECI KATL 212117Z 03010KT 2SM -RA BR SCT006 BKN012 OVC018 22/21 A3012 RMK AO2 SFC VIS 4 TSE17 OCNL LTGICCG DSNT NE-E & S TS MOV NE CB DSNT NE-E & S P0021=
200909212108 SPECI KATL 212108Z 03009KT 2SM R09R/5000VP6000FT TSRA BR SCT006 BKN012CB OVC030 22/21 A3012 RMK AO2 SFC VIS 3 OCNL LTGICCG E TS E MOV NE P0017=
200909212108 SPECI KATL 212108Z 03009KT 2SM R09R/5000VP6000FT TSRA BR SCT006 BKN012CB OVC030 22/21 A3012 RMK AO2 SFC VIS 3 OCNL LTGICCG E TS E MOV NE P0017=
200909212101 SPECI KATL 212101Z 36009KT 2SM R09R/4500VP6000FT TSRA BR BKN006 BKN018CB OVC025 22/21 A3012 RMK AO2 SFC VIS 4 OCNL LTGICCG E & NW TS E & NW MOV NE P0009=
200909212101 SPECI KATL 212101Z 36009KT 2SM R09R/4500VP6000FT TSRA BR BKN006 BKN018CB OVC025 22/21 A3012 RMK AO2 SFC VIS 4 OCNL LTGICCG E & NW TS E & NW MOV NE P0009=
200909212056 SPECI KATL 212056Z 01010KT 4SM R09R/4500VP6000FT TSRA BR BKN006 BKN018CB OVC025 22/21 A3013 RMK AO2 OCNL LTGICCG E & NW TS E & NW MOV NE P0002=
200909212056 SPECI KATL 212056Z 01010KT 4SM R09R/4500VP6000FT TSRA BR BKN006 BKN018CB OVC025 22/21 A3013 RMK AO2 OCNL LTGICCG E & NW TS E & NW MOV NE P0002=
200909212052 METAR KATL 212052Z 35007KT 5SM TSRA BR BKN006 OVC018CB 22/21 A3013 RMK AO2 TSE1956B34RAE1956B19 SLP194 OCNL LTGICCG SE & W TS VC SE & W MOV NE P0006 60155 T02170211 53008=
200909212034 SPECI KATL 212034Z 01007KT 6SM -TSRA BR SCT006 BKN018CB OVC050 22/21 A3011 RMK AO2 TSE1956B34RAE1956B19 OCNL LTGICCG SW-W-NW TS VC SW-W-NW MOV NE P0000=
200909212034 SPECI KATL 212034Z 01007KT 6SM -TSRA BR SCT006 BKN018CB OVC050 22/21 A3011 RMK AO2 TSE1956B34RAE1956B19 OCNL LTGICCG SW-W-NW TS VC SW-W-NW MOV NE P0000=
200909211956 SPECI KATL 211956Z 34008KT 10SM SCT010 BKN030 OVC060 22/22 A3009 RMK AO2 TSE56RAE56 FRQ LTGICCG DSNT NE-E-SE TS MOV NE CB DSNT NE-E-SE P0000 $=
200909211956 SPECI KATL 211956Z 34008KT 10SM SCT010 BKN030 OVC060 22/22 A3009 RMK AO2 TSE56RAE56 FRQ LTGICCG DSNT NE-E-SE TS MOV NE CB DSNT NE-E-SE P0000 $=
200909211952 METAR KATL 211952Z 34009KT 5SM -TSRA FEW003 SCT010CB OVC040 22/22 A3009 RMK AO2 RAB1853 SLP181 VIS LWR NE-E-SE SHRA FRQ LTGICCG NE-E-SE TS VC NE-E-SE MOV NE P0121 T02170217 $=
200909211949 SPECI KATL 211949Z 33009KT 5SM R09R/5500VP6000FT -TSRA FEW003 SCT010CB OVC040 22/22 A3009 RMK AO2 RAB1853 VIS LWR NE-E SHRA FRQ LTGICCG NE-E TS NE-E MOV NE P0121 $=
200909211949 SPECI KATL 211949Z 33009KT 5SM R09R/5500VP6000FT -TSRA FEW003 SCT010CB OVC040 22/22 A3009 RMK AO2 RAB1853 VIS LWR NE-E SHRA FRQ LTGICCG NE-E TS NE-E MOV NE P0121 $=
200909211941 SPECI KATL 211941Z 34008KT 1SM R09R/3000VP6000FT TSRA FEW001 SCT008 OVC011CB 22/22 A3010 RMK AO2 SFC VIS 3 RAB1853 FRQ LTGICCG NE-E-SE TS NE-E-SE MOV NE P0113 $=
200909211941 SPECI KATL 211941Z 34008KT 1SM R09R/3000VP6000FT TSRA FEW001 SCT008 OVC011CB 22/22 A3010 RMK AO2 SFC VIS 3 RAB1853 FRQ LTGICCG NE-E-SE TS NE-E-SE MOV NE P0113 $=
200909211938 SPECI KATL 211938Z 32010G18KT 1SM R09R/3000VP6000FT TSRA BKN001 BKN008 OVC014CB 22/22 A3010 RMK AO2 SFC VIS 3 RAB1853 FRQ LTGICCG NE-E-SE TS NE-E-SE MOV NE P0109 $=
200909211938 SPECI KATL 211938Z 32010G18KT 1SM R09R/3000VP6000FT TSRA BKN001 BKN008 OVC014CB 22/22 A3010 RMK AO2 SFC VIS 3 RAB1853 FRQ LTGICCG NE-E-SE TS NE-E-SE MOV NE P0109 $=
200909211931 SPECI KATL 211931Z 30011G24KT 1/2SM R09R/2000V5000FT +TSRA BKN001 BKN008 OVC014CB 22/22 A3010 RMK AO2 SFC VIS 3/4 RAB1853 FRQ LTGICCG OHD-NE-E-SE TS OHD-NE-E-SE MOV NE P0079 $=
200909211931 SPECI KATL 211931Z 30011G24KT 1/2SM R09R/2000V5000FT +TSRA BKN001 BKN008 OVC014CB 22/22 A3010 RMK AO2 SFC VIS 3/4 RAB1853 FRQ LTGICCG OHD-NE-E-SE TS OHD-NE-E-SE MOV NE P0079 $=
200909211929 SPECI KATL 211929Z 31014G24KT 1/2SM R09R/2000V5000FT +TSRA BKN001 BKN008 OVC014CB 22/22 A3010 RMK AO2 RAB1853 FRQ LTGICCG OHD TS OHD MOV NE P0076 $=
200909211929 SPECI KATL 211929Z 31014G24KT 1/2SM R09R/2000V5000FT +TSRA BKN001 BKN008 OVC014CB 22/22 A3010 RMK AO2 RAB1853 FRQ LTGICCG OHD TS OHD MOV NE P0076 $=
200909211919 SPECI KATL 211919Z 1/4SM R09R/1800VP6000FT +TSRA SCT008 BKN014CB OVC040 23/22 A3011 RMK AO2 TWR VIS 1/2 RAB1853 FRQ LTGICCG OHD TS OHD MOV NE P0035 $=
200909211919 SPECI KATL 211919Z 1/4SM R09R/1800VP6000FT +TSRA SCT008 BKN014CB OVC040 23/22 A3011 RMK AO2 TWR VIS 1/2 RAB1853 FRQ LTGICCG OHD TS OHD MOV NE P0035 $=
200909211917 SPECI KATL 211917Z 28021G30KT 1/2SM R09R/2600VP6000FT +TSRA SCT008 BKN014CB OVC040 23/22 A3010 RMK AO2 PK WND 27030/1917 RAB1853 FRQ LTGICCG OHD TS OHD MOV NE P0029=
200909211917 SPECI KATL 211917Z 28021G30KT 1/2SM R09R/2600VP6000FT +TSRA SCT008 BKN014CB OVC040 23/22 A3010 RMK AO2 PK WND 27030/1917 RAB1853 FRQ LTGICCG OHD TS OHD MOV NE P0029=
200909211909 SPECI KATL 211909Z 33006KT 1/2SM R09R/P6000FT +TSRA FEW010CB BKN020 OVC040 24/23 A3009 RMK AO2 SFC VIS 1 RAB1853 FRQ LTGICCG OHD-SW TS OHD-SW MOV NE P0003=
200909211909 SPECI KATL 211909Z 33006KT 1/2SM R09R/P6000FT +TSRA FEW010CB BKN020 OVC040 24/23 A3009 RMK AO2 SFC VIS 1 RAB1853 FRQ LTGICCG OHD-SW TS OHD-SW MOV NE P0003=
200909211857 SPECI KATL 211857Z 04003KT 6SM -TSRA FEW010CB BKN029 OVC046 24/23 A3009 RMK AO2 RAB53 FRQ LTGICCG SW TS VC SW MOV NE P0000=
200909211857 SPECI KATL 211857Z 04003KT 6SM -TSRA FEW010CB BKN029 OVC046 24/23 A3009 RMK AO2 RAB53 FRQ LTGICCG SW TS VC SW MOV NE P0000=
200909211852 METAR KATL 211852Z COR 07004KT 6SM -TSRA SCT010CB BKN020 OVC050 24/23 A3009 RMK AO2 TSB03RAE47 SLP179 FRQ LTGICCG SW & NW TS VC SW & NW MOV NE P0028 T02440228=
200909211840 SPECI KATL 211840Z 00000KT 6SM -TSRA FEW010CB BKN027 OVC050 24/23 A3009 RMK AO2 TSB03 OCNL LTGICCG SW-W-NW-N TS VC SW-W-NW-N MOV NE P0028=
200909211840 SPECI KATL 211840Z 00000KT 6SM -TSRA FEW010CB BKN027 OVC050 24/23 A3009 RMK AO2 TSB03 OCNL LTGICCG SW-W-NW-N TS VC SW-W-NW-N MOV NE P0028=
200909211828 SPECI KATL 211828Z 14005KT 6SM -TSRA BR FEW009 BKN018CB OVC048 24/23 A3010 RMK AO2 TSB03 OCNL LTGICCG NW TS NW MOV NE P0028=
200909211828 SPECI KATL 211828Z 14005KT 6SM -TSRA BR FEW009 BKN018CB OVC048 24/23 A3010 RMK AO2 TSB03 OCNL LTGICCG NW TS NW MOV NE P0028=
200909211825 SPECI KATL 211825Z 13004KT 2SM R09R/3000VP6000FT -TSRA BR FEW009 BKN018CB OVC048 24/23 A3010 RMK AO2 SFC VIS 5 TSB03 OCNL LTGICCG NW TS NW MOV NE P0028=
200909211825 SPECI KATL 211825Z 13004KT 2SM R09R/3000VP6000FT -TSRA BR FEW009 BKN018CB OVC048 24/23 A3010 RMK AO2 SFC VIS 5 TSB03 OCNL LTGICCG NW TS NW MOV NE P0028=
200909211820 SPECI KATL 211820Z 12006G14KT 1SM R09R/3000VP6000FT +TSRA BR BKN011CB BKN018 OVC055 24/23 A3010 RMK AO2 TWR VIS 2 TSB03 OCNL LTGICCG OHD-W TS OHD-W MOV NE P0027=
200909211820 SPECI KATL 211820Z 12006G14KT 1SM R09R/3000VP6000FT +TSRA BR BKN011CB BKN018 OVC055 24/23 A3010 RMK AO2 TWR VIS 2 TSB03 OCNL LTGICCG OHD-W TS OHD-W MOV NE P0027=
200909211811 SPECI KATL 211811Z 15009G14KT 2SM +TSRA BR BKN015CB BKN040 OVC090 24/23 A3011 RMK AO2 TSB03 OCNL LTGICCG OHD-S-SW-W-NW TS OHD-S-SW-W-NW MOV NE P0004=
200909211811 SPECI KATL 211811Z 15009G14KT 2SM +TSRA BR BKN015CB BKN040 OVC090 24/23 A3011 RMK AO2 TSB03 OCNL LTGICCG OHD-S-SW-W-NW TS OHD-S-SW-W-NW MOV NE P0004=
200909211804 SPECI KATL 211804Z 14010KT 9SM -TSRA FEW018CB BKN030TCU OVC090 25/22 A3011 RMK AO2 TSB03 OCNL LTGICCG S-SW-W-NW TS VC S-SW-W-NW MOV NE TCU E-SE P0000=
200909211804 SPECI KATL 211804Z 14010KT 9SM -TSRA FEW018CB BKN030TCU OVC090 25/22 A3011 RMK AO2 TSB03 OCNL LTGICCG S-SW-W-NW TS VC S-SW-W-NW MOV NE TCU E-SE P0000=
200909211752 METAR KATL 211752Z 15007KT 10SM -RA FEW015 BKN030 BKN100 26/22 A3010 RMK AO2 RAB52 SLP184 FRQ LTGICCG DSNT N & W CB DSNT SW-W-NW-N SHRA DSNT SW-W-NW-N P0000 60001 T02560222 10261 20222 58011=
200909211726 SPECI KATL 211726Z 13008KT 10SM FEW015 BKN025 BKN095 26/23 A3011 RMK AO2 CB DSNT N & W & NW MOV NE=
200909211726 SPECI KATL 211726Z 13008KT 10SM FEW015 BKN025 BKN095 26/23 A3011 RMK AO2 CB DSNT N & W & NW MOV NE=
200909211654 SPECI KATL 211654Z 18010G16KT 10SM BKN015 BKN025 26/22 A3012 RMK AO2=
200909211654 SPECI KATL 211654Z 18010G16KT 10SM BKN015 BKN025 26/22 A3012 RMK AO2=
200909211652 METAR KATL 211652Z 18010G16KT 10SM BKN013 BKN020 BKN030 26/22 A3012 RMK AO2 RAB01E11 SLP191 P0000 T02560222=
200909211552 METAR KATL 211552Z 15009KT 6SM BR SCT010 BKN013 OVC030 24/23 A3014 RMK AO2 SLP197 BINOVC W T02390228=
200909211522 SPECI KATL 211522Z 15010KT 6SM BR SCT006 BKN010 OVC019 24/23 A3014 RMK AO2 CIG 008V012=
200909211522 SPECI KATL 211522Z 15010KT 6SM BR SCT006 BKN010 OVC019 24/23 A3014 RMK AO2 CIG 008V012=
200909211452 METAR KATL 211452Z 14007KT 2SM BR BKN006 OVC014 23/23 A3014 RMK AO2 SFC VIS 5 RAE09 CIG 004V009 SLP196 P0000 60001 T02330228 51004=
200909211352 METAR KATL 211352Z 15009G15KT 2SM -RA BR OVC006 23/22 A3013 RMK AO2 SFC VIS 5 RAB1258 CIG 003V007 SLP194 P0001 T02280222=
200909211252 METAR KATL 211252Z 15008KT 2SM BR BKN006 OVC012 23/22 A3014 RMK AO2 SFC VIS 6 TSE1159RAB06E40 SLP196 P0000 T02280222=
200909211205 SPECI KATL 211205Z 15010KT 2SM BR BKN006 OVC012 23/22 A3013 RMK AO2 SFC VIS 6 TSE1159=
200909211205 SPECI KATL 211205Z 15010KT 2SM BR BKN006 OVC012 23/22 A3013 RMK AO2 SFC VIS 6 TSE1159=
200909211152 METAR KATL 211152Z 14009G15KT 2SM TS BR BKN006CB OVC012 23/22 A3012 RMK AO2 SFC VIS 5 TSE15B39RAB06E51 SLP191 OCNL LTGIC W AND DSNT NW TS W MOV NE P0003 60018 70087 T02280222 10228 20217 53005=
200909211145 SPECI KATL 211145Z 15008KT 2SM -TSRA BR BKN006CB OVC012 23/22 A3012 RMK AO2 SFC VIS 5 TSE15B39RAB06 OCNL LTGIC W AND DSNT NW TS W MOV NE P0003=
200909211145 SPECI KATL 211145Z 15008KT 2SM -TSRA BR BKN006CB OVC012 23/22 A3012 RMK AO2 SFC VIS 5 TSE15B39RAB06 OCNL LTGIC W AND DSNT NW TS W MOV NE P0003=
200909211133 SPECI KATL 211133Z 14008KT 4SM -RA BR BKN006CB OVC012 23/22 A3012 RMK AO2 TSE15RAB06 OCNL LTGIC W AND DSNT NW TS W MOV NE P0002=
200909211133 SPECI KATL 211133Z 14008KT 4SM -RA BR BKN006CB OVC012 23/22 A3012 RMK AO2 TSE15RAB06 OCNL LTGIC W AND DSNT NW TS W MOV NE P0002=
200909211121 SPECI KATL 211121Z 14007KT 6SM BR BKN006 OVC012 23/22 A3012 RMK AO2 TSE15RAB06E19 FRQ DSNT LTG NW TS MOV NE P0000=
200909211121 SPECI KATL 211121Z 14007KT 6SM BR BKN006 OVC012 23/22 A3012 RMK AO2 TSE15RAB06E19 FRQ DSNT LTG NW TS MOV NE P0000=
200909211052 METAR KATL 211052Z 15009KT 6SM TS BR BKN006CB OVC009 23/22 A3012 RMK AO2 SLP189 FRQ LTGIC W & DSNT NW TS VC W MOV NE T02280217=
200909210952 METAR KATL 210952Z 14008KT 6SM TS BR BKN005CB OVC008 23/22 A3011 RMK AO2 SLP185 FRQ LTGICCC N & SW & NW & DSNT NE TS N & SW & NW MOV NE T02280217=
200909210852 METAR KATL 210852Z 15008KT 6SM TS BR BKN005CB OVC008 22/22 A3011 RMK AO2 RAE0757 SLP185 FRQ LTGIC SW-W AND DSNT NW TS VC SW-W MOV NE P0000 60015 T02220217 56010=
200909210752 METAR KATL 210752Z 11006KT 6SM -TSRA BR BKN006CB OVC009 22/22 A3011 RMK AO2 SLP188 CNS LTGICCC N & NE & SW & W-NW TS VC N & NE & SW-W MOV NE P0002 T02220217=
200909210652 METAR KATL 210652Z 08008KT 6SM -TSRA BR BKN006CB OVC009 22/22 A3012 RMK AO2 TSB10 SLP192 CNS LTGICCC N-NE-E & SW-W-NW TS N-NE-E & SW-W-NW MOV NE P0013 T02220217=
200909210615 SPECI KATL 210615Z 08007KT 6SM -TSRA BR BKN006CB OVC009 22/22 A3014 RMK AO2 TSB10 FRQ LTGICCG NE-E & SW-W TS NE-E & SW-W MOV NE P0006=
200909210615 SPECI KATL 210615Z 08007KT 6SM -TSRA BR BKN006CB OVC009 22/22 A3014 RMK AO2 TSB10 FRQ LTGICCG NE-E & SW-W TS NE-E & SW-W MOV NE P0006=
200909210552 METAR KATL 210552Z 08006KT 6SM RA BR BKN005CB OVC009 22/22 A3014 RMK AO2 TSE44 SLP197 FRQ LTGIN & DSNT NE & SE-SW TS DSNT NE & E &=
200909210545 SPECI KATL 210545Z 10006KT 6SM RA BR BKN005CB OVC009 22/22 A3013 RMK AO2 TSE44 FRQ LTGINCG & DSNT NE & SE-SW TS DSNT NE & E & SW-W MOV NE CB DSNT SW-NW P0013=
200909210545 SPECI KATL 210545Z 10006KT 6SM RA BR BKN005CB OVC009 22/22 A3013 RMK AO2 TSE44 FRQ LTGINCG & DSNT NE & SE-SW TS DSNT NE & E & SW-W MOV NE CB DSNT SW-NW P0013=
200909210452 METAR KATL 210452Z 12007KT 4SM TSRA BR OVC005CB 22/22 A3014 RMK AO2 RAB0357 SLP197 CIG 003V009 FRQ LTGIC NE & DSNT E & SW-NW TS VC NE MOV NE CB DSNT E & SW-NW P0010 T02220217 402720200=
200909210352 METAR KATL 210352Z 14010G15KT 7SM TS BKN009 OVC018CB 23/21 A3014 RMK AO2 TSB29RAB35E51 SLP197 OCNL LTGICCG SE & SW-NW TS SE & VC SW-NW MOV NE P0000 T02280211=
200909210345 SPECI KATL 210345Z 14008KT 4SM -TSRA BR BKN009 BKN016 OVC025CB 23/21 A3013 RMK AO2 TSB29RAB35 OCNL LTGICCG SE & SW-NW TS SE & VC SW-NW MOV NE P0000=
200909210345 SPECI KATL 210345Z 14008KT 4SM -TSRA BR BKN009 BKN016 OVC025CB 23/21 A3013 RMK AO2 TSB29RAB35 OCNL LTGICCG SE & SW-NW TS SE & VC SW-NW MOV NE P0000=
200909210329 SPECI KATL 210329Z 12010G17KT 10SM TS FEW009 BKN012 OVC023CB 23/21 A3013 RMK AO2 TSB29 CONS LTGICCG SW-NW TS VC SW-NW MOV NE=
200909210329 SPECI KATL 210329Z 12010G17KT 10SM TS FEW009 BKN012 OVC023CB 23/21 A3013 RMK AO2 TSB29 CONS LTGICCG SW-NW TS VC SW-NW MOV NE=
200909210304 SPECI KATL 210304Z 12009G18KT 10SM BKN012 BKN025 OVC033 23/21 A3012 RMK AO2 CONS LTG DSNT SW-NW CB DSNT SW-NW=
200909210304 SPECI KATL 210304Z 12009G18KT 10SM BKN012 BKN025 OVC033 23/21 A3012 RMK AO2 CONS LTG DSNT SW-NW CB DSNT SW-NW=
200909210252 METAR KATL 210252Z 12007G16KT 10SM SCT012 SCT023 BKN060 OVC130 23/21 A3012 RMK AO2 SLP190 CONS LTG DSNT SW-NW CB DSNT SW-NW T02330211 53009=
200909210202 SPECI KATL 210202Z 12010KT 10SM BKN014 BKN043 OVC060 23/21 A3012 RMK AO2 FRQ LTGICCG DSNT SW-NW CB DSNT SW-NW=
200909210202 SPECI KATL 210202Z 12010KT 10SM BKN014 BKN043 OVC060 23/21 A3012 RMK AO2 FRQ LTGICCG DSNT SW-NW CB DSNT SW-NW=
200909210152 METAR KATL 210152Z 12009KT 10SM SCT014 BKN043 OVC110 23/22 A3011 RMK AO2 SLP188 FRQ LTGICCG DSNT SW-NW CB DSNT SW-NW T02330217=
200909210052 METAR KATL 210052Z 12009KT 10SM SCT014 SCT045 BKN250 24/22 A3009 RMK AO2 SLP180 CONS LTG DSNT W-NW CB DSNT W-NW T02390217=
200909202352 METAR KATL 202352Z 11008KT 10SM FEW021 BKN050 OVC100 24/22 A3009 RMK AO2 SLP181 CB DSNT SW-NW 60040 T02440217 10272 20233 53001=
200909202252 METAR KATL 202252Z 12008KT 10SM FEW021 SCT070 SCT100 BKN250 26/21 A3008 RMK AO2 SLP178 CB DSNT NW T02560211=
200909202152 METAR KATL 202152Z 13007KT 10SM SCT021 SCT250 27/22 A3007 RMK AO2 SLP175 CB DSNT NW-NE T02670217=
200909202052 METAR KATL 202052Z 13007KT 8SM FEW019 SCT025CB BKN031 27/23 A3009 RMK AO2 RAB1954E10 SLP179 CB N MOV N CB DSNT SE AND NW P0001 60040 T02720228 56016=
200909202036 SPECI KATL 202036Z 14008KT 8SM FEW015 SCT025CB BKN031 27/23 A3008 RMK AO2 RAB1954E10 CB NW-N MOV N CB DSNT SE P0001=
200909202036 SPECI KATL 202036Z 14008KT 8SM FEW015 SCT025CB BKN031 27/23 A3008 RMK AO2 RAB1954E10 CB NW-N MOV N CB DSNT SE P0001=
200909202004 SPECI KATL 202004Z 15007KT 5SM RA FEW005 BKN020CB BKN028 26/23 A3009 RMK AO2 RAB1954 CB OHD-W MOV N P0001=
200909202004 SPECI KATL 202004Z 15007KT 5SM RA FEW005 BKN020CB BKN028 26/23 A3009 RMK AO2 RAB1954 CB OHD-W MOV N P0001=
200909201952 METAR KATL 201952Z 14009KT 7SM SCT014 BKN022CB BKN050 26/23 A3010 RMK AO2 RAE21 SLP182 CB SW MOV N CB DSNT NW AND N P0002 T02610228=
200909201932 SPECI KATL 201932Z 11005KT 7SM SCT014 BKN022CB BKN034 27/23 A3011 RMK AO2 RAE21 CB S AND W AND N MOV N P0002=
200909201932 SPECI KATL 201932Z 11005KT 7SM SCT014 BKN022CB BKN034 27/23 A3011 RMK AO2 RAE21 CB S AND W AND N MOV N P0002=
200909201852 METAR KATL 201852Z COR 00000KT 4SM RA BR SCT008 BKN024CB BKN050 25/24 A3012 RMK AO2 RAB04 SLP192 CB OHD-ALQDS MOV N VIS 1 N-NE AND=
200909201849 SPECI KATL 201849Z 00000KT 3SM R09R/2600VP6000FT RA BR SCT008 BKN024CB BKN050 24/23 A3012 RMK AO2 RAB04 CB OHD-ALQDS MOV N VIS 1/2 N-NE AND NW-N SHRA P0037=
200909201849 SPECI KATL 201849Z 00000KT 3SM R09R/2600VP6000FT RA BR SCT008 BKN024CB BKN050 24/23 A3012 RMK AO2 RAB04 CB OHD-ALQDS MOV N VIS 1/2 N-NE AND NW-N SHRA P0037=
200909201824 SPECI KATL 201824Z VRB03G17KT 2SM R09R/2200VP6000FT +RA BR SCT007 BKN020CB OVC050 23/22 A3013 RMK AO2 SFC VIS 3 RAB04 CB OHD-ALQDS MOV N P0012=
200909201824 SPECI KATL 201824Z VRB03G17KT 2SM R09R/2200VP6000FT +RA BR SCT007 BKN020CB OVC050 23/22 A3013 RMK AO2 SFC VIS 3 RAB04 CB OHD-ALQDS MOV N P0012=
200909201818 SPECI KATL 201818Z 16012G17KT 6SM R09R/4500VP6000FT -RA BKN018CB BKN050 OVC065 25/22 A3013 RMK AO2 RAB04 CB S-W MOV N SHRA S-W P0001=
200909201818 SPECI KATL 201818Z 16012G17KT 6SM R09R/4500VP6000FT -RA BKN018CB BKN050 OVC065 25/22 A3013 RMK AO2 RAB04 CB S-W MOV N SHRA S-W P0001=
200909201752 METAR KATL 201752Z 18008KT 6SM HZ FEW010 SCT017 BKN050 26/22 A3014 RMK AO2 RAE22 SLP196 CB DSNT N P0002 60003 T02560222 10261 20211 58014=
200909201719 SPECI KATL 201719Z 18005KT 6SM -RA BR SCT010 BKN021 BKN049 25/23 A3014 RMK AO2 CB DSNT N P0002=
200909201719 SPECI KATL 201719Z 18005KT 6SM -RA BR SCT010 BKN021 BKN049 25/23 A3014 RMK AO2 CB DSNT N P0002=
200909201652 METAR KATL 201652Z 16009KT 6SM -RA BR BKN010 BKN014 BKN024 24/22 A3015 RMK AO2 DZB02E19RAB19E23B49 SLP203 CB DSNT NE AND NW P0000 T02440222=
200909201604 SPECI KATL 201604Z 14007KT 5SM -DZ BR SCT007 BKN011 OVC028 24/22 A3018 RMK AO2 DZB02 CB DSNT N P0000 $=
200909201604 SPECI KATL 201604Z 14007KT 5SM -DZ BR SCT007 BKN011 OVC028 24/22 A3018 RMK AO2 DZB02 CB DSNT N P0000 $=
200909201552 METAR KATL 201552Z 14006KT 6SM BR BKN009 BKN018 OVC025 24/22 A3018 RMK AO2 SLP211 CB DSNT NW T02390222 $=
200909201452 METAR KATL 201452Z 14010KT 6SM BR BKN008 OVC011 23/22 A3018 RMK AO2 SLP210 CB DSNT W-NW 60001 T02330217 51013=
200909201431 SPECI KATL 201431Z 14006KT 5SM BR BKN006 OVC014 23/22 A3017 RMK AO2 CB DSNT SW-N=
200909201431 SPECI KATL 201431Z 14006KT 5SM BR BKN006 OVC014 23/22 A3017 RMK AO2 CB DSNT SW-N=
200909201404 SPECI KATL 201404Z 13006KT 3SM BR OVC002 22/22 A3017 RMK AO2 SFC VIS 4 CB DSNT SW-N TWRINC=
200909201404 SPECI KATL 201404Z 13006KT 3SM BR OVC002 22/22 A3017 RMK AO2 SFC VIS 4 CB DSNT SW-N TWRINC=
200909201352 METAR KATL 201352Z 12005KT 1/4SM BR OVC002 22/22 A3017 RMK AO2 SFC VIS 2 TSE17RAB07E20 SLP210 CB DSNT SW-N TWRINC P0000 T02170217=
200909201317 SPECI KATL 201317Z 10004KT 1/4SM -RA BR OVC002CB 22/21 A3017 RMK AO2 SFC VIS 1 3/4 TSE17RAB07 CB W-N MOV N P0000=
200909201317 SPECI KATL 201317Z 10004KT 1/4SM -RA BR OVC002CB 22/21 A3017 RMK AO2 SFC VIS 1 3/4 TSE17RAB07 CB W-N MOV N P0000=
200909201252 METAR KATL 201252Z 09004KT 1/4SM TS BR OVC002CB 21/21 A3016 RMK AO2 SFC VIS 1 3/4 TSB16RAB25E48 SLP206 OCNL LTGIC W TS W-NW MOV N P0001 T02110211=
200909201218 SPECI KATL 201218Z 12005KT 1/4SM TS BR OVC002CB 21/21 A3015 RMK AO2 SFC VIS 2 TSB16 OCNL LTGIC SW TS SW MOV N=
200909201218 SPECI KATL 201218Z 12005KT 1/4SM TS BR OVC002CB 21/21 A3015 RMK AO2 SFC VIS 2 TSB16 OCNL LTGIC SW TS SW MOV N=
200909201152 METAR KATL 201152Z 12005KT 1/4SM BR OVC002 21/21 A3014 RMK AO2 SFC VIS 3 RAB19E39 SLP198 P0001 60001 70377 T02110206 10211 20200 53005=
200909201052 METAR KATL 201052Z 14004KT 1/4SM BKN003 OVC025 21/21 A3013 RMK AO2 SFC VIS 8 SLP195 T02060206=
200909201037 SPECI KATL 201037Z 14004KT 1/4SM BKN003 OVC025 21/20 A3013 RMK AO2 SFC VIS 8=
200909201037 SPECI KATL 201037Z 14004KT 1/4SM BKN003 OVC025 21/20 A3013 RMK AO2 SFC VIS 8=
200909201013 SPECI KATL 201013Z 14005KT 9SM BKN004 OVC025 21/20 A3012 RMK AO2=
200909201013 SPECI KATL 201013Z 14005KT 9SM BKN004 OVC025 21/20 A3012 RMK AO2=
200909200952 METAR KATL 200952Z 12006KT 9SM BKN007 BKN025 OVC050 21/20 A3011 RMK AO2 SLP189 T02060200=
200909200915 SPECI KATL 200915Z 11004KT 9SM BKN008 BKN025 OVC050 20/19 A3012 RMK AO2=
200909200915 SPECI KATL 200915Z 11004KT 9SM BKN008 BKN025 OVC050 20/19 A3012 RMK AO2=
200909200852 METAR KATL 200852Z 11005KT 9SM FEW008 SCT025 OVC050 20/19 A3012 RMK AO2 SLP193 60000 T02000194 58005=
200909200752 METAR KATL 200752Z 14004KT 9SM FEW005 SCT020 OVC045 21/19 A3013 RMK AO2 SLP196 T02060194=
200909200720 SPECI KATL 200720Z 14004KT 9SM FEW005 SCT020 OVC045 21/20 A3013 RMK AO2=
200909200720 SPECI KATL 200720Z 14004KT 9SM FEW005 SCT020 OVC045 21/20 A3013 RMK AO2=
200909200652 METAR KATL 200652Z 13004KT 8SM SCT005 BKN020 OVC050 21/20 A3014 RMK AO2 RAE0554 SLP198 P0000 T02060200=
200909200643 SPECI KATL 200643Z 13004KT 8SM SCT006 BKN020 OVC050 21/20 A3014 RMK AO2 RAE0554 P0000=
200909200643 SPECI KATL 200643Z 13004KT 8SM SCT006 BKN020 OVC050 21/20 A3014 RMK AO2 RAE0554 P0000=
200909200552 METAR KATL 200552Z 15007KT 7SM -RA BKN006 OVC050 21/20 A3014 RMK AO2 SLP199 CB MOV N P0007 60008 T02060200 10228 20206 53006=
200909200536 SPECI KATL 200536Z 17009KT 6SM -RA BR BKN006 BKN015 OVC050 21/20 A3014 RMK AO2 CB MOV N P0006=
200909200536 SPECI KATL 200536Z 17009KT 6SM -RA BR BKN006 BKN015 OVC050 21/20 A3014 RMK AO2 CB MOV N P0006=
200909200452 METAR KATL 200452Z 16003KT 7SM RA FEW006 SCT015 BKN050 OVC250 21/21 A3012 RMK AO2 WSHFT 0404 TSE52RAB11 SLP193 FRQ LTG DSNT N AND NW TS MOV NW CB DSNT N AND NW P0001 T02110206 402330206=
200909200432 SPECI KATL 200432Z 20007KT 7SM -TSRA FEW008 SCT016CB BKN055 OVC150 21/21 A3012 RMK AO2 WSHFT 0404 RAB11 FRQ LTGICCG W-NW TS W-NW MOV N P0000=
200909200432 SPECI KATL 200432Z 20007KT 7SM -TSRA FEW008 SCT016CB BKN055 OVC150 21/21 A3012 RMK AO2 WSHFT 0404 RAB11 FRQ LTGICCG W-NW TS W-NW MOV N P0000=
200909200418 SPECI KATL 200418Z 18012G22KT 3SM -TSRA BR BKN008 OVC014CB 22/21 A3013 RMK AO2 WSHFT 0404 SFC VIS 5 RAB11 OCNL LTGICCG W-NW TS W-NW MOV N P0000=
200909200418 SPECI KATL 200418Z 18012G22KT 3SM -TSRA BR BKN008 OVC014CB 22/21 A3013 RMK AO2 WSHFT 0404 SFC VIS 5 RAB11 OCNL LTGICCG W-NW TS W-NW MOV N P0000=
200909200352 METAR KATL 200352Z COR 11014G18KT 3SM TS BR BKN006 OVC015CB 23/22 A3012 RMK AO2 SFC VIS 5 TSB50 SLP192 OCNL LTGIC SE-SW-NW TS VC SE-SW-NW MOV N T02280217=
200909200252 METAR KATL 200252Z 09009KT 3SM BR BKN005 BKN041 OVC060 23/22 A3012 RMK AO2 SFC VIS 4 SLP191 60000 T02280222 51009=
200909200202 SPECI KATL 200202Z 09009KT 3SM BR BKN005 OVC070 23/22 A3012 RMK AO2 SFC VIS 4=
200909200202 SPECI KATL 200202Z 09009KT 3SM BR BKN005 OVC070 23/22 A3012 RMK AO2 SFC VIS 4=
200909200152 METAR KATL 200152Z 09008KT 3SM BR SCT007 BKN070 OVC095 23/22 A3012 RMK AO2 SFC VIS 5 DZB19E35 SLP191 P0000 T02280222=
200909200135 SPECI KATL 200135Z 09010KT 3SM BR SCT007 BKN070 OVC095 23/22 A3011 RMK AO2 SFC VIS 4 DZB19E35 P0000=
200909200135 SPECI KATL 200135Z 09010KT 3SM BR SCT007 BKN070 OVC095 23/22 A3011 RMK AO2 SFC VIS 4 DZB19E35 P0000=
200909200052 METAR KATL 200052Z 09009KT 3SM BR BKN007 BKN075 OVC100 23/22 A3011 RMK AO2 SFC VIS 4 SLP188 T02280222=
200909200049 SPECI KATL 200049Z 10006KT 3SM BR BKN007 BKN075 OVC100 23/22 A3011 RMK AO2 SFC VIS 4=
200909200049 SPECI KATL 200049Z 10006KT 3SM BR BKN007 BKN075 OVC100 23/22 A3011 RMK AO2 SFC VIS 4=
200909200020 SPECI KATL 200020Z 09007KT 3SM BR SCT006 BKN075 OVC100 23/22 A3010 RMK AO2 SFC VIS 4=
200909200020 SPECI KATL 200020Z 09007KT 3SM BR SCT006 BKN075 OVC100 23/22 A3010 RMK AO2 SFC VIS 4=
200909192352 METAR KATL 192352Z 09008KT 3SM BR BKN006 BKN012 OVC110 23/22 A3009 RMK AO2 SFC VIS 4 RAE2258 SLP182 P0000 60008 T02280222 10233 20222 50000=
200909192317 SPECI KATL 192317Z 08008KT 3SM BR BKN008 BKN012 OVC110 23/22 A3009 RMK AO2 SFC VIS 4 RAE2258 P0000=
200909192317 SPECI KATL 192317Z 08008KT 3SM BR BKN008 BKN012 OVC110 23/22 A3009 RMK AO2 SFC VIS 4 RAE2258 P0000=
200909192252 METAR KATL 192252Z 09007KT 3SM -RA BR SCT007 BKN014 OVC110 23/22 A3010 RMK AO2 SFC VIS 5 RAB07E13B38 SLP183 P0000 T02330222=
200909192250 SPECI KATL 192250Z 08007KT 3SM -RA BR SCT007 BKN014 OVC110 23/22 A3010 RMK AO2 SFC VIS 5 RAB07E13B38 P0000=
200909192250 SPECI KATL 192250Z 08007KT 3SM -RA BR SCT007 BKN014 OVC110 23/22 A3010 RMK AO2 SFC VIS 5 RAB07E13B38 P0000=
200909192243 SPECI KATL 192243Z 09009KT 3SM -RA BR FEW007 SCT014 BKN070 OVC130 23/22 A3009 RMK AO2 SFC VIS 5 RAB07E13B38 P0000=
200909192243 SPECI KATL 192243Z 09009KT 3SM -RA BR FEW007 SCT014 BKN070 OVC130 23/22 A3009 RMK AO2 SFC VIS 5 RAB07E13B38 P0000=
200909192152 METAR KATL 192152Z 09009KT 3SM BR OVC008 23/22 A3009 RMK AO2 RAE43 SLP181 P0000 T02330222=
200909192052 METAR KATL 192052Z 10009KT 3SM -RA BR BKN008 OVC100 23/22 A3009 RMK AO2 SFC VIS 5 RAB29 SLP181 P0000 60008 T02330222 56015=
200909191952 METAR KATL 191952Z 11006KT 3SM BR BKN005 OVC014 23/22 A3010 RMK AO2 SFC VIS 4 RAE43 SLP185 P0002 T02280222=
200909191916 SPECI KATL 191916Z 12006KT 2SM -RA BR BKN005 OVC010 23/22 A3011 RMK AO2 SFC VIS 3 P0002=
200909191916 SPECI KATL 191916Z 12006KT 2SM -RA BR BKN005 OVC010 23/22 A3011 RMK AO2 SFC VIS 3 P0002=
200909191852 METAR KATL 191852Z 09005KT 1/2SM -RA BR OVC004 23/22 A3012 RMK AO2 SFC VIS 3 SLP190 CB DSNT SE AND SW P0006 T02280222=
200909191752 METAR KATL 191752Z 11005KT 1/2SM -RA BR BKN004 OVC015CB 23/22 A3014 RMK AO2 SFC VIS 3 SLP197 CB SE MOV NE CB DSNT SW P0014 60360 T02280222 10228 20206 50001=
200909191730 SPECI KATL 191730Z 09006KT 1/2SM RA BR SCT004 BKN009 OVC017CB 22/22 A3014 RMK AO2 SFC VIS 3 CB SE-OHD-NW MOV NE AND DSNT SW P0010=
200909191730 SPECI KATL 191730Z 09006KT 1/2SM RA BR SCT004 BKN009 OVC017CB 22/22 A3014 RMK AO2 SFC VIS 3 CB SE-OHD-NW MOV NE AND DSNT SW P0010=
200909191712 SPECI KATL 191712Z 09005KT 1/2SM -RA BR FEW004 BKN015CB OVC025 22/22 A3014 RMK AO2 SFC VIS 2 CB NE S AND NW MOV NE P0005=
200909191712 SPECI KATL 191712Z 09005KT 1/2SM -RA BR FEW004 BKN015CB OVC025 22/22 A3014 RMK AO2 SFC VIS 2 CB NE S AND NW MOV NE P0005=
200909191652 METAR KATL 191652Z COR 08007KT 1/2SM RA BR BKN015CB BKN019 OVC024 22/22 A3015 RMK AO2 SFC VIS 2 SLP200 CB NE S AND NW MOV NE P0020 T02220217=
200909191552 METAR KATL 191552Z 00000KT 2SM -RA BR SCT006 BKN028CB OVC037 21/21 A3015 RMK AO2 TSB06E33 SLP203 CB OHD-ALQDS MOV NE P0108 T02110206=
200909191533 SPECI KATL 191533Z 00000KT 1/4SM R09R/5000VP6000FT +RA BR BKN006 BKN012CB OVC018 21/20 A3015 RMK AO2 SFC VIS 3/4 TSB06E33 CB OHD-ALQDS MOV NE P0101=
200909191533 SPECI KATL 191533Z 00000KT 1/4SM R09R/5000VP6000FT +RA BR BKN006 BKN012CB OVC018 21/20 A3015 RMK AO2 SFC VIS 3/4 TSB06E33 CB OHD-ALQDS MOV NE P0101=
200909191506 SPECI KATL 191506Z 02010KT 1/4SM R09R/2200VP6000FT +TSRA FG BKN006 BKN010CB OVC026 21/21 A3013 RMK AO2 SFC VIS 1/2 TSB06 OCNL LTGIC N TS N MOV NE CB OHD-ALQDS MOV NE P0008=
200909191506 SPECI KATL 191506Z 02010KT 1/4SM R09R/2200VP6000FT +TSRA FG BKN006 BKN010CB OVC026 21/21 A3013 RMK AO2 SFC VIS 1/2 TSB06 OCNL LTGIC N TS N MOV NE CB OHD-ALQDS MOV NE P0008=
200909191452 METAR KATL 191452Z 02012KT 1/4SM R09R/4500VP6000FT +RA BR BKN006 BKN016CB OVC022 21/21 A3013 RMK AO2 SFC VIS 3/4 SLP197 CB OHD-ALQDS MOV NE P0117 60218 T02110206 53010=
200909191352 METAR KATL 191352Z 05008KT 1/4SM R09R/P6000FT +RA BR BKN006 BKN010CB OVC038 22/21 A3012 RMK AO2 SFC VIS 3/4 TSE02 SLP192 TS DSIPT CB OHD-ALQDS MOV NE P0089 T02170211=
200909191333 SPECI KATL 191333Z 05009KT 1/4SM R09R/4500VP6000FT +RA BR BKN006 OVC015CB 22/21 A3012 RMK AO2 SFC VIS 1 TSE02 TS DSIPT CB OHD-ALQDS MOV NE P0075=
200909191333 SPECI KATL 191333Z 05009KT 1/4SM R09R/4500VP6000FT +RA BR BKN006 OVC015CB 22/21 A3012 RMK AO2 SFC VIS 1 TSE02 TS DSIPT CB OHD-ALQDS MOV NE P0075=
200909191323 SPECI KATL 191323Z 06006KT 1/4SM R09R/5000VP6000FT +RA BR BKN006 OVC042 22/21 A3012 RMK AO2 SFC VIS 1 TSE02 TS DSIPT P0058=
200909191323 SPECI KATL 191323Z 06006KT 1/4SM R09R/5000VP6000FT +RA BR BKN006 OVC042 22/21 A3012 RMK AO2 SFC VIS 1 TSE02 TS DSIPT P0058=
200909191302 SPECI KATL 191302Z 10008KT 1/4SM R09R/3500VP6000FT -RA BR BKN003 OVC009 22/21 A3012 RMK AO2 SFC VIS 1 1/4 TSE02 TS DSIPT P0012=
200909191302 SPECI KATL 191302Z 10008KT 1/4SM R09R/3500VP6000FT -RA BR BKN003 OVC009 22/21 A3012 RMK AO2 SFC VIS 1 1/4 TSE02 TS DSIPT P0012=
200909191252 METAR KATL 191252Z 10009KT 1/4SM R09R/5500VP6000FT +TSRA BR OVC002CB 22/21 A3011 RMK AO2 SFC VIS 1 1/4 TSB25DZE41RAB41 SLP189 OCNL LTGIC SW TS SW MOV NE P0012 T02170211=
200909191225 SPECI KATL 191225Z 08008KT 1/4SM -TSDZ BR OVC002CB 22/22 A3011 RMK AO2 SFC VIS 3 TSB25 OCNL LTGIC VC SW TS VC SW MOV NE P0000=
200909191225 SPECI KATL 191225Z 08008KT 1/4SM -TSDZ BR OVC002CB 22/22 A3011 RMK AO2 SFC VIS 3 TSB25 OCNL LTGIC VC SW TS VC SW MOV NE P0000=
200909191152 METAR KATL 191152Z 10006KT 1/4SM -DZ BR OVC002 22/22 A3010 RMK AO2 SFC VIS 2 DZB47 SLP185 P0000 60002 70002 T02170217 10217 20217 53004=
200909191052 METAR KATL 191052Z 11005KT 1/4SM BR OVC002 22/22 A3009 RMK AO2 SFC VIS 3 DZE05RAB05E13 SLP180 P0001 T02170217=
200909191013 SPECI KATL 191013Z 09004KT 1/4SM BR OVC002 22/22 A3009 RMK AO2 SFC VIS 1 3/4 DZE05RAB05E13 P0001=
200909191013 SPECI KATL 191013Z 09004KT 1/4SM BR OVC002 22/22 A3009 RMK AO2 SFC VIS 1 3/4 DZE05RAB05E13 P0001=
200909190952 METAR KATL 190952Z 09005KT 2SM -DZ BR OVC002 22/22 A3009 RMK AO2 RAB06E28DZB48 SLP180 P0001 T02170217=
200909190934 SPECI KATL 190934Z 09005KT 2SM BR OVC002 22/21 A3009 RMK AO2 RAB06E28 P0001=
200909190934 SPECI KATL 190934Z 09005KT 2SM BR OVC002 22/21 A3009 RMK AO2 RAB06E28 P0001=
200909190852 METAR KATL 190852Z 08007KT 1 1/2SM BR OVC002 22/21 A3009 RMK AO2 SLP179 T02170211 58003=
200909190817 SPECI KATL 190817Z 08006KT 1 3/4SM BR OVC002 22/21 A3009 RMK AO2=
200909190817 SPECI KATL 190817Z 08006KT 1 3/4SM BR OVC002 22/21 A3009 RMK AO2=
200909190800 SPECI KATL 190800Z 09007KT 2 1/2SM BR OVC003 22/21 A3009 RMK AO2=
200909190800 SPECI KATL 190800Z 09007KT 2 1/2SM BR OVC003 22/21 A3009 RMK AO2=
200909190752 METAR KATL 190752Z 09007KT 3SM BR OVC003 22/21 A3009 RMK AO2 SLP181 T02170211=
200909190652 METAR KATL 190652Z 10008KT 6SM BR OVC004 22/21 A3010 RMK AO2 SLP183 T02170211=
200909190648 SPECI KATL 190648Z 10006KT 6SM BR OVC004 22/21 A3010 RMK AO2=
200909190648 SPECI KATL 190648Z 10006KT 6SM BR OVC004 22/21 A3010 RMK AO2=
200909190552 METAR KATL 190552Z 11008KT 7SM OVC005 22/21 A3010 RMK AO2 SLP183 T02170211 10239 20217 58004=
200909190452 METAR KATL 190452Z 09007KT 6SM BR OVC005 22/21 A3010 RMK AO2 SLP184 T02170211 402670200=
200909190352 METAR KATL 190352Z 09007KT 7SM BKN005 BKN021 22/21 A3011 RMK AO2 SLP187 T02170211=
200909190252 METAR KATL 190252Z 10006KT 7SM BKN007 BKN021 22/21 A3011 RMK AO2 SLP188 T02220211 51018 $=
200909190212 SPECI KATL 190212Z 08008KT 7SM FEW007 BKN019 BKN027 23/21 A3011 RMK AO2=
200909190212 SPECI KATL 190212Z 08008KT 7SM FEW007 BKN019 BKN027 23/21 A3011 RMK AO2=
200909190152 METAR KATL 190152Z 10006KT 7SM BKN019 23/21 A3010 RMK AO2 SLP185 T02280211=
200909190145 SPECI KATL 190145Z 10009KT 7SM BKN022 OVC075 23/21 A3010 RMK AO2=
200909190145 SPECI KATL 190145Z 10009KT 7SM BKN022 OVC075 23/21 A3010 RMK AO2=
200909190052 METAR KATL 190052Z 10007KT 7SM FEW033 SCT250 23/21 A3008 RMK AO2 SLP177 T02330211=
200909182352 METAR KATL 182352Z 08009KT 7SM FEW033 SCT250 24/21 A3006 RMK AO2 SLP169 T02390211 10267 20239 53008=
200909182252 METAR KATL 182252Z 08008KT 10SM FEW020 SCT037 SCT250 25/22 A3005 RMK AO2 SLP166 T02500217=
200909182152 SPECI KATL 182152Z 10006KT 10SM SCT020TCU BKN037 BKN075 25/21 A3004 RMK AO2 SLP163 TCU OHD-W T02500211=
200909182111 SPECI KATL 182111Z 09007KT 10SM SCT020 BKN031 BKN075 27/22 A3003 RMK AO2=
200909182111 SPECI KATL 182111Z 09007KT 10SM SCT020 BKN031 BKN075 27/22 A3003 RMK AO2=
200909182052 METAR KATL 182052Z 15006KT 10SM FEW018TCU BKN025 BKN060 26/21 A3003 RMK AO2 SLP160 TCU N T02610211 58020=
200909181952 METAR KATL 181952Z VRB04KT 10SM BKN020 BKN030 BKN060 26/22 A3005 RMK AO2 SLP168 T02560217=
200909181936 SPECI KATL 181936Z 10005KT 10SM FEW020 BKN030 BKN060 26/21 A3006 RMK AO2=
200909181936 SPECI KATL 181936Z 10005KT 10SM FEW020 BKN030 BKN060 26/21 A3006 RMK AO2=
200909181852 METAR KATL 181852Z 14004KT 10SM FEW015 BKN025 BKN065 24/21 A3008 RMK AO2 SLP178 T02440211=
200909181752 METAR KATL 181752Z 13005KT 8SM BKN016 BKN024 OVC065 24/21 A3009 RMK AO2 SLP182 60000 T02390211 10239 20211 58001=
200909181718 SPECI KATL 181718Z 15004KT 7SM FEW008 BKN012 OVC020 23/21 A3010 RMK AO2=
200909181718 SPECI KATL 181718Z 15004KT 7SM FEW008 BKN012 OVC020 23/21 A3010 RMK AO2=
200909181652 METAR KATL 181652Z 09008KT 6SM BR BKN008 BKN012 OVC015 23/21 A3010 RMK AO2 SLP185 T02280211=
200909181557 SPECI KATL 181557Z 09008KT 5SM BR BKN010 BKN013 BKN020 23/21 A3010 RMK AO2 VIS LWR E=
200909181557 SPECI KATL 181557Z 09008KT 5SM BR BKN010 BKN013 BKN020 23/21 A3010 RMK AO2 VIS LWR E=
200909181554 SPECI KATL 181554Z 10007KT 4SM BR BKN010 OVC020 23/21 A3010 RMK AO2=
200909181554 SPECI KATL 181554Z 10007KT 4SM BR BKN010 OVC020 23/21 A3010 RMK AO2=
200909181552 METAR KATL 181552Z 09007KT 4SM BR BKN008 BKN013 OVC020 23/21 A3010 RMK AO2 CIG 007V011 SLP186 VIS LWR NE-E-SE BCFG T02330211=
200909181521 SPECI KATL 181521Z 12004KT 6SM BR FEW005 BKN008 OVC017 23/21 A3010 RMK AO2=
200909181521 SPECI KATL 181521Z 12004KT 6SM BR FEW005 BKN008 OVC017 23/21 A3010 RMK AO2=
200909181452 METAR KATL 181452Z 14004KT 2 1/2SM BR FEW003 BKN005 OVC008 22/21 A3010 RMK AO2 SFC VIS 4 SLP184 60000 T02170211 51008=
200909181420 SPECI KATL 181420Z 11005KT 2 1/2SM BR FEW003 BKN005 OVC008 21/21 A3009 RMK AO2 SFC VIS 5=
200909181420 SPECI KATL 181420Z 11005KT 2 1/2SM BR FEW003 BKN005 OVC008 21/21 A3009 RMK AO2 SFC VIS 5=
200909181355 SPECI KATL 181355Z 11005KT 1 1/2SM BR FEW003 BKN005 OVC008 22/21 A3009 RMK AO2 SFC VIS 5=
200909181355 SPECI KATL 181355Z 11005KT 1 1/2SM BR FEW003 BKN005 OVC008 22/21 A3009 RMK AO2 SFC VIS 5=
200909181352 METAR KATL 181352Z 13004KT 1 1/2SM BR BKN003 OVC005 21/21 A3009 RMK AO2 SFC VIS 5 DZB07E44 SLP182 P0000 T02110206=
200909181305 SPECI KATL 181305Z 11006KT 1 1/2SM BR BKN003 OVC005 21/21 A3008 RMK AO2 SFC VIS 5=
200909181305 SPECI KATL 181305Z 11006KT 1 1/2SM BR BKN003 OVC005 21/21 A3008 RMK AO2 SFC VIS 5=
200909181252 METAR KATL 181252Z 11005KT 1/2SM BR OVC003 21/21 A3008 RMK AO2 SFC VIS 5 CIG 002V007 SLP179 T02110206=
200909181234 SPECI KATL 181234Z 10006KT 1/2SM BR OVC003 21/21 A3008 RMK AO2 SFC VIS 4=
200909181234 SPECI KATL 181234Z 10006KT 1/2SM BR OVC003 21/21 A3008 RMK AO2 SFC VIS 4=
200909181221 SPECI KATL 181221Z 11005KT 1/4SM BR OVC003 21/21 A3008 RMK AO2 SFC VIS 3=
200909181221 SPECI KATL 181221Z 11005KT 1/4SM BR OVC003 21/21 A3008 RMK AO2 SFC VIS 3=
200909181205 SPECI KATL 181205Z 12004KT 1SM BR BKN003 OVC006 21/21 A3008 RMK AO2 SFC VIS 5=
200909181205 SPECI KATL 181205Z 12004KT 1SM BR BKN003 OVC006 21/21 A3008 RMK AO2 SFC VIS 5=
200909181152 METAR KATL 181152Z 11005KT 1SM BR BKN005 OVC009 21/21 A3007=
200909181132 SPECI KATL 181132Z 13003KT 1SM BR BKN005 OVC009 21/21 A3006 RMK AO2 SFC VIS 6=
200909181132 SPECI KATL 181132Z 13003KT 1SM BR BKN005 OVC009 21/21 A3006 RMK AO2 SFC VIS 6=
200909181052 METAR KATL 181052Z 12005KT 1SM BR BKN004 OVC010 21/21 A3004 RMK AO2 SFC VIS 6 SLP167 T02110206=
200909181021 SPECI KATL 181021Z 09006KT 1SM BR OVC004 21/21 A3004 RMK AO2 SFC VIS 6 CIG 003V007=
200909181021 SPECI KATL 181021Z 09006KT 1SM BR OVC004 21/21 A3004 RMK AO2 SFC VIS 6 CIG 003V007=
200909180952 METAR KATL 180952Z 09007KT 1SM BR OVC008 21/20 A3004 RMK AO2 SFC VIS 6 RAB32E41 CIG 003V012 SLP164 P0000 T02060200=
200909180942 SPECI KATL 180942Z 08007KT 1SM BR BKN006 OVC011 21/20 A3004 RMK AO2 SFC VIS 4 RAB32E41 CIG 003V009 P0000=
200909180942 SPECI KATL 180942Z 08007KT 1SM BR BKN006 OVC011 21/20 A3004 RMK AO2 SFC VIS 4 RAB32E41 CIG 003V009 P0000=
200909180921 SPECI KATL 180921Z 09007KT 040V120 2SM BR BKN006 OVC010 21/20 A3004 RMK AO2 SFC VIS 6 CIG 003V008=
200909180921 SPECI KATL 180921Z 09007KT 040V120 2SM BR BKN006 OVC010 21/20 A3004 RMK AO2 SFC VIS 6 CIG 003V008=
200909180900 SPECI KATL 180900Z 07007KT 2SM BR BKN003 OVC008 21/20 A3005 RMK AO2 SFC VIS 6 CIG 001V005=
200909180900 SPECI KATL 180900Z 07007KT 2SM BR BKN003 OVC008 21/20 A3005 RMK AO2 SFC VIS 6 CIG 001V005=
200909180852 METAR KATL 180852Z 09007KT 1/2SM BR OVC003 21/20 A3004 RMK AO2 SFC VIS 5 CIG 001V006 SLP166 T02060200 58006=
200909180824 SPECI KATL 180824Z 10008KT 1/4SM BR OVC001 21/20 A3005 RMK AO2 SFC VIS 3=
200909180824 SPECI KATL 180824Z 10008KT 1/4SM BR OVC001 21/20 A3005 RMK AO2 SFC VIS 3=
200909180752 METAR KATL 180752Z 10006KT 1/4SM BR OVC003 21/20 A3005 RMK AO2 SFC VIS 3 SLP170 T02060200=
200909180652 METAR KATL 180652Z 12006KT 1/4SM BR OVC003 20/19 A3006=
200909180611 SPECI KATL 180611Z 11005KT 1/2SM BR OVC003 20/19 A3006 RMK AO2 SFC VIS 6=
200909180611 SPECI KATL 180611Z 11005KT 1/2SM BR OVC003 20/19 A3006 RMK AO2 SFC VIS 6=
200909180552 METAR KATL 180552Z 11004KT 6SM BR BKN005 OVC009 20/19 A3006 RMK AO2 SLP174 60001 T02000194 10211 20200 57005=
200909180452 METAR KATL 180452Z 11007KT 10SM BKN008 BKN050 OVC100 20/19 A3006 RMK AO2 SLP174 T02000189 402280200=
200909180446 SPECI KATL 180446Z 11008KT 10SM BKN008 BKN050 OVC100 20/19 A3006 RMK AO2 402280200=
200909180446 SPECI KATL 180446Z 11008KT 10SM BKN008 BKN050 OVC100 20/19 A3006 RMK AO2 402280200=
200909180352 METAR KATL 180352Z 11008KT 10SM FEW005 SCT025 BKN050 BKN250 21/19 A3008 RMK AO2 SLP178 T02060194=
200909180350 SPECI KATL 180350Z 11008KT 10SM FEW005 SCT025 BKN050 BKN250 21/19 A3008 RMK AO2=
200909180350 SPECI KATL 180350Z 11008KT 10SM FEW005 SCT025 BKN050 BKN250 21/19 A3008 RMK AO2=
200909180303 SPECI KATL 180303Z 12010KT 10SM SCT007 OVC020 21/20 A3007 RMK AO2=
200909180303 SPECI KATL 180303Z 12010KT 10SM SCT007 OVC020 21/20 A3007 RMK AO2=
200909180252 METAR KATL 180252Z 12008KT 10SM BKN007 OVC020 21/21 A3008 RMK AO2 SLP178 60001 T02110206 53014=
200909180152 METAR KATL 180152Z 10009KT 10SM OVC005 21/21 A3006 RMK AO2 SLP173 T02110206=
200909180052 METAR KATL 180052Z 09009KT 10SM BKN006 OVC015 21/21 A3005 RMK AO2 RAE34 SLP167 CIG 004V009 P0001 T02110206=
200909180000 SPECI KATL 180000Z 09009KT 8SM -RA BKN007 OVC025 21/21 A3004 RMK AO2 P0000=
200909180000 SPECI KATL 180000Z 09009KT 8SM -RA BKN007 OVC025 21/21 A3004 RMK AO2 P0000=
200909172352 METAR KATL 172352Z 09009KT 8SM -RA FEW005 BKN025 OVC080 21/21 A3003 RMK AO2 TSE36 SLP163 TS MOV N P0010 60013 T02110206 10228 20206 53005=
200909172336 SPECI KATL 172336Z 09012KT 4SM -RA BR FEW005 BKN020 OVC060 21/21 A3003 RMK AO2 TSE36 TS MOV N P0010=
200909172336 SPECI KATL 172336Z 09012KT 4SM -RA BR FEW005 BKN020 OVC060 21/21 A3003 RMK AO2 TSE36 TS MOV N P0010=
200909172308 SPECI KATL 172308Z 09011G16KT 5SM TSRA BR FEW007 BKN020CB OVC040 22/20 A3003 RMK AO2 OCNL LTGIC NE-E TS NE-E MOV N P0005=
200909172252 METAR KATL 172252Z 13007KT 9SM -TSRA FEW007 BKN018CB OVC085 22/21 A3003 RMK AO2 TSB52RAB46 SLP162 OCNL LTGIC E-SE TS E-SE MOV N P0000 T02220211=
200909172152 METAR KATL 172152Z 09008KT 10SM FEW007 SCT025 BKN080 OVC150 22/21 A3002 RMK AO2 SLP157 T02220211=
200909172145 SPECI KATL 172145Z 10006KT 10SM FEW007 SCT025 BKN080 OVC150 22/21 A3001=
200909172057 SPECI KATL 172057Z 08012KT 10SM FEW007 BKN017 OVC020 22/21 A3002 RMK AO2=
200909172057 SPECI KATL 172057Z 08012KT 10SM FEW007 BKN017 OVC020 22/21 A3002 RMK AO2=
200909172052 METAR KATL 172052Z 08011KT 10SM FEW005 BKN007 OVC015 22/21 A3002 RMK AO2 DZE36 SLP158 P0000 60003 T02220211 56014=
200909172017 SPECI KATL 172017Z 06011KT 3SM -DZ BR FEW005 BKN007 OVC015 22/21 A3002 RMK AO2 SFC VIS 4 P0000=
200909172017 SPECI KATL 172017Z 06011KT 3SM -DZ BR FEW005 BKN007 OVC015 22/21 A3002 RMK AO2 SFC VIS 4 P0000=
200909171955 SPECI KATL 171955Z 07010KT 2 1/2SM -DZ BR SCT005 BKN007 OVC010 22/21 A3003 RMK AO2 TWR VIS 3 P0000=
200909171955 SPECI KATL 171955Z 07010KT 2 1/2SM -DZ BR SCT005 BKN007 OVC010 22/21 A3003 RMK AO2 TWR VIS 3 P0000=
200909171952 METAR KATL 171952Z 07010KT 3SM -DZ BR BKN005 BKN007 OVC010 22/21 A3003 RMK AO2 RAE14DZB47 SLP161 P0003 T02170211=
200909171852 METAR KATL 171852Z 07011KT 3SM -RA BR BKN005 BKN007 OVC010 22/21 A3004 RMK AO2 SFC VIS 5 RAB39 SLP167 P0000 T02170206=
200909171752 METAR KATL 171752Z 09009KT 3SM BR BKN005 OVC008 21/20 A3006 RMK AO2 SFC VIS 5 DZE16RAB16E47 SLP172 P0007 60039 T02060200 10211 20200 58001=
200909171716 SPECI KATL 171716Z 09009KT 2SM -RA BR FEW002 BKN005 OVC008 20/19 A3007 RMK AO2 SFC VIS 4 DZE16RAB16 P0002=
200909171716 SPECI KATL 171716Z 09009KT 2SM -RA BR FEW002 BKN005 OVC008 20/19 A3007 RMK AO2 SFC VIS 4 DZE16RAB16 P0002=
200909171652 METAR KATL 171652Z 08010KT 1 1/2SM -DZ BR FEW003 BKN005 OVC008 21/20 A3007 RMK AO2 SFC VIS 2 DZB07 SLP176 P0000 T02060200=
200909171612 SPECI KATL 171612Z 08008KT 2SM -DZ BR OVC005 21/19 A3007 RMK AO2 SFC VIS 3 DZB07 P0000=
200909171612 SPECI KATL 171612Z 08008KT 2SM -DZ BR OVC005 21/19 A3007 RMK AO2 SFC VIS 3 DZB07 P0000=
200909171607 SPECI KATL 171607Z 08009KT 3SM -DZ BR OVC005 21/19 A3007 RMK AO2 DZB07 P0000=
200909171607 SPECI KATL 171607Z 08009KT 3SM -DZ BR OVC005 21/19 A3007 RMK AO2 DZB07 P0000=
200909171552 METAR KATL 171552Z 09007KT 3SM BR OVC005 21/20 A3007 RMK AO2 SFC VIS 6 RAE1454 SLP177 P0000 T02110200=
200909171456 SPECI KATL 171456Z 09006KT 3SM BR FEW005CB BKN013 OVC027 21/20 A3007 RMK AO2 SFC VIS 6 RAE54 CB N MOV N P0000=
200909171456 SPECI KATL 171456Z 09006KT 3SM BR FEW005CB BKN013 OVC027 21/20 A3007 RMK AO2 SFC VIS 6 RAE54 CB N MOV N P0000=
200909171452 METAR KATL 171452Z 10008KT 2 1/2SM -RA BR FEW008CB BKN016 OVC027 21/20 A3006 RMK AO2 SFC VIS 3 RAB21 SLP173 CB N MOV N P0032 60032 T02060200 53006=
200909171433 SPECI KATL 171433Z 09009KT 1SM R09R/3000VP6000FT +RA BR OVC008CB 21/19 A3006 RMK AO2 RAB21 CB OHD MOV N P0016=
200909171433 SPECI KATL 171433Z 09009KT 1SM R09R/3000VP6000FT +RA BR OVC008CB 21/19 A3006 RMK AO2 RAB21 CB OHD MOV N P0016=
200909171428 SPECI KATL 171428Z 09008KT 1/2SM R09R/3000VP6000FT +RA FG OVC008CB 21/19 A3006 RMK AO2 RAB21 CB OHD MOV N P0004=
200909171428 SPECI KATL 171428Z 09008KT 1/2SM R09R/3000VP6000FT +RA FG OVC008CB 21/19 A3006 RMK AO2 RAB21 CB OHD MOV N P0004=
200909171426 SPECI KATL 171426Z 11006KT 1/2SM R09R/5000VP6000FT RA BR OVC008CB 21/19 A3006 RMK AO2 SFC VIS 3 RAB21 CB OHD MOV N P0002=
200909171426 SPECI KATL 171426Z 11006KT 1/2SM R09R/5000VP6000FT RA BR OVC008CB 21/19 A3006 RMK AO2 SFC VIS 3 RAB21 CB OHD MOV N P0002=
200909171352 METAR KATL 171352Z 10007KT 8SM BKN008 OVC011 21/19 A3005 RMK AO2 CIG 005V011 SLP170 T02110194=
200909171252 METAR KATL 171252Z 09006KT 6SM BR BKN006 OVC009 21/19 A3005 RMK AO2 SLP169 T02060194=
200909171152 METAR KATL 171152Z 09006KT 6SM BR BKN006 OVC012 21/19 A3004 RMK AO2 SLP166 70027 T02060194 10211 20206 53014=
200909171052 METAR KATL 171052Z 09007KT 6SM BR BKN006 OVC009 21/20 A3003 RMK AO2 SLP160 T02060200=
200909170952 METAR KATL 170952Z 10006KT 6SM BR BKN006 OVC009 21/20 A3001 RMK AO2 SLP155 T02110200 $=
200909170852 METAR KATL 170852Z 09007KT 6SM BR BKN006 OVC009 21/20 A3000 RMK AO2 SLP149 T02110200 58008 $=
200909170752 METAR KATL 170752Z 11009KT 6SM BR BKN006 OVC009 21/20 A3001 RMK AO2 SLP154 T02110200 $=
200909170713 SPECI KATL 170713Z 10010KT 6SM BR BKN008 OVC014 21/20 A3002 RMK AO2 CIG 006V012 $=
200909170713 SPECI KATL 170713Z 10010KT 6SM BR BKN008 OVC014 21/20 A3002 RMK AO2 CIG 006V012 $=
200909170652 METAR KATL 170652Z 11006KT 6SM BR FEW008 BKN014 OVC028 21/20 A3002 RMK AO2 SLP157 T02110200 $=
200909170616 SPECI KATL 170616Z 11009KT 6SM BR SCT006 OVC028 21/20 A3002 RMK AO2 $=
200909170616 SPECI KATL 170616Z 11009KT 6SM BR SCT006 OVC028 21/20 A3002 RMK AO2 $=
200909170552 METAR KATL 170552Z 11006KT 10SM BKN006 OVC060 21/20 A3003 RMK AO2 SLP158 60003 T02110200 10228 20211 55002 $=
200909170544 SPECI KATL 170544Z 11009KT 10SM BKN006 OVC060 21/20 A3003 RMK AO2 $=
200909170452 METAR KATL 170452Z 12006KT 10SM FEW005 BKN070 OVC120 21/20 A3002 RMK AO2 SLP158 T02110200 402780211 $=
200909170352 METAR KATL 170352Z 11006KT 10SM FEW005 BKN070 OVC150 21/20 A3003 RMK AO2 SLP159 T02110200 $=
200909170252 METAR KATL 170252Z 12008KT 10SM FEW007 SCT120 BKN150 21/20 A3003 RMK AO2 SLP161 60003 T02110200 53013=
200909170237 SPECI KATL 170237Z 11009G15KT 10SM FEW007 BKN150 OVC200 22/21 A3002 RMK AO2=
200909170237 SPECI KATL 170237Z 11009G15KT 10SM FEW007 BKN150 OVC200 22/21 A3002 RMK AO2=
200909170226 SPECI KATL 170226Z 10009KT 10SM BKN007 BKN150 OVC200 22/21 A3002 RMK AO2=
200909170226 SPECI KATL 170226Z 10009KT 10SM BKN007 BKN150 OVC200 22/21 A3002 RMK AO2=
200909170152 METAR KATL 170152Z 10008G16KT 10SM SCT006 BKN032 BKN150 OVC200 22/21 A3001 RMK AO2 SLP154 SCT006 V BKN T02170211=
200909170134 SPECI KATL 170134Z 10010KT 10SM BKN007 BKN030 OVC150 22/21 A3001 RMK AO2=
200909170134 SPECI KATL 170134Z 10010KT 10SM BKN007 BKN030 OVC150 22/21 A3001 RMK AO2=
200909170101 SPECI KATL 170101Z 08010KT 10SM FEW003 BKN028 BKN150 OVC200 22/21 A3000 RMK AO2=
200909170101 SPECI KATL 170101Z 08010KT 10SM FEW003 BKN028 BKN150 OVC200 22/21 A3000 RMK AO2=
200909170052 METAR KATL 170052Z 08010KT 10SM FEW004 BKN140 BKN200 22/21 A3000 RMK AO2 RAE32 SLP150 P0003 T02170206=
200909162352 METAR KATL 162352Z 05009KT 5SM -RA BR FEW006 SCT020 OVC060 23/22 A2999 RMK AO2 RAE11B30 SLP148 P0005 60024 T02280217 10278 20228 53015=
200909162323 SPECI KATL 162323Z 09004KT 10SM FEW006 SCT015 BKN035 OVC150 23/21 A3000 RMK AO2 RAE11 CB DSNT NE-E P0000=
200909162323 SPECI KATL 162323Z 09004KT 10SM FEW006 SCT015 BKN035 OVC150 23/21 A3000 RMK AO2 RAE11 CB DSNT NE-E P0000=
200909162252 METAR KATL 162252Z 28003KT 8SM -RA FEW020 BKN050 BKN090 OVC200 23/21 A2998 RMK AO2 TSE52 SLP144 OCNL LTG DSNT NE TS MOV NE P0007 T02330211=
200909162232 SPECI KATL 162232Z 33004KT 6SM -TSRA BR SCT020CB BKN045 OVC080 23/22 A2998 RMK AO2 OCNL LTGICCG VC N-NE TS VC N-NE MOV N P0005=
200909162232 SPECI KATL 162232Z 33004KT 6SM -TSRA BR SCT020CB BKN045 OVC080 23/22 A2998 RMK AO2 OCNL LTGICCG VC N-NE TS VC N-NE MOV N P0005=
200909162217 SPECI KATL 162217Z 19004KT 3SM TSRA BR FEW008 BKN020CB BKN080 OVC150 23/22 A2997 RMK AO2 OCNL LTGICCG VC NW-N TS VC NW-N MOV N P0003=
200909162217 SPECI KATL 162217Z 19004KT 3SM TSRA BR FEW008 BKN020CB BKN080 OVC150 23/22 A2997 RMK AO2 OCNL LTGICCG VC NW-N TS VC NW-N MOV N P0003=
200909162206 SPECI KATL 162206Z 22013G16KT 6SM -TSRA BR SCT008 BKN020CB BKN080 OVC150 24/23 A2996 RMK AO2 OCNL LTGICCG VC SW AND TS VC SW AND NW MOV N P0000=
200909162206 SPECI KATL 162206Z 22013G16KT 6SM -TSRA BR SCT008 BKN020CB BKN080 OVC150 24/23 A2996 RMK AO2 OCNL LTGICCG VC SW AND TS VC SW AND NW MOV N P0000=
200909162152 METAR KATL 162152Z 11005KT 8SM -TSRA FEW020CB SCT050 BKN080 OVC150 24/22 A2996 RMK AO2 TSB51RAB33 SLP135 OCNL LTGICCG VC SW TS VC SW MOV N P0012 T02440222=
200909162052 METAR KATL 162052Z 12007KT 10SM FEW020 SCT080 BKN150 OVC200 27/22 A2995 RMK AO2 TSB30E48RAE10 SLP131 FRQ LTGICCG DSNT NW-N TS MOV N CB DSNT NW-N MOV N SHRA DSNT NW-N P0000 60000 T02670222 56015=
200909162030 SPECI KATL 162030Z COR 13005KT 10SM TS FEW020CB SCT065 OVC080 26/22 A2995 RMK AO2 TSB30RAE10 OCNL LTGICCG VC N TS VC N MOV N P0000=
200909162030 SPECI KATL 162030Z 13005KT 10SM TS FEW020CB SCT065 OVC080 26/22 A2995 RMK AO2 TSB30RAE10 OCNL LTGICCG N TS VC N MOV N P0000=
200909162012 SPECI KATL 162012Z 15006KT 10SM FEW020CB BKN060 BKN080 OVC150 26/22 A2995 RMK AO2 RAE10 CB NW-N MOV N SHRA NW-N P0000=
200909162012 SPECI KATL 162012Z 15006KT 10SM FEW020CB BKN060 BKN080 OVC150 26/22 A2995 RMK AO2 RAE10 CB NW-N MOV N SHRA NW-N P0000=
200909161952 METAR KATL 161952Z 15011KT 10SM -RA FEW020CB SCT044TCU BKN065 BKN250 26/21 A2995 RMK AO2 RAB51 SLP133 CB N MOV N TCU W SHRA N P0000 T02560211=
200909161852 METAR KATL 161852Z 11006KT 10SM BKN023 BKN100 BKN250 28/22 A2996 RMK AO2 SLP136 CB DSNT S TCU DSNT NW T02780222=
200909161700 SPECI KATL 161700Z 12005KT 10SM FEW008 BKN010 BKN015 25/22 A3001 RMK AO2=
200909161700 SPECI KATL 161700Z 12005KT 10SM FEW008 BKN010 BKN015 25/22 A3001 RMK AO2=
200909161658 SPECI KATL 161658Z 11006KT 10SM BKN010 OVC015 25/22 A3001 RMK AO2 CIG 005V014=
200909161658 SPECI KATL 161658Z 11006KT 10SM BKN010 OVC015 25/22 A3001 RMK AO2 CIG 005V014=
200909161652 METAR KATL 161652Z 10005KT 9SM BKN008 BKN010 OVC013 24/22 A3001 RMK AO2 RAB10E19 SLP154 BINOVC NE P0000 T02440222=
200909161552 METAR KATL 161552Z 08009KT 3SM BR BKN006 OVC009 23/22 A3002 RMK AO2 SFC VIS 5 SLP156 T02330222=
200909161527 SPECI KATL 161527Z 08009KT 1/2SM BR BCFG FEW003 BKN006 OVC008 23/22 A3002 RMK AO2 SFC VIS 4 TWRINC BINOVC=
200909161527 SPECI KATL 161527Z 08009KT 1/2SM BR BCFG FEW003 BKN006 OVC008 23/22 A3002 RMK AO2 SFC VIS 4 TWRINC BINOVC=
200909161505 SPECI KATL 161505Z 12007KT 1/4SM BR BCFG OVC008 23/22 A3001 RMK AO2 SFC VIS 4 CIG 004V013=
200909161505 SPECI KATL 161505Z 12007KT 1/4SM BR BCFG OVC008 23/22 A3001 RMK AO2 SFC VIS 4 CIG 004V013=
200909161452 METAR KATL 161452Z 10007KT 5SM BR OVC008 23/22 A3001 RMK AO2 CIG 004V013 SLP154 60000 T02330217 51007=
200909161428 SPECI KATL 161428Z 09005KT 2SM BR BCFG BKN006 BKN009 BKN012 23/22 A3001 RMK AO2 SFC VIS 5=
200909161428 SPECI KATL 161428Z 09005KT 2SM BR BCFG BKN006 BKN009 BKN012 23/22 A3001 RMK AO2 SFC VIS 5=
200909161352 METAR KATL 161352Z 09006KT 1 1/2SM BR BCFG OVC006 23/22 A3001 RMK AO2 SFC VIS 4 RAB44E50 CIG 003V010 SLP153 P0000 T02280217=
200909161331 SPECI KATL 161331Z 08008KT 1 1/2SM BR OVC006 22/22 A3001 RMK AO2 SFC VIS 5 CIG 003V010=
200909161331 SPECI KATL 161331Z 08008KT 1 1/2SM BR OVC006 22/22 A3001 RMK AO2 SFC VIS 5 CIG 003V010=
200909161317 SPECI KATL 161317Z 08008KT 1 1/2SM BR OVC004 22/22 A3001 RMK AO2 SFC VIS 4=
200909161317 SPECI KATL 161317Z 08008KT 1 1/2SM BR OVC004 22/22 A3001 RMK AO2 SFC VIS 4=
200909161252 METAR KATL 161252Z VRB05KT 1/4SM BR BKN004 OVC006 22/22 A3001 RMK AO2 SFC VIS 4 SLP154 T02220217=
200909161208 SPECI KATL 161208Z 11003KT 1/4SM BR BKN004 OVC006 22/22 A3000 RMK AO2 SFC VIS 3=
200909161208 SPECI KATL 161208Z 11003KT 1/4SM BR BKN004 OVC006 22/22 A3000 RMK AO2 SFC VIS 3=
200909161152 METAR KATL 161152Z 10004KT 2SM BR BKN004 OVC006 22/21 A2999 RMK AO2 SFC VIS 4 SLP147 60049 70053 T02170211 10217 20211 53007=
200909161145 SPECI KATL 161145Z VRB05KT 2SM BR BKN003 OVC006 22/21 A2999 RMK AO2 SFC VIS 5=
200909161145 SPECI KATL 161145Z VRB05KT 2SM BR BKN003 OVC006 22/21 A2999 RMK AO2 SFC VIS 5=
200909161052 METAR KATL 161052Z 09006KT 5SM BR SCT003 OVC007 22/21 A2997 RMK AO2 CIG 007V012 SLP141 T02170211=
200909161050 SPECI KATL 161050Z 09005KT 5SM BR SCT003 BKN007 OVC015 22/21 A2997 RMK AO2=
200909161050 SPECI KATL 161050Z 09005KT 5SM BR SCT003 BKN007 OVC015 22/21 A2997 RMK AO2=
200909161003 SPECI KATL 161003Z 08004KT 6SM BR BKN010 OVC018 22/21 A2997 RMK AO2 CIG 008V012=
200909161003 SPECI KATL 161003Z 08004KT 6SM BR BKN010 OVC018 22/21 A2997 RMK AO2 CIG 008V012=
200909160952 METAR KATL 160952Z 07003KT 6SM BR SCT012 OVC019 22/21 A2997 RMK AO2 TSE26 SLP140 TS MOV NE T02170211=
200909160932 SPECI KATL 160932Z 06004KT 6SM BR BKN011 OVC017 22/21 A2997 RMK AO2 TSE26 TS MOV NE=
200909160932 SPECI KATL 160932Z 06004KT 6SM BR BKN011 OVC017 22/21 A2997 RMK AO2 TSE26 TS MOV NE=
200909160859 SPECI KATL 160859Z 08004KT 5SM TS BKN011CB OVC017 21/21 A2997 RMK AO2 FRQ LTGIC SE TS NW & SE MOV N=
200909160859 SPECI KATL 160859Z 08004KT 5SM TS BKN011CB OVC017 21/21 A2997 RMK AO2 FRQ LTGIC SE TS NW & SE MOV N=
200909160852 METAR KATL 160852Z 10005KT 5SM TS BKN006CB OVC019 21/21 A2997 RMK AO2 TSB37RAE51 SLP139 FRQ LTGIC SE & NW TS N & SE MOV N P0048 60049 T02110206 55003=
200909160844 SPECI KATL 160844Z 10005KT 3SM -TSRA BR BKN006CB OVC019 21/21 A2996 RMK AO2 TSB37 FRQ LTGIC NW TS N MOV N P0048=
200909160844 SPECI KATL 160844Z 10005KT 3SM -TSRA BR BKN006CB OVC019 21/21 A2996 RMK AO2 TSB37 FRQ LTGIC NW TS N MOV N P0048=
200909160837 SPECI KATL 160837Z 06005KT 1 1/2SM R09R/4500VP6000FT +TSRA BR BKN006CB OVC019 21/21 A2996 RMK AO2 TSB37 FRQ LTGIC NW TS OHD MOV N P0046=
200909160837 SPECI KATL 160837Z 06005KT 1 1/2SM R09R/4500VP6000FT +TSRA BR BKN006CB OVC019 21/21 A2996 RMK AO2 TSB37 FRQ LTGIC NW TS OHD MOV N P0046=
200909160822 SPECI KATL 160822Z 12006KT 1 3/4SM R09R/2800VP6000FT +RA BR BKN006 OVC009 21/21 A2997 RMK AO2 P0003=
200909160822 SPECI KATL 160822Z 12006KT 1 3/4SM R09R/2800VP6000FT +RA BR BKN006 OVC009 21/21 A2997 RMK AO2 P0003=
200909160752 METAR KATL 160752Z 08004KT 4SM -RA BR BKN006 OVC027 21/21 A2996 RMK AO2 RAB20 CIG 004V013 SLP137 OCNL LTG DSNT W P0001 T02110206=
200909160652 METAR KATL 160652Z 09006KT 5SM BR OVC006 21/21 A2996 RMK AO2 CIG 004V009 SLP138 T02110206=
200909160552 METAR KATL 160552Z 09007KT 5SM BR BKN006 OVC090 21/21 A2997 RMK AO2 SLP142 60000 T02110206 10228 20211 58006=
200909160452 METAR KATL 160452Z 09007KT 6SM BR SCT006 OVC085 21/21 A2998 RMK AO2 SLP143 T02110206 402610211=
200909160442 SPECI KATL 160442Z 09007KT 6SM BR BKN006 OVC085 21/21 A2998 RMK AO2=
200909160442 SPECI KATL 160442Z 09007KT 6SM BR BKN006 OVC085 21/21 A2998 RMK AO2=
200909160352 METAR KATL 160352Z 09008KT 9SM FEW008 BKN075 BKN090 OVC200 22/21 A2999 RMK AO2 SLP146 T02170206=
200909160252 METAR KATL 160252Z 06006KT 9SM FEW008 OVC040 22/21 A2999 RMK AO2 RAE09 SLP146 P0000 60000 T02220206 50007=
200909160152 METAR KATL 160152Z 09005KT 8SM -RA BKN040 OVC120 22/21 A2999 RMK AO2 RAB48 SLP148 P0000 T02220211=
200909160052 METAR KATL 160052Z 08009KT 8SM FEW060 BKN110 OVC200 22/21 A2998 RMK AO2 SLP143 T02220211=
200909152352 METAR KATL 152352Z 08009KT 8SM FEW015 SCT060 BKN100 BKN150 22/21 A2997 RMK AO2 SLP140 60004 T02220211 10244 20222 58001=
200909152152 SPECI KATL 152152Z 08005KT 9SM BKN042 BKN060 OVC150 23/21 A2997 RMK AO2 SLP140 T02330206=
200909152052 METAR KATL 152052Z 08010KT 9SM SCT035 BKN055 BKN070 24/21 A2997 RMK AO2 RAE00 SLP139 P0000 60004 T02390211 56010=
200909151952 METAR KATL 151952Z 11007KT 6SM -RA BR BKN035 BKN050 OVC070 23/21 A2998=
200909151938 SPECI KATL 151938Z 16006KT 5SM R09R/6000VP6000FT -RA BR FEW030 BKN055 OVC070 23/21 A2999 RMK AO2 RAB1856 P0002=
200909151938 SPECI KATL 151938Z 16006KT 5SM R09R/6000VP6000FT -RA BR FEW030 BKN055 OVC070 23/21 A2999 RMK AO2 RAB1856 P0002=
200909151852 METAR KATL 151852Z 19006KT 8SM FEW045 BKN060 BKN080 23/21 A2999 RMK AO2 RAE20 SLP146 FRQ LTG DSNT NW CB DSNT NW P0002 T02330211=
200909151831 SPECI KATL 151831Z 21008KT 9SM SCT030 BKN040 OVC070 23/22 A3000 RMK AO2 RAE20 CB DSNT NW SHRA N-NE-E P0002=
200909151831 SPECI KATL 151831Z 21008KT 9SM SCT030 BKN040 OVC070 23/22 A3000 RMK AO2 RAE20 CB DSNT NW SHRA N-NE-E P0002=
200909151752 METAR KATL 151752Z 21005KT 10SM -RA FEW025CB BKN040 OVC065 24/21 A3000 RMK AO2 RAB1657 SLP150 CB SW & NW MOV N P0000 60000 T02440206 10261 20222 58011=
200909151701 SPECI KATL 151701Z 19006KT 10SM -RA SCT024 BKN030 BKN040 25/21 A3001 RMK AO2 RAB1657 P0000=
200909151701 SPECI KATL 151701Z 19006KT 10SM -RA SCT024 BKN030 BKN040 25/21 A3001 RMK AO2 RAB1657 P0000=
200909151652 METAR KATL 151652Z 17006KT 10SM BKN024 BKN030 BKN040 26/20 A3001 RMK AO2 SLP155 T02560200=
200909151552 METAR KATL 151552Z 15008KT 8SM FEW013 BKN016 BKN020 25/21 A3003 RMK AO2 SLP159 T02500211=
200909151528 SPECI KATL 151528Z 17008KT 8SM FEW013 BKN016 OVC020 24/21 A3003 RMK AO2=
200909151528 SPECI KATL 151528Z 17008KT 8SM FEW013 BKN016 OVC020 24/21 A3003 RMK AO2=
200909151452 METAR KATL 151452Z 19006KT 7SM BKN014 BKN018 BKN100 24/21 A3004 RMK AO2 RAB06E17 SLP162 P0000 60000 T02390211 53010=
200909151431 SPECI KATL 151431Z 17006KT 7SM BKN012 OVC018 23/21 A3004 RMK AO2 RAB06E17 P0000=
200909151431 SPECI KATL 151431Z 17006KT 7SM BKN012 OVC018 23/21 A3004 RMK AO2 RAB06E17 P0000=
200909151352 METAR KATL 151352Z 15006KT 6SM BR BKN009 OVC013 23/21 A3003 RMK AO2 RAB34E51 SLP159 P0000 T02280206=
200909151252 METAR KATL 151252Z 14005KT 6SM BR BKN007 OVC012 23/21 A3001 RMK AO2 SLP154 T02280211=
200909151242 SPECI KATL 151242Z 14005KT 6SM BR BKN007 BKN012 BKN043 22/21 A3002 RMK AO2=
200909151242 SPECI KATL 151242Z 14005KT 6SM BR BKN007 BKN012 BKN043 22/21 A3002 RMK AO2=
200909151205 SPECI KATL 151205Z 14004KT 5SM BR FEW010 BKN015 BKN100 22/21 A3001 RMK AO2=
200909151205 SPECI KATL 151205Z 14004KT 5SM BR FEW010 BKN015 BKN100 22/21 A3001 RMK AO2=
200909151152 METAR KATL 151152Z 14003KT 6SM BR FEW009 BKN044 BKN095 22/21 A3001 RMK AO2 SLP152 T02220211 10233 20217 53004=
200909151052 METAR KATL 151052Z 15003KT 6SM BR FEW013 BKN023 OVC050 22/21 A3000 RMK AO2 SLP149 T02170206=
200909151037 SPECI KATL 151037Z 15004KT 6SM BR FEW016 BKN023 OVC055 22/21 A3000 RMK AO2=
200909151037 SPECI KATL 151037Z 15004KT 6SM BR FEW016 BKN023 OVC055 22/21 A3000 RMK AO2=
200909150952 METAR KATL 150952Z 00000KT 6SM BR SCT042 BKN110 OVC250 22/21 A3000 RMK AO2 SLP149 T02170206=
200909150852 METAR KATL 150852Z 14004KT 6SM BR FEW013 BKN110 OVC150 22/21 A2999 RMK AO2 SLP147 T02220206 50000=
200909150752 METAR KATL 150752Z 14004KT 7SM FEW019 SCT060 OVC150 22/21 A3000 RMK AO2 SLP149 T02220206=
200909150747 SPECI KATL 150747Z 17004KT 7SM SCT028 OVC150 22/21 A3000 RMK AO2=
200909150747 SPECI KATL 150747Z 17004KT 7SM SCT028 OVC150 22/21 A3000 RMK AO2=
200909150713 SPECI KATL 150713Z 15004KT 7SM BKN028 BKN035 23/20 A3000 RMK AO2=
200909150713 SPECI KATL 150713Z 15004KT 7SM BKN028 BKN035 23/20 A3000 RMK AO2=
200909150652 METAR KATL 150652Z 15004KT 7SM SCT060 BKN100 OVC250 23/20 A2999 RMK AO2 SLP147 T02280200=
200909150552 METAR KATL 150552Z 12005KT 7SM BKN032 BKN040 OVC047 23/21 A3000 RMK AO2 SLP149 T02330206 10256 20228 55001=
200909150452 METAR KATL 150452Z 14005KT 10SM SCT110 BKN200 23/21 A3000 RMK AO2 SLP149 T02330206 402780222=
200909150352 METAR KATL 150352Z 12004KT 9SM FEW050 OVC110 24/21 A3000 RMK AO2 SLP150 T02390206=
200909150252 METAR KATL 150252Z 12004KT 10SM FEW050 BKN110 OVC200 24/21 A3000 RMK AO2 SLP150 T02440206 58001=
200909150152 METAR KATL 150152Z 12004KT 10SM SCT050 BKN080 OVC150 25/21 A3001 RMK AO2 SLP153 T02500206=
200909150052 METAR KATL 150052Z 12005KT 10SM BKN050 OVC150 26/21 A3001 RMK AO2 SLP152 T02560206=
200909142352 METAR KATL 142352Z 16005KT 9SM FEW050 BKN100 OVC150 25/21 A3000 RMK AO2 SLP151 T02500206 10278 20250 50002=
200909142252 METAR KATL 142252Z 16007KT 9SM FEW050 SCT100 BKN150 OVC200 26/20 A3001 RMK AO2 SLP152 T02610200=
200909142152 METAR KATL 142152Z 14008KT 9SM FEW030 SCT080 BKN100 OVC200 27/19 A3000 RMK AO2 SLP149 T02670189=
200909142052 METAR KATL 142052Z 12008KT 9SM FEW030 SCT050 BKN180 OVC250 27/19 A3000 RMK AO2 SLP148 T02720189 56014=
200909141952 METAR KATL 141952Z 10008KT 10SM FEW030 BKN050 BKN250 27/19 A3000 RMK AO2 SLP151 T02670194=
200909141852 METAR KATL 141852Z 13007KT 100V160 9SM FEW030 BKN070 BKN100 28/21 A3002 RMK AO2 SLP155 T02780206=
200909141752 METAR KATL 141752Z 11007KT 10SM BKN055 BKN070 BKN100 26/20 A3004 RMK AO2 SLP164 T02610200 10261 20222 58006=
200909141652 METAR KATL 141652Z 13004KT 10SM BKN060 BKN070 OVC100 25/19 A3006 RMK AO2 SLP171 BINOVC NW-N T02500194=
200909141552 METAR KATL 141552Z 11005KT 10SM FEW050 BKN060 OVC100 25/19 A3007 RMK AO2 SLP174 T02500194=
200909141452 METAR KATL 141452Z 11007KT 10SM FEW070 SCT100 BKN150 25/19 A3006 RMK AO2 SLP171 T02500189 51013=
200909141352 METAR KATL 141352Z 13007KT 10SM FEW037 SCT070 SCT100 BKN150 24/18 A3006 RMK AO2 SLP169 T02440183=
200909141252 METAR KATL 141252Z 09006KT 6SM HZ FEW033 BKN100 BKN250 23/19 A3004 RMK AO2 SLP162 T02280189=
200909141152 METAR KATL 141152Z 09007KT 7SM BKN095 BKN200 22/19 A3002 RMK AO2 SLP157 T02220189 10228 20222 53009=
200909141052 METAR KATL 141052Z 11005KT 10SM OVC095 22/19 A3001 RMK AO2 SLP153 T02220189=
200909140952 METAR KATL 140952Z 11004KT 9SM BKN095 OVC200 23/19 A3000 RMK AO2 SLP150 T02280189 $=
200909140852 METAR KATL 140852Z 09004KT 9SM OVC100 22/19 A2999 RMK AO2 SLP148 T02220194 55000 $=
200909140752 METAR KATL 140752Z 10004KT 9SM BKN110 22/19 A2999 RMK AO2 SLP146 T02220194 $=
200909140652 METAR KATL 140652Z 08006KT 9SM BKN100 OVC200 23/20 A2999 RMK AO2 SLP147 T02280200 $=
200909140552 METAR KATL 140552Z 08005KT 9SM SCT090 OVC200 22/19 A2999 RMK AO2 SLP148 T02220194 10250 20222 58003 $=
200909140452 METAR KATL 140452Z 08004KT 9SM OVC100 23/19 A3001 RMK AO2 SLP152 T02280194 402670200 $=
200909140352 METAR KATL 140352Z 09003KT 9SM OVC100 23/19 A3000 RMK AO2 SLP151 T02330194=
200909140252 METAR KATL 140252Z 11003KT 10SM OVC100 24/19 A3000 RMK AO2 SLP151 T02390194 51013=
200909140152 METAR KATL 140152Z 00000KT 10SM BKN095 OVC150 24/19 A3000 RMK AO2 SLP148 T02390194=
200909140052 METAR KATL 140052Z 00000KT 10SM SCT110 BKN150 BKN200 24/19 A2998 RMK AO2 SLP143 T02390189=
200909132352 METAR KATL 132352Z 11004KT 8SM SCT150 SCT200 24/19 A2997 RMK AO2 SLP139 T02440189 10267 20244 55000=
200909132252 METAR KATL 132252Z 10004KT 9SM FEW120 BKN150 BKN200 25/18 A2996 RMK AO2 SLP138 T02500183=
200909132152 METAR KATL 132152Z 09006KT 9SM BKN150 BKN200 26/18 A2997 RMK AO2 SLP138 T02560178=
200909132052 METAR KATL 132052Z 10006KT 9SM BKN150 BKN200 26/18 A2997 RMK AO2 SLP138 T02610183 57016=
200909131952 METAR KATL 131952Z 10004KT 9SM BKN150 OVC200 26/19 A2998 RMK AO2 SLP143 T02560189=
200909131852 METAR KATL 131852Z 07003KT 9SM BKN150 OVC200 26/19 A3000 RMK AO2 SLP150 T02560189=
200909131752 METAR KATL 131752Z 06006KT 9SM BKN150 OVC200 25/18 A3001 RMK AO2 SLP154 T02500183 10250 20211 58006=
200909131652 METAR KATL 131652Z VRB03KT 9SM BKN150 OVC200 24/18 A3003 RMK AO2 SLP159 T02440183=
200909131552 METAR KATL 131552Z 11006KT 9SM BKN150 OVC200 24/18 A3003 RMK AO2 SLP160 T02390178=
200909131452 METAR KATL 131452Z 07008KT 9SM BKN150 OVC250 22/17 A3003 RMK AO2 SLP162 T02220172 53014=
200909131352 METAR KATL 131352Z 08010KT 9SM BKN150 OVC250 22/18 A3002 RMK AO2 SLP156 T02220178=
200909131252 METAR KATL 131252Z 07007KT 9SM BKN140 BKN250 22/18 A2999 RMK AO2 SLP148 T02170178=
200909131152 METAR KATL 131152Z 07005KT 8SM SCT150 BKN250 21/18 A2999 RMK AO2 SLP146 T02110183 10222 20200 53013=
200909131052 METAR KATL 131052Z 07003KT 9SM SCT150 BKN250 21/18 A2997 RMK AO2 SLP141 T02060183=
200909130952 METAR KATL 130952Z 06004KT 10SM BKN150 21/18 A2996 RMK AO2 SLP136 T02110183=
200909130852 METAR KATL 130852Z 06004KT 10SM BKN150 21/18 A2995 RMK AO2 SLP133 T02110183 56004=
200909130752 METAR KATL 130752Z 06004KT 10SM SCT150 22/19 A2995 RMK AO2 SLP133 T02220189=
200909130652 METAR KATL 130652Z 07003KT 10SM SCT150 22/19 A2995 RMK AO2 SLP134 T02220189=
200909130552 METAR KATL 130552Z 07003KT 10SM SCT150 22/19 A2996 RMK AO2 SLP137 T02170189 10250 20217 58004=
200909130452 METAR KATL 130452Z 00000KT 10SM SCT150 BKN250 22/19 A2997 RMK AO2 SLP141 T02220189 402720194=
200909130352 METAR KATL 130352Z 00000KT 10SM FEW100 SCT250 23/19 A2998 RMK AO2 SLP142 T02280189=
200909130252 METAR KATL 130252Z 00000KT 10SM SCT250 23/19 A2998 RMK AO2 SLP142 T02280189 51010=
200909130152 METAR KATL 130152Z 00000KT 10SM FEW150 SCT250 24/19 A2997 RMK AO2 SLP141 T02390189=
200909130052 METAR KATL 130052Z 00000KT 10SM BKN150 BKN200 24/19 A2995 RMK AO2 SLP135 T02440189=
200909122352 METAR KATL 122352Z 12005KT 9SM BKN130 OVC180 25/18 A2995 RMK AO2 SLP132 T02500183 10272 20250 55004=
200909122252 METAR KATL 122252Z 15005KT 9SM FEW100 OVC140 26/18 A2995 RMK AO2 SLP131 T02610178=
200909122152 METAR KATL 122152Z 12005KT 9SM FEW035 BKN150 OVC200 27/17 A2995 RMK AO2 SLP132 T02670172=
200909122052 METAR KATL 122052Z 08004KT 10SM FEW035 SCT150 OVC200 27/18 A2996 RMK AO2 SLP136 T02670178 56015=
200909121952 METAR KATL 121952Z 12006KT 10SM SCT035 SCT150 OVC200 27/18 A2997 RMK AO2 SLP140 T02720183=
200909121852 METAR KATL 121852Z 09005KT 10SM FEW035 BKN150 OVC200 27/18 A2999 RMK AO2 SLP145 T02670178=
200909121752 METAR KATL 121752Z 04004KT 10SM SCT030 BKN150 OVC250 26/18 A3000 RMK AO2 SLP152 T02610183 10261 20200 58015=
200909121652 METAR KATL 121652Z 00000KT 9SM SCT029 BKN037 BKN150 26/19 A3003 RMK AO2 SLP159 T02560189=
200909121552 METAR KATL 121552Z 17004KT 9SM SCT025 BKN150 OVC250 25/19 A3004 RMK AO2 SLP166 T02500189=
200909121452 METAR KATL 121452Z 11005KT 8SM BKN150 OVC250 24/19 A3005 RMK AO2 SLP168 T02390189 58002=
200909121352 METAR KATL 121352Z VRB06KT 6SM HZ SCT150 BKN250 23/19 A3005 RMK AO2 SLP168 T02330189=
200909121252 METAR KATL 121252Z 09005KT 6SM BR FEW100 BKN250 21/19 A3006 RMK AO2 SLP172 T02110189=
200909121152 METAR KATL 121152Z 06006KT 4SM BR SCT095 BKN200 20/18 A3005 RMK AO2 SLP170 T02000183 10200 20194 55004=
200909121052 METAR KATL 121052Z 08004KT 6SM BR BKN100 BKN200 20/18 A3005 RMK AO2 SLP168 T02000183=
200909120952 METAR KATL 120952Z 09004KT 5SM BR BKN095 BKN200 19/18 A3005 RMK AO2 SLP169 T01940183=
200909120852 METAR KATL 120852Z 08004KT 5SM BR BKN095 BKN200 20/18 A3007 RMK AO2 SLP174 T02000183 55005=
200909120752 METAR KATL 120752Z 06005KT 5SM BR BKN100 BKN200 20/19 A3006 RMK AO2 SLP173 T02000189=
200909120652 METAR KATL 120652Z 08006KT 5SM BR SCT120 BKN200 20/18 A3007 RMK AO2 SLP177 T02000183=
200909120552 METAR KATL 120552Z 09005KT 6SM BR SCT120 BKN200 19/18 A3008 RMK AO2 SLP180 T01940183 10222 20194 57006=
200909120452 METAR KATL 120452Z 10004KT 7SM SCT120 20/18 A3009 RMK AO2 SLP183 T02000183 402390189=
200909120352 METAR KATL 120352Z 08004KT 7SM SCT120 BKN250 20/18 A3009 RMK AO2 SLP184 T02000183=
200909120252 METAR KATL 120252Z 08007KT 7SM SCT100 21/18 A3010 RMK AO2 SLP186 T02060183 53004=
200909120152 METAR KATL 120152Z 07005KT 8SM SCT100 21/18 A3010 RMK AO2 SLP186 T02110183=
200909120052 METAR KATL 120052Z 05007KT 8SM SCT100 22/18 A3009 RMK AO2 SLP181 T02220183=
200909112352 METAR KATL 112352Z 09004KT 5SM HZ FEW020 BKN100 OVC150 22/19 A3009 RMK AO2 SLP182 T02220189 10233 20217 56007=
200909112252 METAR KATL 112252Z 00000KT 6SM HZ FEW018 SCT100 BKN130 BKN200 23/18 A3009 RMK AO2 SLP184 T02280183=
200909112218 SPECI KATL 112218Z 09005KT 5SM HZ SCT022 OVC100 23/19 A3009 RMK AO2=
200909112218 SPECI KATL 112218Z 09005KT 5SM HZ SCT022 OVC100 23/19 A3009 RMK AO2=
200909112152 METAR KATL 112152Z 10004KT 6SM HZ BKN020 OVC100 23/18 A3010 RMK AO2 SLP185 T02280183=
200909112052 METAR KATL 112052Z 15005KT 7SM FEW018 BKN020 OVC080 22/19 A3011 RMK AO2 SLP189 T02220189 56015=
200909112000 SPECI KATL 112000Z 09005KT 7SM FEW015 BKN018 OVC020 22/19 A3011 RMK AO2=
200909112000 SPECI KATL 112000Z 09005KT 7SM FEW015 BKN018 OVC020 22/19 A3011 RMK AO2=
200909111952 METAR KATL 111952Z 11006KT 7SM OVC014 22/19 A3012 RMK AO2 SLP191 T02220189=
200909111852 METAR KATL 111852Z 07005KT 6SM HZ OVC012 22/19 A3014 RMK AO2 SLP199 T02170189 $=
200909111752 METAR KATL 111752Z 13004KT 6SM BR OVC012 22/19 A3015 RMK AO2 RAE1656 SLP205 P0000 60000 T02170194 10217 20194 58008=
200909111652 METAR KATL 111652Z VRB05KT 6SM -RA BR OVC010 21/19 A3016 RMK AO2 RAB35 SLP208 P0000 T02110189=
200909111552 METAR KATL 111552Z 10006KT 6SM BR OVC010 21/19 A3018 RMK AO2 SLP212 T02110189=
200909111452 METAR KATL 111452Z 08006KT 6SM BR OVC010 21/18 A3018 RMK AO2 SLP214 60000 T02060183 50002=
200909111352 METAR KATL 111352Z 08010KT 6SM BR OVC010 20/18 A3018 RMK AO2 RAB24E37 SLP215 P0000 T02000178=
200909111252 METAR KATL 111252Z 10007KT 6SM BR BKN012 OVC015 19/17 A3018 RMK AO2 SLP213 T01940172=
200909111202 SPECI KATL 111202Z 08010KT 6SM BR BKN012 OVC015 19/17 A3018 RMK AO2=
200909111202 SPECI KATL 111202Z 08010KT 6SM BR BKN012 OVC015 19/17 A3018 RMK AO2=
200909111152 METAR KATL 111152Z 08010KT 7SM BKN015 OVC018 19/17 A3017 RMK AO2 SLP211 T01940172 10194 20189 53008=
200909111052 METAR KATL 111052Z 08007KT 8SM BKN017 OVC028 19/17 A3016 RMK AO2 SLP207 T01940172=
200909110952 METAR KATL 110952Z 09010KT 8SM BKN021 19/17 A3015 RMK AO2 SLP202 T01940167=
200909110902 SPECI KATL 110902Z 09006KT 9SM FEW021 BKN028 OVC032 19/17 A3015 RMK AO2=
200909110902 SPECI KATL 110902Z 09006KT 9SM FEW021 BKN028 OVC032 19/17 A3015 RMK AO2=
200909110852 METAR KATL 110852Z 09008KT 6SM BR OVC030 19/17 A3015 RMK AO2 SLP202 T01940172 56009=
200909110752 METAR KATL 110752Z 09009KT 6SM BR BKN030 OVC039 19/17 A3015 RMK AO2 SLP203 T01940172=
200909110652 METAR KATL 110652Z 08007KT 6SM BR BKN043 19/17 A3016 RMK AO2 SLP206 T01890172=
200909110552 METAR KATL 110552Z 08009KT 6SM BR BKN120 19/17 A3018 RMK AO2 SLP211 T01940172 10228 20194 58005=
200909110511 SPECI KATL 110511Z 09010KT 8SM SCT016 OVC110 19/18 A3018 RMK AO2=
200909110511 SPECI KATL 110511Z 09010KT 8SM SCT016 OVC110 19/18 A3018 RMK AO2=
200909110452 METAR KATL 110452Z 09010KT 9SM BKN016 OVC130 19/18 A3019 RMK AO2 SLP216 T01940178 402670189=
200909110443 SPECI KATL 110443Z 08010KT 9SM BKN017 OVC130 19/18 A3019 RMK AO2=
200909110443 SPECI KATL 110443Z 08010KT 9SM BKN017 OVC130 19/18 A3019 RMK AO2=
200909110352 METAR KATL 110352Z 09007KT 10SM FEW015 BKN250 20/18 A3019 RMK AO2 SLP218 T02000178=
200909110310 SPECI KATL 110310Z 09009KT 10SM FEW015 SCT250 20/18 A3019 RMK AO2=
200909110310 SPECI KATL 110310Z 09009KT 10SM FEW015 SCT250 20/18 A3019 RMK AO2=
200909110252 METAR KATL 110252Z 08010KT 10SM OVC015 21/18 A3019 RMK AO2 SLP218 T02060178 51013=
200909110201 SPECI KATL 110201Z 07012KT 10SM BKN015 BKN250 21/18 A3018 RMK AO2=
200909110201 SPECI KATL 110201Z 07012KT 10SM BKN015 BKN250 21/18 A3018 RMK AO2=
200909110152 METAR KATL 110152Z 07013KT 10SM SCT015 BKN250 21/18 A3018 RMK AO2 SLP213 SCT015 V BKN T02110183=
200909110146 SPECI KATL 110146Z 08013KT 10SM BKN015 BKN250 21/18 A3017 RMK AO2=
200909110146 SPECI KATL 110146Z 08013KT 10SM BKN015 BKN250 21/18 A3017 RMK AO2=
200909110052 METAR KATL 110052Z 08009KT 10SM FEW250 22/18 A3016 RMK AO2 SLP205 T02170183=
200909102352 METAR KATL 102352Z 08010KT 10SM FEW250 23/18 A3013 RMK AO2 SLP195 T02280183 10267 20228 53004=
200909102252 METAR KATL 102252Z 09010KT 10SM FEW025 24/19 A3012 RMK AO2 SLP193 T02390189=
200909102152 METAR KATL 102152Z 10009KT 10SM FEW025TCU SCT040 SCT070 25/19 A3012 RMK AO2 SLP190 TCU S & NW T02500189=
200909102052 METAR KATL 102052Z 10009KT 10SM FEW030TCU SCT050 SCT070 26/19 A3012 RMK AO2 SLP190 TCU NW T02610194 56013=
200909101952 METAR KATL 101952Z 10007KT 10SM SCT030 BKN050 26/19 A3012 RMK AO2 SLP192 T02610194=
200909101852 METAR KATL 101852Z 12006KT 10SM FEW030 BKN040 26/19 A3014 RMK AO2 SLP197 T02560194=
200909101827 SPECI KATL 101827Z 08007KT 10SM FEW027 BKN030 BKN040 25/19 A3014 RMK AO2=
200909101827 SPECI KATL 101827Z 08007KT 10SM FEW027 BKN030 BKN040 25/19 A3014 RMK AO2=
200909101752 METAR KATL 101752Z 07008KT 10SM BKN023 25/19 A3016 RMK AO2 SLP204 T02500189 10256 20194 58003=
200909101652 METAR KATL 101652Z 10007KT 10SM BKN019 BKN024 OVC070 24/19 A3016 RMK AO2 SLP206 T02390189=
200909101552 METAR KATL 101552Z 07008KT 10SM BKN017 BKN020 BKN070 23/19 A3017 RMK AO2 SLP208 T02330189=
200909101526 SPECI KATL 101526Z 10008KT 10SM BKN015 OVC030 22/18 A3017 RMK AO2=
200909101526 SPECI KATL 101526Z 10008KT 10SM BKN015 OVC030 22/18 A3017 RMK AO2=
200909101452 METAR KATL 101452Z 12005KT 10SM BKN013 BKN028 22/18 A3016 RMK AO2 SLP207 T02220183 50003=
200909101357 SPECI KATL 101357Z 10008KT 10SM BKN011 BKN028 21/18 A3017 RMK AO2=
200909101357 SPECI KATL 101357Z 10008KT 10SM BKN011 BKN028 21/18 A3017 RMK AO2=
200909101352 METAR KATL 101352Z 12006KT 8SM OVC009 21/18 A3017 RMK AO2 SLP207 T02110178=
200909101252 METAR KATL 101252Z 09006KT 6SM HZ BKN009 BKN029 21/18 A3017 RMK AO2 SLP206 T02060178=
200909101242 SPECI KATL 101242Z 10006KT 6SM BR BKN009 BKN014 20/18 A3017 RMK AO2=
200909101242 SPECI KATL 101242Z 10006KT 6SM BR BKN009 BKN014 20/18 A3017 RMK AO2=
200909101208 SPECI KATL 101208Z 10006KT 7SM SCT009 BKN014 BKN027 20/18 A3016 RMK AO2=
200909101208 SPECI KATL 101208Z 10006KT 7SM SCT009 BKN014 BKN027 20/18 A3016 RMK AO2=
200909101152 METAR KATL 101152Z 10005KT 6SM BR FEW007 SCT012 BKN027 19/18 A3016 RMK AO2 SLP204 T01940183 10200 20189 51014=
200909101147 SPECI KATL 101147Z 10006KT 6SM BR SCT007 BKN027 19/18 A3015 RMK AO2=
200909101147 SPECI KATL 101147Z 10006KT 6SM BR SCT007 BKN027 19/18 A3015 RMK AO2=
200909101052 METAR KATL 101052Z 10008KT 6SM BR BKN007 OVC009 19/18 A3013 RMK AO2 SLP195 T01940183=
200909100952 METAR KATL 100952Z 09008KT 6SM BR BKN008 19/18 A3011 RMK AO2 SLP188 T01940183=
200909100949 SPECI KATL 100949Z 09008KT 6SM BR BKN008 19/18 A3011 RMK AO2 CIG 007V012=
200909100949 SPECI KATL 100949Z 09008KT 6SM BR BKN008 19/18 A3011 RMK AO2 CIG 007V012=
200909100929 SPECI KATL 100929Z 09008KT 6SM BR SCT008 19/18 A3010 RMK AO2=
200909100929 SPECI KATL 100929Z 09008KT 6SM BR SCT008 19/18 A3010 RMK AO2=
200909100852 METAR KATL 100852Z 12008KT 6SM BR OVC006 19/18 A3010 RMK AO2 SLP183 T01940183 53002=
200909100752 METAR KATL 100752Z 13007KT 6SM BR BKN006 OVC009 19/18 A3009 RMK AO2 SLP180 T01940183=
200909100714 SPECI KATL 100714Z 11008KT 6SM BR BKN008 BKN025 19/18 A3009 RMK AO2=
200909100714 SPECI KATL 100714Z 11008KT 6SM BR BKN008 BKN025 19/18 A3009 RMK AO2=
200909100652 METAR KATL 100652Z 11005KT 6SM BR SCT025 19/18 A3010 RMK AO2 SLP182 T01940183=
200909100552 METAR KATL 100552Z 11005KT 10SM FEW250 20/18 A3009 RMK AO2 SLP180 T02000178 10261 20200 58002=
200909100452 METAR KATL 100452Z 09010KT 10SM FEW010 SCT250 21/19 A3010 RMK AO2 SLP183 OCNL LTG DSNT SW T02060189 402890194=
200909100352 METAR KATL 100352Z 08013KT 10SM FEW040 SCT250 21/18 A3010 RMK AO2 SLP184 T02110183=
200909100252 METAR KATL 100252Z 10007KT 10SM FEW150 SCT250 22/18 A3010 RMK AO2 SLP183 OCNL LTG DSNT SE T02220178 53017=
200909100152 METAR KATL 100152Z 04006KT 10SM FEW150 SCT250 24/18 A3008 RMK AO2 SLP177 FRQ LTG DSNT SE T02440183=
200909100052 METAR KATL 100052Z 02007KT 10SM FEW150 BKN250 26/19 A3006 RMK AO2 SLP170 FRQ LTG DSNT E-SE T02560189=
200909092352 METAR KATL 092352Z 34006KT 8SM FEW150 SCT200 BKN250 26/20 A3005 RMK AO2 SLP165 T02560200 10289 20256 53005=
200909092252 METAR KATL 092252Z 32006KT 8SM SCT150 BKN200 27/20 A3003 RMK AO2 SLP161 T02670200=
200909092152 METAR KATL 092152Z 27006KT 9SM FEW050 SCT150 BKN200 28/19 A3002 RMK AO2 SLP157 T02780194=
200909092052 METAR KATL 092052Z 32005KT 9SM FEW045 BKN150 BKN250 28/20 A3003 RMK AO2 SLP159 CB DSNT N T02780200 56014=
200909091952 METAR KATL 091952Z 34005KT 10SM FEW035TCU BKN150 BKN250 28/19 A3005 RMK AO2 SLP167 CBMAM N-NE TCU SE-S-SW T02780189=
200909091852 METAR KATL 091852Z 09007KT 10SM SCT044TCU BKN180 BKN250 28/19 A3005 RMK AO2 SLP167 TCU S-SW-W CB DSNT NW SHRA DSNT NW T02830189=
200909091752 METAR KATL 091752Z VRB03KT 10SM FEW040TCU SCT180 BKN250 28/19 A3007 RMK AO2 SLP174 TCU W T02780189 10289 20217 58010=
200909091652 METAR KATL 091652Z 00000KT 10SM FEW035 BKN180 BKN250 28/19 A3009 RMK AO2 SLP180 CB DSNT W TCU DSNT S T02780189=
200909091552 METAR KATL 091552Z 09004KT 10SM FEW030 BKN180 BKN250 27/19 A3010 RMK AO2 SLP183 T02720194=
200909091452 METAR KATL 091452Z 09006KT 9SM FEW200 SCT250 25/19 A3011 RMK AO2 SLP185 T02500194 51007=
200909091352 METAR KATL 091352Z 10004KT 8SM FEW200 SCT250 24/19 A3010 RMK AO2 SLP184 T02390194=
200909091252 METAR KATL 091252Z 06008KT 6SM HZ SCT150 23/19 A3010 RMK AO2 SLP182 T02280189=
200909091152 METAR KATL 091152Z 04008KT 6SM HZ FEW150 SCT250 22/18 A3008 RMK AO2 SLP178 T02220183 10233 20194 53013=
200909091052 METAR KATL 091052Z 31003KT 8SM FEW250 19/18 A3006 RMK AO2 SLP168 T01940178=
200909090952 METAR KATL 090952Z 00000KT 9SM FEW200 20/17 A3005 RMK AO2 SLP165 T02000172=
200909090852 METAR KATL 090852Z 00000KT 10SM FEW200 22/17 A3004 RMK AO2 SLP163 T02170172 53002=
200909090752 METAR KATL 090752Z 00000KT 10SM FEW200 21/17 A3004 RMK AO2 SLP161 T02060172=
200909090652 METAR KATL 090652Z 03004KT 10SM FEW200 23/17 A3004 RMK AO2 SLP161 T02280172=
200909090552 METAR KATL 090552Z 01003KT 10SM CLR 23/17 A3004 RMK AO2 SLP160 T02330167 10267 20233 51003=
200909090452 METAR KATL 090452Z 03004KT 10SM FEW200 23/17 A3003 RMK AO2 SLP160 T02330167 403060194=
200909090352 METAR KATL 090352Z 02005KT 10SM SCT200 24/17 A3003 RMK AO2 SLP160 T02390172=
200909090252 METAR KATL 090252Z 35007KT 10SM FEW150 SCT250 24/19 A3003 RMK AO2 SLP158 T02440189 53010=
200909090152 METAR KATL 090152Z 33008KT 10SM FEW150 SCT200 26/18 A3001 RMK AO2 SLP153 T02560178=
200909090052 METAR KATL 090052Z 28005KT 10SM FEW150 BKN200 26/17 A2999 RMK AO2 SLP147 T02560172=
200909082352 METAR KATL 082352Z 27004KT 10SM FEW150 BKN200 OVC250 26/18 A3000 RMK AO2 SLP149 T02610178 10306 20261 50002=
200909082252 METAR KATL 082252Z 27003KT 10SM FEW055 BKN200 OVC250 28/17 A3000 RMK AO2 SLP151 T02780172=
200909082152 METAR KATL 082152Z 20005KT 10SM SCT055 SCT200 BKN250 29/17 A2999 RMK AO2 SLP147 T02890167=
200909082052 METAR KATL 082052Z 25004KT 10SM SCT050 SCT200 BKN250 29/17 A2999 RMK AO2 SLP146 T02940172 56019=
200909081952 METAR KATL 081952Z 23007KT 10SM FEW055 SCT150 SCT200 30/18 A3001 RMK AO2 SLP152 T03000178=
200909081852 METAR KATL 081852Z VRB04KT 10SM SCT050 SCT200 29/17 A3004 RMK AO2 SLP161 T02940167=
200909081752 METAR KATL 081752Z 18005KT 10SM SCT050 28/17 A3005 RMK AO2 SLP166 T02830172 10289 20211 58008=
200909081652 METAR KATL 081652Z 00000KT 10SM FEW045 SCT200 28/17 A3007 RMK AO2 SLP173 T02780172=
200909081552 METAR KATL 081552Z 13003KT 10SM FEW200 26/18 A3008 RMK AO2 SLP177 T02610178=
200909081452 METAR KATL 081452Z 11005KT 10SM FEW200 25/18 A3008 RMK AO2 SLP176 T02500178 51004=
200909081352 METAR KATL 081352Z VRB04KT 10SM FEW200 23/18 A3007 RMK AO2 SLP175 T02330178=
200909081252 METAR KATL 081252Z 05004KT 8SM SCT050 SCT180 23/17 A3008 RMK AO2 SLP176 T02280172=
200909081152 METAR KATL 081152Z 09003KT 9SM FEW200 21/17 A3006 RMK AO2 SLP171 T02060172 10217 20194 53012=
200909081052 METAR KATL 081052Z 00000KT 9SM FEW200 19/17 A3005 RMK AO2 SLP165 T01940167=
200909081024 SPECI KATL 081024Z 00000KT 10SM CLR 20/17 A3004 RMK AO2=
200909081024 SPECI KATL 081024Z 00000KT 10SM CLR 20/17 A3004 RMK AO2=
200909080752 METAR KATL 080752Z 32004KT 10SM FEW180 21/17 A3003 RMK AO2 SLP161 T02060167=
200909080652 METAR KATL 080652Z 00000KT 10SM FEW200 21/17 A3004 RMK AO2 SLP162 T02060167=
200909080552 METAR KATL 080552Z 29004KT 10SM FEW200 21/17 A3003 RMK AO2 SLP161 T02110172 10261 20206 50000=
200909080452 METAR KATL 080452Z 30004KT 10SM FEW200 21/17 A3004 RMK AO2 SLP163 T02110172 402890200=
200909080352 METAR KATL 080352Z 31005KT 10SM FEW200 22/17 A3005 RMK AO2 SLP166 T02170167=
200909080252 METAR KATL 080252Z 24003KT 10SM FEW200 23/17 A3003 RMK AO2 SLP162 T02280167 53002=
200909080152 METAR KATL 080152Z 00000KT 10SM FEW200 23/17 A3003 RMK AO2 SLP160 T02330167=
200909080052 METAR KATL 080052Z 23003KT 10SM FEW200 24/17 A3003 RMK AO2 SLP160 T02390167=
200909072352 METAR KATL 072352Z 00000KT 10SM FEW200 26/16 A3003 RMK AO2 SLP158 T02610156 10289 20256 56006=
200909072252 METAR KATL 072252Z 21005KT 10SM CLR 27/16 A3002 RMK AO2 SLP158 T02720156=
200909072152 METAR KATL 072152Z 17004KT 10SM FEW055 28/16 A3003 RMK AO2 SLP160 T02780156=
200909072052 METAR KATL 072052Z 00000KT 10SM FEW055 SCT150 28/15 A3004 RMK AO2 SLP163 T02830150 56021=
200909071952 METAR KATL 071952Z 31004KT 10SM FEW050 SCT150 28/15 A3006 RMK AO2 SLP169 T02780150=
200909071852 METAR KATL 071852Z 18005KT 10SM FEW150 27/16 A3009 RMK AO2 SLP179 T02720156=
200909071752 METAR KATL 071752Z VRB06KT 10SM FEW150 26/16 A3011 RMK AO2 SLP185 T02610156 10267 20200 58015=
200909071652 METAR KATL 071652Z 14006KT 10SM BKN150 26/16 A3012 RMK AO2 SLP191 T02560156=
200909071552 METAR KATL 071552Z 13004KT 10SM BKN150 BKN250 24/16 A3015 RMK AO2 SLP199 T02440156=
200909071452 METAR KATL 071452Z 08006KT 10SM BKN150 BKN250 23/16 A3015 RMK AO2 SLP201 T02280156 51012=
200909071352 METAR KATL 071352Z 07008KT 10SM BKN150 BKN250 22/16 A3015 RMK AO2 SLP199 T02170161=
200909071252 METAR KATL 071252Z 07007KT 10SM FEW120 BKN150 BKN250 21/16 A3013 RMK AO2 SLP194 T02110161=
200909071152 METAR KATL 071152Z 09006KT 10SM BKN150 BKN250 20/16 A3012 RMK AO2 SLP190 T02000161 10239 20200 53004=
200909071052 METAR KATL 071052Z 08006KT 10SM SCT150 BKN250 21/15 A3011 RMK AO2 SLP186 T02060150=
200909070952 METAR KATL 070952Z 11006KT 10SM BKN180 BKN250 22/14 A3011 RMK AO2 SLP184 T02170144=
200909070852 METAR KATL 070852Z 08007KT 10SM SCT180 OVC250 21/16 A3011 RMK AO2 SLP185 T02110161 56010=
200909070752 METAR KATL 070752Z 11006KT 10SM SCT120 OVC250 23/16 A3011 RMK AO2 SLP185 T02280156=
200909070652 METAR KATL 070652Z 11004KT 10SM FEW120 BKN150 OVC250 23/17 A3012 RMK AO2 SLP190 T02330167=
200909070552 METAR KATL 070552Z 08003KT 10SM BKN110 24/17 A3014 RMK AO2 SLP194 T02390172 10267 20228 50001=
200909070452 METAR KATL 070452Z 00000KT 10SM FEW100 SCT150 BKN220 24/17 A3014 RMK AO2 SLP196 T02390172 402940211=
200909070352 METAR KATL 070352Z 11003KT 10SM BKN150 BKN220 24/17 A3013 RMK AO2 SLP194 T02440172=
200909070252 METAR KATL 070252Z 12003KT 10SM BKN150 26/17 A3013 RMK AO2 SLP194 T02560172 50006=
200909070152 METAR KATL 070152Z 10004KT 10SM BKN150 26/17 A3014 RMK AO2 SLP196 T02610172=
200909070052 METAR KATL 070052Z 12005KT 10SM FEW100 OVC150 27/17 A3012 RMK AO2 SLP189 T02670167=
200909062352 METAR KATL 062352Z COR 11005KT 10SM FEW100 BKN150 BKN200 27/17 A3012 RMK AO2 SLP189 T02670167 10294 20267 58001=
200909062252 METAR KATL 062252Z 12006KT 10SM FEW110 BKN150 BKN200 28/17 A3012 RMK AO2 SLP190 T02780167=
200909062152 METAR KATL 062152Z 14007KT 10SM FEW050 BKN150 BKN250 28/16 A3012 RMK AO2 SLP190 T02830161=
200909062052 METAR KATL 062052Z 14008KT 10SM SCT050 BKN150 BKN200 29/17 A3012 RMK AO2 SLP188 T02940167 58020=
200909061952 METAR KATL 061952Z 00000KT 10SM SCT055 BKN150 BKN200 29/16 A3014 RMK AO2 SLP197 T02890161=
200909061852 METAR KATL 061852Z VRB04KT 10SM SCT045 BKN150 BKN250 28/16 A3016 RMK AO2 SLP204 T02830156=
200909061752 METAR KATL 061752Z 09008KT 10SM SCT046 BKN150 BKN200 28/18 A3018 RMK AO2 SLP209 T02830178 10289 20211 58007=
200909061652 METAR KATL 061652Z 00000KT 10SM SCT040 BKN150 BKN200 27/17 A3019 RMK AO2 SLP214 T02720172=
200909061552 METAR KATL 061552Z VRB04KT 10SM FEW035 BKN150 27/18 A3020 RMK AO2 SLP217 T02670178=
200909061452 METAR KATL 061452Z 20005KT 10SM BKN150 BKN250 25/17 A3020 RMK AO2 SLP217 T02500172 51007=
200909061352 METAR KATL 061352Z 19004KT 10SM BKN150 BKN250 24/17 A3019 RMK AO2 SLP214 T02440167=
200909061252 METAR KATL 061252Z 16004KT 10SM SCT120 BKN250 22/19 A3019 RMK AO2 SLP215 T02220189=
200909061152 METAR KATL 061152Z 00000KT 10SM SCT110 BKN250 22/18 A3018 RMK AO2 SLP211 T02170183 10222 20211 52016=
200909061052 METAR KATL 061052Z 12003KT 10SM SCT120 BKN250 21/18 A3016 RMK AO2 SLP204 T02110183=
200909060952 METAR KATL 060952Z 10003KT 10SM BKN120 BKN250 21/18 A3015 RMK AO2 SLP201 T02110183=
200909060852 METAR KATL 060852Z 10004KT 10SM BKN120 BKN250 21/18 A3013 RMK AO2 SLP194 T02110183 53001=
200909060752 METAR KATL 060752Z 07004KT 10SM BKN150 BKN250 21/18 A3012 RMK AO2 SLP191 T02110183=
200909060652 METAR KATL 060652Z 09004KT 10SM BKN140 BKN250 22/18 A3012 RMK AO2 SLP190 T02170183=
200909060552 METAR KATL 060552Z 07006KT 10SM BKN140 BKN250 22/19 A3013 RMK AO2 SLP193 T02220189 10261 20222 58010=
200909060452 METAR KATL 060452Z 08003KT 10SM SCT120 BKN150 BKN250 23/18 A3014 RMK AO2 SLP197 T02330183 402830200=
200909060352 METAR KATL 060352Z 06004KT 10SM FEW110 SCT150 BKN250 24/18 A3015 RMK AO2 SLP201 T02440183=
200909060252 METAR KATL 060252Z 06004KT 10SM FEW050 BKN110 BKN150 25/18 A3016 RMK AO2 SLP204 T02500183 51011=
200909060152 METAR KATL 060152Z 08003KT 10SM FEW050 OVC110 26/18 A3016 RMK AO2 SLP203 T02560178=
200909060052 METAR KATL 060052Z 09004KT 10SM FEW050 OVC120 26/18 A3014 RMK AO2 SLP198 T02560178=
200909052352 METAR KATL 052352Z 10003KT 10SM BKN120 BKN150 BKN250 26/17 A3013 RMK AO2 SLP192 T02610172 10283 20256 54000=
200909052252 METAR KATL 052252Z 11006KT 10SM FEW120 BKN150 BKN250 27/17 A3012 RMK AO2 SLP191 T02670172=
200909052152 METAR KATL 052152Z 07006KT 10SM FEW045 SCT120 BKN150 OVC250 27/17 A3013 RMK AO2 SLP194 T02720167=
200909052052 METAR KATL 052052Z 09007KT 10SM FEW045 BKN150 BKN200 28/17 A3013 RMK AO2 SLP192 T02780167 56017=
200909051952 METAR KATL 051952Z VRB04KT 10SM FEW040 BKN150 BKN200 27/17 A3013 RMK AO2 SLP195 T02720172=
200909051852 METAR KATL 051852Z VRB04KT 10SM BKN150 28/17 A3016 RMK AO2 SLP204 T02780167=
200909051752 METAR KATL 051752Z VRB04KT 10SM BKN150 26/17 A3018 RMK AO2 RAB02E32 SLP210 P0000 60000 T02560172 10256 20206 58005=
200909051652 METAR KATL 051652Z 00000KT 10SM FEW040 SCT065 OVC110 24/18 A3019 RMK AO2 RAB28E45 SLP216 P0000 T02390178=
200909051552 METAR KATL 051552Z 09003KT 10SM OVC110 24/17 A3020 RMK AO2 SLP217 T02390172=
200909051452 METAR KATL 051452Z 09004KT 10SM SCT080 BKN100 23/17 A3019 RMK AO2 SLP215 T02280172 51015=
200909051352 METAR KATL 051352Z 09004KT 10SM BKN080 OVC110 22/17 A3018 RMK AO2 SLP211 T02170172=
200909051252 METAR KATL 051252Z 07006KT 10SM BKN080 BKN120 22/17 A3016 RMK AO2 SLP204 T02170167=
200909051152 METAR KATL 051152Z 08005KT 10SM SCT140 21/17 A3014 RMK AO2 SLP199 T02110167 10228 20200 53015=
200909051052 METAR KATL 051052Z 04006KT 10SM SCT140 21/17 A3013 RMK AO2 SLP193 T02060167=
200909050952 METAR KATL 050952Z 08005KT 10SM FEW140 21/17 A3011 RMK AO2 SLP188 T02060167=
200909050852 METAR KATL 050852Z 08005KT 10SM FEW140 21/17 A3010 RMK AO2 SLP183 T02110172 55001=
200909050752 METAR KATL 050752Z 08003KT 10SM FEW140 22/17 A3009 RMK AO2 SLP179 T02170172=
200909050652 METAR KATL 050652Z 09003KT 10SM SCT140 22/17 A3009 RMK AO2 SLP181 T02220172=
200909050552 METAR KATL 050552Z 00000KT 10SM FEW120 22/17 A3010 RMK AO2 SLP183 T02220172 10267 20222 53003=
200909050452 METAR KATL 050452Z 00000KT 10SM FEW110 23/17 A3010 RMK AO2 SLP183 T02280172 402830189=
200909050352 METAR KATL 050352Z 11003KT 10SM SCT110 23/17 A3009 RMK AO2 SLP181 T02330172=
200909050252 METAR KATL 050252Z 11003KT 10SM SCT120 23/18 A3009 RMK AO2 SLP181 T02280178 51012=
200909050152 METAR KATL 050152Z 11004KT 10SM FEW150 SCT250 24/17 A3008 RMK AO2 SLP178 T02440172=
200909050052 METAR KATL 050052Z 12004KT 10SM FEW045 SCT150 SCT250 26/17 A3007 RMK AO2 SLP174 T02610167=
200909042352 METAR KATL 042352Z 10006KT 10SM FEW045 SCT150 SCT250 26/17 A3006 RMK AO2 SLP169 T02610167 10283 20261 55000=
200909042252 METAR KATL 042252Z 07005KT 10SM FEW055 SCT150 SCT250 27/17 A3005 RMK AO2 SLP167 T02720167=
200909042152 METAR KATL 042152Z 17005KT 10SM SCT055 SCT250 28/17 A3005 RMK AO2 SLP166 T02780167=
200909042052 METAR KATL 042052Z 16003KT 10SM FEW050 BKN065 28/16 A3006 RMK AO2 SLP169 T02780161 56008=
200909041952 METAR KATL 041952Z 15005KT 10SM FEW050 BKN060 28/17 A3006 RMK AO2 SLP171 T02780167=
200909041852 METAR KATL 041852Z VRB03KT 10SM BKN050 BKN250 28/17 A3007 RMK AO2 SLP175 T02780167=
200909041752 METAR KATL 041752Z 36003KT 10SM SCT047 SCT250 28/17 A3008 RMK AO2 SLP178 T02780167 10278 20206 58008=
200909041652 METAR KATL 041652Z 14003KT 10SM FEW040 SCT250 26/16 A3010 RMK AO2 SLP184 T02610156=
200909041552 METAR KATL 041552Z VRB05KT 10SM FEW250 26/16 A3011 RMK AO2 SLP185 T02560156=
200909041452 METAR KATL 041452Z 11005KT 10SM FEW250 25/16 A3011 RMK AO2 SLP186 T02500161 51007=
200909041352 METAR KATL 041352Z 09007KT 10SM FEW065 SCT250 23/17 A3011 RMK AO2 SLP187 T02280167=
200909041252 METAR KATL 041252Z 08008KT 10SM FEW020 SCT060 SCT150 21/16 A3010 RMK AO2 SLP184 T02110156=
200909041152 METAR KATL 041152Z 08006KT 10SM BKN065 21/16 A3009 RMK AO2 SLP180 70001 T02060156 10211 20189 53015=
200909041052 METAR KATL 041052Z 06006KT 10SM BKN060 BKN150 21/17 A3006 RMK AO2 SLP173 T02060167=
200909040952 METAR KATL 040952Z 04004KT 10SM BKN070 BKN090 21/17 A3005 RMK AO2 SLP167 T02060167=
200909040852 METAR KATL 040852Z 00000KT 10SM BKN080 20/17 A3004 RMK AO2 SLP165 T02000172 55001=
200909040752 METAR KATL 040752Z 33004KT 10SM BKN080 19/17 A3004 RMK AO2 SLP163 T01890167=
200909040652 METAR KATL 040652Z 00000KT 10SM FEW130 20/17 A3004 RMK AO2 SLP165 T02000167=
200909040552 METAR KATL 040552Z 05005KT 10SM FEW020 SCT100 21/17 A3004 RMK AO2 SLP166 T02110167 10244 20206 56004=
200909040452 METAR KATL 040452Z 01004KT 10SM FEW090 21/17 A3005 RMK AO2 SLP169 T02110167 402610178=
200909040352 METAR KATL 040352Z VRB03KT 10SM SCT090 21/16 A3005 RMK AO2 SLP169 T02110161=
200909040252 METAR KATL 040252Z 34006KT 10SM BKN090 BKN110 22/16 A3006 RMK AO2 SLP171 T02220161 53013=
200909040152 METAR KATL 040152Z 34008KT 10SM BKN095 BKN110 23/16 A3005 RMK AO2 SLP169 T02280161=
200909040052 METAR KATL 040052Z 32008KT 10SM FEW045 BKN110 24/16 A3003 RMK AO2 SLP160 T02390161=
200909032352 METAR KATL 032352Z 25003KT 10SM FEW045 BKN100 BKN250 24/17 A3002 RMK AO2 SLP158 T02440167 10261 20239 55003=
200909032252 METAR KATL 032252Z 00000KT 10SM FEW045 SCT250 25/16 A3001 RMK AO2 SLP156 T02500161=
200909032152 METAR KATL 032152Z 11004KT 10SM SCT045 SCT250 26/16 A3002 RMK AO2 SLP156 T02610161=
200909032052 METAR KATL 032052Z VRB03KT 10SM FEW040 SCT100 SCT240 25/16 A3003 RMK AO2 SLP161 T02500161 58020=
200909031952 METAR KATL 031952Z 09004KT 10SM FEW040 SCT100 SCT180 26/16 A3004=
200909031852 METAR KATL 031852Z 06005KT 10SM FEW040 SCT100 SCT150 26/17 A3008 RMK AO2 SLP177 ACC NE-E T02560167=
200909031652 METAR KATL 031652Z 08008KT 10SM FEW025 BKN090 BKN150 22/16 A3011 RMK AO2 SLP191 ACC NE-E & NW T02220156=
200909031552 METAR KATL 031552Z 06007KT 10SM FEW060 BKN090 BKN150 21/16 A3013 RMK AO2 SLP197 ACC E-SE-S & NW T02110156=
200909031452 METAR KATL 031452Z 05010KT 10SM FEW060 BKN090 BKN150 19/15 A3013 RMK AO2 RAB1355E37 SLP198 SHRA NE P0000 60001 T01940150 51006=
200909031352 METAR KATL 031352Z 07008KT 10SM FEW060 BKN100 BKN150 18/14 A3013 RMK AO2 RAB1256E40 SLP198 SHRA N P0001 T01830144=
200909031252 METAR KATL 031252Z 06008KT 10SM BKN090 BKN130 18/14 A3013 RMK AO2 RAB37E47 SLP196 P0000 T01830144=
200909031152 METAR KATL 031152Z 06009KT 10SM BKN110 18/14 A3012 RMK AO2 RAE29 SLP192 P0000 60000 T01780144 10206 20178 53008=
200909031052 METAR KATL 031052Z 06010KT 10SM -RA BKN100 BKN150 18/14 A3010 RMK AO2 SLP185 P0000 T01780144=
200909030952 METAR KATL 030952Z COR 07010KT 10SM -RA BKN080 OVC110 18/14 A3009 RMK AO2 RAE0856B48 SLP183 P0000 T01830139=
200909030852 METAR KATL 030852Z 08010KT 10SM -RA SCT060 OVC120 18/14 A3009 RMK AO2 RAB0754E11B29 SLP183 P0000 60000 T01830139 56004=
200909030752 METAR KATL 030752Z 09011KT 10SM BKN120 OVC180 19/13 A3010 RMK AO2 SLP183 T01940133=
200909030652 METAR KATL 030652Z 08008KT 10SM BKN120 20/13 A3010 RMK AO2 SLP183 T02000133=
200909030552 METAR KATL 030552Z 07011KT 10SM SCT120 21/14 A3010 RMK AO2 SLP186 T02060139 10233 20200 58004=
200909030452 METAR KATL 030452Z 08010KT 10SM BKN130 21/14 A3011 RMK AO2 SLP188 T02060139 402560189=
200909030352 METAR KATL 030352Z 08008KT 10SM BKN130 21/15 A3011 RMK AO2 SLP189 T02110150=
200909030252 METAR KATL 030252Z 09007KT 10SM BKN130 21/14 A3011 RMK AO2 SLP191 T02110144 50009=
200909030152 METAR KATL 030152Z 09007KT 10SM BKN130 22/15 A3012 RMK AO2 SLP191 T02220150=
200909030052 METAR KATL 030052Z 09009KT 10SM BKN130 22/15 A3009=
200909022352 METAR KATL 022352Z 09009KT 10SM BKN130 23/16 A3009 RMK AO2 SLP181 T02330156 10256 20233 58007=
200909022252 METAR KATL 022252Z 09008KT 10SM FEW042 BKN140 24/16 A3009 RMK AO2 SLP183 T02440156=
200909022152 METAR KATL 022152Z COR 07009KT 10SM BKN044 BKN140 24/16 A3011 RMK AO2 SLP186 T02440156=
200909022052 METAR KATL 022052Z 08009KT 10SM FEW040 SCT120 25/16 A3011 RMK AO2 SLP187 T02500156 56011=
200909021952 METAR KATL 021952Z 08009KT 10SM FEW040 BKN120 25/16 A3012 RMK AO2 SLP190 T02500156=
200909021852 METAR KATL 021852Z 07011KT 10SM FEW035 SCT110 25/16 A3013 RMK AO2 SLP195 T02500161=
200909021752 METAR KATL 021752Z 07014G17KT 10SM FEW035 BKN110 23/16 A3014 RMK AO2 SLP199 T02330156 10244 20189 56018=
200909021652 METAR KATL 021652Z 08015KT 10SM FEW029 SCT050 SCT110 24/16 A3015 RMK AO2 SLP203 T02390156=
200909021552 METAR KATL 021552Z 07016KT 10SM FEW025 SCT045 SCT110 22/16 A3018 RMK AO2 SLP212 T02220156=
200909021452 METAR KATL 021452Z 07015KT 10SM FEW020 BKN045 21/16 A3019 RMK AO2 SLP219 T02060156 51004=
200909021352 METAR KATL 021352Z 07012KT 10SM FEW020 BKN043 19/15 A3019 RMK AO2 SLP219 T01940150=
200909021252 METAR KATL 021252Z 07011KT 10SM BKN041 19/14 A3020 RMK AO2 SLP220 T01890144=
200909021152 METAR KATL 021152Z 07012KT 10SM BKN039 19/15 A3018 RMK AO2 SLP215 T01890150 10200 20189 53015=
200909021052 METAR KATL 021052Z 07011KT 10SM BKN043 19/16 A3016 RMK AO2 SLP207 T01940156=
200909020952 METAR KATL 020952Z 08010KT 10SM BKN041 OVC150 19/16 A3015 RMK AO2 SLP203 T01940161=
200909020852 METAR KATL 020852Z 09007KT 10SM OVC045 19/16 A3014 RMK AO2 SLP199 T01940161 56003=
200909020752 METAR KATL 020752Z 07009KT 9SM BKN043 OVC048 20/17 A3014 RMK AO2 SLP199 T02000167=
200909020652 METAR KATL 020652Z 08009KT 8SM BKN047 OVC150 20/17 A3014 RMK AO2 SLP200 T02000167=
200909020552 METAR KATL 020552Z 08009KT 10SM BKN039 OVC043 20/17 A3015 RMK AO2 SLP203 60000 T02000172 10206 20200 50000=
200909020452 METAR KATL 020452Z 09009KT 10SM OVC038 21/17 A3016 RMK AO2 SLP206 T02060172 402170194=
200909020352 METAR KATL 020352Z 10008KT 10SM BKN032 OVC045 21/17 A3015 RMK AO2 SLP204 T02060172=
200909020252 METAR KATL 020252Z 09008KT 10SM BKN045 OVC070 21/18 A3015 RMK AO2 SLP203 60000 T02060178 53007=
200909020152 METAR KATL 020152Z 09010KT 10SM OVC035 21/18 A3014 RMK AO2 SLP201 T02060178=
200909020052 METAR KATL 020052Z 07011KT 10SM SCT028 BKN100 OVC150 21/18 A3013=
200909020033 SPECI KATL 020033Z 07008KT 10SM BKN026 BKN040 OVC080 21/18 A3013 RMK AO2 RAE16 P0000=
200909020033 SPECI KATL 020033Z 07008KT 10SM BKN026 BKN040 OVC080 21/18 A3013 RMK AO2 RAE16 P0000=
200909020004 SPECI KATL 020004Z 07009KT 7SM -RA SCT025 BKN075 OVC150 21/18 A3012 RMK AO2 P0000=
200909020004 SPECI KATL 020004Z 07009KT 7SM -RA SCT025 BKN075 OVC150 21/18 A3012 RMK AO2 P0000=
200909012352 METAR KATL 012352Z 08008KT 6SM -RA BR FEW015 BKN024 OVC030 21/18 A3013 RMK AO2 RAB2253 SLP195 P0000 60000 T02060183 10217 20206 58001=
200909012252 METAR KATL 012252Z 10005KT 7SM OVC024 21/18 A3013 RMK AO2 RAB26E38 SLP197 P0000 T02060178=
200909012152 METAR KATL 012152Z 07010KT 8SM OVC017 21/18 A3013 RMK AO2 SLP197 T02110178=
200909012052 METAR KATL 012052Z 07010KT 8SM OVC019 21/18 A3013 RMK AO2 SLP196 T02110178 56014=
200909012001 SPECI KATL 012001Z 09009KT 8SM OVC016 21/18 A3014 RMK AO2=
200909012001 SPECI KATL 012001Z 09009KT 8SM OVC016 21/18 A3014 RMK AO2=
200909011952 METAR KATL 011952Z 07012KT 8SM OVC014 21/18 A3014 RMK AO2 SLP200 T02110178=
200909011852 METAR KATL 011852Z 08009KT 8SM OVC014 21/18 A3016=
200909011752 METAR KATL 011752Z 07012KT 8SM OVC012 21/18 A3017=
200909011652 METAR KATL 011652Z 08011KT 8SM OVC012 21/18 A3017 RMK AO2 SLP212 T02060183=
200909011552 METAR KATL 011552Z 09009KT 8SM OVC012 21/18 A3018 RMK AO2 SLP213 T02060183=
200909011529 SPECI KATL 011529Z 09012KT 8SM BKN010 OVC014 21/18 A3017 RMK AO2 CIG 008V012=
200909011529 SPECI KATL 011529Z 09012KT 8SM BKN010 OVC014 21/18 A3017 RMK AO2 CIG 008V012=
200909011452 METAR KATL 011452Z 08011KT 7SM OVC008 20/18 A3017 RMK AO2 SLP211 60000 T02000183 51014=
200909011437 SPECI KATL 011437Z 07014KT 6SM BR OVC008 20/18 A3017 RMK AO2=
200909011437 SPECI KATL 011437Z 07014KT 6SM BR OVC008 20/18 A3017 RMK AO2=
200909011352 METAR KATL 011352Z 07012G17KT 8SM OVC014 20/18 A3016 RMK AO2 SLP207 T02000183=
200909011341 SPECI KATL 011341Z 07010KT 6SM BR SCT009 OVC014 20/18 A3016 RMK AO2=
200909011341 SPECI KATL 011341Z 07010KT 6SM BR SCT009 OVC014 20/18 A3016 RMK AO2=
200909011252 METAR KATL 011252Z 06009KT 7SM BKN007 OVC010 20/19 A3015 RMK AO2 RAE03 SLP203 P0000 T02000189=
