##########################################################
# Query made at 04/19/2024 23:13:27 UTC
# Time interval: from 10/01/2009 12:00  to 10/31/2009 12:59  UTC
##########################################################

##########################################################
# KATL, Atlanta, Hartsfield - Jackson Atlanta International Airport (United States)
# WMO index: 72219. WIGOS ID: 0-20000-0-72219
# Latitude 33-38-59N. Longitude 084-25-00W. Altitude 312 m.
##########################################################

200910311254 SPECI KATL 311254Z 31019G22KT 6SM -RA BR FEW002 OVC010 17/17 A2993 RMK AO2 RAB53 PRESRR P0000=
200910311254 SPECI KATL 311254Z 31019G22KT 6SM -RA BR FEW002 OVC010 17/17 A2993 RMK AO2 RAB53 PRESRR P0000=
200910311252 METAR KATL 311252Z 31018G22KT 7SM OVC010 19/18 A2993 RMK AO2 RAB20E36 PRESRR SLP130 SHRA SW-NW P0000 T01890183=
200910311244 SPECI KATL 311244Z 18011KT 7SM BKN010 OVC018 21/19 A2991 RMK AO2 RAB20E36 P0000=
200910311244 SPECI KATL 311244Z 18011KT 7SM BKN010 OVC018 21/19 A2991 RMK AO2 RAB20E36 P0000=
200910311152 METAR KATL 311152Z 17011KT 8SM BKN016 OVC021 21/19 A2990 RMK AO2 RAB31E52 SLP120 P0000 60000 70004 T02060194 10206 20194 58000=
200910311052 METAR KATL 311052Z 17012KT 10SM BKN016 BKN023 OVC035 21/19 A2990 RMK AO2 SLP120 T02060189=
200910310952 METAR KATL 310952Z 17011G19KT 10SM BKN015 BKN022 OVC031 21/19 A2991 RMK AO2 SLP121 T02060189=
200910310859 SPECI KATL 310859Z 17012KT 10SM SCT016 BKN020 OVC031 21/19 A2990 RMK AO2=
200910310859 SPECI KATL 310859Z 17012KT 10SM SCT016 BKN020 OVC031 21/19 A2990 RMK AO2=
200910310852 METAR KATL 310852Z 17015KT 10SM BKN014 OVC022 21/19 A2990 RMK AO2 SLP120 60000 T02060189 58014=
200910310841 SPECI KATL 310841Z 18012KT 9SM BKN012 OVC020 21/19 A2990 RMK AO2=
200910310841 SPECI KATL 310841Z 18012KT 9SM BKN012 OVC020 21/19 A2990 RMK AO2=
200910310752 METAR KATL 310752Z 18014G22KT 7SM BKN009 OVC016 21/19 A2992 RMK AO2 SLP127 T02060194=
200910310652 METAR KATL 310652Z 17011G17KT 6SM BR OVC007 20/19 A2993 RMK AO2 DZE27 SLP129 P0000 T02000194=
200910310647 SPECI KATL 310647Z 16011G17KT 6SM BR OVC007 20/19 A2993 RMK AO2 DZE27 P0000=
200910310647 SPECI KATL 310647Z 16011G17KT 6SM BR OVC007 20/19 A2993 RMK AO2 DZE27 P0000=
200910310627 SPECI KATL 310627Z 16011G18KT 2SM BR OVC005 20/19 A2993 RMK AO2 SFC VIS 5 DZE27 P0000=
200910310627 SPECI KATL 310627Z 16011G18KT 2SM BR OVC005 20/19 A2993 RMK AO2 SFC VIS 5 DZE27 P0000=
200910310558 SPECI KATL 310558Z 16011KT 2SM -DZ BR OVC004 19/19 A2994 RMK AO2 SFC VIS 4 P0000=
200910310558 SPECI KATL 310558Z 16011KT 2SM -DZ BR OVC004 19/19 A2994 RMK AO2 SFC VIS 4 P0000=
200910310552 METAR KATL 310552Z 16011KT 1/4SM -DZ BR OVC002 19/19 A2995 RMK AO2 SFC VIS 3 SLP136 P0000 60000 T01940194 10194 20167 58015=
200910310452 METAR KATL 310452Z 16011G19KT 1/4SM -DZ BR OVC002 19/19 A2997 RMK AO2 SFC VIS 2 SLP144 P0000 T01890189 401890150=
200910310352 METAR KATL 310352Z 14011G18KT 1/4SM R09R/4000V6000FT -DZ BR OVC002 18/18 A2998 RMK AO2 SFC VIS 1 SLP148 P0000 T01830183=
200910310252 METAR KATL 310252Z 13008G14KT 1/4SM R09R/5500VP6000FT -DZ BR OVC002 18/18 A2999 RMK AO2 SFC VIS 1 1/4 SLP153 P0000 60000 T01780178 58003=
200910310152 METAR KATL 310152Z 13010KT 1/4SM R09R/5500VP6000FT -DZ BR OVC002 17/17 A3000 RMK AO2 SFC VIS 1 SLP154 P0000 T01720172=
200910310052 METAR KATL 310052Z 13009KT 1/4SM R09R/5500VP6000FT -DZ BR OVC002 17/17 A3000 RMK AO2 SFC VIS 1 SLP156 P0000 T01720172=
200910302352 METAR KATL 302352Z 11009KT 1/4SM -DZ BR OVC002 17/17 A3000 RMK AO2 SFC VIS 1 1/4 SLP156 P0000 60001 T01670167 10167 20161 56007=
200910302252 METAR KATL 302252Z 12009KT 1/4SM R09R/P6000FT -DZ BR OVC002 17/17 A3000 RMK AO2 SFC VIS 1 SLP157 P0001 T01670167=
200910302152 METAR KATL 302152Z 11009KT 1/4SM R09R/5000VP6000FT -DZ BR OVC002 17/17 A3001 RMK AO2 SFC VIS 1 SLP160 P0000 T01670167=
200910302052 METAR KATL 302052Z 12010KT 1/4SM R09R/6000VP6000FT -DZ BR OVC002 17/17 A3002 RMK AO2 SFC VIS 1 1/4 SLP164 P0000 60000 T01670167 56017=
200910302034 SPECI KATL 302034Z 11009KT 1/4SM -DZ BR OVC003 17/17 A3003 RMK AO2 SFC VIS 1 1/2 P0000=
200910302034 SPECI KATL 302034Z 11009KT 1/4SM -DZ BR OVC003 17/17 A3003 RMK AO2 SFC VIS 1 1/2 P0000=
200910301952 METAR KATL 301952Z 13008G17KT 1 1/2SM -DZ BR OVC004 17/16 A3003 RMK AO2 SFC VIS 3 SLP167 P0000 T01670161=
200910301852 METAR KATL 301852Z 11008KT 1 1/2SM -DZ BR BKN004 BKN007 OVC010 16/16 A3004 RMK AO2 SFC VIS 4 SLP170 P0000 T01610161=
200910301752 METAR KATL 301752Z 12007KT 1 1/2SM -DZ BR BKN004 OVC008 16/16 A3007 RMK AO2 SFC VIS 3 SLP181 P0000 60003 T01610156 10161 20150 58017=
200910301733 SPECI KATL 301733Z 12007KT 1 1/2SM -DZ BR BKN004 OVC008 16/16 A3008 RMK AO2 SFC VIS 2 1/2 P0000=
200910301733 SPECI KATL 301733Z 12007KT 1 1/2SM -DZ BR BKN004 OVC008 16/16 A3008 RMK AO2 SFC VIS 2 1/2 P0000=
200910301652 METAR KATL 301652Z 11008KT 1 1/2SM -DZ BR FEW004 BKN006 OVC010 16/15 A3010 RMK AO2 SFC VIS 2 RAE01DZB46 SLP189 P0000 T01560150=
200910301558 SPECI KATL 301558Z 11011KT 1 1/2SM -RA BR FEW004 BKN006 OVC010 16/15 A3012 RMK AO2 SFC VIS 5 P0000=
200910301558 SPECI KATL 301558Z 11011KT 1 1/2SM -RA BR FEW004 BKN006 OVC010 16/15 A3012 RMK AO2 SFC VIS 5 P0000=
200910301552 METAR KATL 301552Z 11008KT 1 1/2SM R09R/6000VP6000FT -RA BR BKN004 OVC008 16/15 A3012 RMK AO2 SFC VIS 2 SLP195 P0002 T01560150=
200910301452 METAR KATL 301452Z 10011KT 1 1/2SM -RA BR OVC004 15/14 A3013 RMK AO2 SFC VIS 3 RAB35 SLP199 P0001 60001 T01500144 50005=
200910301431 SPECI KATL 301431Z 10014KT 2SM BR OVC006 15/14 A3012 RMK AO2 SFC VIS 4=
200910301431 SPECI KATL 301431Z 10014KT 2SM BR OVC006 15/14 A3012 RMK AO2 SFC VIS 4=
200910301352 METAR KATL 301352Z 10011G18KT 5SM BR OVC008 16/14 A3013 RMK AO2 SLP198 T01560139=
200910301252 METAR KATL 301252Z 10011G16KT 6SM BR BKN008 OVC011 16/14 A3012 RMK AO2 SLP195 T01560139=
200910301245 SPECI KATL 301245Z 10008KT 6SM BR BKN008 OVC011 16/14 A3012 RMK AO2=
200910301245 SPECI KATL 301245Z 10008KT 6SM BR BKN008 OVC011 16/14 A3012 RMK AO2=
200910301210 SPECI KATL 301210Z 11011KT 6SM BR BKN010 BKN020 BKN032 16/14 A3012 RMK AO2=
200910301210 SPECI KATL 301210Z 11011KT 6SM BR BKN010 BKN020 BKN032 16/14 A3012 RMK AO2=
200910301152 METAR KATL 301152Z 10013G16KT 6SM BR SCT010 BKN020 BKN070 16/14 A3011 RMK AO2 SLP192 T01560139 10167 20156 53004=
200910301142 SPECI KATL 301142Z 11011KT 7SM SCT010 BKN020 OVC070 16/14 A3011 RMK AO2=
200910301142 SPECI KATL 301142Z 11011KT 7SM SCT010 BKN020 OVC070 16/14 A3011 RMK AO2=
200910301052 METAR KATL 301052Z 10011KT 7SM SCT033 BKN039 BKN065 16/14 A3010 RMK AO2 SLP188 T01610139=
200910300952 METAR KATL 300952Z 11010KT 10SM FEW016 SCT021 OVC060 16/14 A3010 RMK AO2 SLP188 T01610139=
200910300935 SPECI KATL 300935Z 10011KT 10SM FEW016 SCT021 OVC060 16/14 A3011 RMK AO2=
200910300935 SPECI KATL 300935Z 10011KT 10SM FEW016 SCT021 OVC060 16/14 A3011 RMK AO2=
200910300852 METAR KATL 300852Z 11008G18KT 10SM FEW012 BKN019 16/14 A3010 RMK AO2 SLP186 T01610139 58006=
200910300826 SPECI KATL 300826Z 11009KT 10SM BKN019 16/14 A3010 RMK AO2=
200910300826 SPECI KATL 300826Z 11009KT 10SM BKN019 16/14 A3010 RMK AO2=
200910300752 METAR KATL 300752Z 11010KT 10SM FEW018 16/14 A3011 RMK AO2 SLP189 T01560139=
200910300715 SPECI KATL 300715Z 10009KT 10SM BKN013 16/14 A3011 RMK AO2=
200910300715 SPECI KATL 300715Z 10009KT 10SM BKN013 16/14 A3011 RMK AO2=
200910300652 METAR KATL 300652Z 10008KT 10SM FEW250 16/14 A3012 RMK AO2 SLP192 T01610139=
200910300552 METAR KATL 300552Z 10009KT 10SM SCT250 17/14 A3012 RMK AO2 SLP192 T01670139 10206 20167 55001=
200910300452 METAR KATL 300452Z 09010KT 10SM BKN250 17/14 A3011 RMK AO2 SLP190 T01670139 402390128=
200910300352 METAR KATL 300352Z 10009KT 10SM SCT250 18/14 A3011 RMK AO2 SLP190 T01780144=
200910300252 METAR KATL 300252Z 09009KT 10SM BKN250 18/14 A3012 RMK AO2 SLP195 T01780144 50004=
200910300152 METAR KATL 300152Z 10008KT 10SM FEW250 18/14 A3012 RMK AO2 SLP195 T01830144=
200910300052 METAR KATL 300052Z 10008KT 10SM BKN150 BKN250 21/15 A3012 RMK AO2 SLP194 T02060150=
200910292352 METAR KATL 292352Z 09008KT 10SM FEW150 SCT250 19/14 A3011 RMK AO2 SLP191 T01940144 10239 20194 53004=
200910292252 METAR KATL 292252Z 10008KT 10SM FEW150 SCT250 21/13 A3009 RMK AO2 SLP185 T02060133=
200910292152 METAR KATL 292152Z 09011KT 10SM FEW150 BKN250 22/12 A3009 RMK AO2 SLP184 T02220122=
200910292052 METAR KATL 292052Z 11008KT 10SM FEW150 SCT180 BKN250 23/12 A3009 RMK AO2 SLP185 ACC DSNT S T02330122 56010=
200910291952 METAR KATL 291952Z 08010KT 10SM FEW150 SCT180 BKN250 23/12 A3009 RMK AO2 SLP185 T02330117=
200910291852 METAR KATL 291852Z 10010KT 10SM BKN150 BKN180 BKN250 23/13 A3011 RMK AO2 SLP188 T02330128=
200910291752 METAR KATL 291752Z 11007KT 10SM FEW120 SCT150 BKN180 BKN250 23/13 A3012 RMK AO2 SLP196 T02280128 10228 20144 58016=
200910291652 METAR KATL 291652Z 11005KT 10SM FEW120 SCT150 SCT250 22/13 A3016 RMK AO2 SLP207 T02220128=
200910291552 METAR KATL 291552Z 11006KT 10SM FEW120 BKN150 BKN250 21/13 A3016 RMK AO2 SLP209 T02060128=
200910291452 METAR KATL 291452Z 15005KT 10SM FEW120 BKN150 BKN180 BKN250 18/13 A3017 RMK AO2 SLP214 VIRGA N-NE-E T01780133 51016=
200910291352 METAR KATL 291352Z 07006KT 10SM BKN150 BKN180 BKN250 17/13 A3017 RMK AO2 SLP212 T01670128=
200910291252 METAR KATL 291252Z 10005KT 10SM BKN150 BKN250 16/13 A3014 RMK AO2 SLP205 T01560128=
200910291152 METAR KATL 291152Z 06005KT 10SM BKN150 BKN250 14/12 A3013 RMK AO2 SLP199 T01440122 10156 20128 51020=
200910291052 METAR KATL 291052Z 10003KT 10SM BKN150 BKN250 13/12 A3011 RMK AO2 SLP193 T01330122=
200910290952 METAR KATL 290952Z 00000KT 10SM FEW180 13/12 A3009 RMK AO2 SLP184 T01280117=
200910290852 METAR KATL 290852Z 00000KT 10SM FEW150 SCT250 14/12 A3007 RMK AO2 SLP177 T01390117 58000=
200910290752 METAR KATL 290752Z 32003KT 10SM BKN150 OVC250 14/13 A3007 RMK AO2 SLP179 T01390128=
200910290652 METAR KATL 290652Z 00000KT 10SM SCT150 OVC200 16/12 A3007 RMK AO2 SLP178 T01560122=
200910290552 METAR KATL 290552Z 00000KT 10SM SCT150 BKN200 14/12 A3007 RMK AO2 SLP177 T01440122 10172 20144 58001=
200910290452 METAR KATL 290452Z 31006KT 10SM FEW150 OVC200 15/12 A3007 RMK AO2 SLP181 T01500122 402170117=
200910290352 METAR KATL 290352Z 00000KT 10SM SCT150 BKN200 OVC250 16/12 A3007 RMK AO2 SLP180 T01560122=
200910290252 METAR KATL 290252Z 00000KT 10SM BKN200 BKN250 15/13 A3007 RMK AO2 SLP180 T01500128 51013=
200910290152 METAR KATL 290152Z 00000KT 10SM BKN200 OVC250 17/13 A3006 RMK AO2 SLP176 T01670128=
200910290052 METAR KATL 290052Z 32004KT 10SM BKN200 17/13 A3005 RMK AO2 SLP173 T01670133=
200910282352 METAR KATL 282352Z 00000KT 10SM FEW150 BKN200 17/13 A3003 RMK AO2 SLP167 T01670128 10217 20161 51015=
200910282252 METAR KATL 282252Z 00000KT 10SM FEW150 SCT200 18/12 A3002 RMK AO2 SLP165 T01830122=
200910282152 METAR KATL 282152Z 00000KT 10SM CLR 21/12 A3000 RMK AO2 SLP155 T02110117=
200910282052 METAR KATL 282052Z 35004KT 10SM FEW150 SCT200 BKN250 22/12 A2998 RMK AO2 SLP149 T02170122 55003=
200910281952 METAR KATL 281952Z 27004KT 10SM SCT200 SCT250 21/12 A2998 RMK AO2 SLP148 T02060117=
200910281852 METAR KATL 281852Z VRB03KT 10SM FEW200 BKN250 20/12 A2998 RMK AO2 SLP148 T02000122=
200910281752 METAR KATL 281752Z 29003KT 10SM FEW200 SCT250 19/13 A3000 RMK AO2 SLP153 T01940128 10194 20117 58003=
200910281652 METAR KATL 281652Z 28005KT 10SM FEW025 SCT200 SCT250 18/13 A3002 RMK AO2 SLP160 T01830128=
200910281552 METAR KATL 281552Z 29004KT 10SM FEW015 SCT200 SCT250 17/12 A3002 RMK AO2 SLP162 T01670122=
200910281452 METAR KATL 281452Z 32004KT 10SM FEW015 SCT200 SCT250 16/12 A3000 RMK AO2 SLP158 T01560122 52015=
200910281352 METAR KATL 281352Z 32004KT 10SM FEW010 SCT200 14/13 A2999 RMK AO2 SLP151 T01440128=
200910281252 METAR KATL 281252Z 00000KT 9SM FEW018 SCT180 SCT250 13/13 A2998 RMK AO2 SLP150 T01280128=
200910281226 SPECI KATL 281226Z 31004KT 7SM FEW018 SCT250 12/12 A2997 RMK AO2=
200910281226 SPECI KATL 281226Z 31004KT 7SM FEW018 SCT250 12/12 A2997 RMK AO2=
200910281152 METAR KATL 281152Z 30003KT 7SM BKN018 13/13 A2996 RMK AO2 SLP143 60000 70202 T01280128 10161 20117 51021=
200910281134 SPECI KATL 281134Z 30004KT 7SM FEW001 BKN018 13/13 A2996 RMK AO2=
200910281134 SPECI KATL 281134Z 30004KT 7SM FEW001 BKN018 13/13 A2996 RMK AO2=
200910281112 SPECI KATL 281112Z 30004KT 6SM R09R/3500VP6000FT BR SCT001 SCT005 BKN009 12/12 A2994 RMK AO2=
200910281112 SPECI KATL 281112Z 30004KT 6SM R09R/3500VP6000FT BR SCT001 SCT005 BKN009 12/12 A2994 RMK AO2=
200910281052 METAR KATL 281052Z 31006KT 4SM R09R/1800V2600FT BR FEW001 SCT009 12/12 A2994 RMK AO2 SLP136 T01220122=
200910281050 SPECI KATL 281050Z 31005KT 4SM R09R/1800V2600FT BR FEW001 SCT009 12/12 A2993 RMK AO2=
200910281050 SPECI KATL 281050Z 31005KT 4SM R09R/1800V2600FT BR FEW001 SCT009 12/12 A2993 RMK AO2=
200910281048 SPECI KATL 281048Z 31006KT 1/2SM R09R/1800V3500FT FG SCT001 BKN009 12/12 A2993 RMK AO2=
200910281048 SPECI KATL 281048Z 31006KT 1/2SM R09R/1800V3500FT FG SCT001 BKN009 12/12 A2993 RMK AO2=
200910281043 SPECI KATL 281043Z 31006KT 1 3/4SM R09R/2200V6000FT BR CLR 12/12 A2993 RMK AO2=
200910281043 SPECI KATL 281043Z 31006KT 1 3/4SM R09R/2200V6000FT BR CLR 12/12 A2993 RMK AO2=
200910281037 SPECI KATL 281037Z 31005KT 1 3/4SM R09R/3500VP6000FT BR CLR 12/12 A2993 RMK AO2=
200910281037 SPECI KATL 281037Z 31005KT 1 3/4SM R09R/3500VP6000FT BR CLR 12/12 A2993 RMK AO2=
200910280952 METAR KATL 280952Z 27004KT 5SM BR FEW002 SCT015 14/14 A2992 RMK AO2 SLP129 T01390139=
200910280852 METAR KATL 280852Z 27004KT 3SM R09R/3000VP6000FT BR FEW002 SCT015 BKN150 14/14 A2989 RMK AO2 SLP121 60000 T01390139 51010=
200910280752 METAR KATL 280752Z 26003KT 7SM FEW002 BKN140 15/15 A2988 RMK AO2 SLP117 T01500150=
200910280727 SPECI KATL 280727Z 26004KT 7SM FEW002 BKN140 15/15 A2988 RMK AO2=
200910280727 SPECI KATL 280727Z 26004KT 7SM FEW002 BKN140 15/15 A2988 RMK AO2=
200910280652 METAR KATL 280652Z 26004KT 1/2SM BR BKN002 OVC004 16/16 A2988 RMK AO2 SFC VIS 4 DZE49 SLP116 P0000 T01560156=
200910280552 METAR KATL 280552Z 30004KT 1/2SM -DZ BR OVC002 16/16 A2986 RMK AO2 SFC VIS 3 CIG 001V004 SLP110 P0000 60017 T01610161 10161 20133 53013=
200910280452 METAR KATL 280452Z 27004KT 1/2SM -DZ BR OVC002 16/16 A2984 RMK AO2 SFC VIS 1 3/4 SLP104 P0000 T01560156 401560117=
200910280352 METAR KATL 280352Z 00000KT 3/4SM -DZ BR OVC004 14/14 A2983 RMK AO2 SFC VIS 4 RAB10E43DZB43 SLP101 CIG 002V007 P0000 T01440144=
200910280336 SPECI KATL 280336Z 00000KT 1SM -RA BR OVC004 14/14 A2984 RMK AO2 SFC VIS 2 1/2 RAB10 P0000=
200910280336 SPECI KATL 280336Z 00000KT 1SM -RA BR OVC004 14/14 A2984 RMK AO2 SFC VIS 2 1/2 RAB10 P0000=
200910280317 SPECI KATL 280317Z 00000KT 2 1/2SM -RA BR FEW001 OVC005 14/14 A2984 RMK AO2 RAB10 P0000=
200910280317 SPECI KATL 280317Z 00000KT 2 1/2SM -RA BR FEW001 OVC005 14/14 A2984 RMK AO2 RAB10 P0000=
200910280252 METAR KATL 280252Z 09003KT 8SM FEW002 OVC007 14/14 A2982 RMK AO2 RAE12DZB13E50 SLP097 P0001 60017 T01440144 53004=
200910280229 SPECI KATL 280229Z 10003KT 8SM -DZ FEW002 BKN008 OVC015 14/14 A2982 RMK AO2 RAE12DZB13 P0001=
200910280229 SPECI KATL 280229Z 10003KT 8SM -DZ FEW002 BKN008 OVC015 14/14 A2982 RMK AO2 RAE12DZB13 P0001=
200910280214 SPECI KATL 280214Z 12004KT 8SM -DZ FEW002 BKN010 OVC020 14/14 A2982 RMK AO2 RAE12DZB13 P0001=
200910280214 SPECI KATL 280214Z 12004KT 8SM -DZ FEW002 BKN010 OVC020 14/14 A2982 RMK AO2 RAE12DZB13 P0001=
200910280152 METAR KATL 280152Z 11003KT 2 1/2SM -RA BR SCT003 BKN008 OVC020 14/14 A2982 RMK AO2 SFC VIS 5 SLP096 P0014 T01390139=
200910280150 SPECI KATL 280150Z 10004KT 2 1/2SM -RA BR SCT003 BKN008 OVC020 14/14 A2981 RMK AO2 SFC VIS 5 P0014=
200910280150 SPECI KATL 280150Z 10004KT 2 1/2SM -RA BR SCT003 BKN008 OVC020 14/14 A2981 RMK AO2 SFC VIS 5 P0014=
200910280123 SPECI KATL 280123Z 00000KT 1/2SM -RA BR OVC003 14/14 A2981 RMK AO2 SFC VIS 4 CIG 002V006 P0013=
200910280123 SPECI KATL 280123Z 00000KT 1/2SM -RA BR OVC003 14/14 A2981 RMK AO2 SFC VIS 4 CIG 002V006 P0013=
200910280052 METAR KATL 280052Z 10004KT 1/4SM R09R/4500V6000FT -RA BR OVC002 14/14 A2981 RMK AO2 SFC VIS 1 SLP094 P0002 T01390139=
200910272352 METAR KATL 272352Z 12005KT 1/4SM -RA BR OVC002 13/13 A2982 RMK AO2 SFC VIS 2 SLP097 P0002 60102 T01330133 10133 20122 55008=
200910272252 METAR KATL 272252Z 10007KT 1/4SM -RA BR OVC002 13/13 A2981 RMK AO2 SFC VIS 2 RAE07B52DZB07E52 SLP092 P0001 T01280128=
200910272245 SPECI KATL 272245Z 11007KT 1/4SM -DZ BR OVC002 13/13 A2981 RMK AO2 SFC VIS 2 RAE07DZB07 CIG 001V005 P0001=
200910272245 SPECI KATL 272245Z 11007KT 1/4SM -DZ BR OVC002 13/13 A2981 RMK AO2 SFC VIS 2 RAE07DZB07 CIG 001V005 P0001=
200910272215 SPECI KATL 272215Z 10008KT 1/2SM -DZ BR OVC004 13/13 A2981 RMK AO2 SFC VIS 2 1/2 RAE07DZB07 CIG 002V006 P0001=
200910272215 SPECI KATL 272215Z 10008KT 1/2SM -DZ BR OVC004 13/13 A2981 RMK AO2 SFC VIS 2 1/2 RAE07DZB07 CIG 002V006 P0001=
200910272203 SPECI KATL 272203Z VRB05KT 1SM -RA BR OVC004 13/13 A2981 RMK AO2 SFC VIS 4 CIG 003V007 P0000=
200910272203 SPECI KATL 272203Z VRB05KT 1SM -RA BR OVC004 13/13 A2981 RMK AO2 SFC VIS 4 CIG 003V007 P0000=
200910272152 METAR KATL 272152Z 10008KT 2SM -RA BR OVC005 13/13 A2981 RMK AO2 SFC VIS 4 RAE14B32 SLP093 CIG 003V009 P0000 T01280128=
200910272150 SPECI KATL 272150Z 09009KT 2SM -RA BR OVC005 13/13 A2981 RMK AO2 SFC VIS 4 RAE14B32 CIG 003V009 P0000=
200910272150 SPECI KATL 272150Z 09009KT 2SM -RA BR OVC005 13/13 A2981 RMK AO2 SFC VIS 4 RAE14B32 CIG 003V009 P0000=
200910272052 METAR KATL 272052Z 06011KT 3SM -RA BR BKN006 BKN008 OVC025 13/12 A2985 RMK AO2 SFC VIS 4 SLP106 P0012 60099 T01280122 56017=
200910271952 METAR KATL 271952Z 07006KT 3SM -RA BR BKN006 BKN012 OVC025 13/12 A2986 RMK AO2 SFC VIS 6 SLP110 P0016 T01280122=
200910271934 SPECI KATL 271934Z 07013KT 3SM -RA BR BKN005 BKN015 OVC025 13/12 A2985 RMK AO2 SFC VIS 6 P0014=
200910271934 SPECI KATL 271934Z 07013KT 3SM -RA BR BKN005 BKN015 OVC025 13/12 A2985 RMK AO2 SFC VIS 6 P0014=
200910271919 SPECI KATL 271919Z 07010KT 2SM RA BR BKN005 BKN015 OVC025 13/12 A2986 RMK AO2 SFC VIS 5 P0012=
200910271919 SPECI KATL 271919Z 07010KT 2SM RA BR BKN005 BKN015 OVC025 13/12 A2986 RMK AO2 SFC VIS 5 P0012=
200910271858 SPECI KATL 271858Z 09013KT 1 1/2SM +RA BR BKN005 BKN015 OVC025 12/12 A2987 RMK AO2 SFC VIS 3 P0004=
200910271858 SPECI KATL 271858Z 09013KT 1 1/2SM +RA BR BKN005 BKN015 OVC025 12/12 A2987 RMK AO2 SFC VIS 3 P0004=
200910271852 METAR KATL 271852Z 08008KT 040V100 1SM +RA BR BKN005 BKN015 OVC025 12/12 A2987 RMK AO2 SFC VIS 3 SLP115 P0071 T01220122=
200910271829 SPECI KATL 271829Z 09010KT 1SM R09R/4500V6000FT +RA BR BKN005 BKN015 OVC025 12/12 A2989 RMK AO2 SFC VIS 2 P0047=
200910271829 SPECI KATL 271829Z 09010KT 1SM R09R/4500V6000FT +RA BR BKN005 BKN015 OVC025 12/12 A2989 RMK AO2 SFC VIS 2 P0047=
200910271752 METAR KATL 271752Z 07009KT 2 1/2SM +RA BR FEW002 BKN006 OVC010 12/12 A2990 RMK AO2 SFC VIS 3 SLP123 P0014 60083 T01220117 10122 20117 58034=
200910271652 METAR KATL 271652Z 08010KT 2 1/2SM -RA BR BKN006 BKN010 OVC060 12/12 A2996 RMK AO2 SFC VIS 4 SLP144 P0021 T01220117=
200910271552 METAR KATL 271552Z 08008KT 2 1/2SM RA BR BKN006 BKN008 OVC060 12/12 A3000 RMK AO2 SLP156 P0029 T01220117=
200910271502 SPECI KATL 271502Z 04007KT 2SM +RA BR BKN006 BKN010 OVC060 12/12 A3000 RMK AO2 TWR VIS 2 1/2 P0003=
200910271502 SPECI KATL 271502Z 04007KT 2SM +RA BR BKN006 BKN010 OVC060 12/12 A3000 RMK AO2 TWR VIS 2 1/2 P0003=
200910271452 METAR KATL 271452Z 06012KT 2 1/2SM -RA BR BKN006 BKN010 OVC060 12/11 A3000 RMK AO2 SFC VIS 4 SLP158 P0009 60019 T01220111 58007=
200910271352 METAR KATL 271352Z 07009KT 2 1/2SM R09R/6000VP6000FT RA BR OVC008 12/11 A3002 RMK AO2 SFC VIS 4 SLP165 P0009 T01170111=
200910271348 SPECI KATL 271348Z 07007KT 2 1/2SM R09R/6000VP6000FT +RA BR OVC008 12/11 A3002 RMK AO2 SFC VIS 4 P0007=
200910271348 SPECI KATL 271348Z 07007KT 2 1/2SM R09R/6000VP6000FT +RA BR OVC008 12/11 A3002 RMK AO2 SFC VIS 4 P0007=
200910271336 SPECI KATL 271336Z 08011KT 2 1/2SM RA BR OVC010 12/11 A3003 RMK AO2 SFC VIS 4 P0001=
200910271336 SPECI KATL 271336Z 08011KT 2 1/2SM RA BR OVC010 12/11 A3003 RMK AO2 SFC VIS 4 P0001=
200910271252 METAR KATL 271252Z 08013KT 6SM -RA BR BKN010 OVC013 12/11 A3002 RMK AO2 RAB14 SLP165 P0001 T01170106=
200910271152 METAR KATL 271152Z 09009KT 6SM BR BKN010 OVC013 12/10 A3003 RMK AO2 SLP168 60000 T01220100 10133 20122 57013=
200910271052 METAR KATL 271052Z 08012KT 8SM OVC011 12/10 A3004 RMK AO2 RAB33E46 SLP169 P0000 T01220100=
200910270952 METAR KATL 270952Z 07009KT 7SM OVC013 13/10 A3006 RMK AO2 SLP178 T01280100=
200910270928 SPECI KATL 270928Z 08009KT 7SM OVC013 13/10 A3006 RMK AO2=
200910270928 SPECI KATL 270928Z 08009KT 7SM OVC013 13/10 A3006 RMK AO2=
200910270852 METAR KATL 270852Z 08005KT 7SM OVC016 13/10 A3007 RMK AO2 RAE0758 SLP181 P0000 60000 T01280100 57001=
200910270813 SPECI KATL 270813Z 09009KT 8SM BKN014 OVC016 13/10 A3006 RMK AO2 RAE0758 P0000=
200910270813 SPECI KATL 270813Z 09009KT 8SM BKN014 OVC016 13/10 A3006 RMK AO2 RAE0758 P0000=
200910270752 METAR KATL 270752Z 07008KT 10SM -RA OVC016 13/10 A3006 RMK AO2 RAB36 SLP178 P0000 T01280100=
200910270652 METAR KATL 270652Z 09006KT 10SM BKN018 OVC150 13/09 A3008 RMK AO2 SLP184 T01330089=
200910270552 METAR KATL 270552Z 11009KT 10SM BKN018 OVC150 13/09 A3008 RMK AO2 SLP182 T01330094 10156 20133 55010=
200910270452 METAR KATL 270452Z 12011G19KT 10SM BKN020 OVC150 14/09 A3006 RMK AO2 SLP175 T01390089 401830094=
200910270352 METAR KATL 270352Z 10009KT 10SM BKN020 OVC150 14/09 A3010 RMK AO2 SLP191 T01390089=
200910270349 SPECI KATL 270349Z 10009KT 10SM BKN020 OVC150 14/09 A3010 RMK AO2=
200910270349 SPECI KATL 270349Z 10009KT 10SM BKN020 OVC150 14/09 A3010 RMK AO2=
200910270252 METAR KATL 270252Z 09010KT 10SM FEW030 OVC150 14/08 A3011 RMK AO2 SLP194 T01440083 58004=
200910270152 METAR KATL 270152Z 09005KT 10SM FEW030 OVC150 14/09 A3013 RMK AO2 SLP201 T01440089=
200910270052 METAR KATL 270052Z 08008KT 10SM FEW090 OVC150 15/09 A3012 RMK AO2 SLP198 T01500094=
200910262352 METAR KATL 262352Z 10007KT 10SM FEW040 OVC150 16/10 A3012 RMK AO2 SLP198 T01560100 10183 20156 53014=
200910262252 METAR KATL 262252Z 10007KT 10SM BKN038 OVC150 16/10 A3010 RMK AO2 SLP192 T01610100=
200910262152 METAR KATL 262152Z 10006KT 10SM FEW035 BKN150 OVC200 17/11 A3009 RMK AO2 SLP189 T01670106=
200910262052 METAR KATL 262052Z 09010KT 10SM FEW030 BKN040 OVC150 17/11 A3008 RMK AO2 SLP184 BINOVC E T01720106 57010=
200910261952 METAR KATL 261952Z 10010KT 10SM BKN030 BKN037 OVC150 17/10 A3009 RMK AO2 SLP189 T01720100=
200910261852 METAR KATL 261852Z 10008KT 10SM FEW030 SCT150 BKN250 18/11 A3009 RMK AO2 SLP188 T01830106=
200910261752 METAR KATL 261752Z 10011KT 10SM FEW030 SCT150 SCT250 18/11 A3011 RMK AO2 SLP194 T01780106 10178 20106 58021=
200910261652 METAR KATL 261652Z 11011KT 10SM SCT020 BKN150 BKN250 17/11 A3015 RMK AO2 SLP207 T01670106=
200910261648 SPECI KATL 261648Z 10009KT 10SM SCT020 BKN150 BKN250 17/11 A3015 RMK AO2=
200910261648 SPECI KATL 261648Z 10009KT 10SM SCT020 BKN150 BKN250 17/11 A3015 RMK AO2=
200910261552 METAR KATL 261552Z 08010KT 10SM OVC016 14/10 A3017 RMK AO2 SLP217 T01440100=
200910261452 METAR KATL 261452Z 09009KT 10SM OVC014 13/09 A3017 RMK AO2 SLP218 T01280094 51014=
200910261352 METAR KATL 261352Z 07011KT 10SM OVC012 12/09 A3017 RMK AO2 SLP218 T01220089=
200910261252 METAR KATL 261252Z 07009KT 10SM BKN012 OVC023 12/08 A3016 RMK AO2 SLP213 T01170083=
200910261211 SPECI KATL 261211Z 07011KT 10SM BKN012 OVC023 11/08 A3015 RMK AO2=
200910261211 SPECI KATL 261211Z 07011KT 10SM BKN012 OVC023 11/08 A3015 RMK AO2=
200910261152 METAR KATL 261152Z 06012KT 10SM FEW012 BKN023 BKN250 11/08 A3013 RMK AO2 SLP204 T01060078 10106 20094 51012=
200910261052 METAR KATL 261052Z 07011KT 10SM BKN021 OVC250 10/08 A3012 RMK AO2 SLP201 T01000078=
200910261048 SPECI KATL 261048Z 07010KT 10SM BKN021 OVC250 10/08 A3012 RMK AO2=
200910261048 SPECI KATL 261048Z 07010KT 10SM BKN021 OVC250 10/08 A3012 RMK AO2=
200910260952 METAR KATL 260952Z COR 06010KT 10SM FEW250 09/07 A3010 RMK AO2 SLP190 T00940072=
200910260852 METAR KATL 260852Z 06010KT 10SM SCT250 09/07 A3010 RMK AO2 SLP191 T00940072 57006=
200910260752 METAR KATL 260752Z 08008KT 10SM SCT250 09/07 A3011 RMK AO2 SLP193 T00940072=
200910260652 METAR KATL 260652Z 07008KT 10SM BKN250 10/07 A3011 RMK AO2 SLP195 T01000072=
200910260552 METAR KATL 260552Z 07006KT 10SM SCT150 OVC250 10/07 A3012 RMK AO2 SLP198 T01000072 10139 20094 50002=
200910260452 METAR KATL 260452Z 08007KT 10SM OVC250 11/07 A3012 RMK AO2 SLP199 T01060072 401830050=
200910260352 METAR KATL 260352Z 10008KT 10SM OVC250 11/08 A3012 RMK AO2 SLP199 T01110078=
200910260252 METAR KATL 260252Z 09007KT 10SM FEW200 BKN250 12/08 A3011 RMK AO2 SLP197 T01170083 51010=
200910260152 METAR KATL 260152Z 08008KT 10SM FEW200 OVC250 13/08 A3010 RMK AO2 SLP193 T01280083=
200910260052 METAR KATL 260052Z 08007KT 10SM FEW200 BKN250 13/08 A3010 RMK AO2 SLP194 T01280083=
200910252352 METAR KATL 252352Z 09006KT 10SM SCT200 BKN250 14/08 A3008 RMK AO2 SLP188 T01390078 10183 20139 53007=
200910252252 METAR KATL 252252Z 09006KT 10SM SCT150 BKN250 14/07 A3006 RMK AO2 SLP182 T01390072=
200910252152 METAR KATL 252152Z 09006KT 10SM FEW150 BKN250 17/06 A3006 RMK AO2 SLP179 T01670056=
200910252052 METAR KATL 252052Z 07005KT 10SM SCT150 BKN250 17/06 A3006 RMK AO2 SLP179 T01720056 56007=
200910251952 METAR KATL 251952Z COR 05006KT 10SM FEW150 SCT250 18/06 A3006 RMK AO2 SLP179 T01830056=
200910251852 METAR KATL 251852Z 07007KT 10SM FEW150 SCT250 17/06 A3006 RMK AO2 SLP181 T01670056=
200910251752 METAR KATL 251752Z 04003KT 10SM SCT150 BKN250 16/06 A3008 RMK AO2 SLP186 T01560061 10156 20050 58004=
200910251652 METAR KATL 251652Z COR 34003KT 10SM FEW150 SCT250 14/06 A3011 RMK AO2 SLP196 T01390056=
200910251552 METAR KATL 251552Z 34004KT 10SM FEW150 BKN250 12/06 A3011 RMK AO2 SLP197 T01170061=
200910251452 METAR KATL 251452Z 34004KT 10SM FEW150 SCT200 BKN250 09/06 A3009 RMK AO2 SLP192 T00940056 51025=
200910251352 METAR KATL 251352Z 31005KT 10SM SCT150 BKN250 06/04 A3007 RMK AO2 SLP187 T00610044=
200910251252 METAR KATL 251252Z 32009KT 10SM BKN180 06/04 A3004 RMK AO2 SLP174 T00560044=
200910251152 METAR KATL 251152Z 33005KT 10SM SCT200 06/04 A3001 RMK AO2 SLP166 T00560039 10072 20056 51015=
200910251052 METAR KATL 251052Z 33007KT 10SM FEW250 06/04 A3000 RMK AO2 SLP160 T00560044=
200910250952 METAR KATL 250952Z 33006KT 10SM FEW250 06/04 A2999 RMK AO2 SLP157 T00560039=
200910250852 METAR KATL 250852Z 32007KT 10SM CLR 06/04 A2997 RMK AO2 SLP150 T00560039 53006=
200910250752 METAR KATL 250752Z 33007KT 10SM CLR 07/04 A2995 RMK AO2 SLP144 T00670044=
200910250652 METAR KATL 250652Z 32009KT 10SM CLR 07/04 A2995 RMK AO2 SLP144 T00670044=
200910250552 METAR KATL 250552Z 32007KT 10SM FEW250 07/05 A2995 RMK AO2 SLP143 T00720050 10106 20072 56006=
200910250452 METAR KATL 250452Z 33009KT 10SM FEW250 08/05 A2996 RMK AO2 SLP146 T00830050 402060083=
200910250352 METAR KATL 250352Z 33011KT 10SM FEW150 SCT250 09/06 A2995 RMK AO2 SLP143 T00890056=
200910250252 METAR KATL 250252Z 32008KT 10SM SCT130 SCT250 08/06 A2997 RMK AO2 SLP149 T00830061 51010=
200910250152 METAR KATL 250152Z 29005KT 10SM FEW120 SCT250 08/06 A2997 RMK AO2 SLP149 T00830061=
200910250052 METAR KATL 250052Z 30009KT 10SM FEW250 09/06 A2995 RMK AO2 SLP142 T00940056=
200910242352 METAR KATL 242352Z 32009KT 10SM FEW030 11/06 A2994 RMK AO2 SLP137 T01060061 10133 20106 53013=
200910242252 METAR KATL 242252Z 32010KT 10SM BKN030 BKN250 12/07 A2992 RMK AO2 SLP131 T01170067=
200910242152 METAR KATL 242152Z 32009KT 10SM FEW028 BKN032 12/06 A2991 RMK AO2 SLP126 T01220061=
200910242142 SPECI KATL 242142Z 33011G20KT 10SM FEW028 BKN032 12/06 A2990 RMK AO2=
200910242142 SPECI KATL 242142Z 33011G20KT 10SM FEW028 BKN032 12/06 A2990 RMK AO2=
200910242052 METAR KATL 242052Z COR 31011G19KT 10SM BKN024 BKN029 BKN150 12/07 A2990 RMK AO2 SLP122 T01170067 53001=
200910241952 METAR KATL 241952Z 32014G20KT 10SM OVC029 13/07 A2988 RMK AO2 SLP116 T01280072=
200910241852 METAR KATL 241852Z 31013KT 10SM BKN026 OVC030 12/08 A2988 RMK AO2 SLP116 T01220078=
200910241752 METAR KATL 241752Z 28008G15KT 10SM OVC021 12/08 A2990 RMK AO2 SLP121 T01220083 10133 20117 58001=
200910241652 METAR KATL 241652Z 30013KT 10SM OVC023 12/08 A2991 RMK AO2 SLP124 T01220078=
200910241552 METAR KATL 241552Z 30010KT 10SM OVC025 13/08 A2990 RMK AO2 SLP122 T01280078=
200910241452 METAR KATL 241452Z 30012KT 10SM BKN025 BKN150 12/07 A2990 RMK AO2 SLP121 T01220072 51019=
200910241352 METAR KATL 241352Z 28012G19KT 10SM SCT020 BKN150 12/08 A2988 RMK AO2 SLP116 T01220078=
200910241340 SPECI KATL 241340Z 28013G17KT 10SM SCT020 BKN150 13/08 A2988 RMK AO2=
200910241340 SPECI KATL 241340Z 28013G17KT 10SM SCT020 BKN150 13/08 A2988 RMK AO2=
200910241306 SPECI KATL 241306Z 28009G15KT 10SM BKN015 OVC022 12/09 A2987 RMK AO2=
200910241306 SPECI KATL 241306Z 28009G15KT 10SM BKN015 OVC022 12/09 A2987 RMK AO2=
200910241252 METAR KATL 241252Z 28008KT 10SM BKN014 OVC022 12/11 A2986 RMK AO2 SLP109 T01220106=
200910241248 SPECI KATL 241248Z 28007G15KT 10SM BKN013 OVC022 12/11 A2986 RMK AO2=
200910241248 SPECI KATL 241248Z 28007G15KT 10SM BKN013 OVC022 12/11 A2986 RMK AO2=
200910241215 SPECI KATL 241215Z 28010KT 10SM BKN009 OVC017 13/11 A2985 RMK AO2=
200910241215 SPECI KATL 241215Z 28010KT 10SM BKN009 OVC017 13/11 A2985 RMK AO2=
200910241152 METAR KATL 241152Z 30008KT 10SM SCT009 BKN021 OVC028 13/12 A2984 RMK AO2 SLP101 70012 T01330122 10178 20133 51012=
200910241116 SPECI KATL 241116Z 28007KT 10SM SCT008 SCT012 OVC021 13/12 A2983 RMK AO2=
200910241116 SPECI KATL 241116Z 28007KT 10SM SCT008 SCT012 OVC021 13/12 A2983 RMK AO2=
200910241110 SPECI KATL 241110Z 28007KT 10SM BKN010 OVC021 14/12 A2983 RMK AO2 CIG 007V014=
200910241110 SPECI KATL 241110Z 28007KT 10SM BKN010 OVC021 14/12 A2983 RMK AO2 CIG 007V014=
200910241052 METAR KATL 241052Z 28008KT 10SM BKN008 OVC015 14/13 A2983 RMK AO2 SLP097 T01390128=
200910240952 METAR KATL 240952Z 29010KT 10SM BKN008 OVC020 14/14 A2983 RMK AO2 SLP095 T01440139=
200910240929 SPECI KATL 240929Z 29009KT 10SM BKN009 OVC020 15/14 A2982 RMK AO2=
200910240929 SPECI KATL 240929Z 29009KT 10SM BKN009 OVC020 15/14 A2982 RMK AO2=
200910240852 METAR KATL 240852Z 28009KT 10SM BKN010 OVC025 16/15 A2981 RMK AO2 SLP087 T01610150 53003=
200910240756 SPECI KATL 240756Z 28007KT 10SM BKN010 OVC025 16/16 A2980 RMK AO2=
200910240756 SPECI KATL 240756Z 28007KT 10SM BKN010 OVC025 16/16 A2980 RMK AO2=
200910240752 METAR KATL 240752Z 28008KT 10SM SCT010 OVC025 16/16 A2980 RMK AO2 SLP087 T01610156=
200910240748 SPECI KATL 240748Z 27007KT 10SM SCT010 OVC025 16/16 A2981 RMK AO2=
200910240748 SPECI KATL 240748Z 27007KT 10SM SCT010 OVC025 16/16 A2981 RMK AO2=
200910240652 METAR KATL 240652Z 27006KT 10SM FEW010 SCT025 SCT050 17/16 A2980 RMK AO2 SLP083 T01670156=
200910240552 METAR KATL 240552Z 29006KT 10SM SCT010 SCT025 BKN050 18/17 A2980 RMK AO2 SLP083 60001 T01780167 10211 20178 53002=
200910240548 SPECI KATL 240548Z 29006KT 10SM SCT010 SCT025 BKN050 18/17 A2980 RMK AO2=
200910240548 SPECI KATL 240548Z 29006KT 10SM SCT010 SCT025 BKN050 18/17 A2980 RMK AO2=
200910240543 SPECI KATL 240543Z 28007KT 10SM SCT010 BKN025 BKN050 18/17 A2979 RMK AO2=
200910240543 SPECI KATL 240543Z 28007KT 10SM SCT010 BKN025 BKN050 18/17 A2979 RMK AO2=
200910240452 METAR KATL 240452Z 21008KT 10SM BKN010 BKN025 21/20 A2978 RMK AO2 SLP078 T02060200 402220178=
200910240441 SPECI KATL 240441Z 21009KT 10SM BKN012 BKN030 21/20 A2978 RMK AO2=
200910240441 SPECI KATL 240441Z 21009KT 10SM BKN012 BKN030 21/20 A2978 RMK AO2=
200910240420 SPECI KATL 240420Z 22011KT 10SM SCT012 BKN028 21/20 A2978 RMK AO2=
200910240420 SPECI KATL 240420Z 22011KT 10SM SCT012 BKN028 21/20 A2978 RMK AO2=
200910240352 METAR KATL 240352Z 20010KT 10SM BKN012 BKN025 BKN050 21/20 A2979 RMK AO2 SLP081 T02110200=
200910240342 SPECI KATL 240342Z 21010KT 10SM BKN012 BKN020 OVC050 21/21 A2979 RMK AO2=
200910240342 SPECI KATL 240342Z 21010KT 10SM BKN012 BKN020 OVC050 21/21 A2979 RMK AO2=
200910240252 METAR KATL 240252Z 19010KT 10SM BKN008 OVC020 21/21 A2979 RMK AO2 SLP079 60001 T02110206 51003=
200910240238 SPECI KATL 240238Z 20011G15KT 10SM BKN008 BKN015 OVC030 21/21 A2979 RMK AO2=
200910240238 SPECI KATL 240238Z 20011G15KT 10SM BKN008 BKN015 OVC030 21/21 A2979 RMK AO2=
200910240152 METAR KATL 240152Z 20010KT 10SM SCT009 BKN022 OVC060 21/21 A2979 RMK AO2 RAE0054B19E43 SLP080 SCT009 V BKN P0001 T02110206=
200910240129 SPECI KATL 240129Z 17009KT 6SM -RA BR SCT008 BKN022 OVC060 21/21 A2978 RMK AO2 RAE0054B19 P0001=
200910240129 SPECI KATL 240129Z 17009KT 6SM -RA BR SCT008 BKN022 OVC060 21/21 A2978 RMK AO2 RAE0054B19 P0001=
200910240112 SPECI KATL 240112Z 18007KT 10SM FEW008 BKN035 OVC075 21/21 A2979 RMK AO2 RAE0054 P0000=
200910240112 SPECI KATL 240112Z 18007KT 10SM FEW008 BKN035 OVC075 21/21 A2979 RMK AO2 RAE0054 P0000=
200910240052 METAR KATL 240052Z 19007KT 7SM -RA FEW008 BKN027 OVC075 21/21 A2979 RMK AO2 RAE09B44 SLP080 P0000 T02110206=
200910240035 SPECI KATL 240035Z 19007KT 10SM FEW008 BKN030 OVC060 21/21 A2978 RMK AO2 RAE09 P0000=
200910240035 SPECI KATL 240035Z 19007KT 10SM FEW008 BKN030 OVC060 21/21 A2978 RMK AO2 RAE09 P0000=
200910232352 METAR KATL 232352Z 17006KT 6SM -RA BR SCT015 BKN025 OVC050 21/21 A2978 RMK AO2 RAB22 SLP078 P0004 60007 T02110206 10222 20211 55001=
200910232252 METAR KATL 232252Z 17007KT 10SM SCT022 BKN035 OVC065 21/21 A2978 RMK AO2 RAE02 SLP077 P0000 T02110206=
200910232202 SPECI KATL 232202Z 17007KT 10SM FEW005 BKN034 OVC060 22/21 A2978 RMK AO2 RAE02 P0000=
200910232202 SPECI KATL 232202Z 17007KT 10SM FEW005 BKN034 OVC060 22/21 A2978 RMK AO2 RAE02 P0000=
200910232152 METAR KATL 232152Z 17006KT 6SM -RA BR FEW006 BKN028 OVC060 22/21 A2978 RMK AO2 RAB16E28B51 SLP076 P0000 T02170206=
200910232136 SPECI KATL 232136Z 16008KT 10SM FEW006 BKN025 BKN060 OVC150 22/21 A2978 RMK AO2 RAB16E28 P0000=
200910232136 SPECI KATL 232136Z 16008KT 10SM FEW006 BKN025 BKN060 OVC150 22/21 A2978 RMK AO2 RAB16E28 P0000=
200910232052 METAR KATL 232052Z 18008KT 10SM FEW008 BKN030 OVC050 22/21 A2978 RMK AO2 RAB06E43 SLP079 P0000 60003 T02170206 58001=
200910232028 SPECI KATL 232028Z 19010KT 10SM FEW008 BKN023 OVC030 22/21 A2978 RMK AO2 RAB06E27 P0000=
200910232028 SPECI KATL 232028Z 19010KT 10SM FEW008 BKN023 OVC030 22/21 A2978 RMK AO2 RAB06E27 P0000=
200910232018 SPECI KATL 232018Z 18009KT 4SM -RA BR BKN008 BKN014 OVC030 22/21 A2978 RMK AO2 RAB06 P0000=
200910232018 SPECI KATL 232018Z 18009KT 4SM -RA BR BKN008 BKN014 OVC030 22/21 A2978 RMK AO2 RAB06 P0000=
200910231952 METAR KATL 231952Z 18011G16KT 9SM BKN008 BKN012 OVC030 21/21 A2979 RMK AO2 RAB16E41 SLP080 P0001 T02110206=
200910231921 SPECI KATL 231921Z 18013G24KT 6SM -RA BR BKN022 BKN030 OVC070 22/21 A2979 RMK AO2 RAB16 P0000=
200910231921 SPECI KATL 231921Z 18013G24KT 6SM -RA BR BKN022 BKN030 OVC070 22/21 A2979 RMK AO2 RAB16 P0000=
200910231855 SPECI KATL 231855Z 17013G20KT 10SM BKN024 OVC028 22/20 A2979 RMK AO2=
200910231855 SPECI KATL 231855Z 17013G20KT 10SM BKN024 OVC028 22/20 A2979 RMK AO2=
200910231852 METAR KATL 231852Z 18011G20KT 6SM BR BKN024 BKN030 OVC070 22/20 A2979 RMK AO2 RAB02E48 SLP079 P0002 T02170200=
200910231831 SPECI KATL 231831Z 16011G16KT 10SM BKN024 BKN030 OVC070 22/20 A2978 RMK AO2 RAB02E31 P0001=
200910231831 SPECI KATL 231831Z 16011G16KT 10SM BKN024 BKN030 OVC070 22/20 A2978 RMK AO2 RAB02E31 P0001=
200910231813 SPECI KATL 231813Z 17009KT 5SM -RA BR BKN027 BKN033 OVC070 22/20 A2979 RMK AO2 RAB02 P0000=
200910231813 SPECI KATL 231813Z 17009KT 5SM -RA BR BKN027 BKN033 OVC070 22/20 A2979 RMK AO2 RAB02 P0000=
200910231806 SPECI KATL 231806Z 17010KT 6SM -RA BR FEW020 BKN030 OVC070 22/20 A2980 RMK AO2 RAB02 P0000=
200910231806 SPECI KATL 231806Z 17010KT 6SM -RA BR FEW020 BKN030 OVC070 22/20 A2980 RMK AO2 RAB02 P0000=
200910231752 METAR KATL 231752Z 16009G20KT 10SM FEW010 BKN030 BKN070 BKN150 22/20 A2980 RMK AO2 RAE18 SLP085 P0002 60004 T02220200 10222 20178 58021=
200910231719 SPECI KATL 231719Z 14009G14KT 9SM FEW016 SCT030 BKN090 BKN150 21/20 A2981 RMK AO2 RAE18 P0002=
200910231719 SPECI KATL 231719Z 14009G14KT 9SM FEW016 SCT030 BKN090 BKN150 21/20 A2981 RMK AO2 RAE18 P0002=
200910231652 METAR KATL 231652Z 15009KT 6SM -RA BR BKN020 BKN030 OVC090 20/19 A2985 RMK AO2 SLP101 P0002 T02000189=
200910231644 SPECI KATL 231644Z 16010KT 6SM -RA BR BKN020 BKN030 OVC090 21/19 A2985 RMK AO2 P0001=
200910231644 SPECI KATL 231644Z 16010KT 6SM -RA BR BKN020 BKN030 OVC090 21/19 A2985 RMK AO2 P0001=
200910231552 METAR KATL 231552Z 17013G18KT 9SM -RA BKN017 BKN030 OVC090 21/18 A2986 RMK AO2 RAB39 SLP106 P0000 T02060183=
200910231508 SPECI KATL 231508Z 17010G18KT 10SM BKN020 BKN030 OVC090 21/18 A2986 RMK AO2=
200910231508 SPECI KATL 231508Z 17010G18KT 10SM BKN020 BKN030 OVC090 21/18 A2986 RMK AO2=
200910231452 METAR KATL 231452Z 17013KT 10SM FEW015 SCT030 BKN090 OVC150 21/18 A2987 RMK AO2 SLP107 SHRA DSNT SW-NW T02060178 58007=
200910231356 SPECI KATL 231356Z 17008G16KT 10SM BKN015 BKN035 BKN090 20/18 A2988 RMK AO2=
200910231356 SPECI KATL 231356Z 17008G16KT 10SM BKN015 BKN035 BKN090 20/18 A2988 RMK AO2=
200910231352 METAR KATL 231352Z 16011KT 10SM FEW009 SCT015 BKN090 BKN150 20/18 A2988 RMK AO2 SLP111 T02000178=
200910231305 SPECI KATL 231305Z 14006KT 8SM FEW009 BKN015 BKN030 18/17 A2988 RMK AO2=
200910231305 SPECI KATL 231305Z 14006KT 8SM FEW009 BKN015 BKN030 18/17 A2988 RMK AO2=
200910231252 METAR KATL 231252Z 13006KT 7SM FEW010 BKN015 BKN029 18/17 A2988 RMK AO2 SLP114 T01830172=
200910231152 METAR KATL 231152Z 14005KT 7SM FEW010 BKN025 BKN035 18/17 A2989 RMK AO2 SLP115 T01780167 10189 20178 56005=
200910231115 SPECI KATL 231115Z 14006KT 7SM FEW008 SCT029 BKN070 18/17 A2989 RMK AO2=
200910231115 SPECI KATL 231115Z 14006KT 7SM FEW008 SCT029 BKN070 18/17 A2989 RMK AO2=
200910231052 METAR KATL 231052Z 14006KT 7SM FEW029 BKN044 OVC070 18/17 A2990 RMK AO2 SLP118 T01780167=
200910230952 METAR KATL 230952Z 15007KT 7SM BKN070 BKN150 OVC250 18/17 A2990 RMK AO2 SLP119 T01780167=
200910230852 METAR KATL 230852Z 15007KT 7SM SCT070 BKN150 OVC250 18/16 A2990 RMK AO2 SLP120 T01780161 58006=
200910230752 METAR KATL 230752Z 16009KT 9SM BKN150 OVC250 18/16 A2991 RMK AO2 SLP123 T01780156=
200910230652 METAR KATL 230652Z 16012G18KT 10SM BKN150 OVC250 18/16 A2992 RMK AO2 SLP126 T01830156=
200910230552 METAR KATL 230552Z 14009KT 10SM BKN150 OVC250 19/16 A2992 RMK AO2 SLP126 T01890156 10200 20183 58021=
200910230452 METAR KATL 230452Z 13006KT 10SM FEW070 BKN150 OVC200 18/16 A2995 RMK AO2 SLP135 T01830156 402330100=
200910230352 METAR KATL 230352Z 13006KT 10SM BKN070 OVC200 19/16 A2998 RMK AO2 SLP145 T01890156=
200910230252 METAR KATL 230252Z 12006KT 10SM SCT070 OVC200 19/16 A2999 RMK AO2 SLP150 T01890156 53002=
200910230152 METAR KATL 230152Z 13006KT 10SM BKN200 OVC250 19/16 A2998 RMK AO2 SLP149 T01890156=
200910230052 METAR KATL 230052Z 14003KT 10SM BKN200 OVC250 19/16 A2998 RMK AO2 SLP150 T01940156=
200910222352 METAR KATL 222352Z 11006KT 10SM FEW070 BKN200 BKN250 20/16 A2998 RMK AO2 SLP150 T02000156 10233 20194 56011=
200910222252 METAR KATL 222252Z 11006KT 10SM FEW070 SCT200 BKN250 21/16 A2999 RMK AO2 SLP152 T02060156=
200910222152 METAR KATL 222152Z 12009KT 10SM FEW070 SCT250 22/15 A3000 RMK AO2 SLP156 T02220150=
200910222052 METAR KATL 222052Z 14008KT 10SM FEW035 SCT060 SCT250 23/14 A3001 RMK AO2 SLP160 T02280144 56016=
200910221952 METAR KATL 221952Z 14008G16KT 10SM FEW035 BKN060 BKN250 23/14 A3002 RMK AO2 SLP160 T02280139=
200910221852 METAR KATL 221852Z 13008KT 10SM FEW030 SCT060 SCT250 22/14 A3003 RMK AO2 SLP165 T02170144=
200910221752 METAR KATL 221752Z 12006KT 10SM FEW025 BKN060 BKN250 21/15 A3006 RMK AO2 SLP176 T02110150 10211 20106 58026 $=
200910221652 METAR KATL 221652Z 13006KT 10SM FEW020 BKN060 BKN250 19/14 A3010 RMK AO2 SLP191 T01940144 $=
200910221559 SPECI KATL 221559Z 11010KT 10SM FEW020 BKN060 BKN250 18/13 A3013 RMK AO2 $=
200910221559 SPECI KATL 221559Z 11010KT 10SM FEW020 BKN060 BKN250 18/13 A3013 RMK AO2 $=
200910221552 METAR KATL 221552Z 11007KT 10SM BKN020 BKN060 BKN250 18/13 A3013 RMK AO2 SLP199 T01780128 $=
200910221523 SPECI KATL 221523Z 12006KT 10SM SCT014 BKN020 BKN150 BKN250 17/12 A3014 RMK AO2 $=
200910221523 SPECI KATL 221523Z 12006KT 10SM SCT014 BKN020 BKN150 BKN250 17/12 A3014 RMK AO2 $=
200910221452 METAR KATL 221452Z 11008KT 10SM BKN014 BKN150 BKN250 16/12 A3014 RMK AO2 SLP203 T01610117 50005=
200910221352 METAR KATL 221352Z 10006KT 10SM FEW150 BKN200 BKN250 14/10 A3015 RMK AO2 SLP207 T01390100=
200910221252 METAR KATL 221252Z 07007KT 10SM FEW120 SCT150 BKN250 12/09 A3014 RMK AO2 SLP204 T01220094=
200910221152 METAR KATL 221152Z 08006KT 10SM SCT150 BKN250 11/09 A3013 RMK AO2 SLP199 T01060089 10122 20100 53004=
200910221052 METAR KATL 221052Z 08005KT 10SM SCT150 BKN250 11/09 A3012 RMK AO2 SLP197 T01060089=
200910220952 METAR KATL 220952Z 07006KT 10SM SCT150 BKN250 11/09 A3011 RMK AO2 SLP195 T01110089=
200910220852 METAR KATL 220852Z 08005KT 10SM SCT200 11/09 A3011 RMK AO2 SLP194 T01060089 56013=
200910220752 METAR KATL 220752Z 08005KT 10SM FEW150 SCT250 12/09 A3013 RMK AO2 SLP199 T01170089=
200910220652 METAR KATL 220652Z 08003KT 10SM SCT250 12/09 A3014 RMK AO2 SLP202 T01170089=
200910220552 METAR KATL 220552Z 08004KT 10SM SCT250 12/09 A3015 RMK AO2 SLP207 T01220089 10178 20122 58007=
200910220452 METAR KATL 220452Z 00000KT 10SM BKN250 13/09 A3017 RMK AO2 SLP214 T01330089 402170078=
200910220352 METAR KATL 220352Z 00000KT 10SM BKN250 14/09 A3018 RMK AO2 SLP218 T01390094=
200910220252 METAR KATL 220252Z 00000KT 10SM FEW150 OVC250 16/09 A3017 RMK AO2 SLP215 T01560089 53008=
200910220152 METAR KATL 220152Z 11006KT 10SM FEW150 OVC250 16/09 A3015 RMK AO2 SLP209 T01610089=
200910220052 METAR KATL 220052Z 00000KT 10SM BKN200 OVC250 17/09 A3017 RMK AO2 SLP214 T01670089=
200910212352 METAR KATL 212352Z 12004KT 10SM BKN200 OVC250 18/09 A3015 RMK AO2 SLP208 T01780094 10217 20178 58005=
200910212252 METAR KATL 212252Z 11004KT 10SM BKN200 BKN250 19/08 A3017 RMK AO2 SLP214 T01940078=
200910212152 METAR KATL 212152Z 16004KT 10SM FEW200 BKN250 20/08 A3016 RMK AO2 SLP212 T02000078=
200910212052 METAR KATL 212052Z 16004KT 10SM BKN250 21/07 A3016 RMK AO2 SLP213 T02110067 56018=
200910211952 METAR KATL 211952Z 00000KT 10SM SCT250 22/06 A3017 RMK AO2 SLP214 T02170056=
200910211852 METAR KATL 211852Z 13004KT 10SM FEW250 21/06 A3019 RMK AO2 SLP220 T02110061=
200910211752 METAR KATL 211752Z 15005KT 10SM FEW250 20/07 A3022 RMK AO2 SLP231 T02000072 10200 20083 58019=
200910211652 METAR KATL 211652Z 15003KT 10SM FEW250 19/08 A3025 RMK AO2 SLP241 T01890078=
200910211552 METAR KATL 211552Z 15004KT 10SM FEW250 18/09 A3027 RMK AO2 SLP249 T01780089=
200910211452 METAR KATL 211452Z VRB04KT 10SM FEW250 16/09 A3028 RMK AO2 SLP251 T01610089 50003=
200910211352 METAR KATL 211352Z 10003KT 10SM FEW250 13/08 A3028 RMK AO2 SLP254 T01330083=
200910211252 METAR KATL 211252Z COR VRB06KT 10SM FEW250 12/07 A3027 RMK AO2 SLP250 T01170067=
200910211152 METAR KATL 211152Z 10003KT 9SM FEW250 09/06 A3027 RMK AO2 SLP249 T00890061 10106 20078 53009=
200910211052 METAR KATL 211052Z 00000KT 10SM CLR 09/06 A3026 RMK AO2 SLP244 T00890061=
200910210952 METAR KATL 210952Z 00000KT 10SM FEW006 09/06 A3024 RMK AO2 SLP239 T00890061=
200910210852 METAR KATL 210852Z 05003KT 10SM CLR 10/06 A3024 RMK AO2 SLP238 T01000061 58007=
200910210752 METAR KATL 210752Z 00000KT 10SM CLR 09/07 A3025 RMK AO2 SLP241 T00940067=
200910210652 METAR KATL 210652Z 00000KT 10SM CLR 10/07 A3026 RMK AO2 SLP244 T01000067=
200910210552 METAR KATL 210552Z 00000KT 10SM CLR 10/07 A3026 RMK AO2 SLP246 T01000067 10156 20100 51008=
200910210452 METAR KATL 210452Z 00000KT 10SM CLR 11/07 A3025 RMK AO2 SLP243 T01110072 402000050=
200910210352 METAR KATL 210352Z 14003KT 10SM CLR 12/07 A3025 RMK AO2 SLP241 T01220067=
200910210252 METAR KATL 210252Z 15003KT 10SM CLR 13/07 A3024 RMK AO2 SLP238 T01280072 53005=
200910210152 METAR KATL 210152Z 15003KT 10SM CLR 13/07 A3023 RMK AO2 SLP237 T01330072=
200910210052 METAR KATL 210052Z 00000KT 10SM CLR 15/06 A3022 RMK AO2 SLP235 T01500061=
200910202352 METAR KATL 202352Z 00000KT 10SM CLR 16/06 A3022 RMK AO2 SLP235 T01560061 10200 20156 53001=
200910202252 METAR KATL 202252Z 16004KT 10SM CLR 18/06 A3021 RMK AO2 SLP233 T01780056=
200910202152 METAR KATL 202152Z 00000KT 10SM CLR 19/04 A3022 RMK AO2 SLP232 T01940039=
200910202052 METAR KATL 202052Z 18003KT 10SM CLR 20/02 A3022 RMK AO2 SLP232 T02000022 56018=
200910201952 METAR KATL 201952Z 00000KT 10SM CLR 19/03 A3023 RMK AO2 SLP237 T01890033=
200910201852 METAR KATL 201852Z 00000KT 10SM CLR 19/04 A3024 RMK AO2 SLP240 T01940044=
200910201752 METAR KATL 201752Z 14003KT 10SM CLR 18/05 A3027 RMK AO2 SLP250 T01780050 10178 20050 58015=
200910201652 METAR KATL 201652Z 23004KT 10SM CLR 17/06 A3030 RMK AO2 SLP259 T01670056=
200910201552 METAR KATL 201552Z 03004KT 10SM CLR 16/06 A3030 RMK AO2 SLP262 T01560056=
200910201452 METAR KATL 201452Z 31003KT 10SM CLR 13/05 A3032 RMK AO2 SLP267 T01330050 51007=
200910201352 METAR KATL 201352Z 00000KT 10SM CLR 11/06 A3032 RMK AO2 SLP267 T01110061=
200910201252 METAR KATL 201252Z 00000KT 9SM CLR 08/06 A3031 RMK AO2 SLP268 T00780056=
200910201152 METAR KATL 201152Z 00000KT 9SM CLR 05/03 A3030 RMK AO2 SLP262 T00500033 10083 20050 53010=
200910201052 METAR KATL 201052Z 00000KT 10SM CLR 06/04 A3028 RMK AO2 SLP257 T00560039=
200910200952 METAR KATL 200952Z 00000KT 10SM CLR 05/03 A3027 RMK AO2 SLP251 T00500033=
200910200852 METAR KATL 200852Z 00000KT 10SM CLR 06/04 A3026 RMK AO2 SLP250 T00610039 55001=
200910200752 METAR KATL 200752Z 00000KT 10SM CLR 06/04 A3026 RMK AO2 SLP248 T00560039=
200910200652 METAR KATL 200652Z 00000KT 10SM CLR 07/04 A3026 RMK AO2 SLP249 T00720039=
200910200552 METAR KATL 200552Z 00000KT 10SM CLR 08/04 A3027 RMK AO2 SLP251 T00830039 10122 20078 50002=
200910200452 METAR KATL 200452Z 00000KT 10SM CLR 09/04 A3027 RMK AO2 SLP252 T00890039 401610022=
200910200352 METAR KATL 200352Z 00000KT 10SM CLR 09/04 A3026 RMK AO2 SLP249 T00940039=
200910200252 METAR KATL 200252Z 00000KT 10SM CLR 09/04 A3026 RMK AO2 SLP250 T00940044 53007=
200910200152 METAR KATL 200152Z 00000KT 10SM CLR 10/05 A3025 RMK AO2 SLP247 T01000050=
200910200052 METAR KATL 200052Z 00000KT 10SM CLR 11/04 A3025 RMK AO2 SLP246 T01110044=
200910192352 METAR KATL 192352Z 00000KT 10SM FEW250 12/03 A3024 RMK AO2 SLP244 T01220033 10161 20122 53000=
200910192252 SPECI KATL 192252Z 21003KT 10SM FEW250 14/03 A3024 RMK AO2 SLP242 T01390028=
200910192152 METAR KATL 192152Z 18003KT 10SM FEW250 16/01 A3023 RMK AO2 SLP240 T01560011=
200910192052 SPECI KATL 192052Z 09003KT 10SM FEW250 16/02 A3024 RMK AO2 SLP242 T01610017 56020=
200910191952 METAR KATL 191952Z 00000KT 10SM CLR 16/02 A3025 RMK AO2 SLP246 T01560022=
200910191852 SPECI KATL 191852Z VRB03KT 10SM CLR 15/02 A3027 RMK AO2 SLP252 T01500022=
200910191752 METAR KATL 191752Z 16004KT 10SM CLR 13/00 A3030 RMK AO2 SLP264 T01330000 10139 20022 58017=
200910191652 METAR KATL 191652Z 17004KT 10SM CLR 12/01 A3032 RMK AO2 SLP272 T01170006=
200910191552 METAR KATL 191552Z 00000KT 10SM CLR 11/01 A3034 RMK AO2 SLP278 T01110011=
200910191452 METAR KATL 191452Z 11004KT 10SM CLR 09/00 A3035 RMK AO2 SLP282 T00940000 51015=
200910191352 METAR KATL 191352Z 08007KT 10SM CLR 08/01 A3034 RMK AO2 SLP277 T00780006=
200910191252 METAR KATL 191252Z 08003KT 10SM CLR 06/01 A3032 RMK AO2 SLP274 T00610011=
200910191152 METAR KATL 191152Z 00000KT 10SM CLR 03/00 A3031 RMK AO2 SLP268 T00280000 10039 20022 53016=
200910191052 METAR KATL 191052Z 00000KT 10SM CLR 03/00 A3029 RMK AO2 SLP261 T00330000=
200910190952 METAR KATL 190952Z 00000KT 10SM CLR 03/00 A3028 RMK AO2 SLP257 T00330000=
200910190852 METAR KATL 190852Z 00000KT 10SM CLR 03/00 A3026 RMK AO2 SLP251 T00280000 56000=
200910190752 METAR KATL 190752Z 34004KT 10SM CLR 04/01 A3026 RMK AO2 SLP250 T00390006=
200910190652 METAR KATL 190652Z 33003KT 10SM CLR 03/01 A3026 RMK AO2 SLP251 T00330006=
200910190552 METAR KATL 190552Z 34005KT 10SM CLR 04/01 A3026 RMK AO2 SLP251 T00390006 10078 20033 53003=
200910190452 METAR KATL 190452Z 35005KT 10SM CLR 04/01 A3025 RMK AO2 SLP248 T00440006 401280028=
200910190352 METAR KATL 190352Z 01006KT 10SM CLR 06/00 A3025 RMK AO2 SLP247 T00610000=
200910190252 METAR KATL 190252Z 35009KT 10SM CLR 07/00 A3025 RMK AO2 SLP248 T00670000 51005=
200910190152 METAR KATL 190152Z 36010KT 10SM CLR 07/00 A3025 RMK AO2 SLP248 T00720000=
200910190052 METAR KATL 190052Z 34007KT 10SM CLR 07/01 A3024 RMK AO2 SLP247 T00720006=
200910182352 METAR KATL 182352Z 33007KT 10SM CLR 08/01 A3024 RMK AO2 SLP244 T00780006 10128 20078 53007=
200910182252 METAR KATL 182252Z 34012KT 10SM CLR 09/M01 A3023 RMK AO2 SLP241 T00941006=
200910182152 METAR KATL 182152Z 33015KT 10SM CLR 11/00 A3022 RMK AO2 SLP236 T01060000=
200910182052 METAR KATL 182052Z 35014G22KT 10SM FEW045 12/M01 A3021 RMK AO2 SLP235 T01171006 55006=
200910181952 METAR KATL 181952Z 35015G22KT 10SM FEW045 12/00 A3021 RMK AO2 SLP234 T01220000=
200910181852 METAR KATL 181852Z 34014G21KT 10SM FEW045 12/00 A3022 RMK AO2 SLP235 T01220000=
200910181752 METAR KATL 181752Z 32012G19KT 10SM FEW040 12/01 A3023 RMK AO2 SLP240 T01170006 10117 20028 58002=
200910181652 METAR KATL 181652Z 34019G24KT 10SM FEW040 11/M01 A3025 RMK AO2 SLP246 T01061006=
200910181552 METAR KATL 181552Z 34014G20KT 10SM FEW040 09/M01 A3025 RMK AO2 SLP247 T00941006=
200910181452 METAR KATL 181452Z 35014G21KT 10SM CLR 08/01 A3024 RMK AO2 SLP244 T00830006 51015=
200910181352 METAR KATL 181352Z 34013G20KT 10SM CLR 06/01 A3023 RMK AO2 SLP241 T00610011=
200910181252 METAR KATL 181252Z 33011KT 10SM FEW120 04/01 A3021 RMK AO2 PK WND 07033/1200 SLP235 T00390011=
200910181152 METAR KATL 181152Z 32011KT 10SM FEW100 03/01 A3019 RMK AO2 SLP229 T00280011 10044 20028 53013=
200910181052 METAR KATL 181052Z 32010KT 10SM CLR 03/01 A3018 RMK AO2 SLP226 T00280011=
200910180952 METAR KATL 180952Z 33009KT 10SM CLR 03/01 A3016 RMK AO2 SLP219 T00330011=
200910180852 METAR KATL 180852Z 32011KT 10SM CLR 03/02 A3015 RMK AO2 SLP216 T00330017 53002=
200910180752 METAR KATL 180752Z 33011G20KT 10SM CLR 03/02 A3014 RMK AO2 SLP213 T00330017=
200910180652 METAR KATL 180652Z 33010KT 10SM CLR 04/02 A3015 RMK AO2 SLP213 T00390017=
200910180552 METAR KATL 180552Z 33011KT 10SM FEW080 04/02 A3015 RMK AO2 SLP213 T00440017 10078 20044 58002=
200910180452 METAR KATL 180452Z 33011G18KT 10SM FEW050 05/02 A3016 RMK AO2 SLP215 T00500017 401060050=
200910180352 METAR KATL 180352Z 33012KT 10SM FEW020 06/02 A3016 RMK AO2 SLP215 T00560022=
200910180252 METAR KATL 180252Z 34011KT 10SM FEW020 SCT046 06/03 A3016 RMK AO2 SLP215 T00610028 53015=
200910180152 METAR KATL 180152Z 33013G20KT 10SM FEW023 SCT046 07/03 A3014 RMK AO2 SLP210 T00670028=
200910180052 METAR KATL 180052Z 33011G17KT 10SM FEW025 BKN044 07/03 A3012 RMK AO2 SLP204 T00720033=
200910180026 SPECI KATL 180026Z 33011KT 10SM SCT025 BKN044 BKN065 07/04 A3012 RMK AO2=
200910180026 SPECI KATL 180026Z 33011KT 10SM SCT025 BKN044 BKN065 07/04 A3012 RMK AO2=
200910180007 SPECI KATL 180007Z 33011KT 10SM BKN025 BKN065 07/04 A3012 RMK AO2=
200910180007 SPECI KATL 180007Z 33011KT 10SM BKN025 BKN065 07/04 A3012 RMK AO2=
200910172352 METAR KATL 172352Z 32011KT 10SM FEW027 BKN060 08/04 A3011 RMK AO2 SLP200 60000 T00780039 10106 20078 53016=
200910172252 METAR KATL 172252Z 34017G22KT 10SM FEW036 BKN050 OVC060 09/03 A3009 RMK AO2 SLP193 BINOVC T00890033=
200910172152 METAR KATL 172152Z 33013G19KT 10SM BKN036 BKN050 09/03 A3008 RMK AO2 SLP188 T00940033=
200910172052 METAR KATL 172052Z 32013G20KT 10SM SCT033 BKN042 BKN049 09/03 A3006 RMK AO2 SLP183 60000 T00940033 53004=
200910171952 METAR KATL 171952Z 33015G22KT 10SM SCT030 BKN036 BKN043 10/04 A3005 RMK AO2 SLP178 T01000039=
200910171852 METAR KATL 171852Z 34018G24KT 10SM BKN035 OVC046 11/03 A3004 RMK AO2 PK WND 33026/1805 RAE44 SLP175 P0000 T01060033=
200910171752 METAR KATL 171752Z 34015G23KT 10SM -RA BKN034 OVC042 11/03 A3005 RMK AO2 SLP178 P0000 60000 T01060033 10106 20072 50003=
200910171652 METAR KATL 171652Z 32014G20KT 10SM -RA OVC030 09/04 A3006 RMK AO2 RAB49 SLP179 P0000 T00940039=
200910171629 SPECI KATL 171629Z 34016G20KT 10SM BKN030 OVC070 09/04 A3005 RMK AO2=
200910171629 SPECI KATL 171629Z 34016G20KT 10SM BKN030 OVC070 09/04 A3005 RMK AO2=
200910171552 METAR KATL 171552Z 32017G20KT 10SM SCT022 BKN026 BKN070 10/04 A3005 RMK AO2 SLP178 T01000044=
200910171452 METAR KATL 171452Z 33015G22KT 10SM BKN022 BKN029 BKN044 09/05 A3004 RMK AO2 SLP174 T00890050 53012=
200910171352 METAR KATL 171352Z 33017G24KT 10SM BKN020 BKN120 08/04 A3002 RMK AO2 SLP170 T00830044=
200910171252 METAR KATL 171252Z 32014G19KT 10SM BKN020 BKN120 08/04 A3001 RMK AO2 SLP165 T00780044=
200910171152 METAR KATL 171152Z 32015KT 10SM BKN025 OVC120 08/04 A3000 RMK AO2 SLP163 T00780044 10083 20072 51011=
200910171052 METAR KATL 171052Z 32011KT 10SM OVC025 08/04 A3000 RMK AO2 SLP161 T00780044=
200910170952 METAR KATL 170952Z 32008G18KT 10SM OVC024 08/04 A2998 RMK AO2 SLP153 T00780044=
200910170852 METAR KATL 170852Z 32014KT 10SM OVC024 08/04 A2997 RMK AO2 SLP151 T00780039 53004=
200910170752 METAR KATL 170752Z 33014KT 10SM BKN022 OVC120 08/04 A2996 RMK AO2 SLP148 T00780044=
200910170652 METAR KATL 170652Z 32014G19KT 10SM FEW018 BKN024 OVC120 08/06 A2996 RMK AO2 SLP146 T00830056=
200910170615 SPECI KATL 170615Z 32011KT 10SM FEW018 SCT024 OVC120 07/06 A2996 RMK AO2=
200910170615 SPECI KATL 170615Z 32011KT 10SM FEW018 SCT024 OVC120 07/06 A2996 RMK AO2=
200910170552 METAR KATL 170552Z 31011KT 10SM FEW018 BKN024 OVC120 08/06 A2996 RMK AO2 SLP146 T00780056 10100 20078 58002=
200910170452 METAR KATL 170452Z 32012KT 10SM FEW018 BKN024 OVC035 09/06 A2997 RMK AO2 SLP149 T00890056 401610089=
200910170352 METAR KATL 170352Z 30011G18KT 10SM BKN018 OVC025 09/06 A2997 RMK AO2 SLP150 T00890061=
200910170252 METAR KATL 170252Z 31013G20KT 10SM BKN020 OVC035 09/06 A2997 RMK AO2 SLP148 T00940061 51009=
200910170152 METAR KATL 170152Z 31014G20KT 10SM FEW015 BKN022 OVC035 09/06 A2996 RMK AO2 SLP146 T00940061=
200910170052 METAR KATL 170052Z 30010KT 10SM SCT015 BKN025 OVC040 10/07 A2996 RMK AO2 SLP144 T01000072=
200910162352 METAR KATL 162352Z 31010KT 10SM FEW020 OVC036 10/07 A2994 RMK AO2 SLP139 T01000067 10128 20100 53014=
200910162337 SPECI KATL 162337Z 32012KT 10SM FEW018 SCT026 OVC035 10/07 A2993 RMK AO2=
200910162337 SPECI KATL 162337Z 32012KT 10SM FEW018 SCT026 OVC035 10/07 A2993 RMK AO2=
200910162320 SPECI KATL 162320Z 31012KT 10SM FEW018 BKN026 OVC035 10/07 A2993 RMK AO2=
200910162320 SPECI KATL 162320Z 31012KT 10SM FEW018 BKN026 OVC035 10/07 A2993 RMK AO2=
200910162252 METAR KATL 162252Z 32010KT 10SM SCT024 BKN032 OVC040 10/07 A2992 RMK AO2 SLP132 T01000067=
200910162152 METAR KATL 162152Z 32013KT 10SM SCT018 BKN024 OVC030 11/07 A2991 RMK AO2 SLP128 T01110072=
200910162052 METAR KATL 162052Z 33010KT 10SM BKN022 BKN026 OVC030 12/08 A2990 RMK AO2 SLP122 T01170078 53008=
200910161952 METAR KATL 161952Z 33011KT 10SM FEW020 BKN025 OVC030 12/08 A2988 RMK AO2 SLP118 T01220083=
200910161852 METAR KATL 161852Z 32010G17KT 10SM FEW017 BKN019 OVC024 12/08 A2988 RMK AO2 SLP117 T01220083=
200910161752 METAR KATL 161752Z 33011KT 10SM SCT015 OVC023 12/09 A2987 RMK AO2 SLP113 T01220089 10128 20117 50002=
200910161652 METAR KATL 161652Z 33013G20KT 10SM BKN017 OVC020 12/09 A2988 RMK AO2 SLP117 T01220089=
200910161552 METAR KATL 161552Z 32014G18KT 10SM OVC017 12/09 A2988 RMK AO2 SLP115 BINOVC T01220089=
200910161452 METAR KATL 161452Z 33016G24KT 10SM BKN015 OVC020 13/09 A2987 RMK AO2 SLP111 T01280089 51016=
200910161352 METAR KATL 161352Z 33014G21KT 10SM BKN015 BKN020 OVC200 12/10 A2986 RMK AO2 SLP108 BINOVC T01220100=
200910161252 METAR KATL 161252Z 34013G21KT 10SM BKN015 BKN020 BKN200 12/09 A2983 RMK AO2 SLP099 T01220094=
200910161243 SPECI KATL 161243Z 34015G21KT 10SM BKN017 BKN200 12/09 A2983 RMK AO2=
200910161243 SPECI KATL 161243Z 34015G21KT 10SM BKN017 BKN200 12/09 A2983 RMK AO2=
200910161222 SPECI KATL 161222Z 33015KT 10SM FEW019 SCT250 12/09 A2982 RMK AO2=
200910161222 SPECI KATL 161222Z 33015KT 10SM FEW019 SCT250 12/09 A2982 RMK AO2=
200910161152 METAR KATL 161152Z 33011G21KT 10SM BKN015 BKN020 12/10 A2982 RMK AO2 SLP095 70060 T01220100 10150 20122 53017=
200910161052 METAR KATL 161052Z 32010KT 10SM BKN011 OVC015 13/11 A2980 RMK AO2 SLP089 T01280111=
200910160952 METAR KATL 160952Z 31010G18KT 10SM BKN010 OVC015 13/12 A2978 RMK AO2 SLP081 T01330122=
200910160852 METAR KATL 160852Z 32009KT 9SM BKN007 BKN013 OVC021 14/13 A2977 RMK AO2 SLP076 T01440133 53006=
200910160752 METAR KATL 160752Z 34012KT 6SM BR BKN007 OVC013 14/14 A2974 RMK AO2 SLP067 T01440139=
200910160748 SPECI KATL 160748Z 34014G19KT 6SM BR BKN007 OVC016 15/14 A2974 RMK AO2 CIG 005V013=
200910160748 SPECI KATL 160748Z 34014G19KT 6SM BR BKN007 OVC016 15/14 A2974 RMK AO2 CIG 005V013=
200910160652 METAR KATL 160652Z 34010KT 3SM BR SCT009 BKN021 15/14 A2975 RMK AO2 SFC VIS 5 SLP070 T01500144=
200910160634 SPECI KATL 160634Z 34010KT 3SM BR SCT009 BKN021 16/14 A2975 RMK AO2 SFC VIS 5 $=
200910160634 SPECI KATL 160634Z 34010KT 3SM BR SCT009 BKN021 16/14 A2975 RMK AO2 SFC VIS 5 $=
200910160627 SPECI KATL 160627Z 34010KT 3SM BR SCT006 BKN009 BKN021 16/15 A2976 RMK AO2 SFC VIS 5=
200910160627 SPECI KATL 160627Z 34010KT 3SM BR SCT006 BKN009 BKN021 16/15 A2976 RMK AO2 SFC VIS 5=
200910160619 SPECI KATL 160619Z 33009KT 1/4SM BR SCT006 BKN009 OVC021 16/15 A2976 RMK AO2 SFC VIS 5=
200910160619 SPECI KATL 160619Z 33009KT 1/4SM BR SCT006 BKN009 OVC021 16/15 A2976 RMK AO2 SFC VIS 5=
200910160552 METAR KATL 160552Z 33006KT 1/4SM BR BKN002 BKN004 OVC007 16/16 A2976 RMK AO2 SFC VIS 5 SLP074 60042 T01610156 10161 20156 50001=
200910160452 METAR KATL 160452Z 34004KT 1/4SM BR OVC002 16/16 A2977 RMK AO2 SFC VIS 4 DZB11E52 SLP076 CIG 001V004 P0000 T01560156 401610106=
200910160411 SPECI KATL 160411Z 35008KT 1/4SM -DZ BR BKN002 OVC010 16/16 A2976 RMK AO2 SFC VIS 5 DZB11 P0000=
200910160411 SPECI KATL 160411Z 35008KT 1/4SM -DZ BR BKN002 OVC010 16/16 A2976 RMK AO2 SFC VIS 5 DZB11 P0000=
200910160352 METAR KATL 160352Z 34006KT 10SM SCT004 BKN009 OVC045 16/16 A2975 RMK AO2 SLP072 T01610156=
200910160334 SPECI KATL 160334Z 00000KT 10SM SCT010 BKN020 BKN045 OVC150 16/16 A2975 RMK AO2=
200910160334 SPECI KATL 160334Z 00000KT 10SM SCT010 BKN020 BKN045 OVC150 16/16 A2975 RMK AO2=
200910160303 SPECI KATL 160303Z 00000KT 10SM FEW003 BKN010 BKN035 OVC140 16/16 A2975 RMK AO2=
200910160303 SPECI KATL 160303Z 00000KT 10SM FEW003 BKN010 BKN035 OVC140 16/16 A2975 RMK AO2=
200910160252 METAR KATL 160252Z 00000KT 10SM FEW004 BKN020 BKN035 OVC140 16/16 A2975 RMK AO2 RAE29 SLP074 P0016 60042 T01560156 53004=
200910160229 SPECI KATL 160229Z 00000KT 9SM FEW002 SCT009 BKN035 OVC140 16/16 A2974 RMK AO2 RAE29 P0016=
200910160229 SPECI KATL 160229Z 00000KT 9SM FEW002 SCT009 BKN035 OVC140 16/16 A2974 RMK AO2 RAE29 P0016=
200910160152 METAR KATL 160152Z 00000KT 7SM -RA FEW001 BKN006 OVC035 16/16 A2974 RMK AO2 SLP070 P0025 T01560156=
200910160052 METAR KATL 160052Z 00000KT 7SM -RA BKN006 OVC010 16/16 A2974 RMK AO2 RAB26 SLP067 P0001 T01560156=
200910152352 METAR KATL 152352Z 00000KT 10SM FEW003 OVC006 16/16 A2974 RMK AO2 RAB2255E11 SLP069 P0000 60016 T01560156 10156 20139 53001=
200910152318 SPECI KATL 152318Z 22003KT 10SM FEW003 BKN007 OVC110 16/15 A2974 RMK AO2 RAB2255E11 P0000=
200910152318 SPECI KATL 152318Z 22003KT 10SM FEW003 BKN007 OVC110 16/15 A2974 RMK AO2 RAB2255E11 P0000=
200910152252 METAR KATL 152252Z 00000KT 10SM FEW002 SCT007 BKN110 OVC150 16/15 A2973 RMK AO2 RAE2158 SLP067 P0000 T01560150=
200910152218 SPECI KATL 152218Z 00000KT 8SM FEW003 SCT010 BKN110 OVC150 16/15 A2972 RMK AO2 RAE2158 P0000=
200910152218 SPECI KATL 152218Z 00000KT 8SM FEW003 SCT010 BKN110 OVC150 16/15 A2972 RMK AO2 RAE2158 P0000=
200910152152 METAR KATL 152152Z 00000KT 1/4SM -RA OVC003 15/15 A2974 RMK AO2 SFC VIS 7 RAB18 SLP068 CIG 002V008 P0001 T01500150=
200910152107 SPECI KATL 152107Z 17004KT 1/2SM BR OVC003 15/15 A2974 RMK AO2 SFC VIS 4=
200910152107 SPECI KATL 152107Z 17004KT 1/2SM BR OVC003 15/15 A2974 RMK AO2 SFC VIS 4=
200910152052 METAR KATL 152052Z 15003KT 1 1/2SM BR BKN005 BKN010 OVC030 15/14 A2974 RMK AO2 SFC VIS 4 RAB24E47 SLP068 P0000 60015 T01500144 58014=
200910152007 SPECI KATL 152007Z 16006KT 3SM BR BKN008 BKN012 OVC030 15/14 A2975 RMK AO2 SFC VIS 6=
200910152007 SPECI KATL 152007Z 16006KT 3SM BR BKN008 BKN012 OVC030 15/14 A2975 RMK AO2 SFC VIS 6=
200910151952 METAR KATL 151952Z 00000KT 3SM BR FEW005 BKN010 OVC030 15/14 A2975 RMK AO2 SFC VIS 5 RAE22 SLP072 P0009 T01500139=
200910151925 SPECI KATL 151925Z 00000KT 3SM BR FEW006 BKN015 OVC030 14/14 A2977 RMK AO2 SFC VIS 6 RAE22 P0009=
200910151925 SPECI KATL 151925Z 00000KT 3SM BR FEW006 BKN015 OVC030 14/14 A2977 RMK AO2 SFC VIS 6 RAE22 P0009=
200910151911 SPECI KATL 151911Z VRB03KT 3SM R09R/4500VP6000FT -RA BR FEW002 BKN015 OVC030 14/14 A2977 RMK AO2 SFC VIS 4 P0008=
200910151911 SPECI KATL 151911Z VRB03KT 3SM R09R/4500VP6000FT -RA BR FEW002 BKN015 OVC030 14/14 A2977 RMK AO2 SFC VIS 4 P0008=
200910151852 METAR KATL 151852Z 30004KT 1SM R09R/4000VP6000FT RA BR OVC003 14/14 A2979 RMK AO2 SFC VIS 2 1/2 RAE02B20 CIG 001V004 SLP084 P0006 T01440139=
200910151752 METAR KATL 151752Z 18006KT 1/4SM R09R/4500VP6000FT -RA BR BKN002 OVC005 14/14 A2978 RMK AO2 SFC VIS 3 DZE41RAB41 SLP084 P0001 60002 T01390139 10139 20106 56028=
200910151652 METAR KATL 151652Z 19006KT 1/4SM -DZ BR BKN002 OVC005 13/13 A2981 RMK AO2 SFC VIS 3 DZB49 SLP095 P0000 T01280128=
200910151605 SPECI KATL 151605Z 14003KT 1/4SM R09R/5500VP6000FT BR OVC002 12/12 A2983 RMK AO2 SFC VIS 3=
200910151605 SPECI KATL 151605Z 14003KT 1/4SM R09R/5500VP6000FT BR OVC002 12/12 A2983 RMK AO2 SFC VIS 3=
200910151552 METAR KATL 151552Z 15006KT 1/4SM R09R/2600VP6000FT BR OVC002 12/12 A2983 RMK AO2 SFC VIS 1 SLP101 TWRINC T01220122=
200910151549 SPECI KATL 151549Z 15007KT 1/4SM R09R/2600V5500FT BR OVC002 12/12 A2983 RMK AO2 SFC VIS 1=
200910151549 SPECI KATL 151549Z 15007KT 1/4SM R09R/2600V5500FT BR OVC002 12/12 A2983 RMK AO2 SFC VIS 1=
200910151452 METAR KATL 151452Z 13005KT 1/4SM BR BKN002 OVC005 12/12 A2987 RMK AO2 SFC VIS 4 DZB07E50 SLP113 TWRINC P0001 60001 T01170117 58010=
200910151407 SPECI KATL 151407Z 12005KT 1/4SM R09R/4000VP6000FT -DZ BR OVC002 11/11 A2989 RMK AO2 SFC VIS 2 DZB07 P0000=
200910151407 SPECI KATL 151407Z 12005KT 1/4SM R09R/4000VP6000FT -DZ BR OVC002 11/11 A2989 RMK AO2 SFC VIS 2 DZB07 P0000=
200910151352 METAR KATL 151352Z 10005KT 1/4SM BR BKN002 OVC004 11/11 A2990 RMK AO2 SFC VIS 4 DZE49 SLP123 P0000 T01110111=
200910151322 SPECI KATL 151322Z 14006KT 1/4SM -DZ BR BKN002 OVC004 11/11 A2988 RMK AO2 SFC VIS 4 P0000=
200910151322 SPECI KATL 151322Z 14006KT 1/4SM -DZ BR BKN002 OVC004 11/11 A2988 RMK AO2 SFC VIS 4 P0000=
200910151252 METAR KATL 151252Z 11005KT 1/2SM -DZ BR OVC002 11/11 A2989 RMK AO2 SFC VIS 4 SLP119 P0000 T01110106=
200910151152 METAR KATL 151152Z 14004KT 1 1/2SM -DZ BR OVC002 11/11 A2990 RMK AO2 SFC VIS 6 SLP123 P0000 60000 70009 T01110106 10117 20106 55001=
200910151055 SPECI KATL 151055Z 08009KT 1 1/2SM -DZ BR OVC002 11/11 A2990 RMK AO2 SFC VIS 6 P0000=
200910151055 SPECI KATL 151055Z 08009KT 1 1/2SM -DZ BR OVC002 11/11 A2990 RMK AO2 SFC VIS 6 P0000=
200910151052 METAR KATL 151052Z 09008KT 1/2SM -DZ BR OVC002 11/11 A2989 RMK AO2 SFC VIS 4 DZE26B51 SLP120 P0000 T01110111=
200910151029 SPECI KATL 151029Z 08008KT 1/2SM BR OVC002 11/11 A2990 RMK AO2 SFC VIS 5 DZE26 P0000=
200910151029 SPECI KATL 151029Z 08008KT 1/2SM BR OVC002 11/11 A2990 RMK AO2 SFC VIS 5 DZE26 P0000=
200910151006 SPECI KATL 151006Z 09006KT 1SM -DZ BR OVC003 11/11 A2990 RMK AO2 SFC VIS 5 P0000=
200910151006 SPECI KATL 151006Z 09006KT 1SM -DZ BR OVC003 11/11 A2990 RMK AO2 SFC VIS 5 P0000=
200910150952 METAR KATL 150952Z 09007KT 1SM -DZ BR FEW003 BKN005 OVC007 11/11 A2990 RMK AO2 SFC VIS 5 DZB07 SLP123 P0000 T01110111=
200910150924 SPECI KATL 150924Z 09007KT 3SM -DZ BR OVC005 11/11 A2989 RMK AO2 SFC VIS 6 DZB07 CIG 001V007 P0000=
200910150924 SPECI KATL 150924Z 09007KT 3SM -DZ BR OVC005 11/11 A2989 RMK AO2 SFC VIS 6 DZB07 CIG 001V007 P0000=
200910150906 SPECI KATL 150906Z 10010KT 1/2SM BR FEW001 OVC003 11/11 A2990 RMK AO2 SFC VIS 4=
200910150906 SPECI KATL 150906Z 10010KT 1/2SM BR FEW001 OVC003 11/11 A2990 RMK AO2 SFC VIS 4=
200910150852 METAR KATL 150852Z 08010KT 1/2SM BR OVC001 11/11 A2990 RMK AO2 SFC VIS 4 CIG 001V004 SLP122 60000 T01110111 56009=
200910150752 METAR KATL 150752Z 08010KT 1/2SM R09R/4500V6000FT BR OVC001 11/11 A2991 RMK AO2 SFC VIS 1 SLP125 T01110111=
200910150750 SPECI KATL 150750Z 08009KT 1/2SM R09R/4500V6000FT BR OVC001 11/11 A2991 RMK AO2 SFC VIS 1=
200910150750 SPECI KATL 150750Z 08009KT 1/2SM R09R/4500V6000FT BR OVC001 11/11 A2991 RMK AO2 SFC VIS 1=
200910150726 SPECI KATL 150726Z 08008KT 5SM BR OVC001 12/11 A2992 RMK AO2=
200910150726 SPECI KATL 150726Z 08008KT 5SM BR OVC001 12/11 A2992 RMK AO2=
200910150652 METAR KATL 150652Z 12007KT 5SM BR OVC003 12/11 A2993 RMK AO2 DZE48 CIG 001V005 SLP132 P0000 T01170111=
200910150552 METAR KATL 150552Z 09010KT 5SM -DZ BR OVC003 12/12 A2994 RMK AO2 SLP136 P0000 60000 T01170117 10156 20117 58016=
200910150452 METAR KATL 150452Z 07011KT 5SM -DZ BR OVC003 12/12 A2997 RMK AO2 DZB14 SLP146 P0000 T01170117 401890117=
200910150414 SPECI KATL 150414Z 09009KT 7SM -DZ OVC004 12/12 A2998 RMK AO2 DZB14 CIG 003V007 P0000=
200910150414 SPECI KATL 150414Z 09009KT 7SM -DZ OVC004 12/12 A2998 RMK AO2 DZB14 CIG 003V007 P0000=
200910150352 METAR KATL 150352Z 09010KT 7SM OVC005 13/12 A2998 RMK AO2 SLP149 CIG 003V009 T01280122=
200910150252 METAR KATL 150252Z 09011KT 6SM BR BKN006 OVC015 13/12 A2999 RMK AO2 DZE37 SLP152 P0000 60000 T01330122 51012=
200910150152 METAR KATL 150152Z 06012G17KT 3SM -DZ BR OVC005 14/14 A2998 RMK AO2 SFC VIS 5 SLP150 CIG 003V009 P0000 T01440139=
200910150116 SPECI KATL 150116Z 09011KT 3SM -DZ BR OVC005 15/14 A2997 RMK AO2 SFC VIS 6 CIG 003V008 P0000=
200910150116 SPECI KATL 150116Z 09011KT 3SM -DZ BR OVC005 15/14 A2997 RMK AO2 SFC VIS 6 CIG 003V008 P0000=
200910150052 METAR KATL 150052Z 07012KT 2SM -DZ OVC004 15/14 A2997 RMK AO2 SFC VIS 7 SLP144 CIG 003V009 P0000 T01500144=
200910150033 SPECI KATL 150033Z 08009KT 2SM -DZ BR OVC004 15/15 A2996 RMK AO2 SFC VIS 6 CIG 003V007 P0000=
200910150033 SPECI KATL 150033Z 08009KT 2SM -DZ BR OVC004 15/15 A2996 RMK AO2 SFC VIS 6 CIG 003V007 P0000=
200910142352 METAR KATL 142352Z 07011KT 1SM -DZ BR OVC004 15/15 A2995 RMK AO2 SFC VIS 4 SLP139 CIG 003V007 P0000 60004 T01500150 10189 20150 53005=
200910142252 METAR KATL 142252Z 06011KT 1/2SM -DZ BR OVC004 16/16 A2995 RMK AO2 SFC VIS 2 1/2 SLP137 CIG 002V007 P0000 T01610156=
200910142211 SPECI KATL 142211Z 09009KT 1/2SM -DZ BR OVC004 17/17 A2994 RMK AO2 SFC VIS 2 CIG 003V007 P0000=
200910142211 SPECI KATL 142211Z 09009KT 1/2SM -DZ BR OVC004 17/17 A2994 RMK AO2 SFC VIS 2 CIG 003V007 P0000=
200910142152 METAR KATL 142152Z 08011KT 2SM -DZ BR OVC005 17/16 A2994 RMK AO2 SFC VIS 2 1/2 SLP134 CIG 003V008 P0000 T01670161=
200910142052 METAR KATL 142052Z 08011KT 2SM -DZ BR FEW002 BKN005 OVC009 18/17 A2994 RMK AO2 SFC VIS 4 SLP133 P0000 60004 T01780172 56016=
200910142002 SPECI KATL 142002Z 08008KT 2SM R09R/5500VP6000FT -DZ BR FEW002 BKN005 OVC009 18/18 A2994 RMK AO2 SFC VIS 3 P0000=
200910142002 SPECI KATL 142002Z 08008KT 2SM R09R/5500VP6000FT -DZ BR FEW002 BKN005 OVC009 18/18 A2994 RMK AO2 SFC VIS 3 P0000=
200910141952 METAR KATL 141952Z 08008KT 2 1/2SM R09R/5500VP6000FT -DZ BR FEW002 BKN005 OVC009 18/18 A2995 RMK AO2 SFC VIS 4 SLP136 P0000 T01830178=
200910141931 SPECI KATL 141931Z 07009KT 2 1/2SM -DZ BR FEW002 BKN005 OVC009 18/18 A2995 RMK AO2 SFC VIS 4 P0000=
200910141931 SPECI KATL 141931Z 07009KT 2 1/2SM -DZ BR FEW002 BKN005 OVC009 18/18 A2995 RMK AO2 SFC VIS 4 P0000=
200910141852 METAR KATL 141852Z 08006KT 2SM -DZ BR FEW002 BKN007 OVC010 19/18 A2996 RMK AO2 SFC VIS 3 RAE40DZB48 SLP139 P0004 T01890183=
200910141808 SPECI KATL 141808Z 08003KT 2SM R09R/5500VP6000FT -RA BR BKN003 BKN007 OVC009 18/18 A2998 RMK AO2 P0001=
200910141808 SPECI KATL 141808Z 08003KT 2SM R09R/5500VP6000FT -RA BR BKN003 BKN007 OVC009 18/18 A2998 RMK AO2 P0001=
200910141805 SPECI KATL 141805Z 06003KT 1 3/4SM R09R/5500VP6000FT -RA BR BKN003 OVC007 18/18 A2998 RMK AO2 TWR VIS 2 CIG 001V006 P0001=
200910141805 SPECI KATL 141805Z 06003KT 1 3/4SM R09R/5500VP6000FT -RA BR BKN003 OVC007 18/18 A2998 RMK AO2 TWR VIS 2 CIG 001V006 P0001=
200910141752 METAR KATL 141752Z 00000KT 2SM R09R/5500VP6000FT -RA BR OVC005 18/18 A2999 RMK AO2 DZE43RAB43 CIG 001V008 SLP149 P0000 60005 T01830178 10183 20167 57015=
200910141743 SPECI KATL 141743Z VRB03KT 2SM R09R/6000VP6000FT -RA BR OVC005 18/18 A2999 RMK AO2 DZE43RAB43 CIG 004V008 P0000=
200910141743 SPECI KATL 141743Z VRB03KT 2SM R09R/6000VP6000FT -RA BR OVC005 18/18 A2999 RMK AO2 DZE43RAB43 CIG 004V008 P0000=
200910141652 METAR KATL 141652Z 13004KT 3SM -DZ BR OVC005 18/18 A3000 RMK AO2 SFC VIS 5 SLP153 P0000 T01780178=
200910141552 METAR KATL 141552Z 12006KT 2 1/2SM -DZ BR OVC005 17/17 A3002 RMK AO2 SFC VIS 3 RAE45DZB48 SLP161 P0000 T01720167=
200910141452 METAR KATL 141452Z 10007KT 2 1/2SM -RA BR FEW003 BKN005 OVC008 17/17 A3003 RMK AO2 SFC VIS 4 SLP164 P0002 60005 T01720167 58002=
200910141428 SPECI KATL 141428Z 10008KT 2 1/2SM -RA BR OVC005 17/17 A3004 RMK AO2 SFC VIS 4 P0002=
200910141428 SPECI KATL 141428Z 10008KT 2 1/2SM -RA BR OVC005 17/17 A3004 RMK AO2 SFC VIS 4 P0002=
200910141354 SPECI KATL 141354Z 10009KT 1SM -RA BR OVC005 17/17 A3004 RMK AO2 SFC VIS 4 P0000=
200910141354 SPECI KATL 141354Z 10009KT 1SM -RA BR OVC005 17/17 A3004 RMK AO2 SFC VIS 4 P0000=
200910141352 METAR KATL 141352Z 10008KT 3SM -RA BR OVC005 17/17 A3004 RMK AO2 SFC VIS 5 DZB1256E47RAB47 SLP168 P0000 T01670167=
200910141326 SPECI KATL 141326Z 10006KT 3SM -DZ BR OVC005 17/17 A3004 RMK AO2 SFC VIS 6 DZB1256 P0000=
200910141326 SPECI KATL 141326Z 10006KT 3SM -DZ BR OVC005 17/17 A3004 RMK AO2 SFC VIS 6 DZB1256 P0000=
200910141257 SPECI KATL 141257Z 10008KT 2SM -DZ BR OVC004 17/17 A3004 RMK AO2 SFC VIS 5 DZB56 P0000=
200910141257 SPECI KATL 141257Z 10008KT 2SM -DZ BR OVC004 17/17 A3004 RMK AO2 SFC VIS 5 DZB56 P0000=
200910141252 METAR KATL 141252Z 10007KT 2SM BR OVC006 17/16 A3004 RMK AO2 RAE43 SLP166 P0003 T01670161=
200910141226 SPECI KATL 141226Z 10006KT 2SM -RA BR OVC007 17/16 A3003 RMK AO2 P0003=
200910141226 SPECI KATL 141226Z 10006KT 2SM -RA BR OVC007 17/16 A3003 RMK AO2 P0003=
200910141217 SPECI KATL 141217Z 10008KT 2SM -RA BR OVC032 17/16 A3003 RMK AO2 SFC VIS 4 P0002=
200910141217 SPECI KATL 141217Z 10008KT 2SM -RA BR OVC032 17/16 A3003 RMK AO2 SFC VIS 4 P0002=
200910141152 METAR KATL 141152Z 10008KT 4SM -RA BR BKN007 OVC020 17/16 A3004 RMK AO2 RAB15 SLP167 P0001 60075 70075 T01670161 10189 20167 55002=
200910141142 SPECI KATL 141142Z 11007KT 10SM BKN007 OVC020 17/16 A3004 RMK AO2 RAB15E36 P0000=
200910141142 SPECI KATL 141142Z 11007KT 10SM BKN007 OVC020 17/16 A3004 RMK AO2 RAB15E36 P0000=
200910141052 METAR KATL 141052Z 11008KT 10SM SCT011 OVC030 17/16 A3003 RMK AO2 RAE34 SLP165 P0002 T01670161=
200910141019 SPECI KATL 141019Z 10008KT 10SM -RA BKN011 OVC030 17/16 A3005 RMK AO2 P0002=
200910141019 SPECI KATL 141019Z 10008KT 10SM -RA BKN011 OVC030 17/16 A3005 RMK AO2 P0002=
200910140952 METAR KATL 140952Z 12006KT 6SM -RA BR BKN008 BKN030 OVC070 17/17 A3005 RMK AO2 SLP169 P0011 T01720167 $=
200910140948 SPECI KATL 140948Z 12005KT 6SM -RA BR BKN008 BKN030 OVC070 17/17 A3005 RMK AO2 P0011 $=
200910140948 SPECI KATL 140948Z 12005KT 6SM -RA BR BKN008 BKN030 OVC070 17/17 A3005 RMK AO2 P0011 $=
200910140932 SPECI KATL 140932Z 11006KT 6SM -RA BR BKN009 BKN030 OVC070 17/17 A3004 RMK AO2 P0009 $=
200910140932 SPECI KATL 140932Z 11006KT 6SM -RA BR BKN009 BKN030 OVC070 17/17 A3004 RMK AO2 P0009 $=
200910140852 METAR KATL 140852Z 15004KT 4SM RA BR SCT020 BKN050 OVC070 17/17 A3005 RMK AO2 SLP168 P0026 60061 T01720167 56010 $=
200910140752 METAR KATL 140752Z 07005KT 4SM +RA BR FEW026 BKN040 OVC060 17/17 A3005 RMK AO2 SLP171 P0030 T01720172 $=
200910140652 METAR KATL 140652Z 07010KT 6SM RA BR OVC040 18/17 A3006 RMK AO2 RAB06 SLP174 P0005 T01780172=
200910140552 METAR KATL 140552Z 04006KT 10SM FEW070 OVC090 19/17 A3008 RMK AO2 SLP178 60000 T01890167 10194 20183 56018=
200910140452 METAR KATL 140452Z 02003KT 10SM BKN090 BKN120 OVC150 19/17 A3009 RMK AO2 SLP182 T01890167 402280144=
200910140352 METAR KATL 140352Z 00000KT 10SM FEW090 BKN120 OVC150 18/17 A3011 RMK AO2 RAB30E41 SLP190 P0000 T01830167=
200910140252 METAR KATL 140252Z 28003KT 10SM BKN095 OVC150 19/16 A3013 RMK AO2 SLP199 T01890161 53003=
200910140152 METAR KATL 140152Z 19003KT 10SM BKN150 OVC200 19/17 A3011 RMK AO2 SLP191 T01890167=
200910140052 METAR KATL 140052Z 16004KT 10SM BKN150 OVC200 19/17 A3011 RMK AO2 SLP192 T01890167=
200910132352 METAR KATL 132352Z 16004KT 10SM FEW035 SCT150 BKN200 19/17 A3012 RMK AO2 SLP196 T01940167 10228 20194 56004=
200910132252 SPECI KATL 132252Z 16003KT 10SM BKN035 BKN150 BKN200 21/16 A3012 RMK AO2 SLP196 T02110156=
200910132152 METAR KATL 132152Z 11003KT 10SM BKN030 BKN200 22/16 A3012 RMK AO2 SLP196 T02170156=
200910132052 METAR KATL 132052Z 12003KT 10SM BKN030 BKN250 22/16 A3013 RMK AO2 SLP199 T02220156 55007=
200910131952 METAR KATL 131952Z 08006KT 10SM SCT027 SCT150 SCT250 23/16 A3013 RMK AO2 SLP198 T02280161=
200910131930 SPECI KATL 131930Z 18005KT 10SM BKN027 BKN250 22/16 A3013 RMK AO2=
200910131930 SPECI KATL 131930Z 18005KT 10SM BKN027 BKN250 22/16 A3013 RMK AO2=
200910131852 METAR KATL 131852Z 09004KT 10SM FEW025 SCT250 22/16 A3013 RMK AO2 SLP199 T02170156=
200910131752 METAR KATL 131752Z 07004KT 10SM FEW020 SCT250 21/16 A3016 RMK AO2 SLP207 60000 T02060156 10206 20144 58012=
200910131652 METAR KATL 131652Z 00000KT 10SM SCT017 SCT250 19/14 A3018 RMK AO2 SLP215 T01940144=
200910131552 METAR KATL 131552Z 06004KT 10SM BKN015 BKN020 18/14 A3019 RMK AO2 SLP221 T01780144=
200910131452 METAR KATL 131452Z 06007KT 10SM FEW012 BKN015 OVC018 17/13 A3021 RMK AO2 SLP227 60000 T01670133 50001=
200910131420 SPECI KATL 131420Z 11004KT 10SM FEW007 SCT009 OVC015 16/14 A3021 RMK AO2=
200910131420 SPECI KATL 131420Z 11004KT 10SM FEW007 SCT009 OVC015 16/14 A3021 RMK AO2=
200910131352 METAR KATL 131352Z 09005KT 9SM BKN007 BKN010 OVC017 16/14 A3021 RMK AO2 DZE26 SLP228 P0000 T01560144=
200910131252 METAR KATL 131252Z 07007KT 2SM -DZ BR BKN007 OVC018 15/14 A3022 RMK AO2 SFC VIS 5 SLP230 P0000 T01500139=
200910131152 METAR KATL 131152Z 07007KT 2SM -DZ BR BKN007 OVC012 14/14 A3021 RMK AO2 SFC VIS 4 CIG 005V010 SLP227 P0000 60000 70116 T01440139 10156 20144 51006 $=
200910131150 SPECI KATL 131150Z 07007KT 2SM -DZ BR BKN007 OVC012 14/14 A3021 RMK AO2 SFC VIS 4 CIG 005V010 P0000 $=
200910131150 SPECI KATL 131150Z 07007KT 2SM -DZ BR BKN007 OVC012 14/14 A3021 RMK AO2 SFC VIS 4 CIG 005V010 P0000 $=
200910131119 SPECI KATL 131119Z 08009KT 2SM -DZ BR BKN003 OVC007 14/14 A3020 RMK AO2 SFC VIS 3 CIG 001V005 P0000 $=
200910131119 SPECI KATL 131119Z 08009KT 2SM -DZ BR BKN003 OVC007 14/14 A3020 RMK AO2 SFC VIS 3 CIG 001V005 P0000 $=
200910131052 METAR KATL 131052Z 05007KT 1SM -DZ BR BKN003 OVC009 15/14 A3020 RMK AO2 SFC VIS 3 DZB51 CIG 001V007 SLP223 P0000 T01500144 $=
200910131026 SPECI KATL 131026Z 07006KT 1SM BR BKN003 OVC009 14/14 A3019 RMK AO2 SFC VIS 3 $=
200910131026 SPECI KATL 131026Z 07006KT 1SM BR BKN003 OVC009 14/14 A3019 RMK AO2 SFC VIS 3 $=
200910131020 SPECI KATL 131020Z 08007KT 2SM BR BKN003 OVC005 14/14 A3019 RMK AO2 SFC VIS 3 $=
200910131020 SPECI KATL 131020Z 08007KT 2SM BR BKN003 OVC005 14/14 A3019 RMK AO2 SFC VIS 3 $=
200910131007 SPECI KATL 131007Z 07009KT 2SM BR OVC005 14/14 A3019 RMK AO2 SFC VIS 3 $=
200910131007 SPECI KATL 131007Z 07009KT 2SM BR OVC005 14/14 A3019 RMK AO2 SFC VIS 3 $=
200910130952 METAR KATL 130952Z 08007KT 3SM BR OVC005 15/14 A3019 RMK AO2 CIG 001V007 SLP220 T01500144 $=
200910130852 METAR KATL 130852Z 07006KT 3SM BR OVC005 15/14 A3018 RMK AO2 CIG 004V007 SLP215 T01500144 51002 $=
200910130752 METAR KATL 130752Z 07007KT 6SM BR OVC007 15/14 A3017 RMK AO2 SLP214 T01500144 $=
200910130652 METAR KATL 130652Z 08008KT 7SM BKN009 OVC150 16/14 A3018 RMK AO2 SLP216 T01560144 $=
200910130631 SPECI KATL 130631Z 08008KT 7SM BKN009 OVC015 16/14 A3017 RMK AO2 CIG 005V011 $=
200910130631 SPECI KATL 130631Z 08008KT 7SM BKN009 OVC015 16/14 A3017 RMK AO2 CIG 005V011 $=
200910130552 METAR KATL 130552Z 08006KT 8SM FEW008 OVC015 16/14 A3017 RMK AO2 SLP213 60000 T01560144 10167 20156 55002 $=
200910130546 SPECI KATL 130546Z 08006KT 10SM BKN008 OVC015 16/15 A3017 RMK AO2 $=
200910130546 SPECI KATL 130546Z 08006KT 10SM BKN008 OVC015 16/15 A3017 RMK AO2 $=
200910130452 METAR KATL 130452Z 08006KT 10SM BKN008 OVC015 16/14 A3017 RMK AO2 SLP212 T01560144 402830150 $=
200910130443 SPECI KATL 130443Z 07007KT 10SM BKN008 OVC015 16/15 A3017 RMK AO2 $=
200910130443 SPECI KATL 130443Z 07007KT 10SM BKN008 OVC015 16/15 A3017 RMK AO2 $=
200910130352 METAR KATL 130352Z 08009KT 10SM OVC010 16/15 A3018 RMK AO2 CIG 007V013 SLP217 T01560150 $=
200910130252 METAR KATL 130252Z 09009KT 10SM SCT007 BKN012 OVC025 16/15 A3017 RMK AO2 SLP215 60000 T01610150 51007 $=
200910130206 SPECI KATL 130206Z 07009KT 10SM SCT008 BKN014 OVC025 16/15 A3017 RMK AO2 $=
200910130206 SPECI KATL 130206Z 07009KT 10SM SCT008 BKN014 OVC025 16/15 A3017 RMK AO2 $=
200910130152 METAR KATL 130152Z 07011KT 10SM BKN008 BKN013 OVC025 16/15 A3017 RMK AO2 SLP213 T01610150 $=
200910130119 SPECI KATL 130119Z 09011KT 10SM BKN007 BKN013 OVC025 16/16 A3016 RMK AO2 $=
200910130119 SPECI KATL 130119Z 09011KT 10SM BKN007 BKN013 OVC025 16/16 A3016 RMK AO2 $=
200910130052 METAR KATL 130052Z 09010KT 10SM FEW006 SCT012 BKN028 OVC150 16/16 A3016 RMK AO2 RAE2359 SLP210 SCT012 V BKN P0000 T01610156 $=
200910130020 SPECI KATL 130020Z 11007KT 10SM SCT008 BKN013 OVC030 16/16 A3016 RMK AO2 RAE2359 P0000 $=
200910130020 SPECI KATL 130020Z 11007KT 10SM SCT008 BKN013 OVC030 16/16 A3016 RMK AO2 RAE2359 P0000 $=
200910122352 METAR KATL 122352Z 08007KT 10SM -RA OVC009 16/16 A3015 RMK AO2 RAB2253 SLP207 CIG 006V012 P0000 60001 T01610156 10172 20161 53012 $=
200910122252 METAR KATL 122252Z 13007KT 10SM BKN009 BKN080 BKN150 OVC200 17/16 A3012 RMK AO2 RAE2154 SLP197 BKN009 V SCT P0000 T01670161 $=
200910122152 METAR KATL 122152Z 11005KT 10SM -RA FEW007 SCT090 BKN120 OVC150 17/16 A3013 RMK AO2 RAE20B41 SLP199 P0000 T01670161 $=
200910122101 SPECI KATL 122101Z 11014G21KT 10SM -RA SCT007 BKN040 OVC090 16/16 A3011 RMK AO2 P0000 $=
200910122101 SPECI KATL 122101Z 11014G21KT 10SM -RA SCT007 BKN040 OVC090 16/16 A3011 RMK AO2 P0000 $=
200910122052 METAR KATL 122052Z 11016G22KT 10SM -RA BKN007 BKN040 OVC090 17/16 A3012 RMK AO2 RAB21 SLP195 P0000 60001 T01670161 58019 $=
200910122008 SPECI KATL 122008Z 10013G18KT 10SM BKN007 BKN040 OVC090 17/16 A3014 RMK AO2 $=
200910122008 SPECI KATL 122008Z 10013G18KT 10SM BKN007 BKN040 OVC090 17/16 A3014 RMK AO2 $=
200910121952 METAR KATL 121952Z 09010G16KT 10SM BKN009 BKN030 OVC042 17/16 A3016 RMK AO2 RAE19 SLP208 P0001 T01720161 $=
200910121918 SPECI KATL 121918Z 05012KT 3SM -RA BR BKN009 BKN012 OVC020 17/16 A3017 RMK AO2 P0001 $=
200910121918 SPECI KATL 121918Z 05012KT 3SM -RA BR BKN009 BKN012 OVC020 17/16 A3017 RMK AO2 P0001 $=
200910121858 SPECI KATL 121858Z 05012KT 2 1/2SM -RA BR BKN009 BKN012 OVC030 17/16 A3017 RMK AO2 TWR VIS 3 P0000 $=
200910121858 SPECI KATL 121858Z 05012KT 2 1/2SM -RA BR BKN009 BKN012 OVC030 17/16 A3017 RMK AO2 TWR VIS 3 P0000 $=
200910121852 METAR KATL 121852Z 05012KT 3SM -RA BR BKN009 BKN012 OVC030 17/16 A3017 RMK AO2 SLP212 P0000 T01670161 $=
200910121752 METAR KATL 121752Z 04012KT 5SM -RA BR FEW002 BKN007 OVC030 16/16 A3017 RMK AO2 SLP214 P0001 60115 T01610156 10161 20150 58002 $=
200910121726 SPECI KATL 121726Z 05012KT 6SM -RA BR FEW002 BKN007 OVC030 16/16 A3018 RMK AO2 P0001 $=
200910121726 SPECI KATL 121726Z 05012KT 6SM -RA BR FEW002 BKN007 OVC030 16/16 A3018 RMK AO2 P0001 $=
200910121654 SPECI KATL 121654Z 04007KT 2 1/2SM -RA BR FEW002 BKN007 OVC030 16/16 A3018 RMK AO2 SFC VIS 5 P0000 $=
200910121654 SPECI KATL 121654Z 04007KT 2 1/2SM -RA BR FEW002 BKN007 OVC030 16/16 A3018 RMK AO2 SFC VIS 5 P0000 $=
200910121652 METAR KATL 121652Z 02008KT 2 1/2SM -RA BR FEW002 SCT012 OVC030 16/16 A3018 RMK AO2 WSHFT 1622 SFC VIS 5 SLP216 P0022 T01610156 $=
200910121638 SPECI KATL 121638Z 04010G16KT 2 1/2SM RA BR FEW002 SCT012 OVC025 16/16 A3017 RMK AO2 WSHFT 1622 SFC VIS 4 P0019 $=
200910121638 SPECI KATL 121638Z 04010G16KT 2 1/2SM RA BR FEW002 SCT012 OVC025 16/16 A3017 RMK AO2 WSHFT 1622 SFC VIS 4 P0019 $=
200910121552 METAR KATL 121552Z 05013KT 2 1/2SM RA BR FEW002 SCT012 OVC025 15/15 A3018 RMK AO2 SFC VIS 4 SLP215 P0026 T01500150 $=
200910121543 SPECI KATL 121543Z 04016KT 2 1/2SM RA BR FEW001 BKN008 OVC012 15/15 A3018 RMK AO2 SFC VIS 4 P0022 $=
200910121543 SPECI KATL 121543Z 04016KT 2 1/2SM RA BR FEW001 BKN008 OVC012 15/15 A3018 RMK AO2 SFC VIS 4 P0022 $=
200910121452 METAR KATL 121452Z 02014KT 1SM RA BR FEW001 BKN008 OVC017 16/16 A3018 RMK AO2 SFC VIS 3 SLP215 P0034 60066 T01560156 53012 $=
200910121352 METAR KATL 121352Z 08014KT 1SM +RA BR FEW001 BKN008 OVC019 16/16 A3014 RMK AO2 SFC VIS 3 SLP201 P0025 T01560156 $=
200910121341 SPECI KATL 121341Z 07014KT 1SM R09R/5000VP6000FT +RA BR FEW001 BKN008 OVC019 16/16 A3014 RMK AO2 SFC VIS 2 P0019 $=
200910121341 SPECI KATL 121341Z 07014KT 1SM R09R/5000VP6000FT +RA BR FEW001 BKN008 OVC019 16/16 A3014 RMK AO2 SFC VIS 2 P0019 $=
200910121312 SPECI KATL 121312Z 07013G19KT 6SM R09R/5000VP6000FT -RA BR FEW001 BKN008 OVC010 16/16 A3013 RMK AO2 P0008 $=
200910121312 SPECI KATL 121312Z 07013G19KT 6SM R09R/5000VP6000FT -RA BR FEW001 BKN008 OVC010 16/16 A3013 RMK AO2 P0008 $=
200910121306 SPECI KATL 121306Z 06011G19KT 1 3/4SM R09R/5000VP6000FT +RA BR SCT001 OVC006 16/16 A3013 RMK AO2 TWR VIS 4 CIG 005V010 P0006 $=
200910121306 SPECI KATL 121306Z 06011G19KT 1 3/4SM R09R/5000VP6000FT +RA BR SCT001 OVC006 16/16 A3013 RMK AO2 TWR VIS 4 CIG 005V010 P0006 $=
200910121252 METAR KATL 121252Z 07016G20KT 5SM -RA BR FEW001 BKN006 OVC024 16/16 A3012 RMK AO2 CIG 005V010 SLP196 P0007 T01610161 $=
200910121152 METAR KATL 121152Z 08013KT 6SM RA BR FEW001 BKN008 OVC030 16/14 A3014 RMK AO2 WSHFT 1105 SLP200 P0027 60134 70134 T01560144 10189 20156 53012 $=
200910121142 SPECI KATL 121142Z 07011KT 7SM -RA SCT001 BKN008 OVC031 16/16 A3014 RMK AO2 WSHFT 1105 CIG 005V011 P0026 $=
200910121142 SPECI KATL 121142Z 07011KT 7SM -RA SCT001 BKN008 OVC031 16/16 A3014 RMK AO2 WSHFT 1105 CIG 005V011 P0026 $=
200910121125 SPECI KATL 121125Z 08012KT 2 1/2SM -RA BR BKN001 BKN006 OVC010 16/16 A3013 RMK AO2 WSHFT 1105 SFC VIS 4 P0013 $=
200910121125 SPECI KATL 121125Z 08012KT 2 1/2SM -RA BR BKN001 BKN006 OVC010 16/16 A3013 RMK AO2 WSHFT 1105 SFC VIS 4 P0013 $=
200910121106 SPECI KATL 121106Z 07012KT 2 1/2SM -RA BR BKN001 BKN006 OVC011 16/16 A3014 RMK AO2 SFC VIS 3 P0006 $=
200910121106 SPECI KATL 121106Z 07012KT 2 1/2SM -RA BR BKN001 BKN006 OVC011 16/16 A3014 RMK AO2 SFC VIS 3 P0006 $=
200910121052 METAR KATL 121052Z 09008G21KT 3SM -RA SCT001 BKN006 OVC027 16/16 A3011 RMK AO2 SFC VIS 8 CIG 004V008 SLP193 P0046 T01560156 $=
200910121041 SPECI KATL 121041Z 08014KT 3SM -RA BR BKN001 BKN006 OVC029 16/16 A3012 RMK AO2 SFC VIS 6 P0044 $=
200910121041 SPECI KATL 121041Z 08014KT 3SM -RA BR BKN001 BKN006 OVC029 16/16 A3012 RMK AO2 SFC VIS 6 P0044 $=
200910120952 METAR KATL 120952Z 08016KT 1SM R09R/5000VP6000FT +RA BR BKN001 OVC006 17/16 A3010 RMK AO2 SFC VIS 1 3/4 SLP188 P0044 T01670161 $=
200910120944 SPECI KATL 120944Z 08010G18KT 2SM +RA BR BKN001 BKN006 OVC020 17/16 A3011 RMK AO2 VIS 1 1/2V3 P0026 $=
200910120944 SPECI KATL 120944Z 08010G18KT 2SM +RA BR BKN001 BKN006 OVC020 17/16 A3011 RMK AO2 VIS 1 1/2V3 P0026 $=
200910120852 METAR KATL 120852Z 09013KT 5SM -RA BR BKN008 OVC019 17/16 A3012 RMK AO2 SLP194 P0016 60017 T01670156 58013 $=
200910120814 SPECI KATL 120814Z 09013KT 5SM -RA BR FEW001 BKN008 OVC019 17/16 A3013 RMK AO2 P0014=
200910120814 SPECI KATL 120814Z 09013KT 5SM -RA BR FEW001 BKN008 OVC019 17/16 A3013 RMK AO2 P0014=
200910120807 SPECI KATL 120807Z 09013KT 5SM -RA BR SCT001 BKN011 OVC019 17/16 A3013 RMK AO2 P0014=
200910120807 SPECI KATL 120807Z 09013KT 5SM -RA BR SCT001 BKN011 OVC019 17/16 A3013 RMK AO2 P0014=
200910120756 SPECI KATL 120756Z 09011KT 2 1/2SM +RA BR BKN008 OVC042 17/16 A3014 RMK AO2 P0004=
200910120756 SPECI KATL 120756Z 09011KT 2 1/2SM +RA BR BKN008 OVC042 17/16 A3014 RMK AO2 P0004=
200910120752 METAR KATL 120752Z 09012KT 6SM -RA BR SCT008 BKN019 OVC042 17/16 A3014 RMK AO2 SLP201 P0001 T01720161=
200910120652 METAR KATL 120652Z 09008KT 7SM -RA SCT011 OVC050 18/16 A3016 RMK AO2 RAB42 SLP206 P0000 T01780161=
200910120552 METAR KATL 120552Z 10009KT 10SM BKN045 BKN070 OVC250 19/17 A3016 RMK AO2 SLP207 T01890167 10228 20189 58005=
200910120452 METAR KATL 120452Z 11006KT 10SM OVC043 19/17 A3018 RMK AO2 SLP213 T01890167 402500133=
200910120352 METAR KATL 120352Z 10009KT 10SM BKN047 BKN120 OVC250 19/17 A3018 RMK AO2 SLP212 T01940167=
200910120252 METAR KATL 120252Z 10007KT 10SM BKN042 BKN060 OVC250 20/17 A3018 RMK AO2 SLP214 T02000167 52011=
200910120152 METAR KATL 120152Z 08006KT 10SM FEW044 SCT060 OVC250 21/16 A3017 RMK AO2 SLP210 T02060161=
200910120052 METAR KATL 120052Z 10003KT 10SM SCT048 SCT060 BKN250 21/16 A3016 RMK AO2 SLP208 T02110161=
200910112352 METAR KATL 112352Z 05007KT 10SM SCT065 SCT120 SCT250 23/15 A3015 RMK AO2 SLP203 T02280150 10250 20222 50001=
200910112252 METAR KATL 112252Z 31003KT 10SM SCT060 SCT110 OVC200 22/15 A3015 RMK AO2 SLP205 T02220150=
200910112152 METAR KATL 112152Z 35004KT 10SM FEW055 BKN200 23/15 A3014 RMK AO2 SLP201 T02330150=
200910112052 METAR KATL 112052Z 27003KT 10SM FEW038 SCT065 BKN250 23/15 A3014 RMK AO2 SLP202 T02330150 56011=
200910111952 METAR KATL 111952Z 30004KT 10SM SCT038 BKN250 24/15 A3015 RMK AO2 SLP202 T02390150=
200910111852 METAR KATL 111852Z 00000KT 10SM SCT033 BKN250 23/15 A3015 RMK AO2 SLP205 T02280150=
200910111752 METAR KATL 111752Z VRB03KT 10SM SCT030 BKN250 23/16 A3017 RMK AO2 SLP212 T02280156 10228 20133 58007=
200910111652 SPECI KATL 111652Z 00000KT 10SM SCT020 BKN250 21/16 A3019 RMK AO2 SLP217 T02110156=
200910111552 METAR KATL 111552Z VRB03KT 10SM SCT015 SCT250 19/15 A3020 RMK AO2 SLP221 T01940150=
200910111452 METAR KATL 111452Z 04004KT 10SM SCT015 18/14 A3020 RMK AO2 SLP220 T01780139 50011=
200910111352 METAR KATL 111352Z 31004KT 9SM SCT005 16/13 A3020 RMK AO2 SLP224 T01560133=
200910111308 SPECI KATL 111308Z 34006KT 8SM SCT005 15/13 A3019 RMK AO2=
200910111308 SPECI KATL 111308Z 34006KT 8SM SCT005 15/13 A3019 RMK AO2=
200910111252 METAR KATL 111252Z 35007KT 8SM BKN003 14/13 A3018 RMK AO2 SLP218 T01440128=
200910111247 SPECI KATL 111247Z 33005KT 7SM BKN003 14/13 A3018 RMK AO2=
200910111247 SPECI KATL 111247Z 33005KT 7SM BKN003 14/13 A3018 RMK AO2=
200910111152 METAR KATL 111152Z 34009KT 1SM BR OVC003 13/13 A3016 RMK AO2 SFC VIS 6 SLP211 BINOVC E T01330128 10161 20133 53015=
200910111130 SPECI KATL 111130Z 33007KT 1SM BR OVC003 13/13 A3016 RMK AO2 SFC VIS 6=
200910111130 SPECI KATL 111130Z 33007KT 1SM BR OVC003 13/13 A3016 RMK AO2 SFC VIS 6=
200910111118 SPECI KATL 111118Z 32008KT 2 1/2SM BKN003 13/13 A3015 RMK AO2 SFC VIS 7=
200910111118 SPECI KATL 111118Z 32008KT 2 1/2SM BKN003 13/13 A3015 RMK AO2 SFC VIS 7=
200910111059 SPECI KATL 111059Z 33009KT 8SM BKN003 13/13 A3015 RMK AO2=
200910111059 SPECI KATL 111059Z 33009KT 8SM BKN003 13/13 A3015 RMK AO2=
200910111052 METAR KATL 111052Z 33009KT 10SM FEW005 14/13 A3015 RMK AO2 SLP205 T01390133=
200910110952 METAR KATL 110952Z 32006KT 10SM FEW005 14/13 A3013 RMK AO2 SLP199 T01390133=
200910110855 SPECI KATL 110855Z 31005KT 10SM SCT004 14/14 A3012 RMK AO2=
200910110855 SPECI KATL 110855Z 31005KT 10SM SCT004 14/14 A3012 RMK AO2=
200910110852 METAR KATL 110852Z 31005KT 10SM BKN004 14/14 A3012 RMK AO2 SLP194 T01440139 55001=
200910110752 METAR KATL 110752Z 35006KT 10SM BKN003 BKN200 16/14 A3011 RMK AO2 SLP191 T01560144=
200910110737 SPECI KATL 110737Z 34007KT 10SM BKN003 BKN200 16/14 A3011 RMK AO2=
200910110737 SPECI KATL 110737Z 34007KT 10SM BKN003 BKN200 16/14 A3011 RMK AO2=
200910110716 SPECI KATL 110716Z 33007KT 10SM FEW003 SCT200 16/14 A3012 RMK AO2=
200910110716 SPECI KATL 110716Z 33007KT 10SM FEW003 SCT200 16/14 A3012 RMK AO2=
200910110652 METAR KATL 110652Z 32007KT 10SM FEW200 16/15 A3011 RMK AO2 SLP192 T01560150=
200910110552 METAR KATL 110552Z 31006KT 10SM FEW120 SCT200 16/15 A3012 RMK AO2 SLP194 T01610150 10194 20161 55001=
200910110452 METAR KATL 110452Z 33007KT 10SM FEW060 SCT120 BKN200 17/16 A3011 RMK AO2 SLP192 T01720156 402330172=
200910110352 METAR KATL 110352Z 33006KT 10SM BKN055 BKN120 18/16 A3012 RMK AO2 SLP194 T01780156=
200910110252 METAR KATL 110252Z 33005KT 10SM FEW019 BKN060 OVC120 18/16 A3012 RMK AO2 SLP194 T01830161 51012=
200910110225 SPECI KATL 110225Z 33006KT 10SM SCT019 OVC060 18/16 A3011 RMK AO2=
200910110225 SPECI KATL 110225Z 33006KT 10SM SCT019 OVC060 18/16 A3011 RMK AO2=
200910110152 METAR KATL 110152Z 32006KT 10SM BKN019 OVC030 19/17 A3012 RMK AO2 SLP195 T01890167=
200910110107 SPECI KATL 110107Z 31005KT 10SM BKN019 BKN048 OVC120 19/16 A3011 RMK AO2=
200910110107 SPECI KATL 110107Z 31005KT 10SM BKN019 BKN048 OVC120 19/16 A3011 RMK AO2=
200910110052 METAR KATL 110052Z 33008KT 10SM FEW015 SCT050 BKN120 BKN250 19/16 A3009 RMK AO2 SLP185 T01890161=
200910102352 METAR KATL 102352Z 32004KT 10SM FEW015 BKN060 BKN110 BKN250 19/16 A3009 RMK AO2 SLP182 T01940161 10222 20189 53009=
200910102252 METAR KATL 102252Z 31006KT 10SM FEW015 SCT070 BKN110 BKN250 19/16 A3008 RMK AO2 SLP179 T01940161=
200910102152 METAR KATL 102152Z 33007KT 10SM SCT015 BKN080 BKN100 20/16 A3007 RMK AO2 SLP175 T02000156=
200910102052 METAR KATL 102052Z 32009KT 10SM SCT027 BKN080 BKN150 21/16 A3006 RMK AO2 SLP173 T02110156 55001=
200910101952 METAR KATL 101952Z 35008KT 10SM SCT028 BKN070 BKN150 22/16 A3005 RMK AO2 SLP170 T02170161=
200910101909 SPECI KATL 101909Z 33008KT 10SM SCT028 BKN080 BKN150 22/17 A3005 RMK AO2=
200910101909 SPECI KATL 101909Z 33008KT 10SM SCT028 BKN080 BKN150 22/17 A3005 RMK AO2=
200910101852 METAR KATL 101852Z 31008KT 10SM BKN028 BKN080 OVC150 22/16 A3005 RMK AO2 SLP169 T02170161=
200910101817 SPECI KATL 101817Z 33008KT 10SM BKN026 BKN080 BKN150 22/16 A3006 RMK AO2=
200910101817 SPECI KATL 101817Z 33008KT 10SM BKN026 BKN080 BKN150 22/16 A3006 RMK AO2=
200910101752 METAR KATL 101752Z 30008KT 10SM SCT020 BKN075 BKN150 22/16 A3006 RMK AO2 SLP173 T02170161 10233 20183 50002=
200910101652 METAR KATL 101652Z 32008KT 10SM SCT025 BKN075 BKN150 23/17 A3007 RMK AO2 SLP175 T02280167=
200910101552 METAR KATL 101552Z 33008KT 10SM FEW020 SCT085 BKN150 22/17 A3006 RMK AO2 SLP171 T02170172=
200910101452 METAR KATL 101452Z 31009KT 10SM FEW015 SCT090 BKN150 21/17 A3006 RMK AO2 SLP170 T02110167 51022=
200910101352 METAR KATL 101352Z 33008KT 10SM SCT090 BKN150 BKN250 19/17 A3005 RMK AO2 SLP170 T01890167=
200910101252 METAR KATL 101252Z 32008KT 10SM BKN090 BKN250 18/17 A3003 RMK AO2 SLP160 T01830167=
200910101152 METAR KATL 101152Z 31007KT 10SM FEW009 BKN100 OVC250 19/17 A2999 RMK AO2 SLP147 60000 70031 T01890172 10206 20183 50011=
200910101052 METAR KATL 101052Z 32006KT 10SM SCT008 BKN085 OVC250 19/18 A3000 RMK AO2 SLP148 T01890178=
200910101026 SPECI KATL 101026Z 33006KT 10SM SCT008 BKN085 OVC250 19/18 A2999 RMK AO2=
200910101026 SPECI KATL 101026Z 33006KT 10SM SCT008 BKN085 OVC250 19/18 A2999 RMK AO2=
200910100952 METAR KATL 100952Z 31010KT 10SM FEW010 BKN085 OVC250 19/19 A2999 RMK AO2 SLP146 T01940189=
200910100852 METAR KATL 100852Z 30007KT 10SM SCT004 BKN090 OVC250 19/19 A2996 RMK AO2 RAB30E39 SLP134 P0000 60000 T01940194 53006=
200910100847 SPECI KATL 100847Z 30007KT 9SM SCT004 BKN100 BKN250 19/19 A2996 RMK AO2 RAB30E39 P0000=
200910100847 SPECI KATL 100847Z 30007KT 9SM SCT004 BKN100 BKN250 19/19 A2996 RMK AO2 RAB30E39 P0000=
200910100828 SPECI KATL 100828Z 30007KT 8SM BKN004 OVC110 20/20 A2995 RMK AO2=
200910100828 SPECI KATL 100828Z 30007KT 8SM BKN004 OVC110 20/20 A2995 RMK AO2=
200910100752 METAR KATL 100752Z 29008KT 1 1/2SM OVC002 21/21 A2995 RMK AO2 SFC VIS 7 SLP134 T02060206=
200910100722 SPECI KATL 100722Z 25004KT 1 1/2SM BR OVC002 21/21 A2994 RMK AO2=
200910100722 SPECI KATL 100722Z 25004KT 1 1/2SM BR OVC002 21/21 A2994 RMK AO2=
200910100708 SPECI KATL 100708Z 28005KT 1/2SM R09R/2200V6000FT BR OVC002 21/21 A2994 RMK AO2 SFC VIS 3/4=
200910100708 SPECI KATL 100708Z 28005KT 1/2SM R09R/2200V6000FT BR OVC002 21/21 A2994 RMK AO2 SFC VIS 3/4=
200910100700 SPECI KATL 100700Z 25004KT 1/16SM R09R/1600V6000FT FG OVC002 21/21 A2993 RMK AO2 SFC VIS 1/4 VIS S 3/4=
200910100700 SPECI KATL 100700Z 25004KT 1/16SM R09R/1600V6000FT FG OVC002 21/21 A2993 RMK AO2 SFC VIS 1/4 VIS S 3/4=
200910100652 METAR KATL 100652Z 22003KT 1/16SM R09R/1600V2200FT FG OVC002 21/21 A2993 RMK AO2 SFC VIS 1/2 SLP125 VIS S 1 T02060206=
200910100640 SPECI KATL 100640Z 24003KT 1/16SM R09R/2600VP6000FT BR BKN002 BKN120 BKN250 21/21 A2993 RMK AO2 SFC VIS 2=
200910100640 SPECI KATL 100640Z 24003KT 1/16SM R09R/2600VP6000FT BR BKN002 BKN120 BKN250 21/21 A2993 RMK AO2 SFC VIS 2=
200910100638 SPECI KATL 100638Z 00000KT 3SM R09R/3000VP6000FT BR BKN002 BKN120 BKN250 21/21 A2993=
200910100638 SPECI KATL 100638Z 00000KT 3SM R09R/3000VP6000FT BR BKN002 BKN120 BKN250 21/21 A2993 RMK AO2=
200910100618 SPECI KATL 100618Z 21004KT 10SM FEW003 SCT120 BKN250 20/20 A2994 RMK AO2=
200910100618 SPECI KATL 100618Z 21004KT 10SM FEW003 SCT120 BKN250 20/20 A2994 RMK AO2=
200910100552 METAR KATL 100552Z 00000KT 10SM FEW120 BKN250 21/20 A2994 RMK AO2 SLP129 60031 T02060200 10256 20200 50007=
200910100452 METAR KATL 100452Z 24004KT 10SM FEW060 SCT110 BKN250 21/20 A2995 RMK AO2 TSE02RAE27 SLP132 TS DSIPTD P0003 T02060200 402940194=
200910100403 SPECI KATL 100403Z 28007KT 9SM -RA FEW008 SCT035 OVC065 21/21 A2996 RMK AO2 TSE02 TS DSIPTD P0000=
200910100403 SPECI KATL 100403Z 28007KT 9SM -RA FEW008 SCT035 OVC065 21/21 A2996 RMK AO2 TSE02 TS DSIPTD P0000=
200910100352 METAR KATL 100352Z VRB05KT 6SM TSRA BR FEW015 BKN030CB OVC080 21/21 A2996 RMK AO2 PK WND 29026/0330 WSHFT 0324 TSB23RAB30 SLP135 OCNL LTGIC VC NE-SE TS VC NE-SE MOV NE P0028 T02110211=
200910100338 SPECI KATL 100338Z 29013G26KT 4SM TSRA BR FEW015 BKN030CB OVC060 22/21 A2996 RMK AO2 PK WND 29026/0330 WSHFT 0324 TSB23RAB30 OCNL LTGICCG NE-SE-S TS NE-SE-S MOV NE P0014=
200910100338 SPECI KATL 100338Z 29013G26KT 4SM TSRA BR FEW015 BKN030CB OVC060 22/21 A2996 RMK AO2 PK WND 29026/0330 WSHFT 0324 TSB23RAB30 OCNL LTGICCG NE-SE-S TS NE-SE-S MOV NE P0014=
200910100332 SPECI KATL 100332Z 29017G26KT 1 1/2SM R09R/3500VP6000FT +TSRA BR SCT015 BKN030CB OVC060 23/22 A2996 RMK AO2 PK WND 29026/0330 TSB23RAB30 PRESRR OCNL LTGICCG NE-OHD-SW TS NE-OHD-SW MOV NE P0002=
200910100332 SPECI KATL 100332Z 29017G26KT 1 1/2SM R09R/3500VP6000FT +TSRA BR SCT015 BKN030CB OVC060 23/22 A2996 RMK AO2 PK WND 29026/0330 TSB23RAB30 PRESRR OCNL LTGICCG NE-OHD-SW TS NE-OHD-SW MOV NE P0002=
200910100323 SPECI KATL 100323Z 23009KT 10SM TS FEW008 SCT030CB BKN250 24/22 A2994 RMK AO2 TSB23 OCNL LTGICCG VC SW-NW TS SW-NW MOV NE=
200910100323 SPECI KATL 100323Z 23009KT 10SM TS FEW008 SCT030CB BKN250 24/22 A2994 RMK AO2 TSB23 OCNL LTGICCG VC SW-NW TS SW-NW MOV NE=
200910100252 METAR KATL 100252Z 21010KT 10SM FEW030 SCT150 BKN250 24/22 A2992 RMK AO2 SLP122 FRQ LTG DSNT NW-N T02390222 51002=
200910100152 METAR KATL 100152Z 21008KT 10SM FEW030 BKN150 BKN200 24/22 A2992 RMK AO2 SLP122 T02390222=
200910100052 METAR KATL 100052Z 20006KT 10SM FEW030 SCT200 24/22 A2992 RMK AO2 SLP122 T02440222=
200910092352 METAR KATL 092352Z 21011KT 10SM FEW030 SCT200 26/23 A2991 RMK AO2 SLP120 T02560228 10294 20256 55003=
200910092252 METAR KATL 092252Z 22006KT 10SM FEW035 SCT090 SCT150 BKN200 27/22 A2991 RMK AO2 SLP118 CB DSNT SE SHRA DSNT SE T02720217=
200910092152 METAR KATL 092152Z 22006KT 10SM FEW035 SCT120 BKN200 28/22 A2991 RMK AO2 SLP120 TCU DSNT NE T02780217=
200910092052 METAR KATL 092052Z 19009KT 10SM FEW040 BKN080 BKN250 29/21 A2992 RMK AO2 SLP123 T02890211 56018=
200910091952 METAR KATL 091952Z 22011KT 10SM FEW038 BKN048 28/21 A2994 RMK AO2 SLP129 T02830211 $=
200910091852 METAR KATL 091852Z 22013G22KT 10SM SCT040 SCT050 28/21 A2995 RMK AO2 SLP131 T02830211=
200910091752 METAR KATL 091752Z 20012G23KT 10SM FEW033 SCT045 28/22 A2998 RMK AO2 SLP141 T02830217 10283 20200 56022=
200910091652 METAR KATL 091652Z 22014G20KT 10SM SCT028 BKN040 28/22 A3000 RMK AO2 SLP150 T02830222=
200910091552 METAR KATL 091552Z 23011G15KT 10SM SCT020 SCT040 26/21 A3002 RMK AO2 SLP155 T02610211=
200910091459 SPECI KATL 091459Z 21011G17KT 10SM BKN016 BKN020 BKN040 25/21 A3004 RMK AO2=
200910091459 SPECI KATL 091459Z 21011G17KT 10SM BKN016 BKN020 BKN040 25/21 A3004 RMK AO2=
200910091452 METAR KATL 091452Z 21007KT 10SM BKN012 BKN018 BKN040 25/21 A3004 RMK AO2 SLP165 T02500211 58004=
200910091431 SPECI KATL 091431Z VRB05KT 10SM BKN009 BKN012 BKN038 24/21 A3006 RMK AO2=
200910091431 SPECI KATL 091431Z VRB05KT 10SM BKN009 BKN012 BKN038 24/21 A3006 RMK AO2=
200910091358 SPECI KATL 091358Z 19005KT 9SM BKN006 BKN027 BKN038 23/20 A3006 RMK AO2=
200910091358 SPECI KATL 091358Z 19005KT 9SM BKN006 BKN027 BKN038 23/20 A3006 RMK AO2=
200910091352 METAR KATL 091352Z COR 19004KT 8SM FEW004 BKN027 BKN040 22/20 A3006 RMK AO2 8 SLP172 T02220200=
200910091252 METAR KATL 091252Z 19004KT 3SM BR FEW004 SCT018 OVC025 21/19 A3006 RMK AO2 SFC VIS 6 SLP172 T02060189=
200910091232 SPECI KATL 091232Z 20004KT 3SM BR SCT004 BKN018 OVC030 21/19 A3006 RMK AO2 SFC VIS 6=
200910091232 SPECI KATL 091232Z 20004KT 3SM BR SCT004 BKN018 OVC030 21/19 A3006 RMK AO2 SFC VIS 6=
200910091152 METAR KATL 091152Z 20004KT 3SM BR OVC004 20/18 A3006 RMK AO2 SFC VIS 6 SLP171 T02000178 10200 20194 53005=
200910091129 SPECI KATL 091129Z 20004KT 3SM BR OVC004 20/18 A3005 RMK AO2 SFC VIS 6=
200910091129 SPECI KATL 091129Z 20004KT 3SM BR OVC004 20/18 A3005 RMK AO2 SFC VIS 6=
200910091052 METAR KATL 091052Z 17003KT 10SM BKN008 OVC011 20/17 A3005 RMK AO2 SLP166 T02000172=
200910091027 SPECI KATL 091027Z 17007KT 10SM BKN008 OVC011 20/17 A3004 RMK AO2=
200910091027 SPECI KATL 091027Z 17007KT 10SM BKN008 OVC011 20/17 A3004 RMK AO2=
200910090952 METAR KATL 090952Z 17005KT 10SM BKN011 19/17 A3004 RMK AO2 SLP165 T01940167=
200910090852 METAR KATL 090852Z 00000KT 8SM BKN013 BKN040 20/16 A3004 RMK AO2 SLP163 T02000156 55008=
200910090826 SPECI KATL 090826Z 16006KT 10SM BKN015 BKN042 20/16 A3004 RMK AO2=
200910090826 SPECI KATL 090826Z 16006KT 10SM BKN015 BKN042 20/16 A3004 RMK AO2=
200910090752 METAR KATL 090752Z 12004KT 8SM BKN030 BKN049 19/14 A3003 RMK AO2 SLP161 T01940144=
200910090732 SPECI KATL 090732Z 14004KT 8SM BKN028 BKN037 19/14 A3004 RMK AO2=
200910090732 SPECI KATL 090732Z 14004KT 8SM BKN028 BKN037 19/14 A3004 RMK AO2=
200910090652 METAR KATL 090652Z 13005KT 10SM FEW029 BKN038 BKN055 19/14 A3005 RMK AO2 SLP167 T01940139=
200910090552 METAR KATL 090552Z 13003KT 10SM BKN043 20/14 A3006 RMK AO2 SLP173 T02000139 10239 20194 58016=
200910090452 METAR KATL 090452Z 12004KT 10SM FEW040 20/13 A3009 RMK AO2 SLP181 T02000133 402670144=
200910090352 METAR KATL 090352Z 11007KT 10SM FEW040 21/13 A3011 RMK AO2 SLP189 T02060133=
200910090252 METAR KATL 090252Z 12007KT 10SM FEW040 21/13 A3011 RMK AO2 SLP190 T02110133 50000=
200910090152 METAR KATL 090152Z 12008KT 10SM FEW045 22/13 A3011 RMK AO2 SLP192 T02220133=
200910090052 METAR KATL 090052Z 12007KT 10SM SCT045 23/13 A3012 RMK AO2 SLP192 T02280133=
200910082352 METAR KATL 082352Z 11007KT 10SM FEW045 23/13 A3011 RMK AO2 SLP191 T02330133 10267 20233 51007=
200910082252 METAR KATL 082252Z 09008KT 10SM BKN045 25/14 A3011 RMK AO2 SLP191 T02500139=
200910082152 METAR KATL 082152Z 13007KT 10SM FEW045 26/13 A3010 RMK AO2 SLP185 T02610133=
200910082052 METAR KATL 082052Z 13006KT 10SM CLR 27/12 A3009 RMK AO2 SLP183 T02670117 56015=
200910081952 METAR KATL 081952Z 12005KT 10SM FEW040 27/11 A3010 RMK AO2 SLP185 T02670111=
200910081852 METAR KATL 081852Z 00000KT 10SM FEW250 26/09 A3011 RMK AO2 SLP189 T02560089=
200910081752 METAR KATL 081752Z 12003KT 10SM FEW250 25/08 A3014 RMK AO2 SLP199 T02500083 10250 20156 58012=
200910081652 METAR KATL 081652Z 15003KT 10SM FEW250 23/08 A3016 RMK AO2 SLP207 T02330078=
200910081552 METAR KATL 081552Z 14005KT 10SM FEW250 22/09 A3016 RMK AO2 SLP209 T02220094=
200910081452 METAR KATL 081452Z 07005KT 10SM FEW250 21/09 A3017 RMK AO2 SLP211 T02060089 50006=
200910081352 METAR KATL 081352Z 10009KT 10SM FEW250 18/11 A3017 RMK AO2 SLP212 T01830106=
200910081252 METAR KATL 081252Z 00000KT 10SM FEW250 17/12 A3016 RMK AO2 SLP209 T01720122=
200910081152 METAR KATL 081152Z 32003KT 10SM FEW150 16/11 A3015 RMK AO2 SLP205 70009 T01560106 10161 20144 51011=
200910081052 METAR KATL 081052Z 34004KT 10SM CLR 15/11 A3014 RMK AO2 SLP201 T01500111=
200910080952 METAR KATL 080952Z 32005KT 10SM CLR 15/12 A3013 RMK AO2 SLP196 T01500117=
200910080852 METAR KATL 080852Z 32005KT 10SM CLR 15/12 A3012 RMK AO2 SLP193 T01500117 53007=
200910080752 METAR KATL 080752Z 31005KT 10SM CLR 16/13 A3011 RMK AO2 SLP190 T01560128=
200910080652 METAR KATL 080652Z 32007KT 10SM CLR 16/13 A3010 RMK AO2 SLP184 T01610128=
200910080552 METAR KATL 080552Z 32006KT 10SM CLR 16/13 A3010 RMK AO2 SLP186 T01610133 10217 20161 50003=
200910080452 METAR KATL 080452Z 30004KT 10SM FEW250 17/13 A3010 RMK AO2 SLP187 T01670128 402610167=
200910080352 METAR KATL 080352Z 30005KT 10SM FEW250 18/12 A3009 RMK AO2 SLP184 T01780122=
200910080252 METAR KATL 080252Z 29004KT 10SM FEW250 18/13 A3009 RMK AO2 SLP183 T01830128 53009=
200910080152 METAR KATL 080152Z 28004KT 10SM FEW250 19/13 A3008 RMK AO2 SLP179 T01940133=
200910080052 METAR KATL 080052Z 25003KT 10SM FEW250 20/15 A3007 RMK AO2 SLP174 T02000150=
200910072352 METAR KATL 072352Z 33007KT 10SM FEW150 SCT250 22/14 A3006 RMK AO2 SLP172 T02170139 10261 20217 53008=
200910072252 METAR KATL 072252Z 31006KT 10SM FEW150 BKN200 BKN250 23/14 A3005 RMK AO2 SLP167 T02330139=
200910072152 METAR KATL 072152Z 32007KT 10SM FEW150 SCT200 BKN250 24/13 A3004 RMK AO2 SLP164 T02440128=
200910072052 METAR KATL 072052Z 32010KT 10SM FEW065 SCT095 SCT250 25/13 A3004 RMK AO2 SLP162 T02500128 53001=
200910071952 METAR KATL 071952Z 31010KT 10SM FEW065 SCT080 SCT250 26/12 A3003 RMK AO2 SLP161 T02560117=
200910071852 METAR KATL 071852Z 31008KT 10SM FEW045 SCT065 BKN250 26/14 A3003 RMK AO2 SLP160 T02560144=
200910071752 METAR KATL 071752Z 32006KT 10SM FEW040 SCT050 BKN250 25/16 A3003 RMK AO2 SLP162 60009 T02500156 10250 20217 50000=
200910071652 METAR KATL 071652Z 28007KT 10SM FEW025 BKN047 BKN250 23/18 A3004 RMK AO2 SLP167 T02330178=
200910071616 SPECI KATL 071616Z 29008KT 10SM FEW025 BKN045 BKN250 23/18 A3005 RMK AO2=
200910071616 SPECI KATL 071616Z 29008KT 10SM FEW025 BKN045 BKN250 23/18 A3005 RMK AO2=
200910071552 METAR KATL 071552Z 33009KT 10SM FEW025 SCT040 SCT250 23/18 A3004 RMK AO2 SLP163 T02330178=
200910071521 SPECI KATL 071521Z 32008KT 10SM FEW010 SCT025 SCT150 SCT250 23/20 A3003 RMK AO2=
200910071521 SPECI KATL 071521Z 32008KT 10SM FEW010 SCT025 SCT150 SCT250 23/20 A3003 RMK AO2=
200910071452 METAR KATL 071452Z 31007KT 10SM FEW005 SCT009 BKN017 BKN150 22/20 A3003 RMK AO2 RAE44 SLP163 P0003 60009 T02170200 51013 $=
200910071448 SPECI KATL 071448Z 32006KT 10SM SCT005 SCT009 OVC017 22/19 A3003 RMK AO2 RAE44 P0003 $=
200910071448 SPECI KATL 071448Z 32006KT 10SM SCT005 SCT009 OVC017 22/19 A3003 RMK AO2 RAE44 P0003 $=
200910071352 METAR KATL 071352Z 32006KT 2 1/2SM R09R/5000VP6000FT RA BR FEW005 BKN008 OVC014 22/21 A3002 RMK AO2 SFC VIS 4 RAB27 SLP160 P0006 T02170211=
200910071349 SPECI KATL 071349Z 31006KT 2 1/2SM R09R/6000VP6000FT RA BR FEW005 BKN008 OVC014 22/20 A3002 RMK AO2 SFC VIS 4 RAB27 P0004=
200910071349 SPECI KATL 071349Z 31006KT 2 1/2SM R09R/6000VP6000FT RA BR FEW005 BKN008 OVC014 22/20 A3002 RMK AO2 SFC VIS 4 RAB27 P0004=
200910071333 SPECI KATL 071333Z 27006KT 2 1/2SM -RA BR FEW005 BKN014 OVC047 22/20 A3002 RMK AO2 SFC VIS 4 RAB27 P0001=
200910071333 SPECI KATL 071333Z 27006KT 2 1/2SM -RA BR FEW005 BKN014 OVC047 22/20 A3002 RMK AO2 SFC VIS 4 RAB27 P0001=
200910071324 SPECI KATL 071324Z 28008KT 10SM FEW005 BKN016 BKN047 BKN150 22/20 A3002 RMK AO2=
200910071324 SPECI KATL 071324Z 28008KT 10SM FEW005 BKN016 BKN047 BKN150 22/20 A3002 RMK AO2=
200910071252 METAR KATL 071252Z 27008KT 7SM SCT049 BKN065 BKN150 BKN250 22/20 A2999 RMK AO2 SLP149 T02220200=
200910071231 SPECI KATL 071231Z 25005KT 7SM FEW012 SCT150 BKN250 22/21 A2997 RMK AO2=
200910071231 SPECI KATL 071231Z 25005KT 7SM FEW012 SCT150 BKN250 22/21 A2997 RMK AO2=
200910071214 SPECI KATL 071214Z 27008KT 9SM SCT006 BKN010 BKN100 23/21 A2996 RMK AO2=
200910071214 SPECI KATL 071214Z 27008KT 9SM SCT006 BKN010 BKN100 23/21 A2996 RMK AO2=
200910071152 METAR KATL 071152Z 25011G16KT 8SM BKN006 BKN030 23/21 A2998 RMK AO2 TSB03E51RAE51 SLP142 TS MOV SE P0006 60025 70026 T02280211 10228 20200 53011=
200910071114 SPECI KATL 071114Z 23005KT 4SM -TSRA BR BKN003CB OVC006 22/21 A2996 RMK AO2 TSB03 CNS LTGICCCCG OHD & SW-W TS OHD & SW-W MOV E P0004=
200910071114 SPECI KATL 071114Z 23005KT 4SM -TSRA BR BKN003CB OVC006 22/21 A2996 RMK AO2 TSB03 CNS LTGICCCCG OHD & SW-W TS OHD & SW-W MOV E P0004=
200910071106 SPECI KATL 071106Z 23008KT 4SM -TSRA BR BKN001 BKN003CB OVC006 22/21 A2997 RMK AO2 TSB03 FRQ LTGICCCCG SW-W TS SW-W MOV E P0003=
200910071106 SPECI KATL 071106Z 23008KT 4SM -TSRA BR BKN001 BKN003CB OVC006 22/21 A2997 RMK AO2 TSB03 FRQ LTGICCCCG SW-W TS SW-W MOV E P0003=
200910071052 METAR KATL 071052Z 25006KT 5SM -RA BR SCT001 BKN006 OVC020 22/21 A2997 RMK AO2 TSE44 SLP140 TS MOV E P0012 T02170206=
200910071044 SPECI KATL 071044Z 26006KT 6SM -RA BR FEW001 BKN008CB OVC033 22/21 A2997 RMK AO2 TSE44 TS MOV E P0010=
200910071044 SPECI KATL 071044Z 26006KT 6SM -RA BR FEW001 BKN008CB OVC033 22/21 A2997 RMK AO2 TSE44 TS MOV E P0010=
200910071025 SPECI KATL 071025Z 24008KT 6SM -TSRA BR FEW001 BKN033CB OVC050 22/21 A2994 RMK AO2 FRQ LTGICCC SE-S TS SE-S MOV E P0009=
200910071025 SPECI KATL 071025Z 24008KT 6SM -TSRA BR FEW001 BKN033CB OVC050 22/21 A2994 RMK AO2 FRQ LTGICCC SE-S TS SE-S MOV E P0009=
200910071014 SPECI KATL 071014Z 27008KT 2 1/2SM -TSRA BR SCT001 BKN003CB OVC033 22/21 A2995 RMK AO2 FRQ LTGICCC OHD & SE-S TS OHD SE-S MOV E P0007=
200910071014 SPECI KATL 071014Z 27008KT 2 1/2SM -TSRA BR SCT001 BKN003CB OVC033 22/21 A2995 RMK AO2 FRQ LTGICCC OHD & SE-S TS OHD SE-S MOV E P0007=
200910070952 METAR KATL 070952Z 25015G22KT 4SM -TSRA BR BKN003CB OVC008 22/21 A2994 RMK AO2 TSB07RAB0858 SLP131 FRQ LTGICCC SE-S TS SE-S MOV SE P0007 T02220206=
200910070929 SPECI KATL 070929Z 23013G19KT 4SM -TSRA BR BKN005CB OVC008 22/21 A2992 RMK AO2 TSB07RAB0858 FRQ LTGICCC SW-W TS SW-W MOV SE P0001=
200910070929 SPECI KATL 070929Z 23013G19KT 4SM -TSRA BR BKN005CB OVC008 22/21 A2992 RMK AO2 TSB07RAB0858 FRQ LTGICCC SW-W TS SW-W MOV SE P0001=
200910070913 SPECI KATL 070913Z 25012G17KT 6SM -TSRA BR BKN007CB OVC010 22/21 A2995 RMK AO2 TSB07RAB0858 FRQ LTGICCC W-NW TS W-NW MOV E P0000=
200910070913 SPECI KATL 070913Z 25012G17KT 6SM -TSRA BR BKN007CB OVC010 22/21 A2995 RMK AO2 TSB07RAB0858 FRQ LTGICCC W-NW TS W-NW MOV E P0000=
200910070852 METAR KATL 070852Z 25007KT 6SM BR FEW004 BKN007 OVC110 22/20 A2994 RMK AO2 SLP132 FRQ LTGICCC DSNT W & NW T02170200 55001=
200910070752 METAR KATL 070752Z 22010KT 6SM BR BKN004 OVC008 21/19 A2992 RMK AO2 SLP126 OCNL LTGIC DSNT NE T02060194=
200910070726 SPECI KATL 070726Z 22005KT 6SM BR BKN004 BKN040 OVC110 21/19 A2993 RMK AO2=
200910070726 SPECI KATL 070726Z 22005KT 6SM BR BKN004 BKN040 OVC110 21/19 A2993 RMK AO2=
200910070652 METAR KATL 070652Z 22005KT 6SM BR SCT002 BKN040 OVC100 20/19 A2994 RMK AO2 SLP133 T02000189=
200910070601 SPECI KATL 070601Z 22007KT 5SM BR SCT002 SCT038 BKN250 20/19 A2994 RMK AO2=
200910070601 SPECI KATL 070601Z 22007KT 5SM BR SCT002 SCT038 BKN250 20/19 A2994 RMK AO2=
200910070552 METAR KATL 070552Z 22005KT 1 1/2SM BR SCT002 SCT038 BKN250 20/19 A2995 RMK AO2 SFC VIS 5 SLP134 T02000189 10211 20194 55014=
200910070508 SPECI KATL 070508Z 23004KT 1/2SM BR BKN002 OVC004 20/19 A2994 RMK AO2 SFC VIS 5=
200910070508 SPECI KATL 070508Z 23004KT 1/2SM BR BKN002 OVC004 20/19 A2994 RMK AO2 SFC VIS 5=
200910070452 METAR KATL 070452Z COR 22005KT 5SM BR BKN004 BKN070 OVC250 20/19 A2994 RMK AO2 SLP133 T02000189 402170150=
200910070352 METAR KATL 070352Z 22005KT 6SM BR BKN005 BKN070 OVC250 21/19 A2998 RMK AO2 SLP145 T02060189=
200910070343 SPECI KATL 070343Z 21005KT 6SM BR BKN004 OVC070 21/19 A2998 RMK AO2=
200910070343 SPECI KATL 070343Z 21005KT 6SM BR BKN004 OVC070 21/19 A2998 RMK AO2=
200910070335 SPECI KATL 070335Z 20003KT 7SM FEW004 BKN065 OVC250 20/19 A2998 RMK AO2=
200910070335 SPECI KATL 070335Z 20003KT 7SM FEW004 BKN065 OVC250 20/19 A2998 RMK AO2=
200910070252 METAR KATL 070252Z 00000KT 7SM SCT200 BKN250 20/19 A2999 RMK AO2 SLP149 T02000189 53002=
200910070152 METAR KATL 070152Z 00000KT 7SM FEW015 BKN250 20/19 A2998 RMK AO2 SLP147 T02000189=
200910070118 SPECI KATL 070118Z 18006KT 8SM SCT025 BKN200 21/19 A2997 RMK AO2=
200910070118 SPECI KATL 070118Z 18006KT 8SM SCT025 BKN200 21/19 A2997 RMK AO2=
200910070052 METAR KATL 070052Z 18004KT 8SM FEW010 BKN025 OVC085 21/19 A2998 RMK AO2 SLP146 T02060189=
200910070021 SPECI KATL 070021Z 00000KT 7SM SCT017 BKN025 OVC080 21/18 A2998 RMK AO2=
200910070021 SPECI KATL 070021Z 00000KT 7SM SCT017 BKN025 OVC080 21/18 A2998 RMK AO2=
200910062352 METAR KATL 062352Z 00000KT 7SM FEW015 BKN040 OVC065 21/18 A2998 RMK AO2 SLP147 T02110183 10217 20189 53004=
200910062300 SPECI KATL 062300Z 18004KT 9SM SCT016 OVC085 21/18 A2997 RMK AO2=
200910062300 SPECI KATL 062300Z 18004KT 9SM SCT016 OVC085 21/18 A2997 RMK AO2=
200910062252 METAR KATL 062252Z 19003KT 9SM BKN016 OVC080 21/18 A2997 RMK AO2 SLP144 T02110178=
200910062152 METAR KATL 062152Z 17005KT 8SM OVC016 21/18 A2996 RMK AO2 SLP141 T02110178=
200910062052 METAR KATL 062052Z 00000KT 8SM BKN015 OVC018 22/17 A2997 RMK AO2 SLP142 BINOVC T02170172 56009=
200910062033 SPECI KATL 062033Z 00000KT 9SM BKN015 BKN018 22/17 A2997 RMK AO2=
200910062033 SPECI KATL 062033Z 00000KT 9SM BKN015 BKN018 22/17 A2997 RMK AO2=
200910061952 METAR KATL 061952Z 00000KT 8SM BKN013 BKN015 OVC020 21/17 A2998 RMK AO2 SLP146 T02060167=
200910061901 SPECI KATL 061901Z 19003KT 8SM BKN010 OVC013 19/17 A2998 RMK AO2=
200910061901 SPECI KATL 061901Z 19003KT 8SM BKN010 OVC013 19/17 A2998 RMK AO2=
200910061852 METAR KATL 061852Z 24003KT 7SM BKN008 OVC012 19/17 A2998 RMK AO2 SLP147 T01940167=
200910061752 METAR KATL 061752Z 00000KT 7SM BKN006 BKN008 OVC012 19/16 A2999 RMK AO2 SLP153 60001 T01890161 10189 20156 50002=
200910061713 SPECI KATL 061713Z 18006KT 6SM BR FEW004 BKN006 OVC008 18/16 A3000 RMK AO2=
200910061713 SPECI KATL 061713Z 18006KT 6SM BR FEW004 BKN006 OVC008 18/16 A3000 RMK AO2=
200910061652 METAR KATL 061652Z 17004KT 2 1/2SM BR BKN005 OVC008 18/16 A3000 RMK AO2 SFC VIS 5 DZE35 SLP155 P0000 T01780156=
200910061552 METAR KATL 061552Z 16004KT 1 1/2SM -DZ BR BKN004 BKN006 OVC008 17/16 A2999 RMK AO2 SFC VIS 4 DZE25B44 SLP152 P0000 T01670156=
200910061547 SPECI KATL 061547Z 12004KT 1 1/2SM -DZ BR BKN004 BKN006 OVC008 16/15 A2999 RMK AO2 SFC VIS 4 DZE25B44 P0000=
200910061547 SPECI KATL 061547Z 12004KT 1 1/2SM -DZ BR BKN004 BKN006 OVC008 16/15 A2999 RMK AO2 SFC VIS 4 DZE25B44 P0000=
200910061452 METAR KATL 061452Z 14003KT 1/2SM -DZ BR BKN003 OVC005 16/15 A3000 RMK AO2 SFC VIS 3 DZB00 SLP155 P0000 60001 T01610150 58003=
200910061417 SPECI KATL 061417Z 14003KT 1/4SM -DZ BR BKN003 OVC005 16/15 A3001 RMK AO2 SFC VIS 1 1/2 DZB00 P0000=
200910061417 SPECI KATL 061417Z 14003KT 1/4SM -DZ BR BKN003 OVC005 16/15 A3001 RMK AO2 SFC VIS 1 1/2 DZB00 P0000=
200910061400 SPECI KATL 061400Z 13003KT 1SM -DZ BR BKN003 OVC005 16/15 A3001 RMK AO2 SFC VIS 2 1/2 DZB00 P0000=
200910061400 SPECI KATL 061400Z 13003KT 1SM -DZ BR BKN003 OVC005 16/15 A3001 RMK AO2 SFC VIS 2 1/2 DZB00 P0000=
200910061352 METAR KATL 061352Z 12003KT 1SM BR OVC005 16/15 A3001 RMK AO2 SFC VIS 4 DZE47 SLP161 P0000 T01560150=
200910061323 SPECI KATL 061323Z 15003KT 1/2SM -DZ BR FEW002 BKN005 OVC008 16/14 A3001 RMK AO2 SFC VIS 2 P0000=
200910061323 SPECI KATL 061323Z 15003KT 1/2SM -DZ BR FEW002 BKN005 OVC008 16/14 A3001 RMK AO2 SFC VIS 2 P0000=
200910061252 METAR KATL 061252Z 16003KT 1/2SM -DZ BR FEW001 OVC003 16/14 A3001 RMK AO2 SFC VIS 1 3/4 SLP160 P0001 T01560144=
200910061245 SPECI KATL 061245Z 00000KT 1/2SM -DZ BR FEW001 OVC003 16/14 A3001 RMK AO2 SFC VIS 1 1/2 P0001=
200910061245 SPECI KATL 061245Z 00000KT 1/2SM -DZ BR FEW001 OVC003 16/14 A3001 RMK AO2 SFC VIS 1 1/2 P0001=
200910061152 METAR KATL 061152Z 09003KT 1/2SM -DZ BR OVC001 16/14 A3001 RMK AO2 SFC VIS 2 1/2 SLP158 P0000 60000 70008 T01560144 10156 20150 53009=
200910061052 METAR KATL 061052Z 11004KT 1/2SM -DZ BR OVC001 15/14 A2999 RMK AO2 SFC VIS 1 1/2 SLP153 P0000 T01500144=
200910060952 METAR KATL 060952Z 13004KT 1/2SM R09R/5500VP6000FT -DZ BR OVC001 15/14 A2998 RMK AO2 SFC VIS 1 1/4 SLP151 P0000 T01500144=
200910060852 METAR KATL 060852Z 10004KT 1/2SM -DZ BR OVC001 15/14 A2998 RMK AO2 SFC VIS 2 DZB46 SLP148 P0000 60000 T01500144 52002=
200910060752 METAR KATL 060752Z 12003KT 1/2SM BR OVC001 15/14 A2997 RMK AO2 SFC VIS 6 DZE42 SLP147 P0000 T01500139=
200910060719 SPECI KATL 060719Z 08006KT 1/2SM -DZ BR OVC001 15/14 A2997 RMK AO2 SFC VIS 6 P0000=
200910060719 SPECI KATL 060719Z 08006KT 1/2SM -DZ BR OVC001 15/14 A2997 RMK AO2 SFC VIS 6 P0000=
200910060652 METAR KATL 060652Z 09005KT 1/2SM -DZ BR OVC003 16/14 A2998 RMK AO2 SFC VIS 6 SLP149 P0000 T01560139=
200910060552 METAR KATL 060552Z 09007KT 1/2SM -DZ BR OVC003 16/14 A2997 RMK AO2 SFC VIS 6 SLP148 P0000 60000 T01560139 10156 20150 58012=
200910060452 METAR KATL 060452Z COR 08008KT 1/2SM -DZ OVC003 16/14 A2999 RMK AO2 SFC VIS 8 SLP152 P0000 T01560139 401670122=
200910060352 METAR KATL 060352Z 11005KT 7SM -DZ BKN006 OVC035 16/14 A3001 RMK AO2 SLP159 CIG 004V010 P0000 T01560139=
200910060252 METAR KATL 060252Z 09008KT 5SM -DZ BR BKN007 OVC025 16/14 A3001 RMK AO2 SLP160 CIG 004V010 P0000 60000 T01560139 51012=
200910060152 METAR KATL 060152Z 09005KT 1 1/2SM -DZ BR OVC005 16/14 A3000 RMK AO2 SFC VIS 4 CIG 003V009 SLP157 P0000 T01560139=
200910060052 METAR KATL 060052Z 09007KT 050V120 1 1/2SM -DZ BR OVC005 16/14 A2999 RMK AO2 SFC VIS 2 1/2 SLP152 CIG 003V009 P0000 T01560139=
200910060042 SPECI KATL 060042Z 07008KT 1 1/2SM -DZ BR OVC005 16/14 A2998 RMK AO2 SFC VIS 2 1/2 CIG 003V009 P0000=
200910060042 SPECI KATL 060042Z 07008KT 1 1/2SM -DZ BR OVC005 16/14 A2998 RMK AO2 SFC VIS 2 1/2 CIG 003V009 P0000=
200910052352 METAR KATL 052352Z 09007KT 2SM -DZ BR OVC006 15/14 A2997 RMK AO2 SFC VIS 4 SLP148 CIG 003V010 P0000 60000 T01500139 10167 20150 52005=
200910052327 SPECI KATL 052327Z 08007KT 2SM -DZ BR OVC007 16/14 A2997 RMK AO2 SFC VIS 4 CIG 004V010 P0000=
200910052327 SPECI KATL 052327Z 08007KT 2SM -DZ BR OVC007 16/14 A2997 RMK AO2 SFC VIS 4 CIG 004V010 P0000=
200910052256 SPECI KATL 052256Z 07008KT 3SM -DZ BR OVC008 16/13 A2997 RMK AO2 SFC VIS 6 P0000=
200910052256 SPECI KATL 052256Z 07008KT 3SM -DZ BR OVC008 16/13 A2997 RMK AO2 SFC VIS 6 P0000=
200910052252 METAR KATL 052252Z 08008KT 9SM -DZ OVC008 16/13 A2997 RMK AO2 DZB50 SLP145 P0000 T01560133=
200910052152 METAR KATL 052152Z 09008KT 10SM BKN008 OVC014 16/13 A2997 RMK AO2 SLP145 T01610133=
200910052109 SPECI KATL 052109Z 08008KT 10SM BKN008 OVC014 16/13 A2996 RMK AO2=
200910052109 SPECI KATL 052109Z 08008KT 10SM BKN008 OVC014 16/13 A2996 RMK AO2=
200910052052 METAR KATL 052052Z 10007KT 10SM FEW007 BKN010 OVC014 17/13 A2996 RMK AO2 SLP142 60000 T01670133 56014=
200910051954 SPECI KATL 051954Z 08011KT 10SM FEW007 BKN010 OVC012 16/13 A2997 RMK AO2=
200910051954 SPECI KATL 051954Z 08011KT 10SM FEW007 BKN010 OVC012 16/13 A2997 RMK AO2=
200910051952 METAR KATL 051952Z 09011KT 10SM BKN007 BKN010 OVC012 16/13 A2997 RMK AO2 DZE14 SLP146 P0000 T01610133=
200910051914 SPECI KATL 051914Z 10010KT 10SM BKN007 BKN013 OVC018 16/13 A2997 RMK AO2 DZE14 P0000=
200910051914 SPECI KATL 051914Z 10010KT 10SM BKN007 BKN013 OVC018 16/13 A2997 RMK AO2 DZE14 P0000=
200910051852 METAR KATL 051852Z 07013KT 6SM -DZ BR BKN007 BKN014 OVC017 15/13 A2997 RMK AO2 DZE03B49 SLP148 P0000 T01500133=
200910051752 METAR KATL 051752Z 09010G17KT 6SM -DZ BR FEW005 BKN007 OVC013 16/13 A3000 RMK AO2 SLP158 P0000 60008 T01560133 10156 20133 58003=
200910051733 SPECI KATL 051733Z 09012KT 6SM BR FEW005 BKN007 OVC013 15/14 A3000 RMK AO2 DZE31 P0000=
200910051733 SPECI KATL 051733Z 09012KT 6SM BR FEW005 BKN007 OVC013 15/14 A3000 RMK AO2 DZE31 P0000=
200910051655 SPECI KATL 051655Z 08013KT 2SM -DZ BR FEW005 BKN007 OVC013 15/14 A3001 RMK AO2 SFC VIS 4 P0000=
200910051655 SPECI KATL 051655Z 08013KT 2SM -DZ BR FEW005 BKN007 OVC013 15/14 A3001 RMK AO2 SFC VIS 4 P0000=
200910051652 METAR KATL 051652Z 08011G19KT 2SM -DZ BR FEW004 SCT007 OVC013 15/14 A3001 RMK AO2 SFC VIS 4 SLP160 P0000 T01500139=
200910051637 SPECI KATL 051637Z 08013KT 2SM -DZ BR FEW004 SCT007 OVC013 14/13 A3001 RMK AO2 SFC VIS 4 P0000=
200910051637 SPECI KATL 051637Z 08013KT 2SM -DZ BR FEW004 SCT007 OVC013 14/13 A3001 RMK AO2 SFC VIS 4 P0000=
200910051625 SPECI KATL 051625Z 08013KT 3SM -DZ BR FEW004 SCT007 OVC013 14/13 A3001 RMK AO2 SFC VIS 5 P0000=
200910051625 SPECI KATL 051625Z 08013KT 3SM -DZ BR FEW004 SCT007 OVC013 14/13 A3001 RMK AO2 SFC VIS 5 P0000=
200910051552 METAR KATL 051552Z 08013KT 3SM -DZ BR FEW004 BKN007 OVC013 14/13 A3001 RMK AO2 SFC VIS 5 RAE47DZB49 SLP162 P0004 T01390133=
200910051549 SPECI KATL 051549Z 08015G19KT 3SM -DZ BR FEW004 BKN007 OVC013 14/13 A3001 RMK AO2 SFC VIS 5 RAE47DZB49 P0004=
200910051549 SPECI KATL 051549Z 08015G19KT 3SM -DZ BR FEW004 BKN007 OVC013 14/13 A3001 RMK AO2 SFC VIS 5 RAE47DZB49 P0004=
200910051512 SPECI KATL 051512Z 08012KT 2SM -RA BR SCT002 OVC007 14/13 A3001 RMK AO2 SFC VIS 3 CIG 004V008 P0003=
200910051512 SPECI KATL 051512Z 08012KT 2SM -RA BR SCT002 OVC007 14/13 A3001 RMK AO2 SFC VIS 3 CIG 004V008 P0003=
200910051452 METAR KATL 051452Z 08013KT 1 1/2SM R09R/5500VP6000FT RA BR BKN002 BKN006 OVC014 13/13 A3001 RMK AO2 SFC VIS 2 DZE47RAB47 SLP162 P0003 60004 T01330133 51007=
200910051430 SPECI KATL 051430Z 08013KT 1 1/2SM -DZ BR OVC008 13/13 A3001 RMK AO2 SFC VIS 2 CIG 005V011 P0000 $=
200910051430 SPECI KATL 051430Z 08013KT 1 1/2SM -DZ BR OVC008 13/13 A3001 RMK AO2 SFC VIS 2 CIG 005V011 P0000 $=
200910051352 METAR KATL 051352Z 08016G20KT 4SM -DZ BR BKN006 OVC010 13/13 A3001 RMK AO2 RAB13E35DZB49 CIG 005V008 SLP161 P0000 T01330128=
200910051252 METAR KATL 051252Z 08014KT 5SM BR BKN006 OVC011 13/13 A3000 RMK AO2 RAE31 SLP157 P0001 T01330133=
200910051215 SPECI KATL 051215Z 08015KT 2 1/2SM -RA BR BKN006 OVC011 13/13 A2999 RMK AO2 P0001=
200910051215 SPECI KATL 051215Z 08015KT 2 1/2SM -RA BR BKN006 OVC011 13/13 A2999 RMK AO2 P0001=
200910051152 METAR KATL 051152Z 08014KT 3SM -RA BR BKN008 OVC012 13/13 A2999 RMK AO2 SLP154 P0000 60092 70157 T01330133 10133 20122 53005=
200910051052 METAR KATL 051052Z 07017KT 5SM -RA BR BKN006 OVC010 13/13 A2998 RMK AO2 SLP150 P0022 T01330133=
200910051023 SPECI KATL 051023Z 07013KT 3SM -RA BR SCT001 OVC006 13/13 A2998 RMK AO2 CIG 004V009 P0021=
200910051023 SPECI KATL 051023Z 07013KT 3SM -RA BR SCT001 OVC006 13/13 A2998 RMK AO2 CIG 004V009 P0021=
200910050952 METAR KATL 050952Z 07011KT 2SM R09R/5500VP6000FT +RA BR BKN001 OVC006 13/13 A2998 RMK AO2 SLP147 P0020 T01330133 $=
200910050937 SPECI KATL 050937Z 08014KT 3SM -RA BR BKN001 OVC006 13/13 A2997 RMK AO2 P0009 $=
200910050937 SPECI KATL 050937Z 08014KT 3SM -RA BR BKN001 OVC006 13/13 A2997 RMK AO2 P0009 $=
200910050923 SPECI KATL 050923Z 07011KT 3SM -RA BKN003 BKN007 OVC013 13/ A2997 RMK AO2 CIG 001V005 P0008 $=
200910050923 SPECI KATL 050923Z 07011KT 3SM -RA BKN003 BKN007 OVC013 13/ A2997 RMK AO2 CIG 001V005 P0008 $=
200910050852 METAR KATL 050852Z 05012KT 2 1/2SM +RA BKN001 BKN007 OVC018 13/ A2998 RMK AO2 SLP147 P0015 60050 T0128 55003 $=
200910050752 METAR KATL 050752Z 09012KT 2 1/2SM RA BKN001 OVC007 12/ A2996 RMK AO2 SLP143 P0016 T0122 $=
200910050722 SPECI KATL 050722Z 11012G17KT 2 1/2SM RA BKN001 OVC007 12/ A2996 RMK AO2 P0010 $=
200910050722 SPECI KATL 050722Z 11012G17KT 2 1/2SM RA BKN001 OVC007 12/ A2996 RMK AO2 P0010 $=
200910050652 METAR KATL 050652Z 09012KT 5SM -RA BKN001 OVC007 12/ A2997 RMK AO2 SLP146 P0019 T0122 $=
200910050552 METAR KATL 050552Z 09013KT 3SM RA BKN001 BKN007 OVC035 12/ A2999 RMK AO2 SLP150 P0020 60058 T0122 10172 20122 56017 $=
200910050549 SPECI KATL 050549Z 09012KT 3SM RA BR BKN001 BKN007 OVC024 12/12 A2999 RMK AO2 P0019 $=
200910050549 SPECI KATL 050549Z 09012KT 3SM RA BR BKN001 BKN007 OVC024 12/12 A2999 RMK AO2 P0019 $=
200910050452 METAR KATL 050452Z 11010G19KT 2 1/2SM RA BR SCT003 OVC030 13/13 A3001 RMK AO2 SLP159 P0013 T01280128 402330128 $=
200910050439 SPECI KATL 050439Z 10011G18KT 2SM +RA BR FEW003 OVC042 13/12 A3002 RMK AO2 P0008 $=
200910050439 SPECI KATL 050439Z 10011G18KT 2SM +RA BR FEW003 OVC042 13/12 A3002 RMK AO2 P0008 $=
200910050352 METAR KATL 050352Z 11010KT 8SM -RA FEW010 BKN048 OVC070 13/12 A3004 RMK AO2 SLP168 P0007 T01330122 $=
200910050252 METAR KATL 050252Z 09009KT 5SM -RA BR FEW010 BKN042 OVC080 13/12 A3007 RMK AO2 SLP179 P0007 60018 T01330117 51007 $=
200910050152 METAR KATL 050152Z 09010KT 8SM -RA FEW019 SCT042 OVC080 14/12 A3006 RMK AO2 SLP175 P0009 T01440117 $=
200910050052 METAR KATL 050052Z 09006KT 8SM -RA SCT019 BKN046 OVC090 16/12 A3008 RMK AO2 SLP182 P0002 T01610122 $=
200910042352 METAR KATL 042352Z 06004KT 10SM -RA BKN048 BKN090 17/12 A3005 RMK AO2 SLP172 P0007 60007 T01720122 10228 20161 50005 $=
200910042252 METAR KATL 042252Z 00000KT 9SM -RA BKN055 OVC100 19/12 A3006 RMK AO2 RAB13 PRESRR SLP176 P0000 T01890122 $=
200910042152 METAR KATL 042152Z 06009KT 10SM BKN150 OVC200 21/09 A3004 RMK AO2 SLP168 T02060089 $=
200910042052 METAR KATL 042052Z 08008KT 10SM BKN150 OVC200 21/09 A3003 RMK AO2 SLP166 T02060094 56012 $=
200910041952 METAR KATL 041952Z 07008KT 10SM BKN150 OVC200 21/08 A3004 RMK AO2 SLP167 T02110078 $=
200910041852 METAR KATL 041852Z 12005KT 10SM FEW065 BKN150 BKN250 22/07 A3005 RMK AO2 SLP171 T02170067 $=
200910041752 METAR KATL 041752Z VRB03KT 10SM FEW065 BKN150 BKN200 22/07 A3007 RMK AO2 SLP178 T02220067 10233 20144 58009 $=
200910041652 METAR KATL 041652Z 06005KT 10SM BKN150 BKN200 22/07 A3008 RMK AO2 SLP182 T02170072 $=
200910041552 METAR KATL 041552Z 03008KT 10SM FEW075 OVC150 21/07 A3011 RMK AO2 SLP191 T02060072 $=
200910041452 METAR KATL 041452Z 06005KT 10SM BKN150 BKN250 19/08 A3010 RMK AO2 SLP188 T01940078 51008 $=
200910041352 METAR KATL 041352Z 04007KT 10SM FEW110 BKN150 BKN250 18/07 A3008 RMK AO2 PRESFR SLP182 T01780072 $=
200910041252 METAR KATL 041252Z 31006KT 10SM BKN150 BKN250 15/09 A3011 RMK AO2 SLP193 T01500089 $=
200910041152 METAR KATL 041152Z 30005KT 10SM BKN150 BKN250 14/08 A3008 RMK AO2 PRESRR SLP181 T01440083 10161 20139 53012 $=
200910041052 METAR KATL 041052Z 35006KT 10SM BKN150 BKN250 16/07 A3004 RMK AO2 SLP166 T01560067 $=
200910040952 METAR KATL 040952Z 33006KT 10SM BKN220 14/08 A3004 RMK AO2 SLP168 T01440078 $=
200910040852 METAR KATL 040852Z 32005KT 10SM BKN200 OVC250 14/08 A3004 RMK AO2 SLP166 T01440078 50003 $=
200910040752 METAR KATL 040752Z 29004KT 10SM BKN200 OVC250 14/08 A3005 RMK AO2 SLP169 T01440078 $=
200910040652 METAR KATL 040652Z 29004KT 10SM BKN180 OVC250 16/07 A3003 RMK AO2 SLP164 T01560067 $=
200910040552 METAR KATL 040552Z 30003KT 10SM BKN220 16/08 A3003 RMK AO2 SLP163 T01560078 10183 20150 53001 $=
200910040452 METAR KATL 040452Z 28003KT 10SM BKN220 16/07 A3002 RMK AO2 SLP159 T01610072 402440128 $=
200910040352 METAR KATL 040352Z 00000KT 10SM FEW120 BKN250 17/07 A3001 RMK AO2 SLP157 T01670072 $=
200910040252 METAR KATL 040252Z 28004KT 10SM BKN250 17/07 A3003 RMK AO2 SLP163 T01720072 53017 $=
200910040152 METAR KATL 040152Z 28003KT 10SM BKN250 18/07 A3001 RMK AO2 SLP157 T01780067 $=
200910040052 METAR KATL 040052Z 29004KT 10SM BKN250 18/07 A2999 RMK AO2 SLP151 T01830067 $=
200910032352 METAR KATL 032352Z 29005KT 10SM BKN250 18/07 A2998 RMK AO2 SLP147 T01830072 10244 20183 53012 $=
200910032252 METAR KATL 032252Z 27006KT 10SM SCT250 21/06 A2996 RMK AO2 SLP140 T02060061 $=
200910032152 METAR KATL 032152Z 29011G16KT 10SM FEW250 23/06 A2994 RMK AO2 SLP134 T02280056 $=
200910032052 METAR KATL 032052Z 29008KT 10SM FEW250 24/07 A2994 RMK AO2 SLP132 T02390067 55010 $=
200910031952 METAR KATL 031952Z 28010KT 10SM FEW250 23/06 A2993 RMK AO2 SLP130 T02330061 $=
200910031852 METAR KATL 031852Z 27010KT 10SM FEW250 23/06 A2995 RMK AO2 SLP137 T02330061 $=
200910031752 METAR KATL 031752Z VRB06KT 10SM CLR 23/07 A2997 RMK AO2 SLP143 T02330067 10233 20133 58009 $=
200910031652 METAR KATL 031652Z VRB05KT 10SM CLR 22/07 A2999 RMK AO2 SLP150 T02170067 $=
200910031552 METAR KATL 031552Z 29004KT 10SM CLR 21/07 A3000 RMK AO2 SLP153 T02060067 $=
200910031452 METAR KATL 031452Z 31006KT 10SM CLR 19/08 A3000 RMK AO2 SLP153 T01890083 51015 $=
200910031352 METAR KATL 031352Z 31005KT 10SM CLR 17/12 A3000 RMK AO2 SLP154 T01670117 $=
200910031252 METAR KATL 031252Z 31006KT 10SM CLR 14/12 A2998 RMK AO2 SLP148 T01440122=
200910031152 METAR KATL 031152Z 31005KT 10SM FEW005 13/12 A2995 RMK AO2 SLP140 T01330122 10178 20128 53012=
200910031052 METAR KATL 031052Z 32006KT 10SM FEW005 13/13 A2994 RMK AO2 SLP134 T01330133=
200910030952 METAR KATL 030952Z 32007KT 9SM FEW003 14/14 A2993 RMK AO2 SLP128 T01440144=
200910030943 SPECI KATL 030943Z 32007KT 6SM BR SCT003 14/14 A2993 RMK AO2=
200910030943 SPECI KATL 030943Z 32007KT 6SM BR SCT003 14/14 A2993 RMK AO2=
200910030918 SPECI KATL 030918Z 32008KT 3SM BR SCT003 OVC006 14/14 A2992 RMK AO2=
200910030918 SPECI KATL 030918Z 32008KT 3SM BR SCT003 OVC006 14/14 A2992 RMK AO2=
200910030909 SPECI KATL 030909Z 31005KT 1SM R09R/3500VP6000FT BR BKN003 OVC006 15/15 A2992 RMK AO2=
200910030909 SPECI KATL 030909Z 31005KT 1SM R09R/3500VP6000FT BR BKN003 OVC006 15/15 A2992 RMK AO2=
200910030858 SPECI KATL 030858Z 31005KT 1/2SM R09R/1600V3500FT FG VV002 15/15 A2992 RMK AO2=
200910030858 SPECI KATL 030858Z 31005KT 1/2SM R09R/1600V3500FT FG VV002 15/15 A2992 RMK AO2=
200910030852 METAR KATL 030852Z 31006KT 1/2SM R09R/1400V1600FT FG BKN001 OVC006 15/15 A2992 RMK AO2 SLP125 T01500150 58002=
200910030846 SPECI KATL 030846Z 32006KT 3/4SM R09R/1600V5000FT BR OVC001 15/15 A2992 RMK AO2=
200910030846 SPECI KATL 030846Z 32006KT 3/4SM R09R/1600V5000FT BR OVC001 15/15 A2992 RMK AO2=
200910030816 SPECI KATL 030816Z 30004KT 1SM R09R/P6000FT BR OVC001 16/16 A2992 RMK AO2=
200910030816 SPECI KATL 030816Z 30004KT 1SM R09R/P6000FT BR OVC001 16/16 A2992 RMK AO2=
200910030752 METAR KATL 030752Z 27004KT 3/4SM R09R/6000VP6000FT BR VV001 16/16 A2992 RMK AO2 SLP126 T01610161=
200910030737 SPECI KATL 030737Z 00000KT 1/2SM R09R/P6000FT FG VV001 16/16 A2992 RMK AO2=
200910030737 SPECI KATL 030737Z 00000KT 1/2SM R09R/P6000FT FG VV001 16/16 A2992 RMK AO2=
200910030735 SPECI KATL 030735Z 00000KT 1SM R09R/P6000FT BR SCT002 BKN025 16/16 A2992 RMK AO2=
200910030735 SPECI KATL 030735Z 00000KT 1SM R09R/P6000FT BR SCT002 BKN025 16/16 A2992 RMK AO2=
200910030659 SPECI KATL 030659Z 00000KT 5SM BR SCT025 17/17 A2992 RMK AO2=
200910030659 SPECI KATL 030659Z 00000KT 5SM BR SCT025 17/17 A2992 RMK AO2=
200910030652 METAR KATL 030652Z 27003KT 6SM BR BKN025 17/17 A2992 RMK AO2 SLP127 T01670167=
200910030622 SPECI KATL 030622Z 25003KT 6SM BR BKN025 17/17 A2992 RMK AO2=
200910030622 SPECI KATL 030622Z 25003KT 6SM BR BKN025 17/17 A2992 RMK AO2=
200910030552 METAR KATL 030552Z 26003KT 10SM CLR 17/17 A2992 RMK AO2 SLP126 T01670167 10200 20167 50004=
200910030452 METAR KATL 030452Z 00000KT 10SM CLR 17/17 A2993 RMK AO2 SLP128 T01720167 402390150=
200910030352 METAR KATL 030352Z 22003KT 10SM CLR 17/17 A2992 RMK AO2 SLP126 T01720167=
200910030252 METAR KATL 030252Z 00000KT 10SM CLR 18/17 A2991 RMK AO2 SLP123 T01780172 53009=
200910030152 METAR KATL 030152Z 22003KT 10SM FEW055 18/17 A2990 RMK AO2 SLP121 T01830172=
200910030052 METAR KATL 030052Z 21005KT 10SM FEW055 19/17 A2989 RMK AO2 SLP117 T01890172=
200910022352 METAR KATL 022352Z 22005KT 10SM FEW055 SCT085 20/17 A2988 RMK AO2 SLP115 60000 T02000172 10239 20200 53003=
200910022252 METAR KATL 022252Z 21005KT 10SM FEW060 BKN085 21/17 A2988 RMK AO2 SLP112 T02110167=
200910022152 METAR KATL 022152Z 21007KT 10SM FEW035 OVC075 22/17 A2987 RMK AO2 RAE03 SLP110 P0000 T02170167=
200910022052 METAR KATL 022052Z 22009KT 10SM -RA BKN030 OVC045 22/17 A2987 RMK AO2 RAB45 SLP110 PCPN VRY LGT P0000 60000 T02170167 56007=
200910021952 METAR KATL 021952Z 21010KT 10SM BKN030 OVC040 22/16 A2988 RMK AO2 SLP112 T02220161=
200910021852 METAR KATL 021852Z 21007KT 10SM BKN030 BKN040 22/16 A2988 RMK AO2 SLP111 T02220161=
200910021752 METAR KATL 021752Z 22014G19KT 10SM BKN030 BKN150 BKN250 23/16 A2990 RMK AO2 SLP117 T02330161 10233 20156 58017 $=
200910021652 METAR KATL 021652Z 21011G14KT 10SM FEW020 SCT120 SCT150 BKN250 21/16 A2992 RMK AO2 SLP128 T02110161 $=
200910021552 METAR KATL 021552Z 20011KT 10SM FEW120 SCT150 BKN180 20/16 A2994 RMK AO2 SLP131 T02000156 $=
200910021452 METAR KATL 021452Z 21006KT 10SM FEW120 BKN150 OVC180 18/14 A2995 RMK AO2 SLP135 VIRGA OHD-NE-S T01830144 58002 $=
200910021352 METAR KATL 021352Z 19005KT 10SM FEW120 BKN180 OVC250 17/13 A2995 RMK AO2 SLP137 T01720133 $=
200910021252 METAR KATL 021252Z 21004KT 10SM FEW110 BKN180 BKN250 16/12 A2997 RMK AO2 SLP143 T01610122=
200910021152 METAR KATL 021152Z 22003KT 10SM FEW110 BKN250 16/12 A2995 RMK AO2 SLP138 T01560122 10167 20150 53003 $=
200910021052 METAR KATL 021052Z 17003KT 10SM SCT200 OVC250 16/12 A2993 RMK AO2 SLP131 T01560122=
200910020952 METAR KATL 020952Z 15003KT 10SM BKN200 OVC250 16/12 A2994 RMK AO2 SLP132 T01610122=
200910020852 METAR KATL 020852Z 20004KT 10SM BKN200 BKN250 16/12 A2995 RMK AO2 SLP134 T01560122 55004=
200910020752 METAR KATL 020752Z 00000KT 10SM BKN180 BKN250 16/13 A2993 RMK AO2 SLP129 T01560128=
200910020652 METAR KATL 020652Z 00000KT 10SM BKN180 BKN250 16/13 A2994 RMK AO2 SLP134 T01610128=
200910020552 METAR KATL 020552Z 00000KT 10SM BKN150 BKN250 16/13 A2996 RMK AO2 SLP138 T01610128 10206 20161 55007=
200910020452 METAR KATL 020452Z COR 16003KT 10SM BKN200 BKN250 17/13 A2995 RMK AO2 SLP137 T01670133 402440117=
200910020352 METAR KATL 020352Z 18005KT 10SM SCT200 BKN250 17/12 A2997 RMK AO2 SLP144 T01720122=
200910020252 METAR KATL 020252Z 14003KT 10SM OVC200 18/12 A2998 RMK AO2 SLP146 T01830122 58003=
200910020152 METAR KATL 020152Z 16003KT 10SM BKN250 19/11 A2998 RMK AO2 SLP149 T01940111 $=
200910020052 METAR KATL 020052Z 00000KT 10SM SCT250 19/12 A2999 RMK AO2 SLP151 T01940117 $=
200910012352 METAR KATL 012352Z 18003KT 10SM FEW250 21/12 A2999 RMK AO2 SLP150 10244 20206 T02060117 56002 $=
200910012252 METAR KATL 012252Z 19005KT 10SM FEW250 22/12 A2999 RMK AO2 SLP150 T02220117 $=
200910012152 METAR KATL 012152Z 25003KT 10SM FEW055 23/10 A2999 RMK AO2 SLP150 T02330100 $=
200910012052 METAR KATL 012052Z 24003KT 10SM FEW050 SCT250 24/11 A2999 RMK AO2 SLP151 T02390106 56016 $=
200910011952 METAR KATL 011952Z 15006KT 10SM FEW050 SCT250 24/11 A3000 RMK AO2 SLP154 T02390111 $=
200910011852 METAR KATL 011852Z VRB03KT 10SM FEW050 SCT250 24/12 A3002 RMK AO2 SLP159 T02390117 $=
200910011752 METAR KATL 011752Z VRB03KT 10SM FEW050 SCT250 23/12 A3004 RMK AO2 SLP167 T02330117 10233 20117 58012 $=
200910011652 METAR KATL 011652Z 14003KT 10SM FEW050 SCT250 22/11 A3006 RMK AO2 SLP173 T02220111 $=
200910011552 METAR KATL 011552Z 09003KT 10SM FEW250 21/12 A3007 RMK AO2 SLP178 T02060117 $=
200910011452 METAR KATL 011452Z COR 07004KT 10SM FEW250 18/13 A3008 RMK AO2 SLP181 T01720122 50004 $=
200910011352 METAR KATL 011352Z 09005KT 10SM CLR 16/12 A3008 RMK AO2 SLP182 T01610117 $=
200910011252 METAR KATL 011252Z 07005KT 10SM CLR 15/12 A3007 RMK AO2 SLP179 T01500117=
