##########################################################
# Query made at 04/19/2024 23:12:06 UTC
# Time interval: from 07/01/2009 12:00  to 07/31/2009 12:59  UTC
##########################################################

##########################################################
# KATL, Atlanta, Hartsfield - Jackson Atlanta International Airport (United States)
# WMO index: 72219. WIGOS ID: 0-20000-0-72219
# Latitude 33-38-59N. Longitude 084-25-00W. Altitude 312 m.
##########################################################

200907311252 METAR KATL 311252Z 22010KT 6SM BR BKN012 BKN015 24/23 A3007 RMK AO2 SLP174 T02440233=
200907311227 SPECI KATL 311227Z 21011KT 6SM BR BKN012 BKN015 24/23 A3006 RMK AO2=
200907311227 SPECI KATL 311227Z 21011KT 6SM BR BKN012 BKN015 24/23 A3006 RMK AO2=
200907311152 METAR KATL 311152Z 23007KT 6SM BR BKN007 OVC012 23/23 A3005 RMK AO2 SLP167 60000 70033 T02330228 10233 20217 51005=
200907311052 METAR KATL 311052Z 23008KT 3SM BR BKN007 OVC023 23/22 A3005 RMK AO2 SFC VIS 5 RAB27E52 SLP167 P0000 T02280222=
200907311010 SPECI KATL 311010Z 22007KT 6SM BR BKN009 OVC011 22/21 A3005 RMK AO2=
200907311010 SPECI KATL 311010Z 22007KT 6SM BR BKN009 OVC011 22/21 A3005 RMK AO2=
200907310952 METAR KATL 310952Z 22006KT 6SM BR BKN011 OVC014 22/21 A3004 RMK AO2 SLP163 T02220211=
200907310905 SPECI KATL 310905Z 21007KT 10SM BKN013 OVC019 22/21 A3003 RMK AO2=
200907310905 SPECI KATL 310905Z 21007KT 10SM BKN013 OVC019 22/21 A3003 RMK AO2=
200907310852 METAR KATL 310852Z 21008KT 10SM BKN017 22/21 A3004 RMK AO2 SLP162 T02170211 56007=
200907310752 METAR KATL 310752Z 22006KT 10SM BKN020 BKN024 22/21 A3004 RMK AO2 SLP163 T02220211=
200907310652 METAR KATL 310652Z 20009KT 10SM SCT029 SCT150 22/21 A3005 RMK AO2 SLP167 T02220211=
200907310552 METAR KATL 310552Z 21006KT 10SM BKN150 BKN250 23/22 A3006 RMK AO2 SLP168 60001 T02280217 10233 20228 56014=
200907310452 METAR KATL 310452Z 19007KT 10SM FEW035 BKN150 BKN250 23/22 A3006 RMK AO2 SLP172 T02280222 402780222=
200907310352 METAR KATL 310352Z 18005KT 10SM BKN150 OVC250 23/22 A3008 RMK AO2 RAB0254E17 SLP177 P0000 T02280217=
200907310252 METAR KATL 310252Z 00000KT 10SM FEW045 SCT070 BKN150 OVC200 23/22 A3010 RMK AO2 RAB22E38 SLP185 P0000 60001 T02330222 53020=
200907310152 METAR KATL 310152Z 00000KT 10SM BKN150 OVC200 23/22 A3008 RMK AO2 SLP178 T02280217=
200907310052 METAR KATL 310052Z 20003KT 10SM FEW025 BKN150 BKN200 BKN250 23/22 A3005 RMK AO2 RAE33 SLP168 FRQ LTG DSNT NE P0001 T02280217=
200907302352 METAR KATL 302352Z 24009G18KT 10SM -RA SCT025 BKN055 BKN150 OVC250 23/21 A3004 RMK AO2 TSB22E52RAE01B42 SLP164 OCNL LTGICCG DSNT NW-NE TS MOV NE P0000 60016 T02330206 10272 20222 52006=
200907302323 SPECI KATL 302323Z 15003KT 10SM TS FEW025CB SCT150 BKN250 26/23 A3002 RMK AO2 TSB22RAE01 OCNL LTGICCG NW TS NW MOV NE P0000 $=
200907302323 SPECI KATL 302323Z 15003KT 10SM TS FEW025CB SCT150 BKN250 26/23 A3002 RMK AO2 TSB22RAE01 OCNL LTGICCG NW TS NW MOV NE P0000 $=
200907302252 METAR KATL 302252Z 20003KT 6SM RA SCT025CB SCT040 BKN065 BKN200 26/23 A3003 RMK AO2 RAB46 SLP160 CB SW-OHD MOV NE P0003 T02560228=
200907302152 METAR KATL 302152Z 00000KT 10SM FEW015TCU SCT110 SCT150 BKN250 26/23 A3003 RMK AO2 SLP160 TCU W T02560228=
200907302052 METAR KATL 302052Z 00000KT 10SM FEW010 SCT110 BKN150 BKN250 24/23 A3002 RMK AO2 SLP157 CB DSNT S 60013 T02440228 58017=
200907301952 METAR KATL 301952Z 28004KT 10SM FEW010 SCT080 BKN150 24/23 A3003 RMK AO2 RAE24 SLP160 CB DSNT S P0001 T02390228=
200907301852 METAR KATL 301852Z 31008KT 10SM -RA FEW020 SCT040 BKN060 BKN150 BKN250 23/22 A3007 RMK AO2 PK WND 34035/1807 WSHFT 1803 TSB09E29B36E51RAB16 SLP172 TS MOV E CB DSNT E-SE-S P0012 T02280222=
200907301836 SPECI KATL 301836Z 32013G26KT 6SM R09R/6000VP6000FT TSRA BR FEW020CB BKN040 BKN065 22/21 A3008 RMK AO2 PK WND 34035/1807 WSHFT 1803 TSB09E29B36RAB16 OCNL LTGIC S TS S MOV E SHRA S P0006=
200907301836 SPECI KATL 301836Z 32013G26KT 6SM R09R/6000VP6000FT TSRA BR FEW020CB BKN040 BKN065 22/21 A3008 RMK AO2 PK WND 34035/1807 WSHFT 1803 TSB09E29B36RAB16 OCNL LTGIC S TS S MOV E SHRA S P0006=
200907301832 SPECI KATL 301832Z 32018G26KT 9SM -RA FEW020CB BKN040 BKN065 23/21 A3009 RMK AO2 PK WND 34035/1807 WSHFT 1803 TSB09E29RAB16 TS MOV E CB SW-W MOV E CB DSNT NE-E-SE-S P0000=
200907301832 SPECI KATL 301832Z 32018G26KT 9SM -RA FEW020CB BKN040 BKN065 23/21 A3009 RMK AO2 PK WND 34035/1807 WSHFT 1803 TSB09E29RAB16 TS MOV E CB SW-W MOV E CB DSNT NE-E-SE-S P0000=
200907301819 SPECI KATL 301819Z 33021G30KT 9SM -TSRA SCT020CB BKN030TCU BKN050 23/21 A3008 RMK AO2 PK WND 34035/1807 WSHFT 1803 TSB09RAB16 OCNL LTGIC NE TS NE MOV E CB W-NW MOV E TCU ALQDS SHRA NE & W-NW P0000=
200907301819 SPECI KATL 301819Z 33021G30KT 9SM -TSRA SCT020CB BKN030TCU BKN050 23/21 A3008 RMK AO2 PK WND 34035/1807 WSHFT 1803 TSB09RAB16 OCNL LTGIC NE TS NE MOV E CB W-NW MOV E TCU ALQDS SHRA NE & W-NW P0000=
200907301810 SPECI KATL 301810Z 33023G35KT 10SM TS SCT020CB BKN040 BKN050 25/21 A3008 RMK AO2 PK WND 34035/1807 TSB09 OCNL LTGIC N-NE TS N-NE MOV E CB DSNT S-SW MOV E=
200907301810 SPECI KATL 301810Z 33023G35KT 10SM TS SCT020CB BKN040 BKN050 25/21 A3008 RMK AO2 PK WND 34035/1807 TSB09 OCNL LTGIC N-NE TS N-NE MOV E CB DSNT S-SW MOV E=
200907301752 METAR KATL 301752Z 29011G16KT 10SM FEW020CB SCT030TCU BKN040 BKN150 BKN250 27/23 A3007 RMK AO2 SLP173 CB NE & NW-N MOV E TCU S-SW-W-NW SHRA NE & NW-N 60016 T02670228 10278 20222 56007=
200907301749 SPECI KATL 301749Z 29009KT 10SM FEW020CB SCT030TCU BKN040 BKN150 BKN250 27/23 A3007 RMK AO2 CB NW-N MOV E TCU S-SW-W-NW SHRA NW-N=
200907301749 SPECI KATL 301749Z 29009KT 10SM FEW020CB SCT030TCU BKN040 BKN150 BKN250 27/23 A3007 RMK AO2 CB NW-N MOV E TCU S-SW-W-NW SHRA NW-N=
200907301654 SPECI KATL 301654Z 24007KT 10SM SCT017 BKN025 BKN150 26/23 A3008 RMK AO2=
200907301654 SPECI KATL 301654Z 24007KT 10SM SCT017 BKN025 BKN150 26/23 A3008 RMK AO2=
200907301652 METAR KATL 301652Z 26011KT 10SM SCT020 BKN030 BKN150 26/23 A3008 RMK AO2 SLP177 T02610233=
200907301552 METAR KATL 301552Z 27007KT 10SM FEW010 SCT040 SCT100 BKN250 24/23 A3009 RMK AO2 RAE01 SLP181 CB DSNT NE-E SHRA DSNT NE-E P0000 T02440228=
200907301529 SPECI KATL 301529Z 22005KT 10SM FEW004 BKN029 BKN050 BKN150 BKN250 23/22 A3010 RMK AO2 RAE01 P0000=
200907301529 SPECI KATL 301529Z 22005KT 10SM FEW004 BKN029 BKN050 BKN150 BKN250 23/22 A3010 RMK AO2 RAE01 P0000=
200907301452 METAR KATL 301452Z 20003KT 10SM -RA FEW005 SCT040 BKN080 BKN150 BKN250 22/22 A3009 RMK AO2 TSE00B26E48 SLP182 TS MOV E CB DSNT NE-E-SE P0006 60016 T02220217 51016=
200907301426 SPECI KATL 301426Z 23004KT 6SM -TSRA FEW010CB BKN040 OVC060 22/22 A3010 RMK AO2 TSE00B26 OCNL LTGICCG E-SE-S TS E-SE-S MOV E P0003=
200907301426 SPECI KATL 301426Z 23004KT 6SM -TSRA FEW010CB BKN040 OVC060 22/22 A3010 RMK AO2 TSE00B26 OCNL LTGICCG E-SE-S TS E-SE-S MOV E P0003=
200907301404 SPECI KATL 301404Z 26007G17KT 5SM -RA BR SCT007 SCT016 OVC031 23/22 A3008 RMK AO2 TSE00 TS MOV E P0001=
200907301404 SPECI KATL 301404Z 26007G17KT 5SM -RA BR SCT007 SCT016 OVC031 23/22 A3008 RMK AO2 TSE00 TS MOV E P0001=
200907301400 SPECI KATL 301400Z 27010G20KT 1 1/2SM RA BR SCT007 BKN012 OVC029 23/22 A3009 RMK AO2 SFC VIS 5 TSE00 TS MOV E P0001=
200907301400 SPECI KATL 301400Z 27010G20KT 1 1/2SM RA BR SCT007 BKN012 OVC029 23/22 A3009 RMK AO2 SFC VIS 5 TSE00 TS MOV E P0001=
200907301352 METAR KATL 301352Z 24012G20KT 1 1/2SM -TSRA BKN007CB BKN013 OVC025 23/23 A3009 RMK AO2 SFC VIS 5 TSB30RAB30 SLP181 OCNL LTGIC NE-E TS=
200907301341 SPECI KATL 301341Z VRB06KT 1 1/2SM R09R/6000VP6000FT TSRA BKN007CB BKN013 OVC030 23/23 A3008 RMK AO2 SFC VIS 3 TSB30RAB30 OCNL LTGIC OHD-N-NE-E TS OHD-N-NE-E MOV E P0003=
200907301341 SPECI KATL 301341Z VRB06KT 1 1/2SM R09R/6000VP6000FT TSRA BKN007CB BKN013 OVC030 23/23 A3008 RMK AO2 SFC VIS 3 TSB30RAB30 OCNL LTGIC OHD-N-NE-E TS OHD-N-NE-E MOV E P0003=
200907301334 SPECI KATL 301334Z 28006KT 1 1/2SM R09R/6000VP6000FT TSRA BKN007CB BKN029 OVC040 23/23 A3008 RMK AO2 SFC VIS 4 TSB30RAB30 OCNL LTGIC OHD-SW-W-NW TS OHD-SW-W-NW MOV E P0000=
200907301334 SPECI KATL 301334Z 28006KT 1 1/2SM R09R/6000VP6000FT TSRA BKN007CB BKN029 OVC040 23/23 A3008 RMK AO2 SFC VIS 4 TSB30RAB30 OCNL LTGIC OHD-SW-W-NW TS OHD-SW-W-NW MOV E P0000=
200907301331 SPECI KATL 301331Z 26006KT 1/2SM R09R/P6000FT +TSRA FG BKN007CB BKN029 OVC040 24/23 A3008 RMK AO2 TWR VIS 1 1/2 TSB30RAB30 OCNL LTGIC OHD-SW-W-NW TS OHD-SW-W-NW MOV E P0000=
200907301331 SPECI KATL 301331Z 26006KT 1/2SM R09R/P6000FT +TSRA FG BKN007CB BKN029 OVC040 24/23 A3008 RMK AO2 TWR VIS 1 1/2 TSB30RAB30 OCNL LTGIC OHD-SW-W-NW TS OHD-SW-W-NW MOV E P0000=
200907301318 SPECI KATL 301318Z 21008KT 10SM FEW005 SCT010CB BKN060 BKN250 24/23 A3007 RMK AO2 CB SW-W MOV E SHRA SW-W=
200907301318 SPECI KATL 301318Z 21008KT 10SM FEW005 SCT010CB BKN060 BKN250 24/23 A3007 RMK AO2 CB SW-W MOV E SHRA SW-W=
200907301252 METAR KATL 301252Z 22006KT 8SM SCT065 BKN090 BKN150 23/22 A3006 RMK AO2 RAB09E34 SLP169 P0002 T02330222=
200907301243 SPECI KATL 301243Z 22007KT 8SM FEW009 SCT041 BKN065 23/22 A3006 RMK AO2 RAB09E34 P0002=
200907301243 SPECI KATL 301243Z 22007KT 8SM FEW009 SCT041 BKN065 23/22 A3006 RMK AO2 RAB09E34 P0002=
200907301152 METAR KATL 301152Z COR 21004KT 7SM FEW015 SCT055TCU BKN150 22/22 A3005 RMK AO2 SLP164 TCU DSNT SW & W 60002 70005 T02220217 10233 20222 53009=
200907301052 METAR KATL 301052Z 21005KT 7SM FEW020 BKN150 BKN200 23/22 A3002 RMK AO2 RAE10 SLP156 P0000 T02280217=
200907300952 METAR KATL 300952Z 25007KT 6SM -RA BR SCT008 OVC037 23/22 A3002 RMK AO2 RAB05 SLP154 P0002 T02280217=
200907300949 SPECI KATL 300949Z 26006KT 6SM -RA BR FEW008 OVC037 23/22 A3002 RMK AO2 RAB05 P0002=
200907300949 SPECI KATL 300949Z 26006KT 6SM -RA BR FEW008 OVC037 23/22 A3002 RMK AO2 RAB05 P0002=
200907300919 SPECI KATL 300919Z 23006KT 6SM -RA BR OVC008 23/22 A3002 RMK AO2 RAB05 P0000=
200907300919 SPECI KATL 300919Z 23006KT 6SM -RA BR OVC008 23/22 A3002 RMK AO2 RAB05 P0000=
200907300852 METAR KATL 300852Z 23007KT 8SM BKN010 BKN015 OVC028 23/22 A3002 RMK AO2 CIG 008V013 SLP156 OCNL LTG DSNT W T02330222 55000=
200907300834 SPECI KATL 300834Z 23007KT 8SM BKN013 BKN021 BKN027 23/22 A3002 RMK AO2 OCNL LTG DSNT W=
200907300834 SPECI KATL 300834Z 23007KT 8SM BKN013 BKN021 BKN027 23/22 A3002 RMK AO2 OCNL LTG DSNT W=
200907300825 SPECI KATL 300825Z 23007KT 10SM BKN015 BKN021 BKN026 23/22 A3002 RMK AO2 OCNL LTG DSNT W=
200907300825 SPECI KATL 300825Z 23007KT 10SM BKN015 BKN021 BKN026 23/22 A3002 RMK AO2 OCNL LTG DSNT W=
200907300752 METAR KATL 300752Z 23006KT 10SM BKN180 23/22 A3002 RMK AO2 SLP154 T02280222=
200907300652 METAR KATL 300652Z 22008KT 10SM FEW015 SCT100 BKN250 23/22 A3002 RMK AO2 SLP156 T02330222=
200907300552 METAR KATL 300552Z 21007KT 10SM FEW020 SCT250 23/22 A3002 RMK AO2 SLP158 T02330222 10272 20233 58001=
200907300452 METAR KATL 300452Z 24005KT 10SM BKN250 24/22 A3002 RMK AO2 SLP157 T02390217 402940217=
200907300352 METAR KATL 300352Z 22007KT 10SM FEW150 BKN250 24/22 A3004 RMK AO2 SLP162 T02440222=
200907300252 METAR KATL 300252Z 23006KT 10SM BKN250 24/22 A3003 RMK AO2 SLP158 T02440217 53020=
200907300152 METAR KATL 300152Z 23005KT 10SM SCT200 BKN250 25/21 A3000 RMK AO2 SLP150 T02500211=
200907300052 METAR KATL 300052Z 24006KT 10SM FEW200 BKN250 26/21 A2999 RMK AO2 SLP145 T02610211=
200907292352 METAR KATL 292352Z 23010KT 10SM FEW032 BKN250 28/22 A2996 RMK AO2 SLP136 T02780217 10294 20256 51005=
200907292252 METAR KATL 292252Z 25008KT 10SM SCT038 SCT050 BKN250 28/21 A2996 RMK AO2 SLP135 T02830211=
200907292152 METAR KATL 292152Z 26011KT 10SM FEW037 SCT047 SCT150 BKN250 29/21 A2996 RMK AO2 SLP134 T02940206=
200907292052 METAR KATL 292052Z 24012KT 10SM FEW035 SCT250 29/21 A2995 RMK AO2 SLP130 T02940211 56018=
200907291952 METAR KATL 291952Z 23008G18KT 10SM FEW030TCU SCT040 BKN250 28/21 A2996 RMK AO2 SLP136 TCU N T02830211=
200907291852 METAR KATL 291852Z 23014G19KT 10SM BKN030 27/22 A2997 RMK AO2 SLP139 T02720217=
200907291759 SPECI KATL 291759Z 26011KT 10SM SCT020TCU BKN030 BKN050 27/22 A3000 RMK AO2 CB DSNT E TCU SE-S SHRA DSNT E=
200907291759 SPECI KATL 291759Z 26011KT 10SM SCT020TCU BKN030 BKN050 27/22 A3000 RMK AO2 CB DSNT E TCU SE-S SHRA DSNT E=
200907291752 METAR KATL 291752Z 25012KT 10SM FEW020 BKN030 BKN050 26/22 A3000 RMK AO2 SLP151 CB DSNT SE TCU DSNT NW 60003 T02560217 10261 20217 50002=
200907291652 METAR KATL 291652Z 25011G19KT 10SM BKN020 BKN040 OVC150 25/21 A3001 RMK AO2 SLP154 T02500211=
200907291552 METAR KATL 291552Z COR 25014G19KT 10SM FEW015 SCT050 SCT120 BKN150 24/22 A3001 RMK AO2 RAB06E13 SLP151 P0001 T02440217=
200907291513 SPECI KATL 291513Z 24009G16KT 10SM R09R/5500VP6000FT SCT012 BKN050 BKN080 BKN150 23/21 A3000 RMK AO2 RAB06E13 VIS LWR E SHRA P0001=
200907291513 SPECI KATL 291513Z 24009G16KT 10SM R09R/5500VP6000FT SCT012 BKN050 BKN080 BKN150 23/21 A3000 RMK AO2 RAB06E13 VIS LWR E SHRA P0001=
200907291508 SPECI KATL 291508Z 23010KT 6SM R09R/5500VP6000FT -RA BR SCT012 BKN050 BKN080 BKN150 23/22 A2999 RMK AO2 RAB06 P0000=
200907291508 SPECI KATL 291508Z 23010KT 6SM R09R/5500VP6000FT -RA BR SCT012 BKN050 BKN080 BKN150 23/22 A2999 RMK AO2 RAB06 P0000=
200907291452 METAR KATL 291452Z 23010KT 10SM FEW010 SCT020 BKN080 BKN150 23/21 A3000 RMK AO2 SLP150 60002 T02280211 51003=
200907291419 SPECI KATL 291419Z 22013G22KT 10SM BKN010 BKN020 OVC080 22/21 A3000 RMK AO2=
200907291419 SPECI KATL 291419Z 22013G22KT 10SM BKN010 BKN020 OVC080 22/21 A3000 RMK AO2=
200907291409 SPECI KATL 291409Z 22009G18KT 10SM BKN008 BKN013 BKN020 OVC150 22/21 A3000 RMK AO2 CIG 006V011=
200907291409 SPECI KATL 291409Z 22009G18KT 10SM BKN008 BKN013 BKN020 OVC150 22/21 A3000 RMK AO2 CIG 006V011=
200907291352 METAR KATL 291352Z 22013G19KT 10SM FEW008 BKN020 BKN095 OVC150 22/21 A3000 RMK AO2 RAE39 SLP150 P0001 T02220211=
200907291350 SPECI KATL 291350Z 22010KT 10SM FEW008 SCT027 BKN095 OVC150 22/21 A3000 RMK AO2 RAE39 P0001=
200907291350 SPECI KATL 291350Z 22010KT 10SM FEW008 SCT027 BKN095 OVC150 22/21 A3000 RMK AO2 RAE39 P0001=
200907291313 SPECI KATL 291313Z 21012KT 9SM -RA BKN008 BKN032 OVC085 22/21 A2998 RMK AO2 P0001=
200907291313 SPECI KATL 291313Z 21012KT 9SM -RA BKN008 BKN032 OVC085 22/21 A2998 RMK AO2 P0001=
200907291308 SPECI KATL 291308Z 20010KT 9SM -RA SCT008 BKN012 BKN080 22/21 A2998 RMK AO2 P0001=
200907291308 SPECI KATL 291308Z 20010KT 9SM -RA SCT008 BKN012 BKN080 22/21 A2998 RMK AO2 P0001=
200907291252 METAR KATL 291252Z 21011G20KT 7SM -RA BKN008 OVC013 22/21 A2999 RMK AO2 RAB03 CIG 005V011 SLP148 P0001 T02170211=
200907291214 SPECI KATL 291214Z 21009KT 7SM -RA BKN008 OVC013 22/21 A2998 RMK AO2 RAB03 P0000=
200907291214 SPECI KATL 291214Z 21009KT 7SM -RA BKN008 OVC013 22/21 A2998 RMK AO2 RAB03 P0000=
200907291152 METAR KATL 291152Z 22010KT 7SM FEW008 BKN012 OVC016 22/21 A2998 RMK AO2 RAB10E46 SLP143 P0008 60008 70028 T02170211 10222 20217 53009=
200907291143 SPECI KATL 291143Z 20010KT 7SM -RA BKN008 BKN012 OVC018 22/21 A2997 RMK AO2 RAB10 P0008=
200907291143 SPECI KATL 291143Z 20010KT 7SM -RA BKN008 BKN012 OVC018 22/21 A2997 RMK AO2 RAB10 P0008=
200907291125 SPECI KATL 291125Z 21010KT 3SM -RA BR BKN010 OVC016 22/21 A2996 RMK AO2 RAB10 P0007=
200907291125 SPECI KATL 291125Z 21010KT 3SM -RA BR BKN010 OVC016 22/21 A2996 RMK AO2 RAB10 P0007=
200907291121 SPECI KATL 291121Z 21010G19KT 2SM RA BR BKN010 OVC014 22/21 A2997 RMK AO2 RAB10 P0006=
200907291121 SPECI KATL 291121Z 21010G19KT 2SM RA BR BKN010 OVC014 22/21 A2997 RMK AO2 RAB10 P0006=
200907291052 METAR KATL 291052Z 22009G16KT 7SM BKN008 OVC012 22/21 A2997 RMK AO2 SLP137 T02220206=
200907290952 METAR KATL 290952Z 22006KT 7SM BKN009 OVC013 22/21 A2994 RMK AO2 SLP129 T02220211=
200907290852 METAR KATL 290852Z 20010KT 6SM BR BKN009 OVC015 22/21 A2995 RMK AO2 CIG 006V012 SLP130 60000 T02220211 56009=
200907290752 METAR KATL 290752Z 20007KT 6SM BR BKN007 BKN012 OVC018 22/21 A2995 RMK AO2 SLP131 T02220211=
200907290652 METAR KATL 290652Z 20008KT 6SM BR BKN007 OVC012 22/21 A2996 RMK AO2 RAB37E46 SLP133 P0000 T02220211=
200907290552 METAR KATL 290552Z 20007KT 6SM BR BKN007 OVC012 22/22 A2997 RMK AO2 CIG 005V010 SLP139 60002 T02220217 10222 20217 58005=
200907290548 SPECI KATL 290548Z 21007KT 6SM BR BKN007 OVC012 22/22 A2998 RMK AO2 CIG 005V010=
200907290548 SPECI KATL 290548Z 21007KT 6SM BR BKN007 OVC012 22/22 A2998 RMK AO2 CIG 005V010=
200907290452 METAR KATL 290452Z 20007KT 10SM SCT007 BKN012 OVC020 22/21 A2999 RMK AO2 RAE0359 SLP144 P0000 T02220211 403170217=
200907290412 SPECI KATL 290412Z 21007KT 10SM SCT007 BKN012 OVC150 22/21 A2999 RMK AO2 RAE0359 P0000=
200907290412 SPECI KATL 290412Z 21007KT 10SM SCT007 BKN012 OVC150 22/21 A2999 RMK AO2 RAE0359 P0000=
200907290352 METAR KATL 290352Z 20007KT 10SM -RA SCT007 BKN080 OVC150 22/21 A2999 RMK AO2 RAB52 SLP144 SCT007 V BKN P0000 T02220211=
200907290346 SPECI KATL 290346Z 21008KT 10SM SCT007 BKN080 OVC150 22/21 A2999 RMK AO2 SCT007 V BKN=
200907290346 SPECI KATL 290346Z 21008KT 10SM SCT007 BKN080 OVC150 22/21 A2999 RMK AO2 SCT007 V BKN=
200907290252 METAR KATL 290252Z 21006KT 10SM BKN007 BKN015 OVC150 22/21 A2998 RMK AO2 SLP142 CIG 005V009 60002 T02220211 56005=
200907290208 SPECI KATL 290208Z 22006KT 10SM BKN007 BKN025 OVC150 22/21 A2998 RMK AO2=
200907290208 SPECI KATL 290208Z 22006KT 10SM BKN007 BKN025 OVC150 22/21 A2998 RMK AO2=
200907290152 METAR KATL 290152Z 21007KT 10SM SCT008 BKN025 OVC120 22/21 A2998 RMK AO2 RAE47 SLP143 P0001 T02170211=
200907290137 SPECI KATL 290137Z 21007KT 10SM -RA FEW007 BKN025 BKN110 22/21 A2998 RMK AO2 P0001=
200907290137 SPECI KATL 290137Z 21007KT 10SM -RA FEW007 BKN025 BKN110 22/21 A2998 RMK AO2 P0001=
200907290052 METAR KATL 290052Z 23005KT 9SM -RA FEW035 BKN065 BKN120 OVC150 22/21 A2999 RMK AO2 TSE01 SLP147 TS DSIPTD P0001 T02170211=
200907290001 SPECI KATL 290001Z 18009KT 7SM -RA FEW035 BKN055 OVC150 22/21 A2999 RMK AO2 TSE01 TS DSIPTD P0001=
200907290001 SPECI KATL 290001Z 18009KT 7SM -RA FEW035 BKN055 OVC150 22/21 A2999 RMK AO2 TSE01 TS DSIPTD P0001=
200907282352 METAR KATL 282352Z 20011G20KT 6SM -TSRA BR FEW010 SCT040CB BKN060 OVC150 22/21 A3000 RMK AO2 PK WND 19037/2323 TSB26RAB31 SLP149 OCNL LTGIC NE TS NE MOV NE P0018 60018 T02170206 10317 20217 53016=
200907282340 SPECI KATL 282340Z 21017G29KT 2SM R09R/4000VP6000FT +TSRA BR FEW010 BKN040CB OVC060 22/20 A3000 RMK AO2 PK WND 19037/2323 TSB26RAB31 PRESRR OCNL LTGIC OHD-SW TS OHD-SW MOV NE P0008=
200907282340 SPECI KATL 282340Z 21017G29KT 2SM R09R/4000VP6000FT +TSRA BR FEW010 BKN040CB OVC060 22/20 A3000 RMK AO2 PK WND 19037/2323 TSB26RAB31 PRESRR OCNL LTGIC OHD-SW TS OHD-SW MOV NE P0008=
200907282326 SPECI KATL 282326Z 19022G37KT 10SM TS FEW010 SCT040CB BKN150 OVC200 26/19 A2997 RMK AO2 PK WND 19037/2323 TSB26 OCNL LTGIC S-SW TS S-SW MOV NE BLDU OVR RWY=
200907282326 SPECI KATL 282326Z 19022G37KT 10SM TS FEW010 SCT040CB BKN150 OVC200 26/19 A2997 RMK AO2 PK WND 19037/2323 TSB26 OCNL LTGIC S-SW TS S-SW MOV NE BLDU OVR RWY=
200907282252 METAR KATL 282252Z COR 25009KT 10SM FEW040 BKN140 OVC200 28/21 A2995 RMK AO2 RAB13E37 SLP132 CB DSNT SE-SW P0000 T02830206=
200907282152 METAR KATL 282152Z 26010KT 10SM FEW045 BKN150 OVC200 29/20 A2995 RMK AO2 SLP132 CB DSNT NE AND SE T02890200=
200907282052 METAR KATL 282052Z 24014G21KT 10SM FEW050 BKN150 BKN250 31/18 A2995 RMK AO2 SLP131 CB DSNT E & S TCU DSNT SE & NW SHRA DSNT E & S T03060183 56013=
200907281952 METAR KATL 281952Z 24013G17KT 10SM FEW044TCU BKN150 BKN250 31/20 A2996 RMK AO2 SLP132 CB DSNT N TCU SE SHRA SE T03110200=
200907281852 METAR KATL 281852Z 22013G17KT 10SM FEW045 BKN150 BKN250 31/20 A2997 RMK AO2 SLP138 CB DSNT NW TCU DSNT S T03110200=
200907281752 METAR KATL 281752Z 24012G19KT 10SM SCT050 SCT065 BKN150 BKN250 31/19 A2999 RMK AO2 SLP143 T03060194 10317 20233 58010=
200907281652 METAR KATL 281652Z 21007G17KT 10SM SCT040 SCT150 BKN250 31/19 A3000 RMK AO2 SLP147 T03060194=
200907281552 METAR KATL 281552Z 23008KT 10SM FEW035 SCT200 SCT250 29/21 A3001 RMK AO2 SLP152 T02940206=
200907281452 METAR KATL 281452Z 21005KT 10SM FEW030 SCT150 SCT250 28/21 A3002 RMK AO2 SLP154 T02780206 58001=
200907281352 METAR KATL 281352Z VRB04KT 10SM FEW150 SCT200 26/21 A3002 RMK AO2 SLP154 T02610211=
200907281252 METAR KATL 281252Z 22008KT 10SM FEW150 SCT250 24/21 A3003 RMK AO2 SLP158 T02440211=
200907281152 METAR KATL 281152Z 27006KT 10SM FEW150 SCT250 23/21 A3002 RMK AO2 SLP156 T02330206 10261 20228 53000=
200907281052 METAR KATL 281052Z 22005KT 10SM BKN120 BKN250 23/19 A3002 RMK AO2 SLP153 T02330194=
200907280952 METAR KATL 280952Z 22004KT 10SM FEW180 23/19 A3001 RMK AO2 SLP150 T02330194=
200907280852 METAR KATL 280852Z 19004KT 10SM SCT150 23/20 A3002 RMK AO2 SLP155 T02330200 55004=
200907280752 METAR KATL 280752Z 27006KT 10SM SCT120 24/20 A3001 RMK AO2 SLP152 T02440200=
200907280652 METAR KATL 280652Z 24007KT 10SM SCT050 25/20 A3002 RMK AO2 SLP153 T02500200=
200907280552 METAR KATL 280552Z 22006KT 10SM SCT050 26/20 A3003 RMK AO2 SLP158 T02610200 10306 20261 51006=
200907280452 METAR KATL 280452Z 25007KT 10SM FEW050 BKN250 27/20 A3003 RMK AO2 SLP158 T02670200 403220222=
200907280352 METAR KATL 280352Z 24004KT 10SM FEW120 SCT250 27/19 A3003 RMK AO2 SLP155 T02720194=
200907280252 METAR KATL 280252Z 22004KT 10SM FEW080 SCT250 28/19 A3002 RMK AO2 SLP153 T02780194 53013=
200907280152 METAR KATL 280152Z 26005KT 10SM FEW150 SCT250 28/19 A3000 RMK AO2 SLP147 OCNL LTG DSNT NE T02830194=
200907280052 METAR KATL 280052Z 25006KT 10SM FEW120 SCT250 29/19 A2998 RMK AO2 SLP141 OCNL LTGICCG DSNT NE T02940189=
200907272352 METAR KATL 272352Z 24007KT 10SM FEW055 SCT120 BKN250 30/18 A2998 RMK AO2 SLP140 CB DSNT N TCU DSNT NE AND NW T03000183 10322 20294 55001=
200907272252 METAR KATL 272252Z 25007KT 10SM FEW055TCU SCT090 SCT250 31/18 A2997 RMK AO2 SLP138 TCU NE AND DSNT NW-N CB DSNT SE T03110183=
200907272152 METAR KATL 272152Z 23008KT 10SM SCT060TCU BKN075 BKN250 32/18 A2998 RMK AO2 SLP140 TCU NE-E AND DSNT W-NW T03170183=
200907272052 METAR KATL 272052Z 26007G14KT 10SM SCT055 BKN250 32/18 A2998 RMK AO2 SLP142 T03220183 56023=
200907271952 METAR KATL 271952Z 28006KT 10SM FEW050TCU SCT070 SCT250 31/19 A3001 RMK AO2 SLP149 TCU S & W T03060189=
200907271852 METAR KATL 271852Z 30007KT 10SM SCT048TCU SCT080 SCT250 31/19 A3003 RMK AO2 SLP157 CB DSNT NE TCU NE SE S & W T03060194=
200907271752 METAR KATL 271752Z 26007KT 220V280 10SM FEW040CB SCT050TCU SCT080 29/20 A3005 RMK AO2 SLP165 CB NW-N MOV E TCU NE SHRA NW-N T02940200 10300 20228 58009=
200907271652 METAR KATL 271652Z 27005KT 10SM SCT040 SCT080 29/20 A3007 RMK AO2 SLP172 T02890200=
200907271552 METAR KATL 271552Z 27005KT 10SM FEW028 SCT032 SCT080 28/21 A3008 RMK AO2 SLP175 T02780211=
200907271452 METAR KATL 271452Z 29008KT 10SM FEW020 SCT080 SCT250 27/21 A3008 RMK AO2 SLP175 T02670211 51007=
200907271352 METAR KATL 271352Z 29008KT 10SM FEW025 SCT100 SCT250 26/21 A3007 RMK AO2 SLP173 T02560206=
200907271252 METAR KATL 271252Z 27008KT 10SM SCT100 BKN250 24/19 A3007 RMK AO2 SLP171 ACC DSNT SW T02390194=
200907271152 METAR KATL 271152Z 26004KT 10SM FEW015 SCT150 SCT250 23/19 A3006 RMK AO2 SLP167 T02280194 10244 20222 53012=
200907271052 METAR KATL 271052Z 25003KT 10SM FEW150 SCT250 22/19 A3004 RMK AO2 SLP161 T02220194=
200907270952 METAR KATL 270952Z 27005KT 10SM CLR 22/19 A3003 RMK AO2 SLP158 T02220194=
200907270852 METAR KATL 270852Z 28004KT 10SM SCT080 22/19 A3002 RMK AO2 SLP155 T02220194 58005=
200907270752 METAR KATL 270752Z 20004KT 10SM SCT150 23/19 A3003 RMK AO2 SLP156 T02280194=
200907270652 METAR KATL 270652Z 20005KT 10SM FEW150 24/20 A3003 RMK AO2 SLP157 T02390200=
200907270552 METAR KATL 270552Z 19010KT 10SM FEW055 SCT250 24/20 A3004 RMK AO2 SLP159 OCNL LTGIC DSNT E T02440200 10289 20244 51008=
200907270452 METAR KATL 270452Z 18004KT 10SM FEW055 SCT120 BKN250 26/20 A3004 RMK AO2 SLP159 T02560200 403330222=
200907270352 METAR KATL 270352Z 20005KT 10SM SCT050 BKN120 BKN250 27/20 A3003 RMK AO2 SLP156 T02670200=
200907270252 METAR KATL 270252Z 24006KT 10SM FEW150 BKN250 27/19 A3001 RMK AO2 SLP150 T02720194 53013=
200907270152 METAR KATL 270152Z 26005KT 10SM SCT120 BKN150 OVC250 28/19 A3000 RMK AO2 SLP147 T02780194=
200907270052 METAR KATL 270052Z 24005KT 10SM SCT120 SCT150 BKN250 28/18 A2998 RMK AO2 SLP142 T02830183=
200907262352 METAR KATL 262352Z 27007KT 10SM SCT110 BKN250 29/18 A2997 RMK AO2 SLP138 T02890183 10333 20289 53002=
200907262252 METAR KATL 262252Z 26009KT 10SM FEW065 SCT120 OVC250 31/17 A2996 RMK AO2 TSB17E33 SLP134 CB DSNT NW-NE TS DSIPT T03110172=
200907262233 SPECI KATL 262233Z 23006KT 10SM SCT065 SCT120 BKN250 31/17 A2996 RMK AO2 TSB17E33 CB DSNT NW-NE TS DSIPT=
200907262233 SPECI KATL 262233Z 23006KT 10SM SCT065 SCT120 BKN250 31/17 A2996 RMK AO2 TSB17E33 CB DSNT NW-NE TS DSIPT=
200907262218 SPECI KATL 262218Z 23007KT 10SM TS FEW065CB SCT120 OVC250 32/18 A2996 RMK AO2 TSB17 OCNL LTGIC NE TS NE MOV NE SHRA NE=
200907262218 SPECI KATL 262218Z 23007KT 10SM TS FEW065CB SCT120 OVC250 32/18 A2996 RMK AO2 TSB17 OCNL LTGIC NE TS NE MOV NE SHRA NE=
200907262152 METAR KATL 262152Z 24009G16KT 10SM SCT070TCU SCT120 OVC250 31/17 A2996 RMK AO2 SLP135 CB DSNT SW-NW TCU NW SHRA NW T03110172=
200907262052 METAR KATL 262052Z 21007KT 10SM SCT070TCU BKN250 32/16 A2997 RMK AO2 SLP135 TCU OHD AND SW AND DSNT W T03220161 56020=
200907261952 METAR KATL 261952Z 21005KT 10SM SCT080 BKN250 32/16 A2997 RMK AO2 SLP137 CB DSNT SW AND NW T03220161=
200907261852 METAR KATL 261852Z COR 22008KT 10SM SCT070 BKN250 33/17 A3000 RMK AO2 SLP146 TCU DSNT NW T03280172=
200907261752 METAR KATL 261752Z 26006KT 10SM SCT060TCU BKN080 32/18 A3003 RMK AO2 SLP156 TCU E AND OHD-SW T03170178 10317 20233 58011=
200907261652 METAR KATL 261652Z 29005KT 10SM BKN050TCU 31/19 A3004 RMK AO2 SLP162 TCU NE AND DSNT E AND W T03110189=
200907261552 METAR KATL 261552Z 28008KT 10SM FEW040 SCT200 30/19 A3006 RMK AO2 SLP166 T03000194=
200907261452 METAR KATL 261452Z 29009KT 10SM FEW150 SCT250 29/19 A3006 RMK AO2 SLP167 T02890189 51004=
200907261352 METAR KATL 261352Z 27009KT 10SM FEW150 SCT250 27/18 A3005 RMK AO2 SLP165 T02670183=
200907261252 METAR KATL 261252Z 29007KT 10SM FEW200 24/18 A3007 RMK AO2 SLP172 T02440183=
200907261152 METAR KATL 261152Z 26005KT 10SM FEW200 23/18 A3005 RMK AO2 SLP163 T02330178 10250 20222 53009=
200907261052 METAR KATL 261052Z 24004KT 10SM FEW200 23/18 A3003 RMK AO2 SLP158 T02280178=
200907260952 METAR KATL 260952Z 25005KT 10SM CLR 23/18 A3001 RMK AO2 SLP150 T02330178=
200907260852 METAR KATL 260852Z 25005KT 10SM CLR 24/18 A3002 RMK AO2 SLP153 T02440178 56004=
200907260752 METAR KATL 260752Z 25006KT 10SM FEW150 25/18 A3002 RMK AO2 SLP155 T02500183=
200907260652 METAR KATL 260652Z 25008KT 10SM FEW150 25/18 A3002 RMK AO2 SLP154 T02500183=
200907260552 METAR KATL 260552Z 24008KT 10SM FEW150 25/18 A3003 RMK AO2 SLP157 T02500183 10300 20250 51002=
200907260452 METAR KATL 260452Z 26007KT 10SM FEW150 26/18 A3003 RMK AO2 SLP156 T02560183 403220206=
200907260352 METAR KATL 260352Z 24003KT 10SM SCT250 27/18 A3003 RMK AO2 SLP156 T02670183=
200907260252 METAR KATL 260252Z 27004KT 10SM FEW070 BKN250 26/18 A3002 RMK AO2 SLP156 T02610178 51014=
200907260152 METAR KATL 260152Z 27005KT 10SM FEW065 BKN250 27/18 A3002 RMK AO2 SLP154 T02720178=
200907260052 METAR KATL 260052Z 26007KT 10SM FEW065 BKN250 29/17 A3000 RMK AO2 SLP147 T02890172=
200907252352 METAR KATL 252352Z 26008KT 10SM SCT065 BKN250 30/17 A2998 RMK AO2 SLP141 T03000167 10322 20300 55009=
200907252252 METAR KATL 252252Z 32007KT 10SM SCT065 SCT250 32/16 A2997 RMK AO2 SLP137 T03170161=
200907252152 METAR KATL 252152Z 30007KT 10SM SCT065 BKN250 32/16 A2998 RMK AO2 SLP142 T03220156=
200907252052 METAR KATL 252052Z 28006G14KT 10SM SCT065 BKN250 32/16 A3001 RMK AO2 SLP150 CB DSNT NW T03220161 56007=
200907251952 METAR KATL 251952Z 31006G14KT 10SM SCT065 BKN250 32/17 A3001 RMK AO2 SLP151 T03220167=
200907251852 METAR KATL 251852Z 31007KT 10SM SCT060 BKN250 32/17 A3002 RMK AO2 SLP154 T03220172=
200907251752 METAR KATL 251752Z COR 29005KT 10SM BKN050 31/17 A3003 RMK AO2 SLP157 TCU DSNT NE T03060172 10311 20222 58005=
200907251652 METAR KATL 251652Z 27007KT 10SM SCT045 30/18 A3004 RMK AO2 SLP160 T03000183=
200907251552 METAR KATL 251552Z COR 29007KT 10SM SCT042 29/19 A3004 RMK AO2 SLP162 T02890189=
200907251452 METAR KATL 251452Z 33007KT 10SM FEW035 28/19 A3004 RMK AO2 SLP162 T02830194 50001=
200907251352 METAR KATL 251352Z 32006KT 10SM FEW250 27/19 A3005 RMK AO2 SLP165 T02670189=
200907251252 METAR KATL 251252Z 29005KT 10SM CLR 24/18 A3005 RMK AO2 SLP164 T02440183=
200907251152 METAR KATL 251152Z 31005KT 10SM CLR 22/18 A3004 RMK AO2 SLP162 T02220178 10239 20206 53007=
200907251052 METAR KATL 251052Z 31007KT 10SM CLR 21/17 A3003 RMK AO2 SLP160 T02060172=
200907250952 METAR KATL 250952Z 31008KT 10SM CLR 21/17 A3002 RMK AO2 SLP154 T02110172=
200907250852 METAR KATL 250852Z 31006KT 10SM CLR 22/17 A3002 RMK AO2 SLP154 T02170172 53007=
200907250752 METAR KATL 250752Z 31006KT 10SM CLR 22/17 A3001 RMK AO2 SLP150 T02170172=
200907250652 METAR KATL 250652Z 31007KT 10SM CLR 23/17 A3000 RMK AO2 SLP147 T02280172=
200907250552 METAR KATL 250552Z 30007KT 10SM FEW070 23/17 A3000 RMK AO2 SLP146 T02330167 10283 20228 58002=
200907250452 METAR KATL 250452Z 28005KT 10SM FEW070 24/16 A3000 RMK AO2 SLP147 T02390161 403110194=
200907250352 METAR KATL 250352Z 26003KT 10SM CLR 25/16 A3001 RMK AO2 SLP150 T02500156=
200907250252 METAR KATL 250252Z 00000KT 10SM CLR 26/16 A3000 RMK AO2 SLP148 T02610156 53009=
200907250152 METAR KATL 250152Z 27004KT 10SM CLR 26/16 A2999 RMK AO2 SLP144 T02560161=
200907250052 METAR KATL 250052Z 27006KT 10SM FEW060 27/16 A2997 RMK AO2 SLP140 T02670161=
200907242352 METAR KATL 242352Z 27007KT 10SM FEW060 28/16 A2997 RMK AO2 SLP140 T02830161 10311 20283 55000=
200907242252 METAR KATL 242252Z 28007KT 10SM SCT065 29/16 A2997 RMK AO2 SLP140 T02890161=
200907242152 METAR KATL 242152Z VRB06KT 10SM SCT060 30/15 A2998 RMK AO2 SLP140 T03000150=
200907242052 METAR KATL 242052Z 29010G16KT 10SM SCT060 29/16 A2997 RMK AO2 SLP140 T02940161 58013=
200907241952 METAR KATL 241952Z 29010KT 10SM SCT065 30/16 A2999 RMK AO2 SLP144 T03000156=
200907241852 METAR KATL 241852Z 34007G15KT 10SM FEW060 29/15 A3000 RMK AO2 SLP150 T02940150=
200907241752 METAR KATL 241752Z 31011KT 10SM FEW060 29/16 A3001 RMK AO2 SLP152 T02940161 10294 20211 58004=
200907241652 METAR KATL 241652Z 36005KT 10SM FEW055 29/15 A3003 RMK AO2 SLP158 T02890150=
200907241552 METAR KATL 241552Z VRB04KT 10SM FEW045 27/15 A3003 RMK AO2 SLP157 T02720150=
200907241452 METAR KATL 241452Z 31007KT 10SM FEW100 26/18 A3002 RMK AO2 SLP157 ACC DSNT E-SE-S T02610183 51010=
200907241352 METAR KATL 241352Z 33008KT 10SM FEW025 SCT100 24/18 A3002 RMK AO2 SLP156 ACC DSNT S-SW T02440183=
200907241252 METAR KATL 241252Z COR 32006KT 10SM FEW100 22/18 A3001 RMK AO2 ACC DSNT W-NW SLP152 T02170178=
200907241152 METAR KATL 241152Z 32006KT 10SM FEW020 21/17 A2999 RMK AO2 SLP147 70002 T02110172 10222 20194 53010=
200907241052 METAR KATL 241052Z 32007KT 10SM FEW070 19/17 A2998 RMK AO2 SLP144 T01940172=
200907240952 METAR KATL 240952Z 32005KT 10SM CLR 20/18 A2997 RMK AO2 SLP138 T02000178=
200907240852 METAR KATL 240852Z 32007KT 10SM FEW065 21/18 A2996 RMK AO2 SLP135 T02060183 56006=
200907240752 METAR KATL 240752Z 32007KT 10SM SCT065 21/18 A2996 RMK AO2 SLP137 T02110183=
200907240652 METAR KATL 240652Z 32006KT 10SM FEW065 SCT250 22/18 A2997 RMK AO2 SLP139 T02170183=
200907240552 METAR KATL 240552Z 32006KT 10SM SCT060 BKN250 22/19 A2998 RMK AO2 SLP141 T02220189 10256 20217 52008=
200907240452 METAR KATL 240452Z 29005KT 10SM FEW055 SCT070 BKN250 23/19 A2997 RMK AO2 SLP139 T02280189 403060228=
200907240352 METAR KATL 240352Z 27003KT 10SM BKN060 BKN250 23/19 A2996 RMK AO2 SLP135 T02330194=
200907240252 METAR KATL 240252Z 29006KT 10SM SCT070 SCT250 24/20 A2995 RMK AO2 SLP132 T02390200 53005=
200907240152 METAR KATL 240152Z 29005KT 10SM SCT060 SCT250 24/20 A2994 RMK AO2 SLP128 T02440200=
200907240052 METAR KATL 240052Z 28006KT 10SM SCT060 SCT250 25/21 A2994 RMK AO2 SLP129 T02500206=
200907232352 METAR KATL 232352Z 28006KT 10SM FEW040 SCT200 26/21 A2994 RMK AO2 TSE09RAE2255 SLP128 TS MOV NE CB DSNT NE TCU DSNT N-NE SE AND S-SW P0000 60002 T02560206 10306 20239 50000=
200907232309 SPECI KATL 232309Z 28004KT 10SM FEW040 SCT060 BKN150 BKN200 25/21 A2994 RMK AO2 TSE09RAE2255 OCNL LTGICCG DSNT NE TS MOV NE TCU DSNT N-NE AND E-SE P0000=
200907232309 SPECI KATL 232309Z 28004KT 10SM FEW040 SCT060 BKN150 BKN200 25/21 A2994 RMK AO2 TSE09RAE2255 OCNL LTGICCG DSNT NE TS MOV NE TCU DSNT N-NE AND E-SE P0000=
200907232252 METAR KATL 232252Z 33010KT 9SM -TSRA FEW040CB SCT120 SCT150 BKN200 24/20 A2995 RMK AO2 WSHFT 2222 TSB06RAB07 SLP132 OCNL LTGICCG NE AND E-SE TS NE AND E-SE MOV NE TCU SW-W AND NW-N P0002 T02440200=
200907232240 SPECI KATL 232240Z 33011KT 8SM -TSRA FEW040CB SCT060 BKN150 OVC200 24/21 A2996 RMK AO2 WSHFT 2222 TSB06RAB07 OCNL LTGICCG N-NE AND SE TS N-NE AND SE MOV NE P0002=
200907232240 SPECI KATL 232240Z 33011KT 8SM -TSRA FEW040CB SCT060 BKN150 OVC200 24/21 A2996 RMK AO2 WSHFT 2222 TSB06RAB07 OCNL LTGICCG N-NE AND SE TS N-NE AND SE MOV NE P0002=
200907232207 SPECI KATL 232207Z 22007KT 10SM -TSRA FEW040CB SCT120 BKN200 29/20 A2994 RMK AO2 TSB06RAB07 OCNL LTGCG W-NW TS W-NW MOV NE P0000=
200907232207 SPECI KATL 232207Z 22007KT 10SM -TSRA FEW040CB SCT120 BKN200 29/20 A2994 RMK AO2 TSB06RAB07 OCNL LTGCG W-NW TS W-NW MOV NE P0000=
200907232152 METAR KATL 232152Z 23005KT 10SM FEW040TCU SCT060 BKN200 29/20 A2994 RMK AO2 SLP126 TCU N-NE AND S-SW CB DSNT SE AND SW-W T02890200=
200907232052 METAR KATL 232052Z 27004KT 10SM SCT040TCU SCT060 SCT250 29/21 A2994 RMK AO2 SLP126 TCU NE-E-SE-S & NW T02890206 56015=
200907231952 METAR KATL 231952Z 26006KT 10SM FEW035 SCT120 SCT200 30/21 A2994 RMK AO2 SLP127 CB DSNT E-SE-S & DSNT SW TCU DSNT NE & NW T03000211=
200907231852 METAR KATL 231852Z 30006KT 10SM FEW050TCU SCT060 BKN080 28/21 A2997 RMK AO2 SLP136 TCU NE-E-SE-S T02830211=
200907231752 METAR KATL 231752Z 31005KT 10SM SCT030TCU BKN040 BKN250 28/21 A2998 RMK AO2 SLP142 TCU E & S & W & NW 60000 T02830211 10294 20233 58005=
200907231652 METAR KATL 231652Z 31010KT 10SM FEW030TCU BKN050 BKN080 28/22 A3000 RMK AO2 RAB1555E05 SLP147 CB DSNT E & S TCU E-SE SHRA DSNT E & S P0000 T02780217=
200907231611 SPECI KATL 231611Z 29007KT 10SM FEW023CB SCT040TCU BKN070 26/21 A3000 RMK AO2 RAB1555E05 CB NE-E MOV NE TCU E-SE SHRA NE-E P0000=
200907231611 SPECI KATL 231611Z 29007KT 10SM FEW023CB SCT040TCU BKN070 26/21 A3000 RMK AO2 RAB1555E05 CB NE-E MOV NE TCU E-SE SHRA NE-E P0000=
200907231600 SPECI KATL 231600Z 30011KT 9SM -RA SCT024CB BKN042TCU BKN050 26/21 A3000 RMK AO2 RAB1555 CB OHD-S-SW-W-NW TCU NE-E-SE P0000=
200907231600 SPECI KATL 231600Z 30011KT 9SM -RA SCT024CB BKN042TCU BKN050 26/21 A3000 RMK AO2 RAB1555 CB OHD-S-SW-W-NW TCU NE-E-SE P0000=
200907231552 METAR KATL 231552Z 29007KT 250V310 10SM SCT024TCU BKN040 BKN070 26/21 A3000 RMK AO2 SLP148 TCU NE & S & W & NW T02610211=
200907231452 METAR KATL 231452Z 26003KT 10SM FEW020 SCT060 BKN080 26/21 A3000 RMK AO2 SLP146 60000 T02610206 53002=
200907231352 METAR KATL 231352Z 25005KT 10SM FEW065 SCT080 SCT110 26/21 A2999 RMK AO2 RAE1254 SLP145 ACC ALQDS P0000 T02560206=
200907231252 METAR KATL 231252Z 20003KT 10SM -RA BKN065 BKN080 23/20 A2999 RMK AO2 RAB30 SLP144 P0000 T02330200=
200907231152 METAR KATL 231152Z 29003KT 8SM FEW034 BKN065 BKN150 23/19 A2999 RMK AO2 SLP145 60000 T02330189 10244 20228 53004=
200907231052 METAR KATL 231052Z 29007KT 9SM BKN075 BKN120 23/19 A2998 RMK AO2 SLP143 T02280189=
200907230952 METAR KATL 230952Z 28005KT 10SM FEW070 BKN095 BKN120 23/18 A2997 RMK AO2 SLP139 T02280183=
200907230852 METAR KATL 230852Z 27006KT 10SM BKN075 BKN100 23/18 A2998 RMK AO2 SLP139 60000 T02330183 56006=
200907230752 METAR KATL 230752Z 23003KT 10SM BKN055 OVC100 24/18 A2998 RMK AO2 SLP140 T02440178=
200907230652 METAR KATL 230652Z 00000KT 10SM BKN060 OVC100 23/19 A2998 RMK AO2 RAB12E24 SLP142 P0000 T02330194=
200907230552 METAR KATL 230552Z COR 00000KT 10SM SCT065 OVC085 23/19 A2999 RMK AO2 RAB05E32 SLP146 P0000 60000 T02330189 10283 20233 55003=
200907230452 METAR KATL 230452Z 21003KT 10SM BKN070 BKN110 OVC200 26/18 A2999 RMK AO2 SLP145 T02560178 402890200=
200907230352 METAR KATL 230352Z 00000KT 10SM SCT075 BKN110 OVC150 26/17 A3000 RMK AO2 SLP147 T02560172=
200907230252 METAR KATL 230252Z 00000KT 10SM SCT080 BKN120 BKN200 26/17 A3000 RMK AO2 SLP149 T02610172 53003=
200907230152 METAR KATL 230152Z 00000KT 10SM SCT090 BKN110 BKN200 26/17 A3000 RMK AO2 SLP148 T02610167=
200907230052 METAR KATL 230052Z 19004KT 10SM BKN090 BKN110 BKN200 27/16 A2999 RMK AO2 SLP146 T02720161=
200907222352 METAR KATL 222352Z 22004KT 10SM FEW090 BKN110 BKN250 28/16 A2999 RMK AO2 SLP148 ACC DSNT NW-N 60000 T02780161 10289 20272 55002=
200907222252 METAR KATL 222252Z 27003KT 10SM BKN090 BKN120 OVC200 27/17 A2999 RMK AO2 SLP147 T02720172=
200907222152 METAR KATL 222152Z 23004KT 10SM SCT120 BKN150 OVC200 28/16 A3000 RMK AO2 SLP148 T02780161=
200907222052 METAR KATL 222052Z 23009KT 10SM FEW050 SCT110 BKN150 BKN250 28/16 A3000 RMK AO2 SLP149 60000 T02830156 58021=
200907221952 METAR KATL 221952Z VRB04KT 10SM FEW110 SCT150 BKN250 28/17 A3002 RMK AO2 RAE08 SLP157 P0000 T02780167=
200907221852 METAR KATL 221852Z 22009KT 10SM -RA FEW050 SCT110 OVC150 27/16 A3004 RMK AO2 RAB29 SLP163 P0000 T02720161=
200907221752 METAR KATL 221752Z 21009KT 10SM FEW050 SCT110 BKN150 BKN250 27/16 A3006 RMK AO2 SLP171 VIRGA OHD-NW-N T02720156 10272 20206 58005=
200907221652 METAR KATL 221652Z 20006KT 10SM FEW040 SCT110 BKN150 BKN250 27/16 A3008 RMK AO2 SLP176 VIRGA W-NW-N T02720156=
200907221552 METAR KATL 221552Z 21009KT 10SM FEW110 BKN150 BKN250 26/14 A3008 RMK AO2 SLP177 VIRGA DSNT NE-E-SE T02610144=
200907221452 METAR KATL 221452Z 17006KT 10SM FEW120 BKN150 BKN250 26/16 A3008 RMK AO2 SLP175 T02560156 51012=
200907221352 METAR KATL 221352Z 19005KT 10SM FEW120 BKN150 BKN250 24/16 A3007 RMK AO2 SLP174 T02390156=
200907221252 METAR KATL 221252Z 15004KT 9SM SCT150 BKN250 22/15 A3005 RMK AO2 SLP168 T02170150=
200907221152 METAR KATL 221152Z 14004KT 10SM FEW040 SCT150 BKN250 21/13 A3004 RMK AO2 SLP164 T02060133 10233 20200 53008=
200907221052 METAR KATL 221052Z 00000KT 10SM SCT150 BKN250 20/14 A3003 RMK AO2 SLP159 T02000139=
200907220952 METAR KATL 220952Z 15004KT 10SM SCT200 21/14 A3002 RMK AO2 SLP155 T02060139=
200907220852 METAR KATL 220852Z 15005KT 10SM FEW150 SCT200 21/14 A3002 RMK AO2 SLP154 T02060139 55006=
200907220752 METAR KATL 220752Z 09007KT 10SM FEW020 SCT150 BKN200 21/14 A3001 RMK AO2 SLP152 T02060139=
200907220652 METAR KATL 220652Z 08003KT 10SM SCT200 BKN250 23/13 A3003 RMK AO2 SLP158 T02280133=
200907220552 METAR KATL 220552Z 19003KT 10SM SCT200 BKN250 22/14 A3003 RMK AO2 SLP160 T02170144 10283 20217 50000=
200907220452 METAR KATL 220452Z 00000KT 10SM SCT200 BKN250 24/13 A3004 RMK AO2 SLP161 T02390133 403000172=
200907220352 METAR KATL 220352Z 08005KT 10SM SCT200 BKN250 23/14 A3004 RMK AO2 SLP164 T02330139=
200907220252 METAR KATL 220252Z 00000KT 10SM BKN250 25/13 A3004 RMK AO2 SLP161 T02500133 51007=
200907220152 METAR KATL 220152Z 00000KT 10SM FEW075 BKN250 26/13 A3003 RMK AO2 SLP161 T02610128=
200907220052 METAR KATL 220052Z 16003KT 10SM FEW075 SCT200 BKN250 27/13 A3003 RMK AO2 SLP158 T02670128=
200907212352 METAR KATL 212352Z 17005KT 10SM FEW075 BKN250 28/12 A3001 RMK AO2 SLP154 T02830117 10300 20278 55003=
200907212252 METAR KATL 212252Z 15004KT 10SM FEW075 SCT250 29/11 A3001 RMK AO2 SLP152 FU PLUME SE T02940106=
200907212152 METAR KATL 212152Z 00000KT 10SM FEW075 29/11 A3001 RMK AO2 SLP154 T02940106=
200907212052 METAR KATL 212052Z VRB06KT 10SM FEW075 SCT250 29/12 A3002 RMK AO2 SLP157 T02940117 56010=
200907211952 METAR KATL 211952Z 00000KT 10SM FEW070 SCT250 29/11 A3003 RMK AO2 SLP160 T02890111=
200907211852 METAR KATL 211852Z VRB03KT 10SM FEW070 SCT110 SCT250 28/12 A3004 RMK AO2 SLP165 T02830117=
200907211752 METAR KATL 211752Z VRB06KT 10SM FEW065 SCT250 28/12 A3005 RMK AO2 SLP168 T02830122 10289 20194 58011=
200907211652 METAR KATL 211652Z 30004KT 10SM FEW060 SCT250 28/12 A3006 RMK AO2 SLP171 T02780122=
200907211552 METAR KATL 211552Z 26004KT 10SM SCT055 SCT250 26/12 A3008 RMK AO2 SLP177 T02560117=
200907211452 METAR KATL 211452Z 00000KT 10SM FEW250 26/16 A3009 RMK AO2 SLP180 T02610161 58000 $=
200907211352 METAR KATL 211352Z 10004KT 10SM FEW250 23/17 A3010 RMK AO2 SLP185 T02280167=
200907211252 METAR KATL 211252Z 05006KT 10SM FEW250 21/16 A3010 RMK AO2 SLP186 T02110161=
200907211152 METAR KATL 211152Z 06007KT 9SM R09R/5500VP6000FT FEW020 19/16 A3009 RMK AO2 SLP181 T01940156 10200 20172 53014=
200907211052 METAR KATL 211052Z 04007KT 10SM FEW250 19/14 A3008 RMK AO2 SLP177 T01890139=
200907210952 METAR KATL 210952Z 01005KT 10SM CLR 18/13 A3006 RMK AO2 SLP170 T01830133=
200907210852 METAR KATL 210852Z 31005KT 10SM CLR 17/13 A3005 RMK AO2 SLP166 T01720133 55004=
200907210752 METAR KATL 210752Z 31005KT 10SM CLR 18/13 A3004 RMK AO2 SLP164 T01830128=
200907210652 METAR KATL 210652Z 32004KT 10SM CLR 19/13 A3005 RMK AO2 SLP166 T01890128=
200907210552 METAR KATL 210552Z 29003KT 10SM CLR 20/12 A3006 RMK AO2 SLP170 T02000122 10250 20200 50000=
200907210452 METAR KATL 210452Z 30004KT 10SM CLR 20/12 A3007 RMK AO2 SLP173 T02000122 402780161=
200907210352 METAR KATL 210352Z 30007KT 10SM CLR 21/12 A3006 RMK AO2 SLP171 T02110122=
200907210252 METAR KATL 210252Z 30007KT 10SM CLR 22/12 A3006 RMK AO2 SLP171 T02220117 53013=
200907210152 METAR KATL 210152Z 30005KT 10SM FEW075 22/12 A3004 RMK AO2 SLP164 T02220117=
200907210052 METAR KATL 210052Z 28005KT 10SM SCT075 23/12 A3003 RMK AO2 SLP160 T02330117=
200907202352 METAR KATL 202352Z 28007KT 10SM FEW070 26/11 A3002 RMK AO2 SLP158 T02560106 10278 20250 55006=
200907202252 METAR KATL 202252Z 28005KT 10SM FEW070 27/12 A3002 RMK AO2 SLP157 T02670117=
200907202152 METAR KATL 202152Z 33010G14KT 10SM FEW075 27/11 A3002 RMK AO2 SLP158 T02720106=
200907202052 METAR KATL 202052Z 27007KT 10SM SCT075 27/11 A3004 RMK AO2 SLP164 T02720106 56009=
200907201952 METAR KATL 201952Z 31012KT 10SM SCT070 27/10 A3005 RMK AO2 SLP167 T02670100=
200907201852 METAR KATL 201852Z 32007KT 280V350 10SM SCT070 27/12 A3006 RMK AO2 SLP171 T02670117=
200907201752 METAR KATL 201752Z VRB06KT 10SM SCT070 26/12 A3007 RMK AO2 SLP174 T02610117 10267 20172 58009=
200907201652 METAR KATL 201652Z 28005KT 10SM SCT060 26/11 A3008 RMK AO2 SLP177 T02560111=
200907201552 METAR KATL 201552Z 35009KT 10SM FEW025 24/13 A3009 RMK AO2 SLP181 T02440128=
200907201452 METAR KATL 201452Z 33007KT 10SM FEW070 23/14 A3009 RMK AO2 SLP183 T02330144 50003=
200907201352 METAR KATL 201352Z 31009KT 10SM FEW070 22/14 A3010 RMK AO2 SLP184 T02170144=
200907201252 METAR KATL 201252Z 30008KT 10SM FEW022 SCT150 19/14 A3010 RMK AO2 SLP184 T01890144=
200907201152 METAR KATL 201152Z 31008KT 10SM FEW020 SCT070 BKN150 17/14 A3009 RMK AO2 SLP181 T01720139 10194 20161 53008=
200907201052 METAR KATL 201052Z 32007KT 10SM FEW020 SCT150 SCT250 16/13 A3008 RMK AO2 SLP178 T01610133=
200907200952 METAR KATL 200952Z 32006KT 10SM CLR 16/14 A3006 RMK AO2 SLP172 T01610139=
200907200852 METAR KATL 200852Z 31005KT 10SM CLR 17/14 A3006 RMK AO2 SLP173 T01670139 56008=
200907200752 METAR KATL 200752Z 31004KT 10SM FEW022 17/14 A3006 RMK AO2 SLP173 T01720139=
200907200652 METAR KATL 200652Z 32003KT 10SM CLR 19/13 A3007 RMK AO2 SLP174 T01890133=
200907200552 METAR KATL 200552Z 33006KT 10SM FEW250 19/13 A3009 RMK AO2 SLP181 T01940133 10244 20189 58002=
200907200452 METAR KATL 200452Z 33007KT 10SM FEW250 20/13 A3010 RMK AO2 SLP185 T02000133 402670172=
200907200352 METAR KATL 200352Z 32006KT 10SM BKN250 21/13 A3010 RMK AO2 SLP185 T02060133=
200907200252 METAR KATL 200252Z 33005KT 10SM BKN250 22/13 A3010 RMK AO2 SLP182 T02220128 53006=
200907200152 METAR KATL 200152Z 34004KT 10SM BKN250 23/13 A3009 RMK AO2 SLP179 T02280133=
200907200052 METAR KATL 200052Z 33007KT 10SM FEW080 BKN250 23/13 A3008 RMK AO2 SLP176 T02330128=
200907192352 METAR KATL 192352Z 33009KT 10SM FEW055 SCT080 BKN250 24/13 A3008 RMK AO2 SLP176 T02440128 10267 20244 58006=
200907192252 METAR KATL 192252Z 29005KT 10SM FEW055 SCT080 BKN250 25/12 A3008 RMK AO2 SLP179 T02500122=
200907192152 METAR KATL 192152Z 32010KT 10SM FEW055 BKN250 26/13 A3009 RMK AO2 SLP181 T02560133=
200907192052 METAR KATL 192052Z 27006KT 10SM SCT055 BKN075 BKN250 26/13 A3009 RMK AO2 SLP182 T02560128 57009=
200907191952 METAR KATL 191952Z 32008G14KT 10SM SCT055 BKN070 BKN250 26/12 A3010 RMK AO2 SLP185 T02560122=
200907191852 METAR KATL 191852Z 28006G17KT 10SM BKN060 BKN250 26/13 A3011 RMK AO2 SLP190 T02610133=
200907191752 METAR KATL 191752Z 32010KT 10SM SCT060 BKN150 BKN250 26/13 A3012 RMK AO2 SLP192 T02610133 10261 20206 58007=
200907191652 METAR KATL 191652Z 31010KT 10SM SCT055 BKN150 BKN250 26/13 A3013 RMK AO2 SLP196 T02560128=
200907191552 METAR KATL 191552Z 24007KT 10SM SCT050 SCT150 BKN250 25/13 A3015 RMK AO2 SLP199 T02500128=
200907191452 METAR KATL 191452Z 00000KT 10SM FEW050 SCT150 BKN250 24/11 A3014 RMK AO2 SLP198 T02440111 51006=
200907191352 METAR KATL 191352Z 36005KT 10SM SCT180 BKN250 24/12 A3014 RMK AO2 SLP198 T02390122=
200907191252 METAR KATL 191252Z 00000KT 10SM FEW200 SCT250 23/14 A3013 RMK AO2 SLP194 T02280144=
200907191152 METAR KATL 191152Z 01005KT 10SM BKN250 21/13 A3013 RMK AO2 SLP192 T02060133 10206 20172 53007=
200907191052 METAR KATL 191052Z 34004KT 10SM SCT200 17/14 A3011 RMK AO2 SLP190 T01720139=
200907190952 METAR KATL 190952Z 34003KT 10SM FEW200 18/13 A3011 RMK AO2 SLP187 T01830133=
200907190852 METAR KATL 190852Z 35005KT 10SM CLR 18/14 A3010 RMK AO2 SLP185 T01830139 53002=
200907190752 METAR KATL 190752Z 33005KT 10SM CLR 18/14 A3010 RMK AO2 SLP184 T01830139=
200907190652 METAR KATL 190652Z 33005KT 10SM CLR 19/14 A3009 RMK AO2 SLP182 T01890139=
200907190552 METAR KATL 190552Z 34005KT 10SM CLR 19/14 A3010 RMK AO2 SLP183 T01940139 10256 20194 50001=
200907190452 METAR KATL 190452Z 32007KT 10SM CLR 20/14 A3010 RMK AO2 SLP183 T02000139 402780178=
200907190352 METAR KATL 190352Z 32007KT 10SM CLR 21/14 A3010 RMK AO2 SLP184 T02110139=
200907190252 METAR KATL 190252Z 31006KT 10SM CLR 22/13 A3009 RMK AO2 SLP182 T02170133 51014=
200907190152 METAR KATL 190152Z 31007KT 10SM FEW065 SCT250 23/13 A3008 RMK AO2 SLP178 T02280128=
200907190052 METAR KATL 190052Z 29007KT 10SM FEW065 SCT250 23/13 A3007 RMK AO2 SLP174 T02330128=
200907182352 METAR KATL 182352Z 30009KT 10SM FEW065 26/12 A3005 RMK AO2 SLP168 T02560117 10278 20256 53006=
200907182252 METAR KATL 182252Z 32010KT 10SM FEW065 27/11 A3004 RMK AO2 SLP165 T02670111=
200907182152 METAR KATL 182152Z 30012KT 10SM FEW065 27/12 A3004 RMK AO2 SLP163 T02670117=
200907182052 METAR KATL 182052Z 29010KT 10SM FEW065 SCT200 27/11 A3003 RMK AO2 SLP161 T02720111 58003=
200907181952 METAR KATL 181952Z 29011G17KT 10SM FEW060 SCT150 27/12 A3004 RMK AO2 SLP162 T02670117=
200907181852 METAR KATL 181852Z 29011KT 10SM FEW055 SCT150 27/13 A3004 RMK AO2 SLP163 T02670128=
200907181752 METAR KATL 181752Z 29003KT 10SM FEW050 SCT150 25/13 A3004 RMK AO2 SLP164 T02500128 10256 20189 58001=
200907181652 METAR KATL 181652Z 31009G14KT 10SM FEW050 SCT150 25/12 A3006 RMK AO2 SLP169 T02500122=
200907181552 METAR KATL 181552Z 32007G16KT 10SM FEW045 SCT150 23/12 A3005 RMK AO2 SLP167 T02330122=
200907181452 METAR KATL 181452Z 33012G19KT 10SM FEW150 23/13 A3004 RMK AO2 SLP164 T02330128 50004=
200907181352 METAR KATL 181352Z 30012KT 10SM FEW035 SCT150 22/13 A3005 RMK AO2 SLP166 T02170133=
200907181252 METAR KATL 181252Z 32009KT 10SM FEW150 20/14 A3004 RMK AO2 SLP162 T02000139=
200907181152 METAR KATL 181152Z 29006KT 10SM FEW150 19/14 A3003 RMK AO2 SLP161 T01890139 10233 20178 53017=
200907181052 METAR KATL 181052Z 30007KT 10SM CLR 18/14 A3002 RMK AO2 SLP157 T01780139=
200907180952 METAR KATL 180952Z 31007KT 10SM FEW200 19/14 A3000 RMK AO2 SLP148 T01890144=
200907180852 METAR KATL 180852Z 31006KT 10SM FEW200 20/14 A2998 RMK AO2 SLP143 T02000144 53007=
200907180752 METAR KATL 180752Z 32008KT 10SM SCT200 21/15 A2997 RMK AO2 SLP138 T02110150=
200907180652 METAR KATL 180652Z 34007KT 10SM BKN200 22/16 A2997 RMK AO2 SLP138 T02220156=
200907180552 METAR KATL 180552Z 31009KT 10SM FEW070 BKN200 23/16 A2996 RMK AO2 SLP135 T02280161 10289 20228 51005=
200907180452 METAR KATL 180452Z 31009KT 10SM FEW070 BKN200 24/16 A2996 RMK AO2 SLP134 T02390161 403110222=
200907180352 METAR KATL 180352Z 32012G18KT 10SM BKN070 BKN085 BKN200 26/18 A2996 RMK AO2 SLP132 OCNL LTG DSNT SE T02560178=
200907180252 METAR KATL 180252Z 31010KT 10SM SCT045 BKN070 BKN150 BKN250 26/19 A2995 RMK AO2 SLP130 CB DSNT SW T02610189 51016=
200907180152 METAR KATL 180152Z 28006KT 10SM FEW045 SCT150 BKN250 26/19 A2993 RMK AO2 SLP126 T02610194=
200907180052 METAR KATL 180052Z 28007KT 10SM FEW045 SCT150 SCT200 27/18 A2992 RMK AO2 SLP122 T02670183=
200907172352 METAR KATL 172352Z 28011G20KT 10SM FEW045 SCT180 BKN250 29/18 A2990 RMK AO2 SLP114 60000 T02890183 10311 20283 53004=
200907172252 METAR KATL 172252Z 28009KT 10SM FEW045 SCT180 BKN250 29/18 A2989 RMK AO2 SLP111 T02890183=
200907172152 METAR KATL 172152Z 29015G22KT 10SM FEW045 SCT200 BKN250 30/19 A2988 RMK AO2 SLP106 CB DSNT E-SE T03000189=
200907172052 METAR KATL 172052Z 27016KT 10SM FEW040 SCT150 SCT250 30/20 A2989 RMK AO2 RAB1957E08 SLP110 P0000 60000 T03000200 56015=
200907171952 METAR KATL 171952Z 27011G18KT 10SM FEW037TCU SCT047 SCT150 29/21 A2990 RMK AO2 RAB1857E07 SLP113 CB DSNT N & E TCU S & W & NW SHRA DSNT N & E P0000 T02940211=
200907171913 SPECI KATL 171913Z 27008KT 10SM FEW040CB SCT050TCU SCT150 31/22 A2991 RMK AO2 RAB1857E07 CB NE & SE & DSNT NW MOV E TCU W-NW-N SHRA NE & SE P0000=
200907171913 SPECI KATL 171913Z 27008KT 10SM FEW040CB SCT050TCU SCT150 31/22 A2991 RMK AO2 RAB1857E07 CB NE & SE & DSNT NW MOV E TCU W-NW-N SHRA NE & SE P0000=
200907171852 METAR KATL 171852Z 28008KT 10SM FEW030CB BKN040TCU BKN150 29/21 A2991 RMK AO2 SLP116 CB NE MOV E TCU OHD & ALQDS SHRA NE T02890211=
200907171801 SPECI KATL 171801Z 27009KT 10SM FEW030CB BKN040TCU BKN150 30/22 A2993 RMK AO2 CB NE MOV E TCU SW-W-NW SHRA NE=
200907171801 SPECI KATL 171801Z 27009KT 10SM FEW030CB BKN040TCU BKN150 30/22 A2993 RMK AO2 CB NE MOV E TCU SW-W-NW SHRA NE=
200907171752 METAR KATL 171752Z 27008KT 10SM BKN035TCU BKN150 29/22 A2993 RMK AO2 SLP125 TCU NE & SW-W-NW T02940217 10306 20228 58008=
200907171652 METAR KATL 171652Z 26008KT 10SM BKN030 BKN040 BKN150 28/22 A2995 RMK AO2 SLP132 T02830217=
200907171552 METAR KATL 171552Z 29009KT 10SM SCT025 SCT050 28/22 A2995 RMK AO2 SLP132 T02830217=
200907171452 METAR KATL 171452Z 27008KT 10SM FEW023 27/21 A2996 RMK AO2 SLP134 T02670211 58001=
200907171352 METAR KATL 171352Z 30006KT 10SM SCT016 SCT180 25/21 A2996 RMK AO2 SLP134 T02500206=
200907171252 METAR KATL 171252Z 26007KT 6SM HZ SCT010 BKN016 24/21 A2997 RMK AO2 SLP136 T02390211=
200907171152 METAR KATL 171152Z 26008KT 6SM BR SCT009 BKN013 23/21 A2996 RMK AO2 SLP136 T02280206 10244 20222 53003=
200907171132 SPECI KATL 171132Z 26006KT 6SM BR FEW009 BKN013 23/21 A2996 RMK AO2=
200907171132 SPECI KATL 171132Z 26006KT 6SM BR FEW009 BKN013 23/21 A2996 RMK AO2=
200907171123 SPECI KATL 171123Z 24006KT 6SM BR BKN013 23/21 A2995 RMK AO2=
200907171123 SPECI KATL 171123Z 24006KT 6SM BR BKN013 23/21 A2995 RMK AO2=
200907171052 METAR KATL 171052Z 25007KT 6SM BR FEW012 BKN060 BKN250 22/21 A2995 RMK AO2 SLP132 T02220206=
200907171015 SPECI KATL 171015Z 25006KT 6SM BR BKN012 23/21 A2995 RMK AO2=
200907171015 SPECI KATL 171015Z 25006KT 6SM BR BKN012 23/21 A2995 RMK AO2=
200907170952 METAR KATL 170952Z 24007KT 6SM BR FEW040 SCT150 BKN250 23/21 A2995 RMK AO2 SLP132 T02280206=
200907170852 METAR KATL 170852Z 25007KT 10SM SCT150 BKN250 23/21 A2995 RMK AO2 SLP132 T02280206 56002=
200907170752 METAR KATL 170752Z 24005KT 10SM SCT150 23/21 A2995 RMK AO2 SLP130 T02330206=
200907170652 METAR KATL 170652Z 26007KT 10SM SCT150 23/21 A2996 RMK AO2 SLP132 T02330206=
200907170552 METAR KATL 170552Z 25009KT 10SM SCT150 24/20 A2996 RMK AO2 SLP133 T02440200 10283 20239 58018=
200907170452 METAR KATL 170452Z 27005KT 10SM SCT150 BKN250 24/21 A2998 RMK AO2 SLP139 T02440211 403220233=
200907170352 METAR KATL 170352Z 28006KT 10SM BKN150 OVC200 26/22 A3000 RMK AO2 SLP145 T02560222=
200907170252 METAR KATL 170252Z 27005KT 10SM SCT150 OVC200 26/22 A3001 RMK AO2 SLP152 T02610217 53015=
200907170152 METAR KATL 170152Z 29006KT 10SM FEW150 BKN200 OVC250 27/21 A2999 RMK AO2 SLP143 T02670211=
200907170052 METAR KATL 170052Z 29005KT 10SM FEW150 BKN200 OVC250 28/22 A2998 RMK AO2 SLP139 T02780222=
200907162352 METAR KATL 162352Z 27006KT 10SM FEW140 BKN200 OVC250 28/22 A2997 RMK AO2 SLP137 T02830217 10322 20283 55004=
200907162252 METAR KATL 162252Z 29006KT 10SM SCT150 BKN200 BKN250 29/22 A2996 RMK AO2 SLP134 T02890217=
200907162152 METAR KATL 162152Z 27007KT 10SM FEW040 SCT150 BKN200 BKN250 30/22 A2997 RMK AO2 SLP137 T03000217=
200907162052 METAR KATL 162052Z 29010G17KT 10SM FEW040 SCT150 BKN250 32/22 A2998 RMK AO2 SLP141 CB DSNT NE TCU DSNT SE T03170217 58021=
200907161952 METAR KATL 161952Z 33011G18KT 10SM FEW045TCU SCT150 BKN250 32/21 A3001 RMK AO2 SLP150 CB DSNT N TCU NE & S T03170211=
200907161852 METAR KATL 161852Z 31011G19KT 10SM FEW040TCU SCT080 BKN250 31/21 A3003 RMK AO2 SLP158 TCU S & W T03110211=
200907161752 METAR KATL 161752Z 31015G19KT 10SM FEW045 SCT085 BKN250 31/21 A3005 RMK AO2 SLP163 T03110211 10317 20239 58008=
200907161652 METAR KATL 161652Z 27011KT 10SM FEW040 SCT080 BKN150 BKN250 31/21 A3006 RMK AO2 SLP167 CB DSNT S & NW ACSL DSNT NE-E-SE-S T03110211=
200907161552 METAR KATL 161552Z 28007KT 10SM FEW080 SCT110 BKN250 29/23 A3006 RMK AO2 SLP169 CB DSNT SE-S-SW T02940228=
200907161452 METAR KATL 161452Z 28008KT 10SM FEW020 SCT080 BKN110 BKN250 27/22 A3007 RMK AO2 SLP172 CB DSNT S SHRA DSNT S T02670217 51012=
200907161352 METAR KATL 161352Z 28010KT 10SM FEW085 SCT150 SCT250 27/22 A3007 RMK AO2 SLP170 ACC SE-S-SW T02670217=
200907161252 METAR KATL 161252Z 28006KT 7SM FEW015 SCT150 SCT250 26/22 A3005 RMK AO2 SLP163 T02560217=
200907161152 METAR KATL 161152Z 25003KT 8SM BKN150 BKN250 24/22 A3003 RMK AO2 SLP160 T02390217 10261 20233 58003=
200907161052 METAR KATL 161052Z 27007KT 7SM FEW010 SCT250 24/22 A3005 RMK AO2 SLP165 T02390222=
200907160952 METAR KATL 160952Z 18004KT 7SM BKN250 24/22 A3004 RMK AO2 SLP160 T02390222=
200907160852 METAR KATL 160852Z 20006KT 7SM BKN085 OVC250 24/22 A3004 RMK AO2 SLP161 T02440222 58010=
200907160752 METAR KATL 160752Z 21005KT 7SM SCT080 OVC250 25/23 A3006 RMK AO2 SLP168 T02500228=
200907160652 METAR KATL 160652Z 27005KT 9SM SCT180 BKN250 25/23 A3008 RMK AO2 SLP174 T02500228=
200907160552 METAR KATL 160552Z 23004KT 9SM BKN250 26/23 A3008 RMK AO2 SLP172 T02610228 10306 20256 58007=
200907160452 METAR KATL 160452Z 29007KT 10SM BKN250 26/22 A3010 RMK AO2 SLP181 T02610222 403170228=
200907160352 METAR KATL 160352Z 24005KT 10SM FEW045 SCT250 27/22 A3010 RMK AO2 SLP181 T02670222=
200907160252 METAR KATL 160252Z 20008KT 10SM SCT045 SCT250 28/22 A3010 RMK AO2 SLP181 T02780217 55002=
200907160152 METAR KATL 160152Z 18004KT 10SM SCT250 28/21 A3008 RMK AO2 SLP176 T02830211=
200907160052 METAR KATL 160052Z 16005KT 9SM FEW040 SCT200 BKN250 29/22 A3009 RMK AO2 SLP178 T02940217=
200907152352 METAR KATL 152352Z 17003KT 10SM FEW040TCU BKN200 OVC250 31/21 A3010 RMK AO2 SLP183 TCU OHD-N T03060211 10317 20294 53003=
200907152252 METAR KATL 152252Z 18005KT 10SM FEW040 SCT150 BKN200 OVC250 31/21 A3009 RMK AO2 SLP180 TCU DSNT NE T03060211=
200907152152 METAR KATL 152152Z 20004KT 10SM FEW040 SCT150 BKN200 BKN250 31/21 A3009 RMK AO2 SLP179 CB DSNT NE AND NW-N T03060206=
200907152052 METAR KATL 152052Z 19009KT 10SM FEW040 BKN250 31/21 A3010 RMK AO2 SLP180 CB DSNT NW-N T03110211 56022=
200907151952 METAR KATL 151952Z 00000KT 10SM SCT042TCU SCT250 31/21 A3012 RMK AO2 SLP187 TCU W-NW-N T03060206=
200907151852 METAR KATL 151852Z 15005KT 10SM SCT039TCU 31/22 A3014 RMK AO2 SLP194 TCU SE & NW T03110217=
200907151752 METAR KATL 151752Z VRB05KT 10SM SCT039 SCT250 30/22 A3016 RMK AO2 SLP202 T03000217 10306 20233 58008=
200907151652 METAR KATL 151652Z 13004KT 10SM FEW035 29/22 A3018 RMK AO2 SLP209 T02940217=
200907151552 METAR KATL 151552Z VRB05KT 10SM SCT025 28/22 A3018 RMK AO2 SLP210 T02830217=
200907151546 SPECI KATL 151546Z 13007KT 10SM SCT025 28/22 A3019 RMK AO2=
200907151546 SPECI KATL 151546Z 13007KT 10SM SCT025 28/22 A3019 RMK AO2=
200907151452 METAR KATL 151452Z VRB04KT 9SM BKN019 27/23 A3019 RMK AO2 SLP212 T02670228 51013=
200907151352 METAR KATL 151352Z 18006KT 8SM SCT013 26/23 A3018 RMK AO2 SLP210 T02610228=
200907151252 METAR KATL 151252Z 15006KT 6SM BR SCT007 BKN150 BKN250 24/22 A3017 RMK AO2 SLP205 T02440222=
200907151152 METAR KATL 151152Z 00000KT 5SM BR FEW005 23/22 A3015 RMK AO2 SLP198 T02330217 10250 20228 53009=
200907151120 SPECI KATL 151120Z 15004KT 5SM BR SCT005 23/21 A3014 RMK AO2=
200907151120 SPECI KATL 151120Z 15004KT 5SM BR SCT005 23/21 A3014 RMK AO2=
200907151052 METAR KATL 151052Z 15004KT 6SM BR FEW250 23/21 A3013 RMK AO2 SLP193 T02280211=
200907150952 METAR KATL 150952Z 14004KT 10SM SCT150 23/21 A3013 RMK AO2 SLP192 T02280206=
200907150921 SPECI KATL 150921Z 16005KT 10SM SCT007 SCT150 23/20 A3012 RMK AO2=
200907150921 SPECI KATL 150921Z 16005KT 10SM SCT007 SCT150 23/20 A3012 RMK AO2=
200907150852 METAR KATL 150852Z 14003KT 10SM SCT150 23/20 A3012 RMK AO2 SLP189 T02330200 53003=
200907150752 METAR KATL 150752Z 15007KT 10SM CLR 24/19 A3011 RMK AO2 SLP185 T02390194=
200907150652 METAR KATL 150652Z 14005KT 10SM SCT180 24/19 A3012 RMK AO2 SLP186 T02440194=
200907150552 METAR KATL 150552Z 15007KT 10SM CLR 25/19 A3011 RMK AO2 SLP185 T02500194 10300 20250 50003=
200907150452 METAR KATL 150452Z 14007KT 10SM FEW250 26/19 A3012 RMK AO2 SLP187 T02610194 403170222=
200907150352 METAR KATL 150352Z 12006KT 10SM FEW050 SCT250 27/19 A3012 RMK AO2 SLP186 T02670194=
200907150252 METAR KATL 150252Z 12005KT 10SM SCT250 28/19 A3010 RMK AO2 SLP182 T02780189 53016=
200907150152 METAR KATL 150152Z 12005KT 10SM SCT200 BKN250 28/19 A3008 RMK AO2 SLP175 T02830189=
200907150052 METAR KATL 150052Z 12005KT 10SM FEW050 SCT200 BKN250 29/19 A3007 RMK AO2 SLP173 T02940189=
200907142352 METAR KATL 142352Z 15007KT 10SM FEW050 SCT250 30/18 A3005 RMK AO2 SLP166 T03000183 10317 20300 53002=
200907142252 METAR KATL 142252Z 12006KT 10SM FEW055 SCT250 31/18 A3005 RMK AO2 SLP163 T03110183=
200907142152 METAR KATL 142152Z 09006KT 10SM FEW055 SCT250 32/19 A3005 RMK AO2 SLP164 T03170189=
200907142052 METAR KATL 142052Z 14007KT 10SM FEW055 SCT280 31/19 A3005 RMK AO2 SLP164 T03110189 58012=
200907141952 METAR KATL 141952Z VRB03KT 10SM FEW050 SCT280 31/19 A3006 RMK AO2 SLP168 T03110194=
200907141852 METAR KATL 141852Z 15007KT 10SM SCT050 SCT280 31/19 A3008 RMK AO2 SLP173 T03060194=
200907141752 METAR KATL 141752Z 15010KT 10SM BKN045 BKN280 30/19 A3008 RMK AO2 SLP176 T03000194 10300 20233 58001=
200907141652 METAR KATL 141652Z 13008KT 10SM FEW040 SCT070 BKN280 29/20 A3009 RMK AO2 SLP179 T02940200=
200907141552 METAR KATL 141552Z 12007KT 10SM FEW035 SCT070 BKN280 28/20 A3010 RMK AO2 SLP182 T02830200=
200907141452 METAR KATL 141452Z 09010KT 10SM FEW030 SCT070 BKN280 27/21 A3009 RMK AO2 SLP177 T02720206 50008=
200907141427 SPECI KATL 141427Z 09010KT 10SM FEW025 SCT065 SCT280 27/21 A3009 RMK AO2=
200907141427 SPECI KATL 141427Z 09010KT 10SM FEW025 SCT065 SCT280 27/21 A3009 RMK AO2=
200907141352 METAR KATL 141352Z 08008KT 10SM FEW020 BKN065 BKN280 26/22 A3009 RMK AO2 SLP180 T02610217=
200907141252 METAR KATL 141252Z 08006KT 9SM FEW015 SCT060 SCT150 24/22 A3009 RMK AO2 SLP178 T02440217=
200907141152 METAR KATL 141152Z 09007KT 8SM FEW015 SCT250 23/21 A3006 RMK AO2 SLP170 T02330211 10233 20222 53020=
200907141052 METAR KATL 141052Z 07007KT 9SM FEW015 22/21 A3004 RMK AO2 SLP161 T02220206=
200907140952 METAR KATL 140952Z 06007KT 10SM CLR 23/21 A3002 RMK AO2 SLP154 T02280211=
200907140852 METAR KATL 140852Z 08007KT 10SM CLR 23/21 A3000 RMK AO2 SLP148 T02280206 55003=
200907140752 METAR KATL 140752Z 01003KT 10SM FEW060 22/21 A3000 RMK AO2 SLP148 T02220206=
200907140652 METAR KATL 140652Z 32004KT 10SM FEW250 23/21 A3001 RMK AO2 SLP153 T02280211=
200907140552 METAR KATL 140552Z 31005KT 10SM FEW250 23/21 A3001 RMK AO2 SLP153 T02280211 10272 20228 50005=
200907140452 METAR KATL 140452Z 31006KT 10SM BKN250 23/21 A3001 RMK AO2 SLP153 T02330211 402890211=
200907140352 METAR KATL 140352Z 27004KT 10SM BKN250 24/21 A3000 RMK AO2 SLP150 T02390211=
200907140252 METAR KATL 140252Z 30004KT 10SM BKN250 24/21 A2999 RMK AO2 SLP146 T02440211 53020=
200907140152 METAR KATL 140152Z 31004KT 10SM SCT200 BKN250 25/21 A2997 RMK AO2 SLP139 T02500211=
200907140052 METAR KATL 140052Z 31005KT 10SM BKN200 BKN250 26/21 A2995 RMK AO2 SLP132 T02610211=
200907132352 METAR KATL 132352Z 31008KT 10SM FEW030 SCT200 BKN250 27/21 A2993 RMK AO2 SLP126 60000 T02720206 10289 20250 56008=
200907132252 METAR KATL 132252Z 30007KT 10SM FEW032 SCT250 28/21 A2993 RMK AO2 SLP125 T02830206=
200907132152 METAR KATL 132152Z 29009KT 10SM FEW032 SCT060 SCT200 BKN250 28/21 A2994 RMK AO2 SLP128 T02830211=
200907132052 METAR KATL 132052Z 28005KT 10SM FEW027 SCT040 SCT065 29/22 A2996 RMK AO2 SLP133 60000 T02890217 56015=
200907132025 SPECI KATL 132025Z 30009KT 10SM FEW027 SCT040 BKN060 28/21 A2996 RMK AO2=
200907132025 SPECI KATL 132025Z 30009KT 10SM FEW027 SCT040 BKN060 28/21 A2996 RMK AO2=
200907131959 SPECI KATL 131959Z 30007KT 270V350 10SM BKN025 BKN060 28/22 A2997 RMK AO2=
200907131959 SPECI KATL 131959Z 30007KT 270V350 10SM BKN025 BKN060 28/22 A2997 RMK AO2=
200907131952 METAR KATL 131952Z 33007KT 10SM FEW025 BKN040 BKN065 27/21 A2996 RMK AO2 SLP138 T02720211=
200907131927 SPECI KATL 131927Z 30008KT 10SM FEW020 SCT030 SCT040 27/22 A2997 RMK AO2=
200907131927 SPECI KATL 131927Z 30008KT 10SM FEW020 SCT030 SCT040 27/22 A2997 RMK AO2=
200907131852 METAR KATL 131852Z 29006KT 10SM BKN022 BKN029 BKN070 26/22 A2999 RMK AO2 RAB08E14 SLP145 SHRA DSNT SE P0000 T02610217=
200907131752 METAR KATL 131752Z 29007KT 10SM BKN022 BKN026 OVC070 25/21 A3000 RMK AO2 SLP150 T02500211 10261 20217 50000=
200907131652 METAR KATL 131652Z 29005KT 10SM OVC020 25/21 A3001 RMK AO2 SLP153 T02500211=
200907131552 METAR KATL 131552Z 27008KT 10SM BKN024 BKN070 OVC250 25/21 A3001 RMK AO2 SLP152 T02500206=
200907131521 SPECI KATL 131521Z 30014G20KT 10SM BKN020 BKN070 BKN250 26/21 A3000 RMK AO2=
200907131521 SPECI KATL 131521Z 30014G20KT 10SM BKN020 BKN070 BKN250 26/21 A3000 RMK AO2=
200907131452 METAR KATL 131452Z 29010KT 10SM FEW015 SCT065 BKN250 25/21 A3000 RMK AO2 SLP150 T02500206 53003=
200907131352 METAR KATL 131352Z 29009KT 10SM FEW015 SCT100 BKN250 24/21 A2999 RMK AO2 SLP146 T02390206=
200907131252 METAR KATL 131252Z 28008KT 10SM FEW100 BKN150 BKN250 23/21 A2999 RMK AO2 SLP146 T02280211=
200907131152 METAR KATL 131152Z 27006KT 10SM FEW005 SCT100 BKN150 22/21 A2999 RMK AO2 RAE12 SLP146 P0000 60033 70222 T02170211 10222 20211 58012=
200907131052 METAR KATL 131052Z 24003KT 7SM -RA FEW005 SCT100 BKN110 22/21 A3000 RMK AO2 RAE33B50 SLP150 P0006 T02170211=
200907131017 SPECI KATL 131017Z 20003KT 6SM -RA BR FEW005 BKN031 22/21 A3001 RMK AO2 P0006 $=
200907131017 SPECI KATL 131017Z 20003KT 6SM -RA BR FEW005 BKN031 22/21 A3001 RMK AO2 P0006 $=
200907130952 METAR KATL 130952Z 27006KT 4SM RA BR SCT005 OVC021 21/21 A3003 RMK AO2 TSE42 SLP157 TS MOV SE P0015 T02110206 $=
200907130948 SPECI KATL 130948Z 26006KT 5SM RA BR BKN005 OVC021 21/21 A3003 RMK AO2 TSE42 TS MOV SE P0014 $=
200907130948 SPECI KATL 130948Z 26006KT 5SM RA BR BKN005 OVC021 21/21 A3003 RMK AO2 TSE42 TS MOV SE P0014 $=
200907130852 METAR KATL 130852Z 27008KT 6SM -TSRA BR BKN022CB BKN032 OVC110 21/21 A3002 RMK AO2 TSB52RAB07 SLP155 FRQ LTGICCC S-SW TS S-SW MOV SE P0006 60012 T02110206 56008 $=
200907130836 SPECI KATL 130836Z 26006KT 6SM -RA BR BKN025 BKN031 OVC110 21/21 A3002 RMK AO2 RAB07 OCNL LTG DSNT S & SW P0003 $=
200907130836 SPECI KATL 130836Z 26006KT 6SM -RA BR BKN025 BKN031 OVC110 21/21 A3002 RMK AO2 RAB07 OCNL LTG DSNT S & SW P0003 $=
200907130752 METAR KATL 130752Z 28004KT 10SM FEW037 SCT120 22/21 A3002 RMK AO2 RAE07 SLP155 FRQ LTG DSNT SW & W P0001 T02170211 $=
200907130720 SPECI KATL 130720Z 29003KT 10SM FEW025 SCT150 22/21 A3002 RMK AO2 RAE07 P0001 $=
200907130720 SPECI KATL 130720Z 29003KT 10SM FEW025 SCT150 22/21 A3002 RMK AO2 RAE07 P0001 $=
200907130652 METAR KATL 130652Z 00000KT 5SM RA BR BKN002 BKN009 OVC025 22/21 A3003 RMK AO2 TSB07E33RAB17 SLP156 TS MOV SE P0005 T02170211=
200907130639 SPECI KATL 130639Z 28003KT 6SM -RA BR FEW002 BKN024 22/22 A3003 RMK AO2 TSB07E33RAB17 TS MOV SE P0002=
200907130639 SPECI KATL 130639Z 28003KT 6SM -RA BR FEW002 BKN024 22/22 A3003 RMK AO2 TSB07E33RAB17 TS MOV SE P0002=
200907130607 SPECI KATL 130607Z 23004KT 9SM TS FEW050CB SCT150 BKN200 22/22 A3004 RMK AO2 TSB07 CONS LTGINCC SW-W TS SW-W MOV SE $=
200907130607 SPECI KATL 130607Z 23004KT 9SM TS FEW050CB SCT150 BKN200 22/22 A3004 RMK AO2 TSB07 CONS LTGINCC SW-W TS SW-W MOV SE $=
200907130552 METAR KATL 130552Z 30005KT 9SM BKN200 22/22 A3005 RMK AO2 SLP164 CONS LTGIC DSNT W & NW 60189 T02220217 10261 20211 55023 $=
200907130452 METAR KATL 130452Z 19003KT 10SM FEW047 OVC100 23/21 A3004 RMK AO2 RAB11E26 SLP160 P0000 T02280211 403220211=
200907130352 METAR KATL 130352Z 08005KT 10SM SCT047CB BKN100 BKN120 OVC200 23/21 A3008 RMK AO2 RAE37 SLP175 CB NW MOV SE P0002 T02280211=
200907130303 SPECI KATL 130303Z 08006KT 10SM -RA FEW005 BKN032 OVC120 22/21 A3011 RMK AO2 P0001=
200907130303 SPECI KATL 130303Z 08006KT 10SM -RA FEW005 BKN032 OVC120 22/21 A3011 RMK AO2 P0001=
200907130252 METAR KATL 130252Z 07006KT 10SM -RA FEW008 SCT018 OVC027 22/22 A3012 RMK AO2 TSB14E51 SLP188 TS MOV E P0018 60187 T02220217 50019=
200907130214 SPECI KATL 130214Z 03006KT 4SM TSRA BR SCT008 SCT018 OVC027 22/21 A3013 RMK AO2 TSB14 OCNL LTGICCA ALQDS TS ALQDS MOV E P0008=
200907130214 SPECI KATL 130214Z 03006KT 4SM TSRA BR SCT008 SCT018 OVC027 22/21 A3013 RMK AO2 TSB14 OCNL LTGICCA ALQDS TS ALQDS MOV E P0008=
200907130207 SPECI KATL 130207Z 03006KT 5SM RA BR SCT008 SCT018 OVC024 22/21 A3013 RMK AO2 P0006=
200907130207 SPECI KATL 130207Z 03006KT 5SM RA BR SCT008 SCT018 OVC024 22/21 A3013 RMK AO2 P0006=
200907130152 METAR KATL 130152Z 36003KT 5SM RA BR FEW008 OVC032 22/21 A3012 RMK AO2 TSE52 SLP190 OCNL LTGCA DSNT SE TS MOV SE P0085 T02220206=
200907130135 SPECI KATL 130135Z VRB03KT 7SM -TSRA FEW008 OVC035CB 22/21 A3011 RMK AO2 FRQ LTGICCG SE TS SE MOV E P0081=
200907130135 SPECI KATL 130135Z VRB03KT 7SM -TSRA FEW008 OVC035CB 22/21 A3011 RMK AO2 FRQ LTGICCG SE TS SE MOV E P0081=
200907130124 SPECI KATL 130124Z 36006KT 4SM TSRA BR FEW008 BKN024CB OVC047 22/21 A3010 RMK AO2 CONS LTGICCG NE-SE-S TS NE-SE-S MOV E P0079=
200907130124 SPECI KATL 130124Z 36006KT 4SM TSRA BR FEW008 BKN024CB OVC047 22/21 A3010 RMK AO2 CONS LTGICCG NE-SE-S TS NE-SE-S MOV E P0079=
200907130118 SPECI KATL 130118Z 34006KT 1 1/2SM -TSRA BR FEW002 OVC018CB 22/21 A3010 RMK AO2 CONS LTGICCG NE-SE TS NE-SE MOV SE P0077=
200907130118 SPECI KATL 130118Z 34006KT 1 1/2SM -TSRA BR FEW002 OVC018CB 22/21 A3010 RMK AO2 CONS LTGICCG NE-SE TS NE-SE MOV SE P0077=
200907130111 SPECI KATL 130111Z 00000KT 3/4SM R09R/5500VP6000FT +TSRA BR SCT002 OVC025CB 22/22 A3012 RMK AO2 CONS LTGICCG OHD-N-E-S TS OHD-N-E-S MOV SE P0075=
200907130111 SPECI KATL 130111Z 00000KT 3/4SM R09R/5500VP6000FT +TSRA BR SCT002 OVC025CB 22/22 A3012 RMK AO2 CONS LTGICCG OHD-N-E-S TS OHD-N-E-S MOV SE P0075=
200907130052 SPECI KATL 130052Z 28020G34KT 1/4SM R09R/3000V4000FT +TSRA FG FEW003 OVC025CB 22/21 A3012 RMK AO2 PK WND 31034/0044 WSHFT 0024 RAB23 SLP190 CONS LTGICCG ALQDS TS ALQDS MOV SE P0084 T02170211=
200907130044 SPECI KATL 130044Z 31026G34KT 1/2SM R09R/2400V4500FT +TSRA FG FEW006 BKN021CB OVC060 22/21 A3010 RMK AO2 PK WND 31034/0044 WSHFT 0024 RAB23 CONS LTGICCG ALQDS TS ALQDS MOV SE P0042=
200907130044 SPECI KATL 130044Z 31026G34KT 1/2SM R09R/2400V4500FT +TSRA FG FEW006 BKN021CB OVC060 22/21 A3010 RMK AO2 PK WND 31034/0044 WSHFT 0024 RAB23 CONS LTGICCG ALQDS TS ALQDS MOV SE P0042=
200907130040 SPECI KATL 130040Z 32019G33KT 1/2SM R09R/2400VP6000FT +TSRA FG FEW008 BKN049CB OVC060 22/21 A3011 RMK AO2 PK WND 33033/0037 WSHFT 0024 RAB23 FRQ LTGICCG ALQDS TS ALQDS MOV SE P0019=
200907130040 SPECI KATL 130040Z 32019G33KT 1/2SM R09R/2400VP6000FT +TSRA FG FEW008 BKN049CB OVC060 22/21 A3011 RMK AO2 PK WND 33033/0037 WSHFT 0024 RAB23 FRQ LTGICCG ALQDS TS ALQDS MOV SE P0019=
200907130035 SPECI KATL 130035Z 32019G31KT 1 1/2SM R09R/4000VP6000FT -TSRA BR FEW018 BKN049CB OVC065 23/22 A3011 RMK AO2 PK WND 32031/0032 RAB23 PRESRR WSHFT 0030 FRQ LTGICCG OHD-SW-W-N TS OHD-SW-W-N MOV SE P0001=
200907130035 SPECI KATL 130035Z 32019G31KT 1 1/2SM R09R/4000VP6000FT -TSRA BR FEW018 BKN049CB OVC065 23/22 A3011 RMK AO2 PK WND 32031/0032 RAB23 PRESRR WSHFT 0030 FRQ LTGICCG OHD-SW-W-N TS OHD-SW-W-N MOV SE P0001=
200907122352 METAR KATL 122352Z 04012KT 7SM TS FEW049CB BKN090 OVC250 27/22 A3006 RMK AO2 WSHFT 2252 RAE02 SLP169 OCNL LTGIC NE AND NW TS NE AND NW MOV E CB DSNT W-NW P0000 60000 T02670217 10322 20256 55001=
200907122310 SPECI KATL 122310Z 06009KT 8SM TS SCT047CB SCT060 OVC075 26/20 A3006 RMK AO2 WSHFT 2252 RAE02 OCNL LTGICCG NE TS NE MOV E SHRA NE VIS LWR NE P0000=
200907122310 SPECI KATL 122310Z 06009KT 8SM TS SCT047CB SCT060 OVC075 26/20 A3006 RMK AO2 WSHFT 2252 RAE02 OCNL LTGICCG NE TS NE MOV E SHRA NE VIS LWR NE P0000=
200907122252 METAR KATL 122252Z 04012KT 5SM -TSRA FEW015 BKN047CB OVC085 27/22 A3006 RMK AO2 RAB03 SLP169 OCNL LTGICCG NE AND SW TS NE AND SW MOV E P0007 T02670222=
200907122206 SPECI KATL 122206Z 21008KT 7SM -TSRA SCT047CB BKN055 BKN085 BKN250 31/21 A3004 RMK AO2 RAB03 OCNL LTGIC OHD AND W TS OHD AND W MOV SE VIS NW-NE 1 P0000=
200907122206 SPECI KATL 122206Z 21008KT 7SM -TSRA SCT047CB BKN055 BKN085 BKN250 31/21 A3004 RMK AO2 RAB03 OCNL LTGIC OHD AND W TS OHD AND W MOV SE VIS NW-NE 1 P0000=
200907122152 METAR KATL 122152Z 22006KT 9SM TS BKN048CB BKN085 32/21 A3004 RMK AO2 TSB52 SLP163 OCNL LTGIC NE AND NW TS NE AND NW MOV SE T03170206=
200907122052 METAR KATL 122052Z 23005KT 10SM SCT046TCU BKN060 BKN080 32/21 A3006 RMK AO2 SLP168 TCU OHD-NW-N AND DSNT E AND W T03170206 58027=
200907121952 METAR KATL 121952Z COR VRB04KT 10SM SCT048TCU BKN060 KN250 31/21 A3009 RMK AO2 SLP180 TCU SW AND W CB DSNT NW T03060211=
200907121852 METAR KATL 121852Z COR 00000KT 10SM SCT032TCU SCT044 BKN055 31/21 A3012 RMK AO2 SLP188 TCU OHD-S AND NW SHRA S T03110211=
200907121752 METAR KATL 121752Z 18003KT 10SM SCT040 SCT150 BKN250 30/21 A3014 RMK AO2 SLP196 T03000206 10300 20222 58014=
200907121652 METAR KATL 121652Z 25006KT 10SM FEW035 SCT150 BKN250 29/20 A3017 RMK AO2 SLP204 T02890200=
200907121552 METAR KATL 121552Z 24006KT 10SM FEW030 BKN150 BKN250 28/21 A3018 RMK AO2 SLP209 T02780206=
200907121452 METAR KATL 121452Z 26006KT 10SM FEW030 SCT150 BKN250 28/21 A3019 RMK AO2 SLP211 T02830206 53002=
200907121352 METAR KATL 121352Z 23006KT 10SM SCT100 BKN250 26/20 A3018 RMK AO2 SLP210 T02560200=
200907121252 METAR KATL 121252Z 23005KT 10SM SCT130 BKN250 24/20 A3018 RMK AO2 SLP210 T02440200=
200907121152 METAR KATL 121152Z 24004KT 9SM FEW110 SCT150 BKN250 22/20 A3018 RMK AO2 SLP210 T02220200 10244 20217 53006=
200907121052 METAR KATL 121052Z 20003KT 9SM FEW150 BKN250 22/19 A3017 RMK AO2 SLP206 T02170194=
200907120952 METAR KATL 120952Z 18003KT 10SM SCT150 BKN250 22/19 A3015 RMK AO2 SLP200 T02220194=
200907120852 METAR KATL 120852Z 26003KT 10SM FEW150 BKN250 23/19 A3016 RMK AO2 SLP203 T02280189 56009=
200907120752 METAR KATL 120752Z COR 24004KT 10SM FEW150 SCT200 24/19 A3017 RMK AO2 SLP205 T02390189=
200907120652 METAR KATL 120652Z 25003KT 10SM FEW120 SCT150 BKN200 24/19 A3017 RMK AO2 SLP206 T02390189=
200907120552 METAR KATL 120552Z 22004KT 10SM FEW120 SCT150 BKN200 24/19 A3019 RMK AO2 SLP213 T02440194 10289 20244 50004=
200907120452 METAR KATL 120452Z 24003KT 10SM SCT150 BKN200 24/19 A3020 RMK AO2 SLP214 T02440194 403000206=
200907120352 METAR KATL 120352Z 00000KT 10SM FEW150 BKN250 26/19 A3020 RMK AO2 SLP215 T02560189=
200907120252 METAR KATL 120252Z 18005KT 10SM SCT150 BKN250 26/19 A3018 RMK AO2 SLP208 T02610189 53002=
200907120152 METAR KATL 120152Z 22005KT 10SM BKN130 OVC250 27/18 A3017 RMK AO2 SLP205 T02720183=
200907120052 METAR KATL 120052Z 22005KT 10SM SCT130 BKN250 28/18 A3017 RMK AO2 SLP208 T02780178=
200907112352 METAR KATL 112352Z 22007KT 10SM FEW055 SCT150 BKN250 28/17 A3017 RMK AO2 SLP207 T02830172 10300 20283 58009=
200907112252 METAR KATL 112252Z 24008KT 10SM SCT055 OVC250 29/17 A3018 RMK AO2 SLP211 T02940172=
200907112152 METAR KATL 112152Z 20007KT 10SM FEW055 BKN250 30/17 A3019 RMK AO2 SLP214 T03000172=
200907112052 METAR KATL 112052Z 20006KT 10SM SCT050 BKN250 29/17 A3020 RMK AO2 SLP216 T02940167 56018=
200907111952 METAR KATL 111952Z 16007KT 10SM SCT050 BKN250 29/16 A3021 RMK AO2 SLP221 T02890161=
200907111852 METAR KATL 111852Z 20006KT 10SM SCT055 BKN250 29/16 A3023 RMK AO2 SLP228 T02890156=
200907111752 METAR KATL 111752Z 20005KT 10SM SCT050 OVC250 29/15 A3025 RMK AO2 SLP234 T02890150 10289 20217 58006=
200907111652 METAR KATL 111652Z 17006KT 10SM FEW045 BKN250 28/16 A3028 RMK AO2 SLP244 T02780161=
200907111552 METAR KATL 111552Z VRB05KT 10SM BKN250 27/16 A3028 RMK AO2 SLP243 T02720161=
200907111452 METAR KATL 111452Z 15008KT 10SM SCT250 27/16 A3027 RMK AO2 SLP241 T02670156 58003=
200907111352 METAR KATL 111352Z VRB04KT 10SM CLR 25/18 A3028 RMK AO2 SLP245 T02500178=
200907111252 METAR KATL 111252Z 16006KT 10SM FEW012 23/19 A3029 RMK AO2 SLP246 T02330194=
200907111152 METAR KATL 111152Z 15003KT 8SM CLR 22/19 A3028 RMK AO2 SLP245 T02170194 10228 20206 53013=
200907111052 METAR KATL 111052Z 00000KT 8SM FEW250 21/19 A3026 RMK AO2 SLP240 T02110194=
200907110952 METAR KATL 110952Z 00000KT 9SM CLR 21/19 A3025 RMK AO2 SLP233 T02110189=
200907110852 METAR KATL 110852Z 00000KT 10SM FEW045 22/19 A3024 RMK AO2 SLP231 T02170194 58002=
200907110752 METAR KATL 110752Z 00000KT 10SM SCT045 22/19 A3025 RMK AO2 SLP232 T02170194=
200907110652 METAR KATL 110652Z 20003KT 10SM FEW035 22/19 A3025 RMK AO2 SLP235 T02170194=
200907110552 METAR KATL 110552Z 19004KT 10SM FEW040 23/19 A3025 RMK AO2 SLP234 T02280194 10272 20228 50003=
200907110452 METAR KATL 110452Z 18007KT 10SM FEW040 23/19 A3025 RMK AO2 SLP234 T02330194 402890200=
200907110352 METAR KATL 110352Z 14003KT 10SM SCT250 24/19 A3024 RMK AO2 SLP230 T02440194=
200907110252 METAR KATL 110252Z 14004KT 10SM FEW250 24/19 A3024 RMK AO2 SLP231 T02440189 51012=
200907110152 METAR KATL 110152Z 14004KT 10SM FEW250 26/18 A3023 RMK AO2 SLP229 T02560183=
200907110052 METAR KATL 110052Z COR 11007KT 10SM FEW040 SCT250 26/18 A3022 RMK AO2 SLP224 T02610183=
200907102352 METAR KATL 102352Z 12006KT 10SM FEW040 27/18 A3020 RMK AO2 SLP219 T02720178 10289 20267 58002=
200907102252 METAR KATL 102252Z 09008KT 10SM FEW040 SCT250 27/18 A3021 RMK AO2 SLP219 T02720183=
200907102152 METAR KATL 102152Z 13009KT 10SM FEW045 SCT250 28/17 A3022 RMK AO2 SLP225 T02830172=
200907102052 METAR KATL 102052Z 10006KT 10SM FEW040 SCT090 BKN250 29/18 A3021 RMK AO2 SLP221 T02890183 58016=
200907101952 METAR KATL 101952Z 11007KT 10SM FEW040 SCT050 BKN080 28/18 A3023 RMK AO2 SLP228 T02780178=
200907101852 METAR KATL 101852Z 06009KT 10SM FEW040 BKN060 BKN080 27/18 A3025 RMK AO2 SLP233 T02720178=
200907101752 METAR KATL 101752Z 07008KT 10SM FEW037 SCT050 BKN060 27/18 A3026 RMK AO2 SLP238 T02670183 10272 20211 51007=
200907101652 METAR KATL 101652Z 10010G15KT 10SM FEW035 BKN050 26/18 A3026 RMK AO2 SLP236 T02610178=
200907101552 METAR KATL 101552Z 12006KT 10SM BKN030 25/18 A3025 RMK AO2 SLP235 T02500178=
200907101510 SPECI KATL 101510Z 11007KT 10SM BKN030 26/19 A3024 RMK AO2=
200907101510 SPECI KATL 101510Z 11007KT 10SM BKN030 26/19 A3024 RMK AO2=
200907101452 METAR KATL 101452Z 10008KT 070V130 10SM BKN025 24/19 A3024 RMK AO2 SLP231 T02440189 58002=
200907101352 METAR KATL 101352Z 09010KT 10SM BKN015 23/19 A3025 RMK AO2 SLP234 T02330189=
200907101252 METAR KATL 101252Z 09011KT 6SM HZ FEW007 SCT011 22/19 A3024 RMK AO2 SLP233 T02170189=
200907101250 SPECI KATL 101250Z 10011KT 6SM HZ FEW007 SCT011 22/19 A3024 RMK AO2=
200907101250 SPECI KATL 101250Z 10011KT 6SM HZ FEW007 SCT011 22/19 A3024 RMK AO2=
200907101152 METAR KATL 101152Z 08009KT 7SM SCT015 BKN019 BKN029 21/18 A3024 RMK AO2 SLP231 T02110183 10228 20200 53019=
200907101052 METAR KATL 101052Z 09009KT 8SM FEW011 BKN025 21/18 A3021 RMK AO2 SLP223 T02060183=
200907100952 METAR KATL 100952Z 09008KT 8SM BKN017 21/18 A3020 RMK AO2 SLP217 T02060183=
200907100932 SPECI KATL 100932Z 10008KT 8SM BKN015 21/18 A3019 RMK AO2=
200907100932 SPECI KATL 100932Z 10008KT 8SM BKN015 21/18 A3019 RMK AO2=
200907100852 METAR KATL 100852Z 09008KT 7SM FEW012 SCT200 21/19 A3018 RMK AO2 SLP212 T02060189 53008=
200907100752 METAR KATL 100752Z 08008KT 10SM FEW034 21/19 A3017 RMK AO2 SLP208 T02110189=
200907100652 METAR KATL 100652Z 12007KT 10SM SCT150 22/19 A3016 RMK AO2 SLP203 T02220194=
200907100552 METAR KATL 100552Z 09008KT 10SM FEW030 SCT150 23/19 A3016 RMK AO2 SLP203 T02280194 10272 20228 50006=
200907100452 METAR KATL 100452Z 09006KT 10SM BKN150 23/19 A3016 RMK AO2 SLP204 T02330194 402890211=
200907100352 METAR KATL 100352Z 10006KT 10SM BKN150 24/19 A3015 RMK AO2 SLP200 T02390194=
200907100252 METAR KATL 100252Z 11005KT 10SM FEW100 SCT250 24/19 A3014 RMK AO2 SLP198 T02440194 53019=
200907100152 METAR KATL 100152Z 12006KT 10SM FEW150 SCT250 25/19 A3012 RMK AO2 SLP190 OCNL LTGIC DSNT NE T02500189=
200907100052 METAR KATL 100052Z 11007KT 10SM FEW150 SCT200 BKN250 26/19 A3009 RMK AO2 SLP181 T02610189=
200907092352 METAR KATL 092352Z 13006KT 10SM FEW200 BKN250 27/19 A3008 RMK AO2 SLP178 T02720189 10289 20267 53007=
200907092252 METAR KATL 092252Z 09009KT 10SM FEW040 SCT200 27/18 A3006 RMK AO2 SLP171 T02670178=
200907092152 METAR KATL 092152Z 10009KT 10SM FEW040 SCT250 28/18 A3006 RMK AO2 SLP169 T02830183=
200907092052 METAR KATL 092052Z 08009G15KT 10SM FEW035 SCT200 28/19 A3006 RMK AO2 SLP169 TCU DSNT NE T02830189 56007=
200907091952 METAR KATL 091952Z 09007G14KT 10SM FEW035 SCT055 SCT200 28/18 A3006 RMK AO2 SLP171 T02780183=
200907091852 METAR KATL 091852Z 15008KT 10SM FEW035 BKN055 28/19 A3008 RMK AO2 SLP174 T02780189=
200907091752 METAR KATL 091752Z 08006KT 10SM FEW030 SCT040 BKN050 27/19 A3008 RMK AO2 SLP177 T02670189 10272 20217 51009=
200907091652 METAR KATL 091652Z 11008KT 10SM FEW030 SCT040 SCT100 27/19 A3007 RMK AO2 SLP173 T02670194=
200907091552 METAR KATL 091552Z 06006KT 10SM FEW025 BKN035 26/19 A3007 RMK AO2 SLP173 T02560189=
200907091523 SPECI KATL 091523Z 06008KT 10SM FEW020 SCT025 BKN030 24/19 A3006 RMK AO2=
200907091523 SPECI KATL 091523Z 06008KT 10SM FEW020 SCT025 BKN030 24/19 A3006 RMK AO2=
200907091452 METAR KATL 091452Z COR 08006KT 10SM BKN020 BKN026 24/19 A3005 RMK AO2 SLP168 T02390189 51012=
200907091352 METAR KATL 091352Z 06008KT 10SM FEW017 BKN024 24/19 A3005 RMK AO2 SLP166 T02390194=
200907091252 METAR KATL 091252Z 08007KT 7SM SCT010 BKN017 BKN070 23/19 A3004 RMK AO2 SLP163 T02280194=
200907091152 METAR KATL 091152Z 08005KT 6SM BR BKN008 BKN015 BKN150 22/20 A3002 RMK AO2 SLP156 70003 T02170200 10222 20211 51013=
200907091149 SPECI KATL 091149Z 07007KT 6SM BR BKN008 BKN015 BKN150 22/20 A3002 RMK AO2=
200907091149 SPECI KATL 091149Z 07007KT 6SM BR BKN008 BKN015 BKN150 22/20 A3002 RMK AO2=
200907091052 METAR KATL 091052Z 08007KT 6SM BR SCT008 SCT015 BKN150 21/19 A2999 RMK AO2 SLP147 T02110194=
200907091021 SPECI KATL 091021Z 09007KT 6SM BR SCT008 BKN015 21/20 A2999 RMK AO2=
200907091021 SPECI KATL 091021Z 09007KT 6SM BR SCT008 BKN015 21/20 A2999 RMK AO2=
200907090952 METAR KATL 090952Z 08006KT 6SM BR FEW008 SCT015 21/19 A2998 RMK AO2 SLP143 T02110194=
200907090950 SPECI KATL 090950Z 08006KT 6SM BR FEW008 SCT015 21/19 A2998 RMK AO2=
200907090950 SPECI KATL 090950Z 08006KT 6SM BR FEW008 SCT015 21/19 A2998 RMK AO2=
200907090910 SPECI KATL 090910Z 07005KT 6SM BR BKN010 BKN026 21/20 A2997 RMK AO2=
200907090910 SPECI KATL 090910Z 07005KT 6SM BR BKN010 BKN026 21/20 A2997 RMK AO2=
200907090852 METAR KATL 090852Z 06006KT 6SM BR FEW008 SCT026 BKN070 21/20 A2997 RMK AO2 SLP139 T02110200 53001=
200907090752 METAR KATL 090752Z 09003KT 6SM BR FEW012 SCT150 21/19 A2996 RMK AO2 SLP136 T02110194=
200907090652 METAR KATL 090652Z 09006KT 8SM FEW010 SCT025 SCT150 22/19 A2996 RMK AO2 SLP135 T02170194=
200907090552 METAR KATL 090552Z 08007KT 8SM BKN015 OVC025 22/20 A2997 RMK AO2 SLP138 T02220200 10256 20222 51002=
200907090452 METAR KATL 090452Z 06007KT 10SM FEW025 BKN120 OVC150 23/19 A2997 RMK AO2 SLP138 T02280194 402780222=
200907090352 METAR KATL 090352Z 14004KT 10SM FEW070 BKN120 OVC200 23/19 A2997 RMK AO2 SLP138 OCNL LTG DSNT S-SW T02280194=
200907090252 METAR KATL 090252Z 08010KT 10SM FEW020 BKN065 BKN080 OVC200 23/19 A2996 RMK AO2 SLP136 CONS LTGICCG DSNT S-SW T02280194 53023=
200907090152 METAR KATL 090152Z 08010KT 10SM SCT028 BKN120 OVC200 24/21 A2993 RMK AO2 SLP124 OCNL LTG DSNT SE SW AND NW T02390206=
200907090052 METAR KATL 090052Z 06011KT 10SM FEW025 SCT080 BKN120 OVC250 25/21 A2991 RMK AO2 SLP118 CB DSNT SW AND NW T02500206=
200907082352 METAR KATL 082352Z 09008KT 10SM FEW030 SCT120 BKN200 BKN250 26/20 A2989 RMK AO2 SLP111 T02560200 10278 20233 53007=
200907082252 METAR KATL 082252Z 06008KT 10SM FEW110 SCT150 BKN200 BKN250 26/18 A2986 RMK AO2 SLP101 T02610183=
200907082152 METAR KATL 082152Z 06010KT 10SM FEW030 SCT100 SCT150 27/21 A2986 RMK AO2 SLP102 T02670206=
200907082052 METAR KATL 082052Z 06010KT 10SM FEW030 SCT070 SCT110 27/21 A2987 RMK AO2 SLP104 CB DSNT N-NE T02720206 58002=
200907081952 METAR KATL 081952Z 09006KT 10SM FEW020CB SCT050TCU BKN070 26/21 A2987 RMK AO2 TSB06E24 SLP106 CB N & E MOV SE TCU NW SHRA N & E T02560206=
200907081924 SPECI KATL 081924Z 13005KT 8SM FEW020CB SCT050 BKN070 24/20 A2989 RMK AO2 TSB06E24 TS DSIPT CB NE & SE MOV SE SHRA NE & SE=
200907081924 SPECI KATL 081924Z 13005KT 8SM FEW020CB SCT050 BKN070 24/20 A2989 RMK AO2 TSB06E24 TS DSIPT CB NE & SE MOV SE SHRA NE & SE=
200907081906 SPECI KATL 081906Z 14006KT 9SM TS FEW020CB SCT050 BKN080 24/20 A2989 RMK AO2 TSB06 OCNL LTGIC N TS N MOV SE SHRA N=
200907081906 SPECI KATL 081906Z 14006KT 9SM TS FEW020CB SCT050 BKN080 24/20 A2989 RMK AO2 TSB06 OCNL LTGIC N TS N MOV SE SHRA N=
200907081902 SPECI KATL 081902Z 15007KT 9SM FEW020CB SCT050 BKN080 24/20 A2989 RMK AO2 CB N & DSNT SE MOV SE SHRA N & DSNT SE=
200907081902 SPECI KATL 081902Z 15007KT 9SM FEW020CB SCT050 BKN080 24/20 A2989 RMK AO2 CB N & DSNT SE MOV SE SHRA N & DSNT SE=
200907081852 METAR KATL 081852Z 14006KT 9SM FEW020TCU SCT050 BKN080 24/20 A2988 RMK AO2 SLP108 CB DSNT SE-S TCU N SHRA N & DSNT SE-S T02390200=
200907081752 METAR KATL 081752Z 08009KT 10SM FEW015 SCT040 SCT090 SCT200 26/21 A2987 RMK AO2 TSE35 SLP105 FRQ LTG DSNT E-SE-S TS DSNT E-SE-S SHRA DSNT E-SE-S 60003 T02560211 10272 20228 58005=
200907081735 SPECI KATL 081735Z 12005KT 10SM FEW015 SCT040 SCT100 SCT200 24/19 A2986 RMK AO2 TSE35 FRQ LTGICCG DSNT E-SE-S TS MOV SE CB DSNT E-SE-S SHRA DSNT E-SE-S=
200907081735 SPECI KATL 081735Z 12005KT 10SM FEW015 SCT040 SCT100 SCT200 24/19 A2986 RMK AO2 TSE35 FRQ LTGICCG DSNT E-SE-S TS MOV SE CB DSNT E-SE-S SHRA DSNT E-SE-S=
200907081713 SPECI KATL 081713Z 08010KT 10SM TS FEW020CB SCT035 BKN070 23/19 A2988 RMK AO2 FRQ LTGICCG E-SE TS E-SE MOV SE SHRA NE-SE=
200907081713 SPECI KATL 081713Z 08010KT 10SM TS FEW020CB SCT035 BKN070 23/19 A2988 RMK AO2 FRQ LTGICCG E-SE TS E-SE MOV SE SHRA NE-SE=
200907081652 METAR KATL 081652Z 08004KT 9SM TS FEW020CB BKN035 BKN050 24/22 A2989 RMK AO2 TSB11RAB12E39 SLP112 VIS LWR NE-SE SHRA FRQ LTGICCG NE-SE TS NE-SE MOV E P0003 T02390217=
200907081644 SPECI KATL 081644Z 11010KT 9SM TS FEW020CB BKN055 BKN070 25/22 A2988 RMK AO2 TSB11RAB12E39 VIS LWR NE-SE SHRA FRQ LTGICCG NE-SE TS NE-SE MOV E P0003=
200907081644 SPECI KATL 081644Z 11010KT 9SM TS FEW020CB BKN055 BKN070 25/22 A2988 RMK AO2 TSB11RAB12E39 VIS LWR NE-SE SHRA FRQ LTGICCG NE-SE TS NE-SE MOV E P0003=
200907081626 SPECI KATL 081626Z 22005KT 9SM -TSRA FEW024CB SCT034TCU BKN040 26/22 A2988 RMK AO2 TSB11RAB12 VIS LWR NE-SE SHRA FRQ LTGICCG NE-SE TS NE-SE MOV E TCU W-NW P0002=
200907081626 SPECI KATL 081626Z 22005KT 9SM -TSRA FEW024CB SCT034TCU BKN040 26/22 A2988 RMK AO2 TSB11RAB12 VIS LWR NE-SE SHRA FRQ LTGICCG NE-SE TS NE-SE MOV E TCU W-NW P0002=
200907081621 SPECI KATL 081621Z 28004KT 8SM -TSRA SCT024CB BKN034TCU BKN070 27/21 A2988 RMK AO2 TSB11RAB12 VIS LWR NE SHRA FRQ LTGICCG NE TS NE MOV E TCU OHD & ALQDS P0000=
200907081621 SPECI KATL 081621Z 28004KT 8SM -TSRA SCT024CB BKN034TCU BKN070 27/21 A2988 RMK AO2 TSB11RAB12 VIS LWR NE SHRA FRQ LTGICCG NE TS NE MOV E TCU OHD & ALQDS P0000=
200907081611 SPECI KATL 081611Z 00000KT 9SM TS BKN024CB BKN034TCU BKN110 27/21 A2987 RMK AO2 TSB11 FRQ LTGICCG NE TS NE MOV E TCU OHD & ALQDS=
200907081611 SPECI KATL 081611Z 00000KT 9SM TS BKN024CB BKN034TCU BKN110 27/21 A2987 RMK AO2 TSB11 FRQ LTGICCG NE TS NE MOV E TCU OHD & ALQDS=
200907081552 METAR KATL 081552Z 18005KT 9SM SCT024TCU BKN034 BKN050 27/22 A2987 RMK AO2 SLP105 CB DSNT NE TCU E & S-SW-W-NW T02670217=
200907081549 SPECI KATL 081549Z 18005KT 9SM SCT021 BKN034 OVC050 27/22 A2988 RMK AO2=
200907081549 SPECI KATL 081549Z 18005KT 9SM SCT021 BKN034 OVC050 27/22 A2988 RMK AO2=
200907081452 METAR KATL 081452Z AUTO 00000KT 9SM SCT020TCU BKN035 BKN070 26/22 A2989 RMK AO2 SLP109 TCU NE-E-SE-S T02610217 50003 TSNO=
200907081449 SPECI KATL 081449Z AUTO 00000KT 9SM SCT020TCU BKN035 BKN070 26/22 A2989 RMK AO2 TCU NE-E-SE-S TSNO=
200907081449 SPECI KATL 081449Z AUTO 00000KT 9SM SCT020TCU BKN035 BKN070 26/22 A2989 RMK AO2 TCU NE-E-SE-S TSNO=
200907081352 METAR KATL 081352Z VRB04KT 9SM BKN015 BKN023 BKN070 26/22 A2989 RMK AO2 SLP108 T02560217=
200907081311 SPECI KATL 081311Z 06005KT 9SM SCT015 BKN020 BKN110 26/22 A2989 RMK AO2=
200907081311 SPECI KATL 081311Z 06005KT 9SM SCT015 BKN020 BKN110 26/22 A2989 RMK AO2=
200907081252 METAR KATL 081252Z 07003KT 6SM HZ FEW014 BKN110 24/22 A2988 RMK AO2 SLP107 T02440217=
200907081152 METAR KATL 081152Z 30004KT 6SM HZ SCT041 BKN100 24/21 A2987 RMK AO2 SLP103 70023 T02390211 10239 20228 53008=
200907081052 METAR KATL 081052Z 00000KT 7SM FEW090 SCT110 23/21 A2985 RMK AO2 SLP098 T02330211=
200907080952 METAR KATL 080952Z 00000KT 8SM BKN090 OVC110 23/21 A2985 RMK AO2 SLP095 T02330211=
200907080852 METAR KATL 080852Z 00000KT 7SM BKN090 OVC110 23/21 A2984 RMK AO2 SLP094 T02330211 56004=
200907080752 METAR KATL 080752Z 00000KT 7SM OVC100 23/22 A2984 RMK AO2 SLP095 T02330217=
200907080652 METAR KATL 080652Z 00000KT 10SM BKN100 BKN200 23/22 A2985 RMK AO2 SLP096 T02330217=
200907080552 METAR KATL 080552Z 00000KT 10SM BKN110 24/21 A2985 RMK AO2 SLP098 T02390211 10278 20239 58001=
200907080452 METAR KATL 080452Z 11003KT 10SM FEW028 SCT035 BKN100 BKN250 24/21 A2986 RMK AO2 SLP101 T02440206 403000228=
200907080421 SPECI KATL 080421Z 10004KT 10SM SCT028 BKN040 BKN100 24/21 A2986 RMK AO2=
200907080421 SPECI KATL 080421Z 10004KT 10SM SCT028 BKN040 BKN100 24/21 A2986 RMK AO2=
200907080413 SPECI KATL 080413Z 09005KT 10SM BKN028 BKN035 BKN043 25/21 A2986 RMK AO2=
200907080413 SPECI KATL 080413Z 09005KT 10SM BKN028 BKN035 BKN043 25/21 A2986 RMK AO2=
200907080352 METAR KATL 080352Z 09004KT 10SM SCT028 BKN035 BKN100 BKN250 25/20 A2986 RMK AO2 SLP101 T02500200=
200907080330 SPECI KATL 080330Z 10003KT 10SM BKN027 BKN065 OVC100 25/20 A2986 RMK AO2=
200907080330 SPECI KATL 080330Z 10003KT 10SM BKN027 BKN065 OVC100 25/20 A2986 RMK AO2=
200907080252 METAR KATL 080252Z 00000KT 10SM SCT026 BKN040 OVC065 26/21 A2986 RMK AO2 SLP101 T02560211 53015=
200907080152 METAR KATL 080152Z 36006KT 10SM FEW030 SCT250 26/21 A2983 RMK AO2 SLP092 T02610206=
200907080052 METAR KATL 080052Z 33005KT 10SM FEW035 SCT200 27/21 A2983 RMK AO2 SLP090 CB DSNT S AND SW T02670206=
200907072352 METAR KATL 072352Z 33007KT 10SM FEW035 SCT150 SCT250 28/21 A2981 RMK AO2 SLP085 CB DSNT SE-SW T02780206 10300 20261 55003=
200907072252 METAR KATL 072252Z 01007G16KT 10SM FEW035TCU SCT050 SCT250 28/21 A2981 RMK AO2 SLP083 TCU S-SW AND W CB DSNT SE-SW T02780206=
200907072152 METAR KATL 072152Z 33010KT 10SM SCT038 SCT055 BKN250 29/19 A2981 RMK AO2 SLP084 CB DSNT SE T02890194=
200907072052 METAR KATL 072052Z COR 01003KT 10SM FEW035 SCT045 BKN055 29/21 A2982 RMK AO2 SLP087 CB DSNT S SHRA DSNT S T02890206 56007=
200907071952 METAR KATL 071952Z 01008G17KT 10SM FEW030 SCT060 SCT080 28/21 A2983 RMK AO2 SLP088 CB DSNT E T02830211=
200907071852 METAR KATL 071852Z 34013KT 10SM FEW030CB BKN060 BKN080 27/22 A2984 RMK AO2 WSHFT 1809 SLP093 LTG DSNT NE CB DSNT NE & E SHRA DSNT NE & E T02720217=
200907071828 SPECI KATL 071828Z 34013KT 10SM FEW020CB SCT030TCU BKN070 26/21 A2984 RMK AO2 WSHFT 1809 LTG DSNT NE CB DSNT NE TCU S SHRA DSNT NE=
200907071828 SPECI KATL 071828Z 34013KT 10SM FEW020CB SCT030TCU BKN070 26/21 A2984 RMK AO2 WSHFT 1809 LTG DSNT NE CB DSNT NE TCU S SHRA DSNT NE=
200907071808 SPECI KATL 071808Z 28009KT 10SM FEW020CB SCT030TCU SCT080 SCT200 28/22 A2984 RMK AO2 CB N MOV E TCU NE & S & NW SHRA N=
200907071808 SPECI KATL 071808Z 28009KT 10SM FEW020CB SCT030TCU SCT080 SCT200 28/22 A2984 RMK AO2 CB N MOV E TCU NE & S & NW SHRA N=
200907071752 METAR KATL 071752Z 00000KT 10SM FEW019CB SCT055 SCT070 28/22 A2984 RMK AO2 RAB15E45 SLP095 LTG DSNT N-NE CB DSNT N-NE & E & SE & NW MOV E SHRA DSNT N-NE & SE & NW P0023 60023 T02780222 10283 20228 58004=
200907071722 SPECI KATL 071722Z 22006G19KT 9SM R09R/2600VP6000FT -RA FEW016CB BKN033 BKN060 24/21 A2985 RMK AO2 RAB15 CB S MOV E SHRA S P0004=
200907071722 SPECI KATL 071722Z 22006G19KT 9SM R09R/2600VP6000FT -RA FEW016CB BKN033 BKN060 24/21 A2985 RMK AO2 RAB15 CB S MOV E SHRA S P0004=
200907071652 METAR KATL 071652Z 30006KT 10SM FEW030TCU SCT040 BKN050 28/21 A2986 RMK AO2 SLP100 TCU N-NE-E-SE & NW T02780206=
200907071552 METAR KATL 071552Z 00000KT 10SM FEW017TCU SCT040 BKN070 27/22 A2986 RMK AO2 SLP101 TCU N-NE-E & NW SHRA N-NE T02670217=
200907071534 SPECI KATL 071534Z 20003KT 10SM SCT017TCU SCT025 BKN070 26/22 A2986 RMK AO2 TCU N-NE-E-SE & NW SHRA NW=
200907071534 SPECI KATL 071534Z 20003KT 10SM SCT017TCU SCT025 BKN070 26/22 A2986 RMK AO2 TCU N-NE-E-SE & NW SHRA NW=
200907071452 METAR KATL 071452Z 11003KT 8SM BKN022TCU BKN070 BKN150 25/22 A2986 RMK AO2 SLP101 TCU N-NE-E & W & NW SHRA N T02500217 51007=
200907071400 SPECI KATL 071400Z 16003KT 7SM SCT011 SCT016 BKN020 24/22 A2986 RMK AO2=
200907071400 SPECI KATL 071400Z 16003KT 7SM SCT011 SCT016 BKN020 24/22 A2986 RMK AO2=
200907071352 METAR KATL 071352Z 14004KT 8SM BKN014 BKN021 BKN080 BKN150 24/22 A2986 RMK AO2 SLP100 T02440217=
200907071317 SPECI KATL 071317Z 07007KT 6SM HZ SCT010 BKN016 BKN023 24/22 A2985 RMK AO2=
200907071317 SPECI KATL 071317Z 07007KT 6SM HZ SCT010 BKN016 BKN023 24/22 A2985 RMK AO2=
200907071252 METAR KATL 071252Z 06007KT 6SM BR BKN012 BKN020 BKN150 24/22 A2985 RMK AO2 SLP097 T02390217=
200907071152 METAR KATL 071152Z 08004KT 6SM BR BKN010 OVC014 23/21 A2984 RMK AO2 SLP094 70091 T02330211 10239 20228 50008=
200907071052 METAR KATL 071052Z 08003KT 6SM BR BKN014 OVC020 23/21 A2984 RMK AO2 SLP094 T02330211=
200907070952 METAR KATL 070952Z 07005KT 7SM BKN012 BKN070 OVC085 23/21 A2982 RMK AO2 SLP088 T02280211=
200907070916 SPECI KATL 070916Z 05007KT 8SM BKN012 OVC070 23/21 A2982 RMK AO2=
200907070916 SPECI KATL 070916Z 05007KT 8SM BKN012 OVC070 23/21 A2982 RMK AO2=
200907070852 METAR KATL 070852Z 04007KT 8SM SCT012 BKN100 23/21 A2981 RMK AO2 SLP084 T02280211 53002=
200907070752 METAR KATL 070752Z 02004KT 8SM BKN085 OVC100 24/22 A2980 RMK AO2 SLP081 T02390217=
200907070652 METAR KATL 070652Z 30005KT 8SM SCT055 BKN080 23/22 A2980 RMK AO2 SLP079 T02330222=
200907070552 METAR KATL 070552Z 30003KT 7SM SCT010 BKN150 BKN250 23/22 A2981 RMK AO2 SLP083 T02330222 10239 20228 56002=
200907070452 METAR KATL 070452Z 28004KT 7SM FEW004 SCT150 BKN250 23/23 A2981 RMK AO2 SLP083 T02330228 403060211=
200907070434 SPECI KATL 070434Z 27005KT 7SM SCT005 BKN200 OVC250 23/23 A2981 RMK AO2=
200907070434 SPECI KATL 070434Z 27005KT 7SM SCT005 BKN200 OVC250 23/23 A2981 RMK AO2=
200907070403 SPECI KATL 070403Z 27006KT 7SM BKN006 BKN150 OVC250 23/23 A2981 RMK AO2=
200907070403 SPECI KATL 070403Z 27006KT 7SM BKN006 BKN150 OVC250 23/23 A2981 RMK AO2=
200907070352 METAR KATL 070352Z 28004KT 7SM SCT007 BKN150 OVC250 23/23 A2981 RMK AO2 SLP084 SCT V BKN T02330228=
200907070341 SPECI KATL 070341Z 28004KT 7SM SCT007 BKN150 OVC250 23/23 A2981 RMK AO2 SCT V BKN=
200907070341 SPECI KATL 070341Z 28004KT 7SM SCT007 BKN150 OVC250 23/23 A2981 RMK AO2 SCT V BKN=
200907070252 METAR KATL 070252Z 27005KT 7SM BKN007 OVC050 23/23 A2981 RMK AO2 SLP086 CIG 005V009 T02330228 53002=
200907070152 METAR KATL 070152Z 22005KT 10SM BKN006 BKN050 BKN150 OVC200 23/23 A2980 RMK AO2 SLP082 T02330228=
200907070149 SPECI KATL 070149Z 21004KT 10SM SCT006 BKN050 BKN150 OVC200 23/23 A2980 RMK AO2=
200907070149 SPECI KATL 070149Z 21004KT 10SM SCT006 BKN050 BKN150 OVC200 23/23 A2980 RMK AO2=
200907070052 METAR KATL 070052Z 23005KT 9SM FEW010 SCT100 BKN200 BKN250 23/23 A2979 RMK AO2 SLP079 CB DSNT NW T02330228=
200907062352 METAR KATL 062352Z 24006KT 10SM FEW035 SCT070 BKN150 BKN200 24/23 A2981 RMK AO2 TSE08RAE49 SLP083 TS DSIPTD CB DSNT NE P0006 60090 T02390228 10306 20233 53008=
200907062309 SPECI KATL 062309Z 17009KT 6SM RA BR SCT035 BKN050 BKN070 OVC150 23/22 A2980 RMK AO2 TSE08 TS DSIPTD P0006=
200907062309 SPECI KATL 062309Z 17009KT 6SM RA BR SCT035 BKN050 BKN070 OVC150 23/22 A2980 RMK AO2 TSE08 TS DSIPTD P0006=
200907062252 METAR KATL 062252Z 19010KT 6SM TSRA BR SCT035CB BKN050 BKN150 BKN200 23/22 A2980 RMK AO2 WSHFT 2201 TSB01RAB01 SLP083 OCNL LTGICCG=
200907062220 SPECI KATL 062220Z 21008G21KT 9SM R09R/2800VP6000FT -TSRA SCT035CB BKN050 BKN150 BKN200 25/22 A2979 RMK AO2 WSHFT 2201 TSB01RAB01 OCNL LTGICCG NE-SE AND DSNT S-SW TS NE-SE AND DSNT S-SW MOV SE TCU N-NE P0004=
200907062220 SPECI KATL 062220Z 21008G21KT 9SM R09R/2800VP6000FT -TSRA SCT035CB BKN050 BKN150 BKN200 25/22 A2979 RMK AO2 WSHFT 2201 TSB01RAB01 OCNL LTGICCG NE-SE AND DSNT S-SW TS NE-SE AND DSNT S-SW MOV SE TCU N-NE P0004=
200907062202 SPECI KATL 062202Z 24016G20KT 210V290 3SM TSRA BKN035CB BKN060 BKN150 OVC200 27/21 A2979 RMK AO2 TSB01RAB01 OCNL LTGIC OHD-E TS OHD-E MOV SE P0000=
200907062202 SPECI KATL 062202Z 24016G20KT 210V290 3SM TSRA BKN035CB BKN060 BKN150 OVC200 27/21 A2979 RMK AO2 TSB01RAB01 OCNL LTGIC OHD-E TS OHD-E MOV SE P0000=
200907062152 METAR KATL 062152Z COR 19013KT 10SM SCT035CB BKN055 BKN150 BKN200 29/22 A2977 RMK AO2 TSE16 SLP071 TS MOV SE CB NW-NE MOV SE TCU OHD-NE SHRA NW-NE T02890217=
200907062117 SPECI KATL 062117Z 19010KT 10SM SCT035TCU BKN055 BKN130 BKN200 28/22 A2978 RMK AO2 TSE16 TS MOV SE TCU E-S AND DSNT SW-NW=
200907062117 SPECI KATL 062117Z 19010KT 10SM SCT035TCU BKN055 BKN130 BKN200 28/22 A2978 RMK AO2 TSE16 TS MOV SE TCU E-S AND DSNT SW-NW=
200907062052 METAR KATL 062052Z 19008KT 10SM TS BKN038CB BKN060 BKN130 28/22 A2978 RMK AO2 TSB42RAE1955 SLP074 OCNL LTGIC S TS SE-S MOV SE TCU OHD AND NW-N P0000 60000 T02830217 56019=
200907062043 SPECI KATL 062043Z 19008KT 10SM TS SCT035CB BKN060 BKN130 30/22 A2978 RMK AO2 TSB42RAE1955 OCNL LTGIC S TS S MOV SE TCU OHD AND=
200907062043 SPECI KATL 062043Z 19008KT 10SM TS SCT035CB BKN060 BKN130 30/22 A2978 RMK AO2 TSB42RAE1955 OCNL LTGIC S TS S MOV SE TCU OHD AND=
200907062008 SPECI KATL 062008Z VRB03KT 10SM SCT030CB BKN060 BKN130 30/21 A2979 RMK AO2 RAE1955 CB S MOV SE TCU DSNT SE-SW AND NW P0000=
200907062008 SPECI KATL 062008Z VRB03KT 10SM SCT030CB BKN060 BKN130 30/21 A2979 RMK AO2 RAE1955 CB S MOV SE TCU DSNT SE-SW AND NW P0000=
200907061952 METAR KATL 061952Z 27005KT 10SM -RA SCT030 BKN060 BKN130 28/22 A2979 RMK AO2 RAB45 SLP078 TCU DSNT SE-SW P0000 T02830217=
200907061852 METAR KATL 061852Z 26005KT 10SM SCT025TCU BKN060 BKN130 29/21 A2981 RMK AO2 SLP085 TCU NW-N T02940211=
200907061752 METAR KATL 061752Z VRB04KT 10SM SCT022 SCT065 BKN130 25/23 A2984 RMK AO2 RAB00E27 SLP095 TCU DSNT NW P0001 60001 T02500228 10250 20222 58009=
200907061723 SPECI KATL 061723Z 32006KT 8SM -RA SCT020 BKN045 BKN140 24/23 A2985 RMK AO2 RAB00 P0001=
200907061723 SPECI KATL 061723Z 32006KT 8SM -RA SCT020 BKN045 BKN140 24/23 A2985 RMK AO2 RAB00 P0001=
200907061652 SPECI KATL 061652Z 26007KT 10SM BKN020TCU BKN033 25/22 A2986 RMK AO2 RAB00E09 SLP101 TCU N P0000 T02500222=
200907061603 SPECI KATL 061603Z 31008KT 10SM -RA BKN020TCU BKN040 24/22 A2986 RMK AO2 RAB00 TCU S-W P0000=
200907061603 SPECI KATL 061603Z 31008KT 10SM -RA BKN020TCU BKN040 24/22 A2986 RMK AO2 RAB00 TCU S-W P0000=
200907061552 METAR KATL 061552Z 29007KT 10SM SCT020TCU BKN040 24/22 A2987 RMK AO2 SLP104 TCU S-W T02440217=
200907061536 SPECI KATL 061536Z 30007KT 10SM FEW015 SCT024 OVC040 24/22 A2987 RMK AO2 BINOVC W=
200907061536 SPECI KATL 061536Z 30007KT 10SM FEW015 SCT024 OVC040 24/22 A2987 RMK AO2 BINOVC W=
200907061515 SPECI KATL 061515Z 29006KT 10SM SCT014 BKN021 OVC042 24/22 A2987 RMK AO2=
200907061515 SPECI KATL 061515Z 29006KT 10SM SCT014 BKN021 OVC042 24/22 A2987 RMK AO2=
200907061452 METAR KATL 061452Z 27008KT 10SM BKN013 OVC042 24/22 A2987 RMK AO2 SLP104 T02390217 50001=
200907061352 METAR KATL 061352Z 25007KT 10SM OVC012 23/21 A2987 RMK AO2 SLP107 T02330211=
200907061324 SPECI KATL 061324Z VRB05KT 9SM OVC012 23/21 A2987 RMK AO2=
200907061324 SPECI KATL 061324Z VRB05KT 9SM OVC012 23/21 A2987 RMK AO2=
200907061252 METAR KATL 061252Z 28007KT 9SM FEW010 BKN015 BKN250 23/21 A2987 RMK AO2 SLP106 T02280211=
200907061200 SPECI KATL 061200Z 25009KT 7SM FEW007 SCT017 BKN022 22/21 A2986 RMK AO2=
200907061200 SPECI KATL 061200Z 25009KT 7SM FEW007 SCT017 BKN022 22/21 A2986 RMK AO2=
200907061152 METAR KATL 061152Z 24007KT 7SM FEW007 SCT022 BKN250 22/21 A2986 RMK AO2 SLP103 60001 70011 T02220206 10222 20211 53003=
200907061142 SPECI KATL 061142Z 25007KT 7SM FEW007 SCT022 BKN250 22/21 A2986 RMK AO2=
200907061142 SPECI KATL 061142Z 25007KT 7SM FEW007 SCT022 BKN250 22/21 A2986 RMK AO2=
200907061129 SPECI KATL 061129Z 24008KT 7SM FEW007 BKN024 BKN250 22/21 A2987 RMK AO2=
200907061129 SPECI KATL 061129Z 24008KT 7SM FEW007 BKN024 BKN250 22/21 A2987 RMK AO2=
200907061052 METAR KATL 061052Z 25006KT 10SM SCT120 BKN150 BKN250 21/20 A2985 RMK AO2 SLP099 T02110200=
200907060952 METAR KATL 060952Z 24009KT 10SM FEW024 SCT150 BKN200 21/20 A2985 RMK AO2 SLP098 T02110200=
200907060852 METAR KATL 060852Z 24007KT 10SM OVC024 21/20 A2985 RMK AO2 SLP099 60001 T02110200 56012=
200907060752 METAR KATL 060752Z 22007KT 10SM BKN026 OVC110 21/20 A2986 RMK AO2 SLP102 T02110200=
200907060750 SPECI KATL 060750Z 22006KT 10SM BKN026 OVC110 21/20 A2986 RMK AO2=
200907060750 SPECI KATL 060750Z 22006KT 10SM BKN026 OVC110 21/20 A2986 RMK AO2=
200907060652 METAR KATL 060652Z 23006KT 10SM SCT031 BKN046 OVC110 21/20 A2989 RMK AO2 RAB0554E25 SLP112 P0001 T02110200=
200907060552 METAR KATL 060552Z 22005KT 10SM FEW039 BKN080 OVC100 22/21 A2989 RMK AO2 SLP112 60000 T02220206 10261 20222 55007=
200907060452 METAR KATL 060452Z 22005KT 10SM BKN100 OVC250 22/21 A2988 RMK AO2 SLP107 T02220206 402670222=
200907060352 METAR KATL 060352Z 18006KT 9SM FEW004 SCT075 OVC120 23/22 A2989 RMK AO2 RAE18 SLP113 P0000 T02280217=
200907060338 SPECI KATL 060338Z 20008KT 8SM SCT004 SCT075 BKN110 OVC150 23/22 A2990 RMK AO2 RAE18 P0000=
200907060338 SPECI KATL 060338Z 20008KT 8SM SCT004 SCT075 BKN110 OVC150 23/22 A2990 RMK AO2 RAE18 P0000=
200907060252 METAR KATL 060252Z COR 19007KT 7SM -RA FEW008 SCT035CB BKN055 OVC130 23/22 A2991 RMK AO2 SLP119 LTG DSNT SE CB SW MOV E CB DSNT SE P0000 60000 T02330222 53011=
200907060246 SPECI KATL 060246Z 19009KT 7SM -RA FEW008 SCT040 BKN075 OVC130 23/22 A2991 RMK AO2 LTG DSNT SE CB DSNT SE P0000=
200907060246 SPECI KATL 060246Z 19009KT 7SM -RA FEW008 SCT040 BKN075 OVC130 23/22 A2991 RMK AO2 LTG DSNT SE CB DSNT SE P0000=
200907060152 METAR KATL 060152Z 00000KT 9SM -RA FEW047 BKN095 OVC110 26/22 A2989 RMK AO2 RAB44 SLP109 LTG DSNT SE-SW CB DSNT SE-SW P0000 T02560217=
200907060052 METAR KATL 060052Z 27003KT 9SM FEW045 BKN120 BKN150 OVC250 26/22 A2987 RMK AO2 SLP105 CB DSNT SE-S T02560217=
200907052352 METAR KATL 052352Z 29005KT 9SM FEW045 SCT060 BKN120 OVC150 26/22 A2988 RMK AO2 SLP107 SHRA NE 60009 T02610217 10267 20228 56003=
200907052252 METAR KATL 052252Z 26006KT 10SM FEW024 SCT065 OVC150 27/21 A2988 RMK AO2 SLP108 T02670206=
200907052152 METAR KATL 052152Z 25005KT 10SM FEW055 SCT095 BKN120 OVC150 27/21 A2987 RMK AO2 RAB02E19 SLP103 P0000 T02670211=
200907052052 METAR KATL 052052Z 22007KT 10SM FEW020 SCT055 BKN095 25/21 A2989 RMK AO2 SLP111 60009 T02500211 56025=
200907051952 METAR KATL 051952Z 24006KT 10SM SCT017 BKN060 OVC120 24/22 A2991 RMK AO2 RAE13B32E41 SLP118 P0001 T02390217=
200907051925 SPECI KATL 051925Z 22008KT 9SM SCT017 BKN050 OVC150 24/22 A2990 RMK AO2 RAE13 SCT017V BKN P0001=
200907051925 SPECI KATL 051925Z 22008KT 9SM SCT017 BKN050 OVC150 24/22 A2990 RMK AO2 RAE13 SCT017V BKN P0001=
200907051852 METAR KATL 051852Z 25004KT 7SM -RA BKN017 BKN037 OVC150 23/22 A2992 RMK AO2 PRESFR SLP124 CB DSNT NE-E P0008 T02330217=
200907051818 SPECI KATL 051818Z 28009G18KT 3SM R09R/6000VP6000FT RA BR BKN017CB BKN037 BKN050 23/22 A2998 RMK AO2 CB N-OHD-S-W MOV E P0003=
200907051818 SPECI KATL 051818Z 28009G18KT 3SM R09R/6000VP6000FT RA BR BKN017CB BKN037 BKN050 23/22 A2998 RMK AO2 CB N-OHD-S-W MOV E P0003=
200907051752 METAR KATL 051752Z 28009KT 7SM -RA SCT015 SCT050 OVC150 24/21 A2997 RMK AO2 SLP137 CB DSNT SW-NW P0000 60001 T02390211 10256 20239 55003=
200907051652 METAR KATL 051652Z 27003KT 7SM -RA FEW020 SCT050 OVC150 24/21 A2995 RMK AO2 RAB25 SLP133 OCNL LTGIC DSNT NE CB DSNT NE-S MOV E P0001 T02390211=
200907051637 SPECI KATL 051637Z 29005KT 8SM -RA FEW015 BKN050CB OVC150 24/21 A2997 RMK AO2 RAB25 CB NE-S MOV E SHRA E P0000=
200907051637 SPECI KATL 051637Z 29005KT 8SM -RA FEW015 BKN050CB OVC150 24/21 A2997 RMK AO2 RAB25 CB NE-S MOV E SHRA E P0000=
200907051552 METAR KATL 051552Z 27004KT 7SM BKN031 BKN060 OVC150 24/21 A2997 RMK AO2 RAE36 SLP137 CB DSNT SE P0000 T02440206=
200907051452 METAR KATL 051452Z 32009KT 7SM -RA FEW020CB BKN060 OVC150 25/20 A2997 RMK AO2 RAB18 PRESRR SLP139 CB N-NE MOV E SHRA N-NE P0000 60000 T02500200 53009=
200907051352 METAR KATL 051352Z COR 25003KT 10SM SCT065 SCT085 OVC150 25/19 A2996 RMK AO2 SLP134 CB DSNT NW T02500189=
200907051252 METAR KATL 051252Z 23006KT 10SM SCT065 OVC150 25/17 A2995 RMK AO2 SLP130 T02500172=
200907051152 METAR KATL 051152Z 23005KT 10SM FEW080 OVC150 25/16 A2995 RMK AO2 SLP129 T02500161 10256 20233 53009=
200907051052 METAR KATL 051052Z 24006KT 10SM FEW080 OVC150 24/16 A2994 RMK AO2 SLP127 T02440156=
200907050952 METAR KATL 050952Z 21003KT 10SM FEW140 OVC200 24/16 A2992 RMK AO2 SLP120 T02440161=
200907050852 METAR KATL 050852Z 00000KT 10SM OVC200 24/16 A2992 RMK AO2 SLP119 T02390156 58014=
200907050752 METAR KATL 050752Z 00000KT 10SM OVC200 24/16 A2994 RMK AO2 SLP126 T02390156=
200907050652 METAR KATL 050652Z 00000KT 10SM BKN200 25/14 A2995 RMK AO2 SLP131 T02500144=
200907050552 METAR KATL 050552Z 00000KT 10SM BKN200 26/14 A2996 RMK AO2 SLP133 T02560139 10306 20250 58010=
200907050452 METAR KATL 050452Z 20003KT 10SM BKN250 25/14 A2997 RMK AO2 SLP136 T02500139 403280189=
200907050352 METAR KATL 050352Z 00000KT 10SM BKN250 27/14 A2999 RMK AO2 SLP144 T02720144=
200907050252 METAR KATL 050252Z 00000KT 10SM BKN250 27/13 A2999 RMK AO2 SLP144 T02720133 53004=
200907050152 METAR KATL 050152Z 00000KT 10SM FEW150 SCT250 28/13 A2998 RMK AO2 SLP142 T02830128=
200907050052 METAR KATL 050052Z 00000KT 10SM FEW180 BKN250 30/12 A2997 RMK AO2 SLP136 T03000122=
200907042352 METAR KATL 042352Z 27004KT 10SM SCT250 31/12 A2998 RMK AO2 SLP140 T03060122 10328 20300 58010=
200907042252 METAR KATL 042252Z 32005KT 10SM BKN250 32/11 A2999 RMK AO2 SLP145 T03220111=
200907042152 METAR KATL 042152Z 27007KT 10SM BKN250 32/11 A3000 RMK AO2 SLP147 T03220111=
200907042052 METAR KATL 042052Z 29007KT 250V320 10SM SCT150 BKN250 32/11 A3001 RMK AO2 SLP152 T03170111 56020=
200907041952 METAR KATL 041952Z VRB03KT 10SM SCT150 BKN250 32/12 A3002 RMK AO2 SLP155 T03220122=
200907041852 METAR KATL 041852Z 28006KT 10SM SCT150 BKN250 31/12 A3004 RMK AO2 SLP161 T03110122=
200907041752 METAR KATL 041752Z 26005KT 10SM FEW150 BKN250 31/13 A3007 RMK AO2 SLP171 T03060128 10306 20211 58013=
200907041652 METAR KATL 041652Z 26006KT 10SM FEW150 SCT250 30/14 A3008 RMK AO2 SLP175 T03000139=
200907041552 METAR KATL 041552Z 24003KT 10SM FEW150 SCT250 28/14 A3011 RMK AO2 SLP184 T02780144=
200907041452 METAR KATL 041452Z VRB05KT 10SM SCT150 BKN250 26/16 A3011 RMK AO2 SLP185 T02560156 50007=
200907041352 METAR KATL 041352Z 13004KT 10SM FEW150 SCT250 24/16 A3011 RMK AO2 SLP187 T02390156=
200907041252 METAR KATL 041252Z 09005KT 10SM FEW150 SCT250 22/14 A3011 RMK AO2 SLP187 T02220144=
200907041152 METAR KATL 041152Z 08005KT 10SM FEW180 SCT250 21/14 A3009 RMK AO2 SLP178 T02110139 10222 20189 53005=
200907041052 METAR KATL 041052Z 07005KT 10SM FEW200 SCT250 19/14 A3007 RMK AO2 SLP173 T01940139=
200907040952 METAR KATL 040952Z 05006KT 10SM SCT250 20/14 A3007 RMK AO2 SLP172 T02000139=
200907040852 METAR KATL 040852Z 33005KT 10SM SCT200 19/14 A3007 RMK AO2 SLP172 T01940139 56006=
200907040752 METAR KATL 040752Z 32004KT 10SM SCT200 20/14 A3008 RMK AO2 SLP174 T02000144=
200907040652 METAR KATL 040652Z 34005KT 10SM BKN200 21/14 A3008 RMK AO2 SLP175 T02110139=
200907040552 METAR KATL 040552Z 34004KT 10SM BKN200 22/14 A3009 RMK AO2 SLP178 T02220139 10283 20222 50002=
200907040452 METAR KATL 040452Z 36005KT 10SM BKN200 23/14 A3009 RMK AO2 SLP181 T02330139 403170200=
200907040352 METAR KATL 040352Z 02008KT 10SM BKN200 24/13 A3009 RMK AO2 SLP178 T02440133=
200907040252 METAR KATL 040252Z 02009KT 10SM SCT200 25/13 A3008 RMK AO2 SLP177 T02500133 53010=
200907040152 METAR KATL 040152Z 35009KT 10SM FEW250 26/13 A3007 RMK AO2 SLP173 T02560133=
200907040052 METAR KATL 040052Z 01010KT 10SM FEW250 27/13 A3006 RMK AO2 SLP170 T02670133=
200907032352 METAR KATL 032352Z 35011KT 10SM FEW250 28/14 A3005 RMK AO2 SLP168 T02830139 10317 20283 53005=
200907032252 METAR KATL 032252Z 34013G18KT 10SM CLR 29/14 A3004 RMK AO2 SLP164 T02940139=
200907032152 METAR KATL 032152Z 34012G29KT 10SM FEW070 31/13 A3004 RMK AO2 PK WND 35029/2150 SLP161 T03110128=
200907032052 METAR KATL 032052Z 36009G25KT 10SM FEW070 31/13 A3004 RMK AO2 SLP160 T03060133 56010=
200907031952 METAR KATL 031952Z 35011G21KT 10SM FEW070 31/13 A3005 RMK AO2 SLP163 T03060128=
200907031852 METAR KATL 031852Z 35010KT 10SM FEW070 30/14 A3006 RMK AO2 SLP167 T03000144=
200907031752 METAR KATL 031752Z 30012G17KT 10SM FEW060 29/14 A3007 RMK AO2 SLP171 T02940144 10294 20206 58006=
200907031652 METAR KATL 031652Z 32009G15KT 10SM CLR 28/14 A3008 RMK AO2 SLP173 T02780144=
200907031552 METAR KATL 031552Z 33008G16KT 10SM CLR 27/14 A3009 RMK AO2 SLP180 T02670144=
200907031452 METAR KATL 031452Z 36010G17KT 10SM CLR 26/15 A3009 RMK AO2 SLP177 T02560150 53010=
200907031352 METAR KATL 031352Z 33011G20KT 10SM CLR 24/16 A3008 RMK AO2 SLP173 T02440156=
200907031252 METAR KATL 031252Z 34008KT 10SM CLR 23/16 A3006 RMK AO2 SLP170 T02330161=
200907031152 METAR KATL 031152Z 31008KT 10SM CLR 21/16 A3006 RMK AO2 SLP168 T02060156 10233 20200 53016=
200907031052 METAR KATL 031052Z 32006KT 10SM CLR 20/16 A3004 RMK AO2 SLP163 T02000156=
200907030952 METAR KATL 030952Z 31006KT 10SM CLR 20/16 A3002 RMK AO2 SLP155 T02000156=
200907030852 METAR KATL 030852Z 32005KT 10SM CLR 21/16 A3001 RMK AO2 SLP151 T02110161 53001=
200907030752 METAR KATL 030752Z 33006KT 10SM CLR 22/16 A3000 RMK AO2 SLP148 T02170161=
200907030652 METAR KATL 030652Z 33006KT 10SM CLR 23/16 A3000 RMK AO2 SLP149 T02280161=
200907030552 METAR KATL 030552Z 34007KT 10SM CLR 23/16 A3001 RMK AO2 SLP150 T02330161 10300 20233 50005=
200907030452 METAR KATL 030452Z 31008KT 10SM FEW080 24/16 A3001 RMK AO2 SLP152 T02440161 403220206=
200907030352 METAR KATL 030352Z 30007KT 10SM FEW080 26/16 A3000 RMK AO2 SLP148 T02560156=
200907030252 METAR KATL 030252Z 27006KT 10SM SCT080 26/15 A2999 RMK AO2 SLP145 T02610150 52016=
200907030152 METAR KATL 030152Z 27007KT 10SM FEW070 SCT090 27/15 A2997 RMK AO2 SLP138 T02720150=
200907030052 METAR KATL 030052Z 27005KT 10SM FEW070 SCT090 28/15 A2996 RMK AO2 SLP135 ACC W-NW T02830150=
200907022352 METAR KATL 022352Z 28007KT 10SM FEW070 30/14 A2994 RMK AO2 SLP128 T03000144 10322 20294 53005=
200907022252 METAR KATL 022252Z 30013KT 10SM SCT070 31/14 A2992 RMK AO2 SLP120 T03110139=
200907022152 METAR KATL 022152Z 30013KT 10SM BKN070 32/14 A2992 RMK AO2 SLP120 T03170144=
200907022052 METAR KATL 022052Z 31008G17KT 10SM SCT075 32/14 A2993 RMK AO2 SLP123 T03170139 58016=
200907021952 METAR KATL 021952Z 28010G19KT 10SM SCT075 32/14 A2995 RMK AO2 SLP130 T03220139=
200907021852 METAR KATL 021852Z 32008KT 270V350 10SM SCT070 32/14 A2996 RMK AO2 SLP134 T03170139=
200907021752 METAR KATL 021752Z VRB05G14KT 10SM SCT065 31/13 A2997 RMK AO2 SLP138 T03060133 10306 20222 58002=
200907021652 METAR KATL 021652Z 34010KT 10SM FEW065 30/14 A2998 RMK AO2 SLP141 T03000139=
200907021552 METAR KATL 021552Z 34010G16KT 10SM FEW065 SCT250 29/13 A2998 RMK AO2 SLP141 T02890133=
200907021452 METAR KATL 021452Z 32009KT 10SM FEW250 28/14 A2998 RMK AO2 SLP140 T02780144 53009=
200907021352 METAR KATL 021352Z 34006KT 10SM FEW060 SCT250 26/16 A2998 RMK AO2 SLP140 T02610156=
200907021252 METAR KATL 021252Z 32003KT 10SM FEW090 SCT150 BKN250 24/16 A2996 RMK AO2 SLP133 T02440156=
200907021152 METAR KATL 021152Z 00000KT 10SM SCT250 22/16 A2995 RMK AO2 SLP132 T02220161 10244 20206 53020=
200907021052 METAR KATL 021052Z 31004KT 10SM FEW150 SCT250 21/16 A2993 RMK AO2 SLP124 T02060156=
200907020952 METAR KATL 020952Z 33005KT 10SM FEW250 22/16 A2991 RMK AO2 SLP115 T02170156 $=
200907020852 METAR KATL 020852Z 32006KT 10SM CLR 22/16 A2989 RMK AO2 SLP110 T02170156 53009 $=
200907020752 METAR KATL 020752Z 32006KT 10SM CLR 22/15 A2988 RMK AO2 SLP106 T02220150 $=
200907020652 METAR KATL 020652Z 33007KT 10SM FEW080 23/14 A2987 RMK AO2 SLP102 T02330144 $=
200907020552 METAR KATL 020552Z 32008KT 10SM FEW075 24/14 A2986 RMK AO2 SLP100 T02440144 10317 20244 51007 $=
200907020452 METAR KATL 020452Z 30005KT 10SM FEW075 26/16 A2986 RMK AO2 SLP097 T02560156 403500228 $=
200907020352 METAR KATL 020352Z 32007KT 10SM FEW070 SCT085 27/14 A2985 RMK AO2 SLP096 T02720144 $=
200907020252 METAR KATL 020252Z 33006KT 10SM FEW075 28/17 A2984 RMK AO2 SLP093 T02780167 53019 $=
200907020152 METAR KATL 020152Z 29006KT 10SM FEW070 SCT250 28/17 A2982 RMK AO2 SLP085 T02780167 $=
200907020052 METAR KATL 020052Z 28006KT 10SM FEW070 SCT250 29/16 A2980 RMK AO2 SLP080 CB DSNT S T02940161 $=
200907012352 METAR KATL 012352Z COR 28014G17KT 10SM FEW075 32/16 A2979 RMK AO2 SLP074 60000 T03170156 10350 20317 53008 $=
200907012252 METAR KATL 012252Z 27014G22KT 10SM FEW080 33/14 A2977 RMK AO2 SLP068 T03280144 $=
200907012152 METAR KATL 012152Z 28012G22KT 10SM FEW080 34/13 A2976 RMK AO2 SLP066 T03390133 $=
200907012052 METAR KATL 012052Z 29016G22KT 10SM SCT075 34/15 A2976 RMK AO2 SLP065 TCU DSNT NE & DSNT NW 60000 T03390150 56015 $=
200907011952 METAR KATL 011952Z 27016G25KT 10SM SCT075 34/15 A2977 RMK AO2 SLP066 CB DSNT NE TCU DSNT N-NE & DSNT NW T03440150 $=
200907011852 METAR KATL 011852Z 27012G18KT 10SM SCT075 SCT090 33/15 A2978 RMK AO2 RAB08E17 SLP073 TCU DSNT NW P0000 T03330150 $=
200907011752 METAR KATL 011752Z 24013G20KT 10SM FEW070 SCT100 SCT280 34/15 A2981 RMK AO2 SLP080 TCU DSNT NW T03390150 10339 20239 58007=
200907011652 METAR KATL 011652Z 28015G21KT 10SM FEW070 SCT280 33/16 A2983 RMK AO2 SLP088 T03330156=
200907011552 METAR KATL 011552Z 26012G17KT 10SM FEW060 SCT100 SCT280 32/17 A2984 RMK AO2 SLP091 T03170167=
200907011452 METAR KATL 011452Z 24010KT 10SM FEW100 SCT280 30/17 A2983 RMK AO2 SLP088 ACC DSNT NE T03000172 51009=
200907011352 METAR KATL 011352Z 29011KT 10SM FEW100 SCT280 28/16 A2983 RMK AO2 SLP087 ACC DSNT N-NE T02780161=
200907011252 METAR KATL 011252Z 25006KT 10SM FEW030 SCT250 27/14 A2981 RMK AO2 SLP083 T02720144=
