##########################################################
# Query made at 04/19/2024 23:09:35 UTC
# Time interval: from 01/01/2009 12:00  to 01/31/2009 12:59  UTC
##########################################################

##########################################################
# KATL, Atlanta, Hartsfield - Jackson Atlanta International Airport (United States)
# WMO index: 72219. WIGOS ID: 0-20000-0-72219
# Latitude 33-38-59N. Longitude 084-25-00W. Altitude 312 m.
##########################################################

200901311252 METAR KATL 311252Z 28003KT 10SM FEW050 00/M04 A3022 RMK AO2 SLP242 T00001039=
200901311152 METAR KATL 311152Z 26004KT 10SM FEW050 00/M04 A3020 RMK AO2 SLP236 T00001044 10011 21006 53008=
200901311052 METAR KATL 311052Z 26004KT 10SM FEW050 00/M04 A3019 RMK AO2 SLP230 T00001044=
200901310952 METAR KATL 310952Z 26004KT 10SM CLR 00/M05 A3018 RMK AO2 SLP228 T00001050=
200901310852 METAR KATL 310852Z 27006KT 10SM FEW050 M01/M06 A3018 RMK AO2 SLP227 T10061056 58000=
200901310752 METAR KATL 310752Z 27005KT 10SM FEW055 00/M06 A3018 RMK AO2 SLP227 T00001061=
200901310652 METAR KATL 310652Z 26005KT 10SM FEW055 01/M06 A3018 RMK AO2 SLP228 T00061061=
200901310552 METAR KATL 310552Z 26004KT 10SM BKN055 01/M07 A3018 RMK AO2 SLP227 T00111067 10039 20000 55000=
200901310452 METAR KATL 310452Z 28005KT 10SM FEW055 00/M07 A3018 RMK AO2 SLP226 T00001072 400781011=
200901310352 METAR KATL 310352Z 30006KT 10SM CLR 01/M07 A3018 RMK AO2 SLP229 T00061072=
200901310252 METAR KATL 310252Z 29006KT 10SM CLR 01/M08 A3018 RMK AO2 SLP229 T00111078 51009=
200901310152 METAR KATL 310152Z 30007KT 10SM CLR 02/M08 A3018 RMK AO2 SLP229 T00221078=
200901310052 METAR KATL 310052Z 29006KT 10SM CLR 02/M08 A3017 RMK AO2 SLP225 T00221078=
200901302352 METAR KATL 302352Z 31010G21KT 10SM CLR 04/M08 A3015 RMK AO2 SLP220 T00391083 10078 20039 51013=
200901302252 METAR KATL 302252Z 31018G24KT 10SM FEW065 05/M08 A3014 RMK AO2 SLP214 T00501083=
200901302152 METAR KATL 302152Z 33015G25KT 10SM SCT070 06/M08 A3013 RMK AO2 PK WND 33026/2140 SLP211 VIRGA DSNT NW T00611078=
200901302052 METAR KATL 302052Z 34011G22KT 10SM SCT065 SCT080 07/M08 A3011 RMK AO2 SLP204 T00721078 56012=
200901301952 METAR KATL 301952Z 33022G28KT 10SM SCT070 07/M08 A3011 RMK AO2 PK WND 32030/1935 SLP203 T00721078=
200901301852 METAR KATL 301852Z 32017G25KT 10SM FEW065 07/M08 A3012 RMK AO2 PK WND 32026/1840 SLP207 T00721078=
200901301652 METAR KATL 301652Z 32016G24KT 10SM CLR 06/M07 A3018 RMK AO2 PK WND 33026/1616 SLP225 T00561067=
200901301552 METAR KATL 301552Z 33015G24KT 10SM CLR 03/M06 A3019 RMK AO2 SLP230 T00331061=
200901301452 METAR KATL 301452Z 33013G21KT 10SM CLR 02/M05 A3017 RMK AO2 SLP225 T00221050 53019=
200901301352 METAR KATL 301352Z 33013KT 10SM CLR 01/M04 A3015 RMK AO2 SLP218 T00061044=
200901301252 METAR KATL 301252Z 32014KT 10SM FEW250 M01/M04 A3013 RMK AO2 SLP211 T10061044=
200901301152 METAR KATL 301152Z 33013KT 10SM FEW250 M01/M04 A3012 RMK AO2 SLP206 T10061039 10028 21006 51008=
200901301052 METAR KATL 301052Z 33009G17KT 10SM CLR 00/M04 A3012 RMK AO2 SLP204 T00001039=
200901300952 METAR KATL 300952Z 32012KT 10SM CLR 01/M04 A3010 RMK AO2 SLP198 T00061039=
200901300852 METAR KATL 300852Z 32010KT 10SM FEW180 01/M04 A3009 RMK AO2 SLP195 T00061039 50000=
200901300752 METAR KATL 300752Z 32009KT 10SM SCT180 01/M04 A3009 RMK AO2 SLP194 T00111039=
200901300652 METAR KATL 300652Z 32008KT 10SM BKN180 02/M04 A3009 RMK AO2 SLP196 T00221039=
200901300552 METAR KATL 300552Z 31009KT 10SM BKN180 03/M04 A3009 RMK AO2 SLP196 T00281039 10067 20028 51001=
200901300452 METAR KATL 300452Z 31011KT 10SM SCT200 03/M04 A3009 RMK AO2 SLP194 T00331039 401060000=
200901300352 METAR KATL 300352Z 31008KT 10SM CLR 03/M03 A3010 RMK AO2 SLP198 T00331033=
200901300252 METAR KATL 300252Z 29008KT 10SM CLR 04/M03 A3009 RMK AO2 SLP196 T00391028 53010=
200901300152 METAR KATL 300152Z 29006KT 10SM CLR 04/M03 A3008 RMK AO2 SLP192 T00391028=
200901300052 METAR KATL 300052Z 30006KT 10SM CLR 06/M03 A3007 RMK AO2 SLP189 T00561028=
200901292352 METAR KATL 292352Z 31007KT 10SM CLR 07/M03 A3006 RMK AO2 SLP185 T00671033 10106 20061 53013=
200901292252 METAR KATL 292252Z 32010KT 10SM FEW200 08/M04 A3004 RMK AO2 SLP180 T00831039=
200901292152 SPECI KATL 292152Z 31011KT 10SM FEW200 09/M04 A3003 RMK AO2 SLP172 T00941039=
200901292052 METAR KATL 292052Z 33012KT 10SM FEW250 10/M04 A3002 RMK AO2 SLP170 T01001039 56007=
200901291952 METAR KATL 291952Z 30010KT 10SM FEW250 10/M03 A3002 RMK AO2 SLP171 T01001028=
200901291852 METAR KATL 291852Z 31010KT 10SM FEW250 08/M03 A3003 RMK AO2 SLP173 T00831028=
200901291752 METAR KATL 291752Z 32007G21KT 10SM FEW250 07/M02 A3004 RMK AO2 SLP178 T00721022 10072 20000 58013=
200901291652 METAR KATL 291652Z 31009KT 10SM FEW250 05/M02 A3007 RMK AO2 SLP187 T00501017=
200901291552 METAR KATL 291552Z 30009KT 10SM FEW200 SCT250 03/M02 A3009 RMK AO2 SLP197 T00281017=
200901291452 METAR KATL 291452Z 34011KT 10SM FEW013 SCT200 BKN250 02/M02 A3008 RMK AO2 SLP193 T00221017 53018=
200901291352 METAR KATL 291352Z 30008KT 10SM BKN011 01/M02 A3006 RMK AO2 SLP188 T00061017=
200901291252 METAR KATL 291252Z 31008KT 8SM SCT011 BKN200 01/M02 A3005 RMK AO2 SLP181 T00061017=
200901291152 METAR KATL 291152Z 30010KT 10SM OVC011 01/M02 A3003 RMK AO2 SLP175 70011 T00061017 10033 20006 53008=
200901291052 METAR KATL 291052Z 31007KT 10SM BKN013 OVC200 02/M01 A3001 RMK AO2 SLP169 T00171011=
200901290952 METAR KATL 290952Z 31011KT 10SM BKN013 OVC180 02/M01 A3001 RMK AO2 SLP168 T00171006=
200901290852 METAR KATL 290852Z 32011KT 10SM BKN011 OVC130 02/00 A3001 RMK AO2 SLP165 T00220000 55002=
200901290752 METAR KATL 290752Z 32009KT 10SM BKN011 OVC013 03/01 A3000 RMK AO2 SLP165 T00280006=
200901290652 METAR KATL 290652Z 30008KT 10SM OVC013 03/01 A3001 RMK AO2 SLP166 T00330006=
200901290552 METAR KATL 290552Z 31010KT 10SM OVC013 03/01 A3001 RMK AO2 SLP166 T00330011 10061 20033 58001=
200901290452 METAR KATL 290452Z 31008KT 10SM OVC013 04/02 A3001 RMK AO2 SLP166 T00390017 401670039=
200901290352 METAR KATL 290352Z 31005KT 10SM OVC013 04/02 A3002 RMK AO2 SLP166 T00440022=
200901290252 METAR KATL 290252Z 32008KT 10SM OVC014 05/03 A3001 RMK AO2 SLP164 T00500028 50002=
200901290239 SPECI KATL 290239Z 31010KT 10SM BKN014 OVC110 05/03 A3001 RMK AO2=
200901290239 SPECI KATL 290239Z 31010KT 10SM BKN014 OVC110 05/03 A3001 RMK AO2=
200901290152 METAR KATL 290152Z 30008KT 10SM FEW012 BKN018 OVC110 05/03 A3002 RMK AO2 SLP168 T00500028=
200901290145 SPECI KATL 290145Z 30007KT 10SM FEW012 BKN020 OVC110 05/03 A3002 RMK AO2=
200901290145 SPECI KATL 290145Z 30007KT 10SM FEW012 BKN020 OVC110 05/03 A3002 RMK AO2=
200901290052 METAR KATL 290052Z 29006KT 10SM FEW015 SCT120 BKN150 BKN200 06/03 A3002 RMK AO2 SLP166 T00560033=
200901282352 METAR KATL 282352Z 32007KT 10SM FEW015 SCT120 BKN150 06/04 A3001 RMK AO2 RAE00 SLP163 P0000 60008 T00610039 10111 20061 56004=
200901282321 SPECI KATL 282321Z 31011KT 10SM FEW012 SCT020 BKN120 OVC150 07/04 A3001 RMK AO2 RAE00 P0000=
200901282321 SPECI KATL 282321Z 31011KT 10SM FEW012 SCT020 BKN120 OVC150 07/04 A3001 RMK AO2 RAE00 P0000=
200901282312 SPECI KATL 282312Z 31013KT 10SM SCT012 BKN018 BKN120 OVC150 07/04 A3001 RMK AO2 RAE00 P0000=
200901282312 SPECI KATL 282312Z 31013KT 10SM SCT012 BKN018 BKN120 OVC150 07/04 A3001 RMK AO2 RAE00 P0000=
200901282252 METAR KATL 282252Z 32012KT 10SM -RA SCT015 BKN120 OVC150 07/05 A3002 RMK AO2 RAB49 SLP165 P0000 T00720050=
200901282152 METAR KATL 282152Z 31008KT 10SM FEW008 SCT018 OVC100 08/07 A3001 RMK AO2 RAE33 SLP163 P0000 T00830067=
200901282149 SPECI KATL 282149Z 30008KT 10SM FEW008 SCT018 OVC100 08/07 A3002 RMK AO2 RAE33 P0000=
200901282149 SPECI KATL 282149Z 30008KT 10SM FEW008 SCT018 OVC100 08/07 A3002 RMK AO2 RAE33 P0000=
200901282059 SPECI KATL 282059Z 30008KT 10SM -RA FEW008 BKN020 OVC090 09/08 A3001 RMK AO2 PRESRR P0000=
200901282059 SPECI KATL 282059Z 30008KT 10SM -RA FEW008 BKN020 OVC090 09/08 A3001 RMK AO2 PRESRR P0000=
200901282052 METAR KATL 282052Z 30009KT 10SM -RA FEW008 SCT012 OVC090 09/08 A2999 RMK AO2 SLP157 P0006 60008 T00890078 53012=
200901282006 SPECI KATL 282006Z 28012KT 8SM -RA FEW016 BKN031 OVC050 09/08 A2997 RMK AO2 P0003=
200901282006 SPECI KATL 282006Z 28012KT 8SM -RA FEW016 BKN031 OVC050 09/08 A2997 RMK AO2 P0003=
200901281952 METAR KATL 281952Z 29012G19KT 2 1/2SM -RA BR FEW010 BKN020 OVC050 09/08 A2997 RMK AO2 SFC VIS 3 SLP149 P0002 T00940078 $=
200901281950 SPECI KATL 281950Z 29014G19KT 2 1/2SM -RA BR FEW010 BKN020 OVC050 09/08 A2998 RMK AO2 SFC VIS 5 P0001 $=
200901281950 SPECI KATL 281950Z 29014G19KT 2 1/2SM -RA BR FEW010 BKN020 OVC050 09/08 A2998 RMK AO2 SFC VIS 5 P0001 $=
200901281923 SPECI KATL 281923Z 29009KT 3SM BR FEW008 SCT015 OVC040 11/08 A2996 RMK AO2 SFC VIS 5 RAEMM VIS LWR SW-NW SHRA P0000 $=
200901281923 SPECI KATL 281923Z 29009KT 3SM BR FEW008 SCT015 OVC040 11/08 A2996 RMK AO2 SFC VIS 5 RAEMM VIS LWR SW-NW SHRA P0000 $=
200901281910 SPECI KATL 281910Z 29010KT 10SM -RA FEW008 BKN029 OVC038 11/09 A2997 RMK AO2 VIS LWR SW-NW SHRA P0000=
200901281910 SPECI KATL 281910Z 29010KT 10SM -RA FEW008 BKN029 OVC038 11/09 A2997 RMK AO2 VIS LWR SW-NW SHRA P0000=
200901281900 SPECI KATL 281900Z 28014KT 10SM -RA FEW024 BKN032 OVC041 11/09 A2997 RMK AO2 P0000=
200901281900 SPECI KATL 281900Z 28014KT 10SM -RA FEW024 BKN032 OVC041 11/09 A2997 RMK AO2 P0000=
200901281853 SPECI KATL 281853Z 28013G18KT 10SM -RA FEW011 BKN025 OVC041 11/09 A2996 RMK AO2 P0000=
200901281853 SPECI KATL 281853Z 28013G18KT 10SM -RA FEW011 BKN025 OVC041 11/09 A2996 RMK AO2 P0000=
200901281852 METAR KATL 281852Z 29013G18KT 3SM -RA BR FEW011 BKN025 OVC050 11/09 A2996 RMK AO2 SFC VIS 6 SLP144 P0000 T01060094=
200901281804 SPECI KATL 281804Z 30014G20KT 3SM -RA BR SCT007 BKN015 OVC029 11/09 A2997 RMK AO2 SFC VIS 4 P0000=
200901281804 SPECI KATL 281804Z 30014G20KT 3SM -RA BR SCT007 BKN015 OVC029 11/09 A2997 RMK AO2 SFC VIS 4 P0000=
200901281756 SPECI KATL 281756Z 30015KT 3SM R09R/5000VP6000FT -RA BR BKN007 BKN015 OVC024 11/10 A2997 RMK AO2 P0000=
200901281756 SPECI KATL 281756Z 30015KT 3SM R09R/5000VP6000FT -RA BR BKN007 BKN015 OVC024 11/10 A2997 RMK AO2 P0000=
200901281752 METAR KATL 281752Z 30011KT 3SM R09R/5000VP6000FT -RA BR SCT007 BKN010 OVC024 11/10 A2997 RMK AO2 SFC VIS 3 RAB1658 SLP147 P0001 60003 T01110100 10167 20111 53012=
200901281713 SPECI KATL 281713Z 30015KT 3SM -RA BR FEW010 BKN020 OVC030 12/10 A2997 RMK AO2 SFC VIS 4 RAB1658 P0000=
200901281713 SPECI KATL 281713Z 30015KT 3SM -RA BR FEW010 BKN020 OVC030 12/10 A2997 RMK AO2 SFC VIS 4 RAB1658 P0000=
200901281707 SPECI KATL 281707Z 30016G20KT 5SM -RA BR FEW010 SCT020 OVC035 12/10 A2997 RMK AO2 RAB1658 P0000=
200901281707 SPECI KATL 281707Z 30016G20KT 5SM -RA BR FEW010 SCT020 OVC035 12/10 A2997 RMK AO2 RAB1658 P0000=
200901281652 METAR KATL 281652Z 29012KT 10SM FEW010 SCT015 OVC030 12/10 A2997 RMK AO2 PK WND 31033/1615 WSHFT 1557 RAE31 SLP146 FROPA CB MOV E P0002 T01220100=
200901281635 SPECI KATL 281635Z 30017G30KT 10SM FEW009 SCT014 OVC032 12/10 A2997 RMK AO2 PK WND 31033/1615 WSHFT 1557 RAE31 FROPA CB MOV E P0002=
200901281635 SPECI KATL 281635Z 30017G30KT 10SM FEW009 SCT014 OVC032 12/10 A2997 RMK AO2 PK WND 31033/1615 WSHFT 1557 RAE31 FROPA CB MOV E P0002=
200901281633 SPECI KATL 281633Z 30018G30KT 10SM FEW009 BKN026 OVC032 12/10 A2997 RMK AO2 PK WND 31033/1615 WSHFT 1557 RAE31 FROPA CB MOV E P0002=
200901281633 SPECI KATL 281633Z 30018G30KT 10SM FEW009 BKN026 OVC032 12/10 A2997 RMK AO2 PK WND 31033/1615 WSHFT 1557 RAE31 FROPA CB MOV E P0002=
200901281631 SPECI KATL 281631Z 30017G30KT 2 1/2SM FEW009 BKN026 OVC032 12/10 A2997 RMK AO2 PK WND 31033/1615 WSHFT 1557 SFC VIS 10 RAE31 FROPA CB MOV E P0002=
200901281631 SPECI KATL 281631Z 30017G30KT 2 1/2SM FEW009 BKN026 OVC032 12/10 A2997 RMK AO2 PK WND 31033/1615 WSHFT 1557 SFC VIS 10 RAE31 FROPA CB MOV E P0002=
200901281620 SPECI KATL 281620Z 30021G33KT 2 1/2SM -RA BR FEW009 BKN015 OVC023 13/11 A2996 RMK AO2 PK WND 31033/1615 WSHFT 1557 SFC VIS 5 FROPA CB MOV E P0002=
200901281620 SPECI KATL 281620Z 30021G33KT 2 1/2SM -RA BR FEW009 BKN015 OVC023 13/11 A2996 RMK AO2 PK WND 31033/1615 WSHFT 1557 SFC VIS 5 FROPA CB MOV E P0002=
200901281611 SPECI KATL 281611Z 31026G33KT 2 1/2SM -RA BR SCT009CB BKN015 OVC020 15/13 A2996 RMK AO2 PK WND 30033/1609 WSHFT 1557 SFC VIS 6 PRESRR FROPA CB OHD-NE-S MOV E P0002=
200901281611 SPECI KATL 281611Z 31026G33KT 2 1/2SM -RA BR SCT009CB BKN015 OVC020 15/13 A2996 RMK AO2 PK WND 30033/1609 WSHFT 1557 SFC VIS 6 PRESRR FROPA CB OHD-NE-S MOV E P0002=
200901281608 SPECI KATL 281608Z 28024G30KT 2 1/2SM -RA BR FEW011CB BKN017 OVC025 16/14 A2995 RMK AO2 PK WND 29030/1608 SFC VIS 5 PRESRR FROPA CB OHD-NE-S MOV E P0002=
200901281608 SPECI KATL 281608Z 28024G30KT 2 1/2SM -RA BR FEW011CB BKN017 OVC025 16/14 A2995 RMK AO2 PK WND 29030/1608 SFC VIS 5 PRESRR FROPA CB OHD-NE-S MOV E P0002=
200901281554 SPECI KATL 281554Z 22014G20KT 2 1/2SM -RA BR OVC017 16/14 A2992 RMK AO2 SFC VIS 5 P0000=
200901281554 SPECI KATL 281554Z 22014G20KT 2 1/2SM -RA BR OVC017 16/14 A2992 RMK AO2 SFC VIS 5 P0000=
200901281552 METAR KATL 281552Z 22011G20KT 3SM -RA BR OVC017 16/14 A2992 RMK AO2 SFC VIS 5 RAB09E18B42 SLP129 P0000 T01610144=
200901281524 SPECI KATL 281524Z 21015G20KT 10SM FEW010 BKN015 OVC021 16/14 A2992 RMK AO2 RAB09E18 P0000=
200901281524 SPECI KATL 281524Z 21015G20KT 10SM FEW010 BKN015 OVC021 16/14 A2992 RMK AO2 RAB09E18 P0000=
200901281452 METAR KATL 281452Z 21011G21KT 10SM BKN010 OVC020 16/14 A2993 RMK AO2 SLP133 T01560139 56009=
200901281443 SPECI KATL 281443Z 21011G19KT 10SM BKN010 OVC016 16/14 A2994 RMK AO2 CIG 007V012=
200901281443 SPECI KATL 281443Z 21011G19KT 10SM BKN010 OVC016 16/14 A2994 RMK AO2 CIG 007V012=
200901281352 METAR KATL 281352Z 19017G22KT 6SM BR OVC007 14/13 A2994 RMK AO2 SLP136 T01440133=
200901281252 METAR KATL 281252Z 17016KT 5SM BR BKN007 OVC016 14/13 A2991 RMK AO2 CIG 005V012 PRESFR SLP128 T01390128=
200901281203 SPECI KATL 281203Z 18009KT 6SM BR BKN005 BKN070 13/13 A2996 RMK AO2 CIG 003V008=
200901281203 SPECI KATL 281203Z 18009KT 6SM BR BKN005 BKN070 13/13 A2996 RMK AO2 CIG 003V008=
200901281152 METAR KATL 281152Z 17012KT 6SM BR SCT005 SCT070 SCT180 13/12 A2996 RMK AO2 PRESFR SLP144 T01330122 10144 20133 58020=
200901281052 METAR KATL 281052Z 17010KT 8SM SCT045 BKN055 13/12 A3001 RMK AO2 PRESFR SLP159 T01330122=
200901280952 METAR KATL 280952Z 21008KT 7SM BKN036 OVC045 14/13 A3003 RMK AO2 SLP166 T01440128=
200901280942 SPECI KATL 280942Z 20009KT 7SM BKN036 OVC045 14/13 A3001 RMK AO2=
200901280942 SPECI KATL 280942Z 20009KT 7SM BKN036 OVC045 14/13 A3001 RMK AO2=
200901280926 SPECI KATL 280926Z 20010KT 2SM BKN036 OVC045 14/13 A3002 RMK AO2 SFC VIS 7=
200901280926 SPECI KATL 280926Z 20010KT 2SM BKN036 OVC045 14/13 A3002 RMK AO2 SFC VIS 7=
200901280852 METAR KATL 280852Z 21008G16KT 2SM BR BKN009 OVC036 14/13 A3002 RMK AO2 SFC VIS 5 CIG 005V013 SLP164 T01440133 56006=
200901280752 METAR KATL 280752Z 17009KT 1/4SM BR BKN007 OVC016 14/13 A3002 RMK AO2 SFC VIS 6 SLP165 T01390133=
200901280722 SPECI KATL 280722Z 16009KT 1/4SM BR FEW003 BKN007 OVC014 14/13 A3004 RMK AO2 SFC VIS 5 CIG 004V010=
200901280722 SPECI KATL 280722Z 16009KT 1/4SM BR FEW003 BKN007 OVC014 14/13 A3004 RMK AO2 SFC VIS 5 CIG 004V010=
200901280652 METAR KATL 280652Z 16009KT 1/4SM BR OVC001 13/13 A3004 RMK AO2 SFC VIS 2 CIG 001V005 SLP173 T01330128=
200901280637 SPECI KATL 280637Z 14008KT 1/4SM BR OVC001 13/13 A3005 RMK AO2 SFC VIS 2 1/2=
200901280637 SPECI KATL 280637Z 14008KT 1/4SM BR OVC001 13/13 A3005 RMK AO2 SFC VIS 2 1/2=
200901280552 METAR KATL 280552Z 14006KT 1/4SM BR OVC003 13/13 A3007 RMK AO2 SFC VIS 3 SLP181 CIG 002V006 T01330128 10133 20122 56017 $=
200901280452 METAR KATL 280452Z 16007KT 1/4SM BR OVC002 13/13 A3008 RMK AO2 SFC VIS 2 1/2 SLP186 CIG 001V005 T01280128 401670061 $=
200901280352 METAR KATL 280352Z 14008KT 1/4SM BR OVC002 13/12 A3009 RMK AO2 SFC VIS 2 SLP191 T01280122=
200901280252 METAR KATL 280252Z 14008KT 1/4SM BR OVC002 13/12 A3012 RMK AO2 SFC VIS 2 SLP201 T01280122 56017=
200901280159 SPECI KATL 280159Z 13008KT 1/4SM R09R/4000VP6000FT BR OVC001 12/12 A3013 RMK AO2 SFC VIS 1 1/4=
200901280159 SPECI KATL 280159Z 13008KT 1/4SM R09R/4000VP6000FT BR OVC001 12/12 A3013 RMK AO2 SFC VIS 1 1/4=
200901280152 METAR KATL 280152Z 14006KT 1/2SM BR OVC002 12/12 A3013 RMK AO2 SFC VIS 1 1/2 SLP206 T01220117=
200901280111 SPECI KATL 280111Z 12004KT 1/2SM BR OVC003 12/12 A3015 RMK AO2 SFC VIS 4 TWRINC=
200901280111 SPECI KATL 280111Z 12004KT 1/2SM BR OVC003 12/12 A3015 RMK AO2 SFC VIS 4 TWRINC=
200901280102 SPECI KATL 280102Z 11005KT 1 1/2SM BR OVC004 12/11 A3015 RMK AO2 SFC VIS 4=
200901280102 SPECI KATL 280102Z 11005KT 1 1/2SM BR OVC004 12/11 A3015 RMK AO2 SFC VIS 4=
200901280052 METAR KATL 280052Z 12005KT 2 1/2SM BR BKN005 OVC010 12/11 A3015 RMK AO2 SFC VIS 4 SLP212 T01220111=
200901280048 SPECI KATL 280048Z 12005KT 2 1/2SM BR BKN005 OVC010 12/11 A3015 RMK AO2 SFC VIS 4=
200901280048 SPECI KATL 280048Z 12005KT 2 1/2SM BR BKN005 OVC010 12/11 A3015 RMK AO2 SFC VIS 4=
200901280033 SPECI KATL 280033Z 11006KT 6SM BR BKN006 OVC012 12/11 A3016 RMK AO2=
200901280033 SPECI KATL 280033Z 11006KT 6SM BR BKN006 OVC012 12/11 A3016 RMK AO2=
200901272352 METAR KATL 272352Z 10003KT 8SM BKN012 OVC050 13/12 A3017 RMK AO2 SLP218 T01330117 10167 20117 56003=
200901272252 METAR KATL 272252Z 15006KT 8SM SCT040 BKN150 BKN200 15/12 A3018 RMK AO2 SLP220 T01500117=
200901272152 METAR KATL 272152Z 13006KT 10SM FEW027 SCT032 BKN150 17/12 A3017 RMK AO2 SLP216 T01670117=
200901272052 METAR KATL 272052Z 17005KT 10SM FEW020 SCT040 BKN150 16/12 A3018 RMK AO2 SLP220 T01610122 56022=
200901271952 METAR KATL 271952Z 20009KT 10SM FEW010 SCT040 SCT200 15/12 A3019 RMK AO2 SLP225 T01500117=
200901271925 SPECI KATL 271925Z 19003KT 8SM FEW006 SCT009 BKN040 14/11 A3020 RMK AO2=
200901271925 SPECI KATL 271925Z 19003KT 8SM FEW006 SCT009 BKN040 14/11 A3020 RMK AO2=
200901271852 METAR KATL 271852Z 19006KT 6SM BR BKN007 BKN010 OVC040 12/11 A3022 RMK AO2 SLP234 T01220106=
200901271831 SPECI KATL 271831Z 17006KT 6SM BR BKN006 BKN010 OVC040 12/11 A3023 RMK AO2=
200901271831 SPECI KATL 271831Z 17006KT 6SM BR BKN006 BKN010 OVC040 12/11 A3023 RMK AO2=
200901271802 SPECI KATL 271802Z 17009KT 2 1/2SM BR FEW003 BKN005 OVC008 12/11 A3024 RMK AO2 SFC VIS 6=
200901271802 SPECI KATL 271802Z 17009KT 2 1/2SM BR FEW003 BKN005 OVC008 12/11 A3024 RMK AO2 SFC VIS 6=
200901271752 METAR KATL 271752Z 18006KT 1 1/2SM BR FEW002 BKN005 OVC007 12/11 A3024 RMK AO2 SFC VIS 6 SLP243 60000 T01170106 10117 20061 58028=
200901271743 SPECI KATL 271743Z 17005KT 1SM BR FEW002 BKN004 OVC007 11/11 A3025 RMK AO2 SFC VIS 6=
200901271743 SPECI KATL 271743Z 17005KT 1SM BR FEW002 BKN004 OVC007 11/11 A3025 RMK AO2 SFC VIS 6=
200901271652 METAR KATL 271652Z 12004KT 1/2SM BR BKN002 OVC005 10/09 A3028 RMK AO2 SFC VIS 3 SLP257 T01000094=
200901271604 SPECI KATL 271604Z 00000KT 1/8SM R09R/3000V4500FT BR BKN002 OVC004 09/09 A3031 RMK AO2 SFC VIS 1=
200901271604 SPECI KATL 271604Z 00000KT 1/8SM R09R/3000V4500FT BR BKN002 OVC004 09/09 A3031 RMK AO2 SFC VIS 1=
200901271552 METAR KATL 271552Z VRB03KT 1/8SM R09R/2600V3000FT FG VV002 09/08 A3032 RMK AO2 SFC VIS 1/4 DZE47 SLP270 P0000 T00890083=
200901271452 METAR KATL 271452Z 14004KT 1/8SM R09R/2600V3000FT DZ FG VV002 07/07 A3033 RMK AO2 SFC VIS 1/2 DZB50 SLP275 P0000 60000 T00720072 51010=
200901271352 METAR KATL 271352Z 12005KT 1/8SM R09R/4500VP6000FT BR OVC001 07/06 A3033 RMK AO2 SFC VIS 3/4 SLP275 T00670061=
200901271312 SPECI KATL 271312Z 14004KT 1/8SM R09R/2000V4500FT FG VV001 06/06 A3032 RMK AO2 SFC VIS 1/2=
200901271312 SPECI KATL 271312Z 14004KT 1/8SM R09R/2000V4500FT FG VV001 06/06 A3032 RMK AO2 SFC VIS 1/2=
200901271259 SPECI KATL 271259Z 14004KT 1/8SM R09R/1600V2000FT FG VV001 06/06 A3032 RMK AO2 SFC VIS 1/4=
200901271259 SPECI KATL 271259Z 14004KT 1/8SM R09R/1600V2000FT FG VV001 06/06 A3032 RMK AO2 SFC VIS 1/4=
200901271252 METAR KATL 271252Z 15004KT 1/8SM R09R/1800V2400FT FG VV001 06/06 A3031 RMK AO2 SFC VIS 1/4 SLP269 T00610061=
200901271232 SPECI KATL 271232Z 15006KT 1/8SM R09R/1800V2400FT FG VV001 06/06 A3030 RMK AO2=
200901271232 SPECI KATL 271232Z 15006KT 1/8SM R09R/1800V2400FT FG VV001 06/06 A3030 RMK AO2=
200901271152 METAR KATL 271152Z 12003KT 1/8SM R09R/1600V2000FT FG VV001 07/07 A3030 RMK AO2 SLP263 70001 T00670067 10072 20067 53000=
200901271052 METAR KATL 271052Z 10006KT 1/16SM R09R/1400V1600FT FG VV001 07/07 A3029 RMK AO2 TWR VIS 1/8 SLP261 T00670067=
200901270952 METAR KATL 270952Z 11006KT 1/16SM R09R/1400FT FG VV001 07/07 A3028 RMK AO2 TWR VIS 1/8 SLP258 T00670067=
200901270852 METAR KATL 270852Z 11005KT 1/16SM R09R/1400FT FG BKN001 OVC005 07/07 A3030 RMK AO2 TWR VIS 1/8 SLP263 T00670067 53001=
200901270752 METAR KATL 270752Z 10004KT 1/16SM R09R/1200V1400FT FG VV001 07/07 A3030 RMK AO2 TWR VIS 1/8 SLP262 T00720067=
200901270652 METAR KATL 270652Z 13007KT 1/16SM R09R/1200FT FG VV001 07/07 A3028 RMK AO2 TWR VIS 1/8 SLP257 T00720072=
200901270552 METAR KATL 270552Z 13007KT 1/8SM R09R/1200V1400FT FG VV001 07/07 A3030 RMK AO2 SLP263 T00720072 10094 20072 58009=
200901270452 METAR KATL 270452Z 12005KT 1/8SM R09R/1000V1200FT FG VV001 07/07 A3032 RMK AO2 SLP272 T00720072 401110061=
200901270352 METAR KATL 270352Z 13003KT 1/8SM R09R/1200V1400FT FG VV001 07/07 A3034 RMK AO2 SFC VIS 1/4 SLP277 T00720072=
200901270334 SPECI KATL 270334Z 14003KT 1/8SM R09R/1400V1800FT FG VV001 07/07 A3033 RMK AO2 SFC VIS 1/4 VIS NW 3/4=
200901270334 SPECI KATL 270334Z 14003KT 1/8SM R09R/1400V1800FT FG VV001 07/07 A3033 RMK AO2 SFC VIS 1/4 VIS NW 3/4=
200901270303 SPECI KATL 270303Z 12003KT 1/8SM R09R/2000VP6000FT BR OVC001 08/07 A3033 RMK AO2 SFC VIS 1=
200901270303 SPECI KATL 270303Z 12003KT 1/8SM R09R/2000VP6000FT BR OVC001 08/07 A3033 RMK AO2 SFC VIS 1=
200901270252 METAR KATL 270252Z 13004KT 1/2SM R09R/4000VP6000FT BR BKN002 08/07 A3032 RMK AO2 SFC VIS 1 1/2 SLP272 T00780072 53004=
200901270247 SPECI KATL 270247Z 13004KT 1 1/2SM BR BKN002 08/07 A3032 RMK AO2 SFC VIS 4=
200901270247 SPECI KATL 270247Z 13004KT 1 1/2SM BR BKN002 08/07 A3032 RMK AO2 SFC VIS 4=
200901270227 SPECI KATL 270227Z 00000KT 5SM BR BKN004 08/07 A3032 RMK AO2=
200901270227 SPECI KATL 270227Z 00000KT 5SM BR BKN004 08/07 A3032 RMK AO2=
200901270220 SPECI KATL 270220Z 14003KT 5SM BR FEW004 08/07 A3032 RMK AO2=
200901270220 SPECI KATL 270220Z 14003KT 5SM BR FEW004 08/07 A3032 RMK AO2=
200901270152 METAR KATL 270152Z 13003KT 5SM BR CLR 08/07 A3031 RMK AO2 SLP270 T00780067=
200901270052 METAR KATL 270052Z 16004KT 6SM BR FEW015 08/07 A3031 RMK AO2 SLP270 T00830067=
200901262355 SPECI KATL 262355Z 19005KT 7SM SCT016 09/07 A3031 RMK AO2=
200901262355 SPECI KATL 262355Z 19005KT 7SM SCT016 09/07 A3031 RMK AO2=
200901262352 METAR KATL 262352Z 18005KT 7SM BKN016 09/07 A3031 RMK AO2 SLP267 BKN V SCT T00940072 10111 20078 51010=
200901262252 METAR KATL 262252Z 21006KT 6SM HZ BKN017 10/07 A3030 RMK AO2 SLP265 T01000072=
200901262232 SPECI KATL 262232Z 20006KT 6SM HZ BKN018 11/07 A3030 RMK AO2=
200901262232 SPECI KATL 262232Z 20006KT 6SM HZ BKN018 11/07 A3030 RMK AO2=
200901262152 METAR KATL 262152Z 00000KT 5SM HZ SCT015 11/07 A3029 RMK AO2 SLP258 T01060072=
200901262121 SPECI KATL 262121Z 00000KT 5SM HZ BKN015 11/07 A3029 RMK AO2=
200901262121 SPECI KATL 262121Z 00000KT 5SM HZ BKN015 11/07 A3029 RMK AO2=
200901262100 SPECI KATL 262100Z 00000KT 5SM HZ SCT013 11/07 A3028 RMK AO2=
200901262100 SPECI KATL 262100Z 00000KT 5SM HZ SCT013 11/07 A3028 RMK AO2=
200901262052 METAR KATL 262052Z 00000KT 5SM HZ BKN013 11/07 A3028 RMK AO2 SLP256 T01060072 55005=
200901262008 SPECI KATL 262008Z 11004KT 5SM HZ BKN011 10/07 A3026 RMK AO2=
200901262008 SPECI KATL 262008Z 11004KT 5SM HZ BKN011 10/07 A3026 RMK AO2=
200901261952 METAR KATL 261952Z 00000KT 5SM BR OVC009 09/07 A3027 RMK AO2 SLP252 T00940072=
200901261852 METAR KATL 261852Z 00000KT 4SM BR OVC007 08/07 A3027 RMK AO2 SLP254 T00830067=
200901261813 SPECI KATL 261813Z 16003KT 3SM BR OVC006 08/07 A3028 RMK AO2=
200901261813 SPECI KATL 261813Z 16003KT 3SM BR OVC006 08/07 A3028 RMK AO2=
200901261752 METAR KATL 261752Z 00000KT 3SM BR OVC004 08/07 A3030 RMK AO2 DZE49 SLP262 P0000 60001 T00780067 10078 20061 58006=
200901261652 METAR KATL 261652Z 00000KT 3SM -DZ BR OVC004 07/07 A3031 RMK AO2 DZB39 SLP267 P0000 T00720067=
200901261552 METAR KATL 261552Z 07004KT 3SM BR OVC004 07/06 A3033 RMK AO2 DZE50 SLP272 P0000 T00670061=
200901261452 METAR KATL 261452Z 09007KT 2SM -DZ BR OVC004 07/06 A3032 RMK AO2 CIG 004V008 SLP269 P0000 60001 T00670056 51025=
200901261352 METAR KATL 261352Z 08006KT 2SM -DZ BR OVC004 07/06 A3029 RMK AO2 SLP260 P0000 T00670056=
200901261328 SPECI KATL 261328Z 08006KT 2 1/2SM -DZ BR OVC004 07/06 A3027 RMK AO2 CIG 003V008 P0000=
200901261328 SPECI KATL 261328Z 08006KT 2 1/2SM -DZ BR OVC004 07/06 A3027 RMK AO2 CIG 003V008 P0000=
200901261252 METAR KATL 261252Z 07005KT 2 1/2SM -DZ BR OVC006 07/06 A3027 RMK AO2 SLP253 P0001 T00670056=
200901261152 METAR KATL 261152Z 08004KT 2 1/2SM -DZ BR OVC006 07/06 A3024 RMK AO2 DZB05 SLP243 P0000 60000 T00670061 10089 20067 53010=
200901261118 SPECI KATL 261118Z 10004KT 3SM -DZ BR OVC006 07/06 A3023 RMK AO2 DZB05 P0000=
200901261118 SPECI KATL 261118Z 10004KT 3SM -DZ BR OVC006 07/06 A3023 RMK AO2 DZB05 P0000=
200901261107 SPECI KATL 261107Z 11005KT 2 1/2SM -DZ BR OVC006 07/06 A3021 RMK AO2 DZB05 P0000=
200901261107 SPECI KATL 261107Z 11005KT 2 1/2SM -DZ BR OVC006 07/06 A3021 RMK AO2 DZB05 P0000=
200901261052 METAR KATL 261052Z 11004KT 3SM BR OVC006 07/06 A3021 RMK AO2 SLP233 T00670061=
200901260952 METAR KATL 260952Z 11006KT 5SM BR OVC006 08/06 A3021 RMK AO2 SLP232 T00780061=
200901260852 METAR KATL 260852Z 10006KT 5SM BR OVC006 08/07 A3021 RMK AO2 SLP231 60000 T00830067 58000=
200901260752 METAR KATL 260752Z 10003KT 6SM BR OVC006 09/08 A3022 RMK AO2 DZE45 SLP233 P0000 T00890078=
200901260652 METAR KATL 260652Z 10005KT 5SM -DZ BR OVC006 09/08 A3021 RMK AO2 DZB11 SLP233 P0000 T00890078=
200901260552 METAR KATL 260552Z 12005KT 6SM BR BKN008 OVC020 09/08 A3021 RMK AO2 DZB32E46 SLP233 P0000 60000 T00890078 10111 20089 53005=
200901260532 SPECI KATL 260532Z 11005KT 5SM -DZ BR BKN008 OVC020 09/07 A3020 RMK AO2 DZB32 P0000=
200901260532 SPECI KATL 260532Z 11005KT 5SM -DZ BR BKN008 OVC020 09/07 A3020 RMK AO2 DZB32 P0000=
200901260452 METAR KATL 260452Z 11005KT 6SM BR SCT009 OVC025 09/07 A3020 RMK AO2 SLP230 T00940072 401171006=
200901260449 SPECI KATL 260449Z 11007KT 7SM FEW009 OVC025 09/07 A3020 RMK AO2 401171006=
200901260449 SPECI KATL 260449Z 11007KT 7SM FEW009 OVC025 09/07 A3020 RMK AO2 401171006=
200901260352 METAR KATL 260352Z 13005KT 7SM OVC025 09/07 A3020 RMK AO2 SLP229 T00940067=
200901260252 METAR KATL 260252Z 13003KT 8SM OVC028 09/06 A3019 RMK AO2 SLP228 T00940061 51004=
200901260152 METAR KATL 260152Z 13004KT 9SM OVC028 10/06 A3019 RMK AO2 SLP229 T01000061=
200901260138 SPECI KATL 260138Z 12004KT 9SM OVC029 10/06 A3019 RMK AO2=
200901260138 SPECI KATL 260138Z 12004KT 9SM OVC029 10/06 A3019 RMK AO2=
200901260052 METAR KATL 260052Z 11005KT 9SM OVC031 10/06 A3019 RMK AO2 SLP228 T01000061=
200901252352 METAR KATL 252352Z 00000KT 10SM BKN034 OVC065 11/04 A3018 RMK AO2 SLP226 T01060044 10117 20089 51011=
200901252252 METAR KATL 252252Z 19004KT 9SM BKN042 OVC065 11/05 A3017 RMK AO2 SLP222 T01060050=
200901252152 METAR KATL 252152Z 16003KT 10SM BKN042 BKN065 11/04 A3016 RMK AO2 SLP218 T01110039=
200901252052 METAR KATL 252052Z 16005KT 10SM BKN060 11/04 A3015 RMK AO2 SLP213 T01110044 56010=
200901251952 METAR KATL 251952Z 08003KT 10SM BKN075 12/04 A3015 RMK AO2 SLP213 T01170044=
200901251852 METAR KATL 251852Z 04004KT 10SM BKN080 11/04 A3015 RMK AO2 SLP216 T01060044=
200901251752 METAR KATL 251752Z 00000KT 9SM OVC075 09/04 A3018 RMK AO2 SLP224 T00890039 10089 21006 58011=
200901251652 METAR KATL 251652Z 10003KT 8SM OVC075 07/03 A3020 RMK AO2 SLP232 T00720028=
200901251552 METAR KATL 251552Z 07005KT 8SM FEW008 OVC080 06/01 A3022 RMK AO2 SLP238 T00610011=
200901251452 METAR KATL 251452Z 06006KT 8SM FEW008 OVC080 05/M01 A3021 RMK AO2 SLP235 T00501006 51013=
200901251448 SPECI KATL 251448Z 07004KT 8SM FEW008 OVC080 05/M01 A3021 RMK AO2=
200901251448 SPECI KATL 251448Z 07004KT 8SM FEW008 OVC080 05/M01 A3021 RMK AO2=
200901251352 METAR KATL 251352Z 36005KT 7SM BKN085 02/M03 A3020 RMK AO2 SLP234 T00221028=
200901251252 METAR KATL 251252Z 33006KT 7SM BKN090 M01/M04 A3019 RMK AO2 SLP229 T10061039=
200901251152 METAR KATL 251152Z 32006KT 7SM BKN090 M01/M04 A3017 RMK AO2 SLP223 70010 T10061039 10039 21006 53003=
200901251052 METAR KATL 251052Z 32005KT 7SM OVC090 00/M04 A3017 RMK AO2 SLP220 T00001039=
200901250952 METAR KATL 250952Z 33006KT 7SM SCT095 01/M03 A3016 RMK AO2 SLP217 T00061033=
200901250852 METAR KATL 250852Z 32005KT 7SM CLR 01/M03 A3017 RMK AO2 SLP219 T00061033 53003=
200901250752 METAR KATL 250752Z 32006KT 8SM CLR 01/M03 A3016 RMK AO2 SLP216 T00111033=
200901250652 METAR KATL 250652Z 31009KT 8SM FEW100 02/M02 A3016 RMK AO2 SLP218 T00221022=
200901250552 METAR KATL 250552Z 33010KT 9SM FEW120 04/M02 A3016 RMK AO2 SLP216 T00391022 10094 20039 58001=
200901250452 METAR KATL 250452Z 33010KT 10SM CLR 04/M02 A3016 RMK AO2 SLP217 T00441017 401440044=
200901250352 METAR KATL 250352Z 34011KT 10SM CLR 06/M02 A3017 RMK AO2 SLP219 T00561017=
200901250252 METAR KATL 250252Z 33008KT 10SM FEW120 06/M02 A3016 RMK AO2 SLP216 T00611017 51007=
200901250152 METAR KATL 250152Z 33010KT 10SM CLR 07/M01 A3016 RMK AO2 SLP214 T00721011=
200901250052 METAR KATL 250052Z 34009KT 10SM CLR 08/01 A3015 RMK AO2 SLP211 T00830011=
200901242352 METAR KATL 242352Z 33008KT 10SM CLR 09/02 A3014 RMK AO2 SLP207 T00940017 10139 20094 53009=
200901242252 METAR KATL 242252Z 33010KT 10SM FEW100 11/03 A3013 RMK AO2 SLP204 T01110028=
200901242152 METAR KATL 242152Z 33010KT 10SM FEW150 SCT250 13/04 A3011 RMK AO2 SLP197 T01280039=
200901242052 METAR KATL 242052Z 34010KT 10SM FEW030 SCT100 SCT200 13/05 A3011 RMK AO2 SLP196 T01330050 53002=
200901241952 METAR KATL 241952Z 33011KT 10SM FEW025 SCT090 SCT150 13/07 A3009 RMK AO2 SLP189 T01330067=
200901241852 SPECI KATL 241852Z 32011KT 9SM FEW015 SCT070 BKN090 13/08 A3010 RMK AO2 SLP191 T01280078=
200901241752 METAR KATL 241752Z 33010KT 8SM SCT012 BKN055 11/08 A3011 RMK AO2 RAE05 SLP194 P0000 60010 T01060083 10122 20106 56013=
200901241652 METAR KATL 241652Z 34007KT 6SM -RA BR SCT007 OVC070 11/09 A3012 RMK AO2 RAB13 SLP198 P0000 T01110094=
200901241552 METAR KATL 241552Z 33006KT 5SM BR SCT007 BKN065 OVC075 12/11 A3013 RMK AO2 RAE10 SLP202 P0000 T01170106=
200901241522 SPECI KATL 241522Z 35004KT 5SM BR SCT007 BKN075 OVC090 11/10 A3013 RMK AO2 RAE10 P0000=
200901241522 SPECI KATL 241522Z 35004KT 5SM BR SCT007 BKN075 OVC090 11/10 A3013 RMK AO2 RAE10 P0000=
200901241452 METAR KATL 241452Z 34008KT 4SM -RA BR BKN008 OVC040 12/11 A3014 RMK AO2 SLP208 P0002 60010 T01170106 51025=
200901241433 SPECI KATL 241433Z 32009KT 4SM -RA BR BKN007 OVC021 12/11 A3014 RMK AO2 P0002=
200901241433 SPECI KATL 241433Z 32009KT 4SM -RA BR BKN007 OVC021 12/11 A3014 RMK AO2 P0002=
200901241352 METAR KATL 241352Z 30005KT 3SM -RA BR OVC004 12/11 A3012 RMK AO2 SLP200 P0003 T01170111=
200901241330 SPECI KATL 241330Z 29004KT 3SM -RA BR OVC004 12/11 A3011 RMK AO2 P0003=
200901241330 SPECI KATL 241330Z 29004KT 3SM -RA BR OVC004 12/11 A3011 RMK AO2 P0003=
200901241252 METAR KATL 241252Z 29005KT 3SM -RA BR BKN005 OVC012 12/11 A3009 RMK AO2 SLP189 P0005 T01170111=
200901241158 SPECI KATL 241158Z 26004KT 4SM -RA BR BKN005 OVC012 12/11 A3007 RMK AO2 P0001=
200901241158 SPECI KATL 241158Z 26004KT 4SM -RA BR BKN005 OVC012 12/11 A3007 RMK AO2 P0001=
200901241152 METAR KATL 241152Z 25003KT 5SM -RA BR SCT005 BKN012 OVC028 12/11 A3007 RMK AO2 SLP180 P0003 60016 70016 T01170111 10144 20117 53002=
200901241129 SPECI KATL 241129Z 24005KT 8SM -RA FEW005 BKN012 OVC028 12/11 A3006 RMK AO2 P0001=
200901241129 SPECI KATL 241129Z 24005KT 8SM -RA FEW005 BKN012 OVC028 12/11 A3006 RMK AO2 P0001=
200901241112 SPECI KATL 241112Z 25003KT 8SM -RA SCT018 BKN029 OVC050 12/11 A3006 RMK AO2 P0000=
200901241112 SPECI KATL 241112Z 25003KT 8SM -RA SCT018 BKN029 OVC050 12/11 A3006 RMK AO2 P0000=
200901241052 METAR KATL 241052Z 26003KT 6SM -RA BR FEW018 OVC034 12/11 A3005 RMK AO2 SLP174 P0005 T01170111=
200901240952 METAR KATL 240952Z 25006KT 6SM -RA BR OVC034 12/11 A3006 RMK AO2 RAE0857B20 SLP177 P0006 T01220106=
200901240852 METAR KATL 240852Z 25006KT 10SM -RA BKN037 OVC060 12/11 A3006 RMK AO2 SLP177 P0000 60002 T01220106 56005=
200901240752 METAR KATL 240752Z 23008KT 9SM -RA BKN050 BKN060 OVC080 13/10 A3006 RMK AO2 RAB34 SLP178 P0002 T01330100=
200901240652 METAR KATL 240652Z 24009KT 10SM SCT045 OVC060 14/09 A3007 RMK AO2 SLP181 T01440089=
200901240552 METAR KATL 240552Z 23008KT 10SM FEW045 OVC065 14/08 A3008 RMK AO2 SLP183 T01390083 10150 20128 50002=
200901240452 METAR KATL 240452Z 23005KT 10SM SCT045 BKN060 OVC150 13/08 A3009 RMK AO2 SLP187 T01330078 401940022=
200901240352 METAR KATL 240352Z 23004KT 10SM SCT055 BKN120 OVC150 13/08 A3009 RMK AO2 SLP189 T01330078=
200901240252 METAR KATL 240252Z 22004KT 10SM BKN150 OVC200 13/07 A3007 RMK AO2 SLP184 T01330072 58003=
200901240152 METAR KATL 240152Z 23004KT 10SM SCT045 BKN150 OVC200 14/07 A3008 RMK AO2 SLP188 T01390067=
200901240052 METAR KATL 240052Z 23004KT 10SM OVC150 14/07 A3009 RMK AO2 SLP189 T01440067=
200901232352 METAR KATL 232352Z 23004KT 10SM OVC150 15/07 A3008 RMK AO2 SLP188 T01500067 10194 20150 53004=
200901232252 METAR KATL 232252Z 23007KT 10SM SCT150 BKN200 BKN250 17/06 A3007 RMK AO2 SLP185 T01670061=
200901232152 METAR KATL 232152Z 23008KT 10SM FEW120 SCT200 SCT280 18/06 A3007 RMK AO2 SLP184 T01830061=
200901232052 METAR KATL 232052Z 23008KT 10SM FEW200 BKN280 18/08 A3007 RMK AO2 SLP182 T01830078 56022=
200901231952 METAR KATL 231952Z 22012G19KT 10SM FEW045 SCT280 17/07 A3008 RMK AO2 SLP186 T01720072=
200901231852 METAR KATL 231852Z 24013G18KT 10SM FEW030 SCT280 16/08 A3010 RMK AO2 SLP194 T01610078=
200901231752 METAR KATL 231752Z 26016G22KT 10SM FEW025 SCT280 15/08 A3013 RMK AO2 SLP206 T01500083 10150 20050 58021=
200901231652 METAR KATL 231652Z 24015G20KT 10SM FEW015 BKN025 13/08 A3017 RMK AO2 SLP220 T01280083=
200901231604 SPECI KATL 231604Z 23011KT 7SM FEW010 SCT013 BKN025 12/08 A3019 RMK AO2=
200901231604 SPECI KATL 231604Z 23011KT 7SM FEW010 SCT013 BKN025 12/08 A3019 RMK AO2=
200901231552 METAR KATL 231552Z 25006G14KT 7SM BKN010 11/08 A3019 RMK AO2 SLP229 T01060078=
200901231543 SPECI KATL 231543Z 26012G18KT 7SM BKN010 11/08 A3020 RMK AO2=
200901231543 SPECI KATL 231543Z 26012G18KT 7SM BKN010 11/08 A3020 RMK AO2=
200901231452 METAR KATL 231452Z 25007KT 6SM BR FEW005 SCT009 SCT180 09/08 A3020 RMK AO2 SLP230 SCT009 V BKN T00940078 51008=
200901231352 METAR KATL 231352Z 25007KT 4SM BR BKN005 OVC010 08/07 A3020 RMK AO2 SLP229 T00830067=
200901231317 SPECI KATL 231317Z 24008KT 6SM BR OVC005 08/07 A3018 RMK AO2 CIG 004V009=
200901231317 SPECI KATL 231317Z 24008KT 6SM BR OVC005 08/07 A3018 RMK AO2 CIG 004V009=
200901231252 METAR KATL 231252Z 25010KT 1 1/2SM BR OVC005 08/07 A3018 RMK AO2 SFC VIS 4 SLP223 T00780067=
200901231152 METAR KATL 231152Z 23007KT 1 1/2SM BR OVC005 05/04 A3017 RMK AO2 SFC VIS 5 SLP222 T00500039 10050 20022 53002=
200901231136 SPECI KATL 231136Z 23007KT 3SM OVC005 04/02 A3017 RMK AO2 SFC VIS 7=
200901231136 SPECI KATL 231136Z 23007KT 3SM OVC005 04/02 A3017 RMK AO2 SFC VIS 7=
200901231101 SPECI KATL 231101Z 23006KT 7SM OVC009 03/01 A3016 RMK AO2 CIG 006V012=
200901231101 SPECI KATL 231101Z 23006KT 7SM OVC009 03/01 A3016 RMK AO2 CIG 006V012=
200901231052 METAR KATL 231052Z 23004KT 7SM OVC011 03/01 A3016 RMK AO2 CIG 007V012 SLP218 T00330006=
200901231013 SPECI KATL 231013Z 22004KT 10SM BKN013 03/00 A3016 RMK AO2=
200901231013 SPECI KATL 231013Z 22004KT 10SM BKN013 03/00 A3016 RMK AO2=
200901230952 METAR KATL 230952Z 23003KT 10SM SCT180 02/M01 A3016 RMK AO2 SLP217 T00221011=
200901230852 METAR KATL 230852Z 22004KT 10SM FEW250 03/M02 A3016 RMK AO2 SLP218 T00281017 56002=
200901230752 METAR KATL 230752Z 22005KT 10SM SCT250 03/M03 A3017 RMK AO2 SLP220 T00281028=
200901230652 METAR KATL 230652Z 23003KT 10SM SCT250 04/M04 A3017 RMK AO2 SLP220 T00391039=
200901230552 METAR KATL 230552Z 22003KT 10SM FEW250 04/M04 A3017 RMK AO2 SLP221 T00441039 10078 20039 50001=
200901230452 METAR KATL 230452Z 24003KT 10SM CLR 04/M04 A3019 RMK AO2 SLP227 T00391039 401171033=
200901230352 METAR KATL 230352Z 24004KT 10SM CLR 05/M04 A3018 RMK AO2 SLP224 T00501039=
200901230252 METAR KATL 230252Z 23004KT 10SM CLR 06/M03 A3017 RMK AO2 SLP221 T00561033 53003=
200901230152 METAR KATL 230152Z 23006KT 10SM CLR 06/M03 A3016 RMK AO2 SLP222 T00611033=
200901230052 METAR KATL 230052Z 22005KT 10SM FEW250 07/M03 A3016 RMK AO2 SLP221 T00671028=
200901222352 METAR KATL 222352Z 20006KT 10SM FEW250 08/M03 A3016 RMK AO2 SLP221 T00781028 10117 20078 50000=
200901222252 METAR KATL 222252Z 22005KT 10SM SCT200 10/M03 A3016 RMK AO2 SLP220 T01001028=
200901222152 METAR KATL 222152Z 22009KT 10SM FEW250 11/M03 A3016 RMK AO2 SLP218 T01111033=
200901222052 METAR KATL 222052Z 25005KT 10SM FEW250 11/M04 A3016 RMK AO2 SLP218 T01111039 55011=
200901221952 METAR KATL 221952Z 23008KT 10SM CLR 11/M04 A3015 RMK AO2 SLP216 T01061044=
200901221852 METAR KATL 221852Z 26008KT 10SM CLR 10/M04 A3016 RMK AO2 SLP220 HZ ALOFT & ALQDS T01001044=
200901221752 METAR KATL 221752Z 27008KT 10SM CLR 09/M05 A3019 RMK AO2 SLP231 HZ ALOFT OHD-S-SW-W-NW-N T00941050 10094 21033 58013=
200901221652 METAR KATL 221652Z 26007KT 10SM CLR 08/M06 A3023 RMK AO2 SLP242 T00831056=
200901221552 METAR KATL 221552Z 23011KT 10SM CLR 06/M07 A3024 RMK AO2 SLP247 T00561067=
200901221452 METAR KATL 221452Z 25008KT 10SM FEW250 03/M08 A3023 RMK AO2 SLP246 T00281078 53015=
200901221352 METAR KATL 221352Z 24006KT 10SM FEW060 M01/M09 A3021 RMK AO2 SLP241 T10061089=
200901221252 METAR KATL 221252Z 21004KT 10SM FEW060 M02/M09 A3019 RMK AO2 SLP233 T10221089=
200901221152 METAR KATL 221152Z 29003KT 10SM CLR M03/M09 A3019 RMK AO2 SLP231 T10281094 11011 21033 53001=
200901221052 METAR KATL 221052Z 00000KT 10SM CLR M03/M10 A3018 RMK AO2 SLP229 T10281100=
200901220952 METAR KATL 220952Z 28005KT 10SM CLR M02/M10 A3018 RMK AO2 SLP229 T10221100=
200901220852 METAR KATL 220852Z 29005KT 10SM CLR M02/M10 A3018 RMK AO2 SLP230 T10221100 51003=
200901220752 METAR KATL 220752Z 27003KT 10SM CLR M02/M10 A3018 RMK AO2 SLP229 T10221100=
200901220652 METAR KATL 220652Z 00000KT 10SM CLR M02/M10 A3018 RMK AO2 SLP229 T10171100=
200901220552 METAR KATL 220552Z 26003KT 10SM CLR M02/M09 A3017 RMK AO2 SLP227 T10221094 10022 21022 51005=
200901220452 METAR KATL 220452Z 00000KT 10SM CLR M02/M09 A3017 RMK AO2 SLP228 T10171094 400501078=
200901220352 METAR KATL 220352Z 00000KT 10SM CLR M01/M09 A3016 RMK AO2 SLP225 T10111089=
200901220252 METAR KATL 220252Z 28003KT 10SM CLR M01/M10 A3016 RMK AO2 SLP224 T10061100 53002=
200901220152 METAR KATL 220152Z 00000KT 10SM CLR 01/M10 A3015 RMK AO2 SLP223 T00061100=
200901220052 METAR KATL 220052Z 23003KT 10SM FEW200 01/M10 A3016 RMK AO2 SLP224 T00111100=
200901212352 METAR KATL 212352Z 00000KT 10SM FEW200 02/M11 A3015 RMK AO2 SLP222 T00221111 10050 20017 53003=
200901212252 METAR KATL 212252Z 29004KT 10SM FEW200 03/M11 A3015 RMK AO2 SLP220 T00281106=
200901212152 METAR KATL 212152Z 29004KT 10SM FEW250 04/M11 A3015 RMK AO2 SLP219 T00441106=
200901212052 METAR KATL 212052Z 30008KT 10SM FEW250 04/M11 A3014 RMK AO2 SLP218 T00441106 56014=
200901211952 METAR KATL 211952Z 30007KT 10SM FEW250 04/M11 A3014 RMK AO2 SLP218 T00391106=
200901211852 METAR KATL 211852Z 34005KT 10SM FEW250 03/M11 A3016 RMK AO2 SLP223 T00281111=
200901211752 METAR KATL 211752Z 30010G15KT 10SM CLR 02/M11 A3018 RMK AO2 SLP233 T00171111 10017 21078 58009=
200901211652 METAR KATL 211652Z 29008KT 10SM CLR 00/M12 A3021 RMK AO2 SLP242 T00001117=
200901211552 METAR KATL 211552Z 30011KT 10SM CLR M02/M11 A3023 RMK AO2 SLP249 T10171111=
200901211452 METAR KATL 211452Z 32008KT 10SM CLR M04/M11 A3021 RMK AO2 SLP245 T10391111 51022=
200901211352 METAR KATL 211352Z 33009KT 10SM CLR M06/M11 A3019 RMK AO2 SLP239 T10611106=
200901211252 METAR KATL 211252Z 32009KT 10SM CLR M08/M11 A3017 RMK AO2 SLP231 T10781111=
200901211152 METAR KATL 211152Z 32010KT 10SM CLR M07/M11 A3015 RMK AO2 SLP223 T10721111 11056 21072 53005=
200901211052 METAR KATL 211052Z 32009KT 10SM CLR M07/M11 A3013 RMK AO2 SLP218 T10721111=
200901210952 METAR KATL 210952Z 34010KT 10SM FEW035 M07/M11 A3012 RMK AO2 SLP214 T10671111=
200901210852 METAR KATL 210852Z 33013KT 10SM FEW035 M07/M11 A3013 RMK AO2 SLP216 T10671106 53013=
200901210752 METAR KATL 210752Z 32011KT 10SM FEW035 M06/M11 A3010 RMK AO2 SLP207 T10611106=
200901210652 METAR KATL 210652Z 33011KT 10SM FEW035 M06/M11 A3010 RMK AO2 SLP205 T10611111=
200901210552 METAR KATL 210552Z 33009KT 10SM FEW035 M06/M11 A3009 RMK AO2 SLP202 T10611111 11033 21061 51006=
200901210452 METAR KATL 210452Z 33008KT 10SM FEW035 M06/M12 A3009 RMK AO2 SLP202 T10561117 400001056=
200901210352 SPECI KATL 210352Z 32010KT 10SM FEW035 M05/M12 A3009 RMK AO2 SLP202 T10501117=
200901210252 METAR KATL 210252Z 33013G20KT 10SM FEW038 M04/M12 A3007 RMK AO2 SLP197 T10441117 51022=
200901210152 METAR KATL 210152Z 32014KT 10SM FEW040 M04/M12 A3005 RMK AO2 SLP190 T10441122=
200901210052 METAR KATL 210052Z 32015G21KT 10SM FEW042 M04/M12 A3003 RMK AO2 SLP184 T10391122=
200901202352 METAR KATL 202352Z 32015G24KT 10SM FEW042 M03/M12 A3000 RMK AO2 SLP173 T10331122 10000 21033 51031=
200901202252 METAR KATL 202252Z 33015G25KT 10SM FEW040 M03/M12 A2997 RMK AO2 PK WND 34027/2159 SLP162 T10281122=
200901202152 METAR KATL 202152Z 34016G28KT 10SM SCT040 M02/M12 A2995 RMK AO2 PK WND 33028/2143 SLP154 T10171117=
200901202052 METAR KATL 202052Z 33017G27KT 10SM FEW040 M01/M11 A2991 RMK AO2 PK WND 32030/2041 SLP139 T10111111 53014=
200901201952 METAR KATL 201952Z 31023G29KT 10SM SCT042 M01/M11 A2988 RMK AO2 PK WND 32029/1952 SLP131 T10061106=
200901201852 METAR KATL 201852Z 33018G28KT 10SM BKN040 M01/M11 A2988 RMK AO2 PK WND 33032/1755 SLP128 T10111111=
200901201752 METAR KATL 201752Z 32020G29KT 10SM SCT040 00/M11 A2987 RMK AO2 PK WND 35031/1738 SLP124 T00001106 10000 21056 50010=
200901201652 METAR KATL 201652Z 34017G31KT 10SM FEW042 SCT150 SCT300 M01/M11 A2987 RMK AO2 PK WND 33031/1646 SLP124 T10061111=
200901201552 METAR KATL 201552Z 32015G24KT 10SM FEW040 SCT150 SCT300 M02/M11 A2985 RMK AO2 PK WND 33030/1534 SLP119 T10171111=
200901201452 METAR KATL 201452Z 32018G26KT 10SM FEW030 SCT300 M03/M11 A2983 RMK AO2 PK WND 32026/1448 SLP113 T10331111 51029=
200901201352 METAR KATL 201352Z 33014G21KT 10SM FEW150 M04/M11 A2981 RMK AO2 SLP105 T10441111=
200901201252 METAR KATL 201252Z 31011G19KT 10SM FEW032 SCT150 M06/M12 A2978 RMK AO2 SLP094 T10561117=
200901201152 METAR KATL 201152Z 31013G21KT 10SM FEW032 M05/M11 A2974 RMK AO2 SLP081 T10501111 11017 21050 51012=
200901201052 METAR KATL 201052Z 33011G19KT 10SM BKN032 M04/M11 A2974 RMK AO2 SLP077 T10441106=
200901200952 METAR KATL 200952Z 32013G23KT 10SM SCT032 SCT150 M04/M11 A2972 RMK AO2 SLP073 T10441111=
200901200852 METAR KATL 200852Z 33016G23KT 10SM FEW032 SCT150 M04/M11 A2971 RMK AO2 PK WND 32027/0806 SLP067 T10391111 53010=
200901200752 METAR KATL 200752Z 33015KT 10SM BKN032 BKN200 M03/M09 A2969 RMK AO2 PK WND 32027/0703 SLP060 T10281094=
200901200652 METAR KATL 200652Z 34018G26KT 10SM BKN032 BKN200 M02/M09 A2968 RMK AO2 PK WND 34028/0625 SLP057 T10221094=
200901200552 METAR KATL 200552Z 32015G28KT 10SM BKN032 BKN200 M02/M08 A2968 RMK AO2 PK WND 31032/0532 SLP055 60000 931000 T10171083 10050 21017 50002=
200901200545 SPECI KATL 200545Z 33017G24KT 10SM BKN030 BKN200 M02/M08 A2968 RMK AO2 PK WND 31032/0532=
200901200545 SPECI KATL 200545Z 33017G24KT 10SM BKN030 BKN200 M02/M08 A2968 RMK AO2 PK WND 31032/0532=
200901200452 METAR KATL 200452Z 32018G28KT 10SM OVC022 M01/M06 A2969 RMK AO2 PK WND 33028/0443 SLP060 T10111061 401001011=
200901200352 METAR KATL 200352Z 34018G27KT 10SM BKN020 OVC026 00/M04 A2968 RMK AO2 PK WND 34029/0340 SNE20 SLP056 P0000 T00001044=
200901200252 METAR KATL 200252Z 32019G31KT 8SM -SN BKN015 OVC025 01/M03 A2967 RMK AO2 PK WND 32031/0244 SLP053 P0000 60000 T00061028 51019=
200901200152 METAR KATL 200152Z 32016G24KT 8SM -SN SCT016 BKN023 OVC070 02/M02 A2967 RMK AO2 PK WND 33029/0055 SNB33 SLP052 P0000 T00171017=
200901200150 SPECI KATL 200150Z 32018G24KT 8SM -SN SCT016 BKN023 OVC070 02/M02 A2967 RMK AO2 PK WND 33029/0055 SNB33 P0000=
200901200150 SPECI KATL 200150Z 32018G24KT 8SM -SN SCT016 BKN023 OVC070 02/M02 A2967 RMK AO2 PK WND 33029/0055 SNB33 P0000=
200901200110 SPECI KATL 200110Z 32015G22KT 10SM SCT018 BKN070 BKN250 02/M02 A2964 RMK AO2 PK WND 33029/0055=
200901200110 SPECI KATL 200110Z 32015G22KT 10SM SCT018 BKN070 BKN250 02/M02 A2964 RMK AO2 PK WND 33029/0055=
200901200052 METAR KATL 200052Z 32019G27KT 10SM SCT018 BKN028 OVC075 02/M02 A2964 RMK AO2 PK WND 32031/0004 SLP042 T00221017=
200901200026 SPECI KATL 200026Z 32022G27KT 10SM BKN026 BKN032 OVC075 04/M01 A2963 RMK AO2 PK WND 32031/0004=
200901200026 SPECI KATL 200026Z 32022G27KT 10SM BKN026 BKN032 OVC075 04/M01 A2963 RMK AO2 PK WND 32031/0004=
200901192352 METAR KATL 192352Z 31016G26KT 10SM FEW045 OVC075 05/M02 A2961 RMK AO2 PK WND 32026/2347 SLP033 T00501017 10100 20050 53014=
200901192252 METAR KATL 192252Z 31015G20KT 10SM FEW050 BKN070 BKN250 06/M01 A2959 RMK AO2 SLP025 T00611011=
200901192152 METAR KATL 192152Z 32012KT 10SM SCT055 BKN080 BKN110 08/M01 A2957 RMK AO2 WSHFT 2129 SLP018 FROPA T00781011=
200901192149 SPECI KATL 192149Z 32013KT 10SM SCT055 BKN080 BKN110 08/M01 A2957 RMK AO2 WSHFT 2129 FROPA=
200901192149 SPECI KATL 192149Z 32013KT 10SM SCT055 BKN080 BKN110 08/M01 A2957 RMK AO2 WSHFT 2129 FROPA=
200901192052 METAR KATL 192052Z 24010KT 10SM SCT065 BKN080 BKN110 BKN200 09/M01 A2957 RMK AO2 SLP015 T00941011 55021=
200901191952 METAR KATL 191952Z 25008KT 10SM FEW070 BKN085 BKN110 10/M01 A2956 RMK AO2 SLP014 T01001011=
200901191852 METAR KATL 191852Z 22010KT 10SM BKN070 BKN090 BKN110 08/M01 A2958 RMK AO2 SLP018 T00831011=
200901191752 METAR KATL 191752Z 24011G16KT 10SM FEW070 BKN085 OVC110 08/M02 A2963 RMK AO2 SLP037 T00781017 10078 20011 58022=
200901191652 METAR KATL 191652Z 23007KT 10SM BKN080 OVC110 06/M01 A2966 RMK AO2 SLP047 T00561006=
200901191552 METAR KATL 191552Z 24005KT 10SM BKN080 BKN110 OVC150 05/M01 A2969 RMK AO2 SLP057 T00501011=
200901191452 METAR KATL 191452Z 25005KT 10SM BKN085 BKN110 OVC150 04/M01 A2970 RMK AO2 SLP060 VIRGA NW T00441011 58005=
200901191352 METAR KATL 191352Z 23007KT 10SM SCT120 BKN300 03/M01 A2970 RMK AO2 SLP063 T00281011=
200901191252 METAR KATL 191252Z 22008KT 10SM SCT110 BKN300 02/M02 A2971 RMK AO2 SLP065 T00171017=
200901191152 METAR KATL 191152Z 23006KT 10SM FEW250 02/M02 A2971 RMK AO2 SLP066 70008 T00171017 10056 20011 56010=
200901191052 METAR KATL 191052Z 24003KT 10SM CLR 02/M02 A2971 RMK AO2 SLP065 T00171017=
200901190952 METAR KATL 190952Z 22005KT 10SM CLR 02/M02 A2972 RMK AO2 SLP067 T00171017=
200901190852 METAR KATL 190852Z 25003KT 10SM CLR 03/M02 A2974 RMK AO2 SLP074 T00281017 58018=
200901190752 METAR KATL 190752Z 28007KT 10SM FEW250 04/M02 A2977 RMK AO2 SLP082 T00391017=
200901190652 METAR KATL 190652Z 26008KT 10SM FEW075 SCT250 06/M01 A2978 RMK AO2 SLP085 T00561011=
200901190552 METAR KATL 190552Z 24005KT 10SM FEW075 04/M02 A2980 RMK AO2 SLP093 T00391017 10083 20039 58019=
200901190452 METAR KATL 190452Z 23004KT 10SM FEW075 04/M02 A2982 RMK AO2 SLP103 T00391017 401220033=
200901190352 METAR KATL 190352Z 21003KT 10SM FEW075 SCT250 05/M02 A2984 RMK AO2 SLP109 T00501017=
200901190252 METAR KATL 190252Z 27005KT 10SM FEW075 06/M02 A2985 RMK AO2 SLP113 T00611017 58000=
200901190152 METAR KATL 190152Z 24004KT 10SM FEW075 06/M02 A2986 RMK AO2 SLP114 T00611017=
200901190052 METAR KATL 190052Z 22004KT 10SM CLR 07/M01 A2986 RMK AO2 SLP117 T00671011=
200901182352 METAR KATL 182352Z 25005KT 10SM CLR 08/M02 A2985 RMK AO2 SLP113 T00831017 10122 20078 53004=
200901182252 METAR KATL 182252Z 28008KT 10SM FEW040 09/M02 A2984 RMK AO2 SLP110 T00941022=
200901182152 METAR KATL 182152Z 29008KT 10SM FEW050 11/M02 A2984 RMK AO2 SLP109 T01111017=
200901182052 METAR KATL 182052Z 29014G21KT 10SM FEW055 12/M02 A2984 RMK AO2 SLP107 T01171017 56015=
200901181952 METAR KATL 181952Z 26007G17KT 10SM SCT045 12/01 A2984 RMK AO2 SLP107 T01170011=
200901181852 METAR KATL 181852Z 29013G17KT 10SM SCT025 BKN150 11/04 A2987 RMK AO2 SLP117 T01110039=
200901181820 SPECI KATL 181820Z 29008KT 10SM SCT025 BKN031 BKN036 09/04 A2987 RMK AO2=
200901181820 SPECI KATL 181820Z 29008KT 10SM SCT025 BKN031 BKN036 09/04 A2987 RMK AO2=
200901181752 METAR KATL 181752Z 30006KT 10SM BKN018 BKN025 BKN035 09/06 A2989 RMK AO2 SLP125 60008 T00940056 10100 20044 58025=
200901181729 SPECI KATL 181729Z 29009KT 10SM BKN018 BKN150 09/06 A2990 RMK AO2=
200901181729 SPECI KATL 181729Z 29009KT 10SM BKN018 BKN150 09/06 A2990 RMK AO2=
200901181704 SPECI KATL 181704Z 30010KT 8SM FEW004 SCT020 SCT031 09/07 A2992 RMK AO2=
200901181704 SPECI KATL 181704Z 30010KT 8SM FEW004 SCT020 SCT031 09/07 A2992 RMK AO2=
200901181652 METAR KATL 181652Z 30007KT 8SM FEW006 SCT014 BKN020 08/07 A2993 RMK AO2 RAB12E25 SLP138 P0000 T00830072=
200901181642 SPECI KATL 181642Z 29007KT 7SM SCT004 BKN017 BKN031 08/07 A2994 RMK AO2 RAB12E25 P0000=
200901181642 SPECI KATL 181642Z 29007KT 7SM SCT004 BKN017 BKN031 08/07 A2994 RMK AO2 RAB12E25 P0000=
200901181631 SPECI KATL 181631Z 30009G17KT 5SM BR BKN004 BKN011 BKN017 07/06 A2994 RMK AO2 RAB12E25 P0000=
200901181631 SPECI KATL 181631Z 30009G17KT 5SM BR BKN004 BKN011 BKN017 07/06 A2994 RMK AO2 RAB12E25 P0000=
200901181615 SPECI KATL 181615Z 31012G16KT 1/2SM -RA BR BKN004 BKN010 08/07 A2996 RMK AO2 SFC VIS 5 RAB12 P0000=
200901181615 SPECI KATL 181615Z 31012G16KT 1/2SM -RA BR BKN004 BKN010 08/07 A2996 RMK AO2 SFC VIS 5 RAB12 P0000=
200901181552 METAR KATL 181552Z 26005KT 5SM BR OVC004 07/07 A2996 RMK AO2 RAE47 CIG 003V007 SLP149 P0005 T00720067=
200901181539 SPECI KATL 181539Z 24006KT 1SM -RA BR OVC002 07/07 A2997 RMK AO2 SFC VIS 3 TWRINC P0005=
200901181539 SPECI KATL 181539Z 24006KT 1SM -RA BR OVC002 07/07 A2997 RMK AO2 SFC VIS 3 TWRINC P0005=
200901181452 METAR KATL 181452Z 23005KT 1/4SM -RA BR OVC002 06/06 A2996 RMK AO2 SFC VIS 2 RAE1353B22 SLP152 TWRINC P0001 60003 T00610061 58013=
200901181423 SPECI KATL 181423Z 23005KT 1/4SM -RA BR OVC002 06/06 A2997 RMK AO2 SFC VIS 2 RAE1353B22 TWRINC P0000=
200901181423 SPECI KATL 181423Z 23005KT 1/4SM -RA BR OVC002 06/06 A2997 RMK AO2 SFC VIS 2 RAE1353B22 TWRINC P0000=
200901181415 SPECI KATL 181415Z 23006KT 1SM BR OVC004 06/06 A2997 RMK AO2 SFC VIS 2 1/2 RAE1353=
200901181415 SPECI KATL 181415Z 23006KT 1SM BR OVC004 06/06 A2997 RMK AO2 SFC VIS 2 1/2 RAE1353=
200901181352 METAR KATL 181352Z 24006KT 2SM -RA BR OVC004 06/05 A2998 RMK AO2 SFC VIS 4 RAB04 SLP158 P0002 T00560050=
200901181338 SPECI KATL 181338Z 25005KT 2SM -RA BR OVC004 06/05 A2998 RMK AO2 SFC VIS 3 RAB04 P0001=
200901181338 SPECI KATL 181338Z 25005KT 2SM -RA BR OVC004 06/05 A2998 RMK AO2 SFC VIS 3 RAB04 P0001=
200901181256 SPECI KATL 181256Z 22009KT 8SM BKN004 OVC013 05/04 A2999 RMK AO2=
200901181256 SPECI KATL 181256Z 22009KT 8SM BKN004 OVC013 05/04 A2999 RMK AO2=
200901181252 METAR KATL 181252Z 21009KT 9SM BKN006 OVC015 05/04 A2999 RMK AO2 RAB07E17 SLP160 P0000 T00500039=
200901181247 SPECI KATL 181247Z 21010KT 9SM BKN006 OVC015 04/04 A2998 RMK AO2 RAB07E17 P0000=
200901181247 SPECI KATL 181247Z 21010KT 9SM BKN006 OVC015 04/04 A2998 RMK AO2 RAB07E17 P0000=
200901181229 SPECI KATL 181229Z 21010KT 10SM FEW006 BKN015 OVC028 04/04 A2999 RMK AO2 RAB07E17 P0000=
200901181229 SPECI KATL 181229Z 21010KT 10SM FEW006 BKN015 OVC028 04/04 A2999 RMK AO2 RAB07E17 P0000=
200901181152 METAR KATL 181152Z 21009KT 9SM SCT017 BKN028 OVC045 04/03 A3000 RMK AO2 RAE1059B31E38 SLP165 P0000 60007 70007 T00440033 10050 20033 56024=
200901181057 SPECI KATL 181057Z 22009KT 8SM -RA SCT016 BKN029 OVC045 04/03 A3002 RMK AO2 P0000=
200901181057 SPECI KATL 181057Z 22009KT 8SM -RA SCT016 BKN029 OVC045 04/03 A3002 RMK AO2 P0000=
200901181052 METAR KATL 181052Z 21010KT 7SM -RA SCT015 BKN031 OVC045 04/03 A3002 RMK AO2 SLP171 P0005 T00390028=
200901181047 SPECI KATL 181047Z 22007KT 6SM -RA BR SCT015 BKN031 OVC045 04/03 A3002 RMK AO2 P0005=
200901181047 SPECI KATL 181047Z 22007KT 6SM -RA BR SCT015 BKN031 OVC045 04/03 A3002 RMK AO2 P0005=
200901180952 METAR KATL 180952Z 22006KT 5SM -RA BR OVC015 04/02 A3004 RMK AO2 RAB03 SLP180 P0002 T00390022=
200901180852 METAR KATL 180852Z 24009G18KT 10SM BKN019 OVC031 05/01 A3007 RMK AO2 RAB23E45 SLP189 P0000 60000 T00500006 56027=
200901180807 SPECI KATL 180807Z 23012G22KT 10SM BKN022 OVC031 05/M02 A3009 RMK AO2=
200901180807 SPECI KATL 180807Z 23012G22KT 10SM BKN022 OVC031 05/M02 A3009 RMK AO2=
200901180752 METAR KATL 180752Z 22013G20KT 10SM BKN031 OVC044 05/M03 A3009 RMK AO2 SLP196 T00501028=
200901180652 METAR KATL 180652Z 21013KT 10SM BKN034 OVC044 04/M04 A3012 RMK AO2 SLP207 T00391039=
200901180552 METAR KATL 180552Z 20009KT 10SM FEW033 OVC042 03/M04 A3016 RMK AO2 RAE16 SLP219 P0000 60000 T00331039 10039 20028 58024=
200901180452 METAR KATL 180452Z 21009KT 10SM -RA FEW033 OVC039 03/M04 A3019 RMK AO2 RAB49 SLP232 P0000 T00331044 400441078=
200901180352 METAR KATL 180352Z 20007KT 10SM BKN049 OVC080 03/M05 A3021 RMK AO2 RAB0257E08 SLP240 P0000 T00331050=
200901180252 METAR KATL 180252Z 20009KT 10SM BKN034 OVC045 03/M06 A3023 RMK AO2 RAB0156E07B33E42 SLP247 P0000 60000 T00331061 56016=
200901180152 METAR KATL 180152Z 18007KT 10SM OVC034 03/M06 A3024 RMK AO2 RAE12 SLP252 P0000 T00331061=
200901180052 METAR KATL 180052Z 19007KT 10SM -RA BKN036 BKN046 OVC055 03/M06 A3026 RMK AO2 RAB09 SLP258 P0000 T00331061=
200901172352 METAR KATL 172352Z 20006KT 9SM OVC030 04/M08 A3028 RMK AO2 SLP265 RAB28E41SNB28E41 931000 P0000 60000 T00391083 10044 20028 55010=
200901172252 METAR KATL 172252Z 18007KT 10SM OVC030 04/M10 A3028 RMK AO2 SNB06E18 SLP264 P0000 T00391100=
200901172152 METAR KATL 172152Z 19007KT 10SM OVC032 04/M12 A3031 RMK AO2 SLP275 T00391117=
200901172052 METAR KATL 172052Z 18008KT 10SM OVC030 04/M12 A3031 RMK AO2 SLP275 T00391117 56026=
200901171952 METAR KATL 171952Z 19010KT 10SM BKN032 04/M12 A3031 RMK AO2 SLP276 T00391122=
200901171852 METAR KATL 171852Z 22012G15KT 10SM SCT040 04/M13 A3036 RMK AO2 SLP292 T00391128=
200901171752 METAR KATL 171752Z COR 24007KT 10SM FEW035 SCT250 03/M14 A3039 RMK AO2 SLP303 T00281144 10028 21078 58034=
200901171652 METAR KATL 171652Z 18005KT 10SM FEW250 01/M18 A3044 RMK AO2 SLP319 T00111178=
200901171552 METAR KATL 171552Z 00000KT 10SM FEW250 M01/M17 A3048 RMK AO2 SLP336 T10061172=
200901171452 METAR KATL 171452Z 14004KT 10SM FEW250 M03/M17 A3049 RMK AO2 SLP340 T10281167 53004=
200901171352 METAR KATL 171352Z 09005KT 10SM CLR M04/M17 A3047 RMK AO2 SLP334 T10441167=
200901171252 METAR KATL 171252Z 09004KT 10SM FEW040 M07/M16 A3047 RMK AO2 SLP334 T10721161=
200901171152 METAR KATL 171152Z 11003KT 10SM CLR M07/M16 A3048 RMK AO2 SLP337 T10671156 11061 21072 55002=
200901171052 METAR KATL 171052Z 00000KT 10SM CLR M07/M16 A3048 RMK AO2 SLP335 T10671156=
200901170952 METAR KATL 170952Z 00000KT 10SM CLR M07/M17 A3048 RMK AO2 SLP334 T10721172=
200901170852 METAR KATL 170852Z 00000KT 10SM CLR M07/M19 A3049 RMK AO2 SLP337 T10671189 58006=
200901170752 METAR KATL 170752Z 33003KT 10SM CLR M07/M19 A3050 RMK AO2 SLP342 T10671189=
200901170652 METAR KATL 170652Z 36004KT 10SM CLR M06/M21 A3049 RMK AO2 SLP340 T10611206=
200901170552 METAR KATL 170552Z 33005KT 10SM CLR M06/M21 A3050 RMK AO2 SLP344 T10611206 11028 21061 58008=
200901170452 METAR KATL 170452Z 32004KT 10SM FEW110 M06/M21 A3051 RMK AO2 SLP347 T10611206 400001111=
200901170352 METAR KATL 170352Z 32006KT 10SM FEW110 M05/M22 A3053 RMK AO2 SLP353 T10501222=
200901170252 METAR KATL 170252Z 33005KT 10SM FEW065 BKN110 BKN150 M04/M19 A3053 RMK AO2 SLP355 T10391194 50000=
200901170152 METAR KATL 170152Z 34007KT 10SM SCT070 BKN110 BKN150 M03/M21 A3053 RMK AO2 SLP357 T10331211=
200901170052 METAR KATL 170052Z 32006KT 10SM FEW090 SCT120 SCT150 M03/M22 A3054 RMK AO2 SLP359 T10331217=
200901162352 METAR KATL 162352Z 34009KT 10SM SCT120 BKN150 BKN200 M03/M23 A3053 RMK AO2 SLP354 T10281233 10000 21028 53003=
200901162252 METAR KATL 162252Z 33008KT 10SM FEW120 SCT150 BKN200 M02/M21 A3052 RMK AO2 SLP352 T10221211=
200901162152 METAR KATL 162152Z 29004KT 10SM FEW110 SCT180 SCT250 M01/M22 A3052 RMK AO2 SLP350 T10111222=
200901162052 METAR KATL 162052Z 32006KT 10SM FEW110 SCT250 M01/M22 A3052 RMK AO2 SLP349 T10061217 56021=
200901161952 METAR KATL 161952Z 32007KT 10SM SCT150 SCT250 M01/M20 A3054 RMK AO2 SLP356 T10061200=
200901161852 METAR KATL 161852Z 33005KT 10SM FEW085 SCT200 M02/M21 A3056 RMK AO2 SLP363 T10171211=
200901161752 METAR KATL 161752Z VRB03KT 10SM FEW200 M02/M20 A3058 RMK AO2 SLP371 T10221200 11022 21111 58018=
200901161652 METAR KATL 161652Z VRB04KT 10SM CLR M04/M19 A3062 RMK AO2 SLP384 T10441194=
200901161552 METAR KATL 161552Z 35008KT 10SM CLR M07/M19 A3064 RMK AO2 SLP393 T10671189=
200901161452 METAR KATL 161452Z 34010KT 10SM CLR M08/M18 A3064 RMK AO2 SLP392 T10831183 53011=
200901161352 METAR KATL 161352Z 32010KT 10SM CLR M10/M18 A3062 RMK AO2 SLP386 T11001183=
200901161252 METAR KATL 161252Z 33011KT 10SM CLR M11/M18 A3060 RMK AO2 SLP380 T11111183=
200901161152 METAR KATL 161152Z 32008KT 10SM CLR M11/M18 A3061 RMK AO2 SLP381 T11111178 11067 21111 53013=
200901161052 METAR KATL 161052Z 33009KT 10SM CLR M11/M18 A3059 RMK AO2 SLP376 T11061178=
200901160952 METAR KATL 160952Z 34010KT 10SM CLR M10/M18 A3057 RMK AO2 SLP366 T11001183=
200901160852 METAR KATL 160852Z 33008KT 10SM CLR M09/M18 A3057 RMK AO2 SLP365 T10891178 53007=
200901160752 METAR KATL 160752Z 34009KT 10SM CLR M08/M17 A3056 RMK AO2 SLP362 T10831172=
200901160652 METAR KATL 160652Z 34010KT 10SM CLR M08/M18 A3055 RMK AO2 SLP358 T10781178=
200901160552 METAR KATL 160552Z 33009KT 10SM CLR M07/M19 A3054 RMK AO2 SLP356 T10671189 11011 21067 50009=
200901160452 METAR KATL 160452Z 32012G17KT 10SM FEW250 M06/M21 A3055 RMK AO2 SLP359 T10611206 400441061=
200901160352 METAR KATL 160352Z 34012KT 10SM FEW250 M05/M18 A3054 RMK AO2 SLP355 T10501178=
200901160252 METAR KATL 160252Z 34013KT 10SM FEW250 M04/M17 A3052 RMK AO2 SLP347 T10391172 51021=
200901160152 METAR KATL 160152Z 34011KT 10SM FEW250 M03/M16 A3050 RMK AO2 SLP341 T10331161=
200901160052 METAR KATL 160052Z 34014G20KT 10SM FEW250 M02/M16 A3048 RMK AO2 SLP333 T10221156=
200901152352 METAR KATL 152352Z 33012KT 10SM FEW250 M01/M14 A3045 RMK AO2 SLP323 T10111144 10033 21011 53019=
200901152252 METAR KATL 152252Z 34012KT 10SM FEW250 00/M14 A3043 RMK AO2 SLP313 T00001144=
200901152152 METAR KATL 152152Z 33016G23KT 10SM FEW250 02/M14 A3041 RMK AO2 SLP306 T00171139=
200901152052 METAR KATL 152052Z 32018KT 10SM FEW250 02/M14 A3040 RMK AO2 PK WND 33026/2038 SLP302 T00221144 53005=
200901151952 METAR KATL 151952Z 33012G20KT 10SM CLR 03/M13 A3039 RMK AO2 SLP300 T00281128=
200901151852 METAR KATL 151852Z 32018G22KT 10SM FEW250 03/M12 A3039 RMK AO2 SLP297 T00331117=
200901151752 SPECI KATL 151752Z 32017G22KT 10SM FEW250 03/M12 A3038 RMK AO2 SLP295 T00281117 10028 21006 50004=
200901151652 METAR KATL 151652Z 31013KT 10SM FEW250 02/M11 A3039 RMK AO2 SLP299 T00171106=
200901151552 METAR KATL 151552Z 33013G18KT 10SM FEW250 01/M11 A3039 RMK AO2 SLP299 T00111106=
200901151452 METAR KATL 151452Z 32016G21KT 10SM FEW250 00/M11 A3037 RMK AO2 SLP292 T00001111 53031=
200901151352 METAR KATL 151352Z 33016G24KT 10SM FEW250 M01/M10 A3034 RMK AO2 SLP281 T10061100=
200901151252 METAR KATL 151252Z 33013G20KT 10SM FEW250 M01/M07 A3031 RMK AO2 SLP272 T10061067=
200901151152 METAR KATL 151152Z 33014KT 10SM FEW250 01/M06 A3028 RMK AO2 SLP260 T00061056 10039 20006 53018=
200901151052 METAR KATL 151052Z 31011KT 10SM CLR 02/M06 A3025 RMK AO2 SLP249 T00171056=
200901150952 METAR KATL 150952Z 29010G23KT 10SM CLR 03/M06 A3023 RMK AO2 SLP242 T00281061=
200901150852 METAR KATL 150852Z 28011KT 10SM CLR 03/M07 A3022 RMK AO2 SLP238 T00331067 53001=
200901150752 METAR KATL 150752Z 28010KT 10SM CLR 03/M07 A3022 RMK AO2 SLP239 T00281067=
200901150652 METAR KATL 150652Z 27008KT 10SM CLR 03/M07 A3021 RMK AO2 SLP236 T00331067=
200901150552 METAR KATL 150552Z 27008KT 10SM CLR 04/M07 A3022 RMK AO2 SLP238 T00391067 10072 20039 50000=
200901150452 METAR KATL 150452Z 25008KT 10SM CLR 04/M07 A3023 RMK AO2 SLP244 T00441067 401061044=
200901150352 METAR KATL 150352Z 25007KT 10SM CLR 05/M07 A3023 RMK AO2 SLP243 T00501067=
200901150252 METAR KATL 150252Z 26008KT 10SM CLR 06/M07 A3022 RMK AO2 SLP241 T00611067 53015=
200901150152 METAR KATL 150152Z 26008KT 10SM CLR 06/M08 A3020 RMK AO2 SLP235 T00611078=
200901150052 METAR KATL 150052Z 23004KT 10SM CLR 06/M07 A3019 RMK AO2 SLP231 T00611072=
200901142352 METAR KATL 142352Z 23003KT 10SM CLR 07/M07 A3017 RMK AO2 SLP226 T00721072 10106 20067 53004=
200901142252 METAR KATL 142252Z 24006KT 10SM CLR 09/M09 A3017 RMK AO2 SLP223 T00891094=
200901142152 METAR KATL 142152Z 27008KT 10SM CLR 10/M11 A3016 RMK AO2 SLP221 T01001106=
200901142052 METAR KATL 142052Z 25007KT 10SM CLR 11/M11 A3016 RMK AO2 SLP220 T01061106 55014=
200901141952 METAR KATL 141952Z 24010KT 10SM CLR 10/M11 A3016 RMK AO2 SLP220 T01001106=
200901141852 METAR KATL 141852Z 25007KT 10SM CLR 08/M11 A3018 RMK AO2 SLP226 T00831106=
200901141752 METAR KATL 141752Z 30008KT 10SM FEW200 07/M09 A3020 RMK AO2 SLP234 T00671094 10067 21044 58019=
200901141652 METAR KATL 141652Z 32006KT 10SM FEW200 04/M10 A3024 RMK AO2 SLP248 T00391100=
200901141552 METAR KATL 141552Z 28004KT 10SM CLR 01/M09 A3026 RMK AO2 SLP257 T00111094=
200901141452 METAR KATL 141452Z 32009KT 10SM CLR M01/M11 A3026 RMK AO2 SLP256 T10111106 53015=
200901141352 METAR KATL 141352Z 33010KT 10SM CLR M03/M09 A3024 RMK AO2 SLP247 T10331094=
200901141252 METAR KATL 141252Z 32010KT 10SM CLR M04/M09 A3022 RMK AO2 SLP242 T10441094=
200901141152 METAR KATL 141152Z 31010KT 10SM CLR M04/M10 A3021 RMK AO2 SLP240 T10391100 11006 21039 53015=
200901141052 METAR KATL 141052Z 31009KT 10SM CLR M04/M09 A3019 RMK AO2 SLP231 T10391089=
200901140952 METAR KATL 140952Z 28006KT 10SM CLR M04/M08 A3017 RMK AO2 SLP222 T10391083=
200901140852 METAR KATL 140852Z 30006KT 10SM CLR M03/M07 A3017 RMK AO2 SLP222 T10331072 51008=
200901140752 METAR KATL 140752Z 31009KT 10SM CLR M02/M07 A3016 RMK AO2 SLP220 T10221072=
200901140652 METAR KATL 140652Z 31010KT 10SM CLR M02/M07 A3015 RMK AO2 SLP216 T10171067=
200901140552 METAR KATL 140552Z 32011KT 10SM FEW026 M01/M06 A3014 RMK AO2 SLP213 T10061056 10067 21006 51018=
200901140452 METAR KATL 140452Z 34009KT 10SM FEW026 01/M04 A3014 RMK AO2 SLP212 T00061044 401330006=
200901140352 METAR KATL 140352Z 31012G20KT 10SM FEW030 02/M03 A3012 RMK AO2 PK WND 34028/0306 SLP207 T00171033=
200901140252 METAR KATL 140252Z 34022G26KT 10SM FEW028 BKN036 03/M02 A3009 RMK AO2 PK WND 34026/0252 SLP196 T00331022 53012=
200901140152 METAR KATL 140152Z 31013G18KT 10SM FEW030 05/M01 A3007 RMK AO2 SLP190 T00501011=
200901140052 METAR KATL 140052Z 31010KT 10SM FEW030 06/M01 A3005 RMK AO2 SLP183 T00561006=
200901132352 METAR KATL 132352Z 30014G19KT 10SM FEW030 07/M01 A3005 RMK AO2 SLP183 T00671006 10133 20067 51027=
200901132252 METAR KATL 132252Z 32017G23KT 10SM BKN055 BKN070 BKN150 08/01 A3004 RMK AO2 SLP176 T00830006=
200901132152 METAR KATL 132152Z 30018G24KT 10SM BKN065 BKN095 11/M01 A3000 RMK AO2 SLP161 T01061011=
200901132052 METAR KATL 132052Z 27013G21KT 10SM SCT060 BKN100 12/M03 A2997 RMK AO2 SLP152 T01221028 55014=
200901131952 METAR KATL 131952Z 29008G16KT 10SM FEW060 SCT150 12/M03 A2996 RMK AO2 SLP150 T01221028=
200901131852 METAR KATL 131852Z 27010G15KT 10SM FEW150 12/M02 A2998 RMK AO2 SLP155 T01221017=
200901131752 METAR KATL 131752Z 28009KT 10SM SCT150 12/M03 A3001 RMK AO2 SLP167 T01171033 10117 20017 58026=
200901131652 METAR KATL 131652Z 26008KT 10SM SCT150 BKN250 09/M01 A3005 RMK AO2 SLP181 T00891011=
200901131552 METAR KATL 131552Z 24004KT 10SM BKN150 BKN250 06/M01 A3008 RMK AO2 SLP190 T00611006=
200901131452 METAR KATL 131452Z 00000KT 10SM BKN150 BKN200 04/M01 A3009 RMK AO2 SLP196 T00391011 58001=
200901131352 METAR KATL 131352Z 00000KT 10SM BKN150 BKN200 03/M01 A3010 RMK AO2 SLP197 T00281006=
200901131252 METAR KATL 131252Z 00000KT 10SM BKN180 BKN250 02/M02 A3010 RMK AO2 SLP197 T00221017=
200901131152 METAR KATL 131152Z 00000KT 10SM OVC200 02/M02 A3010 RMK AO2 SLP197 T00171017 10039 20017 55007=
200901131052 METAR KATL 131052Z 33005KT 10SM BKN200 02/M02 A3009 RMK AO2 SLP193 T00221022=
200901130952 METAR KATL 130952Z 00000KT 10SM OVC200 03/M03 A3010 RMK AO2 SLP196 T00331028=
200901130852 METAR KATL 130852Z 09003KT 10SM OVC200 03/M02 A3012 RMK AO2 SLP202 T00331022 56014=
200901130752 METAR KATL 130752Z 07003KT 10SM BKN200 03/M03 A3012 RMK AO2 SLP205 T00331033=
200901130652 METAR KATL 130652Z 00000KT 10SM BKN200 04/M03 A3014 RMK AO2 SLP213 T00391033=
200901130552 METAR KATL 130552Z 11003KT 10SM BKN200 04/M03 A3016 RMK AO2 SLP218 T00391028 10072 20033 58008=
200901130452 METAR KATL 130452Z 07004KT 10SM BKN200 04/M03 A3017 RMK AO2 SLP223 T00391033 401111022=
200901130352 METAR KATL 130352Z 09005KT 10SM BKN200 04/M03 A3018 RMK AO2 SLP227 T00391033=
200901130252 METAR KATL 130252Z 09005KT 10SM BKN200 05/M03 A3018 RMK AO2 SLP228 T00501033 50002=
200901130152 METAR KATL 130152Z 16004KT 10SM BKN200 07/M04 A3019 RMK AO2 SLP231 T00671039=
200901130052 METAR KATL 130052Z 00000KT 10SM FEW150 SCT250 07/M03 A3018 RMK AO2 SLP229 T00721033=
200901122352 METAR KATL 122352Z 00000KT 10SM FEW150 SCT250 07/M03 A3018 RMK AO2 SLP227 T00721028 10111 20072 53002=
200901122252 METAR KATL 122252Z 16003KT 10SM FEW150 BKN250 09/M05 A3017 RMK AO2 SLP224 T00941050=
200901122152 METAR KATL 122152Z 14003KT 10SM FEW150 BKN250 10/M05 A3017 RMK AO2 SLP222 T01001050=
200901122052 METAR KATL 122052Z 00000KT 10SM FEW150 SCT250 11/M06 A3017 RMK AO2 SLP224 T01111056 56016=
200901121952 METAR KATL 121952Z 00000KT 10SM FEW150 SCT250 10/M05 A3019 RMK AO2 SLP228 T01001050=
200901121852 METAR KATL 121852Z 00000KT 10SM FEW250 09/M06 A3021 RMK AO2 SLP234 T00941056=
200901121752 METAR KATL 121752Z 00000KT 10SM FEW250 08/M02 A3022 RMK AO2 SLP241 T00831022 10083 21022 58008=
200901121652 METAR KATL 121652Z VRB03KT 10SM FEW250 07/M03 A3025 RMK AO2 SLP249 T00721028=
200901121552 METAR KATL 121552Z 29005KT 10SM FEW250 04/M02 A3026 RMK AO2 SLP256 T00391022=
200901121452 METAR KATL 121452Z 34003KT 10SM FEW250 02/M03 A3025 RMK AO2 SLP252 T00171028 51019=
200901121352 METAR KATL 121352Z 34007KT 7SM FEW250 M01/M03 A3022 RMK AO2 SLP244 T10061033=
200901121252 METAR KATL 121252Z 32004KT 7SM FEW250 M02/M04 A3022 RMK AO2 SLP242 T10221044=
200901121152 METAR KATL 121152Z 35006KT 7SM CLR M02/M04 A3019 RMK AO2 SLP233 T10171039 11006 21022 53005=
200901121052 METAR KATL 121052Z 34012KT 7SM CLR M02/M04 A3017 RMK AO2 SLP225 T10171039=
200901120952 METAR KATL 120952Z 32009KT 7SM FEW050 M02/M04 A3019 RMK AO2 SLP234 T10171039=
200901120852 METAR KATL 120852Z 32011KT 7SM FEW050 M02/M03 A3017 RMK AO2 SLP227 T10171033 53004=
200901120752 METAR KATL 120752Z 32010KT 7SM CLR M01/M03 A3017 RMK AO2 SLP225 T10111033=
200901120652 METAR KATL 120652Z 33008KT 8SM CLR M01/M03 A3016 RMK AO2 SLP222 T10111033=
200901120552 METAR KATL 120552Z 32010KT 10SM FEW250 M01/M03 A3016 RMK AO2 SLP222 T10061028 10022 21006 51003=
200901120452 METAR KATL 120452Z 33012KT 10SM CLR 00/M03 A3016 RMK AO2 SLP222 T00001028 401610000=
200901120352 METAR KATL 120352Z 32012KT 10SM FEW100 SCT250 00/M03 A3016 RMK AO2 SLP220 T00001028=
200901120252 METAR KATL 120252Z 32012KT 10SM FEW150 SCT250 01/M02 A3015 RMK AO2 SLP219 T00061022 53015=
200901120152 METAR KATL 120152Z 32013KT 10SM FEW020 SCT250 01/M02 A3014 RMK AO2 SLP212 T00111017=
200901120052 METAR KATL 120052Z 31011G18KT 10SM FEW020 BKN250 02/M01 A3012 RMK AO2 SLP205 T00221011=
200901112352 METAR KATL 112352Z 32013KT 10SM FEW019 BKN250 02/M02 A3011 RMK AO2 SLP201 T00221017 10050 20022 53009=
200901112252 METAR KATL 112252Z 31013G20KT 7SM SCT018 SCT150 BKN250 03/M01 A3010 RMK AO2 SLP196 T00281011=
200901112230 SPECI KATL 112230Z 32011G18KT 7SM SCT016 BKN100 OVC200 03/M01 A3009 RMK AO2=
200901112230 SPECI KATL 112230Z 32011G18KT 7SM SCT016 BKN100 OVC200 03/M01 A3009 RMK AO2=
200901112152 METAR KATL 112152Z 31012G19KT 9SM BKN018 OVC200 03/00 A3008 RMK AO2 SLP192 T00330000=
200901112052 METAR KATL 112052Z 30012KT 8SM OVC016 04/00 A3008 RMK AO2 SLP190 T00390000 53009=
200901111952 METAR KATL 111952Z 31010G18KT 8SM OVC018 04/01 A3006 RMK AO2 SLP183 T00440006=
200901111852 METAR KATL 111852Z 32013KT 8SM OVC016 05/01 A3005 RMK AO2 SLP176 CIG 016V014 T00500011=
200901111836 SPECI KATL 111836Z 31014KT 8SM OVC016 04/01 A3005 RMK AO2 CIG 016V014=
200901111836 SPECI KATL 111836Z 31014KT 8SM OVC016 04/01 A3005 RMK AO2 CIG 016V014=
200901111804 SPECI KATL 111804Z 29012KT 8SM OVC014 04/01 A3004 RMK AO2 CIG 014V016=
200901111804 SPECI KATL 111804Z 29012KT 8SM OVC014 04/01 A3004 RMK AO2 CIG 014V016=
200901111752 SPECI KATL 111752Z 31013KT 8SM BKN016 OVC200 04/01 A3005 RMK AO2 SLP177 T00440011 10067 20039 58008=
200901111652 METAR KATL 111652Z 32011KT 8SM OVC014 04/01 A3007 RMK AO2 SLP186 T00440011=
200901111552 METAR KATL 111552Z 33013G17KT 8SM OVC012 04/02 A3009 RMK AO2 SLP190 T00440017=
200901111452 METAR KATL 111452Z 31016G21KT 7SM OVC012 05/02 A3008 RMK AO2 SLP186 T00500022 53015=
200901111352 METAR KATL 111352Z 32012KT 7SM OVC012 06/03 A3006 RMK AO2 SLP180 T00560028=
200901111252 METAR KATL 111252Z 33017KT 7SM BKN014 OVC020 06/03 A3004 RMK AO2 SLP174 T00610033=
200901111152 METAR KATL 111152Z 31015G20KT 8SM OVC014 07/04 A3003 RMK AO2 SLP170 60000 70014 T00670044 10161 20067 53013=
200901111052 METAR KATL 111052Z 30013G20KT 8SM OVC014 08/05 A3000 RMK AO2 SLP161 T00780050=
200901110952 METAR KATL 110952Z 33013G22KT 8SM BKN014 OVC020 09/07 A2999 RMK AO2 SLP156 T00940067=
200901110947 SPECI KATL 110947Z 34016G21KT 8SM BKN014 OVC020 10/07 A2999 RMK AO2=
200901110947 SPECI KATL 110947Z 34016G21KT 8SM BKN014 OVC020 10/07 A2999 RMK AO2=
200901110852 METAR KATL 110852Z 31010KT 8SM SCT008 BKN015 11/10 A2998 RMK AO2 SLP150 60000 T01110100 53011=
200901110752 METAR KATL 110752Z 31012KT 6SM BR BKN008 OVC015 13/12 A2996 RMK AO2 WSHFT 0642 RAB0654E08B34E44 SLP143 P0000 T01330117=
200901110702 SPECI KATL 110702Z 32016G22KT 6SM -RA BR OVC005 14/13 A2995 RMK AO2 WSHFT 0642 RAB0654 CIG 003V009 P0000=
200901110702 SPECI KATL 110702Z 32016G22KT 6SM -RA BR OVC005 14/13 A2995 RMK AO2 WSHFT 0642 RAB0654 CIG 003V009 P0000=
200901110652 METAR KATL 110652Z 33015KT 6SM BR BKN005 OVC025 15/14 A2995 RMK AO2 RAB14E26 CIG 003V009 SLP138 P0000 T01500144=
200901110602 SPECI KATL 110602Z 24006KT 7SM SCT008 BKN014 OVC034 16/16 A2994 RMK AO2=
200901110602 SPECI KATL 110602Z 24006KT 7SM SCT008 BKN014 OVC034 16/16 A2994 RMK AO2=
200901110552 METAR KATL 110552Z 24007KT 7SM FEW007 BKN021 OVC034 16/16 A2994 RMK AO2 RAE29 SLP137 P0004 60011 T01610156 10161 20139 56003=
200901110548 SPECI KATL 110548Z 24006KT 8SM SCT007 BKN021 OVC034 16/16 A2995 RMK AO2 RAE29 P0004=
200901110548 SPECI KATL 110548Z 24006KT 8SM SCT007 BKN021 OVC034 16/16 A2995 RMK AO2 RAE29 P0004=
200901110533 SPECI KATL 110533Z 24008KT 8SM SCT007 BKN034 OVC075 16/16 A2994 RMK AO2 RAE29 P0004=
200901110533 SPECI KATL 110533Z 24008KT 8SM SCT007 BKN034 OVC075 16/16 A2994 RMK AO2 RAE29 P0004=
200901110523 SPECI KATL 110523Z 26006KT 5SM -RA BR SCT007 BKN010 OVC022 16/16 A2995 RMK AO2 CIG 008V012 P0004=
200901110523 SPECI KATL 110523Z 26006KT 5SM -RA BR SCT007 BKN010 OVC022 16/16 A2995 RMK AO2 CIG 008V012 P0004=
200901110452 METAR KATL 110452Z 21010KT 7SM -RA BKN007 OVC012 16/15 A2994 RMK AO2 SLP137 CIG 005V009 P0006 T01560150 401720050=
200901110425 SPECI KATL 110425Z 21009KT 3SM RA BR BKN007 BKN012 OVC019 16/15 A2995 RMK AO2 CIG 005V010 P0004=
200901110425 SPECI KATL 110425Z 21009KT 3SM RA BR BKN007 BKN012 OVC019 16/15 A2995 RMK AO2 CIG 005V010 P0004=
200901110420 SPECI KATL 110420Z 22010KT 2SM RA BR BKN007 OVC012 16/15 A2995 RMK AO2 CIG 005V010 P0003=
200901110420 SPECI KATL 110420Z 22010KT 2SM RA BR BKN007 OVC012 16/15 A2995 RMK AO2 CIG 005V010 P0003=
200901110352 METAR KATL 110352Z 21011KT 7SM -RA BKN007 OVC047 16/15 A2995 RMK AO2 RAE07B40 SLP141 CIG 006V010 P0000 T01560150=
200901110252 METAR KATL 110252Z 21010KT 7SM -RA OVC009 16/14 A2996 RMK AO2 SLP146 LTG DSNT NW-N CB DSNT NW-N CIG 008V011 P0001 60001 T01560144 56010=
200901110213 SPECI KATL 110213Z 20011KT 10SM -RA OVC009 16/14 A2997 RMK AO2 P0000=
200901110213 SPECI KATL 110213Z 20011KT 10SM -RA OVC009 16/14 A2997 RMK AO2 P0000=
200901110152 METAR KATL 110152Z 20014KT 10SM -RA OVC013 16/14 A2997 RMK AO2 RAB49 SLP148 CIG 012V015 P0000 T01610139=
200901110120 SPECI KATL 110120Z 21012KT 10SM OVC013 16/13 A2997 RMK AO2=
200901110120 SPECI KATL 110120Z 21012KT 10SM OVC013 16/13 A2997 RMK AO2=
200901110052 METAR KATL 110052Z 20011KT 10SM OVC015 15/12 A2998 RMK AO2 SLP151 T01500122=
200901102352 METAR KATL 102352Z 18009KT 10SM OVC019 14/12 A2999 RMK AO2 RAE50 SLP157 P0001 60003 T01440122 10172 20144 58008=
200901102252 METAR KATL 102252Z 20007KT 6SM -RA BKN025 OVC047 15/12 A3001 RMK AO2 RAE2155B16 SLP163 P0001 T01500117 $=
200901102225 SPECI KATL 102225Z 19010KT 4SM -RA BKN027 BKN048 OVC055 16/12 A3001 RMK AO2 RAE2155B16 VIS NW-N 2 P0001=
200901102225 SPECI KATL 102225Z 19010KT 4SM -RA BKN027 BKN048 OVC055 16/12 A3001 RMK AO2 RAE2155B16 VIS NW-N 2 P0001=
200901102152 METAR KATL 102152Z COR 19005KT 8SM -RA SCT023 BKN043 BKN070 15/12 A3001 RMK AO2 RAB01 SLP164 CB DSNT NE AND NW P0001 T01500117=
200901102138 SPECI KATL 102138Z 20007KT 7SM -RA SCT021CB BKN035 BKN060 15/12 A3002 RMK AO2 RAB01 CB N-E AND W-N MOV E P0001=
200901102138 SPECI KATL 102138Z 20007KT 7SM -RA SCT021CB BKN035 BKN060 15/12 A3002 RMK AO2 RAB01 CB N-E AND W-N MOV E P0001=
200901102106 SPECI KATL 102106Z 21007KT 5SM -RA OVC021CB 16/12 A3003 RMK AO2 RAB01 CB OHD-ALQDS MOV E P0000=
200901102106 SPECI KATL 102106Z 21007KT 5SM -RA OVC021CB 16/12 A3003 RMK AO2 RAB01 CB OHD-ALQDS MOV E P0000=
200901102052 METAR KATL 102052Z 21011KT 10SM BKN021 BKN035 BKN065 16/11 A3002 RMK AO2 RAB11E20 SLP166 CB DSNT E-S AND SW-NW P0000 60000 T01560111 56022=
200901102025 SPECI KATL 102025Z 20011KT 10SM BKN023CB BKN035 BKN065 16/11 A3003 RMK AO2 RAB11E20 CB SE MOV NE BKN023V SCT P0000=
200901102025 SPECI KATL 102025Z 20011KT 10SM BKN023CB BKN035 BKN065 16/11 A3003 RMK AO2 RAB11E20 CB SE MOV NE BKN023V SCT P0000=
200901102017 SPECI KATL 102017Z 21010KT 10SM -RA SCT025CB BKN039 BKN065 16/11 A3003 RMK AO2 RAB11 CB S MOV NE P0000=
200901102017 SPECI KATL 102017Z 21010KT 10SM -RA SCT025CB BKN039 BKN065 16/11 A3003 RMK AO2 RAB11 CB S MOV NE P0000=
200901101952 METAR KATL 101952Z 21012KT 10SM BKN025 BKN055 17/09 A3004 RMK AO2 SLP172 CB DSNT SW SHRA DSNT SW T01670089=
200901101935 SPECI KATL 101935Z 20012KT 10SM BKN025 BKN065 17/08 A3004 RMK AO2 CB DSPTD FROPA=
200901101935 SPECI KATL 101935Z 20012KT 10SM BKN025 BKN065 17/08 A3004 RMK AO2 CB DSPTD FROPA=
200901101914 SPECI KATL 101914Z 20011KT 10SM BKN025CB BKN065 BKN095 17/07 A3004 RMK AO2 CB SW-NW MOV E CIG 025V032=
200901101914 SPECI KATL 101914Z 20011KT 10SM BKN025CB BKN065 BKN095 17/07 A3004 RMK AO2 CB SW-NW MOV E CIG 025V032=
200901101852 METAR KATL 101852Z 19012KT 10SM BKN026 BKN032 BKN100 16/07 A3005 RMK AO2 SLP177 CIG 026V032 BKN026V SCT T01610067 $=
200901101814 SPECI KATL 101814Z 21013G19KT 10SM SCT019 BKN033 BKN049 16/06 A3007 RMK AO2 SCT019V BKN $=
200901101814 SPECI KATL 101814Z 21013G19KT 10SM SCT019 BKN033 BKN049 16/06 A3007 RMK AO2 SCT019V BKN $=
200901101807 SPECI KATL 101807Z 20013G18KT 10SM BKN019 BKN033 BKN110 15/05 A3007 RMK AO2 $=
200901101807 SPECI KATL 101807Z 20013G18KT 10SM BKN019 BKN033 BKN110 15/05 A3007 RMK AO2 $=
200901101752 METAR KATL 101752Z 20015KT 10SM SCT023 BKN032 BKN039 15/05 A3009 RMK AO2 SLP189 SHRA DSNT NE AND SE 60000 T01500050 10150 20067 58028 $=
200901101716 SPECI KATL 101716Z 19012KT 10SM BKN028 BKN036 BKN043 13/03 A3011 RMK AO2 SHRA DSNT SE=
200901101716 SPECI KATL 101716Z 19012KT 10SM BKN028 BKN036 BKN043 13/03 A3011 RMK AO2 SHRA DSNT SE=
200901101652 METAR KATL 101652Z 19009KT 10SM SCT030 BKN049 BKN060 12/03 A3012 RMK AO2 RAB1559E08 SLP201 CB DSNT S P0000 T01220028=
200901101552 METAR KATL 101552Z 20008KT 10SM BKN032 BKN060 OVC075 11/02 A3017 RMK AO2 RAB13E21B38E50 SLP217 P0000 T01060017=
200901101452 METAR KATL 101452Z 20007KT 10SM SCT065 BKN080 BKN095 10/01 A3017 RMK AO2 SLP219 SHRA DSNT SW-NW T01000011 53004=
200901101352 METAR KATL 101352Z 14006KT 10SM FEW045 BKN095 08/00 A3013 RMK AO2 PRESFR SLP204 T00830000=
200901101252 METAR KATL 101252Z 18007KT 10SM FEW045 OVC085 07/M01 A3016 RMK AO2 SLP213 T00721006=
200901101152 METAR KATL 101152Z 17004KT 10SM FEW045 OVC085 07/M01 A3016 RMK AO2 SLP215 T00671011 10078 20050 56011=
200901101052 METAR KATL 101052Z 17007KT 10SM FEW045 SCT080 06/M02 A3016 RMK AO2 SLP215 T00611017=
200901100952 METAR KATL 100952Z 14004KT 10SM FEW055 SCT080 06/M03 A3017 RMK AO2 SLP218 T00561028=
200901100852 METAR KATL 100852Z 00000KT 10SM FEW080 05/M02 A3019 RMK AO2 SLP226 T00501022 56003=
200901100752 METAR KATL 100752Z 17008KT 10SM FEW100 06/M02 A3020 RMK AO2 SLP226 T00611022=
200901100652 METAR KATL 100652Z 13003KT 10SM CLR 07/M03 A3020 RMK AO2 SLP227 T00671028=
200901100552 METAR KATL 100552Z 15003KT 10SM CLR 08/M03 A3020 RMK AO2 SLP230 T00781033 10122 20072 51007=
200901100452 METAR KATL 100452Z 16003KT 10SM CLR 08/M03 A3019 RMK AO2 SLP228 T00831028 401561006=
200901100352 METAR KATL 100352Z 14004KT 10SM CLR 08/M03 A3019 RMK AO2 SLP227 T00831028=
200901100252 METAR KATL 100252Z 14004KT 10SM CLR 09/M03 A3018 RMK AO2 SLP224 T00891028 50004=
200901100152 METAR KATL 100152Z 13004KT 10SM FEW250 10/M03 A3018 RMK AO2 SLP226 T01001028=
200901100052 METAR KATL 100052Z 13004KT 10SM FEW200 12/M03 A3018 RMK AO2 SLP224 T01171033=
200901092352 METAR KATL 092352Z 16005KT 10SM FEW200 12/M04 A3017 RMK AO2 SLP221 T01221039 10156 20122 53005=
200901092252 METAR KATL 092252Z 14005KT 10SM FEW200 13/M04 A3016 RMK AO2 SLP218 T01331039=
200901092152 METAR KATL 092152Z 16006KT 10SM FEW220 15/M03 A3016 RMK AO2 SLP217 T01501033=
200901092052 METAR KATL 092052Z 23003KT 10SM FEW220 15/M06 A3015 RMK AO2 SLP213 T01501061 55010=
200901091952 METAR KATL 091952Z 20008KT 10SM CLR 14/M06 A3014 RMK AO2 SLP210 T01441056=
200901091852 SPECI KATL 091852Z 22003KT 10SM CLR 14/M07 A3016 RMK AO2 SLP216 T01391072=
200901091752 METAR KATL 091752Z 16003KT 10SM CLR 12/M09 A3018 RMK AO2 SLP225 T01221089 10122 21006 58010=
200901091652 METAR KATL 091652Z 00000KT 10SM CLR 09/M08 A3020 RMK AO2 SLP233 T00941078=
200901091552 METAR KATL 091552Z 00000KT 10SM CLR 08/M09 A3022 RMK AO2 SLP237 T00831089=
200901091452 METAR KATL 091452Z 36007KT 10SM CLR 06/M08 A3021 RMK AO2 SLP236 T00561078 52022=
200901091352 METAR KATL 091352Z 32005KT 10SM CLR 02/M07 A3020 RMK AO2 SLP233 T00171067=
200901091252 METAR KATL 091252Z 33005KT 10SM CLR M01/M07 A3016 RMK AO2 SLP221 T10061072=
200901091152 METAR KATL 091152Z 34005KT 10SM CLR 00/M07 A3015 RMK AO2 SLP215 T00001072 10028 20000 53010=
200901091052 METAR KATL 091052Z 33004KT 10SM CLR 00/M07 A3013 RMK AO2 SLP208 T00001072=
200901090952 METAR KATL 090952Z 33007KT 10SM CLR 01/M07 A3012 RMK AO2 SLP204 T00061072=
200901090852 METAR KATL 090852Z 32008KT 10SM CLR 01/M07 A3012 RMK AO2 SLP202 T00111072 53022=
200901090752 METAR KATL 090752Z 31008KT 10SM CLR 02/M07 A3008 RMK AO2 SLP190 T00171072=
200901090652 METAR KATL 090652Z 33008KT 10SM CLR 02/M07 A3007 RMK AO2 SLP185 T00221067=
200901090552 METAR KATL 090552Z 31005KT 10SM CLR 03/M07 A3005 RMK AO2 SLP178 T00281067 10083 20028 53014=
200901090452 METAR KATL 090452Z 32009KT 10SM CLR 03/M07 A3003 RMK AO2 SLP173 T00331072 401390033=
200901090352 METAR KATL 090352Z 32010KT 10SM CLR 04/M07 A3002 RMK AO2 SLP168 T00441072=
200901090252 METAR KATL 090252Z 32010KT 10SM CLR 06/M07 A3001 RMK AO2 SLP165 T00561067 51027=
200901090152 METAR KATL 090152Z 28010KT 10SM CLR 06/M06 A2999 RMK AO2 SLP157 T00611061=
200901090052 METAR KATL 090052Z 30009KT 10SM CLR 07/M04 A2996 RMK AO2 SLP147 T00721039=
200901082352 METAR KATL 082352Z 29009KT 10SM CLR 08/M04 A2992 RMK AO2 SLP135 T00831039 10139 20083 51027=
200901082252 METAR KATL 082252Z 30016G23KT 10SM CLR 09/M04 A2991 RMK AO2 PK WND 32028/2214 SLP133 T00941044=
200901082152 METAR KATL 082152Z 29017G24KT 10SM CLR 12/M02 A2988 RMK AO2 PK WND 29029/2133 SLP120 T01171022=
200901082052 METAR KATL 082052Z 28018G26KT 10SM FEW060 SCT200 13/M02 A2984 RMK AO2 PK WND 30030/2027 SLP106 T01331022 53017=
200901081952 METAR KATL 081952Z 30020G27KT 10SM FEW055 13/00 A2981 RMK AO2 PK WND 28028/1940 SLP097 T01330000=
200901081852 METAR KATL 081852Z 30020G27KT 10SM FEW050 13/00 A2980 RMK AO2 PK WND 32027/1849 SLP091 T01330000=
200901081752 METAR KATL 081752Z 29015G20KT 10SM FEW050 13/02 A2979 RMK AO2 SLP089 T01330022 10133 20072 58006=
200901081652 SPECI KATL 081652Z 28016G21KT 10SM FEW030 12/03 A2980 RMK AO2 SLP094 T01220028=
200901081552 METAR KATL 081552Z 27011KT 10SM FEW095 09/03 A2982 RMK AO2 SLP099 T00940028=
200901081452 METAR KATL 081452Z 25010KT 10SM BKN100 08/02 A2981 RMK AO2 SLP096 T00830017 51017=
200901081352 METAR KATL 081352Z 25008KT 10SM BKN110 BKN250 08/01 A2980 RMK AO2 SLP092 T00780011=
200901081252 METAR KATL 081252Z 24010G17KT 10SM BKN120 BKN250 07/01 A2977 RMK AO2 SLP084 T00720006=
200901081152 METAR KATL 081152Z 24013G21KT 10SM BKN120 08/00 A2975 RMK AO2 SLP078 T00780000 10078 20044 55012=
200901081052 METAR KATL 081052Z 22009KT 10SM BKN110 06/00 A2975 RMK AO2 SLP076 T00610000=
200901080952 METAR KATL 080952Z 22007KT 10SM BKN180 05/M01 A2977 RMK AO2 SLP084 T00501006=
200901080852 METAR KATL 080852Z 22006KT 10SM SCT150 SCT250 05/M01 A2979 RMK AO2 SLP090 T00501006 58003=
200901080752 METAR KATL 080752Z 25004KT 10SM SCT120 BKN180 06/M01 A2980 RMK AO2 SLP093 T00611011=
200901080652 METAR KATL 080652Z 25005KT 10SM SCT110 SCT150 06/M02 A2981 RMK AO2 SLP096 T00561017=
200901080552 METAR KATL 080552Z 25005KT 10SM FEW100 06/M02 A2980 RMK AO2 SLP093 T00611017 10094 20061 50005=
200901080452 METAR KATL 080452Z 25005KT 10SM FEW120 06/M02 A2981 RMK AO2 SLP097 T00611017 401440061=
200901080352 METAR KATL 080352Z 25006KT 10SM FEW120 07/M02 A2981 RMK AO2 SLP095 T00671022=
200901080252 METAR KATL 080252Z 26008KT 10SM FEW150 07/M02 A2978 RMK AO2 SLP087 T00721022 51015=
200901080152 METAR KATL 080152Z 27008KT 10SM BKN150 08/M02 A2978 RMK AO2 SLP087 T00831022=
200901080052 METAR KATL 080052Z 26009KT 10SM FEW065 09/M02 A2976 RMK AO2 SLP076 T00891017=
200901072352 METAR KATL 072352Z 27009KT 10SM FEW065 09/M02 A2974 RMK AO2 PK WND 26031/2253 SLP070 T00891017 10117 20089 51025=
200901072252 METAR KATL 072252Z 26021G32KT 10SM FEW065 SCT090 10/M03 A2972 RMK AO2 PK WND 26032/2245 SLP065 VIRGA SE-S T01001028=
200901072152 METAR KATL 072152Z 26019G33KT 10SM FEW055 SCT070 SCT090 11/M02 A2968 RMK AO2 PK WND 25033/2152 SLP052 VIRGA DSNT S-SW-W-NW SHRA DSNT N-NE T01061022=
200901072052 METAR KATL 072052Z 26012G29KT 10SM FEW060 12/M02 A2966 RMK AO2 PK WND 28035/2040 SLP043 SHRA DSNT NW-N T01171022 50005=
200901071952 METAR KATL 071952Z 28020G31KT 10SM SCT060 11/M01 A2966 RMK AO2 PK WND 27038/1934 SLP043 T01111011=
200901071852 METAR KATL 071852Z 29024G32KT 10SM SCT050 11/00 A2965 RMK AO2 PK WND 29034/1817 SLP039 T01110000=
200901071752 METAR KATL 071752Z 28021G29KT 10SM FEW035 SCT060 10/03 A2964 RMK AO2 PK WND 28040/1721 SLP037 60000 T01000028 10128 20089 53022=
200901071722 SPECI KATL 071722Z 28030G40KT 10SM FEW030 SCT040 BKN060 09/03 A2963 RMK AO2 PK WND 28040/1721=
200901071722 SPECI KATL 071722Z 28030G40KT 10SM FEW030 SCT040 BKN060 09/03 A2963 RMK AO2 PK WND 28040/1721=
200901071652 METAR KATL 071652Z 27021G29KT 10SM FEW020 SCT030 BKN040 09/06 A2963 RMK AO2 PK WND 27034/1640 RAB11E25 SLP032 P0000 T00940056=
200901071625 SPECI KATL 071625Z 27018G31KT 10SM FEW015CB SCT040 SCT050 BKN200 09/06 A2962 RMK AO2 PK WND 26034/1613 RAB11E25 VIS LWR NE-E-SE SHRA CB NE-E-SE MOV E P0000=
200901071625 SPECI KATL 071625Z 27018G31KT 10SM FEW015CB SCT040 SCT050 BKN200 09/06 A2962 RMK AO2 PK WND 26034/1613 RAB11E25 VIS LWR NE-E-SE SHRA CB NE-E-SE MOV E P0000=
200901071616 SPECI KATL 071616Z 27023G34KT 5SM -RA BKN030CB BKN040 OVC050 09/06 A2962 RMK AO2 PK WND 26034/1613 RAB11 PRESRR CB OHD MOV E P0000=
200901071616 SPECI KATL 071616Z 27023G34KT 5SM -RA BKN030CB BKN040 OVC050 09/06 A2962 RMK AO2 PK WND 26034/1613 RAB11 PRESRR CB OHD MOV E P0000=
200901071614 SPECI KATL 071614Z 28026G34KT 5SM -RA SCT030CB BKN040 OVC060 11/06 A2962 RMK AO2 PK WND 26034/1613 RAB11 PRESRR VIS LWR W-NW-N SHRA CB OHD-W-NW-N MOV E P0000=
200901071614 SPECI KATL 071614Z 28026G34KT 5SM -RA SCT030CB BKN040 OVC060 11/06 A2962 RMK AO2 PK WND 26034/1613 RAB11 PRESRR VIS LWR W-NW-N SHRA CB OHD-W-NW-N MOV E P0000=
200901071611 SPECI KATL 071611Z 26023G31KT 9SM -RA SCT030CB BKN040 BKN060 BKN200 12/06 A2960 RMK AO2 PK WND 24031/1604 RAB11 VIS LWR W-NW-N SHRA CB OHD-W-NW-N MOV E P0000=
200901071611 SPECI KATL 071611Z 26023G31KT 9SM -RA SCT030CB BKN040 BKN060 BKN200 12/06 A2960 RMK AO2 PK WND 24031/1604 RAB11 VIS LWR W-NW-N SHRA CB OHD-W-NW-N MOV E P0000=
200901071602 SPECI KATL 071602Z 25019G27KT 10SM FEW030 SCT040 BKN050 12/06 A2959 RMK AO2 PK WND 24027/1558 SHRA W-NW-N=
200901071602 SPECI KATL 071602Z 25019G27KT 10SM FEW030 SCT040 BKN050 12/06 A2959 RMK AO2 PK WND 24027/1558 SHRA W-NW-N=
200901071552 METAR KATL 071552Z 26021G29KT 10SM FEW023 SCT030 BKN040 12/06 A2958 RMK AO2 PK WND 26029/1549 SLP016 T01170061=
200901071452 METAR KATL 071452Z 25014G22KT 10SM FEW035 BKN045 BKN055 11/08 A2958 RMK AO2 RAB15E44 SLP012 VIS LWR SHRA E S P0000 60000 T01060078 51014=
200901071413 SPECI KATL 071413Z 25016G22KT 10SM SCT027 BKN030 BKN060 12/08 A2957 RMK AO2=
200901071413 SPECI KATL 071413Z 25016G22KT 10SM SCT027 BKN030 BKN060 12/08 A2957 RMK AO2=
200901071352 METAR KATL 071352Z 24017G25KT 10SM BKN027 BKN150 12/08 A2956 RMK AO2 SLP007 T01170083=
200901071252 METAR KATL 071252Z 26014G19KT 10SM FEW005 BKN022 BKN029 12/09 A2956 RMK AO2 SLP004 T01220094=
200901071152 METAR KATL 071152Z 24013G20KT 10SM BKN018 BKN025 13/11 A2953 RMK AO2 SLP997 60084 70102 T01280106 10139 20128 53003=
200901071052 METAR KATL 071052Z 23013G20KT 10SM BKN015 OVC023 13/12 A2953 RMK AO2 SLP993 T01330117=
200901070952 METAR KATL 070952Z 24009KT 6SM BR BKN012 OVC100 13/12 A2950 RMK AO2 RAE45 SLP985 P0001 T01280122=
200901070931 SPECI KATL 070931Z 23009G18KT 6SM -RA BR BKN014 OVC100 13/12 A2952 RMK AO2 P0001=
200901070931 SPECI KATL 070931Z 23009G18KT 6SM -RA BR BKN014 OVC100 13/12 A2952 RMK AO2 P0001=
200901070852 METAR KATL 070852Z 24011G17KT 6SM -RA BR SCT013 BKN019 OVC050 13/12 A2953 RMK AO2 SLP993 P0011 60083 T01330122 51010=
200901070752 METAR KATL 070752Z 28008KT 5SM RA BR SCT005 BKN019 OVC049 13/12 A2952 RMK AO2 SLP993 P0027 T01280122=
200901070738 SPECI KATL 070738Z 30009KT 4SM RA BR FEW005 BKN017 OVC049 13/12 A2950 RMK AO2 P0022=
200901070738 SPECI KATL 070738Z 30009KT 4SM RA BR FEW005 BKN017 OVC049 13/12 A2950 RMK AO2 P0022=
200901070730 SPECI KATL 070730Z 29010KT 3SM +RA BR BKN014 BKN046 OVC055 13/13 A2951 RMK AO2 P0018=
200901070730 SPECI KATL 070730Z 29010KT 3SM +RA BR BKN014 BKN046 OVC055 13/13 A2951 RMK AO2 P0018=
200901070721 SPECI KATL 070721Z 29007KT 2 1/2SM +RA BR FEW006 BKN016 OVC049 13/13 A2951 RMK AO2 P0010=
200901070721 SPECI KATL 070721Z 29007KT 2 1/2SM +RA BR FEW006 BKN016 OVC049 13/13 A2951 RMK AO2 P0010=
200901070652 METAR KATL 070652Z 29005KT 6SM -RA BR BKN006 BKN011 OVC032 13/13 A2951 RMK AO2 SLP990 P0045 T01330128=
200901070627 SPECI KATL 070627Z 30011KT 5SM RA BR BKN006 BKN015 OVC020 14/13 A2953 RMK AO2 P0042=
200901070627 SPECI KATL 070627Z 30011KT 5SM RA BR BKN006 BKN015 OVC020 14/13 A2953 RMK AO2 P0042=
200901070618 SPECI KATL 070618Z 29011KT 2SM +RA BR BKN008 BKN021 OVC032 14/13 A2954 RMK AO2 P0038=
200901070618 SPECI KATL 070618Z 29011KT 2SM +RA BR BKN008 BKN021 OVC032 14/13 A2954 RMK AO2 P0038=
200901070606 SPECI KATL 070606Z 27007G18KT 1 1/2SM R09R/4000VP6000FT +RA BR FEW006 BKN021 OVC032 14/13 A2953 RMK AO2 PRESRR P0010=
200901070606 SPECI KATL 070606Z 27007G18KT 1 1/2SM R09R/4000VP6000FT +RA BR FEW006 BKN021 OVC032 14/13 A2953 RMK AO2 PRESRR P0010=
200901070552 METAR KATL 070552Z 14003KT 10SM -RA FEW006 BKN025 OVC040 14/13 A2949 RMK AO2 RAE0456B52 PRESFR SLP983 P0000 60017 T01390133 10206 20139 58028=
200901070534 SPECI KATL 070534Z 00000KT 10SM SCT006 OVC028 14/13 A2952 RMK AO2 RAE0456 P0000=
200901070534 SPECI KATL 070534Z 00000KT 10SM SCT006 OVC028 14/13 A2952 RMK AO2 RAE0456 P0000=
200901070452 METAR KATL 070452Z 30005KT 10SM -RA BKN006 BKN028 OVC045 14/13 A2956 RMK AO2 TSE13 SLP005 TS DSIPTD P0017 T01390133 402170139=
200901070435 SPECI KATL 070435Z 30007KT 7SM -RA BKN006 BKN028 OVC055 14/14 A2957 RMK AO2 TSE13 TS DSIPTD P0017=
200901070435 SPECI KATL 070435Z 30007KT 7SM -RA BKN006 BKN028 OVC055 14/14 A2957 RMK AO2 TSE13 TS DSIPTD P0017=
200901070413 SPECI KATL 070413Z 31008G16KT 5SM -RA SCT005 BKN030 OVC050 14/14 A2958 RMK AO2 TSE13 TS DSIPTD P0015=
200901070413 SPECI KATL 070413Z 31008G16KT 5SM -RA SCT005 BKN030 OVC050 14/14 A2958 RMK AO2 TSE13 TS DSIPTD P0015=
200901070407 SPECI KATL 070407Z 31011KT 2SM +TSRA BR FEW008 BKN025CB OVC040 14/14 A2958 RMK AO2 OCNL LTGIC NE TS NE MOV NE P0013=
200901070407 SPECI KATL 070407Z 31011KT 2SM +TSRA BR FEW008 BKN025CB OVC040 14/14 A2958 RMK AO2 OCNL LTGIC NE TS NE MOV NE P0013=
200901070401 SPECI KATL 070401Z 31014G18KT 3SM TSRA BR SCT014 BKN025CB OVC040 14/14 A2958 RMK AO2 OCNL LTGIC NE-SE TS NE-SE MOV NE P0010=
200901070401 SPECI KATL 070401Z 31014G18KT 3SM TSRA BR SCT014 BKN025CB OVC040 14/14 A2958 RMK AO2 OCNL LTGIC NE-SE TS NE-SE MOV NE P0010=
200901070352 METAR KATL 070352Z 30009G21KT 260V330 5SM R09R/6000VP6000FT TSRA BR BKN014 BKN022CB OVC060 15/14 A2958 RMK AO2 PK WND 19026/0301 WSHFT 0332 TSB46RAB23 SLP010 OCNL LTGIC NW TS NW MOV NE VIS SW-NW 2 P0000 T01500139=
200901070346 SPECI KATL 070346Z 34011G23KT 7SM -TSRA SCT015 BKN022CB OVC060 16/14 A2958 RMK AO2 PK WND 19026/0301 WSHFT 0332 TSB46RAB23 PRESRR OCNL LTGIC NW TS NW MOV NE P0000=
200901070346 SPECI KATL 070346Z 34011G23KT 7SM -TSRA SCT015 BKN022CB OVC060 16/14 A2958 RMK AO2 PK WND 19026/0301 WSHFT 0332 TSB46RAB23 PRESRR OCNL LTGIC NW TS NW MOV NE P0000=
200901070324 SPECI KATL 070324Z 18016G23KT 10SM -RA BKN026 BKN035 OVC070 20/16 A2956 RMK AO2 PK WND 19026/0301 RAB23 P0000=
200901070324 SPECI KATL 070324Z 18016G23KT 10SM -RA BKN026 BKN035 OVC070 20/16 A2956 RMK AO2 PK WND 19026/0301 RAB23 P0000=
200901070252 METAR KATL 070252Z 20015G23KT 10SM FEW028 BKN070 OVC085 20/16 A2958 RMK AO2 PK WND 20032/0159 SLP009 T02000156 58016=
200901070152 METAR KATL 070152Z 21014G27KT 10SM BKN032 BKN040 OVC090 21/16 A2961 RMK AO2 PK WND 21030/0116 SLP021 T02060156=
200901070052 METAR KATL 070052Z 20013G23KT 10SM BKN035 BKN090 BKN250 21/15 A2962 RMK AO2 PK WND 18026/0019 SLP023 T02060150=
200901062352 METAR KATL 062352Z 19020G25KT 10SM FEW045 BKN090 BKN200 21/16 A2963 RMK AO2 SLP025 60000 T02060156 10217 20183 58007=
200901062252 METAR KATL 062252Z 19016G24KT 10SM FEW070 BKN090 BKN200 21/16 A2963 RMK AO2 PK WND 19028/2202 SLP027 T02110156=
200901062152 METAR KATL 062152Z 19013G24KT 10SM FEW025 SCT045 BKN075 22/16 A2965 RMK AO2 PK WND 19027/2114 SLP034 T02170156=
200901062052 METAR KATL 062052Z 20015G25KT 10SM FEW025 BKN040 BKN050 22/16 A2965 RMK AO2 SLP033 60000 T02170156 56026=
200901061952 METAR KATL 061952Z 18012KT 10SM FEW015 BKN040 BKN060 BKN250 21/17 A2965 RMK AO2 SLP035 T02060172=
200901061913 SPECI KATL 061913Z 18012KT 10SM SCT013 BKN020 OVC040 19/17 A2968 RMK AO2 BINOVC S=
200901061913 SPECI KATL 061913Z 18012KT 10SM SCT013 BKN020 OVC040 19/17 A2968 RMK AO2 BINOVC S=
200901061852 METAR KATL 061852Z 19012G20KT 10SM BKN012 BKN020 OVC050 19/17 A2968 RMK AO2 RAB1759E04 SLP045 P0000 T01890172=
200901061752 METAR KATL 061752Z 19014KT 9SM OVC012 18/17 A2973 RMK AO2 RAB18E50 SLP062 P0000 60001 T01830167 10189 20172 58033=
200901061652 METAR KATL 061652Z 20010G19KT 10SM OVC012 18/17 A2978 RMK AO2 SLP079 T01830167=
200901061552 METAR KATL 061552Z 21013KT 10SM OVC014 19/17 A2981 RMK AO2 SLP089 T01890167=
200901061520 SPECI KATL 061520Z 21013KT 10SM OVC014 18/17 A2982 RMK AO2=
200901061520 SPECI KATL 061520Z 21013KT 10SM OVC014 18/17 A2982 RMK AO2=
200901061502 SPECI KATL 061502Z 21014G19KT 10SM BKN016 OVC021 18/17 A2983 RMK AO2=
200901061502 SPECI KATL 061502Z 21014G19KT 10SM BKN016 OVC021 18/17 A2983 RMK AO2=
200901061452 METAR KATL 061452Z 21011G18KT 10SM BKN014 OVC023 18/17 A2983 RMK AO2 SLP096 60001 T01830167 53004=
200901061352 METAR KATL 061352Z 21010G18KT 8SM BKN012 BKN018 18/17 A2982 RMK AO2 SLP095 T01830167=
200901061252 METAR KATL 061252Z 21013KT 10SM BKN014 OVC021 18/17 A2981 RMK AO2 RAE18 SLP089 P0001 T01780167=
200901061152 METAR KATL 061152Z 22011G19KT 7SM -RA OVC013 18/16 A2982 RMK AO2 RAB33 SLP092 P0000 60000 70073 T01780161 10178 20167 55001=
200901061052 METAR KATL 061052Z 22012G20KT 8SM BKN013 OVC019 18/16 A2982 RMK AO2 SLP091 T01780161=
200901060952 METAR KATL 060952Z 22013G20KT 8SM BKN013 OVC020 18/16 A2982 RMK AO2 SLP092 T01780156=
200901060947 SPECI KATL 060947Z 22013G20KT 8SM BKN013 OVC020 18/16 A2982 RMK AO2=
200901060947 SPECI KATL 060947Z 22013G20KT 8SM BKN013 OVC020 18/16 A2982 RMK AO2=
200901060852 METAR KATL 060852Z 22013G22KT 8SM BKN015 OVC022 18/16 A2984 RMK AO2 PK WND 21026/0819 SLP097 60000 T01780156 55004=
200901060752 METAR KATL 060752Z 21014KT 7SM BKN015 OVC020 17/16 A2983 RMK AO2 RAB02E29 SLP095 P0000 T01720156=
200901060652 METAR KATL 060652Z 22015G21KT 7SM BKN015 OVC022 17/16 A2983 RMK AO2 RAB04E34 SLP098 P0000 T01720156=
200901060552 METAR KATL 060552Z 20016KT 9SM BKN008 BKN015 OVC030 17/16 A2985 RMK AO2 RAE50 SLP102 CIG 006V010 P0006 60055 T01670156 10172 20161 58028=
200901060452 METAR KATL 060452Z 19010KT 6SM -RA BR BKN007 BKN015 OVC035 17/16 A2989 RMK AO2 SLP116 CIG 005V009 P0018 T01670161 401940144=
200901060352 METAR KATL 060352Z 18009KT 3SM RA BR BKN006 OVC020 17/16 A2992 RMK AO2 SFC VIS 5 SLP128 CIG 004V009 P0021 T01670161=
200901060252 METAR KATL 060252Z 19008KT 3SM -RA BR BKN006 BKN012 OVC025 16/16 A2993 RMK AO2 SFC VIS 5 SLP132 P0009 60010 T01610156 58008=
200901060234 SPECI KATL 060234Z 19008KT 5SM RA BR BKN007 BKN012 OVC025 16/16 A2994 RMK AO2 P0005=
200901060234 SPECI KATL 060234Z 19008KT 5SM RA BR BKN007 BKN012 OVC025 16/16 A2994 RMK AO2 P0005=
200901060228 SPECI KATL 060228Z 19009KT 6SM -RA BR SCT007 BKN011 OVC020 17/16 A2994 RMK AO2 P0003=
200901060228 SPECI KATL 060228Z 19009KT 6SM -RA BR SCT007 BKN011 OVC020 17/16 A2994 RMK AO2 P0003=
200901060152 METAR KATL 060152Z 20007KT 10SM -RA SCT016 BKN023 OVC090 17/16 A2995 RMK AO2 SLP139 P0001 T01670156=
200901060107 SPECI KATL 060107Z 20005KT 9SM -RA SCT017 BKN023 OVC070 17/16 A2995 RMK AO2 P0000=
200901060107 SPECI KATL 060107Z 20005KT 9SM -RA SCT017 BKN023 OVC070 17/16 A2995 RMK AO2 P0000=
200901060052 METAR KATL 060052Z 19005KT 10SM -RA FEW015 SCT030 BKN070 OVC140 17/16 A2995 RMK AO2 RAB50 SLP139 P0000 T01720161=
200901060050 SPECI KATL 060050Z 19005KT 10SM -RA FEW015 SCT030 BKN070 OVC140 17/16 A2995 RMK AO2 RAB50 P0000=
200901060050 SPECI KATL 060050Z 19005KT 10SM -RA FEW015 SCT030 BKN070 OVC140 17/16 A2995 RMK AO2 RAB50 P0000=
200901060014 SPECI KATL 060014Z 20004KT 10SM SCT022 BKN028 OVC040 17/16 A2996 RMK AO2=
200901060014 SPECI KATL 060014Z 20004KT 10SM SCT022 BKN028 OVC040 17/16 A2996 RMK AO2=
200901052352 METAR KATL 052352Z 23003KT 10SM SCT027 BKN035 OVC050 17/16 A2996 RMK AO2 RAE38 SLP140 P0002 60004 T01720161 10194 20167 58009=
200901052252 METAR KATL 052252Z 17005KT 7SM -RA SCT035 BKN080 OVC110 17/16 A2996 RMK AO2 RAB17 SLP142 P0002 T01720161=
200901052152 METAR KATL 052152Z 24003KT 10SM FEW015 SCT030 BKN090 BKN200 19/15 A2998 RMK AO2 SLP149 T01890150=
200901052052 METAR KATL 052052Z 26005KT 10SM FEW018 SCT026 SCT050 19/15 A2998 RMK AO2 SLP149 T01940150 56021=
200901052022 SPECI KATL 052022Z 25006KT 10SM BKN018 BKN023 BKN050 19/15 A3000 RMK AO2=
200901052022 SPECI KATL 052022Z 25006KT 10SM BKN018 BKN023 BKN050 19/15 A3000 RMK AO2=
200901051954 SPECI KATL 051954Z 25006KT 10SM SCT018 BKN033 BKN046 19/15 A3000 RMK AO2=
200901051954 SPECI KATL 051954Z 25006KT 10SM SCT018 BKN033 BKN046 19/15 A3000 RMK AO2=
200901051952 METAR KATL 051952Z 24006KT 10SM SCT018 BKN025 BKN080 19/15 A3000 RMK AO2 SLP157 T01890150=
200901051852 METAR KATL 051852Z 26005KT 10SM OVC015 18/15 A3003 RMK AO2 SLP164 T01780150=
200901051832 SPECI KATL 051832Z 26005KT 10SM BKN015 OVC022 18/15 A3003 RMK AO2=
200901051832 SPECI KATL 051832Z 26005KT 10SM BKN015 OVC022 18/15 A3003 RMK AO2=
200901051752 METAR KATL 051752Z 25003KT 10SM BKN013 BKN055 BKN110 18/16 A3005 RMK AO2 PRESFR SLP172 60014 T01780156 10183 20150 58026=
200901051701 SPECI KATL 051701Z 23008KT 10SM BKN011 OVC033 18/16 A3009 RMK AO2=
200901051701 SPECI KATL 051701Z 23008KT 10SM BKN011 OVC033 18/16 A3009 RMK AO2=
200901051652 METAR KATL 051652Z 25006KT 10SM BKN011 BKN033 BKN110 18/16 A3009 RMK AO2 SLP186 T01780156=
200901051552 METAR KATL 051552Z 26005KT 10SM SCT008 BKN110 BKN150 17/16 A3012 RMK AO2 SLP198 T01670156=
200901051452 METAR KATL 051452Z 25005KT 10SM FEW003 SCT085 SCT110 BKN150 16/15 A3013 RMK AO2 RAE03 SLP200 P0001 60014 T01560150 53003=
200901051443 SPECI KATL 051443Z 24006KT 10SM BKN003 BKN085 BKN110 16/15 A3013 RMK AO2 RAE03 P0001=
200901051443 SPECI KATL 051443Z 24006KT 10SM BKN003 BKN085 BKN110 16/15 A3013 RMK AO2 RAE03 P0001=
200901051352 METAR KATL 051352Z 23004KT 6SM -RA BR FEW004 BKN065 BKN085 15/14 A3012 RMK AO2 SLP196 P0004 T01500144=
200901051350 SPECI KATL 051350Z 22004KT 6SM -RA BR FEW004 BKN065 BKN085 15/14 A3012 RMK AO2 P0004=
200901051350 SPECI KATL 051350Z 22004KT 6SM -RA BR FEW004 BKN065 BKN085 15/14 A3012 RMK AO2 P0004=
200901051252 METAR KATL 051252Z 24004KT 3SM -RA BR BKN043 BKN080 15/14 A3012 RMK AO2 SFC VIS 5 SLP197 P0009 T01500144=
200901051154 SPECI KATL 051154Z 25005KT 3SM RA BR BKN022 BKN031 OVC041 16/14 A3011 RMK AO2 SFC VIS 5 P0001=
200901051154 SPECI KATL 051154Z 25005KT 3SM RA BR BKN022 BKN031 OVC041 16/14 A3011 RMK AO2 SFC VIS 5 P0001=
200901051152 METAR KATL 051152Z 26006KT 5SM RA BR BKN022 OVC026 16/14 A3011 RMK AO2 RAB29 SLP194 P0002 60002 70002 T01560144 10156 20144 53005=
200901051116 SPECI KATL 051116Z 22004KT 10SM BKN022 OVC042 15/14 A3010 RMK AO2=
200901051116 SPECI KATL 051116Z 22004KT 10SM BKN022 OVC042 15/14 A3010 RMK AO2=
200901051052 METAR KATL 051052Z 00000KT 10SM SCT022 SCT038 BKN080 15/14 A3010 RMK AO2 SLP188 T01500144=
200901051049 SPECI KATL 051049Z 00000KT 10SM SCT022 SCT038 BKN080 15/14 A3010 RMK AO2=
200901051049 SPECI KATL 051049Z 00000KT 10SM SCT022 SCT038 BKN080 15/14 A3010 RMK AO2=
200901050952 METAR KATL 050952Z 21005KT 10SM BKN022 OVC080 15/14 A3010 RMK AO2 SLP188 T01500144=
200901050852 METAR KATL 050852Z 00000KT 9SM BKN022 OVC030 15/14 A3011 RMK AO2 SLP192 T01500144 58006=
200901050752 METAR KATL 050752Z 22003KT 7SM BKN022 OVC080 14/14 A3012 RMK AO2 SLP197 T01440144=
200901050713 SPECI KATL 050713Z 17003KT 8SM SCT024 BKN080 15/14 A3012 RMK AO2=
200901050713 SPECI KATL 050713Z 17003KT 8SM SCT024 BKN080 15/14 A3012 RMK AO2=
200901050652 METAR KATL 050652Z 14003KT 8SM BKN019 BKN024 OVC075 15/14 A3012 RMK AO2 SLP199 T01500144=
200901050552 METAR KATL 050552Z 20003KT 7SM OVC017 15/14 A3014 RMK AO2 SLP205 T01500144 10172 20144 58004=
200901050452 METAR KATL 050452Z 24003KT 7SM FEW015 OVC022 15/14 A3015 RMK AO2 SLP209 T01500139 401830122=
200901050430 SPECI KATL 050430Z 00000KT 7SM BKN022 OVC034 15/14 A3016 RMK AO2=
200901050430 SPECI KATL 050430Z 00000KT 7SM BKN022 OVC034 15/14 A3016 RMK AO2=
200901050352 METAR KATL 050352Z 00000KT 8SM FEW021 BKN038 15/14 A3016 RMK AO2 SLP209 T01500139=
200901050347 SPECI KATL 050347Z 00000KT 7SM SCT021 BKN040 15/14 A3016 RMK AO2=
200901050347 SPECI KATL 050347Z 00000KT 7SM SCT021 BKN040 15/14 A3016 RMK AO2=
200901050252 METAR KATL 050252Z 00000KT 7SM BKN021 16/14 A3016 RMK AO2 SLP209 T01560139 50006=
200901050152 METAR KATL 050152Z 00000KT 7SM BKN021 OVC029 16/14 A3016 RMK AO2 SLP210 T01610144=
200901050052 METAR KATL 050052Z 17004KT 7SM BKN017 BKN028 16/14 A3015 RMK AO2 SLP208 T01610144=
200901042352 METAR KATL 042352Z 00000KT 8SM FEW020 BKN028 17/14 A3014 RMK AO2 SLP203 T01720144 10183 20156 51008=
200901042252 METAR KATL 042252Z 00000KT 7SM OVC018 17/14 A3014 RMK AO2 SLP203 T01670139=
200901042152 METAR KATL 042152Z 30003KT 7SM BKN018 17/14 A3012 RMK AO2 SLP198 T01720139=
200901042146 SPECI KATL 042146Z 29004KT 7SM BKN018 17/14 A3012 RMK AO2=
200901042146 SPECI KATL 042146Z 29004KT 7SM BKN018 17/14 A3012 RMK AO2=
200901042102 SPECI KATL 042102Z 00000KT 7SM SCT014 18/14 A3011 RMK AO2 SCT014V BKN=
200901042102 SPECI KATL 042102Z 00000KT 7SM SCT014 18/14 A3011 RMK AO2 SCT014V BKN=
200901042052 METAR KATL 042052Z 00000KT 7SM BKN014 17/14 A3011 RMK AO2 SLP195 BKN014V SCT T01720139 56004=
200901041952 METAR KATL 041952Z 28003KT 7SM BKN012 17/14 A3012 RMK AO2 SLP196 T01670139=
200901041907 SPECI KATL 041907Z 00000KT 7SM OVC010 16/14 A3011 RMK AO2 BINOVC OHD AND NE=
200901041907 SPECI KATL 041907Z 00000KT 7SM OVC010 16/14 A3011 RMK AO2 BINOVC OHD AND NE=
200901041852 METAR KATL 041852Z 31004KT 6SM BR OVC008 16/14 A3011 RMK AO2 SLP195 CIG 007V012 T01610139=
200901041752 METAR KATL 041752Z 28005KT 6SM BR OVC006 16/14 A3012 RMK AO2 SLP199 T01560139 10156 20122 58008=
200901041652 METAR KATL 041652Z 24004KT 6SM BR OVC006 15/14 A3015 RMK AO2 SLP207 T01500139=
200901041605 SPECI KATL 041605Z 21003KT 6SM BR OVC006 14/14 A3016 RMK AO2 CIG 003V009=
200901041605 SPECI KATL 041605Z 21003KT 6SM BR OVC006 14/14 A3016 RMK AO2 CIG 003V009=
200901041552 METAR KATL 041552Z COR 21006KT 1 1/2SM BR OVC005 14/14 A3015 RMK AO2 SFC VIS 5 CIG 003V008 SLP209 TWRINC T01440139=
200901041541 SPECI KATL 041541Z 00000KT 1 1/2SM BR BKN003 OVC007 14/14 A3015 RMK AO2 SFC VIS 5 CIG 002V008 TWRINC=
200901041541 SPECI KATL 041541Z 00000KT 1 1/2SM BR BKN003 OVC007 14/14 A3015 RMK AO2 SFC VIS 5 CIG 002V008 TWRINC=
200901041518 SPECI KATL 041518Z 13003KT 1/8SM BR OVC003 14/13 A3015 RMK AO2 SFC VIS 4 TWRINC=
200901041518 SPECI KATL 041518Z 13003KT 1/8SM BR OVC003 14/13 A3015 RMK AO2 SFC VIS 4 TWRINC=
200901041452 METAR KATL 041452Z 14003KT 1/8SM R09R/3000VP6000FT BR BKN001 OVC006 13/13 A3015 RMK AO2 SFC VIS 1 SLP208 TWRINC T01330133 51023=
200901041432 SPECI KATL 041432Z 00000KT 1/8SM R09R/2200V3500FT FG VV001 13/13 A3015 RMK AO2 SFC VIS 1/4 TWRINC=
200901041432 SPECI KATL 041432Z 00000KT 1/8SM R09R/2200V3500FT FG VV001 13/13 A3015 RMK AO2 SFC VIS 1/4 TWRINC=
200901041408 SPECI KATL 041408Z 14003KT 1/8SM R09R/1600V2200FT FG OVC001 13/13 A3013 RMK AO2 SFC VIS 1/4 TWRINC=
200901041408 SPECI KATL 041408Z 14003KT 1/8SM R09R/1600V2200FT FG OVC001 13/13 A3013 RMK AO2 SFC VIS 1/4 TWRINC=
200901041352 METAR KATL 041352Z 12004KT 1/8SM R09R/1600V2000FT FG VV001 13/13 A3013 RMK AO2 SFC VIS 1/4 SLP201 TWRINC T01280128=
200901041336 SPECI KATL 041336Z 11004KT 1/8SM R09R/1200V1600FT FG VV001 13/13 A3012 RMK AO2 TWR VIS 1/2=
200901041336 SPECI KATL 041336Z 11004KT 1/8SM R09R/1200V1600FT FG VV001 13/13 A3012 RMK AO2 TWR VIS 1/2=
200901041322 SPECI KATL 041322Z 00000KT 1/4SM R09R/1400V2200FT FG VV001 13/13 A3012 RMK AO2 TWR VIS 1/2=
200901041322 SPECI KATL 041322Z 00000KT 1/4SM R09R/1400V2200FT FG VV001 13/13 A3012 RMK AO2 TWR VIS 1/2=
200901041300 SPECI KATL 041300Z 00000KT 1/4SM R09R/2000V3000FT FG VV001 12/12 A3011 RMK AO2 TWR VIS 1/2=
200901041300 SPECI KATL 041300Z 00000KT 1/4SM R09R/2000V3000FT FG VV001 12/12 A3011 RMK AO2 TWR VIS 1/2=
200901041252 METAR KATL 041252Z 17003KT 1/2SM R09R/2400VP6000FT BR OVC002 12/12 A3011 RMK AO2 SFC VIS 3/4 SLP194 T01220122=
200901041213 SPECI KATL 041213Z 07003KT 1/2SM BR BKN002 OVC030 13/13 A3009 RMK AO2 SFC VIS 4=
200901041213 SPECI KATL 041213Z 07003KT 1/2SM BR BKN002 OVC030 13/13 A3009 RMK AO2 SFC VIS 4=
200901041152 METAR KATL 041152Z 12005KT 2SM BCFG BR BKN002 BKN030 OVC070 13/13 A3008 RMK AO2 SFC VIS 4 RAB01E27 SLP184 P0001 60004 70031 T01280128 10133 20128 53006=
200901041148 SPECI KATL 041148Z 11004KT 2SM BCFG BR BKN002 BKN031 OVC070 13/13 A3008 RMK AO2 SFC VIS 4 RAB01E27 P0001=
200901041148 SPECI KATL 041148Z 11004KT 2SM BCFG BR BKN002 BKN031 OVC070 13/13 A3008 RMK AO2 SFC VIS 4 RAB01E27 P0001=
200901041111 SPECI KATL 041111Z 09004KT 1SM -RA BR BKN002 BKN031 OVC070 13/13 A3007 RMK AO2 SFC VIS 3 RAB01 P0001=
200901041111 SPECI KATL 041111Z 09004KT 1SM -RA BR BKN002 BKN031 OVC070 13/13 A3007 RMK AO2 SFC VIS 3 RAB01 P0001=
200901041059 SPECI KATL 041059Z 00000KT 5SM BR BKN002 OVC031 13/13 A3007 RMK AO2=
200901041059 SPECI KATL 041059Z 00000KT 5SM BR BKN002 OVC031 13/13 A3007 RMK AO2=
200901041052 METAR KATL 041052Z 00000KT 5SM BR SCT002 BKN033 OVC070 13/13 A3007 RMK AO2 RAE17B40E52 SLP181 P0000 T01280128=
200901041017 SPECI KATL 041017Z 06006KT 5SM BR FEW002 BKN042 OVC050 13/13 A3006 RMK AO2 RAE17 P0000=
200901041017 SPECI KATL 041017Z 06006KT 5SM BR FEW002 BKN042 OVC050 13/13 A3006 RMK AO2 RAE17 P0000=
200901041007 SPECI KATL 041007Z 07007KT 5SM -RA BR SCT002 BKN028 OVC049 13/12 A3006 RMK AO2 P0000=
200901041007 SPECI KATL 041007Z 07007KT 5SM -RA BR SCT002 BKN028 OVC049 13/12 A3006 RMK AO2 P0000=
200901040952 METAR KATL 040952Z 07003KT 5SM -RA BR FEW004 SCT039 OVC048 13/13 A3006 RMK AO2 SLP178 P0001 T01280128=
200901040948 SPECI KATL 040948Z 00000KT 7SM -RA FEW004 SCT039 OVC048 13/13 A3006 RMK AO2 P0001=
200901040948 SPECI KATL 040948Z 00000KT 7SM -RA FEW004 SCT039 OVC048 13/13 A3006 RMK AO2 P0001=
200901040852 METAR KATL 040852Z 07003KT 7SM -RA BKN055 BKN070 OVC080 13/12 A3006 RMK AO2 RAB29 SLP178 P0001 60002 T01280122 53004=
200901040752 METAR KATL 040752Z 09003KT 10SM FEW020 OVC070 13/13 A3004 RMK AO2 RAE17 SLP172 P0000 T01280128=
200901040652 METAR KATL 040652Z 11004KT 10SM -RA FEW020 SCT060 OVC075 13/13 A3003 RMK AO2 RAE19B35 SLP168 P0001 T01330128=
200901040552 METAR KATL 040552Z 21003KT 10SM -RA FEW020 SCT065 OVC085 13/12 A3005 RMK AO2 SLP175 P0003 60027 T01330122 10144 20133 58006=
200901040452 METAR KATL 040452Z 23007KT 8SM -RA SCT060 OVC075 14/13 A3007 RMK AO2 SLP182 P0005 T01390128 401440078=
200901040352 METAR KATL 040352Z 21011KT 6SM -RA BR FEW008 OVC065 14/13 A3008 RMK AO2 WSHFT 0306 TSB04E44RAB05 SLP186 TS MOV E P0019 T01390133=
200901040350 SPECI KATL 040350Z 21010KT 6SM -RA BR FEW008 OVC060 14/13 A3008 RMK AO2 WSHFT 0306 TSB04E44RAB05 TS MOV E P0019=
200901040350 SPECI KATL 040350Z 21010KT 6SM -RA BR FEW008 OVC060 14/13 A3008 RMK AO2 WSHFT 0306 TSB04E44RAB05 TS MOV E P0019=
200901040344 SPECI KATL 040344Z 21010KT 4SM -RA BR FEW001 BKN008 OVC026 14/14 A3008 RMK AO2 WSHFT 0306 TSB04E44RAB05 TS MOV E P0019=
200901040344 SPECI KATL 040344Z 21010KT 4SM -RA BR FEW001 BKN008 OVC026 14/14 A3008 RMK AO2 WSHFT 0306 TSB04E44RAB05 TS MOV E P0019=
200901040338 SPECI KATL 040338Z 21010KT 6SM TSRA BR FEW001 BKN011CB OVC048 14/14 A3008 RMK AO2 WSHFT 0306 TSB04RAB05 OCNL LTGIC SE TS SE MOV NE P0018=
200901040338 SPECI KATL 040338Z 21010KT 6SM TSRA BR FEW001 BKN011CB OVC048 14/14 A3008 RMK AO2 WSHFT 0306 TSB04RAB05 OCNL LTGIC SE TS SE MOV NE P0018=
200901040324 SPECI KATL 040324Z 24009KT 2SM R09R/6000VP6000FT TSRA BR FEW007CB BKN014 OVC048 14/14 A3008 RMK AO2 WSHFT 0306 TSB04RAB05 OCNL LTGICCG OHD-E-S TS OHD-E-S MOV NE P0016=
200901040324 SPECI KATL 040324Z 24009KT 2SM R09R/6000VP6000FT TSRA BR FEW007CB BKN014 OVC048 14/14 A3008 RMK AO2 WSHFT 0306 TSB04RAB05 OCNL LTGICCG OHD-E-S TS OHD-E-S MOV NE P0016=
200901040315 SPECI KATL 040315Z 24012G21KT 2SM R09R/1600VP6000FT TSRA BR FEW001 BKN005CB OVC048 14/14 A3009 RMK AO2 TSB04RAB05 OCNL LTGIC OHD-E-S TS OHD-E-S MOV NE P0001=
200901040315 SPECI KATL 040315Z 24012G21KT 2SM R09R/1600VP6000FT TSRA BR FEW001 BKN005CB OVC048 14/14 A3009 RMK AO2 TSB04RAB05 OCNL LTGIC OHD-E-S TS OHD-E-S MOV NE P0001=
200901040304 SPECI KATL 040304Z VRB05KT 0SM R09R/1600V3000FT TS FG VV001 14/14 A3006 RMK AO2 SFC VIS 1/16 TSB04 OCNL LTGIC SW TS SW MOV NE=
200901040304 SPECI KATL 040304Z VRB05KT 0SM R09R/1600V3000FT TS FG VV001 14/14 A3006 RMK AO2 SFC VIS 1/16 TSB04 OCNL LTGIC SW TS SW MOV NE=
200901040252 METAR KATL 040252Z 13003KT 0SM R09R/1800V3000FT FG VV001 14/14 A3007 RMK AO2 SFC VIS 1/16 SLP181 T01440144 55001=
200901040245 SPECI KATL 040245Z 13004KT 0SM R09R/1600V2400FT FG VV001 14/14 A3007 RMK AO2 SFC VIS 1/16=
200901040245 SPECI KATL 040245Z 13004KT 0SM R09R/1600V2400FT FG VV001 14/14 A3007 RMK AO2 SFC VIS 1/16=
200901040236 SPECI KATL 040236Z 14004KT 0SM R09R/1600V1800FT FG VV001 14/14 A3006 RMK AO2 SFC VIS 1/16=
200901040236 SPECI KATL 040236Z 14004KT 0SM R09R/1600V1800FT FG VV001 14/14 A3006 RMK AO2 SFC VIS 1/16=
200901040222 SPECI KATL 040222Z 13005KT 0SM R09R/1600V2600FT FG VV001 14/14 A3006 RMK AO2 SFC VIS 1/16=
200901040222 SPECI KATL 040222Z 13005KT 0SM R09R/1600V2600FT FG VV001 14/14 A3006 RMK AO2 SFC VIS 1/16=
200901040211 SPECI KATL 040211Z 13003KT 0SM R09R/1800V2000FT FG VV001 14/14 A3006 RMK AO2 SFC VIS 1/16=
200901040211 SPECI KATL 040211Z 13003KT 0SM R09R/1800V2000FT FG VV001 14/14 A3006 RMK AO2 SFC VIS 1/16=
200901040204 SPECI KATL 040204Z 13004KT 0SM R09R/1800V2400FT FG VV001 14/14 A3006 RMK AO2 SFC VIS 1/16=
200901040204 SPECI KATL 040204Z 13004KT 0SM R09R/1800V2400FT FG VV001 14/14 A3006 RMK AO2 SFC VIS 1/16=
200901040152 METAR KATL 040152Z 13004KT 0SM R09R/1600V2200FT FG VV001 14/14 A3006 RMK AO2 SLP179 T01440144=
200901040141 SPECI KATL 040141Z 12005KT 1/16SM R09R/1600V2200FT FG VV001 14/14 A3006 RMK AO2=
200901040141 SPECI KATL 040141Z 12005KT 1/16SM R09R/1600V2200FT FG VV001 14/14 A3006 RMK AO2=
200901040131 SPECI KATL 040131Z 12004KT 1/16SM R09R/1600V2400FT FG VV001 14/14 A3007 RMK AO2=
200901040131 SPECI KATL 040131Z 12004KT 1/16SM R09R/1600V2400FT FG VV001 14/14 A3007 RMK AO2=
200901040119 SPECI KATL 040119Z 11005KT 1/16SM R09R/1600V2000FT FG VV001 14/14 A3007 RMK AO2=
200901040119 SPECI KATL 040119Z 11005KT 1/16SM R09R/1600V2000FT FG VV001 14/14 A3007 RMK AO2=
200901040107 SPECI KATL 040107Z 12004KT 1/16SM R09R/1600V2800FT FG VV001 14/14 A3007 RMK AO2=
200901040107 SPECI KATL 040107Z 12004KT 1/16SM R09R/1600V2800FT FG VV001 14/14 A3007 RMK AO2=
200901040102 SPECI KATL 040102Z 13004KT 1/16SM R09R/1600V2200FT FG VV001 14/14 A3007 RMK AO2=
200901040102 SPECI KATL 040102Z 13004KT 1/16SM R09R/1600V2200FT FG VV001 14/14 A3007 RMK AO2=
200901040052 METAR KATL 040052Z 12004KT 1/16SM R09R/2000V2800FT FG VV001 14/14 A3007 RMK AO2 SLP182 T01390139=
200901040047 SPECI KATL 040047Z 13004KT 1/16SM R09R/1600V2800FT FG VV001 14/14 A3007 RMK AO2=
200901040047 SPECI KATL 040047Z 13004KT 1/16SM R09R/1600V2800FT FG VV001 14/14 A3007 RMK AO2=
200901040015 SPECI KATL 040015Z 13005KT 1/16SM R09R/1400V2200FT FG VV001 14/14 A3006 RMK AO2=
200901040015 SPECI KATL 040015Z 13005KT 1/16SM R09R/1400V2200FT FG VV001 14/14 A3006 RMK AO2=
200901032352 METAR KATL 032352Z 12006KT 1/16SM R09R/2000V4500FT FG VV001 14/14 A3005 RMK AO2 SLP176 60000 T01390139 10144 20117 51012=
200901032252 METAR KATL 032252Z 11004KT 1/16SM R09R/2200V2600FT FG VV001 14/14 A3005 RMK AO2 SFC VIS 1/8 SLP175 T01440139=
200901032221 SPECI KATL 032221Z 12005KT 1/16SM R09R/5500VP6000FT BR BKN001 OVC003 14/14 A3004 RMK AO2 SFC VIS 3/4=
200901032221 SPECI KATL 032221Z 12005KT 1/16SM R09R/5500VP6000FT BR BKN001 OVC003 14/14 A3004 RMK AO2 SFC VIS 3/4=
200901032217 SPECI KATL 032217Z 12004KT 3/4SM R09R/P6000FT BR BKN001 OVC003 14/14 A3004 RMK AO2 TWRINC=
200901032217 SPECI KATL 032217Z 12004KT 3/4SM R09R/P6000FT BR BKN001 OVC003 14/14 A3004 RMK AO2 TWRINC=
200901032152 METAR KATL 032152Z COR 10003KT 1/16SM R09R/4000VP6000FT BR OVC001 14/14 A3003 RMK AO2 SFC VIS 1 1/4 SLP169 TWRINC T01440139=
200901032052 SPECI KATL 032052Z 13003KT 3/4SM BR OVC001 14/14 A3001 RMK AO2 SFC VIS 2 SLP164 TWRINC 60000 T01390139 56016=
200901032029 SPECI KATL 032029Z 13004KT 1/2SM R09R/6000VP6000FT BR OVC001 13/13 A3001 RMK AO2 SFC VIS 1 3/4 TWRINC=
200901032029 SPECI KATL 032029Z 13004KT 1/2SM R09R/6000VP6000FT BR OVC001 13/13 A3001 RMK AO2 SFC VIS 1 3/4 TWRINC=
200901031952 METAR KATL 031952Z 11003KT 1/8SM R09R/3000V6000FT FG OVC001 13/13 A3002 RMK AO2 SFC VIS 1/2 RAE1854B16E25 SLP167 TWRINC P0000 T01330133=
200901031902 SPECI KATL 031902Z 16003KT 1/8SM R09R/1800V4500FT FG VV001 13/13 A3004 RMK AO2 SFC VIS 1/4 RAE1854 TWRINC P0000=
200901031902 SPECI KATL 031902Z 16003KT 1/8SM R09R/1800V4500FT FG VV001 13/13 A3004 RMK AO2 SFC VIS 1/4 RAE1854 TWRINC P0000=
200901031852 METAR KATL 031852Z 17003KT 1/8SM R09R/1400V1600FT -RA FG VV001 13/13 A3004 RMK AO2 RAB45 SLP173 TWRINC P0000 T01280128=
200901031752 METAR KATL 031752Z 17003KT 1/8SM R09R/1400V1600FT FG VV001 12/12 A3006 RMK AO2 SFC VIS 1/4 SLP182 TWRINC T01170117 10117 20083 58010=
200901031652 METAR KATL 031652Z 15003KT 1/8SM R09R/1400V1800FT FG VV001 11/11 A3008 RMK AO2 SFC VIS 1/4 SLP189 TWRINC T01060106=
200901031632 SPECI KATL 031632Z 16003KT 1/8SM R09R/1600V2000FT FG OVC001 11/11 A3009 RMK AO2 SFC VIS 1/4 TWRINC=
200901031632 SPECI KATL 031632Z 16003KT 1/8SM R09R/1600V2000FT FG OVC001 11/11 A3009 RMK AO2 SFC VIS 1/4 TWRINC=
200901031605 SPECI KATL 031605Z 00000KT 1/8SM R09R/2200V3500FT FG OVC001 10/10 A3009 RMK AO2 SFC VIS 1/4 TWRINC=
200901031605 SPECI KATL 031605Z 00000KT 1/8SM R09R/2200V3500FT FG OVC001 10/10 A3009 RMK AO2 SFC VIS 1/4 TWRINC=
200901031552 METAR KATL 031552Z 12004KT 1/8SM R09R/1800V2200FT FG VV001 10/10 A3009 RMK AO2 SFC VIS 1/4 SLP192 TWRINC T01000100=
200901031543 SPECI KATL 031543Z 11004KT 1/8SM R09R/1600V2200FT FG VV001 10/10 A3009 RMK AO2 SFC VIS 1/4 TWRINC=
200901031543 SPECI KATL 031543Z 11004KT 1/8SM R09R/1600V2200FT FG VV001 10/10 A3009 RMK AO2 SFC VIS 1/4 TWRINC=
200901031534 SPECI KATL 031534Z 00000KT 1/8SM R09R/1600V2400FT FG OVC001 10/10 A3009 RMK AO2 SFC VIS 1/4 TWRINC=
200901031534 SPECI KATL 031534Z 00000KT 1/8SM R09R/1600V2400FT FG OVC001 10/10 A3009 RMK AO2 SFC VIS 1/4 TWRINC=
200901031527 SPECI KATL 031527Z 11003KT 1/8SM R09R/1600V2200FT FG OVC001 10/10 A3009 RMK AO2 SFC VIS 1/4=
200901031527 SPECI KATL 031527Z 11003KT 1/8SM R09R/1600V2200FT FG OVC001 10/10 A3009 RMK AO2 SFC VIS 1/4=
200901031452 METAR KATL 031452Z 08003KT 1/8SM R09R/3500VP6000FT FG OVC001 09/09 A3009 RMK AO2 SFC VIS 1/2 SLP193 TWRINC T00940094 53009=
200901031352 METAR KATL 031352Z 11003KT 1/4SM R09R/1600V2400FT FG VV001 09/09 A3008 RMK AO2 TWR VIS 1/4 SLP187 T00940089=
200901031252 METAR KATL 031252Z 00000KT 1/4SM R09R/2000V2400FT FG VV001 08/08 A3007 RMK AO2 SFC VIS 1/2 SLP184 T00830083=
200901031248 SPECI KATL 031248Z 00000KT 1/4SM R09R/2000V2200FT FG VV001 08/08 A3007 RMK AO2 SFC VIS 1/2=
200901031248 SPECI KATL 031248Z 00000KT 1/4SM R09R/2000V2200FT FG VV001 08/08 A3007 RMK AO2 SFC VIS 1/2=
200901031237 SPECI KATL 031237Z 00000KT 1/4SM R09R/1800V2800FT FG BKN001 OVC007 08/08 A3006 RMK AO2=
200901031237 SPECI KATL 031237Z 00000KT 1/4SM R09R/1800V2800FT FG BKN001 OVC007 08/08 A3006 RMK AO2=
200901031152 METAR KATL 031152Z 00000KT 1/4SM R09R/1400V1600FT FG BKN001 OVC007 08/08 A3006 RMK AO2 SLP182 60000 70013 T00830083 10083 20078 53010=
200901031052 METAR KATL 031052Z 00000KT 1/4SM R09R/1600FT FG VV001 08/08 A3004 RMK AO2 TWR VIS 1/4 SLP176 T00830083=
200901030952 METAR KATL 030952Z 00000KT 1/4SM R09R/1800V2000FT FG VV001 08/08 A3003 RMK AO2 RAB22E32 SLP172 P0000 T00830083=
200901030934 SPECI KATL 030934Z 00000KT 1/4SM R09R/2200FT FG VV001 08/08 A3003 RMK AO2 SFC VIS 1/2 RAB22E32 P0000=
200901030934 SPECI KATL 030934Z 00000KT 1/4SM R09R/2200FT FG VV001 08/08 A3003 RMK AO2 SFC VIS 1/2 RAB22E32 P0000=
200901030913 SPECI KATL 030913Z 00000KT 1/4SM R09R/2000V2400FT FG OVC001 08/08 A3003 RMK AO2 SFC VIS 1/2=
200901030913 SPECI KATL 030913Z 00000KT 1/4SM R09R/2000V2400FT FG OVC001 08/08 A3003 RMK AO2 SFC VIS 1/2=
200901030904 SPECI KATL 030904Z 14003KT 1/4SM R09R/2000V2200FT FG OVC001 08/08 A3003 RMK AO2=
200901030904 SPECI KATL 030904Z 14003KT 1/4SM R09R/2000V2200FT FG OVC001 08/08 A3003 RMK AO2=
200901030852 METAR KATL 030852Z 00000KT 1/4SM R09R/2400V3500FT FG BKN001 OVC006 08/08 A3003 RMK AO2 SFC VIS 1/2 SLP172 T00830078 58004=
200901030752 METAR KATL 030752Z 00000KT 1/4SM R09R/2200V2600FT FG OVC001 08/08 A3004 RMK AO2 SFC VIS 1/2 SLP176 T00780078=
200901030712 SPECI KATL 030712Z 00000KT 1/4SM R09R/2000V2400FT FG OVC001 08/08 A3004 RMK AO2 SFC VIS 1/2=
200901030712 SPECI KATL 030712Z 00000KT 1/4SM R09R/2000V2400FT FG OVC001 08/08 A3004 RMK AO2 SFC VIS 1/2=
200901030658 SPECI KATL 030658Z 00000KT 1/4SM R09R/2000V2200FT FG BKN001 OVC006 08/08 A3004 RMK AO2=
200901030658 SPECI KATL 030658Z 00000KT 1/4SM R09R/2000V2200FT FG BKN001 OVC006 08/08 A3004 RMK AO2=
200901030652 METAR KATL 030652Z 00000KT 1/4SM R09R/2200V2400FT FG BKN001 OVC006 08/08 A3004 RMK AO2 SFC VIS 1/2 SLP174 T00830078=
200901030552 METAR KATL 030552Z 00000KT 1/4SM R09R/2800V3000FT BR OVC001 08/08 A3004 RMK AO2 SFC VIS 3/4 SLP177 T00830078 10089 20078 58001=
200901030524 SPECI KATL 030524Z 00000KT 1/4SM R09R/6000VP6000FT BR BKN001 OVC006 08/08 A3005 RMK AO2 SFC VIS 3/4=
200901030524 SPECI KATL 030524Z 00000KT 1/4SM R09R/6000VP6000FT BR BKN001 OVC006 08/08 A3005 RMK AO2 SFC VIS 3/4=
200901030452 METAR KATL 030452Z 08004KT 1/4SM BR OVC003 08/08 A3004 RMK AO2 SFC VIS 2 SLP176 CIG 002V006 T00830078 400890039=
200901030352 METAR KATL 030352Z 00000KT 1/4SM R09R/2600V4000FT BR BKN002 OVC008 08/08 A3006 RMK AO2 SFC VIS 1 SLP181 T00780078=
200901030252 METAR KATL 030252Z 00000KT 1/4SM BR BKN002 OVC015 08/08 A3005 RMK AO2 SFC VIS 1 1/2 SLP178 VIS NE-SE-S 1/2 CIG 001V007 T00830078 51009=
200901030228 SPECI KATL 030228Z 00000KT 1/16SM R09R/5500VP6000FT BR OVC001 08/08 A3005 RMK AO2 SFC VIS 3/4=
200901030228 SPECI KATL 030228Z 00000KT 1/16SM R09R/5500VP6000FT BR OVC001 08/08 A3005 RMK AO2 SFC VIS 3/4=
200901030152 METAR KATL 030152Z 02004KT 0SM R09R/P6000FT FG VV001 09/08 A3005 RMK AO2 SFC VIS 1/2 SLP178 T00890083=
200901030139 SPECI KATL 030139Z 08004KT 1/2SM BR OVC003 08/07 A3004 RMK AO2 SFC VIS 2 CIG 001V006=
200901030139 SPECI KATL 030139Z 08004KT 1/2SM BR OVC003 08/07 A3004 RMK AO2 SFC VIS 2 CIG 001V006=
200901030059 SPECI KATL 030059Z 00000KT 2SM BR BKN005 OVC050 08/08 A3004 RMK AO2 SFC VIS 3 CIG 003V007=
200901030059 SPECI KATL 030059Z 00000KT 2SM BR BKN005 OVC050 08/08 A3004 RMK AO2 SFC VIS 3 CIG 003V007=
200901030052 METAR KATL 030052Z 00000KT 2SM BR SCT004 OVC050 08/08 A3004 RMK AO2 SFC VIS 3 SLP177 SCT004 V BKN T00830078=
200901030050 SPECI KATL 030050Z 00000KT 2SM BR SCT004 OVC050 08/08 A3004 RMK AO2 SFC VIS 3 SCT004 V BKN=
200901030050 SPECI KATL 030050Z 00000KT 2SM BR SCT004 OVC050 08/08 A3004 RMK AO2 SFC VIS 3 SCT004 V BKN=
200901030034 SPECI KATL 030034Z 00000KT 2SM BR OVC003 08/08 A3003 RMK AO2 SFC VIS 3 CIG 002V006=
200901030034 SPECI KATL 030034Z 00000KT 2SM BR OVC003 08/08 A3003 RMK AO2 SFC VIS 3 CIG 002V006=
200901030023 SPECI KATL 030023Z 00000KT 1 1/2SM BR BKN004 BKN050 08/08 A3002 RMK AO2 SFC VIS 3 CIG 003V007=
200901030023 SPECI KATL 030023Z 00000KT 1 1/2SM BR BKN004 BKN050 08/08 A3002 RMK AO2 SFC VIS 3 CIG 003V007=
200901030016 SPECI KATL 030016Z 00000KT 1 1/2SM BR SCT004 BKN050 08/08 A3002 RMK AO2 SFC VIS 3 SCT004 V BKN=
200901030016 SPECI KATL 030016Z 00000KT 1 1/2SM BR SCT004 BKN050 08/08 A3002 RMK AO2 SFC VIS 3 SCT004 V BKN=
200901022352 METAR KATL 022352Z 00000KT 1 1/2SM BR BKN005 OVC060 08/08 A3002 RMK AO2 SFC VIS 3 SLP170 CIG 003V007 60006 T00830078 10083 20061 53001=
200901022304 SPECI KATL 022304Z 00000KT 1SM BR OVC005 08/08 A3001 RMK AO2 SFC VIS 2 1/2 CIG 003V006=
200901022304 SPECI KATL 022304Z 00000KT 1SM BR OVC005 08/08 A3001 RMK AO2 SFC VIS 2 1/2 CIG 003V006=
200901022252 METAR KATL 022252Z 13003KT 2 1/2SM BR OVC005 08/08 A3002 RMK AO2 SFC VIS 3 SLP169 T00830078=
200901022208 SPECI KATL 022208Z 00000KT 2 1/2SM BR BKN006 OVC015 08/08 A3001 RMK AO2 SFC VIS 3 CIG 004V008=
200901022208 SPECI KATL 022208Z 00000KT 2 1/2SM BR BKN006 OVC015 08/08 A3001 RMK AO2 SFC VIS 3 CIG 004V008=
200901022152 METAR KATL 022152Z 00000KT 2 1/2SM BR BCFG BKN004 BKN009 OVC012 08/08 A3001 RMK AO2 SFC VIS 4 SLP167 BINOVC NE T00830078=
200901022059 SPECI KATL 022059Z 00000KT 2 1/2SM BR BKN004 OVC012 08/07 A3002 RMK AO2 SFC VIS 4 CIG 003V007=
200901022059 SPECI KATL 022059Z 00000KT 2 1/2SM BR BKN004 OVC012 08/07 A3002 RMK AO2 SFC VIS 4 CIG 003V007=
200901022052 SPECI KATL 022052Z 20003KT 2 1/2SM BR SCT004 SCT008 OVC012 08/07 A3002 RMK AO2 SFC VIS 4 RAE44 SLP169 P0004 60006 T00780072 55004=
200901022039 SPECI KATL 022039Z 00000KT 2 1/2SM -RA BR SCT004 OVC012 08/07 A3002 RMK AO2 SFC VIS 4 P0004=
200901022039 SPECI KATL 022039Z 00000KT 2 1/2SM -RA BR SCT004 OVC012 08/07 A3002 RMK AO2 SFC VIS 4 P0004=
200901022031 SPECI KATL 022031Z 00000KT 2SM -RA BR BKN004 OVC012 07/07 A3002 RMK AO2 TWR VIS 2 1/2 P0004=
200901022031 SPECI KATL 022031Z 00000KT 2SM -RA BR BKN004 OVC012 07/07 A3002 RMK AO2 TWR VIS 2 1/2 P0004=
200901022020 SPECI KATL 022020Z 00000KT 2SM R09R/6000VP6000FT -RA BR SCT006 OVC014 07/07 A3002 RMK AO2 TWR VIS 2 1/2 P0003=
200901022020 SPECI KATL 022020Z 00000KT 2SM R09R/6000VP6000FT -RA BR SCT006 OVC014 07/07 A3002 RMK AO2 TWR VIS 2 1/2 P0003=
200901021952 METAR KATL 021952Z 00000KT 2 1/2SM -RA BR OVC006 07/07 A3001 RMK AO2 RAE12B47 SLP167 P0000 T00720067=
200901021852 METAR KATL 021852Z 35003KT 2 1/2SM -RA BR OVC006 07/06 A3002 RMK AO2 SFC VIS 5 SLP169 P0002 T00720061=
200901021752 METAR KATL 021752Z 08005KT 2 1/2SM -RA BR OVC008 06/06 A3003 RMK AO2 SFC VIS 4 RAE14B32 SLP174 P0003 60007 T00610056 10072 20044 58015=
200901021656 SPECI KATL 021656Z 07007KT 2 1/2SM R09R/6000VP6000FT RA BR OVC008 06/05 A3006 RMK AO2 SFC VIS 4 P0001=
200901021656 SPECI KATL 021656Z 07007KT 2 1/2SM R09R/6000VP6000FT RA BR OVC008 06/05 A3006 RMK AO2 SFC VIS 4 P0001=
200901021652 METAR KATL 021652Z 08006KT 6SM -RA BR OVC008 07/05 A3006 RMK AO2 RAB1559 SLP184 P0001 T00670050=
200901021629 SPECI KATL 021629Z 07004KT 6SM BR OVC008 07/06 A3008 RMK AO2 RAB1559E23 P0001=
200901021629 SPECI KATL 021629Z 07004KT 6SM BR OVC008 07/06 A3008 RMK AO2 RAB1559E23 P0001=
200901021619 SPECI KATL 021619Z 00000KT 3SM -RA BR OVC008 07/06 A3008 RMK AO2 SFC VIS 5 RAB1559 P0001=
200901021619 SPECI KATL 021619Z 00000KT 3SM -RA BR OVC008 07/06 A3008 RMK AO2 SFC VIS 5 RAB1559 P0001=
200901021605 SPECI KATL 021605Z 00000KT 3SM -RA BR OVC010 07/06 A3008 RMK AO2 SFC VIS 5 RAB1559 P0000=
200901021605 SPECI KATL 021605Z 00000KT 3SM -RA BR OVC010 07/06 A3008 RMK AO2 SFC VIS 5 RAB1559 P0000=
200901021552 METAR KATL 021552Z 00000KT 8SM OVC010 07/06 A3008 RMK AO2 RAE18 SLP189 P0002 T00670056=
200901021502 SPECI KATL 021502Z 16006KT 5SM RA BR OVC010 06/04 A3007 RMK AO2 P0002=
200901021502 SPECI KATL 021502Z 16006KT 5SM RA BR OVC010 06/04 A3007 RMK AO2 P0002=
200901021452 METAR KATL 021452Z 17005KT 8SM -RA OVC010 06/04 A3007 RMK AO2 RAB16 SLP189 P0001 60001 T00610039 50002=
200901021352 METAR KATL 021352Z VRB03KT 10SM OVC012 06/02 A3007 RMK AO2 SLP190 T00560022=
200901021252 METAR KATL 021252Z 15005KT 10SM OVC014 05/02 A3007 RMK AO2 RAB1155E10 SLP189 P0000 T00500022=
200901021248 SPECI KATL 021248Z 16005KT 10SM OVC014 05/02 A3007 RMK AO2 RAB1155E10 P0000=
200901021248 SPECI KATL 021248Z 16005KT 10SM OVC014 05/02 A3007 RMK AO2 RAB1155E10 P0000=
200901021152 METAR KATL 021152Z 14005KT 10SM BKN020 OVC095 04/00 A3007 RMK AO2 SLP186 T00440000 10044 20039 56019=
200901021052 METAR KATL 021052Z COR 13005KT 10SM BKN028 BKN037 BKN095 04/M01 A3009 RMK AO2 SLP193 T00391011=
200901021042 SPECI KATL 021042Z 13003KT 10SM BKN028 BKN090 04/M01 A3009 RMK AO2=
200901021042 SPECI KATL 021042Z 13003KT 10SM BKN028 BKN090 04/M01 A3009 RMK AO2=
200901020952 METAR KATL 020952Z 14004KT 10SM SCT025 BKN085 BKN250 04/M02 A3009 RMK AO2 SLP194 T00391022=
200901020852 METAR KATL 020852Z 13005KT 10SM BKN032 BKN055 04/M03 A3012 RMK AO2 SLP206 T00391033 58004=
200901020752 METAR KATL 020752Z 11005KT 10SM BKN034 BKN042 BKN049 04/M04 A3013 RMK AO2 SLP209 T00391044=
200901020652 METAR KATL 020652Z 13005KT 10SM BKN037 BKN090 BKN100 04/M06 A3015 RMK AO2 SLP214 T00391056=
200901020552 METAR KATL 020552Z 14005KT 10SM OVC035 04/M08 A3014 RMK AO2 SLP210 BINOVC T00391078 10061 20033 58015=
200901020452 METAR KATL 020452Z 13006KT 10SM OVC038 04/M09 A3017 RMK AO2 SLP221 T00391089 400941028=
200901020352 METAR KATL 020352Z 13005KT 10SM OVC042 04/M09 A3018 RMK AO2 SLP226 BINOVC T00391094=
200901020252 METAR KATL 020252Z COR 10005KT 10SM FEW040 SCT250 03/M10 A3018 RMK AO2 SLP228 T00331100 56005=
200901020152 METAR KATL 020152Z 11006KT 10SM FEW250 04/M10 A3019 RMK AO2 SLP231 T00441100=
200901020052 METAR KATL 020052Z 13006KT 10SM FEW250 05/M10 A3018 RMK AO2 SLP229 T00501100=
200901012352 METAR KATL 012352Z 13006KT 10SM FEW250 06/M09 A3020 RMK AO2 SLP233 T00611094 10094 20061 58001=
200901012252 METAR KATL 012252Z 14005KT 10SM FEW200 07/M11 A3020 RMK AO2 SLP235 T00671106=
200901012152 METAR KATL 012152Z 13010KT 10SM FEW180 SCT250 08/M11 A3020 RMK AO2 SLP234 T00831111=
200901012052 METAR KATL 012052Z 14009KT 10SM FEW180 SCT250 09/M12 A3020 RMK AO2 SLP233 T00891117 56020=
200901011952 METAR KATL 011952Z 14008KT 10SM FEW180 SCT250 09/M12 A3021 RMK AO2 SLP238 T00891117=
200901011852 METAR KATL 011852Z 13008KT 10SM FEW250 08/M12 A3023 RMK AO2 SLP245 T00781122=
200901011752 METAR KATL 011752Z 11010KT 10SM FEW250 07/M12 A3026 RMK AO2 SLP254 T00671122 10072 21022 58023=
200901011652 METAR KATL 011652Z 12012G16KT 10SM FEW250 05/M12 A3030 RMK AO2 SLP268 T00501122=
200901011552 METAR KATL 011552Z 13006G14KT 10SM FEW250 04/M12 A3034 RMK AO2 SLP281 T00391117=
200901011452 METAR KATL 011452Z 12011G16KT 10SM FEW250 02/M11 A3033 RMK AO2 SLP279 T00171106 53021=
200901011352 METAR KATL 011352Z 10010KT 10SM FEW250 01/M10 A3030 RMK AO2 SLP270 T00061100 $=
200901011252 METAR KATL 011252Z 10009KT 10SM FEW250 M01/M10 A3029 RMK AO2 SLP265 T10111100 $=
