##########################################################
# Query made at 04/19/2024 23:10:53 UTC
# Time interval: from 04/01/2009 12:00  to 04/30/2009 12:59  UTC
##########################################################

##########################################################
# KATL, Atlanta, Hartsfield - Jackson Atlanta International Airport (United States)
# WMO index: 72219. WIGOS ID: 0-20000-0-72219
# Latitude 33-38-59N. Longitude 084-25-00W. Altitude 312 m.
##########################################################

200904301252 METAR KATL 301252Z 18010KT 10SM BKN070 BKN150 18/15 A3027 RMK AO2 SLP245 T01830150=
200904301152 METAR KATL 301152Z 17007KT 10SM BKN070 BKN150 17/14 A3026 RMK AO2 SLP241 T01670144 10189 20161 53013=
200904301052 METAR KATL 301052Z 17006KT 10SM SCT070 SCT150 BKN250 16/14 A3023 RMK AO2 SLP232 T01610139=
200904300952 METAR KATL 300952Z 18006KT 10SM FEW250 17/14 A3022 RMK AO2 SLP228 T01670139=
200904300852 METAR KATL 300852Z 18010KT 10SM FEW250 17/13 A3022 RMK AO2 SLP226 T01720133 56004=
200904300752 METAR KATL 300752Z 15007KT 10SM FEW250 17/13 A3022 RMK AO2 SLP227 T01720133=
200904300652 METAR KATL 300652Z 00000KT 10SM FEW250 18/13 A3022 RMK AO2 SLP226 T01780133=
200904300552 METAR KATL 300552Z 14003KT 10SM BKN250 19/13 A3023 RMK AO2 SLP230 T01890133 10244 20183 58001=
200904300452 METAR KATL 300452Z 14003KT 10SM BKN250 19/13 A3024 RMK AO2 SLP232 T01940133 402670156=
200904300352 METAR KATL 300352Z 14004KT 10SM BKN250 20/13 A3024 RMK AO2 SLP231 T02000133=
200904300252 METAR KATL 300252Z 15004KT 10SM BKN250 21/13 A3024 RMK AO2 SLP232 T02110133 53007=
200904300152 METAR KATL 300152Z 15005KT 10SM SCT200 BKN250 22/13 A3022 RMK AO2 SLP227 T02220128=
200904300052 METAR KATL 300052Z 15006KT 10SM CLR 23/13 A3022 RMK AO2 SLP226 T02280128=
200904292352 METAR KATL 292352Z 15007KT 10SM FEW075 BKN250 24/12 A3022 RMK AO2 SLP226 T02440122 10267 20244 50003=
200904292252 METAR KATL 292252Z 16009KT 10SM SCT070 BKN250 26/12 A3022 RMK AO2 SLP227 T02560117=
200904292152 METAR KATL 292152Z 15007KT 10SM BKN070 BKN250 26/12 A3022 RMK AO2 SLP225 T02610117=
200904292052 METAR KATL 292052Z 13006KT 10SM SCT070 SCT250 25/12 A3021 RMK AO2 SLP223 T02500117 56025=
200904291952 METAR KATL 291952Z 16009KT 10SM SCT065 SCT250 26/12 A3023 RMK AO2 SLP227 T02610122=
200904291852 METAR KATL 291852Z 11008KT 10SM SCT060 SCT250 26/13 A3026 RMK AO2 SLP238 T02610128=
200904291752 METAR KATL 291752Z 16008KT 10SM SCT060 26/12 A3028 RMK AO2 SLP246 T02560117 10256 20161 58016=
200904291652 METAR KATL 291652Z 15008KT 10SM SCT050 SCT250 25/13 A3030 RMK AO2 SLP254 T02500128=
200904291552 METAR KATL 291552Z 18006KT 10SM FEW040 SCT070 SCT250 24/14 A3032 RMK AO2 SLP259 T02390139=
200904291452 METAR KATL 291452Z 19003KT 10SM FEW070 SCT250 22/15 A3033 RMK AO2 SLP264 T02220150 50000=
200904291352 METAR KATL 291352Z 22007KT 10SM FEW070 SCT200 SCT250 21/15 A3033 RMK AO2 SLP263 T02060150=
200904291252 METAR KATL 291252Z 20004KT 10SM FEW070 SCT150 18/14 A3033 RMK AO2 SLP267 T01780144=
200904291152 METAR KATL 291152Z 17003KT 10SM FEW070 SCT150 BKN250 16/14 A3033 RMK AO2 SLP265 T01610139 10189 20156 52013=
200904291052 METAR KATL 291052Z 16004KT 10SM FEW070 SCT250 16/13 A3031 RMK AO2 SLP259 T01560128=
200904290952 METAR KATL 290952Z 00000KT 10SM SCT150 16/13 A3031 RMK AO2 SLP256 T01610128=
200904290852 METAR KATL 290852Z 00000KT 10SM FEW250 16/13 A3029 RMK AO2 SLP250 T01610128 55005=
200904290752 METAR KATL 290752Z 12003KT 10SM CLR 18/12 A3028 RMK AO2 SLP247 T01780122=
200904290652 METAR KATL 290652Z 00000KT 10SM FEW250 18/12 A3029 RMK AO2 SLP252 T01830122=
200904290552 METAR KATL 290552Z 00000KT 10SM BKN250 19/12 A3031 RMK AO2 SLP255 T01890122 10239 20183 58006=
200904290452 METAR KATL 290452Z 00000KT 10SM BKN250 19/13 A3032 RMK AO2 SLP260 T01940128 402610161=
200904290352 METAR KATL 290352Z 15004KT 10SM BKN250 20/13 A3032 RMK AO2 SLP260 T02000128=
200904290252 METAR KATL 290252Z 15005KT 10SM BKN250 21/13 A3032 RMK AO2 SLP263 T02060128 53010=
200904290152 METAR KATL 290152Z 13003KT 10SM BKN250 22/13 A3031 RMK AO2 SLP257 T02170128=
200904290052 METAR KATL 290052Z 15005KT 10SM BKN250 23/13 A3030 RMK AO2 SLP256 T02280128=
200904282352 METAR KATL 282352Z 14007KT 10SM FEW055 BKN250 24/12 A3029 RMK AO2 SLP253 T02390122 10261 20233 55006=
200904282252 METAR KATL 282252Z 17009KT 10SM FEW055 BKN250 25/12 A3029 RMK AO2 SLP252 T02500122=
200904282152 METAR KATL 282152Z 15009KT 10SM SCT055 BKN250 26/12 A3030 RMK AO2 SLP254 T02560122=
200904282052 METAR KATL 282052Z VRB05KT 10SM SCT055 SCT250 26/13 A3031 RMK AO2 SLP258 T02560128 58020=
200904281952 METAR KATL 281952Z 00000KT 10SM BKN055 26/14 A3033 RMK AO2 SLP265 T02560139=
200904281852 METAR KATL 281852Z 10006KT 10SM SCT049 25/14 A3035 RMK AO2 SLP272 T02500139=
200904281752 METAR KATL 281752Z VRB06KT 10SM BKN045 25/14 A3037 RMK AO2 SLP279 T02500144 10250 20161 58011=
200904281652 METAR KATL 281652Z 17005KT 10SM SCT040 SCT250 23/14 A3040 RMK AO2 SLP287 T02330144=
200904281552 METAR KATL 281552Z 00000KT 10SM SCT030 SCT250 22/14 A3041 RMK AO2 SLP292 T02170144=
200904281452 METAR KATL 281452Z 20005KT 10SM SCT024 SCT250 21/14 A3041 RMK AO2 SLP291 T02060144 53006=
200904281352 METAR KATL 281352Z 21010KT 10SM SCT018 SCT250 20/16 A3040 RMK AO2 SLP287 T02000156=
200904281252 METAR KATL 281252Z 17007KT 10SM FEW250 18/15 A3039 RMK AO2 SLP285 T01830150=
200904281152 METAR KATL 281152Z 14004KT 10SM FEW060 SCT250 16/14 A3039 RMK AO2 SLP285 T01610139 10183 20161 53010=
200904281052 METAR KATL 281052Z 15004KT 10SM BKN060 BKN080 16/14 A3037 RMK AO2 SLP280 T01610139=
200904280952 METAR KATL 280952Z 15004KT 10SM BKN060 16/13 A3036 RMK AO2 SLP276 T01610133=
200904280852 METAR KATL 280852Z 14004KT 10SM SCT065 17/13 A3036 RMK AO2 SLP274 T01670133 53000=
200904280752 METAR KATL 280752Z 16008KT 10SM BKN060 17/13 A3035 RMK AO2 SLP272 T01720133=
200904280652 METAR KATL 280652Z 15007KT 10SM SCT060 BKN150 18/13 A3035 RMK AO2 SLP272 T01780133=
200904280552 METAR KATL 280552Z 15006KT 10SM SCT060 SCT250 18/13 A3036 RMK AO2 SLP273 T01830128 10233 20183 56003=
200904280452 METAR KATL 280452Z 13004KT 10SM FEW060 SCT250 19/13 A3036 RMK AO2 SLP274 T01890128 402560150=
200904280352 METAR KATL 280352Z 13004KT 10SM FEW060 SCT250 20/13 A3036 RMK AO2 SLP275 T02000128=
200904280252 METAR KATL 280252Z 12005KT 10SM SCT250 21/13 A3037 RMK AO2 SLP277 T02060128 51007=
200904280152 METAR KATL 280152Z 13003KT 10SM FEW250 22/12 A3036 RMK AO2 SLP275 T02170122=
200904280052 METAR KATL 280052Z 14005KT 10SM FEW065 22/12 A3035 RMK AO2 SLP271 T02220122=
200904272352 METAR KATL 272352Z 15007KT 10SM FEW065 23/12 A3034 RMK AO2 SLP269 T02330117 10256 20233 50001=
200904272252 METAR KATL 272252Z 15009KT 10SM SCT065 24/12 A3035 RMK AO2 SLP271 T02440117=
200904272152 METAR KATL 272152Z 13010KT 10SM BKN060 25/12 A3034 RMK AO2 SLP269 T02500117=
200904272052 METAR KATL 272052Z 16009G17KT 10SM FEW060 24/11 A3034 RMK AO2 SLP269 T02440111 58009=
200904271952 METAR KATL 271952Z 17007KT 10SM SCT055 25/12 A3035 RMK AO2 SLP271 T02500117=
200904271852 METAR KATL 271852Z 15007G15KT 10SM FEW050 24/12 A3036 RMK AO2 SLP275 T02390122=
200904271752 METAR KATL 271752Z VRB05KT 10SM FEW048 24/13 A3037 RMK AO2 SLP277 T02390133 10239 20156 58014=
200904271652 METAR KATL 271652Z 12007G16KT 10SM FEW040 23/14 A3039 RMK AO2 SLP284 T02280139=
200904271552 METAR KATL 271552Z 13008KT 10SM SCT028 21/13 A3041 RMK AO2 SLP290 T02110133=
200904271547 SPECI KATL 271547Z 13008KT 10SM SCT028 22/14 A3041 RMK AO2=
200904271547 SPECI KATL 271547Z 13008KT 10SM SCT028 22/14 A3041 RMK AO2=
200904271524 SPECI KATL 271524Z 18009KT 10SM BKN025 BKN031 21/14 A3041 RMK AO2=
200904271524 SPECI KATL 271524Z 18009KT 10SM BKN025 BKN031 21/14 A3041 RMK AO2=
200904271452 METAR KATL 271452Z 17010KT 10SM FEW015 SCT025 BKN030 20/15 A3042 RMK AO2 SLP294 T02000150 51008=
200904271434 SPECI KATL 271434Z 18008KT 10SM SCT016 BKN020 BKN027 19/15 A3041 RMK AO2=
200904271434 SPECI KATL 271434Z 18008KT 10SM SCT016 BKN020 BKN027 19/15 A3041 RMK AO2=
200904271352 METAR KATL 271352Z 14008KT 10SM BKN012 BKN015 18/16 A3041 RMK AO2 SLP294 T01830156=
200904271252 METAR KATL 271252Z 14008KT 6SM BR BKN005 BKN008 16/15 A3040 RMK AO2 SLP290 T01610150=
200904271152 METAR KATL 271152Z 12005KT 6SM BR BKN006 16/14 A3039 RMK AO2 SLP287 T01560144 10189 20150 53013=
200904271052 METAR KATL 271052Z 11005KT 10SM FEW010 SCT250 15/13 A3037 RMK AO2 SLP280 T01500133=
200904270952 METAR KATL 270952Z 11006KT 10SM CLR 16/13 A3036 RMK AO2 SLP275 T01560133=
200904270852 METAR KATL 270852Z 12004KT 10SM FEW250 16/14 A3035 RMK AO2 SLP272 T01610139 53003=
200904270752 METAR KATL 270752Z 14006KT 10SM FEW250 17/13 A3034 RMK AO2 SLP269 T01670133=
200904270652 METAR KATL 270652Z 16008KT 10SM FEW250 18/14 A3034 RMK AO2 SLP269 T01780139=
200904270552 METAR KATL 270552Z 14008KT 10SM FEW250 19/13 A3034 RMK AO2 SLP268 T01890133 10244 20189 53005=
200904270452 METAR KATL 270452Z 14006KT 10SM FEW250 19/13 A3034 RMK AO2 SLP267 T01940133 402670156=
200904270352 METAR KATL 270352Z 14004KT 10SM FEW070 SCT250 21/13 A3033 RMK AO2 SLP264 T02060133=
200904270252 METAR KATL 270252Z 14004KT 10SM SCT250 22/13 A3033 RMK AO2 SLP263 T02170133 51011=
200904270152 METAR KATL 270152Z 14004KT 10SM BKN250 22/13 A3032 RMK AO2 SLP261 T02220128=
200904270052 METAR KATL 270052Z 15006KT 10SM SCT250 23/13 A3031 RMK AO2 SLP256 T02330128=
200904262352 METAR KATL 262352Z 15008KT 10SM BKN250 24/12 A3029 RMK AO2 SLP253 T02440122 10267 20244 55001=
200904262252 METAR KATL 262252Z 14013G18KT 10SM FEW060 SCT250 26/12 A3029 RMK AO2 SLP250 T02560117=
200904262152 METAR KATL 262152Z 15011KT 10SM FEW060 SCT250 26/11 A3029 RMK AO2 SLP251 T02610111=
200904262052 METAR KATL 262052Z 16013G18KT 10SM FEW060 SCT250 27/11 A3030 RMK AO2 SLP252 T02670111 56018=
200904261952 METAR KATL 261952Z 15006G16KT 10SM FEW060 SCT250 26/12 A3032 RMK AO2 SLP258 T02610117=
200904261852 METAR KATL 261852Z 14010G17KT 10SM FEW060 SCT250 26/11 A3033 RMK AO2 SLP263 T02560111=
200904261752 METAR KATL 261752Z 11007KT 10SM FEW050 SCT250 25/12 A3035 RMK AO2 SLP270 T02500122 10250 20161 58015=
200904261652 METAR KATL 261652Z 14010KT 10SM FEW040 SCT250 24/13 A3037 RMK AO2 SLP276 T02390133=
200904261552 METAR KATL 261552Z 14005KT 10SM SCT030 22/14 A3039 RMK AO2 SLP283 T02220144=
200904261452 METAR KATL 261452Z 16006KT 10SM FEW025 SCT250 21/14 A3040 RMK AO2 SLP286 T02110139 51009=
200904261352 METAR KATL 261352Z 19008KT 10SM FEW250 19/14 A3039 RMK AO2 SLP285 T01940139=
200904261252 METAR KATL 261252Z 18008KT 10SM CLR 18/14 A3039 RMK AO2 SLP283 T01830144=
200904261152 METAR KATL 261152Z 13003KT 10SM CLR 16/14 A3037 RMK AO2 SLP278 T01610139 10211 20156 53016=
200904261052 METAR KATL 261052Z 13003KT 10SM CLR 16/13 A3035 RMK AO2 SLP271 T01610133=
200904260952 METAR KATL 260952Z 15005KT 10SM CLR 17/13 A3034 RMK AO2 SLP266 T01670133=
200904260852 METAR KATL 260852Z 15006KT 10SM CLR 17/13 A3032 RMK AO2 SLP260 T01720133 53004=
200904260752 METAR KATL 260752Z 16007KT 10SM CLR 18/13 A3031 RMK AO2 SLP256 T01830133=
200904260652 METAR KATL 260652Z 17007KT 10SM CLR 19/13 A3031 RMK AO2 SLP255 T01940128=
200904260552 METAR KATL 260552Z 16010KT 10SM CLR 21/13 A3031 RMK AO2 SLP255 T02110128 10272 20206 57001=
200904260452 METAR KATL 260452Z 17005KT 10SM CLR 21/13 A3031 RMK AO2 SLP256 T02060128 402940156=
200904260352 METAR KATL 260352Z 15005KT 10SM CLR 22/12 A3032 RMK AO2 SLP257 T02170122=
200904260252 METAR KATL 260252Z 16006KT 10SM CLR 23/12 A3032 RMK AO2 SLP257 T02280122 53012=
200904260152 SPECI KATL 260152Z 16006KT 10SM CLR 24/12 A3031 RMK AO2 SLP254 T02390122=
200904260052 METAR KATL 260052Z 15008KT 10SM FEW080 25/11 A3029 RMK AO2 SLP250 T02500111=
200904252352 METAR KATL 252352Z 15009KT 10SM FEW080 27/11 A3028 RMK AO2 SLP248 T02720106 10294 20272 55003=
200904252252 METAR KATL 252252Z 15012KT 10SM FEW075 28/10 A3028 RMK AO2 SLP246 T02830100=
200904252152 METAR KATL 252152Z 14009KT 10SM SCT070 29/11 A3028 RMK AO2 SLP247 T02890111=
200904252052 METAR KATL 252052Z 17013G17KT 140V210 10SM SCT070 29/11 A3029 RMK AO2 SLP248 T02940111 58017=
200904251952 METAR KATL 251952Z 16005KT 10SM SCT070 SCT095 29/12 A3031 RMK AO2 SLP255 T02890122=
200904251852 METAR KATL 251852Z 15008KT 120V190 10SM SCT065 29/12 A3033 RMK AO2 SLP261 T02940117=
200904251752 METAR KATL 251752Z VRB06KT 10SM SCT060 28/13 A3034 RMK AO2 SLP266 T02830128 10283 20161 58008=
200904251652 METAR KATL 251652Z 13004KT 10SM FEW060 SCT250 27/12 A3035 RMK AO2 SLP270 T02720122=
200904251552 METAR KATL 251552Z 16004KT 10SM FEW250 27/13 A3037 RMK AO2 SLP275 T02670128=
200904251452 METAR KATL 251452Z VRB03KT 10SM FEW150 SCT250 24/14 A3037 RMK AO2 SLP274 T02440144 51007=
200904251352 METAR KATL 251352Z 00000KT 10SM FEW250 22/13 A3036 RMK AO2 SLP273 T02220133=
200904251252 METAR KATL 251252Z 00000KT 10SM FEW200 19/13 A3035 RMK AO2 SLP271 T01940128=
200904251152 METAR KATL 251152Z 00000KT 10SM SCT200 16/13 A3034 RMK AO2 SLP269 T01610128 10200 20156 53021=
200904251052 METAR KATL 251052Z 00000KT 10SM SCT200 17/12 A3031 RMK AO2 SLP256 T01670117=
200904250952 METAR KATL 250952Z 30003KT 10SM SCT200 16/12 A3029 RMK AO2 SLP249 T01610117=
200904250852 METAR KATL 250852Z COR 00000KT 10SM BKN200 18/11 A3028 RMK AO2 SLP245 T01780111 55006=
200904250752 METAR KATL 250752Z 00000KT 10SM BKN200 19/11 A3028 RMK AO2 SLP244 T01890106=
200904250652 METAR KATL 250652Z 00000KT 10SM BKN250 19/11 A3028 RMK AO2 SLP247 T01940111=
200904250552 METAR KATL 250552Z 23004KT 10SM BKN250 20/11 A3030 RMK AO2 SLP251 T02000106 10267 20183 56000=
200904250452 METAR KATL 250452Z 00000KT 10SM BKN250 21/11 A3030 RMK AO2 SLP251 T02110111 402940144=
200904250352 METAR KATL 250352Z 00000KT 10SM BKN250 22/11 A3030 RMK AO2 SLP250 T02170111=
200904250252 METAR KATL 250252Z 00000KT 10SM SCT250 23/11 A3030 RMK AO2 SLP251 T02280111 53015=
200904250152 METAR KATL 250152Z 22003KT 10SM SCT250 23/12 A3028 RMK AO2 SLP246 T02330122=
200904250052 METAR KATL 250052Z 18006KT 10SM BKN250 25/12 A3026 RMK AO2 SLP240 T02500122=
200904242352 METAR KATL 242352Z 18005KT 10SM SCT250 27/13 A3025 RMK AO2 SLP238 T02670128 10294 20267 53003=
200904242252 METAR KATL 242252Z 19009KT 10SM SCT250 28/11 A3025 RMK AO2 SLP237 T02830106=
200904242152 METAR KATL 242152Z 20005KT 10SM FEW250 29/11 A3025 RMK AO2 SLP234 T02890106=
200904242052 METAR KATL 242052Z 26007KT 210V290 10SM FEW250 29/11 A3024 RMK AO2 SLP234 T02890106 57015=
200904241952 METAR KATL 241952Z 18008KT 10SM SCT250 29/11 A3026 RMK AO2 SLP238 CB DSNT NE T02890111=
200904241852 METAR KATL 241852Z 19009KT 10SM FEW250 29/12 A3027 RMK AO2 SLP242 T02890117=
200904241752 METAR KATL 241752Z 21005KT 10SM FEW250 28/10 A3029 RMK AO2 SLP249 T02780100 10283 20156 58006=
200904241652 METAR KATL 241652Z 00000KT 10SM FEW250 27/09 A3030 RMK AO2 SLP253 T02720094=
200904241552 METAR KATL 241552Z 28007KT 10SM FEW200 26/13 A3031 RMK AO2 SLP259 T02610128=
200904241452 METAR KATL 241452Z 28007KT 10SM FEW200 24/12 A3031 RMK AO2 SLP256 T02440122 52013=
200904241352 METAR KATL 241352Z 28003KT 10SM FEW150 SCT200 22/13 A3030 RMK AO2 SLP253 T02170133=
200904241252 METAR KATL 241252Z 00000KT 10SM FEW180 19/14 A3028 RMK AO2 SLP248 T01940139=
200904241152 METAR KATL 241152Z 27003KT 10SM FEW180 16/13 A3027 RMK AO2 SLP244 70139 T01560128 10178 20144 53019=
200904241052 METAR KATL 241052Z 00000KT 10SM FEW200 14/12 A3024 RMK AO2 SLP234 T01440122=
200904240952 METAR KATL 240952Z 30005KT 10SM CLR 15/12 A3022 RMK AO2 SLP226 T01500122=
200904240852 METAR KATL 240852Z 28005KT 10SM CLR 16/12 A3021 RMK AO2 SLP223 T01560122 55000=
200904240752 METAR KATL 240752Z 25003KT 10SM CLR 18/12 A3019 RMK AO2 SLP216 T01780117=
200904240652 METAR KATL 240652Z 23004KT 10SM SCT250 17/12 A3020 RMK AO2 SLP219 T01720122=
200904240552 METAR KATL 240552Z 22005KT 10SM SCT200 BKN250 17/13 A3021 RMK AO2 SLP223 60136 T01670128 10244 20167 55001=
200904240452 METAR KATL 240452Z 23004KT 10SM SCT200 BKN250 17/13 A3021 RMK AO2 SLP223 T01670133 402720144=
200904240352 METAR KATL 240352Z 23004KT 10SM BKN180 OVC250 17/13 A3020 RMK AO2 SLP220 T01720133=
200904240252 METAR KATL 240252Z 18005KT 10SM BKN150 OVC200 18/15 A3021 RMK AO2 TSE44RAE05 SLP225 OCNL LTGICCGCA DSNT E-SE TS MOV SE P0000 60136 T01780150 50025=
200904240245 SPECI KATL 240245Z 19004KT 10SM BKN150 OVC200 18/14 A3021 RMK AO2 TSE44RAE05 FRQ LTGICCGCA DSNT E-SE TS MOV SE P0000=
200904240245 SPECI KATL 240245Z 19004KT 10SM BKN150 OVC200 18/14 A3021 RMK AO2 TSE44RAE05 FRQ LTGICCGCA DSNT E-SE TS MOV SE P0000=
200904240152 METAR KATL 240152Z 11010KT 10SM -TSRA FEW030CB SCT060 BKN080 OVC150 18/16 A3022 RMK AO2 WSHFT 0120 RAE19B51 SLP227 CONS LTGICCGCA NE-SE TS NE-SE MOV SE P0000 T01830156=
200904240138 SPECI KATL 240138Z 10012KT 10SM TS FEW030CB BKN050 BKN080 OVC150 19/16 A3021 RMK AO2 WSHFT 0120 RAE19 PRESFR CONS LTGICCGCA N-E-SE TS N-E-SE MOV SE P0000=
200904240138 SPECI KATL 240138Z 10012KT 10SM TS FEW030CB BKN050 BKN080 OVC150 19/16 A3021 RMK AO2 WSHFT 0120 RAE19 PRESFR CONS LTGICCGCA N-E-SE TS N-E-SE MOV SE P0000=
200904240127 SPECI KATL 240127Z 05014G20KT 10SM TS SCT030CB BKN042 OVC070 19/15 A3023 RMK AO2 WSHFT 0108 RAE19 CONS LTGICCGCA NW-NE-SE TS NW-NE-SE MOV SE P0000=
200904240127 SPECI KATL 240127Z 05014G20KT 10SM TS SCT030CB BKN042 OVC070 19/15 A3023 RMK AO2 WSHFT 0108 RAE19 CONS LTGICCGCA NW-NE-SE TS NW-NE-SE MOV SE P0000=
200904240052 METAR KATL 240052Z 09010G23KT 5SM TSRA SCT030CB BKN050 OVC080 19/15 A3017 RMK AO2 PK WND 29042/0003 GSB06E16GRB16E24B42E52 SLP211 FRQ LTGICCGCA NE-OHD-S TS NE-OHD-S MOV SE VIS NE-SE 2 P0136 T01890150=
200904240042 SPECI KATL 240042Z 01013G23KT 310V060 1SM R09R/P6000FT +TSRAGR FEW010 BKN030CB OVC060 18/15 A3018 RMK AO2 PK WND 29042/0003 GSB06E16GRB16E24B42 FRQ LTGICCGCA OHD-ALQDS TS OHD-ALQDS MOV SE GR 1 P0134=
200904240042 SPECI KATL 240042Z 01013G23KT 310V060 1SM R09R/P6000FT +TSRAGR FEW010 BKN030CB OVC060 18/15 A3018 RMK AO2 PK WND 29042/0003 GSB06E16GRB16E24B42 FRQ LTGICCGCA OHD-ALQDS TS OHD-ALQDS MOV SE GR 1 P0134=
200904240025 SPECI KATL 240025Z 11013G18KT 4SM TSRA FEW010 BKN035 OVC060 18/14 A3017 RMK AO2 PK WND 29042/0003 GSB06E16GRB16E24 FRQ LTGICCGCA OHD-ALQDS TS OHD-ALQDS MOV SE P0124=
200904240025 SPECI KATL 240025Z 11013G18KT 4SM TSRA FEW010 BKN035 OVC060 18/14 A3017 RMK AO2 PK WND 29042/0003 GSB06E16GRB16E24 FRQ LTGICCGCA OHD-ALQDS TS OHD-ALQDS MOV SE P0124=
200904240020 SPECI KATL 240020Z 10010G16KT 1/2SM R09R/2400VP6000FT +TSGRRA FEW010 OVC030CB 17/13 A3017 RMK AO2 PK WND 29042/0003 GSB06E16GRB16 FRQ LTGICCGCA OHD-ALQDS TS OHD-ALQDS MOV SE GR 3/4 P0088=
200904240020 SPECI KATL 240020Z 10010G16KT 1/2SM R09R/2400VP6000FT +TSGRRA FEW010 OVC030CB 17/13 A3017 RMK AO2 PK WND 29042/0003 GSB06E16GRB16 FRQ LTGICCGCA OHD-ALQDS TS OHD-ALQDS MOV SE GR 3/4 P0088=
200904240016 SPECI KATL 240016Z 05006G22KT 1/2SM R09R/2400V4500FT +TSGRRA FEW010 OVC030CB 18/12 A3019 RMK AO2 PK WND 29042/0003 GSB06E16GRB16 PRESRR FRQ LTGICCGCA OHD-ALQDS TS OHD-ALQDS MOV SE GR 1/2 P0075=
200904240016 SPECI KATL 240016Z 05006G22KT 1/2SM R09R/2400V4500FT +TSGRRA FEW010 OVC030CB 18/12 A3019 RMK AO2 PK WND 29042/0003 GSB06E16GRB16 PRESRR FRQ LTGICCGCA OHD-ALQDS TS OHD-ALQDS MOV SE GR 1/2 P0075=
200904240006 SPECI KATL 240006Z 19012G42KT 170V230 1SM R09R/5500VP6000FT +TSGSRA SQ BKN035CB OVC080 20/17 A3015 RMK AO2 PK WND 29042/0003 GSB06 FRQ LTGICCGCA OHD-ALQDS TS OHD-ALQDS MOV SE P0004=
200904240006 SPECI KATL 240006Z 19012G42KT 170V230 1SM R09R/5500VP6000FT +TSGSRA SQ BKN035CB OVC080 20/17 A3015 RMK AO2 PK WND 29042/0003 GSB06 FRQ LTGICCGCA OHD-ALQDS TS OHD-ALQDS MOV SE P0004=
200904240004 SPECI KATL 240004Z 27027G42KT 230V300 1 1/4SM R09R/5500VP6000FT +TSRA BR SQ BKN035CB BKN080 BKN150 OVC250 20/18 A3014 RMK AO2 PK WND 29042/0003 FRQ LTGICCGCA OHD-ALQDS TS OHD-ALQDS MOV SE P0003=
200904240004 SPECI KATL 240004Z 27027G42KT 230V300 1 1/4SM R09R/5500VP6000FT +TSRA BR SQ BKN035CB BKN080 BKN150 OVC250 20/18 A3014 RMK AO2 PK WND 29042/0003 FRQ LTGICCGCA OHD-ALQDS TS OHD-ALQDS MOV SE P0003=
200904232352 METAR KATL 232352Z 00000KT 7SM -TSRA SCT040CB BKN080 BKN150 24/17 A3014 RMK AO2 TSB09RAB13 SLP199 FRQ LTGICCGCA ALQDS-OHD TS ALQDS-OHD MOV SE P0003 60003 T02440167 10272 20244 53005=
200904232309 SPECI KATL 232309Z 19007KT 10SM TS FEW040CB BKN150 BKN250 26/16 A3011 RMK AO2 TSB09 FRQ LTGICCG W-N TS W-N MOV SE=
200904232309 SPECI KATL 232309Z 19007KT 10SM TS FEW040CB BKN150 BKN250 26/16 A3011 RMK AO2 TSB09 FRQ LTGICCG W-N TS W-N MOV SE=
200904232252 METAR KATL 232252Z 19007KT 10SM FEW045 BKN150 BKN250 26/16 A3011 RMK AO2 SLP190 OCNL LTGICCG DSNT NW T02610156=
200904232152 METAR KATL 232152Z 19004KT 10SM FEW050CB SCT150 BKN200 27/17 A3012 RMK AO2 SLP192 CB NW MOV SE T02720167=
200904232052 METAR KATL 232052Z 24009G15KT 10SM FEW050 SCT150 SCT300 27/16 A3012 RMK AO2 SLP193 TCU DSNT N-NE & DSNT S T02670161 56016=
200904231952 METAR KATL 231952Z 27008G15KT 10SM FEW047 SCT200 BKN300 27/17 A3013 RMK AO2 SLP197 T02670167=
200904231852 METAR KATL 231852Z 26003KT 10SM FEW040 SCT200 BKN300 26/17 A3015 RMK AO2 SLP204 T02560167=
200904231752 METAR KATL 231752Z 21006KT 10SM FEW040 SCT070 BKN150 BKN300 25/16 A3017 RMK AO2 SLP210 VIRGA DSNT NW T02500156 10256 20156 58007=
200904231652 METAR KATL 231652Z VRB04KT 10SM FEW090 SCT200 BKN300 24/16 A3018 RMK AO2 SLP214 T02440156=
200904231552 METAR KATL 231552Z 32004KT 10SM FEW090 SCT150 BKN200 BKN300 23/16 A3020 RMK AO2 SLP221 T02280156=
200904231452 METAR KATL 231452Z 26006KT 10SM FEW090 BKN150 BKN300 22/16 A3019 RMK AO2 SLP217 T02170156 53016=
200904231352 METAR KATL 231352Z 24008KT 10SM FEW090 BKN200 BKN300 19/14 A3017 RMK AO2 SLP212 ACC SE T01940144=
200904231252 METAR KATL 231252Z 23006KT 10SM FEW095 BKN150 BKN200 18/14 A3016 RMK AO2 SLP208 T01830139=
200904231152 METAR KATL 231152Z 00000KT 10SM SCT095 BKN150 16/13 A3014 RMK AO2 SLP203 CB DSNT SE T01560128 10167 20144 53027=
200904231052 METAR KATL 231052Z 22003KT 10SM SCT070 BKN080 BKN100 15/12 A3011 RMK AO2 SLP190 T01500117=
200904230952 METAR KATL 230952Z 23005KT 10SM BKN070 BKN100 BKN110 15/11 A3008 RMK AO2 SLP181 FRQ LTGCGIC DSNT SE-S T01500106=
200904230852 METAR KATL 230852Z 23003KT 10SM SCT090 15/09 A3006 RMK AO2 SLP174 CONS LTGCGIC DSNT SE-S-SW T01500094 55001=
200904230752 METAR KATL 230752Z 24006KT 10SM SCT080 16/09 A3005 RMK AO2 SLP172 FRQ LTGCGIC DSNT S-SW T01610094=
200904230652 METAR KATL 230652Z COR 24007KT 10SM BKN070 BKN085 OVC110 17/09 A3006 RMK AO2 SLP174 OCNL LTG DSNT S T01670089=
200904230552 METAR KATL 230552Z 23007KT 10SM BKN090 BKN120 16/09 A3006 RMK AO2 SLP176 T01610089 10200 20156 56003=
200904230452 METAR KATL 230452Z 23003KT 10SM BKN100 BKN120 17/08 A3006 RMK AO2 SLP177 T01670083 402170067=
200904230352 METAR KATL 230352Z 23006KT 10SM BKN095 18/08 A3006 RMK AO2 SLP177 T01780078=
200904230252 METAR KATL 230252Z 24005KT 10SM BKN095 OVC120 18/07 A3007 RMK AO2 SLP179 T01830072 53014=
200904230152 METAR KATL 230152Z 22005KT 10SM BKN110 18/07 A3005 RMK AO2 SLP174 T01830072=
200904230052 METAR KATL 230052Z 26003KT 10SM SCT140 19/04 A3004 RMK AO2 SLP170 T01890044=
200904222352 METAR KATL 222352Z 27007KT 10SM FEW100 20/04 A3003 RMK AO2 SLP167 T02000044 10217 20172 56002=
200904222252 METAR KATL 222252Z 28007KT 10SM CLR 21/05 A3003 RMK AO2 SLP167 T02110050=
200904222152 METAR KATL 222152Z 30013KT 10SM CLR 21/03 A3003 RMK AO2 SLP166 T02110033=
200904222052 METAR KATL 222052Z 29007G16KT 10SM FEW090 21/02 A3004 RMK AO2 SLP170 T02060022 58017=
200904221952 METAR KATL 221952Z 30012G19KT 10SM FEW085 20/02 A3006 RMK AO2 SLP177 T02000017=
200904221852 METAR KATL 221852Z 31011G18KT 10SM FEW095 SCT150 19/01 A3008 RMK AO2 SLP183 T01940011=
200904221752 METAR KATL 221752Z 29010G17KT 10SM FEW090 SCT110 SCT150 18/00 A3009 RMK AO2 SLP188 T01780000 10178 20083 50002=
200904221652 METAR KATL 221652Z 30008KT 10SM BKN085 BKN100 BKN150 16/00 A3009 RMK AO2 SLP189 T01610000=
200904221552 METAR KATL 221552Z 28005KT 10SM FEW100 BKN110 BKN150 16/01 A3009 RMK AO2 SLP189 T01560006=
200904221452 METAR KATL 221452Z VRB06KT 10SM BKN100 17/02 A3008 RMK AO2 SLP185 T01670017 51014=
200904221352 METAR KATL 221352Z 28007KT 10SM FEW080 13/02 A3007 RMK AO2 SLP181 T01330022=
200904221252 METAR KATL 221252Z 27007KT 10SM CLR 11/02 A3006 RMK AO2 SLP178 T01110017=
200904221152 METAR KATL 221152Z 25006KT 10SM CLR 08/01 A3004 RMK AO2 SLP173 T00830011 10106 20067 53028=
200904221052 METAR KATL 221052Z 28003KT 10SM FEW100 08/00 A3001 RMK AO2 SLP160 T00780000=
200904220952 METAR KATL 220952Z 24004KT 10SM BKN100 07/00 A2998 RMK AO2 SLP152 T00720000 $=
200904220852 METAR KATL 220852Z 23003KT 10SM BKN110 07/01 A2996 RMK AO2 SLP142 T00720006 55000 $=
200904220752 METAR KATL 220752Z 25003KT 10SM CLR 08/M02 A2995 RMK AO2 SLP140 T00831017 $=
200904220652 METAR KATL 220652Z 27004KT 10SM CLR 09/M02 A2995 RMK AO2 SLP140 T00891022 $=
200904220552 METAR KATL 220552Z 28006KT 10SM CLR 10/M02 A2996 RMK AO2 SLP142 T01001022 10167 20100 51013 $=
200904220452 METAR KATL 220452Z 28007KT 10SM CLR 11/M02 A2995 RMK AO2 SLP140 T01061022 402110100 $=
200904220352 METAR KATL 220352Z 29010KT 10SM CLR 12/M02 A2993 RMK AO2 SLP134 T01221017 $=
200904220252 METAR KATL 220252Z 28007KT 10SM CLR 13/04 A2992 RMK AO2 SLP129 T01280044 53029 $=
200904220152 METAR KATL 220152Z 24008KT 10SM SCT090 14/03 A2988 RMK AO2 SLP115 T01440033 $=
200904220052 METAR KATL 220052Z 27008KT 10SM CLR 15/02 A2985 RMK AO2 SLP105 T01500017 $=
200904212352 METAR KATL 212352Z 28012G22KT 10SM FEW075 17/01 A2983 RMK AO2 PK WND 27027/2315 SLP099 T01670006 10211 20167 53008 $=
200904212252 METAR KATL 212252Z 27014G20KT 10SM SCT075 SCT250 18/03 A2982 RMK AO2 PK WND 28026/2238 SLP096 T01830028 $=
200904212152 METAR KATL 212152Z 28017G25KT 10SM FEW085 SCT200 BKN250 19/02 A2981 RMK AO2 PK WND 29032/2137 SLP093 T01940022 $=
200904212052 METAR KATL 212052Z 28016G29KT 10SM FEW085 BKN180 OVC250 19/02 A2981 RMK AO2 PK WND 29029/2044 SLP090 T01890022 56013 $=
200904211952 METAR KATL 211952Z 27018G28KT 10SM FEW085 SCT095 BKN200 BKN250 19/02 A2982 RMK AO2 PK WND 26031/1932 SLP094 T01940022 $=
200904211852 METAR KATL 211852Z 28012G26KT 10SM SCT085 SCT200 BKN250 21/03 A2983 RMK AO2 PK WND 28031/1753 SLP096 T02060033=
200904211752 METAR KATL 211752Z 28018G32KT 10SM FEW085 SCT200 BKN250 21/01 A2984 RMK AO2 PK WND 29032/1746 SLP102 T02060011 10206 20117 58014=
200904211652 METAR KATL 211652Z 28016G24KT 10SM FEW065 SCT250 21/03 A2986 RMK AO2 SLP108 T02060033=
200904211552 METAR KATL 211552Z 27014G19KT 10SM FEW055 SCT080 SCT250 19/04 A2989 RMK AO2 SLP117 ACC DSNT NE T01890044=
200904211452 METAR KATL 211452Z 26013G17KT 10SM FEW080 SCT100 SCT250 16/06 A2989 RMK AO2 SLP118 ACC NE-E-SE T01560061 58002=
200904211352 METAR KATL 211352Z 25012G17KT 10SM FEW065 SCT100 SCT120 16/06 A2989 RMK AO2 SLP118 ACC DSNT N & W & NW T01560056=
200904211252 METAR KATL 211252Z 25004KT 10SM SCT065 BKN110 13/06 A2990 RMK AO2 SLP123 T01280056=
200904211152 METAR KATL 211152Z 26004KT 10SM SCT080 SCT090 12/05 A2989 RMK AO2 SLP120 T01170050 10122 20100 53004=
200904211052 METAR KATL 211052Z 22005KT 10SM BKN080 BKN095 11/06 A2988 RMK AO2 SLP117 T01060056=
200904210952 METAR KATL 210952Z 26005KT 10SM BKN090 11/06 A2989 RMK AO2 SLP117 T01110056=
200904210852 METAR KATL 210852Z 25004KT 10SM SCT200 11/05 A2988 RMK AO2 SLP115 T01110050 56006=
200904210752 METAR KATL 210752Z 26004KT 10SM SCT150 11/06 A2989 RMK AO2 SLP118 T01060056=
200904210652 METAR KATL 210652Z 00000KT 10SM FEW180 12/06 A2989 RMK AO2 SLP118 T01170056=
200904210552 METAR KATL 210552Z 28007KT 10SM FEW250 11/06 A2990 RMK AO2 SLP123 T01110061 10178 20111 58010=
200904210452 METAR KATL 210452Z 30006KT 10SM FEW250 12/07 A2991 RMK AO2 SLP127 T01170067 402060117=
200904210352 METAR KATL 210352Z 30007KT 10SM CLR 12/07 A2993 RMK AO2 SLP132 T01220072=
200904210252 METAR KATL 210252Z 30007KT 10SM CLR 14/08 A2993 RMK AO2 SLP134 T01390078 51022=
200904210152 METAR KATL 210152Z 30006KT 10SM FEW050 15/08 A2992 RMK AO2 SLP128 T01500078=
200904210052 METAR KATL 210052Z 31009KT 10SM FEW050 16/09 A2989 RMK AO2 SLP119 T01610089=
200904202352 METAR KATL 202352Z 31009KT 10SM SCT055 BKN080 18/09 A2987 RMK AO2 SLP110 T01780089 10206 20172 53010=
200904202252 METAR KATL 202252Z 28008G17KT 10SM FEW050 SCT080 19/08 A2985 RMK AO2 SLP103 T01890083=
200904202152 METAR KATL 202152Z 30008KT 10SM SCT050 BKN070 18/10 A2984 RMK AO2 SLP101 T01830100=
200904202052 METAR KATL 202052Z 27009KT 10SM FEW050 SCT070 BKN080 21/10 A2984 RMK AO2 SLP099 T02060100 56009=
200904201952 METAR KATL 201952Z 29011G18KT 10SM FEW050 SCT060 BKN070 18/09 A2984 RMK AO2 SLP103 T01830094=
200904201852 METAR KATL 201852Z 28012G18KT 10SM BKN040 BKN060 19/11 A2985 RMK AO2 SLP104 T01940106=
200904201752 METAR KATL 201752Z 27009G17KT 10SM FEW035 BKN045 BKN060 19/11 A2987 RMK AO2 SLP109 T01890111 10189 20133 50001=
200904201652 METAR KATL 201652Z 28012G17KT 10SM BKN035 BKN055 18/11 A2987 RMK AO2 SLP110 T01780111=
200904201552 METAR KATL 201552Z 27009KT 10SM SCT027 BKN040 BKN050 17/12 A2986 RMK AO2 SLP108 T01670117=
200904201507 SPECI KATL 201507Z 28009KT 10SM SCT020 SCT025 BKN035 17/12 A2986 RMK AO2=
200904201507 SPECI KATL 201507Z 28009KT 10SM SCT020 SCT025 BKN035 17/12 A2986 RMK AO2=
200904201452 METAR KATL 201452Z 26010KT 10SM SCT020 BKN025 BKN030 16/12 A2986 RMK AO2 SLP108 T01560117 53009=
200904201352 METAR KATL 201352Z 27009KT 10SM BKN017 16/13 A2985 RMK AO2 SLP105 T01610128=
200904201252 METAR KATL 201252Z 27006KT 10SM SCT011 SCT060 15/13 A2984 RMK AO2 SLP101 T01500128=
200904201152 METAR KATL 201152Z 28004KT 10SM FEW016 SCT025 14/13 A2983 RMK AO2 SLP099 60007 70042 T01390128 10156 20133 51018=
200904201106 SPECI KATL 201106Z 29006KT 10SM BKN027 13/12 A2982 RMK AO2=
200904201106 SPECI KATL 201106Z 29006KT 10SM BKN027 13/12 A2982 RMK AO2=
200904201052 METAR KATL 201052Z 30007KT 10SM FEW015 SCT023 SCT028 14/12 A2982 RMK AO2 SLP093 T01390122=
200904200952 METAR KATL 200952Z 29008KT 10SM BKN060 14/13 A2980 RMK AO2 SLP085 T01440133=
200904200852 METAR KATL 200852Z 23004KT 6SM BR SCT060 14/13 A2978 RMK AO2 SLP080 60007 T01390133 55014=
200904200752 METAR KATL 200752Z 24004KT 10SM OVC050 15/14 A2978 RMK AO2 RAE06 SLP078 P0001 T01500139=
200904200652 METAR KATL 200652Z 24007KT 7SM -RA BKN048 BKN085 BKN100 15/14 A2980 RMK AO2 TSE25 SLP087 TS MOV E P0006 T01500144=
200904200625 SPECI KATL 200625Z 26003KT 5SM -RA BR OVC046 15/14 A2981 RMK AO2 TSE25 TS MOV E P0003=
200904200625 SPECI KATL 200625Z 26003KT 5SM -RA BR OVC046 15/14 A2981 RMK AO2 TSE25 TS MOV E P0003=
200904200552 METAR KATL 200552Z 25009G22KT 3SM TSRA BR SCT008 BKN024CB OVC060 16/14 A2982 RMK AO2 PK WND 20031/0512 RAB10 SLP094 OCNL LTGIC OHD-SE-S TS OHD-SE-S MOV NE P0025 60034 T01560144 10194 20156 53001 $=
200904200543 SPECI KATL 200543Z 24016G22KT 5SM -TSRA BR FEW028CB OVC060 16/14 A2982 RMK AO2 PK WND 20031/0512 RAB10 OCNL LTGIC E AND SW TS E AND SW MOV NE P0020 $=
200904200543 SPECI KATL 200543Z 24016G22KT 5SM -TSRA BR FEW028CB OVC060 16/14 A2982 RMK AO2 PK WND 20031/0512 RAB10 OCNL LTGIC E AND SW TS E AND SW MOV NE P0020 $=
200904200534 SPECI KATL 200534Z 24010G23KT 2SM TSRA BR SCT014 BKN028CB OVC065 16/14 A2980 RMK AO2 PK WND 20031/0512 RAB10 OCNL LTGIC ALQDS TS ALQDS MOV NE P0017=
200904200534 SPECI KATL 200534Z 24010G23KT 2SM TSRA BR SCT014 BKN028CB OVC065 16/14 A2980 RMK AO2 PK WND 20031/0512 RAB10 OCNL LTGIC ALQDS TS ALQDS MOV NE P0017=
200904200524 SPECI KATL 200524Z 24017G24KT 6SM -TSRA FEW014CB SCT031 OVC070 17/14 A2981 RMK AO2 PK WND 20031/0512 RAB10 OCNL LTGIC E-SE TS E-SE MOV E P0012=
200904200524 SPECI KATL 200524Z 24017G24KT 6SM -TSRA FEW014CB SCT031 OVC070 17/14 A2981 RMK AO2 PK WND 20031/0512 RAB10 OCNL LTGIC E-SE TS E-SE MOV E P0012=
200904200519 SPECI KATL 200519Z 23014G31KT 2SM R09R/5500VP6000FT +TSRA BR BKN014CB BKN019 OVC070 17/15 A2980 RMK AO2 PK WND 20031/0512 RAB10 OCNL LTGIC OHD-E TS OHD-E MOV E P0012=
200904200519 SPECI KATL 200519Z 23014G31KT 2SM R09R/5500VP6000FT +TSRA BR BKN014CB BKN019 OVC070 17/15 A2980 RMK AO2 PK WND 20031/0512 RAB10 OCNL LTGIC OHD-E TS OHD-E MOV E P0012=
200904200514 SPECI KATL 200514Z 23017G31KT 1SM R09R/5500VP6000FT +TSRA BR BKN014CB OVC019 17/16 A2980 RMK AO2 PK WND 20031/0512 RAB10 OCNL LTGICCA OHD-W-NW TS OHD W-NW MOV E P0009=
200904200514 SPECI KATL 200514Z 23017G31KT 1SM R09R/5500VP6000FT +TSRA BR BKN014CB OVC019 17/16 A2980 RMK AO2 PK WND 20031/0512 RAB10 OCNL LTGICCA OHD-W-NW TS OHD W-NW MOV E P0009=
200904200501 SPECI KATL 200501Z 19012KT 10SM TS BKN014 OVC019CB 18/16 A2979 RMK AO2 FRQ LTGICCA W TS W MOV E=
200904200501 SPECI KATL 200501Z 19012KT 10SM TS BKN014 OVC019CB 18/16 A2979 RMK AO2 FRQ LTGICCA W TS W MOV E=
200904200452 METAR KATL 200452Z 19013G19KT 10SM TS BKN016 OVC023CB 18/16 A2979 RMK AO2 TSB52RAE20 SLP085 FRQ LTGIC SW-W TS SW-W MOV E P0001 T01780161 402060144=
200904200352 METAR KATL 200352Z 19013KT 10SM -RA OVC021CB 17/16 A2981 RMK AO2 RAB47 SLP091 CB S AND NW MOV NE P0000 T01720156=
200904200319 SPECI KATL 200319Z 19012KT 10SM BKN023 BKN036 OVC120 17/15 A2982 RMK AO2=
200904200319 SPECI KATL 200319Z 19012KT 10SM BKN023 BKN036 OVC120 17/15 A2982 RMK AO2=
200904200252 METAR KATL 200252Z 17015KT 10SM FEW034 SCT090 BKN250 17/15 A2982 RMK AO2 RAE00 SLP094 FRQ DSNT LTG NW-N CB DSNT NW-N P0000 60008 T01720150 58017=
200904200152 METAR KATL 200152Z 16005KT 10SM -RA SCT043 BKN060 BKN090 OVC150 17/16 A2985 RMK AO2 TSE0053B13E38RAB04E32B51 SLP104 TS MOV E P0003 T01720156=
200904200138 SPECI KATL 200138Z 16008KT 10SM SCT042 SCT065 OVC100 17/16 A2985 RMK AO2 TSE0053B13E38RAB04E32 TS MOV E P0003=
200904200138 SPECI KATL 200138Z 16008KT 10SM SCT042 SCT065 OVC100 17/16 A2985 RMK AO2 TSE0053B13E38RAB04E32 TS MOV E P0003=
200904200113 SPECI KATL 200113Z 17007KT 3SM TSRA FEW012 SCT027CB OVC042 18/15 A2986 RMK AO2 TSE0053B13RAB04 OCNL LTGIC S TS S MOV NE P0001=
200904200113 SPECI KATL 200113Z 17007KT 3SM TSRA FEW012 SCT027CB OVC042 18/15 A2986 RMK AO2 TSE0053B13RAB04 OCNL LTGIC S TS S MOV NE P0001=
200904200056 SPECI KATL 200056Z 18003KT 10SM FEW027CB BKN044 OVC070 18/16 A2986 RMK AO2 TSE53 TS DSIPT CB NE MOV NE=
200904200056 SPECI KATL 200056Z 18003KT 10SM FEW027CB BKN044 OVC070 18/16 A2986 RMK AO2 TSE53 TS DSIPT CB NE MOV NE=
200904200052 METAR KATL 200052Z 18003KT 8SM TS FEW027CB BKN044 OVC075 18/16 A2986 RMK AO2 TSB26RAB02E39 SLP108 TS DSIPT CB N-NE MOV NE P0005 T01780156=
200904200027 SPECI KATL 200027Z 16004KT 3SM TSRA SCT027CB BKN050 OVC070 18/15 A2986 RMK AO2 TSB26RAB02 OCNL LTGIC NW-N TS NW-N MOV NE P0005=
200904200027 SPECI KATL 200027Z 16004KT 3SM TSRA SCT027CB BKN050 OVC070 18/15 A2986 RMK AO2 TSB26RAB02 OCNL LTGIC NW-N TS NW-N MOV NE P0005=
200904192352 METAR KATL 192352Z 19008KT 10SM FEW022CB SCT045 BKN080 OVC150 19/13 A2987 RMK AO2 SLP110 CB SW-NW MOV NE SHRA SW-NW 60000 T01940133 10206 20183 56013=
200904192252 METAR KATL 192252Z 19009G18KT 10SM FEW035 SCT080 BKN110 BKN250 20/13 A2988 RMK AO2 RAB2158E07 SLP113 P0000 T02000128=
200904192152 METAR KATL 192152Z 19009KT 10SM FEW035 SCT050 BKN070 OVC150 19/14 A2990 RMK AO2 RAB07E37 SLP119 SHRA SW P0000 T01940139=
200904192052 METAR KATL 192052Z 18015G20KT 10SM SCT038 BKN085 OVC150 20/12 A2991 RMK AO2 SLP124 T02000122 58025=
200904191952 METAR KATL 191952Z 18016KT 10SM SCT030 BKN110 OVC200 19/13 A2994 RMK AO2 SLP134 T01940133=
200904191852 METAR KATL 191852Z 20014G21KT 10SM SCT020 BKN150 OVC250 19/13 A2997 RMK AO2 SLP145 T01940133=
200904191752 METAR KATL 191752Z 18012KT 10SM FEW020 SCT110 OVC200 18/13 A2999 RMK AO2 SLP151 60001 T01830133 10183 20150 58022=
200904191652 METAR KATL 191652Z 15007KT 10SM BKN110 OVC200 16/13 A3002 RMK AO2 RAE07 SLP162 P0000 T01610128=
200904191552 METAR KATL 191552Z 17006KT 8SM -RA FEW010 BKN043 OVC100 16/13 A3004 RMK AO2 RAB35 SLP170 P0001 T01560128=
200904191452 METAR KATL 191452Z 18011KT 8SM SCT043 OVC100 16/12 A3005 RMK AO2 RAB35E50 SLP174 P0000 60000 T01560122 53001=
200904191352 METAR KATL 191352Z 18012G18KT 10SM FEW100 BKN150 OVC200 16/13 A3005 RMK AO2 SLP171 T01610128=
200904191252 METAR KATL 191252Z 15004KT 10SM FEW110 BKN150 BKN250 15/12 A3004 RMK AO2 SLP169 T01500122=
200904191152 METAR KATL 191152Z 00000KT 8SM FEW110 BKN150 OVC250 15/12 A3005 RMK AO2 RAB03E13 SLP171 P0000 60000 T01500117 10156 20144 56006=
200904191052 METAR KATL 191052Z 22004KT 10SM SCT110 BKN250 14/11 A3005 RMK AO2 SLP171 T01440111=
200904190952 METAR KATL 190952Z 24005KT 10SM FEW065 SCT110 BKN250 15/10 A3005 RMK AO2 SLP172 T01500100=
200904190852 METAR KATL 190852Z 21005KT 10SM BKN110 OVC250 16/09 A3007 RMK AO2 SLP177 T01560089 55007=
200904190752 METAR KATL 190752Z 22004KT 10SM BKN180 OVC250 16/09 A3007 RMK AO2 SLP176 T01560089=
200904190652 METAR KATL 190652Z 21003KT 10SM FEW150 SCT250 15/08 A3008 RMK AO2 SLP180 T01500078=
200904190552 METAR KATL 190552Z 20003KT 10SM SCT100 OVC250 15/07 A3009 RMK AO2 SLP186 T01500072 10206 20144 58013=
200904190452 METAR KATL 190452Z 00000KT 10SM FEW095 SCT250 16/06 A3011 RMK AO2 SLP193 T01610061 402220072=
200904190352 METAR KATL 190352Z 00000KT 10SM BKN250 17/05 A3012 RMK AO2 SLP197 T01670050=
200904190252 METAR KATL 190252Z 22004KT 10SM FEW095 OVC250 17/05 A3013 RMK AO2 SLP200 T01720050 51011=
200904190152 METAR KATL 190152Z 18006KT 10SM FEW120 SCT150 OVC250 18/03 A3012 RMK AO2 SLP198 T01830033=
200904190052 METAR KATL 190052Z 00000KT 10SM BKN120 19/03 A3011 RMK AO2 SLP193 T01940028=
200904182352 METAR KATL 182352Z 15003KT 10SM SCT110 BKN150 BKN250 21/01 A3010 RMK AO2 SLP190 T02060011 10222 20189 56013=
200904182252 METAR KATL 182252Z 19004KT 10SM FEW090 BKN150 BKN200 21/M01 A3011 RMK AO2 SLP195 T02111006=
200904182152 METAR KATL 182152Z 20008KT 10SM FEW100 BKN150 BKN250 21/M03 A3012 RMK AO2 SLP198 T02111028=
200904182052 METAR KATL 182052Z 00000KT 10SM FEW100 SCT150 BKN250 22/M01 A3014 RMK AO2 SLP202 T02221011 58024=
200904181952 METAR KATL 181952Z VRB06KT 10SM SCT150 BKN250 22/02 A3016 RMK AO2 SLP211 T02170017=
200904181852 METAR KATL 181852Z 19008KT 10SM BKN150 BKN250 20/00 A3018 RMK AO2 SLP218 T02000000=
200904181752 METAR KATL 181752Z 21004KT 10SM BKN150 BKN250 19/01 A3021 RMK AO2 SLP227 T01890006 10200 20089 58020=
200904181652 METAR KATL 181652Z VRB04KT 10SM BKN150 BKN250 19/03 A3025 RMK AO2 SLP239 T01890028=
200904181552 METAR KATL 181552Z 15004KT 10SM BKN150 OVC250 18/03 A3026 RMK AO2 SLP246 T01780028=
200904181452 METAR KATL 181452Z 21003KT 10SM BKN150 OVC250 16/03 A3027 RMK AO2 SLP248 T01560033 53001=
200904181352 METAR KATL 181352Z 12004KT 10SM BKN150 BKN250 13/03 A3026 RMK AO2 SLP244 T01330028=
200904181252 METAR KATL 181252Z 21003KT 10SM FEW150 BKN250 12/03 A3027 RMK AO2 SLP249 T01170033=
200904181152 METAR KATL 181152Z 00000KT 10SM FEW150 SCT250 09/04 A3027 RMK AO2 SLP247 T00890039 10122 20072 55000=
200904181052 METAR KATL 181052Z 00000KT 10SM FEW250 08/02 A3024 RMK AO2 SLP239 T00830022=
200904180952 METAR KATL 180952Z 00000KT 10SM CLR 09/02 A3024 RMK AO2 SLP239 T00890022=
200904180852 METAR KATL 180852Z 00000KT 10SM CLR 10/02 A3026 RMK AO2 SLP247 T01000022 53003=
200904180752 METAR KATL 180752Z 00000KT 10SM CLR 09/04 A3025 RMK AO2 SLP241 T00890039=
200904180652 METAR KATL 180652Z 00000KT 10SM FEW250 12/02 A3024 RMK AO2 SLP237 T01170022=
200904180552 METAR KATL 180552Z 00000KT 10SM FEW250 12/03 A3026 RMK AO2 SLP244 T01220033 10194 20117 58010=
200904180452 METAR KATL 180452Z 14003KT 10SM FEW250 13/03 A3027 RMK AO2 SLP247 T01330033 402060083=
200904180352 METAR KATL 180352Z 12004KT 10SM FEW250 15/02 A3028 RMK AO2 SLP250 T01500022=
200904180252 METAR KATL 180252Z 13004KT 10SM FEW250 15/03 A3029 RMK AO2 SLP254 T01500033 50001=
200904180152 METAR KATL 180152Z 12003KT 10SM FEW250 17/02 A3029 RMK AO2 SLP257 T01670017=
200904180052 METAR KATL 180052Z 14003KT 10SM FEW250 17/02 A3029 RMK AO2 SLP254 T01720022=
200904172352 METAR KATL 172352Z 14004KT 10SM FEW250 19/00 A3028 RMK AO2 SLP253 T01940000 10206 20189 51007=
200904172252 METAR KATL 172252Z 11005KT 10SM FEW250 20/01 A3028 RMK AO2 SLP251 T02000011=
200904172152 METAR KATL 172152Z 11006KT 10SM FEW250 20/02 A3027 RMK AO2 SLP248 T02000017=
200904172052 METAR KATL 172052Z 13007KT 10SM FEW250 21/02 A3026 RMK AO2 SLP246 T02060017 58025=
200904171952 METAR KATL 171952Z VRB06KT 10SM FEW250 20/02 A3029 RMK AO2 SLP255 T02000022=
200904171852 METAR KATL 171852Z 11005KT 10SM FEW250 19/02 A3032 RMK AO2 SLP265 T01940022=
200904171752 METAR KATL 171752Z 09009G17KT 10SM FEW250 19/03 A3034 RMK AO2 SLP272 T01890028 10194 20100 58019=
200904171652 METAR KATL 171652Z 13010G20KT 10SM FEW250 18/02 A3036 RMK AO2 SLP280 T01830022=
200904171552 METAR KATL 171552Z 12009KT 10SM FEW250 17/02 A3039 RMK AO2 SLP289 T01670017=
200904171452 METAR KATL 171452Z 13008KT 10SM SCT250 15/03 A3040 RMK AO2 SLP292 T01500028 53012=
200904171352 METAR KATL 171352Z 11008KT 10SM BKN250 13/06 A3038 RMK AO2 SLP285 T01330061=
200904171252 METAR KATL 171252Z 08009KT 10SM BKN250 11/06 A3036 RMK AO2 SLP282 T01110056=
200904171152 METAR KATL 171152Z 07009KT 10SM FEW060 SCT150 BKN250 10/05 A3036 RMK AO2 SLP279 T01000050 10117 20083 53020=
200904171052 METAR KATL 171052Z 07009KT 10SM FEW060 SCT250 09/05 A3033 RMK AO2 SLP269 T00890050=
200904170952 METAR KATL 170952Z 08005KT 10SM FEW250 09/05 A3033 RMK AO2 SLP268 T00890050=
200904170852 METAR KATL 170852Z 08005KT 10SM FEW250 09/05 A3030 RMK AO2 SLP258 T00940050 53005=
200904170752 METAR KATL 170752Z 08009KT 10SM CLR 11/05 A3028 RMK AO2 SLP252 T01060050=
200904170652 METAR KATL 170652Z 08009KT 10SM CLR 11/06 A3027 RMK AO2 SLP248 T01110061=
200904170552 METAR KATL 170552Z 08008KT 10SM FEW250 12/07 A3028 RMK AO2 SLP252 T01170072 10183 20111 51014=
200904170452 METAR KATL 170452Z 08006KT 10SM SCT250 12/07 A3028 RMK AO2 SLP252 402060072 T01170072 404780072=
200904170352 METAR KATL 170352Z 08005KT 10SM FEW250 13/07 A3026 RMK AO2 SLP247 T01280072=
200904170252 METAR KATL 170252Z 08007KT 10SM CLR 14/07 A3024 RMK AO2 SLP238 T01390072 51014=
200904170152 METAR KATL 170152Z 09005KT 10SM CLR 15/07 A3023 RMK AO2 SLP235 T01500072=
200904170052 METAR KATL 170052Z 09006KT 10SM FEW250 16/07 A3021 RMK AO2 SLP230 T01610072=
200904162352 METAR KATL 162352Z 10006KT 10SM FEW200 18/07 A3020 RMK AO2 SLP225 T01830067 10206 20178 53004=
200904162252 METAR KATL 162252Z 10007KT 10SM FEW055 SCT250 18/07 A3019 RMK AO2 SLP222 T01830067=
200904162152 SPECI KATL 162152Z 08010G14KT 10SM SCT060 SCT250 20/08 A3019 RMK AO2 SLP221 T02000083=
200904162052 METAR KATL 162052Z COR 11006KT 10SM BKN060 BKN250 20/08 A3019 RMK AO2 SLP221 T02000083 56005=
200904161952 METAR KATL 161952Z 10005KT 10SM BKN050 BKN250 19/08 A3019 RMK AO2 SLP222 T01940083=
200904161852 METAR KATL 161852Z 11008KT 070V160 10SM BKN046 BKN250 18/08 A3019 RMK AO2 SLP223 T01830083=
200904161752 METAR KATL 161752Z 09009G14KT 10SM SCT040 SCT250 18/09 A3020 RMK AO2 SLP226 T01830094 10183 20089 58009=
200904161652 METAR KATL 161652Z 07013KT 10SM FEW040 SCT250 BKN300 17/08 A3022 RMK AO2 SLP233 T01720083=
200904161552 METAR KATL 161552Z 07012G18KT 10SM FEW035 BKN250 BKN300 17/08 A3023 RMK AO2 SLP236 T01670083=
200904161452 METAR KATL 161452Z 09010KT 10SM FEW035 SCT250 BKN300 15/07 A3023 RMK AO2 SLP237 T01500072 51017=
200904161352 METAR KATL 161352Z 08016G22KT 10SM FEW025 SCT250 13/06 A3022 RMK AO2 SLP233 T01280061=
200904161252 METAR KATL 161252Z 08014G21KT 10SM FEW250 11/06 A3021 RMK AO2 SLP228 T01110056=
200904161152 METAR KATL 161152Z 07010KT 10SM FEW250 09/05 A3018 RMK AO2 SLP220 T00890050 10089 20072 53046=
200904161052 METAR KATL 161052Z 06007KT 10SM FEW250 08/04 A3015 RMK AO2 SLP209 T00830044=
200904160952 METAR KATL 160952Z COR 02005KT 9SM CLR 08/05 A3013 RMK AO2 SLP201 T00830050 $=
200904160852 METAR KATL 160852Z 02006KT 10SM CLR 08/05 A3011 RMK AO2 T00780050 $=
200904160752 METAR KATL 160752Z 35005KT 10SM CLR 07/05 A3011 RMK AO2 T00720050 $=
200904160652 METAR KATL 160652Z COR 34008KT 10SM CLR 08/05 A3009 RMK AO2 SLP185 T00780050 $=
200904160553 METAR KATL 160553Z COR 34008KT 10SM FEW250 08/05 A3010 RMK AO2 SLPNO T00830050 10139 20083 55000 $=
200904160452 METAR KATL 160452Z 33010KT 10SM FEW250 09/05 A3009 RMK AO2 SLP192 T00890050 401610072=
200904160352 METAR KATL 160352Z 33011KT 10SM CLR 09/05 A3009 RMK AO2 SLP192 T00940050=
200904160252 METAR KATL 160252Z 33014KT 10SM FEW250 10/04 A3010 RMK AO2 SLP192 T01000044 53020=
200904160152 METAR KATL 160152Z 34011G19KT 10SM CLR 11/05 A3007 RMK AO2 SLP184 T01110050=
200904160052 METAR KATL 160052Z 34010KT 10SM FEW250 13/05 A3006 RMK AO2 SLP178 T01280050=
200904152352 METAR KATL 152352Z 33012KT 10SM FEW250 14/06 A3003 RMK AO2 SLP171 T01390056 10161 20139 53007=
200904152252 METAR KATL 152252Z 34014KT 10SM FEW250 16/06 A3002 RMK AO2 SLP167 T01560056=
200904152152 METAR KATL 152152Z 33015KT 10SM FEW250 16/06 A3002 RMK AO2 SLP165 T01560061=
200904152052 METAR KATL 152052Z 35012G18KT 10SM FEW040 16/07 A3001 RMK AO2 SLP163 T01610067 58006=
200904151952 METAR KATL 151952Z 35012G19KT 10SM FEW040 16/07 A3002 RMK AO2 SLP164 T01610067=
200904151852 METAR KATL 151852Z 31010G19KT 10SM FEW040 16/07 A3003 RMK AO2 SLP169 T01560067=
200904151752 METAR KATL 151752Z 31016G20KT 10SM FEW035 14/06 A3003 RMK AO2 SLP170 T01440061 10150 20083 50003=
200904151652 METAR KATL 151652Z 32011G21KT 10SM FEW035 13/06 A3004 RMK AO2 SLP173 T01330061=
200904151552 METAR KATL 151552Z 32009G18KT 10SM FEW030 13/06 A3004 RMK AO2 SLP173 T01330061=
200904151452 METAR KATL 151452Z 35011KT 10SM FEW025 12/05 A3002 RMK AO2 SLP167 T01220050 51013=
200904151352 METAR KATL 151352Z 34015G19KT 10SM FEW022 11/04 A3002 RMK AO2 SLP165 T01060044=
200904151252 METAR KATL 151252Z 32015G20KT 10SM FEW023 SCT250 09/04 A3000 RMK AO2 SLP159 T00940044=
200904151152 METAR KATL 151152Z 33010G18KT 10SM FEW250 08/04 A2998 RMK AO2 SLP154 70004 T00830039 10089 20072 51024=
200904151052 METAR KATL 151052Z 31008KT 10SM SCT250 07/03 A2998 RMK AO2 SLP152 T00720033=
200904150952 METAR KATL 150952Z 34010G17KT 10SM CLR 08/04 A2994 RMK AO2 SLP139 T00780039=
200904150852 METAR KATL 150852Z 34013KT 10SM CLR 08/05 A2991 RMK AO2 SLP127 T00830050 53000=
200904150752 METAR KATL 150752Z 33007KT 10SM CLR 08/06 A2990 RMK AO2 SLP125 T00830056=
200904150725 SPECI KATL 150725Z 31006KT 10SM FEW026 08/06 A2990 RMK AO2=
200904150725 SPECI KATL 150725Z 31006KT 10SM FEW026 08/06 A2990 RMK AO2=
200904150652 METAR KATL 150652Z 31007KT 10SM BKN026 09/06 A2990 RMK AO2 SLP125 T00890056=
200904150635 SPECI KATL 150635Z 31005KT 10SM BKN026 08/06 A2991 RMK AO2=
200904150635 SPECI KATL 150635Z 31005KT 10SM BKN026 08/06 A2991 RMK AO2=
200904150552 METAR KATL 150552Z 31007KT 10SM FEW022 SCT060 09/06 A2991 RMK AO2 SLP125 T00890056 10122 20089 55001=
200904150452 METAR KATL 150452Z 31009KT 10SM FEW040 09/06 A2990 RMK AO2 SLP123 T00940056 401830094=
200904150352 METAR KATL 150352Z 31011KT 10SM FEW040 09/06 A2990 RMK AO2 SLP125 T00940056=
200904150252 METAR KATL 150252Z 30009KT 10SM FEW040 10/06 A2991 RMK AO2 SLP126 T01000056 53018=
200904150152 METAR KATL 150152Z 30011G17KT 10SM FEW040 11/06 A2989 RMK AO2 SLP120 T01060056=
200904150052 METAR KATL 150052Z 29014G21KT 10SM BKN042 12/05 A2987 RMK AO2 SLP113 T01170050=
200904142352 METAR KATL 142352Z 29009KT 10SM SCT042 BKN050 12/04 A2985 RMK AO2 SLP108 T01170044 10183 20117 53025=
200904142252 METAR KATL 142252Z 28015G24KT 10SM SCT042 13/05 A2983 RMK AO2 PK WND 29027/2221 SLP098 T01330050=
200904142152 METAR KATL 142152Z 30013G23KT 10SM BKN044 16/07 A2980 RMK AO2 PK WND 31029/2142 SLP087 T01560067=
200904142052 METAR KATL 142052Z 29014G21KT 10SM SCT045 17/08 A2978 RMK AO2 SLP080 T01670078 53002=
200904141952 METAR KATL 141952Z 30014G20KT 10SM BKN040 BKN050 17/08 A2977 RMK AO2 SLP078 T01670083=
200904141852 METAR KATL 141852Z 28014G20KT 10SM SCT040 18/11 A2977 RMK AO2 SLP075 T01830106=
200904141759 SPECI KATL 141759Z 30014G21KT 10SM FEW020 SCT025 BKN030 18/12 A2977 RMK AO2=
200904141759 SPECI KATL 141759Z 30014G21KT 10SM FEW020 SCT025 BKN030 18/12 A2977 RMK AO2=
200904141752 METAR KATL 141752Z 29014KT 10SM FEW020 BKN025 BKN035 18/12 A2977 RMK AO2 SLP078 60004 T01780117 10178 20144 50002=
200904141738 SPECI KATL 141738Z 30011G16KT 10SM FEW020 SCT025 BKN035 18/12 A2977 RMK AO2=
200904141738 SPECI KATL 141738Z 30011G16KT 10SM FEW020 SCT025 BKN035 18/12 A2977 RMK AO2=
200904141652 METAR KATL 141652Z 29009G16KT 10SM SCT015 BKN025 BKN030 17/12 A2978 RMK AO2 RAB1553E03 SLP079 P0000 T01670122=
200904141629 SPECI KATL 141629Z 31011KT 10SM FEW010 BKN017 OVC022 16/12 A2978 RMK AO2 RAB1553E03 P0000=
200904141629 SPECI KATL 141629Z 31011KT 10SM FEW010 BKN017 OVC022 16/12 A2978 RMK AO2 RAB1553E03 P0000=
200904141601 SPECI KATL 141601Z 31015G19KT 10SM -RA BKN012 OVC020 14/12 A2978 RMK AO2 RAB1553 P0000=
200904141601 SPECI KATL 141601Z 31015G19KT 10SM -RA BKN012 OVC020 14/12 A2978 RMK AO2 RAB1553 P0000=
200904141552 METAR KATL 141552Z 32012KT 10SM SCT015 BKN020 OVC040 15/13 A2978 RMK AO2 SLP082 T01500128=
200904141456 SPECI KATL 141456Z 30011KT 10SM SCT015 BKN040 BKN050 16/13 A2976 RMK AO2=
200904141456 SPECI KATL 141456Z 30011KT 10SM SCT015 BKN040 BKN050 16/13 A2976 RMK AO2=
200904141452 METAR KATL 141452Z 28011KT 10SM FEW010 BKN020 BKN050 16/13 A2977 RMK AO2 SLP077 60004 T01610133 53003=
200904141409 SPECI KATL 141409Z 29006KT 10SM FEW008 BKN046 BKN080 16/13 A2976 RMK AO2=
200904141409 SPECI KATL 141409Z 29006KT 10SM FEW008 BKN046 BKN080 16/13 A2976 RMK AO2=
200904141352 METAR KATL 141352Z 27007KT 10SM FEW010 SCT026 BKN046 17/15 A2975 RMK AO2 RAE28 SLP072 CB DSNT NE-E P0000 T01670150=
200904141320 SPECI KATL 141320Z 28006KT 7SM -RA FEW010CB BKN023 BKN043 16/14 A2976 RMK AO2 CB E-SE MOV NE SHRA E-SE P0000=
200904141320 SPECI KATL 141320Z 28006KT 7SM -RA FEW010CB BKN023 BKN043 16/14 A2976 RMK AO2 CB E-SE MOV NE SHRA E-SE P0000=
200904141314 SPECI KATL 141314Z 26006KT 3SM -RA BR SCT010 BKN020 OVC030 16/14 A2976 RMK AO2 SFC VIS 6 P0000=
200904141314 SPECI KATL 141314Z 26006KT 3SM -RA BR SCT010 BKN020 OVC030 16/14 A2976 RMK AO2 SFC VIS 6 P0000=
200904141252 METAR KATL 141252Z 00000KT 3SM -RA BR BKN010 BKN025 16/15 A2975 RMK AO2 SFC VIS 6 RAB16 SLP072 P0004 T01560150=
200904141223 SPECI KATL 141223Z 18004KT 3SM RA BR BKN005 BKN037 OVC050 15/15 A2975 RMK AO2 RAB16 P0002=
200904141223 SPECI KATL 141223Z 18004KT 3SM RA BR BKN005 BKN037 OVC050 15/15 A2975 RMK AO2 RAB16 P0002=
200904141204 SPECI KATL 141204Z 12003KT 9SM SCT007 BKN032 OVC050 15/14 A2975 RMK AO2=
200904141204 SPECI KATL 141204Z 12003KT 9SM SCT007 BKN032 OVC050 15/14 A2975 RMK AO2=
200904141152 METAR KATL 141152Z 14004KT 6SM BR BKN007 OVC010 15/14 A2976 RMK AO2 SLP073 60005 70026 T01500144 10156 20150 53003=
200904141052 METAR KATL 141052Z 14005KT 10SM BKN009 BKN015 15/14 A2974 RMK AO2 TSB01E24RAE16 SLP068 TS MOV NE P0001 T01500144=
200904141039 SPECI KATL 141039Z 00000KT 10SM FEW009 BKN015 OVC022 15/14 A2974 RMK AO2 TSB01E24RAE16 TS MOV NE P0001=
200904141039 SPECI KATL 141039Z 00000KT 10SM FEW009 BKN015 OVC022 15/14 A2974 RMK AO2 TSB01E24RAE16 TS MOV NE P0001=
200904141028 SPECI KATL 141028Z 00000KT 10SM SCT011 BKN016 OVC021 15/14 A2974 RMK AO2 TSB01E24RAE16 TS MOV NE P0001=
200904141028 SPECI KATL 141028Z 00000KT 10SM SCT011 BKN016 OVC021 15/14 A2974 RMK AO2 TSB01E24RAE16 TS MOV NE P0001=
200904141003 SPECI KATL 141003Z 00000KT 6SM -TSRA BR BKN012CB OVC018 15/14 A2974 RMK AO2 TSB01 OCNL LTGIC S MOV NE TS S MOV NE P0001=
200904141003 SPECI KATL 141003Z 00000KT 6SM -TSRA BR BKN012CB OVC018 15/14 A2974 RMK AO2 TSB01 OCNL LTGIC S MOV NE TS S MOV NE P0001=
200904140952 METAR KATL 140952Z 00000KT 5SM -RA BR SCT010 OVC014 15/14 A2975 RMK AO2 TSE28RAB03 SLP070 LTG DSNT E TS MOV NE P0004 T01500144=
200904140934 SPECI KATL 140934Z 00000KT 4SM -RA BR BKN008 OVC016 15/14 A2974 RMK AO2 TSE28RAB03 CIG 006V011 TS MOV NE P0002=
200904140934 SPECI KATL 140934Z 00000KT 4SM -RA BR BKN008 OVC016 15/14 A2974 RMK AO2 TSE28RAB03 CIG 006V011 TS MOV NE P0002=
200904140924 SPECI KATL 140924Z 00000KT 3SM -TSRA BR BKN008CB OVC012 15/14 A2974 RMK AO2 RAB03 OCNL LTGINCC N AND NE MOV NE TS N AND NE MOV NE P0002=
200904140924 SPECI KATL 140924Z 00000KT 3SM -TSRA BR BKN008CB OVC012 15/14 A2974 RMK AO2 RAB03 OCNL LTGINCC N AND NE MOV NE TS N AND NE MOV NE P0002=
200904140852 METAR KATL 140852Z 13003KT 7SM TS BKN012CB BKN015 16/14 A2974 RMK AO2 TSB29 SLP068 FRQ LTGICCC N AND NW MOV NE TS N AND NW MOV NE T01560139 56021=
200904140835 SPECI KATL 140835Z 00000KT 7SM TS BKN012CB BKN018 16/14 A2975 RMK AO2 TSB29 FRQ LTGICCC W AND NW MOV NE TS W AND NW MOV NE=
200904140835 SPECI KATL 140835Z 00000KT 7SM TS BKN012CB BKN018 16/14 A2975 RMK AO2 TSB29 FRQ LTGICCC W AND NW MOV NE TS W AND NW MOV NE=
200904140804 SPECI KATL 140804Z 25005KT 10SM BKN012 BKN018 16/14 A2976 RMK AO2=
200904140804 SPECI KATL 140804Z 25005KT 10SM BKN012 BKN018 16/14 A2976 RMK AO2=
200904140752 METAR KATL 140752Z 21005KT 10SM SCT012 BKN020 16/14 A2976 RMK AO2 SLP073 T01560139=
200904140652 METAR KATL 140652Z 20009KT 7SM FEW013 OVC018 16/14 A2976 RMK AO2 SLP075 T01560139=
200904140637 SPECI KATL 140637Z 19010KT 7SM BKN008 OVC015 16/14 A2976 RMK AO2=
200904140637 SPECI KATL 140637Z 19010KT 7SM BKN008 OVC015 16/14 A2976 RMK AO2=
200904140625 SPECI KATL 140625Z 20010KT 7SM FEW007 OVC013 16/14 A2977 RMK AO2 PRESFR=
200904140625 SPECI KATL 140625Z 20010KT 7SM FEW007 OVC013 16/14 A2977 RMK AO2 PRESFR=
200904140552 METAR KATL 140552Z 19010G18KT 5SM BR BKN007 OVC009 16/14 A2981 RMK AO2 SLP090 T01560144 10161 20150 56016=
200904140452 METAR KATL 140452Z 17009KT 6SM BR OVC007 15/14 A2982 RMK AO2 CIG 005V010 SLP095 T01500144 401780106=
200904140352 METAR KATL 140352Z 17009KT 7SM BKN007 OVC022 15/14 A2984 RMK AO2 SLP101 T01500139=
200904140345 SPECI KATL 140345Z 16009KT 7SM BKN007 BKN013 OVC022 15/14 A2984 RMK AO2=
200904140345 SPECI KATL 140345Z 16009KT 7SM BKN007 BKN013 OVC022 15/14 A2984 RMK AO2=
200904140316 SPECI KATL 140316Z 15006KT 7SM FEW008 SCT013 OVC021 15/14 A2984 RMK AO2=
200904140316 SPECI KATL 140316Z 15006KT 7SM FEW008 SCT013 OVC021 15/14 A2984 RMK AO2=
200904140302 SPECI KATL 140302Z 14008KT 7SM FEW008 BKN013 OVC021 15/14 A2984 RMK AO2=
200904140302 SPECI KATL 140302Z 14008KT 7SM FEW008 BKN013 OVC021 15/14 A2984 RMK AO2=
200904140252 METAR KATL 140252Z 14006KT 7SM BKN008 OVC021 15/14 A2985 RMK AO2 SLP107 T01500139 53005=
200904140226 SPECI KATL 140226Z 15007KT 7SM BKN008 OVC021 15/14 A2986 RMK AO2=
200904140226 SPECI KATL 140226Z 15007KT 7SM BKN008 OVC021 15/14 A2986 RMK AO2=
200904140152 METAR KATL 140152Z 14005KT 10SM FEW005 BKN019 OVC150 16/14 A2986 RMK AO2 SLP108 T01560139=
200904140150 SPECI KATL 140150Z 14008KT 10SM FEW005 BKN019 OVC150 16/14 A2985 RMK AO2=
200904140150 SPECI KATL 140150Z 14008KT 10SM FEW005 BKN019 OVC150 16/14 A2985 RMK AO2=
200904140134 SPECI KATL 140134Z 14007KT 10SM BKN019 OVC150 16/14 A2986 RMK AO2=
200904140134 SPECI KATL 140134Z 14007KT 10SM BKN019 OVC150 16/14 A2986 RMK AO2=
200904140052 METAR KATL 140052Z 11004KT 10SM BKN150 OVC250 16/14 A2983 RMK AO2 SLP101 T01560139=
200904132352 METAR KATL 132352Z 14005KT 10SM FEW018 BKN150 OVC250 17/14 A2984 RMK AO2 SLP102 T01670139 10178 20156 57012=
200904132332 SPECI KATL 132332Z 15005KT 10SM SCT018 SCT024 BKN036 BKN150 BKN250 17/14 A2986 RMK AO2=
200904132332 SPECI KATL 132332Z 15005KT 10SM SCT018 SCT024 BKN036 BKN150 BKN250 17/14 A2986 RMK AO2=
200904132252 METAR KATL 132252Z 11004KT 10SM BKN016 OVC022 17/14 A2985 RMK AO2 SLP106 T01720139=
200904132152 METAR KATL 132152Z 16008KT 10SM OVC018 17/14 A2986 RMK AO2 SLP110 T01720139=
200904132052 METAR KATL 132052Z 15007KT 10SM BKN018 BKN047 OVC150 17/14 A2988 RMK AO2 SLP114 T01720139 55009=
200904131952 METAR KATL 131952Z 13004KT 10SM OVC018 17/13 A2988 RMK AO2 SLP114 T01670128=
200904131852 METAR KATL 131852Z 13007KT 10SM BKN020 BKN060 OVC150 16/13 A2989 RMK AO2 SLP120 T01610128=
200904131833 SPECI KATL 131833Z 12007KT 10SM BKN021 BKN055 BKN150 16/13 A2988 RMK AO2=
200904131833 SPECI KATL 131833Z 12007KT 10SM BKN021 BKN055 BKN150 16/13 A2988 RMK AO2=
200904131752 METAR KATL 131752Z 11008KT 10SM FEW020 BKN060 BKN150 BKN250 16/12 A2991 RMK AO2 SLP124 60021 T01560122 10156 20106 51023=
200904131652 METAR KATL 131652Z 09008KT 10SM FEW020 SCT060 BKN150 BKN250 14/12 A2990 RMK AO2 SLP122 VIRGA ALQDS CBMAM DSNT NE T01440117=
200904131605 SPECI KATL 131605Z 08007KT 10SM FEW017 SCT020 OVC150 14/12 A2990 RMK AO2 PRESFR=
200904131605 SPECI KATL 131605Z 08007KT 10SM FEW017 SCT020 OVC150 14/12 A2990 RMK AO2 PRESFR=
200904131552 METAR KATL 131552Z 00000KT 10SM BKN017 BKN020 OVC150 14/12 A2994 RMK AO2 PK WND 12027/1454 SLP135 T01440117=
200904131527 SPECI KATL 131527Z VRB03KT 10SM BKN015 BKN075 OVC150 14/12 A2991 RMK AO2 PK WND 12027/1454=
200904131527 SPECI KATL 131527Z VRB03KT 10SM BKN015 BKN075 OVC150 14/12 A2991 RMK AO2 PK WND 12027/1454=
200904131452 METAR KATL 131452Z 13022G35KT 10SM FEW005 SCT030 SCT060 OVC150 14/12 A2984 RMK AO2 PK WND 15045/1353 RAE32 SLP099 VIRGA OHD & ALQDS SHRA DSNT NE-SE P0001 60021 T01390117 58075=
200904131416 SPECI KATL 131416Z 14024G42KT 10SM -RA FEW003 SCT030 OVC060 13/12 A2987 RMK AO2 PK WND 15045/1353 P0001=
200904131416 SPECI KATL 131416Z 14024G42KT 10SM -RA FEW003 SCT030 OVC060 13/12 A2987 RMK AO2 PK WND 15045/1353 P0001=
200904131401 SPECI KATL 131401Z 14025G45KT 6SM -RA BR FEW003 BKN040 OVC060 12/11 A2988 RMK AO2 PK WND 15045/1353 PRESFR P0000=
200904131401 SPECI KATL 131401Z 14025G45KT 6SM -RA BR FEW003 BKN040 OVC060 12/11 A2988 RMK AO2 PK WND 15045/1353 PRESFR P0000=
200904131358 SPECI KATL 131358Z 13025G45KT 6SM -RA BR BKN003 OVC038 12/11 A2990 RMK AO2 PK WND 15045/1353 P0000=
200904131358 SPECI KATL 131358Z 13025G45KT 6SM -RA BR BKN003 OVC038 12/11 A2990 RMK AO2 PK WND 15045/1353 P0000=
200904131352 METAR KATL 131352Z 14035G45KT 1 1/2SM -RA BR OVC006 11/11 A2991 RMK AO2 PK WND 14045/1351 SFC VIS 4 SLP124 P0006 T01110106=
200904131337 SPECI KATL 131337Z 14025G38KT 1 1/2SM -RA BR OVC006 11/10 A2993 RMK AO2 PK WND 14038/1337 SFC VIS 4 PRESFR P0006=
200904131337 SPECI KATL 131337Z 14025G38KT 1 1/2SM -RA BR OVC006 11/10 A2993 RMK AO2 PK WND 14038/1337 SFC VIS 4 PRESFR P0006=
200904131252 METAR KATL 131252Z 13016G22KT 4SM -RA BR BKN007 OVC022 11/10 A3005 RMK AO2 SLP172 P0014 T01110100=
200904131244 SPECI KATL 131244Z 12014G22KT 3SM RA BR BKN007 OVC022 11/10 A3004 RMK AO2 PRESFR P0013=
200904131244 SPECI KATL 131244Z 12014G22KT 3SM RA BR BKN007 OVC022 11/10 A3004 RMK AO2 PRESFR P0013=
200904131230 SPECI KATL 131230Z 13014G21KT 2 1/2SM +RA BR BKN009 OVC025 11/10 A3006 RMK AO2 CB MOV NE P0009=
200904131230 SPECI KATL 131230Z 13014G21KT 2 1/2SM +RA BR BKN009 OVC025 11/10 A3006 RMK AO2 CB MOV NE P0009=
200904131152 METAR KATL 131152Z 12015G22KT 6SM -RA BR BKN007CB BKN029 OVC050 12/11 A3006 RMK AO2 TSE44 SLP178 CB NE AND SW MOV NE P0012 60102 70105 T01170106 10150 20117 58009=
200904131144 SPECI KATL 131144Z 12015G23KT 6SM -RA BR BKN007CB BKN029 OVC050 12/11 A3006 RMK AO2 TSE44 TS MOV NE CB NE AND SW MOV NE P0011=
200904131144 SPECI KATL 131144Z 12015G23KT 6SM -RA BR BKN007CB BKN029 OVC050 12/11 A3006 RMK AO2 TSE44 TS MOV NE CB NE AND SW MOV NE P0011=
200904131052 METAR KATL 131052Z 13012G18KT 4SM TSRA BR BKN009CB BKN022 OVC040 12/12 A3010 RMK AO2 SLP188 OCNL LTGIC NE-E TS NE-E MOV E P0023 T01170117=
200904131047 SPECI KATL 131047Z 15013G19KT 4SM TSRA BR BKN009CB BKN022 OVC040 12/11 A3010 RMK AO2 PRESRR OCNL LTGIC NE-E TS NE-E MOV E P0021=
200904131047 SPECI KATL 131047Z 15013G19KT 4SM TSRA BR BKN009CB BKN022 OVC040 12/11 A3010 RMK AO2 PRESRR OCNL LTGIC NE-E TS NE-E MOV E P0021=
200904131034 SPECI KATL 131034Z 14011G17KT 3SM +TSRA BR SCT009CB BKN022 OVC040 12/12 A3007 RMK AO2 OCNL LTGIC E TS E MOV NE P0017=
200904131034 SPECI KATL 131034Z 14011G17KT 3SM +TSRA BR SCT009CB BKN022 OVC040 12/12 A3007 RMK AO2 OCNL LTGIC E TS E MOV NE P0017=
200904130952 METAR KATL 130952Z 12007KT 4SM TSRA BR BKN007 BKN012CB OVC020 12/12 A3009 RMK AO2 SLP187 OCNL LTGIC OHD-S TS OHD-S MOV NE P0021 T01220122=
200904130904 SPECI KATL 130904Z 10010KT 4SM -TSRA BR BKN006 BKN015CB OVC035 13/12 A3009 RMK AO2 OCNL LTGIC OHD TS ALQDS MOV NE P0004 $=
200904130904 SPECI KATL 130904Z 10010KT 4SM -TSRA BR BKN006 BKN015CB OVC035 13/12 A3009 RMK AO2 OCNL LTGIC OHD TS ALQDS MOV NE P0004 $=
200904130855 SPECI KATL 130855Z 10009KT 2SM +TSRA BR SCT006 BKN020CB OVC035 13/13 A3009 RMK AO2 OCNL LTGIC OHD TS ALQDS MOV NE P0002 $=
200904130855 SPECI KATL 130855Z 10009KT 2SM +TSRA BR SCT006 BKN020CB OVC035 13/13 A3009 RMK AO2 OCNL LTGIC OHD TS ALQDS MOV NE P0002 $=
200904130852 METAR KATL 130852Z 10007KT 2SM +TSRA BR FEW008 SCT020CB OVC035 13/13 A3009 RMK AO2 TSB0755 SLP185 OCNL LTGIC OHD TS ALQDS MOV NE P0016 60046 T01280128 58005=
200904130845 SPECI KATL 130845Z 11009KT 3SM TSRA BR FEW008 SCT020CB OVC035 13/13 A3009 RMK AO2 TSB0755 OCNL LTGIC OHD TS ALQDS MOV NE P0010=
200904130845 SPECI KATL 130845Z 11009KT 3SM TSRA BR FEW008 SCT020CB OVC035 13/13 A3009 RMK AO2 TSB0755 OCNL LTGIC OHD TS ALQDS MOV NE P0010=
200904130757 SPECI KATL 130757Z 08010KT 5SM TSRA BR SCT020CB OVC035 13/13 A3009 RMK AO2 TSB55 OCNL LTGIC OHD-SW TS OHD-SW MOV NE P0001=
200904130757 SPECI KATL 130757Z 08010KT 5SM TSRA BR SCT020CB OVC035 13/13 A3009 RMK AO2 TSB55 OCNL LTGIC OHD-SW TS OHD-SW MOV NE P0001=
200904130752 METAR KATL 130752Z 08011KT 5SM -RA BR SCT020CB OVC035 13/13 A3010 RMK AO2 SLP187 CB OHD-SW MOV NE P0016 T01330128=
200904130652 METAR KATL 130652Z 09008KT 5SM RA BR SCT025 BKN042 OVC080 14/13 A3012 RMK AO2 SLP194 P0014 T01390128=
200904130552 METAR KATL 130552Z 09006KT 7SM -RA FEW035 BKN049 OVC100 15/12 A3011 RMK AO2 RAB04 SLP190 P0003 60003 T01500117 10194 20150 53011=
200904130452 METAR KATL 130452Z COR 11007KT 10SM FEW047 SCT090 BKN150 OVC250 17/09 A3007 RMK AO2 RAE28 SLP179 P0000 T01670094 402170067=
200904130352 METAR KATL 130352Z 09010KT 10SM -RA FEW028 BKN080 BKN110 OVC150 17/09 A3005 RMK AO2 RAB11 SLP170 P0000 T01670094=
200904130252 METAR KATL 130252Z 10008KT 10SM SCT085 OVC110 18/08 A3007 RMK AO2 SLP180 T01780083 50003=
200904130152 METAR KATL 130152Z 12008KT 10SM SCT100 BKN150 OVC250 19/08 A3008 RMK AO2 SLP184 T01890083=
200904130052 METAR KATL 130052Z 11010KT 10SM FEW110 SCT150 OVC250 19/08 A3008 RMK AO2 SLP183 T01890078=
200904122352 METAR KATL 122352Z 13007KT 10SM FEW150 SCT180 OVC250 19/08 A3006 RMK AO2 SLP179 T01940078 10217 20189 53001=
200904122252 METAR KATL 122252Z 14007G15KT 10SM FEW150 OVC250 20/07 A3005 RMK AO2 SLP174 T02000067=
200904122152 METAR KATL 122152Z 13012G18KT 10SM BKN250 21/07 A3004 RMK AO2 SLP169 T02110067=
200904122052 METAR KATL 122052Z 14011G19KT 10SM SCT150 OVC250 21/07 A3006 RMK AO2 SLP177 T02110067 56028=
200904121952 METAR KATL 121952Z 11011G18KT 10SM FEW150 BKN250 21/07 A3008 RMK AO2 SLP185 T02110072=
200904121852 METAR KATL 121852Z 12008G18KT 090V150 10SM FEW250 20/07 A3012 RMK AO2 SLP197 T02000072=
200904121752 METAR KATL 121752Z 14008G16KT 10SM FEW250 19/07 A3015 RMK AO2 SLP207 T01890067 10194 20083 58018=
200904121652 METAR KATL 121652Z 13007G20KT 10SM FEW150 SCT250 18/06 A3016 RMK AO2 SLP212 T01780061=
200904121552 METAR KATL 121552Z 11010G17KT 10SM SCT150 BKN250 17/06 A3020 RMK AO2 SLP223 T01720056=
200904121452 METAR KATL 121452Z 11014G19KT 10SM SCT150 BKN250 16/04 A3020 RMK AO2 SLP226 T01560039 51012=
200904121352 METAR KATL 121352Z 09015G19KT 10SM FEW150 SCT250 13/06 A3020 RMK AO2 SLP225 T01330056=
200904121252 METAR KATL 121252Z 09009KT 10SM FEW150 SCT250 11/06 A3020 RMK AO2 SLP225 T01110056=
200904121152 METAR KATL 121152Z 09008KT 10SM FEW250 08/06 A3016 RMK AO2 SLP215 T00830056 10094 20067 53019=
200904121052 METAR KATL 121052Z 08006KT 10SM FEW250 07/04 A3014 RMK AO2 SLP207 T00670044=
200904120952 METAR KATL 120952Z COR 07006KT 10SM FEW250 08/05 A3012 RMK AO2 SLP200 T00780050=
200904120852 METAR KATL 120852Z 05008KT 10SM SCT250 09/06 A3011 RMK AO2 SLP196 T00890056 53003=
200904120752 METAR KATL 120752Z 03007KT 10SM FEW250 09/06 A3009 RMK AO2 SLP192 T00890061=
200904120652 METAR KATL 120652Z 36005KT 10SM FEW200 09/07 A3010 RMK AO2 SLP193 T00890067=
200904120552 METAR KATL 120552Z 34004KT 10SM SCT200 09/07 A3010 RMK AO2 SLP192 T00940067 10144 20094 58000=
200904120452 METAR KATL 120452Z 36006KT 10SM SCT200 10/07 A3010 RMK AO2 SLP193 T01000067 401610089=
200904120352 METAR KATL 120352Z 35010KT 10SM FEW200 11/07 A3011 RMK AO2 SLP195 T01110072=
200904120252 METAR KATL 120252Z 36008G16KT 10SM CLR 12/07 A3010 RMK AO2 SLP191 T01220067 50009=
200904120152 METAR KATL 120152Z 35010KT 10SM CLR 13/08 A3010 RMK AO2 SLP193 T01280078=
200904120052 METAR KATL 120052Z 34013KT 10SM FEW037 14/08 A3009 RMK AO2 SLP190 T01390078=
200904112352 METAR KATL 112352Z 33008KT 10SM FEW037 14/08 A3007 RMK AO2 SLP183 T01440078 10161 20144 50003=
200904112252 METAR KATL 112252Z 33010KT 10SM SCT037 SCT110 15/08 A3007 RMK AO2 SLP183 T01500078=
200904112152 METAR KATL 112152Z 33009KT 10SM BKN032 16/09 A3006 RMK AO2 SLP180 T01560089=
200904112117 SPECI KATL 112117Z 31009KT 10SM BKN030 15/08 A3006 RMK AO2=
200904112117 SPECI KATL 112117Z 31009KT 10SM BKN030 15/08 A3006 RMK AO2=
200904112052 METAR KATL 112052Z 31012KT 10SM BKN028 14/08 A3006 RMK AO2 SLP180 T01440083 58001=
200904111952 METAR KATL 111952Z 33012KT 10SM OVC028 14/08 A3007 RMK AO2 SLP182 BINOVC OHD AND SE T01440083=
200904111852 METAR KATL 111852Z 32010KT 10SM OVC028 14/08 A3007 RMK AO2 SLP180 BINOVC SE T01440083=
200904111752 METAR KATL 111752Z 33013KT 10SM OVC028 15/08 A3007 RMK AO2 SLP179 BINOVC OHD T01500083 10150 20094 50005=
200904111652 METAR KATL 111652Z 34011G16KT 10SM OVC026 14/08 A3008 RMK AO2 SLP183 BINOVC SE AND NW T01440083=
200904111552 METAR KATL 111552Z 31013KT 10SM OVC026 14/08 A3008 RMK AO2 SLP183 BINOVC S T01390083=
200904111452 METAR KATL 111452Z 32011G18KT 10SM BKN024 14/08 A3005 RMK AO2 SLP174 T01390083 53020=
200904111352 METAR KATL 111352Z 32010KT 10SM BKN024 13/09 A3003 RMK AO2 SLP166 T01330089=
200904111346 SPECI KATL 111346Z 32007KT 10SM SCT021 BKN026 13/09 A3002 RMK AO2=
200904111346 SPECI KATL 111346Z 32007KT 10SM SCT021 BKN026 13/09 A3002 RMK AO2=
200904111252 METAR KATL 111252Z 28006KT 10SM FEW034 12/09 A3001 RMK AO2 SLP159 T01170089=
200904111211 SPECI KATL 111211Z 26003KT 10SM SCT034 10/08 A3000 RMK AO2=
200904111211 SPECI KATL 111211Z 26003KT 10SM SCT034 10/08 A3000 RMK AO2=
200904111152 METAR KATL 111152Z 27003KT 10SM BKN032 10/08 A2999 RMK AO2 SLP153 70034 T01000078 10133 20089 53015=
200904111052 METAR KATL 111052Z 27004KT 10SM FEW035 09/07 A2997 RMK AO2 SLP144 T00940072=
200904110952 METAR KATL 110952Z 27004KT 10SM FEW035 10/07 A2996 RMK AO2 SLP140 T01000072=
200904110852 METAR KATL 110852Z 26006KT 10SM FEW030 11/07 A2994 RMK AO2 SLP135 T01060072 51002=
200904110752 METAR KATL 110752Z 28009KT 10SM FEW030 11/08 A2994 RMK AO2 SLP135 T01110078=
200904110652 METAR KATL 110652Z 28006KT 10SM CLR 12/08 A2994 RMK AO2 SLP135 T01170083=
200904110552 METAR KATL 110552Z 30010KT 10SM FEW025 13/08 A2994 RMK AO2 SLP134 60033 T01330083 10206 20133 53024=
200904110452 METAR KATL 110452Z 31008KT 10SM FEW050 14/11 A2991 RMK AO2 SLP125 T01440111 402390144=
200904110352 METAR KATL 110352Z COR 30012KT 10SM BKN048 16/12 A2989 RMK AO2 SLP116 T01610122=
200904110252 METAR KATL 110252Z 31010KT 10SM BKN038 OVC060 17/14 A2986 RMK AO2 PK WND 32031/0203 TSE31RAE22 SLP108 FRQ LTG DSNT SE-S TS MOV E P0020 60033 T01670139 51032=
200904110231 SPECI KATL 110231Z 30008KT 10SM BKN038 OVC060 17/14 A2985 RMK AO2 PK WND 32031/0203 TSE31RAE22 FRQ LTG DSNT SE-SW TS MOV E P0020=
200904110231 SPECI KATL 110231Z 30008KT 10SM BKN038 OVC060 17/14 A2985 RMK AO2 PK WND 32031/0203 TSE31RAE22 FRQ LTG DSNT SE-SW TS MOV E P0020=
200904110152 METAR KATL 110152Z 30012G20KT 8SM -TSRA SCT009 BKN030CB OVC060 17/16 A2984 RMK AO2 WSHFT 0125 RAB14 SLP102 FRQ LTGICCGCA NE-SE AND NW TS NE-SE AND NW MOV E P0013 T01720156=
200904110144 SPECI KATL 110144Z 32014G21KT 2SM +TSRA BR FEW015 BKN028CB OVC060 17/16 A2982 RMK AO2 WSHFT 0125 RAB14 FRQ LTGICCGCA NE-OHD-SW TS NE-OHD-SW MOV E P0008=
200904110144 SPECI KATL 110144Z 32014G21KT 2SM +TSRA BR FEW015 BKN028CB OVC060 17/16 A2982 RMK AO2 WSHFT 0125 RAB14 FRQ LTGICCGCA NE-OHD-SW TS NE-OHD-SW MOV E P0008=
200904110052 METAR KATL 110052Z 22012G27KT 10SM TS FEW035CB BKN065 BKN100 OVC200 19/14 A2980 RMK AO2 PK WND 19031/0039 TSB23RAB26E43 PRESRR SLP086 FRQ LTGICCGCCCA N-NE AND DSNT SE AND W-NW TS N-NE AND DSNT SE AND W-NW MOV E P0=
200904110024 SPECI KATL 110024Z 21007KT 10SM TS FEW035CB BKN080 BKN110 OVC200 20/14 A2977 RMK AO2 TSB23 FRQ LTGICCGCA NW-N AND DSNT SE-S TS NW-N AND DSNT SE-S MOV E=
200904110024 SPECI KATL 110024Z 21007KT 10SM TS FEW035CB BKN080 BKN110 OVC200 20/14 A2977 RMK AO2 TSB23 FRQ LTGICCGCA NW-N AND DSNT SE-S TS=
200904102352 METAR KATL 102352Z 22016G28KT 10SM FEW045 SCT060 BKN100 BKN200 21/15 A2977 RMK AO2 PK WND 20035/2315 RAB09E20 SLP075 FRQ LTG DSNT SE CB DSNT SE AND SW AND NW-N P0000 60000 T02060150 10239 20194 55004=
200904102252 METAR KATL 102252Z 21018G36KT 10SM FEW045 SCT060 BKN120 BKN200 23/15 A2975 RMK AO2 PK WND 18036/2247 SLP067 CB DSNT SW TCU DSNT=
200904102152 METAR KATL 102152Z 20021G29KT 10SM SCT042TCU BKN055 BKN250 24/15 A2975 RMK AO2 PK WND 19034/2103 SLP068 TCU N-NE AND W T02390150=
200904102052 METAR KATL 102052Z 18020G31KT 9SM FEW040TCU SCT050 BKN060 BKN250 23/16 A2978 RMK AO2 PK WND 19031/2047 SLP077 TCU NW BLDU OVR RWY 60000 T02330156 58050=
200904101952 METAR KATL 101952Z 18018G25KT 10SM FEW030 SCT035 SCT045 BKN250 22/16 A2984 RMK AO2 PK WND 19031/1920 SLP098 TCU DSNT W T02220156=
200904101852 METAR KATL 101852Z 19015KT 10SM FEW027 SCT035 21/16 A2989 RMK AO2 RAB44E48 SLP115 P0000 T02110156=
200904101845 SPECI KATL 101845Z 18014G21KT 10SM -RA FEW025TCU SCT030 BKN040 21/16 A2990 RMK AO2 RAB44 TCU W & NW P0000=
200904101845 SPECI KATL 101845Z 18014G21KT 10SM -RA FEW025TCU SCT030 BKN040 21/16 A2990 RMK AO2 RAB44 TCU W & NW P0000=
200904101752 METAR KATL 101752Z 20012KT 10SM OVC024 19/15 A2993 RMK AO2 SLP130 60001 T01940150 10194 20144 58004=
200904101652 METAR KATL 101652Z 20015G20KT 10SM OVC022 19/14 A2995 RMK AO2 SLP136 T01890144=
200904101552 METAR KATL 101552Z 20014KT 10SM OVC022 19/14 A2995 RMK AO2 SLP138 CB DSNT N-NE SHRA DSNT N-NE T01890144 $=
200904101452 METAR KATL 101452Z 20015G25KT 10SM OVC020 18/14 A2995 RMK AO2 SLP135 CB DSNT NW MOV NE 60001 T01830144 53001 $=
200904101352 METAR KATL 101352Z 21014KT 10SM BKN015 BKN040 BKN060 16/14 A2994 RMK AO2 SLP135 T01610139 $=
200904101252 METAR KATL 101252Z 20010KT 10SM SCT025 BKN065 BKN090 BKN250 14/13 A2994 RMK AO2 TSB31E46RAB08E42 SLP135 CB DSNT NE-E MOV NE P0001 T01440128 $=
200904101247 SPECI KATL 101247Z 21011KT 10SM SCT025 BKN065 BKN090 BKN250 14/13 A2994 RMK AO2 TSB31E46RAB08E42 TS MOV NE CB DSNT NE-E MOV NE P0001 $=
200904101247 SPECI KATL 101247Z 21011KT 10SM SCT025 BKN065 BKN090 BKN250 14/13 A2994 RMK AO2 TSB31E46RAB08E42 TS MOV NE CB DSNT NE-E MOV NE P0001 $=
200904101232 SPECI KATL 101232Z 20012KT 10SM -TSRA SCT020CB BKN065 BKN090 OVC250 14/13 A2994 RMK AO2 TSB31RAB08 OCNL LTGIC SE-S TS SE-S MOV NE P0001 $=
200904101232 SPECI KATL 101232Z 20012KT 10SM -TSRA SCT020CB BKN065 BKN090 OVC250 14/13 A2994 RMK AO2 TSB31RAB08 OCNL LTGIC SE-S TS SE-S MOV NE P0001 $=
200904101152 METAR KATL 101152Z 19013KT 10SM FEW017 SCT030 BKN090 BKN250 14/12 A2993 RMK AO2 SLP131 CB DSNT SW-NW MOV NE T01440117 10167 20144 56008 $=
200904101052 METAR KATL 101052Z 18009KT 10SM SCT033 BKN100 BKN250 14/12 A2994 RMK AO2 SLP133 T01440117=
200904100952 METAR KATL 100952Z 19008KT 10SM SCT030 SCT100 BKN150 BKN250 14/12 A2995 RMK AO2 SLP136 T01440117 $=
200904100852 METAR KATL 100852Z 20009KT 10SM SCT030 SCT110 BKN150 BKN250 16/12 A2996 RMK AO2 SLP138 T01560117 51009 $=
200904100752 METAR KATL 100752Z 23011KT 10SM SCT030 BKN150 BKN250 16/11 A2996 RMK AO2 SLP137 T01610111 $=
200904100652 METAR KATL 100652Z 22014G20KT 10SM BKN150 BKN250 16/11 A2994 RMK AO2 SLP131 T01610111 $=
200904100552 METAR KATL 100552Z 20013G21KT 10SM SCT150 BKN180 BKN250 17/11 A2993 RMK AO2 SLP128 T01670106 10211 20161 55005 $=
200904100452 METAR KATL 100452Z 19011KT 10SM SCT150 BKN180 OVC250 17/09 A2992 RMK AO2 SLP127 T01670094 402390094 $=
200904100352 METAR KATL 100352Z 20010KT 10SM FEW150 BKN180 OVC250 17/09 A2994 RMK AO2 SLP134 T01720089 $=
200904100252 METAR KATL 100252Z 19009KT 10SM FEW150 BKN180 BKN250 18/07 A2995 RMK AO2 SLP136 T01780072 53009 $=
200904100152 METAR KATL 100152Z 18006KT 10SM FEW150 BKN200 BKN250 18/07 A2994 RMK AO2 SLP134 T01830072 $=
200904100052 METAR KATL 100052Z 19007KT 10SM SCT200 BKN250 19/07 A2992 RMK AO2 SLP130 T01940067 $=
200904092352 METAR KATL 092352Z 20007KT 10SM BKN200 BKN250 21/06 A2992 RMK AO2 SLP129 T02110056 10239 20211 51008 $=
200904092252 METAR KATL 092252Z 20010KT 10SM BKN200 BKN250 23/04 A2991 RMK AO2 SLP126 T02280039 $=
200904092152 METAR KATL 092152Z 23011G18KT 10SM BKN200 OVC250 23/03 A2990 RMK AO2 SLP122 T02330033 $=
200904092052 METAR KATL 092052Z 24010G18KT 10SM BKN200 BKN250 24/03 A2989 RMK AO2 SLP118 T02390028 57021 $=
200904091952 METAR KATL 091952Z 21014G18KT 10SM FEW060 BKN200 BKN250 23/07 A2991 RMK AO2 WSHFT 1857 SLP125 T02330067 $=
200904091912 SPECI KATL 091912Z 19013KT 10SM FEW050 SCT200 BKN250 23/08 A2993 RMK AO2 WSHFT 1857 $=
200904091912 SPECI KATL 091912Z 19013KT 10SM FEW050 SCT200 BKN250 23/08 A2993 RMK AO2 WSHFT 1857 $=
200904091852 METAR KATL 091852Z 25010KT 10SM FEW050 SCT200 BKN250 23/09 A2994 RMK AO2 SLP132 T02280094=
200904091752 METAR KATL 091752Z 21004KT 10SM FEW045 SCT250 22/09 A2996 RMK AO2 SLP140 T02170094 10217 20100 58018=
200904091652 METAR KATL 091652Z 22007KT 10SM BKN250 20/09 A2998 RMK AO2 SLP149 T02000094=
200904091552 METAR KATL 091552Z 27006KT 10SM SCT250 19/10 A3001 RMK AO2 SLP157 T01890100=
200904091452 METAR KATL 091452Z VRB05KT 10SM SCT250 17/09 A3001 RMK AO2 SLP159 T01670094 51014=
200904091352 METAR KATL 091352Z 27007KT 10SM FEW250 14/09 A3001 RMK AO2 SLP159 T01390089=
200904091252 METAR KATL 091252Z 24006KT 10SM FEW300 12/08 A2999 RMK AO2 SLP154 T01170078=
200904091152 METAR KATL 091152Z 00000KT 10SM FEW250 10/07 A2997 RMK AO2 SLP146 T01000067 10133 20094 53024=
200904091052 METAR KATL 091052Z 25004KT 10SM SCT200 10/06 A2994 RMK AO2 SLP134 T01000061=
200904090952 METAR KATL 090952Z 24009KT 10SM FEW180 11/06 A2991 RMK AO2 SLP126 T01110061=
200904090852 METAR KATL 090852Z 24008KT 10SM CLR 12/06 A2989 RMK AO2 SLP120 T01170056 53007=
200904090752 METAR KATL 090752Z 25009G16KT 10SM SCT200 12/05 A2988 RMK AO2 SLP116 T01220050=
200904090652 METAR KATL 090652Z 24014G21KT 10SM FEW180 13/04 A2987 RMK AO2 SLP113 T01330044=
200904090552 METAR KATL 090552Z 24011G19KT 10SM CLR 14/03 A2987 RMK AO2 SLP112 T01390033 10172 20139 51009=
200904090452 METAR KATL 090452Z 23009KT 10SM CLR 14/03 A2987 RMK AO2 SLP111 T01440033 401940006=
200904090352 METAR KATL 090352Z 26008G18KT 10SM CLR 16/02 A2986 RMK AO2 SLP110 T01560022=
200904090252 METAR KATL 090252Z 24009KT 10SM CLR 15/01 A2984 RMK AO2 SLP104 T01500011 53012=
200904090152 METAR KATL 090152Z 22005KT 10SM CLR 14/02 A2983 RMK AO2 SLP101 T01440017=
200904090052 METAR KATL 090052Z 23007KT 10SM CLR 16/01 A2981 RMK AO2 SLP096 T01610006=
200904082352 METAR KATL 082352Z 24009KT 10SM CLR 18/00 A2981 RMK AO2 SLP095 T01780000 10194 20161 56007=
200904082252 METAR KATL 082252Z 24015G20KT 10SM CLR 18/M01 A2981 RMK AO2 PK WND 23026/2212 SLP096 T01831006=
200904082152 METAR KATL 082152Z 25011G27KT 10SM FEW080 19/M01 A2982 RMK AO2 PK WND 23027/2144 SLP098 T01891006=
200904082052 METAR KATL 082052Z 24015G20KT 10SM FEW080 19/M01 A2983 RMK AO2 PK WND 22026/2039 SLP102 T01891011 56034=
200904081952 METAR KATL 081952Z 23014G23KT 10SM CLR 18/M01 A2985 RMK AO2 SLP109 T01831011=
200904081852 METAR KATL 081852Z 24014G26KT 10SM CLR 17/M02 A2990 RMK AO2 PK WND 21026/1844 SLP125 T01721017=
200904081752 METAR KATL 081752Z 22012G16KT 10SM CLR 16/M02 A2994 RMK AO2 SLP138 T01611017 10167 20011 58023=
200904081652 METAR KATL 081652Z 24015G22KT 10SM CLR 14/M02 A2998 RMK AO2 SLP154 T01391022=
200904081552 METAR KATL 081552Z 24008KT 10SM CLR 13/M02 A3000 RMK AO2 SLP161 T01281017=
200904081452 METAR KATL 081452Z 25013G19KT 10SM CLR 11/M03 A3001 RMK AO2 SLP164 T01111033 58003=
200904081352 METAR KATL 081352Z 24007KT 10SM FEW200 08/M02 A3002 RMK AO2 SLP169 T00781017=
200904081252 METAR KATL 081252Z 22006KT 10SM FEW300 03/M02 A3002 RMK AO2 SLP170 T00331017=
200904081152 METAR KATL 081152Z 22006KT 10SM FEW300 01/M03 A3002 RMK AO2 SLP171 T00111028 10033 20006 52004=
200904081052 METAR KATL 081052Z 00000KT 10SM FEW250 01/M03 A3001 RMK AO2 SLP168 T00111028=
200904080952 METAR KATL 080952Z 00000KT 10SM FEW180 02/M03 A3001 RMK AO2 SLP168 T00171028=
200904080852 METAR KATL 080852Z 25004KT 10SM FEW180 02/M03 A3000 RMK AO2 SLP165 T00221033 55000=
200904080752 METAR KATL 080752Z 25003KT 10SM CLR 02/M03 A2999 RMK AO2 SLP162 T00171033=
200904080652 METAR KATL 080652Z 24004KT 10SM CLR 02/M03 A3000 RMK AO2 SLP164 T00171028=
200904080552 METAR KATL 080552Z 25004KT 10SM CLR 03/M03 A3000 RMK AO2 SLP166 T00281033 10067 20028 50001=
200904080452 METAR KATL 080452Z 24004KT 10SM CLR 03/M03 A3000 RMK AO2 SLP167 T00281033 400830011=
200904080352 METAR KATL 080352Z 25004KT 10SM CLR 04/M04 A3000 RMK AO2 SLP165 T00391039=
200904080252 METAR KATL 080252Z 27006KT 10SM CLR 04/M04 A3000 RMK AO2 SLP164 T00391039 53010=
200904080152 METAR KATL 080152Z 25004KT 10SM CLR 04/M04 A2998 RMK AO2 SLP159 T00441039=
200904080052 METAR KATL 080052Z 28009KT 10SM FEW060 05/M04 A2998 RMK AO2 SLP158 T00501039=
200904072352 METAR KATL 072352Z 29014G20KT 10SM BKN060 06/M04 A2997 RMK AO2 SLP154 T00611044 10083 20056 53010=
200904072252 METAR KATL 072252Z 28014G24KT 10SM SCT055 BKN065 07/M04 A2996 RMK AO2 PK WND 30029/2201 SLP149 T00671039=
200904072152 METAR KATL 072152Z 29015G23KT 10SM BKN055 BKN070 08/M03 A2994 RMK AO2 PK WND 31032/2102 SLP145 T00781033=
200904072052 METAR KATL 072052Z 28020G24KT 10SM BKN055 BKN065 08/M03 A2994 RMK AO2 PK WND 30028/2003 SLP142 T00781033 58007=
200904071952 METAR KATL 071952Z 29017G23KT 10SM FEW050 BKN060 BKN070 08/M03 A2994 RMK AO2 SLP145 SHSN DSNT NE & E T00781033=
200904071852 METAR KATL 071852Z 30011G23KT 10SM FEW045 BKN055 BKN065 06/M04 A2995 RMK AO2 PK WND 31027/1837 SLP148 SHSN DSNT N & E T00561039=
200904071752 METAR KATL 071752Z 30016G24KT 10SM FEW040 BKN050 BKN065 05/M03 A2996 RMK AO2 PK WND 28026/1728 SNE1658PLE1658 SLP150 SHSN DSNT N-NE-E P0000 60000 T00501033 10061 20017 50003=
200904071702 SPECI KATL 071702Z 29015G25KT 10SM BKN040 BKN060 04/M03 A2997 RMK AO2 SNE1658PLE1658 SHSN N-NE-E & DSNT NW P0000=
200904071702 SPECI KATL 071702Z 29015G25KT 10SM BKN040 BKN060 04/M03 A2997 RMK AO2 SNE1658PLE1658 SHSN N-NE-E & DSNT NW P0000=
200904071652 METAR KATL 071652Z 27014G21KT 8SM -SNPL BKN038 OVC055 04/M03 A2997 RMK AO2 PK WND 31027/1616 SNB21E27B49PLB49 SLP156 SHSN DSNT NE & SE & NW P0000 T00391033=
200904071650 SPECI KATL 071650Z 28017G21KT 7SM -SNPL BKN040 BKN050 OVC060 04/M03 A2997 RMK AO2 PK WND 31027/1616 SNB21E27B49PLB49 SHSN DSNT NE & SE & NW P0000=
200904071650 SPECI KATL 071650Z 28017G21KT 7SM -SNPL BKN040 BKN050 OVC060 04/M03 A2997 RMK AO2 PK WND 31027/1616 SNB21E27B49PLB49 SHSN DSNT NE & SE & NW P0000=
200904071627 SPECI KATL 071627Z 29014G22KT 10SM BKN040 BKN050 BKN060 05/M03 A2998 RMK AO2 PK WND 31027/1616 SNB21E27 SHSN DSNT NE & SE & NW P0000=
200904071627 SPECI KATL 071627Z 29014G22KT 10SM BKN040 BKN050 BKN060 05/M03 A2998 RMK AO2 PK WND 31027/1616 SNB21E27 SHSN DSNT NE & SE & NW P0000=
200904071621 SPECI KATL 071621Z 29015G27KT 10SM -SN FEW030 BKN050 OVC060 04/M02 A2998 RMK AO2 PK WND 31027/1616 SNB21 SHSN S & DSNT NW P0000=
200904071621 SPECI KATL 071621Z 29015G27KT 10SM -SN FEW030 BKN050 OVC060 04/M02 A2998 RMK AO2 PK WND 31027/1616 SNB21 SHSN S & DSNT NW P0000=
200904071601 SPECI KATL 071601Z 27015G27KT 10SM FEW030 BKN050 OVC060 05/M03 A2997 RMK AO2 PK WND 31027/1554 SHRASN DSNT E & NW=
200904071601 SPECI KATL 071601Z 27015G27KT 10SM FEW030 BKN050 OVC060 05/M03 A2997 RMK AO2 PK WND 31027/1554 SHRASN DSNT E & NW=
200904071552 METAR KATL 071552Z 28014G24KT 10SM FEW030 SCT050 OVC055 04/M03 A2997 RMK AO2 SLP153 SHRA DSNT NE & DSNT NW T00441028=
200904071452 METAR KATL 071452Z 31014G24KT 10SM FEW035 SCT045 BKN055 04/M03 A2995 RMK AO2 PK WND 32027/1413 SLP147 T00441028 51014=
200904071352 METAR KATL 071352Z 32017G24KT 10SM FEW028 SCT040 04/M02 A2994 RMK AO2 SLP143 T00441017=
200904071312 SPECI KATL 071312Z 30015G22KT 10SM SCT020 BKN042 04/M01 A2993 RMK AO2=
200904071312 SPECI KATL 071312Z 30015G22KT 10SM SCT020 BKN042 04/M01 A2993 RMK AO2=
200904071252 METAR KATL 071252Z 30013G19KT 10SM BKN021 BKN037 03/M01 A2993 RMK AO2 SLP141 T00281011=
200904071152 METAR KATL 071152Z 29012KT 10SM BKN019 BKN024 BKN037 02/M01 A2991 RMK AO2 SLP134 70007 T00171011 10033 20011 53013=
200904071052 METAR KATL 071052Z 29013KT 10SM BKN017 BKN024 02/M01 A2989 RMK AO2 SLP127 T00171011=
200904070952 METAR KATL 070952Z 29013G17KT 10SM BKN016 BKN031 02/M01 A2988 RMK AO2 SLP123 T00171011=
200904070852 METAR KATL 070852Z 29013G22KT 10SM BKN018 BKN031 BKN042 02/M01 A2987 RMK AO2 SLP120 T00171011 55006=
200904070833 SPECI KATL 070833Z 30012G19KT 10SM BKN019 02/M01 A2987 RMK AO2=
200904070833 SPECI KATL 070833Z 30012G19KT 10SM BKN019 02/M01 A2987 RMK AO2=
200904070752 METAR KATL 070752Z 29012KT 10SM FEW024 SCT037 BKN050 02/M01 A2987 RMK AO2 SLP119 T00171011=
200904070718 SPECI KATL 070718Z 30015G18KT 10SM FEW020 SCT026 02/M02 A2987 RMK AO2=
200904070718 SPECI KATL 070718Z 30015G18KT 10SM FEW020 SCT026 02/M02 A2987 RMK AO2=
200904070704 SPECI KATL 070704Z 30015G23KT 10SM SCT020 BKN026 BKN065 02/M01 A2988 RMK AO2=
200904070704 SPECI KATL 070704Z 30015G23KT 10SM SCT020 BKN026 BKN065 02/M01 A2988 RMK AO2=
200904070652 METAR KATL 070652Z 31012G20KT 10SM FEW023 SCT046 BKN065 03/M01 A2988 RMK AO2 SLP123 T00281011=
200904070637 SPECI KATL 070637Z 29012KT 10SM BKN046 BKN065 03/M01 A2988 RMK AO2=
200904070637 SPECI KATL 070637Z 29012KT 10SM BKN046 BKN065 03/M01 A2988 RMK AO2=
200904070552 METAR KATL 070552Z 29015G23KT 10SM BKN024 BKN031 03/M01 A2989 RMK AO2 SLP125 60000 T00331006 10056 20033 50000=
200904070452 METAR KATL 070452Z 29015G25KT 10SM FEW019 BKN025 OVC065 04/00 A2990 RMK AO2 SLP128 T00390000 401670039=
200904070407 SPECI KATL 070407Z 30014G21KT 10SM SCT019 BKN025 BKN065 04/01 A2989 RMK AO2=
200904070407 SPECI KATL 070407Z 30014G21KT 10SM SCT019 BKN025 BKN065 04/01 A2989 RMK AO2=
200904070352 METAR KATL 070352Z 30015G24KT 10SM FEW021 BKN047 OVC065 04/01 A2989 RMK AO2 RAE16 SLP125 P0000 T00390006=
200904070348 SPECI KATL 070348Z 31019G24KT 10SM FEW017 BKN045 BKN065 04/01 A2989 RMK AO2 RAE16 P0000=
200904070348 SPECI KATL 070348Z 31019G24KT 10SM FEW017 BKN045 BKN065 04/01 A2989 RMK AO2 RAE16 P0000=
200904070252 METAR KATL 070252Z 30014KT 10SM -RA SCT015 BKN028 OVC050 04/02 A2989 RMK AO2 PK WND 29029/0154 SLP125 P0000 60000 T00390017 51017=
200904070229 SPECI KATL 070229Z 30008G19KT 10SM -RA SCT015 BKN028 OVC050 04/01 A2989 RMK AO2 PK WND 29029/0154 P0000=
200904070229 SPECI KATL 070229Z 30008G19KT 10SM -RA SCT015 BKN028 OVC050 04/01 A2989 RMK AO2 PK WND 29029/0154 P0000=
200904070207 SPECI KATL 070207Z 30015G25KT 10SM -RA SCT022 BKN030 OVC049 04/01 A2988 RMK AO2 PK WND 29029/0154 P0000=
200904070207 SPECI KATL 070207Z 30015G25KT 10SM -RA SCT022 BKN030 OVC049 04/01 A2988 RMK AO2 PK WND 29029/0154 P0000=
200904070152 METAR KATL 070152Z 29012G21KT 10SM -RA SCT022 BKN028 OVC060 04/01 A2988 RMK AO2 RAB03E09B51 SLP124 P0000 T00440006=
200904070109 SPECI KATL 070109Z 28014G22KT 10SM FEW022 SCT028 BKN055 04/01 A2987 RMK AO2 RAB03E09 P0000=
200904070109 SPECI KATL 070109Z 28014G22KT 10SM FEW022 SCT028 BKN055 04/01 A2987 RMK AO2 RAB03E09 P0000=
200904070103 SPECI KATL 070103Z 31014G22KT 10SM -RA SCT022 BKN028 OVC055 05/01 A2986 RMK AO2 RAB03 P0000=
200904070103 SPECI KATL 070103Z 31014G22KT 10SM -RA SCT022 BKN028 OVC055 05/01 A2986 RMK AO2 RAB03 P0000=
200904070052 METAR KATL 070052Z 30014G21KT 10SM SCT025 BKN032 OVC080 05/01 A2986 RMK AO2 PK WND 29027/2359 SLP116 T00500006=
200904062352 METAR KATL 062352Z 28016G24KT 10SM FEW030 OVC055 06/00 A2984 RMK AO2 PK WND 32030/2310 RAE01 SLP107 P0000 60000 T00560000 10094 20056 51014=
200904062252 METAR KATL 062252Z 30018G24KT 10SM -RA FEW025 BKN034 OVC055 06/01 A2982 RMK AO2 RAB50 SLP102 P0000 T00610006=
200904062152 METAR KATL 062152Z 29018G23KT 10SM SCT038 BKN045 OVC060 07/00 A2981 RMK AO2 PK WND 29029/2103 SLP094 T00720000=
200904062052 METAR KATL 062052Z 30016G22KT 10SM BKN038 OVC044 07/00 A2979 RMK AO2 PK WND 31031/2007 SLP089 T00720000 51005=
200904061952 METAR KATL 061952Z 29022G36KT 10SM BKN035 BKN045 BKN060 08/00 A2978 RMK AO2 PK WND 28036/1944 SLP085 T00780000=
200904061852 METAR KATL 061852Z 31019G27KT 10SM BKN034 OVC040 08/01 A2979 RMK AO2 PK WND 28030/1824 SLP087 T00780011=
200904061752 METAR KATL 061752Z 30017G28KT 10SM BKN035 BKN045 08/01 A2978 RMK AO2 PK WND 30030/1735 SLP082 T00830011 10100 20078=
200904061652 METAR KATL 061652Z 29017G27KT 10SM OVC034 08/01 A2978 RMK AO2 PK WND 30030/1641 SLP085 T00780011 $=
200904061552 METAR KATL 061552Z 29016G27KT 10SM OVC038 08/01 A2977 RMK AO2 PK WND 29029/1534 SLP082 T00830011 $=
200904061452 METAR KATL 061452Z 29017G26KT 10SM OVC034 08/01 A2976 RMK AO2 PK WND 31033/1419 SLP078 T00830011 50008 $=
200904061352 METAR KATL 061352Z 28015G23KT 10SM OVC032 08/02 A2977 RMK AO2 PK WND 30027/1328 SLP080 T00780017 $=
200904061252 METAR KATL 061252Z 29016G25KT 10SM BKN030 08/02 A2976 RMK AO2 SLP075 T00780017 $=
200904061152 METAR KATL 061152Z 29016G24KT 10SM BKN030 08/02 A2974 RMK AO2 PK WND 30030/1054 SLP070 60000 70007 T00780022 10167 20078 51027 $=
200904061052 METAR KATL 061052Z 29018G28KT 10SM FEW030 BKN075 08/02 A2973 RMK AO2 PK WND 30032/1028 SLP066 T00830022 $=
200904060952 METAR KATL 060952Z 29016G21KT 10SM FEW065 BKN080 12/06 A2968 RMK AO2 PK WND 29028/0938 SLP046 T01220056=
200904060852 METAR KATL 060852Z 29015G23KT 10SM BKN045 BKN070 OVC085 14/06 A2966 RMK AO2 SLP039 60000 T01390056 56007=
200904060752 METAR KATL 060752Z 30014G23KT 10SM FEW020 SCT028 OVC033 15/08 A2966 RMK AO2 PK WND 30029/0718 RAB19E33 SLP041 P0000 T01500083=
200904060721 SPECI KATL 060721Z 31020G29KT 6SM -RA BR BKN007 BKN014 OVC055 14/12 A2966 RMK AO2 PK WND 30029/0718 RAB19 P0000=
200904060721 SPECI KATL 060721Z 31020G29KT 6SM -RA BR BKN007 BKN014 OVC055 14/12 A2966 RMK AO2 PK WND 30029/0718 RAB19 P0000=
200904060711 SPECI KATL 060711Z 28009KT 6SM BR FEW005 BKN014 OVC055 17/16 A2965 RMK AO2 CIG 010V020=
200904060711 SPECI KATL 060711Z 28009KT 6SM BR FEW005 BKN014 OVC055 17/16 A2965 RMK AO2 CIG 010V020=
200904060702 SPECI KATL 060702Z 24008KT 6SM BR SCT003 BKN029 OVC055 17/16 A2965 RMK AO2=
200904060702 SPECI KATL 060702Z 24008KT 6SM BR SCT003 BKN029 OVC055 17/16 A2965 RMK AO2=
200904060652 METAR KATL 060652Z 23007KT 1/2SM BR BKN003 OVC050 16/16 A2965 RMK AO2 SFC VIS 4 SLP038 T01610161=
200904060614 SPECI KATL 060614Z 21009KT 1/2SM BR OVC003 16/16 A2967 RMK AO2 SFC VIS 4=
200904060614 SPECI KATL 060614Z 21009KT 1/2SM BR OVC003 16/16 A2967 RMK AO2 SFC VIS 4=
200904060552 METAR KATL 060552Z 21007KT 1/4SM BR OVC003 16/16 A2968 RMK AO2 SFC VIS 3 SLP047 60000 T01610156 10167 20156 56026=
200904060518 SPECI KATL 060518Z 21006KT 2SM BR OVC003 16/15 A2969 RMK AO2 SFC VIS 3=
200904060518 SPECI KATL 060518Z 21006KT 2SM BR OVC003 16/15 A2969 RMK AO2 SFC VIS 3=
200904060452 METAR KATL 060452Z 19006KT 3SM BR BKN005 OVC050 16/15 A2970 RMK AO2 SFC VIS 5 SLP054 T01560150 401720122=
200904060408 SPECI KATL 060408Z 19008KT 3SM BR BKN005 BKN050 OVC060 16/15 A2973 RMK AO2 SFC VIS 5=
200904060408 SPECI KATL 060408Z 19008KT 3SM BR BKN005 BKN050 OVC060 16/15 A2973 RMK AO2 SFC VIS 5=
200904060352 METAR KATL 060352Z 19010KT 1 1/2SM BR OVC004 16/15 A2973 RMK AO2 SFC VIS 4 SLP065 CIG 003V006 T01560150=
200904060318 SPECI KATL 060318Z 18007KT 1 1/2SM BR OVC003 16/15 A2974 RMK AO2 SFC VIS 3=
200904060318 SPECI KATL 060318Z 18007KT 1 1/2SM BR OVC003 16/15 A2974 RMK AO2 SFC VIS 3=
200904060256 SPECI KATL 060256Z 18009KT 5SM BR OVC004 16/15 A2976 RMK AO2=
200904060256 SPECI KATL 060256Z 18009KT 5SM BR OVC004 16/15 A2976 RMK AO2=
200904060252 METAR KATL 060252Z 18008KT 5SM BR OVC005 16/14 A2976 RMK AO2 SLP074 CIG 004V007 60000 T01560144 56008=
200904060152 METAR KATL 060152Z 17008KT 8SM OVC007 16/14 A2976 RMK AO2 SLP073 T01560139=
200904060118 SPECI KATL 060118Z 18005KT 9SM OVC009 16/14 A2977 RMK AO2 CIG 008V012=
200904060118 SPECI KATL 060118Z 18005KT 9SM OVC009 16/14 A2977 RMK AO2 CIG 008V012=
200904060052 METAR KATL 060052Z 18008KT 9SM FEW006 BKN011 OVC025 16/14 A2978 RMK AO2 RAE30 SLP080 P0000 T01610139=
200904060030 SPECI KATL 060030Z 18007KT 9SM BKN013 BKN025 17/14 A2978 RMK AO2 RAE30 P0000=
200904060030 SPECI KATL 060030Z 18007KT 9SM BKN013 BKN025 17/14 A2978 RMK AO2 RAE30 P0000=
200904052352 METAR KATL 052352Z COR 18009KT 7SM -RA OVC015 17/14 A2978 RMK AO2 RAB20 SLP082 P0000 60007 T01670144 10172 20144 56014=
200904052252 METAR KATL 052252Z 16006KT 6SM BR FEW007 OVC028 17/16 A2979 RMK AO2 RAE09 SLP086 P0000 T01670156=
200904052240 SPECI KATL 052240Z 15006KT 7SM SCT007 OVC028 17/16 A2979 RMK AO2 RAE09 P0000=
200904052240 SPECI KATL 052240Z 15006KT 7SM SCT007 OVC028 17/16 A2979 RMK AO2 RAE09 P0000=
200904052152 METAR KATL 052152Z 18007KT 7SM -RA BKN006 OVC034 16/15 A2981 RMK AO2 RAE2058B47 SLP091 P0000 T01610150=
200904052052 METAR KATL 052052Z 18006KT 8SM -RA FEW005 OVC043 15/14 A2982 RMK AO2 RAE09B49 SLP098 P0000 60007 T01500139 56025=
200904051952 METAR KATL 051952Z 15003KT 7SM -RA SCT007 OVC060 15/14 A2984 RMK AO2 SLP102 P0002 T01500139=
200904051937 SPECI KATL 051937Z 18006KT 7SM -RA SCT007 OVC065 15/14 A2985 RMK AO2 P0002=
200904051937 SPECI KATL 051937Z 18006KT 7SM -RA SCT007 OVC065 15/14 A2985 RMK AO2 P0002=
200904051852 METAR KATL 051852Z 16003KT 8SM -RA SCT017 SCT029 OVC080 15/13 A2986 RMK AO2 SLP110 SCT029V BKN P0005 T01500128=
200904051806 SPECI KATL 051806Z 18009KT 8SM -RA BKN025 BKN100 OVC150 15/13 A2989 RMK AO2 P0001=
200904051806 SPECI KATL 051806Z 18009KT 8SM -RA BKN025 BKN100 OVC150 15/13 A2989 RMK AO2 P0001=
200904051752 METAR KATL 051752Z 19005KT 10SM -RA SCT026 BKN100 OVC150 15/12 A2990 RMK AO2 RAB09 SLP122 P0000 60000 T01500122 10167 20128 58005=
200904051652 METAR KATL 051652Z 27004KT 10SM FEW020 BKN150 BKN250 16/11 A2992 RMK AO2 RAB1553E40 SLP130 P0000 T01560111=
200904051602 SPECI KATL 051602Z 20008KT 10SM -RA FEW020 BKN150 BKN250 16/11 A2993 RMK AO2 RAB1553 P0000=
200904051602 SPECI KATL 051602Z 20008KT 10SM -RA FEW020 BKN150 BKN250 16/11 A2993 RMK AO2 RAB1553 P0000=
200904051552 METAR KATL 051552Z 15004KT 10SM FEW100 BKN150 BKN250 15/11 A2991 RMK AO2 SLP125 T01500106=
200904051452 METAR KATL 051452Z 16007KT 10SM FEW120 BKN150 BKN250 16/11 A2991 RMK AO2 SLP126 T01560106 58003=
200904051352 METAR KATL 051352Z 19004KT 10SM FEW120 BKN150 BKN250 17/11 A2994 RMK AO2 SLP133 T01670106=
200904051252 METAR KATL 051252Z 08003KT 10SM FEW030 SCT100 BKN250 16/09 A2991 RMK AO2 SLP125 T01560094=
200904051152 METAR KATL 051152Z 00000KT 10SM FEW025 SCT090 BKN150 BKN250 13/08 A2992 RMK AO2 SLP128 T01280083 10156 20122 51008=
200904051052 METAR KATL 051052Z COR 00000KT 10SM FEW090 SCT120 BKN250 13/08 A2992 RMK AO2 SLP126 T01330083=
200904050952 METAR KATL 050952Z 31004KT 10SM FEW150 SCT250 12/07 A2992 RMK AO2 SLP128 T01220072=
200904050852 METAR KATL 050852Z 00000KT 10SM FEW250 13/07 A2990 RMK AO2 SLP119 T01280072 55007=
200904050752 METAR KATL 050752Z 00000KT 10SM CLR 13/07 A2990 RMK AO2 SLP118 T01330072=
200904050652 METAR KATL 050652Z 22004KT 10SM CLR 15/06 A2991 RMK AO2 SLP124 T01500061=
200904050552 METAR KATL 050552Z 00000KT 10SM SCT150 BKN250 16/04 A2992 RMK AO2 SLP128 T01560044 10211 20150 56008=
200904050452 METAR KATL 050452Z 00000KT 10SM SCT150 BKN250 16/05 A2993 RMK AO2 SLP129 T01610050 402390056=
200904050352 METAR KATL 050352Z 20004KT 10SM FEW180 SCT250 16/06 A2993 RMK AO2 SLP133 T01610056=
200904050252 METAR KATL 050252Z 22003KT 10SM FEW150 SCT250 17/07 A2995 RMK AO2 SLP138 T01670072 53003=
200904050152 METAR KATL 050152Z 00000KT 10SM FEW180 SCT250 19/06 A2995 RMK AO2 SLP139 T01890056=
200904050052 METAR KATL 050052Z 00000KT 10SM FEW180 BKN250 20/06 A2994 RMK AO2 SLP134 T02000056=
200904042352 METAR KATL 042352Z 20005KT 10SM FEW150 SCT250 21/06 A2994 RMK AO2 SLP137 T02110061 10239 20194 56006=
200904042252 METAR KATL 042252Z 26005KT 10SM FEW130 SCT180 BKN250 23/03 A2995 RMK AO2 SLP139 T02280033=
200904042152 METAR KATL 042152Z 23006KT 10SM FEW150 SCT180 SCT250 23/03 A2994 RMK AO2 SLP137 T02330028=
200904042052 METAR KATL 042052Z 00000KT 10SM SCT075 SCT150 BKN250 23/03 A2996 RMK AO2 SLP142 T02330033 56014=
200904041952 METAR KATL 041952Z 22005KT 10SM FEW110 SCT150 BKN250 23/03 A2996 RMK AO2 SLP142 T02280033=
200904041852 METAR KATL 041852Z 00000KT 10SM SCT150 BKN250 21/03 A2998 RMK AO2 SLP150 T02110033=
200904041752 METAR KATL 041752Z VRB04KT 10SM SCT150 BKN250 19/03 A3000 RMK AO2 SLP157 T01940028 10200 20067 58005=
200904041652 METAR KATL 041652Z VRB04KT 10SM BKN150 BKN250 18/03 A3002 RMK AO2 SLP163 T01830033=
200904041552 METAR KATL 041552Z COR 34007KT 10SM SCT150 BKN250 17/04 A3002 RMK AO2 SLP164 T01670039=
200904041452 METAR KATL 041452Z 35010KT 10SM SCT150 BKN250 14/04 A3001 RMK AO2 SLP163 T01440044 51013=
200904041352 METAR KATL 041352Z 34007KT 10SM SCT250 12/06 A3001 RMK AO2 SLP162 T01170056=
200904041252 METAR KATL 041252Z 31008KT 10SM FEW015 SCT250 09/05 A3000 RMK AO2 SLP159 T00940050=
200904041152 METAR KATL 041152Z 34006KT 10SM FEW250 07/04 A2997 RMK AO2 SLP152 T00670039 10083 20056 53008=
200904041052 METAR KATL 041052Z 30005KT 10SM FEW250 06/04 A2997 RMK AO2 SLP150 T00610039=
200904040952 METAR KATL 040952Z 33006KT 10SM CLR 06/04 A2995 RMK AO2 SLP143 T00610039=
200904040852 METAR KATL 040852Z 31005KT 10SM CLR 06/04 A2995 RMK AO2 SLP142 T00610044 53010=
200904040752 METAR KATL 040752Z 30004KT 10SM CLR 07/04 A2994 RMK AO2 SLP139 T00670044=
200904040652 METAR KATL 040652Z 29004KT 10SM CLR 07/05 A2992 RMK AO2 SLP134 T00670050=
200904040552 METAR KATL 040552Z 30004KT 10SM CLR 08/06 A2992 RMK AO2 SLP132 T00780056 10133 20072 53010=
200904040452 METAR KATL 040452Z 30003KT 10SM CLR 09/06 A2990 RMK AO2 SLP127 T00890056 401720089=
200904040352 METAR KATL 040352Z 31004KT 10SM CLR 09/06 A2990 RMK AO2 SLP124 T00940061=
200904040252 METAR KATL 040252Z 29003KT 10SM CLR 11/06 A2989 RMK AO2 SLP121 T01060061 51018=
200904040152 METAR KATL 040152Z 26003KT 10SM CLR 11/07 A2988 RMK AO2 SLP116 T01110067=
200904040052 METAR KATL 040052Z 29006KT 10SM FEW035 12/06 A2986 RMK AO2 SLP110 T01170061=
200904032352 METAR KATL 032352Z 31011KT 10SM FEW038 13/06 A2984 RMK AO2 SLP102 T01280061 10161 20128 53021=
200904032252 METAR KATL 032252Z 31013G18KT 10SM SCT038 14/07 A2981 RMK AO2 SLP092 T01390067=
200904032152 METAR KATL 032152Z 31015KT 10SM SCT038 16/07 A2979 RMK AO2 SLP083 T01610072=
200904032052 METAR KATL 032052Z 28012G20KT 10SM SCT035 16/08 A2977 RMK AO2 SLP079 T01560078 50006=
200904031952 METAR KATL 031952Z 33013G19KT 10SM SCT032 15/08 A2977 RMK AO2 SLP080 T01500078=
200904031904 SPECI KATL 031904Z 31014KT 10SM SCT026 BKN032 14/07 A2977 RMK AO2=
200904031904 SPECI KATL 031904Z 31014KT 10SM SCT026 BKN032 14/07 A2977 RMK AO2=
200904031852 METAR KATL 031852Z 31015KT 10SM BKN027 BKN033 13/08 A2977 RMK AO2 SLP080 T01330078=
200904031845 SPECI KATL 031845Z 30014G22KT 10SM BKN027 BKN033 13/08 A2977 RMK AO2=
200904031845 SPECI KATL 031845Z 30014G22KT 10SM BKN027 BKN033 13/08 A2977 RMK AO2=
200904031752 METAR KATL 031752Z 29016KT 10SM FEW028 BKN035 BKN040 14/08 A2975 RMK AO2 SLP072 T01440083 10150 20122 51024=
200904031745 SPECI KATL 031745Z 31017G21KT 10SM FEW028 BKN035 BKN040 15/08 A2975 RMK AO2=
200904031745 SPECI KATL 031745Z 31017G21KT 10SM FEW028 BKN035 BKN040 15/08 A2975 RMK AO2=
200904031722 SPECI KATL 031722Z 30018G23KT 10SM BKN028 BKN035 14/07 A2974 RMK AO2=
200904031722 SPECI KATL 031722Z 30018G23KT 10SM BKN028 BKN035 14/07 A2974 RMK AO2=
200904031652 METAR KATL 031652Z 30018G26KT 10SM BKN033 14/08 A2973 RMK AO2 PK WND 30026/1652 SLP064 T01440083=
200904031552 METAR KATL 031552Z 30013G20KT 10SM BKN030 BKN040 14/08 A2971 RMK AO2 SLP056 T01440083=
200904031505 SPECI KATL 031505Z 29014G20KT 10SM FEW020 BKN029 BKN040 14/08 A2969 RMK AO2=
200904031505 SPECI KATL 031505Z 29014G20KT 10SM FEW020 BKN029 BKN040 14/08 A2969 RMK AO2=
200904031452 METAR KATL 031452Z 29016G24KT 10SM FEW020 BKN030 BKN040 14/08 A2968 RMK AO2 SLP047 T01390083 53028=
200904031352 METAR KATL 031352Z 28013G16KT 10SM FEW020 BKN040 14/10 A2965 RMK AO2 SLP037 T01390100=
200904031252 METAR KATL 031252Z 26011KT 10SM BKN024 BKN029 BKN036 13/10 A2962 RMK AO2 SLP026 T01280100=
200904031237 SPECI KATL 031237Z 26011G18KT 10SM BKN027 BKN033 13/09 A2962 RMK AO2=
200904031237 SPECI KATL 031237Z 26011G18KT 10SM BKN027 BKN033 13/09 A2962 RMK AO2=
200904031152 METAR KATL 031152Z 26012KT 10SM FEW017 SCT025 BKN032 12/09 A2959 RMK AO2 SLP018 60000 70082 T01220094 10150 20117 53027=
200904031114 SPECI KATL 031114Z 27009KT 10SM FEW020 BKN030 BKN037 12/09 A2957 RMK AO2=
200904031114 SPECI KATL 031114Z 27009KT 10SM FEW020 BKN030 BKN037 12/09 A2957 RMK AO2=
200904031052 METAR KATL 031052Z 27011G17KT 10SM BKN017 OVC025 12/09 A2956 RMK AO2 SLP008 T01220094=
200904030952 METAR KATL 030952Z 26010KT 10SM BKN021 OVC150 12/08 A2953 RMK AO2 SLP997 T01220083=
200904030852 METAR KATL 030852Z 26012G18KT 10SM BKN023 12/08 A2951 RMK AO2 SLP990 60000 T01170078 51008=
200904030752 METAR KATL 030752Z 26009KT 10SM FEW150 12/07 A2950 RMK AO2 SLP986 T01220072=
200904030652 METAR KATL 030652Z 26010G19KT 10SM BKN055 OVC100 13/07 A2950 RMK AO2 RAE0557 SLP985 P0000 T01330067=
200904030552 METAR KATL 030552Z 27015G28KT 10SM -RA SCT021 BKN028 BKN039 16/10 A2948 RMK AO2 PK WND 29028/0549 RAB46 SLP980 P0000 60008 T01560100 10172 20156 53006=
200904030452 METAR KATL 030452Z 21014KT 10SM SCT008 BKN014 OVC040 17/16 A2946 RMK AO2 RAE39 SLP972 P0000 T01670156 401670150=
200904030432 SPECI KATL 030432Z 20015G21KT 10SM -RA SCT008 BKN014 OVC040 16/15 A2946 RMK AO2 P0000=
200904030432 SPECI KATL 030432Z 20015G21KT 10SM -RA SCT008 BKN014 OVC040 16/15 A2946 RMK AO2 P0000=
200904030352 METAR KATL 030352Z 17015KT 10SM -RA BKN008 OVC020 16/15 A2945 RMK AO2 SLP969 CIG 006V011 P0008 T01560150=
200904030252 METAR KATL 030252Z 16013KT 10SM -RA OVC007 16/15 A2947 RMK AO2 SLP973 CIG 005V010 P0000 60000 T01560150 56030=
200904030152 METAR KATL 030152Z 15012KT 10SM -RA OVC007 16/15 A2948 RMK AO2 SLP979 CIG 005V010 P0000 T01560150=
200904030052 METAR KATL 030052Z 14009G14KT 10SM -RA OVC007 16/15 A2950 RMK AO2 RAE17B47 CIG 005V010 SLP986 P0000 T01560150=
200904022352 METAR KATL 022352Z 14009KT 8SM -RA BKN007 OVC020 16/15 A2956 RMK AO2 SLP005 CIG 005V010 P0002 60043 T01560150 10161 20150 58026=
200904022330 SPECI KATL 022330Z 15011KT 3SM -RA BR OVC007 16/15 A2956 RMK AO2 CIG 005V010 P0001=
200904022330 SPECI KATL 022330Z 15011KT 3SM -RA BR OVC007 16/15 A2956 RMK AO2 CIG 005V010 P0001=
200904022252 METAR KATL 022252Z COR 14011KT 9SM -RA OVC007 16/15 A2958 RMK AO2 RAE12B52 SLP011 CIG 006V010 P0000 T01560150=
200904022212 SPECI KATL 022212Z 14010G16KT 8SM BKN007 OVC020 16/15 A2960 RMK AO2 RAE12 CIG 005V010 P0000=
200904022212 SPECI KATL 022212Z 14010G16KT 8SM BKN007 OVC020 16/15 A2960 RMK AO2 RAE12 CIG 005V010 P0000=
200904022152 METAR KATL 022152Z 14009G15KT 1SM -RA BR OVC004 16/15 A2962 RMK AO2 SFC VIS 3 DZE25RAB25 SLP027 CIG 003V006 P0000 T01560150=
200904022150 SPECI KATL 022150Z 15011KT 1SM -RA BR OVC004 16/15 A2962 RMK AO2 SFC VIS 3 DZE25RAB25 CIG 003V006 P0000=
200904022150 SPECI KATL 022150Z 15011KT 1SM -RA BR OVC004 16/15 A2962 RMK AO2 SFC VIS 3 DZE25RAB25 CIG 003V006 P0000=
200904022052 METAR KATL 022052Z 13011G16KT 1/2SM -DZ BR OVC003 15/14 A2964 RMK AO2 SFC VIS 2 1/2 RAB33E49DZB49 SLP032 P0000 60041 T01500144 58016=
200904022050 SPECI KATL 022050Z 13008KT 1/2SM -DZ BR OVC003 15/14 A2964 RMK AO2 SFC VIS 2 1/2 RAB33E49DZB49 P0000=
200904022050 SPECI KATL 022050Z 13008KT 1/2SM -DZ BR OVC003 15/14 A2964 RMK AO2 SFC VIS 2 1/2 RAB33E49DZB49 P0000=
200904021952 METAR KATL 021952Z 11011G22KT 9SM BKN006 OVC010 15/14 A2965 RMK AO2 PK WND 11026/1918 RAE00 SLP036 P0000 T01500139=
200904021852 METAR KATL 021852Z 12008KT 3SM -RA BR BKN006 BKN014 OVC020 15/14 A2968 RMK AO2 SFC VIS 6 TSB1756E15 PRESFR SLP047 P0041 T01500139=
200904021849 SPECI KATL 021849Z 12011G15KT 3SM -RA BR BKN006 BKN014 OVC020 15/14 A2969 RMK AO2 SFC VIS 6 TSB1756E15 P0041=
200904021849 SPECI KATL 021849Z 12011G15KT 3SM -RA BR BKN006 BKN014 OVC020 15/14 A2969 RMK AO2 SFC VIS 6 TSB1756E15 P0041=
200904021815 SPECI KATL 021815Z 12012G17KT 1SM +RA BR BKN008 OVC015 15/14 A2974 RMK AO2 SFC VIS 2 TSB1756E15 TS MOV NE P0022=
200904021815 SPECI KATL 021815Z 12012G17KT 1SM +RA BR BKN008 OVC015 15/14 A2974 RMK AO2 SFC VIS 2 TSB1756E15 TS MOV NE P0022=
200904021805 SPECI KATL 021805Z 12012KT 1SM R09R/5500VP6000FT +TSRA BKN006CB OVC012 15/14 A2975 RMK AO2 SFC VIS 2 TSB1756 OCNL LTGIC N-NE TS N-NE MOV NE P0014=
200904021805 SPECI KATL 021805Z 12012KT 1SM R09R/5500VP6000FT +TSRA BKN006CB OVC012 15/14 A2975 RMK AO2 SFC VIS 2 TSB1756 OCNL LTGIC N-NE TS N-NE MOV NE P0014=
200904021757 SPECI KATL 021757Z 11008KT 1SM R09R/5000VP6000FT +TSRA OVC006CB 15/14 A2975 RMK AO2 SFC VIS 1 1/2 TSB56 OCNL LTGIC SW-W TS SW-W MOV NE P0007=
200904021757 SPECI KATL 021757Z 11008KT 1SM R09R/5000VP6000FT +TSRA OVC006CB 15/14 A2975 RMK AO2 SFC VIS 1 1/2 TSB56 OCNL LTGIC SW-W TS SW-W MOV NE P0007=
200904021724 SPECI KATL 021724Z 11011G17KT 3SM -RA BR BKN006 BKN014 OVC030 15/14 A2974 RMK AO2 SFC VIS 5 TSB1655E21RAB1657 PRESFR LTG DSNT N-NE-E TS MOV NE CB DSNT N-NE-E MOV NE P0023=
200904021724 SPECI KATL 021724Z 11011G17KT 3SM -RA BR BKN006 BKN014 OVC030 15/14 A2974 RMK AO2 SFC VIS 5 TSB1655E21RAB1657 PRESFR LTG DSNT N-NE-E TS MOV NE CB DSNT N-NE-E MOV NE P0023=
200904021721 SPECI KATL 021721Z 11009G17KT 2 1/2SM -RA BR BKN008CB BKN014 OVC030 15/14 A2974 RMK AO2 SFC VIS 5 TSB1655E21RAB1657 PRESFR LTG DSNT N-NE-E TS MOV NE CB DSNT N-NE-S MOV NE P0023=
200904021721 SPECI KATL 021721Z 11009G17KT 2 1/2SM -RA BR BKN008CB BKN014 OVC030 15/14 A2974 RMK AO2 SFC VIS 5 TSB1655E21RAB1657 PRESFR LTG DSNT N-NE-E TS MOV NE CB DSNT N-NE-S MOV NE P0023=
200904021712 SPECI KATL 021712Z 11010KT 3/4SM R09R/4500VP6000FT -TSRA BR BKN008CB BKN014 OVC030 15/14 A2976 RMK AO2 SFC VIS 2 TSB1655RAB1657 OCNL LTGIC NE-E & NW TS NE-E & NW MOV NE P0021=
200904021712 SPECI KATL 021712Z 11010KT 3/4SM R09R/4500VP6000FT -TSRA BR BKN008CB BKN014 OVC030 15/14 A2976 RMK AO2 SFC VIS 2 TSB1655RAB1657 OCNL LTGIC NE-E & NW TS NE-E & NW MOV NE P0021=
200904021706 SPECI KATL 021706Z 11007G18KT 3/4SM R09R/2800VP6000FT +TSRA BR OVC008CB 15/14 A2977 RMK AO2 TSB1655RAB1657 FRQ LTGICCG OHD TS OHD MOV NE P0019=
200904021706 SPECI KATL 021706Z 11007G18KT 3/4SM R09R/2800VP6000FT +TSRA BR OVC008CB 15/14 A2977 RMK AO2 TSB1655RAB1657 FRQ LTGICCG OHD TS OHD MOV NE P0019=
200904021703 SPECI KATL 021703Z 11011G18KT 1/2SM R09R/2800VP6000FT +TSRA FG OVC008CB 15/14 A2978 RMK AO2 TSB1655RAB1657 FRQ LTGICCG OHD-SE-S-SW-W TS OHD-SE-S-SW-W MOV NE P0011=
200904021703 SPECI KATL 021703Z 11011G18KT 1/2SM R09R/2800VP6000FT +TSRA FG OVC008CB 15/14 A2978 RMK AO2 TSB1655RAB1657 FRQ LTGICCG OHD-SE-S-SW-W TS OHD-SE-S-SW-W MOV NE P0011=
200904021701 SPECI KATL 021701Z 11013KT 1/2SM R09R/3000VP6000FT -TSRA OVC008CB 16/14 A2980 RMK AO2 SFC VIS 9 TSB1655RAB1657 PRESRR FRQ LTGICCG OHD-SE-S-SW-W TS OHD-SE-S-SW-W MOV NE P0003=
200904021701 SPECI KATL 021701Z 11013KT 1/2SM R09R/3000VP6000FT -TSRA OVC008CB 16/14 A2980 RMK AO2 SFC VIS 9 TSB1655RAB1657 PRESRR FRQ LTGICCG OHD-SE-S-SW-W TS OHD-SE-S-SW-W MOV NE P0003=
200904021655 SPECI KATL 021655Z 16015G19KT 10SM TS OVC006CB 16/14 A2978 RMK AO2 TSB55 FRQ LTGIC SE-S-SW TS SE-S-SW MOV NE=
200904021655 SPECI KATL 021655Z 16015G19KT 10SM TS OVC006CB 16/14 A2978 RMK AO2 TSB55 FRQ LTGIC SE-S-SW TS SE-S-SW MOV NE=
200904021652 METAR KATL 021652Z 13012G19KT 10SM OVC006CB 16/14 A2977 RMK AO2 SLP079 CB SE-S-SW MOV NE SHRA SE-S-SW T01560139=
200904021552 METAR KATL 021552Z 11011KT 10SM OVC006 16/14 A2978 RMK AO2 SLP081 LTG DSNT SE-S CB DSNT SE-S MOV NE T01560144=
200904021503 SPECI KATL 021503Z 10011G20KT 10SM BKN008 OVC012 16/14 A2977 RMK AO2=
200904021503 SPECI KATL 021503Z 10011G20KT 10SM BKN008 OVC012 16/14 A2977 RMK AO2=
200904021452 METAR KATL 021452Z 09015G19KT 10SM SCT005 BKN010 OVC020 16/14 A2977 RMK AO2 SLP077 T01610144 55010=
200904021352 METAR KATL 021352Z 11007KT 10SM OVC005 16/15 A2975 RMK AO2 PRESFR SLP070 T01610150=
200904021318 SPECI KATL 021318Z 12010KT 10SM BKN007 BKN030 OVC043 16/15 A2978 RMK AO2=
200904021318 SPECI KATL 021318Z 12010KT 10SM BKN007 BKN030 OVC043 16/15 A2978 RMK AO2=
200904021252 METAR KATL 021252Z 11009KT 10SM SCT007 BKN030 BKN080 BKN200 17/14 A2979 RMK AO2 SLP081 T01670144=
200904021238 SPECI KATL 021238Z 12010G14KT 10SM SCT007 BKN030 BKN080 BKN200 17/14 A2979 RMK AO2=
200904021238 SPECI KATL 021238Z 12010G14KT 10SM SCT007 BKN030 BKN080 BKN200 17/14 A2979 RMK AO2=
200904021152 METAR KATL 021152Z AUTO 11009KT 10SM BKN007 OVC150 17/16 A2980 RMK AO2 SLP086 60032 70049 T01670156 10167 20161 53010=
200904021052 METAR KATL 021052Z 10009KT 10SM SCT007 BKN029 17/16 A2978 RMK AO2 SLP080 T01670156=
200904021010 SPECI KATL 021010Z 11005KT 3SM BR BKN007 OVC026 17/16 A2979 RMK AO2 SFC VIS 5=
200904021010 SPECI KATL 021010Z 11005KT 3SM BR BKN007 OVC026 17/16 A2979 RMK AO2 SFC VIS 5=
200904020952 METAR KATL 020952Z 13007KT 3SM BR SCT009 BKN018 OVC026 17/16 A2979 RMK AO2 SFC VIS 5 RAE17 SLP081 P0000 T01670156=
200904020908 SPECI KATL 020908Z 12008KT 3SM -RA BR FEW007 BKN022 OVC029 17/16 A2976 RMK AO2 SFC VIS 5 LTG DSNT NW P0000=
200904020908 SPECI KATL 020908Z 12008KT 3SM -RA BR FEW007 BKN022 OVC029 17/16 A2976 RMK AO2 SFC VIS 5 LTG DSNT NW P0000=
200904020859 SPECI KATL 020859Z 12007KT 1/2SM BR SCT007 BKN018 OVC031 17/16 A2977 RMK AO2 SFC VIS 5 RAE59 P0000=
200904020859 SPECI KATL 020859Z 12007KT 1/2SM BR SCT007 BKN018 OVC031 17/16 A2977 RMK AO2 SFC VIS 5 RAE59 P0000=
200904020852 METAR KATL 020852Z COR 12010KT 1/2SM -RA BKN007 BKN018 OVC024 17/16 A2977 RMK AO2 SFC VIS 5 RAE14B39 CIG 004V009 SLP075 LTG DSNT W P0003 60032 T01670161 56027=
200904020752 METAR KATL 020752Z 10007KT 1/2SM -RA BR BKN005 OVC020 16/16 A2979 RMK AO2 SFC VIS 5 SLP081 P0011 T01610156=
200904020652 METAR KATL 020652Z 11007KT 1/2SM RA BR BKN003 OVC020 16/16 A2983 RMK AO2 WSHFT 0600 SFC VIS 4 TSE52 SLP099 TS MOV NE LTG DSNT NE-S P0018 T01610156=
200904020616 SPECI KATL 020616Z 11010KT 1/2SM -TSRA BR SCT006CB BKN013 OVC020 16/16 A2982 RMK AO2 WSHFT 0600 SFC VIS 4 P0010=
200904020616 SPECI KATL 020616Z 11010KT 1/2SM -TSRA BR SCT006CB BKN013 OVC020 16/16 A2982 RMK AO2 WSHFT 0600 SFC VIS 4 P0010=
200904020552 METAR KATL 020552Z 04004KT 1/2SM +TSRA BR BKN004CB OVC020 16/16 A2985 RMK AO2 SFC VIS 2 TSB25DZE25RAB25 SLP105 CON LTGIC OHD-E-S-SW TS OHD E-S-SW MOV NE P0008 60008 T01610156 10183 20161 55010=
200904020525 SPECI KATL 020525Z 07006KT 1/2SM -TSRA OVC004CB 16/16 A2984 RMK AO2 SFC VIS 2 TSB25DZE25RAB25 FRQ LTGIC E-S-SW TS E-S-SW MOV NE P0000=
200904020525 SPECI KATL 020525Z 07006KT 1/2SM -TSRA OVC004CB 16/16 A2984 RMK AO2 SFC VIS 2 TSB25DZE25RAB25 FRQ LTGIC E-S-SW TS E-S-SW MOV NE P0000=
200904020513 SPECI KATL 020513Z 08008KT 1/2SM -DZ BR OVC004 16/16 A2984 RMK AO2 SFC VIS 2 LTG DSNT E P0000=
200904020513 SPECI KATL 020513Z 08008KT 1/2SM -DZ BR OVC004 16/16 A2984 RMK AO2 SFC VIS 2 LTG DSNT E P0000=
200904020452 METAR KATL 020452Z 10008KT 2SM -DZ BR OVC004 16/16 A2985 RMK AO2 DZB11 PRESFR SLP105 P0000 T01610156 402000139=
200904020413 SPECI KATL 020413Z 10005KT 2SM -DZ BR OVC004 17/16 A2987 RMK AO2 DZB11 CIG 003V006 P0000=
200904020413 SPECI KATL 020413Z 10005KT 2SM -DZ BR OVC004 17/16 A2987 RMK AO2 DZB11 CIG 003V006 P0000=
200904020352 METAR KATL 020352Z 11006KT 6SM BR BKN006 OVC024 17/16 A2988 RMK AO2 SLP114 T01670156=
200904020302 SPECI KATL 020302Z 10006KT 7SM SCT008 OVC026 17/16 A2988 RMK AO2=
200904020302 SPECI KATL 020302Z 10006KT 7SM SCT008 OVC026 17/16 A2988 RMK AO2=
200904020252 METAR KATL 020252Z 10006KT 8SM BKN008 OVC026 17/16 A2988 RMK AO2 SLP115 T01720156 53001=
200904020240 SPECI KATL 020240Z 11005KT 9SM BKN008 OVC026 17/16 A2989 RMK AO2=
200904020240 SPECI KATL 020240Z 11005KT 9SM BKN008 OVC026 17/16 A2989 RMK AO2=
200904020221 SPECI KATL 020221Z 10005KT 9SM SCT008 OVC026 17/16 A2988 RMK AO2=
200904020221 SPECI KATL 020221Z 10005KT 9SM SCT008 OVC026 17/16 A2988 RMK AO2=
200904020152 METAR KATL 020152Z 09006KT 9SM FEW010 BKN027 OVC200 17/16 A2987 RMK AO2 SLP113 T01720156=
200904020052 METAR KATL 020052Z 11008KT 10SM FEW020 BKN028 OVC200 18/15 A2987 RMK AO2 SLP111 T01780150=
200904012352 METAR KATL 012352Z 13006KT 10SM FEW022 BKN032 OVC200 18/15 A2988 RMK AO2 SLP114 T01830150 10200 20161 53003=
200904012252 METAR KATL 012252Z 15006KT 10SM FEW022 BKN032 OVC200 19/14 A2987 RMK AO2 SLP113 T01890144=
200904012152 METAR KATL 012152Z 15005KT 10SM SCT025 BKN034 OVC200 19/14 A2987 RMK AO2 SLP112 T01940144=
200904012052 METAR KATL 012052Z 15003KT 10SM FEW020 SCT030 BKN200 20/14 A2987 RMK AO2 SLP110 T02000144 56020=
200904011955 SPECI KATL 011955Z 13006KT 10SM BKN018 BKN033 BKN250 19/16 A2987 RMK AO2=
200904011955 SPECI KATL 011955Z 13006KT 10SM BKN018 BKN033 BKN250 19/16 A2987 RMK AO2=
200904011952 METAR KATL 011952Z 13005KT 10SM FEW015 SCT020 BKN030 BKN250 20/16 A2988 RMK AO2 SLP112 T02000156=
200904011904 SPECI KATL 011904Z 31003KT 8SM FEW006 SCT016 SCT025 18/16 A2989 RMK AO2=
200904011904 SPECI KATL 011904Z 31003KT 8SM FEW006 SCT016 SCT025 18/16 A2989 RMK AO2=
200904011852 METAR KATL 011852Z 36006KT 6SM BR FEW006 BKN015 BKN025 17/16 A2990 RMK AO2 SLP121 T01720156=
200904011811 SPECI KATL 011811Z 33007KT 7SM FEW006 BKN014 OVC040 16/16 A2992 RMK AO2=
200904011811 SPECI KATL 011811Z 33007KT 7SM FEW006 BKN014 OVC040 16/16 A2992 RMK AO2=
200904011752 METAR KATL 011752Z 30006KT 6SM BR BKN009 OVC012 16/15 A2993 RMK AO2 SLP132 60009 T01610150 10167 20144 58003=
200904011652 METAR KATL 011652Z 00000KT 8SM BKN009 BKN015 OVC030 17/15 A2994 RMK AO2 SLP135 T01670150=
200904011552 METAR KATL 011552Z 31005KT 8SM BKN009 BKN015 OVC025 16/15 A2995 RMK AO2 RAE30 SLP140 P0000 T01560150=
200904011452 METAR KATL 011452Z 00000KT 7SM -RA BKN007 BKN016 OVC025 16/15 A2994 RMK AO2 RAB50 SLP135 P0000 60009 T01560150 51013=
200904011359 SPECI KATL 011359Z 00000KT 6SM BR FEW002 SCT006 OVC025 15/14 A2993 RMK AO2=
200904011359 SPECI KATL 011359Z 00000KT 6SM BR FEW002 SCT006 OVC025 15/14 A2993 RMK AO2=
200904011352 METAR KATL 011352Z 00000KT 2 1/2SM BR FEW002 SCT018 OVC025 15/14 A2993 RMK AO2 SFC VIS 6 RAE33 SLP133 P0002 T01500144=
200904011340 SPECI KATL 011340Z 00000KT 2 1/2SM BR FEW002 SCT006 OVC025 15/15 A2993 RMK AO2 SFC VIS 5 RAE33 P0002=
200904011340 SPECI KATL 011340Z 00000KT 2 1/2SM BR FEW002 SCT006 OVC025 15/15 A2993 RMK AO2 SFC VIS 5 RAE33 P0002=
200904011339 SPECI KATL 011339Z 00000KT 1 1/2SM BR FEW002 SCT006 OVC025 15/15 A2993 RMK AO2 SFC VIS 5 RAE33 P0002=
200904011339 SPECI KATL 011339Z 00000KT 1 1/2SM BR FEW002 SCT006 OVC025 15/15 A2993 RMK AO2 SFC VIS 5 RAE33 P0002=
200904011333 SPECI KATL 011333Z 00000KT 1 1/2SM BR BKN002 BKN006 OVC025 15/15 A2993 RMK AO2 SFC VIS 3 RAE33 CIG 001V005 P0002=
200904011333 SPECI KATL 011333Z 00000KT 1 1/2SM BR BKN002 BKN006 OVC025 15/15 A2993 RMK AO2 SFC VIS 3 RAE33 CIG 001V005 P0002=
200904011322 SPECI KATL 011322Z 00000KT 1 1/2SM -RA BR SCT002 BKN006 OVC023 15/14 A2993 RMK AO2 SFC VIS 2 1/2 P0001=
200904011322 SPECI KATL 011322Z 00000KT 1 1/2SM -RA BR SCT002 BKN006 OVC023 15/14 A2993 RMK AO2 SFC VIS 2 1/2 P0001=
200904011258 SPECI KATL 011258Z 00000KT 1 1/2SM -RA BR FEW003 BKN019 OVC026 14/14 A2993 RMK AO2 P0000=
200904011258 SPECI KATL 011258Z 00000KT 1 1/2SM -RA BR FEW003 BKN019 OVC026 14/14 A2993 RMK AO2 P0000=
200904011252 METAR KATL 011252Z 00000KT 1/2SM R09R/5500VP6000FT -RA FG BKN006 BKN014 OVC026 14/14 A2993 RMK AO2 TWR VIS 1 1/2 SLP132 P0007 T01440144=
200904011247 SPECI KATL 011247Z 00000KT 1/2SM R09R/4500VP6000FT RA FG BKN006 BKN014 OVC026 14/14 A2993 RMK AO2 TWR VIS 1 1/2 P0007=
200904011247 SPECI KATL 011247Z 00000KT 1/2SM R09R/4500VP6000FT RA FG BKN006 BKN014 OVC026 14/14 A2993 RMK AO2 TWR VIS 1 1/2 P0007=
200904011241 SPECI KATL 011241Z 33004KT 1 1/2SM R09R/4500VP6000FT -RA BR FEW006 OVC016 14/14 A2992 RMK AO2 SFC VIS 2 P0004=
200904011241 SPECI KATL 011241Z 33004KT 1 1/2SM R09R/4500VP6000FT -RA BR FEW006 OVC016 14/14 A2992 RMK AO2 SFC VIS 2 P0004=
200904011225 SPECI KATL 011225Z 14003KT 2SM -RA BR FEW006 BKN016 OVC030 14/14 A2991 RMK AO2 P0004=
200904011225 SPECI KATL 011225Z 14003KT 2SM -RA BR FEW006 BKN016 OVC030 14/14 A2991 RMK AO2 P0004=
200904011215 SPECI KATL 011215Z 00000KT 1 3/4SM -RA BR BKN006 BKN016 OVC030 14/14 A2991 RMK AO2 TWR VIS 2 P0003=
200904011215 SPECI KATL 011215Z 00000KT 1 3/4SM -RA BR BKN006 BKN016 OVC030 14/14 A2991 RMK AO2 TWR VIS 2 P0003=
