##########################################################
# Query made at 04/19/2024 23:12:33 UTC
# Time interval: from 08/01/2009 12:00  to 08/31/2009 12:59  UTC
##########################################################

##########################################################
# KATL, Atlanta, Hartsfield - Jackson Atlanta International Airport (United States)
# WMO index: 72219. WIGOS ID: 0-20000-0-72219
# Latitude 33-38-59N. Longitude 084-25-00W. Altitude 312 m.
##########################################################

200908311252 METAR KATL 311252Z 00000KT 4SM BR SCT004 BKN007 BKN010 21/19 A3007 RMK AO2 RAB24E42 SLP176 P0000 T02060194 $=
200908311211 SPECI KATL 311211Z 00000KT 6SM BR SCT004 BKN007 BKN015 21/19 A3006 RMK AO2 $=
200908311211 SPECI KATL 311211Z 00000KT 6SM BR SCT004 BKN007 BKN015 21/19 A3006 RMK AO2 $=
200908311203 SPECI KATL 311203Z 00000KT 6SM BR FEW004 BKN015 21/19 A3006 RMK AO2 $=
200908311203 SPECI KATL 311203Z 00000KT 6SM BR FEW004 BKN015 21/19 A3006 RMK AO2 $=
200908311152 METAR KATL 311152Z 16003KT 2 1/2SM BR BKN004 BKN010 OVC015 21/19 A3006 RMK AO2 SFC VIS 5 CIG 003V009 SLP171 60005 70099 T02060194 10211 20206 53014 $=
200908311129 SPECI KATL 311129Z 00000KT 2 1/2SM BR BKN004 BKN010 21/20 A3005 RMK AO2 SFC VIS 6 $=
200908311105 SPECI KATL 311105Z 15004KT 1SM BR SCT004 BKN005 BKN010 21/21 A3004 RMK AO2 SFC VIS 4 $=
200908311105 SPECI KATL 311105Z 15004KT 1SM BR SCT004 BKN005 BKN010 21/21 A3004 RMK AO2 SFC VIS 4 $=
200908311052 METAR KATL 311052Z 00000KT 6SM BR BKN006 OVC013 21/20 A3004 RMK AO2 SLP164 T02110200 $=
200908310952 METAR KATL 310952Z 00000KT 6SM BR BKN013 BKN020 OVC033 21/20 A3002 RMK AO2 SLP158 T02110200 $=
200908310852 METAR KATL 310852Z 02004KT 5SM BR BKN007 OVC013 21/21 A3002 RMK AO2 RAB13E43 SLP157 P0001 60005 T02110206 58001 $=
200908310757 SPECI KATL 310757Z 00000KT 4SM BR BKN003 BKN027 OVC044 21/21 A3002 RMK AO2 CIG 002V007 $=
200908310757 SPECI KATL 310757Z 00000KT 4SM BR BKN003 BKN027 OVC044 21/21 A3002 RMK AO2 CIG 002V007 $=
200908310752 METAR KATL 310752Z 00000KT 5SM BR SCT003 BKN034 OVC043 21/21 A3002 RMK AO2 RAB0658E28 SLP157 P0004 T02110206 $=
200908310725 SPECI KATL 310725Z 00000KT 4SM -RA BR SCT003 OVC042 21/21 A3001 RMK AO2 RAB0658 P0004 $=
200908310725 SPECI KATL 310725Z 00000KT 4SM -RA BR SCT003 OVC042 21/21 A3001 RMK AO2 RAB0658 P0004 $=
200908310705 SPECI KATL 310705Z 20004KT 2 1/2SM -RA BR BKN003 OVC008 21/21 A3002 RMK AO2 RAB0658 CIG 001V005 P0002 $=
200908310705 SPECI KATL 310705Z 20004KT 2 1/2SM -RA BR BKN003 OVC008 21/21 A3002 RMK AO2 RAB0658 CIG 001V005 P0002 $=
200908310652 METAR KATL 310652Z 21004KT 4SM BR SCT006 OVC010 21/21 A3002 RMK AO2 CIG 007V011 SLP160 T02110206 $=
200908310552 METAR KATL 310552Z 00000KT 4SM BR BKN005 OVC010 21/21 A3002 RMK AO2 SLP160 T02110206 10217 20206 50000 $=
200908310452 METAR KATL 310452Z 32003KT 4SM BR SCT005 BKN013 OVC060 21/21 A3002 RMK AO2 SLP158 T02110206 402610194 $=
200908310427 SPECI KATL 310427Z 00000KT 5SM BR SCT003 BKN016 OVC043 21/21 A3003 RMK AO2 $=
200908310427 SPECI KATL 310427Z 00000KT 5SM BR SCT003 BKN016 OVC043 21/21 A3003 RMK AO2 $=
200908310352 METAR KATL 310352Z 00000KT 4SM BR SCT003 BKN046 OVC070 21/20 A3002 RMK AO2 SLP157 T02110200 $=
200908310252 METAR KATL 310252Z 32003KT 4SM BR SCT005 BKN050 OVC070 21/20 A3002 RMK AO2 SLP157 T02110200 53009 $=
200908310152 METAR KATL 310152Z 00000KT 6SM BR FEW005 BKN100 OVC150 21/20 A3001 RMK AO2 SLP154 T02060200 $=
200908310052 METAR KATL 310052Z 00000KT 7SM FEW005 BKN085 OVC110 21/19 A2999 RMK AO2 SLP150 T02060194 $=
200908302352 METAR KATL 302352Z 13004KT 5SM BR FEW003 SCT080 BKN110 OVC150 21/21 A2999 RMK AO2 RAE2255B23E47 SLP150 P0000 60010 T02110206 10211 20194 55002 $=
200908302252 METAR KATL 302252Z COR 16004KT 5SM -RA BR SCT005 OVC090 21/21 A2999 RMK AO2 SLP147 P0000 T02110206 $=
200908302152 METAR KATL 302152Z 00000KT 7SM -RA FEW005 BKN090 OVC150 21/20 A2999 RMK AO2 RAE14B43 SLP148 P0001 T02110200 $=
200908302118 SPECI KATL 302118Z 00000KT 6SM BR FEW005 BKN095 OVC120 21/20 A3000 RMK AO2 RAE14 P0001 $=
200908302118 SPECI KATL 302118Z 00000KT 6SM BR FEW005 BKN095 OVC120 21/20 A3000 RMK AO2 RAE14 P0001 $=
200908302052 METAR KATL 302052Z 26004KT 5SM -RA BR SCT007 BKN013CB OVC110 21/20 A3000 RMK AO2 RAB1956 SLP152 CB S AND NW MOV E P0003 60009 T02110200 51002 $=
200908302029 SPECI KATL 302029Z 27005KT 5SM -RA BR FEW007 BKN015CB OVC110 21/19 A3000 RMK AO2 RAB1956 CB S-SW-NW MOV E P0001 $=
200908302029 SPECI KATL 302029Z 27005KT 5SM -RA BR FEW007 BKN015CB OVC110 21/19 A3000 RMK AO2 RAB1956 CB S-SW-NW MOV E P0001 $=
200908301952 METAR KATL 301952Z 08004KT 6SM BR FEW004 SCT015 BKN120 21/19 A2999 RMK AO2 RAE30 SLP148 CB DSNT E AND W P0003 T02060194 $=
200908301852 METAR KATL 301852Z 20003KT 6SM -RA BR FEW005 BKN019CB OVC050 19/19 A3001 RMK AO2 TSE52 SLP156 CB OHD-E-S MOV E P0003 T01940189 $=
200908301828 SPECI KATL 301828Z 20005KT 7SM -TSRA FEW005 BKN032CB BKN050 20/19 A3002 RMK AO2 OCNL LTGIC SE-S TS SE-S MOV E CB NE-SE-SW MOV E P0001 $=
200908301828 SPECI KATL 301828Z 20005KT 7SM -TSRA FEW005 BKN032CB BKN050 20/19 A3002 RMK AO2 OCNL LTGIC SE-S TS SE-S MOV E CB NE-SE-SW MOV E P0001 $=
200908301815 SPECI KATL 301815Z 18006KT 8SM -TSRA SCT028CB BKN032 BKN070 20/19 A3001 RMK AO2 OCNL LTGIC SE-S TS SE-S MOV E CB NE-SE-SW MOV E P0000 $=
200908301815 SPECI KATL 301815Z 18006KT 8SM -TSRA SCT028CB BKN032 BKN070 20/19 A3001 RMK AO2 OCNL LTGIC SE-S TS SE-S MOV E CB NE-SE-SW MOV E P0000 $=
200908301752 METAR KATL 301752Z 09006KT 6SM -TSRA BR FEW013CB BKN024 OVC065 20/19 A3000 RMK AO2 PK WND 29034/1656 SLP150 OCNL LTGIC NE-SE AND S-SW TS NE-SE AND S-SW MOV E CB NE-SE-OHD-S-SW MOV E P0084 60084 T02000189 10261 201=
200908301739 SPECI KATL 301739Z 07010KT 3SM -TSRA BR BKN013CB BKN024 OVC065 20/19 A2999 RMK AO2 PK WND 29034/1656 OCNL LTGIC NE-SE TS NE-SE MOV E CB OHD-ALQDS MOV E P0083 $=
200908301739 SPECI KATL 301739Z 07010KT 3SM -TSRA BR BKN013CB BKN024 OVC065 20/19 A2999 RMK AO2 PK WND 29034/1656 OCNL LTGIC NE-SE TS NE-SE MOV E CB OHD-ALQDS MOV E P0083 $=
200908301724 SPECI KATL 301724Z 34005KT 1SM R09R/P6000FT -TSRA BR BKN013CB OVC022 19/18 A3000 RMK AO2 PK WND 29034/1656 TWR VIS 4 FRQ LTGCGIC OHD-ALQDS TS OHD-ALQDS MOV E CB OHD-ALQDS MOV E P0082 $=
200908301724 SPECI KATL 301724Z 34005KT 1SM R09R/P6000FT -TSRA BR BKN013CB OVC022 19/18 A3000 RMK AO2 PK WND 29034/1656 TWR VIS 4 FRQ LTGCGIC OHD-ALQDS TS OHD-ALQDS MOV E CB OHD-ALQDS MOV E P0082 $=
200908301702 SPECI KATL 301702Z 32015G34KT 1SM R09R/2400VP6000FT +TSRA BR FEW004 BKN023CB BKN034 21/19 A3002 RMK AO2 PK WND 29034/1656 FRQ LTGCGCCCAIC N-OHD-NW TS N-OHD-NW MOV E CB SW-OHD-N MOV E P0007 $=
200908301702 SPECI KATL 301702Z 32015G34KT 1SM R09R/2400VP6000FT +TSRA BR FEW004 BKN023CB BKN034 21/19 A3002 RMK AO2 PK WND 29034/1656 FRQ LTGCGCCCAIC N-OHD-NW TS N-OHD-NW MOV E CB SW-OHD-N MOV E P0007 $=
200908301652 METAR KATL 301652Z 32009KT 6SM -TSRA HZ FEW020CB BKN034 BKN060 26/21 A3000 RMK AO2 TSB49RAB40 SLP148 FRQ LTGCGCAIC NW TS NW MOV E CB SW-N MOV E P0000 T02560206 $=
200908301649 SPECI KATL 301649Z 33008KT 6SM -TSRA HZ FEW020CB BKN034 BKN060 26/21 A3000 RMK AO2 TSB49RAB40 OCNL LTGCGIC NW TS NW MOV E CB SW-N MOV E P0000 $=
200908301649 SPECI KATL 301649Z 33008KT 6SM -TSRA HZ FEW020CB BKN034 BKN060 26/21 A3000 RMK AO2 TSB49RAB40 OCNL LTGCGIC NW TS NW MOV E CB SW-N MOV E P0000 $=
200908301634 SPECI KATL 301634Z 32005KT 6SM HZ FEW020CB SCT041 BKN060 26/21 A3000 RMK AO2 CB W-N MOV E CB DSNT SW-N $=
200908301634 SPECI KATL 301634Z 32005KT 6SM HZ FEW020CB SCT041 BKN060 26/21 A3000 RMK AO2 CB W-N MOV E CB DSNT SW-N $=
200908301552 METAR KATL 301552Z 00000KT 7SM SCT020 BKN070 OVC200 26/21 A3002 RMK AO2 SLP155 CB DSNT SW-N T02560206 $=
200908301452 METAR KATL 301452Z 00000KT 6SM HZ FEW015 BKN090 BKN200 25/21 A3001 RMK AO2 SLP153 CB DSNT NW T02500211 53007 $=
200908301352 METAR KATL 301352Z 00000KT 7SM BKN100 BKN200 23/21 A3000 RMK AO2 SLP149 T02330206 $=
200908301252 METAR KATL 301252Z 00000KT 8SM SCT150 BKN250 23/20 A3000 RMK AO2 SLP149 T02280200 $=
200908301152 METAR KATL 301152Z 22003KT 8SM SCT140 BKN250 22/20 A2999 RMK AO2 SLP145 T02170200 10228 20211 53014 $=
200908301052 METAR KATL 301052Z 29004KT 9SM FEW060 SCT140 BKN200 22/19 A2996 RMK AO2 SLP136 T02170194 $=
200908300952 METAR KATL 300952Z 00000KT 8SM FEW060 SCT140 BKN200 21/20 A2996 RMK AO2 SLP134 T02110200 $=
200908300852 METAR KATL 300852Z 29003KT 8SM FEW140 BKN200 21/20 A2994 RMK AO2 SLP130 T02110200 56003 $=
200908300752 METAR KATL 300752Z 29005KT 9SM FEW120 SCT150 22/20 A2995 RMK AO2 SLP132 T02170200 $=
200908300652 METAR KATL 300652Z 29006KT 10SM SCT120 BKN150 22/20 A2994 RMK AO2 SLP130 T02220200 $=
200908300552 METAR KATL 300552Z 29005KT 10SM SCT120 BKN150 23/21 A2995 RMK AO2 SLP133 T02280206 10272 20222 51002 $=
200908300452 METAR KATL 300452Z 27003KT 10SM SCT110 BKN150 23/21 A2995 RMK AO2 SLP132 T02330206 403000189 $=
200908300352 METAR KATL 300352Z 00000KT 10SM BKN110 24/21 A2996 RMK AO2 SLP133 T02390206 $=
200908300252 METAR KATL 300252Z 26004KT 10SM FEW050 SCT110 BKN250 24/20 A2995 RMK AO2 SLP131 T02390200 51019 $=
200908300152 METAR KATL 300152Z 29005KT 10SM FEW055 BKN110 OVC250 24/20 A2993 RMK AO2 SLP127 T02440200 $=
200908300052 METAR KATL 300052Z 32005KT 10SM FEW050 SCT070 BKN120 BKN250 26/20 A2991 RMK AO2 SLP119 T02560200 $=
200908292352 METAR KATL 292352Z 31007KT 9SM FEW048 SCT120 BKN150 BKN250 27/19 A2989 RMK AO2 SLP111 T02720194 10300 20272 50002 $=
200908292252 METAR KATL 292252Z 28007KT 10SM FEW030 SCT042TCU SCT080 BKN150 BKN200 28/19 A2990 RMK AO2 SLP114 TCU SE AND DSNT NW T02780194 $=
200908292152 METAR KATL 292152Z 25008KT 10SM SCT042 SCT250 29/19 A2988=
200908292052 METAR KATL 292052Z 27007KT 10SM SCT039 SCT200 29/20 A2988 RMK AO2 SLP109 T02940200 58017 $=
200908291952 METAR KATL 291952Z 25009KT 10SM SCT042 SCT065 BKN200 29/19 A2990 RMK AO2 SLP114 T02940194 $=
200908291852 METAR KATL 291852Z VRB03KT 10SM SCT037 BKN047 29/20 A2992 RMK AO2 SLP122 T02890200 $=
200908291752 METAR KATL 291752Z VRB06KT 10SM BKN032 BKN040 BKN200 28/20 A2993 RMK AO2 SLP127 T02780200 10278 20194 58004 $=
200908291652 METAR KATL 291652Z 30007KT 10SM SCT026 BKN030 BKN150 27/21 A2995 RMK AO2 SLP131 T02670206=
200908291552 METAR KATL 291552Z VRB05KT 10SM BKN021 BKN150 26/21 A2995 RMK AO2 SLP133 T02560206=
200908291521 SPECI KATL 291521Z 30009KT 10SM BKN018 BKN023 BKN150 24/21 A2995 RMK AO2=
200908291521 SPECI KATL 291521Z 30009KT 10SM BKN018 BKN023 BKN150 24/21 A2995 RMK AO2=
200908291452 METAR KATL 291452Z 27006KT 10SM SCT015 BKN150 25/20 A2994 RMK AO2 SLP131 T02500200 53006=
200908291352 METAR KATL 291352Z 30008KT 10SM FEW005 SCT035 SCT150 23/21 A2993 RMK AO2 SLP128 T02280206=
200908291252 METAR KATL 291252Z 26003KT 7SM FEW003 BKN035 BKN120 21/20 A2993 RMK AO2 SLP126 T02060200=
200908291244 SPECI KATL 291244Z 24003KT 6SM BR SCT003 BKN033 BKN120 21/20 A2993 RMK AO2=
200908291244 SPECI KATL 291244Z 24003KT 6SM BR SCT003 BKN033 BKN120 21/20 A2993 RMK AO2=
200908291237 SPECI KATL 291237Z 23003KT 4SM BR SCT003 BKN027 BKN120 20/19 A2993 RMK AO2=
200908291237 SPECI KATL 291237Z 23003KT 4SM BR SCT003 BKN027 BKN120 20/19 A2993 RMK AO2=
200908291229 SPECI KATL 291229Z 23004KT 1/4SM BR SCT003 BKN027 BKN120 20/19 A2993 RMK AO2 SFC VIS 3=
200908291229 SPECI KATL 291229Z 23004KT 1/4SM BR SCT003 BKN027 BKN120 20/19 A2993 RMK AO2 SFC VIS 3=
200908291152 METAR KATL 291152Z 22004KT 1/4SM R09R/2600VP6000FT BR BCFG BKN002 BKN025 19/19 A2993 RMK AO2 SFC VIS 1 SLP126 VIS NE-S 1/4 70056 T01940194 10200 20189 53006=
200908291134 SPECI KATL 291134Z 22004KT 1/4SM R09R/3500VP6000FT BR BKN002 BKN025 19/19 A2992 RMK AO2 SFC VIS 3/4=
200908291134 SPECI KATL 291134Z 22004KT 1/4SM R09R/3500VP6000FT BR BKN002 BKN025 19/19 A2992 RMK AO2 SFC VIS 3/4=
200908291111 SPECI KATL 291111Z 22003KT 1SM BR BKN002 BKN030 19/19 A2992 RMK AO2 SFC VIS 3 VIS NE-E 2=
200908291111 SPECI KATL 291111Z 22003KT 1SM BR BKN002 BKN030 19/19 A2992 RMK AO2 SFC VIS 3 VIS NE-E 2=
200908291107 SPECI KATL 291107Z 21003KT 2 1/2SM R09R/4000VP6000FT BR BKN003 BKN030 19/19 A2992 RMK AO2 TWR VIS 3 VIS NE-E 2=
200908291107 SPECI KATL 291107Z 21003KT 2 1/2SM R09R/4000VP6000FT BR BKN003 BKN030 19/19 A2992 RMK AO2 TWR VIS 3 VIS NE-E 2=
200908291052 METAR KATL 291052Z 00000KT 3SM BKN004 OVC030 19/19 A2992 RMK AO2 SFC VIS 8 SLP123 T01940189=
200908291026 SPECI KATL 291026Z 00000KT 9SM SCT005 BKN035 OVC060 19/19 A2992 RMK AO2=
200908291026 SPECI KATL 291026Z 00000KT 9SM SCT005 BKN035 OVC060 19/19 A2992 RMK AO2=
200908290952 METAR KATL 290952Z 00000KT 8SM SCT004 BKN010 OVC040 19/19 A2991 RMK AO2 SLP121 T01940189=
200908290948 SPECI KATL 290948Z 00000KT 7SM SCT004 BKN010 OVC040 19/19 A2991 RMK AO2=
200908290948 SPECI KATL 290948Z 00000KT 7SM SCT004 BKN010 OVC040 19/19 A2991 RMK AO2=
200908290856 SPECI KATL 290856Z 16005KT 9SM BKN003 BKN035 OVC060 19/19 A2991 RMK AO2=
200908290856 SPECI KATL 290856Z 16005KT 9SM BKN003 BKN035 OVC060 19/19 A2991 RMK AO2=
200908290852 METAR KATL 290852Z 17004KT 10SM FEW005 BKN060 BKN140 19/19 A2991 RMK AO2 SLP120 T01940189 56006=
200908290850 SPECI KATL 290850Z 17004KT 10SM FEW005 BKN060 BKN140 19/19 A2991 RMK AO2=
200908290850 SPECI KATL 290850Z 17004KT 10SM FEW005 BKN060 BKN140 19/19 A2991 RMK AO2=
200908290752 METAR KATL 290752Z 00000KT 10SM FEW010 SCT070 BKN140 20/19 A2991 RMK AO2 SLP121 T02000189 $=
200908290652 METAR KATL 290652Z 00000KT 10SM FEW070 BKN140 20/19 A2992 RMK AO2 SLP124 T02000189=
200908290552 METAR KATL 290552Z 00000KT 10SM FEW040 SCT080 20/19 A2993 RMK AO2 SLP126 T02000189 10222 20200 56006=
200908290452 METAR KATL 290452Z 00000KT 10SM FEW080 20/19 A2993 RMK AO2 SLP129 T02000189 402390200=
200908290352 METAR KATL 290352Z 00000KT 10SM FEW035 SCT080 21/19 A2994 RMK AO2 SLP131 T02060189=
200908290252 METAR KATL 290252Z 00000KT 10SM FEW180 SCT250 21/19 A2995 RMK AO2 SLP134 T02110189 53009=
200908290152 METAR KATL 290152Z 08005KT 10SM FEW150 SCT250 21/18 A2993 RMK AO2 SLP129 T02060183=
200908290052 METAR KATL 290052Z 10003KT 10SM FEW120 SCT150 BKN250 22/19 A2991 RMK AO2 SLP121 T02170194=
200908282352 METAR KATL 282352Z 00000KT 10SM FEW120 SCT150 BKN250 22/19 A2992 RMK AO2 SLP123 T02220194 10239 20217 56010=
200908282252 METAR KATL 282252Z 09003KT 10SM FEW120 SCT150 BKN200 23/19 A2993 RMK AO2 SLP126 T02280189=
200908282152 METAR KATL 282152Z 08004KT 10SM FEW025 SCT120 SCT150 BKN200 23/19 A2993 RMK AO2 SLP127 T02330189=
200908282052 METAR KATL 282052Z 11005KT 10SM FEW025 SCT045 BKN150 BKN200 23/18 A2995 RMK AO2 SLP133 T02330183 58012=
200908281952 METAR KATL 281952Z 13007KT 10SM FEW019 SCT040 BKN150 BKN200 23/19 A2998 RMK AO2 SLP143 T02330189=
200908281916 SPECI KATL 281916Z 13005KT 10SM FEW015 SCT019 BKN150 BKN200 23/19 A2998 RMK AO2=
200908281916 SPECI KATL 281916Z 13005KT 10SM FEW015 SCT019 BKN150 BKN200 23/19 A2998 RMK AO2=
200908281855 SPECI KATL 281855Z 12006KT 10SM BKN015 BKN150 OVC200 23/19 A2999 RMK AO2=
200908281855 SPECI KATL 281855Z 12006KT 10SM BKN015 BKN150 OVC200 23/19 A2999 RMK AO2=
200908281852 METAR KATL 281852Z 12006KT 10SM BKN013 BKN150 OVC200 23/19 A2998 RMK AO2 SLP145 T02280194=
200908281752 METAR KATL 281752Z 17005KT 10SM FEW015 BKN100 BKN150 BKN250 22/19 A2999 RMK AO2 SLP147 60056 T02170194 10222 20200 56010=
200908281748 SPECI KATL 281748Z 15004KT 10SM FEW015 BKN100 BKN150 BKN250 22/19 A2999 RMK AO2=
200908281748 SPECI KATL 281748Z 15004KT 10SM FEW015 BKN100 BKN150 BKN250 22/19 A2999 RMK AO2=
200908281721 SPECI KATL 281721Z 14006KT 10SM BKN010 BKN015 OVC100 22/20 A3000 RMK AO2=
200908281721 SPECI KATL 281721Z 14006KT 10SM BKN010 BKN015 OVC100 22/20 A3000 RMK AO2=
200908281652 METAR KATL 281652Z 12006KT 8SM BKN008 BKN100 BKN250 22/20 A3001 RMK AO2 RAE11 SLP155 P0000 T02170200=
200908281552 METAR KATL 281552Z 10007KT 1/2SM -RA BR BCFG BKN004 BKN020 OVC100 20/20 A3002 RMK AO2 SFC VIS 5 TSB02E22 SLP158 TS MOV N P0009 T02000200=
200908281537 SPECI KATL 281537Z 09012KT 1/2SM -RA BR BCFG BKN004 BKN020 OVC100 20/19 A3003 RMK AO2 SFC VIS 5 TSB02E22 TS MOV N P0008=
200908281537 SPECI KATL 281537Z 09012KT 1/2SM -RA BR BCFG BKN004 BKN020 OVC100 20/19 A3003 RMK AO2 SFC VIS 5 TSB02E22 TS MOV N P0008=
200908281522 SPECI KATL 281522Z 07008KT 3SM -RA BR SCT004 BKN024 OVC100 20/19 A3002 RMK AO2 SFC VIS 5 TSB02E22 TS MOV N P0006=
200908281522 SPECI KATL 281522Z 07008KT 3SM -RA BR SCT004 BKN024 OVC100 20/19 A3002 RMK AO2 SFC VIS 5 TSB02E22 TS MOV N P0006=
200908281502 SPECI KATL 281502Z 10006KT 3SM -TSRA BCFG FEW007 BKN020CB OVC100 20/19 A3002 RMK AO2 SFC VIS 5 TSB02 OCNL LTGICCG OHD TS OHD MOV N P0002=
200908281502 SPECI KATL 281502Z 10006KT 3SM -TSRA BCFG FEW007 BKN020CB OVC100 20/19 A3002 RMK AO2 SFC VIS 5 TSB02 OCNL LTGICCG OHD TS OHD MOV N P0002=
200908281458 SPECI KATL 281458Z 08006KT 3SM -RA BR BCFG FEW007 BKN020 OVC100 20/19 A3002 RMK AO2 SFC VIS 5 P0002=
200908281458 SPECI KATL 281458Z 08006KT 3SM -RA BR BCFG FEW007 BKN020 OVC100 20/19 A3002 RMK AO2 SFC VIS 5 P0002=
200908281452 METAR KATL 281452Z 10007KT 3SM RA BR FEW007 BKN020 OVC100 20/19 A3003 RMK AO2 SFC VIS 5 RAB1357 SLP162 OCNL LTGICCG DSNT NE-E-SE CB DSNT NE-E-SE P0008 60047 T02000194 50001=
200908281441 SPECI KATL 281441Z 13007KT 3SM RA BR FEW007 BKN020 OVC100 20/19 A3004 RMK AO2 SFC VIS 5 RAB1357 P0005=
200908281441 SPECI KATL 281441Z 13007KT 3SM RA BR FEW007 BKN020 OVC100 20/19 A3004 RMK AO2 SFC VIS 5 RAB1357 P0005=
200908281436 SPECI KATL 281436Z 12005KT 6SM RA BR FEW007 BKN021 OVC100 20/19 A3004 RMK AO2 RAB1357 P0003=
200908281436 SPECI KATL 281436Z 12005KT 6SM RA BR FEW007 BKN021 OVC100 20/19 A3004 RMK AO2 RAB1357 P0003=
200908281420 SPECI KATL 281420Z VRB03KT 9SM -RA FEW007 BKN020 OVC095 21/19 A3003 RMK AO2 RAB1357 P0001=
200908281420 SPECI KATL 281420Z VRB03KT 9SM -RA FEW007 BKN020 OVC095 21/19 A3003 RMK AO2 RAB1357 P0001=
200908281413 SPECI KATL 281413Z 15006KT 9SM -RA FEW016 BKN022 OVC095 21/19 A3004 RMK AO2 RAB1357 P0001=
200908281413 SPECI KATL 281413Z 15006KT 9SM -RA FEW016 BKN022 OVC095 21/19 A3004 RMK AO2 RAB1357 P0001=
200908281401 SPECI KATL 281401Z 19006KT 10SM -RA FEW017 SCT039 OVC095 21/19 A3004 RMK AO2 RAB1357 P0000=
200908281401 SPECI KATL 281401Z 19006KT 10SM -RA FEW017 SCT039 OVC095 21/19 A3004 RMK AO2 RAB1357 P0000=
200908281352 METAR KATL 281352Z 17005KT 10SM SCT011 BKN024 OVC080 21/19 A3004 RMK AO2 RAE49 SLP164 P0022 T02060194=
200908281314 SPECI KATL 281314Z 18009KT 1 1/2SM R09R/5000VP6000FT +RA BR SCT011 BKN024 OVC080 21/20 A3006 RMK AO2 SFC VIS 1 3/4 PRESRR P0005=
200908281314 SPECI KATL 281314Z 18009KT 1 1/2SM R09R/5000VP6000FT +RA BR SCT011 BKN024 OVC080 21/20 A3006 RMK AO2 SFC VIS 1 3/4 PRESRR P0005=
200908281309 SPECI KATL 281309Z 16008KT 2 1/2SM RA BR SCT011 BKN024 OVC080 21/19 A3005 RMK AO2 SFC VIS 3 P0002=
200908281309 SPECI KATL 281309Z 16008KT 2 1/2SM RA BR SCT011 BKN024 OVC080 21/19 A3005 RMK AO2 SFC VIS 3 P0002=
200908281252 METAR KATL 281252Z 00000KT 4SM -RA BR BKN033 OVC080 21/19 A3003 RMK AO2 TSE08 SLP161 TS MOV NE P0017 T02060194=
200908281250 SPECI KATL 281250Z 00000KT 4SM -RA BR BKN030 OVC080 21/19 A3003 RMK AO2 TSE08 TS MOV NE P0016=
200908281250 SPECI KATL 281250Z 00000KT 4SM -RA BR BKN030 OVC080 21/19 A3003 RMK AO2 TSE08 TS MOV NE P0016=
200908281209 SPECI KATL 281209Z 11003KT 5SM RA BR FEW003 BKN023 OVC038 21/20 A3004 RMK AO2 TSE08 TS MOV NE P0006=
200908281209 SPECI KATL 281209Z 11003KT 5SM RA BR FEW003 BKN023 OVC038 21/20 A3004 RMK AO2 TSE08 TS MOV NE P0006=
200908281201 SPECI KATL 281201Z 00000KT 4SM TSRA BR FEW003 BKN009 OVC023 21/20 A3004 RMK AO2 P0004=
200908281201 SPECI KATL 281201Z 00000KT 4SM TSRA BR FEW003 BKN009 OVC023 21/20 A3004 RMK AO2 P0004=
200908281154 SPECI KATL 281154Z 18003KT 2 1/2SM +TSRA BR FEW003 BKN010 OVC024 21/21 A3003 RMK AO2 P0002=
200908281154 SPECI KATL 281154Z 18003KT 2 1/2SM +TSRA BR FEW003 BKN010 OVC024 21/21 A3003 RMK AO2 P0002=
200908281152 METAR KATL 281152Z COR 00000KT 2SM +TSRA BR SCT012CB BKN024 OVC032 21/21 A3002 RMK AO2 TSB44 SLP160 FRQ LTGIC NE TS NE MOV N P0041 60101 770143 T02060206 10217 20206 53007=
200908281144 SPECI KATL 281144Z VRB03KT 1 1/4SM R09R/3500VP6000FT +TSRA BR SCT012CB BKN024 OVC032 21/20 A3003 RMK AO2 TSB44 FRQ LTGIC NE TS NE MOV N P0034=
200908281144 SPECI KATL 281144Z VRB03KT 1 1/4SM R09R/3500VP6000FT +TSRA BR SCT012CB BKN024 OVC032 21/20 A3003 RMK AO2 TSB44 FRQ LTGIC NE TS NE MOV N P0034=
200908281139 SPECI KATL 281139Z VRB03KT 1 3/4SM R09R/3500VP6000FT +RA BR SCT012 BKN024 OVC032 21/20 A3003 RMK AO2 P0013=
200908281139 SPECI KATL 281139Z VRB03KT 1 3/4SM R09R/3500VP6000FT +RA BR SCT012 BKN024 OVC032 21/20 A3003 RMK AO2 P0013=
200908281135 SPECI KATL 281135Z 00000KT 3SM RA BR FEW008 BKN024 OVC044 21/20 A3002 RMK AO2 OCNL LTG DSNT N & NE P0012=
200908281135 SPECI KATL 281135Z 00000KT 3SM RA BR FEW008 BKN024 OVC044 21/20 A3002 RMK AO2 OCNL LTG DSNT N & NE P0012=
200908281126 SPECI KATL 281126Z 01003KT 3SM RA BR FEW006 BKN031 OVC090 21/20 A3002 RMK AO2 OCNL LTG DSNT N & NE P0006=
200908281126 SPECI KATL 281126Z 01003KT 3SM RA BR FEW006 BKN031 OVC090 21/20 A3002 RMK AO2 OCNL LTG DSNT N & NE P0006=
200908281052 METAR KATL 281052Z 01005KT 4SM RA BR SCT006 BKN015 OVC023 21/20 A3000 RMK AO2 SLP152 P0056 T02060200=
200908281028 SPECI KATL 281028Z 07006KT 1 1/4SM R09R/5500VP6000FT +RA BR BKN006 BKN013 OVC045 21/21 A3000 RMK AO2 P0027=
200908281028 SPECI KATL 281028Z 07006KT 1 1/4SM R09R/5500VP6000FT +RA BR BKN006 BKN013 OVC045 21/21 A3000 RMK AO2 P0027=
200908281021 SPECI KATL 281021Z VRB03KT 2SM R09R/5500VP6000FT +RA BR BKN006 BKN020 OVC065 21/21 A3002 RMK AO2 CIG 004V009 P0009=
200908281021 SPECI KATL 281021Z VRB03KT 2SM R09R/5500VP6000FT +RA BR BKN006 BKN020 OVC065 21/21 A3002 RMK AO2 CIG 004V009 P0009=
200908280952 METAR KATL 280952Z 00000KT 6SM -RA BR BKN017 BKN045 OVC080 21/21 A3001 RMK AO2 RAB0855 SLP153 P0003 T02110206=
200908280852 METAR KATL 280852Z 05006KT 7SM BKN017 BKN045 OVC080 21/21 A3000 RMK AO2 RAB03E19 SLP151 P0001 60001 T02110206 56016 $=
200908280825 SPECI KATL 280825Z 05006KT 7SM BKN019 BKN029 OVC044 21/21 A3000 RMK AO2 RAB03E19 P0001 $=
200908280825 SPECI KATL 280825Z 05006KT 7SM BKN019 BKN029 OVC044 21/21 A3000 RMK AO2 RAB03E19 P0001 $=
200908280752 METAR KATL 280752Z 05004KT 10SM FEW060 OVC090 22/21 A3001 RMK AO2 RAB12E41 SLP151 P0000 T02170206 $=
200908280652 METAR KATL 280652Z 06005KT 6SM BR SCT005 BKN065 OVC100 21/21 A3002 RMK AO2 RAB0554E03 SLP158 P0000 T02110206 $=
200908280641 SPECI KATL 280641Z 08006KT 6SM BR SCT005 BKN065 OVC100 21/21 A3003 RMK AO2 RAB0554E03 P0000 $=
200908280641 SPECI KATL 280641Z 08006KT 6SM BR SCT005 BKN065 OVC100 21/21 A3003 RMK AO2 RAB0554E03 P0000 $=
200908280552 METAR KATL 280552Z 08005KT 6SM BR FEW030 BKN100 OVC150 21/20 A3005 RMK AO2 RAE10 SLP166 60000 P0000 T02110200 10228 20211 58012 $=
200908280452 METAR KATL 280452Z 11005KT 10SM -RA FEW010 BKN055 BKN080 OVC150 21/20 A3006 RMK AO2 RAE0354B11 SLP172 P0000 P0001 T02110200 402830211 $=
200908280352 METAR KATL 280352Z 11009KT 10SM -RA FEW010 BKN050 BKN080 OVC150 22/20 A3008 RMK AO2 RAB42 SLP175 T02170200 PNO $=
200908280252 METAR KATL 280252Z 12005KT 10SM FEW010 SCT050 BKN100 OVC150 23/21 A3009 RMK AO2 SLP179 60000 T02280206 50008 PNO $=
200908280152 METAR KATL 280152Z 00000KT 10SM FEW010 SCT035 BKN080 OVC150 23/21 A3009 RMK AO2 RAE0059 SLP180 P0000 T02280211 PNO $=
200908280052 METAR KATL 280052Z 20003KT 10SM -RA FEW025 OVC110 22/21 A3008=
200908272352 METAR KATL 272352Z 20003KT 10SM -RA FEW020 SCT120 BKN150 OVC200 23/21 A3006 RMK AO2 RAE12B42 SLP171 P0000 T02280211 10283 20222 53001 PNO $=
200908272252 METAR KATL 272252Z 04004KT 10SM -RA FEW020 BKN100 BKN150 OVC200 24/19 A3006 RMK AO2 TSB03E25RAB2157E17B50 SLP169 TS DSIPTD P0029 T02390194 PNO $=
200908272226 SPECI KATL 272226Z 08005KT 10SM SCT025CB BKN040 BKN070 OVC150 24/19 A3006 RMK AO2 TSB03E25RAB2157E17 TS DSIPTD CB VC N AND NW=
200908272226 SPECI KATL 272226Z 08005KT 10SM SCT025CB BKN040 BKN070 OVC150 24/19 A3006 RMK AO2 TSB03E25RAB2157E17 TS DSIPTD CB VC N AND NW VCSH N AND NW P0029 PNO $=
200908272210 SPECI KATL 272210Z 03012KT 8SM -TSRA SCT025CB BKN040 OVC150 23/20 A3006 RMK AO2 TSB03RAB2157 OCNL LTGIC W-NW TS W-NW MOV NW P0029 PNO $=
200908272210 SPECI KATL 272210Z 03012KT 8SM -TSRA SCT025CB BKN040 OVC150 23/20 A3006 RMK AO2 TSB03RAB2157 OCNL LTGIC W-NW TS W-NW MOV NW P0029 PNO $=
200908272203 SPECI KATL 272203Z 06016G19KT 2SM +TSRA BKN030CB BKN045 OVC150 24/21 A3007 RMK AO2 TSB03RAB2157 OCNL LTGIC SE-OHD-NW TS SE-OHD-NW MOV NW VIS N-E 1 PNO $=
200908272203 SPECI KATL 272203Z 06016G19KT 2SM +TSRA BKN030CB BKN045 OVC150 24/21 A3007 RMK AO2 TSB03RAB2157 OCNL LTGIC SE-OHD-NW TS SE-OHD-NW MOV NW VIS N-E 1 PNO $=
200908272152 METAR KATL 272152Z 06006KT 10SM SCT030CB BKN045 BKN150 OVC200 25/21 A3006 RMK AO2 RAB16E36 SLP168 CB NE-E AND DSNT SW-NW MOV NW SHRA NE-E P0000 T02500211 PNO $=
200908272147 SPECI KATL 272147Z 07005KT 10SM BKN030 25/21 A3006 RMK AO2 RAB16E36 PNO $=
200908272147 SPECI KATL 272147Z 07005KT 10SM BKN030 25/21 A3006 RMK AO2 RAB16E36 PNO $=
200908272052 METAR KATL 272052Z 02009KT 10SM FEW030 BKN110 OVC150 24/21 A3006 RMK AO2 RAE04 SLP169 FRQ LTG DSNT NE CB DSNT NE & S & W SHRA DSNT NE & S & W P0000 60011 T02440211 56012 PNO $=
200908272008 SPECI KATL 272008Z 30007KT 10SM SCT028CB BKN035 OVC060 23/21 A3006 RMK AO2 RAE04 CB W-NW & DSNT NE MOV NW SHRA W-NW & DSNT NE P0000 PNO $=
200908272008 SPECI KATL 272008Z 30007KT 10SM SCT028CB BKN035 OVC060 23/21 A3006 RMK AO2 RAE04 CB W-NW & DSNT NE MOV NW SHRA W-NW & DSNT NE P0000 PNO $=
200908271952 METAR KATL 271952Z 03008KT 9SM R09R/4500VP6000FT -RA SCT028CB BKN035 OVC060 24/21 A3006 RMK AO2 TSB24E47RAB29 SLP171 VIS LWR S & W-NW SHRA TS MOV NW CB S & W-NW MOV NW P0011 T02440206=
200908271944 SPECI KATL 271944Z 05004KT 9SM -TSRA SCT025CB BKN035 OVC060 24/21 A3006 RMK AO2 TSB24RAB29 OCNL LTGIC NW TS NW MOV NW P0004=
200908271944 SPECI KATL 271944Z 05004KT 9SM -TSRA SCT025CB BKN035 OVC060 24/21 A3006 RMK AO2 TSB24RAB29 OCNL LTGIC NW TS NW MOV NW P0004=
200908271936 SPECI KATL 271936Z 03015G20KT 3SM R09R/5500VP6000FT TSRA BKN025CB OVC040 24/22 A3007 RMK AO2 TSB24RAB29 OCNL LTGIC OHD TS OHD MOV NW P0004=
200908271936 SPECI KATL 271936Z 03015G20KT 3SM R09R/5500VP6000FT TSRA BKN025CB OVC040 24/22 A3007 RMK AO2 TSB24RAB29 OCNL LTGIC OHD TS OHD MOV NW P0004=
200908271933 SPECI KATL 271933Z 03012KT 1SM R09R/5500VP6000FT +TSRA BKN030CB BKN150 OVC200 26/21 A3007 RMK AO2 TSB24RAB29 OCNL LTGIC OHD TS OHD MOV NW P0000=
200908271933 SPECI KATL 271933Z 03012KT 1SM R09R/5500VP6000FT +TSRA BKN030CB BKN150 OVC200 26/21 A3007 RMK AO2 TSB24RAB29 OCNL LTGIC OHD TS OHD MOV NW P0000=
200908271929 SPECI KATL 271929Z 02010G14KT 8SM -TSRA BKN030CB BKN150 OVC200 27/21 A3008 RMK AO2 TSB24RAB29 OCNL LTGIC SE & NW TS SE & NW MOV NW CB DSNT W P0000=
200908271929 SPECI KATL 271929Z 02010G14KT 8SM -TSRA BKN030CB BKN150 OVC200 27/21 A3008 RMK AO2 TSB24RAB29 OCNL LTGIC SE & NW TS SE & NW MOV NW CB DSNT W P0000=
200908271924 SPECI KATL 271924Z 01009G14KT 10SM TS BKN030CB BKN150 OVC200 27/21 A3007 RMK AO2 TSB24 OCNL LTGIC NW TS NW MOV NW SHRA NW=
200908271924 SPECI KATL 271924Z 01009G14KT 10SM TS BKN030CB BKN150 OVC200 27/21 A3007 RMK AO2 TSB24 OCNL LTGIC NW TS NW MOV NW SHRA NW=
200908271919 SPECI KATL 271919Z VRB04KT 10SM BKN030CB BKN150 OVC200 28/22 A3007 RMK AO2 CB OHD-NW-N-NE MOV NW SHRA NW-N-NE=
200908271919 SPECI KATL 271919Z VRB04KT 10SM BKN030CB BKN150 OVC200 28/22 A3007 RMK AO2 CB OHD-NW-N-NE MOV NW SHRA NW-N-NE=
200908271852 METAR KATL 271852Z VRB06KT 10SM FEW025CB SCT040TCU BKN150 BKN200 28/22 A3007 RMK AO2 RAB32E43 SLP174 CB N-NE MOV NW TCU NW SHRA N-NE P0000 T02780217=
200908271832 SPECI KATL 271832Z 15004KT 10SM -RA FEW025CB SCT040 BKN150 BKN200 28/22 A3008 RMK AO2 RAB32 CB N & E MOV NW SHRA N & E P0000=
200908271832 SPECI KATL 271832Z 15004KT 10SM -RA FEW025CB SCT040 BKN150 BKN200 28/22 A3008 RMK AO2 RAB32 CB N & E MOV NW SHRA N & E P0000=
200908271752 METAR KATL 271752Z 21004KT 10SM FEW030TCU SCT040 BKN050 OVC150 27/21 A3009 RMK AO2 SLP181 TCU NE CB DSNT N-NE SHRA DSNT N-NE T02670211 10278 20228 58008=
200908271652 METAR KATL 271652Z 09003KT 10SM FEW027 SCT040 BKN150 OVC200 27/21 A3011 RMK AO2 SLP185 TCU DSNT NE BINOVC DSNT NE T02720206=
200908271552 METAR KATL 271552Z 27004KT 10SM FEW020 SCT060 BKN150 BKN200 26/21 A3011 RMK AO2 SLP188 T02610206=
200908271452 METAR KATL 271452Z 28003KT 10SM FEW040 BKN060 BKN080 OVC150 25/22 A3012 RMK AO2 SLP189 T02500217 53005=
200908271352 METAR KATL 271352Z 00000KT 10SM FEW100 BKN150 OVC200 24/21 A3011 RMK AO2 SLP188 ACC DSNT NW T02390211=
200908271252 METAR KATL 271252Z 08004KT 10SM FEW030 BKN150 BKN250 23/20 A3010 RMK AO2 SLP184 T02330200=
200908271152 METAR KATL 271152Z 00000KT 10SM FEW120 BKN180 BKN250 23/20 A3010 RMK AO2 SLP183 ACC DSNT W 70107 T02280200 10228 20211 53006=
200908271052 METAR KATL 271052Z 00000KT 10SM FEW150 SCT200 BKN250 22/20 A3008 RMK AO2 SLP175 T02220200=
200908270952 METAR KATL 270952Z 09003KT 10SM BKN200 OVC250 22/19 A3008 RMK AO2 SLP174 T02220194=
200908270852 METAR KATL 270852Z 09003KT 10SM BKN200 BKN250 22/20 A3008 RMK AO2 SLP175 T02220200 58006=
200908270752 METAR KATL 270752Z 00000KT 10SM SCT200 BKN250 21/20 A3009 RMK AO2 SLP180 T02110200=
200908270652 METAR KATL 270652Z 00000KT 10SM SCT200 BKN250 21/19 A3009 RMK AO2 SLP179 T02110194=
200908270552 METAR KATL 270552Z 20003KT 10SM FEW150 SCT200 BKN250 22/20 A3010 RMK AO2 SLP183 60107 T02170200 10272 20200 56013=
200908270452 METAR KATL 270452Z 00000KT 10SM FEW150 BKN200 OVC250 22/19 A3010 RMK AO2 SLP184 T02220194 403220200=
200908270352 METAR KATL 270352Z 00000KT 10SM FEW080 SCT120 BKN150 OVC200 22/19 A3011 RMK AO2 TSE37RAE37 SLP185 OCNL LTG DSNT NE TS DSIPTD P0000 T02220189=
200908270337 SPECI KATL 270337Z 01005KT 10SM FEW040 SCT080 BKN110 OVC150 23/19 A3010 RMK AO2 TSE37RAE37 FRQ LTG DSNT NE TS DSIPTD P0000=
200908270337 SPECI KATL 270337Z 01005KT 10SM FEW040 SCT080 BKN110 OVC150 23/19 A3010 RMK AO2 TSE37RAE37 FRQ LTG DSNT NE TS DSIPTD P0000=
200908270252 METAR KATL 270252Z 24014G21KT 10SM -TSRA FEW040CB SCT055 OVC110 21/18 A3014 RMK AO2 PK WND 18026/0153 SLP198 FRQ LTGICCGCA NW-NE AND SW-NW TS NW-NE AND SW-NW MOV NW P0083 60107 T02110183 51027=
200908270208 SPECI KATL 270208Z 23009G21KT 3SM +TSRA BR FEW010 OVC040CB 21/20 A3014 RMK AO2 PK WND 18026/0153 CONS LTGICCGCA N-OHD-SW TS N-OHD-SW MOV NW P0061=
200908270208 SPECI KATL 270208Z 23009G21KT 3SM +TSRA BR FEW010 OVC040CB 21/20 A3014 RMK AO2 PK WND 18026/0153 CONS LTGICCGCA N-OHD-SW TS N-OHD-SW MOV NW P0061=
200908270156 SPECI KATL 270156Z 19018G32KT 1 1/4SM R09R/2800VP6000FT +TSRA BR FEW010 OVC040CB 21/20 A3013 RMK AO2 PK WND 18026/0153 CONS LTGICCGCA SW-OHD TS SW-OHD MOV NW P0011=
200908270156 SPECI KATL 270156Z 19018G32KT 1 1/4SM R09R/2800VP6000FT +TSRA BR FEW010 OVC040CB 21/20 A3013 RMK AO2 PK WND 18026/0153 CONS LTGICCGCA SW-OHD TS SW-OHD MOV NW P0011=
200908270152 METAR KATL 270152Z 19023G32KT 4SM R09R/3500VP6000FT +TSRA BR BKN045CB OVC080 21/20 A3013 RMK AO2 PK WND 18032/0150 WSHFT 0123 TSB07RAB30 PRESRR SLP195 CONS LTGICCGCA E-OHD-W TS E-OHD-W MOV NW VIS SE-SW 2 P0024 T02=
200908270141 SPECI KATL 270141Z 18018G24KT 8SM -TSRA BKN045CB BKN080 OVC110 22/20 A3011 RMK AO2 PK WND 19028/0131 WSHFT 0123 TSB07RAB30 CONS LTGICCGCA E-OHD-SW TS E-OHD-SW MOV NW VIS LWR SE-SW P0002=
200908270141 SPECI KATL 270141Z 18018G24KT 8SM -TSRA BKN045CB BKN080 OVC110 22/20 A3011 RMK AO2 PK WND 19028/0131 WSHFT 0123 TSB07RAB30 CONS LTGICCGCA E-OHD-SW TS E-OHD-SW MOV NW VIS LWR SE-SW P0002=
200908270107 SPECI KATL 270107Z 02005KT 10SM TS SCT050CB BKN070 BKN150 BKN200 27/19 A3009 RMK AO2 TSB07 CONS LTGICCGCA VC SE-S AND DSNT SW TS VC=
200908270107 SPECI KATL 270107Z 02005KT 10SM TS SCT050CB BKN070 BKN150 BKN200 27/19 A3009 RMK AO2 TSB07 CONS LTGICCGCA VC SE-S AND DSNT SW TS VC SE-S AND DSNT SW MOV NW=
200908270052 METAR KATL 270052Z 01008KT 10SM FEW045 SCT070 BKN150 BKN200 27/19 A3008 RMK AO2 SLP175 CONS LTG DSNT SW T02720194=
200908262352 METAR KATL 262352Z 33008KT 10SM FEW045 SCT120 BKN200 27/20 A3006 RMK AO2 WSHFT 2310 TSE26 SLP169 FRQ LTG DSNT NW-N TS MOV NW CB DSNT SW AND NW-N T02720200 10322 20267 56001=
200908262326 SPECI KATL 262326Z 32009KT 10SM FEW045 SCT070 BKN200 27/21 A3006 RMK AO2 WSHFT 2310 TSE26 OCNL LTG DSNT NW TS MOV NW CB DSNT S-SW AND NW=
200908262326 SPECI KATL 262326Z 32009KT 10SM FEW045 SCT070 BKN200 27/21 A3006 RMK AO2 WSHFT 2310 TSE26 OCNL LTG DSNT NW TS MOV NW CB DSNT S-SW AND NW=
200908262252 METAR KATL 262252Z 11004KT 10SM TS FEW045CB SCT070 BKN200 30/19 A3006 RMK AO2 TSB24 SLP168 FRQ LTGICCG VC NW TS NW MOV NW CB VC SW AND NW MOV NW T03000194=
200908262225 SPECI KATL 262225Z 12007KT 10SM TS FEW045CB SCT070 BKN200 30/19 A3006 RMK AO2 TSB24 OCNL LTGICCG VC SW AND NW TS VC SW AND NW MOV N=
200908262225 SPECI KATL 262225Z 12007KT 10SM TS FEW045CB SCT070 BKN200 30/19 A3006 RMK AO2 TSB24 OCNL LTGICCG VC SW AND NW TS VC SW AND NW MOV N=
200908262152 METAR KATL 262152Z 12007KT 10SM FEW050TCU SCT070 SCT250 31/19 A3006 RMK AO2 SLP168 TCU SW-W AND DSNT NW-N T03060189=
200908262052 METAR KATL 262052Z 11006KT 10SM FEW055TCU SCT250 SCT300 31/19 A3006 RMK AO2 SLP169 TCU N & E & S & W T03110189 56020=
200908261952 METAR KATL 261952Z 15004KT 10SM SCT050TCU SCT250 31/20 A3008 RMK AO2 SLP174 TCU NW-N T03110200=
200908261852 METAR KATL 261852Z 14008KT 10SM FEW040TCU SCT050 SCT250 31/20 A3011 RMK AO2 SLP183 TCU W-NW-N T03060200=
200908261752 METAR KATL 261752Z 11008KT 10SM BKN035 BKN250 29/21 A3012 RMK AO2 SLP190 T02940211 10306 20222 58014=
200908261652 METAR KATL 261652Z 13009KT 10SM SCT030 SCT250 29/21 A3014 RMK AO2 SLP197 T02890211=
200908261552 METAR KATL 261552Z 12007KT 10SM FEW020 SCT075 SCT250 27/21 A3016 RMK AO2 SLP202 T02720211=
200908261452 METAR KATL 261452Z 09005KT 10SM FEW013 SCT250 25/22 A3017 RMK AO2 SLP205 T02500217 50008=
200908261448 SPECI KATL 261448Z 11007KT 10SM FEW013 SCT250 25/21 A3016 RMK AO2=
200908261448 SPECI KATL 261448Z 11007KT 10SM FEW013 SCT250 25/21 A3016 RMK AO2=
200908261352 METAR KATL 261352Z 11005KT 10SM BKN011 BKN070 BKN250 24/21 A3017 RMK AO2 SLP206 T02390206=
200908261252 METAR KATL 261252Z 09007KT 10SM SCT015 BKN070 OVC090 23/19 A3017 RMK AO2 SLP205 T02280194=
200908261152 METAR KATL 261152Z 09004KT 10SM SCT080 BKN250 22/19 A3014 RMK AO2 SLP197 T02220189 10239 20211 53012=
200908261052 METAR KATL 261052Z 08006KT 10SM SCT080 BKN250 22/19 A3013 RMK AO2 SLP192 T02170189=
200908260952 METAR KATL 260952Z 13003KT 10SM FEW070 SCT085 23/18 A3012 RMK AO2 SLP187 T02280183=
200908260852 METAR KATL 260852Z 09003KT 10SM BKN060 BKN080 23/18 A3011 RMK AO2 SLP184 T02330183 53002=
200908260752 METAR KATL 260752Z 11004KT 10SM BKN060 BKN075 23/18 A3010 RMK AO2 SLP182 T02330183=
200908260652 METAR KATL 260652Z 13003KT 10SM BKN070 23/18 A3010 RMK AO2 SLP181 T02330178=
200908260552 METAR KATL 260552Z 12003KT 10SM FEW060 24/17 A3010 RMK AO2 SLP182 T02390172 10283 20239 51001=
200908260452 METAR KATL 260452Z 12003KT 10SM FEW060 25/17 A3010 RMK AO2 SLP182 T02500172 403060200=
200908260352 METAR KATL 260352Z 14003KT 10SM FEW060 25/17 A3010 RMK AO2 SLP183 T02500172=
200908260252 METAR KATL 260252Z 00000KT 10SM FEW100 26/17 A3010 RMK AO2 SLP181 T02610167 53013=
200908260152 METAR KATL 260152Z 00000KT 10SM FEW100 27/17 A3009 RMK AO2 SLP179 T02670167=
200908260052 METAR KATL 260052Z 12005KT 10SM FEW080 SCT100 28/16 A3007 RMK AO2 SLP172 T02780161=
200908252352 METAR KATL 252352Z 11006KT 10SM BKN100 28/16 A3006 RMK AO2 SLP170 T02830156 10306 20283 56003=
200908252252 METAR KATL 252252Z 10007KT 10SM FEW060 BKN100 BKN250 29/15 A3006 RMK AO2 SLP169 T02940150=
200908252152 METAR KATL 252152Z 10007KT 10SM FEW060 SCT090 30/16 A3006 RMK AO2 SLP170 T03000156=
200908252052 METAR KATL 252052Z 11009KT 10SM FEW060 SCT090 29/15 A3007 RMK AO2 SLP173 T02940150 58015=
200908251952 METAR KATL 251952Z 11011G15KT 10SM FEW060 SCT090 31/16 A3009 RMK AO2 SLP177 T03060161=
200908251852 METAR KATL 251852Z 13004KT 10SM SCT060 28/15 A3010 RMK AO2 SLP183 T02830150=
200908251752 METAR KATL 251752Z 12004KT 10SM SCT055 29/16 A3012 RMK AO2 SLP188 T02890156 10300 20206 58009=
200908251652 METAR KATL 251652Z VRB03KT 10SM SCT050 28/15 A3013 RMK AO2 SLP193 T02830150=
200908251552 METAR KATL 251552Z 07007KT 10SM FEW040 27/17 A3014 RMK AO2 SLP196 T02720172=
200908251452 METAR KATL 251452Z 10008KT 10SM FEW075 27/17 A3014 RMK AO2 SLP197 T02670167 53012=
200908251352 METAR KATL 251352Z 09006KT 10SM FEW055 SCT075 24/17 A3013 RMK AO2 SLP192 T02390167=
200908251252 METAR KATL 251252Z 08007KT 8SM FEW055 SCT075 SCT200 23/17 A3012 RMK AO2 SLP189 T02280172=
200908251152 METAR KATL 251152Z 09007KT 8SM FEW075 SCT140 21/17 A3011 RMK AO2 SLP186 T02060172 10233 20200 53006=
200908251052 METAR KATL 251052Z 07006KT 7SM SCT080 21/17 A3009 RMK AO2 SLP181 T02060167=
200908250952 METAR KATL 250952Z 06003KT 10SM CLR 22/17 A3009 RMK AO2 SLP179 T02170167 $=
200908250852 METAR KATL 250852Z 05003KT 10SM CLR 21/17 A3009 RMK AO2 SLP178 T02110172 53004=
200908250752 METAR KATL 250752Z 00000KT 10SM CLR 22/17 A3008 RMK AO2 SLP175 T02170172=
200908250652 METAR KATL 250652Z 00000KT 10SM FEW070 22/17 A3007 RMK AO2 SLP173 T02220167=
200908250552 METAR KATL 250552Z 00000KT 10SM FEW070 22/17 A3007 RMK AO2 SLP174 T02220167 10278 20222 51003=
200908250452 METAR KATL 250452Z 00000KT 10SM FEW070 23/17 A3007 RMK AO2 SLP174 T02330167 403000172=
200908250352 METAR KATL 250352Z 00000KT 10SM FEW070 24/16 A3007 RMK AO2 SLP173 T02440161=
200908250252 METAR KATL 250252Z 16003KT 10SM FEW070 24/17 A3007 RMK AO2 SLP172 T02440167 51013=
200908250152 METAR KATL 250152Z 12003KT 10SM FEW055 26/16 A3005 RMK AO2 SLP167 T02560156=
200908250052 METAR KATL 250052Z 12003KT 10SM FEW055 27/15 A3004 RMK AO2 SLP164 T02670150=
200908242352 METAR KATL 242352Z 12004KT 10SM FEW055 SCT075 28/15 A3003 RMK AO2 SLP160 T02780150 10300 20272 57000=
200908242252 METAR KATL 242252Z 13003KT 10SM FEW055 28/16 A3003 RMK AO2 SLP160 T02830156=
200908242152 METAR KATL 242152Z 10004KT 10SM FEW060 29/16 A3003 RMK AO2 SLP159 T02890161=
200908242052 METAR KATL 242052Z 06007KT 10SM FEW055 29/16 A3003 RMK AO2 SLP160 T02940161 58009=
200908241952 METAR KATL 241952Z 10007KT 10SM SCT055 29/16 A3004 RMK AO2 SLP163 T02890161=
200908241852 METAR KATL 241852Z 12005KT 10SM FEW055 29/16 A3005 RMK AO2 SLP167 T02890156=
200908241752 METAR KATL 241752Z VRB05KT 10SM SCT050 28/16 A3006 RMK AO2 SLP169 T02780161 10283 20178 58007=
200908241652 METAR KATL 241652Z 00000KT 10SM SCT040 27/17 A3006 RMK AO2 SLP171 T02670172=
200908241552 METAR KATL 241552Z 00000KT 10SM FEW035 26/18 A3007 RMK AO2 SLP175 T02610178=
200908241452 METAR KATL 241452Z 11003KT 10SM FEW025 SCT070 24/18 A3008 RMK AO2 SLP177 T02440178 51016=
200908241352 METAR KATL 241352Z 10003KT 9SM CLR 23/18 A3006 RMK AO2 SLP171 T02280183=
200908241252 METAR KATL 241252Z VRB03KT 7SM CLR 21/17 A3005 RMK AO2 SLP168 T02060172=
200908241152 METAR KATL 241152Z 33004KT 7SM CLR 18/16 A3003 RMK AO2 SLP162 T01780161 10194 20172 53012=
200908241052 METAR KATL 241052Z 32005KT 9SM FEW075 17/16 A3001 RMK AO2 SLP154 T01720161=
200908240952 METAR KATL 240952Z 31004KT 10SM CLR 17/16 A3000 RMK AO2 SLP150 T01720156=
200908240852 METAR KATL 240852Z 32005KT 10SM CLR 18/16 A2999 RMK AO2 SLP149 T01780161 53001=
200908240752 METAR KATL 240752Z 32004KT 10SM CLR 18/16 A2999 RMK AO2 SLP148 T01780161=
200908240652 METAR KATL 240652Z 32005KT 10SM CLR 18/17 A2999 RMK AO2 SLP146 T01830167=
200908240552 METAR KATL 240552Z 32006KT 10SM CLR 19/17 A2999 RMK AO2 SLP147 T01940167 10239 20194 51004=
200908240452 METAR KATL 240452Z 32005KT 10SM CLR 20/17 A2999 RMK AO2 SLP147 T02000167 402720161=
200908240352 METAR KATL 240352Z 32006KT 10SM CLR 21/17 A2998 RMK AO2 SLP146 T02060167=
200908240252 METAR KATL 240252Z 32007KT 10SM FEW070 21/17 A2998 RMK AO2 SLP144 T02110167 51009=
200908240152 METAR KATL 240152Z 31008KT 10SM FEW065 22/17 A2997 RMK AO2 SLP142 T02220167=
200908240052 METAR KATL 240052Z 33008KT 10SM FEW080 23/16 A2996 RMK AO2 SLP140 T02280161=
200908232352 METAR KATL 232352Z 31007KT 10SM FEW080 24/16 A2995=
200908232252 METAR KATL 232252Z 32009KT 10SM FEW046 SCT080 25/16 A2994 RMK AO2 SLP133 T02500156=
200908232152 METAR KATL 232152Z 32012KT 10SM SCT046 BKN065 27/17 A2994 RMK AO2 SLP129 T02670167=
200908232052 METAR KATL 232052Z 30008KT 10SM SCT050 SCT065 27/16 A2993 RMK AO2 SLP128 T02670161 56009=
200908231952 METAR KATL 231952Z 28007KT 10SM SCT044 26/16 A2994 RMK AO2 SLP129 T02610156=
200908231852 METAR KATL 231852Z 34007KT 300V030 10SM SCT037 26/16 A2995 RMK AO2 SLP133 T02610161=
200908231752 METAR KATL 231752Z 35010KT 10SM SCT030 24/17 A2996 RMK AO2 SLP137 T02440167 10250 20167 50001=
200908231652 METAR KATL 231652Z 31010KT 10SM SCT025 24/17 A2997 RMK AO2 SLP140 T02390172=
200908231552 METAR KATL 231552Z 27009KT 10SM FEW020 23/17 A2996 RMK AO2 SLP138 T02280167=
200908231452 METAR KATL 231452Z 29007KT 10SM FEW020 21/16 A2996 RMK AO2 SLP137 T02110161 51013=
200908231352 METAR KATL 231352Z 29009KT 10SM FEW015 19/16 A2995 RMK AO2 SLP134 T01940156=
200908231252 METAR KATL 231252Z 30010KT 10SM FEW015 18/15 A2993 RMK AO2 SLP129 T01830150=
200908231152 METAR KATL 231152Z 31009KT 10SM CLR 17/14 A2992 RMK AO2 SLP124 T01670144 10194 20161 51008=
200908231052 METAR KATL 231052Z 31008KT 10SM CLR 17/14 A2991 RMK AO2 SLP120 T01670144=
200908230952 METAR KATL 230952Z 31009KT 10SM CLR 17/14 A2991 RMK AO2 SLP118 T01720144=
200908230852 METAR KATL 230852Z 31007KT 10SM CLR 17/14 A2989 RMK AO2 SLP114 T01720144 56006=
200908230752 METAR KATL 230752Z 32010KT 10SM CLR 18/14 A2990 RMK AO2 SLP116 T01830144=
200908230652 METAR KATL 230652Z 31008KT 10SM CLR 19/15 A2990 RMK AO2 SLP116 T01890150=
200908230552 METAR KATL 230552Z 31009KT 10SM CLR 19/15 A2991=
200908230452 METAR KATL 230452Z 32008KT 10SM CLR 21/16 A2992 RMK AO2 SLP121 T02060156 402940200=
200908230352 METAR KATL 230352Z 33009KT 10SM CLR 22/16 A2992 RMK AO2 SLP123 T02170156=
200908230252 METAR KATL 230252Z 32009KT 10SM FEW100 22/16 A2991 RMK AO2 SLP120 T02170156 51011=
200908230152 METAR KATL 230152Z 31009KT 10SM FEW100 23/15 A2991 RMK AO2 SLP118 T02280150=
200908230052 METAR KATL 230052Z 30011KT 10SM FEW050 24/15 A2989 RMK AO2 SLP113 T02440150=
200908222352 METAR KATL 222352Z 29008KT 10SM FEW050 26/15 A2988 RMK AO2 SLP109 T02560150 10294 20256 53003=
200908222252 METAR KATL 222252Z 30010KT 10SM FEW050 27/14 A2987 RMK AO2 SLP104 T02720144=
200908222152 METAR KATL 222152Z 29012KT 10SM FEW050 28/14 A2987 RMK AO2 SLP104 T02780139=
200908222052 METAR KATL 222052Z 30013KT 10SM FEW050 SCT080 BKN250 28/16 A2987 RMK AO2 SLP105 T02830161 57012=
200908221952 METAR KATL 221952Z 29012G16KT 10SM SCT050 BKN080 BKN250 27/16 A2988 RMK AO2 SLP109 T02720161=
200908221852 METAR KATL 221852Z 29010KT 10SM SCT049 BKN070 BKN250 28/17 A2989 RMK AO2 SLP114 T02780172=
200908221752 METAR KATL 221752Z 31010G16KT 240V010 10SM SCT035 SCT055 BKN250 28/18 A2991 RMK AO2 SLP118 T02830183 10283 20211 58008=
200908221652 METAR KATL 221652Z 33008KT 10SM SCT035 BKN042 BKN050 28/19 A2992 RMK AO2 SLP123 T02780194=
200908221552 METAR KATL 221552Z 30010G16KT 10SM BKN031 BKN250 27/19 A2994 RMK AO2 SLP128 T02670194=
200908221452 METAR KATL 221452Z 00000KT 10SM FEW020 SCT250 26/20 A2993 RMK AO2 SLP128 T02560200 51003=
200908221415 SPECI KATL 221415Z 35004KT 8SM SCT012 BKN065 BKN150 24/21 A2993 RMK AO2=
200908221415 SPECI KATL 221415Z 35004KT 8SM SCT012 BKN065 BKN150 24/21 A2993 RMK AO2=
200908221407 SPECI KATL 221407Z 31005KT 8SM SCT008 BKN015 BKN065 24/21 A2993 RMK AO2=
200908221407 SPECI KATL 221407Z 31005KT 8SM SCT008 BKN015 BKN065 24/21 A2993 RMK AO2=
200908221352 METAR KATL 221352Z 32008KT 8SM BKN008 BKN150 24/21 A2993 RMK AO2 SLP125 T02390211=
200908221316 SPECI KATL 221316Z 31009KT 6SM BR BKN008 BKN018 BKN050 23/21 A2993 RMK AO2=
200908221316 SPECI KATL 221316Z 31009KT 6SM BR BKN008 BKN018 BKN050 23/21 A2993 RMK AO2=
200908221252 METAR KATL 221252Z 31006KT 3SM SCT005 BKN018 BKN050 22/21 A2993 RMK AO2 SFC VIS 7 SLP124 T02220211=
200908221234 SPECI KATL 221234Z 29004KT 3SM SCT004 BKN018 OVC050 22/21 A2992 RMK AO2 SFC VIS 7=
200908221234 SPECI KATL 221234Z 29004KT 3SM SCT004 BKN018 OVC050 22/21 A2992 RMK AO2 SFC VIS 7=
200908221152 METAR KATL 221152Z 28006KT 3SM BKN003 BKN024 21/21 A2992 RMK AO2 SFC VIS 7 SLP123 70079 T02110211 10211 20200 53006=
200908221102 SPECI KATL 221102Z 27005KT 3SM BKN005 BKN024 OVC055 21/20 A2992 RMK AO2 SFC VIS 9=
200908221102 SPECI KATL 221102Z 27005KT 3SM BKN005 BKN024 OVC055 21/20 A2992 RMK AO2 SFC VIS 9=
200908221052 METAR KATL 221052Z 28006KT 10SM FEW005 SCT024 BKN055 21/20 A2991 RMK AO2 SLP118 T02060200=
200908221050 SPECI KATL 221050Z 28005KT 10SM FEW005 SCT024 BKN055 21/20 A2991 RMK AO2=
200908221050 SPECI KATL 221050Z 28005KT 10SM FEW005 SCT024 BKN055 21/20 A2991 RMK AO2=
200908221013 SPECI KATL 221013Z 28004KT 10SM SCT024 OVC055 21/20 A2990 RMK AO2=
200908221013 SPECI KATL 221013Z 28004KT 10SM SCT024 OVC055 21/20 A2990 RMK AO2=
200908220952 METAR KATL 220952Z 29006KT 10SM BKN024 OVC055 21/20 A2991 RMK AO2 SLP118 T02060200=
200908220941 SPECI KATL 220941Z 28004KT 10SM BKN024 OVC055 21/20 A2991 RMK AO2=
200908220941 SPECI KATL 220941Z 28004KT 10SM BKN024 OVC055 21/20 A2991 RMK AO2=
200908220852 METAR KATL 220852Z 21003KT 10SM SCT055 BKN140 21/20 A2991 RMK AO2 SLP117 T02060200 56018=
200908220752 METAR KATL 220752Z 00000KT 10SM BKN060 21/19 A2991 RMK AO2 SLP119 T02060194=
200908220652 METAR KATL 220652Z 00000KT 10SM FEW025 SCT050 BKN150 OVC250 20/19 A2993 RMK AO2 SLP124 T02000194=
200908220552 METAR KATL 220552Z 27004KT 10SM FEW030 SCT080 BKN150 OVC250 20/19 A2996 RMK AO2 RAB11E35 SLP137 P0003 60079 T02000189 10283 20194 58008 $=
200908220452 METAR KATL 220452Z 25005KT 10SM FEW040 BKN080 BKN150 OVC250 20/19 A2997 RMK AO2 TSE24RAE50 SLP140 TS DSIPTD P0014 T02000189 403110194=
200908220425 SPECI KATL 220425Z 30008KT 9SM -RA FEW040 BKN080 OVC110 20/19 A3000 RMK AO2 TSE24 TS DSIPTD P0009=
200908220425 SPECI KATL 220425Z 30008KT 9SM -RA FEW040 BKN080 OVC110 20/19 A3000 RMK AO2 TSE24 TS DSIPTD P0009=
200908220352 METAR KATL 220352Z 28007KT 5SM TSRA BR FEW020 BKN040CB OVC070 19/18 A3000 RMK AO2 SLP150 OCNL LTGICCG S-W-NW TS S-W-NW MOV E P0045 T01940183=
200908220313 SPECI KATL 220313Z 32013KT 5SM TSRA BR FEW008 BKN040CB OVC065 20/19 A3001 RMK AO2 PRESRR OCNL LTGICCG NE-SE AND SW-NW TS NE-SE AND SW-NW MOV E P0023=
200908220313 SPECI KATL 220313Z 32013KT 5SM TSRA BR FEW008 BKN040CB OVC065 20/19 A3001 RMK AO2 PRESRR OCNL LTGICCG NE-SE AND SW-NW TS NE-SE AND SW-NW MOV E P0023=
200908220252 METAR KATL 220252Z 36012G22KT 2SM R09R/5000VP6000FT +TSRA BR FEW008 BKN035CB OVC050 20/19 A2999 RMK AO2 PK WND 33034/0212 WSHFT 0210 TSB05RAB34 SLP146 OCNL LTGICCG OHD-ALQDS TS OHD-ALQDS MOV SE P0017 60017 T020001=
200908220248 SPECI KATL 220248Z 35017G22KT 2SM R09R/4500VP6000FT +TSRA BR FEW008 BKN035CB OVC050 20/19 A2999 RMK AO2 PK WND 33034/0212 WSHFT 0210 TSB05RAB34 OCNL LTGICCG NE-OHD-SW TS NE-OHD-SW MOV SE P0010=
200908220248 SPECI KATL 220248Z 35017G22KT 2SM R09R/4500VP6000FT +TSRA BR FEW008 BKN035CB OVC050 20/19 A2999 RMK AO2 PK WND 33034/0212 WSHFT 0210 TSB05RAB34 OCNL LTGICCG NE-OHD-SW TS NE-OHD-SW MOV SE P0010=
200908220230 SPECI KATL 220230Z 33015G28KT 10SM TS FEW008 BKN035CB BKN080 OVC150 22/17 A2999 RMK AO2 PK WND 33034/0212 WSHFT 0210 TSB05 FRQ LTGICCG NW-NE TS NW-NE MOV SE=
200908220230 SPECI KATL 220230Z 33015G28KT 10SM TS FEW008 BKN035CB BKN080 OVC150 22/17 A2999 RMK AO2 PK WND 33034/0212 WSHFT 0210 TSB05 FRQ LTGICCG NW-NE TS NW-NE MOV SE=
200908220205 SPECI KATL 220205Z 26007KT 10SM TS SCT040CB BKN150 OVC200 27/22 A2996 RMK AO2 TSB05 FRQ LTGICCG VC NW-NE TS VC NW-NE MOV SE=
200908220205 SPECI KATL 220205Z 26007KT 10SM TS SCT040CB BKN150 OVC200 27/22 A2996 RMK AO2 TSB05 FRQ LTGICCG VC NW-NE TS VC NW-NE MOV SE=
200908220152 METAR KATL 220152Z 24004KT 10SM SCT040 BKN150 OVC200 27/22 A2997 RMK AO2 SLP137 FRQ LTGICCG DSNT NW-NE T02720222=
200908220052 SPECI KATL 220052Z 21006KT 10SM FEW150 OVC200 28/22 A2993 RMK AO2 SLP125 FRQ LTG DSNT NW T02780217=
200908212352 METAR KATL 212352Z 22003KT 10SM FEW040 OVC200 28/22 A2991 RMK AO2 SLP118 CB DSNT NW T02830217 10311 20283 56009=
200908212252 METAR KATL 212252Z 26006KT 10SM FEW040 BKN200 BKN250 29/22 A2992 RMK AO2 SLP120 T02890217=
200908212152 METAR KATL 212152Z 29003KT 10SM FEW040TCU SCT060 BKN250 29/21 A2992 RMK AO2 SLP120 TCU OHD-SE AND SW T02940211=
200908212052 METAR KATL 212052Z 28006KT 10SM FEW040CB SCT060 SCT250 31/22 A2994 RMK AO2 SLP126 CB N MOV SE SHRA N T03060217 56024=
200908211952 METAR KATL 211952Z VRB05KT 10SM FEW030 SCT150 SCT250 30/22 A2995 RMK AO2 SLP133 T03000217=
200908211852 METAR KATL 211852Z 31008G16KT 10SM FEW030 BKN040 BKN250 30/22 A2999 RMK AO2 SLP144 T03000222=
200908211752 METAR KATL 211752Z COR 25007G14KT 210V280 10SM FEW030 SCT150 29/21 A3001 RMK AO2 SLP151 CB DSNT SW & NW T02890211 10289 20211 58018=
200908211652 METAR KATL 211652Z 29006KT 10SM BKN027 BKN037 27/21 A3005 RMK AO2 SLP165 T02670211=
200908211552 METAR KATL 211552Z 29007G14KT 260V320 10SM SCT023 28/22 A3006 RMK AO2 SLP170 T02780217=
200908211452 METAR KATL 211452Z 28008KT 10SM FEW012 SCT028 SCT150 BKN250 26/22 A3006 RMK AO2 SLP171 T02560217 50008=
200908211415 SPECI KATL 211415Z 25007KT 10SM FEW012 SCT040 SCT150 24/21 A3006 RMK AO2=
200908211415 SPECI KATL 211415Z 25007KT 10SM FEW012 SCT040 SCT150 24/21 A3006 RMK AO2=
200908211352 METAR KATL 211352Z 00000KT 9SM BKN014 BKN040 BKN150 23/21 A3007 RMK AO2 SLP173 T02280211=
200908211332 SPECI KATL 211332Z VRB03KT 9SM BKN014 OVC040 23/21 A3007 RMK AO2=
200908211332 SPECI KATL 211332Z VRB03KT 9SM BKN014 OVC040 23/21 A3007 RMK AO2=
200908211252 METAR KATL 211252Z 29006KT 10SM FEW010 SCT022 SCT040 BKN150 22/21 A3006 RMK AO2 SLP169 T02220206=
200908211152 METAR KATL 211152Z 28004KT 10SM FEW010 BKN030 BKN110 BKN200 21/20 A3004 RMK AO2 SLP162 70020 T02110200 10217 20206 53011=
200908211052 METAR KATL 211052Z 28004KT 10SM FEW015 SCT120 SCT250 21/20 A3002 RMK AO2 SLP158 T02060200=
200908210952 METAR KATL 210952Z 29005KT 10SM FEW015 SCT120 BKN250 21/20 A3001 RMK AO2 SLP151 T02110200=
200908210852 METAR KATL 210852Z 29006KT 10SM FEW015 SCT120 BKN250 21/20 A3000 RMK AO2 SLP149 T02110200 58010 $=
200908210752 METAR KATL 210752Z 25004KT 10SM FEW015 SCT090 SCT150 BKN250 21/20 A3001 RMK AO2 SLP153 T02110200 $=
200908210652 METAR KATL 210652Z 00000KT 10SM FEW015 SCT100 BKN150 22/21 A3003 RMK AO2 SLP157 T02170206=
200908210552 METAR KATL 210552Z 00000KT 10SM FEW012 SCT025 SCT090 OVC150 22/21 A3003 RMK AO2 RAE12 SLP160 P0000 60020 T02170206 10272 20217 56004=
200908210525 SPECI KATL 210525Z 00000KT 10SM FEW011 SCT023 BKN080 OVC150 22/21 A3004 RMK AO2 RAE12 P0000=
200908210525 SPECI KATL 210525Z 00000KT 10SM FEW011 SCT023 BKN080 OVC150 22/21 A3004 RMK AO2 RAE12 P0000=
200908210501 SPECI KATL 210501Z 22004KT 10SM -RA SCT011 BKN023 BKN080 OVC150 22/21 A3004 RMK AO2 P0000=
200908210501 SPECI KATL 210501Z 22004KT 10SM -RA SCT011 BKN023 BKN080 OVC150 22/21 A3004 RMK AO2 P0000=
200908210452 METAR KATL 210452Z 20004KT 10SM -RA FEW008 BKN080 OVC150 22/21 A3003 RMK AO2 RAB45 SLP160 P0000 T02220206 403110222=
200908210352 METAR KATL 210352Z 00000KT 10SM FEW006 BKN120 OVC150 22/21 A3004 RMK AO2 RAE24 SLP163 P0001 T02220206=
200908210317 SPECI KATL 210317Z 26008KT 10SM -RA FEW008 SCT015 BKN090 OVC150 23/21 A3004 RMK AO2 P0001=
200908210317 SPECI KATL 210317Z 26008KT 10SM -RA FEW008 SCT015 BKN090 OVC150 23/21 A3004 RMK AO2 P0001=
200908210252 METAR KATL 210252Z 25009KT 10SM -RA FEW008 BKN015 BKN030 OVC150 23/22 A3004 RMK AO2 SLP165 P0003 60019 T02330222 50004=
200908210249 SPECI KATL 210249Z 23008G16KT 10SM -RA FEW008 BKN015 BKN030 OVC150 23/22 A3005 RMK AO2 P0003=
200908210249 SPECI KATL 210249Z 23008G16KT 10SM -RA FEW008 BKN015 BKN030 OVC150 23/22 A3005 RMK AO2 P0003=
200908210152 METAR KATL 210152Z 20006KT 6SM RA BR SCT025 BKN040 OVC070 24/23 A3006 RMK AO2 TSB13E51 SLP171 FRQ LTG DSNT NE-E TS MOV NE P0016 T02390228=
200908210114 SPECI KATL 210114Z 25003KT 10SM TS FEW025CB SCT060 BKN110 OVC150 24/22 A3005 RMK AO2 TSB13RAE13 OCNL LTGIC VC SE-S TS VC SE-S MOV NE P0014=
200908210114 SPECI KATL 210114Z 25003KT 10SM TS FEW025CB SCT060 BKN110 OVC150 24/22 A3005 RMK AO2 TSB13RAE13 OCNL LTGIC VC SE-S TS VC SE-S MOV NE P0014=
200908210052 METAR KATL 210052Z 27006KT 8SM -RA FEW035 BKN075 OVC100 27/23 A3005 RMK AO2 RAB43 SLP165 OCNL LTG DSNT S-SW P0000 T02670233=
200908202352 METAR KATL 202352Z 24007KT 10SM SCT090 BKN150 OVC200 27/23 A3003 RMK AO2 SLP160 OCNL LTG DSNT E-SE 60000 T02720228 10311 20272 53015=
200908202252 METAR KATL 202252Z 25007KT 10SM FEW035 SCT150 BKN200 OVC250 28/22 A3001 RMK AO2 SLP151 CB DSNT SE AND NW T02830222=
200908202152 METAR KATL 202152Z 23006KT 10SM FEW035 BKN200 BKN250 29/22 A2999 RMK AO2 SLP145 CB DSNT NW TCU DSNT NE-E AND SE T02890217=
200908202052 METAR KATL 202052Z 25007KT 10SM FEW035 SCT150 BKN200 29/22 A2999 RMK AO2 SLP144 CB DSNT SW-W-NW 60000 T02940217 56021=
200908201952 METAR KATL 201952Z 21008KT 10SM FEW040 SCT150 BKN250 30/21 A3000 RMK AO2 SLP147 CB DSNT N T03000206=
200908201852 METAR KATL 201852Z 19007KT 170V230 10SM FEW030 SCT040 SCT150 BKN250 31/21 A3002 RMK AO2 RAE05 SLP154 CB DSNT N P0000 T03110211=
200908201752 METAR KATL 201752Z VRB04KT 10SM -RA FEW025 BKN050 BKN250 28/22 A3005 RMK AO2 RAB42 SLP166 CB DSNT NE & DSNT W TCU DSNT SE & NW P0000 60000 T02780222 10289 20233 56013=
200908201652 METAR KATL 201652Z 20006KT 10SM FEW022TCU SCT035 BKN150 28/22 A3008 RMK AO2 SLP175 TCU E & SE & S T02780217=
200908201552 METAR KATL 201552Z 23006KT 10SM SCT020 BKN030 BKN150 28/23 A3009 RMK AO2 SLP179 SHRA NW T02780228=
200908201452 METAR KATL 201452Z 22005KT 10SM SCT015 BKN150 BKN250 25/22 A3010 RMK AO2 SLP184 T02500222 51007=
200908201448 SPECI KATL 201448Z 22006KT 10SM SCT015 BKN150 BKN250 26/22 A3010 RMK AO2=
200908201448 SPECI KATL 201448Z 22006KT 10SM SCT015 BKN150 BKN250 26/22 A3010 RMK AO2=
200908201352 METAR KATL 201352Z 22004KT 10SM BKN011 BKN150 OVC250 24/22 A3009 RMK AO2 SLP179 T02440222=
200908201252 METAR KATL 201252Z 23005KT 10SM FEW015 SCT100 BKN150 BKN250 24/22 A3008 RMK AO2 SLP175 T02390217=
200908201152 METAR KATL 201152Z 21006KT 10SM FEW015 SCT150 BKN250 23/22 A3006 RMK AO2 SLP167 70006 T02330217 10244 20228 53012=
200908201052 METAR KATL 201052Z 22004KT 10SM FEW015 SCT150 BKN250 23/22 A3003 RMK AO2 SLP159 T02280217 $=
200908200952 METAR KATL 200952Z 22005KT 10SM SCT200 23/22 A3002 RMK AO2 SLP155 T02280217=
200908200852 METAR KATL 200852Z 19006KT 10SM SCT200 23/22 A3002 RMK AO2 SLP155 T02280217 56007=
200908200752 METAR KATL 200752Z 18004KT 10SM CLR 23/22 A3003 RMK AO2 SLP157 T02330222=
200908200652 METAR KATL 200652Z 17005KT 10SM SCT200 24/22 A3003 RMK AO2 SLP159 T02390222=
200908200552 METAR KATL 200552Z 17005KT 10SM FEW150 24/22 A3004 RMK AO2 SLP163 T02440217 10294 20244 58004=
200908200452 METAR KATL 200452Z 20004KT 10SM SCT150 BKN200 24/22 A3007 RMK AO2 SLP172 T02440217 403220228=
200908200352 METAR KATL 200352Z 20004KT 10SM FEW090 SCT150 26/22 A3006 RMK AO2 SLP168 T02560217=
200908200252 METAR KATL 200252Z 20010KT 10SM FEW090 BKN150 BKN200 26/22 A3006 RMK AO2 SLP166 T02610217 51017=
200908200152 METAR KATL 200152Z 20006KT 10SM SCT120 BKN150 BKN200 27/22 A3005 RMK AO2 SLP166 T02720217=
200908200052 METAR KATL 200052Z 20006KT 10SM FEW040 SCT150 BKN200 BKN250 28/22 A3004 RMK AO2 SLP160 T02830217=
200908192352 METAR KATL 192352Z 21007KT 10SM CLR 29/21 A3000 RMK AO2 SLP149 T02940206 10322 20289 58006=
200908192252 METAR KATL 192252Z 19008KT 10SM FEW045TCU SCT150 BKN200 31/21 A3002 RMK AO2 SLP154 TCU OHD-W AND DSNT NE-SE T03110206=
200908192152 METAR KATL 192152Z 24009KT 10SM FEW045 SCT200 32/21 A3001 RMK AO2 SLP152 CB DSNT E T03170206=
200908192052 METAR KATL 192052Z 19006KT 10SM SCT040TCU SCT200 BKN250 31/22 A3002 RMK AO2 SLP155 TCU NW-N CB DSNT NE-E & DSNT S T03060222 56020=
200908191952 METAR KATL 191952Z 21006KT 10SM SCT039TCU SCT250 31/22 A3003 RMK AO2 SLP159 TCU OHD W-NW CB DSNT NE TCU DSNT NE-E & SE SHRA DSNT NE T03060217=
200908191852 METAR KATL 191852Z 21012G15KT 10SM FEW035CB SCT040TCU BKN070 BKN250 31/22 A3006 RMK AO2 SLP168 CB N MOV NE TCU NE-E-SE & W-NW CB DSNT NE & S SHRA N & DSNT NE & S T03060217=
200908191752 METAR KATL 191752Z 21010KT 10SM SCT026TCU SCT250 30/23 A3008 RMK AO2 RAE27 SLP176 TCU ALQDS CB DSNT N & NE & E SHRA DSNT N & NE & E P0001 60006 T03000228 10300 20233 58013=
200908191652 METAR KATL 191652Z 20007KT 9SM R09R/4500VP6000FT RA BKN020TCU BKN040 BKN070 27/23 A3011 RMK AO2 RAB35 SLP185 TCU OHD & ALQDS P0005 T02670228=
200908191552 METAR KATL 191552Z 23006KT 10SM SCT023TCU BKN150 BKN250 28/23 A3012 RMK AO2 SLP189 TCU E & SE & W & NW T02830228=
200908191452 METAR KATL 191452Z 19005KT 10SM FEW015 BKN150 BKN250 27/23 A3012 RMK AO2 SLP190 T02670228 50005=
200908191352 METAR KATL 191352Z 20007KT 10SM SCT012 BKN150 BKN250 26/23 A3013 RMK AO2 SLP193 T02560228=
200908191252 METAR KATL 191252Z 19007KT 8SM SCT150 BKN250 25/22 A3012 RMK AO2 SLP190 T02500222=
200908191152 METAR KATL 191152Z 17006KT 10SM FEW040 SCT150 BKN250 23/22 A3011 RMK AO2 SLP186 70003 T02330217 10250 20228 53009=
200908191052 METAR KATL 191052Z 19007KT 10SM BKN040 BKN150 BKN250 23/22 A3009 RMK AO2 SLP180 T02280217=
200908190952 METAR KATL 190952Z 16003KT 10SM FEW035 SCT046 23/22 A3008 RMK AO2 SLP177 T02280217=
200908190852 METAR KATL 190852Z 17004KT 10SM FEW047 SCT150 23/22 A3008 RMK AO2 SLP176 T02280217 56010=
200908190752 METAR KATL 190752Z 16004KT 10SM SCT150 24/22 A3009 RMK AO2 SLP180 T02390222=
200908190652 METAR KATL 190652Z 00000KT 10SM FEW150 SCT200 24/22 A3009 RMK AO2 SLP178 T02440222=
200908190552 METAR KATL 190552Z 14003KT 10SM FEW150 SCT200 25/23 A3011 RMK AO2 SLP186 T02500228 10272 20244 58005=
200908190452 METAR KATL 190452Z 00000KT 10SM FEW070 SCT150 BKN200 26/23 A3014 RMK AO2 SLP193 T02610228 403110222=
200908190352 METAR KATL 190352Z 00000KT 10SM BKN150 BKN200 26/23 A3013 RMK AO2 SLP190 T02560228=
200908190252 METAR KATL 190252Z 15003KT 10SM BKN150 BKN200 26/23 A3013 RMK AO2 SLP192 T02610228 50007=
200908190152 METAR KATL 190152Z 00000KT 10SM FEW025 SCT150 BKN200 26/23 A3013 RMK AO2 SLP194 T02610228=
200908190052 METAR KATL 190052Z 00000KT 10SM FEW150 SCT200 BKN250 27/22 A3012 RMK AO2 SLP188 T02670217=
200908182352 METAR KATL 182352Z 29003KT 10SM FEW025 SCT150 BKN200 BKN250 27/22 A3011 RMK AO2 SLP185 TCU DSNT SE 60003 T02670217 10311 20250 55002=
200908182252 METAR KATL 182252Z 25003KT 10SM FEW025 BKN200 BKN250 28/22 A3010 RMK AO2 SLP184 TCU DSNT SE AND SW T02830217=
200908182152 METAR KATL 182152Z VRB03KT 10SM FEW120 BKN200 BKN250 28/23 A3010 RMK AO2 SLP184 T02830228=
200908182052 METAR KATL 182052Z 01004KT 10SM FEW015CB SCT025 BKN100 BKN250 27/22 A3011 RMK AO2 WSHFT 1939 TSE23RAB19E40 SLP187 VIRGA NW CB E MOV NE SHRA E P0003 60003 T02720222 57018=
200908182024 SPECI KATL 182024Z 21003KT 9SM -RA FEW017CB BKN029 BKN100 BKN250 25/22 A3013 RMK AO2 WSHFT 1939 TSE23RAB19 CB N-NE-E-SE TS MOV NE SHRA N-NE-E-SE P0002=
200908182024 SPECI KATL 182024Z 21003KT 9SM -RA FEW017CB BKN029 BKN100 BKN250 25/22 A3013 RMK AO2 WSHFT 1939 TSE23RAB19 CB N-NE-E-SE TS MOV NE SHRA N-NE-E-SE P0002=
200908182008 SPECI KATL 182008Z 30006KT 10SM TS FEW020CB SCT040TCU BKN100 25/22 A3014 RMK AO2 WSHFT 1939 OCNL LTGICCG N TS N MOV NE SHRA DSNT S & N CB DSNT S=
200908182008 SPECI KATL 182008Z 30006KT 10SM TS FEW020CB SCT040TCU BKN100 25/22 A3014 RMK AO2 WSHFT 1939 OCNL LTGICCG N TS N MOV NE SHRA DSNT S & N CB DSNT S=
200908181956 SPECI KATL 181956Z 31014KT 10SM TS SCT020CB BKN030 BKN040 BKN250 25/22 A3013 RMK AO2 WSHFT 1939 OCNL LTGICCG W-NW-N TS W-NW-N MOV NE SHRA DSNT S & W-NW-N CB DSNT S=
200908181956 SPECI KATL 181956Z 31014KT 10SM TS SCT020CB BKN030 BKN040 BKN250 25/22 A3013 RMK AO2 WSHFT 1939 OCNL LTGICCG W-NW-N TS W-NW-N MOV NE SHRA DSNT S & W-NW-N CB DSNT S=
200908181952 METAR KATL 181952Z 28012G18KT 10SM TS FEW020CB SCT040 BKN055 BKN250 25/22 A3013 RMK AO2 TSB36 SLP196 OCNL LTGICCG W-NW-N TS W-NW-N MOV NE SHRA DSNT S & W-NW-N CB DSNT S T02500217=
200908181936 SPECI KATL 181936Z VRB05KT 10SM TS FEW030CB BKN050 BKN250 29/20 A3013 RMK AO2 TSB36 OCNL LTGICCG SW-W-NW TS SW-W-NW MOV NE SHRA SW-W-NW=
200908181936 SPECI KATL 181936Z VRB05KT 10SM TS FEW030CB BKN050 BKN250 29/20 A3013 RMK AO2 TSB36 OCNL LTGICCG SW-W-NW TS SW-W-NW MOV NE SHRA SW-W-NW=
200908181928 SPECI KATL 181928Z 19009KT 10SM FEW030CB SCT040 BKN250 29/22 A3013 RMK AO2 CB S-SW-W-NW-N MOV NE SHRA S-SW-W-NW-N=
200908181928 SPECI KATL 181928Z 19009KT 10SM FEW030CB SCT040 BKN250 29/22 A3013 RMK AO2 CB S-SW-W-NW-N MOV NE SHRA S-SW-W-NW-N=
200908181852 METAR KATL 181852Z 15011G15KT 10SM FEW033CB SCT040TCU BKN250 29/21 A3015 RMK AO2 SLP197 CB N MOV N TCU SW-W-NW CB DSNT S-SW-W-NW SHRA N T02940211=
200908181838 SPECI KATL 181838Z 12007KT 10SM FEW030CB BKN040TCU BKN250 29/21 A3015 RMK AO2 CB N-NE MOV NE TCU S-SW-W-NW CB DSNT SW-NW SHRA N-NE=
200908181838 SPECI KATL 181838Z 12007KT 10SM FEW030CB BKN040TCU BKN250 29/21 A3015 RMK AO2 CB N-NE MOV NE TCU S-SW-W-NW CB DSNT SW-NW SHRA N-NE=
200908181752 METAR KATL 181752Z 15006KT 10SM FEW030 BKN040 BKN250 29/22 A3017 RMK AO2 SLP205 CB DSNT N-NE SHRA DSNT N-NE T02940217 10300 20228 58012=
200908181652 METAR KATL 181652Z 20006KT 10SM FEW030TCU BKN150 BKN250 29/23 A3019 RMK AO2 SLP213 TCU E-SE-S SHRA E T02890228=
200908181552 METAR KATL 181552Z 18007KT 10SM BKN018 BKN150 27/22 A3021 RMK AO2 SLP219 T02720217=
200908181515 SPECI KATL 181515Z 20007KT 10SM BKN016 26/22 A3021 RMK AO2=
200908181515 SPECI KATL 181515Z 20007KT 10SM BKN016 26/22 A3021 RMK AO2=
200908181452 METAR KATL 181452Z 20007KT 10SM BKN014 26/22 A3020 RMK AO2 SLP218 T02560222 51005=
200908181352 METAR KATL 181352Z 16008KT 10SM OVC010 24/22 A3021 RMK AO2 SLP220 T02440217=
200908181306 SPECI KATL 181306Z 14004KT 7SM BKN010 BKN017 23/21 A3020 RMK AO2=
200908181306 SPECI KATL 181306Z 14004KT 7SM BKN010 BKN017 23/21 A3020 RMK AO2=
200908181252 METAR KATL 181252Z 15007KT 10SM SCT008 BKN017 BKN021 BKN200 23/21 A3020 RMK AO2 SLP216 T02330211=
200908181206 SPECI KATL 181206Z 11005KT 10SM BKN012 BKN017 BKN200 23/21 A3020 RMK AO2=
200908181206 SPECI KATL 181206Z 11005KT 10SM BKN012 BKN017 BKN200 23/21 A3020 RMK AO2=
200908181152 METAR KATL 181152Z 10003KT 10SM BKN015 BKN200 23/21 A3019 RMK AO2 SLP213 T02280206 10233 20222 53009=
200908181052 METAR KATL 181052Z 10003KT 10SM BKN013 BKN200 23/21 A3017 RMK AO2 SLP207 T02280206=
200908181030 SPECI KATL 181030Z 12004KT 10SM BKN013 BKN200 22/21 A3016 RMK AO2=
200908181030 SPECI KATL 181030Z 12004KT 10SM BKN013 BKN200 22/21 A3016 RMK AO2=
200908180952 METAR KATL 180952Z 12005KT 10SM SCT013 22/21 A3015 RMK AO2 SLP200 T02220206=
200908180933 SPECI KATL 180933Z 11006KT 10SM SCT015 BKN024 BKN120 22/21 A3015 RMK AO2=
200908180933 SPECI KATL 180933Z 11006KT 10SM SCT015 BKN024 BKN120 22/21 A3015 RMK AO2=
200908180852 METAR KATL 180852Z 13004KT 10SM SCT110 BKN200 23/21 A3016 RMK AO2 SLP204 T02280206 56010=
200908180752 METAR KATL 180752Z 14005KT 10SM FEW035 BKN095 23/21 A3017 RMK AO2 SLP206 T02330206=
200908180652 METAR KATL 180652Z 13005KT 10SM SCT037 BKN090 BKN200 23/21 A3018 RMK AO2 SLP210 T02330206=
200908180552 METAR KATL 180552Z 00000KT 10SM FEW045 SCT060 BKN090 23/21 A3019 RMK AO2 SLP214 T02330206 10272 20228 58009=
200908180452 METAR KATL 180452Z 15003KT 10SM FEW090 BKN120 23/21 A3022 RMK AO2 SLP221 T02280206 403060211=
200908180352 METAR KATL 180352Z 00000KT 10SM FEW095 BKN120 BKN250 23/21 A3022 RMK AO2 SLP223 T02330206=
200908180252 METAR KATL 180252Z 21005KT 10SM FEW055 SCT090 BKN150 BKN250 24/21 A3022 RMK AO2 SLP225 T02390206 53017=
200908180152 METAR KATL 180152Z 21006KT 10SM FEW060 BKN140 BKN250 24/21 A3021 RMK AO2 SLP221 T02390206=
200908180052 METAR KATL 180052Z 17009KT 10SM FEW040 SCT100 BKN150 BKN250 26/20 A3018 RMK AO2 SLP211 CB DSNT SW AND NW T02560200=
200908172352 METAR KATL 172352Z 12012G20KT 10SM FEW038CB BKN060 BKN150 BKN250 28/20 A3017 RMK AO2 SLP207 CB NE MOV NW TCU DSNT S SHRA NE T02780200 10306 20272 55004=
200908172252 METAR KATL 172252Z 16007G16KT 10SM FEW038 SCT200 BKN250 29/20 A3017 RMK AO2 SLP206 CB DSNT NE AND SE T02890200=
200908172152 METAR KATL 172152Z 21008KT 10SM FEW040 SCT150 BKN200 BKN250 29/21 A3018 RMK AO2 SLP210 CB DSNT SE TCU DSNT NW T02890206=
200908172052 METAR KATL 172052Z 15011G19KT 10SM FEW045 BKN150 BKN200 30/19 A3018 RMK AO2 SLP211 T03000194 55012=
200908171952 METAR KATL 171952Z 14011G20KT 10SM SCT045CB BKN150 BKN200 30/19 A3018 RMK AO2 SLP210 CB SW-W MOV N SHRA SW-W T03000189=
200908171852 METAR KATL 171852Z 12011G19KT 10SM BKN045TCU BKN080 BKN200 29/20 A3020 RMK AO2 SLP217 TCU S-W T02940200=
200908171752 METAR KATL 171752Z 13010G16KT 10SM SCT035 BKN049 BKN200 31/21 A3022 RMK AO2 SLP222 TCU DSNT S 60000 T03060206 10306 20222 58012=
200908171652 METAR KATL 171652Z 13009G18KT 10SM SCT025 BKN040 BKN200 29/21 A3024 RMK AO2 SLP230 TCU DSNT N T02890206=
200908171629 SPECI KATL 171629Z 15010G14KT 10SM SCT020 BKN031 BKN200 28/22 A3025 RMK AO2=
200908171629 SPECI KATL 171629Z 15010G14KT 10SM SCT020 BKN031 BKN200 28/22 A3025 RMK AO2=
200908171552 METAR KATL 171552Z 15012KT 9SM BKN015 BKN027 BKN200 27/22 A3026 RMK AO2 SLP236 T02720222=
200908171544 SPECI KATL 171544Z 13008G16KT 9SM BKN015 BKN027 BKN200 26/22 A3026 RMK AO2=
200908171544 SPECI KATL 171544Z 13008G16KT 9SM BKN015 BKN027 BKN200 26/22 A3026 RMK AO2=
200908171511 SPECI KATL 171511Z 12010KT 8SM BKN010 OVC017 26/22 A3026 RMK AO2 BINOVC OHD=
200908171511 SPECI KATL 171511Z 12010KT 8SM BKN010 OVC017 26/22 A3026 RMK AO2 BINOVC OHD=
200908171452 METAR KATL 171452Z 13009KT 7SM BKN009 OVC016 25/22 A3025 RMK AO2 SLP236 60000 T02500222 51014=
200908171429 SPECI KATL 171429Z 14008KT 7SM BKN007 OVC013 24/22 A3025 RMK AO2=
200908171429 SPECI KATL 171429Z 14008KT 7SM BKN007 OVC013 24/22 A3025 RMK AO2=
200908171352 METAR KATL 171352Z 12007KT 2 1/2SM BR OVC005 23/22 A3025 RMK AO2 SFC VIS 6 DZE08 SLP234 P0000 T02330217=
200908171308 SPECI KATL 171308Z 12009KT 2 1/2SM BR OVC005 23/22 A3023 RMK AO2 SFC VIS 5 DZE08 P0000=
200908171308 SPECI KATL 171308Z 12009KT 2 1/2SM BR OVC005 23/22 A3023 RMK AO2 SFC VIS 5 DZE08 P0000=
200908171252 METAR KATL 171252Z 10008KT 1 1/4SM -DZ BR OVC005 23/22 A3022 RMK AO2 SFC VIS 5 DZB40 SLP226 P0000 T02280217=
200908171240 SPECI KATL 171240Z 10006KT 1/4SM -DZ BR OVC005 22/22 A3022 RMK AO2 SFC VIS 4 DZB40 P0000=
200908171240 SPECI KATL 171240Z 10006KT 1/4SM -DZ BR OVC005 22/22 A3022 RMK AO2 SFC VIS 4 DZB40 P0000=
200908171152 METAR KATL 171152Z 10008KT 1 1/2SM BR OVC005 22/21 A3021 RMK AO2 SFC VIS 5 SLP222 T02220211 10222 20211 53008=
200908171128 SPECI KATL 171128Z 12007KT 1 1/2SM BR OVC005 22/21 A3020 RMK AO2 SFC VIS 5=
200908171128 SPECI KATL 171128Z 12007KT 1 1/2SM BR OVC005 22/21 A3020 RMK AO2 SFC VIS 5=
200908171052 METAR KATL 171052Z 09007KT 7SM OVC007 22/21 A3020 RMK AO2 CIG 006V009 SLP216 T02170206=
200908171030 SPECI KATL 171030Z 09008KT 7SM OVC009 22/21 A3019 RMK AO2 $=
200908171030 SPECI KATL 171030Z 09008KT 7SM OVC009 22/21 A3019 RMK AO2 $=
200908170952 METAR KATL 170952Z 09007KT 10SM OVC011 22/21 A3018 RMK AO2 SLP212 T02170206 $=
200908170852 METAR KATL 170852Z 09006KT 6SM BR FEW004 BKN013 21/21 A3018 RMK AO2 SLP214 T02110206 56008 $=
200908170844 SPECI KATL 170844Z 09007KT 6SM BR FEW004 BKN013 21/21 A3019 RMK AO2 $=
200908170844 SPECI KATL 170844Z 09007KT 6SM BR FEW004 BKN013 21/21 A3019 RMK AO2 $=
200908170831 SPECI KATL 170831Z 09006KT 6SM BR BKN013 21/21 A3019 RMK AO2 $=
200908170831 SPECI KATL 170831Z 09006KT 6SM BR BKN013 21/21 A3019 RMK AO2 $=
200908170752 METAR KATL 170752Z 09007KT 6SM BR SCT047 21/21 A3019 RMK AO2 SLP212 T02110206 $=
200908170652 METAR KATL 170652Z 08007KT 6SM BR FEW047 SCT150 21/21 A3019 RMK AO2 SLP215 T02110206 $=
200908170552 METAR KATL 170552Z 10006KT 6SM BR FEW004 SCT036 22/21 A3021 RMK AO2 SLP220 T02170206 10233 20217 50004 $=
200908170452 METAR KATL 170452Z 08007KT 4SM BR OVC004 22/21 A3022 RMK AO2 SLP225 T02170211 403110217 $=
200908170429 SPECI KATL 170429Z 10005KT 4SM BR BKN004 OVC090 22/21 A3022 RMK AO2 $=
200908170429 SPECI KATL 170429Z 10005KT 4SM BR BKN004 OVC090 22/21 A3022 RMK AO2 $=
200908170352 METAR KATL 170352Z 00000KT 10SM FEW005 SCT090 BKN150 22/21 A3021 RMK AO2 SLP221 T02220211 $=
200908170252 METAR KATL 170252Z 17003KT 10SM FEW007 SCT090 BKN150 23/21 A3020 RMK AO2 SLP217 T02330206 50007 $=
200908170152 METAR KATL 170152Z 14003KT 10SM FEW007 SCT060 BKN150 23/21 A3021 RMK AO2 SLP220 T02280211 $=
200908170052 METAR KATL 170052Z 11008KT 10SM FEW006 SCT065 BKN095 BKN150 23/21 A3019 RMK AO2 SLP216 SHRA N-E-SE T02280211 $=
200908162352 METAR KATL 162352Z COR 12012G19KT 10SM FEW009 SCT030CB BKN050 BKN150 BKN250 23/21 A3018 RMK AO2 WSHFT 2330 TSB07E47RAB23E32 SLP211 TS DSIPT CB NW-NE MOV NW SHRA NW-NE VIS LWR NW-NE P0000 60000 T02330206 10311 2023=
200908162347 SPECI KATL 162347Z 10011G19KT 10SM TS FEW009 SCT030CB BKN050 BKN150 BKN250 24/21 A3018 RMK AO2 WSHFT 2330 TSB07RAB23E32 TS DSIPT SHRA NW-NE VIS LWR NW-NE P0000 $=
200908162347 SPECI KATL 162347Z 10011G19KT 10SM TS FEW009 SCT030CB BKN050 BKN150 BKN250 24/21 A3018 RMK AO2 WSHFT 2330 TSB07RAB23E32 TS DSIPT SHRA NW-NE VIS LWR NW-NE P0000 $=
200908162333 SPECI KATL 162333Z 16014G19KT 10SM TS FEW015 SCT030CB BKN090 BKN150 BKN250 26/20 A3016 RMK AO2 TSB07RAB23E32 PRESRR OCNL LTGIC OHD-NE-SE TS OHD-NE-SE MOV NW SHRA NE VIS LWR NE P0000 $=
200908162333 SPECI KATL 162333Z 16014G19KT 10SM TS FEW015 SCT030CB BKN090 BKN150 BKN250 26/20 A3016 RMK AO2 TSB07RAB23E32 PRESRR OCNL LTGIC OHD-NE-SE TS OHD-NE-SE MOV NW SHRA NE VIS LWR NE P0000 $=
200908162307 SPECI KATL 162307Z 19003KT 10SM TS FEW025CB SCT090 SCT250 27/21 A3013 RMK AO2 TSB07 OCNL LTGIC E-SE TS VC E-SE MOV NW SHRA E-SE $=
200908162307 SPECI KATL 162307Z 19003KT 10SM TS FEW025CB SCT090 SCT250 27/21 A3013 RMK AO2 TSB07 OCNL LTGIC E-SE TS VC E-SE MOV NW SHRA E-SE $=
200908162252 METAR KATL 162252Z 16004KT 10SM FEW025 SCT080 SCT150 SCT250 27/21 A3013 RMK AO2 SLP195 CB DSNT SE T02720211 $=
200908162152 METAR KATL 162152Z 18003KT 8SM FEW015 SCT080 SCT150 BKN200 25/21 A3015 RMK AO2 TSE20RAE39 SLP200 TS MOV N P0000 T02500206 $=
200908162120 SPECI KATL 162120Z 16004KT 8SM -RA SCT028 SCT080 BKN150 BKN250 24/20 A3015 RMK AO2 TSE20 TS MOV N P0000 $=
200908162120 SPECI KATL 162120Z 16004KT 8SM -RA SCT028 SCT080 BKN150 BKN250 24/20 A3015 RMK AO2 TSE20 TS MOV N P0000 $=
200908162052 METAR KATL 162052Z 18007KT 10SM -TSRA BKN038CB BKN070 BKN140 24/21 A3016 RMK AO2 WSHFT 2023 TSB43RAB35 SLP202 OCNL LTGIC NE TS NE MOV NW CB W-N MOV NW P0000 60000 T02390206 55010 $=
200908162044 SPECI KATL 162044Z 19011KT 10SM -TSRA BKN038CB BKN070 BKN140 24/20 A3015 RMK AO2 WSHFT 2023 TSB43RAB35 OCNL LTGIC E TS E MOV NW CB ALQDS P0000 $=
200908162044 SPECI KATL 162044Z 19011KT 10SM -TSRA BKN038CB BKN070 BKN140 24/20 A3015 RMK AO2 WSHFT 2023 TSB43RAB35 OCNL LTGIC E TS E MOV NW CB ALQDS P0000 $=
200908162040 SPECI KATL 162040Z 20012KT 10SM -RA BKN038CB BKN070 BKN140 25/19 A3015 RMK AO2 WSHFT 2023 RAB35 CB OHD-E-S-W MOV NW P0000 $=
200908162040 SPECI KATL 162040Z 20012KT 10SM -RA BKN038CB BKN070 BKN140 25/19 A3015 RMK AO2 WSHFT 2023 RAB35 CB OHD-E-S-W MOV NW P0000 $=
200908161952 METAR KATL 161952Z 13011KT 10SM BKN042TCU BKN100 31/20 A3014 RMK AO2 SLP195 CB DSNT SE-SW MOV NW TCU E-SE T03110200 $=
200908161852 METAR KATL 161852Z 15006KT 10SM SCT039 BKN100 29/20 A3017 RMK AO2 SLP206 TCU DSNT NW-N T02940200 $=
200908161752 METAR KATL 161752Z VRB04KT 10SM SCT025 BKN040 29/21 A3019 RMK AO2 SLP211 TCU DSNT NE AND S T02890206 10289 20222 58013 $=
200908161700 SPECI KATL 161700Z 11006KT 10SM SCT021 BKN033 28/22 A3021 RMK AO2 $=
200908161700 SPECI KATL 161700Z 11006KT 10SM SCT021 BKN033 28/22 A3021 RMK AO2 $=
200908161652 METAR KATL 161652Z 13006KT 10SM SCT019 BKN029 27/21 A3021 RMK AO2 SLP221 T02720211 $=
200908161552 METAR KATL 161552Z 10009KT 8SM FEW008 BKN016 BKN027 26/21 A3022 RMK AO2 SLP225 T02610211 $=
200908161547 SPECI KATL 161547Z 10008KT 8SM FEW008 BKN016 BKN027 26/21 A3022 RMK AO2 $=
200908161547 SPECI KATL 161547Z 10008KT 8SM FEW008 BKN016 BKN027 26/21 A3022 RMK AO2 $=
200908161521 SPECI KATL 161521Z 10007KT 7SM SCT008 BKN014 BKN022 25/21 A3023 RMK AO2 $=
200908161521 SPECI KATL 161521Z 10007KT 7SM SCT008 BKN014 BKN022 25/21 A3023 RMK AO2 $=
200908161511 SPECI KATL 161511Z 11007KT 2SM SCT008 BKN014 BKN022 25/21 A3023 RMK AO2 SFC VIS 7 $=
200908161511 SPECI KATL 161511Z 11007KT 2SM SCT008 BKN014 BKN022 25/21 A3023 RMK AO2 SFC VIS 7 $=
200908161452 METAR KATL 161452Z 10007KT 2SM HZ BKN007 BKN012 24/21 A3022 RMK AO2 SFC VIS 6 SLP226 T02440211 51007 $=
200908161402 SPECI KATL 161402Z 10007KT 2SM BR BKN007 OVC011 23/21 A3022 RMK AO2 SFC VIS 5 $=
200908161402 SPECI KATL 161402Z 10007KT 2SM BR BKN007 OVC011 23/21 A3022 RMK AO2 SFC VIS 5 $=
200908161352 METAR KATL 161352Z 12007KT 2SM BR SCT007 OVC011 23/21 A3022 RMK AO2 SFC VIS 5 SLP225 T02330211 $=
200908161336 SPECI KATL 161336Z 10008KT 2SM BR SCT006 OVC011 23/21 A3022 RMK AO2 SFC VIS 4 $=
200908161336 SPECI KATL 161336Z 10008KT 2SM BR SCT006 OVC011 23/21 A3022 RMK AO2 SFC VIS 4 $=
200908161307 SPECI KATL 161307Z 11007KT 2SM BR BKN006 BKN011 23/21 A3021 RMK AO2 SFC VIS 6 $=
200908161307 SPECI KATL 161307Z 11007KT 2SM BR BKN006 BKN011 23/21 A3021 RMK AO2 SFC VIS 6 $=
200908161252 METAR KATL 161252Z 12006KT 2SM BR OVC004 23/21 A3021 RMK AO2 SFC VIS 5 SLP222 BINOVC S T02280211 $=
200908161152 METAR KATL 161152Z 11007KT 2SM BR OVC004 22/21 A3020 RMK AO2 SFC VIS 4 SLP218 T02220211 10228 20217 53010 $=
200908161115 SPECI KATL 161115Z 12006KT 2SM BR OVC004 22/21 A3019 RMK AO2 SFC VIS 6 $=
200908161115 SPECI KATL 161115Z 12006KT 2SM BR OVC004 22/21 A3019 RMK AO2 SFC VIS 6 $=
200908161052 METAR KATL 161052Z 10004KT 6SM BR OVC004 22/21 A3018 RMK AO2 SLP210 T02170211 $=
200908161034 SPECI KATL 161034Z 11006KT 6SM BR OVC004 22/21 A3018 RMK AO2=
200908161034 SPECI KATL 161034Z 11006KT 6SM BR OVC004 22/21 A3018 RMK AO2=
200908160952 METAR KATL 160952Z 11007KT 6SM BR BKN006 OVC100 22/21 A3018 RMK AO2 SLP209 T02220206=
200908160852 METAR KATL 160852Z 11007KT 10SM BKN008 OVC012 22/21 A3017 RMK AO2 SLP206 T02220206 53003=
200908160752 METAR KATL 160752Z 12005KT 7SM BKN008 BKN036 22/21 A3016 RMK AO2 SLP202 T02220206=
200908160732 SPECI KATL 160732Z 11005KT 7SM BKN008 BKN036 22/21 A3016 RMK AO2 CIG 006V010=
200908160732 SPECI KATL 160732Z 11005KT 7SM BKN008 BKN036 22/21 A3016 RMK AO2 CIG 006V010=
200908160652 METAR KATL 160652Z 11006KT 10SM BKN036 22/21 A3016 RMK AO2 SLP202 T02220206=
200908160552 METAR KATL 160552Z 13004KT 7SM FEW009 SCT150 23/21 A3016 RMK AO2 SLP203 T02280206 10267 20222 50001=
200908160534 SPECI KATL 160534Z 12006KT 10SM FEW009 SCT150 23/21 A3016 RMK AO2=
200908160534 SPECI KATL 160534Z 12006KT 10SM FEW009 SCT150 23/21 A3016 RMK AO2=
200908160452 METAR KATL 160452Z 09008KT 10SM FEW016 SCT150 BKN250 23/21 A3017 RMK AO2 SLP205 T02280206 403220217=
200908160352 METAR KATL 160352Z 15005KT 10SM FEW016 SCT150 BKN250 23/21 A3017 RMK AO2 SLP207 T02330206=
200908160252 METAR KATL 160252Z 15009KT 10SM SCT090 BKN150 OVC250 24/21 A3016 RMK AO2 SLP203 T02390206 50014=
200908160152 METAR KATL 160152Z 10007KT 10SM FEW019 SCT055 SCT120 BKN250 24/20 A3016 RMK AO2 TSB15E45 SLP205 TS DSIPT T02440200=
200908160145 SPECI KATL 160145Z 09009KT 10SM SCT019 SCT055 SCT120 BKN250 24/21 A3016 RMK AO2 TSB15E45 TS DSIPT=
200908160145 SPECI KATL 160145Z 09009KT 10SM SCT019 SCT055 SCT120 BKN250 24/21 A3016 RMK AO2 TSB15E45 TS DSIPT=
200908160115 SPECI KATL 160115Z 13008KT 10SM TS FEW050CB SCT090 BKN250 25/21 A3016 RMK AO2 TSB15 OCNL LTGIC NE TS VC NE MOV W=
200908160115 SPECI KATL 160115Z 13008KT 10SM TS FEW050CB SCT090 BKN250 25/21 A3016 RMK AO2 TSB15 OCNL LTGIC NE TS VC NE MOV W=
200908160052 METAR KATL 160052Z 16011KT 10SM SCT050 BKN080 BKN250 25/21 A3014 RMK AO2 PK WND 16029/2355 SLP198 CB DSNT NE AND NW T02500206=
200908152352 METAR KATL 152352Z COR 16020G30KT 9SM BKN050TCU BKN075 BKN095 BKN200 27/20 A3012 RMK AO2 PK WND 15030/2344 SLP189 TCU NE-OHD-SW T02670200 10322 20267 53008=
200908152252 METAR KATL 152252Z 12011KT 10SM SCT050 SCT120 BKN200 31/19 A3009 RMK AO2 SLP179 TCU DSNT N-E-SE AND W T03110189=
200908152152 METAR KATL 152152Z 11007KT 10SM FEW050 BKN200 32/19 A3009 RMK AO2 SLP179 T03170189=
200908152052 METAR KATL 152052Z 06008KT 10SM FEW050 SCT090 BKN200 32/20 A3009 RMK AO2 SLP178 T03170200 56020=
200908151952 METAR KATL 151952Z 13005KT 10SM SCT050 BKN090 BKN200 32/19 A3011 RMK AO2 SLP183 T03170189=
200908151852 METAR KATL 151852Z 09008KT 10SM SCT040 BKN055 BKN200 29/20 A3012 RMK AO2 SLP189 T02940200=
200908151752 METAR KATL 151752Z 09003KT 10SM SCT035 BKN055 BKN200 29/20 A3015 RMK AO2 SLP200 T02890200 10300 20222 58016=
200908151652 METAR KATL 151652Z 12008KT 10SM FEW020 BKN033 BKN200 29/21 A3018 RMK AO2 SLP208 T02890206=
200908151552 METAR KATL 151552Z 13007KT 7SM SCT015 BKN030 BKN200 28/22 A3020 RMK AO2 SLP216 T02780217=
200908151543 SPECI KATL 151543Z 14008KT 7SM SCT014 BKN030 BKN200 27/21 A3020 RMK AO2=
200908151543 SPECI KATL 151543Z 14008KT 7SM SCT014 BKN030 BKN200 27/21 A3020 RMK AO2=
200908151519 SPECI KATL 151519Z 10008KT 7SM SCT013 BKN028 27/22 A3020 RMK AO2=
200908151519 SPECI KATL 151519Z 10008KT 7SM SCT013 BKN028 27/22 A3020 RMK AO2=
200908151452 METAR KATL 151452Z 09008KT 8SM BKN013 26/22 A3020 RMK AO2 SLP218 T02560217 51009=
200908151407 SPECI KATL 151407Z 10007KT 3SM BKN010 BKN015 24/22 A3020 RMK AO2 SFC VIS 8=
200908151407 SPECI KATL 151407Z 10007KT 3SM BKN010 BKN015 24/22 A3020 RMK AO2 SFC VIS 8=
200908151352 METAR KATL 151352Z 10007KT 3SM BKN005 24/22 A3019 RMK AO2 SFC VIS 7 SLP214 T02440217=
200908151252 METAR KATL 151252Z 07006KT 3SM BR BKN005 23/22 A3019 RMK AO2 SFC VIS 5 SLP213 T02280217=
200908151235 SPECI KATL 151235Z 07006KT 2 1/2SM BR BKN005 23/22 A3019 RMK AO2 SFC VIS 5=
200908151235 SPECI KATL 151235Z 07006KT 2 1/2SM BR BKN005 23/22 A3019 RMK AO2 SFC VIS 5=
200908151152 METAR KATL 151152Z 08005KT 2SM BR BKN005 BKN200 22/21 A3017 RMK AO2 SFC VIS 5 SLP207 T02220211 10244 20217 53018=
200908151142 SPECI KATL 151142Z 09006KT 2SM BR BKN005 BKN200 22/21 A3017 RMK AO2 SFC VIS 6=
200908151142 SPECI KATL 151142Z 09006KT 2SM BR BKN005 BKN200 22/21 A3017 RMK AO2 SFC VIS 6=
200908151123 SPECI KATL 151123Z 10005KT 6SM BR BKN005 BKN200 22/21 A3016 RMK AO2=
200908151123 SPECI KATL 151123Z 10005KT 6SM BR BKN005 BKN200 22/21 A3016 RMK AO2=
200908151052 METAR KATL 151052Z 10004KT 8SM FEW200 22/20 A3014 RMK AO2 SLP197 T02220200=
200908150952 METAR KATL 150952Z 09004KT 10SM CLR 22/19 A3012 RMK AO2 SLP190 T02170194=
200908150852 METAR KATL 150852Z 10004KT 10SM CLR 22/19 A3012 RMK AO2 SLP188 T02220194 55004=
200908150752 METAR KATL 150752Z 00000KT 10SM FEW040 23/20 A3012 RMK AO2 SLP187 T02330200=
200908150652 METAR KATL 150652Z 12004KT 10SM CLR 24/19 A3012 RMK AO2 SLP189 T02390194=
200908150552 METAR KATL 150552Z 11006KT 10SM FEW047 24/19 A3013 RMK AO2 SLP192 T02440189 10294 20239 53002=
200908150452 METAR KATL 150452Z 09005KT 10SM FEW100 24/19 A3012 RMK AO2 SLP189 T02390189 403220217=
200908150352 METAR KATL 150352Z 08005KT 10SM FEW100 25/18 A3013 RMK AO2 SLP191 T02500183=
200908150252 METAR KATL 150252Z 10004KT 10SM CLR 26/18 A3012 RMK AO2 SLP190 T02560183 51009=
200908150152 METAR KATL 150152Z 11006KT 10SM FEW250 27/18 A3012 RMK AO2 SLP188 T02720178=
200908150052 METAR KATL 150052Z 09007KT 10SM FEW090 SCT250 27/18 A3011 RMK AO2 SLP185 T02720178=
200908142352 METAR KATL 142352Z 07011KT 10SM FEW055 SCT250 29/18 A3009 RMK AO2 SLP179 T02940183 10322 20294 53001=
200908142252 METAR KATL 142252Z 08011KT 10SM FEW055 SCT100 31/18 A3008 RMK AO2 SLP176 T03110178=
200908142152 METAR KATL 142152Z 10009KT 10SM FEW055 32/18 A3008 RMK AO2 SLP175 T03170178=
200908142052 METAR KATL 142052Z 06003KT 10SM FEW050 SCT090 32/18 A3009 RMK AO2 SLP178 T03170183 58015=
200908141952 METAR KATL 141952Z 10008KT 10SM SCT050 BKN080 30/18 A3011 RMK AO2 SLP185 TCU DSNT SW T03000183=
200908141852 METAR KATL 141852Z 10008KT 10SM SCT047 BKN070 31/19 A3012 RMK AO2 SLP189 TCU DSNT S T03060194=
200908141752 METAR KATL 141752Z VRB03KT 10SM SCT035 BKN070 30/20 A3014 RMK AO2 SLP193 T03000200 10306 20228 58013=
200908141652 METAR KATL 141652Z 16007KT 10SM BKN032 BKN055 29/21 A3015 RMK AO2 SLP200 T02940211=
200908141638 SPECI KATL 141638Z 10008G14KT 10SM BKN030 BKN055 28/21 A3016 RMK AO2=
200908141638 SPECI KATL 141638Z 10008G14KT 10SM BKN030 BKN055 28/21 A3016 RMK AO2=
200908141552 METAR KATL 141552Z 08008KT 10SM SCT019 BKN027 28/22 A3017 RMK AO2 SLP205 T02780217=
200908141452 METAR KATL 141452Z 10004KT 7SM SCT008 BKN015 26/23 A3018 RMK AO2 SLP208 T02560228 51012=
200908141443 SPECI KATL 141443Z 08008KT 7SM SCT008 OVC015 25/22 A3018 RMK AO2=
200908141443 SPECI KATL 141443Z 08008KT 7SM SCT008 OVC015 25/22 A3018 RMK AO2=
200908141352 METAR KATL 141352Z 08009KT 7SM OVC006 24/22 A3016 RMK AO2 SLP204 T02390217=
200908141252 METAR KATL 141252Z 07008KT 7SM BKN007 23/22 A3015 RMK AO2 SLP200 T02330217=
200908141152 METAR KATL 141152Z 06008KT 6SM BR BKN007 23/21 A3014 RMK AO2 SLP195 T02280211 10250 20217 53011=
200908141129 SPECI KATL 141129Z 07007KT 10SM BKN007 BKN150 22/21 A3013 RMK AO2=
200908141129 SPECI KATL 141129Z 07007KT 10SM BKN007 BKN150 22/21 A3013 RMK AO2=
200908141052 METAR KATL 141052Z 06008KT 10SM FEW040 22/21 A3012 RMK AO2 SLP189 T02220206=
200908140952 METAR KATL 140952Z 08005KT 10SM CLR 22/21 A3011 RMK AO2 SLP184 T02220206=
200908140852 METAR KATL 140852Z 07008KT 10SM CLR 23/21 A3011 RMK AO2 SLP184 T02330206 52007=
200908140752 METAR KATL 140752Z 08008KT 10SM FEW040 23/20 A3010 RMK AO2 SLP181 T02330200=
200908140652 METAR KATL 140652Z 07005KT 10SM CLR 24/20 A3009 RMK AO2 SLP179 T02390200=
200908140552 METAR KATL 140552Z 12004KT 10SM CLR 25/20 A3008 RMK AO2 SLP176 T02500200 10300 20244 50000=
200908140452 METAR KATL 140452Z 10008KT 10SM FEW150 24/20 A3009 RMK AO2 SLP180 T02440200 403220217=
200908140352 METAR KATL 140352Z 00000KT 10SM FEW150 26/19 A3008 RMK AO2 SLP175 T02610194=
200908140252 METAR KATL 140252Z 16003KT 10SM FEW150 27/19 A3008 RMK AO2 SLP177 T02670194 51015=
200908140152 METAR KATL 140152Z 15004KT 10SM FEW055 SCT100 BKN200 28/19 A3008 RMK AO2 SLP175 T02780194=
200908140052 METAR KATL 140052Z 13006KT 10SM FEW055TCU SCT100 SCT250 29/19 A3005 RMK AO2 SLP166 TCU SW-W CB DSNT NW SHRA DSNT NW T02890189=
200908132352 METAR KATL 132352Z 10005KT 10SM FEW060 SCT100 SCT250 30/16 A3004 RMK AO2 SLP160 CB DSNT NW TCU DSNT NW-N SHRA DSNT NW T03000161 10322 20289 53001=
200908132252 METAR KATL 132252Z 11004KT 10SM FEW060 31/17 A3003 RMK AO2 SLP157 TCU DSNT N-NE SW AND NW T03110167=
200908132152 METAR KATL 132152Z 06005KT 10SM FEW055 32/18 A3003 RMK AO2 SLP158 TCU DSNT NE SW NW T03170178=
200908132052 METAR KATL 132052Z VRB03KT 10SM FEW055TCU 31/18 A3003 RMK AO2 SLP159 TCU S & W & NW T03110183 56016=
200908131952 METAR KATL 131952Z 00000KT 10SM SCT050TCU 30/18 A3005 RMK AO2 SLP164 TCU NE & S & W & NW T03000178=
200908131852 METAR KATL 131852Z VRB03KT 10SM SCT045TCU 29/19 A3006 RMK AO2 SLP168 TCU N & S & W & NW T02940189=
200908131752 METAR KATL 131752Z 00000KT 10SM SCT040TCU 29/20 A3008 RMK AO2 SLP175 TCU NE & NW T02940200 10294 20222 58008=
200908131652 METAR KATL 131652Z 05004KT 10SM SCT030 28/21 A3010 RMK AO2 SLP181 T02830206=
200908131552 METAR KATL 131552Z VRB03KT 10SM FEW025 27/21 A3011 RMK AO2 SLP186 T02720206=
200908131452 METAR KATL 131452Z 14003KT 10SM SCT015 24/21 A3011 RMK AO2 SLP185 T02440206 51014=
200908131352 METAR KATL 131352Z 16004KT 10SM BKN015 24/21 A3010 RMK AO2 SLP182 T02390206=
200908131341 SPECI KATL 131341Z 00000KT 10SM FEW010 BKN015 BKN018 23/21 A3010 RMK AO2=
200908131341 SPECI KATL 131341Z 00000KT 10SM FEW010 BKN015 BKN018 23/21 A3010 RMK AO2=
200908131252 METAR KATL 131252Z 15004KT 6SM BR BKN009 BKN018 23/21 A3009 RMK AO2 CIG 006V014 SLP180 T02280206=
200908131152 METAR KATL 131152Z 00000KT 6SM BR BKN007 22/21 A3006 RMK AO2 SLP171 T02220206 10239 20217 51020=
200908131052 METAR KATL 131052Z 08005KT 6SM BR BKN007 22/21 A3005 RMK AO2 SLP166 T02170206=
200908131031 SPECI KATL 131031Z 09006KT 6SM BR BKN007 22/21 A3004 RMK AO2=
200908131031 SPECI KATL 131031Z 09006KT 6SM BR BKN007 22/21 A3004 RMK AO2=
200908131004 SPECI KATL 131004Z 05004KT 6SM BR FEW007 SCT160 22/21 A3003=
200908130952 METAR KATL 130952Z 06004KT 6SM BR FEW031 SCT200 22/21 A3002 RMK AO2 SLP156 T02170206=
200908130852 METAR KATL 130852Z 00000KT 10SM FEW250 22/21 A3000 RMK AO2 SLP149 T02220206 56008=
200908130752 METAR KATL 130752Z 04003KT 10SM FEW030 SCT250 22/21 A3001 RMK AO2 SLP151 T02220211=
200908130652 METAR KATL 130652Z 08005KT 10SM FEW065 SCT250 22/21 A3002 RMK AO2 SLP155 T02220206=
200908130552 METAR KATL 130552Z 12005KT 10SM FEW042 SCT250 23/21 A3003 RMK AO2 SLP159 T02280211 10283 20228 58004=
200908130452 METAR KATL 130452Z 00000KT 10SM FEW030 BKN250 23/21 A3004 RMK AO2 SLP163 T02330211 403000233=
200908130352 METAR KATL 130352Z 14006KT 10SM SCT200 BKN250 24/21 A3003 RMK AO2 SLP159 T02390211=
200908130252 METAR KATL 130252Z 12007KT 10SM FEW040 BKN200 25/21 A3004 RMK AO2 SLP163 T02500206 53018=
200908130152 METAR KATL 130152Z 14004KT 10SM FEW200 26/21 A3002 RMK AO2 SLP156 T02610206=
200908130052 METAR KATL 130052Z 00000KT 10SM FEW040 27/20 A2999 RMK AO2 SLP146 T02670200=
200908122352 METAR KATL 122352Z 33005KT 10SM FEW045 28/19 A2999 RMK AO2 SLP143 T02830189 10300 20244 50002=
200908122252 METAR KATL 122252Z 03004KT 10SM FEW045 SCT200 29/19 A2999 RMK AO2 SLP143 T02940194=
200908122152 METAR KATL 122152Z 36006G16KT 10SM FEW040 SCT200 29/19 A2998=
200908122052 METAR KATL 122052Z 01008KT 330V040 10SM SCT040 BKN200 29/21 A2998 RMK AO2 SLP141 CB DSNT SE T02940206 56021=
200908121952 METAR KATL 121952Z 29005KT 10SM BKN030 BKN050 BKN200 28/21 A3000 RMK AO2 SLP147 CB DSNT S T02780206=
200908121852 METAR KATL 121852Z 00000KT 10SM FEW025 BKN045 BKN150 27/20 A3002 RMK AO2 SLP155 T02670200=
200908121752 METAR KATL 121752Z 33008KT 10SM FEW015 BKN050 BKN150 BKN200 25/21 A3004 RMK AO2 RAE33 SLP163 P0000 60000 T02500206 10267 20239 50001=
200908121652 METAR KATL 121652Z 33011KT 10SM -RA FEW015 SCT070 BKN150 BKN200 24/21 A3005 RMK AO2 RAB29 SLP167 OCNL LTG DSNT S CB DSNT S P0000 T02440206=
200908121552 METAR KATL 121552Z 33011KT 10SM FEW025 SCT070 BKN150 BKN200 26/20 A3005 RMK AO2 SLP165 VIRGA DSNT N CB DSNT SW SHRA SW-W-NW T02610200=
200908121452 METAR KATL 121452Z 33008KT 10SM FEW070 SCT120 BKN150 26/20 A3004 RMK AO2 SLP161 SHRA DSNT W-NW T02560200 51012=
200908121352 METAR KATL 121352Z 33008KT 10SM BKN055 BKN090 BKN200 24/20 A3003 RMK AO2 SLP158 T02440200=
200908121252 METAR KATL 121252Z 33009KT 10SM BKN055 BKN140 BKN200 24/20 A3003 RMK AO2 SLP156 CB DSNT SE T02390200=
200908121152 METAR KATL 121152Z 31007KT 10SM FEW060 SCT150 BKN250 24/21 A3000 RMK AO2 SLP149 60000 T02390211 10256 20233 53013=
200908121052 METAR KATL 121052Z 29006KT 10SM FEW050 SCT100 BKN150 BKN250 24/21 A2999 RMK AO2 SLP142 T02390211=
200908120952 METAR KATL 120952Z 29005KT 10SM FEW055 BKN110 BKN200 24/21 A2997 RMK AO2 SLP136 T02390211=
200908120852 METAR KATL 120852Z 31006KT 10SM BKN150 OVC250 24/21 A2997 RMK AO2 SLP134 60000 T02440211 56012=
200908120752 METAR KATL 120752Z 32004KT 10SM BKN150 BKN250 25/21 A2997 RMK AO2 RAB04E13 SLP137 P0000 T02500211=
200908120652 METAR KATL 120652Z 33004KT 10SM SCT090 BKN120 OVC250 25/21 A2999 RMK AO2 SLP143 T02500211=
200908120552 METAR KATL 120552Z 31005KT 10SM BKN150 OVC250 26/21 A3000 RMK AO2 SLP147 T02560206 10300 20250 58005=
200908120452 METAR KATL 120452Z 27004KT 10SM FEW120 BKN150 BKN250 26/21 A3003 RMK AO2 SLP156 T02560206 403500239=
200908120352 METAR KATL 120352Z 32005KT 10SM BKN150 OVC250 26/21 A3003 RMK AO2 SLP156 T02610206=
200908120252 METAR KATL 120252Z 30009KT 10SM SCT150 BKN250 27/21 A3002 RMK AO2 SLP153 FRQ LTG DSNT E-SE T02670211 51014=
200908120152 METAR KATL 120152Z 31010KT 10SM SCT150 BKN200 BKN250 27/20 A3002 RMK AO2 SLP152 CONS LTG DSNT NE-E OCNL LTG DSNT SE T02720200=
200908120052 METAR KATL 120052Z 31010KT 10SM FEW050 SCT150 BKN200 BKN250 28/19 A3000 RMK AO2 SLP147 CONS LTG DSNT NE OCNL LTG DSNT E AND SE T02830194=
200908112352 METAR KATL 112352Z 30012G19KT 10SM FEW050 BKN180 BKN250 30/19 A2997 RMK AO2 SLP138 OCNL LTG DSNT N-NE T03000194 10350 20300 55003=
200908112252 METAR KATL 112252Z 29006KT 10SM FEW055 SCT180 BKN250 31/20 A2994 RMK AO2 SLP127 T03110200=
200908112152 METAR KATL 112152Z 30009KT 10SM FEW060TCU BKN200 33/21 A2998 RMK AO2 SLP139 TCU NW AND DSNT NE E SW T03330206=
200908112052 METAR KATL 112052Z 27009KT 10SM SCT060 SCT200 34/20 A2999 RMK AO2 SLP141 CB DSNT N TCU DSNT N T03440200 57021=
200908111952 METAR KATL 111952Z 33008KT 10SM FEW060TCU SCT150 SCT200 34/21 A3001 RMK AO2 SLP150 CB DSNT NW TCU DSNT N-NE & SE-S-SW T03440206=
200908111852 METAR KATL 111852Z 25009KT 10SM SCT055 SCT200 33/21 A3002 RMK AO2 SLP153 TCU DSNT N T03330206=
200908111752 METAR KATL 111752Z 33011G16KT 10SM FEW050 SCT200 33/21 A3005 RMK AO2 SLP163 CB DSNT S TCU DSNT S & W T03330211 10333 20250 58019=
200908111652 METAR KATL 111652Z 33011KT 10SM SCT045TCU 32/22 A3008 RMK AO2 SLP173 TCU E-SE-S & W T03220217=
200908111552 METAR KATL 111552Z 32004KT 10SM FEW040 32/23 A3011 RMK AO2 SLP183 CB DSNT S T03170228=
200908111452 METAR KATL 111452Z 29009KT 10SM FEW030 SCT250 30/23 A3011 RMK AO2 SLP184 T03000228 51009=
200908111352 METAR KATL 111352Z 31007KT 10SM FEW250 28/23 A3010 RMK AO2 SLP182 T02830233=
200908111252 METAR KATL 111252Z 30009KT 9SM FEW250 26/23 A3009 RMK AO2 SLP179 T02610233=
200908111152 METAR KATL 111152Z 29005KT 8SM FEW250 25/23 A3008 RMK AO2 SLP174 T02500228 10256 20239 53004=
200908111052 METAR KATL 111052Z 00000KT 8SM FEW150 SCT250 24/23 A3007 RMK AO2 SLP171 T02440228=
200908110952 METAR KATL 110952Z 28004KT 8SM FEW150 24/23 A3007 RMK AO2 SLP171 T02390228=
200908110852 METAR KATL 110852Z 29005KT 9SM FEW150 24/23 A3007 RMK AO2 SLP171 T02440228 58007=
200908110752 METAR KATL 110752Z 27003KT 10SM FEW100 25/23 A3008 RMK AO2 SLP174 T02500228=
200908110652 METAR KATL 110652Z 28005KT 10SM FEW100 25/23 A3009 RMK AO2 SLP176 T02500228=
200908110552 METAR KATL 110552Z 29006KT 10SM FEW100 26/23 A3009 RMK AO2 SLP178 T02560228 10300 20256 58007=
200908110452 METAR KATL 110452Z 29006KT 10SM FEW100 26/23 A3011 RMK AO2 SLP183 T02610228 403390239=
200908110352 METAR KATL 110352Z 27006KT 10SM FEW250 26/23 A3011=
200908110252 METAR KATL 110252Z 27005KT 10SM SCT250 27/22 A3012 RMK AO2 SLP186 T02720222 51016=
200908110152 METAR KATL 110152Z 28007KT 10SM FEW150 BKN250 28/22 A3010 RMK AO2 SLP182 T02780222=
200908110052 METAR KATL 110052Z 27007KT 10SM FEW150 SCT200 BKN250 29/22 A3008 RMK AO2 SLP175 T02890217=
200908102352 METAR KATL 102352Z 27008KT 10SM FEW050 SCT200 30/21 A3007 RMK AO2 SLP169 T03000211 10339 20300 56008=
200908102252 METAR KATL 102252Z 27007KT 10SM FEW055 SCT150 SCT200 32/21 A3007 RMK AO2 SLP170 TCU DSNT SE S AND NW T03220211=
200908102152 METAR KATL 102152Z 28011KT 10SM FEW055 SCT200 33/20 A3008 RMK AO2 SLP175 TCU DSNT SE-S W AND NW T03280200=
200908102052 METAR KATL 102052Z 24008KT 10SM FEW050 SCT150 SCT250 33/21 A3009 RMK AO2 SLP177 CB DSNT SE TCU DSNT NW T03280206 58025=
200908101952 METAR KATL 101952Z 23004KT 10SM SCT060 SCT250 32/21 A3012 RMK AO2 SLP187 TCU DSNT E-SE T03220211=
200908101852 METAR KATL 101852Z VRB05KT 10SM SCT050 32/21 A3014 RMK AO2 SLP196 T03220211=
200908101752 METAR KATL 101752Z VRB03KT 10SM SCT046 32/21 A3017 RMK AO2 SLP203 T03220211 10322 20256 58015=
200908101652 METAR KATL 101652Z 29005KT 10SM BKN045 31/21 A3019 RMK AO2 SLP211 T03110211=
200908101552 METAR KATL 101552Z 26007KT 10SM FEW040 SCT250 31/22 A3021 RMK AO2 SLP217 T03110222=
200908101452 METAR KATL 101452Z VRB04KT 10SM FEW030 30/23 A3021 RMK AO2 SLP219 T03000228 50000=
200908101352 METAR KATL 101352Z 27004KT 10SM FEW100 28/22 A3021 RMK AO2 SLP219 T02830222=
200908101252 METAR KATL 101252Z 30006KT 10SM FEW055 SCT250 27/22 A3022 RMK AO2 SLP221 T02670217=
200908101152 METAR KATL 101152Z 29004KT 10SM SCT055 BKN075 BKN250 26/22 A3021 RMK AO2 SLP219 T02560222 10261 20239 51009=
200908101052 METAR KATL 101052Z 30003KT 10SM FEW150 SCT250 24/22 A3021 RMK AO2 SLP217 T02390217=
200908100952 METAR KATL 100952Z 00000KT 10SM CLR 24/22 A3019 RMK AO2 SLP211 T02440217=
200908100852 METAR KATL 100852Z 17003KT 10SM CLR 24/22 A3019 RMK AO2 SLP210 T02440217 53004=
200908100752 METAR KATL 100752Z 22005KT 10SM CLR 24/22 A3018 RMK AO2 SLP208 T02440217=
200908100652 METAR KATL 100652Z 29003KT 10SM CLR 26/21 A3017 RMK AO2 SLP204 T02560211=
200908100552 METAR KATL 100552Z 27003KT 10SM CLR 26/21 A3017 RMK AO2 SLP206 T02560211 10317 20256 58009=
200908100452 METAR KATL 100452Z 00000KT 10SM CLR 26/22 A3019 RMK AO2 SLP212 T02610217 403390222=
200908100352 METAR KATL 100352Z 00000KT 10SM CLR 27/21 A3020 RMK AO2 SLP214 T02670211=
200908100252 METAR KATL 100252Z 21003KT 10SM FEW250 27/21 A3020 RMK AO2 SLP216 T02720211 51014=
200908100152 METAR KATL 100152Z 22003KT 10SM FEW070 28/21 A3019 RMK AO2 SLP211 T02780211=
200908100052 METAR KATL 100052Z 21010KT 8SM FEW070 SCT250 29/21 A3018 RMK AO2 SLP208 T02890211=
200908092352 METAR KATL 092352Z 20005KT 10SM FEW070 SCT150 SCT250 32/18 A3016 RMK AO2 SLP201 T03170178 10339 20306 56006=
200908092252 METAR KATL 092252Z 17007KT 10SM FEW065 SCT150 SCT250 33/17 A3016 RMK AO2 SLP201 T03280172=
200908092152 METAR KATL 092152Z 00000KT 10SM SCT060 SCT250 34/19 A3017 RMK AO2 SLP206 T03390189=
200908092052 METAR KATL 092052Z 10005KT 10SM FEW060 SCT140 33/19 A3018 RMK AO2 SLP208 T03330189 56020=
200908091952 METAR KATL 091952Z 00000KT 10SM SCT060 32/19 A3020 RMK AO2 SLP214 T03220189=
200908091852 METAR KATL 091852Z 13004KT 10SM SCT055 32/18 A3021 RMK AO2 SLP219 T03220183=
200908091752 METAR KATL 091752Z 30003KT 10SM BKN055 31/21 A3024 RMK AO2 SLP228 T03110206 10317 20244 58013=
200908091652 METAR KATL 091652Z 26003KT 10SM BKN045 BKN055 30/21 A3026 RMK AO2 SLP236 TCU DSNT S T03000211=
200908091552 METAR KATL 091552Z 31004KT 10SM SCT035 29/22 A3028=
200908091452 METAR KATL 091452Z 00000KT 10SM FEW035 29/22 A3028 RMK AO2 SLP241 T02940222 50008=
200908091352 METAR KATL 091352Z 00000KT 9SM CLR 28/22 A3028 RMK AO2 SLP243 T02780217=
200908091252 METAR KATL 091252Z 00000KT 9SM CLR 26/21 A3027 RMK AO2 SLP239 T02560206=
200908091152 METAR KATL 091152Z 00000KT 9SM FEW250 24/19 A3025 RMK AO2 SLP233 T02440194 10256 20222 53013=
200908091052 METAR KATL 091052Z 00000KT 9SM SCT250 23/19 A3023 RMK AO2 SLP226 T02280194=
200908090952 METAR KATL 090952Z 00000KT 10SM CLR 24/19 A3022 RMK AO2 SLP223 T02390194=
200908090852 METAR KATL 090852Z 14003KT 10SM CLR 24/20 A3021 RMK AO2 SLP219 T02440200 54000=
200908090752 METAR KATL 090752Z 18003KT 10SM CLR 24/19 A3021 RMK AO2 SLP219 T02440194=
200908090652 METAR KATL 090652Z 18003KT 10SM CLR 25/19 A3021 RMK AO2 SLP219 T02500194 $=
200908090552 METAR KATL 090552Z 16004KT 10SM CLR 26/19 A3021 RMK AO2 SLP219 T02560189 10311 20256 58001=
200908090452 METAR KATL 090452Z 16005KT 10SM CLR 27/18 A3022 RMK AO2 SLP221 T02670183 403330228=
200908090352 METAR KATL 090352Z 15004KT 10SM CLR 27/18 A3022 RMK AO2 SLP222 T02720178=
200908090252 METAR KATL 090252Z 15003KT 10SM CLR 28/17 A3022 RMK AO2 SLP220 T02830172 53014=
200908090152 METAR KATL 090152Z 17005KT 10SM CLR 29/17 A3020 RMK AO2 SLP214 T02890172=
200908090052 METAR KATL 090052Z 16006KT 10SM FEW065 SCT250 29/18 A3019 RMK AO2 SLP211 T02940183=
200908082352 METAR KATL 082352Z 16006KT 10SM FEW065 31/18 A3017 RMK AO2 SLP207 T03110178 10333 20311 53001=
200908082152 METAR KATL 082152Z 11009KT 10SM SCT065 33/18 A3017 RMK AO2 SLP203 T03280183=
200908082052 METAR KATL 082052Z 15006KT 10SM SCT060 33/19 A3017 RMK AO2 SLP205 T03280189 58015=
200908081952 METAR KATL 081952Z VRB06KT 10SM SCT060 33/19 A3019 RMK AO2 SLP210 T03280194=
200908081852 METAR KATL 081852Z VRB06KT 10SM BKN055 32/19 A3020 RMK AO2 SLP216 T03220194=
200908081752 METAR KATL 081752Z 00000KT 10SM SCT050 32/19 A3022=
200908081652 METAR KATL 081652Z 10005KT 10SM SCT045 32/19 A3023 RMK AO2 SLP225 T03170194=
200908081552 METAR KATL 081552Z VRB04KT 10SM FEW035 31/22 A3025 RMK AO2 SLP232 T03060217=
200908081452 METAR KATL 081452Z 20006KT 10SM FEW035 29/22 A3025 RMK AO2 SLP230 T02890217 51012=
200908081352 METAR KATL 081352Z VRB04KT 10SM FEW250 27/22 A3024 RMK AO2 SLP228 T02720217=
200908081252 METAR KATL 081252Z 00000KT 8SM SCT250 25/21 A3023 RMK AO2 SLP226 T02500211=
200908081152 METAR KATL 081152Z 00000KT 7SM BKN250 23/21 A3021 RMK AO2 SLP219 T02330206 10261 20228 53008=
200908081052 METAR KATL 081052Z 00000KT 7SM FEW150 BKN250 23/20 A3019 RMK AO2 SLP213 T02280200=
200908080952 METAR KATL 080952Z 16004KT 9SM CLR 23/20 A3018 RMK AO2 SLP211 T02330200=
200908080852 METAR KATL 080852Z 00000KT 9SM CLR 24/19 A3019 RMK AO2 SLP210 T02390194 55000=
200908080752 METAR KATL 080752Z 12003KT 10SM CLR 24/19 A3018 RMK AO2 SLP207 T02440194=
200908080652 METAR KATL 080652Z 00000KT 10SM CLR 26/19 A3018 RMK AO2 SLP208 T02560194=
200908080552 METAR KATL 080552Z 14004KT 10SM CLR 26/19 A3019 RMK AO2 SLP210 T02610194 10306 20261 51005=
200908080452 METAR KATL 080452Z 13003KT 10SM CLR 27/19 A3019 RMK AO2 SLP210 T02720194 403280222=
200908080352 METAR KATL 080352Z 14003KT 10SM CLR 27/19 A3018 RMK AO2 SLP207 T02720189=
200908080252 METAR KATL 080252Z 14004KT 10SM CLR 28/19 A3017 RMK AO2 SLP205 T02830189 53018=
200908080152 METAR KATL 080152Z 13003KT 10SM CLR 29/18 A3015 RMK AO2 SLP198 T02940178=
200908080052 METAR KATL 080052Z 10005KT 10SM CLR 29/18 A3013 RMK AO2 SLP191 T02890178=
200908072352 METAR KATL 072352Z 10006KT 10SM CLR 31/18 A3012 RMK AO2 SLP187 T03060178 10328 20306 53001=
200908072252 METAR KATL 072252Z 06005KT 10SM FEW065 32/17 A3011 RMK AO2 SLP186 T03170172=
200908072152 METAR KATL 072152Z 12004KT 10SM FEW060 SCT250 31/17 A3011 RMK AO2 SLP187 T03110172=
200908072052 METAR KATL 072052Z VRB03KT 10SM FEW060 32/17 A3011 RMK AO2 SLP186 T03170172 58015=
200908071952 METAR KATL 071952Z VRB03KT 10SM FEW055 32/18 A3013 RMK AO2 SLP191 T03170178=
200908071852 METAR KATL 071852Z 15006G16KT 10SM SCT055 31/18 A3015 RMK AO2 SLP198 T03110178=
200908071752 METAR KATL 071752Z 15006KT 10SM SCT050 31/19 A3016 RMK AO2 SLP201 T03110194 10311 20228 58002=
200908071652 METAR KATL 071652Z 16005KT 10SM SCT045 31/20 A3017 RMK AO2 SLP205 T03060200=
200908071552 METAR KATL 071552Z 16008KT 10SM FEW040 29/20 A3018 RMK AO2 SLP208 T02890200=
200908071452 METAR KATL 071452Z 14008KT 10SM CLR 28/20 A3016 RMK AO2 SLP203 T02780200 51010=
200908071352 METAR KATL 071352Z 12006KT 10SM FEW250 26/20 A3016 RMK AO2 SLP203 T02610200=
200908071252 METAR KATL 071252Z 09007KT 10SM FEW250 24/19 A3015 RMK AO2 SLP200 T02390194=
200908071152 METAR KATL 071152Z COR 08006KT 9SM FEW250 23/19 A3013 RMK AO2 SLP193 T02280194 10239 20222 53019=
200908071052 METAR KATL 071052Z 06006KT 9SM CLR 23/19 A3010 RMK AO2 SLP183 T02280189=
200908070952 METAR KATL 070952Z 06005KT 10SM CLR 23/18 A3008 RMK AO2 SLP176 T02280183=
200908070852 METAR KATL 070852Z 01003KT 10SM CLR 23/18 A3008 RMK AO2 SLP174 T02280183 53001=
200908070752 METAR KATL 070752Z 36005KT 10SM CLR 23/18 A3007 RMK AO2 SLP172 T02330183=
200908070652 METAR KATL 070652Z 00000KT 9SM CLR 23/18 A3007 RMK AO2 SLP173 T02330183=
200908070552 METAR KATL 070552Z 33003KT 10SM CLR 24/18 A3007 RMK AO2 SLP173 T02390183 10289 20239 50000=
200908070452 METAR KATL 070452Z 34005KT 10SM CLR 24/18 A3008 RMK AO2 SLP176 T02440183 403170211=
200908070352 METAR KATL 070352Z 32004KT 10SM CLR 25/18 A3007 RMK AO2 SLP171 T02500183=
200908070252 METAR KATL 070252Z 34005KT 10SM CLR 26/18 A3007=
200908070152 METAR KATL 070152Z 33006KT 10SM CLR 27/18 A3006 RMK AO2 SLP169 T02670183=
200908070052 METAR KATL 070052Z 33006KT 10SM CLR 28/18 A3004 RMK AO2 SLP160 T02780183=
200908062352 METAR KATL 062352Z 33008KT 10SM FEW060 29/18 A3002 RMK AO2 SLP154 T02940178 10317 20294 53001=
200908062252 METAR KATL 062252Z 32009KT 10SM FEW060 30/17 A3000 RMK AO2 SLP149 T03000167=
200908062152 METAR KATL 062152Z 31007KT 10SM FEW060 31/18 A3001 RMK AO2 SLP151 T03110178=
200908062052 METAR KATL 062052Z 36008KT 10SM FEW060 SCT200 SCT250 32/18 A3001 RMK AO2 SLP152 T03170178 56011=
200908061952 METAR KATL 061952Z 30008KT 10SM FEW050 SCT250 32/19 A3002 RMK AO2 SLP154 T03170189=
200908061852 METAR KATL 061852Z 31007KT 10SM FEW050 BKN250 31/19 A3003 RMK AO2 SLP157 T03060189=
200908061752 METAR KATL 061752Z 32004KT 10SM FEW040 SCT200 BKN250 29/19 A3004 RMK AO2 SLP163 60001 T02940194 10294 20217 58006=
200908061652 METAR KATL 061652Z 31009KT 10SM FEW040 SCT200 BKN250 29/19 A3006 RMK AO2 SLP167 T02890189=
200908061552 METAR KATL 061552Z 00000KT 10SM FEW035 SCT200 BKN250 28/20 A3006 RMK AO2 SLP167 T02780200=
200908061452 METAR KATL 061452Z 31004KT 10SM FEW150 SCT200 BKN250 27/20 A3006 RMK AO2 SLP169 60001 T02670200 51012=
200908061352 METAR KATL 061352Z 00000KT 10SM FEW150 SCT200 BKN250 26/19 A3005 RMK AO2 SLP165 T02610189=
200908061252 METAR KATL 061252Z VRB05KT 10SM SCT150 BKN250 24/19 A3004 RMK AO2 SLP162 T02390194=
200908061152 METAR KATL 061152Z 33005KT 10SM SCT150 SCT250 22/19 A3003 RMK AO2 SLP157 T02170194 10239 20211 53007=
200908061052 METAR KATL 061052Z 34007KT 10SM FEW150 SCT250 22/19 A3001 RMK AO2 SLP152 T02170189=
200908060952 METAR KATL 060952Z 33006KT 10SM SCT180 22/19 A3000 RMK AO2 SLP149 T02220189=
200908060852 METAR KATL 060852Z 32006KT 10SM BKN180 OVC250 23/19 A3000 RMK AO2 SLP149 T02280194 55002=
200908060752 METAR KATL 060752Z 33009KT 10SM BKN180 23/19 A2999 RMK AO2 SLP144 T02280194=
200908060652 METAR KATL 060652Z 32007KT 10SM SCT150 BKN250 23/19 A3000 RMK AO2 SLP147 T02280194=
200908060552 METAR KATL 060552Z 30004KT 10SM SCT150 BKN250 24/19 A3001 RMK AO2 SLP150 T02390194 10289 20239 53000=
200908060452 METAR KATL 060452Z 31005KT 10SM FEW050 OVC150 24/20 A3001 RMK AO2 SLP150 T02440200 403330228=
200908060352 METAR KATL 060352Z 28003KT 10SM SCT150 BKN250 24/20 A3001 RMK AO2 SLP149 T02440200=
200908060252 METAR KATL 060252Z 00000KT 10SM BKN250 26/19 A3001 RMK AO2 SLP150 T02560194 51011=
200908060152 METAR KATL 060152Z 28004KT 10SM FEW150 BKN250 26/19 A3001 RMK AO2 SLP150 T02610194=
200908060052 METAR KATL 060052Z 29006KT 10SM FEW050 SCT150 BKN250 27/19 A3000 RMK AO2 SLP149 T02720189=
200908052352 METAR KATL 052352Z 33009G18KT 10SM FEW150 SCT200 BKN250 29/18 A2998 RMK AO2 SLP139 T02890183 10333 20289 53002=
200908052252 METAR KATL 052252Z 30009KT 10SM FEW150 SCT250 30/19 A2996 RMK AO2 SLP133 T03000189=
200908052152 METAR KATL 052152Z 29010KT 10SM FEW150 SCT250 31/19 A2998 RMK AO2 SLP141 CB DSNT SE-S T03060194=
200908052052 METAR KATL 052052Z 28011G19KT 10SM FEW055 BKN250 31/18 A2997 RMK AO2 SLP138 T03110178 56017=
200908051952 METAR KATL 051952Z 31011KT 10SM FEW055 BKN280 32/17 A2998 RMK AO2 SLP140 CB DSNT SE TCU DSNT NE T03220172=
200908051852 METAR KATL 051852Z 28010G16KT 10SM FEW050 SCT120 BKN280 32/20 A3001 RMK AO2 SLP149 CB DSNT SE-S TCU DSNT E & SE T03220200=
200908051752 METAR KATL 051752Z 27009G16KT 10SM FEW055 SCT120 SCT280 33/21 A3002 RMK AO2 SLP155 T03280206 10328 20233 58005=
200908051652 METAR KATL 051652Z 29009G17KT 10SM FEW045 SCT120 SCT280 32/21 A3004 RMK AO2 SLP160 CB DSNT NE-E T03170211=
200908051552 METAR KATL 051552Z COR 26010KT 10SM FEW040 SCT280 31/21 A3005 RMK AO2 SLP163 T03060206=
200908051452 METAR KATL 051452Z 22009KT 10SM SCT120 SCT280 29/22 A3004 RMK AO2 SLP160 T02940217 51002=
200908051352 METAR KATL 051352Z 23003KT 10SM FEW150 SCT280 27/23 A3004 RMK AO2 SLP161 T02720228=
200908051252 METAR KATL 051252Z 25005KT 8SM SCT250 26/22 A3004 RMK AO2 SLP162 T02560217=
200908051152 METAR KATL 051152Z 23005KT 9SM FEW015 SCT150 SCT250 24/21 A3003 RMK AO2 SLP158 TCU DSNT SE T02390211 10239 20228 51006=
200908051052 METAR KATL 051052Z 26005KT 8SM FEW015 SCT150 SCT250 23/21 A3003 RMK AO2 SLP158 T02280206=
200908050952 METAR KATL 050952Z 00000KT 10SM CLR 23/21 A3002 RMK AO2 SLP152 T02330206=
200908050852 METAR KATL 050852Z 29007KT 10SM CLR 23/21 A3001 RMK AO2 SLP151 T02330206 56007=
200908050752 METAR KATL 050752Z 28006KT 8SM SCT250 24/21 A3001 RMK AO2 SLP151 T02390206=
200908050652 METAR KATL 050652Z 26004KT 10SM FEW250 24/21 A3003 RMK AO2 SLP156 T02390211=
200908050552 METAR KATL 050552Z 00000KT 10SM CLR 24/22 A3003 RMK AO2 SLP158 T02390217 10278 20239 58006=
200908050452 METAR KATL 050452Z 27005KT 10SM FEW200 24/21 A3005 RMK AO2 SLP164 T02440206 403330228=
200908050352 METAR KATL 050352Z 30006KT 10SM FEW150 SCT250 26/20 A3006 RMK AO2 SLP166 T02560200=
200908050252 METAR KATL 050252Z 26004KT 10SM BKN250 26/19 A3005 RMK AO2 SLP164 T02560189 53009=
200908050152 METAR KATL 050152Z 22004KT 10SM FEW150 BKN250 27/20 A3004 RMK AO2 SLP159 T02720200=
200908050052 METAR KATL 050052Z 28005KT 10SM FEW045 SCT200 BKN250 27/20 A3003 RMK AO2 SLP158 CONS LTGICCG DSNT NE T02720200=
200908042352 METAR KATL 042352Z 27007KT 10SM FEW045 SCT200 BKN250 28/20 A3002 RMK AO2 SLP156 TCU DSNT N NE E AND NW T02780200 10333 20278 55001=
200908042252 METAR KATL 042252Z 24011G16KT 10SM FEW045TCU SCT200 30/21 A3001 RMK AO2 SLP151 TCU OHD-E T03000206=
200908042152 METAR KATL 042152Z 25006KT 10SM SCT050TCU SCT200 33/21 A3002 RMK AO2 SLP153 TCU NE-SE-SW T03280211=
200908042052 METAR KATL 042052Z 34003KT 10SM FEW045CB SCT055TCU BKN280 32/20 A3003 RMK AO2 SLP156 CB E-SE-S MOV SE TCU N-NE-E & SW SHRA E-SE-S T03220200 56019=
200908042028 SPECI KATL 042028Z 32007KT 10SM FEW045CB BKN055TCU BKN280 32/20 A3003 RMK AO2 CB N & S MOV E CB DSNT NE TCU NE & NW SHRA N & S=
200908042028 SPECI KATL 042028Z 32007KT 10SM FEW045CB BKN055TCU BKN280 32/20 A3003 RMK AO2 CB N & S MOV E CB DSNT NE TCU NE & NW SHRA N & S=
200908042012 SPECI KATL 042012Z 27008KT 10SM FEW050CB SCT055TCU 32/20 A3004 RMK AO2 CB NW-N MOV SE CB DSNT NE TCU S-SW SHRA NW-N & DSNT NE=
200908042012 SPECI KATL 042012Z 27008KT 10SM FEW050CB SCT055TCU 32/20 A3004 RMK AO2 CB NW-N MOV SE CB DSNT NE TCU S-SW SHRA NW-N & DSNT NE=
200908041952 METAR KATL 041952Z 32007KT 10SM SCT055TCU 33/21 A3004 RMK AO2 SLP161 TCU SW & NW-N T03280206=
200908041852 METAR KATL 041852Z 26011KT 10SM SCT050 32/21 A3006 RMK AO2 SLP167 TCU DSNT SE & DSNT NW-N T03220206=
200908041752 METAR KATL 041752Z 32005KT 10SM SCT050TCU 32/21 A3009 RMK AO2 SLP176 TCU=
200908041652 METAR KATL 041652Z VRB06KT 10SM SCT045 31/21 A3009 RMK AO2 SLP179 TCU DSNT NE T03060206=
200908041552 METAR KATL 041552Z 26004KT 10SM SCT038TCU 30/22 A3010 RMK AO2 SLP182 TCU N-NE & SE-S & NW T03000217=
200908041452 METAR KATL 041452Z 24006KT 10SM FEW030 SCT280 29/22 A3010 RMK AO2 SLP180 T02940222 55000=
200908041352 METAR KATL 041352Z 26005KT 10SM FEW280 28/22 A3009 RMK AO2 SLP178 T02830217=
200908041252 METAR KATL 041252Z 28005KT 7SM FEW150 26/22 A3009 RMK AO2 SLP179 T02610222=
200908041152 METAR KATL 041152Z 29005KT 7SM FEW150 24/22 A3010 RMK AO2 SLP181 T02390222 10244 20228 51008=
200908041052 METAR KATL 041052Z 29005KT 6SM BR FEW070 23/22 A3009 RMK AO2 SLP178 T02280217=
200908040952 METAR KATL 040952Z 00000KT 7SM FEW200 23/22 A3008 RMK AO2 SLP176 T02280217=
200908040852 METAR KATL 040852Z 00000KT 7SM FEW200 23/22 A3007 RMK AO2 SLP171 T02330217 55001=
200908040752 METAR KATL 040752Z 27003KT 7SM FEW050 23/22 A3007 RMK AO2 SLP171 T02330217=
200908040652 METAR KATL 040652Z 24004KT 7SM FEW050 SCT200 24/22 A3007 RMK AO2 SLP172 T02390222=
200908040552 METAR KATL 040552Z 26003KT 7SM FEW200 24/22 A3008 RMK AO2 SLP173 T02440222 10283 20239 58000=
200908040452 METAR KATL 040452Z 22004KT 9SM FEW200 24/22 A3009 RMK AO2 SLP177 T02390222 403220222=
200908040352 METAR KATL 040352Z 21004KT 10SM FEW200 24/22 A3008 RMK AO2 SLP176 T02440217=
200908040252 METAR KATL 040252Z 24003KT 9SM FEW250 26/21 A3008 RMK AO2 SLP174 T02560211 53013=
200908040152 METAR KATL 040152Z 00000KT 10SM CLR 26/21 A3006 RMK AO2 SLP168 T02560211=
200908040052 METAR KATL 040052Z 22003KT 10SM FEW050 27/22 A3004 RMK AO2 SLP164 T02670217=
200908032352 METAR KATL 032352Z 23004KT 10SM FEW050 28/21 A3004 RMK AO2 SLP160 T02830211 10322 20283 52002=
200908032252 METAR KATL 032252Z 23008KT 10SM FEW050 29/21 A3003 RMK AO2 SLP157 T02890206=
200908032152 METAR KATL 032152Z 25010G19KT 10SM SCT045TCU BKN060 BKN200 29/22 A3004 RMK AO2 SLP160 TCU SE AND SW-W T02940222=
200908032052 METAR KATL 032052Z COR 29006KT 10SM FEW055 SCT200 32/20 A3003 RMK AO2 SLP157 CB DSNT SE-S SHRA DSNT SE-S T03170200 58016=
200908031952 METAR KATL 031952Z 00000KT 10SM SCT050 SCT200 30/21 A3005 RMK AO2 SLP163 CB DSNT SE SHRA DSNT SE T03000206=
200908031852 METAR KATL 031852Z 31004KT 10SM FEW045 SCT200 31/21 A3006 RMK AO2 TSB32E50 SLP169 OCNL LTGICCG DSNT SE-S TS MOV SE CB DSNT SE-S SHRA DSNT SE-S T03110206=
200908031832 SPECI KATL 031832Z 30005G17KT 10SM TS FEW040CB SCT050TCU SCT200 31/21 A3007 RMK AO2 TSB32 OCNL LTGICCG S TS S MOV SE TCU SE & SW SHRA S=
200908031832 SPECI KATL 031832Z 30005G17KT 10SM TS FEW040CB SCT050TCU SCT200 31/21 A3007 RMK AO2 TSB32 OCNL LTGICCG S TS S MOV SE TCU SE & SW SHRA S=
200908031830 SPECI KATL 031830Z 31006G17KT 10SM FEW040CB SCT050TCU SCT200 31/21 A3007 RMK AO2 CB S MOV SE TCU SE & SW SHRA S=
200908031830 SPECI KATL 031830Z 31006G17KT 10SM FEW040CB SCT050TCU SCT200 31/21 A3007 RMK AO2 CB S MOV SE TCU SE & SW SHRA S=
200908031752 METAR KATL 031752Z 33007KT 10SM BKN035 30/21 A3008 RMK AO2 SLP174 CB DSNT SW TCU DSNT SE & S & W T03000211 10306 20228 58013=
200908031652 METAR KATL 031652Z VRB04KT 10SM BKN033 30/22 A3010 RMK AO2 SLP180 T03000217=
200908031552 METAR KATL 031552Z VRB06KT 10SM SCT023TCU 29/22 A3012 RMK AO2 SLP188 TCU NE-SE & NW T02890222=
200908031452 METAR KATL 031452Z 24004KT 10SM FEW015 27/23 A3011 RMK AO2 SLP188 T02670228 51012=
200908031352 METAR KATL 031352Z 27004KT 6SM BR FEW006 24/23 A3011 RMK AO2 SLP187 T02440228=
200908031340 SPECI KATL 031340Z 32006KT 6SM BR BKN006 24/23 A3011 RMK AO2=
200908031340 SPECI KATL 031340Z 32006KT 6SM BR BKN006 24/23 A3011 RMK AO2=
200908031252 METAR KATL 031252Z 31004KT 5SM BR BKN004 23/22 A3009 RMK AO2 SLP180 T02330222=
200908031214 SPECI KATL 031214Z 23003KT 4SM BR BKN003 23/22 A3008 RMK AO2=
200908031214 SPECI KATL 031214Z 23003KT 4SM BR BKN003 23/22 A3008 RMK AO2=
200908031152 METAR KATL 031152Z 24004KT 2 1/2SM BR BKN003 23/23 A3008 RMK AO2 SFC VIS 4 SLP176 70101 T02330228 10233 20222 53012=
200908031128 SPECI KATL 031128Z 28005KT 2 1/2SM BR OVC003 22/22 A3007 RMK AO2 SFC VIS 3=
200908031128 SPECI KATL 031128Z 28005KT 2 1/2SM BR OVC003 22/22 A3007 RMK AO2 SFC VIS 3=
200908031052 METAR KATL 031052Z 29004KT 5SM BR BKN003 BKN006 23/22 A3006 RMK AO2 SLP170 T02280222=
200908031012 SPECI KATL 031012Z 28003KT 5SM BR OVC003 23/23 A3005 RMK AO2=
200908031012 SPECI KATL 031012Z 28003KT 5SM BR OVC003 23/23 A3005 RMK AO2=
200908030952 METAR KATL 030952Z 27006KT 3SM BR OVC001 23/22 A3005 RMK AO2 SLP165 T02280222=
200908030919 SPECI KATL 030919Z 27005KT 2 1/2SM BR OVC001 23/22 A3004 RMK AO2=
200908030919 SPECI KATL 030919Z 27005KT 2 1/2SM BR OVC001 23/22 A3004 RMK AO2=
200908030852 METAR KATL 030852Z 27008KT 4SM BR OVC003 23/22 A3004 RMK AO2 SLP165 T02280222 53003=
200908030752 METAR KATL 030752Z 26007KT 4SM BR OVC001 23/22 A3004 RMK AO2 SLP162 T02280222=
200908030652 METAR KATL 030652Z 27006KT 2SM BR OVC001 23/23 A3003 RMK AO2 SLP160 T02280228=
200908030649 SPECI KATL 030649Z 26006KT 1 3/4SM R09R/6000VP6000FT BR OVC001 23/22 A3003 RMK AO2=
200908030649 SPECI KATL 030649Z 26006KT 1 3/4SM R09R/6000VP6000FT BR OVC001 23/22 A3003 RMK AO2=
200908030552 METAR KATL 030552Z 23006KT 1/2SM R09R/2800V3500FT FG VV001 23/23 A3004 RMK AO2 SLP163 T02280228 10244 20222 58003=
200908030519 SPECI KATL 030519Z 24005KT 1/2SM R09R/2000V2600FT FG VV001 22/22 A3005 RMK AO2=
200908030519 SPECI KATL 030519Z 24005KT 1/2SM R09R/2000V2600FT FG VV001 22/22 A3005 RMK AO2=
200908030452 METAR KATL 030452Z 25005KT 1 1/2SM R09R/2200V5500FT BR OVC003 22/22 A3005 RMK AO2 SLP167 T02220222 402830222=
200908030448 SPECI KATL 030448Z 23004KT 1 1/2SM R09R/3000VP6000FT BR OVC003 22/22 A3005 RMK AO2 402830222=
200908030448 SPECI KATL 030448Z 23004KT 1 1/2SM R09R/3000VP6000FT BR OVC003 22/22 A3005 RMK AO2 402830222=
200908030414 SPECI KATL 030414Z 23003KT 8SM BKN003 22/22 A3006 RMK AO2=
200908030414 SPECI KATL 030414Z 23003KT 8SM BKN003 22/22 A3006 RMK AO2=
200908030352 METAR KATL 030352Z 19003KT 9SM FEW003 22/22 A3005 RMK AO2 SLP168 T02220217=
200908030310 SPECI KATL 030310Z 20003KT 9SM FEW003 23/22 A3005 RMK AO2=
200908030310 SPECI KATL 030310Z 20003KT 9SM FEW003 23/22 A3005 RMK AO2=
200908030252 METAR KATL 030252Z 22003KT 9SM FEW110 SCT150 23/22 A3005 RMK AO2 SLP168 T02280222 53014=
200908030152 METAR KATL 030152Z 20003KT 10SM FEW110 SCT150 23/22 A3003 RMK AO2 SLP161 T02280222=
200908030052 METAR KATL 030052Z 23004KT 10SM FEW085 SCT110 SCT150 23/22 A3002 RMK AO2 SLP155 T02330222=
200908022352 METAR KATL 022352Z 23007KT 10SM FEW007 SCT085 SCT110 BKN150 BKN250 24/22 A3001 RMK AO2 RAE18 SLP153 P0000 60101 T02390222 10283 20228 53002=
200908022333 SPECI KATL 022333Z 20007KT 10SM FEW007 BKN110 BKN250 24/23 A3001 RMK AO2 RAE18 P0000=
200908022333 SPECI KATL 022333Z 20007KT 10SM FEW007 BKN110 BKN250 24/23 A3001 RMK AO2 RAE18 P0000=
200908022252 METAR KATL 022252Z 22004KT 9SM -RA FEW060 BKN085 BKN250 24/23 A3000 RMK AO2 TSE13RAB47 SLP151 CB DSNT SE-SW TS MOV SE P0000 T02440233=
200908022213 SPECI KATL 022213Z 24004KT 9SM FEW041 SCT060 BKN090 BKN250 25/23 A3000 RMK AO2 TSE13 CB DSNT SE-SW TS MOV SE=
200908022213 SPECI KATL 022213Z 24004KT 9SM FEW041 SCT060 BKN090 BKN250 25/23 A3000 RMK AO2 TSE13 CB DSNT SE-SW TS MOV SE=
200908022152 METAR KATL 022152Z 26005KT 10SM TS FEW041CB SCT060 BKN100 BKN250 25/23 A3000 RMK AO2 RAE35 SLP151 OCNL LTGIC NE AND S-SE TS NE AND S-SE MOV E P0006 T02500228 $=
200908022122 SPECI KATL 022122Z 29003KT 10SM -TSRA FEW014 SCT041CB BKN070 BKN250 24/22 A3000 RMK AO2 OCNL LTGIC NE TS NE MOV E P0006 $=
200908022122 SPECI KATL 022122Z 29003KT 10SM -TSRA FEW014 SCT041CB BKN070 BKN250 24/22 A3000 RMK AO2 OCNL LTGIC NE TS NE MOV E P0006 $=
200908022110 SPECI KATL 022110Z 00000KT 6SM -TSRA BR BKN014CB BKN065 BKN100 BKN250 24/23 A3000 RMK AO2 OCNL LTGIC SE TS SE MOV E P0006 $=
200908022110 SPECI KATL 022110Z 00000KT 6SM -TSRA BR BKN014CB BKN065 BKN100 BKN250 24/23 A3000 RMK AO2 OCNL LTGIC SE TS SE MOV E P0006 $=
200908022052 METAR KATL 022052Z 19007KT 2SM R09R/3000VP6000FT TSRA BR FEW014 BKN030CB OVC042 23/22 A3000 RMK AO2 TSE17B35RAB1953 SLP151 FRQ LTGICCG OHD-W-NW TS OHD-W-NW CB OHD-ALQDS MOV E P0087 60095 T02280222 56010=
200908022038 SPECI KATL 022038Z 31004KT 3/4SM R09R/2600VP6000FT +TSRA BR FEW014 BKN030CB BKN042 23/22 A3001 RMK AO2 FRQ LTGICCG W-NW TS W-NW CB OHD-ALQDS MOV E P0055=
200908022038 SPECI KATL 022038Z 31004KT 3/4SM R09R/2600VP6000FT +TSRA BR FEW014 BKN030CB BKN042 23/22 A3001 RMK AO2 FRQ LTGICCG W-NW TS W-NW CB OHD-ALQDS MOV E P0055=
200908022017 SPECI KATL 022017Z VRB04KT 8SM -RA FEW006 BKN042CB BKN050 26/22 A3000 RMK AO2 CB E-SE AND SW-NW MOV E SHRA E-SE AND SW-NW P0038=
200908022017 SPECI KATL 022017Z VRB04KT 8SM -RA FEW006 BKN042CB BKN050 26/22 A3000 RMK AO2 CB E-SE AND SW-NW MOV E SHRA E-SE AND SW-NW P0038=
200908022008 SPECI KATL 022008Z 21005G24KT 3/4SM R09R/1600VP6000FT +TSRA FEW001 BKN036CB OVC050 24/21 A3000 RMK AO2 OCNL LTGIC NE TS NE MOV E CB OHD-ALQDS MOV E P0038=
200908022008 SPECI KATL 022008Z 21005G24KT 3/4SM R09R/1600VP6000FT +TSRA FEW001 BKN036CB OVC050 24/21 A3000 RMK AO2 OCNL LTGIC NE TS NE MOV E CB OHD-ALQDS MOV E P0038=
200908021952 METAR KATL 021952Z COR 30005KT 6SM TS BR SCT022CB BKN029 OVC060 25/23 A3001 RMK AO2 TSB36RAB14 SLP152 OCNL LTGIC NE TS NE MOV E CB OHD-ALQDS MOV E SHRA N-NE AND SW-W P0008 T02500228 $=
200908021936 SPECI KATL 021936Z 28004KT 7SM -TSRA BKN029CB BKN044 BKN055 26/23 A3001 RMK AO2 TSB36RAB14 OCNL LTGIC N TS N MOV E CB N AND SE-OHD-W-NW MOV E SHRA E-SE P0006 $=
200908021936 SPECI KATL 021936Z 28004KT 7SM -TSRA BKN029CB BKN044 BKN055 26/23 A3001 RMK AO2 TSB36RAB14 OCNL LTGIC N TS N MOV E CB N AND SE-OHD-W-NW MOV E SHRA E-SE P0006 $=
200908021925 SPECI KATL 021925Z 19004G14KT 6SM R09R/3500VP6000FT +RA SCT027CB BKN044 BKN055 26/22 A3001 RMK AO2 RAB14 CB OHD-W-NW MOV E VIS SE-SW 1 SHRA P0006 $=
200908021925 SPECI KATL 021925Z 19004G14KT 6SM R09R/3500VP6000FT +RA SCT027CB BKN044 BKN055 26/22 A3001 RMK AO2 RAB14 CB OHD-W-NW MOV E VIS SE-SW 1 SHRA P0006 $=
200908021913 SPECI KATL 021913Z 27007KT 10SM SCT032TCU SCT050 BKN060 28/22 A3001 RMK AO2 TCU OHD-W-NW MOV E CB DSNT SW SHRA SW-W=
200908021913 SPECI KATL 021913Z 27007KT 10SM SCT032TCU SCT050 BKN060 28/22 A3001 RMK AO2 TCU OHD-W-NW MOV E CB DSNT SW SHRA SW-W=
200908021852 METAR KATL 021852Z 32007KT 9SM SCT029 BKN038 BKN047 28/22 A3002 RMK AO2 SLP155 CB DSNT SW T02830217=
200908021824 SPECI KATL 021824Z 25007KT 9SM SCT027 BKN037 BKN042 28/22 A3003 RMK AO2 CB DSNT SW=
200908021824 SPECI KATL 021824Z 25007KT 9SM SCT027 BKN037 BKN042 28/22 A3003 RMK AO2 CB DSNT SW=
200908021752 METAR KATL 021752Z COR 28007KT 9SM BKN025 BKN032 BKN042 28/22 A3004 RMK AO2 SLP160 CB DSNT SW T02780222 10278 20228 58010=
200908021731 SPECI KATL 021731Z 26008KT 9SM SCT022 SCT029 BKN034 28/22 A3005 RMK AO2=
200908021731 SPECI KATL 021731Z 26008KT 9SM SCT022 SCT029 BKN034 28/22 A3005 RMK AO2=
200908021652 METAR KATL 021652Z VRB03KT 9SM BKN020 BKN027 OVC200 26/22 A3006 RMK AO2 SLP169 T02610217=
200908021552 METAR KATL 021552Z 29008KT 7SM BKN016 OVC024 26/22 A3007 RMK AO2 SLP172 T02560222=
200908021452 METAR KATL 021452Z 28007KT 10SM BKN016 OVC022 25/22 A3007 RMK AO2 SLP171 T02500217 51010=
200908021352 METAR KATL 021352Z 26007KT 10SM OVC010 24/22 A3006 RMK AO2 SLP170 T02390217=
200908021316 SPECI KATL 021316Z 25008KT 10SM BKN012 OVC016 23/21 A3005 RMK AO2=
200908021316 SPECI KATL 021316Z 25008KT 10SM BKN012 OVC016 23/21 A3005 RMK AO2=
200908021302 SPECI KATL 021302Z 24007KT 10SM FEW010 BKN016 BKN100 OVC200 23/21 A3005 RMK AO2=
200908021302 SPECI KATL 021302Z 24007KT 10SM FEW010 BKN016 BKN100 OVC200 23/21 A3005 RMK AO2=
200908021252 METAR KATL 021252Z 25007KT 10SM BKN014 BKN100 OVC200 23/22 A3005 RMK AO2 SLP166 T02330217=
200908021220 SPECI KATL 021220Z 25006KT 10SM BKN010 OVC100 23/21 A3004 RMK AO2=
200908021220 SPECI KATL 021220Z 25006KT 10SM BKN010 OVC100 23/21 A3004 RMK AO2=
200908021152 METAR KATL 021152Z 26006KT 10SM BKN008 BKN014 OVC110 23/22 A3004 RMK AO2 RAB23E34 SLP160 P0000 60000 70002 T02280217 10244 20228 53004=
200908021149 SPECI KATL 021149Z 25005KT 10SM BKN008 BKN014 OVC110 23/22 A3004 RMK AO2 RAB23E34 P0000=
200908021149 SPECI KATL 021149Z 25005KT 10SM BKN008 BKN014 OVC110 23/22 A3004 RMK AO2 RAB23E34 P0000=
200908021052 METAR KATL 021052Z 25004KT 10SM SCT007 BKN100 OVC200 23/22 A3003 RMK AO2 SLP157 T02280217=
200908021006 SPECI KATL 021006Z 24006KT 10SM SCT007 BKN100 OVC200 23/22 A3001 RMK AO2=
200908021006 SPECI KATL 021006Z 24006KT 10SM SCT007 BKN100 OVC200 23/22 A3001 RMK AO2=
200908020952 METAR KATL 020952Z 23004KT 10SM OVC007 23/22 A3001 RMK AO2 SLP152 T02330222=
200908020852 METAR KATL 020852Z 23004KT 10SM BKN007 OVC100 23/23 A3002 RMK AO2 RAB01E28 SLP156 P0000 60000 T02330228 58003=
200908020752 METAR KATL 020752Z 21004KT 10SM BKN007 BKN110 OVC200 23/23 A3003 RMK AO2 SLP158 T02330228=
200908020714 SPECI KATL 020714Z 00000KT 10SM BKN007 BKN030 BKN120 OVC200 23/23 A3004 RMK AO2=
200908020714 SPECI KATL 020714Z 00000KT 10SM BKN007 BKN030 BKN120 OVC200 23/23 A3004 RMK AO2=
200908020707 SPECI KATL 020707Z 23003KT 10SM FEW007 SCT030 BKN120 BKN200 23/23 A3004 RMK AO2=
200908020707 SPECI KATL 020707Z 23003KT 10SM FEW007 SCT030 BKN120 BKN200 23/23 A3004 RMK AO2=
200908020652 METAR KATL 020652Z 21003KT 10SM FEW031 SCT070 SCT120 BKN200 24/23 A3003 RMK AO2 RAE17 SLP159 P0000 T02390228=
200908020552 METAR KATL 020552Z 00000KT 10SM -RA FEW016 BKN033 BKN070 OVC200 24/23 A3003 RMK AO2 RAB09 SLP159 P0001 60001 T02440228 10289 20244 58012=
200908020452 METAR KATL 020452Z 29003KT 10SM SCT016 SCT080 OVC250 24/22 A3006 RMK AO2 RAE05 SLP168 P0000 T02440222 403170228=
200908020444 SPECI KATL 020444Z 27005KT 10SM SCT016 SCT080 OVC250 24/22 A3006 RMK AO2 RAE05 P0000=
200908020444 SPECI KATL 020444Z 27005KT 10SM SCT016 SCT080 OVC250 24/22 A3006 RMK AO2 RAE05 P0000=
200908020416 SPECI KATL 020416Z 25006KT 10SM BKN018 BKN042 OVC070 26/22 A3008 RMK AO2 RAE05 P0000=
200908020416 SPECI KATL 020416Z 25006KT 10SM BKN018 BKN042 OVC070 26/22 A3008 RMK AO2 RAE05 P0000=
200908020352 METAR KATL 020352Z 25009KT 10SM -RA SCT042TCU BKN070 OVC200 26/22 A3007 RMK AO2 RAB51 SLP173 OCNL LTG NE CB DSNT NE TCU NW P0000 T02610217=
200908020252 METAR KATL 020252Z 22011KT 10SM FEW033 SCT120 OVC200 27/22 A3007 RMK AO2 SLP171 OCNL LTG DSNT NW CB DSNT NW T02670222 51012=
200908020152 METAR KATL 020152Z 22005KT 10SM FEW043 SCT065 OVC200 27/23 A3006 RMK AO2 SLP168 ONCL LTGIC DSNT NE CB DSNT NE AND SE T02720228=
200908020052 METAR KATL 020052Z 23004KT 10SM FEW043 SCT055 BKN200 28/22 A3004 RMK AO2 SLP163 T02780222=
200908012352 METAR KATL 012352Z 21006KT 10SM FEW043 OVC250 29/22 A3003 RMK AO2 SLP159 TCU DSNT NE T02890222 10317 20289 55003=
200908012252 METAR KATL 012252Z 20007KT 10SM BKN047TCU BKN250 30/21 A3003 RMK AO2 SLP158 TCU OHD-NE AND SE AND NW T03000211=
200908012152 METAR KATL 012152Z 21008KT 10SM SCT045 BKN250 31/21 A3004 RMK AO2 SLP160 CB DSNT NW SHRA DSNT NW T03060211=
200908012052 METAR KATL 012052Z COR VRB05KT 10SM SCT045 SCT075 BKN250 31/21 A3004 RMK AO2 SLP162 CB DSNT W AND NW T03110206 58018=
200908011952 METAR KATL 011952Z 20006KT 10SM SCT044TCU BKN250 31/21 A3007 RMK AO2 SLP170 TCU N SW AND NW T03110206=
200908011852 METAR KATL 011852Z 24006KT 10SM SCT043TCU SCT060 30/21 A3008 RMK AO2 SLP177 TCU SW AND DSNT NW T03000211=
200908011752 METAR KATL 011752Z 19008KT 10SM SCT035TCU BKN055 30/22 A3009 RMK AO2 SLP180 TCU OHD AND NE 60001 T03000217 10306 20233 58015=
200908011652 METAR KATL 011652Z 22006KT 10SM SCT032 BKN050 29/21 A3011 RMK AO2 SLP185 T02890211=
200908011552 METAR KATL 011552Z 25005KT 10SM SCT024TCU BKN033 BKN250 28/22 A3013 RMK AO2 SLP192 TCU E AND S T02780222=
200908011516 SPECI KATL 011516Z VRB03KT 10SM SCT019 SCT024 BKN030 28/22 A3014 RMK AO2 SCT024V BKN=
200908011516 SPECI KATL 011516Z VRB03KT 10SM SCT019 SCT024 BKN030 28/22 A3014 RMK AO2 SCT024V BKN=
200908011452 METAR KATL 011452Z 27006KT 10SM BKN017 BKN026 27/23 A3014 RMK AO2 SLP197 BKN017V SCT P0001 60001 T02670228 50002=
200908011352 METAR KATL 011352Z 25005KT 8SM SCT010 BKN018 25/22 A3015 RMK AO2 SLP201 T02500222=
200908011313 SPECI KATL 011313Z 24006KT 3SM BR SCT007 BKN015 24/23 A3015 RMK AO2 SFC VIS 6 SCT007V BKN=
200908011313 SPECI KATL 011313Z 24006KT 3SM BR SCT007 BKN015 24/23 A3015 RMK AO2 SFC VIS 6 SCT007V BKN=
200908011259 SPECI KATL 011259Z 24005KT 3SM SCT007 BKN013 OVC200 24/23 A3015 RMK AO2 SFC VIS 7=
200908011259 SPECI KATL 011259Z 24005KT 3SM SCT007 BKN013 OVC200 24/23 A3015 RMK AO2 SFC VIS 7=
200908011252 METAR KATL 011252Z 24004KT 3SM BR BKN007 BKN013 OVC200 24/23 A3014 RMK AO2 SFC VIS 6 SLP199 T02390228=
