##########################################################
# Query made at 04/19/2024 23:13:55 UTC
# Time interval: from 11/01/2009 12:00  to 11/30/2009 12:59  UTC
##########################################################

##########################################################
# KATL, Atlanta, Hartsfield - Jackson Atlanta International Airport (United States)
# WMO index: 72219. WIGOS ID: 0-20000-0-72219
# Latitude 33-38-59N. Longitude 084-25-00W. Altitude 312 m.
##########################################################

200911301252 METAR KATL 301252Z 24010G17KT 6SM BR BKN005 BKN010 13/12 A2994 RMK AO2 SLP139 T01280117=
200911301152 METAR KATL 301152Z 23008KT 7SM OVC007 13/11 A2993 RMK AO2 SLP134 70001 T01280111 10128 20094 58002=
200911301052 METAR KATL 301052Z 23005KT 10SM BKN009 BKN180 11/09 A2994 RMK AO2 SLP136 T01110094=
200911300952 METAR KATL 300952Z 22003KT 10SM FEW120 BKN180 10/08 A2994 RMK AO2 SLP135 T01000078=
200911300852 METAR KATL 300852Z 22003KT 10SM SCT110 BKN180 BKN250 10/07 A2994 RMK AO2 SLP139 T01000067 58010=
200911300752 METAR KATL 300752Z 22005KT 10SM SCT120 BKN250 10/05 A2996 RMK AO2 SLP143 T01000050=
200911300652 METAR KATL 300652Z 22006KT 10SM FEW120 BKN180 BKN250 10/04 A2996 RMK AO2 SLP144 T01000044=
200911300552 METAR KATL 300552Z 21006KT 10SM FEW120 SCT250 10/03 A2998 RMK AO2 SLP149 T01000033 10139 20100 58016=
200911300452 METAR KATL 300452Z 21004KT 10SM FEW060 SCT250 11/04 A2999 RMK AO2 SLP154 T01060039 401890067=
200911300352 METAR KATL 300352Z 22005KT 10SM FEW060 BKN250 11/04 A3001 RMK AO2 SLP162 T01060044=
200911300252 METAR KATL 300252Z 24003KT 10SM FEW120 SCT250 12/04 A3002 RMK AO2 SLP166 T01170039 53001=
200911300152 METAR KATL 300152Z 22004KT 10SM FEW070 SCT120 SCT250 12/04 A3002 RMK AO2 SLP165 T01220039=
200911300052 METAR KATL 300052Z 21004KT 10SM FEW060 SCT100 SCT250 13/03 A3002 RMK AO2 SLP166 T01330028=
200911292352 METAR KATL 292352Z 21004KT 10SM FEW060 SCT250 14/03 A3002 RMK AO2 SLP166 T01390028 10189 20133 53004=
200911292252 METAR KATL 292252Z 22004KT 10SM FEW060 BKN250 15/02 A3002 RMK AO2 SLP166 T01500022=
200911292152 METAR KATL 292152Z 19005KT 10SM FEW090 SCT150 BKN250 17/02 A3001 RMK AO2 SLP160 T01670017=
200911292052 METAR KATL 292052Z 24008KT 10SM FEW150 SCT250 18/00 A3001 RMK AO2 SLP160 T01780000 56016=
200911291952 METAR KATL 291952Z 21009KT 10SM FEW070 SCT150 SCT250 18/00 A3001 RMK AO2 SLP161 T01830000=
200911291852 METAR KATL 291852Z 21008KT 10SM FEW065 SCT120 SCT150 BKN250 17/M01 A3002 RMK AO2 SLP163 T01721006=
200911291752 METAR KATL 291752Z COR 26009KT 10SM FEW060 SCT110 BKN150 BKN250 17/02 A3006 RMK AO2 SLP177 60001 T01720022 10178 20072 58015=
200911291652 METAR KATL 291652Z 23008KT 10SM SCT055 BKN150 BKN250 16/02 A3009 RMK AO2 SLP187 T01560022=
200911291552 METAR KATL 291552Z 27007KT 10SM SCT150 BKN200 BKN250 16/04 A3010 RMK AO2 SLP191 T01560044=
200911291452 METAR KATL 291452Z 23004KT 10SM FEW120 SCT180 BKN250 13/06 A3010 RMK AO2 SLP193 60001 T01330061 51010=
200911291352 METAR KATL 291352Z 00000KT 10SM FEW100 SCT140 BKN200 09/06 A3010 RMK AO2 SLP194 T00940061=
200911291252 METAR KATL 291252Z 00000KT 10SM BKN090 BKN140 BKN200 08/06 A3009 RMK AO2 RAB1159E27 SLP190 P0001 T00780056=
200911291152 METAR KATL 291152Z 22003KT 10SM BKN120 BKN200 07/04 A3007 RMK AO2 SLP185 T00720044 10106 20067 51004=
200911291052 METAR KATL 291052Z 00000KT 10SM SCT140 BKN200 07/04 A3007 RMK AO2 SLP184 T00720039=
200911290952 METAR KATL 290952Z 29003KT 10SM BKN140 BKN200 09/04 A3007 RMK AO2 SLP183 T00890044=
200911290852 METAR KATL 290852Z 00000KT 10SM BKN150 BKN200 09/05 A3006 RMK AO2 SLP179 T00890050 58009=
200911290752 METAR KATL 290752Z 00000KT 10SM BKN150 OVC200 09/04 A3008 RMK AO2 SLP187 T00890044=
200911290652 METAR KATL 290652Z 29004KT 10SM BKN150 OVC200 10/04 A3008 RMK AO2 SLP185 T01000039=
200911290552 METAR KATL 290552Z 00000KT 10SM BKN150 OVC200 11/04 A3009 RMK AO2 SLP187 T01060039 10128 20106 58002=
200911290452 METAR KATL 290452Z 27003KT 10SM BKN150 BKN200 11/04 A3009 RMK AO2 SLP189 T01110039 401720022=
200911290352 METAR KATL 290352Z 25005KT 10SM FEW150 BKN200 12/03 A3010 RMK AO2 SLP193 T01170033=
200911290252 METAR KATL 290252Z 25005KT 10SM SCT150 BKN200 11/03 A3009 RMK AO2 SLP190 T01110033 51006=
200911290152 METAR KATL 290152Z 23004KT 10SM FEW150 BKN200 11/03 A3008 RMK AO2 SLP189 T01060033=
200911290052 METAR KATL 290052Z 24005KT 10SM SCT150 BKN200 12/03 A3008 RMK AO2 SLP190 T01170028=
200911282352 METAR KATL 282352Z 23004KT 10SM SCT180 BKN250 12/03 A3007 RMK AO2 SLP186 T01220028 10172 20117 55000=
200911282252 METAR KATL 282252Z 00000KT 10SM SCT180 BKN250 13/02 A3006 RMK AO2 SLP181 T01330017=
200911282152 METAR KATL 282152Z 05006KT 10SM BKN180 BKN200 BKN250 16/00 A3004 RMK AO2 SLP175 T01610000=
200911282052 METAR KATL 282052Z 00000KT 10SM FEW200 BKN250 17/01 A3007 RMK AO2 SLP185 T01670006 56013=
200911281952 METAR KATL 281952Z 29005KT 10SM BKN200 BKN250 16/01 A3008 RMK AO2 SLP187 T01560011=
200911281852 METAR KATL 281852Z 29005KT 10SM SCT200 BKN250 17/00 A3009 RMK AO2 SLP190 T01670000=
200911281752 METAR KATL 281752Z 30004KT 10SM FEW200 SCT250 16/M01 A3011 RMK AO2 SLP197 T01561006 10161 20028 58010=
200911281652 METAR KATL 281652Z 30010KT 10SM FEW250 14/M03 A3014 RMK AO2 SLP207 T01391028=
200911281552 METAR KATL 281552Z 31007KT 10SM SCT250 12/M02 A3015 RMK AO2 SLP212 T01171022=
200911281452 METAR KATL 281452Z 32008KT 10SM FEW250 09/M01 A3014 RMK AO2 SLP210 T00941011 53013=
200911281352 METAR KATL 281352Z 33006KT 10SM FEW250 06/M02 A3012 RMK AO2 SLP205 T00611017=
200911281252 METAR KATL 281252Z 30004KT 10SM FEW250 04/M02 A3011 RMK AO2 SLP201 T00391017=
200911281152 METAR KATL 281152Z 30007KT 10SM FEW250 03/M02 A3010 RMK AO2 SLP198 T00281022 10050 20022 53018=
200911281052 METAR KATL 281052Z 31006KT 10SM FEW250 03/M02 A3008 RMK AO2 SLP190 T00281022=
200911280952 METAR KATL 280952Z 27004KT 10SM FEW250 03/M02 A3007 RMK AO2 SLP186 T00331022=
200911280852 METAR KATL 280852Z 32006KT 10SM FEW250 03/M02 A3005 RMK AO2 SLP179 T00281022 50003=
200911280752 METAR KATL 280752Z 34003KT 10SM FEW250 05/M03 A3005 RMK AO2 SLP179 T00501028=
200911280652 METAR KATL 280652Z 00000KT 10SM FEW250 05/M03 A3005 RMK AO2 SLP179 T00501028=
200911280552 METAR KATL 280552Z 31007KT 10SM FEW250 05/M03 A3004 RMK AO2 SLP175 T00501028 10083 20050 56003=
200911280452 METAR KATL 280452Z 31007KT 10SM FEW250 06/M03 A3004 RMK AO2 SLP177 T00561028 401330006=
200911280352 METAR KATL 280352Z 31011KT 10SM FEW250 07/M03 A3004 RMK AO2 SLP176 T00671028=
200911280252 METAR KATL 280252Z 31009KT 10SM FEW250 07/M02 A3005 RMK AO2 SLP180 T00671022 51004=
200911280152 METAR KATL 280152Z 29008KT 10SM FEW250 07/M02 A3005 RMK AO2 SLP180 T00671022=
200911280052 METAR KATL 280052Z 26006KT 10SM FEW250 08/M03 A3004 RMK AO2 SLP179 T00781033=
200911272352 METAR KATL 272352Z 28007KT 10SM FEW250 08/M03 A3004 RMK AO2 SLP177 T00831033 10133 20083 53010=
200911272252 METAR KATL 272252Z 30007KT 10SM FEW250 09/M04 A3002 RMK AO2 SLP170 T00941039=
200911272152 METAR KATL 272152Z 29013KT 10SM FEW250 11/M03 A3001 RMK AO2 SLP165 T01111028=
200911272052 METAR KATL 272052Z 30009KT 10SM FEW250 13/M03 A3001 RMK AO2 SLP164 T01281033 55009=
200911271952 METAR KATL 271952Z 29015G21KT 10SM CLR 13/M04 A3000 RMK AO2 SLP163 T01281044=
200911271852 METAR KATL 271852Z 29013G16KT 10SM CLR 13/M03 A3001 RMK AO2 SLP164 T01281033=
200911271752 METAR KATL 271752Z 28015G18KT 10SM CLR 12/M03 A3003 RMK AO2 SLP174 T01171028 10117 20006 58020=
200911271652 METAR KATL 271652Z 31014KT 10SM CLR 10/M03 A3007 RMK AO2 SLP186 T01001033=
200911271552 METAR KATL 271552Z 29013G19KT 10SM CLR 08/M01 A3009 RMK AO2 SLP195 T00831006=
200911271452 METAR KATL 271452Z 29011KT 10SM CLR 06/M01 A3010 RMK AO2 SLP196 T00561006 51011=
200911271352 METAR KATL 271352Z 28009KT 10SM CLR 04/M01 A3009 RMK AO2 SLP195 T00391011=
200911271252 METAR KATL 271252Z 30006KT 10SM CLR 02/M02 A3007 RMK AO2 SLP189 T00171017=
200911271152 METAR KATL 271152Z 28005KT 10SM CLR 01/M02 A3006 RMK AO2 SLP185 T00111022 10033 20011 53001=
200911271052 METAR KATL 271052Z 29007KT 10SM CLR 01/M02 A3006 RMK AO2 SLP185 T00111022=
200911270952 METAR KATL 270952Z 28006KT 10SM CLR 02/M02 A3005 RMK AO2 SLP179 T00171022=
200911270852 METAR KATL 270852Z 29007KT 10SM CLR 02/M03 A3006 RMK AO2 SLP182 T00221028 53001=
200911270752 METAR KATL 270752Z 29008KT 10SM CLR 03/M03 A3006 RMK AO2 SLP181 T00281028=
200911270652 METAR KATL 270652Z 30008KT 10SM CLR 03/M03 A3005 RMK AO2 SLP178 T00331028=
200911270552 METAR KATL 270552Z 32010KT 10SM CLR 03/M03 A3005 RMK AO2 SLP180 T00331028 10078 20033 50002=
200911270452 METAR KATL 270452Z 32010KT 10SM CLR 04/M03 A3006 RMK AO2 SLP181 T00391028 401560039=
200911270352 METAR KATL 270352Z 32010KT 10SM CLR 04/M03 A3005 RMK AO2 SLP180 T00441028=
200911270252 METAR KATL 270252Z 31010KT 10SM CLR 05/M03 A3005 RMK AO2 SLP179 T00501028 53016=
200911270152 METAR KATL 270152Z 32008KT 10SM CLR 06/M03 A3003 RMK AO2 SLP173 T00561028=
200911270052 METAR KATL 270052Z 32012KT 10SM CLR 07/M03 A3001 RMK AO2 SLP167 T00671033=
200911262352 METAR KATL 262352Z 31016G20KT 10SM CLR 08/M03 A3000 RMK AO2 SLP163 T00781028 10144 20078 53020=
200911262252 METAR KATL 262252Z 31017G25KT 10SM CLR 08/M03 A2997 RMK AO2 PK WND 33026/2201 SLP154 T00831033=
200911262152 METAR KATL 262152Z 31016G26KT 10SM SCT055 10/M04 A2996 RMK AO2 PK WND 30027/2110 SLP148 T01001039=
200911262052 METAR KATL 262052Z 29015G24KT 10SM SCT060 12/M03 A2994 RMK AO2 SLP140 T01171033 53007=
200911261952 SPECI KATL 261952Z 27017G25KT 10SM SCT060 13/M01 A2992 RMK AO2 PK WND 30027/1914 SLP133 T01281006=
200911261852 METAR KATL 261852Z 28016G23KT 10SM BKN070 14/00 A2991 RMK AO2 PK WND 29028/1838 SLP128 T01390000=
200911261752 METAR KATL 261752Z 27014G24KT 10SM BKN065 14/M01 A2992 RMK AO2 SLP131 T01391006 10156 20039 58023=
200911261652 METAR KATL 261652Z 28007KT 10SM CLR 13/01 A2995 RMK AO2 SLP142 T01330011=
200911261552 METAR KATL 261552Z 30005KT 10SM CLR 11/02 A2997 RMK AO2 SLP152 T01110022=
200911261452 METAR KATL 261452Z 30007KT 10SM CLR 09/03 A2999 RMK AO2 SLP157 T00890028 51009=
200911261352 METAR KATL 261352Z 30007KT 10SM CLR 07/03 A2998 RMK AO2 SLP153 T00720028=
200911261252 METAR KATL 261252Z 30007KT 10SM CLR 04/02 A2998 RMK AO2 SLP155 T00440017=
200911261152 METAR KATL 261152Z 30007KT 10SM CLR 04/02 A2996 RMK AO2 SLP149 T00390017 10078 20039 55002=
200911261052 METAR KATL 261052Z 30005KT 10SM CLR 04/02 A2995 RMK AO2 SLP144 T00440017=
200911260952 METAR KATL 260952Z 28006KT 10SM CLR 05/02 A2996 RMK AO2 SLP144 T00500017=
200911260852 METAR KATL 260852Z 30006KT 10SM CLR 05/02 A2997 RMK AO2 SLP148 T00500017 58008=
200911260752 METAR KATL 260752Z 29007KT 10SM CLR 06/02 A2998 RMK AO2 SLP153 T00610022=
200911260652 METAR KATL 260652Z 29005KT 10SM CLR 08/02 A2999 RMK AO2 SLP154 T00780017=
200911260552 METAR KATL 260552Z 28003KT 10SM CLR 08/03 A2999 RMK AO2 SLP157 T00780028 10122 20078 56003=
200911260452 METAR KATL 260452Z 29005KT 10SM CLR 08/03 A3000 RMK AO2 SLP159 T00780033 401720056=
200911260352 METAR KATL 260352Z 28004KT 10SM CLR 09/04 A2999 RMK AO2 SLP158 T00890044=
200911260252 METAR KATL 260252Z 31006KT 10SM CLR 09/05 A3000 RMK AO2 SLP161 T00890050 53002=
200911260152 METAR KATL 260152Z 31005KT 10SM FEW250 10/05 A2999 RMK AO2 SLP158 T01000050=
200911260052 METAR KATL 260052Z 00000KT 10SM FEW250 10/06 A3000 RMK AO2 SLP160 T01000061=
200911252352 METAR KATL 252352Z 00000KT 10SM FEW250 12/06 A3000 RMK AO2 SLP159 T01170061 10172 20117 55001=
200911252252 METAR KATL 252252Z 29003KT 10SM FEW250 14/04 A2999 RMK AO2 SLP156 T01390044=
200911252152 METAR KATL 252152Z 30006KT 10SM FEW250 16/05 A3000 RMK AO2 SLP159 T01560050=
200911252052 METAR KATL 252052Z 32007KT 10SM FEW250 17/06 A3000 RMK AO2 SLP158 T01670056 56016=
200911251952 METAR KATL 251952Z VRB04KT 10SM FEW035 SCT200 SCT250 17/07 A3000 RMK AO2 SLP161 T01670067=
200911251852 METAR KATL 251852Z 25006KT 10SM FEW035 SCT200 SCT250 16/07 A3002 RMK AO2 SLP167 T01610072=
200911251752 METAR KATL 251752Z 34007KT 10SM FEW030 SCT200 BKN250 16/08 A3005 RMK AO2 SLP175 T01560078 10156 20072 58019=
200911251652 METAR KATL 251652Z 28008KT 10SM SCT022 SCT250 14/08 A3008 RMK AO2 SLP186 T01390083=
200911251642 SPECI KATL 251642Z 31006KT 10SM SCT020 SCT250 14/08 A3008 RMK AO2=
200911251642 SPECI KATL 251642Z 31006KT 10SM SCT020 SCT250 14/08 A3008 RMK AO2=
200911251552 METAR KATL 251552Z 31007KT 10SM FEW016 BKN022 OVC250 12/09 A3010 RMK AO2 SLP195 T01170089=
200911251452 METAR KATL 251452Z 25003KT 10SM BKN022 BKN250 11/08 A3010 RMK AO2 SLP195 T01110083 53010=
200911251352 METAR KATL 251352Z 00000KT 7SM BKN022 OVC200 10/08 A3008 RMK AO2 SLP187 T01000083=
200911251317 SPECI KATL 251317Z 00000KT 7SM BKN020 OVC200 10/08 A3008 RMK AO2=
200911251317 SPECI KATL 251317Z 00000KT 7SM BKN020 OVC200 10/08 A3008 RMK AO2=
200911251252 METAR KATL 251252Z 00000KT 7SM SCT018 BKN200 10/09 A3007 RMK AO2 SLP185 T01000089=
200911251234 SPECI KATL 251234Z 00000KT 7SM FEW018 SCT060 BKN200 09/08 A3007 RMK AO2=
200911251234 SPECI KATL 251234Z 00000KT 7SM FEW018 SCT060 BKN200 09/08 A3007 RMK AO2=
200911251152 METAR KATL 251152Z 25003KT 10SM BKN024 OVC030 08/07 A3007 RMK AO2 SLP185 T00830072 10083 20056 53002=
200911251052 METAR KATL 251052Z 30005KT 10SM OVC033 08/07 A3007 RMK AO2 SLP183 T00780072=
200911250952 METAR KATL 250952Z 00000KT 7SM BKN033 OVC045 07/07 A3006 RMK AO2 SLP181 T00720072 $=
200911250852 METAR KATL 250852Z 00000KT 6SM BR BKN039 OVC045 07/07 A3007 RMK AO2 SLP182 T00670067 56006 $=
200911250752 METAR KATL 250752Z 16003KT 3SM BR FEW002 BKN038 OVC044 06/06 A3007 RMK AO2 SLP186 T00560056 $=
200911250734 SPECI KATL 250734Z 00000KT 1/2SM R09R/2800V5000FT FG SCT002 OVC042 06/06 A3008 RMK AO2 $=
200911250734 SPECI KATL 250734Z 00000KT 1/2SM R09R/2800V5000FT FG SCT002 OVC042 06/06 A3008 RMK AO2 $=
200911250729 SPECI KATL 250729Z 00000KT 1/4SM R09R/2200V3500FT FG BKN002 OVC044 06/06 A3008 RMK AO2 $=
200911250729 SPECI KATL 250729Z 00000KT 1/4SM R09R/2200V3500FT FG BKN002 OVC044 06/06 A3008 RMK AO2 $=
200911250713 SPECI KATL 250713Z 30003KT 1/4SM R09R/1800V2200FT FG OVC002 06/06 A3008 RMK AO2 $=
200911250713 SPECI KATL 250713Z 30003KT 1/4SM R09R/1800V2200FT FG OVC002 06/06 A3008 RMK AO2 $=
200911250706 SPECI KATL 250706Z 31004KT 1/2SM R09R/2000V2400FT FG OVC002 06/06 A3008 RMK AO2 $=
200911250706 SPECI KATL 250706Z 31004KT 1/2SM R09R/2000V2400FT FG OVC002 06/06 A3008 RMK AO2 $=
200911250652 METAR KATL 250652Z 30003KT 6SM R09R/2200VP6000FT BR FEW200 SCT250 06/06 A3009 RMK AO2 SLP191 T00610056 $=
200911250552 METAR KATL 250552Z 29003KT 8SM SCT200 OVC250 07/07 A3010 RMK AO2 SLP195 T00670067 10117 20067 53002 $=
200911250452 METAR KATL 250452Z COR 17005KT 9SM SCT200 OVC250 08/07 A3009 RMK AO2 SLP192 T00780072 401390072=
200911250352 METAR KATL 250352Z 00000KT 9SM FEW020 BKN200 OVC250 09/08 A3010 RMK AO2 SLP195 T00890078=
200911250252 METAR KATL 250252Z 00000KT 10SM FEW020 BKN250 09/09 A3010 RMK AO2 SLP193 T00940089 50004=
200911250246 SPECI KATL 250246Z 00000KT 10SM FEW020 BKN250 09/09 A3010 RMK AO2=
200911250246 SPECI KATL 250246Z 00000KT 10SM FEW020 BKN250 09/09 A3010 RMK AO2=
200911250218 SPECI KATL 250218Z 18003KT 10SM BKN020 BKN250 10/09 A3010 RMK AO2=
200911250218 SPECI KATL 250218Z 18003KT 10SM BKN020 BKN250 10/09 A3010 RMK AO2=
200911250152 METAR KATL 250152Z 17003KT 10SM SCT020 BKN250 11/09 A3009 RMK AO2 SLP192 SCT020 V BKN T01060089=
200911250144 SPECI KATL 250144Z 15003KT 10SM BKN018 BKN250 11/09 A3009 RMK AO2=
200911250144 SPECI KATL 250144Z 15003KT 10SM BKN018 BKN250 11/09 A3009 RMK AO2=
200911250052 METAR KATL 250052Z 00000KT 10SM FEW040 BKN250 11/09 A3009 RMK AO2 SLP189 T01110094=
200911242352 METAR KATL 242352Z 00000KT 10SM FEW026 BKN038 12/09 A3009 RMK AO2 SLP190 T01170089 10139 20111 53002=
200911242252 METAR KATL 242252Z 21004KT 10SM BKN035 12/09 A3007 RMK AO2 SLP185 T01220089=
200911242152 METAR KATL 242152Z 19003KT 10SM BKN038 14/08 A3006 RMK AO2 SLP181 T01390083=
200911242052 METAR KATL 242052Z 19003KT 10SM FEW028 OVC040 14/08 A3008 RMK AO2 SLP188 BINOVC E T01390078 56012=
200911241952 METAR KATL 241952Z COR 00000KT 10SM FEW025 OVC035 14/08 A3009 RMK AO2 SLP189 T01170078=
200911241852 METAR KATL 241852Z 00000KT 10SM FEW020 SCT025 OVC035 12/08 A3010 RMK AO2 SLP193 BINOVC OHD T01170083=
200911241752 METAR KATL 241752Z 08003KT 10SM FEW017 SCT020 BKN036 12/09 A3012 RMK AO2 SLP200 T01170089 10117 20089 58019=
200911241652 METAR KATL 241652Z 12003KT 10SM FEW015 SCT020 BKN038 11/09 A3016 RMK AO2 SLP213 T01110094=
200911241552 METAR KATL 241552Z 15005KT 8SM BKN013 OVC034 10/09 A3018 RMK AO2 SLP220 T01000089=
200911241536 SPECI KATL 241536Z 16004KT 7SM SCT010 BKN016 OVC034 09/09 A3018 RMK AO2=
200911241536 SPECI KATL 241536Z 16004KT 7SM SCT010 BKN016 OVC034 09/09 A3018 RMK AO2=
200911241517 SPECI KATL 241517Z 15004KT 6SM BR BKN010 BKN017 OVC034 09/09 A3018 RMK AO2 CIG 008V013=
200911241517 SPECI KATL 241517Z 15004KT 6SM BR BKN010 BKN017 OVC034 09/09 A3018 RMK AO2 CIG 008V013=
200911241452 METAR KATL 241452Z VRB04KT 6SM BR FEW008 SCT012 OVC018 09/09 A3018 RMK AO2 SLP222 T00940094 51002=
200911241416 SPECI KATL 241416Z 15004KT 6SM BR FEW008 SCT012 OVC018 09/09 A3018 RMK AO2=
200911241416 SPECI KATL 241416Z 15004KT 6SM BR FEW008 SCT012 OVC018 09/09 A3018 RMK AO2=
200911241352 METAR KATL 241352Z 00000KT 6SM BR FEW010 BKN018 OVC022 09/09 A3018 RMK AO2 SLP222 T00890089=
200911241350 SPECI KATL 241350Z 00000KT 6SM BR FEW010 BKN018 OVC022 09/09 A3018 RMK AO2=
200911241350 SPECI KATL 241350Z 00000KT 6SM BR FEW010 BKN018 OVC022 09/09 A3018 RMK AO2=
200911241252 METAR KATL 241252Z 00000KT 6SM BR BKN014 OVC018 09/09 A3017 RMK AO2 SLP220 T00890089=
200911241211 SPECI KATL 241211Z 00000KT 6SM BR OVC015 09/09 A3016 RMK AO2=
200911241211 SPECI KATL 241211Z 00000KT 6SM BR OVC015 09/09 A3016 RMK AO2=
200911241152 METAR KATL 241152Z 00000KT 3SM BR BKN008 OVC015 09/09 A3016 RMK AO2 SFC VIS 6 SLP215 T00890089 10089 20083 50007=
200911241127 SPECI KATL 241127Z 00000KT 3SM BR BKN008 OVC015 09/09 A3017 RMK AO2 SFC VIS 6=
200911241127 SPECI KATL 241127Z 00000KT 3SM BR BKN008 OVC015 09/09 A3017 RMK AO2 SFC VIS 6=
200911241052 METAR KATL 241052Z 00000KT 6SM BR BKN008 OVC016 08/08 A3016 RMK AO2 SLP216 T00830083=
200911241034 SPECI KATL 241034Z 00000KT 6SM BR BKN008 OVC016 09/09 A3015 RMK AO2 CIG 006V011=
200911241034 SPECI KATL 241034Z 00000KT 6SM BR BKN008 OVC016 09/09 A3015 RMK AO2 CIG 006V011=
200911240952 METAR KATL 240952Z 09003KT 7SM BKN016 OVC020 09/09 A3014 RMK AO2 SLP208 T00890089=
200911240852 METAR KATL 240852Z 00000KT 8SM BKN016 BKN038 08/08 A3014 RMK AO2 SLP207 T00830083 58004=
200911240842 SPECI KATL 240842Z 07003KT 8SM SCT016 BKN038 08/08 A3014 RMK AO2=
200911240842 SPECI KATL 240842Z 07003KT 8SM SCT016 BKN038 08/08 A3014 RMK AO2=
200911240752 METAR KATL 240752Z 00000KT 8SM BKN016 OVC020 09/09 A3015 RMK AO2 SLP211 T00890089=
200911240652 METAR KATL 240652Z 15004KT 10SM BKN020 OVC038 09/09 A3015 RMK AO2 SLP213 T00890089=
200911240552 METAR KATL 240552Z 15003KT 10SM OVC020 09/09 A3015 RMK AO2 SLP211 T00890089 10100 20089 58001=
200911240452 METAR KATL 240452Z 15003KT 10SM OVC020 09/09 A3015 RMK AO2 SLP212 T00940089 401060072=
200911240352 METAR KATL 240352Z 14003KT 10SM OVC020 09/09 A3016 RMK AO2 SLP215 T00940089=
200911240252 METAR KATL 240252Z 11004KT 10SM OVC015 09/09 A3015 RMK AO2 SLP213 T00940089 50001=
200911240152 METAR KATL 240152Z VRB05KT 10SM OVC015 10/09 A3016 RMK AO2 SLP213 T01000089=
200911240052 METAR KATL 240052Z 07006KT 10SM OVC011 10/09 A3015 RMK AO2 SLP213 T01000089=
200911232352 METAR KATL 232352Z VRB04KT 10SM OVC011 10/09 A3015 RMK AO2 SLP213 T01000089 10106 20094 53010=
200911232252 METAR KATL 232252Z 06006KT 10SM OVC011 10/09 A3013 RMK AO2 SLP207 T01000089=
200911232152 METAR KATL 232152Z 04005KT 10SM OVC011 10/09 A3013 RMK AO2 SLP205 T01000089=
200911232052 METAR KATL 232052Z 09004KT 10SM OVC011 11/09 A3012 RMK AO2 SLP201 T01060089 55006=
200911231952 METAR KATL 231952Z 08005KT 10SM FEW009 BKN011 OVC015 10/09 A3012 RMK AO2 SLP201 T01000089=
200911231935 SPECI KATL 231935Z 07006KT 10SM FEW009 BKN011 OVC015 10/09 A3012 RMK AO2=
200911231935 SPECI KATL 231935Z 07006KT 10SM FEW009 BKN011 OVC015 10/09 A3012 RMK AO2=
200911231852 METAR KATL 231852Z 06005KT 9SM OVC007 10/09 A3012 RMK AO2 SLP203 T01000089=
200911231752 METAR KATL 231752Z 06005KT 6SM BR OVC005 09/09 A3014 RMK AO2 SLP208 60000 T00940089 10094 20078 58009=
200911231652 METAR KATL 231652Z 09007KT 6SM BR OVC005 09/09 A3016 RMK AO2 DZE12 SLP216 P0000 T00890089=
200911231552 METAR KATL 231552Z 07008KT 5SM -DZ BR OVC005 09/09 A3016 RMK AO2 SLP217 P0000 T00890089=
200911231542 SPECI KATL 231542Z 08009KT 5SM -DZ BR OVC005 09/09 A3016 RMK AO2 P0000=
200911231542 SPECI KATL 231542Z 08009KT 5SM -DZ BR OVC005 09/09 A3016 RMK AO2 P0000=
200911231452 METAR KATL 231452Z 07009KT 2SM -DZ BR OVC005 08/08 A3016 RMK AO2 SFC VIS 5 CIG 004V009 SLP218 P0000 60000 T00830083 51015=
200911231352 METAR KATL 231352Z 08009KT 2SM -DZ BR OVC005 08/08 A3016 RMK AO2 SFC VIS 3 DZB49 SLP217 P0000 T00830083=
200911231252 METAR KATL 231252Z 08009KT 2SM BR OVC005 08/08 A3014 RMK AO2 SFC VIS 2 1/2 SLP209 T00780078=
200911231217 SPECI KATL 231217Z 08009KT 2SM BR OVC005 08/08 A3013 RMK AO2 SFC VIS 3=
200911231217 SPECI KATL 231217Z 08009KT 2SM BR OVC005 08/08 A3013 RMK AO2 SFC VIS 3=
200911231152 METAR KATL 231152Z 07010KT 3SM BR OVC005 08/08 A3012 RMK AO2 SLP203 60000 70067 T00780078 10078 20072 53008=
200911231108 SPECI KATL 231108Z 07010KT 3SM BR OVC005 08/08 A3011 RMK AO2=
200911231108 SPECI KATL 231108Z 07010KT 3SM BR OVC005 08/08 A3011 RMK AO2=
200911231052 METAR KATL 231052Z 07011KT 2 1/2SM BR OVC005 08/08 A3011 RMK AO2 SLP199 T00780078=
200911230952 METAR KATL 230952Z 08012KT 2 1/2SM BR BKN005 OVC007 08/08 A3010 RMK AO2 SLP195 T00780078=
200911230852 METAR KATL 230852Z 08010KT 2 1/2SM BR BKN005 OVC009 08/08 A3009 RMK AO2 DZE45 SLP194 P0000 60000 T00780078 53002=
200911230752 METAR KATL 230752Z 08009KT 2 1/2SM -DZ BR BKN005 OVC009 08/08 A3009 RMK AO2 DZB48 SLP194 P0000 T00780078=
200911230652 METAR KATL 230652Z 07013KT 2 1/2SM BR BKN005 OVC007 08/07 A3009 RMK AO2 RAE08 SLP190 P0000 T00780072=
200911230552 METAR KATL 230552Z 08012KT 2 1/2SM -RA BR OVC005 07/07 A3009 RMK AO2 DZE27RAB48 SLP192 CIG 004V007 P0000 60007 T00720072 10078 20072 50001=
200911230452 METAR KATL 230452Z 08012KT 2 1/2SM -DZ BR OVC006 07/07 A3009 RMK AO2 SLP193 CIG 004V009 P0000 T00720072 401170072=
200911230448 SPECI KATL 230448Z 08012KT 2 1/2SM -DZ BR OVC006 07/07 A3009 RMK AO2 CIG 004V009 P0000 401170072=
200911230448 SPECI KATL 230448Z 08012KT 2 1/2SM -DZ BR OVC006 07/07 A3009 RMK AO2 CIG 004V009 P0000 401170072=
200911230352 METAR KATL 230352Z 09010KT 3SM -DZ BR OVC008 07/07 A3010 RMK AO2 DZE12B32RAB12E32 CIG 004V012 SLP196 P0000 T00720072=
200911230334 SPECI KATL 230334Z 09013KT 3SM -DZ BR BKN006 OVC012 07/07 A3010 RMK AO2 DZE12B32RAB12E32 P0000=
200911230334 SPECI KATL 230334Z 09013KT 3SM -DZ BR BKN006 OVC012 07/07 A3010 RMK AO2 DZE12B32RAB12E32 P0000=
200911230252 METAR KATL 230252Z 09010G19KT 2 1/2SM -DZ BR OVC006 07/07 A3009 RMK AO2 RAE52DZB52 SLP192 P0005 60007 T00720072 51007=
200911230152 METAR KATL 230152Z 08012KT 3SM -RA BR OVC008 07/07 A3008 RMK AO2 RAB27 SLP190 P0002 T00720072=
200911230052 METAR KATL 230052Z 08014G19KT 5SM BR OVC008 08/07 A3007 RMK AO2 RAE15 CIG 007V013 SLP188 P0000 T00780067=
200911230029 SPECI KATL 230029Z 08012G20KT 5SM BR BKN008 OVC013 08/07 A3007 RMK AO2 RAE15 P0000=
200911230029 SPECI KATL 230029Z 08012G20KT 5SM BR BKN008 OVC013 08/07 A3007 RMK AO2 RAE15 P0000=
200911222352 METAR KATL 222352Z 09012KT 5SM -RA BR FEW007 BKN012 OVC015 08/07 A3006 RMK AO2 RAB14 SLP183 P0001 60015 T00780067 10089 20072 53005=
200911222252 METAR KATL 222252Z 08011KT 5SM BR FEW008 OVC011 08/07 A3005 RMK AO2 RAE34 SLP180 P0002 T00780067=
200911222249 SPECI KATL 222249Z 08014KT 6SM BR BKN009 OVC014 08/07 A3005 RMK AO2 RAE34 CIG 007V012 P0002=
200911222249 SPECI KATL 222249Z 08014KT 6SM BR BKN009 OVC014 08/07 A3005 RMK AO2 RAE34 CIG 007V012 P0002=
200911222152 METAR KATL 222152Z 08013KT 2 1/2SM RA BR OVC009 08/07 A3005 RMK AO2 PK WND 09026/2124 SFC VIS 3 SLP179 P0007 T00780067=
200911222106 SPECI KATL 222106Z 08014G21KT 2 1/2SM -RA BR BKN009 OVC014 08/07 A3004 RMK AO2 P0002 $=
200911222106 SPECI KATL 222106Z 08014G21KT 2 1/2SM -RA BR BKN009 OVC014 08/07 A3004 RMK AO2 P0002 $=
200911222052 METAR KATL 222052Z 08016G24KT 6SM -RA BR BKN008 OVC014 08/07 A3003 RMK AO2 RAE20B51 SLP171 P0000 60005 T00780067 56013=
200911222045 SPECI KATL 222045Z 08016KT 6SM BR SCT008 OVC012 08/07 A3003 RMK AO2 RAE20 P0000=
200911222045 SPECI KATL 222045Z 08016KT 6SM BR SCT008 OVC012 08/07 A3003 RMK AO2 RAE20 P0000=
200911222016 SPECI KATL 222016Z 08016G21KT 5SM -RA BR BKN008 BKN012 OVC017 08/07 A3003 RMK AO2 P0000=
200911222016 SPECI KATL 222016Z 08016G21KT 5SM -RA BR BKN008 BKN012 OVC017 08/07 A3003 RMK AO2 P0000=
200911222003 SPECI KATL 222003Z 09014KT 1 1/2SM -RA BR BKN008 BKN012 OVC017 08/07 A3003 RMK AO2 P0000=
200911222003 SPECI KATL 222003Z 09014KT 1 1/2SM -RA BR BKN008 BKN012 OVC017 08/07 A3003 RMK AO2 P0000=
200911221952 SPECI KATL 221952Z 09015G25KT 1 1/2SM R09R/5500VP6000FT RA BR SCT008 OVC012 08/07 A3003 RMK AO2 SFC VIS 1 3/4 SLP172 P0005 T00780072=
200911221940 SPECI KATL 221940Z 08017G23KT 2 1/2SM RA BR SCT008 BKN010 OVC015 08/07 A3004 RMK AO2 TWR VIS 3 P0002=
200911221940 SPECI KATL 221940Z 08017G23KT 2 1/2SM RA BR SCT008 BKN010 OVC015 08/07 A3004 RMK AO2 TWR VIS 3 P0002=
200911221852 METAR KATL 221852Z 08017KT 8SM -RA BKN014 OVC018 08/07 A3004 RMK AO2 PK WND 08027/1805 RAE11B51 SLP175 P0000 T00830067=
200911221752 METAR KATL 221752Z 08020KT 6SM -RA BR OVC012 08/07 A3007 RMK AO2 SLP184 P0000 60045 T00780067 10083 20078 58024=
200911221652 METAR KATL 221652Z 07015G21KT 5SM -RA BR BKN010 OVC013 08/07 A3011 RMK AO2 PK WND 07026/1621 RAB1554 SLP199 P0001 T00780067=
200911221612 SPECI KATL 221612Z 08018G22KT 3SM -RA BR SCT010 BKN013 OVC044 08/07 A3011 RMK AO2 SFC VIS 4 RAB1554 P0001=
200911221612 SPECI KATL 221612Z 08018G22KT 3SM -RA BR SCT010 BKN013 OVC044 08/07 A3011 RMK AO2 SFC VIS 4 RAB1554 P0001=
200911221552 METAR KATL 221552Z 07017G23KT 3SM BR SCT010 BKN022 OVC041 08/07 A3012 RMK AO2 SFC VIS 4 RAE45 SLP201 P0005 T00780067=
200911221542 SPECI KATL 221542Z 07019G24KT 3SM -RA BR BKN012 BKN022 OVC041 08/07 A3013 RMK AO2 SFC VIS 4 P0005=
200911221542 SPECI KATL 221542Z 07019G24KT 3SM -RA BR BKN012 BKN022 OVC041 08/07 A3013 RMK AO2 SFC VIS 4 P0005=
200911221508 SPECI KATL 221508Z 07015KT 2 1/2SM RA BR SCT012 BKN022 OVC050 08/07 A3013 RMK AO2 P0002=
200911221508 SPECI KATL 221508Z 07015KT 2 1/2SM RA BR SCT012 BKN022 OVC050 08/07 A3013 RMK AO2 P0002=
200911221452 METAR KATL 221452Z 10011KT 6SM -RA BR SCT013 BKN030 OVC050 08/07 A3014 RMK AO2 RAE26B44 SLP209 P0005 60039 T00780067 51023=
200911221418 SPECI KATL 221418Z 08019KT 3SM -RA BR SCT010 BKN030 OVC055 08/07 A3012 RMK AO2 P0004=
200911221418 SPECI KATL 221418Z 08019KT 3SM -RA BR SCT010 BKN030 OVC055 08/07 A3012 RMK AO2 P0004=
200911221404 SPECI KATL 221404Z 08016G22KT 2 1/2SM RA BR SCT010 BKN025 OVC050 08/07 A3011 RMK AO2 SFC VIS 3 P0002=
200911221404 SPECI KATL 221404Z 08016G22KT 2 1/2SM RA BR SCT010 BKN025 OVC050 08/07 A3011 RMK AO2 SFC VIS 3 P0002=
200911221352 METAR KATL 221352Z 11012G27KT 2 1/2SM -RA BR SCT013 BKN050 OVC090 08/07 A3012 RMK AO2 PK WND 08027/1343 SFC VIS 5 SLP200 P0010 T00780072=
200911221345 SPECI KATL 221345Z 08020G27KT 2 1/2SM -RA BR SCT013 BKN050 OVC090 08/07 A3009 RMK AO2 PK WND 08027/1343 SFC VIS 5 P0010=
200911221345 SPECI KATL 221345Z 08020G27KT 2 1/2SM -RA BR SCT013 BKN050 OVC090 08/07 A3009 RMK AO2 PK WND 08027/1343 SFC VIS 5 P0010=
200911221330 SPECI KATL 221330Z 08016G22KT 2 1/2SM -RA BR BKN014 OVC050 08/07 A3009 RMK AO2 SFC VIS 3 P0009=
200911221330 SPECI KATL 221330Z 08016G22KT 2 1/2SM -RA BR BKN014 OVC050 08/07 A3009 RMK AO2 SFC VIS 3 P0009=
200911221326 SPECI KATL 221326Z 09016KT 3SM -RA BR BKN014 OVC050 08/07 A3010 RMK AO2 P0009=
200911221326 SPECI KATL 221326Z 09016KT 3SM -RA BR BKN014 OVC050 08/07 A3010 RMK AO2 P0009=
200911221252 METAR KATL 221252Z 09012KT 4SM +RA BR BKN020 OVC060 08/07 A3012 RMK AO2 SLP200 P0024 T00780072=
200911221152 METAR KATL 221152Z 10011G21KT 6SM -RA BR BKN029 OVC080 08/07 A3007 RMK AO2 SLP184 P0004 60008 70008 T00830072 10117 20083 51006=
200911221108 SPECI KATL 221108Z 07017G21KT 7SM -RA BKN025 OVC070 08/07 A3005 RMK AO2 P0001=
200911221108 SPECI KATL 221108Z 07017G21KT 7SM -RA BKN025 OVC070 08/07 A3005 RMK AO2 P0001=
200911221059 SPECI KATL 221059Z 09013G19KT 7SM -RA BKN001 BKN025 OVC070 08/07 A3007 RMK AO2 P0000=
200911221059 SPECI KATL 221059Z 09013G19KT 7SM -RA BKN001 BKN025 OVC070 08/07 A3007 RMK AO2 P0000=
200911221052 METAR KATL 221052Z 09013G21KT 7SM -RA BKN030 OVC090 08/07 A3006 RMK AO2 RAB11 SLP181 P0003 T00830072=
200911220952 METAR KATL 220952Z 10012KT 10SM SCT075 OVC095 10/06 A3008 RMK AO2 SLP187 T01000061=
200911220852 METAR KATL 220852Z 08016KT 10SM SCT090 OVC110 10/07 A3005 RMK AO2 RAE16 SLP176 P0001 60001 T01000067 56020=
200911220752 METAR KATL 220752Z 09011G23KT 10SM -RA SCT090 OVC120 11/06 A3006 RMK AO2 RAB46 SLP179 P0000 T01060061=
200911220652 METAR KATL 220652Z 09010KT 10SM BKN110 OVC150 11/06 A3008 RMK AO2 SLP186 T01060061=
200911220552 METAR KATL 220552Z 11008KT 10SM OVC110 12/06 A3011 RMK AO2 SLP196 60000 T01170056 10139 20111 55002=
200911220452 METAR KATL 220452Z 09010KT 10SM OVC100 12/06 A3009 RMK AO2 SLP189 T01170061 401670067=
200911220352 METAR KATL 220352Z 09010KT 10SM BKN095 BKN120 OVC150 12/07 A3010 RMK AO2 SLP194 T01170067=
200911220252 METAR KATL 220252Z 10006KT 10SM SCT095 BKN110 BKN150 12/07 A3012 RMK AO2 SLP200 60000 T01170067 51014=
200911220152 SPECI KATL 220152Z 10008KT 10SM BKN100 OVC150 13/07 A3011 RMK AO2 RAB10E20 SLP197 P0000 T01280067=
200911220052 SPECI KATL 220052Z 08008KT 10SM OVC095 13/07 A3010 RMK AO2 SLP193 T01280072=
200911212352 METAR KATL 212352Z 07008KT 10SM FEW100 BKN130 BKN250 13/07 A3008 RMK AO2 SLP186 T01330067 10167 20133 53002=
200911212252 METAR KATL 212252Z 09008KT 10SM FEW095 BKN150 BKN250 14/07 A3007 RMK AO2 SLP184 T01390067=
200911212152 METAR KATL 212152Z 10008KT 10SM FEW095 BKN150 BKN250 14/06 A3008 RMK AO2 SLP185 T01440061=
200911212052 METAR KATL 212052Z 08007KT 10SM SCT150 BKN250 16/06 A3007 RMK AO2 SLP184 T01560061 56010=
200911211952 METAR KATL 211952Z 06005KT 10SM SCT150 BKN250 16/06 A3007 RMK AO2 SLP185 T01610061=
200911211852 METAR KATL 211852Z 09006KT 10SM FEW150 BKN250 16/06 A3008 RMK AO2 SLP186 T01610061=
200911211752 METAR KATL 211752Z 09006G14KT 10SM SCT150 BKN250 16/06 A3010 RMK AO2 SLP193 T01610061 10161 20072 58015=
200911211652 METAR KATL 211652Z 11009KT 10SM FEW150 BKN250 15/06 A3013 RMK AO2 SLP201 T01500056=
200911211552 METAR KATL 211552Z 10007KT 10SM SCT150 BKN200 13/07 A3015 RMK AO2 SLP212 T01280067=
200911211452 METAR KATL 211452Z 10005KT 10SM BKN150 BKN200 11/07 A3015 RMK AO2 SLP209 T01110067 51019=
200911211352 METAR KATL 211352Z 07006KT 10SM SCT140 BKN200 10/06 A3014 RMK AO2 SLP207 T01000061=
200911211252 METAR KATL 211252Z 08005KT 10SM FEW150 BKN200 08/06 A3012 RMK AO2 SLP200 T00780056=
200911211152 METAR KATL 211152Z 09007KT 10SM FEW150 BKN200 08/05 A3009 RMK AO2 SLP189 T00780050 10094 20067 58002=
200911211052 METAR KATL 211052Z 06006KT 10SM FEW150 SCT200 08/05 A3010 RMK AO2 SLP193 T00830050=
200911210952 METAR KATL 210952Z 04004KT 10SM BKN150 09/05 A3010 RMK AO2 SLP193 T00890050=
200911210852 METAR KATL 210852Z 00000KT 10SM BKN250 08/04 A3009 RMK AO2 SLP189 T00780044 55000=
200911210752 METAR KATL 210752Z 00000KT 10SM BKN250 07/04 A3009 RMK AO2 SLP190 T00720044=
200911210652 METAR KATL 210652Z 00000KT 10SM SCT250 08/04 A3009 RMK AO2 SLP189 T00780044=
200911210552 METAR KATL 210552Z 00000KT 10SM SCT250 08/04 A3009 RMK AO2 SLP190 T00780039 10150 20078 58004=
200911210452 METAR KATL 210452Z 33004KT 10SM SCT250 09/04 A3010 RMK AO2 SLP192 T00940044 401890044=
200911210352 METAR KATL 210352Z 34003KT 10SM BKN250 11/04 A3011 RMK AO2 SLP195 T01060039=
200911210252 METAR KATL 210252Z 33004KT 10SM BKN250 11/04 A3011 RMK AO2 SLP195 T01110039 50000=
200911210152 METAR KATL 210152Z 35007KT 10SM BKN250 13/04 A3011 RMK AO2 SLP196 T01280039=
200911210052 METAR KATL 210052Z 34006KT 10SM BKN250 13/04 A3011 RMK AO2 SLP199 T01280044=
200911202352 METAR KATL 202352Z 34007KT 10SM SCT250 14/04 A3011 RMK AO2 SLP196 T01440039 10189 20144 53009=
200911202252 SPECI KATL 202252Z 33005KT 10SM FEW250 16/02 A3009 RMK AO2 SLP191 T01610017=
200911202152 METAR KATL 202152Z 07003KT 10SM FEW250 17/04 A3008 RMK AO2 SLP186 T01670044=
200911202052 METAR KATL 202052Z 00000KT 10SM FEW250 19/02 A3008 RMK AO2 SLP185 T01890022 55009=
200911201952 METAR KATL 201952Z 00000KT 10SM FEW250 18/02 A3008 RMK AO2 SLP184 T01830022=
200911201852 METAR KATL 201852Z 00000KT 10SM FEW250 18/02 A3009 RMK AO2 SLP190 T01780017=
200911201752 METAR KATL 201752Z 05007KT 10SM FEW250 17/03 A3011 RMK AO2 SLP195 T01670028 10167 20044 58014=
200911201652 METAR KATL 201652Z VRB04KT 10SM FEW250 15/03 A3014 RMK AO2 SLP208 T01500028=
200911201552 METAR KATL 201552Z 35004KT 10SM FEW250 13/04 A3015 RMK AO2 SLP211 T01330044=
200911201452 METAR KATL 201452Z 34006KT 10SM FEW250 11/04 A3015 RMK AO2 SLP212 T01060039 53009=
200911201352 METAR KATL 201352Z 34008KT 10SM CLR 08/04 A3014 RMK AO2 SLP208 T00780039=
200911201252 METAR KATL 201252Z 32009KT 10SM CLR 05/03 A3013 RMK AO2 SLP207 T00500028=
200911201152 METAR KATL 201152Z 32008KT 10SM FEW015 04/03 A3012 RMK AO2 SLP204 T00440028 10078 20044 55000=
200911201052 METAR KATL 201052Z 33007KT 10SM FEW150 05/03 A3012 RMK AO2 SLP202 T00500033=
200911200952 METAR KATL 200952Z 32007KT 10SM FEW150 05/03 A3012 RMK AO2 SLP201 T00500033=
200911200852 METAR KATL 200852Z 32006KT 10SM CLR 05/03 A3012 RMK AO2 SLP202 T00500033 58003=
200911200752 METAR KATL 200752Z 32008KT 10SM CLR 06/03 A3013 RMK AO2 SLP202 T00560033=
200911200652 METAR KATL 200652Z 32006KT 10SM CLR 07/03 A3013 RMK AO2 SLP204 T00670033=
200911200552 METAR KATL 200552Z 31005KT 10SM SCT250 07/04 A3013 RMK AO2 SLP205 T00720039 10100 20067 58005=
200911200452 METAR KATL 200452Z 32007KT 10SM FEW250 08/04 A3014 RMK AO2 SLP207 T00780039 401500033=
200911200352 METAR KATL 200352Z 33010KT 10SM FEW250 08/04 A3014 RMK AO2 SLP209 T00830044=
200911200252 METAR KATL 200252Z 32009KT 10SM BKN250 09/04 A3015 RMK AO2 SLP212 T00890044 50001=
200911200152 METAR KATL 200152Z 32006KT 10SM FEW250 08/04 A3015 RMK AO2 SLP214 T00830044=
200911200052 METAR KATL 200052Z 32007KT 10SM CLR 09/05 A3015 RMK AO2 SLP213 T00940050=
200911192352 METAR KATL 192352Z 31006KT 10SM CLR 10/05 A3014 RMK AO2 SLP213 T01000050 10150 20100 53009=
200911192252 METAR KATL 192252Z 32005KT 10SM CLR 12/05 A3013 RMK AO2 SLP205 T01170050=
200911192152 METAR KATL 192152Z 32008KT 10SM CLR 14/04 A3012 RMK AO2 SLP203 T01390044=
200911192052 METAR KATL 192052Z 32008KT 10SM CLR 15/05 A3012 RMK AO2 SLP200 T01500050 56006=
200911191952 METAR KATL 191952Z 32006KT 10SM CLR 15/04 A3012 RMK AO2 SLP200 T01500044=
200911191852 METAR KATL 191852Z 33008KT 10SM CLR 14/04 A3012 RMK AO2 SLP201 T01440044=
200911191752 METAR KATL 191752Z 34007KT 10SM CLR 13/04 A3014 RMK AO2 SLP207 T01330044 10133 20033 58014=
200911191652 METAR KATL 191652Z 32007KT 10SM CLR 13/04 A3016 RMK AO2 SLP215 T01280044=
200911191552 METAR KATL 191552Z 31010KT 10SM CLR 11/04 A3018 RMK AO2 SLP222 T01110044=
200911191452 METAR KATL 191452Z 32011KT 10SM CLR 09/03 A3018 RMK AO2 SLP222 T00890033 51012=
200911191352 METAR KATL 191352Z 34008KT 10SM CLR 07/03 A3017 RMK AO2 SLP220 T00670028=
200911191252 METAR KATL 191252Z 32008KT 10SM CLR 04/02 A3016 RMK AO2 SLP215 T00390022=
200911191052 METAR KATL 191052Z 31008KT 10SM CLR 03/02 A3013 RMK AO2 SLP204 T00330022=
200911190952 METAR KATL 190952Z 31008KT 260V340 10SM CLR 04/02 A3011 RMK AO2 SLP199 T00390022=
200911190852 METAR KATL 190852Z 33004KT 10SM CLR 04/02 A3012 RMK AO2 SLP200 T00390022 50000=
200911190752 METAR KATL 190752Z 32003KT 10SM CLR 04/02 A3012 RMK AO2 SLP200 T00390022=
200911190652 METAR KATL 190652Z 32006KT 10SM CLR 05/02 A3011 RMK AO2 SLP199 T00500022=
200911190552 METAR KATL 190552Z 32006KT 10SM CLR 05/03 A3011 RMK AO2 SLP200 T00500028 10117 20050 58002=
200911190452 METAR KATL 190452Z 33005KT 10SM CLR 06/03 A3012 RMK AO2 SLP203 T00610028 401670061=
200911190352 METAR KATL 190352Z 33006KT 10SM CLR 07/03 A3013 RMK AO2 SLP205 T00670033=
200911190252 METAR KATL 190252Z 33007KT 10SM CLR 08/04 A3012 RMK AO2 SLP202 T00780044 51017=
200911190152 METAR KATL 190152Z 30005KT 10SM CLR 09/06 A3011 RMK AO2 SLP197 T00890056=
200911190052 METAR KATL 190052Z 29005KT 10SM FEW004 10/06 A3009 RMK AO2 SLP192 T01000056=
200911182352 METAR KATL 182352Z 26003KT 10SM CLR 12/06 A3007 RMK AO2 SLP183 T01170056 10167 20117 53014=
200911182252 SPECI KATL 182252Z 00000KT 10SM CLR 14/06 A3005 RMK AO2 SLP177 T01390056=
200911182152 METAR KATL 182152Z 19005KT 10SM FEW040 15/06 A3004 RMK AO2 SLP171 T01500056=
200911182052 METAR KATL 182052Z 21006KT 10SM FEW040 16/06 A3003 RMK AO2 SLP166 T01610056 58005=
200911181952 METAR KATL 181952Z 19006KT 10SM FEW030 16/08 A3003 RMK AO2 SLP167 T01560078=
200911181852 METAR KATL 181852Z VRB05KT 9SM FEW015 SCT020 15/11 A3004 RMK AO2 SLP171 T01500106=
200911181847 SPECI KATL 181847Z 06003KT 9SM FEW015 14/10 A3004 RMK AO2=
200911181847 SPECI KATL 181847Z 06003KT 9SM FEW015 14/10 A3004 RMK AO2=
200911181828 SPECI KATL 181828Z VRB03KT 8SM FEW012 SCT015 BKN020 13/11 A3005 RMK AO2=
200911181828 SPECI KATL 181828Z VRB03KT 8SM FEW012 SCT015 BKN020 13/11 A3005 RMK AO2=
200911181758 SPECI KATL 181758Z 00000KT 6SM BR SCT006 BKN012 BKN025 12/11 A3006 RMK AO2=
200911181758 SPECI KATL 181758Z 00000KT 6SM BR SCT006 BKN012 BKN025 12/11 A3006 RMK AO2=
200911181752 METAR KATL 181752Z 00000KT 5SM BR BKN006 BKN012 BKN025 12/10 A3006 RMK AO2 DZE22 SLP179 P0000 60000 T01170100 10117 20094 58007=
200911181723 SPECI KATL 181723Z 00000KT 2SM BR OVC006 11/11 A3007 RMK AO2 SFC VIS 4 DZE22 CIG 001V010 BINOVC DSNT W P0000=
200911181723 SPECI KATL 181723Z 00000KT 2SM BR OVC006 11/11 A3007 RMK AO2 SFC VIS 4 DZE22 CIG 001V010 BINOVC DSNT W P0000=
200911181702 SPECI KATL 181702Z 25003KT 1SM -DZ BR OVC004 11/11 A3008 RMK AO2 SFC VIS 2 P0000=
200911181702 SPECI KATL 181702Z 25003KT 1SM -DZ BR OVC004 11/11 A3008 RMK AO2 SFC VIS 2 P0000=
200911181652 METAR KATL 181652Z 28003KT 3/4SM R09R/4500VP6000FT -DZ BR OVC004 10/10 A3008 RMK AO2 SFC VIS 1 1/2 DZB45 SLP187 P0000 T01000100=
200911181556 SPECI KATL 181556Z 26004KT 3/4SM R09R/4500V6000FT BR OVC003 11/11 A3009 RMK AO2 SFC VIS 2=
200911181556 SPECI KATL 181556Z 26004KT 3/4SM R09R/4500V6000FT BR OVC003 11/11 A3009 RMK AO2 SFC VIS 2=
200911181553 SPECI KATL 181553Z 25003KT 3/4SM R09R/4500VP6000FT BR OVC001 10/10 A3009 RMK AO2 SFC VIS 1=
200911181553 SPECI KATL 181553Z 25003KT 3/4SM R09R/4500VP6000FT BR OVC001 10/10 A3009 RMK AO2 SFC VIS 1=
200911181552 METAR KATL 181552Z 25003KT 1SM R09R/4500VP6000FT BR OVC003 11/11 A3009 RMK AO2 SFC VIS 2 SLP187 T01060106=
200911181502 SPECI KATL 181502Z 28003KT 1SM BR OVC003 11/10 A3008 RMK AO2 SFC VIS 2=
200911181502 SPECI KATL 181502Z 28003KT 1SM BR OVC003 11/10 A3008 RMK AO2 SFC VIS 2=
200911181452 METAR KATL 181452Z 29003KT 3/4SM BR OVC003 10/10 A3008 RMK AO2 SFC VIS 2 SLP186 T01000100 51012=
200911181426 SPECI KATL 181426Z 32004KT 3/4SM BR OVC003 10/10 A3008 RMK AO2 SFC VIS 1 3/4 CIG 001V004=
200911181426 SPECI KATL 181426Z 32004KT 3/4SM BR OVC003 10/10 A3008 RMK AO2 SFC VIS 1 3/4 CIG 001V004=
200911181401 SPECI KATL 181401Z 29004KT 1SM BR OVC003 10/09 A3007 RMK AO2 SFC VIS 1 3/4 CIG 001V004=
200911181401 SPECI KATL 181401Z 29004KT 1SM BR OVC003 10/09 A3007 RMK AO2 SFC VIS 1 3/4 CIG 001V004=
200911181352 METAR KATL 181352Z 30004KT 3/4SM BR OVC003 10/09 A3007 RMK AO2 SFC VIS 2 CIG 001V004 SLP183 T01000094=
200911181252 METAR KATL 181252Z 09005KT 3/4SM BR OVC003 10/10 A3006 RMK AO2 SFC VIS 2 1/2 SLP178 T01000100=
200911181152 METAR KATL 181152Z 00000KT 1/2SM BR OVC002 09/09 A3005 RMK AO2 SFC VIS 2 1/2 SLP174 60000 70003 T00940094 10133 20089 51013=
200911181052 METAR KATL 181052Z 33003KT 1/2SM BR OVC002 09/09 A3003 RMK AO2 SFC VIS 3 DZE49 SLP171 P0000 T00890089=
200911180952 METAR KATL 180952Z 34006KT 1/2SM -DZ BR OVC002 09/09 A3002 RMK AO2 SFC VIS 1 3/4 DZB44 SLP168 P0000 T00890089=
200911180852 METAR KATL 180852Z 32006KT 1/2SM BR OVC002 11/11 A3001 RMK AO2 SFC VIS 2 1/2 SLP161 T01060106 53007=
200911180752 METAR KATL 180752Z 28004KT 1 1/2SM BR OVC002 12/12 A3000 RMK AO2 SFC VIS 3 CIG 001V004 SLP156 T01170117=
200911180701 SPECI KATL 180701Z 26006KT 1 1/2SM BR OVC004 12/12 A2999 RMK AO2 SFC VIS 5=
200911180701 SPECI KATL 180701Z 26006KT 1 1/2SM BR OVC004 12/12 A2999 RMK AO2 SFC VIS 5=
200911180652 METAR KATL 180652Z 28006KT 3SM BR OVC004 12/12 A2998 RMK AO2 SFC VIS 6 SLP151 CIG 002V006 T01220122=
200911180649 SPECI KATL 180649Z 26006KT 3SM BR OVC004 13/12 A2998 RMK AO2 SFC VIS 6 CIG 002V006=
200911180649 SPECI KATL 180649Z 26006KT 3SM BR OVC004 13/12 A2998 RMK AO2 SFC VIS 6 CIG 002V006=
200911180552 METAR KATL 180552Z 26008KT 1/2SM BR OVC004 13/13 A2998 RMK AO2 SFC VIS 3 RAE01 SLP150 CIG 002V006 P0000 60000 T01330133 10144 20133 58003=
200911180512 SPECI KATL 180512Z 23003KT 3SM BR OVC006 14/14 A2998 RMK AO2 SFC VIS 4 RAE01 P0000=
200911180512 SPECI KATL 180512Z 23003KT 3SM BR OVC006 14/14 A2998 RMK AO2 SFC VIS 4 RAE01 P0000=
200911180452 METAR KATL 180452Z 00000KT 1 1/2SM -RA BR OVC004 14/14 A2999 RMK AO2 SFC VIS 5 RAB35 SLP153 CIG 003V007 P0000 T01440139 401500089=
200911180423 SPECI KATL 180423Z 19003KT 1 1/2SM BR OVC004 14/14 A2999 RMK AO2 SFC VIS 4 CIG 003V007=
200911180423 SPECI KATL 180423Z 19003KT 1 1/2SM BR OVC004 14/14 A2999 RMK AO2 SFC VIS 4 CIG 003V007=
200911180352 METAR KATL 180352Z 20003KT 2SM BR OVC005 14/14 A2999 RMK AO2 SFC VIS 5 SLP151 CIG 003V008 T01440144=
200911180324 SPECI KATL 180324Z 13003KT 2SM BR OVC004 14/14 A2999 RMK AO2 SFC VIS 5=
200911180324 SPECI KATL 180324Z 13003KT 2SM BR OVC004 14/14 A2999 RMK AO2 SFC VIS 5=
200911180318 SPECI KATL 180318Z 12005KT 6SM BR BKN006 OVC015 14/14 A2998 RMK AO2=
200911180318 SPECI KATL 180318Z 12005KT 6SM BR BKN006 OVC015 14/14 A2998 RMK AO2=
200911180259 SPECI KATL 180259Z 12004KT 6SM BR FEW007 BKN012 OVC025 14/14 A2999 RMK AO2=
200911180259 SPECI KATL 180259Z 12004KT 6SM BR FEW007 BKN012 OVC025 14/14 A2999 RMK AO2=
200911180252 METAR KATL 180252Z 11003KT 7SM BKN025 OVC045 14/14 A2999 RMK AO2 SLP152 60000 T01440139 50004=
200911180152 METAR KATL 180152Z 12005KT 7SM BKN022 BKN040 BKN070 14/14 A2999 RMK AO2 SLP153 T01440139=
200911180052 METAR KATL 180052Z 12007KT 7SM BKN022 OVC035 14/14 A2998 RMK AO2 RAB2356E34 SLP152 P0000 T01440139=
200911180015 SPECI KATL 180015Z 14004KT 7SM -RA SCT009 OVC018 14/14 A2998 RMK AO2 RAB2356 P0000=
200911180015 SPECI KATL 180015Z 14004KT 7SM -RA SCT009 OVC018 14/14 A2998 RMK AO2 RAB2356 P0000=
200911172352 METAR KATL 172352Z 14005KT 7SM BKN009 OVC015 14/14 A2997 RMK AO2 RAE04B33E51 SLP149 P0000 60000 T01440139 10150 20139 53008=
200911172252 METAR KATL 172252Z 13005KT 3SM -RA BR OVC018 14/13 A2996 RMK AO2 SFC VIS 4 DZE10RAB10 SLP146 P0000 T01440133=
200911172241 SPECI KATL 172241Z 12005KT 3SM -RA BR OVC018 14/13 A2996 RMK AO2 DZE10RAB10 P0000=
200911172241 SPECI KATL 172241Z 12005KT 3SM -RA BR OVC018 14/13 A2996 RMK AO2 DZE10RAB10 P0000=
200911172152 METAR KATL 172152Z 14008KT 5SM -DZ BR FEW010 BKN015 OVC020 14/13 A2996 RMK AO2 RAE26DZB43 SLP143 P0000 T01440133=
200911172052 METAR KATL 172052Z 13006KT 8SM -RA FEW010 BKN015 OVC020 15/13 A2995 RMK AO2 RAB44 SLP141 P0000 60000 T01500133 56012=
200911172027 SPECI KATL 172027Z 14007KT 8SM FEW010 BKN015 OVC020 15/13 A2995 RMK AO2=
200911172027 SPECI KATL 172027Z 14007KT 8SM FEW010 BKN015 OVC020 15/13 A2995 RMK AO2=
200911171952 METAR KATL 171952Z 14006KT 9SM FEW010 BKN013 OVC020 14/13 A2995 RMK AO2 SLP143 T01440133=
200911171909 SPECI KATL 171909Z 14009KT 3SM BR BKN010 BKN013 OVC020 14/13 A2996 RMK AO2 SFC VIS 6=
200911171909 SPECI KATL 171909Z 14009KT 3SM BR BKN010 BKN013 OVC020 14/13 A2996 RMK AO2 SFC VIS 6=
200911171852 METAR KATL 171852Z 13009KT 3SM BR FEW004 BKN007 OVC013 14/14 A2996 RMK AO2 SFC VIS 5 RAE19DZB19E21 SLP146 P0000 T01440139=
200911171821 SPECI KATL 171821Z 14008KT 2SM BR FEW004 BKN007 OVC013 14/14 A2997 RMK AO2 SFC VIS 4 RAE19DZB19E21 P0000=
200911171821 SPECI KATL 171821Z 14008KT 2SM BR FEW004 BKN007 OVC013 14/14 A2997 RMK AO2 SFC VIS 4 RAE19DZB19E21 P0000=
200911171819 SPECI KATL 171819Z 14005KT 2SM -DZ BR BKN004 BKN011 OVC020 14/14 A2998 RMK AO2 SFC VIS 3 RAE19DZB19 P0000=
200911171819 SPECI KATL 171819Z 14005KT 2SM -DZ BR BKN004 BKN011 OVC020 14/14 A2998 RMK AO2 SFC VIS 3 RAE19DZB19 P0000=
200911171752 METAR KATL 171752Z 14008KT 1SM -RA BR BKN007 BKN013 OVC020 14/14 A2999 RMK AO2 SFC VIS 2 DZB1655E07RAB07 SLP154 P0003 60003 T01390139 10144 20111 58007=
200911171750 SPECI KATL 171750Z 15007KT 1SM -RA BR BKN007 BKN013 OVC020 14/14 A2999 RMK AO2 SFC VIS 2 DZB1655E07RAB07 P0002=
200911171750 SPECI KATL 171750Z 15007KT 1SM -RA BR BKN007 BKN013 OVC020 14/14 A2999 RMK AO2 SFC VIS 2 DZB1655E07RAB07 P0002=
200911171724 SPECI KATL 171724Z 15006KT 3SM -RA BR BKN010 BKN013 OVC020 14/13 A2999 RMK AO2 DZB1655E07RAB07 P0002=
200911171724 SPECI KATL 171724Z 15006KT 3SM -RA BR BKN010 BKN013 OVC020 14/13 A2999 RMK AO2 DZB1655E07RAB07 P0002=
200911171707 SPECI KATL 171707Z 15006KT 2SM R09R/6000VP6000FT -RA BR BKN010 BKN020 OVC030 14/13 A3000 RMK AO2 TWR VIS 3 DZB1655E07RAB07 P0001=
200911171707 SPECI KATL 171707Z 15006KT 2SM R09R/6000VP6000FT -RA BR BKN010 BKN020 OVC030 14/13 A3000 RMK AO2 TWR VIS 3 DZB1655E07RAB07 P0001=
200911171655 SPECI KATL 171655Z 16008KT 2 1/2SM -DZ BR BKN010 BKN020 OVC030 14/13 A3000 RMK AO2 TWR VIS 3 DZB55 P0000=
200911171655 SPECI KATL 171655Z 16008KT 2 1/2SM -DZ BR BKN010 BKN020 OVC030 14/13 A3000 RMK AO2 TWR VIS 3 DZB55 P0000=
200911171654 SPECI KATL 171654Z 16008KT 2 1/2SM BR BKN010 BKN020 OVC030 14/13 A3000 RMK AO2 TWR VIS 3=
200911171654 SPECI KATL 171654Z 16008KT 2 1/2SM BR BKN010 BKN020 OVC030 14/13 A3000 RMK AO2 TWR VIS 3=
200911171652 METAR KATL 171652Z 15007KT 6SM BR BKN011 BKN020 OVC030 14/13 A3000 RMK AO2 RAE02 SLP157 P0000 T01440133=
200911171649 SPECI KATL 171649Z 15007KT 6SM BR BKN011 BKN020 OVC030 14/13 A3000 RMK AO2 RAE02 P0000=
200911171649 SPECI KATL 171649Z 15007KT 6SM BR BKN011 BKN020 OVC030 14/13 A3000 RMK AO2 RAE02 P0000=
200911171559 SPECI KATL 171559Z 15009KT 6SM -RA BR FEW005 SCT020 BKN027 OVC150 14/13 A3000 RMK AO2 P0000=
200911171559 SPECI KATL 171559Z 15009KT 6SM -RA BR FEW005 SCT020 BKN027 OVC150 14/13 A3000 RMK AO2 P0000=
200911171552 METAR KATL 171552Z 14007KT 6SM -RA BR FEW010 SCT020 BKN027 OVC150 14/13 A3001 RMK AO2 RAB45 SLP160 P0000 T01440128=
200911171544 SPECI KATL 171544Z 14005KT 8SM FEW001 SCT020 BKN027 OVC150 14/12 A3000 RMK AO2=
200911171544 SPECI KATL 171544Z 14005KT 8SM FEW001 SCT020 BKN027 OVC150 14/12 A3000 RMK AO2=
200911171452 METAR KATL 171452Z 12008KT 6SM BR FEW085 SCT150 SCT180 14/12 A3000 RMK AO2 RAB22E32 SLP159 P0000 60000 T01390117 50004=
200911171352 METAR KATL 171352Z 14004KT 5SM BR SCT018 BKN095 BKN250 12/10 A3001 RMK AO2 SLP161 T01170100=
200911171252 METAR KATL 171252Z 11008KT 5SM BR SCT042 BKN100 BKN150 11/09 A3000 RMK AO2 RAE1157B22E36 SLP159 P0000 T01110094=
200911171152 METAR KATL 171152Z 14003KT 7SM -RA BKN035 11/09 A2999 RMK AO2 RAB48 SLP155 P0000 60000 T01110094 10111 20089 53008=
200911171052 METAR KATL 171052Z 00000KT 7SM BKN033 OVC150 11/09 A2997 RMK AO2 SLP148 T01060089=
200911170952 METAR KATL 170952Z 08006KT 7SM SCT033 BKN150 10/08 A2996 RMK AO2 SLP143 T01000083=
200911170852 METAR KATL 170852Z 07006KT 7SM BKN035 10/09 A2997 RMK AO2 SLP146 T01000089 56005=
200911170752 METAR KATL 170752Z 07006KT 7SM BKN037 BKN150 10/09 A2997 RMK AO2 SLP147 T01000089=
200911170652 METAR KATL 170652Z 00000KT 8SM FEW150 11/08 A2998 RMK AO2 SLP150 T01060083=
200911170552 METAR KATL 170552Z 11004KT 10SM BKN250 11/08 A2998 RMK AO2 SLP151 T01110083 10156 20106 58004=
200911170452 METAR KATL 170452Z 15003KT 10SM BKN250 13/09 A2999 RMK AO2 SLP154 T01280089 402060061=
200911170352 METAR KATL 170352Z 00000KT 10SM FEW250 13/08 A2999 RMK AO2 SLP154 T01280083=
200911170252 SPECI KATL 170252Z 00000KT 10SM FEW250 13/08 A3000 RMK AO2 SLP156 T01280083 51004=
200911170152 METAR KATL 170152Z 15004KT 10SM FEW250 14/08 A2999 RMK AO2 SLP156 T01440083=
200911170052 METAR KATL 170052Z 15003KT 10SM FEW250 15/08 A3000 RMK AO2 SLP158 T01500078=
200911162352 METAR KATL 162352Z 18004KT 10SM FEW250 16/08 A2998 RMK AO2 SLP154 T01560078 10206 20156 53001=
200911162252 METAR KATL 162252Z 18005KT 10SM FEW250 17/07 A2998 RMK AO2 SLP152 T01670072=
200911162152 METAR KATL 162152Z 16005KT 10SM FEW250 19/08 A2998 RMK AO2 SLP151 T01940078=
200911162052 METAR KATL 162052Z 13003KT 10SM FEW250 20/07 A2998 RMK AO2 SLP150 T02000067 56009=
200911161952 METAR KATL 161952Z VRB03KT 10SM FEW250 21/07 A2999 RMK AO2 SLP152 T02060067=
200911161852 METAR KATL 161852Z 00000KT 10SM CLR 20/07 A3000 RMK AO2 SLP155 T02000072=
200911161752 METAR KATL 161752Z 00000KT 10SM CLR 19/08 A3001 RMK AO2 SLP159 T01890078 10189 20061 58018=
200911161652 METAR KATL 161652Z 23003KT 10SM CLR 17/07 A3004 RMK AO2 SLP170 T01720072=
200911161552 METAR KATL 161552Z 22005KT 10SM CLR 16/08 A3006 RMK AO2 SLP176 T01610078=
200911161452 METAR KATL 161452Z 22004KT 9SM CLR 14/09 A3006 RMK AO2 SLP178 T01390089 51009=
200911161352 METAR KATL 161352Z 00000KT 8SM CLR 11/09 A3006 RMK AO2 SLP177 T01060089=
200911161252 METAR KATL 161252Z 00000KT 9SM CLR 07/06 A3005 RMK AO2 SLP175 T00720061=
200911161152 METAR KATL 161152Z 00000KT 9SM CLR 06/05 A3004 RMK AO2 SLP171 T00610050 10117 20061 53006=
200911161052 METAR KATL 161052Z 00000KT 9SM CLR 07/05 A3002 RMK AO2 SLP165 T00670050=
200911160952 METAR KATL 160952Z 00000KT 10SM FEW250 07/06 A3002 RMK AO2 SLP162 T00720061=
200911160852 METAR KATL 160852Z 30003KT 10SM CLR 08/06 A3002 RMK AO2 SLP162 T00830061 56007=
200911160752 METAR KATL 160752Z 00000KT 10SM CLR 08/06 A3002 RMK AO2 SLP164 T00830061=
200911160652 METAR KATL 160652Z 00000KT 10SM CLR 10/07 A3003 RMK AO2 SLP165 T01000067=
200911160552 METAR KATL 160552Z 28003KT 10SM CLR 12/07 A3004 RMK AO2 SLP168 T01170072 10167 20100 51001=
200911160452 METAR KATL 160452Z 00000KT 10SM CLR 11/07 A3004 RMK AO2 SLP169 T01110072 402280067=
200911160352 METAR KATL 160352Z 28003KT 10SM CLR 13/07 A3004 RMK AO2 SLP169 T01280067=
200911160252 METAR KATL 160252Z 28003KT 10SM CLR 14/06 A3003 RMK AO2 SLP169 T01440061 51006=
200911160152 METAR KATL 160152Z 29004KT 10SM CLR 15/06 A3003 RMK AO2 SLP167 T01500061=
200911160052 METAR KATL 160052Z 28003KT 10SM CLR 15/07 A3003 RMK AO2 SLP168 T01500072=
200911152352 METAR KATL 152352Z 24003KT 10SM CLR 16/07 A3002 RMK AO2 SLP165 T01610072 10228 20161 53007=
200911152252 METAR KATL 152252Z 00000KT 10SM CLR 19/07 A3000 RMK AO2 SLP159 T01890067=
200911152152 METAR KATL 152152Z 32003KT 10SM CLR 21/06 A3000 RMK AO2 SLP155 T02110061=
200911152052 METAR KATL 152052Z 29004KT 10SM FEW250 22/05 A2999 RMK AO2 SLP153 T02220050 56010=
200911151952 METAR KATL 151952Z 30006KT 10SM FEW200 22/06 A2999 RMK AO2 SLP154 T02220061=
200911151852 METAR KATL 151852Z COR 32003KT 10SM FEW150 22/07 A3000 RMK AO2 SLP156 T02170072=
200911151752 METAR KATL 151752Z 00000KT 10SM FEW150 SCT250 21/08 A3002 RMK AO2 SLP164 T02060083 10206 20072 58012=
200911151652 METAR KATL 151652Z 31004KT 10SM FEW150 SCT250 18/08 A3005 RMK AO2 SLP174 T01830083=
200911151552 METAR KATL 151552Z 30004KT 10SM FEW150 SCT250 17/09 A3006 RMK AO2 SLP178 T01670094=
200911151452 METAR KATL 151452Z 31005KT 10SM FEW150 SCT250 13/09 A3006 RMK AO2 SLP178 T01330089 51013=
200911151352 METAR KATL 151352Z 30007KT 10SM SCT250 11/08 A3005 RMK AO2 SLP177 T01110078=
200911151252 METAR KATL 151252Z 30006KT 10SM SCT250 08/07 A3004 RMK AO2 SLP172 T00830067=
200911151152 METAR KATL 151152Z 30006KT 10SM SCT200 07/06 A3002 RMK AO2 SLP166 T00720056 10117 20067 53015=
200911151052 METAR KATL 151052Z 27004KT 10SM BKN200 07/06 A3000 RMK AO2 SLP160 T00670056=
200911150952 METAR KATL 150952Z 26004KT 10SM BKN200 09/07 A2998 RMK AO2 SLP151 T00890072=
200911150852 METAR KATL 150852Z 29004KT 10SM SCT200 10/07 A2998 RMK AO2 SLP148 T01000072 53001=
200911150752 METAR KATL 150752Z 28004KT 10SM SCT200 09/07 A2997 RMK AO2 SLP145 T00940072=
200911150652 METAR KATL 150652Z 31005KT 10SM BKN200 11/08 A2998 RMK AO2 SLP147 T01110078=
200911150552 METAR KATL 150552Z 30005KT 10SM BKN250 12/08 A2997 RMK AO2 SLP146 T01170083 10167 20117 50003=
200911150452 METAR KATL 150452Z 31005KT 10SM BKN250 13/09 A2997 RMK AO2 SLP147 T01280089 402280083=
200911150352 METAR KATL 150352Z 31005KT 10SM BKN250 12/09 A2998 RMK AO2 SLP150 T01220089=
200911150252 METAR KATL 150252Z 30004KT 10SM BKN250 13/09 A2996 RMK AO2 SLP145 T01280089 53005=
200911150152 METAR KATL 150152Z VRB05KT 10SM BKN250 13/09 A2996 RMK AO2 SLP144 T01330089=
200911150052 METAR KATL 150052Z 30003KT 10SM FEW200 BKN250 16/09 A2995 RMK AO2 SLP142 T01560089=
200911142352 METAR KATL 142352Z 30003KT 10SM FEW200 SCT250 17/09 A2995 RMK AO2 SLP141 T01670089 10228 20167 51005=
200911142252 METAR KATL 142252Z 31004KT 10SM SCT200 BKN250 18/09 A2994 RMK AO2 SLP138 T01830089=
200911142152 METAR KATL 142152Z 33006KT 10SM SCT150 BKN250 21/08 A2994 RMK AO2 SLP138 T02060083=
200911142052 METAR KATL 142052Z 29006KT 10SM FEW150 BKN250 21/08 A2993 RMK AO2 SLP134 T02110083 56008=
200911141952 METAR KATL 141952Z 29006KT 10SM FEW150 BKN250 22/08 A2993 RMK AO2 SLP133 T02220078=
200911141852 METAR KATL 141852Z 28005KT 10SM FEW150 BKN250 22/08 A2994 RMK AO2 SLP133 T02220078=
200911141752 METAR KATL 141752Z 32006KT 10SM FEW150 SCT250 21/09 A2996 RMK AO2 SLP141 T02110094 10211 20083 58007=
200911141652 METAR KATL 141652Z 30006KT 10SM FEW150 BKN250 19/11 A2998 RMK AO2 SLP150 T01890111=
200911141552 METAR KATL 141552Z VRB03KT 10SM FEW150 SCT250 17/11 A2999 RMK AO2 SLP151 T01720106=
200911141452 METAR KATL 141452Z 32004KT 10SM SCT250 14/10 A2998 RMK AO2 SLP150 T01390100 51018=
200911141352 METAR KATL 141352Z 33006KT 10SM FEW200 11/08 A2997 RMK AO2 SLP148 T01110083=
200911141252 METAR KATL 141252Z 31005KT 10SM SCT200 09/08 A2995 RMK AO2 SLP142 T00890078=
200911141152 METAR KATL 141152Z 31007KT 10SM FEW200 08/07 A2993 RMK AO2 SLP133 T00830072 10117 20083 53011=
200911141052 METAR KATL 141052Z 33004KT 10SM FEW250 09/07 A2991 RMK AO2 SLP126 T00940072=
200911140952 METAR KATL 140952Z 00000KT 10SM SCT250 10/08 A2990 RMK AO2 SLP122 T01000078=
200911140852 METAR KATL 140852Z 31005KT 10SM SCT250 10/08 A2989 RMK AO2 SLP119 T01000078 50004=
200911140752 METAR KATL 140752Z 32005KT 10SM SCT250 10/08 A2990 RMK AO2 SLP120 T01000083=
200911140652 METAR KATL 140652Z 30006KT 10SM SCT250 11/08 A2989 RMK AO2 SLP116 T01060083=
200911140552 METAR KATL 140552Z 31007KT 10SM BKN250 12/09 A2988 RMK AO2 SLP114 T01170089 10161 20111 55002=
200911140452 METAR KATL 140452Z 29003KT 10SM BKN250 12/08 A2987 RMK AO2 SLP114 T01170083 402220067=
200911140352 METAR KATL 140352Z 30004KT 10SM BKN250 12/08 A2989 RMK AO2 SLP119 T01220083=
200911140252 METAR KATL 140252Z 00000KT 10SM BKN250 14/09 A2988 RMK AO2 SLP118 T01390089 50002=
200911140152 METAR KATL 140152Z 00000KT 10SM BKN250 14/09 A2989 RMK AO2 SLP120 T01440089=
200911140052 METAR KATL 140052Z 30005KT 10SM SCT250 15/09 A2988 RMK AO2 SLP120 T01500089=
200911132352 METAR KATL 132352Z 31006KT 10SM FEW250 16/09 A2988 RMK AO2 SLP118 T01560089 10222 20156 53015=
200911132252 METAR KATL 132252Z 33006KT 10SM SCT250 18/09 A2986 RMK AO2 SLP111 T01830089=
200911132152 METAR KATL 132152Z 34008KT 10SM FEW250 21/09 A2984 RMK AO2 SLP103 T02110089=
200911132052 METAR KATL 132052Z 30007KT 10SM SCT250 22/09 A2983 RMK AO2 SLP100 T02220089 56013=
200911131952 METAR KATL 131952Z 28008KT 10SM BKN250 22/08 A2984 RMK AO2 SLP102 T02170078=
200911131852 METAR KATL 131852Z 28003KT 10SM SCT250 22/09 A2984 RMK AO2 SLP103 T02170089=
200911131752 METAR KATL 131752Z VRB03KT 10SM FEW250 21/09 A2987 RMK AO2 SLP113 T02060089 10206 20067 58017=
200911131652 METAR KATL 131652Z VRB04KT 10SM BKN250 19/09 A2991 RMK AO2 SLP124 T01890089=
200911131552 METAR KATL 131552Z 31004KT 10SM BKN250 16/08 A2992 RMK AO2 SLP131 T01560083=
200911131452 METAR KATL 131452Z 30005KT 10SM FEW250 12/07 A2992 RMK AO2 SLP133 T01220072 51008=
200911131352 METAR KATL 131352Z 29008KT 10SM FEW300 09/06 A2992 RMK AO2 SLP133 T00940061=
200911131252 METAR KATL 131252Z 32006KT 10SM FEW300 07/06 A2991 RMK AO2 SLP130 T00720056=
200911131152 METAR KATL 131152Z 33005KT 10SM CLR 07/05 A2990 RMK AO2 SLP125 T00670050 10094 20067 53009=
200911131052 METAR KATL 131052Z 30007KT 10SM CLR 07/06 A2988 RMK AO2 SLP118 T00720056=
200911130952 METAR KATL 130952Z 31005KT 10SM CLR 07/06 A2987 RMK AO2 SLP116 T00720056=
200911130852 METAR KATL 130852Z 34005KT 10SM CLR 08/06 A2987 RMK AO2 SLP113 T00780056 58000=
200911130752 METAR KATL 130752Z 32006KT 10SM CLR 08/06 A2987 RMK AO2 SLP115 T00780056=
200911130652 METAR KATL 130652Z 32007KT 10SM FEW250 09/06 A2987 RMK AO2 SLP114 T00890061=
200911130552 METAR KATL 130552Z 32009KT 10SM FEW250 09/06 A2987 RMK AO2 SLP114 T00940061 10133 20094 53001=
200911130452 METAR KATL 130452Z 31008KT 10SM FEW250 10/06 A2987 RMK AO2 SLP113 T01000061 401830072=
200911130352 METAR KATL 130352Z 33009KT 10SM FEW250 11/06 A2986 RMK AO2 SLP112 T01060061=
200911130252 METAR KATL 130252Z 33006KT 10SM FEW250 11/07 A2987 RMK AO2 SLP114 T01110067 58004=
200911130152 METAR KATL 130152Z 32009KT 10SM CLR 12/07 A2987 RMK AO2 SLP117 T01170067=
200911130052 METAR KATL 130052Z 32011KT 10SM CLR 13/07 A2987 RMK AO2 SLP116 T01280067=
200911122352 METAR KATL 122352Z 32011KT 10SM CLR 13/08 A2988 RMK AO2 SLP117 T01330078 10183 20133 53006=
200911122252 METAR KATL 122252Z 31009KT 10SM CLR 14/08 A2987 RMK AO2 SLP114 T01440078=
200911122152 METAR KATL 122152Z 33010KT 10SM CLR 17/08 A2987 RMK AO2 SLP112 T01670078=
200911122052 METAR KATL 122052Z 33011KT 10SM FEW040 18/08 A2986 RMK AO2 SLP109 T01780078 56009=
200911121952 METAR KATL 121952Z 32008KT 10SM FEW045 18/08 A2986 RMK AO2 SLP110 T01780078=
200911121852 METAR KATL 121852Z 32006KT 10SM FEW035 17/08 A2987 RMK AO2 SLP113 T01720078=
200911121752 METAR KATL 121752Z 30008KT 10SM FEW030 16/08 A2989 RMK AO2 SLP118 T01610083 10161 20072 58022=
200911121652 METAR KATL 121652Z VRB05KT 10SM FEW030 15/08 A2993 RMK AO2 SLP133 T01500083=
200911121552 METAR KATL 121552Z 32007KT 10SM CLR 13/08 A2995 RMK AO2 SLP141 T01280083=
200911121452 METAR KATL 121452Z 32007KT 10SM CLR 11/08 A2995 RMK AO2 SLP142 T01110078 51009=
200911121352 METAR KATL 121352Z 32007KT 10SM CLR 09/07 A2994 RMK AO2 SLP140 T00940072=
200911121252 METAR KATL 121252Z 32006KT 10SM CLR 08/07 A2994 RMK AO2 SLP140 T00780067=
200911121152 METAR KATL 121152Z 31008KT 9SM FEW040 07/07 A2992 RMK AO2 SLP133 70019 T00720067 10117 20072 53002=
200911121052 METAR KATL 121052Z 33007KT 10SM CLR 08/07 A2992 RMK AO2 SLP131 T00780067=
200911120952 METAR KATL 120952Z 32008KT 9SM FEW038 08/07 A2991 RMK AO2 SLP128 T00830072=
200911120852 METAR KATL 120852Z 32007KT 9SM FEW038 09/08 A2992 RMK AO2 SLP130 T00890078 56008=
200911120752 METAR KATL 120752Z 32007KT 10SM FEW036 10/09 A2992 RMK AO2 SLP131 T01000089=
200911120652 METAR KATL 120652Z 33007KT 10SM SCT021 OVC036 11/09 A2993 RMK AO2 SLP134 T01110094=
200911120601 SPECI KATL 120601Z 33008KT 10SM SCT025 OVC033 12/10 A2994 RMK AO2=
200911120601 SPECI KATL 120601Z 33008KT 10SM SCT025 OVC033 12/10 A2994 RMK AO2=
200911120552 METAR KATL 120552Z 33009KT 10SM BKN025 OVC035 12/11 A2994 RMK AO2 SLP137 60004 T01170106 10133 20117 58004=
200911120452 METAR KATL 120452Z 35006KT 10SM FEW015 SCT022 OVC028 12/12 A2995 RMK AO2 SLP141 T01220117 401670117=
200911120450 SPECI KATL 120450Z 35005KT 10SM FEW015 SCT022 OVC028 12/12 A2995 RMK AO2 401670117=
200911120450 SPECI KATL 120450Z 35005KT 10SM FEW015 SCT022 OVC028 12/12 A2995 RMK AO2 401670117=
200911120352 METAR KATL 120352Z 35005KT 10SM OVC030 13/12 A2996 RMK AO2 SLP142 T01280117=
200911120252 METAR KATL 120252Z 01010KT 10SM OVC025 13/11 A2996 RMK AO2 RAE17 SLP143 P0000 60004 T01330106 58000=
200911120152 METAR KATL 120152Z 03009KT 9SM -RA SCT022 OVC028 13/11 A2996 RMK AO2 SLP143 P0000 T01280111=
200911120052 SPECI KATL 120052Z 06008KT 2 1/2SM -RA BR SCT006 BKN015 OVC025 12/12 A2996 RMK AO2 SFC VIS 3 SLP145 P0004 T01220117=
200911112352 METAR KATL 112352Z 04007KT 1 1/2SM -RA BR BKN007 BKN015 OVC025 13/12 A2996 RMK AO2 SFC VIS 2 1/2 SLP144 CIG 004V009 P0003 60011 T01330122 10167 20133 51015=
200911112252 METAR KATL 112252Z 06006KT 1 1/2SM -RA BR BKN007 BKN014 OVC020 13/12 A2994 RMK AO2 SFC VIS 2 1/2 SLP138 P0003 T01330122=
200911112155 SPECI KATL 112155Z 36006KT 1 1/2SM -RA BR BKN007 BKN019 OVC025 14/13 A2993 RMK AO2 SFC VIS 3 P0000=
200911112155 SPECI KATL 112155Z 36006KT 1 1/2SM -RA BR BKN007 BKN019 OVC025 14/13 A2993 RMK AO2 SFC VIS 3 P0000=
200911112152 METAR KATL 112152Z 36007KT 1 1/2SM -RA BR SCT007 BKN019 OVC025 14/13 A2993 RMK AO2 SFC VIS 3 SLP134 P0005 T01390128=
200911112121 SPECI KATL 112121Z 35007KT 1 1/2SM -RA BR BKN019 BKN025 OVC050 14/13 A2992 RMK AO2 SFC VIS 3 P0002=
200911112121 SPECI KATL 112121Z 35007KT 1 1/2SM -RA BR BKN019 BKN025 OVC050 14/13 A2992 RMK AO2 SFC VIS 3 P0002=
200911112112 SPECI KATL 112112Z 34008KT 3SM -RA BR BKN019 BKN030 OVC050 14/13 A2992 RMK AO2 P0001=
200911112112 SPECI KATL 112112Z 34008KT 3SM -RA BR BKN019 BKN030 OVC050 14/13 A2992 RMK AO2 P0001=
200911112101 SPECI KATL 112101Z 35010KT 3SM -RA BR BKN019 BKN030 OVC050 14/13 A2992 RMK AO2 SFC VIS 5 P0000=
200911112101 SPECI KATL 112101Z 35010KT 3SM -RA BR BKN019 BKN030 OVC050 14/13 A2992 RMK AO2 SFC VIS 5 P0000=
200911112052 METAR KATL 112052Z 34008KT 6SM -RA BR FEW014 BKN022 OVC030 15/13 A2991 RMK AO2 RAB44 SLP127 P0000 60000 T01500133 53006=
200911112004 SPECI KATL 112004Z 02011G22KT 10SM BKN029 BKN036 OVC050 17/12 A2990 RMK AO2 SHRA VC SW-W-NW-N=
200911112004 SPECI KATL 112004Z 02011G22KT 10SM BKN029 BKN036 OVC050 17/12 A2990 RMK AO2 SHRA VC SW-W-NW-N=
200911111952 METAR KATL 111952Z 04011KT 10SM SCT029 BKN036 OVC050 17/11 A2990 RMK AO2 PK WND 04028/1920 SLP122 SHRA VC SW-W-NW T01670111=
200911111948 SPECI KATL 111948Z 04015G26KT 10SM BKN029 BKN036 OVC050 16/11 A2990 RMK AO2 PK WND 04028/1920 SHRA VC SW-W-NW=
200911111948 SPECI KATL 111948Z 04015G26KT 10SM BKN029 BKN036 OVC050 16/11 A2990 RMK AO2 PK WND 04028/1920 SHRA VC SW-W-NW=
200911111902 SPECI KATL 111902Z 05017G26KT 10SM BKN032 BKN040 OVC050 17/11 A2989 RMK AO2 PK WND 03026/1854=
200911111902 SPECI KATL 111902Z 05017G26KT 10SM BKN032 BKN040 OVC050 17/11 A2989 RMK AO2 PK WND 03026/1854=
200911111852 METAR KATL 111852Z 04016G24KT 10SM BKN029 BKN035 OVC050 17/11 A2990 RMK AO2 PK WND 04028/1812 SLP121 T01670111=
200911111805 SPECI KATL 111805Z 03014G24KT 10SM BKN029 BKN034 OVC050 16/11 A2990 RMK AO2=
200911111805 SPECI KATL 111805Z 03014G24KT 10SM BKN029 BKN034 OVC050 16/11 A2990 RMK AO2=
200911111752 METAR KATL 111752Z 03015G29KT 10SM FEW025 BKN030 OVC050 17/11 A2990 RMK AO2 PK WND 04029/1744 SLP121 60004 T01670111 10167 20133 58010=
200911111714 SPECI KATL 111714Z 04021G25KT 10SM FEW020 BKN030 BKN050 16/11 A2992 RMK AO2=
200911111714 SPECI KATL 111714Z 04021G25KT 10SM FEW020 BKN030 BKN050 16/11 A2992 RMK AO2=
200911111652 METAR KATL 111652Z 02014G20KT 10SM FEW015 BKN025 OVC050 16/12 A2993 RMK AO2 PK WND 03031/1637 SLP131 T01560117=
200911111611 SPECI KATL 111611Z 03015KT 10SM FEW018 SCT025 BKN050 16/13 A2993 RMK AO2=
200911111611 SPECI KATL 111611Z 03015KT 10SM FEW018 SCT025 BKN050 16/13 A2993 RMK AO2=
200911111552 METAR KATL 111552Z 03014G22KT 10SM FEW014 BKN019 BKN050 15/12 A2993 RMK AO2 RAE00 SLP133 P0000 T01500122=
200911111452 METAR KATL 111452Z 03015G22KT 9SM -RA FEW012 BKN020 OVC050 14/13 A2993 RMK AO2 SLP131 P0000 60004 T01390128 50015=
200911111352 METAR KATL 111352Z 02016G27KT 2SM -RA BR FEW001 BKN015 OVC021 14/12 A2993 RMK AO2 PK WND 04028/1253 SFC VIS 4 SLP132 P0001 T01390122=
200911111303 SPECI KATL 111303Z 03017G26KT 2SM -RA BR BKN015 OVC022 14/12 A2990 RMK AO2 PK WND 04028/1253 SFC VIS 5 P0000=
200911111303 SPECI KATL 111303Z 03017G26KT 2SM -RA BR BKN015 OVC022 14/12 A2990 RMK AO2 PK WND 04028/1253 SFC VIS 5 P0000=
200911111252 METAR KATL 111252Z 03020G28KT 2SM -RA BR FEW001 BKN013 OVC020 14/12 A2990 RMK AO2 PK WND 03029/1223 SFC VIS 4 SLP122 P0003 T01390122=
200911111214 SPECI KATL 111214Z 03015G24KT 2SM -RA BR FEW001 BKN008 OVC018 14/13 A2988 RMK AO2 TWR VIS 3 P0002=
200911111214 SPECI KATL 111214Z 03015G24KT 2SM -RA BR FEW001 BKN008 OVC018 14/13 A2988 RMK AO2 TWR VIS 3 P0002=
200911111152 METAR KATL 111152Z 02016KT 3SM -RA BR FEW001 OVC016 14/13 A2988 RMK AO2 PK WND 03032/1120 SFC VIS 4 RAB26 SLP115 P0003 60052 70412 T01390128 10139 20133 53010=
200911111143 SPECI KATL 111143Z 03017G25KT 3SM RA BR FEW001 OVC016 14/13 A2988 RMK AO2 PK WND 03032/1120 SFC VIS 4 RAB26 P0001=
200911111143 SPECI KATL 111143Z 03017G25KT 3SM RA BR FEW001 OVC016 14/13 A2988 RMK AO2 PK WND 03032/1120 SFC VIS 4 RAB26 P0001=
200911111052 METAR KATL 111052Z 03018G29KT 3SM BR SCT012 BKN018 OVC024 14/12 A2985 RMK AO2 PK WND 04029/1048 SFC VIS 6 RAE28 SLP106 P0000 T01390122=
200911110952 METAR KATL 110952Z 04018KT 3SM -RA BR FEW001 BKN013 OVC018 13/13 A2984 RMK AO2 PK WND 03027/0925 SFC VIS 4 SLP102 P0015 T01330128=
200911110929 SPECI KATL 110929Z 04018G27KT 2 1/2SM +RA BR SCT001 OVC010 13/13 A2985 RMK AO2 PK WND 03027/0925 TWR VIS 3 P0012=
200911110929 SPECI KATL 110929Z 04018G27KT 2 1/2SM +RA BR SCT001 OVC010 13/13 A2985 RMK AO2 PK WND 03027/0925 TWR VIS 3 P0012=
200911110852 METAR KATL 110852Z 03017KT 3SM -RA BR SCT001 BKN010 OVC021 13/13 A2985 RMK AO2 SFC VIS 4 SLP105 P0012 60034 T01330128 56011=
200911110752 METAR KATL 110752Z 03016G23KT 3SM -RA BR FEW001 BKN010 OVC021 14/13 A2986 RMK AO2 SFC VIS 4 SLP108 P0007 T01390128=
200911110715 SPECI KATL 110715Z 04016G24KT 3SM -RA BR FEW001 BKN009 OVC019 14/13 A2986 RMK AO2 SFC VIS 4 P0003=
200911110715 SPECI KATL 110715Z 04016G24KT 3SM -RA BR FEW001 BKN009 OVC019 14/13 A2986 RMK AO2 SFC VIS 4 P0003=
200911110652 METAR KATL 110652Z 03016G21KT 2 1/2SM RA BR FEW001 BKN009 OVC019 13/13 A2987 RMK AO2 TWR VIS 3 SLP111 P0015 T01330128=
200911110552 METAR KATL 110552Z 02012G20KT 3SM RA BR BKN009 BKN013 OVC021 14/13 A2988 RMK AO2 SLP116 P0012 60145 T01390128 10144 20139 56009=
200911110503 SPECI KATL 110503Z 03012KT 3SM -RA BR BKN009 BKN013 OVC021 14/13 A2988 RMK AO2 CB DSNT N-NE P0002=
200911110503 SPECI KATL 110503Z 03012KT 3SM -RA BR BKN009 BKN013 OVC021 14/13 A2988 RMK AO2 CB DSNT N-NE P0002=
200911110452 METAR KATL 110452Z 03011G21KT 2SM -RA BR BKN007 OVC013 14/13 A2989 RMK AO2 PK WND 04028/0434 SLP118 CB DSNT N-NE P0041 T01390128 401670139=
200911110352 METAR KATL 110352Z COR 03018G25KT 2SM +RA BR BKN007 BKN015CB OVC025 14/13 A2989 RMK AO2 SLP119 CB SE-SW MOV N P0022 T01390133=
200911110330 SPECI KATL 110330Z 03018KT 2 1/2SM RA BR BKN007 BKN015 OVC025 14/13 A2990 RMK AO2 SFC VIS 3 CB DSNT SE-SW P0009=
200911110330 SPECI KATL 110330Z 03018KT 2 1/2SM RA BR BKN007 BKN015 OVC025 14/13 A2990 RMK AO2 SFC VIS 3 CB DSNT SE-SW P0009=
200911110252 METAR KATL 110252Z 02016KT 2SM -RA BR BKN007 BKN015 OVC030 14/13 A2991 RMK AO2 SFC VIS 3 SLP125 P0027 60070 T01440133 58003=
200911110152 METAR KATL 110152Z 01011KT 2SM -RA BR SCT001 OVC008 14/13 A2993 RMK AO2 SFC VIS 3 SLP134 P0017 T01440133=
200911110052 METAR KATL 110052Z 03015G25KT 2SM +RA BR FEW001 OVC008 14/13 A2992 RMK AO2 SLP130 P0026 T01440133=
200911102352 METAR KATL 102352Z 02014G24KT 2SM RA BR SCT001 OVC007 14/14 A2992 RMK AO2 SLP129 P0025 60102 T01440139 10150 20144 55000=
200911102252 METAR KATL 102252Z 05014G20KT 2SM -RA BR SCT001 BKN007 OVC010 15/14 A2991 RMK AO2 SLP126 P0013 T01500139 $=
200911102217 SPECI KATL 102217Z 05015G23KT 2SM R09R/6000VP6000FT RA BR SCT001 OVC005 15/14 A2991 RMK AO2 P0007=
200911102217 SPECI KATL 102217Z 05015G23KT 2SM R09R/6000VP6000FT RA BR SCT001 OVC005 15/14 A2991 RMK AO2 P0007=
200911102211 SPECI KATL 102211Z 05018G23KT 2SM -RA BR FEW001 BKN005 OVC016 15/14 A2991 RMK AO2 SFC VIS 3 P0004=
200911102211 SPECI KATL 102211Z 05018G23KT 2SM -RA BR FEW001 BKN005 OVC016 15/14 A2991 RMK AO2 SFC VIS 3 P0004=
200911102155 SPECI KATL 102155Z 06013KT 2SM RA BR BKN007 BKN016 OVC020 15/14 A2992 RMK AO2 SFC VIS 3 P0001=
200911102155 SPECI KATL 102155Z 06013KT 2SM RA BR BKN007 BKN016 OVC020 15/14 A2992 RMK AO2 SFC VIS 3 P0001=
200911102152 METAR KATL 102152Z 06014KT 2SM RA BR BKN010 BKN016 OVC020 15/14 A2992 RMK AO2 SFC VIS 3 SLP128 P0010 T01500144=
200911102150 SPECI KATL 102150Z 06015KT 2SM -RA BR BKN010 BKN016 OVC020 15/14 A2992 RMK AO2 SFC VIS 3 P0009=
200911102150 SPECI KATL 102150Z 06015KT 2SM -RA BR BKN010 BKN016 OVC020 15/14 A2992 RMK AO2 SFC VIS 3 P0009=
200911102052 METAR KATL 102052Z 06011KT 2SM R09R/3500VP6000FT +RA BR BKN008 BKN012 OVC020 15/14 A2994 RMK AO2 PK WND 08027/1959 SLP134 P0031 60054 T01500144 55021=
200911101952 METAR KATL 101952Z 07020G26KT 2SM -RA BR BKN006 BKN012 OVC020 15/14 A2992 RMK AO2 PK WND 08026/1952 SLP130 P0010 T01500144=
200911101854 SPECI KATL 101854Z 07016G25KT 2SM RA BR BKN006 BKN012 OVC028 14/14 A2995 RMK AO2 P0001=
200911101854 SPECI KATL 101854Z 07016G25KT 2SM RA BR BKN006 BKN012 OVC028 14/14 A2995 RMK AO2 P0001=
200911101852 METAR KATL 101852Z 07017KT 2SM RA BR BKN009 BKN014 OVC028 15/14 A2995 RMK AO2 SLP140 P0013 T01500139=
200911101752 METAR KATL 101752Z 05020G29KT 2SM RA BR BKN009 BKN014 OVC028 15/14 A3000 RMK AO2 PK WND 05031/1658 SLP156 P0021 60113 T01500139 10150 20144 58037=
200911101704 SPECI KATL 101704Z 05021G31KT 2SM R09R/4500VP6000FT +RA BR BKN009 BKN012 OVC020 14/14 A3003 RMK AO2 PK WND 05031/1658 P0005=
200911101704 SPECI KATL 101704Z 05021G31KT 2SM R09R/4500VP6000FT +RA BR BKN009 BKN012 OVC020 14/14 A3003 RMK AO2 PK WND 05031/1658 P0005=
200911101657 SPECI KATL 101657Z 05022G27KT 2SM R09R/4500VP6000FT RA BR BKN009 BKN012 OVC020 14/14 A3004 RMK AO2 PK WND 05027/1656 SFC VIS 3 P0001=
200911101657 SPECI KATL 101657Z 05022G27KT 2SM R09R/4500VP6000FT RA BR BKN009 BKN012 OVC020 14/14 A3004 RMK AO2 PK WND 05027/1656 SFC VIS 3 P0001=
200911101652 METAR KATL 101652Z 04019G24KT 2SM -RA BR BKN009 BKN014 OVC020 15/14 A3006 RMK AO2 PK WND 04027/1625 SFC VIS 5 SLP175 P0016 T01500139=
200911101552 METAR KATL 101552Z 06019G26KT 2SM RA BR FEW001 BKN009 OVC014 14/14 A3010 RMK AO2 PK WND 04030/1542 SFC VIS 2 1/2 SLP189 P0026 T01440139=
200911101452 METAR KATL 101452Z 05017G24KT 2SM RA BR FEW001 BKN007 OVC014 14/14 A3011 RMK AO2 PK WND 06026/1422 SFC VIS 3 SLP194 P0018 60050 T01440139 56002=
200911101352 METAR KATL 101352Z 06017KT 2SM +RA BR SCT001 BKN009 OVC014 14/14 A3012 RMK AO2 PK WND 05027/1254 SFC VIS 2 1/2 SLP197 P0014 T01440139=
200911101252 METAR KATL 101252Z COR 05018KT 2SM RA BR SCT001 BKN005 OVC012 14/14 A3010 RMK AO2 SFC VIS 3 PRESFR SLP189 P0018 T01440139=
200911101152 METAR KATL 101152Z 05014KT 2SM +RA BR SCT001 BKN005 OVC012 14/14 A3012 RMK AO2 SFC VIS 3 SLP197 P0019 60056 70056 T01440139 10156 20139 58015=
200911101123 SPECI KATL 101123Z 05018KT 2SM RA BR SCT001 BKN005 OVC012 14/14 A3012 RMK AO2 SFC VIS 3 P0011=
200911101123 SPECI KATL 101123Z 05018KT 2SM RA BR SCT001 BKN005 OVC012 14/14 A3012 RMK AO2 SFC VIS 3 P0011=
200911101052 METAR KATL 101052Z 06011KT 2SM RA BR OVC001 14/14 A3016 RMK AO2 SFC VIS 3 SLP211 P0019 T01440139=
200911100952 METAR KATL 100952Z 05012KT 4SM -RA BR BKN001 BKN008 OVC060 14/14 A3016 RMK AO2 SLP210 P0009 T01390139=
200911100852 METAR KATL 100852Z 05011KT 4SM RA BR BKN001 OVC024 14/13 A3017 RMK AO2 SLP212 P0004 60009 T01390133 55014=
200911100836 SPECI KATL 100836Z 05012KT 4SM RA BR BKN001 BKN008 OVC055 14/13 A3017 RMK AO2 P0002=
200911100836 SPECI KATL 100836Z 05012KT 4SM RA BR BKN001 BKN008 OVC055 14/13 A3017 RMK AO2 P0002=
200911100752 METAR KATL 100752Z 05013KT 6SM -RA BR SCT001 BKN036 OVC045 14/13 A3016 RMK AO2 SLP210 P0004 T01440133=
200911100732 SPECI KATL 100732Z 05014KT 6SM -RA BR SCT001 BKN036 OVC090 14/13 A3017 RMK AO2 P0002=
200911100732 SPECI KATL 100732Z 05014KT 6SM -RA BR SCT001 BKN036 OVC090 14/13 A3017 RMK AO2 P0002=
200911100652 METAR KATL 100652Z 05012KT 7SM -RA SCT036 OVC095 15/13 A3019 RMK AO2 SLP219 P0001 T01500128=
200911100552 METAR KATL 100552Z 07012KT 10SM -RA FEW040 SCT060 OVC080 16/12 A3021 RMK AO2 RAB42 SLP227 P0000 60000 T01560122 10167 20156 56018=
200911100452 METAR KATL 100452Z 08012KT 10SM SCT034 BKN048 OVC100 17/12 A3023 RMK AO2 SLP235 T01670117 401780117=
200911100352 METAR KATL 100352Z 07011G22KT 10SM FEW033 SCT050 BKN100 OVC140 17/12 A3023 RMK AO2 RAB01E09 SLP233 P0000 T01670122=
200911100252 METAR KATL 100252Z 07012KT 10SM SCT033 BKN110 OVC140 16/12 A3026 RMK AO2 SLP246 T01610122 50001=
200911100152 METAR KATL 100152Z 07011KT 10SM FEW075 SCT120 OVC140 16/12 A3027 RMK AO2 SLP250 T01610122=
200911100052 METAR KATL 100052Z 07012KT 10SM FEW080 BKN120 OVC160 17/13 A3026 RMK AO2 SLP247 T01670128=
200911092352 METAR KATL 092352Z 06012KT 10SM BKN080 BKN120 OVC160 17/13 A3026 RMK AO2 SLP245 T01670128 10178 20167 53000=
200911092252 METAR KATL 092252Z 08010KT 10SM BKN085 BKN150 OVC180 17/13 A3026 RMK AO2 SLP246 T01670133=
200911092152 METAR KATL 092152Z 07011KT 10SM FEW085 SCT110 BKN150 OVC180 17/13 A3025 RMK AO2 SLP242 VIRGA OHD & ALQDS T01720133=
200911092052 METAR KATL 092052Z 07009KT 10SM FEW110 BKN150 OVC180 18/13 A3026 RMK AO2 SLP245 VIRGA ALQDS T01780133 58015=
200911091952 METAR KATL 091952Z 08011KT 10SM FEW040 SCT110 BKN150 OVC180 18/13 A3027 RMK AO2 SLP250 T01780133=
200911091852 METAR KATL 091852Z 08008KT 040V100 10SM FEW040 BKN150 OVC180 18/13 A3029 RMK AO2 SLP255 VIRGA OHD & ALQDS T01780133=
200911091752 METAR KATL 091752Z 08010KT 10SM BKN150 BKN180 OVC200 17/13 A3030 RMK AO2 SLP260 VIRGA OHD & ALQDS T01720128 10178 20122 58017=
200911091652 METAR KATL 091652Z 07008KT 10SM BKN150 BKN180 OVC200 16/12 A3033 RMK AO2 SLP268 VIRGA OHD & ALQDS T01610122=
200911091552 METAR KATL 091552Z 09010KT 10SM FEW040 SCT150 OVC180 16/12 A3035 RMK AO2 SLP276 VIRGA OHD & ALQDS T01560117=
200911091452 METAR KATL 091452Z 07008KT 10SM FEW040 SCT150 BKN180 OVC200 15/12 A3035 RMK AO2 SLP277 VIRGA SE-S-SW-W-NW T01500117 51011=
200911091352 METAR KATL 091352Z 07007KT 10SM SCT039 BKN200 OVC250 14/11 A3034 RMK AO2 SLP273 T01440106=
200911091252 METAR KATL 091252Z 06008KT 10SM BKN040 BKN200 OVC250 13/11 A3034 RMK AO2 SLP271 T01330106=
200911091152 METAR KATL 091152Z 08006KT 10SM BKN200 BKN250 12/10 A3032 RMK AO2 SLP266 T01220100 10128 20117 53008=
200911091052 METAR KATL 091052Z 06006KT 10SM SCT200 BKN250 12/10 A3030 RMK AO2 SLP258 T01220100 $=
200911090952 METAR KATL 090952Z 07006KT 10SM SCT200 BKN250 12/09 A3030 RMK AO2 SLP257 T01170094 $=
200911090852 METAR KATL 090852Z 09005KT 10SM SCT200 BKN250 12/09 A3030 RMK AO2 SLP255 T01170089 58002 $=
200911090752 METAR KATL 090752Z 08005KT 10SM SCT200 BKN250 12/08 A3030 RMK AO2 SLP257 T01170078 $=
200911090652 METAR KATL 090652Z 07007KT 10SM SCT200 BKN250 12/08 A3031 RMK AO2 SLP259 T01220078 $=
200911090552 METAR KATL 090552Z VRB03KT 10SM SCT200 BKN250 12/07 A3030 RMK AO2 SLP258 T01220072 10189 20117 51004 $=
200911090452 METAR KATL 090452Z 08004KT 10SM BKN250 13/07 A3030 RMK AO2 SLP256 T01330072 402330072 $=
200911090352 METAR KATL 090352Z 10003KT 10SM FEW200 BKN250 14/07 A3030 RMK AO2 SLP257 T01390067 $=
200911090252 METAR KATL 090252Z 13003KT 10SM SCT250 15/07 A3029 RMK AO2 SLP256 T01500072 51012 $=
200911090152 METAR KATL 090152Z 13003KT 10SM FEW250 16/07 A3028 RMK AO2 SLP253 T01610067 $=
200911090052 METAR KATL 090052Z 13004KT 10SM FEW250 17/06 A3027 RMK AO2 SLP251 T01720061 $=
200911082352 METAR KATL 082352Z 12003KT 10SM FEW250 19/06 A3026 RMK AO2 SLP245 T01890061 10233 20189 53008 $=
200911082252 METAR KATL 082252Z 11005KT 10SM FEW200 20/06 A3024 RMK AO2 SLP238 T02000061 $=
200911082152 METAR KATL 082152Z 09007KT 10SM FEW250 21/07 A3023 RMK AO2 SLP236 T02060067 $=
200911082052 METAR KATL 082052Z VRB05KT 10SM SCT250 23/05 A3023 RMK AO2 SLP235 T02280050 56014 $=
200911081952 METAR KATL 081952Z VRB04KT 10SM BKN250 23/06 A3024 RMK AO2 SLP236 T02280061 $=
200911081852 METAR KATL 081852Z VRB03KT 10SM FEW150 BKN250 22/07 A3025 RMK AO2 SLP241 T02220072 $=
200911081752 METAR KATL 081752Z COR VRB03KT 10SM FEW150 BKN250 22/08 A3028 RMK AO2 SLP250 T02170083 10217 20072 58017 $=
200911081652 METAR KATL 081652Z 19003KT 10SM SCT150 SCT250 21/09 A3031 RMK AO2 SLP260 T02060089=
200911081552 METAR KATL 081552Z 00000KT 10SM FEW150 SCT250 19/09 A3032 RMK AO2 SLP266 T01940089=
200911081452 METAR KATL 081452Z 00000KT 10SM FEW150 SCT250 16/08 A3033 RMK AO2 SLP269 T01610078 51012=
200911081352 METAR KATL 081352Z 00000KT 10SM FEW120 SCT250 13/08 A3032 RMK AO2 SLP268 T01330083=
200911081252 METAR KATL 081252Z 00000KT 10SM FEW150 09/07 A3031 RMK AO2 SLP263 T00890067=
200911081152 METAR KATL 081152Z 00000KT 10SM FEW250 08/06 A3029 RMK AO2 SLP258 T00780056 10117 20072 53015=
200911081052 METAR KATL 081052Z 00000KT 10SM SCT250 08/06 A3027 RMK AO2 SLP251 T00780056=
200911080952 METAR KATL 080952Z 07003KT 10SM SCT250 09/06 A3026 RMK AO2 SLP244 T00940061=
200911080852 METAR KATL 080852Z 00000KT 10SM FEW250 09/06 A3025 RMK AO2 SLP241 T00890061 58001=
200911080752 METAR KATL 080752Z 27004KT 10SM FEW250 11/06 A3025 RMK AO2 SLP241 T01110061=
200911080652 METAR KATL 080652Z 00000KT 10SM FEW250 12/06 A3025 RMK AO2 SLP241 T01170061=
200911080552 METAR KATL 080552Z 23004KT 10SM FEW250 11/06 A3025 RMK AO2 SLP242 T01110061 10161 20111 56003=
200911080452 METAR KATL 080452Z 23003KT 10SM FEW250 12/07 A3026 RMK AO2 SLP244 T01170067 402060056=
200911080352 METAR KATL 080352Z 00000KT 10SM FEW250 12/07 A3025 RMK AO2 SLP243 T01220072=
200911080252 METAR KATL 080252Z 00000KT 10SM FEW250 13/07 A3026 RMK AO2 SLP247 T01280072 51006=
200911080152 METAR KATL 080152Z 15003KT 10SM FEW250 14/07 A3026 RMK AO2 SLP248 T01390072=
200911080052 METAR KATL 080052Z 00000KT 10SM FEW250 13/07 A3025 RMK AO2 SLP245 T01330072=
200911072352 METAR KATL 072352Z 00000KT 10SM FEW250 16/07 A3024 RMK AO2 SLP242 T01610067 10206 20156 53009=
200911072252 METAR KATL 072252Z 19003KT 10SM FEW250 17/06 A3022 RMK AO2 SLP235 T01720056=
200911072152 METAR KATL 072152Z 19003KT 10SM CLR 20/05 A3021 RMK AO2 SLP230 T02000050=
200911072052 METAR KATL 072052Z VRB06KT 10SM FEW250 21/04 A3021 RMK AO2 SLP230 T02060044 56016=
200911071952 METAR KATL 071952Z 17004KT 10SM CLR 21/06 A3022 RMK AO2 SLP231 T02060056=
200911071852 METAR KATL 071852Z 22004KT 10SM CLR 20/06 A3023 RMK AO2 SLP234 T02000056=
200911071752 METAR KATL 071752Z 20003KT 10SM CLR 19/06 A3026 RMK AO2 SLP246 T01890056 10189 20056 58023=
200911071652 METAR KATL 071652Z 18003KT 10SM CLR 17/07 A3030 RMK AO2 SLP259 T01720067=
200911071552 METAR KATL 071552Z 18005KT 10SM CLR 15/08 A3033 RMK AO2 SLP269 T01500078=
200911071452 METAR KATL 071452Z 13005KT 10SM CLR 13/08 A3033 RMK AO2 SLP271 T01330083 51013=
200911071352 METAR KATL 071352Z 00000KT 10SM FEW250 10/07 A3033 RMK AO2 SLP271 T01000067=
200911071252 METAR KATL 071252Z 07005KT 10SM CLR 07/04 A3031 RMK AO2 SLP265 T00720044=
200911071152 METAR KATL 071152Z 09003KT 10SM CLR 06/03 A3029 RMK AO2 SLP258 T00610033 10094 20061 51006=
200911071052 METAR KATL 071052Z 07004KT 10SM CLR 07/03 A3029 RMK AO2 SLP257 T00670028=
200911070952 METAR KATL 070952Z 09005KT 10SM CLR 06/03 A3028 RMK AO2 SLP255 T00610033=
200911070852 METAR KATL 070852Z 07005KT 10SM CLR 07/03 A3027 RMK AO2 SLP251 T00720033 55001=
200911070752 METAR KATL 070752Z 08003KT 10SM CLR 08/03 A3027 RMK AO2 SLP249 T00830033=
200911070652 METAR KATL 070652Z 10003KT 10SM CLR 09/04 A3027 RMK AO2 SLP250 T00890039=
200911070552 METAR KATL 070552Z 00000KT 10SM CLR 09/04 A3027 RMK AO2 SLP252 T00940039 10144 20094 55002=
200911070452 METAR KATL 070452Z 00000KT 10SM CLR 10/04 A3027 RMK AO2 SLP251 T01000039 401780039=
200911070352 METAR KATL 070352Z 13004KT 10SM CLR 11/04 A3028 RMK AO2 SLP252 T01060039=
200911070252 METAR KATL 070252Z 00000KT 10SM CLR 12/03 A3028 RMK AO2 SLP253 T01170033 50005=
200911070152 METAR KATL 070152Z 13003KT 10SM CLR 12/03 A3028 RMK AO2 SLP255 T01220033=
200911070052 METAR KATL 070052Z 13003KT 10SM CLR 13/03 A3028 RMK AO2 SLP254 T01280033=
200911062352 METAR KATL 062352Z 00000KT 10SM CLR 14/03 A3026 RMK AO2 SLP250 T01440028 10178 20144 53003=
200911062252 METAR KATL 062252Z 00000KT 10SM CLR 16/02 A3025 RMK AO2 SLP246 T01560017=
200911062152 METAR KATL 062152Z 15005KT 10SM CLR 17/02 A3025 RMK AO2 SLP245 T01720017=
200911062052 METAR KATL 062052Z 15003KT 10SM CLR 18/01 A3025 RMK AO2 SLP246 T01780011 56020=
200911061952 METAR KATL 061952Z 18003KT 10SM CLR 18/02 A3027 RMK AO2 SLP251 T01780017=
200911061852 METAR KATL 061852Z 00000KT 10SM CLR 17/01 A3028 RMK AO2 SLP257 T01720011=
200911061752 METAR KATL 061752Z 15003KT 10SM CLR 16/01 A3032 RMK AO2 SLP267 T01610006 10161 20039 58013=
200911061652 METAR KATL 061652Z 15010KT 10SM CLR 15/01 A3034 RMK AO2 SLP276 T01500006=
200911061552 METAR KATL 061552Z 13009G16KT 10SM CLR 14/M01 A3035 RMK AO2 SLP279 T01391006=
200911061452 METAR KATL 061452Z 11007KT 10SM CLR 13/00 A3035 RMK AO2 SLP280 T01330000 51013=
200911061352 METAR KATL 061352Z 09006KT 10SM CLR 10/02 A3034 RMK AO2 SLP277 T01000017=
200911061252 METAR KATL 061252Z 00000KT 10SM CLR 06/02 A3033 RMK AO2 SLP274 T00560022=
200911061152 METAR KATL 061152Z 00000KT 10SM FEW150 04/01 A3031 RMK AO2 SLP269 T00390006 10067 20039 53009=
200911061052 METAR KATL 061052Z 00000KT 10SM CLR 04/01 A3029 RMK AO2 SLP260 T00390006=
200911060952 METAR KATL 060952Z 33003KT 10SM CLR 04/01 A3028 RMK AO2 SLP257 T00390011=
200911060852 METAR KATL 060852Z 33007KT 10SM CLR 05/01 A3029 RMK AO2 SLP257 T00500011 56010=
200911060752 METAR KATL 060752Z 34009KT 10SM CLR 06/01 A3029 RMK AO2 SLP258 T00610011=
200911060652 METAR KATL 060652Z 31004KT 10SM CLR 06/02 A3031 RMK AO2 SLP264 T00560017=
200911060552 METAR KATL 060552Z 27005KT 10SM CLR 07/02 A3032 RMK AO2 SLP267 T00670017 10128 20061 53004=
200911060452 METAR KATL 060452Z 31006KT 10SM CLR 07/02 A3031 RMK AO2 SLP263 T00720017 401890072=
200911060352 METAR KATL 060352Z 31005KT 10SM CLR 09/02 A3030 RMK AO2 SLP261 T00890017=
200911060252 METAR KATL 060252Z 30004KT 10SM CLR 09/01 A3031 RMK AO2 SLP264 T00940011 52006=
200911060152 METAR KATL 060152Z 32003KT 10SM CLR 10/02 A3030 RMK AO2 SLP262 T01000017=
200911060052 METAR KATL 060052Z 32006KT 10SM CLR 12/01 A3029 RMK AO2 SLP260 T01170006=
200911052352 METAR KATL 052352Z 33006KT 10SM CLR 12/00 A3029 RMK AO2 SLP257 T01220000 10189 20122 53001=
200911052252 METAR KATL 052252Z 33008KT 10SM CLR 14/M01 A3028 RMK AO2 SLP255 T01391011=
200911052152 METAR KATL 052152Z 33009KT 10SM CLR 16/M03 A3027 RMK AO2 SLP251 T01611028=
200911052052 METAR KATL 052052Z 34011KT 10SM CLR 17/M05 A3028 RMK AO2 SLP254 T01721050 56015=
200911051952 METAR KATL 051952Z 34014G21KT 10SM CLR 18/M05 A3029 RMK AO2 SLP257 T01781050=
200911051852 METAR KATL 051852Z 35014G21KT 10SM CLR 18/M06 A3031 RMK AO2 SLP261 T01831056=
200911051752 METAR KATL 051752Z 35013KT 10SM CLR 18/M03 A3033 RMK AO2 SLP269 T01781033 10178 20089 58008=
200911051652 METAR KATL 051652Z 34011G18KT 10SM CLR 17/M02 A3035 RMK AO2 SLP276 T01721022=
200911051552 METAR KATL 051552Z 34010KT 310V010 10SM CLR 16/01 A3036 RMK AO2 SLP279 T01610011=
200911051452 METAR KATL 051452Z 35011KT 10SM CLR 13/04 A3035 RMK AO2 SLP278 T01330044 51016=
200911051352 METAR KATL 051352Z 32008KT 10SM FEW200 11/06 A3034 RMK AO2 SLP274 T01110061=
200911051252 METAR KATL 051252Z 31007KT 10SM FEW200 09/07 A3033 RMK AO2 SLP270 T00940067=
200911051152 METAR KATL 051152Z 31008KT 10SM FEW200 09/07 A3031 RMK AO2 SLP262 T00940072 10122 20089 53014=
200911051052 METAR KATL 051052Z 32008KT 10SM CLR 09/08 A3029 RMK AO2 SLP255 T00940078=
200911050952 METAR KATL 050952Z 32006KT 10SM CLR 10/08 A3027 RMK AO2 SLP250 T01000078=
200911050852 METAR KATL 050852Z 33007KT 10SM CLR 10/08 A3026 RMK AO2 SLP247 T01000078 53001=
200911050752 METAR KATL 050752Z 30005KT 10SM FEW015 10/08 A3026 RMK AO2 SLP246 T01000078=
200911050652 METAR KATL 050652Z 30007KT 10SM CLR 12/08 A3026 RMK AO2 SLP243 T01170083=
200911050552 METAR KATL 050552Z 29007KT 10SM CLR 12/08 A3026 RMK AO2 SLP245 T01170083 10172 20117 58001=
200911050452 METAR KATL 050452Z 28005KT 10SM CLR 13/08 A3026 RMK AO2 SLP247 T01280078 402060067=
200911050352 METAR KATL 050352Z 29005KT 10SM CLR 13/08 A3027 RMK AO2 SLP248 T01330078=
200911050252 METAR KATL 050252Z 29004KT 10SM CLR 14/08 A3026 RMK AO2 SLP247 T01390078 53009=
200911050152 METAR KATL 050152Z 30003KT 10SM CLR 15/08 A3025 RMK AO2 SLP244 T01500078=
200911050052 METAR KATL 050052Z 29004KT 10SM CLR 15/08 A3024 RMK AO2 SLP241 T01500083=
200911042352 METAR KATL 042352Z 32004KT 10SM CLR 18/08 A3023 RMK AO2 SLP238 T01780078 10206 20178 53008=
200911042252 METAR KATL 042252Z 32003KT 10SM CLR 19/06 A3022 RMK AO2 SLP234 T01940061=
200911042152 METAR KATL 042152Z 26003KT 10SM CLR 19/07 A3022 RMK AO2 SLP231 T01940072=
200911042052 METAR KATL 042052Z VRB05KT 10SM CLR 21/06 A3021 RMK AO2 SLP228 T02060061 56021=
200911041952 METAR KATL 041952Z 30007KT 10SM CLR 21/06 A3022 RMK AO2 SLP232 T02060056=
200911041852 METAR KATL 041852Z 00000KT 10SM FEW200 21/06 A3024 RMK AO2 SLP238 T02060061=
200911041752 METAR KATL 041752Z 00000KT 10SM FEW200 19/08 A3027 RMK AO2 SLP249 T01940078 10194 20067 58016=
200911041652 METAR KATL 041652Z VRB03KT 10SM FEW200 17/08 A3031 RMK AO2 SLP262 T01720078=
200911041552 METAR KATL 041552Z 04005KT 10SM FEW200 15/07 A3032 RMK AO2 SLP267 T01500072=
200911041452 METAR KATL 041452Z 07007KT 10SM FEW200 13/07 A3032 RMK AO2 SLP268 T01280067 51014=
200911041352 METAR KATL 041352Z 06008G16KT 10SM FEW200 11/06 A3032 RMK AO2 SLP266 T01110056=
200911041252 METAR KATL 041252Z 03007KT 10SM FEW200 11/05 A3030 RMK AO2 SLP261 T01060050=
200911041152 METAR KATL 041152Z 34005KT 10SM FEW200 07/04 A3028 RMK AO2 SLP255 T00670039 10089 20067 53016=
200911041052 METAR KATL 041052Z 33006KT 10SM CLR 07/04 A3026 RMK AO2 SLP248 T00670039=
200911040952 METAR KATL 040952Z 34004KT 10SM CLR 07/04 A3025 RMK AO2 SLP241 T00720039=
200911040852 METAR KATL 040852Z 33007KT 10SM CLR 08/04 A3023 RMK AO2 SLP236 T00780044 53003=
200911040752 METAR KATL 040752Z 32006KT 10SM CLR 08/05 A3023 RMK AO2 SLP233 T00780050=
200911040652 METAR KATL 040652Z 31008KT 10SM CLR 08/06 A3023 RMK AO2 SLP234 T00830056=
200911040552 METAR KATL 040552Z 32006KT 10SM CLR 09/06 A3023 RMK AO2 SLP234 T00890056 10156 20089 53001=
200911040452 METAR KATL 040452Z 32005KT 10SM CLR 10/06 A3023 RMK AO2 SLP233 T01000061 402170072=
200911040352 METAR KATL 040352Z 34003KT 10SM CLR 11/06 A3022 RMK AO2 SLP232 T01110056=
200911040252 METAR KATL 040252Z 33004KT 10SM CLR 13/06 A3022 RMK AO2 SLP232 T01280056 52011=
200911040152 METAR KATL 040152Z 32006KT 10SM CLR 13/06 A3021 RMK AO2 SLP230 T01280056=
200911040052 METAR KATL 040052Z 32008KT 10SM CLR 15/06 A3020 RMK AO2 SLP228 T01500056=
200911032352 METAR KATL 032352Z 32009KT 10SM CLR 16/07 A3019 RMK AO2 SLP224 T01560067 10217 20156 53010=
200911032252 SPECI KATL 032252Z 31009KT 10SM FEW200 17/08 A3017 RMK AO2 SLP218 T01720078=
200911032152 METAR KATL 032152Z 33010KT 10SM FEW200 19/08 A3016 RMK AO2 SLP213 T01940078=
200911032052 METAR KATL 032052Z 29009KT 10SM FEW200 21/08 A3016 RMK AO2 SLP210 T02110083 57008=
200911031952 METAR KATL 031952Z 33011KT 10SM FEW200 21/08 A3017 RMK AO2 SLP213 T02110078 $=
200911031852 METAR KATL 031852Z 32009KT 10SM FEW200 21/08 A3017 RMK AO2 SLP215 T02110078=
200911031752 METAR KATL 031752Z 34008KT 10SM FEW200 21/08 A3018 RMK AO2 SLP219 T02060078 10211 20072 58016 $=
200911031652 METAR KATL 031652Z 31007KT 10SM FEW200 20/09 A3022 RMK AO2 SLP230 T02000089=
200911031552 METAR KATL 031552Z 35007KT 10SM FEW200 18/08 A3023 RMK AO2 SLP234 T01830083=
200911031452 METAR KATL 031452Z 34008KT 10SM FEW200 16/07 A3023 RMK AO2 SLP236 T01560072 51017=
200911031352 METAR KATL 031352Z 33007KT 10SM FEW250 11/07 A3022 RMK AO2 SLP233 T01110067=
200911031252 METAR KATL 031252Z 32004KT 10SM FEW250 08/06 A3020 RMK AO2 SLP227 T00830056=
200911031152 METAR KATL 031152Z 33005KT 10SM FEW250 07/04 A3018 RMK AO2 SLP221 T00720044 10094 20072 53008=
200911031052 METAR KATL 031052Z 00000KT 10SM CLR 07/05 A3016 RMK AO2 SLP215 T00720050=
200911030952 METAR KATL 030952Z 32006KT 10SM CLR 08/05 A3015 RMK AO2 SLP211 T00780050=
200911030852 METAR KATL 030852Z 34006KT 10SM CLR 08/06 A3015 RMK AO2 SLP211 T00780056 53001=
200911030752 METAR KATL 030752Z 00000KT 10SM CLR 09/06 A3015 RMK AO2 SLP208 T00890061=
200911030652 METAR KATL 030652Z 00000KT 10SM CLR 09/06 A3015 RMK AO2 SLP210 T00890061=
200911030552 METAR KATL 030552Z 35004KT 10SM CLR 09/07 A3015 RMK AO2 SLP210 T00940072 10139 20089 58001=
200911030452 METAR KATL 030452Z 35003KT 10SM CLR 11/07 A3015 RMK AO2 SLP211 T01110072 401780067=
200911030352 METAR KATL 030352Z 35004KT 10SM CLR 11/08 A3015 RMK AO2 SLP211 T01110083=
200911030252 METAR KATL 030252Z 35003KT 8SM CLR 11/09 A3015 RMK AO2 SLP212 T01110094 53004=
200911030152 METAR KATL 030152Z 35003KT 9SM CLR 11/09 A3015 RMK AO2 SLP209 T01110094=
200911030052 METAR KATL 030052Z 00000KT 10SM CLR 13/09 A3014 RMK AO2 SLP207 T01280094=
200911022352 METAR KATL 022352Z 00000KT 10SM CLR 14/09 A3014 RMK AO2 SLP207 T01390094 10178 20139 53008=
200911022252 METAR KATL 022252Z 35006KT 10SM CLR 16/09 A3013 RMK AO2 SLP204 T01560089=
200911022152 METAR KATL 022152Z 34007KT 10SM CLR 17/09 A3012 RMK AO2 SLP197 T01720094=
200911022052 METAR KATL 022052Z 33006KT 10SM FEW035 18/09 A3011 RMK AO2 SLP197 T01780094 56011=
200911021952 METAR KATL 021952Z VRB05KT 10SM SCT032 18/10 A3011 RMK AO2 SLP197 T01780100=
200911021854 SPECI KATL 021854Z 34007KT 10SM SCT028 SCT032 16/10 A3013 RMK AO2 $=
200911021854 SPECI KATL 021854Z 34007KT 10SM SCT028 SCT032 16/10 A3013 RMK AO2 $=
200911021852 METAR KATL 021852Z 33006KT 10SM BKN028 BKN032 16/10 A3013 RMK AO2 SLP200 T01610100 $=
200911021752 METAR KATL 021752Z 03006KT 10SM BKN024 BKN028 15/10 A3015 RMK AO2 SLP209 T01500100 10156 20072 58012=
200911021652 METAR KATL 021652Z 36005KT 10SM BKN020 14/09 A3017 RMK AO2 SLP216 T01390094=
200911021552 METAR KATL 021552Z 09004KT 10SM BKN019 13/09 A3018 RMK AO2 SLP221 T01330094=
200911021452 METAR KATL 021452Z 06005KT 10SM FEW011 OVC017 12/10 A3018 RMK AO2 SLP222 T01220100 51015=
200911021412 SPECI KATL 021412Z 08005KT 10SM OVC015 12/10 A3018 RMK AO2=
200911021412 SPECI KATL 021412Z 08005KT 10SM OVC015 12/10 A3018 RMK AO2=
200911021352 METAR KATL 021352Z VRB06KT 10SM BKN013 OVC017 12/09 A3018 RMK AO2 SLP220 T01170094=
200911021252 METAR KATL 021252Z 35005KT 9SM BKN014 BKN250 10/09 A3016 RMK AO2 SLP215 T01000089=
200911021239 SPECI KATL 021239Z 36003KT 9SM BKN014 BKN250 09/08 A3016 RMK AO2=
200911021239 SPECI KATL 021239Z 36003KT 9SM BKN014 BKN250 09/08 A3016 RMK AO2=
200911021152 METAR KATL 021152Z 33004KT 10SM FEW250 07/06 A3014 RMK AO2 SLP208 T00720061 10106 20067 53014=
200911021052 METAR KATL 021052Z 33006KT 10SM CLR 07/06 A3012 RMK AO2 SLP200 T00670061=
200911020952 METAR KATL 020952Z 00000KT 10SM CLR 09/08 A3010 RMK AO2 SLP194 T00940083=
200911020852 METAR KATL 020852Z 00000KT 9SM FEW040 10/08 A3010 RMK AO2 SLP190 T01000083 51004=
200911020752 METAR KATL 020752Z 00000KT 10SM SCT060 09/08 A3010 RMK AO2 SLP190 T00940078=
200911020652 METAR KATL 020652Z 07004KT 10SM FEW042 10/08 A3009 RMK AO2 SLP188 T01000078=
200911020552 METAR KATL 020552Z 08005KT 10SM FEW042 10/07 A3008 RMK AO2 SLP187 T01000067 10122 20094 58002=
200911020452 METAR KATL 020452Z 05004KT 10SM BKN042 11/07 A3009 RMK AO2 SLP188 T01110067 401720061=
200911020352 METAR KATL 020352Z 00000KT 10SM OVC042 11/07 A3009 RMK AO2 SLP190 T01060067=
200911020252 METAR KATL 020252Z 32004KT 10SM FEW045 09/06 A3009 RMK AO2 SLP190 T00940061 53004=
200911020152 METAR KATL 020152Z 32006KT 10SM CLR 11/06 A3008 RMK AO2 SLP188 T01060061=
200911020052 METAR KATL 020052Z 33007KT 10SM CLR 12/07 A3008 RMK AO2 SLP188 T01170067=
200911012352 METAR KATL 012352Z 31007KT 10SM FEW200 12/07 A3008 RMK AO2 SLP186 T01220067 10172 20122 53014=
200911012252 METAR KATL 012252Z 33007KT 10SM FEW036 14/07 A3006 RMK AO2 SLP178 T01390067=
200911012152 METAR KATL 012152Z 32009KT 10SM SCT036 SCT150 16/06 A3004 RMK AO2 SLP174 T01610061=
200911012052 METAR KATL 012052Z 30007KT 10SM SCT035 BKN150 17/08 A3003 RMK AO2 SLP170 T01720078 55002=
200911011952 METAR KATL 011952Z 36007KT 10SM SCT035 17/08 A3003 RMK AO2 SLP168 T01720083=
200911011852 METAR KATL 011852Z 32008KT 10SM FEW030 17/08 A3003 RMK AO2 SLP169 T01670083=
200911011752 METAR KATL 011752Z 34006KT 10SM FEW025 15/08 A3004 RMK AO2 SLP173 T01500078 10150 20061 58006=
200911011652 METAR KATL 011652Z 33010KT 10SM SCT021 SCT150 14/07 A3006 RMK AO2 SLP179 T01440072=
200911011631 SPECI KATL 011631Z 34006KT 10SM BKN023 BKN080 BKN150 13/06 A3006 RMK AO2=
200911011631 SPECI KATL 011631Z 34006KT 10SM BKN023 BKN080 BKN150 13/06 A3006 RMK AO2=
200911011608 SPECI KATL 011608Z 32009KT 10SM FEW023 SCT080 BKN150 BKN250 13/06 A3006 RMK AO2=
200911011608 SPECI KATL 011608Z 32009KT 10SM FEW023 SCT080 BKN150 BKN250 13/06 A3006 RMK AO2=
200911011552 METAR KATL 011552Z COR 33009KT 10SM FEW080 SCT150 BKN250 13/06 A3007 RMK AO2 SLP182 T01280056=
200911011452 METAR KATL 011452Z 32010KT 10SM FEW080 11/05 A3006 RMK AO2 SLP180 T01060050 51013=
200911011352 METAR KATL 011352Z 32012G18KT 10SM CLR 08/04 A3006 RMK AO2 SLP180 T00830039=
200911011252 METAR KATL 011252Z 33012KT 10SM CLR 07/04 A3003 RMK AO2 SLP173 T00720039=
