##########################################################
# Query made at 04/19/2024 23:15:39 UTC
# Time interval: from 03/01/2010 12:00  to 03/31/2010 12:59  UTC
##########################################################

##########################################################
# KATL, Atlanta, Hartsfield - Jackson Atlanta International Airport (United States)
# WMO index: 72219. WIGOS ID: 0-20000-0-72219
# Latitude 33-38-59N. Longitude 084-25-00W. Altitude 312 m.
##########################################################

201003311252 METAR KATL 311252Z 31006KT 10SM FEW250 12/04 A3008 RMK AO2 SLP186 T01170039=
201003311152 METAR KATL 311152Z VRB05KT 10SM FEW250 08/02 A3006 RMK AO2 SLP178 T00830017 10111 20078 53018=
201003311052 METAR KATL 311052Z 30006KT 10SM FEW250 08/02 A3003 RMK AO2 SLP169 T00780017=
201003310952 METAR KATL 310952Z 29005KT 10SM CLR 10/01 A3002 RMK AO2 SLP162 T01000011=
201003310852 METAR KATL 310852Z 29005KT 10SM CLR 09/02 A3000 RMK AO2 SLP158 T00940017 58001=
201003310752 METAR KATL 310752Z 29004KT 10SM CLR 09/02 A3000 RMK AO2 SLP157 T00940017=
201003310652 METAR KATL 310652Z 29004KT 10SM CLR 11/02 A3001 RMK AO2 SLP159 T01110017=
201003310552 METAR KATL 310552Z 31005KT 10SM CLR 11/02 A3001 RMK AO2 SLP159 T01110017 10167 20106 51006=
201003310452 METAR KATL 310452Z 31006KT 10SM FEW250 11/02 A3000 RMK AO2 SLP158 T01110022 402060050=
201003310352 METAR KATL 310352Z 29005KT 10SM FEW250 13/02 A3000 RMK AO2 SLP157 T01330022=
201003310252 METAR KATL 310252Z 29004KT 10SM FEW250 14/02 A2999 RMK AO2 SLP155 T01390022 53019=
201003310152 METAR KATL 310152Z 29006KT 10SM FEW250 14/03 A2996 RMK AO2 SLP146 T01390028=
201003310052 METAR KATL 310052Z 28007KT 10SM FEW250 15/04 A2994 RMK AO2 SLP140 T01500039=
201003302352 METAR KATL 302352Z 28007KT 10SM FEW250 17/04 A2993 RMK AO2 SLP136 T01670039 10206 20167 55004=
201003302252 METAR KATL 302252Z 30007KT 10SM CLR 19/03 A2992 RMK AO2 SLP131 T01890028=
201003302152 METAR KATL 302152Z 32012KT 10SM FEW250 20/03 A2994 RMK AO2 SLP137 T02000028=
201003302052 METAR KATL 302052Z 31008G18KT 10SM FEW200 BKN250 20/03 A2994 RMK AO2 SLP138 T02000033 56011=
201003301952 METAR KATL 301952Z 32013G19KT 10SM FEW200 20/04 A2995 RMK AO2 SLP139 T02000039=
201003301852 METAR KATL 301852Z 32013G18KT 10SM FEW250 19/04 A2996 RMK AO2 SLP144 T01940044=
201003301752 METAR KATL 301752Z 31014KT 10SM FEW250 18/06 A2998 RMK AO2 SLP149 T01780056 10178 20056 58006=
201003301652 METAR KATL 301652Z 31012KT 10SM FEW250 17/06 A2999 RMK AO2 SLP154 T01670056=
201003301552 METAR KATL 301552Z 31012KT 10SM FEW250 14/06 A3000 RMK AO2 SLP159 T01440056=
201003301452 METAR KATL 301452Z 31010KT 10SM FEW250 12/05 A2999 RMK AO2 SLP157 T01170050 51018=
201003301352 METAR KATL 301352Z 32009KT 10SM FEW250 09/04 A2998 RMK AO2 SLP153 T00940044=
201003301252 METAR KATL 301252Z 33010KT 8SM FEW020 07/04 A2997 RMK AO2 SLP148 T00720039=
201003301152 METAR KATL 301152Z 33011KT 10SM CLR 06/03 A2994 RMK AO2 SLP140 T00560033 10078 20050 53018=
201003301052 METAR KATL 301052Z 33007KT 10SM CLR 05/03 A2991 RMK AO2 SLP131 T00500028=
201003300952 METAR KATL 300952Z 32012KT 10SM CLR 06/03 A2990 RMK AO2 SLP125 T00560028=
201003300852 METAR KATL 300852Z 32013KT 10SM CLR 06/03 A2988 RMK AO2 SLP121 T00610028 51007=
201003300752 METAR KATL 300752Z 32011KT 10SM CLR 06/03 A2988 RMK AO2 SLP118 T00610028=
201003300652 METAR KATL 300652Z 32011KT 10SM CLR 07/03 A2987 RMK AO2 SLP116 T00720033=
201003300552 METAR KATL 300552Z 33011G19KT 10SM CLR 08/03 A2986 RMK AO2 SLP113 T00830033 10122 20083 53004=
201003300452 METAR KATL 300452Z 32012KT 10SM FEW060 09/04 A2985 RMK AO2 SLP109 T00940039 401500078=
201003300352 METAR KATL 300352Z 33013KT 10SM BKN060 11/03 A2986 RMK AO2 SLP110 T01060033=
201003300252 METAR KATL 300252Z 34008KT 10SM BKN070 11/03 A2985 RMK AO2 SLP108 T01060028 52016=
201003300152 METAR KATL 300152Z 34010KT 10SM FEW070 11/03 A2984 RMK AO2 SLP104 T01060028=
201003300052 METAR KATL 300052Z 33010KT 10SM FEW070 12/02 A2982 RMK AO2 SLP097 T01170022=
201003292352 METAR KATL 292352Z 33007KT 10SM FEW060 12/03 A2980 RMK AO2 SLP092 T01220033 10150 20122 51012=
201003292252 METAR KATL 292252Z 36012G19KT 10SM FEW050 13/03 A2979 RMK AO2 PK WND 36033/2154 SLP089 T01330028=
201003292152 METAR KATL 292152Z 35017G23KT 10SM OVC050 13/03 A2978 RMK AO2 SLP084 T01330033=
201003292052 METAR KATL 292052Z 34016G24KT 10SM FEW045 BKN055 14/03 A2977 RMK AO2 SLP080 T01390033 55008=
201003291952 METAR KATL 291952Z 34013G19KT 10SM FEW045 BKN055 14/05 A2976 RMK AO2 SLP078 T01440050=
201003291852 METAR KATL 291852Z 34009KT 10SM FEW030 SCT040 BKN050 14/05 A2977 RMK AO2 SLP081 T01390050=
201003291752 METAR KATL 291752Z 32009KT 10SM FEW020 BKN030 OVC040 12/05 A2979 RMK AO2 SLP088 T01220050 10128 20089 58001=
201003291652 METAR KATL 291652Z 33011KT 10SM FEW020 BKN030 OVC040 12/06 A2980 RMK AO2 SLP090 T01170061=
201003291601 SPECI KATL 291601Z 32009KT 10SM FEW020 BKN030 BKN040 11/06 A2980 RMK AO2=
201003291601 SPECI KATL 291601Z 32009KT 10SM FEW020 BKN030 BKN040 11/06 A2980 RMK AO2=
201003291507 SPECI KATL 291507Z 32010KT 10SM FEW025 BKN033 OVC042 12/06 A2980 RMK AO2=
201003291507 SPECI KATL 291507Z 32010KT 10SM FEW025 BKN033 OVC042 12/06 A2980 RMK AO2=
201003291452 METAR KATL 291452Z 32012KT 10SM BKN025 BKN030 OVC040 12/06 A2979 RMK AO2 SLP088 T01170061 51015=
201003291352 METAR KATL 291352Z 33015G20KT 10SM BKN018 BKN040 11/07 A2978 RMK AO2 SLP083 T01110067=
201003291325 SPECI KATL 291325Z 31010KT 10SM BKN016 BKN040 11/07 A2977 RMK AO2=
201003291325 SPECI KATL 291325Z 31010KT 10SM BKN016 BKN040 11/07 A2977 RMK AO2=
201003291252 METAR KATL 291252Z 31011KT 10SM FEW015 BKN035 BKN040 10/07 A2977 RMK AO2 SLP079 T01000072=
201003291152 METAR KATL 291152Z 31008KT 10SM BKN032 BKN040 09/07 A2975 RMK AO2 SLP073 T00890067 10106 20078 55001=
201003291052 METAR KATL 291052Z 30006KT 10SM SCT034 08/06 A2974 RMK AO2 SLP068 T00780061=
201003290952 METAR KATL 290952Z 32007KT 10SM FEW036 08/06 A2974 RMK AO2 SLP066 T00780056=
201003290852 METAR KATL 290852Z 30004KT 10SM FEW030 08/06 A2975 RMK AO2 SLP072 T00780056 58012=
201003290752 METAR KATL 290752Z 31007KT 10SM FEW025 09/06 A2977 RMK AO2 SLP078 T00890056=
201003290719 SPECI KATL 290719Z 31008KT 10SM BKN025 10/06 A2978 RMK AO2=
201003290719 SPECI KATL 290719Z 31008KT 10SM BKN025 10/06 A2978 RMK AO2=
201003290652 METAR KATL 290652Z 29010KT 10SM FEW100 SCT140 09/06 A2979 RMK AO2 SLP085 T00940056=
201003290552 METAR KATL 290552Z 29008KT 10SM BKN075 11/06 A2979 RMK AO2 SLP084 T01060061 10167 20106 55002=
201003290452 METAR KATL 290452Z 31012G18KT 10SM FEW060 SCT100 BKN140 12/06 A2978 RMK AO2 SLP083 T01170061 402220106=
201003290352 METAR KATL 290352Z 30013KT 10SM FEW060 SCT075 BKN090 12/06 A2979 RMK AO2 SLP086 T01220056=
201003290252 METAR KATL 290252Z 32011KT 10SM BKN060 BKN075 14/07 A2979 RMK AO2 SLP087 T01390067 53021=
201003290152 METAR KATL 290152Z 31013G20KT 10SM FEW045 BKN060 BKN085 14/09 A2977 RMK AO2 TSE13 SLP080 TS MOV E T01440089=
201003290113 SPECI KATL 290113Z 27003KT 10SM FEW045 BKN075 BKN090 16/11 A2975 RMK AO2 TSE13 OCNL LTGIC DSNT E-SE TS MOV E=
201003290113 SPECI KATL 290113Z 27003KT 10SM FEW045 BKN075 BKN090 16/11 A2975 RMK AO2 TSE13 OCNL LTGIC DSNT E-SE TS MOV E=
201003290052 METAR KATL 290052Z 30007KT 10SM TS FEW049CB BKN060 BKN090 16/11 A2974 RMK AO2 TSB52 SLP069 OCNL LTGIC SE-S TS VC SE-S MOV NE T01560111=
201003282352 METAR KATL 282352Z 30008KT 10SM FEW045CB BKN065 BKN120 BKN250 17/11 A2973 RMK AO2 TSE15 SLP066 TS MOV NE CB W MOV NE SHRA SE & SW-NW-N T01670106 10222 20167 55004=
201003282315 SPECI KATL 282315Z 31013G20KT 10SM FEW045 SCT065 SCT120 BKN250 18/11 A2973 RMK AO2 TSE15 TS MOV NE CB DSNT SE SHRA SW-NW & DSNT NE & SE=
201003282315 SPECI KATL 282315Z 31013G20KT 10SM FEW045 SCT065 SCT120 BKN250 18/11 A2973 RMK AO2 TSE15 TS MOV NE CB DSNT SE SHRA SW-NW & DSNT NE & SE=
201003282252 METAR KATL 282252Z 30008KT 10SM TS SCT045CB SCT065 BKN150 BKN250 18/10 A2973 RMK AO2 TSB34 SLP064 OCNL LTGIC NE & NW TS VC NE & NW MOV NE SHRA NE & W-NW T01830100=
201003282234 SPECI KATL 282234Z 22011KT 10SM TS SCT045CB SCT070 SCT110 SCT250 21/09 A2972 RMK AO2 TSB34 OCNL LTGIC NW TS NW MOV NE CB DSNT SW-W SHRA DSNT SW-W=
201003282234 SPECI KATL 282234Z 22011KT 10SM TS SCT045CB SCT070 SCT110 SCT250 21/09 A2972 RMK AO2 TSB34 OCNL LTGIC NW TS NW MOV NE CB DSNT=
201003282230 SPECI KATL 282230Z 21012KT 10SM SCT045CB SCT070 SCT110 SCT250 21/09 A2972 RMK AO2 CB NW MOV NE CB DSNT SW-W SHRA DSNT SW-W=
201003282230 SPECI KATL 282230Z 21012KT 10SM SCT045CB SCT070 SCT110 SCT250 21/09 A2972 RMK AO2 CB NW MOV NE CB DSNT SW-W SHRA DSNT SW-W=
201003282152 METAR KATL 282152Z 22014G25KT 10SM SCT055 SCT075 SCT090 21/08 A2973 RMK AO2 PK WND 20031/2107 SLP063 CB DSNT NW SHRA DSNT NE & SE & SW-NW T02110083=
201003282052 METAR KATL 282052Z 22015G32KT 10SM SCT045 BKN055 BKN070 22/09 A2974 RMK AO2 PK WND 21032/2044 SLP068 CB DSNT E AND SW-N SHRA DSNT=
201003281952 METAR KATL 281952Z COR 19019G24KT 10SM SCT040 BKN050 22/11 A2976 RMK AO2 PK WND 21028/1925 SLP074 CB DSNT NW T02170111=
201003281852 METAR KATL 281852Z 20017G22KT 10SM SCT032 BKN040 BKN050 20/12 A2980 RMK AO2 SLP089 T02000122=
201003281830 SPECI KATL 281830Z 19015G21KT 10SM SCT020 SCT029 BKN050 19/13 A2982 RMK AO2=
201003281830 SPECI KATL 281830Z 19015G21KT 10SM SCT020 SCT029 BKN050 19/13 A2982 RMK AO2=
201003281752 METAR KATL 281752Z 20010KT 9SM SCT014 BKN020 BKN032 18/13 A2984 RMK AO2 SLP103 60000 T01780128 10178 20106 58012=
201003281743 SPECI KATL 281743Z 21010G17KT 8SM BKN016 BKN025 17/13 A2984 RMK AO2=
201003281743 SPECI KATL 281743Z 21010G17KT 8SM BKN016 BKN025 17/13 A2984 RMK AO2=
201003281707 SPECI KATL 281707Z 20012G20KT 6SM BR SCT005 BKN010 OVC015 15/13 A2987 RMK AO2=
201003281707 SPECI KATL 281707Z 20012G20KT 6SM BR SCT005 BKN010 OVC015 15/13 A2987 RMK AO2=
201003281652 METAR KATL 281652Z 19009G16KT 5SM BR OVC007 14/13 A2987 RMK AO2 RAE16DZB16E45 SLP114 P0000 T01440128=
201003281617 SPECI KATL 281617Z 18010KT 5SM -DZ BR OVC004 13/13 A2988 RMK AO2 RAE16DZB16 P0000=
201003281617 SPECI KATL 281617Z 18010KT 5SM -DZ BR OVC004 13/13 A2988 RMK AO2 RAE16DZB16 P0000=
201003281552 METAR KATL 281552Z 17011KT 5SM -RA BR OVC006 13/12 A2989 RMK AO2 DZE19RAB19 SLP120 P0000 T01330122=
201003281520 SPECI KATL 281520Z 18013KT 4SM -RA BR OVC006 13/12 A2989 RMK AO2 DZE19RAB19 P0000=
201003281520 SPECI KATL 281520Z 18013KT 4SM -RA BR OVC006 13/12 A2989 RMK AO2 DZE19RAB19 P0000=
201003281452 METAR KATL 281452Z 16011G20KT 4SM -DZ BR OVC004 13/12 A2988 RMK AO2 SLP117 P0000 60000 T01280117 56026=
201003281421 SPECI KATL 281421Z 16012G17KT 1SM -DZ BR OVC002 12/12 A2990 RMK AO2 SFC VIS 2 TWRINC P0000=
201003281421 SPECI KATL 281421Z 16012G17KT 1SM -DZ BR OVC002 12/12 A2990 RMK AO2 SFC VIS 2 TWRINC P0000=
201003281352 METAR KATL 281352Z 17011KT 1/4SM -DZ BR OVC002 12/11 A2991 RMK AO2 SFC VIS 1 1/2 DZB30 SLP129 TWRINC P0000 T01170111=
201003281252 METAR KATL 281252Z 15013G20KT 1/4SM BR OVC002 11/11 A2991 RMK AO2 SFC VIS 1 3/4 SLP128 T01060106=
201003281152 METAR KATL 281152Z 14010G20KT 1/4SM BR OVC003 11/10 A2996 RMK AO2 SFC VIS 2 1/2 RAE10 SLP143 P0000 60000 T01060100 10117 20106 58009=
201003281137 SPECI KATL 281137Z 16013G20KT 1/4SM BR OVC003 11/10 A2997 RMK AO2 SFC VIS 2 1/2 RAE10 P0000=
201003281137 SPECI KATL 281137Z 16013G20KT 1/4SM BR OVC003 11/10 A2997 RMK AO2 SFC VIS 2 1/2 RAE10 P0000=
201003281126 SPECI KATL 281126Z 16012KT 1SM BR OVC004 11/10 A2997 RMK AO2 SFC VIS 2 1/2 RAE10 P0000=
201003281126 SPECI KATL 281126Z 16012KT 1SM BR OVC004 11/10 A2997 RMK AO2 SFC VIS 2 1/2 RAE10 P0000=
201003281124 SPECI KATL 281124Z 16011KT 2SM BR OVC004 11/10 A2997 RMK AO2 SFC VIS 3 RAE10 P0000=
201003281124 SPECI KATL 281124Z 16011KT 2SM BR OVC004 11/10 A2997 RMK AO2 SFC VIS 3 RAE10 P0000=
201003281113 SPECI KATL 281113Z 16013G18KT 2SM BR OVC005 11/10 A2998 RMK AO2 SFC VIS 3 RAE10 P0000=
201003281113 SPECI KATL 281113Z 16013G18KT 2SM BR OVC005 11/10 A2998 RMK AO2 SFC VIS 3 RAE10 P0000=
201003281052 METAR KATL 281052Z 15010KT 5SM -RA BR OVC006 11/10 A2997 RMK AO2 RAB34 SLP149 P0000 T01060100=
201003280952 METAR KATL 280952Z 15012G20KT 9SM OVC008 11/09 A2998 RMK AO2 SLP151 T01060094=
201003280944 SPECI KATL 280944Z 15010G17KT 9SM OVC009 11/09 A2998 RMK AO2=
201003280944 SPECI KATL 280944Z 15010G17KT 9SM OVC009 11/09 A2998 RMK AO2=
201003280852 METAR KATL 280852Z 14012KT 10SM OVC010 11/08 A2999 RMK AO2 SLP151 T01110083 58025=
201003280801 SPECI KATL 280801Z 13012G19KT 10SM OVC014 11/08 A3002 RMK AO2=
201003280801 SPECI KATL 280801Z 13012G19KT 10SM OVC014 11/08 A3002 RMK AO2=
201003280752 METAR KATL 280752Z 13009KT 10SM OVC016 12/08 A3002 RMK AO2 SLP163 T01170083=
201003280652 METAR KATL 280652Z 13008G18KT 10SM OVC019 12/08 A3004 RMK AO2 SLP173 T01170078=
201003280552 METAR KATL 280552Z 13008G16KT 10SM OVC020 12/08 A3006 RMK AO2 SLP178 T01170078 10156 20117 58006=
201003280452 METAR KATL 280452Z 13011G19KT 10SM OVC020 12/08 A3008 RMK AO2 SLP185 T01220078 401780061=
201003280352 METAR KATL 280352Z 13014G22KT 10SM BKN022 13/08 A3008 RMK AO2 SLP185 T01280078=
201003280322 SPECI KATL 280322Z 14013G18KT 10SM BKN025 OVC050 13/08 A3008 RMK AO2=
201003280322 SPECI KATL 280322Z 14013G18KT 10SM BKN025 OVC050 13/08 A3008 RMK AO2=
201003280252 METAR KATL 280252Z 13009KT 10SM FEW025 BKN043 13/07 A3008 RMK AO2 SLP186 T01280072 53005=
201003280152 METAR KATL 280152Z 13009G17KT 10SM FEW040 13/07 A3006 RMK AO2 SLP181 T01330067=
201003280052 METAR KATL 280052Z 16017G25KT 10SM BKN040 14/07 A3007 RMK AO2 PK WND 15026/0035 SLP183 T01440072=
201003272352 METAR KATL 272352Z 14012G20KT 10SM FEW048 16/06 A3006 RMK AO2 SLP181 T01560061 10178 20144 55001=
201003272252 METAR KATL 272252Z 14013G19KT 10SM FEW050 17/06 A3006 RMK AO2 SLP179 T01720056=
201003272152 METAR KATL 272152Z 15013G20KT 6SM FU FEW001 17/05 A3005 RMK AO2 SLP177 FU FEW001 T01720050=
201003272129 SPECI KATL 272129Z 11016G20KT 6SM FU FEW001 SCT050 17/05 A3005 RMK AO2 FU FEW001=
201003272129 SPECI KATL 272129Z 11016G20KT 6SM FU FEW001 SCT050 17/05 A3005 RMK AO2 FU FEW001=
201003272052 METAR KATL 272052Z 13013G21KT 10SM FEW045 18/05 A3007 RMK AO2 SLP181 T01780050 58026=
201003271952 METAR KATL 271952Z 13014G21KT 10SM FEW045 17/05 A3010 RMK AO2 SLP192 T01720050=
201003271852 METAR KATL 271852Z 12011G17KT 10SM SCT041 SCT250 16/06 A3013 RMK AO2 SLP204 T01610056=
201003271752 METAR KATL 271752Z 13012G17KT 10SM SCT030 14/06 A3015 RMK AO2 SLP209 T01440056 10150 20072 58009=
201003271652 METAR KATL 271652Z 10011G18KT 10SM SCT024 13/06 A3016 RMK AO2 SLP216 T01330056=
201003271641 SPECI KATL 271641Z 12011G17KT 10SM SCT024 12/06 A3017 RMK AO2=
201003271641 SPECI KATL 271641Z 12011G17KT 10SM SCT024 12/06 A3017 RMK AO2=
201003271552 METAR KATL 271552Z 10011KT 10SM BKN022 11/05 A3019 RMK AO2 SLP227 T01060050=
201003271452 METAR KATL 271452Z 10011G20KT 10SM BKN018 09/04 A3017 RMK AO2 SLP221 T00940044 51017=
201003271352 METAR KATL 271352Z 10015KT 10SM OVC016 09/04 A3016 RMK AO2 SLP216 T00890044=
201003271252 METAR KATL 271252Z 09013KT 10SM OVC017 08/05 A3016 RMK AO2 SLP215 T00830050=
201003271152 METAR KATL 271152Z 09012G18KT 10SM OVC017 07/04 A3012 RMK AO2 SLP203 T00720044 10072 20061 51021=
201003271052 METAR KATL 271052Z 08015KT 10SM BKN018 07/04 A3010 RMK AO2 SLP196 T00720039=
201003271027 SPECI KATL 271027Z 09011KT 10SM BKN020 07/04 A3010 RMK AO2=
201003271027 SPECI KATL 271027Z 09011KT 10SM BKN020 07/04 A3010 RMK AO2=
201003270952 METAR KATL 270952Z 09013KT 10SM FEW021 07/03 A3009 RMK AO2 SLP191 T00670033=
201003270852 METAR KATL 270852Z 08012KT 10SM CLR 07/03 A3006 RMK AO2 SLP181 T00670033 53010=
201003270752 METAR KATL 270752Z 07012KT 10SM CLR 07/03 A3003 RMK AO2 SLP172 T00720033=
201003270652 METAR KATL 270652Z 05006KT 10SM CLR 07/03 A3004 RMK AO2 SLP175 T00670033=
201003270552 METAR KATL 270552Z 01007KT 10SM CLR 07/03 A3003 RMK AO2 SLP170 T00670028 10100 20061 51007=
201003270452 METAR KATL 270452Z 34005KT 10SM CLR 06/03 A3003 RMK AO2 SLP171 T00610028 401390061=
201003270352 METAR KATL 270352Z 35006KT 10SM CLR 07/03 A3001 RMK AO2 SLP165 T00720033=
201003270252 METAR KATL 270252Z 34008KT 10SM CLR 07/03 A3001 RMK AO2 SLP164 T00720033 53017=
201003270152 METAR KATL 270152Z 35009KT 10SM CLR 08/03 A2999 RMK AO2 SLP156 T00830033=
201003270052 METAR KATL 270052Z 33007KT 10SM CLR 09/03 A2997 RMK AO2 SLP150 T00890033=
201003262352 METAR KATL 262352Z 34013KT 10SM CLR 10/03 A2996 RMK AO2 SLP146 T01000033 10122 20100 53014=
201003262252 METAR KATL 262252Z 33012KT 10SM CLR 12/04 A2994 RMK AO2 SLP140 T01170044=
201003262152 METAR KATL 262152Z 31016G20KT 10SM FEW028 12/04 A2993 RMK AO2 SLP134 T01170044=
201003262052 METAR KATL 262052Z 32016KT 10SM SCT027 12/05 A2991 RMK AO2 SLP130 T01170050 53001=
201003262037 SPECI KATL 262037Z 32014KT 10SM SCT027 12/05 A2992 RMK AO2=
201003262037 SPECI KATL 262037Z 32014KT 10SM SCT027 12/05 A2992 RMK AO2=
201003261952 METAR KATL 261952Z 32013KT 10SM BKN027 11/04 A2991 RMK AO2 SLP129 T01110044=
201003261852 METAR KATL 261852Z 33009G18KT 10SM BKN026 11/05 A2991 RMK AO2 SLP130 T01110050=
201003261752 METAR KATL 261752Z 32015KT 10SM BKN030 12/04 A2991 RMK AO2 SLP128 T01170044 10117 20094 51011=
201003261652 METAR KATL 261652Z 30014G19KT 10SM BKN025 BKN030 11/04 A2991 RMK AO2 SLP126 T01060044=
201003261552 METAR KATL 261552Z 30019KT 10SM FEW020 BKN025 BKN030 11/05 A2990 RMK AO2 SLP125 T01060050=
201003261452 METAR KATL 261452Z 30014G20KT 10SM FEW020 BKN025 OVC030 10/05 A2988 RMK AO2 SLP116 T01000050 53024=
201003261352 METAR KATL 261352Z 30010KT 10SM BKN023 OVC030 10/06 A2984 RMK AO2 SLP104 T01000061=
201003261348 SPECI KATL 261348Z 31011KT 10SM BKN023 OVC030 10/06 A2983 RMK AO2=
201003261348 SPECI KATL 261348Z 31011KT 10SM BKN023 OVC030 10/06 A2983 RMK AO2=
201003261313 SPECI KATL 261313Z 30015G23KT 10SM FEW020 SCT029 OVC035 10/06 A2982 RMK AO2 BINOVC=
201003261313 SPECI KATL 261313Z 30015G23KT 10SM FEW020 SCT029 OVC035 10/06 A2982 RMK AO2 BINOVC=
201003261252 METAR KATL 261252Z 30017G21KT 10SM FEW020 SCT029 SCT037 11/07 A2980 RMK AO2 SLP091 T01060067=
201003261201 SPECI KATL 261201Z 28011G16KT 10SM BKN020 BKN029 BKN037 10/07 A2978 RMK AO2=
201003261201 SPECI KATL 261201Z 28011G16KT 10SM BKN020 BKN029 BKN037 10/07 A2978 RMK AO2=
201003261152 METAR KATL 261152Z 26009KT 10SM FEW025 BKN031 BKN039 10/07 A2978 RMK AO2 SLP083 70010 T01000072 10133 20094 53016=
201003261052 METAR KATL 261052Z 25006KT 10SM BKN039 09/07 A2976 RMK AO2 SLP075 T00940072=
201003260952 METAR KATL 260952Z 26007KT 10SM CLR 10/07 A2973 RMK AO2 SLP067 T01000072=
201003260931 SPECI KATL 260931Z 26008KT 10SM SCT026 10/07 A2973 RMK AO2=
201003260931 SPECI KATL 260931Z 26008KT 10SM SCT026 10/07 A2973 RMK AO2=
201003260908 SPECI KATL 260908Z 26008KT 10SM BKN028 11/07 A2973 RMK AO2=
201003260908 SPECI KATL 260908Z 26008KT 10SM BKN028 11/07 A2973 RMK AO2=
201003260852 METAR KATL 260852Z 25006KT 10SM FEW028 11/07 A2973 RMK AO2 SLP066 T01060072 53001=
201003260752 METAR KATL 260752Z 25006KT 10SM FEW032 11/07 A2972 RMK AO2 SLP063 T01060072=
201003260652 METAR KATL 260652Z 27011G17KT 10SM FEW032 12/08 A2972 RMK AO2 SLP063 T01170078=
201003260552 METAR KATL 260552Z 27010KT 10SM FEW065 13/11 A2973 RMK AO2 SLP063 60006 T01330106 10150 20133 53004=
201003260452 METAR KATL 260452Z 27014G17KT 10SM FEW020 BKN045 OVC080 14/13 A2971 RMK AO2 RAE25 SLP059 P0002 T01390128 401560094=
201003260352 METAR KATL 260352Z 21008KT 7SM -RA FEW020 SCT045 BKN070 OVC150 14/13 A2970 RMK AO2 SLP055 P0004 T01390128=
201003260319 SPECI KATL 260319Z 23007KT 6SM -RA BR SCT001 BKN050 BKN090 14/12 A2971 RMK AO2 P0001=
201003260319 SPECI KATL 260319Z 23007KT 6SM -RA BR SCT001 BKN050 BKN090 14/12 A2971 RMK AO2 P0001=
201003260252 METAR KATL 260252Z 21008KT 10SM -RA FEW035 BKN100 BKN150 14/12 A2971 RMK AO2 RAB52 SLP058 P0000 60000 T01390122 50001=
201003260240 SPECI KATL 260240Z 21008KT 10SM SCT024 BKN035 OVC100 14/12 A2972 RMK AO2=
201003260240 SPECI KATL 260240Z 21008KT 10SM SCT024 BKN035 OVC100 14/12 A2972 RMK AO2=
201003260152 METAR KATL 260152Z 20005KT 10SM SCT018 BKN025 BKN040 13/12 A2972 RMK AO2 RAB19E47 SLP063 P0000 T01330122=
201003260127 SPECI KATL 260127Z 22007KT 4SM -RA BR SCT001 OVC018 14/12 A2974 RMK AO2 RAB19 P0000=
201003260127 SPECI KATL 260127Z 22007KT 4SM -RA BR SCT001 OVC018 14/12 A2974 RMK AO2 RAB19 P0000=
201003260052 METAR KATL 260052Z 26004KT 10SM BKN018 OVC025 14/11 A2974 RMK AO2 SLP068 T01440106=
201003260027 SPECI KATL 260027Z 20010KT 10SM SCT022 BKN028 BKN050 BKN200 15/11 A2973 RMK AO2=
201003260027 SPECI KATL 260027Z 20010KT 10SM SCT022 BKN028 BKN050 BKN200 15/11 A2973 RMK AO2=
201003252352 METAR KATL 252352Z 17013KT 10SM FEW055 SCT100 BKN200 15/09 A2971 RMK AO2 SLP060 TCU DSNT E-SE 60004 T01500094 10156 20133 56034=
201003252252 METAR KATL 252252Z 17013G18KT 10SM SCT055 BKN090 BKN200 16/10 A2974 RMK AO2 SLP069 T01560100=
201003252152 METAR KATL 252152Z 17008KT 10SM BKN045 OVC150 15/10 A2978 RMK AO2 PRESFR SLP083 T01500100=
201003252052 METAR KATL 252052Z 17006KT 10SM FEW020 SCT055 OVC150 14/10 A2981 RMK AO2 RAE27 SLP095 P0001 60004 T01440100 58037=
201003251952 METAR KATL 251952Z 17008KT 6SM -RA FEW015 BKN030 OVC100 13/09 A2987 RMK AO2 RAB08 SLP116 P0003 T01330094=
201003251919 SPECI KATL 251919Z 00000KT 6SM -RA FEW025 BKN050 OVC100 14/08 A2992 RMK AO2 RAB08 P0001=
201003251919 SPECI KATL 251919Z 00000KT 6SM -RA FEW025 BKN050 OVC100 14/08 A2992 RMK AO2 RAB08 P0001=
201003251852 METAR KATL 251852Z 28003KT 10SM FEW050 BKN100 OVC120 14/08 A2992 RMK AO2 RAB1757E09 SLP132 VIRGA OHD & ALQDS CBMAM DSNT NW-N P0000 T01440078=
201003251752 METAR KATL 251752Z COR 29004KT 10SM FEW040 BKN100 OVC120 15/08 A2993 RMK AO2 SLP133 OCNL LTGICCG DSNT NW VIRGA N CBMAM OHD & ALQDS MOV NE T01500078 10156 20106 55019=
201003251652 METAR KATL 251652Z 17006KT 10SM FEW040 BKN100 OVC120 15/07 A2992 RMK AO2 SLP130 SHRA DSNT W T01500072=
201003251552 METAR KATL 251552Z 17010KT 10SM FEW040 BKN090 OVC120 15/07 A2995 RMK AO2 SLP140 T01500072=
201003251452 METAR KATL 251452Z 14006KT 10SM FEW040 BKN110 BKN150 14/08 A2998 RMK AO2 SLP151 T01440078 57019=
201003251352 METAR KATL 251352Z 11004KT 8SM BKN100 BKN120 BKN200 13/07 A3001 RMK AO2 SLP160 VIRGA N T01280072=
201003251252 METAR KATL 251252Z VRB06KT 10SM BKN150 BKN200 12/07 A3001 RMK AO2 SLP161 VIRGA OHD & N T01220072=
201003251152 METAR KATL 251152Z 26004KT 10SM SCT150 BKN200 11/07 A3004 RMK AO2 SLP170 T01060067 10128 20094 53022=
201003251052 METAR KATL 251052Z 14006KT 10SM BKN150 BKN250 11/07 A2996 RMK AO2 SLP140 T01060067=
201003250952 METAR KATL 250952Z 00000KT 10SM FEW180 BKN250 10/07 A2996 RMK AO2 SLP141 T01000067=
201003250852 METAR KATL 250852Z 00000KT 10SM SCT200 11/06 A2997 RMK AO2 SLP146 T01110061 58016=
201003250752 METAR KATL 250752Z 24003KT 10SM SCT250 12/06 A3000 RMK AO2 SLP155 T01170061=
201003250652 METAR KATL 250652Z 22004KT 10SM SCT250 12/06 A3001 RMK AO2 SLP158 T01220061=
201003250552 METAR KATL 250552Z 20005KT 10SM BKN250 13/06 A3002 RMK AO2 SLP161 T01280056 10200 20128 58007=
201003250452 METAR KATL 250452Z 19006KT 10SM OVC250 13/05 A3003 RMK AO2 SLP164 T01330050 402280061=
201003250352 METAR KATL 250352Z 20004KT 10SM OVC250 14/06 A3004 RMK AO2 SLP168 T01390056=
201003250252 METAR KATL 250252Z 19005KT 10SM FEW200 BKN250 15/06 A3004 RMK AO2 SLP169 T01500061 52004=
201003250152 METAR KATL 250152Z 21004KT 10SM SCT200 BKN250 17/05 A3004 RMK AO2 SLP169 T01720050=
201003250052 METAR KATL 250052Z 22003KT 10SM SCT200 BKN250 18/06 A3003 RMK AO2 SLP169 T01780056=
201003242352 METAR KATL 242352Z 20004KT 10SM FEW150 BKN200 BKN250 20/04 A3003 RMK AO2 SLP168 T02000044 10228 20200 56003=
201003242252 METAR KATL 242252Z 20006KT 10SM BKN200 BKN250 21/04 A3003 RMK AO2 SLP167 T02110039=
201003242152 METAR KATL 242152Z 23006KT 10SM FEW150 BKN200 OVC250 22/04 A3003 RMK AO2 SLP166 T02220039=
201003242052 METAR KATL 242052Z 22005KT 10SM BKN150 BKN200 BKN250 22/03 A3004 RMK AO2 SLP168 T02220033 55016=
201003241952 METAR KATL 241952Z 22009KT 10SM SCT150 BKN200 BKN250 22/04 A3004 RMK AO2 SLP168 T02220044=
201003241852 METAR KATL 241852Z 20004KT 10SM FEW150 SCT200 BKN250 22/04 A3006 RMK AO2 SLP175 T02170039=
201003241752 METAR KATL 241752Z VRB04KT 10SM FEW200 BKN250 21/06 A3009 RMK AO2 SLP186 T02110056 10217 20061 58014=
201003241652 METAR KATL 241652Z 35004KT 10SM FEW200 SCT250 21/07 A3011 RMK AO2 SLP193 T02060067=
201003241552 METAR KATL 241552Z 30004KT 10SM FEW200 18/07 A3012 RMK AO2 SLP198 T01830072=
201003241452 METAR KATL 241452Z 31006KT 10SM FEW250 17/08 A3013 RMK AO2 SLP200 T01670078 50007=
201003241352 METAR KATL 241352Z 31004KT 10SM FEW250 13/07 A3013 RMK AO2 SLP203 T01330072=
201003241252 METAR KATL 241252Z 32004KT 7SM CLR 10/07 A3012 RMK AO2 SLP201 T01000067=
201003241152 METAR KATL 241152Z 31003KT 8SM FEW250 08/05 A3011 RMK AO2 SLP196 T00780050 10100 20067 53016=
201003241052 METAR KATL 241052Z 32005KT 10SM CLR 08/05 A3008 RMK AO2 SLP187 T00780050=
201003240952 METAR KATL 240952Z 31004KT 10SM CLR 08/05 A3007 RMK AO2 SLP182 T00780050=
201003240852 METAR KATL 240852Z 31004KT 10SM CLR 09/06 A3006 RMK AO2 SLP178 T00940056 56007=
201003240752 METAR KATL 240752Z 00000KT 10SM CLR 09/06 A3006 RMK AO2 SLP179 T00940056=
201003240652 METAR KATL 240652Z 30004KT 10SM CLR 10/06 A3007 RMK AO2 SLP183 T01000056=
201003240552 METAR KATL 240552Z 00000KT 10SM FEW180 10/06 A3008 RMK AO2 SLP187 T01000056 10150 20100 53005=
201003240452 METAR KATL 240452Z 30005KT 10SM SCT250 10/06 A3007 RMK AO2 SLP184 T01000056 401830028=
201003240352 METAR KATL 240352Z 29004KT 10SM BKN250 12/06 A3007 RMK AO2 SLP184 T01170061=
201003240252 METAR KATL 240252Z 29004KT 10SM BKN250 13/06 A3007 RMK AO2 SLP183 T01280056 51017=
201003240152 METAR KATL 240152Z 29004KT 10SM SCT250 13/06 A3006 RMK AO2 SLP179 T01330056=
201003240052 METAR KATL 240052Z 30004KT 10SM FEW250 15/05 A3003 RMK AO2 SLP170 T01500050=
201003232352 METAR KATL 232352Z 31006KT 10SM FEW250 15/05 A3002 RMK AO2 SLP166 T01500050 10183 20150 53014=
201003232252 METAR KATL 232252Z 32011KT 10SM FEW250 17/06 A3000 RMK AO2 SLP161 T01670056=
201003232152 METAR KATL 232152Z 30016G20KT 10SM FEW050 18/06 A2998 RMK AO2 SLP154 T01780056=
201003232052 METAR KATL 232052Z 30014G23KT 10SM FEW050 18/06 A2997 RMK AO2 SLP150 T01780056 56017=
201003231952 METAR KATL 231952Z 30012KT 10SM FEW050 18/07 A2999 RMK AO2 SLP155 T01780067=
201003231852 METAR KATL 231852Z 28012G19KT 10SM FEW040 17/07 A3000 RMK AO2 SLP161 T01670067=
201003231752 METAR KATL 231752Z 26008KT 10SM FEW035 15/06 A3002 RMK AO2 SLP168 T01500061 10150 20039 58002=
201003231652 METAR KATL 231652Z 29005KT 10SM FEW030 13/06 A3004 RMK AO2 SLP173 T01280061=
201003231552 METAR KATL 231552Z 29008G14KT 10SM FEW018 11/06 A3004 RMK AO2 SLP175 T01060061=
201003231515 SPECI KATL 231515Z 29006KT 10SM SCT014 09/06 A3004 RMK AO2=
201003231515 SPECI KATL 231515Z 29006KT 10SM SCT014 09/06 A3004 RMK AO2=
201003231452 METAR KATL 231452Z 29009KT 10SM BKN012 08/05 A3003 RMK AO2 SLP173 T00780050 51021=
201003231352 METAR KATL 231352Z 29010KT 10SM BKN010 06/04 A3001 RMK AO2 SLP166 T00610044=
201003231252 METAR KATL 231252Z 29009KT 7SM BKN010 OVC013 06/04 A2999 RMK AO2 SLP158 T00560039=
201003231152 METAR KATL 231152Z 27006KT 7SM BKN010 04/03 A2996 RMK AO2 SLP152 70011 T00390028 10050 20028 51013=
201003231149 SPECI KATL 231149Z 27006KT 7SM BKN012 04/03 A2996 RMK AO2=
201003231149 SPECI KATL 231149Z 27006KT 7SM BKN012 04/03 A2996 RMK AO2=
201003231052 METAR KATL 231052Z 28004KT 10SM FEW049 03/02 A2994 RMK AO2 SLP144 T00280022=
201003230952 METAR KATL 230952Z 27006KT 10SM BKN049 BKN120 03/02 A2992 RMK AO2 SLP139 T00330022=
201003230852 METAR KATL 230852Z 27006KT 10SM SCT120 03/02 A2992 RMK AO2 SLP138 T00330022 56003=
201003230752 METAR KATL 230752Z 26005KT 10SM CLR 03/02 A2992 RMK AO2 SLP138 T00330022=
201003230652 METAR KATL 230652Z 31004KT 10SM FEW019 04/03 A2991 RMK AO2 SLP134 T00390028=
201003230633 SPECI KATL 230633Z 28006KT 10SM FEW009 SCT029 04/03 A2991 RMK AO2=
201003230633 SPECI KATL 230633Z 28006KT 10SM FEW009 SCT029 04/03 A2991 RMK AO2=
201003230618 SPECI KATL 230618Z 29005KT 10SM FEW009 OVC029 04/03 A2992 RMK AO2=
201003230618 SPECI KATL 230618Z 29005KT 10SM FEW009 OVC029 04/03 A2992 RMK AO2=
201003230552 METAR KATL 230552Z 30006KT 10SM SCT012 OVC031 05/03 A2993 RMK AO2 SLP139 60002 T00500033 10050 20044 51015=
201003230452 METAR KATL 230452Z 30008KT 10SM SCT006 BKN015 OVC025 05/03 A2991 RMK AO2 RAE49 SLP134 P0002 T00500033 400670022=
201003230424 SPECI KATL 230424Z 31009KT 10SM -RA SCT006 BKN015 OVC025 05/04 A2991 RMK AO2 P0002=
201003230424 SPECI KATL 230424Z 31009KT 10SM -RA SCT006 BKN015 OVC025 05/04 A2991 RMK AO2 P0002=
201003230352 METAR KATL 230352Z 32007KT 5SM -RA BR BKN006 OVC015 05/04 A2990 RMK AO2 SLP131 P0000 T00500044=
201003230252 METAR KATL 230252Z 26007KT 10SM -RA BKN007 BKN014 OVC020 05/04 A2988 RMK AO2 SLP124 P0000 60000 T00500039 51012=
201003230152 METAR KATL 230152Z 26008KT 5SM -RA BR OVC007 04/04 A2987 RMK AO2 SLP121 CIG 005V010 P0000 T00440039=
201003230052 METAR KATL 230052Z 26008KT 10SM -RA BKN008 OVC015 05/03 A2986 RMK AO2 RAB51 SLP118 P0000 T00500033=
201003222352 METAR KATL 222352Z 24009KT 10SM BKN012 OVC025 04/03 A2985 RMK AO2 SLP113 CIG 009V015 60009 T00440028 10061 20039 53001=
201003222329 SPECI KATL 222329Z 25008KT 10SM FEW008 BKN013 OVC020 04/03 A2985 RMK AO2=
201003222329 SPECI KATL 222329Z 25008KT 10SM FEW008 BKN013 OVC020 04/03 A2985 RMK AO2=
201003222252 METAR KATL 222252Z 24009KT 10SM SCT011 BKN016 OVC025 04/03 A2984 RMK AO2 RAE00 SLP111 P0000 T00440028=
201003222152 METAR KATL 222152Z 24008KT 10SM -RA BKN013 BKN020 OVC030 04/03 A2983 RMK AO2 SLP107 P0001 T00440028=
201003222052 METAR KATL 222052Z 24008KT 8SM -RA BKN013 BKN020 OVC080 04/03 A2985 RMK AO2 SLP112 P0004 60008 T00440028 53001=
201003221952 METAR KATL 221952Z 25008KT 7SM -RA BKN013 BKN030 OVC080 04/02 A2983 RMK AO2 SLP108 P0004 T00390017=
201003221852 METAR KATL 221852Z 22011KT 7SM -RA BKN013 BKN030 OVC080 05/01 A2983 RMK AO2 RAB17 SLP106 P0000 T00500011=
201003221834 SPECI KATL 221834Z 23010G17KT 8SM -RA BKN030 BKN040 OVC080 06/01 A2983 RMK AO2 RAB17 VIS LWR SW-N SHRA P0000=
201003221834 SPECI KATL 221834Z 23010G17KT 8SM -RA BKN030 BKN040 OVC080 06/01 A2983 RMK AO2 RAB17 VIS LWR SW-N SHRA P0000=
201003221752 METAR KATL 221752Z 23009KT 10SM BKN030 BKN040 OVC080 06/M01 A2984 RMK AO2 SLP110 BINOVC 60000 T00611011 10067 20028 58003=
201003221652 METAR KATL 221652Z 25008KT 10SM FEW025 BKN035 OVC045 06/M02 A2986 RMK AO2 SLP116 T00561017=
201003221601 SPECI KATL 221601Z 22010KT 10SM BKN027 BKN036 BKN080 06/M01 A2985 RMK AO2=
201003221601 SPECI KATL 221601Z 22010KT 10SM BKN027 BKN036 BKN080 06/M01 A2985 RMK AO2=
201003221552 METAR KATL 221552Z 23010G15KT 10SM FEW025 BKN030 BKN080 06/M01 A2985 RMK AO2 SLP113 T00561006=
201003221505 SPECI KATL 221505Z 25009KT 10SM BKN028 BKN034 BKN080 04/M01 A2985 RMK AO2=
201003221505 SPECI KATL 221505Z 25009KT 10SM BKN028 BKN034 BKN080 04/M01 A2985 RMK AO2=
201003221452 METAR KATL 221452Z 25012G16KT 10SM FEW020 BKN030 BKN080 04/M01 A2985 RMK AO2 SLP113 60000 T00391011 50006=
201003221434 SPECI KATL 221434Z 24012G19KT 10SM FEW020 BKN030 BKN080 03/M01 A2985 RMK AO2=
201003221434 SPECI KATL 221434Z 24012G19KT 10SM FEW020 BKN030 BKN080 03/M01 A2985 RMK AO2=
201003221352 METAR KATL 221352Z 23010KT 10SM BKN020 BKN040 BKN075 03/M01 A2985 RMK AO2 SNB07E33 SLP113 P0000 T00331006=
201003221333 SPECI KATL 221333Z 24010KT 10SM BKN020 BKN040 OVC070 03/M01 A2985 RMK AO2 SNB07E33 P0000=
201003221333 SPECI KATL 221333Z 24010KT 10SM BKN020 BKN040 OVC070 03/M01 A2985 RMK AO2 SNB07E33 P0000=
201003221307 SPECI KATL 221307Z 24008KT 10SM -SN FEW020 BKN040 OVC070 03/M01 A2985 RMK AO2 SNB07 P0000=
201003221307 SPECI KATL 221307Z 24008KT 10SM -SN FEW020 BKN040 OVC070 03/M01 A2985 RMK AO2 SNB07 P0000=
201003221252 METAR KATL 221252Z 24009KT 9SM SCT016 BKN037 OVC048 03/M01 A2984 RMK AO2 SNB36E49 SLP110 P0000 T00281011=
201003221236 SPECI KATL 221236Z 25007KT 10SM -SN SCT016 BKN037 OVC046 02/M01 A2984 RMK AO2 SNB36 P0000=
201003221236 SPECI KATL 221236Z 25007KT 10SM -SN SCT016 BKN037 OVC046 02/M01 A2984 RMK AO2 SNB36 P0000=
201003221152 METAR KATL 221152Z 24007KT 10SM FEW018 BKN043 OVC053 03/M02 A2983 RMK AO2 SNB19E25 SLP106 P0000 60000 70040 T00281017 10039 20028 53012=
201003221125 SPECI KATL 221125Z 24007KT 9SM FEW018 OVC043 03/M02 A2983 RMK AO2 SNB19E25 P0000=
201003221125 SPECI KATL 221125Z 24007KT 9SM FEW018 OVC043 03/M02 A2983 RMK AO2 SNB19E25 P0000=
201003221119 SPECI KATL 221119Z 23009KT 10SM -SN FEW018 OVC043 03/M02 A2983 RMK AO2 SNB19 P0000=
201003221119 SPECI KATL 221119Z 23009KT 10SM -SN FEW018 OVC043 03/M02 A2983 RMK AO2 SNB19 P0000=
201003221052 METAR KATL 221052Z 24007KT 10SM FEW018 OVC043 03/M01 A2982 RMK AO2 SLP100 T00281011 $=
201003220952 METAR KATL 220952Z 24005KT 10SM SCT018 OVC039 03/M01 A2980 RMK AO2 SLP094 T00281006 $=
201003220852 METAR KATL 220852Z 22006KT 10SM FEW018 SCT041 OVC055 03/M01 A2980 RMK AO2 SLP092 T00281006 56007 $=
201003220752 METAR KATL 220752Z 23007KT 10SM FEW018 BKN038 OVC045 03/00 A2980 RMK AO2 SLP092 T00330000 $=
201003220652 METAR KATL 220652Z 26007KT 10SM BKN034 OVC049 03/00 A2981 RMK AO2 SLP097 T00330000 $=
201003220552 METAR KATL 220552Z 24005KT 10SM FEW036 BKN060 04/00 A2982 RMK AO2 SLP099 60000 T00390000 10100 20039 50007 $=
201003220525 SPECI KATL 220525Z 25006KT 10SM SCT023 BKN036 OVC060 04/01 A2983 RMK AO2 $=
201003220525 SPECI KATL 220525Z 25006KT 10SM SCT023 BKN036 OVC060 04/01 A2983 RMK AO2 $=
201003220452 METAR KATL 220452Z 28007KT 10SM SCT019 BKN026 OVC050 05/01 A2983 RMK AO2 SLP101 T00500006 401500050 $=
201003220445 SPECI KATL 220445Z 28009KT 10SM FEW019 BKN024 OVC036 05/01 A2983 RMK AO2 $=
201003220445 SPECI KATL 220445Z 28009KT 10SM FEW019 BKN024 OVC036 05/01 A2983 RMK AO2 $=
201003220352 METAR KATL 220352Z 27007KT 10SM FEW022 BKN036 BKN044 06/02 A2981 RMK AO2 SLP095 T00560022 $=
201003220252 METAR KATL 220252Z 27008KT 10SM FEW025 BKN032 06/03 A2980 RMK AO2 SLP091 60000 T00610028 53029 $=
201003220152 METAR KATL 220152Z 26008KT 10SM SCT018 07/04 A2977 RMK AO2 SLP082 T00720039 $=
201003220052 METAR KATL 220052Z 26008KT 10SM SCT019 09/06 A2973 RMK AO2 RAE02 SLP069 P0000 T00890061 $=
201003212352 METAR KATL 212352Z 23007KT 10SM -RA FEW008 BKN050 BKN070 11/08 A2971 RMK AO2 PK WND 25027/2305 WSHFT 2254 TSE29 SLP060 TS MOV E CB DSNT NE-E VIS LWR NE-E P0032 60038 T01060083 10150 20100 53010 $=
201003212329 SPECI KATL 212329Z 23011G20KT 7SM -RA FEW008 BKN037 BKN070 11/08 A2969 RMK AO2 PK WND 25027/2305 WSHFT 2254 TSE29 TS MOV E CB DSNT NE-SE P0032 $=
201003212329 SPECI KATL 212329Z 23011G20KT 7SM -RA FEW008 BKN037 BKN070 11/08 A2969 RMK AO2 PK WND 25027/2305 WSHFT 2254 TSE29 TS MOV E CB DSNT NE-SE P0032 $=
201003212317 SPECI KATL 212317Z 24011G21KT 6SM R09R/2400VP6000FT -TSRA BKN008CB BKN018 11/09 A2969 RMK AO2 PK WND 25027/2305 WSHFT 2254 PRESRR VIS NE-SE 1 1/2 OCNL LTGIC OHD-NE-SE TS OHD-NE-SE MOV NE P0030 $=
201003212317 SPECI KATL 212317Z 24011G21KT 6SM R09R/2400VP6000FT -TSRA BKN008CB BKN018 11/09 A2969 RMK AO2 PK WND 25027/2305 WSHFT 2254 PRESRR VIS NE-SE 1 1/2 OCNL LTGIC OHD-NE-SE TS OHD-NE-SE MOV NE P0030 $=
201003212310 SPECI KATL 212310Z 25014G27KT 1/2SM R09R/2200VP6000FT +TSRA FG BKN008CB OVC018 12/11 A2967 RMK AO2 PK WND 25027/2305 WSHFT 2254 PRESRR OCNL LTGIC OHD-ALQDS TS OHD-ALQDS MOV NE P0022 $=
201003212310 SPECI KATL 212310Z 25014G27KT 1/2SM R09R/2200VP6000FT +TSRA FG BKN008CB OVC018 12/11 A2967 RMK AO2 PK WND 25027/2305 WSHFT 2254 PRESRR OCNL LTGIC OHD-ALQDS TS OHD-ALQDS MOV NE P0022 $=
201003212252 METAR KATL 212252Z 15011G20KT 7SM -TSRA BKN008 OVC015CB 15/14 A2964 RMK AO2 TSB45RAE01B45 SLP033 OCNL LTGIC SW-NW TS SW-NW MOV NE P0000 T01500139 $=
201003212245 SPECI KATL 212245Z 16012G20KT 7SM -TSRA BKN008 OVC013CB 15/14 A2964 RMK AO2 TSB45RAE01B45 OCNL LTGIC SW-NW TS SW-NW MOV NE P0000 $=
201003212245 SPECI KATL 212245Z 16012G20KT 7SM -TSRA BKN008 OVC013CB 15/14 A2964 RMK AO2 TSB45RAE01B45 OCNL LTGIC SW-NW TS SW-NW MOV NE P0000 $=
201003212152 METAR KATL 212152Z COR 14013G22KT 6SM -RA BR OVC006 14/13 A2965 RMK AO2 SLP040 CIG 005V008 P0005 T01440133 $=
201003212118 SPECI KATL 212118Z 13012G20KT 2SM -RA BR OVC005 14/13 A2966 RMK AO2 SFC VIS 3 CIG 004V007 P0005 $=
201003212118 SPECI KATL 212118Z 13012G20KT 2SM -RA BR OVC005 14/13 A2966 RMK AO2 SFC VIS 3 CIG 004V007 P0005 $=
201003212052 METAR KATL 212052Z 13014G21KT 3SM -RA BR OVC006CB 14/13 A2968 RMK AO2 SLP048 CIG 004V008 CB S MOV NE P0001 60001 T01390128 56041 $=
201003212023 SPECI KATL 212023Z 14018G24KT 3SM -RA BR BKN008 OVC011CB 14/13 A2969 RMK AO2 CB DSNT NE P0001 $=
201003212023 SPECI KATL 212023Z 14018G24KT 3SM -RA BR BKN008 OVC011CB 14/13 A2969 RMK AO2 CB DSNT NE P0001 $=
201003211952 METAR KATL 211952Z COR 13013G20KT 3SM -RA BR OVC014CB 14/12 A2971 RMK AO2 SFC VIS 4 RAE1853B40 CB E-S MOV NE SLP059 P0000 T01390122 $=
201003211945 SPECI KATL 211945Z 13013G23KT 3SM -RA BR OVC014 14/12 A2972 RMK AO2 SFC VIS 6 RAE1853B40 P0000 $=
201003211945 SPECI KATL 211945Z 13013G23KT 3SM -RA BR OVC014 14/12 A2972 RMK AO2 SFC VIS 6 RAE1853B40 P0000 $=
201003211941 SPECI KATL 211941Z 13015G23KT 8SM -RA OVC014 14/12 A2972 RMK AO2 RAE1853B40 P0000 $=
201003211941 SPECI KATL 211941Z 13015G23KT 8SM -RA OVC014 14/12 A2972 RMK AO2 RAE1853B40 P0000 $=
201003211852 METAR KATL 211852Z 12012G20KT 6SM -RA BR BKN017 OVC023 14/12 A2975 RMK AO2 RAB1757 SLP073 P0000 T01390117 $=
201003211752 METAR KATL 211752Z 14013G21KT 10SM BKN016 OVC022 14/11 A2980 RMK AO2 RAB41E50 SLP090 P0000 60002 T01390111 10139 20106 58028 $=
201003211652 METAR KATL 211652Z 13011G16KT 10SM BKN020 OVC028 13/11 A2984 RMK AO2 RAB16E46 SLP102 P0001 T01330111 $=
201003211631 SPECI KATL 211631Z 13014G19KT 7SM -RA SCT020 BKN029 OVC044 13/11 A2985 RMK AO2 RAB16 P0000 $=
201003211631 SPECI KATL 211631Z 13014G19KT 7SM -RA SCT020 BKN029 OVC044 13/11 A2985 RMK AO2 RAB16 P0000 $=
201003211552 METAR KATL 211552Z 13011G18KT 10SM SCT014 SCT018 BKN065 BKN150 13/11 A2986 RMK AO2 SLP109 T01330106=
201003211452 METAR KATL 211452Z COR 12009KT 10SM FEW015 SCT020 OVC060 12/10 A2989 RMK AO2 RAE08 SLP120 P0000 60001 T01220100 58004=
201003211352 METAR KATL 211352Z 13009KT 9SM -RA SCT023 SCT039 OVC070 11/09 A2991 RMK AO2 RAE36B52 SLP126 P0000 T01110094=
201003211304 SPECI KATL 211304Z 14009KT 8SM -RA SCT020 BKN065 OVC090 11/09 A2991 RMK AO2 P0000=
201003211304 SPECI KATL 211304Z 14009KT 8SM -RA SCT020 BKN065 OVC090 11/09 A2991 RMK AO2 P0000=
201003211252 METAR KATL 211252Z 13006KT 7SM -RA BKN020 BKN075 OVC120 11/09 A2991 RMK AO2 SLP125 P0001 T01110089=
201003211216 SPECI KATL 211216Z 13010KT 7SM -RA BKN025 BKN075 OVC120 11/08 A2990 RMK AO2 P0000=
201003211216 SPECI KATL 211216Z 13010KT 7SM -RA BKN025 BKN075 OVC120 11/08 A2990 RMK AO2 P0000=
201003211152 METAR KATL 211152Z 13008KT 9SM -RA BKN065 BKN120 OVC200 11/07 A2990 RMK AO2 RAB34 SLP123 P0001 60001 70001 T01110072 10150 20111 58012=
201003211052 METAR KATL 211052Z 13005KT 10SM BKN070 BKN120 OVC200 12/06 A2992 RMK AO2 SLP129 T01220061=
201003210952 METAR KATL 210952Z 14005KT 10SM SCT120 OVC200 12/06 A2992 RMK AO2 SLP128 T01220061=
201003210852 METAR KATL 210852Z COR 14003KT 10SM SCT120 OVC200 12/06 A2994 RMK AO2 SLP134 T01220061 58015=
201003210752 METAR KATL 210752Z 13005KT 10SM FEW150 OVC200 13/06 A2996 RMK AO2 SLP141 T01330056=
201003210652 METAR KATL 210652Z 14003KT 10SM SCT150 OVC200 14/06 A2996 RMK AO2 SLP141 T01390056=
201003210552 METAR KATL 210552Z 17004KT 10SM SCT150 OVC200 14/06 A2998 RMK AO2 SLP148 T01390056 10183 20139 58011=
201003210452 METAR KATL 210452Z COR 16005KT 10SM FEW150 OVC200 14/06 A3000 RMK AO2 SLP154 T01440056 402170067=
201003210352 METAR KATL 210352Z 17005KT 10SM FEW150 OVC200 14/06 A3001 RMK AO2 SLP158 T01440056=
201003210252 METAR KATL 210252Z 17007KT 10SM FEW150 SCT200 15/05 A3001 RMK AO2 SLP160 T01500050 53002=
201003210152 METAR KATL 210152Z 15006KT 10SM FEW120 BKN150 17/04 A3000 RMK AO2 SLP158 T01670044=
201003210052 METAR KATL 210052Z 17006KT 10SM FEW100 SCT150 BKN200 17/04 A3001 RMK AO2 SLP160 T01670044=
201003202352 METAR KATL 202352Z 18007KT 10SM FEW075 SCT200 18/04 A3001 RMK AO2 SLP161 VIRGA SE-SW-W T01830044 10217 20183 51000=
201003202252 METAR KATL 202252Z 18009KT 10SM FEW075 SCT120 SCT250 21/04 A3001 RMK AO2 SLP160 T02060039=
201003202152 METAR KATL 202152Z 19009KT 10SM FEW075 SCT100 BKN250 21/04 A3001 RMK AO2 SLP160 T02110044=
201003202052 METAR KATL 202052Z 20011G16KT 10SM SCT075 BKN250 21/03 A3001 RMK AO2 SLP159 T02110028 56019=
201003201952 METAR KATL 201952Z 19012KT 10SM SCT075 BKN250 21/03 A3002 RMK AO2 SLP165 T02060033=
201003201852 METAR KATL 201852Z 15011KT 10SM SCT075 BKN250 21/04 A3004 RMK AO2 SLP171 T02110039=
201003201752 METAR KATL 201752Z 20012G16KT 10SM SCT075 BKN250 21/05 A3007 RMK AO2 SLP179 T02110050 10211 20078 58009=
201003201652 METAR KATL 201652Z 21009KT 10SM SCT065 19/04 A3008 RMK AO2 SLP184 T01940039=
201003201552 METAR KATL 201552Z 15006KT 10SM FEW055 19/04 A3010 RMK AO2 SLP189 T01890044=
201003201452 METAR KATL 201452Z 00000KT 10SM CLR 17/04 A3009 RMK AO2 SLP188 T01720039 51013=
201003201352 METAR KATL 201352Z 00000KT 10SM CLR 14/06 A3009 RMK AO2 SLP186 T01440056=
201003201252 METAR KATL 201252Z 00000KT 10SM CLR 10/06 A3007 RMK AO2 SLP181 T01000061=
201003201152 METAR KATL 201152Z 29003KT 10SM CLR 08/03 A3006 RMK AO2 SLP177 T00830033 10117 20067 53012=
201003201052 METAR KATL 201052Z 00000KT 10SM CLR 08/04 A3004 RMK AO2 SLP169 T00780039=
201003200952 METAR KATL 200952Z 00000KT 10SM CLR 09/03 A3002 RMK AO2 SLP164 T00940028=
201003200852 METAR KATL 200852Z 00000KT 10SM CLR 09/04 A3002 RMK AO2 SLP163 T00890039 58006=
201003200752 METAR KATL 200752Z 00000KT 10SM CLR 11/03 A3003 RMK AO2 SLP164 T01060033=
201003200652 METAR KATL 200652Z 00000KT 10SM CLR 12/03 A3003 RMK AO2 SLP167 T01170028=
201003200552 METAR KATL 200552Z 21005KT 10SM CLR 09/04 A3004 RMK AO2 SLP169 T00940039 10189 20094 55002=
201003200452 METAR KATL 200452Z 00000KT 10SM CLR 12/03 A3003 RMK AO2 SLP166 T01220033 402170067=
201003200352 METAR KATL 200352Z 32003KT 10SM CLR 16/01 A3004 RMK AO2 SLP168 T01560011=
201003200252 METAR KATL 200252Z 33005KT 10SM CLR 15/03 A3004 RMK AO2 SLP171 T01500033 51015=
201003200152 METAR KATL 200152Z 23003KT 10SM CLR 16/03 A3003 RMK AO2 SLP168 T01560033=
201003200052 METAR KATL 200052Z 25003KT 10SM CLR 17/02 A3002 RMK AO2 SLP163 T01720022=
201003192352 METAR KATL 192352Z 23004KT 10SM CLR 19/02 A3000 RMK AO2 SLP156 T01890017 10217 20189 53002=
201003192252 METAR KATL 192252Z 28004KT 10SM CLR 21/01 A2999 RMK AO2 SLP154 T02060011=
201003192152 METAR KATL 192152Z 22007KT 10SM CLR 21/01 A2999 RMK AO2 SLP152 T02110011=
201003192052 METAR KATL 192052Z VRB04KT 10SM FEW080 21/01 A2999 RMK AO2 SLP153 T02110006 56015=
201003191952 METAR KATL 191952Z 27009KT 10SM FEW080 21/02 A3000 RMK AO2 SLP156 T02110017=
201003191852 METAR KATL 191852Z 00000KT 10SM FEW080 21/01 A3001 RMK AO2 SLP161 T02060011=
201003191752 METAR KATL 191752Z 36005KT 10SM CLR 20/02 A3004 RMK AO2 SLP169 T02000017 10200 20072 58009=
201003191652 METAR KATL 191652Z 31005KT 10SM CLR 19/02 A3006 RMK AO2 SLP176 T01940017=
201003191552 METAR KATL 191552Z 00000KT 10SM CLR 18/02 A3007 RMK AO2 SLP181 T01780017=
201003191452 METAR KATL 191452Z 33007KT 10SM CLR 16/03 A3006 RMK AO2 SLP179 T01560033 51018=
201003191352 METAR KATL 191352Z 34008KT 10SM CLR 12/03 A3005 RMK AO2 SLP177 T01220033=
201003191252 METAR KATL 191252Z 32009KT 10SM CLR 09/03 A3003 RMK AO2 SLP170 T00940033=
201003191152 METAR KATL 191152Z 31006KT 10SM CLR 07/03 A3001 RMK AO2 SLP163 T00720028 10094 20067 53014=
201003191052 METAR KATL 191052Z 31008KT 10SM CLR 07/03 A2999 RMK AO2 SLP156 T00720028=
201003190952 METAR KATL 190952Z 32008KT 10SM CLR 07/03 A2998 RMK AO2 SLP150 T00720033=
201003190852 METAR KATL 190852Z 31008KT 10SM CLR 07/03 A2997 RMK AO2 SLP148 T00720033 52002=
201003190752 METAR KATL 190752Z 30008KT 10SM CLR 08/04 A2996 RMK AO2 SLP146 T00830039=
201003190652 METAR KATL 190652Z 32008KT 10SM CLR 09/04 A2996 RMK AO2 SLP146 T00890039=
201003190552 METAR KATL 190552Z 30008KT 10SM CLR 09/04 A2996 RMK AO2 SLP144 T00940039 10150 20094 51005=
201003190452 METAR KATL 190452Z 30007KT 10SM CLR 10/04 A2996 RMK AO2 SLP143 T01000039 401720072=
201003190352 METAR KATL 190352Z 31008KT 10SM CLR 10/04 A2995 RMK AO2 SLP143 T01000039=
201003190252 METAR KATL 190252Z 31007KT 10SM CLR 11/03 A2995 RMK AO2 SLP141 T01110033 51016=
201003190152 METAR KATL 190152Z 30005KT 10SM CLR 12/03 A2993 RMK AO2 SLP137 T01220028=
201003190052 METAR KATL 190052Z 29004KT 10SM FEW100 14/04 A2992 RMK AO2 SLP132 T01390039=
201003182352 METAR KATL 182352Z 29003KT 10SM SCT095 BKN130 15/04 A2990 RMK AO2 SLP125 T01500039 10172 20144 53005=
201003182252 METAR KATL 182252Z 26004KT 10SM BKN085 BKN120 16/06 A2989 RMK AO2 SLP121 T01560056=
201003182152 METAR KATL 182152Z 28004KT 10SM BKN080 BKN120 17/06 A2988 RMK AO2 SLP118 T01670056=
201003182052 METAR KATL 182052Z 32005KT 10SM FEW060 BKN070 BKN110 16/04 A2988 RMK AO2 SLP119 T01610044 56015=
201003181952 METAR KATL 181952Z 32009G16KT 10SM BKN060 BKN070 BKN150 16/04 A2989 RMK AO2 SLP121 T01610039=
201003181852 METAR KATL 181852Z VRB06KT 10SM BKN060 BKN100 BKN150 16/04 A2991 RMK AO2 SLP128 T01560039=
201003181752 METAR KATL 181752Z 35011G14KT 10SM FEW050 SCT100 BKN150 BKN250 17/04 A2993 RMK AO2 SLP135 T01670039 10167 20072 58011=
201003181652 METAR KATL 181652Z 28008KT 260V320 10SM FEW040 SCT100 BKN150 15/06 A2995 RMK AO2 SLP142 T01500061=
201003181552 METAR KATL 181552Z 32008KT 10SM FEW100 BKN150 BKN250 13/07 A2996 RMK AO2 SLP146 T01280072=
201003181520 SPECI KATL 181520Z 31008KT 10SM FEW100 BKN150 BKN250 12/08 A2996 RMK AO2=
201003181520 SPECI KATL 181520Z 31008KT 10SM FEW100 BKN150 BKN250 12/08 A2996 RMK AO2=
201003181452 METAR KATL 181452Z 32008KT 6SM HZ FEW015 SCT100 BKN150 11/08 A2996 RMK AO2 SLP148 T01060078 51005=
201003181352 METAR KATL 181352Z 32009KT 5SM BR FEW060 BKN100 BKN250 09/07 A2996 RMK AO2 SLP147 T00890067=
201003181252 METAR KATL 181252Z 32008KT 4SM BR BKN100 08/07 A2995 RMK AO2 SLP146 T00780067=
201003181152 METAR KATL 181152Z COR 32006KT 4SM BR SCT046 OVC110 07/07 A2995 RMK AO2 SLP143 60000 70025 T00720067 10078 20072 53004=
201003181052 METAR KATL 181052Z 32007KT 4SM BR BKN055 OVC110 07/07 A2993 RMK AO2 DZB24E44 SLP139 P0000 T00720067=
201003180952 METAR KATL 180952Z 29005KT 5SM BR FEW035 BKN055 OVC100 07/07 A2993 RMK AO2 RAE0857 SLP137 P0000 T00720067=
201003180852 METAR KATL 180852Z 28004KT 5SM -RA BR OVC035 08/07 A2994 RMK AO2 SLP139 P0000 60000 T00780067 58012=
201003180752 METAR KATL 180752Z 00000KT 6SM -RA BR FEW038 OVC046 08/07 A2995 RMK AO2 SLP144 P0000 T00780067=
201003180652 METAR KATL 180652Z 30004KT 5SM -RA BR FEW043 OVC055 07/07 A2997 RMK AO2 RAB27 SLP149 P0000 T00720067=
201003180552 METAR KATL 180552Z 31003KT 7SM SCT055 BKN070 OVC100 07/07 A2997 RMK AO2 SLP152 60001 T00720067 10089 20072 58005=
201003180452 METAR KATL 180452Z 32003KT 8SM BKN045 BKN110 OVC200 07/07 A2998 RMK AO2 SLP155 T00720067 401060072=
201003180352 METAR KATL 180352Z 03004KT 10SM SCT045 BKN100 BKN200 08/05 A2998=
201003180252 METAR KATL 180252Z COR 06006KT 10SM BKN095 OVC150 08/07 A2999 RMK AO2 RAE36 SLP156 P0000 60001 T00830067 50002=
201003180152 METAR KATL 180152Z 06005KT 10SM -RA FEW008 BKN095 OVC150 08/07 A2999 RMK AO2 SLP157 PCPN VRY LGT P0000 T00830067=
201003180052 METAR KATL 180052Z 07007KT 10SM -RA FEW007 SCT028 BKN050 OVC140 08/07 A2999 RMK AO2 SLP158 P0001 T00830072=
201003172352 METAR KATL 172352Z 09007KT 10SM -RA FEW008 BKN025 OVC050 09/07 A2998 RMK AO2 SLP155 P0001 60016 T00890072 10100 20089 55000=
201003172252 METAR KATL 172252Z 09008KT 7SM -RA SCT009 BKN015 OVC025 09/08 A2998 RMK AO2 SLP154 P0001 T00890078=
201003172204 SPECI KATL 172204Z 08009KT 8SM -RA FEW008 SCT014 OVC028 09/08 A2997 RMK AO2 P0000=
201003172204 SPECI KATL 172204Z 08009KT 8SM -RA FEW008 SCT014 OVC028 09/08 A2997 RMK AO2 P0000=
201003172152 METAR KATL 172152Z 08009KT 7SM -RA SCT008 BKN014 OVC030 09/08 A2997 RMK AO2 SLP152 P0002 T00940078=
201003172141 SPECI KATL 172141Z 07007KT 7SM -RA SCT008 BKN014 OVC035 09/08 A2998 RMK AO2 P0002=
201003172141 SPECI KATL 172141Z 07007KT 7SM -RA SCT008 BKN014 OVC035 09/08 A2998 RMK AO2 P0002=
201003172052 METAR KATL 172052Z 10007KT 3SM -RA BR FEW009 BKN018 OVC040 09/08 A2998 RMK AO2 SFC VIS 5 SLP155 P0002 60012 T00940078 56012=
201003172029 SPECI KATL 172029Z VRB06KT 3SM -RA BR BKN009 BKN020 OVC040 10/08 A2998 RMK AO2 SFC VIS 5 P0001=
201003172029 SPECI KATL 172029Z VRB06KT 3SM -RA BR BKN009 BKN020 OVC040 10/08 A2998 RMK AO2 SFC VIS 5 P0001=
201003171955 SPECI KATL 171955Z 13003KT 3SM -RA BR BKN014 BKN035 OVC080 09/08 A2999 RMK AO2 SFC VIS 5 P0000=
201003171955 SPECI KATL 171955Z 13003KT 3SM -RA BR BKN014 BKN035 OVC080 09/08 A2999 RMK AO2 SFC VIS 5 P0000=
201003171952 METAR KATL 171952Z 13004KT 3SM -RA BR FEW010 BKN020 OVC080 09/08 A2999 RMK AO2 SFC VIS 5 SLP157 P0005 T00940083=
201003171852 METAR KATL 171852Z 15006KT 3SM -RA BR FEW010 BKN020 OVC040 09/08 A3000 RMK AO2 SFC VIS 5 SLP163 P0005 T00940078=
201003171752 METAR KATL 171752Z 12007KT 3SM -RA BR FEW008 BKN010 OVC020 09/08 A3002 RMK AO2 SFC VIS 5 SLP167 P0005 60008 T00890078 10106 20089 58002=
201003171747 SPECI KATL 171747Z 12008KT 3SM -RA BR FEW008 BKN010 OVC020 09/08 A3002 RMK AO2 SFC VIS 5 P0005=
201003171747 SPECI KATL 171747Z 12008KT 3SM -RA BR FEW008 BKN010 OVC020 09/08 A3002 RMK AO2 SFC VIS 5 P0005=
201003171652 METAR KATL 171652Z 14005KT 3SM -RA BR BKN020 BKN040 OVC080 09/07 A3002 RMK AO2 SFC VIS 4 SLP170 P0003 T00890072=
201003171642 SPECI KATL 171642Z 15007KT 3SM -RA BR BKN020 BKN040 OVC080 09/07 A3003 RMK AO2 SFC VIS 5 P0002=
201003171642 SPECI KATL 171642Z 15007KT 3SM -RA BR BKN020 BKN040 OVC080 09/07 A3003 RMK AO2 SFC VIS 5 P0002=
201003171552 METAR KATL 171552Z 13009KT 10SM -RA BKN024 BKN040 OVC080 10/06 A3002 RMK AO2 RAB1453 SLP169 P0000 T01000061=
201003171511 SPECI KATL 171511Z 12011G16KT 10SM -RA BKN026 BKN042 OVC080 10/06 A3003 RMK AO2 RAB1453 P0000=
201003171511 SPECI KATL 171511Z 12011G16KT 10SM -RA BKN026 BKN042 OVC080 10/06 A3003 RMK AO2 RAB1453 P0000=
201003171452 METAR KATL 171452Z 12010KT 10SM FEW020 BKN040 OVC080 10/06 A3002 RMK AO2 SLP168 SHRA S & W T01000056 51006=
201003171352 METAR KATL 171352Z 10009KT 10SM BKN025 BKN050 OVC080 10/06 A3002 RMK AO2 SLP167 T01000056=
201003171350 SPECI KATL 171350Z 11009KT 10SM BKN025 BKN050 OVC080 10/06 A3002 RMK AO2=
201003171350 SPECI KATL 171350Z 11009KT 10SM BKN025 BKN050 OVC080 10/06 A3002 RMK AO2=
201003171307 SPECI KATL 171307Z 10010KT 10SM FEW040 BKN080 OVC150 10/05 A3001 RMK AO2 VIRGA OHD & ALQDS=
201003171307 SPECI KATL 171307Z 10010KT 10SM FEW040 BKN080 OVC150 10/05 A3001 RMK AO2 VIRGA OHD & ALQDS=
201003171252 METAR KATL 171252Z 10010KT 10SM FEW080 BKN150 09/06 A3000 RMK AO2 SLP162 T00940056=
201003171152 METAR KATL 171152Z 09010KT 10SM OVC060 09/06 A3000 RMK AO2 SLP159 T00890056 10089 20078 53004=
201003171052 METAR KATL 171052Z 09008KT 10SM OVC065 08/05 A2999 RMK AO2 SLP155 T00830050=
201003170952 METAR KATL 170952Z 05006KT 10SM OVC065 08/04 A2997 RMK AO2 SLP150 T00830044=
201003170852 METAR KATL 170852Z 04004KT 10SM BKN060 OVC250 08/04 A2998 RMK AO2 SLP154 T00830039 56014=
201003170752 METAR KATL 170752Z 36004KT 10SM BKN055 OVC250 08/04 A3000 RMK AO2 SLP158 T00780044=
201003170652 METAR KATL 170652Z 02004KT 10SM BKN060 OVC250 08/04 A3001 RMK AO2 SLP162 T00830039=
201003170552 METAR KATL 170552Z 34004KT 10SM OVC055 08/04 A3003 RMK AO2 SLP169 T00780039 10106 20078 58007=
201003170452 METAR KATL 170452Z 32005KT 10SM BKN055 OVC250 08/04 A3005 RMK AO2 SLP177 T00780039 401440056=
201003170352 METAR KATL 170352Z 34008KT 10SM BKN055 OVC250 08/03 A3005 RMK AO2 SLP176 T00830033=
201003170252 METAR KATL 170252Z 34009KT 10SM FEW060 BKN250 08/03 A3005 RMK AO2 SLP178 T00830033 51017=
201003170152 METAR KATL 170152Z 33010KT 10SM FEW060 BKN250 08/04 A3005 RMK AO2 SLP179 T00830039=
201003170052 METAR KATL 170052Z 30008KT 10SM FEW040 SCT250 09/04 A3003 RMK AO2 SLP170 T00940039=
201003162352 METAR KATL 162352Z 31011KT 10SM FEW250 11/04 A3000 RMK AO2 SLP161 T01060039 10144 20106 53008=
201003162252 METAR KATL 162252Z 32009KT 10SM CLR 13/04 A2999 RMK AO2 SLP155 T01280044=
201003162152 METAR KATL 162152Z 30007KT 10SM FEW040 14/04 A2998 RMK AO2 SLP153 T01390044=
201003162052 METAR KATL 162052Z 30008KT 10SM BKN042 14/04 A2997 RMK AO2 SLP151 T01390044 56017=
201003161952 METAR KATL 161952Z 31009G14KT 10SM BKN040 14/05 A2999 RMK AO2 SLP156 T01440050=
201003161852 METAR KATL 161852Z 30003G14KT 10SM BKN042 13/04 A3000 RMK AO2 SLP162 T01330044=
201003161752 METAR KATL 161752Z VRB05KT 10SM BKN040 13/04 A3003 RMK AO2 SLP169 T01280044 10128 20056 58009=
201003161652 METAR KATL 161652Z 00000KT 10SM BKN035 12/04 A3005 RMK AO2 SLP176 T01220039=
201003161552 METAR KATL 161552Z 02004KT 10SM SCT030 12/04 A3005 RMK AO2 SLP178 T01220039=
201003161452 METAR KATL 161452Z 34006KT 10SM FEW025 11/04 A3005 RMK AO2 SLP179 T01060039 50010=
201003161352 METAR KATL 161352Z 35011G17KT 10SM FEW020 09/04 A3005 RMK AO2 SLP180 T00890039=
201003161252 METAR KATL 161252Z 32007KT 10SM CLR 07/03 A3004 RMK AO2 SLP176 T00720033=
201003161152 METAR KATL 161152Z 32006KT 10SM CLR 06/03 A3002 RMK AO2 SLP170 T00560028 10072 20056 51012=
201003161052 METAR KATL 161052Z 32007KT 10SM CLR 06/02 A3001 RMK AO2 SLP167 T00560022=
201003161041 SPECI KATL 161041Z 32006KT 10SM FEW023 06/02 A3001 RMK AO2=
201003161041 SPECI KATL 161041Z 32006KT 10SM FEW023 06/02 A3001 RMK AO2=
201003160952 METAR KATL 160952Z 32006KT 10SM BKN023 06/03 A3000 RMK AO2 SLP163 T00610028=
201003160852 METAR KATL 160852Z 33007KT 10SM FEW026 SCT140 06/02 A2999 RMK AO2 SLP157 T00610022 57006=
201003160752 METAR KATL 160752Z 34009KT 10SM FEW140 06/02 A2999 RMK AO2 SLP157 T00610022=
201003160652 METAR KATL 160652Z 34010KT 10SM FEW140 07/02 A3000 RMK AO2 SLP161 T00670022=
201003160552 METAR KATL 160552Z 35014G19KT 10SM FEW028 SCT140 07/02 A3000 RMK AO2 SLP162 T00720022 10083 20067 50001=
201003160452 METAR KATL 160452Z 34011G19KT 10SM FEW028 07/02 A3002 RMK AO2 SLP166 T00720022 401330061=
201003160352 METAR KATL 160352Z 34015G24KT 10SM FEW028 07/02 A3001 RMK AO2 SLP165 T00720022=
201003160252 METAR KATL 160252Z 33017G20KT 10SM FEW028 08/02 A3000 RMK AO2 PK WND 34028/0158 SLP162 T00780022 51010=
201003160234 SPECI KATL 160234Z 32010G25KT 10SM FEW028 08/02 A3000 RMK AO2 PK WND 34028/0158=
201003160234 SPECI KATL 160234Z 32010G25KT 10SM FEW028 08/02 A3000 RMK AO2 PK WND 34028/0158=
201003160152 METAR KATL 160152Z 34012G22KT 10SM BKN028 08/02 A3000 RMK AO2 PK WND 33028/0137 SLP160 T00780022=
201003160052 METAR KATL 160052Z 34016G23KT 10SM BKN030 08/02 A2999 RMK AO2 SLP160 T00830022=
201003152352 METAR KATL 152352Z 33013G23KT 10SM BKN030 08/02 A2997 RMK AO2 SLP153 T00830022 10133 20083 53019=
201003152252 METAR KATL 152252Z 33014KT 10SM BKN032 09/03 A2995 RMK AO2 PK WND 35029/2207 SLP144 T00940028=
201003152152 METAR KATL 152152Z 32018G24KT 10SM BKN032 11/03 A2992 RMK AO2 PK WND 34030/2102 SLP135 T01060033=
201003152052 METAR KATL 152052Z 33020G24KT 10SM FEW036 12/03 A2991 RMK AO2 PK WND 34028/2033 SLP131 T01170033 55000=
201003151952 METAR KATL 151952Z 32019G26KT 10SM FEW039 13/03 A2990 RMK AO2 PK WND 31026/1950 SLP126 T01280033=
201003151852 METAR KATL 151852Z 33013G24KT 10SM FEW035 13/03 A2990 RMK AO2 SLP127 T01280033=
201003151752 METAR KATL 151752Z 34015G23KT 10SM FEW035 12/04 A2992 RMK AO2 PK WND 33026/1736 SLP131 T01220039 10122 20061 51007=
201003151652 METAR KATL 151652Z 33018G24KT 10SM SCT030 12/04 A2991 RMK AO2 SLP128 T01170039=
201003151552 SPECI KATL 151552Z 31016G25KT 10SM BKN030 10/04 A2990 RMK AO2 SLP128 T01000039=
201003151452 METAR KATL 151452Z 33019G26KT 10SM BKN024 09/04 A2989 RMK AO2 PK WND 32027/1441 SLP124 T00890039 51018=
201003151352 METAR KATL 151352Z 32018G24KT 10SM SCT020 08/04 A2988 RMK AO2 PK WND 31028/1326 SLP119 T00830039=
201003151252 METAR KATL 151252Z 31017G21KT 10SM FEW015 SCT060 07/04 A2986 RMK AO2 SLP114 T00670039=
201003151152 METAR KATL 151152Z 32009KT 10SM SCT018 SCT250 06/04 A2984 RMK AO2 SLP107 60000 70011 T00610039 10078 20061 53013=
201003151110 SPECI KATL 151110Z 31010G16KT 10SM FEW016 BKN027 BKN065 07/04 A2982 RMK AO2=
201003151110 SPECI KATL 151110Z 31010G16KT 10SM FEW016 BKN027 BKN065 07/04 A2982 RMK AO2=
201003151052 METAR KATL 151052Z 32011G19KT 10SM BKN013 BKN020 OVC025 07/05 A2982 RMK AO2 SLP100 T00670050=
201003150952 METAR KATL 150952Z 32009KT 10SM BKN013 BKN060 07/06 A2980 RMK AO2 SLP094 T00720056=
201003150944 SPECI KATL 150944Z 32007KT 10SM BKN013 BKN060 07/06 A2980 RMK AO2=
201003150944 SPECI KATL 150944Z 32007KT 10SM BKN013 BKN060 07/06 A2980 RMK AO2=
201003150936 SPECI KATL 150936Z 30007KT 10SM FEW008 BKN015 BKN060 07/06 A2980 RMK AO2=
201003150936 SPECI KATL 150936Z 30007KT 10SM FEW008 BKN015 BKN060 07/06 A2980 RMK AO2=
201003150852 METAR KATL 150852Z 29010KT 10SM FEW007 SCT037 BKN065 07/06 A2980 RMK AO2 RAB04E13 SLP092 P0000 60000 T00720061 58002=
201003150752 METAR KATL 150752Z 31007KT 7SM BKN032 BKN044 07/06 A2981 RMK AO2 RAE08 SLP095 P0000 T00720061=
201003150747 SPECI KATL 150747Z 31008KT 7SM BKN032 BKN044 07/06 A2981 RMK AO2 RAE08 P0000=
201003150747 SPECI KATL 150747Z 31008KT 7SM BKN032 BKN044 07/06 A2981 RMK AO2 RAE08 P0000=
201003150652 METAR KATL 150652Z 33010KT 7SM -RA FEW007 BKN023 OVC031 08/06 A2980 RMK AO2 RAB0555E23B51 SLP094 P0000 T00780061=
201003150552 METAR KATL 150552Z 32007KT 7SM FEW005 BKN023 OVC037 08/07 A2981 RMK AO2 RAE48 SLP098 P0006 60011 T00780067 10083 20078 51006=
201003150452 METAR KATL 150452Z 35006KT 6SM -RA BR BKN005 OVC021 08/08 A2981 RMK AO2 SLP095 CIG 003V008 P0002 T00830078 401060061=
201003150429 SPECI KATL 150429Z 29004KT 5SM -RA BR BKN005 BKN012 OVC016 08/08 A2981 RMK AO2 CIG 003V009 P0001=
201003150429 SPECI KATL 150429Z 29004KT 5SM -RA BR BKN005 BKN012 OVC016 08/08 A2981 RMK AO2 CIG 003V009 P0001=
201003150417 SPECI KATL 150417Z 29005KT 5SM -RA BR FEW005 BKN012 OVC030 08/07 A2981 RMK AO2 P0001=
201003150417 SPECI KATL 150417Z 29005KT 5SM -RA BR FEW005 BKN012 OVC030 08/07 A2981 RMK AO2 P0001=
201003150352 METAR KATL 150352Z 28009KT 6SM -RA BR SCT009 SCT017 OVC034 08/07 A2981 RMK AO2 SLP095 P0000 T00830072=
201003150307 SPECI KATL 150307Z 27007KT 6SM -RA BR BKN008 OVC040 08/07 A2980 RMK AO2 P0000=
201003150307 SPECI KATL 150307Z 27007KT 6SM -RA BR BKN008 OVC040 08/07 A2980 RMK AO2 P0000=
201003150252 METAR KATL 150252Z 27008G15KT 6SM -RA BR SCT008 BKN014 OVC045 08/07 A2979 RMK AO2 SLP091 P0002 60003 T00830072 51011=
201003150223 SPECI KATL 150223Z 28008KT 5SM -RA BR FEW006 BKN013 OVC021 08/07 A2979 RMK AO2 P0001=
201003150223 SPECI KATL 150223Z 28008KT 5SM -RA BR FEW006 BKN013 OVC021 08/07 A2979 RMK AO2 P0001=
201003150152 METAR KATL 150152Z 27008KT 5SM -RA BR SCT018 BKN027 OVC035 08/07 A2978 RMK AO2 SLP088 P0001 T00830067=
201003150146 SPECI KATL 150146Z 27007KT 5SM -RA BR SCT018 BKN025 OVC035 08/07 A2978 RMK AO2 P0001=
201003150146 SPECI KATL 150146Z 27007KT 5SM -RA BR SCT018 BKN025 OVC035 08/07 A2978 RMK AO2 P0001=
201003150119 SPECI KATL 150119Z 26006KT 4SM -RA BR BKN014 OVC031 08/07 A2977 RMK AO2 P0001=
201003150119 SPECI KATL 150119Z 26006KT 4SM -RA BR BKN014 OVC031 08/07 A2977 RMK AO2 P0001=
201003150052 METAR KATL 150052Z 27008KT 6SM -RA BR SCT012 BKN035 OVC048 08/07 A2976 RMK AO2 DZE2354RAB35 SLP081 P0000 T00830067=
201003142352 METAR KATL 142352Z 25007KT 10SM -DZ FEW009 BKN042 OVC055 08/07 A2975 RMK AO2 RAB35E41DZB41 SLP076 P0000 60000 T00830067 10100 20083 53011=
201003142345 SPECI KATL 142345Z 25006KT 10SM -DZ FEW009 BKN034 OVC042 08/07 A2975 RMK AO2 RAB35E41DZB41 P0000=
201003142345 SPECI KATL 142345Z 25006KT 10SM -DZ FEW009 BKN034 OVC042 08/07 A2975 RMK AO2 RAB35E41DZB41 P0000=
201003142336 SPECI KATL 142336Z 26010KT 10SM -RA SCT018 BKN025 OVC042 09/07 A2974 RMK AO2 RAB35 P0000=
201003142336 SPECI KATL 142336Z 26010KT 10SM -RA SCT018 BKN025 OVC042 09/07 A2974 RMK AO2 RAB35 P0000=
201003142252 METAR KATL 142252Z 27007KT 10SM FEW024 BKN034 OVC044 09/06 A2973 RMK AO2 RAB23E45 SLP069 P0000 T00940056=
201003142247 SPECI KATL 142247Z 27010KT 10SM SCT026 BKN034 OVC044 09/06 A2973 RMK AO2 RAB23E45 P0000=
201003142247 SPECI KATL 142247Z 27010KT 10SM SCT026 BKN034 OVC044 09/06 A2973 RMK AO2 RAB23E45 P0000=
201003142152 METAR KATL 142152Z 28011KT 10SM BKN027 BKN034 OVC070 10/05 A2971 RMK AO2 SLP064 T01000050=
201003142052 METAR KATL 142052Z 29010KT 10SM OVC027 10/05 A2970 RMK AO2 SLP060 T01000050 53000=
201003142015 SPECI KATL 142015Z 28013G19KT 10SM OVC029 10/04 A2970 RMK AO2=
201003142015 SPECI KATL 142015Z 28013G19KT 10SM OVC029 10/04 A2970 RMK AO2=
201003141952 METAR KATL 141952Z 28011KT 10SM OVC031 10/05 A2969 RMK AO2 SLP057 T01000050=
201003141852 METAR KATL 141852Z 27010G15KT 10SM OVC028 10/04 A2970 RMK AO2 SLP058 T01000044=
201003141752 METAR KATL 141752Z 25008KT 10SM BKN028 OVC034 10/04 A2970 RMK AO2 SLP060 T01000044 10106 20061 58001=
201003141720 SPECI KATL 141720Z 27011KT 10SM OVC028 11/04 A2970 RMK AO2=
201003141720 SPECI KATL 141720Z 27011KT 10SM OVC028 11/04 A2970 RMK AO2=
201003141652 METAR KATL 141652Z 27011G17KT 10SM OVC032 10/04 A2971 RMK AO2 SLP061 T01000039=
201003141640 SPECI KATL 141640Z 26011G17KT 10SM BKN030 BKN035 10/04 A2971 RMK AO2=
201003141640 SPECI KATL 141640Z 26011G17KT 10SM BKN030 BKN035 10/04 A2971 RMK AO2=
201003141552 METAR KATL 141552Z 28013KT 10SM BKN026 09/04 A2970 RMK AO2 SLP061 T00890039=
201003141452 METAR KATL 141452Z 26011KT 10SM BKN019 BKN028 08/04 A2970 RMK AO2 SLP062 T00780039 51011=
201003141352 METAR KATL 141352Z 24007KT 10SM SCT022 BKN025 OVC055 07/04 A2970 RMK AO2 SLP061 BINOVC W T00720039=
201003141334 SPECI KATL 141334Z 25007KT 10SM SCT022 BKN027 OVC055 07/04 A2970 RMK AO2=
201003141334 SPECI KATL 141334Z 25007KT 10SM SCT022 BKN027 OVC055 07/04 A2970 RMK AO2=
201003141252 METAR KATL 141252Z 24008KT 10SM SCT022 BKN050 06/04 A2969 RMK AO2 SLP057 T00610039=
201003141152 METAR KATL 141152Z 24006KT 10SM FEW025 OVC050 06/04 A2967 RMK AO2 SLP050 70002 T00610039 10067 20061 53012=
201003141052 METAR KATL 141052Z 24007KT 10SM FEW020 SCT030 BKN060 06/04 A2965 RMK AO2 SLP044 T00610039=
201003140952 METAR KATL 140952Z 27008KT 10SM FEW024 BKN030 OVC060 07/04 A2965 RMK AO2 SLP041 T00670039=
201003140852 METAR KATL 140852Z 26009KT 10SM SCT023 OVC038 07/04 A2964 RMK AO2 SLP037 T00670039 55000=
201003140836 SPECI KATL 140836Z 26008KT 10SM SCT023 OVC038 07/04 A2963 RMK AO2=
201003140836 SPECI KATL 140836Z 26008KT 10SM SCT023 OVC038 07/04 A2963 RMK AO2=
201003140752 METAR KATL 140752Z 26007KT 10SM BKN023 BKN038 OVC070 07/04 A2963 RMK AO2 SLP035 T00670039=
201003140723 SPECI KATL 140723Z 27006KT 10SM BKN023 BKN038 OVC070 06/04 A2963 RMK AO2=
201003140723 SPECI KATL 140723Z 27006KT 10SM BKN023 BKN038 OVC070 06/04 A2963 RMK AO2=
201003140652 METAR KATL 140652Z 26006KT 10SM SCT035 OVC070 07/04 A2963 RMK AO2 SLP034 T00670039=
201003140552 METAR KATL 140552Z 27006KT 10SM FEW029 SCT039 OVC075 07/04 A2964 RMK AO2 SLP037 60001 T00670039 10083 20061 50002=
201003140452 METAR KATL 140452Z 27009KT 10SM BKN042 OVC070 07/04 A2964 RMK AO2 SLP040 T00670039 401170061=
201003140352 METAR KATL 140352Z 28008KT 10SM FEW055 BKN070 BKN150 06/04 A2964 RMK AO2 SLP039 T00610039=
201003140252 METAR KATL 140252Z 28009KT 10SM FEW027 SCT045 OVC055 07/04 A2963 RMK AO2 SLP036 60001 T00670044 53018=
201003140152 METAR KATL 140152Z 28007KT 10SM FEW025 SCT030 OVC065 07/04 A2961 RMK AO2 RAB30E52 SLP030 P0000 T00670044=
201003140052 METAR KATL 140052Z 29006KT 10SM FEW050 SCT065 BKN080 07/04 A2959 RMK AO2 PK WND 29027/0008 RAB07E36 SLP022 P0001 T00670039=
201003132352 METAR KATL 132352Z COR 28010KT 10SM BKN037 BKN080 BKN150 08/03 A2957 RMK AO2 SLP016 SHRA E AND S AND W 60001 T00830028 10117 20083 53014=
201003132252 METAR KATL 132252Z 28014G18KT 10SM SCT044 BKN060 BKN150 09/03 A2956 RMK AO2 SLP010 SHRA DSNT NE AND S AND NW T00940028=
201003132152 METAR KATL 132152Z 29014G25KT 10SM SCT043 BKN050 BKN060 OVC150 09/03 A2954 RMK AO2 PK WND 26029/2142 RAB2053E15 SLP006 SHRA N-NE AND SW AND NW-N P0000 T00940033=
201003132052 METAR KATL 132052Z 25012G18KT 10SM BKN042 BKN080 BKN150 11/03 A2953 RMK AO2 SLP000 VIRGA DSNT SW-NW 60001 T01060028 56008=
201003131952 METAR KATL 131952Z 27008KT 10SM BKN036 BKN070 BKN150 10/05 A2954 RMK AO2 RAB32E47 SLP003 SHRA E AND W AND NW P0001 T01000050=
201003131852 METAR KATL 131852Z COR 26009KT 10SM BKN035 BKN045 BKN060 BKN150 10/04 A2955 RMK AO2 RAB32E50 SLP006 SHRA DSNT S P0000 T01000044=
201003131752 METAR KATL 131752Z 27010G17KT 10SM SCT036 BKN046 BKN060 OVC150 11/03 A2955 RMK AO2 SLP008 T01060033 10117 20072 58003=
201003131652 METAR KATL 131652Z 25012G18KT 10SM SCT027 BKN038 BKN150 11/04 A2956 RMK AO2 SLP008 T01060039=
201003131552 METAR KATL 131552Z 26011G17KT 10SM SCT022 SCT029 BKN090 11/05 A2957 RMK AO2 SLP014 T01060050=
201003131452 METAR KATL 131452Z 28010KT 10SM SCT012 SCT021 OVC090 09/06 A2956 RMK AO2 SLP011 T00890061 51005=
201003131416 SPECI KATL 131416Z 28007KT 10SM SCT012 SCT021 BKN090 08/06 A2957 RMK AO2=
201003131416 SPECI KATL 131416Z 28007KT 10SM SCT012 SCT021 BKN090 08/06 A2957 RMK AO2=
201003131356 SPECI KATL 131356Z 28008KT 10SM BKN020 BKN090 08/06 A2956 RMK AO2=
201003131356 SPECI KATL 131356Z 28008KT 10SM BKN020 BKN090 08/06 A2956 RMK AO2=
201003131352 METAR KATL 131352Z 28009KT 10SM SCT020 BKN090 08/06 A2956 RMK AO2 SLP011 T00830056=
201003131252 METAR KATL 131252Z 27008KT 10SM FEW080 08/06 A2955 RMK AO2 SLP007 T00830061=
201003131152 METAR KATL 131152Z 26007KT 10SM SCT085 08/06 A2955 RMK AO2 SLP005 70062 T00780056 10094 20067 53005=
201003131052 METAR KATL 131052Z 25005KT 10SM FEW080 07/05 A2954 RMK AO2 SLP001 T00670050=
201003130952 METAR KATL 130952Z 27007KT 10SM FEW080 08/06 A2953 RMK AO2 SLP999 T00780056=
201003130852 METAR KATL 130852Z 28008KT 10SM SCT080 08/06 A2953 RMK AO2 SLP000 T00780056 58013=
201003130752 METAR KATL 130752Z 27007KT 10SM SCT080 08/06 A2954 RMK AO2 SLP004 T00830061=
201003130452 METAR KATL 130452Z 28008KT 10SM CLR 11/08 A2958 RMK AO2 SLP016 T01060083 401500100=
201003130352 METAR KATL 130352Z 27004KT 10SM SCT038 BKN045 11/10 A2958 RMK AO2 SLP014 T01060100=
201003130252 METAR KATL 130252Z 27003KT 9SM FEW040 SCT060 11/10 A2956 RMK AO2 SLP009 60001 T01110100 51015=
201003130152 METAR KATL 130152Z 31005KT 10SM FEW040 12/11 A2955 RMK AO2 SLP006 T01170106=
201003130052 METAR KATL 130052Z 31010KT 10SM FEW007 SCT070 13/11 A2955 RMK AO2 TSE19RAE19 SLP004 TS MOV NE P0001 T01280111=
201003130037 SPECI KATL 130037Z 32012G17KT 10SM FEW007 SCT030 BKN070 13/12 A2954 RMK AO2 TSE19RAE19 TS MOV NE P0001=
201003130037 SPECI KATL 130037Z 32012G17KT 10SM FEW007 SCT030 BKN070 13/12 A2954 RMK AO2 TSE19RAE19 TS MOV NE P0001=
201003130019 SPECI KATL 130019Z 32008G16KT 10SM FEW007 BKN015 BKN035 BKN150 14/12 A2954 RMK AO2 TSE19RAE19 TS MOV NE P0001=
201003130019 SPECI KATL 130019Z 32008G16KT 10SM FEW007 BKN015 BKN035 BKN150 14/12 A2954 RMK AO2 TSE19RAE19 TS MOV NE P0001=
201003130007 SPECI KATL 130007Z 30008G15KT 7SM -TSRA FEW007 BKN015CB BKN025 OVC150 14/13 A2953 RMK AO2 OCNL LTGICCG VC NE TS VC NE MOV NE P0001=
201003130007 SPECI KATL 130007Z 30008G15KT 7SM -TSRA FEW007 BKN015CB BKN025 OVC150 14/13 A2953 RMK AO2 OCNL LTGICCG VC NE TS VC NE MOV NE P0001=
201003130004 SPECI KATL 130004Z 29010G15KT 2SM +TSRA BR FEW007 BKN015CB BKN025 OVC150 14/13 A2953 RMK AO2 OCNL LTGICCG N-NE TS N-NE MOV NE P0000=
201003130004 SPECI KATL 130004Z 29010G15KT 2SM +TSRA BR FEW007 BKN015CB BKN025 OVC150 14/13 A2953 RMK AO2 OCNL LTGICCG N-NE TS N-NE MOV NE P0000=
201003130002 SPECI KATL 130002Z 30010G15KT 5SM -TSRA BR FEW007 SCT015CB BKN025 BKN150 14/14 A2953 RMK AO2 OCNL LTGICCG N-NE TS N-NE MOV NE P0000=
201003130002 SPECI KATL 130002Z 30010G15KT 5SM -TSRA BR FEW007 SCT015CB BKN025 BKN150 14/14 A2953 RMK AO2 OCNL LTGICCG N-NE TS N-NE MOV NE P0000=
201003122352 METAR KATL 122352Z 25005KT 8SM -TSRA FEW007 SCT015CB BKN040 BKN150 14/14 A2952 RMK AO2 TSB51RAB49 SLP993 OCNL LTGCG NW TS NW MOV NE P0000 60048 T01390139 10150 20139 53001=
201003122252 METAR KATL 122252Z 18005KT 10SM FEW008 SCT015TCU BKN025 BKN200 15/14 A2949 RMK AO2 RAB00E44 SLP985 CB DSNT SW AND NW TCU NE-SE P0001 T01500139=
201003122215 SPECI KATL 122215Z 19004KT 7SM -RA SCT008 BKN013 OVC020 15/14 A2951 RMK AO2 RAB00 P0000=
201003122215 SPECI KATL 122215Z 19004KT 7SM -RA SCT008 BKN013 OVC020 15/14 A2951 RMK AO2 RAB00 P0000=
201003122152 METAR KATL 122152Z 16005KT 6SM BR BKN009 BKN012 OVC030 15/14 A2951 RMK AO2 RAE2055 SLP991 P0000 T01500139=
201003122057 SPECI KATL 122057Z 15005KT 6SM BR FEW010 BKN020 BKN070 15/14 A2951 RMK AO2 RAE55 P0000=
201003122057 SPECI KATL 122057Z 15005KT 6SM BR FEW010 BKN020 BKN070 15/14 A2951 RMK AO2 RAE55 P0000=
201003122052 METAR KATL 122052Z VRB03KT 6SM -RA BR BKN010 BKN020 BKN070 15/14 A2952 RMK AO2 TSE27 SLP991 TS MOV NE P0015 60047 T01500144 56028=
201003122027 SPECI KATL 122027Z 00000KT 6SM -RA BR BKN007 BKN030 OVC070 14/13 A2954 RMK AO2 TSE27 FRQ LTGICCG DSNT NE TS MOV NE CB DSNT NE P0014=
201003122027 SPECI KATL 122027Z 00000KT 6SM -RA BR BKN007 BKN030 OVC070 14/13 A2954 RMK AO2 TSE27 FRQ LTGICCG DSNT NE TS MOV NE CB DSNT NE P0014=
201003122008 SPECI KATL 122008Z 14003KT 5SM R09R/4500VP6000FT -TSRA BKN007CB BKN013 OVC020 14/14 A2955 RMK AO2 FRQ LTGICCG NE TS NE MOV NE P0013=
201003122008 SPECI KATL 122008Z 14003KT 5SM R09R/4500VP6000FT -TSRA BKN007CB BKN013 OVC020 14/14 A2955 RMK AO2 FRQ LTGICCG NE TS NE MOV NE P0013=
201003122004 SPECI KATL 122004Z 19005KT 1/2SM R09R/4500VP6000FT +TSRA FG BKN007CB BKN013 OVC020 14/14 A2956 RMK AO2 PRESRR FRQ LTGICCG OHD TS OHD MOV NE P0001=
201003122004 SPECI KATL 122004Z 19005KT 1/2SM R09R/4500VP6000FT +TSRA FG BKN007CB BKN013 OVC020 14/14 A2956 RMK AO2 PRESRR FRQ LTGICCG OHD TS OHD MOV NE P0001=
201003121952 METAR KATL 121952Z 13008KT 5SM -TSRA BR BKN007CB BKN013 OVC030 14/13 A2952 RMK AO2 TSB1857RAB1853 SLP995 FRQ LTGICCG SW TS SW MOV NE P0013 T01390133=
201003121944 SPECI KATL 121944Z 14009KT 5SM -TSRA BR BKN007CB BKN013 OVC030 14/13 A2953 RMK AO2 TSB1857RAB1853 OCNL LTGICCG SE & SW-W-NW TS SE & SW-W-NW MOV NE P0012=
201003121944 SPECI KATL 121944Z 14009KT 5SM -TSRA BR BKN007CB BKN013 OVC030 14/13 A2953 RMK AO2 TSB1857RAB1853 OCNL LTGICCG SE & SW-W-NW TS SE & SW-W-NW MOV NE P0012=
201003121928 SPECI KATL 121928Z 14007KT 5SM -TSRA BR BKN007CB BKN013 OVC030 14/13 A2954 RMK AO2 TSB1857RAB1853 OCNL LTGICCG N & S TS N & S MOV NE P0011=
201003121928 SPECI KATL 121928Z 14007KT 5SM -TSRA BR BKN007CB BKN013 OVC030 14/13 A2954 RMK AO2 TSB1857RAB1853 OCNL LTGICCG N & S TS N & S MOV NE P0011=
201003121911 SPECI KATL 121911Z 12006KT 3SM TSRA BR BKN007CB BKN013 OVC030 14/13 A2956 RMK AO2 TSB1857RAB1853 OCNL LTGICCG OHD-SW TS OHD-SW MOV NE P0008=
201003121911 SPECI KATL 121911Z 12006KT 3SM TSRA BR BKN007CB BKN013 OVC030 14/13 A2956 RMK AO2 TSB1857RAB1853 OCNL LTGICCG OHD-SW TS OHD-SW MOV NE P0008=
201003121857 SPECI KATL 121857Z 13007KT 5SM -TSRA BR FEW007CB BKN013 OVC020 14/13 A2957 RMK AO2 TSB57RAB53 OCNL LTGICCG SE-S-SW TS SE-S-SW MOV NE P0000=
201003121857 SPECI KATL 121857Z 13007KT 5SM -TSRA BR FEW007CB BKN013 OVC020 14/13 A2957 RMK AO2 TSB57RAB53 OCNL LTGICCG SE-S-SW TS SE-S-SW MOV NE P0000=
201003121852 METAR KATL 121852Z 14008KT 5SM BR FEW007 BKN020 OVC030 14/13 A2957 RMK AO2 TSE37RAE47 SLP011 TS MOV NE P0019 T01390133=
201003121838 SPECI KATL 121838Z 14010KT 5SM -RA BR FEW007 BKN024 OVC030 14/13 A2957 RMK AO2 TSE37 FRQ LTGICCG DSNT NE TS MOV NE CB DSNT NE P0019=
201003121838 SPECI KATL 121838Z 14010KT 5SM -RA BR FEW007 BKN024 OVC030 14/13 A2957 RMK AO2 TSE37 FRQ LTGICCG DSNT NE TS MOV NE CB DSNT NE P0019=
201003121820 SPECI KATL 121820Z 11009KT 5SM R09R/5500VP6000FT -TSRA BR BKN007CB BKN020 OVC030 14/13 A2957 RMK AO2 FRQ LTGICCG E TS E MOV NE P0018=
201003121820 SPECI KATL 121820Z 11009KT 5SM R09R/5500VP6000FT -TSRA BR BKN007CB BKN020 OVC030 14/13 A2957 RMK AO2 FRQ LTGICCG E TS E MOV NE P0018=
201003121810 SPECI KATL 121810Z 00000KT 3SM -TSRA BR BKN007CB BKN020 OVC030 14/13 A2961 RMK AO2 FRQ LTGICCG N & S TS N & S MOV NE P0012=
201003121810 SPECI KATL 121810Z 00000KT 3SM -TSRA BR BKN007CB BKN020 OVC030 14/13 A2961 RMK AO2 FRQ LTGICCG N & S TS N & S MOV NE P0012=
201003121800 SPECI KATL 121800Z VRB05KT 2SM R09R/5000VP6000FT TSRA BR BKN007CB BKN020 OVC030 14/13 A2959 RMK AO2 FRQ LTGICCG OHD TS OHD MOV NE P0008=
201003121800 SPECI KATL 121800Z VRB05KT 2SM R09R/5000VP6000FT TSRA BR BKN007CB BKN020 OVC030 14/13 A2959 RMK AO2 FRQ LTGICCG OHD TS OHD MOV NE P0008=
201003121757 SPECI KATL 121757Z VRB03KT 1SM R09R/5000VP6000FT +TSRA BR BKN007CB BKN020 OVC030 14/13 A2959 RMK AO2 FRQ LTGICCG OHD TS OHD MOV NE P0006=
201003121757 SPECI KATL 121757Z VRB03KT 1SM R09R/5000VP6000FT +TSRA BR BKN007CB BKN020 OVC030 14/13 A2959 RMK AO2 FRQ LTGICCG OHD TS OHD MOV NE P0006=
201003121756 SPECI KATL 121756Z 13005KT 1SM R09R/5000VP6000FT +TSRA BR BKN007CB BKN020 OVC030 14/13 A2959 RMK AO2 FRQ LTGICCG E & W-NW TS E & W-NW MOV NE P0006=
201003121756 SPECI KATL 121756Z 13005KT 1SM R09R/5000VP6000FT +TSRA BR BKN007CB BKN020 OVC030 14/13 A2959 RMK AO2 FRQ LTGICCG E & W-NW TS E & W-NW MOV NE P0006=
201003121752 METAR KATL 121752Z 16005KT 5SM R09R/5500VP6000FT +TSRA BR BKN007CB BKN020 OVC030 14/13 A2960 RMK AO2 TSB25RAB1654E10B33 SLP021 FRQ LTGICCG E & W-NW TS E & W-NW MOV NE P0006 60013 T01390133 10150 20128 56015=
201003121745 SPECI KATL 121745Z 15010KT 3SM TSRA BR BKN007CB BKN020 OVC030 14/13 A2959 RMK AO2 TSB25RAB1654E10B33 FRQ LTGICCG OHD-SE-S-SW-W-NW TS OHD-SE-S-SW-W-NW MOV NE P0004=
201003121745 SPECI KATL 121745Z 15010KT 3SM TSRA BR BKN007CB BKN020 OVC030 14/13 A2959 RMK AO2 TSB25RAB1654E10B33 FRQ LTGICCG OHD-SE-S-SW-W-NW TS OHD-SE-S-SW-W-NW MOV NE P0004=
201003121726 SPECI KATL 121726Z 12008KT 7SM TS BKN007CB BKN020 OVC030 14/13 A2960 RMK AO2 TSB25RAB1654E10 FRQ LTGICCG SW-W-NW TS SW-W-NW MOV NE P0000=
201003121726 SPECI KATL 121726Z 12008KT 7SM TS BKN007CB BKN020 OVC030 14/13 A2960 RMK AO2 TSB25RAB1654E10 FRQ LTGICCG SW-W-NW TS SW-W-NW MOV NE P0000=
201003121722 SPECI KATL 121722Z VRB03KT 9SM BKN007 BKN020 OVC030 14/13 A2961 RMK AO2 RAB1654E10 OCNL LTGICCG DSNT SW CB DSNT SW-W P0000=
201003121722 SPECI KATL 121722Z VRB03KT 9SM BKN007 BKN020 OVC030 14/13 A2961 RMK AO2 RAB1654E10 OCNL LTGICCG DSNT SW CB DSNT SW-W P0000=
201003121652 METAR KATL 121652Z 12012G18KT 6SM BR BKN012 BKN025 OVC070 14/13 A2960 RMK AO2 TSB05E45RAB07E51GRB32E34 SLP022 OCNL LTGICCG DSNT NE TS MOV NE CB DSNT NE P0005 T01390133=
201003121647 SPECI KATL 121647Z 13007KT 6SM -RA BR BKN010 BKN013 OVC070 14/13 A2963 RMK AO2 TSB05E45RAB07GRB32E34 OCNL LTGICCG DSNT NE TS MOV NE CB DSNT NE P0005=
201003121647 SPECI KATL 121647Z 13007KT 6SM -RA BR BKN010 BKN013 OVC070 14/13 A2963 RMK AO2 TSB05E45RAB07GRB32E34 OCNL LTGICCG DSNT NE TS MOV NE CB DSNT NE P0005=
201003121639 SPECI KATL 121639Z 15006KT 5SM -TSRA BKN010CB BKN013 OVC070 14/13 A2962 RMK AO2 TSB05RAB07GRB32E34 FRQ LTGICCG NE TS NE MOV NE P0005=
201003121639 SPECI KATL 121639Z 15006KT 5SM -TSRA BKN010CB BKN013 OVC070 14/13 A2962 RMK AO2 TSB05RAB07GRB32E34 FRQ LTGICCG NE TS NE MOV NE P0005=
201003121635 SPECI KATL 121635Z 12008KT 5SM -TSRA BKN010CB BKN013 OVC070 14/13 A2962 RMK AO2 TSB05RAB07GRB32E34 PRESFR FRQ LTGICCG NE-E-SE TS NE-E-SE MOV NE P0004=
201003121635 SPECI KATL 121635Z 12008KT 5SM -TSRA BKN010CB BKN013 OVC070 14/13 A2962 RMK AO2 TSB05RAB07GRB32E34 PRESFR FRQ LTGICCG NE-E-SE TS NE-E-SE MOV NE P0004=
201003121632 SPECI KATL 121632Z 13008KT 4SM +TSRAGR BKN010CB BKN013 OVC070 14/13 A2963 RMK AO2 TSB05RAB07GRB32 FRQ LTGICCG NE-E-SE TS NE-E-SE MOV NE GR 1/4 P0003=
201003121632 SPECI KATL 121632Z 13008KT 4SM +TSRAGR BKN010CB BKN013 OVC070 14/13 A2963 RMK AO2 TSB05RAB07GRB32 FRQ LTGICCG NE-E-SE TS NE-E-SE MOV NE GR 1/4 P0003=
201003121627 SPECI KATL 121627Z 17009KT 6SM -TSRA BR BKN010CB BKN013 OVC070 14/13 A2966 RMK AO2 TSB05RAB07 VIS LWR NE-E-SE SHRA FRQ LTGICCG NE-E-SE TS NE-E-SE MOV NE P0002=
201003121627 SPECI KATL 121627Z 17009KT 6SM -TSRA BR BKN010CB BKN013 OVC070 14/13 A2966 RMK AO2 TSB05RAB07 VIS LWR NE-E-SE SHRA FRQ LTGICCG NE-E-SE TS NE-E-SE MOV NE P0002=
201003121619 SPECI KATL 121619Z 16008KT 6SM -TSRA BR BKN013CB BKN020 OVC070 14/13 A2965 RMK AO2 TSB05RAB07 VIS LWR E-SE-S SHRA FRQ LTGICCG E-SE-S TS E-SE-S MOV NE CB DSNT N P0001=
201003121619 SPECI KATL 121619Z 16008KT 6SM -TSRA BR BKN013CB BKN020 OVC070 14/13 A2965 RMK AO2 TSB05RAB07 VIS LWR E-SE-S SHRA FRQ LTGICCG E-SE-S TS E-SE-S MOV NE CB DSNT N P0001=
201003121618 SPECI KATL 121618Z 16008KT 8SM -TSRA BR BKN013CB BKN020 OVC070 14/13 A2965 RMK AO2 TSB05RAB07 VIS LWR E-SE-S SHRA FRQ LTGICCG E-SE-S TS E-SE-S MOV NE CB DSNT N P0001=
201003121618 SPECI KATL 121618Z 16008KT 8SM -TSRA BR BKN013CB BKN020 OVC070 14/13 A2965 RMK AO2 TSB05RAB07 VIS LWR E-SE-S SHRA FRQ LTGICCG E-SE-S TS E-SE-S MOV NE CB DSNT N P0001=
201003121605 SPECI KATL 121605Z 13009KT 8SM TS BKN013CB BKN020 OVC070 14/13 A2964 RMK AO2 TSB05 OCNL LTGICCG S TS S MOV NE=
201003121605 SPECI KATL 121605Z 13009KT 8SM TS BKN013CB BKN020 OVC070 14/13 A2964 RMK AO2 TSB05 OCNL LTGICCG S TS S MOV NE=
201003121552 METAR KATL 121552Z 13008KT 10SM BKN013 BKN020 OVC070 15/13 A2965 RMK AO2 TSB1459E16RAE10B35E46 SLP036 CB DSNT E-SE-S P0000 T01500128=
201003121517 SPECI KATL 121517Z 12008KT 10SM BKN013 BKN015 OVC070 14/13 A2967 RMK AO2 TSB1459E16RAE10 OCNL LTGIC DSNT N-NE TS MOV NE CB DSNT N-NE SHRA DSNT N-NE P0000=
201003121517 SPECI KATL 121517Z 12008KT 10SM BKN013 BKN015 OVC070 14/13 A2967 RMK AO2 TSB1459E16RAE10 OCNL LTGIC DSNT N-NE TS MOV NE CB DSNT N-NE SHRA DSNT N-NE P0000=
201003121511 SPECI KATL 121511Z 13008KT 9SM TS BKN013CB BKN015 OVC070 14/13 A2967 RMK AO2 TSB1459RAE10 OCNL LTGIC N-NE TS N-NE MOV NE P0000=
201003121511 SPECI KATL 121511Z 13008KT 9SM TS BKN013CB BKN015 OVC070 14/13 A2967 RMK AO2 TSB1459RAE10 OCNL LTGIC N-NE TS N-NE MOV NE P0000=
201003121459 SPECI KATL 121459Z 12011G20KT 6SM -TSRA BR BKN010CB BKN015 OVC070 14/13 A2967 RMK AO2 TSB59 OCNL LTGIC N TS N MOV NE P0000=
201003121459 SPECI KATL 121459Z 12011G20KT 6SM -TSRA BR BKN010CB BKN015 OVC070 14/13 A2967 RMK AO2 TSB59 OCNL LTGIC N TS N MOV NE P0000=
201003121452 METAR KATL 121452Z 12010G17KT 6SM -RA BR BKN010CB BKN015 OVC070 14/13 A2966 RMK AO2 RAB31 SLP042 CB OHD MOV NE P0002 60002 T01440128 50006=
201003121433 SPECI KATL 121433Z 12012G19KT 10SM -RA FEW010 BKN015CB OVC070 14/12 A2966 RMK AO2 RAB31 VIS LWR S-SW-W-NW SHRA CB S-SW-W-NW MOV NE P0000=
201003121433 SPECI KATL 121433Z 12012G19KT 10SM -RA FEW010 BKN015CB OVC070 14/12 A2966 RMK AO2 RAB31 VIS LWR S-SW-W-NW SHRA CB S-SW-W-NW MOV NE P0000=
201003121352 METAR KATL 121352Z 10013G18KT 8SM BKN005 OVC010 14/13 A2966 RMK AO2 SLP042 T01390128=
201003121349 SPECI KATL 121349Z 09014G18KT 8SM BKN005 OVC010 14/13 A2966 RMK AO2=
201003121349 SPECI KATL 121349Z 09014G18KT 8SM BKN005 OVC010 14/13 A2966 RMK AO2=
201003121333 SPECI KATL 121333Z 10013G20KT 1 1/2SM BR BKN005 OVC010 13/12 A2966 RMK AO2 SFC VIS 6=
201003121333 SPECI KATL 121333Z 10013G20KT 1 1/2SM BR BKN005 OVC010 13/12 A2966 RMK AO2 SFC VIS 6=
201003121258 SPECI KATL 121258Z 10009KT 1 1/2SM BR OVC003 13/13 A2967 RMK AO2 SFC VIS 5=
201003121258 SPECI KATL 121258Z 10009KT 1 1/2SM BR OVC003 13/13 A2967 RMK AO2 SFC VIS 5=
201003121252 METAR KATL 121252Z 10008KT 1/4SM BR OVC003 13/12 A2968 RMK AO2 SFC VIS 3 SLP047 T01330122=
201003121215 SPECI KATL 121215Z 11008KT 1/4SM BR BKN003 OVC020 13/13 A2967 RMK AO2 SFC VIS 2 1/2=
201003121215 SPECI KATL 121215Z 11008KT 1/4SM BR BKN003 OVC020 13/13 A2967 RMK AO2 SFC VIS 2 1/2=
201003121212 SPECI KATL 121212Z 11008KT 1 1/2SM BR BKN005 OVC020 13/12 A2967 RMK AO2 SFC VIS 4=
201003121212 SPECI KATL 121212Z 11008KT 1 1/2SM BR BKN005 OVC020 13/12 A2967 RMK AO2 SFC VIS 4=
201003121152 METAR KATL 121152Z 07010KT 2 1/2SM BR BKN005 OVC020 13/12 A2964 RMK AO2 SFC VIS 5 SLP036 60000 70008 T01280122 10133 20128 55016=
201003121150 SPECI KATL 121150Z 07010KT 2 1/2SM BR BKN005 OVC020 13/12 A2965 RMK AO2 SFC VIS 5=
201003121150 SPECI KATL 121150Z 07010KT 2 1/2SM BR BKN005 OVC020 13/12 A2965 RMK AO2 SFC VIS 5=
201003121133 SPECI KATL 121133Z 08010KT 10SM SCT005 SCT012 OVC020 13/12 A2964 RMK AO2=
201003121133 SPECI KATL 121133Z 08010KT 10SM SCT005 SCT012 OVC020 13/12 A2964 RMK AO2=
201003121123 SPECI KATL 121123Z 08010KT 7SM FEW002 SCT005 OVC012 13/12 A2964 RMK AO2=
201003121123 SPECI KATL 121123Z 08010KT 7SM FEW002 SCT005 OVC012 13/12 A2964 RMK AO2=
201003121052 METAR KATL 121052Z 08012KT 1 1/2SM BR BKN002 OVC005 13/12 A2963 RMK AO2 SFC VIS 4 DZE39 SLP031 P0000 T01280122=
201003121040 SPECI KATL 121040Z 08015KT 3/4SM BR BKN002 OVC005 13/12 A2963 RMK AO2 SFC VIS 2 DZE39 PRESFR P0000=
201003121040 SPECI KATL 121040Z 08015KT 3/4SM BR BKN002 OVC005 13/12 A2963 RMK AO2 SFC VIS 2 DZE39 PRESFR P0000=
201003120952 METAR KATL 120952Z 09010KT 1/4SM R09R/5500VP6000FT -DZ BR OVC001 13/13 A2967 RMK AO2 SFC VIS 3/4 SLP043 P0000 T01280128=
201003120852 METAR KATL 120852Z 09008KT 1/4SM R09R/3000V4000FT -DZ BR OVC001 13/13 A2969 RMK AO2 SFC VIS 3/4 SLP051 P0000 60000 T01330128 58027=
201003120752 METAR KATL 120752Z 07009KT 1/4SM R09R/4500V5500FT -DZ BR OVC001 13/13 A2972 RMK AO2 SFC VIS 3/4 SLP061 P0000 T01330128=
201003120652 METAR KATL 120652Z 09009KT 1/4SM R09R/3000V5500FT -DZ BR OVC001 13/13 A2975 RMK AO2 SFC VIS 3/4 DZB12 SLP072 P0000 T01330128=
201003120552 METAR KATL 120552Z 10005KT 1/4SM R09R/3000V5000FT BR OVC001 13/13 A2977 RMK AO2 SFC VIS 3/4 SLP080 T01330128 10150 20128 55003=
201003120452 METAR KATL 120452Z 10008KT 1/4SM R09R/3000V4000FT FG VV001 13/13 A2976 RMK AO2 SFC VIS 1/2 SLP076 T01280128 401830111=
201003120352 METAR KATL 120352Z 09008KT 1/4SM R09R/6000VP6000FT BR OVC001 13/13 A2976 RMK AO2 SFC VIS 1 SLP077 T01330128=
201003120326 SPECI KATL 120326Z 08007KT 1/4SM R09R/2400V3500FT FG VV001 13/13 A2977 RMK AO2 SFC VIS 1/2=
201003120326 SPECI KATL 120326Z 08007KT 1/4SM R09R/2400V3500FT FG VV001 13/13 A2977 RMK AO2 SFC VIS 1/2=
201003120252 METAR KATL 120252Z 08009KT 1/4SM R09R/4500VP6000FT BR OVC002 13/13 A2978 RMK AO2 SFC VIS 1 1/4 SLP084 T01330133 53010=
201003120152 METAR KATL 120152Z 08009KT 1/4SM BR OVC002 14/13 A2976 RMK AO2 SFC VIS 2 SLP077 T01390133=
201003120052 METAR KATL 120052Z 07010KT 1/4SM BR BKN003 OVC040 14/14 A2975 RMK AO2 SFC VIS 6 SLP074 T01440139=
201003120041 SPECI KATL 120041Z 08007KT 2SM BKN005 BKN035 BKN050 14/14 A2976 RMK AO2 SFC VIS 7 CIG 003V006=
201003120041 SPECI KATL 120041Z 08007KT 2SM BKN005 BKN035 BKN050 14/14 A2976 RMK AO2 SFC VIS 7 CIG 003V006=
201003112357 SPECI KATL 112357Z 09007KT 7SM FEW006 BKN035 BKN050 15/14 A2975 RMK AO2=
201003112357 SPECI KATL 112357Z 09007KT 7SM FEW006 BKN035 BKN050 15/14 A2975 RMK AO2=
201003112352 METAR KATL 112352Z VRB06KT 10SM SCT035 BKN050 15/14 A2975 RMK AO2 SLP072 T01500139 10183 20139 53007=
201003112322 SPECI KATL 112322Z 07009KT 10SM FEW014 SCT025 BKN045 16/14 A2974 RMK AO2=
201003112322 SPECI KATL 112322Z 07009KT 10SM FEW014 SCT025 BKN045 16/14 A2974 RMK AO2=
201003112308 SPECI KATL 112308Z 08009KT 10SM SCT014 BKN025 BKN045 16/14 A2974 RMK AO2=
201003112308 SPECI KATL 112308Z 08009KT 10SM SCT014 BKN025 BKN045 16/14 A2974 RMK AO2=
201003112259 SPECI KATL 112259Z 08009KT 10SM BKN014 OVC022 16/14 A2974 RMK AO2=
201003112259 SPECI KATL 112259Z 08009KT 10SM BKN014 OVC022 16/14 A2974 RMK AO2=
201003112252 METAR KATL 112252Z 08009KT 10SM SCT012 BKN018 BKN025 16/14 A2973 RMK AO2 SLP067 T01560139=
201003112215 SPECI KATL 112215Z 08011KT 10SM FEW012 SCT018 BKN025 17/14 A2973 RMK AO2=
201003112215 SPECI KATL 112215Z 08011KT 10SM FEW012 SCT018 BKN025 17/14 A2973 RMK AO2=
201003112152 METAR KATL 112152Z 09010KT 10SM FEW020 BKN030 BKN100 17/14 A2973 RMK AO2 SLP064 T01720144=
201003112140 SPECI KATL 112140Z 08008KT 10SM FEW020 BKN030 BKN100 18/14 A2973 RMK AO2=
201003112140 SPECI KATL 112140Z 08008KT 10SM FEW020 BKN030 BKN100 18/14 A2973 RMK AO2=
201003112052 METAR KATL 112052Z 12008KT 10SM FEW016 BKN020 BKN100 18/14 A2973 RMK AO2 SLP064 T01780139 56017=
201003111958 SPECI KATL 111958Z 13007KT 10SM BKN013 BKN018 BKN100 18/14 A2973 RMK AO2=
201003111958 SPECI KATL 111958Z 13007KT 10SM BKN013 BKN018 BKN100 18/14 A2973 RMK AO2=
201003111952 METAR KATL 111952Z 13006KT 10SM FEW012 BKN016 BKN100 17/14 A2973 RMK AO2 SLP064 T01720139=
201003111932 SPECI KATL 111932Z 13007KT 10SM FEW008 SCT010 BKN016 17/14 A2973 RMK AO2=
201003111932 SPECI KATL 111932Z 13007KT 10SM FEW008 SCT010 BKN016 17/14 A2973 RMK AO2=
201003111858 SPECI KATL 111858Z 14006KT 7SM FEW008 BKN010 BKN020 16/14 A2975 RMK AO2=
201003111858 SPECI KATL 111858Z 14006KT 7SM FEW008 BKN010 BKN020 16/14 A2975 RMK AO2=
201003111852 METAR KATL 111852Z 12006KT 6SM BR BKN009 BKN012 BKN015 15/14 A2976 RMK AO2 SLP074 T01500139=
201003111839 SPECI KATL 111839Z 14006KT 2 1/2SM BR BKN006 BKN009 BKN012 15/14 A2976 RMK AO2 SFC VIS 6=
201003111839 SPECI KATL 111839Z 14006KT 2 1/2SM BR BKN006 BKN009 BKN012 15/14 A2976 RMK AO2 SFC VIS 6=
201003111752 METAR KATL 111752Z 12007KT 1/2SM BR BCFG BKN003 OVC005 14/13 A2978 RMK AO2 SFC VIS 4 DZB17E47 SLP083 TWRINC P0000 60008 T01390133 10139 20111 58015=
201003111718 SPECI KATL 111718Z 12006KT 1/2SM -DZ BR BCFG BKN003 OVC005 13/13 A2979 RMK AO2 SFC VIS 2 DZB17 TWRINC P0000=
201003111718 SPECI KATL 111718Z 12006KT 1/2SM -DZ BR BCFG BKN003 OVC005 13/13 A2979 RMK AO2 SFC VIS 2 DZB17 TWRINC P0000=
201003111652 METAR KATL 111652Z 12004KT 1/2SM BR BKN005 OVC008 13/13 A2981 RMK AO2 SFC VIS 4 SLP093 T01330128=
201003111552 METAR KATL 111552Z 12008KT 1/2SM BR OVC004 13/12 A2981 RMK AO2 SFC VIS 4 SLP092 T01280122=
201003111452 METAR KATL 111452Z 13006KT 1/2SM BR BKN004 OVC008 12/12 A2982 RMK AO2 SFC VIS 4 RAE44 SLP098 P0003 60008 T01220117 51006=
201003111436 SPECI KATL 111436Z 15009G15KT 1/2SM -RA BR OVC004 12/12 A2982 RMK AO2 SFC VIS 4 P0003=
201003111436 SPECI KATL 111436Z 15009G15KT 1/2SM -RA BR OVC004 12/12 A2982 RMK AO2 SFC VIS 4 P0003=
201003111352 METAR KATL 111352Z 13009KT 1SM -RA BR OVC004 12/12 A2981 RMK AO2 SFC VIS 5 SLP095 P0003 T01220117=
201003111252 METAR KATL 111252Z 14008G15KT 1SM -RA BR OVC004 12/11 A2982 RMK AO2 SFC VIS 5 SLP098 P0002 T01170111=
201003111221 SPECI KATL 111221Z 13008KT 1SM -RA BR OVC004 11/11 A2981 RMK AO2 SFC VIS 5 P0001=
201003111221 SPECI KATL 111221Z 13008KT 1SM -RA BR OVC004 11/11 A2981 RMK AO2 SFC VIS 5 P0001=
201003111220 SPECI KATL 111220Z 13009G15KT 3SM -RA BR OVC004 11/11 A2981 RMK AO2 SFC VIS 5 P0001=
201003111220 SPECI KATL 111220Z 13009G15KT 3SM -RA BR OVC004 11/11 A2981 RMK AO2 SFC VIS 5 P0001=
201003111152 METAR KATL 111152Z 13009KT 6SM -RA BR BKN004 OVC031 11/11 A2980 RMK AO2 SLP092 P0001 60008 70196 T01110106 10128 20111 56010=
201003111139 SPECI KATL 111139Z 12009G15KT 6SM -RA BR BKN004 BKN019 BKN060 11/11 A2980 RMK AO2 P0001=
201003111139 SPECI KATL 111139Z 12009G15KT 6SM -RA BR BKN004 BKN019 BKN060 11/11 A2980 RMK AO2 P0001=
201003111108 SPECI KATL 111108Z 11010KT 6SM -RA BR SCT007 BKN016 OVC048 11/11 A2980 RMK AO2 CB DSNT SE AND S P0000=
201003111108 SPECI KATL 111108Z 11010KT 6SM -RA BR SCT007 BKN016 OVC048 11/11 A2980 RMK AO2 CB DSNT SE AND S P0000=
201003111052 METAR KATL 111052Z 12008KT 8SM -RA BKN018 OVC048 11/11 A2981 RMK AO2 SLP095 P0002 T01110106=
201003110952 METAR KATL 110952Z 11009KT 10SM -RA OVC085 12/10 A2981 RMK AO2 RAB08 SLP094 P0000 T01170100 $=
201003110852 METAR KATL 110852Z 11004KT 10SM SCT035 BKN047 BKN055 OVC150 11/11 A2983 RMK AO2 TSE18RAE41 SLP103 CB DSNT SW P0002 60005 T01110106 $=
201003110818 SPECI KATL 110818Z 12003KT 10SM -RA BKN028 OVC035 12/10 A2986 RMK AO2 TSE18 CB DSNT N AND E AND SW AND W P0002 $=
201003110818 SPECI KATL 110818Z 12003KT 10SM -RA BKN028 OVC035 12/10 A2986 RMK AO2 TSE18 CB DSNT N AND E AND SW AND W P0002 $=
201003110752 METAR KATL 110752Z 19004KT 5SM TSRA BR BKN028CB OVC033 12/10 A2989 RMK AO2 TSB16 SLP122 OCNL LTGIC SE AND SW AND NW TS SE AND SW AND NW MOV NE P0003 T01220100 $=
201003110716 SPECI KATL 110716Z 15007KT 10SM -TSRA SCT033CB BKN041 OVC095 12/10 A2988 RMK AO2 TSB16 FRQ LTGIC SW AND NW TS SW AND NW MOV NE P0000 $=
201003110716 SPECI KATL 110716Z 15007KT 10SM -TSRA SCT033CB BKN041 OVC095 12/10 A2988 RMK AO2 TSB16 FRQ LTGIC SW AND NW TS SW AND NW MOV NE P0000 $=
201003110652 METAR KATL 110652Z COR 16008KT 10SM -RA FEW030 SCT050 BKN085 OVC150 12/10 A2989 RMK AO2 RAB02E11B44 SLP120 FRQ LTGIC DSNT W CB DSNT SW-NW P0000 T01220100 $=
201003110552 METAR KATL 110552Z 14008KT 10SM -RA FEW065 BKN090 OVC150 12/11 A2987 RMK AO2 RAB21 SLP116 P0000 60027 T01170106 10128 20106 56018=
201003110452 METAR KATL 110452Z 13008KT 10SM FEW080 BKN110 OVC150 12/11 A2988 RMK AO2 RAE40 SLP120 P0003 T01220106 401390089=
201003110352 METAR KATL 110352Z 14008G18KT 3SM -RA FEW003 BKN055 OVC080 13/10 A2989 RMK AO2 SFC VIS 9 SLP122 P0009 T01280100=
201003110252 METAR KATL 110252Z 15010G15KT 3SM -RA FEW003 SCT030 OVC070 12/11 A2993 RMK AO2 SFC VIS 9 SLP134 P0006 60015 T01220106 52008=
201003110214 SPECI KATL 110214Z 15007KT 3SM -RA SCT003 BKN055 OVC090 11/11 A2991 RMK AO2 SFC VIS 7 P0000=
201003110214 SPECI KATL 110214Z 15007KT 3SM -RA SCT003 BKN055 OVC090 11/11 A2991 RMK AO2 SFC VIS 7 P0000=
201003110152 METAR KATL 110152Z 13006KT 3SM -RA BKN004 BKN025 OVC065 11/11 A2991 RMK AO2 SFC VIS 8 SLP128 CIG 003V006 P0006 T01110106=
201003110135 SPECI KATL 110135Z 14005KT 3SM -RA BKN004 BKN025 OVC080 11/11 A2992 RMK AO2 SFC VIS 7 CIG 003V006 P0006=
201003110135 SPECI KATL 110135Z 14005KT 3SM -RA BKN004 BKN025 OVC080 11/11 A2992 RMK AO2 SFC VIS 7 CIG 003V006 P0006=
201003110100 SPECI KATL 110100Z 15008KT 6SM RA BR SCT004 OVC070 11/11 A2991 RMK AO2 OCNL LTG DSNT SE P0002=
201003110100 SPECI KATL 110100Z 15008KT 6SM RA BR SCT004 OVC070 11/11 A2991 RMK AO2 OCNL LTG DSNT SE P0002=
201003110052 METAR KATL 110052Z 16010KT 1/2SM -RA BKN004 OVC075 11/11 A2992 RMK AO2 SFC VIS 7 SLP132 CIG 002V006 OCNL LTG DSNT S P0003 T01060106=
201003110011 SPECI KATL 110011Z 14013KT 1/2SM -RA BR BKN004 OVC075 11/10 A2992 RMK AO2 SFC VIS 6 CIG 002V006 P0001=
201003110011 SPECI KATL 110011Z 14013KT 1/2SM -RA BR BKN004 OVC075 11/10 A2992 RMK AO2 SFC VIS 6 CIG 002V006 P0001=
201003110008 SPECI KATL 110008Z 14010G15KT 1 1/2SM -RA BR BKN004 OVC075 11/11 A2992 RMK AO2 SFC VIS 6 CIG 003V006 P0000=
201003110008 SPECI KATL 110008Z 14010G15KT 1 1/2SM -RA BR BKN004 OVC075 11/11 A2992 RMK AO2 SFC VIS 6 CIG 003V006 P0000=
201003102352 METAR KATL 102352Z 10008KT 8SM -RA SCT003 BKN080 OVC150 11/10 A2990 RMK AO2 PRESFR SLP126 P0005 60055 T01060100 10106 20089 58003=
201003102350 SPECI KATL 102350Z 10010KT 8SM -RA SCT003 BKN080 OVC150 11/10 A2990 RMK AO2 P0005=
201003102350 SPECI KATL 102350Z 10010KT 8SM -RA SCT003 BKN080 OVC150 11/10 A2990 RMK AO2 P0005=
201003102252 METAR KATL 102252Z 10007KT 1/2SM -RA BR BKN004 OVC060 11/10 A2993 RMK AO2 SFC VIS 6 SLP137 CIG 002V006 P0007 T01060100=
201003102233 SPECI KATL 102233Z 09010KT 1/2SM -RA BR BKN004 OVC040 11/10 A2993 RMK AO2 SFC VIS 4 CIG 003V007 P0007=
201003102233 SPECI KATL 102233Z 09010KT 1/2SM -RA BR BKN004 OVC040 11/10 A2993 RMK AO2 SFC VIS 4 CIG 003V007 P0007=
201003102152 METAR KATL 102152Z 12006KT 1/2SM -RA BR BKN006 BKN010 OVC030 11/10 A2993 RMK AO2 SFC VIS 4 SLP137 P0007 T01060100=
201003102101 SPECI KATL 102101Z 09006KT 1/2SM -RA BR BKN005 BKN010 OVC030 10/09 A2991 RMK AO2 SFC VIS 3 P0002=
201003102101 SPECI KATL 102101Z 09006KT 1/2SM -RA BR BKN005 BKN010 OVC030 10/09 A2991 RMK AO2 SFC VIS 3 P0002=
201003102052 METAR KATL 102052Z 08007KT 1SM RA BR FEW005 BKN010 OVC030 10/09 A2991 RMK AO2 SFC VIS 4 SLP130 P0008 60036 T01000094 58022=
201003102032 SPECI KATL 102032Z 12003KT 1SM -RA BR OVC005 10/09 A2993 RMK AO2 SFC VIS 4 P0005=
201003102032 SPECI KATL 102032Z 12003KT 1SM -RA BR OVC005 10/09 A2993 RMK AO2 SFC VIS 4 P0005=
201003101952 METAR KATL 101952Z 13004KT 1/4SM -RA BR OVC005 09/09 A2994 RMK AO2 SFC VIS 3 SLP140 TWRINC P0006 T00940089=
201003101852 METAR KATL 101852Z VRB04KT 1/4SM -RA BR OVC004 10/09 A2995 RMK AO2 SFC VIS 5 TSE48 SLP141 TS MOV NE TWRINC P0022 T01000094=
201003101849 SPECI KATL 101849Z 08006KT 1/4SM -RA BR BKN004 BKN030 OVC060 10/09 A2994 RMK AO2 SFC VIS 5 TSE48 TS MOV NE TWRINC P0022=
201003101849 SPECI KATL 101849Z 08006KT 1/4SM -RA BR BKN004 BKN030 OVC060 10/09 A2994 RMK AO2 SFC VIS 5 TSE48 TS MOV NE TWRINC P0022=
201003101840 SPECI KATL 101840Z 10005KT 1/4SM -TSRA BR BKN005CB BKN030 OVC060 09/09 A2994 RMK AO2 SFC VIS 3 OCNL LTGICCG NE-SE TS NE-SE MOV NE P0021=
201003101840 SPECI KATL 101840Z 10005KT 1/4SM -TSRA BR BKN005CB BKN030 OVC060 09/09 A2994 RMK AO2 SFC VIS 3 OCNL LTGICCG NE-SE TS NE-SE MOV NE P0021=
201003101831 SPECI KATL 101831Z 09011KT 1/4SM TSRA BR BKN005CB BKN030 OVC060 09/09 A2993 RMK AO2 SFC VIS 3 PRESFR OCNL LTGICCG OHD-NE-SE TS OHD-NE-SE MOV NE P0018=
201003101831 SPECI KATL 101831Z 09011KT 1/4SM TSRA BR BKN005CB BKN030 OVC060 09/09 A2993 RMK AO2 SFC VIS 3 PRESFR OCNL LTGICCG OHD-NE-SE TS OHD-NE-SE MOV NE P0018=
201003101800 SPECI KATL 101800Z 15006KT 1/4SM TSRA BR BKN005CB BKN030 OVC060 09/09 A2998 RMK AO2 SFC VIS 3 OCNL LTGICCG OHD TS OHD MOV NE P0004=
201003101800 SPECI KATL 101800Z 15006KT 1/4SM TSRA BR BKN005CB BKN030 OVC060 09/09 A2998 RMK AO2 SFC VIS 3 OCNL LTGICCG OHD TS OHD MOV NE P0004=
201003101752 METAR KATL 101752Z 17004KT 1/4SM TSRA BR BKN005CB BKN030 OVC060 09/09 A2998 RMK AO2 SFC VIS 2 1/2 SLP151 OCNL LTGIC OHD TS OHD MOV NE P0030 60106 T00940089 10100 20094 50002=
201003101652 METAR KATL 101652Z 11004KT 1/4SM +TSRA BR BKN008CB BKN020 OVC060 09/09 A2998 RMK AO2 SFC VIS 3 TSE20B36 SLP153 OCNL LTGICCG OHD TS OHD MOV NE P0021 T00940089=
201003101636 SPECI KATL 101636Z 00000KT 1/4SM TSRA BR BKN005CB BKN020 OVC060 09/09 A2998 RMK AO2 SFC VIS 3 TSE20B36 OCNL LTGICCG OHD TS OHD MOV NE P0012=
201003101636 SPECI KATL 101636Z 00000KT 1/4SM TSRA BR BKN005CB BKN020 OVC060 09/09 A2998 RMK AO2 SFC VIS 3 TSE20B36 OCNL LTGICCG OHD TS OHD MOV NE P0012=
201003101620 SPECI KATL 101620Z 00000KT 1/4SM RA BR BKN005 BKN020 OVC060 09/09 A2997 RMK AO2 SFC VIS 3 TSE20 TS MOV NE P0006=
201003101620 SPECI KATL 101620Z 00000KT 1/4SM RA BR BKN005 BKN020 OVC060 09/09 A2997 RMK AO2 SFC VIS 3 TSE20 TS MOV NE P0006=
201003101556 SPECI KATL 101556Z 19004KT 1/4SM -TSRA BR BKN005CB BKN020 OVC060 09/09 A2999 RMK AO2 SFC VIS 3 OCNL LTGICCG OHD TS OHD MOV NE P0000=
201003101556 SPECI KATL 101556Z 19004KT 1/4SM -TSRA BR BKN005CB BKN020 OVC060 09/09 A2999 RMK AO2 SFC VIS 3 OCNL LTGICCG OHD TS OHD MOV NE P0000=
201003101552 METAR KATL 101552Z 00000KT 1/4SM -TSRA BR FEW004 BKN008CB OVC020 09/09 A2999 RMK AO2 SFC VIS 2 1/2 TSB36 SLP156 OCNL LTGICCG NE TS NE MOV NE P0024 T00940094=
201003101536 SPECI KATL 101536Z 10006KT 1/4SM TSRA BR BKN008CB BKN020 OVC060 09/09 A2996 RMK AO2 SFC VIS 2 TSB36 OCNL LTGICCG OHD TS OHD MOV NE P0018=
201003101536 SPECI KATL 101536Z 10006KT 1/4SM TSRA BR BKN008CB BKN020 OVC060 09/09 A2996 RMK AO2 SFC VIS 2 TSB36 OCNL LTGICCG OHD TS OHD MOV NE P0018=
201003101514 SPECI KATL 101514Z 14005KT 1/4SM RA BR BKN008 BKN020 OVC060 09/09 A2997 RMK AO2 SFC VIS 1 3/4 P0011=
201003101514 SPECI KATL 101514Z 14005KT 1/4SM RA BR BKN008 BKN020 OVC060 09/09 A2997 RMK AO2 SFC VIS 1 3/4 P0011=
201003101503 SPECI KATL 101503Z 11006KT 1SM RA BR SCT004 BKN020 OVC060 09/09 A2996 RMK AO2 SFC VIS 2 P0007=
201003101503 SPECI KATL 101503Z 11006KT 1SM RA BR SCT004 BKN020 OVC060 09/09 A2996 RMK AO2 SFC VIS 2 P0007=
201003101452 METAR KATL 101452Z 09005KT 1/2SM RA BR BKN004 BKN008 OVC060 09/09 A2997 RMK AO2 SFC VIS 3 TSB19E46 SLP149 TS MOV NE P0021 60031 T00940089 51015=
201003101434 SPECI KATL 101434Z 11006KT 1/2SM +TSRA BKN004 BKN010CB OVC060 09/09 A2996 RMK AO2 SFC VIS 1 3/4 TSB19 OCNL LTGICCG OHD TS OHD MOV NE P0014=
201003101434 SPECI KATL 101434Z 11006KT 1/2SM +TSRA BKN004 BKN010CB OVC060 09/09 A2996 RMK AO2 SFC VIS 1 3/4 TSB19 OCNL LTGICCG OHD TS OHD MOV NE P0014=
201003101419 SPECI KATL 101419Z 12006KT 1/4SM -TSRA BKN003 BKN010CB OVC060 09/09 A2995 RMK AO2 SFC VIS 2 TSB19 OCNL LTGICCG OHD TS OHD MOV NE P0009=
201003101419 SPECI KATL 101419Z 12006KT 1/4SM -TSRA BKN003 BKN010CB OVC060 09/09 A2995 RMK AO2 SFC VIS 2 TSB19 OCNL LTGICCG OHD TS OHD MOV NE P0009=
201003101404 SPECI KATL 101404Z 08007KT 1/4SM RA BR BKN003 BKN010 OVC060 10/09 A2995 RMK AO2 SFC VIS 2 CB DSNT S-SW P0004=
201003101404 SPECI KATL 101404Z 08007KT 1/4SM RA BR BKN003 BKN010 OVC060 10/09 A2995 RMK AO2 SFC VIS 2 CB DSNT S-SW P0004=
201003101357 SPECI KATL 101357Z 07008KT 1/4SM RA BR SCT002 BKN022CB OVC065 10/09 A2995 RMK AO2 SFC VIS 2 CB S-W-N MOV NE P0002=
201003101357 SPECI KATL 101357Z 07008KT 1/4SM RA BR SCT002 BKN022CB OVC065 10/09 A2995 RMK AO2 SFC VIS 2 CB S-W-N MOV NE P0002=
201003101352 METAR KATL 101352Z 09008KT 1SM RA BR SCT002 BKN022CB OVC065 09/09 A2995 RMK AO2 SFC VIS 2 SLP140 CB S-W-N MOV NE P0006 T00940089=
201003101330 SPECI KATL 101330Z VRB05KT 2 1/2SM -RA BR SCT002 SCT006 OVC065 10/09 A2994 RMK AO2 SFC VIS 4 CB DSNT SW-NW P0002=
201003101330 SPECI KATL 101330Z VRB05KT 2 1/2SM -RA BR SCT002 SCT006 OVC065 10/09 A2994 RMK AO2 SFC VIS 4 CB DSNT SW-NW P0002=
201003101252 METAR KATL 101252Z 00000KT 2SM -RA BR SCT002 BKN008 OVC055 09/09 A2995 RMK AO2 SFC VIS 3 SLP142 CB DSNT S AND NW P0004 T00940089=
201003101240 SPECI KATL 101240Z 00000KT 2SM -RA BR SCT002 BKN060 OVC075 09/09 A2996 RMK AO2 SFC VIS 2 1/2 CB DSNT S P0004=
201003101240 SPECI KATL 101240Z 00000KT 2SM -RA BR SCT002 BKN060 OVC075 09/09 A2996 RMK AO2 SFC VIS 2 1/2 CB DSNT S P0004=
201003101204 SPECI KATL 101204Z 14004KT 1 1/2SM -RA BR SCT002 BKN037 OVC080 09/09 A2993 RMK AO2 SFC VIS 4 CB DSNT N-NE AND S AND NW-N P0000=
201003101204 SPECI KATL 101204Z 14004KT 1 1/2SM -RA BR SCT002 BKN037 OVC080 09/09 A2993 RMK AO2 SFC VIS 4 CB DSNT N-NE AND S AND NW-N P0000=
201003101152 METAR KATL 101152Z VRB03KT 7SM -RA FEW006 BKN037 OVC080 09/09 A2993 RMK AO2 SLP132 CB DSNT N-NE AND S AND NW-N P0003 60018 70018 T00940089 10133 20089 53004=
201003101052 METAR KATL 101052Z 22003KT 5SM -RA BR FEW006 SCT022CB OVC030 09/08 A2992 RMK AO2 SLP131 CB W-N MOV NE P0010 T00940083=
201003100952 METAR KATL 100952Z 20005KT 5SM RA BR BKN016 BKN028 OVC085 09/08 A2991 RMK AO2 SLP127 CB DSNT S AND SW-NW P0003 T00940083=
201003100852 METAR KATL 100852Z 18007KT 9SM -RA BKN020 BKN050 OVC080 10/08 A2992 RMK AO2 SLP128 P0002 60002 T01000078 58001=
201003100843 SPECI KATL 100843Z 20006KT 9SM -RA BKN020 BKN050 OVC080 11/08 A2992 RMK AO2 P0001=
201003100843 SPECI KATL 100843Z 20006KT 9SM -RA BKN020 BKN050 OVC080 11/08 A2992 RMK AO2 P0001=
201003100824 SPECI KATL 100824Z 22006KT 10SM -RA SCT024 SCT029 OVC080 12/07 A2993 RMK AO2 P0000=
201003100824 SPECI KATL 100824Z 22006KT 10SM -RA SCT024 SCT029 OVC080 12/07 A2993 RMK AO2 P0000=
201003100752 METAR KATL 100752Z 20004KT 10SM -RA SCT024 BKN029 OVC075 12/06 A2992 RMK AO2 RAB0656E31B51 SLP130 P0000 T01170061=
201003100729 SPECI KATL 100729Z 22007KT 10SM -RA BKN029 OVC080 12/06 A2994 RMK AO2 RAB0656 P0000=
201003100729 SPECI KATL 100729Z 22007KT 10SM -RA BKN029 OVC080 12/06 A2994 RMK AO2 RAB0656 P0000=
201003100652 METAR KATL 100652Z COR 16011KT 10SM BKN090 OVC150 13/06 A2993 RMK AO2 RAB35E48 SLP131 P0000 T01280061=
201003100552 METAR KATL 100552Z 14007KT 10SM FEW040 SCT110 OVC150 13/06 A2992 RMK AO2 SLP128 T01330061 10167 20133 58014=
201003100452 METAR KATL 100452Z 17005KT 10SM FEW050 BKN120 OVC150 13/06 A2996 RMK AO2 SLP143 T01330061 402060061=
201003100352 METAR KATL 100352Z 19004KT 10SM FEW050 BKN120 BKN150 OVC200 14/06 A2997 RMK AO2 SLP144 T01390056=
201003100252 METAR KATL 100252Z 18007KT 10SM SCT120 BKN150 OVC200 14/04 A2996 RMK AO2 SLP144 T01440044 51006=
201003100152 METAR KATL 100152Z 19008KT 10SM FEW100 BKN150 OVC200 15/04 A2996 RMK AO2 SLP144 T01500039=
201003100052 METAR KATL 100052Z 17006KT 10SM FEW100 SCT150 OVC200 16/02 A2995 RMK AO2 SLP141 T01610022=
201003092352 METAR KATL 092352Z 17006KT 10SM FEW090 SCT150 OVC200 17/01 A2994 RMK AO2 SLP139 T01670006 10200 20167 55006=
201003092252 METAR KATL 092252Z 17011KT 10SM FEW080 SCT100 OVC200 18/00 A2993 RMK AO2 SLP134 T01780000=
201003092152 METAR KATL 092152Z 19012G17KT 10SM FEW100 BKN150 BKN250 19/M01 A2995 RMK AO2 SLP139 T01941006=
201003092052 METAR KATL 092052Z 17009KT 10SM FEW090 BKN150 BKN250 20/01 A2996 RMK AO2 SLP145 T02000011 56015=
201003091952 METAR KATL 091952Z 21010KT 10SM BKN090 BKN150 BKN250 19/00 A2997 RMK AO2 SLP147 T01940000=
201003091852 METAR KATL 091852Z 18007G16KT 10SM FEW100 BKN150 BKN250 19/M01 A2998 RMK AO2 SLP151 VIRGA N-NE T01941011=
201003091752 METAR KATL 091752Z 22008KT 10SM FEW100 BKN150 BKN250 19/M01 A3001 RMK AO2 SLP159 VIRGA DSNT SW-W-NW T01941006 10206 20061 58018=
201003091652 METAR KATL 091652Z 25007KT 10SM FEW090 SCT150 BKN250 18/M01 A3004 RMK AO2 SLP168 T01831006=
201003091552 METAR KATL 091552Z 24008KT 10SM FEW090 BKN150 BKN250 18/M01 A3006 RMK AO2 SLP175 T01781006=
201003091452 METAR KATL 091452Z 26007KT 10SM FEW090 SCT150 BKN250 16/00 A3006 RMK AO2 SLP178 T01610000 51018=
201003091352 METAR KATL 091352Z 00000KT 10SM SCT250 12/03 A3005 RMK AO2 SLP173 T01220028=
201003091252 METAR KATL 091252Z 22004KT 10SM SCT250 09/03 A3004 RMK AO2 SLP172 T00890033=
201003091152 METAR KATL 091152Z 00000KT 10SM FEW250 08/02 A3001 RMK AO2 SLP161 T00830017 10133 20072 51011=
201003091052 METAR KATL 091052Z 00000KT 10SM CLR 08/02 A3000 RMK AO2 SLP156 T00830017=
201003090952 METAR KATL 090952Z 00000KT 10SM SCT250 07/02 A2999 RMK AO2 SLP153 T00720017=
201003090852 METAR KATL 090852Z 18003KT 10SM FEW250 08/02 A2998 RMK AO2 SLP149 T00780022 55005=
201003090752 METAR KATL 090752Z 00000KT 10SM FEW250 09/02 A2997 RMK AO2 SLP147 T00940017=
201003090652 METAR KATL 090652Z 00000KT 10SM FEW250 11/02 A2999 RMK AO2 SLP153 T01110017=
201003090552 METAR KATL 090552Z 27004KT 10SM SCT250 13/01 A2999 RMK AO2 SLP153 T01330011 10189 20133 58004=
201003090452 METAR KATL 090452Z 27007KT 10SM SCT250 14/01 A3000 RMK AO2 SLP156 T01390011 402280033=
201003090352 METAR KATL 090352Z 25007KT 10SM FEW250 15/02 A3001 RMK AO2 SLP160 T01500017 $=
201003090252 METAR KATL 090252Z 25005KT 10SM FEW250 15/02 A3001 RMK AO2 SLP159 T01500022 51005=
201003090152 METAR KATL 090152Z 24003KT 10SM FEW250 16/02 A3000 RMK AO2 SLP159 T01560022=
201003090052 METAR KATL 090052Z 00000KT 10SM FEW250 16/02 A3001 RMK AO2 SLP161 T01610017=
201003082352 METAR KATL 082352Z 00000KT 10SM FEW250 19/01 A2999 RMK AO2 SLP157 T01890006 10228 20189 56002=
201003082252 SPECI KATL 082252Z 33007KT 10SM FEW250 21/01 A2999 RMK AO2 SLP156 T02060011=
201003082152 METAR KATL 082152Z 31006KT 10SM FEW085 SCT250 22/01 A3000 RMK AO2 SLP156 T02170006=
201003082052 METAR KATL 082052Z 31008G14KT 10SM FEW080 22/01 A3000 RMK AO2 SLP157 T02220006 56031=
201003081952 METAR KATL 081952Z 23004KT 10SM FEW080 21/01 A3002 RMK AO2 SLP164 T02110011=
201003081852 METAR KATL 081852Z 34008KT 10SM FEW250 21/02 A3006 RMK AO2 SLP178 T02110022=
201003081752 METAR KATL 081752Z VRB04KT 10SM CLR 20/01 A3009 RMK AO2 SLP189 T02000006 10206 20033 58019=
201003081652 METAR KATL 081652Z 22003KT 10SM FEW250 18/M01 A3013 RMK AO2 SLP202 T01781011=
201003081552 METAR KATL 081552Z 32007KT 10SM CLR 16/M02 A3014 RMK AO2 SLP206 T01561022=
201003081452 METAR KATL 081452Z 30006KT 10SM FEW250 12/M03 A3015 RMK AO2 SLP211 T01221033 50004=
201003081352 METAR KATL 081352Z 31006KT 10SM FEW250 10/M04 A3016 RMK AO2 SLP213 T01001044=
201003081252 METAR KATL 081252Z 31005KT 10SM FEW250 06/M04 A3015 RMK AO2 SLP213 T00561039 $=
201003081152 METAR KATL 081152Z 31007KT 10SM FEW250 04/M05 A3014 RMK AO2 SLP207 T00391050 10072 20039 51007=
201003081052 METAR KATL 081052Z 30005KT 10SM CLR 04/M06 A3013 RMK AO2 SLP206 T00441061 $=
201003080952 METAR KATL 080952Z 29003KT 10SM CLR 06/M07 A3013 RMK AO2 SLP203 T00561067 $=
201003080852 METAR KATL 080852Z 30003KT 10SM CLR 06/M06 A3012 RMK AO2 SLP199 T00561061 56005 $=
201003080752 METAR KATL 080752Z 31006KT 10SM CLR 06/M07 A3012 RMK AO2 SLP200 T00561067 $=
201003080652 METAR KATL 080652Z 30004KT 10SM CLR 07/M07 A3013 RMK AO2 SLP203 T00671067 $=
201003080552 METAR KATL 080552Z 25003KT 10SM CLR 07/M06 A3013 RMK AO2 SLP205 T00671061 10144 20067 58008 $=
201003080452 METAR KATL 080452Z 29005KT 10SM CLR 08/M07 A3015 RMK AO2 SLP211 T00781072 401670000 $=
201003080352 METAR KATL 080352Z 29003KT 10SM CLR 08/M06 A3016 RMK AO2 SLP215 T00831061 $=
201003080252 METAR KATL 080252Z 32005KT 10SM CLR 09/M07 A3016 RMK AO2 SLP215 T00941067 51007 $=
201003080152 METAR KATL 080152Z 32005KT 10SM FEW250 11/M07 A3015 RMK AO2 SLP213 T01061072 $=
201003080052 METAR KATL 080052Z 31005KT 10SM FEW200 BKN250 12/M08 A3014 RMK AO2 SLP211 T01221083 $=
201003072352 METAR KATL 072352Z 30004KT 10SM FEW200 BKN250 14/M10 A3014 RMK AO2 SLP208 T01441100 10167 20133 57007 $=
201003072252 SPECI KATL 072252Z 33004KT 10SM BKN200 OVC250 15/M09 A3014 RMK AO2 SLP211 T01501094 $=
201003072152 SPECI KATL 072152Z 32006G14KT 10SM FEW150 BKN200 OVC250 16/M09 A3015 RMK AO2 SLP211 T01561089 $=
201003072052 METAR KATL 072052Z 31009KT 10SM FEW150 BKN200 OVC250 16/M07 A3016 RMK AO2 SLP215 T01611067 56022 $=
201003071952 METAR KATL 071952Z VRB04KT 10SM FEW150 BKN200 OVC250 16/M07 A3017 RMK AO2 SLP220 T01611072 $=
201003071852 METAR KATL 071852Z 33006KT 10SM SCT150 BKN200 BKN250 15/M07 A3019 RMK AO2 SLP225 T01501072 $=
201003071752 METAR KATL 071752Z 29009G14KT 10SM SCT150 BKN200 BKN250 14/M07 A3022 RMK AO2 SLP237 T01391072 10139 20006 58011 $=
201003071652 METAR KATL 071652Z 30006KT 10SM SCT150 BKN200 OVC250 11/M06 A3026 RMK AO2 SLP249 T01111056 $=
201003071552 METAR KATL 071552Z 28003KT 10SM SCT150 BKN200 OVC250 09/M06 A3025 RMK AO2 SLP248 T00891056 $=
201003071452 METAR KATL 071452Z 00000KT 10SM OVC200 07/M06 A3026 RMK AO2 SLP250 T00671061 50004 $=
201003071352 METAR KATL 071352Z 32006KT 10SM BKN250 04/M07 A3027 RMK AO2 SLP255 T00391067 $=
201003071252 METAR KATL 071252Z 32006KT 10SM SCT250 02/M06 A3027 RMK AO2 SLP254 T00171061 $=
201003071152 METAR KATL 071152Z 30007KT 10SM FEW250 01/M07 A3025 RMK AO2 SLP247 T00061072 10056 20000 51010 $=
201003071052 METAR KATL 071052Z 30006KT 10SM CLR 01/M07 A3023 RMK AO2 SLP242 T00061072 $=
201003070952 METAR KATL 070952Z 29005KT 10SM CLR 03/M08 A3023 RMK AO2 SLP240 T00281078 $=
201003070852 METAR KATL 070852Z 27004KT 10SM CLR 01/M07 A3021 RMK AO2 SLP235 T00061067 55004 $=
201003070752 METAR KATL 070752Z 00000KT 10SM CLR 02/M07 A3020 RMK AO2 SLP231 T00221072 $=
201003070652 METAR KATL 070652Z 32004KT 10SM CLR 04/M08 A3021 RMK AO2 SLP234 T00441083 $=
201003070552 METAR KATL 070552Z 28004KT 10SM CLR 05/M08 A3023 RMK AO2 SLP239 T00501083 10111 20044 53005 $=
201003070452 METAR KATL 070452Z 28006KT 10SM CLR 06/M09 A3023 RMK AO2 SLP241 T00561089 401441017 $=
201003070352 METAR KATL 070352Z 00000KT 10SM CLR 08/M09 A3020 RMK AO2 SLP228 T00781094 $=
201003070252 METAR KATL 070252Z 30003KT 10SM CLR 08/M10 A3021 RMK AO2 SLP234 T00831100 50001 $=
201003070152 SPECI KATL 070152Z 33006KT 10SM CLR 09/M10 A3022 RMK AO2 SLP238 T00891100 $=
201003070052 METAR KATL 070052Z 31005KT 10SM CLR 10/M11 A3022 RMK AO2 SLP237 T01001106 $=
201003062352 METAR KATL 062352Z 32007KT 10SM CLR 11/M09 A3021 RMK AO2 SLP235 T01061089 10144 20106 55001 $=
201003062252 METAR KATL 062252Z 33008KT 10SM CLR 13/M09 A3020 RMK AO2 SLP233 T01281094 $=
201003062152 METAR KATL 062152Z 31007KT 10SM CLR 14/M09 A3020 RMK AO2 SLP232 T01391089 $=
201003062052 METAR KATL 062052Z 33006KT 10SM CLR 14/M09 A3021 RMK AO2 SLP236 T01391094 56017 $=
201003061952 METAR KATL 061952Z VRB04KT 10SM CLR 14/M08 A3023 RMK AO2 SLP241 T01391083 $=
201003061852 METAR KATL 061852Z VRB04KT 10SM FEW250 12/M08 A3024 RMK AO2 SLP245 T01221083 $=
201003061752 METAR KATL 061752Z 00000KT 10SM FEW250 12/M08 A3026 RMK AO2 SLP253 T01171083 10117 21011 58008 $=
201003061652 METAR KATL 061652Z COR VRB03KT 10SM CLR 10/M09 A3028 RMK AO2 SLP259 T01001089 $=
201003061552 METAR KATL 061552Z 06003KT 10SM CLR 09/M09 A3029 RMK AO2 SLP262 T00891089 $=
201003061452 METAR KATL 061452Z 00000KT 10SM CLR 07/M08 A3029 RMK AO2 SLP261 T00671083 51010 $=
201003061352 METAR KATL 061352Z 00000KT 10SM CLR 04/M07 A3028 RMK AO2 SLP259 T00391072 $=
201003061252 METAR KATL 061252Z 34005KT 10SM CLR 01/M08 A3027 RMK AO2 SLP257 T00061078 $=
201003061152 METAR KATL 061152Z 33005KT 10SM CLR M01/M09 A3026 RMK AO2 SLP252 T10111089 10033 21017 51014 $=
201003061052 METAR KATL 061052Z 33005KT 10SM CLR M01/M09 A3025 RMK AO2 SLP248 T10111089=
201003060952 METAR KATL 060952Z 32006KT 10SM CLR M01/M09 A3023 RMK AO2 SLP243 T10111089=
201003060852 METAR KATL 060852Z 33006KT 10SM CLR M01/M08 A3021 RMK AO2 SLP236 T10061083 51004=
201003060752 METAR KATL 060752Z 31007KT 10SM CLR M01/M09 A3021 RMK AO2 SLP235 T10061089=
201003060652 METAR KATL 060652Z 33006KT 10SM CLR 02/M09 A3021 RMK AO2 SLP236 T00171094=
201003060552 METAR KATL 060552Z 36005KT 10SM CLR 04/M10 A3020 RMK AO2 SLP231 T00391100 10078 20033 53004=
201003060452 METAR KATL 060452Z 35009KT 10SM CLR 04/M10 A3020 RMK AO2 SLP231 T00441100 401171011=
201003060352 METAR KATL 060352Z 33007KT 10SM CLR 04/M11 A3019 RMK AO2 SLP229 T00391106=
201003060252 METAR KATL 060252Z 34005KT 10SM CLR 04/M11 A3019 RMK AO2 SLP228 T00441111 51013=
201003060152 METAR KATL 060152Z 33007KT 10SM CLR 06/M12 A3018 RMK AO2 SLP226 T00611117=
201003060052 METAR KATL 060052Z 34007KT 10SM CLR 06/M12 A3016 RMK AO2 SLP221 T00611122=
201003052352 METAR KATL 052352Z 33007KT 10SM CLR 08/M12 A3015 RMK AO2 SLP217 T00781122 10117 20078 53008=
201003052252 METAR KATL 052252Z 35015G19KT 10SM CLR 10/M11 A3013 RMK AO2 SLP209 T01001111=
201003052152 METAR KATL 052152Z 33013G20KT 10SM CLR 11/M09 A3012 RMK AO2 SLP204 T01111094=
201003052052 METAR KATL 052052Z 32011G20KT 10SM CLR 11/M10 A3013 RMK AO2 SLP207 T01111100 56013=
201003051952 METAR KATL 051952Z 33017G24KT 10SM CLR 11/M09 A3013 RMK AO2 SLP208 T01111089=
201003051852 METAR KATL 051852Z 34015G21KT 10SM CLR 11/M07 A3014 RMK AO2 SLP210 T01111072=
201003051752 METAR KATL 051752Z 32010G20KT 280V350 10SM CLR 10/M06 A3017 RMK AO2 SLP220 T01001061 10100 21011 58002=
201003051652 METAR KATL 051652Z 33016G21KT 10SM CLR 09/M07 A3018 RMK AO2 SLP224 T00891072=
201003051552 METAR KATL 051552Z 36009G22KT 10SM CLR 08/M07 A3018 RMK AO2 SLP225 T00781072=
201003051452 METAR KATL 051452Z 35008KT 10SM CLR 06/M06 A3017 RMK AO2 SLP223 T00611056 51014=
201003051352 METAR KATL 051352Z 32008KT 10SM CLR 03/M04 A3017 RMK AO2 SLP222 T00281044=
201003051252 METAR KATL 051252Z 31009KT 10SM CLR 00/M04 A3015 RMK AO2 SLP218 T00001044=
201003051152 METAR KATL 051152Z 31008KT 10SM CLR M01/M05 A3013 RMK AO2 SLP210 T10111050 10017 21011 53015=
201003051052 METAR KATL 051052Z 31008KT 10SM CLR M01/M04 A3011 RMK AO2 SLP204 T10111044=
201003050952 METAR KATL 050952Z 30006KT 10SM CLR M01/M04 A3010 RMK AO2 SLP197 T10061044=
201003050852 METAR KATL 050852Z 31007KT 10SM CLR 00/M04 A3008 RMK AO2 SLP193 T00001044 58001=
201003050752 METAR KATL 050752Z 32007KT 10SM CLR 00/M04 A3009 RMK AO2 SLP194 T00001039=
201003050652 METAR KATL 050652Z 29006KT 10SM CLR 01/M04 A3010 RMK AO2 SLP197 T00061039=
201003050552 METAR KATL 050552Z 31007KT 10SM CLR 02/M04 A3009 RMK AO2 SLP194 T00171039 10061 20017 50005=
201003050452 METAR KATL 050452Z 28004KT 10SM CLR 02/M03 A3009 RMK AO2 SLP196 T00221033 401001017=
201003050352 METAR KATL 050352Z 27006KT 10SM CLR 03/M03 A3009 RMK AO2 SLP196 T00281033=
201003050252 METAR KATL 050252Z 29005KT 10SM CLR 03/M04 A3007 RMK AO2 SLP189 T00331039 53007=
201003050152 METAR KATL 050152Z 31007KT 10SM CLR 04/M03 A3006 RMK AO2 SLP187 T00441033=
201003050052 METAR KATL 050052Z 32007KT 10SM CLR 06/M04 A3005 RMK AO2 SLP184 T00561039=
201003042352 METAR KATL 042352Z 32010KT 10SM CLR 06/M04 A3005 RMK AO2 SLP183 T00611039 10100 20061 53007=
201003042252 METAR KATL 042252Z 32015G19KT 10SM CLR 08/M04 A3004 RMK AO2 SLP179 T00781039=
201003042152 METAR KATL 042152Z 33014G19KT 10SM FEW055 09/M04 A3003 RMK AO2 SLP174 T00891039=
201003042052 METAR KATL 042052Z 32015G20KT 10SM FEW055 09/M04 A3003 RMK AO2 SLP174 T00941039 56008=
201003041952 METAR KATL 041952Z 32013G23KT 10SM FEW055 09/M04 A3003 RMK AO2 SLP175 T00941039=
201003041852 METAR KATL 041852Z 31009G21KT 10SM FEW050 09/M03 A3004 RMK AO2 SLP177 T00891033=
201003041752 METAR KATL 041752Z 31011G19KT 10SM FEW045 08/M03 A3005 RMK AO2 SLP183 T00781033 10078 21017 58003=
201003041652 METAR KATL 041652Z 34015KT 10SM CLR 07/M03 A3007 RMK AO2 SLP187 T00671033=
201003041552 SPECI KATL 041552Z 32015KT 10SM CLR 05/M03 A3007 RMK AO2 SLP189 T00501033=
201003041452 METAR KATL 041452Z 33017G22KT 10SM CLR 03/M04 A3006 RMK AO2 SLP188 T00331044 51023=
201003041352 METAR KATL 041352Z 32011KT 10SM CLR 02/M04 A3005 RMK AO2 SLP186 T00171044=
201003041252 METAR KATL 041252Z 32009KT 10SM CLR M01/M05 A3003 RMK AO2 SLP178 T10061050=
201003041152 METAR KATL 041152Z 32010KT 10SM CLR M02/M05 A2999 RMK AO2 SLP166 T10171050 11006 21017 51012=
201003041052 METAR KATL 041052Z 33013KT 10SM CLR M01/M05 A2998 RMK AO2 SLP160 T10111050=
201003040952 METAR KATL 040952Z 31011KT 10SM CLR M01/M06 A2997 RMK AO2 SLP158 T10111056=
201003040852 METAR KATL 040852Z 32010KT 10SM CLR M01/M06 A2996 RMK AO2 SLP152 T10111056 58008=
201003040752 METAR KATL 040752Z 32010KT 10SM FEW044 M01/M06 A2997 RMK AO2 SLP155 T10111061=
201003040652 METAR KATL 040652Z 32008KT 10SM SCT044 M01/M06 A2998 RMK AO2 SLP160 T10061061=
201003040552 METAR KATL 040552Z 31009KT 10SM SCT040 M01/M07 A2998 RMK AO2 SLP160 T10061067 10022 21006 50003=
201003040452 METAR KATL 040452Z 33011KT 10SM FEW040 00/M07 A2998 RMK AO2 SLP161 T00001072 400720000=
201003040352 METAR KATL 040352Z 34014G22KT 10SM BKN038 01/M06 A2997 RMK AO2 SLP158 T00111061=
201003040252 METAR KATL 040252Z 35014KT 10SM SCT028 OVC035 02/M04 A2997 RMK AO2 SLP157 T00171039 51009=
201003040152 METAR KATL 040152Z 31014KT 10SM FEW028 BKN034 OVC040 02/M04 A2996 RMK AO2 SLP153 T00171039=
201003040052 METAR KATL 040052Z 31012KT 10SM SCT028 OVC035 02/M03 A2996 RMK AO2 SLP153 T00171033=
201003040008 SPECI KATL 040008Z 31012KT 10SM SCT028 OVC035 02/M03 A2995 RMK AO2=
201003040008 SPECI KATL 040008Z 31012KT 10SM SCT028 OVC035 02/M03 A2995 RMK AO2=
201003032352 METAR KATL 032352Z 33013KT 10SM BKN028 OVC035 02/M03 A2994 RMK AO2 SLP148 T00221033 10072 20022 53024=
201003032252 METAR KATL 032252Z 31012G20KT 10SM OVC030 03/M03 A2991 RMK AO2 SLP136 T00281033=
201003032152 SPECI KATL 032152Z 29013KT 10SM OVC034 03/M03 A2989 RMK AO2 SLP130 T00331033=
201003032052 METAR KATL 032052Z 30017G23KT 10SM BKN036 05/M03 A2987 RMK AO2 SLP122 T00501028 53002=
201003031952 METAR KATL 031952Z 30013G22KT 10SM BKN038 05/M02 A2985 RMK AO2 SLP116 T00501022=
201003031852 METAR KATL 031852Z 29015G22KT 10SM BKN038 06/M02 A2986 RMK AO2 SLP116 T00561017=
201003031752 METAR KATL 031752Z 32020G25KT 10SM SCT038 06/M02 A2987 RMK AO2 SLP120 T00611022 10067 20006 50004=
201003031652 METAR KATL 031652Z 31014KT 10SM FEW035 06/M02 A2987 RMK AO2 SLP119 T00561022=
201003031552 METAR KATL 031552Z 33015KT 10SM FEW035 SCT080 04/M03 A2986 RMK AO2 SLP118 T00441028=
201003031452 METAR KATL 031452Z 34018G23KT 10SM FEW028 SCT080 03/M03 A2985 RMK AO2 PK WND 32026/1436 SLP116 T00281033 51018=
201003031352 METAR KATL 031352Z 32016G21KT 10SM SCT026 02/M04 A2984 RMK AO2 PK WND 32027/1326 SLP112 T00171039=
201003031252 METAR KATL 031252Z 33018G25KT 10SM SCT026 01/M04 A2982 RMK AO2 PK WND 32030/1218 SLP106 T00111039=
201003031238 SPECI KATL 031238Z 32015G27KT 10SM SCT028 01/M04 A2982 RMK AO2 PK WND 32030/1218=
201003031238 SPECI KATL 031238Z 32015G27KT 10SM SCT028 01/M04 A2982 RMK AO2 PK WND 32030/1218=
201003031152 METAR KATL 031152Z 32017G25KT 10SM BKN028 01/M04 A2980 RMK AO2 SLP099 70034 T00111039 10017 20011 53017=
201003031052 METAR KATL 031052Z 33015G22KT 10SM BKN028 02/M03 A2978 RMK AO2 PK WND 34026/1028 SLP090 T00171033=
201003030952 METAR KATL 030952Z 32013KT 10SM BKN028 01/M03 A2976 RMK AO2 SLP085 T00111028=
201003030852 METAR KATL 030852Z 32011KT 10SM FEW030 01/M02 A2975 RMK AO2 SLP080 T00111022 58003=
201003030752 METAR KATL 030752Z 32014G21KT 10SM FEW020 01/M02 A2976 RMK AO2 SLP083 T00111022=
201003030652 METAR KATL 030652Z 32014KT 10SM SCT033 02/M01 A2976 RMK AO2 SLP084 T00171006=
201003030552 METAR KATL 030552Z 32014G21KT 10SM FEW020 02/M01 A2976 RMK AO2 SLP084 60001 T00171006 10028 20017 51005=
201003030452 METAR KATL 030452Z 32015G27KT 10SM FEW020 OVC070 03/00 A2975=
201003030418 SPECI KATL 030418Z 32015G24KT 10SM SCT018 OVC070 02/00 A2976 RMK AO2=
201003030418 SPECI KATL 030418Z 32015G24KT 10SM SCT018 OVC070 02/00 A2976 RMK AO2=
201003030352 METAR KATL 030352Z 32016KT 10SM BKN018 OVC070 03/01 A2976 RMK AO2 SLP083 T00280006=
201003030252 METAR KATL 030252Z 31010G18KT 10SM FEW009 BKN015 OVC070 03/01 A2974 RMK AO2 SLP077 60001 T00280011 51009=
201003030152 METAR KATL 030152Z 32011KT 10SM SCT009 BKN014 OVC025 03/01 A2973 RMK AO2 RAE24SNE0059 SLP073 P0000 T00280011=
201003030150 SPECI KATL 030150Z 33012KT 10SM SCT009 BKN014 OVC025 03/01 A2973 RMK AO2 RAE24SNE0059 P0000=
201003030150 SPECI KATL 030150Z 33012KT 10SM SCT009 BKN014 OVC025 03/01 A2973 RMK AO2 RAE24SNE0059 P0000=
201003030059 SPECI KATL 030059Z 31008KT 9SM -RA BKN008 OVC015 02/01 A2972 RMK AO2 SNE59 P0000=
201003030059 SPECI KATL 030059Z 31008KT 9SM -RA BKN008 OVC015 02/01 A2972 RMK AO2 SNE59 P0000=
201003030052 METAR KATL 030052Z 30007KT 9SM -RASN BKN008 OVC015 02/01 A2972 RMK AO2 SLP070 PCPN VRY LGT P0001 T00220011=
201003022352 METAR KATL 022352Z 30008KT 8SM -RASN BKN007 BKN015 OVC025 02/01 A2971 RMK AO2 SNB50 SLP067 P0000 60010 T00170011 10028 20011 53024=
201003022312 SPECI KATL 022312Z 32012KT 8SM BKN006 OVC015 02/01 A2969 RMK AO2 RAE11 PCPN VRY LGT P0000=
201003022312 SPECI KATL 022312Z 32012KT 8SM BKN006 OVC015 02/01 A2969 RMK AO2 RAE11 PCPN VRY LGT P0000=
201003022252 METAR KATL 022252Z 32011KT 2 1/2SM -RA BR BKN007 BKN014 OVC020 02/01 A2968 RMK AO2 SFC VIS 5 SNE2156 SLP054 P0001 T00220011=
201003022228 SPECI KATL 022228Z 35011KT 2 1/2SM -RA BR SCT007 BKN014 OVC020 03/02 A2966 RMK AO2 SFC VIS 4 SNE2156 P0001=
201003022228 SPECI KATL 022228Z 35011KT 2 1/2SM -RA BR SCT007 BKN014 OVC020 03/02 A2966 RMK AO2 SFC VIS 4 SNE2156 P0001=
201003022152 METAR KATL 022152Z 34009KT 2 1/2SM -RASN BR BKN007 BKN012 OVC015 02/01 A2965 RMK AO2 SFC VIS 5 DZE27RAB27SNB43 SLP047 P0001 T00220011=
201003022054 SPECI KATL 022054Z 35010KT 2 1/2SM -DZ BR BKN007 BKN012 OVC015 02/02 A2964 RMK AO2 SFC VIS 6 P0000=
201003022054 SPECI KATL 022054Z 35010KT 2 1/2SM -DZ BR BKN007 BKN012 OVC015 02/02 A2964 RMK AO2 SFC VIS 6 P0000=
201003022052 METAR KATL 022052Z 35010KT 2 1/2SM -DZ BR FEW007 BKN012 OVC015 03/02 A2964 RMK AO2 SFC VIS 5 RAE44DZB46 SLP040 P0000 60008 T00280017 55007=
201003022007 SPECI KATL 022007Z 03011KT 2 1/2SM -RA BR FEW007 BKN012 OVC015 03/01 A2963 RMK AO2 SFC VIS 5 P0000=
201003022007 SPECI KATL 022007Z 03011KT 2 1/2SM -RA BR FEW007 BKN012 OVC015 03/01 A2963 RMK AO2 SFC VIS 5 P0000=
201003021954 SPECI KATL 021954Z 03012KT 2 1/2SM -RA BR BKN009 OVC015 03/01 A2963 RMK AO2 SFC VIS 5 CIG 007V011 P0000=
201003021954 SPECI KATL 021954Z 03012KT 2 1/2SM -RA BR BKN009 OVC015 03/01 A2963 RMK AO2 SFC VIS 5 CIG 007V011 P0000=
201003021952 METAR KATL 021952Z COR 03012KT 2 1/2SM -RA BR FEW007 BKN011 OVC015 03/01 A2963 RMK AO2 SFC VIS 5 RAB14SNE47 SLP038 P0002 T00280011=
201003021926 SPECI KATL 021926Z 03013G22KT 2SM -RASN BR SCT005 BKN008 OVC014 03/01 A2964 RMK AO2 SFC VIS 5 RAB14 P0001=
201003021926 SPECI KATL 021926Z 03013G22KT 2SM -RASN BR SCT005 BKN008 OVC014 03/01 A2964 RMK AO2 SFC VIS 5 RAB14 P0001=
201003021852 METAR KATL 021852Z 02014KT 1 1/2SM -SN BR SCT005 BKN008 OVC014 02/01 A2963 RMK AO2 SFC VIS 2 RAE10PLE10 SLP039 P0006 T00220011=
201003021810 SPECI KATL 021810Z 02012KT 1 1/4SM -SN BR SCT005 BKN007 OVC012 01/00 A2965 RMK AO2 TWR VIS 1 1/2 RAE10PLE10 P0001=
201003021810 SPECI KATL 021810Z 02012KT 1 1/4SM -SN BR SCT005 BKN007 OVC012 01/00 A2965 RMK AO2 TWR VIS 1 1/2 RAE10PLE10 P0001=
201003021752 METAR KATL 021752Z 03012KT 1 1/2SM -RASNPL BR SCT005 BKN009 OVC012 02/01 A2966 RMK AO2 SFC VIS 2 RAB49PLB45 SLP047 P0002 60023 T00170006 10044 20011 56007=
201003021745 SPECI KATL 021745Z 02012KT 1 1/2SM -SNPL BR SCT005 BKN009 OVC012 02/01 A2966 RMK AO2 SFC VIS 2 PLB45 P0001=
201003021745 SPECI KATL 021745Z 02012KT 1 1/2SM -SNPL BR SCT005 BKN009 OVC012 02/01 A2966 RMK AO2 SFC VIS 2 PLB45 P0001=
201003021652 METAR KATL 021652Z 03014KT 1 1/2SM -SN BR SCT005 BKN009 OVC012 01/00 A2967 RMK AO2 SFC VIS 1 3/4 SLP049 P0003 T00110000=
201003021552 METAR KATL 021552Z 03014G24KT 1/2SM R09R/5000VP6000FT -SN BR BKN007 BKN009 OVC012 01/00 A2967 RMK AO2 SFC VIS 1 SLP049 P0005 T00110000=
201003021529 SPECI KATL 021529Z 03015KT 1/2SM R09R/4500VP6000FT SN FG BKN007 BKN009 OVC012 01/00 A2967 RMK AO2 P0004=
201003021529 SPECI KATL 021529Z 03015KT 1/2SM R09R/4500VP6000FT SN FG BKN007 BKN009 OVC012 01/00 A2967 RMK AO2 P0004=
201003021452 METAR KATL 021452Z 02014G20KT 1SM R09R/6000VP6000FT -SN BR BKN007 OVC012 01/00 A2968 RMK AO2 SFC VIS 1 1/4 RAE38SNB35 SLP055 P0013 60013 T00110000 51015=
201003021445 SPECI KATL 021445Z 02014G20KT 1 1/2SM -SN BR BKN007 OVC012 02/01 A2968 RMK AO2 TWR VIS 2 1/2 RAE38SNB35 P0012=
201003021445 SPECI KATL 021445Z 02014G20KT 1 1/2SM -SN BR BKN007 OVC012 02/01 A2968 RMK AO2 TWR VIS 2 1/2 RAE38SNB35 P0012=
201003021435 SPECI KATL 021435Z 02013KT 2SM -SNRA BR BKN010 OVC015 02/01 A2968 RMK AO2 TWR VIS 2 1/2 SNB35 P0011=
201003021435 SPECI KATL 021435Z 02013KT 2SM -SNRA BR BKN010 OVC015 02/01 A2968 RMK AO2 TWR VIS 2 1/2 SNB35 P0011=
201003021428 SPECI KATL 021428Z 02015KT 2SM RA BR BKN010 OVC015 02/01 A2968 RMK AO2 TWR VIS 2 1/2 P0010=
201003021428 SPECI KATL 021428Z 02015KT 2SM RA BR BKN010 OVC015 02/01 A2968 RMK AO2 TWR VIS 2 1/2 P0010=
201003021417 SPECI KATL 021417Z 02016KT 1 3/4SM +RA BR BKN010 OVC015 03/02 A2968 RMK AO2 TWR VIS 2 1/2 P0007=
201003021417 SPECI KATL 021417Z 02016KT 1 3/4SM +RA BR BKN010 OVC015 03/02 A2968 RMK AO2 TWR VIS 2 1/2 P0007=
201003021414 SPECI KATL 021414Z 02015KT 2SM +RA BR OVC015 03/02 A2968 RMK AO2 TWR VIS 2 1/2 P0006=
201003021414 SPECI KATL 021414Z 02015KT 2SM +RA BR OVC015 03/02 A2968 RMK AO2 TWR VIS 2 1/2 P0006=
201003021357 SPECI KATL 021357Z 04013G21KT 3SM RA BR FEW001 OVC015 04/02 A2968 RMK AO2 SFC VIS 5 P0001=
201003021357 SPECI KATL 021357Z 04013G21KT 3SM RA BR FEW001 OVC015 04/02 A2968 RMK AO2 SFC VIS 5 P0001=
201003021352 METAR KATL 021352Z 04013G21KT 7SM -RA BKN015 BKN020 04/02 A2968 RMK AO2 RAE12B48 SLP052 P0000 T00440022=
201003021252 METAR KATL 021252Z 08013KT 7SM -RA BKN013 BKN017 04/02 A2967 RMK AO2 RAB40 SLP048 P0000 T00390022=
201003021152 METAR KATL 021152Z 09015G25KT 6SM BR BKN011 BKN018 04/03 A2964 RMK AO2 PK WND 10037/1124 RAE38 SLP037 P0000 60006 70006 T00390028 10089 20039 58048=
201003021052 METAR KATL 021052Z 11015G22KT 7SM -RA BKN013 OVC023 04/03 A2971 RMK AO2 PRESFR SLP062 P0002 T00440028=
201003021005 SPECI KATL 021005Z 11012G20KT 7SM -RA BKN013 OVC030 04/03 A2974 RMK AO2 P0000=
201003021005 SPECI KATL 021005Z 11012G20KT 7SM -RA BKN013 OVC030 04/03 A2974 RMK AO2 P0000=
201003020952 METAR KATL 020952Z 12013G19KT 7SM -RA SCT013 OVC032 05/03 A2975 RMK AO2 SLP074 P0000 T00500028=
201003020852 METAR KATL 020852Z 13010KT 10SM -RA OVC039 06/03 A2978 RMK AO2 SLP087 P0003 60004 T00610028 58017=
201003020823 SPECI KATL 020823Z 13011KT 10SM -RA OVC025 07/02 A2980 RMK AO2 P0003=
201003020823 SPECI KATL 020823Z 13011KT 10SM -RA OVC025 07/02 A2980 RMK AO2 P0003=
201003020812 SPECI KATL 020812Z 13009KT 9SM RA OVC037 07/02 A2981 RMK AO2 P0001=
201003020812 SPECI KATL 020812Z 13009KT 9SM RA OVC037 07/02 A2981 RMK AO2 P0001=
201003020752 METAR KATL 020752Z COR 13007KT 10SM -RA BKN037 OVC050 08/02 A2982 RMK AO2 SLP099 P0000 T00780017=
201003020729 SPECI KATL 020729Z 08006KT 10SM -RA BKN035 OVC050 07/02 A2982 RMK AO2 P0000=
201003020729 SPECI KATL 020729Z 08006KT 10SM -RA BKN035 OVC050 07/02 A2982 RMK AO2 P0000=
201003020652 METAR KATL 020652Z 08007KT 10SM -RA OVC028 07/03 A2983 RMK AO2 RAB10 SLP102 P0001 T00720028=
201003020620 SPECI KATL 020620Z 05011KT 8SM -RA FEW001 BKN028 OVC060 08/02 A2983 RMK AO2 RAB10 P0000=
201003020620 SPECI KATL 020620Z 05011KT 8SM -RA FEW001 BKN028 OVC060 08/02 A2983 RMK AO2 RAB10 P0000=
201003020552 METAR KATL 020552Z 05009KT 10SM BKN075 BKN120 OVC150 09/00 A2984 RMK AO2 SLP105 T00890000 10122 20083 56018=
201003020452 METAR KATL 020452Z 35006KT 10SM SCT075 BKN120 OVC150 09/M01 A2986 RMK AO2 SLP113 T00941006 401391011=
201003020352 METAR KATL 020352Z 05009KT 10SM FEW070 BKN110 OVC150 09/00 A2984 RMK AO2 SLP109 OCNL LTG DSNT SW-W T00940000=
201003020252 METAR KATL 020252Z 36009KT 10SM FEW070 BKN120 OVC150 10/00 A2989 RMK AO2 SLP125 T01000000 58001=
201003020152 METAR KATL 020152Z 07006KT 10SM FEW100 BKN150 OVC200 11/M01 A2990 RMK AO2 SLP131 T01111006=
201003020052 METAR KATL 020052Z 10003KT 10SM BKN150 BKN200 OVC250 11/M01 A2991 RMK AO2 PRESRR SLP132 T01111006=
201003012352 METAR KATL 012352Z 10004KT 10SM SCT150 BKN200 BKN250 12/M01 A2989 RMK AO2 SLP127 T01221011 10139 20100 57009=
201003012252 METAR KATL 012252Z 00000KT 10SM FEW150 BKN200 BKN250 13/M02 A2991 RMK AO2 SLP133 T01281022=
201003012152 METAR KATL 012152Z 14004KT 10SM FEW150 SCT200 BKN250 14/M02 A2991 RMK AO2 SLP131 T01391017=
201003012052 METAR KATL 012052Z 00000KT 10SM FEW200 BKN250 13/M02 A2992 RMK AO2 SLP137 T01331017 56031=
201003011952 METAR KATL 011952Z 00000KT 10SM FEW150 SCT200 BKN250 12/M02 A2994 RMK AO2 SLP143 T01221017=
201003011852 METAR KATL 011852Z 00000KT 10SM FEW150 BKN200 BKN250 11/M02 A2998 RMK AO2 SLP155 T01111017=
201003011752 METAR KATL 011752Z 00000KT 10SM FEW150 BKN200 BKN250 09/M02 A3002 RMK AO2 SLP169 T00941022 10094 21011 58007=
201003011652 METAR KATL 011652Z 12005KT 10SM FEW150 BKN200 BKN250 08/M02 A3003 RMK AO2 SLP174 T00831017=
201003011552 SPECI KATL 011552Z VRB04KT 10SM BKN200 06/M02 A3004 RMK AO2 SLP177 T00611022=
201003011452 METAR KATL 011452Z 11009KT 10SM BKN200 04/M03 A3004 RMK AO2 SLP179 T00441028 50003=
201003011352 METAR KATL 011352Z 09006KT 10SM BKN200 02/M03 A3005 RMK AO2 SLP182 T00221028=
201003011252 METAR KATL 011252Z 04006KT 10SM BKN200 01/M03 A3004 RMK AO2 SLP178 T00111028=
