##########################################################
# Query made at 04/19/2024 23:17:02 UTC
# Time interval: from 06/01/2010 12:00  to 06/30/2010 12:59  UTC
##########################################################

##########################################################
# KATL, Atlanta, Hartsfield - Jackson Atlanta International Airport (United States)
# WMO index: 72219. WIGOS ID: 0-20000-0-72219
# Latitude 33-38-59N. Longitude 084-25-00W. Altitude 312 m.
##########################################################

201006301252 METAR KATL 301252Z 26005KT 10SM BKN110 BKN200 24/22 A3009 RMK AO2 SLP181 T02390222=
201006301217 SPECI KATL 301217Z 22004KT 10SM FEW007 BKN035 BKN095 23/22 A3009 RMK AO2=
201006301217 SPECI KATL 301217Z 22004KT 10SM FEW007 BKN035 BKN095 23/22 A3009 RMK AO2=
201006301152 METAR KATL 301152Z 24003KT 9SM BKN100 BKN200 23/22 A3007 RMK AO2 SLP171 60000 70088 T02330217 10233 20228 51011=
201006301052 METAR KATL 301052Z 30003KT 8SM FEW006 BKN090 BKN120 23/21 A3006 RMK AO2 SLP168 T02280211=
201006300952 METAR KATL 300952Z 28004KT 7SM FEW004 BKN085 OVC100 23/22 A3005 RMK AO2 RAB39E49 SLP165 P0000 T02280217=
201006300852 METAR KATL 300852Z 26004KT 7SM FEW007 BKN055 BKN100 23/22 A3004 RMK AO2 RAB0754E44 SLP159 P0000 60000 T02280217 56009=
201006300752 METAR KATL 300752Z 28006KT 7SM FEW008 BKN120 OVC200 23/22 A3004 RMK AO2 SLP160 T02280217=
201006300652 METAR KATL 300652Z 25003KT 7SM FEW035 SCT120 OVC200 23/22 A3005 RMK AO2 SLP164 T02280217=
201006300552 METAR KATL 300552Z 18005KT 7SM FEW020 SCT031 BKN050 OVC200 23/22 A3007 RMK AO2 RAE48 SLP169 P0004 60088 T02280217 10322 20222 50001=
201006300452 METAR KATL 300452Z 20005KT 6SM RA BR FEW025 BKN040 OVC060 22/22 A3007 RMK AO2 TSE07 SLP171 TS DSIPTD P0018 T02220217 403390222=
201006300407 SPECI KATL 300407Z 22006KT 5SM RA BR SCT025 BKN040 OVC070 23/22 A3006 RMK AO2 TSE07 TS DSIPTD P0007=
201006300407 SPECI KATL 300407Z 22006KT 5SM RA BR SCT025 BKN040 OVC070 23/22 A3006 RMK AO2 TSE07 TS DSIPTD P0007=
201006300352 METAR KATL 300352Z 00000KT 4SM TSRA BR FEW009 BKN040CB OVC070 23/21 A3007 RMK AO2 SLP173 OCNL LTGIC SE AND NW TS SE AND NW MOV NE P0018 T02280211=
201006300252 METAR KATL 300252Z 23006KT 7SM -TSRA FEW009 BKN035CB OVC080 23/22 A3006 RMK AO2 SLP169 FRQ LTGICCGCA NE-SE AND SW-NW TS NE-SE AND SW-NW MOV NE P0048 60048 T02280217 53035=
201006300233 SPECI KATL 300233Z 21008KT 5SM TSRA BR FEW009 BKN035CB OVC070 23/22 A3005 RMK AO2 FRQ LTGICCG OHD-ALQDS TS OHD-ALQDS MOV NE P0038=
201006300233 SPECI KATL 300233Z 21008KT 5SM TSRA BR FEW009 BKN035CB OVC070 23/22 A3005 RMK AO2 FRQ LTGICCG OHD-ALQDS TS OHD-ALQDS MOV NE P0038=
201006300206 SPECI KATL 300206Z 24008G17KT 200V270 2SM +TSRA BR FEW007 BKN040CB OVC080 23/22 A3004 RMK AO2 VIS NW-NE 4 FRQ LTGICCG OHD-ALQDS TS OHD-ALQDS MOV NE P0004=
201006300206 SPECI KATL 300206Z 24008G17KT 200V270 2SM +TSRA BR FEW007 BKN040CB OVC080 23/22 A3004 RMK AO2 VIS NW-NE 4 FRQ LTGICCG OHD-ALQDS TS OHD-ALQDS MOV NE P0004=
201006300152 METAR KATL 300152Z COR 20007G17KT 9SM -TSRA FEW007 BKN040CB OVC080 23/22 A3003 RMK AO2 SLP159 CONS LTGCGIC OHD-ALQDS TS OHD-ALQDS MOV NE P0000 T02330217=
201006300052 METAR KATL 300052Z 14010G22KT 10SM -TSRA BKN040CB BKN090 BKN200 25/21 A2999 RMK AO2 TSB07RAB52 SLP145 VIS LWR E-S FRQ LTGCGIC NE-SE-SW TS NE-SE-SW MOV E P0000 T02500206=
201006300036 SPECI KATL 300036Z 18016G19KT 10SM TS BKN045CB BKN090 BKN200 28/21 A2998 RMK AO2 TSB07 FRQ LTGCG SE-SW TS SE-SW MOV E=
201006300036 SPECI KATL 300036Z 18016G19KT 10SM TS BKN045CB BKN090 BKN200 28/21 A2998 RMK AO2 TSB07 FRQ LTGCG SE-SW TS SE-SW MOV E=
201006300009 SPECI KATL 300009Z 34008KT 10SM TS SCT045CB BKN090 BKN250 32/21 A2996 RMK AO2 TSB07 FRQ LTGCG VC SW AND DSNT NE TS VC SW AND DSNT NE MOV E=
201006300009 SPECI KATL 300009Z 34008KT 10SM TS SCT045CB BKN090 BKN250 32/21 A2996 RMK AO2 TSB07 FRQ LTGCG VC SW AND DSNT NE TS VC SW AND DSNT NE MOV E=
201006292352 METAR KATL 292352Z 35005KT 10SM FEW050CB SCT100 BKN250 32/21 A2996 RMK AO2 SLP132 CB SE-S AND DSNT NE MOV E T03170211 10339 20317 55003=
201006292252 METAR KATL 292252Z COR 31010KT 10SM FEW050CB SCT110 BKN250 32/21 A2995 RMK AO2 SLP130 CB SE MOV SE TCU DSNT N-E AND SW T03170206=
201006292152 METAR KATL 292152Z 28008KT 10SM SCT050TCU BKN110 BKN250 32/21 A2995 RMK AO2 SLP129 TCU SE AND DSNT N-NE T03220206=
201006292052 METAR KATL 292052Z 36005KT 10SM FEW055TCU SCT100 SCT250 33/22 A2996 RMK AO2 SLP135 CB DSNT E TCU SE-S & NW TCU DSNT N-NE T03330217 56017=
201006291952 METAR KATL 291952Z 30008KT 10SM BKN050 BKN080 BKN150 33/21 A2997 RMK AO2 SLP138 CB DSNT N & E SHRA DSNT N T03280211=
201006291852 METAR KATL 291852Z 29008KT 250V320 10SM FEW050CB SCT055TCU SCT150 34/21 A3000 RMK AO2 SLP145 CB N MOV E TCU E & SW & NW SHRA N T03390206=
201006291752 METAR KATL 291752Z 26008KT 10SM SCT045TCU SCT150 33/21 A3002 RMK AO2 SLP151 TCU NE & SE & NW T03280211 10328 20250 58005=
201006291652 METAR KATL 291652Z 26008KT 10SM FEW040TCU SCT150 SCT250 32/21 A3003 RMK AO2 SLP155 TCU N T03170211=
201006291552 METAR KATL 291552Z VRB04KT 10SM FEW035 SCT150 SCT250 31/22 A3003 RMK AO2 SLP158 T03060217=
201006291452 METAR KATL 291452Z 27006KT 10SM FEW030 SCT150 SCT200 29/22 A3003 RMK AO2 SLP157 T02940222 51007=
201006291352 METAR KATL 291352Z 26006KT 10SM FEW020 SCT250 27/22 A3003 RMK AO2 SLP156 T02720222=
201006291252 METAR KATL 291252Z 28009KT 10SM FEW040 BKN250 26/22 A3002 RMK AO2 SLP154 T02610222=
201006291152 METAR KATL 291152Z 28006KT 10SM FEW050 BKN250 25/22 A3001 RMK AO2 SLP150 70018 T02500222 10261 20239 53009=
201006291052 METAR KATL 291052Z 25003KT 10SM FEW040 SCT150 BKN250 24/22 A3000 RMK AO2 SLP146 T02390217=
201006290952 METAR KATL 290952Z 23003KT 10SM FEW250 24/22 A2999 RMK AO2 SLP142 T02390217=
201006290852 METAR KATL 290852Z 23004KT 10SM CLR 24/22 A2998 RMK AO2 SLP141 T02390222 53004=
201006290752 METAR KATL 290752Z 23003KT 10SM FEW250 25/21 A2998 RMK AO2 SLP138 T02500211=
201006290652 METAR KATL 290652Z 26003KT 10SM FEW250 25/22 A2997 RMK AO2 SLP137 T02500217=
201006290552 METAR KATL 290552Z 26005KT 10SM SCT150 BKN250 26/22 A2997 RMK AO2 SLP136 T02610222 10311 20261 50005=
201006290452 METAR KATL 290452Z COR 26007KT 10SM FEW150 SCT200 BKN250 27/22 A2998 RMK AO2 SLP138 FRQ LTG DSNT NE T02670222 403390244=
201006290352 METAR KATL 290352Z 24007KT 10SM FEW150 SCT200 BKN250 27/23 A2998 RMK AO2 SLP139 CONS LTG DSNT N-NE T02720228=
201006290252 METAR KATL 290252Z 24006KT 10SM SCT200 28/22 A2996 RMK AO2 SLP132 CONS LTG DSNT N-NE T02780222 53019=
201006290152 METAR KATL 290152Z 24009KT 10SM SCT200 29/22 A2993 RMK AO2 SLP124 CONS LTG DSNT N-NE T02890217=
201006290052 METAR KATL 290052Z 25007KT 10SM SCT200 30/20 A2991 RMK AO2 SLP117 T03000200=
201006282352 METAR KATL 282352Z 23009G17KT 10SM FEW050 BKN250 31/20 A2990 RMK AO2 SLP112 60018 T03110200 10339 20261 53000=
201006282252 METAR KATL 282252Z 23010G15KT 10SM FEW050 SCT200 BKN250 33/21 A2988 RMK AO2 SLP105 T03280206=
201006282152 METAR KATL 282152Z 26007KT 10SM FEW045TCU BKN250 33/22 A2988 RMK AO2 SLP106 TCU S-SW T03280217=
201006282052 METAR KATL 282052Z 27006KT 10SM FEW045TCU SCT085 BKN250 32/22 A2990 RMK AO2 SLP112 TCU SE & SW & NW 60018 T03220217 56011=
201006281952 METAR KATL 281952Z 28003KT 10SM FEW028 SCT200 BKN250 32/21 A2991 RMK AO2 PK WND 29029/1902 TSE30RAE35 SLP116 TS MOV E CB DSNT NE-E SHRA DSNT NE-E P0018 T03170211=
201006281930 SPECI KATL 281930Z 00000KT 10SM -RA FEW018CB SCT020TCU BKN100 BKN200 27/23 A2991 RMK AO2 PK WND 29029/1902 TSE30 FRQ LTGICCG DSNT=
201006281930 SPECI KATL 281930Z 00000KT 10SM -RA FEW018CB SCT020TCU BKN100 BKN200 27/23 A2991 RMK AO2 PK WND 29029/1902 TSE30 FRQ LTGICCG DSNT=
201006281919 SPECI KATL 281919Z 25013G19KT 9SM -TSRA FEW020CB BKN055 BKN095 26/21 A2992 RMK AO2 PK WND 29029/1902 OCNL LTGICCG E-SE-S & W TS E-SE-S & W MOV E P0015=
201006281919 SPECI KATL 281919Z 25013G19KT 9SM -TSRA FEW020CB BKN055 BKN095 26/21 A2992 RMK AO2 PK WND 29029/1902 OCNL LTGICCG E-SE-S & W TS E-SE-S & W MOV E P0015=
201006281910 SPECI KATL 281910Z 31016G29KT 5SM R09R/5000VP6000FT +TSRA SCT020CB BKN055 BKN090 26/21 A2993 RMK AO2 PK WND 29029/1902 OCNL LTGICCG OHD-W TS OHD-W MOV E P0009=
201006281910 SPECI KATL 281910Z 31016G29KT 5SM R09R/5000VP6000FT +TSRA SCT020CB BKN055 BKN090 26/21 A2993 RMK AO2 PK WND 29029/1902 OCNL LTGICCG OHD-W TS OHD-W MOV E P0009=
201006281906 SPECI KATL 281906Z 32022G29KT 8SM R09R/5000VP6000FT -TSRA BKN030CB BKN070 BKN250 27/21 A2992 RMK AO2 PK WND 29029/1902 VIS LWR=
201006281906 SPECI KATL 281906Z 32022G29KT 8SM R09R/5000VP6000FT -TSRA BKN030CB BKN070 BKN250 27/21 A2992 RMK AO2 PK WND 29029/1902 VIS LWR SW-W SHRA OCNL LTGICCG OHD-W TS OHD-W MOV E P0004=
201006281904 SPECI KATL 281904Z 30021G29KT 8SM R09R/5000VP6000FT -TSRA FEW020 SCT055 BKN070 28/21 A2992 RMK AO2 PK WND 29029/1902 VIS LWR SW-W SHRA OCNL LTGICCG OHD-W TS OHD-W MOV E P0001=
201006281904 SPECI KATL 281904Z 30021G29KT 8SM R09R/5000VP6000FT -TSRA FEW020 SCT055 BKN070 28/21 A2992 RMK AO2 PK WND 29029/1902 VIS LWR SW-W SHRA OCNL LTGICCG OHD-W TS OHD-W MOV E P0001=
201006281852 METAR KATL 281852Z 31011KT 10SM -TSRA BKN050CB BKN090 BKN250 32/21 A2992 RMK AO2 TSB51RAB51 SLP118 OCNL LTGICCG W TS W MOV E TCU DSNT N-NE & DSNT NW P0000 T03220206=
201006281752 METAR KATL 281752Z 21004KT 10SM BKN055TCU 33/21 A2993 RMK AO2 SLP123 TCU E-SE-S-SW-W-NW T03330211 10339 20244 58008=
201006281652 METAR KATL 281652Z 24008KT 10SM FEW045 SCT200 SCT250 33/22 A2995 RMK AO2 SLP129 TCU DSNT S-SW T03280217=
201006281552 METAR KATL 281552Z 26006KT 10SM FEW040 SCT200 SCT250 31/22 A2995 RMK AO2 SLP131 TCU DSNT NE T03110222=
201006281452 METAR KATL 281452Z 30009KT 10SM FEW030 SCT065 SCT250 29/22 A2996 RMK AO2 SLP132 TCU DSNT NE T02940222 50004=
201006281352 METAR KATL 281352Z 30013KT 10SM FEW025 SCT200 SCT250 28/22 A2996 RMK AO2 SLP133 TCU DSNT NW-N T02830222=
201006281252 METAR KATL 281252Z 27008KT 10SM FEW050 SCT150 27/22 A2995 RMK AO2 SLP131 T02670217=
201006281152 METAR KATL 281152Z 27007KT 10SM SCT150 SCT250 24/21 A2994 RMK AO2 SLP128 T02440206 10250 20244 53006=
201006281052 METAR KATL 281052Z 24008KT 10SM FEW055 SCT150 SCT250 25/20 A2994 RMK AO2 SLP125 T02500200=
201006280952 METAR KATL 280952Z 24008KT 10SM FEW050 SCT180 BKN250 25/20 A2993 RMK AO2 SLP123 T02500200 $=
201006280852 METAR KATL 280852Z 24006KT 10SM BKN180 OVC250 24/21 A2993 RMK AO2 SLP121 T02440211 53002 $=
201006280752 METAR KATL 280752Z 21005KT 10SM BKN180 OVC250 24/22 A2992 RMK AO2 SLP119 T02440217 $=
201006280652 METAR KATL 280652Z 24005KT 10SM BKN180 BKN250 25/21 A2992 RMK AO2 SLP121 T02500211 $=
201006280552 METAR KATL 280552Z 26006KT 10SM BKN150 OVC250 24/21 A2992 RMK AO2 SLP119 T02440211 10311 20244 50005 $=
201006280452 METAR KATL 280452Z 26006KT 10SM SCT200 OVC250 26/21 A2994 RMK AO2 SLP127 T02610211 403390233 $=
201006280352 METAR KATL 280352Z 24006KT 10SM FEW150 BKN250 26/19 A2991 RMK AO2 SLP117 T02610194 $=
201006280252 METAR KATL 280252Z COR 21007KT 10SM FEW150 BKN250 27/19 A2990 RMK AO2 SLP114 T02720194 51005 $=
201006280152 METAR KATL 280152Z 22005KT 10SM FEW150 BKN250 28/20 A2990 RMK AO2 SLP112 T02830200 $=
201006280052 METAR KATL 280052Z 23006KT 10SM SCT150 BKN250 29/20 A2990 RMK AO2 SLP112 T02940200 $=
201006272352 METAR KATL 272352Z 33007KT 10SM FEW050 SCT150 BKN250 31/19 A2989 RMK AO2 SLP109 T03110189 10339 20311 55001 $=
201006272252 METAR KATL 272252Z 34010KT 10SM FEW050 SCT150 SCT250 32/19 A2987 RMK AO2 SLP103 TCU DSNT NE-SE T03170189 $=
201006272152 METAR KATL 272152Z 29011KT 10SM FEW050 SCT120 SCT150 BKN200 33/20 A2990 RMK AO2 SLP111 CB DSNT SW T03280200 $=
201006272052 METAR KATL 272052Z 34010KT 10SM SCT050 BKN110 BKN150 BKN200 33/20 A2989 RMK AO2 SLP110 T03280200 56021 $=
201006271952 METAR KATL 271952Z 35013KT 10SM SCT055 BKN090 BKN150 33/21 A2991 RMK AO2 SLP114 TCU DSNT NW T03330211 $=
201006271852 METAR KATL 271852Z 31006G16KT 10SM SCT055 BKN070 BKN150 33/21 A2994 RMK AO2 SLP124 CB DSNT NW T03280206 $=
201006271752 METAR KATL 271752Z 28006G15KT 10SM SCT050 SCT055 BKN080 33/22 A2996 RMK AO2 SLP131 T03280217 10328 20250 58009 $=
201006271652 METAR KATL 271652Z 33007KT 10SM SCT045 32/21 A2998 RMK AO2 SLP137 T03170206 $=
201006271552 METAR KATL 271552Z 30008KT 10SM FEW045 SCT250 31/20 A2998 RMK AO2 SLP140 T03060200 $=
201006271452 METAR KATL 271452Z 28006KT 10SM FEW200 29/21 A2999 RMK AO2 SLP141 T02940206 53007 $=
201006271352 METAR KATL 271352Z 28006KT 10SM FEW200 28/21 A2998 RMK AO2 SLP139 T02780206 $=
201006271252 METAR KATL 271252Z 26005KT 10SM FEW200 27/20 A2997 RMK AO2 SLP136 T02670200 $=
201006271152 METAR KATL 271152Z 27004KT 10SM FEW200 25/21 A2996 RMK AO2 SLP134 T02500206 10267 20233 50005 $=
201006271052 METAR KATL 271052Z 21004KT 10SM FEW200 23/21 A2997 RMK AO2 SLP135 T02330211 $=
201006270952 METAR KATL 270952Z 00000KT 10SM CLR 24/21 A2995 RMK AO2 SLP131 T02390211 $=
201006270852 METAR KATL 270852Z 26003KT 10SM CLR 24/21 A2995 RMK AO2 SLP129 T02390211 55002 $=
201006270752 METAR KATL 270752Z 32006KT 10SM FEW250 25/21 A2994 RMK AO2 SLP127 T02500211 $=
201006270652 METAR KATL 270652Z 00000KT 10SM FEW250 26/21 A2994 RMK AO2 SLP126 T02560206 $=
201006270552 METAR KATL 270552Z 02005KT 10SM FEW250 27/21 A2995 RMK AO2 SLP129 T02670206 10317 20267 56013 $=
201006270452 METAR KATL 270452Z 35005KT 10SM FEW180 SCT250 27/21 A2996 RMK AO2 SLP134 T02670211 403330228 $=
201006270352 METAR KATL 270352Z 31009KT 10SM FEW060 SCT120 SCT250 28/21 A2998 RMK AO2 SLP138 T02830211 $=
201006270252 METAR KATL 270252Z 30006KT 10SM SCT060 SCT250 29/21 A2999 RMK AO2 SLP143 T02890206 53011 $=
201006270152 METAR KATL 270152Z 29004KT 10SM FEW150 SCT250 29/21 A2996 RMK AO2 SLP134 OCNL LTGIC DSNT SE CB DSNT SE T02940206 $=
201006270052 METAR KATL 270052Z 30005KT 10SM FEW120 SCT150 BKN200 BKN250 31/20 A2996 RMK AO2 SLP134 T03060200 $=
201006262352 METAR KATL 262352Z COR 29009KT 10SM FEW050 SCT120 SCT200 SCT250 32/19 A2996 RMK AO2 SLP133 CB DSNT NE T03170189 10333 20311 55001 $=
201006262252 METAR KATL 262252Z 28007KT 10SM SCT050 SCT250 32/21 A2995 RMK AO2 SLP128 CB DSNT NE TCU DSNT NE-SE-SW T03220211 $=
201006262152 METAR KATL 262152Z 26005KT 10SM SCT049 SCT200 32/20 A2995 RMK AO2 SLP129 T03220200 $=
201006262052 METAR KATL 262052Z 00000KT 10SM SCT049 SCT150 BKN200 33/21 A2996 RMK AO2 SLP134 T03330206 56026 $=
201006261952 METAR KATL 261952Z 34005KT 10SM SCT045 SCT150 BKN200 33/21 A2997 RMK AO2 SLP138 T03280206 $=
201006261852 METAR KATL 261852Z 31009G14KT 10SM SCT045 BKN150 33/21 A3001 RMK AO2 SLP151 T03280211 $=
201006261752 METAR KATL 261752Z 31010G20KT 10SM SCT043 BKN150 32/22 A3004 RMK AO2 SLP161 T03170217 10328 20239 58008 $=
201006261652 METAR KATL 261652Z 27007G17KT 10SM SCT039 BKN080 BKN150 BKN250 31/22 A3006 RMK AO2 SLP168 TCU DSNT NE T03110217 $=
201006261552 METAR KATL 261552Z 28005KT 10SM FEW030 SCT060 BKN150 BKN250 30/22 A3007 RMK AO2 SLP169 T03000222 $=
201006261452 METAR KATL 261452Z 25005KT 10SM FEW030 BKN150 BKN250 29/22 A3007 RMK AO2 SLP171 T02940222 51005 $=
201006261352 METAR KATL 261352Z 31006KT 10SM SCT150 BKN250 28/22 A3007 RMK AO2 SLP170 T02780217 $=
201006261252 METAR KATL 261252Z 00000KT 10SM FEW140 SCT250 26/22 A3007 RMK AO2 SLP169 T02610217 $=
201006261152 METAR KATL 261152Z 00000KT 10SM FEW130 SCT250 24/22 A3005 RMK AO2 SLP166 70001 T02390217 10244 20228 53008 $=
201006261052 METAR KATL 261052Z 31006KT 10SM FEW250 23/21 A3005 RMK AO2 SLP162 T02330211 $=
201006260952 METAR KATL 260952Z 00000KT 10SM CLR 23/21 A3003 RMK AO2 SLP157 T02330211=
201006260852 METAR KATL 260852Z 00000KT 10SM FEW150 24/21 A3003 RMK AO2 SLP156 T02390211 56005=
201006260752 METAR KATL 260752Z 00000KT 10SM FEW150 24/21 A3003 RMK AO2 SLP157 T02390206=
201006260652 METAR KATL 260652Z 00000KT 10SM FEW150 SCT250 24/21 A3003 RMK AO2 SLP157 T02390211=
201006260552 METAR KATL 260552Z 16005KT 10SM FEW150 SCT250 24/22 A3004 RMK AO2 SLP161 60001 T02440217 10306 20244 58009=
201006260452 METAR KATL 260452Z 27003KT 10SM FEW100 SCT150 BKN250 25/22 A3005 RMK AO2 SLP165 T02500217 403440244=
201006260352 METAR KATL 260352Z 27003KT 10SM FEW120 SCT150 BKN250 25/22 A3007 RMK AO2 SLP170 T02500222=
201006260252 METAR KATL 260252Z 00000KT 10SM SCT120 BKN150 BKN200 25/22 A3007 RMK AO2 TSE04RAB0153E11 SLP170 TS DSIPTD P0001 60001 T02500222 51012=
201006260204 SPECI KATL 260204Z 21003KT 9SM -RA FEW032 SCT070 BKN110 BKN200 24/22 A3006 RMK AO2 TSE04RAB0153 TS DSIPTD P0001=
201006260204 SPECI KATL 260204Z 21003KT 9SM -RA FEW032 SCT070 BKN110 BKN200 24/22 A3006 RMK AO2 TSE04RAB0153 TS DSIPTD P0001=
201006260152 METAR KATL 260152Z 21004KT 10SM TS FEW032CB SCT070 BKN110 BKN200 25/21 A3006 RMK AO2 WSHFT 0050 TSB33 SLP168 OCNL LTGIC VC SE TS VC SE MOV SE T02500211=
201006260133 SPECI KATL 260133Z 10004KT 10SM TS SCT032CB BKN110 BKN200 26/21 A3006 RMK AO2 WSHFT 0050 TSB33 OCNL LTGICCG VC SE-S TS VC SE-S MOV SE=
201006260133 SPECI KATL 260133Z 10004KT 10SM TS SCT032CB BKN110 BKN200 26/21 A3006 RMK AO2 WSHFT 0050 TSB33 OCNL LTGICCG VC SE-S TS VC SE-S MOV SE=
201006260108 SPECI KATL 260108Z 09011KT 10SM BKN032TCU BKN070 OVC200 27/21 A3007 RMK AO2 WSHFT 0050 OCNL LTG DSNT E-SE TCU OHD-SW=
201006260108 SPECI KATL 260108Z 09011KT 10SM BKN032TCU BKN070 OVC200 27/21 A3007 RMK AO2 WSHFT 0050 OCNL LTG DSNT E-SE TCU OHD-SW=
201006260052 METAR KATL 260052Z 06014G18KT 10SM BKN032 BKN070 OVC200 29/22 A3006 RMK AO2 SLP167 FRQ LTG DSNT NE-SE T02940222=
201006252352 METAR KATL 252352Z 29009KT 10SM FEW045 SCT100 BKN200 31/21 A3003 RMK AO2 SLP158 CB DSNT NE-SE T03060211 10344 20306 53003=
201006252252 METAR KATL 252252Z 28011KT 10SM FEW045 SCT100 BKN200 32/22 A3002 RMK AO2 SLP153 CB DSNT NE-SE T03170222=
201006252152 METAR KATL 252152Z 30012KT 10SM FEW045 SCT090 BKN200 32/22 A3002 RMK AO2 SLP152 CB DSNT NE AND SE T03170222=
201006252052 METAR KATL 252052Z 29011KT 10SM FEW045TCU SCT055 SCT100 SCT200 32/22 A3002 RMK AO2 TSE11 SLP155 TS DSIPT CB DSNT N-NE & DSNT S TCU E & SE SHRA DSNT N-NE T03220217 56017=
201006252030 SPECI KATL 252030Z 31013KT 10SM FEW045TCU SCT055 SCT100 SCT200 33/23 A3003 RMK AO2 TSE11 TS DSIPT CB DSNT N-NE TCU E & S SHRA DSNT N-NE=
201006252030 SPECI KATL 252030Z 31013KT 10SM FEW045TCU SCT055 SCT100 SCT200 33/23 A3003 RMK AO2 TSE11 TS DSIPT CB DSNT N-NE TCU E & S SHRA DSNT N-NE=
201006252011 SPECI KATL 252011Z VRB05KT 10SM FEW045CB SCT050TCU BKN100 BKN200 34/22 A3002 RMK AO2 TSE11 TS DSIPT CB VC N & DSNT E MOV E SHRA VC N & DSNT E TCU NE-E=
201006252011 SPECI KATL 252011Z VRB05KT 10SM FEW045CB SCT050TCU BKN100 BKN200 34/22 A3002 RMK AO2 TSE11 TS DSIPT CB VC N & DSNT E MOV E SHRA VC N & DSNT E TCU NE-E=
201006252004 SPECI KATL 252004Z 28008KT 10SM TS FEW045CB SCT050TCU BKN100 BKN200 34/22 A3003 RMK AO2 OCNL LTGICCG N TS VC N MOV E CB VC N & DSNT E MOV E SHRA VC N & DSNT E TCU NE-E=
201006252004 SPECI KATL 252004Z 28008KT 10SM TS FEW045CB SCT050TCU BKN100 BKN200 34/22 A3003 RMK AO2 OCNL LTGICCG N TS VC N MOV E CB VC N & DSNT E MOV E SHRA VC N & DSNT E TCU NE-E=
201006251952 METAR KATL 251952Z 00000KT 10SM TS FEW045CB SCT050TCU SCT100 SCT200 34/22 A3003 RMK AO2 TSB42 SLP156 FRQ LTGICCG NW TS VC NW MOV E CB DSNT E TCU N-NE SHRA DSNT E & VC NW T03390217=
201006251943 SPECI KATL 251943Z 30008KT 10SM TS FEW045CB SCT050TCU SCT100 SCT200 34/22 A3003 RMK AO2 TSB42 FRQ LTGICCG NW TS VC NW MOV E CB DSNT E TCU N-NE & S & NW SHRA DSNT E & VC NW=
201006251943 SPECI KATL 251943Z 30008KT 10SM TS FEW045CB SCT050TCU SCT100 SCT200 34/22 A3003 RMK AO2 TSB42 FRQ LTGICCG NW TS VC NW MOV E CB DSNT E TCU N-NE & S & NW SHRA DSNT E & VC NW=
201006251852 METAR KATL 251852Z VRB05KT 10SM FEW045TCU SCT100 SCT200 33/22 A3004 RMK AO2 SLP161 CB DSNT E & DSNT W-NW TCU N & NE & W & NW TCU DSNT S T03330222=
201006251752 METAR KATL 251752Z 27006KT 10SM FEW040CB SCT050TCU SCT100 BKN200 31/22 A3008 RMK AO2 SLP172 CB SE MOV SE CB DSNT NW TCU NE & SW & NW SHRA SE T03110222 10333 20272 58011=
201006251716 SPECI KATL 251716Z 25010KT 10SM FEW045CB SCT050TCU BKN100 33/22 A3009 RMK AO2 CB S MOV SE TCU NE & SE & NW SHRA S=
201006251716 SPECI KATL 251716Z 25010KT 10SM FEW045CB SCT050TCU BKN100 33/22 A3009 RMK AO2 CB S MOV SE TCU NE & SE & NW SHRA S=
201006251652 METAR KATL 251652Z 31010KT 10SM FEW040CB BKN047TCU 32/22 A3010 RMK AO2 SLP181 CB S-SW-W MOV SE TCU N-NE & S & SW & NW SHRA S-SW-W T03220222=
201006251640 SPECI KATL 251640Z 30008KT 10SM FEW040CB BKN045TCU 32/22 A3010 RMK AO2 CB SW MOV SE TCU NE & NW SHRA SW=
201006251640 SPECI KATL 251640Z 30008KT 10SM FEW040CB BKN045TCU 32/22 A3010 RMK AO2 CB SW MOV SE TCU NE & NW SHRA SW=
201006251552 METAR KATL 251552Z 26007KT 10SM SCT040TCU 32/22 A3011 RMK AO2 SLP184 TCU W-NW-N T03220222=
201006251452 METAR KATL 251452Z VRB04KT 10SM FEW040 SCT250 31/23 A3011 RMK AO2 SLP183 TCU DSNT NE & DSNT S-SW-W T03110228 51007=
201006251352 METAR KATL 251352Z 32007KT 10SM FEW030 SCT100 SCT250 31/23 A3011 RMK AO2 SLP182 T03060228=
201006251252 METAR KATL 251252Z 32009KT 10SM FEW120 SCT250 28/22 A3009 RMK AO2 SLP178 T02830222=
201006251152 METAR KATL 251152Z 32008KT 10SM FEW150 SCT250 27/22 A3009 RMK AO2 SLP175 T02720217 10272 20244 51009=
201006251052 METAR KATL 251052Z 29005KT 9SM FEW250 25/22 A3008 RMK AO2 SLP173 T02500217=
201006250952 METAR KATL 250952Z 27004KT 10SM FEW250 25/22 A3007 RMK AO2 SLP169 T02500217=
201006250852 METAR KATL 250852Z 30006KT 10SM CLR 26/22 A3006 RMK AO2 SLP165 T02560217 55000=
201006250752 METAR KATL 250752Z 28005KT 10SM CLR 26/22 A3005 RMK AO2 SLP162 T02610217=
201006250652 METAR KATL 250652Z 27004KT 10SM CLR 27/22 A3005 RMK AO2 SLP162 T02670217=
201006250552 METAR KATL 250552Z 00000KT 10SM CLR 27/22 A3006 RMK AO2 SLP165 T02720217 10317 20267 58004=
201006250452 METAR KATL 250452Z 27003KT 10SM FEW250 28/22 A3007 RMK AO2 SLP168 T02780217 403440244=
201006250352 METAR KATL 250352Z 28006KT 10SM FEW250 28/21 A3007 RMK AO2 SLP171 T02780211=
201006250252 METAR KATL 250252Z 28005KT 10SM FEW250 28/21 A3007 RMK AO2 SLP169 T02830211 53014=
201006250152 METAR KATL 250152Z 26005KT 10SM FEW250 30/21 A3005 RMK AO2 SLP162 T03000211=
201006250052 METAR KATL 250052Z 30005KT 10SM FEW050 SCT250 31/21 A3004 RMK AO2 SLP159 CB DSNT SW T03060206=
201006242352 METAR KATL 242352Z 28005KT 10SM FEW055 32/21 A3003 RMK AO2 SLP156 T03170206 10344 20317 55000=
201006242252 METAR KATL 242252Z 27007KT 10SM FEW055 33/20 A3001 RMK AO2 SLP151 T03280200=
201006242152 METAR KATL 242152Z 25009G14KT 10SM FEW055 34/19 A3002 RMK AO2 SLP152 T03390194=
201006242052 METAR KATL 242052Z 31011KT 10SM FEW055 SCT200 34/21 A3003 RMK AO2 SLP156 T03390206 58023=
201006241952 METAR KATL 241952Z 30004KT 10SM FEW050 SCT200 34/20 A3005 RMK AO2 SLP164 T03390200=
201006241852 METAR KATL 241852Z 28006KT 10SM SCT055 33/20 A3008 RMK AO2 SLP172 T03330200=
201006241752 METAR KATL 241752Z 28009G15KT 10SM SCT050 SCT200 33/21 A3010 RMK AO2 SLP180 CB DSNT S T03330211 10333 20261 58015=
201006241652 METAR KATL 241652Z 31009G15KT 10SM SCT047 32/21 A3012 RMK AO2 SLP188 TCU DSNT SE-S-SW T03220211=
201006241552 METAR KATL 241552Z 28007KT 10SM SCT043TCU 31/21 A3014 RMK AO2 SLP193 TCU NE-E-SE-S T03110211=
201006241452 METAR KATL 241452Z 30009KT 10SM FEW035 SCT050 SCT250 31/22 A3014 RMK AO2 SLP195 TCU DSNT E T03060217 51002=
201006241352 METAR KATL 241352Z VRB06KT 10SM CLR 29/22 A3014 RMK AO2 SLP196 T02940217=
201006241252 METAR KATL 241252Z 29005KT 10SM CLR 28/22 A3014 RMK AO2 SLP195 T02780217=
201006241152 METAR KATL 241152Z 00000KT 10SM FEW050 26/22 A3014 RMK AO2 SLP193 T02560217 10267 20244 51010=
201006241052 METAR KATL 241052Z 25003KT 10SM FEW180 25/21 A3012 RMK AO2 SLP190 T02500211=
201006240952 METAR KATL 240952Z 31006KT 10SM FEW250 25/22 A3012 RMK AO2 SLP187 T02500217=
201006240852 METAR KATL 240852Z 30005KT 10SM CLR 25/21 A3010 RMK AO2 SLP182 T02500211 56010=
201006240752 METAR KATL 240752Z 29005KT 10SM CLR 26/21 A3011 RMK AO2 SLP185 T02560206=
201006240652 METAR KATL 240652Z 23004KT 10SM CLR 26/21 A3011 RMK AO2 SLP183 T02610211=
201006240552 METAR KATL 240552Z 25004KT 10SM BKN075 BKN150 27/21 A3013 RMK AO2 SLP192 T02670211 10294 20261 50003=
201006240452 METAR KATL 240452Z 26003KT 10SM FEW150 27/21 A3014 RMK AO2 SLP192 T02670211 403330233=
201006240352 METAR KATL 240352Z 23004KT 10SM FEW150 27/21 A3013 RMK AO2 SLP192 T02720211=
201006240252 METAR KATL 240252Z 22004KT 10SM FEW150 SCT200 28/21 A3013 RMK AO2 SLP190 T02780211 53004=
201006240152 METAR KATL 240152Z 22004KT 10SM FEW120 SCT150 BKN200 28/21 A3012 RMK AO2 SLP186 T02830211=
201006240052 METAR KATL 240052Z 21003KT 10SM FEW090 SCT120 BKN150 29/21 A3012 RMK AO2 SLP187 T02890211=
201006232352 METAR KATL 232352Z 19003KT 10SM FEW045CB SCT090 BKN150 29/21 A3012 RMK AO2 SLP186 CB NE AND DSNT E MOV SE 60000 T02940211 10333 20289 55005=
201006232252 METAR KATL 232252Z 18007KT 10SM FEW045TCU SCT070 BKN100 29/21 A3011 RMK AO2 RAE2159 SLP184 CB DSNT SE TCU N P0000 T02940211=
201006232152 METAR KATL 232152Z 31004KT 10SM -RA FEW050CB SCT070 BKN100 33/21 A3011 RMK AO2 RAB48 SLP184 CB S-SW MOV STNRY P0000 T03330206=
201006232052 METAR KATL 232052Z 34005KT 10SM FEW045CB SCT050TCU SCT100 32/20 A3013 RMK AO2 SLP191 CB NE MOV SE TCU SW SHRA NE T03220200 56018=
201006232014 SPECI KATL 232014Z 34004KT 10SM FEW045CB SCT050TCU SCT100 33/21 A3014 RMK AO2 CB NE MOV STNRY TCU S SHRA NE=
201006232014 SPECI KATL 232014Z 34004KT 10SM FEW045CB SCT050TCU SCT100 33/21 A3014 RMK AO2 CB NE MOV STNRY TCU S SHRA NE=
201006231952 METAR KATL 231952Z 33007KT 10SM SCT045TCU BKN110 32/21 A3015 RMK AO2 SLP197 TCU N-NE-E-SE-S T03170206=
201006231852 METAR KATL 231852Z 31005KT 10SM SCT050 SCT250 33/22 A3017 RMK AO2 SLP202 TCU DSNT NW T03280217=
201006231752 METAR KATL 231752Z 32009KT 10SM FEW050TCU SCT250 33/21 A3019 RMK AO2 SLP209 CB DSNT W TCU SE & S & W & NW T03280206 10328 20256 58012=
201006231652 METAR KATL 231652Z 31005KT 10SM FEW045TCU 32/21 A3020 RMK AO2 SLP215 TCU S-SW-W & DSNT NW T03220211=
201006231552 METAR KATL 231552Z 27005KT 10SM SCT045TCU 30/21 A3022 RMK AO2 SLP222 TCU ALQDS T03000211=
201006231452 METAR KATL 231452Z 27004KT 10SM FEW035 SCT070 SCT250 30/22 A3022 RMK AO2 SLP221 T03000217 50007=
201006231352 METAR KATL 231352Z 31008KT 10SM SCT250 29/22 A3022 RMK AO2 SLP222 T02890217=
201006231252 METAR KATL 231252Z 32006KT 10SM BKN250 27/22 A3022 RMK AO2 SLP221 T02670222=
201006231152 METAR KATL 231152Z 30005KT 10SM BKN250 26/22 A3020 RMK AO2 SLP214 T02560217 10261 20233 53017=
201006231052 METAR KATL 231052Z 00000KT 10SM FEW150 BKN250 24/21 A3017 RMK AO2 SLP206 T02390211=
201006230952 METAR KATL 230952Z 33003KT 10SM FEW250 24/21 A3016 RMK AO2 SLP202 T02390206=
201006230852 METAR KATL 230852Z 00000KT 10SM FEW150 24/21 A3015 RMK AO2 SLP197 T02390206 56006=
201006230752 METAR KATL 230752Z 22004KT 10SM FEW150 24/20 A3015 RMK AO2 SLP197 T02440200=
201006230652 METAR KATL 230652Z 00000KT 10SM FEW150 26/19 A3015 RMK AO2 SLP198 T02610189=
201006230552 METAR KATL 230552Z 07006KT 10SM FEW150 SCT250 26/21 A3017 RMK AO2 SLP203 T02560206 10317 20256 56004=
201006230452 METAR KATL 230452Z 06005KT 10SM FEW150 BKN250 28/22 A3017 RMK AO2 SLP203 T02780217 403330233=
201006230352 METAR KATL 230352Z 00000KT 10SM FEW050 BKN250 28/21 A3017 RMK AO2 SLP204 T02780211=
201006230252 METAR KATL 230252Z 00000KT 10SM FEW050 BKN250 28/21 A3018 RMK AO2 SLP207 T02830206 51012=
201006230152 METAR KATL 230152Z 22003KT 10SM FEW050 BKN250 29/20 A3017 RMK AO2 SLP205 OCNL LTG DSNT NW T02940200=
201006230052 METAR KATL 230052Z 20004KT 10SM FEW055TCU SCT075 BKN250 31/20 A3016 RMK AO2 SLP202 FRQ LTG DSNT N AND NW TCU OHD-W T03060200=
201006222352 METAR KATL 222352Z 18005KT 10SM FEW055 BKN250 32/19 A3014 RMK AO2 SLP195 OCNL LTG DSNT N-NE T03170194 10333 20311 55000=
201006222252 METAR KATL 222252Z VRB05KT 10SM SCT060 BKN250 32/19 A3013 RMK AO2 SLP192 TCU DSNT NE T03220194=
201006222152 METAR KATL 222152Z 00000KT 10SM SCT055 BKN250 33/19 A3013 RMK AO2 SLP190 T03280194=
201006222052 METAR KATL 222052Z 00000KT 10SM FEW050 BKN075 BKN250 33/21 A3014 RMK AO2 SLP195 TCU DSNT W & NW T03330206 56012=
201006222016 SPECI KATL 222016Z VRB05KT 10SM FEW048CB BKN060 BKN250 32/21 A3015 RMK AO2 CB W MOV W SHRA W=
201006222016 SPECI KATL 222016Z VRB05KT 10SM FEW048CB BKN060 BKN250 32/21 A3015 RMK AO2 CB W MOV W SHRA W=
201006221952 METAR KATL 221952Z 20004KT 10SM FEW048TCU BKN060 BKN250 32/21 A3015 RMK AO2 SLP198 TCU W & NW T03170206=
201006221852 METAR KATL 221852Z 18006KT 10SM FEW047TCU BKN070 BKN250 31/21 A3016 RMK AO2 SLP202 TCU S T03110206=
201006221752 METAR KATL 221752Z 16005KT 10SM BKN045 BKN250 31/21 A3018 RMK AO2 SLP206 TCU DSNT E & S T03110211 10322 20250 58009=
201006221652 METAR KATL 221652Z 19003KT 10SM BKN040 BKN250 32/22 A3019 RMK AO2 SLP210 T03170222=
201006221552 METAR KATL 221552Z 00000KT 10SM BKN038 BKN150 BKN250 31/22 A3020 RMK AO2 SLP215 TCU DSNT NE T03060222=
201006221452 METAR KATL 221452Z 00000KT 10SM FEW030 SCT150 SCT250 29/21 A3020 RMK AO2 SLP215 T02940211 50005=
201006221352 METAR KATL 221352Z 26003KT 10SM FEW200 28/21 A3021 RMK AO2 SLP217 T02780211=
201006221252 METAR KATL 221252Z 30003KT 10SM FEW250 26/22 A3019 RMK AO2 SLP213 T02610222=
201006221152 METAR KATL 221152Z 31006KT 9SM FEW250 25/22 A3019 RMK AO2 SLP211 T02500217 10261 20233 53027=
201006221052 METAR KATL 221052Z 31004KT 9SM FEW250 24/21 A3017 RMK AO2 SLP204 T02390211=
201006220952 METAR KATL 220952Z 27003KT 10SM CLR 23/21 A3012 RMK AO2 SLP187 T02330206=
201006220852 METAR KATL 220852Z 22004KT 10SM CLR 24/21 A3011 RMK AO2 SLP183 T02390206 53001=
201006220752 METAR KATL 220752Z 21005KT 10SM CLR 24/21 A3011 RMK AO2 SLP183 T02440206=
201006220652 METAR KATL 220652Z 17006KT 10SM CLR 25/21 A3010 RMK AO2 SLP181 T02500206=
201006220552 METAR KATL 220552Z 17003KT 10SM CLR 26/19 A3010 RMK AO2 SLP181 T02610194 10322 20261 58009=
201006220452 METAR KATL 220452Z 16003KT 10SM CLR 27/19 A3012 RMK AO2 SLP186 T02670194 403390228=
201006220352 METAR KATL 220352Z 00000KT 10SM FEW050 28/19 A3013 RMK AO2 SLP192 T02780194=
201006220252 METAR KATL 220252Z 14003KT 10SM FEW150 29/18 A3013 RMK AO2 SLP190 T02940183 53014=
201006220152 METAR KATL 220152Z VRB05KT 10SM FEW055 29/21 A3011 RMK AO2 SLP183 OCNL LTG DSNT NW T02890206=
201006220052 METAR KATL 220052Z 16007KT 10SM FEW055 31/21 A3010 RMK AO2 SLP180 CB DSNT NW T03060206=
201006212352 METAR KATL 212352Z 14007KT 10SM FEW060 32/20 A3009 RMK AO2 SLP175 TCU DSNT NE T03220200 10339 20317 53006=
201006212252 METAR KATL 212252Z 12008KT 10SM FEW060 SCT250 33/19 A3007 RMK AO2 SLP170 T03280194=
201006212152 METAR KATL 212152Z VRB06KT 10SM FEW060 SCT200 33/19 A3006 RMK AO2 SLP168 T03280194=
201006212052 METAR KATL 212052Z 12006KT 10SM SCT060 33/18 A3007 RMK AO2 SLP170 T03330183 56011=
201006211952 METAR KATL 211952Z 08006KT 10SM SCT060 33/19 A3008 RMK AO2 SLP174 T03330194=
201006211852 METAR KATL 211852Z 07009KT 10SM SCT060 SCT075 BKN150 33/20 A3009 RMK AO2 SLP177 T03280200=
201006211752 METAR KATL 211752Z 06007KT 10SM SCT060 32/18 A3010 RMK AO2 SLP182 T03220183 10328 20261 58002=
201006211652 METAR KATL 211652Z 10009G14KT 10SM SCT049 BKN150 32/20 A3012 RMK AO2 SLP185 T03220200=
201006211552 METAR KATL 211552Z VRB06KT 10SM SCT040 32/21 A3011 RMK AO2 SLP184 T03170211=
201006211452 METAR KATL 211452Z 09008KT 10SM CLR 31/22 A3011 RMK AO2 SLP183 T03060217 51004=
201006211352 METAR KATL 211352Z 06008KT 10SM CLR 29/22 A3010 RMK AO2 SLP181 T02940217=
201006211252 METAR KATL 211252Z 35006KT 10SM FEW200 28/21 A3010 RMK AO2 SLP181 T02780211=
201006211152 METAR KATL 211152Z 35003KT 10SM FEW200 26/21 A3010 RMK AO2 SLP180 T02610206 10261 20228 51017=
201006211052 METAR KATL 211052Z 00000KT 10SM FEW150 24/20 A3008 RMK AO2 SLP174 T02390200=
201006210952 METAR KATL 210952Z 28005KT 10SM CLR 23/19 A3006 RMK AO2 SLP168 T02330194 $=
201006210852 METAR KATL 210852Z 28005KT 10SM CLR 23/19 A3004 RMK AO2 SLP162 T02330194 55001 $=
201006210752 METAR KATL 210752Z 00000KT 10SM CLR 24/20 A3004 RMK AO2 SLP159 T02440200 $=
201006210652 METAR KATL 210652Z 19003KT 10SM CLR 24/20 A3003 RMK AO2 SLP158 T02440200 $=
201006210552 METAR KATL 210552Z 18006KT 10SM CLR 26/20 A3005 RMK AO2 SLP162 T02560200 10317 20256 56003 $=
201006210452 METAR KATL 210452Z 12003KT 10SM CLR 28/20 A3005 RMK AO2 SLP162 T02780200 403390222 $=
201006210352 METAR KATL 210352Z 01008KT 10SM CLR 28/21 A3005 RMK AO2 SLP164 T02830206 $=
201006210252 METAR KATL 210252Z 34006KT 10SM CLR 28/20 A3006 RMK AO2 SLP166 T02830200 52019 $=
201006210152 METAR KATL 210152Z 33006KT 10SM CLR 29/20 A3003 RMK AO2 SLP158 T02940200=
201006210052 METAR KATL 210052Z 33009KT 10SM FEW180 31/21 A3002 RMK AO2 SLP153 T03060206=
201006202352 METAR KATL 202352Z 33008KT 10SM FEW250 32/21 A3000 RMK AO2 SLP146 T03170211 10339 20317 55004=
201006202252 METAR KATL 202252Z 33009KT 10SM FEW060 33/20 A2999 RMK AO2 SLP145 T03280200=
201006202152 METAR KATL 202152Z 32007KT 10SM FEW060 33/20 A3000 RMK AO2 SLP148 T03330200=
201006202052 METAR KATL 202052Z 32008G17KT 10SM SCT060 33/18 A3001 RMK AO2 SLP150 T03330183 56016=
201006201952 METAR KATL 201952Z 30007KT 10SM SCT055 33/19 A3002 RMK AO2 SLP153 T03330194=
201006201852 METAR KATL 201852Z 33009KT 10SM SCT055 33/19 A3004 RMK AO2 SLP160 T03330189=
201006201752 METAR KATL 201752Z 31007KT 10SM SCT045 SCT250 33/22 A3006 RMK AO2 SLP167 T03280217 10328 20233 58007=
201006201652 METAR KATL 201652Z 32009KT 10SM SCT040 SCT250 32/22 A3007 RMK AO2 SLP172 T03220217=
201006201552 METAR KATL 201552Z 35005KT 10SM FEW035 SCT250 31/22 A3009 RMK AO2 SLP176 T03110217=
201006201452 METAR KATL 201452Z 31004KT 10SM FEW250 29/22 A3008 RMK AO2 SLP175 T02940222 50003=
201006201352 METAR KATL 201352Z 32008KT 10SM FEW200 27/23 A3009 RMK AO2 SLP178 T02720228=
201006201252 METAR KATL 201252Z 32006KT 9SM FEW200 26/22 A3008 RMK AO2 SLP176 T02560222=
201006201152 METAR KATL 201152Z 33003KT 7SM FEW004 SCT200 23/22 A3007 RMK AO2 SLP173 CIG LWR W-NW T02330217 10239 20222 53009=
201006201126 SPECI KATL 201126Z 33007KT 8SM SCT004 23/21 A3007 RMK AO2=
201006201126 SPECI KATL 201126Z 33007KT 8SM SCT004 23/21 A3007 RMK AO2=
201006201052 METAR KATL 201052Z 34006KT 9SM FEW200 22/21 A3006 RMK AO2 SLP171 T02220211=
201006200952 METAR KATL 200952Z 33006KT 10SM CLR 23/21 A3004 RMK AO2 SLP164 T02280211=
201006200852 METAR KATL 200852Z 33007KT 10SM CLR 23/21 A3004 RMK AO2 SLP165 T02280211 55006=
201006200752 METAR KATL 200752Z 31010KT 10SM CLR 23/21 A3004 RMK AO2 SLP161 T02280206=
201006200652 METAR KATL 200652Z 30004KT 10SM FEW130 23/21 A3004 RMK AO2 SLP162 T02280206=
201006200552 METAR KATL 200552Z 33004KT 10SM FEW130 24/21 A3006 RMK AO2 SLP168 T02390211 10261 20239 58005=
201006200452 METAR KATL 200452Z 33005KT 10SM SCT130 24/21 A3007 RMK AO2 SLP170 T02440211 403390239=
201006200352 METAR KATL 200352Z 31008KT 10SM BKN130 24/21 A3009 RMK AO2 SLP176 T02440211=
201006200252 METAR KATL 200252Z 32006KT 10SM BKN130 25/21 A3008 RMK AO2 SLP174 T02500211 53006=
201006200152 METAR KATL 200152Z 32007KT 10SM FEW130 BKN200 25/21 A3007 RMK AO2 SLP173 T02500206=
201006200052 METAR KATL 200052Z 34009KT 10SM SCT130 BKN250 26/20 A3006 RMK AO2 SLP167 T02560200=
201006192352 METAR KATL 192352Z 33009KT 10SM FEW150 BKN200 BKN250 26/19 A3006 RMK AO2 SLP169 60000 T02610194 10339 20239 52002=
201006192252 METAR KATL 192252Z 30007KT 10SM FEW150 BKN200 BKN250 26/19 A3005 RMK AO2 SLP167 T02560194=
201006192152 METAR KATL 192152Z 28011KT 10SM FEW020 SCT110 SCT150 BKN200 24/19 A3006 RMK AO2 RAB23E33 SLP171 SHRA S-SW P0000 T02440194=
201006192052 SPECI KATL 192052Z 34010KT 10SM SCT019 BKN040 BKN110 BKN250 26/19 A3006 RMK AO2 TSB1959E51RAB26E50 SLP167 CB DSNT SW P0000 60000 T02610194 55020=
201006191959 SPECI KATL 191959Z VRB04KT 10SM TS SCT050CB SCT075 BKN100 BKN250 32/18 A3005 RMK AO2 TSB59 FRQ LTGICCG NW TS NW MOV S CB DSNT W-N=
201006191959 SPECI KATL 191959Z VRB04KT 10SM TS SCT050CB SCT075 BKN100 BKN250 32/18 A3005 RMK AO2 TSB59 FRQ LTGICCG NW TS NW MOV S CB DSNT W-N=
201006191952 METAR KATL 191952Z 30003KT 10SM SCT050CB SCT075 BKN100 BKN250 32/18 A3005 RMK AO2 RAE00 PRESFR SLP165 CB NW MOV S CB DSNT W-N P0000 T03220178=
201006191852 METAR KATL 191852Z 01012G17KT 10SM -RA SCT055 SCT075 BKN100 BKN250 33/18 A3009 RMK AO2 RAB51 SLP176 CB DSNT SE & SW-W & NW-N TCU DSNT NW P0000 T03280183=
201006191824 SPECI KATL 191824Z VRB04KT 10SM SCT055CB BKN070 BKN100 33/20 A3011 RMK AO2 CB NW MOV S SHRA NW=
201006191824 SPECI KATL 191824Z VRB04KT 10SM SCT055CB BKN070 BKN100 33/20 A3011 RMK AO2 CB NW MOV S SHRA NW=
201006191752 METAR KATL 191752Z COR 33009KT 10SM SCT050 BKN070 BKN100 33/19 A3011 RMK AO2 SLP185 CB DSNT SW-W T03280189 10328 20250 55004=
201006191652 METAR KATL 191652Z 34007KT 10SM SCT045 32/21 A3011 RMK AO2 SLP185 T03220206=
201006191552 METAR KATL 191552Z VRB03KT 10SM SCT044 31/21 A3012 RMK AO2 SLP187 T03060211=
201006191452 METAR KATL 191452Z 29003KT 10SM CLR 31/21 A3013 RMK AO2 SLP190 T03060206 50002=
201006191352 METAR KATL 191352Z VRB03KT 9SM CLR 28/22 A3013 RMK AO2 SLP191 T02830217=
201006191252 METAR KATL 191252Z 11004KT 9SM CLR 27/21 A3013 RMK AO2 SLP192 T02670211=
201006191152 METAR KATL 191152Z 09006KT 9SM CLR 25/21 A3012 RMK AO2 SLP189 T02500211 10261 20239 53018=
201006191052 METAR KATL 191052Z 00000KT 9SM CLR 24/21 A3009 RMK AO2 SLP179 T02440211=
201006190952 METAR KATL 190952Z 00000KT 10SM CLR 24/21 A3007 RMK AO2 SLP172 T02440211=
201006190852 METAR KATL 190852Z 08003KT 10SM CLR 24/21 A3007 RMK AO2 SLP169 T02390206 53004=
201006190752 METAR KATL 190752Z 04004KT 10SM CLR 25/21 A3006 RMK AO2 SLP167 T02500206=
201006190652 METAR KATL 190652Z 02003KT 10SM CLR 26/21 A3005 RMK AO2 SLP163 T02560206=
201006190552 METAR KATL 190552Z 00000KT 10SM FEW150 26/21 A3005 RMK AO2 SLP164 T02610206 10294 20250 58010=
201006190452 METAR KATL 190452Z 00000KT 10SM FEW150 25/21 A3007 RMK AO2 SLP169 T02500206 403330228=
201006190352 METAR KATL 190352Z 00000KT 10SM FEW080 SCT150 BKN250 26/20 A3007 RMK AO2 SLP172 T02610200=
201006190252 METAR KATL 190252Z 07005KT 10SM FEW080 SCT150 BKN250 26/21 A3008 RMK AO2 SLP175 T02610206 51016=
201006190152 METAR KATL 190152Z 12005KT 10SM FEW080 SCT200 27/20 A3007 RMK AO2 SLP169 OCNL LTG DSNT NE T02720200=
201006190052 METAR KATL 190052Z 09008KT 10SM FEW045 SCT200 SCT250 28/21 A3006 RMK AO2 SLP168 CB DSNT NE AND SE T02830211=
201006182352 METAR KATL 182352Z 31006KT 10SM FEW045 SCT100 BKN140 BKN200 29/21 A3004 RMK AO2 SLP160 CB DSNT NE AND SE T02940206 10333 20289 52004=
201006182252 METAR KATL 182252Z 31008KT 10SM FEW045 SCT080 BKN100 29/21 A3003 RMK AO2 SLP159 TCU DSNT NE-SE T02890206=
201006182152 METAR KATL 182152Z 01010KT 10SM FEW055 BKN070 BKN150 32/19 A3002 RMK AO2 SLP155 CB DSNT NW T03220194=
201006182059 SPECI KATL 182059Z 34009G14KT 10SM FEW055 BKN070 BKN150 32/19 A3002 RMK AO2 CBMAM OHD-N CB DSNT NW=
201006182059 SPECI KATL 182059Z 34009G14KT 10SM FEW055 BKN070 BKN150 32/19 A3002 RMK AO2 CBMAM OHD-N CB DSNT NW=
201006182052 METAR KATL 182052Z 32009G14KT 10SM BKN055CB BKN070 BKN150 32/20 A3002 RMK AO2 SLP154 CB OHD-N MOV S SHRA N T03170200 56022=
201006182032 SPECI KATL 182032Z 32009KT 10SM FEW055CB SCT060TCU SCT150 33/20 A3003 RMK AO2 CB N MOV S TCU NE SHRA N=
201006182032 SPECI KATL 182032Z 32009KT 10SM FEW055CB SCT060TCU SCT150 33/20 A3003 RMK AO2 CB N MOV S TCU NE SHRA N=
201006181952 METAR KATL 181952Z 34008KT 10SM FEW055TCU SCT070 SCT200 33/19 A3004 RMK AO2 SLP161 CB DSNT NW-N TCU N-NE T03280194=
201006181852 METAR KATL 181852Z 00000KT 10SM FEW050 SCT200 32/19 A3007 RMK AO2 SLP169 CB DSNT N T03170189=
201006181752 METAR KATL 181752Z 32009KT 10SM FEW050 SCT200 32/19 A3009 RMK AO2 SLP177 CB DSNT N T03170194 10317 20250 58008=
201006181652 METAR KATL 181652Z 32006KT 10SM FEW055 SCT150 31/19 A3011 RMK AO2 SLP182 T03110189=
201006181552 METAR KATL 181552Z 04003KT 10SM FEW050 SCT150 30/18 A3011 RMK AO2 SLP185 T03000183=
201006181452 METAR KATL 181452Z 07005KT 10SM FEW150 29/19 A3011 RMK AO2 SLP186 T02890189 50004=
201006181352 METAR KATL 181352Z 08007KT 10SM FEW150 29/18 A3012 RMK AO2 SLP188 T02890183=
201006181252 METAR KATL 181252Z 27003KT 10SM CLR 27/21 A3011 RMK AO2 SLP186 T02720206=
201006181152 METAR KATL 181152Z 35005KT 10SM FEW150 25/20 A3010 RMK AO2 SLP182 T02500200 10250 20228 53017=
201006181052 METAR KATL 181052Z 36006KT 10SM FEW200 24/19 A3008 RMK AO2 SLP175 T02390194=
201006180952 METAR KATL 180952Z 36007KT 10SM FEW250 24/19 A3006 RMK AO2 SLP168 T02390194=
201006180852 METAR KATL 180852Z 35010KT 10SM SCT250 23/19 A3005 RMK AO2 SLP163 T02330194 55003=
201006180752 METAR KATL 180752Z 35006KT 10SM FEW250 23/19 A3004 RMK AO2 SLP161 T02330194=
201006180652 METAR KATL 180652Z 34008KT 10SM FEW150 SCT250 23/19 A3004 RMK AO2 SLP161 T02330189=
201006180552 METAR KATL 180552Z 31007KT 10SM FEW150 SCT250 23/19 A3006 RMK AO2 SLP167 T02330189 10272 20233 58003=
201006180452 METAR KATL 180452Z 33006KT 10SM FEW150 BKN200 24/19 A3007 RMK AO2 SLP170 T02390194 403330217=
201006180352 METAR KATL 180352Z 31006KT 10SM FEW150 BKN250 24/20 A3007 RMK AO2 SLP170 T02390200=
201006180252 METAR KATL 180252Z 29006KT 10SM CLR 24/19 A3007 RMK AO2 SLP170 T02440194 53009=
201006180152 METAR KATL 180152Z 29009KT 10SM SCT150 BKN200 BKN250 25/19 A3005 RMK AO2 SLP166 T02500189=
201006180052 METAR KATL 180052Z 33009KT 10SM FEW120 BKN180 BKN250 26/18 A3005 RMK AO2 SLP165 T02610183=
201006172352 METAR KATL 172352Z 34006KT 10SM FEW120 BKN170 BKN200 27/19 A3004 RMK AO2 TSE08RAE08 SLP162 TS DSIPTD P0000 60000 T02670194 10333 20267 53006=
201006172308 SPECI KATL 172308Z 34013KT 10SM FEW045 SCT120 BKN150 BKN200 27/20 A3003 RMK AO2 TSE08RAE08 TS DSIPTD CB DSNT SE CBMAM OHD P0000=
201006172308 SPECI KATL 172308Z 34013KT 10SM FEW045 SCT120 BKN150 BKN200 27/20 A3003 RMK AO2 TSE08RAE08 TS DSIPTD CB DSNT SE CBMAM OHD P0000=
201006172252 METAR KATL 172252Z 34014G21KT 9SM -TSRA FEW050CB SCT070 BKN120 BKN200 29/20 A3002 RMK AO2 PK WND 30026/2241 TSB52RAB44 SLP156 OCNL LTGCG VC NE-E TS VC NE-E MOV SE CB DSNT SW P0000 T02890200=
201006172152 METAR KATL 172152Z 32010KT 10SM FEW050TCU SCT150 SCT200 33/21 A3003 RMK AO2 SLP158 CB DSNT NW TCU N-NE T03280206=
201006172052 METAR KATL 172052Z 30009G16KT 10SM FEW050 SCT200 SCT250 33/21 A3002 RMK AO2 SLP154 CB DSNT E & S & NW T03280206 58017=
201006171952 SPECI KATL 171952Z 31010KT 10SM FEW040CB SCT050TCU SCT200 32/22 A3004 RMK AO2 SLP160 CB SE MOV SE CB DSNT NE-E & DSNT S TCU NE-E-SE-S SHRA SE T03220217=
201006171852 METAR KATL 171852Z 33008G16KT 10SM SCT045TCU SCT200 32/20 A3006 RMK AO2 SLP167 CB DSNT NE & S TCU NW-N T03220200=
201006171752 METAR KATL 171752Z 30009KT 10SM SCT043TCU 31/22 A3007 RMK AO2 SLP172 CB DSNT NE TCU NE & NW-N T03110217 10317 20233 58006=
201006171652 METAR KATL 171652Z 01004KT 10SM SCT040TCU 31/21 A3009 RMK AO2 SLP178 TCU E & S-SW-W T03110206=
201006171552 METAR KATL 171552Z 34010G14KT 10SM FEW035TCU 31/22 A3010 RMK AO2 SLP181 TCU NE & S & DSNT W T03060217=
201006171452 METAR KATL 171452Z 31008KT 10SM FEW030 29/22 A3009 RMK AO2 SLP178 T02940222 50001=
201006171352 METAR KATL 171352Z 30006KT 10SM CLR 28/22 A3009 RMK AO2 SLP180 T02780222=
201006171252 METAR KATL 171252Z 28006KT 10SM CLR 26/22 A3010 RMK AO2 SLP180 T02560217=
201006171152 METAR KATL 171152Z 29005KT 10SM CLR 23/21 A3009 RMK AO2 SLP177 T02330206 10239 20217 53005=
201006171052 METAR KATL 171052Z 29004KT 10SM FEW250 22/20 A3007 RMK AO2 SLP172 T02170200=
201006170952 METAR KATL 170952Z 27004KT 10SM FEW250 22/19 A3007 RMK AO2 SLP170 T02170194=
201006170852 METAR KATL 170852Z 00000KT 10SM CLR 22/20 A3007 RMK AO2 SLP171 T02220200 56012=
201006170752 METAR KATL 170752Z 16003KT 10SM FEW180 22/20 A3007 RMK AO2 SLP173 T02220200=
201006170652 METAR KATL 170652Z 15004KT 10SM SCT150 23/21 A3009 RMK AO2 SLP178 T02330206=
201006170552 METAR KATL 170552Z 17003KT 10SM FEW150 SCT250 23/21 A3010 RMK AO2 SLP183 60000 T02330206 10300 20233 55003=
201006170452 METAR KATL 170452Z 00000KT 10SM SCT150 BKN250 24/20 A3010 RMK AO2 SLP181 T02440200 403220217=
201006170352 METAR KATL 170352Z 00000KT 10SM BKN150 BKN250 25/20 A3011 RMK AO2 SLP184 T02500200=
201006170252 METAR KATL 170252Z 08005KT 10SM FEW060 BKN140 BKN250 26/19 A3012 RMK AO2 SLP187 OCNL LTG DSNT SE 60000 T02610189 53018=
201006170152 METAR KATL 170152Z 02006KT 10SM FEW040 SCT070 BKN150 BKN200 26/19 A3008 RMK AO2 RAB29E44 SLP176 FRQ LTG DSNT NE-SE P0000 T02610189=
201006170052 METAR KATL 170052Z 36012G18KT 10SM SCT040TCU BKN150 BKN200 28/19 A3008 RMK AO2 WSHFT 0036 SLP176 FRQ LTG DSNT NE-E CB DSNT W TCU OHD AND NW T02830194=
201006162352 METAR KATL 162352Z 29008KT 10SM FEW045 30/21 A3006 RMK AO2 SLP168 CB DSNT NW-NE T03000211 10322 20300 55003=
201006162252 METAR KATL 162252Z 29007KT 10SM FEW045 31/21 A3005 RMK AO2 SLP163 CB DSNT NW T03110211=
201006162152 METAR KATL 162152Z 28005KT 10SM FEW045TCU 32/20 A3005 RMK AO2 SLP164 TCU E-SE T03170200=
201006162052 METAR KATL 162052Z 33006KT 10SM FEW045TCU SCT075 SCT250 32/21 A3007 RMK AO2 SLP171 TCU S & W T03220206 58020=
201006161952 METAR KATL 161952Z VRB05KT 10SM SCT046 SCT150 31/21 A3009 RMK AO2 SLP179 T03110206=
201006161852 METAR KATL 161852Z 27009KT 10SM FEW045 SCT150 SCT250 32/21 A3011 RMK AO2 SLP186 T03170211=
201006161752 METAR KATL 161752Z 33006G14KT 10SM FEW038 SCT150 SCT250 31/21 A3013 RMK AO2 SLP191 T03110211 10311 20228 58005=
201006161652 METAR KATL 161652Z 32010KT 10SM FEW030 SCT150 SCT200 30/22 A3014 RMK AO2 SLP195 T03000222=
201006161552 METAR KATL 161552Z 31009KT 10SM FEW025 SCT150 28/22 A3015 RMK AO2 SLP199 T02830222=
201006161452 METAR KATL 161452Z 27004KT 10SM FEW020 27/22 A3014 RMK AO2 SLP197 T02670217 56004=
201006161352 METAR KATL 161352Z 28004KT 10SM FEW012 25/21 A3015 RMK AO2 SLP200 T02500211=
201006161349 SPECI KATL 161349Z 27005KT 10SM FEW012 25/21 A3015 RMK AO2=
201006161349 SPECI KATL 161349Z 27005KT 10SM FEW012 25/21 A3015 RMK AO2=
201006161252 METAR KATL 161252Z 32005KT 8SM SCT008 BKN012 24/21 A3015 RMK AO2 SLP202 T02390211=
201006161221 SPECI KATL 161221Z 32005KT 7SM BKN007 BKN010 23/21 A3015 RMK AO2=
201006161221 SPECI KATL 161221Z 32005KT 7SM BKN007 BKN010 23/21 A3015 RMK AO2=
201006161152 METAR KATL 161152Z 32005KT 7SM BKN004 BKN010 23/21 A3014 RMK AO2 SLP198 70072 T02280211 10228 20217 53019=
201006161059 SPECI KATL 161059Z 31006KT 6SM BR FEW004 SCT150 22/21 A3011 RMK AO2=
201006161059 SPECI KATL 161059Z 31006KT 6SM BR FEW004 SCT150 22/21 A3011 RMK AO2=
201006161052 METAR KATL 161052Z 32007KT 7SM FEW010 SCT150 22/21 A3011 RMK AO2 SLP186 T02170206=
201006160952 METAR KATL 160952Z 31004KT 10SM FEW010 SCT140 BKN200 22/21 A3010 RMK AO2 SLP181 T02220206=
201006160852 METAR KATL 160852Z 35003KT 10SM FEW009 SCT120 BKN200 22/21 A3008 RMK AO2 SLP175 T02220211 55017=
201006160832 SPECI KATL 160832Z 28005KT 10SM SCT009 SCT110 22/21 A3009 RMK AO2=
201006160832 SPECI KATL 160832Z 28005KT 10SM SCT009 SCT110 22/21 A3009 RMK AO2=
201006160752 METAR KATL 160752Z 04004KT 7SM R09R/3000V4500FT FEW010 SCT140 BKN200 23/21 A3007 RMK AO2 SLP171 T02280206=
201006160652 METAR KATL 160652Z 02005KT 6SM R09R/4500VP6000FT BR FEW009 BKN140 OVC200 23/21 A3009 RMK AO2 SLP177 T02280206=
201006160615 SPECI KATL 160615Z VRB04KT 6SM R09R/2800VP6000FT BR FEW008 BKN140 23/21 A3011 RMK AO2=
201006160615 SPECI KATL 160615Z VRB04KT 6SM R09R/2800VP6000FT BR FEW008 BKN140 23/21 A3011 RMK AO2=
201006160600 SPECI KATL 160600Z 00000KT 6SM R09R/2800VP6000FT BR FEW008 BKN013 BKN140 23/21 A3012 RMK AO2 PRESFR=
201006160600 SPECI KATL 160600Z 00000KT 6SM R09R/2800VP6000FT BR FEW008 BKN013 BKN140 23/21 A3012 RMK AO2 PRESFR=
201006160552 METAR KATL 160552Z 00000KT 6SM R09R/3500VP6000FT BR BKN013 BKN140 23/21 A3013 RMK AO2 SLP192 60004 T02280211 10244 20222 58004=
201006160540 SPECI KATL 160540Z 00000KT 10SM FEW007 23/21 A3015 RMK AO2=
201006160540 SPECI KATL 160540Z 00000KT 10SM FEW007 23/21 A3015 RMK AO2=
201006160452 METAR KATL 160452Z 12006KT 10SM SCT020 SCT040 BKN140 23/21 A3018 RMK AO2 SLP208 T02280211 403500222=
201006160447 SPECI KATL 160447Z 14005KT 10SM SCT020 SCT040 BKN140 23/21 A3018 RMK AO2 403500222=
201006160447 SPECI KATL 160447Z 14005KT 10SM SCT020 SCT040 BKN140 23/21 A3018 RMK AO2 403500222=
201006160352 METAR KATL 160352Z 14010G16KT 10SM BKN015 BKN040 OVC120 23/21 A3018 RMK AO2 SLP209 T02280211=
201006160347 SPECI KATL 160347Z 14009G16KT 10SM BKN015 BKN040 OVC120 23/22 A3018 RMK AO2=
201006160347 SPECI KATL 160347Z 14009G16KT 10SM BKN015 BKN040 OVC120 23/22 A3018 RMK AO2=
201006160252 METAR KATL 160252Z 30003KT 10SM FEW040 SCT120 BKN200 23/22 A3015 RMK AO2 SLP197 60004 T02330217 53026=
201006160152 METAR KATL 160152Z 36008KT 10SM FEW010 SCT040 BKN120 BKN200 24/21 A3011 RMK AO2 PRESRR SLP184 CB MOV NE T02390211=
201006160052 METAR KATL 160052Z 13004KT 10SM FEW010 BKN033 OVC060 23/21 A3005 RMK AO2 TSE26RAE43 SLP165 TS MOV NE CB DSNT N-E MOV NE P0004 T02280211=
201006160027 SPECI KATL 160027Z 13009KT 10SM -RA FEW008 BKN033 OVC060 23/21 A3007 RMK AO2 TSE26 TS MOV NE CB DSNT N-E MOV NE P0004=
201006160027 SPECI KATL 160027Z 13009KT 10SM -RA FEW008 BKN033 OVC060 23/21 A3007 RMK AO2 TSE26 TS MOV NE CB DSNT N-E MOV NE P0004=
201006160017 SPECI KATL 160017Z 36012KT 6SM TSRA FEW008 BKN031CB OVC060 23/21 A3005 RMK AO2 OCNL LTGICCG N-NE TS VC N-NE MOV NE P0003=
201006160017 SPECI KATL 160017Z 36012KT 6SM TSRA FEW008 BKN031CB OVC060 23/21 A3005 RMK AO2 OCNL LTGICCG N-NE TS VC N-NE MOV NE P0003=
201006160003 SPECI KATL 160003Z 35015KT 4SM -TSRA BR SCT008 BKN025CB OVC060 23/21 A3006 RMK AO2 OCNL LTGICCG N-E TS N-E MOV NE P0001=
201006160003 SPECI KATL 160003Z 35015KT 4SM -TSRA BR SCT008 BKN025CB OVC060 23/21 A3006 RMK AO2 OCNL LTGICCG N-E TS N-E MOV NE P0001=
201006152357 SPECI KATL 152357Z 36015KT 2SM -TSRA BR SCT008 BKN020CB OVC060 22/21 A3007 RMK AO2 SFC VIS 3 FRQ LTGICCG OHD-N-E TS OHD-N-E MOV NE P0001=
201006152357 SPECI KATL 152357Z 36015KT 2SM -TSRA BR SCT008 BKN020CB OVC060 22/21 A3007 RMK AO2 SFC VIS 3 FRQ LTGICCG OHD-N-E TS OHD-N-E MOV NE P0001=
201006152352 METAR KATL 152352Z 34014KT 2SM TSRA BR BKN008 BKN020CB OVC060 22/21 A3007 RMK AO2 PK WND 30028/2253 WSHFT 2331 RAB08 PRESFR SLP173 VIS N-NE 1 FRQ LTGICCG OHD-N-E TS OHD-N-E MOV NE P0068 60068 T02220211 10350 20222=
201006152348 SPECI KATL 152348Z 36016KT 2SM R09R/6000VP6000FT +TSRA BR BKN008 BKN020CB OVC060 22/21 A3007 RMK AO2 PK WND 30028/2253 WSHFT 2331 RAB08 PRESFR FRQ LTGICCG OHD-N-E TS OHD-N-E MOV NE VIS N-NE 1 P0067 $=
201006152348 SPECI KATL 152348Z 36016KT 2SM R09R/6000VP6000FT +TSRA BR BKN008 BKN020CB OVC060 22/21 A3007 RMK AO2 PK WND 30028/2253 WSHFT 2331 RAB08 PRESFR FRQ LTGICCG OHD-N-E TS OHD-N-E MOV NE VIS N-NE 1 P0067 $=
201006152339 SPECI KATL 152339Z 01018KT 3/4SM R09R/3500VP6000FT +TSRA BR BKN008 OVC020CB 23/22 A3008 RMK AO2 PK WND 30028/2253 TWR VIS 2 RAB08 FRQ LTGICCG ALQDS TS ALQDS MOV NE P0058 $=
201006152339 SPECI KATL 152339Z 01018KT 3/4SM R09R/3500VP6000FT +TSRA BR BKN008 OVC020CB 23/22 A3008 RMK AO2 PK WND 30028/2253 TWR VIS 2 RAB08 FRQ LTGICCG ALQDS TS ALQDS MOV NE P0058 $=
201006152330 SPECI KATL 152330Z 34009KT 1SM R09R/3500V5000FT +TSRA BR SCT008 OVC025CB 23/21 A3010 RMK AO2 PK WND 30028/2253 RAB08 FRQ LTGICCG ALQDS TS ALQDS MOV NE P0027 $=
201006152330 SPECI KATL 152330Z 34009KT 1SM R09R/3500V5000FT +TSRA BR SCT008 OVC025CB 23/21 A3010 RMK AO2 PK WND 30028/2253 RAB08 FRQ LTGICCG ALQDS TS ALQDS MOV NE P0027 $=
201006152326 SPECI KATL 152326Z 31007KT 1 3/4SM R09R/3500VP6000FT +TSRA BR SCT008 BKN030CB OVC060 23/21 A3010 RMK AO2 PK WND 30028/2253 RAB08 PRESRR FRQ LTGICCG ALQDS TS ALQDS MOV NE VIS S-SW 3/4 P0013=
201006152326 SPECI KATL 152326Z 31007KT 1 3/4SM R09R/3500VP6000FT +TSRA BR SCT008 BKN030CB OVC060 23/21 A3010 RMK AO2 PK WND 30028/2253 RAB08 PRESRR FRQ LTGICCG ALQDS TS ALQDS MOV NE VIS S-SW 3/4 P0013=
201006152324 SPECI KATL 152324Z 30006KT 3SM R09R/3500VP6000FT +TSRA BR FEW009 BKN030CB OVC060 23/21 A3010 RMK AO2 PK WND 30028/2253 RAB08 PRESRR FRQ LTGICCG ALQDS TS ALQDS MOV NE P0006=
201006152324 SPECI KATL 152324Z 30006KT 3SM R09R/3500VP6000FT +TSRA BR FEW009 BKN030CB OVC060 23/21 A3010 RMK AO2 PK WND 30028/2253 RAB08 PRESRR FRQ LTGICCG ALQDS TS ALQDS MOV NE P0006=
201006152252 METAR KATL 152252Z 29017G27KT 10SM TS BKN040CB BKN100 BKN200 29/21 A3003 RMK AO2 PK WND 29027/2252 TSE2158B50 SLP158 OCNL LTGICCG S-W TS VC S-W MOV NE T02890211=
201006152159 SPECI KATL 152159Z 36006KT 10SM SCT040 BKN100 BKN200 31/20 A3001 RMK AO2 TSE58 FRQ LTGICCG DSNT N-NE TS MOV NE CB DSNT N-E AND SW MOV SLO NE=
201006152159 SPECI KATL 152159Z 36006KT 10SM SCT040 BKN100 BKN200 31/20 A3001 RMK AO2 TSE58 FRQ LTGICCG DSNT N-NE TS MOV NE CB DSNT N-E AND SW MOV SLO NE=
201006152152 METAR KATL 152152Z 01012G20KT 9SM TS SCT040CB BKN100 BKN200 31/20 A3000 RMK AO2 PK WND 07026/2112 WSHFT 2050 SLP148 FRQ LTGICCG N-NE TS VC N-NE MOV SLO NE CB DSNT E AND S-SW MOV SLO NE T03060200=
201006152108 SPECI KATL 152108Z 09015G22KT 10SM TS BKN040CB BKN060 BKN100 28/19 A3001 RMK AO2 WSHFT 2050 CONS LTGICCG NE-E TS NE-E MOV STNRY=
201006152108 SPECI KATL 152108Z 09015G22KT 10SM TS BKN040CB BKN060 BKN100 28/19 A3001 RMK AO2 WSHFT 2050 CONS LTGICCG NE-E TS NE-E MOV STNRY=
201006152052 METAR KATL 152052Z 11012G21KT 10SM TS BKN040CB BKN060 BKN100 31/21 A3001 RMK AO2 TSB17 SLP150 CONS LTGICCG OHD-E TS OHD-E MOV E SHRA E T03110211 55013=
201006152018 SPECI KATL 152018Z 27003KT 10SM TS FEW055CB SCT060TCU 34/21 A3000 RMK AO2 TSB17 FRQ LTGICCG E TS E MOV E TCU NW SHRA E=
201006152018 SPECI KATL 152018Z 27003KT 10SM TS FEW055CB SCT060TCU 34/21 A3000 RMK AO2 TSB17 FRQ LTGICCG E TS E MOV E TCU NW SHRA E=
201006151952 METAR KATL 151952Z 26008KT 10SM SCT055TCU 35/22 A3001 RMK AO2 SLP147 TCU=
201006151852 METAR KATL 151852Z 28005KT 10SM BKN050TCU 34/22 A3002 RMK AO2 SLP154 TCU N-NE-E-SE-S-SW T03440222=
201006151752 METAR KATL 151752Z 00000KT 10SM SCT048 34/23 A3005 RMK AO2 SLP162 TCU DSNT S T03390228 10339 20267 58005=
201006151652 METAR KATL 151652Z 25007KT 10SM FEW045 33/22 A3007 RMK AO2 SLP168 CB DSNT N TCU DSNT W T03330222=
201006151552 METAR KATL 151552Z 00000KT 10SM FEW040 SCT150 33/22 A3007 RMK AO2 SLP169 CB DSNT N T03280222=
201006151452 METAR KATL 151452Z 31004KT 10SM FEW150 31/22 A3007 RMK AO2 SLP169 T03110217 50005=
201006151352 METAR KATL 151352Z 29004KT 10SM FEW150 30/23 A3007 RMK AO2 SLP169 T03000228=
201006151252 METAR KATL 151252Z 31004KT 10SM SCT150 SCT250 29/23 A3006 RMK AO2 SLP168 T02890228=
201006151152 METAR KATL 151152Z 31004KT 10SM FEW180 27/23 A3005 RMK AO2 SLP164 T02670228 10278 20250 53014=
201006151052 METAR KATL 151052Z 29004KT 10SM SCT180 25/22 A3004 RMK AO2 SLP159 T02500222=
201006150952 METAR KATL 150952Z 00000KT 10SM FEW250 26/23 A3002 RMK AO2 SLP154 T02560228=
201006150852 METAR KATL 150852Z 00000KT 10SM CLR 26/23 A3001 RMK AO2 SLP149 T02560228 53003=
201006150752 METAR KATL 150752Z 34006KT 10SM CLR 27/23 A3000 RMK AO2 SLP146 T02670228=
201006150652 METAR KATL 150652Z 32005KT 10SM CLR 26/23 A3000 RMK AO2 SLP146 T02610228=
201006150552 METAR KATL 150552Z 00000KT 10SM FEW200 28/23 A3000 RMK AO2 SLP146 T02780228 10322 20272 50004=
201006150452 METAR KATL 150452Z 00000KT 10SM FEW200 28/23 A3001 RMK AO2 SLP149 T02780228 403500250=
201006150352 METAR KATL 150352Z VRB03KT 10SM FEW200 28/22 A3000 RMK AO2 SLP146 T02780222=
201006150252 METAR KATL 150252Z 31007KT 10SM FEW200 29/22 A2999 RMK AO2 SLP142 T02890222 50002=
201006150152 METAR KATL 150152Z 31007KT 10SM FEW150 BKN200 29/22 A2999 RMK AO2 SLP143 OCNL LTG DSNT SE T02940222=
201006150052 METAR KATL 150052Z 31007KT 10SM FEW050 SCT200CB 31/22 A2998 RMK AO2 SLP139 OCNL LTG DSNT SE CBMAM SE T03110222=
201006142352 METAR KATL 142352Z 34007KT 10SM FEW060CB SCT200 32/22 A2998 RMK AO2 SLP139 CB NE AND DSNT SE S SW AND W MOV E T03220217 10350 20322 53003=
201006142252 METAR KATL 142252Z 33009KT 10SM FEW060 SCT200 34/21 A2996 RMK AO2 SLP132 CB DSNT SW TCU DSNT SE-S T03390211=
201006142152 METAR KATL 142152Z 29008KT 10SM SCT060 SCT200 34/20 A2996 RMK AO2 SLP134 T03440200=
201006142052 METAR KATL 142052Z COR 35006KT 10SM FEW060 SCT200 34/21 A2997 RMK AO2 SLP137 TCU DSNT NE & DSNT NW T03440206 58015=
201006141952 METAR KATL 141952Z 31010G14KT 10SM FEW050 SCT200 34/22 A2999 RMK AO2 SLP141 CB DSNT N T03440217=
201006141852 METAR KATL 141852Z 27005KT 10SM FEW050TCU SCT200 34/21 A3001 RMK AO2 SLP149 CB DSNT N & SE TCU N-NE T03390206=
201006141752 METAR KATL 141752Z 31009KT 10SM FEW050 SCT200 33/21 A3002 RMK AO2 SLP152 CB DSNT E T03280206 10339 20267 58009=
201006141652 METAR KATL 141652Z VRB04G14KT 10SM SCT045TCU SCT200 33/22 A3004 RMK AO2 SLP159 CB DSNT N TCU NE-E & S & NW T03280217=
201006141552 METAR KATL 141552Z 31010KT 10SM SCT040TCU SCT200 33/22 A3005 RMK AO2 SLP161 TCU SE-S & NW T03280217=
201006141452 METAR KATL 141452Z 31009KT 10SM FEW035 SCT200 32/23 A3005 RMK AO2 SLP162 T03170233 51004=
201006141352 METAR KATL 141352Z 30006KT 10SM FEW200 31/23 A3005 RMK AO2 SLP161 T03060228=
201006141252 METAR KATL 141252Z 29007KT 10SM FEW250 29/23 A3004 RMK AO2 SLP160 T02890233=
201006141152 METAR KATL 141152Z 31006KT 10SM FEW250 27/23 A3004 RMK AO2 SLP158 T02670228 10278 20250 53012=
201006141052 METAR KATL 141052Z 30003KT 10SM SCT250 26/22 A3001 RMK AO2 SLP150 T02560222=
201006140952 METAR KATL 140952Z 31006KT 10SM FEW050 SCT250 26/23 A3000 RMK AO2 SLP147 T02560228 $=
201006140852 METAR KATL 140852Z 31004KT 10SM CLR 26/23 A3000 RMK AO2 SLP146 T02560228 56009 $=
201006140752 METAR KATL 140752Z 32005KT 10SM CLR 26/23 A3000 RMK AO2 SLP146 T02610228 $=
201006140652 METAR KATL 140652Z 00000KT 10SM CLR 27/22 A3001 RMK AO2 SLP149 T02670222 $=
201006140552 METAR KATL 140552Z VRB04KT 10SM CLR 28/22 A3003 RMK AO2 SLP155 T02780222 10317 20272 58008 $=
201006140452 METAR KATL 140452Z 30003KT 10SM CLR 28/22 A3004 RMK AO2 SLP160 T02830222 403390250 $=
201006140352 METAR KATL 140352Z 31004KT 10SM FEW250 29/22 A3005 RMK AO2 SLP161 T02890217 $=
201006140252 METAR KATL 140252Z 33005KT 10SM FEW250 29/22 A3005 RMK AO2 SLP164 T02940222 53010 $=
201006140152 METAR KATL 140152Z 29005KT 10SM FEW150 SCT250 29/22 A3004 RMK AO2 SLP158 T02940222 $=
201006140052 METAR KATL 140052Z 30005KT 10SM FEW050 SCT150 SCT250 30/22 A3003 RMK AO2 SLP155 CB DSNT NW-N T03000217 $=
201006132352 METAR KATL 132352Z 29007KT 10SM FEW050 SCT250 32/21 A3002 RMK AO2 SLP154 T03170211 10339 20317 55004 $=
201006132252 METAR KATL 132252Z 29009KT 10SM FEW050 SCT250 33/22 A3002 RMK AO2 SLP153 T03280217 $=
201006132152 METAR KATL 132152Z 28010KT 10SM SCT050 SCT200 33/21 A3003 RMK AO2 SLP156 T03330211=
201006132052 METAR KATL 132052Z 30007KT 260V320 10SM SCT050 BKN060 33/22 A3004 RMK AO2 SLP158 T03330217 58021=
201006131952 METAR KATL 131952Z 28009G14KT 10SM SCT050 33/22 A3006 RMK AO2 SLP165 T03330217=
201006131852 METAR KATL 131852Z 27009G17KT 10SM SCT050 BKN060 33/22 A3008 RMK AO2 SLP173 T03330222=
201006131752 METAR KATL 131752Z 32008KT 10SM SCT048 33/21 A3010 RMK AO2 SLP179 T03280211 10328 20261 58013=
201006131652 METAR KATL 131652Z 32008KT 10SM SCT047 SCT055 32/22 A3011 RMK AO2 SLP184 T03220217=
201006131552 METAR KATL 131552Z 32009KT 10SM SCT036 SCT045 32/22 A3013 RMK AO2 SLP191 T03170222=
201006131452 METAR KATL 131452Z 33009KT 9SM SCT035 31/23 A3014 RMK AO2 SLP192 T03110228 50007=
201006131352 METAR KATL 131352Z 32006KT 9SM FEW250 30/23 A3014 RMK AO2 SLP193 T03000228=
201006131252 METAR KATL 131252Z 31007KT 8SM CLR 28/23 A3013 RMK AO2 SLP190 T02830228=
201006131152 METAR KATL 131152Z 29006KT 7SM CLR 26/22 A3012 RMK AO2 SLP186 T02610222 10267 20250 53012=
201006131052 METAR KATL 131052Z 28005KT 7SM CLR 25/22 A3010 RMK AO2 SLP182 T02500217=
201006130952 METAR KATL 130952Z 31004KT 9SM CLR 26/22 A3009 RMK AO2 SLP176 T02560217=
201006130852 METAR KATL 130852Z 28003KT 8SM CLR 26/22 A3008 RMK AO2 SLP173 T02560222 56012=
201006130752 METAR KATL 130752Z 31003KT 8SM CLR 26/22 A3009 RMK AO2 SLP176 T02610222=
201006130652 METAR KATL 130652Z 29004KT 8SM CLR 26/22 A3010 RMK AO2 SLP181 T02610222=
201006130552 METAR KATL 130552Z 28003KT 9SM CLR 27/22 A3012 RMK AO2 SLP185 T02670222 10311 20267 58003=
201006130452 METAR KATL 130452Z 29004KT 8SM CLR 27/22 A3013 RMK AO2 SLP190 T02720222 403330239=
201006130352 METAR KATL 130352Z 00000KT 10SM FEW250 28/22 A3013 RMK AO2 SLP190 T02780222=
201006130252 METAR KATL 130252Z 00000KT 10SM FEW150 SCT250 29/22 A3012 RMK AO2 SLP188 T02890217 53006=
201006130152 METAR KATL 130152Z 28005KT 10SM SCT250 28/22 A3011 RMK AO2 SLP184 T02830222=
201006130052 METAR KATL 130052Z 28006KT 9SM FEW150 SCT250 29/22 A3010 RMK AO2 SLP182 T02940222=
201006122352 METAR KATL 122352Z 29007KT 10SM FEW050 SCT150 SCT250 31/22 A3011 RMK AO2 SLP183 T03110217 10333 20311 56009=
201006122252 METAR KATL 122252Z 31006KT 10SM FEW047 SCT200 SCT250 32/21 A3011 RMK AO2 SLP183 T03220211=
201006122152 METAR KATL 122152Z 30008KT 10SM CLR BKN200 33/22 A3012 RMK AO2 SLP187 CB DSNT E T03280217=
201006122052 METAR KATL 122052Z 27006KT 10SM SCT047 BKN150 BKN200 33/22 A3013 RMK AO2 SLP193 CB DSNT E T03330222 56015=
201006121952 METAR KATL 121952Z COR 30007KT 10SM SCT040 BKN150 BKN200 33/22 A3015 RMK AO2 SLP198 CB DSNT NE T03280217=
201006121852 METAR KATL 121852Z 29008KT 10SM SCT047 BKN150 BKN200 33/22 A3017 RMK AO2 SLP202 T03280217=
201006121752 METAR KATL 121752Z 24008KT 10SM SCT045CB BKN150 BKN200 33/22 A3018 RMK AO2 SLP208 CB NW MOV SE CB DSNT NE & E T03280217 10328 20256 58007=
201006121728 SPECI KATL 121728Z 31006KT 10SM SCT040 BKN150 BKN200 32/22 A3019 RMK AO2 OCNL LTGIC DSNT E CB DSNT N & E=
201006121728 SPECI KATL 121728Z 31006KT 10SM SCT040 BKN150 BKN200 32/22 A3019 RMK AO2 OCNL LTGIC DSNT E CB DSNT N & E=
201006121652 METAR KATL 121652Z 29007KT 10SM SCT035 BKN150 BKN200 31/22 A3020 RMK AO2 SLP216 CB DSNT N AND NW T03110217=
201006121552 METAR KATL 121552Z 28003KT 9SM SCT028 BKN150 BKN200 30/23 A3021 RMK AO2 SLP218 T03000228=
201006121452 METAR KATL 121452Z 24005KT 6SM HZ FEW048 BKN150 BKN200 29/23 A3020 RMK AO2 SLP216 T02940228 51008=
201006121352 METAR KATL 121352Z 15003KT 6SM HZ FEW140 BKN200 27/23 A3020 RMK AO2 SLP215 T02720228=
201006121252 METAR KATL 121252Z 00000KT 6SM HZ FEW140 BKN200 27/23 A3020 RMK AO2 SLP214 T02670228=
201006121152 METAR KATL 121152Z 00000KT 5SM HZ FEW150 BKN200 26/22 A3018 RMK AO2 SLP207 T02560222 10261 20239 53018=
201006121052 METAR KATL 121052Z 00000KT 6SM HZ FEW150 BKN200 25/22 A3016 RMK AO2 SLP201 T02500217=
201006120952 METAR KATL 120952Z 00000KT 8SM SCT200 25/22 A3014 RMK AO2 SLP194 T02500217=
201006120852 METAR KATL 120852Z 09004KT 7SM FEW200 24/22 A3012 RMK AO2 SLP190 T02390217 56006=
201006120752 METAR KATL 120752Z 00000KT 7SM FEW200 25/22 A3012 RMK AO2 SLP189 T02500222=
201006120652 METAR KATL 120652Z 00000KT 8SM SCT200 26/22 A3013 RMK AO2 SLP192 T02560222=
201006120552 METAR KATL 120552Z 00000KT 8SM FEW250 26/22 A3014 RMK AO2 SLP195 T02610217 10306 20256 58002=
201006120452 METAR KATL 120452Z 00000KT 10SM FEW250 27/21 A3015 RMK AO2 SLP197 T02670211 403280228=
201006120352 METAR KATL 120352Z 00000KT 10SM SCT250 27/21 A3015 RMK AO2 SLP196 T02720206=
201006120252 METAR KATL 120252Z 00000KT 10SM SCT250 27/21 A3015 RMK AO2 SLP196 T02720211 53009=
201006120152 METAR KATL 120152Z 16003KT 10SM BKN250 28/21 A3013 RMK AO2 SLP190 T02830211=
201006120052 METAR KATL 120052Z 15003KT 10SM FEW040 SCT180 BKN250 29/20 A3012 RMK AO2 SLP189 T02940200=
201006112352 METAR KATL 112352Z 16005KT 10SM FEW180 BKN250 31/18 A3012 RMK AO2 SLP187 60000 T03060183 10322 20289 55001=
201006112252 METAR KATL 112252Z 13003KT 10SM FEW150 SCT200 BKN250 31/21 A3010 RMK AO2 SLP182 T03060206=
201006112152 METAR KATL 112152Z 17006KT 10SM FEW080 BKN200 30/20 A3011 RMK AO2 TSE09 SLP186 TS MOV S T03000200=
201006112109 SPECI KATL 112109Z 17006KT 10SM FEW035 BKN200 29/21 A3012 RMK AO2 TSE09 FRQ LTGICCG DSNT S TS MOV S CB DSNT S=
201006112109 SPECI KATL 112109Z 17006KT 10SM FEW035 BKN200 29/21 A3012 RMK AO2 TSE09 FRQ LTGICCG DSNT S TS MOV S CB DSNT S=
201006112052 METAR KATL 112052Z 14005KT 9SM TS FEW035CB SCT040 BKN200 31/21 A3012 RMK AO2 WSHFT 2007 SLP189 FRQ LTGICCG SE-S-SW TS VC SE-S-SW MOV NE 60000 T03060211 56007=
201006112024 SPECI KATL 112024Z 09012G22KT 9SM TS FEW030CB BKN040 BKN200 29/22 A3013 RMK AO2 WSHFT 2007 FRQ LTGICCG SE TS VC SE MOV E SHRA E-SE-S=
201006112024 SPECI KATL 112024Z 09012G22KT 9SM TS FEW030CB BKN040 BKN200 29/22 A3013 RMK AO2 WSHFT 2007 FRQ LTGICCG SE TS VC SE MOV E SHRA E-SE-S=
201006112018 SPECI KATL 112018Z 08013G22KT 9SM TS FEW030CB BKN040 BKN200 29/22 A3013 RMK AO2 FRQ LTGICCG E-SE-E TS VC E-SE-S MOV E SHRA E-SE-S=
201006112018 SPECI KATL 112018Z 08013G22KT 9SM TS FEW030CB BKN040 BKN200 29/22 A3013 RMK AO2 FRQ LTGICCG E-SE-E TS VC E-SE-S MOV E SHRA E-SE-S=
201006112005 SPECI KATL 112005Z VRB04KT 9SM TS BKN030CB BKN200 BKN250 32/22 A3014 RMK AO2 FRQ LTGICCG SE TS VC SE MOV STNRY SHRA SE=
201006112005 SPECI KATL 112005Z VRB04KT 9SM TS BKN030CB BKN200 BKN250 32/22 A3014 RMK AO2 FRQ LTGICCG SE TS VC SE MOV STNRY SHRA SE=
201006111952 METAR KATL 111952Z 34006KT 9SM TS FEW030CB SCT200 BKN250 32/23 A3012 RMK AO2 TSB47 SLP189 FRQ LTGICCG E-SE TS VC E-SE MOV SW T03220233=
201006111947 SPECI KATL 111947Z 35006KT 9SM TS FEW030CB SCT200 BKN250 32/23 A3013 RMK AO2 TSB47 FRQ LTGICCG E-SE TS E-SE MOV SW=
201006111947 SPECI KATL 111947Z 35006KT 9SM TS FEW030CB SCT200 BKN250 32/23 A3013 RMK AO2 TSB47 FRQ LTGICCG E-SE TS E-SE MOV SW=
201006111932 SPECI KATL 111932Z 35007KT 9SM FEW030CB SCT200 BKN250 31/23 A3012 RMK AO2 FRQ LTG DSNT E CB DSNT E=
201006111932 SPECI KATL 111932Z 35007KT 9SM FEW030CB SCT200 BKN250 31/23 A3012 RMK AO2 FRQ LTG DSNT E CB DSNT E=
201006111921 SPECI KATL 111921Z 31009KT 8SM FEW030CB SCT200 BKN250 30/23 A3013 RMK AO2 CB S & W MOV SE CB DSNT E & SE & NW=
201006111921 SPECI KATL 111921Z 31009KT 8SM FEW030CB SCT200 BKN250 30/23 A3013 RMK AO2 CB S & W MOV SE CB DSNT E & SE & NW=
201006111852 METAR KATL 111852Z 33008KT 9SM FEW035CB SCT200 BKN250 32/23 A3014 RMK AO2 TSB26E46RAB1754E08 SLP193 TS DSIPT CB NW MOV SE CB DSNT SE SHRA NW TCU DSNT NE-E-SE-S-SW-W P0000 T03170233=
201006111847 SPECI KATL 111847Z 33006KT 9SM FEW035CB SCT200 BKN250 32/23 A3013 RMK AO2 TSB26E46RAB1754E08 TS DSIPT CB NW MOV SE CB DSNT SE SHRA NW P0000=
201006111847 SPECI KATL 111847Z 33006KT 9SM FEW035CB SCT200 BKN250 32/23 A3013 RMK AO2 TSB26E46RAB1754E08 TS DSIPT CB NW MOV SE CB DSNT SE SHRA NW P0000=
201006111827 SPECI KATL 111827Z 29007KT 9SM TS FEW035CB SCT200 BKN250 31/23 A3014 RMK AO2 TSB26RAB1754E08 OCNL LTGICCG NW TS NW MOV SE P0000=
201006111827 SPECI KATL 111827Z 29007KT 9SM TS FEW035CB SCT200 BKN250 31/23 A3014 RMK AO2 TSB26RAB1754E08 OCNL LTGICCG NW TS NW MOV SE P0000=
201006111754 SPECI KATL 111754Z 32011KT 9SM -RA SCT044CB SCT200 SCT250 31/23 A3014 RMK AO2 RAB54 CB NW MOV E CB DSNT NE & SE SHRA NW P0000=
201006111754 SPECI KATL 111754Z 32011KT 9SM -RA SCT044CB SCT200 SCT250 31/23 A3014 RMK AO2 RAB54 CB NW MOV E CB DSNT NE & SE SHRA NW P0000=
201006111752 METAR KATL 111752Z 32012KT 9SM SCT044CB SCT200 SCT250 31/22 A3014 RMK AO2 SLP195 CB W MOV E CB DSNT NE & SE & NW SHRA W T03110222 10328 20250 58003=
201006111742 SPECI KATL 111742Z 27005KT 10SM SCT044CB SCT200 SCT250 32/21 A3014 RMK AO2 CB W MOV E CB DSNT NE & SE SHRA VC W=
201006111742 SPECI KATL 111742Z 27005KT 10SM SCT044CB SCT200 SCT250 32/21 A3014 RMK AO2 CB W MOV E CB DSNT NE & SE SHRA VC W=
201006111719 SPECI KATL 111719Z 00000KT 9SM FEW040 SCT200 SCT250 32/22 A3015 RMK AO2 CB DSNT E & DSNT W-NW-N TCU DSNT ALQDS=
201006111719 SPECI KATL 111719Z 00000KT 9SM FEW040 SCT200 SCT250 32/22 A3015 RMK AO2 CB DSNT E & DSNT W-NW-N TCU DSNT ALQDS=
201006111652 METAR KATL 111652Z 29007KT 8SM FEW035TCU SCT200 SCT250 31/22 A3016 RMK AO2 SLP200 CB DSNT NW TCU NW T03110222=
201006111552 METAR KATL 111552Z 34006KT 8SM FEW028 SCT040 SCT250 30/23 A3015 RMK AO2 SLP199 CB DSNT NW TCU DSNT NE T03000228=
201006111452 METAR KATL 111452Z 32005KT 9SM FEW030 SCT150 SCT250 30/24 A3015 RMK AO2 SLP198 T03000239 51017=
201006111352 METAR KATL 111352Z 00000KT 8SM FEW150 SCT250 29/23 A3014 RMK AO2 SLP195 T02890228=
201006111252 METAR KATL 111252Z 00000KT 4SM HZ SCT150 BKN250 27/23 A3012 RMK AO2 SLP188 T02720233=
201006111152 METAR KATL 111152Z 00000KT 3SM BR SCT150 BKN250 25/23 A3010 RMK AO2 SLP182 70073 T02500233 10250 20228 53016=
201006111052 METAR KATL 111052Z 00000KT 6SM BR SCT150 BKN240 23/22 A3009 RMK AO2 SLP177 T02330222=
201006110952 METAR KATL 110952Z 00000KT 4SM BR FEW180 24/23 A3006 RMK AO2 SLP171 T02390228=
201006110852 METAR KATL 110852Z 00000KT 6SM BR SCT150 23/22 A3005 RMK AO2 SLP165 T02330222 55004=
201006110752 METAR KATL 110752Z 00000KT 6SM BR SCT150 24/23 A3005 RMK AO2 SLP163 T02390228=
201006110652 METAR KATL 110652Z 00000KT 6SM BR BKN150 25/23 A3005 RMK AO2 SLP165 T02500228=
201006110552 METAR KATL 110552Z 00000KT 6SM BR BKN150 25/23 A3006 RMK AO2 SLP169 T02500228 10283 20250 58004=
201006110452 METAR KATL 110452Z 00000KT 8SM SCT150 25/23 A3008 RMK AO2 SLP174 T02500228 403170217=
201006110352 METAR KATL 110352Z 34004KT 8SM FEW150 26/23 A3008 RMK AO2 SLP176 T02610228=
201006110252 METAR KATL 110252Z 31003KT 9SM SCT150 27/23 A3007 RMK AO2 SLP173 T02670228 53008=
201006110152 METAR KATL 110152Z 33003KT 9SM SCT150 27/23 A3006 RMK AO2 SLP167 T02720233=
201006110052 METAR KATL 110052Z 34005KT 8SM BKN140 BKN250 28/23 A3006 RMK AO2 SLP167 T02780228=
201006102352 METAR KATL 102352Z 35006KT 8SM FEW025 BKN140 BKN250 28/23 A3005 RMK AO2 SLP165 60073 T02830233 10317 20244 53005=
201006102252 METAR KATL 102252Z 34007KT 8SM FEW030 BKN140 BKN250 28/23 A3003 RMK AO2 TSE12RAE12 SLP160 TS DSIPTD TCU DSNT SE P0000 T02830233=
201006102213 SPECI KATL 102213Z 00000KT 8SM FEW030TCU SCT060 BKN150 BKN250 27/22 A3003 RMK AO2 TSE12RAE12 TS DSIPTD TCU S-SW P0000=
201006102213 SPECI KATL 102213Z 00000KT 8SM FEW030TCU SCT060 BKN150 BKN250 27/22 A3003 RMK AO2 TSE12RAE12 TS DSIPTD TCU S-SW P0000=
201006102152 METAR KATL 102152Z 10007KT 7SM -TSRA FEW030CB SCT060 BKN100 OVC150 24/22 A3004 RMK AO2 TSB32RAB24 SLP162 FRQ LTGCG SE-S TS SE-S MOV SE P0073 T02440217=
201006102139 SPECI KATL 102139Z 06003KT 6SM TSRA SCT030CB BKN050 BKN100 OVC250 25/21 A3004 RMK AO2 TSB32RAB24 VIS SE-SW 1 1/2 FRQ LTGCG SE-SW TS SE-SW MOV SE P0043=
201006102139 SPECI KATL 102139Z 06003KT 6SM TSRA SCT030CB BKN050 BKN100 OVC250 25/21 A3004 RMK AO2 TSB32RAB24 VIS SE-SW 1 1/2 FRQ LTGCG SE-SW TS SE-SW MOV SE P0043=
201006102133 SPECI KATL 102133Z VRB04KT 2 1/2SM +TSRA BKN030CB BKN050 BKN100 OVC250 27/24 A3004 RMK AO2 TSB32RAB24 OCNL LTGCG OHD-W TS OHD-W MOV SW P0020=
201006102133 SPECI KATL 102133Z VRB04KT 2 1/2SM +TSRA BKN030CB BKN050 BKN100 OVC250 27/24 A3004 RMK AO2 TSB32RAB24 OCNL LTGCG OHD-W TS OHD-W MOV SW P0020=
201006102128 SPECI KATL 102128Z 25005KT 1 1/2SM R09R/3500VP6000FT RA FEW016 SCT031 BKN049 28/23 A3004 RMK AO2 RAB24 P0000=
201006102128 SPECI KATL 102128Z 25005KT 1 1/2SM R09R/3500VP6000FT RA FEW016 SCT031 BKN049 28/23 A3004 RMK AO2 RAB24 P0000=
201006102052 METAR KATL 102052Z 31010KT 9SM FEW035TCU BKN065 BKN200 31/21 A3003 RMK AO2 SLP159 CB DSNT N-NE-E TCU S-SW-W T03110211 56013=
201006101952 METAR KATL 101952Z 29006KT 8SM FEW030 SCT060 BKN150 BKN200 31/22 A3004 RMK AO2 SLP163 CB DSNT NW-N-NE SHRA DSNT NW-N-NE T03110222=
201006101852 METAR KATL 101852Z 30009KT 9SM FEW030 SCT090 BKN150 30/23 A3006 RMK AO2 SLP169 CB DSNT NW-N T03000228=
201006101752 METAR KATL 101752Z 29007KT 9SM FEW025TCU SCT090 BKN150 29/23 A3007 RMK AO2 SLP172 TCU E & S T02940228 10300 20239 58006=
201006101707 SPECI KATL 101707Z 30007KT 9SM FEW028CB SCT040TCU BKN090 28/23 A3008 RMK AO2 CB E MOV E TCU SE & NW SHRA E=
201006101707 SPECI KATL 101707Z 30007KT 9SM FEW028CB SCT040TCU BKN090 28/23 A3008 RMK AO2 CB E MOV E TCU SE & NW SHRA E=
201006101652 METAR KATL 101652Z 28006KT 9SM FEW025TCU SCT070 BKN150 28/23 A3008 RMK AO2 SLP176 TCU W T02830228=
201006101650 SPECI KATL 101650Z 28007KT 9SM FEW025TCU SCT070 BKN150 29/23 A3008 RMK AO2 TCU W=
201006101650 SPECI KATL 101650Z 28007KT 9SM FEW025TCU SCT070 BKN150 29/23 A3008 RMK AO2 TCU W=
201006101623 SPECI KATL 101623Z 29005KT 10SM BKN025 BKN075 BKN150 29/23 A3009 RMK AO2 TCU DSNT W=
201006101623 SPECI KATL 101623Z 29005KT 10SM BKN025 BKN075 BKN150 29/23 A3009 RMK AO2 TCU DSNT W=
201006101552 METAR KATL 101552Z 27010KT 10SM FEW025 SCT075 BKN150 28/22 A3009 RMK AO2 SLP178 T02830222=
201006101452 SPECI KATL 101452Z 28004KT 10SM FEW025 SCT100 SCT150 28/22 A3009 RMK AO2 SLP179 T02780222 51008=
201006101352 METAR KATL 101352Z 27007KT 10SM FEW100 BKN150 BKN200 26/21 A3009 RMK AO2 SLP179 T02610211=
201006101252 METAR KATL 101252Z 25006KT 8SM BKN140 BKN250 25/21 A3009 RMK AO2 SLP179 T02500211=
201006101152 METAR KATL 101152Z 00000KT 7SM SCT140 BKN200 24/21 A3007 RMK AO2 SLP171 70001 T02390211 10244 20217 51007=
201006101052 METAR KATL 101052Z 00000KT 7SM FEW060 SCT140 BKN200 22/21 A3007 RMK AO2 SLP170 T02220206=
201006100952 METAR KATL 100952Z 29004KT 9SM BKN200 22/20 A3006 RMK AO2 SLP168 T02170200=
201006100852 METAR KATL 100852Z 26003KT 10SM SCT120 BKN180 22/19 A3005 RMK AO2 SLP163 T02220194 56007=
201006100752 METAR KATL 100752Z 25003KT 10SM SCT150 BKN250 23/19 A3005 RMK AO2 SLP164 T02280194=
201006100652 METAR KATL 100652Z 23003KT 8SM BKN150 BKN250 23/19 A3005 RMK AO2 SLP165 T02280194=
201006100552 METAR KATL 100552Z 02005KT 10SM SCT150 BKN250 24/18 A3007 RMK AO2 SLP170 60001 T02390183 10283 20239 58007=
201006100452 METAR KATL 100452Z 36009KT 9SM SCT050 BKN120 BKN250 25/22 A3009 RMK AO2 RAB14E36 SLP179 P0000 T02500222 403170211=
201006100352 METAR KATL 100352Z 29003KT 10SM FEW040 SCT110 BKN200 26/23 A3008 RMK AO2 SLP176 T02560228=
201006100252 METAR KATL 100252Z 30006KT 10SM BKN040 BKN100 OVC200 26/22 A3009 RMK AO2 RAB22E52 SLP178 P0001 60001 T02610222 53011=
201006100152 METAR KATL 100152Z 33003KT 10SM FEW100 BKN200 BKN250 28/21 A3007 RMK AO2 SLP172 T02780206=
201006100052 METAR KATL 100052Z 30004KT 10SM FEW040 BKN200 BKN250 28/21 A3006 RMK AO2 SLP169 CB DSNT W-NW T02780206=
201006092352 METAR KATL 092352Z 27006KT 10SM FEW040TCU BKN100 BKN200 OVC250 28/21 A3006 RMK AO2 SLP168 TCU NW T02830206 10317 20283 53000=
201006092252 METAR KATL 092252Z 26006KT 10SM FEW045 SCT100 BKN200 OVC250 29/21 A3004 RMK AO2 SLP162 T02940206=
201006092152 SPECI KATL 092152Z 25007KT 10SM FEW045 SCT100 BKN200 30/21 A3004 RMK AO2 SLP161 CB DSNT NE T03000206=
201006092052 METAR KATL 092052Z 28007KT 10SM BKN047 BKN060 BKN200 31/21 A3006 RMK AO2 SLP166 CB DSNT N T03060211 56023=
201006091952 METAR KATL 091952Z 25009KT 10SM FEW045 SCT060 BKN200 31/20 A3006 RMK AO2 SLP169 CB DSNT NE T03110200=
201006091852 METAR KATL 091852Z 26011KT 10SM FEW040 SCT060 BKN200 31/21 A3010 RMK AO2 SLP181 CB DSNT NE T03110206=
201006091752 METAR KATL 091752Z 27010KT 10SM FEW040 SCT060 BKN150 29/21 A3013 RMK AO2 SLP191 CB DSNT NE & DSNT NW-N T02940206 10306 20228 58004=
201006091652 METAR KATL 091652Z 27013KT 9SM BKN035 BKN150 BKN200 30/21 A3014 RMK AO2 SLP195 TCU DSNT S T03000211=
201006091552 METAR KATL 091552Z 24011G19KT 10SM BKN030 29/21 A3015 RMK AO2 SLP199 T02890211=
201006091452 METAR KATL 091452Z 27012KT 10SM FEW030 SCT200 28/21 A3014 RMK AO2 SLP195 T02780206 50003=
201006091352 METAR KATL 091352Z 23007KT 10SM FEW200 27/20 A3015 RMK AO2 SLP197 T02670200=
201006091252 METAR KATL 091252Z 22008KT 10SM FEW250 24/19 A3013 RMK AO2 SLP193 T02390189=
201006091152 METAR KATL 091152Z 21009KT 10SM FEW150 SCT250 23/18 A3013 RMK AO2 SLP193 T02280183 10233 20211 53005=
201006091052 METAR KATL 091052Z 19006KT 10SM FEW060 SCT150 BKN250 22/18 A3012 RMK AO2 SLP189 T02170178=
201006090952 METAR KATL 090952Z 14005KT 10SM SCT150 BKN250 22/18 A3012 RMK AO2 SLP188 T02220183=
201006090852 METAR KATL 090852Z 22003KT 10SM SCT250 22/18 A3011 RMK AO2 SLP186 T02220178 53003=
201006090752 METAR KATL 090752Z 18005KT 10SM SCT200 BKN250 23/18 A3010 RMK AO2 SLP183 T02280178=
201006090652 METAR KATL 090652Z 00000KT 10SM BKN250 23/18 A3009 RMK AO2 SLP180 T02330178=
201006090552 METAR KATL 090552Z 00000KT 10SM BKN250 23/18 A3010 RMK AO2 SLP184 T02330178 10272 20233 55001=
201006090452 METAR KATL 090452Z 20005KT 10SM BKN250 24/18 A3010 RMK AO2 SLP182 T02390178 403060189=
201006090352 METAR KATL 090352Z 16005KT 10SM FEW200 BKN250 24/18 A3010 RMK AO2 SLP183 T02440178=
201006090252 METAR KATL 090252Z 14004KT 10SM SCT200 BKN250 26/18 A3011 RMK AO2 SLP186 T02560178 53008=
201006090152 METAR KATL 090152Z 00000KT 10SM BKN200 BKN250 27/17 A3009 RMK AO2 SLP179 T02670167=
201006090052 METAR KATL 090052Z 33003KT 10SM BKN200 BKN250 27/16 A3009 RMK AO2 SLP178 T02720156=
201006082352 METAR KATL 082352Z 28004KT 10SM FEW170 BKN200 BKN250 27/17 A3008 RMK AO2 SLP176 T02720167 10306 20272 55002=
201006082252 METAR KATL 082252Z 00000KT 10SM BKN200 BKN250 29/14 A3007 RMK AO2 SLP174 T02940144=
201006082152 METAR KATL 082152Z VRB03KT 10SM SCT200 BKN250 30/14 A3008 RMK AO2 SLP177 T03000144=
201006082052 METAR KATL 082052Z 28005KT 10SM FEW065 SCT150 BKN200 30/15 A3009 RMK AO2 SLP178 T03000150 58016=
201006081952 METAR KATL 081952Z 00000KT 10SM FEW060 SCT090 SCT150 BKN280 30/16 A3011 RMK AO2 SLP186 T03000161=
201006081852 METAR KATL 081852Z VRB04KT 10SM FEW100 SCT200 BKN280 29/16 A3012 RMK AO2 SLP191 T02890161=
201006081752 METAR KATL 081752Z 24007KT 10SM FEW100 SCT150 SCT280 28/16 A3014 RMK AO2 SLP195 60000 T02780156 10278 20217 58006=
201006081652 METAR KATL 081652Z 00000KT 10SM FEW090 SCT110 BKN150 27/17 A3015 RMK AO2 SLP198 T02670167=
201006081552 METAR KATL 081552Z VRB03KT 10SM FEW050 BKN100 BKN150 24/17 A3016 RMK AO2 RAE07 SLP203 SHRA DSNT SE P0000 T02440167=
201006081452 METAR KATL 081452Z 35004KT 10SM -RA FEW050 BKN100 BKN150 22/17 A3015 RMK AO2 RAB1359E18B45 SLP202 VIS LWR S-SW-W SHRA P0000 60000 T02220172 50014=
201006081352 METAR KATL 081352Z 34003KT 10SM FEW070 BKN100 BKN150 23/16 A3016 RMK AO2 RAB43E52 SLP204 VIS LWR SW-NW SHRA P0000 T02280161=
201006081252 METAR KATL 081252Z 33006KT 10SM FEW100 BKN150 BKN250 22/16 A3014 RMK AO2 SLP198 T02220161=
201006081152 METAR KATL 081152Z 04004KT 10SM BKN150 BKN200 22/14 A3011 RMK AO2 SLP187 T02220144 10222 20189 53017=
201006081052 METAR KATL 081052Z 01004KT 10SM SCT150 BKN250 21/14 A3009 RMK AO2 SLP179 T02110144=
201006080952 METAR KATL 080952Z 32003KT 10SM FEW250 19/15 A3007 RMK AO2 SLP173 T01940150=
201006080852 METAR KATL 080852Z 00000KT 10SM CLR 20/15 A3006 RMK AO2 SLP170 T02000150 53003=
201006080752 METAR KATL 080752Z 32004KT 10SM CLR 20/15 A3005 RMK AO2 SLP167 T02000150=
201006080652 METAR KATL 080652Z 32004KT 10SM CLR 21/14 A3005 RMK AO2 SLP164 T02110144=
201006080552 METAR KATL 080552Z 31003KT 10SM CLR 22/14 A3005 RMK AO2 SLP165 T02170144 10272 20217 58002=
201006080452 METAR KATL 080452Z 33004KT 10SM FEW250 23/14 A3005 RMK AO2 SLP166 T02280139 402890183=
201006080352 METAR KATL 080352Z 02004KT 10SM FEW250 24/13 A3006 RMK AO2 SLP168 T02440128=
201006080252 METAR KATL 080252Z 02006KT 10SM FEW250 25/13 A3005 RMK AO2 SLP167 T02500128 53009=
201006080152 METAR KATL 080152Z 34004KT 10SM FEW250 25/13 A3004 RMK AO2 SLP164 T02500128=
201006080052 METAR KATL 080052Z 34006KT 10SM FEW250 26/13 A3004 RMK AO2 SLP162 T02560128=
201006072352 METAR KATL 072352Z 33009KT 10SM FEW250 27/12 A3003 RMK AO2 SLP159 T02720122 10289 20272 53004=
201006072252 METAR KATL 072252Z 29010KT 10SM FEW250 28/14 A3001 RMK AO2 SLP153 T02780139=
201006072152 METAR KATL 072152Z 34010KT 290V030 10SM FEW060 SCT250 28/13 A3001 RMK AO2 SLP153 T02830128=
201006072052 METAR KATL 072052Z 32012G18KT 10SM FEW060 SCT250 29/14 A3002 RMK AO2 SLP155 T02890139 55006=
201006071952 METAR KATL 071952Z 32005KT 10SM FEW065 SCT200 BKN280 29/14 A3001 RMK AO2 SLP153 T02890144=
201006071852 METAR KATL 071852Z VRB03KT 10SM FEW065 SCT200 BKN280 28/13 A3002 RMK AO2 SLP157 T02830128=
201006071752 METAR KATL 071752Z 34011KT 10SM FEW060 SCT200 SCT280 28/14 A3004 RMK AO2 SLP161 T02780139 10278 20200 58003=
201006071652 METAR KATL 071652Z 01009KT 10SM FEW200 27/12 A3005 RMK AO2 SLP166 T02720122 $=
201006071552 METAR KATL 071552Z 04008G14KT 10SM FEW200 26/12 A3005 RMK AO2 SLP164 T02610122=
201006071452 METAR KATL 071452Z 02008KT 10SM FEW250 25/13 A3004 RMK AO2 SLP164 T02500128 50016=
201006071352 METAR KATL 071352Z 02008KT 10SM FEW250 23/13 A3005 RMK AO2 SLP167 T02330133=
201006071252 METAR KATL 071252Z 02012KT 10SM FEW250 22/14 A3003 RMK AO2 SLP159 T02170139=
201006071152 METAR KATL 071152Z 35010KT 10SM FEW250 20/15 A3000 RMK AO2 SLP148 70003 T02000150 10228 20183 51018=
201006071052 METAR KATL 071052Z 33009KT 10SM SCT250 18/16 A2998 RMK AO2 SLP143 T01830156=
201006070952 METAR KATL 070952Z 33010KT 10SM SCT250 19/17 A2996 RMK AO2 SLP136 T01890167=
201006070852 METAR KATL 070852Z 33008KT 10SM CLR 19/17 A2994 RMK AO2 SLP130 T01940167 53006=
201006070752 METAR KATL 070752Z 33009KT 10SM CLR 21/17 A2993 RMK AO2 SLP125 T02060172=
201006070652 METAR KATL 070652Z 33008KT 10SM CLR 22/18 A2992 RMK AO2 SLP123 T02170178=
201006070552 METAR KATL 070552Z 34008KT 10SM FEW050 23/19 A2992 RMK AO2 SLP122 60002 T02280194 10278 20228 55001=
201006070452 METAR KATL 070452Z 32009KT 10SM FEW050 SCT200 24/21 A2992 RMK AO2 SLP120 T02390206 403000228=
201006070352 METAR KATL 070352Z 32009KT 10SM SCT050 BKN090 BKN200 25/21 A2992 RMK AO2 SLP122 T02500206=
201006070252 METAR KATL 070252Z 29007KT 10SM FEW030 SCT110 BKN250 25/22 A2992 RMK AO2 SLP122 60002 T02500217 51023=
201006070152 METAR KATL 070152Z 30006KT 10SM FEW030 SCT200 BKN250 25/22 A2990 RMK AO2 RAE0059 SLP113 P0000 T02500222=
201006070052 METAR KATL 070052Z 33007KT 7SM -RA SCT030 BKN050 BKN070 OVC200 26/22 A2989 RMK AO2 RAB33 SLP111 P0002 T02610222=
201006062352 METAR KATL 062352Z 27010KT 10SM BKN080 BKN200 28/22 A2985 RMK AO2 SLP099 60001 T02780217 10300 20250 55000=
201006062252 METAR KATL 062252Z 27012KT 10SM FEW030 29/21 A2985 RMK AO2 SLP096 T02890211=
201006062152 METAR KATL 062152Z 27007KT 10SM FEW030 29/22 A2985 RMK AO2 SLP097 T02940217=
201006062052 METAR KATL 062052Z 27009G17KT 10SM SCT035 BKN044 BKN065 29/22 A2985 RMK AO2 SLP098 60001 T02890217 56024=
201006061952 METAR KATL 061952Z 28012KT 10SM SCT024 BKN035 29/23 A2988 RMK AO2 SLP105 T02890228=
201006061852 METAR KATL 061852Z 27009G21KT 9SM SCT030 BKN065 BKN080 BKN150 28/23 A2990 RMK AO2 RAB10E31 SLP115 CB DSNT SE AND S P0001 T02780228=
201006061815 SPECI KATL 061815Z 30016KT 7SM -RA SCT027CB BKN040 OVC055 26/22 A2992 RMK AO2 RAB10 CB SW MOV E SHRA S-W P0000=
201006061815 SPECI KATL 061815Z 30016KT 7SM -RA SCT027CB BKN040 OVC055 26/22 A2992 RMK AO2 RAB10 CB SW MOV E SHRA S-W P0000=
201006061752 METAR KATL 061752Z 29010KT 10SM SCT031 SCT040 BKN060 BKN150 28/22 A2993 RMK AO2 RAE09 SLP123 P0000 60000 T02780222 10283 20233 58011=
201006061652 SPECI KATL 061652Z 26010KT 9SM -RA SCT028 BKN040 OVC060 26/22 A2994 RMK AO2 RAB38 SLP129 SHRA E AND SW-W P0000 T02610217=
201006061626 SPECI KATL 061626Z 28013G20KT 10SM SCT027 BKN042 BKN065 28/22 A2995 RMK AO2=
201006061626 SPECI KATL 061626Z 28013G20KT 10SM SCT027 BKN042 BKN065 28/22 A2995 RMK AO2=
201006061552 METAR KATL 061552Z 27010KT 10SM BKN024 BKN030 BKN037 OVC150 27/21 A2995 RMK AO2 SLP131 T02720211=
201006061452 METAR KATL 061452Z 27009G18KT 10SM BKN019 27/22 A2996 RMK AO2 SLP135 T02670217 58002=
201006061352 METAR KATL 061352Z 26013KT 10SM BKN015 26/21 A2998 RMK AO2 SLP143 T02560211=
201006061311 SPECI KATL 061311Z 28012KT 10SM BKN015 BKN037 BKN200 24/21 A2999 RMK AO2=
201006061311 SPECI KATL 061311Z 28012KT 10SM BKN015 BKN037 BKN200 24/21 A2999 RMK AO2=
201006061252 METAR KATL 061252Z 27014G19KT 10SM SCT015 SCT037 BKN200 24/21 A2998 RMK AO2 SLP143 T02440206=
201006061152 METAR KATL 061152Z 25008KT 10SM SCT010 SCT200 23/21 A2997 RMK AO2 SLP138 T02330206 10233 20228 53010=
201006061052 METAR KATL 061052Z 23007KT 10SM SCT010 SCT200 23/21 A2994 RMK AO2 SLP126 T02280211=
201006061033 SPECI KATL 061033Z 23007KT 10SM SCT010 BKN200 23/21 A2994 RMK AO2=
201006061033 SPECI KATL 061033Z 23007KT 10SM SCT010 BKN200 23/21 A2994 RMK AO2=
201006060952 METAR KATL 060952Z 24008KT 10SM BKN010 OVC200 23/21 A2994 RMK AO2 SLP129 T02330211=
201006060942 SPECI KATL 060942Z 23008KT 10SM BKN010 OVC200 23/21 A2994 RMK AO2=
201006060942 SPECI KATL 060942Z 23008KT 10SM BKN010 OVC200 23/21 A2994 RMK AO2=
201006060852 METAR KATL 060852Z 24009KT 10SM BKN006 OVC200 23/22 A2994 RMK AO2 SLP126 T02330217 53007=
201006060752 METAR KATL 060752Z VRB04KT 10SM BKN006 OVC200 23/22 A2992 RMK AO2 SLP121 T02330217=
201006060701 SPECI KATL 060701Z 20005KT 10SM BKN006 BKN200 23/22 A2989 RMK AO2=
201006060701 SPECI KATL 060701Z 20005KT 10SM BKN006 BKN200 23/22 A2989 RMK AO2=
201006060652 METAR KATL 060652Z 20006KT 10SM SCT006 BKN200 23/22 A2990 RMK AO2 SLP112 T02280217=
201006060635 SPECI KATL 060635Z 19005KT 10SM FEW006 SCT200 23/22 A2990 RMK AO2=
201006060635 SPECI KATL 060635Z 19005KT 10SM FEW006 SCT200 23/22 A2990 RMK AO2=
201006060552 METAR KATL 060552Z 23004KT 10SM SCT200 23/22 A2992 RMK AO2 SLP119 T02330217 10272 20233 58020=
201006060452 METAR KATL 060452Z 20005KT 10SM SCT200 23/22 A2995 RMK AO2 SLP129 T02330217 403110217=
201006060352 METAR KATL 060352Z 23005KT 10SM FEW020 SCT200 BKN250 24/21 A2997 RMK AO2 SLP138 OCNL LTG DSNT N T02440211=
201006060252 METAR KATL 060252Z 21009KT 10SM FEW080 BKN150 OVC200 24/21 A2998 RMK AO2 SLP139 OCNL LTG DSNT NW T02440211 51007=
201006060152 METAR KATL 060152Z 20009KT 10SM FEW080 BKN150 OVC200 26/21 A2997 RMK AO2 SLP137 T02560206=
201006060052 METAR KATL 060052Z 21007KT 10SM FEW080 BKN200 BKN250 26/21 A2997 RMK AO2 SLP138 CB DSNT N T02610211=
201006052352 METAR KATL 052352Z 21008KT 10SM SCT150 BKN200 27/22 A2995 RMK AO2 SLP133 T02720217 10311 20272 55003=
201006052252 METAR KATL 052252Z 21010KT 10SM FEW040 BKN150 BKN200 29/22 A2993 RMK AO2 SLP124 T02940222=
201006052152 METAR KATL 052152Z 22007KT 10SM FEW040 SCT150 BKN200 29/21 A2991 RMK AO2 SLP117 T02940211=
201006052052 METAR KATL 052052Z 26009G16KT 10SM SCT047 BKN200 31/21 A2997 RMK AO2 SLP136 CB DSNT SE-SW T03060206 55009=
201006051952 METAR KATL 051952Z 27010KT 10SM SCT043 BKN250 31/21 A2996 RMK AO2 SLP136 T03110206=
201006051852 METAR KATL 051852Z 24009G17KT 10SM SCT043 31/21 A2997 RMK AO2 SLP139 T03060206=
201006051752 METAR KATL 051752Z 24008G18KT 10SM SCT038 BKN050 31/22 A2999 RMK AO2 SLP145 T03060217 10306 20233 58004=
201006051652 METAR KATL 051652Z 23010G17KT 10SM SCT039 BKN042 BKN100 BKN150 29/21 A3000 RMK AO2 SLP149 T02940206=
201006051552 METAR KATL 051552Z 22010G16KT 10SM SCT030 BKN150 28/21 A3001 RMK AO2 SLP152 T02780211=
201006051452 METAR KATL 051452Z 23008KT 10SM SCT026 SCT120 27/21 A3000 RMK AO2 SLP150 T02720211 50008=
201006051352 METAR KATL 051352Z 24008KT 10SM FEW010 SCT150 27/22 A3000 RMK AO2 SLP150 T02670222=
201006051252 METAR KATL 051252Z 24006KT 10SM FEW005 SCT200 24/22 A2999 RMK AO2 SLP147 T02440222=
201006051152 METAR KATL 051152Z VRB03KT 9SM SCT005 SCT200 SCT250 23/22 A2998 RMK AO2 SLP143 70110 T02330217 10233 20217 53010=
201006051138 SPECI KATL 051138Z 00000KT 8SM FEW005 SCT200 SCT250 23/22 A2997 RMK AO2=
201006051138 SPECI KATL 051138Z 00000KT 8SM FEW005 SCT200 SCT250 23/22 A2997 RMK AO2=
201006051052 METAR KATL 051052Z 00000KT 9SM FEW200 SCT250 22/21 A2997 RMK AO2 SLP139 T02220211=
201006050952 METAR KATL 050952Z 00000KT 9SM FEW200 22/21 A2995 RMK AO2 SLP134 T02170211=
201006050852 METAR KATL 050852Z 00000KT 8SM CLR 22/21 A2995 RMK AO2 SLP133 T02220211 55001=
201006050752 METAR KATL 050752Z 20003KT 7SM SCT200 22/21 A2994 RMK AO2 SLP128 T02220211=
201006050652 METAR KATL 050652Z 10004KT 10SM SCT250 23/22 A2994 RMK AO2 SLP127 T02280217=
201006050552 METAR KATL 050552Z 00000KT 10SM BKN250 23/22 A2995 RMK AO2 SLP132 T02280217 10244 20222 58008=
201006050452 METAR KATL 050452Z 17004KT 9SM FEW200 BKN250 23/22 A2996 RMK AO2 SLP135 T02280217 402940211=
201006050352 METAR KATL 050352Z 15003KT 10SM FEW150 BKN250 23/22 A2997 RMK AO2 SLP140 T02330222=
201006050252 METAR KATL 050252Z 14003KT 10SM CLR 23/22 A2998 RMK AO2 SLP141 T02330222 51015=
201006050152 METAR KATL 050152Z 00000KT 10SM FEW200 SCT250 24/22 A2996 RMK AO2 SLP136 T02390222=
201006050052 METAR KATL 050052Z 19003KT 10SM FEW014 SCT200 SCT250 24/22 A2995 RMK AO2 SLP133 T02390222=
201006042352 METAR KATL 042352Z 00000KT 10SM FEW010 SCT200 BKN250 24/22 A2993 RMK AO2 SLP126 CB DSNT N AND NE 60110 T02440217 10294 20217 53002=
201006042252 METAR KATL 042252Z VRB03KT 10SM FEW090 SCT200 BKN250 24/22 A2991 RMK AO2 RAE16 SLP121 CB DSNT NE P0002 T02440217=
201006042152 METAR KATL 042152Z 13006KT 5SM RA BR FEW005 SCT035 BKN060 BKN150 22/21 A2992 RMK AO2 TSE51 SLP125 TS DSIPTD TCU DSNT NW P0108 T02220211=
201006042142 SPECI KATL 042142Z 15003KT 3SM +TSRA BR FEW005 SCT020CB BKN035 OVC150 22/21 A2994 RMK AO2 OCNL LTGICCG OHD-NE TS OHD-NE MOV NE P0102=
201006042142 SPECI KATL 042142Z 15003KT 3SM +TSRA BR FEW005 SCT020CB BKN035 OVC150 22/21 A2994 RMK AO2 OCNL LTGICCG OHD-NE TS OHD-NE MOV NE P0102=
201006042119 SPECI KATL 042119Z 26007KT 1SM R09R/2600VP6000FT +TSRA BR FEW005 BKN020CB OVC035 22/21 A2995 RMK AO2 FRQ LTGICCG OHD-ALQDS TS OHD-ALQDS MOV NE P0019=
201006042119 SPECI KATL 042119Z 26007KT 1SM R09R/2600VP6000FT +TSRA BR FEW005 BKN020CB OVC035 22/21 A2995 RMK AO2 FRQ LTGICCG OHD-ALQDS TS OHD-ALQDS MOV NE P0019=
201006042114 SPECI KATL 042114Z 23005KT 1 1/2SM R09R/4500VP6000FT +TSRA BR FEW005 BKN020CB OVC035 22/21 A2995 RMK AO2 PRESRR FRQ LTGICCG NE-OHD-SW TS NE-OHD-SW MOV NE P0006=
201006042114 SPECI KATL 042114Z 23005KT 1 1/2SM R09R/4500VP6000FT +TSRA BR FEW005 BKN020CB OVC035 22/21 A2995 RMK AO2 PRESRR FRQ LTGICCG NE-OHD-SW TS NE-OHD-SW MOV NE P0006=
201006042107 SPECI KATL 042107Z 19009G21KT 8SM -TSRA FEW005 BKN020CB OVC035 23/21 A2993 RMK AO2 VIS LWR NW-NE FRQ LTGICCG NW-NE TS NW-NE MOV NE P0001=
201006042107 SPECI KATL 042107Z 19009G21KT 8SM -TSRA FEW005 BKN020CB OVC035 23/21 A2993 RMK AO2 VIS LWR NW-NE FRQ LTGICCG NW-NE TS NW-NE MOV NE P0001=
201006042058 SPECI KATL 042058Z 17016G22KT 10SM -TSRA FEW020CB BKN030 OVC040 23/21 A2992 RMK AO2 FRQ LTGICCG SW-OHD-NE TS SW-OHD-NE MOV NE P0000=
201006042058 SPECI KATL 042058Z 17016G22KT 10SM -TSRA FEW020CB BKN030 OVC040 23/21 A2992 RMK AO2 FRQ LTGICCG SW-OHD-NE TS SW-OHD-NE MOV NE P0000=
201006042052 METAR KATL 042052Z 16018G22KT 10SM -TSRA FEW005 BKN017CB OVC030 23/21 A2992 RMK AO2 TSB28RAB10 SLP124 FRQ LTGICCG E-SE-S & SW TS VC E-SE-S & VC SW MOV NE P0000 60000 T02330211 55007=
201006042047 SPECI KATL 042047Z 17020KT 10SM -TSRA FEW005 BKN017CB OVC030 25/22 A2993 RMK AO2 TSB28RAB10 FRQ LTGICCG E-SE-S TS VC E-SE-S MOV NE P0000=
201006042047 SPECI KATL 042047Z 17020KT 10SM -TSRA FEW005 BKN017CB OVC030 25/22 A2993 RMK AO2 TSB28RAB10 FRQ LTGICCG E-SE-S TS VC E-SE-S MOV NE P0000=
201006042028 SPECI KATL 042028Z 27005KT 10SM -TSRA FEW025CB BKN040 BKN150 BKN250 27/21 A2992 RMK AO2 TSB28RAB10 FRQ LTGICCG SE TS VC SE MOV NE P0000=
201006042028 SPECI KATL 042028Z 27005KT 10SM -TSRA FEW025CB BKN040 BKN150 BKN250 27/21 A2992 RMK AO2 TSB28RAB10 FRQ LTGICCG SE TS VC SE MOV NE P0000=
201006041952 METAR KATL 041952Z 00000KT 10SM FEW030 SCT065 BKN150 BKN250 28/21 A2992 RMK AO2 SLP120 CB DSNT SE-S CBMAM DSNT NW TCU DSNT N-NE & DSNT SE SHRA DSNT SE-S & VC SW-W T02780211=
201006041852 METAR KATL 041852Z 25004KT 10SM FEW035 BKN050 BKN150 BKN250 29/20 A2993 RMK AO2 SLP125 T02890200=
201006041752 METAR KATL 041752Z 00000KT 10SM FEW030 SCT040 BKN150 28/21 A2994 RMK AO2 SLP129 60000 T02780206 10283 20222 58008=
201006041652 METAR KATL 041652Z 20005KT 10SM FEW025 SCT030 BKN150 27/21 A2997 RMK AO2 SLP138 TCU DSNT NW T02670206=
201006041650 SPECI KATL 041650Z 20005KT 10SM FEW025 SCT030 BKN150 27/21 A2997 RMK AO2 TCU DSNT NW=
201006041650 SPECI KATL 041650Z 20005KT 10SM FEW025 SCT030 BKN150 27/21 A2997 RMK AO2 TCU DSNT NW=
201006041628 SPECI KATL 041628Z 26004KT 10SM FEW020 BKN025 BKN150 27/21 A2997 RMK AO2=
201006041628 SPECI KATL 041628Z 26004KT 10SM FEW020 BKN025 BKN150 27/21 A2997 RMK AO2=
201006041552 METAR KATL 041552Z 00000KT 10SM FEW020 SCT070 BKN150 26/21 A2997 RMK AO2 RAE01B21E31 SLP138 P0000 T02560211=
201006041452 METAR KATL 041452Z 16003KT 10SM -RA FEW015 SCT080 OVC150 24/21 A2997 RMK AO2 RAB48 SLP140 BINOVC N P0000 60000 T02440211 50002=
201006041352 METAR KATL 041352Z 19005KT 10SM FEW015 SCT080 SCT150 BKN180 24/21 A2997 RMK AO2 SLP140 T02390206=
201006041252 METAR KATL 041252Z 21003KT 10SM SCT020 BKN050 BKN150 BKN250 23/21 A2998 RMK AO2 SLP140 T02330206=
201006041152 METAR KATL 041152Z 23004KT 10SM SCT090 BKN150 BKN250 23/21 A2996 RMK AO2 SLP136 T02280206 10228 20211 52018=
201006041052 METAR KATL 041052Z 21003KT 8SM FEW022 SCT100 BKN180 21/20 A2995 RMK AO2 SLP132 T02110200=
201006040952 METAR KATL 040952Z 00000KT 10SM SCT180 BKN250 22/20 A2992 RMK AO2 SLP122 T02170200=
201006040852 METAR KATL 040852Z 20003KT 10SM SCT180 22/20 A2991 RMK AO2 SLP117 T02170200 53001=
201006040752 METAR KATL 040752Z 00000KT 10SM FEW007 SCT150 22/20 A2990 RMK AO2 SLP113 T02170200=
201006040737 SPECI KATL 040737Z 00000KT 10SM FEW007 SCT150 SCT250 22/20 A2989 RMK AO2=
201006040737 SPECI KATL 040737Z 00000KT 10SM FEW007 SCT150 SCT250 22/20 A2989 RMK AO2=
201006040711 SPECI KATL 040711Z 00000KT 10SM BKN007 22/20 A2990 RMK AO2=
201006040711 SPECI KATL 040711Z 00000KT 10SM BKN007 22/20 A2990 RMK AO2=
201006040703 SPECI KATL 040703Z 21003KT 10SM SCT007 22/20 A2990 RMK AO2=
201006040703 SPECI KATL 040703Z 21003KT 10SM SCT007 22/20 A2990 RMK AO2=
201006040652 METAR KATL 040652Z 22003KT 10SM FEW040 BKN250 22/20 A2990 RMK AO2 SLP114 T02170200=
201006040552 METAR KATL 040552Z 19003KT 10SM FEW040 SCT250 22/20 A2990 RMK AO2 SLP116 T02220200 10278 20222 51001=
201006040452 METAR KATL 040452Z 22004KT 10SM FEW040 BKN250 23/20 A2990 RMK AO2 SLP115 T02280200 403060206=
201006040352 METAR KATL 040352Z 20007KT 10SM FEW040 BKN250 24/20 A2991 RMK AO2 SLP118 T02390200=
201006040252 METAR KATL 040252Z 22006KT 10SM FEW040 BKN250 24/21 A2990 RMK AO2 SLP116 T02440206 53015=
201006040152 METAR KATL 040152Z 20008KT 10SM BKN040 BKN250 26/21 A2988 RMK AO2 SLP110 T02560206=
201006040052 METAR KATL 040052Z 22004KT 10SM FEW040 BKN250 27/21 A2986 RMK AO2 SLP103 T02670206=
201006032352 METAR KATL 032352Z 20007KT 10SM FEW040 BKN250 28/21 A2986 RMK AO2 SLP099 T02780206 10306 20278 55000=
201006032252 METAR KATL 032252Z 19010KT 10SM FEW040 SCT250 29/19 A2985 RMK AO2 SLP097 T02890194=
201006032152 METAR KATL 032152Z 19009KT 10SM FEW045TCU 29/20 A2985 RMK AO2 SLP099 TCU NE AND NW T02940200=
201006032052 METAR KATL 032052Z 21004KT 10SM SCT047TCU SCT100 29/19 A2986 RMK AO2 SLP099 TCU E-SE & W T02890189 56014=
201006031952 METAR KATL 031952Z 19004KT 10SM SCT045 SCT100 29/19 A2987 RMK AO2 SLP104 T02940189=
201006031852 METAR KATL 031852Z 23005KT 10SM FEW040 SCT100 29/19 A2988 RMK AO2 SLP108 T02940189=
201006031752 METAR KATL 031752Z 34005KT 10SM SCT038 29/19 A2990 RMK AO2 SLP114 T02890194 10289 20217 58012=
201006031652 METAR KATL 031652Z 00000KT 10SM FEW030 28/20 A2991 RMK AO2 SLP119 T02780200=
201006031604 SPECI KATL 031604Z VRB03KT 9SM SCT025 SCT030 26/20 A2993 RMK AO2=
201006031604 SPECI KATL 031604Z VRB03KT 9SM SCT025 SCT030 26/20 A2993 RMK AO2=
201006031552 METAR KATL 031552Z 30006KT 9SM BKN025 26/20 A2993 RMK AO2 SLP126 T02560200=
201006031452 METAR KATL 031452Z 33007KT 10SM FEW015 BKN020 BKN150 24/19 A2993 RMK AO2 SLP127 T02440194 53010=
201006031430 SPECI KATL 031430Z 31007KT 10SM BKN016 BKN150 24/20 A2993 RMK AO2=
201006031430 SPECI KATL 031430Z 31007KT 10SM BKN016 BKN150 24/20 A2993 RMK AO2=
201006031352 METAR KATL 031352Z 33008KT 7SM BKN012 23/19 A2992 RMK AO2 SLP123 T02330194=
201006031333 SPECI KATL 031333Z 27006KT 6SM HZ BKN012 23/20 A2992 RMK AO2=
201006031333 SPECI KATL 031333Z 27006KT 6SM HZ BKN012 23/20 A2992 RMK AO2=
201006031252 METAR KATL 031252Z 26007KT 3SM SCT008 BKN012 BKN250 22/20 A2991 RMK AO2 SFC VIS 7 SLP121 T02170200=
201006031152 METAR KATL 031152Z 28006KT 3SM BR BKN006 OVC010 22/20 A2990 RMK AO2 SFC VIS 5 SLP117 T02170200 10217 20206 51013=
201006031058 SPECI KATL 031058Z 27006KT 3SM BR BKN006 OVC010 21/20 A2990 RMK AO2 SFC VIS 4=
201006031058 SPECI KATL 031058Z 27006KT 3SM BR BKN006 OVC010 21/20 A2990 RMK AO2 SFC VIS 4=
201006031052 METAR KATL 031052Z 27005KT 5SM BR BKN006 OVC019 21/20 A2990 RMK AO2 SLP116 T02110200=
201006030952 METAR KATL 030952Z 29006KT 6SM BR BKN007 OVC012 21/20 A2989 RMK AO2 SLP110 T02110200=
201006030852 METAR KATL 030852Z 23006KT 6SM BR BKN005 OVC007 21/19 A2986 RMK AO2 SLP102 T02060194 53005=
201006030752 METAR KATL 030752Z 22003KT 7SM SCT005 BKN009 21/19 A2985 RMK AO2 SLP099 T02060194=
201006030652 METAR KATL 030652Z 22004KT 1SM BR BKN004 BKN007 21/19 A2985 RMK AO2 SFC VIS 4 SLP097 T02060194=
201006030620 SPECI KATL 030620Z 00000KT 7SM BKN004 BKN007 21/19 A2986 RMK AO2=
201006030620 SPECI KATL 030620Z 00000KT 7SM BKN004 BKN007 21/19 A2986 RMK AO2=
201006030607 SPECI KATL 030607Z 00000KT 7SM SCT006 SCT110 21/19 A2985 RMK AO2=
201006030607 SPECI KATL 030607Z 00000KT 7SM SCT006 SCT110 21/19 A2985 RMK AO2=
201006030552 METAR KATL 030552Z 00000KT 7SM FEW040 SCT110 21/19 A2985 RMK AO2 SLP097 60000 T02060194 10222 20206 58016=
201006030452 METAR KATL 030452Z 21003KT 7SM SCT085 SCT110 21/19 A2986 RMK AO2 SLP100 T02060194 403000206=
201006030352 METAR KATL 030352Z 00000KT 10SM SCT075 SCT120 22/19 A2989 RMK AO2 RAE0258 SLP113 P0000 T02170194=
201006030252 METAR KATL 030252Z 00000KT 9SM -RA SCT022 BKN045 OVC200 22/19 A2989 RMK AO2 TSE28 SLP114 P0000 60000 T02220194 58003=
201006030228 SPECI KATL 030228Z 32007KT 9SM -RA FEW010 SCT022 BKN045 OVC200 22/19 A2990 RMK AO2 TSE28 OCNL LTGIC DSNT NW TS DSIPTD CB DSNT NW P0000=
201006030228 SPECI KATL 030228Z 32007KT 9SM -RA FEW010 SCT022 BKN045 OVC200 22/19 A2990 RMK AO2 TSE28 OCNL LTGIC DSNT NW TS DSIPTD CB DSNT NW P0000=
201006030152 METAR KATL 030152Z COR 26007KT 9SM -TSRA FEW009 SCT035CB BKN050 OVC150 21/19 A2990 RMK AO2 TSB03 SLP119 FRQ LTGIC N-NE & NW-N OCNL LTGIC DSNT NW TS N-NE & NW-N MOV SE CB DSNT NW P0000 T02110194=
201006030104 SPECI KATL 030104Z 22005KT 9SM -TSRA FEW010 SCT034CB BKN049 OVC150 22/19 A2991 RMK AO2 TSB03 OCNL LTGIC N TS N MOV E CB N MOV E CB DSNT SE & SW P0000=
201006030104 SPECI KATL 030104Z 22005KT 9SM -TSRA FEW010 SCT034CB BKN049 OVC150 22/19 A2991 RMK AO2 TSB03 OCNL LTGIC N TS N MOV E CB N MOV E CB DSNT SE & SW P0000=
201006030052 METAR KATL 030052Z 20007KT 9SM -RA FEW010 SCT030 BKN065 OVC150 22/19 A2990 RMK AO2 TSE36RAE2357B52 SLP119 OCNL LTGIC DSNT E-S & NW CB DSNT E-S & NW SHRA DSNT NW P0000 T02170189=
201006030036 SPECI KATL 030036Z 20006KT 9SM FEW010 SCT030CB BKN070 OVC150 22/19 A2990 RMK AO2 TSE36RAE2357 CONS LTGICCGCA DSNT E-S CB E-S-SW CB DSNT E-S-SW AND NW P0000=
201006030036 SPECI KATL 030036Z 20006KT 9SM FEW010 SCT030CB BKN070 OVC150 22/19 A2990 RMK AO2 TSE36RAE2357 CONS LTGICCGCA DSNT E-S CB E-S-SW CB DSNT E-S-SW AND NW P0000=
201006022352 METAR KATL 022352Z 20012G17KT 8SM -TSRA SCT030CB BKN065 BKN090 OVC150 22/19 A2990 RMK AO2 RAE10B32 SLP119 CONS LTGICCGCA NE-SE-SW TS NE-SE-SW MOV SE P0000 60000 T02220194 10300 20222 53019=
201006022321 SPECI KATL 022321Z 14008KT 8SM TS SCT020CB BKN036 BKN070 23/18 A2988 RMK AO2 RAE10 PRESRR CONS LTGICCGCA E-SE-S-OHD-SW-W TS E-SE-S-OHD-SW-W MOV SE SHRA SE-SW P0000=
201006022321 SPECI KATL 022321Z 14008KT 8SM TS SCT020CB BKN036 BKN070 23/18 A2988 RMK AO2 RAE10 PRESRR CONS LTGICCGCA E-SE-S-OHD-SW-W TS E-SE-S-OHD-SW-W MOV SE SHRA SE-SW P0000=
201006022252 METAR KATL 022252Z COR 32012KT 6SM -TSRA SCT025CB BKN039 BKN070 23/19 A2986 RMK AO2 PK WND 34027/2218 WSHFT 2209 TSB11RAB48 SLP102 FRQ LTGICCG SE-SW OCNL LTGIC W-NW TS SE-SW & W-NW MOV SE SHRA SE-SW & W-N P0000 T0=
201006022241 SPECI KATL 022241Z 31016G21KT 6SM TS HZ SCT020CB BKN039 BKN070 24/18 A2986 RMK AO2 PK WND 34027/2218 WSHFT 2209 TSB11 OCNL LTGIC S & NW TS S & NW MOV SE CB SE-SW & NW MOV SE SHRA S AND W-N=
201006022241 SPECI KATL 022241Z 31016G21KT 6SM TS HZ SCT020CB BKN039 BKN070 24/18 A2986 RMK AO2 PK WND 34027/2218 WSHFT 2209 TSB11 OCNL LTGIC S & NW TS S & NW MOV SE CB SE-SW & NW MOV SE SHRA S AND W-N=
201006022229 SPECI KATL 022229Z 32017KT 6SM TS HZ SCT020CB BKN039 BKN048 24/18 A2986 RMK AO2 PK WND 34027/2218 WSHFT 2209 TSB11 OCNL LTGICCG NW TS NW MOV SE CB DSNT E=
201006022229 SPECI KATL 022229Z 32017KT 6SM TS HZ SCT020CB BKN039 BKN048 24/18 A2986 RMK AO2 PK WND 34027/2218 WSHFT 2209 TSB11 OCNL LTGICCG NW TS NW MOV SE CB DSNT E=
201006022212 SPECI KATL 022212Z 35021G24KT 6SM TS HZ SCT020CB SCT042 BKN070 BKN250 27/19 A2985 RMK AO2 TSB11 OCNL LTGICCG NW TS NW MOV SE CB DSNT E=
201006022212 SPECI KATL 022212Z 35021G24KT 6SM TS HZ SCT020CB SCT042 BKN070 BKN250 27/19 A2985 RMK AO2 TSB11 OCNL LTGICCG NW TS NW MOV SE CB DSNT E=
201006022152 METAR KATL 022152Z 28010KT 6SM HZ FEW012CB SCT040 BKN070 BKN250 29/20 A2985 RMK AO2 SLP097 CB NW MOV SE CB DSNT NE & SE T02940200=
201006022052 METAR KATL 022052Z 26007KT 9SM FEW040 SCT060 SCT250 30/20 A2985 RMK AO2 SLP097 CB DSNT NE & SE & NW TCU DSNT SE-S T03000200 56025=
201006021952 METAR KATL 021952Z 23008KT 10SM FEW035TCU SCT065 SCT250 29/21 A2986 RMK AO2 SLP102 CB DSNT NE & SE & NW TCU NE-E & SW T02940206=
201006021852 METAR KATL 021852Z 24007KT 9SM SCT030 SCT250 29/21 A2989 RMK AO2 SLP112 CB DSNT N TCU DSNT SE T02890206=
201006021752 METAR KATL 021752Z 23006KT 9SM BKN030 28/21 A2992 RMK AO2 SLP123 TCU DSNT NW T02780206 10283 20206 58010=
201006021652 METAR KATL 021652Z VRB03KT 10SM SCT023 27/21 A2994 RMK AO2 SLP128 T02670206=
201006021625 SPECI KATL 021625Z VRB03KT 10SM SCT019 27/21 A2995 RMK AO2=
201006021625 SPECI KATL 021625Z VRB03KT 10SM SCT019 27/21 A2995 RMK AO2=
201006021552 METAR KATL 021552Z 27004KT 9SM BKN015 25/21 A2995 RMK AO2 SLP134 T02500211=
201006021547 SPECI KATL 021547Z VRB04KT 9SM BKN015 26/21 A2995 RMK AO2=
201006021547 SPECI KATL 021547Z VRB04KT 9SM BKN015 26/21 A2995 RMK AO2=
201006021455 SPECI KATL 021455Z 21006KT 6SM BR BKN011 OVC015 23/21 A2997 RMK AO2=
201006021455 SPECI KATL 021455Z 21006KT 6SM BR BKN011 OVC015 23/21 A2997 RMK AO2=
201006021452 METAR KATL 021452Z 21005KT 6SM BR BKN009 BKN012 OVC015 23/21 A2997 RMK AO2 SLP139 T02330211 51003=
201006021352 METAR KATL 021352Z 23003KT 3SM BR FEW002 BKN005 OVC007 22/21 A2997 RMK AO2 SFC VIS 5 SLP139 T02220211=
201006021330 SPECI KATL 021330Z 25004KT 3SM BR FEW002 BKN004 22/21 A2997 RMK AO2 SFC VIS 5=
201006021330 SPECI KATL 021330Z 25004KT 3SM BR FEW002 BKN004 22/21 A2997 RMK AO2 SFC VIS 5=
201006021316 SPECI KATL 021316Z 25004KT 2SM BR OVC004 22/21 A2997 RMK AO2 SFC VIS 4=
201006021316 SPECI KATL 021316Z 25004KT 2SM BR OVC004 22/21 A2997 RMK AO2 SFC VIS 4=
201006021252 METAR KATL 021252Z 22004KT 1/4SM R09R/3000VP6000FT FG OVC002 21/21 A2997 RMK AO2 SFC VIS 1/2 SLP140 T02110206=
201006021207 SPECI KATL 021207Z 24005KT 1/4SM R09R/3500VP6000FT BR BKN002 BKN049 21/20 A2996 RMK AO2 SFC VIS 1 1/4=
201006021207 SPECI KATL 021207Z 24005KT 1/4SM R09R/3500VP6000FT BR BKN002 BKN049 21/20 A2996 RMK AO2 SFC VIS 1 1/4=
201006021203 SPECI KATL 021203Z 24005KT 3/4SM R09R/3500VP6000FT BR OVC002 21/20 A2996 RMK AO2 SFC VIS 2=
201006021203 SPECI KATL 021203Z 24005KT 3/4SM R09R/3500VP6000FT BR OVC002 21/20 A2996 RMK AO2 SFC VIS 2=
201006021152 METAR KATL 021152Z 26004KT 2SM BR FEW002 SCT049 SCT120 21/21 A2996 RMK AO2 SFC VIS 4 SLP136 70050 T02110206 10211 20206 52016=
201006021056 SPECI KATL 021056Z 28003KT 2SM BR FEW002 21/20 A2994 RMK AO2=
201006021056 SPECI KATL 021056Z 28003KT 2SM BR FEW002 21/20 A2994 RMK AO2=
201006021052 METAR KATL 021052Z 28004KT 3/4SM R09R/6000VP6000FT BR FEW002 SCT120 21/20 A2994 RMK AO2 TWR VIS 2 SLP130 T02060200 $=
201006021035 SPECI KATL 021035Z 00000KT 1/4SM R09R/2200V4000FT FG VV001 21/20 A2994 RMK AO2 TWR VIS 1/4 $=
201006021035 SPECI KATL 021035Z 00000KT 1/4SM R09R/2200V4000FT FG VV001 21/20 A2994 RMK AO2 TWR VIS 1/4 $=
201006021005 SPECI KATL 021005Z 24003KT 1/4SM R09R/3000VP6000FT BR SCT002 BKN004 21/20 A2993 RMK AO2 SFC VIS 1 $=
201006021005 SPECI KATL 021005Z 24003KT 1/4SM R09R/3000VP6000FT BR SCT002 BKN004 21/20 A2993 RMK AO2 SFC VIS 1 $=
201006020952 METAR KATL 020952Z 00000KT 5SM BR SCT004 BKN006 21/20 A2993 RMK AO2 SLP124 T02110200 $=
201006020912 SPECI KATL 020912Z 00000KT 7SM BKN008 21/19 A2991 RMK AO2 $=
201006020912 SPECI KATL 020912Z 00000KT 7SM BKN008 21/19 A2991 RMK AO2 $=
201006020852 METAR KATL 020852Z 00000KT 7SM CLR 21/19 A2991 RMK AO2 SLP118 T02060194 55002 $=
201006020752 METAR KATL 020752Z 22003KT 7SM CLR 21/19 A2989 RMK AO2 SLP114 T02060194 $=
201006020652 METAR KATL 020652Z 00000KT 7SM SCT180 21/19 A2991 RMK AO2 SLP117 T02110194 $=
201006020552 METAR KATL 020552Z 00000KT 7SM FEW010 BKN200 21/20 A2992 RMK AO2 SLP121 60000 T02110200 10239 20206 58014 $=
201006020452 METAR KATL 020452Z 00000KT 8SM FEW060 BKN200 22/21 A2994 RMK AO2 SLP129 T02170206 402940200 $=
201006020352 METAR KATL 020352Z 00000KT 7SM SCT060 BKN200 22/21 A2995 RMK AO2 SLP133 T02170206 $=
201006020252 METAR KATL 020252Z 27005KT 8SM FEW020 SCT045 SCT060 BKN200 22/21 A2996 RMK AO2 RAE39 SLP136 P0000 60000 T02170206 53007 $=
201006020152 METAR KATL 020152Z 29006KT 8SM -RA FEW005 SCT020 BKN050 OVC130 23/21 A2995 RMK AO2 TSE20 SLP133 OCNL LTGIC DSNT N-NE AND NW-N CB DSNT N-NE AND NW-N P0000 T02280211 $=
201006020134 SPECI KATL 020134Z 29007KT 8SM -RA FEW005 SCT035 BKN050 BKN130 23/22 A2994 RMK AO2 TSE20 OCNL LTGIC DSNT N-NE AND NW-N CB DSNT N-NE AND NW-N P0000 $=
201006020134 SPECI KATL 020134Z 29007KT 8SM -RA FEW005 SCT035 BKN050 BKN130 23/22 A2994 RMK AO2 TSE20 OCNL LTGIC DSNT N-NE AND NW-N CB DSNT N-NE AND NW-N P0000 $=
201006020121 SPECI KATL 020121Z 26004KT 8SM -RA SCT035 BKN050 BKN130 23/22 A2994 RMK AO2 TSE20 FRQ LTGIC DSNT N-NE AND NW-N CB DSNT N-NE AND NW-N P0000 $=
201006020121 SPECI KATL 020121Z 26004KT 8SM -RA SCT035 BKN050 BKN130 23/22 A2994 RMK AO2 TSE20 FRQ LTGIC DSNT N-NE AND NW-N CB DSNT N-NE AND NW-N P0000 $=
201006020049 METAR KATL 020049Z 25004KT 6SM -TSRA BR FEW005 SCT024CB BKN050 BKN130 24/22 A2994=
201006020048 SPECI KATL 020048Z 25005KT 6SM -TSRA BR FEW005 SCT024CB BKN050 BKN130 24/22 A2994 RMK AO2 TSB48RAB07E22B48 OCNL LTGIC NW TS NW MOV SE CB NW-N MOV SE P0000 $=
201006020048 SPECI KATL 020048Z 25005KT 6SM -TSRA BR FEW005 SCT024CB BKN050 BKN130 24/22 A2994 RMK AO2 TSB48RAB07E22B48 OCNL LTGIC NW TS NW MOV SE CB NW-N MOV SE P0000 $=
201006012352 METAR KATL 012352Z 22005KT 8SM FEW009 BKN024CB BKN060 BKN130 23/22 A2994 RMK AO2 PK WND 08028/2253 WSHFT 2243 TSE52RAE52 SLP129 CB OHD-ALQDS MOV S P0040 60040 T02330217 10294 20228 53001 $=
201006012311 SPECI KATL 012311Z 11007G21KT 3SM R09R/2200VP6000FT -TSRA FEW005 BKN028CB BKN045 23/19 A2993 RMK AO2 PK WND 08028/2253 WSHFT 2243 SFC VIS 4 OCNL LTGICCG ALQDS TS ALQDS MOV NW CB OHD-ALQDS P0013 $=
201006012311 SPECI KATL 012311Z 11007G21KT 3SM R09R/2200VP6000FT -TSRA FEW005 BKN028CB BKN045 23/19 A2993 RMK AO2 PK WND 08028/2253 WSHFT 2243 SFC VIS 4 OCNL LTGICCG ALQDS TS ALQDS MOV NW CB OHD-ALQDS P0013 $=
201006012252 SPECI KATL 012252Z COR 08019G26KT 1SM +TSRA BKN025CB BKN039 BKN060 24/18 A2994 RMK AO2 PK WND 08026/2247 SFC VIS 2 TSB34RAB31 SLP131 OCNL LTGICCG ALQDS TS OHD-ALQDS MOV NW CB OHD-ALQDS VIS 1/2 NE-SE P0007 T0239018=
201006012244 SPECI KATL 012244Z 10010G18KT 3SM +TSRA BKN042CB BKN050 BKN065 27/19 A2994 RMK AO2 TSB34RAB31 FRQ LTGICCG E TS OHD-ALQDS MOV NW CB OHD-ALQDS VIS 1/2 NE-SE P0000=
201006012244 SPECI KATL 012244Z 10010G18KT 3SM +TSRA BKN042CB BKN050 BKN065 27/19 A2994 RMK AO2 TSB34RAB31 FRQ LTGICCG E TS OHD-ALQDS MOV NW CB OHD-ALQDS VIS 1/2 NE-SE P0000=
201006012235 SPECI KATL 012235Z 21007KT 6SM -TSRA BKN042CB BKN050 BKN065 29/20 A2993 RMK AO2 TSB34RAB31 OCNL LTGICCG E TS E MOV NW CB OHD-E-S P0000=
201006012235 SPECI KATL 012235Z 21007KT 6SM -TSRA BKN042CB BKN050 BKN065 29/20 A2993 RMK AO2 TSB34RAB31 OCNL LTGICCG E TS E MOV NW CB OHD-E-S P0000=
201006012231 SPECI KATL 012231Z 21006KT 10SM -RA BKN042CB BKN050 BKN065 29/20 A2993 RMK AO2 RAB31 CB OHD-E-S P0000=
201006012231 SPECI KATL 012231Z 21006KT 10SM -RA BKN042CB BKN050 BKN065 29/20 A2993 RMK AO2 RAB31 CB OHD-E-S P0000=
201006012152 METAR KATL 012152Z 19004KT 10SM BKN039TCU BKN250 28/19 A2993 RMK AO2 SLP124 TCU OHD AND NW CB DSNT S TCU DSNT E AND W T02830194=
201006012052 METAR KATL 012052Z 20005KT 10SM BKN037TCU BKN250 28/21 A2993 RMK AO2 SLP127 TCU N-NE & OHD-NW T02830206 56019=
201006011952 METAR KATL 011952Z 14004KT 10SM BKN042 BKN250 28/19 A2994 RMK AO2 SLP131 TCU DSNT SE-S-SW T02780194=
201006011852 METAR KATL 011852Z VRB04KT 10SM SCT040 SCT250 29/19 A2997 RMK AO2 SLP138 CB DSNT SE TCU DSNT SE & SW & NW T02890194=
201006011752 METAR KATL 011752Z 00000KT 10SM FEW030 SCT090 SCT250 28/20 A2999 RMK AO2 SLP146 CB DSNT SE 60010 T02780200 10278 20206 58018=
201006011652 METAR KATL 011652Z 02006KT 9SM FEW020CB SCT040 SCT090 26/21 A3002 RMK AO2 RAE10 SLP158 CB SE-S MOV SE P0000 T02610211=
201006011555 SPECI KATL 011555Z 33006KT 7SM -RA FEW017CB BKN040 BKN090 23/21 A3005 RMK AO2 CB SE MOV SE SHRA SE P0000=
201006011555 SPECI KATL 011555Z 33006KT 7SM -RA FEW017CB BKN040 BKN090 23/21 A3005 RMK AO2 CB SE MOV SE SHRA SE P0000=
201006011552 METAR KATL 011552Z 34007KT 5SM R09R/5500VP6000FT -RA BR BKN015CB BKN020TCU BKN040 23/21 A3005 RMK AO2 RAB38 SLP167 VIS LWR E-SE-S SHRA CB OHD-SE MOV E TCU SE-S P0003 T02280206=
201006011546 SPECI KATL 011546Z 33009KT 2 1/2SM R09R/5000VP6000FT RA BR BKN015CB BKN020TCU BKN040 23/21 A3005 RMK AO2 SFC VIS 4 RAB38 CB OHD-S MOV E TCU SE-S P0003=
201006011546 SPECI KATL 011546Z 33009KT 2 1/2SM R09R/5000VP6000FT RA BR BKN015CB BKN020TCU BKN040 23/21 A3005 RMK AO2 SFC VIS 4 RAB38 CB OHD-S MOV E TCU SE-S P0003=
201006011528 SPECI KATL 011528Z 34006KT 6SM HZ SCT012CB BKN020 BKN030 26/21 A3004 RMK AO2 CB NE & W MOV E SHRA NE & W=
201006011528 SPECI KATL 011528Z 34006KT 6SM HZ SCT012CB BKN020 BKN030 26/21 A3004 RMK AO2 CB NE & W MOV E SHRA NE & W=
201006011459 SPECI KATL 011459Z VRB04KT 7SM FEW005 BKN019 BKN023 24/21 A3004 RMK AO2=
201006011459 SPECI KATL 011459Z VRB04KT 7SM FEW005 BKN019 BKN023 24/21 A3004 RMK AO2=
201006011452 METAR KATL 011452Z 26003KT 7SM FEW005 BKN012 OVC017 23/21 A3005 RMK AO2 SLP166 60007 T02330211 50002=
201006011449 SPECI KATL 011449Z 27004KT 7SM FEW005 BKN012 OVC017 23/21 A3005 RMK AO2=
201006011449 SPECI KATL 011449Z 27004KT 7SM FEW005 BKN012 OVC017 23/21 A3005 RMK AO2=
201006011352 METAR KATL 011352Z 28005KT 3SM BR BCFG BKN005 OVC010 22/21 A3005 RMK AO2 SFC VIS 5 RAB08E27 SLP167 P0007 T02170206=
201006011328 SPECI KATL 011328Z 27004KT 3SM BR BKN005 OVC010 22/21 A3005 RMK AO2 SFC VIS 5 RAB08E27 P0007=
201006011328 SPECI KATL 011328Z 27004KT 3SM BR BKN005 OVC010 22/21 A3005 RMK AO2 SFC VIS 5 RAB08E27 P0007=
201006011312 SPECI KATL 011312Z 28005KT 2SM R09R/5500VP6000FT -RA BR BKN007 OVC010 22/21 A3004 RMK AO2 SFC VIS 3 RAB08 P0006=
201006011312 SPECI KATL 011312Z 28005KT 2SM R09R/5500VP6000FT -RA BR BKN007 OVC010 22/21 A3004 RMK AO2 SFC VIS 3 RAB08 P0006=
201006011252 METAR KATL 011252Z 28006KT 3SM BR BKN007 BKN010 22/20 A3004 RMK AO2 SFC VIS 6 SLP164 T02170200=
