##########################################################
# Query made at 04/19/2024 23:19:09 UTC
# Time interval: from 11/01/2010 12:00  to 11/30/2010 12:59  UTC
##########################################################

##########################################################
# KATL, Atlanta, Hartsfield - Jackson Atlanta International Airport (United States)
# WMO index: 72219. WIGOS ID: 0-20000-0-72219
# Latitude 33-38-59N. Longitude 084-25-00W. Altitude 312 m.
##########################################################

201011301252 METAR KATL 301252Z 13007KT 1/4SM R09R/2600V3500FT -DZ FG OVC001 13/13 A2998 RMK AO2 SLP153 P0000 T01330128=
201011301233 SPECI KATL 301233Z 13004KT 1/4SM R09R/2000V2800FT -DZ FG VV001 13/13 A2998 RMK AO2 SFC VIS 1/2 P0000=
201011301233 SPECI KATL 301233Z 13004KT 1/4SM R09R/2000V2800FT -DZ FG VV001 13/13 A2998 RMK AO2 SFC VIS 1/2 P0000=
201011301205 SPECI KATL 301205Z 14006KT 1/4SM R09R/1800V2000FT -DZ FG VV001 13/12 A2999 RMK AO2 SFC VIS 1/2 P0000=
201011301205 SPECI KATL 301205Z 14006KT 1/4SM R09R/1800V2000FT -DZ FG VV001 13/12 A2999 RMK AO2 SFC VIS 1/2 P0000=
201011301152 METAR KATL 301152Z 13007KT 1/4SM R09R/1800V2800FT -DZ FG VV001 12/12 A2999 RMK AO2 SLP158 P0000 60006 70052 T01220122 10122 20089 58012=
201011301124 SPECI KATL 301124Z 13006KT 1/4SM R09R/1800V2000FT -DZ FG VV001 12/12 A3000 RMK AO2 P0000=
201011301124 SPECI KATL 301124Z 13006KT 1/4SM R09R/1800V2000FT -DZ FG VV001 12/12 A3000 RMK AO2 P0000=
201011301052 METAR KATL 301052Z 11007KT 1/4SM R09R/2400V3000FT -DZ FG OVC001 12/12 A3001 RMK AO2 SFC VIS 1/2 SLP162 P0002 T01170117=
201011301020 SPECI KATL 301020Z 12006KT 1/4SM R09R/2200V3500FT -DZ FG VV001 11/11 A3002 RMK AO2 SFC VIS 1/2 P0002=
201011301020 SPECI KATL 301020Z 12006KT 1/4SM R09R/2200V3500FT -DZ FG VV001 11/11 A3002 RMK AO2 SFC VIS 1/2 P0002=
201011300952 METAR KATL 300952Z 13007KT 1/4SM R09R/2000V2200FT -DZ FG VV001 11/11 A3003 RMK AO2 SFC VIS 1/2 SLP170 P0000 T01110106=
201011300852 METAR KATL 300852Z 12009KT 1/4SM R09R/2600V3000FT -DZ FG OVC001 11/10 A3003 RMK AO2 SFC VIS 1/2 SLP171 P0004 60004 T01060100 56025=
201011300752 METAR KATL 300752Z 12009KT 1/4SM R09R/2600V2800FT -DZ FG OVC001 10/09 A3005 RMK AO2 SFC VIS 1/2 DZE01B40 SLP177 P0000 T01000094=
201011300652 METAR KATL 300652Z 08011KT 1/4SM R09R/3500V4500FT -DZ BR OVC001 09/09 A3007 RMK AO2 SFC VIS 1 1/2 RAB47E50 SLP184 P0000 T00940089=
201011300552 METAR KATL 300552Z 11011KT 1/2SM -DZ BR OVC003 09/09 A3010 RMK AO2 SFC VIS 6 DZE27B49RAB27E49 SLP197 P0001 60014 T00940089 10094 20067 56012=
201011300452 METAR KATL 300452Z 10010KT 1/2SM -DZ BR OVC003 09/08 A3011 RMK AO2 SFC VIS 6 SLP200 P0000 T00940083 400940067=
201011300406 SPECI KATL 300406Z 11008KT 1/2SM -DZ BR OVC003 08/08 A3012 RMK AO2 SFC VIS 6 P0000=
201011300406 SPECI KATL 300406Z 11008KT 1/2SM -DZ BR OVC003 08/08 A3012 RMK AO2 SFC VIS 6 P0000=
201011300352 METAR KATL 300352Z 10012G17KT 1SM -DZ BR OVC003 08/08 A3012 RMK AO2 SFC VIS 6 RAE13DZB13 SLP203 P0000 T00830078=
201011300252 METAR KATL 300252Z 10012KT 1SM -RA BR OVC004 08/07 A3014 RMK AO2 SFC VIS 5 SLP210 RAE18B35DZB18E35 CIG 003V007 P0001 60013 T00780072 58002=
201011300229 SPECI KATL 300229Z 09011KT 2SM -DZ BR OVC004 08/07 A3015 RMK AO2 SFC VIS 5 RAE18DZB18 CIG 003V007 P0000=
201011300229 SPECI KATL 300229Z 09011KT 2SM -DZ BR OVC004 08/07 A3015 RMK AO2 SFC VIS 5 RAE18DZB18 CIG 003V007 P0000=
201011300152 METAR KATL 300152Z 09009KT 2SM -RA BR OVC005 07/07 A3015 RMK AO2 SFC VIS 5 SLP214 CIG 003V008 P0008 T00720067=
201011300114 SPECI KATL 300114Z 10009G15KT 2SM -RA BR OVC005 07/06 A3015 RMK AO2 SFC VIS 4 CIG 003V007 P0002=
201011300114 SPECI KATL 300114Z 10009G15KT 2SM -RA BR OVC005 07/06 A3015 RMK AO2 SFC VIS 4 CIG 003V007 P0002=
201011300052 METAR KATL 300052Z 10012G17KT 3SM -RA BR OVC005 07/06 A3015 RMK AO2 SFC VIS 4 SLP214 P0004 T00720061=
201011292352 METAR KATL 292352Z 10011G18KT 3SM -RA BR OVC006 07/06 A3015 RMK AO2 SFC VIS 5 SLP213 CIG 004V009 P0007 60031 T00670056 10094 20067 57004=
201011292252 METAR KATL 292252Z 10014G19KT 3SM -RA BR BKN006 BKN012 OVC020 07/06 A3015 RMK AO2 SLP212 P0015 T00670056=
201011292152 METAR KATL 292152Z 08012KT 6SM -RA BR BKN008 OVC014 07/06 A3016 RMK AO2 RAE30B48 CIG 006V011 SLP217 P0000 T00720056=
201011292129 SPECI KATL 292129Z 08016KT 9SM -RA FEW008 OVC014 07/06 A3016 RMK AO2 P0000=
201011292129 SPECI KATL 292129Z 08016KT 9SM -RA FEW008 OVC014 07/06 A3016 RMK AO2 P0000=
201011292052 METAR KATL 292052Z 08015G21KT 6SM -RA BR OVC016 07/05 A3017 RMK AO2 RAB06 SLP220 P0009 60009 T00720050 56022=
201011292011 SPECI KATL 292011Z 09014KT 3SM -RA OVC018 08/04 A3018 RMK AO2 SFC VIS 4 RAB06 P0000=
201011292011 SPECI KATL 292011Z 09014KT 3SM -RA OVC018 08/04 A3018 RMK AO2 SFC VIS 4 RAB06 P0000=
201011292007 SPECI KATL 292007Z 09015KT 6SM -RA OVC018 08/04 A3018 RMK AO2 RAB06 P0000=
201011292007 SPECI KATL 292007Z 09015KT 6SM -RA OVC018 08/04 A3018 RMK AO2 RAB06 P0000=
201011291952 METAR KATL 291952Z 07011KT 10SM OVC018 09/03 A3019 RMK AO2 SLP225 T00890033=
201011291852 METAR KATL 291852Z 09014KT 10SM OVC020 09/03 A3019 RMK AO2 SLP226 T00890033=
201011291752 METAR KATL 291752Z 08012KT 10SM OVC019 08/03 A3024 RMK AO2 RAB22E32 SLP243 P0000 60001 T00830028 10089 20067 58020=
201011291652 METAR KATL 291652Z 09014G20KT 10SM OVC017 08/03 A3027 RMK AO2 SLP254 T00780028=
201011291552 METAR KATL 291552Z 09012KT 10SM OVC016 08/03 A3030 RMK AO2 SLP264 T00780028=
201011291452 METAR KATL 291452Z 09010KT 10SM OVC015 07/03 A3030 RMK AO2 SLP264 60001 T00720028 51010=
201011291352 METAR KATL 291352Z 09011KT 10SM OVC015 07/03 A3029 RMK AO2 RAB01E22 SLP261 P0001 T00670028=
201011291252 METAR KATL 291252Z 09013KT 10SM OVC015 07/01 A3028 RMK AO2 SLP260 T00720011=
201011291152 METAR KATL 291152Z 09012KT 10SM BKN015 OVC020 07/01 A3027 RMK AO2 SLP253 T00720006 10078 20067 50002=
201011291052 METAR KATL 291052Z 09012KT 10SM BKN017 OVC025 07/00 A3027 RMK AO2 SLP255 T00720000=
201011290952 METAR KATL 290952Z 09010KT 10SM BKN017 OVC030 07/M01 A3026 RMK AO2 SLP249 T00721006=
201011290852 METAR KATL 290852Z 09010KT 10SM BKN019 OVC030 07/M01 A3026 RMK AO2 SLP249 T00721011 51006=
201011290752 METAR KATL 290752Z 09012KT 10SM BKN019 OVC030 08/M01 A3026 RMK AO2 SLP248 T00781011=
201011290652 METAR KATL 290652Z 10011KT 10SM BKN021 OVC035 07/M01 A3025 RMK AO2 SLP246 T00721011=
201011290552 METAR KATL 290552Z 09012KT 10SM BKN025 07/M01 A3024 RMK AO2 SLP244 T00671011 10072 20050 58003=
201011290542 SPECI KATL 290542Z 09013KT 10SM OVC025 07/M01 A3025 RMK AO2=
201011290542 SPECI KATL 290542Z 09013KT 10SM OVC025 07/M01 A3025 RMK AO2=
201011290505 SPECI KATL 290505Z 09011KT 10SM SCT029 OVC034 07/M01 A3026 RMK AO2=
201011290505 SPECI KATL 290505Z 09011KT 10SM SCT029 OVC034 07/M01 A3026 RMK AO2=
201011290452 METAR KATL 290452Z 09010KT 10SM BKN029 07/M01 A3026 RMK AO2 SLP249 T00671011 401220011=
201011290433 SPECI KATL 290433Z 09011KT 10SM BKN029 07/M01 A3025 RMK AO2=
201011290433 SPECI KATL 290433Z 09011KT 10SM BKN029 07/M01 A3025 RMK AO2=
201011290352 METAR KATL 290352Z 09010G19KT 10SM BKN033 06/M01 A3025 RMK AO2 SLP247 T00611011=
201011290252 METAR KATL 290252Z 09012KT 10SM FEW250 06/M01 A3025 RMK AO2 SLP249 T00561011 50001=
201011290152 METAR KATL 290152Z 09010KT 10SM CLR 06/M01 A3026 RMK AO2 SLP253 T00561011=
201011290052 METAR KATL 290052Z 09009KT 10SM CLR 06/M01 A3026 RMK AO2 SLP252 T00611006=
201011282352 METAR KATL 282352Z 09008KT 10SM FEW250 07/M01 A3025 RMK AO2 SLP249 T00721011 10122 20072 53008=
201011282252 METAR KATL 282252Z 11009G14KT 10SM FEW250 09/M02 A3022 RMK AO2 SLP240 T00941017=
201011282152 METAR KATL 282152Z 11010KT 10SM SCT250 11/M02 A3023 RMK AO2 SLP240 T01061022=
201011282052 METAR KATL 282052Z 13008KT 10SM FEW110 SCT150 BKN200 BKN250 12/M02 A3023 RMK AO2 SLP239 T01171022 55007=
201011281952 METAR KATL 281952Z COR 11008KT 10SM SCT150 BKN200 BKN250 11/M02 A3022 RMK AO2 SLP239 T01111022=
201011281852 METAR KATL 281852Z 09010KT 10SM FEW080 BKN200 BKN250 11/M02 A3023 RMK AO2 SLP241 T01061017=
201011281752 METAR KATL 281752Z 10010KT 10SM FEW050 BKN250 11/M02 A3025 RMK AO2 SLP247 T01061017 10106 20017 58015=
201011281652 METAR KATL 281652Z 09009KT 10SM BKN250 09/M02 A3028 RMK AO2 SLP258 T00941017=
201011281552 METAR KATL 281552Z 10010KT 10SM BKN250 08/M02 A3030 RMK AO2 SLP265 T00781022=
201011281452 METAR KATL 281452Z 08013KT 10SM BKN250 06/M03 A3029 RMK AO2 SLP262 T00611028 51022=
201011281352 METAR KATL 281352Z 09012KT 10SM FEW250 04/M03 A3027 RMK AO2 SLP257 T00441028=
201011281252 METAR KATL 281252Z 08011KT 10SM CLR 03/M03 A3025 RMK AO2 SLP249 T00281033=
201011281152 METAR KATL 281152Z 07011KT 10SM CLR 03/M03 A3022 RMK AO2 SLP240 T00281033 10039 20011 53013=
201011281052 METAR KATL 281052Z 05008KT 10SM CLR 03/M03 A3021 RMK AO2 SLP233 T00331033=
201011280952 METAR KATL 280952Z 04007KT 10SM CLR 03/M03 A3019 RMK AO2 SLP228 T00281028=
201011280852 METAR KATL 280852Z 01006KT 10SM CLR 03/M03 A3018 RMK AO2 SLP225 T00331028 51013=
201011280752 METAR KATL 280752Z 01007KT 10SM CLR 02/M02 A3018 RMK AO2 SLP224 T00221022=
201011280652 METAR KATL 280652Z 32004KT 10SM CLR 01/M02 A3016 RMK AO2 SLP219 T00111022=
201011280552 METAR KATL 280552Z 31009KT 10SM CLR 02/M02 A3014 RMK AO2 SLP213 T00221022 10072 20022 58002=
201011280452 METAR KATL 280452Z 33006KT 10SM CLR 03/M02 A3016 RMK AO2 SLP218 T00281022 401170000=
201011280352 METAR KATL 280352Z 33005KT 10SM CLR 04/M02 A3016 RMK AO2 SLP217 T00391022=
201011280252 METAR KATL 280252Z 34005KT 10SM CLR 04/M02 A3015 RMK AO2 SLP216 T00441022 52010=
201011280152 METAR KATL 280152Z 33006KT 10SM CLR 06/M02 A3014 RMK AO2 SLP211 T00561022=
201011280052 METAR KATL 280052Z 32003KT 10SM CLR 06/M02 A3013 RMK AO2 SLP211 T00611017=
201011272352 METAR KATL 272352Z 32004KT 10SM CLR 07/M03 A3012 RMK AO2 SLP207 T00721028 10117 20072 53010=
201011272252 METAR KATL 272252Z 32006KT 10SM CLR 08/M03 A3011 RMK AO2 SLP201 T00831033=
201011272152 METAR KATL 272152Z 32009KT 10SM CLR 10/M03 A3010 RMK AO2 SLP198 T01001033=
201011272052 METAR KATL 272052Z 32011KT 10SM CLR 11/M03 A3009 RMK AO2 SLP194 T01111028 55003=
201011271952 SPECI KATL 271952Z 31012KT 10SM CLR 11/M03 A3009 RMK AO2 SLP193 T01111033=
201011271852 METAR KATL 271852Z 31014KT 10SM CLR 11/M03 A3009 RMK AO2 SLP193 T01061033=
201011271752 METAR KATL 271752Z 31014G20KT 10SM CLR 10/M03 A3010 RMK AO2 SLP197 T01001033 10100 20000 58005=
201011271652 METAR KATL 271652Z 33017G24KT 10SM CLR 09/M04 A3011 RMK AO2 SLP202 T00891044=
201011271552 METAR KATL 271552Z 33012G19KT 10SM CLR 08/M04 A3012 RMK AO2 SLP203 T00781044=
201011271452 METAR KATL 271452Z 33012KT 10SM CLR 05/M06 A3011 RMK AO2 SLP203 T00501056 53013=
201011271352 METAR KATL 271352Z 33009KT 10SM CLR 03/M06 A3009 RMK AO2 SLP197 T00281061=
201011271252 METAR KATL 271252Z 33011KT 10SM CLR 01/M07 A3008 RMK AO2 SLP194 T00061067=
201011271152 METAR KATL 271152Z 32010KT 10SM CLR 00/M07 A3007 RMK AO2 SLP191 70008 T00001067 10017 20000 52011=
201011271052 METAR KATL 271052Z 33010KT 10SM CLR 00/M07 A3007 RMK AO2 SLP188 T00001067=
201011270952 METAR KATL 270952Z 33015G26KT 10SM CLR 01/M07 A3005 RMK AO2 PK WND 32027/0939 SLP181 T00061067=
201011270852 METAR KATL 270852Z 33017G21KT 10SM CLR 01/M07 A3004 RMK AO2 SLP178 T00061067 53006=
201011270752 METAR KATL 270752Z 32010KT 10SM CLR 01/M06 A3003 RMK AO2 SLP175 T00061061=
201011270652 METAR KATL 270652Z 33012KT 10SM CLR 01/M05 A3002 RMK AO2 SLP171 T00111050=
201011270552 METAR KATL 270552Z 32013G18KT 10SM CLR 02/M03 A3002 RMK AO2 SLP170 T00171033 10072 20017 50005=
201011270452 METAR KATL 270452Z 31011KT 10SM CLR 02/M02 A3003 RMK AO2 SLP171 T00221022 401940022=
201011270352 METAR KATL 270352Z 32011KT 10SM FEW150 03/M02 A3002 RMK AO2 SLP171 T00331022=
201011270252 METAR KATL 270252Z 31013KT 10SM SCT150 BKN200 04/M01 A3001 RMK AO2 SLP163 T00441006 51007=
201011270152 METAR KATL 270152Z 32014G21KT 10SM BKN150 OVC200 06/M01 A3001 RMK AO2 SLP162 T00561006=
201011270052 METAR KATL 270052Z 33016G22KT 10SM BKN120 OVC150 06/M01 A2999 RMK AO2 SLP158 T00611006=
201011262352 METAR KATL 262352Z 32015G21KT 10SM FEW015 BKN150 OVC200 07/03 A2998 RMK AO2 SLP154 60000 T00720033 10133 20072 53011=
201011262252 SPECI KATL 262252Z 31012G19KT 10SM SCT012 BKN100 BKN150 08/05 A2995 RMK AO2 RAE51 SLP141 P0000 T00780050=
201011262247 SPECI KATL 262247Z 32013G19KT 10SM -RA SCT012 BKN100 OVC150 08/05 A2995 RMK AO2 P0000=
201011262247 SPECI KATL 262247Z 32013G19KT 10SM -RA SCT012 BKN100 OVC150 08/05 A2995 RMK AO2 P0000=
201011262201 SPECI KATL 262201Z 31011KT 10SM -RA BKN012 BKN020 OVC095 08/06 A2994 RMK AO2 PRESRR P0000=
201011262201 SPECI KATL 262201Z 31011KT 10SM -RA BKN012 BKN020 OVC095 08/06 A2994 RMK AO2 PRESRR P0000=
201011262152 METAR KATL 262152Z 32010KT 10SM -RA FEW012 SCT020 OVC100 08/06 A2992 RMK AO2 DZE47RAB47 SLP129 P0000 T00830061=
201011262119 SPECI KATL 262119Z 32013G20KT 9SM -DZ FEW009 BKN016 OVC045 09/06 A2994 RMK AO2 P0000=
201011262119 SPECI KATL 262119Z 32013G20KT 9SM -DZ FEW009 BKN016 OVC045 09/06 A2994 RMK AO2 P0000=
201011262052 METAR KATL 262052Z 31012KT 8SM -DZ BKN009 BKN015 OVC030 09/07 A2995 RMK AO2 DZB46 SLP139 P0000 60000 T00940072 53012=
201011261959 SPECI KATL 261959Z 34015KT 6SM BR BKN009 BKN015 OVC030 11/09 A2993 RMK AO2=
201011261959 SPECI KATL 261959Z 34015KT 6SM BR BKN009 BKN015 OVC030 11/09 A2993 RMK AO2=
201011261952 METAR KATL 261952Z 32014G19KT 6SM BR FEW009 BKN015 OVC030 11/09 A2992 RMK AO2 SLP130 T01110094=
201011261858 SPECI KATL 261858Z 32013G18KT 10SM FEW015 BKN020 OVC030 13/10 A2991 RMK AO2=
201011261858 SPECI KATL 261858Z 32013G18KT 10SM FEW015 BKN020 OVC030 13/10 A2991 RMK AO2=
201011261852 METAR KATL 261852Z 31010KT 10SM FEW015 BKN030 OVC060 13/10 A2991 RMK AO2 RAE06 SLP124 P0000 T01280100=
201011261755 SPECI KATL 261755Z 30008KT 9SM -RA BKN010 BKN015 OVC060 13/11 A2991 RMK AO2 P0000=
201011261755 SPECI KATL 261755Z 30008KT 9SM -RA BKN010 BKN015 OVC060 13/11 A2991 RMK AO2 P0000=
201011261752 METAR KATL 261752Z 30007KT 9SM -RA SCT008 BKN015 OVC060 13/11 A2991 RMK AO2 SLP127 P0000 60008 T01280111 10133 20117 56013=
201011261749 SPECI KATL 261749Z 29006KT 9SM -RA BKN007 BKN015 OVC060 12/11 A2991 RMK AO2 P0000=
201011261749 SPECI KATL 261749Z 29006KT 9SM -RA BKN007 BKN015 OVC060 12/11 A2991 RMK AO2 P0000=
201011261652 METAR KATL 261652Z 27006KT 8SM -RA SCT007 BKN060 OVC100 12/11 A2993 RMK AO2 RAB18E29B46 SLP134 P0000 T01220111=
201011261552 METAR KATL 261552Z 24003KT 10SM FEW007 BKN050 OVC100 12/11 A2992 RMK AO2 RAE41 PRESRR SLP131 P0008 T01220106=
201011261536 SPECI KATL 261536Z 16012KT 10SM -RA FEW007 BKN050 OVC100 12/11 A2989 RMK AO2 P0008=
201011261536 SPECI KATL 261536Z 16012KT 10SM -RA FEW007 BKN050 OVC100 12/11 A2989 RMK AO2 P0008=
201011261516 SPECI KATL 261516Z 21006KT 5SM RA BR BKN012 BKN050 OVC100 12/10 A2996 RMK AO2 P0003=
201011261516 SPECI KATL 261516Z 21006KT 5SM RA BR BKN012 BKN050 OVC100 12/10 A2996 RMK AO2 P0003=
201011261452 METAR KATL 261452Z 29004KT 6SM -RA FEW020 BKN050 OVC100 13/09 A2995 RMK AO2 RAB35 SLP141 P0000 60000 T01280089 51004=
201011261352 METAR KATL 261352Z 35006KT 10SM FEW020 OVC048 13/08 A2995 RMK AO2 SLP139 T01330078=
201011261252 METAR KATL 261252Z 36012G19KT 10SM FEW020 BKN040 OVC120 13/08 A2995 RMK AO2 PK WND 34026/1209 SLP141 T01280083=
201011261152 METAR KATL 261152Z 33014G20KT 10SM FEW020 BKN055 OVC120 13/09 A2994 RMK AO2 RAB1057E12 SLP136 P0000 60000 T01280089 10194 20128 53025=
201011261052 METAR KATL 261052Z 33014KT 10SM SCT017 BKN050 OVC120 13/11 A2991 RMK AO2 PK WND 31030/0954 WSHFT 0942 RAB05E31 SLP125 P0000 T01280111=
201011261040 SPECI KATL 261040Z 33014KT 10SM SCT017 BKN035 OVC120 13/11 A2990 RMK AO2 PK WND 31030/0954 WSHFT 0942 RAB05E31 P0000=
201011261040 SPECI KATL 261040Z 33014KT 10SM SCT017 BKN035 OVC120 13/11 A2990 RMK AO2 PK WND 31030/0954 WSHFT 0942 RAB05E31 P0000=
201011261000 SPECI KATL 261000Z 32018G30KT 10SM BKN017 BKN035 OVC120 15/12 A2988 RMK AO2 PK WND 31030/0954 WSHFT 0942 FROPA=
201011261000 SPECI KATL 261000Z 32018G30KT 10SM BKN017 BKN035 OVC120 15/12 A2988 RMK AO2 PK WND 31030/0954 WSHFT 0942 FROPA=
201011260952 METAR KATL 260952Z 33021G38KT 10SM BKN017 OVC040 18/16 A2987 RMK AO2 PK WND 30038/0950 SLP108 T01830156=
201011260852 METAR KATL 260852Z 23009G15KT 10SM BKN016 OVC024 19/17 A2987 RMK AO2 SLP106 T01940167 58010=
201011260810 SPECI KATL 260810Z 24008G16KT 10SM BKN016 OVC090 19/17 A2988 RMK AO2=
201011260810 SPECI KATL 260810Z 24008G16KT 10SM BKN016 OVC090 19/17 A2988 RMK AO2=
201011260752 METAR KATL 260752Z 23012KT 10SM BKN014 OVC020 19/17 A2988 RMK AO2 SLP110 T01940167=
201011260652 METAR KATL 260652Z 23010G21KT 10SM BKN014 OVC020 19/16 A2988 RMK AO2 PK WND 22026/0620 SLP113 T01890161=
201011260552 METAR KATL 260552Z 21013KT 10SM OVC014 18/16 A2990 RMK AO2 SLP117 T01830156 10189 20172 58004=
201011260541 SPECI KATL 260541Z 21014G18KT 10SM BKN013 BKN090 BKN200 18/16 A2990 RMK AO2=
201011260541 SPECI KATL 260541Z 21014G18KT 10SM BKN013 BKN090 BKN200 18/16 A2990 RMK AO2=
201011260452 METAR KATL 260452Z 21015G19KT 10SM FEW090 SCT200 18/14 A2990 RMK AO2 SLP119 T01830144 402280144=
201011260352 METAR KATL 260352Z 22009KT 10SM SCT090 BKN200 18/14 A2992 RMK AO2 SLP125 T01780139=
201011260252 METAR KATL 260252Z 19008KT 10SM FEW075 SCT250 17/12 A2991 RMK AO2 SLP123 T01720122 58014=
201011260152 METAR KATL 260152Z 19007KT 10SM FEW055 BKN075 BKN250 18/12 A2993 RMK AO2 SLP130 T01830122=
201011260052 METAR KATL 260052Z 18007KT 10SM SCT055 BKN075 BKN250 18/12 A2994 RMK AO2 SLP134 T01830122=
201011252352 METAR KATL 252352Z 18004KT 10SM FEW050 SCT065 BKN250 19/12 A2995 RMK AO2 SLP138 T01890117 10228 20183 50000=
201011252252 METAR KATL 252252Z 19005KT 10SM FEW045 SCT200 BKN250 19/12 A2996 RMK AO2 SLP139 T01890117=
201011252152 METAR KATL 252152Z 21010KT 10SM SCT035 SCT150 BKN250 21/12 A2996 RMK AO2 SLP140 T02110117=
201011252052 METAR KATL 252052Z 20013G20KT 10SM SCT035 SCT250 22/13 A2995 RMK AO2 SLP137 T02220128 56028=
201011251952 METAR KATL 251952Z 18011KT 10SM SCT040 SCT250 22/12 A2997 RMK AO2 SLP143 T02220117=
201011251852 METAR KATL 251852Z 19017G20KT 10SM SCT035 SCT250 22/13 A3000 RMK AO2 SLP154 T02170133=
201011251752 METAR KATL 251752Z 20009KT 10SM SCT032 SCT038 BKN250 21/13 A3004 RMK AO2 SLP166 T02110133 10217 20150 58022=
201011251652 METAR KATL 251652Z 20007KT 10SM FEW025 SCT055 SCT250 20/13 A3008 RMK AO2 SLP181 T02000133=
201011251552 METAR KATL 251552Z 17006KT 10SM FEW015 SCT055 BKN150 18/14 A3010 RMK AO2 SLP190 T01830139=
201011251452 METAR KATL 251452Z 19006KT 6SM HZ SCT012 BKN150 17/14 A3010 RMK AO2 SLP191 T01720144 51009=
201011251435 SPECI KATL 251435Z 18008KT 6SM HZ BKN012 17/14 A3011 RMK AO2=
201011251435 SPECI KATL 251435Z 18008KT 6SM HZ BKN012 17/14 A3011 RMK AO2=
201011251422 SPECI KATL 251422Z 17005KT 5SM BR BKN008 17/14 A3011 RMK AO2=
201011251422 SPECI KATL 251422Z 17005KT 5SM BR BKN008 17/14 A3011 RMK AO2=
201011251352 METAR KATL 251352Z 17008KT 2SM BR BKN006 BKN010 16/14 A3009 RMK AO2 SFC VIS 6 SLP187 T01560144=
201011251320 SPECI KATL 251320Z 18006KT 1SM BR BKN006 BKN010 16/14 A3009 RMK AO2 SFC VIS 5=
201011251320 SPECI KATL 251320Z 18006KT 1SM BR BKN006 BKN010 16/14 A3009 RMK AO2 SFC VIS 5=
201011251307 SPECI KATL 251307Z 16008KT 1SM BR BKN004 OVC008 15/14 A3009 RMK AO2 SFC VIS 3 CIG 001V006=
201011251307 SPECI KATL 251307Z 16008KT 1SM BR BKN004 OVC008 15/14 A3009 RMK AO2 SFC VIS 3 CIG 001V006=
201011251252 METAR KATL 251252Z 16005KT 1/4SM BR BKN004 15/14 A3009 RMK AO2 SFC VIS 2 1/2 SLP188 T01500144=
201011251152 METAR KATL 251152Z 14004KT 1/4SM R09R/4000V5500FT BR OVC002 15/14 A3008 RMK AO2 SFC VIS 1 1/4 SLP183 60000 T01500144 10156 20144 51002=
201011251052 METAR KATL 251052Z 13003KT 1/4SM R09R/5000VP6000FT BR BKN002 OVC006 15/14 A3008 RMK AO2 SFC VIS 1 1/4 SLP182 T01500144=
201011250955 SPECI KATL 250955Z 14003KT 1/4SM BR OVC004 15/14 A3008 RMK AO2 SFC VIS 3=
201011250955 SPECI KATL 250955Z 14003KT 1/4SM BR OVC004 15/14 A3008 RMK AO2 SFC VIS 3=
201011250952 METAR KATL 250952Z 14003KT 3SM BR OVC004 15/14 A3008 RMK AO2 SFC VIS 6 SLP182 T01500139=
201011250911 SPECI KATL 250911Z 13005KT 3SM BR OVC004 15/13 A3007 RMK AO2 SFC VIS 6=
201011250911 SPECI KATL 250911Z 13005KT 3SM BR OVC004 15/13 A3007 RMK AO2 SFC VIS 6=
201011250852 METAR KATL 250852Z 13004KT 7SM OVC006 15/13 A3007 RMK AO2 SLP181 60000 T01500133 56006=
201011250752 METAR KATL 250752Z 09005KT 7SM OVC008 15/13 A3008 RMK AO2 RAB23E35 SLP183 P0000 T01500133=
201011250737 SPECI KATL 250737Z 08004KT 7SM OVC008 15/13 A3008 RMK AO2 RAB23E35 P0000=
201011250737 SPECI KATL 250737Z 08004KT 7SM OVC008 15/13 A3008 RMK AO2 RAB23E35 P0000=
201011250652 METAR KATL 250652Z 11005KT 7SM BKN012 OVC015 15/13 A3008 RMK AO2 SLP183 T01500133=
201011250552 METAR KATL 250552Z 11005KT 10SM OVC012 16/13 A3009 RMK AO2 SLP187 T01560133 10161 20156 56006=
201011250452 METAR KATL 250452Z 11005KT 10SM BKN013 OVC020 16/13 A3010 RMK AO2 SLP190 T01560133 401610122=
201011250352 METAR KATL 250352Z 12005KT 10SM BKN016 OVC050 16/13 A3009 RMK AO2 SLP189 T01560133=
201011250252 METAR KATL 250252Z 11005KT 10SM OVC017 16/13 A3011 RMK AO2 SLP193 T01560133 58002=
201011250152 SPECI KATL 250152Z 12005KT 10SM OVC017 16/13 A3012 RMK AO2 SLP196 T01610133=
201011250052 METAR KATL 250052Z 13005KT 10SM BKN017 BKN022 OVC035 16/13 A3011 RMK AO2 SLP194 T01560133=
201011242352 METAR KATL 242352Z 13004KT 10SM OVC020 16/13 A3011 RMK AO2 SLP196 T01560133 10161 20144 55002=
201011242252 METAR KATL 242252Z 12005KT 10SM OVC018 16/13 A3010 RMK AO2 SLP193 T01560133=
201011242152 METAR KATL 242152Z 10006KT 10SM FEW013 BKN017 BKN020 16/13 A3011 RMK AO2 SLP194 T01560128=
201011242122 SPECI KATL 242122Z 07009KT 7SM FEW010 BKN015 BKN020 16/13 A3011 RMK AO2=
201011242122 SPECI KATL 242122Z 07009KT 7SM FEW010 BKN015 BKN020 16/13 A3011 RMK AO2=
201011242052 METAR KATL 242052Z 15004KT 7SM OVC011 15/13 A3012 RMK AO2 SLP198 T01500128 56012=
201011241952 METAR KATL 241952Z 18007KT 6SM BR FEW008 BKN009 OVC012 14/13 A3012 RMK AO2 SLP199 T01440128=
201011241852 METAR KATL 241852Z 17005KT 6SM BR OVC007 14/12 A3013 RMK AO2 CIG 007V011 SLP202 T01440122=
201011241752 METAR KATL 241752Z 10004KT 6SM BR OVC007 14/12 A3016 RMK AO2 SLP211 60000 T01390122 10150 20122 58010=
201011241652 METAR KATL 241652Z 13007KT 6SM BR BKN007 OVC009 14/12 A3018 RMK AO2 SLP219 T01390117=
201011241552 METAR KATL 241552Z 10007KT 8SM OVC010 15/13 A3019 RMK AO2 CIG 007V013 SLP222 T01500128=
201011241508 SPECI KATL 241508Z 09010KT 6SM BR OVC010 15/13 A3019 RMK AO2 CIG 007V012=
201011241508 SPECI KATL 241508Z 09010KT 6SM BR OVC010 15/13 A3019 RMK AO2 CIG 007V012=
201011241452 METAR KATL 241452Z 09008KT 8SM BKN010 15/13 A3019 RMK AO2 SLP221 60000 T01500128 51010=
201011241403 SPECI KATL 241403Z 11003KT 3SM SCT003 OVC010 14/13 A3019 RMK AO2 SFC VIS 8=
201011241403 SPECI KATL 241403Z 11003KT 3SM SCT003 OVC010 14/13 A3019 RMK AO2 SFC VIS 8=
201011241354 SPECI KATL 241354Z 10003KT 3SM BKN003 OVC010 14/13 A3018 RMK AO2 SFC VIS 7=
201011241354 SPECI KATL 241354Z 10003KT 3SM BKN003 OVC010 14/13 A3018 RMK AO2 SFC VIS 7=
201011241352 METAR KATL 241352Z 10003KT 1 1/2SM BR BKN003 OVC010 14/13 A3018 RMK AO2 SFC VIS 5 DZE49 SLP219 P0000 T01390133=
201011241320 SPECI KATL 241320Z 10004KT 1 1/2SM -DZ BR OVC003 13/13 A3017 RMK AO2 SFC VIS 6 CIG 001V006 P0000=
201011241320 SPECI KATL 241320Z 10004KT 1 1/2SM -DZ BR OVC003 13/13 A3017 RMK AO2 SFC VIS 6 CIG 001V006 P0000=
201011241306 SPECI KATL 241306Z 13004KT 1/2SM -DZ BR BKN003 OVC007 13/12 A3017 RMK AO2 SFC VIS 3 CIG 001V006 P0000=
201011241306 SPECI KATL 241306Z 13004KT 1/2SM -DZ BR BKN003 OVC007 13/12 A3017 RMK AO2 SFC VIS 3 CIG 001V006 P0000=
201011241252 METAR KATL 241252Z 10005KT 1/2SM -DZ BR OVC001 13/12 A3017 RMK AO2 SFC VIS 2 CIG 001V005 SLP215 P0000 T01280122=
201011241152 METAR KATL 241152Z 08009KT 1/8SM R09R/4000VP6000FT -DZ BR OVC001 12/12 A3016 RMK AO2 SFC VIS 1 3/4 SLP212 P0000 60000 70010 T01220122 10133 20122 53006=
201011241052 METAR KATL 241052Z 09006KT 1/8SM R09R/3000V5000FT -DZ BR OVC001 12/12 A3014 RMK AO2 SFC VIS 3/4 SLP205 P0000 T01220122=
201011241047 SPECI KATL 241047Z 08003KT 1/8SM R09R/3000VP6000FT -DZ BR OVC001 12/12 A3014 RMK AO2 SFC VIS 3/4 P0000=
201011241047 SPECI KATL 241047Z 08003KT 1/8SM R09R/3000VP6000FT -DZ BR OVC001 12/12 A3014 RMK AO2 SFC VIS 3/4 P0000=
201011240952 METAR KATL 240952Z 09003KT 1/4SM R09R/1800V2200FT -DZ FG VV001 12/12 A3013 RMK AO2 SFC VIS 1/2 DZB51 SLP202 P0000 T01220117=
201011240929 SPECI KATL 240929Z 04003KT 1/4SM R09R/1600V1800FT FG VV001 12/12 A3013 RMK AO2=
201011240929 SPECI KATL 240929Z 04003KT 1/4SM R09R/1600V1800FT FG VV001 12/12 A3013 RMK AO2=
201011240919 SPECI KATL 240919Z 00000KT 1/4SM R09R/1600V2400FT FG VV001 12/12 A3013 RMK AO2=
201011240919 SPECI KATL 240919Z 00000KT 1/4SM R09R/1600V2400FT FG VV001 12/12 A3013 RMK AO2=
201011240852 METAR KATL 240852Z 10003KT 1/4SM R09R/1400FT FG VV001 12/12 A3014 RMK AO2 TWR VIS 1/4 SLP203 T01220122 58000=
201011240752 METAR KATL 240752Z 05003KT 1/4SM R09R/1200V1600FT FG VV001 12/12 A3014 RMK AO2 TWR VIS 1/4 SLP203 T01220117=
201011240716 SPECI KATL 240716Z 00000KT 1/4SM R09R/1200V1400FT FG VV001 12/12 A3014 RMK AO2 TWR VIS 1/4=
201011240716 SPECI KATL 240716Z 00000KT 1/4SM R09R/1200V1400FT FG VV001 12/12 A3014 RMK AO2 TWR VIS 1/4=
201011240706 SPECI KATL 240706Z 32003KT 1/4SM R09R/1200V2400FT FG VV001 12/12 A3014 RMK AO2 TWR VIS 1/4=
201011240706 SPECI KATL 240706Z 32003KT 1/4SM R09R/1200V2400FT FG VV001 12/12 A3014 RMK AO2 TWR VIS 1/4=
201011240652 METAR KATL 240652Z 00000KT 1/4SM R09R/1400V1600FT FG VV001 12/12 A3014 RMK AO2 TWR VIS 1/4 SLP203 T01220122=
201011240625 SPECI KATL 240625Z 36004KT 1/4SM R09R/1400V1600FT FG VV001 13/12 A3014 RMK AO2=
201011240625 SPECI KATL 240625Z 36004KT 1/4SM R09R/1400V1600FT FG VV001 13/12 A3014 RMK AO2=
201011240617 SPECI KATL 240617Z 34003KT 1/4SM R09R/1400V6000FT FG VV001 13/12 A3014 RMK AO2 SFC VIS 1/2=
201011240617 SPECI KATL 240617Z 34003KT 1/4SM R09R/1400V6000FT FG VV001 13/12 A3014 RMK AO2 SFC VIS 1/2=
201011240552 METAR KATL 240552Z 00000KT 1/4SM BR OVC002 13/13 A3014 RMK AO2 SFC VIS 2 SLP202 60000 T01330128 10156 20133 50001=
201011240452 METAR KATL 240452Z 34005KT 2 1/2SM OVC004 13/13 A3015 RMK AO2 SFC VIS 7 SLP205 T01330128 402110133=
201011240352 METAR KATL 240352Z 31004KT 1SM OVC004 14/13 A3014 RMK AO2 SFC VIS 8 DZE52 SLP203 CIG 002V005 P0000 T01390133=
201011240252 METAR KATL 240252Z 33009KT 1SM -DZ BR OVC003 14/14 A3014 RMK AO2 SFC VIS 3 DZB27 SLP203 P0000 60000 T01440139 51015=
201011240231 SPECI KATL 240231Z 34008KT 1SM -DZ BR OVC004 14/14 A3014 RMK AO2 SFC VIS 4 DZB27 CIG 002V005 P0000=
201011240231 SPECI KATL 240231Z 34008KT 1SM -DZ BR OVC004 14/14 A3014 RMK AO2 SFC VIS 4 DZB27 CIG 002V005 P0000=
201011240152 METAR KATL 240152Z 32007KT 1/4SM R09R/4000VP6000FT BR OVC002 15/14 A3013 RMK AO2 SFC VIS 1 1/4 SLP200 T01500144=
201011240139 SPECI KATL 240139Z 32008KT 1/4SM R09R/5500VP6000FT BR OVC002 15/14 A3013 RMK AO2 SFC VIS 1 1/2=
201011240139 SPECI KATL 240139Z 32008KT 1/4SM R09R/5500VP6000FT BR OVC002 15/14 A3013 RMK AO2 SFC VIS 1 1/2=
201011240118 SPECI KATL 240118Z 32006KT 1/2SM BR OVC002 16/15 A3012 RMK AO2 SFC VIS 2 1/2=
201011240118 SPECI KATL 240118Z 32006KT 1/2SM BR OVC002 16/15 A3012 RMK AO2 SFC VIS 2 1/2=
201011240056 SPECI KATL 240056Z 31008KT 1 1/2SM OVC004 16/15 A3012 RMK AO2 SFC VIS 7 CIG 002V006=
201011240056 SPECI KATL 240056Z 31008KT 1 1/2SM OVC004 16/15 A3012 RMK AO2 SFC VIS 7 CIG 002V006=
201011240052 METAR KATL 240052Z 31009KT 8SM OVC005 16/15 A3012 RMK AO2 SLP197 CIG 002V007 T01560150=
201011240011 SPECI KATL 240011Z 27003KT 10SM BKN007 BKN070 OVC150 16/14 A3010 RMK AO2=
201011240011 SPECI KATL 240011Z 27003KT 10SM BKN007 BKN070 OVC150 16/14 A3010 RMK AO2=
201011232352 METAR KATL 232352Z 18003KT 10SM FEW006 SCT070 BKN150 16/14 A3009 RMK AO2 SLP188 60010 T01560144 10211 20156 50008=
201011232252 METAR KATL 232252Z 02006KT 10SM FEW030 SCT055 BKN080 BKN200 16/15 A3010 RMK AO2 RAE51 SLP190 P0003 T01610150=
201011232213 SPECI KATL 232213Z 34009KT 6SM -RA BR FEW005 BKN030 BKN050 OVC150 16/15 A3010 RMK AO2 P0002=
201011232213 SPECI KATL 232213Z 34009KT 6SM -RA BR FEW005 BKN030 BKN050 OVC150 16/15 A3010 RMK AO2 P0002=
201011232152 METAR KATL 232152Z 32012KT 5SM -RA BR FEW016CB BKN028 OVC036 17/15 A3010 RMK AO2 WSHFT 2123 RAB22 SLP192 CB NE-E-SE-S MOV E P0007 T01670150=
201011232138 SPECI KATL 232138Z 33014KT 5SM -RA BR FEW016CB BKN028 OVC036 17/16 A3009 RMK AO2 WSHFT 2123 RAB22 CB NE-E-SE-S MOV E P0004=
201011232138 SPECI KATL 232138Z 33014KT 5SM -RA BR FEW016CB BKN028 OVC036 17/16 A3009 RMK AO2 WSHFT 2123 RAB22 CB NE-E-SE-S MOV E P0004=
201011232128 SPECI KATL 232128Z 33014G22KT 3SM R09R/6000VP6000FT RA BKN016CB BKN033 OVC043 19/16 A3009 RMK AO2 RAB22 PRESRR CB OHD MOV E P0000=
201011232128 SPECI KATL 232128Z 33014G22KT 3SM R09R/6000VP6000FT RA BKN016CB BKN033 OVC043 19/16 A3009 RMK AO2 RAB22 PRESRR CB OHD MOV E P0000=
201011232125 SPECI KATL 232125Z 32019G22KT 6SM -RA BKN026CB BKN031 OVC046 21/16 A3008 RMK AO2 RAB22 PRESRR VIS LWR SW-NW SHRA CB OHD-SW-NW MOV E P0000=
201011232125 SPECI KATL 232125Z 32019G22KT 6SM -RA BKN026CB BKN031 OVC046 21/16 A3008 RMK AO2 RAB22 PRESRR VIS LWR SW-NW SHRA CB OHD-SW-NW MOV E P0000=
201011232052 METAR KATL 232052Z 21009KT 9SM FEW020CB BKN040 OVC060 21/16 A3007 RMK AO2 RAB15E25 SLP177 CB SW-NW MOV E SHRA SW-NW P0000 60000 T02110161 56014=
201011232020 SPECI KATL 232020Z 22006KT 10SM -RA FEW020 BKN035 OVC060 21/16 A3007 RMK AO2 RAB15 P0000=
201011232020 SPECI KATL 232020Z 22006KT 10SM -RA FEW020 BKN035 OVC060 21/16 A3007 RMK AO2 RAB15 P0000=
201011231952 METAR KATL 231952Z 22008KT 9SM BKN023 BKN030 OVC090 21/16 A3007 RMK AO2 SLP179 T02060156=
201011231852 METAR KATL 231852Z 22010KT 10SM BKN025 BKN030 OVC090 21/15 A3009 RMK AO2 SLP185 BINOVC SW T02060150=
201011231752 METAR KATL 231752Z 24007G16KT 10SM BKN024 BKN028 BKN090 21/15 A3011 RMK AO2 SLP192 60000 T02060150 10211 20150 58018=
201011231652 METAR KATL 231652Z 24008KT 10SM BKN022 BKN030 BKN090 21/14 A3014 RMK AO2 SLP201 T02110144=
201011231552 METAR KATL 231552Z 22010G19KT 10SM FEW015 SCT045 BKN090 20/15 A3015 RMK AO2 SLP206 T02000150=
201011231452 METAR KATL 231452Z 22009G17KT 8SM BKN010 BKN045 BKN085 17/15 A3016 RMK AO2 SLP212 60000 T01720150 53001=
201011231440 SPECI KATL 231440Z 24013G18KT 10SM BKN010 BKN045 BKN085 18/15 A3016 RMK AO2=
201011231440 SPECI KATL 231440Z 24013G18KT 10SM BKN010 BKN045 BKN085 18/15 A3016 RMK AO2=
201011231352 METAR KATL 231352Z 21009KT 8SM SCT046 BKN085 16/14 A3015 RMK AO2 SLP208 T01610144=
201011231252 METAR KATL 231252Z 21005KT 6SM BR FEW020 BKN050 BKN065 15/14 A3016 RMK AO2 RAB35E46 SLP209 P0000 T01500139=
201011231152 METAR KATL 231152Z 21006KT 8SM SCT070 BKN085 15/14 A3016 RMK AO2 SLP210 T01500139 10156 20139 53000=
201011231052 METAR KATL 231052Z 21005KT 8SM BKN085 14/13 A3016 RMK AO2 SLP209 T01440133=
201011230952 METAR KATL 230952Z 22003KT 8SM BKN090 14/13 A3016 RMK AO2 SLP208 T01390128=
201011230852 METAR KATL 230852Z 20004KT 9SM SCT070 14/13 A3016 RMK AO2 SLP209 T01390128 57012=
201011230752 METAR KATL 230752Z 21005KT 10SM SCT065 14/13 A3017 RMK AO2 SLP212 T01440128=
201011230652 METAR KATL 230652Z 19005KT 10SM BKN075 15/13 A3019 RMK AO2 SLP217 T01500133=
201011230552 METAR KATL 230552Z 19006KT 10SM BKN042 BKN060 15/13 A3020 RMK AO2 SLP221 T01500133 10178 20144 58002=
201011230452 METAR KATL 230452Z 17003KT 10SM FEW060 15/13 A3021 RMK AO2 SLP224 T01500128 402220133=
201011230352 METAR KATL 230352Z 16003KT 10SM FEW065 15/13 A3021 RMK AO2 SLP226 T01500128=
201011230252 METAR KATL 230252Z 16006KT 10SM CLR 16/13 A3020 RMK AO2 SLP225 T01560133 58002=
201011230152 METAR KATL 230152Z 14005KT 10SM CLR 16/13 A3021 RMK AO2 SLP228 T01610133=
201011230052 METAR KATL 230052Z 13003KT 10SM CLR 17/13 A3022 RMK AO2 SLP229 T01720133=
201011222352 METAR KATL 222352Z 15005KT 10SM CLR 18/13 A3021 RMK AO2 SLP227 T01780133 10222 20178 55002=
201011222252 METAR KATL 222252Z 16005KT 10SM FEW035 18/13 A3021 RMK AO2 SLP226 T01830133=
201011222152 METAR KATL 222152Z 16007KT 10SM FEW035 SCT070 21/13 A3021 RMK AO2 SLP227 T02060133=
201011222052 METAR KATL 222052Z 20007KT 10SM FEW035 SCT070 SCT280 22/13 A3022 RMK AO2 SLP228 T02170128 56021=
201011221952 METAR KATL 221952Z 16008KT 10SM FEW035 SCT070 SCT280 21/13 A3022 RMK AO2 SLP230 T02110128=
201011221852 METAR KATL 221852Z 16009KT 10SM FEW030 SCT070 SCT280 21/13 A3025 RMK AO2 SLP239 T02110128=
201011221752 METAR KATL 221752Z 18012G16KT 10SM FEW035 SCT060 SCT070 21/13 A3028 RMK AO2 SLP249 T02060128 10211 20139 58021=
201011221652 METAR KATL 221652Z 19010G14KT 10SM FEW030 BKN070 19/13 A3031 RMK AO2 SLP262 T01940128=
201011221552 METAR KATL 221552Z 17006KT 10SM BKN080 18/13 A3033 RMK AO2 SLP269 T01830128 $=
201011221452 METAR KATL 221452Z 14004KT 10SM BKN070 15/12 A3034 RMK AO2 SLP273 T01500122 51006 $=
201011221352 METAR KATL 221352Z 11003KT 10SM BKN070 14/12 A3034 RMK AO2 SLP271 T01440117=
201011221252 METAR KATL 221252Z 13005KT 10SM BKN070 14/12 A3033 RMK AO2 SLP269 T01440117=
201011221152 METAR KATL 221152Z 00000KT 10SM OVC070 14/12 A3032 RMK AO2 SLP266 T01440117 10144 20133 51005=
201011221052 METAR KATL 221052Z 00000KT 10SM OVC070 14/12 A3032 RMK AO2 SLP265 T01440117=
201011220952 METAR KATL 220952Z 14004KT 10SM OVC065 14/11 A3031 RMK AO2 SLP261 T01440111=
201011220852 METAR KATL 220852Z 14003KT 10SM OVC065 14/11 A3031 RMK AO2 SLP259 T01390106 53000=
201011220752 METAR KATL 220752Z 14004KT 10SM OVC060 14/09 A3030 RMK AO2 SLP257 T01390094=
201011220652 METAR KATL 220652Z 14004KT 10SM OVC060 14/09 A3030 RMK AO2 SLP256 T01390094=
201011220552 METAR KATL 220552Z 13003KT 10SM OVC060 13/09 A3031 RMK AO2 SLP259 T01330094 10172 20133 58002=
201011220452 METAR KATL 220452Z 13003KT 10SM FEW070 SCT250 13/09 A3031 RMK AO2 SLP261 T01330089 402220100=
201011220352 METAR KATL 220352Z 13004KT 10SM FEW060 14/09 A3032 RMK AO2 SLP264 T01390094=
201011220252 METAR KATL 220252Z 14003KT 10SM CLR 14/09 A3031 RMK AO2 SLP263 T01440094 53003=
201011220152 METAR KATL 220152Z 15004KT 10SM CLR 14/09 A3030 RMK AO2 SLP261 T01440094=
201011220052 METAR KATL 220052Z 14003KT 10SM FEW060 SCT250 16/09 A3030 RMK AO2 SLP260 T01610089=
201011212352 METAR KATL 212352Z 15004KT 10SM FEW060 17/09 A3030 RMK AO2 SLP260 T01720089 10222 20172 53002=
201011212252 METAR KATL 212252Z 14003KT 10SM BKN060 19/09 A3030 RMK AO2 SLP258 T01890089=
201011212152 METAR KATL 212152Z 19004KT 10SM BKN060 19/09 A3030 RMK AO2 SLP259 T01940089=
201011212052 METAR KATL 212052Z 14006KT 10SM BKN060 21/08 A3030 RMK AO2 SLP257 T02110083 55012=
201011211952 METAR KATL 211952Z 00000KT 10SM SCT055 BKN250 21/08 A3030 RMK AO2 SLP257 T02110078=
201011211852 METAR KATL 211852Z 19004KT 10SM SCT049 SCT060 BKN250 22/07 A3031 RMK AO2 SLP263 T02170072=
201011211752 SPECI KATL 211752Z VRB05KT 10SM SCT060 SCT250 21/11 A3034 RMK AO2 SLP270 T02060106 10206 20117 58014=
201011211652 METAR KATL 211652Z 17003KT 10SM BKN060 17/10 A3037 RMK AO2 SLP284 T01720100=
201011211552 METAR KATL 211552Z 00000KT 10SM OVC060 16/09 A3038 RMK AO2 SLP289 T01560094=
201011211452 METAR KATL 211452Z 00000KT 10SM BKN060 14/09 A3038 RMK AO2 SLP286 T01390089 51014=
201011211352 METAR KATL 211352Z 00000KT 10SM BKN055 13/09 A3037 RMK AO2 SLP282 T01330089=
201011211252 METAR KATL 211252Z 12003KT 10SM BKN055 12/08 A3035 RMK AO2 SLP276 T01220083=
201011211152 METAR KATL 211152Z 00000KT 10SM BKN055 12/08 A3033 RMK AO2 SLP271 T01170078 10122 20100 53010=
201011211052 METAR KATL 211052Z 13003KT 10SM SCT050 11/07 A3032 RMK AO2 SLP265 T01110072=
201011210952 METAR KATL 210952Z 00000KT 10SM FEW050 11/07 A3030 RMK AO2 SLP260 T01060067=
201011210852 METAR KATL 210852Z 00000KT 10SM BKN050 12/07 A3030 RMK AO2 SLP259 T01170067 58001=
201011210752 METAR KATL 210752Z 00000KT 10SM SCT050 11/07 A3031 RMK AO2 SLP262 T01110067=
201011210652 METAR KATL 210652Z 00000KT 10SM FEW055 12/07 A3030 RMK AO2 SLP259 T01170067=
201011210552 METAR KATL 210552Z COR 00000KT 10SM FEW055 12/07 A3031 RMK AO2 SLP260 T01220067 10156 20117 53003=
201011210452 METAR KATL 210452Z 00000KT 10SM CLR 12/07 A3030 RMK AO2 SLP259 T01220067 402060061=
201011210352 METAR KATL 210352Z 00000KT 10SM CLR 12/07 A3030 RMK AO2 SLP259 T01220072=
201011210252 METAR KATL 210252Z 14003KT 10SM CLR 13/07 A3030 RMK AO2 SLP259 T01330072 51008=
201011210152 METAR KATL 210152Z 13003KT 10SM CLR 14/07 A3029 RMK AO2 SLP258 T01390072=
201011210052 METAR KATL 210052Z 14003KT 10SM FEW150 SCT220 15/08 A3029 RMK AO2 SLP258 T01500078=
201011202352 METAR KATL 202352Z 12003KT 10SM CLR 16/07 A3027 RMK AO2 SLP252 T01560072 10206 20156 55003=
201011202252 METAR KATL 202252Z 00000KT 10SM FEW055 17/07 A3027 RMK AO2 SLP249 T01720067=
201011202152 METAR KATL 202152Z 00000KT 10SM FEW055 19/06 A3028 RMK AO2 SLP253 T01890061=
201011202052 METAR KATL 202052Z 08004KT 10SM FEW055 20/06 A3028 RMK AO2 SLP253 T02000061 55009=
201011201952 METAR KATL 201952Z 14003KT 10SM SCT055 20/06 A3028 RMK AO2 SLP252 T02000061=
201011201852 METAR KATL 201852Z 09003KT 10SM SCT055 19/06 A3029 RMK AO2 SLP256 T01890061=
201011201752 METAR KATL 201752Z 16006KT 10SM SCT050 19/06 A3031 RMK AO2 SLP262 T01940061 10194 20061 58014=
201011201652 METAR KATL 201652Z 17006KT 10SM BKN055 18/06 A3034 RMK AO2 SLP273 T01780056=
201011201552 METAR KATL 201552Z 19005KT 10SM BKN050 17/07 A3035 RMK AO2 SLP277 T01720072=
201011201452 METAR KATL 201452Z 21003KT 10SM BKN050 BKN150 14/07 A3035 RMK AO2 SLP279 T01390067 53013=
201011201352 METAR KATL 201352Z 00000KT 10SM FEW150 12/07 A3034 RMK AO2 SLP274 T01170067=
201011201252 METAR KATL 201252Z 00000KT 9SM FEW150 08/04 A3032 RMK AO2 SLP270 T00780044=
201011201152 METAR KATL 201152Z 00000KT 9SM CLR 07/04 A3031 RMK AO2 SLP266 T00670039 10100 20061 53012=
201011201052 METAR KATL 201052Z 00000KT 10SM CLR 09/05 A3029 RMK AO2 SLP259 T00890050=
201011200952 METAR KATL 200952Z 00000KT 9SM CLR 07/04 A3028 RMK AO2 SLP256 T00670044=
201011200852 METAR KATL 200852Z 00000KT 10SM CLR 08/04 A3028 RMK AO2 SLP252 T00830044 55005=
201011200752 METAR KATL 200752Z 00000KT 10SM CLR 08/04 A3028 RMK AO2 SLP252 T00830044=
201011200652 METAR KATL 200652Z 00000KT 10SM CLR 10/05 A3028 RMK AO2 SLP254 T01000050=
201011200552 METAR KATL 200552Z 00000KT 10SM CLR 10/05 A3029 RMK AO2 SLP257 T01000050 10139 20094 51003=
201011200452 METAR KATL 200452Z 00000KT 10SM CLR 09/05 A3029 RMK AO2 SLP257 T00940050 401830056=
201011200352 METAR KATL 200352Z 00000KT 10SM CLR 10/06 A3029 RMK AO2 SLP256 T01000056=
201011200252 METAR KATL 200252Z 20003KT 10SM CLR 11/06 A3028 RMK AO2 SLP255 T01060056 53009=
201011200152 METAR KATL 200152Z 18004KT 10SM CLR 11/06 A3027 RMK AO2 SLP251 T01110061=
201011200052 METAR KATL 200052Z 17003KT 10SM CLR 13/06 A3026 RMK AO2 SLP249 T01280061=
201011192352 METAR KATL 192352Z 00000KT 10SM CLR 14/06 A3026 RMK AO2 SLP248 T01390056 10183 20139 53005=
201011192252 METAR KATL 192252Z 17004KT 10SM CLR 14/05 A3024 RMK AO2 SLP243 T01440050=
201011192152 METAR KATL 192152Z 16006KT 10SM CLR 17/05 A3024 RMK AO2 SLP241 T01670050=
201011192052 METAR KATL 192052Z 00000KT 10SM FEW055 18/04 A3024 RMK AO2 SLP240 T01780044 56013=
201011191952 METAR KATL 191952Z 21007KT 10SM FEW050 18/05 A3024 RMK AO2 SLP241 T01780050=
201011191852 METAR KATL 191852Z 16005KT 10SM SCT050 16/05 A3026 RMK AO2 SLP246 T01610050=
201011191752 METAR KATL 191752Z 17004KT 10SM SCT050 17/04 A3028 RMK AO2 SLP254 T01670044 10178 20061 58012=
201011191652 METAR KATL 191652Z VRB03KT 10SM FEW050 16/04 A3030 RMK AO2 SLP261 T01610039=
201011191552 METAR KATL 191552Z 12003KT 10SM CLR 16/06 A3031 RMK AO2 SLP264 T01560056=
201011191452 METAR KATL 191452Z 07006KT 10SM CLR 14/06 A3032 RMK AO2 SLP266 T01390056 51017=
201011191352 METAR KATL 191352Z 07005KT 8SM CLR 12/07 A3030 RMK AO2 SLP263 T01170067=
201011191252 METAR KATL 191252Z 02003KT 10SM CLR 10/05 A3029 RMK AO2 SLP257 T01000050=
201011191152 METAR KATL 191152Z 00000KT 10SM CLR 06/03 A3026 RMK AO2 SLP250 T00610033 10083 20056 53008=
201011191052 METAR KATL 191052Z 35003KT 10SM CLR 07/04 A3025 RMK AO2 SLP244 T00670039=
201011190952 METAR KATL 190952Z 34004KT 10SM CLR 07/04 A3024 RMK AO2 SLP240 T00670044=
201011190852 METAR KATL 190852Z 33003KT 10SM CLR 06/04 A3024 RMK AO2 SLP240 T00610039 53002=
201011190752 METAR KATL 190752Z 00000KT 10SM CLR 07/04 A3024 RMK AO2 SLP239 T00720044=
201011190652 METAR KATL 190652Z 00000KT 10SM CLR 08/04 A3023 RMK AO2 SLP236 T00780044=
201011190552 METAR KATL 190552Z 30003KT 10SM FEW250 08/04 A3023 RMK AO2 SLP237 T00830044 10133 20072 58003=
201011190452 METAR KATL 190452Z 00000KT 10SM FEW250 08/05 A3024 RMK AO2 SLP240 T00830050 401720039=
201011190352 METAR KATL 190352Z 02005KT 10SM FEW060 11/04 A3024 RMK AO2 SLP242 T01110044=
201011190252 METAR KATL 190252Z 00000KT 10SM BKN060 11/05 A3024 RMK AO2 SLP241 T01110050 51012=
201011190152 METAR KATL 190152Z 00000KT 10SM BKN060 11/05 A3023 RMK AO2 SLP238 T01060050=
201011190052 METAR KATL 190052Z 34005KT 10SM BKN060 12/04 A3022 RMK AO2 SLP236 T01220044=
201011182352 METAR KATL 182352Z 31003KT 10SM FEW055 12/06 A3020 RMK AO2 SLP231 T01220056 10172 20122 53013=
201011182252 METAR KATL 182252Z 29004KT 10SM SCT055 14/05 A3019 RMK AO2 SLP224 T01440050=
201011182152 METAR KATL 182152Z 27005KT 10SM SCT055 15/04 A3018 RMK AO2 SLP222 T01500044=
201011182052 METAR KATL 182052Z 00000KT 10SM FEW050 17/04 A3016 RMK AO2 SLP216 T01670039 56009=
201011181952 METAR KATL 181952Z 34005KT 10SM FEW050 SCT080 17/04 A3017 RMK AO2 SLP216 T01670039=
201011181852 METAR KATL 181852Z 00000KT 10SM FEW045 BKN075 17/05 A3017 RMK AO2 SLP217 T01670050=
201011181752 METAR KATL 181752Z 31004KT 10SM FEW080 SCT150 16/04 A3019 RMK AO2 SLP225 T01560039 10156 20039 58020=
201011181652 METAR KATL 181652Z 00000KT 10SM BKN080 BKN150 BKN200 14/04 A3022 RMK AO2 SLP233 VIRGA DSNT E T01390044=
201011181552 METAR KATL 181552Z 36006KT 10SM BKN095 BKN150 BKN200 14/05 A3023 RMK AO2 SLP239 VIRGA DSNT N-NE T01390050=
201011181452 SPECI KATL 181452Z 32004KT 10SM BKN120 BKN150 BKN200 09/05 A3026 RMK AO2 SLP247 VIRGA N-NE & SE-S & NW T00940050 53017=
201011181352 METAR KATL 181352Z 24005KT 10SM BKN120 11/06 A3022 RMK AO2 SLP236 T01060056=
201011181252 METAR KATL 181252Z 31004KT 10SM SCT120 SCT180 06/03 A3022 RMK AO2 SLP237 T00560033=
201011181152 METAR KATL 181152Z 31004KT 10SM FEW120 SCT200 04/02 A3020 RMK AO2 SLP232 T00390022 10067 20039 51016=
201011181052 METAR KATL 181052Z 28008KT 10SM FEW150 04/03 A3020 RMK AO2 SLP229 T00440028=
201011180952 METAR KATL 180952Z 00000KT 10SM FEW150 05/03 A3016 RMK AO2 SLP216 T00500028=
201011180852 METAR KATL 180852Z 00000KT 10SM CLR 04/03 A3015 RMK AO2 SLP213 T00440028 55004=
201011180752 METAR KATL 180752Z 33003KT 10SM CLR 06/03 A3014 RMK AO2 SLP206 T00610033=
201011180652 METAR KATL 180652Z 33004KT 10SM CLR 07/04 A3015 RMK AO2 SLP210 T00670039=
201011180552 METAR KATL 180552Z 31006KT 10SM CLR 06/04 A3017 RMK AO2 SLP217 T00610039 10106 20061 51003=
201011180452 METAR KATL 180452Z 30005KT 10SM CLR 07/03 A3017 RMK AO2 SLP217 T00720033 401560050=
201011180352 METAR KATL 180352Z 32004KT 10SM CLR 09/03 A3016 RMK AO2 SLP215 T00890033=
201011180252 METAR KATL 180252Z 34006KT 10SM CLR 09/03 A3016 RMK AO2 SLP214 T00890033 51002=
201011180152 METAR KATL 180152Z 33005KT 10SM CLR 10/04 A3016 RMK AO2 SLP215 T01000039=
201011180052 METAR KATL 180052Z 31005KT 10SM CLR 10/03 A3016 RMK AO2 SLP216 T01000033=
201011172352 METAR KATL 172352Z 32006KT 10SM CLR 11/03 A3015 RMK AO2 SLP213 T01060028 10156 20106 53014=
201011172252 METAR KATL 172252Z 32006KT 10SM CLR 12/02 A3014 RMK AO2 SLP208 T01170022=
201011172152 METAR KATL 172152Z 32009KT 10SM CLR 14/02 A3012 RMK AO2 SLP200 T01390017=
201011172052 METAR KATL 172052Z 32007KT 10SM CLR 15/02 A3011 RMK AO2 SLP197 T01500022 55007=
201011171952 METAR KATL 171952Z 35010KT 10SM CLR 15/02 A3011 RMK AO2 SLP196 T01500022=
201011171852 METAR KATL 171852Z 36009KT 10SM CLR 14/03 A3012 RMK AO2 SLP200 T01440028=
201011171752 METAR KATL 171752Z 35009KT 10SM CLR 13/03 A3013 RMK AO2 SLP205 T01330033 10139 20050 50003=
201011171652 METAR KATL 171652Z 32007KT 10SM FEW030 12/04 A3015 RMK AO2 SLP210 T01220039=
201011171552 METAR KATL 171552Z 31009G14KT 10SM FEW025 11/04 A3015 RMK AO2 SLP210 T01110039=
201011171452 METAR KATL 171452Z 32008KT 10SM CLR 09/03 A3013 RMK AO2 SLP202 T00940033 51036=
201011171352 METAR KATL 171352Z 33010KT 10SM CLR 07/03 A3010 RMK AO2 SLP192 T00720028=
201011171252 METAR KATL 171252Z 32007KT 10SM CLR 06/02 A3005 RMK AO2 SLP178 T00560022=
201011171152 METAR KATL 171152Z 33008KT 10SM CLR 06/02 A3002 RMK AO2 SLP165 70004 T00560017 10100 20056 51008=
201011171052 METAR KATL 171052Z 32013KT 10SM FEW029 06/02 A3001 RMK AO2 SLP163 T00610022 $=
201011170952 METAR KATL 170952Z 31013KT 10SM SCT029 07/02 A3001 RMK AO2 SLP163 T00720022 $=
201011170852 METAR KATL 170852Z 30011KT 10SM BKN029 BKN034 08/03 A2999 RMK AO2 SLP154 T00830028 53033 $=
201011170752 METAR KATL 170752Z 30014G19KT 10SM BKN029 OVC034 09/03 A2996 RMK AO2 SLP142 T00890028 $=
201011170652 METAR KATL 170652Z 30016G20KT 10SM BKN029 OVC034 09/04 A2992 RMK AO2 SLP130 T00940039 $=
201011170552 METAR KATL 170552Z 28013G23KT 10SM FEW025 BKN035 10/04 A2989 RMK AO2 PK WND 30026/0515 SLP119 T01000039 10172 20100 53029 $=
201011170452 METAR KATL 170452Z 27011KT 10SM FEW025 SCT035 BKN050 12/07 A2985 RMK AO2 SLP107 T01170067 402170117 $=
201011170352 METAR KATL 170352Z 27011G24KT 10SM FEW040 12/07 A2983 RMK AO2 SLP099 T01220067 $=
201011170252 METAR KATL 170252Z 27013G22KT 10SM FEW040 13/07 A2980 RMK AO2 SLP089 T01330067 51032 $=
201011170152 METAR KATL 170152Z 27013G22KT 10SM FEW040 14/07 A2977 RMK AO2 SLP079 T01440067 $=
201011170052 METAR KATL 170052Z 27014G21KT 10SM FEW050 SCT200 16/08 A2974 RMK AO2 SLP067 T01610078 $=
201011162352 METAR KATL 162352Z 24007G14KT 10SM FEW070 SCT150 BKN200 17/08 A2970 RMK AO2 SLP055 60002 T01670083 10217 20161 51026 $=
201011162252 METAR KATL 162252Z 24012G17KT 10SM FEW020 BKN090 BKN150 BKN200 18/08 A2969 RMK AO2 RAE2159 SLP048 CB DSNT NE TCU DSNT S-SW P0000 T01780078 $=
201011162155 SPECI KATL 162155Z 23013G26KT 10SM -RA FEW020CB BKN080 BKN200 17/09 A2966 RMK AO2 VIS LWR E SHRA CB E MOV NE P0000 $=
201011162155 SPECI KATL 162155Z 23013G26KT 10SM -RA FEW020CB BKN080 BKN200 17/09 A2966 RMK AO2 VIS LWR E SHRA CB E MOV NE P0000 $=
201011162152 METAR KATL 162152Z 23015G26KT 10SM -RA FEW040CB BKN070 BKN200 17/09 A2966 RMK AO2 PK WND 20026/2148 RAB19 SLP041 VIS LWR SE SHRA CB OHD-SE MOV NE P0002 T01670094 $=
201011162148 SPECI KATL 162148Z 21018G26KT 10SM RA FEW040CB BKN070 BKN200 18/10 A2966 RMK AO2 PK WND 20026/2148 RAB19 CB OHD-S MOV NE CB DSNT NE SHRA DSNT NE & VC S P0000 $=
201011162148 SPECI KATL 162148Z 21018G26KT 10SM RA FEW040CB BKN070 BKN200 18/10 A2966 RMK AO2 PK WND 20026/2148 RAB19 CB OHD-S MOV NE CB DSNT NE SHRA DSNT NE & VC S P0000 $=
201011162135 SPECI KATL 162135Z 24012G17KT 10SM FEW040CB BKN065 BKN200 19/09 A2965 RMK AO2 RAB19E35 CB E MOV NE CB DSNT SW SHRA E & DSNT SW P0000 $=
201011162135 SPECI KATL 162135Z 24012G17KT 10SM FEW040CB BKN065 BKN200 19/09 A2965 RMK AO2 RAB19E35 CB E MOV NE CB DSNT SW SHRA E & DSNT SW P0000 $=
201011162123 SPECI KATL 162123Z 23017G23KT 10SM -RA FEW050CB BKN065 BKN200 20/08 A2964 RMK AO2 RAB19 CB S MOV NE SHRA S P0000 $=
201011162123 SPECI KATL 162123Z 23017G23KT 10SM -RA FEW050CB BKN065 BKN200 20/08 A2964 RMK AO2 RAB19 CB S MOV NE SHRA S P0000 $=
201011162052 METAR KATL 162052Z 24016G21KT 10SM FEW050 SCT150 BKN200 21/09 A2963 RMK AO2 SLP027 T02110094 55001 $=
201011161952 METAR KATL 161952Z 24016G23KT 10SM FEW040 SCT050 SCT150 21/11 A2961 RMK AO2 SLP022 TCU DSNT SE-S T02110111 $=
201011161852 METAR KATL 161852Z 24012G22KT 10SM FEW025 SCT035 20/14 A2961 RMK AO2 SLP023 T02000144 $=
201011161828 SPECI KATL 161828Z 22014G22KT 10SM FEW015 SCT025 BKN035 19/15 A2962 RMK AO2 $=
201011161828 SPECI KATL 161828Z 22014G22KT 10SM FEW015 SCT025 BKN035 19/15 A2962 RMK AO2 $=
201011161755 SPECI KATL 161755Z 22015G23KT 10SM FEW010 BKN020 BKN030 18/16 A2963 RMK AO2 $=
201011161755 SPECI KATL 161755Z 22015G23KT 10SM FEW010 BKN020 BKN030 18/16 A2963 RMK AO2 $=
201011161752 METAR KATL 161752Z 23013G18KT 10SM SCT012 BKN016 OVC029 18/16 A2963 RMK AO2 RAE1653 SLP029 BINOVC 60002 T01830156 10183 20150 56008 $=
201011161750 SPECI KATL 161750Z 22010G18KT 10SM FEW010 BKN012 OVC020 18/16 A2963 RMK AO2 RAE1653 BINOVC $=
201011161750 SPECI KATL 161750Z 22010G18KT 10SM FEW010 BKN012 OVC020 18/16 A2963 RMK AO2 RAE1653 BINOVC $=
201011161707 SPECI KATL 161707Z 19010KT 10SM FEW010 BKN015 OVC020 17/16 A2964 RMK AO2 RAE1653=
201011161707 SPECI KATL 161707Z 19010KT 10SM FEW010 BKN015 OVC020 17/16 A2964 RMK AO2 RAE1653=
201011161652 METAR KATL 161652Z 20009KT 8SM -RA BKN010 OVC015 17/16 A2964 RMK AO2 RAB07 CIG 007V012 SLP035 P0000 T01670156=
201011161607 SPECI KATL 161607Z 18010G23KT 6SM -RA BR FEW010 BKN013 OVC019 17/15 A2965 RMK AO2 RAB07 P0000=
201011161607 SPECI KATL 161607Z 18010G23KT 6SM -RA BR FEW010 BKN013 OVC019 17/15 A2965 RMK AO2 RAB07 P0000=
201011161552 METAR KATL 161552Z 18010KT 10SM BKN010 BKN015 OVC018 17/15 A2965 RMK AO2 SLP038 T01670150=
201011161542 SPECI KATL 161542Z 18012KT 10SM FEW006 BKN010 OVC015 17/15 A2965 RMK AO2=
201011161542 SPECI KATL 161542Z 18012KT 10SM FEW006 BKN010 OVC015 17/15 A2965 RMK AO2=
201011161452 METAR KATL 161452Z 16012KT 10SM OVC006 16/15 A2965 RMK AO2 SLP038 60002 T01610150 58017=
201011161359 SPECI KATL 161359Z 15015G21KT 10SM BKN009 BKN015 16/14 A2967 RMK AO2=
201011161359 SPECI KATL 161359Z 15015G21KT 10SM BKN009 BKN015 16/14 A2967 RMK AO2=
201011161352 METAR KATL 161352Z 15011G19KT 10SM BKN011 BKN015 16/14 A2969 RMK AO2 RAE28 SLP049 P0002 T01610144=
201011161342 SPECI KATL 161342Z 15011KT 10SM BKN011 BKN015 16/14 A2968 RMK AO2 RAE28 P0002=
201011161342 SPECI KATL 161342Z 15011KT 10SM BKN011 BKN015 16/14 A2968 RMK AO2 RAE28 P0002=
201011161252 METAR KATL 161252Z 15012KT 10SM -RA BKN007 OVC012 16/14 A2968 RMK AO2 RAB34 SLP048 P0000 T01560139=
201011161152 METAR KATL 161152Z 17011G20KT 6SM BR BKN007 OVC010 15/14 A2971 RMK AO2 RAE18 SLP056 P0000 60009 70103 T01500139 10150 20139 56022=
201011161052 METAR KATL 161052Z 17009G18KT 6SM -RA BR BKN005 OVC008 15/14 A2973 RMK AO2 SLP064 P0004 T01500139=
201011160952 METAR KATL 160952Z 15009KT 6SM -RA BR BKN007 OVC010 14/13 A2975 RMK AO2 SLP071 P0004 T01390128=
201011160934 SPECI KATL 160934Z 16008KT 10SM -RA BKN008 OVC013 14/13 A2976 RMK AO2 CIG 006V011 P0001=
201011160934 SPECI KATL 160934Z 16008KT 10SM -RA BKN008 OVC013 14/13 A2976 RMK AO2 CIG 006V011 P0001=
201011160917 SPECI KATL 160917Z 17006KT 10SM -RA BKN013 OVC018 14/12 A2977 RMK AO2 P0001=
201011160917 SPECI KATL 160917Z 17006KT 10SM -RA BKN013 OVC018 14/12 A2977 RMK AO2 P0001=
201011160852 METAR KATL 160852Z 18008KT 10SM -RA SCT008 OVC019 14/13 A2977 RMK AO2 RAB01 SLP079 P0000 60001 T01440128 55009=
201011160752 METAR KATL 160752Z 18009KT 10SM BKN012 OVC016 14/13 A2977 RMK AO2 RAE11 SLP079 P0001 T01440128=
201011160652 METAR KATL 160652Z 17007KT 8SM -RA BKN014 OVC080 14/12 A2979 RMK AO2 RAB31 SLP087 P0000 T01440122=
201011160613 SPECI KATL 160613Z 17011KT 10SM SCT014 BKN080 OVC150 14/12 A2980 RMK AO2=
201011160613 SPECI KATL 160613Z 17011KT 10SM SCT014 BKN080 OVC150 14/12 A2980 RMK AO2=
201011160552 METAR KATL 160552Z 16012KT 10SM BKN014 BKN080 OVC150 14/13 A2980 RMK AO2 RAE0459 SLP089 CIG 012V017 P0000 60000 T01440128 10144 20133 58015=
201011160508 SPECI KATL 160508Z 18009KT 10SM BKN013 BKN020 OVC100 14/12 A2983 RMK AO2 RAE0459 P0000=
201011160508 SPECI KATL 160508Z 18009KT 10SM BKN013 BKN020 OVC100 14/12 A2983 RMK AO2 RAE0459 P0000=
201011160452 METAR KATL 160452Z 17007KT 10SM -RA OVC015 14/12 A2983 RMK AO2 RAE10B49 SLP099 CIG 012V018 P0000 T01440122 401440133=
201011160411 SPECI KATL 160411Z 00000KT 10SM BKN016 BKN040 OVC120 14/12 A2983 RMK AO2 RAE10 P0000=
201011160411 SPECI KATL 160411Z 00000KT 10SM BKN016 BKN040 OVC120 14/12 A2983 RMK AO2 RAE10 P0000=
201011160352 METAR KATL 160352Z VRB06KT 10SM -RA SCT040 BKN120 OVC150 14/12 A2982 RMK AO2 RAB20 SLP094 P0000 T01390117=
201011160252 METAR KATL 160252Z 12005KT 10SM SCT045 BKN060 OVC100 14/12 A2985 RMK AO2 SLP105 T01390117 53004=
201011160152 METAR KATL 160152Z 12006KT 10SM BKN065 OVC100 14/12 A2984 RMK AO2 SLP103 T01390117=
201011160052 METAR KATL 160052Z 12008KT 10SM BKN070 OVC110 14/12 A2984 RMK AO2 SLP101 T01390122=
201011152352 METAR KATL 152352Z 11012KT 10SM FEW025 BKN070 OVC110 14/12 A2983 RMK AO2 SLP100 60003 T01390122 10139 20133 56019=
201011152252 METAR KATL 152252Z 12009KT 9SM FEW025 BKN110 OVC150 14/12 A2985 RMK AO2 SLP106 T01390122=
201011152207 SPECI KATL 152207Z 13007KT 6SM BR FEW006 BKN100 OVC150 14/13 A2986 RMK AO2=
201011152207 SPECI KATL 152207Z 13007KT 6SM BR FEW006 BKN100 OVC150 14/13 A2986 RMK AO2=
201011152152 METAR KATL 152152Z 13011G17KT 6SM BR BKN006 BKN030 OVC080 14/13 A2985 RMK AO2 SLP107 T01390128=
201011152114 SPECI KATL 152114Z 11008KT 6SM BR BKN006 BKN030 OVC090 14/13 A2987 RMK AO2=
201011152114 SPECI KATL 152114Z 11008KT 6SM BR BKN006 BKN030 OVC090 14/13 A2987 RMK AO2=
201011152052 METAR KATL 152052Z 12008KT 6SM BR FEW008 BKN030 OVC090 14/12 A2989 RMK AO2 RAE02B34E50 SLP120 P0000 60003 T01390122 55022=
201011151952 METAR KATL 151952Z 07007KT 10SM -RA FEW010 SCT070 OVC090 14/12 A2988 RMK AO2 PRESFR SLP116 P0000 T01390122=
201011151852 METAR KATL 151852Z 00000KT 10SM -RA FEW005 SCT030 OVC070 13/12 A2992 RMK AO2 SLP130 P0003 T01330117=
201011151752 METAR KATL 151752Z 23003KT 9SM -RA FEW008 SCT030 OVC080 13/12 A2996 RMK AO2 SLP142 P0007 60091 T01330117 10144 20133 58004=
201011151659 SPECI KATL 151659Z 25007KT 3SM -RA BR BKN008 BKN030 OVC050 14/13 A2998 RMK AO2 SFC VIS 4 P0002=
201011151659 SPECI KATL 151659Z 25007KT 3SM -RA BR BKN008 BKN030 OVC050 14/13 A2998 RMK AO2 SFC VIS 4 P0002=
201011151652 METAR KATL 151652Z 22004KT 3SM RA BR FEW008 SCT030 OVC050 14/13 A2998 RMK AO2 SLP151 P0012 T01390128=
201011151643 SPECI KATL 151643Z 22008KT 5SM -RA BR FEW008 SCT030 OVC050 14/13 A2998 RMK AO2 P0010=
201011151643 SPECI KATL 151643Z 22008KT 5SM -RA BR FEW008 SCT030 OVC050 14/13 A2998 RMK AO2 P0010=
201011151616 SPECI KATL 151616Z 20006KT 5SM -RA BR BKN006 BKN027 OVC049 14/13 A2998 RMK AO2 P0004=
201011151616 SPECI KATL 151616Z 20006KT 5SM -RA BR BKN006 BKN027 OVC049 14/13 A2998 RMK AO2 P0004=
201011151558 SPECI KATL 151558Z 21007KT 4SM -RA BR FEW006 BKN027 OVC039 14/13 A2998 RMK AO2 P0001=
201011151558 SPECI KATL 151558Z 21007KT 4SM -RA BR FEW006 BKN027 OVC039 14/13 A2998 RMK AO2 P0001=
201011151552 METAR KATL 151552Z 21008KT 6SM RA BR FEW010 BKN030 OVC040 14/13 A2998 RMK AO2 SLP148 P0023 T01440128=
201011151536 SPECI KATL 151536Z 21005KT 6SM -RA BR FEW005 BKN010 OVC050 14/12 A2998 RMK AO2 P0021=
201011151536 SPECI KATL 151536Z 21005KT 6SM -RA BR FEW005 BKN010 OVC050 14/12 A2998 RMK AO2 P0021=
201011151530 SPECI KATL 151530Z 20007KT 2 1/2SM RA BR FEW005 BKN010 OVC050 14/12 A2998 RMK AO2 SFC VIS 4 P0020=
201011151530 SPECI KATL 151530Z 20007KT 2 1/2SM RA BR FEW005 BKN010 OVC050 14/12 A2998 RMK AO2 SFC VIS 4 P0020=
201011151504 SPECI KATL 151504Z 22007KT 1 1/2SM R09R/6000VP6000FT +RA BR FEW005 BKN008 OVC010 14/13 A2998 RMK AO2 P0007=
201011151504 SPECI KATL 151504Z 22007KT 1 1/2SM R09R/6000VP6000FT +RA BR FEW005 BKN008 OVC010 14/13 A2998 RMK AO2 P0007=
201011151452 METAR KATL 151452Z 21006KT 1 1/2SM R09R/5500VP6000FT RA BR FEW005 BKN010 OVC040 14/13 A2997 RMK AO2 SFC VIS 1 3/4 SLP146 P0030 60049 T01390133 51016=
201011151405 SPECI KATL 151405Z 00000KT 1 1/2SM RA BR FEW001 BKN005 OVC038 14/13 A2996 RMK AO2 P0008=
201011151405 SPECI KATL 151405Z 00000KT 1 1/2SM RA BR FEW001 BKN005 OVC038 14/13 A2996 RMK AO2 P0008=
201011151352 METAR KATL 151352Z 25003KT 1 1/2SM RA BR BKN003 BKN006 OVC015 14/13 A2996 RMK AO2 SLP144 P0016 T01390133=
201011151316 SPECI KATL 151316Z 29003KT 1 1/2SM -RA BR BKN003 BKN006 OVC015 14/13 A2995 RMK AO2 SFC VIS 2 1/2 P0007=
201011151316 SPECI KATL 151316Z 29003KT 1 1/2SM -RA BR BKN003 BKN006 OVC015 14/13 A2995 RMK AO2 SFC VIS 2 1/2 P0007=
201011151222 SPECI KATL 151222Z 00000KT 1/2SM -RA BR BKN001 OVC005 13/13 A2993 RMK AO2 SFC VIS 2 RAB13 P0001=
201011151222 SPECI KATL 151222Z 00000KT 1/2SM -RA BR BKN001 OVC005 13/13 A2993 RMK AO2 SFC VIS 2 RAB13 P0001=
201011151152 METAR KATL 151152Z 13003KT 1SM BR BKN003 BKN034 BKN060 13/13 A2992 RMK AO2 SFC VIS 4 SLP129 60060 70071 T01330128 10139 20133 58000=
201011151139 SPECI KATL 151139Z 13003KT 1SM BR BKN003 OVC034 13/13 A2993 RMK AO2 SFC VIS 4=
201011151139 SPECI KATL 151139Z 13003KT 1SM BR BKN003 OVC034 13/13 A2993 RMK AO2 SFC VIS 4=
201011151052 METAR KATL 151052Z 19003KT 1/4SM BR BKN003 OVC006 13/13 A2993 RMK AO2 SFC VIS 3 SLP130 T01330128 $=
201011150957 SPECI KATL 150957Z 17005KT 1/4SM BR BKN003 BKN012 OVC090 13/13 A2992 RMK AO2 SFC VIS 3 $=
201011150957 SPECI KATL 150957Z 17005KT 1/4SM BR BKN003 BKN012 OVC090 13/13 A2992 RMK AO2 SFC VIS 3 $=
201011150952 METAR KATL 150952Z 17006KT 6SM BR FEW003 BKN024 OVC090 13/13 A2992 RMK AO2 RAE50 SLP129 P0002 T01330128 $=
201011150948 SPECI KATL 150948Z 16006KT 6SM -RA BR FEW009 SCT020 OVC090 13/13 A2992 RMK AO2 P0002 $=
201011150948 SPECI KATL 150948Z 16006KT 6SM -RA BR FEW009 SCT020 OVC090 13/13 A2992 RMK AO2 P0002 $=
201011150909 SPECI KATL 150909Z 15008KT 4SM -RA BR SCT001 BKN016 OVC085 14/13 A2993 RMK AO2 P0001 $=
201011150909 SPECI KATL 150909Z 15008KT 4SM -RA BR SCT001 BKN016 OVC085 14/13 A2993 RMK AO2 P0001 $=
201011150852 METAR KATL 150852Z 13007KT 3SM RA BR BKN001 BKN005 OVC023 14/13 A2994 RMK AO2 SLP135 P0051 60058 T01390133 58011 $=
201011150827 SPECI KATL 150827Z 17006KT 2 1/2SM +RA BR BKN001 BKN005 OVC023 14/13 A2996 RMK AO2 P0038 $=
201011150827 SPECI KATL 150827Z 17006KT 2 1/2SM +RA BR BKN001 BKN005 OVC023 14/13 A2996 RMK AO2 P0038 $=
201011150817 SPECI KATL 150817Z 16005KT 1 3/4SM +RA BR BKN001 BKN005 OVC023 14/13 A2997 RMK AO2 P0030 $=
201011150817 SPECI KATL 150817Z 16005KT 1 3/4SM +RA BR BKN001 BKN005 OVC023 14/13 A2997 RMK AO2 P0030 $=
201011150758 SPECI KATL 150758Z 00000KT 1 1/4SM +RA BR BKN003 BKN021 OVC032 14/13 A2997 RMK AO2 P0006 $=
201011150758 SPECI KATL 150758Z 00000KT 1 1/4SM +RA BR BKN003 BKN021 OVC032 14/13 A2997 RMK AO2 P0006 $=
201011150752 METAR KATL 150752Z 26003KT 2 1/2SM +RA BR FEW003 BKN026 OVC032 14/13 A2997 RMK AO2 RAB0659 SLP146 P0007 T01390133 $=
201011150652 METAR KATL 150652Z 00000KT 7SM BKN031 OVC070 14/13 A2996 RMK AO2 RAB19E31 SLP140 P0000 T01390133 $=
201011150621 SPECI KATL 150621Z 12004KT 7SM -RA BKN027 OVC032 14/13 A2996 RMK AO2 RAB19 P0000 $=
201011150621 SPECI KATL 150621Z 12004KT 7SM -RA BKN027 OVC032 14/13 A2996 RMK AO2 RAB19 P0000 $=
201011150552 METAR KATL 150552Z 00000KT 7SM BKN033 BKN042 14/13 A2998 RMK AO2 SLP147 60005 T01390133 10156 20133 58007 $=
201011150452 METAR KATL 150452Z 15003KT 7SM SCT042 BKN080 14/13 A2998 RMK AO2 SLP148 T01390133 402110067 $=
201011150352 METAR KATL 150352Z 00000KT 10SM FEW042 SCT070 14/13 A3000 RMK AO2 SLP155 T01390133 $=
201011150252 METAR KATL 150252Z 00000KT 10SM SCT044 BKN055 BKN100 14/14 A3000 RMK AO2 RAB09E20 SLP156 P0000 60005 T01440139 56002 $=
201011150152 METAR KATL 150152Z 00000KT 8SM FEW007 BKN046 BKN095 15/13 A3000 RMK AO2 RAB02E50 SLP159 P0004 T01500133 $=
201011150149 SPECI KATL 150149Z 27003KT 7SM -RA FEW007 BKN048 BKN095 15/13 A3001 RMK AO2 RAB02 P0004 $=
201011150149 SPECI KATL 150149Z 27003KT 7SM -RA FEW007 BKN048 BKN095 15/13 A3001 RMK AO2 RAB02 P0004 $=
201011150052 METAR KATL 150052Z 30003KT 10SM FEW044 BKN075 14/13 A2999 RMK AO2 RAE36 SLP157 SHRA SW P0001 T01440133 $=
201011142352 METAR KATL 142352Z 32006KT 7SM -RA FEW018 BKN042 OVC060 16/13 A3000 RMK AO2 RAB2254 SLP160 P0006 60006 T01560128 10211 20156 53001 $=
201011142327 SPECI KATL 142327Z 26005KT 4SM RA FEW014 BKN039 OVC050 16/12 A3000 RMK AO2 RAB2254 P0004 $=
201011142327 SPECI KATL 142327Z 26005KT 4SM RA FEW014 BKN039 OVC050 16/12 A3000 RMK AO2 RAB2254 P0004 $=
201011142252 METAR KATL 142252Z 22004KT 10SM BKN039 BKN050 OVC100 18/09 A2999 RMK AO2 SLP155 SHRA SW-NW T01830094 $=
201011142152 METAR KATL 142152Z 23004KT 10SM SCT049 BKN060 BKN070 BKN150 19/09 A3000 RMK AO2 SLP156 T01890089 $=
201011142052 METAR KATL 142052Z 20010KT 10SM SCT050 SCT080 BKN150 21/08 A3000 RMK AO2 SLP157 T02060083 56016 $=
201011141952 METAR KATL 141952Z 21006KT 10SM SCT060 SCT080 BKN150 21/10 A3001 RMK AO2 SLP161 T02060100 $=
201011141852 METAR KATL 141852Z 25006KT 10SM SCT037 SCT060 BKN150 20/10 A3002 RMK AO2 SLP164 T02000100 $=
201011141752 METAR KATL 141752Z 25009KT 10SM SCT024 19/09 A3005 RMK AO2 SLP173 T01940094 10200 20078 58018 $=
201011141739 SPECI KATL 141739Z 25007KT 10SM SCT022 19/09 A3006 RMK AO2 $=
201011141739 SPECI KATL 141739Z 25007KT 10SM SCT022 19/09 A3006 RMK AO2 $=
201011141712 SPECI KATL 141712Z 25009KT 10SM BKN022 BKN070 BKN150 18/08 A3006 RMK AO2 $=
201011141712 SPECI KATL 141712Z 25009KT 10SM BKN022 BKN070 BKN150 18/08 A3006 RMK AO2 $=
201011141652 METAR KATL 141652Z 21006KT 10SM FEW027 SCT070 SCT150 18/06 A3007 RMK AO2 SLP181 T01830056 $=
201011141552 METAR KATL 141552Z 22006KT 10SM SCT080 BKN095 BKN150 15/02 A3010 RMK AO2 SLP191 T01500017 $=
201011141452 METAR KATL 141452Z 21005KT 10SM SCT110 BKN150 BKN200 BKN250 14/01 A3010 RMK AO2 SLP193 T01390011 51008 $=
201011141352 METAR KATL 141352Z 18004KT 10SM FEW040 SCT100 BKN150 11/01 A3010 RMK AO2 SLP193 T01110011 $=
201011141252 METAR KATL 141252Z 00000KT 10SM SCT120 BKN150 09/02 A3009 RMK AO2 SLP191 T00890017 $=
201011141152 METAR KATL 141152Z 17003KT 10SM FEW120 SCT200 08/00 A3008 RMK AO2 SLP186 T00830000 10100 20067 53004 $=
201011141052 METAR KATL 141052Z 22003KT 10SM FEW200 07/00 A3007 RMK AO2 SLP183 T00720000 $=
201011140952 METAR KATL 140952Z 00000KT 10SM FEW200 08/01 A3007 RMK AO2 SLP180 T00780011 $=
201011140852 METAR KATL 140852Z 00000KT 10SM FEW200 07/02 A3007 RMK AO2 SLP180 T00720017 58010 $=
201011140752 METAR KATL 140752Z 00000KT 10SM CLR 07/02 A3008 RMK AO2 SLP184 T00720017 $=
201011140652 METAR KATL 140652Z 00000KT 10SM FEW250 09/00 A3009 RMK AO2 SLP186 T00940000 $=
201011140552 METAR KATL 140552Z 00000KT 10SM FEW250 09/01 A3010 RMK AO2 SLP191 T00940006 10144 20089 56008 $=
201011140452 METAR KATL 140452Z 18003KT 10SM FEW250 10/01 A3011 RMK AO2 SLP194 T01000006 402000050 $=
201011140352 METAR KATL 140352Z 16003KT 10SM SCT250 12/01 A3011 RMK AO2 SLP196 T01170006 $=
201011140252 METAR KATL 140252Z 16004KT 10SM SCT250 12/01 A3012 RMK AO2 SLP200 T01170011 50002 $=
201011140152 METAR KATL 140152Z 00000KT 10SM BKN250 13/01 A3013 RMK AO2 SLP202 T01280006 $=
201011140052 METAR KATL 140052Z 00000KT 10SM BKN250 13/01 A3012 RMK AO2 SLP200 T01280006 $=
201011132352 METAR KATL 132352Z 16003KT 10SM SCT250 14/01 A3012 RMK AO2 SLP200 T01440011 10200 20139 55003 $=
201011132252 METAR KATL 132252Z 00000KT 10SM SCT250 17/01 A3011 RMK AO2 SLP198 T01670011 $=
201011132152 METAR KATL 132152Z 17003KT 10SM FEW200 BKN250 18/00 A3012 RMK AO2 SLP197 T01830000 $=
201011132052 METAR KATL 132052Z 00000KT 10SM FEW200 SCT250 19/M02 A3013 RMK AO2 SLP200 T01941022 56024 $=
201011131952 METAR KATL 131952Z 16006KT 10SM SCT250 19/M01 A3015 RMK AO2 SLP206 T01941011 $=
201011131852 METAR KATL 131852Z 00000KT 10SM SCT250 19/01 A3016 RMK AO2 SLP212 T01940006 $=
201011131752 METAR KATL 131752Z 17004KT 10SM FEW250 18/00 A3020 RMK AO2 SLP224 T01830000 10183 20056 58024=
201011131652 METAR KATL 131652Z 15005KT 10SM FEW250 17/01 A3023 RMK AO2 SLP237 T01720011=
201011131552 METAR KATL 131552Z 10004KT 10SM FEW250 16/03 A3026 RMK AO2 SLP245 T01610033=
201011131452 METAR KATL 131452Z 13005KT 10SM FEW250 13/04 A3027 RMK AO2 SLP251 T01330044 50002=
201011131352 METAR KATL 131352Z 10004KT 10SM FEW250 11/05 A3027 RMK AO2 SLP251 T01060050=
201011131252 METAR KATL 131252Z 10004KT 10SM FEW250 08/04 A3027 RMK AO2 SLP250 T00780039=
201011131152 METAR KATL 131152Z 00000KT 10SM CLR 06/03 A3027 RMK AO2 SLP250 T00560033 10100 20050 53006=
201011131052 METAR KATL 131052Z 00000KT 10SM CLR 07/03 A3026 RMK AO2 SLP247 T00670033=
201011130952 METAR KATL 130952Z 00000KT 10SM CLR 08/04 A3025 RMK AO2 SLP243 T00780039=
201011130852 METAR KATL 130852Z 00000KT 10SM CLR 08/04 A3025 RMK AO2 SLP240 T00780039 56008=
201011130752 METAR KATL 130752Z 08003KT 10SM CLR 09/04 A3025 RMK AO2 SLP242 T00890044=
201011130652 METAR KATL 130652Z 08003KT 10SM CLR 09/04 A3026 RMK AO2 SLP244 T00890044=
201011130552 METAR KATL 130552Z 00000KT 10SM CLR 10/04 A3027 RMK AO2 SLP249 T01000044 10156 20100 58006=
201011130452 METAR KATL 130452Z 00000KT 10SM CLR 11/04 A3028 RMK AO2 SLP253 T01060044 402110089=
201011130352 METAR KATL 130352Z 00000KT 10SM CLR 11/04 A3029 RMK AO2 SLP256 T01110044=
201011130252 METAR KATL 130252Z 00000KT 10SM CLR 12/04 A3029 RMK AO2 SLP256 T01220044 50000=
201011130152 METAR KATL 130152Z 14003KT 10SM CLR 13/04 A3029 RMK AO2 SLP257 T01330044=
201011130052 METAR KATL 130052Z 00000KT 10SM CLR 14/04 A3029 RMK AO2 SLP258 T01440044=
201011122352 METAR KATL 122352Z 00000KT 10SM CLR 16/04 A3029 RMK AO2 SLP257 T01560044 10211 20156 55000=
201011122252 METAR KATL 122252Z COR 14003KT 10SM CLR 18/04 A3028 RMK AO2 SLP254 T01780039=
201011122152 METAR KATL 122152Z 16004KT 10SM FEW250 20/03 A3028 RMK AO2 SLP253 T02000028=
201011122052 SPECI KATL 122052Z 00000KT 10SM FEW250 21/03 A3029 RMK AO2 SLP255 T02060028 56021=
201011121952 METAR KATL 121952Z VRB04KT 10SM FEW250 20/03 A3030 RMK AO2 SLP257 T02000028=
201011121852 METAR KATL 121852Z 00000KT 10SM FEW250 21/03 A3032 RMK AO2 SLP265 T02060028=
201011121752 SPECI KATL 121752Z 09005KT 10SM FEW250 19/03 A3035 RMK AO2 SLP276 T01890028 10194 20089 58018=
201011121652 METAR KATL 121652Z 11007KT 10SM FEW250 18/04 A3038 RMK AO2 SLP285 T01830039=
201011121552 METAR KATL 121552Z 10006KT 10SM FEW250 17/04 A3040 RMK AO2 SLP292 T01670044=
201011121452 METAR KATL 121452Z 11005KT 10SM FEW250 14/06 A3041 RMK AO2 SLP296 T01440061 51014=
201011121352 METAR KATL 121352Z 09007KT 10SM FEW250 12/06 A3040 RMK AO2 SLP293 T01170061=
201011121252 METAR KATL 121252Z 07007KT 10SM FEW250 11/06 A3038 RMK AO2 SLP288 T01110061=
201011121152 METAR KATL 121152Z 07008KT 10SM FEW250 10/06 A3037 RMK AO2 SLP283 T01000056 10128 20094 53012=
201011121052 METAR KATL 121052Z 08004KT 10SM CLR 09/06 A3035 RMK AO2 SLP276 T00940056=
201011120952 METAR KATL 120952Z 06005KT 10SM CLR 11/06 A3034 RMK AO2 SLP273 T01060056=
201011120852 METAR KATL 120852Z 08003KT 10SM CLR 11/06 A3033 RMK AO2 SLP268 T01060056 53001=
201011120752 METAR KATL 120752Z 08005KT 10SM CLR 11/06 A3033 RMK AO2 SLP267 T01110056=
201011120652 METAR KATL 120652Z 08006KT 10SM CLR 11/06 A3033 RMK AO2 SLP266 T01110056=
201011120552 METAR KATL 120552Z 08004KT 10SM FEW250 13/07 A3033 RMK AO2 SLP267 T01280067 10178 20117 55001=
201011120452 METAR KATL 120452Z 08004KT 10SM FEW250 13/06 A3033 RMK AO2 SLP266 T01330061 402440078=
201011120352 METAR KATL 120352Z 08003KT 10SM CLR 14/06 A3033 RMK AO2 SLP268 T01390056=
201011120252 METAR KATL 120252Z 00000KT 10SM CLR 14/06 A3033 RMK AO2 SLP269 T01390056 51007 $=
201011120152 METAR KATL 120152Z 00000KT 10SM CLR 16/05 A3033 RMK AO2 SLP269 T01610050 $=
201011120052 METAR KATL 120052Z 00000KT 10SM CLR 16/05 A3032 RMK AO2 SLP269 T01610050 $=
201011112352 METAR KATL 112352Z 00000KT 10SM CLR 18/04 A3031 RMK AO2 SLP263 T01780044 10244 20178 53010 $=
201011112252 METAR KATL 112252Z 13003KT 10SM CLR 21/03 A3030 RMK AO2 SLP258 T02110033 $=
201011112152 METAR KATL 112152Z 00000KT 10SM CLR 23/02 A3029 RMK AO2 SLP254 T02280022 $=
201011112052 METAR KATL 112052Z VRB03KT 10SM CLR 23/03 A3028 RMK AO2 SLP250 T02330028 55004 $=
201011111952 METAR KATL 111952Z 00000KT 10SM CLR 23/02 A3028 RMK AO2 SLP250 T02330022 $=
201011111852 SPECI KATL 111852Z VRB03KT 10SM CLR 23/03 A3028 RMK AO2 SLP251 T02330028 $=
201011111752 METAR KATL 111752Z 13005KT 10SM CLR 23/05 A3029 RMK AO2 SLP255 T02280050 10228 20078 58007 $=
201011111652 METAR KATL 111652Z 14004KT 10SM CLR 21/04 A3031 RMK AO2 SLP261 T02110044=
201011111552 METAR KATL 111552Z 12004KT 10SM CLR 20/06 A3032 RMK AO2 SLP265 T02000056=
201011111452 METAR KATL 111452Z 14003KT 10SM CLR 19/06 A3032 RMK AO2 SLP264 T01890056 52016=
201011111352 METAR KATL 111352Z 00000KT 10SM CLR 15/09 A3030 RMK AO2 SLP259 T01500089=
201011111252 METAR KATL 111252Z 00000KT 10SM CLR 09/05 A3028 RMK AO2 SLP254 T00890050=
201011111152 METAR KATL 111152Z 03003KT 10SM CLR 11/04 A3027 RMK AO2 SLP248 T01060044 10111 20083 53020=
201011111052 METAR KATL 111052Z 00000KT 10SM CLR 09/04 A3025 RMK AO2 SLP240 T00940039=
201011110952 METAR KATL 110952Z 00000KT 10SM CLR 09/04 A3022 RMK AO2 SLP231 T00940044=
201011110852 METAR KATL 110852Z 00000KT 10SM CLR 11/04 A3020 RMK AO2 SLP224 T01060044 52003=
201011110752 METAR KATL 110752Z 30003KT 10SM CLR 11/04 A3020 RMK AO2 SLP223 T01110039=
201011110652 METAR KATL 110652Z 32004KT 10SM FEW250 11/05 A3020 RMK AO2 SLP222 T01060050=
201011110552 METAR KATL 110552Z 33003KT 10SM SCT250 12/04 A3019 RMK AO2 SLP221 T01170044 10189 20117 51007=
201011110452 METAR KATL 110452Z 00000KT 10SM BKN250 13/05 A3019 RMK AO2 SLP218 T01280050 402390078=
201011110352 METAR KATL 110352Z 00000KT 10SM BKN250 13/04 A3019 RMK AO2 SLP219 T01280039=
201011110252 METAR KATL 110252Z 30004KT 10SM BKN250 12/05 A3017 RMK AO2 SLP216 T01220050 53012=
201011110152 METAR KATL 110152Z 00000KT 10SM SCT250 16/04 A3017 RMK AO2 SLP213 T01610039=
201011110052 METAR KATL 110052Z 00000KT 10SM SCT250 16/04 A3014 RMK AO2 SLP206 T01610039=
201011102352 METAR KATL 102352Z 00000KT 10SM SCT250 17/04 A3014 RMK AO2 SLP205 T01720039 10239 20167 53012=
201011102252 METAR KATL 102252Z VRB04KT 10SM SCT250 20/02 A3012 RMK AO2 SLP196 T02000022=
201011102152 METAR KATL 102152Z 11003KT 10SM SCT250 22/02 A3011 RMK AO2 SLP194 T02220022=
201011102052 SPECI KATL 102052Z 04004KT 10SM SCT250 23/02 A3010 RMK AO2 SLP190 T02330017 56002=
201011101952 METAR KATL 101952Z 07003KT 10SM SCT250 23/03 A3010 RMK AO2 SLP190 T02330028=
201011101852 METAR KATL 101852Z 13004KT 10SM SCT250 23/02 A3010 RMK AO2 SLP191 T02330022=
201011101752 METAR KATL 101752Z VRB05KT 10SM BKN250 22/02 A3011 RMK AO2 SLP193 T02220022 10228 20078 58009=
201011101652 METAR KATL 101652Z 11005KT 10SM BKN250 22/02 A3013 RMK AO2 SLP200 T02170017=
201011101552 METAR KATL 101552Z 09008KT 10SM SCT250 20/03 A3014 RMK AO2 SLP205 T02000028=
201011101452 METAR KATL 101452Z 06006KT 10SM FEW250 18/03 A3014 RMK AO2 SLP203 T01780028 51019=
201011101352 METAR KATL 101352Z 33006KT 10SM FEW250 13/04 A3013 RMK AO2 SLP201 T01280044=
201011101252 METAR KATL 101252Z 34006KT 10SM CLR 10/04 A3010 RMK AO2 SLP194 T01000039=
201011101152 METAR KATL 101152Z 33004KT 10SM CLR 08/03 A3008 RMK AO2 SLP186 T00830028 10106 20078 53009=
201011101052 METAR KATL 101052Z 32007KT 10SM CLR 08/03 A3007 RMK AO2 SLP181 T00830033 $=
201011100952 METAR KATL 100952Z 32007KT 10SM CLR 09/03 A3006 RMK AO2 SLP176 T00890033 $=
201011100852 METAR KATL 100852Z 32008KT 10SM CLR 09/03 A3005 RMK AO2 SLP173 T00890033 53004 $=
201011100752 METAR KATL 100752Z 32007KT 10SM CLR 09/03 A3005 RMK AO2 SLP172 T00890033=
201011100652 METAR KATL 100652Z 31007KT 10SM CLR 09/03 A3004 RMK AO2 SLP169 T00940033=
201011100552 METAR KATL 100552Z 30005KT 10SM CLR 11/03 A3004 RMK AO2 SLP169 T01060033 10161 20094 50002=
201011100452 METAR KATL 100452Z 28005KT 10SM CLR 11/03 A3004 RMK AO2 SLP169 T01110033 402330067=
201011100352 METAR KATL 100352Z 00000KT 10SM CLR 11/03 A3004 RMK AO2 SLP170 T01110033=
201011100252 METAR KATL 100252Z 00000KT 10SM CLR 13/03 A3003 RMK AO2 SLP168 T01280028 53002=
201011100152 METAR KATL 100152Z 30005KT 10SM CLR 14/03 A3003 RMK AO2 SLP166 T01440028=
201011100052 METAR KATL 100052Z 31006KT 10SM CLR 14/03 A3003 RMK AO2 SLP170 T01440028=
201011092352 METAR KATL 092352Z 33004KT 10SM CLR 16/02 A3003 RMK AO2 SLP167 T01610017 10233 20161 53004=
201011092252 METAR KATL 092252Z 32008KT 10SM CLR 18/01 A3002 RMK AO2 SLP165 T01830011=
201011092152 METAR KATL 092152Z 32008KT 10SM FEW250 21/01 A3002 RMK AO2 SLP162 T02110011=
201011092052 METAR KATL 092052Z 32008KT 10SM FEW250 23/01 A3001 RMK AO2 SLP161 T02280011 56010=
201011091952 METAR KATL 091952Z 33009KT 10SM FEW250 23/02 A3002 RMK AO2 SLP161 T02280017=
201011091852 METAR KATL 091852Z 30008KT 10SM FEW250 23/02 A3002 RMK AO2 SLP165 T02280017=
201011091752 METAR KATL 091752Z 34008G15KT 10SM FEW250 22/02 A3005 RMK AO2 SLP171 T02220017 10222 20078 58016=
201011091652 METAR KATL 091652Z 35010KT 10SM FEW250 21/02 A3008 RMK AO2 SLP182 T02110022=
201011091552 METAR KATL 091552Z 34010G18KT 10SM FEW250 19/03 A3009 RMK AO2 SLP187 T01940028=
201011091452 METAR KATL 091452Z 33012KT 10SM CLR 16/03 A3009 RMK AO2 SLP189 T01610028 51012=
201011091352 METAR KATL 091352Z 32010KT 10SM CLR 12/02 A3009 RMK AO2 SLP187 T01170022=
201011091252 METAR KATL 091252Z 32007KT 10SM CLR 09/02 A3007 RMK AO2 SLP185 T00890017=
201011091152 METAR KATL 091152Z 32011KT 10SM CLR 08/01 A3006 RMK AO2 SLP179 T00780011 10094 20067 53010=
201011091052 METAR KATL 091052Z 32010KT 10SM CLR 08/01 A3005 RMK AO2 SLP175 T00830011=
201011090952 METAR KATL 090952Z 31011KT 10SM CLR 07/01 A3003 RMK AO2 SLP168 T00720011=
201011090852 METAR KATL 090852Z 31010KT 10SM CLR 08/01 A3003 RMK AO2 SLP166 T00830011 56004=
201011090752 METAR KATL 090752Z 31010KT 10SM CLR 09/01 A3003 RMK AO2 SLP166 T00890011=
201011090652 METAR KATL 090652Z 31008KT 10SM CLR 08/01 A3004 RMK AO2 SLP168 T00830011=
201011090552 METAR KATL 090552Z 32006KT 10SM CLR 09/01 A3004 RMK AO2 SLP170 T00940011 10144 20089 58005=
201011090452 METAR KATL 090452Z 32007KT 10SM CLR 10/01 A3005 RMK AO2 SLP173 T01000011 402060039=
201011090352 METAR KATL 090352Z 32009KT 10SM CLR 11/01 A3005 RMK AO2 SLP176 T01060011=
201011090252 METAR KATL 090252Z 31010KT 10SM CLR 11/01 A3006 RMK AO2 SLP178 T01110011 56003=
201011090152 METAR KATL 090152Z 30006KT 10SM CLR 12/01 A3006 RMK AO2 SLP182 T01220006=
201011090052 METAR KATL 090052Z 29006KT 10SM CLR 13/00 A3006 RMK AO2 SLP180 T01330000=
201011082352 METAR KATL 082352Z 29005KT 10SM FEW250 14/M01 A3007 RMK AO2 SLP183 T01441006 10206 20144 53001=
201011082252 METAR KATL 082252Z 29005KT 10SM FEW250 16/M01 A3006 RMK AO2 SLP181 T01561011=
201011082152 METAR KATL 082152Z 31008KT 10SM FEW250 19/M02 A3006 RMK AO2 SLP178 T01891017=
201011082052 METAR KATL 082052Z 30011KT 10SM FEW250 20/M03 A3006 RMK AO2 SLP180 T02001028 56017=
201011081952 METAR KATL 081952Z 34011KT 10SM FEW250 21/M04 A3007 RMK AO2 SLP184 T02061039=
201011081852 METAR KATL 081852Z 32012KT 10SM FEW250 20/M03 A3009 RMK AO2 SLP189 T02001033=
201011081752 METAR KATL 081752Z 32011KT 10SM CLR 19/M04 A3012 RMK AO2 SLP198 T01941039 10200 20039 58020=
201011081652 METAR KATL 081652Z 34020G26KT 10SM CLR 18/M06 A3015 RMK AO2 PK WND 35026/1652 SLP209 T01781061=
201011081552 METAR KATL 081552Z 32011KT 10SM CLR 15/M02 A3017 RMK AO2 SLP218 T01501017=
201011081452 METAR KATL 081452Z 32010KT 10SM CLR 12/M02 A3018 RMK AO2 SLP221 T01171017 50001=
201011081352 METAR KATL 081352Z 31009KT 10SM CLR 08/M01 A3018 RMK AO2 SLP225 T00781011=
201011081252 METAR KATL 081252Z 30010KT 10SM CLR 06/M02 A3018 RMK AO2 SLP224 T00561022=
201011081152 METAR KATL 081152Z 29007KT 10SM CLR 04/M02 A3017 RMK AO2 SLP221 T00441022 10050 20039 53003=
201011081052 METAR KATL 081052Z 29006KT 10SM CLR 04/M03 A3017 RMK AO2 SLP219 T00441028=
201011080952 METAR KATL 080952Z 31008KT 10SM CLR 04/M02 A3017 RMK AO2 SLP218 T00441022=
201011080852 METAR KATL 080852Z 32009KT 10SM CLR 04/M02 A3016 RMK AO2 SLP217 T00391022 56016=
201011080752 METAR KATL 080752Z 31005KT 10SM CLR 04/M02 A3018 RMK AO2 SLP221 T00441022=
201011080652 METAR KATL 080652Z 32005KT 10SM CLR 04/M02 A3019 RMK AO2 SLP228 T00441022=
201011080552 METAR KATL 080552Z 30005KT 10SM CLR 05/M02 A3021 RMK AO2 SLP233 T00501022 10106 20044 58014=
201011080452 METAR KATL 080452Z 25003KT 10SM CLR 05/M02 A3023 RMK AO2 SLP240 T00501022 401441011=
201011080352 METAR KATL 080352Z 26003KT 10SM CLR 06/M02 A3024 RMK AO2 SLP245 T00611022=
201011080252 METAR KATL 080252Z 27003KT 10SM CLR 07/M02 A3025 RMK AO2 SLP249 T00671022 58010=
201011080152 METAR KATL 080152Z 27003KT 10SM CLR 08/M03 A3027 RMK AO2 SLP255 T00781033=
201011080052 METAR KATL 080052Z 32007KT 10SM CLR 09/M04 A3028 RMK AO2 SLP259 T00941039=
201011072352 METAR KATL 072352Z 31004KT 10SM CLR 10/M03 A3028 RMK AO2 SLP261 T01001033 10144 20100 56007=
201011072252 METAR KATL 072252Z 32005KT 10SM CLR 11/M04 A3028 RMK AO2 SLP260 T01111044=
201011072152 METAR KATL 072152Z 29005KT 10SM CLR 13/M05 A3029 RMK AO2 SLP262 T01331050=
201011072052 METAR KATL 072052Z 34005KT 10SM CLR 14/M06 A3031 RMK AO2 SLP266 T01391056 56019=
201011071952 METAR KATL 071952Z 33004KT 10SM CLR 14/M04 A3032 RMK AO2 SLP272 T01391044=
201011071852 METAR KATL 071852Z 31009KT 10SM CLR 13/M04 A3033 RMK AO2 SLP276 T01281044=
201011071752 METAR KATL 071752Z 36004KT 10SM CLR 12/M04 A3036 RMK AO2 SLP287 T01171039 10122 21006 58026=
201011071652 METAR KATL 071652Z VRB04KT 10SM CLR 10/M03 A3041 RMK AO2 SLP302 T01001033=
201011071552 METAR KATL 071552Z 33003KT 10SM CLR 09/M04 A3043 RMK AO2 SLP310 T00891039=
201011071452 METAR KATL 071452Z 06005KT 10SM CLR 07/M03 A3044 RMK AO2 SLP315 T00721033 50011=
201011071352 METAR KATL 071352Z 31005KT 10SM CLR 04/M02 A3045 RMK AO2 SLP320 T00391017=
201011071252 METAR KATL 071252Z 33006KT 10SM CLR 01/M03 A3043 RMK AO2 SLP314 T00111028=
201011071152 METAR KATL 071152Z 36004KT 10SM CLR M01/M03 A3041 RMK AO2 SLP306 T10061033 10017 21011 53008=
201011071052 METAR KATL 071052Z 34004KT 10SM CLR 00/M03 A3040 RMK AO2 SLP301 T00001033=
201011070952 METAR KATL 070952Z 33003KT 10SM CLR 00/M03 A3039 RMK AO2 SLP296 T00001033=
201011070852 METAR KATL 070852Z 33005KT 10SM CLR 00/M03 A3038 RMK AO2 SLP296 T00001033 58002=
201011070752 METAR KATL 070752Z 34005KT 10SM CLR 01/M03 A3038 RMK AO2 SLP295 T00061033=
201011070652 METAR KATL 070652Z 34006KT 10SM CLR 01/M03 A3039 RMK AO2 SLP298 T00111033=
201011070552 METAR KATL 070552Z 32004KT 10SM CLR 01/M03 A3039 RMK AO2 SLP297 T00111028 10056 20011 51007=
201011070452 METAR KATL 070452Z 32004KT 10SM CLR 02/M03 A3039 RMK AO2 SLP297 T00171033 401000006=
201011070352 METAR KATL 070352Z 31005KT 10SM CLR 02/M03 A3039 RMK AO2 SLP296 T00221033=
201011070252 METAR KATL 070252Z 35006KT 10SM CLR 03/M04 A3037 RMK AO2 SLP290 T00331039 51014=
201011070152 METAR KATL 070152Z 34006KT 10SM CLR 04/M03 A3036 RMK AO2 SLP288 T00391033=
201011070052 METAR KATL 070052Z 34005KT 10SM CLR 04/M04 A3034 RMK AO2 SLP282 T00441039=
201011062352 METAR KATL 062352Z 34006KT 10SM CLR 06/M04 A3033 RMK AO2 SLP277 T00561039 10100 20056 53021=
201011062252 METAR KATL 062252Z 34009KT 10SM CLR 07/M05 A3030 RMK AO2 SLP269 T00671050=
201011062152 METAR KATL 062152Z 33012KT 10SM CLR 08/M05 A3028 RMK AO2 SLP259 T00831050=
201011062052 METAR KATL 062052Z 34015G22KT 10SM FEW060 09/M05 A3026 RMK AO2 SLP253 T00941050 53001=
201011061952 SPECI KATL 061952Z 36009G17KT 10SM FEW060 09/M06 A3026 RMK AO2 SLP252 T00941061=
201011061852 METAR KATL 061852Z 35010G20KT 10SM FEW050 10/M05 A3025 RMK AO2 SLP248 T01001050=
201011061752 METAR KATL 061752Z 34007KT 10SM SCT043 09/M04 A3026 RMK AO2 SLP252 T00891039 10089 20011 50005=
201011061652 METAR KATL 061652Z 34011G18KT 10SM SCT037 08/M02 A3027 RMK AO2 SLP255 T00781022=
201011061552 METAR KATL 061552Z 34012KT 10SM SCT035 07/M02 A3026 RMK AO2 SLP251 T00721017=
201011061452 METAR KATL 061452Z 35010KT 10SM SCT016 06/01 A3025 RMK AO2 SLP247 T00610011 51024=
201011061427 SPECI KATL 061427Z 33011KT 10SM SCT016 SCT250 05/01 A3024 RMK AO2=
201011061427 SPECI KATL 061427Z 33011KT 10SM SCT016 SCT250 05/01 A3024 RMK AO2=
201011061352 METAR KATL 061352Z 33010KT 10SM FEW250 04/01 A3023 RMK AO2 SLP243 T00390011=
201011061252 METAR KATL 061252Z 30006KT 10SM CLR 02/00 A3021 RMK AO2 SLP235 T00220000=
201011061152 METAR KATL 061152Z 29008KT 9SM CLR 01/M01 A3017 RMK AO2 SLP224 70001 T00111006 10028 20006 53020=
201011061052 METAR KATL 061052Z 29006KT 10SM CLR 01/M01 A3015 RMK AO2 SLP216 T00111006=
201011060952 METAR KATL 060952Z 29005KT 10SM SCT046 01/00 A3013 RMK AO2 SLP209 T00110000=
201011060852 METAR KATL 060852Z 28005KT 10SM CLR 02/00 A3011 RMK AO2 SLP202 T00170000 53006=
201011060752 METAR KATL 060752Z 30005KT 10SM CLR 02/01 A3010 RMK AO2 SLP199 T00220006=
201011060652 METAR KATL 060652Z 29006KT 10SM CLR 02/01 A3010 RMK AO2 SLP198 T00220006=
201011060552 METAR KATL 060552Z 27004KT 10SM CLR 03/01 A3009 RMK AO2 SLP195 T00280011 10061 20028 53006=
201011060452 METAR KATL 060452Z 29005KT 10SM CLR 03/01 A3008 RMK AO2 SLP190 T00280006 401110028=
201011060352 METAR KATL 060352Z 32006KT 10SM CLR 04/01 A3007 RMK AO2 SLP189 T00390011=
201011060252 METAR KATL 060252Z 33006KT 10SM FEW060 05/01 A3007 RMK AO2 SLP188 T00500011 51027=
201011060152 METAR KATL 060152Z 33007KT 10SM FEW060 05/02 A3005 RMK AO2 SLP180 T00500017=
201011060052 METAR KATL 060052Z 31011KT 10SM SCT040 06/01 A3002 RMK AO2 SLP169 T00560011=
201011052352 METAR KATL 052352Z 31011KT 10SM CLR 06/01 A2999 RMK AO2 SLP161 60001 T00610006 10111 20056 51022=
201011052252 METAR KATL 052252Z 27004KT 10SM FEW030 06/02 A2996 RMK AO2 RAE32 SLP152 TCU DSNT SE P0000 T00560022=
201011052229 SPECI KATL 052229Z 31006KT 10SM -RA FEW020 BKN035TCU BKN050 BKN200 06/03 A2996 RMK AO2 TCU SE-S P0000=
201011052229 SPECI KATL 052229Z 31006KT 10SM -RA FEW020 BKN035TCU BKN050 BKN200 06/03 A2996 RMK AO2 TCU SE-S P0000=
201011052152 METAR KATL 052152Z 01011G19KT 10SM -RA FEW015 BKN032TCU BKN060 BKN200 07/02 A2995 RMK AO2 WSHFT 2133 RAB47 SLP147 TCU NW-NE P0000 T00720017=
201011052052 METAR KATL 052052Z 30012G20KT 10SM FEW030 SCT090 SCT200 09/01 A2992 RMK AO2 SLP137 CB DSNT N-NE-E SHRA DSNT N-NE-E 60001 T00890006 53010=
201011051952 SPECI KATL 051952Z 29010KT 10SM FEW020 SCT065 BKN085 07/03 A2991 RMK AO2 RAE13 SLP132 VIRGA DSNT S CB DSNT NE TCU DSNT N-NE SHRA DSNT NE P0001 T00720028=
201011051903 SPECI KATL 051903Z 34007KT 9SM -RA FEW020CB BKN030 BKN050 07/02 A2989 RMK AO2 VIS LWR E-SE SHRA CB E-SE MOV SE P0001=
201011051903 SPECI KATL 051903Z 34007KT 9SM -RA FEW020CB BKN030 BKN050 07/02 A2989 RMK AO2 VIS LWR E-SE SHRA CB E-SE MOV SE P0001=
201011051852 METAR KATL 051852Z 35016KT 8SM -RA BKN030CB BKN050 BKN060 07/03 A2990 RMK AO2 RAB44 SLP129 VIS LWR E SHRA CB OHD-E MOV SE P0000 T00670033=
201011051845 SPECI KATL 051845Z 34020G25KT 6SM -RA BKN030CB BKN050 BKN060 08/02 A2989 RMK AO2 RAB44 CB OHD MOV SE P0000=
201011051845 SPECI KATL 051845Z 34020G25KT 6SM -RA BKN030CB BKN050 BKN060 08/02 A2989 RMK AO2 RAB44 CB OHD MOV SE P0000=
201011051836 SPECI KATL 051836Z 32006KT 10SM BKN030CB BKN050 BKN060 09/01 A2988 RMK AO2 VIS LWR NW-N SHRA CB OHD-NW-N MOV SE=
201011051836 SPECI KATL 051836Z 32006KT 10SM BKN030CB BKN050 BKN060 09/01 A2988 RMK AO2 VIS LWR NW-N SHRA CB OHD-NW-N MOV SE=
201011051823 SPECI KATL 051823Z 28008KT 10SM FEW035TCU BKN055 09/00 A2988 RMK AO2 TCU=
201011051823 SPECI KATL 051823Z 28008KT 10SM FEW035TCU BKN055 09/00 A2988 RMK AO2 TCU NW-N SHRA NW-N=
201011051752 METAR KATL 051752Z 29010G15KT 10SM BKN040 BKN050 11/01 A2989 RMK AO2 SLP125 T01060011 10106 20039 50002=
201011051652 METAR KATL 051652Z 30013G17KT 10SM BKN035 09/01 A2990 RMK AO2 SLP129 T00940011=
201011051552 METAR KATL 051552Z 32011KT 10SM BKN030 09/02 A2990 RMK AO2 SLP127 T00940017=
201011051508 SPECI KATL 051508Z 31014G21KT 10SM BKN030 BKN035 08/01 A2989 RMK AO2=
201011051508 SPECI KATL 051508Z 31014G21KT 10SM BKN030 BKN035 08/01 A2989 RMK AO2=
201011051452 METAR KATL 051452Z 32015KT 10SM BKN025 BKN035 08/02 A2988 RMK AO2 SLP121 T00830017 51026=
201011051352 METAR KATL 051352Z 32012KT 10SM CLR 07/02 A2986 RMK AO2 SLP115 T00670017=
201011051252 METAR KATL 051252Z 31008KT 10SM FEW250 05/01 A2984 RMK AO2 SLP107 T00500011=
201011051152 METAR KATL 051152Z 29009KT 10SM FEW250 04/01 A2980 RMK AO2 SLP096 T00390006 10056 20033 53017=
201011051052 METAR KATL 051052Z 29006KT 10SM CLR 03/01 A2978 RMK AO2 SLP087 T00330006=
201011050952 METAR KATL 050952Z 29008KT 10SM CLR 04/01 A2976 RMK AO2 SLP080 T00390006=
201011050852 METAR KATL 050852Z 29007KT 10SM CLR 04/01 A2975 RMK AO2 SLP077 T00390006 51000=
201011050752 METAR KATL 050752Z 29006KT 10SM CLR 04/00 A2975 RMK AO2 SLP075 T00390000=
201011050652 METAR KATL 050652Z 29006KT 10SM CLR 05/01 A2976 RMK AO2 SLP077 T00500006=
201011050552 METAR KATL 050552Z 29007KT 10SM CLR 05/01 A2975 RMK AO2 SLP075 T00500006 10106 20050 50001=
201011050452 METAR KATL 050452Z 29006KT 10SM CLR 06/01 A2975 RMK AO2 SLP076 T00560006 401560056=
201011050352 METAR KATL 050352Z 31010KT 10SM CLR 08/01 A2975 RMK AO2 SLP075 T00780006=
201011050252 METAR KATL 050252Z 31007KT 10SM CLR 08/01 A2975 RMK AO2 SLP075 T00780011 53012=
201011050152 METAR KATL 050152Z 31008KT 10SM CLR 08/01 A2973 RMK AO2 SLP071 T00830011=
201011050052 METAR KATL 050052Z 31008KT 10SM CLR 10/01 A2972 RMK AO2 SLP064 T01000006=
201011042352 METAR KATL 042352Z 31008KT 10SM CLR 11/01 A2971 RMK AO2 SLP061 T01060006 10156 20106 53021=
201011042252 METAR KATL 042252Z 31010KT 10SM FEW065 12/01 A2968 RMK AO2 SLP051 T01220011=
201011042152 METAR KATL 042152Z 33013KT 10SM SCT060 13/02 A2966 RMK AO2 SLP043 T01330017=
201011042052 METAR KATL 042052Z 33012G16KT 10SM FEW040 BKN055 BKN110 13/04 A2965 RMK AO2 SLP038 T01330044 56010=
201011041952 METAR KATL 041952Z 34014G19KT 10SM SCT040 BKN110 13/04 A2965 RMK AO2 SLP040 T01330044=
201011041852 METAR KATL 041852Z 32015KT 10SM FEW035 BKN110 14/05 A2965 RMK AO2 SLP039 T01390050=
201011041752 METAR KATL 041752Z 32016G21KT 10SM FEW035 SCT070 BKN095 14/06 A2968 RMK AO2 PK WND 32026/1703 SLP048 60000 T01440056 10144 20094 58010=
201011041652 METAR KATL 041652Z 32014G24KT 10SM FEW070 SCT100 SCT150 13/06 A2969 RMK AO2 SLP053 ACC NW T01330056=
201011041552 METAR KATL 041552Z 32012G17KT 10SM FEW015 BKN070 BKN080 11/07 A2971 RMK AO2 SLP062 T01110067=
201011041452 METAR KATL 041452Z 32009KT 10SM FEW010 BKN060 OVC100 10/08 A2971 RMK AO2 SLP060 60000 T01000078 58007=
201011041413 SPECI KATL 041413Z 32009KT 10SM FEW012 BKN055 OVC100 10/08 A2974 RMK AO2=
201011041413 SPECI KATL 041413Z 32009KT 10SM FEW012 BKN055 OVC100 10/08 A2974 RMK AO2=
201011041352 METAR KATL 041352Z 32009KT 9SM FEW007 BKN010 OVC100 09/08 A2975 RMK AO2 DZE45 SLP074 P0000 T00940078=
201011041301 SPECI KATL 041301Z 33011G18KT 8SM -DZ BKN008 OVC013 10/08 A2973 RMK AO2 P0000=
201011041301 SPECI KATL 041301Z 33011G18KT 8SM -DZ BKN008 OVC013 10/08 A2973 RMK AO2 P0000=
201011041252 METAR KATL 041252Z 32012KT 8SM -DZ BKN010 OVC013 10/08 A2973 RMK AO2 SLP068 P0000 T01000083=
201011041220 SPECI KATL 041220Z 33011G21KT 8SM -DZ SCT008 BKN013 OVC028 11/09 A2972 RMK AO2 P0000=
201011041220 SPECI KATL 041220Z 33011G21KT 8SM -DZ SCT008 BKN013 OVC028 11/09 A2972 RMK AO2 P0000=
201011041152 METAR KATL 041152Z 32013KT 6SM -DZ BR BKN006 OVC011 11/10 A2970 RMK AO2 RAB03E12DZB50 SLP059 P0000 60034 70060 T01110100 10111 20100 56005=
201011041109 SPECI KATL 041109Z 32008KT 3SM -RA BR BKN006 OVC011 11/10 A2970 RMK AO2 SFC VIS 5 RAB03 P0000=
201011041109 SPECI KATL 041109Z 32008KT 3SM -RA BR BKN006 OVC011 11/10 A2970 RMK AO2 SFC VIS 5 RAB03 P0000=
201011041052 METAR KATL 041052Z 32006KT 3SM BR BKN004 OVC011 11/10 A2971 RMK AO2 SFC VIS 4 RAE50 SLP060 P0016 T01060100=
201011041012 SPECI KATL 041012Z 31007KT 2 1/2SM RA BR OVC004 11/10 A2972 RMK AO2 P0006=
201011041012 SPECI KATL 041012Z 31007KT 2 1/2SM RA BR OVC004 11/10 A2972 RMK AO2 P0006=
201011040952 METAR KATL 040952Z 32007KT 5SM -RA BR OVC004 11/10 A2971 RMK AO2 SLP061 P0002 T01060100=
201011040922 SPECI KATL 040922Z 30008KT 5SM -RA BR OVC004 11/10 A2971 RMK AO2 P0001=
201011040922 SPECI KATL 040922Z 30008KT 5SM -RA BR OVC004 11/10 A2971 RMK AO2 P0001=
201011040852 METAR KATL 040852Z 32007KT 1 1/2SM -RA BR BKN004 BKN008 OVC013 11/10 A2972 RMK AO2 SFC VIS 2 SLP064 P0011 60016 T01060100 58026=
201011040752 METAR KATL 040752Z 31008KT 1 1/2SM -RA BR OVC002 10/09 A2975 RMK AO2 SFC VIS 2 DZE43RAB43 SLP075 TWRINC P0005 T01000094=
201011040652 METAR KATL 040652Z 24003KT 1/2SM R09R/4000V4500FT -DZ BR OVC002 10/09 A2978 RMK AO2 SFC VIS 3/4 SLP084 TWRINC P0000 T01000094=
201011040552 METAR KATL 040552Z 15003KT 1/2SM R09R/4500VP6000FT -DZ BR OVC002 10/09 A2980 RMK AO2 SFC VIS 1 3/4 DZE0457B49RAB0457E49 SLP092 TWRINC P0001 60001 T01000094 10100 20100 56027=
201011040452 METAR KATL 040452Z 10004KT 1/2SM -DZ BR OVC002 10/09 A2983 RMK AO2 SFC VIS 1 1/2 RAE22DZB22 SLP102 P0000 T01000094 401220078=
201011040352 METAR KATL 040352Z 12003KT 1/2SM -RA BR OVC003 10/09 A2985 RMK AO2 SFC VIS 1 3/4 DZE48RAB48 SLP110 CIG 001V004 P0000 T01000094=
201011040252 METAR KATL 040252Z 10004KT 1/2SM -DZ BR OVC003 10/09 A2988 RMK AO2 SFC VIS 5 SLP120 P0000 60000 T01000094 58016=
201011040152 METAR KATL 040152Z 12005KT 1/2SM -DZ BR OVC002 10/09 A2989 RMK AO2 SFC VIS 2 1/2 CIG 001V004 SLP124 P0000 T01000094=
201011040052 METAR KATL 040052Z 12003KT 1/2SM -DZ BR OVC002 10/09 A2992 RMK AO2 SFC VIS 2 SLP132 P0000 T01000094=
201011032352 METAR KATL 032352Z 08006KT 1/2SM -DZ BR OVC002 10/09 A2993 RMK AO2 SFC VIS 1 1/2 SLP136 P0000 60000 T01000089 10100 20094 56010=
201011032252 METAR KATL 032252Z 09005KT 1/2SM -DZ BR OVC003 10/09 A2993 RMK AO2 SFC VIS 2 1/2 DZB40 SLP136 P0000 T01000089=
201011032204 SPECI KATL 032204Z 11007KT 1/2SM BR OVC004 10/09 A2994 RMK AO2 SFC VIS 6=
201011032204 SPECI KATL 032204Z 11007KT 1/2SM BR OVC004 10/09 A2994 RMK AO2 SFC VIS 6=
201011032152 METAR KATL 032152Z 08009KT 1 1/2SM OVC004 10/09 A2994 RMK AO2 SFC VIS 7 SLP140 T01000089=
201011032137 SPECI KATL 032137Z 09007KT 1 1/2SM OVC004 10/09 A2995 RMK AO2 SFC VIS 7=
201011032137 SPECI KATL 032137Z 09007KT 1 1/2SM OVC004 10/09 A2995 RMK AO2 SFC VIS 7=
201011032052 METAR KATL 032052Z 09008KT 6SM BR FEW004 BKN006 OVC008 10/08 A2996 RMK AO2 SLP146 60000 T01000083 56025=
201011031952 METAR KATL 031952Z 07007KT 6SM BR FEW004 BKN006 OVC008 10/08 A2997 RMK AO2 SLP148 T01000083=
201011031852 METAR KATL 031852Z 08008KT 7SM FEW004 BKN006 OVC008 09/08 A3000 RMK AO2 RAB10E19 SLP158 P0000 T00940078=
201011031752 METAR KATL 031752Z 06011G16KT 6SM BR BKN006 BKN008 OVC010 09/08 A3003 RMK AO2 RAE39 SLP171 P0004 60025 T00940078 10094 20078 58022=
201011031741 SPECI KATL 031741Z 09009KT 6SM BR BKN006 BKN008 OVC010 09/08 A3004 RMK AO2 RAE39 P0004=
201011031741 SPECI KATL 031741Z 09009KT 6SM BR BKN006 BKN008 OVC010 09/08 A3004 RMK AO2 RAE39 P0004=
201011031652 METAR KATL 031652Z 08009KT 2 1/2SM -RA BR FEW004 BKN006 OVC010 09/08 A3007 RMK AO2 SFC VIS 4 RAE14B36 SLP184 P0001 T00890078=
201011031552 METAR KATL 031552Z 07008KT 2 1/2SM -RA BR FEW004 BKN006 OVC010 08/08 A3009 RMK AO2 SLP191 P0004 T00830078=
201011031507 SPECI KATL 031507Z 07010KT 2 1/2SM -RA BR OVC006 08/07 A3010 RMK AO2 P0000=
201011031507 SPECI KATL 031507Z 07010KT 2 1/2SM -RA BR OVC006 08/07 A3010 RMK AO2 P0000=
201011031452 METAR KATL 031452Z 08010KT 4SM -RA BR OVC006 08/07 A3010 RMK AO2 SLP195 P0001 60016 T00830072 58002=
201011031352 METAR KATL 031352Z 08013KT 4SM -RA BR BKN006 BKN008 OVC020 08/07 A3011 RMK AO2 SLP196 P0005 T00830067=
201011031328 SPECI KATL 031328Z 08010KT 3SM -RA BR BKN008 BKN017 OVC040 08/07 A3011 RMK AO2 P0005=
201011031328 SPECI KATL 031328Z 08010KT 3SM -RA BR BKN008 BKN017 OVC040 08/07 A3011 RMK AO2 P0005=
201011031313 SPECI KATL 031313Z 09010KT 2 1/2SM RA BKN008 BKN017 OVC040 08/07 A3011 RMK AO2 TWR VIS 3 P0003=
201011031313 SPECI KATL 031313Z 09010KT 2 1/2SM RA BKN008 BKN017 OVC040 08/07 A3011 RMK AO2 TWR VIS 3 P0003=
201011031252 METAR KATL 031252Z 07010G16KT 5SM -RA BR SCT020 OVC040 08/07 A3011 RMK AO2 SLP196 P0010 T00830067=
201011031229 SPECI KATL 031229Z 07014KT 5SM -RA BR OVC034 08/06 A3011 RMK AO2 P0008=
201011031229 SPECI KATL 031229Z 07014KT 5SM -RA BR OVC034 08/06 A3011 RMK AO2 P0008=
201011031225 SPECI KATL 031225Z 07013KT 3SM R09R/6000VP6000FT -RA BR OVC034 08/06 A3011 RMK AO2 TWR VIS 4 P0008=
201011031225 SPECI KATL 031225Z 07013KT 3SM R09R/6000VP6000FT -RA BR OVC034 08/06 A3011 RMK AO2 TWR VIS 4 P0008=
201011031216 SPECI KATL 031216Z 07013KT 2 1/2SM R09R/5500VP6000FT +RA BR OVC055 08/06 A3011 RMK AO2 P0002=
201011031216 SPECI KATL 031216Z 07013KT 2 1/2SM R09R/5500VP6000FT +RA BR OVC055 08/06 A3011 RMK AO2 P0002=
201011031152 METAR KATL 031152Z 07012KT 10SM -RA SCT021 OVC034 08/06 A3011 RMK AO2 SLP197 P0009 60020 70020 T00830061 10122 20083 53000=
201011031132 SPECI KATL 031132Z 07012KT 5SM -RA BR OVC034 08/06 A3011 RMK AO2 P0009=
201011031132 SPECI KATL 031132Z 07012KT 5SM -RA BR OVC034 08/06 A3011 RMK AO2 P0009=
201011031120 SPECI KATL 031120Z 07010KT 3SM RA BR OVC034 08/06 A3011 RMK AO2 P0007=
201011031120 SPECI KATL 031120Z 07010KT 3SM RA BR OVC034 08/06 A3011 RMK AO2 P0007=
201011031052 METAR KATL 031052Z 07007KT 7SM -RA SCT021 OVC034 08/07 A3011 RMK AO2 SLP196 P0006 T00830067=
201011030952 METAR KATL 030952Z 07010KT 5SM RA FEW022 OVC035 09/06 A3010 RMK AO2 SLP193 P0005 T00890056=
201011030939 SPECI KATL 030939Z 08011KT 6SM RA OVC038 09/06 A3012 RMK AO2 P0002=
201011030939 SPECI KATL 030939Z 08011KT 6SM RA OVC038 09/06 A3012 RMK AO2 P0002=
201011030852 METAR KATL 030852Z 09011KT 10SM -RA FEW022 OVC038 10/05 A3011 RMK AO2 RAB03 SLP194 P0000 60000 T01000050 58019=
201011030752 METAR KATL 030752Z 08012KT 10SM SCT025 OVC040 12/03 A3014 RMK AO2 SLP203 T01170028=
201011030652 METAR KATL 030652Z 08012KT 10SM SCT027 OVC040 12/03 A3015 RMK AO2 SLP208 T01220028=
201011030552 METAR KATL 030552Z 09011KT 10SM OVC035 12/03 A3016 RMK AO2 SLP213 T01220028 10133 20122 58014=
201011030452 METAR KATL 030452Z 09011KT 10SM BKN027 OVC035 12/03 A3019 RMK AO2 SLP222 T01220028 401720117=
201011030432 SPECI KATL 030432Z 09013G18KT 10SM BKN027 OVC035 12/03 A3019 RMK AO2=
201011030432 SPECI KATL 030432Z 09013G18KT 10SM BKN027 OVC035 12/03 A3019 RMK AO2=
201011030352 METAR KATL 030352Z 08014G17KT 10SM BKN036 BKN250 12/03 A3020 RMK AO2 SLP227 T01220033=
201011030252 METAR KATL 030252Z 08015G20KT 10SM BKN032 12/04 A3021 RMK AO2 SLP228 T01220044 51004=
201011030241 SPECI KATL 030241Z 08015KT 10SM BKN032 13/04 A3020 RMK AO2=
201011030241 SPECI KATL 030241Z 08015KT 10SM BKN032 13/04 A3020 RMK AO2=
201011030231 SPECI KATL 0=
201011030230 SPECI KATL 03022 03015282 T0 L SPUS70 KATL 030222=
201011030228 KATL 030=
201011030227 SPECI KATL 030   =
201011030220 SPECI KATL 030220Z 09014G19KT 10SM OVC028 13/05 A3020 RMK AO2=
201011030220 SPECI KATL 030220Z 09014G19KT 10SM OVC028 13/05 A3020 RMK AO2=
201011030152 METAR KATL 030152Z 08013KT 10SM OVC032 13/05 A3020 RMK AO2 SLP227 T01280050=
201011030052 METAR KATL 030052Z 09011KT 10SM BKN032 BKN080 BKN150 13/06 A3020 RMK AO2 SLP226 T01280061=
201011022352 METAR KATL 022352Z 08014KT 10SM FEW080 BKN150 13/07 A3019 RMK AO2 SLP224 T01330067 10172 20133 53009=
201011022252 METAR KATL 022252Z COR 11008KT 10SM FEW080 14/07 A3017 RMK AO2 SLP216 T01390072=
201011022152 METAR KATL 022152Z 09015KT 10SM FEW050 BKN080 BKN200 16/07 A3017 RMK AO2 SLP215 T01560072=
201011022052 METAR KATL 022052Z 08012KT 10SM FEW050 SCT080 17/08 A3017 RMK AO2 SLP213 T01670078 55018=
201011021952 METAR KATL 021952Z 08014G18KT 10SM FEW050 SCT080 SCT250 17/08 A3016 RMK AO2 SLP213 T01720078=
201011021852 METAR KATL 021852Z 09009KT 10SM FEW035 SCT050 SCT080 16/07 A3019 RMK AO2 SLP220 T01610072=
201011021752 METAR KATL 021752Z 07014G18KT 10SM FEW030 SCT050 SCT080 16/07 A3022 RMK AO2 SLP231 T01560072 10156 20117 58020=
201011021702 SPECI KATL 021702Z 09012KT 10SM FEW020 BKN050 OVC080 13/07 A3026 RMK AO2=
201011021702 SPECI KATL 021702Z 09012KT 10SM FEW020 BKN050 OVC080 13/07 A3026 RMK AO2=
201011021652 METAR KATL 021652Z 08013KT 10SM BKN020 OVC050 13/06 A3027 RMK AO2 SLP249 T01280061=
201011021552 METAR KATL 021552Z 08017KT 10SM BKN019 OVC050 12/06 A3028 RMK AO2 SLP255 T01170061=
201011021452 METAR KATL 021452Z 07014G20KT 10SM OVC019 12/07 A3028 RMK AO2 SLP254 T01170067 50007=
201011021352 METAR KATL 021352Z 07014G20KT 9SM OVC017 12/07 A3029 RMK AO2 SLP255 T01170072=
201011021252 METAR KATL 021252Z 08014G17KT 10SM BKN017 OVC050 12/07 A3027 RMK AO2 SLP250 T01170072=
201011021152 METAR KATL 021152Z 09012KT 10SM BKN017 OVC050 12/07 A3026 RMK AO2 SLP244 T01220067 10133 20122 53011=
201011021052 METAR KATL 021052Z 08011KT 10SM BKN017 OVC050 12/07 A3024 RMK AO2 SLP238 T01220067=
201011021015 SPECI KATL 021015Z 08012KT 10SM BKN017 BKN095 12/07 A3024 RMK AO2=
201011021015 SPECI KATL 021015Z 08012KT 10SM BKN017 BKN095 12/07 A3024 RMK AO2=
201011020952 METAR KATL 020952Z 09013KT 10SM BKN090 12/07 A3023 RMK AO2 SLP235 T01220072=
201011020852 METAR KATL 020852Z 08012KT 10SM OVC055 13/07 A3022 RMK AO2 SLP230 T01280067 58000=
201011020752 METAR KATL 020752Z 07010KT 10SM OVC050 13/07 A3023 RMK AO2 SLP234 T01330067=
201011020652 METAR KATL 020652Z 08009KT 10SM BKN150 OVC250 13/07 A3023 RMK AO2 SLP232 T01330067=
201011020552 METAR KATL 020552Z 09012KT 10SM BKN150 OVC250 13/07 A3022 RMK AO2 SLP231 T01330072 10167 20133 58007=
201011020452 METAR KATL 020452Z 09009KT 10SM FEW060 BKN150 OVC250 13/07 A3023 RMK AO2 SLP234 T01330072 402280106=
201011020352 METAR KATL 020352Z 09009KT 10SM SCT150 BKN250 13/07 A3024 RMK AO2 SLP239 T01330072=
201011020252 METAR KATL 020252Z 10008KT 10SM SCT150 BKN250 14/08 A3024 RMK AO2 SLP239 T01390078 53014=
201011020152 METAR KATL 020152Z 09010KT 10SM FEW150 SCT200 BKN250 14/08 A3022 RMK AO2 SLP230 T01440078=
201011020052 METAR KATL 020052Z 09009KT 10SM FEW200 BKN250 16/08 A3021 RMK AO2 SLP230 T01560078=
201011012352 METAR KATL 012352Z 10007KT 10SM FEW150 SCT200 BKN250 17/08 A3020 RMK AO2 SLP225 T01670078 10228 20167 53012=
201011012252 METAR KATL 012252Z 10005KT 10SM FEW150 SCT200 BKN250 18/07 A3018 RMK AO2 SLP218 T01830067=
201011012152 METAR KATL 012152Z 12006KT 10SM BKN250 21/06 A3017 RMK AO2 SLP214 T02110061=
201011012052 METAR KATL 012052Z 07006KT 10SM FEW250 22/05 A3017 RMK AO2 SLP212 T02170050 55006=
201011011952 METAR KATL 011952Z 12005KT 10SM FEW250 22/05 A3016 RMK AO2 SLP210 T02220050=
201011011852 METAR KATL 011852Z 08007KT 10SM FEW250 22/05 A3017 RMK AO2 SLP212 T02170050=
201011011752 METAR KATL 011752Z 06010G15KT 10SM FEW250 22/04 A3018 RMK AO2 SLP217 T02170039 10217 20122 58012=
201011011652 METAR KATL 011652Z 07007KT 10SM FEW200 BKN250 21/05 A3021 RMK AO2 SLP226 T02060050=
201011011552 METAR KATL 011552Z 07007KT 10SM FEW200 BKN250 19/06 A3022 RMK AO2 SLP231 T01940061=
201011011452 METAR KATL 011452Z 08008KT 10SM BKN250 18/06 A3022 RMK AO2 SLP230 T01780061 51018=
201011011352 METAR KATL 011352Z 02003KT 10SM SCT250 18/06 A3021 RMK AO2 SLP228 T01830061=
201011011252 METAR KATL 011252Z 00000KT 10SM SCT250 16/06 A3019 RMK AO2 SLP220 T01560056=
