##########################################################
# Query made at 04/19/2024 23:17:27 UTC
# Time interval: from 07/01/2010 12:00  to 07/31/2010 12:59  UTC
##########################################################

##########################################################
# KATL, Atlanta, Hartsfield - Jackson Atlanta International Airport (United States)
# WMO index: 72219. WIGOS ID: 0-20000-0-72219
# Latitude 33-38-59N. Longitude 084-25-00W. Altitude 312 m.
##########################################################

201007311252 METAR KATL 311252Z 12003KT 8SM FEW150 SCT250 27/22 A2991 RMK AO2 SLP117 T02670222=
201007311152 METAR KATL 311152Z 06004KT 8SM FEW150 SCT250 26/21 A2992 RMK AO2 SLP117 T02610211 10278 20239 51012=
201007311052 METAR KATL 311052Z 35007KT 9SM FEW150 SCT250 25/20 A2991 RMK AO2 SLP113 T02500200=
201007310952 METAR KATL 310952Z 33005KT 9SM FEW150 25/21 A2989 RMK AO2 SLP109 T02500211=
201007310852 METAR KATL 310852Z 32005KT 10SM FEW150 25/21 A2988 RMK AO2 SLP105 T02500211 56006=
201007310752 METAR KATL 310752Z VRB05KT 10SM SCT150 26/21 A2989 RMK AO2 SLP108 T02560211=
201007310652 METAR KATL 310652Z 31003KT 10SM CLR 26/21 A2989 RMK AO2 SLP108 T02610211=
201007310552 METAR KATL 310552Z 00000KT 10SM CLR 28/20 A2990 RMK AO2 SLP111 T02780200 10333 20272 58007=
201007310452 METAR KATL 310452Z 34003KT 10SM FEW250 28/20 A2991 RMK AO2 SLP116 T02830200 403500244=
201007310352 METAR KATL 310352Z 36005KT 10SM FEW250 30/20 A2992 RMK AO2 SLP119 T03000200=
201007310252 METAR KATL 310252Z 33005KT 10SM FEW250 30/21 A2992 RMK AO2 SLP120 T03000206 53013=
201007310152 METAR KATL 310152Z 36006KT 10SM FEW250 32/20 A2991 RMK AO2 SLP115 T03170200=
201007310052 METAR KATL 310052Z 36007KT 10SM FEW250 32/20 A2989 RMK AO2 SLP109 T03220200=
201007302352 METAR KATL 302352Z 36008KT 10SM SCT250 33/19 A2989 RMK AO2 SLP107 T03330189 10350 20333 55004=
201007302252 METAR KATL 302252Z 33005KT 10SM SCT250 34/18 A2988 RMK AO2 SLP105 T03440183=
201007302152 METAR KATL 302152Z 33008KT 300V010 10SM FEW065 SCT250 34/20 A2988 RMK AO2 SLP106 T03440200=
201007302052 METAR KATL 302052Z 31006KT 10SM FEW065 SCT200 35/19 A2990 RMK AO2 SLP111 T03500194 58014=
201007301952 METAR KATL 301952Z 33010G17KT 10SM FEW060 SCT200 34/18 A2992 RMK AO2 SLP117 T03440183=
201007301852 METAR KATL 301852Z 34009G14KT 10SM FEW065 SCT200 34/17 A2993 RMK AO2 SLP123 T03440172=
201007301752 METAR KATL 301752Z VRB05KT 10SM FEW050 SCT200 34/20 A2994 RMK AO2 SLP125 T03390200 10339 20256 58013=
201007301652 METAR KATL 301652Z 34006KT 10SM FEW045 SCT200 33/22 A2996 RMK AO2 SLP131 T03280217=
201007301552 METAR KATL 301552Z 31006KT 10SM FEW040 SCT200 32/22 A2997 RMK AO2 SLP136 T03170222=
201007301452 METAR KATL 301452Z 33009KT 10SM FEW200 31/22 A2998 RMK AO2 SLP138 T03110222 50002=
201007301352 METAR KATL 301352Z 33008KT 10SM FEW250 29/23 A2998 RMK AO2 SLP140 T02890233=
201007301252 METAR KATL 301252Z 32008KT 10SM FEW150 SCT250 27/23 A2999 RMK AO2 SLP142 T02720228=
201007301152 METAR KATL 301152Z 34007KT 10SM SCT250 26/22 A2997 RMK AO2 SLP138 T02560222 10272 20244 53009=
201007301052 METAR KATL 301052Z 32008KT 10SM SCT250 25/22 A2996 RMK AO2 SLP132 T02500222=
201007300952 METAR KATL 300952Z 31008KT 10SM FEW120 25/22 A2995 RMK AO2 SLP129 T02500222=
201007300852 METAR KATL 300852Z 32007KT 10SM FEW120 26/23 A2994 RMK AO2 SLP127 T02560228 55011=
201007300752 METAR KATL 300752Z 32007KT 10SM CLR 26/23 A2994 RMK AO2 SLP126 T02610228=
201007300652 METAR KATL 300652Z 32007KT 10SM FEW120 27/22 A2996 RMK AO2 SLP133 T02670222=
201007300552 METAR KATL 300552Z 31006KT 10SM SCT120 27/22 A2998 RMK AO2 SLP138 T02720222 10311 20272 56008=
201007300452 METAR KATL 300452Z 31006KT 10SM FEW150 BKN250 28/23 A2998 RMK AO2 SLP139 T02780228 403440239=
201007300352 METAR KATL 300352Z 33008KT 10SM SCT250 28/23 A2999 RMK AO2 SLP142 T02830228=
201007300252 METAR KATL 300252Z 31006KT 10SM FEW055 SCT250 29/23 A3000 RMK AO2 SLP147 T02890233 53010=
201007300152 METAR KATL 300152Z COR 29008KT 10SM SCT055 BKN250 29/23 A2999 RMK AO2 SLP142 T02940228=
201007300052 METAR KATL 300052Z 28008KT 10SM FEW050 SCT200 BKN250 29/23 A2998 RMK AO2 SLP139 T02940228=
201007292352 METAR KATL 292352Z 28007KT 10SM FEW050 SCT200 BKN250 31/22 A2997 RMK AO2 SLP137 TCU DSNT W-NW T03110222 10344 20311 55006=
201007292252 METAR KATL 292252Z 27007KT 10SM FEW050 SCT070 SCT250 33/22 A2997 RMK AO2 SLP136 T03330222=
201007292152 METAR KATL 292152Z 28007KT 10SM FEW050 SCT250 33/22 A2998 RMK AO2 SLP139 T03330222=
201007292052 METAR KATL 292052Z 29013KT 10SM FEW050 SCT250 34/22 A2999 RMK AO2 SLP142 CB DSNT NE & SE T03390222 56026=
201007291952 METAR KATL 291952Z 29011KT 10SM FEW050 SCT250 34/22 A3001 RMK AO2 SLP150 CB DSNT NE & DSNT NW TCU DSNT SE T03390217=
201007291852 METAR KATL 291852Z 34006KT 10SM FEW045 SCT250 33/22 A3004 RMK AO2 SLP158 CB DSNT NE T03330217=
201007291752 METAR KATL 291752Z 31009G15KT 10SM SCT040TCU SCT250 32/23 A3007 RMK AO2 SLP170 TCU NE & W-NW T03220228 10328 20250 58012=
201007291652 METAR KATL 291652Z 29009G16KT 10SM SCT035TCU 32/23 A3009 RMK AO2 SLP175 TCU NE & NW T03220228=
201007291552 METAR KATL 291552Z 34006KT 10SM FEW030 SCT250 31/23 A3010 RMK AO2 SLP181 T03060228=
201007291452 METAR KATL 291452Z 32008KT 10SM FEW025 SCT250 30/23 A3011 RMK AO2 SLP182 T03000233 50006=
201007291352 METAR KATL 291352Z 33010KT 10SM FEW020 SCT250 29/23 A3011 RMK AO2 SLP183 T02890228=
201007291252 METAR KATL 291252Z 33009KT 10SM FEW040 27/23 A3011 RMK AO2 SLP183 T02720228=
201007291152 METAR KATL 291152Z 32008KT 10SM FEW250 25/22 A3009 RMK AO2 SLP177 70020 T02500222 10256 20239 53003=
201007291052 METAR KATL 291052Z 29007KT 10SM FEW150 SCT250 24/22 A3008 RMK AO2 SLP174 T02390217=
201007290952 METAR KATL 290952Z 29006KT 10SM FEW150 24/22 A3008 RMK AO2 SLP173 T02390217=
201007290852 METAR KATL 290852Z 30008KT 10SM FEW020 SCT150 24/22 A3008 RMK AO2 SLP174 T02440217 58005=
201007290752 METAR KATL 290752Z 31007KT 10SM FEW150 25/22 A3009 RMK AO2 SLP179 T02500217=
201007290652 METAR KATL 290652Z 28006KT 10SM FEW150 25/22 A3009 RMK AO2 SLP178 T02500217=
201007290552 METAR KATL 290552Z 29006KT 10SM FEW150 26/22 A3009 RMK AO2 SLP178 T02560222 10294 20256 58008=
201007290452 METAR KATL 290452Z 27005KT 10SM FEW150 26/22 A3010 RMK AO2 SLP180 T02610222 403220244=
201007290352 METAR KATL 290352Z 28006KT 10SM FEW150 SCT250 27/23 A3012 RMK AO2 SLP188 T02670228=
201007290252 METAR KATL 290252Z 27005KT 10SM FEW150 SCT250 27/23 A3012 RMK AO2 SLP186 T02720233 53011=
201007290152 METAR KATL 290152Z 27007KT 10SM FEW050 SCT200 28/23 A3010 RMK AO2 SLP181 T02780233=
201007290052 METAR KATL 290052Z 24003KT 10SM BKN150 BKN200 BKN250 29/24 A3009 RMK AO2 SLP178 T02890239=
201007282352 METAR KATL 282352Z 24003KT 10SM BKN150 BKN200 BKN250 29/23 A3008 RMK AO2 SLP176 60020 T02940233 10317 20256 55005=
201007282252 METAR KATL 282252Z 28005KT 10SM BKN150 BKN200 BKN250 30/23 A3008 RMK AO2 SLP173 T03000233=
201007282152 METAR KATL 282152Z 25004KT 10SM SCT150 BKN200 32/23 A3008 RMK AO2 SLP174 T03170228=
201007282052 METAR KATL 282052Z 27005KT 10SM FEW025 SCT110 BKN200 30/23 A3010 RMK AO2 SLP180 CB DSNT N TCU DSNT NW 60020 T03000233 58016=
201007281952 METAR KATL 281952Z 25008KT 10SM FEW020 SCT110 BKN200 29/23 A3011 RMK AO2 SLP186 CB DSNT E TCU DSNT SW & NW SHRA S T02890233=
201007281852 METAR KATL 281852Z 20004KT 10SM FEW020CB SCT050TCU BKN110 BKN200 28/23 A3014 RMK AO2 TSB11E50RAB03E22 SLP195 CB N & E & SE & SW MOV SE CB DSNT NW CBMAM OHD-N-NE TCU NE SHRA N & E & SE P0020 T02780233=
201007281829 SPECI KATL 281829Z 00000KT 10SM TS FEW020CB BKN050 BKN110 BKN200 27/23 A3014 RMK AO2 TSB11RAB03E22 VIS LWR SE SHRA FRQ LTGICCG SE TS SE MOV SE P0020=
201007281829 SPECI KATL 281829Z 00000KT 10SM TS FEW020CB BKN050 BKN110 BKN200 27/23 A3014 RMK AO2 TSB11RAB03E22 VIS LWR SE SHRA FRQ LTGICCG SE TS SE MOV SE P0020=
201007281822 SPECI KATL 281822Z 00000KT 8SM TS FEW017CB SCT030TCU BKN050 BKN200 26/22 A3015 RMK AO2 TSB11RAB03E22 VIS LWR SE-S SHRA FRQ LTGICCG SE TS SE MOV SE TCU NE & NW P0020=
201007281822 SPECI KATL 281822Z 00000KT 8SM TS FEW017CB SCT030TCU BKN050 BKN200 26/22 A3015 RMK AO2 TSB11RAB03E22 VIS LWR SE-S SHRA FRQ LTGICCG SE TS SE MOV SE TCU NE & NW P0020=
201007281812 SPECI KATL 281812Z 28008KT 8SM R09R/4500VP6000FT -TSRA SCT017CB BKN040TCU BKN080 BKN200 26/22 A3015 RMK AO2 TSB11RAB03 VIS LWR SE-SW SHRA FRQ LTGICCG SE-SW TS SE-SW MOV SE TCU NE-E-SE P0012=
201007281812 SPECI KATL 281812Z 28008KT 8SM R09R/4500VP6000FT -TSRA SCT017CB BKN040TCU BKN080 BKN200 26/22 A3015 RMK AO2 TSB11RAB03 VIS LWR SE-SW SHRA FRQ LTGICCG SE-SW TS SE-SW MOV SE TCU NE-E-SE P0012=
201007281804 SPECI KATL 281804Z 31018KT 7SM R09R/4500VP6000FT -RA SCT030CB BKN040TCU BKN080 BKN200 27/23 A3015 RMK AO2 RAB03 VIS LWR SW-W SHRA CB OHD-SW-W MOV SE TCU NE-E-SE-S P0000=
201007281804 SPECI KATL 281804Z 31018KT 7SM R09R/4500VP6000FT -RA SCT030CB BKN040TCU BKN080 BKN200 27/23 A3015 RMK AO2 RAB03 VIS LWR SW-W SHRA CB OHD-SW-W MOV SE TCU NE-E-SE-S P0000=
201007281752 METAR KATL 281752Z 34011G16KT 10SM FEW040CB SCT050TCU BKN080 BKN200 31/23 A3015 RMK AO2 SLP196 CB W-NW MOV SE TCU NE-E-SE-S SHRA W-NW T03060228 10322 20250 58008=
201007281739 SPECI KATL 281739Z 30007KT 10SM FEW035CB SCT040TCU BKN090 BKN200 31/23 A3014 RMK AO2 CB N & SW MOV SE TCU NE-E-SE-S-SW-W SHRA N & SW=
201007281739 SPECI KATL 281739Z 30007KT 10SM FEW035CB SCT040TCU BKN090 BKN200 31/23 A3014 RMK AO2 CB N & SW MOV SE TCU NE-E-SE-S-SW-W SHRA N & SW=
201007281722 SPECI KATL 281722Z 31006KT 10SM FEW035CB SCT040TCU BKN150 BKN200 31/23 A3015 RMK AO2 CB N & W MOV SE TCU NE & S & NW SHRA N & W=
201007281722 SPECI KATL 281722Z 31006KT 10SM FEW035CB SCT040TCU BKN150 BKN200 31/23 A3015 RMK AO2 CB N & W MOV SE TCU NE & S & NW SHRA N & W=
201007281652 METAR KATL 281652Z VRB04KT 10SM SCT035TCU BKN150 BKN200 31/22 A3015 RMK AO2 SLP199 CB DSNT NW TCU NE-E-SE-S & NW T03110222=
201007281552 METAR KATL 281552Z 33011KT 10SM SCT028TCU BKN200 31/24 A3017 RMK AO2 SLP204 TCU NE & S & SW T03110239=
201007281452 METAR KATL 281452Z 35007KT 10SM FEW025 SCT150 BKN200 30/23 A3017 RMK AO2 SLP205 T03000233 51010=
201007281352 METAR KATL 281352Z 30005KT 10SM FEW150 SCT200 SCT250 28/23 A3016 RMK AO2 SLP202 T02780233=
201007281252 METAR KATL 281252Z 30009KT 10SM FEW025 SCT150 BKN250 27/23 A3016 RMK AO2 SLP201 T02670228=
201007281152 METAR KATL 281152Z 32007KT 10SM FEW030 SCT150 BKN250 25/23 A3014 RMK AO2 SLP196 T02500228 10261 20244 51016=
201007281052 METAR KATL 281052Z 32007KT 10SM FEW150 SCT250 25/23 A3013 RMK AO2 SLP190 T02500228=
201007280952 METAR KATL 280952Z 32007KT 10SM BKN150 25/23 A3011 RMK AO2 SLP185 T02500228=
201007280852 METAR KATL 280852Z 32006KT 10SM BKN150 BKN250 26/23 A3009 RMK AO2 SLP179 T02560228 55001=
201007280752 METAR KATL 280752Z 31006KT 10SM SCT150 BKN250 26/23 A3009 RMK AO2 SLP175 T02560233=
201007280652 METAR KATL 280652Z 29006KT 10SM FEW150 26/23 A3008 RMK AO2 SLP174 T02560233=
201007280552 METAR KATL 280552Z 29006KT 10SM FEW150 26/23 A3010 RMK AO2 SLP179 T02610228 10289 20261 58004=
201007280452 METAR KATL 280452Z 28006KT 10SM FEW150 SCT200 BKN250 27/23 A3011 RMK AO2 SLP184 T02670228 403390228=
201007280352 METAR KATL 280352Z 28006KT 10SM FEW150 SCT200 BKN250 27/23 A3011 RMK AO2 SLP185 T02670228=
201007280252 METAR KATL 280252Z 23003KT 10SM FEW150 BKN200 BKN250 27/23 A3011 RMK AO2 SLP184 T02720228 52011=
201007280152 METAR KATL 280152Z 28004KT 10SM FEW150 SCT200 BKN250 28/22 A3010 RMK AO2 SLP182 T02780222=
201007280052 METAR KATL 280052Z 27005KT 10SM FEW150 SCT200 BKN250 28/23 A3008 RMK AO2 SLP176 T02830228=
201007272352 METAR KATL 272352Z 28005KT 10SM FEW150 SCT200 BKN250 29/22 A3007 RMK AO2 SLP173 60000 T02940222 10339 20261 55001=
201007272252 METAR KATL 272252Z 27005KT 10SM FEW040 SCT200 BKN250 30/22 A3006 RMK AO2 SLP168 T03000222=
201007272152 METAR KATL 272152Z 25004KT 10SM FEW040 SCT150 BKN200 BKN250 28/21 A3007 RMK AO2 TSE21RAE21 SLP172 TS MOV SE P0000 T02780211=
201007272121 SPECI KATL 272121Z 07003KT 10SM FEW040 SCT090 BKN150 BKN250 26/21 A3008 RMK AO2 TSE21RAE21 TS MOV SE P0000=
201007272121 SPECI KATL 272121Z 07003KT 10SM FEW040 SCT090 BKN150 BKN250 26/21 A3008 RMK AO2 TSE21RAE21 TS MOV SE P0000=
201007272052 METAR KATL 272052Z 30015G20KT 10SM -TSRA BKN045CB BKN055 BKN090 OVC200 28/21 A3008 RMK AO2 PK WND 33026/2031 WSHFT 2021 TSB06RAB48 SLP174 FRQ LTGICCG SE & S TS VC SE & S MOV SE P0000 60000 T02830206 55014=
201007272049 SPECI KATL 272049Z 31016KT 10SM -TSRA BKN045CB BKN055 BKN090 OVC200 28/21 A3008 RMK AO2 PK WND 33026/2031 WSHFT 2021 TSB06RAB48 FRQ LTGICCG SE & S TS VC SE & S MOV SE P0000=
201007272049 SPECI KATL 272049Z 31016KT 10SM -TSRA BKN045CB BKN055 BKN090 OVC200 28/21 A3008 RMK AO2 PK WND 33026/2031 WSHFT 2021 TSB06RAB48 FRQ LTGICCG SE & S TS VC SE & S MOV SE P0000=
201007272038 SPECI KATL 272038Z 32020G26KT 10SM TS BKN040CB BKN050 BKN200 29/21 A3008 RMK AO2 PK WND 33026/2031 WSHFT 2021 TSB06 OCNL LTGICCG=
201007272038 SPECI KATL 272038Z 32020G26KT 10SM TS BKN040CB BKN050 BKN200 29/21 A3008 RMK AO2 PK WND 33026/2031 WSHFT 2021 TSB06 OCNL LTGICCG SW-N TS SW-N MOV SE SHRA SW-N CB DSNT NE-E-SE-S=
201007272024 SPECI KATL 272024Z 30012G18KT 10SM TS FEW040CB BKN050 BKN200 33/23 A3006 RMK AO2 TSB06 OCNL LTGICCG W-NW-N TS VC W-NW-N MOV SE SHRA VC W-NW-N CB NE-E-SE MOV SE=
201007272024 SPECI KATL 272024Z 30012G18KT 10SM TS FEW040CB BKN050 BKN200 33/23 A3006 RMK AO2 TSB06 OCNL LTGICCG W-NW-N TS VC W-NW-N MOV SE SHRA VC W-NW-N CB NE-E-SE MOV SE=
201007272018 SPECI KATL 272018Z 29010KT 10SM TS FEW040CB BKN050 BKN200 34/22 A3006 RMK AO2 TSB06 OCNL LTGICCG NE & W TS VC NE & W MOV SE SHRA VC NE & W CB DSNT SE-S=
201007272018 SPECI KATL 272018Z 29010KT 10SM TS FEW040CB BKN050 BKN200 34/22 A3006 RMK AO2 TSB06 OCNL LTGICCG NE & W TS VC NE & W MOV SE SHRA VC NE & W CB DSNT SE-S=
201007272006 SPECI KATL 272006Z 26005KT 10SM TS FEW040CB BKN050TCU BKN200 34/23 A3007 RMK AO2 TSB06 OCNL LTGICCG SE & NW TS VC SE & NW MOV SE TCU NE & SE & SW SHRA VC SE & NW=
201007272006 SPECI KATL 272006Z 26005KT 10SM TS FEW040CB BKN050TCU BKN200 34/23 A3007 RMK AO2 TSB06 OCNL LTGICCG SE & NW TS VC SE & NW MOV SE TCU NE & SE & SW SHRA VC SE & NW=
201007271952 METAR KATL 271952Z 26007KT 10SM FEW040CB SCT050TCU SCT200 34/23 A3008 RMK AO2 SLP173 CB S MOV E CB DSNT SW & NW TCU NE-E & NW-N SHRA S T03390228=
201007271852 METAR KATL 271852Z 26010KT 10SM SCT040TCU SCT200 33/23 A3010 RMK AO2 SLP180 CB DSNT NW TCU N-NE & SE-S-SW T03280228=
201007271752 METAR KATL 271752Z 29007KT 10SM FEW040 SCT200 32/23 A3012 RMK AO2 SLP187 CB DSNT N & NW T03220233 10322 20233 58003=
201007271652 METAR KATL 271652Z 29008KT 10SM FEW040 SCT150 SCT200 32/22 A3012 RMK AO2 SLP188 T03170217=
201007271552 METAR KATL 271552Z 28003KT 10SM FEW030 SCT150 SCT200 30/22 A3013 RMK AO2 SLP193 T03000222=
201007271452 METAR KATL 271452Z 24003KT 10SM FEW030 SCT150 SCT200 28/22 A3013 RMK AO2 SLP191 T02830222 52005=
201007271352 METAR KATL 271352Z 00000KT 10SM FEW080 SCT150 SCT200 27/22 A3013 RMK AO2 SLP190 T02670217=
201007271252 METAR KATL 271252Z 27004KT 10SM FEW010 SCT150 BKN250 24/22 A3011 RMK AO2 SLP188 T02390217=
201007271152 METAR KATL 271152Z 28004KT 10SM FEW010 BKN150 BKN250 23/22 A3011 RMK AO2 SLP188 70027 T02330217 10239 20228 53006=
201007271052 METAR KATL 271052Z 31004KT 10SM BKN150 BKN250 23/21 A3011 RMK AO2 SLP183 T02330211=
201007270952 METAR KATL 270952Z 36006KT 10SM BKN140 BKN200 23/22 A3009 RMK AO2 SLP175 T02330217=
201007270852 METAR KATL 270852Z 32005KT 10SM SCT130 BKN200 23/22 A3009 RMK AO2 SLP179 T02330217 58005=
201007270752 METAR KATL 270752Z 32008KT 10SM FEW065 BKN130 BKN200 23/22 A3010 RMK AO2 SLP182 T02330217=
201007270652 METAR KATL 270652Z 27007KT 10SM SCT065 BKN090 BKN110 23/22 A3011 RMK AO2 SLP185 T02330222=
201007270552 METAR KATL 270552Z 31004KT 10SM SCT140 BKN200 BKN250 23/22 A3011 RMK AO2 SLP184 60000 T02330222 10256 20233 53004=
201007270452 METAR KATL 270452Z 28004KT 10SM BKN200 OVC250 24/22 A3009 RMK AO2 SLP178 T02390217 403500233=
201007270352 METAR KATL 270352Z 21003KT 10SM FEW150 BKN200 OVC250 24/22 A3008 RMK AO2 SLP175 T02440217=
201007270252 METAR KATL 270252Z 14007KT 10SM FEW070 BKN150 OVC200 24/22 A3010 RMK AO2 SLP181 60000 T02440222 51020=
201007270152 METAR KATL 270152Z 17006KT 10SM SCT120 BKN150 OVC200 25/22 A3007 RMK AO2 PRESRR SLP171 T02500217=
201007270052 METAR KATL 270052Z 08005KT 10SM FEW009 SCT120CB BKN150 OVC200 24/22 A3007 RMK AO2 TSE00RAE07 SLP173 CBMAM SE-SW P0000 T02390217=
201007270001 SPECI KATL 270001Z 36011KT 7SM -RA FEW040 SCT060 BKN110 OVC200 24/22 A3005 RMK AO2 TSE00 TS DSIPTD CB DSNT SE-SW P0000=
201007270001 SPECI KATL 270001Z 36011KT 7SM -RA FEW040 SCT060 BKN110 OVC200 24/22 A3005 RMK AO2 TSE00 TS DSIPTD CB DSNT SE-SW P0000=
201007262352 METAR KATL 262352Z 01022G30KT 3SM +TSRA BR FEW015 SCT040CB BKN060 OVC150 24/22 A3004 RMK AO2 PK WND 01034/2256 WSHFT 2241 RAB24 PRESFR SLP161 OCNL LTGICCG OHD-N TS OHD-N MOV NE P0027 60027 T02390217 10350 20233 50=
201007262343 SPECI KATL 262343Z 36018KT 2 1/2SM +TSRA BR FEW015 BKN040CB OVC060 24/22 A3008 RMK AO2 PK WND 01034/2256 WSHFT 2241 RAB24 OCNL LTGICCG OHD-S TS OHD-S MOV NE P0006=
201007262343 SPECI KATL 262343Z 36018KT 2 1/2SM +TSRA BR FEW015 BKN040CB OVC060 24/22 A3008 RMK AO2 PK WND 01034/2256 WSHFT 2241 RAB24 OCNL LTGICCG OHD-S TS OHD-S MOV NE P0006=
201007262259 SPECI KATL 262259Z 01024G34KT 10SM TS BKN050CB BKN070 BKN110 OVC200 28/21 A3006 RMK AO2 PK WND 01034/2256 WSHFT 2241 FRQ LTGCGIC NE AND NW-N TS VC NE AND NW-N MOV NE BLDU OVR RWY=
201007262259 SPECI KATL 262259Z 01024G34KT 10SM TS BKN050CB BKN070 BKN110 OVC200 28/21 A3006 RMK AO2 PK WND 01034/2256 WSHFT 2241 FRQ LTGCGIC NE AND NW-N TS VC NE AND NW-N MOV NE BLDU OVR RWY=
201007262252 METAR KATL 262252Z 02022G27KT 10SM TS SCT050CB BKN070 BKN200 29/21 A3005 RMK AO2 PK WND 01027/2252 TSB47 PRESRR SLP166 OCNL LTGCGIC=
201007262248 SPECI KATL 262248Z 03019G24KT 10SM TS SCT050CB BKN070 BKN200 30/21 A3004 RMK AO2 TSB47 PRESRR OCNL LTGCGIC NW-N TS VC NW-N MOV NE CB DSNT NW-NE-E AND DSNT S=
201007262248 SPECI KATL 262248Z 03019G24KT 10SM TS SCT050CB BKN070 BKN200 30/21 A3004 RMK AO2 TSB47 PRESRR OCNL LTGCGIC NW-N TS VC NW-N MOV NE CB DSNT NW-NE-E AND DSNT S=
201007262152 METAR KATL 262152Z 21010KT 10SM FEW050 SCT200 35/21 A3000 RMK AO2 SLP144 CB DSNT NW-NE TCU DSNT S T03500211=
201007262052 METAR KATL 262052Z 20011G15KT 10SM FEW050 SCT200 34/21 A3000 RMK AO2 SLP147 CB DSNT N-NE-E & DSNT S & W & NW TCU DSNT S & NW T03440211 56027=
201007261952 METAR KATL 261952Z 24007KT 10SM FEW050 SCT200 34/23 A3002 RMK AO2 SLP154 CB DSNT N-NE-E & DSNT S TCU DSNT NE & NW T03440228=
201007261852 METAR KATL 261852Z 19005KT 10SM FEW040 SCT200 34/23 A3005 RMK AO2 SLP163 CB DSNT N & E TCU DSNT NE & NW T03390233=
201007261752 METAR KATL 261752Z VRB04KT 10SM FEW045 SCT200 33/23 A3009 RMK AO2 SLP174 CB DSNT N & E & NW TCU DSNT NE T03330228 10339 20261 58010=
201007261652 METAR KATL 261652Z 00000KT 10SM FEW040 SCT150 SCT200 33/23 A3010 RMK AO2 SLP180 CB DSNT E TCU DSNT NW T03280233=
201007261552 METAR KATL 261552Z 31003KT 10SM FEW150 SCT200 31/24 A3011 RMK AO2 SLP183 T03110239=
201007261452 METAR KATL 261452Z VRB04KT 10SM FEW080 SCT150 SCT200 30/23 A3012 RMK AO2 SLP185 T03000228 50003=
201007261352 METAR KATL 261352Z 29006KT 10SM FEW080 SCT200 28/23 A3012 RMK AO2 SLP187 T02830228=
201007261252 METAR KATL 261252Z VRB05KT 10SM FEW030 SCT080 BKN200 27/23 A3012 RMK AO2 SLP188 T02720228=
201007261152 METAR KATL 261152Z 27007KT 10SM SCT080 SCT200 26/23 A3011 RMK AO2 SLP182 60000 T02610228 10283 20250 53016=
201007261052 METAR KATL 261052Z 33005KT 10SM FEW200 25/22 A3008 RMK AO2 SLP173 T02500222=
201007260952 METAR KATL 260952Z 30005KT 10SM CLR 26/22 A3007 RMK AO2 SLP168 T02560222=
201007260852 METAR KATL 260852Z 00000KT 10SM FEW050 SCT200 26/22 A3006 RMK AO2 SLP165 60000 T02560222 58007=
201007260752 METAR KATL 260752Z 26004KT 10SM FEW050 SCT110 SCT200 26/23 A3006 RMK AO2 TSE0659 SLP167 CB DSIPT T02560233=
201007260704 SPECI KATL 260704Z 22007KT 10SM FEW050 SCT110 BKN200 26/24 A3008 RMK AO2 TSE0659 OCNL LTGIC DSNT SW TS DSIPT CB DSNT SW MOV SLO N=
201007260704 SPECI KATL 260704Z 22007KT 10SM FEW050 SCT110 BKN200 26/24 A3008 RMK AO2 TSE0659 OCNL LTGIC DSNT SW TS DSIPT CB DSNT SW MOV SLO N=
201007260652 METAR KATL 260652Z 23008G17KT 10SM TS SCT050CB SCT110 BKN200 27/24 A3009 RMK AO2 RAB23E40 SLP175 OCNL LTGICCG SW TS VC SW MOV SLO N CB DSNT S-SW MOV SLO N P0000 T02670239=
201007260552 METAR KATL 260552Z 26010KT 10SM TS BKN050CB BKN110 BKN200 28/24 A3008 RMK AO2 TSB40 SLP173 FRQ LTGICCG S-SW TS VC S-SW MOV SLO N T02830239 10328 20283 53008=
201007260540 SPECI KATL 260540Z 27010KT 10SM TS SCT050CB BKN120 BKN200 28/23 A3008 RMK AO2 TSB40 FRQ LTGICCG S-SW TS VC S-SW MOV SLO N=
201007260540 SPECI KATL 260540Z 27010KT 10SM TS SCT050CB BKN120 BKN200 28/23 A3008 RMK AO2 TSB40 FRQ LTGICCG S-SW TS VC S-SW MOV SLO N=
201007260452 METAR KATL 260452Z 00000KT 10SM FEW050 SCT080 SCT120 SCT200 29/23 A3007 RMK AO2 SLP169 FRQ LTGIC DSNT SW CB DSNT SW TCU DSNT SE T02890228 403500256=
201007260352 METAR KATL 260352Z 00000KT 10SM FEW055 SCT070 BKN120 30/22 A3006 RMK AO2 SLP165 T03000222=
201007260252 METAR KATL 260252Z 19005KT 10SM FEW070 SCT120 30/23 A3005 RMK AO2 SLP164 T03000233 53010=
201007260152 METAR KATL 260152Z 00000KT 10SM FEW150 SCT250 32/22 A3004 RMK AO2 SLP157 T03220217=
201007260052 METAR KATL 260052Z 26004KT 10SM FEW150 SCT250 32/22 A3003 RMK AO2 SLP155 T03220217=
201007252352 METAR KATL 252352Z 29006KT 10SM FEW050 SCT250 33/22 A3002 RMK AO2 SLP154 T03280222 10350 20328 55002=
201007252252 METAR KATL 252252Z 21006KT 10SM FEW055 SCT070 SCT250 34/23 A3001 RMK AO2 SLP149 T03440228=
201007252152 METAR KATL 252152Z 21009KT 10SM SCT055 SCT200 34/22 A3002 RMK AO2 SLP153 T03390222=
201007252052 METAR KATL 252052Z 21008G16KT 200V280 10SM SCT050 SCT200 34/22 A3003 RMK AO2 SLP156 T03440222 56018=
201007251952 METAR KATL 251952Z 21012KT 10SM SCT050 34/22 A3005 RMK AO2 SLP164 T03440222=
201007251852 METAR KATL 251852Z 21009KT 10SM SCT045 34/23 A3006 RMK AO2 SLP167 T03390228=
201007251752 METAR KATL 251752Z 21008KT 10SM SCT044 33/23 A3009 RMK AO2 SLP176 T03280228 10333 20261 58010=
201007251652 METAR KATL 251652Z 17007KT 10SM SCT039 BKN250 33/23 A3010 RMK AO2 SLP181 T03280228=
201007251552 METAR KATL 251552Z 21007KT 10SM SCT035 SCT250 32/23 A3012 RMK AO2 SLP185 T03220233=
201007251452 METAR KATL 251452Z 23007KT 10SM FEW025 SCT085 31/23 A3012 RMK AO2 SLP186 T03110233 58001=
201007251352 METAR KATL 251352Z 24006KT 10SM SCT085 SCT250 30/23 A3012 RMK AO2 SLP188 T03000233=
201007251252 METAR KATL 251252Z 25007KT 10SM FEW025 SCT090 SCT250 29/23 A3013 RMK AO2 SLP188 T02890233=
201007251152 METAR KATL 251152Z 22005KT 10SM FEW025 SCT090 SCT250 26/23 A3012 RMK AO2 SLP186 TCU DSNT S T02610228 10272 20256 53003=
201007251052 METAR KATL 251052Z 00000KT 10SM SCT090 SCT250 26/22 A3011 RMK AO2 SLP184 T02610222=
201007250952 METAR KATL 250952Z 21003KT 10SM BKN070 BKN090 26/22 A3012 RMK AO2 SLP186 T02610222=
201007250852 METAR KATL 250852Z 21003KT 10SM BKN070 26/23 A3011 RMK AO2 SLP184 T02610228 51018=
201007250752 METAR KATL 250752Z 29003KT 10SM SCT045 27/22 A3011 RMK AO2 SLP182 T02670222=
201007250652 METAR KATL 250652Z 23003KT 10SM FEW150 27/22 A3008 RMK AO2 SLP174 T02670217=
201007250552 METAR KATL 250552Z 21007KT 10SM CLR 27/22 A3006 RMK AO2 SLP165 T02720217 10322 20272 55008=
201007250452 METAR KATL 250452Z 18007KT 10SM CLR 27/21 A3005 RMK AO2 SLP163 T02720206 403440261=
201007250352 METAR KATL 250352Z 20005KT 10SM CLR 28/21 A3006 RMK AO2 SLP166 T02780206=
201007250252 METAR KATL 250252Z 14003KT 10SM FEW250 29/21 A3008 RMK AO2 SLP174 T02890206 51007=
201007250152 METAR KATL 250152Z 14004KT 10SM SCT250 29/21 A3008 RMK AO2 SLP173 T02940211=
201007250052 METAR KATL 250052Z 17005KT 10SM SCT250 30/20 A3007 RMK AO2 SLP170 T03000200=
201007242352 METAR KATL 242352Z 18010KT 10SM SCT250 32/22 A3006 RMK AO2 SLP166 T03220217 10344 20322 57005=
201007242252 METAR KATL 242252Z 16009KT 10SM SCT050 SCT250 33/23 A3007 RMK AO2 SLP169 CB DSNT NW T03280228=
201007242152 METAR KATL 242152Z 14007KT 10SM FEW050 SCT250 34/22 A3006 RMK AO2 SLP168 CB DSNT NW-N T03390222=
201007242052 METAR KATL 242052Z 16009KT 10SM SCT050 SCT250 34/22 A3007 RMK AO2 SLP171 CB DSNT NW-NE T03440217 58016=
201007241952 METAR KATL 241952Z 19008KT 10SM SCT047 BKN250 34/23 A3009 RMK AO2 SLP177 CB DSNT N-NE & NW-N T03440233=
201007241852 METAR KATL 241852Z 20008KT 10SM SCT041 OVC250 34/24 A3011 RMK AO2 SLP182 T03390244=
201007241752 METAR KATL 241752Z 20004KT 10SM SCT039 OVC250 33/24 A3012 RMK AO2 SLP188 T03330239 10333 20261 58001=
201007241652 METAR KATL 241652Z 19005KT 10SM SCT033 BKN250 33/24 A3013 RMK AO2 SLP190 T03280244=
201007241552 METAR KATL 241552Z 21003KT 10SM BKN250 31/24 A3013 RMK AO2 SLP190 T03110244=
201007241452 METAR KATL 241452Z VRB03KT 10SM SCT250 30/24 A3013 RMK AO2 SLP190 T03000239 58001=
201007241352 METAR KATL 241352Z 20005KT 10SM CLR 28/24 A3013 RMK AO2 SLP192 T02830239=
201007241252 METAR KATL 241252Z 20005KT 10SM CLR 27/23 A3013 RMK AO2 SLP191 T02720233=
201007241152 METAR KATL 241152Z 18004KT 8SM FEW200 26/23 A3013 RMK AO2 SLP191 70124 T02610233 10278 20261 53015=
201007241052 METAR KATL 241052Z 19007KT 9SM FEW060 SCT200 26/23 A3011 RMK AO2 SLP184 T02610233=
201007240952 METAR KATL 240952Z 14005KT 10SM FEW060 27/23 A3010 RMK AO2 SLP180 T02670233=
201007240852 METAR KATL 240852Z 17003KT 10SM CLR 27/23 A3008 RMK AO2 SLP173 T02670233 56004=
201007240752 METAR KATL 240752Z 00000KT 10SM FEW070 27/23 A3008 RMK AO2 SLP174 T02720233=
201007240652 METAR KATL 240652Z 00000KT 10SM FEW070 27/23 A3009 RMK AO2 SLP176 T02720233=
201007240552 METAR KATL 240552Z 20003KT 10SM SCT070 27/23 A3010 RMK AO2 SLP178 T02720233 10283 20267 58003=
201007240452 METAR KATL 240452Z 00000KT 10SM BKN070 27/24 A3010 RMK AO2 SLP181 T02720239 403610250=
201007240352 METAR KATL 240352Z 00000KT 10SM FEW070 28/24 A3010 RMK AO2 SLP181 T02780239=
201007240252 METAR KATL 240252Z 00000KT 10SM FEW120 SCT200 28/24 A3011 RMK AO2 SLP182 T02780239 53016=
201007240152 METAR KATL 240152Z 00000KT 10SM FEW075 SCT110 SCT200 28/24 A3009 RMK AO2 SLP175 T02780244=
201007240052 METAR KATL 240052Z 00000KT 10SM FEW070 SCT110 SCT250 28/24 A3007 RMK AO2 SLP171 T02830244=
201007232352 METAR KATL 232352Z 23005KT 10SM FEW050 SCT150 BKN250 27/23 A3006 RMK AO2 PK WND 23045/2301 WSHFT 2242 TSE40RAE52 SLP167 TS DSIPTD P0109 60124 T02670228 10361 20250 50000=
201007232340 SPECI KATL 232340Z 23007KT 10SM -RA FEW050 SCT070 SCT150 BKN200 26/23 A3006 RMK AO2 PK WND 23045/2301 WSHFT 2242 TSE40 TS DSIPTD P0109=
201007232340 SPECI KATL 232340Z 23007KT 10SM -RA FEW050 SCT070 SCT150 BKN200 26/23 A3006 RMK AO2 PK WND 23045/2301 WSHFT 2242 TSE40 TS DSIPTD P0109=
201007232307 SPECI KATL 232307Z 24015G45KT 5SM R09R/1800VP6000FT +TSRA FEW050CB SCT090 BKN150 BKN200 26/21 A3007 RMK AO2 PK WND 23045/2301 WSHFT 2242 FRQ LTGCGIC SW-NW TS SW-NW MOV W P0097=
201007232307 SPECI KATL 232307Z 24015G45KT 5SM R09R/1800VP6000FT +TSRA FEW050CB SCT090 BKN150 BKN200 26/21 A3007 RMK AO2 PK WND 23045/2301 WSHFT 2242 FRQ LTGCGIC SW-NW TS SW-NW MOV W P0097=
201007232259 SPECI KATL 232259Z 29014G26KT 270V350 3SM R09R/1400V4000FT +TSRA FEW020 SCT055CB BKN090 OVC150 26/22 A3008 RMK AO2 PK WND 27026/2259 WSHFT 2242 FRQ LTGCGIC OHD-W TS OHD-W MOV W P0044=
201007232259 SPECI KATL 232259Z 29014G26KT 270V350 3SM R09R/1400V4000FT +TSRA FEW020 SCT055CB BKN090 OVC150 26/22 A3008 RMK AO2 PK WND 27026/2259 WSHFT 2242 FRQ LTGCGIC OHD-W TS OHD-W MOV W P0044=
201007232252 METAR KATL 232252Z 04016G39KT 3/4SM R09R/2600V6000FT +TSRA FEW020 BKN050CB OVC090 26/22 A3008 RMK AO2 PK WND 06039/2248 TSB24RAB31 SLP176 FRQ LTGCGIC OHD-ALQDS TS OHD-ALQDS MOV W P0015 T02610222=
201007232246 SPECI KATL 232246Z 08022KT 1 1/2SM R09R/4500VP6000FT +TSRA BKN055CB BKN090 BKN250 29/23 A3011 RMK AO2 PK WND 08026/2246 TSB24RAB31 PRESRR FRQ LTGCG OHD-E TS OHD-E MOV W P0002=
201007232246 SPECI KATL 232246Z 08022KT 1 1/2SM R09R/4500VP6000FT +TSRA BKN055CB BKN090 BKN250 29/23 A3011 RMK AO2 PK WND 08026/2246 TSB24RAB31 PRESRR FRQ LTGCG OHD-E TS OHD-E MOV W P0002=
201007232224 SPECI KATL 232224Z 20006KT 10SM TS BKN055CB BKN090 BKN250 33/23 A3005 RMK AO2 TSB24 OCNL LTGCG SE TS VC SE MOV STNRY CB NE MOV STNRY=
201007232224 SPECI KATL 232224Z 20006KT 10SM TS BKN055CB BKN090 BKN250 33/23 A3005 RMK AO2 TSB24 OCNL LTGCG SE TS VC SE MOV STNRY CB NE MOV STNRY=
201007232152 METAR KATL 232152Z VRB04KT 10SM BKN055TCU BKN090 BKN250 34/22 A3006 RMK AO2 SLP165 TCU N-OHD-S T03390217=
201007232052 METAR KATL 232052Z VRB04KT 10SM FEW060 BKN090 BKN200 35/22 A3006 RMK AO2 SLP167 CB DSNT NE-E & DSNT SW TCU DSNT S-SW T03500222 58016=
201007231952 SPECI KATL 231952Z 27003KT 10SM SCT065TCU 34/22 A3008 RMK AO2 SLP173 TCU S & NW T03390217=
201007231852 METAR KATL 231852Z 32009KT 10SM SCT060TCU SCT100 36/22 A3009 RMK AO2 SLP177 TCU DSNT N & OHD-S T03560217=
201007231752 METAR KATL 231752Z VRB03KT 10SM SCT055TCU 35/22 A3011 RMK AO2 SLP182 TCU E-SE-S T03500217 10350 20272 58009=
201007231652 METAR KATL 231652Z 35008G15KT 10SM FEW050 34/22 A3013 RMK AO2 SLP189 T03390222=
201007231552 METAR KATL 231552Z 01008KT 10SM FEW050 33/22 A3014 RMK AO2 SLP193 T03330217=
201007231452 METAR KATL 231452Z 03008KT 10SM FEW200 32/22 A3014 RMK AO2 SLP193 T03220222 50002=
201007231352 METAR KATL 231352Z 36006KT 10SM FEW200 31/23 A3014 RMK AO2 SLP194 T03110233=
201007231252 METAR KATL 231252Z 33005KT 10SM FEW250 29/23 A3014 RMK AO2 SLP192 T02940228=
201007231152 METAR KATL 231152Z 32005KT 8SM FEW250 27/24 A3013 RMK AO2 SLP191 T02720239 10272 20250 53017=
201007231052 METAR KATL 231052Z 00000KT 7SM SCT250 26/23 A3011 RMK AO2 SLP185 T02560233=
201007230952 METAR KATL 230952Z 29003KT 9SM CLR 26/24 A3010 RMK AO2 SLP180 T02610239=
201007230852 METAR KATL 230852Z 26003KT 9SM CLR 26/24 A3008 RMK AO2 SLP173 T02610239 55004=
201007230752 METAR KATL 230752Z 29003KT 9SM CLR 26/24 A3007 RMK AO2 SLP171 T02610239=
201007230652 METAR KATL 230652Z 26003KT 10SM CLR 26/24 A3008 RMK AO2 SLP174 T02610239=
201007230552 METAR KATL 230552Z 28003KT 10SM FEW250 27/23 A3009 RMK AO2 SLP177 T02720228 10311 20267 58002=
201007230452 METAR KATL 230452Z 00000KT 10SM BKN250 27/22 A3010 RMK AO2 SLP179 T02720217 403500233=
201007230352 METAR KATL 230352Z 23003KT 10SM BKN250 27/22 A3010 RMK AO2 SLP179 T02670217=
201007230252 METAR KATL 230252Z 24004KT 10SM FEW200 SCT250 27/22 A3010 RMK AO2 SLP181 T02670217 51006=
201007230152 METAR KATL 230152Z 17005KT 10SM FEW150 SCT200 28/22 A3010 RMK AO2 SLP180 T02780222=
201007230052 METAR KATL 230052Z 14007KT 10SM FEW100 BKN150 BKN200 29/22 A3009 RMK AO2 SLP178 T02890222=
201007222352 METAR KATL 222352Z 28004KT 10SM FEW150 BKN200 BKN250 31/23 A3008 RMK AO2 SLP175 CB DSNT SE T03110233 10350 20311 53003=
201007222252 METAR KATL 222252Z 27010KT 10SM FEW045 BKN200 BKN250 32/22 A3008 RMK AO2 SLP172 CB DSNT NE AND SE-S T03170222=
201007222152 METAR KATL 222152Z 27013KT 10SM FEW045 SCT200 SCT250 31/23 A3007 RMK AO2 SLP171 CB DSNT NE AND SE TCU DSNT SW T03110228=
201007222052 SPECI KATL 222052Z 35006KT 10SM FEW048TCU SCT200 BKN250 34/23 A3007 RMK AO2 SLP170 CB DSNT SE & DSNT W TCU NE & SE & NW T03390228 57023=
201007221952 METAR KATL 221952Z 30006KT 10SM FEW048TCU SCT200 BKN250 34/23 A3010 RMK AO2 SLP180 CB DSNT E & NW TCU NE & SE & NW T03440228=
201007221852 METAR KATL 221852Z VRB03KT 10SM FEW045 SCT200 BKN250 33/23 A3011 RMK AO2 SLP184 CB DSNT E & DSNT NW TCU DSNT N-NE-E T03330228=
201007221752 METAR KATL 221752Z 34007KT 10SM SCT044TCU SCT250 34/23 A3014 RMK AO2 SLP194 TCU N-NE-E-SE & NW T03390228 10339 20256 58010=
201007221652 METAR KATL 221652Z 31006KT 10SM SCT040TCU SCT250 33/23 A3016 RMK AO2 SLP199 TCU ALQDS T03280228=
201007221552 METAR KATL 221552Z VRB06KT 10SM FEW035 SCT250 32/23 A3017 RMK AO2 SLP205 T03220233=
201007221452 METAR KATL 221452Z 26003KT 10SM FEW250 31/23 A3017 RMK AO2 SLP205 T03060233 50008=
201007221352 METAR KATL 221352Z 31007KT 10SM CLR 29/23 A3018 RMK AO2 SLP206 T02890233=
201007221252 METAR KATL 221252Z 28007KT 10SM FEW250 28/23 A3017 RMK AO2 SLP204 T02780228=
201007221152 METAR KATL 221152Z 28004KT 10SM SCT250 26/23 A3015 RMK AO2 SLP199 T02560228 10256 20233 53009=
201007221052 METAR KATL 221052Z 31004KT 10SM SCT250 24/22 A3013 RMK AO2 SLP192 T02440222=
201007220952 METAR KATL 220952Z 28004KT 10SM CLR 24/22 A3012 RMK AO2 SLP190 T02390222=
201007220852 METAR KATL 220852Z 31005KT 10SM BKN200 24/22 A3012 RMK AO2 SLP188 T02440222 56009=
201007220752 METAR KATL 220752Z 29003KT 10SM SCT150 25/22 A3012 RMK AO2 SLP188 T02500222=
201007220652 METAR KATL 220652Z 00000KT 10SM CLR 26/22 A3012 RMK AO2 SLP187 T02560222=
201007220552 METAR KATL 220552Z 28003KT 10SM FEW100 SCT250 26/22 A3015 RMK AO2 SLP196 T02560222 10283 20250 52001=
201007220452 METAR KATL 220452Z 00000KT 10SM FEW100 SCT250 26/22 A3015 RMK AO2 SLP197 T02610217 403440250=
201007220352 METAR KATL 220352Z 20005KT 10SM FEW100 SCT250 25/22 A3015 RMK AO2 SLP196 T02500222=
201007220252 METAR KATL 220252Z 23003KT 10SM FEW070 SCT100 BKN250 26/22 A3014 RMK AO2 SLP196 T02610217 50002=
201007220152 METAR KATL 220152Z 24004KT 10SM FEW070 SCT150 BKN250 26/22 A3015 RMK AO2 SLP198 T02610217=
201007220052 METAR KATL 220052Z 30006KT 10SM FEW070 SCT150 BKN200 BKN250 27/22 A3015 RMK AO2 SLP199 T02670222=
201007212352 METAR KATL 212352Z 32007KT 10SM FEW110 SCT150 BKN200 BKN250 28/21 A3014 RMK AO2 SLP195 CB DSNT S AND NW 60000 T02830206 10344 20267 53000=
201007212252 METAR KATL 212252Z 29004KT 10SM FEW110 BKN200 BKN250 28/20 A3012 RMK AO2 RAE00 SLP189 CB DSNT NE AND SW P0000 T02830200=
201007212152 METAR KATL 212152Z 33008KT 10SM -RA FEW030 SCT150 SCT200 BKN250 28/19 A3013 RMK AO2 TSE22RAB22E30B52 SLP190 TS DSIPTD CB DSNT NE AND E P0000 T02780194=
201007212122 SPECI KATL 212122Z 32013KT 10SM -RA FEW030 SCT110 SCT200 BKN250 27/21 A3012 RMK AO2 TSE22RAB22 FRQ LTG DSNT NW TS DSIPTD P0000=
201007212122 SPECI KATL 212122Z 32013KT 10SM -RA FEW030 SCT110 SCT200 BKN250 27/21 A3012 RMK AO2 TSE22RAB22 FRQ LTG DSNT NW TS DSIPTD P0000=
201007212052 METAR KATL 212052Z 29009KT 10SM TS FEW030CB BKN100 BKN200 32/23 A3014 RMK AO2 TSB49 SLP194 FRQ LTGICCG W-NW TS W-NW MOV SE SHRA W-NW T03170233 56012=
201007212049 SPECI KATL 212049Z 29007KT 10SM TS FEW030CB BKN100 BKN200 31/23 A3014 RMK AO2 TSB49 FRQ LTGICCG W-NW TS W-NW MOV SE SHRA W-NW=
201007212049 SPECI KATL 212049Z 29007KT 10SM TS FEW030CB BKN100 BKN200 31/23 A3014 RMK AO2 TSB49 FRQ LTGICCG W-NW TS W-NW MOV SE SHRA W-NW=
201007212032 SPECI KATL 212032Z 31005KT 10SM FEW030 SCT120 SCT200 31/22 A3013 RMK AO2 CB DSNT E & DSNT W-NW SHRA DSNT W-NW=
201007212032 SPECI KATL 212032Z 31005KT 10SM FEW030 SCT120 SCT200 31/22 A3013 RMK AO2 CB DSNT E & DSNT W-NW SHRA DSNT W-NW=
201007212008 SPECI KATL 212008Z 30005KT 10SM FEW030CB SCT120 BKN200 30/22 A3014 RMK AO2 CB NW MOV SE TCU DSNT E SHRA NW=
201007212008 SPECI KATL 212008Z 30005KT 10SM FEW030CB SCT120 BKN200 30/22 A3014 RMK AO2 CB NW MOV SE TCU DSNT E SHRA NW=
201007211952 METAR KATL 211952Z 33009KT 10SM FEW040CB SCT120 BKN200 30/22 A3014 RMK AO2 WSHFT 1932 TSB05E37 SLP196 CB E & NW MOV SE SHRA E & NW T03000217=
201007211937 SPECI KATL 211937Z 33011KT 10SM FEW050CB SCT120 BKN200 33/22 A3015 RMK AO2 TSB05E37 CB NE & NW MOV SE SHRA NE & NW TCU DSNT NE-E-SE=
201007211937 SPECI KATL 211937Z 33011KT 10SM FEW050CB SCT120 BKN200 33/22 A3015 RMK AO2 TSB05E37 CB NE & NW MOV SE SHRA NE & NW TCU DSNT NE-E-SE=
201007211925 SPECI KATL 211925Z 26006KT 10SM TS FEW050CB SCT120 SCT200 34/22 A3015 RMK AO2 TSB05 OCNL LTGICCG NW-N TS NW-N MOV SE CB DSNT SW TCU DSNT NE-E-SE SHRA NW-N=
201007211925 SPECI KATL 211925Z 26006KT 10SM TS FEW050CB SCT120 SCT200 34/22 A3015 RMK AO2 TSB05 OCNL LTGICCG NW-N TS NW-N MOV SE CB DSNT SW TCU DSNT NE-E-SE SHRA NW-N=
201007211905 SPECI KATL 211905Z 24010KT 10SM TS FEW045CB SCT120 SCT200 33/21 A3015 RMK AO2 TSB05 OCNL LTGICCG NW TS NW MOV SE=
201007211905 SPECI KATL 211905Z 24010KT 10SM TS FEW045CB SCT120 SCT200 33/21 A3015 RMK AO2 TSB05 OCNL LTGICCG NW TS NW MOV SE=
201007211852 METAR KATL 211852Z 25008KT 10SM FEW050CB SCT120 SCT200 34/23 A3016 RMK AO2 SLP199 CB SW & NW MOV E TCU DSNT NE SHRA SW & NW T03390228=
201007211817 SPECI KATL 211817Z 27004KT 10SM FEW045CB SCT120 SCT200 33/22 A3016 RMK AO2 CB N & SW MOV E SHRA N & SW=
201007211817 SPECI KATL 211817Z 27004KT 10SM FEW045CB SCT120 SCT200 33/22 A3016 RMK AO2 CB N & SW MOV E SHRA N & SW=
201007211752 METAR KATL 211752Z 28007KT 10SM FEW045TCU SCT120 SCT200 33/22 A3017 RMK AO2 SLP205 CB DSNT E & SW & NW TCU S T03330222 10333 20261 58009=
201007211652 METAR KATL 211652Z 27007KT 250V310 10SM SCT042 32/23 A3019 RMK AO2 SLP209 TCU DSNT N-NE T03170228=
201007211552 METAR KATL 211552Z 28007KT 10SM FEW040 SCT200 32/23 A3020 RMK AO2 SLP214 TCU DSNT N-NE-E & DSNT NW T03220233=
201007211452 METAR KATL 211452Z VRB04KT 10SM FEW150 SCT200 31/23 A3020 RMK AO2 SLP215 T03110233 51003=
201007211352 METAR KATL 211352Z 29006KT 10SM FEW150 30/23 A3020 RMK AO2 SLP214 T03000233=
201007211252 METAR KATL 211252Z 22004KT 10SM FEW150 SCT250 28/23 A3019 RMK AO2 SLP213 T02780228=
201007211152 METAR KATL 211152Z 30004KT 10SM FEW050 SCT150 SCT250 26/23 A3019 RMK AO2 SLP212 60000 70001 T02610228 10272 20250 53012=
201007211052 METAR KATL 211052Z 27004KT 10SM FEW050 SCT150 SCT250 25/22 A3017 RMK AO2 SLP206 T02500222=
201007210952 METAR KATL 210952Z 25004KT 10SM FEW120 26/22 A3015 RMK AO2 SLP199 T02560222=
201007210852 METAR KATL 210852Z 23005KT 10SM FEW120 25/22 A3016 RMK AO2 SLP200 60000 T02500222 53001=
201007210752 METAR KATL 210752Z 00000KT 10SM SCT120 26/22 A3015 RMK AO2 RAE32 SLP198 P0000 T02560222=
201007210652 METAR KATL 210652Z 21005KT 10SM -RA BKN060 BKN075 BKN090 27/22 A3015 RMK AO2 RAB51 SLP199 P0000 T02670222=
201007210552 METAR KATL 210552Z COR 00000KT 10SM BKN060 27/22 A3015 RMK AO2 SLP198 T02720222 10306 20267 51006=
201007210452 METAR KATL 210452Z 00000KT 10SM BKN060 28/22 A3015 RMK AO2 SLP198 T02780217 403280239=
201007210352 METAR KATL 210352Z 00000KT 10SM FEW100 27/22 A3014 RMK AO2 SLP195 T02720222=
201007210252 METAR KATL 210252Z 00000KT 10SM FEW200 28/21 A3014 RMK AO2 SLP192 T02780211 51004=
201007210152 METAR KATL 210152Z 17004KT 10SM FEW200 29/22 A3013 RMK AO2 SLP192 T02890217=
201007210052 METAR KATL 210052Z 22003KT 10SM FEW200 29/21 A3013 RMK AO2 SLP192 T02940211=
201007202352 METAR KATL 202352Z 28005KT 10SM FEW150 31/21 A3012 RMK AO2 SLP189 60001 T03060211 10328 20283 55005=
201007202252 METAR KATL 202252Z 26006KT 10SM FEW150 32/21 A3011 RMK AO2 SLP184 T03170206=
201007202152 METAR KATL 202152Z 25008KT 10SM FEW045 32/21 A3013 RMK AO2 SLP190 T03220206=
201007202052 METAR KATL 202052Z 29008KT 10SM FEW040 SCT100 SCT200 32/23 A3014 RMK AO2 SLP194 CB DSNT NE-E TCU DSNT S 60001 T03170228 58013=
201007201952 METAR KATL 201952Z 31005KT 10SM FEW030 SCT100 SCT200 32/23 A3015 RMK AO2 TSE17RAB02E22 SLP198 CB DSNT E & SW & NW TCU DSNT N-NE & S SHRA DSNT E P0001 T03170228=
201007201917 SPECI KATL 201917Z 33011KT 9SM -RA SCT024CB BKN070 BKN080 31/24 A3017 RMK AO2 TSE17RAB02 CB N & SE MOV NE P0001=
201007201917 SPECI KATL 201917Z 33011KT 9SM -RA SCT024CB BKN070 BKN080 31/24 A3017 RMK AO2 TSE17RAB02 CB N & SE MOV NE P0001=
201007201908 SPECI KATL 201908Z 28011KT 9SM TSRA FEW024CB BKN080 BKN200 28/22 A3017 RMK AO2 RAB02 OCNL LTGICCG N TS N MOV NE P0001=
201007201908 SPECI KATL 201908Z 28011KT 9SM TSRA FEW024CB BKN080 BKN200 28/22 A3017 RMK AO2 RAB02 OCNL LTGICCG N TS N MOV NE P0001=
201007201852 METAR KATL 201852Z 29013G16KT 10SM TS FEW050CB BKN085 BKN200 31/22 A3017 RMK AO2 TSB45 SLP204 OCNL LTGICCG NW TS NW MOV NE SHRA NW T03060217=
201007201846 SPECI KATL 201846Z 28011G14KT 10SM TS FEW050CB BKN085 BKN200 32/22 A3017 RMK AO2 TSB45 OCNL LTGICCG NW TS NW MOV NE SHRA NW=
201007201846 SPECI KATL 201846Z 28011G14KT 10SM TS FEW050CB BKN085 BKN200 32/22 A3017 RMK AO2 TSB45 OCNL LTGICCG NW TS NW MOV NE SHRA NW=
201007201752 METAR KATL 201752Z 20006KT 10SM FEW050TCU BKN065 32/21 A3018 RMK AO2 SLP207 CB DSNT NE & DSNT W TCU E & NW T03170206 10328 20256 58000=
201007201652 METAR KATL 201652Z 24006KT 10SM BKN043TCU 31/22 A3018 RMK AO2 SLP208 TCU NE-SW & NW SHRA SE & NW T03110217=
201007201552 METAR KATL 201552Z 27008KT 10SM SCT040TCU 32/23 A3018 RMK AO2 SLP207 TCU E & S T03170228=
201007201452 METAR KATL 201452Z 22007KT 10SM FEW035 31/22 A3018 RMK AO2 SLP208 T03060217 51016=
201007201352 METAR KATL 201352Z 24008KT 10SM CLR 29/22 A3017 RMK AO2 SLP204 T02940217=
201007201252 METAR KATL 201252Z 25007KT 10SM CLR 28/21 A3015 RMK AO2 SLP199 T02780211=
201007201152 METAR KATL 201152Z 25004KT 10SM CLR 26/21 A3013 RMK AO2 SLP192 T02560211 10256 20239 51010=
201007201052 METAR KATL 201052Z 24004KT 10SM FEW250 24/21 A3012 RMK AO2 SLP187 T02390211=
201007200952 METAR KATL 200952Z 22005KT 10SM CLR 24/21 A3012 RMK AO2 SLP186 T02390211=
201007200852 METAR KATL 200852Z 00000KT 10SM FEW150 24/21 A3010 RMK AO2 SLP181 T02440211 55001=
201007200752 METAR KATL 200752Z 23003KT 10SM CLR 24/21 A3009 RMK AO2 SLP176 T02440211=
201007200652 METAR KATL 200652Z 22003KT 10SM CLR 24/22 A3009 RMK AO2 SLP178 T02440217=
201007200552 METAR KATL 200552Z 22004KT 10SM CLR 26/22 A3010 RMK AO2 SLP182 T02560217 10306 20256 51001=
201007200452 METAR KATL 200452Z 00000KT 10SM CLR 27/22 A3010 RMK AO2 SLP182 T02670217 403220217=
201007200352 METAR KATL 200352Z 00000KT 10SM CLR 27/22 A3011 RMK AO2 SLP185 T02720217=
201007200252 METAR KATL 200252Z 00000KT 10SM CLR 27/22 A3010 RMK AO2 SLP181 T02720217 51015=
201007200152 METAR KATL 200152Z 00000KT 10SM CLR 28/22 A3009 RMK AO2 SLP177 T02830217=
201007200052 METAR KATL 200052Z 22005KT 10SM FEW045 29/22 A3008 RMK AO2 SLP174 T02890217=
201007192352 METAR KATL 192352Z 24005KT 10SM FEW045 31/21 A3005 RMK AO2 SLP166 T03060206 10322 20306 56004=
201007192252 METAR KATL 192252Z 26009KT 10SM FEW045 31/21 A3006 RMK AO2 SLP167 T03110206=
201007192152 METAR KATL 192152Z 22009KT 10SM SCT045 31/21 A3006 RMK AO2 SLP169 T03110206=
201007192052 METAR KATL 192052Z 23010KT 10SM SCT045 32/21 A3007 RMK AO2 SLP171 T03170211 58011=
201007191952 SPECI KATL 191952Z 22008KT 10SM BKN045 32/22 A3008 RMK AO2 SLP174 T03170222=
201007191852 METAR KATL 191852Z 22010KT 10SM SCT045 32/21 A3009 RMK AO2 SLP179 T03170211=
201007191752 METAR KATL 191752Z 24008KT 10SM SCT038 SCT250 31/21 A3010 RMK AO2 SLP182 T03060211 10311 20228 58012=
201007191652 METAR KATL 191652Z 25009KT 10SM FEW030 SCT085 SCT250 30/21 A3012 RMK AO2 SLP189 T03000211=
201007191552 METAR KATL 191552Z 30007KT 10SM FEW030 SCT250 29/22 A3013 RMK AO2 SLP193 T02940222=
201007191452 METAR KATL 191452Z 28008G14KT 10SM FEW023 SCT085 SCT250 28/22 A3014 RMK AO2 SLP195 T02780217 58002=
201007191352 METAR KATL 191352Z 29007KT 10SM FEW020 SCT110 SCT250 26/22 A3015 RMK AO2 SLP198 T02610217=
201007191252 METAR KATL 191252Z 27004KT 10SM FEW006 SCT110 SCT250 24/22 A3015 RMK AO2 SLP199 T02390217=
201007191152 METAR KATL 191152Z 28004KT 10SM FEW006 BKN100 23/22 A3014 RMK AO2 SLP197 70085 T02280217 10228 20217 53020=
201007191052 METAR KATL 191052Z 24005KT 10SM FEW020 SCT150 22/21 A3012 RMK AO2 SLP189 T02170206=
201007190952 METAR KATL 190952Z 26003KT 10SM FEW090 SCT200 22/21 A3010 RMK AO2 SLP185 T02170211=
201007190852 METAR KATL 190852Z 22004KT 10SM FEW120 22/21 A3008 RMK AO2 SLP178 T02170211 53002=
201007190752 METAR KATL 190752Z 24005KT 10SM CLR 22/21 A3008 RMK AO2 SLP174 T02220211=
201007190652 METAR KATL 190652Z 21003KT 10SM CLR 22/21 A3008 RMK AO2 SLP174 T02220211=
201007190552 METAR KATL 190552Z 23003KT 10SM FEW110 SCT150 22/21 A3008 RMK AO2 SLP176 60054 T02220211 10267 20222 58010=
201007190452 METAR KATL 190452Z COR 22003KT 10SM FEW150 SCT200 22/21 A3009 RMK AO2 SLP180 T02220211 402830222=
201007190352 METAR KATL 190352Z 22004KT 10SM FEW110 SCT150 SCT200 23/21 A3011 RMK AO2 SLP184 T02280211=
201007190252 METAR KATL 190252Z 21004KT 10SM FEW034 SCT110 SCT250 23/21 A3011 RMK AO2 SLP186 60054 T02280211 50007=
201007190152 METAR KATL 190152Z 20004KT 10SM FEW080 BKN120 BKN250 24/21 A3011 RMK AO2 TSE23RAE23 SLP186 TS MOV NE P0001 T02390206=
201007190123 SPECI KATL 190123Z 00000KT 10SM FEW022 SCT070 BKN100 BKN250 24/22 A3010 RMK AO2 TSE23RAE23 OCNL LTGIC DSNT NE TS MOV NE CB DSNT NE P0001=
201007190123 SPECI KATL 190123Z 00000KT 10SM FEW022 SCT070 BKN100 BKN250 24/22 A3010 RMK AO2 TSE23RAE23 OCNL LTGIC DSNT NE TS MOV NE CB DSNT NE P0001=
201007190052 METAR KATL 190052Z 25006KT 7SM -TSRA FEW012 SCT022CB BKN080 BKN250 24/22 A3010 RMK AO2 PK WND 21031/0031 TSB34RAB27 SLP182 OCNL LTGIC N TS N MOV NE P0053 T02390217=
201007190047 SPECI KATL 190047Z 26005G15KT 5SM +TSRA BR SCT012 SCT022CB BKN080 BKN250 24/22 A3010 RMK AO2 PK WND 21031/0031 TSB34RAB27 OCNL LTGIC OHD TS OHD MOV NE P0052=
201007190047 SPECI KATL 190047Z 26005G15KT 5SM +TSRA BR SCT012 SCT022CB BKN080 BKN250 24/22 A3010 RMK AO2 PK WND 21031/0031 TSB34RAB27 OCNL LTGIC OHD TS OHD MOV NE P0052=
201007190043 SPECI KATL 190043Z 25009G27KT 1 1/2SM R09R/2800VP6000FT +TSRA BKN007 BKN020CB BKN120 OVC250 24/21 A3010 RMK AO2 PK WND 21031/0031 TSB34RAB27 OCNL LTGIC OHD TS OHD MOV NE P0048=
201007190043 SPECI KATL 190043Z 25009G27KT 1 1/2SM R09R/2800VP6000FT +TSRA BKN007 BKN020CB BKN120 OVC250 24/21 A3010 RMK AO2 PK WND 21031/0031 TSB34RAB27 OCNL LTGIC OHD TS OHD MOV NE P0048=
201007190037 SPECI KATL 190037Z VRB06G31KT 2SM R09R/2000VP6000FT +TSRA BKN020CB BKN037 BKN060 BKN250 24/21 A3009 RMK AO2 PK WND 21031/0031 TSB34RAB27 OCNL LTGIC OHD-SW TS OHD-SW MOV NE P0037=
201007190037 SPECI KATL 190037Z VRB06G31KT 2SM R09R/2000VP6000FT +TSRA BKN020CB BKN037 BKN060 BKN250 24/21 A3009 RMK AO2 PK WND 21031/0031 TSB34RAB27 OCNL LTGIC OHD-SW TS OHD-SW MOV NE P0037=
201007190029 SPECI KATL 190029Z 21023G30KT 1 3/4SM R09R/4500VP6000FT -RA SCT014 BKN029 BKN060 26/23 A3009 RMK AO2 PK WND 22030/0029 RAB27 P0000=
201007190029 SPECI KATL 190029Z 21023G30KT 1 3/4SM R09R/4500VP6000FT -RA SCT014 BKN029 BKN060 26/23 A3009 RMK AO2 PK WND 22030/0029 RAB27 P0000=
201007182352 METAR KATL 182352Z 27004KT 10SM FEW025 SCT080 BKN120 BKN250 27/23 A3009 RMK AO2 SLP178 CB DSNT SW 60000 T02670233 10283 20250 55001=
201007182252 METAR KATL 182252Z 19005KT 10SM FEW025 SCT070 BKN150 BKN250 28/23 A3007 RMK AO2 SLP171 CB DSNT W-NW T02780228=
201007182152 METAR KATL 182152Z 18006KT 10SM FEW070 SCT150 BKN200 27/22 A3007 RMK AO2 TSE00RAB2056E13 SLP171 TS DSIPT CB DSNT W & NW P0000 T02720222=
201007182100 SPECI KATL 182100Z 19006KT 10SM FEW025 SCT070 BKN120 BKN200 27/23 A3009 RMK AO2 TSE00RAB2056E00 TS DSIPT CB DSNT NW SHRA N & SW P0000=
201007182100 SPECI KATL 182100Z 19006KT 10SM FEW025 SCT070 BKN120 BKN200 27/23 A3009 RMK AO2 TSE00RAB2056E00 TS DSIPT CB DSNT NW SHRA N & SW P0000=
201007182052 METAR KATL 182052Z 21007KT 8SM TS FEW015 SCT025CB BKN070 BKN130 BKN200 26/23 A3009 RMK AO2 TSB25RAB29E48 SLP180 FRQ LTGIC N & SW TS VC N & SW MOV NE SHRA N & SW P0000 60000 T02610228 58009=
201007182025 SPECI KATL 182025Z 20007KT 10SM TS SCT015 BKN025CB BKN045 BKN150 27/22 A3010 RMK AO2 TSB25 FRQ LTGICCG SW-NW TS SW-NW MOV NE CB SW-NW MOV NE=
201007182025 SPECI KATL 182025Z 20007KT 10SM TS SCT015 BKN025CB BKN045 BKN150 27/22 A3010 RMK AO2 TSB25 FRQ LTGICCG SW-NW TS SW-NW MOV NE CB SW-NW MOV NE=
201007181952 METAR KATL 181952Z 19008KT 10SM FEW015 SCT025CB BKN045 BKN150 27/23 A3010 RMK AO2 SLP183 CB SW MOV NE CB DSNT SW-NW T02720228=
201007181852 METAR KATL 181852Z 19004KT 10SM FEW015 SCT020 BKN035 BKN150 28/23 A3012 RMK AO2 TSE21RAE21 SLP187 CB DSNT NE-SE-SW P0000 T02780233=
201007181822 SPECI KATL 181822Z 22005KT 8SM FEW011 SCT020 BKN035 BKN150 27/23 A3012 RMK AO2 TSE21RAE21 OCNL LTGIC DSNT NE & E CB DSNT NE-SE & SW P0000 $=
201007181822 SPECI KATL 181822Z 22005KT 8SM FEW011 SCT020 BKN035 BKN150 27/23 A3012 RMK AO2 TSE21RAE21 OCNL LTGIC DSNT NE & E CB DSNT NE-SE & SW P0000 $=
201007181752 METAR KATL 181752Z 28005KT 7SM -TSRA SCT011 BKN020CB BKN047 BKN150 25/23 A3012 RMK AO2 TSB06 SLP189 OCNL LTGIC N-NE & S TS N-NE & S MOV NE CB N-NE-SE-S MOV NE P0028 60030 T02500228 10283 20239 58009=
201007181728 SPECI KATL 181728Z 31006KT 2SM -TSRA BR BKN011 BKN020CB OVC047 24/23 A3013 RMK AO2 TSB06 OCNL LTGIC NW-N TS NW-N MOV NE CB OHD-ALQDS MOV NE P0027=
201007181728 SPECI KATL 181728Z 31006KT 2SM -TSRA BR BKN011 BKN020CB OVC047 24/23 A3013 RMK AO2 TSB06 OCNL LTGIC NW-N TS NW-N MOV NE CB OHD-ALQDS MOV NE P0027=
201007181711 SPECI KATL 181711Z 32008KT 1SM R09R/3000VP6000FT +TSRA BR FEW007 BKN026CB BKN034 BKN150 24/23 A3014 RMK AO2 TSB06 FRQ LTGIC W-N TS W-N MOV NE CB SW-N MOV NE P0021=
201007181711 SPECI KATL 181711Z 32008KT 1SM R09R/3000VP6000FT +TSRA BR FEW007 BKN026CB BKN034 BKN150 24/23 A3014 RMK AO2 TSB06 FRQ LTGIC W-N TS W-N MOV NE CB SW-N MOV NE P0021=
201007181705 SPECI KATL 181705Z 29008KT 2SM R09R/3500VP6000FT +RA BR FEW007 BKN026CB BKN034 BKN150 24/22 A3014 RMK AO2 FRQ LTGIC W-N TS W-N MOV NE CB SW-N MOV NE P0012=
201007181705 SPECI KATL 181705Z 29008KT 2SM R09R/3500VP6000FT +RA BR FEW007 BKN026CB BKN034 BKN150 24/22 A3014 RMK AO2 FRQ LTGIC W-N TS W-N MOV NE CB SW-N MOV NE P0012=
201007181652 METAR KATL 181652Z 30005KT 4SM -RA BKN018CB BKN023 BKN150 26/22 A3013 RMK AO2 RAB23 SLP194 CB S-SW-NW MOV NE P0002 T02560222=
201007181640 SPECI KATL 181640Z 24005KT 5SM -RA BR BKN018CB BKN023 BKN150 26/23 A3013 RMK AO2 RAB23 CB S-SW-NW MOV NE VIS 1 1/2 SE-NW SHRA P0000=
201007181640 SPECI KATL 181640Z 24005KT 5SM -RA BR BKN018CB BKN023 BKN150 26/23 A3013 RMK AO2 RAB23 CB S-SW-NW MOV NE VIS 1 1/2 SE-NW SHRA P0000=
201007181552 METAR KATL 181552Z VRB05KT 7SM SCT012 BKN016 OVC023 27/23 A3015 RMK AO2 SLP200 CB DSNT SW & W T02720228=
201007181521 SPECI KATL 181521Z 22006KT 7SM SCT012 BKN021 BKN055 27/23 A3015 RMK AO2=
201007181521 SPECI KATL 181521Z 22006KT 7SM SCT012 BKN021 BKN055 27/23 A3015 RMK AO2=
201007181452 METAR KATL 181452Z 22007KT 7SM BKN012 OVC018 26/23 A3015 RMK AO2 SLP198 T02610233 52004=
201007181408 SPECI KATL 181408Z 23005KT 7SM BKN010 OVC014 26/23 A3015 RMK AO2=
201007181408 SPECI KATL 181408Z 23005KT 7SM BKN010 OVC014 26/23 A3015 RMK AO2=
201007181352 METAR KATL 181352Z 23005KT 7SM BKN008 BKN012 BKN095 26/23 A3014 RMK AO2 SLP197 T02560233=
201007181252 METAR KATL 181252Z 22004KT 10SM BKN008 OVC095 24/23 A3014 RMK AO2 SLP195 T02440228=
201007181152 METAR KATL 181152Z 21003KT 9SM BKN006 OVC095 24/23 A3013 RMK AO2 SLP194 60001 70007 T02390228 10244 20233 51004=
201007181059 SPECI KATL 181059Z 23003KT 10SM OVC006 24/23 A3014 RMK AO2 CIG 004V008=
201007181059 SPECI KATL 181059Z 23003KT 10SM OVC006 24/23 A3014 RMK AO2 CIG 004V008=
201007181052 METAR KATL 181052Z 22004KT 10SM SCT006 BKN120 BKN200 24/23 A3013 RMK AO2 SLP193 T02390228=
201007181017 SPECI KATL 181017Z 00000KT 10SM FEW006 SCT120 BKN200 24/22 A3013 RMK AO2=
201007181017 SPECI KATL 181017Z 00000KT 10SM FEW006 SCT120 BKN200 24/22 A3013 RMK AO2=
201007180952 METAR KATL 180952Z 00000KT 10SM FEW018 SCT110 SCT250 23/23 A3012 RMK AO2 RAE13 SLP190 P0001 T02330228=
201007180935 SPECI KATL 180935Z 00000KT 10SM SCT018 SCT095 BKN250 23/23 A3012 RMK AO2 RAE13 P0001=
201007180935 SPECI KATL 180935Z 00000KT 10SM SCT018 SCT095 BKN250 23/23 A3012 RMK AO2 RAE13 P0001=
201007180859 SPECI KATL 180859Z 21003KT 10SM -RA BKN018 OVC095 23/23 A3012 RMK AO2 P0001=
201007180859 SPECI KATL 180859Z 21003KT 10SM -RA BKN018 OVC095 23/23 A3012 RMK AO2 P0001=
201007180852 METAR KATL 180852Z 21004KT 10SM -RA SCT020 BKN100 BKN250 23/23 A3012 RMK AO2 RAB18 SLP189 P0000 60000 T02330228 53003=
201007180752 METAR KATL 180752Z 18003KT 10SM FEW080 SCT250 24/22 A3011 RMK AO2 SLP185 T02390222=
201007180652 METAR KATL 180652Z 21003KT 10SM FEW080 SCT150 BKN250 24/22 A3011 RMK AO2 SLP185 T02390222=
201007180552 METAR KATL 180552Z 17006KT 10SM FEW080 SCT150 BKN250 24/22 A3011 RMK AO2 SLP186 T02440222 10272 20239 58004=
201007180452 METAR KATL 180452Z 22003KT 10SM FEW080 SCT150 BKN220 24/22 A3013 RMK AO2 SLP191 T02440222 403060222=
201007180352 METAR KATL 180352Z 20008KT 10SM SCT080 BKN130 BKN250 25/22 A3013 RMK AO2 SLP192 FRQ LTGICCG DSNT SW-NW CB DSNT SW-NW T02500222=
201007180252 METAR KATL 180252Z 18006KT 10SM SCT130 BKN250 26/22 A3013 RMK AO2 SLP190 T02560222 53010=
201007180152 METAR KATL 180152Z 17006KT 10SM FEW028 SCT150 BKN250 27/22 A3012 RMK AO2 SLP187 T02670217=
201007180052 METAR KATL 180052Z COR 16004KT 10SM FEW028 SCT150 BKN250 27/21 A3010 RMK AO2 SLP182 T02670211=
201007172352 METAR KATL 172352Z COR 20003KT 10SM FEW035 SCT150 BKN250 27/21 A3009 RMK AO2 SLP180 60006 T02720206 10300 20256 56001=
201007172252 METAR KATL 172252Z 21003KT 10SM FEW028 SCT040 BKN150 OVC250 28/21 A3010 RMK AO2 SLP182 CB DSNT NE AND SW T02780206=
201007172152 METAR KATL 172152Z 30004KT 10SM FEW020 SCT035 BKN150 OVC250 28/23 A3009 RMK AO2 TSE25 SLP178 CB DSNT SE & SW T02830228=
201007172126 SPECI KATL 172126Z 25004KT 10SM SCT035 BKN095 BKN150 BKN250 29/22 A3009 RMK AO2 TSE25 CB DSNT N-NE & SE-SW SHRA S=
201007172126 SPECI KATL 172126Z 25004KT 10SM SCT035 BKN095 BKN150 BKN250 29/22 A3009 RMK AO2 TSE25 CB DSNT N-NE & SE-SW SHRA S=
201007172052 METAR KATL 172052Z COR 00000KT 9SM TS SCT034CB BKN080 BKN150 OVC250 29/22 A3010 RMK AO2 TSB25RAB23E32 SLP180 OCNL LTGIC N-NE & W-N TS N-NE & W-N MOV NE CB DSNT SE-SW SHRA N-NE & W-N SHRA P0000 60006 T02940217 5601=
201007172026 SPECI KATL 172026Z 34010G24KT 9SM -TSRA BKN036CB BKN080 BKN150 BKN250 26/22 A3011 RMK AO2 TSB25RAB23 FRQ LTGICCG W-N TS W-N MOV NE VIS LWR W-N SHRA P0000=
201007172026 SPECI KATL 172026Z 34010G24KT 9SM -TSRA BKN036CB BKN080 BKN150 BKN250 26/22 A3011 RMK AO2 TSB25RAB23 FRQ LTGICCG W-N TS W-N MOV NE VIS LWR W-N SHRA P0000=
201007171952 METAR KATL 171952Z COR 23004KT 10SM SCT030CB BKN110 BKN150 BKN250 29/21 A3010 RMK AO2 SLP183 CB SW-N MOV NE CB DSNT NE & SE-SW & NW SHRA W-NW T02940211=
201007171852 METAR KATL 171852Z 20005KT 10SM SCT021 SCT039 BKN070 BKN150 28/21 A3012 RMK AO2 RAB05E41 SLP189 CB DSNT W-N P0006 T02830206=
201007171806 SPECI KATL 171806Z 22009KT 10SM -RA SCT037CB SCT050TCU BKN150 BKN250 29/21 A3013 RMK AO2 RAB05 CB SW MOV NE TCU OHD-SW CB DSNT W-N P0000=
201007171806 SPECI KATL 171806Z 22009KT 10SM -RA SCT037CB SCT050TCU BKN150 BKN250 29/21 A3013 RMK AO2 RAB05 CB SW MOV NE TCU OHD-SW CB DSNT W-N P0000=
201007171752 METAR KATL 171752Z 22007KT 10SM SCT037 BKN150 BKN250 30/21 A3014 RMK AO2 SLP195 CB DSNT SW & NW-N T03000211 10306 20233 58011=
201007171652 METAR KATL 171652Z 24008KT 10SM SCT033 BKN150 BKN250 29/21 A3014 RMK AO2 SLP197 CB DSNT SW & NW T02940206=
201007171552 METAR KATL 171552Z COR 24006KT 10SM SCT022 SCT028 BKN034 BKN150 29/22 A3017 RMK AO2 SLP204 T02890217=
201007171515 SPECI KATL 171515Z 27008KT 10SM SCT020 BKN036 BKN043 BKN150 OVC250 28/22 A3017 RMK AO2=
201007171515 SPECI KATL 171515Z 27008KT 10SM SCT020 BKN036 BKN043 BKN150 OVC250 28/22 A3017 RMK AO2=
201007171452 METAR KATL 171452Z 24008KT 10SM SCT020 BKN024 BKN036 BKN150 27/22 A3017 RMK AO2 SLP206 T02670222 51008=
201007171444 SPECI KATL 171444Z 27007KT 10SM BKN020 BKN034 BKN150 27/22 A3017 RMK AO2=
201007171444 SPECI KATL 171444Z 27007KT 10SM BKN020 BKN034 BKN150 27/22 A3017 RMK AO2=
201007171352 METAR KATL 171352Z 24004KT 10SM SCT012 BKN080 BKN130 BKN200 27/23 A3017 RMK AO2 SLP206 T02670228=
201007171252 METAR KATL 171252Z 25004KT 10SM BKN010 BKN130 BKN200 24/22 A3017 RMK AO2 SLP206 T02440217=
201007171244 SPECI KATL 171244Z 24004KT 10SM BKN010 BKN130 BKN200 24/22 A3017 RMK AO2=
201007171244 SPECI KATL 171244Z 24004KT 10SM BKN010 BKN130 BKN200 24/22 A3017 RMK AO2=
201007171152 METAR KATL 171152Z 00000KT 10SM FEW005 SCT120 BKN200 23/22 A3015 RMK AO2 SLP197 T02330217 10239 20222 51016=
201007171052 METAR KATL 171052Z 22003KT 10SM SCT005 SCT120 BKN200 23/22 A3014 RMK AO2 SLP195 T02280217=
201007171013 SPECI KATL 171013Z 00000KT 10SM FEW004 SCT120 SCT200 22/21 A3013 RMK AO2=
201007171013 SPECI KATL 171013Z 00000KT 10SM FEW004 SCT120 SCT200 22/21 A3013 RMK AO2=
201007170952 METAR KATL 170952Z 20004KT 10SM FEW120 SCT200 23/22 A3011 RMK AO2 SLP187 T02280217=
201007170852 METAR KATL 170852Z 21004KT 10SM FEW120 SCT200 23/22 A3010 RMK AO2 SLP181 T02280217 55003=
201007170752 METAR KATL 170752Z 21003KT 10SM FEW120 BKN200 23/22 A3009 RMK AO2 SLP176 T02330217=
201007170652 METAR KATL 170652Z 20003KT 10SM FEW120 BKN200 23/22 A3010 RMK AO2 SLP182 T02330217=
201007170552 METAR KATL 170552Z 20004KT 10SM SCT120 BKN200 24/22 A3011 RMK AO2 SLP184 T02390217 10306 20239 58006=
201007170452 METAR KATL 170452Z 21005KT 10SM BKN120 OVC200 24/22 A3012 RMK AO2 SLP189 T02440217 403170239=
201007170352 METAR KATL 170352Z 27004KT 10SM FEW080 BKN130 OVC200 24/21 A3012 RMK AO2 SLP188 T02440211=
201007170252 METAR KATL 170252Z 23010KT 10SM FEW030 SCT075 BKN150 OVC200 25/21 A3013 RMK AO2 SLP191 T02500211 53024=
201007170152 METAR KATL 170152Z 22008KT 10SM SCT035 BKN055 BKN080 OVC200 27/21 A3011 RMK AO2 SLP183 FRQ LTG DSNT NE AND SW-NW T02720206=
201007170052 METAR KATL 170052Z 22013KT 10SM FEW035 SCT060 BKN150 BKN200 OVC250 28/20 A3007 RMK AO2 SLP171 FRQ LTG DSNT NE E-SE AND NW-N T02780200=
201007162352 METAR KATL 162352Z 21009KT 10SM FEW035 SCT060 BKN200 OVC250 31/22 A3005 RMK AO2 SLP165 CB DSNT SE TCU DSNT N-NE AND SW-W T03060222 10317 20306 53002=
201007162252 METAR KATL 162252Z 19006KT 10SM FEW035 SCT120 BKN200 BKN250 31/23 A3004 RMK AO2 SLP161 TCU DSNT SE T03110228=
201007162152 METAR KATL 162152Z 19010KT 10SM FEW035 SCT100 BKN250 32/22 A3003 RMK AO2 SLP158 CB DSNT NE TCU DSNT S-SW T03170222=
201007162052 METAR KATL 162052Z 19009KT 10SM FEW030 SCT100 BKN250 31/22 A3005 RMK AO2 SLP163 CB DSNT N T03060222 55013=
201007161952 METAR KATL 161952Z 20009KT 10SM FEW035TCU SCT120 BKN250 32/23 A3004 RMK AO2 SLP161 TCU N-NE T03170228=
201007161852 METAR KATL 161852Z 19009G16KT 10SM SCT035TCU SCT250 32/23 A3005 RMK AO2 SLP164 TCU SW-NW T03170233=
201007161752 METAR KATL 161752Z 21008KT 10SM SCT035TCU 31/23 A3009 RMK AO2 SLP176 TCU N-NE & SE-S T03060233 10311 20244 58005=
201007161652 METAR KATL 161652Z 22007KT 190V250 10SM SCT030 30/23 A3011 RMK AO2 SLP183 T03000228=
201007161607 SPECI KATL 161607Z 22007KT 10SM FEW020 BKN030 29/23 A3012 RMK AO2=
201007161607 SPECI KATL 161607Z 22007KT 10SM FEW020 BKN030 29/23 A3012 RMK AO2=
201007161552 METAR KATL 161552Z 21005KT 10SM BKN025 28/23 A3012 RMK AO2 SLP187 T02830228=
201007161452 METAR KATL 161452Z 18007KT 10SM FEW013 27/23 A3010 RMK AO2 SLP182 T02720228 51002=
201007161444 SPECI KATL 161444Z VRB05KT 10SM FEW013 27/23 A3010 RMK AO2=
201007161444 SPECI KATL 161444Z VRB05KT 10SM FEW013 27/23 A3010 RMK AO2=
201007161401 SPECI KATL 161401Z 21005KT 6SM HZ BKN010 26/23 A3010 RMK AO2=
201007161401 SPECI KATL 161401Z 21005KT 6SM HZ BKN010 26/23 A3010 RMK AO2=
201007161352 METAR KATL 161352Z 21006KT 6SM BR BKN008 25/23 A3010 RMK AO2 SLP183 T02500228=
201007161252 METAR KATL 161252Z 21007KT 6SM BR BKN006 24/23 A3010 RMK AO2 SLP181 T02440228=
201007161152 METAR KATL 161152Z 24006KT 7SM BKN006 24/23 A3010 RMK AO2 SLP180 T02440228 10261 20239 51016=
201007161052 METAR KATL 161052Z 23006KT 6SM BR BKN006 OVC010 24/23 A3009 RMK AO2 SLP176 T02390228=
201007161014 SPECI KATL 161014Z 21006KT 8SM BKN008 BKN100 24/22 A3008 RMK AO2 CIG 006V011=
201007161014 SPECI KATL 161014Z 21006KT 8SM BKN008 BKN100 24/22 A3008 RMK AO2 CIG 006V011=
201007160952 METAR KATL 160952Z 22005KT 9SM FEW090 BKN120 24/22 A3007 RMK AO2 SLP171 T02390222=
201007160852 METAR KATL 160852Z 27003KT 10SM FEW095 SCT120 25/22 A3005 RMK AO2 SLP163 T02500222 55001=
201007160752 METAR KATL 160752Z 00000KT 10SM SCT120 25/22 A3004 RMK AO2 SLP161 T02500222=
201007160652 METAR KATL 160652Z 23004KT 10SM FEW120 26/22 A3005 RMK AO2 SLP162 T02560222=
201007160552 METAR KATL 160552Z 22007KT 10SM FEW120 26/22 A3005 RMK AO2 SLP163 T02610222 10322 20261 56002=
201007160452 METAR KATL 160452Z 17005KT 10SM FEW120 27/23 A3005 RMK AO2 SLP163 T02670228 403440233=
201007160352 METAR KATL 160352Z 16004KT 10SM FEW120 28/23 A3006 RMK AO2 SLP165 T02780228=
201007160252 METAR KATL 160252Z 14005KT 10SM FEW070 SCT120 SCT250 29/23 A3006 RMK AO2 SLP165 T02890228 53012=
201007160152 METAR KATL 160152Z 16005KT 10SM FEW120 SCT250 29/22 A3005 RMK AO2 SLP162 T02890217=
201007160052 METAR KATL 160052Z 15005KT 10SM FEW120 SCT250 31/21 A3003 RMK AO2 SLP157 T03060211=
201007152352 METAR KATL 152352Z 13004KT 10SM FEW060 BKN140 BKN250 32/20 A3002 RMK AO2 SLP154 T03220200 10344 20322 53003=
201007152252 METAR KATL 152252Z 00000KT 10SM FEW060 SCT250 33/19 A3000 RMK AO2 SLP145 T03330189=
201007152152 METAR KATL 152152Z 11004KT 10SM FEW060 SCT200 32/19 A3000 RMK AO2 SLP146 T03220189=
201007152052 METAR KATL 152052Z 09008KT 10SM FEW060 SCT080 BKN100 33/21 A3001 RMK AO2 SLP151 T03280211 56016=
201007151952 METAR KATL 151952Z 27006KT 10SM FEW065 BKN080 34/19 A3002 RMK AO2 SLP152 T03440194=
201007151852 METAR KATL 151852Z VRB04KT 10SM FEW065 SCT080 33/17 A3004 RMK AO2 SLP159 CB DSNT NE TCU DSNT W T03330172=
201007151752 METAR KATL 151752Z 20006KT 10SM FEW060 SCT080 32/19 A3006 RMK AO2 SLP167 TCU DSNT NW T03220194 10328 20256 58007=
201007151652 METAR KATL 151652Z 00000KT 10SM FEW050 33/19 A3008 RMK AO2 SLP173 T03280194=
201007151552 METAR KATL 151552Z 00000KT 10SM FEW050 SCT200 32/19 A3009 RMK AO2 SLP175 T03170194=
201007151452 METAR KATL 151452Z 00000KT 10SM FEW030 SCT200 30/21 A3008 RMK AO2 SLP174 T03000211 50003=
201007151352 METAR KATL 151352Z 00000KT 10SM FEW200 28/22 A3008 RMK AO2 SLP176 T02830222=
201007151252 METAR KATL 151252Z 10004KT 10SM FEW250 27/22 A3008 RMK AO2 SLP175 T02670217=
201007151152 METAR KATL 151152Z 06005KT 10SM FEW250 26/21 A3008 RMK AO2 SLP172 T02560211 10267 20233 51007=
201007151052 METAR KATL 151052Z 34003KT 10SM FEW050 SCT250 24/21 A3007 RMK AO2 SLP171 T02440206=
201007150952 METAR KATL 150952Z 31003KT 10SM FEW250 23/21 A3006 RMK AO2 SLP168 T02330211=
201007150852 METAR KATL 150852Z 34004KT 10SM CLR 24/21 A3005 RMK AO2 SLP165 T02390211 53008=
201007150752 METAR KATL 150752Z 32004KT 10SM CLR 24/21 A3004 RMK AO2 SLP160 T02440211=
201007150652 METAR KATL 150652Z 00000KT 10SM CLR 26/21 A3003 RMK AO2 SLP156 T02560211=
201007150552 METAR KATL 150552Z 00000KT 10SM CLR 26/21 A3003 RMK AO2 SLP156 T02610206 10317 20256 56012=
201007150452 METAR KATL 150452Z 32004KT 10SM CLR 26/21 A3003 RMK AO2 SLP158 T02560211 403280222=
201007150352 METAR KATL 150352Z 32004KT 10SM CLR 27/20 A3005 RMK AO2 SLP164 T02720200=
201007150252 METAR KATL 150252Z 32004KT 10SM CLR 28/19 A3006 RMK AO2 SLP170 T02830194 50015=
201007150152 METAR KATL 150152Z 33004KT 10SM CLR 29/19 A3007 RMK AO2 SLP170 T02940189=
201007150052 METAR KATL 150052Z 33006KT 10SM CLR 30/19 A3004 RMK AO2 SLP161 T03000194=
201007142352 METAR KATL 142352Z 34007KT 10SM CLR 32/19 A3002 RMK AO2 SLP154 T03170189 10328 20311 55005=
201007142252 METAR KATL 142252Z 34010KT 10SM FEW050 32/19 A3001 RMK AO2 SLP152 T03220189=
201007142152 METAR KATL 142152Z 31008KT 10SM FEW050 33/19 A3002 RMK AO2 SLP155 T03280194=
201007142052 METAR KATL 142052Z 33011G15KT 10SM FEW050 33/21 A3003 RMK AO2 SLP158 T03280206 58014=
201007141952 METAR KATL 141952Z 35011KT 10SM SCT048 32/20 A3005 RMK AO2 SLP164 T03220200=
201007141852 METAR KATL 141852Z 34006KT 10SM SCT040 32/21 A3007 RMK AO2 SLP170 T03170211=
201007141752 METAR KATL 141752Z 32012KT 10SM FEW040 31/22 A3007 RMK AO2 SLP173 T03110217 10311 20228 58002=
201007141652 METAR KATL 141652Z 36008G15KT 10SM FEW030 30/22 A3009 RMK AO2 SLP178 T03000222=
201007141552 METAR KATL 141552Z 32008KT 10SM SCT020 28/23 A3009 RMK AO2 SLP180 T02830228 $=
201007141452 METAR KATL 141452Z 31006KT 8SM SCT010 26/23 A3008 RMK AO2 SLP176 T02610233 50006 $=
201007141352 METAR KATL 141352Z 32004KT 3SM BR BKN005 BKN010 25/23 A3008 RMK AO2 SFC VIS 5 SLP178 T02500228 $=
201007141310 SPECI KATL 141310Z 30004KT 3SM BR BKN005 OVC010 24/23 A3008 RMK AO2 SFC VIS 5=
201007141310 SPECI KATL 141310Z 30004KT 3SM BR BKN005 OVC010 24/23 A3008 RMK AO2 SFC VIS 5=
201007141252 METAR KATL 141252Z 30004KT 6SM BR BKN005 BKN010 24/23 A3008 RMK AO2 SLP176 T02390228=
201007141220 SPECI KATL 141220Z 30003KT 10SM FEW003 SCT016 23/22 A3007 RMK AO2=
201007141220 SPECI KATL 141220Z 30003KT 10SM FEW003 SCT016 23/22 A3007 RMK AO2=
201007141152 METAR KATL 141152Z 00000KT 2 1/2SM BR FEW003 BKN016 23/22 A3006 RMK AO2 SFC VIS 6 SLP171 70047 T02280222 10233 20222 53011=
201007141150 SPECI KATL 141150Z 00000KT 2 1/2SM BR FEW003 BKN016 23/22 A3006 RMK AO2 SFC VIS 6=
201007141150 SPECI KATL 141150Z 00000KT 2 1/2SM BR FEW003 BKN016 23/22 A3006 RMK AO2 SFC VIS 6=
201007141121 SPECI KATL 141121Z 27003KT 1 1/4SM R09R/4000VP6000FT BR SCT001 SCT005 22/22 A3006 RMK AO2=
201007141121 SPECI KATL 141121Z 27003KT 1 1/4SM R09R/4000VP6000FT BR SCT001 SCT005 22/22 A3006 RMK AO2=
201007141101 SPECI KATL 141101Z 00000KT 1/2SM R09R/2600VP6000FT FG SCT001 22/22 A3006 RMK AO2 TWR VIS 1 1/4=
201007141101 SPECI KATL 141101Z 00000KT 1/2SM R09R/2600VP6000FT FG SCT001 22/22 A3006 RMK AO2 TWR VIS 1 1/4=
201007141048 METAR KATL 141048Z 30003KT 1/2SM R09R/5000VP6000FT FG SCT001 SCT050 22/22 A3005=
201007141047 SPECI KATL 141047Z 30003KT 3/4SM R09R/5000VP6000FT BR SCT001 SCT050 22/22 A3005 RMK AO2 TWR VIS 2=
201007141047 SPECI KATL 141047Z 30003KT 3/4SM R09R/5000VP6000FT BR SCT001 SCT050 22/22 A3005 RMK AO2 TWR VIS 2=
201007141031 SPECI KATL 141031Z 00000KT 1 3/4SM BR FEW001 BKN009 22/22 A3005 RMK AO2 TWR VIS 2=
201007141031 SPECI KATL 141031Z 00000KT 1 3/4SM BR FEW001 BKN009 22/22 A3005 RMK AO2 TWR VIS 2=
201007140952 METAR KATL 140952Z 00000KT 6SM BR FEW003 SCT070 23/22 A3004 RMK AO2 SLP163 T02280222 $=
201007140852 METAR KATL 140852Z 00000KT 4SM BR BKN003 23/22 A3003 RMK AO2 SLP157 T02280222 51005 $=
201007140752 METAR KATL 140752Z 21003KT 2SM R09R/2000V4000FT BR FEW001 BKN003 BKN075 23/22 A3003 RMK AO2 SLP156 T02280222 $=
201007140725 SPECI KATL 140725Z 00000KT 2 1/2SM BR BKN003 BKN075 23/22 A3002 RMK AO2 $=
201007140725 SPECI KATL 140725Z 00000KT 2 1/2SM BR BKN003 BKN075 23/22 A3002 RMK AO2 $=
201007140702 SPECI KATL 140702Z 21003KT 7SM FEW003 SCT075 23/22 A3002 RMK AO2 $=
201007140702 SPECI KATL 140702Z 21003KT 7SM FEW003 SCT075 23/22 A3002 RMK AO2 $=
201007140652 METAR KATL 140652Z 21003KT 7SM FEW080 23/22 A3002 RMK AO2 SLP155 T02330222 $=
201007140552 METAR KATL 140552Z 00000KT 7SM FEW080 23/22 A3001 RMK AO2 SLP153 60022 T02330222 10256 20233 57004 $=
201007140452 METAR KATL 140452Z 14003KT 10SM FEW005 SCT200 23/23 A3002 RMK AO2 SLP153 T02330228 403280217 $=
201007140352 METAR KATL 140352Z 15004KT 10SM FEW004 BKN060 BKN080 BKN200 24/23 A3003 RMK AO2 TSE22RAE06 SLP157 TS MOV E P0006 T02390228 $=
201007140347 SPECI KATL 140347Z 15005KT 10SM FEW004 BKN060 BKN080 BKN200 24/23 A3003 RMK AO2 TSE22RAE06 TS MOV E P0006 $=
201007140347 SPECI KATL 140347Z 15005KT 10SM FEW004 BKN060 BKN080 BKN200 24/23 A3003 RMK AO2 TSE22RAE06 TS MOV E P0006 $=
201007140322 SPECI KATL 140322Z 17005KT 10SM FEW040 SCT070 BKN120 BKN200 24/23 A3002 RMK AO2 TSE22RAE06 TS MOV E P0006 $=
201007140322 SPECI KATL 140322Z 17005KT 10SM FEW040 SCT070 BKN120 BKN200 24/23 A3002 RMK AO2 TSE22RAE06 TS MOV E P0006 $=
201007140252 METAR KATL 140252Z 23007KT 6SM TSRA BR FEW008 BKN040CB OVC060 24/23 A3002 RMK AO2 TSE08B36RAB46 SLP156 OCNL LTGIC SE-SW TS SE-SW MOV E P0011 60016 T02390228 53018 $=
201007140237 SPECI KATL 140237Z 15003KT 10SM TS BKN045CB BKN060 BKN120 OVC200 24/22 A3001 RMK AO2 TSE08B36 OCNL LTGIC VC SW-NW TS VC SW-NW MOV E $=
201007140237 SPECI KATL 140237Z 15003KT 10SM TS BKN045CB BKN060 BKN120 OVC200 24/22 A3001 RMK AO2 TSE08B36 OCNL LTGIC VC SW-NW TS VC SW-NW MOV E $=
201007140208 SPECI KATL 140208Z 18003KT 10SM FEW008 SCT055 BKN120 OVC200 24/22 A3000 RMK AO2 TSE08 TS MOV E OCNL LTG DSNT NE-SE AND SW-W $=
201007140208 SPECI KATL 140208Z 18003KT 10SM FEW008 SCT055 BKN120 OVC200 24/22 A3000 RMK AO2 TSE08 TS MOV E OCNL LTG DSNT NE-SE AND SW-W $=
201007140152 METAR KATL 140152Z 00000KT 10SM TS FEW005 SCT040CB BKN060 OVC150 24/22 A2999 RMK AO2 TSB34RAB19E51 SLP146 OCNL LTGIC VC E-SE TS VC E-SE MOV E P0005 T02390222 $=
201007140134 SPECI KATL 140134Z 22006KT 4SM TSRA BR BKN040CB BKN060 OVC100 24/23 A3000 RMK AO2 TSB34RAB19 OCNL LTGIC S-SW TS S-SW MOV E P0003 $=
201007140134 SPECI KATL 140134Z 22006KT 4SM TSRA BR BKN040CB BKN060 OVC100 24/23 A3000 RMK AO2 TSB34RAB19 OCNL LTGIC S-SW TS S-SW MOV E P0003 $=
201007140052 METAR KATL 140052Z 14003KT 10SM FEW040 BKN100 BKN150 BKN250 25/23 A2998 RMK AO2 SLP143 CB DSNT SW-W T02500228 $=
201007132352 METAR KATL 132352Z 00000KT 10SM FEW045 BKN110 BKN150 BKN250 26/23 A2997 RMK AO2 SLP139 CB DSNT S-SW 60024 T02560228 10328 20233 51013 $=
201007132252 METAR KATL 132252Z 02005KT 10SM FEW040 SCT070 BKN150 BKN200 25/22 A2996 RMK AO2 TSE43RAE43 SLP135 TS MOV E CB DSNT SE AND SW P0023 T02500217 $=
201007132244 SPECI KATL 132244Z 00000KT 10SM FEW040 SCT120 BKN150 OVC200 24/22 A2996 RMK AO2 TSE43RAE43 TS MOV E P0023 $=
201007132244 SPECI KATL 132244Z 00000KT 10SM FEW040 SCT120 BKN150 OVC200 24/22 A2996 RMK AO2 TSE43RAE43 TS MOV E P0023 $=
201007132227 SPECI KATL 132227Z 35010KT 7SM -TSRA FEW005 SCT040CB BKN070 OVC200 24/22 A2996 RMK AO2 OCNL LTGICCG NE-SE TS NE-SE MOV E P0023 $=
201007132227 SPECI KATL 132227Z 35010KT 7SM -TSRA FEW005 SCT040CB BKN070 OVC200 24/22 A2996 RMK AO2 OCNL LTGICCG NE-SE TS NE-SE MOV E P0023 $=
201007132221 SPECI KATL 132221Z 36011G25KT 1 1/4SM R09R/2600VP6000FT +TSRA BR FEW005 BKN040CB OVC070 23/22 A2998 RMK AO2 OCNL LTGICCG NE-OHD-SW TS NE-OHD-SW MOV E P0010 $=
201007132221 SPECI KATL 132221Z 36011G25KT 1 1/4SM R09R/2600VP6000FT +TSRA BR FEW005 BKN040CB OVC070 23/22 A2998 RMK AO2 OCNL LTGICCG NE-OHD-SW TS NE-OHD-SW MOV E P0010 $=
201007132152 METAR KATL 132152Z 33014G20KT 5SM +TSRA FEW008 BKN040CB BKN070 OVC200 26/22 A2995 RMK AO2 PK WND 33027/2130 WSHFT 2127 TSB15RAB40 SLP134 VIS NE-E 2 FRQ LTGICCG E-OHD-W TS E-OHD-W MOV E P0001 T02560222 $=
201007132145 SPECI KATL 132145Z 35010G24KT 4SM TSRA BR FEW008 BKN040CB BKN070 OVC200 24/22 A2996 RMK AO2 PK WND 33027/2130 WSHFT 2127 TSB15RAB40 VIS NW-NE 1 FRQ LTGICCG NE-OHD-W TS NE-OHD-W MOV E P0000 $=
201007132145 SPECI KATL 132145Z 35010G24KT 4SM TSRA BR FEW008 BKN040CB BKN070 OVC200 24/22 A2996 RMK AO2 PK WND 33027/2130 WSHFT 2127 TSB15RAB40 VIS NW-NE 1 FRQ LTGICCG NE-OHD-W TS NE-OHD-W MOV E P0000 $=
201007132116 SPECI KATL 132116Z 20008KT 10SM TS SCT045CB BKN200 BKN250 32/21 A2993 RMK AO2 TSB15 OCNL LTGICCG VC NW TS VC NW MOV E $=
201007132116 SPECI KATL 132116Z 20008KT 10SM TS SCT045CB BKN200 BKN250 32/21 A2993 RMK AO2 TSB15 OCNL LTGICCG VC NW TS VC NW MOV E $=
201007132052 METAR KATL 132052Z 21011KT 10SM FEW045 SCT090 SCT200 BKN250 32/21 A2993 RMK AO2 SLP124 CB DSNT W-NW-N T03220211 56017=
201007131952 METAR KATL 131952Z 20009KT 10SM FEW045 SCT110 SCT250 32/21 A2994 RMK AO2 SLP128 T03220211=
201007131852 METAR KATL 131852Z 22007G14KT 10SM FEW040 BKN060 BKN250 31/22 A2996 RMK AO2 SLP134 T03110217=
201007131752 METAR KATL 131752Z 22007G14KT 180V270 10SM FEW040 SCT110 SCT250 31/22 A2998 RMK AO2 SLP141 TCU DSNT S & DSNT NW T03110217 10317 20228 58003=
201007131652 METAR KATL 131652Z 26010KT 10SM BKN035 BKN060 BKN250 31/22 A3000 RMK AO2 SLP147 TCU DSNT NW T03060222=
201007131552 METAR KATL 131552Z 29008KT 10SM FEW030 SCT040 SCT250 29/23 A2999 RMK AO2 SLP145 T02940228=
201007131452 METAR KATL 131452Z 24006KT 10SM FEW020 SCT110 BKN250 28/23 A2999 RMK AO2 SLP145 P0001 60001 T02830233 50008=
201007131352 METAR KATL 131352Z 24004KT 8SM FEW010 SCT250 26/23 A3000 RMK AO2 SLP147 T02610233=
201007131322 SPECI KATL 131322Z 23004KT 5SM BR FEW005 SCT250 24/23 A2999 RMK AO2=
201007131322 SPECI KATL 131322Z 23004KT 5SM BR FEW005 SCT250 24/23 A2999 RMK AO2=
201007131307 SPECI KATL 131307Z 23006KT 3SM BR FEW003 SCT250 24/23 A2999 RMK AO2 SFC VIS 5=
201007131307 SPECI KATL 131307Z 23006KT 3SM BR FEW003 SCT250 24/23 A2999 RMK AO2 SFC VIS 5=
201007131301 SPECI KATL 131301Z 25004KT 2SM BR FEW003 SCT250 24/23 A2999 RMK AO2 SFC VIS 5=
201007131301 SPECI KATL 131301Z 25004KT 2SM BR FEW003 SCT250 24/23 A2999 RMK AO2 SFC VIS 5=
201007131252 METAR KATL 131252Z 22006KT 2SM BR BKN003 BKN110 23/23 A2999 RMK AO2 SLP146 T02330228=
201007131238 SPECI KATL 131238Z 23006KT 2SM BR BKN003 BKN110 23/22 A2999 RMK AO2 SFC VIS 2 1/2=
201007131238 SPECI KATL 131238Z 23006KT 2SM BR BKN003 BKN110 23/22 A2999 RMK AO2 SFC VIS 2 1/2=
201007131228 SPECI KATL 131228Z 23006KT 2SM BR BKN005 BKN150 23/22 A2998 RMK AO2 SFC VIS 5=
201007131228 SPECI KATL 131228Z 23006KT 2SM BR BKN005 BKN150 23/22 A2998 RMK AO2 SFC VIS 5=
201007131223 SPECI KATL 131223Z 22007KT 6SM BR SCT005 BKN150 BKN250 23/22 A2998 RMK AO2=
201007131223 SPECI KATL 131223Z 22007KT 6SM BR SCT005 BKN150 BKN250 23/22 A2998 RMK AO2=
201007131152 METAR KATL 131152Z 22005KT 7SM FEW150 SCT250 23/22 A2997 RMK AO2 SLP139 60000 70116 T02280217 10228 20217 53016=
201007131052 METAR KATL 131052Z 19005KT 7SM SCT250 22/21 A2995 RMK AO2 SLP133 T02220211=
201007130952 METAR KATL 130952Z 00000KT 10SM FEW250 23/21 A2993 RMK AO2 SLP125 T02280211=
201007130852 METAR KATL 130852Z 26003KT 10SM FEW060 SCT180 22/21 A2992 RMK AO2 RAB43E47 SLP122 P0000 60000 T02220206 55003=
201007130752 METAR KATL 130752Z 00000KT 10SM FEW180 22/21 A2991 RMK AO2 SLP118 T02220211=
201007130652 METAR KATL 130652Z 22004KT 10SM FEW150 SCT250 22/21 A2990 RMK AO2 SLP116 T02220211=
201007130552 METAR KATL 130552Z 29008KT 10SM FEW080 SCT150 22/21 A2993 RMK AO2 RAE02 SLP123 P0000 60005 T02220211 10239 20222 58004=
201007130452 METAR KATL 130452Z 24003KT 9SM -RA FEW030 SCT080 BKN120 OVC150 23/22 A2994 RMK AO2 SLP126 P0003 T02280217 403220228=
201007130352 METAR KATL 130352Z 22005KT 7SM -RA FEW020 SCT040 BKN070 OVC150 23/22 A2995 RMK AO2 SLP130 OCNL LTG DSNT W P0000 T02330222=
201007130252 METAR KATL 130252Z 22004KT 9SM -RA FEW035 SCT080 BKN120 OVC150 23/22 A2994 RMK AO2 RAB47 SLP128 FRQ LTG DSNT SW P0000 60002 T02330222 51008=
201007130152 METAR KATL 130152Z 22006KT 10SM FEW006 SCT080 BKN120 OVC150 23/22 A2993 RMK AO2 RAE37 SLP123 FRQ LTG DSNT SW-W P0002 T02330222=
201007130052 METAR KATL 130052Z 00000KT 8SM -RA FEW020 SCT055 BKN110 BKN150 OVC200 23/22 A2993 RMK AO2 TSE07RAE2356B37 SLP126 TS MOV SE P0000 T02330217=
201007130007 SPECI KATL 130007Z 15008KT 9SM FEW006 SCT045 BKN070 OVC150 23/22 A2992 RMK AO2 TSE07RAE2356 TS MOV SE P0000=
201007130007 SPECI KATL 130007Z 15008KT 9SM FEW006 SCT045 BKN070 OVC150 23/22 A2992 RMK AO2 TSE07RAE2356 TS MOV SE P0000=
201007122352 METAR KATL 122352Z 12005KT 9SM -TSRA FEW010CB SCT045 BKN070 OVC150 24/23 A2992 RMK AO2 TSB00 SLP120 OCNL LTGICCG VC NE-SE TS VC NE-SE MOV SE P0076 60111 T02390228 10322 20228 53006=
201007122340 SPECI KATL 122340Z 00000KT 3SM -TSRA BR SCT012CB BKN030 BKN060 OVC150 23/22 A2991 RMK AO2 TSB00 OCNL LTGICCG NE-SE TS NE-SE MOV SE P0076=
201007122340 SPECI KATL 122340Z 00000KT 3SM -TSRA BR SCT012CB BKN030 BKN060 OVC150 23/22 A2991 RMK AO2 TSB00 OCNL LTGICCG NE-SE TS NE-SE MOV SE P0076=
201007122333 SPECI KATL 122333Z 15009KT 1 1/4SM R09R/2400V5500FT +TSRA BR BKN012CB BKN028 OVC065 23/22 A2991 RMK AO2 TSB00 OCNL LTGIC OHD-ALQDS TS OHD-ALQDS MOV SE P0050=
201007122333 SPECI KATL 122333Z 15009KT 1 1/4SM R09R/2400V5500FT +TSRA BR BKN012CB BKN028 OVC065 23/22 A2991 RMK AO2 TSB00 OCNL LTGIC OHD-ALQDS TS OHD-ALQDS MOV SE P0050=
201007122328 SPECI KATL 122328Z 25007G14KT 200V280 2SM +TSRA BKN012CB BKN028 OVC065 24/22 A2991 RMK AO2 TSB00 PRESRR OCNL LTGIC OHD-S TS OHD-S MOV SE P0016=
201007122328 SPECI KATL 122328Z 25007G14KT 200V280 2SM +TSRA BKN012CB BKN028 OVC065 24/22 A2991 RMK AO2 TSB00 PRESRR OCNL LTGIC OHD-S TS OHD-S MOV SE P0016=
201007122301 SPECI KATL 122301Z 15005KT 9SM -TSRA SCT012CB BKN030 BKN050 OVC150 26/23 A2988 RMK AO2 TSB00 OCNL LTGIC VC NW TS VC NW MOV SE P0000=
201007122301 SPECI KATL 122301Z 15005KT 9SM -TSRA SCT012CB BKN030 BKN050 OVC150 26/23 A2988 RMK AO2 TSB00 OCNL LTGIC VC NW TS VC NW MOV SE P0000=
201007122252 METAR KATL 122252Z 16005KT 10SM -RA BKN012 BKN030 BKN050 OVC150 26/23 A2989 RMK AO2 RAB45 SLP110 OCNL LTG DSNT SW AND NW P0000 T02560233=
201007122152 METAR KATL 122152Z 34004KT 10SM FEW100 BKN150 BKN200 28/22 A2986 RMK AO2 WSHFT 2039 TSE38RAE38 SLP101 TS MOV E P0018 T02780217=
201007122138 SPECI KATL 122138Z 02004KT 10SM FEW020 BKN150 BKN200 26/22 A2988 RMK AO2 WSHFT 2039 TSE38RAE38 FRQ LTG DSNT NE-E TS MOV E P0018=
201007122138 SPECI KATL 122138Z 02004KT 10SM FEW020 BKN150 BKN200 26/22 A2988 RMK AO2 WSHFT 2039 TSE38RAE38 FRQ LTG DSNT NE-E TS MOV E P0018=
201007122118 SPECI KATL 122118Z 35005KT 8SM -TSRA FEW010 SCT020CB BKN040 BKN150 24/22 A2989 RMK AO2 WSHFT 2039 FRQ LTGICCG VC NE-E TS VC NE-E MOV E P0017 $=
201007122118 SPECI KATL 122118Z 35005KT 8SM -TSRA FEW010 SCT020CB BKN040 BKN150 24/22 A2989 RMK AO2 WSHFT 2039 FRQ LTGICCG VC NE-E TS VC NE-E MOV E P0017 $=
201007122107 SPECI KATL 122107Z 00000KT 5SM R09R/5000VP6000FT -TSRA BR SCT013CB BKN025 OVC037 24/22 A2989 RMK AO2 WSHFT 2039 FRQ LTGICCG NE-E TS NE-E MOV E P0015 $=
201007122107 SPECI KATL 122107Z 00000KT 5SM R09R/5000VP6000FT -TSRA BR SCT013CB BKN025 OVC037 24/22 A2989 RMK AO2 WSHFT 2039 FRQ LTGICCG NE-E TS=
201007122059 SPECI KATL 122059Z 31011G24KT 1SM R09R/5000VP6000FT +TSRA BR BKN013CB BKN025 OVC050 24/23 A2990 RMK AO2 WSHFT 2039 SFC VIS 3 FRQ LTGICCG OHD TS OHD MOV E P0005 $=
201007122059 SPECI KATL 122059Z 31011G24KT 1SM R09R/5000VP6000FT +TSRA BR BKN013CB BKN025 OVC050 24/23 A2990 RMK AO2 WSHFT 2039 SFC VIS 3 FRQ LTGICCG OHD TS OHD MOV E P0005 $=
201007122052 SPECI KATL 122052Z 31018G24KT 1SM R09R/6000VP6000FT +TSRA BR BKN013CB BKN050 OVC080 26/24 A2990 RMK AO2 SFC VIS 3 TSB17RAB33 SLP114 FRQ LTGICCG OHD TS OHD MOV E P0015 60017 T02560239 53009=
201007122042 SPECI KATL 122042Z 29015G20KT 1/2SM R09R/P6000FT +TSRA BKN020CB BKN050 OVC080 27/24 A2989 RMK AO2 SFC VIS 1 TSB17RAB33 PRESRR FRQ LTGICCG OHD-W TS OHD-W MOV E P0005=
201007122042 SPECI KATL 122042Z 29015G20KT 1/2SM R09R/P6000FT +TSRA BKN020CB BKN050 OVC080 27/24 A2989 RMK AO2 SFC VIS 1 TSB17RAB33 PRESRR FRQ LTGICCG OHD-W TS OHD-W MOV E P0005=
201007122041 SPECI KATL 122041Z 29013G19KT 2SM TSRA BKN020CB BKN050 OVC080 27/24 A2989 RMK AO2 TWR VIS 4 TSB17RAB33 FRQ LTGICCG OHD-W TS OHD-W MOV E P0005=
201007122041 SPECI KATL 122041Z 29013G19KT 2SM TSRA BKN020CB BKN050 OVC080 27/24 A2989 RMK AO2 TWR VIS 4 TSB17RAB33 FRQ LTGICCG OHD-W TS OHD-W MOV E P0005=
201007122017 SPECI KATL 122017Z 24006KT 10SM TS FEW030CB BKN050 OVC080 29/23 A2986 RMK AO2 TSB17 FRQ LTGICCG W TS W MOV E SHRA W=
201007122017 SPECI KATL 122017Z 24006KT 10SM TS FEW030CB BKN050 OVC080 29/23 A2986 RMK AO2 TSB17 FRQ LTGICCG W TS W MOV E SHRA W=
201007121952 METAR KATL 121952Z VRB05KT 10SM FEW030 SCT080 BKN250 31/23 A2986 RMK AO2 RAE1854 SLP100 CB DSNT ALQDS P0000 T03060228=
201007121852 METAR KATL 121852Z 01006KT 10SM -RA FEW025 BKN040 BKN080 26/23 A2989 RMK AO2 PK WND 01029/1831 WSHFT 1826 TSB04E51RAB13 SLP109 FRQ LTG DSNT E TS MOV E CB DSNT E P0002 T02610228=
201007121837 SPECI KATL 121837Z 03016G29KT 6SM R09R/5500VP6000FT -TSRA BR BKN020CB BKN060 OVC080 24/22 A2991 RMK AO2 PK WND 01029/1831 TSB04RAB13 VIS LWR NE-E SHRA CONS LTGICCG NE-E TS NE-E MOV E P0002=
201007121837 SPECI KATL 121837Z 03016G29KT 6SM R09R/5500VP6000FT -TSRA BR BKN020CB BKN060 OVC080 24/22 A2991 RMK AO2 PK WND 01029/1831 TSB04RAB13 VIS LWR NE-E SHRA CONS LTGICCG NE-E TS NE-E MOV E P0002=
201007121833 SPECI KATL 121833Z 02019G29KT 2SM R09R/5500VP6000FT +TSRA BKN020CB BKN060 OVC080 25/22 A2990 RMK AO2 PK WND 01029/1831 TSB04RAB13 CONS LTGICCG OHD-NE-E TS OHD-NE-E MOV E P0002=
201007121833 SPECI KATL 121833Z 02019G29KT 2SM R09R/5500VP6000FT +TSRA BKN020CB BKN060 OVC080 25/22 A2990 RMK AO2 PK WND 01029/1831 TSB04RAB13 CONS LTGICCG OHD-NE-E TS OHD-NE-E MOV E P0002=
201007121829 SPECI KATL 121829Z 35018G27KT 2SM R09R/5500VP6000FT +TSRA BKN020CB BKN060 OVC080 26/23 A2991 RMK AO2 PK WND 32027/1827 SFC VIS 3 TSB04RAB13 PRESRR CONS LTGICCG OHD-N-NE-E TS OHD-N-NE-E MOV E P0002=
201007121829 SPECI KATL 121829Z 35018G27KT 2SM R09R/5500VP6000FT +TSRA BKN020CB BKN060 OVC080 26/23 A2991 RMK AO2 PK WND 32027/1827 SFC VIS 3 TSB04RAB13 PRESRR CONS LTGICCG OHD-N-NE-E TS OHD-N-NE-E MOV E P0002=
201007121824 SPECI KATL 121824Z 27007KT 6SM -TSRA BKN020CB BKN065 OVC200 27/23 A2990 RMK AO2 TSB04RAB13 PRESRR VIS LWR N-NE-E SHRA FRQ LTGICCG N-NE-E TS N-NE-E MOV E P0002=
201007121824 SPECI KATL 121824Z 27007KT 6SM -TSRA BKN020CB BKN065 OVC200 27/23 A2990 RMK AO2 TSB04RAB13 PRESRR VIS LWR N-NE-E SHRA FRQ LTGICCG N-NE-E TS N-NE-E MOV E P0002=
201007121815 SPECI KATL 121815Z 24009G24KT 3SM +TSRA BKN035CB BKN060 OVC200 28/24 A2988 RMK AO2 TSB04RAB13 FRQ LTGICCG OHD TS OHD MOV E P0001=
201007121815 SPECI KATL 121815Z 24009G24KT 3SM +TSRA BKN035CB BKN060 OVC200 28/24 A2988 RMK AO2 TSB04RAB13 FRQ LTGICCG OHD TS OHD MOV E P0001=
201007121804 SPECI KATL 121804Z 28010G15KT 10SM TS SCT035CB BKN080 BKN250 31/23 A2987 RMK AO2 TSB04 OCNL LTGICCG SW & NW TS VC SW & NW MOV E=
201007121804 SPECI KATL 121804Z 28010G15KT 10SM TS SCT035CB BKN080 BKN250 31/23 A2987 RMK AO2 TSB04 OCNL LTGICCG SW & NW TS VC SW & NW MOV E=
201007121752 METAR KATL 121752Z 28008G14KT 10SM FEW035TCU SCT080 BKN250 32/23 A2987 RMK AO2 SLP102 CB DSNT SW & DSNT NW TCU N T03220228 10322 20256 58015=
201007121652 METAR KATL 121652Z 28012G16KT 10SM FEW030TCU SCT150 BKN250 32/23 A2991 RMK AO2 SLP114 CB DSNT NE TCU N T03170233=
201007121552 METAR KATL 121552Z 26012KT 10SM FEW030TCU SCT150 BKN200 31/23 A2992 RMK AO2 SLP118 TCU N T03060228=
201007121452 METAR KATL 121452Z 27013G19KT 10SM FEW030 SCT150 BKN250 30/23 A2992 RMK AO2 SLP118 T03000228 51010=
201007121352 METAR KATL 121352Z 26009KT 10SM FEW050 SCT150 BKN250 29/23 A2991 RMK AO2 SLP114 T02890233=
201007121252 METAR KATL 121252Z 26007KT 10SM FEW050 BKN150 BKN250 27/23 A2990 RMK AO2 SLP114 T02670228=
201007121152 METAR KATL 121152Z 27005KT 10SM FEW070 BKN150 BKN250 26/22 A2988 RMK AO2 SLP107 60000 T02560222 10278 20244 50004=
201007121052 METAR KATL 121052Z 00000KT 9SM BKN150 BKN250 24/22 A2989 RMK AO2 SLP108 T02440222=
201007120952 METAR KATL 120952Z COR 21003KT 10SM SCT250 25/22 A2988 RMK AO2 SLP104 T02500222=
201007120852 METAR KATL 120852Z 30006KT 10SM BKN110 25/22 A2987 RMK AO2 RAB19E42 SLP102 P0000 60000 T02500222 58007=
201007120752 METAR KATL 120752Z 22004KT 8SM SCT050 SCT100 26/23 A2988 RMK AO2 SLP104 T02610228=
201007120652 METAR KATL 120652Z 00000KT 10SM BKN050 BKN075 OVC090 27/23 A2989 RMK AO2 SLP108 T02720228=
201007120552 METAR KATL 120552Z 00000KT 8SM FEW060 SCT090 27/22 A2989 RMK AO2 SLP109 60000 T02720222 10317 20272 50002=
201007120452 METAR KATL 120452Z 25003KT 10SM FEW060 SCT090 BKN250 27/23 A2990 RMK AO2 SLP111 T02720228 403390228=
201007120352 METAR KATL 120352Z 23005KT 10SM SCT080 BKN250 28/23 A2989 RMK AO2 RAE00 SLP107 P0000 T02780228=
201007120252 METAR KATL 120252Z 24007KT 10SM -RA FEW050TCU BKN110 BKN250 28/23 A2989 RMK AO2 RAB31 SLP107 TCU OHD-S-SW P0000 60000 T02780228 51007=
201007120152 METAR KATL 120152Z 20006KT 10SM FEW060 SCT250 29/22 A2988 RMK AO2 SLP107 T02940217=
201007120052 METAR KATL 120052Z 20005KT 10SM FEW060 SCT250 31/21 A2987 RMK AO2 SLP104 T03060211=
201007112352 METAR KATL 112352Z 23005KT 10SM FEW060 32/21 A2986 RMK AO2 SLP100 T03170206 10339 20317 55007=
201007112252 METAR KATL 112252Z 23008KT 10SM FEW060 SCT250 32/21 A2986 RMK AO2 SLP099 T03220206=
201007112152 METAR KATL 112152Z VRB05KT 10SM FEW055 SCT150 SCT250 33/19 A2987 RMK AO2 SLP101 T03330194=
201007112052 METAR KATL 112052Z 33004KT 10SM FEW055 SCT150 34/20 A2988 RMK AO2 SLP107 T03390200 58020=
201007111952 METAR KATL 111952Z 33007KT 10SM SCT055 BKN150 34/20 A2991 RMK AO2 SLP116 CB DSNT SW T03390200=
201007111852 METAR KATL 111852Z 29008KT 10SM SCT055 33/20 A2993 RMK AO2 SLP122 T03330200=
201007111752 METAR KATL 111752Z 31008KT 10SM SCT055 33/19 A2994 RMK AO2 SLP128 T03280189 10328 20244 58007=
201007111652 METAR KATL 111652Z 27007KT 10SM SCT045 32/21 A2996 RMK AO2 SLP132 T03170206=
201007111552 METAR KATL 111552Z 00000KT 10SM FEW045 31/19 A2996 RMK AO2 SLP134 T03110194=
201007111452 METAR KATL 111452Z 00000KT 10SM CLR 31/20 A2997 RMK AO2 SLP135 T03060200 51006=
201007111352 METAR KATL 111352Z 05003KT 10SM FEW150 28/19 A2996 RMK AO2 SLP136 T02830194=
201007111252 METAR KATL 111252Z VRB04KT 10SM CLR 27/21 A2996 RMK AO2 SLP134 T02720206=
201007111152 METAR KATL 111152Z 34008KT 10SM CLR 24/21 A2995 RMK AO2 SLP129 T02440211 10244 20228 53008=
201007111052 METAR KATL 111052Z 31005KT 10SM CLR 23/21 A2993 RMK AO2 SLP123 T02330211=
201007110952 METAR KATL 110952Z 31005KT 10SM CLR 23/22 A2992 RMK AO2 SLP121 T02330217=
201007110852 METAR KATL 110852Z 29005KT 10SM CLR 23/22 A2992 RMK AO2 SLP121 T02330217 55006=
201007110752 METAR KATL 110752Z 28006KT 10SM CLR 23/22 A2991 RMK AO2 SLP118 T02330222=
201007110652 METAR KATL 110652Z 28006KT 10SM CLR 24/22 A2992 RMK AO2 SLP119 T02390222=
201007110552 METAR KATL 110552Z 26004KT 10SM CLR 24/22 A2994 RMK AO2 SLP126 T02440222 10300 20244 58004=
201007110452 METAR KATL 110452Z 27006KT 10SM CLR 24/22 A2995 RMK AO2 SLP132 T02440222 403220228=
201007110352 METAR KATL 110352Z 26005KT 10SM CLR 24/22 A2996 RMK AO2 SLP133 T02440222=
201007110252 METAR KATL 110252Z 25004KT 10SM CLR 25/21 A2995 RMK AO2 SLP131 T02500211 53012=
201007110152 METAR KATL 110152Z 25003KT 10SM FEW150 SCT250 26/22 A2994 RMK AO2 SLP127 T02610217=
201007110052 METAR KATL 110052Z 24007KT 10SM FEW120 SCT150 SCT250 27/22 A2993 RMK AO2 SLP123 T02670217=
201007102352 METAR KATL 102352Z 29007KT 10SM FEW060 SCT150 SCT250 31/20 A2992 RMK AO2 SLP119 CB DSNT S-SW T03060200 10322 20300 55002=
201007102252 METAR KATL 102252Z 33007KT 10SM SCT050TCU SCT150 32/20 A2990 RMK AO2 SLP111 CB DSNT SW TCU NE-E T03170200=
201007102152 METAR KATL 102152Z 32006KT 10SM SCT046 SCT060 BKN150 32/20 A2991 RMK AO2 SLP115 CB DSNT S-SW T03220200=
201007102052 METAR KATL 102052Z 31008G15KT 10SM SCT046 BKN060 BKN150 32/21 A2992 RMK AO2 SLP121 CB DSNT S-SW T03170206 56015=
201007101952 METAR KATL 101952Z 32011G14KT 10SM SCT041CB BKN050 BKN060 BKN150 31/21 A2994 RMK AO2 SLP126 CB SE-SW-W MOV SE T03110206=
201007101852 METAR KATL 101852Z 32011KT 10SM SCT039 BKN046 BKN150 31/21 A2995 RMK AO2 SLP131 CB DSNT SE & SW T03060211=
201007101752 METAR KATL 101752Z 33009KT 10SM SCT038 SCT045 BKN150 31/22 A2997 RMK AO2 SLP137 CB DSNT SW & W T03060217 10306 20233 58006=
201007101652 METAR KATL 101652Z 29007KT 10SM SCT026 SCT035 BKN150 30/22 A2998 RMK AO2 SLP140 T03000222=
201007101552 METAR KATL 101552Z 27008KT 250V310 10SM SCT022 SCT027 BKN150 29/22 A2999 RMK AO2 SLP143 T02890222=
201007101452 METAR KATL 101452Z 32008KT 10SM SCT015 BKN120 BKN200 27/23 A2999 RMK AO2 SLP145 T02670228 51005=
201007101352 METAR KATL 101352Z 31007KT 10SM FEW010 BKN120 BKN200 25/22 A2999 RMK AO2 SLP145 T02500222=
201007101252 METAR KATL 101252Z 31008KT 10SM SCT120 BKN200 24/22 A2999 RMK AO2 SLP145 T02390217=
201007101152 METAR KATL 101152Z 30006KT 10SM FEW120 BKN250 23/22 A2997 RMK AO2 SLP139 60000 70011 T02330217 10233 20228 53006=
201007101052 METAR KATL 101052Z 27006KT 10SM SCT120 BKN250 23/21 A2996 RMK AO2 SLP131 T02330211=
201007100952 METAR KATL 100952Z 29005KT 10SM FEW060 BKN250 23/22 A2995 RMK AO2 SLP132 T02280217=
201007100852 METAR KATL 100852Z 27005KT 10SM FEW060 SCT120 BKN250 23/22 A2996 RMK AO2 RAE0757 SLP133 P0000 60000 T02280217 50001=
201007100752 METAR KATL 100752Z 28004KT 10SM -RA SCT050 SCT110 BKN250 23/22 A2997 RMK AO2 RAB37 SLP135 P0000 T02330217=
201007100652 METAR KATL 100652Z 30007KT 10SM FEW050 SCT110 BKN250 23/22 A2996 RMK AO2 SLP130 T02330217=
201007100552 METAR KATL 100552Z 30006KT 10SM FEW050 BKN250 23/22 A2995 RMK AO2 SLP130 60008 T02330217 10317 20228 58009=
201007100452 METAR KATL 100452Z 23005KT 10SM FEW050 BKN250 23/22 A2998 RMK AO2 SLP141 T02330217 403560228=
201007100352 METAR KATL 100352Z 28007KT 10SM FEW100 SCT150 BKN200 23/22 A2999 RMK AO2 SLP144 T02330217=
201007100252 METAR KATL 100252Z 30005KT 10SM FEW100 BKN150 OVC200 23/22 A2998 RMK AO2 SLP140 60008 T02330217 50021=
201007100152 METAR KATL 100152Z 21011KT 10SM FEW035 BKN060 BKN100 OVC200 23/22 A2999 RMK AO2 TSE51RAE24 SLP144 FRQ LTGICCGCA DSNT SE-SW TS MOV SE P0007 T02330217=
201007100108 SPECI KATL 100108Z VRB03KT 7SM -TSRA FEW035CB BKN050 BKN080 OVC200 23/22 A2995 RMK AO2 CONS LTGICCGCA SE-SW TS SE-SW MOV SE P0007=
201007100108 SPECI KATL 100108Z VRB03KT 7SM -TSRA FEW035CB BKN050 BKN080 OVC200 23/22 A2995 RMK AO2 CONS LTGICCGCA SE-SW TS SE-SW MOV SE P0007=
201007100052 METAR KATL 100052Z 32012G29KT 4SM TSRA BR FEW010 SCT035CB BKN050 OVC150 23/21 A2996 RMK AO2 PK WND 32036/0035 TSB25RAB38 SLP135 FRQ LTGICCG OHD-ALQDS TS OHD-ALQDS MOV SE P0001 T02280211=
201007100025 SPECI KATL 100025Z 34025G32KT 10SM TS SCT035CB BKN070 BKN150 OVC200 31/22 A2994 RMK AO2 PK WND 34032/0025 TSB25 PRESRR FRQ LTGICCG VC SW-NW-N TS VC SW-NW-N MOV SE BLDU OVR RWY=
201007100025 SPECI KATL 100025Z 34025G32KT 10SM TS SCT035CB BKN070 BKN150 OVC200 31/22 A2994 RMK AO2 PK WND 34032/0025 TSB25 PRESRR FRQ LTGICCG VC SW-NW-N TS VC SW-NW-N MOV SE BLDU OVR RWY=
201007092352 METAR KATL 092352Z 26003KT 10SM FEW035 SCT150 BKN200 OVC250 31/22 A2992 RMK AO2 SLP118 CB DSNT SW AND W-NW 60003 T03110217 10356 20278 55003=
201007092252 METAR KATL 092252Z 27003KT 10SM SCT150 BKN200 32/22 A2990 RMK AO2 SLP112 CB DSNT S-SW T03170222=
201007092152 METAR KATL 092152Z 30005KT 10SM SCT120 BKN150 BKN250 31/22 A2991 RMK AO2 SLP114 T03110217=
201007092052 METAR KATL 092052Z 31009KT 10SM FEW030 BKN100CB BKN250 29/23 A2992 RMK AO2 PK WND 28027/2022 RAB17E43 SLP121 CB DSNT NE & DSNT W CBMAM NE-SE P0003 60003 T02940228 56014=
201007092021 SPECI KATL 092021Z 29017G23KT 10SM -RA FEW030 SCT050CB BKN090 BKN250 32/21 A2993 RMK AO2 RAB17 CB NE-OHD-SW MOV SE P0000=
201007092021 SPECI KATL 092021Z 29017G23KT 10SM -RA FEW030 SCT050CB BKN090 BKN250 32/21 A2993 RMK AO2 RAB17 CB NE-OHD-SW MOV SE P0000=
201007092015 SPECI KATL 092015Z 31012KT 10SM FEW060CB BKN100 BKN250 33/20 A2993 RMK AO2 CB NE & W MOV SE SHRA NE & W=
201007092015 SPECI KATL 092015Z 31012KT 10SM FEW060CB BKN100 BKN250 33/20 A2993 RMK AO2 CB NE & W MOV SE SHRA NE & W=
201007092000 SPECI KATL 092000Z 29009KT 10SM BKN060CB BKN100 BKN250 33/19 A2992 RMK AO2 CB W-NW-N MOV SE SHRA W-NW-N=
201007092000 SPECI KATL 092000Z 29009KT 10SM BKN060CB BKN100 BKN250 33/19 A2992 RMK AO2 CB W-NW-N MOV SE SHRA W-NW-N=
201007091952 METAR KATL 091952Z 32009KT 10SM BKN060CB BKN100 BKN250 34/19 A2993 RMK AO2 SLP121 FRQ LTG DSNT NW CB SW-NW MOV SE CB DSNT NW TCU DSNT NE & SW & NW T03390194=
201007091852 METAR KATL 091852Z 24007G14KT 10SM FEW060 SCT100 SCT200 35/20 A2994 RMK AO2 SLP124 CB DSNT S-SW & DSNT NW-N T03500200=
201007091752 METAR KATL 091752Z COR 28009G17KT 10SM FEW055 SCT100 SCT250 34/21 A2997 RMK AO2 SLP134 CB DSNT S TCU DSNT SW T03440206 10344 20261 58013=
201007091652 METAR KATL 091652Z 28008KT 9SM FEW050 SCT100 34/20 A2999 RMK AO2 SLP141 TCU DSNT SW T03390200=
201007091552 METAR KATL 091552Z 32004KT 8SM FEW100 SCT150 SCT250 33/19 A3000 RMK AO2 SLP145 T03330189=
201007091452 METAR KATL 091452Z 31005KT 8SM FEW150 SCT250 32/21 A3000 RMK AO2 SLP146 T03170211 50005=
201007091352 METAR KATL 091352Z 34007KT 9SM FEW200 SCT250 29/21 A3001 RMK AO2 SLP148 T02940211=
201007091252 METAR KATL 091252Z 32008KT 8SM SCT250 28/21 A3000 RMK AO2 SLP146 T02780206=
201007091152 METAR KATL 091152Z 31006KT 8SM FEW150 26/20 A2999 RMK AO2 SLP142 T02610200 10267 20244 53007=
201007091052 METAR KATL 091052Z 32007KT 8SM FEW250 24/20 A2997 RMK AO2 SLP137 T02440200=
201007090952 METAR KATL 090952Z 32008KT 9SM FEW250 24/19 A2997 RMK AO2 SLP136 T02440194=
201007090852 METAR KATL 090852Z 32009KT 10SM SCT250 26/19 A2997 RMK AO2 SLP134 T02560194 58005=
201007090752 METAR KATL 090752Z 33007KT 10SM SCT250 26/19 A2998 RMK AO2 SLP137 T02610189=
201007090652 METAR KATL 090652Z 32007KT 10SM SCT200 26/19 A2998 RMK AO2 SLP137 T02610189=
201007090552 METAR KATL 090552Z 32007KT 10SM FEW200 27/19 A2998 RMK AO2 SLP139 T02670194 10333 20267 50001=
201007090452 METAR KATL 090452Z 31006KT 10SM CLR 28/19 A2999 RMK AO2 SLP140 T02780189 403610239=
201007090352 METAR KATL 090352Z 33003KT 10SM CLR 29/18 A2999 RMK AO2 SLP141 T02940183=
201007090252 METAR KATL 090252Z 32005KT 10SM FEW150 31/17 A2998 RMK AO2 SLP138 T03060172 53012=
201007090152 METAR KATL 090152Z 29004KT 10SM FEW150 32/17 A2996 RMK AO2 SLP132 T03170167=
201007090052 METAR KATL 090052Z 28004KT 10SM FEW150 32/17 A2995 RMK AO2 SLP129 T03170167=
201007082352 METAR KATL 082352Z 27007KT 10SM FEW090 33/16 A2995 RMK AO2 SLP127 T03330156 10361 20333 55009=
201007082252 METAR KATL 082252Z 27007KT 10SM FEW090 34/16 A2994 RMK AO2 SLP125 T03440161=
201007082152 METAR KATL 082152Z 27010KT 10SM SCT090 35/17 A2996 RMK AO2 SLP131 T03500167=
201007082052 METAR KATL 082052Z 28007KT 10SM FEW085 36/17 A2997 RMK AO2 SLP136 T03560172 58016=
201007081952 METAR KATL 081952Z VRB05KT 10SM SCT085 36/17 A2999 RMK AO2 SLP143 T03610172=
201007081852 METAR KATL 081852Z 31008KT 10SM FEW080 36/17 A3001 RMK AO2 SLP147 T03610167=
201007081752 METAR KATL 081752Z 03003KT 10SM SCT080 35/15 A3002 RMK AO2 SLP152 T03500150 10356 20256 58012=
201007081652 METAR KATL 081652Z 30005KT 10SM FEW070 34/17 A3003 RMK AO2 SLP156 T03440167=
201007081552 METAR KATL 081552Z 03011KT 10SM CLR 34/17 A3005 RMK AO2 SLP161 T03390172=
201007081452 METAR KATL 081452Z 32005KT 10SM CLR 32/20 A3006 RMK AO2 SLP164 T03220200 50001=
201007081352 METAR KATL 081352Z 34005KT 10SM CLR 30/20 A3006 RMK AO2 SLP167 T03000200=
201007081252 METAR KATL 081252Z 33006KT 10SM CLR 27/19 A3006 RMK AO2 SLP165 T02720194=
201007081152 METAR KATL 081152Z 00000KT 10SM CLR 26/19 A3005 RMK AO2 SLP164 T02560194 10272 20239 53006=
201007081052 METAR KATL 081052Z 31003KT 10SM CLR 24/18 A3005 RMK AO2 SLP162 T02440183 $=
201007080952 METAR KATL 080952Z 29003KT 10SM CLR 24/19 A3004 RMK AO2 SLP159 T02390189=
201007080852 METAR KATL 080852Z 00000KT 10SM CLR 24/19 A3004 RMK AO2 SLP158 T02440194 56008=
201007080752 METAR KATL 080752Z 32006KT 10SM CLR 24/20 A3004 RMK AO2 SLP161 T02440200=
201007080652 METAR KATL 080652Z 23004KT 10SM CLR 26/20 A3005 RMK AO2 SLP162 T02610200=
201007080552 METAR KATL 080552Z COR 00000KT 10SM CLR 27/19 A3006 RMK AO2 SLP167 T02670194 10333 20267 58003=
201007080452 METAR KATL 080452Z 00000KT 10SM CLR 28/19 A3007 RMK AO2 SLP170 T02780194 403440233=
201007080352 METAR KATL 080352Z 00000KT 10SM CLR 28/20 A3007 RMK AO2 SLP170 T02780200=
201007080252 METAR KATL 080252Z 15003KT 10SM CLR 29/19 A3007 RMK AO2 SLP170 T02940194 53012=
201007080152 METAR KATL 080152Z 18005KT 10SM CLR 29/19 A3005 RMK AO2 SLP164 T02940189=
201007080052 METAR KATL 080052Z 02005KT 10SM FEW070 32/14 A3004 RMK AO2 SLP159 T03220144=
201007072352 METAR KATL 072352Z 33006KT 10SM FEW065 33/17 A3003 RMK AO2 SLP158 T03330167 10344 20311 56007=
201007072252 METAR KATL 072252Z VRB03KT 10SM FEW065 34/18 A3003 RMK AO2 SLP159 T03390178=
201007072152 METAR KATL 072152Z 32004KT 10SM SCT065 34/18 A3004 RMK AO2 SLP161 T03440178=
201007072052 METAR KATL 072052Z 35005KT 10SM SCT065 34/18 A3006 RMK AO2 SLP166 T03390183 56019=
201007071952 METAR KATL 071952Z 00000KT 10SM SCT060 34/19 A3008 RMK AO2 SLP172 T03390194=
201007071852 METAR KATL 071852Z 31003KT 10SM SCT060 33/20 A3009 RMK AO2 SLP179 T03330200=
201007071752 METAR KATL 071752Z 29005KT 10SM SCT050 31/21 A3012 RMK AO2 SLP186 T03110206 10322 20256 58006=
201007071652 METAR KATL 071652Z 00000KT 10SM SCT045 31/20 A3013 RMK AO2 SLP190 TCU DSNT SW & DSNT NW T03110200=
201007071552 METAR KATL 071552Z 00000KT 10SM FEW040 SCT050 31/21 A3014 RMK AO2 SLP194 T03060206=
201007071452 METAR KATL 071452Z 00000KT 10SM FEW035 31/22 A3014 RMK AO2 SLP193 T03060217 50002=
201007071352 METAR KATL 071352Z 00000KT 10SM CLR 29/21 A3014 RMK AO2 SLP195 T02890211=
201007071252 METAR KATL 071252Z 00000KT 10SM CLR 27/20 A3014 RMK AO2 SLP195 T02670200=
201007071152 METAR KATL 071152Z 09003KT 10SM CLR 26/20 A3013 RMK AO2 SLP190 T02560200 10256 20233 53009=
201007071052 METAR KATL 071052Z 00000KT 10SM FEW250 24/19 A3012 RMK AO2 SLP188 T02390189=
201007070952 METAR KATL 070952Z 09003KT 10SM FEW250 24/18 A3010 RMK AO2 SLP182 T02440183=
201007070852 METAR KATL 070852Z 00000KT 10SM FEW150 24/18 A3010 RMK AO2 SLP181 T02390183 58001=
201007070752 METAR KATL 070752Z 10003KT 10SM FEW040 SCT130 25/18 A3010 RMK AO2 SLP181 T02500183=
201007070652 METAR KATL 070652Z 00000KT 10SM SCT120 24/19 A3010 RMK AO2 SLP183 T02390189=
201007070552 METAR KATL 070552Z 06005KT 10SM FEW070 26/18 A3010 RMK AO2 SLP182 T02560183 10294 20250 58005=
201007070452 METAR KATL 070452Z 04005KT 10SM FEW100 26/18 A3012 RMK AO2 SLP187 T02560183 403170200=
201007070352 METAR KATL 070352Z 08005KT 10SM FEW200 26/18 A3011 RMK AO2 SLP187 T02560178=
201007070252 METAR KATL 070252Z 11005KT 10SM FEW200 27/18 A3012 RMK AO2 SLP187 T02720178 53013=
201007070152 METAR KATL 070152Z 11004KT 10SM FEW200 28/18 A3010 RMK AO2 SLP182 T02780183=
201007070052 METAR KATL 070052Z 10005KT 10SM FEW200 28/18 A3009 RMK AO2 SLP177 T02830178=
201007062352 METAR KATL 062352Z 08007KT 10SM CLR 29/18 A3008 RMK AO2 SLP174 T02940178 10317 20289 55005=
201007062252 METAR KATL 062252Z 11005KT 10SM FEW055 30/18 A3007 RMK AO2 SLP172 T03000178=
201007062152 METAR KATL 062152Z 11005KT 10SM FEW055 31/17 A3008 RMK AO2 SLP177 T03060167=
201007062052 METAR KATL 062052Z VRB05KT 10SM SCT055 31/17 A3010 RMK AO2 SLP180 T03110172 58010=
201007061952 METAR KATL 061952Z 14003KT 10SM SCT055 30/17 A3011 RMK AO2 SLP184 T03000172=
201007061852 METAR KATL 061852Z 11008G14KT 070V190 10SM SCT050 31/18 A3012 RMK AO2 SLP187 T03060178=
201007061752 METAR KATL 061752Z 10009KT 10SM BKN050 30/18 A3013 RMK AO2 SLP191 T03000178 10306 20228 58005=
201007061652 METAR KATL 061652Z 12007KT 050V150 10SM SCT048 29/18 A3014 RMK AO2 SLP195 T02940183=
201007061552 METAR KATL 061552Z 12008G14KT 10SM SCT050 28/17 A3014 RMK AO2 SLP196 T02830167=
201007061452 METAR KATL 061452Z 00000KT 10SM SCT038 28/19 A3014 RMK AO2 SLP196 T02780194 51005=
201007061352 METAR KATL 061352Z 20003KT 10SM FEW250 26/20 A3014 RMK AO2 SLP196 T02610200=
201007061252 METAR KATL 061252Z 00000KT 10SM FEW200 25/19 A3014 RMK AO2 SLP195 T02500194=
201007061152 METAR KATL 061152Z 00000KT 10SM FEW070 23/18 A3013 RMK AO2 SLP191 T02280183 10244 20200 51013=
201007061052 METAR KATL 061052Z 00000KT 10SM FEW070 21/17 A3011 RMK AO2 SLP187 T02060172=
201007060952 METAR KATL 060952Z 10004KT 10SM CLR 21/17 A3010 RMK AO2 SLP184 T02060167=
201007060852 METAR KATL 060852Z 09003KT 10SM CLR 21/17 A3009 RMK AO2 SLP177 T02110167 55002=
201007060752 METAR KATL 060752Z 12006KT 10SM CLR 23/17 A3008 RMK AO2 SLP174 T02280167=
201007060652 METAR KATL 060652Z 10004KT 10SM CLR 23/16 A3008 RMK AO2 SLP174 T02280161=
201007060552 METAR KATL 060552Z 11004KT 10SM CLR 24/16 A3009 RMK AO2 SLP179 T02440161 10289 20239 58004=
201007060452 METAR KATL 060452Z 12004KT 10SM CLR 25/16 A3010 RMK AO2 SLP181 T02500161 403110200=
201007060352 METAR KATL 060352Z 12004KT 10SM CLR 25/17 A3010 RMK AO2 SLP182 T02500172=
201007060252 METAR KATL 060252Z 12006KT 10SM CLR 26/17 A3010 RMK AO2 SLP183 T02610172 51014=
201007060152 METAR KATL 060152Z 12005KT 10SM CLR 28/17 A3009 RMK AO2 SLP179 T02780172=
201007060052 METAR KATL 060052Z 12007KT 10SM FEW055 28/17 A3008 RMK AO2 SLP175 T02780172=
201007052352 METAR KATL 052352Z 11007KT 10SM FEW055 29/17 A3006 RMK AO2 SLP170 T02890167 10311 20283 55001=
201007052252 METAR KATL 052252Z 14005KT 10SM FEW060 29/17 A3005 RMK AO2 SLP167 T02940167=
201007052152 METAR KATL 052152Z VRB06KT 10SM FEW065 SCT150 30/18 A3006 RMK AO2 SLP169 T03000178=
201007052052 SPECI KATL 052052Z 15007KT 10SM SCT065 BKN150 31/17 A3007 RMK AO2 SLP170 T03060172 56015=
201007051952 METAR KATL 051952Z 11008KT 10SM SCT050 BKN065 BKN150 29/17 A3008 RMK AO2 SLP174 T02940172=
201007051852 METAR KATL 051852Z 11005KT 10SM BKN060 BKN150 29/17 A3010 RMK AO2 SLP181 T02890172=
201007051752 METAR KATL 051752Z 09008KT 10SM SCT050 BKN150 30/17 A3011 RMK AO2 SLP185 T03000167 10300 20217 58001=
201007051652 METAR KATL 051652Z 15007KT 10SM SCT045 29/17 A3012 RMK AO2 SLP187 T02890167=
201007051552 METAR KATL 051552Z 14005KT 10SM SCT040 28/17 A3012 RMK AO2 SLP189 T02780172=
201007051452 METAR KATL 051452Z 13004KT 10SM FEW030 27/19 A3012 RMK AO2 SLP187 T02670189 50001=
201007051352 METAR KATL 051352Z 14003KT 10SM BKN065 24/19 A3013 RMK AO2 SLP191 T02440189=
201007051252 METAR KATL 051252Z 16004KT 10SM BKN065 23/18 A3012 RMK AO2 SLP191 T02280183=
201007051152 METAR KATL 051152Z 00000KT 9SM FEW060 22/17 A3011 RMK AO2 SLP187 T02170172 10228 20200 53007=
201007051052 METAR KATL 051052Z 11003KT 10SM FEW060 21/16 A3010 RMK AO2 SLP182 T02060156=
201007050952 METAR KATL 050952Z 13004KT 10SM FEW055 21/15 A3009 RMK AO2 SLP178 T02110150=
201007050852 METAR KATL 050852Z 12003KT 10SM CLR 22/14 A3009 RMK AO2 SLP179 T02220144 58004=
201007050752 METAR KATL 050752Z 12003KT 10SM CLR 23/14 A3010 RMK AO2 SLP180 T02280144=
201007050652 METAR KATL 050652Z 10004KT 10SM CLR 22/15 A3010 RMK AO2 SLP181 T02170150=
201007050552 METAR KATL 050552Z 00000KT 10SM CLR 23/14 A3010 RMK AO2 SLP183 T02280144 10278 20228 58002=
201007050452 METAR KATL 050452Z 00000KT 10SM CLR 23/15 A3011 RMK AO2 SLP185 T02330150 402940183=
201007050352 METAR KATL 050352Z 00000KT 10SM CLR 23/15 A3011 RMK AO2 SLP185 T02330150=
201007050252 METAR KATL 050252Z 14003KT 10SM CLR 25/14 A3011 RMK AO2 SLP185 T02500144 53007=
201007050152 METAR KATL 050152Z 13003KT 10SM CLR 26/14 A3009 RMK AO2 SLP180 T02560139=
201007050052 METAR KATL 050052Z 13005KT 10SM CLR 27/14 A3009 RMK AO2 SLP179 T02670139=
201007042352 METAR KATL 042352Z 15009KT 10SM FEW065 28/14 A3008 RMK AO2 SLP178 T02780139 10294 20272 56005=
201007042252 METAR KATL 042252Z VRB06KT 10SM FEW060 29/14 A3009 RMK AO2 SLP179 T02890139=
201007042152 SPECI KATL 042152Z 14006KT 10SM FEW060 29/14 A3009 RMK AO2 SLP179 T02890139=
201007042052 METAR KATL 042052Z 14006KT 10SM SCT060 28/14 A3010 RMK AO2 SLP183 T02830139 56015=
201007041952 METAR KATL 041952Z 12009G14KT 10SM SCT060 29/13 A3010 RMK AO2 SLP183 T02940128=
201007041852 METAR KATL 041852Z VRB03KT 10SM SCT060 29/13 A3012 RMK AO2 SLP189 T02890133=
201007041752 METAR KATL 041752Z 11006G14KT 10SM SCT055 28/14 A3014 RMK AO2 SLP197 T02830144 10283 20206 58007=
201007041652 METAR KATL 041652Z 14008KT 10SM SCT055 27/14 A3016 RMK AO2 SLP203 T02720139=
201007041552 METAR KATL 041552Z 14009KT 10SM SCT055 27/14 A3017 RMK AO2 SLP207 T02670139=
201007041452 METAR KATL 041452Z 17005KT 10SM FEW040 26/16 A3017 RMK AO2 SLP206 T02560156 50001=
201007041352 METAR KATL 041352Z 18005KT 10SM CLR 24/17 A3018 RMK AO2 SLP209 T02440167=
201007041252 METAR KATL 041252Z 14003KT 10SM CLR 22/17 A3018 RMK AO2 SLP210 T02220172=
201007041152 METAR KATL 041152Z 09003KT 10SM CLR 21/16 A3016 RMK AO2 SLP205 T02060161 10222 20183 51012=
201007041052 METAR KATL 041052Z 10003KT 10SM CLR 19/16 A3016 RMK AO2 SLP203 T01890156=
201007040952 METAR KATL 040952Z 00000KT 10SM CLR 20/16 A3014 RMK AO2 SLP196 T02000156=
201007040852 METAR KATL 040852Z 00000KT 10SM CLR 20/15 A3013 RMK AO2 SLP193 T02000150 56008=
201007040752 METAR KATL 040752Z 00000KT 10SM CLR 21/14 A3013 RMK AO2 SLP194 T02110144=
201007040652 METAR KATL 040652Z 00000KT 10SM CLR 21/15 A3014 RMK AO2 SLP196 T02110150=
201007040552 METAR KATL 040552Z 00000KT 10SM CLR 22/14 A3015 RMK AO2 SLP200 T02220144 10267 20217 58002=
201007040452 METAR KATL 040452Z 00000KT 10SM CLR 22/16 A3016 RMK AO2 SLP205 T02220156 402830206=
201007040352 METAR KATL 040352Z 00000KT 10SM CLR 23/16 A3017 RMK AO2 SLP206 T02330156=
201007040252 METAR KATL 040252Z 14004KT 10SM CLR 23/16 A3016 RMK AO2 SLP203 T02330161 53008=
201007040152 METAR KATL 040152Z 15004KT 10SM CLR 24/15 A3014 RMK AO2 SLP198 T02440150=
201007040052 METAR KATL 040052Z 13006KT 10SM CLR 26/14 A3013 RMK AO2 SLP195 T02560139=
201007032352 METAR KATL 032352Z 13007KT 10SM FEW050 27/14 A3013 RMK AO2 SLP194 T02670144 10283 20267 55005=
201007032252 METAR KATL 032252Z 07007KT 10SM SCT049 27/16 A3013 RMK AO2 SLP194 T02720156=
201007032152 METAR KATL 032152Z 08007KT 10SM SCT049 28/16 A3014 RMK AO2 SLP196 T02780161=
201007032052 METAR KATL 032052Z 11008KT 10SM SCT050 SCT060 28/16 A3015 RMK AO2 SLP200 T02780161 58013=
201007031952 METAR KATL 031952Z 09010KT 10SM BKN055 27/16 A3016 RMK AO2 SLP205 T02720161=
201007031852 METAR KATL 031852Z 07009KT 10SM BKN048 28/16 A3018 RMK AO2 SLP210 T02780161=
201007031752 METAR KATL 031752Z 11009G15KT 10SM SCT045 27/16 A3019 RMK AO2 SLP212 T02720156 10272 20217 58013=
201007031652 METAR KATL 031652Z 11007G14KT 10SM SCT039 26/16 A3021 RMK AO2 SLP220 T02610156=
201007031552 METAR KATL 031552Z 11009KT 10SM SCT040 SCT070 26/16 A3022 RMK AO2 SLP223 T02560156=
201007031452 METAR KATL 031452Z VRB06KT 10SM SCT070 24/16 A3023 RMK AO2 SLP227 T02440156 50005=
201007031352 METAR KATL 031352Z 15008KT 10SM SCT048 SCT250 23/15 A3024 RMK AO2 SLP230 T02280150=
201007031252 METAR KATL 031252Z 08008KT 10SM FEW060 22/17 A3023 RMK AO2 SLP229 T02220167=
201007031152 METAR KATL 031152Z VRB03KT 10SM SCT060 22/17 A3021 RMK AO2 SLP222 T02170167 10228 20206 51012=
201007031052 METAR KATL 031052Z 12003KT 10SM BKN060 21/17 A3020 RMK AO2 SLP219 T02060172=
201007030952 METAR KATL 030952Z 15003KT 10SM SCT060 21/18 A3019 RMK AO2 SLP214 T02110178=
201007030852 METAR KATL 030852Z 16005KT 10SM BKN060 21/18 A3018 RMK AO2 SLP210 T02110178 53003=
201007030752 METAR KATL 030752Z 14005KT 10SM CLR 22/18 A3016 RMK AO2 SLP204 T02220183=
201007030652 METAR KATL 030652Z 09006KT 10SM SCT070 23/19 A3016 RMK AO2 SLP204 T02280189=
201007030552 METAR KATL 030552Z 10006KT 9SM FEW080 23/19 A3017 RMK AO2 SLP205 T02280189 10261 20222 51003=
201007030452 METAR KATL 030452Z 09006KT 10SM SCT080 23/19 A3017 RMK AO2 SLP206 T02280194 402890228=
201007030352 METAR KATL 030352Z 08007KT 10SM FEW080 23/20 A3016 RMK AO2 SLP205 T02330200=
201007030252 METAR KATL 030252Z 10007KT 10SM FEW065 BKN085 24/19 A3016 RMK AO2 SLP203 T02440194 53008=
201007030152 METAR KATL 030152Z 10007KT 10SM BKN075 24/19 A3015 RMK AO2 SLP199 T02440194=
201007030052 METAR KATL 030052Z 10009KT 10SM BKN070 BKN090 25/19 A3014 RMK AO2 SLP196 T02500194=
201007022352 METAR KATL 022352Z 09009KT 10SM BKN085 26/19 A3013 RMK AO2 SLP194 T02610194 10289 20261 56008=
201007022252 METAR KATL 022252Z 09010KT 10SM FEW065 OVC085 26/19 A3014 RMK AO2 SLP196 T02610194=
201007022152 METAR KATL 022152Z 08011KT 10SM FEW065 SCT090 27/19 A3014 RMK AO2 SLP197 T02670194=
201007022052 METAR KATL 022052Z 10012KT 10SM FEW040 BKN060 BKN080 27/19 A3016 RMK AO2 SLP202 T02720194 56011=
201007021952 METAR KATL 021952Z 12009KT 10SM FEW040 BKN050 BKN080 29/19 A3016 RMK AO2 SLP203 T02890194=
201007021852 METAR KATL 021852Z 09013KT 10SM SCT030 BKN050 BKN080 27/20 A3017 RMK AO2 SLP208 T02720200=
201007021752 METAR KATL 021752Z 13007KT 10SM FEW030 BKN080 OVC100 27/19 A3019 RMK AO2 SLP212 T02720194 10272 20233 58001=
201007021652 METAR KATL 021652Z 12010KT 10SM BKN030 BKN080 BKN100 26/19 A3020 RMK AO2 SLP215 T02610194=
201007021552 METAR KATL 021552Z 11009KT 10SM BKN020 BKN040 BKN100 26/21 A3020 RMK AO2 SLP215 T02560206=
201007021452 METAR KATL 021452Z 11011KT 6SM HZ FEW010 BKN015 BKN100 24/21 A3019 RMK AO2 SLP214 T02440206 51006=
201007021410 SPECI KATL 021410Z 12007KT 3SM FEW012 BKN020 OVC090 24/21 A3019 RMK AO2 SFC VIS 8=
201007021410 SPECI KATL 021410Z 12007KT 3SM FEW012 BKN020 OVC090 24/21 A3019 RMK AO2 SFC VIS 8=
201007021352 METAR KATL 021352Z 13006KT 3SM BR BKN012 BKN018 OVC090 24/22 A3019 RMK AO2 SFC VIS 6 SLP212 T02390217=
201007021252 METAR KATL 021252Z 12006KT 3SM BR BKN007 BKN015 OVC100 24/22 A3018 RMK AO2 SFC VIS 5 SLP209 T02390217=
201007021152 METAR KATL 021152Z 12005KT 3SM BR BKN006 BKN015 OVC100 23/22 A3017 RMK AO2 SFC VIS 6 SLP206 T02330217 10244 20228 53014=
201007021139 SPECI KATL 021139Z 11003KT 3SM BR BKN006 OVC015 23/22 A3017 RMK AO2 SFC VIS 6=
201007021139 SPECI KATL 021139Z 11003KT 3SM BR BKN006 OVC015 23/22 A3017 RMK AO2 SFC VIS 6=
201007021113 SPECI KATL 021113Z 12003KT 3SM BR SCT006 BKN014 OVC100 23/22 A3016 RMK AO2 SFC VIS 5=
201007021113 SPECI KATL 021113Z 12003KT 3SM BR SCT006 BKN014 OVC100 23/22 A3016 RMK AO2 SFC VIS 5=
201007021054 SPECI KATL 021054Z 09005KT 3SM BR FEW006 SCT010 BKN015 23/22 A3015 RMK AO2 SFC VIS 4=
201007021054 SPECI KATL 021054Z 09005KT 3SM BR FEW006 SCT010 BKN015 23/22 A3015 RMK AO2 SFC VIS 4=
201007021052 METAR KATL 021052Z 09006KT 3SM BR FEW015 SCT110 SCT200 23/22 A3016 RMK AO2 SFC VIS 4 SLP201 T02280217=
201007020952 METAR KATL 020952Z 09004KT 5SM BR FEW020 SCT200 23/22 A3014 RMK AO2 SLP195 T02280217=
201007020852 METAR KATL 020852Z 09003KT 7SM FEW200 23/22 A3013 RMK AO2 SLP191 T02330217 55003=
201007020752 METAR KATL 020752Z 00000KT 9SM FEW200 24/22 A3012 RMK AO2 SLP188 T02390222=
201007020652 METAR KATL 020652Z 00000KT 8SM CLR 24/22 A3013 RMK AO2 SLP191 T02390222=
201007020552 METAR KATL 020552Z 16004KT 9SM FEW200 24/22 A3014 RMK AO2 SLP194 T02440222 10283 20244 50004=
201007020452 METAR KATL 020452Z 00000KT 10SM FEW200 24/22 A3014 RMK AO2 SLP194 T02440222 403060228=
201007020352 METAR KATL 020352Z 15004KT 10SM FEW200 26/22 A3013 RMK AO2 SLP194 OCNL LTG DSNT W T02560222=
201007020252 METAR KATL 020252Z 16004KT 10SM FEW200 26/22 A3012 RMK AO2 SLP190 OCNL LTG DSNT NW T02560222 53008=
201007020152 METAR KATL 020152Z 13005KT 10SM FEW090 27/22 A3011 RMK AO2 SLP185 T02720217=
201007020052 METAR KATL 020052Z 14005KT 10SM FEW040 SCT090 28/21 A3010 RMK AO2 SLP183 TCU DSNT W-NW T02780211=
201007012352 METAR KATL 012352Z 13009KT 10SM FEW040 28/21 A3010 RMK AO2 SLP181 TCU DSNT N AND NW T02830206 10306 20283 55000=
201007012252 METAR KATL 012252Z 13007KT 10SM FEW040 SCT090 30/21 A3010 RMK AO2 SLP180 TCU DSNT NE SE AND SW T03000206=
201007012152 METAR KATL 012152Z 06007KT 10SM FEW040 30/20 A3009 RMK AO2 SLP179 TCU DSNT SE-S T03000200=
201007012052 METAR KATL 012052Z 10008KT 10SM SCT039TCU SCT055 29/21 A3010 RMK AO2 SLP182 TCU S & NW T02940211 58014 $=
201007011952 METAR KATL 011952Z VRB04KT 10SM FEW035TCU SCT060 SCT250 29/21 A3012 RMK AO2 SLP187 TCU NW T02940211 $=
201007011852 METAR KATL 011852Z 11006KT 10SM BKN035 BKN065 29/22 A3013 RMK AO2 SLP191 T02940217 $=
201007011752 METAR KATL 011752Z 08010KT 10SM FEW025 SCT080 SCT250 29/22 A3014 RMK AO2 SLP196 CB DSNT S-SW-W T02940217 10294 20233 58009 $=
201007011652 METAR KATL 011652Z 09010KT 10SM FEW025 SCT075 SCT250 28/22 A3016 RMK AO2 SLP203 T02830217 $=
201007011647 SPECI KATL 011647Z 07009KT 10SM FEW025 SCT075 SCT250 28/22 A3017 RMK AO2 $=
201007011647 SPECI KATL 011647Z 07009KT 10SM FEW025 SCT075 SCT250 28/22 A3017 RMK AO2 $=
201007011552 METAR KATL 011552Z 06010KT 7SM BKN019 BKN027 27/22 A3017 RMK AO2 SLP206 T02720222 $=
201007011452 METAR KATL 011452Z 09009KT 6SM HZ FEW015 SCT030 SCT250 27/23 A3016 RMK AO2 SLP204 T02720228 51009 $=
201007011352 METAR KATL 011352Z 06007KT 6SM HZ BKN015 BKN030 BKN250 26/22 A3016 RMK AO2 SLP201 T02610222 $=
201007011334 SPECI KATL 011334Z 07005KT 6SM HZ BKN014 BKN027 BKN034 25/22 A3016 RMK AO2 $=
201007011334 SPECI KATL 011334Z 07005KT 6SM HZ BKN014 BKN027 BKN034 25/22 A3016 RMK AO2 $=
201007011317 SPECI KATL 011317Z 07005KT 6SM HZ FEW016 BKN029 BKN038 26/22 A3015 RMK AO2 $=
201007011317 SPECI KATL 011317Z 07005KT 6SM HZ FEW016 BKN029 BKN038 26/22 A3015 RMK AO2 $=
201007011310 SPECI KATL 011310Z 10005KT 6SM HZ FEW016 SCT027 BKN038 25/22 A3015 RMK AO2 $=
201007011310 SPECI KATL 011310Z 10005KT 6SM HZ FEW016 SCT027 BKN038 25/22 A3015 RMK AO2 $=
201007011303 SPECI KATL 011303Z VRB03KT 6SM HZ FEW016 BKN027 BKN032 25/22 A3015 RMK AO2 $=
201007011303 SPECI KATL 011303Z VRB03KT 6SM HZ FEW016 BKN027 BKN032 25/22 A3015 RMK AO2 $=
201007011252 METAR KATL 011252Z 06005KT 6SM HZ BKN030 OVC038 24/22 A3015 RMK AO2 SLP199 T02440217 $=
