##########################################################
# Query made at 04/19/2024 23:15:16 UTC
# Time interval: from 02/01/2010 12:00  to 02/28/2010 12:59  UTC
##########################################################

##########################################################
# KATL, Atlanta, Hartsfield - Jackson Atlanta International Airport (United States)
# WMO index: 72219. WIGOS ID: 0-20000-0-72219
# Latitude 33-38-59N. Longitude 084-25-00W. Altitude 312 m.
##########################################################

201002281252 METAR KATL 281252Z 29008KT 10SM FEW050 02/M07 A2991 RMK AO2 SLP134 T00221072=
201002281152 METAR KATL 281152Z 29008KT 10SM FEW050 01/M08 A2989 RMK AO2 SLP126 T00111078 10033 20011 53011=
201002281052 METAR KATL 281052Z 29009KT 10SM FEW050 02/M08 A2988 RMK AO2 SLP122 T00171078=
201002280952 METAR KATL 280952Z 28009KT 10SM FEW050 02/M08 A2987 RMK AO2 SLP117 T00171078=
201002280852 METAR KATL 280852Z 29010KT 10SM CLR 02/M08 A2986 RMK AO2 SLP114 T00221078 55003=
201002280752 METAR KATL 280752Z 30007KT 10SM CLR 03/M07 A2985 RMK AO2 SLP112 T00281072=
201002280652 METAR KATL 280652Z 30007KT 10SM CLR 03/M07 A2986 RMK AO2 SLP115 T00281067=
201002280552 METAR KATL 280552Z 29009KT 10SM CLR 03/M06 A2986 RMK AO2 SLP117 T00331061 10078 20028 50002=
201002280452 METAR KATL 280452Z 29009KT 10SM CLR 04/M07 A2987 RMK AO2 SLP119 T00391067 401001022=
201002280352 METAR KATL 280352Z 29010KT 10SM FEW250 04/M08 A2987 RMK AO2 SLP119 T00441078=
201002280252 METAR KATL 280252Z 29009KT 10SM FEW250 05/M09 A2986 RMK AO2 SLP116 T00501089 51015=
201002280152 METAR KATL 280152Z 29012KT 10SM SCT250 06/M09 A2984 RMK AO2 SLP112 T00561089=
201002280052 METAR KATL 280052Z 29010KT 10SM FEW250 06/M09 A2983 RMK AO2 SLP108 T00611094=
201002272352 METAR KATL 272352Z 30015KT 10SM FEW250 08/M10 A2981 RMK AO2 SLP101 T00781100 10100 20072 53008=
201002272252 METAR KATL 272252Z 30017KT 10SM FEW250 09/M11 A2980 RMK AO2 SLP094 T00891106=
201002272152 METAR KATL 272152Z 30014KT 10SM FEW250 10/M10 A2978 RMK AO2 SLP090 T01001100=
201002272052 METAR KATL 272052Z 29012G17KT 10SM FEW150 SCT250 10/M08 A2979 RMK AO2 SLP091 T01001083 56014=
201002271952 METAR KATL 271952Z 29016G20KT 10SM SCT150 BKN250 09/M08 A2980 RMK AO2 SLP095 T00891083=
201002271852 METAR KATL 271852Z 29008KT 10SM SCT150 BKN250 08/M08 A2981 RMK AO2 SLP099 T00831083=
201002271752 METAR KATL 271752Z 31015G20KT 10SM SCT150 BKN250 08/M09 A2983 RMK AO2 SLP105 T00831094 10083 21022 58010=
201002271652 METAR KATL 271652Z 30016G21KT 10SM SCT150 BKN250 08/M09 A2984 RMK AO2 SLP110 T00831089=
201002271552 METAR KATL 271552Z 31013G18KT 10SM SCT150 BKN250 05/M09 A2985 RMK AO2 SLP115 T00501094=
201002271452 METAR KATL 271452Z 32014KT 10SM SCT250 04/M09 A2986 RMK AO2 SLP117 T00391089 53004=
201002271352 METAR KATL 271352Z 32012G20KT 10SM SCT250 02/M08 A2985 RMK AO2 SLP115 T00221083=
201002271252 METAR KATL 271252Z 31008KT 10SM SCT250 M01/M08 A2983 RMK AO2 SLP108 T10061083=
201002271152 METAR KATL 271152Z 28006KT 10SM SCT250 M02/M09 A2985 RMK AO2 SLP115 T10171089 10011 21017 56004=
201002271052 METAR KATL 271052Z 31006KT 10SM FEW250 M01/M09 A2985 RMK AO2 SLP113 T10061089=
201002270952 METAR KATL 270952Z 32008KT 10SM CLR M01/M08 A2985 RMK AO2 SLP114 T10111083=
201002270852 METAR KATL 270852Z 30008KT 10SM FEW250 00/M09 A2986 RMK AO2 SLP117 T00001089 58018=
201002270752 METAR KATL 270752Z 29008KT 10SM FEW250 01/M09 A2988 RMK AO2 SLP124 T00061089=
201002270652 METAR KATL 270652Z 28008KT 10SM FEW250 01/M09 A2991 RMK AO2 SLP134 T00061089=
201002270552 METAR KATL 270552Z 28009KT 10SM FEW250 01/M09 A2991 RMK AO2 SLP136 T00061094 10056 20006 58005=
201002270452 METAR KATL 270452Z 28008KT 10SM FEW250 02/M10 A2992 RMK AO2 SLP138 T00171100 400891033=
201002270352 METAR KATL 270352Z 28006KT 10SM CLR 02/M10 A2993 RMK AO2 SLP141 T00171100=
201002270252 METAR KATL 270252Z 30010KT 10SM CLR 03/M11 A2993 RMK AO2 SLP142 T00281106 51001=
201002270152 METAR KATL 270152Z 30008KT 10SM CLR 03/M11 A2993 RMK AO2 SLP143 T00331106=
201002270052 METAR KATL 270052Z 30008KT 10SM CLR 04/M11 A2993 RMK AO2 SLP144 T00441111=
201002262352 METAR KATL 262352Z 31009KT 10SM CLR 05/M12 A2993 RMK AO2 SLP142 T00501122 10089 20050 53001=
201002262252 METAR KATL 262252Z 30015G20KT 10SM FEW250 07/M12 A2992 RMK AO2 SLP140 T00721122=
201002262152 METAR KATL 262152Z 28013G20KT 10SM FEW200 08/M11 A2991 RMK AO2 SLP137 T00831106=
201002262052 METAR KATL 262052Z 29016KT 10SM FEW200 08/M10 A2992 RMK AO2 SLP139 T00831100 56025=
201002261952 METAR KATL 261952Z 31014G21KT 10SM FEW200 08/M11 A2993 RMK AO2 SLP143 T00831106=
201002261852 METAR KATL 261852Z 32016KT 10SM SCT200 07/M10 A2997 RMK AO2 SLP155 T00721100=
201002261752 METAR KATL 261752Z 33013G19KT 10SM FEW200 06/M09 A3000 RMK AO2 SLP165 T00611094 10061 21033 58018=
201002261652 METAR KATL 261652Z 31016KT 10SM FEW200 04/M09 A3003 RMK AO2 SLP178 T00441089=
201002261552 METAR KATL 261552Z 31015G19KT 10SM FEW200 02/M08 A3005 RMK AO2 SLP184 T00221078=
201002261452 METAR KATL 261452Z 31012G20KT 10SM SCT200 01/M08 A3005 RMK AO2 SLP186 T00111078 51015=
201002261352 METAR KATL 261352Z 29011G16KT 10SM FEW150 SCT250 M01/M08 A3005 RMK AO2 SLP185 T10111078=
201002261252 METAR KATL 261252Z 29008KT 10SM FEW050 SCT180 BKN250 M03/M08 A3002 RMK AO2 SLP176 T10281083=
201002261152 METAR KATL 261152Z 33009KT 10SM FEW180 SCT250 M03/M08 A3001 RMK AO2 SLP170 T10281083 11017 21033 55010=
201002261052 METAR KATL 261052Z 33007KT 10SM SCT250 M03/M08 A3000 RMK AO2 SLP167 T10331083=
201002260952 METAR KATL 260952Z 31007KT 10SM SCT200 M03/M08 A3002 RMK AO2 SLP175 T10281083=
201002260852 METAR KATL 260852Z 32008KT 10SM FEW200 M03/M08 A3004 RMK AO2 SLP179 T10281083 55006=
201002260752 METAR KATL 260752Z 30005KT 10SM FEW200 M03/M09 A3003 RMK AO2 SLP177 T10281089=
201002260652 METAR KATL 260652Z 31006KT 10SM CLR M02/M09 A3004 RMK AO2 SLP180 T10221094=
201002260552 METAR KATL 260552Z 32006KT 10SM SCT250 M02/M09 A3005 RMK AO2 SLP185 T10171094 10028 21017 51001=
201002260452 METAR KATL 260452Z 32006KT 10SM SCT250 M02/M10 A3005 RMK AO2 SLP186 T10171100 400561050=
201002260352 METAR KATL 260352Z 30005KT 10SM FEW250 M01/M10 A3005 RMK AO2 SLP188 T10111100=
201002260252 METAR KATL 260252Z 30006KT 10SM FEW200 M01/M11 A3005 RMK AO2 SLP186 T10061106 51008=
201002260152 METAR KATL 260152Z 31007KT 10SM FEW200 01/M11 A3004 RMK AO2 SLP183 T00061111=
201002260052 METAR KATL 260052Z 33008KT 10SM FEW200 02/M12 A3004 RMK AO2 SLP182 T00171117=
201002252352 METAR KATL 252352Z 34009G17KT 10SM FEW200 03/M12 A3002 RMK AO2 SLP178 T00281117 10056 20028 53003=
201002252252 METAR KATL 252252Z 34014KT 10SM FEW250 04/M12 A3002 RMK AO2 SLP174 T00441117=
201002252152 METAR KATL 252152Z 31015G27KT 10SM FEW250 05/M11 A3001 RMK AO2 PK WND 32027/2144 SLP172 T00501111=
201002252052 METAR KATL 252052Z 32017G25KT 10SM FEW065 06/M11 A3002 RMK AO2 PK WND 33029/2031 SLP173 T00561106 55008=
201002251952 METAR KATL 251952Z 32011G23KT 10SM FEW060 05/M09 A3001 RMK AO2 PK WND 33027/1924 SLP171 T00501089=
201002251852 METAR KATL 251852Z 32015G21KT 10SM FEW055 04/M09 A3002 RMK AO2 PK WND 34026/1835 SLP175 T00391094=
201002251752 METAR KATL 251752Z 29017G22KT 10SM FEW055 03/M09 A3004 RMK AO2 SLP182 T00331089 10033 21050 58003=
201002251652 METAR KATL 251652Z 34015G19KT 10SM FEW050 02/M09 A3005 RMK AO2 SLP185 T00171089=
201002251552 METAR KATL 251552Z 29014KT 10SM FEW040 00/M09 A3005 RMK AO2 SLP185 T00001089=
201002251452 METAR KATL 251452Z 29014G19KT 10SM FEW032 M02/M09 A3005 RMK AO2 SLP185 T10221094 51021=
201002251352 METAR KATL 251352Z 30014G19KT 10SM FEW030 M03/M10 A3004 RMK AO2 SLP182 T10331100=
201002251252 METAR KATL 251252Z 31008KT 10SM CLR M04/M10 A3001 RMK AO2 SLP172 T10441100=
201002251152 METAR KATL 251152Z 31014G20KT 10SM CLR M04/M11 A2998 RMK AO2 SLP164 T10441106 11022 21050 53006=
201002251052 METAR KATL 251052Z 31010KT 10SM CLR M04/M11 A2997 RMK AO2 SLP159 T10441106=
201002250952 METAR KATL 250952Z 32011KT 10SM SCT034 M04/M11 A2997 RMK AO2 PK WND 30027/0853 SLP157 T10441106=
201002250852 METAR KATL 250852Z 31011KT 10SM FEW040 M04/M11 A2996 RMK AO2 SLP154 T10391111 51010=
201002250752 METAR KATL 250752Z 33017G25KT 10SM CLR M03/M12 A2996 RMK AO2 PK WND 31028/0706 SLP152 T10331117=
201002250652 METAR KATL 250652Z 33016G26KT 10SM FEW043 M03/M12 A2995 RMK AO2 PK WND 34026/0649 SLP149 T10281117=
201002250552 METAR KATL 250552Z 32017G23KT 10SM SCT038 M02/M11 A2993 RMK AO2 PK WND 34028/0500 SLP144 T10221106 10033 21022 52013=
201002250452 METAR KATL 250452Z 32021G26KT 10SM BKN038 M01/M08 A2992 RMK AO2 PK WND 33030/0410 SLP141 T10061083 400891006=
201002250352 METAR KATL 250352Z 31010KT 10SM SCT040 BKN048 01/M06 A2991 RMK AO2 SLP135 T00111061=
201002250252 METAR KATL 250252Z 30011KT 10SM SCT055 02/M07 A2990 RMK AO2 SLP132 T00171067 51012=
201002250152 METAR KATL 250152Z 30009KT 10SM FEW050 02/M07 A2988 RMK AO2 SLP127 T00171067=
201002250052 METAR KATL 250052Z 31012G18KT 10SM CLR 02/M07 A2988 RMK AO2 SLP124 T00221067=
201002242352 METAR KATL 242352Z 31012G22KT 10SM FEW050 03/M07 A2986 RMK AO2 PK WND 31026/2305 SLP119 T00331072 10089 20033 53016=
201002242252 METAR KATL 242252Z 32020G24KT 10SM FEW050 06/M06 A2983 RMK AO2 PK WND 32028/2205 SLP107 T00561056=
201002242152 METAR KATL 242152Z 30017G23KT 10SM FEW050 08/M04 A2980 RMK AO2 SLP096 T00781044=
201002242052 METAR KATL 242052Z 32016G22KT 10SM FEW050 SCT200 08/M04 A2981 RMK AO2 SLP101 T00831039 55016=
201002241952 METAR KATL 241952Z 32011G20KT 10SM FEW040 SCT100 SCT200 08/M03 A2981 RMK AO2 SLP100 T00781028=
201002241852 METAR KATL 241852Z 28013G18KT 10SM FEW040 SCT110 BKN200 08/M02 A2985 RMK AO2 SLP114 T00781022=
201002241752 METAR KATL 241752Z 28010KT 10SM FEW080 SCT150 BKN200 06/M02 A2986 RMK AO2 SLP118 60000 T00611017 10061 20017 58011=
201002241652 SPECI KATL 241652Z 30009KT 10SM FEW020 BKN080 OVC150 04/M02 A2988 RMK AO2 SNE1555 SLP125 P0000 T00391017=
201002241556 SPECI KATL 241556Z 28007KT 10SM FEW018 BKN040 OVC080 03/M02 A2989 RMK AO2 SNE55 VIRGA OHD & ALQDS SHSN NE-SE P0000=
201002241556 SPECI KATL 241556Z 28007KT 10SM FEW018 BKN040 OVC080 03/M02 A2989 RMK AO2 SNE55 VIRGA OHD & ALQDS SHSN NE-SE P0000=
201002241552 METAR KATL 241552Z 28007KT 9SM -SN FEW020 BKN040 OVC080 02/M02 A2990 RMK AO2 SNB31 SLP130 VIS LWR NE-S SHSN P0000 T00221017=
201002241538 SPECI KATL 241538Z 28010KT 7SM -SN BKN020 BKN040 OVC080 02/M02 A2990 RMK AO2 SNB31 P0000=
201002241538 SPECI KATL 241538Z 28010KT 7SM -SN BKN020 BKN040 OVC080 02/M02 A2990 RMK AO2 SNB31 P0000=
201002241533 SPECI KATL 241533Z 29011KT 9SM -SN FEW025 BKN040 OVC080 02/M02 A2990 RMK AO2 SNB31 P0000=
201002241533 SPECI KATL 241533Z 29011KT 9SM -SN FEW025 BKN040 OVC080 02/M02 A2990 RMK AO2 SNB31 P0000=
201002241452 METAR KATL 241452Z 29011KT 10SM FEW030 BKN050 OVC080 02/M02 A2990 RMK AO2 SLP132 VIRGA OHD & ALQDS T00171022 53008=
201002241407 SPECI KATL 241407Z 31011G19KT 10SM BKN065 BKN080 OVC150 02/M03 A2989 RMK AO2 VIRGA OHD & ALQDS=
201002241407 SPECI KATL 241407Z 31011G19KT 10SM BKN065 BKN080 OVC150 02/M03 A2989 RMK AO2 VIRGA OHD & ALQDS=
201002241352 METAR KATL 241352Z 31012KT 10SM BKN065 OVC080 02/M02 A2988 RMK AO2 SLP123 T00171022=
201002241252 METAR KATL 241252Z 32011KT 10SM BKN055 BKN075 02/M03 A2985 RMK AO2 SLP115 T00171028=
201002241152 METAR KATL 241152Z 31006KT 10SM BKN055 BKN075 02/M02 A2987 RMK AO2 SLP122 T00171022 10028 20017 51019=
201002241052 METAR KATL 241052Z 29008KT 10SM BKN070 OVC100 02/M02 A2986 RMK AO2 SLP118 T00171022=
201002240952 METAR KATL 240952Z 32011KT 10SM BKN080 BKN100 02/M02 A2984 RMK AO2 SLP109 T00171022=
201002240852 METAR KATL 240852Z 33013G18KT 10SM BKN080 BKN140 02/M02 A2982 RMK AO2 SLP101 T00171022 56013=
201002240752 METAR KATL 240752Z 33015G20KT 10SM BKN080 OVC100 02/M02 A2983 RMK AO2 SLP105 T00221017=
201002240652 METAR KATL 240652Z 32011KT 10SM BKN100 02/M02 A2984 RMK AO2 SLP108 T00221017=
201002240552 METAR KATL 240552Z 32013KT 10SM FEW022 SCT120 OVC250 03/M02 A2986 RMK AO2 SLP115 T00281017 10061 20028 58003=
201002240536 SPECI KATL 240536Z 32010KT 10SM SCT022 OVC250 03/M02 A2986 RMK AO2=
201002240536 SPECI KATL 240536Z 32010KT 10SM SCT022 OVC250 03/M02 A2986 RMK AO2=
201002240452 METAR KATL 240452Z 32015G18KT 10SM OVC022 03/M01 A2988 RMK AO2 SLP122 T00331011 401110033=
201002240352 METAR KATL 240352Z 32014G19KT 10SM OVC022 03/M01 A2987 RMK AO2 SLP119 T00331011=
201002240252 METAR KATL 240252Z 32012KT 10SM OVC022 04/M01 A2987 RMK AO2 SLP118 T00391006 51004=
201002240152 METAR KATL 240152Z 32015KT 10SM OVC024 04/M01 A2986 RMK AO2 SLP116 T00441006=
201002240052 METAR KATL 240052Z 33014KT 10SM OVC026 05/M01 A2987 RMK AO2 SLP118 T00501006=
201002232352 METAR KATL 232352Z 31011KT 10SM OVC028 06/00 A2986 RMK AO2 SLP114 T00610000 10111 20061 53015=
201002232252 METAR KATL 232252Z 32012KT 10SM OVC030 07/01 A2984 RMK AO2 SLP107 T00670006=
201002232208 SPECI KATL 232208Z 34014G21KT 10SM OVC030 07/01 A2982 RMK AO2=
201002232208 SPECI KATL 232208Z 34014G21KT 10SM OVC030 07/01 A2982 RMK AO2=
201002232152 METAR KATL 232152Z 30015KT 10SM BKN029 07/01 A2982 RMK AO2 SLP101 T00720011=
201002232135 SPECI KATL 232135Z 31014G23KT 10SM BKN029 08/01 A2982 RMK AO2=
201002232135 SPECI KATL 232135Z 31014G23KT 10SM BKN029 08/01 A2982 RMK AO2=
201002232052 METAR KATL 232052Z 31017G23KT 10SM BKN033 09/02 A2981 RMK AO2 SLP097 T00940022 55006=
201002231952 METAR KATL 231952Z 26012G19KT 10SM SCT036 11/02 A2981 RMK AO2 SLP094 T01060022=
201002231852 METAR KATL 231852Z 30010KT 10SM SCT030 10/03 A2980 RMK AO2 SLP092 T01000028=
201002231752 METAR KATL 231752Z 33009KT 10SM BKN028 09/03 A2983 RMK AO2 SLP102 T00940028 10094 20067 50002=
201002231652 METAR KATL 231652Z 29012KT 10SM BKN020 OVC025 08/03 A2985 RMK AO2 SLP109 BINOVC T00780033=
201002231552 METAR KATL 231552Z 31010KT 10SM FEW012 BKN019 OVC025 08/04 A2983 RMK AO2 SLP103 BINOVC T00780039=
201002231452 METAR KATL 231452Z 30012KT 10SM FEW012 BKN019 BKN027 08/05 A2982 RMK AO2 SLP099 T00830050 51010=
201002231352 METAR KATL 231352Z 31010KT 10SM BKN010 OVC014 07/05 A2981 RMK AO2 SLP095 T00720050=
201002231349 SPECI KATL 231349Z 31010KT 10SM BKN010 OVC014 07/05 A2981 RMK AO2=
201002231349 SPECI KATL 231349Z 31010KT 10SM BKN010 OVC014 07/05 A2981 RMK AO2=
201002231252 METAR KATL 231252Z 31011KT 10SM BKN008 BKN012 07/05 A2979 RMK AO2 SLP089 T00670050=
201002231237 SPECI KATL 231237Z 30009KT 10SM BKN008 BKN012 07/06 A2978 RMK AO2=
201002231237 SPECI KATL 231237Z 30009KT 10SM BKN008 BKN012 07/06 A2978 RMK AO2=
201002231210 SPECI KATL 231210Z 31008KT 10SM OVC010 07/06 A2978 RMK AO2=
201002231210 SPECI KATL 231210Z 31008KT 10SM OVC010 07/06 A2978 RMK AO2=
201002231152 METAR KATL 231152Z 30009KT 10SM OVC008 07/06 A2977 RMK AO2 SLP083 T00720056 10089 20061 53010=
201002231052 METAR KATL 231052Z 30008KT 6SM BR OVC008 07/06 A2976 RMK AO2 SLP077 T00720061=
201002231024 SPECI KATL 231024Z 31006KT 6SM BR BKN008 07/06 A2975 RMK AO2=
201002231024 SPECI KATL 231024Z 31006KT 6SM BR BKN008 07/06 A2975 RMK AO2=
201002230952 METAR KATL 230952Z 29005KT 10SM SCT018 07/06 A2975 RMK AO2 SLP073 T00670056=
201002230937 SPECI KATL 230937Z 29004KT 10SM FEW010 BKN018 07/06 A2974 RMK AO2=
201002230937 SPECI KATL 230937Z 29004KT 10SM FEW010 BKN018 07/06 A2974 RMK AO2=
201002230852 METAR KATL 230852Z 30007KT 10SM BKN012 OVC023 08/07 A2974 RMK AO2 SLP072 T00780067 51004=
201002230752 METAR KATL 230752Z 31007KT 10SM BKN012 08/07 A2974 RMK AO2 SLP072 T00830072=
201002230741 SPECI KATL 230741Z 31006KT 10SM BKN012 BKN017 08/07 A2975 RMK AO2=
201002230741 SPECI KATL 230741Z 31006KT 10SM BKN012 BKN017 08/07 A2975 RMK AO2=
201002230652 METAR KATL 230652Z 31009KT 10SM SCT060 08/07 A2974 RMK AO2 SLP070 T00830072=
201002230552 METAR KATL 230552Z 32011KT 10SM FEW055 09/08 A2973 RMK AO2 SLP068 T00890078 10128 20089 55000=
201002230452 METAR KATL 230452Z 32008KT 10SM BKN055 09/08 A2973 RMK AO2 SLP068 T00940083 401500089=
201002230352 METAR KATL 230352Z 29005KT 10SM FEW060 SCT250 10/08 A2972 RMK AO2 SLP064 T01000083=
201002230252 METAR KATL 230252Z 30005KT 10SM BKN060 BKN250 10/08 A2973 RMK AO2 SLP069 T01000083 50004=
201002230152 METAR KATL 230152Z 31005KT 10SM BKN060 BKN250 11/09 A2974 RMK AO2 SLP070 T01110089=
201002230052 METAR KATL 230052Z 32004KT 10SM FEW035 SCT055 BKN200 12/09 A2973 RMK AO2 SLP067 T01170089=
201002230005 SPECI KATL 230005Z 31005KT 10SM SCT027 BKN060 12/09 A2972 RMK AO2=
201002230005 SPECI KATL 230005Z 31005KT 10SM SCT027 BKN060 12/09 A2972 RMK AO2=
201002222352 METAR KATL 222352Z 31003KT 10SM FEW020 BKN027 BKN060 13/09 A2972 RMK AO2 SLP064 T01280094 10150 20128 53007=
201002222252 METAR KATL 222252Z 35006KT 10SM SCT020 BKN035 BKN060 14/11 A2971 RMK AO2 SLP060 T01390106=
201002222250 SPECI KATL 222250Z 36007KT 10SM SCT020 BKN035 BKN060 14/11 A2971 RMK AO2=
201002222250 SPECI KATL 222250Z 36007KT 10SM SCT020 BKN035 BKN060 14/11 A2971 RMK AO2=
201002222154 SPECI KATL 222154Z 00000KT 10SM FEW020 BKN025 BKN060 14/10 A2970 RMK AO2=
201002222154 SPECI KATL 222154Z 00000KT 10SM FEW020 BKN025 BKN060 14/10 A2970 RMK AO2=
201002222152 METAR KATL 222152Z 00000KT 10SM FEW020 SCT025 BKN055 14/11 A2970 RMK AO2 SLP058 T01440106=
201002222052 METAR KATL 222052Z 00000KT 9SM SCT020 BKN025 OVC045 14/11 A2970 RMK AO2 SLP056 T01440106 56015=
201002221952 METAR KATL 221952Z 28003KT 10SM FEW017 BKN020 OVC030 14/11 A2970 RMK AO2 SLP057 T01390106=
201002221859 SPECI KATL 221859Z 32006KT 10SM OVC016 13/11 A2971 RMK AO2=
201002221859 SPECI KATL 221859Z 32006KT 10SM OVC016 13/11 A2971 RMK AO2=
201002221852 METAR KATL 221852Z 31007KT 10SM FEW010 BKN013 OVC018 13/11 A2971 RMK AO2 SLP060 T01330106=
201002221836 SPECI KATL 221836Z 29006KT 10SM FEW010 BKN013 OVC018 13/11 A2972 RMK AO2=
201002221836 SPECI KATL 221836Z 29006KT 10SM FEW010 BKN013 OVC018 13/11 A2972 RMK AO2=
201002221809 SPECI KATL 221809Z 26005KT 9SM FEW010 BKN015 OVC020 13/11 A2974 RMK AO2=
201002221809 SPECI KATL 221809Z 26005KT 9SM FEW010 BKN015 OVC020 13/11 A2974 RMK AO2=
201002221754 SPECI KATL 221754Z 27005KT 9SM BKN010 OVC015 13/11 A2974 RMK AO2 CIG 008V013=
201002221754 SPECI KATL 221754Z 27005KT 9SM BKN010 OVC015 13/11 A2974 RMK AO2 CIG 008V013=
201002221752 METAR KATL 221752Z 29006KT 9SM BKN008 BKN015 OVC020 13/11 A2974 RMK AO2 SLP071 60000 T01330111 10133 20089 56012=
201002221652 METAR KATL 221652Z 00000KT 6SM BR FEW005 BKN008 OVC020 12/11 A2976 RMK AO2 SLP077 T01170111=
201002221637 SPECI KATL 221637Z 28003KT 2SM BR OVC005 12/11 A2976 RMK AO2 SFC VIS 6=
201002221637 SPECI KATL 221637Z 28003KT 2SM BR OVC005 12/11 A2976 RMK AO2 SFC VIS 6=
201002221614 SPECI KATL 221614Z 00000KT 1 1/2SM BR OVC004 11/11 A2975 RMK AO2 SFC VIS 4=
201002221614 SPECI KATL 221614Z 00000KT 1 1/2SM BR OVC004 11/11 A2975 RMK AO2 SFC VIS 4=
201002221552 METAR KATL 221552Z 19004KT 1/4SM BR OVC004 11/10 A2976 RMK AO2 SFC VIS 3 SLP078 T01060100=
201002221452 METAR KATL 221452Z 00000KT 1/4SM BR OVC003 10/09 A2978 RMK AO2 SFC VIS 2 SLP083 60000 T01000094 50013=
201002221352 METAR KATL 221352Z 00000KT 1/4SM BR OVC003 09/09 A2978 RMK AO2 SFC VIS 2 1/2 SLP085 T00940089=
201002221333 SPECI KATL 221333Z 17003KT 1/4SM BR OVC003 09/09 A2977 RMK AO2 SFC VIS 3=
201002221333 SPECI KATL 221333Z 17003KT 1/4SM BR OVC003 09/09 A2977 RMK AO2 SFC VIS 3=
201002221252 METAR KATL 221252Z 00000KT 1 1/2SM BR OVC003 09/08 A2977 RMK AO2 SFC VIS 3 RAE11 SLP082 P0000 T00890083=
201002221229 SPECI KATL 221229Z 26003KT 1 1/2SM BR OVC003 09/08 A2977 RMK AO2 SFC VIS 4 RAE11 P0000=
201002221229 SPECI KATL 221229Z 26003KT 1 1/2SM BR OVC003 09/08 A2977 RMK AO2 SFC VIS 4 RAE11 P0000=
201002221152 METAR KATL 221152Z 13008KT 1/4SM -RA BR OVC003 09/08 A2974 RMK AO2 SFC VIS 3 TSE28RAE16B50 SLP070 TS MOV E P0001 60068 70068 T00890083 10122 20089 58017=
201002221128 SPECI KATL 221128Z 15005KT 1/4SM BR BKN003 OVC006 09/08 A2975 RMK AO2 SFC VIS 5 TSE28RAE16 TS MOV E P0001=
201002221128 SPECI KATL 221128Z 15005KT 1/4SM BR BKN003 OVC006 09/08 A2975 RMK AO2 SFC VIS 5 TSE28RAE16 TS MOV E P0001=
201002221103 SPECI KATL 221103Z 12007KT 5SM -TSRA BR BKN006CB OVC024 09/08 A2974 RMK AO2 LTGIC N & SW-W TS N & SW-W MOV E P0001=
201002221103 SPECI KATL 221103Z 12007KT 5SM -TSRA BR BKN006CB OVC024 09/08 A2974 RMK AO2 LTGIC N & SW-W TS N & SW-W MOV E P0001=
201002221052 METAR KATL 221052Z 11010KT 4SM -TSRA BR BKN012CB OVC024 09/08 A2975 RMK AO2 SLP071 FRQ LTGICCG E & SE TS E & SE MOV E P0028 T00890083=
201002221032 SPECI KATL 221032Z 10010KT 3SM +TSRA BR BKN012CB OVC024 09/08 A2980 RMK AO2 FRQ LTGICCG NE-E & NW TS NE-E & NW MOV E P0019=
201002221032 SPECI KATL 221032Z 10010KT 3SM +TSRA BR BKN012CB OVC024 09/08 A2980 RMK AO2 FRQ LTGICCG NE-E & NW TS NE-E & NW MOV E P0019=
201002221009 SPECI KATL 221009Z 04007KT 4SM TSRA BR BKN023CB OVC038 09/08 A2982 RMK AO2 FRQ LTGICCG E-SE-S TS E-SE-S MOV E P0008=
201002221009 SPECI KATL 221009Z 04007KT 4SM TSRA BR BKN023CB OVC038 09/08 A2982 RMK AO2 FRQ LTGICCG E-SE-S TS E-SE-S MOV E P0008=
201002220952 METAR KATL 220952Z 04006KT 3SM TSRA BR BKN023CB OVC038 09/08 A2983 RMK AO2 PK WND 34028/0908 WSHFT 0858 TSB32 SLP099 CONS LTGICCG SE-S-SW TS SE-S-SW MOV E P0039 T00890083=
201002220940 SPECI KATL 220940Z 02003KT 5SM +TSRA BR BKN023CB OVC038 09/08 A2984 RMK AO2 PK WND 34028/0908 WSHFT 0858 TSB32 CONS LTGICCG S-SW TS S-SW MOV E P0034=
201002220940 SPECI KATL 220940Z 02003KT 5SM +TSRA BR BKN023CB OVC038 09/08 A2984 RMK AO2 PK WND 34028/0908 WSHFT 0858 TSB32 CONS LTGICCG S-SW TS S-SW MOV E P0034=
201002220933 SPECI KATL 220933Z 33006KT 5SM TSRA BR BKN023CB OVC038 09/08 A2983 RMK AO2 PK WND 34028/0908 WSHFT 0858 TSB32 CONS LTGICCG SW & W TS SW & W MOV E P0030=
201002220933 SPECI KATL 220933Z 33006KT 5SM TSRA BR BKN023CB OVC038 09/08 A2983 RMK AO2 PK WND 34028/0908 WSHFT 0858 TSB32 CONS LTGICCG SW & W TS SW & W MOV E P0030=
201002220918 SPECI KATL 220918Z 34011G26KT 5SM +RA BR BKN023 OVC038 09/08 A2984 RMK AO2 PK WND 34028/0908 WSHFT 0858 P0017=
201002220918 SPECI KATL 220918Z 34011G26KT 5SM +RA BR BKN023 OVC038 09/08 A2984 RMK AO2 PK WND 34028/0908 WSHFT 0858 P0017=
201002220909 SPECI KATL 220909Z 33023G28KT 5SM +RA BR BKN023 OVC038 09/08 A2984 RMK AO2 PK WND 34028/0908 P0006=
201002220909 SPECI KATL 220909Z 33023G28KT 5SM +RA BR BKN023 OVC038 09/08 A2984 RMK AO2 PK WND 34028/0908 P0006=
201002220852 METAR KATL 220852Z 00000KT 10SM -RA SCT023 BKN030 OVC035 11/04 A2979 RMK AO2 RAB43 SLP086 P0000 60000 T01110039 55005=
201002220848 SPECI KATL 220848Z 14003KT 10SM -RA BKN026 OVC033 11/04 A2979 RMK AO2 RAB43 P0000=
201002220848 SPECI KATL 220848Z 14003KT 10SM -RA BKN026 OVC033 11/04 A2979 RMK AO2 RAB43 P0000=
201002220752 METAR KATL 220752Z 17004KT 10SM BKN048 BKN110 OVC250 11/04 A2980 RMK AO2 SLP088 T01060039=
201002220652 METAR KATL 220652Z 14003KT 10SM FEW050 SCT140 BKN250 12/03 A2981 RMK AO2 SLP091 T01170033=
201002220552 METAR KATL 220552Z 15006KT 10SM FEW070 SCT250 12/03 A2980 RMK AO2 SLP089 60000 T01170028 10156 20111 58033=
201002220452 METAR KATL 220452Z 15004KT 10SM BKN050 BKN075 12/02 A2986 RMK AO2 SLP108 T01170022 401890033=
201002220352 METAR KATL 220352Z 14005KT 10SM FEW055 SCT075 BKN120 12/02 A2988 RMK AO2 RAB0253E33 SLP115 P0000 T01220022=
201002220252 METAR KATL 220252Z 14004KT 10SM BKN085 BKN110 14/M01 A2990 RMK AO2 SLP126 T01391011 58012=
201002220152 METAR KATL 220152Z 14004KT 10SM SCT120 BKN150 14/M02 A2992 RMK AO2 SLP131 T01391017=
201002220052 METAR KATL 220052Z 14005KT 10SM BKN120 BKN250 14/M02 A2993 RMK AO2 SLP137 T01441017=
201002212352 METAR KATL 212352Z 16004KT 10SM FEW095 SCT150 BKN250 15/M02 A2994 RMK AO2 SLP140 T01501022 10189 20150 55006=
201002212252 METAR KATL 212252Z 15006KT 10SM FEW095 SCT150 BKN200 BKN250 17/M03 A2993 RMK AO2 SLP135 T01721028=
201002212152 METAR KATL 212152Z 17010KT 10SM SCT150 BKN200 BKN250 18/M04 A2994 RMK AO2 SLP140 T01781039=
201002212052 METAR KATL 212052Z 16008KT 10SM FEW150 SCT200 BKN250 18/M04 A2996 RMK AO2 SLP145 T01831039 56031=
201002211952 METAR KATL 211952Z 17005KT 10SM FEW150 SCT200 OVC250 18/M04 A2998 RMK AO2 SLP152 T01831039=
201002211852 METAR KATL 211852Z VRB03G15KT 10SM FEW150 SCT200 OVC250 17/M04 A3002 RMK AO2 SLP165 T01721044=
201002211752 METAR KATL 211752Z 20009KT 10SM SCT250 17/M03 A3006 RMK AO2 SLP178 T01721028 10172 20050 58019=
201002211652 METAR KATL 211652Z 14007KT 10SM FEW200 SCT250 16/M03 A3009 RMK AO2 SLP189 T01611028=
201002211552 METAR KATL 211552Z 16006KT 10SM FEW150 SCT200 SCT250 14/M02 A3011 RMK AO2 SLP197 T01441022=
201002211452 METAR KATL 211452Z VRB03KT 10SM FEW150 SCT200 BKN250 11/M02 A3011 RMK AO2 SLP198 T01111017 50002=
201002211352 METAR KATL 211352Z 10005KT 10SM FEW250 08/M02 A3012 RMK AO2 SLP200 T00831022=
201002211252 METAR KATL 211252Z 10003KT 10SM FEW250 06/M04 A3011 RMK AO2 SLP197 T00611044=
201002211152 METAR KATL 211152Z 00000KT 10SM CLR 05/M04 A3011 RMK AO2 SLP197 T00501039 10078 20033 53003=
201002211052 METAR KATL 211052Z 00000KT 10SM CLR 03/M03 A3010 RMK AO2 SLP195 T00331033=
201002210952 METAR KATL 210952Z 00000KT 10SM CLR 06/M04 A3009 RMK AO2 SLP191 T00561039=
201002210852 METAR KATL 210852Z 00000KT 10SM CLR 07/M03 A3010 RMK AO2 SLP193 T00671033 58002=
201002210752 METAR KATL 210752Z 00000KT 10SM FEW250 06/M03 A3010 RMK AO2 SLP194 T00611033=
201002210652 METAR KATL 210652Z 00000KT 10SM FEW250 07/M03 A3012 RMK AO2 SLP199 T00721033=
201002210552 METAR KATL 210552Z 00000KT 10SM SCT250 07/M03 A3010 RMK AO2 SLP195 T00721033 10144 20067 57005=
201002210452 METAR KATL 210452Z 00000KT 10SM SCT250 07/M03 A3011 RMK AO2 SLP199 T00671033 401720000=
201002210352 METAR KATL 210352Z 00000KT 10SM FEW250 08/M04 A3011 RMK AO2 SLP199 T00781039=
201002210252 METAR KATL 210252Z 36003KT 10SM FEW250 09/M04 A3012 RMK AO2 SLP202 T00941044 51006=
201002210152 METAR KATL 210152Z 34005KT 10SM CLR 12/M07 A3012 RMK AO2 SLP202 T01221067=
201002210052 METAR KATL 210052Z 34004KT 10SM CLR 13/M07 A3011 RMK AO2 SLP201 T01281067=
201002202352 METAR KATL 202352Z 33005KT 10SM FEW250 14/M06 A3010 RMK AO2 SLP198 T01391061 10172 20139 53000=
201002202252 METAR KATL 202252Z 30003KT 10SM FEW250 15/M06 A3010 RMK AO2 SLP195 T01501061=
201002202152 METAR KATL 202152Z VRB03KT 10SM FEW150 SCT250 17/M06 A3010 RMK AO2 SLP196 T01721056=
201002202052 METAR KATL 202052Z 26003KT 10SM FEW150 BKN250 17/M06 A3010 RMK AO2 SLP196 T01671056 56019=
201002201952 METAR KATL 201952Z 00000KT 10SM FEW150 OVC250 16/M06 A3011 RMK AO2 SLP200 T01611056=
201002201852 METAR KATL 201852Z VRB03KT 10SM FEW150 BKN250 16/M05 A3013 RMK AO2 SLP205 T01561050=
201002201752 METAR KATL 201752Z VRB03KT 10SM FEW150 SCT250 14/M05 A3016 RMK AO2 SLP216 T01391050 10139 20006 58010=
201002201652 METAR KATL 201652Z 00000KT 10SM FEW250 13/M05 A3018 RMK AO2 SLP223 T01281050=
201002201552 METAR KATL 201552Z 05004KT 10SM FEW250 11/M04 A3019 RMK AO2 SLP225 T01111044=
201002201452 METAR KATL 201452Z 05003KT 10SM CLR 09/M04 A3019 RMK AO2 SLP227 T00941039 51014=
201002201352 METAR KATL 201352Z 33006KT 10SM CLR 05/M04 A3019 RMK AO2 SLP226 T00501039=
201002201252 METAR KATL 201252Z 33006KT 10SM CLR 01/M05 A3016 RMK AO2 SLP220 T00111050=
201002201152 METAR KATL 201152Z 33003KT 10SM CLR 01/M06 A3015 RMK AO2 SLP214 T00111056 10028 20000 53012=
201002201052 METAR KATL 201052Z 33004KT 10SM CLR 01/M06 A3014 RMK AO2 SLP210 T00111056=
201002200952 METAR KATL 200952Z 32005KT 10SM CLR 01/M06 A3012 RMK AO2 SLP205 T00111056=
201002200852 METAR KATL 200852Z 32008KT 10SM CLR 01/M06 A3011 RMK AO2 SLP201 T00111056 56005 $=
201002200752 METAR KATL 200752Z 32006KT 10SM CLR 02/M06 A3012 RMK AO2 SLP202 T00171056=
201002200652 METAR KATL 200652Z 31006KT 10SM CLR 03/M06 A3013 RMK AO2 SLP206 T00281056=
201002200552 METAR KATL 200552Z 32006KT 10SM FEW200 03/M06 A3013 RMK AO2 SLP207 T00331056 10094 20033 58008=
201002200452 METAR KATL 200452Z 30003KT 10SM FEW200 06/M07 A3014 RMK AO2 SLP209 T00611067 401331006=
201002200352 METAR KATL 200352Z 29003KT 10SM FEW200 06/M07 A3015 RMK AO2 SLP213 T00611067=
201002200252 METAR KATL 200252Z 31005KT 10SM FEW200 06/M07 A3015 RMK AO2 SLP216 T00611067 53013=
201002200152 METAR KATL 200152Z 32005KT 10SM FEW200 08/M07 A3014 RMK AO2 SLP211 T00831072=
201002200052 METAR KATL 200052Z 34006KT 10SM FEW200 09/M07 A3012 RMK AO2 SLP207 T00891072=
201002192352 METAR KATL 192352Z 33007KT 10SM FEW200 SCT250 09/M07 A3011 RMK AO2 SLP203 T00941072 10133 20094 53003=
201002192252 METAR KATL 192252Z 35009KT 10SM FEW150 SCT200 SCT250 12/M08 A3011 RMK AO2 SLP200 T01171078=
201002192152 METAR KATL 192152Z 32009KT 10SM FEW150 SCT200 BKN250 12/M08 A3010 RMK AO2 SLP197 T01221078=
201002192052 METAR KATL 192052Z 33010G15KT 10SM FEW150 BKN200 BKN250 13/M07 A3010 RMK AO2 SLP198 T01331067 56018=
201002191952 METAR KATL 191952Z 32011G14KT 10SM SCT150 BKN200 OVC250 13/M06 A3011 RMK AO2 SLP201 T01281061=
201002191852 METAR KATL 191852Z 33010KT 10SM SCT150 OVC250 12/M06 A3012 RMK AO2 SLP203 T01171061=
201002191752 METAR KATL 191752Z 33009KT 10SM SCT150 OVC250 12/M06 A3016 RMK AO2 SLP216 T01171056 10117 21006 58007=
201002191652 METAR KATL 191652Z 32008KT 10SM SCT150 OVC250 10/M03 A3016 RMK AO2 SLP219 T01001033=
201002191552 METAR KATL 191552Z 32006KT 10SM SCT150 BKN250 08/M02 A3018 RMK AO2 SLP225 T00781022=
201002191452 METAR KATL 191452Z 33009KT 10SM SCT150 BKN250 06/M03 A3018 RMK AO2 SLP224 T00611028 51014=
201002191352 METAR KATL 191352Z 32009KT 10SM BKN250 03/M03 A3017 RMK AO2 SLP224 T00331033=
201002191252 METAR KATL 191252Z 31006KT 10SM SCT250 01/M04 A3015 RMK AO2 SLP217 T00061039=
201002191152 METAR KATL 191152Z 32007KT 10SM FEW250 M01/M04 A3014 RMK AO2 SLP212 T10061039 10028 21006 53007=
201002191052 METAR KATL 191052Z 31007KT 10SM CLR M01/M04 A3013 RMK AO2 SLP208 T10061044=
201002190952 METAR KATL 190952Z 30006KT 10SM CLR 01/M04 A3011 RMK AO2 SLP202 T00061044=
201002190852 METAR KATL 190852Z 32007KT 10SM CLR 01/M04 A3011 RMK AO2 SLP202 T00061044 55003=
201002190752 METAR KATL 190752Z 31006KT 10SM CLR 01/M04 A3011 RMK AO2 SLP201 T00111044=
201002190652 METAR KATL 190652Z 31006KT 10SM CLR 02/M04 A3012 RMK AO2 SLP203 T00171044=
201002190552 METAR KATL 190552Z 30007KT 10SM SCT250 03/M04 A3012 RMK AO2 SLP205 T00281044 10072 20028 53004=
201002190452 METAR KATL 190452Z 30006KT 10SM FEW250 03/M04 A3011 RMK AO2 SLP203 T00331044 401061022=
201002190352 METAR KATL 190352Z 32008KT 10SM FEW250 03/M04 A3011 RMK AO2 SLP202 T00331044=
201002190252 METAR KATL 190252Z 30006KT 10SM FEW250 05/M05 A3011 RMK AO2 SLP203 T00501050 53009=
201002190152 METAR KATL 190152Z 31007KT 10SM FEW250 06/M05 A3010 RMK AO2 SLP200 T00561050=
201002190052 METAR KATL 190052Z 31006KT 10SM FEW250 07/M05 A3009 RMK AO2 SLP197 T00671050=
201002182352 METAR KATL 182352Z 32007KT 10SM FEW250 07/M06 A3008 RMK AO2 SLP195 T00721056 10106 20072 51010=
201002182252 METAR KATL 182252Z 31011KT 10SM FEW250 09/M05 A3008 RMK AO2 SLP191 T00941050=
201002182152 METAR KATL 182152Z 30010G16KT 10SM FEW250 11/M04 A3007 RMK AO2 SLP188 T01061044=
201002182052 METAR KATL 182052Z 31013G18KT 10SM FEW250 11/M04 A3005 RMK AO2 SLP183 T01061044 56017=
201002181952 METAR KATL 181952Z 32014G22KT 10SM FEW250 10/M05 A3007 RMK AO2 SLP187 T01001050=
201002181852 METAR KATL 181852Z 33014G19KT 10SM FEW250 09/M05 A3007 RMK AO2 SLP189 T00891050=
201002181752 METAR KATL 181752Z 31012G17KT 10SM FEW250 08/M04 A3010 RMK AO2 SLP201 T00831044 10083 21017 58009=
201002181652 METAR KATL 181652Z 32014KT 10SM CLR 06/M06 A3013 RMK AO2 SLP210 T00611056=
201002181552 METAR KATL 181552Z 33017G21KT 10SM CLR 04/M07 A3013 RMK AO2 SLP210 T00441072=
201002181452 METAR KATL 181452Z 33011G19KT 10SM CLR 03/M06 A3013 RMK AO2 SLP211 T00281061 51016=
201002181352 METAR KATL 181352Z 30010KT 10SM CLR 01/M06 A3013 RMK AO2 SLP210 T00061056=
201002181252 METAR KATL 181252Z 29009KT 10SM CLR M01/M06 A3010 RMK AO2 SLP201 T10111056=
201002181152 METAR KATL 181152Z 30008KT 10SM CLR M02/M06 A3008 RMK AO2 SLP195 T10171061 11011 21022 53014=
201002181052 METAR KATL 181052Z 28006KT 10SM CLR M02/M06 A3007 RMK AO2 SLP190 T10171061=
201002180952 METAR KATL 180952Z 30006KT 10SM FEW050 M02/M06 A3005 RMK AO2 SLP184 T10171061=
201002180852 METAR KATL 180852Z 30004KT 10SM FEW049 M02/M07 A3004 RMK AO2 SLP180 T10221067 50003=
201002180752 METAR KATL 180752Z 28005KT 10SM SCT049 M02/M06 A3004 RMK AO2 SLP181 T10171061=
201002180652 METAR KATL 180652Z 29006KT 10SM SCT049 M02/M06 A3005 RMK AO2 SLP183 T10171061=
201002180552 METAR KATL 180552Z 30008KT 10SM FEW050 M01/M06 A3003 RMK AO2 SLP178 T10111061 10039 21011 50001=
201002180452 METAR KATL 180452Z 30005KT 10SM FEW050 M01/M07 A3004 RMK AO2 SLP180 T10111067 400671028=
201002180352 METAR KATL 180352Z COR 33008KT 10SM FEW050 01/M06 A3003 RMK AO2 SLP179 T00061061=
201002180252 METAR KATL 180252Z 31009KT 10SM CLR 01/M07 A3003 RMK AO2 SLP178 T00111072 51015=
201002180152 METAR KATL 180152Z 31009KT 10SM CLR 02/M08 A3002 RMK AO2 SLP174 T00221078=
201002180052 METAR KATL 180052Z 31007KT 10SM CLR 03/M08 A3000 RMK AO2 SLP170 T00281078=
201002172352 METAR KATL 172352Z 32009KT 10SM CLR 03/M08 A2998 RMK AO2 SLP163 T00331083 10067 20033 53015=
201002172252 METAR KATL 172252Z 30011KT 10SM CLR 06/M08 A2996 RMK AO2 SLP153 T00561083=
201002172152 METAR KATL 172152Z 28017KT 10SM CLR 06/M08 A2994 RMK AO2 SLP147 T00611083=
201002172052 METAR KATL 172052Z 30015G20KT 10SM CLR 07/M09 A2994 RMK AO2 SLP145 T00671089 56018=
201002171952 METAR KATL 171952Z 30013G21KT 10SM FEW060 06/M08 A2995 RMK AO2 SLP150 T00611078=
201002171852 METAR KATL 171852Z 29008G19KT 260V320 10SM FEW050 04/M07 A2997 RMK AO2 SLP156 T00441067=
201002171752 METAR KATL 171752Z 29013G18KT 10SM FEW044 03/M07 A2999 RMK AO2 SLP166 T00331067 10033 21028 58009=
201002171652 METAR KATL 171652Z 30009KT 10SM FEW040 02/M07 A3001 RMK AO2 SLP172 T00171067=
201002171552 METAR KATL 171552Z 29008KT 10SM SCT034 01/M07 A3002 RMK AO2 SLP176 T00061067=
201002171452 METAR KATL 171452Z 32012KT 10SM FEW022 BKN032 M01/M07 A3002 RMK AO2 SLP176 T10111072 51012=
201002171352 METAR KATL 171352Z 31014G19KT 10SM SCT022 BKN032 M02/M08 A3001 RMK AO2 SLP175 T10221078=
201002171252 METAR KATL 171252Z 30013KT 10SM BKN022 M03/M08 A3000 RMK AO2 SLP170 T10281078=
201002171152 METAR KATL 171152Z 32015G19KT 10SM OVC022 M02/M07 A2999 RMK AO2 SLP165 T10221072 11022 21022 53005=
201002171052 METAR KATL 171052Z 32010KT 10SM OVC022 M02/M07 A2997 RMK AO2 SLP158 T10221072=
201002170952 METAR KATL 170952Z 32008KT 10SM OVC022 M02/M07 A2998 RMK AO2 SLP162 T10221072=
201002170852 METAR KATL 170852Z 32011KT 10SM OVC022 M02/M07 A2997 RMK AO2 SLP159 T10221072 58005=
201002170752 METAR KATL 170752Z 33014G20KT 10SM OVC024 M02/M07 A2997 RMK AO2 SLP160 T10221072=
201002170652 METAR KATL 170652Z 31014G19KT 10SM OVC024 M02/M07 A2998 RMK AO2 SLP164 T10221072=
201002170552 METAR KATL 170552Z 32010KT 10SM OVC028 M02/M07 A2999 RMK AO2 SLP164 T10221072 11011 21022 58009=
201002170520 SPECI KATL 170520Z 33012KT 10SM OVC028 M02/M07 A3000 RMK AO2=
201002170520 SPECI KATL 170520Z 33012KT 10SM OVC028 M02/M07 A3000 RMK AO2=
201002170452 METAR KATL 170452Z 31013KT 10SM OVC032 M02/M08 A3000 RMK AO2 SLP171 T10221078 400171050=
201002170352 METAR KATL 170352Z 32011G21KT 10SM BKN032 M02/M08 A3001 RMK AO2 SLP173 T10171078=
201002170252 METAR KATL 170252Z 31013G19KT 10SM OVC031 M02/M08 A3001 RMK AO2 SLP175 T10171078 51002=
201002170152 METAR KATL 170152Z 32014G17KT 10SM OVC033 M01/M08 A3001 RMK AO2 SLP175 T10111078=
201002170052 METAR KATL 170052Z 30014G18KT 10SM OVC035 M01/M08 A3001 RMK AO2 SLP176 T10111083=
201002162352 METAR KATL 162352Z 30014G21KT 10SM BKN035 M02/M08 A3001 RMK AO2 SLP174 T10171083 10017 21017 53008=
201002162252 METAR KATL 162252Z 30012G17KT 10SM BKN035 M01/M08 A3000 RMK AO2 SLP171 T10111083=
201002162152 METAR KATL 162152Z 29013G20KT 10SM BKN034 M01/M08 A2999 RMK AO2 SLP166 T10111078=
201002162052 SPECI KATL 162052Z 33017G23KT 10SM BKN036 00/M08 A2998 RMK AO2 SLP165 T00001083 55007=
201002161952 METAR KATL 161952Z 32016G23KT 10SM SCT036 01/M08 A2998 RMK AO2 SLP163 T00061078=
201002161852 METAR KATL 161852Z 30015G22KT 10SM FEW035 01/M08 A2998 RMK AO2 SLP163 T00111078=
201002161752 METAR KATL 161752Z 30014G20KT 10SM FEW035 01/M08 A3001 RMK AO2 SLP171 60000 T00061083 10011 21050 58010=
201002161652 SPECI KATL 161652Z 30015KT 10SM FEW035 M01/M09 A3002 RMK AO2 SLP177 T10061089=
201002161552 METAR KATL 161552Z 30011KT 10SM FEW031 M02/M09 A3003 RMK AO2 SLP181 T10171094=
201002161538 SPECI KATL 161538Z 33013G18KT 10SM FEW031 M02/M10 A3004 RMK AO2=
201002161538 SPECI KATL 161538Z 33013G18KT 10SM FEW031 M02/M10 A3004 RMK AO2=
201002161501 SPECI KATL 161501Z 31015G19KT 10SM BKN030 M04/M10 A3004 RMK AO2=
201002161501 SPECI KATL 161501Z 31015G19KT 10SM BKN030 M04/M10 A3004 RMK AO2=
201002161452 METAR KATL 161452Z 32012G18KT 10SM BKN028 M03/M09 A3004 RMK AO2 SNE16 SLP183 P0000 60000 T10331094 51016=
201002161416 SPECI KATL 161416Z 30014KT 9SM BKN028 M04/M10 A3003 RMK AO2 SNE16 P0000=
201002161416 SPECI KATL 161416Z 30014KT 9SM BKN028 M04/M10 A3003 RMK AO2 SNE16 P0000=
201002161352 METAR KATL 161352Z 30010KT 9SM -SN BKN027 M04/M10 A3003 RMK AO2 PK WND 32026/1333 SNB47 SLP181 P0000 T10391100=
201002161252 METAR KATL 161252Z 32013G21KT 10SM BKN027 BKN033 M04/M10 A3001 RMK AO2 SLP175 T10441100=
201002161152 METAR KATL 161152Z 28012KT 10SM BKN027 BKN034 M04/M10 A2999 RMK AO2 SLP166 60000 70004 T10441100 11022 21044 53012=
201002161052 METAR KATL 161052Z 30013KT 10SM BKN029 OVC035 M04/M10 A2998 RMK AO2 SLP161 T10441100=
201002160952 METAR KATL 160952Z 29010G20KT 10SM BKN026 OVC035 M04/M10 A2996 RMK AO2 SNE0856 SLP156 P0000 T10391100=
201002160852 METAR KATL 160852Z 29015KT 9SM -SN OVC024 M03/M08 A2995 RMK AO2 SNB46 SLP151 P0000 60000 T10331078 56002=
201002160752 METAR KATL 160752Z 32017G23KT 10SM BKN028 OVC035 M03/M09 A2995 RMK AO2 SLP151 T10281089=
201002160748 SPECI KATL 160748Z 31016G23KT 10SM BKN028 OVC035 M03/M09 A2995 RMK AO2=
201002160748 SPECI KATL 160748Z 31016G23KT 10SM BKN028 OVC035 M03/M09 A2995 RMK AO2=
201002160652 METAR KATL 160652Z 31011G18KT 10SM BKN032 OVC040 M03/M09 A2996 RMK AO2 PK WND 32026/0605 SNE15 SLP153 P0000 T10281089=
201002160608 SPECI KATL 160608Z 32016G26KT 7SM -SN SCT028 OVC040 M03/M07 A2996 RMK AO2 PK WND 32026/0605 P0000=
201002160608 SPECI KATL 160608Z 32016G26KT 7SM -SN SCT028 OVC040 M03/M07 A2996 RMK AO2 PK WND 32026/0605 P0000=
201002160552 METAR KATL 160552Z COR 30017G23KT 10SM -SN FEW028 OVC040 M02/M08 A2995 RMK AO2 SNB40 SLP151 P0000 60000 931000 T10221078 10011 21022 51008=
201002160452 METAR KATL 160452Z 31014KT 10SM SCT035 OVC070 M02/M08 A2994 RMK AO2 PK WND 32026/0407 SLP149 T10221083 400781022=
201002160352 METAR KATL 160352Z 31014G17KT 10SM FEW030 BKN075 OVC110 M02/M08 A2994 RMK AO2 SLP148 T10171078=
201002160252 METAR KATL 160252Z 31012KT 10SM OVC080 M01/M08 A2993 RMK AO2 SLP143 T10111078 51017=
201002160152 METAR KATL 160152Z 31011G17KT 10SM OVC090 M01/M08 A2992 RMK AO2 SLP141 T10061078=
201002160052 METAR KATL 160052Z 31016G20KT 10SM BKN100 OVC200 M01/M07 A2991 RMK AO2 SLP135 T10061072=
201002152352 METAR KATL 152352Z 31014KT 10SM FEW050 SCT200 01/M07 A2988 RMK AO2 SLP124 T00111072 10056 20011 53018=
201002152252 METAR KATL 152252Z 32014KT 10SM SCT050 SCT200 03/M07 A2985 RMK AO2 SLP114 T00281067=
201002152152 METAR KATL 152152Z 32010KT 10SM SCT045 04/M07 A2983 RMK AO2 SLP105 T00441067=
201002152052 METAR KATL 152052Z 33012KT 10SM SCT045 05/M06 A2982 RMK AO2 SLP103 T00501061 56012=
201002151952 METAR KATL 151952Z 31014KT 10SM FEW050 06/M07 A2983 RMK AO2 SLP104 T00561067=
201002151852 METAR KATL 151852Z 29014G20KT 10SM FEW045 05/M06 A2984 RMK AO2 SLP109 T00501061=
201002151752 METAR KATL 151752Z 29013G21KT 10SM FEW040 SCT150 04/M07 A2986 RMK AO2 SLP115 60004 T00391067 10039 20006 58009=
201002151652 METAR KATL 151652Z 31013G17KT 10SM FEW030 SCT150 SCT250 03/M05 A2988 RMK AO2 SLP121 T00281050=
201002151552 METAR KATL 151552Z 29013G21KT 10SM SCT025 BKN150 BKN200 01/M06 A2988 RMK AO2 SLP125 T00061061=
201002151518 SPECI KATL 151518Z 30016KT 10SM SCT021 BKN150 01/M05 A2989 RMK AO2=
201002151518 SPECI KATL 151518Z 30016KT 10SM SCT021 BKN150 01/M05 A2989 RMK AO2=
201002151452 METAR KATL 151452Z 30015G22KT 10SM BKN021 BKN150 01/M03 A2988 RMK AO2 SLP125 60004 T00061028 53024=
201002151352 METAR KATL 151352Z 29012G20KT 10SM SCT014 BKN029 BKN085 02/M01 A2986 RMK AO2 RAE00 SLP114 P0000 T00171006=
201002151300 SPECI KATL 151300Z 27008G16KT 10SM FEW012 BKN017 OVC024 03/02 A2983 RMK AO2 RAE00 P0000=
201002151300 SPECI KATL 151300Z 27008G16KT 10SM FEW012 BKN017 OVC024 03/02 A2983 RMK AO2 RAE00 P0000=
201002151252 METAR KATL 151252Z 27012KT 7SM -RA BKN014 OVC019 03/02 A2983 RMK AO2 PK WND 29026/1154 SLP104 P0004 T00280017=
201002151244 SPECI KATL 151244Z 27010G16KT 8SM -RA BKN014 OVC019 03/02 A2983 RMK AO2 PK WND 29026/1154 P0004=
201002151244 SPECI KATL 151244Z 27010G16KT 8SM -RA BKN014 OVC019 03/02 A2983 RMK AO2 PK WND 29026/1154 P0004=
201002151152 METAR KATL 151152Z 28020G27KT 6SM RA BR BKN007 OVC014 03/02 A2981 RMK AO2 PK WND 27030/1131 SLP099 P0009 60013 70013 T00330017 10072 20033 53009=
201002151144 SPECI KATL 151144Z 27014G24KT 7SM RA BKN007 OVC014 04/02 A2981 RMK AO2 PK WND 27030/1131 P0008=
201002151144 SPECI KATL 151144Z 27014G24KT 7SM RA BKN007 OVC014 04/02 A2981 RMK AO2 PK WND 27030/1131 P0008=
201002151052 METAR KATL 151052Z 22012KT 6SM -RA BR BKN010 OVC014 05/04 A2978 RMK AO2 CIG 007V012 SLP087 P0000 T00500039=
201002151026 SPECI KATL 151026Z 22011KT 6SM -RA BR BKN019 BKN025 OVC031 04/03 A2977 RMK AO2 P0000=
201002151026 SPECI KATL 151026Z 22011KT 6SM -RA BR BKN019 BKN025 OVC031 04/03 A2977 RMK AO2 P0000=
201002150952 METAR KATL 150952Z 20011KT 6SM -RA BR SCT025 OVC038 04/03 A2979 RMK AO2 SLP089 P0004 T00440028=
201002150852 METAR KATL 150852Z 24014G21KT 10SM -RA SCT022 BKN029 OVC047 06/02 A2984 RMK AO2 PK WND 23028/0812 RAB03 SLP106 P0000 60000 T00560022 55010=
201002150752 METAR KATL 150752Z 21009KT 10SM SCT065 BKN100 07/02 A2983 RMK AO2 SLP103 T00720017=
201002150652 METAR KATL 150652Z 19006KT 10SM BKN060 OVC150 07/03 A2985 RMK AO2 SLP112 T00720033=
201002150552 METAR KATL 150552Z 20006KT 10SM OVC048 07/03 A2987 RMK AO2 SLP118 T00720033 10100 20072 58016=
201002150452 METAR KATL 150452Z 22004KT 10SM OVC050 08/03 A2989 RMK AO2 SLP126 T00780028 401171033=
201002150352 METAR KATL 150352Z 24005KT 10SM SCT040 OVC055 08/03 A2990 RMK AO2 SLP130 T00830028=
201002150252 METAR KATL 150252Z 25007KT 10SM OVC055 08/03 A2992 RMK AO2 SLP136 T00830028 50003=
201002150152 METAR KATL 150152Z 24007KT 10SM BKN060 09/02 A2992 RMK AO2 SLP138 T00890022=
201002150052 METAR KATL 150052Z 23007KT 10SM FEW045 OVC065 09/M01 A2992 RMK AO2 SLP139 T00941006=
201002142352 METAR KATL 142352Z 23008KT 10SM OVC055 10/M02 A2991 RMK AO2 SLP134 T01001017 10117 20078 53007=
201002142252 METAR KATL 142252Z 24008KT 10SM OVC055 10/M03 A2990 RMK AO2 SLP132 T01001028=
201002142152 METAR KATL 142152Z COR 24006KT 10SM FEW065 BKN090 BKN150 11/M03 A2989 RMK AO2 SLP128 T01061033=
201002142052 METAR KATL 142052Z 24017G21KT 10SM FEW055 BKN080 BKN150 11/M03 A2989 RMK AO2 SLP126 VIRGA NW-N T01061033 56025=
201002141952 METAR KATL 141952Z 21008G18KT 10SM FEW050 BKN095 BKN150 11/M03 A2990 RMK AO2 SLP129 T01061028=
201002141852 METAR KATL 141852Z 25006KT 10SM SCT040 SCT100 BKN150 BKN200 09/M02 A2993 RMK AO2 SLP142 T00941022=
201002141752 SPECI KATL 141752Z VRB06KT 10SM FEW035 BKN100 BKN150 BKN200 08/M01 A2996 RMK AO2 SLP153 T00831006 10083 21033 58016=
201002141652 METAR KATL 141652Z 24005KT 10SM BKN085 BKN150 BKN250 06/M02 A3000 RMK AO2 SLP166 T00561022=
201002141552 METAR KATL 141552Z 24003KT 10SM BKN090 BKN150 BKN200 03/M03 A3001 RMK AO2 SLP171 T00281033=
201002141452 METAR KATL 141452Z 00000KT 10SM BKN100 BKN150 BKN200 02/M04 A3001 RMK AO2 SLP171 T00171039 51007=
201002141352 METAR KATL 141352Z COR VRB03KT 10SM SCT100 SCT150 BKN200 M01/M04 A3001 RMK AO2 SLP173 T10111039=
201002141252 METAR KATL 141252Z 00000KT 10SM FEW100 SCT120 M03/M06 A3000 RMK AO2 SLP171 T10281056=
201002141152 METAR KATL 141152Z COR 00000KT 10SM FEW120 M03/M06 A2999 RMK AO2 SLP166 4/001 T10281056 11017 21033 51007=
201002141052 METAR KATL 141052Z 31003KT 9SM FEW120 M03/M05 A2999 RMK AO2 SLP164 T10281050=
201002140952 METAR KATL 140952Z 00000KT 9SM FEW140 M03/M05 A2998 RMK AO2 SLP160 T10281050=
201002140852 METAR KATL 140852Z 31003KT 10SM SCT140 M02/M04 A2997 RMK AO2 SLP158 T10221044 58005=
201002140752 METAR KATL 140752Z 29003KT 9SM SCT150 M02/M04 A2998 RMK AO2 SLP162 T10171044=
201002140652 METAR KATL 140652Z 23004KT 10SM CLR M02/M04 A2999 RMK AO2 SLP165 T10221039=
201002140552 METAR KATL 140552Z 00000KT 10SM CLR M02/M04 A2998 RMK AO2 SLP163 T10171044 10017 21017 58000=
201002140452 METAR KATL 140452Z 31004KT 10SM CLR M02/M04 A2998 RMK AO2 SLP164 T10171044 400281044=
201002140352 METAR KATL 140352Z 29004KT 10SM CLR M01/M04 A2999 RMK AO2 SLP165 T10061044=
201002140252 METAR KATL 140252Z 29006KT 10SM CLR 00/M04 A2998 RMK AO2 SLP164 T00001044 53006=
201002140152 METAR KATL 140152Z 28006KT 10SM CLR 00/M04 A2997 RMK AO2 SLP160 T00001044=
201002140052 METAR KATL 140052Z 28006KT 10SM FEW046 SCT250 01/M04 A2997 RMK AO2 SLP160 T00061039=
201002132352 METAR KATL 132352Z 29006KT 10SM BKN046 BKN250 02/M04 A2997 RMK AO2 SLP158 4/001 T00171039 10028 20017 51004=
201002132252 METAR KATL 132252Z 28011KT 10SM BKN038 BKN250 02/M04 A2996 RMK AO2 SLP157 T00221039=
201002132152 METAR KATL 132152Z 32008KT 10SM BKN037 BKN044 BKN250 03/M04 A2996 RMK AO2 SLP157 T00281039=
201002132052 METAR KATL 132052Z 31012G20KT 10SM BKN037 02/M04 A2995 RMK AO2 SLP153 T00221039 55004=
201002131952 METAR KATL 131952Z 32013G20KT 10SM BKN035 02/M04 A2995 RMK AO2 SLP152 T00221044=
201002131852 METAR KATL 131852Z 31012KT 10SM BKN034 BKN250 02/M04 A2995 RMK AO2 SLP153 T00221044=
201002131752 METAR KATL 131752Z 32009G20KT 10SM SCT025 BKN250 02/M03 A2996 RMK AO2 SLP157 4/003 933030 T00171033 10017 21044 50007 $=
201002131652 METAR KATL 131652Z 31010G17KT 10SM SCT018 SCT250 01/M04 A2997 RMK AO2 SLP161 T00061039 $=
201002131552 METAR KATL 131552Z 32007KT 10SM FEW015 SCT250 M01/M04 A2996 RMK AO2 SLP157 T10061044=
201002131452 METAR KATL 131452Z 33012KT 10SM CLR M02/M06 A2994 RMK AO2 SLP150 T10171056 51019=
201002131352 METAR KATL 131352Z 32009KT 10SM CLR M03/M06 A2993 RMK AO2 SLP145 T10331061=
201002131252 METAR KATL 131252Z 33009KT 10SM CLR M04/M07 A2991 RMK AO2 SLP139 T10391067=
201002131152 METAR KATL 131152Z 32014KT 10SM CLR M04/M07 A2989 RMK AO2 SLP131 4/003 70034 T10391067 11022 21044 51016=
201002131052 METAR KATL 131052Z 32013KT 10SM CLR M04/M07 A2987 RMK AO2 SLP127 T10391067=
201002130952 METAR KATL 130952Z 31010KT 10SM CLR M04/M06 A2986 RMK AO2 SLP122 T10441061=
201002130852 METAR KATL 130852Z 32011KT 10SM CLR M04/M06 A2984 RMK AO2 SLP115 T10391061 53001=
201002130752 METAR KATL 130752Z 32012KT 10SM CLR M03/M06 A2983 RMK AO2 SLP111 T10331056=
201002130652 METAR KATL 130652Z 32011KT 10SM FEW120 M03/M04 A2984 RMK AO2 SLP114 T10281044=
201002130552 METAR KATL 130552Z 32010KT 10SM FEW120 M03/M04 A2984 RMK AO2 SLP112 60003 4/003 931003 T10281044 10000 21028 50007=
201002130452 METAR KATL 130452Z 32014KT 10SM SCT095 BKN120 M02/M04 A2984 RMK AO2 SLP112 T10171039 400331017=
201002130411 SPECI KATL 130411Z 32010KT 10SM FEW010 SCT028 BKN100 M02/M03 A2983 RMK AO2=
201002130411 SPECI KATL 130411Z 32010KT 10SM FEW010 SCT028 BKN100 M02/M03 A2983 RMK AO2=
201002130352 METAR KATL 130352Z 32011KT 10SM FEW008 SCT013 OVC025 M01/M03 A2984 RMK AO2 SNE35 SLP111 P0000 T10111028=
201002130336 SPECI KATL 130336Z 32011KT 10SM BKN008 OVC015 M01/M03 A2983 RMK AO2 SNE35 P0000=
201002130336 SPECI KATL 130336Z 32011KT 10SM BKN008 OVC015 M01/M03 A2983 RMK AO2 SNE35 P0000=
201002130303 SPECI KATL 130303Z 32013KT 6SM -SN BR BKN007 OVC015 M01/M02 A2982 RMK AO2 P0000=
201002130303 SPECI KATL 130303Z 32013KT 6SM -SN BR BKN007 OVC015 M01/M02 A2982 RMK AO2 P0000=
201002130252 METAR KATL 130252Z 32014G19KT 2 1/2SM -SN BR BKN007 OVC015 M01/M02 A2981 RMK AO2 SFC VIS 4 SLP104 P0000 60003 T10061022 53010=
201002130152 METAR KATL 130152Z 33007KT 2 1/2SM -SN BR BKN007 BKN012 OVC020 M01/M01 A2980 RMK AO2 SFC VIS 3 SLP100 P0001 T10061011=
201002130138 SPECI KATL 130138Z 32011KT 1 1/2SM -SN BR BKN006 BKN017 OVC025 M01/M01 A2980 RMK AO2 P0001=
201002130138 SPECI KATL 130138Z 32011KT 1 1/2SM -SN BR BKN006 BKN017 OVC025 M01/M01 A2980 RMK AO2 P0001=
201002130052 METAR KATL 130052Z 33006KT 3/4SM -SN BR BKN006 OVC015 00/M01 A2979 RMK AO2 SFC VIS 1 1/4 SLP098 P0002 T00001011=
201002122352 METAR KATL 122352Z 01008KT 3/4SM R09R/P6000FT -SN BR BKN006 BKN015 OVC022 00/M01 A2978 RMK AO2 SLP094 P0005 60033 4/003 931033 T00001006 10033 20000 58003=
201002122318 SPECI KATL 122318Z 36008KT 3/4SM R09R/P6000FT -SN BR BKN005 OVC012 00/M01 A2979 RMK AO2 P0002=
201002122318 SPECI KATL 122318Z 36008KT 3/4SM R09R/P6000FT -SN BR BKN005 OVC012 00/M01 A2979 RMK AO2 P0002=
201002122252 METAR KATL 122252Z 36006KT 1/2SM R09R/4000V5000FT SN FG BKN004 OVC010 00/M01 A2979 RMK AO2 SLP095 SNINCR 1/3 P0005 T00001006=
201002122152 METAR KATL 122152Z 02007KT 1/2SM R09R/4000V5000FT SN FG BKN002 OVC005 00/M01 A2979 RMK AO2 SLP096 SNINCR 1/2 P0007 T00001006=
201002122052 METAR KATL 122052Z 34005KT 1/2SM R09R/2600V3500FT SN FG BKN002 OVC005 01/00 A2979 RMK AO2 SLP096 SNINCR 1/1 P0007 60016 T00060000 55016=
201002121952 METAR KATL 121952Z 02006KT 1/2SM R09R/4000V5500FT SN FG OVC002 01/M01 A2976 RMK AO2 SLP087 P0008 T00061006=
201002121852 METAR KATL 121852Z 09005KT 1/2SM R09R/4000V4500FT -SN BR BKN002 BKN020 OVC040 01/M01 A2981 RMK AO2 SFC VIS 1 SNB23 SLP101 P0001 T00061011=
201002121834 SPECI KATL 121834Z 00000KT 1/2SM R09R/4000VP6000FT -SN BKN022 BKN040 OVC060 01/M02 A2982 RMK AO2 SFC VIS 1 SNB23 P0000=
201002121834 SPECI KATL 121834Z 00000KT 1/2SM R09R/4000VP6000FT -SN BKN022 BKN040 OVC060 01/M02 A2982 RMK AO2 SFC VIS 1 SNB23 P0000=
201002121830 SPECI KATL 121830Z VRB03KT 2SM R09R/5000VP6000FT -SN BKN024 BKN040 OVC060 02/M03 A2982 RMK AO2 SNB23 P0000=
201002121830 SPECI KATL 121830Z VRB03KT 2SM R09R/5000VP6000FT -SN BKN024 BKN040 OVC060 02/M03 A2982 RMK AO2 SNB23 P0000=
201002121826 SPECI KATL 121826Z 13008KT 3SM -SN BKN024 BKN040 OVC100 02/M03 A2983 RMK AO2 SNB23 VIRGA OHD & ALQDS P0000=
201002121826 SPECI KATL 121826Z 13008KT 3SM -SN BKN024 BKN040 OVC100 02/M03 A2983 RMK AO2 SNB23 VIRGA OHD & ALQDS P0000=
201002121823 SPECI KATL 121823Z 14006KT 7SM -SN BKN020 BKN040 OVC100 03/M03 A2983 RMK AO2 SNB23 VIRGA OHD & ALQDS P0000=
201002121823 SPECI KATL 121823Z 14006KT 7SM -SN BKN020 BKN040 OVC100 03/M03 A2983 RMK AO2 SNB23 VIRGA OHD & ALQDS P0000=
201002121822 SPECI KATL 121822Z 14005KT 9SM BKN020 BKN040 OVC100 03/M03 A2983 RMK AO2 VIRGA OHD & ALQDS=
201002121822 SPECI KATL 121822Z 14005KT 9SM BKN020 BKN040 OVC100 03/M03 A2983 RMK AO2 VIRGA OHD & ALQDS=
201002121752 METAR KATL 121752Z 11004KT 10SM FEW040 SCT060 OVC100 03/M04 A2984 RMK AO2 SLP112 VIRGA OHD & ALQDS T00331044 10033 20011 58010=
201002121652 METAR KATL 121652Z 11007KT 10SM FEW060 BKN100 OVC150 03/M04 A2987 RMK AO2 SLP119 VIRGA OHD & ALQDS T00331044=
201002121552 METAR KATL 121552Z 09007KT 10SM FEW060 BKN100 OVC150 03/M04 A2988 RMK AO2 SLP125 VIRGA OHD ALQDS T00281044=
201002121529 SPECI KATL 121529Z 07006KT 10SM FEW060 BKN100 OVC150 02/M05 A2988 RMK AO2 VIRGA OHD ALQDS=
201002121529 SPECI KATL 121529Z 07006KT 10SM FEW060 BKN100 OVC150 02/M05 A2988 RMK AO2 VIRGA OHD ALQDS=
201002121452 METAR KATL 121452Z 06007KT 10SM FEW060 BKN075 OVC150 02/M05 A2987 RMK AO2 PRESFR SLP122 VIRGA DSNT NW-N T00221050 58018=
201002121352 METAR KATL 121352Z 03007KT 10SM BKN080 BKN150 OVC180 02/M06 A2990 RMK AO2 SLP131 T00171056=
201002121252 METAR KATL 121252Z 36006KT 10SM BKN085 OVC100 01/M06 A2991 RMK AO2 SLP137 T00111056=
201002121152 METAR KATL 121152Z 33004KT 10SM BKN080 OVC090 01/M06 A2993 RMK AO2 SLP141 T00111056 10022 20011 53005=
201002121052 METAR KATL 121052Z 33005KT 10SM OVC100 01/M06 A2991 RMK AO2 SLP135 T00111061=
201002120952 METAR KATL 120952Z 32006KT 8SM BKN095 OVC120 01/M06 A2992 RMK AO2 SLP136 T00111061=
201002120859 SPECI KATL 120859Z 34008KT 10SM BKN100 OVC120 02/M06 A2991 RMK AO2=
201002120859 SPECI KATL 120859Z 34008KT 10SM BKN100 OVC120 02/M06 A2991 RMK AO2=
201002120852 METAR KATL 120852Z 33008KT 10SM BKN010 OVC120 02/M06 A2991 RMK AO2 SLP135 T00171061 58010=
201002120752 METAR KATL 120752Z 32007KT 10SM BKN100 OVC250 02/M06 A2993 RMK AO2 SLP142 T00171061=
201002120652 METAR KATL 120652Z 31005KT 10SM FEW110 BKN150 OVC250 02/M06 A2994 RMK AO2 SLP145 T00171061=
201002120552 METAR KATL 120552Z 33005KT 10SM BKN150 OVC200 02/M07 A2994 RMK AO2 SLP147 T00221067 10039 20022 56003=
201002120452 METAR KATL 120452Z 34009KT 10SM OVC200 03/M07 A2994 RMK AO2 SLP147 T00281067 400611033=
201002120352 METAR KATL 120352Z 34008KT 10SM OVC200 02/M07 A2995 RMK AO2 SLP150 T00221067=
201002120252 METAR KATL 120252Z 34007KT 10SM OVC200 03/M07 A2995 RMK AO2 SLP152 T00281067 58010=
201002120152 METAR KATL 120152Z 32006KT 10SM OVC200 03/M06 A2998 RMK AO2 SLP161 T00281061=
201002120052 METAR KATL 120052Z 32008KT 10SM OVC200 03/M06 A2998 RMK AO2 SLP161 T00331061=
201002112352 METAR KATL 112352Z 31008KT 10SM OVC200 04/M06 A2998 RMK AO2 SLP163 T00391061 10061 20033 53002=
201002112252 METAR KATL 112252Z 32008KT 10SM OVC200 04/M06 A2997 RMK AO2 SLP158 T00441056=
201002112152 METAR KATL 112152Z 31007KT 10SM FEW150 BKN180 OVC200 05/M06 A2996 RMK AO2 SLP155 T00501061=
201002112052 METAR KATL 112052Z 31008KT 10SM FEW150 BKN180 OVC200 06/M06 A2998 RMK AO2 SLP159 T00611056 56017=
201002111952 SPECI KATL 111952Z 29007KT 10SM FEW150 BKN180 OVC250 06/M06 A2998 RMK AO2 SLP161 T00561056=
201002111852 METAR KATL 111852Z 30011KT 10SM BKN250 05/M06 A3000 RMK AO2 SLP168 T00501056=
201002111752 METAR KATL 111752Z 32009KT 10SM FEW150 BKN200 BKN250 03/M06 A3003 RMK AO2 SLP178 T00331061 10039 21033 58013=
201002111652 METAR KATL 111652Z 33010KT 10SM FEW150 BKN180 BKN250 02/M06 A3005 RMK AO2 SLP186 T00171061=
201002111552 METAR KATL 111552Z 31011KT 10SM BKN150 BKN180 BKN250 01/M07 A3008 RMK AO2 SLP195 T00061067 $=
201002111452 METAR KATL 111452Z 32009KT 10SM FEW110 BKN150 BKN250 M01/M07 A3007 RMK AO2 SLP194 T10111072 51009 $=
201002111352 METAR KATL 111352Z 33014KT 10SM FEW180 SCT250 M02/M08 A3006 RMK AO2 SLP190 T10221078=
201002111252 METAR KATL 111252Z 32010KT 10SM FEW180 SCT250 M03/M08 A3006 RMK AO2 SLP192 T10331078=
201002111152 METAR KATL 111152Z 31012KT 10SM SCT180 SCT250 M03/M08 A3004 RMK AO2 SLP185 T10331078 11017 21033 53001=
201002111052 METAR KATL 111052Z 31009KT 10SM SCT250 M03/M08 A3003 RMK AO2 SLP179 T10281078=
201002110952 METAR KATL 110952Z 32010G18KT 10SM BKN250 M03/M08 A3003 RMK AO2 SLP179 T10281078 $=
201002110852 METAR KATL 110852Z 33014KT 10SM SCT250 M02/M08 A3004 RMK AO2 SLP182 T10221078 55004 $=
201002110752 METAR KATL 110752Z 32017G24KT 10SM SCT200 OVC250 M02/M08 A3004 RMK AO2 PK WND 33029/0718 SLP181 T10221078 $=
201002110652 METAR KATL 110652Z 33020G26KT 10SM FEW010 BKN200 OVC250 M02/M08 A3004 RMK AO2 PK WND 31031/0640 SLP183 T10171078 $=
201002110552 METAR KATL 110552Z 32011G25KT 10SM BKN200 OVC250 M02/M07 A3005 RMK AO2 SLP186 T10171072 11006 21017 58005 $=
201002110452 METAR KATL 110452Z 32012G20KT 10SM BKN200 OVC250 M01/M07 A3006 RMK AO2 SLP191 T10111072 400221050 $=
201002110352 METAR KATL 110352Z 30010KT 10SM SCT200 OVC250 M01/M07 A3007 RMK AO2 SLP195 T10111072 $=
201002110252 METAR KATL 110252Z 30012G18KT 10SM BKN200 OVC250 M01/M07 A3007 RMK AO2 SLP194 T10111072 51005 $=
201002110152 METAR KATL 110152Z 30012KT 10SM BKN200 BKN250 M01/M07 A3006 RMK AO2 SLP191 T10111072 $=
201002110052 METAR KATL 110052Z 30012KT 10SM FEW150 BKN200 BKN250 M01/M07 A3007 RMK AO2 SLP194 T10111072 $=
201002102352 METAR KATL 102352Z 31014G18KT 10SM FEW150 BKN200 BKN250 M01/M08 A3005 RMK AO2 SLP188 T10061078 10022 21006 53018 $=
201002102252 METAR KATL 102252Z 31012G21KT 10SM FEW040 SCT150 BKN200 00/M08 A3003 RMK AO2 SLP181 T00001078 $=
201002102152 METAR KATL 102152Z 31014G22KT 10SM FEW040 SCT150 BKN250 01/M08 A3001 RMK AO2 PK WND 32026/2131 SLP173 T00111078 $=
201002102052 METAR KATL 102052Z 31021G27KT 10SM FEW040 SCT150 BKN250 02/M08 A3000 RMK AO2 PK WND 32027/2051 SLP170 T00171083 56008 $=
201002101952 METAR KATL 101952Z 31021G27KT 10SM FEW040 SCT150 BKN250 02/M08 A3000 RMK AO2 PK WND 30027/1945 SLP168 T00221078 $=
201002101852 METAR KATL 101852Z 30018G25KT 10SM FEW040 SCT100 BKN250 01/M08 A3000 RMK AO2 PK WND 33028/1815 SLP171 T00111078 $=
201002101752 METAR KATL 101752Z 29016G24KT 10SM FEW035 SCT100 SCT250 01/M08 A3002 RMK AO2 PK WND 34028/1728 SLP176 60000 T00111078 10011 21044 58004 $=
201002101652 METAR KATL 101652Z 31020G24KT 10SM FEW035 SCT250 00/M09 A3005 RMK AO2 PK WND 31030/1626 SLP186 T00001089 $=
201002101552 METAR KATL 101552Z 30019G28KT 10SM SCT030 SCT200 M02/M09 A3005 RMK AO2 PK WND 29029/1535 SNE47 SLP187 P0000 T10171089 $=
201002101452 METAR KATL 101452Z 31017G27KT 10SM -SN SCT030 M03/M09 A3004 RMK AO2 PK WND 33031/1353 SNB49 SLP181 P0000 60000 T10281094 53014 $=
201002101352 METAR KATL 101352Z 32021G30KT 9SM BKN031 M03/M10 A3002 RMK AO2 PK WND 32030/1344 SNB07E48 SLP176 P0000 T10331100=
201002101252 METAR KATL 101252Z 31015G24KT 10SM BKN031 M04/M09 A3001 RMK AO2 PK WND 30028/1200 SNE10 SLP171 P0000 T10441094=
201002101222 SPECI KATL 101222Z 31018G26KT 10SM BKN031 M04/M10 A3000 RMK AO2 PK WND 30028/1200 SNE10 P0000=
201002101222 SPECI KATL 101222Z 31018G26KT 10SM BKN031 M04/M10 A3000 RMK AO2 PK WND 30028/1200 SNE10 P0000=
201002101152 METAR KATL 101152Z COR 31014G30KT 8SM -SN BKN031 M04/M10 A2999 RMK AO2 PK WND 30030/1146 SNB1053 SLP167 P0000 60000 4/000 70024 T10441100 11017 21050 51016=
201002101052 METAR KATL 101052Z 30022G29KT 10SM BKN031 M04/M10 A2997 RMK AO2 PK WND 31029/1050 SLP158 T10441100=
201002100952 METAR KATL 100952Z 30013G25KT 8SM BKN031 M05/M10 A2997 RMK AO2 SLP156 T10501100=
201002100852 METAR KATL 100852Z 30014G22KT 10SM CLR M05/M11 A2994 RMK AO2 PK WND 30029/0811 SLP148 T10501111 53012=
201002100752 METAR KATL 100752Z 31016G30KT 10SM CLR M04/M12 A2993 RMK AO2 PK WND 32030/0748 SLP144 T10441117=
201002100652 METAR KATL 100652Z 30017G26KT 10SM CLR M03/M11 A2992 RMK AO2 PK WND 29032/0606 SLP138 T10331106=
201002100552 METAR KATL 100552Z 31017G24KT 10SM FEW030 M02/M07 A2991 RMK AO2 PK WND 31028/0533 SLP135 T10171072 10033 21017 50002=
201002100452 METAR KATL 100452Z 30019G23KT 10SM FEW027 SCT032 M01/M07 A2991 RMK AO2 SLP137 T10111067 400831011=
201002100352 METAR KATL 100352Z 30014G26KT 10SM FEW030 M01/M06 A2990 RMK AO2 PK WND 30030/0322 SLP133 T10061056=
201002100252 METAR KATL 100252Z 30017G24KT 10SM FEW025 00/M04 A2990 RMK AO2 SLP133 T00001044 51016=
201002100152 METAR KATL 100152Z 29014G22KT 10SM FEW028 01/M03 A2990 RMK AO2 SLP130 T00111028 $=
201002100111 SPECI KATL 100111Z 30015G22KT 10SM SCT028 02/M02 A2989 RMK AO2 $=
201002100111 SPECI KATL 100111Z 30015G22KT 10SM SCT028 02/M02 A2989 RMK AO2 $=
201002100052 METAR KATL 100052Z 31018G27KT 10SM SCT022 BKN028 02/M02 A2988 RMK AO2 PK WND 31032/2358 SLP124 T00221017 $=
201002100011 SPECI KATL 100011Z 30017G25KT 10SM SCT014 BKN020 OVC028 03/00 A2987 RMK AO2 PK WND 31032/2358 $=
201002100011 SPECI KATL 100011Z 30017G25KT 10SM SCT014 BKN020 OVC028 03/00 A2987 RMK AO2 PK WND 31032/2358 $=
201002092352 METAR KATL 092352Z 30020G29KT 10SM SCT007 BKN012 OVC018 03/02 A2985 RMK AO2 PK WND 30029/2350 SLP116 60016 T00330017 10083 20033 53023 $=
201002092252 METAR KATL 092252Z 31017G24KT 10SM BKN008 OVC014 06/05 A2981 RMK AO2 PK WND 29027/2235 DZE17RAB28E52 SLP099 P0000 T00610050 $=
201002092233 SPECI KATL 092233Z 28010KT 8SM -RA BKN007 OVC014 08/07 A2979 RMK AO2 DZE17RAB28 P0000 $=
201002092233 SPECI KATL 092233Z 28010KT 8SM -RA BKN007 OVC014 08/07 A2979 RMK AO2 DZE17RAB28 P0000 $=
201002092217 SPECI KATL 092217Z 27010KT 8SM FEW007 BKN015 OVC028 08/07 A2979 RMK AO2 DZE17 P0000 $=
201002092217 SPECI KATL 092217Z 27010KT 8SM FEW007 BKN015 OVC028 08/07 A2979 RMK AO2 DZE17 P0000 $=
201002092202 SPECI KATL 092202Z 28009KT 3SM -DZ BR BKN009 BKN012 OVC016 08/07 A2979 RMK AO2 SFC VIS 5 P0000 $=
201002092202 SPECI KATL 092202Z 28009KT 3SM -DZ BR BKN009 BKN012 OVC016 08/07 A2979 RMK AO2 SFC VIS 5 P0000 $=
201002092152 METAR KATL 092152Z 27009KT 3SM -DZ BR FEW006 BKN010 OVC016 08/07 A2978 RMK AO2 SFC VIS 5 SLP090 P0000 T00780067 $=
201002092146 SPECI KATL 092146Z 28010KT 3SM -DZ BR FEW006 BKN010 OVC016 08/07 A2979 RMK AO2 SFC VIS 5 P0000 $=
201002092146 SPECI KATL 092146Z 28010KT 3SM -DZ BR FEW006 BKN010 OVC016 08/07 A2979 RMK AO2 SFC VIS 5 P0000 $=
201002092052 METAR KATL 092052Z 26006KT 2SM -DZ BR FEW004 BKN006 OVC010 08/07 A2978 RMK AO2 SFC VIS 4 SLP089 P0000 60016 T00830072 56018 $=
201002091952 METAR KATL 091952Z 28005KT 2SM -DZ BR FEW002 BKN006 OVC010 08/07 A2980 RMK AO2 SFC VIS 3 RAE47DZB49 SLP094 P0005 T00780072 $=
201002091852 METAR KATL 091852Z 20004KT 2SM RA BR FEW002 BKN006 OVC010 07/07 A2981 RMK AO2 SFC VIS 4 RAB1756 SLP097 P0011 T00720067=
201002091841 SPECI KATL 091841Z 23005KT 2SM R09R/5500VP6000FT RA BR FEW002 BKN006 OVC010 07/07 A2981 RMK AO2 SFC VIS 3 RAB1756 P0009 $=
201002091841 SPECI KATL 091841Z 23005KT 2SM R09R/5500VP6000FT RA BR FEW002 BKN006 OVC010 07/07 A2981 RMK AO2 SFC VIS 3 RAB1756 P0009 $=
201002091809 SPECI KATL 091809Z 21006KT 2SM -RA BR BKN006 OVC010 07/07 A2983 RMK AO2 SFC VIS 4 RAB1756 P0002 $=
201002091809 SPECI KATL 091809Z 21006KT 2SM -RA BR BKN006 OVC010 07/07 A2983 RMK AO2 SFC VIS 4 RAB1756 P0002 $=
201002091806 SPECI KATL 091806Z 22006KT 1/4SM -RA BR BKN003 OVC005 07/07 A2983 RMK AO2 SFC VIS 3 RAB1756 P0001 $=
201002091806 SPECI KATL 091806Z 22006KT 1/4SM -RA BR BKN003 OVC005 07/07 A2983 RMK AO2 SFC VIS 3 RAB1756 P0001 $=
201002091752 METAR KATL 091752Z 20008KT 1/4SM BR BKN003 OVC005 07/06 A2984 RMK AO2 SFC VIS 4 RAB09E31 SLP107 TWRINC P0000 60008 T00720061 10072 20044 56038 $=
201002091717 SPECI KATL 091717Z 15007KT 1/4SM -RA BR BKN003 OVC005 07/06 A2983 RMK AO2 SFC VIS 4 RAB09 TWRINC P0000 $=
201002091717 SPECI KATL 091717Z 15007KT 1/4SM -RA BR BKN003 OVC005 07/06 A2983 RMK AO2 SFC VIS 4 RAB09 TWRINC P0000 $=
201002091652 METAR KATL 091652Z 14010KT 2SM BR BKN005 BKN008 OVC010 06/06 A2986 RMK AO2 SFC VIS 4 DZB24E47RAB47E51 SLP115 P0000 T00610056=
201002091624 SPECI KATL 091624Z 15010KT 2SM -DZ BR BKN005 BKN008 OVC010 06/05 A2988 RMK AO2 SFC VIS 5 DZB24 P0000=
201002091624 SPECI KATL 091624Z 15010KT 2SM -DZ BR BKN005 BKN008 OVC010 06/05 A2988 RMK AO2 SFC VIS 5 DZB24 P0000=
201002091552 METAR KATL 091552Z 15008KT 6SM BR BKN006 BKN008 OVC010 06/04 A2988 RMK AO2 PK WND 11028/1524 RAE36 SLP121 P0004 T00560044=
201002091536 SPECI KATL 091536Z 13007G17KT 100V160 7SM FEW005 BKN007 OVC010 06/04 A2987 RMK AO2 PK WND 11028/1524 RAE36 P0004=
201002091536 SPECI KATL 091536Z 13007G17KT 100V160 7SM FEW005 BKN007 OVC010 06/04 A2987 RMK AO2 PK WND 11028/1524 RAE36 P0004=
201002091452 METAR KATL 091452Z 10007KT 5SM RA BR OVC012 05/03 A2995 RMK AO2 RAB1355 SLP147 P0004 60004 T00500033 56009=
201002091405 SPECI KATL 091405Z 11004KT 8SM -RA BKN012 OVC020 05/03 A2997 RMK AO2 RAB1355 P0000=
201002091405 SPECI KATL 091405Z 11004KT 8SM -RA BKN012 OVC020 05/03 A2997 RMK AO2 RAB1355 P0000=
201002091352 METAR KATL 091352Z 10006KT 8SM SCT012 OVC020 05/03 A2996 RMK AO2 SLP150 T00500028=
201002091322 SPECI KATL 091322Z 10006KT 10SM BKN022 OVC150 05/02 A2996 RMK AO2=
201002091322 SPECI KATL 091322Z 10006KT 10SM BKN022 OVC150 05/02 A2996 RMK AO2=
201002091252 METAR KATL 091252Z 09009KT 8SM SCT013 BKN110 OVC250 04/02 A2996 RMK AO2 SLP149 T00440022=
201002091152 METAR KATL 091152Z 10005KT 10SM BKN120 OVC250 04/02 A2998 RMK AO2 SLP156 T00440022 10061 20044 53011 $=
201002091052 METAR KATL 091052Z 11005KT 10SM BKN110 OVC250 05/02 A2995 RMK AO2 SLP146 T00500022=
201002091004 SPECI KATL 091004Z 09010KT 8SM FEW010 SCT011 OVC250 04/02 A2989 RMK AO2 PRESFR=
201002091004 SPECI KATL 091004Z 09010KT 8SM FEW010 SCT011 OVC250 04/02 A2989 RMK AO2 PRESFR=
201002090952 METAR KATL 090952Z 11009KT 8SM BKN010 OVC250 04/02 A2992 RMK AO2 SLP134 T00440017=
201002090852 METAR KATL 090852Z 13005KT 9SM SCT120 BKN200 BKN250 05/02 A2994 RMK AO2 SLP143 T00500017 56019=
201002090752 METAR KATL 090752Z 12008KT 9SM SCT110 BKN180 BKN250 06/01 A2995 RMK AO2 SLP146 T00560011=
201002090652 METAR KATL 090652Z 13006KT 10SM BKN120 BKN250 06/01 A2998 RMK AO2 SLP156 T00610011=
201002090552 METAR KATL 090552Z 12005KT 10SM BKN120 BKN250 06/01 A3000 RMK AO2 SLP164 T00610011 10089 20039 58009=
201002090452 METAR KATL 090452Z 10006KT 10SM FEW120 BKN250 04/01 A3003 RMK AO2 SLP174 T00440011 401111022=
201002090352 METAR KATL 090352Z 09005KT 10SM FEW100 BKN150 BKN250 05/01 A3004 RMK AO2 SLP177 T00500006=
201002090252 METAR KATL 090252Z 08006KT 10SM SCT150 BKN250 06/01 A3003 RMK AO2 SLP174 T00610006 53009=
201002090152 METAR KATL 090152Z 13004KT 10SM FEW100 SCT150 BKN250 08/01 A3000 RMK AO2 SLP165 T00780006=
201002090052 METAR KATL 090052Z 14004KT 10SM FEW100 BKN250 08/01 A3000 RMK AO2 SLP166 T00830011=
201002082352 METAR KATL 082352Z 12006KT 10SM FEW100 SCT250 09/01 A3000 RMK AO2 SLP165 T00890006 10111 20072 58005=
201002082252 METAR KATL 082252Z 14005KT 10SM FEW100 SCT200 BKN250 10/01 A3001 RMK AO2 SLP167 T01000006=
201002082152 METAR KATL 082152Z 14007KT 10SM FEW090 SCT200 SCT250 11/00 A3002 RMK AO2 SLP170 T01060000=
201002082052 METAR KATL 082052Z 16008KT 10SM FEW090 SCT200 BKN250 11/01 A3001 RMK AO2 SLP169 T01060006 56023=
201002081952 METAR KATL 081952Z 12006KT 10SM FEW090 BKN200 BKN250 10/01 A3002 RMK AO2 SLP171 T01000006=
201002081852 METAR KATL 081852Z 00000KT 10SM FEW090 BKN200 BKN250 09/00 A3005 RMK AO2 SLP182 T00890000=
201002081752 METAR KATL 081752Z 18003KT 10SM FEW090 SCT200 BKN250 07/00 A3008 RMK AO2 SLP194 T00720000 10078 21011 58008=
201002081652 METAR KATL 081652Z 11003KT 10SM FEW090 SCT200 BKN250 06/M01 A3011 RMK AO2 SLP202 T00561006=
201002081552 METAR KATL 081552Z VRB03KT 10SM FEW200 BKN240 04/M01 A3012 RMK AO2 SLP206 T00441006=
201002081452 METAR KATL 081452Z 09003KT 9SM BKN240 03/M01 A3011 RMK AO2 SLP204 T00281011 51020=
201002081352 METAR KATL 081352Z 11004KT 6SM HZ FEW150 SCT250 01/M02 A3009 RMK AO2 SLP197 T00111022=
201002081252 METAR KATL 081252Z 36004KT 7SM FEW060 M01/M03 A3008 RMK AO2 SLP195 T10061028=
201002081152 METAR KATL 081152Z 02005KT 7SM FEW250 M01/M03 A3005 RMK AO2 SLP184 T10111033 11006 21022 53004=
201002081052 METAR KATL 081052Z 00000KT 7SM CLR M02/M03 A3003 RMK AO2 SLP176 T10171033=
201002080952 METAR KATL 080952Z 33004KT 7SM FEW250 M02/M03 A3003 RMK AO2 SLP176 T10171033=
201002080852 METAR KATL 080852Z 33003KT 7SM FEW250 M02/M03 A3004 RMK AO2 SLP178 T10221033 58002=
201002080752 METAR KATL 080752Z 34006KT 7SM CLR M01/M03 A3004 RMK AO2 SLP179 T10111033=
201002080652 METAR KATL 080652Z 32005KT 8SM FEW250 M01/M03 A3005 RMK AO2 SLP183 T10111033=
201002080552 METAR KATL 080552Z 32004KT 9SM FEW250 M01/M03 A3004 RMK AO2 SLP180 T10061028 10033 21006 50002=
201002080452 METAR KATL 080452Z 32004KT 10SM CLR M01/M03 A3005 RMK AO2 SLP182 T10061028 400891017=
201002080352 METAR KATL 080352Z 32005KT 10SM CLR 00/M03 A3004 RMK AO2 SLP180 T00001028=
201002080252 METAR KATL 080252Z 33006KT 10SM CLR 01/M02 A3004 RMK AO2 SLP180 T00061022 51008=
201002080152 METAR KATL 080152Z 31006KT 10SM CLR 01/M02 A3004 RMK AO2 SLP180 T00111022=
201002080052 METAR KATL 080052Z 32007KT 10SM FEW038 02/M02 A3002 RMK AO2 SLP177 T00221022=
201002072352 METAR KATL 072352Z 33009KT 10SM FEW038 03/M02 A3001 RMK AO2 SLP171 T00331017 10089 20033 53015=
201002072252 METAR KATL 072252Z 32011KT 10SM FEW038 06/M01 A2999 RMK AO2 SLP163 T00561011=
201002072152 METAR KATL 072152Z 30010KT 10SM BKN038 07/M01 A2997 RMK AO2 SLP157 T00671006=
201002072052 METAR KATL 072052Z 32005KT 10SM SCT038 08/M01 A2997 RMK AO2 SLP154 T00831011 56017=
201002071952 METAR KATL 071952Z 31005KT 10SM BKN036 08/00 A2998 RMK AO2 SLP157 T00780000=
201002071852 METAR KATL 071852Z 33005KT 10SM BKN034 07/M01 A2999 RMK AO2 SLP161 T00721006=
201002071752 METAR KATL 071752Z 00000KT 10SM SCT030 SCT250 07/M01 A3002 RMK AO2 SLP172 T00721006 10072 21017 58006=
201002071652 METAR KATL 071652Z 00000KT 10SM FEW025 SCT200 05/M01 A3004 RMK AO2 SLP178 T00501011=
201002071552 METAR KATL 071552Z 32005KT 10SM FEW015 SCT150 03/M01 A3005 RMK AO2 SLP183 T00331011=
201002071452 METAR KATL 071452Z COR 32008KT 10SM FEW015 SCT150 02/M02 A3004 RMK AO2 SLP180 T00171022 51016=
201002071352 METAR KATL 071352Z 32012KT 10SM FEW050 SCT120 00/M03 A3003 RMK AO2 SLP176 T00001028=
201002071252 METAR KATL 071252Z 31008KT 10SM FEW050 SCT120 M01/M03 A3001 RMK AO2 SLP173 T10111033=
201002071152 METAR KATL 071152Z 31009KT 10SM FEW020 SCT050 M01/M03 A2999 RMK AO2 SLP164 T10111033 10006 21017 53013=
201002071052 METAR KATL 071052Z 32007KT 10SM FEW020 SCT050 M01/M03 A2997 RMK AO2 SLP156 T10111033=
201002070952 METAR KATL 070952Z 31005KT 10SM FEW018 SCT025 SCT050 M01/M03 A2996 RMK AO2 SLP153 T10111033=
201002070852 METAR KATL 070852Z 31007KT 10SM SCT017 SCT025 BKN050 M01/M03 A2995 RMK AO2 SLP150 T10061033 50002=
201002070848 SPECI KATL 070848Z 31009KT 10SM SCT017 SCT025 BKN050 M01/M03 A2995 RMK AO2=
201002070848 SPECI KATL 070848Z 31009KT 10SM SCT017 SCT025 BKN050 M01/M03 A2995 RMK AO2=
201002070752 METAR KATL 070752Z 32009KT 10SM BKN017 OVC025 00/M03 A2996 RMK AO2 SLP152 T00001028=
201002070652 METAR KATL 070652Z 33008KT 10SM BKN017 OVC025 01/M03 A2994 RMK AO2 SLP148 T00061028=
201002070647 SPECI KATL 070647Z 33008KT 10SM BKN017 OVC025 01/M03 A2994 RMK AO2=
201002070647 SPECI KATL 070647Z 33008KT 10SM BKN017 OVC025 01/M03 A2994 RMK AO2=
201002070552 METAR KATL 070552Z 34011G18KT 10SM FEW018 OVC025 01/M03 A2995 RMK AO2 SLP149 T00061028 10022 20006 50007=
201002070452 METAR KATL 070452Z 34014KT 10SM OVC019 01/M03 A2995 RMK AO2 SLP150 T00111028 400780011=
201002070352 METAR KATL 070352Z 33012G17KT 10SM OVC019 01/M03 A2995 RMK AO2 SLP148 T00111028=
201002070252 METAR KATL 070252Z 33011KT 10SM OVC019 01/M02 A2993 RMK AO2 SLP140 T00111022 53026=
201002070152 METAR KATL 070152Z 33012KT 10SM OVC021 02/M02 A2989 RMK AO2 SLP128 T00171022=
201002070052 METAR KATL 070052Z 32010KT 10SM BKN023 OVC029 02/M02 A2987 RMK AO2 SLP122 T00171017=
201002062352 METAR KATL 062352Z 32013G17KT 10SM SCT022 OVC027 02/M02 A2985 RMK AO2 SLP113 60000 T00221017 10028 20017 51020=
201002062252 METAR KATL 062252Z 31013KT 9SM OVC020 02/M02 A2983 RMK AO2 DZE28 SLP109 P0000 T00221017=
201002062152 METAR KATL 062152Z 31012KT 10SM -DZ OVC020 02/M02 A2981 RMK AO2 DZB38 SLP100 P0000 T00221017=
201002062052 METAR KATL 062052Z 31013G20KT 10SM OVC020 03/M01 A2978 RMK AO2 DZE20 SLP091 P0000 60000 T00281011 53018=
201002061952 METAR KATL 061952Z 30014G20KT 10SM -DZ OVC020 03/M01 A2976 RMK AO2 DZB33PLE33 SLP082 P0000 T00281011=
201002061934 SPECI KATL 061934Z 31014G21KT 10SM -DZ OVC018 02/M01 A2975 RMK AO2 DZB33PLE33 P0000=
201002061934 SPECI KATL 061934Z 31014G21KT 10SM -DZ OVC018 02/M01 A2975 RMK AO2 DZB33PLE33 P0000=
201002061852 METAR KATL 061852Z 31015G21KT 10SM -PL OVC016 02/M01 A2974 RMK AO2 PK WND 30027/1833 PLB44 SLP076 P0000 T00221006=
201002061845 SPECI KATL 061845Z 31015G24KT 10SM -PL OVC016 02/M01 A2974 RMK AO2 PK WND 30027/1833 PLB44 P0000=
201002061845 SPECI KATL 061845Z 31015G24KT 10SM -PL OVC016 02/M01 A2974 RMK AO2 PK WND 30027/1833 PLB44 P0000=
201002061752 METAR KATL 061752Z 31015G23KT 10SM BKN016 OVC020 03/01 A2973 RMK AO2 PK WND 30027/1707 RAB17E50 SLP072 P0000 60000 T00280006 10056 20028 53019=
201002061652 METAR KATL 061652Z 29017G23KT 10SM BKN017 BKN023 BKN033 04/01 A2971 RMK AO2 PK WND 30029/1611 RAB15E33 SLP064 P0000 T00440006=
201002061552 METAR KATL 061552Z 31018G23KT 10SM BKN018 OVC025 05/02 A2969 RMK AO2 RAB27E50 SLP056 SHRA DSNT NW-N P0000 T00500017=
201002061452 METAR KATL 061452Z 27011G22KT 10SM BKN018 BKN023 BKN055 05/02 A2967 RMK AO2 SLP052 60000 T00500022 51016=
201002061352 METAR KATL 061352Z 27014G19KT 10SM BKN017 BKN028 OVC045 04/03 A2966 RMK AO2 SLP047 T00440028=
201002061252 METAR KATL 061252Z 26010KT 10SM BKN018 OVC029 05/03 A2964 RMK AO2 RAB19E29 SLP042 P0000 T00500028=
201002061152 METAR KATL 061152Z 26009KT 10SM BKN022 OVC032 05/03 A2962 RMK AO2 SLP035 60000 70060 T00500028 10078 20044 53011=
201002061052 METAR KATL 061052Z 26011KT 10SM BKN021 OVC042 04/02 A2961 RMK AO2 SLP030 T00440022=
201002060952 METAR KATL 060952Z 27011G20KT 10SM BKN018 OVC040 06/03 A2960 RMK AO2 RAB30E44 SLP027 P0000 T00560033=
201002060852 METAR KATL 060852Z 26009KT 10SM BKN018 OVC045 07/04 A2959 RMK AO2 SLP023 60000 T00670044 56002=
201002060834 SPECI KATL 060834Z 27010G18KT 10SM BKN018 OVC045 07/04 A2959 RMK AO2=
201002060834 SPECI KATL 060834Z 27010G18KT 10SM BKN018 OVC045 07/04 A2959 RMK AO2=
201002060752 METAR KATL 060752Z 27013G18KT 10SM FEW008 SCT018 OVC045 07/05 A2959 RMK AO2 DZE04 SLP023 P0000 T00720050=
201002060740 SPECI KATL 060740Z 28012KT 10SM FEW008 SCT018 OVC045 07/05 A2959 RMK AO2 DZE04 P0000=
201002060740 SPECI KATL 060740Z 28012KT 10SM FEW008 SCT018 OVC045 07/05 A2959 RMK AO2 DZE04 P0000=
201002060704 SPECI KATL 060704Z 27009G20KT 10SM SCT008 BKN018 OVC050 08/06 A2958 RMK AO2 DZE04 P0000=
201002060704 SPECI KATL 060704Z 27009G20KT 10SM SCT008 BKN018 OVC050 08/06 A2958 RMK AO2 DZE04 P0000=
201002060652 METAR KATL 060652Z 27010G20KT 9SM -DZ BKN008 BKN015 OVC050 08/06 A2959 RMK AO2 SLP022 P0000 T00780061=
201002060552 METAR KATL 060552Z 25005KT 6SM -DZ BR BKN007 OVC015 07/07 A2959 RMK AO2 DZB49 SLP025 P0000 60000 T00720067 10072 20039 58005=
201002060452 METAR KATL 060452Z 26009KT 10SM BKN012 OVC020 07/06 A2961 RMK AO2 SLP029 T00720061 400720028=
201002060441 SPECI KATL 060441Z 26008KT 10SM BKN013 OVC020 07/06 A2961 RMK AO2=
201002060441 SPECI KATL 060441Z 26008KT 10SM BKN013 OVC020 07/06 A2961 RMK AO2=
201002060352 METAR KATL 060352Z 26007KT 8SM FEW004 BKN015 OVC022 06/06 A2961 RMK AO2 DZE41 SLP032 P0000 T00610056=
201002060341 SPECI KATL 060341Z 26007KT 7SM SCT004 OVC015 06/05 A2961 RMK AO2 DZE41 P0000=
201002060341 SPECI KATL 060341Z 26007KT 7SM SCT004 OVC015 06/05 A2961 RMK AO2 DZE41 P0000=
201002060252 METAR KATL 060252Z 27003KT 2SM -DZ BR OVC003 05/04 A2961 RMK AO2 SFC VIS 3 DZB46 SLP031 P0000 60000 T00500044 55002=
201002060152 METAR KATL 060152Z 21004KT 2SM BR BKN003 OVC008 04/04 A2960 RMK AO2 SFC VIS 4 DZE52 SLP030 P0000 T00440039=
201002060124 SPECI KATL 060124Z 00000KT 1 3/4SM -DZ BR OVC004 04/04 A2961 RMK AO2 SFC VIS 2 1/2 CIG 003V006 P0000=
201002060124 SPECI KATL 060124Z 00000KT 1 3/4SM -DZ BR OVC004 04/04 A2961 RMK AO2 SFC VIS 2 1/2 CIG 003V006 P0000=
201002060052 METAR KATL 060052Z 00000KT 1/2SM -DZ BR OVC003 04/04 A2962 RMK AO2 SFC VIS 2 1/2 SLP035 CIG 002V005 P0000 T00390039=
201002052352 METAR KATL 052352Z 11003KT 1/2SM -DZ BR OVC004 04/04 A2961 RMK AO2 SFC VIS 3 SLP034 CIG 002V006 P0000 60014 T00390039 10044 20033 51006=
201002052341 SPECI KATL 052341Z 00000KT 1/2SM -DZ BR OVC004 04/04 A2962 RMK AO2 SFC VIS 3 CIG 002V006 P0000=
201002052341 SPECI KATL 052341Z 00000KT 1/2SM -DZ BR OVC004 04/04 A2962 RMK AO2 SFC VIS 3 CIG 002V006 P0000=
201002052252 METAR KATL 052252Z 00000KT 1 3/4SM -DZ BR OVC005 04/03 A2961 RMK AO2 SFC VIS 3 SLP033 CIG 003V007 P0000 T00390033=
201002052155 SPECI KATL 052155Z 00000KT 1 3/4SM -DZ BR BKN005 BKN008 OVC015 04/03 A2961 RMK AO2 TWR VIS 2 P0000=
201002052155 SPECI KATL 052155Z 00000KT 1 3/4SM -DZ BR BKN005 BKN008 OVC015 04/03 A2961 RMK AO2 TWR VIS 2 P0000=
201002052152 METAR KATL 052152Z 00000KT 2SM -DZ BR BKN005 BKN008 OVC015 04/03 A2961 RMK AO2 SFC VIS 3 DZB16 SLP032 P0000 T00390033=
201002052116 SPECI KATL 052116Z 08007KT 4SM -DZ BR BKN005 OVC015 04/03 A2959 RMK AO2 DZB16 P0000=
201002052116 SPECI KATL 052116Z 08007KT 4SM -DZ BR BKN005 OVC015 04/03 A2959 RMK AO2 DZB16 P0000=
201002052052 METAR KATL 052052Z 09008KT 8SM BKN005 BKN015 OVC025 04/03 A2959 RMK AO2 RAE31 SLP027 P0002 60014 T00390033 56023=
201002052040 SPECI KATL 052040Z 07010KT 8SM BKN005 BKN015 OVC025 04/03 A2959 RMK AO2 RAE31 P0002=
201002052040 SPECI KATL 052040Z 07010KT 8SM BKN005 BKN015 OVC025 04/03 A2959 RMK AO2 RAE31 P0002=
201002051952 METAR KATL 051952Z 07010KT 1SM -RA BR FEW008 BKN015 OVC025 04/03 A2960 RMK AO2 SFC VIS 3 DZE40RAB40 SLP030 P0012 T00390033=
201002051941 SPECI KATL 051941Z 07010KT 1SM R09R/5000VP6000FT RA BR BKN008 BKN012 OVC025 04/03 A2961 RMK AO2 SFC VIS 3 DZE40RAB40 P0010=
201002051941 SPECI KATL 051941Z 07010KT 1SM R09R/5000VP6000FT RA BR BKN008 BKN012 OVC025 04/03 A2961 RMK AO2 SFC VIS 3 DZE40RAB40 P0010=
201002051852 METAR KATL 051852Z 08012KT 1SM -DZ BR OVC004 04/03 A2962 RMK AO2 SFC VIS 2 DZB04 SLP036 P0000 T00390028=
201002051831 SPECI KATL 051831Z 08013KT 1SM -DZ BR OVC004 04/03 A2964 RMK AO2 SFC VIS 3 DZB04 P0000=
201002051831 SPECI KATL 051831Z 08013KT 1SM -DZ BR OVC004 04/03 A2964 RMK AO2 SFC VIS 3 DZB04 P0000=
201002051804 SPECI KATL 051804Z 08011KT 1SM -DZ BR OVC004 04/03 A2965 RMK AO2 SFC VIS 4 DZB04 P0000=
201002051804 SPECI KATL 051804Z 08011KT 1SM -DZ BR OVC004 04/03 A2965 RMK AO2 SFC VIS 4 DZB04 P0000=
201002051752 SPECI KATL 051752Z 06012KT 9SM OVC004 04/03 A2966 RMK AO2 PK WND 08026/1653 SLP051 60046 T00390028 10039 20028 56030=
201002051748 SPECI KATL 051748Z 06010KT 9SM OVC004 04/03 A2968 RMK AO2 PK WND 08026/1653=
201002051748 SPECI KATL 051748Z 06010KT 9SM OVC004 04/03 A2968 RMK AO2 PK WND 08026/1653=
201002051702 SPECI KATL 051702Z 07010G26KT 10SM OVC005 04/03 A2971 RMK AO2 PK WND 08026/1653=
201002051702 SPECI KATL 051702Z 07010G26KT 10SM OVC005 04/03 A2971 RMK AO2 PK WND 08026/1653=
201002051652 METAR KATL 051652Z 09022G28KT 9SM OVC005 03/03 A2964 RMK AO2 PK WND 09036/1555 RAE30 PRESFR SLP042 P0002 T00330028=
201002051552 METAR KATL 051552Z 09024G30KT 6SM -RA BR OVC006 03/02 A2976 RMK AO2 PK WND 08030/1552 SLP082 P0004 T00330022=
201002051452 METAR KATL 051452Z 08017G25KT 2 1/2SM RA BR OVC004 03/02 A2979 RMK AO2 SFC VIS 4 CIG 001V007 PRESFR SLP094 P0009 60040 T00330022 56029=
201002051450 SPECI KATL 051450Z 08019KT 2 1/2SM RA BR OVC004 03/02 A2979 RMK AO2 SFC VIS 4 CIG 001V007 PRESFR P0009=
201002051450 SPECI KATL 051450Z 08019KT 2 1/2SM RA BR OVC004 03/02 A2979 RMK AO2 SFC VIS 4 CIG 001V007 PRESFR P0009=
201002051352 METAR KATL 051352Z 09019G24KT 2 1/2SM -RA BR BKN006 OVC010 03/02 A2982 RMK AO2 PK WND 09028/1335 SFC VIS 6 SLP104 P0013 T00330022=
201002051349 SPECI KATL 051349Z 08019G24KT 2 1/2SM -RA BR BKN006 OVC010 03/02 A2982 RMK AO2 PK WND 09028/1335 SFC VIS 6 P0013=
201002051349 SPECI KATL 051349Z 08019G24KT 2 1/2SM -RA BR BKN006 OVC010 03/02 A2982 RMK AO2 PK WND 09028/1335 SFC VIS 6 P0013=
201002051252 METAR KATL 051252Z 09017G22KT 2 1/2SM RA BR BKN006 OVC020 03/02 A2988 RMK AO2 SFC VIS 4 SLP123 P0018 T00280022=
201002051233 SPECI KATL 051233Z 09018G24KT 2 1/2SM +RA BR BKN006 OVC060 03/02 A2987 RMK AO2 SFC VIS 4 P0012=
201002051233 SPECI KATL 051233Z 09018G24KT 2 1/2SM +RA BR BKN006 OVC060 03/02 A2987 RMK AO2 SFC VIS 4 P0012=
201002051152 METAR KATL 051152Z 09013G19KT 5SM RA BR BKN006 OVC065 03/02 A2991 RMK AO2 SLP134 P0017 60112 70179 T00330022 10033 20028 55002=
201002051052 METAR KATL 051052Z 07011G15KT 4SM +RA BR BKN007 OVC012 03/02 A2989 RMK AO2 SLP129 P0015 T00330022=
201002050952 METAR KATL 050952Z 10014G25KT 5SM RA BR BKN007 OVC012 03/02 A2989 RMK AO2 PK WND 09027/0922 SLP127 P0020 T00330022=
201002050852 METAR KATL 050852Z COR 09020G25KT 4SM RA BR BKN007 OVC015 03/02 A2991 RMK AO2 PK WND 10027/0836 SLP136 P0015 60060 T00330022 58034=
201002050752 METAR KATL 050752Z 09017KT 4SM RA BR OVC007 03/02 A2996 RMK AO2 SLP152 P0021 T00330022=
201002050652 METAR KATL 050652Z 09016G22KT 3SM +RA BR OVC007 03/02 A2998 RMK AO2 PRESFR SLP159 P0024 T00330022=
201002050552 METAR KATL 050552Z 08018G25KT 5SM RA BR BKN007 OVC013 03/02 A3002 RMK AO2 PK WND 08028/0525 SLP171 P0027 60056 T00330022 10039 20028 56034=
201002050531 SPECI KATL 050531Z 09017G28KT 3SM +RA BR BKN007 OVC013 03/02 A3002 RMK AO2 PK WND 08028/0525 P0020=
201002050531 SPECI KATL 050531Z 09017G28KT 3SM +RA BR BKN007 OVC013 03/02 A3002 RMK AO2 PK WND 08028/0525 P0020=
201002050452 METAR KATL 050452Z 08020KT 4SM +RA BR FEW008 BKN013 OVC020 03/02 A3004 RMK AO2 PRESFR SLP178 P0013 T00330022 400610033=
201002050427 SPECI KATL 050427Z 09015KT 5SM RA BR FEW008 BKN013 OVC020 03/02 A3008 RMK AO2 P0004=
201002050427 SPECI KATL 050427Z 09015KT 5SM RA BR FEW008 BKN013 OVC020 03/02 A3008 RMK AO2 P0004=
201002050352 METAR KATL 050352Z 09017G22KT 5SM -RA BR FEW009 OVC018 03/02 A3007 RMK AO2 SLP188 P0007 T00330022=
201002050252 METAR KATL 050252Z 10015G22KT 6SM -RA BR OVC021 03/02 A3012 RMK AO2 SLP205 P0003 60009 T00330017 58017=
201002050152 METAR KATL 050152Z 09013G21KT 6SM -RA BR OVC023 03/02 A3012 RMK AO2 SLP207 P0005 T00330017=
201002050052 METAR KATL 050052Z 09013G19KT 6SM -RA BR OVC026 04/02 A3017 RMK AO2 SLP222 P0001 T00390017=
201002042352 METAR KATL 042352Z 09015G22KT 9SM -RA OVC028 04/01 A3017 RMK AO2 RAE13B51 SLP223 P0000 60000 T00390011 10050 20039 58007=
201002042252 METAR KATL 042252Z 09015KT 7SM -RA OVC030 04/02 A3020 RMK AO2 RAB50 SLP233 P0000 T00390017=
201002042152 METAR KATL 042152Z 08018KT 8SM FEW006 BKN028 OVC110 04/02 A3018 RMK AO2 SLP226 T00390017=
201002042052 METAR KATL 042052Z 07013KT 3SM BR FEW008 BKN028 OVC110 04/02 A3019 RMK AO2 SFC VIS 6 RAB26E41 SLP230 P0000 60000 T00440022 58026=
201002042026 SPECI KATL 042026Z 07017KT 3SM -RA BR FEW008 BKN028 OVC110 04/02 A3019 RMK AO2 SFC VIS 6 RAB26 P0000=
201002042026 SPECI KATL 042026Z 07017KT 3SM -RA BR FEW008 BKN028 OVC110 04/02 A3019 RMK AO2 SFC VIS 6 RAB26 P0000=
201002042024 SPECI KATL 042024Z 08014KT 3SM BR OVC028 04/02 A3019 RMK AO2 SFC VIS 6=
201002042024 SPECI KATL 042024Z 08014KT 3SM BR OVC028 04/02 A3019 RMK AO2 SFC VIS 6=
201002041952 METAR KATL 041952Z 08012KT 3SM BR FEW008 BKN030 OVC110 04/02 A3023 RMK AO2 SFC VIS 6 SLP243 T00390022=
201002041903 SPECI KATL 041903Z 07014KT 3SM BR FEW008 BKN030 OVC110 04/03 A3024 RMK AO2 SFC VIS 6=
201002041903 SPECI KATL 041903Z 07014KT 3SM BR FEW008 BKN030 OVC110 04/03 A3024 RMK AO2 SFC VIS 6=
201002041852 METAR KATL 041852Z 08014KT 3SM BR FEW010 SCT030 OVC110 04/02 A3024 RMK AO2 SFC VIS 6 RAE03B22E44 SLP246 P0000 T00440022=
201002041752 SPECI KATL 041752Z 08015KT 3SM -RA BR FEW008 BKN010 OVC030 04/03 A3027 RMK AO2 SFC VIS 6 SLP257 P0002 60011 T00440028 10061 20044 50009=
201002041652 METAR KATL 041652Z 08013KT 3SM -RA BR FEW006 BKN010 OVC030 04/03 A3029 RMK AO2 SFC VIS 5 SLP264 P0003 T00440033=
201002041552 METAR KATL 041552Z 08011KT 3SM -RA BR BKN010 BKN030 OVC080 05/03 A3030 RMK AO2 SFC VIS 4 PRESRR SLP267 P0004 T00500033=
201002041452 METAR KATL 041452Z 08014KT 3SM -RA BR FEW010 BKN030 OVC080 05/03 A3024 RMK AO2 SFC VIS 5 RAB06 SLP246 P0002 60002 T00500033 53002=
201002041432 SPECI KATL 041432Z 08015KT 3SM -RA BR BKN030 BKN080 OVC150 05/03 A3024 RMK AO2 SFC VIS 5 RAB06 P0000=
201002041432 SPECI KATL 041432Z 08015KT 3SM -RA BR BKN030 BKN080 OVC150 05/03 A3024 RMK AO2 SFC VIS 5 RAB06 P0000=
201002041352 METAR KATL 041352Z 08014KT 7SM FEW080 OVC200 06/03 A3023 RMK AO2 SLP242 T00560028=
201002041252 METAR KATL 041252Z 08011KT 10SM BKN150 OVC250 06/03 A3024 RMK AO2 SLP244 T00560028=
201002041152 METAR KATL 041152Z 09007KT 8SM OVC200 05/02 A3024 RMK AO2 SLP245 T00500022 10056 20039 53013=
201002041052 METAR KATL 041052Z 08005KT 10SM OVC250 06/02 A3022 RMK AO2 SLP237 T00560022=
201002040952 METAR KATL 040952Z 08004KT 7SM OVC250 04/01 A3021 RMK AO2 SLP234 T00440011=
201002040852 METAR KATL 040852Z 09005KT 10SM OVC250 04/01 A3020 RMK AO2 SLP229 T00390006 50003=
201002040752 METAR KATL 040752Z 05004KT 10SM BKN150 OVC250 04/00 A3020 RMK AO2 SLP231 T00440000=
201002040652 METAR KATL 040652Z 04005KT 10SM BKN150 OVC250 05/M01 A3019 RMK AO2 SLP227 T00501006 $=
201002040552 METAR KATL 040552Z 34003KT 10SM FEW150 OVC250 04/M01 A3019 RMK AO2 SLP227 T00391006 10083 20039 55002=
201002040452 METAR KATL 040452Z 33004KT 10SM SCT150 OVC250 04/M01 A3019 RMK AO2 SLP227 T00441006 401330028=
201002040352 METAR KATL 040352Z 32003KT 10SM FEW150 OVC250 05/M01 A3019 RMK AO2 SLP228 T00501006=
201002040252 METAR KATL 040252Z 34007KT 10SM SCT150 BKN250 06/M01 A3020 RMK AO2 SLP231 T00561006 50016=
201002040152 METAR KATL 040152Z 34010KT 10SM OVC200 07/00 A3020 RMK AO2 SLP232 T00720000=
201002040052 METAR KATL 040052Z 33009KT 10SM BKN200 BKN250 08/00 A3018 RMK AO2 SLP226 T00780000=
201002032352 METAR KATL 032352Z 32006KT 10SM SCT200 BKN250 08/00 A3015 RMK AO2 SLP214 T00830000 10133 20083 53010=
201002032252 METAR KATL 032252Z 32006KT 10SM FEW200 BKN250 10/00 A3013 RMK AO2 SLP207 T01000000=
201002032152 METAR KATL 032152Z 31007KT 10SM FEW250 12/00 A3012 RMK AO2 SLP205 T01220000=
201002032052 METAR KATL 032052Z 32005KT 10SM FEW250 13/00 A3012 RMK AO2 SLP201 T01280000 56015=
201002031952 METAR KATL 031952Z 33004KT 10SM FEW250 12/00 A3012 RMK AO2 SLP201 T01220000=
201002031852 METAR KATL 031852Z 01008KT 10SM FEW250 12/00 A3013 RMK AO2 SLP205 T01170000=
201002031752 METAR KATL 031752Z 30008KT 10SM FEW250 10/01 A3016 RMK AO2 SLP218 T01000006 10106 20028 58008=
201002031652 METAR KATL 031652Z 30007KT 10SM FEW250 08/01 A3018 RMK AO2 SLP225 T00830006=
201002031552 METAR KATL 031552Z 33010KT 10SM FEW250 07/00 A3019 RMK AO2 SLP228 T00670000=
201002031452 METAR KATL 031452Z 34013KT 10SM SCT250 05/M01 A3019 RMK AO2 SLP227 T00501006 53020=
201002031352 METAR KATL 031352Z 35013G18KT 10SM SCT250 04/M01 A3017 RMK AO2 SLP220 T00391011=
201002031252 METAR KATL 031252Z 34012KT 10SM FEW030 SCT250 03/M01 A3013 RMK AO2 SLP208 T00281011=
201002031152 METAR KATL 031152Z 34011KT 10SM FEW030 03/M01 A3013 RMK AO2 SLP206 70001 T00331011 10056 20028 53002=
201002031052 METAR KATL 031052Z 34014KT 10SM FEW035 03/M01 A3012 RMK AO2 SLP205 T00331011=
201002030952 METAR KATL 030952Z 34008KT 10SM FEW035 03/M01 A3012 RMK AO2 SLP205 T00331006 $=
201002030852 METAR KATL 030852Z 33008KT 8SM BKN032 04/M01 A3012 RMK AO2 SLP205 T00441006 50002=
201002030752 METAR KATL 030752Z 32010KT 8SM BKN026 BKN030 05/01 A3013 RMK AO2 SLP206 T00500006=
201002030652 METAR KATL 030652Z 32007KT 8SM BKN026 BKN030 06/02 A3012 RMK AO2 SLP204 T00560017=
201002030552 METAR KATL 030552Z 32004KT 10SM OVC030 05/03 A3011 RMK AO2 SLP202 T00500028 10072 20044 53008=
201002030452 METAR KATL 030452Z 34008KT 8SM FEW012 05/03 A3009 RMK AO2 SLP195 T00500033 400780039=
201002030352 METAR KATL 030352Z 32008KT 8SM FEW012 06/04 A3009 RMK AO2 SLP195 T00560039=
201002030339 SPECI KATL 030339Z 32008KT 9SM FEW012 SCT020 06/04 A3009 RMK AO2=
201002030339 SPECI KATL 030339Z 32008KT 9SM FEW012 SCT020 06/04 A3009 RMK AO2=
201002030301 SPECI KATL 030301Z 31009KT 8SM SCT014 BKN020 06/04 A3009 RMK AO2=
201002030301 SPECI KATL 030301Z 31009KT 8SM SCT014 BKN020 06/04 A3009 RMK AO2=
201002030252 METAR KATL 030252Z 31007KT 8SM BKN014 BKN020 06/04 A3009 RMK AO2 SLP194 T00610039 51019=
201002030244 SPECI KATL 030244Z 30007KT 8SM BKN014 BKN020 06/04 A3009 RMK AO2=
201002030244 SPECI KATL 030244Z 30007KT 8SM BKN014 BKN020 06/04 A3009 RMK AO2=
201002030152 METAR KATL 030152Z 30008KT 9SM FEW014 OVC032 07/04 A3008 RMK AO2 SLP190 T00720044=
201002030123 SPECI KATL 030123Z 31011KT 9SM SCT016 OVC032 07/04 A3006 RMK AO2=
201002030123 SPECI KATL 030123Z 31011KT 9SM SCT016 OVC032 07/04 A3006 RMK AO2=
201002030052 METAR KATL 030052Z 31008KT 10SM SCT017 BKN023 OVC030 07/04 A3006 RMK AO2 SLP182 T00720044=
201002022352 METAR KATL 022352Z 32008KT 10SM BKN015 OVC029 07/04 A3003 RMK AO2 SLP175 T00720044 10078 20061 51007=
201002022252 METAR KATL 022252Z 32010KT 10SM OVC015 08/05 A3003 RMK AO2 SLP175 T00780050=
201002022218 SPECI KATL 022218Z 31010KT 10SM OVC016 08/05 A3003 RMK AO2=
201002022218 SPECI KATL 022218Z 31010KT 10SM OVC016 08/05 A3003 RMK AO2=
201002022152 METAR KATL 022152Z 31009KT 10SM OVC014 08/05 A3003 RMK AO2 SLP172 T00780050=
201002022052 METAR KATL 022052Z 30008KT 10SM OVC012 08/06 A3001 RMK AO2 SLP168 T00780056 55003=
201002022033 SPECI KATL 022033Z 30007KT 9SM OVC012 08/06 A3001 RMK AO2=
201002022033 SPECI KATL 022033Z 30007KT 9SM OVC012 08/06 A3001 RMK AO2=
201002021952 METAR KATL 021952Z 31007KT 9SM OVC007 07/05 A2999 RMK AO2 SLP160 T00720050=
201002021852 METAR KATL 021852Z 32007KT 8SM OVC007 06/04 A3000 RMK AO2 SLP163 T00610044=
201002021752 METAR KATL 021752Z 31005KT 6SM BR OVC007 06/04 A3002 RMK AO2 SLP171 60001 T00610044 10061 20039 58013=
201002021652 METAR KATL 021652Z 32006KT 6SM BR OVC007 06/04 A3005 RMK AO2 SLP180 T00560039=
201002021552 METAR KATL 021552Z 04006KT 6SM BR BKN007 OVC010 06/04 A3006 RMK AO2 SLP184 T00560039=
201002021522 SPECI KATL 021522Z 04008KT 6SM BR BKN007 OVC010 05/03 A3007 RMK AO2=
201002021522 SPECI KATL 021522Z 04008KT 6SM BR BKN007 OVC010 05/03 A3007 RMK AO2=
201002021452 METAR KATL 021452Z 03009KT 2 1/2SM BR BKN007 OVC010 04/03 A3006 RMK AO2 SFC VIS 5 SLP184 60001 T00440033 58001=
201002021352 METAR KATL 021352Z 02007KT 2 1/2SM BR BKN007 OVC015 04/03 A3007 RMK AO2 SFC VIS 4 SLP188 T00440028=
201002021333 SPECI KATL 021333Z 03007KT 2 1/2SM BR BKN007 OVC015 04/03 A3007 RMK AO2 SFC VIS 3=
201002021333 SPECI KATL 021333Z 03007KT 2 1/2SM BR BKN007 OVC015 04/03 A3007 RMK AO2 SFC VIS 3=
201002021252 METAR KATL 021252Z 03007KT 6SM BR OVC005 04/03 A3006 RMK AO2 RAE11 SLP183 P0001 T00390028 $=
201002021242 SPECI KATL 021242Z 04010KT 2 1/2SM BR BKN005 OVC019 04/03 A3005 RMK AO2 SFC VIS 6 RAE11 CIG 005V009 P0001 $=
201002021242 SPECI KATL 021242Z 04010KT 2 1/2SM BR BKN005 OVC019 04/03 A3005 RMK AO2 SFC VIS 6 RAE11 CIG 005V009 P0001 $=
201002021227 SPECI KATL 021227Z 06008KT 2 1/2SM BR SCT005 OVC019 04/03 A3005 RMK AO2 SFC VIS 6 RAE11 P0001 $=
201002021227 SPECI KATL 021227Z 06008KT 2 1/2SM BR SCT005 OVC019 04/03 A3005 RMK AO2 SFC VIS 6 RAE11 P0001 $=
201002021152 METAR KATL 021152Z 03009KT 2 1/2SM -RA BR OVC005 04/03 A3006 RMK AO2 SFC VIS 3 CIG 001V009 SLP185 P0002 60032 70032 T00390028 10072 20039 51008=
201002021123 SPECI KATL 021123Z 34006KT 2 1/2SM -RA BR BKN005 OVC011 04/03 A3007 RMK AO2 SFC VIS 3 CIG 003V007 P0001=
201002021123 SPECI KATL 021123Z 34006KT 2 1/2SM -RA BR BKN005 OVC011 04/03 A3007 RMK AO2 SFC VIS 3 CIG 003V007 P0001=
201002021052 METAR KATL 021052Z 36007KT 5SM -RA BR BKN006 OVC012 04/03 A3006 RMK AO2 SLP182 P0005 T00390033=
201002020959 SPECI KATL 020959Z 32003KT 4SM -RA BR OVC006 04/03 A3006 RMK AO2 P0002=
201002020959 SPECI KATL 020959Z 32003KT 4SM -RA BR OVC006 04/03 A3006 RMK AO2 P0002=
201002020952 METAR KATL 020952Z 35003KT 4SM -RA BR OVC013 04/03 A3006 RMK AO2 SLP183 P0020 T00390028=
201002020852 METAR KATL 020852Z 06010KT 6SM -RA BR OVC013 04/03 A3004 RMK AO2 RAB16 SLP175 P0002 60005 T00440028 56021=
201002020840 SPECI KATL 020840Z 07009KT 6SM -RA BR OVC013 04/03 A3005 RMK AO2 RAB16 P0001=
201002020840 SPECI KATL 020840Z 07009KT 6SM -RA BR OVC013 04/03 A3005 RMK AO2 RAB16 P0001=
201002020752 METAR KATL 020752Z 07011KT 6SM BR BKN017 OVC031 05/02 A3005 RMK AO2 RAE42 PRESFR SLP177 P0002 T00500022=
201002020652 METAR KATL 020652Z 00000KT 6SM -RA BR OVC021 06/01 A3009 RMK AO2 RAE00B37 SLP192 P0001 T00610006=
201002020552 METAR KATL 020552Z 09008KT 10SM -RA OVC023 07/00 A3010 RMK AO2 RAB20 SLP198 P0000 60000 T00670000 10094 20067 58012=
201002020452 METAR KATL 020452Z 08010KT 10SM OVC025 08/M02 A3011 RMK AO2 SLP202 T00781022 401171017=
201002020352 METAR KATL 020352Z 08009KT 10SM BKN027 OVC080 08/M02 A3013 RMK AO2 SLP208 T00781017=
201002020344 SPECI KATL 020344Z 09010KT 10SM BKN028 OVC080 08/M02 A3014 RMK AO2=
201002020344 SPECI KATL 020344Z 09010KT 10SM BKN028 OVC080 08/M02 A3014 RMK AO2=
201002020252 METAR KATL 020252Z 09012KT 10SM FEW060 BKN075 OVC250 08/M01 A3014 RMK AO2 SLP212 T00781011 58011=
201002020152 METAR KATL 020152Z 09011KT 10SM OVC045 08/M01 A3017 RMK AO2 SLP222 T00831006=
201002020052 METAR KATL 020052Z 09010KT 10SM BKN045 OVC065 09/00 A3017 RMK AO2 SLP221 T00890000=
201002012352 METAR KATL 012352Z 09008KT 10SM FEW040 OVC070 09/01 A3017 RMK AO2 SLP224 T00940006 10117 20078 50002=
201002012252 METAR KATL 012252Z 09006KT 10SM FEW045 OVC060 10/00 A3018 RMK AO2 SLP227 T01000000=
201002012152 METAR KATL 012152Z 09009KT 10SM FEW045 BKN055 BKN250 11/01 A3017 RMK AO2 SLP221 T01060006=
201002012052 METAR KATL 012052Z 11005KT 10SM FEW045 SCT250 12/01 A3017 RMK AO2 SLP221 T01170006 56023=
201002011952 METAR KATL 011952Z 13004KT 10SM FEW030 SCT040 BKN250 11/01 A3018 RMK AO2 SLP224 T01110006=
201002011916 SPECI KATL 011916Z VRB03KT 10SM BKN030 BKN040 BKN250 10/M01 A3020 RMK AO2=
201002011916 SPECI KATL 011916Z VRB03KT 10SM BKN030 BKN040 BKN250 10/M01 A3020 RMK AO2=
201002011852 METAR KATL 011852Z VRB03KT 10SM BKN032 BKN250 09/M02 A3020 RMK AO2 SLP234 T00941022=
201002011752 METAR KATL 011752Z 12005KT 10SM SCT034 SCT250 08/M02 A3024 RMK AO2 SLP247 T00781022 10083 21011 58021=
201002011716 SPECI KATL 011716Z 11007KT 10SM BKN030 BKN250 07/M03 A3027 RMK AO2 $=
201002011716 SPECI KATL 011716Z 11007KT 10SM BKN030 BKN250 07/M03 A3027 RMK AO2 $=
201002011652 METAR KATL 011652Z 11007KT 10SM SCT025 SCT250 07/M02 A3029 RMK AO2 SLP264 T00721017 $=
201002011648 SPECI KATL 011648Z 13005KT 10SM BKN025 BKN250 07/M02 A3029 RMK AO2 $=
201002011648 SPECI KATL 011648Z 13005KT 10SM BKN025 BKN250 07/M02 A3029 RMK AO2 $=
201002011552 SPECI KATL 011552Z 13007KT 10SM FEW028 SCT250 05/M02 A3030 RMK AO2 SLP268 T00501017 $=
201002011452 METAR KATL 011452Z 13008KT 10SM FEW250 02/M02 A3030 RMK AO2 SLP267 T00221017 53006=
201002011352 METAR KATL 011352Z 09008KT 8SM FEW040 SCT150 BKN250 M01/M02 A3029 RMK AO2 SLP267 T10061022=
201002011252 METAR KATL 011252Z 08008KT 8SM FEW090 SCT150 BKN250 M01/M03 A3028 RMK AO2 SLP263 T10061028=
