##########################################################
# Query made at 04/19/2024 23:18:43 UTC
# Time interval: from 10/01/2010 12:00  to 10/31/2010 12:59  UTC
##########################################################

##########################################################
# KATL, Atlanta, Hartsfield - Jackson Atlanta International Airport (United States)
# WMO index: 72219. WIGOS ID: 0-20000-0-72219
# Latitude 33-38-59N. Longitude 084-25-00W. Altitude 312 m.
##########################################################

201010311252 METAR KATL 311252Z 00000KT 10SM FEW040 SCT250 12/08 A3010 RMK AO2 SLP191 T01170083=
201010311152 METAR KATL 311152Z 00000KT 10SM FEW250 10/08 A3008 RMK AO2 SLP186 T01000078 10128 20100 51006=
201010311052 METAR KATL 311052Z 00000KT 10SM FEW250 10/08 A3008 RMK AO2 SLP184 T01000078=
201010310952 METAR KATL 310952Z 29005KT 10SM FEW250 12/08 A3007 RMK AO2 SLP179 T01170078=
201010310852 METAR KATL 310852Z 00000KT 10SM CLR 11/08 A3006 RMK AO2 SLP177 T01060078 53003=
201010310752 METAR KATL 310752Z 32003KT 10SM CLR 12/08 A3005 RMK AO2 SLP173 T01220078=
201010310652 METAR KATL 310652Z 00000KT 10SM CLR 12/07 A3005 RMK AO2 SLP172 T01220072=
201010310552 METAR KATL 310552Z 00000KT 10SM CLR 12/07 A3005 RMK AO2 SLP174 T01170072 10167 20111 57010=
201010310452 METAR KATL 310452Z 00000KT 10SM CLR 12/08 A3006 RMK AO2 SLP178 T01220078 402170056=
201010310352 METAR KATL 310352Z 00000KT 10SM CLR 13/08 A3007 RMK AO2 SLP182 T01330078=
201010310252 METAR KATL 310252Z 00000KT 10SM CLR 13/08 A3009 RMK AO2 SLP186 T01330083 57001=
201010310152 METAR KATL 310152Z 00000KT 10SM CLR 14/08 A3008 RMK AO2 SLP186 T01440078=
201010310052 METAR KATL 310052Z 00000KT 10SM CLR 16/08 A3009 RMK AO2 SLP191 T01560078=
201010302352 METAR KATL 302352Z 00000KT 10SM CLR 16/08 A3009 RMK AO2 SLP190 T01610078 10217 20161 55006=
201010302252 METAR KATL 302252Z 18004KT 10SM CLR 18/07 A3009 RMK AO2 SLP188 T01830072=
201010302152 METAR KATL 302152Z 22005KT 10SM FEW250 21/06 A3010 RMK AO2 SLP190 T02110061=
201010302052 METAR KATL 302052Z 21006KT 10SM FEW250 22/06 A3011 RMK AO2 SLP194 T02170056 56023=
201010301952 METAR KATL 301952Z 23007KT 190V280 10SM BKN250 22/06 A3012 RMK AO2 SLP197 T02170061=
201010301852 METAR KATL 301852Z 24007KT 10SM BKN250 21/06 A3015 RMK AO2 SLP207 T02060061=
201010301752 METAR KATL 301752Z 22008KT 10SM BKN250 20/06 A3018 RMK AO2 SLP217 T02000061 10206 20067 58023=
201010301652 METAR KATL 301652Z 19007KT 10SM SCT250 18/06 A3021 RMK AO2 SLP230 T01780056=
201010301552 METAR KATL 301552Z 19009KT 10SM SCT250 17/05 A3024 RMK AO2 SLP239 T01670050=
201010301452 METAR KATL 301452Z 14004KT 10SM BKN250 14/05 A3025 RMK AO2 SLP243 T01440050 50010=
201010301352 METAR KATL 301352Z 09007KT 10SM FEW200 11/04 A3026 RMK AO2 SLP248 T01060044=
201010301252 METAR KATL 301252Z 09007KT 10SM FEW200 08/04 A3024 RMK AO2 SLP242 T00780039=
201010301152 METAR KATL 301152Z 07005KT 10SM FEW200 07/02 A3022 RMK AO2 SLP234 T00670022 10089 20056 53013=
201010301052 METAR KATL 301052Z 00000KT 10SM FEW200 06/03 A3020 RMK AO2 SLP228 T00610028=
201010300952 METAR KATL 300952Z 00000KT 10SM CLR 06/02 A3019 RMK AO2 SLP224 T00560022=
201010300852 METAR KATL 300852Z 00000KT 10SM CLR 06/02 A3018 RMK AO2 SLP219 T00610017 53003=
201010300752 METAR KATL 300752Z 00000KT 10SM CLR 08/01 A3017 RMK AO2 SLP216 T00780011=
201010300652 METAR KATL 300652Z 00000KT 10SM CLR 08/01 A3017 RMK AO2 SLP215 T00830006=
201010300552 METAR KATL 300552Z 35004KT 10SM CLR 09/00 A3017 RMK AO2 SLP215 T00890000 10139 20089 56011=
201010300452 METAR KATL 300452Z 33006KT 10SM CLR 09/01 A3018 RMK AO2 SLP219 T00940006 402000072=
201010300352 METAR KATL 300352Z 35004KT 10SM CLR 10/00 A3019 RMK AO2 SLP225 T01000000=
201010300252 METAR KATL 300252Z 32006KT 10SM CLR 11/M01 A3020 RMK AO2 SLP229 T01111006 53005=
201010300152 METAR KATL 300152Z 32007KT 10SM CLR 12/M01 A3019 RMK AO2 SLP225 T01171006=
201010300052 METAR KATL 300052Z 32006KT 10SM CLR 12/01 A3019 RMK AO2 SLP226 T01220006=
201010292352 METAR KATL 292352Z 33007KT 10SM CLR 14/02 A3019 RMK AO2 SLP223 T01390022 10200 20139 53005=
201010292252 METAR KATL 292252Z 33007KT 10SM CLR 15/02 A3017 RMK AO2 SLP218 T01500022=
201010292152 METAR KATL 292152Z 33011KT 10SM CLR 18/02 A3017 RMK AO2 SLP214 T01830017=
201010292052 METAR KATL 292052Z 31009KT 10SM CLR 19/02 A3017 RMK AO2 SLP215 T01890017 56016=
201010291952 METAR KATL 291952Z 33007KT 10SM CLR 19/01 A3018 RMK AO2 SLP217 T01890011=
201010291852 METAR KATL 291852Z 34008KT 10SM CLR 18/02 A3019 RMK AO2 SLP221 T01830022=
201010291752 METAR KATL 291752Z 33009KT 10SM CLR 18/03 A3022 RMK AO2 SLP232 T01780033 10178 20072 58004=
201010291652 METAR KATL 291652Z 33007KT 10SM CLR 16/03 A3023 RMK AO2 SLP236 T01610033=
201010291552 METAR KATL 291552Z 29008KT 10SM CLR 13/03 A3024 RMK AO2 SLP239 T01330033=
201010291452 METAR KATL 291452Z 31005KT 10SM CLR 12/03 A3023 RMK AO2 SLP238 T01170033 52019=
201010291352 METAR KATL 291352Z 33011KT 10SM CLR 09/03 A3022 RMK AO2 SLP232 T00940028=
201010291252 METAR KATL 291252Z 32008KT 10SM CLR 08/03 A3019 RMK AO2 SLP225 T00780028=
201010291152 METAR KATL 291152Z 32009KT 10SM CLR 07/03 A3018 RMK AO2 SLP218 70014 T00720028 10128 20072 51010 $=
201010291052 METAR KATL 291052Z 32007KT 10SM CLR 08/03 A3017 RMK AO2 SLP215 T00780028=
201010290952 METAR KATL 290952Z 31008KT 10SM CLR 09/03 A3016 RMK AO2 SLP210 T00890028=
201010290852 METAR KATL 290852Z 31007KT 10SM CLR 09/03 A3014 RMK AO2 SLP204 T00940028 58004=
201010290752 METAR KATL 290752Z 33008KT 10SM CLR 11/03 A3015 RMK AO2 SLP205 T01060028=
201010290652 METAR KATL 290652Z 32008KT 10SM CLR 12/02 A3016 RMK AO2 SLP208 T01170022=
201010290552 METAR KATL 290552Z 34013G17KT 10SM CLR 12/02 A3016 RMK AO2 SLP208 T01220022 10167 20122 51007=
201010290452 METAR KATL 290452Z 32011KT 10SM CLR 13/03 A3015 RMK AO2 SLP206 T01330028 403000128=
201010290352 METAR KATL 290352Z 33012KT 10SM CLR 13/03 A3015 RMK AO2 SLP207 T01330033=
201010290252 METAR KATL 290252Z 31007KT 10SM CLR 14/04 A3014 RMK AO2 SLP201 T01390039 51005=
201010290152 METAR KATL 290152Z 30009KT 10SM FEW200 14/04 A3013 RMK AO2 SLP200 T01440044=
201010290052 METAR KATL 290052Z 29006KT 10SM FEW200 16/04 A3013 RMK AO2 SLP198 T01560044=
201010282352 METAR KATL 282352Z 29004KT 10SM SCT200 17/06 A3012 RMK AO2 SLP194 T01670056 10233 20167 53009=
201010282252 METAR KATL 282252Z 29004KT 10SM BKN200 18/05 A3010 RMK AO2 SLP188 T01830050=
201010282152 METAR KATL 282152Z 32006KT 10SM BKN200 20/04 A3010 RMK AO2 SLP185 T02000044=
201010282052 METAR KATL 282052Z 32011KT 10SM BKN200 22/04 A3009 RMK AO2 SLP183 T02220039 55001=
201010281952 METAR KATL 281952Z 33010KT 10SM BKN200 22/03 A3009 RMK AO2 SLP181 T02220028=
201010281852 METAR KATL 281852Z 30013KT 10SM BKN200 23/06 A3008 RMK AO2 SLP178 T02280056=
201010281752 METAR KATL 281752Z 31012KT 10SM BKN200 22/10 A3009 RMK AO2 SLP184 T02170100 10222 20206 58007=
201010281652 METAR KATL 281652Z 33008KT 10SM FEW025 SCT100 BKN200 21/14 A3012 RMK AO2 SLP192 T02110144=
201010281552 METAR KATL 281552Z 32010KT 10SM FEW020 SCT100 BKN200 21/14 A3012 RMK AO2 SLP193 T02060144=
201010281455 SPECI KATL 281455Z 32010KT 10SM FEW013 BKN020 BKN100 BKN200 21/18 A3011 RMK AO2=
201010281455 SPECI KATL 281455Z 32010KT 10SM FEW013 BKN020 BKN100 BKN200 21/18 A3011 RMK AO2=
201010281452 METAR KATL 281452Z 33011KT 8SM FEW008 SCT020 SCT100 BKN200 22/18 A3011 RMK AO2 SLP191 T02170183=
201010281352 METAR KATL 281352Z 31006KT 5SM BR FEW008 SCT100 BKN200 21/19 A3011 RMK AO2 SLP188 T02110194=
201010281327 SPECI KATL 281327Z 32005KT 5SM BR FEW009 BKN015 OVC090 21/19 A3010 RMK AO2=
201010281327 SPECI KATL 281327Z 32005KT 5SM BR FEW009 BKN015 OVC090 21/19 A3010 RMK AO2=
201010281252 METAR KATL 281252Z COR 32006KT 6SM BR SCT005 BKN008 BKN090 21/21 A3009 RMK AO2 SLP183 T02060206 $=
201010281152 METAR KATL 281152Z 32007KT 7SM FEW007 BKN100 21/21 A3007 RMK AO2 SLP176 60010 70254 T02060206 10206 20206 51008 PNO $=
201010281052 METAR KATL 281052Z 22003KT 10SM FEW004 BKN120 21/20 A3007 RMK AO2 SLP174 RAE24 P0010 T02060200 $=
201010281022 SPECI KATL 281022Z 00000KT 5SM -RA BR BKN003 BKN006 BKN025 21/20 A3006 RMK AO2 P0010=
201010281022 SPECI KATL 281022Z 00000KT 5SM -RA BR BKN003 BKN006 BKN025 21/20 A3006 RMK AO2 P0010=
201010281010 SPECI KATL 281010Z 30003KT 1/2SM +RA BR BKN001 BKN003 OVC010 21/20 A3007 RMK AO2 SFC VIS 1 3/4 P0005=
201010281010 SPECI KATL 281010Z 30003KT 1/2SM +RA BR BKN001 BKN003 OVC010 21/20 A3007 RMK AO2 SFC VIS 1 3/4 P0005=
201010280957 SPECI KATL 280957Z 33006KT 1/2SM -RA BR OVC003 21/20 A3007 RMK AO2 SFC VIS 3 P0000 $=
201010280957 SPECI KATL 280957Z 33006KT 1/2SM -RA BR OVC003 21/20 A3007 RMK AO2 SFC VIS 3 P0000 $=
201010280952 METAR KATL 280952Z 32006KT 1SM -RA BR SCT001 OVC003 21/20 A3007 RMK AO2 SFC VIS 4 RAB44 SLP174 P0000 T02060200 $=
201010280944 SPECI KATL 280944Z 31005KT 1SM -RA BR SCT001 OVC003 21/20 A3006 RMK AO2 SFC VIS 4 RAB44 P0000 $=
201010280944 SPECI KATL 280944Z 31005KT 1SM -RA BR SCT001 OVC003 21/20 A3006 RMK AO2 SFC VIS 4 RAB44 P0000 $=
201010280852 METAR KATL 280852Z 00000KT 10SM BKN003 BKN008 OVC100 21/20 A3005 RMK AO2 SLP167 60000 T02060200 56007 $=
201010280816 SPECI KATL 280816Z 00000KT 10SM SCT005 BKN025 21/19 A3004 RMK AO2 $=
201010280816 SPECI KATL 280816Z 00000KT 10SM SCT005 BKN025 21/19 A3004 RMK AO2 $=
201010280752 METAR KATL 280752Z 22004KT 10SM FEW030 SCT110 OVC200 21/20 A3005 RMK AO2 RAE22 SLP168 P0000 T02060200 $=
201010280652 METAR KATL 280652Z 26003KT 10SM -RA FEW005 SCT030 BKN055 OVC150 21/20 A3006 RMK AO2 SLP172 P0000 T02060200 $=
201010280552 METAR KATL 280552Z 22004KT 10SM -RA SCT005 BKN050 BKN065 21/20 A3007 RMK AO2 SLP175 P0005 60063 T02060200 10217 20206 50003 $=
201010280522 SPECI KATL 280522Z 22006KT 9SM -RA SCT005 BKN014 OVC030 21/20 A3008 RMK AO2 OCNL LTG DSNT SE P0004 $=
201010280522 SPECI KATL 280522Z 22006KT 9SM -RA SCT005 BKN014 OVC030 21/20 A3008 RMK AO2 OCNL LTG DSNT SE P0004 $=
201010280452 METAR KATL 280452Z 24006KT 6SM RA BR FEW005 BKN030 OVC050 21/20 A3008 RMK AO2 TSB17E43RAB06 SLP179 OCNL LTG DSNT S P0048 T02110200 402440211 $=
201010280443 SPECI KATL 280443Z 25012KT 6SM RA BR FEW005 SCT025 OVC050 21/20 A3009 RMK AO2 TSB17E43RAB06 TS MOV NE P0046 $=
201010280443 SPECI KATL 280443Z 25012KT 6SM RA BR FEW005 SCT025 OVC050 21/20 A3009 RMK AO2 TSB17E43RAB06 TS MOV NE P0046 $=
201010280428 SPECI KATL 280428Z 24011KT 5SM TSRA BR FEW005 SCT025CB OVC045 22/21 A3009 RMK AO2 TSB17RAB06 OCNL LTGIC E-SE TS E-SE MOV NE P0040 $=
201010280428 SPECI KATL 280428Z 24011KT 5SM TSRA BR FEW005 SCT025CB OVC045 22/21 A3009 RMK AO2 TSB17RAB06 OCNL LTGIC E-SE TS E-SE MOV NE P0040 $=
201010280418 SPECI KATL 280418Z 24012KT 2 1/2SM +TSRA BR FEW005 BKN025CB OVC045 22/21 A3010 RMK AO2 TSB17RAB06 OCNL LTGIC SW TS SW MOV NE P0019 $=
201010280418 SPECI KATL 280418Z 24012KT 2 1/2SM +TSRA BR FEW005 BKN025CB OVC045 22/21 A3010 RMK AO2 TSB17RAB06 OCNL LTGIC SW TS SW MOV NE P0019 $=
201010280352 METAR KATL 280352Z 23004KT 10SM FEW004 BKN055 BKN110 OVC150 22/21 A3007 RMK AO2 RAB19E39 SLP176 OCNL LTG DSNT SW P0000 T02170206 $=
201010280252 METAR KATL 280252Z 20003KT 10SM FEW006 BKN070 BKN150 OVC200 21/21 A3006 RMK AO2 SLP170 60010 T02110206 51010 $=
201010280152 METAR KATL 280152Z 19006KT 10SM BKN050 BKN065 BKN150 OVC200 22/21 A3006 RMK AO2 RAE16 SLP170 P0003 T02170206 $=
201010280052 METAR KATL 280052Z 21004KT 7SM -RA FEW015CB BKN060 BKN090 OVC150 22/21 A3006 RMK AO2 RAB2354 SLP169 CB SE MOV NE P0007 T02170206 $=
201010272352 METAR KATL 272352Z 00000KT 10SM FEW045 BKN060 BKN110 BKN150 BKN250 22/21 A3003 RMK AO2 RAB20E33 SLP160 OCNL LTG DSNT SE AND SW P0001 60137 T02170206 10233 20217 51007=
201010272252 METAR KATL 272252Z 00000KT 10SM FEW030 SCT065 BKN090 BKN150 OVC250 22/21 A3002 RMK AO2 RAE42 SLP156 FRQ LTG DSNT SE P0022 T02170206=
201010272202 SPECI KATL 272202Z 27005KT 7SM -RA FEW008 BKN035 BKN060 OVC150 22/21 A3001 RMK AO2 VIS LWR NE P0013=
201010272202 SPECI KATL 272202Z 27005KT 7SM -RA FEW008 BKN035 BKN060 OVC150 22/21 A3001 RMK AO2 VIS LWR NE P0013=
201010272156 SPECI KATL 272156Z 29006KT 2 1/2SM +RA SCT010 BKN035 BKN060 OVC150 22/21 A3002 RMK AO2 P0009=
201010272156 SPECI KATL 272156Z 29006KT 2 1/2SM +RA SCT010 BKN035 BKN060 OVC150 22/21 A3002 RMK AO2 P0009=
201010272152 METAR KATL 272152Z 27005KT 5SM RA SCT010 BKN035 BKN060 OVC150 22/21 A3002 RMK AO2 TSE48 SLP157 VIS LWR S-SW P0042 T02220211=
201010272148 SPECI KATL 272148Z 26004KT 9SM -RA FEW010 SCT035 BKN060 OVC150 22/21 A3002 RMK AO2 TSE48 TS MOV NE P0039=
201010272148 SPECI KATL 272148Z 26004KT 9SM -RA FEW010 SCT035 BKN060 OVC150 22/21 A3002 RMK AO2 TSE48 TS MOV NE P0039=
201010272117 SPECI KATL 272117Z 30008KT 9SM -TSRA FEW005 SCT015CB BKN060 OVC150 23/22 A3001 RMK AO2 OCNL LTGICCG NE-E-SE TS NE-E-SE MOV NE P0027=
201010272117 SPECI KATL 272117Z 30008KT 9SM -TSRA FEW005 SCT015CB BKN060 OVC150 23/22 A3001 RMK AO2 OCNL LTGICCG NE-E-SE TS NE-E-SE MOV NE P0027=
201010272103 SPECI KATL 272103Z 30012G19KT 2 1/2SM R09R/3000VP6000FT -TSRA BR FEW005 SCT010CB OVC060 23/22 A3001 RMK AO2 SFC VIS 4 FRQ LTGICCG NE-E-SE TS NE-E-SE MOV NE P0023=
201010272103 SPECI KATL 272103Z 30012G19KT 2 1/2SM R09R/3000VP6000FT -TSRA BR FEW005 SCT010CB OVC060 23/22 A3001 RMK AO2 SFC VIS 4 FRQ LTGICCG NE-E-SE TS NE-E-SE MOV NE P0023=
201010272052 METAR KATL 272052Z 32011KT 1/2SM R09R/2800VP6000FT +TSRA BR BKN020CB BKN040 OVC050 23/22 A3000 RMK AO2 SFC VIS 1 TSB35RAB35 SLP151 FRQ LTGICCG OHD TS OHD MOV NE P0005 60072 T02280217 55002=
201010272035 SPECI KATL 272035Z 00000KT 10SM -TSRA FEW030CB SCT050 BKN150 BKN200 23/22 A2998 RMK AO2 TSB35RAB35 FRQ LTGICCG SW-W-NW TS SW-W-NW MOV NE P0000=
201010272035 SPECI KATL 272035Z 00000KT 10SM -TSRA FEW030CB SCT050 BKN150 BKN200 23/22 A2998 RMK AO2 TSB35RAB35 FRQ LTGICCG SW-W-NW TS SW-W-NW MOV NE P0000=
201010272023 SPECI KATL 272023Z 00000KT 10SM FEW030TCU SCT050 BKN150 BKN200 23/22 A2998 RMK AO2 CB DSNT SW-W-NW TCU NE-E SHRA DNST SW-W-NW=
201010272023 SPECI KATL 272023Z 00000KT 10SM FEW030TCU SCT050 BKN150 BKN200 23/22 A2998 RMK AO2 CB DSNT SW-W-NW TCU NE-E SHRA DNST SW-W-NW=
201010271952 METAR KATL 271952Z 33006KT 10SM FEW027CB BKN040 BKN050 23/22 A2998 RMK AO2 PK WND 32028/1906 TSE22RAE34 SLP143 CB VC NW MOV NE CB DSNT NE & S SHRA DSNT NE & S & VC NW P0047 T02330217=
201010271922 SPECI KATL 271922Z 25005G18KT 8SM -RA BKN024 BKN045 OVC070 23/22 A2999 RMK AO2 PK WND 32028/1906 TSE22 CB NE-E & SW MOV NE SHRA NE-E & SW-W-NW P0047=
201010271922 SPECI KATL 271922Z 25005G18KT 8SM -RA BKN024 BKN045 OVC070 23/22 A2999 RMK AO2 PK WND 32028/1906 TSE22 CB NE-E & SW MOV NE SHRA=
201010271916 SPECI KATL 271916Z 25012G18KT 1/2SM R09R/1400VP6000FT +TSRA BR BKN012CB BKN030 OVC070 23/22 A2998 RMK AO2 PK WND 32028/1906 SFC VIS 2 VIS NE 1/2 E 1/2 OCNL LTGICCG OHD-NE-E TS OHD-NE-E MOV NE P0047=
201010271916 SPECI KATL 271916Z 25012G18KT 1/2SM R09R/1400VP6000FT +TSRA BR BKN012CB BKN030 OVC070 23/22 A2998 RMK AO2 PK WND 32028/1906 SFC VIS 2 VIS NE 1/2 E 1/2 OCNL LTGICCG OHD-NE-E TS OHD-NE-E MOV NE P0047=
201010271909 SPECI KATL 271909Z 30019G28KT 1/2SM R09R/1400VP6000FT +TSRA BR BKN016CB BKN045 OVC070 22/22 A2997 RMK AO2 PK WND 32028/1906 SFC VIS 1 OCNL LTGICCG OHD TS OHD MOV NE P0017=
201010271909 SPECI KATL 271909Z 30019G28KT 1/2SM R09R/1400VP6000FT +TSRA BR BKN016CB BKN045 OVC070 22/22 A2997 RMK AO2 PK WND 32028/1906 SFC VIS 1 OCNL LTGICCG OHD TS OHD MOV NE P0017=
201010271906 SPECI KATL 271906Z 34021G28KT 1/2SM R09R/1800VP6000FT +TSRA BR FEW016CB BKN045 OVC070 23/22 A2997 RMK AO2 PK WND 32028/1906 SFC VIS 1 PRESFR OCNL LTGICCG OHD TS OHD MOV NE P0000=
201010271906 SPECI KATL 271906Z 34021G28KT 1/2SM R09R/1800VP6000FT +TSRA BR FEW016CB BKN045 OVC070 23/22 A2997 RMK AO2 PK WND 32028/1906 SFC VIS 1 PRESFR OCNL LTGICCG OHD TS OHD MOV NE P0000=
201010271852 SPECI KATL 271852Z 00000KT 9SM -TSRA FEW020CB SCT040 BKN050 BKN150 BKN200 23/21 A2998 RMK AO2 TSE31B42 SLP144 OCNL LTGICCG SW-NW TS SW-NW MOV NE CB DSNT NE P0020 T02330211=
201010271843 SPECI KATL 271843Z 00000KT 10SM -TSRA FEW020CB SCT040 BKN050 BKN150 BKN200 23/21 A3000 RMK AO2 TSE31B42 OCNL LTGICCG SW-NW TS SW-NW MOV NE CB DSNT NE P0019=
201010271843 SPECI KATL 271843Z 00000KT 10SM -TSRA FEW020CB SCT040 BKN050 BKN150 BKN200 23/21 A3000 RMK AO2 TSE31B42 OCNL LTGICCG SW-NW TS SW-NW MOV NE CB DSNT NE P0019=
201010271832 SPECI KATL 271832Z 00000KT 10SM FEW020CB BKN040 OVC050 23/21 A3000 RMK AO2 TSE31RAE31 CB DSNT E & VC SW-NW MOV NE SHRA DSNT E & VC SW-NW P0019=
201010271832 SPECI KATL 271832Z 00000KT 10SM FEW020CB BKN040 OVC050 23/21 A3000 RMK AO2 TSE31RAE31 CB DSNT E & VC SW-NW MOV NE SHRA DSNT E & VC SW-NW P0019=
201010271818 SPECI KATL 271818Z 00000KT 4SM -TSRA BR BKN020CB BKN050 OVC070 23/21 A3001 RMK AO2 OCNL LTGICCG E TS E MOV NE CB DSNT SW P0019=
201010271818 SPECI KATL 271818Z 00000KT 4SM -TSRA BR BKN020CB BKN050 OVC070 23/21 A3001 RMK AO2 OCNL LTGICCG E TS E MOV NE CB DSNT SW P0019=
201010271812 SPECI KATL 271812Z 00000KT 2SM R09R/3500VP6000FT -TSRA BR BKN013CB BKN030 OVC070 22/21 A3001 RMK AO2 SFC VIS 4 VIS LWR NE-E-SE SHRA OCNL LTGICCG NE-E-SE TS NE-E-SE MOV NE P0019=
201010271812 SPECI KATL 271812Z 00000KT 2SM R09R/3500VP6000FT -TSRA BR BKN013CB BKN030 OVC070 22/21 A3001 RMK AO2 SFC VIS 4 VIS LWR NE-E-SE SHRA OCNL LTGICCG NE-E-SE TS NE-E-SE MOV NE P0019=
201010271755 SPECI KATL 271755Z VRB03KT 2SM R09R/5000VP6000FT +TSRA BR BKN013CB BKN030 OVC070 23/21 A3001 RMK AO2 SFC VIS 3 OCNL LTGICCG OHD TS OHD MOV NE P0003=
201010271755 SPECI KATL 271755Z VRB03KT 2SM R09R/5000VP6000FT +TSRA BR BKN013CB BKN030 OVC070 23/21 A3001 RMK AO2 SFC VIS 3 OCNL LTGICCG OHD TS OHD MOV NE P0003=
201010271752 METAR KATL 271752Z 04005KT 2SM R09R/5000VP6000FT +TSRA BR BKN017CB BKN040 OVC070 23/21 A3001 RMK AO2 SFC VIS 3 TSB20RAB06 SLP154 OCNL LTGICCG OHD-SW-W-NW TS OHD-SW-W-NW MOV NE P0016 60039 T02280211 10244 20222 580=
201010271735 SPECI KATL 271735Z 00000KT 3SM R09R/5500VP6000FT -TSRA BR BKN017CB BKN040 OVC070 22/21 A3002 RMK AO2 TSB20RAB06 OCNL LTGICCG OHD-SW TS OHD-SW MOV NE P0005=
201010271735 SPECI KATL 271735Z 00000KT 3SM R09R/5500VP6000FT -TSRA BR BKN017CB BKN040 OVC070 22/21 A3002 RMK AO2 TSB20RAB06 OCNL LTGICCG OHD-SW TS OHD-SW MOV NE P0005=
201010271731 SPECI KATL 271731Z 00000KT 3SM R09R/5500VP6000FT +TSRA BR BKN017CB BKN040 OVC070 22/21 A3002 RMK AO2 TSB20RAB06 VIS LWR SW SHRA OCNL LTGICCG SW TS SW MOV NE P0004=
201010271731 SPECI KATL 271731Z 00000KT 3SM R09R/5500VP6000FT +TSRA BR BKN017CB BKN040 OVC070 22/21 A3002 RMK AO2 TSB20RAB06 VIS LWR SW SHRA OCNL LTGICCG SW TS SW MOV NE P0004=
201010271720 SPECI KATL 271720Z 20004KT 8SM -TSRA SCT014CB BKN070 OVC150 22/21 A3003 RMK AO2 TSB20RAB06 VIS LWR SW SHRA OCNL LTGICCG SW TS SW MOV NE P0000=
201010271720 SPECI KATL 271720Z 20004KT 8SM -TSRA SCT014CB BKN070 OVC150 22/21 A3003 RMK AO2 TSB20RAB06 VIS LWR SW SHRA OCNL LTGICCG SW TS SW MOV NE P0000=
201010271652 METAR KATL 271652Z 20003KT 10SM FEW005 SCT020 BKN070 OVC150CB 22/21 A3004 RMK AO2 TSE18RAE38 SLP162 CBMAM OHD-N-NE-E CB DSNT NE &=
201010271619 SPECI KATL 271619Z 27009KT 7SM -RA FEW005 BKN025 OVC040 22/21 A3005 RMK AO2 TSE18 P0005=
201010271619 SPECI KATL 271619Z 27009KT 7SM -RA FEW005 BKN025 OVC040 22/21 A3005 RMK AO2 TSE18 P0005=
201010271608 SPECI KATL 271608Z 25009G18KT 2 1/2SM TSRA BR BKN019CB BKN040 OVC080 23/21 A3005 RMK AO2 SFC VIS 3 OCNL LTGICCG OHD-NE-E TS OHD-NE-E MOV NE P0003=
201010271608 SPECI KATL 271608Z 25009G18KT 2 1/2SM TSRA BR BKN019CB BKN040 OVC080 23/21 A3005 RMK AO2 SFC VIS 3 OCNL LTGICCG OHD-NE-E TS OHD-NE-E MOV NE P0003=
201010271552 METAR KATL 271552Z 25007KT 2 1/2SM R09R/3000VP6000FT +TSRA BR BKN020CB BKN030 OVC080 23/21 A3003 RMK AO2 SFC VIS 3 TSB25RAB34 SLP161 OCNL LTGICCG OHD TS OHD MOV NE P0017 T02330211=
201010271546 SPECI KATL 271546Z 19007KT 3SM R09R/3000VP6000FT +TSRA FEW020 BKN024CB OVC080 24/21 A3003 RMK AO2 TSB25RAB34 OCNL LTGICCG OHD TS OHD MOV NE P0004=
201010271546 SPECI KATL 271546Z 19007KT 3SM R09R/3000VP6000FT +TSRA FEW020 BKN024CB OVC080 24/21 A3003 RMK AO2 TSB25RAB34 OCNL LTGICCG OHD TS OHD MOV NE P0004=
201010271537 SPECI KATL 271537Z 19007G20KT 7SM -TSRA FEW020 BKN027CB BKN080 24/21 A3003 RMK AO2 TSB25RAB34 OCNL LTGICCG SW-W-NW TS SW-W-NW MOV NE P0000=
201010271537 SPECI KATL 271537Z 19007G20KT 7SM -TSRA FEW020 BKN027CB BKN080 24/21 A3003 RMK AO2 TSB25RAB34 OCNL LTGICCG SW-W-NW TS SW-W-NW MOV NE P0000=
201010271525 SPECI KATL 271525Z 20011KT 10SM TS BKN023CB BKN030 OVC080 24/21 A3003 RMK AO2 TSB25 OCNL LTGICCG W TS W MOV E SHRA W=
201010271525 SPECI KATL 271525Z 20011KT 10SM TS BKN023CB BKN030 OVC080 24/21 A3003 RMK AO2 TSB25 OCNL LTGICCG W TS W MOV E SHRA W=
201010271510 SPECI KATL 271510Z 21010KT 10SM BKN020 BKN030 OVC080 24/21 A3003 RMK AO2 FRQ LTG DSNT W CB DSNT W=
201010271510 SPECI KATL 271510Z 21010KT 10SM BKN020 BKN030 OVC080 24/21 A3003 RMK AO2 FRQ LTG DSNT W CB DSNT W=
201010271452 METAR KATL 271452Z 21012KT 10SM BKN020 BKN025 OVC030 24/21 A3003 RMK AO2 SLP159 T02440206 51018=
201010271352 METAR KATL 271352Z 20012G19KT 10SM BKN017 BKN020 BKN030 24/21 A3001 RMK AO2 SLP154 CB DSNT W-NW-N SHRA DSNT W-NW-N T02390206=
201010271252 METAR KATL 271252Z 20009G17KT 10SM SCT017 BKN023 BKN035 24/21 A2999 RMK AO2 SLP147 T02390206=
201010271152 METAR KATL 271152Z 21008KT 10SM SCT016 BKN022 BKN036 23/21 A2997 RMK AO2 SLP139 T02330206 10239 20233 53012=
201010271133 SPECI KATL 271133Z 20009KT 10SM FEW016 BKN031 BKN039 23/21 A2996 RMK AO2=
201010271133 SPECI KATL 271133Z 20009KT 10SM FEW016 BKN031 BKN039 23/21 A2996 RMK AO2=
201010271052 METAR KATL 271052Z 21009KT 10SM BKN019 BKN026 23/21 A2996 RMK AO2 SLP135 T02330206=
201010270952 METAR KATL 270952Z 21009KT 10SM BKN019 BKN025 23/21 A2994 RMK AO2 SLP128 T02330206=
201010270852 METAR KATL 270852Z 21007G16KT 10SM BKN016 BKN024 23/21 A2994 RMK AO2 SLP126 T02330206 52006=
201010270752 METAR KATL 270752Z 21011KT 10SM BKN020 BKN028 23/21 A2993 RMK AO2 SLP124 T02330206=
201010270721 SPECI KATL 270721Z 21013G18KT 10SM SCT020 BKN029 23/21 A2993 RMK AO2=
201010270721 SPECI KATL 270721Z 21013G18KT 10SM SCT020 BKN029 23/21 A2993 RMK AO2=
201010270652 METAR KATL 270652Z 20014KT 10SM SCT022 SCT032 23/20 A2992 RMK AO2 SLP122 T02330200=
201010270552 METAR KATL 270552Z 21010G17KT 10SM FEW018 BKN022 BKN045 24/20 A2992 RMK AO2 SLP120 T02390200 10261 20239 51014=
201010270539 SPECI KATL 270539Z 20011G19KT 10SM SCT022 SCT027 BKN045 24/20 A2991 RMK AO2=
201010270539 SPECI KATL 270539Z 20011G19KT 10SM SCT022 SCT027 BKN045 24/20 A2991 RMK AO2=
201010270452 METAR KATL 270452Z 21010KT 10SM FEW022 BKN028 OVC035 24/20 A2991 RMK AO2 SLP118 T02440200 402940200=
201010270416 SPECI KATL 270416Z 22016G22KT 10SM SCT028 BKN035 OVC200 24/20 A2990 RMK AO2=
201010270416 SPECI KATL 270416Z 22016G22KT 10SM SCT028 BKN035 OVC200 24/20 A2990 RMK AO2=
201010270352 METAR KATL 270352Z 21014G24KT 10SM FEW023 BKN028 OVC035 24/20 A2991 RMK AO2 SLP116 T02440200=
201010270324 SPECI KATL 270324Z 21011G19KT 10SM BKN027 OVC032 24/19 A2989 RMK AO2=
201010270324 SPECI KATL 270324Z 21011G19KT 10SM BKN027 OVC032 24/19 A2989 RMK AO2=
201010270252 METAR KATL 270252Z 20012KT 10SM SCT030 BKN200 BKN250 24/19 A2988 RMK AO2 SLP107 T02440194 51018=
201010270152 METAR KATL 270152Z 20011KT 10SM FEW110 SCT200 BKN250 25/19 A2985 RMK AO2 SLP100 T02500194=
201010270052 METAR KATL 270052Z 20014G19KT 10SM FEW110 SCT250 26/19 A2984 RMK AO2 SLP097 T02560194=
201010262352 METAR KATL 262352Z 21012KT 10SM FEW035 SCT150 BKN200 BKN250 26/19 A2982 RMK AO2 SLP089 60000 T02610194 10294 20250 53012=
201010262252 METAR KATL 262252Z 20009KT 10SM FEW035 SCT150 BKN200 BKN250 26/21 A2980 RMK AO2 RAB11E17 SLP081 P0000 T02560206=
201010262152 METAR KATL 262152Z 19009KT 10SM FEW040 SCT060 BKN110 BKN200 28/20 A2979 RMK AO2 SLP078 CB DSNT NW TCU DSNT SE AND SW T02830200=
201010262052 METAR KATL 262052Z 20015G25KT 10SM FEW045TCU SCT055 28/19 A2979 RMK AO2 PK WND 21026/2015 SLP077 TCU NW-N 60000 T02830189 56017=
201010261952 METAR KATL 261952Z 20014G24KT 10SM FEW040TCU SCT050 SCT280 29/19 A2979 RMK AO2 PK WND 20027/1913 RAB24E33 SLP079 TCU N & E & SE P0000 T02890194=
201010261852 SPECI KATL 261852Z 20016G29KT 160V230 10SM BKN040 BKN050 BKN065 29/19 A2981 RMK AO2 PK WND 20030/1841 SLP085 T02890194=
201010261752 METAR KATL 261752Z 21016G25KT 10SM FEW035 SCT050 BKN280 28/20 A2984 RMK AO2 PK WND 21027/1737 SLP094 60000 T02830200 10283 20211 58017=
201010261652 METAR KATL 261652Z 21016G22KT 10SM FEW027 BKN040 BKN050 BKN280 26/20 A2987 RMK AO2 PK WND 19027/1605 SLP104 T02610200=
201010261600 SPECI KATL 261600Z 20019G25KT 10SM FEW025 BKN030 BKN040 BKN280 26/21 A2988 RMK AO2=
201010261600 SPECI KATL 261600Z 20019G25KT 10SM FEW025 BKN030 BKN040 BKN280 26/21 A2988 RMK AO2=
201010261552 METAR KATL 261552Z 20015G25KT 10SM BKN025 BKN040 BKN280 26/21 A2988 RMK AO2 SLP107 T02560206=
201010261452 METAR KATL 261452Z 20012G20KT 10SM BKN016 BKN020 BKN030 24/21 A2989 RMK AO2 SLP112 60000 T02390206 53005=
201010261403 SPECI KATL 261403Z 21011G21KT 10SM BKN016 BKN020 OVC030 23/21 A2988 RMK AO2=
201010261403 SPECI KATL 261403Z 21011G21KT 10SM BKN016 BKN020 OVC030 23/21 A2988 RMK AO2=
201010261352 METAR KATL 261352Z 20011G19KT 10SM BKN014 BKN018 OVC030 23/21 A2989 RMK AO2 SLP111 T02330206=
201010261326 SPECI KATL 261326Z 19013G18KT 10SM BKN014 OVC020 23/21 A2987 RMK AO2=
201010261326 SPECI KATL 261326Z 19013G18KT 10SM BKN014 OVC020 23/21 A2987 RMK AO2=
201010261252 METAR KATL 261252Z 18009KT 10SM FEW009 BKN018 BKN030 22/21 A2987 RMK AO2 RAE1157 SLP107 P0000 T02220206 $=
201010261158 SPECI KATL 261158Z 18006KT 10SM FEW008 BKN013 OVC020 21/20 A2987 RMK AO2 RAE57 P0000=
201010261158 SPECI KATL 261158Z 18006KT 10SM FEW008 BKN013 OVC020 21/20 A2987 RMK AO2 RAE57 P0000=
201010261152 METAR KATL 261152Z 18006KT 7SM -RA FEW011 BKN018 OVC025 21/20 A2987 RMK AO2 RAB47 SLP108 P0000 60000 70050 T02110200 10211 20206 53005=
201010261052 METAR KATL 261052Z 17006KT 8SM BKN018 BKN023 21/20 A2986 RMK AO2 SLP105 T02110200=
201010261042 SPECI KATL 261042Z 18007KT 8SM BKN018 BKN023 21/20 A2986 RMK AO2=
201010261042 SPECI KATL 261042Z 18007KT 8SM BKN018 BKN023 21/20 A2986 RMK AO2=
201010260952 METAR KATL 260952Z 17008KT 10SM SCT022 SCT041 BKN060 21/20 A2986 RMK AO2 RAB04E37 SLP101 P0000 T02110200=
201010260949 SPECI KATL 260949Z 17008KT 10SM SCT022 SCT041 BKN060 21/20 A2986 RMK AO2 RAB04E37 P0000=
201010260949 SPECI KATL 260949Z 17008KT 10SM SCT022 SCT041 BKN060 21/20 A2986 RMK AO2 RAB04E37 P0000=
201010260938 SPECI KATL 260938Z 17008KT 10SM FEW008 BKN024 OVC060 21/20 A2986 RMK AO2 RAB04E37 P0000=
201010260938 SPECI KATL 260938Z 17008KT 10SM FEW008 BKN024 OVC060 21/20 A2986 RMK AO2 RAB04E37 P0000=
201010260907 SPECI KATL 260907Z 17005KT 10SM -RA SCT008 BKN013 OVC021 21/19 A2986 RMK AO2 RAB04 P0000=
201010260907 SPECI KATL 260907Z 17005KT 10SM -RA SCT008 BKN013 OVC021 21/19 A2986 RMK AO2 RAB04 P0000=
201010260852 METAR KATL 260852Z 18006KT 10SM BKN015 OVC021 21/19 A2986 RMK AO2 SLP105 T02060194 53001=
201010260845 SPECI KATL 260845Z 17005KT 10SM BKN013 OVC019 21/19 A2986 RMK AO2=
201010260845 SPECI KATL 260845Z 17005KT 10SM BKN013 OVC019 21/19 A2986 RMK AO2=
201010260752 METAR KATL 260752Z 17005KT 10SM BKN015 BKN039 21/19 A2986 RMK AO2 SLP102 T02060194=
201010260728 SPECI KATL 260728Z 18006KT 10SM BKN015 OVC032 21/19 A2986 RMK AO2=
201010260728 SPECI KATL 260728Z 18006KT 10SM BKN015 OVC032 21/19 A2986 RMK AO2=
201010260712 SPECI KATL 260712Z 20006KT 10SM FEW015 SCT023 OVC030 21/19 A2986 RMK AO2=
201010260712 SPECI KATL 260712Z 20006KT 10SM FEW015 SCT023 OVC030 21/19 A2986 RMK AO2=
201010260652 METAR KATL 260652Z 19010KT 10SM BKN019 OVC030 21/19 A2986 RMK AO2 SLP102 T02110194=
201010260552 METAR KATL 260552Z 18010KT 10SM BKN015 21/19 A2986 RMK AO2 SLP103 T02060189 10217 20200 56001=
201010260549 SPECI KATL 260549Z 18009KT 10SM BKN015 21/19 A2986 RMK AO2=
201010260549 SPECI KATL 260549Z 18009KT 10SM BKN015 21/19 A2986 RMK AO2=
201010260452 METAR KATL 260452Z 18009KT 10SM FEW030 SCT150 BKN250 21/19 A2986 RMK AO2 SLP103 T02060189 402440167=
201010260352 METAR KATL 260352Z 17010KT 10SM FEW035 BKN250 21/19 A2986 RMK AO2 SLP106 T02060189=
201010260252 METAR KATL 260252Z 15007KT 9SM FEW009 SCT040 BKN070 BKN250 21/19 A2986 RMK AO2 SLP105 T02060194 50001=
201010260152 METAR KATL 260152Z 15005KT 10SM FEW009 SCT250 21/19 A2986 RMK AO2 SLP105 T02060194=
201010260052 METAR KATL 260052Z 14006KT 10SM FEW150 BKN250 21/19 A2986 RMK AO2 SLP106 T02110194=
201010252352 METAR KATL 252352Z 14004KT 10SM FEW150 BKN250 22/19 A2986 RMK AO2 SLP103 60005 T02170194 10244 20217 55002=
201010252252 METAR KATL 252252Z 17004KT 10SM FEW200 SCT250 22/19 A2985 RMK AO2 SLP100 T02220194=
201010252152 METAR KATL 252152Z 21009KT 10SM FEW020 23/19 A2985 RMK AO2 RAB23E31 SLP100 P0000 T02280194=
201010252052 METAR KATL 252052Z 20012G17KT 10SM FEW025 SCT040CB BKN050 23/19 A2986 RMK AO2 RAB36E43 SLP104 CB NE MOV NE SHRA NE P0005 60005 T02280194 56020=
201010252044 SPECI KATL 252044Z 19009KT 10SM R09R/4000VP6000FT FEW025 SCT040CB BKN050 23/19 A2986 RMK AO2 RAB36E43 CB NE MOV NE SHRA NE P0005=
201010252044 SPECI KATL 252044Z 19009KT 10SM R09R/4000VP6000FT FEW025 SCT040CB BKN050 23/19 A2986 RMK AO2 RAB36E43 CB NE MOV NE SHRA NE P0005=
201010252038 SPECI KATL 252038Z 19008G16KT 3SM R09R/4000VP6000FT RA FEW005 BKN041CB OVC049 23/19 A2986 RMK AO2 RAB36 CB OHD-SE MOV NE P0005=
201010252038 SPECI KATL 252038Z 19008G16KT 3SM R09R/4000VP6000FT RA FEW005 BKN041CB OVC049 23/19 A2986 RMK AO2 RAB36 CB OHD-SE MOV NE P0005=
201010251952 METAR KATL 251952Z 18011KT 10SM FEW025 SCT035 SCT150 24/18 A2986 RMK AO2 SLP104 T02440183=
201010251911 SPECI KATL 251911Z 20010G18KT 10SM FEW024 BKN030 BKN070 23/18 A2988 RMK AO2=
201010251911 SPECI KATL 251911Z 20010G18KT 10SM FEW024 BKN030 BKN070 23/18 A2988 RMK AO2=
201010251852 METAR KATL 251852Z 18011KT 10SM BKN020 BKN030 BKN070 23/18 A2988 RMK AO2 SLP111 T02330178=
201010251833 SPECI KATL 251833Z 18009KT 10SM FEW020 BKN027 BKN070 23/18 A2990 RMK AO2=
201010251833 SPECI KATL 251833Z 18009KT 10SM FEW020 BKN027 BKN070 23/18 A2990 RMK AO2=
201010251752 METAR KATL 251752Z 17013G17KT 10SM FEW017 SCT070 BKN150 23/18 A2992 RMK AO2 SLP124 60045 T02330183 10233 20167 56026=
201010251652 METAR KATL 251652Z 18009KT 10SM FEW015 SCT070 SCT200 22/18 A2995 RMK AO2 SLP134 ACC ALQDS T02220178=
201010251552 METAR KATL 251552Z 18004KT 10SM FEW008 SCT070 BKN200 18/17 A2996 RMK AO2 SLP139 ACC DSNT W & NW T01830167=
201010251452 METAR KATL 251452Z 15006KT 10SM SCT004 BKN070 OVC150 17/16 A3000 RMK AO2 SLP154 CB DSNT SE SHRA DSNT SE BINOVC W 60045 T01670156 53001=
201010251352 METAR KATL 251352Z 14004KT 10SM FEW002 SCT050 BKN080 OVC150 17/16 A2999 RMK AO2 TSE41RAE40 SLP151 FRQ LTG DSNT E-SE-S CB DSNT E-SE-S P0004 T01670161=
201010251341 SPECI KATL 251341Z 14005KT 10SM FEW002 SCT046 BKN080 OVC150 17/16 A3000 RMK AO2 TSE41RAE40 FRQ LTG DSNT E-SE-S CB DSNT E-SE-S P0004=
201010251341 SPECI KATL 251341Z 14005KT 10SM FEW002 SCT046 BKN080 OVC150 17/16 A3000 RMK AO2 TSE41RAE40 FRQ LTG DSNT E-SE-S CB DSNT E-SE-S P0004=
201010251328 SPECI KATL 251328Z 15004KT 6SM -TSRA BR FEW002 BKN020CB OVC050 17/16 A3000 RMK AO2 FRQ LTGICCG E-SE-S TS E-SE-S MOV E P0004=
201010251328 SPECI KATL 251328Z 15004KT 6SM -TSRA BR FEW002 BKN020CB OVC050 17/16 A3000 RMK AO2 FRQ LTGICCG E-SE-S TS E-SE-S MOV E P0004=
201010251259 SPECI KATL 251259Z 12007KT 7SM -TSRA SCT002 BKN026CB OVC043 17/16 A3000 RMK AO2 FRQ LTGICCG E-SE TS E-SE MOV E P0001=
201010251259 SPECI KATL 251259Z 12007KT 7SM -TSRA SCT002 BKN026CB OVC043 17/16 A3000 RMK AO2 FRQ LTGICCG E-SE TS E-SE MOV E P0001=
201010251252 METAR KATL 251252Z 15004KT 4SM +TSRA BR FEW002 BKN005CB OVC050 17/16 A2999 RMK AO2 SLP151 FRQ LTGICCG E-SE-S TS E-SE-S MOV E P0041 T01670161=
201010251227 SPECI KATL 251227Z 13005KT 3SM +TSRA BR BKN005CB BKN016 OVC040 17/16 A3000 RMK AO2 CONS LTGICCG ALQDS TS ALQDS MOV E P0030=
201010251227 SPECI KATL 251227Z 13005KT 3SM +TSRA BR BKN005CB BKN016 OVC040 17/16 A3000 RMK AO2 CONS LTGICCG ALQDS TS ALQDS MOV E P0030=
201010251213 SPECI KATL 251213Z 19008KT 6SM -TSRA BR SCT005 BKN016CB OVC040 17/16 A3001 RMK AO2 CONS LTG OHD S-SW-NW TS OHD S-SW-NW MOV E P0025=
201010251213 SPECI KATL 251213Z 19008KT 6SM -TSRA BR SCT005 BKN016CB OVC040 17/16 A3001 RMK AO2 CONS LTG OHD S-SW-NW TS OHD S-SW-NW MOV E P0025=
201010251204 SPECI KATL 251204Z 32011KT 2SM R09R/6000VP6000FT +TSRA BR SCT005 BKN022CB OVC040 17/16 A2998 RMK AO2 CONS LTG OHD S-SW-NW TS OHD S-SW-NW MOV E P0023=
201010251204 SPECI KATL 251204Z 32011KT 2SM R09R/6000VP6000FT +TSRA BR SCT005 BKN022CB OVC040 17/16 A2998 RMK AO2 CONS LTG OHD S-SW-NW TS OHD S-SW-NW MOV E P0023=
201010251152 METAR KATL 251152Z COR 26009G23KT 2 1/2SM +TSRA BR SCT005 BKN022CB OVC065 17/16 A3000 RMK AO2 PK WND 30035/1138 TSB19 SLP152 FRQ LTGICCG S-SW-NW TS S-SW-NW MOV E P0026 60026 70026 T01720156 10206 20172 53022=
201010251141 SPECI KATL 251141Z 31023G35KT 2SM R09R/4000VP6000FT +TSRA BR FEW005 BKN022CB OVC065 18/16 A3000 RMK AO2 PK WND 30035/1138 TSB19 FRQ LTGICCG SW-NW TS SW-NW NOV E P0013=
201010251141 SPECI KATL 251141Z 31023G35KT 2SM R09R/4000VP6000FT +TSRA BR FEW005 BKN022CB OVC065 18/16 A3000 RMK AO2 PK WND 30035/1138 TSB19 FRQ LTGICCG SW-NW TS SW-NW NOV E P0013=
201010251119 SPECI KATL 251119Z 28003KT 7SM -TSRA BKN015CB OVC034 19/17 A2998 RMK AO2 TSB19 FRQ LTGICCG SW-NW TS SW-NW NOV E P0003=
201010251119 SPECI KATL 251119Z 28003KT 7SM -TSRA BKN015CB OVC034 19/17 A2998 RMK AO2 TSB19 FRQ LTGICCG SW-NW TS SW-NW NOV E P0003=
201010251052 METAR KATL 251052Z 23003KT 10SM -RA FEW034 SCT041 BKN050 OVC150 20/17 A2998 RMK AO2 RAB44 SLP146 OCNL LTG DSNT W P0000 T02000167=
201010250952 METAR KATL 250952Z 21004KT 10SM SCT045 BKN080 BKN150 20/16 A2995 RMK AO2 SLP132 T02000161=
201010250852 METAR KATL 250852Z 18009KT 10SM FEW060 SCT080 20/16 A2993 RMK AO2 SLP127 60000 T02000161 56023=
201010250752 METAR KATL 250752Z 15007KT 10SM SCT100 19/16 A2994 RMK AO2 SLP130 T01940156=
201010250652 METAR KATL 250652Z 18011KT 10SM FEW070 SCT085 OVC150 21/16 A2997 RMK AO2 RAB04E30 SLP141 P0000 T02060156=
201010250552 METAR KATL 250552Z 19008KT 10SM FEW070 BKN085 OVC150 21/14 A3000 RMK AO2 SLP151 T02060144 10228 20200 55008=
201010250452 METAR KATL 250452Z 18011G16KT 10SM FEW050 BKN095 OVC150 21/13 A2999 RMK AO2 SLP148 T02110133 402720117=
201010250352 METAR KATL 250352Z 15008KT 10SM FEW050 SCT150 OVC200 21/13 A3002 RMK AO2 SLP157 T02060133=
201010250252 METAR KATL 250252Z 14005KT 10SM FEW050 SCT150 BKN220 21/13 A3003 RMK AO2 SLP162 T02060133 58006=
201010250152 METAR KATL 250152Z 13004KT 10SM FEW080 SCT150 OVC220 22/13 A3003 RMK AO2 SLP164 T02170133=
201010250052 METAR KATL 250052Z 13003KT 10SM SCT080 22/13 A3005 RMK AO2 SLP170 T02170128=
201010242352 METAR KATL 242352Z 13005KT 10SM FEW080 23/13 A3005 RMK AO2 SLP169 T02280128 10272 20228 56009=
201010242252 METAR KATL 242252Z 16005KT 10SM SCT060 23/12 A3005 RMK AO2 SLP172 T02330122=
201010242152 METAR KATL 242152Z 18011G14KT 10SM FEW060 26/12 A3005 RMK AO2 SLP169 T02560122=
201010242052 METAR KATL 242052Z 15010KT 10SM FEW060 26/11 A3007 RMK AO2 SLP177 T02610111 56025=
201010241952 METAR KATL 241952Z 17008KT 140V220 10SM SCT055 26/11 A3009 RMK AO2 SLP184 T02610106=
201010241852 METAR KATL 241852Z 17014KT 10SM SCT049 BKN060 26/12 A3011 RMK AO2 SLP191 T02610117=
201010241752 METAR KATL 241752Z 19009G17KT 10SM BKN041 25/13 A3015 RMK AO2 SLP203 T02500133 10261 20122 58020=
201010241652 METAR KATL 241652Z 17008KT 10SM SCT035 SCT060 24/14 A3018 RMK AO2 SLP213 T02440144=
201010241552 METAR KATL 241552Z 18006KT 10SM FEW030 SCT060 22/14 A3020 RMK AO2 SLP221 T02220139=
201010241452 METAR KATL 241452Z 12004KT 10SM FEW020 SCT055 19/14 A3021 RMK AO2 SLP224 T01940139 58002=
201010241352 METAR KATL 241352Z 14006KT 10SM FEW010 SCT050 17/13 A3023 RMK AO2 SLP231 T01670128=
201010241252 METAR KATL 241252Z 08004KT 10SM FEW010 BKN050 BKN250 14/11 A3022 RMK AO2 SLP230 T01440111=
201010241204 SPECI KATL 241204Z 09005KT 10SM FEW009 SCT042 SCT250 12/09 A3021 RMK AO2=
201010241204 SPECI KATL 241204Z 09005KT 10SM FEW009 SCT042 SCT250 12/09 A3021 RMK AO2=
201010241152 METAR KATL 241152Z 09005KT 10SM FEW042 SCT250 13/10 A3021 RMK AO2 SLP228 T01330100 10156 20117 55001=
201010241052 METAR KATL 241052Z 08005KT 10SM FEW250 12/09 A3021 RMK AO2 SLP227 T01220089=
201010240952 METAR KATL 240952Z 08004KT 10SM SCT250 13/08 A3021 RMK AO2 SLP227 T01280083=
201010240852 METAR KATL 240852Z 08004KT 10SM BKN250 13/08 A3022 RMK AO2 SLP227 T01330083 58004=
201010240752 METAR KATL 240752Z COR 08005KT 10SM OVC250 13/08 A3022 RMK AO2 SLP230 T01330078=
201010240652 METAR KATL 240652Z 12004KT 10SM CLR 15/07 A3023 RMK AO2 SLP231 T01500067=
201010240552 METAR KATL 240552Z 13004KT 10SM BKN250 15/06 A3023 RMK AO2 SLP230 T01500056 10200 20144 51004=
201010240452 METAR KATL 240452Z 13006KT 10SM BKN250 17/04 A3023 RMK AO2 SLP230 T01670044 402440094=
201010240352 METAR KATL 240352Z 10006KT 10SM BKN250 16/03 A3023 RMK AO2 SLP233 T01610033=
201010240252 METAR KATL 240252Z 11005KT 10SM BKN250 18/04 A3021 RMK AO2 SLP227 T01780044 56003=
201010240152 METAR KATL 240152Z 11005KT 10SM BKN250 17/04 A3022 RMK AO2 SLP229 T01720044=
201010240052 METAR KATL 240052Z 12005KT 10SM BKN250 18/05 A3022 RMK AO2 SLP232 T01830050=
201010232352 METAR KATL 232352Z 12005KT 10SM FEW180 BKN250 20/05 A3022 RMK AO2 SLP233 T02000050 10244 20200 53005=
201010232252 METAR KATL 232252Z 12005KT 10SM FEW180 BKN250 21/04 A3022 RMK AO2 SLP229 T02110044=
201010232152 METAR KATL 232152Z 14007KT 10SM SCT200 BKN250 23/04 A3021 RMK AO2 SLP226 T02280039=
201010232052 METAR KATL 232052Z 15005KT 10SM FEW085 SCT100 OVC250 23/04 A3021 RMK AO2 SLP226 T02280044 56015=
201010231952 METAR KATL 231952Z 13003KT 10SM OVC250 23/05 A3022 RMK AO2 SLP229 T02330050=
201010231852 METAR KATL 231852Z 12006KT 10SM BKN250 24/04 A3023 RMK AO2 SLP231 T02390044=
201010231752 METAR KATL 231752Z 12008KT 10SM SCT250 24/05 A3025 RMK AO2 SLP240 T02390050 10239 20100 58015=
201010231652 METAR KATL 231652Z 12009KT 10SM FEW250 22/07 A3028 RMK AO2 SLP250 T02220072=
201010231552 METAR KATL 231552Z 14004KT 10SM FEW250 21/09 A3030 RMK AO2 SLP256 T02060089=
201010231452 METAR KATL 231452Z 13005KT 10SM CLR 18/09 A3030 RMK AO2 SLP256 T01830094 53013=
201010231352 METAR KATL 231352Z 14005KT 10SM CLR 16/09 A3029 RMK AO2 SLP253 T01560089=
201010231252 METAR KATL 231252Z 09007KT 10SM CLR 12/06 A3027 RMK AO2 SLP246 T01170061=
201010231152 METAR KATL 231152Z 08005KT 10SM CLR 11/04 A3026 RMK AO2 SLP245 T01060044 10139 20094 53010=
201010231052 METAR KATL 231052Z 07004KT 10SM CLR 11/04 A3025 RMK AO2 SLP240 T01110044=
201010230952 METAR KATL 230952Z 08004KT 10SM CLR 12/04 A3023 RMK AO2 SLP234 T01170044=
201010230852 METAR KATL 230852Z 08005KT 10SM CLR 12/04 A3023 RMK AO2 SLP232 T01170044 51005=
201010230752 METAR KATL 230752Z 08006KT 10SM CLR 12/04 A3022 RMK AO2 SLP230 T01170044=
201010230652 METAR KATL 230652Z 08006KT 10SM CLR 13/04 A3023 RMK AO2 SLP230 T01330044=
201010230552 METAR KATL 230552Z 08005KT 10SM CLR 13/05 A3021 RMK AO2 SLP227 T01330050 10200 20133 51005=
201010230452 METAR KATL 230452Z 08003KT 10SM CLR 15/04 A3021 RMK AO2 SLP227 T01500039 402560094=
201010230352 METAR KATL 230352Z 00000KT 10SM CLR 15/04 A3021 RMK AO2 SLP226 T01500039=
201010230252 METAR KATL 230252Z 00000KT 10SM CLR 16/04 A3020 RMK AO2 SLP223 T01610039 53015=
201010230152 METAR KATL 230152Z 00000KT 10SM CLR 17/03 A3018 RMK AO2 SLP216 T01720028=
201010230052 METAR KATL 230052Z 00000KT 10SM CLR 20/02 A3017 RMK AO2 SLP213 T02000022=
201010222352 METAR KATL 222352Z 25003KT 10SM CLR 19/02 A3016 RMK AO2 SLP209 T01940022 10256 20194 53011=
201010222252 METAR KATL 222252Z 34005KT 10SM CLR 23/00 A3013 RMK AO2 SLP201 T02280000=
201010222152 METAR KATL 222152Z 32005KT 10SM CLR 24/M01 A3013 RMK AO2 SLP197 T02391006=
201010222052 METAR KATL 222052Z 34005KT 10SM CLR 26/M01 A3012 RMK AO2 SLP195 T02561006 55010=
201010221952 METAR KATL 221952Z 02007KT 10SM CLR 25/M01 A3012 RMK AO2 SLP194 T02501011=
201010221852 METAR KATL 221852Z VRB06KT 10SM CLR 25/M02 A3013 RMK AO2 SLP199 T02501017=
201010221752 METAR KATL 221752Z 03008KT 10SM CLR 24/M02 A3015 RMK AO2 SLP204 T02441017 10244 20100 58007=
201010221652 METAR KATL 221652Z 06004KT 10SM CLR 23/M03 A3017 RMK AO2 SLP212 T02281033=
201010221552 METAR KATL 221552Z VRB04KT 10SM CLR 21/M01 A3017 RMK AO2 SLP213 T02111011=
201010221452 METAR KATL 221452Z 36004KT 10SM CLR 18/01 A3017 RMK AO2 SLP213 T01830011 51025=
201010221352 METAR KATL 221352Z 33004KT 10SM CLR 14/03 A3015 RMK AO2 SLP208 T01440028=
201010221252 METAR KATL 221252Z 31007KT 10SM CLR 12/03 A3012 RMK AO2 SLP197 T01170028=
201010221152 METAR KATL 221152Z 32010KT 10SM CLR 10/03 A3010 RMK AO2 SLP190 T01000028 10144 20094 51018=
201010221052 METAR KATL 221052Z 32008KT 10SM CLR 11/03 A3008 RMK AO2 SLP184 T01060033=
201010220952 METAR KATL 220952Z 31006KT 10SM CLR 11/04 A3007 RMK AO2 SLP177 T01060039=
201010220852 METAR KATL 220852Z 33008KT 10SM CLR 11/04 A3004 RMK AO2 SLP168 T01110044 51006=
201010220752 METAR KATL 220752Z 31007KT 10SM CLR 12/05 A3004 RMK AO2 SLP165 T01170050=
201010220652 METAR KATL 220652Z 31008KT 10SM CLR 12/05 A3003 RMK AO2 SLP163 T01220050=
201010220552 METAR KATL 220552Z 30006KT 10SM CLR 14/04 A3002 RMK AO2 SLP161 T01440044 10206 20144 53006=
201010220452 METAR KATL 220452Z 29007KT 10SM CLR 15/04 A3001 RMK AO2 SLP155 T01500044 402670094=
201010220352 METAR KATL 220352Z 28005KT 10SM CLR 17/04 A3001 RMK AO2 SLP155 T01670039=
201010220252 METAR KATL 220252Z 29006KT 10SM CLR 17/04 A3000 RMK AO2 SLP156 T01670039 51014=
201010220152 METAR KATL 220152Z 30006KT 10SM CLR 18/04 A2999 RMK AO2 SLP153 T01780039=
201010220052 METAR KATL 220052Z 29007KT 10SM CLR 18/03 A2998 RMK AO2 SLP148 T01830033=
201010212352 METAR KATL 212352Z 28005KT 10SM CLR 20/03 A2996 RMK AO2 SLP144 T02000033 10267 20200 53008=
201010212252 METAR KATL 212252Z 29005KT 10SM CLR 22/03 A2995 RMK AO2 SLP137 T02220033=
201010212152 METAR KATL 212152Z 31011KT 10SM CLR 24/03 A2994 RMK AO2 SLP135 T02440028=
201010212052 METAR KATL 212052Z 30013KT 10SM CLR 26/02 A2994 RMK AO2 SLP132 T02610022 55011=
201010211952 METAR KATL 211952Z 30013KT 10SM CLR 27/03 A2993 RMK AO2 SLP131 T02670028=
201010211852 METAR KATL 211852Z 28008G16KT 10SM CLR 26/06 A2994 RMK AO2 SLP135 T02610061=
201010211752 METAR KATL 211752Z 32012G18KT 10SM CLR 25/06 A2997 RMK AO2 SLP143 T02500061 10256 20106 58015=
201010211652 METAR KATL 211652Z 28010G16KT 10SM CLR 24/07 A3000 RMK AO2 SLP152 T02440072=
201010211552 METAR KATL 211552Z 29009KT 10SM CLR 22/07 A3002 RMK AO2 SLP160 T02170067=
201010211452 METAR KATL 211452Z 31008KT 10SM CLR 19/04 A3002 RMK AO2 SLP160 T01890044 51009=
201010211352 METAR KATL 211352Z 31008KT 10SM CLR 16/03 A3001 RMK AO2 SLP159 T01610033=
201010211252 METAR KATL 211252Z 30006KT 10SM CLR 13/03 A3000 RMK AO2 SLP157 T01330028=
201010211152 METAR KATL 211152Z 29006KT 10SM CLR 11/03 A2999 RMK AO2 SLP153 T01060028 10128 20094 51008=
201010211052 METAR KATL 211052Z 31006KT 10SM CLR 10/03 A2999 RMK AO2 SLP152 T01000033=
201010210952 METAR KATL 210952Z 31007KT 10SM CLR 10/04 A2997 RMK AO2 SLP146 T01000039=
201010210852 METAR KATL 210852Z 31009KT 10SM CLR 11/04 A2996 RMK AO2 SLP142 T01060044 58002=
201010210752 METAR KATL 210752Z 31009KT 10SM CLR 11/05 A2996 RMK AO2 SLP142 T01060050=
201010210652 METAR KATL 210652Z 31006KT 10SM CLR 11/05 A2997 RMK AO2 SLP145 T01110050=
201010210552 METAR KATL 210552Z 31008KT 10SM CLR 12/04 A2997 RMK AO2 SLP144 T01220044 10194 20122 50001=
201010210452 METAR KATL 210452Z 31006KT 10SM CLR 13/05 A2998 RMK AO2 SLP146 T01330050 402500133=
201010210352 METAR KATL 210352Z 31006KT 10SM CLR 14/05 A2998 RMK AO2 SLP146 T01390050=
201010210252 METAR KATL 210252Z 30005KT 10SM CLR 16/05 A2997 RMK AO2 SLP144 T01560050 51014=
201010210152 METAR KATL 210152Z 32007KT 10SM CLR 17/06 A2995 RMK AO2 SLP138 T01670056=
201010210052 METAR KATL 210052Z 32007KT 10SM FEW050 18/07 A2995 RMK AO2 SLP136 T01780067=
201010202352 METAR KATL 202352Z 32007KT 10SM FEW050 19/09 A2993 RMK AO2 SLP129 T01940089 10250 20194 53008=
201010202252 METAR KATL 202252Z 32007KT 10SM FEW050 21/11 A2991 RMK AO2 SLP122 T02110106=
201010202152 METAR KATL 202152Z 32008KT 10SM FEW050 23/11 A2990 RMK AO2 SLP120 T02280111=
201010202052 METAR KATL 202052Z 30008KT 260V330 10SM FEW050 24/11 A2990 RMK AO2 SLP119 T02390111 55008=
201010201952 METAR KATL 201952Z 33010KT 10SM FEW045 24/12 A2990 RMK AO2 SLP117 T02440117=
201010201852 METAR KATL 201852Z 30009KT 10SM SCT045 23/12 A2991 RMK AO2 SLP121 T02330122=
201010201752 METAR KATL 201752Z 31010KT 10SM BKN036 23/13 A2993 RMK AO2 SLP127 T02330128 10233 20156 58006=
201010201652 METAR KATL 201652Z 31011KT 10SM BKN030 21/13 A2994 RMK AO2 SLP133 T02110133=
201010201552 METAR KATL 201552Z 30007KT 10SM SCT023 SCT240 22/15 A2995 RMK AO2 SLP134 T02170150=
201010201452 METAR KATL 201452Z 29006KT 8SM FEW015 SCT100 19/15 A2994 RMK AO2 SLP134 T01890150 50010=
201010201352 METAR KATL 201352Z 29006KT 6SM BR FEW010 SCT050 BKN100 17/14 A2995 RMK AO2 SLP137 T01670144=
201010201252 METAR KATL 201252Z 26004KT 7SM FEW040 BKN100 BKN200 16/14 A2993 RMK AO2 SLP131 T01610144=
201010201152 METAR KATL 201152Z 30005KT 8SM FEW020 BKN100 OVC200 16/14 A2991 RMK AO2 SLP124 60007 70007 T01560144 10183 20156 53002=
201010201052 METAR KATL 201052Z 00000KT 7SM FEW020 BKN080 OVC200 16/14 A2990 RMK AO2 RAE15 SLP120 P0000 T01610144=
201010201020 SPECI KATL 201020Z 00000KT 9SM SCT020 BKN075 OVC200 16/14 A2990 RMK AO2 RAE15 P0000=
201010201020 SPECI KATL 201020Z 00000KT 9SM SCT020 BKN075 OVC200 16/14 A2990 RMK AO2 RAE15 P0000=
201010200959 SPECI KATL 200959Z 27005KT 8SM -RA BKN019 16/14 A2991 RMK AO2 P0000=
201010200959 SPECI KATL 200959Z 27005KT 8SM -RA BKN019 16/14 A2991 RMK AO2 P0000=
201010200952 METAR KATL 200952Z 28005KT 7SM -RA BKN014 OVC065 16/14 A2991 RMK AO2 SLP120 P0007 T01560139=
201010200937 SPECI KATL 200937Z 26005KT 6SM -RA BR BKN012 OVC065 16/14 A2991 RMK AO2 P0006=
201010200937 SPECI KATL 200937Z 26005KT 6SM -RA BR BKN012 OVC065 16/14 A2991 RMK AO2 P0006=
201010200903 SPECI KATL 200903Z 27005KT 5SM -RA BKN009 OVC065 17/13 A2991 RMK AO2 P0002=
201010200903 SPECI KATL 200903Z 27005KT 5SM -RA BKN009 OVC065 17/13 A2991 RMK AO2 P0002=
201010200852 METAR KATL 200852Z 27006KT 9SM -RA FEW050 BKN100 OVC200 17/13 A2991 RMK AO2 RAB13 SLP119 P0000 60000 T01670128 55005=
201010200752 METAR KATL 200752Z 27004KT 10SM BKN100 OVC200 18/12 A2989 RMK AO2 SLP114 T01780117=
201010200652 METAR KATL 200652Z 00000KT 10SM BKN110 OVC200 18/11 A2991 RMK AO2 SLP119 T01780111=
201010200552 METAR KATL 200552Z 30007KT 10SM BKN120 OVC200 18/11 A2992 RMK AO2 SLP124 T01830111 10217 20178 50000=
201010200452 METAR KATL 200452Z 29006KT 10SM BKN150 OVC200 18/11 A2992 RMK AO2 SLP125 T01830106 402780122=
201010200352 METAR KATL 200352Z 28011G17KT 10SM FEW080 SCT150 BKN200 20/10 A2993 RMK AO2 SLP129 T02000100=
201010200252 METAR KATL 200252Z 24004KT 10SM FEW080 BKN200 19/10 A2992 RMK AO2 SLP126 T01890100 51006=
201010200152 METAR KATL 200152Z 24003KT 10SM FEW200 BKN250 19/10 A2992 RMK AO2 SLP126 T01940100=
201010200052 METAR KATL 200052Z 24003KT 10SM SCT250 21/09 A2992 RMK AO2 SLP126 T02060094=
201010192352 METAR KATL 192352Z 00000KT 10SM FEW080 BKN250 22/09 A2990 RMK AO2 SLP121 T02170089 10278 20217 53001=
201010192252 METAR KATL 192252Z 26003KT 10SM FEW080 BKN250 23/08 A2989 RMK AO2 SLP117 T02330078=
201010192152 METAR KATL 192152Z VRB06KT 10SM SCT085 BKN200 26/08 A2989 RMK AO2 SLP116 T02610078=
201010192052 METAR KATL 192052Z 31007KT 260V330 10SM FEW080 SCT200 27/08 A2990 RMK AO2 SLP117 T02720078 56017=
201010191952 METAR KATL 191952Z 29005KT 10SM SCT075 SCT200 28/08 A2991 RMK AO2 SLP120 T02780083=
201010191852 METAR KATL 191852Z VRB03KT 10SM SCT075 27/08 A2993 RMK AO2 SLP128 T02670083=
201010191752 METAR KATL 191752Z 30005KT 10SM FEW070 SCT200 26/09 A2995 RMK AO2 SLP135 T02610089 10267 20122 58012=
201010191652 METAR KATL 191652Z 31004KT 10SM BKN200 24/09 A2997 RMK AO2 SLP143 T02440094=
201010191552 METAR KATL 191552Z 27008KT 10SM BKN250 23/10 A2998 RMK AO2 SLP146 T02330100=
201010191452 METAR KATL 191452Z 27004KT 10SM FEW250 22/10 A2999 RMK AO2 SLP148 T02220100 50007=
201010191352 METAR KATL 191352Z 23003KT 10SM FEW250 18/11 A2999 RMK AO2 SLP150 T01780106=
201010191252 METAR KATL 191252Z 00000KT 10SM FEW250 14/11 A2998 RMK AO2 SLP148 T01390106=
201010191152 METAR KATL 191152Z 00000KT 10SM FEW250 12/09 A2996 RMK AO2 SLP143 T01220089 10156 20122 53010=
201010191052 METAR KATL 191052Z 00000KT 10SM FEW250 13/09 A2995 RMK AO2 SLP139 T01280089=
201010190952 METAR KATL 190952Z 00000KT 10SM CLR 13/09 A2994 RMK AO2 SLP134 T01330089=
201010190852 METAR KATL 190852Z 29004KT 10SM CLR 14/09 A2993 RMK AO2 SLP130 T01440089 58005=
201010190752 METAR KATL 190752Z 29005KT 10SM CLR 16/09 A2994 RMK AO2 SLP131 T01560089=
201010190652 METAR KATL 190652Z 25004KT 10SM FEW200 14/09 A2995 RMK AO2 SLP134 T01390089=
201010190552 METAR KATL 190552Z 00000KT 10SM FEW200 SCT250 16/09 A2995 RMK AO2 SLP135 T01610089 10194 20161 58007=
201010190452 METAR KATL 190452Z 26003KT 10SM SCT200 BKN250 17/09 A2996 RMK AO2 SLP138 T01670089 402560106=
201010190352 METAR KATL 190352Z 25004KT 10SM SCT200 BKN250 18/09 A2998 RMK AO2 SLP143 T01830089=
201010190252 METAR KATL 190252Z 24004KT 10SM BKN200 BKN250 18/09 A2997 RMK AO2 SLP143 T01780089 51004=
201010190152 METAR KATL 190152Z 25005KT 10SM BKN200 BKN250 19/08 A2997 RMK AO2 SLP143 T01890078=
201010190052 METAR KATL 190052Z 23004KT 10SM BKN200 BKN250 19/08 A2996 RMK AO2 SLP143 T01890078=
201010182352 METAR KATL 182352Z 23005KT 10SM BKN200 BKN250 20/08 A2996 RMK AO2 SLP141 T02000078 10256 20194 53001=
201010182252 METAR KATL 182252Z 21006KT 10SM BKN200 BKN250 21/08 A2995 RMK AO2 SLP137 T02110078=
201010182152 METAR KATL 182152Z 20007KT 10SM FEW150 BKN200 23/07 A2995 RMK AO2 SLP137 T02280072=
201010182052 METAR KATL 182052Z 21007KT 10SM FEW150 BKN200 BKN250 24/06 A2996 RMK AO2 SLP140 T02390056 56019=
201010181952 METAR KATL 181952Z 21010KT 10SM FEW150 SCT200 BKN250 24/06 A2997 RMK AO2 SLP142 T02440056=
201010181852 METAR KATL 181852Z 22003KT 10SM FEW150 BKN200 BKN250 24/04 A2998 RMK AO2 SLP148 T02440039=
201010181752 METAR KATL 181752Z 31004KT 10SM FEW150 BKN200 BKN250 25/05 A3001 RMK AO2 SLP158 T02500050 10256 20122 58019=
201010181652 METAR KATL 181652Z 30008KT 10SM FEW150 SCT200 BKN250 26/05 A3004 RMK AO2 SLP167 T02560050=
201010181552 METAR KATL 181552Z 29006KT 10SM FEW150 SCT200 SCT250 23/05 A3006 RMK AO2 SLP174 T02330050=
201010181452 METAR KATL 181452Z 29007KT 10SM FEW150 SCT200 SCT250 21/05 A3007 RMK AO2 SLP179 T02060050 50000 $=
201010181352 METAR KATL 181352Z 30005KT 10SM FEW150 SCT200 SCT250 18/05 A3008 RMK AO2 SLP180 T01780050 $=
201010181252 METAR KATL 181252Z 29004KT 10SM FEW150 BKN250 14/06 A3008 RMK AO2 SLP181 T01390056=
201010181152 METAR KATL 181152Z 27003KT 10SM FEW200 SCT250 12/05 A3007 RMK AO2 SLP181 T01220050 10133 20106 51010=
201010181052 METAR KATL 181052Z 27003KT 10SM SCT250 13/05 A3007 RMK AO2 SLP177 T01280050 $=
201010180952 METAR KATL 180952Z 00000KT 10SM FEW250 11/06 A3005 RMK AO2 SLP172 T01110056 $=
201010180852 METAR KATL 180852Z 00000KT 10SM CLR 11/06 A3004 RMK AO2 SLP168 T01110056 56006 $=
201010180752 METAR KATL 180752Z 00000KT 10SM CLR 12/06 A3004 RMK AO2 SLP167 T01220056 $=
201010180652 METAR KATL 180652Z 27004KT 10SM CLR 13/05 A3005 RMK AO2 SLP171 T01280050 $=
201010180552 METAR KATL 180552Z 00000KT 10SM CLR 13/05 A3006 RMK AO2 SLP174 T01330050 10206 20128 58008 $=
201010180452 METAR KATL 180452Z 23003KT 10SM CLR 13/07 A3007 RMK AO2 SLP178 T01330067 402670089 $=
201010180352 METAR KATL 180352Z 23003KT 10SM CLR 16/05 A3008 RMK AO2 SLP182 T01560050 $=
201010180252 METAR KATL 180252Z 26003KT 10SM CLR 17/04 A3008 RMK AO2 SLP182 T01720044 51007 $=
201010180152 METAR KATL 180152Z 28003KT 10SM CLR 19/04 A3008 RMK AO2 SLP182 T01890039 $=
201010180052 METAR KATL 180052Z 23003KT 10SM FEW250 18/04 A3007 RMK AO2 SLP181 T01830039 $=
201010172352 METAR KATL 172352Z 00000KT 10SM FEW250 20/03 A3006 RMK AO2 SLP178 T02000033 10267 20200 55002 $=
201010172252 METAR KATL 172252Z 27003KT 10SM FEW250 23/01 A3006 RMK AO2 SLP175 T02330006 $=
201010172152 METAR KATL 172152Z VRB04KT 10SM FEW250 26/01 A3006 RMK AO2 SLP175 T02560011 $=
201010172052 METAR KATL 172052Z VRB03KT 10SM FEW250 26/02 A3007 RMK AO2 SLP177 T02610022 56022 $=
201010171952 METAR KATL 171952Z 31008KT 10SM FEW150 SCT250 26/03 A3008 RMK AO2 SLP180 T02610033 $=
201010171852 METAR KATL 171852Z VRB03KT 10SM FEW150 SCT250 25/02 A3010 RMK AO2 SLP186 T02500022 $=
201010171752 METAR KATL 171752Z 29006G15KT 10SM FEW250 24/03 A3014 RMK AO2 SLP200 T02440028 10250 20089 58021 $=
201010171652 METAR KATL 171652Z 33009KT 10SM FEW250 23/03 A3017 RMK AO2 SLP211 T02330028 $=
201010171552 METAR KATL 171552Z VRB04KT 10SM FEW250 22/05 A3019 RMK AO2 SLP218 T02170050 $=
201010171452 METAR KATL 171452Z 31006KT 10SM FEW250 19/05 A3020 RMK AO2 SLP223 T01890050 50008 $=
201010171352 METAR KATL 171352Z 31006KT 10SM FEW250 16/03 A3020 RMK AO2 SLP224 T01560033 $=
201010171252 METAR KATL 171252Z 30004KT 10SM CLR 12/04 A3019 RMK AO2 SLP220 T01220044 $=
201010171152 METAR KATL 171152Z 00000KT 10SM CLR 09/03 A3017 RMK AO2 SLP216 T00940033 10139 20089 53011 $=
201010171052 METAR KATL 171052Z 00000KT 10SM CLR 10/03 A3016 RMK AO2 SLP212 T01000028 $=
201010170952 METAR KATL 170952Z 30005KT 10SM CLR 10/03 A3015 RMK AO2 SLP205 T01000028 $=
201010170852 METAR KATL 170852Z 30005KT 10SM CLR 10/03 A3014 RMK AO2 SLP202 T01000028 58005 $=
201010170752 METAR KATL 170752Z 28003KT 10SM CLR 11/02 A3015 RMK AO2 SLP204 T01110017 $=
201010170652 METAR KATL 170652Z 00000KT 10SM CLR 12/03 A3015 RMK AO2 SLP206 T01170028 $=
201010170552 METAR KATL 170552Z 29005KT 10SM CLR 13/02 A3015 RMK AO2 SLP206 T01330022 10183 20122 58002 $=
201010170452 METAR KATL 170452Z 27004KT 10SM CLR 14/02 A3016 RMK AO2 SLP208 T01440017 402440083 $=
201010170352 METAR KATL 170352Z 26003KT 10SM CLR 12/03 A3016 RMK AO2 SLP211 T01220033 $=
201010170252 METAR KATL 170252Z 23003KT 10SM CLR 13/03 A3016 RMK AO2 SLP211 T01280033 53009 $=
201010170152 METAR KATL 170152Z 00000KT 10SM CLR 14/03 A3015 RMK AO2 SLP207 T01440028 $=
201010170052 METAR KATL 170052Z 31003KT 10SM CLR 16/02 A3014 RMK AO2 SLP205 T01610022 $=
201010162352 METAR KATL 162352Z 00000KT 10SM CLR 18/01 A3013 RMK AO2 SLP203 T01780011 10244 20178 53006 $=
201010162252 METAR KATL 162252Z 31004KT 10SM CLR 21/M01 A3012 RMK AO2 SLP198 T02111006 $=
201010162152 METAR KATL 162152Z 32007KT 10SM CLR 23/M03 A3011 RMK AO2 SLP194 T02281028 $=
201010162052 METAR KATL 162052Z 29007KT 10SM CLR 23/00 A3011 RMK AO2 SLP193 T02330000 56016 $=
201010161952 METAR KATL 161952Z 00000KT 10SM CLR 23/01 A3012 RMK AO2 SLP195 T02330006 $=
201010161852 METAR KATL 161852Z 30008KT 10SM CLR 23/02 A3013 RMK AO2 SLP199 T02330017 $=
201010161752 METAR KATL 161752Z 00000KT 10SM CLR 22/02 A3016 RMK AO2 SLP209 T02220022 10222 20089 58015 $=
201010161652 METAR KATL 161652Z 00000KT 10SM CLR 21/02 A3019 RMK AO2 SLP220 T02060022=
201010161552 METAR KATL 161552Z 00000KT 10SM CLR 19/02 A3021 RMK AO2 SLP226 T01940022=
201010161452 METAR KATL 161452Z 06003KT 10SM CLR 18/02 A3021 RMK AO2 SLP225 T01830017 51016=
201010161352 METAR KATL 161352Z 04006KT 10SM CLR 17/03 A3019 RMK AO2 SLP221 T01670028=
201010161252 METAR KATL 161252Z 00000KT 10SM CLR 12/04 A3018 RMK AO2 SLP217 T01170044=
201010161152 METAR KATL 161152Z 00000KT 10SM CLR 09/03 A3016 RMK AO2 SLP210 T00890028 10133 20083 53021=
201010161052 METAR KATL 161052Z 33006KT 10SM CLR 09/02 A3013 RMK AO2 SLP201 T00940022=
201010160952 METAR KATL 160952Z 34007KT 10SM CLR 10/02 A3011 RMK AO2 SLP192 T01000022=
201010160852 METAR KATL 160852Z 35006KT 10SM CLR 11/02 A3009 RMK AO2 SLP186 T01060022 53004=
201010160752 METAR KATL 160752Z 33007KT 10SM CLR 11/02 A3008 RMK AO2 SLP183 T01060022=
201010160652 METAR KATL 160652Z 34007KT 10SM CLR 11/02 A3008 RMK AO2 SLP179 T01110017=
201010160552 METAR KATL 160552Z 32004KT 10SM CLR 13/01 A3008 RMK AO2 SLP181 T01280011 10200 20122 51005=
201010160452 METAR KATL 160452Z 34005KT 10SM CLR 13/02 A3008 RMK AO2 SLP181 T01280017 402560083=
201010160352 METAR KATL 160352Z 33005KT 10SM CLR 13/02 A3008 RMK AO2 SLP182 T01330017=
201010160252 METAR KATL 160252Z 33005KT 10SM CLR 16/01 A3007 RMK AO2 SLP177 T01560006 53029=
201010160152 METAR KATL 160152Z 34007KT 10SM CLR 17/00 A3004 RMK AO2 SLP167 T01720000=
201010160052 METAR KATL 160052Z 32008KT 10SM CLR 18/00 A3000 RMK AO2 SLP157 T01830000=
201010152352 METAR KATL 152352Z 32008KT 10SM CLR 19/00 A2998 RMK AO2 SLP149 T01940000 10256 20194 53022=
201010152252 METAR KATL 152252Z 32008KT 10SM CLR 22/01 A2995 RMK AO2 SLP141 T02170006=
201010152152 METAR KATL 152152Z 30013KT 10SM CLR 23/02 A2993 RMK AO2 SLP130 T02330017=
201010152052 METAR KATL 152052Z 30019G24KT 10SM CLR 24/02 A2991 RMK AO2 PK WND 30027/2017 SLP126 T02440022 56011=
201010151952 METAR KATL 151952Z 30020G28KT 10SM CLR 24/03 A2991 RMK AO2 PK WND 30031/1855 SLP125 T02440028=
201010151852 SPECI KATL 151852Z 31019G33KT 10SM CLR 25/04 A2991 RMK AO2 PK WND 31033/1845 SLP125 T02500044=
201010151752 SPECI KATL 151752Z 27012G21KT 10SM CLR 24/03 A2995 RMK AO2 SLP136 T02390033 10239 20094 58026=
201010151652 METAR KATL 151652Z 29012G19KT 10SM CLR 23/02 A2999 RMK AO2 PK WND 30026/1638 SLP151 T02280017=
201010151552 METAR KATL 151552Z 27013G20KT 10SM CLR 21/02 A3001 RMK AO2 SLP160 T02060022=
201010151452 METAR KATL 151452Z 26011G16KT 10SM CLR 18/01 A3003 RMK AO2 SLP165 T01830011 50001=
201010151352 METAR KATL 151352Z 27007KT 10SM CLR 16/02 A3004 RMK AO2 SLP171 T01610017=
201010151252 METAR KATL 151252Z 28007KT 10SM CLR 12/02 A3004 RMK AO2 SLP170 T01220017=
201010151152 METAR KATL 151152Z 30007KT 10SM FEW250 09/02 A3002 RMK AO2 SLP166 T00940017 10106 20083 52002=
201010151052 METAR KATL 151052Z 29006KT 10SM CLR 08/02 A3002 RMK AO2 SLP165 T00830017=
201010150952 METAR KATL 150952Z 29008KT 10SM CLR 09/02 A3002 RMK AO2 SLP163 T00940017=
201010150852 METAR KATL 150852Z 29006KT 10SM CLR 08/02 A3002 RMK AO2 SLP163 T00830017 55002=
201010150752 METAR KATL 150752Z 28005KT 10SM CLR 10/01 A3002 RMK AO2 SLP161 T01000011=
201010150652 METAR KATL 150652Z 30005KT 10SM CLR 10/01 A3002 RMK AO2 SLP163 T01000006=
201010150552 METAR KATL 150552Z 30007KT 10SM CLR 11/01 A3003 RMK AO2 SLP164 T01060006 10172 20106 58001=
201010150452 METAR KATL 150452Z 32008KT 10SM CLR 12/00 A3003 RMK AO2 SLP165 T01170000 402280111=
201010150352 METAR KATL 150352Z 32007KT 10SM CLR 12/00 A3003 RMK AO2 SLP167 T01170000=
201010150252 METAR KATL 150252Z 32007KT 10SM CLR 13/M01 A3003 RMK AO2 SLP166 T01331006 53008=
201010150152 METAR KATL 150152Z 32009KT 10SM CLR 15/M02 A3002 RMK AO2 SLP162 T01501017=
201010150052 METAR KATL 150052Z 34008KT 10SM CLR 16/M02 A3001 RMK AO2 SLP159 T01611022=
201010142352 METAR KATL 142352Z 34008KT 10SM CLR 17/M03 A3000 RMK AO2 SLP157 T01721033 10228 20172 53007=
201010142252 METAR KATL 142252Z 34009KT 10SM CLR 19/M04 A2999 RMK AO2 SLP152 T01891039=
201010142152 METAR KATL 142152Z 34013G23KT 10SM CLR 21/M05 A2999 RMK AO2 SLP151 T02111050=
201010142052 METAR KATL 142052Z 33016G21KT 10SM CLR 22/M04 A2998 RMK AO2 SLP148 T02171039 55002=
201010141952 METAR KATL 141952Z 31016G25KT 10SM FEW060 22/M02 A2998 RMK AO2 SLP147 T02221017=
201010141852 METAR KATL 141852Z 33014G23KT 10SM FEW050 22/04 A2998 RMK AO2 SLP145 T02220044=
201010141752 METAR KATL 141752Z 34015G22KT 10SM SCT045 22/08 A2999 RMK AO2 SLP149 T02220083 10228 20150 58008=
201010141652 METAR KATL 141652Z 32015G21KT 10SM SCT040 22/11 A3001 RMK AO2 SLP155 T02170106=
201010141552 METAR KATL 141552Z 32014G21KT 10SM SCT028 21/12 A3002 RMK AO2 PK WND 36027/1526 SLP158 T02110117=
201010141452 METAR KATL 141452Z 32012G25KT 10SM SCT020 19/13 A3002 RMK AO2 SLP158 T01940128 51011=
201010141352 METAR KATL 141352Z 33011G18KT 10SM FEW025 SCT150 18/13 A3001 RMK AO2 SLP156 T01780128=
201010141252 METAR KATL 141252Z 33010KT 10SM FEW150 16/13 A3000 RMK AO2 SLP153 T01610133=
201010141152 METAR KATL 141152Z 32011KT 7SM FEW095 SCT150 15/13 A2998 RMK AO2 SLP147 T01500133 10167 20150 53013=
201010141052 METAR KATL 141052Z 32013KT 9SM SCT095 16/13 A2997 RMK AO2 SLP141 T01560133=
201010140952 METAR KATL 140952Z 32008KT 9SM FEW015 SCT150 15/13 A2995 RMK AO2 SLP137 T01500133=
201010140852 METAR KATL 140852Z 31009KT 10SM SCT150 15/13 A2994 RMK AO2 SLP133 T01500128 56008=
201010140752 METAR KATL 140752Z 30007KT 10SM SCT150 16/13 A2995 RMK AO2 SLP135 T01560128=
201010140652 METAR KATL 140652Z 29007KT 10SM FEW150 16/12 A2996 RMK AO2 SLP138 T01610117=
201010140552 METAR KATL 140552Z 32008KT 10SM FEW065 SCT150 17/12 A2997 RMK AO2 SLP142 T01670117 10222 20167 58006=
201010140452 METAR KATL 140452Z 29007KT 10SM FEW065 SCT100 18/12 A2998 RMK AO2 SLP146 T01780117 402670161=
201010140352 METAR KATL 140352Z 29006KT 10SM FEW090 18/11 A2999 RMK AO2 SLP147 T01780111=
201010140252 METAR KATL 140252Z 29006KT 10SM FEW090 19/11 A2999 RMK AO2 SLP148 T01890111 52006=
201010140152 METAR KATL 140152Z 31005KT 10SM FEW090 21/11 A2998 RMK AO2 SLP145 T02060111=
201010140052 METAR KATL 140052Z 29003KT 10SM FEW090 22/11 A2998 RMK AO2 SLP145 T02170111=
201010132352 METAR KATL 132352Z 29003KT 10SM FEW060 22/11 A2997 RMK AO2 SLP142 T02220106 10267 20222 53006=
201010132252 METAR KATL 132252Z 27003KT 10SM FEW060 23/11 A2996 RMK AO2 SLP138 T02330106=
201010132152 METAR KATL 132152Z 23004KT 10SM FEW060 26/10 A2994 RMK AO2 SLP132 T02560100=
201010132052 METAR KATL 132052Z 30007KT 10SM FEW060 SCT090 26/11 A2995 RMK AO2 SLP133 T02610111 56010=
201010131952 METAR KATL 131952Z 27005KT 10SM SCT055 SCT085 24/11 A2995 RMK AO2 SLP134 T02390106=
201010131852 METAR KATL 131852Z 27006KT 10SM FEW055 BKN070 BKN085 25/12 A2996 RMK AO2 SLP137 T02500117=
201010131752 METAR KATL 131752Z 27004KT 10SM SCT055 24/12 A2998 RMK AO2 SLP145 T02390117 10256 20167 58014=
201010131652 METAR KATL 131652Z VRB03KT 10SM SCT050 26/12 A3000 RMK AO2 SLP152 T02560122=
201010131552 METAR KATL 131552Z VRB06KT 10SM FEW050 SCT150 24/13 A3001 RMK AO2 SLP156 T02440128=
201010131452 METAR KATL 131452Z 33004KT 10SM FEW070 SCT150 22/14 A3002 RMK AO2 SLP159 T02220144 51010=
201010131352 METAR KATL 131352Z 33005KT 10SM FEW060 SCT110 BKN150 19/14 A3002 RMK AO2 SLP159 T01890144=
201010131252 METAR KATL 131252Z 33005KT 7SM BKN070 BKN150 18/14 A3000 RMK AO2 SLP153 T01780144=
201010131152 METAR KATL 131152Z 32004KT 8SM BKN090 BKN110 17/14 A2999 RMK AO2 SLP150 60001 70001 T01670144 10183 20161 53010=
201010131052 METAR KATL 131052Z 28004KT 9SM BKN110 OVC150 17/14 A2998 RMK AO2 SLP145 T01670144=
201010130952 METAR KATL 130952Z 28004KT 9SM BKN100 OVC150 17/14 A2997 RMK AO2 RAE41 SLP141 P0001 T01670144=
201010130852 METAR KATL 130852Z 00000KT 10SM -RA BKN085 OVC120 18/14 A2996 RMK AO2 RAB48 SLP138 P0000 60000 T01780139 58005=
201010130752 METAR KATL 130752Z 00000KT 7SM SCT075 BKN150 OVC250 18/13 A2997 RMK AO2 SLP140 T01780133=
201010130652 METAR KATL 130652Z 27003KT 10SM SCT050 BKN080 OVC250 17/14 A2997 RMK AO2 SLP143 T01720139=
201010130552 METAR KATL 130552Z 27005KT 10SM BKN150 OVC250 18/13 A2998 RMK AO2 SLP144 T01780133 10217 20178 51004=
201010130452 METAR KATL 130452Z 27005KT 10SM BKN100 19/13 A2997 RMK AO2 SLP141 T01890133 402670167=
201010130352 METAR KATL 130352Z 00000KT 10SM SCT100 19/13 A2997 RMK AO2 SLP142 T01890128=
201010130252 METAR KATL 130252Z 00000KT 10SM SCT100 19/13 A2996 RMK AO2 SLP140 T01940128 51006=
201010130152 METAR KATL 130152Z 00000KT 10SM FEW055 SCT100 20/13 A2996 RMK AO2 SLP140 T02000128=
201010130052 METAR KATL 130052Z 28005KT 10SM BKN100 21/12 A2996 RMK AO2 SLP138 T02060122=
201010122352 METAR KATL 122352Z 27003KT 10SM FEW058 BKN100 21/11 A2995 RMK AO2 SLP135 T02110111 10267 20211 53002=
201010122252 METAR KATL 122252Z 30004KT 10SM FEW060 SCT075 BKN110 23/11 A2994 RMK AO2 SLP134 T02280111=
201010122152 METAR KATL 122152Z 20006KT 10SM FEW060 SCT080 BKN120 25/11 A2994 RMK AO2 SLP130 T02500106=
201010122052 METAR KATL 122052Z 20006KT 10SM FEW060 SCT085 BKN120 OVC150 25/11 A2994 RMK AO2 SLP131 T02500106 56013=
201010121952 METAR KATL 121952Z 21008KT 10SM SCT055 SCT100 BKN150 BKN200 26/11 A2994 RMK AO2 SLP131 CB DSNT NW T02610111=
201010121852 METAR KATL 121852Z VRB05KT 10SM SCT055 SCT100 BKN150 BKN200 26/12 A2995 RMK AO2 SLP134 T02610117=
201010121752 METAR KATL 121752Z 00000KT 10SM FEW050 SCT095 BKN150 BKN200 26/13 A2998 RMK AO2 SLP143 T02560128 10267 20167 58010=
201010121652 METAR KATL 121652Z VRB04KT 10SM FEW050 SCT100 BKN150 25/12 A2999 RMK AO2 SLP148 T02500122=
201010121552 METAR KATL 121552Z 26007KT 10SM FEW045 SCT080 BKN150 24/13 A3001 RMK AO2 SLP155 T02440133=
201010121452 METAR KATL 121452Z VRB05KT 10SM SCT070 SCT085 22/13 A3001 RMK AO2 SLP155 T02220133 52006=
201010121352 METAR KATL 121352Z 29007KT 10SM FEW080 SCT150 BKN200 21/13 A3001 RMK AO2 SLP153 T02060133=
201010121252 METAR KATL 121252Z 00000KT 9SM SCT075 BKN150 BKN200 18/13 A3000 RMK AO2 SLP151 T01780133=
201010121152 METAR KATL 121152Z 27004KT 10SM FEW020 BKN085 BKN150 17/13 A2999 RMK AO2 SLP150 T01670128 10200 20167 51007=
201010121052 METAR KATL 121052Z 25005KT 10SM SCT085 18/13 A2998 RMK AO2 SLP145 T01780128=
201010120952 METAR KATL 120952Z 25004KT 10SM FEW150 18/13 A2998 RMK AO2 SLP143 T01780128=
201010120852 METAR KATL 120852Z 26005KT 10SM FEW120 18/13 A2997 RMK AO2 SLP140 T01830128 50004=
201010120752 METAR KATL 120752Z 23005KT 10SM BKN090 19/13 A2997 RMK AO2 SLP140 T01890128=
201010120652 METAR KATL 120652Z 24007KT 10SM FEW100 20/13 A2997 RMK AO2 SLP139 T02000128=
201010120552 METAR KATL 120552Z 25006KT 10SM SCT200 20/13 A2996 RMK AO2 SLP136 T02000128 10239 20200 58002=
201010120452 METAR KATL 120452Z 24007KT 10SM BKN250 21/13 A2997 RMK AO2 SLP138 T02060128 403000161=
201010120352 METAR KATL 120352Z 23006KT 10SM FEW100 SCT250 21/13 A2997 RMK AO2 SLP140 T02060128=
201010120252 METAR KATL 120252Z 21006KT 10SM FEW100 21/13 A2996 RMK AO2 SLP138 T02060128 51011=
201010120152 METAR KATL 120152Z 22005KT 10SM SCT100 22/13 A2996 RMK AO2 SLP137 T02170128=
201010120052 METAR KATL 120052Z 22005KT 10SM SCT100 23/12 A2995 RMK AO2 SLP135 T02280122=
201010112352 METAR KATL 112352Z 22005KT 10SM FEW090 24/12 A2993 RMK AO2 SLP129 T02390122 10300 20239 53005=
201010112252 METAR KATL 112252Z 20006KT 10SM FEW090 26/12 A2992 RMK AO2 SLP126 T02610117=
201010112152 METAR KATL 112152Z 20009KT 10SM SCT090 28/11 A2992 RMK AO2 SLP122 T02780111=
201010112052 METAR KATL 112052Z 21009KT 10SM BKN090 29/10 A2992 RMK AO2 SLP121 T02890100 56016=
201010111952 METAR KATL 111952Z 23010G15KT 10SM SCT080 30/10 A2992 RMK AO2 SLP123 T03000100=
201010111852 METAR KATL 111852Z 23010G16KT 200V270 10SM SCT080 30/11 A2994 RMK AO2 SLP128 T03000106=
201010111752 METAR KATL 111752Z 21012KT 10SM SCT070 29/11 A2997 RMK AO2 SLP138 T02890106 10289 20167 58013=
201010111652 METAR KATL 111652Z 23008G16KT 10SM CLR 28/13 A2999 RMK AO2 SLP146 T02830128=
201010111552 METAR KATL 111552Z 23007KT 10SM FEW250 26/13 A3000 RMK AO2 SLP149 T02610128=
201010111452 METAR KATL 111452Z 21004KT 10SM FEW250 24/13 A3000 RMK AO2 SLP152 T02390133 50007=
201010111352 METAR KATL 111352Z 22004KT 10SM FEW250 21/12 A3001 RMK AO2 SLP154 T02110122=
201010111252 METAR KATL 111252Z 00000KT 10SM CLR 18/12 A3000 RMK AO2 SLP152 T01830117=
201010111152 METAR KATL 111152Z 00000KT 10SM CLR 17/10 A2998 RMK AO2 SLP146 T01670100 10194 20161 53003=
201010111052 METAR KATL 111052Z 00000KT 10SM CLR 17/10 A2998 RMK AO2 SLP142 T01720100=
201010110952 METAR KATL 110952Z 00000KT 10SM CLR 18/10 A2997 RMK AO2 SLP139 T01780100=
201010110852 METAR KATL 110852Z 21003KT 10SM CLR 17/11 A2997 RMK AO2 SLP140 T01720106 55003=
201010110752 METAR KATL 110752Z 00000KT 10SM CLR 18/11 A2997 RMK AO2 SLP140 T01830106=
201010110652 METAR KATL 110652Z 00000KT 10SM CLR 19/11 A2998 RMK AO2 SLP142 T01940106=
201010110552 METAR KATL 110552Z 00000KT 10SM CLR 19/11 A2998 RMK AO2 SLP143 T01940106 10244 20183 58002=
201010110452 METAR KATL 110452Z 21004KT 10SM CLR 19/09 A2999 RMK AO2 SLP145 T01890094 403000128=
201010110352 METAR KATL 110352Z 00000KT 10SM CLR 21/08 A2999 RMK AO2 SLP148 T02110083=
201010110252 METAR KATL 110252Z 14003KT 10SM CLR 21/08 A2999 RMK AO2 SLP146 T02110083 51009=
201010110152 METAR KATL 110152Z 00000KT 10SM CLR 21/09 A2998 RMK AO2 SLP146 T02110089=
201010110052 METAR KATL 110052Z 12003KT 10SM CLR 24/07 A2998 RMK AO2 SLP145 T02440067=
201010102352 METAR KATL 102352Z 00000KT 10SM CLR 24/07 A2996 RMK AO2 SLP140 T02440067 10300 20244 55000=
201010102252 METAR KATL 102252Z 01004KT 10SM CLR 27/06 A2995 RMK AO2 SLP134 T02720061=
201010102152 METAR KATL 102152Z 00000KT 10SM CLR 29/06 A2995 RMK AO2 SLP133 T02890061=
201010102052 METAR KATL 102052Z 23007KT 10SM CLR 29/06 A2996 RMK AO2 SLP137 T02890061 56016=
201010101952 METAR KATL 101952Z VRB03KT 10SM CLR 29/07 A2997 RMK AO2 SLP141 T02940072=
201010101852 METAR KATL 101852Z 00000KT 10SM CLR 29/06 A2999 RMK AO2 SLP146 T02890056=
201010101752 METAR KATL 101752Z 31007KT 10SM CLR 28/06 A3001 RMK AO2 SLP154 T02830061 10289 20133 58015=
201010101652 METAR KATL 101652Z 30004KT 10SM CLR 28/09 A3003 RMK AO2 SLP161 T02780089=
201010101552 METAR KATL 101552Z 00000KT 10SM CLR 26/10 A3005 RMK AO2 SLP166 T02560100=
201010101452 METAR KATL 101452Z 00000KT 10SM CLR 23/11 A3006 RMK AO2 SLP171 T02330106 50004=
201010101352 METAR KATL 101352Z 00000KT 10SM CLR 19/13 A3006 RMK AO2 SLP173 T01890128=
201010101252 METAR KATL 101252Z 30004KT 10SM CLR 16/12 A3005 RMK AO2 SLP170 T01610122=
201010101152 METAR KATL 101152Z 00000KT 10SM CLR 13/10 A3004 RMK AO2 SLP167 T01330100 10172 20128 51006=
201010101052 METAR KATL 101052Z 00000KT 10SM CLR 14/10 A3004 RMK AO2 SLP166 T01440100=
201010100952 METAR KATL 100952Z 00000KT 10SM CLR 15/11 A3003 RMK AO2 SLP163 T01500106=
201010100852 METAR KATL 100852Z 00000KT 10SM CLR 15/11 A3002 RMK AO2 SLP160 T01500106 58004=
201010100752 METAR KATL 100752Z 29004KT 10SM CLR 16/11 A3003 RMK AO2 SLP160 T01560106=
201010100652 METAR KATL 100652Z 00000KT 10SM CLR 16/11 A3003 RMK AO2 SLP162 T01560106=
201010100552 METAR KATL 100552Z 00000KT 10SM CLR 16/11 A3004 RMK AO2 SLP163 T01560106 10256 20156 58004=
201010100452 METAR KATL 100452Z 29003KT 10SM CLR 18/10 A3004 RMK AO2 SLP164 T01830100 402940133=
201010100352 METAR KATL 100352Z 31003KT 10SM CLR 18/10 A3005 RMK AO2 SLP167 T01830100=
201010100252 METAR KATL 100252Z 00000KT 10SM CLR 20/10 A3005 RMK AO2 SLP167 T02000100 51008=
201010100152 METAR KATL 100152Z 00000KT 10SM CLR 21/10 A3004 RMK AO2 SLP166 T02110100=
201010100052 METAR KATL 100052Z 02006KT 10SM CLR 24/08 A3003 RMK AO2 SLP163 T02440078=
201010092352 METAR KATL 092352Z 35006KT 10SM CLR 26/08 A3002 RMK AO2 SLP160 T02560083 10294 20256 53004=
201010092252 METAR KATL 092252Z 36006KT 10SM CLR 27/08 A3001 RMK AO2 SLP157 T02670078=
201010092152 METAR KATL 092152Z 33007KT 10SM CLR 28/08 A3001 RMK AO2 SLP154 T02830078=
201010092052 METAR KATL 092052Z 30003KT 10SM CLR 28/08 A3001 RMK AO2 SLP155 T02830078 56016=
201010091952 METAR KATL 091952Z 28004G15KT 10SM CLR 29/08 A3002 RMK AO2 SLP156 T02890083=
201010091852 METAR KATL 091852Z 36007KT 10SM CLR 29/09 A3003 RMK AO2 SLP162 T02890089=
201010091752 METAR KATL 091752Z 34009G16KT 10SM CLR 29/11 A3006 RMK AO2 SLP169 T02890106 10289 20139 58017=
201010091652 METAR KATL 091652Z VRB05KT 10SM CLR 27/12 A3008 RMK AO2 SLP178 T02670122=
201010091552 METAR KATL 091552Z 29007KT 10SM CLR 25/12 A3010 RMK AO2 SLP187 T02500122=
201010091452 METAR KATL 091452Z 30007KT 10SM CLR 23/12 A3011 RMK AO2 SLP189 T02330122 51005=
201010091352 METAR KATL 091352Z 31006KT 10SM CLR 20/11 A3011 RMK AO2 SLP189 T02000111=
201010091252 METAR KATL 091252Z 00000KT 10SM CLR 16/12 A3010 RMK AO2 SLP189 T01610122=
201010091152 METAR KATL 091152Z 31004KT 10SM CLR 14/11 A3009 RMK AO2 SLP185 T01390111 10178 20133 53010=
201010091052 METAR KATL 091052Z 31004KT 10SM CLR 13/11 A3008 RMK AO2 SLP182 T01330106=
201010090952 METAR KATL 090952Z 00000KT 10SM CLR 14/11 A3007 RMK AO2 SLP175 T01440106=
201010090852 METAR KATL 090852Z 30003KT 10SM CLR 15/11 A3006 RMK AO2 SLP172 T01500106 56005=
201010090752 METAR KATL 090752Z 30004KT 10SM CLR 15/11 A3006 RMK AO2 SLP173 T01500106=
201010090652 METAR KATL 090652Z 00000KT 10SM CLR 16/11 A3007 RMK AO2 SLP175 T01560106=
201010090552 METAR KATL 090552Z 00000KT 10SM CLR 18/10 A3008 RMK AO2 SLP177 T01780100 10228 20172 58006=
201010090452 METAR KATL 090452Z 23003KT 10SM CLR 18/10 A3008 RMK AO2 SLP179 T01780100 402780144=
201010090352 METAR KATL 090352Z 22003KT 10SM CLR 18/11 A3009 RMK AO2 SLP183 T01780106=
201010090252 METAR KATL 090252Z 19003KT 10SM CLR 19/11 A3009 RMK AO2 SLP183 T01890106 51007=
201010090152 METAR KATL 090152Z 18004KT 10SM CLR 20/10 A3009 RMK AO2 SLP183 T02000100=
201010090052 METAR KATL 090052Z 17003KT 10SM CLR 21/11 A3008 RMK AO2 SLP181 T02110106=
201010082352 SPECI KATL 082352Z 15003KT 10SM CLR 23/10 A3007 RMK AO2 SLP177 T02280100 10278 20222 55000=
201010082252 METAR KATL 082252Z 18005KT 10SM CLR 24/09 A3007 RMK AO2 SLP175 T02440094=
201010082152 METAR KATL 082152Z 00000KT 10SM CLR 27/08 A3007 RMK AO2 SLP174 T02670083=
201010082052 METAR KATL 082052Z 26003KT 10SM CLR 27/08 A3007 RMK AO2 SLP176 T02720083 56014=
201010081952 METAR KATL 081952Z 00000KT 10SM CLR 26/08 A3008 RMK AO2 SLP178 T02610078=
201010081852 METAR KATL 081852Z VRB05KT 10SM CLR 27/08 A3009 RMK AO2 SLP182 T02670083=
201010081752 METAR KATL 081752Z 13007KT 10SM CLR 26/08 A3011 RMK AO2 SLP191 T02560083 10256 20156 58013=
201010081652 METAR KATL 081652Z 11007KT 10SM CLR 25/08 A3014 RMK AO2 SLP198 T02500078=
201010081552 METAR KATL 081552Z 13009KT 10SM CLR 24/09 A3015 RMK AO2 SLP204 T02390089=
201010081452 METAR KATL 081452Z 13011G15KT 10SM CLR 23/08 A3015 RMK AO2 SLP204 T02280083 51018=
201010081352 METAR KATL 081352Z 11008KT 10SM CLR 21/11 A3014 RMK AO2 SLP201 T02060106=
201010081252 METAR KATL 081252Z 07007KT 10SM CLR 18/11 A3012 RMK AO2 SLP195 T01830111=
201010081152 METAR KATL 081152Z 04005KT 10SM CLR 17/11 A3010 RMK AO2 SLP187 T01670106 10172 20144 53017=
201010081052 METAR KATL 081052Z 00000KT 10SM CLR 15/10 A3008 RMK AO2 SLP179 T01500100=
201010080952 METAR KATL 080952Z 34004KT 10SM CLR 16/10 A3005 RMK AO2 SLP170 T01560100=
201010080852 METAR KATL 080852Z 33005KT 10SM CLR 16/10 A3005 RMK AO2 SLP168 T01560100 58004=
201010080752 METAR KATL 080752Z 33008KT 10SM CLR 16/10 A3005 RMK AO2 SLP169 T01610100=
201010080652 METAR KATL 080652Z 32008KT 10SM CLR 16/10 A3006 RMK AO2 SLP172 T01610100=
201010080552 METAR KATL 080552Z 32006KT 10SM CLR 16/10 A3006 RMK AO2 SLP174 T01610100 10233 20156 58001=
201010080452 METAR KATL 080452Z 30006KT 10SM CLR 17/10 A3006 RMK AO2 SLP173 T01670100 402720100=
201010080352 METAR KATL 080352Z 28006KT 10SM CLR 17/10 A3007 RMK AO2 SLP176 T01720100=
201010080252 METAR KATL 080252Z 30006KT 10SM CLR 19/09 A3007 RMK AO2 SLP175 T01940094 51010=
201010080152 METAR KATL 080152Z 29006KT 10SM CLR 20/09 A3006 RMK AO2 SLP173 T02000094=
201010080052 METAR KATL 080052Z 29007KT 10SM CLR 22/09 A3005 RMK AO2 SLP171 T02170094=
201010072352 METAR KATL 072352Z 28003KT 10SM CLR 23/09 A3004 RMK AO2 SLP167 T02330094 10272 20233 55002=
201010072252 METAR KATL 072252Z 29006KT 10SM CLR 24/09 A3003 RMK AO2 SLP164 T02440094=
201010072152 METAR KATL 072152Z 31009KT 10SM CLR 27/09 A3003 RMK AO2 SLP164 T02670089=
201010072052 METAR KATL 072052Z 30012KT 10SM CLR 27/09 A3004 RMK AO2 SLP167 T02720089 56022=
201010071952 METAR KATL 071952Z 29012KT 10SM CLR 27/08 A3005 RMK AO2 SLP171 T02670083=
201010071852 METAR KATL 071852Z 31010G17KT 10SM CLR 26/07 A3008 RMK AO2 SLP181 T02610067=
201010071752 METAR KATL 071752Z 31008KT 10SM CLR 25/07 A3011 RMK AO2 SLP191 T02500072 10250 20100 58015=
201010071652 METAR KATL 071652Z 33010G14KT 10SM CLR 24/07 A3014 RMK AO2 SLP202 T02440072=
201010071552 METAR KATL 071552Z 32008KT 10SM CLR 22/05 A3015 RMK AO2 SLP206 T02220050=
201010071452 METAR KATL 071452Z 32006KT 10SM CLR 19/06 A3016 RMK AO2 SLP208 T01940061 51013=
201010071352 METAR KATL 071352Z 32009KT 10SM CLR 16/05 A3016 RMK AO2 SLP208 T01610050=
201010071252 METAR KATL 071252Z 31009KT 10SM CLR 13/04 A3014 RMK AO2 SLP203 T01280044=
201010071152 METAR KATL 071152Z 32008KT 10SM CLR 11/04 A3012 RMK AO2 SLP196 T01060044 10128 20100 53006=
201010071052 METAR KATL 071052Z 31009KT 10SM CLR 10/04 A3011 RMK AO2 SLP193 T01000044=
201010070952 METAR KATL 070952Z 32006KT 10SM CLR 11/04 A3010 RMK AO2 SLP190 T01060039=
201010070852 METAR KATL 070852Z 31008KT 10SM CLR 11/04 A3010 RMK AO2 SLP188 T01110039 58002=
201010070752 METAR KATL 070752Z 31006KT 10SM CLR 12/04 A3010 RMK AO2 SLP189 T01170039=
201010070652 METAR KATL 070652Z 31008KT 10SM CLR 12/04 A3011 RMK AO2 SLP195 T01170039=
201010070552 METAR KATL 070552Z 32009KT 10SM CLR 13/04 A3010 RMK AO2 SLP190 T01280039 10183 20128 55000=
201010070452 METAR KATL 070452Z 32008KT 10SM CLR 13/04 A3010 RMK AO2 SLP190 T01330044 402280072=
201010070352 METAR KATL 070352Z 31006KT 10SM CLR 14/04 A3010 RMK AO2 SLP191 T01390039=
201010070252 METAR KATL 070252Z 30004KT 10SM CLR 14/04 A3010 RMK AO2 SLP192 T01440039 50006=
201010070152 METAR KATL 070152Z 29006KT 10SM CLR 16/03 A3010 RMK AO2 SLP192 T01560028=
201010070052 METAR KATL 070052Z 30005KT 10SM CLR 17/03 A3010 RMK AO2 SLP190 T01720028=
201010062352 METAR KATL 062352Z 30007KT 10SM CLR 18/03 A3008 RMK AO2 SLP187 T01780028 10228 20178 55003=
201010062252 METAR KATL 062252Z 33006KT 10SM CLR 21/02 A3008 RMK AO2 SLP186 T02060017=
201010062152 METAR KATL 062152Z 34009KT 10SM CLR 22/01 A3008 RMK AO2 SLP185 T02220011=
201010062052 METAR KATL 062052Z 33011G19KT 10SM CLR 22/00 A3009 RMK AO2 SLP188 T02220000 56027=
201010061952 METAR KATL 061952Z 36013G22KT 10SM CLR 22/M01 A3011 RMK AO2 SLP192 T02221006=
201010061852 METAR KATL 061852Z 33010G19KT 10SM CLR 22/01 A3014 RMK AO2 SLP203 T02170006=
201010061752 METAR KATL 061752Z 32014G18KT 10SM CLR 21/01 A3018 RMK AO2 SLP216 T02060006 10211 20078 58020=
201010061652 METAR KATL 061652Z 32014G20KT 10SM CLR 20/00 A3021 RMK AO2 SLP229 T02000000=
201010061552 METAR KATL 061552Z 36012KT 10SM CLR 19/01 A3023 RMK AO2 SLP235 T01890006=
201010061452 METAR KATL 061452Z 34007KT 10SM CLR 16/02 A3024 RMK AO2 SLP237 T01610017 51006=
201010061352 METAR KATL 061352Z 31007KT 10SM CLR 13/04 A3023 RMK AO2 SLP237 T01330039=
201010061252 METAR KATL 061252Z 32008KT 10SM CLR 11/03 A3023 RMK AO2 SLP236 T01060033=
201010061152 METAR KATL 061152Z 32008KT 10SM CLR 08/04 A3022 RMK AO2 SLP233 T00780039 10100 20072 53007=
201010061052 METAR KATL 061052Z 31007KT 10SM CLR 07/04 A3021 RMK AO2 SLP229 T00720039=
201010060952 METAR KATL 060952Z 32007KT 10SM CLR 08/04 A3020 RMK AO2 SLP226 T00780044=
201010060852 METAR KATL 060852Z 28004KT 10SM CLR 08/04 A3020 RMK AO2 SLP224 T00780044 58007=
201010060752 METAR KATL 060752Z 30004KT 10SM CLR 09/06 A3020 RMK AO2 SLP226 T00940056=
201010060652 METAR KATL 060652Z 31007KT 10SM CLR 09/06 A3022 RMK AO2 SLP230 T00890061=
201010060552 METAR KATL 060552Z 30005KT 10SM CLR 10/06 A3022 RMK AO2 SLP230 T01000056 10161 20100 58005=
201010060452 METAR KATL 060452Z 32005KT 10SM CLR 11/06 A3022 RMK AO2 SLP233 T01060056 402110067=
201010060352 METAR KATL 060352Z 34005KT 10SM CLR 12/06 A3023 RMK AO2 SLP235 T01170056=
201010060252 METAR KATL 060252Z 35006KT 10SM CLR 14/04 A3023 RMK AO2 SLP236 T01440044 51009=
201010060152 METAR KATL 060152Z 34004KT 10SM CLR 14/04 A3023 RMK AO2 SLP235 T01440044=
201010060052 METAR KATL 060052Z 33006KT 10SM CLR 15/04 A3022 RMK AO2 SLP234 T01500039=
201010052352 METAR KATL 052352Z 35009KT 10SM CLR 16/04 A3021 RMK AO2 SLP230 T01610039 10211 20161 53004=
201010052252 METAR KATL 052252Z 34010KT 10SM CLR 18/04 A3020 RMK AO2 SLP226 T01780044=
201010052152 METAR KATL 052152Z 33012KT 10SM FEW060 19/05 A3019 RMK AO2 SLP221 T01940050=
201010052052 METAR KATL 052052Z 32013G16KT 10SM FEW060 20/05 A3019 RMK AO2 SLP223 T02000050 56017=
201010051952 METAR KATL 051952Z 32013G19KT 10SM FEW060 20/06 A3020 RMK AO2 SLP226 T02000056=
201010051852 METAR KATL 051852Z 30004KT 10SM FEW070 20/04 A3022 RMK AO2 SLP230 T02000039=
201010051752 METAR KATL 051752Z VRB05KT 10SM FEW065 19/04 A3025 RMK AO2 SLP240 T01940039 10200 20067 58016=
201010051652 METAR KATL 051652Z VRB06KT 10SM CLR 19/04 A3027 RMK AO2 SLP249 T01940044=
201010051552 METAR KATL 051552Z VRB03KT 10SM CLR 17/05 A3028 RMK AO2 SLP253 T01720050=
201010051452 METAR KATL 051452Z 02008KT 10SM CLR 15/04 A3030 RMK AO2 SLP258 T01500044 51022=
201010051352 METAR KATL 051352Z 34007KT 10SM CLR 12/06 A3029 RMK AO2 SLP256 T01170056=
201010051252 METAR KATL 051252Z 31006KT 10SM CLR 08/05 A3026 RMK AO2 SLP249 T00830050=
201010051152 METAR KATL 051152Z 33005KT 10SM CLR 07/04 A3023 RMK AO2 SLP238 T00670044 10089 20067 53013=
201010051052 METAR KATL 051052Z 34006KT 10SM CLR 07/04 A3022 RMK AO2 SLP233 T00720044=
201010050952 METAR KATL 050952Z 34005KT 10SM CLR 07/04 A3020 RMK AO2 SLP227 T00720044=
201010050852 METAR KATL 050852Z 33004KT 10SM CLR 08/04 A3019 RMK AO2 SLP222 T00780044 55004=
201010050752 METAR KATL 050752Z 34006KT 10SM CLR 08/04 A3019 RMK AO2 SLP221 T00780044=
201010050652 METAR KATL 050652Z 34007KT 10SM CLR 08/04 A3019 RMK AO2 SLP223 T00830044=
201010050552 METAR KATL 050552Z 33008KT 10SM CLR 09/04 A3020 RMK AO2 SLP226 T00890039 10150 20089 58004=
201010050452 METAR KATL 050452Z 33009KT 10SM CLR 10/04 A3021 RMK AO2 SLP228 T01000039 401940072=
201010050352 METAR KATL 050352Z 33008KT 10SM CLR 11/04 A3022 RMK AO2 SLP233 T01060039=
201010050252 METAR KATL 050252Z 33011KT 10SM CLR 11/04 A3021 RMK AO2 SLP231 T01110039 53011=
201010050152 METAR KATL 050152Z 34007KT 10SM CLR 12/04 A3020 RMK AO2 SLP229 T01220039=
201010050052 METAR KATL 050052Z 36007KT 10SM CLR 14/03 A3019 RMK AO2 SLP224 T01390028=
201010042352 METAR KATL 042352Z 35009KT 10SM CLR 14/02 A3018 RMK AO2 SLP221 T01440022 10194 20144 51013=
201010042252 METAR KATL 042252Z 34010KT 10SM FEW055 16/02 A3017 RMK AO2 PK WND 36027/2203 SLP217 T01610022=
201010042152 METAR KATL 042152Z 34016G22KT 10SM FEW055 18/03 A3016 RMK AO2 SLP212 T01780028=
201010042144 SPECI KATL 042144Z 34012G18KT 10SM FEW055 18/03 A3016 RMK AO2=
201010042144 SPECI KATL 042144Z 34012G18KT 10SM FEW055 18/03 A3016 RMK AO2=
201010042052 METAR KATL 042052Z 01013KT 10SM SCT055 19/04 A3014 RMK AO2 SLP206 T01940039 55007=
201010041952 METAR KATL 041952Z 35013G21KT 10SM FEW055 19/05 A3013 RMK AO2 SLP203 T01890050=
201010041852 METAR KATL 041852Z 32010G20KT 10SM FEW060 19/04 A3014 RMK AO2 SLP205 T01890044=
201010041752 METAR KATL 041752Z 00000KT 10SM FEW055 17/04 A3016 RMK AO2 SLP213 T01720044 10178 20072 58008=
201010041652 METAR KATL 041652Z VRB06KT 10SM FEW045 17/06 A3018 RMK AO2 SLP218 T01670056=
201010041552 METAR KATL 041552Z VRB04KT 10SM FEW065 16/06 A3019 RMK AO2 SLP221 T01560056=
201010041452 METAR KATL 041452Z 34004KT 10SM FEW030 SCT065 13/06 A3019 RMK AO2 SLP222 T01280056 51017=
201010041352 METAR KATL 041352Z 32008KT 10SM SCT050 BKN150 11/06 A3018 RMK AO2 SLP219 T01110061=
201010041252 METAR KATL 041252Z 33007KT 10SM SCT049 BKN250 08/05 A3016 RMK AO2 SLP213 T00830050=
201010041152 METAR KATL 041152Z 34007KT 10SM BKN049 07/05 A3014 RMK AO2 SLP206 T00720050 10094 20072 53015=
201010041052 METAR KATL 041052Z 33011KT 10SM SCT050 08/05 A3012 RMK AO2 SLP199 T00780050=
201010040952 METAR KATL 040952Z 33008KT 10SM SCT049 08/04 A3011 RMK AO2 SLP194 T00780044=
201010040852 METAR KATL 040852Z 33009KT 10SM SCT047 08/05 A3009 RMK AO2 SLP189 T00830050 56005=
201010040752 METAR KATL 040752Z 33009KT 10SM SCT045 08/05 A3010 RMK AO2 SLP190 T00830050=
201010040652 METAR KATL 040652Z 33008KT 10SM FEW060 09/05 A3010 RMK AO2 SLP192 T00890050=
201010040552 METAR KATL 040552Z 34010KT 10SM CLR 09/05 A3011 RMK AO2 SLP193 T00940050 10156 20094 55002=
201010040452 METAR KATL 040452Z 33011KT 10SM CLR 10/05 A3011 RMK AO2 SLP192 T01000050 402000100=
201010040352 METAR KATL 040352Z 34010KT 10SM CLR 11/05 A3011 RMK AO2 SLP194 T01110050=
201010040252 METAR KATL 040252Z 34010KT 10SM CLR 12/04 A3011 RMK AO2 SLP195 T01220044 51017=
201010040152 METAR KATL 040152Z 34010KT 10SM CLR 13/04 A3010 RMK AO2 SLP193 T01280039=
201010040052 METAR KATL 040052Z 34011G19KT 10SM CLR 14/05 A3008 RMK AO2 SLP186 T01440050=
201010032352 METAR KATL 032352Z 34012G20KT 10SM FEW060 16/04 A3006 RMK AO2 SLP178 T01560039 10200 20156 53016=
201010032252 METAR KATL 032252Z 34014G23KT 10SM FEW060 17/03 A3004 RMK AO2 SLP170 T01670033=
201010032152 METAR KATL 032152Z 35017KT 10SM FEW060 18/04 A3002 RMK AO2 SLP164 T01830039=
201010032052 METAR KATL 032052Z 36016G21KT 10SM FEW060 19/04 A3001 RMK AO2 SLP159 T01890044 55002=
201010031952 METAR KATL 031952Z 31015G25KT 10SM FEW060 19/05 A3001 RMK AO2 SLP158 T01890050=
201010031852 METAR KATL 031852Z 31014G22KT 10SM SCT055 20/07 A3000 RMK AO2 SLP156 T02000067=
201010031752 METAR KATL 031752Z 34015G24KT 10SM FEW045 20/07 A3002 RMK AO2 SLP160 T02000072 10200 20111 58003=
201010031652 METAR KATL 031652Z 33014KT 10SM FEW040 19/08 A3003 RMK AO2 SLP165 T01940083=
201010031552 METAR KATL 031552Z 31012KT 10SM FEW035 SCT250 18/09 A3003 RMK AO2 SLP164 T01830089=
201010031452 METAR KATL 031452Z 31012KT 10SM FEW250 16/09 A3002 RMK AO2 SLP163 T01610089 51014=
201010031352 METAR KATL 031352Z 33012KT 10SM FEW250 15/08 A3002 RMK AO2 SLP159 T01500083=
201010031252 METAR KATL 031252Z 32012KT 10SM FEW250 13/08 A3000 RMK AO2 SLP155 T01280078=
201010031152 METAR KATL 031152Z 32011KT 10SM FEW250 11/07 A2998 RMK AO2 SLP149 T01110072 10150 20111 53015=
201010031052 METAR KATL 031052Z 32011KT 10SM CLR 12/08 A2996 RMK AO2 SLP142 T01170078=
201010030952 METAR KATL 030952Z 32010KT 10SM CLR 12/08 A2995 RMK AO2 SLP135 T01220078=
201010030852 METAR KATL 030852Z 33010KT 10SM CLR 13/08 A2994 RMK AO2 SLP132 T01280078 53004=
201010030752 METAR KATL 030752Z 32012KT 10SM CLR 13/08 A2993 RMK AO2 SLP128 T01330078=
201010030652 METAR KATL 030652Z 32009KT 10SM CLR 14/08 A2993 RMK AO2 SLP129 T01440083=
201010030552 METAR KATL 030552Z 32007KT 10SM CLR 15/09 A2992 RMK AO2 SLP126 T01500089 10228 20150 58000=
201010030452 METAR KATL 030452Z 34007KT 10SM CLR 16/09 A2993 RMK AO2 SLP129 T01610094 402560128=
201010030352 METAR KATL 030352Z 32008KT 10SM FEW065 17/11 A2993 RMK AO2 SLP131 T01670111=
201010030252 METAR KATL 030252Z 00000KT 10SM CLR 18/11 A2992 RMK AO2 SLP128 T01830111 51007=
201010030152 METAR KATL 030152Z 01006KT 10SM CLR 21/09 A2992 RMK AO2 SLP126 T02110094=
201010030052 METAR KATL 030052Z 36006KT 10SM FEW070 22/09 A2992 RMK AO2 SLP124 T02220089=
201010022352 METAR KATL 022352Z 36007KT 10SM FEW065 23/09 A2990 RMK AO2 SLP122 T02280089 10256 20228 53001=
201010022252 METAR KATL 022252Z COR 35007KT 10SM FEW065 23/08 A2990 RMK AO2 SLP119 T02330083=
201010022152 METAR KATL 022152Z 35006KT 10SM FEW065 25/09 A2989 RMK AO2 SLP116 T02500089=
201010022052 METAR KATL 022052Z 00000KT 10SM SCT065 SCT250 25/09 A2990 RMK AO2 SLP119 T02500089 56017=
201010021952 METAR KATL 021952Z 34004KT 10SM FEW065 SCT250 25/09 A2991 RMK AO2 SLP123 T02500089=
201010021852 METAR KATL 021852Z 10003KT 10SM FEW065 SCT250 24/09 A2993 RMK AO2 SLP128 T02440089=
201010021752 METAR KATL 021752Z 18003KT 10SM FEW250 24/08 A2996 RMK AO2 SLP137 T02390083 10239 20128 58016=
201010021652 METAR KATL 021652Z VRB03KT 10SM CLR 22/09 A2998 RMK AO2 SLP146 T02220089=
201010021552 METAR KATL 021552Z 13004KT 10SM FEW250 21/08 A3000 RMK AO2 SLP152 T02110083=
201010021452 METAR KATL 021452Z 07008KT 10SM FEW060 SCT150 SCT250 19/08 A3000 RMK AO2 SLP155 T01940083 51011=
201010021352 METAR KATL 021352Z 06011KT 10SM SCT060 SCT150 BKN250 18/08 A3000 RMK AO2 SLP154 T01780078=
201010021252 METAR KATL 021252Z 08007KT 10SM FEW150 SCT250 16/08 A2999 RMK AO2 SLP150 T01610083=
201010021152 METAR KATL 021152Z 09006KT 10SM CLR 13/08 A2997 RMK AO2 SLP144 T01280083 10167 20128 53012=
201010021052 METAR KATL 021052Z 09006KT 10SM CLR 13/08 A2996 RMK AO2 SLP140 T01280083=
201010020952 METAR KATL 020952Z 08008KT 10SM CLR 14/08 A2994 RMK AO2 SLP133 T01440083=
201010020852 METAR KATL 020852Z 06007KT 10SM CLR 15/09 A2993 RMK AO2 SLP130 T01500089 53001=
201010020752 METAR KATL 020752Z 06006KT 10SM CLR 15/09 A2992 RMK AO2 SLP126 T01500094=
201010020652 METAR KATL 020652Z 03005KT 10SM CLR 16/09 A2993 RMK AO2 SLP128 T01560094=
201010020552 METAR KATL 020552Z 04006KT 10SM CLR 17/09 A2993 RMK AO2 SLP129 T01670094 10211 20167 53003=
201010020452 METAR KATL 020452Z 04008KT 10SM CLR 17/09 A2992 RMK AO2 SLP126 T01720089 402610144=
201010020352 METAR KATL 020352Z 01007KT 10SM CLR 17/09 A2992 RMK AO2 SLP126 T01720089=
201010020252 METAR KATL 020252Z 35005KT 10SM CLR 18/08 A2992 RMK AO2 SLP125 T01780083 51014=
201010020152 METAR KATL 020152Z 34008KT 10SM CLR 19/08 A2991 RMK AO2 SLP122 T01890083=
201010020052 METAR KATL 020052Z 35010KT 10SM CLR 21/08 A2989 RMK AO2 SLP117 T02060083=
201010012352 METAR KATL 012352Z 33010KT 10SM CLR 21/08 A2988 RMK AO2 SLP112 T02110083 10261 20211 53010=
201010012252 METAR KATL 012252Z 33011KT 10SM CLR 23/08 A2986 RMK AO2 SLP107 T02330078=
201010012152 METAR KATL 012152Z 34010KT 10SM CLR 25/09 A2985 RMK AO2 SLP101 T02500094=
201010012052 METAR KATL 012052Z 34008KT 10SM FEW070 26/09 A2985 RMK AO2 SLP100 T02610094 56006=
201010011952 METAR KATL 011952Z 02010KT 10SM FEW065 26/09 A2985 RMK AO2 SLP102 T02560089=
201010011852 METAR KATL 011852Z 01012G15KT 10SM FEW060 25/10 A2985 RMK AO2 SLP103 T02500100=
201010011752 METAR KATL 011752Z 31012G17KT 10SM FEW060 24/10 A2987 RMK AO2 SLP107 T02440100 10250 20150 58004=
201010011652 METAR KATL 011652Z 32011KT 10SM FEW050 24/12 A2987 RMK AO2 SLP110 T02390117=
201010011552 METAR KATL 011552Z VRB03KT 10SM CLR 23/12 A2988 RMK AO2 SLP111 T02330122=
201010011452 METAR KATL 011452Z 34009G15KT 10SM CLR 22/12 A2988 RMK AO2 SLP112 T02220117 51015=
201010011352 METAR KATL 011352Z 35011G18KT 10SM CLR 19/11 A2987 RMK AO2 SLP107 T01940111=
201010011252 METAR KATL 011252Z 33011KT 10SM CLR 17/11 A2985 RMK AO2 SLP102 T01670111=
