##########################################################
# Query made at 04/19/2024 23:19:36 UTC
# Time interval: from 12/01/2010 12:00  to 12/31/2010 12:59  UTC
##########################################################

##########################################################
# KATL, Atlanta, Hartsfield - Jackson Atlanta International Airport (United States)
# WMO index: 72219. WIGOS ID: 0-20000-0-72219
# Latitude 33-38-59N. Longitude 084-25-00W. Altitude 312 m.
##########################################################

201012311252 METAR KATL 311252Z 10009KT 10SM OVC045 07/01 A3018 RMK AO2 SLP223 T00720006=
201012311152 METAR KATL 311152Z 10010KT 10SM FEW032 OVC055 07/00 A3018 RMK AO2 SLP223 T00720000 10078 20067 51007=
201012311052 METAR KATL 311052Z 09008KT 10SM FEW032 BKN055 07/00 A3017 RMK AO2 SLP220 T00720000=
201012310952 METAR KATL 310952Z 08007KT 10SM OVC032 08/00 A3017 RMK AO2 SLP219 T00780000=
201012310852 METAR KATL 310852Z 09008KT 10SM OVC030 08/M01 A3016 RMK AO2 SLP215 T00781006 53003=
201012310752 METAR KATL 310752Z 10009KT 10SM OVC032 08/M01 A3016 RMK AO2 SLP214 T00781011=
201012310652 METAR KATL 310652Z 09010KT 10SM BKN032 OVC100 08/M01 A3015 RMK AO2 SLP211 T00781011=
201012310552 METAR KATL 310552Z 09011KT 10SM SCT034 BKN050 BKN100 08/M02 A3015 RMK AO2 SLP212 60000 T00781017 10106 20078 58007=
201012310452 METAR KATL 310452Z 08011KT 10SM OVC034 08/M01 A3017 RMK AO2 SLP218 T00781011 401280028=
201012310352 METAR KATL 310352Z 08009KT 10SM BKN035 OVC050 08/00 A3017 RMK AO2 RAB00E23 SLP220 P0000 T00780000=
201012310252 METAR KATL 310252Z 07010KT 10SM BKN033 OVC050 08/02 A3017 RMK AO2 RAB22E49 SLP220 P0000 60000 T00830017 53016=
201012310152 METAR KATL 310152Z 10008KT 10SM OVC030 11/M01 A3015 RMK AO2 SLP213 T01061011=
201012310052 METAR KATL 310052Z 11008KT 10SM BKN030 OVC070 11/M01 A3013 RMK AO2 SLP208 T01061011=
201012302352 METAR KATL 302352Z 10009KT 10SM BKN033 BKN070 OVC200 11/M01 A3012 RMK AO2 SLP204 T01061011 10128 20094 53010=
201012302252 METAR KATL 302252Z 10007KT 10SM BKN037 BKN070 BKN200 10/M01 A3011 RMK AO2 SLP198 T01001006=
201012302152 METAR KATL 302152Z 11006KT 10SM FEW040 BKN065 BKN085 11/M01 A3011 RMK AO2 SLP199 T01111006=
201012302052 METAR KATL 302052Z 13008KT 10SM FEW030 SCT080 BKN100 12/00 A3009 RMK AO2 SLP193 T01170000 56012=
201012301952 METAR KATL 301952Z 13006KT 10SM FEW028 BKN080 BKN100 12/M01 A3010 RMK AO2 SLP196 T01171011=
201012301908 SPECI KATL 301908Z 12007KT 10SM SCT028 BKN080 11/M02 A3010 RMK AO2=
201012301908 SPECI KATL 301908Z 12007KT 10SM SCT028 BKN080 11/M02 A3010 RMK AO2=
201012301852 METAR KATL 301852Z 12009KT 10SM BKN028 BKN085 BKN150 11/M02 A3011 RMK AO2 SLP200 T01061017=
201012301752 METAR KATL 301752Z 13010KT 10SM BKN026 BKN080 OVC150 09/M03 A3013 RMK AO2 SLP206 T00941028 10100 20033 58014=
201012301654 SPECI KATL 301654Z 12007KT 10SM FEW028 BKN080 BKN150 09/M04 A3016 RMK AO2=
201012301654 SPECI KATL 301654Z 12007KT 10SM FEW028 BKN080 BKN150 09/M04 A3016 RMK AO2=
201012301652 METAR KATL 301652Z 12009KT 10SM BKN028 BKN085 BKN150 09/M04 A3016 RMK AO2 SLP217 T00891039=
201012301631 SPECI KATL 301631Z 13009KT 10SM SCT030 BKN085 BKN150 08/M04 A3017 RMK AO2=
201012301631 SPECI KATL 301631Z 13009KT 10SM SCT030 BKN085 BKN150 08/M04 A3017 RMK AO2=
201012301605 SPECI KATL 301605Z 13007KT 10SM BKN029 BKN090 07/M04 A3018 RMK AO2=
201012301605 SPECI KATL 301605Z 13007KT 10SM BKN029 BKN090 07/M04 A3018 RMK AO2=
201012301552 METAR KATL 301552Z 13009KT 10SM FEW029 BKN085 BKN150 BKN250 07/M04 A3018 RMK AO2 SLP225 T00721044=
201012301452 METAR KATL 301452Z 11010KT 10SM BKN100 BKN150 BKN250 06/M04 A3017 RMK AO2 SLP221 T00611044 50011=
201012301352 METAR KATL 301352Z 08009KT 10SM BKN110 BKN250 05/M04 A3017 RMK AO2 SLP222 T00501039=
201012301252 METAR KATL 301252Z 09008KT 10SM SCT120 BKN250 04/M04 A3016 RMK AO2 SLP219 T00391044=
201012301152 METAR KATL 301152Z 11007KT 10SM FEW120 SCT250 04/M03 A3014 RMK AO2 SLP210 T00441033 10056 20028 53006=
201012301052 METAR KATL 301052Z 12006KT 10SM SCT150 SCT250 05/M02 A3012 RMK AO2 SLP202 T00501022=
201012300952 METAR KATL 300952Z 10006KT 10SM BKN250 03/M01 A3011 RMK AO2 SLP199 T00331006=
201012300852 METAR KATL 300852Z 00000KT 10SM SCT150 SCT250 04/M01 A3012 RMK AO2 SLP202 T00441011 53009=
201012300752 METAR KATL 300752Z 12004KT 10SM FEW150 SCT250 04/M01 A3011 RMK AO2 SLP199 T00441006=
201012300652 METAR KATL 300652Z 15004KT 10SM SCT150 SCT250 05/00 A3009 RMK AO2 SLP195 T00500000=
201012300552 METAR KATL 300552Z 14005KT 10SM FEW150 SCT250 06/01 A3009 RMK AO2 SLP192 T00560006 10083 20056 58005=
201012300452 METAR KATL 300452Z 13005KT 10SM FEW150 BKN250 06/01 A3010 RMK AO2 SLP197 T00610011 401221022=
201012300352 METAR KATL 300352Z 13004KT 10SM SCT250 06/01 A3010 RMK AO2 SLP199 T00610011=
201012300252 METAR KATL 300252Z 12003KT 10SM FEW250 06/01 A3010 RMK AO2 SLP200 T00610006 53004=
201012300152 METAR KATL 300152Z 11005KT 10SM FEW250 07/01 A3010 RMK AO2 SLP200 T00720011=
201012300052 METAR KATL 300052Z 09007KT 10SM FEW250 06/01 A3009 RMK AO2 SLP197 T00610006=
201012292352 METAR KATL 292352Z 09006KT 10SM FEW030 SCT250 07/01 A3009 RMK AO2 SLP198 T00720006 10122 20072 53004=
201012292252 METAR KATL 292252Z 09006KT 10SM FEW030 SCT250 09/02 A3009 RMK AO2 SLP194 T00890017=
201012292152 METAR KATL 292152Z 07005KT 10SM FEW027 SCT250 11/01 A3008 RMK AO2 SLP192 T01110011=
201012292052 METAR KATL 292052Z 00000KT 10SM FEW027 SCT200 SCT250 12/02 A3008 RMK AO2 SLP192 T01170017 56003=
201012292027 SPECI KATL 292027Z 34003KT 10SM FEW027 BKN200 BKN250 12/01 A3008 RMK AO2=
201012292027 SPECI KATL 292027Z 34003KT 10SM FEW027 BKN200 BKN250 12/01 A3008 RMK AO2=
201012291952 METAR KATL 291952Z 29004KT 10SM BKN027 BKN200 BKN250 11/00 A3008 RMK AO2 SLP192 T01110000=
201012291949 SPECI KATL 291949Z 33003KT 10SM BKN027 BKN200 BKN250 11/00 A3008 RMK AO2=
201012291949 SPECI KATL 291949Z 33003KT 10SM BKN027 BKN200 BKN250 11/00 A3008 RMK AO2=
201012291852 METAR KATL 291852Z 35004KT 10SM FEW034 BKN200 BKN250 11/M01 A3009 RMK AO2 SLP194 T01061011=
201012291752 METAR KATL 291752Z VRB03KT 10SM FEW034 BKN200 BKN250 10/M02 A3012 RMK AO2 SLP206 T01001017 10100 21022 58015=
201012291652 METAR KATL 291652Z 36008KT 10SM FEW034 BKN200 BKN250 09/M03 A3015 RMK AO2 SLP217 T00891028=
201012291552 METAR KATL 291552Z 31005KT 10SM FEW040 BKN200 BKN250 07/M04 A3017 RMK AO2 SLP225 T00721039=
201012291452 METAR KATL 291452Z 33004KT 10SM FEW037 SCT200 BKN250 04/M06 A3017 RMK AO2 SLP223 T00391056 51008=
201012291352 METAR KATL 291352Z 31005KT 10SM BKN037 BKN250 01/M06 A3016 RMK AO2 SLP223 T00061061=
201012291252 METAR KATL 291252Z 29004KT 10SM FEW045 BKN250 M02/M07 A3015 RMK AO2 SLP219 T10171067=
201012291152 METAR KATL 291152Z 32006KT 10SM FEW045 SCT250 M02/M07 A3014 RMK AO2 SLP217 T10221067 10000 21022 56009=
201012291052 METAR KATL 291052Z 31006KT 10SM FEW045 SCT250 M02/M07 A3015 RMK AO2 SLP217 T10221067=
201012290952 METAR KATL 290952Z 31003KT 10SM SCT250 M02/M07 A3015 RMK AO2 SLP219 T10171072=
201012290852 METAR KATL 290852Z 29004KT 10SM BKN250 M02/M07 A3017 RMK AO2 SLP225 T10221072 55004=
201012290752 METAR KATL 290752Z 28004KT 10SM BKN250 M01/M07 A3016 RMK AO2 SLP221 T10061072=
201012290652 METAR KATL 290652Z 29005KT 10SM SCT250 M01/M07 A3017 RMK AO2 SLP222 T10061072=
201012290552 METAR KATL 290552Z 30006KT 10SM BKN250 M01/M07 A3018 RMK AO2 SLP229 T10061072 10033 21006 58005=
201012290452 METAR KATL 290452Z 31006KT 10SM BKN250 00/M07 A3018 RMK AO2 SLP228 T00001072 400831050=
201012290352 METAR KATL 290352Z 30007KT 10SM SCT250 00/M08 A3020 RMK AO2 SLP237 T00001078=
201012290252 METAR KATL 290252Z 30005KT 10SM FEW250 01/M09 A3020 RMK AO2 SLP236 T00061089 50002=
201012290152 METAR KATL 290152Z 32006KT 10SM FEW250 01/M09 A3021 RMK AO2 SLP240 T00061089=
201012290052 METAR KATL 290052Z 32006KT 10SM FEW250 02/M09 A3021 RMK AO2 SLP239 T00171094=
201012282352 METAR KATL 282352Z 32005KT 10SM FEW250 03/M11 A3019 RMK AO2 SLP235 T00331106 10083 20033 51002=
201012282252 METAR KATL 282252Z 31005KT 10SM FEW200 SCT250 04/M10 A3019 RMK AO2 SLP234 T00441100=
201012282152 METAR KATL 282152Z 30008KT 10SM FEW250 07/M10 A3019 RMK AO2 SLP232 T00671100=
201012282052 METAR KATL 282052Z 31008KT 10SM SCT250 08/M11 A3019 RMK AO2 SLP230 T00781106 56014=
201012281952 METAR KATL 281952Z 28009KT 10SM FEW250 08/M09 A3019 RMK AO2 SLP231 T00781094=
201012281852 METAR KATL 281852Z 32010KT 10SM FEW250 07/M10 A3020 RMK AO2 SLP236 T00671100=
201012281752 METAR KATL 281752Z 30010KT 10SM FEW250 06/M10 A3023 RMK AO2 SLP245 T00561100 10056 21050 58019=
201012281652 METAR KATL 281652Z 29007KT 10SM FEW250 04/M09 A3026 RMK AO2 SLP255 T00391089=
201012281552 METAR KATL 281552Z 29009KT 10SM FEW250 02/M08 A3028 RMK AO2 SLP265 T00171083=
201012281452 METAR KATL 281452Z 31007G15KT 10SM CLR M01/M08 A3028 RMK AO2 SLP266 T10061083 52013=
201012281352 METAR KATL 281352Z 31009KT 10SM CLR M03/M09 A3027 RMK AO2 SLP264 T10331089=
201012281252 METAR KATL 281252Z 30007KT 10SM CLR M04/M09 A3026 RMK AO2 SLP258 T10441094=
201012281152 METAR KATL 281152Z 31007KT 10SM CLR M05/M09 A3025 RMK AO2 SLP254 T10501094 11028 21050 55001=
201012281052 METAR KATL 281052Z 32007KT 10SM CLR M04/M09 A3024 RMK AO2 SLP253 T10441089=
201012280952 METAR KATL 280952Z 32012KT 10SM CLR M04/M09 A3025 RMK AO2 SLP253 T10391089=
201012280852 METAR KATL 280852Z 31009KT 10SM CLR M04/M09 A3025 RMK AO2 SLP254 T10391089 51003=
201012280752 METAR KATL 280752Z 32007KT 10SM CLR M04/M09 A3024 RMK AO2 SLP251 T10391089=
201012280652 METAR KATL 280652Z 31007KT 10SM CLR M03/M09 A3025 RMK AO2 SLP254 T10331089=
201012280552 METAR KATL 280552Z 32009KT 10SM CLR M03/M09 A3024 RMK AO2 SLP251 T10281089 10000 21028 50000=
201012280452 METAR KATL 280452Z 32007KT 10SM CLR M02/M09 A3025 RMK AO2 SLP256 T10221089 400281039=
201012280352 METAR KATL 280352Z 33011KT 10SM CLR M02/M08 A3025 RMK AO2 SLP255 T10171083=
201012280252 METAR KATL 280252Z 34008KT 10SM CLR M01/M08 A3024 RMK AO2 SLP251 T10111078 50004=
201012280152 METAR KATL 280152Z 33009KT 10SM CLR M01/M07 A3024 RMK AO2 SLP253 T10111072=
201012280052 METAR KATL 280052Z 32010KT 10SM CLR M01/M07 A3023 RMK AO2 SLP250 T10061072=
201012272352 METAR KATL 272352Z 31010KT 10SM CLR 00/M07 A3023 RMK AO2 SLP248 T00001072 10028 20000 53007=
201012272252 METAR KATL 272252Z 31011KT 10SM CLR 01/M08 A3022 RMK AO2 SLP243 T00111078=
201012272152 METAR KATL 272152Z 32010G20KT 10SM CLR 02/M07 A3021 RMK AO2 SLP240 T00221072=
201012272052 SPECI KATL 272052Z 31014KT 10SM FEW250 03/M07 A3020 RMK AO2 SLP238 T00281072 53001=
201012271952 METAR KATL 271952Z 31015G22KT 10SM FEW040 SCT250 02/M07 A3018 RMK AO2 SLP232 T00221067=
201012271852 METAR KATL 271852Z 33015G22KT 10SM FEW035 SCT250 02/M07 A3019 RMK AO2 SLP236 T00221067=
201012271752 METAR KATL 271752Z 33017G23KT 10SM FEW035 01/M07 A3020 RMK AO2 SLP239 T00061072 10011 21039 58001=
201012271652 METAR KATL 271652Z 33016G23KT 10SM FEW030 00/M07 A3021 RMK AO2 PK WND 32027/1608 SLP242 T00001072=
201012271552 METAR KATL 271552Z 31019KT 10SM FEW030 M01/M07 A3022 RMK AO2 PK WND 33031/1455 SLP245 T10111072=
201012271452 METAR KATL 271452Z 32023G32KT 10SM FEW030 M02/M08 A3020 RMK AO2 PK WND 32032/1450 SLP241 T10171078 53022=
201012271352 METAR KATL 271352Z 32016G25KT 10SM FEW030 M03/M08 A3018 RMK AO2 SLP233 T10281083=
201012271252 METAR KATL 271252Z 32016G26KT 10SM FEW030 M03/M08 A3016 RMK AO2 PK WND 33030/1231 SLP224 T10331083=
201012271152 METAR KATL 271152Z 33018G25KT 10SM FEW030 M03/M08 A3014 RMK AO2 PK WND 34029/1111 SLP218 T10331083 11033 21039 53019=
201012271052 METAR KATL 271052Z 32022G28KT 10SM FEW030 M03/M08 A3011 RMK AO2 PK WND 32029/1023 SLP209 T10331083=
201012270952 METAR KATL 270952Z 32018G25KT 10SM FEW030 M03/M08 A3009 RMK AO2 PK WND 32027/0910 SLP201 T10331083=
201012270852 METAR KATL 270852Z 32015G24KT 10SM FEW032 M03/M08 A3008 RMK AO2 PK WND 33027/0830 SLP198 T10331083 53014=
201012270752 METAR KATL 270752Z 33020G27KT 10SM SCT032 M03/M09 A3006 RMK AO2 PK WND 33029/0728 SLP192 T10331089=
201012270652 METAR KATL 270652Z 33019G28KT 10SM FEW030 M03/M09 A3004 RMK AO2 PK WND 32029/0556 SLP184 T10331089=
201012270552 METAR KATL 270552Z 32013G21KT 10SM FEW028 M04/M08 A3004 RMK AO2 SLP184 T10391083 11033 21039 50002=
201012270452 METAR KATL 270452Z 31017G23KT 10SM FEW028 SCT037 M03/M08 A3004 RMK AO2 SLP185 T10331083 410061039=
201012270352 METAR KATL 270352Z 31016G25KT 10SM BKN040 M03/M08 A3004 RMK AO2 SLP185 T10331078=
201012270252 METAR KATL 270252Z 31018G21KT 10SM FEW037 M04/M08 A3003 RMK AO2 SLP182 T10391083 53012=
201012270152 METAR KATL 270152Z 31014G20KT 10SM FEW028 SCT037 M04/M08 A3002 RMK AO2 PK WND 31026/0136 SLP176 T10391078=
201012270052 METAR KATL 270052Z 31014G25KT 10SM SCT030 M03/M08 A3001 RMK AO2 PK WND 32029/0025 SLP176 T10331078=
201012262352 METAR KATL 262352Z 31014G23KT 10SM SCT024 SCT034 M03/M08 A3000 RMK AO2 PK WND 32029/2318 SNE28 SLP170 P0000 60000 T10331078 11011 21033 51019=
201012262252 METAR KATL 262252Z 30017KT 3SM -SN SCT024 BKN034 BKN043 M03/M06 A2998 RMK AO2 PK WND 31031/2235 SLP164 P0000 T10281061=
201012262234 SPECI KATL 262234Z 32020G28KT 7SM FEW024 BKN032 BKN043 M02/M06 A2997 RMK AO2 PK WND 31028/2234 SNE34 P0000=
201012262234 SPECI KATL 262234Z 32020G28KT 7SM FEW024 BKN032 BKN043 M02/M06 A2997 RMK AO2 PK WND 31028/2234 SNE34 P0000=
201012262226 SPECI KATL 262226Z 31018G25KT 2SM -SN BKN027 BKN034 BKN043 M02/M06 A2997 RMK AO2 P0000=
201012262226 SPECI KATL 262226Z 31018G25KT 2SM -SN BKN027 BKN034 BKN043 M02/M06 A2997 RMK AO2 P0000=
201012262204 SPECI KATL 262204Z 31016G24KT 3SM -SN FEW012 SCT022 BKN040 M02/M06 A2996 RMK AO2 SFC VIS 5 P0000=
201012262204 SPECI KATL 262204Z 31016G24KT 3SM -SN FEW012 SCT022 BKN040 M02/M06 A2996 RMK AO2 SFC VIS 5 P0000=
201012262156 SPECI KATL 262156Z 31019G24KT 2SM -SN SCT010 BKN022 BKN040 M02/M06 A2996 RMK AO2 TWR VIS 3 P0000=
201012262156 SPECI KATL 262156Z 31019G24KT 2SM -SN SCT010 BKN022 BKN040 M02/M06 A2996 RMK AO2 TWR VIS 3 P0000=
201012262152 SPECI KATL 262152Z 31017G24KT 1 3/4SM -SN SCT008 BKN022 BKN040 M02/M06 A2996 RMK AO2 PK WND 30026/2117 TWR VIS 2 SLP156 P0000 T10221056=
201012262128 SPECI KATL 262128Z 31016G24KT 1 1/2SM -SN SCT011 BKN022 OVC030 M02/M06 A2996 RMK AO2 PK WND 30026/2117 TWR VIS 2 P0000=
201012262128 SPECI KATL 262128Z 31016G24KT 1 1/2SM -SN SCT011 BKN022 OVC030 M02/M06 A2996 RMK AO2 PK WND 30026/2117 TWR VIS 2 P0000=
201012262121 SPECI KATL 262121Z 30019G26KT 2 1/2SM -SN BKN022 BKN030 OVC040 M02/M06 A2995 RMK AO2 PK WND 30026/2117 TWR VIS 3 P0000=
201012262121 SPECI KATL 262121Z 30019G26KT 2 1/2SM -SN BKN022 BKN030 OVC040 M02/M06 A2995 RMK AO2 PK WND 30026/2117 TWR VIS 3 P0000=
201012262052 METAR KATL 262052Z 31017G24KT 7SM -SN SCT029 BKN037 M02/M06 A2994 RMK AO2 PK WND 31028/2038 SLP150 P0000 60000 T10171061 53006=
201012262010 SPECI KATL 262010Z 31018G27KT 7SM -SN BKN027 BKN041 M02/M06 A2993 RMK AO2 PK WND 31027/2004 P0000=
201012262010 SPECI KATL 262010Z 31018G27KT 7SM -SN BKN027 BKN041 M02/M06 A2993 RMK AO2 PK WND 31027/2004 P0000=
201012261952 METAR KATL 261952Z 32016G23KT 8SM -SN BKN034 BKN042 M01/M07 A2992 RMK AO2 PK WND 33033/1921 SLP143 SN VRY LGT P0000 T10111067=
201012261852 METAR KATL 261852Z 31013G30KT 9SM -SN SCT029 BKN033 M02/M07 A2991 RMK AO2 PK WND 33030/1845 SNB43 SLP140 SN VRY LGT P0000 T10171072=
201012261844 SPECI KATL 261844Z 32024G30KT 10SM -SN BKN029 BKN035 M02/M07 A2991 RMK AO2 PK WND 32030/1844 SNB43 SN VRY LGT P0000=
201012261844 SPECI KATL 261844Z 32024G30KT 10SM -SN BKN029 BKN035 M02/M07 A2991 RMK AO2 PK WND 32030/1844 SNB43 SN VRY LGT P0000=
201012261752 METAR KATL 261752Z 32020G29KT 10SM BKN031 M02/M07 A2992 RMK AO2 PK WND 31030/1741 SLP142 60000 T10171067 11011 21033 58004=
201012261737 SPECI KATL 261737Z 32022G27KT 10SM BKN031 M02/M07 A2993 RMK AO2 PK WND 32029/1720=
201012261737 SPECI KATL 261737Z 32022G27KT 10SM BKN031 M02/M07 A2993 RMK AO2 PK WND 32029/1720=
201012261652 METAR KATL 261652Z 32024G31KT 10SM BKN025 BKN031 M02/M07 A2994 RMK AO2 PK WND 32031/1651 SLP149 T10171067=
201012261552 METAR KATL 261552Z 32016G29KT 10SM BKN025 BKN029 M02/M07 A2994 RMK AO2 PK WND 31030/1512 SLP150 T10221067=
201012261452 METAR KATL 261452Z 32023G30KT 9SM BKN021 M03/M07 A2993 RMK AO2 PK WND 31030/1444 SLP146 60000 T10281072 53023=
201012261352 METAR KATL 261352Z 33018G26KT 8SM OVC021 M03/M07 A2991 RMK AO2 PK WND 31030/1256 SNE31 SLP138 P0000 T10331067=
201012261345 SPECI KATL 261345Z 32021G27KT 8SM OVC019 M03/M07 A2991 RMK AO2 PK WND 31030/1256 SNE31 P0000=
201012261345 SPECI KATL 261345Z 32021G27KT 8SM OVC019 M03/M07 A2991 RMK AO2 PK WND 31030/1256 SNE31 P0000=
201012261252 METAR KATL 261252Z 32018G28KT 9SM -SN OVC019 M03/M06 A2988 RMK AO2 PK WND 33029/1220 SNB43 SLP129 SN VRY LGT P0000 T10281061=
201012261244 SPECI KATL 261244Z 31020G26KT 10SM -SN OVC019 M03/M06 A2988 RMK AO2 PK WND 33029/1220 SNB43 SN VRY LGT P0000=
201012261244 SPECI KATL 261244Z 31020G26KT 10SM -SN OVC019 M03/M06 A2988 RMK AO2 PK WND 33029/1220 SNB43 SN VRY LGT P0000=
201012261152 METAR KATL 261152Z 32019G23KT 10SM BKN019 OVC025 M02/M06 A2986 RMK AO2 PK WND 34029/1120 SLP122 70033 T10221056 11006 21022 53014=
201012261132 SPECI KATL 261132Z 32018G26KT 10SM SCT015 OVC025 M02/M06 A2986 RMK AO2 PK WND 34029/1120=
201012261132 SPECI KATL 261132Z 32018G26KT 10SM SCT015 OVC025 M02/M06 A2986 RMK AO2 PK WND 34029/1120=
201012261052 METAR KATL 261052Z 32017G29KT 10SM OVC016 M02/M05 A2984 RMK AO2 PK WND 32029/1046 SLP115 T10221050=
201012260952 METAR KATL 260952Z 32017G29KT 10SM OVC016 M02/M04 A2983 RMK AO2 PK WND 33030/0925 SLP110 T10171044=
201012260859 SPECI KATL 260859Z 32014G25KT 10SM OVC017 M02/M04 A2982 RMK AO2=
201012260859 SPECI KATL 260859Z 32014G25KT 10SM OVC017 M02/M04 A2982 RMK AO2=
201012260852 METAR KATL 260852Z 33019G25KT 10SM FEW009 OVC014 M02/M04 A2982 RMK AO2 PK WND 34029/0755 SLP107 T10171044 55002=
201012260752 METAR KATL 260752Z 33020G29KT 10SM FEW009 OVC014 M02/M04 A2982 RMK AO2 PK WND 31033/0700 SLP106 T10171039=
201012260652 METAR KATL 260652Z 31019G26KT 9SM FEW009 OVC012 M01/M03 A2981 RMK AO2 PK WND 33030/0639 SLP104 T10111033=
201012260552 METAR KATL 260552Z 33018G24KT 8SM SCT009 OVC012 M01/M03 A2983 RMK AO2 PK WND 34027/0455 SLP108 60005 T10061028 10006 21006 56011=
201012260452 METAR KATL 260452Z 32017G20KT 8SM FEW009 OVC012 00/M02 A2984 RMK AO2 PK WND 33027/0424 SLP110 T00001022 400440000=
201012260403 SPECI KATL 260403Z 33017G23KT 8SM SCT008 BKN012 OVC019 01/M02 A2984 RMK AO2=
201012260403 SPECI KATL 260403Z 33017G23KT 8SM SCT008 BKN012 OVC019 01/M02 A2984 RMK AO2=
201012260352 METAR KATL 260352Z 33013G23KT 7SM BKN008 BKN015 OVC020 01/M02 A2984 RMK AO2 SNB31E49 SLP113 P0000 T00061017=
201012260252 METAR KATL 260252Z 33013KT 7SM OVC008 01/M01 A2986 RMK AO2 SNE04 CIG 006V011 SLP120 P0000 60005 T00061006 58011=
201012260204 SPECI KATL 260204Z 33012G20KT 7SM OVC008 01/M01 A2987 RMK AO2 SNE04 CIG 005V012 P0000=
201012260204 SPECI KATL 260204Z 33012G20KT 7SM OVC008 01/M01 A2987 RMK AO2 SNE04 CIG 005V012 P0000=
201012260152 METAR KATL 260152Z 32011KT 3SM -SN BR FEW004 OVC008 01/M01 A2988 RMK AO2 SLP125 CIG 006V011 P0002 T00061006=
201012260148 SPECI KATL 260148Z 32012KT 3SM -SN BR FEW004 OVC008 01/M01 A2989 RMK AO2 CIG 006V011 P0002=
201012260148 SPECI KATL 260148Z 32012KT 3SM -SN BR FEW004 OVC008 01/M01 A2989 RMK AO2 CIG 006V011 P0002=
201012260117 SPECI KATL 260117Z 33010KT 1 1/2SM -SN BR VV006 01/M01 A2988 RMK AO2 P0001=
201012260117 SPECI KATL 260117Z 33010KT 1 1/2SM -SN BR VV006 01/M01 A2988 RMK AO2 P0001=
201012260052 METAR KATL 260052Z 31010KT 1/2SM R09R/P6000FT -SN BR OVC006 01/M01 A2989 RMK AO2 SFC VIS 1 SLP129 CIG 004V011 P0003 T00061006=
201012260024 SPECI KATL 260024Z 31007KT 2SM -SN BR FEW002 BKN006 OVC055 01/00 A2989 RMK AO2 SFC VIS 3 P0002=
201012260024 SPECI KATL 260024Z 31007KT 2SM -SN BR FEW002 BKN006 OVC055 01/00 A2989 RMK AO2 SFC VIS 3 P0002=
201012252352 METAR KATL 252352Z 31006KT 1/2SM R09R/5500VP6000FT SN FG VV005 01/M01 A2989 RMK AO2 SLP132 P0005 60028 T00061006 10033 20006 50011=
201012252347 SPECI KATL 252347Z 32005KT 1/2SM R09R/5500VP6000FT SN FG VV005 01/M01 A2989 RMK AO2 P0005=
201012252347 SPECI KATL 252347Z 32005KT 1/2SM R09R/5500VP6000FT SN FG VV005 01/M01 A2989 RMK AO2 P0005=
201012252321 SPECI KATL 252321Z 30005KT 1 1/2SM -SN BR FEW002 BKN004 OVC007 01/00 A2990 RMK AO2 P0002=
201012252321 SPECI KATL 252321Z 30005KT 1 1/2SM -SN BR FEW002 BKN004 OVC007 01/00 A2990 RMK AO2 P0002=
201012252252 METAR KATL 252252Z 31006KT 1/2SM R09R/P6000FT -SN BR VV004 01/00 A2990 RMK AO2 SFC VIS 3/4 RAE2153SNB2153 SLP133 P0005 T00060000=
201012252227 SPECI KATL 252227Z 30004KT 1/2SM R09R/P6000FT -SN BR OVC004 01/00 A2989 RMK AO2 SFC VIS 3/4 RAE2153SNB2153 P0004=
201012252227 SPECI KATL 252227Z 30004KT 1/2SM R09R/P6000FT -SN BR OVC004 01/00 A2989 RMK AO2 SFC VIS 3/4 RAE2153SNB2153 P0004=
201012252204 SPECI KATL 252204Z 30005KT 1 1/2SM -SN BR OVC004 01/00 A2989 RMK AO2 RAE2153SNB2153 P0002=
201012252204 SPECI KATL 252204Z 30005KT 1 1/2SM -SN BR OVC004 01/00 A2989 RMK AO2 RAE2153SNB2153 P0002=
201012252152 METAR KATL 252152Z 29005KT 2 1/2SM RA BR OVC006 02/01 A2989 RMK AO2 SLP131 P0007 T00170006=
201012252143 SPECI KATL 252143Z 27003KT 2 1/2SM RA BR OVC006 02/01 A2989 RMK AO2 P0006=
201012252143 SPECI KATL 252143Z 27003KT 2 1/2SM RA BR OVC006 02/01 A2989 RMK AO2 P0006=
201012252114 SPECI KATL 252114Z 00000KT 3SM -RA BR BKN006 BKN011 OVC026 03/02 A2987 RMK AO2 SFC VIS 3 P0002=
201012252114 SPECI KATL 252114Z 00000KT 3SM -RA BR BKN006 BKN011 OVC026 03/02 A2987 RMK AO2 SFC VIS 3 P0002=
201012252052 METAR KATL 252052Z 00000KT 3SM -RA BR SCT008 BKN019 OVC037 03/01 A2986 RMK AO2 SFC VIS 4 SLP119 P0005 60011 T00280011 56030=
201012252025 SPECI KATL 252025Z 10003KT 5SM -RA BR BKN008 BKN013 OVC037 03/01 A2987 RMK AO2 P0003=
201012252025 SPECI KATL 252025Z 10003KT 5SM -RA BR BKN008 BKN013 OVC037 03/01 A2987 RMK AO2 P0003=
201012251952 METAR KATL 251952Z 06005KT 5SM -RA BR FEW008 BKN018 OVC035 03/01 A2987 RMK AO2 SLP122 P0004 T00280011=
201012251912 SPECI KATL 251912Z 04006KT 6SM -RA BR FEW004 SCT010 OVC035 03/01 A2988 RMK AO2 P0001=
201012251912 SPECI KATL 251912Z 04006KT 6SM -RA BR FEW004 SCT010 OVC035 03/01 A2988 RMK AO2 P0001=
201012251852 METAR KATL 251852Z 03006KT 7SM -RA BKN010 OVC037 03/01 A2989 RMK AO2 RAB04SNE26 SLP129 P0002 T00280006=
201012251806 SPECI KATL 251806Z 34005KT 7SM -RASN BKN012 OVC200 03/M01 A2994 RMK AO2 RAB04 P0001=
201012251806 SPECI KATL 251806Z 34005KT 7SM -RASN BKN012 OVC200 03/M01 A2994 RMK AO2 RAB04 P0001=
201012251752 METAR KATL 251752Z 34005KT 7SM -SN SCT014 BKN017 BKN033 OVC200 03/M01 A2995 RMK AO2 RAB37E44SNB44 SLP150 P0000 60000 T00331011 10044 20000 58012=
201012251652 METAR KATL 251652Z 36008KT 10SM BKN065 BKN150 OVC200 04/M03 A2998 RMK AO2 SLP160 T00391028=
201012251552 METAR KATL 251552Z 30004KT 10SM SCT065 BKN150 OVC200 04/M03 A3000 RMK AO2 SLP164 T00391033=
201012251452 METAR KATL 251452Z 31008KT 10SM BKN060 BKN140 OVC200 03/M03 A2999 RMK AO2 SLP163 T00281028 53000=
201012251352 METAR KATL 251352Z 30003KT 10SM SCT060 BKN140 OVC200 03/M02 A2999 RMK AO2 SLP163 T00281022=
201012251252 METAR KATL 251252Z 28003KT 10SM FEW110 SCT200 BKN250 01/M04 A2998 RMK AO2 SLP159 T00111039=
201012251152 METAR KATL 251152Z 21003KT 10SM FEW130 BKN200 00/M04 A2999 RMK AO2 SLP161 T00001039 10022 20000 56011=
201012251052 METAR KATL 251052Z 31004KT 10SM FEW130 BKN250 01/M04 A2999 RMK AO2 SLP161 T00061044=
201012250952 METAR KATL 250952Z 28003KT 10SM SCT130 BKN250 02/M04 A3000 RMK AO2 SLP164 T00171039=
201012250852 METAR KATL 250852Z 27003KT 10SM SCT120 BKN250 02/M04 A3002 RMK AO2 SLP171 T00221044 56011=
201012250752 METAR KATL 250752Z 22003KT 10SM FEW120 BKN250 01/M03 A3003 RMK AO2 SLP175 T00111033=
201012250652 METAR KATL 250652Z 00000KT 10SM FEW120 BKN250 02/M04 A3004 RMK AO2 SLP176 T00171039=
201012250552 METAR KATL 250552Z 31003KT 10SM FEW120 SCT250 02/M04 A3006 RMK AO2 SLP184 T00221039 10067 20011 57006=
201012250452 METAR KATL 250452Z 00000KT 10SM FEW120 SCT200 02/M04 A3006 RMK AO2 SLP185 T00221039 401061028=
201012250352 METAR KATL 250352Z 00000KT 10SM FEW200 03/M04 A3007 RMK AO2 SLP189 T00281044=
201012250252 METAR KATL 250252Z 00000KT 10SM FEW200 03/M04 A3008 RMK AO2 SLP192 T00281044 58008=
201012250152 METAR KATL 250152Z 00000KT 10SM FEW250 05/M04 A3009 RMK AO2 SLP195 T00501044=
201012250052 METAR KATL 250052Z 00000KT 10SM FEW250 05/M04 A3009 RMK AO2 SLP199 T00501044=
201012242352 METAR KATL 242352Z 00000KT 10SM FEW250 07/M04 A3010 RMK AO2 SLP200 T00671044 10106 20061 56002=
201012242252 METAR KATL 242252Z 29003KT 10SM FEW200 08/M06 A3010 RMK AO2 SLP199 T00831061=
201012242152 METAR KATL 242152Z 25003KT 10SM FEW200 10/M06 A3010 RMK AO2 SLP198 T01001061=
201012242052 METAR KATL 242052Z VRB06KT 10SM FEW200 11/M06 A3010 RMK AO2 SLP200 T01061061 56019=
201012241952 METAR KATL 241952Z 26006KT 10SM FEW150 11/M06 A3012 RMK AO2 SLP204 T01061061=
201012241852 METAR KATL 241852Z 00000KT 10SM FEW150 SCT200 SCT250 09/M06 A3013 RMK AO2 SLP211 T00891056=
201012241752 METAR KATL 241752Z 00000KT 10SM FEW150 SCT200 SCT250 07/M06 A3016 RMK AO2 SLP221 T00721056 10078 21028 58027=
201012241652 METAR KATL 241652Z 26004KT 10SM FEW200 06/M06 A3021 RMK AO2 SLP236 T00611061=
201012241552 METAR KATL 241552Z 23005KT 10SM FEW150 SCT200 04/M06 A3024 RMK AO2 SLP248 T00391061=
201012241452 METAR KATL 241452Z 00000KT 10SM FEW150 SCT200 SCT250 02/M05 A3025 RMK AO2 SLP251 T00171050 53009=
201012241352 METAR KATL 241352Z 31003KT 10SM FEW150 SCT250 M01/M06 A3023 RMK AO2 SLP245 T10061056=
201012241252 METAR KATL 241252Z 32005KT 10SM FEW150 SCT250 M03/M06 A3022 RMK AO2 SLP244 T10281061=
201012241152 METAR KATL 241152Z 00000KT 10SM SCT150 SCT250 M03/M06 A3022 RMK AO2 SLP243 T10281061 11006 21028 53007=
201012241052 METAR KATL 241052Z 32007KT 10SM SCT150 SCT250 M02/M06 A3021 RMK AO2 SLP241 T10221061=
201012240952 METAR KATL 240952Z 33003KT 10SM BKN150 BKN250 M02/M06 A3019 RMK AO2 SLP233 T10221061=
201012240852 METAR KATL 240852Z 34005KT 10SM BKN150 BKN250 M01/M06 A3020 RMK AO2 SLP233 T10111061 53000=
201012240752 METAR KATL 240752Z 33005KT 10SM BKN150 BKN250 M01/M06 A3020 RMK AO2 SLP232 T10111061=
201012240652 METAR KATL 240652Z 33006KT 10SM SCT150 BKN250 M01/M06 A3019 RMK AO2 SLP230 T10111061=
201012240552 METAR KATL 240552Z 33007KT 10SM SCT150 BKN250 M01/M06 A3019 RMK AO2 SLP233 T10061061 10033 21006 58004=
201012240452 METAR KATL 240452Z 34008KT 10SM SCT150 BKN250 01/M06 A3021 RMK AO2 SLP236 T00061061 400781022=
201012240352 METAR KATL 240352Z 34008KT 10SM FEW150 BKN250 01/M07 A3021 RMK AO2 SLP238 T00111067=
201012240252 METAR KATL 240252Z 34009KT 10SM BKN250 02/M07 A3021 RMK AO2 SLP238 T00171067 57004=
201012240152 METAR KATL 240152Z 34011G18KT 10SM BKN250 02/M07 A3021 RMK AO2 SLP240 T00221067=
201012240052 METAR KATL 240052Z 34013G22KT 10SM BKN250 03/M07 A3021 RMK AO2 SLP241 T00281067=
201012232352 METAR KATL 232352Z 33010KT 10SM SCT250 03/M07 A3022 RMK AO2 SLP242 T00331067 10078 20033 53001=
201012232252 METAR KATL 232252Z 33010KT 10SM FEW250 04/M07 A3021 RMK AO2 SLP239 T00391067=
201012232152 METAR KATL 232152Z 33012KT 10SM FEW250 06/M07 A3021 RMK AO2 SLP238 T00561067=
201012232052 METAR KATL 232052Z 34017G20KT 10SM FEW250 07/M07 A3022 RMK AO2 SLP240 T00671067 55009=
201012231952 METAR KATL 231952Z 32014G19KT 10SM FEW250 07/M07 A3020 RMK AO2 SLP235 T00721067=
201012231852 METAR KATL 231852Z 33012G19KT 10SM FEW250 07/M06 A3021 RMK AO2 SLP238 T00721061=
201012231752 METAR KATL 231752Z 31010KT 10SM FEW250 06/M06 A3024 RMK AO2 SLP248 T00611056 10061 21022 58015=
201012231652 METAR KATL 231652Z 34009KT 10SM CLR 05/M06 A3026 RMK AO2 SLP255 T00501056=
201012231552 METAR KATL 231552Z 35011KT 10SM FEW250 04/M05 A3029 RMK AO2 SLP263 T00391050=
201012231452 METAR KATL 231452Z 33010KT 10SM FEW250 01/M05 A3029 RMK AO2 SLP264 T00111050 51023=
201012231352 METAR KATL 231352Z 33013KT 10SM FEW250 M01/M05 A3027 RMK AO2 SLP257 T10061050=
201012231252 METAR KATL 231252Z 33011KT 10SM FEW250 M02/M06 A3024 RMK AO2 SLP246 T10171056=
201012231152 METAR KATL 231152Z 33010KT 10SM CLR M02/M06 A3022 RMK AO2 SLP238 T10171056 10006 21017 53013=
201012231052 METAR KATL 231052Z 33012KT 10SM CLR M02/M06 A3019 RMK AO2 SLP230 T10171061=
201012230952 METAR KATL 230952Z 34012KT 10SM CLR M01/M06 A3019 RMK AO2 SLP230 T10111061=
201012230852 METAR KATL 230852Z 34013G19KT 10SM CLR M01/M06 A3018 RMK AO2 SLP223 T10111056 53008=
201012230752 METAR KATL 230752Z 33012KT 10SM CLR M01/M06 A3016 RMK AO2 SLP218 T10061056=
201012230652 METAR KATL 230652Z 33009KT 10SM CLR M01/M06 A3016 RMK AO2 SLP217 T10061056=
201012230552 METAR KATL 230552Z 34012KT 10SM FEW028 01/M05 A3015 RMK AO2 PK WND 33027/0455 SLP214 T00061050 10100 20006 51013=
201012230452 METAR KATL 230452Z 33017G21KT 10SM FEW028 02/M04 A3014 RMK AO2 PK WND 31028/0418 SLP207 T00221039 401830022=
201012230352 METAR KATL 230352Z 34010G21KT 10SM FEW028 03/M02 A3013 RMK AO2 SLP204 T00331022=
201012230252 METAR KATL 230252Z 33018G29KT 10SM CLR 04/M02 A3011 RMK AO2 PK WND 34029/0244 SLP197 T00441017 51018=
201012230152 METAR KATL 230152Z 33016G20KT 10SM CLR 06/M01 A3010 RMK AO2 PK WND 32029/0104 SLP193 T00611006=
201012230052 METAR KATL 230052Z 32023G31KT 10SM CLR 08/01 A3008 RMK AO2 PK WND 33031/0049 SLP188 T00830011=
201012222352 METAR KATL 222352Z 32014G20KT 10SM CLR 10/02 A3006 RMK AO2 SLP178 T01000017 10156 20100 53018=
201012222252 METAR KATL 222252Z 31017G22KT 10SM CLR 12/03 A3004 RMK AO2 PK WND 33026/2207 SLP170 T01170033=
201012222152 METAR KATL 222152Z 32012G20KT 10SM FEW040 14/05 A3002 RMK AO2 SLP162 T01390050=
201012222052 METAR KATL 222052Z 31017G20KT 10SM FEW040 15/04 A3000 RMK AO2 SLP157 T01500044=
201012221952 METAR KATL 221952Z 34014G21KT 10SM FEW035 15/06 A3000 RMK AO2 SLP155 T01500061=
201012221852 METAR KATL 221852Z 31018G24KT 10SM FEW028 15/08 A2999 RMK AO2 PK WND 33027/1817 SLP152 T01500078=
201012221752 METAR KATL 221752Z 32018G23KT 10SM FEW020 BKN030 BKN060 14/09 A2999 RMK AO2 SLP154 60000 T01440094 10183 20144 53004=
201012221712 SPECI KATL 221712Z 33014G23KT 10SM FEW025 BKN035 BKN060 16/11 A2998 RMK AO2 $=
201012221712 SPECI KATL 221712Z 33014G23KT 10SM FEW025 BKN035 BKN060 16/11 A2998 RMK AO2 $=
201012221652 METAR KATL 221652Z 34015G22KT 10SM BKN025 BKN035 BKN050 17/11 A2998 RMK AO2 SLP149 T01670111 $=
201012221552 METAR KATL 221552Z 31012KT 9SM FEW015 BKN020 BKN050 16/13 A2998 RMK AO2 SLP151 T01610133 $=
201012221454 SPECI KATL 221454Z 27007KT 6SM BR FEW008 BKN028 BKN065 16/14 A2998 RMK AO2 $=
201012221454 SPECI KATL 221454Z 27007KT 6SM BR FEW008 BKN028 BKN065 16/14 A2998 RMK AO2 $=
201012221452 METAR KATL 221452Z 27008KT 5SM BR FEW006 BKN030 BKN060 16/14 A2998 RMK AO2 RAB1358E20 SLP149 P0000 60000 T01610139 51006 $=
201012221449 SPECI KATL 221449Z 27007KT 5SM BR FEW006 BKN030 BKN060 16/14 A2998 RMK AO2 RAB1358E20 P0000 $=
201012221449 SPECI KATL 221449Z 27007KT 5SM BR FEW006 BKN030 BKN060 16/14 A2998 RMK AO2 RAB1358E20 P0000 $=
201012221422 SPECI KATL 221422Z 30006KT 4SM BR FEW006 BKN020 BKN060 15/14 A2998 RMK AO2 RAB1358E20 P0000 $=
201012221422 SPECI KATL 221422Z 30006KT 4SM BR FEW006 BKN020 BKN060 15/14 A2998 RMK AO2 RAB1358E20 P0000 $=
201012221352 METAR KATL 221352Z 24006KT 5SM BR SCT017 BKN026 OVC065 15/14 A2997 RMK AO2 SLP147 SHRA NW T01500139 $=
201012221252 METAR KATL 221252Z 26008KT 5SM BR SCT008 BKN015 BKN055 15/13 A2996 RMK AO2 SLP143 T01500133=
201012221152 METAR KATL 221152Z 26007KT 6SM BR BKN006 OVC010 15/13 A2995 RMK AO2 SLP140 60000 T01500133 10150 20144 55002=
201012221052 METAR KATL 221052Z 25009KT 6SM BR OVC006 14/13 A2995 RMK AO2 SLP139 T01440133=
201012220952 METAR KATL 220952Z 24010KT 7SM OVC008 14/13 A2995 RMK AO2 SLP139 T01440128=
201012220926 SPECI KATL 220926Z 24009KT 10SM OVC008 14/13 A2995 RMK AO2=
201012220926 SPECI KATL 220926Z 24009KT 10SM OVC008 14/13 A2995 RMK AO2=
201012220852 METAR KATL 220852Z 23009KT 10SM OVC010 14/13 A2996 RMK AO2 SLP143 60000 T01440128 58010=
201012220752 METAR KATL 220752Z 23006KT 10SM OVC010 14/13 A2997 RMK AO2 DZE39 SLP148 P0000 T01440128=
201012220652 METAR KATL 220652Z 24008KT 10SM -DZ BKN012 OVC050 14/12 A2998 RMK AO2 DZB45 SLP150 P0000 T01440122=
201012220552 METAR KATL 220552Z 23009KT 10SM BKN014 OVC070 14/12 A2999 RMK AO2 RAE32 SLP153 P0000 60000 T01440117 10144 20122 58010=
201012220508 SPECI KATL 220508Z 24008KT 10SM BKN016 BKN040 OVC055 14/12 A3000 RMK AO2 RAE07 P0000=
201012220508 SPECI KATL 220508Z 24008KT 10SM BKN016 BKN040 OVC055 14/12 A3000 RMK AO2 RAE07 P0000=
201012220452 METAR KATL 220452Z 24006KT 10SM -RA FEW035 SCT050 OVC065 14/12 A3001 RMK AO2 RAB51 SLP161 P0000 T01440117 401440044=
201012220352 METAR KATL 220352Z 23010KT 10SM FEW025 OVC065 14/11 A3001 RMK AO2 SLP163 T01440111=
201012220252 METAR KATL 220252Z 21007KT 10SM SCT025 OVC065 13/10 A3002 RMK AO2 SLP165 T01280100 58001=
201012220152 METAR KATL 220152Z 00000KT 10SM OVC025 13/09 A3002 RMK AO2 SLP168 T01280094=
201012220052 METAR KATL 220052Z 00000KT 10SM OVC022 13/10 A3002 RMK AO2 SLP167 T01330100=
201012212352 METAR KATL 212352Z 00000KT 10SM BKN022 OVC070 13/10 A3002 RMK AO2 SLP167 60000 T01330100 10139 20117 51007=
201012212252 METAR KATL 212252Z 20006KT 10SM OVC022 13/09 A3002 RMK AO2 SLP166 T01330089=
201012212154 SPECI KATL 212154Z 23005KT 10SM BKN024 BKN034 OVC080 14/09 A3001 RMK AO2=
201012212154 SPECI KATL 212154Z 23005KT 10SM BKN024 BKN034 OVC080 14/09 A3001 RMK AO2=
201012212152 METAR KATL 212152Z 22004KT 10SM FEW024 BKN040 OVC080 14/09 A3001 RMK AO2 RAE2054B37E46 SLP164 P0000 T01390089=
201012212052 METAR KATL 212052Z 22007KT 9SM -RA FEW020 BKN040 OVC080 13/08 A3000 RMK AO2 RAB43 SLP160 P0000 60000 T01330083 56011=
201012212025 SPECI KATL 212025Z 24008KT 10SM FEW022 BKN045 OVC075 13/08 A3000 RMK AO2=
201012212025 SPECI KATL 212025Z 24008KT 10SM FEW022 BKN045 OVC075 13/08 A3000 RMK AO2=
201012211952 METAR KATL 211952Z 25008KT 10SM BKN022 BKN060 OVC100 13/08 A3000 RMK AO2 SLP161 T01330078=
201012211852 METAR KATL 211852Z 24006KT 10SM BKN020 BKN060 OVC100 13/07 A3002 RMK AO2 SLP167 T01280072=
201012211752 METAR KATL 211752Z 22008KT 10SM BKN018 BKN060 OVC100 12/06 A3003 RMK AO2 SLP172 60000 T01170056 10117 20061 58021=
201012211652 METAR KATL 211652Z 22003KT 10SM BKN018 BKN050 OVC100 08/03 A3006 RMK AO2 RAB45E50 SLP185 P0000 T00830033=
201012211552 METAR KATL 211552Z 22006KT 10SM BKN020 BKN050 OVC100 08/02 A3009 RMK AO2 RAB04E22 SLP194 P0000 T00780022=
201012211452 METAR KATL 211452Z 28008KT 8SM BKN024 BKN050 OVC100 08/M01 A3010 RMK AO2 SLP194 60000 T00831006 53007=
201012211352 METAR KATL 211352Z 20007KT 9SM SCT020 BKN026 OVC034 07/M02 A3008 RMK AO2 RAB07E20 SLP188 P0000 T00671017=
201012211336 SPECI KATL 211336Z 22009KT 9SM SCT020 BKN026 OVC034 07/M02 A3008 RMK AO2 RAB07E20 P0000=
201012211336 SPECI KATL 211336Z 22009KT 9SM SCT020 BKN026 OVC034 07/M02 A3008 RMK AO2 RAB07E20 P0000=
201012211252 METAR KATL 211252Z 22006KT 10SM SCT020 OVC034 07/M03 A3008 RMK AO2 DZE24 SLP190 P0000 T00671028=
201012211152 METAR KATL 211152Z 21006KT 10SM -DZ SCT027 OVC042 07/M03 A3008 RMK AO2 DZB51 SLP188 P0000 60000 T00671033 10067 20044 56009=
201012211052 METAR KATL 211052Z 21006KT 10SM BKN046 OVC055 07/M03 A3008 RMK AO2 SLP188 T00671033=
201012210952 METAR KATL 210952Z 22009KT 10SM BKN055 OVC075 06/M03 A3008 RMK AO2 SLP188 T00611033=
201012210852 METAR KATL 210852Z 22006KT 10SM BKN060 06/M03 A3010 RMK AO2 SLP197 T00611028 56001=
201012210752 METAR KATL 210752Z 23003KT 10SM BKN055 06/M03 A3011 RMK AO2 SLP200 T00561033=
201012210652 METAR KATL 210652Z 18006KT 10SM SCT150 BKN250 05/M03 A3009 RMK AO2 SLP195 T00501028=
201012210552 METAR KATL 210552Z 24005KT 10SM FEW150 BKN250 05/M03 A3011 RMK AO2 SLP199 T00501028 10094 20050 58003=
201012210452 METAR KATL 210452Z 22004KT 10SM FEW120 BKN250 05/M02 A3011 RMK AO2 SLP200 T00501022 401111022=
201012210352 METAR KATL 210352Z 23003KT 10SM BKN120 BKN250 07/M02 A3012 RMK AO2 SLP205 T00721022=
201012210252 METAR KATL 210252Z 23003KT 10SM OVC120 08/M02 A3012 RMK AO2 SLP204 T00781022 53003=
201012210152 METAR KATL 210152Z 23003KT 10SM OVC120 08/M02 A3011 RMK AO2 SLP203 T00831022=
201012210052 METAR KATL 210052Z 00000KT 10SM FEW085 OVC110 08/M02 A3011 RMK AO2 SLP204 T00831022=
201012202352 METAR KATL 202352Z 00000KT 10SM BKN085 OVC120 09/M03 A3011 RMK AO2 SLP203 T00891033 10111 20089 50001=
201012202252 METAR KATL 202252Z 34004KT 10SM OVC085 09/M03 A3012 RMK AO2 SLP206 T00941033=
201012202152 METAR KATL 202152Z 00000KT 10SM BKN085 BKN200 BKN300 10/M04 A3011 RMK AO2 SLP202 T01001044=
201012202052 METAR KATL 202052Z 25004KT 10SM FEW150 SCT200 SCT300 11/M04 A3011 RMK AO2 SLP201 T01111039 55006=
201012201952 METAR KATL 201952Z 28006KT 10SM FEW150 SCT200 BKN300 11/M03 A3011 RMK AO2 SLP200 T01061033=
201012201852 METAR KATL 201852Z 31003KT 10SM SCT250 10/M03 A3012 RMK AO2 SLP204 T01001033=
201012201752 METAR KATL 201752Z 29006KT 10SM FEW250 09/M03 A3013 RMK AO2 SLP207 T00891033 10094 21022 58014=
201012201652 METAR KATL 201652Z 31004KT 10SM FEW150 SCT250 07/M04 A3016 RMK AO2 SLP220 T00721039=
201012201552 METAR KATL 201552Z 31003KT 10SM FEW150 SCT250 06/M05 A3018 RMK AO2 SLP227 T00561050=
201012201452 METAR KATL 201452Z 33005KT 10SM FEW250 03/M06 A3017 RMK AO2 SLP223 T00281056 53014=
201012201352 METAR KATL 201352Z 31005KT 10SM FEW200 SCT250 M01/M06 A3015 RMK AO2 SLP219 T10061061=
201012201252 METAR KATL 201252Z 32003KT 10SM FEW200 BKN250 M02/M07 A3013 RMK AO2 SLP212 T10221067=
201012201152 METAR KATL 201152Z 31005KT 10SM BKN250 M02/M07 A3013 RMK AO2 SLP210 T10171067 11006 21017 52009=
201012201052 METAR KATL 201052Z 32008KT 10SM SCT250 M02/M07 A3013 RMK AO2 SLP210 T10171067 $=
201012200952 METAR KATL 200952Z 32008KT 10SM FEW250 M01/M07 A3010 RMK AO2 SLP198 T10111067 $=
201012200852 METAR KATL 200852Z 33007KT 10SM CLR M01/M07 A3010 RMK AO2 SLP198 T10111067 51008 $=
201012200752 METAR KATL 200752Z 32008KT 10SM CLR M01/M07 A3009 RMK AO2 SLP195 T10111072 $=
201012200652 METAR KATL 200652Z 32008KT 10SM CLR M01/M07 A3009 RMK AO2 SLP195 T10111072 $=
201012200552 METAR KATL 200552Z 33006KT 10SM CLR M01/M07 A3007 RMK AO2 SLP190 T10061072 10033 21006 53006 $=
201012200452 METAR KATL 200452Z 32007KT 10SM CLR M01/M07 A3007 RMK AO2 SLP189 T10061072 400831022 $=
201012200352 METAR KATL 200352Z 32007KT 10SM CLR 01/M08 A3005 RMK AO2 SLP184 T00061078 $=
201012200252 METAR KATL 200252Z 34007KT 10SM FEW220 01/M07 A3005 RMK AO2 SLP186 T00111072 53006 $=
201012200152 METAR KATL 200152Z 32007KT 10SM BKN250 02/M07 A3004 RMK AO2 SLP183 T00171072 $=
201012200052 METAR KATL 200052Z 32009KT 10SM FEW250 03/M08 A3004 RMK AO2 SLP182 T00281078 $=
201012192352 METAR KATL 192352Z 32008KT 10SM FEW150 SCT250 03/M08 A3003 RMK AO2 SLP179 T00331078 10083 20033 51010 $=
201012192252 METAR KATL 192252Z 32009KT 10SM FEW150 SCT250 05/M08 A3002 RMK AO2 SLP175 T00501078 $=
201012192152 METAR KATL 192152Z 32011KT 10SM SCT250 07/M07 A3002 RMK AO2 SLP173 T00721072 $=
201012192052 METAR KATL 192052Z 35011G17KT 10SM BKN250 08/M08 A3000 RMK AO2 SLP166 T00831083 55004 $=
201012191952 METAR KATL 191952Z 33009G17KT 10SM FEW150 BKN250 08/M08 A3000 RMK AO2 SLP163 T00781083 $=
201012191852 METAR KATL 191852Z 33013KT 10SM FEW150 SCT250 08/M08 A3000 RMK AO2 SLP163 T00781078 $=
201012191752 METAR KATL 191752Z 36013G17KT 10SM FEW150 SCT250 07/M07 A3002 RMK AO2 SLP170 T00671067 10067 21022 58008 $=
201012191652 METAR KATL 191652Z 33009KT 10SM SCT150 SCT250 04/M04 A3004 RMK AO2 SLP180 T00441039 $=
201012191552 METAR KATL 191552Z 31007KT 8SM BKN150 BKN250 01/M03 A3005 RMK AO2 SLP183 T00111033 $=
201012191452 METAR KATL 191452Z 32009KT 7SM BKN150 M01/M03 A3004 RMK AO2 SLP181 T10061033 51018 $=
201012191352 METAR KATL 191352Z 31006KT 5SM BR FEW100 BKN150 M01/M03 A3003 RMK AO2 SLP178 T10111033 $=
201012191252 METAR KATL 191252Z 32010KT 6SM BR FEW020 BKN150 M02/M03 A3000 RMK AO2 SLP166 T10171033 $=
201012191152 METAR KATL 191152Z 32007KT 6SM BR FEW021 SCT150 M02/M03 A2999 RMK AO2 SLP161 70018 T10171033 10028 21017 53001 $=
201012191052 METAR KATL 191052Z 31005KT 6SM BR FEW021 SCT150 M01/M03 A2997 RMK AO2 SLP157 T10111028 $=
201012191016 SPECI KATL 191016Z 32003KT 7SM SCT021 M01/M02 A2996 RMK AO2 $=
201012191016 SPECI KATL 191016Z 32003KT 7SM SCT021 M01/M02 A2996 RMK AO2 $=
201012190952 METAR KATL 190952Z 31005KT 7SM FEW014 BKN021 M01/M02 A2997 RMK AO2 SLP156 T10061017 $=
201012190852 METAR KATL 190852Z 32007KT 7SM SCT014 BKN020 00/M01 A2998 RMK AO2 SLP161 T00001011 51004 $=
201012190752 METAR KATL 190752Z 32005KT 8SM SCT014 OVC020 02/M01 A2998 RMK AO2 SLP160 T00171006 $=
201012190728 SPECI KATL 190728Z 34006KT 8SM SCT014 OVC020 02/M01 A2999 RMK AO2 $=
201012190728 SPECI KATL 190728Z 34006KT 8SM SCT014 OVC020 02/M01 A2999 RMK AO2 $=
201012190652 METAR KATL 190652Z 33008KT 8SM BKN014 OVC020 02/00 A2998 RMK AO2 SLP158 T00220000 $=
201012190552 METAR KATL 190552Z 33004KT 6SM BR OVC014 03/01 A2997 RMK AO2 SLP155 T00280006 10056 20022 50002 $=
201012190452 METAR KATL 190452Z 32005KT 5SM BR BKN013 02/01 A2998 RMK AO2 SLP157 T00220011 400560011 $=
201012190449 SPECI KATL 190449Z 32004KT 5SM BR BKN013 02/01 A2998 RMK AO2 400560011 $=
201012190449 SPECI KATL 190449Z 32004KT 5SM BR BKN013 02/01 A2998 RMK AO2 400560011 $=
201012190352 METAR KATL 190352Z 05004KT 6SM BR FEW008 SCT018 03/02 A2996 RMK AO2 SLP153 T00330017 $=
201012190252 METAR KATL 190252Z 08006KT 4SM BR FEW008 04/02 A2997 RMK AO2 SLP153 T00390022 58001 $=
201012190230 SPECI KATL 190230Z 08007KT 4SM BR FEW008 SCT014 04/02 A2997 RMK AO2 $=
201012190230 SPECI KATL 190230Z 08007KT 4SM BR FEW008 SCT014 04/02 A2997 RMK AO2 $=
201012190152 METAR KATL 190152Z COR 02006KT 2SM BR BKN009 OVC016 06/03 A2998 RMK AO2 SFC VIS 3 SLP158 CIG 006V012 T00560033 $=
201012190052 METAR KATL 190052Z 34005KT 2SM BR OVC007 06/04 A2998 RMK AO2 SFC VIS 2 1/2 SLP157 CIG 006V010 T00560039 $=
201012190022 SPECI KATL 190022Z 03006KT 2SM BR OVC007 06/04 A2997 RMK AO2 SFC VIS 3 $=
201012190022 SPECI KATL 190022Z 03006KT 2SM BR OVC007 06/04 A2997 RMK AO2 SFC VIS 3 $=
201012182352 METAR KATL 182352Z 35005KT 1/2SM BR OVC005 06/04 A2997 RMK AO2 SFC VIS 1 1/2 SLP154 T00560039 10056 20033 53004 $=
201012182330 SPECI KATL 182330Z 05006KT 1/2SM BR OVC005 05/04 A2996 RMK AO2 SFC VIS 1 1/4 $=
201012182330 SPECI KATL 182330Z 05006KT 1/2SM BR OVC005 05/04 A2996 RMK AO2 SFC VIS 1 1/4 $=
201012182308 SPECI KATL 182308Z 03004KT 1 1/2SM BR OVC004 05/04 A2995 RMK AO2 SFC VIS 2 $=
201012182308 SPECI KATL 182308Z 03004KT 1 1/2SM BR OVC004 05/04 A2995 RMK AO2 SFC VIS 2 $=
201012182252 METAR KATL 182252Z 35006KT 1SM BR OVC004 05/03 A2996 RMK AO2 SFC VIS 2 SLP151 T00500033 $=
201012182152 METAR KATL 182152Z 35007KT 1SM BR OVC004 04/03 A2996 RMK AO2 SFC VIS 1 1/4 SLP150 T00440033 $=
201012182052 METAR KATL 182052Z 34009KT 1SM R09R/P6000FT BR OVC004 04/03 A2996 RMK AO2 SLP150 T00440033 55006 $=
201012182020 SPECI KATL 182020Z 34006KT 1SM R09R/P6000FT BR OVC004 04/03 A2994 RMK AO2 $=
201012182020 SPECI KATL 182020Z 34006KT 1SM R09R/P6000FT BR OVC004 04/03 A2994 RMK AO2 $=
201012181952 METAR KATL 181952Z 34006KT 1/4SM R09R/P6000FT BR OVC002 04/03 A2994 RMK AO2 SFC VIS 3/4 SLP147 TWRINC T00440033 $=
201012181852 METAR KATL 181852Z 35007KT 1/4SM R09R/P6000FT BR OVC002 04/03 A2995 RMK AO2 SFC VIS 3/4 SLP149 TWRINC T00390028 $=
201012181752 METAR KATL 181752Z 33007KT 1/2SM R09R/P6000FT BR OVC002 03/03 A2997 RMK AO2 SFC VIS 3/4 RAB04E15 SLP158 TWRINC P0000 60018 T00330028 10050 20022 58018=
201012181652 METAR KATL 181652Z 32007KT 1 1/2SM BR OVC004 04/03 A3000 RMK AO2 RAE1559 SLP167 P0000 T00390028=
201012181552 METAR KATL 181552Z 07005KT 1 1/2SM -RA BR OVC006 04/03 A3001 RMK AO2 RAE06B50 SLP167 P0000 T00440028=
201012181528 SPECI KATL 181528Z 34005KT 1 1/2SM BR OVC006 03/02 A3002 RMK AO2 RAE06 P0000=
201012181528 SPECI KATL 181528Z 34005KT 1 1/2SM BR OVC006 03/02 A3002 RMK AO2 RAE06 P0000=
201012181452 METAR KATL 181452Z COR 36006KT 1 1/2SM -RA BR OVC004 02/01 A3003 RMK AO2 SLP177 P0003 60018 T00220011 53002=
201012181352 METAR KATL 181352Z COR 33008KT 2 1/2SM -RA BR BKN004 BKN015 OVC040 03/02 A3002 RMK AO2 SFC VIS 2 1/2 RAB1255 SLP173 P0005 T00280017=
201012181323 SPECI KATL 181323Z 02007KT 2 1/2SM -RA BR FEW004 SCT030 OVC045 02/01 A3001 RMK AO2 SFC VIS 3 RAB1255 P0001=
201012181323 SPECI KATL 181323Z 02007KT 2 1/2SM -RA BR FEW004 SCT030 OVC045 02/01 A3001 RMK AO2 SFC VIS 3 RAB1255 P0001=
201012181252 METAR KATL 181252Z 33007KT 6SM BR SCT015 BKN045 OVC120 03/01 A3002 RMK AO2 RAE44 SLP172 P0010 T00280011=
201012181239 SPECI KATL 181239Z 01008KT 5SM -RA BR SCT015 BKN050 OVC120 02/01 A3001 RMK AO2 P0010=
201012181239 SPECI KATL 181239Z 01008KT 5SM -RA BR SCT015 BKN050 OVC120 02/01 A3001 RMK AO2 P0010=
201012181209 SPECI KATL 181209Z VRB03KT 4SM RA BR BKN015 OVC050 02/01 A3001 RMK AO2 P0004=
201012181209 SPECI KATL 181209Z VRB03KT 4SM RA BR BKN015 OVC050 02/01 A3001 RMK AO2 P0004=
201012181152 METAR KATL 181152Z 33009KT 7SM -RA OVC055 02/01 A3003 RMK AO2 SLP173 RAB1057 P0001 60001 70001 T00220006 10028 20011 53009=
201012181052 METAR KATL 181052Z 32007KT 10SM BKN055 OVC120 02/M01 A3000 RMK AO2 SLP165 T00221011=
201012180952 METAR KATL 180952Z 33006KT 10SM BKN080 BKN120 OVC250 02/M01 A2999 RMK AO2 SLP159 T00221011=
201012180852 METAR KATL 180852Z 01004KT 10SM FEW070 BKN120 BKN250 02/M01 A3000 RMK AO2 SLP163 T00221011 57013=
201012180752 METAR KATL 180752Z 34006KT 10SM FEW100 BKN250 01/M02 A3001 RMK AO2 SLP166 T00111017=
201012180652 METAR KATL 180652Z 32005KT 10SM SCT090 BKN250 01/M02 A3003 RMK AO2 SLP172 T00111017=
201012180552 METAR KATL 180552Z 31004KT 10SM FEW090 BKN250 01/M02 A3004 RMK AO2 SLP177 T00111017 10061 20011 58006=
201012180452 METAR KATL 180452Z 32007KT 10SM BKN090 BKN250 02/M02 A3005 RMK AO2 SLP181 T00171017 401110017=
201012180352 METAR KATL 180352Z 34008KT 10SM OVC090 02/M01 A3005 RMK AO2 SLP181 T00221011=
201012180252 METAR KATL 180252Z 33007KT 10SM SCT150 BKN250 02/M02 A3005 RMK AO2 SLP184 T00221017 50003=
201012180152 METAR KATL 180152Z 34005KT 10SM BKN150 BKN250 03/M01 A3006 RMK AO2 SLP185 T00331011=
201012180052 METAR KATL 180052Z 34007KT 10SM FEW150 BKN250 04/M01 A3006 RMK AO2 SLP186 T00441011=
201012172352 METAR KATL 172352Z 34009KT 10SM SCT150 BKN200 BKN250 06/M01 A3005 RMK AO2 SLP180 T00611006 10111 20061 51010=
201012172252 METAR KATL 172252Z 33006KT 10SM FEW150 SCT200 BKN250 07/M01 A3004 RMK AO2 SLP176 T00671011=
201012172152 METAR KATL 172152Z 33009KT 10SM FEW100 SCT200 BKN250 09/M01 A3002 RMK AO2 SLP170 T00941006=
201012172052 METAR KATL 172052Z 33008KT 10SM FEW080 BKN250 11/M01 A3001 RMK AO2 SLP166 T01061006 56013=
201012171952 METAR KATL 171952Z 33006KT 10SM FEW080 SCT250 BKN300 11/00 A3002 RMK AO2 SLP168 T01110000=
201012171852 METAR KATL 171852Z 34009KT 10SM FEW080 SCT250 10/00 A3003 RMK AO2 SLP169 T01000000=
201012171752 METAR KATL 171752Z 32005KT 10SM FEW080 SCT250 09/01 A3005 RMK AO2 SLP179 T00890006 10089 20028 58008=
201012171652 SPECI KATL 171652Z 33011KT 10SM FEW080 SCT250 07/00 A3006 RMK AO2 SLP183 T00720000=
201012171552 SPECI KATL 171552Z 34009KT 10SM FEW080 SCT250 06/01 A3008 RMK AO2 SLP189 T00610006=
201012171452 METAR KATL 171452Z 33013KT 10SM FEW015 SCT080 SCT250 04/00 A3008 RMK AO2 SLP188 ACC DSNT S T00440000 53022=
201012171352 METAR KATL 171352Z 32015G20KT 10SM FEW015 03/M01 A3006 RMK AO2 SLP179 T00331006=
201012171252 METAR KATL 171252Z 33010KT 10SM FEW150 03/M01 A3003 RMK AO2 SLP170 T00281006=
201012171152 METAR KATL 171152Z 33008KT 10SM FEW016 03/00 A3001 RMK AO2 SLP164 70046 T00330000 10100 20033 53020=
201012171141 SPECI KATL 171141Z 32009KT 10SM SCT016 03/00 A3001 RMK AO2=
201012171141 SPECI KATL 171141Z 32009KT 10SM SCT016 03/00 A3001 RMK AO2=
201012171052 METAR KATL 171052Z 32009KT 10SM BKN014 04/01 A2998 RMK AO2 SLP155 T00390011=
201012170952 METAR KATL 170952Z 33008KT 10SM BKN013 OVC017 04/02 A2997 RMK AO2 SLP151 T00440017=
201012170852 METAR KATL 170852Z 30009KT 10SM BKN013 OVC017 06/03 A2995 RMK AO2 SLP143 T00610033 51017=
201012170752 METAR KATL 170752Z 33007KT 8SM BKN014 OVC018 07/05 A2995 RMK AO2 SLP142 T00720050=
201012170652 METAR KATL 170652Z 33006KT 8SM BKN013 OVC018 08/06 A2992 RMK AO2 SLP132 T00830056=
201012170643 SPECI KATL 170643Z 34010KT 8SM BKN013 OVC018 08/06 A2991 RMK AO2=
201012170643 SPECI KATL 170643Z 34010KT 8SM BKN013 OVC018 08/06 A2991 RMK AO2=
201012170552 METAR KATL 170552Z 31011KT 10SM OVC017 10/08 A2990 RMK AO2 SLP124 60026 T01000078 10150 20100 51019=
201012170523 SPECI KATL 170523Z 29014KT 10SM FEW010 BKN018 BKN080 10/08 A2988 RMK AO2=
201012170523 SPECI KATL 170523Z 29014KT 10SM FEW010 BKN018 BKN080 10/08 A2988 RMK AO2=
201012170452 METAR KATL 170452Z 29009KT 10SM SCT012 BKN065 BKN080 11/09 A2988 RMK AO2 SLP118 T01060089 401560006=
201012170352 METAR KATL 170352Z 29010KT 10SM FEW009 OVC055 12/11 A2987 RMK AO2 RAE0258B19E49 SLP113 P0001 T01220106=
201012170307 SPECI KATL 170307Z 30012G17KT 10SM SCT012 BKN050 OVC070 13/12 A2985 RMK AO2 RAE0258 P0000=
201012170307 SPECI KATL 170307Z 30012G17KT 10SM SCT012 BKN050 OVC070 13/12 A2985 RMK AO2 RAE0258 P0000=
201012170252 METAR KATL 170252Z 30011KT 8SM -RA SCT008 BKN020 OVC050 13/12 A2984 RMK AO2 SLP104 P0007 60025 T01330122 53017=
201012170242 SPECI KATL 170242Z 30010G16KT 10SM -RA SCT012 BKN055 OVC070 13/12 A2984 RMK AO2 P0007=
201012170242 SPECI KATL 170242Z 30010G16KT 10SM -RA SCT012 BKN055 OVC070 13/12 A2984 RMK AO2 P0007=
201012170204 SPECI KATL 170204Z 29017G24KT 3SM +RA BR FEW008 BKN025 OVC045 15/14 A2982 RMK AO2 P0004=
201012170204 SPECI KATL 170204Z 29017G24KT 3SM +RA BR FEW008 BKN025 OVC045 15/14 A2982 RMK AO2 P0004=
201012170152 METAR KATL 170152Z 26006KT 10SM -RA FEW008 BKN027 OVC045 15/14 A2981 RMK AO2 RAE0055B51 SLP094 P0001 T01500139=
201012170052 METAR KATL 170052Z 24006KT 10SM -RA FEW008 SCT025 BKN060 OVC150 15/14 A2980 RMK AO2 SLP092 P0017 T01500139=
201012162352 METAR KATL 162352Z 23008KT 7SM -RA FEW009 BKN015 OVC050 15/13 A2979 RMK AO2 RAB21 SLP089 P0001 60015 T01500133 10156 20133 53007=
201012162342 SPECI KATL 162342Z 32010KT 9SM -RA FEW009 BKN020 OVC041 14/13 A2979 RMK AO2 RAB21 P0001=
201012162342 SPECI KATL 162342Z 32010KT 9SM -RA FEW009 BKN020 OVC041 14/13 A2979 RMK AO2 RAB21 P0001=
201012162252 METAR KATL 162252Z 22010KT 10SM FEW030 BKN042 OVC055 15/13 A2977 RMK AO2 RAE04 SLP081 P0001 T01500128=
201012162152 METAR KATL 162152Z 22008KT 10SM -RA FEW010 SCT030 OVC060 14/13 A2976 RMK AO2 RAB48 SLP082 P0001 T01440128=
201012162052 METAR KATL 162052Z 21010KT 9SM FEW008 SCT030 BKN050 14/12 A2977 RMK AO2 RAE29 SLP082 P0001 60012 T01390122 56004=
201012162048 SPECI KATL 162048Z 22010KT 9SM FEW008 SCT030 BKN050 14/12 A2977 RMK AO2 RAE29 P0001=
201012162048 SPECI KATL 162048Z 22010KT 9SM FEW008 SCT030 BKN050 14/12 A2977 RMK AO2 RAE29 P0001=
201012162000 SPECI KATL 162000Z 22010G17KT 8SM -RA FEW006 BKN028 OVC040 13/12 A2976 RMK AO2 P0000=
201012162000 SPECI KATL 162000Z 22010G17KT 8SM -RA FEW006 BKN028 OVC040 13/12 A2976 RMK AO2 P0000=
201012161952 METAR KATL 161952Z 22010G19KT 8SM -RA FEW008 SCT020 OVC050 13/12 A2976 RMK AO2 SLP081 VIS LWR E-SE-S SHRA P0007 T01330122=
201012161928 SPECI KATL 161928Z 22013G19KT 6SM -RA BR FEW010 BKN025 OVC060 13/12 A2976 RMK AO2 P0005=
201012161928 SPECI KATL 161928Z 22013G19KT 6SM -RA BR FEW010 BKN025 OVC060 13/12 A2976 RMK AO2 P0005=
201012161910 SPECI KATL 161910Z 23010KT 8SM -RA FEW010 BKN015 OVC020 13/12 A2977 RMK AO2 P0004=
201012161910 SPECI KATL 161910Z 23010KT 8SM -RA FEW010 BKN015 OVC020 13/12 A2977 RMK AO2 P0004=
201012161902 SPECI KATL 161902Z 24011G17KT 2 1/2SM R09R/4500VP6000FT -RA BR FEW010 BKN015 OVC030 13/12 A2977 RMK AO2 SFC VIS 4 P0004=
201012161902 SPECI KATL 161902Z 24011G17KT 2 1/2SM R09R/4500VP6000FT -RA BR FEW010 BKN015 OVC030 13/12 A2977 RMK AO2 SFC VIS 4 P0004=
201012161852 METAR KATL 161852Z 25008G17KT 2SM R09R/5000VP6000FT -RA BR BKN015 BKN030 OVC080 13/12 A2978 RMK AO2 SFC VIS 3 RAB1753 SLP086 P0004 T01330117=
201012161847 SPECI KATL 161847Z 25007G17KT 2SM -RA BR BKN015 BKN030 OVC080 13/12 A2978 RMK AO2 SFC VIS 3 RAB1753 P0003=
201012161847 SPECI KATL 161847Z 25007G17KT 2SM -RA BR BKN015 BKN030 OVC080 13/12 A2978 RMK AO2 SFC VIS 3 RAB1753 P0003=
201012161828 SPECI KATL 161828Z 23012G23KT 2 1/2SM -RA BR BKN015 BKN030 OVC050 14/11 A2977 RMK AO2 SFC VIS 4 RAB1753 P0002=
201012161828 SPECI KATL 161828Z 23012G23KT 2 1/2SM -RA BR BKN015 BKN030 OVC050 14/11 A2977 RMK AO2 SFC VIS 4 RAB1753 P0002=
201012161757 SPECI KATL 161757Z 22016G25KT 3SM -RA BR BKN015 BKN030 OVC050 14/11 A2977 RMK AO2 SFC VIS 4 RAB53 P0001=
201012161757 SPECI KATL 161757Z 22016G25KT 3SM -RA BR BKN015 BKN030 OVC050 14/11 A2977 RMK AO2 SFC VIS 4 RAB53 P0001=
201012161753 SPECI KATL 161753Z 22018G25KT 9SM -RA BR OVC015 14/11 A2978 RMK AO2 RAB53 P0000=
201012161753 SPECI KATL 161753Z 22018G25KT 9SM -RA BR OVC015 14/11 A2978 RMK AO2 RAB53 P0000=
201012161752 METAR KATL 161752Z 22016G25KT 10SM BKN015 BKN050 OVC100 14/11 A2978 RMK AO2 PK WND 21026/1718 SLP086 SHRA W-NW-N P0001 60005 T01390106 10139 20028 58021=
201012161652 METAR KATL 161652Z 21015G22KT 10SM BKN017 BKN050 OVC080 13/10 A2981 RMK AO2 PK WND 22027/1637 RAB21E32 SLP098 P0001 T01330100=
201012161552 METAR KATL 161552Z 22020G24KT 10SM BKN017 BKN050 OVC080 12/09 A2984 RMK AO2 RAB13E24 SLP108 P0001 T01220089=
201012161452 METAR KATL 161452Z 22013G21KT 10SM BKN020 BKN050 OVC080 12/08 A2984 RMK AO2 RAE18 SLP109 P0001 60002 T01170083 55003=
201012161352 METAR KATL 161352Z 21014G21KT 10SM -RA BKN027 OVC075 10/07 A2983 RMK AO2 RAB27 SLP107 P0001 T01000072=
201012161330 SPECI KATL 161330Z 21013G19KT 10SM -RA BKN027 BKN055 OVC075 09/07 A2983 RMK AO2 RAB27 P0000=
201012161330 SPECI KATL 161330Z 21013G19KT 10SM -RA BKN027 BKN055 OVC075 09/07 A2983 RMK AO2 RAB27 P0000=
201012161252 METAR KATL 161252Z 21013KT 10SM BKN075 07/04 A2983 RMK AO2 SLP109 T00720039=
201012161152 METAR KATL 161152Z 20006KT 10SM BKN080 OVC150 03/M02 A2985 RMK AO2 SLP116 60000 T00281022 10028 20006 58016=
201012161052 METAR KATL 161052Z 13003KT 10SM SCT040 OVC080 01/M04 A2988 RMK AO2 SLP126 T00111039=
201012160952 METAR KATL 160952Z 13003KT 10SM FEW045 OVC080 01/M04 A2990 RMK AO2 SLP133 T00111039=
201012160852 METAR KATL 160852Z 14004KT 10SM SCT065 BKN085 OVC150 01/M04 A2990 RMK AO2 SLP133 RAE16 P0000 60000 T00061039 56018=
201012160752 METAR KATL 160752Z 15003KT 10SM -RA FEW060 BKN070 BKN085 01/M04 A2991 RMK AO2 SLP139 RAB16 P0000 T00061039=
201012160652 METAR KATL 160652Z 13004KT 10SM OVC085 01/M04 A2993 RMK AO2 SLP144 T00061044=
201012160624 SPECI KATL 160624Z 11006KT 10SM SCT020 BKN065 OVC085 01/M05 A2994 RMK AO2=
201012160624 SPECI KATL 160624Z 11006KT 10SM SCT020 BKN065 OVC085 01/M05 A2994 RMK AO2=
201012160552 METAR KATL 160552Z 12003KT 10SM OVC020 01/M05 A2995 RMK AO2 SLP152 60000 T00061050 10006 21006 56013=
201012160452 METAR KATL 160452Z 14003KT 10SM OVC020 01/M04 A2995 RMK AO2 SLP153 T00061044 400171050=
201012160352 METAR KATL 160352Z 15005KT 10SM OVC022 00/M04 A2997 RMK AO2 FZRAE20 SLP158 P0000 T00001039=
201012160321 SPECI KATL 160321Z 14003KT 10SM BKN022 BKN050 OVC075 M01/M03 A2998 RMK AO2 FZRAE20 P0000=
201012160321 SPECI KATL 160321Z 14003KT 10SM BKN022 BKN050 OVC075 M01/M03 A2998 RMK AO2 FZRAE20 P0000=
201012160309 SPECI KATL 160309Z 14005KT 10SM -FZRA FEW025 BKN050 OVC075 M01/M03 A2998 RMK AO2 P0000=
201012160309 SPECI KATL 160309Z 14005KT 10SM -FZRA FEW025 BKN050 OVC075 M01/M03 A2998 RMK AO2 P0000=
201012160259 SPECI KATL 160259Z 14004KT 10SM SCT050 BKN075 OVC150 M01/M03 A2999 RMK AO2 FZRAE58 P0000=
201012160259 SPECI KATL 160259Z 14004KT 10SM SCT050 BKN075 OVC150 M01/M03 A2999 RMK AO2 FZRAE58 P0000=
201012160252 METAR KATL 160252Z 14005KT 10SM -FZRA FEW025 SCT050 BKN075 OVC150 M01/M03 A2999 RMK AO2 FZRAE01B29 SLP166 P0000 60000 T10061033 58008=
201012160235 SPECI KATL 160235Z 15004KT 9SM -FZRA SCT028 BKN055 OVC070 M01/M03 A2999 RMK AO2 FZRAE01B29 P0000=
201012160235 SPECI KATL 160235Z 15004KT 9SM -FZRA SCT028 BKN055 OVC070 M01/M03 A2999 RMK AO2 FZRAE01B29 P0000=
201012160229 SPECI KATL 160229Z 14004KT 10SM -FZRA BKN028 BKN050 OVC065 M01/M03 A3000 RMK AO2 FZRAE01B29 P0000=
201012160229 SPECI KATL 160229Z 14004KT 10SM -FZRA BKN028 BKN050 OVC065 M01/M03 A3000 RMK AO2 FZRAE01B29 P0000=
201012160202 SPECI KATL 160202Z 14003KT 10SM FEW028 OVC042 M01/M04 A3001 RMK AO2 FZRAE01 P0000=
201012160202 SPECI KATL 160202Z 14003KT 10SM FEW028 OVC042 M01/M04 A3001 RMK AO2 FZRAE01 P0000=
201012160152 METAR KATL 160152Z 13003KT 9SM -FZRA BKN030 OVC040 M01/M03 A3001 RMK AO2 FZRAB23 SLP173 P0000 T10061033=
201012160123 SPECI KATL 160123Z 00000KT 10SM -FZRA BKN030 OVC038 M01/M04 A3003 RMK AO2 FZRAB23 P0000=
201012160123 SPECI KATL 160123Z 00000KT 10SM -FZRA BKN030 OVC038 M01/M04 A3003 RMK AO2 FZRAB23 P0000=
201012160052 METAR KATL 160052Z 11003KT 10SM BKN032 OVC039 M01/M04 A3002 RMK AO2 SLP177 T10061044=
201012152352 METAR KATL 152352Z 12003KT 10SM FEW022 BKN030 OVC040 M01/M04 A3002 RMK AO2 FZRAB09E39 SLP176 P0000 60000 T10061044 10017 21011 56008=
201012152340 SPECI KATL 152340Z 11004KT 10SM FEW022 BKN028 OVC040 M01/M04 A3002 RMK AO2 FZRAB09E39 P0000=
201012152340 SPECI KATL 152340Z 11004KT 10SM FEW022 BKN028 OVC040 M01/M04 A3002 RMK AO2 FZRAB09E39 P0000=
201012152310 SPECI KATL 152310Z 10006KT 10SM -FZRA BKN028 OVC040 M01/M05 A3001 RMK AO2 FZRAB09 PCPN VRY LGT P0000=
201012152310 SPECI KATL 152310Z 10006KT 10SM -FZRA BKN028 OVC040 M01/M05 A3001 RMK AO2 FZRAB09 PCPN VRY LGT P0000=
201012152252 METAR KATL 152252Z 13005KT 10SM FEW022 BKN030 OVC045 M01/M05 A3002 RMK AO2 FZDZE47 SLP176 P0000 T10061050=
201012152249 SPECI KATL 152249Z 13004KT 10SM FEW022 BKN030 OVC045 M01/M05 A3002 RMK AO2 FZDZE47 P0000=
201012152249 SPECI KATL 152249Z 13004KT 10SM FEW022 BKN030 OVC045 M01/M05 A3002 RMK AO2 FZDZE47 P0000=
201012152217 SPECI KATL 152217Z 13004KT 10SM -FZDZ SCT024 BKN032 OVC045 M01/M06 A3002 RMK AO2 P0000=
201012152217 SPECI KATL 152217Z 13004KT 10SM -FZDZ SCT024 BKN032 OVC045 M01/M06 A3002 RMK AO2 P0000=
201012152204 SPECI KATL 152204Z 17007KT 10SM -FZDZ BKN024 BKN030 OVC050 M01/M06 A3003 RMK AO2 P0000=
201012152204 SPECI KATL 152204Z 17007KT 10SM -FZDZ BKN024 BKN030 OVC050 M01/M06 A3003 RMK AO2 P0000=
201012152152 METAR KATL 152152Z 16004KT 7SM -FZDZ SCT025 BKN030 OVC050 00/M07 A3004 RMK AO2 FZRAE2057FZDZB2057E28B49 SLP184 P0000 T00001072=
201012152128 SPECI KATL 152128Z 12005KT 10SM BKN034 BKN050 OVC070 00/M07 A3004 RMK AO2 FZRAE2057FZDZB2057E28 P0000=
201012152128 SPECI KATL 152128Z 12005KT 10SM BKN034 BKN050 OVC070 00/M07 A3004 RMK AO2 FZRAE2057FZDZB2057E28 P0000=
201012152058 SPECI KATL 152058Z 00000KT 10SM -FZDZ FEW030 BKN040 OVC070 00/M07 A3005 RMK AO2 FZRAE57FZDZB57 P0000=
201012152058 SPECI KATL 152058Z 00000KT 10SM -FZDZ FEW030 BKN040 OVC070 00/M07 A3005 RMK AO2 FZRAE57FZDZB57 P0000=
201012152052 METAR KATL 152052Z 14003KT 10SM -FZRA FEW030 BKN040 OVC050 00/M07 A3004 RMK AO2 FZRAE02B24 SLP184 P0000 60000 T00001072 56015=
201012152024 SPECI KATL 152024Z 32003KT 9SM -FZRA FEW030 BKN040 OVC050 00/M08 A3005 RMK AO2 FZRAE02B24 P0000=
201012152024 SPECI KATL 152024Z 32003KT 9SM -FZRA FEW030 BKN040 OVC050 00/M08 A3005 RMK AO2 FZRAE02B24 P0000=
201012152002 SPECI KATL 152002Z 24003KT 10SM FEW030 BKN040 OVC050 00/M10 A3005 RMK AO2 FZRAE02 P0000=
201012152002 SPECI KATL 152002Z 24003KT 10SM FEW030 BKN040 OVC050 00/M10 A3005 RMK AO2 FZRAE02 P0000=
201012151952 METAR KATL 151952Z 00000KT 10SM -FZRA FEW025 BKN040 OVC050 00/M11 A3005 RMK AO2 RAB47E51FZRAB51SNE47PLB43E51 SLP188 P0000 T00001106=
201012151947 SPECI KATL 151947Z 00000KT 9SM -PLRA FEW025 BKN040 OVC050 00/M10 A3005 RMK AO2 RAB47SNE47PLB43 P0000=
201012151947 SPECI KATL 151947Z 00000KT 9SM -PLRA FEW025 BKN040 OVC050 00/M10 A3005 RMK AO2 RAB47SNE47PLB43 P0000=
201012151943 SPECI KATL 151943Z 28005KT 6SM -SNPL FEW030 BKN040 OVC070 00/M10 A3005 RMK AO2 PLB43 P0000=
201012151943 SPECI KATL 151943Z 28005KT 6SM -SNPL FEW030 BKN040 OVC070 00/M10 A3005 RMK AO2 PLB43 P0000=
201012151931 SPECI KATL 151931Z VRB03KT 9SM -SN FEW030 BKN040 OVC070 01/M16 A3006 RMK AO2 VIRGA OHD & ALQDS P0000=
201012151931 SPECI KATL 151931Z VRB03KT 9SM -SN FEW030 BKN040 OVC070 01/M16 A3006 RMK AO2 VIRGA OHD & ALQDS P0000=
201012151921 SPECI KATL 151921Z 29003KT 9SM BKN034 BKN045 OVC070 02/M16 A3005 RMK AO2 SNE21 P0000=
201012151921 SPECI KATL 151921Z 29003KT 9SM BKN034 BKN045 OVC070 02/M16 A3005 RMK AO2 SNE21 P0000=
201012151909 SPECI KATL 151909Z 00000KT 10SM -SN BKN034 BKN045 OVC070 01/M16 A3005 RMK AO2 P0000=
201012151909 SPECI KATL 151909Z 00000KT 10SM -SN BKN034 BKN045 OVC070 01/M16 A3005 RMK AO2 P0000=
201012151854 SPECI KATL 151854Z VRB03KT 10SM BKN034 BKN045 OVC070 01/M16 A3006 RMK AO2 SNE54 P0000=
201012151854 SPECI KATL 151854Z VRB03KT 10SM BKN034 BKN045 OVC070 01/M16 A3006 RMK AO2 SNE54 P0000=
201012151852 METAR KATL 151852Z 30004KT 10SM -SN BKN038 BKN046 OVC070 01/M16 A3006 RMK AO2 PLB44E50SNB50 SLP189 P0000 T00111161=
201012151844 SPECI KATL 151844Z 00000KT 10SM -PL BKN038 BKN046 OVC070 01/M15 A3006 RMK AO2 PLB44 P0000=
201012151844 SPECI KATL 151844Z 00000KT 10SM -PL BKN038 BKN046 OVC070 01/M15 A3006 RMK AO2 PLB44 P0000=
201012151752 METAR KATL 151752Z 29004KT 10SM BKN040 BKN070 OVC100 01/M16 A3009 RMK AO2 SLP200 VIRGA N-NE-E & DSNT W T00061156 10006 21033 58014=
201012151652 METAR KATL 151652Z 28005KT 10SM BKN047 BKN070 OVC100 00/M15 A3011 RMK AO2 SLP207 T00001150=
201012151552 METAR KATL 151552Z 27005KT 10SM BKN045 BKN070 OVC100 M01/M14 A3013 RMK AO2 SLP214 T10061139=
201012151452 METAR KATL 151452Z 31005KT 10SM OVC045 M02/M14 A3013 RMK AO2 SLP215 T10171139 53013=
201012151352 METAR KATL 151352Z 32006KT 10SM FEW110 BKN150 BKN250 M03/M13 A3012 RMK AO2 SLP211 T10281133=
201012151252 METAR KATL 151252Z 29004KT 10SM BKN055 BKN200 M03/M13 A3010 RMK AO2 SLP205 T10331133=
201012151152 METAR KATL 151152Z 33006KT 10SM BKN050 OVC065 M03/M13 A3009 RMK AO2 SLP202 T10331133 11033 21050 58009=
201012151052 METAR KATL 151052Z 34006KT 10SM BKN050 OVC065 M04/M13 A3011 RMK AO2 SLP208 T10391128=
201012150952 METAR KATL 150952Z 32006KT 10SM BKN060 OVC150 M04/M13 A3011 RMK AO2 SLP206 T10391133=
201012150852 METAR KATL 150852Z 31005KT 10SM BKN065 BKN110 M04/M13 A3012 RMK AO2 SLP210 T10391128 51008=
201012150752 METAR KATL 150752Z 30005KT 10SM SCT110 BKN150 M05/M13 A3011 RMK AO2 SLP208 T10501133=
201012150652 METAR KATL 150652Z 31006KT 10SM CLR M05/M13 A3010 RMK AO2 SLP206 T10501133=
201012150552 METAR KATL 150552Z 31005KT 10SM FEW065 SCT150 M05/M13 A3009 RMK AO2 SLP203 T10501133 11028 21050 58003=
201012150452 METAR KATL 150452Z 32005KT 10SM SCT065 BKN150 M04/M13 A3011 RMK AO2 SLP209 T10391128 400061100=
201012150352 METAR KATL 150352Z 30005KT 10SM FEW090 SCT150 M04/M13 A3011 RMK AO2 SLP211 T10441128=
201012150252 METAR KATL 150252Z 32005KT 10SM FEW090 M04/M14 A3010 RMK AO2 SLP208 T10441144 56005=
201012150152 METAR KATL 150152Z 30005KT 10SM FEW090 M04/M15 A3011 RMK AO2 SLP212 T10391150=
201012150052 METAR KATL 150052Z 31004KT 10SM FEW100 M03/M16 A3010 RMK AO2 SLP210 T10281156=
201012142352 METAR KATL 142352Z 31004KT 10SM FEW250 M03/M16 A3012 RMK AO2 SLP214 T10281161 10006 21028 51004=
201012142252 METAR KATL 142252Z 32009KT 10SM CLR M02/M16 A3011 RMK AO2 SLP210 T10171161=
201012142152 METAR KATL 142152Z 32011KT 10SM FEW250 M01/M16 A3011 RMK AO2 SLP212 T10061161=
201012142052 METAR KATL 142052Z 30009KT 10SM FEW250 00/M16 A3010 RMK AO2 SLP207 T00001156 56010=
201012141952 METAR KATL 141952Z 32012KT 10SM FEW250 01/M16 A3011 RMK AO2 SLP209 T00061156=
201012141852 METAR KATL 141852Z 31011KT 10SM FEW250 00/M15 A3012 RMK AO2 SLP215 T00001150=
201012141752 METAR KATL 141752Z 32012KT 10SM FEW250 M01/M14 A3013 RMK AO2 SLP218 T10111144 11006 21100 58008=
201012141652 METAR KATL 141652Z 31012KT 10SM CLR M03/M13 A3016 RMK AO2 SLP228 T10281133=
201012141552 METAR KATL 141552Z 29010KT 10SM CLR M04/M12 A3017 RMK AO2 SLP233 T10441122=
201012141452 METAR KATL 141452Z 31013G16KT 10SM CLR M07/M12 A3016 RMK AO2 SLP228 T10671122 53018=
201012141352 METAR KATL 141352Z 30011G17KT 10SM FEW025 M08/M13 A3014 RMK AO2 SLP223 T10831128=
201012141252 METAR KATL 141252Z 29009KT 10SM FEW020 M10/M13 A3012 RMK AO2 SLP216 T11001128=
201012141152 METAR KATL 141152Z 30011KT 10SM CLR M09/M13 A3010 RMK AO2 SLP211 T10941133 11078 21094 53005=
201012141052 METAR KATL 141052Z 30012KT 10SM CLR M09/M13 A3009 RMK AO2 SLP206 T10941133=
201012140952 METAR KATL 140952Z 30011KT 10SM CLR M09/M13 A3009 RMK AO2 SLP203 T10941133=
201012140852 METAR KATL 140852Z 32013G23KT 10SM FEW020 M09/M13 A3009 RMK AO2 PK WND 32027/0813 SLP203 T10891133 53010=
201012140752 METAR KATL 140752Z 31015G24KT 10SM FEW020 M08/M13 A3007 RMK AO2 SLP198 T10831128=
201012140652 METAR KATL 140652Z 31014KT 10SM FEW020 M08/M12 A3006 RMK AO2 SLP194 T10831122=
201012140552 METAR KATL 140552Z 31015G22KT 10SM CLR M08/M12 A3006 RMK AO2 SLP193 T10781122 11050 21078 50003=
201012140452 METAR KATL 140452Z 32011KT 10SM CLR M07/M12 A3006 RMK AO2 PK WND 32026/0354 SLP194 T10721122 410171072=
201012140352 METAR KATL 140352Z 32017G22KT 10SM CLR M07/M12 A3006 RMK AO2 SLP192 T10671122=
201012140252 METAR KATL 140252Z 31014G24KT 10SM CLR M07/M12 A3005 RMK AO2 PK WND 32029/0210 SLP191 T10671122 51014=
201012140152 METAR KATL 140152Z 33015G21KT 10SM FEW035 M06/M13 A3004 RMK AO2 PK WND 33026/0130 SLP187 T10611128=
201012140052 METAR KATL 140052Z 33014G22KT 10SM FEW035 M06/M12 A3003 RMK AO2 SLP184 T10561122=
201012132352 METAR KATL 132352Z 31015G24KT 10SM FEW040 M05/M12 A3001 RMK AO2 PK WND 33027/2324 SLP175 T10501122 11017 21050 51021=
201012132252 METAR KATL 132252Z 32013G27KT 10SM SCT040 M04/M12 A2999 RMK AO2 PK WND 32027/2247 SLP170 T10441122=
201012132152 METAR KATL 132152Z 30018G26KT 10SM BKN040 M03/M12 A2997 RMK AO2 PK WND 31026/2151 SLP161 T10331117=
201012132052 METAR KATL 132052Z 31015G25KT 10SM BKN045 M02/M12 A2994 RMK AO2 PK WND 32030/2025 SLP151 T10221117 53016=
201012131952 METAR KATL 131952Z 31018G26KT 10SM BKN043 M03/M12 A2991 RMK AO2 PK WND 32029/1906 SLP141 VIRGA DSNT E T10281117=
201012131852 METAR KATL 131852Z 30017G26KT 10SM BKN038 BKN048 M03/M11 A2990 RMK AO2 PK WND 29026/1850 SLP135 VIRGA DSNT NE-E T10281111=
201012131752 METAR KATL 131752Z 30018G24KT 10SM FEW027 SCT035 M03/M11 A2989 RMK AO2 PK WND 30032/1713 SNE21 SLP134 P0000 60000 T10281111 11022 21067 50001=
201012131652 METAR KATL 131652Z 31015G20KT 10SM -SN FEW025 BKN030 M04/M12 A2990 RMK AO2 PK WND 30029/1616 SLP137 P0000 T10391117=
201012131620 SPECI KATL 131620Z 31020G29KT 10SM -SN BKN030 M04/M12 A2991 RMK AO2 PK WND 30029/1616 P0000=
201012131620 SPECI KATL 131620Z 31020G29KT 10SM -SN BKN030 M04/M12 A2991 RMK AO2 PK WND 30029/1616 P0000=
201012131552 METAR KATL 131552Z 31018G28KT 9SM -SN BKN030 M04/M12 A2991 RMK AO2 PK WND 30030/1541 UPB45E47SNB47 SLP141 P0000 T10441117=
201012131535 SPECI KATL 131535Z 28020G28KT 10SM SCT030 M04/M12 A2991 RMK AO2 PK WND 29028/1531=
201012131535 SPECI KATL 131535Z 28020G28KT 10SM SCT030 M04/M12 A2991 RMK AO2 PK WND 29028/1531=
201012131452 METAR KATL 131452Z 29021G25KT 10SM BKN027 BKN030 M06/M12 A2989 RMK AO2 PK WND 29030/1403 SNB09E19 SLP134 P0000 60000 T10561117 51026=
201012131352 METAR KATL 131352Z 30016G24KT 9SM BKN027 BKN032 M06/M12 A2987 RMK AO2 PK WND 31027/1310 SNB36E51 SLP127 P0000 T10611117=
201012131252 METAR KATL 131252Z 31021G27KT 10SM SCT028 BKN035 M07/M12 A2984 RMK AO2 PK WND 31030/1240 SNE28 SLP117 P0000 T10671122=
201012131229 SPECI KATL 131229Z 31017G23KT 9SM SCT028 BKN035 M07/M12 A2982 RMK AO2 PK WND 31030/1217 SNE28 P0000=
201012131229 SPECI KATL 131229Z 31017G23KT 9SM SCT028 BKN035 M07/M12 A2982 RMK AO2 PK WND 31030/1217 SNE28 P0000=
201012131152 METAR KATL 131152Z 31019G34KT 9SM -SN BKN032 M06/M12 A2981 RMK AO2 PK WND 31035/1138 SLP107 P0000 60000 T10611122 11039 21061 53015=
201012131052 METAR KATL 131052Z 30019G28KT 9SM -SN BKN032 M06/M12 A2979 RMK AO2 PK WND 32037/0958 SLP100 P0000 T10561117=
201012130952 METAR KATL 130952Z 31020G28KT 9SM -SN BKN028 OVC031 M05/M11 A2978 RMK AO2 PK WND 31031/0929 SLP097 P0000 T10501111=
201012130852 METAR KATL 130852Z 30023G30KT 9SM -SN BKN028 OVC031 M04/M11 A2977 RMK AO2 PK WND 31032/0820 SLP091 P0000 60000 T10441106 53010=
201012130752 METAR KATL 130752Z 30016G28KT 9SM -SN BKN027 OVC031 M04/M10 A2976 RMK AO2 PK WND 29034/0706 SLP088 P0000 T10441100=
201012130652 METAR KATL 130652Z 29017G28KT 9SM -SN BKN027 OVC035 M04/M09 A2973 PK WND 30028/0644 SLP080 P0000 T10441089=
201012130650 SPECI KATL 130650Z 28018G28KT 9SM -SN BKN027 OVC035 M04/M09 A2973 RMK AO2 PK WND 30028/0644 P0000=
201012130650 SPECI KATL 130650Z 28018G28KT 9SM -SN BKN027 OVC035 M04/M09 A2973 RMK AO2 PK WND 30028/0644 P0000=
201012130252 METAR KATL 130252Z 30019G31KT 9SM BKN032 OVC045 M03/M09 A2975 RMK AO2 PK WND 30032/0237 SNB06E49 SLP081 P0000 60000 T10331089 51008=
201012130152 METAR KATL 130152Z 29016G30KT 10SM SCT030 BKN043 BKN060 M03/M09 A2974 RMK AO2 PK WND 29033/0107 SLP080 T10331089=
201012130052 METAR KATL 130052Z 29015G28KT 10SM SCT036 SCT044 M03/M09 A2974 RMK AO2 PK WND 30028/0046 SLP077 T10331089=
201012122352 METAR KATL 122352Z 29016G26KT 10SM FEW038 BKN048 BKN070 M03/M09 A2972 RMK AO2 PK WND 29033/2253 SLP072 60000 T10281094 10000 21028 51019=
201012122252 METAR KATL 122252Z 29021G29KT 10SM FEW035 BKN048 M02/M11 A2972 RMK AO2 PK WND 28037/2239 SNE01B17E34 SLP069 P0000 T10221106=
201012122202 SPECI KATL 122202Z 30018G26KT 9SM FEW034 OVC043 M02/M09 A2969 RMK AO2 PK WND 31026/2200 SNE01 P0000=
201012122202 SPECI KATL 122202Z 30018G26KT 9SM FEW034 OVC043 M02/M09 A2969 RMK AO2 PK WND 31026/2200 SNE01 P0000=
201012122152 METAR KATL 122152Z 29013G26KT 9SM -SN FEW035 OVC044 M02/M09 A2969 RMK AO2 PK WND 29026/2145 SLP061 BINOVC P0000 T10171089=
201012122052 METAR KATL 122052Z 27020G31KT 9SM -SN OVC040 M02/M08 A2967 RMK AO2 PK WND 29031/2048 SLP053 P0000 60000 T10171083 53013=
201012121952 METAR KATL 121952Z 29012G21KT 9SM -SN BKN035 OVC040 M02/M08 A2965 RMK AO2 PK WND 28027/1854 SNE23B52 SLP046 P0000 T10171078=
201012121923 SPECI KATL 121923Z 28017G24KT 8SM SCT029 BKN035 OVC043 M01/M07 A2964 RMK AO2 PK WND 28027/1854 SNE23 P0000=
201012121923 SPECI KATL 121923Z 28017G24KT 8SM SCT029 BKN035 OVC043 M01/M07 A2964 RMK AO2 PK WND 28027/1854 SNE23 P0000=
201012121852 METAR KATL 121852Z 29017G28KT 6SM -SN SCT019 BKN023 OVC032 M02/M06 A2964 RMK AO2 PK WND 32030/1828 SLP045 P0000 T10171061=
201012121842 SPECI KATL 121842Z 28020G28KT 2 1/2SM -SN BKN019 OVC026 M02/M04 A2965 RMK AO2 PK WND 32030/1828 P0000=
201012121842 SPECI KATL 121842Z 28020G28KT 2 1/2SM -SN BKN019 OVC026 M02/M04 A2965 RMK AO2 PK WND 32030/1828 P0000=
201012121818 SPECI KATL 121818Z 30015G21KT 3/4SM R09R/5000VP6000FT -SN BR BKN021 OVC026 M01/M03 A2964 RMK AO2 PK WND 29029/1758 P0000=
201012121818 SPECI KATL 121818Z 30015G21KT 3/4SM R09R/5000VP6000FT -SN BR BKN021 OVC026 M01/M03 A2964 RMK AO2 PK WND 29029/1758 P0000=
201012121809 SPECI KATL 121809Z 29019G26KT 1 1/4SM R09R/5000VP6000FT -SN BKN021 OVC031 M01/M04 A2964 RMK AO2 PK WND 29029/1758 TWR VIS 1 1/2 P0000=
201012121809 SPECI KATL 121809Z 29019G26KT 1 1/4SM R09R/5000VP6000FT -SN BKN021 OVC031 M01/M04 A2964 RMK AO2 PK WND 29029/1758 TWR VIS 1 1/2 P0000=
201012121752 METAR KATL 121752Z 29015G25KT 5SM -SN BKN019 OVC026 00/M04 A2963 RMK AO2 PK WND 30029/1742 SLP040 P0000 60000 T00001044 10067 20000 50013=
201012121652 METAR KATL 121652Z 31017G23KT 8SM -SN OVC019 01/M02 A2963 RMK AO2 PK WND 29028/1621 SNB37 SLP039 P0000 T00061022=
201012121552 METAR KATL 121552Z COR 31021G29KT 10SM OVC019 02/M02 A2962 RMK AO2 PK WND 29029/1543 RAB17E44 SLP035 P0000 T00221017=
201012121452 METAR KATL 121452Z 27010G20KT 10SM BKN022 BKN027 BKN060 07/02 A2959 RMK AO2 SLP022 T00670022 50000=
201012121352 METAR KATL 121352Z 29005KT 10SM BKN020 BKN040 BKN200 06/03 A2960 RMK AO2 SLP025 T00610033=
201012121349 SPECI KATL 121349Z 28008KT 250V310 10SM BKN020 BKN040 BKN200 06/03 A2960 RMK AO2=
201012121349 SPECI KATL 121349Z 28008KT 250V310 10SM BKN020 BKN040 BKN200 06/03 A2960 RMK AO2=
201012121316 SPECI KATL 121316Z 28008KT 10SM SCT022 BKN035 BKN200 06/03 A2960 RMK AO2=
201012121316 SPECI KATL 121316Z 28008KT 10SM SCT022 BKN035 BKN200 06/03 A2960 RMK AO2=
201012121252 METAR KATL 121252Z 29009KT 10SM BKN020 BKN035 BKN200 06/04 A2960 RMK AO2 SLP025 T00610039=
201012121234 SPECI KATL 121234Z 28008KT 10SM BKN020 OVC035 07/04 A2961 RMK AO2 BINOVC=
201012121234 SPECI KATL 121234Z 28008KT 10SM BKN020 OVC035 07/04 A2961 RMK AO2 BINOVC=
201012121152 METAR KATL 121152Z 29008KT 10SM FEW005 BKN035 OVC050 07/04 A2959 RMK AO2 SLP022 60052 70064 T00670044 10083 20056 55003=
201012121124 SPECI KATL 121124Z 29013KT 10SM FEW003 SCT006 OVC032 08/05 A2959 RMK AO2=
201012121124 SPECI KATL 121124Z 29013KT 10SM FEW003 SCT006 OVC032 08/05 A2959 RMK AO2=
201012121054 SPECI KATL 121054Z 27012G17KT 9SM SCT003 BKN006 OVC032 08/07 A2957 RMK AO2=
201012121054 SPECI KATL 121054Z 27012G17KT 9SM SCT003 BKN006 OVC032 08/07 A2957 RMK AO2=
201012121052 METAR KATL 121052Z 27011G17KT 3SM BKN003 OVC006 08/08 A2957 RMK AO2 SFC VIS 9 SLP015 T00830078=
201012121035 SPECI KATL 121035Z 24006KT 3SM BKN003 OVC006 08/07 A2956 RMK AO2 SFC VIS 9=
201012121035 SPECI KATL 121035Z 24006KT 3SM BKN003 OVC006 08/07 A2956 RMK AO2 SFC VIS 9=
201012121006 SPECI KATL 121006Z 21006KT 10SM BKN008 OVC024 07/07 A2955 RMK AO2=
201012121006 SPECI KATL 121006Z 21006KT 10SM BKN008 OVC024 07/07 A2955 RMK AO2=
201012120952 METAR KATL 120952Z 21005KT 10SM BKN010 BKN024 OVC045 07/07 A2956 RMK AO2 RAE36 SLP012 P0003 T00720067=
201012120943 SPECI KATL 120943Z 21005KT 10SM BKN010 BKN024 OVC045 07/06 A2956 RMK AO2 RAE36 P0003=
201012120943 SPECI KATL 120943Z 21005KT 10SM BKN010 BKN024 OVC045 07/06 A2956 RMK AO2 RAE36 P0003=
201012120933 SPECI KATL 120933Z 20005KT 9SM -RA FEW010 BKN024 OVC045 07/06 A2957 RMK AO2 P0003=
201012120933 SPECI KATL 120933Z 20005KT 9SM -RA FEW010 BKN024 OVC045 07/06 A2957 RMK AO2 P0003=
201012120859 SPECI KATL 120859Z 18006KT 8SM -RA FEW010 BKN031 OVC050 07/06 A2960 RMK AO2 P0001=
201012120859 SPECI KATL 120859Z 18006KT 8SM -RA FEW010 BKN031 OVC050 07/06 A2960 RMK AO2 P0001=
201012120852 METAR KATL 120852Z 18007KT 9SM -RA FEW010 BKN028 OVC050 07/06 A2960 RMK AO2 SLP024 P0005 60049 T00670056 56032=
201012120806 SPECI KATL 120806Z 12005KT 6SM -RA BR SCT010 BKN020 OVC045 06/06 A2962 RMK AO2 P0001=
201012120806 SPECI KATL 120806Z 12005KT 6SM -RA BR SCT010 BKN020 OVC045 06/06 A2962 RMK AO2 P0001=
201012120752 METAR KATL 120752Z 12004KT 5SM -RA BR BKN010 BKN020 OVC045 06/06 A2963 RMK AO2 PK WND 31031/0701 WSHFT 0656 SLP035 P0034 T00610056=
201012120733 SPECI KATL 120733Z 09004KT 3SM RA BR FEW005 BKN011 OVC020 06/05 A2965 RMK AO2 PK WND 31031/0701 WSHFT 0656 P0029=
201012120733 SPECI KATL 120733Z 09004KT 3SM RA BR FEW005 BKN011 OVC020 06/05 A2965 RMK AO2 PK WND 31031/0701 WSHFT 0656 P0029=
201012120713 SPECI KATL 120713Z 30011G26KT 2 1/2SM +RA BR FEW005 BKN014 OVC020 06/05 A2970 RMK AO2 PK WND 31031/0701 WSHFT 0656 FROPA P0019=
201012120713 SPECI KATL 120713Z 30011G26KT 2 1/2SM +RA BR FEW005 BKN014 OVC020 06/05 A2970 RMK AO2 PK WND 31031/0701 WSHFT 0656 FROPA P0019=
201012120707 SPECI KATL 120707Z 30017G31KT 2SM +RA BR SCT005 BKN012 OVC020 06/04 A2969 RMK AO2 PK WND 31031/0701 PRESRR P0013=
201012120707 SPECI KATL 120707Z 30017G31KT 2SM +RA BR SCT005 BKN012 OVC020 06/04 A2969 RMK AO2 PK WND 31031/0701 PRESRR P0013=
201012120702 SPECI KATL 120702Z 30026G31KT 2 1/2SM +RA BR FEW007 SCT012 OVC020 06/04 A2968 RMK AO2 PK WND 31031/0701 PRESRR P0005=
201012120702 SPECI KATL 120702Z 30026G31KT 2 1/2SM +RA BR FEW007 SCT012 OVC020 06/04 A2968 RMK AO2 PK WND 31031/0701 PRESRR P0005=
201012120652 METAR KATL 120652Z 14011G16KT 4SM RA BR FEW012 OVC020 06/04 A2962 RMK AO2 SLP032 P0010 T00560039=
201012120552 METAR KATL 120552Z 14007KT 5SM RA FEW012 BKN024 OVC049 06/02 A2970 RMK AO2 PRESFR SLP059 P0012 60012 T00560022 10083 20056 58029=
201012120452 METAR KATL 120452Z 14008KT 10SM -RA OVC027 08/M02 A2975 RMK AO2 RAB50 SLP075 P0000 T00831017 400940011=
201012120448 SPECI KATL 120448Z 14010KT 10SM OVC028 08/M03 A2975 RMK AO2 400940011=
201012120448 SPECI KATL 120448Z 14010KT 10SM OVC028 08/M03 A2975 RMK AO2 400940011=
201012120352 METAR KATL 120352Z 13010KT 10SM OVC033 08/M04 A2978 RMK AO2 SLP088 T00781039=
201012120252 METAR KATL 120252Z 13008KT 10SM OVC035 08/M04 A2984 RMK AO2 SLP107 T00781044 58028=
201012120152 METAR KATL 120152Z 12009KT 10SM BKN048 BKN070 OVC150 08/M05 A2987 RMK AO2 SLP118 T00781050=
201012120052 METAR KATL 120052Z 13008KT 10SM BKN055 BKN200 08/M05 A2990 RMK AO2 SLP131 T00781050=
201012112352 METAR KATL 112352Z 12007KT 10SM FEW065 BKN150 BKN200 08/M05 A2992 RMK AO2 SLP138 T00781050 10094 20078 58024=
201012112252 METAR KATL 112252Z 11009KT 10SM SCT065 BKN150 BKN200 08/M05 A2995 RMK AO2 SLP147 T00831050=
201012112152 METAR KATL 112152Z 13005KT 10SM SCT080 BKN150 BKN200 09/M04 A2999 RMK AO2 SLP158 T00941044=
201012112052 METAR KATL 112052Z 14005KT 10SM SCT100 BKN150 OVC200 09/M05 A3000 RMK AO2 SLP162 T00941050 56020=
201012111952 METAR KATL 111952Z 13006KT 10SM BKN150 OVC200 09/M05 A3000 RMK AO2 SLP163 T00941050=
201012111852 METAR KATL 111852Z 14004KT 10SM BKN150 OVC200 09/M05 A3003 RMK AO2 SLP171 T00941050=
201012111752 METAR KATL 111752Z 13007KT 10SM BKN150 OVC200 09/M06 A3006 RMK AO2 SLP182 T00891056 10089 20011 58028=
201012111652 METAR KATL 111652Z 13007KT 10SM SCT150 BKN200 BKN250 08/M06 A3009 RMK AO2 SLP195 T00831056=
201012111552 METAR KATL 111552Z 14005KT 10SM SCT150 BKN250 08/M06 A3012 RMK AO2 SLP203 T00831056=
201012111452 METAR KATL 111452Z 08005KT 10SM SCT150 SCT250 06/M06 A3014 RMK AO2 SLP212 T00611056 58001=
201012111352 METAR KATL 111352Z 08007KT 10SM SCT140 SCT200 03/M06 A3015 RMK AO2 SLP215 T00331061=
201012111252 METAR KATL 111252Z 09005KT 10SM SCT150 BKN200 02/M07 A3014 RMK AO2 SLP214 T00171067=
201012111152 METAR KATL 111152Z 08006KT 10SM SCT150 OVC200 02/M07 A3015 RMK AO2 SLP214 T00171072 10050 20011 58006=
201012111052 METAR KATL 111052Z 08005KT 10SM BKN150 OVC200 02/M07 A3015 RMK AO2 SLP217 T00221072=
201012110952 METAR KATL 110952Z 08004KT 10SM SCT150 BKN200 03/M08 A3016 RMK AO2 SLP219 T00331083=
201012110852 METAR KATL 110852Z 06004KT 10SM SCT150 BKN200 03/M08 A3016 RMK AO2 SLP218 T00331078 53000=
201012110752 METAR KATL 110752Z 05005KT 10SM BKN150 BKN200 04/M08 A3015 RMK AO2 SLP215 T00391083=
201012110652 METAR KATL 110652Z 14006KT 10SM BKN150 OVC200 04/M07 A3015 RMK AO2 SLP213 T00441072=
201012110552 METAR KATL 110552Z 11004KT 10SM BKN150 OVC200 05/M08 A3016 RMK AO2 SLP219 T00501078 10072 20033 58005=
201012110452 METAR KATL 110452Z 09004KT 10SM BKN150 BKN200 OVC250 05/M07 A3018 RMK AO2 SLP226 T00501072 401171017=
201012110352 METAR KATL 110352Z 00000KT 10SM BKN150 OVC200 06/M07 A3019 RMK AO2 SLP229 T00611072=
201012110252 METAR KATL 110252Z 00000KT 10SM BKN150 OVC200 06/M07 A3018 RMK AO2 SLP224 T00561072 58003=
201012110152 METAR KATL 110152Z 00000KT 10SM BKN150 OVC200 07/M07 A3019 RMK AO2 SLP229 T00671072=
201012110052 METAR KATL 110052Z COR 00000KT 10SM SCT150 BKN250 07/M08 A3019 RMK AO2 SLP229 T00721078=
201012102352 METAR KATL 102352Z 14003KT 10SM FEW150 BKN250 07/M08 A3019 RMK AO2 SLP229 T00721083 10117 20072 57002=
201012102252 METAR KATL 102252Z 16003KT 10SM FEW150 BKN250 08/M08 A3019 RMK AO2 SLP230 T00781083=
201012102152 METAR KATL 102152Z 15003KT 10SM FEW150 SCT180 BKN250 10/M09 A3019 RMK AO2 SLP229 T01001094=
201012102052 METAR KATL 102052Z 00000KT 10SM FEW150 SCT180 BKN250 11/M09 A3019 RMK AO2 SLP229 T01061094 56015=
201012101952 METAR KATL 101952Z VRB03KT 10SM FEW150 SCT180 SCT250 11/M09 A3020 RMK AO2 SLP230 T01061094=
201012101852 METAR KATL 101852Z 00000KT 10SM FEW180 SCT250 BKN300 10/M09 A3021 RMK AO2 SLP234 T01001089=
201012101830 SPECI KATL 101830Z VRB03KT 10SM FEW180 BKN250 BKN300 09/M09 A3022 RMK AO2=
201012101830 SPECI KATL 101830Z VRB03KT 10SM FEW180 BKN250 BKN300 09/M09 A3022 RMK AO2=
201012101752 METAR KATL 101752Z 00000KT 10SM BKN180 BKN250 BKN300 08/M09 A3024 RMK AO2 SLP246 T00781094 10089 21017 58019=
201012101652 METAR KATL 101652Z 11005KT 10SM FEW180 BKN250 BKN300 08/M09 A3026 RMK AO2 SLP254 T00781089=
201012101552 METAR KATL 101552Z 14005KT 10SM SCT180 BKN250 BKN300 06/M09 A3029 RMK AO2 SLP263 T00611089=
201012101452 METAR KATL 101452Z 16006KT 10SM FEW180 SCT250 BKN300 03/M08 A3030 RMK AO2 SLP266 T00331083 53008=
201012101352 METAR KATL 101352Z 09004KT 10SM FEW150 SCT250 01/M07 A3029 RMK AO2 SLP264 T00111072=
201012101252 METAR KATL 101252Z 09005KT 10SM FEW150 SCT250 M01/M08 A3028 RMK AO2 SLP262 T10111083=
201012101152 METAR KATL 101152Z 08004KT 10SM SCT150 M01/M09 A3027 RMK AO2 SLP259 T10111089 10011 21017 53008=
201012101052 METAR KATL 101052Z 07004KT 10SM SCT150 M01/M08 A3026 RMK AO2 SLP254 T10111083=
201012100952 METAR KATL 100952Z 12004KT 10SM BKN150 00/M09 A3025 RMK AO2 SLP249 T00001089=
201012100852 METAR KATL 100852Z 00000KT 10SM SCT150 00/M08 A3025 RMK AO2 SLP250 T00001083 50000=
201012100752 METAR KATL 100752Z 13003KT 10SM SCT150 00/M09 A3026 RMK AO2 SLP253 T00001089=
201012100652 METAR KATL 100652Z 11004KT 10SM SCT150 BKN200 01/M08 A3025 RMK AO2 SLP248 T00061083=
201012100552 METAR KATL 100552Z 13003KT 10SM SCT150 BKN200 01/M09 A3025 RMK AO2 SLP249 T00111089 10050 20006 58006=
201012100452 METAR KATL 100452Z 13004KT 10SM SCT200 01/M09 A3025 RMK AO2 SLP253 T00111089 400831056=
201012100352 METAR KATL 100352Z 13004KT 10SM SCT250 02/M09 A3026 RMK AO2 SLP256 T00171089=
201012100252 METAR KATL 100252Z 13003KT 10SM SCT250 03/M09 A3026 RMK AO2 SLP257 T00281089 53006=
201012100152 METAR KATL 100152Z 13004KT 10SM FEW250 03/M09 A3024 RMK AO2 SLP251 T00281094=
201012100052 METAR KATL 100052Z 14003KT 10SM SCT150 SCT250 04/M09 A3025 RMK AO2 SLP253 T00391094=
201012092352 METAR KATL 092352Z 14004KT 10SM FEW250 05/M10 A3025 RMK AO2 SLP252 T00501100 10083 20044 58003=
201012092252 METAR KATL 092252Z 15004KT 10SM FEW250 06/M11 A3025 RMK AO2 SLP254 T00561106=
201012092152 METAR KATL 092152Z VRB03KT 10SM SCT250 07/M12 A3025 RMK AO2 SLP254 T00721117=
201012092052 METAR KATL 092052Z 00000KT 10SM SCT250 07/M12 A3026 RMK AO2 SLP254 T00721122 55008=
201012091952 METAR KATL 091952Z 14003KT 10SM FEW250 08/M11 A3025 RMK AO2 SLP251 T00781106=
201012091852 METAR KATL 091852Z 00000KT 10SM FEW250 08/M10 A3027 RMK AO2 SLP257 T00781100=
201012091752 METAR KATL 091752Z VRB04KT 10SM FEW250 06/M11 A3028 RMK AO2 SLP263 T00561106 10061 21044 58013=
201012091652 METAR KATL 091652Z 13006KT 10SM FEW250 04/M10 A3031 RMK AO2 SLP273 T00441100=
201012091552 METAR KATL 091552Z 10004KT 10SM FEW250 03/M09 A3033 RMK AO2 SLP279 T00331094=
201012091452 METAR KATL 091452Z 08008KT 10SM CLR 01/M09 A3032 RMK AO2 SLP277 T00111094 53020=
201012091352 METAR KATL 091352Z 08007KT 10SM CLR M01/M09 A3029 RMK AO2 SLP269 T10061094=
201012091252 METAR KATL 091252Z 08003KT 10SM CLR M04/M10 A3027 RMK AO2 SLP261 T10441100=
201012091152 METAR KATL 091152Z 04003KT 10SM CLR M04/M11 A3026 RMK AO2 SLP258 T10441106 11028 21056 51015=
201012091052 METAR KATL 091052Z 33004KT 10SM CLR M05/M11 A3026 RMK AO2 SLP257 T10501106=
201012090952 METAR KATL 090952Z 34004KT 10SM CLR M04/M11 A3022 RMK AO2 SLP247 T10441111=
201012090852 METAR KATL 090852Z 34004KT 10SM CLR M04/M11 A3021 RMK AO2 SLP242 T10441111 51006=
201012090752 METAR KATL 090752Z VRB04KT 10SM CLR M04/M12 A3020 RMK AO2 SLP239 T10391117=
201012090652 METAR KATL 090652Z 34007KT 10SM CLR M03/M12 A3021 RMK AO2 SLP241 T10331117=
201012090552 METAR KATL 090552Z 33007KT 10SM CLR M03/M12 A3020 RMK AO2 SLP236 T10281117 10000 21033 53004=
201012090452 METAR KATL 090452Z 32005KT 10SM CLR M03/M12 A3019 RMK AO2 SLP236 T10281117 400221056=
201012090352 METAR KATL 090352Z 32006KT 10SM FEW250 M02/M12 A3018 RMK AO2 SLP233 T10221122=
201012090252 METAR KATL 090252Z 32009KT 10SM FEW150 SCT250 M01/M12 A3018 RMK AO2 SLP233 T10111122 50005=
201012090152 METAR KATL 090152Z 33009KT 10SM FEW120 BKN150 OVC200 M01/M12 A3018 RMK AO2 SLP233 T10061122=
201012090052 METAR KATL 090052Z 31008KT 10SM SCT110 BKN150 OVC200 00/M12 A3018 RMK AO2 SLP232 VIRGA NW-NE T00001117=
201012082352 METAR KATL 082352Z 33007KT 10SM SCT100 BKN150 OVC200 00/M11 A3017 RMK AO2 SLP228 VIRGA OHD-ALQDS T00001106 10022 20000 53006=
201012082252 METAR KATL 082252Z 33009KT 10SM SCT100 BKN150 OVC200 00/M11 A3016 RMK AO2 SLP224 VIRGA OHD-ALQDS T00001111=
201012082152 METAR KATL 082152Z 32010KT 10SM BKN100 BKN150 OVC180 01/M11 A3014 RMK AO2 SLP219 VIRGA OHD & ALQDS T00111106=
201012082052 METAR KATL 082052Z 31008KT 10SM BKN100 BKN150 BKN180 02/M12 A3015 RMK AO2 SLP221 VIRGA ALQDS T00171117 55004=
201012081952 METAR KATL 081952Z 28006KT 10SM BKN095 BKN150 OVC180 01/M12 A3012 RMK AO2 SLP212 VIRGA OHD & ALQDS T00111117=
201012081852 METAR KATL 081852Z 33006KT 10SM BKN110 BKN150 OVC180 02/M11 A3011 RMK AO2 SLP208 VIRGA DSNT E & DSNT W-NW T00171111=
201012081752 METAR KATL 081752Z 29004KT 10SM FEW150 BKN180 BKN200 01/M11 A3016 RMK AO2 SLP224 VIRGA DSNT W T00061111 10006 21050 50000=
201012081652 METAR KATL 081652Z 34004KT 10SM FEW120 BKN150 BKN200 M01/M11 A3016 RMK AO2 SLP226 VIRGA DSNT E & DSNT SW-W T10061106=
201012081552 METAR KATL 081552Z 33005KT 10SM FEW120 BKN150 BKN200 M02/M11 A3018 RMK AO2 SLP230 VIRGA DSNT SW-W T10171106=
201012081452 METAR KATL 081452Z 34007KT 10SM FEW150 BKN180 BKN200 M03/M11 A3016 RMK AO2 SLP225 VIRGA SE-S-SW T10331106 50009=
201012081352 METAR KATL 081352Z COR 31007KT 10SM BKN150 BKN180 BKN200 M04/M11 A3016 RMK AO2 VIRGA OHD-NE-E-SE-S-SW SLP227 T10441106=
201012081252 METAR KATL 081252Z 30006KT 10SM SCT150 BKN250 M05/M11 A3017 RMK AO2 SLP228 T10501106=
201012081152 METAR KATL 081152Z 31008KT 10SM FEW150 SCT250 M05/M11 A3013 RMK AO2 SLP215 T10501106 11033 21056 53002=
201012081052 METAR KATL 081052Z 32005KT 10SM BKN180 M05/M11 A3010 RMK AO2 SLP204 T10501106=
201012080952 METAR KATL 080952Z 32006KT 10SM SCT180 M06/M11 A3011 RMK AO2 SLP208 T10561106=
201012080852 METAR KATL 080852Z 33010KT 10SM FEW150 SCT250 M05/M11 A3013 RMK AO2 SLP211 T10501111 58000=
201012080752 METAR KATL 080752Z 33010KT 10SM FEW250 M04/M11 A3013 RMK AO2 SLP212 T10441106=
201012080652 METAR KATL 080652Z 31007KT 10SM FEW250 M04/M11 A3013 RMK AO2 SLP214 T10391106=
201012080552 METAR KATL 080552Z 34009KT 10SM FEW250 M03/M11 A3013 RMK AO2 SLP212 T10331106 10006 21033 51004=
201012080452 METAR KATL 080452Z 34012G17KT 10SM FEW250 M03/M11 A3012 RMK AO2 SLP210 T10281106 400501050=
201012080352 METAR KATL 080352Z 34012G17KT 10SM FEW250 M02/M11 A3013 RMK AO2 SLP212 T10221106=
201012080252 METAR KATL 080252Z 32009KT 10SM FEW250 M02/M11 A3011 RMK AO2 SLP208 T10171106 53006=
201012080152 METAR KATL 080152Z 31008KT 10SM FEW250 M01/M11 A3010 RMK AO2 SLP205 T10111111=
201012080052 METAR KATL 080052Z 31008KT 10SM FEW250 00/M11 A3010 RMK AO2 SLP204 T00001106=
201012072352 METAR KATL 072352Z 29010KT 10SM FEW250 01/M11 A3010 RMK AO2 SLP203 T00061106 10050 20006 53014=
201012072252 METAR KATL 072252Z 29007KT 10SM FEW250 01/M11 A3007 RMK AO2 SLP195 T00111106=
201012072152 METAR KATL 072152Z 31011KT 10SM FEW250 03/M11 A3006 RMK AO2 SLP190 T00331106=
201012072052 METAR KATL 072052Z 33012KT 10SM FEW250 04/M11 A3005 RMK AO2 SLP186 T00441111 55002=
201012071952 METAR KATL 071952Z 29011G17KT 10SM CLR 04/M11 A3005 RMK AO2 SLP184 T00441106=
201012071852 METAR KATL 071852Z 29007KT 10SM CLR 04/M10 A3005 RMK AO2 SLP185 T00391100=
201012071752 METAR KATL 071752Z 30010G17KT 10SM CLR 03/M09 A3006 RMK AO2 SLP189 T00331094 10033 21050 58004=
201012071652 METAR KATL 071652Z 32009KT 10SM CLR 02/M09 A3007 RMK AO2 SLP194 T00171094=
201012071552 METAR KATL 071552Z 32012KT 10SM FEW040 01/M09 A3008 RMK AO2 SLP197 T00061089=
201012071452 METAR KATL 071452Z 32015G22KT 10SM FEW030 M01/M09 A3007 RMK AO2 SLP194 T10061089 53008=
201012071352 METAR KATL 071352Z 29008KT 10SM CLR M03/M09 A3006 RMK AO2 SLP191 T10281089=
201012071252 METAR KATL 071252Z 29008KT 10SM CLR M04/M09 A3006 RMK AO2 SLP190 T10441094=
201012071152 METAR KATL 071152Z 28008KT 10SM CLR M05/M10 A3005 RMK AO2 SLP187 T10501100 11028 21050 53002=
201012071052 METAR KATL 071052Z 28008KT 10SM CLR M04/M10 A3005 RMK AO2 SLP186 T10441100=
201012070952 METAR KATL 070952Z 28010KT 10SM CLR M04/M10 A3004 RMK AO2 SLP183 T10441100=
201012070852 METAR KATL 070852Z 29009KT 10SM CLR M04/M10 A3004 RMK AO2 SLP182 T10391100 58007=
201012070752 METAR KATL 070752Z 30010KT 10SM CLR M03/M10 A3005 RMK AO2 SLP186 T10331100=
201012070652 METAR KATL 070652Z 30011KT 10SM CLR M03/M10 A3006 RMK AO2 SLP188 T10331100=
201012070552 METAR KATL 070552Z 31011KT 10SM CLR M03/M11 A3006 RMK AO2 SLP190 T10331106 10006 21033 58005=
201012070452 METAR KATL 070452Z 32014KT 10SM CLR M03/M11 A3007 RMK AO2 PK WND 35027/0402 SLP192 T10281111 400441028=
201012070352 METAR KATL 070352Z 33016G25KT 10SM CLR M02/M12 A3008 RMK AO2 PK WND 32028/0340 SLP196 T10221117=
201012070252 METAR KATL 070252Z 32017G23KT 10SM CLR M02/M12 A3008 RMK AO2 PK WND 31028/0200 SLP196 T10171117 55000=
201012070152 METAR KATL 070152Z 32014G21KT 10SM CLR M01/M12 A3008 RMK AO2 SLP196 T10111117=
201012070052 METAR KATL 070052Z 32013G21KT 10SM CLR M01/M11 A3008 RMK AO2 SLP196 T10061106=
201012062352 METAR KATL 062352Z 30014G18KT 10SM CLR 01/M10 A3008 RMK AO2 SLP196 T00061100 10044 20000 53006=
201012062252 METAR KATL 062252Z 30014G21KT 10SM FEW055 01/M10 A3007 RMK AO2 SLP193 T00061100=
201012062152 METAR KATL 062152Z 30016KT 10SM FEW055 03/M09 A3006 RMK AO2 SLP190 T00281094=
201012062052 METAR KATL 062052Z 30017G25KT 10SM FEW060 03/M09 A3006 RMK AO2 SLP188 T00331094 55013=
201012061952 METAR KATL 061952Z 31014G19KT 10SM FEW060 04/M10 A3005 RMK AO2 SLP186 T00441100=
201012061852 METAR KATL 061852Z 33014KT 10SM FEW060 04/M10 A3008 RMK AO2 SLP192 T00391100=
201012061752 METAR KATL 061752Z 31010G18KT 10SM FEW150 03/M11 A3010 RMK AO2 SLP201 T00331106 10039 21028 58026=
201012061652 METAR KATL 061652Z 32017G20KT 10SM FEW150 SCT250 02/M09 A3014 RMK AO2 SLP216 T00221094=
201012061552 METAR KATL 061552Z 30012KT 10SM FEW150 SCT250 01/M09 A3017 RMK AO2 SLP226 T00061089=
201012061452 METAR KATL 061452Z 34014KT 10SM FEW028 SCT150 BKN250 M01/M09 A3018 RMK AO2 SLP229 T10061089 53005=
201012061352 METAR KATL 061352Z 33012G18KT 10SM FEW028 SCT150 SCT200 M01/M08 A3017 RMK AO2 SLP228 T10111083=
201012061252 METAR KATL 061252Z 35012G18KT 10SM FEW030 M03/M08 A3016 RMK AO2 PK WND 31028/1153 SLP225 T10281083=
201012061152 METAR KATL 061152Z 32020G24KT 10SM FEW030 M03/M08 A3016 RMK AO2 PK WND 32026/1140 SLP225 T10281083 10000 21028 55001=
201012061052 METAR KATL 061052Z 32015G21KT 10SM SCT030 M02/M08 A3015 RMK AO2 SLP220 T10221083=
201012060952 METAR KATL 060952Z 32015G20KT 10SM FEW032 M02/M09 A3015 RMK AO2 PK WND 31026/0900 SLP220 T10221089=
201012060852 METAR KATL 060852Z 33014G27KT 10SM SCT035 M02/M09 A3016 RMK AO2 PK WND 35027/0848 SLP224 T10171089 58003=
201012060752 METAR KATL 060752Z 32011KT 10SM SCT033 M01/M08 A3017 RMK AO2 PK WND 32026/0718 SLP226 T10111078=
201012060652 METAR KATL 060652Z 33016G22KT 10SM BKN034 00/M08 A3017 RMK AO2 SLP225 T00001078=
201012060552 METAR KATL 060552Z 33016G26KT 10SM BKN034 00/M07 A3017 RMK AO2 PK WND 33026/0549 SLP226 T00001072 10011 20000 58004=
201012060452 METAR KATL 060452Z 34016G24KT 10SM BKN036 01/M07 A3020 RMK AO2 PK WND 35026/0424 SLP234 T00061072 400890006=
201012060352 METAR KATL 060352Z 33012G20KT 10SM SCT036 01/M07 A3019 RMK AO2 SLP232 T00061067=
201012060252 METAR KATL 060252Z 34011G20KT 10SM FEW045 01/M07 A3019 RMK AO2 SLP230 T00061067 51002=
201012060152 METAR KATL 060152Z 34010KT 10SM FEW045 SCT250 01/M07 A3018 RMK AO2 SLP230 T00061072=
201012060052 METAR KATL 060052Z 32009KT 10SM FEW250 01/M07 A3018 RMK AO2 SLP230 T00061072=
201012052352 METAR KATL 052352Z 33014KT 10SM FEW250 01/M08 A3018 RMK AO2 SLP227 T00111078 10044 20011 51009=
201012052252 METAR KATL 052252Z 34012KT 10SM FEW150 SCT250 02/M08 A3018 RMK AO2 SLP226 T00171078=
201012052152 METAR KATL 052152Z 35016G20KT 10SM FEW045 SCT150 BKN250 03/M07 A3016 RMK AO2 PK WND 32027/2054 SLP219 T00281072=
201012052052 METAR KATL 052052Z 35018G26KT 10SM FEW050 SCT150 BKN250 04/M08 A3015 RMK AO2 PK WND 36026/2049 SLP216 T00441078 53002=
201012051952 METAR KATL 051952Z 35017G24KT 10SM SCT043 SCT150 BKN250 04/M07 A3014 RMK AO2 SLP211 T00441072=
201012051852 METAR KATL 051852Z 34013G22KT 10SM SCT037 BKN150 BKN250 03/M06 A3014 RMK AO2 PK WND 35029/1808 SLP211 T00331061=
201012051752 METAR KATL 051752Z 35021G29KT 10SM BKN035 03/M06 A3014 RMK AO2 PK WND 35029/1750 SLP213 T00281056 10039 20022 50005=
201012051652 METAR KATL 051652Z 35017G22KT 10SM BKN033 03/M06 A3016 RMK AO2 SLP217 T00281056=
201012051552 METAR KATL 051552Z 33016G22KT 10SM BKN031 02/M05 A3016 RMK AO2 SLP217 T00221050=
201012051452 METAR KATL 051452Z COR 32013G19KT 9SM OVC027 03/M03 A3013 RMK AO2 SLP206 T00281033 53022=
201012051409 SPECI KATL 051409Z 34015G24KT 10SM OVC027 02/M04 A3010 RMK AO2=
201012051409 SPECI KATL 051409Z 34015G24KT 10SM OVC027 02/M04 A3010 RMK AO2=
201012051352 METAR KATL 051352Z 34016G25KT 10SM OVC030 03/M04 A3009 RMK AO2 PK WND 34029/1303 SLP194 T00281039=
201012051328 SPECI KATL 051328Z 34014G25KT 10SM OVC030 03/M04 A3009 RMK AO2 PK WND 34029/1303 BINOVC=
201012051328 SPECI KATL 051328Z 34014G25KT 10SM OVC030 03/M04 A3009 RMK AO2 PK WND 34029/1303 BINOVC=
201012051252 METAR KATL 051252Z 34015G24KT 10SM OVC023 03/M03 A3007 RMK AO2 PK WND 01028/1203 SLP186 BINOVC T00281028=
201012051152 METAR KATL 051152Z 34020G30KT 10SM OVC026 03/M03 A3006 RMK AO2 PK WND 35030/1152 SLP181 T00331028 10067 20033 53022=
201012051052 METAR KATL 051052Z 33019G26KT 10SM OVC028 03/M02 A3003 RMK AO2 PK WND 32029/1015 SLP172 T00331022=
201012051040 SPECI KATL 051040Z 34015G24KT 10SM OVC029 04/M02 A3003 RMK AO2 PK WND 32029/1015=
201012051040 SPECI KATL 051040Z 34015G24KT 10SM OVC029 04/M02 A3003 RMK AO2 PK WND 32029/1015=
201012050952 METAR KATL 050952Z 34017G24KT 10SM OVC032 04/M02 A3001 RMK AO2 PK WND 33028/0904 SLP165 T00441022=
201012050852 METAR KATL 050852Z 33012G20KT 10SM BKN033 05/M02 A2999 RMK AO2 PK WND 33026/0837 SLP157 T00501017 52012=
201012050752 METAR KATL 050752Z 34021G27KT 10SM BKN035 06/M01 A2998 RMK AO2 PK WND 33027/0751 SLP153 T00561011=
201012050652 METAR KATL 050652Z 32015G21KT 10SM BKN036 06/M01 A2997 RMK AO2 SLP149 T00611011=
201012050552 METAR KATL 050552Z 32016G28KT 10SM BKN034 07/00 A2995 RMK AO2 PK WND 33033/0527 SLP144 60000 T00720000 10144 20072 53023=
201012050452 METAR KATL 050452Z 34021G25KT 10SM SCT025 09/03 A2993 RMK AO2 PK WND 33029/0419 SLP137 T00940033 401500017=
201012050352 METAR KATL 050352Z 30015G24KT 10SM SCT025 12/06 A2990 RMK AO2 PK WND 30030/0322 SLP124 T01170061=
201012050252 METAR KATL 050252Z 31015G22KT 10SM SCT025 13/08 A2988 RMK AO2 SLP121 60000 T01280083 53004=
201012050152 METAR KATL 050152Z 29009G18KT 10SM FEW023 SCT060 13/09 A2988 RMK AO2 SLP120 T01280094=
201012050052 METAR KATL 050052Z 30011G22KT 10SM FEW023 SCT048 BKN060 14/11 A2987 RMK AO2 RAE01B21E38 SLP118 P0000 T01390106=
201012042352 METAR KATL 042352Z 28010G18KT 9SM -RA SCT028 BKN037 OVC045 14/11 A2987 RMK AO2 RAB30 SLP118 P0000 60000 T01440106 10150 20139 53005=
201012042350 SPECI KATL 042350Z 29010G18KT 9SM -RA SCT028 BKN037 OVC045 14/11 A2987 RMK AO2 RAB30 P0000=
201012042350 SPECI KATL 042350Z 29010G18KT 9SM -RA SCT028 BKN037 OVC045 14/11 A2987 RMK AO2 RAB30 P0000=
201012042316 SPECI KATL 042316Z 27012KT 10SM BKN029 BKN038 OVC048 15/11 A2987 RMK AO2=
201012042316 SPECI KATL 042316Z 27012KT 10SM BKN029 BKN038 OVC048 15/11 A2987 RMK AO2=
201012042252 METAR KATL 042252Z 26013G18KT 10SM SCT028 SCT037 OVC050 15/10 A2986 RMK AO2 SLP114 T01500100=
201012042236 SPECI KATL 042236Z 26010G20KT 10SM SCT028 BKN035 OVC050 15/10 A2986 RMK AO2=
201012042236 SPECI KATL 042236Z 26010G20KT 10SM SCT028 BKN035 OVC050 15/10 A2986 RMK AO2=
201012042152 METAR KATL 042152Z 26015G21KT 10SM OVC025 15/10 A2986 RMK AO2 SLP114 T01500100=
201012042052 METAR KATL 042052Z 25012G18KT 10SM OVC025 15/09 A2986 RMK AO2 RAB1959E08 SLP112 P0000 60000 T01500094 56022 $=
201012041952 METAR KATL 041952Z 24015G21KT 10SM BKN029 OVC040 14/09 A2986 RMK AO2 DZB25E39 SLP114 P0000 T01440089 $=
201012041940 SPECI KATL 041940Z 24011G18KT 10SM BKN029 OVC040 14/09 A2987 RMK AO2 DZB25E39 P0000 $=
201012041940 SPECI KATL 041940Z 24011G18KT 10SM BKN029 OVC040 14/09 A2987 RMK AO2 DZB25E39 P0000 $=
201012041852 METAR KATL 041852Z 24011G19KT 10SM SCT025 BKN050 BKN070 OVC150 15/08 A2989 RMK AO2 SLP121 T01500078=
201012041752 METAR KATL 041752Z 24015G22KT 10SM FEW030 SCT065 BKN085 OVC150 14/07 A2992 RMK AO2 SLP135 T01390067 10139 20022 58040=
201012041652 METAR KATL 041652Z 24010KT 10SM FEW035 SCT065 BKN110 OVC150 12/04 A2999 RMK AO2 SLP157 T01170044=
201012041552 METAR KATL 041552Z 21009KT 10SM SCT040 BKN110 BKN150 09/01 A3002 RMK AO2 SLP169 T00890011=
201012041452 METAR KATL 041452Z COR 19007KT 10SM SCT060 BKN110 BKN150 07/00 A3005 RMK AO2 SLP180 T00670000 58007=
201012041352 METAR KATL 041352Z 20003KT 10SM FEW045 SCT100 BKN150 05/00 A3005 RMK AO2 SLP180 T00500000=
201012041252 METAR KATL 041252Z 00000KT 10SM FEW050 BKN150 04/M01 A3007 RMK AO2 SLP188 T00391006=
201012041152 METAR KATL 041152Z 20003KT 10SM SCT150 BKN200 02/M01 A3007 RMK AO2 SLP187 T00221011 10061 20017 56003=
201012041052 METAR KATL 041052Z 00000KT 10SM FEW150 BKN200 03/M01 A3007 RMK AO2 SLP188 T00281006=
201012040952 METAR KATL 040952Z 00000KT 10SM FEW150 SCT200 03/M01 A3006 RMK AO2 SLP184 T00281011=
201012040852 METAR KATL 040852Z 30003KT 10SM FEW150 BKN200 04/M01 A3008 RMK AO2 SLP187 T00441011 56002=
201012040752 METAR KATL 040752Z 31005KT 10SM BKN200 04/M01 A3008 RMK AO2 SLP188 T00441011=
201012040652 METAR KATL 040652Z 33005KT 10SM BKN200 06/M01 A3008 RMK AO2 SLP187 T00561006=
201012040552 METAR KATL 040552Z 31004KT 10SM BKN200 06/M01 A3009 RMK AO2 SLP189 T00561006 10100 20050 58007=
201012040452 METAR KATL 040452Z 31006KT 10SM SCT250 05/M01 A3010 RMK AO2 SLP195 T00501011 401500000=
201012040352 METAR KATL 040352Z 30004KT 10SM SCT250 06/M01 A3010 RMK AO2 SLP195 T00611011=
201012040252 METAR KATL 040252Z 31006KT 10SM FEW200 07/M01 A3011 RMK AO2 SLP199 T00671011 53001=
201012040152 METAR KATL 040152Z 27003KT 10SM FEW250 07/M01 A3010 RMK AO2 SLP196 T00721011=
201012040052 METAR KATL 040052Z VRB05KT 10SM FEW250 09/M02 A3010 RMK AO2 SLP199 T00941022=
201012032352 METAR KATL 032352Z 32004KT 10SM FEW250 10/M02 A3010 RMK AO2 SLP199 T01001022 10150 20094 50011=
201012032252 METAR KATL 032252Z 33010KT 10SM FEW150 11/M03 A3011 RMK AO2 SLP200 T01061028=
201012032152 METAR KATL 032152Z 32012KT 10SM FEW150 SCT250 13/M03 A3009 RMK AO2 SLP192 T01281028=
201012032052 METAR KATL 032052Z 29011KT 10SM FEW060 SCT150 SCT250 14/M01 A3007 RMK AO2 SLP186 T01441006 56009=
201012031952 METAR KATL 031952Z 29010KT 10SM FEW060 SCT150 BKN250 14/01 A3007 RMK AO2 SLP187 T01440006=
201012031852 METAR KATL 031852Z 26012KT 10SM FEW050 BKN200 BKN250 14/01 A3007 RMK AO2 SLP187 T01440011=
201012031752 METAR KATL 031752Z 27010KT 10SM BKN200 BKN250 14/02 A3010 RMK AO2 SLP195 T01390017 10139 20011 58018=
201012031652 METAR KATL 031652Z 29007KT 10SM FEW200 BKN250 12/01 A3012 RMK AO2 SLP205 T01220011=
201012031552 METAR KATL 031552Z 29009KT 10SM SCT250 11/00 A3015 RMK AO2 SLP215 T01060000=
201012031452 METAR KATL 031452Z 25005KT 10SM FEW250 09/M01 A3015 RMK AO2 SLP215 T00891011 56001=
201012031352 METAR KATL 031352Z 23004KT 10SM FEW150 04/M02 A3015 RMK AO2 SLP217 T00391022=
201012031252 METAR KATL 031252Z 22003KT 10SM FEW150 SCT250 01/M04 A3015 RMK AO2 SLP216 T00111044=
201012031152 METAR KATL 031152Z 00000KT 10SM FEW250 01/M04 A3015 RMK AO2 SLP218 T00111044 10028 20000 55003=
201012031052 METAR KATL 031052Z 00000KT 10SM CLR 01/M04 A3015 RMK AO2 SLP217 T00111044=
201012030952 METAR KATL 030952Z 00000KT 10SM CLR 01/M04 A3015 RMK AO2 SLP216 T00111039=
201012030852 METAR KATL 030852Z 00000KT 10SM CLR 00/M04 A3016 RMK AO2 SLP220 T00001039 58007=
201012030752 METAR KATL 030752Z 00000KT 10SM CLR 01/M04 A3018 RMK AO2 SLP226 T00061044=
201012030652 METAR KATL 030652Z 00000KT 10SM CLR 02/M05 A3018 RMK AO2 SLP225 T00221050=
201012030552 METAR KATL 030552Z 00000KT 10SM FEW120 02/M05 A3019 RMK AO2 SLP227 T00221050 10061 20017 58006=
201012030452 METAR KATL 030452Z 28003KT 10SM FEW120 03/M06 A3020 RMK AO2 SLP231 T00281056 401001022=
201012030352 METAR KATL 030352Z 30003KT 10SM FEW120 04/M06 A3021 RMK AO2 SLP235 T00441061=
201012030252 METAR KATL 030252Z 29003KT 10SM FEW120 04/M06 A3021 RMK AO2 SLP236 T00441061 56004=
201012030152 METAR KATL 030152Z 00000KT 10SM BKN120 04/M06 A3021 RMK AO2 SLP237 T00441056=
201012030052 METAR KATL 030052Z 32003KT 10SM FEW090 BKN120 06/M07 A3021 RMK AO2 SLP239 T00611072=
201012022352 METAR KATL 022352Z 31006KT 10SM SCT120 06/M08 A3022 RMK AO2 SLP241 T00561078 10100 20056 51004=
201012022252 METAR KATL 022252Z 32006KT 10SM FEW100 07/M08 A3021 RMK AO2 SLP239 T00671078=
201012022152 METAR KATL 022152Z 30006KT 10SM FEW100 SCT250 08/M09 A3021 RMK AO2 SLP236 T00831089=
201012022052 SPECI KATL 022052Z 33009KT 10SM FEW100 SCT250 09/M09 A3020 RMK AO2 SLP235 T00941089 56012=
201012021952 METAR KATL 021952Z 34012KT 10SM FEW100 SCT150 SCT250 09/M09 A3021 RMK AO2 SLP235 T00941094=
201012021852 METAR KATL 021852Z 32010KT 10SM FEW150 SCT250 09/M08 A3022 RMK AO2 SLP241 T00941078=
201012021752 METAR KATL 021752Z 31011G22KT 10SM FEW150 SCT250 08/M08 A3024 RMK AO2 SLP246 T00831083 10083 21022 58011=
201012021652 METAR KATL 021652Z 32008KT 10SM FEW150 SCT200 07/M07 A3026 RMK AO2 SLP255 T00671067=
201012021552 METAR KATL 021552Z 32012KT 10SM FEW200 04/M07 A3028 RMK AO2 SLP262 T00441067=
201012021452 METAR KATL 021452Z 31007KT 10SM FEW150 SCT200 SCT250 02/M05 A3027 RMK AO2 SLP259 T00221050 51010=
201012021352 METAR KATL 021352Z 31007KT 10SM FEW100 SCT150 BKN250 00/M06 A3026 RMK AO2 SLP257 T00001056=
201012021252 METAR KATL 021252Z 31006KT 10SM SCT250 M01/M06 A3025 RMK AO2 SLP253 T10111056=
201012021152 METAR KATL 021152Z 30004KT 10SM SCT250 M02/M06 A3024 RMK AO2 SLP251 T10221056 10000 21022 53010=
201012021052 METAR KATL 021052Z 32005KT 10SM FEW250 M02/M06 A3022 RMK AO2 SLP244 T10221056=
201012020952 METAR KATL 020952Z 29006KT 10SM FEW250 M01/M06 A3022 RMK AO2 SLP241 T10111061=
201012020852 METAR KATL 020852Z 30005KT 10SM FEW250 M02/M06 A3021 RMK AO2 SLP238 T10171056 55003=
201012020752 METAR KATL 020752Z 31005KT 10SM SCT150 M01/M06 A3021 RMK AO2 SLP237 T10111061=
201012020652 METAR KATL 020652Z 30005KT 10SM FEW250 M01/M06 A3021 RMK AO2 SLP238 T10061061=
201012020552 METAR KATL 020552Z 27004KT 10SM FEW250 00/M07 A3022 RMK AO2 SLP241 T00001067 10033 21006 50003=
201012020452 METAR KATL 020452Z 29007KT 10SM FEW250 00/M06 A3022 RMK AO2 SLP242 T00001061 400720000=
201012020352 METAR KATL 020352Z 28003KT 10SM FEW250 01/M07 A3021 RMK AO2 SLP239 T00111067=
201012020252 METAR KATL 020252Z 30003KT 10SM CLR 02/M07 A3021 RMK AO2 SLP238 T00171067 53012=
201012020152 METAR KATL 020152Z 29005KT 10SM CLR 03/M07 A3019 RMK AO2 SLP232 T00281067=
201012020052 METAR KATL 020052Z 31005KT 10SM CLR 03/M07 A3018 RMK AO2 SLP229 T00281067=
201012012352 METAR KATL 012352Z 29007KT 10SM CLR 03/M07 A3017 RMK AO2 SLP226 T00331067 10072 20033 53014=
201012012252 METAR KATL 012252Z 31007KT 10SM CLR 04/M07 A3015 RMK AO2 SLP217 T00441072=
201012012152 METAR KATL 012152Z 29011KT 10SM CLR 06/M07 A3014 RMK AO2 SLP211 T00611072=
201012012052 METAR KATL 012052Z 29013KT 10SM CLR 07/M06 A3013 RMK AO2 SLP209 T00671061 55002=
201012011952 METAR KATL 011952Z 30016G21KT 10SM CLR 07/M07 A3012 RMK AO2 SLP206 T00671067=
201012011852 METAR KATL 011852Z 32014G20KT 10SM CLR 07/M06 A3012 RMK AO2 SLP206 T00671061=
201012011752 METAR KATL 011752Z 30014G22KT 10SM FEW045 06/M06 A3014 RMK AO2 PK WND 31026/1736 SLP210 T00561056 10056 20011 58009=
201012011652 METAR KATL 011652Z 30017G23KT 10SM FEW040 04/M06 A3016 RMK AO2 SLP218 T00441056=
201012011552 METAR KATL 011552Z 30011G22KT 10SM FEW035 03/M04 A3017 RMK AO2 PK WND 30027/1528 SLP223 T00331044=
201012011452 METAR KATL 011452Z 29020G28KT 10SM FEW030 02/M04 A3017 RMK AO2 PK WND 29028/1452 SLP220 T00221044 53024=
201012011431 SPECI KATL 011431Z 30018G26KT 10SM SCT029 02/M04 A3016 RMK AO2 PK WND 30026/1431=
201012011431 SPECI KATL 011431Z 30018G26KT 10SM SCT029 02/M04 A3016 RMK AO2 PK WND 30026/1431=
201012011352 METAR KATL 011352Z 29016G24KT 10SM BKN029 01/M04 A3014 RMK AO2 SLP211 T00111039=
201012011252 METAR KATL 011252Z 29015KT 10SM BKN025 01/M03 A3011 RMK AO2 SLP203 T00111033=
