##########################################################
# Query made at 04/19/2024 23:16:35 UTC
# Time interval: from 05/01/2010 12:00  to 05/31/2010 12:59  UTC
##########################################################

##########################################################
# KATL, Atlanta, Hartsfield - Jackson Atlanta International Airport (United States)
# WMO index: 72219. WIGOS ID: 0-20000-0-72219
# Latitude 33-38-59N. Longitude 084-25-00W. Altitude 312 m.
##########################################################

201005311252 METAR KATL 311252Z 19005KT 6SM BR BKN005 BKN010 21/19 A3007 RMK AO2 SLP176 T02060194 $=
201005311152 METAR KATL 311152Z 22003KT 6SM BR BKN005 OVC045 20/19 A3006 RMK AO2 SLP172 70001 T02000194 10206 20200 53005 $=
201005311111 SPECI KATL 311111Z 17004KT 6SM BR BKN005 OVC045 20/19 A3005 RMK AO2 $=
201005311111 SPECI KATL 311111Z 17004KT 6SM BR BKN005 OVC045 20/19 A3005 RMK AO2 $=
201005311052 METAR KATL 311052Z 16003KT 6SM BR FEW005 BKN045 BKN120 20/19 A3005 RMK AO2 SLP170 T02000189 $=
201005311042 SPECI KATL 311042Z 16004KT 6SM BR FEW005 BKN046 BKN120 20/19 A3005 RMK AO2 $=
201005311042 SPECI KATL 311042Z 16004KT 6SM BR FEW005 BKN046 BKN120 20/19 A3005 RMK AO2 $=
201005310952 METAR KATL 310952Z 13003KT 10SM SCT039 BKN050 OVC100 20/19 A3005 RMK AO2 SLP168 T02000189 $=
201005310852 METAR KATL 310852Z 13004KT 10SM FEW006 BKN090 OVC110 21/19 A3004 RMK AO2 SLP165 T02060189 53005 $=
201005310752 METAR KATL 310752Z 12004KT 10SM BKN008 OVC015 20/18 A3004 RMK AO2 SLP162 T02000183 $=
201005310744 SPECI KATL 310744Z 12004KT 10SM BKN008 20/18 A3003 RMK AO2 $=
201005310744 SPECI KATL 310744Z 12004KT 10SM BKN008 20/18 A3003 RMK AO2 $=
201005310652 METAR KATL 310652Z 12004KT 10SM SCT120 BKN150 BKN200 20/18 A3003 RMK AO2 SLP159 T02000183 $=
201005310552 METAR KATL 310552Z 11004KT 10SM SCT120 BKN150 BKN200 21/18 A3003 RMK AO2 SLP160 60000 T02060178 10222 20200 58004 $=
201005310452 METAR KATL 310452Z 00000KT 10SM FEW008 BKN120 BKN150 20/18 A3004 RMK AO2 SLP164 T02000183 402780194 $=
201005310352 METAR KATL 310352Z 00000KT 10SM SCT006 BKN150 20/19 A3004 RMK AO2 SLP165 T02000189 $=
201005310252 METAR KATL 310252Z 12003KT 10SM FEW008 BKN100 OVC130 20/19 A3004 RMK AO2 RAE27 SLP165 P0000 60000 T02000189 51010 $=
201005310248 SPECI KATL 310248Z 11004KT 10SM FEW008 SCT019 BKN100 OVC130 20/18 A3004 RMK AO2 RAE27 P0000 $=
201005310248 SPECI KATL 310248Z 11004KT 10SM FEW008 SCT019 BKN100 OVC130 20/18 A3004 RMK AO2 RAE27 P0000 $=
201005310216 SPECI KATL 310216Z 18003KT 10SM -RA FEW008 SCT011 OVC021 20/18 A3004 RMK AO2 P0000 $=
201005310216 SPECI KATL 310216Z 18003KT 10SM -RA FEW008 SCT011 OVC021 20/18 A3004 RMK AO2 P0000 $=
201005310152 METAR KATL 310152Z 23007KT 10SM -RA FEW009 BKN014 OVC019 20/18 A3003 RMK AO2 SLP163 OCNL LTGIC DSNT NE CB DSNT NE BINOVC NE-SE P0000 T02000183 $=
201005310125 SPECI KATL 310125Z 20011KT 10SM -RA FEW009 BKN014 BKN034 OVC200 21/19 A3002 RMK AO2 FRQ LTGICCG DSNT NE CB DSNT NE P0000 $=
201005310125 SPECI KATL 310125Z 20011KT 10SM -RA FEW009 BKN014 BKN034 OVC200 21/19 A3002 RMK AO2 FRQ LTGICCG DSNT NE CB DSNT NE P0000 $=
201005310052 METAR KATL 310052Z 18009KT 8SM -RA FEW015 BKN034 BKN060 OVC150 22/20 A3003 RMK AO2 RAB13 SLP161 OCNL LTGIC DSNT NE CB DSNT NE P0000 T02170200 $=
201005302352 METAR KATL 302352Z 10004KT 9SM FEW046 BKN120 OVC150 22/20 A3001 RMK AO2 RAE07 SLP155 P0000 60001 T02220200 10278 20222 53015 $=
201005302252 METAR KATL 302252Z 14007KT 6SM -RA BR SCT020 BKN048 OVC110 22/20 A2998 RMK AO2 SLP146 P0001 T02220200 $=
201005302152 METAR KATL 302152Z 17010KT 8SM -RA FEW016 SCT025TCU BKN080 BKN150 BKN200 24/21 A2998 RMK AO2 RAB41 SLP145 CB DSNT NE & SW & NW TCU OHD-NW-NE P0000 T02440206 $=
201005302052 METAR KATL 302052Z 12012KT 10SM SCT031 BKN055 BKN110 BKN200 27/19 A2996 RMK AO2 SLP138 OCNL LTGIC DSNT E CB DSNT N NE-E SE AND S T02670194 56016 $=
201005301952 METAR KATL 301952Z 16008KT 10SM SCT028 SCT043 BKN090 BKN200 27/19 A2998 RMK AO2 SLP143 CB DSNT NE-SE S AND W T02670194 $=
201005301852 METAR KATL 301852Z 13007KT 10SM SCT025 SCT055 BKN065 BKN200 27/19 A2999 RMK AO2 SLP146 OCNL LTGIC DSNT SE CB DSNT SE T02670194 $=
201005301752 METAR KATL 301752Z 10006KT 10SM SCT024CB SCT038 BKN065 BKN150 26/19 A3001 RMK AO2 TSB00E25RAB26E39 SLP155 CB SE MOV N CB DSNT S SHRA DSNT SE-S P0000 60000 T02560189 10256 20206 58002 $=
201005301726 SPECI KATL 301726Z 12008KT 10SM -RA SCT024CB BKN038 BKN046 BKN150 24/20 A3002 RMK AO2 TSB00E25RAB26 CB NE-SE-S MOV N P0000 $=
201005301726 SPECI KATL 301726Z 12008KT 10SM -RA SCT024CB BKN038 BKN046 BKN150 24/20 A3002 RMK AO2 TSB00E25RAB26 CB NE-SE-S MOV N P0000 $=
201005301700 SPECI KATL 301700Z 15006KT 10SM TS SCT024CB BKN031 BKN060 BKN150 26/19 A3003 RMK AO2 TSB00 OCNL LTGIC E-SE ONCL LTGIC DSNT SE TS E-SE MOV N CB DSNT SE AND S $=
201005301700 SPECI KATL 301700Z 15006KT 10SM TS SCT024CB BKN031 BKN060 BKN150 26/19 A3003 RMK AO2 TSB00 OCNL LTGIC E-SE ONCL LTGIC DSNT SE TS E-SE MOV N CB DSNT SE AND S $=
201005301652 METAR KATL 301652Z VRB05KT 10SM SCT023CB BKN031 BKN060 BKN150 26/19 A3003 RMK AO2 SLP161 OCNL LTGIC DSNT SE CB E-SE MOV N CB DSNT SE T02560194 $=
201005301634 SPECI KATL 301634Z VRB04KT 10SM SCT028CB SCT037 BKN055 BKN150 24/19 A3003 RMK AO2 CB E-SE MOV N OCNL LTGIC DSNT SE CB DSNT SE $=
201005301634 SPECI KATL 301634Z VRB04KT 10SM SCT028CB SCT037 BKN055 BKN150 24/19 A3003 RMK AO2 CB E-SE MOV N OCNL LTGIC DSNT SE CB DSNT SE $=
201005301552 METAR KATL 301552Z VRB04KT 10SM SCT018 BKN035 BKN070 OVC150 24/19 A3003 RMK AO2 SLP162 T02440194 $=
201005301534 SPECI KATL 301534Z 14005KT 10SM SCT018 BKN070 BKN110 OVC250 24/19 A3003 RMK AO2 $=
201005301534 SPECI KATL 301534Z 14005KT 10SM SCT018 BKN070 BKN110 OVC250 24/19 A3003 RMK AO2 $=
201005301452 METAR KATL 301452Z VRB06KT 10SM BKN016 BKN060 BKN150 OVC250 24/20 A3002 RMK AO2 SLP157 T02390200 50007 $=
201005301411 SPECI KATL 301411Z 12006KT 10SM BKN014 BKN017 BKN055 OVC150 23/20 A3002 RMK AO2 $=
201005301411 SPECI KATL 301411Z 12006KT 10SM BKN014 BKN017 BKN055 OVC150 23/20 A3002 RMK AO2 $=
201005301352 METAR KATL 301352Z 14006KT 10SM SCT012 BKN017 BKN055 BKN200 22/19 A3003 RMK AO2 SLP160 T02220194 $=
201005301321 SPECI KATL 301321Z 13006KT 10SM SCT010 SCT022 BKN060 BKN200 22/19 A3002 RMK AO2 $=
201005301321 SPECI KATL 301321Z 13006KT 10SM SCT010 SCT022 BKN060 BKN200 22/19 A3002 RMK AO2 $=
201005301252 METAR KATL 301252Z 13006KT 10SM SCT005 BKN025 BKN050 BKN200 21/19 A3001 RMK AO2 SLP156 T02110194 $=
201005301237 SPECI KATL 301237Z 10006KT 10SM SCT005 BKN025 BKN050 BKN200 21/19 A3001 RMK AO2 $=
201005301237 SPECI KATL 301237Z 10006KT 10SM SCT005 BKN025 BKN050 BKN200 21/19 A3001 RMK AO2 $=
201005301201 SPECI KATL 301201Z 11006KT 7SM BKN005 OVC040 21/20 A3000 RMK AO2 $=
201005301201 SPECI KATL 301201Z 11006KT 7SM BKN005 OVC040 21/20 A3000 RMK AO2 $=
201005301152 METAR KATL 301152Z 12005KT 1SM OVC005 21/20 A3000 RMK AO2 SFC VIS 7 SLP151 60000 70106 T02060200 10206 20194 52017 $=
201005301117 SPECI KATL 301117Z 12004KT 1SM OVC005 21/19 A2999 RMK AO2 SFC VIS 7 CIG 002V008 $=
201005301117 SPECI KATL 301117Z 12004KT 1SM OVC005 21/19 A2999 RMK AO2 SFC VIS 7 CIG 002V008 $=
201005301052 METAR KATL 301052Z 13004KT 1SM BR OVC003 21/20 A2999 RMK AO2 SFC VIS 4 RAB13E25 CIG 001V006 SLP146 P0000 T02060200 $=
201005301039 SPECI KATL 301039Z 13004KT 1SM BR OVC001 21/20 A2998 RMK AO2 SFC VIS 4 RAB13E25 P0000 $=
201005301039 SPECI KATL 301039Z 13004KT 1SM BR OVC001 21/20 A2998 RMK AO2 SFC VIS 4 RAB13E25 P0000 $=
201005300952 METAR KATL 300952Z 10004KT 1SM BR OVC003 21/19 A2996 RMK AO2 SFC VIS 5 SLP136 T02060194 $=
201005300942 SPECI KATL 300942Z 10004KT 1SM BR OVC003 20/19 A2996 RMK AO2 SFC VIS 6 $=
201005300942 SPECI KATL 300942Z 10004KT 1SM BR OVC003 20/19 A2996 RMK AO2 SFC VIS 6 $=
201005300859 SPECI KATL 300859Z 10006KT 2SM BR OVC004 20/19 A2995 RMK AO2 SFC VIS 6 $=
201005300859 SPECI KATL 300859Z 10006KT 2SM BR OVC004 20/19 A2995 RMK AO2 SFC VIS 6 $=
201005300852 METAR KATL 300852Z 10006KT 7SM OVC004 20/19 A2995 RMK AO2 SLP132 T02000194 55002 $=
201005300818 SPECI KATL 300818Z 09005KT 8SM OVC004 20/19 A2993 RMK AO2 $=
201005300818 SPECI KATL 300818Z 09005KT 8SM OVC004 20/19 A2993 RMK AO2 $=
201005300752 METAR KATL 300752Z 08004KT 9SM BKN005 OVC140 19/19 A2993 RMK AO2 SLP124 T01940189 $=
201005300713 SPECI KATL 300713Z 10003KT 10SM BKN005 OVC140 20/19 A2993 RMK AO2 $=
201005300713 SPECI KATL 300713Z 10003KT 10SM BKN005 OVC140 20/19 A2993 RMK AO2 $=
201005300652 METAR KATL 300652Z 09005KT 10SM SCT005 SCT050 BKN140 20/19 A2994 RMK AO2 SLP129 T02000189 $=
201005300552 METAR KATL 300552Z 09010KT 8SM SCT004 BKN050 OVC110 20/19 A2995 RMK AO2 SLP134 60057 T02000194 10211 20200 56003 $=
201005300452 METAR KATL 300452Z 00000KT 6SM BR FEW005 SCT046 SCT120 BKN250 21/20 A2996 RMK AO2 RAE27 SLP136 P0003 T02060200 402830194 $=
201005300352 METAR KATL 300352Z 00000KT 5SM -RA BR SCT003 BKN030 BKN120 OVC250 21/19 A2996 RMK AO2 TSE13 SLP135 TS MOV NW P0010 T02060194 $=
201005300313 SPECI KATL 300313Z 00000KT 7SM -RA FEW007 BKN040 BKN070 OVC150 21/19 A2995 RMK AO2 TSE13 OCNL LTGIC DSNT NW TS MOV NW CB DSNT NW P0009 $=
201005300313 SPECI KATL 300313Z 00000KT 7SM -RA FEW007 BKN040 BKN070 OVC150 21/19 A2995 RMK AO2 TSE13 OCNL LTGIC DSNT NW TS MOV NW CB DSNT NW P0009 $=
201005300252 METAR KATL 300252Z 07007KT 5SM -TSRA BR FEW007 BKN033CB OVC100 21/19 A2996 RMK AO2 TSB12RAB0153 SLP139 FRQ LTGICCG SE-OHD-NW TS SE-OHD-NW MOV NW P0044 60044 T02060194 51017 $=
201005300243 SPECI KATL 300243Z 11004KT 7SM -TSRA FEW007 BKN033CB OVC095 21/19 A2997 RMK AO2 TSB12RAB0153 FRQ LTGICCG SE-OHD-NW TS SE-OHD-NW MOV NW P0044 $=
201005300243 SPECI KATL 300243Z 11004KT 7SM -TSRA FEW007 BKN033CB OVC095 21/19 A2997 RMK AO2 TSB12RAB0153 FRQ LTGICCG SE-OHD-NW TS SE-OHD-NW MOV NW P0044 $=
201005300227 SPECI KATL 300227Z 00000KT 7SM R09R/2800VP6000FT -TSRA SCT004 BKN016 OVC033CB 21/19 A2995 RMK AO2 TSB12RAB0153 OCNL LTGIC OHD-SE TS OHD-SE MOV NW P0044 $=
201005300227 SPECI KATL 300227Z 00000KT 7SM R09R/2800VP6000FT -TSRA SCT004 BKN016 OVC033CB 21/19 A2995 RMK AO2 TSB12RAB0153 OCNL LTGIC OHD-SE TS OHD-SE MOV NW P0044 $=
201005300223 SPECI KATL 300223Z 34006KT 1SM R09R/2800V6000FT +TSRA BR SCT004 BKN016 OVC033CB 21/19 A2995 RMK AO2 TSB12RAB0153 OCNL LTGIC OHD-SE TS OHD-SE MOV NW P0036 $=
201005300223 SPECI KATL 300223Z 34006KT 1SM R09R/2800V6000FT +TSRA BR SCT004 BKN016 OVC033CB 21/19 A2995 RMK AO2 TSB12RAB0153 OCNL LTGIC OHD-SE TS OHD-SE MOV NW P0036 $=
201005300212 SPECI KATL 300212Z 00000KT 7SM -TSRA FEW007 BKN033CB OVC050 21/20 A2995 RMK AO2 TSB12RAB0153 OCNL LTGICCG SE TS SE MOV NW P0003 $=
201005300212 SPECI KATL 300212Z 00000KT 7SM -TSRA FEW007 BKN033CB OVC050 21/20 A2995 RMK AO2 TSB12RAB0153 OCNL LTGICCG SE TS SE MOV NW P0003 $=
201005300159 SPECI KATL 300159Z 25005KT 9SM FEW007 SCT033TCU BKN060 BKN130 BKN200 21/19 A2994 RMK AO2 RAB53RAEMM FRQ LTGICCG DSNT SE CB DSNT SE TCU S-SW P0000 $=
201005300159 SPECI KATL 300159Z 25005KT 9SM FEW007 SCT033TCU BKN060 BKN130 BKN200 21/19 A2994 RMK AO2 RAB53RAEMM FRQ LTGICCG DSNT SE CB DSNT SE TCU S-SW P0000 $=
201005300152 METAR KATL 300152Z 21007G16KT 10SM SCT050 BKN085 BKN120 BKN200 21/19 A2994 RMK AO2 SLP133 FRQ LTGICCG DSNT SE CB DSNT SE T02110194=
201005300052 METAR KATL 300052Z 32008KT 8SM FEW050 BKN070 BKN120 OVC200 21/19 A2994 RMK AO2 RAE42 SLP130 P0000 T02110194=
201005292352 METAR KATL 292352Z 17004KT 10SM -RA FEW033 BKN120 BKN150 OVC250 21/19 A2991 RMK AO2 WSHFT 2252 TSE32 SLP123 TS DSIPT CB DSNT SW-NW P0048 60049 T02110189 10283 20206 53012=
201005292332 SPECI KATL 292332Z 16006KT 8SM -RA FEW033CB SCT047 BKN120 BKN150 OVC250 21/19 A2990 RMK AO2 WSHFT 2252 TSE32 TS DSIPT SHRA W P0048=
201005292332 SPECI KATL 292332Z 16006KT 8SM -RA FEW033CB SCT047 BKN120 BKN150 OVC250 21/19 A2990 RMK AO2 WSHFT 2252 TSE32 TS DSIPT SHRA W P0048=
201005292308 SPECI KATL 292308Z 17008KT 6SM R09R/3500VP6000FT +TSRA FEW008 BKN033CB BKN047 BKN150 OVC250 21/17 A2990 RMK AO2 WSHFT 2252 FRQ LTGICCG OHD-SW TS OHD-SW MOV NE VIS LWR SW P0024=
201005292308 SPECI KATL 292308Z 17008KT 6SM R09R/3500VP6000FT +TSRA FEW008 BKN033CB BKN047 BKN150 OVC250 21/17 A2990 RMK AO2 WSHFT 2252 FRQ LTGICCG OHD-SW TS OHD-SW MOV NE VIS LWR SW P0024=
201005292252 METAR KATL 292252Z 14013G21KT 6SM R09R/3500VP6000FT -TSRA FEW028 BKN039CB BKN055 BKN150 OVC250 23/19 A2989 RMK AO2 TSB24RAE05B24 SLP116 FRQ LTGICCG OHD-SE TS OHD-SE MOV NE VIS LWR SE P0001 T02330189=
201005292224 SPECI KATL 292224Z 22005KT 9SM -TSRA SCT039CB BKN100 BKN150 OVC250 24/20 A2988 RMK AO2 TSB24RAE05B24 OCNL LTGIC SE TS VC SE MOV E TCU E SHRA E P0001=
201005292224 SPECI KATL 292224Z 22005KT 9SM -TSRA SCT039CB BKN100 BKN150 OVC250 24/20 A2988 RMK AO2 TSB24RAE05B24 OCNL LTGIC SE TS VC SE MOV E TCU E SHRA E P0001=
201005292152 METAR KATL 292152Z 09008KT 10SM -RA BKN040TCU BKN085 BKN250 26/19 A2988 RMK AO2 RAB48 SLP111 CB DSNT NE AND SE TCU OHD P0000 T02560189=
201005292052 METAR KATL 292052Z 11007KT 10SM SCT039 BKN060 BKN090 27/18 A2988 RMK AO2 RAB16E49 SLP107 CB DSNT SE TCU DSNT W P0000 60000 T02670183 56014=
201005291952 METAR KATL 291952Z COR 11006KT 10SM SCT039 BKN060 BKN075 28/18 A2989 RMK AO2 SLP111 CB DSNT SE TCU DSNT NW T02780183=
201005291852 METAR KATL 291852Z 08009G15KT 10SM SCT041 BKN050 BKN200 27/19 A2990 RMK AO2 SLP115 CB DSNT E AND W T02720189=
201005291752 METAR KATL 291752Z 12009KT 10SM SCT035 BKN048 BKN120 27/18 A2992 RMK AO2 SLP122 CB DSNT SW T02670178 10272 20200 58004=
201005291652 METAR KATL 291652Z 12009KT 10SM SCT026 BKN034 BKN045 BKN130 25/18 A2994 RMK AO2 SLP129 T02500183=
201005291642 SPECI KATL 291642Z VRB06KT 10SM SCT026 BKN034 BKN045 BKN130 26/19 A2994 RMK AO2=
201005291642 SPECI KATL 291642Z VRB06KT 10SM SCT026 BKN034 BKN045 BKN130 26/19 A2994 RMK AO2=
201005291552 METAR KATL 291552Z 13006KT 9SM SCT016 BKN021 BKN030 BKN130 24/19 A2994 RMK AO2 SLP131 T02440189=
201005291505 SPECI KATL 291505Z 09012G15KT 8SM BKN016 BKN120 23/19 A2994 RMK AO2=
201005291505 SPECI KATL 291505Z 09012G15KT 8SM BKN016 BKN120 23/19 A2994 RMK AO2=
201005291452 METAR KATL 291452Z 10010KT 8SM BKN014 OVC120 23/19 A2993 RMK AO2 SLP127 T02280189 52008=
201005291352 METAR KATL 291352Z 12012G17KT 7SM BKN013 OVC120 22/19 A2992 RMK AO2 SLP126 T02170189=
201005291252 METAR KATL 291252Z 10011G18KT 7SM BKN011 OVC120 21/19 A2991 RMK AO2 SLP122 T02110189=
201005291228 SPECI KATL 291228Z 10010KT 8SM OVC010 21/19 A2991 RMK AO2 CIG 007V013=
201005291228 SPECI KATL 291228Z 10010KT 8SM OVC010 21/19 A2991 RMK AO2 CIG 007V013=
201005291152 METAR KATL 291152Z 09012G18KT 7SM OVC008 20/18 A2991 RMK AO2 SLP120 70167 T02000183 10211 20194 53007=
201005291052 METAR KATL 291052Z 09011KT 6SM BR BKN009 OVC120 19/18 A2990 RMK AO2 SLP117 T01940178=
201005291022 SPECI KATL 291022Z 10009KT 9SM BKN009 OVC120 19/18 A2989 RMK AO2=
201005291022 SPECI KATL 291022Z 10009KT 9SM BKN009 OVC120 19/18 A2989 RMK AO2=
201005290952 METAR KATL 290952Z 09012KT 9SM BKN012 BKN090 BKN250 19/18 A2989 RMK AO2 SLP111 T01940178=
201005290947 SPECI KATL 290947Z 09011KT 9SM BKN012 BKN090 BKN250 19/18 A2988 RMK AO2=
201005290947 SPECI KATL 290947Z 09011KT 9SM BKN012 BKN090 BKN250 19/18 A2988 RMK AO2=
201005290852 METAR KATL 290852Z 07012KT 10SM FEW090 SCT120 SCT250 20/18 A2986 RMK AO2 SLP102 T02000178 55001=
201005290752 METAR KATL 290752Z 07010KT 10SM FEW075 SCT120 SCT250 21/18 A2986 RMK AO2 SLP100 T02060183=
201005290652 METAR KATL 290652Z 07006KT 10SM FEW075 SCT120 BKN250 21/18 A2986 RMK AO2 SLP099 T02060183=
201005290552 METAR KATL 290552Z 08007KT 10SM FEW070 SCT120 BKN250 21/18 A2987 RMK AO2 SLP103 60007 T02060183 10228 20200 53003=
201005290452 METAR KATL 290452Z 10006KT 10SM FEW070 BKN120 BKN250 21/18 A2986 RMK AO2 TSE02 SLP099 TS DSIPTD T02110183 403220200=
201005290403 SPECI KATL 290403Z 11004KT 10SM FEW050 BKN070 BKN150 BKN250 21/19 A2986 RMK AO2 TSE02 TS DSIPTD=
201005290403 SPECI KATL 290403Z 11004KT 10SM FEW050 BKN070 BKN150 BKN250 21/19 A2986 RMK AO2 TSE02 TS DSIPTD=
201005290352 METAR KATL 290352Z 10005KT 10SM TS FEW050CB SCT070 BKN150 BKN250 21/18 A2986 RMK AO2 TSB30 SLP101 OCNL LTGIC VC NW-N TS VC NW-N MOV NW T02110183=
201005290331 SPECI KATL 290331Z 10005KT 10SM TS FEW050CB BKN070 OVC150 21/19 A2986 RMK AO2 TSB30 OCNL LTGIC VC N-NE TS VC N-NE MOV NW=
201005290331 SPECI KATL 290331Z 10005KT 10SM TS FEW050CB BKN070 OVC150 21/19 A2986 RMK AO2 TSB30 OCNL LTGIC VC N-NE TS VC N-NE MOV NW=
201005290252 METAR KATL 290252Z 03003KT 10SM FEW050 SCT090 BKN150 BKN200 22/19 A2986 RMK AO2 SLP100 60007 T02220189 53010=
201005290152 METAR KATL 290152Z 02006KT 10SM FEW080 SCT120 BKN200 22/19 A2984 RMK AO2 SLP095 OCNL LTG DSNT N T02170189=
201005290052 METAR KATL 290052Z VRB06KT 10SM FEW055TCU SCT080 BKN120 OVC200 21/18 A2983 RMK AO2 PK WND 35028/2355 TSE38RAE27 SLP092 TS MOV NE TCU NE-SE P0007 T02110178=
201005290039 SPECI KATL 290039Z 00000KT 9SM FEW055TCU SCT080 BKN120 OVC200 20/18 A2982 RMK AO2 PK WND 35028/2355 TSE38RAE27 TS MOV NE TCU NE-SE P0007=
201005290039 SPECI KATL 290039Z 00000KT 9SM FEW055TCU SCT080 BKN120 OVC200 20/18 A2982 RMK AO2 PK WND 35028/2355 TSE38RAE27 TS MOV NE TCU NE-SE P0007=
201005282352 METAR KATL 282352Z 33012KT 7SM -TSRA SCT055CB BKN075 BKN150 OVC200 21/18 A2983 RMK AO2 WSHFT 2254 SLP092 VIS LWR W-NW FRQ LTGCGICCA NW-NE TS NW-NE MOV N P0011 60160 T02110183 10322 20206 51018=
201005282312 SPECI KATL 282312Z 02013KT 5SM TSRA FEW020 BKN050CB BKN090 OVC200 22/18 A2982 RMK AO2 WSHFT 2254 FRQ LTGCGIC N-NE TS N-NE MOV N P0010=
201005282312 SPECI KATL 282312Z 02013KT 5SM TSRA FEW020 BKN050CB BKN090 OVC200 22/18 A2982 RMK AO2 WSHFT 2254 FRQ LTGCGIC N-NE TS N-NE MOV N P0010=
201005282252 METAR KATL 282252Z VRB05KT 3SM +TSRA FEW020 BKN050CB BKN090 OVC200 23/16 A2982 RMK AO2 PK WND 11034/2225 WSHFT 2219 RAB10 SLP090 FRQ LTGCGIC NW-NE TS NW-NE MOV N P0149 T02330161=
201005282236 SPECI KATL 282236Z 34010G29KT 5SM R09R/5500VP6000FT TSRA FEW020 BKN050CB BKN090 OVC200 21/18 A2982 RMK AO2 PK WND 11034/2225 WSHFT 2219 RAB10 FRQ LTGCGIC SE-OHD-NW TS SE-OHD-NW MOV NW P0113=
201005282236 SPECI KATL 282236Z 34010G29KT 5SM R09R/5500VP6000FT TSRA FEW020 BKN050CB BKN090 OVC200 21/18 A2982 RMK AO2 PK WND 11034/2225 WSHFT 2219 RAB10 FRQ LTGCGIC SE-OHD-NW TS SE-OHD-NW MOV NW P0113=
201005282228 SPECI KATL 282228Z 10020G34KT 4SM R09R/2000VP6000FT +TSRA FEW020 BKN050CB OVC090 23/17 A2980 RMK AO2 PK WND 11034/2225 RAB10 VIS SW-NW 1 1/2 FRQ LTGCG SE-OHD-NW TS SE-OHD-NW MOV NW P0099=
201005282228 SPECI KATL 282228Z 10020G34KT 4SM R09R/2000VP6000FT +TSRA FEW020 BKN050CB OVC090 23/17 A2980 RMK AO2 PK WND 11034/2225 RAB10 VIS SW-NW 1 1/2 FRQ LTGCG SE-OHD-NW TS SE-OHD-NW MOV NW P0099=
201005282218 SPECI KATL 282218Z 34009G20KT 240V080 1SM R09R/1200VP6000FT +TSRA FEW020 BKN050CB OVC090 22/18 A2981 RMK AO2 RAB10 FRQ LTGCG SE-OHD-NW TS SE-OHD-NW MOV NW P0033=
201005282218 SPECI KATL 282218Z 34009G20KT 240V080 1SM R09R/1200VP6000FT +TSRA FEW020 BKN050CB OVC090 22/18 A2981 RMK AO2 RAB10 FRQ LTGCG SE-OHD-NW TS SE-OHD-NW MOV NW P0033=
201005282152 METAR KATL 282152Z 28006KT 10SM TS SCT060CB BKN090 BKN200 29/17 A2979 RMK AO2 TSB41 SLP079 FRQ LTGCG NW TS NW MOV NW CB DSNT NE TCU OHD-SE T02890167=
201005282143 SPECI KATL 282143Z 24007KT 10SM TS SCT065CB BKN090 BKN200 29/17 A2979 RMK AO2 TSB41 FRQ LTGCG NW TS NW MOV NW CB DSNT NE TCU=
201005282143 SPECI KATL 282143Z 24007KT 10SM TS SCT065CB BKN090 BKN200 29/17 A2979 RMK AO2 TSB41 FRQ LTGCG NW TS NW MOV NW CB DSNT NE TCU=
201005282141 SPECI KATL 282141Z 23007KT 10SM TS SCT065CB BKN090 BKN200 29/17 A2979 RMK AO2 TSB41 OCNL LTGCG NW TS NW MOV NW CB DSNT NE TCU=
201005282141 SPECI KATL 282141Z 23007KT 10SM TS SCT065CB BKN090 BKN200 29/17 A2979 RMK AO2 TSB41 OCNL LTGCG NW TS NW MOV NW CB DSNT NE TCU=
201005282052 SPECI KATL 282052Z 19006KT 10SM FEW065TCU SCT090 BKN250 31/17 A2977 RMK AO2 SLP072 CB DSNT NE & S & NW TCU NE & NW T03060167 58022=
201005281952 METAR KATL 281952Z 00000KT 10SM FEW070TCU SCT090 BKN250 31/14 A2980 RMK AO2 SLP079 CB DSNT E & SE & SW & NW TCU N T03110139=
201005281852 METAR KATL 281852Z 08006KT 10SM FEW070TCU SCT090 SCT250 31/16 A2982 RMK AO2 SLP086 CB DSNT SE & S & SW & NW TCU NE & W & NW T03110156=
201005281752 METAR KATL 281752Z 10007KT 060V130 10SM FEW065TCU SCT100 SCT250 31/14 A2984 RMK AO2 SLP093 CB DSNT S & SW TCU NE & NW T03060144 10317 20239 58009=
201005281652 METAR KATL 281652Z 09009G16KT 10SM SCT060TCU 31/16 A2986 RMK AO2 SLP100 TCU S-SW-W-NW T03110161=
201005281552 METAR KATL 281552Z 07010KT 10SM FEW100 SCT250 30/17 A2987 RMK AO2 SLP103 T03000167=
201005281452 METAR KATL 281452Z 10007KT 10SM FEW250 29/18 A2987 RMK AO2 SLP102 T02890178 53004=
201005281352 METAR KATL 281352Z 11004KT 10SM FEW150 27/18 A2986 RMK AO2 SLP101 T02720183=
201005281252 METAR KATL 281252Z 07004KT 10SM CLR 25/18 A2986 RMK AO2 SLP101 T02500178=
201005281152 METAR KATL 281152Z 05005KT 10SM FEW120 24/17 A2985 RMK AO2 SLP100 70001 T02390167 10239 20200 51011=
201005281052 METAR KATL 281052Z 01005KT 10SM FEW120 22/17 A2984 RMK AO2 SLP096 T02170172=
201005280952 METAR KATL 280952Z 33004KT 10SM CLR 20/17 A2983 RMK AO2 SLP093 T02000172=
201005280852 METAR KATL 280852Z 00000KT 10SM CLR 21/18 A2982 RMK AO2 SLP087 T02060178 55004=
201005280752 METAR KATL 280752Z 34004KT 10SM CLR 22/18 A2982 RMK AO2 SLP085 T02170178=
201005280652 METAR KATL 280652Z 33006KT 10SM CLR 22/18 A2982 RMK AO2 SLP085 T02170178=
201005280552 METAR KATL 280552Z 31005KT 10SM CLR 22/18 A2983 RMK AO2 SLP091 T02220178 10244 20222 58008=
201005280452 METAR KATL 280452Z 32003KT 10SM FEW130 22/18 A2985 RMK AO2 SLP097 T02220178 403110189=
201005280352 METAR KATL 280352Z 29004KT 10SM BKN130 BKN250 23/17 A2986 RMK AO2 SLP101 T02280172=
201005280252 METAR KATL 280252Z 29004KT 10SM FEW120 SCT250 23/17 A2986 RMK AO2 SLP099 T02330172 51013=
201005280152 METAR KATL 280152Z 29005KT 10SM FEW200 SCT250 23/18 A2985 RMK AO2 SLP099 T02330178=
201005280052 METAR KATL 280052Z 28005KT 10SM FEW110 SCT200 24/18 A2983 RMK AO2 SLP092 T02390178=
201005272352 METAR KATL 272352Z 25004KT 10SM FEW055 SCT110 SCT200 24/18 A2982 RMK AO2 SLP088 TCU DSNT SW 60001 T02440178 10311 20239 55001=
201005272252 METAR KATL 272252Z 23006KT 10SM FEW055TCU SCT080 BKN110 BKN200 24/18 A2981 RMK AO2 TSB01E35 SLP087 TS MOV SW TCU NW T02440183=
201005272235 SPECI KATL 272235Z 24006KT 10SM SCT055TCU BKN080 BKN200 25/18 A2981 RMK AO2 TSB01E35 TS MOV SW TCU NW-W=
201005272235 SPECI KATL 272235Z 24006KT 10SM SCT055TCU BKN080 BKN200 25/18 A2981 RMK AO2 TSB01E35 TS MOV SW TCU NW-W=
201005272201 SPECI KATL 272201Z 27006KT 10SM TS FEW055CB SCT080 BKN200 24/18 A2981 RMK AO2 TSB01 OCNL LTGCG VC SW TS VC SW MOV SW=
201005272201 SPECI KATL 272201Z 27006KT 10SM TS FEW055CB SCT080 BKN200 24/18 A2981 RMK AO2 TSB01 OCNL LTGCG VC SW TS VC SW MOV SW=
201005272152 METAR KATL 272152Z 29007G21KT 10SM FEW055CB SCT080 BKN200 25/18 A2981 RMK AO2 RAB32E52 SLP086 CB SW MOV SW P0001 T02500178=
201005272101 SPECI KATL 272101Z 00000KT 10SM FEW060CB BKN080 BKN100 BKN200 30/15 A2982 RMK AO2 CB S MOV S SHRA S=
201005272101 SPECI KATL 272101Z 00000KT 10SM FEW060CB BKN080 BKN100 BKN200 30/15 A2982 RMK AO2 CB S MOV S SHRA S=
201005272052 METAR KATL 272052Z VRB05KT 10SM FEW060 BKN100 BKN200 30/17 A2982 RMK AO2 SLP087 CB DSNT NE & S TCU DSNT NE-E SHRA DSNT S T03000167 56017=
201005272035 SPECI KATL 272035Z 34006G15KT 10SM BKN060TCU BKN100 BKN200 31/17 A2982 RMK AO2 CB DSNT NE & S TCU OHD-NE-E-SE=
201005272035 SPECI KATL 272035Z 34006G15KT 10SM BKN060TCU BKN100 BKN200 31/17 A2982 RMK AO2 CB DSNT NE & S TCU OHD-NE-E-SE=
201005271952 METAR KATL 271952Z 30009G16KT 280V340 10SM SCT060 SCT090 31/17 A2983 RMK AO2 SLP090 CB DSNT S SHRA DSNT S T03110167=
201005271852 METAR KATL 271852Z VRB06KT 10SM SCT055TCU SCT100 30/17 A2985 RMK AO2 SLP098 TCU E-SE-S T03000167=
201005271752 METAR KATL 271752Z 32008G15KT 10SM SCT047TCU 29/17 A2987 RMK AO2 SLP104 TCU E-SE-S T02940172 10300 20206 58014=
201005271652 METAR KATL 271652Z VRB03KT 10SM FEW040TCU 28/18 A2989 RMK AO2 SLP112 TCU S T02780178=
201005271552 METAR KATL 271552Z 34004KT 10SM FEW035 SCT090 28/18 A2990 RMK AO2 SLP116 T02780178=
201005271452 METAR KATL 271452Z 27003KT 10SM FEW030 SCT090 SCT150 27/18 A2991 RMK AO2 SLP120 T02670183 50002=
201005271352 METAR KATL 271352Z 34005KT 10SM FEW085 SCT150 26/18 A2992 RMK AO2 SLP122 T02560178=
201005271252 METAR KATL 271252Z 33005KT 10SM FEW150 SCT250 23/18 A2992 RMK AO2 SLP122 T02280178=
201005271152 METAR KATL 271152Z 33006KT 10SM FEW150 21/18 A2991 RMK AO2 SLP118 T02060178 10206 20189 53005=
201005271052 METAR KATL 271052Z 32004KT 10SM FEW100 SCT150 SCT250 19/17 A2989 RMK AO2 SLP115 T01890172=
201005270952 METAR KATL 270952Z 34004KT 10SM FEW180 19/18 A2989 RMK AO2 SLP113 T01940178=
201005270852 METAR KATL 270852Z COR 33005KT 10SM BKN180 20/18 A2989 RMK AO2 SLP111 T02000178 56007=
201005270752 METAR KATL 270752Z 35006KT 10SM BKN120 OVC180 21/18 A2990 RMK AO2 SLP114 T02060178=
201005270652 METAR KATL 270652Z 33006KT 10SM BKN110 21/18 A2990 RMK AO2 SLP117 T02060178=
201005270552 METAR KATL 270552Z 32007KT 10SM BKN110 21/18 A2991 RMK AO2 SLP120 T02060178 10239 20206 58005=
201005270452 METAR KATL 270452Z 31009KT 10SM BKN130 BKN200 21/18 A2992 RMK AO2 SLP123 T02060178 402940172=
201005270352 METAR KATL 270352Z 31008KT 10SM FEW120 SCT200 21/18 A2993 RMK AO2 SLP124 T02110178=
201005270252 METAR KATL 270252Z 33007KT 10SM FEW100 BKN120 BKN200 21/17 A2993 RMK AO2 SLP126 T02110167 53008=
201005270152 METAR KATL 270152Z 31004KT 10SM FEW100 BKN120 BKN200 21/17 A2991 RMK AO2 SLP122 T02110167=
201005270052 METAR KATL 270052Z 29005KT 10SM FEW080 BKN120 BKN200 22/16 A2991 RMK AO2 SLP122 T02170161=
201005262352 METAR KATL 262352Z 34009KT 10SM FEW080 SCT110 BKN200 24/14 A2990 RMK AO2 SLP119 CB DSNT SW T02390144 10294 20239 55004=
201005262252 METAR KATL 262252Z 32009KT 10SM FEW055 SCT080 BKN110 BKN200 24/15 A2990 RMK AO2 SLP118 CB DSNT SW AND NW T02390150=
201005262152 METAR KATL 262152Z 02015KT 10SM SCT055TCU BKN080 BKN110 BKN200 27/16 A2991 RMK AO2 PK WND 01026/2142 WSHFT 2134 SLP120 CB DSNT NW TCU S-SW T02670161=
201005262052 METAR KATL 262052Z 30009KT 10SM FEW055 SCT070 SCT250 29/16 A2992 RMK AO2 SLP120 CB DSNT N-NE SHRA DSNT N-NE T02940161 58025=
201005261952 METAR KATL 261952Z 33009KT 10SM FEW050TCU SCT055 BKN070 BKN250 28/16 A2995 RMK AO2 SLP131 CB DSNT N TCU S & NW T02780161=
201005261852 METAR KATL 261852Z 34010KT 10SM SCT050 BKN100 BKN250 28/17 A2997 RMK AO2 SLP139 T02830172=
201005261752 METAR KATL 261752Z 32008KT 290V010 10SM BKN040 BKN080 BKN150 27/17 A2999 RMK AO2 SLP147 T02720167 10278 20189 58018=
201005261652 METAR KATL 261652Z 35007KT 320V020 10SM FEW040 SCT070 BKN150 27/17 A3001 RMK AO2 SLP154 T02670172=
201005261552 METAR KATL 261552Z 32009KT 10SM FEW035 BKN050 BKN070 BKN250 25/16 A3004 RMK AO2 SLP163 T02500161=
201005261452 METAR KATL 261452Z 31005KT 10SM FEW030 BKN050 BKN070 24/16 A3005 RMK AO2 SLP167 T02390161 50002=
201005261352 METAR KATL 261352Z 33006KT 10SM FEW025 BKN050 BKN070 22/16 A3005 RMK AO2 SLP168 T02220161=
201005261252 METAR KATL 261252Z 33007KT 10SM SCT055 BKN150 BKN250 21/17 A3006 RMK AO2 SLP169 T02110167=
201005261152 METAR KATL 261152Z 32004KT 10SM SCT150 19/16 A3004 RMK AO2 SLP165 T01890161 10206 20172 53001=
201005261052 METAR KATL 261052Z 32007KT 10SM FEW180 SCT250 18/16 A3004 RMK AO2 SLP165 T01780156=
201005260952 METAR KATL 260952Z 34004KT 10SM BKN075 BKN180 18/16 A3004 RMK AO2 SLP163 T01830156=
201005260852 METAR KATL 260852Z 02004KT 10SM FEW150 20/16 A3004 RMK AO2 SLP163 T02000156 55004=
201005260752 METAR KATL 260752Z 00000KT 10SM CLR 20/16 A3004 RMK AO2 SLP162 T02000156=
201005260652 METAR KATL 260652Z 00000KT 10SM CLR 20/16 A3005 RMK AO2 SLP166 T02000156=
201005260552 METAR KATL 260552Z 07005KT 10SM CLR 19/16 A3005 RMK AO2 SLP168 T01940156 10250 20189 58003=
201005260452 METAR KATL 260452Z 08004KT 10SM FEW250 20/15 A3006 RMK AO2 SLP172 T02000150 402780183=
201005260352 METAR KATL 260352Z 09003KT 10SM FEW250 22/15 A3006 RMK AO2 SLP172 T02170150=
201005260252 METAR KATL 260252Z 07006KT 10SM FEW250 22/15 A3006 RMK AO2 SLP171 T02170150 53004=
201005260152 METAR KATL 260152Z 00000KT 10SM FEW200 23/14 A3005 RMK AO2 SLP168 T02280144=
201005260052 METAR KATL 260052Z COR 12003KT 10SM FEW100 24/14 A3004 RMK AO2 SLP166 T02440144=
201005252352 METAR KATL 252352Z 09009KT 10SM FEW055 SCT090 SCT200 25/15 A3005 RMK AO2 SLP168 T02500150 10278 20244 55003=
201005252252 METAR KATL 252252Z 09010KT 10SM FEW055 SCT110 26/15 A3004 RMK AO2 SLP165 T02610150=
201005252152 METAR KATL 252152Z 10014G19KT 10SM FEW055TCU SCT070 BKN090 26/14 A3005 RMK AO2 SLP167 TCU OHD-NW AND DSNT NE-SE T02610144=
201005252052 METAR KATL 252052Z 11007KT 10SM SCT050 27/14 A3006 RMK AO2 SLP169 T02720139 57019=
201005251952 METAR KATL 251952Z 06008KT 10SM FEW050 SCT080 27/15 A3007 RMK AO2 SLP175 CB DSNT W T02670150=
201005251852 METAR KATL 251852Z 09012KT 10SM FEW045 BKN055 26/14 A3010 RMK AO2 SLP185 CB DSNT SW SHRA DSNT SW T02560139=
201005251752 METAR KATL 251752Z 08011KT 10SM FEW038TCU BKN050 BKN100 26/15 A3012 RMK AO2 SLP190 TCU S-SW-W T02560150 10261 20194 58003=
201005251652 METAR KATL 251652Z 11007KT 10SM BKN038 BKN050 BKN090 24/16 A3013 RMK AO2 SLP195 T02440156=
201005251552 METAR KATL 251552Z 09007KT 10SM BKN030 BKN040 BKN090 23/16 A3013 RMK AO2 SLP195 T02280161=
201005251455 SPECI KATL 251455Z 09010KT 10SM SCT023 BKN030 BKN090 23/17 A3013 RMK AO2=
201005251455 SPECI KATL 251455Z 09010KT 10SM SCT023 BKN030 BKN090 23/17 A3013 RMK AO2=
201005251452 METAR KATL 251452Z 09011KT 10SM BKN023 BKN035 BKN090 22/17 A3013 RMK AO2 SLP194 T02220167 51009=
201005251406 SPECI KATL 251406Z 08011KT 10SM FEW020 BKN025 BKN090 22/17 A3012 RMK AO2=
201005251406 SPECI KATL 251406Z 08011KT 10SM FEW020 BKN025 BKN090 22/17 A3012 RMK AO2=
201005251352 METAR KATL 251352Z 10010G16KT 10SM FEW020 BKN030 BKN090 22/17 A3012 RMK AO2 SLP191 T02220172=
201005251337 SPECI KATL 251337Z 09010KT 10SM SCT018 BKN033 22/17 A3012 RMK AO2=
201005251337 SPECI KATL 251337Z 09010KT 10SM SCT018 BKN033 22/17 A3012 RMK AO2=
201005251252 METAR KATL 251252Z 07015KT 10SM SCT016 BKN026 21/17 A3011 RMK AO2 SLP189 T02060167=
201005251237 SPECI KATL 251237Z 07012KT 10SM SCT014 BKN023 BKN034 21/17 A3011 RMK AO2=
201005251237 SPECI KATL 251237Z 07012KT 10SM SCT014 BKN023 BKN034 21/17 A3011 RMK AO2=
201005251152 METAR KATL 251152Z 09012KT 10SM BKN014 BKN023 19/17 A3010 RMK AO2 SLP185 T01940167 10194 20183 53004=
201005251052 METAR KATL 251052Z 08010KT 10SM BKN014 BKN018 19/17 A3010 RMK AO2 SLP184 T01890167=
201005250952 METAR KATL 250952Z 08008KT 10SM BKN012 OVC040 19/17 A3009 RMK AO2 SLP179 T01890167=
201005250852 METAR KATL 250852Z 09012KT 7SM BKN012 OVC019 19/17 A3009 RMK AO2 SLP179 T01890167 53003=
201005250816 SPECI KATL 250816Z 09013G17KT 6SM HZ BKN012 19/16 A3008 RMK AO2=
201005250816 SPECI KATL 250816Z 09013G17KT 6SM HZ BKN012 19/16 A3008 RMK AO2=
201005250752 METAR KATL 250752Z 09011KT 10SM SCT021 18/16 A3008 RMK AO2 SLP177 T01830161=
201005250652 METAR KATL 250652Z 08012KT 10SM FEW021 19/16 A3007 RMK AO2 SLP174 T01890156=
201005250552 METAR KATL 250552Z 09008KT 10SM FEW120 19/16 A3008 RMK AO2 SLP176 T01940156 10256 20194 51003=
201005250452 METAR KATL 250452Z 08009KT 10SM FEW120 20/16 A3007 RMK AO2 SLP175 T02000156 402830200=
201005250352 METAR KATL 250352Z 10007KT 10SM FEW120 21/16 A3008 RMK AO2 SLP175 T02110156=
201005250252 METAR KATL 250252Z COR 09011G20KT 10SM FEW120 SCT250 22/15 A3007 RMK AO2 SLP173 T02220150 51019=
201005250152 METAR KATL 250152Z 08012KT 10SM BKN120 BKN250 24/16 A3005 RMK AO2 SLP166 T02390156=
201005250052 METAR KATL 250052Z 08008KT 10SM FEW090 BKN120 BKN250 25/16 A3005 RMK AO2 SLP165 T02500161=
201005242352 METAR KATL 242352Z 08016KT 10SM FEW045 BKN200 25/16 A3001 RMK AO2 SLP154 T02500161 10283 20250 53000=
201005242252 METAR KATL 242252Z COR 08011KT 10SM FEW045 BKN200 26/17 A3001 RMK AO2 SLP153 T02610167=
201005242152 METAR KATL 242152Z 09011KT 10SM FEW045 SCT200 27/17 A3001 RMK AO2 SLP152 T02720167=
201005242052 METAR KATL 242052Z 10009KT 10SM FEW050TCU SCT100 SCT250 28/18 A3001 RMK AO2 SLP153 TCU NW-N T02780178 56019=
201005241952 METAR KATL 241952Z 07013KT 10SM FEW045TCU SCT055 SCT100 27/18 A3003 RMK AO2 SLP159 TCU NW T02720178=
201005241852 METAR KATL 241852Z 09010G16KT 10SM BKN040TCU 28/18 A3005 RMK AO2 SLP166 TCU ALQDS T02780183=
201005241752 METAR KATL 241752Z 08007KT 10SM FEW040TCU BKN055 28/19 A3007 RMK AO2 SLP172 TCU E & S T02780189 10278 20211 58003=
201005241652 METAR KATL 241652Z 06006KT 10SM SCT038 27/18 A3008 RMK AO2 SLP175 T02720183=
201005241552 METAR KATL 241552Z 10007G14KT 10SM FEW035 SCT055 27/17 A3009 RMK AO2 SLP178 T02670172=
201005241452 METAR KATL 241452Z 09008KT 10SM FEW035 SCT055 26/18 A3008 RMK AO2 SLP175 T02610178 51006=
201005241352 METAR KATL 241352Z 06006KT 10SM SCT055 24/18 A3008 RMK AO2 SLP175 T02390178=
201005241252 METAR KATL 241252Z 07008KT 10SM FEW030 SCT150 22/18 A3007 RMK AO2 SLP173 T02220178=
201005241152 METAR KATL 241152Z 07012KT 10SM FEW250 21/17 A3006 RMK AO2 SLP170 T02110172 10239 20206 53011=
201005241052 METAR KATL 241052Z 06008KT 10SM FEW030 21/17 A3005 RMK AO2 SLP164 T02110172=
201005240952 METAR KATL 240952Z 06009KT 10SM FEW030 SCT250 21/17 A3004 RMK AO2 SLP161 T02110172=
201005240852 METAR KATL 240852Z 06009KT 10SM CLR 22/17 A3003 RMK AO2 SLP157 T02170167 53001=
201005240752 METAR KATL 240752Z 05006KT 10SM FEW030 23/16 A3002 RMK AO2 SLP154 T02280161=
201005240652 METAR KATL 240652Z 02008KT 10SM CLR 23/15 A3002 RMK AO2 SLP154 T02330150=
201005240552 METAR KATL 240552Z 01003KT 10SM CLR 24/15 A3003 RMK AO2 SLP157 T02390150 10294 20233 58007=
201005240452 METAR KATL 240452Z 01007KT 10SM CLR 24/14 A3003 RMK AO2 SLP159 T02440144 403220194=
201005240352 METAR KATL 240352Z 34005KT 10SM CLR 24/16 A3004 RMK AO2 SLP162 T02390161=
201005240252 METAR KATL 240252Z 33007KT 10SM CLR 26/16 A3005 RMK AO2 SLP164 T02560161 53009=
201005240152 METAR KATL 240152Z 33008KT 10SM CLR 27/16 A3003 RMK AO2 SLP158 T02670161=
201005240052 METAR KATL 240052Z 33009KT 10SM CLR 28/16 A3003 RMK AO2 SLP159 T02780161=
201005232352 METAR KATL 232352Z 34010KT 10SM FEW065 29/17 A3002 RMK AO2 SLP155 T02940167 10322 20294 56006=
201005232252 METAR KATL 232252Z 35009KT 10SM FEW065 31/17 A3002 RMK AO2 SLP155 T03060172=
201005232152 METAR KATL 232152Z 33009KT 10SM FEW065 32/17 A3003 RMK AO2 SLP157 T03170167=
201005232052 METAR KATL 232052Z 34012KT 10SM SCT070 32/16 A3004 RMK AO2 SLP161 T03170161 58017=
201005231952 METAR KATL 231952Z VRB06KT 10SM SCT055 32/17 A3005 RMK AO2 SLP166 T03170167=
201005231852 METAR KATL 231852Z 32006KT 10SM SCT050 31/18 A3008 RMK AO2 SLP174 T03110178=
201005231752 METAR KATL 231752Z VRB04KT 10SM FEW050 31/19 A3009 RMK AO2 SLP178 T03060189 10306 20211 58010=
201005231652 METAR KATL 231652Z VRB05KT 10SM FEW045 29/18 A3011 RMK AO2 SLP184 T02940178=
201005231552 METAR KATL 231552Z 35010KT 10SM SCT035 29/19 A3012 RMK AO2 SLP187 T02890189=
201005231452 METAR KATL 231452Z 01003KT 10SM SCT035 28/19 A3012 RMK AO2 SLP188 T02780189 51010=
201005231352 METAR KATL 231352Z 30004KT 8SM FEW020 26/21 A3011 RMK AO2 SLP187 T02610211=
201005231252 METAR KATL 231252Z 30004KT 7SM CLR 23/21 A3011 RMK AO2 SLP185 T02330211=
201005231152 METAR KATL 231152Z 32005KT 4SM BR CLR 21/20 A3009 RMK AO2 SLP180 T02110200 10222 20194 53014=
201005231052 METAR KATL 231052Z 32003KT 4SM BR CLR 19/19 A3007 RMK AO2 SLP173 T01940189=
201005230952 METAR KATL 230952Z 29003KT 7SM CLR 20/19 A3005 RMK AO2 SLP168 T02000194=
201005230852 METAR KATL 230852Z 27003KT 4SM BR CLR 21/20 A3005 RMK AO2 SLP165 T02060200 56004=
201005230752 METAR KATL 230752Z 00000KT 4SM BR CLR 22/21 A3005 RMK AO2 SLP165 T02170206=
201005230652 METAR KATL 230652Z 00000KT 5SM BR CLR 22/21 A3005 RMK AO2 SLP166 T02170206=
201005230552 METAR KATL 230552Z 00000KT 5SM BR CLR 22/21 A3006 RMK AO2 SLP170 T02220211 10278 20222 58000=
201005230452 METAR KATL 230452Z 00000KT 7SM CLR 22/21 A3007 RMK AO2 SLP173 T02220211 402940183=
201005230352 METAR KATL 230352Z 00000KT 8SM CLR 23/21 A3007 RMK AO2 SLP173 T02280206=
201005230252 METAR KATL 230252Z 21003KT 9SM CLR 24/20 A3006 RMK AO2 SLP171 T02390200 51010=
201005230152 METAR KATL 230152Z 17003KT 10SM FEW040 25/19 A3006 RMK AO2 SLP168 T02500189=
201005230052 METAR KATL 230052Z 34003KT 10SM FEW040 26/16 A3004 RMK AO2 SLP163 T02610161=
201005222352 METAR KATL 222352Z 34006KT 10SM FEW040 28/18 A3003 RMK AO2 SLP160 T02780183 10294 20256 55004=
201005222252 METAR KATL 222252Z VRB05KT 10SM FEW040 SCT060 29/20 A3002 RMK AO2 SLP158 CB DSNT SE-S T02890200=
201005222152 METAR KATL 222152Z 25006KT 10SM SCT040 SCT055 29/20 A3003 RMK AO2 SLP161 T02890200=
201005222052 METAR KATL 222052Z VRB05KT 10SM SCT038 SCT048 29/20 A3004 RMK AO2 SLP164 CB DSNT S T02890200 56017=
201005221952 METAR KATL 221952Z 28004KT 10SM SCT039 29/21 A3006 RMK AO2 SLP169 T02890211=
201005221852 METAR KATL 221852Z VRB03KT 8SM SCT027 28/21 A3008 RMK AO2 SLP176 T02780211=
201005221752 METAR KATL 221752Z 00000KT 7SM SCT023 26/21 A3010 RMK AO2 SLP183 T02610206 10261 20194 58007=
201005221652 METAR KATL 221652Z 00000KT 6SM HZ BKN017 BKN022 BKN250 24/20 A3011 RMK AO2 SLP190 T02440200=
201005221638 SPECI KATL 221638Z 32004KT 6SM HZ BKN017 OVC250 24/20 A3012 RMK AO2=
201005221638 SPECI KATL 221638Z 32004KT 6SM HZ BKN017 OVC250 24/20 A3012 RMK AO2=
201005221552 METAR KATL 221552Z 34005KT 5SM BR BKN014 OVC200 23/20 A3012 RMK AO2 SLP193 T02330200=
201005221517 SPECI KATL 221517Z 29004KT 5SM BR BKN011 OVC200 23/20 A3012 RMK AO2=
201005221517 SPECI KATL 221517Z 29004KT 5SM BR BKN011 OVC200 23/20 A3012 RMK AO2=
201005221452 METAR KATL 221452Z 31005KT 5SM BR OVC009 22/19 A3012 RMK AO2 SLP193 T02220194 51009=
201005221352 METAR KATL 221352Z 00000KT 5SM BR OVC007 21/19 A3011 RMK AO2 SLP191 T02110189=
201005221257 SPECI KATL 221257Z 00000KT 3SM BR OVC005 20/18 A3010 RMK AO2 SFC VIS 6=
201005221257 SPECI KATL 221257Z 00000KT 3SM BR OVC005 20/18 A3010 RMK AO2 SFC VIS 6=
201005221252 METAR KATL 221252Z 14003KT 1 1/2SM BR OVC004 20/18 A3010 RMK AO2 SFC VIS 5 SLP188 T02000183=
201005221152 METAR KATL 221152Z 14004KT 1 1/2SM BR OVC003 19/18 A3009 RMK AO2 SFC VIS 4 SLP183 70064 T01940183 10194 20183 53010=
201005221101 SPECI KATL 221101Z 13003KT 1 1/2SM BR OVC003 19/18 A3007 RMK AO2 SFC VIS 3=
201005221101 SPECI KATL 221101Z 13003KT 1 1/2SM BR OVC003 19/18 A3007 RMK AO2 SFC VIS 3=
201005221052 METAR KATL 221052Z 13003KT 4SM BR OVC003 19/18 A3007 RMK AO2 SLP177 T01890178=
201005220952 METAR KATL 220952Z 14004KT 6SM BR BKN005 OVC045 18/18 A3006 RMK AO2 SLP172 T01830178=
201005220910 SPECI KATL 220910Z 10004KT 7SM BKN005 OVC045 18/18 A3005 RMK AO2=
201005220910 SPECI KATL 220910Z 10004KT 7SM BKN005 OVC045 18/18 A3005 RMK AO2=
201005220852 METAR KATL 220852Z 07003KT 8SM SCT005 SCT045 BKN120 19/18 A3006 RMK AO2 SLP172 T01890178 55007=
201005220752 METAR KATL 220752Z 10004KT 7SM FEW006 SCT047 BKN065 18/18 A3006 RMK AO2 SLP174 T01830178=
201005220652 METAR KATL 220652Z 15003KT 7SM BKN004 OVC075 18/18 A3006 RMK AO2 SLP172 T01830178=
201005220552 METAR KATL 220552Z 11004KT 7SM BKN004 OVC060 18/18 A3008 RMK AO2 SLP179 T01830178 10206 20178 58001=
201005220532 SPECI KATL 220532Z 12005KT 10SM BKN004 OVC060 18/17 A3008 RMK AO2=
201005220532 SPECI KATL 220532Z 12005KT 10SM BKN004 OVC060 18/17 A3008 RMK AO2=
201005220504 SPECI KATL 220504Z 13003KT 10SM BKN007 OVC065 18/17 A3008 RMK AO2=
201005220504 SPECI KATL 220504Z 13003KT 10SM BKN007 OVC065 18/17 A3008 RMK AO2=
201005220452 METAR KATL 220452Z 12005KT 10SM FEW005 BKN065 BKN250 18/17 A3008 RMK AO2 SLP181 T01830172 402390167=
201005220352 METAR KATL 220352Z 11005KT 10SM FEW005 SCT250 18/17 A3009 RMK AO2 SLP182 T01830167=
201005220252 METAR KATL 220252Z 11005KT 10SM SCT250 18/17 A3008 RMK AO2 SLP181 T01830172 53006=
201005220152 METAR KATL 220152Z 12004KT 10SM SCT250 19/17 A3007 RMK AO2 SLP177 T01890172=
201005220052 METAR KATL 220052Z 09005KT 10SM SCT120 SCT150 BKN250 19/17 A3006 RMK AO2 SLP174 T01940172=
201005212352 METAR KATL 212352Z 10005KT 10SM FEW010 SCT050 BKN100 BKN250 21/17 A3006 RMK AO2 SLP174 60037 T02060172 10239 20167 53002=
201005212252 METAR KATL 212252Z 13005KT 10SM SCT008 SCT050 BKN100 BKN250 21/17 A3005 RMK AO2 SLP171 T02110172=
201005212203 SPECI KATL 212203Z 15007KT 10SM SCT008 BKN040 BKN110 BKN250 20/18 A3006 RMK AO2=
201005212203 SPECI KATL 212203Z 15007KT 10SM SCT008 BKN040 BKN110 BKN250 20/18 A3006 RMK AO2=
201005212152 METAR KATL 212152Z 14007KT 10SM SCT010 BKN040 BKN110 BKN250 21/18 A3006 RMK AO2 SLP173 CB DSNT NE-E-SE T02060178=
201005212052 METAR KATL 212052Z 09007KT 10SM FEW040 BKN110 BKN250 21/18 A3006 RMK AO2 TSE09RAE32 PRESFR SLP172 CB DSNT NE-E-SE P0010 60037 T02060178 58017=
201005212010 SPECI KATL 212010Z 36006KT 6SM -RA BR FEW010 BKN020 OVC040 18/16 A3011 RMK AO2 TSE09 PRESFR FRQ LTGICCG DSNT NE-E-SE TS MOV E CB DSNT NE-E-SE P0008=
201005212010 SPECI KATL 212010Z 36006KT 6SM -RA BR FEW010 BKN020 OVC040 18/16 A3011 RMK AO2 TSE09 PRESFR FRQ LTGICCG DSNT NE-E-SE TS MOV E CB DSNT NE-E-SE P0008=
201005212003 SPECI KATL 212003Z 00000KT 3SM -TSRA BR SCT010CB BKN020 OVC040 17/16 A3012 RMK AO2 SFC VIS 4 PRESFR FRQ LTGICCG NE-E-SE TS NE-E-SE MOV E P0007=
201005212003 SPECI KATL 212003Z 00000KT 3SM -TSRA BR SCT010CB BKN020 OVC040 17/16 A3012 RMK AO2 SFC VIS 4 PRESFR FRQ LTGICCG NE-E-SE TS NE-E-SE MOV E P0007=
201005212000 SPECI KATL 212000Z 00000KT 2SM R09R/5500VP6000FT TSRA BR BKN010CB BKN020 OVC040 17/16 A3013 RMK AO2 SFC VIS 4 PRESFR FRQ LTGICCG NE-E-SE TS NE-E-SE MOV E P0007=
201005212000 SPECI KATL 212000Z 00000KT 2SM R09R/5500VP6000FT TSRA BR BKN010CB BKN020 OVC040 17/16 A3013 RMK AO2 SFC VIS 4 PRESFR FRQ LTGICCG NE-E-SE TS NE-E-SE MOV E P0007=
201005211952 METAR KATL 211952Z 00000KT 2SM R09R/4500VP6000FT +TSRA BR BKN010CB BKN020 OVC040 17/16 A3015 RMK AO2 PK WND 30035/1928 SFC VIS 2 1/2 TSB06RAB29 SLP205 FRQ LTGICCG OHD-NE-E-SE TS OHD-NE-E-SE MOV E P0027 T01670156=
201005211940 SPECI KATL 211940Z 29015G32KT 2SM R09R/6000VP6000FT +TSRA BR FEW009 BKN020CB OVC040 18/17 A3016 RMK AO2 PK WND 30035/1928 SFC VIS 2 1/2 TSB06RAB29 PRESRR FRQ LTGICCG OHD TS OHD MOV E P0006=
201005211940 SPECI KATL 211940Z 29015G32KT 2SM R09R/6000VP6000FT +TSRA BR FEW009 BKN020CB OVC040 18/17 A3016 RMK AO2 PK WND 30035/1928 SFC VIS 2 1/2 TSB06RAB29 PRESRR FRQ LTGICCG OHD TS OHD MOV E P0006=
201005211935 SPECI KATL 211935Z 30019G35KT 2 1/2SM R09R/6000VP6000FT +TSRA BR SQ BKN020CB BKN026 OVC060 19/17 A3014 RMK AO2 PK WND 30035/1928 TWR VIS 4 TSB06RAB29 CNS LTGICCG OHD-SW-NW TS OHD-SW-NW MOV E P0001=
201005211935 SPECI KATL 211935Z 30019G35KT 2 1/2SM R09R/6000VP6000FT +TSRA BR SQ BKN020CB BKN026 OVC060 19/17 A3014 RMK AO2 PK WND 30035/1928 TWR VIS 4 TSB06RAB29 CNS LTGICCG OHD-SW-NW TS OHD-SW-NW MOV E P0001=
201005211930 SPECI KATL 211930Z 30027G35KT 6SM -TSRA SQ BKN020CB BKN026 OVC060 22/18 A3014 RMK AO2 PK WND 30035/1928 TSB06RAB29 PRESRR CNS LTGICCG OHD-SW-NW TS OHD-SW-NW MOV E P0000 $=
201005211930 SPECI KATL 211930Z 30027G35KT 6SM -TSRA SQ BKN020CB BKN026 OVC060 22/18 A3014 RMK AO2 PK WND 30035/1928 TSB06RAB29 PRESRR CNS LTGICCG OHD-SW-NW TS OHD-SW-NW MOV E P0000 $=
201005211906 SPECI KATL 211906Z 18004KT 9SM TS SCT020CB BKN030 OVC060 24/19 A3009 RMK AO2 TSB06 CNS LTGICCG SW-NW TS SW-NW MOV E $=
201005211906 SPECI KATL 211906Z 18004KT 9SM TS SCT020CB BKN030 OVC060 24/19 A3009 RMK AO2 TSB06 CNS LTGICCG SW-NW TS SW-NW MOV E $=
201005211852 METAR KATL 211852Z 17005KT 9SM BKN020 BKN030 OVC080 23/19 A3010 RMK AO2 SLP187 CB DSNT SW-NW T02330189=
201005211752 METAR KATL 211752Z 14005KT 9SM BKN019 BKN080 OVC150 23/19 A3011 RMK AO2 SLP190 60027 T02330189 10233 20183 58003=
201005211703 SPECI KATL 211703Z 09005KT 10SM BKN019 BKN080 BKN150 22/19 A3012 RMK AO2=
201005211703 SPECI KATL 211703Z 09005KT 10SM BKN019 BKN080 BKN150 22/19 A3012 RMK AO2=
201005211652 METAR KATL 211652Z 00000KT 10SM FEW015 SCT050 BKN090 22/18 A3012 RMK AO2 SLP194 T02170183=
201005211559 SPECI KATL 211559Z 09005KT 8SM FEW007 BKN023 OVC050 21/18 A3012 RMK AO2=
201005211559 SPECI KATL 211559Z 09005KT 8SM FEW007 BKN023 OVC050 21/18 A3012 RMK AO2=
201005211552 METAR KATL 211552Z 11004KT 8SM BKN007 BKN050 OVC080 21/18 A3012 RMK AO2 SLP192 T02060178=
201005211513 SPECI KATL 211513Z 11007KT 8SM BKN007 BKN050 BKN150 BKN250 19/18 A3012 RMK AO2=
201005211513 SPECI KATL 211513Z 11007KT 8SM BKN007 BKN050 BKN150 BKN250 19/18 A3012 RMK AO2=
201005211452 METAR KATL 211452Z 13006KT 6SM BR FEW007 BKN060 BKN150 OVC250 18/18 A3012 RMK AO2 TSB1357B24E50RAE50 SLP192 FRQ LTGICCG DSNT E TS MOV E CB DSNT E P0016 60027 T01830178 51008 $=
201005211440 SPECI KATL 211440Z 14005KT 3SM -TSRA BR FEW007CB SCT016 BKN060 BKN250 18/18 A3011 RMK AO2 SFC VIS 6 TSB1357B24 FRQ LTGICCG E TS E MOV E P0016 $=
201005211440 SPECI KATL 211440Z 14005KT 3SM -TSRA BR FEW007CB SCT016 BKN060 BKN250 18/18 A3011 RMK AO2 SFC VIS 6 TSB1357B24 FRQ LTGICCG E TS E MOV E P0016 $=
201005211435 SPECI KATL 211435Z 14006KT 3SM R09R/3500VP6000FT -TSRA BR FEW007CB BKN050 OVC055 18/17 A3010 RMK AO2 TSB1357B24 FRQ LTGICCG NE-E TS=
201005211435 SPECI KATL 211435Z 14006KT 3SM R09R/3500VP6000FT -TSRA BR FEW007CB BKN050 OVC055 18/17 A3010 RMK AO2 TSB1357B24 FRQ LTGICCG NE-E TS NE-E MOV E P0016 $=
201005211434 SPECI KATL 211434Z 13008KT 1 1/2SM R09R/3500VP6000FT -TSRA BR FEW007CB BKN050 OVC055 18/17 A3010 RMK AO2 SFC VIS 3 TSB1357B24 FRQ LTGICCG NE-E TS NE-E MOV E P0016 $=
201005211434 SPECI KATL 211434Z 13008KT 1 1/2SM R09R/3500VP6000FT -TSRA BR FEW007CB BKN050 OVC055 18/17 A3010 RMK AO2 SFC VIS 3 TSB1357B24 FRQ LTGICCG NE-E TS NE-E MOV E P0016 $=
201005211432 SPECI KATL 211432Z 12009KT 1/2SM R09R/3500VP6000FT +TSRA FG BKN007CB BKN050 OVC055 18/17 A3010 RMK AO2 TSB1357B24 FRQ LTGICCG OHD TS OHD MOV E P0012 $=
201005211432 SPECI KATL 211432Z 12009KT 1/2SM R09R/3500VP6000FT +TSRA FG BKN007CB BKN050 OVC055 18/17 A3010 RMK AO2 TSB1357B24 FRQ LTGICCG OHD TS OHD MOV E P0012 $=
201005211429 SPECI KATL 211429Z 10010KT 1SM R09R/3500VP6000FT +TSRA BR BKN007CB BKN050 OVC055 18/17 A3011 RMK AO2 TSB1357B24 FRQ LTGICCG OHD TS OHD MOV E P0007=
201005211429 SPECI KATL 211429Z 10010KT 1SM R09R/3500VP6000FT +TSRA BR BKN007CB BKN050 OVC055 18/17 A3011 RMK AO2 TSB1357B24 FRQ LTGICCG OHD TS OHD MOV E P0007=
201005211425 SPECI KATL 211425Z 10008KT 6SM -TSRA BR FEW007CB BKN050 OVC060 18/17 A3012 RMK AO2 TSB1357B24 FRQ LTGICCG NE-E TS NE-E MOV E P0007=
201005211425 SPECI KATL 211425Z 10008KT 6SM -TSRA BR FEW007CB BKN050 OVC060 18/17 A3012 RMK AO2 TSB1357B24 FRQ LTGICCG NE-E TS NE-E MOV E P0007=
201005211411 SPECI KATL 211411Z AUTO 05010KT 2SM TSRA BR BKN010CB BKN050 OVC070 18/17 A3013 RMK AO2 SFC VIS 3 TSB1357 FRQ LTGICCG E-OHD-W TS E-OHD-W MOV E P0007=
201005211411 SPECI KATL 211411Z AUTO 05010KT 2SM TSRA BR BKN010CB BKN050 OVC070 18/17 A3013 RMK AO2 SFC VIS 3 TSB1357 FRQ LTGICCG E-OHD-W TS E-OHD-W MOV E P0007=
201005211407 SPECI KATL 211407Z 09009KT 2SM R09R/3500VP6000FT +TSRA BR BKN010CB BKN050 OVC070 18/17 A3011 RMK AO2 TSB1357 OCNL LTGICCG E-OHD-W TS E-OHD-W MOV E P0007=
201005211407 SPECI KATL 211407Z 09009KT 2SM R09R/3500VP6000FT +TSRA BR BKN010CB BKN050 OVC070 18/17 A3011 RMK AO2 TSB1357 OCNL LTGICCG E-OHD-W TS E-OHD-W MOV E P0007=
201005211402 SPECI KATL 211402Z 09010KT 2SM R09R/3500VP6000FT +TSRA BR FEW007CB BKN020 BKN060 BKN250 18/17 A3010 RMK AO2 TSB1357 OCNL LTGICCG OHD-W TS OHD-W MOV E P0004=
201005211402 SPECI KATL 211402Z 09010KT 2SM R09R/3500VP6000FT +TSRA BR FEW007CB BKN020 BKN060 BKN250 18/17 A3010 RMK AO2 TSB1357 OCNL LTGICCG OHD-W TS OHD-W MOV E P0004=
201005211357 SPECI KATL 211357Z 09008KT 5SM TSRA BR FEW007CB BKN020 BKN060 BKN250 18/17 A3011 RMK AO2 TSB57 OCNL LTGICCG E-OHD-W TS E-OHD-W MOV E P0001=
201005211357 SPECI KATL 211357Z 09008KT 5SM TSRA BR FEW007CB BKN020 BKN060 BKN250 18/17 A3011 RMK AO2 TSB57 OCNL LTGICCG E-OHD-W TS E-OHD-W MOV E P0001=
201005211352 METAR KATL 211352Z 09008KT 6SM -RA BR FEW007CB BKN050 BKN070 BKN250 18/17 A3012 RMK AO2 RAB38 SLP191 CB W & E-SE MOV E P0011 T01830172=
201005211344 SPECI KATL 211344Z 11008KT 3SM R09R/4500VP6000FT -RA BR FEW007CB BKN050 BKN065 18/17 A3011 RMK AO2 SFC VIS 6 RAB38 CB W & E-SE MOV E P0009=
201005211344 SPECI KATL 211344Z 11008KT 3SM R09R/4500VP6000FT -RA BR FEW007CB BKN050 BKN065 18/17 A3011 RMK AO2 SFC VIS 6 RAB38 CB W & E-SE MOV E P0009=
201005211252 METAR KATL 211252Z 07007KT 3SM BR SCT007 SCT024 BKN080 OVC200 19/17 A3010 RMK AO2 SFC VIS 6 RAE1157 SLP186 CB MOV NE P0000 T01940172=
201005211207 SPECI KATL 211207Z 10005KT 3SM BR SCT008 SCT024 OVC070 19/18 A3010 RMK AO2 SFC VIS 6 RAE1157 CB MOV NE P0000=
201005211207 SPECI KATL 211207Z 10005KT 3SM BR SCT008 SCT024 OVC070 19/18 A3010 RMK AO2 SFC VIS 6 RAE1157 CB MOV NE P0000=
201005211152 METAR KATL 211152Z 00000KT 3SM -RA BR SCT006 BKN022CB OVC110 18/17 A3010 RMK AO2 SFC VIS 6 TSE44 SLP183 TS MOV NE CB N-E MOV NE P0002 60044 70050 T01830172 10183 20178 51011=
201005211150 SPECI KATL 211150Z 00000KT 3SM -RA BR SCT006 BKN022CB OVC110 18/17 A3009 RMK AO2 SFC VIS 5 TSE44 TS MOV NE CB N-E MOV NE P0002=
201005211150 SPECI KATL 211150Z 00000KT 3SM -RA BR SCT006 BKN022CB OVC110 18/17 A3009 RMK AO2 SFC VIS 5 TSE44 TS MOV NE CB N-E MOV NE P0002=
201005211145 SPECI KATL 211145Z VRB04KT 2SM BR SCT006 BKN022CB OVC110 18/17 A3009 RMK AO2 SFC VIS 5 TSE44RAE43 TS MOV NE CB N-E MOV NE P0002=
201005211145 SPECI KATL 211145Z VRB04KT 2SM BR SCT006 BKN022CB OVC110 18/17 A3009 RMK AO2 SFC VIS 5 TSE44RAE43 TS MOV NE CB N-E MOV NE P0002=
201005211135 SPECI KATL 211135Z 35007G18KT 310V030 2SM -TSRA BR SCT006 OVC022CB 18/17 A3009 RMK AO2 SFC VIS 4 OCNL LTGIC N TS N MOV NE P0002=
201005211135 SPECI KATL 211135Z 35007G18KT 310V030 2SM -TSRA BR SCT006 OVC022CB 18/17 A3009 RMK AO2 SFC VIS 4 OCNL LTGIC N TS N MOV NE P0002=
201005211052 METAR KATL 211052Z 07007KT 8SM -TSRA FEW006 BKN022CB OVC070 18/17 A3007 RMK AO2 WSHFT 0956 SLP173 OCNL LTGIC VC W-NW TS VC W-NW MOV NE P0021 T01830172=
201005211012 SPECI KATL 211012Z 06011KT 3SM TSRA BR FEW007 OVC025CB 18/17 A3008 RMK AO2 WSHFT 0956 PRESFR OCNL LTGICCG N-E TS N-E MOV NE P0016=
201005211012 SPECI KATL 211012Z 06011KT 3SM TSRA BR FEW007 OVC025CB 18/17 A3008 RMK AO2 WSHFT 0956 PRESFR OCNL LTGICCG N-E TS N-E MOV NE P0016=
201005211009 SPECI KATL 211009Z 06010KT 3SM TSRA BR FEW007 OVC025CB 18/17 A3008 RMK AO2 PRESFR OCNL LTGICCG N-E TS N-E MOV NE P0015=
201005211009 SPECI KATL 211009Z 06010KT 3SM TSRA BR FEW007 OVC025CB 18/17 A3008 RMK AO2 PRESFR OCNL LTGICCG N-E TS N-E MOV NE P0015=
201005211002 SPECI KATL 211002Z 03010KT 1 3/4SM +TSRA BR FEW007 BKN018 OVC030CB 18/17 A3010 RMK AO2 OCNL LTGIC ALQDS TS ALQDS MOV NE P0012=
201005211002 SPECI KATL 211002Z 03010KT 1 3/4SM +TSRA BR FEW007 BKN018 OVC030CB 18/17 A3010 RMK AO2 OCNL LTGIC ALQDS TS ALQDS MOV NE P0012=
201005210956 SPECI KATL 210956Z 33010G25KT 1 3/4SM +TSRA BR FEW008 BKN035CB OVC060 18/17 A3011 RMK AO2 P0004=
201005210956 SPECI KATL 210956Z 33010G25KT 1 3/4SM +TSRA BR FEW008 BKN035CB OVC060 18/17 A3011 RMK AO2 P0004=
201005210952 METAR KATL 210952Z 29017G25KT 3SM TSRA BR FEW010 BKN035CB OVC060 18/17 A3011 RMK AO2 TSB30RAB0858 PRESRR SLP188 OCNL LTGIC OHD-S-W TS OHD-S-W MOV NE P0016 T01830172=
201005210930 SPECI KATL 210930Z 07010KT 4SM -TSRA BR BKN035CB OVC060 18/17 A3006 RMK AO2 TSB30RAB0858 OCNL LTGIC S-W TS S-W MOV NE P0012=
201005210930 SPECI KATL 210930Z 07010KT 4SM -TSRA BR BKN035CB OVC060 18/17 A3006 RMK AO2 TSB30RAB0858 OCNL LTGIC S-W TS S-W MOV NE P0012=
201005210920 SPECI KATL 210920Z 05004KT 2 1/2SM RA BR BKN035CB OVC090 18/17 A3008 RMK AO2 RAB0858 CB OHD-S-W MOV NE P0008=
201005210920 SPECI KATL 210920Z 05004KT 2 1/2SM RA BR BKN035CB OVC090 18/17 A3008 RMK AO2 RAB0858 CB OHD-S-W MOV NE P0008=
201005210852 METAR KATL 210852Z 10006KT 10SM SCT030 SCT110 OVC200 18/17 A3006 RMK AO2 SLP171 CB DSNT SW-W MOV NE 60005 T01830172 55021=
201005210752 METAR KATL 210752Z 08013KT 10SM FEW005 BKN035 OVC110 18/17 A3005 RMK AO2 RAE47 PRESFR SLP165 P0001 T01830172=
201005210737 SPECI KATL 210737Z 09008KT 10SM -RA FEW004 BKN032 OVC055 18/17 A3007 RMK AO2 P0001=
201005210737 SPECI KATL 210737Z 09008KT 10SM -RA FEW004 BKN032 OVC055 18/17 A3007 RMK AO2 P0001=
201005210717 SPECI KATL 210717Z 09005KT 10SM -RA FEW004 BKN025 OVC055 18/17 A3007 RMK AO2 P0001=
201005210717 SPECI KATL 210717Z 09005KT 10SM -RA FEW004 BKN025 OVC055 18/17 A3007 RMK AO2 P0001=
201005210709 SPECI KATL 210709Z 09007KT 10SM -RA BKN028 BKN055 OVC110 18/17 A3008 RMK AO2 P0000=
201005210709 SPECI KATL 210709Z 09007KT 10SM -RA BKN028 BKN055 OVC110 18/17 A3008 RMK AO2 P0000=
201005210652 METAR KATL 210652Z 09008KT 10SM -RA BKN030 BKN055 OVC110 18/17 A3008 RMK AO2 SLP180 P0004 T01830172=
201005210552 METAR KATL 210552Z 33009KT 9SM -RA FEW007 BKN035 OVC060 18/17 A3013 RMK AO2 WSHFT 0439 SLP193 CB DSIPT P0006 60006 T01780172 10261 20178 50017=
201005210504 SPECI KATL 210504Z 32016G19KT 4SM RA BR SCT007CB BKN040 OVC055 19/18 A3013 RMK AO2 WSHFT 0439 OCNL LTGIC DSNT NW CB SW-NW MOV N P0002 $=
201005210504 SPECI KATL 210504Z 32016G19KT 4SM RA BR SCT007CB BKN040 OVC055 19/18 A3013 RMK AO2 WSHFT 0439 OCNL LTGIC DSNT NW CB SW-NW MOV N P0002 $=
201005210456 SPECI KATL 210456Z 30016G25KT 4SM RA BR SCT025CB BKN042 BKN055 OVC130 19/18 A3013 RMK AO2 WSHFT 0439 OCNL LTGIC DSNT NW CB SW-NW MOV N P0001 $=
201005210456 SPECI KATL 210456Z 30016G25KT 4SM RA BR SCT025CB BKN042 BKN055 OVC130 19/18 A3013 RMK AO2 WSHFT 0439 OCNL LTGIC DSNT NW CB SW-NW MOV N P0001 $=
201005210452 METAR KATL 210452Z 31017G25KT 4SM -RA BR SCT025CB BKN055 OVC120 19/18 A3013 RMK AO2 WSHFT 0435 RAB06E15B37 SLP194 OCNL LTGIC DSNT NW CB SW-NW MOV N P0000 T01940178 402890161=
201005210436 SPECI KATL 210436Z 28014G21KT 10SM SCT055CB BKN070 BKN120 OVC200 23/16 A3011 RMK AO2 RAB06E15 PRESRR OCNL LTGIC DSNT NW CB SW-NW MOV N P0000=
201005210436 SPECI KATL 210436Z 28014G21KT 10SM SCT055CB BKN070 BKN120 OVC200 23/16 A3011 RMK AO2 RAB06E15 PRESRR OCNL LTGIC DSNT NW CB SW-NW MOV N P0000=
201005210352 METAR KATL 210352Z 12006KT 10SM BKN120 BKN150 OVC200 23/15 A3009 RMK AO2 SLP180 OCNL LTGIC DSNT W CB DSNT SW-NW T02330150=
201005210252 METAR KATL 210252Z COR 12006KT 10SM FEW090 SCT150 OVC200 24/15 A3007 RMK AO2 SLP175 CB DSNT SW-NW T02390150 53016=
201005210152 METAR KATL 210152Z 11009KT 10SM SCT150 OVC200 24/16 A3004 RMK AO2 SLP164 T02390156=
201005210052 METAR KATL 210052Z 11006KT 10SM FEW040 SCT150 OVC200 25/16 A3003 RMK AO2 SLP162 T02500156=
201005202352 METAR KATL 202352Z 12008KT 10SM SCT045 SCT150 BKN200 BKN250 26/15 A3003 RMK AO2 SLP159 T02610150 10289 20256 53008=
201005202252 METAR KATL 202252Z 13007KT 10SM SCT045 SCT150 BKN200 BKN250 27/14 A3000 RMK AO2 SLP152 T02670144=
201005202152 METAR KATL 202152Z 18007KT 10SM FEW055 SCT250 28/14 A3001 RMK AO2 SLP153 T02780144=
201005202052 METAR KATL 202052Z VRB06KT 10SM FEW055 SCT250 28/14 A3000 RMK AO2 SLP151 T02780144 56014=
201005201952 METAR KATL 201952Z 04004KT 10SM FEW055 SCT200 SCT250 28/14 A3001 RMK AO2 SLP154 T02780144=
201005201852 METAR KATL 201852Z 00000KT 10SM FEW055 SCT200 BKN250 27/14 A3002 RMK AO2 SLP158 T02670139=
201005201752 METAR KATL 201752Z 10007KT 10SM FEW050 SCT200 BKN250 26/14 A3004 RMK AO2 SLP164 T02610139 10267 20172 58004=
201005201652 METAR KATL 201652Z 07005KT 10SM FEW200 BKN250 25/15 A3005 RMK AO2 SLP169 T02500150=
201005201552 METAR KATL 201552Z 09004KT 10SM FEW200 BKN250 23/14 A3005 RMK AO2 SLP169 T02330144=
201005201452 METAR KATL 201452Z 08009KT 10SM FEW030 SCT200 BKN250 22/15 A3005 RMK AO2 SLP170 T02220150 50008=
201005201352 METAR KATL 201352Z 10008KT 10SM BKN250 21/14 A3006 RMK AO2 SLP173 T02060139=
201005201252 METAR KATL 201252Z 10006KT 10SM BKN250 19/12 A3005 RMK AO2 SLP169 T01940117=
201005201152 METAR KATL 201152Z 07005KT 10SM BKN250 18/11 A3003 RMK AO2 SLP163 T01780111 10189 20161 53017=
201005201052 METAR KATL 201052Z 00000KT 10SM FEW150 BKN250 17/11 A3000 RMK AO2 SLP153 T01670106=
201005200952 METAR KATL 200952Z 04010KT 10SM BKN200 18/11 A2998 RMK AO2 SLP143 T01780106=
201005200852 METAR KATL 200852Z 05006KT 10SM FEW150 17/11 A2998 RMK AO2 SLP144 T01720106 55003=
201005200752 METAR KATL 200752Z 03005KT 10SM CLR 18/11 A2997 RMK AO2 SLP141 T01780111=
201005200652 METAR KATL 200652Z 34003KT 10SM CLR 18/12 A2998 RMK AO2 SLP143 T01780117=
201005200552 METAR KATL 200552Z 03004KT 10SM CLR 19/11 A2999 RMK AO2 SLP147 T01890111 10233 20189 58001=
201005200452 METAR KATL 200452Z 36004KT 10SM SCT250 19/12 A3000 RMK AO2 SLP151 T01890117 402610133=
201005200352 METAR KATL 200352Z 35003KT 10SM SCT250 20/12 A3000 RMK AO2 SLP150 T02000117=
201005200252 METAR KATL 200252Z 35005KT 10SM BKN250 21/12 A2999 RMK AO2 SLP147 T02110117 53016=
201005200152 METAR KATL 200152Z 32006KT 10SM SCT250 21/12 A2996 RMK AO2 SLP140 T02060117=
201005200052 METAR KATL 200052Z 32008KT 10SM SCT250 22/11 A2995 RMK AO2 SLP137 T02220111=
201005192352 METAR KATL 192352Z 31007KT 10SM BKN250 23/11 A2994 RMK AO2 SLP132 T02330111 10261 20228 53007=
201005192252 METAR KATL 192252Z 29011G16KT 10SM FEW060 BKN250 24/09 A2993 RMK AO2 SLP130 T02440094=
201005192152 METAR KATL 192152Z 27009KT 10SM SCT250 25/12 A2992 RMK AO2 SLP127 T02500117=
201005192052 METAR KATL 192052Z 30008KT 10SM FEW060 SCT250 26/11 A2992 RMK AO2 SLP125 T02560111 58009=
201005191952 METAR KATL 191952Z 33004KT 10SM FEW250 26/12 A2992 RMK AO2 SLP125 T02560122=
201005191852 METAR KATL 191852Z 27010G16KT 10SM FEW055 SCT200 BKN250 25/12 A2995 RMK AO2 SLP133 T02500117=
201005191752 METAR KATL 191752Z 33007KT 10SM FEW050 SCT200 BKN250 24/12 A2994 RMK AO2 SLP133 T02440117 10244 20156 56008=
201005191652 METAR KATL 191652Z 33010G16KT 10SM FEW200 BKN250 23/12 A2995 RMK AO2 SLP136 T02280117=
201005191552 METAR KATL 191552Z 32008KT 10SM FEW200 BKN250 22/12 A2996 RMK AO2 SLP138 T02220117=
201005191452 METAR KATL 191452Z 35010KT 10SM BKN200 21/11 A2997 RMK AO2 SLP141 T02060111 51003=
201005191352 METAR KATL 191352Z 31009KT 10SM FEW250 19/12 A2997 RMK AO2 SLP142 T01890117=
201005191252 METAR KATL 191252Z 32007KT 10SM SCT250 17/12 A2997 RMK AO2 SLP142 T01720122=
201005191152 METAR KATL 191152Z 31007KT 10SM SCT250 16/12 A2996 RMK AO2 SLP139 T01560117 10178 20133 53012=
201005191052 METAR KATL 191052Z 29005KT 9SM SCT200 13/11 A2994 RMK AO2 SLP133 T01330111=
201005190952 METAR KATL 190952Z 31006KT 10SM FEW020 SCT200 14/11 A2992 RMK AO2 SLP124 T01440111=
201005190852 METAR KATL 190852Z 31006KT 10SM BKN200 16/12 A2992 RMK AO2 SLP126 T01560117 55001=
201005190752 METAR KATL 190752Z 32004KT 10SM BKN200 16/12 A2992 RMK AO2 SLP124 T01610117=
201005190652 METAR KATL 190652Z 32007KT 10SM BKN200 17/12 A2992 RMK AO2 SLP123 T01720117=
201005190552 METAR KATL 190552Z 32008KT 10SM BKN200 18/12 A2993 RMK AO2 SLP126 T01780122 10250 20178 50002=
201005190452 METAR KATL 190452Z 33013KT 10SM BKN200 19/13 A2993 RMK AO2 SLP126 T01890133 402780167=
201005190352 METAR KATL 190352Z 31008KT 10SM FEW050 BKN200 20/13 A2992 RMK AO2 SLP124 T02000133=
201005190252 METAR KATL 190252Z 32008KT 10SM SCT200 BKN250 21/14 A2992 RMK AO2 SLP123 T02110144 51018=
201005190152 METAR KATL 190152Z 31008KT 10SM FEW250 22/14 A2990 RMK AO2 SLP117 T02220144=
201005190052 METAR KATL 190052Z 31008KT 10SM FEW050 SCT250 23/14 A2989 RMK AO2 SLP113 T02330144=
201005182352 METAR KATL 182352Z 31012KT 10SM FEW055 SCT250 25/14 A2987 RMK AO2 SLP105 T02500144 10278 20250 55002=
201005182252 METAR KATL 182252Z 31011KT 10SM SCT055 SCT250 27/15 A2986 RMK AO2 SLP104 T02670150=
201005182152 SPECI KATL 182152Z 27009KT 250V320 10SM SCT055 SCT250 27/15 A2986 RMK AO2 SLP103 T02720150=
201005182052 METAR KATL 182052Z 27009KT 10SM FEW060 SCT080 SCT250 27/15 A2987 RMK AO2 SLP107 CB DSNT S SHRA DSNT S T02720150 56017=
201005181952 METAR KATL 181952Z 33016G21KT 10SM FEW060 SCT090 SCT250 27/14 A2989 RMK AO2 SLP113 T02720144=
201005181852 METAR KATL 181852Z 28016G20KT 10SM FEW055 SCT090 SCT250 28/15 A2990 RMK AO2 SLP114 T02780150=
201005181752 METAR KATL 181752Z 27012G18KT 10SM FEW050 SCT090 BKN250 27/16 A2992 RMK AO2 SLP124 T02720156 10272 20194 58011=
201005181652 METAR KATL 181652Z 29010G18KT 10SM FEW035 BKN085 BKN250 26/17 A2994 RMK AO2 SLP130 T02560167=
201005181552 METAR KATL 181552Z 25013G21KT 10SM SCT037TCU BKN070 BKN100 BKN250 25/16 A2994 RMK AO2 SLP130 TCU NE-E & W-NW T02500161=
201005181452 METAR KATL 181452Z 28011KT 10SM FEW030TCU SCT095 SCT250 24/17 A2996 RMK AO2 SLP135 TCU N-NE T02440172 50004=
201005181352 METAR KATL 181352Z 28008KT 10SM FEW030 SCT100 SCT250 24/17 A2996 RMK AO2 SLP136 T02390172=
201005181252 METAR KATL 181252Z 30006KT 10SM SCT150 BKN250 21/16 A2995 RMK AO2 SLP133 T02110156=
201005181152 METAR KATL 181152Z 32004KT 10SM FEW150 SCT250 19/15 A2994 RMK AO2 SLP132 T01940150 10194 20167 51009=
201005181052 METAR KATL 181052Z 30005KT 10SM FEW150 SCT250 17/15 A2994 RMK AO2 SLP131 T01670150=
201005180952 METAR KATL 180952Z 31008KT 10SM FEW180 17/15 A2993 RMK AO2 SLP126 T01720150=
201005180852 METAR KATL 180852Z 31006KT 8SM FEW200 17/16 A2992 RMK AO2 SLP123 T01720156 56008=
201005180752 METAR KATL 180752Z 30006KT 8SM FEW200 18/16 A2992 RMK AO2 SLP124 T01780156=
201005180652 METAR KATL 180652Z 29006KT 10SM CLR 18/16 A2993 RMK AO2 SLP125 T01830156=
201005180552 METAR KATL 180552Z 29006KT 10SM CLR 19/16 A2994 RMK AO2 SLP130 T01890161 10250 20189 58005=
201005180452 METAR KATL 180452Z 28007KT 10SM CLR 20/16 A2995 RMK AO2 SLP133 T02000161 402830200=
201005180352 METAR KATL 180352Z 27006KT 10SM FEW250 21/16 A2996 RMK AO2 SLP135 T02110161=
201005180252 METAR KATL 180252Z 28007KT 10SM CLR 22/16 A2996 RMK AO2 SLP137 T02170156 53013=
201005180152 METAR KATL 180152Z 27006KT 10SM CLR 22/16 A2994 RMK AO2 SLP130 T02220156=
201005180052 METAR KATL 180052Z 28006KT 10SM CLR 23/16 A2992 RMK AO2 SLP125 T02280156=
201005172352 METAR KATL 172352Z 29011KT 10SM FEW040 SCT200 25/16 A2992 RMK AO2 SLP124 T02500156 10283 20250 53003=
201005172252 METAR KATL 172252Z 28011G15KT 10SM FEW040 SCT200 27/17 A2991 RMK AO2 SLP120 T02670167=
201005172152 METAR KATL 172152Z 29013G17KT 10SM SCT045 BKN200 27/17 A2991 RMK AO2 SLP120 T02720172=
201005172052 METAR KATL 172052Z 31013G17KT 10SM SCT040 BKN200 28/18 A2991 RMK AO2 SLP120 T02780178 58015=
201005171952 METAR KATL 171952Z 31012KT 10SM FEW040 SCT200 28/18 A2993 RMK AO2 SLP125 T02780178=
201005171852 METAR KATL 171852Z 27009KT 10SM FEW037TCU SCT200 28/18 A2995 RMK AO2 SLP131 TCU W-NW-N T02780183=
201005171752 METAR KATL 171752Z 30009KT 10SM SCT040 SCT200 27/18 A2996 RMK AO2 SLP135 T02720183 10272 20206 58014=
201005171652 METAR KATL 171652Z 26006KT 10SM SCT027TCU SCT150 SCT200 26/19 A2998 RMK AO2 SLP144 CB DSNT S TCU ALQDS SHRA DSNT E & S T02610189=
201005171552 METAR KATL 171552Z 22009KT 10SM FEW020CB BKN030TCU BKN070 26/19 A3000 RMK AO2 SLP148 CB S MOV E TCU OHD & ALQDS SHRA S T02560189=
201005171352 METAR KATL 171352Z 19006KT 10SM BKN015TCU BKN020 BKN030 22/18 A3001 RMK AO2 SLP153 TCU NE & OHD-W-NW-N T02220183=
201005171311 SPECI KATL 171311Z VRB03KT 9SM FEW010 BKN015 BKN020 22/19 A3000 RMK AO2=
201005171311 SPECI KATL 171311Z VRB03KT 9SM FEW010 BKN015 BKN020 22/19 A3000 RMK AO2=
201005171252 METAR KATL 171252Z 00000KT 8SM SCT007 BKN013 BKN019 21/19 A3000 RMK AO2 SLP150 T02110189=
201005171152 METAR KATL 171152Z 17006KT 6SM BR FEW005 SCT009 BKN120 21/19 A2997 RMK AO2 SLP142 60001 70001 T02060194 10211 20200 58003=
201005171145 SPECI KATL 171145Z 16005KT 6SM BR FEW005 SCT009 BKN100 21/19 A2997 RMK AO2=
201005171145 SPECI KATL 171145Z 16005KT 6SM BR FEW005 SCT009 BKN100 21/19 A2997 RMK AO2=
201005171052 METAR KATL 171052Z 00000KT 6SM BR FEW004 BKN008 BKN050 20/19 A2997 RMK AO2 SLP142 T02000189=
201005171035 SPECI KATL 171035Z 18003KT 6SM BR FEW004 BKN008 BKN050 20/19 A2997 RMK AO2=
201005171035 SPECI KATL 171035Z 18003KT 6SM BR FEW004 BKN008 BKN050 20/19 A2997 RMK AO2=
201005170952 METAR KATL 170952Z 00000KT 8SM BKN010 OVC090 21/19 A2998 RMK AO2 SLP144 T02060189=
201005170916 SPECI KATL 170916Z 00000KT 7SM BKN010 OVC095 20/18 A2999 RMK AO2=
201005170916 SPECI KATL 170916Z 00000KT 7SM BKN010 OVC095 20/18 A2999 RMK AO2=
201005170852 METAR KATL 170852Z 00000KT 10SM FEW007 SCT070 OVC100 20/18 A2998 RMK AO2 SLP144 60001 T02000183 58010=
201005170752 METAR KATL 170752Z 35005KT 7SM BKN007 OVC110 21/19 A2999 RMK AO2 RAB0653E44 CIG 006V011 SLP144 P0001 T02060189=
201005170742 SPECI KATL 170742Z 32006KT 7SM -RA FEW007 BKN090 OVC110 20/19 A2999 RMK AO2 RAB0653 P0001=
201005170742 SPECI KATL 170742Z 32006KT 7SM -RA FEW007 BKN090 OVC110 20/19 A2999 RMK AO2 RAB0653 P0001=
201005170652 METAR KATL 170652Z 28003KT 10SM FEW009 BKN025 OVC110 21/19 A3001 RMK AO2 RAE49 SLP154 P0000 T02060189=
201005170552 METAR KATL 170552Z 21004KT 7SM -RA SCT029 OVC070 21/19 A3002 RMK AO2 RAB26 SLP157 P0000 60000 T02110189 10239 20211 51007=
201005170452 METAR KATL 170452Z 22003KT 10SM FEW030 BKN110 OVC150 22/18 A3002 RMK AO2 SLP156 T02170183 402890200=
201005170352 METAR KATL 170352Z 15003KT 10SM SCT120 BKN150 OVC200 22/19 A3001 RMK AO2 SLP154 T02170189=
201005170252 METAR KATL 170252Z 16003KT 10SM FEW030 SCT120 OVC150 22/19 A3000 RMK AO2 SLP150 T02220189 53005=
201005170152 METAR KATL 170152Z 26003KT 10SM FEW040 BKN120 BKN200 OVC250 23/18 A3000 RMK AO2 SLP149 T02330178=
201005170052 METAR KATL 170052Z 28005KT 10SM FEW040 BKN120 BKN200 OVC250 23/18 A2999 RMK AO2 SLP146 T02330183=
201005162352 METAR KATL 162352Z 28007KT 10SM FEW040 SCT080 BKN150 OVC200 24/19 A2999 RMK AO2 RAB46E52 SLP146 P0000 60000 T02390189 10289 20239 51002=
201005162252 METAR KATL 162252Z 27009G16KT 10SM FEW045 SCT100 BKN200 OVC250 26/17 A2998 RMK AO2 SLP145 CB DSNT NE-SE T02560167 $=
201005162152 METAR KATL 162152Z 23008KT 10SM FEW050 SCT150 BKN200 BKN250 28/16 A2999 RMK AO2 SLP145 CB DSNT NE TCU DSNT E-SE T02780156 $=
201005162052 METAR KATL 162052Z 20012G17KT 10SM SCT050TCU BKN120 BKN200 OVC250 28/16 A2998 RMK AO2 SLP143 TCU NW CB DSNT SE T02830161 56024 $=
201005161952 METAR KATL 161952Z 20014G20KT 10SM SCT050 BKN110 BKN200 OVC250 29/16 A2999 RMK AO2 SLP146 CB DSNT SE-S T02890161 $=
201005161852 METAR KATL 161852Z 23010KT 10SM SCT050 BKN100 BKN200 OVC250 28/17 A3003 RMK AO2 SLP159 CB DSNT N AND S T02780172 $=
201005161752 METAR KATL 161752Z 19013G17KT 10SM SCT040 BKN100 BKN200 OVC250 28/16 A3006 RMK AO2 SLP167 T02830161 10283 20211 58012 $=
201005161652 METAR KATL 161652Z 19009KT 10SM SCT036 BKN090 BKN200 OVC250 28/16 A3008 RMK AO2 SLP175 T02780156 $=
201005161552 METAR KATL 161552Z 23006KT 10SM SCT032 BKN090 BKN200 OVC250 27/19 A3009 RMK AO2 SLP178 T02670189 $=
201005161452 METAR KATL 161452Z 23006KT 10SM FEW030 SCT110 BKN200 BKN250 26/19 A3009 RMK AO2 SLP180 T02610194 58005 $=
201005161352 METAR KATL 161352Z 24005KT 10SM FEW090 SCT110 BKN200 BKN250 25/19 A3010 RMK AO2 SLP183 T02500194 $=
201005161252 METAR KATL 161252Z 22003KT 10SM SCT090 BKN250 23/19 A3010 RMK AO2 SLP184 T02280194 $=
201005161152 METAR KATL 161152Z 15003KT 7SM FEW050 SCT100 BKN180 21/18 A3011 RMK AO2 SLP185 T02110183 10217 20200 53002 $=
201005161052 METAR KATL 161052Z 12004KT 7SM FEW090 SCT150 BKN250 20/18 A3009 RMK AO2 SLP182 T02000178 $=
201005160952 METAR KATL 160952Z VRB03KT 10SM BKN180 OVC250 21/18 A3010 RMK AO2 SLP181 T02110183 $=
201005160852 METAR KATL 160852Z 00000KT 8SM BKN150 BKN250 21/18 A3010 RMK AO2 SLP182 T02060183 58004 $=
201005160752 METAR KATL 160752Z 08003KT 8SM BKN150 21/18 A3010 RMK AO2 SLP184 T02110183 $=
201005160652 METAR KATL 160652Z 00000KT 10SM FEW200 22/18 A3011 RMK AO2 SLP186 T02170178 $=
201005160552 METAR KATL 160552Z 07005KT 10SM FEW250 22/18 A3011 RMK AO2 SLP186 T02220178 10278 20217 57007 $=
201005160452 METAR KATL 160452Z 00000KT 10SM FEW250 22/18 A3012 RMK AO2 SLP188 T02220178 403000200 $=
201005160352 METAR KATL 160352Z 00000KT 10SM FEW050 SCT250 24/18 A3012 RMK AO2 SLP191 T02390178 $=
201005160252 METAR KATL 160252Z 00000KT 10SM FEW150 24/17 A3013 RMK AO2 SLP193 OCNL LTG DSNT NE T02440172 53010 $=
201005160152 METAR KATL 160152Z 23004KT 10SM FEW045 25/18 A3011 RMK AO2 SLP188 FRQ LTG DSNT NE T02500178 $=
201005160052 METAR KATL 160052Z 23005KT 10SM FEW045 26/17 A3012 RMK AO2 SLP189 OCNL LTG DSNT NE TCU DSNT NW T02610172 $=
201005152352 METAR KATL 152352Z 20006KT 10SM FEW045TCU SCT060 BKN200 28/18 A3010 RMK AO2 SLP184 TCU NE-E T02780178 10300 20278 55000 $=
201005152252 METAR KATL 152252Z 20008KT 10SM SCT045TCU SCT200 29/17 A3009 RMK AO2 SLP182 TCU E-SE T02890172 $=
201005152152 METAR KATL 152152Z 20009G15KT 10SM SCT045 SCT070 BKN200 29/18 A3009 RMK AO2 SLP180 CB DSNT N-NE TCU DSNT SE-S AND SW T02940183 $=
201005152052 METAR KATL 152052Z 21010KT 10SM SCT045 BKN080 BKN200 29/18 A3010 RMK AO2 SLP183 T02890183 56027 $=
201005151952 METAR KATL 151952Z 21007KT 10SM SCT042 BKN055 BKN200 29/19 A3012 RMK AO2 SLP190 T02940194 $=
201005151852 METAR KATL 151852Z VRB05KT 10SM SCT041 BKN055 BKN070 BKN200 29/18 A3015 RMK AO2 SLP200 T02890183 $=
201005151752 METAR KATL 151752Z 21005KT 10SM SCT035 BKN050 BKN200 29/20 A3018 RMK AO2 SLP212 CB DSNT N T02890200 10289 20211 58013 $=
201005151711 SPECI KATL 151711Z VRB04KT 10SM SCT031TCU BKN045 BKN200 28/20 A3020 RMK AO2 TCU SW CB DSNT NW TCU DSNT NW $=
201005151711 SPECI KATL 151711Z VRB04KT 10SM SCT031TCU BKN045 BKN200 28/20 A3020 RMK AO2 TCU SW CB DSNT NW TCU DSNT NW $=
201005151652 METAR KATL 151652Z COR 24008KT 10SM BKN029 BKN045 28/21 A3021 RMK AO2 SLP220 CB DSNT NW T02830206 $=
201005151552 METAR KATL 151552Z VRB03KT 10SM SCT027 SCT040 BKN150 BKN250 27/21 A3022 RMK AO2 SLP225 T02720206 $=
201005151452 METAR KATL 151452Z 24007KT 10SM SCT043 BKN055 BKN075 26/20 A3023 RMK AO2 SLP225 T02610200 53002 $=
201005151352 METAR KATL 151352Z 22006KT 10SM BKN033 BKN150 BKN250 24/19 A3022 RMK AO2 SLP224 T02390194 $=
201005151252 METAR KATL 151252Z 22005KT 8SM SCT033 BKN150 BKN250 22/18 A3022 RMK AO2 SLP223 T02220183 $=
201005151152 METAR KATL 151152Z 17004KT 8SM FEW080 SCT150 BKN250 21/18 A3022 RMK AO2 SLP224 T02110183 10228 20200 53011=
201005151052 METAR KATL 151052Z 15003KT 9SM FEW020 SCT150 BKN250 20/18 A3020 RMK AO2 SLP219 T02000178=
201005150952 METAR KATL 150952Z 00000KT 10SM BKN200 21/18 A3019 RMK AO2 SLP215 T02060178=
201005150852 METAR KATL 150852Z 23004KT 10SM BKN200 21/18 A3018 RMK AO2 SLP211 T02110178 56010=
201005150752 METAR KATL 150752Z 20005KT 8SM SCT080 BKN250 21/18 A3019 RMK AO2 SLP212 T02110183=
201005150652 METAR KATL 150652Z 17004KT 8SM SCT070 BKN080 22/18 A3020 RMK AO2 SLP217 T02220183=
201005150552 METAR KATL 150552Z 19005KT 8SM SCT055 BKN070 22/18 A3022 RMK AO2 SLP222 60000 T02220183 10272 20222 58005=
201005150452 METAR KATL 150452Z 18005KT 10SM FEW050 SCT100 BKN250 23/19 A3022 RMK AO2 SLP224 T02280189 403000211=
201005150352 METAR KATL 150352Z 19004KT 10SM SCT050 BKN070 BKN100 BKN250 24/19 A3023 RMK AO2 SLP227 T02390189=
201005150252 METAR KATL 150252Z 17007KT 10SM SCT045 BKN070 BKN250 24/19 A3023 RMK AO2 SLP227 OCNL LTG DSNT NW 60000 T02440189 53010=
201005150152 METAR KATL 150152Z 17007KT 10SM SCT045 BKN060 BKN075 BKN250 25/19 A3022 RMK AO2 RAE00 SLP223 FRQ LTG DSNT N-NE P0000 T02500194=
201005150052 METAR KATL 150052Z 19006KT 10SM -RA SCT045TCU BKN060 BKN080 BKN250 27/19 A3021 RMK AO2 RAB52 SLP221 OCNL LTG DSNT NE CB DSNT NE AND NW TCU OHD-S P0000 T02670194=
201005142352 METAR KATL 142352Z 19007KT 10SM FEW045TCU SCT060 BKN090 BKN250 27/19 A3020 RMK AO2 SLP218 CB DSNT NW TCU N-NE AND SW T02720194 10294 20272 55004=
201005142252 METAR KATL 142252Z 18006KT 10SM FEW045TCU SCT090 BKN250 28/19 A3020 RMK AO2 SLP217 TCU N-NE T02780189=
201005142152 METAR KATL 142152Z COR 18007KT 10SM SCT045TCU BKN080 BKN250 28/19 A3020 RMK AO2 SLP216 TCU N-NE AND SW-W T02830189=
201005142052 METAR KATL 142052Z 20004KT 10SM FEW040TCU SCT090 BKN250 28/19 A3021 RMK AO2 SLP222 TCU S & W & NW T02830189 58019=
201005141952 METAR KATL 141952Z 00000KT 10SM BKN050 BKN090 BKN250 29/18 A3024 RMK AO2 SLP228 T02890183=
201005141852 METAR KATL 141852Z 00000KT 10SM BKN040 BKN060 BKN250 29/19 A3026 RMK AO2 SLP235 T02890189=
201005141752 METAR KATL 141752Z 32005KT 10SM BKN045 BKN150 BKN250 28/19 A3027 RMK AO2 SLP240 T02830189 10300 20217 58005=
201005141652 METAR KATL 141652Z 00000KT 10SM BKN040 BKN050 BKN150 28/19 A3028 RMK AO2 SLP242 T02830194 $=
201005141552 METAR KATL 141552Z 00000KT 10SM BKN037 BKN150 BKN250 28/19 A3029 RMK AO2 SLP246 T02830194=
201005141452 METAR KATL 141452Z 22003KT 10SM FEW035 SCT150 SCT250 27/19 A3029 RMK AO2 SLP245 T02720189 58001=
201005141352 METAR KATL 141352Z 22005KT 10SM SCT250 26/19 A3029 RMK AO2 SLP249 T02560189=
201005141252 METAR KATL 141252Z 22004KT 7SM FEW150 SCT250 23/19 A3030 RMK AO2 SLP252 T02280189=
201005141152 METAR KATL 141152Z 00000KT 8SM SCT250 22/19 A3029 RMK AO2 SLP247 T02170189 10233 20211 53022=
201005141052 METAR KATL 141052Z 00000KT 8SM SCT250 21/18 A3026 RMK AO2 SLP236 T02110183=
201005140952 METAR KATL 140952Z COR 00000KT 9SM BKN250 21/18 A3023 RMK AO2 SLP226 T02110183=
201005140852 METAR KATL 140852Z 00000KT 10SM CLR 22/19 A3022 RMK AO2 SLP223 T02220189 56009=
201005140752 METAR KATL 140752Z 00000KT 10SM BKN200 23/18 A3023 RMK AO2 SLP226 T02280183=
201005140652 METAR KATL 140652Z 00000KT 10SM BKN200 23/18 A3024 RMK AO2 SLP229 T02280183=
201005140552 METAR KATL 140552Z 00000KT 10SM BKN200 23/18 A3025 RMK AO2 SLP234 T02330183 10278 20233 58003=
201005140452 METAR KATL 140452Z 00000KT 10SM BKN200 24/19 A3026 RMK AO2 SLP237 T02390189 403000194=
201005140352 METAR KATL 140352Z 18003KT 10SM BKN200 24/18 A3026 RMK AO2 SLP237 T02440183=
201005140252 METAR KATL 140252Z 19004KT 10SM BKN200 25/18 A3026 RMK AO2 SLP236 T02500178 53012=
201005140152 METAR KATL 140152Z 19004KT 10SM SCT200 BKN250 25/18 A3024 RMK AO2 SLP231 T02500183=
201005140052 METAR KATL 140052Z 18003KT 10SM FEW200 BKN250 26/18 A3023 RMK AO2 SLP229 T02610183=
201005132352 METAR KATL 132352Z 21003KT 10SM FEW045 SCT250 28/18 A3022 RMK AO2 SLP225 T02780178 10300 20278 51001=
201005132252 METAR KATL 132252Z 20004KT 10SM FEW045 SCT080 28/17 A3022 RMK AO2 SLP225 T02830172=
201005132152 METAR KATL 132152Z 26006KT 10SM FEW045TCU SCT070 29/18 A3022 RMK AO2 SLP224 TCU E-SE T02940183=
201005132052 METAR KATL 132052Z 30008KT 10SM FEW045 SCT060 BKN080 30/19 A3022 RMK AO2 SLP223 T03000189 58003=
201005131952 METAR KATL 131952Z 28004KT 10SM FEW040 BKN050 BKN070 28/19 A3022 RMK AO2 SLP226 T02830189=
201005131852 METAR KATL 131852Z 21007KT 10SM FEW040 BKN070 BKN250 29/18 A3023 RMK AO2 SLP227 T02890183=
201005131752 METAR KATL 131752Z 22008KT 10SM FEW035 BKN065 28/19 A3023 RMK AO2 SLP226 T02780189 10283 20206 58006=
201005131652 METAR KATL 131652Z 22009KT 10SM BKN033 BKN060 27/19 A3024 RMK AO2 SLP230 T02720189=
201005131552 METAR KATL 131552Z 24005KT 10SM BKN035 BKN065 BKN250 26/18 A3025 RMK AO2 SLP235 T02610178=
201005131452 METAR KATL 131452Z 23007KT 10SM FEW035 SCT065 SCT250 26/19 A3025 RMK AO2 SLP232 T02610189 50009=
201005131352 METAR KATL 131352Z 29007KT 10SM FEW065 24/19 A3025 RMK AO2 SLP234 T02440194=
201005131252 METAR KATL 131252Z 27005KT 9SM BKN065 23/19 A3023 RMK AO2 SLP228 T02280194=
201005131152 METAR KATL 131152Z 00000KT 8SM OVC065 21/18 A3022 RMK AO2 SLP223 T02060183 10217 20194 53016=
201005131052 METAR KATL 131052Z 16004KT 9SM FEW041 OVC065 20/18 A3019 RMK AO2 SLP215 T02000178=
201005130952 METAR KATL 130952Z 00000KT 10SM SCT060 20/17 A3017 RMK AO2 SLP207 T02000172=
201005130852 METAR KATL 130852Z 00000KT 10SM FEW047 BKN065 21/18 A3017 RMK AO2 SLP206 T02060178 55002=
201005130752 METAR KATL 130752Z 00000KT 10SM FEW045 21/18 A3017 RMK AO2 SLP206 T02060178=
201005130652 METAR KATL 130652Z 00000KT 10SM CLR 21/18 A3017 RMK AO2 SLP206 T02060178=
201005130552 METAR KATL 130552Z 00000KT 10SM CLR 22/18 A3017 RMK AO2 SLP208 T02170178 10267 20211 56001=
201005130452 METAR KATL 130452Z 00000KT 10SM FEW250 22/18 A3018 RMK AO2 SLP210 T02220178 402890200=
201005130352 METAR KATL 130352Z 22003KT 10SM SCT250 23/18 A3017 RMK AO2 SLP207 T02280178=
201005130252 METAR KATL 130252Z 00000KT 10SM BKN250 23/18 A3018 RMK AO2 SLP210 T02330178 53007=
201005130152 METAR KATL 130152Z 00000KT 10SM SCT250 24/18 A3017 RMK AO2 SLP206 T02390178=
201005130052 METAR KATL 130052Z 20004KT 10SM FEW070 SCT250 25/17 A3015 RMK AO2 SLP202 T02500172=
201005122352 METAR KATL 122352Z 20006KT 10SM FEW080 27/17 A3016 RMK AO2 SLP203 T02670172 10289 20267 56003=
201005122252 METAR KATL 122252Z 24005KT 10SM FEW050 SCT080 SCT250 27/17 A3016 RMK AO2 SLP204 T02720167=
201005122152 METAR KATL 122152Z 21006KT 10SM FEW050 SCT075 SCT250 28/17 A3016 RMK AO2 SLP204 T02830167=
201005122052 METAR KATL 122052Z VRB03KT 10SM FEW050 SCT080 SCT200 28/17 A3016 RMK AO2 SLP206 T02830172 56016=
201005121952 METAR KATL 121952Z 22007KT 10SM SCT050 BKN080 BKN200 28/16 A3017 RMK AO2 SLP209 T02780156=
201005121852 METAR KATL 121852Z 22006KT 10SM BKN044 BKN200 28/18 A3020 RMK AO2 SLP216 T02830178=
201005121752 METAR KATL 121752Z 26007KT 230V290 10SM BKN040 28/18 A3021 RMK AO2 SLP222 T02780183 10278 20200 58004=
201005121652 METAR KATL 121652Z VRB06KT 10SM BKN037 27/18 A3022 RMK AO2 SLP225 T02670183=
201005121552 METAR KATL 121552Z 22008G16KT 10SM SCT033 SCT200 26/18 A3022 RMK AO2 SLP226 T02610178=
201005121452 METAR KATL 121452Z 21009KT 10SM FEW024 SCT060 SCT200 24/18 A3023 RMK AO2 SLP227 T02440183 51006=
201005121352 METAR KATL 121352Z 21009KT 10SM FEW020 SCT060 SCT200 23/18 A3023 RMK AO2 SLP226 T02330183=
201005121252 METAR KATL 121252Z 20010KT 10SM OVC060 21/17 A3024 RMK AO2 SLP231 BINOVC OHD T02110172=
201005121152 METAR KATL 121152Z 19008KT 10SM FEW020 OVC060 20/18 A3021 RMK AO2 SLP222 T02000178 10211 20200 53015=
201005121052 METAR KATL 121052Z 19008KT 10SM SCT020 BKN040 OVC050 20/18 A3018 RMK AO2 SLP211 T02000178=
201005121008 SPECI KATL 121008Z 18006KT 10SM FEW020 BKN040 OVC055 20/18 A3016 RMK AO2=
201005121008 SPECI KATL 121008Z 18006KT 10SM FEW020 BKN040 OVC055 20/18 A3016 RMK AO2=
201005120952 METAR KATL 120952Z 19006KT 10SM BKN020 BKN029 OVC039 20/18 A3016 RMK AO2 SLP205 T02000178=
201005120852 METAR KATL 120852Z 15003KT 10SM BKN024 OVC032 20/18 A3016 RMK AO2 SLP206 T02000178 55005=
201005120835 SPECI KATL 120835Z 14004KT 10SM BKN024 OVC036 20/18 A3016 RMK AO2=
201005120835 SPECI KATL 120835Z 14004KT 10SM BKN024 OVC036 20/18 A3016 RMK AO2=
201005120752 METAR KATL 120752Z 12004KT 10SM BKN036 OVC048 20/17 A3016 RMK AO2 SLP204 T02000172=
201005120652 METAR KATL 120652Z 10003KT 10SM BKN034 OVC070 20/18 A3017 RMK AO2 SLP207 T02000178=
201005120552 METAR KATL 120552Z 15004KT 10SM SCT045 BKN075 21/18 A3018 RMK AO2 SLP211 T02110178 10244 20211 58001=
201005120452 METAR KATL 120452Z 14003KT 10SM SCT050 BKN075 21/18 A3018 RMK AO2 SLP214 T02110178 402560117=
201005120352 METAR KATL 120352Z 15005KT 10SM SCT040 BKN060 22/18 A3018 RMK AO2 SLP215 T02170178=
201005120252 METAR KATL 120252Z 14004KT 10SM SCT050 22/18 A3018 RMK AO2 SLP214 T02220178 53010=
201005120152 METAR KATL 120152Z 13004KT 10SM BKN054 23/18 A3017 RMK AO2 SLP210 T02280178=
201005120052 METAR KATL 120052Z 14004KT 10SM FEW034 23/18 A3015 RMK AO2 SLP205 T02330178=
201005112352 METAR KATL 112352Z 16008KT 10SM FEW035 SCT250 24/18 A3015 RMK AO2 SLP203 T02440178 10256 20228 55005=
201005112252 METAR KATL 112252Z 18009KT 10SM FEW035 SCT075 25/18 A3015 RMK AO2 SLP202 T02500178=
201005112152 METAR KATL 112152Z 18010KT 10SM FEW040 SCT070 25/18 A3015 RMK AO2 SLP203 T02500178=
201005112052 METAR KATL 112052Z 17010KT 10SM BKN035 BKN050 BKN080 24/17 A3016 RMK AO2 SLP209 T02440172 58020=
201005111952 METAR KATL 111952Z 19011G15KT 10SM BKN030 BKN050 BKN080 24/17 A3018 RMK AO2 SLP216 T02390172=
201005111852 METAR KATL 111852Z 19010KT 10SM BKN030 BKN050 BKN080 24/17 A3021 RMK AO2 SLP223 T02390167=
201005111821 SPECI KATL 111821Z 17012G17KT 10SM BKN028 BKN050 BKN080 23/16 A3021 RMK AO2=
201005111821 SPECI KATL 111821Z 17012G17KT 10SM BKN028 BKN050 BKN080 23/16 A3021 RMK AO2=
201005111752 METAR KATL 111752Z 19010KT 10SM FEW030 SCT050 BKN080 23/16 A3022 RMK AO2 SLP231 T02280161 10233 20139 58020=
201005111652 METAR KATL 111652Z 16011KT 10SM FEW020 BKN050 BKN080 22/16 A3025 RMK AO2 SLP238 T02170156=
201005111552 METAR KATL 111552Z 17008KT 10SM FEW020 BKN050 BKN080 19/15 A3027 RMK AO2 SLP247 T01940150=
201005111512 SPECI KATL 111512Z 15010G15KT 10SM FEW015 BKN045 BKN065 18/14 A3028 RMK AO2=
201005111512 SPECI KATL 111512Z 15010G15KT 10SM FEW015 BKN045 BKN065 18/14 A3028 RMK AO2=
201005111452 METAR KATL 111452Z 14005KT 10SM BKN016 BKN050 BKN065 18/14 A3028 RMK AO2 SLP254 T01780144 51016=
201005111422 SPECI KATL 111422Z 12006KT 10SM BKN016 BKN040 BKN070 18/14 A3030 RMK AO2=
201005111422 SPECI KATL 111422Z 12006KT 10SM BKN016 BKN040 BKN070 18/14 A3030 RMK AO2=
201005111352 METAR KATL 111352Z 12007KT 10SM BKN012 BKN050 BKN070 17/14 A3028 RMK AO2 SLP253 T01670139=
201005111310 SPECI KATL 111310Z 14007KT 10SM FEW012 SCT018 BKN050 16/13 A3028 RMK AO2=
201005111310 SPECI KATL 111310Z 14007KT 10SM FEW012 SCT018 BKN050 16/13 A3028 RMK AO2=
201005111252 METAR KATL 111252Z 12007G14KT 10SM BKN012 OVC050 15/13 A3027 RMK AO2 SLP248 T01500128=
201005111237 SPECI KATL 111237Z 11008KT 10SM BKN012 BKN050 15/12 A3026 RMK AO2=
201005111237 SPECI KATL 111237Z 11008KT 10SM BKN012 BKN050 15/12 A3026 RMK AO2=
201005111152 METAR KATL 111152Z 11010KT 7SM FEW021 BKN150 14/12 A3024 RMK AO2 SLP239 70015 T01390117 10139 20117 53005=
201005111126 SPECI KATL 111126Z 11010KT 7SM FEW021 BKN150 13/12 A3024 RMK AO2=
201005111126 SPECI KATL 111126Z 11010KT 7SM FEW021 BKN150 13/12 A3024 RMK AO2=
201005111052 METAR KATL 111052Z 11007KT 10SM BKN021 BKN090 13/12 A3022 RMK AO2 SLP233 T01330117=
201005111026 SPECI KATL 111026Z 09009KT 10SM BKN021 BKN090 13/12 A3022 RMK AO2=
201005111026 SPECI KATL 111026Z 09009KT 10SM BKN021 BKN090 13/12 A3022 RMK AO2=
201005110952 METAR KATL 110952Z 11009KT 10SM SCT023 BKN090 BKN150 13/11 A3019 RMK AO2 SLP224 T01330111=
201005110852 METAR KATL 110852Z 10006KT 10SM BKN150 BKN200 12/11 A3022 RMK AO2 SLP233 T01170106 55000=
201005110752 METAR KATL 110752Z 09009KT 10SM BKN150 BKN200 12/11 A3021 RMK AO2 SLP228 T01220106=
201005110652 METAR KATL 110652Z 10008KT 10SM BKN120 BKN150 12/11 A3021 RMK AO2 SLP228 T01220106=
201005110552 METAR KATL 110552Z 09010KT 10SM SCT085 BKN120 12/11 A3022 RMK AO2 SLP232 60000 T01220106 10139 20122 56002=
201005110452 METAR KATL 110452Z 10009KT 10SM SCT070 BKN090 BKN110 13/11 A3022 RMK AO2 SLP232 T01280111 402000106=
201005110352 METAR KATL 110352Z 08011KT 10SM FEW008 BKN065 OVC100 13/12 A3022 RMK AO2 SLP232 T01280117=
201005110252 METAR KATL 110252Z 08011KT 10SM FEW008 SCT070 BKN100 13/12 A3023 RMK AO2 SLP235 60000 T01280117 58004=
201005110152 METAR KATL 110152Z 09011KT 9SM FEW005 OVC070 13/12 A3024 RMK AO2 RAB26E40 SLP239 P0000 T01330117=
201005110052 METAR KATL 110052Z 08011KT 8SM FEW005 OVC070 14/12 A3025 RMK AO2 SLP241 T01390117=
201005102352 METAR KATL 102352Z 09011KT 7SM FEW005 SCT030 OVC070 14/12 A3024 RMK AO2 RAE2254B13E29 SLP241 P0000 60015 T01390122 10194 20139 58005=
201005102306 SPECI KATL 102306Z 08011KT 7SM FEW008 SCT023 BKN080 OVC130 14/12 A3025 RMK AO2 RAE2254 P0000=
201005102306 SPECI KATL 102306Z 08011KT 7SM FEW008 SCT023 BKN080 OVC130 14/12 A3025 RMK AO2 RAE2254 P0000=
201005102252 METAR KATL 102252Z 07010KT 3SM -RA BR SCT023 BKN080 OVC095 14/12 A3025 RMK AO2 SFC VIS 6 SLP244 P0006 T01390122=
201005102152 METAR KATL 102152Z 06011KT 3SM -RA BR BKN021 OVC080 14/12 A3026 RMK AO2 SFC VIS 4 SLP246 P0008 T01440122=
201005102120 SPECI KATL 102120Z 05011KT 3SM RA BKN023 OVC080 15/12 A3027 RMK AO2 SFC VIS 5 P0004=
201005102120 SPECI KATL 102120Z 05011KT 3SM RA BKN023 OVC080 15/12 A3027 RMK AO2 SFC VIS 5 P0004=
201005102054 SPECI KATL 102054Z 03011KT 5SM RA BKN026 BKN080 OVC100 16/11 A3026 RMK AO2 PRESRR P0000=
201005102054 SPECI KATL 102054Z 03011KT 5SM RA BKN026 BKN080 OVC100 16/11 A3026 RMK AO2 PRESRR P0000=
201005102052 METAR KATL 102052Z 03013KT 6SM RA FEW026 BKN080 OVC110 16/11 A3026 RMK AO2 RAB1955 PRESRR SLP244 P0001 60001 T01610111 53001=
201005101952 METAR KATL 101952Z 07013KT 10SM FEW080 BKN110 OVC150 18/09 A3023 RMK AO2 SLP234 SHRA NW T01830089=
201005101852 METAR KATL 101852Z 07010KT 10SM FEW090 BKN150 OVC200 19/09 A3024 RMK AO2 SLP237 T01890089=
201005101752 METAR KATL 101752Z 07006KT 10SM BKN090 BKN150 OVC200 19/08 A3025 RMK AO2 SLP243 T01890083 10200 20117 58003=
201005101652 METAR KATL 101652Z 08009G14KT 10SM FEW100 SCT150 BKN200 20/09 A3025 RMK AO2 SLP241 T02000094=
201005101552 METAR KATL 101552Z 09009KT 10SM FEW100 SCT150 BKN200 18/08 A3027 RMK AO2 SLP249 T01780078=
201005101452 METAR KATL 101452Z 08013KT 10SM FEW100 BKN150 BKN200 17/07 A3026 RMK AO2 SLP245 T01720067 51007=
201005101352 METAR KATL 101352Z 10012KT 10SM FEW070 SCT100 BKN200 15/06 A3025 RMK AO2 SLP242 T01500056=
201005101252 METAR KATL 101252Z 09013KT 10SM FEW150 SCT250 13/06 A3026 RMK AO2 SLP244 T01330056=
201005101152 METAR KATL 101152Z 08013KT 10SM FEW150 SCT250 12/06 A3024 RMK AO2 SLP239 T01170061 10128 20106 53015=
201005101052 METAR KATL 101052Z 07008KT 10SM FEW150 SCT250 11/06 A3022 RMK AO2 SLP232 T01110056=
201005100952 METAR KATL 100952Z 05007KT 10SM CLR 12/05 A3021 RMK AO2 SLP228 T01220050=
201005100852 METAR KATL 100852Z 02005KT 10SM CLR 12/05 A3020 RMK AO2 SLP222 T01220050 55001=
201005100752 METAR KATL 100752Z 34005KT 10SM CLR 11/06 A3019 RMK AO2 SLP221 T01110056=
201005100652 METAR KATL 100652Z 32004KT 10SM CLR 11/06 A3019 RMK AO2 SLP222 T01110061=
201005100552 METAR KATL 100552Z 31005KT 10SM CLR 12/06 A3020 RMK AO2 SLP224 T01220056 10172 20122 58010=
201005100452 METAR KATL 100452Z 31006KT 10SM CLR 12/06 A3022 RMK AO2 SLP231 T01220061 402170100=
201005100352 METAR KATL 100352Z 31006KT 10SM CLR 13/06 A3022 RMK AO2 SLP230 T01330056=
201005100252 METAR KATL 100252Z 32007KT 10SM CLR 14/05 A3023 RMK AO2 SLP235 T01440050 51011=
201005100152 METAR KATL 100152Z 32007KT 10SM CLR 15/04 A3022 RMK AO2 SLP232 T01500044=
201005100052 METAR KATL 100052Z 32006KT 10SM CLR 16/04 A3021 RMK AO2 SLP228 T01560044=
201005092352 METAR KATL 092352Z 30007KT 10SM FEW150 SCT200 17/06 A3020 RMK AO2 SLP224 T01720056 10217 20172 51003=
201005092252 METAR KATL 092252Z 33010KT 10SM SCT150 BKN200 BKN250 18/04 A3019 RMK AO2 SLP223 T01780039=
201005092152 METAR KATL 092152Z 33011KT 10SM FEW120 SCT150 BKN250 19/03 A3020 RMK AO2 SLP223 T01890033=
201005092135 SPECI KATL 092135Z 32013G18KT 10SM FEW002 SCT120 BKN150 BKN250 19/03 A3020 RMK AO2 FU FEW002=
201005092135 SPECI KATL 092135Z 32013G18KT 10SM FEW002 SCT120 BKN150 BKN250 19/03 A3020 RMK AO2 FU FEW002=
201005092052 METAR KATL 092052Z 34013G19KT 10SM BKN150 BKN200 20/03 A3019 RMK AO2 SLP220 T02000028 58013=
201005091952 METAR KATL 091952Z 32011G15KT 10SM BKN150 BKN200 21/04 A3020 RMK AO2 SLP225 T02110044=
201005091852 METAR KATL 091852Z 30009KT 10SM SCT150 BKN200 21/04 A3022 RMK AO2 SLP229 T02110044=
201005091752 METAR KATL 091752Z 33005KT 10SM FEW150 SCT200 19/03 A3023 RMK AO2 SLP233 T01940028 10194 20106 58008=
201005091652 METAR KATL 091652Z 31007KT 10SM FEW150 19/03 A3024 RMK AO2 SLP237 T01890033=
201005091552 METAR KATL 091552Z 00000KT 10SM FEW150 17/03 A3025 RMK AO2 SLP241 T01720033=
201005091452 METAR KATL 091452Z 35010KT 10SM FEW150 16/03 A3025 RMK AO2 SLP242 T01610028 51010=
201005091352 METAR KATL 091352Z 01011G17KT 10SM FEW150 SCT250 14/02 A3024 RMK AO2 SLP238 T01390017=
201005091252 METAR KATL 091252Z 35010KT 10SM FEW150 SCT250 12/04 A3024 RMK AO2 SLP238 T01220039=
201005091152 METAR KATL 091152Z 35007KT 10SM SCT250 11/03 A3022 RMK AO2 SLP231 T01060033 10139 20100 53019=
201005091052 METAR KATL 091052Z 33008KT 10SM CLR 10/03 A3020 RMK AO2 SLP225 T01000033=
201005090952 METAR KATL 090952Z 34008KT 10SM CLR 11/03 A3018 RMK AO2 SLP215 T01060033=
201005090852 METAR KATL 090852Z 33011KT 10SM FEW150 12/03 A3016 RMK AO2 SLP211 T01170033 53007=
201005090752 METAR KATL 090752Z 33009KT 10SM FEW150 12/03 A3015 RMK AO2 SLP205 T01220033=
201005090652 METAR KATL 090652Z 33009KT 10SM CLR 13/03 A3014 RMK AO2 SLP202 T01280028=
201005090552 METAR KATL 090552Z 34011KT 10SM CLR 14/02 A3014 RMK AO2 SLP203 T01390022 10211 20139 51005=
201005090452 METAR KATL 090452Z 34011G16KT 10SM CLR 15/02 A3014 RMK AO2 SLP201 T01500017 402440150=
201005090352 METAR KATL 090352Z 34011G18KT 10SM CLR 16/02 A3014 RMK AO2 SLP200 T01610017=
201005090252 METAR KATL 090252Z 33010KT 10SM CLR 17/03 A3013 RMK AO2 SLP196 T01720028 53024=
201005090152 METAR KATL 090152Z 33010KT 10SM CLR 18/03 A3010 RMK AO2 SLP187 T01830028=
201005090052 METAR KATL 090052Z 33010KT 10SM FEW250 19/03 A3007 RMK AO2 SLP177 T01940028=
201005082352 METAR KATL 082352Z 32010G19KT 10SM FEW250 21/02 A3005 RMK AO2 SLP169 T02110017 10244 20211 52007=
201005082252 METAR KATL 082252Z 32015G23KT 10SM FEW250 23/02 A3004 RMK AO2 SLP166 T02280022=
201005082152 METAR KATL 082152Z 33017G22KT 10SM FEW150 SCT250 24/03 A3004 RMK AO2 SLP164 T02390033=
201005082052 METAR KATL 082052Z 28016G21KT 10SM FEW100 SCT150 BKN250 23/07 A3003 RMK AO2 SLP161 T02330067 56006=
201005081952 METAR KATL 081952Z 32017G21KT 10SM FEW150 BKN250 24/08 A3003 RMK AO2 SLP160 T02440078=
201005081852 SPECI KATL 081852Z 27013G20KT 10SM SCT100 BKN250 24/09 A3004 RMK AO2 SLP164 T02390094=
201005081752 METAR KATL 081752Z 31012G20KT 10SM FEW050 SCT100 BKN250 23/07 A3005 RMK AO2 SLP166 T02330072 10239 20217 50010=
201005081652 METAR KATL 081652Z 33014G21KT 10SM FEW045 SCT120 SCT250 23/11 A3006 RMK AO2 SLP169 T02330106=
201005081552 METAR KATL 081552Z COR 31017G21KT 10SM FEW040 SCT120 SCT250 23/12 A3004 RMK AO2 SLP164 T02330117=
201005081452 METAR KATL 081452Z 30010G20KT 10SM FEW035 23/13 A3002 RMK AO2 SLP156 T02280133 51019=
201005081358 SPECI KATL 081358Z 32014G22KT 9SM SCT022 SCT029 23/16 A3001 RMK AO2=
201005081358 SPECI KATL 081358Z 32014G22KT 9SM SCT022 SCT029 23/16 A3001 RMK AO2=
201005081352 METAR KATL 081352Z 33016G23KT 9SM SCT022 BKN029 22/16 A3001 RMK AO2 PK WND 32026/1330 SLP152 T02220156=
201005081322 SPECI KATL 081322Z 33020G23KT 9SM BKN018 23/18 A2998 RMK AO2=
201005081322 SPECI KATL 081322Z 33020G23KT 9SM BKN018 23/18 A2998 RMK AO2=
201005081252 METAR KATL 081252Z 28010G17KT 8SM FEW015 SCT200 23/19 A2998 RMK AO2 SLP142 T02280194=
201005081152 METAR KATL 081152Z 27007KT 7SM FEW200 22/19 A2996 RMK AO2 SLP136 T02170194 10222 20211 53012=
201005081052 METAR KATL 081052Z 26009KT 7SM SCT200 21/19 A2995 RMK AO2 SLP131 T02110194=
201005080952 METAR KATL 080952Z 26009KT 10SM FEW140 BKN200 21/19 A2994 RMK AO2 SLP127 T02110194=
201005080852 METAR KATL 080852Z 24011G16KT 10SM FEW140 SCT200 22/19 A2993 RMK AO2 SLP123 T02170194 56012=
201005080752 METAR KATL 080752Z 24010G16KT 10SM FEW140 SCT200 22/19 A2993 RMK AO2 SLP123 T02220189=
201005080652 METAR KATL 080652Z 23008KT 10SM FEW200 22/19 A2994 RMK AO2 SLP128 T02220189=
201005080552 METAR KATL 080552Z 23006KT 10SM FEW200 23/18 A2996 RMK AO2 SLP135 T02280183 10272 20222 58000=
201005080452 METAR KATL 080452Z 23008KT 10SM CLR 23/18 A2996 RMK AO2 SLP136 T02280183 403000200=
201005080352 METAR KATL 080352Z 23006KT 10SM CLR 23/18 A2997 RMK AO2 SLP138 T02280183=
201005080252 METAR KATL 080252Z 21009KT 10SM CLR 24/18 A2996 RMK AO2 SLP136 T02390178 53006=
201005080152 METAR KATL 080152Z 20007KT 10SM CLR 25/18 A2996 RMK AO2 SLP133 T02500178=
201005080052 METAR KATL 080052Z 20009KT 10SM CLR 26/18 A2995 RMK AO2 SLP132 T02560183=
201005072352 METAR KATL 072352Z 21009KT 10SM CLR 27/18 A2995 RMK AO2 SLP131 T02720178 10300 20272 55005=
201005072252 METAR KATL 072252Z 19011KT 10SM CLR 28/18 A2994 RMK AO2 SLP129 T02830178=
201005072152 SPECI KATL 072152Z 20011KT 10SM CLR 29/17 A2995 RMK AO2 SLP132 T02940172=
201005072052 METAR KATL 072052Z 23012G17KT 10SM FEW050 30/17 A2996 RMK AO2 SLP135 T03000172 56016=
201005071952 METAR KATL 071952Z 19012G17KT 10SM FEW050 29/18 A2998 RMK AO2 SLP141 T02940178=
201005071852 METAR KATL 071852Z 19012G17KT 10SM FEW050 29/17 A2999 RMK AO2 SLP145 T02890172=
201005071752 METAR KATL 071752Z 21009KT 10SM SCT050 29/17 A3001 RMK AO2 SLP151 T02890172 10289 20211 58008=
201005071652 METAR KATL 071652Z 20010KT 10SM SCT050 29/17 A3002 RMK AO2 SLP155 T02890172=
201005071552 METAR KATL 071552Z 21009KT 10SM FEW043 28/17 A3003 RMK AO2 SLP160 T02830172=
201005071452 METAR KATL 071452Z 20007KT 10SM CLR 27/18 A3003 RMK AO2 SLP159 T02670178 51008=
201005071352 METAR KATL 071352Z 22004KT 10SM CLR 25/18 A3003 RMK AO2 SLP159 T02500178=
201005071252 METAR KATL 071252Z 00000KT 8SM CLR 22/18 A3002 RMK AO2 SLP157 T02220178=
201005071152 METAR KATL 071152Z 00000KT 8SM CLR 22/17 A3001 RMK AO2 SLP152 T02170172 10217 20200 53013=
201005071052 METAR KATL 071052Z 00000KT 7SM CLR 21/17 A2998 RMK AO2 SLP144 T02060167=
201005070952 METAR KATL 070952Z 00000KT 9SM CLR 21/17 A2997 RMK AO2 SLP140 T02060167=
201005070852 METAR KATL 070852Z 25003KT 9SM CLR 21/17 A2997 RMK AO2 SLP138 T02060172 55005=
201005070752 METAR KATL 070752Z 00000KT 8SM CLR 21/17 A2997 RMK AO2 SLP137 T02060167=
201005070652 METAR KATL 070652Z 00000KT 8SM CLR 21/17 A2997 RMK AO2 SLP138 T02110167=
201005070552 METAR KATL 070552Z 27003KT 9SM CLR 22/17 A2998 RMK AO2 SLP143 T02170167 10272 20217 58003=
201005070452 METAR KATL 070452Z 00000KT 10SM CLR 23/17 A2999 RMK AO2 SLP145 T02280172 403000183=
201005070352 METAR KATL 070352Z 00000KT 10SM CLR 23/17 A2999 RMK AO2 SLP145 T02280167=
201005070252 METAR KATL 070252Z 24003KT 9SM CLR 24/17 A2999 RMK AO2 SLP146 T02390167 53015=
201005070152 METAR KATL 070152Z 00000KT 10SM FEW060 26/16 A2998 RMK AO2 SLP141 T02560161=
201005070052 METAR KATL 070052Z 25004KT 10SM FEW060 27/16 A2996 RMK AO2 SLP134 T02670156=
201005062352 METAR KATL 062352Z 24005KT 10SM FEW060 27/15 A2995 RMK AO2 SLP131 T02720150 10300 20272 55000=
201005062252 METAR KATL 062252Z 28008KT 10SM FEW060 28/16 A2994 RMK AO2 SLP130 T02830156=
201005062152 METAR KATL 062152Z 24004KT 10SM FEW060 29/15 A2994 RMK AO2 SLP129 T02940150=
201005062052 METAR KATL 062052Z 29008KT 10SM FEW065 29/16 A2995 RMK AO2 SLP131 T02940156 58012=
201005061952 METAR KATL 061952Z 30008KT 10SM SCT065 29/16 A2996 RMK AO2 SLP136 T02940156=
201005061852 METAR KATL 061852Z 33005KT 10SM SCT060 29/14 A2998 RMK AO2 SLP142 T02940144=
201005061752 METAR KATL 061752Z COR 00000KT 10SM SCT060 29/16 A2998 RMK AO2 SLP144 T02890156 10294 20200 58008=
201005061652 METAR KATL 061652Z 00000KT 10SM SCT050 28/16 A3000 RMK AO2 SLP148 T02780156=
201005061552 METAR KATL 061552Z 26004KT 10SM FEW050 27/16 A3001 RMK AO2 SLP152 T02720161=
201005061452 METAR KATL 061452Z 29006KT 10SM CLR 26/16 A3001 RMK AO2 SLP152 T02610156 53004=
201005061352 METAR KATL 061352Z 31006KT 10SM CLR 25/17 A3000 RMK AO2 SLP149 T02500167=
201005061252 METAR KATL 061252Z 26003KT 10SM CLR 23/17 A3000 RMK AO2 SLP149 T02280172=
201005061152 METAR KATL 061152Z 28004KT 10SM CLR 20/17 A3000 RMK AO2 SLP148 T02000172 10200 20183 53009=
201005061052 METAR KATL 061052Z 30005KT 10SM CLR 18/16 A2998 RMK AO2 SLP144 T01830161=
201005060952 METAR KATL 060952Z 26003KT 10SM FEW050 19/16 A2997 RMK AO2 SLP141 T01890161=
201005060852 METAR KATL 060852Z 23005KT 10SM CLR 19/17 A2997 RMK AO2 SLP139 T01890167 55005=
201005060752 METAR KATL 060752Z 00000KT 10SM CLR 19/17 A2997 RMK AO2 SLP138 T01890167=
201005060652 METAR KATL 060652Z 21004KT 10SM CLR 19/17 A2997 RMK AO2 SLP138 T01940167=
201005060552 METAR KATL 060552Z 20006KT 10SM CLR 20/17 A2998 RMK AO2 SLP144 T02000167 10261 20200 55001=
201005060452 METAR KATL 060452Z 21005KT 10SM CLR 21/17 A2998 RMK AO2 SLP144 T02060167 402890161=
201005060352 METAR KATL 060352Z 19004KT 10SM CLR 22/16 A2998 RMK AO2 SLP142 T02170161=
201005060252 METAR KATL 060252Z 18007KT 10SM CLR 23/16 A2999 RMK AO2 SLP146 T02280161 51015=
201005060152 METAR KATL 060152Z 19005KT 10SM FEW050 23/16 A2998 RMK AO2 SLP143 T02280161=
201005060052 METAR KATL 060052Z 19005KT 10SM FEW055 24/16 A2996 RMK AO2 SLP138 T02390161=
201005052352 METAR KATL 052352Z 17007KT 10SM FEW055 26/16 A2994 RMK AO2 SLP131 T02610156 10289 20261 53002=
201005052252 METAR KATL 052252Z 18007KT 10SM FEW055 27/15 A2994 RMK AO2 SLP130 T02720150=
201005052152 METAR KATL 052152Z 19008KT 10SM FEW060 28/14 A2993 RMK AO2 SLP128 T02830144=
201005052052 METAR KATL 052052Z 15004KT 10SM FEW060 28/14 A2994 RMK AO2 SLP129 T02780139 58014=
201005051952 METAR KATL 051952Z 12007KT 10SM SCT060 28/16 A2995 RMK AO2 SLP134 T02830156=
201005051852 METAR KATL 051852Z 11008KT 10SM FEW055 28/16 A2996 RMK AO2 SLP138 T02780156=
201005051752 METAR KATL 051752Z VRB04KT 10SM SCT050 28/16 A2998 RMK AO2 SLP143 T02780156 10278 20189 58010=
201005051652 SPECI KATL 051652Z 14008KT 10SM FEW055 27/14 A3000 RMK AO2 SLP149 T02720139=
201005051552 METAR KATL 051552Z 16007KT 10SM FEW050 26/14 A3001 RMK AO2 SLP152 T02610139=
201005051452 SPECI KATL 051452Z 07005KT 10SM CLR 24/15 A3001 RMK AO2 SLP153 T02390150 50006=
201005051352 METAR KATL 051352Z VRB04KT 10SM CLR 22/14 A3001 RMK AO2 SLP155 T02220144=
201005051252 METAR KATL 051252Z 14004KT 10SM CLR 19/14 A3001 RMK AO2 SLP153 T01940144=
201005051152 METAR KATL 051152Z 00000KT 10SM CLR 19/13 A2999 RMK AO2 SLP147 T01890133 10200 20161 53014=
201005051052 METAR KATL 051052Z 01004KT 10SM CLR 18/12 A2997 RMK AO2 SLP139 T01780122=
201005050952 METAR KATL 050952Z 34005KT 10SM CLR 17/12 A2995 RMK AO2 SLP134 T01670117=
201005050852 METAR KATL 050852Z 00000KT 10SM CLR 17/13 A2995 RMK AO2 SLP133 T01720128 55001=
201005050752 METAR KATL 050752Z 00000KT 10SM CLR 18/13 A2994 RMK AO2 SLP130 T01830128=
201005050652 METAR KATL 050652Z 00000KT 10SM CLR 18/13 A2995 RMK AO2 SLP132 T01830128=
201005050552 METAR KATL 050552Z 00000KT 10SM CLR 19/13 A2995 RMK AO2 SLP134 T01890128 10256 20189 57004=
201005050452 METAR KATL 050452Z 00000KT 10SM CLR 19/14 A2996 RMK AO2 SLP136 T01940139 402780183=
201005050352 METAR KATL 050352Z 30006KT 10SM CLR 22/11 A2996 RMK AO2 SLP136 T02220111=
201005050252 METAR KATL 050252Z 28004KT 10SM CLR 22/12 A2997 RMK AO2 SLP138 T02220117 51015=
201005050152 METAR KATL 050152Z 29005KT 10SM CLR 22/12 A2996 RMK AO2 SLP137 T02220122=
201005050052 METAR KATL 050052Z 00000KT 10SM CLR 24/11 A2994 RMK AO2 SLP130 T02440111=
201005042352 METAR KATL 042352Z 27005KT 10SM FEW070 25/11 A2992 RMK AO2 SLP125 T02500111 10278 20250 58002=
201005042252 METAR KATL 042252Z 28003KT 10SM FEW070 27/11 A2993 RMK AO2 SLP125 T02720106=
201005042152 METAR KATL 042152Z 03005KT 10SM FEW070 27/09 A2993 RMK AO2 SLP126 T02720094=
201005042052 METAR KATL 042052Z 05005G17KT 10SM FEW060 27/08 A2993 RMK AO2 SLP124 T02720078 56021=
201005041952 METAR KATL 041952Z 03011KT 10SM FEW060 SCT150 27/09 A2993 RMK AO2 SLP126 T02720089=
201005041852 METAR KATL 041852Z 06008G15KT 10SM FEW150 SCT180 SCT280 27/11 A2995 RMK AO2 SLP134 T02670111=
201005041752 METAR KATL 041752Z 01006KT 10SM FEW100 BKN150 BKN180 25/10 A2999 RMK AO2 SLP147 T02500100 10261 20183 58001=
201005041652 METAR KATL 041652Z 01010KT 10SM FEW100 SCT150 SCT200 26/11 A2998 RMK AO2 SLP144 VIRGA NE & NW T02560111=
201005041552 METAR KATL 041552Z 03009KT 10SM FEW100 BKN150 BKN180 26/12 A3000 RMK AO2 SLP151 VIRGA NE & W ACC DSNT N T02560122=
201005041452 METAR KATL 041452Z 36009KT 10SM FEW100 BKN150 BKN180 24/14 A2999 RMK AO2 SLP148 ACC DSNT NW T02390144 58006=
201005041352 METAR KATL 041352Z 36005KT 10SM BKN150 22/17 A3002 RMK AO2 SLP157 T02220172=
201005041252 METAR KATL 041252Z 30003KT 3SM BR BKN150 19/18 A3002 RMK AO2 SFC VIS 5 SLP160 T01890178=
201005041152 METAR KATL 041152Z 30004KT 3SM BR FEW005 BKN150 18/17 A3001 RMK AO2 SFC VIS 5 SLP157 70074 T01830172 10200 20183 53016=
201005041052 METAR KATL 041052Z 31005KT 2SM BR SCT005 SCT150 18/17 A2998 RMK AO2 SFC VIS 5 SLP147 T01830172=
201005041013 SPECI KATL 041013Z 29004KT 2SM BR BKN005 18/18 A2998 RMK AO2 SFC VIS 5 CIG 003V007=
201005041013 SPECI KATL 041013Z 29004KT 2SM BR BKN005 18/18 A2998 RMK AO2 SFC VIS 5 CIG 003V007=
201005040952 METAR KATL 040952Z 27006KT 1 1/4SM BR BKN005 18/18 A2998 RMK AO2 SFC VIS 5 SLP145 T01830178=
201005040852 METAR KATL 040852Z 28007KT 5SM BR BKN005 BKN009 19/18 A2996 RMK AO2 SLP140 T01940183 58006=
201005040752 METAR KATL 040752Z 27006KT 5SM BR BKN006 19/19 A2997 RMK AO2 SLP142 T01940189=
201005040652 METAR KATL 040652Z 29006KT 7SM BKN013 OVC018 20/19 A2998 RMK AO2 SLP146 T02000189=
201005040552 METAR KATL 040552Z 29006KT 7SM SCT005 OVC012 21/19 A2998 RMK AO2 SLP147 T02060194 10217 20206 58003=
201005040452 METAR KATL 040452Z 23008KT 10SM OVC007 21/19 A2999 RMK AO2 SLP148 CIG 005V010 T02060194 402440200=
201005040352 METAR KATL 040352Z 23005KT 10SM BKN005 OVC009 21/20 A2999 RMK AO2 SLP149 CIG 005V010 T02060200=
201005040252 METAR KATL 040252Z 21004KT 10SM OVC005 21/20 A2999 RMK AO2 SLP149 CIG 004V007 T02110200 53006=
201005040152 METAR KATL 040152Z 18006KT 10SM OVC007 21/20 A2998 RMK AO2 SLP145 CIG 005V010 T02110200=
201005040124 SPECI KATL 040124Z 16004KT 10SM BKN009 OVC030 21/20 A2997 RMK AO2=
201005040124 SPECI KATL 040124Z 16004KT 10SM BKN009 OVC030 21/20 A2997 RMK AO2=
201005040107 SPECI KATL 040107Z 16003KT 10SM SCT009 BKN032 BKN050 21/20 A2997 RMK AO2=
201005040107 SPECI KATL 040107Z 16003KT 10SM SCT009 BKN032 BKN050 21/20 A2997 RMK AO2=
201005040058 SPECI KATL 040058Z 15005KT 10SM BKN009 BKN032 OVC055 21/20 A2997 RMK AO2 CIG 007V012=
201005040058 SPECI KATL 040058Z 15005KT 10SM BKN009 BKN032 OVC055 21/20 A2997 RMK AO2 CIG 007V012=
201005040052 METAR KATL 040052Z 15005KT 10SM FEW014 SCT032 BKN055 21/20 A2997 RMK AO2 SLP143 T02110200=
201005040020 SPECI KATL 040020Z 14003KT 10SM FEW008 SCT014 BKN028 22/20 A2998 RMK AO2=
201005040020 SPECI KATL 040020Z 14003KT 10SM FEW008 SCT014 BKN028 22/20 A2998 RMK AO2=
201005032352 METAR KATL 032352Z 00000KT 10SM SCT008 BKN012 OVC020 22/20 A2997 RMK AO2 SLP143 BINOVC DSNT W-NW 60001 T02170200 10222 20200 53006=
201005032309 SPECI KATL 032309Z 00000KT 10SM BKN010 OVC016 22/20 A2996 RMK AO2=
201005032309 SPECI KATL 032309Z 00000KT 10SM BKN010 OVC016 22/20 A2996 RMK AO2=
201005032252 METAR KATL 032252Z 00000KT 9SM BKN009 OVC015 22/20 A2996 RMK AO2 SLP136 T02170200=
201005032152 METAR KATL 032152Z 30003KT 6SM BR BKN009 BKN015 OVC040 22/19 A2995 RMK AO2 DZE36 SLP135 P0000 T02170194=
201005032052 METAR KATL 032052Z 00000KT 3SM -DZ BR FEW005 BKN008 OVC012 21/20 A2995 RMK AO2 RAE47DZB47 SLP136 P0000 60001 T02110200 58007=
201005032048 SPECI KATL 032048Z 00000KT 3SM -DZ BR FEW005 BKN008 OVC012 21/20 A2995 RMK AO2 RAE47DZB47 P0000=
201005032048 SPECI KATL 032048Z 00000KT 3SM -DZ BR FEW005 BKN008 OVC012 21/20 A2995 RMK AO2 RAE47DZB47 P0000=
201005031955 SPECI KATL 031955Z 00000KT 3SM -RA BR BKN010 BKN014 OVC040 21/19 A2997 RMK AO2 P0000=
201005031955 SPECI KATL 031955Z 00000KT 3SM -RA BR BKN010 BKN014 OVC040 21/19 A2997 RMK AO2 P0000=
201005031952 METAR KATL 031952Z 00000KT 6SM -RA BR BKN010 BKN014 OVC040 21/19 A2997 RMK AO2 RAB50 SLP140 P0000 T02110194=
201005031852 METAR KATL 031852Z 00000KT 6SM BR FEW008 BKN014 OVC040 21/19 A2997 RMK AO2 RAE30 SLP140 P0001 T02110194=
201005031759 SPECI KATL 031759Z 00000KT 6SM BR FEW006 BKN040 OVC100 20/19 A2998 RMK AO2 RAE59 P0000=
201005031759 SPECI KATL 031759Z 00000KT 6SM BR FEW006 BKN040 OVC100 20/19 A2998 RMK AO2 RAE59 P0000=
201005031752 METAR KATL 031752Z 26003KT 6SM -RA BR FEW006 BKN020 OVC100 20/19 A2998 RMK AO2 SLP142 P0022 60073 T02000194 10211 20200 51001=
201005031652 METAR KATL 031652Z 00000KT 3SM +RA BR FEW006 BKN020 OVC070 20/19 A2997 RMK AO2 RAB1554 SLP141 P0021 T02000194=
201005031625 SPECI KATL 031625Z 21003KT 4SM RA BR FEW006 BKN020 OVC070 21/20 A2998 RMK AO2 RAB1554 P0008=
201005031625 SPECI KATL 031625Z 21003KT 4SM RA BR FEW006 BKN020 OVC070 21/20 A2998 RMK AO2 RAB1554 P0008=
201005031619 SPECI KATL 031619Z 17004KT 3SM RA BR BKN019 BKN065 OVC080 21/20 A2997 RMK AO2 RAB1554 P0005=
201005031619 SPECI KATL 031619Z 17004KT 3SM RA BR BKN019 BKN065 OVC080 21/20 A2997 RMK AO2 RAB1554 P0005=
201005031608 SPECI KATL 031608Z 23004KT 4SM -RA BR FEW006 BKN030 OVC080 21/19 A3000 RMK AO2 RAB1554 P0001=
201005031608 SPECI KATL 031608Z 23004KT 4SM -RA BR FEW006 BKN030 OVC080 21/19 A3000 RMK AO2 RAB1554 P0001=
201005031603 SPECI KATL 031603Z 24004KT 5SM -RA BR SCT006 BKN065 OVC080 21/19 A2999 RMK AO2 RAB1554 P0000=
201005031603 SPECI KATL 031603Z 24004KT 5SM -RA BR SCT006 BKN065 OVC080 21/19 A2999 RMK AO2 RAB1554 P0000=
201005031552 METAR KATL 031552Z 24005KT 10SM SCT006 BKN011 OVC095 21/20 A2999 RMK AO2 RAB11E49 PRESRR SLP145 P0000 T02110200=
201005031452 METAR KATL 031452Z 25005KT 6SM BR SCT006 BKN025 OVC060 21/19 A2997 RMK AO2 RAE46 SLP140 P0006 60030 T02060194 53010=
201005031403 SPECI KATL 031403Z 26007KT 6SM -RA BR BKN006 BKN020 OVC060 21/20 A2997 RMK AO2 P0001=
201005031403 SPECI KATL 031403Z 26007KT 6SM -RA BR BKN006 BKN020 OVC060 21/20 A2997 RMK AO2 P0001=
201005031352 METAR KATL 031352Z 23004KT 4SM -RA BR FEW006 BKN020 OVC065 21/20 A2996 RMK AO2 SLP134 P0006 T02060200=
201005031339 SPECI KATL 031339Z 24005KT 3SM RA BR FEW006 BKN020 OVC065 21/20 A2997 RMK AO2 P0003=
201005031339 SPECI KATL 031339Z 24005KT 3SM RA BR FEW006 BKN020 OVC065 21/20 A2997 RMK AO2 P0003=
201005031335 SPECI KATL 031335Z 24005KT 5SM -RA BR FEW006 SCT021 OVC065 21/20 A2997 RMK AO2 P0002=
201005031335 SPECI KATL 031335Z 24005KT 5SM -RA BR FEW006 SCT021 OVC065 21/20 A2997 RMK AO2 P0002=
201005031252 METAR KATL 031252Z 21006KT 7SM -RA FEW017 BKN049 OVC120 21/20 A2994 RMK AO2 SLP127 P0018 T02060200=
201005031208 SPECI KATL 031208Z 26006KT 2SM RA BR BKN010 OVC017 21/19 A2992 RMK AO2 SFC VIS 4 P0013=
201005031208 SPECI KATL 031208Z 26006KT 2SM RA BR BKN010 OVC017 21/19 A2992 RMK AO2 SFC VIS 4 P0013=
201005031152 METAR KATL 031152Z 26011G18KT 1/2SM +RA BR BKN010 OVC017 21/20 A2994 RMK AO2 SFC VIS 1 3/4 TSE17 SLP128 TS MOV E P0050 60207 70207 T02110200 10244 20211 53014=
201005031140 SPECI KATL 031140Z 28014G22KT 1/2SM R09R/3500VP6000FT +RA BR BKN010 OVC017 22/21 A2994 RMK AO2 SFC VIS 1 TSE17 PRESRR TS MOV E P0029=
201005031140 SPECI KATL 031140Z 28014G22KT 1/2SM R09R/3500VP6000FT +RA BR BKN010 OVC017 22/21 A2994 RMK AO2 SFC VIS 1 TSE17 PRESRR TS MOV E P0029=
201005031123 SPECI KATL 031123Z 24005KT 2SM -RA BR BKN010 BKN017 OVC033 22/21 A2990 RMK AO2 SFC VIS 6 TSE17 TS MOV E P0006=
201005031123 SPECI KATL 031123Z 24005KT 2SM -RA BR BKN010 BKN017 OVC033 22/21 A2990 RMK AO2 SFC VIS 6 TSE17 TS MOV E P0006=
201005031052 METAR KATL 031052Z 19007G18KT 2SM TSRA BR FEW008 BKN019CB OVC036 22/21 A2988 RMK AO2 SFC VIS 5 SLP108 OCNL LTGCGIC E-SE-S TS E-SE-S MOV E P0127 T02170211=
201005031042 SPECI KATL 031042Z 16009KT 2SM -TSRA BR SCT008 BKN019CB OVC036 22/21 A2987 RMK AO2 SFC VIS 8 OCNL LTGCGIC E-SE-S TS E-SE-S MOV E P0125=
201005031042 SPECI KATL 031042Z 16009KT 2SM -TSRA BR SCT008 BKN019CB OVC036 22/21 A2987 RMK AO2 SFC VIS 8 OCNL LTGCGIC E-SE-S TS E-SE-S MOV E P0125=
201005031021 SPECI KATL 031021Z 18004KT 1/2SM R09R/5500VP6000FT +TSRA BR BKN008 OVC013CB 21/21 A2989 RMK AO2 SFC VIS 1 CONS LTGCGIC OHD & ALQDS TS OHD & ALQDS MOV NE P0102=
201005031021 SPECI KATL 031021Z 18004KT 1/2SM R09R/5500VP6000FT +TSRA BR BKN008 OVC013CB 21/21 A2989 RMK AO2 SFC VIS 1 CONS LTGCGIC OHD & ALQDS TS OHD & ALQDS MOV NE P0102=
201005031001 SPECI KATL 031001Z 28004KT 3/4SM R09R/2400VP6000FT +TSRA BR SCT008 OVC013CB 21/21 A2988 RMK AO2 FRQ LTGCGIC N & NE & SW-W-NW TS N & NE & SW-W-NW MOV NE P0037=
201005031001 SPECI KATL 031001Z 28004KT 3/4SM R09R/2400VP6000FT +TSRA BR SCT008 OVC013CB 21/21 A2988 RMK AO2 FRQ LTGCGIC N & NE & SW-W-NW TS N & NE & SW-W-NW MOV NE P0037=
201005030952 METAR KATL 030952Z COR 31010G16KT 4SM -TSRA BR FEW008 OVC013CB 22/21 A2988 RMK AO2 SLP106 FRQ LTGCGIC S-SW-W-NW TS S-SW-W-NW MOV NE P0018 T02170211=
201005030939 SPECI KATL 030939Z 00000KT 6SM -TSRA BR BKN016CB OVC022 22/21 A2986 RMK AO2 FRQ LTGCGIC NE & SW-W TS NE & SW-W MOV NE P0016=
201005030939 SPECI KATL 030939Z 00000KT 6SM -TSRA BR BKN016CB OVC022 22/21 A2986 RMK AO2 FRQ LTGCGIC NE & SW-W TS NE & SW-W MOV NE P0016=
201005030912 SPECI KATL 030912Z 08003KT 5SM TSRA BR FEW010 SCT014CB OVC022 22/21 A2987 RMK AO2 FRQ LTGCGIN ALQDS TS ALQDS MOV NE P0013=
201005030912 SPECI KATL 030912Z 08003KT 5SM TSRA BR FEW010 SCT014CB OVC022 22/21 A2987 RMK AO2 FRQ LTGCGIN ALQDS TS ALQDS MOV NE P0013=
201005030857 SPECI KATL 030857Z 33004KT 2 1/2SM +TSRA BR FEW010 SCT014CB OVC022 22/21 A2989 RMK AO2 FRQ LTGCGIN N & SE-S-SW-W-NW TSN & SE-S-SW-W-NW MOV NE P0005=
201005030857 SPECI KATL 030857Z 33004KT 2 1/2SM +TSRA BR FEW010 SCT014CB OVC022 22/21 A2989 RMK AO2 FRQ LTGCGIN N & SE-S-SW-W-NW TSN & SE-S-SW-W-NW MOV NE P0005=
201005030852 METAR KATL 030852Z 32007KT 6SM +TSRA BR BKN022CB OVC029 22/21 A2990 RMK AO2 TSB06 SLP113 FRQ LTGCGIC N & SW-W-NW TS N & SW-W-NW MOV NE P0008 60012 T02220211 55003=
201005030809 SPECI KATL 030809Z 17005KT 6SM -TSRA BR BKN024CB OVC029 23/21 A2989 RMK AO2 TSB06 FRQ LTGCGIC SW-W-NW TS SW-W-NW MOV NE P0001=
201005030809 SPECI KATL 030809Z 17005KT 6SM -TSRA BR BKN024CB OVC029 23/21 A2989 RMK AO2 TSB06 FRQ LTGCGIC SW-W-NW TS SW-W-NW MOV NE P0001=
201005030752 METAR KATL 030752Z 20006KT 6SM -RA BR BKN024 OVC029 23/21 A2989 RMK AO2 RAB0655 SLP111 OCNL LTG DSNT W-NW P0004 T02280206=
201005030652 METAR KATL 030652Z 20012G18KT 8SM BKN024 OVC033 24/20 A2990 RMK AO2 RAB28E37 SLP113 OCNL LTG DSNT W P0000 T02390200=
201005030552 METAR KATL 030552Z 19014KT 8SM BKN024 OVC033 24/20 A2991 RMK AO2 SLP116 T02440200 10283 20244 58005=
201005030507 SPECI KATL 030507Z 20012G22KT 10SM BKN028 OVC035 24/20 A2992 RMK AO2=
201005030507 SPECI KATL 030507Z 20012G22KT 10SM BKN028 OVC035 24/20 A2992 RMK AO2=
201005030452 METAR KATL 030452Z 20014G19KT 10SM SCT026 BKN035 OVC200 24/20 A2992 RMK AO2 SLP121 T02440200 403170217=
201005030352 METAR KATL 030352Z 19013KT 10SM FEW028 SCT120 BKN200 25/20 A2992 RMK AO2 SLP120 T02500200=
201005030252 METAR KATL 030252Z 19013G19KT 10SM SCT033 SCT120 OVC200 26/19 A2992 RMK AO2 SLP121 T02560194 53016=
201005030152 METAR KATL 030152Z 19014G20KT 10SM SCT041 BKN065 BKN120 OVC200 27/20 A2991 RMK AO2 SLP116 T02670200=
201005030052 METAR KATL 030052Z 19013KT 10SM FEW042 BKN065 BKN120 BKN200 28/19 A2989 RMK AO2 SLP111 T02780194=
201005022352 METAR KATL 022352Z 18013G18KT 10SM FEW048 SCT120 SCT200 28/19 A2987 RMK AO2 SLP106 T02830194 10317 20283 51001=
201005022252 METAR KATL 022252Z 20020G27KT 10SM SCT050 SCT150 SCT200 29/19 A2987 RMK AO2 PK WND 19032/2156 SLP105 T02940189=
201005022152 METAR KATL 022152Z 19019G28KT 10SM SCT055 BKN200 31/18 A2988 RMK AO2 PK WND 19032/2055 SLP106 T03060183=
201005022052 METAR KATL 022052Z 19019G26KT 10SM SCT055 SCT070 BKN200 30/18 A2987 RMK AO2 PK WND 19033/2025 SLP104 T03000183 58015=
201005021952 METAR KATL 021952Z 19017G24KT 10SM SCT049 BKN055 BKN200 31/19 A2989 RMK AO2 PK WND 20030/1922 SLP109 T03110189=
201005021852 METAR KATL 021852Z 20018G30KT 10SM SCT045 BKN055 BKN200 31/19 A2991 RMK AO2 PK WND 21033/1819 SLP116 T03060194=
201005021752 METAR KATL 021752Z 20021G33KT 10SM SCT044 BKN055 BKN150 29/19 A2991 RMK AO2 PK WND 20033/1752 SLP119 T02940194 10300 20222 58004=
201005021652 METAR KATL 021652Z 19020G29KT 10SM SCT039 BKN046 BKN150 29/19 A2993 RMK AO2 PK WND 21030/1641 SLP126 T02890194=
201005021552 METAR KATL 021552Z 20015G25KT 10SM SCT035 28/20 A2992 RMK AO2 PK WND 20029/1534 SLP122 T02780200=
201005021509 SPECI KATL 021509Z 20013G24KT 10SM SCT025 BKN032 27/21 A2992 RMK AO2 PK WND 19029/1459=
201005021509 SPECI KATL 021509Z 20013G24KT 10SM SCT025 BKN032 27/21 A2992 RMK AO2 PK WND 19029/1459=
201005021452 METAR KATL 021452Z 19015G28KT 10SM BKN023 BKN029 27/21 A2993 RMK AO2 PK WND 19028/1449 SLP124 T02670206 58001=
201005021352 METAR KATL 021352Z 20015G23KT 10SM BKN017 BKN029 26/21 A2993 RMK AO2 SLP125 T02560211=
201005021252 METAR KATL 021252Z 19012KT 10SM BKN019 BKN040 24/21 A2993 RMK AO2 SLP125 T02390206=
201005021155 SPECI KATL 021155Z 19009KT 9SM BKN019 BKN040 22/20 A2993 RMK AO2=
201005021155 SPECI KATL 021155Z 19009KT 9SM BKN019 BKN040 22/20 A2993 RMK AO2=
201005021152 METAR KATL 021152Z 19009KT 9SM SCT020 BKN040 22/20 A2993 RMK AO2 SLP126 T02220200 10222 20217 53009=
201005021052 METAR KATL 021052Z 20007KT 8SM SCT013 SCT040 BKN250 22/20 A2991 RMK AO2 SLP119 T02170200=
201005021048 SPECI KATL 021048Z 19007KT 9SM SCT013 SCT040 BKN250 22/20 A2991 RMK AO2=
201005021048 SPECI KATL 021048Z 19007KT 9SM SCT013 SCT040 BKN250 22/20 A2991 RMK AO2=
201005020952 METAR KATL 020952Z 20010KT 10SM BKN013 OVC040 22/20 A2990 RMK AO2 SLP117 T02220200=
201005020852 METAR KATL 020852Z 17010KT 10SM OVC013 22/20 A2990 RMK AO2 SLP117 T02220200 56007=
201005020752 METAR KATL 020752Z 19011G18KT 10SM OVC013 22/20 A2991 RMK AO2 SLP119 T02220200=
201005020735 SPECI KATL 020735Z 18008KT 10SM OVC014 22/20 A2991 RMK AO2=
201005020735 SPECI KATL 020735Z 18008KT 10SM OVC014 22/20 A2991 RMK AO2=
201005020652 METAR KATL 020652Z 17007KT 10SM BKN016 BKN050 OVC250 22/20 A2992 RMK AO2 SLP121 T02170200=
201005020625 SPECI KATL 020625Z 17006KT 10SM BKN017 BKN050 OVC250 22/20 A2992 RMK AO2=
201005020625 SPECI KATL 020625Z 17006KT 10SM BKN017 BKN050 OVC250 22/20 A2992 RMK AO2=
201005020552 METAR KATL 020552Z 17008KT 10SM FEW050 SCT250 22/19 A2993 RMK AO2 SLP124 T02220194 10256 20217 56003=
201005020452 METAR KATL 020452Z 17007KT 10SM FEW050 SCT250 22/19 A2993 RMK AO2 SLP126 T02220194 402720194=
201005020352 METAR KATL 020352Z 16008KT 10SM FEW050 23/19 A2993 RMK AO2 SLP127 T02280194=
201005020252 METAR KATL 020252Z 17008KT 10SM FEW050 23/19 A2994 RMK AO2 SLP128 T02330189 53013=
201005020152 METAR KATL 020152Z 17009KT 10SM CLR 24/19 A2992 RMK AO2 SLP122 T02390194=
201005020052 METAR KATL 020052Z 17007KT 10SM FEW049 SCT200 24/19 A2990 RMK AO2 SLP116 T02440194=
201005012352 METAR KATL 012352Z 18008KT 10SM FEW049 SCT150 BKN200 26/19 A2990 RMK AO2 SLP115 60000 T02560189 10272 20244 53001=
201005012252 METAR KATL 012252Z 20014KT 10SM SCT040 SCT049 BKN150 27/19 A2988 RMK AO2 SLP109 T02670194=
201005012152 METAR KATL 012152Z 19010G17KT 10SM BKN034 BKN043 BKN050 27/21 A2988 RMK AO2 SLP108 T02670206=
201005012052 METAR KATL 012052Z 20010KT 10SM SCT024 BKN032 BKN043 26/21 A2989 RMK AO2 SLP113 60000 T02610206 56017=
201005011952 METAR KATL 011952Z 19013G17KT 9SM BKN018 BKN025 OVC042 24/21 A2991 RMK AO2 SLP120 T02440206=
201005011852 METAR KATL 011852Z 19009G20KT 9SM SCT020 BKN025 OVC034 25/21 A2993 RMK AO2 RAB15E24 SLP125 P0000 T02500206=
201005011752 METAR KATL 011752Z 18008KT 8SM BKN018 BKN025 OVC047 25/21 A2994 RMK AO2 SLP132 T02500211 10250 20200 58005=
201005011652 METAR KATL 011652Z 17006KT 7SM SCT012 BKN017 OVC021 23/20 A2996 RMK AO2 SLP138 T02330200=
201005011644 SPECI KATL 011644Z 17006KT 7SM SCT012 BKN017 OVC021 23/20 A2996 RMK AO2=
201005011644 SPECI KATL 011644Z 17006KT 7SM SCT012 BKN017 OVC021 23/20 A2996 RMK AO2=
201005011552 SPECI KATL 011552Z 18008KT 7SM OVC010 23/20 A2997 RMK AO2 SLP142 T02280200=
201005011546 SPECI KATL 011546Z 20009KT 7SM OVC010 22/20 A2997 RMK AO2=
201005011546 SPECI KATL 011546Z 20009KT 7SM OVC010 22/20 A2997 RMK AO2=
201005011452 METAR KATL 011452Z 19010KT 7SM OVC008 22/19 A2996 RMK AO2 SLP138 T02170194 57003=
201005011352 METAR KATL 011352Z 18009KT 7SM OVC006 21/19 A2996 RMK AO2 SLP138 T02060189=
201005011252 METAR KATL 011252Z 18009G16KT 10SM BKN007 OVC018 20/18 A2997 RMK AO2 SLP141 T02000183=
