##########################################################
# Query made at 04/19/2024 23:18:20 UTC
# Time interval: from 09/01/2010 12:00  to 09/30/2010 12:59  UTC
##########################################################

##########################################################
# KATL, Atlanta, Hartsfield - Jackson Atlanta International Airport (United States)
# WMO index: 72219. WIGOS ID: 0-20000-0-72219
# Latitude 33-38-59N. Longitude 084-25-00W. Altitude 312 m.
##########################################################

201009301252 METAR KATL 301252Z 30006KT 7SM SCT007 BKN013 BKN120 17/16 A2966 RMK AO2 SLP037 T01720161=
201009301216 SPECI KATL 301216Z 28006KT 7SM FEW007 SCT013 SCT120 17/16 A2966 RMK AO2=
201009301216 SPECI KATL 301216Z 28006KT 7SM FEW007 SCT013 SCT120 17/16 A2966 RMK AO2=
201009301159 SPECI KATL 301159Z 28007KT 7SM SCT013 BKN110 17/16 A2966 RMK AO2=
201009301159 SPECI KATL 301159Z 28007KT 7SM SCT013 BKN110 17/16 A2966 RMK AO2=
201009301152 METAR KATL 301152Z 27006KT 7SM SCT006 BKN013 BKN110 17/16 A2965 RMK AO2 SLP035 60010 70010 T01670156 10183 20167 53008=
201009301052 METAR KATL 301052Z 30006KT 7SM BKN006 OVC110 17/16 A2964 RMK AO2 SLP030 T01720161=
201009301049 SPECI KATL 301049Z 29007KT 7SM BKN006 OVC110 17/16 A2964 RMK AO2=
201009301049 SPECI KATL 301049Z 29007KT 7SM BKN006 OVC110 17/16 A2964 RMK AO2=
201009300952 METAR KATL 300952Z 28004KT 6SM BR SCT008 BKN015 OVC110 17/17 A2963 RMK AO2 RAE46 SLP026 P0002 T01720167=
201009300852 METAR KATL 300852Z 33007KT 6SM -RA BR SCT008 BKN015 OVC110 18/17 A2963 RMK AO2 SLP027 P0005 60008 T01780167 58008=
201009300752 METAR KATL 300752Z 34008KT 6SM -RA BR SCT008 BKN013 OVC025 18/17 A2965 RMK AO2 DZE50RAB50 SLP031 P0003 T01780167=
201009300652 METAR KATL 300652Z 02008KT 6SM -DZ BR BKN010 BKN016 OVC023 18/17 A2966 RMK AO2 DZB42 CIG 007V013 SLP035 P0000 T01830167=
201009300552 METAR KATL 300552Z VRB06KT 6SM BR BKN008 BKN039 OVC047 18/16 A2966 RMK AO2 RAE31 CIG 006V011 SLP036 P0000 60000 T01830161 10200 20178 58016=
201009300542 SPECI KATL 300542Z 02006KT 10SM BKN008 OVC039 18/16 A2966 RMK AO2 RAE31 CIG 006V011 P0000=
201009300542 SPECI KATL 300542Z 02006KT 10SM BKN008 OVC039 18/16 A2966 RMK AO2 RAE31 CIG 006V011 P0000=
201009300452 METAR KATL 300452Z 05011KT 10SM -RA FEW015 BKN035 BKN080 18/16 A2968 RMK AO2 SLP041 P0000 T01830156 402610144=
201009300404 SPECI KATL 300404Z 05009KT 10SM -RA FEW015 SCT028 BKN080 18/15 A2969 RMK AO2 P0000=
201009300404 SPECI KATL 300404Z 05009KT 10SM -RA FEW015 SCT028 BKN080 18/15 A2969 RMK AO2 P0000=
201009300352 METAR KATL 300352Z 05012KT 10SM -RA BKN015 BKN028 BKN080 18/15 A2970 RMK AO2 RAB32 SLP049 P0000 T01830150=
201009300349 SPECI KATL 300349Z 05014KT 10SM -RA BKN015 BKN080 18/15 A2970 RMK AO2 RAB32 P0000=
201009300349 SPECI KATL 300349Z 05014KT 10SM -RA BKN015 BKN080 18/15 A2970 RMK AO2 RAB32 P0000=
201009300332 SPECI KATL 300332Z 04012KT 10SM -RA SCT015 BKN080 18/15 A2970 RMK AO2 RAB32 P0000=
201009300332 SPECI KATL 300332Z 04012KT 10SM -RA SCT015 BKN080 18/15 A2970 RMK AO2 RAB32 P0000=
201009300252 METAR KATL 300252Z 06008KT 10SM BKN015 BKN090 18/15 A2971 RMK AO2 SLP053 T01830150 53001=
201009300207 SPECI KATL 300207Z 05010KT 10SM BKN015 BKN070 19/15 A2971 RMK AO2=
201009300207 SPECI KATL 300207Z 05010KT 10SM BKN015 BKN070 19/15 A2971 RMK AO2=
201009300152 METAR KATL 300152Z 06015KT 10SM FEW017 SCT070 19/15 A2971 RMK AO2 SLP053 T01890150=
201009300147 SPECI KATL 300147Z 05013G21KT 10SM SCT017 SCT070 19/15 A2971 RMK AO2=
201009300147 SPECI KATL 300147Z 05013G21KT 10SM SCT017 SCT070 19/15 A2971 RMK AO2=
201009300116 SPECI KATL 300116Z 05012KT 10SM BKN017 OVC070 19/16 A2971 RMK AO2=
201009300116 SPECI KATL 300116Z 05012KT 10SM BKN017 OVC070 19/16 A2971 RMK AO2=
201009300052 METAR KATL 300052Z 06010KT 10SM FEW025 BKN070 19/16 A2970 RMK AO2 SLP052 T01940156=
201009292352 METAR KATL 292352Z 05011KT 10SM FEW030 SCT060 20/16 A2970 RMK AO2 SLP052 T02000156 10261 20200 58002=
201009292252 METAR KATL 292252Z 07012KT 10SM FEW030 SCT060 21/16 A2971 RMK AO2 SLP054 T02110156=
201009292152 METAR KATL 292152Z 07012G17KT 10SM SCT035 BKN050 BKN200 23/14 A2970 RMK AO2 SLP052 T02330144=
201009292052 METAR KATL 292052Z 06015KT 10SM FEW040 SCT050 SCT200 24/14 A2971 RMK AO2 SLP053 T02390144 56012=
201009291952 METAR KATL 291952Z 08016KT 10SM FEW040 BKN060 BKN070 24/14 A2971 RMK AO2 SLP054 T02440144=
201009291852 METAR KATL 291852Z 02007KT 340V060 10SM FEW045 BKN055 25/14 A2972 RMK AO2 SLP057 T02500139=
201009291752 METAR KATL 291752Z 06005KT 10SM BKN045 BKN055 24/13 A2974 RMK AO2 SLP065 T02390133 10250 20161 58016=
201009291652 METAR KATL 291652Z 03007KT 10SM BKN040 BKN150 BKN250 24/14 A2976 RMK AO2 SLP071 T02390139=
201009291552 METAR KATL 291552Z 06011G15KT 10SM BKN030 23/15 A2978 RMK AO2 SLP076 T02280150=
201009291452 METAR KATL 291452Z 09008KT 10SM FEW030 SCT150 21/15 A2979 RMK AO2 SLP082 T02110150 50000=
201009291352 METAR KATL 291352Z 08006KT 10SM FEW150 19/13 A2981 RMK AO2 SLP086 T01940128=
201009291252 METAR KATL 291252Z 06007KT 10SM FEW150 18/12 A2980 RMK AO2 SLP084 T01780122=
201009291152 METAR KATL 291152Z 05006KT 10SM SCT150 SCT250 16/11 A2979 RMK AO2 SLP081 T01610111 10167 20144 53007=
201009291052 METAR KATL 291052Z 03007KT 10SM FEW250 16/11 A2979 RMK AO2 SLP079 T01560111=
201009290952 METAR KATL 290952Z 01004KT 10SM CLR 16/12 A2977 RMK AO2 SLP074 T01560117=
201009290852 METAR KATL 290852Z 00000KT 10SM FEW150 14/11 A2977 RMK AO2 SLP074 T01440111 55005=
201009290752 METAR KATL 290752Z 36004KT 10SM FEW150 16/11 A2977 RMK AO2 SLP073 T01610111=
201009290652 METAR KATL 290652Z 34006KT 10SM FEW150 SCT250 16/12 A2978 RMK AO2 SLP076 T01560117=
201009290552 METAR KATL 290552Z 34005KT 10SM FEW250 16/12 A2978 RMK AO2 SLP079 T01560122 10222 20156 58003=
201009290452 METAR KATL 290452Z 34003KT 10SM FEW150 SCT250 16/12 A2979 RMK AO2 SLP082 T01610122 402440122=
201009290352 METAR KATL 290352Z 01005KT 10SM BKN150 BKN250 19/11 A2979 RMK AO2 SLP082 T01890111=
201009290252 METAR KATL 290252Z VRB03KT 10SM BKN150 18/12 A2979 RMK AO2 SLP084 T01830122 51007=
201009290152 METAR KATL 290152Z 33005KT 10SM FEW150 19/11 A2978 RMK AO2 SLP079 T01940111=
201009290052 METAR KATL 290052Z 00000KT 10SM SCT150 20/11 A2979 RMK AO2 SLP082 T02000111=
201009282352 METAR KATL 282352Z 00000KT 10SM FEW150 BKN250 22/09 A2977 RMK AO2 SLP077 T02220089 10244 20217 53004=
201009282252 METAR KATL 282252Z 35005KT 10SM FEW200 BKN250 23/09 A2977 RMK AO2 SLP075 T02280089=
201009282152 METAR KATL 282152Z 00000KT 10SM FEW055 SCT200 BKN250 23/09 A2976 RMK AO2 SLP071 T02330089=
201009282052 METAR KATL 282052Z 29005KT 10SM FEW055 SCT200 BKN250 24/10 A2976 RMK AO2 SLP071 T02390100 56015=
201009281952 METAR KATL 281952Z 35009KT 10SM FEW055 SCT200 BKN250 23/10 A2977 RMK AO2 SLP075 T02330100=
201009281852 METAR KATL 281852Z 27006KT 10SM FEW055 SCT200 SCT250 24/09 A2979 RMK AO2 SLP081 T02390094=
201009281752 METAR KATL 281752Z 31007KT 10SM FEW050 SCT200 SCT250 23/11 A2980 RMK AO2 SLP086 T02330106 10233 20122 58013=
201009281652 METAR KATL 281652Z 33008KT 10SM FEW035 SCT200 SCT250 22/12 A2982 RMK AO2 SLP092 T02170122=
201009281552 METAR KATL 281552Z 31004KT 10SM BKN250 19/13 A2984 RMK AO2 SLP100 T01890133=
201009281452 METAR KATL 281452Z VRB06KT 10SM FEW010 SCT200 BKN250 17/14 A2984 RMK AO2 SLP101 T01720139 51010=
201009281352 METAR KATL 281352Z 31007KT 5SM BR BCFG SCT004 SCT200 BKN250 14/13 A2983 RMK AO2 SLP100 T01440128=
201009281252 METAR KATL 281252Z 32007KT 7SM SCT004 BKN200 14/12 A2982 RMK AO2 SLP096 T01390122=
201009281152 METAR KATL 281152Z 29006KT 7SM FEW180 12/11 A2981 RMK AO2 SLP092 70015 T01220111 10144 20122 53010=
201009281052 METAR KATL 281052Z 29007KT 10SM CLR 13/12 A2980 RMK AO2 SLP087 T01280117=
201009280952 METAR KATL 280952Z 30007KT 10SM CLR 13/12 A2979 RMK AO2 SLP083 T01280117=
201009280852 METAR KATL 280852Z 29007KT 8SM SCT005 13/12 A2978 RMK AO2 SLP077 T01280117 56010=
201009280752 METAR KATL 280752Z 28006KT 7SM FEW004 13/12 A2979 RMK AO2 SLP079 T01330122=
201009280652 METAR KATL 280652Z 28009KT 10SM FEW004 14/13 A2979 RMK AO2 SLP082 T01390128=
201009280552 METAR KATL 280552Z 27008KT 9SM FEW004 14/13 A2981 RMK AO2 SLP088 60000 T01440133 10161 20144 51003=
201009280547 SPECI KATL 280547Z 27007KT 9SM FEW004 14/13 A2981 RMK AO2=
201009280547 SPECI KATL 280547Z 27007KT 9SM FEW004 14/13 A2981 RMK AO2=
201009280522 SPECI KATL 280522Z 26005KT 9SM BKN004 14/13 A2981 RMK AO2=
201009280522 SPECI KATL 280522Z 26005KT 9SM BKN004 14/13 A2981 RMK AO2=
201009280507 SPECI KATL 280507Z 26005KT 9SM SCT004 14/14 A2980 RMK AO2=
201009280507 SPECI KATL 280507Z 26005KT 9SM SCT004 14/14 A2980 RMK AO2=
201009280452 METAR KATL 280452Z 26005KT 9SM FEW010 14/14 A2980 RMK AO2 SLP086 T01440139 402720144=
201009280352 METAR KATL 280352Z 26004KT 10SM FEW015 15/14 A2980 RMK AO2 SLP085 T01500139=
201009280252 METAR KATL 280252Z 30006KT 10SM FEW015 16/14 A2979 RMK AO2 SLP084 60000 T01560144 51009=
201009280152 METAR KATL 280152Z 28005KT 10SM FEW020 16/14 A2979 RMK AO2 SLP084 T01560144=
201009280052 METAR KATL 280052Z 32005KT 10SM FEW150 16/14 A2977 RMK AO2 RAE01 SLP077 P0000 T01560144=
201009272352 METAR KATL 272352Z COR 34010KT 10SM -RA SCT030 SCT070CB BKN100 BKN150 16/14 A2977 RMK AO2 TSB32E52 SLP075 TS DSIPTD CBMAM E-OHD-NW P0005 60015 T01610144 10272 20161 50021=
201009272332 SPECI KATL 272332Z 31008G16KT 8SM -TSRA FEW008 SCT035CB BKN080 BKN150 17/14 A2978 RMK AO2 TSB32 OCNL LTGICCG SE-SW TS SE-SW MOV E P0002=
201009272332 SPECI KATL 272332Z 31008G16KT 8SM -TSRA FEW008 SCT035CB BKN080 BKN150 17/14 A2978 RMK AO2 TSB32 OCNL LTGICCG SE-SW TS SE-SW MOV E P0002=
201009272328 SPECI KATL 272328Z 32011G16KT 10SM -RA FEW008 SCT035CB BKN080 BKN150 17/14 A2977 RMK AO2 PRESRR CB S-SW MOV E P0002=
201009272328 SPECI KATL 272328Z 32011G16KT 10SM -RA FEW008 SCT035CB BKN080 BKN150 17/14 A2977 RMK AO2 PRESRR CB S-SW MOV E P0002=
201009272252 METAR KATL 272252Z 32011G19KT 6SM RA SCT040 BKN055 BKN080 OVC150 16/13 A2977 RMK AO2 PK WND 30029/2227 TSE50 SLP075 TS DSIPTD P0009 T01610128=
201009272239 SPECI KATL 272239Z 29016G28KT 10SM -TSRA FEW040CB BKN055 BKN090 OVC150 17/13 A2977 RMK AO2 PK WND 30029/2227 OCNL LTGIC NW TS NW MOV NE P0007=
201009272239 SPECI KATL 272239Z 29016G28KT 10SM -TSRA FEW040CB BKN055 BKN090 OVC150 17/13 A2977 RMK AO2 PK WND 30029/2227 OCNL LTGIC NW TS NW MOV NE P0007=
201009272152 METAR KATL 272152Z 23015G22KT 7SM -TSRA SCT040CB BKN060 BKN090 BKN150 21/16 A2971 RMK AO2 TSB36RAB40 SLP055 FRQ LTGICCG SE-SW AND DSNT NW-N TS SE-SW AND DSNT NW-N MOV NE P0001 T02110156=
201009272136 SPECI KATL 272136Z 24011G17KT 10SM TS FEW040CB SCT070 BKN100 BKN150 23/14 A2970 RMK AO2 TSB36 FRQ LTGICCG SW AND DSNT NW TS SW AND DSNT NW MOV NE=
201009272136 SPECI KATL 272136Z 24011G17KT 10SM TS FEW040CB SCT070 BKN100 BKN150 23/14 A2970 RMK AO2 TSB36 FRQ LTGICCG SW AND DSNT NW TS SW AND DSNT NW MOV NE=
201009272052 METAR KATL 272052Z 22010KT 10SM SCT040TCU BKN055 BKN100 26/14 A2970 RMK AO2 SLP049 CB DSNT SW-NW TCU ALQDS T02610144 56012=
201009271952 METAR KATL 271952Z 24008KT 10SM BKN040 25/15 A2971 RMK AO2 SLP052 TCU DSNT NW-N T02500150=
201009271852 METAR KATL 271852Z 26007KT 10SM BKN045 24/16 A2972 RMK AO2 SLP055 TCU DSNT NW-N T02440156=
201009271752 METAR KATL 271752Z 24006KT 10SM FEW030 25/16 A2974 RMK AO2 SLP061 60000 T02500156 10250 20183 58008=
201009271652 METAR KATL 271652Z VRB06KT 10SM SCT025 23/17 A2976 RMK AO2 SLP071 T02330172=
201009271552 METAR KATL 271552Z 25005KT 10SM BKN015TCU BKN040 22/18 A2977 RMK AO2 SLP073 TCU ALQDS T02220178=
201009271514 SPECI KATL 271514Z 28004KT 10SM FEW009 BKN012 BKN020 21/18 A2977 RMK AO2=
201009271514 SPECI KATL 271514Z 28004KT 10SM FEW009 BKN012 BKN020 21/18 A2977 RMK AO2=
201009271452 METAR KATL 271452Z 23004KT 10SM FEW006 BKN009 BKN012 21/18 A2976 RMK AO2 SLP072 60000 T02060178 51004=
201009271352 METAR KATL 271352Z 29003KT 8SM BKN005 OVC009 19/18 A2976 RMK AO2 DZE22 SLP072 P0000 T01940183=
201009271325 SPECI KATL 271325Z 27003KT 6SM BR BKN005 BKN009 19/18 A2976 RMK AO2 DZE22 P0000=
201009271325 SPECI KATL 271325Z 27003KT 6SM BR BKN005 BKN009 19/18 A2976 RMK AO2 DZE22 P0000=
201009271252 METAR KATL 271252Z 32003KT 2SM -DZ BR BKN005 OVC009 19/18 A2976 RMK AO2 SFC VIS 4 DZB48 SLP071 P0000 T01890178=
201009271232 SPECI KATL 271232Z 32004KT 2SM BR BKN005 OVC008 18/18 A2975 RMK AO2 SFC VIS 3=
201009271232 SPECI KATL 271232Z 32004KT 2SM BR BKN005 OVC008 18/18 A2975 RMK AO2 SFC VIS 3=
201009271152 METAR KATL 271152Z 32004KT 1SM BR SCT003 OVC005 18/18 A2975 RMK AO2 SFC VIS 2 1/2 RAB14E40 SLP069 P0001 60008 70111 T01830178 10189 20183 53004=
201009271118 SPECI KATL 271118Z 00000KT 1/2SM -RA BR SCT003 OVC005 19/18 A2973 RMK AO2 SFC VIS 2 1/2 RAB14 P0000=
201009271118 SPECI KATL 271118Z 00000KT 1/2SM -RA BR SCT003 OVC005 19/18 A2973 RMK AO2 SFC VIS 2 1/2 RAB14 P0000=
201009271052 METAR KATL 271052Z 00000KT 1 1/2SM BR OVC006 18/18 A2975 RMK AO2 SFC VIS 5 RAB05E18B40E51 SLP067 P0001 T01830178=
201009271042 SPECI KATL 271042Z 00000KT 1 1/2SM -RA BR OVC006 18/18 A2974 RMK AO2 SFC VIS 4 RAB05E18B40 P0001=
201009271042 SPECI KATL 271042Z 00000KT 1 1/2SM -RA BR OVC006 18/18 A2974 RMK AO2 SFC VIS 4 RAB05E18B40 P0001=
201009270955 SPECI KATL 270955Z 01005KT 1 1/2SM BR OVC004 19/18 A2972 RMK AO2 SFC VIS 4 $=
201009270955 SPECI KATL 270955Z 01005KT 1 1/2SM BR OVC004 19/18 A2972 RMK AO2 SFC VIS 4 $=
201009270952 METAR KATL 270952Z 02004KT 5SM BR OVC004 18/18 A2972 RMK AO2 RAE50 SLP057 P0003 T01830178 $=
201009270852 METAR KATL 270852Z 07005KT 6SM -RA BR OVC004 18/18 A2974 RMK AO2 SLP064 P0002 60003 T01830178 55016 $=
201009270754 SPECI KATL 270754Z 06012KT 4SM -RA BR OVC004 18/18 A2970 RMK AO2 PRESFR P0000 $=
201009270754 SPECI KATL 270754Z 06012KT 4SM -RA BR OVC004 18/18 A2970 RMK AO2 PRESFR P0000 $=
201009270752 METAR KATL 270752Z 06012KT 4SM -RA BR OVC005 18/18 A2970 RMK AO2 RAE19B49 PRESFR SLP052 P0001 T01830178 $=
201009270652 METAR KATL 270652Z 07006KT 3SM -RA BR OVC005 19/18 A2978 RMK AO2 DZB25E33 SLP077 P0000 T01890178 $=
201009270552 METAR KATL 270552Z 08008KT 6SM -RA BR OVC005 19/18 A2979 RMK AO2 RAB46 SLP080 P0000 60020 T01890178 10194 20183 58007 $=
201009270452 METAR KATL 270452Z 08004KT 6SM BR OVC006 19/18 A2981 RMK AO2 SLP087 T01890178 402440178 $=
201009270352 METAR KATL 270352Z 09010KT 6SM BR OVC006 19/18 A2980 RMK AO2 RAE08 SLP084 P0000 T01940183 $=
201009270252 METAR KATL 270252Z 10006KT 6SM -RA BR OVC005 19/18 A2981 RMK AO2 SLP086 P0003 60020 T01940183 55008 $=
201009270210 SPECI KATL 270210Z 12008KT 6SM -RA BR BKN005 BKN040 OVC100 19/18 A2981 RMK AO2 P0000 $=
201009270210 SPECI KATL 270210Z 12008KT 6SM -RA BR BKN005 BKN040 OVC100 19/18 A2981 RMK AO2 P0000 $=
201009270202 SPECI KATL 270202Z 12011KT 10SM -RA FEW005 SCT047 OVC100 19/18 A2980 RMK AO2 P0000 $=
201009270202 SPECI KATL 270202Z 12011KT 10SM -RA FEW005 SCT047 OVC100 19/18 A2980 RMK AO2 P0000 $=
201009270152 METAR KATL 270152Z 12011KT 5SM -RA BR FEW050 BKN100 OVC110 19/18 A2979 RMK AO2 SLP080 P0007 T01940183 $=
201009270117 SPECI KATL 270117Z 12008KT 4SM -RA BR FEW005 SCT014 OVC070 19/18 A2981 RMK AO2 P0005 $=
201009270117 SPECI KATL 270117Z 12008KT 4SM -RA BR FEW005 SCT014 OVC070 19/18 A2981 RMK AO2 P0005 $=
201009270052 METAR KATL 270052Z 00000KT 3SM -RA BR FEW002 BKN012 OVC050 18/18 A2983 RMK AO2 SLP093 P0010 T01830178 $=
201009270049 SPECI KATL 270049Z 00000KT 2 1/2SM RA BR FEW002 BKN012 OVC050 18/18 A2983 RMK AO2 P0009 $=
201009270049 SPECI KATL 270049Z 00000KT 2 1/2SM RA BR FEW002 BKN012 OVC050 18/18 A2983 RMK AO2 P0009 $=
201009270021 SPECI KATL 270021Z 30008KT 3SM -RA BR FEW002 BKN005 OVC031 18/18 A2982 RMK AO2 P0007 $=
201009270021 SPECI KATL 270021Z 30008KT 3SM -RA BR FEW002 BKN005 OVC031 18/18 A2982 RMK AO2 P0007 $=
201009270002 SPECI KATL 270002Z 35004KT 2 1/2SM RA BR FEW005 SCT014 OVC030 19/18 A2982 RMK AO2 P0004 $=
201009270002 SPECI KATL 270002Z 35004KT 2 1/2SM RA BR FEW005 SCT014 OVC030 19/18 A2982 RMK AO2 P0004 $=
201009270000 SPECI KATL 270000Z 36005KT 3SM RA BR SCT007 BKN014 OVC030 19/18 A2982 RMK AO2 P0004 $=
201009270000 SPECI KATL 270000Z 36005KT 3SM RA BR SCT007 BKN014 OVC030 19/18 A2982 RMK AO2 P0004 $=
201009262352 METAR KATL 262352Z 30005KT 2SM +RA BR BKN005 BKN017 OVC025 19/18 A2983 RMK AO2 RAE01B38 SLP095 P0004 60045 T01890178 10200 20178 55003 $=
201009262312 SPECI KATL 262312Z 05004KT 10SM BKN007 OVC070 19/18 A2981 RMK AO2 RAE01 P0000 $=
201009262312 SPECI KATL 262312Z 05004KT 10SM BKN007 OVC070 19/18 A2981 RMK AO2 RAE01 P0000 $=
201009262252 METAR KATL 262252Z 10006KT 6SM -RA BR FEW024 SCT042 OVC120 19/18 A2981 RMK AO2 SLP088 P0005 T01890178 $=
201009262152 METAR KATL 262152Z 04008KT 3SM RA BR SCT024 BKN050 OVC075 18/17 A2981 RMK AO2 SFC VIS 5 SLP088 P0008 T01830167 $=
201009262052 METAR KATL 262052Z 36008KT 3SM -RA BR SCT021 BKN040CB OVC060 18/17 A2984 RMK AO2 SFC VIS 4 SLP098 CB NE & SW & W MOV NE P0017 60028 T01830167 56003 $=
201009262039 SPECI KATL 262039Z 35008KT 3SM RA BR SCT015 BKN040CB OVC060 18/16 A2984 RMK AO2 CB NE & SW-N MOV NE P0015 $=
201009262039 SPECI KATL 262039Z 35008KT 3SM RA BR SCT015 BKN040CB OVC060 18/16 A2984 RMK AO2 CB NE & SW-N MOV NE P0015 $=
201009262031 SPECI KATL 262031Z 35007KT 2 1/2SM +RA BR SCT015 BKN033CB OVC065 18/17 A2985 RMK AO2 TWR VIS 3 CB NE & SW-N MOV NE P0014 $=
201009262031 SPECI KATL 262031Z 35007KT 2 1/2SM +RA BR SCT015 BKN033CB OVC065 18/17 A2985 RMK AO2 TWR VIS 3 CB NE & SW-N MOV NE P0014 $=
201009261952 METAR KATL 261952Z 33006KT 3SM +RA BR FEW010 SCT027 OVC070 19/17 A2985 RMK AO2 SLP099 CB DSNT E-S & SW-W P0003 T01940172=
201009261936 SPECI KATL 261936Z 33007KT 8SM -RA FEW010 SCT029 OVC070 19/17 A2984 RMK AO2 CB DSNT E-S & SW-W P0002=
201009261936 SPECI KATL 261936Z 33007KT 8SM -RA FEW010 SCT029 OVC070 19/17 A2984 RMK AO2 CB DSNT E-S & SW-W P0002=
201009261852 METAR KATL 261852Z 02012KT 7SM -RA FEW005 BKN023CB BKN036 OVC130 20/17 A2984 RMK AO2 TSE26 SLP097 CB NE-OHD-SE-SW MOV NE CB DSNT E-S P0008 T02000172=
201009261827 SPECI KATL 261827Z 02010G16KT 6SM -RA BR FEW005 BKN021CB OVC044 20/18 A2984 RMK AO2 TSE26 OCNL LTGIC DSNT E-S CB OHD-ALQDS MOV NE P0007=
201009261827 SPECI KATL 261827Z 02010G16KT 6SM -RA BR FEW005 BKN021CB OVC044 20/18 A2984 RMK AO2 TSE26 OCNL LTGIC DSNT E-S CB OHD-ALQDS MOV NE P0007=
201009261816 SPECI KATL 261816Z 01011G18KT 4SM -TSRA BR FEW005 BKN019CB OVC049 20/18 A2984 RMK AO2 OCNL LTGIC OHD-ALQDS TS OHD-ALQDS MOV NE P0006=
201009261816 SPECI KATL 261816Z 01011G18KT 4SM -TSRA BR FEW005 BKN019CB OVC049 20/18 A2984 RMK AO2 OCNL LTGIC OHD-ALQDS TS OHD-ALQDS MOV NE P0006=
201009261752 METAR KATL 261752Z 03014KT 2SM TSRA BR SCT005 BKN014CB OVC033 20/18 A2985 RMK AO2 PRESFR SLP100 OCNL LTGIC OHD-ALQDS TS OHD-ALQDS MOV NE P0033 60038 T02000183 10233 20200 58018=
201009261716 SPECI KATL 261716Z 34015KT 2SM TSRA BR SCT005 BKN010CB OVC029 20/19 A2988 RMK AO2 TWR VIS 2 1/2 OCNL LTGIC OHD-ALQDS TS OHD-ALQDS MOV NE P0021=
201009261716 SPECI KATL 261716Z 34015KT 2SM TSRA BR SCT005 BKN010CB OVC029 20/19 A2988 RMK AO2 TWR VIS 2 1/2 OCNL LTGIC OHD-ALQDS TS OHD-ALQDS MOV NE P0021=
201009261703 SPECI KATL 261703Z 34015KT 1SM R09R/5500VP6000FT +TSRA BR SCT007 BKN012CB OVC032 21/19 A2988 RMK AO2 OCNL LTGIC OHD & SW & W TS OHD & SW & W MOV NE P0014=
201009261703 SPECI KATL 261703Z 34015KT 1SM R09R/5500VP6000FT +TSRA BR SCT007 BKN012CB OVC032 21/19 A2988 RMK AO2 OCNL LTGIC OHD & SW & W TS OHD & SW & W MOV NE P0014=
201009261648 METAR KATL 261648Z 34011KT 2SM R09R/5000VP6000FT +TSRA BR BKN016CB BKN027 OVC060 22/19 A2987=
201009261647 SPECI KATL 261647Z 34012KT 2SM R09R/5000VP6000FT +TSRA BR BKN016CB BKN027 OVC060 22/19 A2987 RMK AO2 TSB47RAB27 OCNL LTGIC SW & W TS SW & W MOV NE P0004=
201009261647 SPECI KATL 261647Z 34012KT 2SM R09R/5000VP6000FT +TSRA BR BKN016CB BKN027 OVC060 22/19 A2987 RMK AO2 TSB47RAB27 OCNL LTGIC SW & W TS SW & W MOV NE P0004=
201009261620 SPECI KATL 261620Z 03010KT 10SM BKN016CB BKN050 OVC065 23/19 A2988 RMK AO2 OCNL LTGIC DSNT SW CB S-SW MOV NE CB DSNT SE & S-SW & W-NW $=
201009261620 SPECI KATL 261620Z 03010KT 10SM BKN016CB BKN050 OVC065 23/19 A2988 RMK AO2 OCNL LTGIC DSNT SW CB S-SW MOV NE CB DSNT SE & S-SW & W-NW $=
201009261552 METAR KATL 261552Z 06007KT 10SM SCT016 BKN050 OVC060 23/19 A2989 RMK AO2 SLP112 OCNL LTGIC DSNT SW CB DSNT SE-SW-W-N T02330189=
201009261452 METAR KATL 261452Z 09005KT 10SM SCT010 OVC046 23/19 A2990 RMK AO2 SLP117 CB DSNT W-N T02280194 53006=
201009261352 METAR KATL 261352Z 00000KT 10SM FEW010 OVC042 22/19 A2990 RMK AO2 SLP115 CB DSNT W-N T02220194=
201009261252 METAR KATL 261252Z 11005KT 10SM FEW030 SCT050 BKN120 BKN200 22/19 A2989 RMK AO2 SLP110 CB DSIPT T02170189=
201009261152 METAR KATL 261152Z 09004KT 10SM FEW030 BKN110 BKN200 22/18 A2989 RMK AO2 SLP110 CB DSNT E 60010 70010 T02170183 10244 20211 50000=
201009261052 METAR KATL 261052Z 00000KT 10SM SCT020 SCT040 BKN110 22/19 A2989 RMK AO2 SLP112 T02170189=
201009260952 METAR KATL 260952Z 26004KT 7SM FEW030 OVC110 22/21 A2988 RMK AO2 SLP108 T02170206=
201009260852 METAR KATL 260852Z 00000KT 9SM SCT030 SCT080 BKN100 21/20 A2989 RMK AO2 SLP109 60010 T02110200 58011=
201009260752 METAR KATL 260752Z VRB04KT 10SM SCT030 BKN080 OVC110 22/20 A2990 RMK AO2 RAE08 SLP112 P0000 T02220200=
201009260701 SPECI KATL 260701Z 26003KT 10SM -RA BKN031 OVC080 23/21 A2991 RMK AO2 P0000=
201009260701 SPECI KATL 260701Z 26003KT 10SM -RA BKN031 OVC080 23/21 A2991 RMK AO2 P0000=
201009260652 METAR KATL 260652Z 00000KT 10SM -RA BKN024 OVC080 23/19 A2991 RMK AO2 RAB0555 SLP115 P0010 T02280194=
201009260627 SPECI KATL 260627Z 15004KT 5SM RA BR BKN024 OVC080 22/20 A2991 RMK AO2 RAB0555 P0006=
201009260627 SPECI KATL 260627Z 15004KT 5SM RA BR BKN024 OVC080 22/20 A2991 RMK AO2 RAB0555 P0006=
201009260552 METAR KATL 260552Z 15003KT 10SM FEW049 BKN080 OVC110 24/19 A2992 RMK AO2 RAB24E44 SLP119 P0000 60000 T02440189 10283 20239 58007=
201009260452 METAR KATL 260452Z 00000KT 10SM FEW049 BKN090 BKN120 24/18 A2994 RMK AO2 SLP126 T02440183 403390211=
201009260352 METAR KATL 260352Z 20004KT 10SM BKN075 BKN090 24/18 A2995 RMK AO2 SLP129 T02440183=
201009260252 METAR KATL 260252Z 00000KT 10SM FEW080 SCT150 SCT200 26/18 A2994 RMK AO2 SLP127 OCNL LTGIC DSNT SW CB DSNT SW T02560178 53003=
201009260152 METAR KATL 260152Z 36010KT 10SM FEW120 SCT150 27/18 A2993 RMK AO2 SLP124 T02670183=
201009260052 METAR KATL 260052Z 01007KT 10SM FEW080 SCT150 28/18 A2993 RMK AO2 SLP125 T02830178=
201009252352 METAR KATL 252352Z 34007KT 10SM SCT075 SCT150 28/17 A2993 RMK AO2 SLP125 60000 T02830172 10339 20283 53001=
201009252252 METAR KATL 252252Z 34008KT 10SM FEW055 SCT070 SCT200 29/17 A2993 RMK AO2 SLP124 T02940172=
201009252152 METAR KATL 252152Z 33012KT 10SM FEW055 SCT070 SCT150 32/17 A2992 RMK AO2 SLP122 T03170172=
201009252052 METAR KATL 252052Z COR 33015G19KT 10SM SCT070 BKN150 BKN250 33/17 A2993 RMK AO2 SLP122 60000 T03330167 56030=
201009251952 METAR KATL 251952Z 23005KT 10SM SCT095 SCT120 BKN150 BKN250 33/16 A2995 RMK AO2 SLP130 T03280156=
201009251852 METAR KATL 251852Z 30006KT 10SM SCT070 BKN090 BKN150 32/16 A2999 RMK AO2 RAB29E42 SLP142 CB DSNT NW P0000 T03220156=
201009251752 METAR KATL 251752Z 00000KT 10SM SCT060 SCT075 BKN090 BKN150 33/14 A3002 RMK AO2 SLP153 CB DSNT NW T03330139 10333 20217 58017=
201009251652 METAR KATL 251652Z 27008KT 250V310 10SM SCT065 SCT100 BKN150 BKN250 32/16 A3005 RMK AO2 SLP163 T03220161=
201009251552 METAR KATL 251552Z 31006KT 10SM FEW150 SCT250 31/17 A3007 RMK AO2 SLP169 T03060167=
201009251452 METAR KATL 251452Z 32007KT 10SM FEW250 29/18 A3007 RMK AO2 SLP172 T02890178 53002=
201009251352 METAR KATL 251352Z 31007KT 10SM FEW250 27/18 A3007 RMK AO2 SLP171 T02670178=
201009251252 METAR KATL 251252Z 00000KT 10SM FEW070 SCT250 24/18 A3006 RMK AO2 SLP171 T02390178=
201009251152 METAR KATL 251152Z 23004KT 10SM FEW070 SCT250 22/17 A3007 RMK AO2 SLP172 T02170172 10239 20211 56002=
201009251052 METAR KATL 251052Z 26003KT 10SM FEW070 22/17 A3007 RMK AO2 SLP172 T02170172=
201009250952 METAR KATL 250952Z 21005KT 10SM CLR 22/17 A3007 RMK AO2 SLP171 T02170172=
201009250852 METAR KATL 250852Z 23005KT 10SM CLR 22/18 A3007 RMK AO2 SLP172 T02220178 56009=
201009250752 METAR KATL 250752Z 22004KT 10SM CLR 23/18 A3008 RMK AO2 SLP174 T02280178=
201009250652 METAR KATL 250652Z 00000KT 10SM FEW070 23/18 A3009 RMK AO2 SLP179 T02330178=
201009250552 METAR KATL 250552Z 00000KT 10SM CLR 24/18 A3010 RMK AO2 SLP182 T02390183 10278 20233 58007=
201009250452 METAR KATL 250452Z 00000KT 10SM CLR 24/18 A3011 RMK AO2 SLP185 T02390183 403330206=
201009250352 METAR KATL 250352Z 00000KT 10SM CLR 24/18 A3012 RMK AO2 SLP187 T02440183=
201009250252 METAR KATL 250252Z 19004KT 10SM CLR 25/18 A3012 RMK AO2 SLP189 T02500183 51006=
201009250152 METAR KATL 250152Z 19004KT 10SM FEW100 26/18 A3012 RMK AO2 SLP190 T02560183=
201009250052 METAR KATL 250052Z 18005KT 10SM FEW100 26/18 A3011 RMK AO2 SLP186 T02610183=
201009242352 METAR KATL 242352Z 19004KT 10SM FEW085 BKN100 27/18 A3010 RMK AO2 SLP185 T02720183 10311 20272 55005=
201009242252 METAR KATL 242252Z 20007KT 10SM FEW045 SCT100 29/18 A3010 RMK AO2 SLP183 T02940183=
201009242152 METAR KATL 242152Z 19007KT 10SM FEW050 SCT080 BKN100 31/18 A3011 RMK AO2 SLP184 T03110178=
201009242052 METAR KATL 242052Z 16007KT 10SM FEW050 SCT080 BKN100 31/17 A3012 RMK AO2 SLP188 T03060172 58022=
201009241952 METAR KATL 241952Z VRB03KT 10SM FEW048 SCT080 BKN095 30/17 A3014 RMK AO2 SLP196 T03000172=
201009241852 METAR KATL 241852Z VRB03KT 10SM FEW050 BKN080 BKN090 29/18 A3017 RMK AO2 SLP204 T02940178=
201009241752 METAR KATL 241752Z 27005KT 10SM FEW045 BKN050 BKN070 31/18 A3019 RMK AO2 SLP211 T03060183 10311 20211 58016=
201009241652 METAR KATL 241652Z 20006KT 10SM FEW040 BKN070 30/20 A3021 RMK AO2 SLP219 T03000200=
201009241552 METAR KATL 241552Z 25008KT 10SM FEW037 SCT150 30/21 A3023 RMK AO2 SLP224 T03000211=
201009241452 METAR KATL 241452Z VRB05KT 10SM FEW150 27/19 A3024 RMK AO2 SLP228 T02720194 53006=
201009241352 METAR KATL 241352Z VRB05KT 10SM FEW180 26/19 A3023 RMK AO2 SLP226 T02560189=
201009241252 METAR KATL 241252Z 00000KT 10SM FEW250 23/19 A3022 RMK AO2 SLP224 T02280189=
201009241152 METAR KATL 241152Z 12003KT 10SM CLR 21/18 A3022 RMK AO2 SLP223 T02110178 10239 20206 53005=
201009241052 METAR KATL 241052Z 00000KT 10SM CLR 21/17 A3021 RMK AO2 SLP219 T02060172=
201009240952 METAR KATL 240952Z 15003KT 10SM CLR 22/17 A3020 RMK AO2 SLP215 T02170172=
201009240852 METAR KATL 240852Z 14003KT 10SM CLR 22/17 A3020 RMK AO2 SLP216 T02220172 58004=
201009240752 METAR KATL 240752Z 15004KT 10SM FEW150 22/17 A3021 RMK AO2 SLP218 T02220167=
201009240652 METAR KATL 240652Z 15003KT 10SM FEW080 23/16 A3022 RMK AO2 SLP222 T02280161=
201009240552 METAR KATL 240552Z 14004KT 10SM FEW065 24/16 A3022 RMK AO2 SLP220 T02390156 10289 20239 51005=
201009240452 METAR KATL 240452Z 14004KT 10SM FEW070 24/15 A3021 RMK AO2 SLP220 T02440150 403280211=
201009240352 METAR KATL 240352Z 15004KT 10SM SCT070 25/16 A3021 RMK AO2 SLP219 T02500156=
201009240252 METAR KATL 240252Z 14005KT 10SM CLR 26/16 A3020 RMK AO2 SLP215 T02610161 51016=
201009240152 METAR KATL 240152Z 14003KT 10SM CLR 27/16 A3019 RMK AO2 SLP211 T02670156=
201009240052 METAR KATL 240052Z 12004KT 10SM CLR 28/15 A3017 RMK AO2 SLP206 T02830150=
201009232352 METAR KATL 232352Z 15005KT 10SM CLR 28/15 A3015 RMK AO2 SLP200 T02830150 10328 20283 56002=
201009232252 METAR KATL 232252Z 15008KT 10SM FEW070 30/14 A3015 RMK AO2 SLP199 T03000139=
201009232152 METAR KATL 232152Z 18011KT 10SM FEW070 31/14 A3015 RMK AO2 SLP198 T03110139=
201009232052 SPECI KATL 232052Z 15009G19KT 10SM FEW070 32/14 A3016 RMK AO2 SLP201 T03220144 56020=
201009231952 METAR KATL 231952Z VRB06G15KT 10SM SCT065 33/16 A3017 RMK AO2 SLP205 T03280156=
201009231852 METAR KATL 231852Z 15013G20KT 10SM SCT060 32/16 A3019 RMK AO2 SLP210 T03220161=
201009231752 METAR KATL 231752Z 14007KT 10SM SCT050 31/17 A3022 RMK AO2 SLP221 T03110172 10317 20211 58016=
201009231652 METAR KATL 231652Z 10006KT 10SM FEW047 29/17 A3024 RMK AO2 SLP231 T02940172=
201009231552 METAR KATL 231552Z 09004KT 10SM FEW250 29/18 A3026 RMK AO2 SLP237 T02890178=
201009231452 METAR KATL 231452Z 14003KT 10SM CLR 27/17 A3027 RMK AO2 SLP238 T02670172 51007=
201009231352 METAR KATL 231352Z VRB03KT 10SM CLR 25/18 A3026 RMK AO2 SLP239 T02500178=
201009231252 METAR KATL 231252Z 22004KT 10SM CLR 23/18 A3027 RMK AO2 SLP239 T02280178=
201009231152 METAR KATL 231152Z 00000KT 8SM CLR 21/17 A3025 RMK AO2 SLP234 70008 T02110172 10239 20211 51016=
201009231052 METAR KATL 231052Z 00000KT 10SM CLR 22/17 A3023 RMK AO2 SLP227 T02220172=
201009230952 METAR KATL 230952Z 00000KT 10SM CLR 21/17 A3021 RMK AO2 SLP221 T02110172=
201009230852 METAR KATL 230852Z 16003KT 10SM CLR 22/17 A3020 RMK AO2 SLP214 T02170172 53005=
201009230752 METAR KATL 230752Z 19004KT 10SM CLR 22/17 A3019 RMK AO2 SLP212 T02220172=
201009230652 METAR KATL 230652Z 18007KT 10SM CLR 23/17 A3019 RMK AO2 SLP211 T02330172=
201009230552 METAR KATL 230552Z 17005KT 10SM CLR 24/17 A3018 RMK AO2 SLP209 T02390172 10283 20239 50001=
201009230452 METAR KATL 230452Z COR 15003KT 10SM CLR 25/18 A3019 RMK AO2 SLP210 T02500178 403330217=
201009230352 METAR KATL 230352Z 17003KT 10SM CLR 24/18 A3019 RMK AO2 SLP211 T02440183=
201009230252 METAR KATL 230252Z 16004KT 10SM CLR 26/18 A3018 RMK AO2 SLP209 T02560183 51014=
201009230152 METAR KATL 230152Z 15003KT 10SM CLR 26/19 A3017 RMK AO2 SLP207 T02610189=
201009230052 METAR KATL 230052Z 16003KT 10SM FEW200 27/20 A3015 RMK AO2 SLP201 T02670200=
201009222352 METAR KATL 222352Z 17003KT 10SM FEW150 28/21 A3014 RMK AO2 SLP196 60008 T02780211 10333 20267 50002=
201009222252 METAR KATL 222252Z 13003KT 10SM FEW050 SCT150 SCT200 30/19 A3014 RMK AO2 RAE24 SLP195 CB DSNT NW P0000 T03000189=
201009222152 METAR KATL 222152Z VRB04KT 9SM -RA FEW050 SCT080 BKN150 BKN200 29/19 A3014 RMK AO2 WSHFT 2119 TSB32E51RAB17 SLP197 TS DSIPTD P0008 T02890194=
201009222144 SPECI KATL 222144Z 08010KT 6SM TSRA SCT050CB BKN080 BKN150 BKN200 28/19 A3014 RMK AO2 WSHFT 2119 TSB32RAB17 OCNL LTGCG NW TS NW MOV STNRY P0008=
201009222144 SPECI KATL 222144Z 08010KT 6SM TSRA SCT050CB BKN080 BKN150 BKN200 28/19 A3014 RMK AO2 WSHFT 2119 TSB32RAB17 OCNL LTGCG NW TS NW MOV STNRY P0008=
201009222135 SPECI KATL 222135Z 05014G25KT 2 1/2SM TSRA SCT050CB BKN080 BKN150 BKN200 27/21 A3015 RMK AO2 WSHFT 2119 SFC VIS 4 TSB32RAB17 VIS LWR SW-NW OCNL LTGCG OHD-NW TS OHD-NW MOV STNRY P0005=
201009222135 SPECI KATL 222135Z 05014G25KT 2 1/2SM TSRA SCT050CB BKN080 BKN150 BKN200 27/21 A3015 RMK AO2 WSHFT 2119 SFC VIS 4 TSB32RAB17 VIS LWR SW-NW OCNL LTGCG OHD-NW TS OHD-NW MOV STNRY P0005=
201009222132 SPECI KATL 222132Z 03021G25KT 6SM TSRA SCT050CB BKN080 BKN150 BKN200 27/20 A3015 RMK AO2 TSB32RAB17 VIS LWR SW-NW OCNL LTGCG OHD-NW TS OHD-NW MOV STNRY P0001=
201009222132 SPECI KATL 222132Z 03021G25KT 6SM TSRA SCT050CB BKN080 BKN150 BKN200 27/20 A3015 RMK AO2 TSB32RAB17 VIS LWR SW-NW OCNL LTGCG OHD-NW TS OHD-NW MOV STNRY P0001=
201009222052 METAR KATL 222052Z VRB05KT 10SM FEW055CB SCT060TCU BKN080 33/19 A3013 RMK AO2 SLP192 CB N MOV STNRY CB DSNT W TCU E & S & OHD-NW SHRA N T03330189 56018=
201009221952 METAR KATL 221952Z 20006KT 10SM BKN055TCU 33/19 A3014 RMK AO2 SLP196 TCU ALQDS T03280194=
201009221852 METAR KATL 221852Z 21006KT 10SM FEW048 32/20 A3016 RMK AO2 SLP202 TCU DSNT N-NE T03170200=
201009221752 METAR KATL 221752Z 23003KT 10SM FEW046 31/18 A3019 RMK AO2 SLP210 T03110183 10317 20217 58016=
201009221652 METAR KATL 221652Z VRB04KT 10SM FEW038 31/19 A3021 RMK AO2 SLP217 T03060189=
201009221552 METAR KATL 221552Z VRB04KT 10SM FEW040 29/19 A3023 RMK AO2 SLP224 T02940194=
201009221452 METAR KATL 221452Z VRB05KT 10SM FEW075 27/19 A3023 RMK AO2 SLP227 T02720189 51010=
201009221352 METAR KATL 221352Z 23007KT 200V260 10SM FEW075 SCT250 26/19 A3023 RMK AO2 SLP226 T02560189=
201009221252 METAR KATL 221252Z 24003KT 10SM SCT075 BKN150 BKN250 23/19 A3022 RMK AO2 SLP223 T02330189=
201009221152 METAR KATL 221152Z 18004KT 9SM SCT080 BKN150 22/19 A3020 RMK AO2 SLP218 T02170189 10244 20217 53018=
201009221052 METAR KATL 221052Z 18005KT 10SM FEW080 SCT150 22/19 A3018 RMK AO2 SLP210 T02220189=
201009220952 METAR KATL 220952Z 20005KT 10SM FEW085 SCT150 22/18 A3016 RMK AO2 SLP203 T02220183=
201009220852 METAR KATL 220852Z 20005KT 10SM FEW085 BKN150 23/18 A3015 RMK AO2 SLP198 T02280183 51007=
201009220752 METAR KATL 220752Z 17006KT 10SM BKN085 23/18 A3014 RMK AO2 SLP194 T02330183=
201009220652 METAR KATL 220652Z 18008KT 10SM SCT150 BKN200 24/18 A3014 RMK AO2 SLP193 T02390178=
201009220552 METAR KATL 220552Z 15006KT 10SM SCT150 SCT200 25/17 A3013 RMK AO2 SLP189 T02500167 10294 20244 52009=
201009220452 METAR KATL 220452Z 13003KT 10SM SCT200 24/17 A3012 RMK AO2 SLP187 T02440172 403500217=
201009220352 METAR KATL 220352Z 19005KT 10SM FEW250 24/17 A3011 RMK AO2 SLP184 T02440172=
201009220252 METAR KATL 220252Z 24004KT 10SM FEW250 26/17 A3010 RMK AO2 SLP182 T02560172 53012=
201009220152 METAR KATL 220152Z 19005KT 10SM FEW150 SCT250 27/17 A3009 RMK AO2 SLP177 T02670172=
201009220052 METAR KATL 220052Z 16007KT 10SM FEW150 BKN250 29/16 A3008 RMK AO2 SLP173 T02890156=
201009212352 METAR KATL 212352Z 19004KT 10SM FEW150 SCT250 29/16 A3007 RMK AO2 SLP171 T02940161 10350 20294 53003=
201009212252 METAR KATL 212252Z 20004KT 10SM SCT150 SCT200 31/15 A3006 RMK AO2 SLP166 CB DSNT S-SW T03110150=
201009212152 METAR KATL 212152Z 21006KT 10SM FEW075 SCT150 SCT200 33/12 A3005 RMK AO2 SLP164 T03280122=
201009212052 METAR KATL 212052Z 16008KT 10SM FEW080 SCT150 SCT200 34/15 A3006 RMK AO2 SLP166 CB DSNT SW-W T03440150 56015=
201009211952 METAR KATL 211952Z 14008KT 10SM FEW080 SCT200 35/16 A3007 RMK AO2 SLP168 CB DSNT SW T03500156=
201009211852 METAR KATL 211852Z 20006KT 10SM SCT080 35/16 A3008 RMK AO2 SLP173 T03500156=
201009211752 METAR KATL 211752Z 20005KT 10SM FEW085 SCT200 34/13 A3010 RMK AO2 SLP180 CB DSNT W T03390133 10339 20217 58011=
201009211652 METAR KATL 211652Z 10004KT 10SM FEW200 33/15 A3012 RMK AO2 SLP187 T03280150=
201009211552 METAR KATL 211552Z VRB03KT 10SM FEW200 32/16 A3013 RMK AO2 SLP192 T03170161=
201009211452 METAR KATL 211452Z 13004KT 10SM FEW150 29/16 A3013 RMK AO2 SLP193 T02890161 51014=
201009211352 METAR KATL 211352Z 08006KT 10SM FEW150 26/16 A3013 RMK AO2 SLP191 T02610161=
201009211252 METAR KATL 211252Z 09006KT 10SM FEW080 24/16 A3011 RMK AO2 SLP186 T02390161=
201009211152 METAR KATL 211152Z 09005KT 8SM FEW080 22/15 A3009 RMK AO2 SLP179 T02170150 10256 20217 53016=
201009211052 METAR KATL 211052Z 08004KT 9SM CLR 22/16 A3007 RMK AO2 SLP171 T02220156=
201009210952 METAR KATL 210952Z 00000KT 10SM CLR 22/16 A3006 RMK AO2 SLP166 T02220161=
201009210852 METAR KATL 210852Z 00000KT 9SM CLR 23/16 A3004 RMK AO2 SLP160 T02330156 53000=
201009210752 METAR KATL 210752Z 00000KT 10SM CLR 24/16 A3004 RMK AO2 SLP159 T02440156=
201009210652 METAR KATL 210652Z 00000KT 10SM CLR 25/15 A3004 RMK AO2 SLP160 T02500150=
201009210552 METAR KATL 210552Z 00000KT 10SM CLR 25/16 A3004 RMK AO2 SLP160 T02500156 10317 20244 50001=
201009210452 METAR KATL 210452Z 00000KT 10SM CLR 26/16 A3004 RMK AO2 SLP161 T02560156 403560211=
201009210352 METAR KATL 210352Z 00000KT 10SM CLR 26/16 A3004 RMK AO2 SLP162 T02560156=
201009210252 METAR KATL 210252Z 08003KT 10SM CLR 28/14 A3004 RMK AO2 SLP160 T02780144 53014=
201009210152 METAR KATL 210152Z 00000KT 10SM CLR 27/15 A3003 RMK AO2 SLP156 T02720150=
201009210052 METAR KATL 210052Z 17003KT 10SM CLR 28/14 A3001 RMK AO2 SLP151 T02830139=
201009202352 METAR KATL 202352Z 00000KT 10SM CLR 32/12 A3000 RMK AO2 SLP147 T03170122 10356 20317 55000=
201009202252 METAR KATL 202252Z 32004KT 10SM CLR 33/12 A3000 RMK AO2 SLP145 T03330117=
201009202152 METAR KATL 202152Z 27006KT 10SM FEW080 34/13 A3000 RMK AO2 SLP146 T03440133=
201009202052 METAR KATL 202052Z 00000KT 10SM FEW080 35/15 A3000 RMK AO2 SLP146 T03500150 56018=
201009201952 METAR KATL 201952Z 36004KT 10SM FEW080 35/12 A3001 RMK AO2 SLP149 T03500122=
201009201852 METAR KATL 201852Z VRB03KT 10SM FEW070 34/13 A3003 RMK AO2 SLP156 T03390128=
201009201752 METAR KATL 201752Z VRB03KT 10SM FEW075 34/14 A3005 RMK AO2 SLP165 T03390144 10339 20217 58012=
201009201652 METAR KATL 201652Z 31006KT 10SM FEW065 33/16 A3007 RMK AO2 SLP172 T03280161=
201009201552 METAR KATL 201552Z 28005KT 10SM CLR 32/17 A3009 RMK AO2 SLP176 T03170172=
201009201452 METAR KATL 201452Z 31007KT 10SM CLR 29/17 A3009 RMK AO2 SLP177 T02940172 51010=
201009201352 METAR KATL 201352Z 31008KT 10SM CLR 27/17 A3008 RMK AO2 SLP174 T02720172=
201009201252 METAR KATL 201252Z 33003KT 9SM CLR 24/17 A3007 RMK AO2 SLP173 T02440172=
201009201152 METAR KATL 201152Z 32006KT 9SM CLR 22/17 A3006 RMK AO2 SLP168 T02170167 10244 20211 53006=
201009201052 METAR KATL 201052Z 32006KT 10SM CLR 22/17 A3005 RMK AO2 SLP165 T02220167=
201009200952 METAR KATL 200952Z 31007KT 10SM CLR 22/17 A3004 RMK AO2 SLP162 T02170172=
201009200852 METAR KATL 200852Z 31006KT 10SM CLR 22/17 A3004 RMK AO2 SLP162 T02170172 56010=
201009200752 METAR KATL 200752Z 28003KT 10SM CLR 24/16 A3005 RMK AO2 SLP163 T02390161=
201009200652 METAR KATL 200652Z 25003KT 10SM CLR 24/16 A3006 RMK AO2 SLP167 T02390161=
201009200552 METAR KATL 200552Z 23003KT 10SM CLR 24/17 A3007 RMK AO2 SLP171 T02390167 10306 20233 58004=
201009200452 METAR KATL 200452Z 20003KT 10SM CLR 24/16 A3008 RMK AO2 SLP175 T02440161 403330211=
201009200352 METAR KATL 200352Z 20004KT 10SM CLR 25/17 A3009 RMK AO2 SLP177 T02500167=
201009200252 METAR KATL 200252Z 14003KT 10SM CLR 27/17 A3009 RMK AO2 SLP177 T02670167 51009=
201009200152 METAR KATL 200152Z 00000KT 10SM CLR 28/16 A3008 RMK AO2 SLP176 T02780161=
201009200052 METAR KATL 200052Z 00000KT 10SM CLR 28/15 A3007 RMK AO2 SLP173 T02830150=
201009192352 METAR KATL 192352Z 00000KT 10SM CLR 31/14 A3006 RMK AO2 SLP168 T03060144 10333 20294 55003=
201009192252 METAR KATL 192252Z 34003KT 10SM CLR 32/14 A3005 RMK AO2 SLP166 T03170144=
201009192152 METAR KATL 192152Z 36005KT 10SM FEW070 33/14 A3006 RMK AO2 SLP167 T03280139=
201009192052 METAR KATL 192052Z VRB04KT 10SM SCT070 33/14 A3007 RMK AO2 SLP170 T03280144 56023=
201009191952 METAR KATL 191952Z VRB03KT 10SM SCT070 SCT100 33/14 A3008 RMK AO2 SLP175 T03280144=
201009191852 METAR KATL 191852Z 36008KT 10SM SCT060 SCT110 33/16 A3011 RMK AO2 SLP183 T03280156=
201009191752 METAR KATL 191752Z 02003KT 10SM SCT048 BKN100 32/17 A3014 RMK AO2 SLP193 T03220172 10328 20211 58012=
201009191652 METAR KATL 191652Z VRB04KT 10SM SCT040 SCT050 30/19 A3016 RMK AO2 SLP203 T03000194=
201009191552 METAR KATL 191552Z 05006KT 10SM CLR 29/19 A3017 RMK AO2 SLP206 T02890194=
201009191452 METAR KATL 191452Z 11003KT 10SM CLR 27/19 A3017 RMK AO2 SLP207 T02720194 51008=
201009191352 METAR KATL 191352Z 11003KT 9SM CLR 24/19 A3017 RMK AO2 SLP204 T02440189=
201009191252 METAR KATL 191252Z 08008KT 9SM CLR 23/18 A3017 RMK AO2 SLP205 T02280183=
201009191152 METAR KATL 191152Z 09007KT 9SM CLR 21/18 A3015 RMK AO2 SLP199 T02110178 10244 20211 51003=
201009191052 METAR KATL 191052Z 07006KT 10SM CLR 22/18 A3015 RMK AO2 SLP198 T02220178=
201009190952 METAR KATL 190952Z 06007KT 10SM CLR 23/18 A3014 RMK AO2 SLP195 T02280178=
201009190852 METAR KATL 190852Z 08005KT 8SM CLR 22/18 A3014 RMK AO2 SLP195 T02220178 53001=
201009190752 METAR KATL 190752Z 09004KT 10SM CLR 23/18 A3013 RMK AO2 SLP191 T02330178=
201009190652 METAR KATL 190652Z 08006KT 10SM CLR 23/18 A3014 RMK AO2 SLP193 T02330178=
201009190552 METAR KATL 190552Z 09005KT 10SM FEW250 24/18 A3014 RMK AO2 SLP193 T02390178 10294 20239 50001=
201009190452 METAR KATL 190452Z 09007KT 10SM FEW250 24/18 A3014 RMK AO2 SLP195 T02440178 403390228=
201009190352 METAR KATL 190352Z 09007KT 10SM FEW250 26/17 A3015 RMK AO2 SLP197 T02560172=
201009190252 METAR KATL 190252Z 07009KT 10SM CLR 27/17 A3013 RMK AO2 SLP192 T02720172 51018=
201009190152 METAR KATL 190152Z 07010KT 10SM CLR 28/17 A3012 RMK AO2 SLP187 T02780172=
201009190052 METAR KATL 190052Z 08009KT 10SM CLR 28/17 A3010 RMK AO2 SLP181 T02830172=
201009182352 METAR KATL 182352Z 08008KT 10SM CLR 29/17 A3008 RMK AO2 SLP174 T02940172 10339 20294 52004=
201009182252 METAR KATL 182252Z 08011KT 10SM FEW065 31/17 A3007 RMK AO2 SLP173 T03110167=
201009182152 METAR KATL 182152Z 07009KT 10SM SCT065 SCT080 33/17 A3007 RMK AO2 SLP170 T03280167=
201009182052 METAR KATL 182052Z 11004KT 10SM SCT065 SCT085 32/16 A3006 RMK AO2 SLP169 T03170161 56012=
201009181952 METAR KATL 181952Z 08006KT 10SM SCT060 BKN085 32/17 A3007 RMK AO2 SLP170 T03220167=
201009181852 METAR KATL 181852Z VRB03KT 10SM SCT060 BKN075 33/17 A3008 RMK AO2 SLP172 T03330167=
201009181752 METAR KATL 181752Z VRB03KT 10SM SCT055 32/18 A3010 RMK AO2 SLP181 T03220178 10322 20228 58009=
201009181652 METAR KATL 181652Z VRB05KT 10SM FEW250 31/18 A3011 RMK AO2 SLP185 T03060178=
201009181552 METAR KATL 181552Z 06006KT 10SM CLR 29/17 A3012 RMK AO2 SLP188 T02940172=
201009181452 METAR KATL 181452Z 08007KT 10SM FEW250 28/17 A3013 RMK AO2 SLP190 T02780172 51009=
201009181352 METAR KATL 181352Z 06011KT 10SM FEW250 26/17 A3013 RMK AO2 SLP190 T02560167=
201009181252 METAR KATL 181252Z 07012KT 10SM FEW250 24/16 A3012 RMK AO2 SLP188 T02390161=
201009181152 METAR KATL 181152Z 07009KT 10SM FEW065 SCT250 23/17 A3010 RMK AO2 SLP182 T02280167 10261 20228 53015=
201009181052 METAR KATL 181052Z 06007KT 10SM FEW070 SCT200 23/17 A3008 RMK AO2 SLP175 T02280167=
201009180952 METAR KATL 180952Z 05007KT 10SM FEW070 24/17 A3007 RMK AO2 SLP170 T02390167=
201009180852 METAR KATL 180852Z 10004KT 10SM FEW070 24/17 A3006 RMK AO2 SLP165 T02390167 55002=
201009180752 METAR KATL 180752Z 06006KT 10SM FEW070 25/17 A3005 RMK AO2 SLP163 T02500167=
201009180652 METAR KATL 180652Z 04008KT 10SM FEW070 26/17 A3006 RMK AO2 SLP164 T02560172=
201009180552 METAR KATL 180552Z 00000KT 10SM FEW070 26/19 A3006 RMK AO2 SLP167 T02560189 10294 20250 58000=
201009180452 METAR KATL 180452Z 00000KT 10SM SCT070 25/19 A3007 RMK AO2 SLP170 T02500189 403500211=
201009180352 METAR KATL 180352Z 00000KT 10SM SCT070 26/19 A3007 RMK AO2 SLP170 T02560189=
201009180252 METAR KATL 180252Z 16003KT 10SM SCT070 27/18 A3006 RMK AO2 SLP168 CB DSNT SW T02720183 51016=
201009180152 METAR KATL 180152Z 05008KT 10SM SCT070 29/18 A3005 RMK AO2 SLP163 CB DSNT SW T02940178=
201009180052 METAR KATL 180052Z 00000KT 10SM SCT095 SCT250 29/18 A3003 RMK AO2 SLP158 CB DSNT E T02890178=
201009172352 METAR KATL 172352Z 00000KT 10SM SCT075 BKN250 29/18 A3001 RMK AO2 SLP153 CB DSNT SE & SW & W T02890178 10350 20289 53009=
201009172252 METAR KATL 172252Z 33006KT 10SM BKN075CB BKN250 32/17 A3000 RMK AO2 SLP148 CB SE & S-SW MOV SE T03220167=
201009172152 METAR KATL 172152Z 36010KT 10SM SCT070CB BKN090 BKN120 BKN250 33/17 A2999 RMK AO2 SLP143 CB SW MOV SE SHRA SW T03280172=
201009172052 METAR KATL 172052Z VRB04KT 10SM FEW065CB SCT250 33/17 A2999 RMK AO2 SLP142 CB NW MOV SE SHRA NW T03330167 56019=
201009171952 METAR KATL 171952Z 04003KT 10SM FEW065TCU 33/17 A3000 RMK AO2 SLP147 TCU NW T03280167=
201009171852 METAR KATL 171852Z 35010KT 10SM SCT065 SCT250 34/17 A3002 RMK AO2 SLP153 T03390172=
201009171752 METAR KATL 171752Z 32004KT 10SM FEW060 33/17 A3004 RMK AO2 SLP161 T03280172 10333 20211 58012=
201009171652 METAR KATL 171652Z 32007KT 10SM FEW060 SCT250 32/17 A3006 RMK AO2 SLP168 T03170172=
201009171552 METAR KATL 171552Z 33009KT 10SM FEW250 30/17 A3007 RMK AO2 SLP173 T03000167=
201009171452 METAR KATL 171452Z 29005KT 10SM BKN250 28/16 A3008 RMK AO2 SLP175 T02780161 51008=
201009171352 METAR KATL 171352Z VRB03KT 10SM FEW060 SCT250 26/15 A3007 RMK AO2 SLP173 T02610150=
201009171252 METAR KATL 171252Z COR 00000KT 10SM BKN060 BKN250 23/16 A3007 RMK AO2 SLP173 T02330156=
201009171152 METAR KATL 171152Z 00000KT 10SM FEW060 SCT120 SCT150 21/15 A3005 RMK AO2 SLP167 T02110150 10233 20211 52010=
201009171052 METAR KATL 171052Z 17003KT 10SM FEW080 SCT150 22/15 A3005 RMK AO2 SLP164 T02170150=
201009170952 METAR KATL 170952Z 25003KT 10SM FEW100 SCT120 BKN150 23/14 A3003 RMK AO2 SLP158 T02330144=
201009170852 METAR KATL 170852Z 25005KT 10SM FEW060 BKN120 BKN150 23/14 A3002 RMK AO2 SLP155 T02330144 55002=
201009170752 METAR KATL 170752Z 23004KT 10SM SCT060 BKN150 23/14 A3002 RMK AO2 SLP154 T02330144=
201009170652 METAR KATL 170652Z 23006KT 10SM BKN150 OVC200 23/14 A3003 RMK AO2 SLP157 T02330144=
201009170552 METAR KATL 170552Z 23005KT 10SM FEW100 SCT150 23/14 A3003 RMK AO2 SLP158 T02280139 10283 20228 58005=
201009170452 METAR KATL 170452Z 21008KT 10SM FEW100 BKN150 24/14 A3004 RMK AO2 SLP161 T02390139 403170189=
201009170352 METAR KATL 170352Z 20008KT 10SM SCT100 24/14 A3004 RMK AO2 SLP162 T02390144=
201009170252 METAR KATL 170252Z 20005KT 10SM FEW090 24/14 A3004 RMK AO2 SLP164 T02440144 51009=
201009170152 METAR KATL 170152Z 18006KT 10SM FEW075 SCT150 26/13 A3003 RMK AO2 SLP160 T02560133=
201009170052 METAR KATL 170052Z 17006KT 10SM FEW075 SCT150 27/14 A3003 RMK AO2 SLP160 T02670139=
201009162352 METAR KATL 162352Z 17006KT 10SM FEW075 SCT150 28/14 A3002 RMK AO2 SLP155 T02830139 10317 20283 55000=
201009162252 METAR KATL 162252Z 18007KT 10SM SCT080 SCT150 29/14 A3001 RMK AO2 SLP154 T02940139=
201009162152 METAR KATL 162152Z COR 17007KT 10SM SCT080 BKN150 31/14 A3001 RMK AO2 SLP152 T03060144=
201009162052 METAR KATL 162052Z 14006KT 10SM SCT070 SCT150 31/14 A3002 RMK AO2 SLP155 T03060139 56021=
201009161952 METAR KATL 161952Z 22006KT 10SM FEW065 SCT150 31/14 A3003 RMK AO2 SLP157 T03110144=
201009161852 METAR KATL 161852Z 00000KT 10SM FEW065 SCT150 30/14 A3005 RMK AO2 SLP166 T03000139=
201009161752 METAR KATL 161752Z 23007KT 180V250 10SM SCT060 SCT150 30/14 A3008 RMK AO2 SLP176 T03000144 10300 20194 58019=
201009161652 METAR KATL 161652Z 24007KT 10SM FEW055 29/15 A3010 RMK AO2 SLP183 T02940150=
201009161552 METAR KATL 161552Z VRB05KT 10SM FEW150 28/17 A3013 RMK AO2 SLP191 T02780167=
201009161452 METAR KATL 161452Z 20005KT 10SM FEW150 26/17 A3014 RMK AO2 SLP196 T02560172 51001=
201009161352 METAR KATL 161352Z 21010KT 10SM BKN150 24/17 A3014 RMK AO2 SLP196 T02440172=
201009161252 METAR KATL 161252Z 20006KT 10SM SCT150 22/16 A3014 RMK AO2 SLP197 T02170161=
201009161152 METAR KATL 161152Z 21003KT 10SM SCT150 19/16 A3014 RMK AO2 SLP196 T01890156 10228 20189 50008=
201009161052 METAR KATL 161052Z 00000KT 10SM FEW250 19/15 A3014 RMK AO2 SLP196 T01940150=
201009160952 METAR KATL 160952Z 20003KT 10SM CLR 19/15 A3012 RMK AO2 SLP190 T01940150=
201009160852 METAR KATL 160852Z 21004KT 10SM CLR 20/14 A3011 RMK AO2 SLP185 T02000144 52004=
201009160752 METAR KATL 160752Z 19005KT 10SM SCT150 21/14 A3010 RMK AO2 SLP183 T02060139=
201009160652 METAR KATL 160652Z 20006KT 10SM FEW150 SCT250 22/14 A3011 RMK AO2 SLP184 T02170139=
201009160552 METAR KATL 160552Z 17007KT 10SM FEW250 23/14 A3010 RMK AO2 SLP181 T02280139 10283 20228 58002=
201009160452 METAR KATL 160452Z 18007KT 10SM FEW250 24/13 A3010 RMK AO2 SLP182 T02390133 403280194=
201009160352 METAR KATL 160352Z 15007KT 10SM FEW250 24/14 A3010 RMK AO2 SLP181 T02440139=
201009160252 METAR KATL 160252Z 15005KT 10SM FEW250 26/14 A3010 RMK AO2 SLP183 T02560144 51006=
201009160152 METAR KATL 160152Z 15004KT 10SM FEW250 26/14 A3010 RMK AO2 SLP181 T02610144=
201009160052 METAR KATL 160052Z 17005KT 10SM FEW250 27/13 A3010 RMK AO2 SLP182 T02670133=
201009152352 METAR KATL 152352Z 16005KT 10SM FEW250 28/13 A3008 RMK AO2 SLP178 T02830128 10328 20283 55002=
201009152252 METAR KATL 152252Z 16007KT 10SM FEW250 30/10 A3008 RMK AO2 SLP177 T03000100=
201009152152 METAR KATL 152152Z 19009KT 10SM FEW080 31/11 A3008 RMK AO2 SLP176 T03110111=
201009152052 METAR KATL 152052Z 15006KT 10SM FEW085 32/11 A3009 RMK AO2 SLP178 T03220111 56017=
201009151952 METAR KATL 151952Z VRB06KT 10SM FEW090 32/11 A3010 RMK AO2 SLP181 T03220106=
201009151852 METAR KATL 151852Z 14005KT 10SM SCT080 31/10 A3011 RMK AO2 SLP186 T03060100=
201009151752 METAR KATL 151752Z 15008G18KT 10SM FEW085 31/09 A3014 RMK AO2 SLP195 T03110094 10322 20200 58010=
201009151652 METAR KATL 151652Z VRB04KT 10SM FEW080 31/12 A3015 RMK AO2 SLP200 T03110117=
201009151552 METAR KATL 151552Z 10003KT 10SM FEW150 31/14 A3017 RMK AO2 SLP205 T03060139=
201009151452 METAR KATL 151452Z 27003KT 10SM FEW150 28/14 A3017 RMK AO2 SLP206 T02830144 52007=
201009151352 METAR KATL 151352Z 00000KT 10SM FEW150 27/15 A3017 RMK AO2 SLP204 T02670150 $=
201009151252 METAR KATL 151252Z 00000KT 10SM FEW150 23/15 A3016 RMK AO2 SLP202 T02330150=
201009151152 METAR KATL 151152Z 00000KT 10SM FEW150 20/14 A3015 RMK AO2 SLP200 T02000144 10222 20194 53016=
201009151052 METAR KATL 151052Z 00000KT 10SM FEW150 20/14 A3013 RMK AO2 SLP193 T02000139=
201009150952 METAR KATL 150952Z 23005KT 10SM SCT150 20/14 A3011 RMK AO2 SLP187 T02000139=
201009150852 METAR KATL 150852Z 20003KT 10SM SCT150 21/13 A3010 RMK AO2 SLP182 T02060128 55002=
201009150752 METAR KATL 150752Z 00000KT 10SM FEW150 22/12 A3010 RMK AO2 SLP181 T02170122=
201009150652 METAR KATL 150652Z 20005KT 10SM SCT150 21/13 A3010 RMK AO2 SLP183 T02110128=
201009150552 METAR KATL 150552Z 17004KT 10SM SCT250 23/12 A3011 RMK AO2 SLP184 T02280122 10283 20217 58001=
201009150452 METAR KATL 150452Z 17004KT 10SM BKN250 23/12 A3011 RMK AO2 SLP186 T02330122 403280161=
201009150352 METAR KATL 150352Z 19003KT 10SM BKN250 24/12 A3011 RMK AO2 SLP186 T02390122=
201009150252 METAR KATL 150252Z 00000KT 10SM BKN250 25/11 A3011 RMK AO2 SLP185 T02500111 51017=
201009150152 METAR KATL 150152Z 14004KT 10SM FEW200 SCT250 26/09 A3010 RMK AO2 SLP181 T02610094=
201009150052 METAR KATL 150052Z 16004KT 10SM SCT200 BKN250 27/09 A3008 RMK AO2 SLP176 T02720094=
201009142352 METAR KATL 142352Z 15003KT 10SM FEW200 BKN250 28/12 A3006 RMK AO2 SLP169 T02830117 10328 20278 53003=
201009142252 METAR KATL 142252Z 13003KT 10SM FEW200 SCT250 31/06 A3005 RMK AO2 SLP166 T03110056=
201009142152 METAR KATL 142152Z VRB05KT 10SM FEW250 31/07 A3004 RMK AO2 SLP164 T03110072=
201009142052 METAR KATL 142052Z VRB04KT 10SM FEW090 SCT250 32/09 A3005 RMK AO2 SLP165 T03170089 56019=
201009141952 METAR KATL 141952Z VRB05KT 10SM FEW090 SCT250 32/09 A3006 RMK AO2 SLP169 T03170094=
201009141852 METAR KATL 141852Z 00000KT 10SM FEW080 SCT250 32/11 A3008 RMK AO2 SLP175 T03170106=
201009141752 METAR KATL 141752Z VRB04KT 10SM FEW080 SCT250 31/11 A3011 RMK AO2 SLP184 T03110111 10311 20172 58016 $=
201009141652 METAR KATL 141652Z VRB04KT 10SM FEW075 SCT250 30/11 A3012 RMK AO2 SLP190 T03000111 $=
201009141552 METAR KATL 141552Z VRB05KT 10SM FEW250 29/12 A3014 RMK AO2 SLP196 T02890122 $=
201009141452 METAR KATL 141452Z 00000KT 10SM FEW250 27/12 A3015 RMK AO2 SLP201 T02720117 53004 $=
201009141352 METAR KATL 141352Z 00000KT 10SM FEW250 26/11 A3015 RMK AO2 SLP199 T02560106 $=
201009141252 METAR KATL 141252Z 30003KT 10SM FEW250 22/12 A3014 RMK AO2 SLP198 T02170122=
201009141152 METAR KATL 141152Z 00000KT 10SM FEW250 18/11 A3014 RMK AO2 SLP199 T01780111 10222 20161 53013=
201009141052 METAR KATL 141052Z 00000KT 10SM FEW250 17/11 A3013 RMK AO2 SLP194 T01720111=
201009140952 METAR KATL 140952Z 00000KT 10SM CLR 17/11 A3011 RMK AO2 SLP186 T01720111=
201009140852 METAR KATL 140852Z 00000KT 10SM CLR 18/11 A3010 RMK AO2 SLP185 T01830111 53003=
201009140752 METAR KATL 140752Z 00000KT 10SM CLR 19/11 A3010 RMK AO2 SLP182 T01940106=
201009140652 METAR KATL 140652Z 07003KT 10SM CLR 21/09 A3009 RMK AO2 SLP180 T02110089=
201009140552 METAR KATL 140552Z 06003KT 10SM CLR 21/11 A3009 RMK AO2 SLP181 T02110106 10261 20200 58001=
201009140452 METAR KATL 140452Z 09003KT 10SM FEW250 22/10 A3010 RMK AO2 SLP181 T02170100 403000183=
201009140352 METAR KATL 140352Z 00000KT 10SM FEW250 22/10 A3010 RMK AO2 SLP182 T02220100=
201009140252 METAR KATL 140252Z 00000KT 10SM FEW250 23/10 A3010 RMK AO2 SLP183 T02280100 51008=
201009140152 METAR KATL 140152Z 00000KT 10SM FEW250 23/09 A3009 RMK AO2 SLP181 T02330089=
201009140052 METAR KATL 140052Z 10005KT 10SM FEW250 24/09 A3008 RMK AO2 SLP179 T02390089=
201009132352 METAR KATL 132352Z 09007KT 10SM FEW250 26/11 A3007 RMK AO2 SLP175 T02610111 10300 20261 53001=
201009132252 METAR KATL 132252Z 07005KT 10SM FEW250 28/11 A3007 RMK AO2 SLP172 T02830111=
201009132152 METAR KATL 132152Z 08010G15KT 10SM FEW250 29/12 A3006 RMK AO2 SLP172 T02940122=
201009132052 METAR KATL 132052Z 07010G15KT 10SM FEW250 30/12 A3007 RMK AO2 SLP172 T03000122 56016=
201009131952 METAR KATL 131952Z 05006KT 10SM FEW250 30/12 A3008 RMK AO2 SLP177 T03000122=
201009131852 METAR KATL 131852Z 07007KT 10SM FEW070 SCT250 29/12 A3010 RMK AO2 SLP185 T02940122=
201009131752 METAR KATL 131752Z 13004KT 10SM FEW250 28/13 A3012 RMK AO2 SLP190 T02830128 10283 20194 58009=
201009131652 METAR KATL 131652Z 10010G15KT 10SM FEW250 28/12 A3013 RMK AO2 SLP193 T02780122=
201009131552 METAR KATL 131552Z 06012KT 10SM FEW100 SCT250 27/12 A3014 RMK AO2 SLP198 T02720117=
201009131452 METAR KATL 131452Z 09013G17KT 10SM SCT250 25/12 A3015 RMK AO2 SLP199 T02500117 51016=
201009131352 METAR KATL 131352Z 09012G17KT 10SM FEW250 23/12 A3013 RMK AO2 SLP194 T02330122=
201009131252 METAR KATL 131252Z 07010KT 10SM FEW250 21/12 A3012 RMK AO2 SLP189 T02060122=
201009131152 METAR KATL 131152Z 04009KT 10SM FEW250 19/12 A3010 RMK AO2 SLP183 T01940122 10206 20183 53016=
201009131052 METAR KATL 131052Z 02005KT 10SM CLR 19/12 A3008 RMK AO2 SLP176 T01940122=
201009130952 METAR KATL 130952Z 01005KT 10SM CLR 19/12 A3006 RMK AO2 SLP170 T01890117=
201009130852 METAR KATL 130852Z 01006KT 10SM CLR 19/12 A3005 RMK AO2 SLP165 T01940117 51000=
201009130752 METAR KATL 130752Z 35006KT 10SM CLR 19/12 A3005 RMK AO2 SLP165 T01890117=
201009130652 METAR KATL 130652Z 34005KT 10SM CLR 19/12 A3006 RMK AO2 SLP168 T01890117=
201009130552 METAR KATL 130552Z 34007KT 10SM CLR 20/12 A3005 RMK AO2 SLP165 T02000117 10278 20200 58002=
201009130452 METAR KATL 130452Z 35008KT 10SM CLR 22/12 A3005 RMK AO2 SLP165 T02170117 403170217=
201009130352 METAR KATL 130352Z 01011KT 10SM CLR 23/12 A3006 RMK AO2 SLP168 T02280117=
201009130252 METAR KATL 130252Z 02008KT 10SM CLR 24/11 A3005 RMK AO2 SLP167 T02390111 51009=
201009130152 METAR KATL 130152Z 36011KT 10SM CLR 26/12 A3005 RMK AO2 SLP166 T02560117=
201009130052 METAR KATL 130052Z 02012KT 10SM CLR 27/12 A3004 RMK AO2 SLP163 T02670117=
201009122352 METAR KATL 122352Z 02013KT 10SM CLR 28/12 A3003 RMK AO2 SLP158 T02780122 10317 20278 53011=
201009122252 METAR KATL 122252Z 34011KT 10SM CLR 29/12 A3001 RMK AO2 SLP152 T02940122=
201009122152 METAR KATL 122152Z 34011KT 10SM CLR 30/12 A3000 RMK AO2 SLP148 T03000117=
201009122052 SPECI KATL 122052Z 01015G20KT 10SM CLR 31/13 A2999 RMK AO2 SLP145 T03060128 56014=
201009121952 METAR KATL 121952Z 35013G20KT 10SM CLR 31/12 A3000 RMK AO2 SLP147 T03110117=
201009121852 METAR KATL 121852Z 34018KT 10SM FEW055 31/16 A3002 RMK AO2 SLP153 T03060161=
201009121752 METAR KATL 121752Z 34013KT 10SM FEW045 31/18 A3003 RMK AO2 SLP160 T03060183 10306 20222 58005=
201009121652 SPECI KATL 121652Z 35011G16KT 10SM SCT035 29/19 A3005 RMK AO2 SLP164 T02890189=
201009121552 METAR KATL 121552Z 36013KT 10SM SCT025 28/19 A3005 RMK AO2 SLP166 T02780189=
201009121452 METAR KATL 121452Z 32007KT 10SM SCT019 26/21 A3005 RMK AO2 SLP166 T02610206 53011=
201009121402 SPECI KATL 121402Z 32008KT 10SM SCT011 SCT013 24/20 A3004 RMK AO2 $=
201009121402 SPECI KATL 121402Z 32008KT 10SM SCT011 SCT013 24/20 A3004 RMK AO2 $=
201009121352 METAR KATL 121352Z 34012G17KT 10SM BKN009 BKN013 24/21 A3004 RMK AO2 SLP163 T02390206 $=
201009121332 SPECI KATL 121332Z 33010KT 10SM SCT007 24/21 A3003 RMK AO2 $=
201009121332 SPECI KATL 121332Z 33010KT 10SM SCT007 24/21 A3003 RMK AO2 $=
201009121252 METAR KATL 121252Z 32008KT 10SM BKN006 23/21 A3003 RMK AO2 SLP158 T02280206 $=
201009121241 SPECI KATL 121241Z 32007KT 10SM BKN006 22/21 A3003 RMK AO2 $=
201009121241 SPECI KATL 121241Z 32007KT 10SM BKN006 22/21 A3003 RMK AO2 $=
201009121200 SPECI KATL 121200Z 34006KT 10SM BKN004 22/21 A3002 RMK AO2 $=
201009121200 SPECI KATL 121200Z 34006KT 10SM BKN004 22/21 A3002 RMK AO2 $=
201009121152 METAR KATL 121152Z 32007KT 9SM SCT004 SCT010 22/21 A3002 RMK AO2 SLP155 70006 T02220211 10233 20222 53012 $=
201009121134 SPECI KATL 121134Z 33007KT 8SM SCT004 SCT010 22/21 A3001 RMK AO2 $=
201009121134 SPECI KATL 121134Z 33007KT 8SM SCT004 SCT010 22/21 A3001 RMK AO2 $=
201009121052 METAR KATL 121052Z 33006KT 6SM BR BKN004 OVC009 23/21 A3000 RMK AO2 SLP149 T02280211 $=
201009121031 SPECI KATL 121031Z 33006KT 6SM BR BKN004 OVC009 23/22 A3000 RMK AO2 $=
201009121031 SPECI KATL 121031Z 33006KT 6SM BR BKN004 OVC009 23/22 A3000 RMK AO2 $=
201009120952 METAR KATL 120952Z 33005KT 10SM BKN009 23/21 A2999 RMK AO2 SLP143 T02330211 $=
201009120906 SPECI KATL 120906Z 00000KT 10SM BKN009 23/22 A2998 RMK AO2 $=
201009120906 SPECI KATL 120906Z 00000KT 10SM BKN009 23/22 A2998 RMK AO2 $=
201009120852 METAR KATL 120852Z 00000KT 10SM BKN010 23/22 A2998 RMK AO2 SLP140 T02330217 55001 $=
201009120824 SPECI KATL 120824Z 00000KT 10SM BKN010 BKN120 23/21 A2998 RMK AO2 $=
201009120824 SPECI KATL 120824Z 00000KT 10SM BKN010 BKN120 23/21 A2998 RMK AO2 $=
201009120752 METAR KATL 120752Z 00000KT 10SM FEW010 SCT120 23/21 A2997 RMK AO2 SLP137 T02280211 $=
201009120652 METAR KATL 120652Z 09003KT 10SM FEW009 OVC120 23/22 A2997 RMK AO2 SLP138 T02280217 $=
201009120552 METAR KATL 120552Z 08006KT 9SM SCT009 OVC120 23/22 A2998 RMK AO2 SLP141 60006 T02330222 10272 20233 58001 $=
201009120520 SPECI KATL 120520Z 13005KT 10SM SCT009 BKN110 24/22 A2999 RMK AO2 $=
201009120520 SPECI KATL 120520Z 13005KT 10SM SCT009 BKN110 24/22 A2999 RMK AO2 $=
201009120452 METAR KATL 120452Z 16003KT 10SM FEW050 OVC110 24/23 A3000 RMK AO2 SLP146 T02440228 403560239 $=
201009120352 METAR KATL 120352Z 00000KT 10SM FEW050 SCT110 BKN150 BKN200 24/22 A2999 RMK AO2 SLP143 T02440222 $=
201009120252 METAR KATL 120252Z 00000KT 10SM FEW015 BKN055 BKN120 BKN200 24/23 A2999 RMK AO2 SLP142 60006 T02440228 53012 $=
201009120152 METAR KATL 120152Z 10005KT 10SM FEW050 BKN140 BKN200 24/22 A2997 RMK AO2 RAE42 SLP138 P0000 T02440222 $=
201009120052 METAR KATL 120052Z 34004KT 10SM -RA FEW050 SCT090 BKN150 OVC200 27/22 A2995 RMK AO2 TSB23E44RAB27 SLP131 FRQ LTG DSNT NE P0006 T02670217 $=
201009120050 SPECI KATL 120050Z 34004KT 10SM FEW050 BKN090 BKN200 BKN250 27/22 A2995 RMK AO2 TSB23E44RAB27E40 FRQ LTG DSNT NE TS MOV E P0006 $=
201009120050 SPECI KATL 120050Z 34004KT 10SM FEW050 BKN090 BKN200 BKN250 27/22 A2995 RMK AO2 TSB23E44RAB27E40 FRQ LTG DSNT NE TS MOV E P0006 $=
201009120023 SPECI KATL 120023Z 29011G18KT 10SM TS SCT050CB BKN090 BKN200 BKN250 27/22 A2996 RMK AO2 TSB23 PRESRR FRQ LTGICCG NW-NW AND DSNT SE TS NW-NE MOV SE $=
201009120023 SPECI KATL 120023Z 29011G18KT 10SM TS SCT050CB BKN090 BKN200 BKN250 27/22 A2996 RMK AO2 TSB23 PRESRR FRQ LTGICCG NW-NW AND DSNT SE TS NW-NE MOV SE $=
201009112352 METAR KATL 112352Z 00000KT 10SM FEW050 SCT200 BKN250 27/22 A2991 RMK AO2 SLP118 CB DSNT NW-N 60000 T02670217 10356 20261 51009 $=
201009112252 METAR KATL 112252Z 08009KT 10SM FEW050 SCT120 BKN250 27/22 A2991 RMK AO2 WSHFT 2230 SLP117 TSE10RAB10E22 CB DSNT NE-E P0000 T02670222 $=
201009112248 SPECI KATL 112248Z 07010KT 10SM FEW050 SCT120 BKN250 27/22 A2991 RMK AO2 WSHFT 2230 TSE10RAB10E22 CB DSNT NE-E P0000 $=
201009112248 SPECI KATL 112248Z 07010KT 10SM FEW050 SCT120 BKN250 27/22 A2991 RMK AO2 WSHFT 2230 TSE10RAB10E22 CB DSNT NE-E P0000 $=
201009112212 SPECI KATL 112212Z 27009KT 10SM -RA FEW050 BKN065 BKN110 BKN150 32/21 A2990 RMK AO2 TSE10RAB10 TS MOV SE P0000 $=
201009112212 SPECI KATL 112212Z 27009KT 10SM -RA FEW050 BKN065 BKN110 BKN150 32/21 A2990 RMK AO2 TSE10RAB10 TS MOV SE P0000 $=
201009112203 SPECI KATL 112203Z 24013G19KT 10SM TS FEW050CB BKN065 BKN110 BKN150 32/20 A2989 RMK AO2 TSE02B03 OCNL LTGIC NE TS NE MOV SE $=
201009112203 SPECI KATL 112203Z 24013G19KT 10SM TS FEW050CB BKN065 BKN110 BKN150 32/20 A2989 RMK AO2 TSE02B03 OCNL LTGIC NE TS NE MOV SE $=
201009112152 METAR KATL 112152Z 24009G15KT 10SM TS FEW050CB SCT065 BKN110 BKN150 33/19 A2988 RMK AO2 TSB41RAE2057B38E52 SLP107 OCNL LTGIC NE TS NE MOV SE P0000 T03330194 $=
201009112141 SPECI KATL 112141Z 24007KT 8SM -TSRA SCT055CB BKN080 BKN110 BKN150 34/19 A2989 RMK AO2 TSB41RAE2057B38 VIS NW-NE 2 OCNL LTGIC NW-NE TS NW-NE MOV SE P0000 $=
201009112141 SPECI KATL 112141Z 24007KT 8SM -TSRA SCT055CB BKN080 BKN110 BKN150 34/19 A2989 RMK AO2 TSB41RAE2057B38 VIS NW-NE 2 OCNL LTGIC NW-NE TS NW-NE MOV SE P0000 $=
201009112052 METAR KATL 112052Z 21008KT 10SM -RA SCT070CB BKN150 33/19 A2989 RMK AO2 RAB47 SLP107 CB N MOV E P0000 60000 T03330189 56019 $=
201009111952 METAR KATL 111952Z 22011G16KT 10SM SCT060 BKN075 BKN150 35/20 A2989 RMK AO2 SLP110 CB DSNT N-NE & NW-N T03500200 $=
201009111852 METAR KATL 111852Z 26011G16KT 10SM BKN060 BKN070 BKN150 35/19 A2992 RMK AO2 SLP119 CB DSNT NE-SE T03500194 $=
201009111752 METAR KATL 111752Z 27008KT 10SM SCT055 SCT080 BKN120 BKN200 34/20 A2995 RMK AO2 SLP127 CB DSNT E T03390200 10339 20244 58011 $=
201009111652 METAR KATL 111652Z 25009KT 10SM SCT050 SCT060 BKN110 BKN200 33/20 A2996 RMK AO2 SLP133 CB DSNT SW T03330200 $=
201009111552 METAR KATL 111552Z 27010KT 10SM FEW045 SCT150 SCT250 32/21 A2998 RMK AO2 SLP139 T03220206 $=
201009111452 METAR KATL 111452Z 27008KT 10SM SCT150 31/20 A2998 RMK AO2 SLP139 T03060200 51008 $=
201009111352 METAR KATL 111352Z 25003KT 10SM SCT120 BKN150 28/19 A2997 RMK AO2 SLP138 T02780189 $=
201009111252 METAR KATL 111252Z 28005KT 10SM SCT100 BKN150 27/18 A2997 RMK AO2 SLP136 T02670183 $=
201009111152 METAR KATL 111152Z 00000KT 10SM SCT100 25/18 A2996 RMK AO2 SLP132 T02500178 10261 20239 51012 $=
201009111052 METAR KATL 111052Z 00000KT 10SM SCT100 24/18 A2995 RMK AO2 SLP128 T02440178 $=
201009110952 METAR KATL 110952Z 28003KT 10SM FEW100 24/18 A2994 RMK AO2 SLP124 T02440183 $=
201009110852 METAR KATL 110852Z 00000KT 10SM FEW100 25/18 A2992 RMK AO2 SLP118 T02500178 57003 $=
201009110752 METAR KATL 110752Z 00000KT 10SM SCT100 26/18 A2992 RMK AO2 SLP119 T02560178 $=
201009110652 METAR KATL 110652Z 00000KT 10SM BKN100 26/18 A2993 RMK AO2 SLP120 T02560178 $=
201009110552 METAR KATL 110552Z 00000KT 10SM FEW090 26/18 A2993 RMK AO2 SLP121 T02560178 10306 20256 58003 $=
201009110452 METAR KATL 110452Z 00000KT 10SM FEW100 26/18 A2993 RMK AO2 SLP123 T02610178 403440211 $=
201009110352 METAR KATL 110352Z 16004KT 10SM BKN100 27/17 A2994 RMK AO2 SLP125 T02670172 $=
201009110252 METAR KATL 110252Z 14004KT 10SM FEW100 28/16 A2994 RMK AO2 SLP125 T02780161 51008 $=
201009110152 METAR KATL 110152Z 09005KT 10SM CLR 28/17 A2994 RMK AO2 SLP126 T02780172 $=
201009110052 METAR KATL 110052Z 00000KT 10SM FEW090 30/17 A2992 RMK AO2 SLP120 T03000167 $=
201009102352 METAR KATL 102352Z 21003KT 10SM FEW085 31/16 A2991 RMK AO2 SLP117 T03060161 10344 20306 55001 $=
201009102252 METAR KATL 102252Z 21005KT 10SM FEW080 33/16 A2990 RMK AO2 SLP114 T03280156=
201009102152 METAR KATL 102152Z VRB04KT 10SM FEW075 34/15 A2991 RMK AO2 SLP114 T03390150=
201009102052 METAR KATL 102052Z 28008KT 10SM FEW075 34/15 A2991 RMK AO2 SLP117 T03440150 56017=
201009101952 METAR KATL 101952Z VRB03KT 10SM FEW075 33/15 A2993 RMK AO2 SLP121 T03330150=
201009101852 METAR KATL 101852Z 22006KT 10SM FEW075 33/15 A2994 RMK AO2 SLP128 T03280150=
201009101752 METAR KATL 101752Z 31005KT 10SM FEW080 SCT150 33/16 A2996 RMK AO2 SLP135 T03280156 10328 20228 58014=
201009101652 METAR KATL 101652Z 33004KT 10SM FEW150 SCT250 32/11 A2998 RMK AO2 SLP140 T03220106=
201009101552 METAR KATL 101552Z VRB03KT 10SM SCT150 SCT250 29/10 A3000 RMK AO2 SLP148 T02940100=
201009101452 METAR KATL 101452Z VRB05KT 10SM BKN150 BKN250 28/13 A3001 RMK AO2 SLP149 T02830133 51012=
201009101352 METAR KATL 101352Z 09007KT 10SM FEW150 SCT250 27/14 A3000 RMK AO2 SLP146 T02670139=
201009101252 METAR KATL 101252Z 08005KT 10SM FEW150 SCT250 25/13 A2998 RMK AO2 SLP142 T02500128=
201009101152 METAR KATL 101152Z 08004KT 10SM BKN150 BKN250 23/13 A2997 RMK AO2 SLP139 T02280133 10239 20211 53013=
201009101052 METAR KATL 101052Z 00000KT 10SM SCT150 22/14 A2995 RMK AO2 SLP131 T02170139=
201009100952 METAR KATL 100952Z 33004KT 10SM SCT150 BKN250 22/14 A2994 RMK AO2 SLP127 T02220139=
201009100852 METAR KATL 100852Z 32005KT 10SM SCT150 SCT250 22/14 A2993 RMK AO2 SLP124 T02220144 56003=
201009100752 METAR KATL 100752Z 32004KT 10SM FEW150 BKN250 22/15 A2993 RMK AO2 SLP125 T02220150=
201009100652 METAR KATL 100652Z 33005KT 10SM BKN150 BKN250 23/14 A2994 RMK AO2 SLP125 T02330144=
201009100552 METAR KATL 100552Z 32004KT 10SM SCT150 SCT250 24/12 A2994 RMK AO2 SLP126 T02390122 10278 20239 58006=
201009100452 METAR KATL 100452Z 33003KT 10SM BKN150 BKN250 26/12 A2995 RMK AO2 SLP129 T02560117 403330222=
201009100352 METAR KATL 100352Z 00000KT 10SM BKN150 BKN250 24/12 A2995 RMK AO2 SLP131 T02440122=
201009100252 METAR KATL 100252Z 32004KT 10SM BKN150 BKN250 26/10 A2996 RMK AO2 SLP132 T02610100 50004=
201009100152 METAR KATL 100152Z 34006KT 10SM BKN150 BKN250 27/08 A2996 RMK AO2 SLP134 T02670078=
201009100052 METAR KATL 100052Z 33006KT 10SM BKN150 BKN250 27/09 A2995 RMK AO2 SLP130 T02720094=
201009092352 METAR KATL 092352Z 33005KT 10SM FEW120 BKN150 BKN250 28/13 A2995 RMK AO2 SLP130 T02780128 10333 20278 53001=
201009092252 METAR KATL 092252Z 32007KT 10SM FEW100 BKN150 BKN250 28/14 A2994 RMK AO2 SLP128 T02830139=
201009092152 METAR KATL 092152Z 34010KT 10SM SCT120 BKN150 BKN250 29/14 A2994 RMK AO2 SLP128 T02940139=
201009092052 METAR KATL 092052Z 33012KT 10SM FEW100 BKN150 BKN250 31/16 A2994 RMK AO2 SLP128 VIRGA DSNT S TCU DSNT E T03060161 56017=
201009091952 METAR KATL 091952Z 33009KT 10SM FEW065 SCT100 BKN150 BKN250 31/17 A2995 RMK AO2 SLP132 VIRGA DSNT NE T03060172=
201009091852 METAR KATL 091852Z 35010KT 10SM FEW060 SCT120 BKN150 BKN250 32/17 A2998 RMK AO2 SLP139 T03220172=
201009091752 METAR KATL 091752Z 29010KT 10SM FEW060 BKN150 BKN250 32/18 A2999 RMK AO2 SLP145 T03170183 10328 20228 58011=
201009091652 METAR KATL 091652Z VRB04KT 10SM FEW060 SCT110 BKN150 BKN250 32/17 A3001 RMK AO2 SLP151 T03170172=
201009091552 METAR KATL 091552Z 35006KT 10SM FEW040 SCT150 SCT250 30/19 A3002 RMK AO2 SLP154 T03000194=
201009091452 METAR KATL 091452Z 00000KT 10SM FEW150 SCT180 SCT250 29/20 A3003 RMK AO2 SLP156 T02890200 51004=
201009091352 METAR KATL 091352Z 34004KT 10SM FEW005 SCT150 BKN250 27/21 A3003 RMK AO2 SLP156 FU FEW005 T02720206=
201009091252 METAR KATL 091252Z 33005KT 10SM SCT150 25/20 A3003 RMK AO2 SLP157 T02500200=
201009091152 METAR KATL 091152Z 34004KT 10SM BKN150 23/19 A3001 RMK AO2 SLP152 T02280194 10244 20222 53006=
201009091052 METAR KATL 091052Z 31004KT 10SM BKN250 22/19 A3000 RMK AO2 SLP149 T02220194=
201009090952 METAR KATL 090952Z 31004KT 10SM FEW150 23/19 A3000 RMK AO2 SLP147 T02280194=
201009090852 METAR KATL 090852Z 00000KT 10SM FEW150 23/19 A2999 RMK AO2 SLP146 T02280194 56012=
201009090752 METAR KATL 090752Z 32004KT 10SM FEW150 23/19 A3000 RMK AO2 SLP147 T02330194=
201009090652 METAR KATL 090652Z 32004KT 10SM FEW085 SCT150 24/19 A3001 RMK AO2 SLP152 T02390194=
201009090552 METAR KATL 090552Z 31004KT 10SM FEW080 SCT250 24/19 A3003 RMK AO2 SLP157 T02440194 10289 20244 58004=
201009090452 METAR KATL 090452Z 31004KT 10SM SCT085 BKN250 26/19 A3004 RMK AO2 SLP159 T02560194 403390211=
201009090352 METAR KATL 090352Z 00000KT 10SM SCT090 SCT250 27/19 A3004 RMK AO2 SLP161 T02670189=
201009090252 METAR KATL 090252Z 33004KT 10SM FEW100 SCT250 26/19 A3004 RMK AO2 SLP161 T02610189 53008=
201009090152 METAR KATL 090152Z 33003KT 10SM FEW100 SCT250 27/19 A3003 RMK AO2 SLP159 T02720189=
201009090052 METAR KATL 090052Z 31004KT 10SM FEW100 SCT250 27/19 A3002 RMK AO2 SLP156 T02720189=
201009082352 METAR KATL 082352Z 33005KT 10SM SCT100 SCT250 29/18 A3002 RMK AO2 SLP155 60000 T02890183 10339 20289 56003=
201009082252 METAR KATL 082252Z 01011KT 10SM FEW055 SCT100 SCT250 31/19 A3002 RMK AO2 SLP154 T03060189=
201009082152 METAR KATL 082152Z 27004KT 10SM FEW055 BKN100 BKN250 31/19 A3002 RMK AO2 SLP155 CB DSIPT TCU DSNT E T03060194=
201009082052 METAR KATL 082052Z 23009KT 10SM FEW055CB BKN090 BKN250 31/18 A3003 RMK AO2 SLP157 CB S MOV SE TCU DSNT NE SHRA S 60000 T03110183 56024=
201009081952 METAR KATL 081952Z 32007KT 10SM FEW060TCU BKN100 BKN250 33/18 A3004 RMK AO2 SLP161 TCU NE & W T03280183=
201009081852 METAR KATL 081852Z 32004KT 10SM FEW060TCU BKN100 BKN250 31/20 A3008 RMK AO2 RAB41E52 SLP175 CB DSNT SE TCU E & W-NW SHRA E & DSNT SE P0000 T03060200=
201009081829 SPECI KATL 081829Z 31008KT 10SM FEW060TCU BKN080 BKN250 32/19 A3009 RMK AO2 TCU NE & SW-NW SHRA NE & W=
201009081829 SPECI KATL 081829Z 31008KT 10SM FEW060TCU BKN080 BKN250 32/19 A3009 RMK AO2 TCU NE & SW-NW SHRA NE & W=
201009081752 METAR KATL 081752Z 00000KT 10SM FEW055TCU SCT100 BKN250 32/18 A3010 RMK AO2 SLP181 TCU N & E & NW T03170183 10328 20211 58014=
201009081652 METAR KATL 081652Z 29006KT 10SM FEW050 SCT150 SCT250 31/19 A3013 RMK AO2 SLP189 T03110189=
201009081552 METAR KATL 081552Z VRB06KT 10SM FEW150 SCT250 BKN280 30/20 A3014 RMK AO2 SLP194 T03000200=
201009081452 METAR KATL 081452Z 26007KT 10SM FEW150 SCT250 SCT280 29/21 A3014 RMK AO2 SLP197 T02890206 51006=
201009081352 METAR KATL 081352Z 22009KT 10SM FEW150 SCT250 SCT280 26/19 A3014 RMK AO2 SLP195 T02560194=
201009081252 METAR KATL 081252Z 22003KT 10SM SCT150 BKN250 22/18 A3014 RMK AO2 SLP196 T02220178=
201009081152 METAR KATL 081152Z 22003KT 10SM SCT090 BKN250 21/17 A3013 RMK AO2 SLP192 T02110172 10239 20211 53003=
201009081052 METAR KATL 081052Z 20003KT 10SM SCT250 21/17 A3012 RMK AO2 SLP188 T02110172=
201009080952 METAR KATL 080952Z 00000KT 10SM FEW200 22/17 A3012 RMK AO2 SLP188 T02170172=
201009080852 METAR KATL 080852Z 20004KT 10SM SCT200 22/17 A3012 RMK AO2 SLP188 T02170172 56011=
201009080752 METAR KATL 080752Z 14003KT 9SM BKN250 23/16 A3013 RMK AO2 SLP190 T02330161=
201009080652 METAR KATL 080652Z 00000KT 10SM SCT250 23/16 A3014 RMK AO2 SLP195 T02280161=
201009080552 METAR KATL 080552Z 00000KT 10SM SCT200 24/16 A3015 RMK AO2 SLP199 T02390161 10289 20228 58005=
201009080452 METAR KATL 080452Z 00000KT 10SM FEW200 25/15 A3017 RMK AO2 SLP204 T02500150 403280194=
201009080352 METAR KATL 080352Z 00000KT 10SM FEW200 26/15 A3017 RMK AO2 SLP205 T02610150=
201009080252 METAR KATL 080252Z 17004KT 10SM FEW200 26/16 A3017 RMK AO2 SLP205 T02560156 50010=
201009080152 METAR KATL 080152Z 16004KT 10SM FEW200 27/17 A3017 RMK AO2 SLP205 T02720167=
201009080052 METAR KATL 080052Z 16004KT 10SM FEW250 28/17 A3015 RMK AO2 SLP201 T02780167=
201009072352 METAR KATL 072352Z 15005KT 10SM FEW250 29/16 A3014 RMK AO2 SLP195 T02890156 10328 20289 58008=
201009072252 METAR KATL 072252Z 16007KT 10SM FEW250 31/16 A3015 RMK AO2 SLP197 T03110156=
201009072152 METAR KATL 072152Z 17006KT 10SM FEW070 SCT250 32/14 A3015 RMK AO2 SLP199 T03170139=
201009072052 METAR KATL 072052Z 12004KT 10SM FEW065 SCT250 32/15 A3016 RMK AO2 SLP202 T03170150 58017=
201009071952 SPECI KATL 071952Z 17007G15KT 10SM SCT070 SCT250 32/16 A3018 RMK AO2 SLP208 T03220156=
201009071852 METAR KATL 071852Z 15004KT 10SM FEW060 SCT250 31/15 A3020 RMK AO2 SLP215 T03060150=
201009071752 METAR KATL 071752Z 14007KT 10SM FEW050 SCT250 31/17 A3021 RMK AO2 SLP220 T03060172 10317 20206 58008=
201009071652 METAR KATL 071652Z 12007KT 10SM FEW050 SCT250 31/19 A3022 RMK AO2 SLP224 T03060189=
201009071552 METAR KATL 071552Z 10005KT 10SM FEW250 29/19 A3024 RMK AO2 SLP228 T02890194=
201009071452 METAR KATL 071452Z VRB03KT 10SM CLR 27/21 A3023 RMK AO2 SLP228 T02720206 50005=
201009071352 METAR KATL 071352Z 00000KT 8SM FEW007 24/20 A3024 RMK AO2 SLP229 FU FEW007 T02440200=
201009071327 SPECI KATL 071327Z 00000KT 8SM FEW006 24/19 A3023 RMK AO2 FU FEW006=
201009071327 SPECI KATL 071327Z 00000KT 8SM FEW006 24/19 A3023 RMK AO2 FU FEW006=
201009071252 METAR KATL 071252Z 11003KT 8SM FEW020 SCT060 23/18 A3023 RMK AO2 SLP227 T02280183=
201009071152 METAR KATL 071152Z 09005KT 9SM FEW025 21/16 A3022 RMK AO2 SLP225 T02060161 10228 20194 53013=
201009071052 METAR KATL 071052Z 00000KT 10SM CLR 21/14 A3021 RMK AO2 SLP220 T02060144=
201009070952 METAR KATL 070952Z 08004KT 10SM CLR 21/13 A3019 RMK AO2 SLP212 T02060128=
201009070852 METAR KATL 070852Z 09004KT 10SM CLR 21/12 A3018 RMK AO2 SLP210 T02060122 53000=
201009070752 METAR KATL 070752Z 08003KT 10SM CLR 22/12 A3018 RMK AO2 SLP208 T02220117=
201009070652 METAR KATL 070652Z 08004KT 10SM CLR 22/12 A3018 RMK AO2 SLP208 T02170117=
201009070552 METAR KATL 070552Z 09005KT 10SM CLR 22/11 A3018 RMK AO2 SLP209 T02170111 10283 20217 50004=
201009070452 METAR KATL 070452Z 08004KT 10SM CLR 23/11 A3019 RMK AO2 SLP212 T02280111 403220167=
201009070352 METAR KATL 070352Z 08003KT 10SM CLR 24/11 A3017 RMK AO2 SLP206 T02440106=
201009070252 METAR KATL 070252Z 11003KT 10SM CLR 26/11 A3017 RMK AO2 SLP206 T02560106 52018=
201009070152 METAR KATL 070152Z 13003KT 10SM CLR 27/11 A3015 RMK AO2 SLP200 T02670111=
201009070052 METAR KATL 070052Z 14004KT 10SM CLR 27/11 A3013 RMK AO2 SLP194 T02720106=
201009062352 METAR KATL 062352Z 17005KT 10SM CLR 28/09 A3011 RMK AO2 SLP188 T02830094 10322 20283 53004=
201009062252 METAR KATL 062252Z 20007KT 10SM CLR 31/09 A3011 RMK AO2 SLP187 T03060094=
201009062152 METAR KATL 062152Z 00000KT 10SM CLR 31/09 A3010 RMK AO2 SLP184 T03110089=
201009062052 METAR KATL 062052Z 00000KT 10SM CLR 32/09 A3010 RMK AO2 SLP183 T03170094 56014=
201009061952 METAR KATL 061952Z 19006KT 10SM CLR 31/09 A3011 RMK AO2 SLP187 T03110089=
201009061852 METAR KATL 061852Z 17005KT 10SM CLR 31/09 A3013 RMK AO2 SLP192 T03060089=
201009061752 METAR KATL 061752Z 18005KT 10SM CLR 30/10 A3014 RMK AO2 SLP197 T03000100 10311 20183 58007=
201009061652 METAR KATL 061652Z 19006KT 10SM CLR 29/11 A3016 RMK AO2 SLP203 T02940106=
201009061552 METAR KATL 061552Z 16004KT 10SM CLR 28/11 A3017 RMK AO2 SLP207 T02780111=
201009061452 METAR KATL 061452Z 09004KT 10SM CLR 26/13 A3016 RMK AO2 SLP206 T02560133 51015=
201009061352 METAR KATL 061352Z 09006KT 10SM CLR 23/13 A3016 RMK AO2 SLP202 T02280128=
201009061252 METAR KATL 061252Z 08007KT 10SM CLR 21/12 A3013 RMK AO2 SLP196 T02060122=
201009061152 METAR KATL 061152Z 07007KT 10SM CLR 18/12 A3012 RMK AO2 SLP191 T01830117 10211 20167 51017=
201009061052 METAR KATL 061052Z 08005KT 10SM CLR 18/11 A3011 RMK AO2 SLP186 T01780106=
201009060952 METAR KATL 060952Z 09004KT 10SM CLR 18/11 A3008 RMK AO2 SLP178 T01780106=
201009060852 METAR KATL 060852Z AUTO 08004KT 10SM CLR 19/10 A3007 RMK AO2 SLP173 T01890100 53005 TSNO=
201009060752 METAR KATL 060752Z AUTO 09004KT 10SM CLR 20/11 A3005 RMK AO2 SLP168 T02000106 TSNO=
201009060652 METAR KATL 060652Z AUTO 11004KT 10SM CLR 21/11 A3005 RMK AO2 SLP167 T02060106 TSNO=
201009060552 METAR KATL 060552Z 09003KT 10SM CLR 21/11 A3005 RMK AO2 SLP168 T02060111 10261 20206 53003=
201009060452 METAR KATL 060452Z 06004KT 10SM CLR 22/11 A3005 RMK AO2 SLP167 T02170106 402940150=
201009060352 METAR KATL 060352Z 09005KT 10SM CLR 21/11 A3005 RMK AO2 SLP166 T02060111=
201009060252 METAR KATL 060252Z 07007KT 10SM CLR 21/11 A3004 RMK AO2 SLP165 T02110111 53015=
201009060152 METAR KATL 060152Z 09006KT 10SM CLR 24/09 A3003 RMK AO2 SLP159 T02440094=
201009060052 METAR KATL 060052Z 00000KT 10SM CLR 23/09 A3001 RMK AO2 SLP154 T02330094=
201009052352 METAR KATL 052352Z 29003KT 10SM CLR 26/07 A3000 RMK AO2 SLP150 T02610072 10294 20256 53002=
201009052252 METAR KATL 052252Z 33005KT 10SM CLR 28/08 A2999 RMK AO2 SLP146 T02830083=
201009052152 METAR KATL 052152Z 31004KT 10SM CLR 29/08 A2999 RMK AO2 SLP145 T02940083=
201009052052 METAR KATL 052052Z 06008G15KT 020V110 10SM CLR 29/07 A2999 RMK AO2 SLP147 T02940072 58013=
201009051952 METAR KATL 051952Z VRB03KT 10SM CLR 28/07 A3000 RMK AO2 SLP152 T02830067=
201009051852 METAR KATL 051852Z VRB03KT 10SM CLR 28/08 A3002 RMK AO2 SLP157 T02780078=
201009051752 METAR KATL 051752Z VRB03KT 10SM CLR 27/08 A3003 RMK AO2 SLP161 T02720083 10272 20161 58012=
201009051652 METAR KATL 051652Z 36007KT 10SM FEW250 27/09 A3005 RMK AO2 SLP167 T02670089=
201009051552 METAR KATL 051552Z 07006KT 10SM FEW250 24/09 A3006 RMK AO2 SLP171 T02440094=
201009051452 METAR KATL 051452Z 08008KT 10SM FEW250 23/09 A3007 RMK AO2 SLP173 T02330094 51013=
201009051352 METAR KATL 051352Z 07006KT 10SM SCT200 21/08 A3006 RMK AO2 SLP171 T02110083=
201009051252 METAR KATL 051252Z 32004KT 10SM SCT200 19/11 A3005 RMK AO2 SLP168 T01890106=
201009051152 METAR KATL 051152Z 34004KT 10SM BKN250 16/09 A3003 RMK AO2 SLP161 T01610094 10183 20150 53009=
201009051052 METAR KATL 051052Z 32005KT 10SM SCT250 16/09 A3001 RMK AO2 SLP157 T01610089=
201009050952 METAR KATL 050952Z 33005KT 10SM FEW250 17/08 A3000 RMK AO2 SLP151 T01670083=
201009050852 METAR KATL 050852Z 34005KT 10SM SCT250 17/08 A3000 RMK AO2 SLP150 T01670083 51003=
201009050752 METAR KATL 050752Z 33005KT 10SM SCT250 17/09 A3000 RMK AO2 SLP149 T01720089=
201009050652 METAR KATL 050652Z 34005KT 10SM SCT250 18/08 A3000 RMK AO2 SLP150 T01780083=
201009050552 METAR KATL 050552Z 33007KT 10SM SCT250 18/09 A2999 RMK AO2 SLP147 T01830089 10256 20183 50000=
201009050452 METAR KATL 050452Z 32008KT 10SM BKN250 18/09 A2999 RMK AO2 SLP147 T01830094 402890183=
201009050352 METAR KATL 050352Z 32007KT 10SM BKN250 19/09 A2999 RMK AO2 SLP149 T01940094=
201009050252 METAR KATL 050252Z 31007KT 10SM SCT250 21/09 A2999 RMK AO2 SLP147 T02060089 51012=
201009050152 METAR KATL 050152Z 31006KT 10SM SCT250 22/09 A2998 RMK AO2 SLP145 T02170089=
201009050052 METAR KATL 050052Z 32005KT 10SM FEW250 24/07 A2997 RMK AO2 SLP139 T02390072=
201009042352 METAR KATL 042352Z 32006KT 10SM SCT250 26/07 A2996 RMK AO2 SLP135 T02560067 10289 20256 55001=
201009042252 METAR KATL 042252Z 33006KT 10SM FEW250 27/06 A2995 RMK AO2 SLP133 T02720056=
201009042152 METAR KATL 042152Z 31011KT 10SM FEW150 SCT250 28/05 A2995 RMK AO2 SLP133 T02830050=
201009042052 METAR KATL 042052Z 32007KT 10SM FEW150 SCT250 28/07 A2996 RMK AO2 SLP134 T02830067 56017=
201009041952 METAR KATL 041952Z 34010KT 10SM FEW150 SCT250 28/07 A2997 RMK AO2 SLP138 T02830067=
201009041852 METAR KATL 041852Z 35008G17KT 10SM SCT250 27/08 A2999 RMK AO2 SLP147 T02720078=
201009041752 METAR KATL 041752Z 32013KT 10SM SCT250 26/08 A3001 RMK AO2 SLP152 T02610078 10267 20194 58007=
201009041652 METAR KATL 041652Z 35010KT 10SM SCT250 26/08 A3002 RMK AO2 SLP156 T02560083=
201009041552 METAR KATL 041552Z 35011G18KT 10SM SCT250 24/09 A3004 RMK AO2 SLP162 T02440089=
201009041452 METAR KATL 041452Z 34011KT 10SM BKN250 23/09 A3003 RMK AO2 SLP161 T02330089 53009=
201009041352 METAR KATL 041352Z 33007KT 10SM BKN200 BKN250 22/11 A3002 RMK AO2 SLP158 T02170111=
201009041252 METAR KATL 041252Z 33007KT 10SM BKN200 20/11 A3001 RMK AO2 SLP153 T02000111=
201009041152 METAR KATL 041152Z 32006KT 10SM BKN200 19/11 A3001 RMK AO2 SLP151 T01940111 10244 20189 53014=
201009041052 METAR KATL 041052Z 32007KT 10SM BKN200 19/12 A2999 RMK AO2 SLP146 T01940117=
201009040952 METAR KATL 040952Z 32009KT 10SM BKN200 21/12 A2997 RMK AO2 SLP138 T02060122=
201009040852 METAR KATL 040852Z 32008KT 10SM BKN200 22/14 A2996 RMK AO2 SLP133 T02220139 51001=
201009040752 METAR KATL 040752Z 32008KT 10SM FEW120 SCT200 23/16 A2996 RMK AO2 SLP134 T02280156=
201009040652 METAR KATL 040652Z 33009KT 10SM FEW120 SCT200 24/18 A2996 RMK AO2 SLP132 T02390183=
201009040552 METAR KATL 040552Z 32008KT 10SM FEW120 BKN200 24/19 A2996 RMK AO2 SLP132 T02440189 10289 20244 52004=
201009040452 METAR KATL 040452Z 31009KT 10SM SCT120 BKN200 25/18 A2995 RMK AO2 SLP131 T02500183 403330228=
201009040352 METAR KATL 040352Z 28005KT 10SM SCT120 BKN200 24/17 A2995 RMK AO2 SLP130 T02440172=
201009040252 METAR KATL 040252Z 29008KT 10SM FEW150 SCT200 26/17 A2995 RMK AO2 SLP129 T02560167 51015=
201009040152 METAR KATL 040152Z 26006KT 10SM FEW120 SCT200 27/16 A2993 RMK AO2 SLP125 T02720161=
201009040052 METAR KATL 040052Z 26007KT 10SM FEW150 SCT220 28/16 A2991 RMK AO2 SLP119 T02830156=
201009032352 METAR KATL 032352Z 26007KT 10SM FEW080 SCT150 SCT220 29/16 A2990 RMK AO2 SLP114 T02890161 10333 20289 55001=
201009032252 METAR KATL 032252Z 27008KT 10SM FEW080 31/16 A2990 RMK AO2 SLP112 T03060161=
201009032152 METAR KATL 032152Z 29013G19KT 10SM SCT070 32/15 A2990 RMK AO2 SLP113 T03170150=
201009032052 METAR KATL 032052Z 27013G18KT 10SM FEW070 SCT090 33/14 A2990 RMK AO2 SLP114 T03280144 56019=
201009031952 METAR KATL 031952Z 27011KT 10SM FEW070 33/16 A2992 RMK AO2 SLP119 T03280156=
201009031852 METAR KATL 031852Z 30009KT 10SM FEW075 32/15 A2994 RMK AO2 SLP126 T03170150=
201009031752 METAR KATL 031752Z 28010G21KT 10SM FEW070 32/15 A2996 RMK AO2 SLP134 T03220150 10328 20228 58006=
201009031652 METAR KATL 031652Z 26006KT 10SM FEW060 32/17 A2998 RMK AO2 SLP139 T03170167=
201009031552 METAR KATL 031552Z 31006KT 10SM CLR 31/18 A2998 RMK AO2 SLP141 T03110183=
201009031452 METAR KATL 031452Z 30005KT 10SM FEW070 29/18 A2998 RMK AO2 SLP142 T02890183 55001=
201009031352 METAR KATL 031352Z 30008KT 9SM FEW080 26/18 A2998 RMK AO2 SLP140 T02610178=
201009031252 METAR KATL 031252Z 30007KT 9SM FEW080 24/18 A2998 RMK AO2 SLP141 T02440178=
201009031152 METAR KATL 031152Z 28007KT 9SM BKN085 23/17 A2999 RMK AO2 SLP143 T02280172 10244 20228 53004=
201009031052 METAR KATL 031052Z 27006KT 10SM BKN085 23/17 A2998 RMK AO2 SLP141 T02330167=
201009030952 METAR KATL 030952Z 27007KT 10SM BKN085 BKN150 24/16 A2997 RMK AO2 SLP138 T02390161=
201009030852 METAR KATL 030852Z 26006KT 10SM SCT085 24/16 A2997 RMK AO2 SLP137 T02390161 50002=
201009030752 METAR KATL 030752Z 27007KT 10SM FEW040 23/17 A2998 RMK AO2 SLP138 T02330167=
201009030652 METAR KATL 030652Z 26006KT 10SM CLR 24/17 A2996 RMK AO2 SLP134 T02390167=
201009030552 METAR KATL 030552Z 27005KT 10SM CLR 23/17 A2996 RMK AO2 SLP134 T02330167 10294 20233 55001=
201009030452 METAR KATL 030452Z 23003KT 10SM CLR 24/18 A2996 RMK AO2 SLP133 T02390178 403280211=
201009030352 METAR KATL 030352Z 24004KT 10SM CLR 25/18 A2997 RMK AO2 SLP136 T02500183=
201009030252 METAR KATL 030252Z 23004KT 10SM CLR 25/18 A2997 RMK AO2 SLP137 T02500183 51003=
201009030152 METAR KATL 030152Z 22003KT 10SM CLR 26/18 A2997 RMK AO2 SLP137 T02610183=
201009030052 METAR KATL 030052Z 22004KT 10SM CLR 27/18 A2997 RMK AO2 SLP137 T02720178=
201009022352 METAR KATL 022352Z 00000KT 10SM FEW080 29/16 A2996 RMK AO2 SLP135 T02890161 10328 20289 58002=
201009022252 METAR KATL 022252Z 07005KT 10SM FEW070 31/12 A2996 RMK AO2 SLP135 T03110122=
201009022152 METAR KATL 022152Z VRB05KT 10SM FEW065 32/14 A2997 RMK AO2 SLP136 T03220144=
201009022052 METAR KATL 022052Z 09004KT 10SM FEW065 32/16 A2997 RMK AO2 SLP135 T03170156 56019=
201009021952 METAR KATL 021952Z 04005KT 10SM FEW070 BKN080 32/16 A2998 RMK AO2 SLP139 T03220156=
201009021852 METAR KATL 021852Z 08005KT 10SM BKN070 32/16 A3000 RMK AO2 SLP148 T03220156=
201009021752 METAR KATL 021752Z VRB05G15KT 10SM SCT065 32/16 A3002 RMK AO2 SLP154 T03170156 10317 20222 58008=
201009021652 METAR KATL 021652Z 08009KT 10SM FEW050 SCT070 31/17 A3004 RMK AO2 SLP159 T03060167=
201009021552 METAR KATL 021552Z VRB03KT 10SM FEW040 SCT080 29/18 A3005 RMK AO2 SLP164 T02890183=
201009021452 METAR KATL 021452Z 07005KT 9SM FEW035 27/19 A3005 RMK AO2 SLP163 T02720194 50003=
201009021352 METAR KATL 021352Z 09005KT 8SM FEW025 25/19 A3006 RMK AO2 SLP167 T02500194=
201009021252 METAR KATL 021252Z 09004KT 7SM CLR 23/19 A3005 RMK AO2 SLP165 T02330194=
201009021152 METAR KATL 021152Z 07007KT 7SM CLR 22/19 A3004 RMK AO2 SLP161 T02220189 10261 20211 53010=
201009021052 METAR KATL 021052Z 07007KT 9SM CLR 22/18 A3001 RMK AO2 SLP152 T02170183=
201009020952 METAR KATL 020952Z 09006KT 10SM CLR 22/18 A3000 RMK AO2 SLP149 T02170178=
201009020852 METAR KATL 020852Z 06008KT 10SM CLR 23/17 A3001 RMK AO2 SLP149 T02330172 56005=
201009020752 METAR KATL 020752Z 04007KT 10SM CLR 25/17 A3001 RMK AO2 SLP149 T02500167=
201009020652 METAR KATL 020652Z 01007KT 10SM CLR 26/17 A3001 RMK AO2 SLP149 T02560167=
201009020552 METAR KATL 020552Z 35007KT 10SM CLR 26/18 A3002 RMK AO2 SLP153 T02560178 10289 20250 58012=
201009020452 METAR KATL 020452Z 34006KT 10SM CLR 25/18 A3004 RMK AO2 SLP161 T02500183 403220200=
201009020352 METAR KATL 020352Z 31004KT 10SM CLR 27/18 A3005 RMK AO2 SLP165 T02670178=
201009020252 METAR KATL 020252Z 31003KT 10SM FEW070 28/18 A3006 RMK AO2 SLP166 T02780178 53015=
201009020152 METAR KATL 020152Z 00000KT 10SM CLR 27/18 A3004 RMK AO2 SLP161 T02720178=
201009020052 METAR KATL 020052Z 25003KT 10SM CLR 28/18 A3002 RMK AO2 SLP155 T02780178=
201009012352 METAR KATL 012352Z 22005KT 10SM CLR 29/18 A3001 RMK AO2 SLP153 T02890183 10322 20289 56007=
201009012252 METAR KATL 012252Z 20006KT 10SM FEW070 31/17 A3002 RMK AO2 SLP155 T03060172=
201009012152 METAR KATL 012152Z 05006KT 10SM FEW070 32/16 A3002 RMK AO2 SLP156 T03170161=
201009012052 METAR KATL 012052Z 00000KT 10SM FEW065 32/16 A3003 RMK AO2 SLP159 T03220161 56019=
201009011952 METAR KATL 011952Z 17008KT 10SM FEW065 32/16 A3005 RMK AO2 SLP164 T03220161=
201009011852 METAR KATL 011852Z 16008KT 120V190 10SM FEW060 32/16 A3007 RMK AO2 SLP172 T03170161=
201009011752 METAR KATL 011752Z 16006KT 10SM FEW060 31/17 A3009 RMK AO2 SLP178 T03110167 10311 20211 58017=
201009011652 METAR KATL 011652Z VRB04KT 10SM CLR 31/17 A3011 RMK AO2 SLP187 T03060172=
201009011552 METAR KATL 011552Z 14005KT 10SM CLR 29/16 A3013 RMK AO2 SLP193 T02940161=
201009011452 METAR KATL 011452Z 00000KT 10SM CLR 28/17 A3014 RMK AO2 PK WND 21038/1433 SLP197 T02830167 58002=
201009011352 METAR KATL 011352Z 00000KT 10SM CLR 27/17 A3015 RMK AO2 SLP200 T02720172=
201009011252 METAR KATL 011252Z 00000KT 10SM CLR 24/18 A3015 RMK AO2 SLP201 T02440178=
