##########################################################
# Query made at 04/19/2024 23:14:51 UTC
# Time interval: from 01/01/2010 12:00  to 01/31/2010 12:59  UTC
##########################################################

##########################################################
# KATL, Atlanta, Hartsfield - Jackson Atlanta International Airport (United States)
# WMO index: 72219. WIGOS ID: 0-20000-0-72219
# Latitude 33-38-59N. Longitude 084-25-00W. Altitude 312 m.
##########################################################

201001311252 METAR KATL 311252Z 33011KT 10SM OVC012 M03/M06 A3019 RMK AO2 SLP232 T10331056=
201001311152 METAR KATL 311152Z 35010KT 10SM OVC012 M03/M06 A3017 RMK AO2 SLP226 T10331056 11011 21033 53032=
201001311052 METAR KATL 311052Z 33010KT 10SM OVC014 M03/M06 A3013 RMK AO2 SLP212 T10331056=
201001310952 METAR KATL 310952Z 33009KT 10SM OVC013 M03/M05 A3010 RMK AO2 SLP202 T10281050=
201001310852 METAR KATL 310852Z 33015KT 10SM OVC012 M03/M05 A3007 RMK AO2 SLP192 T10281050 51012=
201001310752 METAR KATL 310752Z 33012G25KT 10SM OVC011 M02/M05 A3006 RMK AO2 SLP189 T10221050=
201001310652 METAR KATL 310652Z 32013KT 10SM OVC011 M02/M04 A3004 RMK AO2 SLP184 T10221044=
201001310552 METAR KATL 310552Z 34012KT 10SM OVC010 M01/M03 A3003 RMK AO2 SLP179 CIG 009V012 60000 T10111033 10022 21011 53021=
201001310452 METAR KATL 310452Z 31017G20KT 10SM OVC007 M01/M02 A3000 RMK AO2 SLP169 T10061017 400331006=
201001310352 METAR KATL 310352Z 33013KT 5SM BR OVC005 01/M01 A2999 RMK AO2 SLP163 RAE00 P0000 T00061006=
201001310252 METAR KATL 310252Z 29009KT 6SM -RA BR BKN005 OVC015 02/01 A2997 RMK AO2 DZE16RAB48 CIG 004V009 SLP156 P0000 60000 T00170006 53021=
201001310152 METAR KATL 310152Z 29005KT 4SM -DZ BR BKN005 OVC019 02/01 A2994 RMK AO2 DZB46 SLP148 CIG 004V008 P0000 T00170011=
201001310137 SPECI KATL 310137Z 31005KT 5SM BR BKN005 OVC019 02/01 A2994 RMK AO2=
201001310137 SPECI KATL 310137Z 31005KT 5SM BR BKN005 OVC019 02/01 A2994 RMK AO2=
201001310107 SPECI KATL 310107Z 31004KT 7SM FEW003 BKN024 OVC031 02/01 A2994 RMK AO2 $=
201001310107 SPECI KATL 310107Z 31004KT 7SM FEW003 BKN024 OVC031 02/01 A2994 RMK AO2 $=
201001310052 METAR KATL 310052Z 31005KT 7SM SCT007 BKN031 OVC060 02/01 A2993 RMK AO2 SLP142 T00170006 $=
201001302352 METAR KATL 302352Z 33003KT 6SM BR SCT005 SCT011 OVC055 02/01 A2990 RMK AO2 SLP134 RAB31E49SNB31E49 931000 P0000 60000 T00170006 10017 20011 51023 $=
201001302323 SPECI KATL 302323Z 34004KT 6SM BR BKN005 BKN012 OVC019 02/01 A2990 RMK AO2=
201001302323 SPECI KATL 302323Z 34004KT 6SM BR BKN005 BKN012 OVC019 02/01 A2990 RMK AO2=
201001302252 METAR KATL 302252Z 34006KT 6SM BR SCT006 BKN014 OVC022 02/01 A2988 RMK AO2 DZE26 SLP127 P0000 T00170006=
201001302244 SPECI KATL 302244Z 34006KT 6SM BR SCT006 BKN012 OVC020 02/01 A2988 RMK AO2 DZE26 P0000=
201001302244 SPECI KATL 302244Z 34006KT 6SM BR SCT006 BKN012 OVC020 02/01 A2988 RMK AO2 DZE26 P0000=
201001302226 SPECI KATL 302226Z 35005KT 4SM BR BKN006 OVC012 02/01 A2988 RMK AO2 DZE26 CIG 004V008 P0000=
201001302226 SPECI KATL 302226Z 35005KT 4SM BR BKN006 OVC012 02/01 A2988 RMK AO2 DZE26 CIG 004V008 P0000=
201001302152 METAR KATL 302152Z 36007KT 1 1/2SM -DZ BR BKN006 OVC011 02/01 A2987 RMK AO2 SFC VIS 2 SLP122 P0000 T00170006 $=
201001302052 METAR KATL 302052Z 03005KT 1 1/2SM -DZ BR OVC006 02/01 A2983 RMK AO2 SFC VIS 2 SLP110 P0000 60000 T00170006 53009 $=
201001301952 METAR KATL 301952Z 05005KT 1 1/2SM -DZ BR OVC006 02/01 A2980 RMK AO2 SFC VIS 2 SLP099 P0000 T00170006=
201001301944 SPECI KATL 301944Z 02005KT 1 1/2SM -DZ BR OVC006 01/01 A2980 RMK AO2 SFC VIS 2 P0000=
201001301944 SPECI KATL 301944Z 02005KT 1 1/2SM -DZ BR OVC006 01/01 A2980 RMK AO2 SFC VIS 2 P0000=
201001301852 METAR KATL 301852Z 05008KT 1 1/2SM -DZ BR OVC004 01/01 A2979 RMK AO2 SLP094 P0000 T00110006=
201001301813 SPECI KATL 301813Z 08006KT 1/4SM -DZ BR OVC004 01/01 A2981 RMK AO2 SFC VIS 1 1/4 P0000=
201001301813 SPECI KATL 301813Z 08006KT 1/4SM -DZ BR OVC004 01/01 A2981 RMK AO2 SFC VIS 1 1/4 P0000=
201001301752 METAR KATL 301752Z 09011KT 2SM -DZ BR OVC004 02/01 A2980 RMK AO2 SFC VIS 3 SLP100 P0000 60000 T00170011 10017 20006 58009=
201001301652 METAR KATL 301652Z 08014KT 4SM -DZ BR OVC004 01/01 A2983 RMK AO2 RAE08DZB51 SLP107 P0000 T00110006=
201001301552 METAR KATL 301552Z 09011KT 4SM -RA BR OVC004 01/01 A2984 RMK AO2 DZE41RAB42 SLP110 P0000 T00110006=
201001301452 METAR KATL 301452Z 07015G18KT 3SM -DZ BR OVC005 01/00 A2983 RMK AO2 SFC VIS 4 RAB15E31DZB41 SLP109 P0000 60000 T00110000 51009=
201001301352 METAR KATL 301352Z 08017KT 7SM OVC006 01/00 A2983 RMK AO2 RAE1258B30E42 SLP108 P0000 T00110000=
201001301252 METAR KATL 301252Z 08015G21KT 7SM -RA OVC005 01/00 A2982 RMK AO2 RAE27B47 SLP104 P0000 T00060000=
201001301152 METAR KATL 301152Z 08015KT 6SM -RA BR OVC006 01/00 A2980 RMK AO2 RAB21 SLP099 P0000 60030 70044 T00110000 10033 20011 55012=
201001301052 METAR KATL 301052Z 08013G21KT 9SM OVC006 01/00 A2980 RMK AO2 RAE35 SLP096 P0000 T00110000=
201001300952 METAR KATL 300952Z 09015G20KT 8SM -RA OVC007 01/01 A2983 RMK AO2 SLP105 P0002 T00110006=
201001300852 METAR KATL 300852Z 07015KT 5SM -RA BR BKN007 OVC013 02/01 A2984 RMK AO2 SLP109 P0020 60028 T00170006 56016=
201001300834 SPECI KATL 300834Z 07017KT 4SM -RA BR BKN008 OVC013 02/01 A2982 RMK AO2 PRESFR P0019=
201001300834 SPECI KATL 300834Z 07017KT 4SM -RA BR BKN008 OVC013 02/01 A2982 RMK AO2 PRESFR P0019=
201001300812 SPECI KATL 300812Z 04013KT 2SM +RA BR BKN008 OVC013 02/01 A2986 RMK AO2 P0012=
201001300812 SPECI KATL 300812Z 04013KT 2SM +RA BR BKN008 OVC013 02/01 A2986 RMK AO2 P0012=
201001300805 SPECI KATL 300805Z 04009KT 3SM +RA BR BKN008 OVC013 02/01 A2988 RMK AO2 PRESRR P0006=
201001300805 SPECI KATL 300805Z 04009KT 3SM +RA BR BKN008 OVC013 02/01 A2988 RMK AO2 PRESRR P0006=
201001300754 SPECI KATL 300754Z 05011KT 4SM +RA BR FEW008 OVC013 02/01 A2985 RMK AO2 P0001=
201001300754 SPECI KATL 300754Z 05011KT 4SM +RA BR FEW008 OVC013 02/01 A2985 RMK AO2 P0001=
201001300752 METAR KATL 300752Z 05011KT 4SM +RA BR OVC013 02/01 A2985 RMK AO2 SLP111 P0008 T00220011=
201001300749 SPECI KATL 300749Z 06012KT 4SM +RA BR OVC013 02/01 A2984 RMK AO2 P0006=
201001300749 SPECI KATL 300749Z 06012KT 4SM +RA BR OVC013 02/01 A2984 RMK AO2 P0006=
201001300652 METAR KATL 300652Z 10012G21KT 10SM -RA OVC019 03/01 A2985 RMK AO2 RAB20 SLP110 P0000 T00280006=
201001300552 METAR KATL 300552Z 10009KT 10SM OVC024 03/00 A2989 RMK AO2 SLP125 60014 T00330000 10067 20033 56026=
201001300452 METAR KATL 300452Z 10014G23KT 10SM BKN027 OVC035 03/00 A2991 RMK AO2 RAE12 SLP131 P0000 T00330000 400940028=
201001300352 METAR KATL 300352Z 11010G19KT 10SM -RA OVC028 03/00 A2993 RMK AO2 SLP142 P0000 T00330000=
201001300252 METAR KATL 300252Z 11014G21KT 10SM -RA BKN065 BKN080 OVC100 03/00 A2997 RMK AO2 SLP154 P0003 60014 T00330000 58037=
201001300152 METAR KATL 300152Z 11015G21KT 7SM RA FEW020 BKN035 OVC080 04/00 A3002 RMK AO2 SLP170 P0007 T00390000=
201001300052 METAR KATL 300052Z 09012KT 7SM -RA OVC038 04/M01 A3005 RMK AO2 RAB12 SLP182 P0004 T00441006=
201001292352 METAR KATL 292352Z 08018KT 10SM OVC045 07/M03 A3008 RMK AO2 PK WND 08026/2343 SLP192 60000 T00671033 10094 20067 55005=
201001292252 METAR KATL 292252Z 07017G22KT 10SM OVC055 07/M03 A3008 RMK AO2 SLP190 T00721028=
201001292152 METAR KATL 292152Z 07018KT 10SM BKN065 OVC120 08/M02 A3008 RMK AO2 SLP191 T00831022=
201001292052 METAR KATL 292052Z 06009KT 10SM SCT046 BKN080 BKN100 OVC200 09/00 A3010 RMK AO2 RAB03E29 SLP197 P0000 60000 T00890000 56018=
201001291952 METAR KATL 291952Z 07009KT 10SM FEW050 BKN080 OVC200 09/00 A3011 RMK AO2 SLP199 T00890000=
201001291852 SPECI KATL 291852Z 07009KT 10SM FEW030 SCT050 BKN080 OVC200 08/00 A3012 RMK AO2 RAB03E28 SLP203 P0000 T00830000=
201001291752 METAR KATL 291752Z 07006KT 10SM OVC090 08/M01 A3015 RMK AO2 SLP214 T00831011 10089 20033 58010=
201001291652 METAR KATL 291652Z 06007KT 10SM FEW040 BKN085 BKN150 OVC200 08/M02 A3018 RMK AO2 SLP222 T00831017=
201001291552 METAR KATL 291552Z 07007KT 10SM SCT095 BKN150 BKN250 07/M03 A3018 RMK AO2 SLP224 T00671028=
201001291452 METAR KATL 291452Z 05005KT 10SM SCT100 BKN150 BKN250 06/M04 A3018 RMK AO2 SLP225 T00611044 53005=
201001291352 METAR KATL 291352Z 02003KT 10SM BKN100 BKN250 05/M04 A3017 RMK AO2 SLP219 T00501039=
201001291252 METAR KATL 291252Z 36006KT 10SM BKN110 BKN150 BKN250 04/M04 A3015 RMK AO2 SLP213 T00391039=
201001291152 METAR KATL 291152Z 33007KT 10SM FEW150 03/M03 A3017 RMK AO2 SLP220 T00281033 10067 20028 55000=
201001291052 METAR KATL 291052Z 34006KT 10SM BKN150 04/M03 A3016 RMK AO2 SLP215 T00391028=
201001290952 METAR KATL 290952Z 34006KT 10SM BKN090 BKN150 04/M03 A3017 RMK AO2 SLP219 T00441028=
201001290852 METAR KATL 290852Z 34007KT 10SM SCT095 BKN150 04/M02 A3017 RMK AO2 SLP217 T00441022 58010=
201001290752 METAR KATL 290752Z 34007KT 10SM BKN095 BKN150 06/M01 A3018 RMK AO2 SLP221 T00561011=
201001290652 METAR KATL 290652Z 31007KT 10SM FEW150 BKN250 06/00 A3020 RMK AO2 SLP228 T00560000=
201001290552 METAR KATL 290552Z 32008KT 10SM OVC250 06/01 A3020 RMK AO2 SLP227 T00610011 10117 20061 56001=
201001290452 METAR KATL 290452Z 31007KT 10SM OVC250 07/02 A3020 RMK AO2 SLP228 T00720017 401670011=
201001290352 METAR KATL 290352Z 31005KT 10SM OVC250 08/02 A3019 RMK AO2 SLP227 T00830017=
201001290252 METAR KATL 290252Z 32004KT 10SM BKN200 OVC250 09/02 A3020 RMK AO2 SLP230 T00940017 50001=
201001290152 METAR KATL 290152Z 30003KT 10SM BKN200 OVC250 10/02 A3021 RMK AO2 SLP232 T01000017=
201001290052 METAR KATL 290052Z 30003KT 10SM CLR 12/01 A3020 RMK AO2 SLP230 T01170011=
201001282352 METAR KATL 282352Z 31006KT 10SM SCT200 OVC250 11/02 A3020 RMK AO2 SLP231 T01110017 10167 20111 51002=
201001282252 METAR KATL 282252Z 31007KT 10SM FEW150 BKN200 OVC250 13/02 A3020 RMK AO2 SLP229 T01330022=
201001282152 METAR KATL 282152Z 32010KT 10SM FEW150 BKN200 OVC250 15/02 A3020 RMK AO2 SLP230 T01500022=
201001282052 METAR KATL 282052Z 33010G19KT 10SM FEW055 BKN200 OVC250 16/03 A3019 RMK AO2 SLP227 T01610028 56021=
201001281952 METAR KATL 281952Z 30010KT 10SM FEW060 BKN200 OVC250 16/01 A3020 RMK AO2 SLP230 T01610011=
201001281852 METAR KATL 281852Z 30007KT 10SM FEW150 BKN200 BKN250 16/01 A3022 RMK AO2 SLP236 T01610011=
201001281752 METAR KATL 281752Z 30010KT 10SM FEW060 BKN200 BKN250 14/M01 A3026 RMK AO2 SLP249 T01441006 10144 20011 58020=
201001281652 METAR KATL 281652Z 30009KT 10SM FEW060 SCT200 BKN250 13/M02 A3030 RMK AO2 SLP264 T01331017=
201001281552 METAR KATL 281552Z 26008KT 10SM FEW060 SCT200 BKN250 11/M04 A3031 RMK AO2 SLP269 T01111039=
201001281452 METAR KATL 281452Z 24003KT 10SM FEW060 SCT150 BKN250 07/M04 A3032 RMK AO2 SLP272 T00721039 51014=
201001281352 METAR KATL 281352Z 25003KT 10SM SCT200 BKN250 04/M03 A3031 RMK AO2 SLP272 T00391033=
201001281252 METAR KATL 281252Z 28003KT 10SM FEW080 SCT180 BKN250 02/M04 A3030 RMK AO2 SLP266 T00171044=
201001281152 METAR KATL 281152Z 29004KT 10SM FEW080 SCT120 01/M04 A3028 RMK AO2 SLP259 T00111044 10033 20011 55005=
201001281052 METAR KATL 281052Z 00000KT 10SM FEW080 02/M05 A3026 RMK AO2 SLP254 T00171050=
201001280952 METAR KATL 280952Z 00000KT 10SM CLR 02/M05 A3028 RMK AO2 SLP257 T00171050=
201001280852 METAR KATL 280852Z 33005KT 10SM CLR 01/M05 A3029 RMK AO2 SLP264 T00111050 51001=
201001280752 METAR KATL 280752Z 32004KT 10SM CLR 02/M05 A3028 RMK AO2 SLP260 T00171050=
201001280652 METAR KATL 280652Z 31005KT 10SM CLR 02/M06 A3030 RMK AO2 SLP266 T00221056=
201001280552 METAR KATL 280552Z 32003KT 10SM FEW250 03/M06 A3029 RMK AO2 SLP263 T00331056 10083 20022 58004=
201001280452 METAR KATL 280452Z 31005KT 10SM FEW250 03/M06 A3031 RMK AO2 SLP271 T00281056 401111022=
201001280352 METAR KATL 280352Z 00000KT 10SM FEW250 04/M06 A3030 RMK AO2 SLP268 T00391056=
201001280252 METAR KATL 280252Z 00000KT 10SM FEW250 05/M06 A3030 RMK AO2 SLP269 T00501061 51007=
201001280152 METAR KATL 280152Z 33005KT 10SM FEW250 06/M06 A3030 RMK AO2 SLP268 T00561061=
201001280052 METAR KATL 280052Z 33005KT 10SM CLR 07/M07 A3029 RMK AO2 SLP267 T00671067=
201001272352 METAR KATL 272352Z 33003KT 10SM CLR 08/M07 A3028 RMK AO2 SLP261 T00781072 10111 20078 53005=
201001272252 METAR KATL 272252Z 31006KT 10SM CLR 08/M07 A3027 RMK AO2 SLP259 T00831072=
201001272152 METAR KATL 272152Z VRB04KT 10SM FEW250 11/M07 A3027 RMK AO2 SLP255 T01061072=
201001272052 METAR KATL 272052Z 34008KT 10SM FEW150 11/M07 A3026 RMK AO2 SLP254 T01061067 56010=
201001271952 METAR KATL 271952Z 31011KT 10SM FEW150 SCT250 09/M07 A3027 RMK AO2 SLP256 T00941067=
201001271852 METAR KATL 271852Z 31009KT 10SM FEW150 SCT250 09/M04 A3028 RMK AO2 SLP258 T00941044=
201001271752 METAR KATL 271752Z 32010KT 10SM FEW200 SCT250 08/M04 A3029 RMK AO2 SLP265 T00781044 10078 21022 58002=
201001271652 SPECI KATL 271652Z 29006KT 10SM FEW200 BKN250 06/M04 A3031 RMK AO2 SLP273 T00561044=
201001271552 METAR KATL 271552Z 31006KT 10SM FEW200 SCT250 03/M05 A3031 RMK AO2 SLP270 T00331050=
201001271452 METAR KATL 271452Z 01008KT 10SM FEW120 SCT200 BKN250 01/M06 A3030 RMK AO2 SLP270 T00111061 51021=
201001271352 METAR KATL 271352Z 33010KT 10SM BKN250 M01/M06 A3030 RMK AO2 SLP269 T10061061=
201001271252 METAR KATL 271252Z 32009KT 10SM SCT150 BKN250 M02/M06 A3026 RMK AO2 SLP257 T10171061=
201001271152 METAR KATL 271152Z 32010KT 10SM CLR M02/M06 A3024 RMK AO2 SLP247 T10171061 10006 21017 51019=
201001271052 METAR KATL 271052Z 31009KT 10SM CLR M02/M06 A3023 RMK AO2 SLP244 T10171061=
201001270952 METAR KATL 270952Z 29006G18KT 10SM CLR M01/M06 A3021 RMK AO2 SLP237 T10111061=
201001270852 METAR KATL 270852Z 31008KT 10SM CLR M01/M06 A3018 RMK AO2 SLP226 T10111056 53009=
201001270752 METAR KATL 270752Z 30008KT 10SM CLR M01/M06 A3017 RMK AO2 SLP221 T10061056=
201001270652 METAR KATL 270652Z 30006KT 10SM CLR M01/M05 A3016 RMK AO2 SLP220 T10061050=
201001270552 METAR KATL 270552Z 31005KT 10SM CLR 01/M05 A3015 RMK AO2 SLP216 T00061050 10056 20006 50003=
201001270452 METAR KATL 270452Z 33007KT 10SM CLR 01/M05 A3016 RMK AO2 SLP220 T00111050 400940011=
201001270352 METAR KATL 270352Z 32007KT 10SM CLR 02/M04 A3017 RMK AO2 SLP222 T00171044=
201001270252 METAR KATL 270252Z 33008KT 10SM CLR 02/M04 A3014 RMK AO2 SLP214 T00221044 51014=
201001270152 METAR KATL 270152Z 32007KT 10SM CLR 03/M04 A3014 RMK AO2 SLP212 T00331044=
201001270052 METAR KATL 270052Z 32009KT 10SM CLR 05/M04 A3013 RMK AO2 SLP210 T00501039=
201001262352 METAR KATL 262352Z 31009KT 10SM FEW055 06/M04 A3010 RMK AO2 SLP200 T00561039 10094 20056 51027=
201001262252 METAR KATL 262252Z 30011KT 10SM FEW055 07/M04 A3007 RMK AO2 SLP188 T00721044=
201001262152 METAR KATL 262152Z 30018G26KT 10SM FEW055 08/M04 A3005 RMK AO2 PK WND 30026/2147 SLP180 T00831044=
201001262052 METAR KATL 262052Z 25014G23KT 10SM FEW055 09/M05 A3002 RMK AO2 SLP169 T00941050 53003=
201001261952 METAR KATL 261952Z 27013G22KT 10SM FEW060 09/M04 A3000 RMK AO2 SLP164 T00891039=
201001261852 METAR KATL 261852Z 27019G27KT 10SM FEW055 08/M05 A2999 RMK AO2 PK WND 26027/1850 SLP161 T00831050=
201001261752 METAR KATL 261752Z 26017G24KT 10SM FEW055 08/M06 A3001 RMK AO2 SLP166 T00781056 10078 20011 58007=
201001261652 METAR KATL 261652Z 30016G24KT 10SM FEW050 07/M04 A3004 RMK AO2 PK WND 25029/1635 SLP177 T00671044=
201001261552 METAR KATL 261552Z 29017G24KT 10SM FEW045 05/M05 A3004 RMK AO2 SLP179 T00501050=
201001261452 METAR KATL 261452Z 27011G24KT 10SM FEW035 04/M04 A3003 RMK AO2 SLP174 T00441044 53029=
201001261352 METAR KATL 261352Z 26010KT 10SM CLR 03/M04 A3000 RMK AO2 SLP164 T00281044=
201001261252 METAR KATL 261252Z 26009KT 10SM FEW180 02/M05 A2996 RMK AO2 SLP151 T00171050=
201001261152 METAR KATL 261152Z 27008KT 10SM FEW250 02/M05 A2994 RMK AO2 SLP144 T00171050 10033 20017 53012=
201001261052 METAR KATL 261052Z 25007KT 10SM CLR 02/M04 A2992 RMK AO2 SLP136 T00171044=
201001260952 METAR KATL 260952Z 25006KT 10SM CLR 02/M04 A2992 RMK AO2 SLP137 T00221039=
201001260852 METAR KATL 260852Z 25006KT 10SM CLR 02/M04 A2991 RMK AO2 SLP131 T00221039 58004=
201001260752 METAR KATL 260752Z 24005KT 10SM CLR 03/M03 A2992 RMK AO2 SLP134 T00281028=
201001260652 METAR KATL 260652Z 28007KT 10SM SCT070 03/M03 A2992 RMK AO2 SLP136 T00331028=
201001260552 METAR KATL 260552Z 28006KT 10SM FEW075 03/M02 A2992 RMK AO2 SLP135 T00331022 10083 20033 51023=
201001260452 METAR KATL 260452Z 30010KT 10SM FEW075 04/M02 A2991 RMK AO2 SLP130 T00441022 401170044=
201001260352 METAR KATL 260352Z 30016G21KT 10SM FEW065 BKN080 06/M02 A2990 RMK AO2 PK WND 29035/0301 SLP127 T00611022=
201001260252 METAR KATL 260252Z 30023G30KT 10SM FEW075 BKN090 08/M04 A2985 RMK AO2 PK WND 29030/0251 SLP110 T00781039 53033=
201001260152 METAR KATL 260152Z 28008KT 10SM SCT075 OVC090 07/M03 A2981 RMK AO2 SLP098 T00721033=
201001260052 METAR KATL 260052Z 27009KT 10SM FEW070 08/M04 A2978 RMK AO2 SLP087 T00781039=
201001252352 METAR KATL 252352Z 27011G18KT 10SM CLR 08/M04 A2975 RMK AO2 SLP077 T00831044 10117 20083 53024=
201001252252 METAR KATL 252252Z 27011G21KT 10SM FEW065 09/M04 A2972 RMK AO2 PK WND 27026/2204 SLP064 T00941044=
201001252152 METAR KATL 252152Z 25020G29KT 10SM FEW070 11/M05 A2970 RMK AO2 PK WND 24030/2058 SLP057 T01111050=
201001252052 METAR KATL 252052Z 26016G26KT 10SM FEW070 11/M05 A2968 RMK AO2 PK WND 25029/2026 SLP050 T01111050 55007=
201001251952 METAR KATL 251952Z 25019G25KT 10SM FEW060 11/M03 A2966 RMK AO2 PK WND 26029/1926 SLP045 T01111033=
201001251852 METAR KATL 251852Z 25014G22KT 10SM FEW055 11/M02 A2968 RMK AO2 PK WND 24030/1823 SLP051 T01111022=
201001251752 METAR KATL 251752Z 25019G27KT 10SM FEW055 11/M03 A2970 RMK AO2 PK WND 28030/1731 SLP057 T01061033 10106 20072 58000=
201001251652 METAR KATL 251652Z 27010G28KT 10SM FEW045 09/M01 A2972 RMK AO2 PK WND 27032/1633 SLP066 T00941011=
201001251552 METAR KATL 251552Z 26015G20KT 10SM FEW045 09/M02 A2973 RMK AO2 SLP067 T00891017=
201001251452 METAR KATL 251452Z 26016G20KT 10SM FEW025 08/02 A2970 RMK AO2 SLP059 T00830022 51024=
201001251352 METAR KATL 251352Z 26011G16KT 10SM FEW034 08/03 A2968 RMK AO2 SLP052 T00780033=
201001251252 METAR KATL 251252Z 25010KT 10SM SCT028 BKN034 08/05 A2965 RMK AO2 SLP042 T00780050=
201001251152 METAR KATL 251152Z 26010KT 10SM SCT024 BKN030 08/06 A2963 RMK AO2 SLP033 70273 T00830056 10100 20083 51019=
201001251148 SPECI KATL 251148Z 26010G18KT 10SM SCT026 BKN031 08/06 A2962 RMK AO2=
201001251148 SPECI KATL 251148Z 26010G18KT 10SM SCT026 BKN031 08/06 A2962 RMK AO2=
201001251117 SPECI KATL 251117Z 26010G17KT 10SM FEW018 BKN026 09/06 A2961 RMK AO2=
201001251117 SPECI KATL 251117Z 26010G17KT 10SM FEW018 BKN026 09/06 A2961 RMK AO2=
201001251052 METAR KATL 251052Z 27010G16KT 10SM FEW020 SCT028 09/07 A2960 RMK AO2 SLP023 T00890067=
201001251028 SPECI KATL 251028Z 26010KT 10SM FEW013 BKN022 09/07 A2959 RMK AO2=
201001251028 SPECI KATL 251028Z 26010KT 10SM FEW013 BKN022 09/07 A2959 RMK AO2=
201001250952 METAR KATL 250952Z 25007KT 8SM FEW015 SCT180 09/08 A2957 RMK AO2 SLP011 T00940078=
201001250852 METAR KATL 250852Z 25007KT 8SM BKN008 BKN018 OVC120 10/09 A2956 RMK AO2 SLP008 T01000089 53007=
201001250823 SPECI KATL 250823Z 24008KT 8SM BKN008 BKN018 OVC120 10/09 A2956 RMK AO2=
201001250823 SPECI KATL 250823Z 24008KT 8SM BKN008 BKN018 OVC120 10/09 A2956 RMK AO2=
201001250752 METAR KATL 250752Z 26007KT 8SM FEW011 BKN110 10/09 A2954 RMK AO2 SLP999 T01000089=
201001250731 SPECI KATL 250731Z 25007KT 8SM SCT011 BKN110 10/09 A2954 RMK AO2=
201001250731 SPECI KATL 250731Z 25007KT 8SM SCT011 BKN110 10/09 A2954 RMK AO2=
201001250652 METAR KATL 250652Z 25009KT 8SM BKN011 OVC110 10/09 A2953 RMK AO2 SLP999 T01000089=
201001250648 SPECI KATL 250648Z 24009KT 8SM BKN011 OVC110 10/09 A2954 RMK AO2=
201001250648 SPECI KATL 250648Z 24009KT 8SM BKN011 OVC110 10/09 A2954 RMK AO2=
201001250552 METAR KATL 250552Z 24010KT 8SM OVC007 10/09 A2954 RMK AO2 SLP003 60023 T01000089 10117 20094 51013=
201001250504 SPECI KATL 250504Z 23009KT 8SM BKN009 BKN100 OVC120 10/08 A2954 RMK AO2=
201001250504 SPECI KATL 250504Z 23009KT 8SM BKN009 BKN100 OVC120 10/08 A2954 RMK AO2=
201001250452 METAR KATL 250452Z 23009KT 10SM SCT009 SCT095 BKN120 10/08 A2953 RMK AO2 RAE0356 SLP000 P0000 T01000083 401780061=
201001250352 METAR KATL 250352Z 22006KT 10SM -RA FEW003 BKN095 10/09 A2952 RMK AO2 SLP996 P0000 T01000089=
201001250252 METAR KATL 250252Z 21005KT 8SM -RA FEW003 BKN085 OVC100 10/09 A2950 RMK AO2 RAE17B46 SLP990 P0002 60023 T01000089 58003=
201001250152 METAR KATL 250152Z 21005KT 6SM RA BR FEW003 OVC065 10/09 A2952 RMK AO2 SLP995 P0008 T01000094=
201001250052 METAR KATL 250052Z 29006KT 6SM -RA BR FEW003 OVC033 10/09 A2951 RMK AO2 SLP993 P0013 T01000094=
201001250014 SPECI KATL 250014Z 28008KT 5SM -RA BR FEW005 SCT045 OVC100 11/09 A2951 RMK AO2 CB DSNT NE-SE P0007=
201001250014 SPECI KATL 250014Z 28008KT 5SM -RA BR FEW005 SCT045 OVC100 11/09 A2951 RMK AO2 CB DSNT NE-SE P0007=
201001250003 SPECI KATL 250003Z 28011KT 2SM RA BR SCT007CB OVC034 11/09 A2950 RMK AO2 SFC VIS 3 LTGIC DSNT E-S CB ALQDS MOV NE P0006=
201001250003 SPECI KATL 250003Z 28011KT 2SM RA BR SCT007CB OVC034 11/09 A2950 RMK AO2 SFC VIS 3 LTGIC DSNT E-S CB ALQDS MOV NE P0006=
201001242352 METAR KATL 242352Z 28014G20KT 2SM RA BR BKN009CB OVC038 12/10 A2951 RMK AO2 PK WND 27029/2339 WSHFT 2241 SFC VIS 3 SLP994 LTGIC DSNT=
201001242317 SPECI KATL 242317Z 32013KT 2SM +RA BR FEW002 BKN005CB OVC040 13/13 A2949 RMK AO2 WSHFT 2241 SFC VIS 2 1/2 CB NE-OHD-SW MOV NE P0014=
201001242317 SPECI KATL 242317Z 32013KT 2SM +RA BR FEW002 BKN005CB OVC040 13/13 A2949 RMK AO2 WSHFT 2241 SFC VIS 2 1/2 CB NE-OHD-SW MOV NE P0014=
201001242258 SPECI KATL 242258Z 31013KT 2SM RA BR FEW002 SCT007CB OVC012 14/13 A2950 RMK AO2 WSHFT 2241 SFC VIS 3 P0002=
201001242258 SPECI KATL 242258Z 31013KT 2SM RA BR FEW002 SCT007CB OVC012 14/13 A2950 RMK AO2 WSHFT 2241 SFC VIS 3 P0002=
201001242252 METAR KATL 242252Z 31016KT 2SM -RA BR FEW002 BKN005CB OVC040 14/13 A2949 RMK AO2 SLP986 CB NE-OHD-SW MOV NE P0061 T01440133=
201001242243 SPECI KATL 242243Z 32015G18KT 2SM +RA BR FEW002 BKN005CB OVC014 16/16 A2949 RMK AO2 CB NE-OHD-SW MOV NE P0056=
201001242243 SPECI KATL 242243Z 32015G18KT 2SM +RA BR FEW002 BKN005CB OVC014 16/16 A2949 RMK AO2 CB NE-OHD-SW MOV NE P0056=
201001242236 SPECI KATL 242236Z 25008KT 3SM RA BR FEW002 BKN008CB OVC016 17/16 A2948 RMK AO2 CB NE-SW MOV NE P0050=
201001242236 SPECI KATL 242236Z 25008KT 3SM RA BR FEW002 BKN008CB OVC016 17/16 A2948 RMK AO2 CB NE-SW MOV NE P0050=
201001242229 SPECI KATL 242229Z 24008KT 5SM RA BR FEW002 SCT008CB OVC032 17/16 A2948 RMK AO2 CB NE-SW MOV NE P0047=
201001242229 SPECI KATL 242229Z 24008KT 5SM RA BR FEW002 SCT008CB OVC032 17/16 A2948 RMK AO2 CB NE-SW MOV NE P0047=
201001242219 SPECI KATL 242219Z 23010KT 4SM -RA BR SCT002 BKN008CB OVC028 17/16 A2948 RMK AO2 CB NE-SW MOV NE P0045=
201001242219 SPECI KATL 242219Z 23010KT 4SM -RA BR SCT002 BKN008CB OVC028 17/16 A2948 RMK AO2 CB NE-SW MOV NE P0045=
201001242212 SPECI KATL 242212Z 23010G16KT 3/4SM R09R/P6000FT +RA BR BKN002 OVC008CB 17/16 A2949 RMK AO2 TWR VIS 1 1/2 CB NE-OHD-SW MOV NE P0041=
201001242212 SPECI KATL 242212Z 23010G16KT 3/4SM R09R/P6000FT +RA BR BKN002 OVC008CB 17/16 A2949 RMK AO2 TWR VIS 1 1/2 CB NE-OHD-SW MOV NE P0041=
201001242152 METAR KATL 242152Z 24012KT 1 1/2SM R09R/5000VP6000FT +RA BR BKN002 OVC010CB 17/17 A2949 RMK AO2 PK WND 16037/2108 WSHFT 2101 SLP983 CB OHD-ALQDS MOV NE P0113 T01720167=
201001242117 SPECI KATL 242117Z 24012G37KT 1/4SM R09R/2400VP6000FT +RA FG BKN002 OVC010CB 17/17 A2949 RMK AO2 PK WND 16037/2108 WSHFT 2101 SFC VIS 1/2 CB OHD-ALQDS MOV NE P0014=
201001242117 SPECI KATL 242117Z 24012G37KT 1/4SM R09R/2400VP6000FT +RA FG BKN002 OVC010CB 17/17 A2949 RMK AO2 PK WND 16037/2108 WSHFT 2101 SFC VIS 1/2 CB OHD-ALQDS MOV NE P0014=
201001242113 SPECI KATL 242113Z 24017G37KT 1/4SM R09R/2600VP6000FT +RA FG BKN002 OVC010CB 18/17 A2950 RMK AO2 PK WND 16037/2108 SFC VIS 1/2 PRESRR CB OHD-ALQDS MOV NE P0007=
201001242113 SPECI KATL 242113Z 24017G37KT 1/4SM R09R/2600VP6000FT +RA FG BKN002 OVC010CB 18/17 A2950 RMK AO2 PK WND 16037/2108 SFC VIS 1/2 PRESRR CB OHD-ALQDS MOV NE P0007=
201001242052 METAR KATL 242052Z 16019G28KT 3SM RA BR BKN002 OVC008CB 17/16 A2944 RMK AO2 PK WND 16028/2048 PRESFR SLP968 CB OHD-ALQDS MOV NE P0021 60042 T01720161 58053=
201001241952 METAR KATL 241952Z 17020G31KT 3SM -RA BR BKN002 OVC008CB 17/16 A2952 RMK AO2 PK WND 18031/1951 SFC VIS 4 SLP994 CB OHD-ALQDS MOV NE P0019 T01720161=
201001241913 SPECI KATL 241913Z 17017G27KT 4SM RA BR BKN003CB OVC008 17/16 A2955 RMK AO2 PK WND 18030/1857 CB OHD-ALQDS MOV NE P0004=
201001241913 SPECI KATL 241913Z 17017G27KT 4SM RA BR BKN003CB OVC008 17/16 A2955 RMK AO2 PK WND 18030/1857 CB OHD-ALQDS MOV NE P0004=
201001241852 METAR KATL 241852Z 18020G27KT 5SM -RA BR SCT002 BKN008 OVC012 17/16 A2955 RMK AO2 PK WND 19030/1834 DZE42RAB42 SLP005 CB DSNT=
201001241843 SPECI KATL 241843Z 18015G30KT 5SM -RA BR SCT002 BKN006 OVC012 17/16 A2955 RMK AO2 PK WND 19030/1834 DZE42RAB42 CB DSNT SW-N P0001=
201001241843 SPECI KATL 241843Z 18015G30KT 5SM -RA BR SCT002 BKN006 OVC012 17/16 A2955 RMK AO2 PK WND 19030/1834 DZE42RAB42 CB DSNT SW-N P0001=
201001241828 SPECI KATL 241828Z 17017G30KT 1 1/2SM -DZ BR BKN002 OVC006 16/16 A2956 RMK AO2 PK WND 16030/1825 PRESFR CB DSNT SW-N TWRINC P0000=
201001241828 SPECI KATL 241828Z 17017G30KT 1 1/2SM -DZ BR BKN002 OVC006 16/16 A2956 RMK AO2 PK WND 16030/1825 PRESFR CB DSNT SW-N TWRINC P0000=
201001241752 METAR KATL 241752Z 14009KT 0SM R09R/4500V6000FT DZ FG OVC002 13/13 A2960 RMK AO2 SFC VIS 1/2 SLP024 TWRINC P0001 60004 T01280128 10128 20078 58050=
201001241652 METAR KATL 241652Z 13009KT 0SM R09R/4500V5000FT DZ FG OVC002 11/11 A2968 RMK AO2 SFC VIS 1/2 SLP053 TWRINC P0001 T01110111=
201001241552 METAR KATL 241552Z 13013G18KT 0SM R09R/4500V5500FT DZ FG OVC002 11/11 A2973 RMK AO2 SFC VIS 1/2 SLP071 TWRINC P0001 T01060106=
201001241452 METAR KATL 241452Z 13010G18KT 0SM R09R/4000FT DZ FG OVC002 09/09 A2975 RMK AO2 SFC VIS 1/2 SLP078 TWRINC P0000 60001 T00940094 58012=
201001241352 METAR KATL 241352Z 13010KT 1/4SM R09R/5500VP6000FT -DZ BR OVC002 08/08 A2978 RMK AO2 SFC VIS 1 SLP088 P0001 T00830083=
201001241252 METAR KATL 241252Z 12012G19KT 1/4SM -DZ BR OVC002 08/08 A2977 RMK AO2 PK WND 13026/1211 SFC VIS 1 3/4 SLP083 P0000 T00780078=
201001241152 METAR KATL 241152Z 12011G23KT 1/4SM -DZ BR OVC003 08/07 A2979 RMK AO2 SFC VIS 2 1/2 RAB02E15DZB40 SLP091 P0000 60002 70002 T00780072 10078 20061 58024=
201001241052 METAR KATL 241052Z 12014G20KT 1/4SM BR OVC002 07/07 A2983 RMK AO2 SFC VIS 2 1/2 RAB15E42 SLP105 P0001 T00720067=
201001241006 SPECI KATL 241006Z 11012G17KT 1/4SM BR OVC002 07/06 A2983 RMK AO2 SFC VIS 2 1/2=
201001241006 SPECI KATL 241006Z 11012G17KT 1/4SM BR OVC002 07/06 A2983 RMK AO2 SFC VIS 2 1/2=
201001240952 METAR KATL 240952Z 11012KT 1 1/2SM BR OVC004 07/06 A2984 RMK AO2 SFC VIS 3 RAE0857B25E52 SLP108 P0000 T00670061=
201001240852 METAR KATL 240852Z 11013KT 1 1/2SM -RA BR OVC004 07/06 A2986 RMK AO2 SFC VIS 2 1/2 RAE0757B34 PRESFR SLP116 P0001 60001 T00670056 58022=
201001240752 METAR KATL 240752Z 11009G19KT 1 1/2SM -RA BR OVC004 07/06 A2990 RMK AO2 SFC VIS 2 1/2 DZE0657RAB03 SLP129 P0000 T00670056=
201001240652 METAR KATL 240652Z 11016G21KT 1 1/2SM -DZ BR OVC004 07/06 A2991 RMK AO2 SFC VIS 3 SLP133 P0000 T00670056=
201001240644 SPECI KATL 240644Z 12013G19KT 1 1/2SM -DZ BR OVC003 07/06 A2993 RMK AO2 SFC VIS 3 P0000=
201001240644 SPECI KATL 240644Z 12013G19KT 1 1/2SM -DZ BR OVC003 07/06 A2993 RMK AO2 SFC VIS 3 P0000=
201001240552 METAR KATL 240552Z 11013G22KT 1/4SM -DZ BR OVC002 07/06 A2993 RMK AO2 SFC VIS 3 CIG 001V006 SLP139 P0000 60000 T00670056 10067 20050 56023=
201001240452 METAR KATL 240452Z 11013G21KT 1/4SM R09R/P6000FT -DZ BR OVC002 06/06 A2994 RMK AO2 SFC VIS 1 SLP143 P0000 T00610056 400610050=
201001240352 METAR KATL 240352Z 11012G20KT 1/4SM -DZ BR OVC002 06/05 A2996 RMK AO2 SFC VIS 1 1/4 SLP151 P0000 T00560050=
201001240347 SPECI KATL 240347Z 11013G20KT 1/4SM -DZ BR OVC002 06/05 A2996 RMK AO2 SFC VIS 1 1/4 P0000=
201001240347 SPECI KATL 240347Z 11013G20KT 1/4SM -DZ BR OVC002 06/05 A2996 RMK AO2 SFC VIS 1 1/4 P0000=
201001240252 METAR KATL 240252Z 12007KT 1/4SM -DZ BR OVC003 06/05 A3000 RMK AO2 SFC VIS 1 1/4 SLP162 P0000 60000 T00560050 55008=
201001240152 METAR KATL 240152Z 10013KT 1/4SM R09R/P6000FT -DZ BR OVC003 05/04 A2999 RMK AO2 SFC VIS 1 SLP159 CIG 002V005 P0000 T00500044=
201001240052 METAR KATL 240052Z 10013G20KT 1/4SM -DZ BR OVC004 05/04 A3000 RMK AO2 SFC VIS 1 1/2 SLP163 CIG 003V006 P0000 T00500044=
201001240010 SPECI KATL 240010Z 09011KT 1/4SM -DZ BR OVC003 05/04 A3003 RMK AO2 SFC VIS 1 1/2 P0000=
201001240010 SPECI KATL 240010Z 09011KT 1/4SM -DZ BR OVC003 05/04 A3003 RMK AO2 SFC VIS 1 1/2 P0000=
201001232352 METAR KATL 232352Z COR 09013KT 1SM -DZ BR OVC003 05/04 A3002 RMK AO2 SFC VIS 1 1/2 DZB10 SLP171 CIG 002V005 P0000 60000 T00500044 10061 20050 51006=
201001232327 SPECI KATL 232327Z 09016KT 1SM -DZ BR OVC004 05/04 A3002 RMK AO2 SFC VIS 1 1/2 DZB10 CIG 002V006 P0000=
201001232327 SPECI KATL 232327Z 09016KT 1SM -DZ BR OVC004 05/04 A3002 RMK AO2 SFC VIS 1 1/2 DZB10 CIG 002V006 P0000=
201001232310 SPECI KATL 232310Z 10012KT 2SM -DZ BR OVC004 06/04 A3002 RMK AO2 SFC VIS 2 1/2 DZB10 P0000=
201001232310 SPECI KATL 232310Z 10012KT 2SM -DZ BR OVC004 06/04 A3002 RMK AO2 SFC VIS 2 1/2 DZB10 P0000=
201001232252 METAR KATL 232252Z 10014G21KT 4SM BR OVC005 06/04 A3002 RMK AO2 SLP169 T00560044=
201001232152 METAR KATL 232152Z 10011G18KT 6SM BR OVC007 06/04 A3003 RMK AO2 SLP173 T00560044=
201001232052 METAR KATL 232052Z 11009KT 6SM BR OVC005 06/04 A3001 RMK AO2 SLP165 T00560044 56012=
201001231952 METAR KATL 231952Z 11010G18KT 5SM BR OVC007 06/04 A3001 RMK AO2 SLP166 T00610044=
201001231852 SPECI KATL 231852Z 11012KT 5SM BR OVC006 06/04 A3001 RMK AO2 SLP168 T00610044=
201001231752 METAR KATL 231752Z 11013G20KT 4SM BR OVC006 06/04 A3004 RMK AO2 SLP178 60000 T00610044 10061 20056 58011=
201001231717 SPECI KATL 231717Z 10015KT 4SM BR OVC006 06/04 A3007 RMK AO2=
201001231717 SPECI KATL 231717Z 10015KT 4SM BR OVC006 06/04 A3007 RMK AO2=
201001231658 SPECI KATL 231658Z 11012KT 3SM BR OVC004 06/04 A3008 RMK AO2=
201001231658 SPECI KATL 231658Z 11012KT 3SM BR OVC004 06/04 A3008 RMK AO2=
201001231652 METAR KATL 231652Z 11013KT 1/8SM BR OVC004 06/05 A3008 RMK AO2 SFC VIS 2 DZE40 SLP190 P0000 T00610050=
201001231631 SPECI KATL 231631Z 11011KT 1/8SM -DZ BR OVC004 06/05 A3009 RMK AO2 SFC VIS 1 1/2 CIG 003V007 TWRINC P0000=
201001231631 SPECI KATL 231631Z 11011KT 1/8SM -DZ BR OVC004 06/05 A3009 RMK AO2 SFC VIS 1 1/2 CIG 003V007 TWRINC P0000=
201001231609 SPECI KATL 231609Z 10012G20KT 1SM -DZ BR OVC004 06/05 A3008 RMK AO2 SFC VIS 2 VIS 1 N-NE VIS 1 NW-N P0000=
201001231609 SPECI KATL 231609Z 10012G20KT 1SM -DZ BR OVC004 06/05 A3008 RMK AO2 SFC VIS 2 VIS 1 N-NE VIS 1 NW-N P0000=
201001231552 METAR KATL 231552Z 10008KT 1/4SM R09R/P6000FT -DZ BR OVC006 06/05 A3008 RMK AO2 SFC VIS 1 SLP192 VIS 1/2 N-NE VIS 1/2 NW-N P0000 T00610050=
201001231541 SPECI KATL 231541Z 10013G20KT 1/2SM -DZ BR OVC006 06/05 A3009 RMK AO2 SFC VIS 3 VIS 1 N-NE VIS 1 NW-N P0000=
201001231541 SPECI KATL 231541Z 10013G20KT 1/2SM -DZ BR OVC006 06/05 A3009 RMK AO2 SFC VIS 3 VIS 1 N-NE VIS 1 NW-N P0000=
201001231452 METAR KATL 231452Z 10012G20KT 2SM -DZ BR OVC005 06/05 A3008 RMK AO2 SFC VIS 4 DZB48 SLP190 P0000 60000 T00610050 53013=
201001231427 SPECI KATL 231427Z 10013G20KT 2SM BR OVC005 06/05 A3007 RMK AO2 SFC VIS 4=
201001231427 SPECI KATL 231427Z 10013G20KT 2SM BR OVC005 06/05 A3007 RMK AO2 SFC VIS 4=
201001231412 SPECI KATL 231412Z 10011G18KT 2SM BR BKN001 OVC005 06/05 A3007 RMK AO2 SFC VIS 4=
201001231412 SPECI KATL 231412Z 10011G18KT 2SM BR BKN001 OVC005 06/05 A3007 RMK AO2 SFC VIS 4=
201001231352 METAR KATL 231352Z 10009KT 1/4SM R09R/5500VP6000FT BR OVC001 06/06 A3006 RMK AO2 SFC VIS 1 1/4 SLP185 T00560056=
201001231252 METAR KATL 231252Z 10009KT 1/4SM BR OVC001 06/06 A3004 RMK AO2 SFC VIS 2 1/2 SLP179 T00560056=
201001231152 METAR KATL 231152Z 11008G17KT 1/4SM BR OVC001 06/05 A3004 RMK AO2 SFC VIS 2 SLP176 T00560050 10061 20056 53009=
201001231052 METAR KATL 231052Z 10010KT 1/4SM BR OVC001 06/06 A3002 RMK AO2 SFC VIS 2 SLP170 T00560056=
201001230952 METAR KATL 230952Z 10011KT 1/4SM BR OVC001 06/06 A3001 RMK AO2 SFC VIS 3 SLP165 T00610056=
201001230852 METAR KATL 230852Z 10008KT 1/4SM R09R/2800V3500FT FG OVC001 06/06 A3001 RMK AO2 SFC VIS 1/2 SLP167 T00610061 53007=
201001230822 SPECI KATL 230822Z 09009KT 1/4SM R09R/2200V2400FT FG VV001 06/06 A3001 RMK AO2 SFC VIS 1/2=
201001230822 SPECI KATL 230822Z 09009KT 1/4SM R09R/2200V2400FT FG VV001 06/06 A3001 RMK AO2 SFC VIS 1/2=
201001230752 METAR KATL 230752Z 10010KT 1/4SM R09R/1800V2200FT FG VV001 06/06 A3000 RMK AO2 SLP163 T00610056=
201001230737 SPECI KATL 230737Z 10011KT 1/4SM R09R/1400V2600FT FG VV001 06/06 A3000 RMK AO2=
201001230737 SPECI KATL 230737Z 10011KT 1/4SM R09R/1400V2600FT FG VV001 06/06 A3000 RMK AO2=
201001230652 METAR KATL 230652Z 10009KT 1/4SM R09R/1400V1600FT FG VV001 06/06 A3000 RMK AO2 SLP162 T00610061=
201001230552 METAR KATL 230552Z 12005KT 1/4SM R09R/1000V1200FT FG VV001 06/06 A2999 RMK AO2 TWR VIS 1/4 SLP160 T00560056 10083 20050 51014=
201001230452 METAR KATL 230452Z 12005KT 1/4SM R09R/0800V1000FT FG VV001 05/05 A2998 RMK AO2 SLP158 T00500050 401000033=
201001230440 SPECI KATL 230440Z 15004KT 1/4SM R09R/1000V1600FT FG VV001 06/06 A2999 RMK AO2 SFC VIS 1/2=
201001230440 SPECI KATL 230440Z 15004KT 1/4SM R09R/1000V1600FT FG VV001 06/06 A2999 RMK AO2 SFC VIS 1/2=
201001230439 SPECI KATL 230439Z 15004KT 1/4SM R09R/1000V1600FT FG OVC001 06/06 A2999 RMK AO2 SFC VIS 1/2=
201001230439 SPECI KATL 230439Z 15004KT 1/4SM R09R/1000V1600FT FG OVC001 06/06 A2999 RMK AO2 SFC VIS 1/2=
201001230421 SPECI KATL 230421Z 00000KT 1/4SM BR BKN002 06/05 A2998 RMK AO2 SFC VIS 3 VIS S-W 1 1/2=
201001230421 SPECI KATL 230421Z 00000KT 1/4SM BR BKN002 06/05 A2998 RMK AO2 SFC VIS 3 VIS S-W 1 1/2=
201001230414 SPECI KATL 230414Z 00000KT 2SM BR SCT002 06/05 A2998 RMK AO2 SFC VIS 3=
201001230414 SPECI KATL 230414Z 00000KT 2SM BR SCT002 06/05 A2998 RMK AO2 SFC VIS 3=
201001230352 METAR KATL 230352Z 00000KT 4SM BR CLR 06/05 A2997 RMK AO2 SLP153 T00560050=
201001230252 METAR KATL 230252Z 15003KT 7SM CLR 07/06 A2995 RMK AO2 SLP146 T00670056 53012=
201001230152 METAR KATL 230152Z 23003KT 8SM CLR 07/06 A2994 RMK AO2 SLP144 T00670056=
201001230052 METAR KATL 230052Z 00000KT 9SM CLR 07/06 A2992 RMK AO2 SLP135 T00720061=
201001222352 METAR KATL 222352Z 00000KT 10SM CLR 08/06 A2991 RMK AO2 SLP134 T00830061 10100 20067 51015=
201001222252 METAR KATL 222252Z 00000KT 9SM CLR 09/07 A2990 RMK AO2 SLP129 T00940067=
201001222216 SPECI KATL 222216Z 25004KT 10SM FEW013 09/07 A2990 RMK AO2=
201001222216 SPECI KATL 222216Z 25004KT 10SM FEW013 09/07 A2990 RMK AO2=
201001222152 METAR KATL 222152Z VRB03KT 10SM BKN013 10/07 A2989 RMK AO2 SLP127 T01000067=
201001222052 METAR KATL 222052Z 29004KT 9SM OVC013 09/07 A2987 RMK AO2 SLP119 T00940067 53002=
201001222001 SPECI KATL 222001Z 28003KT 9SM OVC011 09/06 A2984 RMK AO2=
201001222001 SPECI KATL 222001Z 28003KT 9SM OVC011 09/06 A2984 RMK AO2=
201001221952 METAR KATL 221952Z VRB03KT 9SM OVC009 08/06 A2984 RMK AO2 CIG 008V012 SLP110 T00830061=
201001221852 METAR KATL 221852Z 36003KT 3SM BR OVC005 07/06 A2986 RMK AO2 SFC VIS 6 SLP116 T00720056=
201001221752 METAR KATL 221752Z 30006KT 2SM BR OVC005 07/06 A2987 RMK AO2 SFC VIS 5 SLP119 60000 T00670056 10067 20033 50005=
201001221721 SPECI KATL 221721Z 32004KT 2SM BR OVC004 06/05 A2987 RMK AO2 SFC VIS 5=
201001221721 SPECI KATL 221721Z 32004KT 2SM BR OVC004 06/05 A2987 RMK AO2 SFC VIS 5=
201001221652 METAR KATL 221652Z 26004KT 1/4SM BR OVC004 06/05 A2988 RMK AO2 SFC VIS 5 DZE15 SLP122 TWRINC P0000 T00560050=
201001221552 METAR KATL 221552Z VRB03KT 1/4SM -DZ BR OVC004 05/04 A2986 RMK AO2 SFC VIS 4 DZB44 SLP118 TWRINC P0000 T00500044=
201001221452 METAR KATL 221452Z 00000KT 1/4SM R09R/3000V4500FT FG OVC002 04/04 A2986 RMK AO2 SFC VIS 1/2 DZE45 SLP116 P0000 60000 T00440044 53016=
201001221352 METAR KATL 221352Z 09003KT 1/4SM R09R/4500V6000FT -DZ BR OVC002 04/04 A2984 RMK AO2 SFC VIS 3/4 SLP109 P0000 T00390039=
201001221252 METAR KATL 221252Z 10004KT 1/4SM R09R/2400V4500FT -DZ BR OVC002 03/03 A2982 RMK AO2 SFC VIS 3/4 SLP101 P0000 T00330033=
201001221152 METAR KATL 221152Z 07005KT 1/4SM R09R/4500V5000FT -DZ BR OVC002 03/03 A2981 RMK AO2 SFC VIS 1 SLP099 P0000 60000 70065 T00330033 10044 20033 53012=
201001221052 METAR KATL 221052Z 07007KT 1/4SM R09R/3500VP6000FT -DZ BR OVC002 03/03 A2980 RMK AO2 SFC VIS 3/4 SLP094 P0000 T00330033=
201001220952 METAR KATL 220952Z 07006KT 1/4SM R09R/5500VP6000FT -DZ BR OVC002 03/03 A2978 RMK AO2 SFC VIS 1 SLP087 P0000 T00330033=
201001220852 METAR KATL 220852Z 08007KT 1/4SM R09R/6000VP6000FT -DZ BR OVC002 03/03 A2977 RMK AO2 SFC VIS 1 1/4 SLP083 P0000 60000 T00330033 51002=
201001220752 METAR KATL 220752Z 08009KT 1/4SM -DZ BR OVC002 04/03 A2977 RMK AO2 SFC VIS 1 3/4 SLP083 P0000 T00390033=
201001220652 METAR KATL 220652Z 08009KT 1/4SM -DZ BR OVC002 04/03 A2978 RMK AO2 SFC VIS 2 1/2 SLP084 P0000 T00390033=
201001220552 METAR KATL 220552Z 08008KT 1/4SM -DZ BR OVC002 04/04 A2976 RMK AO2 SFC VIS 3 SLP079 P0000 60001 T00440039 10067 20039 50001=
201001220501 SPECI KATL 220501Z 08010KT 1/4SM -DZ BR OVC003 04/04 A2977 RMK AO2 SFC VIS 3 P0000=
201001220501 SPECI KATL 220501Z 08010KT 1/4SM -DZ BR OVC003 04/04 A2977 RMK AO2 SFC VIS 3 P0000=
201001220452 METAR KATL 220452Z 08012KT 1SM -DZ BR OVC003 04/04 A2977 RMK AO2 SFC VIS 5 SLP081 P0000 T00440039 401670044=
201001220352 METAR KATL 220352Z 08012KT 1SM -DZ BR OVC003 05/04 A2977 RMK AO2 SFC VIS 5 SLP084 CIG 002V005 P0000 T00500044=
201001220344 SPECI KATL 220344Z 08008KT 1SM -DZ BR OVC003 05/04 A2977 RMK AO2 SFC VIS 4 CIG 002V005 P0000=
201001220344 SPECI KATL 220344Z 08008KT 1SM -DZ BR OVC003 05/04 A2977 RMK AO2 SFC VIS 4 CIG 002V005 P0000=
201001220252 METAR KATL 220252Z 09014KT 1/4SM -DZ BR OVC003 06/04 A2976 RMK AO2 SFC VIS 4 TSB15E51DZE0155B51RAB0155E32 SLP079 TS MOV NE P0001 60001 T00560044 53002=
201001220215 SPECI KATL 220215Z 08014KT 1/4SM -TSRA BR OVC003CB 06/05 A2974 RMK AO2 SFC VIS 5 TSB15DZE0155RAB0155 OCNL LTGIC VC NW TS VC NW MOV NE P0001=
201001220215 SPECI KATL 220215Z 08014KT 1/4SM -TSRA BR OVC003CB 06/05 A2974 RMK AO2 SFC VIS 5 TSB15DZE0155RAB0155 OCNL LTGIC VC NW TS VC NW MOV NE P0001=
201001220152 METAR KATL 220152Z 10007KT 1/4SM -DZ BR OVC003 06/06 A2976 RMK AO2 SFC VIS 5 SLP078 OCNL LTG DSNT SW-W P0000 T00610056=
201001220052 METAR KATL 220052Z 09010KT 1/4SM -DZ OVC003 06/06 A2973 RMK AO2 SFC VIS 8 SLP070 P0000 T00610056=
201001212352 METAR KATL 212352Z 09013KT 1/4SM -DZ OVC003 07/06 A2975 RMK AO2 SFC VIS 7 SLP076 P0000 60000 T00670061 10161 20067 50012=
201001212252 SPECI KATL 212252Z 08014KT 2SM -DZ BR OVC004 08/07 A2975 RMK AO2 SFC VIS 5 SLP077 P0000 T00780067=
201001212217 SPECI KATL 212217Z 09015KT 2SM -DZ BR OVC004 08/07 A2973 RMK AO2 SFC VIS 6 P0000=
201001212217 SPECI KATL 212217Z 09015KT 2SM -DZ BR OVC004 08/07 A2973 RMK AO2 SFC VIS 6 P0000=
201001212152 METAR KATL 212152Z 09012G20KT 2SM -DZ BR OVC005 09/08 A2974 RMK AO2 SFC VIS 5 RAE22DZB44 SLP070 P0000 T00890078=
201001212052 METAR KATL 212052Z 08015G22KT 2SM -RA BR OVC005 13/12 A2972 RMK AO2 SFC VIS 2 1/2 DZE44RAB44 CIG 001V008 SLP062 P0000 60000 T01330122 53007=
201001212050 SPECI KATL 212050Z 11010KT 2SM -RA BR OVC005 14/13 A2972 RMK AO2 SFC VIS 2 1/2 DZE44RAB44 CIG 001V008 P0000=
201001212050 SPECI KATL 212050Z 11010KT 2SM -RA BR OVC005 14/13 A2972 RMK AO2 SFC VIS 2 1/2 DZE44RAB44 CIG 001V008 P0000=
201001211952 METAR KATL 211952Z 12010KT 6SM -DZ BR BKN006 BKN008 OVC010 14/13 A2969 RMK AO2 SLP050 P0000 T01390133=
201001211913 SPECI KATL 211913Z 12008KT 5SM -DZ BR BKN008 OVC013 14/13 A2970 RMK AO2 CIG 006V011 P0000=
201001211913 SPECI KATL 211913Z 12008KT 5SM -DZ BR BKN008 OVC013 14/13 A2970 RMK AO2 CIG 006V011 P0000=
201001211858 SPECI KATL 211858Z 12010KT 6SM -DZ BR BKN013 OVC018 14/13 A2970 RMK AO2 P0000=
201001211858 SPECI KATL 211858Z 12010KT 6SM -DZ BR BKN013 OVC018 14/13 A2970 RMK AO2 P0000=
201001211852 METAR KATL 211852Z 12010KT 7SM -DZ BKN016 OVC020 15/12 A2969 RMK AO2 DZB47 SLP053 P0000 T01500122=
201001211752 METAR KATL 211752Z 11011G16KT 10SM BKN017 BKN024 BKN250 16/12 A2970 RMK AO2 SLP054 60064 T01610122 10167 20122 55025=
201001211723 SPECI KATL 211723Z 11010KT 10SM BKN017 BKN200 BKN250 17/13 A2970 RMK AO2=
201001211723 SPECI KATL 211723Z 11010KT 10SM BKN017 BKN200 BKN250 17/13 A2970 RMK AO2=
201001211652 METAR KATL 211652Z 12011G21KT 10SM FEW015 SCT200 SCT250 16/13 A2969 RMK AO2 SLP051 T01610128=
201001211552 METAR KATL 211552Z 10012KT 10SM FEW005 SCT100 SCT250 14/13 A2971 RMK AO2 RAE11 SLP059 P0001 T01440128=
201001211531 SPECI KATL 211531Z 09013KT 6SM BR BCFG FEW003 SCT100 BKN250 13/12 A2971 RMK AO2 RAE11 P0001=
201001211531 SPECI KATL 211531Z 09013KT 6SM BR BCFG FEW003 SCT100 BKN250 13/12 A2971 RMK AO2 RAE11 P0001=
201001211521 SPECI KATL 211521Z 10013KT 1/2SM BR BCFG BKN006 BKN060 BKN100 13/13 A2972 RMK AO2 SFC VIS 5 RAE11 PRESFR P0001=
201001211521 SPECI KATL 211521Z 10013KT 1/2SM BR BCFG BKN006 BKN060 BKN100 13/13 A2972 RMK AO2 SFC VIS 5 RAE11 PRESFR P0001=
201001211512 SPECI KATL 211512Z 10012KT 1 1/2SM BR BCFG FEW006 BKN060 BKN100 13/12 A2975 RMK AO2 SFC VIS 5 RAE11 VIS LWR NE-SE BCFG P0001=
201001211512 SPECI KATL 211512Z 10012KT 1 1/2SM BR BCFG FEW006 BKN060 BKN100 13/12 A2975 RMK AO2 SFC VIS 5 RAE11 VIS LWR NE-SE BCFG P0001=
201001211452 METAR KATL 211452Z 08005KT 6SM -RA BR FEW008 BKN020 BKN080 13/12 A2978 RMK AO2 TSB15E50 SLP081 TS MOV NE CB DSNT NE-SE P0048 60063 T01280122 53023=
201001211443 SPECI KATL 211443Z 01004KT 3SM R09R/3000VP6000FT -TSRA BR BKN008 OVC012CB 13/12 A2979 RMK AO2 SFC VIS 4 TSB15 OCNL LTGIC NE-SE TS NE-SE MOV NE P0047=
201001211443 SPECI KATL 211443Z 01004KT 3SM R09R/3000VP6000FT -TSRA BR BKN008 OVC012CB 13/12 A2979 RMK AO2 SFC VIS 4 TSB15 OCNL LTGIC NE-SE TS NE-SE MOV NE P0047=
201001211433 SPECI KATL 211433Z VRB03KT 1SM R09R/2800VP6000FT +TSRA BR BKN008 OVC012CB 13/12 A2982 RMK AO2 TSB15 PRESRR OCNL LTGIC OHD TS OHD MOV NE P0021=
201001211433 SPECI KATL 211433Z VRB03KT 1SM R09R/2800VP6000FT +TSRA BR BKN008 OVC012CB 13/12 A2982 RMK AO2 TSB15 PRESRR OCNL LTGIC OHD TS OHD MOV NE P0021=
201001211426 SPECI KATL 211426Z 31013KT 2 1/2SM +TSRA BR BKN008 OVC012CB 13/12 A2979 RMK AO2 SFC VIS 3 TSB15 PRESRR OCNL LTGIC OHD TS OHD MOV NE P0011=
201001211426 SPECI KATL 211426Z 31013KT 2 1/2SM +TSRA BR BKN008 OVC012CB 13/12 A2979 RMK AO2 SFC VIS 3 TSB15 PRESRR OCNL LTGIC OHD TS OHD MOV NE P0011=
201001211415 SPECI KATL 211415Z 07008KT 2 1/2SM +TSRA BR BKN008 OVC012CB 13/12 A2973 RMK AO2 SFC VIS 3 TSB15 OCNL LTGIC SW TS SW MOV NE P0004=
201001211415 SPECI KATL 211415Z 07008KT 2 1/2SM +TSRA BR BKN008 OVC012CB 13/12 A2973 RMK AO2 SFC VIS 3 TSB15 OCNL LTGIC SW TS SW MOV NE P0004=
201001211410 SPECI KATL 211410Z 12008G15KT 2 1/2SM -RA BR BKN008 OVC012 13/12 A2973 RMK AO2 SFC VIS 4 P0002=
201001211410 SPECI KATL 211410Z 12008G15KT 2 1/2SM -RA BR BKN008 OVC012 13/12 A2973 RMK AO2 SFC VIS 4 P0002=
201001211352 METAR KATL 211352Z 12009G20KT 3SM -RA SCT004 BKN008 BKN015 13/12 A2970 RMK AO2 SFC VIS 7 SLP054 P0007 T01280117=
201001211323 SPECI KATL 211323Z 12010KT 3SM -RA BKN004 OVC008 12/12 A2970 RMK AO2 SFC VIS 10 PRESFR P0007=
201001211323 SPECI KATL 211323Z 12010KT 3SM -RA BKN004 OVC008 12/12 A2970 RMK AO2 SFC VIS 10 PRESFR P0007=
201001211252 METAR KATL 211252Z 16011G17KT 3SM RA BR BKN003 BKN008 OVC012 13/12 A2977 RMK AO2 SFC VIS 4 SLP077 P0008 T01280117=
201001211152 METAR KATL 211152Z 15011G18KT 6SM -RA BR BKN008 BKN013 13/12 A2971 RMK AO2 RAB52 SLP057 P0000 60007 70007 T01280117 10133 20117 56031=
201001211052 METAR KATL 211052Z 14011G16KT 6SM BR BKN004 OVC008 12/12 A2973 RMK AO2 RAE39 SLP066 P0002 T01220117=
201001210952 METAR KATL 210952Z 17012G18KT 6SM -RA BR BKN003 OVC006 12/11 A2980 RMK AO2 SLP089 P0004 T01170111=
201001210910 SPECI KATL 210910Z 16009KT 6SM -RA BR BKN003 OVC006 12/11 A2983 RMK AO2 P0001=
201001210910 SPECI KATL 210910Z 16009KT 6SM -RA BR BKN003 OVC006 12/11 A2983 RMK AO2 P0001=
201001210852 METAR KATL 210852Z 15007KT 6SM -RA BR BKN005 OVC008 12/11 A2983 RMK AO2 RAB02 SLP098 P0001 60001 T01170111 58010=
201001210806 SPECI KATL 210806Z 16008KT 7SM -RA BKN007 OVC010 12/11 A2985 RMK AO2 RAB02 P0000=
201001210806 SPECI KATL 210806Z 16008KT 7SM -RA BKN007 OVC010 12/11 A2985 RMK AO2 RAB02 P0000=
201001210752 METAR KATL 210752Z 17008KT 10SM BKN010 OVC013 12/11 A2985 RMK AO2 RAB0659E34 SLP106 P0000 T01220111=
201001210652 METAR KATL 210652Z 00000KT 10SM OVC012 13/11 A2988 RMK AO2 SLP116 T01280111=
201001210552 METAR KATL 210552Z 11004KT 10SM OVC012 13/11 A2986 RMK AO2 SLP109 60000 T01280111 10156 20128 58010=
201001210452 METAR KATL 210452Z 11003KT 10SM OVC011 13/11 A2989 RMK AO2 RAE23 SLP118 P0000 T01280106 401890078=
201001210423 SPECI KATL 210423Z 12003KT 10SM BKN013 OVC070 13/10 A2989 RMK AO2 RAE23 P0000=
201001210423 SPECI KATL 210423Z 12003KT 10SM BKN013 OVC070 13/10 A2989 RMK AO2 RAE23 P0000=
201001210406 SPECI KATL 210406Z 16004KT 10SM -RA BKN015 BKN070 OVC140 13/11 A2988 RMK AO2 P0000=
201001210406 SPECI KATL 210406Z 16004KT 10SM -RA BKN015 BKN070 OVC140 13/11 A2988 RMK AO2 P0000=
201001210352 METAR KATL 210352Z 18007KT 10SM -RA FEW015 BKN070 OVC140 13/10 A2988 RMK AO2 RAB31 SLP114 P0000 T01280100=
201001210252 METAR KATL 210252Z 18006KT 10SM FEW050 BKN140 OVC200 13/09 A2989 RMK AO2 SLP121 60000 T01330089 58010=
201001210152 METAR KATL 210152Z 16006KT 10SM FEW055 BKN100 OVC150 13/09 A2989 RMK AO2 RAE19 SLP123 P0000 T01330094=
201001210052 METAR KATL 210052Z 00000KT 10SM -RA FEW001 BKN055 OVC080 15/08 A2993 RMK AO2 RAB31 SLP134 P0000 T01500083=
201001202352 METAR KATL 202352Z 00000KT 10SM BKN060 OVC150 15/08 A2992 RMK AO2 SLP132 T01500078 10183 20150 53008=
201001202252 METAR KATL 202252Z 17003KT 10SM FEW100 BKN170 OVC200 16/07 A2990 RMK AO2 SLP125 VIRGA DSNT SW-W T01560072=
201001202152 METAR KATL 202152Z 00000KT 10SM FEW050 SCT090 BKN180 BKN250 17/07 A2989 RMK AO2 SLP122 T01670067=
201001202052 METAR KATL 202052Z 00000KT 10SM FEW050 SCT090 BKN200 17/07 A2990 RMK AO2 SLP122 SHRA DSNT NE-E T01720072 56016=
201001201952 METAR KATL 201952Z 22006KT 10SM FEW050 SCT090 BKN150 BKN250 18/07 A2990 RMK AO2 SLP124 VIRGA DSNT NW SHRA DSNT NE T01780072=
201001201852 METAR KATL 201852Z 23007KT 10SM FEW070 BKN080 BKN250 17/07 A2992 RMK AO2 SLP130 T01720072=
201001201752 METAR KATL 201752Z 23010KT 10SM FEW080 SCT200 BKN250 18/07 A2995 RMK AO2 SLP138 T01830072 10189 20078 58011=
201001201652 METAR KATL 201652Z 23008KT 10SM BKN070 BKN200 BKN250 17/08 A2998 RMK AO2 SLP150 T01670083=
201001201552 METAR KATL 201552Z 26006KT 10SM FEW070 SCT200 BKN250 16/08 A3000 RMK AO2 SLP156 T01560078=
201001201452 METAR KATL 201452Z 22007KT 10SM FEW080 SCT200 SCT250 12/08 A2998 RMK AO2 SLP151 T01220078 58003=
201001201352 METAR KATL 201352Z 21003KT 10SM FEW050 SCT150 SCT250 10/07 A2999 RMK AO2 SLP156 T01000072=
201001201252 METAR KATL 201252Z 21003KT 10SM FEW070 SCT250 08/06 A2999 RMK AO2 SLP157 T00780056=
201001201152 METAR KATL 201152Z 22003KT 10SM FEW070 SCT150 08/06 A2999 RMK AO2 SLP156 T00780056 10106 20078 51008=
201001201052 METAR KATL 201052Z 00000KT 10SM SCT200 08/06 A2998 RMK AO2 SLP153 T00830056=
201001200952 METAR KATL 200952Z 25003KT 10SM CLR 09/06 A2998 RMK AO2 SLP150 T00890056=
201001200852 METAR KATL 200852Z 24005KT 10SM SCT150 09/06 A2997 RMK AO2 SLP146 T00890061 57011=
201001200752 METAR KATL 200752Z 22004KT 10SM FEW070 09/06 A2998 RMK AO2 SLP150 T00890061=
201001200652 METAR KATL 200652Z 24003KT 10SM BKN070 11/07 A2999 RMK AO2 SLP153 T01060067=
201001200552 METAR KATL 200552Z 28005KT 10SM FEW050 11/07 A3000 RMK AO2 SLP157 T01060067 10139 20094 58003=
201001200452 METAR KATL 200452Z 23004KT 10SM FEW050 09/06 A3000 RMK AO2 SLP160 T00940061 401830050=
201001200352 METAR KATL 200352Z 24004KT 10SM SCT050 11/06 A3001 RMK AO2 SLP163 T01110061=
201001200252 METAR KATL 200252Z 25005KT 10SM SCT050 SCT250 12/06 A3001 RMK AO2 SLP162 T01170056 53009=
201001200152 METAR KATL 200152Z 22003KT 10SM FEW050 SCT200 BKN250 12/05 A2999 RMK AO2 SLP157 T01220050=
201001200052 METAR KATL 200052Z 24003KT 10SM SCT150 BKN250 13/05 A2999 RMK AO2 SLP159 T01280050=
201001192352 METAR KATL 192352Z 22004KT 10SM FEW150 SCT250 14/04 A2998 RMK AO2 SLP154 T01390044 10183 20139 50000=
201001192252 METAR KATL 192252Z 23004KT 10SM FEW150 SCT250 16/04 A2999 RMK AO2 SLP154 T01560044=
201001192152 METAR KATL 192152Z 29007KT 10SM FEW050 SCT150 SCT250 17/04 A2998 RMK AO2 SLP153 T01720044=
201001192052 METAR KATL 192052Z 28007KT 240V310 10SM FEW050 SCT150 SCT250 18/05 A2998 RMK AO2 SLP151 T01830050 56023=
201001191952 METAR KATL 191952Z 30007KT 10SM FEW048 SCT150 SCT250 17/06 A2999 RMK AO2 SLP155 T01720056=
201001191852 METAR KATL 191852Z VRB06KT 10SM SCT039 SCT250 17/07 A3001 RMK AO2 SLP163 T01720067=
201001191752 METAR KATL 191752Z 30008KT 10SM FEW035 SCT200 SCT250 16/08 A3005 RMK AO2 SLP176 T01610078 10167 20050 58013=
201001191652 METAR KATL 191652Z 30010KT 10SM FEW040 SCT200 BKN250 15/07 A3008 RMK AO2 SLP187 T01500072=
201001191552 METAR KATL 191552Z 30006KT 10SM FEW200 BKN250 13/06 A3009 RMK AO2 SLP191 T01280061=
201001191452 METAR KATL 191452Z 31006KT 10SM FEW035 SCT200 BKN250 09/05 A3009 RMK AO2 SLP190 T00890050 51015=
201001191352 METAR KATL 191352Z COR 31004KT 10SM SCT250 07/04 A3008 RMK AO2 SLP187 T00670044=
201001191252 METAR KATL 191252Z 29003KT 10SM FEW140 05/03 A3006 RMK AO2 SLP183 T00500028=
201001191152 METAR KATL 191152Z 28003KT 10SM FEW200 06/03 A3004 RMK AO2 SLP176 T00560033 10078 20050 53002=
201001191052 METAR KATL 191052Z 28004KT 10SM SCT150 06/03 A3003 RMK AO2 SLP172 T00560033=
201001190952 METAR KATL 190952Z 30005KT 10SM SCT150 05/03 A3003 RMK AO2 SLP170 T00500033=
201001190852 METAR KATL 190852Z 31005KT 10SM CLR 07/04 A3004 RMK AO2 SLP172 T00670039 55005=
201001190752 METAR KATL 190752Z 00000KT 10SM FEW200 07/04 A3003 RMK AO2 SLP169 T00720039=
201001190652 METAR KATL 190652Z 29003KT 10SM CLR 08/04 A3004 RMK AO2 SLP175 T00780039=
201001190552 METAR KATL 190552Z 31006KT 10SM SCT200 07/03 A3005 RMK AO2 SLP178 T00670033 10122 20067 50000=
201001190452 METAR KATL 190452Z 29007KT 10SM FEW250 08/04 A3005 RMK AO2 SLP179 T00780039 401610056=
201001190352 METAR KATL 190352Z 28005KT 10SM CLR 08/04 A3006 RMK AO2 SLP180 T00830039=
201001190252 METAR KATL 190252Z 28006KT 10SM CLR 09/03 A3005 RMK AO2 SLP178 T00940033 53005=
201001190152 METAR KATL 190152Z 30005KT 10SM CLR 10/03 A3004 RMK AO2 SLP174 T01000033=
201001190052 METAR KATL 190052Z 32006KT 10SM CLR 11/03 A3003 RMK AO2 SLP171 T01060033=
201001182352 METAR KATL 182352Z 31004KT 10SM CLR 12/03 A3003 RMK AO2 SLP172 T01220028 10161 20122 53009=
201001182252 METAR KATL 182252Z 31005KT 10SM FEW200 13/02 A3002 RMK AO2 SLP167 T01330022=
201001182152 SPECI KATL 182152Z 30005KT 10SM FEW200 15/03 A3001 RMK AO2 SLP164 T01500028=
201001182052 METAR KATL 182052Z 31008KT 10SM FEW200 16/02 A3001 RMK AO2 SLP162 T01610022 55009=
201001181952 METAR KATL 181952Z 29008KT 10SM FEW200 15/02 A3000 RMK AO2 SLP159 T01500017=
201001181852 METAR KATL 181852Z 30008KT 10SM CLR 14/02 A3001 RMK AO2 SLP163 T01440022=
201001181752 SPECI KATL 181752Z 30006KT 10SM CLR 13/03 A3003 RMK AO2 SLP171 T01330028 10139 20056 58009=
201001181652 METAR KATL 181652Z 30008KT 10SM CLR 12/04 A3006 RMK AO2 SLP181 T01170044=
201001181552 METAR KATL 181552Z 32011KT 10SM FEW015 10/06 A3007 RMK AO2 SLP186 T01000056=
201001181452 METAR KATL 181452Z 30009KT 9SM SCT012 08/06 A3006 RMK AO2 SLP182 T00830061 53022=
201001181352 METAR KATL 181352Z 30008KT 7SM FEW150 07/06 A3003 RMK AO2 SLP174 T00670056=
201001181252 METAR KATL 181252Z 30007KT 7SM FEW150 06/04 A3001 RMK AO2 SLP166 T00560044=
201001181152 METAR KATL 181152Z 31008KT 10SM CLR 06/05 A2999 RMK AO2 SLP160 70012 T00610050 10089 20056 53020=
201001181052 METAR KATL 181052Z 31006KT 10SM CLR 07/05 A2997 RMK AO2 SLP152 T00670050=
201001180952 METAR KATL 180952Z 30006KT 10SM FEW030 07/06 A2995 RMK AO2 SLP145 T00670056=
201001180852 METAR KATL 180852Z 31007KT 10SM SCT021 07/06 A2993 RMK AO2 SLP139 T00720061 53013=
201001180752 METAR KATL 180752Z 31008KT 10SM SCT180 08/06 A2992 RMK AO2 SLP134 T00780061=
201001180652 METAR KATL 180652Z 30009G19KT 10SM SCT028 08/06 A2990 RMK AO2 SLP125 T00830061=
201001180618 SPECI KATL 180618Z 30011G17KT 10SM SCT030 08/06 A2990 RMK AO2=
201001180618 SPECI KATL 180618Z 30011G17KT 10SM SCT030 08/06 A2990 RMK AO2=
201001180552 METAR KATL 180552Z 31009KT 10SM OVC026 09/07 A2990 RMK AO2 SLP124 60000 T00890067 10089 20078 53009=
201001180452 METAR KATL 180452Z 30010KT 10SM FEW016 OVC022 08/07 A2988 RMK AO2 SLP120 T00830072 401330078=
201001180352 METAR KATL 180352Z 29009KT 6SM BR FEW006 SCT010 OVC017 08/07 A2987 RMK AO2 DZE46 SLP115 P0000 T00780072=
201001180347 SPECI KATL 180347Z 29010KT 6SM BR SCT008 OVC017 08/07 A2987 RMK AO2 DZE46 P0000=
201001180347 SPECI KATL 180347Z 29010KT 6SM BR SCT008 OVC017 08/07 A2987 RMK AO2 DZE46 P0000=
201001180252 METAR KATL 180252Z 28008KT 6SM -DZ BR OVC008 08/07 A2985 RMK AO2 DZE24B49 CIG 006V010 SLP108 P0000 60000 T00780067 51022=
201001180152 METAR KATL 180152Z 28010KT 3SM -DZ BR OVC008 08/06 A2983 RMK AO2 SFC VIS 5 DZB43 CIG 007V011 SLP104 P0000 T00780061=
201001180144 SPECI KATL 180144Z 27007KT 3SM -DZ BR OVC008 08/06 A2983 RMK AO2 SFC VIS 5 DZB43 P0000=
201001180144 SPECI KATL 180144Z 27007KT 3SM -DZ BR OVC008 08/06 A2983 RMK AO2 SFC VIS 5 DZB43 P0000=
201001180116 SPECI KATL 180116Z 27007KT 10SM OVC009 08/06 A2982 RMK AO2=
201001180116 SPECI KATL 180116Z 27007KT 10SM OVC009 08/06 A2982 RMK AO2=
201001180052 METAR KATL 180052Z 27009KT 10SM OVC012 08/06 A2982 RMK AO2 SLP097 T00830061=
201001180030 SPECI KATL 180030Z 27010KT 10SM OVC013 08/06 A2980 RMK AO2=
201001180030 SPECI KATL 180030Z 27010KT 10SM OVC013 08/06 A2980 RMK AO2=
201001172352 METAR KATL 172352Z 27009G14KT 10SM OVC016 08/06 A2978 RMK AO2 SLP086 60002 T00830061 10133 20083 51029=
201001172252 METAR KATL 172252Z 27010KT 10SM OVC016 09/06 A2975 RMK AO2 SLP075 T00890061=
201001172152 METAR KATL 172152Z 26017G22KT 8SM OVC016 09/07 A2973 RMK AO2 SLP070 T00940067=
201001172143 SPECI KATL 172143Z 27012G19KT 8SM OVC016 09/07 A2973 RMK AO2=
201001172143 SPECI KATL 172143Z 27012G19KT 8SM OVC016 09/07 A2973 RMK AO2=
201001172052 METAR KATL 172052Z 25011G18KT 9SM SCT010 BKN012 OVC020 10/08 A2969 RMK AO2 RAB26E37 SLP056 P0001 60002 T01000083 53023=
201001172040 SPECI KATL 172040Z 25013G21KT 9SM SCT010 BKN014 OVC020 10/08 A2968 RMK AO2 RAB26E37 P0001=
201001172040 SPECI KATL 172040Z 25013G21KT 9SM SCT010 BKN014 OVC020 10/08 A2968 RMK AO2 RAB26E37 P0001=
201001172011 SPECI KATL 172011Z 25015G23KT 9SM BKN017 OVC020 11/08 A2966 RMK AO2=
201001172011 SPECI KATL 172011Z 25015G23KT 9SM BKN017 OVC020 11/08 A2966 RMK AO2=
201001171952 METAR KATL 171952Z 25016G25KT 10SM BKN014 OVC020 11/09 A2965 RMK AO2 PK WND 27026/1928 RAB27E42 SLP042 P0000 T01110089=
201001171935 SPECI KATL 171935Z 25013G26KT 4SM -RA BR BKN014 OVC020 11/09 A2965 RMK AO2 PK WND 27026/1928 RAB27 P0000=
201001171935 SPECI KATL 171935Z 25013G26KT 4SM -RA BR BKN014 OVC020 11/09 A2965 RMK AO2 PK WND 27026/1928 RAB27 P0000=
201001171852 METAR KATL 171852Z 24013G22KT 10SM SCT016 BKN020 OVC035 13/09 A2963 RMK AO2 SLP033 P0001 T01280094=
201001171808 SPECI KATL 171808Z 24009G18KT 10SM SCT014 BKN022 BKN026 BKN150 13/11 A2962 RMK AO2 P0001=
201001171808 SPECI KATL 171808Z 24009G18KT 10SM SCT014 BKN022 BKN026 BKN150 13/11 A2962 RMK AO2 P0001=
201001171752 METAR KATL 171752Z 23010KT 10SM BKN014 BKN022 BKN035 BKN150 13/11 A2962 RMK AO2 RAB10E22 SLP030 P0001 60010 T01280111 10128 20100 58014=
201001171733 SPECI KATL 171733Z 22012KT 9SM SCT011 BKN017 BKN035 BKN150 13/11 A2963 RMK AO2 RAB10E22 P0001=
201001171733 SPECI KATL 171733Z 22012KT 9SM SCT011 BKN017 BKN035 BKN150 13/11 A2963 RMK AO2 RAB10E22 P0001=
201001171652 METAR KATL 171652Z 22013G19KT 8SM SCT008 BKN011 OVC018 13/11 A2966 RMK AO2 DZE27RAB27E30 SLP042 P0002 T01280111=
201001171552 METAR KATL 171552Z 20011G19KT 4SM -DZ BR SCT005 BKN008 OVC010 13/12 A2967 RMK AO2 DZE27B45RAB27E38 SLP046 P0000 T01280117=
201001171531 SPECI KATL 171531Z 20009KT 2SM -RA BR SCT005 BKN008 OVC013 13/12 A2967 RMK AO2 SFC VIS 2 1/2 DZE27RAB27 P0000=
201001171531 SPECI KATL 171531Z 20009KT 2SM -RA BR SCT005 BKN008 OVC013 13/12 A2967 RMK AO2 SFC VIS 2 1/2 DZE27RAB27 P0000=
201001171519 SPECI KATL 171519Z 20011KT 6SM -DZ BR SCT005 BKN016 OVC025 13/12 A2967 RMK AO2 P0000=
201001171519 SPECI KATL 171519Z 20011KT 6SM -DZ BR SCT005 BKN016 OVC025 13/12 A2967 RMK AO2 P0000=
201001171452 METAR KATL 171452Z 20010KT 8SM -DZ SCT010 BKN016 OVC030 13/12 A2966 RMK AO2 RAE1353B13E22DZB52 SLP045 P0002 60007 T01280117 51010=
201001171407 SPECI KATL 171407Z 20010G17KT 4SM BR SCT003 BKN011 OVC016 12/12 A2966 RMK AO2 RAE1353 P0001=
201001171407 SPECI KATL 171407Z 20010G17KT 4SM BR SCT003 BKN011 OVC016 12/12 A2966 RMK AO2 RAE1353 P0001=
201001171352 METAR KATL 171352Z 20009G19KT 4SM -RA BR SCT003 BKN006 OVC020 12/12 A2965 RMK AO2 SLP040 P0005 T01220122=
201001171348 SPECI KATL 171348Z 20009G19KT 3SM -RA BR SCT003 BKN006 OVC020 12/12 A2965 RMK AO2 TWR VIS 5 P0005=
201001171348 SPECI KATL 171348Z 20009G19KT 3SM -RA BR SCT003 BKN006 OVC020 12/12 A2965 RMK AO2 TWR VIS 5 P0005=
201001171334 SPECI KATL 171334Z 19006KT 1 3/4SM R09R/6000VP6000FT -RA BR SCT003 BKN007 OVC020 12/12 A2965 RMK AO2 TWR VIS 2 P0003=
201001171334 SPECI KATL 171334Z 19006KT 1 3/4SM R09R/6000VP6000FT -RA BR SCT003 BKN007 OVC020 12/12 A2965 RMK AO2 TWR VIS 2 P0003=
201001171320 SPECI KATL 171320Z 22006KT 2SM -RA BR FEW003 BKN007 OVC020 12/12 A2964 RMK AO2 SFC VIS 3 P0002=
201001171320 SPECI KATL 171320Z 22006KT 2SM -RA BR FEW003 BKN007 OVC020 12/12 A2964 RMK AO2 SFC VIS 3 P0002=
201001171303 SPECI KATL 171303Z 19007KT 2SM -RA BR FEW004 BKN010 OVC030 12/12 A2963 RMK AO2 SFC VIS 3 P0001=
201001171303 SPECI KATL 171303Z 19007KT 2SM -RA BR FEW004 BKN010 OVC030 12/12 A2963 RMK AO2 SFC VIS 3 P0001=
201001171253 SPECI KATL 171253Z 19006KT 2SM -RA BR FEW004 BKN020 BKN035 12/12 A2963 RMK AO2 SFC VIS 3 P0000=
201001171253 SPECI KATL 171253Z 19006KT 2SM -RA BR FEW004 BKN020 BKN035 12/12 A2963 RMK AO2 SFC VIS 3 P0000=
201001171252 METAR KATL 171252Z 18007KT 3SM -RA BR FEW004 SCT020 BKN035 12/12 A2963 RMK AO2 RAB43 SLP034 P0000 T01220117=
201001171226 SPECI KATL 171226Z 17006KT 5SM R09R/4500VP6000FT BCFG BR SCT004 SCT020 BKN044 11/11 A2963 RMK AO2 VIS NW-N 1/2=
201001171226 SPECI KATL 171226Z 17006KT 5SM R09R/4500VP6000FT BCFG BR SCT004 SCT020 BKN044 11/11 A2963 RMK AO2 VIS NW-N 1/2=
201001171213 SPECI KATL 171213Z 14004KT 1SM R09R/1400V4500FT BR SCT004 BKN020 OVC050 11/11 A2963 RMK AO2 TWR VIS 4 VIS N 1/2 SE-SW 3=
201001171213 SPECI KATL 171213Z 14004KT 1SM R09R/1400V4500FT BR SCT004 BKN020 OVC050 11/11 A2963 RMK AO2 TWR VIS 4 VIS N 1/2 SE-SW 3=
201001171212 SPECI KATL 171212Z 14004KT 3/4SM R09R/1400V4500FT BR FEW003 BKN020 OVC050 11/11 A2964 RMK AO2 TWR VIS 4 VIS SE-SW 3=
201001171212 SPECI KATL 171212Z 14004KT 3/4SM R09R/1400V4500FT BR FEW003 BKN020 OVC050 11/11 A2964 RMK AO2 TWR VIS 4 VIS SE-SW 3=
201001171200 SPECI KATL 171200Z 14003KT 1/4SM R09R/1400V3500FT FG SCT002 BKN005 OVC050 10/10 A2963 RMK AO2 TWR VIS 1/2 VIS NE 1=
201001171200 SPECI KATL 171200Z 14003KT 1/4SM R09R/1400V3500FT FG SCT002 BKN005 OVC050 10/10 A2963 RMK AO2 TWR VIS 1/2 VIS NE 1=
201001171152 METAR KATL 171152Z COR 14004KT 1/2SM R09R/2000V4000FT FG BKN002 BKN005 OVC050 11/11 A2963 RMK AO2 SLP036 VIS NE 1 60022 70130 T01060106 10106 20089 58011=
201001171132 SPECI KATL 171132Z 12004KT 1/2SM R09R/2600V4000FT FG OVC002 11/10 A2964 RMK AO2=
201001171132 SPECI KATL 171132Z 12004KT 1/2SM R09R/2600V4000FT FG OVC002 11/10 A2964 RMK AO2=
201001171052 METAR KATL 171052Z 10004KT 1/2SM BR BKN002 OVC004 09/09 A2965 RMK AO2 SFC VIS 5 RAB0954E35 SLP042 P0004 T00940094=
201001171016 SPECI KATL 171016Z 05004KT 1/2SM -RA BR BKN002 OVC004 09/09 A2965 RMK AO2 SFC VIS 2 1/2 RAB0954 P0004=
201001171016 SPECI KATL 171016Z 05004KT 1/2SM -RA BR BKN002 OVC004 09/09 A2965 RMK AO2 SFC VIS 2 1/2 RAB0954 P0004=
201001170952 METAR KATL 170952Z 10005KT 5SM BR OVC002 09/09 A2965 RMK AO2 RAE50 SLP042 P0003 T00890089=
201001170939 SPECI KATL 170939Z 09004KT 4SM -RA BR OVC002 09/09 A2965 RMK AO2 P0003=
201001170939 SPECI KATL 170939Z 09004KT 4SM -RA BR OVC002 09/09 A2965 RMK AO2 P0003=
201001170852 METAR KATL 170852Z 08007KT 2SM -RA BR OVC003 09/09 A2967 RMK AO2 SLP048 P0010 60015 T00890089 56024=
201001170833 SPECI KATL 170833Z 08006KT 2 1/2SM -RA BR OVC003 09/09 A2967 RMK AO2 P0008=
201001170833 SPECI KATL 170833Z 08006KT 2 1/2SM -RA BR OVC003 09/09 A2967 RMK AO2 P0008=
201001170812 SPECI KATL 170812Z 09011KT 1 1/2SM R09R/6000VP6000FT -RA BR OVC003 09/09 A2968 RMK AO2 P0006=
201001170812 SPECI KATL 170812Z 09011KT 1 1/2SM R09R/6000VP6000FT -RA BR OVC003 09/09 A2968 RMK AO2 P0006=
201001170752 METAR KATL 170752Z 07011KT 2SM -RA BR OVC004 09/09 A2969 RMK AO2 RAB00 SLP055 P0004 T00890089=
201001170747 SPECI KATL 170747Z 07011KT 2SM RA BR OVC004 09/09 A2969 RMK AO2 RAB00 P0003=
201001170747 SPECI KATL 170747Z 07011KT 2SM RA BR OVC004 09/09 A2969 RMK AO2 RAB00 P0003=
201001170652 METAR KATL 170652Z 06010KT 5SM BR BKN004 OVC018 09/09 A2972 RMK AO2 RAE45 SLP065 P0001 T00940089=
201001170552 METAR KATL 170552Z 09007G17KT 4SM -RA BR BKN004 OVC018 10/09 A2974 RMK AO2 SLP072 CIG 003V007 P0008 60060 T01000089 10100 20089 58030=
201001170518 SPECI KATL 170518Z 08017KT 5SM -RA BR BKN004 OVC029 10/09 A2975 RMK AO2 P0005=
201001170518 SPECI KATL 170518Z 08017KT 5SM -RA BR BKN004 OVC029 10/09 A2975 RMK AO2 P0005=
201001170452 METAR KATL 170452Z 10010G19KT 5SM RA BR OVC005 09/09 A2977 RMK AO2 SLP083 CIG 004V008 P0009 T00940089 400940067=
201001170352 METAR KATL 170352Z 08013KT 3SM RA BR OVC005 09/09 A2980 RMK AO2 SLP093 CIG 004V008 P0010 T00940089=
201001170252 METAR KATL 170252Z 09012G21KT 4SM RA BR FEW002 OVC005 09/09 A2983 RMK AO2 CIG 003V008 SLP103 P0008 60033 T00940089 56033=
201001170208 SPECI KATL 170208Z 10014G21KT 4SM -RA BR BKN005 OVC020 09/08 A2986 RMK AO2 CIG 004V008 P0002=
201001170208 SPECI KATL 170208Z 10014G21KT 4SM -RA BR BKN005 OVC020 09/08 A2986 RMK AO2 CIG 004V008 P0002=
201001170152 METAR KATL 170152Z 10011G18KT 2SM RA BR BKN004 OVC020 09/08 A2987 RMK AO2 SLP116 P0016 T00890083=
201001170052 METAR KATL 170052Z 08016G23KT 2SM RA BR BKN004 OVC010 09/08 A2989 RMK AO2 PK WND 08028/0000 SLP123 CIG 002V006 P0009 T00890083=
201001162357 SPECI KATL 162357Z 07018G24KT 2SM -RA BR BKN004 OVC012 09/08 A2993 RMK AO2 SFC VIS 2 1/2 CIG 003V007 P0001=
201001162357 SPECI KATL 162357Z 07018G24KT 2SM -RA BR BKN004 OVC012 09/08 A2993 RMK AO2 SFC VIS 2 1/2 CIG 003V007 P0001=
201001162352 METAR KATL 162352Z 07018G25KT 1/4SM -RA BR BKN004 OVC012 09/08 A2993 RMK AO2 SFC VIS 2 PRESFR SLP138 CIG 002V006 P0012 60042 T00890078 10089 20067 58036=
201001162252 METAR KATL 162252Z 08013KT 1/4SM -RA BR OVC004 08/08 A2999 RMK AO2 SFC VIS 2 SLP160 CIG 002V006 P0006 T00830078=
201001162152 METAR KATL 162152Z 08014KT 1/4SM -RA BR OVC004 08/08 A3001 RMK AO2 SFC VIS 1 3/4 SLP164 P0005 T00830078=
201001162052 METAR KATL 162052Z 08014KT 1/4SM -RA BR OVC004 08/07 A3004 RMK AO2 SFC VIS 1 1/2 SLP175 P0007 60019 T00830072 56040=
201001162040 SPECI KATL 162040Z 08014KT 1/4SM -RA BR OVC004 08/07 A3005 RMK AO2 SFC VIS 1 1/4 P0006=
201001162040 SPECI KATL 162040Z 08014KT 1/4SM -RA BR OVC004 08/07 A3005 RMK AO2 SFC VIS 1 1/4 P0006=
201001161952 METAR KATL 161952Z 09011KT 1SM -RA BR OVC004 08/07 A3008 RMK AO2 SFC VIS 1 1/2 SLP189 P0005 T00780072=
201001161852 METAR KATL 161852Z 07013KT 1SM RA BR BKN004 OVC006 07/06 A3011 RMK AO2 SFC VIS 1 1/2 SLP199 P0007 T00720061=
201001161833 SPECI KATL 161833Z 08011KT 1SM -RA BR BKN004 OVC006 07/06 A3012 RMK AO2 SFC VIS 1 1/2 P0005=
201001161833 SPECI KATL 161833Z 08011KT 1SM -RA BR BKN004 OVC006 07/06 A3012 RMK AO2 SFC VIS 1 1/2 P0005=
201001161759 SPECI KATL 161759Z 07009KT 2SM -RA BR BKN006 OVC012 07/06 A3016 RMK AO2 P0001=
201001161759 SPECI KATL 161759Z 07009KT 2SM -RA BR BKN006 OVC012 07/06 A3016 RMK AO2 P0001=
201001161752 METAR KATL 161752Z COR 07010KT 2SM -RA BR BKN006 OVC012 07/06 A3016 RMK AO2 SLP218 P0004 60006 T00670056 10094 20067 58008=
201001161721 SPECI KATL 161721Z 07010KT 1 3/4SM R09R/6000VP6000FT -RA BR OVC014 07/05 A3019 RMK AO2 TWR VIS 2 1/2 P0001=
201001161721 SPECI KATL 161721Z 07010KT 1 3/4SM R09R/6000VP6000FT -RA BR OVC014 07/05 A3019 RMK AO2 TWR VIS 2 1/2 P0001=
201001161652 METAR KATL 161652Z 06008KT 2 1/2SM -RA BR OVC014 07/04 A3020 RMK AO2 TWR VIS 3 RAB08 SLP231 P0002 T00720044=
201001161645 SPECI KATL 161645Z 07009KT 2 1/2SM -RA BR OVC014 07/04 A3020 RMK AO2 TWR VIS 3 RAB08 P0002=
201001161645 SPECI KATL 161645Z 07009KT 2 1/2SM -RA BR OVC014 07/04 A3020 RMK AO2 TWR VIS 3 RAB08 P0002=
201001161635 SPECI KATL 161635Z 07011KT 2SM R09R/4500VP6000FT -RA BR OVC016 07/04 A3020 RMK AO2 TWR VIS 2 1/2 RAB08 P0002=
201001161635 SPECI KATL 161635Z 07011KT 2SM R09R/4500VP6000FT -RA BR OVC016 07/04 A3020 RMK AO2 TWR VIS 2 1/2 RAB08 P0002=
201001161621 SPECI KATL 161621Z 07012KT 3SM -RA OVC016 08/03 A3020 RMK AO2 SFC VIS 4 RAB08 P0000=
201001161621 SPECI KATL 161621Z 07012KT 3SM -RA OVC016 08/03 A3020 RMK AO2 SFC VIS 4 RAB08 P0000=
201001161552 METAR KATL 161552Z 07010KT 7SM OVC018 09/01 A3019 RMK AO2 RAB35E50 SLP227 P0000 T00940006=
201001161452 METAR KATL 161452Z 09010KT 10SM OVC023 09/M01 A3019 RMK AO2 SLP224 T00941006 52008=
201001161352 METAR KATL 161352Z 08009KT 10SM OVC025 09/M01 A3017 RMK AO2 SLP218 T00891011=
201001161252 METAR KATL 161252Z 07008KT 10SM BKN028 OVC110 08/M01 A3018 RMK AO2 SLP221 T00831011=
201001161230 SPECI KATL 161230Z 08008KT 10SM BKN029 BKN120 OVC200 08/M01 A3016 RMK AO2=
201001161230 SPECI KATL 161230Z 08008KT 10SM BKN029 BKN120 OVC200 08/M01 A3016 RMK AO2=
201001161152 METAR KATL 161152Z COR 09007KT 10SM SCT120 OVC200 08/M01 A3016 RMK AO2 SLP215 T00831011 10089 20067 56014=
201001161052 METAR KATL 161052Z 09006KT 10SM OVC180 07/M03 A3017 RMK AO2 SLP217 T00671033=
201001160952 METAR KATL 160952Z 07006KT 10SM OVC180 08/M04 A3018 RMK AO2 SLP220 T00781039=
201001160852 METAR KATL 160852Z 08009KT 10SM OVC200 08/M03 A3020 RMK AO2 PRESFR SLP228 T00781033 58014=
201001160752 METAR KATL 160752Z 00000KT 10SM OVC200 07/M04 A3026 RMK AO2 SLP246 T00721044=
201001160652 METAR KATL 160652Z 05005KT 10SM OVC200 08/M04 A3022 RMK AO2 SLP236 T00781044=
201001160552 METAR KATL 160552Z 08005KT 10SM OVC200 08/M06 A3024 RMK AO2 SLP243 T00781056 10128 20072 57007=
201001160452 METAR KATL 160452Z 08005KT 10SM OVC200 08/M05 A3026 RMK AO2 SLP248 T00831050 401611028=
201001160352 METAR KATL 160352Z 04006KT 10SM OVC250 09/M06 A3025 RMK AO2 SLP246 T00891056=
201001160252 METAR KATL 160252Z 00000KT 10SM BKN250 09/M06 A3026 RMK AO2 SLP252 T00891061 51012=
201001160152 METAR KATL 160152Z 00000KT 10SM BKN250 09/M06 A3026 RMK AO2 SLP252 T00941061=
201001160052 METAR KATL 160052Z 00000KT 10SM BKN250 10/M06 A3024 RMK AO2 SLP246 T01001061=
201001152352 METAR KATL 152352Z 09004KT 10SM FEW200 SCT250 12/M07 A3023 RMK AO2 SLP241 T01171067 10161 20106 55005=
201001152252 METAR KATL 152252Z 11003KT 10SM FEW200 14/M08 A3022 RMK AO2 SLP240 T01391078=
201001152152 METAR KATL 152152Z 00000KT 10SM FEW250 16/M08 A3024 RMK AO2 SLP244 T01561083=
201001152052 METAR KATL 152052Z 00000KT 10SM FEW250 16/M07 A3024 RMK AO2 SLP244 T01561072 56018=
201001151952 METAR KATL 151952Z 09004KT 10SM FEW250 15/M06 A3025 RMK AO2 SLP246 T01501061=
201001151852 METAR KATL 151852Z 00000KT 10SM FEW250 14/M07 A3026 RMK AO2 SLP250 T01391067=
201001151752 METAR KATL 151752Z 21003KT 10SM FEW250 13/M04 A3030 RMK AO2 SLP263 T01281044 10133 21022 58009=
201001151652 METAR KATL 151652Z 00000KT 10SM CLR 12/M03 A3031 RMK AO2 SLP268 T01171028=
201001151552 METAR KATL 151552Z 00000KT 10SM CLR 10/M04 A3033 RMK AO2 SLP274 T01001039=
201001151452 METAR KATL 151452Z 00000KT 9SM CLR 07/M01 A3032 RMK AO2 SLP274 T00671011 53020=
201001151352 METAR KATL 151352Z 00000KT 10SM FEW250 02/M03 A3030 RMK AO2 SLP266 T00221033=
201001151252 METAR KATL 151252Z 00000KT 10SM FEW250 M01/M06 A3028 RMK AO2 SLP261 T10061056=
201001151152 METAR KATL 151152Z 00000KT 10SM FEW250 00/M06 A3026 RMK AO2 SLP255 T00001056 10039 21028 50004=
201001151052 METAR KATL 151052Z 34005KT 10SM FEW150 SCT200 M01/M05 A3027 RMK AO2 SLP255 T10111050=
201001150952 METAR KATL 150952Z 00000KT 10SM SCT150 BKN200 00/M05 A3025 RMK AO2 SLP249 T00001050=
201001150852 METAR KATL 150852Z 00000KT 10SM FEW200 01/M05 A3025 RMK AO2 SLP249 T00061050 56012=
201001150752 METAR KATL 150752Z 00000KT 9SM FEW200 01/M05 A3026 RMK AO2 SLP252 T00061050=
201001150652 METAR KATL 150652Z 00000KT 10SM FEW250 02/M06 A3027 RMK AO2 SLP255 T00221056=
201001150552 METAR KATL 150552Z 26003KT 10SM FEW250 03/M05 A3029 RMK AO2 SLP262 T00281050 10083 20017 50004=
201001150452 METAR KATL 150452Z 21003KT 10SM FEW250 02/M05 A3029 RMK AO2 SLP263 T00221050 401221039=
201001150352 METAR KATL 150352Z 00000KT 10SM FEW200 04/M05 A3028 RMK AO2 SLP260 T00391050=
201001150252 METAR KATL 150252Z 00000KT 10SM FEW200 SCT250 05/M05 A3028 RMK AO2 SLP259 T00501050 51010=
201001150152 METAR KATL 150152Z 00000KT 10SM FEW150 SCT200 06/M06 A3026 RMK AO2 SLP255 T00611056=
201001150052 METAR KATL 150052Z 00000KT 10SM BKN150 OVC200 08/M06 A3026 RMK AO2 SLP255 T00781061=
201001142352 METAR KATL 142352Z 00000KT 10SM SCT150 BKN200 08/M06 A3025 RMK AO2 SLP249 T00831061 10122 20072 53003=
201001142252 METAR KATL 142252Z 00000KT 10SM SCT150 BKN180 BKN250 10/M06 A3023 RMK AO2 SLP242 VIRGA DSNT SW T01001061=
201001142152 METAR KATL 142152Z 00000KT 10SM BKN150 BKN180 BKN250 11/M07 A3023 RMK AO2 SLP245 T01111067=
201001142052 METAR KATL 142052Z 22003KT 10SM BKN150 BKN250 11/M07 A3024 RMK AO2 SLP245 T01111067 56013=
201001141952 METAR KATL 141952Z 18003KT 10SM FEW150 BKN250 12/M06 A3024 RMK AO2 SLP245 T01171061=
201001141852 METAR KATL 141852Z 17003KT 10SM BKN250 11/M06 A3025 RMK AO2 SLP249 T01061056=
201001141752 METAR KATL 141752Z 21004KT 10SM FEW150 SCT180 BKN250 09/M05 A3028 RMK AO2 SLP258 T00891050 10094 21028 58015=
201001141652 METAR KATL 141652Z COR 23005KT 10SM FEW150 SCT180 BKN250 08/M04 A3031 RMK AO2 SLP271 T00781044=
201001141552 METAR KATL 141552Z 19003KT 10SM FEW110 SCT150 BKN250 07/M04 A3033 RMK AO2 SLP276 T00671044 $=
201001141452 METAR KATL 141452Z 00000KT 9SM FEW110 SCT150 BKN250 03/M03 A3032 RMK AO2 SLP275 T00281033 53018 $=
201001141352 METAR KATL 141352Z 24003KT 8SM FEW120 SCT150 BKN250 M01/M04 A3031 RMK AO2 SLP272 T10111044 $=
201001141252 METAR KATL 141252Z 27003KT 7SM SCT150 BKN250 M03/M06 A3028 RMK AO2 SLP263 T10281061=
201001141152 METAR KATL 141152Z 00000KT 9SM FEW180 M02/M06 A3027 RMK AO2 SLP258 T10221061 10006 21039 55001=
201001141052 METAR KATL 141052Z 00000KT 10SM SCT180 M02/M06 A3026 RMK AO2 SLP255 T10171061=
201001140952 METAR KATL 140952Z 00000KT 10SM FEW180 SCT250 M03/M07 A3026 RMK AO2 SLP254 T10331067=
201001140852 METAR KATL 140852Z 00000KT 10SM FEW250 M02/M07 A3027 RMK AO2 SLP258 T10221067 55002=
201001140752 METAR KATL 140752Z 00000KT 10SM FEW150 SCT250 M01/M06 A3027 RMK AO2 SLP257 T10111061=
201001140652 METAR KATL 140652Z 00000KT 10SM FEW250 00/M06 A3028 RMK AO2 SLP260 T00001061=
201001140552 METAR KATL 140552Z 00000KT 10SM SCT250 01/M06 A3028 RMK AO2 SLP260 T00061061 10072 20000 58006=
201001140452 METAR KATL 140452Z 00000KT 10SM BKN250 01/M06 A3030 RMK AO2 SLP267 T00111061 401001061=
201001140352 METAR KATL 140352Z 30006KT 10SM FEW250 00/M06 A3030 RMK AO2 SLP270 T00001056=
201001140252 METAR KATL 140252Z 00000KT 10SM CLR 03/M06 A3030 RMK AO2 SLP268 T00331056 50005=
201001140152 METAR KATL 140152Z 22003KT 10SM CLR 03/M06 A3031 RMK AO2 SLP273 T00331056=
201001140052 METAR KATL 140052Z 00000KT 10SM CLR 05/M05 A3029 RMK AO2 SLP269 T00501050=
201001132352 METAR KATL 132352Z 00000KT 10SM CLR 07/M06 A3028 RMK AO2 SLP263 T00721061 10100 20056 53003=
201001132252 METAR KATL 132252Z 00000KT 10SM CLR 07/M06 A3027 RMK AO2 SLP259 T00721061=
201001132152 METAR KATL 132152Z 00000KT 10SM CLR 09/M06 A3026 RMK AO2 SLP256 T00941061=
201001132052 METAR KATL 132052Z 00000KT 10SM CLR 09/M07 A3027 RMK AO2 SLP258 T00941067 56021=
201001131952 METAR KATL 131952Z 00000KT 10SM CLR 08/M06 A3027 RMK AO2 SLP261 T00831061=
201001131852 METAR KATL 131852Z 00000KT 10SM CLR 08/M06 A3029 RMK AO2 SLP265 T00781056=
201001131752 METAR KATL 131752Z VRB03KT 10SM CLR 06/M06 A3033 RMK AO2 SLP281 T00561056 10056 21061 58022=
201001131652 METAR KATL 131652Z 11004KT 10SM CLR 04/M06 A3037 RMK AO2 SLP295 T00391061=
201001131552 METAR KATL 131552Z 12004KT 9SM CLR 02/M07 A3039 RMK AO2 SLP304 T00171067=
201001131452 METAR KATL 131452Z 00000KT 8SM CLR M01/M07 A3040 RMK AO2 SLP306 T10111067 51013=
201001131352 METAR KATL 131352Z 32006KT 6SM HZ CLR M04/M08 A3039 RMK AO2 SLP306 T10441078=
201001131252 METAR KATL 131252Z 32004KT 7SM CLR M06/M09 A3037 RMK AO2 SLP299 T10611089=
201001131152 METAR KATL 131152Z 34006KT 8SM CLR M06/M09 A3036 RMK AO2 SLP294 T10561089 11039 21061 53011=
201001131052 METAR KATL 131052Z 35006KT 9SM CLR M06/M09 A3034 RMK AO2 SLP287 T10561089=
201001130952 METAR KATL 130952Z 32006KT 9SM CLR M06/M09 A3033 RMK AO2 SLP284 T10561089=
201001130852 METAR KATL 130852Z 33006KT 9SM CLR M05/M08 A3033 RMK AO2 SLP281 T10501083 53001=
201001130752 METAR KATL 130752Z 33005KT 9SM CLR M05/M08 A3033 RMK AO2 SLP282 T10501083=
201001130652 METAR KATL 130652Z 31005KT 10SM CLR M04/M08 A3031 RMK AO2 SLP277 T10441083=
201001130552 METAR KATL 130552Z 33006KT 10SM CLR M04/M08 A3032 RMK AO2 SLP281 T10391083 10000 21039 50004=
201001130452 METAR KATL 130452Z 33010KT 10SM FEW250 M03/M08 A3033 RMK AO2 SLP280 T10331083 400281033=
201001130352 METAR KATL 130352Z 33007KT 10SM FEW250 M03/M08 A3031 RMK AO2 SLP276 T10281078=
201001130252 METAR KATL 130252Z 33012KT 10SM FEW250 M02/M08 A3031 RMK AO2 SLP275 T10221078 50006=
201001130152 METAR KATL 130152Z 34014KT 10SM CLR M01/M08 A3031 RMK AO2 SLP276 T10111078=
201001130052 METAR KATL 130052Z 33012KT 10SM CLR 00/M07 A3030 RMK AO2 SLP270 T00001072=
201001122352 METAR KATL 122352Z 32008KT 10SM CLR 00/M07 A3029 RMK AO2 SLP269 T00001067 10028 20000 51012=
201001122252 METAR KATL 122252Z 31007G15KT 10SM CLR 01/M06 A3028 RMK AO2 SLP265 T00061061=
201001122152 METAR KATL 122152Z 34015KT 10SM FEW035 02/M06 A3028 RMK AO2 SLP262 T00171061=
201001122052 METAR KATL 122052Z 34014KT 10SM FEW035 02/M06 A3025 RMK AO2 SLP254 T00221061 55009=
201001121955 SPECI KATL 121955Z 30011G18KT 10SM BKN030 02/M06 A3025 RMK AO2=
201001121955 SPECI KATL 121955Z 30011G18KT 10SM BKN030 02/M06 A3025 RMK AO2=
201001121952 METAR KATL 121952Z 30013G18KT 10SM BKN028 02/M06 A3025 RMK AO2 SLP253 T00171061=
201001121852 METAR KATL 121852Z 32011G19KT 10SM BKN026 01/M06 A3026 RMK AO2 SLP257 T00111056=
201001121752 METAR KATL 121752Z 31009KT 10SM OVC020 01/M05 A3028 RMK AO2 SLP264 T00061050 10017 21022 50004=
201001121652 METAR KATL 121652Z 32014KT 10SM OVC023 01/M04 A3030 RMK AO2 SLP269 T00111044=
201001121552 METAR KATL 121552Z 34010KT 10SM BKN025 02/M04 A3028 RMK AO2 SLP264 T00171044=
201001121459 SPECI KATL 121459Z 34008KT 10SM BKN028 01/M06 A3027 RMK AO2=
201001121459 SPECI KATL 121459Z 34008KT 10SM BKN028 01/M06 A3027 RMK AO2=
201001121452 METAR KATL 121452Z 32008KT 10SM BKN030 01/M06 A3027 RMK AO2 SLP260 T00111056 52022=
201001121352 METAR KATL 121352Z 31008KT 10SM FEW031 SCT250 00/M07 A3025 RMK AO2 SLP253 T00001067=
201001121252 METAR KATL 121252Z 30005KT 10SM FEW250 M02/M08 A3023 RMK AO2 SLP245 T10221078=
201001121152 METAR KATL 121152Z 29007KT 10SM CLR M01/M08 A3020 RMK AO2 SLP237 T10111078 10011 21017 53005=
201001121052 METAR KATL 121052Z 27005KT 10SM CLR M01/M08 A3019 RMK AO2 SLP231 T10111078=
201001120952 METAR KATL 120952Z 29005KT 10SM FEW100 M01/M08 A3019 RMK AO2 SLP230 T10111083=
201001120852 METAR KATL 120852Z 28007KT 10SM CLR M01/M09 A3019 RMK AO2 SLP230 T10061089 56008=
201001120752 METAR KATL 120752Z 28007KT 10SM CLR 00/M09 A3019 RMK AO2 SLP232 T00001094=
201001120652 METAR KATL 120652Z 27007KT 10SM FEW250 00/M11 A3020 RMK AO2 SLP235 T00001106=
201001120552 METAR KATL 120552Z 27008KT 10SM SCT150 BKN250 01/M11 A3022 RMK AO2 SLP240 T00111106 10039 20011 58012=
201001120452 METAR KATL 120452Z 25005KT 10SM FEW050 OVC150 02/M12 A3024 RMK AO2 SLP250 T00171117 400721078=
201001120352 METAR KATL 120352Z 25006KT 10SM OVC050 02/M12 A3026 RMK AO2 SLP256 T00171117=
201001120252 METAR KATL 120252Z 25005KT 10SM FEW120 SCT200 02/M13 A3025 RMK AO2 SLP255 T00171128 51005=
201001120152 METAR KATL 120152Z 26004KT 10SM FEW120 SCT250 02/M13 A3024 RMK AO2 SLP254 T00171133=
201001120052 METAR KATL 120052Z 24004KT 10SM FEW120 SCT250 02/M13 A3025 RMK AO2 SLP255 T00221133=
201001112352 METAR KATL 112352Z 24003KT 10SM BKN120 BKN250 04/M14 A3024 RMK AO2 SLP251 T00391144 10072 20039 53004=
201001112252 METAR KATL 112252Z 25005KT 10SM FEW110 SCT250 05/M16 A3022 RMK AO2 SLP244 T00501156=
201001112152 METAR KATL 112152Z 25009KT 10SM FEW110 SCT250 07/M14 A3022 RMK AO2 SLP244 T00671144=
201001112052 METAR KATL 112052Z 24009KT 10SM FEW110 SCT250 07/M16 A3022 RMK AO2 SLP245 T00671156 56033=
201001111952 METAR KATL 111952Z 27011KT 10SM FEW110 SCT250 07/M16 A3023 RMK AO2 SLP248 T00671156=
201001111852 METAR KATL 111852Z 29012KT 10SM FEW110 SCT250 06/M13 A3028 RMK AO2 SLP263 T00561133=
201001111752 METAR KATL 111752Z 28012G15KT 10SM FEW250 04/M13 A3032 RMK AO2 SLP279 T00391128 10044 21078 58025=
201001111652 METAR KATL 111652Z 28008KT 10SM FEW250 02/M12 A3036 RMK AO2 SLP292 T00171117=
201001111552 METAR KATL 111552Z 31012G17KT 10SM FEW250 M01/M11 A3039 RMK AO2 SLP302 T10061111=
201001111452 METAR KATL 111452Z 31007KT 10SM SCT250 M03/M10 A3040 RMK AO2 SLP307 T10331100 50006=
201001111352 METAR KATL 111352Z 30007KT 10SM SCT250 M06/M11 A3040 RMK AO2 SLP309 T10611106=
201001111252 METAR KATL 111252Z 30007KT 10SM SCT250 M08/M11 A3038 RMK AO2 SLP304 T10781111=
201001111152 METAR KATL 111152Z 29008KT 10SM CLR M07/M11 A3038 RMK AO2 SLP302 T10721111 11050 21078 53003=
201001111052 METAR KATL 111052Z 31008KT 10SM CLR M07/M11 A3037 RMK AO2 SLP299 T10721111=
201001110952 METAR KATL 110952Z 30006KT 10SM CLR M08/M11 A3037 RMK AO2 SLP297 T10781111=
201001110852 METAR KATL 110852Z 30006KT 10SM CLR M07/M11 A3037 RMK AO2 SLP298 T10721106 58014=
201001110752 METAR KATL 110752Z 29005KT 10SM CLR M06/M11 A3039 RMK AO2 SLP303 T10611106=
201001110652 METAR KATL 110652Z 31008KT 10SM CLR M06/M11 A3040 RMK AO2 SLP309 T10561106=
201001110552 METAR KATL 110552Z 31007KT 10SM CLR M05/M11 A3041 RMK AO2 SLP312 T10501106 11022 21056 58008=
201001110452 METAR KATL 110452Z 31012KT 10SM CLR M04/M11 A3043 RMK AO2 SLP317 T10441106 400111083=
201001110352 METAR KATL 110352Z 31009KT 10SM CLR M04/M11 A3043 RMK AO2 SLP319 T10441106=
201001110252 METAR KATL 110252Z 30007KT 10SM CLR M04/M11 A3044 RMK AO2 SLP321 T10391106 51006=
201001110152 METAR KATL 110152Z 31007KT 10SM CLR M03/M11 A3043 RMK AO2 SLP321 T10331111=
201001110052 METAR KATL 110052Z 32008KT 10SM CLR M02/M11 A3042 RMK AO2 SLP318 T10221111=
201001102352 METAR KATL 102352Z 32006KT 10SM CLR M02/M11 A3042 RMK AO2 SLP315 T10221111 10011 21022 53011=
201001102252 METAR KATL 102252Z 32010KT 10SM CLR M01/M11 A3040 RMK AO2 SLP309 T10111111=
201001102152 METAR KATL 102152Z 32012KT 10SM CLR 01/M11 A3039 RMK AO2 SLP304 T00061106=
201001102052 METAR KATL 102052Z 31012G17KT 10SM CLR 01/M11 A3038 RMK AO2 SLP301 T00111106 55008=
201001101952 METAR KATL 101952Z 32011KT 10SM CLR 01/M11 A3038 RMK AO2 SLP301 T00111111=
201001101852 METAR KATL 101852Z 32007G16KT 10SM CLR 00/M11 A3038 RMK AO2 SLP303 T00001111=
201001101752 METAR KATL 101752Z 32008KT 10SM CLR M01/M11 A3041 RMK AO2 SLP310 T10111111 11011 21083 58009=
201001101652 METAR KATL 101652Z VRB06KT 10SM FEW035 M02/M11 A3043 RMK AO2 SLP320 T10221106=
201001101552 METAR KATL 101552Z 34013KT 10SM FEW030 M04/M11 A3045 RMK AO2 SLP327 T10391106=
201001101452 METAR KATL 101452Z 33009KT 10SM FEW025 M05/M11 A3043 RMK AO2 SLP322 T10501111 51021=
201001101352 METAR KATL 101352Z 32013G19KT 10SM CLR M07/M11 A3042 RMK AO2 SLP315 T10671111=
201001101252 METAR KATL 101252Z 32009KT 10SM CLR M08/M12 A3039 RMK AO2 SLP307 T10831117=
201001101152 METAR KATL 101152Z 32009KT 10SM CLR M08/M12 A3037 RMK AO2 SLP300 T10781117 11061 21078 53013=
201001101052 METAR KATL 101052Z 32011KT 10SM CLR M08/M11 A3035 RMK AO2 SLP291 T10781111=
201001100952 METAR KATL 100952Z 32010KT 10SM CLR M08/M11 A3033 RMK AO2 SLP284 T10781111=
201001100852 METAR KATL 100852Z 32009KT 10SM CLR M07/M11 A3033 RMK AO2 SLP284 T10721111 51004=
201001100752 METAR KATL 100752Z 32009KT 10SM CLR M07/M11 A3033 RMK AO2 SLP284 T10721111=
201001100652 METAR KATL 100652Z 33012KT 10SM CLR M07/M11 A3032 RMK AO2 SLP281 T10671111=
201001100552 METAR KATL 100552Z 33010KT 10SM CLR M06/M11 A3032 RMK AO2 SLP280 T10611106 11033 21061 50006=
201001100452 METAR KATL 100452Z 33008KT 10SM CLR M06/M11 A3032 RMK AO2 SLP281 T10561111 400001106=
201001100352 METAR KATL 100352Z 33011KT 10SM CLR M05/M11 A3031 RMK AO2 SLP278 T10501111=
201001100252 METAR KATL 100252Z 33010KT 10SM CLR M05/M12 A3030 RMK AO2 SLP276 T10501117 53013=
201001100152 METAR KATL 100152Z 32009KT 10SM CLR M04/M12 A3029 RMK AO2 SLP272 T10441117=
201001100052 METAR KATL 100052Z 34011G18KT 10SM CLR M03/M12 A3027 RMK AO2 SLP266 T10331117=
201001092352 METAR KATL 092352Z 32012KT 10SM CLR M03/M11 A3026 RMK AO2 SLP262 T10331111 10000 21033 51009=
201001092252 METAR KATL 092252Z 33011G20KT 10SM CLR M02/M11 A3025 RMK AO2 SLP259 T10221106=
201001092152 METAR KATL 092152Z 32016KT 10SM CLR M01/M11 A3024 RMK AO2 SLP256 T10111106=
201001092052 METAR KATL 092052Z 34014KT 10SM CLR 00/M11 A3023 RMK AO2 SLP251 T00001111 56011=
201001091952 METAR KATL 091952Z 31010KT 10SM CLR M01/M11 A3024 RMK AO2 SLP253 T10061106=
201001091852 METAR KATL 091852Z 32007KT 10SM CLR M01/M11 A3024 RMK AO2 SLP256 T10111111=
201001091752 METAR KATL 091752Z 32009KT 10SM CLR M02/M12 A3027 RMK AO2 SLP264 T10221117 11017 21106 58013=
201001091652 METAR KATL 091652Z 31008KT 10SM CLR M04/M12 A3030 RMK AO2 SLP274 T10391117=
201001091552 METAR KATL 091552Z 32005KT 10SM FEW250 M06/M12 A3031 RMK AO2 SLP280 T10561117=
201001091452 METAR KATL 091452Z 34008KT 10SM FEW250 M07/M13 A3030 RMK AO2 SLP278 T10721128 51016=
201001091352 METAR KATL 091352Z 32011KT 10SM FEW250 M09/M13 A3029 RMK AO2 SLP275 T10941133=
201001091252 METAR KATL 091252Z 33010KT 10SM SCT250 M11/M14 A3028 RMK AO2 SLP272 T11061139=
201001091152 METAR KATL 091152Z 32009KT 10SM FEW250 M11/M14 A3026 RMK AO2 SLP264 T11061139 11083 21106 53005=
201001091052 METAR KATL 091052Z 32010KT 10SM FEW250 M11/M14 A3025 RMK AO2 SLP260 T11061139=
201001090952 METAR KATL 090952Z 33010KT 10SM SCT250 M10/M14 A3024 RMK AO2 SLP258 T11001139=
201001090852 METAR KATL 090852Z 32009KT 10SM BKN180 OVC250 M09/M13 A3024 RMK AO2 SLP256 T10941133 53009=
201001090752 METAR KATL 090752Z 33010KT 10SM BKN180 OVC250 M09/M13 A3023 RMK AO2 SLP253 T10891133=
201001090652 METAR KATL 090652Z 33014KT 10SM FEW200 BKN250 M08/M13 A3021 RMK AO2 SLP247 T10831128=
201001090552 METAR KATL 090552Z 34014KT 10SM FEW200 BKN250 M08/M13 A3021 RMK AO2 SLP248 T10831128 11061 21083 58006=
201001090452 METAR KATL 090452Z 34010G19KT 10SM BKN250 M08/M13 A3024 RMK AO2 SLP255 T10781128 410061089=
201001090352 METAR KATL 090352Z 34012KT 10SM OVC250 M07/M13 A3023 RMK AO2 SLP253 T10721128=
201001090252 METAR KATL 090252Z 33011G18KT 10SM SCT200 OVC250 M07/M13 A3023 RMK AO2 SLP253 T10671128 53009=
201001090152 METAR KATL 090152Z 33013KT 10SM BKN200 OVC250 M07/M13 A3022 RMK AO2 SLP251 T10671128=
201001090052 METAR KATL 090052Z 33013KT 10SM BKN200 OVC250 M06/M12 A3021 RMK AO2 SLP248 T10611122=
201001082352 METAR KATL 082352Z 33012G21KT 10SM FEW150 BKN200 OVC250 M06/M13 A3021 RMK AO2 SLP244 T10611128 11039 21061 51013=
201001082252 METAR KATL 082252Z 34013KT 10SM SCT150 BKN200 OVC250 M06/M13 A3020 RMK AO2 SLP243 T10561128=
201001082152 METAR KATL 082152Z 34014G19KT 10SM FEW040 SCT150 BKN200 M05/M13 A3018 RMK AO2 SLP233 T10501128=
201001082052 METAR KATL 082052Z 32011G21KT 10SM FEW035 BKN200 BKN300 M04/M12 A3016 RMK AO2 SLP229 T10441122 56007=
201001081952 METAR KATL 081952Z 32013G23KT 10SM FEW035 BKN200 M04/M12 A3017 RMK AO2 SLP230 T10441122=
201001081852 METAR KATL 081852Z 32015G21KT 10SM FEW030 SCT200 SCT300 M06/M12 A3017 RMK AO2 SLP229 T10561122=
201001081752 METAR KATL 081752Z 32017KT 10SM FEW027 BKN200 BKN300 M06/M12 A3019 RMK AO2 SLP236 T10611122 11061 21089 50000=
201001081744 SPECI KATL 081744Z 32013G22KT 10SM FEW001 BKN027 M06/M12 A3019 RMK AO2=
201001081744 SPECI KATL 081744Z 32013G22KT 10SM FEW001 BKN027 M06/M12 A3019 RMK AO2=
201001081652 METAR KATL 081652Z 32017G23KT 10SM FEW030 BKN200 M06/M12 A3021 RMK AO2 SLP243 T10611117=
201001081552 METAR KATL 081552Z 30011KT 10SM FEW030 SCT150 BKN200 M07/M13 A3020 RMK AO2 SLP239 T10671128=
201001081452 METAR KATL 081452Z 32011G20KT 10SM FEW030 BKN200 BKN300 M07/M13 A3019 RMK AO2 SLP234 T10721133 53024=
201001081352 METAR KATL 081352Z 33018G23KT 10SM FEW020 SCT250 M09/M14 A3015 RMK AO2 SLP223 T10891139=
201001081252 METAR KATL 081252Z 33015G23KT 10SM FEW020 SCT150 SCT250 M09/M14 A3013 RMK AO2 SLP218 T10891144=
201001081214 SPECI KATL 081214Z 32013G20KT 10SM BKN020 M08/M13 A3012 RMK AO2=
201001081214 SPECI KATL 081214Z 32013G20KT 10SM BKN020 M08/M13 A3012 RMK AO2=
201001081152 METAR KATL 081152Z 32016KT 10SM SCT024 BKN150 M08/M12 A3011 RMK AO2 SLP209 4/001 70006 T10781122 11017 21078 53012=
201001081052 METAR KATL 081052Z 31019G24KT 10SM SCT150 OVC200 M07/M12 A3010 RMK AO2 SLP203 T10721117=
201001080952 METAR KATL 080952Z 31019G25KT 10SM FEW022 SCT150 M07/M11 A3008 RMK AO2 PK WND 31028/0924 SLP197 T10671106=
201001080852 METAR KATL 080852Z 31012G23KT 10SM SCT022 BKN150 OVC250 M06/M10 A3008 RMK AO2 SLP195 T10561100 53012=
201001080752 METAR KATL 080752Z 30014G20KT 10SM FEW022 BKN150 M05/M09 A3006 RMK AO2 SLP190 T10501089=
201001080706 SPECI KATL 080706Z 31015G23KT 10SM SCT022 BKN180 M04/M08 A3005 RMK AO2=
201001080706 SPECI KATL 080706Z 31015G23KT 10SM SCT022 BKN180 M04/M08 A3005 RMK AO2=
201001080652 METAR KATL 080652Z 30013G20KT 10SM BKN024 OVC180 M03/M07 A3005 RMK AO2 SLP185 T10331072=
201001080552 METAR KATL 080552Z 30014G25KT 10SM FEW015 SCT022 OVC075 M02/M06 A3004 RMK AO2 SLP180 4/001 931006 60005 T10171056 10017 21017 51001=
201001080527 SPECI KATL 080527Z 31011KT 9SM SCT012 BKN022 OVC070 M01/M03 A3004 RMK AO2=
201001080527 SPECI KATL 080527Z 31011KT 9SM SCT012 BKN022 OVC070 M01/M03 A3004 RMK AO2=
201001080452 METAR KATL 080452Z 30013KT 10SM BKN012 BKN025 OVC070 M01/M02 A3004 RMK AO2 SNE20 SLP180 P0000 T10061022 400441044=
201001080420 SPECI KATL 080420Z 29010KT 10SM SCT007 BKN012 OVC025 00/M02 A3004 RMK AO2 SNE20 P0000=
201001080420 SPECI KATL 080420Z 29010KT 10SM SCT007 BKN012 OVC025 00/M02 A3004 RMK AO2 SNE20 P0000=
201001080352 METAR KATL 080352Z 28006KT 5SM -SN BR BKN007 BKN012 OVC025 00/M01 A3004 RMK AO2 SLP182 P0001 T00001011=
201001080335 SPECI KATL 080335Z 27006KT 4SM -SN BR BKN008 OVC025 00/M01 A3004 RMK AO2 P0001=
201001080335 SPECI KATL 080335Z 27006KT 4SM -SN BR BKN008 OVC025 00/M01 A3004 RMK AO2 P0001=
201001080252 METAR KATL 080252Z 25007KT 1 1/2SM -SN BR BKN008 OVC025 00/M01 A3004 RMK AO2 SLP180 P0002 60004 T00001011 50003=
201001080211 SPECI KATL 080211Z 25006KT 1 1/2SM -SN BR SCT007 OVC025 00/M01 A3004 RMK AO2 P0001=
201001080211 SPECI KATL 080211Z 25006KT 1 1/2SM -SN BR SCT007 OVC025 00/M01 A3004 RMK AO2 P0001=
201001080201 SPECI KATL 080201Z 26009KT 2 1/2SM -SN BR SCT007 BKN024 OVC030 00/M01 A3005 RMK AO2 P0000=
201001080201 SPECI KATL 080201Z 26009KT 2 1/2SM -SN BR SCT007 BKN024 OVC030 00/M01 A3005 RMK AO2 P0000=
201001080152 METAR KATL 080152Z 26011KT 3SM -SN BR FEW008 BKN024 OVC030 00/M01 A3004 RMK AO2 SLP184 P0001 T00001011=
201001080052 METAR KATL 080052Z 27006KT 6SM -SN BR BKN020 OVC028 00/M02 A3004 RMK AO2 RAE19PLE43 SLP184 P0001 T00001017=
201001080043 SPECI KATL 080043Z 29006KT 5SM -SN BR BKN020 OVC028 01/M02 A3004 RMK AO2 RAE19PLE43 P0001=
201001080043 SPECI KATL 080043Z 29006KT 5SM -SN BR BKN020 OVC028 01/M02 A3004 RMK AO2 RAE19PLE43 P0001=
201001080025 SPECI KATL 080025Z 32005KT 7SM -SNPL SCT022 BKN028 OVC050 01/M02 A3003 RMK AO2 RAE19 P0000=
201001080025 SPECI KATL 080025Z 32005KT 7SM -SNPL SCT022 BKN028 OVC050 01/M02 A3003 RMK AO2 RAE19 P0000=
201001072352 METAR KATL 072352Z 28003KT 9SM -SNPLRA OVC033 02/M03 A3003 RMK AO2 RAB12PLB48 SLP179 931000 P0001 60001 T00171028 10044 20017 56006 $=
201001072349 SPECI KATL 072349Z 28003KT 9SM -SNPLRA OVC033 02/M03 A3003 RMK AO2 RAB12PLB48 P0001 $=
201001072349 SPECI KATL 072349Z 28003KT 9SM -SNPLRA OVC033 02/M03 A3003 RMK AO2 RAB12PLB48 P0001 $=
201001072252 METAR KATL 072252Z 00000KT 8SM -SN OVC033 02/M04 A3003 RMK AO2 SNB23 SLP179 P0000 T00221039 $=
201001072152 METAR KATL 072152Z 20008KT 10SM FEW030 BKN050 OVC080 03/M05 A3005 RMK AO2 SNE29 SLP185 P0000 T00281050 $=
201001072124 SPECI KATL 072124Z 22007KT 10SM -SN BKN029 BKN045 OVC080 02/M05 A3005 RMK AO2 P0000 $=
201001072124 SPECI KATL 072124Z 22007KT 10SM -SN BKN029 BKN045 OVC080 02/M05 A3005 RMK AO2 P0000 $=
201001072109 SPECI KATL 072109Z 21009KT 5SM -SN BKN024 BKN047 OVC080 03/M07 A3005 RMK AO2 P0000 $=
201001072109 SPECI KATL 072109Z 21009KT 5SM -SN BKN024 BKN047 OVC080 03/M07 A3005 RMK AO2 P0000 $=
201001072054 SPECI KATL 072054Z 23010G17KT 9SM -SN SCT024 BKN047 OVC080 03/M07 A3006 RMK AO2 P0000 $=
201001072054 SPECI KATL 072054Z 23010G17KT 9SM -SN SCT024 BKN047 OVC080 03/M07 A3006 RMK AO2 P0000 $=
201001072052 METAR KATL 072052Z 24012G17KT 8SM -SN BKN024 BKN055 OVC080 03/M08 A3005 RMK AO2 SNE25B51 SLP187 P0000 60000 T00281078 56015 $=
201001072027 SPECI KATL 072027Z 26006KT 10SM SCT027 BKN055 OVC080 04/M12 A3006 RMK AO2 SNE25 P0000 $=
201001072027 SPECI KATL 072027Z 26006KT 10SM SCT027 BKN055 OVC080 04/M12 A3006 RMK AO2 SNE25 P0000 $=
201001072012 SPECI KATL 072012Z 30006KT 8SM -SN BKN027 BKN055 OVC080 04/M13 A3005 RMK AO2 P0000 $=
201001072012 SPECI KATL 072012Z 30006KT 8SM -SN BKN027 BKN055 OVC080 04/M13 A3005 RMK AO2 P0000 $=
201001071952 SPECI KATL 071952Z 28005KT 10SM -SN FEW040 BKN060 OVC090 04/M15 A3007 RMK AO2 SNB49 SLP192 VIRGA OHD & ALQDS P0000 T00391150 $=
201001071852 METAR KATL 071852Z 30003KT 10SM FEW060 SCT090 OVC150 04/M14 A3007 RMK AO2 SNB45E52 SLP194 VIRGA OHD & ALQDS P0000 T00391139 $=
201001071752 METAR KATL 071752Z 27005KT 10SM BKN060 BKN080 BKN150 03/M14 A3010 RMK AO2 SLP202 VIRGA OHD & ALQDS T00331139 10039 21044 58022 $=
201001071652 METAR KATL 071652Z VRB03KT 10SM BKN065 BKN110 BKN150 03/M11 A3013 RMK AO2 PRESFR SLP212 VIRGA W-NW-N T00281111=
201001071552 METAR KATL 071552Z 30004KT 10SM FEW080 SCT090 BKN150 02/M11 A3016 RMK AO2 SLP223 T00171106=
201001071452 METAR KATL 071452Z 30005KT 10SM BKN090 BKN150 BKN250 01/M10 A3017 RMK AO2 SLP226 T00061100 51010=
201001071352 METAR KATL 071352Z 30005KT 10SM FEW150 SCT250 M02/M11 A3016 RMK AO2 SLP224 T10171106=
201001071252 METAR KATL 071252Z 30005KT 10SM BKN150 M03/M11 A3015 RMK AO2 SLP221 T10331106=
201001071152 METAR KATL 071152Z 29003KT 10SM BKN150 M03/M11 A3013 RMK AO2 SLP216 T10331111 11028 21044 55009=
201001071052 METAR KATL 071052Z 31004KT 10SM BKN150 M04/M11 A3012 RMK AO2 SLP212 T10441106=
201001070952 METAR KATL 070952Z 34005KT 10SM BKN150 M04/M11 A3013 RMK AO2 SLP214 T10391111=
201001070852 METAR KATL 070852Z 31003KT 10SM FEW120 M03/M12 A3016 RMK AO2 SLP224 T10331117 50001=
201001070752 METAR KATL 070752Z 29005KT 10SM SCT150 M04/M11 A3016 RMK AO2 SLP225 T10391111=
201001070652 METAR KATL 070652Z 27004KT 10SM CLR M03/M12 A3016 RMK AO2 SLP223 T10281117=
201001070552 METAR KATL 070552Z 30007KT 10SM SCT250 M03/M12 A3016 RMK AO2 SLP224 T10281117 11006 21033 55006=
201001070452 METAR KATL 070452Z 32007KT 10SM SCT250 M03/M12 A3016 RMK AO2 SLP223 T10281117 400331072=
201001070352 METAR KATL 070352Z 31005KT 10SM SCT250 M02/M11 A3017 RMK AO2 SLP228 T10221111=
201001070252 METAR KATL 070252Z 31005KT 10SM SCT250 M02/M12 A3018 RMK AO2 SLP232 T10221117 50006=
201001070152 METAR KATL 070152Z 30008KT 10SM FEW250 M01/M12 A3019 RMK AO2 SLP236 T10111117=
201001070052 METAR KATL 070052Z 30008KT 10SM FEW250 M01/M12 A3018 RMK AO2 SLP234 T10111117=
201001062352 METAR KATL 062352Z 31007KT 10SM FEW250 M01/M12 A3016 RMK AO2 SLP226 T10061117 10033 21006 53003=
201001062252 METAR KATL 062252Z 29005KT 10SM FEW250 01/M11 A3016 RMK AO2 SLP225 T00061111=
201001062152 METAR KATL 062152Z 30012KT 10SM FEW250 02/M12 A3015 RMK AO2 SLP221 T00221117=
201001062052 SPECI KATL 062052Z 31011KT 10SM FEW250 03/M11 A3015 RMK AO2 SLP221 T00281111 55014=
201001061952 METAR KATL 061952Z 33014KT 10SM FEW250 03/M11 A3015 RMK AO2 SLP219 T00281111=
201001061852 METAR KATL 061852Z 31013KT 10SM FEW250 02/M11 A3015 RMK AO2 SLP222 T00221111=
201001061752 METAR KATL 061752Z 33013KT 10SM CLR 01/M11 A3019 RMK AO2 SLP236 T00111111 10011 21072 58007=
201001061652 METAR KATL 061652Z 32010G19KT 10SM CLR 00/M11 A3021 RMK AO2 SLP243 T00001111=
201001061552 METAR KATL 061552Z 32012KT 10SM FEW250 M02/M12 A3022 RMK AO2 SLP245 T10221122=
201001061452 METAR KATL 061452Z 32016KT 10SM CLR M04/M13 A3021 RMK AO2 SLP245 T10441133 51010=
201001061352 METAR KATL 061352Z 32017G21KT 10SM CLR M06/M14 A3020 RMK AO2 SLP241 T10611139=
201001061252 METAR KATL 061252Z 32011KT 10SM CLR M07/M14 A3020 RMK AO2 SLP240 T10721144=
201001061152 METAR KATL 061152Z 32010KT 10SM CLR M07/M14 A3018 RMK AO2 SLP234 T10721144 11050 21072 53003=
201001061052 METAR KATL 061052Z 31011KT 10SM CLR M07/M14 A3017 RMK AO2 SLP230 T10721139=
201001060952 METAR KATL 060952Z 32010KT 10SM CLR M07/M14 A3016 RMK AO2 SLP227 T10671144=
201001060852 METAR KATL 060852Z 31011KT 10SM CLR M06/M14 A3017 RMK AO2 SLP230 T10611139 55001=
201001060752 METAR KATL 060752Z 33014G20KT 10SM CLR M06/M14 A3016 RMK AO2 SLP226 T10561139=
201001060652 METAR KATL 060652Z 32014KT 10SM CLR M06/M13 A3016 RMK AO2 SLP227 T10561133=
201001060552 METAR KATL 060552Z 31011KT 10SM CLR M05/M13 A3018 RMK AO2 SLP231 T10501133 11017 21050 53001=
201001060452 METAR KATL 060452Z 32011KT 10SM CLR M04/M13 A3018 RMK AO2 SLP232 T10441133 400111083=
201001060352 METAR KATL 060352Z 31012KT 10SM FEW250 M04/M13 A3017 RMK AO2 SLP230 T10441133=
201001060252 METAR KATL 060252Z 31015G20KT 10SM FEW250 M04/M13 A3017 RMK AO2 SLP231 T10391133 51005=
201001060152 METAR KATL 060152Z 30016KT 10SM FEW250 M03/M14 A3017 RMK AO2 SLP232 T10281139=
201001060052 METAR KATL 060052Z 30012KT 10SM CLR M02/M14 A3017 RMK AO2 SLP230 T10221144=
201001052352 METAR KATL 052352Z 30010KT 10SM CLR M02/M14 A3016 RMK AO2 SLP226 T10171139 10011 21017 51008=
201001052252 METAR KATL 052252Z 29012KT 10SM CLR M01/M13 A3015 RMK AO2 SLP224 T10111133=
201001052152 METAR KATL 052152Z 31011KT 10SM FEW250 00/M13 A3014 RMK AO2 SLP220 T00001128=
201001051952 METAR KATL 051952Z 31010G18KT 10SM CLR 01/M13 A3013 RMK AO2 WSHFT 1934 SLP215 T00061133=
201001051852 METAR KATL 051852Z 31011KT 10SM CLR 00/M13 A3014 RMK AO2 SLP220 T00001133=
201001051752 METAR KATL 051752Z 30012KT 10SM FEW250 M01/M14 A3016 RMK AO2 SLP226 T10111139 11011 21083 58018=
201001051652 METAR KATL 051652Z 32011KT 290V350 10SM FEW250 M02/M13 A3019 RMK AO2 SLP238 T10221128=
201001051552 METAR KATL 051552Z 33011KT 10SM FEW250 M04/M13 A3021 RMK AO2 SLP245 T10391128=
201001051452 METAR KATL 051452Z 33014KT 10SM FEW030 M06/M12 A3022 RMK AO2 SLP247 T10561122 53016=
201001051352 METAR KATL 051352Z 31010KT 10SM FEW250 M07/M12 A3019 RMK AO2 SLP238 T10721117=
201001051252 METAR KATL 051252Z 31009KT 10SM FEW250 M08/M12 A3018 RMK AO2 SLP235 T10831122=
201001051152 METAR KATL 051152Z 31009KT 10SM CLR M08/M12 A3017 RMK AO2 SLP230 T10781117 11061 21078 53006=
201001051052 METAR KATL 051052Z 31011KT 10SM CLR M08/M12 A3016 RMK AO2 SLP226 T10781117=
201001050952 METAR KATL 050952Z 31012KT 10SM CLR M07/M11 A3014 RMK AO2 SLP221 T10721111=
201001050852 METAR KATL 050852Z 30008KT 10SM CLR M07/M11 A3015 RMK AO2 SLP222 T10721111 53003=
201001050752 METAR KATL 050752Z 32010KT 10SM CLR M07/M11 A3015 RMK AO2 SLP223 T10671111=
201001050652 METAR KATL 050652Z 32012KT 10SM CLR M06/M11 A3013 RMK AO2 SLP216 T10611111=
201001050552 METAR KATL 050552Z 32012G22KT 10SM CLR M06/M11 A3014 RMK AO2 SLP219 T10611111 11028 21061 58000=
201001050452 METAR KATL 050452Z 32010G22KT 10SM CLR M06/M11 A3014 RMK AO2 SLP221 T10561111 400001083=
201001050352 METAR KATL 050352Z 33013G22KT 10SM CLR M05/M11 A3014 RMK AO2 SLP220 T10501111=
201001050252 METAR KATL 050252Z 32018G27KT 10SM CLR M04/M11 A3014 RMK AO2 PK WND 32027/0245 SLP220 T10441111 50007=
201001050152 METAR KATL 050152Z 32014KT 10SM FEW100 M04/M11 A3014 RMK AO2 SLP221 T10391106=
201001050052 METAR KATL 050052Z 33014KT 10SM FEW100 M03/M11 A3013 RMK AO2 SLP218 T10331106=
201001042352 METAR KATL 042352Z 33014G19KT 10SM SCT100 M03/M11 A3012 RMK AO2 SLP213 T10281111 10000 21028 53011=
201001042252 METAR KATL 042252Z 32014G20KT 10SM BKN100 M02/M11 A3009 RMK AO2 SLP204 T10171106=
201001042152 METAR KATL 042152Z 33013G21KT 10SM BKN100 BKN110 M01/M11 A3009 RMK AO2 SLP202 VIRGA SE-S T10111106=
201001042052 METAR KATL 042052Z 31014KT 10SM BKN100 M01/M11 A3008 RMK AO2 SLP200 VIRGA E T10111106 55006=
201001041952 METAR KATL 041952Z 31015G21KT 10SM BKN100 M01/M11 A3008 RMK AO2 SLP200 VIRGA N-NE T10111111=
201001041852 METAR KATL 041852Z 30015KT 10SM BKN095 BKN250 M01/M12 A3008 RMK AO2 SLP200 VIRGA DSNT NE T10111117=
201001041752 METAR KATL 041752Z 30014KT 10SM BKN100 M02/M12 A3010 RMK AO2 SLP207 T10221117 11017 21083 58015=
201001041652 METAR KATL 041652Z 33014KT 10SM BKN095 M02/M12 A3013 RMK AO2 SLP216 T10221117=
201001041552 METAR KATL 041552Z 32014KT 10SM FEW100 M03/M12 A3015 RMK AO2 SLP223 T10331122=
201001041452 METAR KATL 041452Z 32016KT 10SM FEW100 M06/M12 A3015 RMK AO2 SLP223 T10561122 51009=
201001041352 METAR KATL 041352Z 32018G21KT 10SM FEW250 M07/M13 A3014 RMK AO2 SLP221 T10721128=
201001041252 METAR KATL 041252Z 32012KT 10SM FEW180 M08/M13 A3014 RMK AO2 SLP220 T10781128=
201001041152 METAR KATL 041152Z 32012KT 10SM CLR M08/M13 A3012 RMK AO2 SLP213 T10781128 11061 21078 53003=
201001041052 METAR KATL 041052Z 32013G18KT 10SM CLR M08/M13 A3010 RMK AO2 SLP207 T10781133=
201001040952 METAR KATL 040952Z 32011KT 10SM CLR M07/M13 A3010 RMK AO2 SLP205 T10721133=
201001040852 METAR KATL 040852Z 32012KT 10SM CLR M07/M13 A3011 RMK AO2 SLP208 T10721133 58000=
201001040752 METAR KATL 040752Z 32013G21KT 10SM CLR M07/M14 A3012 RMK AO2 SLP211 T10671139=
201001040652 METAR KATL 040652Z 32017G23KT 10SM CLR M07/M14 A3012 RMK AO2 SLP211 T10671139=
201001040552 METAR KATL 040552Z 32015KT 10SM CLR M06/M14 A3011 RMK AO2 SLP209 T10611139 11022 21061 58004=
201001040452 METAR KATL 040452Z 32015G22KT 10SM CLR M06/M14 A3012 RMK AO2 SLP213 T10561144 400111078=
201001040352 METAR KATL 040352Z 33013G19KT 10SM CLR M05/M14 A3013 RMK AO2 SLP217 T10501144=
201001040252 METAR KATL 040252Z 33013G24KT 10SM CLR M04/M16 A3012 RMK AO2 SLP214 T10441156 56009=
201001040152 METAR KATL 040152Z 34018G23KT 10SM CLR M03/M17 A3013 RMK AO2 SLP217 T10331167=
201001040052 METAR KATL 040052Z 33012KT 10SM CLR M03/M17 A3014 RMK AO2 SLP220 T10281167=
201001032352 METAR KATL 032352Z 33011G19KT 10SM CLR M02/M17 A3015 RMK AO2 SLP224 T10221172 10011 21022 53009=
201001032252 METAR KATL 032252Z 32011KT 10SM CLR M02/M17 A3014 RMK AO2 SLP219 T10171167=
201001032152 METAR KATL 032152Z 30016G20KT 10SM CLR 00/M16 A3013 RMK AO2 SLP214 T00001161=
201001032052 METAR KATL 032052Z 32016G22KT 10SM FEW120 01/M18 A3012 RMK AO2 SLP212 T00061183 55010=
201001031952 METAR KATL 031952Z 33013G21KT 10SM FEW120 01/M18 A3011 RMK AO2 SLP210 T00061178=
201001031852 METAR KATL 031852Z 32013G23KT 10SM FEW120 SCT150 00/M17 A3013 RMK AO2 SLP214 T00001167=
201001031752 METAR KATL 031752Z 31014G19KT 10SM SCT120 BKN150 BKN250 M01/M16 A3015 RMK AO2 SLP223 T10061161 10000 21078 58021=
201001031652 METAR KATL 031652Z 32011G18KT 10SM BKN120 BKN150 BKN250 M02/M15 A3019 RMK AO2 SLP234 T10221150=
201001031552 METAR KATL 031552Z 33012G19KT 10SM SCT100 BKN120 BKN150 M04/M14 A3022 RMK AO2 SLP246 T10391139=
201001031452 METAR KATL 031452Z 31014KT 10SM SCT095 BKN120 BKN150 M05/M13 A3022 RMK AO2 SLP246 T10501133 53015=
201001031352 METAR KATL 031352Z 31015G18KT 10SM BKN150 BKN250 M06/M13 A3019 RMK AO2 SLP239 T10611128=
201001031252 METAR KATL 031252Z 32009KT 10SM BKN120 BKN250 M07/M13 A3019 RMK AO2 SLP239 T10721128=
201001031152 METAR KATL 031152Z 33010KT 10SM FEW150 M08/M13 A3017 RMK AO2 SLP232 T10781128 11056 21078 56006=
201001031052 METAR KATL 031052Z 32012KT 10SM FEW110 M08/M13 A3018 RMK AO2 SLP234 T10781128=
201001030952 METAR KATL 030952Z 31009KT 10SM CLR M07/M13 A3018 RMK AO2 SLP234 T10721128=
201001030852 METAR KATL 030852Z 33008KT 10SM CLR M07/M13 A3019 RMK AO2 SLP237 T10721128 56004=
201001030752 METAR KATL 030752Z 33011KT 10SM CLR M07/M13 A3020 RMK AO2 SLP238 T10671128=
201001030652 METAR KATL 030652Z 33010KT 10SM CLR M06/M12 A3019 RMK AO2 SLP235 T10611122=
201001030552 METAR KATL 030552Z 33009KT 10SM FEW150 SCT250 M06/M12 A3020 RMK AO2 SLP241 T10561122 11028 21056 58007=
201001030452 METAR KATL 030452Z 34014KT 10SM FEW150 BKN250 M05/M13 A3023 RMK AO2 SLP248 T10501128 400061050=
201001030352 METAR KATL 030352Z 33013KT 10SM FEW180 M04/M13 A3022 RMK AO2 SLP248 T10441128=
201001030252 METAR KATL 030252Z 33010KT 10SM FEW180 M04/M13 A3023 RMK AO2 SLP248 T10391128 58000=
201001030152 METAR KATL 030152Z 34014KT 10SM CLR M03/M12 A3021 RMK AO2 PRESFR SLP245 T10331122=
201001030052 METAR KATL 030052Z 33012KT 10SM CLR M03/M12 A3024 RMK AO2 SLP253 T10281117=
201001022352 METAR KATL 022352Z 31009KT 10SM CLR M03/M12 A3023 RMK AO2 SLP249 T10281122 10006 21028 53010=
201001022252 METAR KATL 022252Z 32010KT 10SM CLR M02/M13 A3020 RMK AO2 SLP241 T10221128=
201001022152 METAR KATL 022152Z 32010KT 10SM CLR M01/M13 A3020 RMK AO2 SLP240 T10061128=
201001022052 METAR KATL 022052Z 32012KT 10SM CLR 00/M12 A3020 RMK AO2 SLP237 T00001122 56008=
201001021952 METAR KATL 021952Z 34014G22KT 10SM CLR 01/M12 A3020 RMK AO2 SLP239 T00061117=
201001021852 METAR KATL 021852Z 32015G20KT 10SM CLR 00/M10 A3021 RMK AO2 SLP240 T00001100=
201001021752 METAR KATL 021752Z 31013G20KT 10SM CLR M01/M10 A3022 RMK AO2 SLP245 T10061100 11006 21050 58005=
201001021652 METAR KATL 021652Z 33019G24KT 10SM FEW035 M01/M11 A3024 RMK AO2 SLP252 T10111106=
201001021552 METAR KATL 021552Z 32013G21KT 10SM FEW030 M02/M10 A3026 RMK AO2 SLP257 T10221100=
201001021452 METAR KATL 021452Z 34016G24KT 10SM SCT025 M03/M10 A3024 RMK AO2 SLP251 T10331100 53012=
201001021352 METAR KATL 021352Z 32017G24KT 10SM FEW025 SCT150 M04/M10 A3022 RMK AO2 SLP247 T10441100=
201001021252 METAR KATL 021252Z 32013KT 10SM FEW150 M04/M09 A3021 RMK AO2 SLP240 T10441094=
201001021152 METAR KATL 021152Z 31008KT 10SM CLR M04/M09 A3020 RMK AO2 SLP237 T10441094 11017 21044 53005=
201001021052 METAR KATL 021052Z 32012KT 10SM CLR M04/M09 A3019 RMK AO2 SLP232 T10391094=
201001020952 METAR KATL 020952Z 32011KT 10SM CLR M04/M09 A3018 RMK AO2 SLP230 T10391094=
201001020852 METAR KATL 020852Z 31016G21KT 10SM CLR M03/M09 A3018 RMK AO2 SLP228 T10331094 53001=
201001020752 METAR KATL 020752Z 32015G21KT 10SM CLR M03/M09 A3018 RMK AO2 SLP228 T10281094=
201001020652 METAR KATL 020652Z 31011KT 10SM CLR M02/M08 A3017 RMK AO2 SLP224 T10221083=
201001020552 METAR KATL 020552Z 31012G19KT 10SM CLR M02/M08 A3018 RMK AO2 SLP227 T10171083 10033 21017 58001=
201001020452 METAR KATL 020452Z 31010KT 10SM CLR M01/M07 A3019 RMK AO2 SLP230 T10111072 400831011=
201001020352 METAR KATL 020352Z 31011KT 10SM CLR M01/M07 A3020 RMK AO2 SLP236 T10061072=
201001020252 METAR KATL 020252Z 31011KT 10SM CLR 00/M07 A3018 RMK AO2 SLP228 T00001067 50012=
201001020152 METAR KATL 020152Z 31013G21KT 10SM CLR 01/M07 A3018 RMK AO2 SLP229 T00111067=
201001020052 METAR KATL 020052Z 33015G22KT 10SM CLR 02/M06 A3016 RMK AO2 SLP220 T00221061=
201001012352 METAR KATL 012352Z 33013G21KT 10SM CLR 03/M06 A3014 RMK AO2 SLP213 T00331056 10083 20033 53014=
201001012252 METAR KATL 012252Z 33013G18KT 10SM CLR 04/M06 A3012 RMK AO2 SLP205 T00441061=
201001012152 METAR KATL 012152Z 33017G22KT 10SM CLR 07/M06 A3010 RMK AO2 PK WND 34026/2125 SLP196 T00671056=
201001012052 METAR KATL 012052Z 31017G22KT 10SM CLR 08/M04 A3010 RMK AO2 PK WND 32029/2018 SLP197 T00781039 55001=
201001011952 METAR KATL 011952Z 34017G26KT 10SM CLR 08/M04 A3008 RMK AO2 PK WND 31028/1933 SLP190 T00781039=
201001011852 METAR KATL 011852Z 33015G20KT 10SM FEW035 08/M02 A3009 RMK AO2 PK WND 31028/1805 SLP192 T00781022=
201001011752 METAR KATL 011752Z 32020G23KT 10SM FEW030 07/M02 A3010 RMK AO2 PK WND 34027/1735 SLP198 60000 T00721017 10072 20039 58006=
201001011652 METAR KATL 011652Z 33014G22KT 10SM FEW026 06/M01 A3012 RMK AO2 SLP205 T00611006=
201001011601 SPECI KATL 011601Z 33017G22KT 10SM SCT022 BKN070 04/M01 A3013 RMK AO2=
201001011601 SPECI KATL 011601Z 33017G22KT 10SM SCT022 BKN070 04/M01 A3013 RMK AO2=
201001011552 METAR KATL 011552Z 33018G21KT 10SM BKN022 BKN250 04/M01 A3013 RMK AO2 PK WND 33026/1523 SLP208 T00441006=
201001011452 METAR KATL 011452Z 32016G26KT 10SM OVC022 04/M01 A3012 RMK AO2 PK WND 32026/1445 SLP206 60000 T00391006 51018=
201001011352 METAR KATL 011352Z 34017G24KT 10SM BKN020 04/01 A3011 RMK AO2 SLP202 T00390006=
201001011316 SPECI KATL 011316Z 33010G23KT 10SM BKN022 04/01 A3009 RMK AO2=
201001011316 SPECI KATL 011316Z 33010G23KT 10SM BKN022 04/01 A3009 RMK AO2=
201001011252 METAR KATL 011252Z 33018G23KT 10SM SCT022 BKN055 BKN100 04/01 A3009 RMK AO2 RAB06E35 SLP193 P0000 T00440011=
