##########################################################
# Query made at 04/19/2024 23:22:45 UTC
# Time interval: from 07/01/2011 12:00  to 07/31/2011 12:59  UTC
##########################################################

##########################################################
# KATL, Atlanta, Hartsfield - Jackson Atlanta International Airport (United States)
# WMO index: 72219. WIGOS ID: 0-20000-0-72219
# Latitude 33-38-59N. Longitude 084-25-00W. Altitude 312 m.
##########################################################

201107311252 METAR KATL 311252Z 32008KT 10SM SCT005 SCT150 SCT250 24/22 A3008 RMK AO2 SLP175 T02440222=
201107311225 SPECI KATL 311225Z 31008KT 10SM FEW005 SCT010 SCT150 24/23 A3007 RMK AO2=
201107311225 SPECI KATL 311225Z 31008KT 10SM FEW005 SCT010 SCT150 24/23 A3007 RMK AO2=
201107311152 METAR KATL 311152Z 31007KT 10SM FEW010 SCT150 SCT250 24/22 A3006 RMK AO2 SLP170 70006 T02390222 10239 20233 51009=
201107311052 METAR KATL 311052Z 32005KT 10SM SCT150 SCT250 23/22 A3006 RMK AO2 SLP168 T02330222=
201107310952 METAR KATL 310952Z 32008KT 10SM FEW015 SCT150 24/22 A3005 RMK AO2 SLP167 T02390222=
201107310852 METAR KATL 310852Z 31011KT 10SM BKN150 23/22 A3004 RMK AO2 SLP162 T02330222 53003=
201107310752 METAR KATL 310752Z 29008KT 10SM FEW100 SCT180 23/22 A3003 RMK A0 BKN250 28/2LP156 ZCZC WBCMTRDCA SAUS70 KDCA 310800=
201107310652 METAR KATL 310652Z 29006KT 10SM SCT100 23/22 A3002 RMK AO2 SLP152 T02330222=
201107310552 METAR KATL 310552Z 30005KT 10SM FEW180 24/22 A3003 RMK AO2 SLP156 T02390222 10261 20239 58013=
201107310452 METAR KATL 310452Z 28006KT 10SM FEW180 24/22 A3005 RMK AO2 SLP163 T02390222 403560239=
201107310352 METAR KATL 310352Z 30007KT 10SM FEW180 SCT250 24/22 A3006 RMK AO2 SLP169 T02440222=
201107310252 METAR KATL 310252Z 30007KT 10SM SCT150 BKN250 25/23 A3007 RMK AO2 SLP170 T02500228 53007=
201107310152 METAR KATL 310152Z 30006KT 10SM FEW150 SCT250 25/23 A3005 RMK AO2 SLP165 T02500228=
201107310052 METAR KATL 310052Z 30008KT 10SM FEW150 SCT250 25/23 A3005 RMK AO2 SLP164 T02500228=
201107302352 METAR KATL 302352Z 32008KT 10SM FEW150 BKN250 26/23 A3005 RMK AO2 SLP164 60006 T02610228 10356 20250 53001=
201107302252 METAR KATL 302252Z 31009KT 10SM SCT095 BKN150 BKN250 26/23 A3004 RMK AO2 SLP162 T02610228=
201107302152 METAR KATL 302152Z 29010KT 10SM FEW009 SCT037 SCT095 BKN150 BKN250 27/24 A3004 RMK AO2 RAE40 SLP163 P0000 T02670239=
201107302147 SPECI KATL 302147Z 28010KT 10SM FEW009 SCT095 BKN150 BKN250 27/24 A3004 RMK AO2 RAE40 P0000=
201107302147 SPECI KATL 302147Z 28010KT 10SM FEW009 SCT095 BKN150 BKN250 27/24 A3004 RMK AO2 RAE40 P0000=
201107302052 METAR KATL 302052Z 30010KT 10SM -RA FEW010 SCT034 BKN070 BKN150 25/22 A3007 RMK AO2 PK WND 31028/2004 TSB1953E33RAB02 SLP171 CB DSNT SE & S P0006 60006 T02500222 56005=
201107302033 SPECI KATL 302033Z 31014KT 8SM -RA FEW015CB SCT045 BKN055 OVC150 26/23 A3007 RMK AO2 PK WND 31028/2004 TSB1953E33RAB02 CB ALQDS MOV SE P0006=
201107302033 SPECI KATL 302033Z 31014KT 8SM -RA FEW015CB SCT045 BKN055 OVC150 26/23 A3007 RMK AO2 PK WND 31028/2004 TSB1953E33RAB02 CB ALQDS MOV SE P0006=
201107301958 SPECI KATL 301958Z 30020G31KT 10SM TS SCT055CB BKN070 BKN120 29/22 A3008 RMK AO2 PK WND 30027/1954 TSB53 PRESRR OCNL LTGGIC N-NE TS N-E MOV SE SHRA N-NE=
201107301958 SPECI KATL 301958Z 30020G31KT 10SM TS SCT055CB BKN070 BKN120 29/22 A3008 RMK AO2 PK WND 30027/1954 TSB53 PRESRR OCNL LTGGIC N-NE TS N-E MOV SE SHRA N-NE=
201107301952 METAR KATL 301952Z COR 31025G35KT 10SM TS SCT055CB BKN070 BKN120 31/21 A3007 RMK AO2 PK WND 33035/1948 SLP171 OCNL LTGGIC N-NE TS N-E MOV SE SHRA N-NE T03060211=
201107301852 METAR KATL 301852Z 33007KT 10SM SCT060 35/21 A3007 RMK AO2 SLP168 CB DSNT W & NW-N T03500206=
201107301752 METAR KATL 301752Z 35010G16KT 10SM SCT043 SCT065 34/21 A3008 RMK AO2 SLP173 T03390206 10344 20250 58012=
201107301652 METAR KATL 301652Z COR 31010G17KT 10SM SCT045 33/22 A3011 RMK AO2 SLP182 T03280217=
201107301552 METAR KATL 301552Z 32012KT 10SM SCT036 32/21 A3012 RMK AO2 SLP186 T03220211=
201107301452 METAR KATL 301452Z 34013KT 10SM SCT035 31/22 A3012 RMK AO2 SLP186 T03110217 51007=
201107301352 METAR KATL 301352Z 33008KT 10SM CLR 29/22 A3011 RMK AO2 SLP185 T02940222=
201107301252 METAR KATL 301252Z 31007KT 10SM CLR 27/22 A3011 RMK AO2 SLP183 T02720222=
201107301152 METAR KATL 301152Z 30008KT 10SM FEW250 25/22 A3010 RMK AO2 SLP180 T02500217 10261 20239 53005=
201107301052 METAR KATL 301052Z 30006KT 10SM SCT250 24/22 A3009 RMK AO2 SLP178 T02440217=
201107300952 METAR KATL 300952Z 29005KT 10SM CLR 24/21 A3008 RMK AO2 SLP175 T02440211=
201107300852 METAR KATL 300852Z 32006KT 10SM CLR 26/22 A3008 RMK AO2 SLP174 T02560217 56002=
201107300752 METAR KATL 300752Z 30006KT 10SM CLR 26/22 A3008 RMK AO2 SLP174 T02560217=
201107300652 METAR KATL 300652Z 31006KT 10SM CLR 26/22 A3008 RMK AO2 SLP175 T02560217=
201107300552 METAR KATL 300552Z 30007KT 10SM CLR 26/22 A3009 RMK AO2 SLP177 T02610217 10311 20261 50000=
201107300152 METAR KATL 300152Z 29006KT 10SM FEW080 28/21 A3008 RMK AO2 SLP173 T02830211=
201107300052 METAR KATL 300052Z 28007KT 10SM FEW080 29/21 A3007 RMK AO2 SLP170 T02940206=
201107292352 METAR KATL 292352Z 29008KT 10SM FEW045 31/20 A3006 RMK AO2 SLP166 T03110200 10339 20311 55006=
201107292252 METAR KATL 292252Z 29008KT 10SM FEW045 32/20 A3005 RMK AO2 SLP164 TCU DSNT SW T03220200=
201107292152 METAR KATL 292152Z 28009KT 10SM SCT048TCU 33/20 A3006 RMK AO2 SLP168 TCU E DSNT SW T03330200=
201107292052 METAR KATL 292052Z 27009KT 240V300 10SM SCT047 SCT150 33/20 A3007 RMK AO2 SLP172 TCU DSNT S-SW & NW T03330200 56023=
201107291952 METAR KATL 291952Z 30009KT 260V330 10SM FEW045 SCT150 33/20 A3009 RMK AO2 SLP179 TCU DSNT S & W & NW T03280200=
201107291852 METAR KATL 291852Z 33010KT 10SM FEW040 SCT060 SCT150 32/21 A3012 RMK AO2 SLP189 TCU DSNT S-SW-W T03220206=
201107291752 METAR KATL 291752Z 32009G15KT 270V340 10SM SCT036 SCT150 31/21 A3014 RMK AO2 SLP196 T03110206 10317 20239 58009=
201107291652 METAR KATL 291652Z 32009G16KT 10SM BKN030 BKN150 31/21 A3016 RMK AO2 SLP202 T03060211=
201107291552 METAR KATL 291552Z 33009KT 10SM BKN030 BKN150 29/21 A3017 RMK AO2 SLP203 T02940211=
201107291452 METAR KATL 291452Z 31008KT 10SM SCT026 SCT100 BKN150 29/22 A3017 RMK AO2 SLP205 T02890217 51009=
201107291352 METAR KATL 291352Z 31009KT 10SM FEW015 SCT100 SCT250 27/22 A3017 RMK AO2 SLP206 T02720217=
201107291252 METAR KATL 291252Z 30011KT 10SM FEW011 SCT250 26/22 A3016 RMK AO2 SLP202 T02560217=
201107291152 METAR KATL 291152Z 29007KT 10SM FEW250 24/21 A3014 RMK AO2 SLP197 70008 T02390211 10244 20228 53014=
201107291052 METAR KATL 291052Z 28005KT 10SM FEW250 23/21 A3012 RMK AO2 SLP190 T02280211=
201107290952 METAR KATL 290952Z 27007KT 10SM CLR 23/21 A3011 RMK AO2 SLP184 T02330211=
201107290852 METAR KATL 290852Z 25003KT 10SM CLR 24/21 A3010 RMK AO2 SLP182 T02390211 58007=
201107290752 METAR KATL 290752Z 28004KT 10SM CLR 24/21 A3011 RMK AO2 SLP184 T02390211=
201107290652 METAR KATL 290652Z 24003KT 10SM CLR 24/21 A3012 RMK AO2 SLP187 T02390211=
201107290552 METAR KATL 290552Z 21003KT 10SM CLR 24/21 A3012 RMK AO2 SLP189 T02440211 10300 20244 58005=
201107290452 METAR KATL 290452Z 23003KT 10SM FEW250 25/21 A3013 RMK AO2 SLP193 T02500206 403220244=
201107290352 METAR KATL 290352Z 23003KT 10SM FEW250 26/21 A3014 RMK AO2 SLP197 T02560206=
201107290252 METAR KATL 290252Z 24005KT 10SM FEW045 26/21 A3014 RMK AO2 SLP195 T02610206 51017=
201107290152 METAR KATL 290152Z 23006KT 10SM FEW045 27/21 A3012 RMK AO2 SLP190 T02670206=
201107290052 METAR KATL 290052Z 23009KT 10SM FEW045TCU SCT065 SCT250 27/21 A3011 RMK AO2 SLP186 CB DSNT NW TCU N-NE T02720211=
201107282352 METAR KATL 282352Z 20006KT 10SM SCT045TCU BKN060 BKN200 30/21 A3009 RMK AO2 SLP177 CB DSNT S W-NW TCU OHD-NW 60008 T03000206 10322 20283 53001=
201107282252 METAR KATL 282252Z 23006KT 10SM FEW045 SCT150 32/20 A3008 RMK AO2 SLP175 TCU DSNT NE S-SW T03170200=
201107282152 METAR KATL 282152Z 21006KT 10SM FEW045TCU SCT090 31/21 A3009 RMK AO2 SLP177 TCU NW DSNT S-SW T03060206=
201107282052 METAR KATL 282052Z 20006KT 10SM FEW045CB SCT050TCU BKN080 BKN250 29/22 A3008 RMK AO2 RAB26E52 SLP176 CB N MOV NW TCU N-NE & SW SHRA N & SW P0008 60008 T02940217 56012=
201107282035 SPECI KATL 282035Z 11003G15KT 10SM -RA FEW046TCU BKN065 BKN250 28/21 A3009 RMK AO2 RAB26 VIS LWR SW SHRA TCU SW P0007=
201107282035 SPECI KATL 282035Z 11003G15KT 10SM -RA FEW046TCU BKN065 BKN250 28/21 A3009 RMK AO2 RAB26 VIS LWR SW SHRA TCU SW P0007=
201107281952 METAR KATL 281952Z 24007KT 10SM FEW043TCU BKN085 BKN250 31/20 A3010 RMK AO2 SLP180 TCU NE & SE & NW T03110200=
201107281852 METAR KATL 281852Z 24007KT 190V280 10SM FEW040 BKN070 BKN250 32/20 A3011 RMK AO2 SLP183 TCU DSNT N-NE & W-NW T03220200=
201107281752 METAR KATL 281752Z 22005KT 10SM FEW027 BKN065 BKN250 31/21 A3012 RMK AO2 SLP188 TCU DSNT NE-E T03060206 10306 20250 58005=
201107281652 METAR KATL 281652Z 21008KT 180V240 10SM SCT027TCU BKN050 29/21 A3014 RMK AO2 SLP194 TCU N-NE-E & DSNT S T02890211=
201107281552 METAR KATL 281552Z 25004KT 10SM SCT025TCU SCT050 28/22 A3014 RMK AO2 SLP194 TCU ALQDS T02830217=
201107281452 METAR KATL 281452Z 20007KT 10SM BKN017TCU BKN050 27/22 A3014 RMK AO2 SLP194 TCU OHD & ALQDS T02670217 50005=
201107281352 METAR KATL 281352Z 22006KT 10SM SCT014TCU BKN047 27/22 A3014 RMK AO2 SLP195 TCU ALQDS T02670222=
201107281252 METAR KATL 281252Z 21004KT 10SM SCT010TCU BKN041 26/22 A3012 RMK AO2 SLP188 TCU W-N T02560222=
201107281246 SPECI KATL 281246Z 21004KT 10SM SCT010TCU BKN041 26/22 A3012 RMK AO2 TCU NW-N=
201107281246 SPECI KATL 281246Z 21004KT 10SM SCT010TCU BKN041 26/22 A3012 RMK AO2 TCU NW-N=
201107281220 SPECI KATL 281220Z 19005KT 10SM BKN010TCU BKN036 25/22 A3012 RMK AO2 TCU W-NW=
201107281220 SPECI KATL 281220Z 19005KT 10SM BKN010TCU BKN036 25/22 A3012 RMK AO2 TCU W-NW=
201107281152 METAR KATL 281152Z 21004KT 10SM SCT012TCU BKN036 25/22 A3011 RMK AO2 SLP183 TCU NW T02500222 10250 20244 53022=
201107281121 SPECI KATL 281121Z 22004KT 10SM SCT010 SCT023 BKN036 25/22 A3010 RMK AO2 CB DSNT W=
201107281121 SPECI KATL 281121Z 22004KT 10SM SCT010 SCT023 BKN036 25/22 A3010 RMK AO2 CB DSNT W=
201107281052 METAR KATL 281052Z 20005KT 10SM BKN010 OVC023 24/23 A3009 RMK AO2 SLP176 T02440228=
201107280952 METAR KATL 280952Z 22003KT 10SM BKN010 25/23 A3005 RMK AO2 SLP164 T02500228=
201107280852 METAR KATL 280852Z 21005KT 10SM OVC010 25/22 A3004 RMK AO2 SLP159 T02500222 55000=
201107280752 METAR KATL 280752Z 20006KT 10SM OVC006 24/23 A3003 RMK AO2 SLP154 T02440228=
201107280652 METAR KATL 280652Z 18005KT 9SM BKN008 24/23 A3002 RMK AO2 SLP154 T02440228=
201107280552 METAR KATL 280552Z 16004KT 9SM BKN009 24/23 A3004 RMK AO2 SLP160 T02440228 10317 20244 58002=
201107280521 SPECI KATL 280521Z 17005KT 10SM FEW009 24/23 A3005 RMK AO2=
201107280521 SPECI KATL 280521Z 17005KT 10SM FEW009 24/23 A3005 RMK AO2=
201107280452 METAR KATL 280452Z 17004KT 10SM CLR 25/23 A3004 RMK AO2 SLP161 T02500228 403440228=
201107280352 METAR KATL 280352Z 18003KT 10SM CLR 26/23 A3005 RMK AO2 SLP163 T02560228=
201107280252 METAR KATL 280252Z 19006KT 10SM CLR 26/22 A3005 RMK AO2 SLP163 T02610222 53027=
201107280152 METAR KATL 280152Z 19007KT 10SM FEW200 27/22 A3002 RMK AO2 SLP153 T02720217=
201107280052 METAR KATL 280052Z 15005KT 10SM FEW200 31/20 A2999 RMK AO2 SLP143 T03060200=
201107272352 METAR KATL 272352Z 16008KT 10SM FEW200 32/19 A2996 RMK AO2 SLP134 T03170194 10344 20317 53003=
201107272252 METAR KATL 272252Z 17010KT 10SM FEW200 33/19 A2996 RMK AO2 SLP133 T03280189=
201107272152 METAR KATL 272152Z 15008KT 110V170 10SM FEW065 33/18 A2995 RMK AO2 SLP130 CB DSNT S SW T03330178=
201107272052 METAR KATL 272052Z 13009G15KT 10SM FEW060 SCT200 34/18 A2995 RMK AO2 SLP131 CB DSNT S TCU DSNT N & S-SW T03390178 56011=
201107271952 METAR KATL 271952Z 14007G15KT 10SM FEW060 SCT200 34/17 A2996 RMK AO2 SLP133 CB DSNT S T03390172=
201107271852 METAR KATL 271852Z 15009KT 10SM FEW050 33/20 A2997 RMK AO2 SLP138 T03280200=
201107271752 METAR KATL 271752Z 10008G15KT 10SM FEW045 33/20 A2999 RMK AO2 SLP142 T03280200 10328 20244 58004=
201107271652 METAR KATL 271652Z 12009KT 090V160 10SM FEW040 32/21 A2999 RMK AO2 SLP145 T03220211=
201107271552 METAR KATL 271552Z 13007KT 10SM FEW030 31/22 A3000 RMK AO2 SLP146 T03060217=
201107271452 METAR KATL 271452Z 14006KT 10SM CLR 29/23 A3000 RMK AO2 SLP146 T02890228 50008=
201107271352 METAR KATL 271352Z 13005KT 10SM CLR 28/22 A3001 RMK AO2 SLP147 T02830217=
201107271252 METAR KATL 271252Z 11004KT 8SM CLR 26/22 A2999 RMK AO2 SLP145 T02610222=
201107271152 METAR KATL 271152Z 00000KT 7SM CLR 24/22 A2997 RMK AO2 SLP138 70012 T02440217 10250 20228 53025=
201107271052 METAR KATL 271052Z 00000KT 8SM CLR 23/21 A2995 RMK AO2 SLP130 T02330211=
201107270952 METAR KATL 270952Z 00000KT 10SM CLR 23/21 A2992 RMK AO2 SLP119 T02330211=
201107270852 METAR KATL 270852Z 00000KT 10SM CLR 24/22 A2990 RMK AO2 SLP112 T02390217 55002=
201107270752 METAR KATL 270752Z 00000KT 10SM CLR 24/21 A2990 RMK AO2 SLP111 T02390211=
201107270652 METAR KATL 270652Z 00000KT 10SM CLR 24/21 A2990 RMK AO2 SLP113 T02440211=
201107270552 METAR KATL 270552Z 00000KT 10SM FEW200 24/22 A2990 RMK AO2 SLP114 60012 T02390217 10322 20233 58001=
201107270452 METAR KATL 270452Z 00000KT 10SM FEW060 SCT200 24/21 A2990 RMK AO2 SLP114 T02390206 403440233=
201107270352 METAR KATL 270352Z 00000KT 10SM FEW060 SCT110 BKN200 24/21 A2991 RMK AO2 TSB08E38RAE52 SLP118 P0012 T02440211=
201107270339 SPECI KATL 270339Z 19005KT 10SM -RA FEW040 SCT060 BKN110 BKN200 24/21 A2991 RMK AO2 TSB08E38 TS DSIPTD P0012=
201107270339 SPECI KATL 270339Z 19005KT 10SM -RA FEW040 SCT060 BKN110 BKN200 24/21 A2991 RMK AO2 TSB08E38 TS DSIPTD P0012=
201107270308 SPECI KATL 270308Z 18008KT 10SM TS SCT045CB BKN080 BKN110 BKN200 25/21 A2992 RMK AO2 TSB08RAE07 FRQ LTGICCG SW TS SW MOV SW P0000=
201107270308 SPECI KATL 270308Z 18008KT 10SM TS SCT045CB BKN080 BKN110 BKN200 25/21 A2992 RMK AO2 TSB08RAE07 FRQ LTGICCG SW TS SW MOV SW P0000=
201107270252 METAR KATL 270252Z 16011G18KT 10SM -RA SCT045 BKN060 BKN110 BKN200 26/21 A2991 RMK AO2 RAB52 SLP116 OCNL LTG DSNT S P0000 60000 T02610206 53023=
201107270152 METAR KATL 270152Z 36007KT 10SM FEW045 31/20 A2987 RMK AO2 SLP101 OCNL LTG DSNT E-SE T03060200=
201107270052 METAR KATL 270052Z 34007KT 10SM FEW050 31/20 A2985 RMK AO2 SLP097 CB DSNT NE E SE T03110200=
201107262352 METAR KATL 262352Z 33008KT 10SM FEW050 32/20 A2984 RMK AO2 SLP091 TCU DSNT SE T03220200 10344 20311 53000=
201107262252 METAR KATL 262252Z 34008G14KT 10SM FEW050 33/21 A2981 RMK AO2 SLP083 T03330206=
201107262152 METAR KATL 262152Z 33006KT 10SM FEW050TCU SCT250 33/21 A2983 RMK AO2 SLP088 TCU N T03330206 $=
201107262052 METAR KATL 262052Z 30009KT 10SM SCT048 SCT250 34/21 A2984 RMK AO2 SLP091 T03390211 58017 $=
201107261952 METAR KATL 261952Z 35006KT 10SM FEW050TCU SCT250 34/21 A2985 RMK AO2 SLP097 TCU S T03390211=
201107261852 METAR KATL 261852Z 33005KT 10SM SCT040 SCT250 32/21 A2988 RMK AO2 SLP105 T03170206=
201107261752 METAR KATL 261752Z 33003KT 9SM BKN030 BKN250 32/22 A2989 RMK AO2 SLP109 T03220222 10322 20233 58006=
201107261652 METAR KATL 261652Z 06003KT 8SM SCT024 SCT250 31/23 A2990 RMK AO2 SLP112 T03060228=
201107261552 METAR KATL 261552Z VRB03KT 7SM FEW016 SCT200 BKN250 29/22 A2991 RMK AO2 SLP116 T02890222=
201107261501 SPECI KATL 261501Z 35003KT 6SM HZ FEW006 SCT010 BKN250 28/23 A2991 RMK AO2=
201107261501 SPECI KATL 261501Z 35003KT 6SM HZ FEW006 SCT010 BKN250 28/23 A2991 RMK AO2=
201107261459 SPECI KATL 261459Z VRB03KT 6SM HZ BKN010 BKN250 28/23 A2991 RMK AO2=
201107261459 SPECI KATL 261459Z VRB03KT 6SM HZ BKN010 BKN250 28/23 A2991 RMK AO2=
201107261452 METAR KATL 261452Z 01005KT 7SM FEW006 BKN008 BKN250 27/23 A2991 RMK AO2 SLP117 T02670228 51007=
201107261352 METAR KATL 261352Z 32005KT 5SM BR FEW004 BKN006 BKN008 25/23 A2991 RMK AO2 SLP117 T02500228=
201107261337 SPECI KATL 261337Z 30006KT 5SM BR FEW004 BKN006 OVC008 24/22 A2991 RMK AO2=
201107261337 SPECI KATL 261337Z 30006KT 5SM BR FEW004 BKN006 OVC008 24/22 A2991 RMK AO2=
201107261252 METAR KATL 261252Z 29005KT 2SM BR BKN004 23/22 A2990 RMK AO2 SFC VIS 5 SLP117 T02330222=
201107261152 METAR KATL 261152Z 29003KT 2SM BR BKN004 23/22 A2989 RMK AO2 SFC VIS 6 SLP111 70038 T02330217 10244 20233 53012=
201107261052 METAR KATL 261052Z 32006KT 2SM BR BKN004 23/22 A2986 RMK AO2 SFC VIS 6 SLP101 T02330217=
201107261027 SPECI KATL 261027Z 30005KT 3SM BR BKN004 23/22 A2986 RMK AO2 SFC VIS 6=
201107261027 SPECI KATL 261027Z 30005KT 3SM BR BKN004 23/22 A2986 RMK AO2 SFC VIS 6=
201107260952 METAR KATL 260952Z 31008KT 6SM BR FEW015 23/22 A2985 RMK AO2 SLP096 T02330222=
201107260852 METAR KATL 260852Z 31008KT 7SM FEW015 24/22 A2985 RMK AO2 SLP097 T02390222 56014=
201107260752 METAR KATL 260752Z 29006KT 6SM BR FEW050 24/23 A2985 RMK AO2 SLP099 T02390228=
201107260652 METAR KATL 260652Z COR 28005KT 6SM BR FEW090 BKN150 24/23 A2987 RMK AO2 SLP105 T02390228=
201107260552 METAR KATL 260552Z 30006KT 6SM BR SCT060 BKN090 OVC150 24/23 A2989 RMK AO2 SLP110 60004 T02440228 10256 20228 58004=
201107260452 METAR KATL 260452Z 27005KT 8SM FEW070 SCT120 BKN150 OVC200 24/23 A2990 RMK AO2 SLP115 T02440228 403220228=
201107260352 METAR KATL 260352Z 24003KT 7SM FEW012 SCT060 BKN150 OVC200 24/23 A2991 RMK AO2 SLP116 T02440228=
201107260303 SPECI KATL 260303Z 23003KT 8SM FEW003 BKN150 OVC200 24/23 A2990 RMK AO2=
201107260303 SPECI KATL 260303Z 23003KT 8SM FEW003 BKN150 OVC200 24/23 A2990 RMK AO2=
201107260252 METAR KATL 260252Z 21003KT 8SM FEW120 BKN150 OVC200 24/23 A2990 RMK AO2 SLP115 60004 T02390228 55001=
201107260152 METAR KATL 260152Z 00000KT 10SM FEW110 BKN150 OVC200 23/22 A2989 RMK AO2 RAE47 SLP112 FRQ LTG DSNT SW P0001 T02330222=
201107260052 METAR KATL 260052Z 18005KT 10SM -RA FEW050 SCT120 BKN150 OVC200 23/22 A2990 RMK AO2 TSE51 SLP113 OCNL LTG DSNT SE-SW TS MOV SE P0003 T02330217=
201107252352 METAR KATL 252352Z 11003KT 8SM -TSRA FEW025CB BKN120 OVC150 23/21 A2991 RMK AO2 PK WND 34029/2306 WSHFT 2253 RAB02 SLP118 FRQ LTGICCA SE-OHD TS SE-OHD MOV SE P0031 60034 T02330211 10322 20228 53001=
201107252331 SPECI KATL 252331Z 00000KT 4SM TSRA BR SCT025CB BKN050 OVC100 23/22 A2992 RMK AO2 PK WND 34029/2306 WSHFT 2253 RAB02 FRQ LTGICCG OHD-S TS OHD-S MOV SE P0029=
201107252331 SPECI KATL 252331Z 00000KT 4SM TSRA BR SCT025CB BKN050 OVC100 23/22 A2992 RMK AO2 PK WND 34029/2306 WSHFT 2253 RAB02 FRQ LTGICCG OHD-S TS OHD-S MOV SE P0029=
201107252307 SPECI KATL 252307Z 33022G29KT 1 3/4SM +TSRA FEW012 BKN025CB BKN045 OVC150 26/21 A2991 RMK AO2 PK WND 34029/2306 WSHFT 2253 RAB02 FRQ LTGICCG OHD-NW TS OHD-NW MOV SE P0000=
201107252307 SPECI KATL 252307Z 33022G29KT 1 3/4SM +TSRA FEW012 BKN025CB BKN045 OVC150 26/21 A2991 RMK AO2 PK WND 34029/2306 WSHFT 2253 RAB02 FRQ LTGICCG OHD-NW TS OHD-NW MOV SE P0000=
201107252252 METAR KATL 252252Z 28009KT 9SM TS SCT028CB SCT055 BKN180 29/22 A2990 RMK AO2 TSB43 SLP113 FRQ LTGICCG W-N DSNT N-NE TS W-N DSNT N-NE MOV SE T02940222=
201107252243 SPECI KATL 252243Z 25008KT 9SM TS FEW028CB SCT055 BKN180 29/22 A2989 RMK AO2 TSB43 FRQ LTGICCG NW TS NW MOV SE=
201107252243 SPECI KATL 252243Z 25008KT 9SM TS FEW028CB SCT055 BKN180 29/22 A2989 RMK AO2 TSB43 FRQ LTGICCG NW TS NW MOV SE=
201107252152 METAR KATL 252152Z 24005KT 10SM SCT028 BKN120 BKN200 30/23 A2989 RMK AO2 SLP109 CB DSNT NW-N T03000228=
201107252052 METAR KATL 252052Z 24009G15KT 10SM FEW030 SCT110 BKN200 31/23 A2990 RMK AO2 RAE1953 SLP113 CB DSNT N & E 60003 T03060228 56020=
201107251952 METAR KATL 251952Z 28008KT 10SM -RA FEW020 SCT110 BKN200 27/24 A2991 RMK AO2 RAB15 SLP118 CB DSNT N & SE-S P0003 T02720239=
201107251852 METAR KATL 251852Z 27007KT 10SM BKN038CB BKN050 BKN110 31/21 A2994 RMK AO2 SLP126 CB W-NW-N MOV E CB DSNT SE-S SHRA W-NW-N T03060211=
201107251752 METAR KATL 251752Z 19007KT 10SM FEW030 SCT050 SCT110 31/21 A2996 RMK AO2 SLP135 CB DSNT S & NW T03060211 10317 20244 58017=
201107251652 METAR KATL 251652Z 23008KT 10SM FEW020 SCT050 SCT110 29/23 A2999 RMK AO2 SLP145 CB DSNT NW T02940228=
201107251552 METAR KATL 251552Z 25005KT 10SM FEW018 SCT050 BKN110 29/22 A3001 RMK AO2 SLP150 T02890222=
201107251452 METAR KATL 251452Z VRB04KT 10SM FEW014 SCT080 BKN110 28/22 A3002 RMK AO2 SLP152 T02780222 58002=
201107251352 METAR KATL 251352Z 25006KT 10SM FEW020 BKN100 OVC250 26/22 A3002 RMK AO2 SLP154 BINOVC DSNT E T02560217=
201107251252 METAR KATL 251252Z 26004KT 10SM FEW015 BKN100 BKN250 26/22 A3002 RMK AO2 SLP154 TCU DSNT N T02610217=
201107251152 METAR KATL 251152Z 26006KT 10SM SCT085 BKN100 BKN250 24/21 A3002 RMK AO2 SLP154 T02440211 10267 20239 53011=
201107251052 METAR KATL 251052Z 26004KT 10SM BKN080 BKN250 25/21 A3002 RMK AO2 SLP152 T02500211=
201107250952 METAR KATL 250952Z 23004KT 10SM BKN140 24/22 A2999 RMK AO2 SLP144 T02440217=
201107250852 METAR KATL 250852Z 25004KT 10SM FEW180 25/22 A2999 RMK AO2 SLP143 T02500217 56008=
201107250752 METAR KATL 250752Z 26003KT 10SM SCT180 25/22 A2999 RMK AO2 SLP143 T02500217=
201107250652 METAR KATL 250652Z 22004KT 10SM FEW060 26/22 A3000 RMK AO2 SLP146 T02610217=
201107250552 METAR KATL 250552Z 27004KT 10SM SCT095 26/21 A3001 RMK AO2 SLP151 T02610211 10311 20261 58015=
201107250452 METAR KATL 250452Z 27006KT 10SM FEW080 SCT095 27/21 A3004 RMK AO2 SLP159 T02720211 403330228=
201107250352 METAR KATL 250352Z 26006KT 10SM SCT075 BKN095 BKN250 28/22 A3005 RMK AO2 SLP163 T02780217=
201107250252 METAR KATL 250252Z 27005KT 10SM SCT085 SCT150 BKN250 28/21 A3006 RMK AO2 SLP167 T02830211 51012=
201107250152 METAR KATL 250152Z 24007KT 10SM FEW090 SCT150 SCT250 29/21 A3006 RMK AO2 SLP166 T02890211=
201107250052 METAR KATL 250052Z 25007KT 10SM FEW047 SCT070 SCT250 30/20 A3004 RMK AO2 SLP159 T03000200=
201107242352 METAR KATL 242352Z 23007KT 10SM FEW047 SCT250 31/19 A3002 RMK AO2 SLP154 T03110194 10333 20294 55006=
201107242252 METAR KATL 242252Z 24009KT 10SM FEW047 SCT250 32/19 A3002 RMK AO2 SLP153 T03220189=
201107242152 METAR KATL 242152Z 22006KT 10SM FEW047TCU SCT250 32/19 A3003 RMK AO2 SLP158 TCU NE T03220194=
201107242052 METAR KATL 242052Z 20010KT 10SM BKN041 BKN049 BKN060 32/21 A3004 RMK AO2 SLP161 T03170206 58027=
201107241952 METAR KATL 241952Z 23005G14KT 10SM SCT050 SCT250 32/20 A3007 RMK AO2 SLP171 T03170200=
201107241852 METAR KATL 241852Z 24007KT 200V260 10SM SCT045 BKN080 32/20 A3010 RMK AO2 SLP180 CB DSNT SW & W T03220200=
201107241752 METAR KATL 241752Z 27009KT 10SM BKN039 BKN047 BKN055 29/21 A3012 RMK AO2 SLP190 T02940211 10317 20239 56013=
201107241652 METAR KATL 241652Z 28005KT 10SM SCT028 SCT055 BKN250 30/21 A3013 RMK AO2 SLP191 CB DSNT W T03000211=
201107241552 METAR KATL 241552Z 27006KT 10SM SCT025 SCT031 BKN250 29/21 A3015 RMK AO2 SLP197 T02940211=
201107241452 METAR KATL 241452Z 28007KT 10SM SCT020 BKN030 BKN250 28/22 A3016 RMK AO2 SLP202 T02780217 50005=
201107241352 METAR KATL 241352Z 24006KT 10SM SCT016 BKN250 27/22 A3017 RMK AO2 SLP203 T02720217=
201107241252 METAR KATL 241252Z 29006KT 10SM BKN250 26/22 A3016 RMK AO2 SLP203 T02610217=
201107241152 METAR KATL 241152Z 27004KT 10SM BKN250 24/22 A3015 RMK AO2 SLP197 T02390217 10250 20228 53018=
201107241052 METAR KATL 241052Z 28004KT 10SM SCT250 23/21 A3012 RMK AO2 SLP190 T02280211=
201107240952 METAR KATL 240952Z 27004KT 10SM FEW250 23/21 A3011 RMK AO2 SLP184 T02330211=
201107240852 METAR KATL 240852Z 00000KT 10SM CLR 23/21 A3009 RMK AO2 SLP179 T02330211 56007=
201107240752 METAR KATL 240752Z 25005KT 10SM CLR 24/21 A3010 RMK AO2 SLP180 T02390211=
201107240652 METAR KATL 240652Z 24004KT 10SM CLR 24/21 A3011 RMK AO2 SLP185 T02440211=
201107240552 METAR KATL 240552Z 24004KT 10SM CLR 25/21 A3012 RMK AO2 SLP186 T02500206 10311 20250 55000=
201107240452 METAR KATL 240452Z 25007KT 10SM CLR 26/21 A3012 RMK AO2 SLP187 T02610206 403330233=
201107240352 METAR KATL 240352Z 24007KT 10SM FEW047 27/21 A3011 RMK AO2 SLP183 T02670211=
201107240252 METAR KATL 240252Z 23010KT 10SM FEW047 28/21 A3012 RMK AO2 SLP186 T02780211 51015=
201107240152 METAR KATL 240152Z 21006KT 10SM FEW250 29/21 A3010 RMK AO2 SLP179 T02890206=
201107240052 METAR KATL 240052Z 21005KT 10SM FEW045 SCT250 30/21 A3010 RMK AO2 SLP180 T03000206=
201107232352 METAR KATL 232352Z 20008KT 10SM FEW045 SCT250 31/20 A3007 RMK AO2 SLP171 T03110200 10333 20306 56001=
201107232252 METAR KATL 232252Z 23008KT 10SM FEW045 SCT070 BKN250 32/19 A3007 RMK AO2 SLP171 T03170194=
201107232152 METAR KATL 232152Z 18011KT 10SM SCT048 BKN250 32/21 A3007 RMK AO2 SLP171 T03220206=
201107232052 METAR KATL 232052Z COR 17010KT 10SM SCT048 SCT070 33/20 A3007 RMK AO2 SLP172 T03280200 56015=
201107231952 METAR KATL 231952Z 22008KT 10SM SCT047 33/20 A3007 RMK AO2 SLP172 T03280200=
201107231852 METAR KATL 231852Z 17009KT 10SM BKN046 BKN055 32/20 A3010 RMK AO2 SLP182 T03220200=
201107231752 METAR KATL 231752Z 21004KT 10SM SCT047 BKN250 31/21 A3012 RMK AO2 SLP188 T03110206 10317 20250 58013=
201107231652 METAR KATL 231652Z VRB05KT 10SM SCT040 BKN250 31/20 A3014 RMK AO2 SLP194 T03060200=
201107231552 METAR KATL 231552Z 20006KT 10SM SCT034 BKN250 30/20 A3015 RMK AO2 SLP199 T03000200=
201107231452 METAR KATL 231452Z 28004KT 10SM SCT030 SCT250 29/21 A3016 RMK AO2 SLP201 T02940206 50004=
201107231352 METAR KATL 231352Z COR 26005KT 10SM SCT025 SCT250 28/22 A3017 RMK AO2 SLP204 T02830217=
201107231252 METAR KATL 231252Z 26005KT 10SM FEW015 SCT250 27/22 A3017 RMK AO2 SLP204 T02670222=
201107231152 METAR KATL 231152Z 25004KT 10SM SCT250 25/22 A3015 RMK AO2 SLP197 T02500217 10261 20233 51032=
201107231052 METAR KATL 231052Z 24004KT 10SM FEW250 24/21 A3012 RMK AO2 SLP188 T02390211=
201107230952 METAR KATL 230952Z 21004KT 10SM CLR 24/21 A3009 RMK AO2 SLP178 T02440211=
201107230852 METAR KATL 230852Z 25003KT 10SM CLR 25/21 A3005 RMK AO2 SLP163 T02500211 55004=
201107230752 METAR KATL 230752Z 25006KT 10SM CLR 25/21 A3003 RMK AO2 SLP156 T02500211=
201107230652 METAR KATL 230652Z 23004KT 10SM CLR 26/21 A3004 RMK AO2 SLP159 T02560211=
201107230552 METAR KATL 230552Z 22005KT 10SM CLR 26/22 A3006 RMK AO2 SLP167 T02610217 10317 20261 53002=
201107230452 METAR KATL 230452Z 20004KT 10SM FEW250 27/22 A3006 RMK AO2 SLP166 T02670217 403440239=
201107230352 METAR KATL 230352Z 21004KT 10SM FEW250 28/22 A3006 RMK AO2 SLP165 T02780222=
201107230252 METAR KATL 230252Z 20006KT 10SM FEW090 28/22 A3006 RMK AO2 SLP165 T02830217 51017=
201107230152 METAR KATL 230152Z 17003KT 10SM FEW045 29/21 A3005 RMK AO2 SLP163 T02940211=
201107230052 METAR KATL 230052Z 18003KT 10SM FEW045 SCT250 30/21 A3002 RMK AO2 SLP155 CB DSNT NE S TCU DSNT SW NW T03000211=
201107222352 METAR KATL 222352Z 18007KT 10SM FEW050TCU SCT150 32/21 A3001 RMK AO2 SLP149 CB DSNT N NE SE TCU NW T03170211 10344 20317 55000=
201107222252 METAR KATL 222252Z 20005KT 10SM FEW050TCU SCT070 SCT150 32/19 A3000 RMK AO2 SLP146 CB DSNT SE TCU NW-NE T03220194=
201107222152 METAR KATL 222152Z 20008KT 10SM FEW050TCU SCT070 SCT120 33/20 A3000 RMK AO2 SLP146 CB DSNT SE TCU N-NE W T03280200=
201107222052 METAR KATL 222052Z 18006KT 10SM FEW055TCU SCT110 SCT200 33/19 A3001 RMK AO2 SLP149 CB DSNT SE TCU SW-W-NW TCU DSNT N-NE T03330194 57015=
201107221952 METAR KATL 221952Z 21004KT 10SM SCT055TCU 34/20 A3002 RMK AO2 SLP153 TCU S & W & NW T03390200=
201107221852 METAR KATL 221852Z VRB03KT 10SM SCT050TCU 33/19 A3004 RMK AO2 SLP158 TCU NE & S & SW & W T03330194=
201107221752 METAR KATL 221752Z 00000KT 10SM SCT047TCU 32/19 A3005 RMK AO2 SLP164 TCU E & S & W & NW T03220189 10333 20256 58008=
201107221652 METAR KATL 221652Z 00000KT 10SM SCT040TCU 32/20 A3007 RMK AO2 SLP168 TCU NE & E & NW T03220200=
201107221552 METAR KATL 221552Z VRB05KT 10SM BKN037TCU 31/21 A3007 RMK AO2 SLP172 TCU ALQDS T03110211=
201107221452 METAR KATL 221452Z 27005KT 10SM FEW030 SCT250 31/22 A3008 RMK AO2 SLP172 T03110222 50002=
201107221352 METAR KATL 221352Z 28004KT 7SM FEW250 29/23 A3008 RMK AO2 SLP175 T02890233=
201107221252 METAR KATL 221252Z 29005KT 6SM HZ FEW200 SCT250 27/23 A3008 RMK AO2 SLP176 T02720233=
201107221152 METAR KATL 221152Z 27006KT 5SM HZ SCT250 26/23 A3007 RMK AO2 SLP172 T02560228 10256 20239 53022=
201107221052 METAR KATL 221052Z 22003KT 6SM BR FEW200 SCT250 24/22 A3005 RMK AO2 SLP163 T02390222=
201107220952 METAR KATL 220952Z 00000KT 8SM FEW250 24/22 A3002 RMK AO2 SLP154 T02440222=
201107220852 METAR KATL 220852Z 23003KT 8SM FEW250 24/22 A3000 RMK AO2 SLP148 T02440222 53006=
201107220752 METAR KATL 220752Z 22003KT 9SM FEW250 25/22 A2999 RMK AO2 SLP143 T02500222=
201107220652 METAR KATL 220652Z 00000KT 9SM BKN250 25/22 A2998 RMK AO2 SLP140 T02500222=
201107220552 METAR KATL 220552Z 00000KT 10SM BKN250 26/22 A2999 RMK AO2 SLP142 T02560222 10283 20250 50000=
201107220452 METAR KATL 220452Z 22003KT 10SM FEW150 BKN250 26/23 A2999 RMK AO2 SLP145 T02610228 403330228=
201107220352 METAR KATL 220352Z 00000KT 10SM FEW150 BKN200 27/23 A3000 RMK AO2 SLP147 T02670228=
201107220252 METAR KATL 220252Z 00000KT 10SM SCT150 BKN200 27/22 A2999 RMK AO2 SLP142 T02720217 52009=
201107220152 METAR KATL 220152Z 00000KT 10SM FEW050 BKN200 BKN250 26/23 A2998 RMK AO2 SLP139 T02610228=
201107220052 METAR KATL 220052Z 33004KT 10SM SCT035 BKN200 BKN250 27/23 A2997 RMK AO2 SLP137 T02720228=
201107212352 METAR KATL 212352Z 33011KT 10SM SCT035TCU BKN050 BKN140CB BKN200 28/23 A2996 RMK AO2 SLP134 CBMAM NW-N TCU ALQDS T02830228 10333 20283 53011=
201107212252 METAR KATL 212252Z VRB05KT 9SM SCT040CB BKN055 BKN080 BKN250 32/22 A2994 RMK AO2 TSE31 SLP128 CB NW MOV W TCU OHD-W T03170217=
201107212232 SPECI KATL 212232Z 34005KT 8SM SCT040CB BKN055 BKN250 30/22 A2993 RMK AO2 TSE31 TS DSIPTD CB NW MOV W TCU OHD-W=
201107212232 SPECI KATL 212232Z 34005KT 8SM SCT040CB BKN055 BKN250 30/22 A2993 RMK AO2 TSE31 TS DSIPTD CB NW MOV W TCU OHD-W=
201107212152 METAR KATL 212152Z 26005KT 10SM TS SCT040CB SCT055 BKN080 BKN250 32/22 A2993 RMK AO2 TSB00E23B48 SLP124 OCNL LTGICCG NW-N TS NW-N MOV SLO W TCU SW-NW T03220222=
201107212148 SPECI KATL 212148Z 23004KT 10SM TS SCT040CB SCT055 BKN080 BKN250 32/22 A2993 RMK AO2 TSB00E23B48 OCNL LTGICCG NW-N TS NW-N MOV SLO W TCU SW-NW=
201107212148 SPECI KATL 212148Z 23004KT 10SM TS SCT040CB SCT055 BKN080 BKN250 32/22 A2993 RMK AO2 TSB00E23B48 OCNL LTGICCG NW-N TS NW-N MOV SLO W TCU SW-NW=
201107212123 SPECI KATL 212123Z 21007KT 10SM SCT045CB BKN055 BKN250 32/22 A2994 RMK AO2 TSB00E23 TS DSIPTD CB NW-NE MOV W TCU NE-SE SW-NW SHRA NW-NE=
201107212123 SPECI KATL 212123Z 21007KT 10SM SCT045CB BKN055 BKN250 32/22 A2994 RMK AO2 TSB00E23 TS DSIPTD CB NW-NE MOV W TCU NE-SE SW-NW SHRA NW-NE=
201107212101 SPECI KATL 212101Z 23006KT 10SM TS SCT045CB BKN055 BKN250 33/22 A2993 RMK AO2 TSB00 FRQ LTGICCG NE TS NE MOV SW SHRA NE=
201107212101 SPECI KATL 212101Z 23006KT 10SM TS SCT045CB BKN055 BKN250 33/22 A2993 RMK AO2 TSB00 FRQ LTGICCG NE TS NE MOV SW SHRA NE=
201107212052 METAR KATL 212052Z 23010G14KT 10SM FEW040CB BKN050TCU BKN250 33/22 A2992 RMK AO2 SLP121 CB NE MOV SE TCU E-SE-S & W-NW SHRA NE T03330222 56010=
201107212033 SPECI KATL 212033Z 24010KT 210V270 10SM FEW040CB BKN050 BKN250 33/22 A2993 RMK AO2 CB NE MOV SE SHRA NE=
201107212033 SPECI KATL 212033Z 24010KT 210V270 10SM FEW040CB BKN050 BKN250 33/22 A2993 RMK AO2 CB NE MOV SE SHRA NE=
201107211952 METAR KATL 211952Z 24006KT 9SM FEW040TCU BKN070 BKN250 33/22 A2993 RMK AO2 SLP123 TCU NE-E & W-NW T03280222=
201107211852 METAR KATL 211852Z 25009KT 10SM FEW035TCU BKN070 BKN250 32/23 A2994 RMK AO2 SLP127 TCU NE-E & DSNT NW T03220233=
201107211752 METAR KATL 211752Z 26005KT 10SM FEW030TCU BKN065 BKN250 32/23 A2996 RMK AO2 SLP131 TCU E-SE & NW T03220233 10328 20239 58010=
201107211652 METAR KATL 211652Z 31005KT 10SM BKN027 BKN250 31/23 A2997 RMK AO2 SLP139 T03110233=
201107211552 METAR KATL 211552Z VRB03KT 10SM FEW020 SCT250 30/23 A2998 RMK AO2 SLP140 T03000233=
201107211452 METAR KATL 211452Z 32007KT 10SM FEW020 SCT250 28/23 A2999 RMK AO2 SLP143 T02830233 51006=
201107211352 METAR KATL 211352Z 30008KT 10SM FEW250 27/22 A2998 RMK AO2 SLP143 T02670217=
201107211252 METAR KATL 211252Z 31008KT 10SM SCT250 26/21 A2998 RMK AO2 SLP140 T02560211=
201107211152 METAR KATL 211152Z 28006KT 10SM FEW028 BKN250 24/21 A2997 RMK AO2 SLP139 70008 T02390211 10239 20228 53014=
201107211052 METAR KATL 211052Z 28005KT 10SM SCT028 SCT150 BKN250 23/21 A2996 RMK AO2 SLP135 T02280206=
201107210952 METAR KATL 210952Z 27004KT 10SM BKN250 23/21 A2993 RMK AO2 SLP127 T02280211=
201107210852 METAR KATL 210852Z 24003KT 9SM FEW037 SCT250 23/21 A2993 RMK AO2 SLP125 T02280211 55004=
201107210752 METAR KATL 210752Z 24004KT 9SM FEW037 SCT250 23/22 A2992 RMK AO2 SLP123 T02280217=
201107210652 METAR KATL 210652Z 00000KT 9SM FEW037 BKN220 23/21 A2992 RMK AO2 SLP122 T02330211=
201107210552 METAR KATL 210552Z 27006KT 9SM FEW037 SCT150 OVC220 23/22 A2994 RMK AO2 SLP127 T02330217 10250 20228 58002=
201107210452 METAR KATL 210452Z 27003KT 9SM FEW150 BKN250 23/22 A2996 RMK AO2 SLP132 T02330217 403280228=
201107210352 METAR KATL 210352Z 19004KT 10SM FEW150 BKN250 23/22 A2996 RMK AO2 SLP133 T02330217=
201107210252 METAR KATL 210252Z 32006KT 10SM FEW150 BKN200 BKN250 25/22 A2995 RMK AO2 SLP129 T02500217 53006=
201107210152 METAR KATL 210152Z 00000KT 10SM FEW120 BKN200 OVC250 24/22 A2995 RMK AO2 SLP130 T02390217=
201107210052 METAR KATL 210052Z 27005KT 10SM FEW120 BKN200 BKN250 24/22 A2992 RMK AO2 SLP122 T02440217=
201107202352 METAR KATL 202352Z 23004KT 10SM SCT120 BKN170 OVC200 25/22 A2993 RMK AO2 SLP123 60008 T02500217 10328 20233 56007=
201107202252 METAR KATL 202252Z 00000KT 10SM SCT120 BKN150 OVC200 24/22 A2993 RMK AO2 SLP125 T02440217=
201107202152 METAR KATL 202152Z 26005KT 10SM SCT100 BKN150 BKN200 24/22 A2992 RMK AO2 RAE38 SLP122 P0000 T02440222=
201107202101 SPECI KATL 202101Z 31013KT 8SM -RA FEW008 SCT050 BKN100 OVC150 24/22 A2993 RMK AO2 PRESFR P0000=
201107202101 SPECI KATL 202101Z 31013KT 8SM -RA FEW008 SCT050 BKN100 OVC150 24/22 A2993 RMK AO2 PRESFR P0000=
201107202052 METAR KATL 202052Z 32010KT 6SM -RA BR FEW010 SCT050 BKN110 OVC150 24/22 A2995 RMK AO2 PK WND 32027/1956 WSHFT 1940 TSE34RAB06 SLP132 P0008 60008 T02390222 53005=
201107202034 SPECI KATL 202034Z 30009KT 6SM -RA BR BKN012 BKN055 OVC100 24/22 A2996 RMK AO2 PK WND 32027/1956 WSHFT 1940 TSE34RAB06 CB DSNT E & W TS MOV S P0003=
201107202034 SPECI KATL 202034Z 30009KT 6SM -RA BR BKN012 BKN055 OVC100 24/22 A2996 RMK AO2 PK WND 32027/1956 WSHFT 1940 TSE34RAB06 CB DSNT E & W TS MOV S P0003=
201107202022 SPECI KATL 202022Z 00000KT 6SM -TSRA FEW012 SCT020CB BKN040 OVC150 24/22 A2997 RMK AO2 PK WND 32027/1956 WSHFT 1940 RAB06 VIS LWR E & S SHRA FRQ LTGICCG E & S TS E & S MOV S P0001=
201107202022 SPECI KATL 202022Z 00000KT 6SM -TSRA FEW012 SCT020CB BKN040 OVC150 24/22 A2997 RMK AO2 PK WND 32027/1956 WSHFT 1940 RAB06 VIS LWR E & S SHRA FRQ LTGICCG E & S TS E & S MOV S P0001=
201107202016 SPECI KATL 202016Z VRB03KT 7SM TS FEW012 SCT020CB BKN040 OVC150 24/21 A2998 RMK AO2 PK WND 32027/1956 WSHFT 1940 RAB06E15 PRESRR VIS LWR NE-E SHRA FRQ LTGICCG OHD-NE-E TS OHD-NE-E MOV S P0000=
201107202016 SPECI KATL 202016Z VRB03KT 7SM TS FEW012 SCT020CB BKN040 OVC150 24/21 A2998 RMK AO2 PK WND 32027/1956 WSHFT 1940 RAB06E15 PRESRR VIS LWR NE-E SHRA FRQ LTGICCG OHD-NE-E TS OHD-NE-E MOV S P0000=
201107202011 SPECI KATL 202011Z 32010G21KT 7SM -TSRA FEW012 BKN020CB OVC040 24/21 A2997 RMK AO2 PK WND 32027/1956 WSHFT 1940 RAB06 VIS LWR N-NE-E SHRA FRQ LTGICCG N-NE-E TS N-NE-E MOV S P0000=
201107202011 SPECI KATL 202011Z 32010G21KT 7SM -TSRA FEW012 BKN020CB OVC040 24/21 A2997 RMK AO2 PK WND 32027/1956 WSHFT 1940 RAB06 VIS LWR N-NE-E SHRA FRQ LTGICCG N-NE-E TS N-NE-E MOV S P0000=
201107202000 SPECI KATL 202000Z 30018G30KT 10SM TS FEW012 BKN020CB OVC040 26/21 A2995 RMK AO2 PK WND 32027/1956 WSHFT 1940 FRQ LTGICCG NW-N-NE TS NW-N-NE MOV S SHRA NW-N-NE=
201107202000 SPECI KATL 202000Z 30018G30KT 10SM TS FEW012 BKN020CB OVC040 26/21 A2995 RMK AO2 PK WND 32027/1956 WSHFT 1940 FRQ LTGICCG NW-N-NE TS NW-N-NE MOV S SHRA NW-N-NE=
201107201952 METAR KATL 201952Z 31023G30KT 10SM TS BKN020CB BKN040 OVC080 27/22 A2995 RMK AO2 PK WND 30030/1951 TSB12 SLP130 FRQ LTGICCG NW-N-NE TS NW-N-NE MOV S SHRA NW-N-NE T02670217=
201107201947 SPECI KATL 201947Z 29021G28KT 10SM TS BKN020CB BKN040 OVC080 28/22 A2994 RMK AO2 PK WND 30028/1947 TSB12 FRQ LTGICCG NW-N-NE TS NW-N-NE MOV S SHRA NW-N-NE=
201107201947 SPECI KATL 201947Z 29021G28KT 10SM TS BKN020CB BKN040 OVC080 28/22 A2994 RMK AO2 PK WND 30028/1947 TSB12 FRQ LTGICCG NW-N-NE TS NW-N-NE MOV S SHRA NW-N-NE=
201107201933 SPECI KATL 201933Z 25014G23KT 10SM TS FEW040CB BKN080 BKN200 29/22 A2991 RMK AO2 TSB12 CONS LTGICCG NW-N TS NW-N MOV S CB DSNT E & S SHRA NW-N=
201107201933 SPECI KATL 201933Z 25014G23KT 10SM TS FEW040CB BKN080 BKN200 29/22 A2991 RMK AO2 TSB12 CONS LTGICCG NW-N TS NW-N MOV S CB DSNT E & S SHRA NW-N=
201107201912 SPECI KATL 201912Z 24016G20KT 10SM TS FEW040CB SCT080 SCT200 29/22 A2992 RMK AO2 TSB12 FRQ LTGICCG NW-N TS VC NW-N MOV S CB DSNT E & S SHRA VC NW-N=
201107201912 SPECI KATL 201912Z 24016G20KT 10SM TS FEW040CB SCT080 SCT200 29/22 A2992 RMK AO2 TSB12 FRQ LTGICCG NW-N TS VC NW-N MOV S CB DSNT E & S SHRA VC NW-N=
201107201852 METAR KATL 201852Z COR 24011G20KT 10SM BKN040CB BKN150 BKN250 29/21 A2992 RMK AO2 RAE1757 SLP119 CB OHD-W-NW MOV SE CB DSNT NE & S SHRA W-NW P0000 T02940211=
201107201752 METAR KATL 201752Z 19006KT 8SM -RA FEW035CB BKN150 BKN250 30/24 A2993 RMK AO2 RAB50 SLP124 CB SE & DSNT SW MOV STNRY SHRA SE P0000 60000 T03000239 10322 20267 58010=
201107201725 SPECI KATL 201725Z 00000KT 9SM FEW037CB BKN150 BKN250 32/22 A2994 RMK AO2 CB NE & SE & DSNT SW MOV STNRY SHRA NE & SE & DSNT SW=
201107201725 SPECI KATL 201725Z 00000KT 9SM FEW037CB BKN150 BKN250 32/22 A2994 RMK AO2 CB NE & SE & DSNT SW MOV STNRY SHRA NE & SE & DSNT SW=
201107201713 SPECI KATL 201713Z 23005KT 9SM FEW037CB SCT150 SCT250 32/23 A2995 RMK AO2 CB NE-SE MOV S SHRA NE-SE=
201107201713 SPECI KATL 201713Z 23005KT 9SM FEW037CB SCT150 SCT250 32/23 A2995 RMK AO2 CB NE-SE MOV S SHRA NE-SE=
201107201652 METAR KATL 201652Z 30007KT 9SM SCT040TCU BKN150 BKN250 32/23 A2995 RMK AO2 SLP129 TCU NE-E T03220233=
201107201552 METAR KATL 201552Z 00000KT 9SM FEW035 SCT150 SCT250 31/22 A2996 RMK AO2 SLP131 T03110222=
201107201452 METAR KATL 201452Z VRB03KT 9SM FEW030 SCT150 BKN200 31/22 A2996 RMK AO2 SLP134 T03060222 51006=
201107201352 METAR KATL 201352Z 32008KT 7SM FEW150 SCT200 BKN250 29/23 A2996 RMK AO2 SLP134 T02940233=
201107201252 METAR KATL 201252Z 32008KT 7SM FEW150 SCT250 28/23 A2995 RMK AO2 SLP130 T02830228=
201107201152 METAR KATL 201152Z 31006KT 6SM HZ FEW060 SCT100 SCT250 27/23 A2995 RMK AO2 SLP129 70003 T02670228 10272 20261 53007=
201107201052 METAR KATL 201052Z COR 32007KT 6SM HZ BKN080 BKN100 BKN250 26/22 A2994 RMK AO2 SLP127 CB DSNT SE T02610222=
201107200952 METAR KATL 200952Z 31006KT 7SM SCT120 26/22 A2993 RMK AO2 SLP123 T02610222=
201107200852 METAR KATL 200852Z 30006KT 7SM BKN110 BKN180 27/22 A2992 RMK AO2 SLP119 T02670222 55002=
201107200752 METAR KATL 200752Z 31008KT 7SM BKN095 BKN120 27/22 A2992 RMK AO2 SLP117 T02670222=
201107200652 METAR KATL 200652Z 31007KT 7SM SCT100 BKN150 27/22 A2993 RMK AO2 SLP120 T02670222=
201107200552 METAR KATL 200552Z 29006KT 8SM SCT100 OVC120 27/22 A2993 RMK AO2 SLP121 T02720222 10283 20267 58005=
201107200452 METAR KATL 200452Z 30006KT 9SM FEW075 BKN120 OVC250 27/22 A2994 RMK AO2 SLP127 T02720222 403440228=
201107200352 METAR KATL 200352Z 29005KT 9SM BKN110 OVC250 27/22 A2995 RMK AO2 SLP130 T02720217=
201107200252 METAR KATL 200252Z 27004KT 9SM FEW150 BKN250 28/22 A2994 RMK AO2 SLP127 T02780217 53006=
201107200152 METAR KATL 200152Z 23003KT 9SM FEW150 BKN250 27/23 A2994 RMK AO2 SLP126 T02670228=
201107200052 METAR KATL 200052Z 00000KT 8SM FEW150 BKN250 27/23 A2993 RMK AO2 SLP124 T02670228=
201107192352 METAR KATL 192352Z 00000KT 8SM FEW050 SCT070 SCT150 BKN250 27/23 A2993 RMK AO2 RAE17 SLP123 P0000 60003 T02720228 10344 20261 56002=
201107192252 METAR KATL 192252Z 16005KT 9SM -RA SCT055CB BKN070 BKN120 28/21 A2993 RMK AO2 SLP123 CB NE-E S MOV SW P0003 T02830211 $=
201107192152 METAR KATL 192152Z 31010KT 8SM -RA SCT055CB BKN090 BKN120 31/20 A2993 RMK AO2 RAB48 SLP124 CB OHD MOV SW P0000 T03110200=
201107192052 METAR KATL 192052Z 27007KT 10SM FEW055 BKN085 34/19 A2993 RMK AO2 SLP124 T03390194 56026=
201107191952 METAR KATL 191952Z 25003G14KT 10SM FEW055 SCT090 33/19 A2996 RMK AO2 SLP131 T03330194=
201107191852 METAR KATL 191852Z 30007G14KT 10SM SCT060 33/20 A2999 RMK AO2 SLP143 T03280200=
201107191752 METAR KATL 191752Z 29009KT 10SM SCT050 32/19 A3001 RMK AO2 SLP151 T03170194 10333 20239 58007=
201107191652 METAR KATL 191652Z VRB05KT 10SM FEW040 SCT250 32/19 A3002 RMK AO2 SLP155 T03220194=
201107191552 METAR KATL 191552Z 33008KT 10SM FEW040 SCT250 31/21 A3003 RMK AO2 SLP158 T03060211=
201107191452 METAR KATL 191452Z 33007KT 10SM FEW250 29/21 A3003 RMK AO2 SLP158 T02940211 51007=
201107191352 METAR KATL 191352Z 32007KT 10SM FEW250 27/21 A3003 RMK AO2 SLP157 T02720211=
201107191252 METAR KATL 191252Z 32008KT 10SM FEW250 26/21 A3002 RMK AO2 SLP154 T02560211=
201107191152 METAR KATL 191152Z 31008KT 9SM BKN250 24/21 A3001 RMK AO2 SLP151 70003 T02390206 10244 20228 53006=
201107191052 METAR KATL 191052Z 32006KT 9SM FEW150 SCT250 23/21 A3001 RMK AO2 SLP150 T02330206 $=
201107190952 METAR KATL 190952Z 28004KT 10SM SCT250 23/21 A3000 RMK AO2 SLP146 T02280206 $=
201107190852 METAR KATL 190852Z 21003KT 7SM FEW150 23/21 A2999 RMK AO2 SLP146 T02280211 58016 $=
201107190752 METAR KATL 190752Z 19004KT 7SM FEW090 SCT100 23/22 A3001 RMK AO2 SLP152 T02330217 $=
201107190652 METAR KATL 190652Z 24003KT 10SM FEW060 SCT120 BKN150 24/22 A3003 RMK AO2 SLP157 T02440217 $=
201107190552 METAR KATL 190552Z 19003KT 9SM SCT075 SCT090 OVC120 24/22 A3004 RMK AO2 RAE44 SLP162 P0001 60003 T02440217 10294 20244 58003 $=
201107190452 METAR KATL 190452Z 19007KT 8SM -RA SCT045 BKN060 OVC100 25/22 A3006 RMK AO2 RAB03 SLP169 P0002 T02500217 403170222 $=
201107190352 METAR KATL 190352Z 29005KT 10SM FEW030 BKN060 BKN110 27/20 A3006 RMK AO2 SLP167 T02670200 $=
201107190252 METAR KATL 190252Z 28006KT 10SM SCT050 SCT100 27/20 A3005 RMK AO2 SLP164 T02670200 53004 $=
201107190152 METAR KATL 190152Z 27005KT 10SM FEW045 27/19 A3004 RMK AO2 SLP162 T02720194=
201107190052 METAR KATL 190052Z 27006KT 10SM FEW080 SCT110 28/19 A3003 RMK AO2 SLP158 T02830189=
201107182352 METAR KATL 182352Z 26003KT 10SM FEW050 BKN080 BKN110 29/19 A3004 RMK AO2 SLP161 CB DSNT SE T02940189 10317 20289 56009=
201107182252 METAR KATL 182252Z 29008KT 10SM FEW050TCU SCT080 BKN110 30/18 A3004 RMK AO2 SLP163 CB DSNT NE NW TCU SE S-SW T03000183=
201107182152 METAR KATL 182152Z 29008KT 10SM SCT050 BKN100 32/18 A3005 RMK AO2 SLP166 T03170183=
201107182052 METAR KATL 182052Z 32004KT 10SM SCT050 31/18 A3007 RMK AO2 SLP170 T03060183 56022=
201107181952 METAR KATL 181952Z VRB06KT 10SM SCT050 31/19 A3008 RMK AO2 SLP175 T03060189=
201107181852 METAR KATL 181852Z 00000KT 10SM SCT045 BKN065 BKN100 29/18 A3011 RMK AO2 SLP186 T02940178=
201107181752 METAR KATL 181752Z 30006KT 10SM BKN047 BKN120 30/19 A3013 RMK AO2 SLP193 T03000189 10306 20239 58013=
201107181652 METAR KATL 181652Z 00000KT 10SM SCT050 29/17 A3015 RMK AO2 SLP198 T02940172=
201107181552 METAR KATL 181552Z VRB03KT 10SM SCT045 28/17 A3016 RMK AO2 SLP202 T02830172=
201107181452 METAR KATL 181452Z 00000KT 10SM FEW150 28/18 A3017 RMK AO2 SLP206 T02830178 58000=
201107181352 METAR KATL 181352Z 00000KT 10SM FEW150 26/18 A3018 RMK AO2 SLP208 T02610178=
201107181252 METAR KATL 181252Z 00000KT 10SM FEW150 25/18 A3018 RMK AO2 SLP209 T02500178=
201107181152 METAR KATL 181152Z VRB03KT 10SM FEW150 24/18 A3017 RMK AO2 SLP207 T02390178 10239 20222 53010=
201107181052 METAR KATL 181052Z 13004KT 10SM FEW150 23/17 A3016 RMK AO2 SLP202 T02280172=
201107180952 METAR KATL 180952Z 00000KT 10SM FEW250 23/17 A3014 RMK AO2 SLP196 T02280172 $=
201107180852 METAR KATL 180852Z 00000KT 10SM CLR 23/17 A3014 RMK AO2 SLP197 T02280172 55008 $=
201107180752 METAR KATL 180752Z 09004KT 10SM CLR 23/18 A3014 RMK AO2 SLP196 T02280178 $=
201107180652 METAR KATL 180652Z 08004KT 10SM CLR 23/18 A3015 RMK AO2 SLP200 T02280178 $=
201107180552 METAR KATL 180552Z 09003KT 10SM CLR 23/18 A3017 RMK AO2 SLP204 T02330178 10283 20233 58001 $=
201107180452 METAR KATL 180452Z 09004KT 10SM CLR 23/18 A3017 RMK AO2 SLP207 T02330178 403060211 $=
201107180352 METAR KATL 180352Z 13003KT 10SM CLR 26/17 A3017 RMK AO2 SLP206 T02560172 $=
201107180252 METAR KATL 180252Z 09005KT 10SM CLR 25/18 A3017 RMK AO2 SLP206 T02500178 53007 $=
201107180152 METAR KATL 180152Z 10005KT 10SM CLR 26/17 A3016 RMK AO2 SLP202 T02610167 $=
201107180052 METAR KATL 180052Z 12003KT 10SM FEW070 27/17 A3015 RMK AO2 SLP201 T02720167 $=
201107172352 METAR KATL 172352Z VRB06KT 10SM FEW045 SCT070 SCT200 28/17 A3015 RMK AO2 SLP199 T02830172 10306 20278 56010 $=
201107172252 METAR KATL 172252Z 07004KT 10SM FEW040 SCT065 29/18 A3015 RMK AO2 SLP201 T02890178 $=
201107172152 METAR KATL 172152Z 08007KT 10SM FEW045 BKN060 28/18 A3017 RMK AO2 SLP206 T02830178 $=
201107172052 METAR KATL 172052Z 12010KT 10SM FEW045 BKN060 28/16 A3018 RMK AO2 SLP210 T02830161 58010 $=
201107171952 METAR KATL 171952Z 09012G17KT 10SM SCT055 28/17 A3019 RMK AO2 SLP214 T02830167 $=
201107171852 METAR KATL 171852Z 12007G15KT 080V140 10SM SCT055 29/16 A3020 RMK AO2 SLP216 T02940156 $=
201107171752 METAR KATL 171752Z 08011G16KT 060V120 10SM SCT042 28/16 A3021 RMK AO2 SLP220 T02830161 10289 20217 58001 $=
201107171652 METAR KATL 171652Z 09011G15KT 10SM SCT038 28/17 A3022 RMK AO2 SLP224 T02780172 $=
201107171552 METAR KATL 171552Z 06011KT 10SM SCT032 27/18 A3022 RMK AO2 SLP224 T02720178 $=
201107171452 METAR KATL 171452Z 09010KT 10SM SCT025 26/18 A3021 RMK AO2 SLP221 T02610178 51005 $=
201107171352 METAR KATL 171352Z 12009KT 10SM CLR 24/18 A3021 RMK AO2 SLP220 T02440183 $=
201107171252 METAR KATL 171252Z 10010KT 10SM CLR 23/19 A3021 RMK AO2 SLP220 T02280189 $=
201107171152 METAR KATL 171152Z 08009KT 10SM FEW015 SCT070 22/19 A3020 RMK AO2 SLP217 60001 70001 T02170194 10239 20211 51015 $=
201107171052 METAR KATL 171052Z 09006KT 10SM FEW015 BKN070 22/19 A3018 RMK AO2 SLP210 T02170194 $=
201107170959 SPECI KATL 170959Z 07008KT 10SM SCT008 BKN014 OVC070 22/20 A3017 RMK AO2 $=
201107170959 SPECI KATL 170959Z 07008KT 10SM SCT008 BKN014 OVC070 22/20 A3017 RMK AO2 $=
201107170952 METAR KATL 170952Z 08008KT 10SM FEW010 BKN014 OVC065 22/20 A3017 RMK AO2 SLP207 T02170200 $=
201107170941 SPECI KATL 170941Z 07009KT 10SM OVC012 22/20 A3017 RMK AO2 $=
201107170941 SPECI KATL 170941Z 07009KT 10SM OVC012 22/20 A3017 RMK AO2 $=
201107170852 METAR KATL 170852Z 08006KT 10SM FEW009 SCT018 BKN022 22/21 A3015 RMK AO2 SLP201 60001 T02220206 53005 $=
201107170820 SPECI KATL 170820Z 10007KT 10SM BKN009 BKN016 23/21 A3014 RMK AO2 $=
201107170820 SPECI KATL 170820Z 10007KT 10SM BKN009 BKN016 23/21 A3014 RMK AO2 $=
201107170752 METAR KATL 170752Z 12006KT 10SM FEW008 BKN011 OVC070 23/21 A3014 RMK AO2 SLP196 T02280211=
201107170727 SPECI KATL 170727Z 12004KT 10SM BKN008 BKN036 OVC046 23/21 A3014 RMK AO2=
201107170727 SPECI KATL 170727Z 12004KT 10SM BKN008 BKN036 OVC046 23/21 A3014 RMK AO2=
201107170720 SPECI KATL 170720Z 12004KT 10SM FEW008 BKN014 OVC046 23/21 A3014 RMK AO2=
201107170720 SPECI KATL 170720Z 12004KT 10SM FEW008 BKN014 OVC046 23/21 A3014 RMK AO2=
201107170652 METAR KATL 170652Z 13005KT 10SM SCT030 BKN036 OVC055 23/21 A3014 RMK AO2 RAB07E50 SLP195 P0001 T02280206=
201107170638 SPECI KATL 170638Z 14006KT 5SM -RA BR FEW021 BKN034 OVC041 22/21 A3014 RMK AO2 RAB07 P0001=
201107170638 SPECI KATL 170638Z 14006KT 5SM -RA BR FEW021 BKN034 OVC041 22/21 A3014 RMK AO2 RAB07 P0001=
201107170552 METAR KATL 170552Z 12009KT 10SM BKN016 BKN020 BKN031 24/21 A3014 RMK AO2 SLP195 T02390206 10272 20239 50004=
201107170455 SPECI KATL 170455Z 13006KT 10SM BKN018 BKN029 BKN040 24/21 A3014 RMK AO2=
201107170455 SPECI KATL 170455Z 13006KT 10SM BKN018 BKN029 BKN040 24/21 A3014 RMK AO2=
201107170452 METAR KATL 170452Z 12007KT 10SM SCT018 BKN032 BKN040 24/21 A3014 RMK AO2 SLP196 T02440206 402940183=
201107170352 METAR KATL 170352Z 13005KT 10SM SCT026 OVC050 26/20 A3014 RMK AO2 SLP197 T02560200=
201107170252 METAR KATL 170252Z 10008KT 10SM OVC055 26/19 A3012 RMK AO2 SLP192 T02560189 53011=
201107170152 METAR KATL 170152Z 08010KT 10SM FEW049 BKN060 26/18 A3010 RMK AO2 SLP184 T02610183=
201107170052 METAR KATL 170052Z 09011KT 10SM BKN060 BKN085 BKN120 27/18 A3009 RMK AO2 SLP180 T02670183=
201107162352 METAR KATL 162352Z 08012KT 10SM FEW045 BKN080 BKN120 BKN250 27/18 A3009 RMK AO2 SLP181 T02720183 10294 20267 51005=
201107162252 METAR KATL 162252Z 10008KT 10SM FEW040TCU SCT060 SCT075 28/18 A3009 RMK AO2 SLP181 TCU OHD T02830183=
201107162152 METAR KATL 162152Z 11011G18KT 10SM SCT043 BKN050 29/18 A3008 RMK AO2 SLP177 T02890178=
201107162052 METAR KATL 162052Z 11011KT 10SM SCT041 29/18 A3008 RMK AO2 SLP175 T02890178 55010=
201107161952 METAR KATL 161952Z 08012KT 10SM SCT038 29/18 A3007 RMK AO2 SLP175 T02890183 $=
201107161852 METAR KATL 161852Z 10013G17KT 10SM BKN034 BKN040 28/18 A3009 RMK AO2 SLP181 T02780183 $=
201107161752 METAR KATL 161752Z 11013G19KT 10SM FEW019 SCT030 BKN070 27/19 A3011 RMK AO2 SLP186 T02720189 10272 20194 50000 $=
201107161652 METAR KATL 161652Z 11008G15KT 9SM SCT014 BKN060 BKN080 25/20 A3012 RMK AO2 SLP190 T02500200 $=
201107161611 SPECI KATL 161611Z 08011KT 8SM SCT010 OVC049 23/19 A3012 RMK AO2 $=
201107161611 SPECI KATL 161611Z 08011KT 8SM SCT010 OVC049 23/19 A3012 RMK AO2 $=
201107161552 METAR KATL 161552Z 09012KT 8SM BKN010 BKN049 OVC055 22/19 A3012 RMK AO2 SLP191 T02170189 $=
201107161524 SPECI KATL 161524Z 08011KT 7SM BKN010 OVC024 22/19 A3011 RMK AO2 $=
201107161524 SPECI KATL 161524Z 08011KT 7SM BKN010 OVC024 22/19 A3011 RMK AO2 $=
201107161452 METAR KATL 161452Z 09006KT 6SM HZ OVC008 21/18 A3011 RMK AO2 SLP188 T02110183 53012 $=
201107161352 METAR KATL 161352Z 08011KT 6SM BR BKN008 OVC012 20/18 A3009 RMK AO2 SLP183 T02000183=
201107161300 SPECI KATL 161300Z 08010KT 6SM BR BKN008 OVC012 20/18 A3009 RMK AO2=
201107161300 SPECI KATL 161300Z 08010KT 6SM BR BKN008 OVC012 20/18 A3009 RMK AO2=
201107161252 METAR KATL 161252Z 08010KT 6SM BR BKN010 OVC020 19/18 A3008 RMK AO2 SLP180 T01940178=
201107161152 METAR KATL 161152Z 08008KT 10SM OVC012 19/17 A3007 RMK AO2 PK WND 35029/1137 SLP175 60004 70004 T01940172 10206 20183 53009=
201107161052 METAR KATL 161052Z 08008KT 6SM BR SCT007 OVC012 18/17 A3006 RMK AO2 DZE12RAB12E13 SLP171 P0001 T01830172=
201107161048 SPECI KATL 161048Z 07009KT 6SM BR SCT007 OVC012 18/17 A3005 RMK AO2 DZE12RAB12E13 P0001=
201107161048 SPECI KATL 161048Z 07009KT 6SM BR SCT007 OVC012 18/17 A3005 RMK AO2 DZE12RAB12E13 P0001=
201107161028 SPECI KATL 161028Z 07010KT 9SM BKN007 OVC012 18/17 A3005=
201107161028 SPECI KATL 161028Z 07010KT 9SM BKN007 OVC012 18/17 A3005 RMK AO2 DZE12RAB12E13 CIG 004V009 P0001=
201107160952 METAR KATL 160952Z 09008KT 5SM -DZ BR FEW007 BKN012 OVC020 18/17 A3004 RMK AO2 RAE30DZB39 SLP166 P0001 T01830172=
201107160939 SPECI KATL 160939Z 08010KT 6SM -DZ BR FEW007 OVC012 18/17 A3004 RMK AO2 RAE30DZB39 P0001=
201107160939 SPECI KATL 160939Z 08010KT 6SM -DZ BR FEW007 OVC012 18/17 A3004 RMK AO2 RAE30DZB39 P0001=
201107160852 METAR KATL 160852Z 08010KT 4SM -RA BR BKN012 BKN036 OVC044 18/17 A3004 RMK AO2 RAB00 SLP165 P0002 60002 T01830167 53003=
201107160752 METAR KATL 160752Z 09011KT 10SM OVC014 19/16 A3003 RMK AO2 SLP163 T01940161=
201107160652 METAR KATL 160652Z 07011KT 10SM BKN014 OVC018 20/16 A3003 RMK AO2 SLP162 T02000161=
201107160618 SPECI KATL 160618Z 08013KT 10SM BKN014 OVC018 20/17 A3003 RMK AO2=
201107160618 SPECI KATL 160618Z 08013KT 10SM BKN014 OVC018 20/17 A3003 RMK AO2=
201107160552 METAR KATL 160552Z 07011KT 10SM BKN016 OVC020 21/17 A3003 RMK AO2 SLP160 T02060167 10239 20206 51001=
201107160452 METAR KATL 160452Z 08014KT 10SM FEW012 OVC020 21/17 A3003 RMK AO2 SLP160 T02060167 402670206=
201107160352 METAR KATL 160352Z 07013KT 10SM FEW012 OVC020 21/17 A3004 RMK AO2 SLP163 T02110172=
201107160330 SPECI KATL 160330Z 07012KT 10SM FEW010 BKN022 OVC045 22/18 A3003 RMK AO2=
201107160330 SPECI KATL 160330Z 07012KT 10SM FEW010 BKN022 OVC045 22/18 A3003 RMK AO2=
201107160309 SPECI KATL 160309Z 08011KT 10SM FEW020 BKN030 BKN200 22/18 A3003 RMK AO2=
201107160309 SPECI KATL 160309Z 08011KT 10SM FEW020 BKN030 BKN200 22/18 A3003 RMK AO2=
201107160252 METAR KATL 160252Z 07012KT 10SM FEW018 BKN028 22/18 A3002 RMK AO2 SLP158 T02170178 53013=
201107160152 METAR KATL 160152Z 07013KT 10SM BKN026 BKN034 OVC050 23/18 A3000 RMK AO2 SLP149 T02280183=
201107160110 SPECI KATL 160110Z 08014KT 10SM FEW020 BKN026 OVC035 23/18 A2999 RMK AO2=
201107160110 SPECI KATL 160110Z 08014KT 10SM FEW020 BKN026 OVC035 23/18 A2999 RMK AO2=
201107160052 METAR KATL 160052Z 08011KT 10SM SCT027 BKN034 OVC060 23/18 A2999 RMK AO2 PK WND 11026/0013 SLP148 T02280183=
201107152352 METAR KATL 152352Z 07012KT 10SM FEW017 OVC025 24/19 A2999 RMK AO2 SLP145 60000 T02390194 10250 20228 53004=
201107152252 METAR KATL 152252Z 09014G21KT 10SM FEW017 OVC025 24/19 A2998 RMK AO2 SLP141 T02440189=
201107152152 METAR KATL 152152Z 09012KT 10SM FEW015 OVC024 24/20 A2997 RMK AO2 SLP140 T02440200=
201107152052 METAR KATL 152052Z 09013KT 10SM SCT011 BKN015 OVC020 23/21 A2997 RMK AO2 DZE27 SLP140 P0000 60000 T02330206 56006=
201107152042 SPECI KATL 152042Z 08011KT 10SM BKN011 BKN015 OVC020 23/21 A2997 RMK AO2 DZE27 P0000=
201107152042 SPECI KATL 152042Z 08011KT 10SM BKN011 BKN015 OVC020 23/21 A2997 RMK AO2 DZE27 P0000=
201107151952 METAR KATL 151952Z 08011KT 7SM -DZ BKN007 BKN013 OVC020 23/21 A2998 RMK AO2 RAE24DZB24 SLP144 P0000 T02280211=
201107151924 SPECI KATL 151924Z 07014G21KT 3SM -DZ BR BKN007 BKN013 OVC020 23/22 A2998 RMK AO2 SFC VIS 4 RAE24DZB24 P0000=
201107151924 SPECI KATL 151924Z 07014G21KT 3SM -DZ BR BKN007 BKN013 OVC020 23/22 A2998 RMK AO2 SFC VIS 4 RAE24DZB24 P0000=
201107151859 SPECI KATL 151859Z 08016KT 2 1/2SM -RA BR BKN010 BKN015 OVC020 23/22 A2998 RMK AO2 TWR VIS 3 P0000=
201107151859 SPECI KATL 151859Z 08016KT 2 1/2SM -RA BR BKN010 BKN015 OVC020 23/22 A2998 RMK AO2 TWR VIS 3 P0000=
201107151852 METAR KATL 151852Z 08014KT 3SM -RA BR BKN010 BKN015 OVC020 23/21 A2998 RMK AO2 SFC VIS 4 RAB36 SLP143 P0000 T02330211=
201107151759 SPECI KATL 151759Z 09013KT 5SM HZ BKN010 BKN015 OVC020 25/21 A2999 RMK AO2=
201107151759 SPECI KATL 151759Z 09013KT 5SM HZ BKN010 BKN015 OVC020 25/21 A2999 RMK AO2=
201107151752 METAR KATL 151752Z 08014KT 5SM HZ BKN008 BKN015 OVC020 24/21 A2999 RMK AO2 SLP147 T02440211 10267 20233 50000=
201107151656 SPECI KATL 151656Z 08014KT 5SM HZ BKN010 BKN015 OVC030 24/22 A3000 RMK AO2=
201107151656 SPECI KATL 151656Z 08014KT 5SM HZ BKN010 BKN015 OVC030 24/22 A3000 RMK AO2=
201107151652 METAR KATL 151652Z 08016KT 6SM HZ BKN015 BKN020 OVC030 24/22 A3000 RMK AO2 SLP150 T02440217=
201107151559 SPECI KATL 151559Z 08012KT 6SM HZ SCT013 BKN020 OVC030 26/22 A2999 RMK AO2=
201107151559 SPECI KATL 151559Z 08012KT 6SM HZ SCT013 BKN020 OVC030 26/22 A2999 RMK AO2=
201107151552 METAR KATL 151552Z 10012KT 6SM HZ BKN013 BKN022 OVC036 26/22 A2999 RMK AO2 SLP147 T02560217=
201107151507 SPECI KATL 151507Z 08012KT 7SM BKN015 OVC030 26/22 A2999 RMK AO2=
201107151507 SPECI KATL 151507Z 08012KT 7SM BKN015 OVC030 26/22 A2999 RMK AO2=
201107151452 METAR KATL 151452Z 09012KT 6SM HZ BKN013 BKN020 OVC030 26/22 A2999 RMK AO2 SLP147 T02560222 50006=
201107151425 SPECI KATL 151425Z 10008KT 3SM HZ SCT009 BKN020 OVC030 25/22 A2999 RMK AO2 SFC VIS 6=
201107151425 SPECI KATL 151425Z 10008KT 3SM HZ SCT009 BKN020 OVC030 25/22 A2999 RMK AO2 SFC VIS 6=
201107151352 METAR KATL 151352Z 10009KT 3SM BR BKN007 BKN010 OVC020 24/22 A2999 RMK AO2 SFC VIS 5 SLP148 T02390217=
201107151252 METAR KATL 151252Z 08012G16KT 3SM BR BKN007 OVC012 24/22 A2998 RMK AO2 SFC VIS 6 SLP140 T02390217=
201107151152 METAR KATL 151152Z 08010KT 3SM BKN005 OVC012 23/22 A2997 RMK AO2 SFC VIS 8 SLP138 70101 T02330217 10233 20228 53014=
201107151139 SPECI KATL 151139Z 08010KT 3SM BKN005 OVC012 23/21 A2997 RMK AO2 SFC VIS 8=
201107151139 SPECI KATL 151139Z 08010KT 3SM BKN005 OVC012 23/21 A2997 RMK AO2 SFC VIS 8=
201107151052 METAR KATL 151052Z 08009KT 3SM SCT005 BKN015 OVC060 23/21 A2995 RMK AO2 SFC VIS 8 SLP130 T02280211=
201107151036 SPECI KATL 151036Z 08010KT 3SM SCT005 BKN015 BKN060 OVC150 23/21 A2994 RMK AO2 SFC VIS 9=
201107151036 SPECI KATL 151036Z 08010KT 3SM SCT005 BKN015 BKN060 OVC150 23/21 A2994 RMK AO2 SFC VIS 9=
201107151032 SPECI KATL 151032Z 08009KT 10SM SCT005 BKN015 BKN060 OVC150 23/21 A2994 RMK AO2=
201107151032 SPECI KATL 151032Z 08009KT 10SM SCT005 BKN015 BKN060 OVC150 23/21 A2994 RMK AO2=
201107150952 METAR KATL 150952Z 08008KT 10SM SCT005 SCT020 BKN060 OVC150 23/21 A2993 RMK AO2 SLP125 T02280211=
201107150944 SPECI KATL 150944Z 08009KT 10SM FEW005 SCT020 OVC150 23/21 A2993 RMK AO2=
201107150944 SPECI KATL 150944Z 08009KT 10SM FEW005 SCT020 OVC150 23/21 A2993 RMK AO2=
201107150852 METAR KATL 150852Z 08009KT 10SM SCT005 BKN020 OVC150 23/21 A2993 RMK AO2 SLP124 T02280211 58002=
201107150758 SPECI KATL 150758Z 08007KT 10SM SCT005 BKN020 OVC150 23/21 A2994 RMK AO2=
201107150758 SPECI KATL 150758Z 08007KT 10SM SCT005 BKN020 OVC150 23/21 A2994 RMK AO2=
201107150752 METAR KATL 150752Z 08008KT 10SM BKN005 BKN023 OVC150 23/21 A2994 RMK AO2 SLP126 T02280211=
201107150728 SPECI KATL 150728Z 08009KT 10SM BKN005 BKN023 OVC150 23/21 A2994 RMK AO2=
201107150728 SPECI KATL 150728Z 08009KT 10SM BKN005 BKN023 OVC150 23/21 A2994 RMK AO2=
201107150652 METAR KATL 150652Z 09006KT 10SM FEW005 BKN150 OVC250 23/21 A2994 RMK AO2 SLP128 T02330211=
201107150552 METAR KATL 150552Z 13003KT 10SM FEW004 SCT100 OVC150 23/22 A2994 RMK AO2 SLP126 60101 T02330217 10306 20228 58008=
201107150452 METAR KATL 150452Z 11006KT 10SM SCT006 BKN100 OVC150 23/22 A2996 RMK AO2 RAE22 SLP133 SCT006 V BKN P0013 T02280217 403220228=
201107150440 SPECI KATL 150440Z 12005KT 10SM BKN007 BKN090 OVC150 23/22 A2997 RMK AO2 RAE22 P0013=
201107150440 SPECI KATL 150440Z 12005KT 10SM BKN007 BKN090 OVC150 23/22 A2997 RMK AO2 RAE22 P0013=
201107150358 SPECI KATL 150358Z 18008KT 6SM RA BR SCT008 BKN060 OVC100 23/21 A2997 RMK AO2 P0008=
201107150358 SPECI KATL 150358Z 18008KT 6SM RA BR SCT008 BKN060 OVC100 23/21 A2997 RMK AO2 P0008=
201107150352 METAR KATL 150352Z 17009KT 5SM +RA BR BKN008 BKN060 OVC100 23/22 A2997 RMK AO2 SLP139 P0007 T02280217=
201107150349 SPECI KATL 150349Z 16008KT 5SM RA BR BKN008 BKN060 OVC100 23/22 A2998 RMK AO2 P0005=
201107150349 SPECI KATL 150349Z 16008KT 5SM RA BR BKN008 BKN060 OVC100 23/22 A2998 RMK AO2 P0005=
201107150252 METAR KATL 150252Z 12011KT 8SM -RA FEW008 SCT050 BKN120 OVC150 23/21 A2996 RMK AO2 TSE39 SLP135 OCNL LTG DSNT NE-SE P0018 60081 T02330211 53035=
201107150240 SPECI KATL 150240Z 10011KT 9SM -RA FEW035 SCT090 BKN120 OVC200 23/22 A2995 RMK AO2 TSE39 PRESRR OCNL LTG DSNT NE-SE AND NW TS MOV NW P0018=
201107150240 SPECI KATL 150240Z 10011KT 9SM -RA FEW035 SCT090 BKN120 OVC200 23/22 A2995 RMK AO2 TSE39 PRESRR OCNL LTG DSNT NE-SE AND NW TS MOV NW P0018=
201107150152 METAR KATL 150152Z 07008KT 5SM TSRA BR FEW015 BKN030CB OVC060 23/21 A2993 RMK AO2 WSHFT 0056 RAB19 SLP126 OCNL LTGICCG E-OHD-NW TS E-OHD-NW MOV NW P0063 T02280211=
201107150146 SPECI KATL 150146Z 11005KT 2SM +TSRA BR FEW015 BKN030CB OVC060 23/22 A2993 RMK AO2 WSHFT 0056 RAB19 OCNL LTGICCG OHD-ALQDS TS OHD-ALQDS MOV NW P0047=
201107150146 SPECI KATL 150146Z 11005KT 2SM +TSRA BR FEW015 BKN030CB OVC060 23/22 A2993 RMK AO2 WSHFT 0056 RAB19 OCNL LTGICCG OHD-ALQDS TS OHD-ALQDS MOV NW P0047=
201107150138 SPECI KATL 150138Z 14006G18KT 3/4SM R09R/3500VP6000FT +TSRA BR SCT015 BKN030CB OVC060 23/22 A2992 RMK AO2 WSHFT 0056 RAB19 FRQ LTGICCG OHD-ALQDS TS OHD-ALQDS MOV NW P0014=
201107150138 SPECI KATL 150138Z 14006G18KT 3/4SM R09R/3500VP6000FT +TSRA BR SCT015 BKN030CB OVC060 23/22 A2992 RMK AO2 WSHFT 0056 RAB19 FRQ LTGICCG OHD-ALQDS TS OHD-ALQDS MOV NW P0014=
201107150133 SPECI KATL 150133Z 15013G24KT 1 1/2SM +TSRA BR FEW015 BKN030CB OVC060 23/22 A2991 RMK AO2 WSHFT 0056 RAB19 FRQ LTGICCG OHD-ALQDS TS OHD-ALQDS MOV NW P0006=
201107150133 SPECI KATL 150133Z 15013G24KT 1 1/2SM +TSRA BR FEW015 BKN030CB OVC060 23/22 A2991 RMK AO2 WSHFT 0056 RAB19 FRQ LTGICCG OHD-ALQDS TS OHD-ALQDS MOV NW P0006=
201107150114 SPECI KATL 150114Z 19013KT 10SM TS BKN032CB BKN060 BKN200 28/19 A2990 RMK AO2 WSHFT 0056 FRQ LTGICCG SE-SW-W TS SE-SW-W MOV NW=
201107150114 SPECI KATL 150114Z 19013KT 10SM TS BKN032CB BKN060 BKN200 28/19 A2990 RMK AO2 WSHFT 0056 FRQ LTGICCG SE-SW-W TS SE-SW-W MOV NW=
201107150052 METAR KATL 150052Z 09010KT 10SM TS FEW035CB SCT200 29/22 A2988 RMK AO2 TSB52 SLP104 FRQ LTGICCG S-SW DSNT SE TS S-SW DSNT SE MOV NW T02940222=
201107142352 METAR KATL 142352Z 08013KT 10SM FEW035 SCT250 31/22 A2986 RMK AO2 SLP098 CB DSNT SE-SW T03060222 10322 20306 56003=
201107142252 METAR KATL 142252Z 08011KT 10SM FEW035 SCT250 32/22 A2986 RMK AO2 SLP099 T03170222=
201107142152 METAR KATL 142152Z 09007KT 10SM FEW040 32/23 A2986 RMK AO2 SLP099 T03170228=
201107142052 METAR KATL 142052Z 09008G17KT 10SM FEW040 32/22 A2987 RMK AO2 SLP102 T03170222 56023=
201107141952 METAR KATL 141952Z 08012KT 10SM FEW040 SCT250 32/22 A2988 RMK AO2 SLP107 T03170217=
201107141852 METAR KATL 141852Z 08009G17KT 10SM FEW040 SCT200 SCT250 31/22 A2992 RMK AO2 SLP118 CB DSNT E T03110217=
201107141752 METAR KATL 141752Z 07013KT 10SM FEW030 SCT070 SCT250 31/22 A2994 RMK AO2 SLP126 CB DSNT E T03060217 10317 20256 50000=
201107141652 METAR KATL 141652Z 08015G18KT 10SM FEW030 BKN060 BKN200 31/22 A2994 RMK AO2 SLP127 CB DSNT NE-E T03110222=
201107141552 METAR KATL 141552Z 09008KT 10SM SCT070 SCT080 BKN200 30/22 A2994 RMK AO2 SLP127 ACC OHD-N-NE-E-SE T03000217=
201107141452 METAR KATL 141452Z 09015KT 10SM FEW070 SCT080 BKN200 29/21 A2994 RMK AO2 SLP124 T02940211 53010=
201107141352 METAR KATL 141352Z 07009KT 10SM FEW070 SCT080 BKN250 28/22 A2992 RMK AO2 SLP120 T02780217 PNO $=
201107141252 METAR KATL 141252Z 07007KT 8SM SCT180 BKN250 27/22 A2992 RMK AO2 SLP118 T02670217=
201107141152 METAR KATL 141152Z 07011KT 8SM SCT150 BKN250 26/22 A2991 RMK AO2 SLP115 T02560217 10267 20250 51014=
201107141052 METAR KATL 141052Z 05007KT 10SM FEW150 BKN250 26/22 A2990 RMK AO2 SLP110 T02560217 $=
201107140952 METAR KATL 140952Z COR 05006KT 10SM SCT150 SCT250 26/21 A2988 RMK AO2 SLP105 T02610211 $=
201107140852 METAR KATL 140852Z 01004KT 10SM SCT150 SCT250 26/21 A2987 RMK AO2 SLP100 T02560211 56006 $=
201107140752 METAR KATL 140752Z 36004KT 10SM SCT150 SCT250 26/21 A2987 RMK AO2 SLP100 T02560211 $=
201107140652 METAR KATL 140652Z 33007KT 10SM SCT150 SCT250 26/21 A2987 RMK AO2 SLP100 T02560206 $=
201107140552 METAR KATL 140552Z 31007KT 10SM SCT150 BKN250 27/20 A2988 RMK AO2 SLP106 T02670200 10322 20261 58003 $=
201107140452 METAR KATL 140452Z 31005KT 10SM SCT150 BKN250 27/19 A2990 RMK AO2 SLP111 T02720194 403610250 $=
201107140352 METAR KATL 140352Z 31006KT 10SM SCT150 BKN250 28/20 A2990 RMK AO2 SLP112 T02780200 $=
201107140252 METAR KATL 140252Z 34005KT 10SM FEW150 SCT200 BKN250 29/20 A2989 RMK AO2 SLP109 T02940200 53011 $=
201107140152 METAR KATL 140152Z 01006KT 10SM FEW150 BKN200 OVC250 30/20 A2988 RMK AO2 SLP106 T03000200 $=
201107140052 METAR KATL 140052Z 33007KT 10SM FEW100 BKN200 BKN250 31/22 A2986 RMK AO2 SLP100 T03060217 $=
201107132352 METAR KATL 132352Z 35010KT 10SM FEW045 SCT150 BKN200 32/22 A2986 RMK AO2 TSB31E47 SLP099 TS DSIPTD T03220217 10361 20322 53001 $=
201107132347 SPECI KATL 132347Z 35009KT 10SM FEW045 SCT150 BKN200 32/22 A2986 RMK AO2 TSB31E47 TS DSIPTD $=
201107132347 SPECI KATL 132347Z 35009KT 10SM FEW045 SCT150 BKN200 32/22 A2986 RMK AO2 TSB31E47 TS DSIPTD $=
201107132331 SPECI KATL 132331Z 33009KT 10SM TS FEW045CB SCT090 BKN200 BKN250 33/21 A2986 RMK AO2 TSB31 OCNL LTGCG SE TS SE MOV S $=
201107132331 SPECI KATL 132331Z 33009KT 10SM TS FEW045CB SCT090 BKN200 BKN250 33/21 A2986 RMK AO2 TSB31 OCNL LTGCG SE TS SE MOV S $=
201107132252 METAR KATL 132252Z 33009KT 10SM FEW050TCU SCT090 BKN200 BKN250 34/21 A2985 RMK AO2 SLP096 CB DSNT SE TCU NE-E DSNT NW-N T03390206 $=
201107132152 METAR KATL 132152Z 32011KT 10SM SCT055CB SCT180 BKN250 35/22 A2986 RMK AO2 TSB24E52 SLP097 TS DSIPTD CB SE S MOV S TCU NE-E T03500217=
201107132125 SPECI KATL 132125Z 35010KT 10SM TS SCT055CB SCT075 BKN200 36/21 A2986 RMK AO2 TSB24 FRQ LTGCG S TS S MOV S TCU E-SE DSNT NW $=
201107132125 SPECI KATL 132125Z 35010KT 10SM TS SCT055CB SCT075 BKN200 36/21 A2986 RMK AO2 TSB24 FRQ LTGCG S TS S MOV S TCU E-SE DSNT NW $=
201107132052 METAR KATL 132052Z 31007KT 290V350 10SM FEW055TCU SCT075 SCT200 36/22 A2986 RMK AO2 SLP095 CB DSNT NE & S TCU E & S T03560217 56025 $=
201107131952 METAR KATL 131952Z 34009KT 10SM SCT047TCU SCT200 SCT250 34/22 A2987 RMK AO2 SLP102 CB DSNT N-NE TCU E-SE-S T03440217 $=
201107131852 METAR KATL 131852Z 30004KT 10SM FEW045 SCT200 SCT250 35/22 A2990 RMK AO2 SLP110 CB DSNT N & E & NW T03500222 $=
201107131752 METAR KATL 131752Z 29010G15KT 10SM FEW050 SCT200 SCT250 34/22 A2993 RMK AO2 SLP121 T03440222 10350 20256 58007 $=
201107131652 METAR KATL 131652Z 31008KT 10SM FEW040 SCT150 SCT250 33/23 A2995 RMK AO2 SLP127 T03280228=
201107131552 METAR KATL 131552Z 31007KT 10SM FEW030 SCT200 SCT250 32/23 A2996 RMK AO2 SLP131 T03220233=
201107131452 METAR KATL 131452Z 31007KT 10SM FEW025 SCT150 SCT200 31/24 A2995 RMK AO2 SLP130 T03060244 51006=
201107131352 METAR KATL 131352Z 30008KT 10SM FEW200 SCT250 28/24 A2995 RMK AO2 SLP130 T02830239=
201107131252 METAR KATL 131252Z 27005KT 7SM FEW080 BKN250 27/23 A2994 RMK AO2 SLP127 T02670233=
201107131152 METAR KATL 131152Z 29006KT 7SM BKN250 26/23 A2993 RMK AO2 SLP124 70045 T02560228 10272 20250 53006=
201107131052 METAR KATL 131052Z 27004KT 7SM SCT250 25/23 A2993 RMK AO2 SLP122 T02500228=
201107130952 METAR KATL 130952Z 27004KT 8SM FEW250 26/23 A2992 RMK AO2 SLP119 T02560233 $=
201107130852 METAR KATL 130852Z 32005KT 8SM SCT150 BKN250 26/24 A2991 RMK AO2 SLP119 T02610239 56008 $=
201107130752 METAR KATL 130752Z 31005KT 8SM SCT150 27/24 A2992 RMK AO2 SLP120 T02670239 $=
201107130652 METAR KATL 130652Z 29004KT 8SM SCT150 27/24 A2993 RMK AO2 SLP124 T02670239 $=
201107130552 METAR KATL 130552Z 29003KT 7SM FEW200 SCT250 27/24 A2994 RMK AO2 SLP124 T02720244 10311 20267 58016 $=
201107130452 METAR KATL 130452Z 30005KT 8SM FEW200 BKN250 28/25 A2995 RMK AO2 SLP129 T02780250 403500244 $=
201107130352 METAR KATL 130352Z 30006KT 8SM FEW150 SCT200 BKN250 28/26 A2999 RMK AO2 SLP141 T02830256 $=
201107130252 METAR KATL 130252Z 28006KT 9SM SCT150 BKN200 BKN250 28/25 A2999 RMK AO2 SLP142 T02830250 51016 $=
201107130152 METAR KATL 130152Z 00000KT 9SM FEW036 BKN200 BKN250 29/25 A2998 RMK AO2 SLP139 T02890250 $=
201107130052 METAR KATL 130052Z 20003KT 9SM FEW150 SCT200 BKN250 29/25 A2996 RMK AO2 SLP132 T02940250 $=
201107122352 METAR KATL 122352Z 26005KT 10SM FEW150 SCT200 BKN250 31/24 A2994 RMK AO2 SLP126 60045 T03110239 10350 20261 56010 $=
201107122252 METAR KATL 122252Z 26003KT 10SM FEW150 BKN200 BKN250 31/24 A2994 RMK AO2 SLP127 T03110244 $=
201107122152 METAR KATL 122152Z 22004KT 10SM FEW150 BKN200 BKN250 28/23 A2995 RMK AO2 SLP129 T02830228 $=
201107122052 METAR KATL 122052Z 00000KT 9SM FEW110 SCT150 BKN200 27/23 A2997 RMK AO2 SLP137 60045 T02720233 58011 $=
201107121952 METAR KATL 121952Z 23005KT 10SM FEW015 SCT050 BKN110 OVC250 26/23 A2998 RMK AO2 TSE24 SLP143 FRQ LTG DSNT N & S CB DSNT N & NE & S CBMAM DSNT SE T02610233 $=
201107121924 SPECI KATL 121924Z VRB04KT 10SM FEW050CB BKN110 OVC250 26/22 A2999 RMK AO2 TSE24 FRQ LTGICCG DSNT SE-S TS MOV S CB NE & DSNT SE-S MOV S SHRA NE & DSNT SE-S $=
201107121924 SPECI KATL 121924Z VRB04KT 10SM FEW050CB BKN110 OVC250 26/22 A2999 RMK AO2 TSE24 FRQ LTGICCG DSNT SE-S TS MOV S CB NE & DSNT SE-S MOV S SHRA NE & DSNT SE-S $=
201107121910 SPECI KATL 121910Z 00000KT 10SM TS FEW050CB BKN110 OVC250 26/22 A2999 RMK AO2 FRQ LTGICCG SE-S TS SE-S MOV S CB NE MOV S SHRA NE & SE-S $=
201107121910 SPECI KATL 121910Z 00000KT 10SM TS FEW050CB BKN110 OVC250 26/22 A2999 RMK AO2 FRQ LTGICCG SE-S TS SE-S MOV S CB NE MOV S SHRA NE & SE-S $=
201107121852 METAR KATL 121852Z 16003KT 10SM TS FEW030CB BKN100 BKN250 27/23 A2999 RMK AO2 RAB12E42 SLP145 VIS LWR SE SHRA CONS LTGICCG SE TS SE MOV SE P0045 T02670233 $=
201107121842 SPECI KATL 121842Z 00000KT 9SM TS FEW030CB BKN100 BKN250 26/23 A3001 RMK AO2 RAB12E42 VIS LWR SE SHRA CONS LTGICCG SE TS SE MOV SE P0045 $=
201107121842 SPECI KATL 121842Z 00000KT 9SM TS FEW030CB BKN100 BKN250 26/23 A3001 RMK AO2 RAB12E42 VIS LWR SE SHRA CONS LTGICCG SE TS SE MOV SE P0045 $=
201107121827 SPECI KATL 121827Z VRB03G14KT 9SM R09R/1800VP6000FT -TSRA BKN030CB BKN050TCU BKN090 27/21 A3000 RMK AO2 RAB12 VIS LWR E-SE-S SHRA CONS LTGICCG E-SE-S TS E-SE-S MOV SE TCU OHD & ALQDS P0029 $=
201107121827 SPECI KATL 121827Z VRB03G14KT 9SM R09R/1800VP6000FT -TSRA BKN030CB BKN050TCU BKN090 27/21 A3000 RMK AO2 RAB12 VIS LWR E-SE-S SHRA CONS LTGICCG E-SE-S TS E-SE-S MOV SE TCU OHD & ALQDS P0029 $=
201107121821 SPECI KATL 121821Z 15006KT 9SM R09R/2800VP6000FT TSRA BKN038CB BKN050TCU BKN250 28/23 A3000 RMK AO2 RAB12 VIS LWR E-SE-S-SW SHRA CONS LTGICCG OHD-E-SE-S-SW-W TS OHD-E-SE-S-SW-W MOV SE TCU OHD & ALQDS P0004 $=
201107121821 SPECI KATL 121821Z 15006KT 9SM R09R/2800VP6000FT TSRA BKN038CB BKN050TCU BKN250 28/23 A3000 RMK AO2 RAB12 VIS LWR E-SE-S-SW SHRA CONS LTGICCG OHD-E-SE-S-SW-W TS OHD-E-SE-S-SW-W MOV SE TCU OHD & ALQDS P0004 $=
201107121815 SPECI KATL 121815Z 31007G22KT 6SM R09R/6000VP6000FT -TSRA BKN038CB BKN050TCU BKN250 29/23 A3000 RMK AO2 RAB12 CONS LTGICCG OHD & ALQDS TS OHD & ALQDS MOV SE E TCU OHD & ALQDS P0000=
201107121815 SPECI KATL 121815Z 31007G22KT 6SM R09R/6000VP6000FT -TSRA BKN038CB BKN050TCU BKN250 29/23 A3000 RMK AO2 RAB12 CONS LTGICCG OHD & ALQDS TS OHD & ALQDS MOV SE E TCU OHD & ALQDS P0000=
201107121805 SPECI KATL 121805Z 32016G25KT 10SM TS FEW030CB BKN040TCU BKN250 32/23 A3000 RMK AO2 FRQ LTGICCG NW TS NW MOV SW CB DSNT E TCU OHD & ALQDS SHRA NW & DSNT E $=
201107121805 SPECI KATL 121805Z 32016G25KT 10SM TS FEW030CB BKN040TCU BKN250 32/23 A3000 RMK AO2 FRQ LTGICCG NW TS NW MOV SW CB DSNT E TCU OHD & ALQDS SHRA NW & DSNT E $=
201107121752 METAR KATL 121752Z 28010G16KT 10SM TS SCT037CB BKN050TCU BKN250 35/23 A3000 RMK AO2 TSB42 SLP147 FRQ LTGICCG NW-N TS NW-N MOV S TCU OHD-NE-E-SE SHRA NW-N T03500233 10350 20256 58008 $=
201107121742 SPECI KATL 121742Z 31009KT 10SM TS FEW037CB SCT050TCU BKN250 34/23 A3000 RMK AO2 TSB42 OCNL LTGICCG NW-N TS NW-N MOV S SHRA NW-N TCU E-SE-S $=
201107121742 SPECI KATL 121742Z 31009KT 10SM TS FEW037CB SCT050TCU BKN250 34/23 A3000 RMK AO2 TSB42 OCNL LTGICCG NW-N TS NW-N MOV S SHRA NW-N TCU E-SE-S $=
201107121652 METAR KATL 121652Z 28005KT 10SM SCT033TCU SCT200 BKN250 33/24 A3002 RMK AO2 SLP153 TCU NE-E-SE & NW T03280239=
201107121552 METAR KATL 121552Z 34003KT 10SM FEW030TCU SCT200 BKN250 33/23 A3002 RMK AO2 SLP154 CB DSNT NW TCU NE-E-SE T03330233 $=
201107121452 METAR KATL 121452Z 00000KT 10SM FEW200 BKN250 OVC280 32/23 A3003 RMK AO2 SLP155 CB DSNT NW T03170233 50003=
201107121352 METAR KATL 121352Z 32007KT 8SM FEW200 BKN250 OVC300 30/24 A3003 RMK AO2 SLP157 CB DSNT N T03000239=
201107121252 METAR KATL 121252Z 33006KT 6SM HZ BKN200 BKN250 27/24 A3002 RMK AO2 SLP155 T02720239 $=
201107121152 METAR KATL 121152Z 31004KT 6SM BR BKN250 26/23 A3002 RMK AO2 SLP152 T02560233 10267 20244 53002 $=
201107121052 METAR KATL 121052Z 31004KT 6SM BR BKN250 24/23 A3000 RMK AO2 SLP147 T02440228=
201107120952 METAR KATL 120952Z 00000KT 8SM FEW250 24/22 A3001 RMK AO2 SLP149 T02440222=
201107120852 METAR KATL 120852Z 00000KT 7SM CLR 24/22 A3001 RMK AO2 SLP150 T02440222 53003=
201107120752 METAR KATL 120752Z 20004KT 8SM CLR 25/22 A3001 RMK AO2 SLP151 T02500222=
201107120652 METAR KATL 120652Z 31005KT 8SM CLR 26/23 A3000 RMK AO2 SLP144 T02560228=
201107120552 METAR KATL 120552Z 29004KT 9SM CLR 26/22 A3000 RMK AO2 SLP146 T02610222 10317 20256 58009=
201107120452 METAR KATL 120452Z COR 22003KT 9SM FEW250 26/23 A3001 RMK AO2 SLP150 T02610228 403500239=
201107120352 METAR KATL 120352Z COR 00000KT 10SM FEW250 27/22 A3003 RMK AO2 SLP153 T02720222=
201107120252 METAR KATL 120252Z COR 18003KT 10SM FEW250 28/22 A3003 RMK AO2 SLP153 T02780222 50017=
201107120152 METAR KATL 120152Z COR 22004KT 10SM FEW150 28/22 A3003 RMK AO2 SLP153 T02830217=
201107120052 METAR KATL 120052Z COR 22006KT 10SM FEW150 SCT250 29/22 A3001 RMK AO2 SLP152 T02940217=
201107112352 METAR KATL 112352Z COR 19005KT 10SM FEW200 32/21 A2998 RMK AO2 SLP142 T03170211 10350 20311 56010=
201107112252 METAR KATL 112252Z COR 16006KT 10SM FEW150 32/22 A2998 RMK AO2 SLP142 T03220217=
201107112152 METAR KATL 112152Z COR 15006KT 10SM FEW150 33/21 A3000 RMK AO2 SLP148 TCU DSNT N T03280211=
201107112052 METAR KATL 112052Z 17008KT 10SM FEW040 SCT120 BKN150 33/22 A3001 RMK AO2 SLP153 CB DSNT SW 58010 T03330222=
201107111952 METAR KATL 111952Z 15009KT 10SM FEW040 BKN120 BKN250 31/23 A3003 RMK AO2 SLP160 CB DSNT S SHRA DSNT S T03110228 $=
201107111852 METAR KATL 111852Z 28005KT 10SM SCT050 BKN120 BKN250 33/21 A3003 RMK AO2 SLP157 CB DSNT SE TCU DSNT NW SHRA DSNT SE T03280211=
201107111752 METAR KATL 111752Z COR VRB06KT 10SM FEW050TCU SCT090 SCT200 34/22 A3004 RMK AO2 SLP160 CB DSNT E TCU E-SE & NW T03440217 10344 20256 58014=
201107111652 METAR KATL 111652Z 27006KT 10SM FEW050TCU SCT200 SCT250 33/22 A3006 RMK AO2 SLP171 TCU NE-E-SE T03330222 $=
201107111552 METAR KATL 111552Z 34005KT 10SM SCT040 SCT090 BKN250 31/22 A3008 RMK SLP174 T03130220=
201107111452 METAR KATL 111452Z 00000KT 10SM FEW030 SCT090 BKN250 31/22 A3008 RMK SLP175 T03070217 50003=
201107111352 METAR KATL 111352Z 32005KT 10SM FEW090 SCT200 BKN250 31/21 A3009 RMK AO2 SLP178 T03060211=
201107111252 METAR KATL 111252Z 34006KT 10SM FEW090 BKN250 28/22 A3009 RMK AO2 SLP178 T02780217=
201107111152 METAR KATL 111152Z 31003KT 10SM FEW035 BKN200 26/22 A3007 RMK AO2 SLP173 T02560217 10256 20239 52017=
201107111052 METAR KATL 111052Z 00000KT 8SM SCT150 SCT250 24/22 A3006 RMK AO2 SLP166 T02440217=
201107110952 METAR KATL 110952Z 32004KT 9SM FEW180 24/22 A3004 RMK AO2 SLP160 T02440222=
201107110852 METAR KATL 110852Z 29003KT 7SM SCT180 24/22 A3002 RMK AO2 SLP154 T02440222 56002=
201107110752 METAR KATL 110752Z 26003KT 8SM SCT060 BKN150 25/23 A3002 RMK AO2 SLP155 T02500228=
201107110652 METAR KATL 110652Z 00000KT 7SM FEW010 BKN250 26/23 A3002 RMK AO2 SLP152 T02560228=
201107110617 SPECI KATL 110617Z 00000KT 7SM SCT008 BKN150 OVC200 26/23 A3002 RMK AO2=
201107110617 SPECI KATL 110617Z 00000KT 7SM SCT008 BKN150 OVC200 26/23 A3002 RMK AO2=
201107110552 METAR KATL 110552Z 30005KT 8SM BKN008 26/23 A3003 RMK AO2 SLP157 T02560233 10289 20256 58003=
201107110534 SPECI KATL 110534Z 29006KT 9SM BKN010 26/23 A3003 RMK AO2=
201107110534 SPECI KATL 110534Z 29006KT 9SM BKN010 26/23 A3003 RMK AO2=
201107110452 METAR KATL 110452Z 24003KT 10SM FEW120 SCT250 26/23 A3004 RMK AO2 SLP159 T02610228 403330228=
201107110352 METAR KATL 110352Z 32003KT 10SM SCT120 BKN200 27/23 A3004 RMK AO2 SLP161 T02720228=
201107110252 METAR KATL 110252Z 00000KT 10SM BKN120 BKN250 27/24 A3004 RMK AO2 SLP160 T02720239 51010=
201107110152 METAR KATL 110152Z 27004KT 10SM BKN110 OVC250 28/23 A3003 RMK AO2 SLP158 T02780228=
201107110052 METAR KATL 110052Z 20003KT 9SM FEW016 SCT100 OVC250 28/23 A3003 RMK AO2 SLP158 T02830233=
201107102352 METAR KATL 102352Z 26006KT 8SM FEW055 BKN250 29/24 A3001 RMK AO2 SLP150 T02890244 10333 20289 55001=
201107102252 METAR KATL 102252Z 27007KT 10SM FEW050 BKN250 32/20 A2999 RMK AO2 SLP145 CB DSNT NW T03170200=
201107102152 METAR KATL 102152Z 13003KT 10SM SCT050 BKN250 32/20 A2999 RMK AO2 SLP142 T03220200=
201107102052 METAR KATL 102052Z 18003KT 10SM FEW050 SCT100 SCT250 33/20 A3001 RMK AO2 SLP150 T03280200 55010=
201107101952 METAR KATL 101952Z 04007KT 10SM SCT035 SCT200 32/22 A3001 RMK AO2 SLP149 TCU DSNT NE T03170217=
201107101852 METAR KATL 101852Z VRB03KT 9SM FEW040 SCT200 32/23 A3002 RMK AO2 SLP154 T03220228=
201107101752 METAR KATL 101752Z 09003KT 9SM FEW027 SCT200 31/23 A3004 RMK AO2 SLP161 T03060228 10311 20239 58007=
201107101652 METAR KATL 101652Z 10005KT 9SM SCT022 BKN200 30/23 A3006 RMK AO2 SLP169 T03000228=
201107101552 METAR KATL 101552Z 06005KT 9SM SCT020 SCT200 29/23 A3007 RMK AO2 SLP171 T02940228=
201107101452 METAR KATL 101452Z 10006KT 10SM FEW020 SCT095 SCT200 28/22 A3006 RMK AO2 SLP169 T02830222 51008=
201107101352 METAR KATL 101352Z 07004KT 10SM FEW020 SCT200 27/22 A3006 RMK AO2 SLP169 T02720217=
201107101252 METAR KATL 101252Z 00000KT 10SM FEW200 26/22 A3006 RMK AO2 SLP168 T02560217=
201107101152 METAR KATL 101152Z 19003KT 8SM FEW100 23/22 A3004 RMK AO2 SLP162 70015 T02330217 10244 20228 53012=
201107101052 METAR KATL 101052Z 00000KT 7SM SCT150 SCT250 23/21 A3002 RMK AO2 SLP156 T02330211=
201107100952 METAR KATL 100952Z 09004KT 9SM SCT150 SCT200 23/21 A3001 RMK AO2 SLP152 T02330211=
201107100852 METAR KATL 100852Z 17003KT 10SM SCT050 SCT200 23/21 A3000 RMK AO2 SLP148 T02330211 53008=
201107100752 METAR KATL 100752Z 32003KT 10SM BKN046 BKN200 24/21 A2999 RMK AO2 SLP144 T02390211=
201107100652 METAR KATL 100652Z 00000KT 10SM SCT200 BKN250 24/21 A2998 RMK AO2 SLP140 T02390211=
201107100552 METAR KATL 100552Z 28006KT 10SM SCT200 BKN250 24/21 A2998 RMK AO2 SLP142 T02390206 10250 20233 58001=
201107100452 METAR KATL 100452Z 24003KT 10SM FEW080 SCT150 BKN200 24/21 A2997 RMK AO2 SLP138 T02390211 403280233=
201107100352 METAR KATL 100352Z 22004KT 10SM FEW080 SCT150 OVC200 24/21 A2999 RMK AO2 SLP146 T02390206=
201107100252 METAR KATL 100252Z 24005KT 10SM FEW080 SCT150 OVC250 24/21 A2998 RMK AO2 SLP142 T02390206 51018=
201107100152 METAR KATL 100152Z 19004KT 10SM SCT150 BKN250 24/21 A2996 RMK AO2 SLP136 T02390206=
201107100052 METAR KATL 100052Z 19006KT 10SM FEW120 BKN250 24/21 A2995 RMK AO2 SLP131 T02440206=
201107092352 METAR KATL 092352Z 23004KT 10SM FEW030 SCT120 SCT150 BKN250 25/21 A2993 RMK AO2 SLP124 60000 T02500206 10328 20250 53008=
201107092252 METAR KATL 092252Z 21008KT 10SM FEW035 SCT080 BKN150 BKN250 26/21 A2993 RMK AO2 TSE41 SLP124 TS DSIPT CB DSNT SE T02560206=
201107092241 SPECI KATL 092241Z 22010KT 10SM FEW080 SCT130 OVC250 26/22 A2993 RMK AO2 TSE41 TS DSIPT CB DSNT SE-S=
201107092241 SPECI KATL 092241Z 22010KT 10SM FEW080 SCT130 OVC250 26/22 A2993 RMK AO2 TSE41 TS DSIPT CB DSNT SE-S=
201107092152 METAR KATL 092152Z 10004KT 10SM TS SCT035CB BKN120 BKN250 29/20 A2991 RMK AO2 SLP116 FRQ LTGICCG S-SW TS VC S-SW MOV SE TS E DSIPT SHRA S-SW T02940200=
201107092123 SPECI KATL 092123Z 09005KT 10SM TS SCT035CB SCT150 BKN250 30/21 A2990 RMK AO2 OCNL LTGIC SW TS SW MOV SE TS E DSIPT=
201107092123 SPECI KATL 092123Z 09005KT 10SM TS SCT035CB SCT150 BKN250 30/21 A2990 RMK AO2 OCNL LTGIC SW TS SW MOV SE TS E DSIPT=
201107092052 METAR KATL 092052Z 06008KT 10SM TS SCT035CB BKN140 BKN250 29/22 A2990 RMK AO2 PK WND 02026/2020 TSB12RAB38E47 SLP115 OCNL LTGIC E TS E MOV CB DSNT SW MOV SE TCU DSNT S P0000 60000 T02940217 55011=
201107092013 SPECI KATL 092013Z 22003KT 10SM TS SCT040CB BKN140 BKN250 31/23 A2990 RMK AO2 TSB12 OCNL LTGICCG NW-N TS NW-N MOV SE SHRA NW-N=
201107092013 SPECI KATL 092013Z 22003KT 10SM TS SCT040CB BKN140 BKN250 31/23 A2990 RMK AO2 TSB12 OCNL LTGICCG NW-N TS NW-N MOV SE SHRA NW-N=
201107091952 METAR KATL 091952Z 15008KT 10SM SCT040 SCT140 BKN250 31/23 A2990 RMK AO2 SLP111 CB DSNT SE AND W-NW MOV SE TCU DSNT N T03110228=
201107091852 METAR KATL 091852Z 27004KT 10SM FEW035 SCT130 BKN250 32/23 A2992 RMK AO2 TSE23RAE17 SLP118 TS MOVD E CB DSNT SW AND NW-N MOV SE TCU DSNT W P0000 T03170228=
201107091824 SPECI KATL 091824Z 31004KT 10SM FEW030 SCT060 SCT140 BKN250 31/23 A2992 RMK AO2 TSE23RAE17 TS MOVD E CB DSNT N-NE-SE MOV E TCU DSNT NW P0000=
201107091824 SPECI KATL 091824Z 31004KT 10SM FEW030 SCT060 SCT140 BKN250 31/23 A2992 RMK AO2 TSE23RAE17 TS MOVD E CB DSNT N-NE-SE MOV E TCU DSNT NW P0000=
201107091752 METAR KATL 091752Z 00000KT 5SM TSRA FEW010 BKN030CB BKN060 OVC140 25/21 A2994 RMK AO2 PK WND 29030/1725 TSB13RAB19 SLP127 OCNL LTGICCG NE-SE TS NE-SE MOV E TCU DSNT S-W-N P0015 60015 T02500206 10328 20233 58003=
201107091745 SPECI KATL 091745Z 00000KT 3SM R09R/5000VP6000FT +TSRA SCT010 BKN029CB BKN060 OVC140 23/20 A2995 RMK AO2 PK WND 29030/1725 TSB13RAB19 VIS E-S 2 OCNL LTGICCG E-S TS E-S MOV E P0013=
201107091745 SPECI KATL 091745Z 00000KT 3SM R09R/5000VP6000FT +TSRA SCT010 BKN029CB BKN060 OVC140 23/20 A2995 RMK AO2 PK WND 29030/1725 TSB13RAB19 VIS E-S 2 OCNL LTGICCG E-S TS E-S MOV E P0013=
201107091740 SPECI KATL 091740Z 27005G25KT 1 1/2SM R09R/5000VP6000FT +TSRA FEW010 BKN027CB OVC060 24/19 A2996 RMK AO2 PK WND 29030/1725 TSB13RAB19 OCNL LTGICCG ALQDS TS ALQDS MOV E P0008=
201107091740 SPECI KATL 091740Z 27005G25KT 1 1/2SM R09R/5000VP6000FT +TSRA FEW010 BKN027CB OVC060 24/19 A2996 RMK AO2 PK WND 29030/1725 TSB13RAB19 OCNL LTGICCG ALQDS TS ALQDS MOV E P0008=
201107091737 SPECI KATL 091737Z 26009G29KT 2 1/2SM R09R/5000VP6000FT +TSRA BKN033CB BKN055 OVC140 24/19 A2996 RMK AO2 PK WND 29030/1725 TSB13RAB19 PRESRR VIS N-E 4 OCNL LTGICCG OHD-S-W TS OHD-S-W MOV E P0005=
201107091737 SPECI KATL 091737Z 26009G29KT 2 1/2SM R09R/5000VP6000FT +TSRA BKN033CB BKN055 OVC140 24/19 A2996 RMK AO2 PK WND 29030/1725 TSB13RAB19 PRESRR VIS N-E 4 OCNL LTGICCG OHD-S-W TS OHD-S-W MOV E P0005=
201107091713 SPECI KATL 091713Z 00000KT 10SM TS SCT040CB BKN140 BKN250 31/22 A2994 RMK AO2 TSB13 OCNL LTGICCG VC SW-W TS VC SW-W MOV E=
201107091713 SPECI KATL 091713Z 00000KT 10SM TS SCT040CB BKN140 BKN250 31/22 A2994 RMK AO2 TSB13 OCNL LTGICCG VC SW-W TS VC SW-W MOV E=
201107091652 METAR KATL 091652Z VRB03KT 10SM FEW045 SCT140 SCT250 32/23 A2995 RMK AO2 SLP127 TCU DSNT SW-W T03220228=
201107091552 METAR KATL 091552Z 29005KT 10SM FEW035 SCT140 BKN250 30/22 A2995 RMK AO2 SLP131 T03000222=
201107091452 METAR KATL 091452Z 28007KT 10SM FEW035 SCT140 SCT250 30/23 A2995 RMK AO2 SLP129 T03000228 51011=
201107091352 METAR KATL 091352Z 21007KT 8SM FEW140 SCT250 27/22 A2994 RMK AO2 SLP129 T02720222=
201107091252 METAR KATL 091252Z 22006KT 7SM SCT150 SCT250 26/22 A2993 RMK AO2 SLP125 T02560222=
201107091152 METAR KATL 091152Z 22003KT 7SM SCT150 24/22 A2991 RMK AO2 SLP118 70005 T02440217 10256 20239 51014=
201107091052 METAR KATL 091052Z 30005KT 7SM SCT150 SCT250 24/22 A2990 RMK AO2 SLP116 T02440217=
201107090952 METAR KATL 090952Z 24004KT 9SM FEW200 24/22 A2988 RMK AO2 SLP107 T02440217=
201107090852 METAR KATL 090852Z 23005KT 8SM FEW250 24/22 A2987 RMK AO2 SLP101 T02440217 53007=
201107090752 METAR KATL 090752Z 24004KT 9SM BKN090 25/22 A2986 RMK AO2 SLP098 T02500217=
201107090652 METAR KATL 090652Z 23004KT 8SM SCT100 BKN250 25/22 A2985 RMK AO2 SLP094 T02500217=
201107090552 METAR KATL 090552Z 20003KT 7SM FEW080 SCT200 BKN250 25/22 A2985 RMK AO2 SLP095 60000 T02500222 10283 20250 58006=
201107090452 METAR KATL 090452Z 19003KT 10SM SCT080 BKN200 BKN250 26/22 A2987 RMK AO2 SLP101 T02610222 403440233=
201107090352 METAR KATL 090352Z 19004KT 9SM BKN080 BKN150 BKN200 27/23 A2988 RMK AO2 SLP106 T02670228=
201107090252 METAR KATL 090252Z 00000KT 9SM FEW080 SCT150 BKN200 27/23 A2987 RMK AO2 SLP101 60000 T02670228 53014=
201107090152 METAR KATL 090152Z 32004KT 10SM BKN085 BKN100 BKN150 OVC200 27/21 A2985 RMK AO2 TSE36RAB32E45 SLP096 OCNL LTG DSNT NE P0000 T02670206=
201107090136 SPECI KATL 090136Z 34007KT 10SM -RA FEW030 SCT100 BKN150 BKN200 27/21 A2984 RMK AO2 TSE36RAB32 OCNL LTG DSNT N-NE P0000=
201107090136 SPECI KATL 090136Z 34007KT 10SM -RA FEW030 SCT100 BKN150 BKN200 27/21 A2984 RMK AO2 TSE36RAB32 OCNL LTG DSNT N-NE P0000=
201107090052 METAR KATL 090052Z 28004KT 9SM TS FEW025CB SCT100 BKN200 27/23 A2983 RMK AO2 TSB52 SLP091 FRQ LTGICCG NW TS NW MOV E T02720233=
201107082352 METAR KATL 082352Z 30003KT 10SM FEW100 BKN150 BKN200 BKN250 28/23 A2982 RMK AO2 SLP088 CB DSNT SW-W AND NW 60005 T02830228 10344 20250 51006=
201107082252 METAR KATL 082252Z 19004KT 10SM FEW040 SCT100 BKN150 BKN250 27/22 A2982 RMK AO2 WSHFT 2201 TSB08E32RAE51 SLP088 P0005 T02670222=
201107082232 SPECI KATL 082232Z 22009KT 10SM -RA FEW040CB SCT055 BKN080 BKN150 OVC250 26/21 A2983 RMK AO2 WSHFT 2201 TSB08E32 TS DSIPTD CB SE AND SW-W MOV E P0000=
201107082232 SPECI KATL 082232Z 22009KT 10SM -RA FEW040CB SCT055 BKN080 BKN150 OVC250 26/21 A2983 RMK AO2 WSHFT 2201 TSB08E32 TS DSIPTD CB SE AND SW-W MOV E P0000=
201107082219 SPECI KATL 082219Z 20015G25KT 10SM -TSRA FEW040CB SCT055 BKN085 OVC150 26/21 A2982 RMK AO2 WSHFT 2201 TSB08 OCNL LTGCG S TS S MOV E VIS LWR S P0000=
201107082219 SPECI KATL 082219Z 20015G25KT 10SM -TSRA FEW040CB SCT055 BKN085 OVC150 26/21 A2982 RMK AO2 WSHFT 2201 TSB08 OCNL LTGCG S TS S MOV E VIS LWR S P0000=
201107082208 SPECI KATL 082208Z 26013G19KT 9SM -TSRA FEW040CB SCT055 BKN085 BKN250 28/21 A2982 RMK AO2 TSB08 OCNL LTGCG SW TS SW MOV E P0000=
201107082208 SPECI KATL 082208Z 26013G19KT 9SM -TSRA FEW040CB SCT055 BKN085 BKN250 28/21 A2982 RMK AO2 TSB08 OCNL LTGCG SW TS SW MOV E P0000=
201107082152 METAR KATL 082152Z 34010G16KT 9SM -RA FEW040CB SCT055 BKN100 BKN250 29/22 A2982 RMK AO2 RAB41 SLP086 CB SW-W MOV E P0000 T02940217=
201107082052 METAR KATL 082052Z 30007KT 250V330 10SM FEW055TCU SCT100 SCT250 34/19 A2981 RMK AO2 SLP080 TCU NW-N T03390194 56019=
201107081952 METAR KATL 081952Z 29005KT 10SM FEW060 SCT090 SCT250 33/18 A2982 RMK AO2 SLP085 T03280183=
201107081852 METAR KATL 081852Z VRB03KT 10SM SCT050 SCT200 SCT250 33/19 A2984 RMK AO2 TSE02 SLP090 CB DSNT E T03330189=
201107081802 SPECI KATL 081802Z 23005KT 10SM FEW040 SCT100 SCT250 32/19 A2986 RMK AO2 TSE02 TS MOV E CB DSNT NE-E-SE SHRA DSNT NE-E-SE=
201107081802 SPECI KATL 081802Z 23005KT 10SM FEW040 SCT100 SCT250 32/19 A2986 RMK AO2 TSE02 TS MOV E CB DSNT NE-E-SE SHRA DSNT NE-E-SE=
201107081752 METAR KATL 081752Z 23009KT 10SM TS SCT040CB BKN100 BKN250 31/21 A2986 RMK AO2 TSB34 SLP100 OCNL LTGICCG NE-E-SE TS NE-E-SE MOV SE SHRA NE-E-SE T03110206 10328 20239 58017=
201107081747 SPECI KATL 081747Z 00000KT 9SM TS SCT040CB BKN100 BKN250 31/21 A2987 RMK AO2 TSB34 OCNL LTGICCG NE-E TS NE-E MOV SE SHRA NE-E=
201107081747 SPECI KATL 081747Z 00000KT 9SM TS SCT040CB BKN100 BKN250 31/21 A2987 RMK AO2 TSB34 OCNL LTGICCG NE-E TS NE-E MOV SE SHRA NE-E=
201107081734 SPECI KATL 081734Z 01007KT 340V040 9SM TS SCT040CB BKN100 BKN250 30/21 A2987 RMK AO2 TSB34 OCNL LTGICCG NE TS NE MOV E SHRA NE=
201107081734 SPECI KATL 081734Z 01007KT 340V040 9SM TS SCT040CB BKN100 BKN250 30/21 A2987 RMK AO2 TSB34 OCNL LTGICCG NE TS NE MOV E SHRA NE=
201107081717 SPECI KATL 081717Z VRB06KT 10SM FEW040CB SCT100 SCT250 33/19 A2988 RMK AO2 CB N MOV E SHRA N=
201107081717 SPECI KATL 081717Z VRB06KT 10SM FEW040CB SCT100 SCT250 33/19 A2988 RMK AO2 CB N MOV E SHRA N=
201107081706 SPECI KATL 081706Z 27006KT 10SM SCT040CB BKN100 BKN250 32/21 A2988 RMK AO2 CB W-NW-N MOV E SHRA W-NW-N=
201107081706 SPECI KATL 081706Z 27006KT 10SM SCT040CB BKN100 BKN250 32/21 A2988 RMK AO2 CB W-NW-N MOV E SHRA W-NW-N=
201107081652 METAR KATL 081652Z VRB05KT 10SM SCT037TCU SCT100 SCT250 32/21 A2989 RMK AO2 SLP107 TCU N & E & NW T03170206=
201107081552 METAR KATL 081552Z VRB06KT 9SM FEW035 SCT250 31/21 A2990 RMK AO2 SLP113 TCU DSNT SW T03110206=
201107081452 METAR KATL 081452Z 30007KT 9SM FEW250 30/21 A2991 RMK AO2 SLP117 T03000206 58001=
201107081352 METAR KATL 081352Z 28003KT 9SM FEW250 28/21 A2992 RMK AO2 SLP120 T02780211=
201107081252 METAR KATL 081252Z 19007KT 10SM FEW250 26/20 A2993 RMK AO2 SLP121 T02560200=
201107081152 METAR KATL 081152Z COR 19005KT 10SM FEW200 SCT250 24/20 A2992 RMK AO2 SLP119 T02390200 10261 20233 51012=
201107081052 METAR KATL 081052Z 16004KT 7SM FEW200 SCT250 24/20 A2991 RMK AO2 SLP116 T02390200=
201107080952 METAR KATL 080952Z 17005KT 10SM FEW250 24/20 A2989 RMK AO2 SLP111 T02390200=
201107080852 METAR KATL 080852Z 15004KT 10SM SCT250 24/20 A2988 RMK AO2 SLP107 T02440200 56000=
201107080752 METAR KATL 080752Z 14003KT 10SM SCT250 26/19 A2989 RMK AO2 SLP107 T02560194=
201107080652 METAR KATL 080652Z 14004KT 10SM BKN250 26/19 A2988 RMK AO2 SLP103 T02560194=
201107080552 METAR KATL 080552Z 15006KT 10SM FEW200 BKN250 26/20 A2988 RMK AO2 SLP106 T02610200 10311 20261 58007=
201107080452 METAR KATL 080452Z 30003KT 10SM FEW200 BKN250 27/19 A2990 RMK AO2 SLP112 T02720194 403440228=
201107080352 METAR KATL 080352Z 00000KT 10SM FEW150 BKN250 27/20 A2991 RMK AO2 SLP116 T02720200=
201107080252 METAR KATL 080252Z 15003KT 10SM FEW055 SCT150 BKN250 27/19 A2991 RMK AO2 SLP114 T02720194 51002=
201107080152 METAR KATL 080152Z 00000KT 10SM SCT065 BKN140 OVC250 29/19 A2990 RMK AO2 SLP114 T02890194=
201107080052 METAR KATL 080052Z 32005KT 9SM FEW100 BKN250 29/20 A2990 RMK AO2 SLP113 FRQ LTG DSNT SE-S T02940200=
201107072352 METAR KATL 072352Z 31006KT 9SM FEW060 BKN250 31/19 A2990 RMK AO2 SLP112 CB DSNT NE TCU DSNT SE T03110189 10344 20311 56003=
201107072252 METAR KATL 072252Z 30008KT 10SM FEW065 SCT250 32/17 A2990 RMK AO2 SLP113 CB DSNT N T03220172=
201107072152 METAR KATL 072152Z 30004G15KT 10SM FEW065 SCT250 33/17 A2990 RMK AO2 SLP112 TCU DSNT NE-E T03330172=
201107072052 METAR KATL 072052Z 22009G16KT 10SM FEW065 SCT100 SCT250 33/16 A2991 RMK AO2 SLP115 TCU DSNT SE-S-SW T03330156 58023=
201107071952 METAR KATL 071952Z 20006KT 10SM FEW055TCU SCT100 SCT250 33/17 A2993 RMK AO2 SLP124 TCU NE & DSNT NW-N T03280172=
201107071852 METAR KATL 071852Z 24008KT 10SM SCT055TCU SCT250 33/18 A2996 RMK AO2 SLP133 TCU NE-E T03280183=
201107071752 METAR KATL 071752Z VRB05KT 10SM SCT050TCU SCT250 32/19 A2998 RMK AO2 SLP139 TCU E & S T03220189 10328 20250 58012=
201107071652 METAR KATL 071652Z VRB04KT 10SM SCT045 SCT250 31/19 A3000 RMK AO2 SLP148 T03110189=
201107071552 METAR KATL 071552Z 19005KT 10SM SCT040 SCT250 31/19 A3001 RMK AO2 SLP150 TCU DSNT N-NE T03060189=
201107071452 METAR KATL 071452Z 15003KT 10SM FEW035 SCT250 30/20 A3001 RMK AO2 SLP150 T03000200 50004=
201107071352 METAR KATL 071352Z 00000KT 10SM FEW005 SCT030 SCT250 28/20 A3002 RMK AO2 SLP153 FU FEW005 T02830200=
201107071252 METAR KATL 071252Z 00000KT 9SM FEW250 26/21 A3001 RMK AO2 SLP151 T02610206=
201107071152 METAR KATL 071152Z 00000KT 9SM FEW250 25/21 A3000 RMK AO2 SLP148 T02500206 10256 20228 51007=
201107071052 METAR KATL 071052Z 00000KT 8SM FEW150 SCT250 23/21 A3000 RMK AO2 SLP146 T02330206=
201107070952 METAR KATL 070952Z 00000KT 10SM FEW250 24/20 A2999 RMK AO2 SLP144 T02390200=
201107070852 METAR KATL 070852Z 00000KT 10SM FEW250 23/20 A2998 RMK AO2 SLP139 T02330200 55008=
201107070752 METAR KATL 070752Z 00000KT 10SM FEW250 24/20 A2998 RMK AO2 SLP139 T02390200=
201107070652 METAR KATL 070652Z 00000KT 10SM FEW250 24/20 A2999 RMK AO2 SLP143 T02390200=
201107070552 METAR KATL 070552Z 15005KT 10SM FEW150 SCT250 26/21 A3000 RMK AO2 SLP148 T02560206 10294 20256 56001=
201107070452 METAR KATL 070452Z 16003KT 10SM FEW150 BKN250 26/20 A3000 RMK AO2 SLP148 T02610200 403220222=
201107070352 METAR KATL 070352Z 28003KT 10SM FEW150 BKN250 27/19 A3000 RMK AO2 SLP147 FRQ LTG DSNT SE T02720194=
201107070252 METAR KATL 070252Z 35005KT 10SM FEW150 SCT200 28/19 A3001 RMK AO2 SLP149 T02830189 53006=
201107070152 METAR KATL 070152Z 33004KT 10SM FEW045 SCT200 28/19 A3000 RMK AO2 SLP146 T02830194=
201107070052 METAR KATL 070052Z 29003KT 10SM FEW045 SCT200 BKN250 29/19 A2999 RMK AO2 SLP144 T02890194=
201107062352 METAR KATL 062352Z 28004KT 10SM FEW045 SCT250 29/19 A2999 RMK AO2 SLP143 TCU DSNT NE AND NW T02940189 10322 20294 53003=
201107062252 METAR KATL 062252Z 29006KT 10SM SCT050 SCT200 31/19 A2996 RMK AO2 SLP134 T03110189=
201107062152 METAR KATL 062152Z 29008KT 10SM SCT050 SCT200 31/18 A2996 RMK AO2 SLP135 T03060183=
201107062052 METAR KATL 062052Z 32009G14KT 10SM FEW050 SCT200 32/18 A2998 RMK AO2 SLP139 T03170183 56024=
201107061952 METAR KATL 061952Z 28007KT 10SM FEW050 SCT100 SCT200 32/18 A2999 RMK AO2 SLP144 CB DSNT E-SE-S T03170178=
201107061852 METAR KATL 061852Z 30005KT 10SM FEW040 SCT150 SCT200 30/19 A3002 RMK AO2 SLP155 CB DSNT E & S T03000189=
201107061752 METAR KATL 061752Z 30005KT 10SM FEW040 SCT150 SCT250 30/19 A3005 RMK AO2 SLP165 CB DSNT E T03000189 10306 20233 58003=
201107061652 METAR KATL 061652Z 33007KT 300V360 10SM FEW030 BKN150 BKN250 29/20 A3007 RMK AO2 SLP173 TCU DSNT SE T02940200=
201107061552 METAR KATL 061552Z 27007KT 10SM FEW030 SCT110 BKN150 BKN250 28/19 A3007 RMK AO2 SLP172 T02830194=
201107061452 METAR KATL 061452Z 28005KT 10SM FEW030 SCT100 BKN150 BKN200 27/20 A3006 RMK AO2 SLP168 T02720200 51009=
201107061352 METAR KATL 061352Z 24003KT 10SM FEW100 BKN150 BKN200 27/20 A3006 RMK AO2 SLP167 T02670200=
201107061252 METAR KATL 061252Z 00000KT 10SM FEW035 SCT150 SCT250 25/19 A3004 RMK AO2 SLP162 T02500189=
201107061152 METAR KATL 061152Z 00000KT 10SM SCT150 SCT250 23/19 A3003 RMK AO2 SLP159 T02330194 10239 20222 53006=
201107061052 METAR KATL 061052Z 31003KT 10SM SCT150 BKN250 23/19 A3002 RMK AO2 SLP155 T02330189=
201107060952 METAR KATL 060952Z 00000KT 10SM BKN150 23/19 A3002 RMK AO2 SLP154 T02330194=
201107060852 METAR KATL 060852Z 05003KT 10SM BKN150 BKN250 24/19 A3001 RMK AO2 SLP152 T02390189 55001=
201107060752 METAR KATL 060752Z 07004KT 10SM BKN150 BKN250 23/19 A3001 RMK AO2 SLP149 T02330189=
201107060652 METAR KATL 060652Z 01007KT 10SM SCT150 BKN200 23/18 A3001 RMK AO2 SLP150 T02330183=
201107060552 METAR KATL 060552Z 33007KT 10SM SCT150 BKN250 24/19 A3002 RMK AO2 SLP153 T02390189 10289 20239 50001=
201107060452 METAR KATL 060452Z 31008KT 10SM FEW050 SCT150 BKN200 24/20 A3003 RMK AO2 SLP157 T02440200 403220206=
201107060352 METAR KATL 060352Z 26004KT 10SM FEW100 SCT200 BKN250 24/21 A3002 RMK AO2 SLP155 OCNL LTG DSNT NW T02440211=
201107060252 METAR KATL 060252Z 28006KT 10SM FEW150 BKN200 26/21 A3002 RMK AO2 SLP153 FRQ LTG DSNT NW T02560206 53012=
201107060152 METAR KATL 060152Z 28007KT 10SM FEW150 SCT200 26/20 A3000 RMK AO2 SLP149 FRQ LTG DSNT NE T02610200=
201107060052 METAR KATL 060052Z 24003KT 10SM FEW040 SCT200 28/20 A2997 RMK AO2 SLP139 CB DSNT NE T02780200=
201107052352 METAR KATL 052352Z 25005KT 10SM FEW040 SCT200 BKN250 29/21 A2998 RMK AO2 TSE05 SLP141 CB DSNT NE AND SE T02890206 10322 20289 53006=
201107052305 SPECI KATL 052305Z 28008KT 10SM FEW040CB SCT150 SCT250 30/21 A2997 RMK AO2 TSE05 TS DSIPTD CB NE MOV NE=
201107052305 SPECI KATL 052305Z 28008KT 10SM FEW040CB SCT150 SCT250 30/21 A2997 RMK AO2 TSE05 TS DSIPTD CB NE MOV NE=
201107052252 METAR KATL 052252Z 27008KT 10SM TS FEW040CB SCT150 SCT250 30/21 A2996 RMK AO2 TSB46 SLP136 FRQ LTGCG NE-E TS NE-E MOV NE T03000206=
201107052246 SPECI KATL 052246Z 28009KT 10SM TS FEW040CB SCT150 31/21 A2996 RMK AO2 TSB46 FRQ LTGCG NE-E TS NE-E MOV NE=
201107052246 SPECI KATL 052246Z 28009KT 10SM TS FEW040CB SCT150 31/21 A2996 RMK AO2 TSB46 FRQ LTGCG NE-E TS NE-E MOV NE=
201107052152 METAR KATL 052152Z VRB03KT 10SM FEW045TCU SCT060 SCT200 32/19 A2995 RMK AO2 SLP132 TCU NE-E SW AND DSNT NW-N T03170194=
201107052052 METAR KATL 052052Z 25007KT 220V300 10SM FEW050 SCT200 32/20 A2996 RMK AO2 SLP134 CB DSNT S-SW T03220200 58021=
201107051952 METAR KATL 051952Z VRB04KT 10SM FEW045TCU SCT200 32/19 A2998 RMK AO2 SLP141 CB DSNT SW TCU E T03170194=
201107051852 METAR KATL 051852Z 29005KT 10SM SCT040TCU 31/20 A3001 RMK AO2 SLP150 TCU SE-S-SW T03110200=
201107051752 METAR KATL 051752Z 32008KT 10SM FEW040 31/21 A3002 RMK AO2 SLP156 T03060206 10306 20206 58008=
201107051652 METAR KATL 051652Z 00000KT 10SM FEW040 SCT100 SCT250 28/19 A3003 RMK AO2 SLP159 T02830194=
201107051552 METAR KATL 051552Z VRB03KT 10SM FEW030 SCT100 SCT250 28/20 A3004 RMK AO2 SLP163 T02830200=
201107051452 METAR KATL 051452Z COR 30007KT 10SM FEW100 SCT200 SCT250 27/20 A3005 RMK AO2 SLP166 T02670200 53002=
201107051352 METAR KATL 051352Z 29004KT 10SM FEW200 25/20 A3005 RMK AO2 SLP166 T02500200=
201107051252 METAR KATL 051252Z 23003KT 10SM FEW250 23/20 A3004 RMK AO2 SLP162 T02280200=
201107051152 METAR KATL 051152Z 21003KT 9SM FEW250 21/19 A3004 RMK AO2 SLP163 70018 T02060194 10217 20206 51017=
201107051052 METAR KATL 051052Z 21004KT 7SM FEW150 SCT250 21/19 A3003 RMK AO2 SLP160 T02060189=
201107050952 METAR KATL 050952Z 24004KT 8SM FEW150 SCT250 21/19 A3002 RMK AO2 SLP155 T02060189=
201107050852 METAR KATL 050852Z 00000KT 10SM FEW150 21/19 A2999 RMK AO2 SLP146 T02110189 50000=
201107050752 METAR KATL 050752Z 00000KT 10SM SCT140 21/19 A2999 RMK AO2 SLP145 T02110189=
201107050652 METAR KATL 050652Z 00000KT 10SM FEW070 SCT140 21/19 A3000 RMK AO2 SLP149 T02110194=
201107050552 METAR KATL 050552Z 32003KT 10SM SCT150 BKN200 OVC250 22/19 A2999 RMK AO2 RAE51 SLP144 P0000 60018 T02170194 10267 20211 55020=
201107050452 METAR KATL 050452Z 32006KT 10SM -RA FEW070 SCT120 BKN150 OVC200 22/20 A2997 RMK AO2 SLP138 P0001 T02170200 403330211=
201107050352 METAR KATL 050352Z 24004KT 8SM -RA FEW030 SCT070 BKN100 OVC150 22/20 A2997 RMK AO2 TSE05 SLP136 TS DSIPTD P0011 T02170200=
201107050306 SPECI KATL 050306Z 31008KT 6SM RA BR FEW030 BKN050 BKN090 OVC150 22/20 A3004 RMK AO2 TSE05 TS DSIPTD P0004=
201107050306 SPECI KATL 050306Z 31008KT 6SM RA BR FEW030 BKN050 BKN090 OVC150 22/20 A3004 RMK AO2 TSE05 TS DSIPTD P0004=
201107050252 METAR KATL 050252Z 31003KT 6SM -TSRA BR FEW030CB BKN060 BKN090 OVC150 22/19 A3005 RMK AO2 SLP165 OCNL LTGICCA SE TS SE MOV E P0006 60006 T02170194 51021=
201107050152 METAR KATL 050152Z 30015G19KT 8SM -TSRA FEW010 SCT040CB OVC070 22/20 A3005 RMK AO2 RAB25 SLP166 OCNL LTGICCGCA OHD-ALQDS TS OHD-ALQDS MOV E P0000 T02220200=
201107050052 METAR KATL 050052Z 29014G19KT 10SM TS FEW010 SCT040CB BKN060 OVC150 25/18 A3001 RMK AO2 WSHFT 2355 TSB15 PRESRR SLP153 OCNL LTGICCG NE SW AND DSNT NW TS NE SW AND DSNT NW MOV E T02500183=
201107050015 SPECI KATL 050015Z 35007KT 10SM TS FEW020 SCT040CB BKN080 OVC200 27/19 A2999 RMK AO2 WSHFT 2355 TSB15 OCNL LTGICCG NW AND DSNT SW-W TS NW AND DSNT SW-W MOV E=
201107050015 SPECI KATL 050015Z 35007KT 10SM TS FEW020 SCT040CB BKN080 OVC200 27/19 A2999 RMK AO2 WSHFT 2355 TSB15 OCNL LTGICCG NW AND DSNT SW-W TS NW AND DSNT SW-W MOV E=
201107042352 METAR KATL 042352Z 00000KT 10SM FEW020 SCT050 BKN140 OVC200 26/19 A2998 RMK AO2 PRESRR SLP143 FRQ LTG DSNT NW T02610194 10333 20250 53005=
201107042252 METAR KATL 042252Z 12005KT 10SM FEW035TCU SCT150 OVC200 26/20 A2996 RMK AO2 SLP136 TCU S-SW T02560200=
201107042152 METAR KATL 042152Z 16007KT 10SM FEW035 SCT150 BKN200 OVC250 26/20 A2997 RMK AO2 TSE10 SLP139 FRQ LTG DSNT NW-N-NE T02560200=
201107042110 SPECI KATL 042110Z 15012G17KT 10SM FEW035 SCT150 BKN200 OVC250 27/19 A2998 RMK AO2 TSE10 TS DSIPTD CB DSNT NW-N=
201107042110 SPECI KATL 042110Z 15012G17KT 10SM FEW035 SCT150 BKN200 OVC250 27/19 A2998 RMK AO2 TSE10 TS DSIPTD CB DSNT NW-N=
201107042052 METAR KATL 042052Z 19013G20KT 10SM TS SCT040CB SCT100 BKN250 27/19 A2997 RMK AO2 TSB04 SLP138 OCNL LTGICCG NE-SE TS NE-SE MOV SLO E CB DSNT NW MOV SLO E TCU DSNT NW T02670194 55007=
201107042006 SPECI KATL 042006Z 26009G14KT 9SM TS SCT045CB SCT100 BKN250 33/21 A2994 RMK AO2 TSB04 OCNL LTGICCG VC SE-S TS VC SE-S MOV SLO E CB DSNT E MOV SLO E TCU DSNT NW=
201107042006 SPECI KATL 042006Z 26009G14KT 9SM TS SCT045CB SCT100 BKN250 33/21 A2994 RMK AO2 TSB04 OCNL LTGICCG VC SE-S TS VC SE-S MOV SLO E CB DSNT E MOV SLO E TCU DSNT NW=
201107041952 METAR KATL 041952Z 28007KT 9SM FEW050 SCT100 BKN250 33/21 A2992 RMK AO2 PRESFR SLP121 CB DSNT E MOV SLO NE TCU DSNT SW AND NW T03280211=
201107041852 METAR KATL 041852Z 34012KT 9SM FEW045 SCT100 BKN250 32/21 A2997 RMK AO2 SLP136 CB DSNT N MOV SLO NE TCU DSNT E AND SW-NW T03220211=
201107041752 METAR KATL 041752Z 25007KT 9SM BKN040TCU BKN100 BKN250 32/21 A2999 RMK AO2 SLP144 CB DSNT NW-N MOV SLO E TCU OHD AND ALQDS T03220206 10322 20239 58013=
201107041652 METAR KATL 041652Z 17004KT 9SM FEW045 SCT250 31/21 A3002 RMK AO2 SLP154 T03110211=
201107041552 METAR KATL 041552Z 26005KT 9SM FEW250 31/21 A3003 RMK AO2 SLP158 T03060211=
201107041452 METAR KATL 041452Z 31006KT 9SM FEW250 29/21 A3003 RMK AO2 SLP157 T02940211 50000=
201107041352 METAR KATL 041352Z 29005KT 8SM FEW150 SCT250 27/21 A3004 RMK AO2 SLP161 T02670211=
201107041252 METAR KATL 041252Z 24005KT 7SM FEW090 SCT150 SCT250 24/21 A3003 RMK AO2 SLP159 T02440206=
201107041152 METAR KATL 041152Z 20003KT 8SM SCT150 SCT250 24/20 A3003 RMK AO2 SLP157 T02390200 10239 20228 53007=
201107041052 METAR KATL 041052Z 17003KT 9SM SCT070 BKN140 BKN250 23/19 A3002 RMK AO2 SLP154 T02330194=
201107040952 METAR KATL 040952Z 24003KT 10SM SCT060 BKN150 23/19 A3001 RMK AO2 SLP149 T02330194=
201107040852 METAR KATL 040852Z 21005KT 10SM SCT120 BKN150 23/19 A3001 RMK AO2 SLP148 T02330189 53001=
201107040752 METAR KATL 040752Z 24006KT 10SM BKN150 24/18 A3000 RMK AO2 SLP148 T02390183=
201107040652 METAR KATL 040652Z 20006KT 9SM BKN065 BKN150 24/19 A3000 RMK AO2 SLP148 T02390194=
201107040552 METAR KATL 040552Z 00000KT 9SM SCT150 24/19 A3000 RMK AO2 SLP147 T02390194 10300 20239 57004=
201107040452 METAR KATL 040452Z 24003KT 9SM SCT150 24/20 A3000 RMK AO2 SLP147 T02440200 403500222=
201107040352 METAR KATL 040352Z 23003KT 10SM FEW075 SCT150 BKN250 26/20 A3001 RMK AO2 SLP151 T02560200=
201107040252 METAR KATL 040252Z 21004KT 10SM FEW075 BKN150 26/21 A3001 RMK AO2 SLP151 T02610206 51012=
201107040152 METAR KATL 040152Z 17005KT 10SM SCT075 BKN250 27/21 A3001 RMK AO2 SLP151 T02720206=
201107040052 METAR KATL 040052Z 18006KT 10SM FEW085 SCT150 BKN250 28/20 A2998 RMK AO2 SLP142 T02830200=
201107032352 METAR KATL 032352Z 17006KT 10SM SCT070 SCT085 BKN250 30/20 A2998 RMK AO2 TSB31E47 SLP139 TS DSIPT T03000200 10350 20300 53001=
201107032347 SPECI KATL 032347Z 18008KT 10SM SCT070 SCT085 BKN250 31/20 A2997 RMK AO2 TSB31E47 TS DSIPT=
201107032347 SPECI KATL 032347Z 18008KT 10SM SCT070 SCT085 BKN250 31/20 A2997 RMK AO2 TSB31E47 TS DSIPT=
201107032331 SPECI KATL 032331Z 19008KT 10SM TS FEW060CB BKN085 BKN250 31/20 A2996 RMK AO2 TSB31 OCNL LTGIC NW TS NW MOV NW=
201107032331 SPECI KATL 032331Z 19008KT 10SM TS FEW060CB BKN085 BKN250 31/20 A2996 RMK AO2 TSB31 OCNL LTGIC NW TS NW MOV NW=
201107032252 METAR KATL 032252Z 17011KT 10SM FEW065TCU BKN085 BKN250 31/19 A2996 RMK AO2 WSHFT 2210 SLP135 TCU NW SHRA NW T03060189=
201107032227 SPECI KATL 032227Z 14007G16KT 10SM FEW065 SCT085 BKN250 31/18 A2997 RMK AO2 WSHFT 2210=
201107032227 SPECI KATL 032227Z 14007G16KT 10SM FEW065 SCT085 BKN250 31/18 A2997 RMK AO2 WSHFT 2210=
201107032216 SPECI KATL 032216Z 15010KT 10SM FEW065 SCT090 BKN250 32/18 A2996 RMK AO2=
201107032216 SPECI KATL 032216Z 15010KT 10SM FEW065 SCT090 BKN250 32/18 A2996 RMK AO2=
201107032152 METAR KATL 032152Z 00000KT 10SM SCT065 SCT150 BKN250 35/12 A2996 RMK AO2 SLP135 TCU DSNT N-NE & SE T03500122=
201107032052 METAR KATL 032052Z VRB03KT 10SM FEW065 SCT130 BKN250 35/16 A2997 RMK AO2 SLP137 CB DSNT E-SE MOV S TCU DSNT N-NE T03500161 58019=
201107031952 METAR KATL 031952Z 31008KT 10SM SCT065 BKN130 BKN250 33/18 A2999 RMK AO2 SLP144 CB DSNT E MOV S TCU DSNT SE-S AND NW T03330178=
201107031852 METAR KATL 031852Z 25006KT 10SM SCT065CB SCT120 BKN250 33/18 A3001 RMK AO2 SLP152 CB NW-N MOV S TCU DSNT ALQDS T03330183=
201107031752 METAR KATL 031752Z 26005KT 10SM SCT060TCU SCT120 BKN250 32/18 A3003 RMK AO2 SLP157 TCU OHD AND DSNT ALQDS T03170178 10328 20228 58007=
201107031652 METAR KATL 031652Z VRB04KT 8SM FEW050 SCT250 32/21 A3004 RMK AO2 SLP160 T03220211=
201107031552 METAR KATL 031552Z 17003KT 8SM FEW250 31/21 A3005 RMK AO2 SLP165 T03060206 $=
201107031452 METAR KATL 031452Z 00000KT 9SM FEW250 30/21 A3005 RMK AO2 SLP164 T03000211 53006 $=
201107031352 METAR KATL 031352Z 21003KT 10SM FEW250 28/21 A3005 RMK AO2 SLP162 T02780206 $=
201107031252 METAR KATL 031252Z 23004KT 9SM CLR 25/20 A3003 RMK AO2 SLP159 T02500200 $=
201107031152 METAR KATL 031152Z 23003KT 8SM CLR 23/20 A3003 RMK AO2 SLP158 T02280200 10256 20222 50004 $=
201107031052 METAR KATL 031052Z 18003KT 7SM FEW250 22/19 A3004 RMK AO2 SLP160 T02220194 $=
201107030952 METAR KATL 030952Z 22003KT 8SM CLR 23/19 A3003 RMK AO2 SLP156 T02280194 $=
201107030852 METAR KATL 030852Z 21005KT 8SM CLR 23/19 A3002 RMK AO2 SLP154 T02280194 58001 $=
201107030752 METAR KATL 030752Z 00000KT 8SM CLR 24/20 A3002 RMK AO2 SLP153 T02390200 $=
201107030652 METAR KATL 030652Z 13003KT 9SM FEW150 24/20 A3003 RMK AO2 SLP155 T02440200 $=
201107030552 METAR KATL 030552Z 30003KT 10SM BKN075 BKN150 25/19 A3002 RMK AO2 SLP155 60000 T02500194 10333 20244 55003 $=
201107030452 METAR KATL 030452Z 22004KT 10SM FEW070 SCT150 SCT250 25/19 A3002 RMK AO2 SLP154 T02500194 403440228 $=
201107030352 METAR KATL 030352Z 20009KT 9SM FEW150 SCT250 26/19 A3003 RMK AO2 SLP158 T02560194 $=
201107030252 METAR KATL 030252Z 18009KT 9SM FEW060 SCT075 BKN250 26/21 A3003 RMK AO2 TSE29RAE03 SLP158 FRQ LTGICCG DSNT SE TS MOV SE CB DSNT SE P0000 60000 T02560206 $=
201107030229 SPECI KATL 030229Z VRB04KT 9SM FEW060 SCT075 BKN250 27/19 A3002 RMK AO2 TSE29RAE03 FRQ LTGICCG DSNT SE TS MOV SE CB DSNT SE P0000 $=
201107030229 SPECI KATL 030229Z VRB04KT 9SM FEW060 SCT075 BKN250 27/19 A3002 RMK AO2 TSE29RAE03 FRQ LTGICCG DSNT SE TS MOV SE CB DSNT SE P0000 $=
201107030152 METAR KATL 030152Z COR 13006KT 8SM -TSRA SCT060CB BKN075 OVC250 28/19 A3003 RMK AO2 RAB50 SLP157 OCNL LTGICCG OHD-SE TS OHD-SE MOV SW P0000 T02780189 $=
201107030143 SPECI KATL 030143Z 10012G24KT 10SM TS SCT060CB BKN075 BKN250 28/18 A3004 RMK AO2 TSB21 OCNL LTGICCG OHD-SE TS OHD-SE MOV SW SHRA E-SE $=
201107030143 SPECI KATL 030143Z 10012G24KT 10SM TS SCT060CB BKN075 BKN250 28/18 A3004 RMK AO2 TSB21 OCNL LTGICCG OHD-SE TS OHD-SE MOV SW SHRA E-SE $=
201107030121 SPECI KATL 030121Z 21005KT 10SM TS SCT060CB BKN075 BKN250 27/19 A3002 RMK AO2 TSB21 OCNL LTGICCG NE-E TS NE-E MOV SW SHRA NE-E $=
201107030121 SPECI KATL 030121Z 21005KT 10SM TS SCT060CB BKN075 BKN250 27/19 A3002 RMK AO2 TSB21 OCNL LTGICCG NE-E TS NE-E MOV SW SHRA NE-E $=
201107030052 METAR KATL 030052Z COR 19009KT 8SM FEW060 BKN075 BKN250 28/19 A3002 RMK AO2 TSE03 SLP154 OCNL LTGCG DSNT S TS DSIPT CB DSNT S SHRA S T02780189 $=
201107030044 SPECI KATL 030044Z 19011G16KT 8SM FEW060 BKN075 BKN250 29/18 A3002 RMK AO2 TSE03 TS DSIPT CB DSNT S SHRA S $=
201107030044 SPECI KATL 030044Z 19011G16KT 8SM FEW060 BKN075 BKN250 29/18 A3002 RMK AO2 TSE03 TS DSIPT CB DSNT S SHRA S $=
201107030003 SPECI KATL 030003Z VRB04KT 8SM SCT060 SCT100 BKN250 31/17 A3001 RMK AO2 TSE03 TS DSIPT CB DSNT SE-SW SHRA SE-SW $=
201107030003 SPECI KATL 030003Z VRB04KT 8SM SCT060 SCT100 BKN250 31/17 A3001 RMK AO2 TSE03 TS DSIPT CB DSNT SE-SW SHRA SE-SW $=
201107022352 METAR KATL 022352Z 20008KT 8SM TS SCT060CB SCT100 BKN250 32/18 A3001 RMK AO2 TSB41 SLP149 OCNL LTGIC SW TS SW MOV SW CB DSNT S SHRA SW T03170178 10344 20317 56006 $=
201107022341 SPECI KATL 022341Z 28005KT 8SM TS SCT060CB SCT100 SCT250 33/18 A3001 RMK AO2 TSB41 OCNL LTGIC SW TS SW MOV SW CB DSNT SE-S $=
201107022341 SPECI KATL 022341Z 28005KT 8SM TS SCT060CB SCT100 SCT250 33/18 A3001 RMK AO2 TSB41 OCNL LTGIC SW TS SW MOV SW CB DSNT SE-S $=
201107022252 METAR KATL 022252Z 30008KT 8SM SCT060TCU SCT100 BKN250 33/18 A3001 RMK AO2 SLP148 CB DSNT SE TCU OHD-E T03330178 $=
201107022152 METAR KATL 022152Z 20006KT 8SM FEW065 SCT100 33/17 A3000 RMK AO2 SLP148 CB DSNT SE TCU DSNT NE-E T03330172 $=
201107022052 METAR KATL 022052Z VRB03KT 8SM SCT065TCU BKN100 33/17 A3002 RMK AO2 SLP155 TCU NE T03330172 58017 $=
201107021952 METAR KATL 021952Z 20004KT 8SM SCT065TCU SCT100 33/17 A3004 RMK AO2 SLP160 TCU NE T03280172 $=
201107021852 METAR KATL 021852Z VRB04KT 8SM SCT060 SCT100 34/19 A3006 RMK AO2 SLP167 T03390189 $=
201107021752 METAR KATL 021752Z 09005KT 8SM SCT055 32/17 A3008 RMK AO2 SLP172 TCU DSNT S T03220172 10328 20233 57006 $=
201107021652 METAR KATL 021652Z 00000KT 8SM FEW065 33/19 A3008 RMK AO2 SLP174 T03280194 $=
201107021552 METAR KATL 021552Z VRB03KT 9SM CLR 32/20 A3009 RMK AO2 SLP176 T03170200 $=
201107021452 METAR KATL 021452Z 14003KT 9SM CLR 29/19 A3009 RMK AO2 SLP179 T02940194 58002 $=
201107021352 METAR KATL 021352Z 00000KT 9SM FEW250 28/20 A3010 RMK AO2 SLP182 T02780200 $=
201107021252 METAR KATL 021252Z 16003KT 8SM FEW250 25/20 A3010 RMK AO2 SLP181 T02500200 $=
201107021152 METAR KATL 021152Z 00000KT 7SM CLR 23/20 A3010 RMK AO2 SLP182 T02330200 10244 20228 53020 $=
201107021052 METAR KATL 021052Z 00000KT 7SM FEW250 23/20 A3007 RMK AO2 SLP173 T02280200 $=
201107020952 METAR KATL 020952Z 33003KT 10SM CLR 23/20 A3005 RMK AO2 SLP165 T02330200 $=
201107020852 METAR KATL 020852Z 29004KT 10SM CLR 24/19 A3004 RMK AO2 SLP161 T02390194 55004 $=
201107020752 METAR KATL 020752Z 27004KT 10SM CLR 24/19 A3004 RMK AO2 SLP160 T02390194 $=
201107020652 METAR KATL 020652Z 00000KT 10SM SCT150 23/19 A3004 RMK AO2 SLP161 T02330194 $=
201107020552 METAR KATL 020552Z 00000KT 10SM BKN200 24/19 A3005 RMK AO2 SLP164 T02440194 10283 20239 58003 $=
201107020452 METAR KATL 020452Z 00000KT 10SM FEW065 BKN250 26/19 A3006 RMK AO2 SLP168 T02610189 403330239 $=
201107020352 METAR KATL 020352Z 24003KT 10SM SCT065 BKN090 BKN250 26/19 A3007 RMK AO2 SLP169 T02610189 $=
201107020252 METAR KATL 020252Z 27007KT 10SM FEW060 BKN250 26/19 A3006 RMK AO2 SLP167 T02560189 53014 $=
201107020152 METAR KATL 020152Z 29003KT 10SM FEW070 SCT250 27/19 A3004 RMK AO2 SLP160 T02670189 $=
201107020052 METAR KATL 020052Z 00000KT 10SM FEW040 SCT200 27/19 A3002 RMK AO2 SLP155 T02720189 $=
201107012352 METAR KATL 012352Z 21004KT 10SM FEW150 SCT200 BKN250 28/18 A3002 RMK AO2 SLP154 TCU DSNT NW 60000 T02830183 10333 20283 55000 $=
201107012252 METAR KATL 012252Z 17010KT 10SM FEW040 SCT250 29/18 A3002 RMK AO2 SLP153 CB DSNT E-SE T02940183 $=
201107012152 METAR KATL 012152Z 30006KT 10SM FEW040 SCT200 BKN250 31/18 A3001 RMK AO2 TSE17RAE40 SLP149 CB DSNT SE AND SW P0000 T03060183 $=
201107012117 SPECI KATL 012117Z 32011KT 9SM -RA FEW040 BKN140 BKN200 BKN250 28/19 A3001 RMK AO2 TSE17 TS DSIPTD CB DSNT SE-S AND SW P0000 $=
201107012117 SPECI KATL 012117Z 32011KT 9SM -RA FEW040 BKN140 BKN200 BKN250 28/19 A3001 RMK AO2 TSE17 TS DSIPTD CB DSNT SE-S AND SW P0000 $=
201107012052 METAR KATL 012052Z 32010KT 9SM -TSRA FEW040CB SCT050TCU BKN090 BKN250 30/19 A3002 RMK AO2 TSB09RAB52 SLP153 OCNL LTGICCG N & DSNT W TS N & DSNT W MOV S TCU NE-E SHRA N & DSNT W CB DSNT SE-S & W P0000 60000 T03000194 55003 $=
201107012042 SPECI KATL 012042Z 31010KT 9SM TS FEW040CB SCT050TCU BKN090 BKN250 29/20 A3002 RMK AO2 TSB09 FRQ LTGICCG NW-N TS VC NW-N MOV S TCU NE-E SHRA VC NW-N CB DSNT SE-S $=
201107012042 SPECI KATL 012042Z 31010KT 9SM TS FEW040CB SCT050TCU BKN090 BKN250 29/20 A3002 RMK AO2 TSB09 FRQ LTGICCG NW-N TS VC NW-N MOV S TCU NE-E SHRA VC NW-N CB DSNT SE-S $=
201107012010 SPECI KATL 012010Z 31003KT 10SM TS FEW050CB SCT080 BKN250 32/15 A3001 RMK AO2 TSB09 FRQ LTGICCG NW TS NW MOV S SHRA NW=
201107012010 SPECI KATL 012010Z 31003KT 10SM TS FEW050CB SCT080 BKN250 32/15 A3001 RMK AO2 TSB09 FRQ LTGICCG NW TS NW MOV S SHRA NW=
201107011952 METAR KATL 011952Z 00000KT 10SM FEW050CB SCT060TCU SCT080 32/19 A3001 RMK AO2 RAB30E48 SLP151 CB DSNT SE-S & VC NW MOV S TCU N-NE SHRA VC NW P0000 T03170189=
201107011930 SPECI KATL 011930Z 07004KT 10SM -RA BKN055TCU BKN080 32/19 A3002 RMK AO2 RAB30 TCU OHD P0000=
201107011930 SPECI KATL 011930Z 07004KT 10SM -RA BKN055TCU BKN080 32/19 A3002 RMK AO2 RAB30 TCU OHD P0000=
201107011903 SPECI KATL 011903Z 15006KT 10SM FEW050CB SCT060TCU BKN080 32/18 A3002 RMK AO2 CB NE MOV SW TCU E SHRA NE=
201107011903 SPECI KATL 011903Z 15006KT 10SM FEW050CB SCT060TCU BKN080 32/18 A3002 RMK AO2 CB NE MOV SW TCU E SHRA NE=
201107011852 METAR KATL 011852Z 16006KT 10SM FEW050TCU SCT060 SCT080 31/19 A3002 RMK AO2 TSB07E24 SLP154 CB DSNT SE TCU NE & NW T03110194=
201107011825 SPECI KATL 011825Z 16009KT 10SM FEW050CB SCT060TCU SCT080 29/19 A3003 RMK AO2 TSB07E24 TS MOV S CB SE-S MOV S TCU NE SHRA SE-S=
201107011825 SPECI KATL 011825Z 16009KT 10SM FEW050CB SCT060TCU SCT080 29/19 A3003 RMK AO2 TSB07E24 TS MOV S CB SE-S MOV S TCU NE SHRA SE-S=
201107011819 SPECI KATL 011819Z 15008G16KT 9SM TS FEW050CB SCT060TCU SCT080 29/19 A3003 RMK AO2 TSB07 OCNL LTGIC SE-S TS SE-S MOV S TCU NE SHRA SE-S=
201107011819 SPECI KATL 011819Z 15008G16KT 9SM TS FEW050CB SCT060TCU SCT080 29/19 A3003 RMK AO2 TSB07 OCNL LTGIC SE-S TS SE-S MOV S TCU NE SHRA SE-S=
201107011807 SPECI KATL 011807Z 00000KT 10SM TS FEW050CB SCT060TCU BKN080 32/18 A3003 RMK AO2 TSB07 OCNL LTGIC SE-S TS SE-S MOV S TCU NE-E SHRA SE-S=
201107011807 SPECI KATL 011807Z 00000KT 10SM TS FEW050CB SCT060TCU BKN080 32/18 A3003 RMK AO2 TSB07 OCNL LTGIC SE-S TS SE-S MOV S TCU NE-E SHRA SE-S=
201107011805 SPECI KATL 011805Z 00000KT 10SM FEW050CB SCT060TCU BKN080 31/18 A3003 RMK AO2 CB SE-S MOV SE TCU NE-E SHRA SE-S=
201107011805 SPECI KATL 011805Z 00000KT 10SM FEW050CB SCT060TCU BKN080 31/18 A3003 RMK AO2 CB SE-S MOV SE TCU NE-E SHRA SE-S=
201107011752 METAR KATL 011752Z 26004KT 10SM BKN045TCU BKN075 31/19 A3003 RMK AO2 SLP155 TCU OHD-SE-S & NW SHRA SE-S T03110189 10317 20250 56008=
201107011652 METAR KATL 011652Z 26005KT 10SM BKN045TCU BKN250 31/20 A3004 RMK AO2 SLP158 TCU OHD-W-NW-N T03110200=
201107011552 METAR KATL 011552Z 18004KT 10SM FEW045TCU 31/19 A3004 RMK AO2 SLP160 TCU NW-N T03060194=
201107011452 METAR KATL 011452Z 00000KT 10SM FEW040 30/20 A3005 RMK AO2 SLP164 T03000200 50004=
201107011352 METAR KATL 011352Z 00000KT 10SM CLR 28/20 A3006 RMK AO2 SLP166 T02830200=
201107011252 METAR KATL 011252Z 10003KT 10SM CLR 27/20 A3005 RMK AO2 SLP165 T02670200=
