##########################################################
# Query made at 04/19/2024 23:21:50 UTC
# Time interval: from 05/01/2011 12:00  to 05/31/2011 12:59  UTC
##########################################################

##########################################################
# KATL, Atlanta, Hartsfield - Jackson Atlanta International Airport (United States)
# WMO index: 72219. WIGOS ID: 0-20000-0-72219
# Latitude 33-38-59N. Longitude 084-25-00W. Altitude 312 m.
##########################################################

201105311252 METAR KATL 311252Z 24006KT 10SM CLR 25/17 A3027 RMK AO2 SLP238 T02500172=
201105311152 METAR KATL 311152Z 00000KT 10SM CLR 24/18 A3025 RMK AO2 SLP234 T02390178 10256 20222 53015=
201105311052 METAR KATL 311052Z 00000KT 10SM CLR 22/17 A3023 RMK AO2 SLP227 T02220172=
201105310952 METAR KATL 310952Z 00000KT 10SM CLR 23/18 A3021 RMK AO2 SLP219 T02280178=
201105310852 METAR KATL 310852Z 14003KT 10SM CLR 23/18 A3021 RMK AO2 SLP218 T02330178 55002=
201105310752 METAR KATL 310752Z 00000KT 10SM CLR 24/17 A3020 RMK AO2 SLP214 T02390172=
201105310652 METAR KATL 310652Z 00000KT 10SM CLR 24/17 A3020 RMK AO2 SLP214 T02440172=
201105310552 METAR KATL 310552Z 00000KT 10SM CLR 25/17 A3021 RMK AO2 SLP219 T02500172 10306 20244 58002=
201105310452 METAR KATL 310452Z 00000KT 10SM CLR 26/17 A3022 RMK AO2 SLP221 T02610172 403220222=
201105310352 METAR KATL 310352Z 00000KT 10SM CLR 27/18 A3022 RMK AO2 SLP222 T02670178=
201105310252 METAR KATL 310252Z 14003KT 10SM CLR 28/18 A3022 RMK AO2 SLP221 T02780178 51013=
201105310152 METAR KATL 310152Z 14003KT 10SM CLR 28/18 A3021 RMK AO2 SLP218 T02830178=
201105310052 METAR KATL 310052Z 15004KT 10SM CLR 29/17 A3019 RMK AO2 SLP214 T02940172=
201105302352 METAR KATL 302352Z 12007KT 10SM FEW060 31/17 A3018 RMK AO2 SLP209 T03060172 10322 20300 55002=
201105302252 METAR KATL 302252Z 09007KT 10SM FEW060 32/17 A3018 RMK AO2 SLP208 T03170167=
201105302152 METAR KATL 302152Z VRB05KT 10SM FEW060 32/17 A3018 RMK AO2 SLP209 T03220167=
201105302052 METAR KATL 302052Z 13005KT 10SM FEW065 SCT095 31/17 A3019 RMK AO2 SLP212 T03110172 58012=
201105301952 METAR KATL 301952Z 09007KT 10SM SCT055 32/18 A3020 RMK AO2 SLP215 T03220178=
201105301852 METAR KATL 301852Z 15006KT 10SM SCT050 32/18 A3021 RMK AO2 SLP219 T03170183=
201105301752 METAR KATL 301752Z 30004KT 10SM BKN050 31/19 A3022 RMK AO2 SLP223 T03110194 10317 20228 58006=
201105301652 METAR KATL 301652Z 00000KT 10SM SCT060 30/18 A3024 RMK AO2 SLP227 T03000183=
201105301552 METAR KATL 301552Z 00000KT 10SM FEW095 29/19 A3024 RMK AO2 SLP229 T02890189=
201105301452 METAR KATL 301452Z 00000KT 10SM CLR 28/20 A3024 RMK AO2 SLP229 T02780200 51015=
201105301352 METAR KATL 301352Z 00000KT 10SM CLR 26/19 A3023 RMK AO2 SLP227 T02560194=
201105301252 METAR KATL 301252Z 18006KT 10SM CLR 24/18 A3022 RMK AO2 SLP222 T02390183=
201105301152 METAR KATL 301152Z 15003KT 10SM CLR 23/18 A3020 RMK AO2 SLP215 T02280178 10261 20222 53015=
201105301052 METAR KATL 301052Z 00000KT 10SM CLR 22/18 A3018 RMK AO2 SLP209 T02220178=
201105300952 METAR KATL 300952Z 00000KT 10SM CLR 23/18 A3016 RMK AO2 SLP201 T02280178=
201105300852 METAR KATL 300852Z 16005KT 10SM CLR 23/18 A3015 RMK AO2 SLP199 T02280178 53005=
201105300752 METAR KATL 300752Z 17006KT 10SM CLR 24/18 A3014 RMK AO2 SLP195 T02390178=
201105300652 METAR KATL 300652Z 16007KT 10SM CLR 24/18 A3014 RMK AO2 SLP193 T02440183=
201105300552 METAR KATL 300552Z 12005KT 10SM CLR 26/18 A3014 RMK AO2 SLP193 T02610183 10311 20261 58001=
201105300452 METAR KATL 300452Z 12004KT 10SM CLR 27/18 A3014 RMK AO2 SLP194 T02670183 403280194=
201105300352 METAR KATL 300352Z 13004KT 10SM CLR 28/18 A3014 RMK AO2 SLP196 T02780178=
201105300252 METAR KATL 300252Z 10007KT 10SM CLR 27/18 A3014 RMK AO2 SLP195 T02720183 53017=
201105300152 METAR KATL 300152Z 09008KT 10SM CLR 28/18 A3012 RMK AO2 SLP187 T02830178=
201105300052 METAR KATL 300052Z 09006KT 10SM FEW070 29/17 A3010 RMK AO2 SLP183 T02940172=
201105292352 METAR KATL 292352Z 10007KT 10SM FEW070 31/17 A3009 RMK AO2 SLP178 T03110167 10328 20311 53005=
201105292252 METAR KATL 292252Z 00000KT 10SM FEW070 32/16 A3008 RMK AO2 SLP175 T03220161=
201105292152 METAR KATL 292152Z 00000KT 10SM FEW060 SCT090 32/16 A3008 RMK AO2 SLP173 T03220161=
201105292052 METAR KATL 292052Z 15003KT 10SM SCT060 SCT075 SCT090 32/17 A3007 RMK AO2 SLP173 T03220172 58013=
201105291952 METAR KATL 291952Z 22008KT 10SM SCT060 SCT075 33/17 A3009 RMK AO2 SLP179 T03280172=
201105291852 METAR KATL 291852Z 18008KT 10SM SCT060 SCT150 32/17 A3010 RMK AO2 SLP181 T03170167=
201105291752 METAR KATL 291752Z 21006KT 10SM SCT055 SCT150 31/16 A3011 RMK AO2 SLP186 T03110161 10317 20211 58004=
201105291652 METAR KATL 291652Z 19006KT 10SM FEW050 SCT100 SCT150 31/17 A3013 RMK AO2 SLP191 T03060167=
201105291552 METAR KATL 291552Z 00000KT 10SM FEW100 SCT150 29/19 A3013 RMK AO2 SLP191 T02940189=
201105291452 METAR KATL 291452Z 13004KT 8SM FEW100 SCT150 27/19 A3013 RMK AO2 SLP192 T02670194 51011=
201105291352 METAR KATL 291352Z 13003KT 7SM FEW100 SCT150 25/20 A3012 RMK AO2 SLP189 T02500200=
201105291252 METAR KATL 291252Z 09003KT 6SM HZ FEW100 SCT150 23/19 A3011 RMK AO2 SLP185 T02280194=
201105291152 METAR KATL 291152Z 09007KT 6SM HZ FEW100 SCT150 21/18 A3009 RMK AO2 SLP181 T02110183 10228 20194 53024=
201105291052 METAR KATL 291052Z 08007KT 6SM HZ FEW150 20/17 A3007 RMK AO2 SLP171 T02000172=
201105290952 METAR KATL 290952Z 10005KT 8SM FEW250 20/17 A3003 RMK AO2 SLP160 T02000172=
201105290852 METAR KATL 290852Z 10006KT 8SM FEW250 20/17 A3002 RMK AO2 SLP155 T02000167 53003=
201105290752 METAR KATL 290752Z 08007KT 9SM FEW250 21/17 A3001 RMK AO2 SLP152 T02110167=
201105290652 METAR KATL 290652Z 08005KT 9SM FEW250 22/17 A3001 RMK AO2 SLP151 T02170167=
201105290552 METAR KATL 290552Z 08006KT 10SM SCT250 22/17 A3001 RMK AO2 SLP152 T02170172 10278 20217 50000=
201105290452 METAR KATL 290452Z 09004KT 10SM SCT250 22/17 A3001 RMK AO2 SLP154 T02220167 403060178=
201105290352 METAR KATL 290352Z 09005KT 10SM FEW250 23/16 A3001 RMK AO2 SLP154 T02280156=
201105290252 METAR KATL 290252Z 10006KT 10SM SCT250 24/13 A3001 RMK AO2 SLP154 T02390133 53018=
201105290152 METAR KATL 290152Z 00000KT 10SM SCT250 26/13 A2998 RMK AO2 SLP141 T02610133=
201105290052 METAR KATL 290052Z 00000KT 10SM BKN250 27/14 A2996 RMK AO2 SLP138 T02670139=
201105282352 METAR KATL 282352Z 20003KT 10SM BKN250 28/13 A2995 RMK AO2 SLP134 T02780133 10306 20278 53001=
201105282252 METAR KATL 282252Z 19006KT 10SM BKN250 29/12 A2995 RMK AO2 SLP131 T02940122=
201105282152 METAR KATL 282152Z 20007KT 10SM SCT250 30/13 A2994 RMK AO2 SLP131 T03000133=
201105282052 METAR KATL 282052Z 19003KT 10SM FEW065 BKN250 30/13 A2995 RMK AO2 SLP133 T03000128 56014=
201105281952 METAR KATL 281952Z 31005KT 10SM FEW060 30/14 A2996 RMK AO2 SLP135 T03000139 $=
201105281852 METAR KATL 281852Z 15003KT 10SM FEW050 28/14 A2997 RMK AO2 SLP141 T02830144 $=
201105281752 METAR KATL 281752Z 12003KT 10SM FEW040 28/14 A2999 RMK AO2 SLP147 T02780144 10278 20189 50000 $=
201105281652 METAR KATL 281652Z 00000KT 10SM FEW030 27/16 A3000 RMK AO2 SLP148 T02670156 $=
201105281552 METAR KATL 281552Z COR 00000KT 8SM FEW020 25/18 A3000 RMK AO2 SLP150 T02500183 $=
201105281509 SPECI KATL 281509Z 00000KT 7SM SCT008 22/18 A2999 RMK AO2 $=
201105281509 SPECI KATL 281509Z 00000KT 7SM SCT008 22/18 A2999 RMK AO2 $=
201105281452 METAR KATL 281452Z VRB03KT 5SM HZ BKN008 22/18 A2999 RMK AO2 SLP147 T02170183 50010 $=
201105281426 SPECI KATL 281426Z VRB03KT 2 1/2SM BR OVC005 21/18 A2999 RMK AO2 SFC VIS 4 $=
201105281426 SPECI KATL 281426Z VRB03KT 2 1/2SM BR OVC005 21/18 A2999 RMK AO2 SFC VIS 4 $=
201105281405 SPECI KATL 281405Z VRB04KT 1SM BR OVC005 20/18 A3000 RMK AO2 SFC VIS 2 $=
201105281405 SPECI KATL 281405Z VRB04KT 1SM BR OVC005 20/18 A3000 RMK AO2 SFC VIS 2 $=
201105281352 METAR KATL 281352Z 00000KT 1/4SM BR OVC005 20/18 A3000 RMK AO2 SFC VIS 2 SLP150 T02000183 $=
201105281252 METAR KATL 281252Z 08007KT 1/4SM R09R/1400VP6000FT BR OVC002 19/18 A2998 RMK AO2 SFC VIS 1 1/2 SLP146 T01890183 $=
201105281246 SPECI KATL 281246Z 10006KT 1/4SM R09R/1000V3500FT BR OVC002 19/18 A2998 RMK AO2 SFC VIS 1 1/4 $=
201105281246 SPECI KATL 281246Z 10006KT 1/4SM R09R/1000V3500FT BR OVC002 19/18 A2998 RMK AO2 SFC VIS 1 1/4 $=
201105281237 SPECI KATL 281237Z 10006KT 1/4SM R09R/1000V1600FT FG OVC001 19/18 A2998 RMK AO2 $=
201105281237 SPECI KATL 281237Z 10006KT 1/4SM R09R/1000V1600FT FG OVC001 19/18 A2998 RMK AO2 $=
201105281215 SPECI KATL 281215Z 11006KT 1/4SM R09R/5500VP6000FT BR BKN001 21/19 A2997 RMK AO2 SFC VIS 1 VIS W-NW 2 $=
201105281215 SPECI KATL 281215Z 11006KT 1/4SM R09R/5500VP6000FT BR BKN001 21/19 A2997 RMK AO2 SFC VIS 1 VIS W-NW 2 $=
201105281156 SPECI KATL 281156Z 00000KT 2SM BR SCT001 20/18 A2996 RMK AO2 SFC VIS 4 VIS SE-SW LWR $=
201105281156 SPECI KATL 281156Z 00000KT 2SM BR SCT001 20/18 A2996 RMK AO2 SFC VIS 4 VIS SE-SW LWR $=
201105281152 METAR KATL 281152Z 00000KT 1/2SM BR SCT001 21/19 A2996 RMK AO2 SFC VIS 4 SLP136 VIS SE-SW LWR T02060189 10217 20178 51021 $=
201105281135 SPECI KATL 281135Z 00000KT 1/2SM BR SCT001 19/18 A2996 RMK AO2 SFC VIS 1 1/2 $=
201105281135 SPECI KATL 281135Z 00000KT 1/2SM BR SCT001 19/18 A2996 RMK AO2 SFC VIS 1 1/2 $=
201105281108 SPECI KATL 281108Z 02003KT 1/2SM R09R/2400VP6000FT FG VV001 18/18 A2995 RMK AO2 VIS NE-E 1/4 $=
201105281108 SPECI KATL 281108Z 02003KT 1/2SM R09R/2400VP6000FT FG VV001 18/18 A2995 RMK AO2 VIS NE-E 1/4 $=
201105281052 METAR KATL 281052Z 00000KT 1/4SM R09R/2000V3000FT FG VV001 18/18 A2995 RMK AO2 TWR VIS 1/2 SLP132 T01830178=
201105281025 SPECI KATL 281025Z 03003KT 1/4SM R09R/2600VP6000FT FG VV001 18/18 A2993 RMK AO2 TWR VIS 1/2=
201105281025 SPECI KATL 281025Z 03003KT 1/4SM R09R/2600VP6000FT FG VV001 18/18 A2993 RMK AO2 TWR VIS 1/2=
201105281005 SPECI KATL 281005Z 03004KT 1/2SM R09R/3500VP6000FT BCFG BR BKN001 19/18 A2992 RMK AO2 SFC VIS 1 1/4 VIS 1/2V2=
201105281005 SPECI KATL 281005Z 03004KT 1/2SM R09R/3500VP6000FT BCFG BR BKN001 19/18 A2992 RMK AO2 SFC VIS 1 1/4 VIS 1/2V2=
201105281001 SPECI KATL 281001Z 03004KT 1 1/2SM BCFG BR BKN001 19/18 A2992 RMK AO2 VIS 1/2V2=
201105281001 SPECI KATL 281001Z 03004KT 1 1/2SM BCFG BR BKN001 19/18 A2992 RMK AO2 VIS 1/2V2=
201105280957 SPECI KATL 280957Z 03004KT 2SM BCFG BR SCT002 19/18 A2992 RMK AO2=
201105280957 SPECI KATL 280957Z 03004KT 2SM BCFG BR SCT002 19/18 A2992 RMK AO2=
201105280952 METAR KATL 280952Z 04004KT 3SM BCFG BR SCT002 19/18 A2992 RMK AO2 SLP121 T01890178=
201105280949 SPECI KATL 280949Z 03004KT 4SM BR SCT002 19/18 A2991 RMK AO2=
201105280949 SPECI KATL 280949Z 03004KT 4SM BR SCT002 19/18 A2991 RMK AO2=
201105280852 METAR KATL 280852Z 03003KT 10SM CLR 18/16 A2990 RMK AO2 SLP115 T01830161 55007=
201105280752 METAR KATL 280752Z 00000KT 10SM CLR 19/17 A2989 RMK AO2 SLP110 T01940167=
201105280652 METAR KATL 280652Z 30003KT 10SM CLR 20/16 A2990 RMK AO2 SLP116 T02000156=
201105280552 METAR KATL 280552Z 00000KT 10SM FEW250 21/16 A2992 RMK AO2 SLP122 T02110156 10256 20206 58001=
201105280452 METAR KATL 280452Z 02004KT 10SM FEW250 23/15 A2993 RMK AO2 SLP126 T02280150=
201105280352 METAR KATL 280352Z 02007KT 10SM SCT250 23/16 A2992 RMK AO2 SLP123 T02280156=
201105280252 METAR KATL 280252Z COR 34007KT 10SM SCT250 23/16 A2992 RMK AO2 SLP123 T02330156 53012=
201105280152 METAR KATL 280152Z COR 32004KT 10SM FEW050 24/16 A2991 RMK AO2 SLP119 T02440156=
201105280052 METAR KATL 280052Z 27003KT 10SM FEW050 SCT200 24/15 A2989 RMK AO2 SLPNO T02440150=
201105272352 METAR KATL 272352Z 23006KT 10SM FEW050 26/14 A2989 RMK AO2 SLPNO T02610144 10278 20250 53005=
201105272252 METAR KATL 272252Z COR 27007KT 10SM FEW050 27/14 A2988 RMK AO2 SLP108 T02720139=
201105272152 METAR KATL 272152Z 31005KT 10SM SCT050 28/14 A2988 RMK AO2 SLP107 T02780139=
201105272052 METAR KATL 272052Z 28010G18KT 10SM SCT047 28/16 A2987 RMK AO2 SLP106 T02780156 56016=
201105271952 METAR KATL 271952Z 25009G15KT 10SM SCT040 27/18 A2988 RMK T02710180 SLP110=
201105271852 METAR KATL 271852Z 23007KT 10SM SCT030 26/19 A2989 RMK T102590190 SLP112=
201105271752 METAR KATL 271752Z 27006KT 10SM SCT030 25/19 A2992 RMK T02540190 10254 20189 58010 SLP123=
201105271652 METAR KATL 271652Z 00000KT 9SM SCT020TCU SCT030 24/20 A2994 RMK TCU NE-NW T02400200 SLP130=
201105271552 METAR KATL 271552Z 19003KT 8SM FEW010TCU SCT020 BKN030 22/20 A2995 RMK TCU NW N T02200200 SLP136=
201105271452 METAR KATL 271452Z 18003KT 8SM BKN010 21/20 A2995 RMK T02140200 SLP136 53003=
201105271352 METAR KATL 271352Z 18004KT 5SM BR BKN006 BKN010 20/19 A2994 RMK SLP133 T02030190=
201105271252 METAR KATL 271252Z 15003KT 6SM BR FEW010 BKN015 19/19 A2995 RMK SLP114 T01890189=
201105271152 METAR KATL 271152Z 16004KT 6SM BR FEW005 BKN015 18/18 A2994 RMK SLP114 10211 23183 52007 60131 70187=
201105271109 SPECI KATL 271109Z 16006KT 3SM BR FEW005 BKN012 BKN150 18/18 A2993 RMK SFC VIS 6 SLP113 T01830183=
201105271109 SPECI KATL 271109Z 16006KT 3SM BR FEW005 BKN012 BKN150 18/18 A2993 RMK SFC VIS 6 SLP113 T01830183=
201105271052 METAR KATL 271052Z 16007KT 1SM BR BKN005 BKN012 OVC150 18/18 A2992 RMK SFC VIS 6SM SLP113 T0183=
201105271029 SPECI KATL 271029Z 14005KT 1SM BR OVC012 18/18 A2992 RMK SFC VIS 6SM SLP116=
201105271029 SPECI KATL 271029Z 14005KT 1SM BR OVC012 18/18 A2992 RMK SFC VIS 6SM SLP116=
201105270952 METAR KATL 270952Z 14006KT 6SM BR BKN015 BKN150 18/18 A2991 RMK SLP113 T01830183 10211 20183 51001 60135 70187=
201105270852 METAR KATL 270852Z 00000KT 7SM FEW015 SCT050 OVC100 18/18 A2990 RMK TSE19RAE19 OCNLLTGIC DSNT E TS MOV E SLP114 T01830183 57005 P0001 60131=
201105270819 SPECI KATL 270819Z 14008KT 6SM BR FEW015 BKN048 OVC070 18/18 A2990 RMK SLP 114 OCNL LTGIC DSNT E-SE TS MOV E 0001=
201105270819 METAR KATL 270819Z COR 14005KT 6SM BR FEW015 BKN048 OVC070 18/18 A2990=
201105270752 METAR KATL 270752Z 14005KT 6SM -TSRA BR BKN015CB OVC020 18/18 A2990 RMK OCNL LTGIC E-SE TS E-SE MOVE NE P0098=
201105270708 SPECI KATL 270708Z 32010KT 3SM +TSRA BR BKN008 BKN015CB OVC030 19/18 A2989 RMK CONSL LGTICCG NE-SE-SW TS NE-SE-SW MOV NE P0030=
201105270708 SPECI KATL 270708Z 32010KT 3SM +TSRA BR BKN008 BKN015CB OVC030 19/18 A2989 RMK CONSL LGTICCG NE-SE-SW TS NE-SE-SW MOV NE P0030=
201105270652 METAR KATL 270652Z 32009KT 9SM TSRA BKN015CB BKN030 OVC100 20/18 A2991 RMK A02 CONS LTGICCA ALQDS TS ALQDS MOVE NE P0032=
201105270622 SPECI KATL 270622Z 00000KT 7SM TSRA SCT025CB BKN050 OVC100 19/18 A2990 A02 CONS LTGICCA SE-SW TS SE-SW MOV NE=
201105270622 SPECI KATL 270622Z 00000KT 7SM TSRA SCT025CB BKN050 OVC100 19/18 A2990 A02 CONS LTGICCA SE-SW TS SE-SW MOV NE=
201105270552 METAR KATL 270552Z COR 25003KT 9SM -TSRA FEW025CB SCT040 OVC150 21/18 A2991 FRW LTGICCA E-SE-S TS E-SE-S MOV NE P0000 60004 T02110189 10211 20183 50004=
201105270518 SPECI KATL 270518Z 25003KT 8SM FEW025CB SCT040 OVC150 21/18 A2993 RMK FRQ LTGICCA S-SW TS S-SW M NE=
201105270518 SPECI KATL 270518Z 25003KT 8SM FEW025CB SCT040 OVC150 21/18 A2993 RMK FRQ LTGICCA S-SW TS S-SW M NE=
201105270452 METAR KATL 270452Z 00000KT 10SM FEW025 BKN060 BKN150 OVC200 19/18 A2991 RMK A02 SLP119 OCNL LTG DSNT SW T018017 403060183=
201105270352 METAR KATL 270352Z 00000KT 10SM FEW030 SCT050 BKN150 OVC200 19/17 A2991 RMK AO2 SLP119 T01890172=
201105270252 METAR KATL 270252Z 25003KT 10SM FEW100 SCT150 BKN250 19/17 A2991 RMK A02 SLP119 T01940172 51003=
201105270152 METAR KATL 270152Z 00000KT 10SM FEW001 BKN150 BKN250 19/17 A2991 RMK A02 SLP121 T01890172=
201105270052 METAR KATL 270052Z 05005KT 10SM SCT050 BKN150 OVC200 19/17 A2990 RMK AO2 RAE35 SLP118 P0004 T01940172=
201105262352 METAR KATL 262352Z 22008KT 7SM -RA SCT050 BKN080 OVC150 19/17 A2992 RMK TSE 52 TS MOV NE T0008 60052 T01940172 10294 20194 53030=
201105262345 SPECI KATL 262345Z 23010KT 7SM -TSRA FEW030CB SCT050 BKN080 OVC150 19/17 A2992 RMK AO2 OCNL LTGICCA NW-NE TS NW-NE MOV NE P0007 PNO $=
201105262345 SPECI KATL 262345Z 23010KT 7SM -TSRA FEW030CB SCT050 BKN080 OVC150 19/17 A2992 RMK AO2 OCNL LTGICCA NW-NE TS NW-NE MOV NE P0007 PNO $=
201105262252 METAR KATL 262252Z 23019G30KT 6SM TSRA FEW025 BKN050 OVC080 22/18 A2991 RMK OCNL LGT ICCA OHD-ALQDS TS OHD-ALQDS MOV NE P0040 P02170178=
201105262238 SPECI KATL 262238Z 23019G30KT 6SM -TSRA FEW025CB BKN050 OVC080 23/18 A2992 RMK AO2 RAB2158 FRQ LTGICCGCA OHD-NE TS OHD-NE MOV NE P0040 $=
201105262238 SPECI KATL 262238Z 23019G30KT 6SM -TSRA FEW025CB BKN050 OVC080 23/18 A2992 RMK AO2 RAB2158 FRQ LTGICCGCA OHD-NE TS OHD-NE MOV NE P0040 $=
201105262224 SPECI KATL 262224Z 23023G41KT 2SM +TSRA BR FEW010 BKN025CB OVC040 23/19 A2993 RMK AO2 RAB2158 FRQ LTGICCG OHD-ALQDS TS OHD-ALQDS MOV NE $=
201105262224 SPECI KATL 262224Z 23023G41KT 2SM +TSRA BR FEW010 BKN025CB OVC040 23/19 A2993 RMK AO2 RAB2158 FRQ LTGICCG OHD-ALQDS TS OHD-ALQDS MOV NE $=
201105262214 SPECI KATL 262214Z 24025G37KT 1/2SM R09R/2400VP6000FT +TSRA BR FEW010 BKN025CB OVC040 23/18 A2991 RMK AO2 RAB2158 PRESRR FRQ LTGICCG OHD-ALQDS TS OHD-ALQDS MOV NE P0000 $=
201105262214 SPECI KATL 262214Z 24025G37KT 1/2SM R09R/2400VP6000FT +TSRA BR FEW010 BKN025CB OVC040 23/18 A2991 RMK AO2 RAB2158 PRESRR FRQ LTGICCG OHD-ALQDS TS OHD-ALQDS MOV NE P0000 $=
201105262152 METAR KATL 262152Z 18011G16KT 10SM TS FEW020CB SCT070 BKN150 OVC200 23/19 A2983 RMK AO2 PK WND 28027/2108 RAE35 SLP093 OCNL LTGICCG SE-S TS SE-S MOV NE P0004 T02280189=
201105262139 SPECI KATL 262139Z 30003KT 10SM TS FEW020CB SCT055 BKN100 OVC150 22/17 A2983 RMK AO2 PK WND 28027/2108 RAE35 OCNL LTGICCG SE-S AND DSNT NE TS SE-S AND DSNT NE MOV NE P0004=
201105262139 SPECI KATL 262139Z 30003KT 10SM TS FEW020CB SCT055 BKN100 OVC150 22/17 A2983 RMK AO2 PK WND 28027/2108 RAE35 OCNL LTGICCG SE-S AND DSNT NE TS SE-S AND DSNT NE MOV NE P0004=
201105262101 SPECI KATL 262101Z 28014G21KT 7SM -TSRA SCT020CB BKN055 OVC080 23/19 A2984 RMK AO2 VIS LWR SW-N SHRA FRQ LTGICCG SW-N TS SW-N MOV NE P0001=
201105262101 SPECI KATL 262101Z 28014G21KT 7SM -TSRA SCT020CB BKN055 OVC080 23/19 A2984 RMK AO2 VIS LWR SW-N SHRA FRQ LTGICCG SW-N TS SW-N MOV NE P0001=
201105262052 METAR KATL 262052Z 26011G15KT 10SM -TSRA BKN050CB BKN080 BKN280 26/19 A2983 RMK AO2 TSB29RAB32 SLP092 VIS LWR SW-N SHRA FRQ LTGICCG=
201105262036 SPECI KATL 262036Z 20011KT 10SM -TSRA BKN050CB BKN070 BKN280 28/17 A2981 RMK AO2 TSB29RAB32 VIS LWR SW-NW SHRA FRQ LTGICCG SW-NW TS SW-NW MOV NE P0000=
201105262036 SPECI KATL 262036Z 20011KT 10SM -TSRA BKN050CB BKN070 BKN280 28/17 A2981 RMK AO2 TSB29RAB32 VIS LWR SW-NW SHRA FRQ LTGICCG SW-NW TS SW-NW MOV NE P0000=
201105262029 SPECI KATL 262029Z 20011KT 10SM TS FEW050CB BKN070 BKN280 29/17 A2982 RMK AO2 TSB29 FRQ LTGICCG W-NW TS W-NW MOV NE SHRA W-NW=
201105262029 SPECI KATL 262029Z 20011KT 10SM TS FEW050CB BKN070 BKN280 29/17 A2982 RMK AO2 TSB29 FRQ LTGICCG W-NW TS W-NW MOV NE SHRA W-NW=
201105261952 METAR KATL 261952Z 19011G19KT 160V230 10SM FEW050TCU SCT060 SCT280 30/17 A2984 RMK AO2 SLP092 CB DSNT NW-N TCU S & W T03000167=
201105261852 METAR KATL 261852Z 21014G20KT 10SM FEW050 SCT180 BKN280 29/17 A2987 RMK AO2 SLP103 CB DSNT NW-N T02940167=
201105261752 METAR KATL 261752Z 22011G16KT 10SM FEW040 SCT180 BKN280 28/17 A2990 RMK AO2 SLP114 CB DSNT NW T02830172 10289 20211 58007=
201105261652 SPECI KATL 261652Z 17012KT 10SM FEW040 BKN180 BKN280 27/17 A2992 RMK AO2 SLP119 T02670172=
201105261552 METAR KATL 261552Z 21007G17KT 10SM FEW035 BKN180 BKN280 26/18 A2992 RMK AO2 SLP122 T02560178=
201105261549 SPECI KATL 261549Z 19010G17KT 10SM FEW035 BKN180 BKN280 26/18 A2992 RMK AO2=
201105261549 SPECI KATL 261549Z 19010G17KT 10SM FEW035 BKN180 BKN280 26/18 A2992 RMK AO2=
201105261452 METAR KATL 261452Z 23010KT 10SM BKN020 BKN025 BKN280 24/18 A2995 RMK AO2 SLP132 T02390183 51003=
201105261352 METAR KATL 261352Z 22011KT 10SM BKN016 BKN020 BKN280 23/18 A2995 RMK AO2 SLP132 T02280183=
201105261252 METAR KATL 261252Z 23009KT 10SM SCT015 SCT110 BKN250 22/18 A2995 RMK AO2 SLP131 T02220178=
201105261152 METAR KATL 261152Z 20006KT 10SM BKN250 21/18 A2994 RMK AO2 SLP127 T02110178 10250 20200 50007=
201105261052 METAR KATL 261052Z 28005KT 10SM FEW150 BKN250 20/17 A2995 RMK AO2 SLP130 T02000167=
201105260952 METAR KATL 260952Z 22004KT 10SM FEW150 SCT250 21/17 A2993 RMK AO2 SLP124 T02110167=
201105260852 METAR KATL 260852Z 24007KT 10SM SCT150 22/17 A2992 RMK AO2 SLP120 T02220167 50004=
201105260752 METAR KATL 260752Z 24007KT 10SM BKN250 23/16 A2993 RMK AO2 SLP123 T02330161=
201105260652 METAR KATL 260652Z 22014G20KT 10SM SCT250 24/16 A2992 RMK AO2 SLP121 T02390161=
201105260552 METAR KATL 260552Z 22012G22KT 10SM FEW250 25/16 A2991 RMK AO2 SLP116 T02500161 10306 20250 53007=
201105260452 METAR KATL 260452Z 21011KT 10SM FEW250 25/15 A2990 RMK AO2 SLP111 T02500150 403280194=
201105260352 METAR KATL 260352Z 19008KT 10SM CLR 26/15 A2989 RMK AO2 SLP108 T02610150=
201105260252 METAR KATL 260252Z 18008KT 10SM CLR 27/15 A2989 RMK AO2 SLP109 T02670150 53002=
201105260152 METAR KATL 260152Z 18007KT 10SM CLR 27/16 A2987 RMK AO2 SLP104 T02720156=
201105260052 METAR KATL 260052Z 19008KT 10SM CLR 28/16 A2987 RMK AO2 SLP106 T02830156=
201105252352 METAR KATL 252352Z 21008KT 10SM FEW250 31/15 A2988 RMK AO2 SLP107 T03060150 10328 20300 56009=
201105252252 METAR KATL 252252Z 21009G16KT 180V250 10SM FEW250 32/14 A2988 RMK AO2 SLP107 T03170139=
201105252152 METAR KATL 252152Z 21011G19KT 10SM SCT250 32/13 A2990 RMK AO2 SLP112 T03220133=
201105252052 METAR KATL 252052Z 24011KT 10SM FEW080 SCT250 BKN280 32/13 A2991 RMK AO2 SLP117 T03170133 58016=
201105251952 METAR KATL 251952Z 20012G21KT 10SM FEW080 BKN250 BKN280 32/13 A2993 RMK AO2 SLP123 T03220133=
201105251852 METAR KATL 251852Z 22013G22KT 10SM FEW080 SCT250 BKN280 32/14 A2994 RMK AO2 SLP127 T03170139=
201105251752 METAR KATL 251752Z 21009G23KT 10SM FEW070 SCT250 BKN280 31/14 A2996 RMK AO2 PK WND 22026/1700 SLP133 T03110144 10311 20211 58013=
201105251652 METAR KATL 251652Z 22011G20KT 10SM FEW250 BKN280 30/14 A2997 RMK AO2 SLP138 T03000144=
201105251552 SPECI KATL 251552Z 21015KT 10SM FEW250 BKN280 29/15 A2999 RMK AO2 SLP144 T02890150=
201105251452 METAR KATL 251452Z 20009KT 10SM BKN280 27/16 A3000 RMK AO2 SLP146 T02720156 58001=
201105251352 METAR KATL 251352Z 22009KT 10SM SCT250 25/16 A3000 RMK AO2 SLP149 T02500161=
201105251252 METAR KATL 251252Z 22005KT 10SM SCT250 23/17 A3000 RMK AO2 SLP150 T02280172=
201105251152 METAR KATL 251152Z 23004KT 10SM BKN250 21/16 A3000 RMK AO2 SLP148 T02110161 10228 20194 51010=
201105251052 METAR KATL 251052Z 22004KT 10SM SCT250 20/16 A2999 RMK AO2 SLP146 T02000156=
201105250952 METAR KATL 250952Z 24005KT 10SM FEW250 21/16 A2998 RMK AO2 SLP141 T02060156=
201105250852 METAR KATL 250852Z 25003KT 10SM CLR 21/16 A2997 RMK AO2 SLP137 T02060156 55000=
201105250752 METAR KATL 250752Z 23003KT 10SM CLR 22/16 A2997 RMK AO2 SLP136 T02170161=
201105250652 METAR KATL 250652Z 24004KT 10SM CLR 22/16 A2997 RMK AO2 SLP137 T02220156=
201105250552 METAR KATL 250552Z 22003KT 10SM CLR 22/15 A2997 RMK AO2 SLP138 T02220150 10289 20222 58003=
201105250452 METAR KATL 250452Z 24003KT 10SM CLR 23/15 A2998 RMK AO2 SLP141 T02330150 403110194=
201105250352 METAR KATL 250352Z 00000KT 10SM CLR 24/14 A2998 RMK AO2 SLP142 T02440144=
201105250252 METAR KATL 250252Z 24003KT 10SM CLR 26/14 A2998 RMK AO2 SLP141 T02560144 51007=
201105250152 METAR KATL 250152Z 26003KT 10SM CLR 26/14 A2997 RMK AO2 SLP139 T02610144=
201105250052 METAR KATL 250052Z 26005KT 10SM FEW200 27/14 A2997 RMK AO2 SLP137 T02670144=
201105242352 METAR KATL 242352Z 24007G16KT 10SM FEW200 29/14 A2996 RMK AO2 SLP134 T02890139 10311 20289 55003=
201105242252 METAR KATL 242252Z 22011KT 10SM FEW100 BKN250 30/13 A2995 RMK AO2 SLP130 T03000133=
201105242152 METAR KATL 242152Z 25013G17KT 10SM FEW070 BKN250 31/14 A2995 RMK AO2 SLP132 T03110139=
201105242052 METAR KATL 242052Z 25009KT 10SM FEW070 BKN250 31/14 A2997 RMK AO2 SLP136 T03110139 56013=
201105241952 METAR KATL 241952Z 22010G17KT 10SM FEW070 SCT150 BKN250 31/14 A2998 RMK AO2 SLP140 T03060139=
201105241852 METAR KATL 241852Z 20012G16KT 10SM FEW065 SCT150 BKN250 30/14 A2999 RMK AO2 SLP144 T03000144=
201105241752 METAR KATL 241752Z 23012G21KT 10SM FEW070 SCT090 BKN250 30/14 A3000 RMK AO2 SLP149 T03000139 10306 20211 56010=
201105241652 METAR KATL 241652Z 22015G23KT 10SM FEW060 SCT200 BKN250 29/14 A3001 RMK AO2 SLP152 T02940139=
201105241552 METAR KATL 241552Z 25010G15KT 10SM FEW050 SCT200 BKN250 29/16 A3002 RMK AO2 SLP156 T02890156=
201105241452 METAR KATL 241452Z 25007KT 10SM BKN250 27/16 A3003 RMK AO2 SLP159 T02720161 58006=
201105241352 METAR KATL 241352Z 25008KT 10SM FEW250 26/17 A3005 RMK AO2 SLP165 T02560172=
201105241252 METAR KATL 241252Z 27004KT 10SM FEW150 24/18 A3005 RMK AO2 SLP165 T02390178=
201105241152 METAR KATL 241152Z 29009KT 9SM FEW150 21/18 A3005 RMK AO2 SLP167 T02110178 10228 20194 53022=
201105241052 METAR KATL 241052Z 28006KT 10SM FEW150 SCT250 20/17 A3002 RMK AO2 SLP156 T02000167=
201105240952 METAR KATL 240952Z 25005KT 10SM CLR 21/17 A3000 RMK AO2 SLP147 T02110167=
201105240852 METAR KATL 240852Z 24003KT 10SM SCT200 21/17 A2999 RMK AO2 SLP143 T02060172 55004=
201105240752 METAR KATL 240752Z 23005KT 10SM SCT200 21/17 A2997 RMK AO2 SLP138 T02110172=
201105240652 METAR KATL 240652Z 00000KT 10SM FEW200 22/17 A2998 RMK AO2 SLP141 T02220172=
201105240552 METAR KATL 240552Z 00000KT 10SM CLR 23/17 A3000 RMK AO2 SLP147 T02280172 10283 20228 58011=
201105240452 METAR KATL 240452Z 00000KT 10SM FEW200 24/17 A3000 RMK AO2 SLP149 T02390172 403220194=
201105240352 METAR KATL 240352Z 00000KT 10SM FEW200 24/17 A3002 RMK AO2 SLP156 T02440167=
201105240252 METAR KATL 240252Z 29003KT 10SM SCT200 26/17 A3003 RMK AO2 SLP158 T02560167 53016=
201105240152 METAR KATL 240152Z 26005KT 10SM SCT200 26/16 A3002 RMK AO2 SLP154 T02610161=
201105240052 METAR KATL 240052Z 26005KT 10SM FEW150 SCT200 27/16 A3000 RMK AO2 SLP147 T02720161=
201105232352 METAR KATL 232352Z 23005KT 10SM SCT200 29/16 A2998 RMK AO2 SLP143 T02890161 10322 20289 55006=
201105232252 METAR KATL 232252Z 23009KT 10SM BKN200 BKN250 29/16 A2998 RMK AO2 SLP142 T02940156=
201105232152 METAR KATL 232152Z 26008G15KT 10SM BKN180 BKN250 30/13 A2999 RMK AO2 SLP145 T03000133=
201105232052 METAR KATL 232052Z 26009G18KT 10SM FEW150 BKN200 BKN280 31/14 A3000 RMK AO2 SLP148 T03110139 56013=
201105231952 METAR KATL 231952Z 24012G20KT 10SM FEW200 BKN280 32/12 A3001 RMK AO2 SLP153 T03170122=
201105231852 METAR KATL 231852Z 22012G20KT 10SM FEW070 SCT150 BKN280 32/14 A3003 RMK AO2 SLP157 T03170144=
201105231752 METAR KATL 231752Z 24012G16KT 10SM FEW070 SCT150 SCT200 BKN280 31/14 A3004 RMK AO2 SLP162 T03110139 10311 20211 58009=
201105231652 METAR KATL 231652Z 21009KT 10SM FEW060 BKN200 BKN280 30/16 A3005 RMK AO2 SLP165 T03000156=
201105231552 METAR KATL 231552Z 27007KT 10SM BKN200 BKN280 29/17 A3007 RMK AO2 SLP170 T02940172=
201105231452 METAR KATL 231452Z VRB05KT 10SM FEW150 SCT200 BKN280 27/18 A3007 RMK AO2 SLP172 T02670178 50003=
201105231352 METAR KATL 231352Z 27005KT 10SM FEW150 BKN200 BKN280 24/17 A3007 RMK AO2 SLP174 T02440172=
201105231252 METAR KATL 231252Z 27006KT 10SM FEW050 SCT150 SCT250 23/17 A3007 RMK AO2 SLP172 T02330167=
201105231152 METAR KATL 231152Z 27005KT 10SM SCT150 SCT250 21/16 A3006 RMK AO2 SLP169 T02110161 10239 20194 53019=
201105231052 METAR KATL 231052Z 28010KT 10SM BKN150 BKN250 21/16 A3005 RMK AO2 SLP165 T02110156=
201105230952 METAR KATL 230952Z 25005KT 10SM BKN150 BKN250 20/16 A3000 RMK AO2 SLP148 T02000161=
201105230852 METAR KATL 230852Z 24003KT 10SM BKN150 21/16 A3001 RMK AO2 SLP150 T02110156 55003=
201105230752 METAR KATL 230752Z 16004KT 10SM FEW140 21/16 A3000 RMK AO2 SLP146 T02110161=
201105230652 METAR KATL 230652Z 27003KT 10SM SCT140 23/16 A3001 RMK AO2 SLP151 T02280156=
201105230552 METAR KATL 230552Z 00000KT 10SM FEW150 23/16 A3002 RMK AO2 SLP152 T02330156 10306 20233 53006=
201105230452 METAR KATL 230452Z 26007KT 10SM CLR 25/15 A3001 RMK AO2 SLP150 T02500150 403330200=
201105230352 METAR KATL 230352Z 24005KT 10SM CLR 24/16 A2999 RMK AO2 SLP145 T02390156=
201105230252 METAR KATL 230252Z 24005KT 10SM CLR 26/16 A3000 RMK AO2 SLP145 T02610156 55002=
201105230152 METAR KATL 230152Z 23005KT 10SM SCT250 27/15 A2999 RMK AO2 SLP145 T02670150=
201105230052 METAR KATL 230052Z 25005KT 10SM FEW180 SCT250 28/14 A3000 RMK AO2 SLP149 T02830139=
201105222352 METAR KATL 222352Z 23004KT 10SM FEW080 SCT250 31/13 A3000 RMK AO2 SLP148 T03060133 10333 20306 56005=
201105222252 METAR KATL 222252Z 27009KT 10SM FEW080 SCT250 32/14 A3000 RMK AO2 SLP149 T03170144=
201105222152 METAR KATL 222152Z 23008KT 10SM FEW080 32/14 A3001 RMK AO2 SLP152 T03220139=
201105222052 METAR KATL 222052Z 23013G16KT 10SM FEW075 33/14 A3002 RMK AO2 SLP154 T03280139 58010=
201105221952 METAR KATL 221952Z 21010KT 10SM FEW075 33/14 A3003 RMK AO2 SLP159 T03280139=
201105221852 METAR KATL 221852Z 19011G18KT 10SM FEW070 32/14 A3004 RMK AO2 SLP162 T03220144=
201105221752 METAR KATL 221752Z 18005KT 10SM FEW065 32/16 A3005 RMK AO2 SLP164 T03170156 10317 20217 58010=
201105221652 METAR KATL 221652Z 00000KT 10SM FEW055 31/17 A3007 RMK AO2 SLP171 T03060167=
201105221552 METAR KATL 221552Z 35006KT 10SM FEW050 30/18 A3008 RMK AO2 SLP176 T03000178=
201105221452 METAR KATL 221452Z 33006KT 10SM CLR 29/18 A3008 RMK AO2 SLP174 T02890178 50006=
201105221352 METAR KATL 221352Z 30007KT 10SM CLR 26/18 A3009 RMK AO2 SLP179 T02610178=
201105221252 METAR KATL 221252Z 31008KT 10SM FEW150 24/18 A3008 RMK AO2 SLP177 T02440178=
201105221152 METAR KATL 221152Z 00000KT 8SM SCT250 22/17 A3006 RMK AO2 SLP170 T02170172 10228 20200 53013=
201105221052 METAR KATL 221052Z 00000KT 8SM BKN250 20/16 A3004 RMK AO2 SLP163 T02000161=
201105220952 METAR KATL 220952Z 27003KT 10SM SCT150 21/16 A3002 RMK AO2 SLP156 T02060161=
201105220852 METAR KATL 220852Z 28003KT 10SM SCT180 21/16 A3002 RMK AO2 SLP156 T02110161 56002=
201105220752 METAR KATL 220752Z 28005KT 10SM FEW180 22/16 A3003 RMK AO2 SLP157 T02170161=
201105220652 METAR KATL 220652Z 28005KT 10SM FEW180 22/16 A3003 RMK AO2 SLP157 T02220156=
201105220552 METAR KATL 220552Z 00000KT 10SM FEW180 23/16 A3003 RMK AO2 SLP158 T02280156 10289 20222 50000=
201105220452 METAR KATL 220452Z 26004KT 10SM SCT200 23/16 A3003 RMK AO2 SLP158 T02330156 403170183=
201105220352 METAR KATL 220352Z 27006KT 10SM FEW200 24/15 A3003 RMK AO2 SLP159 T02390150=
201105220252 METAR KATL 220252Z 25004KT 10SM FEW200 26/14 A3003 RMK AO2 SLP157 T02610144 53013=
201105220152 METAR KATL 220152Z 24003KT 10SM SCT200 26/15 A3001 RMK AO2 SLP152 T02610150=
201105220052 METAR KATL 220052Z 23004KT 10SM FEW150 SCT200 SCT250 28/14 A3000 RMK AO2 SLP148 T02780144=
201105212352 METAR KATL 212352Z 23004KT 10SM SCT100 SCT200 29/13 A2999 RMK AO2 SLP145 T02890133 10317 20289 55001=
201105212252 METAR KATL 212252Z 21006KT 10SM FEW090 SCT200 31/12 A2999 RMK AO2 SLP144 T03060122=
201105212152 METAR KATL 212152Z 24008KT 10SM FEW250 31/13 A2999 RMK AO2 SLP146 T03110128=
201105212052 METAR KATL 212052Z 23007KT 10SM FEW095 BKN250 32/12 A2999 RMK AO2 SLP146 T03170122 56010=
201105211952 METAR KATL 211952Z VRB04KT 10SM FEW080 BKN250 32/12 A3000 RMK AO2 SLP147 T03170122=
201105211852 METAR KATL 211852Z VRB06KT 10SM FEW075 BKN250 31/12 A3001 RMK AO2 SLP151 T03110117=
201105211752 SPECI KATL 211752Z 28008KT 240V300 10SM FEW070 BKN250 31/13 A3002 RMK AO2 SLP156 T03110128 10311 20206 58012=
201105211652 METAR KATL 211652Z 23008KT 10SM FEW070 BKN250 30/11 A3005 RMK AO2 SLP164 T03000111=
201105211552 METAR KATL 211552Z 23007KT 10SM BKN250 29/12 A3006 RMK AO2 SLP168 T02890122=
201105211452 SPECI KATL 211452Z 23006KT 10SM BKN250 28/13 A3006 RMK AO2 SLP168 T02780133 53007=
201105211352 METAR KATL 211352Z 00000KT 10SM SCT250 25/14 A3005 RMK AO2 SLP166 T02500144=
201105211252 METAR KATL 211252Z 07004KT 10SM FEW250 22/15 A3004 RMK AO2 SLP164 T02220150=
201105211152 METAR KATL 211152Z 09003KT 10SM BKN250 21/15 A3004 RMK AO2 SLP162 T02060150 10211 20183 53005=
201105211052 METAR KATL 211052Z 09004KT 10SM FEW180 SCT250 19/14 A3003 RMK AO2 SLP158 T01890139=
201105210952 METAR KATL 210952Z 06004KT 10SM SCT180 19/14 A3002 RMK AO2 SLP156 T01940144=
201105210852 METAR KATL 210852Z 07007KT 10SM SCT180 19/14 A3002 RMK AO2 SLP156 T01940144 53003=
201105210752 METAR KATL 210752Z 07005KT 10SM SCT180 19/14 A3001 RMK AO2 SLP152 T01940144=
201105210652 METAR KATL 210652Z 08006KT 10SM SCT180 20/14 A3001 RMK AO2 SLP151 T02000139=
201105210552 METAR KATL 210552Z 09005KT 10SM BKN250 21/13 A3001 RMK AO2 SLP152 T02110128 10278 20211 58007=
201105210452 METAR KATL 210452Z 06009KT 10SM FEW200 BKN250 23/12 A3002 RMK AO2 SLP154 T02330122 403060161=
201105210352 METAR KATL 210352Z 05006KT 10SM BKN250 25/12 A3003 RMK AO2 SLP159 T02500117=
201105210252 METAR KATL 210252Z 06006KT 10SM BKN250 26/12 A3003 RMK AO2 SLP158 T02560117 53012=
201105210152 METAR KATL 210152Z 00000KT 10SM SCT250 24/11 A3001 RMK AO2 SLP154 T02440111=
201105210052 METAR KATL 210052Z 00000KT 10SM BKN250 27/09 A3000 RMK AO2 SLP151 T02670094=
201105202352 METAR KATL 202352Z 21003KT 10SM FEW200 BKN250 28/09 A2999 RMK AO2 SLP148 T02780094 10306 20278 56009=
201105202252 METAR KATL 202252Z 23004KT 10SM BKN250 29/09 A3000 RMK AO2 SLP149 T02890089=
201105202152 METAR KATL 202152Z 31006KT 10SM FEW080 SCT250 30/09 A3001 RMK AO2 SLP155 T03000089=
201105202052 METAR KATL 202052Z 00000KT 10SM FEW090 SCT110 SCT250 31/09 A3002 RMK AO2 SLP157 T03060094 56014=
201105201952 METAR KATL 201952Z 26007KT 220V290 10SM FEW080 SCT250 30/10 A3003 RMK AO2 SLP158 T03000100=
201105201852 METAR KATL 201852Z VRB04KT 10SM FEW075 SCT150 29/11 A3004 RMK AO2 SLP164 T02940106=
201105201752 METAR KATL 201752Z 30008KT 10SM FEW075 SCT150 SCT250 29/11 A3006 RMK AO2 SLP171 T02890111 10294 20194 58011=
201105201652 METAR KATL 201652Z 36004KT 10SM FEW250 28/11 A3008 RMK AO2 SLP176 T02830106=
201105201552 METAR KATL 201552Z 23005KT 10SM FEW250 27/11 A3009 RMK AO2 SLP182 T02720106=
201105201452 METAR KATL 201452Z 00000KT 10SM FEW250 26/11 A3010 RMK AO2 SLP183 T02610106 50005=
201105201352 METAR KATL 201352Z 00000KT 10SM FEW250 24/11 A3010 RMK AO2 SLP184 T02390106=
201105201252 METAR KATL 201252Z 09004KT 10SM SCT250 22/11 A3009 RMK AO2 SLP181 T02220111=
201105201152 METAR KATL 201152Z 03007KT 10SM FEW250 19/11 A3008 RMK AO2 SLP179 T01940111 10200 20161 53002=
201105201052 METAR KATL 201052Z 06003KT 7SM FEW250 17/11 A3007 RMK AO2 SLP176 T01720106=
201105200952 METAR KATL 200952Z 00000KT 9SM FEW250 16/11 A3007 RMK AO2 SLP175 T01610111=
201105200852 METAR KATL 200852Z 00000KT 10SM SCT100 17/11 A3008 RMK AO2 SLP177 T01720111 50000=
201105200752 METAR KATL 200752Z 01005KT 10SM BKN095 18/11 A3008 RMK AO2 SLP179 T01830111=
201105200652 METAR KATL 200652Z 00000KT 10SM BKN150 19/10 A3007 RMK AO2 SLP176 T01940100=
201105200552 METAR KATL 200552Z 00000KT 10SM FEW250 19/10 A3007 RMK AO2 SLP177 T01890100 10239 20183 55003=
201105200452 METAR KATL 200452Z 00000KT 10SM FEW250 19/11 A3007 RMK AO2 SLP177 T01890106 402610100=
201105200352 METAR KATL 200352Z 00000KT 10SM FEW200 SCT250 21/10 A3008 RMK AO2 SLP179 T02110100=
201105200252 METAR KATL 200252Z 00000KT 10SM SCT200 BKN250 21/11 A3008 RMK AO2 SLP181 T02060106 53010=
201105200152 METAR KATL 200152Z 00000KT 10SM SCT200 BKN250 22/09 A3007 RMK AO2 SLP176 T02220094=
201105200052 METAR KATL 200052Z VRB03KT 10SM FEW200 SCT250 23/09 A3005 RMK AO2 SLP171 T02330094=
201105192352 METAR KATL 192352Z 33003KT 10SM SCT200 BKN250 24/10 A3005 RMK AO2 SLP171 T02390100 10261 20228 53001=
201105192252 METAR KATL 192252Z 24003KT 10SM BKN200 BKN250 24/10 A3005 RMK AO2 SLP171 T02440100=
201105192152 METAR KATL 192152Z 30006KT 10SM BKN200 BKN250 25/09 A3005 RMK AO2 SLP170 T02500094=
201105192052 METAR KATL 192052Z VRB06KT 10SM FEW200 BKN250 26/09 A3005 RMK AO2 SLP171 T02560094 56012=
201105191952 METAR KATL 191952Z 32003KT 10SM FEW200 BKN250 25/10 A3006 RMK AO2 SLP173 T02500100=
201105191852 METAR KATL 191852Z 25007KT 10SM FEW060 SCT200 SCT250 24/09 A3007 RMK AO2 SLP180 T02390094=
201105191752 METAR KATL 191752Z 00000KT 10SM FEW050 SCT200 SCT250 23/10 A3009 RMK AO2 SLP183 T02280100 10233 20133 58002=
201105191652 METAR KATL 191652Z 29008KT 10SM FEW050 SCT200 SCT250 22/10 A3010 RMK AO2 SLP186 T02220100=
201105191552 METAR KATL 191552Z VRB04KT 10SM FEW200 21/09 A3010 RMK AO2 SLP187 T02110094=
201105191452 METAR KATL 191452Z 30005KT 10SM FEW200 SCT250 19/09 A3009 RMK AO2 SLP186 T01940094 51018=
201105191352 METAR KATL 191352Z VRB03KT 10SM FEW250 18/08 A3008 RMK AO2 SLP184 T01780083=
201105191252 METAR KATL 191252Z 21004KT 10SM FEW150 SCT250 16/09 A3006 RMK AO2 SLP176 T01610089=
201105191152 METAR KATL 191152Z 00000KT 7SM FEW120 13/09 A3004 RMK AO2 SLP170 T01330089 10133 20100 53012=
201105191052 METAR KATL 191052Z 00000KT 7SM FEW120 SCT200 12/08 A3002 RMK AO2 SLP163 T01170078=
201105190952 METAR KATL 190952Z 00000KT 9SM FEW120 SCT200 11/08 A3000 RMK AO2 SLP157 T01110078=
201105190852 METAR KATL 190852Z 26003KT 10SM SCT200 11/08 A3000 RMK AO2 SLP158 T01110078 53009=
201105190752 METAR KATL 190752Z 00000KT 10SM FEW250 12/08 A2999 RMK AO2 SLP152 T01170083=
201105190652 METAR KATL 190652Z 00000KT 10SM FEW250 11/08 A2997 RMK AO2 SLP147 T01110078=
201105190552 METAR KATL 190552Z 00000KT 10SM FEW200 SCT250 13/08 A2998 RMK AO2 SLP148 T01330078 10167 20122 53009=
201105190452 METAR KATL 190452Z 02003KT 10SM FEW200 SCT250 14/08 A2996 RMK AO2 SLP143 T01440078 401940067=
201105190352 METAR KATL 190352Z 01005KT 10SM SCT200 BKN250 14/08 A2996 RMK AO2 SLP140 T01440078=
201105190252 METAR KATL 190252Z 35006KT 10SM SCT200 BKN250 14/08 A2995 RMK AO2 SLP139 T01440078 51013=
201105190152 METAR KATL 190152Z 33005KT 10SM SCT200 BKN250 15/08 A2993 RMK AO2 SLP134 T01500078=
201105190052 METAR KATL 190052Z 32006KT 10SM SCT200 BKN250 16/08 A2992 RMK AO2 SLP131 T01560078=
201105182352 METAR KATL 182352Z 28007KT 10SM FEW045 SCT200 16/07 A2991 RMK AO2 SLP127 T01610072 10194 20161 53002=
201105182252 METAR KATL 182252Z 27008KT 10SM FEW045 BKN200 18/07 A2990 RMK AO2 SLP125 T01780067=
201105182152 METAR KATL 182152Z 29010G16KT 10SM BKN045 BKN200 19/07 A2990 RMK AO2 SLP122 T01890067=
201105182052 SPECI KATL 182052Z 31011G15KT 10SM SCT046 SCT250 19/07 A2990 RMK AO2 SLP124 T01890072 53006=
201105181952 METAR KATL 181952Z 27009KT 10SM BKN044 BKN250 18/07 A2990 RMK AO2 SLP122 T01780072=
201105181852 METAR KATL 181852Z 31009G16KT 10SM FEW040 SCT050 BKN250 18/07 A2989 RMK AO2 SLP119 T01780072=
201105181752 METAR KATL 181752Z 28011G17KT 10SM BKN042 BKN250 18/07 A2988 RMK AO2 SLP118 T01780072 10183 20089 51004=
201105181652 METAR KATL 181652Z 27007KT 240V320 10SM BKN040 18/07 A2988 RMK AO2 SLP117 T01780067=
201105181552 METAR KATL 181552Z 30011KT 10SM SCT037 17/07 A2988 RMK AO2 SLP117 T01720072=
201105181452 METAR KATL 181452Z 30013KT 10SM FEW030 16/07 A2987 RMK AO2 SLP114 T01560067 52014=
201105181352 METAR KATL 181352Z 32008KT 10SM FEW025 14/07 A2986 RMK AO2 SLP110 T01390067=
201105181252 METAR KATL 181252Z 31007KT 10SM CLR 11/07 A2984 RMK AO2 SLP105 T01110067=
201105181152 METAR KATL 181152Z 30008KT 10SM FEW200 09/06 A2983 RMK AO2 SLP101 T00890061 10089 20067 53017=
201105181052 METAR KATL 181052Z 29007KT 10SM FEW150 07/06 A2980 RMK AO2 SLP092 T00720056=
201105180952 METAR KATL 180952Z 29005KT 10SM FEW150 07/05 A2977 RMK AO2 SLP081 T00720050=
201105180852 METAR KATL 180852Z 29006KT 10SM FEW045 SCT150 08/06 A2978 RMK AO2 SLP083 T00780056 56003=
201105180752 METAR KATL 180752Z 29006KT 10SM FEW045 SCT150 08/06 A2978 RMK AO2 SLP082 T00830061=
201105180652 METAR KATL 180652Z 28005KT 10SM FEW045 08/06 A2978 RMK AO2 SLP082 T00830061=
201105180552 METAR KATL 180552Z 27005KT 10SM FEW040 09/06 A2978 RMK AO2 SLP085 T00890061 10139 20089 51003=
201105180452 METAR KATL 180452Z 30005KT 10SM FEW040 09/06 A2978 RMK AO2 SLP084 T00940061 401780094=
201105180352 METAR KATL 180352Z 31006KT 10SM BKN040 11/06 A2978 RMK AO2 SLP083 T01060061=
201105180252 METAR KATL 180252Z 32008KT 10SM BKN045 12/06 A2978 RMK AO2 SLP082 T01170061 53006=
201105180152 METAR KATL 180152Z 33008KT 10SM BKN050 12/06 A2976 RMK AO2 SLP079 T01170061=
201105180052 METAR KATL 180052Z 32012KT 10SM FEW035 BKN055 13/06 A2977 RMK AO2 SLP080 T01280056=
201105172352 METAR KATL 172352Z 32012G19KT 10SM FEW035 BKN050 14/06 A2976 RMK AO2 SLP076 T01390056 10178 20139 51010=
201105172252 METAR KATL 172252Z 32014KT 10SM FEW035 OVC050 14/06 A2975 RMK AO2 SLP074 T01440056=
201105172152 METAR KATL 172152Z 32014G19KT 10SM FEW040 OVC050 15/06 A2974 RMK AO2 SLP071 T01500061=
201105172052 METAR KATL 172052Z 31012G22KT 10SM FEW040 OVC046 16/06 A2973 RMK AO2 SLP066 T01560061 50004=
201105171952 METAR KATL 171952Z 32014G21KT 10SM OVC046 16/06 A2973 RMK AO2 SLP065 BINOVC S T01610056=
201105171852 SPECI KATL 171852Z 33015G22KT 10SM BKN044 16/06 A2972 RMK AO2 SLP062 T01610056=
201105171752 METAR KATL 171752Z COR 33017G20KT 10SM BKN040 16/06 A2972 RMK AO2 PK WND 30026/1730 SLP059 T01610056 10167 20100 53000=
201105171652 METAR KATL 171652Z 30015G22KT 10SM BKN036 16/06 A2971 RMK AO2 SLP058 T01560061=
201105171611 SPECI KATL 171611Z 30015G21KT 10SM BKN030 14/06 A2971 RMK AO2=
201105171611 SPECI KATL 171611Z 30015G21KT 10SM BKN030 14/06 A2971 RMK AO2=
201105171602 SPECI KATL 171602Z 31013G21KT 10SM BKN028 15/07 A2971 RMK AO2=
201105171602 SPECI KATL 171602Z 31013G21KT 10SM BKN028 15/07 A2971 RMK AO2=
201105171552 METAR KATL 171552Z 31016G21KT 10SM SCT028 15/07 A2971 RMK AO2 SLP058 T01500067=
201105171542 SPECI KATL 171542Z 32013G22KT 10SM SCT026 14/07 A2971 RMK AO2=
201105171542 SPECI KATL 171542Z 32013G22KT 10SM SCT026 14/07 A2971 RMK AO2=
201105171452 METAR KATL 171452Z 34015G23KT 10SM BKN020 14/07 A2971 RMK AO2 SLP060 T01390067 51006=
201105171352 METAR KATL 171352Z 32013G21KT 10SM BKN018 BKN120 12/06 A2972 RMK AO2 SLP061 T01170061=
201105171252 METAR KATL 171252Z 32016G23KT 10SM BKN015 11/06 A2971 RMK AO2 SLP059 T01060061=
201105171212 SPECI KATL 171212Z 32014KT 10SM BKN015 10/06 A2970 RMK AO2=
201105171212 SPECI KATL 171212Z 32014KT 10SM BKN015 10/06 A2970 RMK AO2=
201105171152 METAR KATL 171152Z 32013G19KT 10SM SCT015 10/06 A2970 RMK AO2 SLP055 70004 T01000056 10122 20094 53001=
201105171052 METAR KATL 171052Z 32011KT 10SM FEW021 09/06 A2968 RMK AO2 SLP050 T00940056=
201105171018 SPECI KATL 171018Z 31009KT 10SM BKN021 09/06 A2969 RMK AO2=
201105171018 SPECI KATL 171018Z 31009KT 10SM BKN021 09/06 A2969 RMK AO2=
201105170952 METAR KATL 170952Z 31011KT 10SM FEW021 SCT250 09/06 A2969 RMK AO2 SLP051 T00940061=
201105170852 METAR KATL 170852Z 31009KT 10SM SCT025 10/06 A2969 RMK AO2 SLP053 T01000061 56012=
201105170752 METAR KATL 170752Z 32010KT 10SM BKN025 11/06 A2970 RMK AO2 SLP054 T01060061=
201105170652 METAR KATL 170652Z 33010KT 10SM OVC021 12/07 A2971 RMK AO2 SLP057 T01170067=
201105170552 METAR KATL 170552Z 33012G20KT 10SM OVC019 12/08 A2973 RMK AO2 SLP064 T01220078 10144 20122 58010=
201105170452 METAR KATL 170452Z 33016G19KT 10SM SCT018 OVC024 13/08 A2974 RMK AO2 SLP069 T01280083 401780122=
201105170352 METAR KATL 170352Z 32012KT 10SM BKN016 OVC025 13/09 A2976 RMK AO2 SLP075 T01280089=
201105170252 METAR KATL 170252Z 31011KT 10SM BKN022 BKN050 13/09 A2976 RMK AO2 SLP075 T01330089 53008=
201105170238 SPECI KATL 170238Z 31012KT 10SM BKN022 BKN050 13/09 A2975 RMK AO2=
201105170238 SPECI KATL 170238Z 31012KT 10SM BKN022 BKN050 13/09 A2975 RMK AO2=
201105170152 METAR KATL 170152Z 29013KT 10SM SCT055 13/09 A2974 RMK AO2 SLP070 T01330089=
201105170052 METAR KATL 170052Z 31015KT 10SM FEW060 SCT200 14/08 A2974 RMK AO2 SLP067 T01390083=
201105162352 SPECI KATL 162352Z 32015G18KT 10SM FEW025 SCT040 BKN070 BKN200 14/09 A2973 RMK AO2 SLP067 T01440089 10178 20144 50006=
201105162252 METAR KATL 162252Z 31015G22KT 10SM FEW025 SCT045 BKN070 14/09 A2973 RMK AO2 SLP067 TCU DSNT NE T01440094=
201105162152 METAR KATL 162152Z 32016G22KT 10SM FEW022TCU BKN040 OVC050 16/09 A2973 RMK AO2 SLP064 TCU SW AND DSNT NE T01560089=
201105162052 METAR KATL 162052Z 32014G24KT 10SM FEW022 SCT050 BKN090 18/09 A2971 RMK AO2 PK WND 32027/2029 SLP059 T01780094 55002=
201105161952 METAR KATL 161952Z 34010G17KT 10SM FEW020 BKN100 18/10 A2971 RMK AO2 SLP057 T01780100=
201105161852 SPECI KATL 161852Z 30013G18KT 10SM FEW020 SCT045 BKN100 17/12 A2971 RMK AO2 SLP059 T01720122=
201105161752 METAR KATL 161752Z 33012G20KT 10SM FEW018 BKN070 BKN200 17/12 A2972 RMK AO2 RAE23 SLP061 P0000 60004 T01720122 10172 20128 58004=
201105161652 METAR KATL 161652Z 34009KT 9SM -RA FEW022 BKN050 OVC070 15/12 A2973 RMK AO2 SLP065 P0003 T01500122=
201105161552 METAR KATL 161552Z 29011KT 10SM -RA FEW016 BKN040 OVC065 14/12 A2974 RMK AO2 SLP068 P0001 T01390117=
201105161526 SPECI KATL 161526Z 29009KT 10SM -RA OVC040 13/11 A2974 RMK AO2 P0001=
201105161526 SPECI KATL 161526Z 29009KT 10SM -RA OVC040 13/11 A2974 RMK AO2 P0001=
201105161514 SPECI KATL 161514Z 29010KT 3SM RA BR OVC040 13/11 A2974 RMK AO2 SFC VIS 4 P0000=
201105161514 SPECI KATL 161514Z 29010KT 3SM RA BR OVC040 13/11 A2974 RMK AO2 SFC VIS 4 P0000=
201105161459 SPECI KATL 161459Z 28010G18KT 10SM OVC040 14/11 A2973 RMK AO2 RAE56 P0000=
201105161459 SPECI KATL 161459Z 28010G18KT 10SM OVC040 14/11 A2973 RMK AO2 RAE56 P0000=
201105161452 METAR KATL 161452Z 31013G18KT 8SM -RA BKN018 OVC060 14/11 A2973 RMK AO2 RAB16E25B41 SLP066 P0000 60000 T01390111 53007=
201105161359 SPECI KATL 161359Z 29011KT 10SM BKN065 14/11 A2972 RMK AO2=
201105161359 SPECI KATL 161359Z 29011KT 10SM BKN065 14/11 A2972 RMK AO2=
201105161352 METAR KATL 161352Z 29011KT 10SM BKN020 OVC060 13/11 A2972 RMK AO2 SLP063 T01330106=
201105161313 SPECI KATL 161313Z 29011KT 10SM BKN016 OVC021 13/10 A2972 RMK AO2=
201105161313 SPECI KATL 161313Z 29011KT 10SM BKN016 OVC021 13/10 A2972 RMK AO2=
201105161252 METAR KATL 161252Z 29010KT 10SM BKN014 BKN019 BKN025 13/10 A2972 RMK AO2 SLP061 T01330100=
201105161152 METAR KATL 161152Z 30009KT 10SM BKN014 BKN025 13/10 A2971 RMK AO2 SLP059 60000 T01280100 10133 20122 53007=
201105161052 METAR KATL 161052Z 29007KT 10SM BKN014 OVC022 12/10 A2971 RMK AO2 SLP057 T01220100=
201105161038 SPECI KATL 161038Z 29009KT 10SM BKN014 BKN019 OVC049 12/10 A2970 RMK AO2=
201105161038 SPECI KATL 161038Z 29009KT 10SM BKN014 BKN019 OVC049 12/10 A2970 RMK AO2=
201105160952 METAR KATL 160952Z 30009KT 10SM SCT025 BKN049 12/10 A2969 RMK AO2 SLP051 T01220100=
201105160852 METAR KATL 160852Z 30009KT 10SM SCT011 BKN049 12/10 A2969 RMK AO2 SLP051 60000 T01220100 56015=
201105160752 METAR KATL 160752Z 30010KT 10SM FEW014 SCT015 BKN049 12/10 A2970 RMK AO2 SLP054 T01220100=
201105160652 METAR KATL 160652Z 30010KT 10SM SCT015 SCT025 OVC036 12/10 A2972 RMK AO2 RAB29E39 SLP060 P0000 T01220100=
201105160552 METAR KATL 160552Z 28007KT 10SM BKN016 OVC046 13/10 A2974 RMK AO2 SLP066 T01330100 10150 20133 58014=
201105160452 METAR KATL 160452Z 28008KT 10SM BKN019 OVC046 13/10 A2976 RMK AO2 SLP073 T01330100 401890128=
201105160417 SPECI KATL 160417Z 28006KT 10SM BKN021 OVC046 13/10 A2977 RMK AO2=
201105160417 SPECI KATL 160417Z 28006KT 10SM BKN021 OVC046 13/10 A2977 RMK AO2=
201105160352 METAR KATL 160352Z 28007KT 10SM FEW027 OVC044 14/10 A2977 RMK AO2 SLP079 T01390100=
201105160252 METAR KATL 160252Z 28009KT 10SM FEW026 OVC042 14/10 A2978 RMK AO2 SLP081 T01390100 51007=
201105160152 METAR KATL 160152Z 28007KT 10SM OVC040 14/10 A2978 RMK AO2 SLP080 T01390100=
201105160052 METAR KATL 160052Z 29009KT 10SM OVC038 14/09 A2977 RMK AO2 SLP080 T01440094=
201105152352 METAR KATL 152352Z 29009KT 10SM OVC040 15/09 A2976 RMK AO2 SLP073 T01500094 10189 20150 53005=
201105152252 METAR KATL 152252Z 28009KT 10SM FEW027 OVC040 16/10 A2975 RMK AO2 SLP070 T01560100=
201105152152 METAR KATL 152152Z 31013KT 10SM SCT027 OVC038 16/09 A2974 RMK AO2 SLP069 T01560094=
201105152052 METAR KATL 152052Z 31011KT 10SM BKN030 OVC035 16/09 A2974 RMK AO2 SLP068 T01610094 53001=
201105151952 METAR KATL 151952Z 31011KT 10SM BKN030 BKN040 17/09 A2974 RMK AO2 SLP066 T01720094=
201105151852 METAR KATL 151852Z 31011KT 10SM BKN030 OVC039 17/10 A2973 RMK AO2 SLP066 T01720100=
201105151752 METAR KATL 151752Z 30015G21KT 10SM SCT030 BKN038 18/11 A2974 RMK AO2 SLP065 T01830106 10189 20139 58002=
201105151652 METAR KATL 151652Z 29012KT 10SM SCT028 BKN036 BKN043 18/11 A2974 RMK AO2 SLP066 T01830106=
201105151552 METAR KATL 151552Z 31012KT 10SM SCT027 BKN034 18/10 A2974 RMK AO2 SLP066 T01780100=
201105151452 METAR KATL 151452Z 32014KT 10SM SCT024 BKN033 BKN041 17/10 A2974 RMK AO2 SLP067 T01720100 52006=
201105151352 METAR KATL 151352Z 32012KT 10SM BKN022 BKN030 BKN035 16/11 A2974 RMK AO2 SLP065 T01610106=
201105151252 METAR KATL 151252Z 31011G18KT 10SM BKN019 OVC030 15/11 A2973 RMK AO2 SLP063 T01500106=
201105151152 METAR KATL 151152Z 31010KT 10SM BKN016 OVC024 14/11 A2973 RMK AO2 SLP061 T01390106 10150 20128 53007=
201105151052 METAR KATL 151052Z 28008G17KT 10SM BKN025 13/11 A2972 RMK AO2 SLP058 T01280106=
201105151028 SPECI KATL 151028Z 29008KT 10SM BKN025 13/11 A2971 RMK AO2=
201105151028 SPECI KATL 151028Z 29008KT 10SM BKN025 13/11 A2971 RMK AO2=
201105150952 METAR KATL 150952Z 28006KT 10SM SCT017 13/11 A2971 RMK AO2 SLP055 T01280106=
201105150939 SPECI KATL 150939Z 28008KT 10SM SCT017 13/11 A2971 RMK AO2=
201105150939 SPECI KATL 150939Z 28008KT 10SM SCT017 13/11 A2971 RMK AO2=
201105150852 METAR KATL 150852Z 32010KT 10SM BKN016 14/11 A2970 RMK AO2 SLP053 T01440106 56004=
201105150805 SPECI KATL 150805Z 30007KT 10SM BKN018 14/11 A2971 RMK AO2=
201105150805 SPECI KATL 150805Z 30007KT 10SM BKN018 14/11 A2971 RMK AO2=
201105150752 METAR KATL 150752Z 31007KT 10SM SCT018 14/11 A2971 RMK AO2 SLP053 T01390111=
201105150652 METAR KATL 150652Z 28008KT 10SM FEW020 14/11 A2971 RMK AO2 SLP053 T01390111=
201105150552 METAR KATL 150552Z 31009KT 10SM FEW060 15/11 A2972 RMK AO2 SLP057 T01500111 10211 20150 56002=
201105150452 METAR KATL 150452Z 31014G19KT 10SM FEW055 SCT080 17/12 A2972 RMK AO2 SLP058 T01670117 402500167=
201105150352 METAR KATL 150352Z 29012G18KT 10SM FEW085 17/12 A2972 RMK AO2 SLP056 T01720122=
201105150252 METAR KATL 150252Z 29008KT 10SM SCT080 17/12 A2972 RMK AO2 SLP058 T01720122 51016=
201105150152 METAR KATL 150152Z 29008KT 10SM FEW075 18/12 A2971 RMK AO2 SLP055 T01830122=
201105150052 METAR KATL 150052Z 28009KT 10SM FEW075 19/12 A2969 RMK AO2 SLP049 T01890117=
201105142352 METAR KATL 142352Z 26009KT 10SM FEW075 21/11 A2967 RMK AO2 SLP041 60000 T02110111 10250 20211 53008=
201105142252 METAR KATL 142252Z 28016KT 10SM FEW044 SCT080 22/11 A2967 RMK AO2 SLP039 T02220111=
201105142152 METAR KATL 142152Z 27013G19KT 10SM SCT044 SCT080 24/12 A2965 RMK AO2 SLP032 T02390117=
201105142052 METAR KATL 142052Z 24006KT 10SM SCT038 BKN044 BKN060 23/15 A2965 RMK AO2 RAE1956 SLP032 P0000 60000 T02280150 56024=
201105141952 METAR KATL 141952Z COR 22010KT 10SM -RA SCT021 SCT050 BKN070 23/14 A2967 RMK AO2 RAB37 SLP041 SHRA E-SE-S P0000 T02280144=
201105141852 METAR KATL 141852Z 28009KT 10SM SCT040 BKN065 23/14 A2969 RMK AO2 SLP044 T02330139=
201105141752 METAR KATL 141752Z 27008KT 10SM SCT029 SCT039 BKN050 22/14 A2972 RMK AO2 SLP057 T02220144 10233 20178 58006=
201105141652 METAR KATL 141652Z 25008KT 10SM SCT028 BKN047 BKN055 23/15 A2974 RMK AO2 SLP062 T02330150=
201105141621 SPECI KATL 141621Z 23008KT 10SM SCT028 BKN030 BKN040 22/14 A2974 RMK AO2=
201105141621 SPECI KATL 141621Z 23008KT 10SM SCT028 BKN030 BKN040 22/14 A2974 RMK AO2=
201105141552 METAR KATL 141552Z 27009KT 10SM BKN028 BKN032 BKN040 21/14 A2975 RMK AO2 SLP066 T02110144=
201105141452 METAR KATL 141452Z 27004KT 10SM SCT025 BKN032 BKN150 21/14 A2974 RMK AO2 SLP064 T02110144 55002=
201105141352 METAR KATL 141352Z 25006KT 10SM SCT014 BKN022 BKN150 20/15 A2973 RMK AO2 SLP062 T02000150=
201105141342 SPECI KATL 141342Z 28006KT 10SM SCT014 BKN022 BKN150 19/16 A2973 RMK AO2=
201105141342 SPECI KATL 141342Z 28006KT 10SM SCT014 BKN022 BKN150 19/16 A2973 RMK AO2=
201105141314 SPECI KATL 141314Z 27006KT 9SM BKN010 BKN016 BKN150 19/16 A2974 RMK AO2=
201105141314 SPECI KATL 141314Z 27006KT 9SM BKN010 BKN016 BKN150 19/16 A2974 RMK AO2=
201105141252 METAR KATL 141252Z 24005KT 9SM BKN006 BKN012 18/16 A2975 RMK AO2 SLP066 T01830161=
201105141233 SPECI KATL 141233Z 24005KT 3SM BKN006 OVC012 18/16 A2975 RMK AO2 SFC VIS 8=
201105141233 SPECI KATL 141233Z 24005KT 3SM BKN006 OVC012 18/16 A2975 RMK AO2 SFC VIS 8=
201105141152 METAR KATL 141152Z 21004KT 3SM BR OVC004 18/17 A2974 RMK AO2 SFC VIS 4 DZB05E27 SLP065 P0000 60000 T01780167 10183 20172 53002=
201105141150 SPECI KATL 141150Z 20004KT 3SM BR OVC004 18/17 A2974 RMK AO2 SFC VIS 4 DZB05E27 P0000=
201105141150 SPECI KATL 141150Z 20004KT 3SM BR OVC004 18/17 A2974 RMK AO2 SFC VIS 4 DZB05E27 P0000=
201105141127 SPECI KATL 141127Z 20003KT 2 1/2SM BR OVC004 17/17 A2974 RMK AO2 TWR VIS 3 DZB05E27 P0000=
201105141127 SPECI KATL 141127Z 20003KT 2 1/2SM BR OVC004 17/17 A2974 RMK AO2 TWR VIS 3 DZB05E27 P0000=
201105141106 SPECI KATL 141106Z 21004KT 2 1/2SM -DZ BR OVC006 18/16 A2974 RMK AO2 TWR VIS 3 DZB05 P0000=
201105141106 SPECI KATL 141106Z 21004KT 2 1/2SM -DZ BR OVC006 18/16 A2974 RMK AO2 TWR VIS 3 DZB05 P0000=
201105141052 METAR KATL 141052Z 20006KT 9SM BKN007 OVC055 18/16 A2973 RMK AO2 SLP062 T01780161=
201105141040 SPECI KATL 141040Z 19006KT 10SM BKN009 OVC055 18/16 A2972 RMK AO2=
201105141040 SPECI KATL 141040Z 19006KT 10SM BKN009 OVC055 18/16 A2972 RMK AO2=
201105141012 SPECI KATL 141012Z 19008KT 10SM BKN013 OVC060 18/16 A2973 RMK AO2=
201105141012 SPECI KATL 141012Z 19008KT 10SM BKN013 OVC060 18/16 A2973 RMK AO2=
201105140952 METAR KATL 140952Z 20009KT 10SM BKN016 OVC060 18/15 A2973 RMK AO2 SLP061 T01780150=
201105140930 SPECI KATL 140930Z 20007KT 10SM BKN016 18/15 A2973 RMK AO2=
201105140930 SPECI KATL 140930Z 20007KT 10SM BKN016 18/15 A2973 RMK AO2=
201105140852 METAR KATL 140852Z 20008KT 10SM FEW025 SCT070 BKN200 17/15 A2974 RMK AO2 SLP062 T01720150 58011=
201105140752 METAR KATL 140752Z 21006KT 10SM FEW110 SCT250 17/15 A2976 RMK AO2 SLP067 T01720150=
201105140652 METAR KATL 140652Z 21007KT 10SM FEW110 SCT250 18/15 A2977 RMK AO2 SLP070 T01830150=
201105140552 METAR KATL 140552Z 20006KT 10SM FEW070 OVC110 19/15 A2977 RMK AO2 SLP072 T01890150 10222 20189 58004=
201105140452 METAR KATL 140452Z 18005KT 10SM FEW070 BKN100 OVC150 19/15 A2980 RMK AO2 SLP080 T01890150 402940189=
201105140352 METAR KATL 140352Z 00000KT 10SM FEW100 BKN150 OVC200 19/15 A2978 RMK AO2 SLP075 T01940150=
201105140252 METAR KATL 140252Z 00000KT 10SM FEW100 BKN150 OVC200 19/14 A2979 RMK AO2 SLP077 T01940144 58008=
201105140152 METAR KATL 140152Z 25005KT 10SM FEW040 BKN150 BKN200 20/15 A2979 RMK AO2 PK WND 21030/0100 SLP079 T02000150=
201105140052 METAR KATL 140052Z 20007KT 10SM FEW050TCU BKN150 OVC200 22/16 A2981 RMK AO2 SLP085 TCU SE-SW T02170156=
201105132352 METAR KATL 132352Z 31005KT 10SM SCT120 BKN150 OVC200 22/16 A2981 RMK AO2 SLP087 T02170156 10294 20217 58008=
201105132252 METAR KATL 132252Z 30009G18KT 10SM FEW060 BKN150 OVC200 22/16 A2982 RMK AO2 SLP090 T02220161=
201105132152 METAR KATL 132152Z 31014G24KT 10SM FEW055 OVC180 23/16 A2983 RMK AO2 SLP094 T02280156=
201105132052 METAR KATL 132052Z 32018KT 10SM FEW060 SCT070 OVC200 26/14 A2983 RMK AO2 PK WND 30032/2027 WSHFT 2017 SLP093 CB DSNT SW-W T02560144 55000=
201105132037 SPECI KATL 132037Z 33016G23KT 10SM BKN060 BKN070 BKN250 26/15 A2983 RMK AO2 PK WND 30032/2027 WSHFT 2017 CB DSNT SW=
201105132037 SPECI KATL 132037Z 33016G23KT 10SM BKN060 BKN070 BKN250 26/15 A2983 RMK AO2 PK WND 30032/2027 WSHFT 2017 CB DSNT SW=
201105131952 METAR KATL 131952Z 23015G20KT 10SM FEW075 BKN180 OVC250 28/11 A2982 RMK AO2 SLP089 CB DSNT SW-W-NW-N T02830106=
201105131852 METAR KATL 131852Z 24012G22KT 10SM FEW065 BKN180 BKN250 29/13 A2984 RMK AO2 SLP095 CB DSNT NW TCU DSNT N T02890133=
201105131752 METAR KATL 131752Z 21012G18KT 10SM FEW050 SCT150 SCT180 BKN250 29/17 A2983 RMK AO2 SLP091 T02890167 10289 20211 57024=
201105131652 METAR KATL 131652Z 24009G16KT 10SM FEW050 BKN180 BKN250 28/16 A2986 RMK AO2 SLP099 T02830161=
201105131552 METAR KATL 131552Z 20006KT 10SM FEW150 BKN180 BKN250 28/17 A2988 RMK AO2 SLP108 T02780167=
201105131452 METAR KATL 131452Z VRB05KT 10SM FEW150 BKN180 BKN250 26/17 A2991 RMK AO2 SLP117 T02610172 58006=
201105131352 METAR KATL 131352Z 26005KT 10SM FEW150 SCT180 BKN250 24/17 A2992 RMK AO2 SLP122 T02440172=
201105131252 METAR KATL 131252Z 27006KT 10SM FEW100 BKN250 22/17 A2993 RMK AO2 SLP124 T02220172=
201105131152 METAR KATL 131152Z 29005KT 10SM SCT150 BKN250 21/17 A2993 RMK AO2 SLP123 T02110172 10228 20194 52010=
201105131052 METAR KATL 131052Z 30006KT 10SM FEW150 SCT250 20/17 A2992 RMK AO2 SLP120 T02000167=
201105130952 METAR KATL 130952Z 29005KT 10SM SCT150 21/16 A2991 RMK AO2 SLP116 T02060161=
201105130852 METAR KATL 130852Z 28004KT 10SM SCT150 21/16 A2990 RMK AO2 SLP112 T02110161 58011=
201105130752 METAR KATL 130752Z 27006KT 10SM SCT150 22/16 A2991 RMK AO2 SLP117 T02170161=
201105130652 METAR KATL 130652Z 26006KT 10SM BKN150 22/17 A2992 RMK AO2 SLP121 T02170167=
201105130552 METAR KATL 130552Z 25005KT 10SM SCT150 BKN250 23/17 A2993 RMK AO2 SLP124 T02280167 10289 20222 56010=
201105130452 METAR KATL 130452Z 24006KT 10SM BKN250 23/16 A2994 RMK AO2 SLP128 T02330161 403170206=
201105130352 METAR KATL 130352Z 25004KT 10SM SCT250 24/15 A2995 RMK AO2 SLP130 T02390150=
201105130252 METAR KATL 130252Z 27006KT 10SM SCT250 25/14 A2996 RMK AO2 SLP135 T02500139 51008=
201105130152 METAR KATL 130152Z 26007KT 10SM FEW150 SCT250 26/14 A2996 RMK AO2 SLP135 T02560139=
201105130052 METAR KATL 130052Z 25004KT 10SM FEW150 SCT250 27/13 A2995 RMK AO2 SLP131 T02720133=
201105122352 METAR KATL 122352Z 25004KT 10SM BKN250 29/13 A2994 RMK AO2 SLP127 T02890128 10317 20283 56004=
201105122252 METAR KATL 122252Z 26008KT 10SM FEW075 SCT250 31/13 A2994 RMK AO2 SLP128 T03060133=
201105122152 METAR KATL 122152Z 22010KT 10SM FEW080 BKN250 31/11 A2995 RMK AO2 SLP129 T03110106=
201105122052 METAR KATL 122052Z VRB05KT 10SM FEW080 SCT200 BKN250 32/12 A2995 RMK AO2 SLP131 T03170117 56021=
201105121952 METAR KATL 121952Z 22003KT 10SM FEW070 BKN250 31/14 A2997 RMK AO2 SLP137 T03110144=
201105121852 METAR KATL 121852Z 16005KT 10SM FEW065 BKN250 31/16 A2999 RMK AO2 SLP145 T03110161=
201105121752 METAR KATL 121752Z 28004KT 10SM FEW060 BKN250 30/17 A3002 RMK AO2 SLP153 T03000172 10300 20217 58013=
201105121652 METAR KATL 121652Z VRB03KT 10SM FEW055 SCT200 BKN250 30/15 A3003 RMK AO2 SLP159 T03000150=
201105121552 METAR KATL 121552Z 31005KT 9SM FEW040 SCT200 BKN250 29/18 A3004 RMK AO2 SLP162 T02890183=
201105121452 METAR KATL 121452Z 00000KT 8SM BKN250 27/18 A3006 RMK AO2 SLP167 T02670178 51013=
201105121352 METAR KATL 121352Z 00000KT 9SM BKN250 24/18 A3005 RMK AO2 SLP167 T02390178=
201105121252 METAR KATL 121252Z 21003KT 8SM BKN250 23/17 A3004 RMK AO2 SLP163 T02280172=
201105121152 METAR KATL 121152Z 09008KT 8SM BKN250 22/18 A3001 RMK AO2 SLP154 T02170183 10239 20206 53005 $=
201105121052 METAR KATL 121052Z 00000KT 7SM SCT250 23/17 A3001 RMK AO2 SLP150 T02280172=
201105120952 METAR KATL 120952Z 32005KT 9SM CLR 22/18 A3000 RMK AO2 SLP148 T02170178=
201105120852 METAR KATL 120852Z 00000KT 7SM FEW150 22/18 A3000 RMK AO2 SLP147 T02170178 53000=
201105120752 METAR KATL 120752Z 33004KT 7SM SCT150 23/18 A2999 RMK AO2 SLP143 T02330178=
201105120652 METAR KATL 120652Z 30003KT 7SM SCT250 24/18 A2998 RMK AO2 SLP141 T02390178=
201105120552 METAR KATL 120552Z 30005KT 10SM SCT250 23/18 A3000 RMK AO2 SLP147 T02280178 10289 20228 50003=
201105120452 METAR KATL 120452Z 30005KT 10SM SCT250 24/18 A3000 RMK AO2 SLP148 T02440178 403170206=
201105120352 METAR KATL 120352Z 29006KT 10SM SCT250 24/18 A3000 RMK AO2 SLP148 T02390178=
201105120252 METAR KATL 120252Z 25004KT 10SM SCT250 26/17 A2999 RMK AO2 SLP143 T02560172 53005=
201105120152 METAR KATL 120152Z 00000KT 10SM BKN250 26/17 A2997 RMK AO2 SLP138 T02560172=
201105120052 METAR KATL 120052Z 25003KT 10SM BKN250 27/17 A2997 RMK AO2 SLP138 T02720167=
201105112352 METAR KATL 112352Z 28005KT 10SM FEW200 SCT250 29/16 A2997 RMK AO2 SLP138 T02890161 10317 20289 53003=
201105112252 METAR KATL 112252Z 27008KT 10SM FEW200 SCT250 30/16 A2995 RMK AO2 SLP132 T03000156=
201105112152 METAR KATL 112152Z 30009KT 10SM FEW200 SCT250 31/14 A2996 RMK AO2 SLP134 T03110144=
201105112052 METAR KATL 112052Z 27007KT 10SM FEW200 31/14 A2996 RMK AO2 SLP134 CB DSNT NE T03110139 58015=
201105111952 METAR KATL 111952Z 29007KT 10SM FEW200 31/14 A2998 RMK AO2 SLP139 T03110144 $=
201105111852 METAR KATL 111852Z 29010G14KT 10SM FEW200 31/16 A3000 RMK AO2 SLP147 T03060161 $=
201105111752 METAR KATL 111752Z 26007KT 10SM FEW200 30/17 A3001 RMK AO2 SLP150 T03000167 10306 20228 58011 $=
201105111652 METAR KATL 111652Z VRB03KT 10SM FEW050 SCT200 29/17 A3002 RMK AO2 SLP155 T02890167 $=
201105111552 METAR KATL 111552Z 03005KT 10SM FEW050 SCT200 29/17 A3004 RMK AO2 SLP160 T02890167 $=
201105111452 METAR KATL 111452Z VRB05G14KT 10SM FEW040 SCT200 28/18 A3004 RMK AO2 SLP162 T02780183 50004=
201105111352 METAR KATL 111352Z 33005KT 10SM FEW030 BKN200 26/18 A3005 RMK AO2 SLP165 T02610183=
201105111252 METAR KATL 111252Z 32006KT 7SM FEW050 SCT200 24/18 A3005 RMK AO2 SLP164 T02440183=
201105111152 METAR KATL 111152Z 32004KT 7SM FEW050 SCT250 23/18 A3003 RMK AO2 SLP158 T02280183 10228 20206 51027=
201105111052 METAR KATL 111052Z 00000KT 6SM HZ SCT250 21/17 A3001 RMK AO2 SLP150 T02060172=
201105110952 METAR KATL 110952Z 01005KT 9SM SCT200 22/17 A2997 RMK AO2 SLP139 T02220172=
201105110852 METAR KATL 110852Z 31003KT 7SM SCT200 21/18 A2994 RMK AO2 SLP129 T02060178 53006=
201105110752 METAR KATL 110752Z 35006KT 7SM SCT200 22/18 A2994 RMK AO2 SLP126 T02220183=
201105110652 METAR KATL 110652Z 31005KT 7SM FEW200 22/19 A2992 RMK AO2 SLP119 T02170189=
201105110552 METAR KATL 110552Z 30003KT 7SM FEW200 23/18 A2993 RMK AO2 SLP123 T02280183 10283 20222 58005=
201105110452 METAR KATL 110452Z 29005KT 10SM FEW200 23/18 A2994 RMK AO2 SLP126 T02330183 403110194=
201105110352 METAR KATL 110352Z 27004KT 10SM FEW200 24/19 A2994 RMK AO2 SLP127 T02440189=
201105110252 METAR KATL 110252Z 23006KT 10SM FEW200 26/18 A2994 RMK AO2 SLP129 T02560183 51003=
201105110152 METAR KATL 110152Z 24004KT 10SM FEW200 27/18 A2994 RMK AO2 SLP128 T02670183=
201105110052 METAR KATL 110052Z 23004KT 10SM FEW200 27/18 A2994 RMK AO2 SLP127 T02670178=
201105102352 METAR KATL 102352Z 27007KT 10SM FEW250 28/18 A2993 RMK AO2 SLP126 T02830178 10311 20283 55002=
201105102252 METAR KATL 102252Z 28007KT 10SM FEW060 29/17 A2993 RMK AO2 SLP127 T02940172=
201105102152 METAR KATL 102152Z 25008KT 10SM SCT060 31/16 A2994 RMK AO2 SLP127 T03060161=
201105102052 METAR KATL 102052Z 28010KT 10SM FEW060 31/17 A2994 RMK AO2 SLP128 T03110172 56011=
201105101952 METAR KATL 101952Z 29008KT 10SM FEW060 31/17 A2995 RMK AO2 SLP129 T03060172=
201105101852 METAR KATL 101852Z 26007KT 10SM FEW060 31/17 A2996 RMK AO2 SLP135 T03060172=
201105101752 METAR KATL 101752Z VRB05KT 10SM FEW050 30/18 A2997 RMK AO2 SLP139 T03000178 10300 20217 58010=
201105101652 METAR KATL 101652Z 27007KT 10SM FEW043 29/18 A2999 RMK AO2 SLP145 T02890183=
201105101552 METAR KATL 101552Z 32010KT 10SM FEW040 28/17 A3001 RMK AO2 SLP151 T02830172=
201105101452 METAR KATL 101452Z 28007KT 10SM FEW040 28/18 A3001 RMK AO2 SLP150 T02780178 51005=
201105101352 METAR KATL 101352Z 29003KT 10SM CLR 27/18 A3000 RMK AO2 SLP149 T02720183=
201105101252 METAR KATL 101252Z 32006KT 9SM CLR 24/18 A3000 RMK AO2 SLP150 T02390178=
201105101152 METAR KATL 101152Z 00000KT 7SM CLR 22/18 A2999 RMK AO2 SLP146 T02170178 10222 20194 53019=
201105101052 METAR KATL 101052Z 00000KT 5SM HZ FEW250 19/17 A2997 RMK AO2 SLP139 T01940167=
201105100952 METAR KATL 100952Z 00000KT 7SM CLR 20/17 A2995 RMK AO2 SLP132 T02000167=
201105100852 METAR KATL 100852Z 32004KT 9SM CLR 21/17 A2993 RMK AO2 SLP126 T02110172 53002=
201105100752 METAR KATL 100752Z 00000KT 8SM CLR 21/18 A2993 RMK AO2 SLP124 T02110178=
201105100652 METAR KATL 100652Z 28005KT 9SM CLR 21/17 A2992 RMK AO2 SLP123 T02110172=
201105100552 METAR KATL 100552Z 28005KT 10SM CLR 22/17 A2993 RMK AO2 SLP125 T02170172 10267 20217 56005=
201105100452 METAR KATL 100452Z 24005KT 10SM CLR 23/18 A2993 RMK AO2 SLP125 T02280178 402940178=
201105100352 METAR KATL 100352Z 23004KT 10SM CLR 23/17 A2994 RMK AO2 SLP127 T02330172=
201105100252 METAR KATL 100252Z 23004KT 10SM FEW200 24/17 A2995 RMK AO2 SLP130 T02440172 53008=
201105100152 METAR KATL 100152Z 00000KT 10SM FEW200 26/17 A2994 RMK AO2 SLP128 T02560167=
201105100052 METAR KATL 100052Z 00000KT 10SM FEW200 26/17 A2992 RMK AO2 SLP124 T02610167=
201105092352 METAR KATL 092352Z 27005KT 10SM FEW060 SCT200 27/17 A2992 RMK AO2 SLP123 T02670167 10294 20267 56003=
201105092252 METAR KATL 092252Z 29006KT 10SM FEW060 SCT200 28/16 A2992 RMK AO2 SLP123 T02830156=
201105092152 METAR KATL 092152Z 25006KT 10SM FEW060 SCT200 29/16 A2993 RMK AO2 SLP125 T02890156=
201105092052 METAR KATL 092052Z 25004KT 10SM SCT060 SCT200 28/16 A2993 RMK AO2 SLP126 T02830156 58015=
201105091952 METAR KATL 091952Z 00000KT 10SM SCT055 SCT200 29/16 A2995 RMK AO2 SLP134 T02890161=
201105091852 METAR KATL 091852Z 00000KT 10SM SCT055 SCT200 28/15 A2996 RMK AO2 SLP138 T02830150=
201105091752 METAR KATL 091752Z VRB03KT 10SM SCT050 SCT200 29/16 A2998 RMK AO2 SLP142 T02890156 10289 20200 58012=
201105091652 METAR KATL 091652Z 00000KT 10SM FEW045 SCT200 28/16 A2999 RMK AO2 SLP148 T02780161=
201105091552 METAR KATL 091552Z 06005KT 10SM FEW040 27/17 A3000 RMK AO2 SLP151 T02670167=
201105091452 METAR KATL 091452Z VRB05KT 10SM FEW030 SCT200 26/18 A3001 RMK AO2 SLP154 T02560183 50006=
201105091352 METAR KATL 091352Z 04006KT 9SM FEW200 24/18 A3002 RMK AO2 SLP156 T02440183=
201105091252 METAR KATL 091252Z 35008KT 8SM FEW150 SCT250 22/18 A3001 RMK AO2 SLP154 T02220178=
201105091152 METAR KATL 091152Z 33006KT 7SM BKN250 20/17 A2999 RMK AO2 SLP149 T02000172 10200 20178 53015 $=
201105091052 METAR KATL 091052Z 33004KT 5SM BR SCT250 18/16 A2997 RMK AO2 SLP141 T01830161=
201105090952 METAR KATL 090952Z 32006KT 7SM CLR 19/17 A2996 RMK AO2 SLP136 T01890167=
201105090852 METAR KATL 090852Z 30005KT 7SM CLR 18/16 A2995 RMK AO2 SLP133 T01830161 55000=
201105090752 METAR KATL 090752Z 31008KT 7SM CLR 19/17 A2994 RMK AO2 SLP131 T01940167=
201105090652 METAR KATL 090652Z 30005KT 7SM CLR 19/17 A2994 RMK AO2 SLP130 T01940167=
201105090552 METAR KATL 090552Z 27004KT 8SM CLR 20/17 A2995 RMK AO2 SLP132 T02000167 10250 20200 51002=
201105090452 METAR KATL 090452Z 28006KT 8SM CLR 20/17 A2995 RMK AO2 SLP132 T02000167 402780144=
201105090352 METAR KATL 090352Z 27004KT 8SM CLR 21/17 A2995 RMK AO2 SLP134 T02110167=
201105090252 METAR KATL 090252Z 27006KT 10SM FEW046 22/17 A2994 RMK AO2 SLP131 T02220167 51011=
201105090152 METAR KATL 090152Z 27005KT 10SM FEW046 SCT250 23/17 A2994 RMK AO2 SLP129 T02330167=
201105090052 METAR KATL 090052Z 26007KT 10SM FEW046 SCT065 24/17 A2993 RMK AO2 SLP126 T02390167=
201105082352 METAR KATL 082352Z 27006KT 10SM FEW047 25/17 A2991 RMK AO2 SLP122 T02500167 10278 20250 56003=
201105082252 METAR KATL 082252Z 28007KT 10SM FEW047 SCT065 26/17 A2991 RMK AO2 SLP122 T02610167=
201105082152 METAR KATL 082152Z 28010KT 10SM BKN047 BKN250 27/17 A2991 RMK AO2 SLP122 T02720167=
201105082052 METAR KATL 082052Z 27008KT 230V290 10SM BKN047 BKN065 BKN250 26/16 A2992 RMK AO2 SLP125 T02610161 58010=
201105081952 METAR KATL 081952Z 25007KT 220V310 10SM BKN044 BKN250 26/17 A2993 RMK AO2 SLP128 T02610167=
201105081852 METAR KATL 081852Z 25008G15KT 10SM BKN046 BKN250 27/17 A2994 RMK AO2 SLP131 T02720167=
201105081752 METAR KATL 081752Z 25009G15KT 220V290 10SM BKN040 BKN250 26/16 A2995 RMK AO2 SLP134 T02610161 10267 20156 58016=
201105081652 METAR KATL 081652Z 25009KT 10SM BKN034 BKN250 24/16 A2996 RMK AO2 SLP140 T02390161=
201105081552 METAR KATL 081552Z 26006KT 10SM FEW035 SCT250 24/16 A2998 RMK AO2 SLP146 T02390161=
201105081452 METAR KATL 081452Z 29011KT 10SM CLR 22/16 A3000 RMK AO2 SLP150 T02220156 50001=
201105081352 METAR KATL 081352Z 27011KT 10SM CLR 21/14 A3000 RMK AO2 SLP152 T02060144 $=
201105081252 METAR KATL 081252Z 27008KT 10SM CLR 19/13 A2999 RMK AO2 SLP150 T01890133=
201105081152 METAR KATL 081152Z 23005KT 10SM CLR 16/12 A2999 RMK AO2 SLP149 T01560117 10172 20144 53008=
201105081052 METAR KATL 081052Z 00000KT 10SM CLR 15/11 A2997 RMK AO2 SLP143 T01500106=
201105080952 METAR KATL 080952Z 23004KT 10SM CLR 14/10 A2997 RMK AO2 SLP142 T01440100=
201105080852 METAR KATL 080852Z 22004KT 10SM CLR 15/11 A2997 RMK AO2 SLP141 T01500106 53004=
201105080752 METAR KATL 080752Z 00000KT 10SM CLR 16/11 A2996 RMK AO2 SLP138 T01560106=
201105080652 METAR KATL 080652Z 00000KT 10SM CLR 16/11 A2996 RMK AO2 SLP137 T01610106=
201105080552 METAR KATL 080552Z 00000KT 10SM CLR 17/11 A2995 RMK AO2 SLP137 T01720106 10228 20167 55001=
201105080452 METAR KATL 080452Z 20003KT 10SM CLR 17/10 A2995 RMK AO2 SLP137 T01670100 402500117=
201105080352 METAR KATL 080352Z 00000KT 10SM CLR 18/10 A2996 RMK AO2 SLP138 T01780100=
201105080252 METAR KATL 080252Z 00000KT 10SM CLR 20/09 A2996 RMK AO2 SLP138 T02000089 53008=
201105080152 METAR KATL 080152Z 00000KT 10SM FEW250 20/09 A2995 RMK AO2 SLP136 T02000089=
201105080052 METAR KATL 080052Z 22005KT 10SM FEW250 21/08 A2994 RMK AO2 SLP133 T02060083=
201105072352 METAR KATL 072352Z 22007KT 10SM FEW150 SCT250 23/08 A2993 RMK AO2 SLP131 T02280078 10250 20228 55021=
201105072252 METAR KATL 072252Z 20009KT 10SM FEW150 SCT250 24/08 A2993 RMK AO2 SLP132 T02390078=
201105072152 METAR KATL 072152Z 29008KT 10SM FEW070 SCT150 SCT250 24/08 A2998 RMK AO2 SLP146 T02440078=
201105072052 METAR KATL 072052Z 25006KT 10SM FEW065 SCT095 BKN250 24/08 A3000 RMK AO2 SLP153 T02440083 56017=
201105071952 METAR KATL 071952Z 30010KT 10SM FEW060 BKN250 25/09 A3001 RMK AO2 SLP157 T02500094=
201105071852 METAR KATL 071852Z 29007KT 10SM FEW060 SCT250 24/08 A3003 RMK AO2 SLP164 T02440083=
201105071752 METAR KATL 071752Z 28008KT 10SM FEW055 SCT250 24/09 A3005 RMK AO2 SLP170 T02390089 10239 20144 50003=
201105071652 METAR KATL 071652Z 22005KT 10SM FEW250 22/08 A3006 RMK AO2 SLP173 T02220083 $=
201105071552 METAR KATL 071552Z 20007KT 10SM FEW250 21/08 A3005 RMK AO2 SLP171 T02110078=
201105071452 METAR KATL 071452Z 22004KT 10SM FEW250 21/09 A3004 RMK AO2 SLP168 T02110089 58002=
201105071352 METAR KATL 071352Z 11004KT 10SM FEW250 19/09 A3004 RMK AO2 SLP168 T01940089=
201105071252 METAR KATL 071252Z 00000KT 10SM FEW250 17/09 A3005 RMK AO2 SLP170 T01720094=
201105071152 METAR KATL 071152Z 00000KT 10SM FEW250 14/09 A3005 RMK AO2 SLP171 T01440094 10156 20117 53014=
201105071052 METAR KATL 071052Z 32004KT 10SM CLR 12/08 A3003 RMK AO2 SLP167 T01170083=
201105070952 METAR KATL 070952Z 31005KT 10SM CLR 12/08 A3001 RMK AO2 SLP159 T01170083=
201105070852 METAR KATL 070852Z 31004KT 10SM CLR 12/08 A3001 RMK AO2 SLP157 T01220083 53001=
201105070752 METAR KATL 070752Z 31004KT 10SM CLR 13/08 A3000 RMK AO2 SLP153 T01280083=
201105070652 METAR KATL 070652Z 00000KT 10SM CLR 13/08 A3000 RMK AO2 SLP154 T01330083=
201105070552 METAR KATL 070552Z 31004KT 10SM CLR 16/08 A3001 RMK AO2 SLP155 T01560083 10200 20150 58002=
201105070452 METAR KATL 070452Z 32004KT 10SM CLR 16/08 A3001 RMK AO2 SLP156 T01610083 402280100=
201105070352 METAR KATL 070352Z 00000KT 10SM CLR 16/09 A3001 RMK AO2 SLP159 T01560089=
201105070252 METAR KATL 070252Z 00000KT 10SM FEW065 17/08 A3001 RMK AO2 SLP159 T01670083 51013=
201105070152 METAR KATL 070152Z 30003KT 10SM FEW065 18/07 A3000 RMK AO2 SLP156 T01830072=
201105070052 METAR KATL 070052Z 29003KT 10SM FEW065 19/07 A2999 RMK AO2 SLP150 T01940067=
201105062352 METAR KATL 062352Z 32006KT 10SM FEW065 20/07 A2997 RMK AO2 SLP148 T02000067 10228 20200 56001=
201105062252 METAR KATL 062252Z 28008KT 10SM SCT065 21/06 A2998 RMK AO2 SLP148 T02060061=
201105062152 METAR KATL 062152Z 29008KT 10SM SCT065 22/07 A2997 RMK AO2 SLP147 T02170067=
201105062052 METAR KATL 062052Z 28009KT 10SM SCT065 23/07 A2998 RMK AO2 SLP148 T02280072 56012=
201105061952 METAR KATL 061952Z 29012G16KT 10SM SCT065 22/07 A2999 RMK AO2 SLP151 T02220072=
201105061852 METAR KATL 061852Z 33010KT 10SM SCT065 21/06 A3000 RMK AO2 SLP155 T02060056=
201105061752 METAR KATL 061752Z 29008KT 260V330 10SM FEW060 21/06 A3001 RMK AO2 SLP159 T02110061 10211 20111 58013=
201105061652 METAR KATL 061652Z 34010G16KT 10SM FEW060 20/05 A3004 RMK AO2 SLP167 T02000050=
201105061552 METAR KATL 061552Z 31014G18KT 10SM FEW050 19/05 A3005 RMK AO2 SLP173 T01890050=
201105061452 METAR KATL 061452Z 29010KT 10SM FEW045 18/07 A3005 RMK AO2 SLP174 T01780067 53000=
201105061352 METAR KATL 061352Z 31008KT 10SM FEW070 16/07 A3005 RMK AO2 SLP174 T01610072=
201105061252 METAR KATL 061252Z 28005KT 10SM FEW080 14/08 A3005 RMK AO2 SLP173 T01440078=
201105061152 METAR KATL 061152Z 00000KT 10SM FEW120 11/07 A3005 RMK AO2 SLP176 T01060072 10139 20100 53005=
201105061052 METAR KATL 061052Z 28003KT 10SM SCT100 11/07 A3004 RMK AO2 SLP171 T01060067=
201105060952 METAR KATL 060952Z COR 14003KT 10SM FEW060 11/07 A3003 RMK AO2 SLP167 T01110067=
201105060852 METAR KATL 060852Z 00000KT 10SM CLR 10/07 A3004 RMK AO2 SLP170 T01000067 56012=
201105060752 METAR KATL 060752Z 00000KT 10SM CLR 13/06 A3005 RMK AO2 SLP171 T01280061=
201105060652 METAR KATL 060652Z 11003KT 10SM CLR 13/06 A3005 RMK AO2 SLP173 T01330056=
201105060552 METAR KATL 060552Z 00000KT 10SM FEW250 13/07 A3007 RMK AO2 SLP182 T01330067 10172 20133 56017=
201105060452 METAR KATL 060452Z 14003KT 10SM FEW200 SCT250 14/07 A3009 RMK AO2 SLP186 T01390067 401940067=
201105060352 METAR KATL 060352Z 11003KT 10SM BKN200 BKN250 15/06 A3011 RMK AO2 SLP195 T01500056=
201105060252 METAR KATL 060252Z 00000KT 10SM BKN180 BKN250 16/06 A3013 RMK AO2 SLP200 T01560056 53003=
201105060152 METAR KATL 060152Z 13004KT 10SM BKN180 BKN250 16/06 A3011 RMK AO2 SLP194 T01610056=
201105060052 METAR KATL 060052Z 00000KT 10SM FEW150 BKN180 BKN250 17/06 A3011 RMK AO2 SLP195 T01720056=
201105052352 METAR KATL 052352Z 16005KT 10SM SCT150 BKN180 BKN250 17/04 A3012 RMK AO2 SLP198 T01720044 10194 20172 58015=
201105052252 METAR KATL 052252Z 20003KT 10SM FEW150 BKN180 BKN250 18/04 A3013 RMK AO2 SLP204 T01830044=
201105052152 METAR KATL 052152Z 19004KT 10SM OVC200 19/04 A3015 RMK AO2 SLP208 T01890044=
201105052052 METAR KATL 052052Z 18005KT 10SM BKN200 BKN280 19/03 A3016 RMK AO2 SLP212 T01890033 56026=
201105051952 METAR KATL 051952Z 12003KT 10SM FEW200 SCT250 BKN280 19/04 A3018 RMK AO2 SLP220 T01890039=
201105051852 METAR KATL 051852Z 16007KT 10SM FEW200 BKN250 BKN280 18/02 A3022 RMK AO2 SLP232 T01780022=
201105051752 METAR KATL 051752Z VRB05KT 10SM FEW200 SCT250 BKN280 17/04 A3024 RMK AO2 SLP240 T01720044 10178 20083 58021=
201105051652 METAR KATL 051652Z VRB06KT 10SM FEW200 BKN250 16/03 A3027 RMK AO2 SLP249 T01610033=
201105051552 METAR KATL 051552Z VRB03KT 10SM FEW200 SCT250 15/03 A3029 RMK AO2 SLP255 T01500033=
201105051452 METAR KATL 051452Z 11009KT 10SM FEW250 14/02 A3030 RMK AO2 SLP261 T01390022 50000=
201105051352 METAR KATL 051352Z 10012G18KT 10SM FEW250 12/01 A3031 RMK AO2 SLP265 T01220011=
201105051252 METAR KATL 051252Z 10009KT 10SM SCT250 10/02 A3031 RMK AO2 SLP265 T01000017=
201105051152 METAR KATL 051152Z 07006KT 10SM FEW250 08/02 A3030 RMK AO2 SLP262 T00830022 10094 20067 53004=
201105051052 METAR KATL 051052Z 05007KT 10SM FEW250 07/02 A3029 RMK AO2 SLP258 T00720017=
201105050952 METAR KATL 050952Z 05007KT 10SM CLR 07/02 A3029 RMK AO2 SLP255 T00720017 $=
201105050852 METAR KATL 050852Z 36004KT 10SM CLR 07/02 A3029 RMK AO2 SLP258 T00720022 53001 $=
201105050752 METAR KATL 050752Z 02006KT 10SM CLR 08/02 A3028 RMK AO2 SLP253 T00830017 $=
201105050652 METAR KATL 050652Z 36005KT 10SM CLR 09/02 A3028 RMK AO2 SLP254 T00890017 $=
201105050552 METAR KATL 050552Z 01008KT 10SM CLR 09/02 A3029 RMK AO2 SLP256 T00940017 10161 20094 53001 $=
201105050452 METAR KATL 050452Z 35011KT 10SM CLR 11/02 A3029 RMK AO2 SLP257 T01060017 401890072 $=
201105050352 METAR KATL 050352Z 35010G19KT 10SM CLR 11/02 A3028 RMK AO2 SLP252 T01110017 $=
201105050252 METAR KATL 050252Z 35010G17KT 10SM CLR 12/02 A3028 RMK AO2 SLP254 T01220017 51014 $=
201105050152 METAR KATL 050152Z 35012KT 10SM CLR 13/02 A3028 RMK AO2 SLP252 T01330017 $=
201105050052 METAR KATL 050052Z 35010KT 10SM CLR 14/02 A3026 RMK AO2 SLP248 T01440022 $=
201105042352 METAR KATL 042352Z 35012KT 10SM CLR 16/02 A3024 RMK AO2 SLP241 T01610017 10189 20161 53007 $=
201105042252 METAR KATL 042252Z 33015KT 10SM CLR 17/01 A3023 RMK AO2 SLP237 T01720006 $=
201105042152 METAR KATL 042152Z 35015G22KT 10SM CLR 19/01 A3023 RMK AO2 SLP235 T01890011 $=
201105042052 METAR KATL 042052Z 33015G25KT 10SM CLR 18/02 A3022 RMK AO2 SLP232 T01830022 58014=
201105041952 METAR KATL 041952Z 31012G19KT 280V350 10SM FEW060 18/03 A3024 RMK AO2 SLP238 T01830033=
201105041852 METAR KATL 041852Z 33013G20KT 10SM FEW050 18/04 A3025 RMK AO2 SLP241 T01780044=
201105041752 METAR KATL 041752Z 30014G20KT 10SM FEW050 17/04 A3026 RMK AO2 SLP246 T01720044 10172 20083 58009=
201105041652 METAR KATL 041652Z 32013G18KT 10SM FEW050 17/03 A3028 RMK AO2 SLP252 T01670033=
201105041552 METAR KATL 041552Z 32015KT 10SM FEW050 16/04 A3029 RMK AO2 SLP256 T01560044=
201105041452 METAR KATL 041452Z 32012KT 10SM FEW030 14/06 A3029 RMK AO2 SLP257 T01390061 51017=
201105041352 METAR KATL 041352Z 34010KT 10SM FEW025 13/07 A3029 RMK AO2 SLP256 T01280072=
201105041252 METAR KATL 041252Z 32008KT 10SM CLR 10/07 A3026 RMK AO2 SLP249 T01000067=
201105041152 METAR KATL 041152Z 32009KT 10SM CLR 08/06 A3024 RMK AO2 SLP240 60000 70102 T00830061 10094 20072 51015=
201105041052 METAR KATL 041052Z 31009KT 10SM FEW060 07/06 A3022 RMK AO2 SLP235 T00720056=
201105040952 METAR KATL 040952Z 31010KT 10SM CLR 08/06 A3022 RMK AO2 SLP233 T00780056=
201105040852 METAR KATL 040852Z 31013KT 10SM FEW120 08/06 A3019 RMK AO2 SLP223 60000 T00830061 53007=
201105040752 METAR KATL 040752Z 31009KT 10SM BKN110 09/07 A3018 RMK AO2 SLP216 T00890067=
201105040652 METAR KATL 040652Z 32011G18KT 10SM BKN140 09/07 A3017 RMK AO2 RAE0556 SLP210 P0000 T00940067=
201105040552 METAR KATL 040552Z 32011G18KT 10SM -RA OVC100 09/07 A3017 RMK AO2 RAB11 SLP211 P0000 60059 T00940072 10144 20094 53003=
201105040452 METAR KATL 040452Z 31013G20KT 10SM FEW013 BKN080 BKN110 OVC200 09/08 A3017 RMK AO2 RAE03B40E51 SLP212 P0000 T00940078 402830094=
201105040448 SPECI KATL 040448Z 31013G20KT 10SM -RA FEW013 BKN080 BKN110 OVC200 09/08 A3017 RMK AO2 RAE03B40 P0000 402830094=
201105040448 SPECI KATL 040448Z 31013G20KT 10SM -RA FEW013 BKN080 BKN110 OVC200 09/08 A3017 RMK AO2 RAE03B40 P0000 402830094=
201105040352 METAR KATL 040352Z 32012G21KT 10SM -RA FEW008 BKN013 OVC065 10/08 A3016 RMK AO2 RAB18 SLP208 P0001 T01000083=
201105040308 SPECI KATL 040308Z 31013G19KT 10SM SCT008 BKN014 OVC070 11/09 A3016 RMK AO2=
201105040308 SPECI KATL 040308Z 31013G19KT 10SM SCT008 BKN014 OVC070 11/09 A3016 RMK AO2=
201105040252 METAR KATL 040252Z 31012G20KT 10SM BKN008 BKN014 OVC070 11/09 A3016 RMK AO2 PK WND 32027/0217 TSE0157RAE37 SLP209 P0005 60058 T01060094 53011=
201105040158 SPECI KATL 040158Z 31018G22KT 4SM +RA BR SCT007 BKN014 OVC055 12/11 A3014 RMK AO2 TSE57 TS DSIPTD P0002 $=
201105040158 SPECI KATL 040158Z 31018G22KT 4SM +RA BR SCT007 BKN014 OVC055 12/11 A3014 RMK AO2 TSE57 TS DSIPTD P0002 $=
201105040152 METAR KATL 040152Z 33014G21KT 5SM TSRA BR SCT007 BKN014CB OVC055 12/11 A3013 RMK AO2 TSB34 SLP200 OCNL LTGIC NE TS NE MOV NE P0023 T01170106=
201105040134 SPECI KATL 040134Z 32009KT 4SM TSRA BR SCT007 BKN014CB OVC040 12/11 A3013 RMK AO2 TSB34 OCNL LTGICCA OHD-NE TS OHD-NE MOV NE P0015=
201105040134 SPECI KATL 040134Z 32009KT 4SM TSRA BR SCT007 BKN014CB OVC040 12/11 A3013 RMK AO2 TSB34 OCNL LTGICCA OHD-NE TS OHD-NE MOV NE P0015=
201105040052 METAR KATL 040052Z 33012G21KT 5SM RA BR BKN007 BKN020 OVC060 13/12 A3011 RMK AO2 TSE52 SLP191 TS DSIPTD P0030 T01330122=
201105040015 SPECI KATL 040015Z 33013KT 5SM TSRA BR FEW007 BKN020CB OVC075 14/12 A3010 RMK AO2 OCNL LTGIC NE TS NE MOV NE P0023=
201105040015 SPECI KATL 040015Z 33013KT 5SM TSRA BR FEW007 BKN020CB OVC075 14/12 A3010 RMK AO2 OCNL LTGIC NE TS NE MOV NE P0023=
201105032355 SPECI KATL 032355Z 32011G18KT 2 1/2SM +TSRA BR SCT007 BKN014CB OVC045 14/13 A3012 RMK AO2 PRESRR OCNL LTGIC NE-OHD-SW TS NE-OHD-SW MOV NE P0001=
201105032355 SPECI KATL 032355Z 32011G18KT 2 1/2SM +TSRA BR SCT007 BKN014CB OVC045 14/13 A3012 RMK AO2 PRESRR OCNL LTGIC NE-OHD-SW TS NE-OHD-SW MOV NE P0001=
201105032352 METAR KATL 032352Z 31011G18KT 5SM TSRA BR SCT007 BKN014CB OVC045 14/13 A3013 RMK AO2 TSB49RAB08 PRESRR SLP198 OCNL LTGIC SW-NW TS SW-NW MOV NE P0005 60043 T01440128 10283 20144 53015=
201105032350 SPECI KATL 032350Z 31010KT 5SM TSRA BR SCT007 BKN014CB OVC045 14/13 A3012 RMK AO2 TSB49RAB08 OCNL LTGIC SW-NW TS SW-NW MOV NE P0004=
201105032350 SPECI KATL 032350Z 31010KT 5SM TSRA BR SCT007 BKN014CB OVC045 14/13 A3012 RMK AO2 TSB49RAB08 OCNL LTGIC SW-NW TS SW-NW MOV NE P0004=
201105032335 SPECI KATL 032335Z 33011G19KT 10SM -RA SCT008 BKN014 OVC045 15/13 A3010 RMK AO2 RAB08 P0000=
201105032335 SPECI KATL 032335Z 33011G19KT 10SM -RA SCT008 BKN014 OVC045 15/13 A3010 RMK AO2 RAB08 P0000=
201105032252 METAR KATL 032252Z 33010KT 10SM BKN008 BKN040 OVC100 16/14 A3009 RMK AO2 TSE20RAE48 SLP185 CIG 005V011 P0010 T01610144=
201105032229 SPECI KATL 032229Z 32012KT 10SM BKN008 OVC050 16/15 A3009 RMK AO2 TSE20RAE28 CIG 006V011 P0010=
201105032229 SPECI KATL 032229Z 32012KT 10SM BKN008 OVC050 16/15 A3009 RMK AO2 TSE20RAE28 CIG 006V011 P0010=
201105032221 SPECI KATL 032221Z 32009KT 7SM -RA FEW007 BKN014 OVC050 16/15 A3009 RMK AO2 TSE20 TS MOV NE P0010=
201105032221 SPECI KATL 032221Z 32009KT 7SM -RA FEW007 BKN014 OVC050 16/15 A3009 RMK AO2 TSE20 TS MOV NE P0010=
201105032210 SPECI KATL 032210Z 31013KT 7SM -TSRA FEW015 SCT028CB BKN055 OVC150 16/15 A3009 RMK AO2 OCNL LTGICCG NE-SE TS NE-SE MOV NE P0009=
201105032210 SPECI KATL 032210Z 31013KT 7SM -TSRA FEW015 SCT028CB BKN055 OVC150 16/15 A3009 RMK AO2 OCNL LTGICCG NE-SE TS NE-SE MOV NE P0009=
201105032204 SPECI KATL 032204Z 31012KT 2SM +TSRA BR FEW015 BKN028CB OVC055 16/14 A3009 RMK AO2 OCNL LTGICCG N-NE AND S TS N-NE AND S MOV NE P0006=
201105032204 SPECI KATL 032204Z 31012KT 2SM +TSRA BR FEW015 BKN028CB OVC055 16/14 A3009 RMK AO2 OCNL LTGICCG N-NE AND S TS N-NE AND S MOV NE P0006=
201105032152 METAR KATL 032152Z 32014G19KT 3SM +TSRA BR BKN015 BKN028CB OVC055 16/14 A3008 RMK AO2 TSB39RAB2059E12B30 SLP182 FRQ LTGICCG OHD-ALQDS TS OHD-ALQDS MOV NE P0010 T01610144=
201105032149 SPECI KATL 032149Z 32015KT 1 1/2SM R09R/5500VP6000FT +TSRA BR BKN015 BKN028CB OVC055 16/14 A3008 RMK AO2 TSB39RAB2059E12B30 FRQ LTGICCG OHD-ALQDS TS OHD-ALQDS MOV NE P0005=
201105032149 SPECI KATL 032149Z 32015KT 1 1/2SM R09R/5500VP6000FT +TSRA BR BKN015 BKN028CB OVC055 16/14 A3008 RMK AO2 TSB39RAB2059E12B30 FRQ LTGICCG OHD-ALQDS TS OHD-ALQDS MOV NE P0005=
201105032146 SPECI KATL 032146Z 30014G19KT 6SM TSRA BR SCT015 BKN028CB BKN055 OVC150 17/14 A3010 RMK AO2 TSB39RAB2059E12B30 FRQ LTGICCG S-OHD-NW TS S-OHD-NW MOV NE P0001=
201105032146 SPECI KATL 032146Z 30014G19KT 6SM TSRA BR SCT015 BKN028CB BKN055 OVC150 17/14 A3010 RMK AO2 TSB39RAB2059E12B30 FRQ LTGICCG S-OHD-NW TS S-OHD-NW MOV NE P0001=
201105032139 SPECI KATL 032139Z 30016G19KT 10SM -TSRA BKN015 BKN026CB BKN055 OVC150 17/14 A3009 RMK AO2 TSB39RAB2059E12B30 OCNL LTGIC SW TS SW MOV NE P0000=
201105032139 SPECI KATL 032139Z 30016G19KT 10SM -TSRA BKN015 BKN026CB BKN055 OVC150 17/14 A3009 RMK AO2 TSB39RAB2059E12B30 OCNL LTGIC SW TS SW MOV NE P0000=
201105032125 SPECI KATL 032125Z 31013KT 10SM BKN016 BKN040 BKN070 OVC150 18/15 A3008 RMK AO2 RAB2059E12 CB DSNT SW P0000=
201105032125 SPECI KATL 032125Z 31013KT 10SM BKN016 BKN040 BKN070 OVC150 18/15 A3008 RMK AO2 RAB2059E12 CB DSNT SW P0000=
201105032052 METAR KATL 032052Z 32014KT 10SM FEW009 BKN014 BKN085 19/17 A3007 RMK AO2 PK WND 30028/2004 TSB1959E37RAB09E37 SLP176 TS MOV NE CB DSNT=
201105032038 SPECI KATL 032038Z 31014G19KT 10SM BKN011 BKN050 BKN200 19/17 A3007 RMK AO2 PK WND 30028/2004 TSB1959E37RAB09E37 FRQ LTGICCG DSNT=
201105032038 SPECI KATL 032038Z 31014G19KT 10SM BKN011 BKN050 BKN200 19/17 A3007 RMK AO2 PK WND 30028/2004 TSB1959E37RAB09E37 FRQ LTGICCG DSNT=
201105032022 SPECI KATL 032022Z 29014G22KT 10SM -TSRA FEW007 BKN026CB BKN050 BKN200 19/17 A3008 RMK AO2 PK WND 30028/2004 TSB1959RAB09 FRQ LTGICCG NE TS NE MOV NE SHRA NE P0018=
201105032022 SPECI KATL 032022Z 29014G22KT 10SM -TSRA FEW007 BKN026CB BKN050 BKN200 19/17 A3008 RMK AO2 PK WND 30028/2004 TSB1959RAB09 FRQ LTGICCG NE TS NE MOV NE SHRA NE P0018=
201105032014 SPECI KATL 032014Z 28011G23KT 8SM R09R/2200VP6000FT -TSRA BKN023CB BKN070 BKN200 20/18 A3008 RMK AO2 PK WND 30028/2004 TSB1959RAB09 PRESRR FRQ LTGICCG OHD-E TS OHD-E MOV NE P0018=
201105032014 SPECI KATL 032014Z 28011G23KT 8SM R09R/2200VP6000FT -TSRA BKN023CB BKN070 BKN200 20/18 A3008 RMK AO2 PK WND 30028/2004 TSB1959RAB09 PRESRR FRQ LTGICCG OHD-E TS OHD-E MOV NE P0018=
201105032009 SPECI KATL 032009Z 26012G28KT 2SM R09R/2200VP6000FT +TSRA BKN022 BKN050 OVC070 21/17 A3005 RMK AO2 PK WND 30028/2004 TSB1959RAB09 FRQ LTGICCG OHD-W TS OHD-W MOV NE P0001=
201105032009 SPECI KATL 032009Z 26012G28KT 2SM R09R/2200VP6000FT +TSRA BKN022 BKN050 OVC070 21/17 A3005 RMK AO2 PK WND 30028/2004 TSB1959RAB09 FRQ LTGICCG OHD-W TS OHD-W MOV NE P0001=
201105031959 SPECI KATL 031959Z 30010G19KT 10SM TS FEW055CB BKN070 BKN200 24/17 A3004 RMK AO2 TSB59 FRQ LTGICCG SW-W TS SW-W MOV NE SHRA NE &=
201105031959 SPECI KATL 031959Z 30010G19KT 10SM TS FEW055CB BKN070 BKN200 24/17 A3004 RMK AO2 TSB59 FRQ LTGICCG SW-W TS SW-W MOV NE SHRA NE &=
201105031952 METAR KATL 031952Z 27010G18KT 10SM BKN050 BKN070 BKN090 BKN200 26/16 A3005 RMK AO2 SLP169 FRQ LTGICCG DSNT SW & NW CB DSNT NE & SW & NW SHRA DSNT NE & SW & NW T02560156=
201105031852 METAR KATL 031852Z 22013G21KT 10SM FEW050 SCT080 BKN200 28/15 A3006 RMK AO2 PK WND 23028/1806 SLP171 CB DSNT SW-NW SHRA DSNT SW-NW T02780150=
201105031752 METAR KATL 031752Z 22012G19KT 10SM BKN050 BKN200 BKN250 27/15 A3007 RMK AO2 SLP173 T02720150 10272 20183 58016=
201105031652 METAR KATL 031652Z 21011G21KT 10SM FEW045 SCT200 BKN250 26/16 A3009 RMK AO2 SLP181 T02610156=
201105031552 METAR KATL 031552Z 20013G23KT 10SM FEW045 SCT080 SCT250 26/15 A3011 RMK AO2 SLP187 T02560150=
201105031452 METAR KATL 031452Z 19013G20KT 10SM FEW040 SCT200 SCT250 24/16 A3012 RMK AO2 SLP190 T02390161 58003=
201105031352 METAR KATL 031352Z 19011G16KT 10SM BKN250 22/16 A3012 RMK AO2 SLP193 T02170161=
201105031252 METAR KATL 031252Z 18009KT 10SM BKN250 20/16 A3013 RMK AO2 SLP194 T02000161=
201105031152 METAR KATL 031152Z 18007KT 10SM FEW050 BKN150 BKN250 18/16 A3013 RMK AO2 SLP195 T01830156 10206 20172 53005=
201105031052 METAR KATL 031052Z 17007KT 10SM SCT050 BKN150 17/15 A3012 RMK AO2 SLP193 T01720150=
201105030952 METAR KATL 030952Z 18006KT 10SM FEW045 SCT250 18/15 A3011 RMK AO2 SLP189 T01780150=
201105030852 METAR KATL 030852Z 17005KT 10SM SCT065 18/15 A3011 RMK AO2 SLP189 T01830150 53001=
201105030752 METAR KATL 030752Z 18009KT 10SM SCT150 19/15 A3011 RMK AO2 SLP187 T01890150=
201105030652 METAR KATL 030652Z 16009KT 10SM BKN065 20/14 A3010 RMK AO2 SLP183 T02000144=
201105030552 METAR KATL 030552Z 16007KT 10SM FEW150 21/14 A3011 RMK AO2 SLP188 T02060144 10250 20206 58010=
201105030452 METAR KATL 030452Z 16006KT 10SM FEW060 SCT250 21/15 A3012 RMK AO2 SLP193 T02060150 402720161=
201105030352 METAR KATL 030352Z 14005KT 10SM FEW200 BKN250 21/16 A3013 RMK AO2 SLP195 T02110156=
201105030252 METAR KATL 030252Z 13005KT 10SM FEW065 SCT200 BKN250 22/16 A3014 RMK AO2 SLP199 T02220156 50002=
201105030152 METAR KATL 030152Z 14004KT 10SM FEW065 SCT200 BKN250 23/16 A3014 RMK AO2 SLP201 T02280156=
201105030052 METAR KATL 030052Z 15007KT 10SM FEW050 SCT200 BKN250 24/16 A3014 RMK AO2 SLP200 T02390156=
201105022352 METAR KATL 022352Z 14006KT 10SM FEW050 BKN250 25/16 A3014 RMK AO2 SLP198 T02500156 10272 20244 56002=
201105022252 METAR KATL 022252Z 16010KT 10SM FEW050 SCT065 BKN250 26/15 A3014 RMK AO2 SLP198 T02610150=
201105022152 METAR KATL 022152Z 18010KT 10SM SCT050 SCT065 BKN250 26/15 A3013 RMK AO2 SLP197 T02610150=
201105022052 METAR KATL 022052Z 18008G15KT 10SM SCT046 SCT200 BKN250 27/14 A3014 RMK AO2 SLP199 T02720144 56018=
201105021952 METAR KATL 021952Z 14008G15KT 10SM FEW050 SCT060 BKN250 27/15 A3016 RMK AO2 SLP205 T02670150=
201105021852 METAR KATL 021852Z 14009KT 10SM SCT043 SCT200 27/16 A3018 RMK AO2 SLP210 T02670161=
201105021752 SPECI KATL 021752Z VRB04KT 10SM FEW035 SCT200 BKN250 25/17 A3020 RMK AO2 SLP218 T02500167 10256 20172 58012=
201105021652 METAR KATL 021652Z VRB04KT 10SM FEW030 SCT200 BKN250 24/16 A3022 RMK AO2 SLP224 T02440161=
201105021552 METAR KATL 021552Z 14003KT 10SM FEW025 SCT200 BKN250 23/16 A3023 RMK AO2 SLP230 T02280161=
201105021452 METAR KATL 021452Z 17007KT 10SM FEW020 SCT200 BKN250 22/16 A3023 RMK AO2 SLP230 T02170156 50006=
201105021352 METAR KATL 021352Z 17005KT 10SM FEW012 SCT050 BKN250 20/16 A3024 RMK AO2 SLP232 T02000156=
201105021252 METAR KATL 021252Z VRB05KT 10SM BKN250 19/16 A3023 RMK AO2 SLP231 T01890156=
201105021152 METAR KATL 021152Z 09004KT 10SM BKN250 17/15 A3022 RMK AO2 SLP225 T01720150 10200 20161 53021=
201105021052 METAR KATL 021052Z 11003KT 10SM FEW200 17/14 A3020 RMK AO2 SLP219 T01670144 $=
201105020952 METAR KATL 020952Z 14005KT 10SM SCT180 17/14 A3017 RMK AO2 SLP209 T01720144 $=
201105020852 METAR KATL 020852Z 14006KT 10SM SCT180 18/14 A3015 RMK AO2 SLP202 T01780144 51003=
201105020752 METAR KATL 020752Z 14006KT 10SM BKN180 18/14 A3015 RMK AO2 SLP201 T01830144=
201105020652 METAR KATL 020652Z 16010KT 10SM BKN180 19/14 A3015 RMK AO2 SLP201 T01940139=
201105020552 METAR KATL 020552Z 16012KT 10SM BKN180 OVC250 20/14 A3014 RMK AO2 SLP198 T02000139 10250 20200 55001=
201105020452 METAR KATL 020452Z 15008KT 10SM FEW180 OVC250 21/14 A3012 RMK AO2 SLP192 T02060139 402670150=
201105020352 METAR KATL 020352Z 13006KT 10SM FEW180 OVC250 21/13 A3012 RMK AO2 SLP193 T02110133=
201105020252 METAR KATL 020252Z 12007KT 10SM BKN250 22/13 A3014 RMK AO2 SLP200 T02220133 51007=
201105020152 METAR KATL 020152Z 11005KT 10SM SCT250 23/13 A3014 RMK AO2 SLP201 T02280133=
201105020052 METAR KATL 020052Z 11005KT 10SM SCT250 22/13 A3014 RMK AO2 SLP200 T02220133=
201105012352 METAR KATL 012352Z 14006KT 10SM FEW100 BKN250 24/13 A3012 RMK AO2 SLP194 T02440128 10267 20244 53003=
201105012252 METAR KATL 012252Z 15009KT 10SM FEW100 BKN250 26/12 A3011 RMK AO2 SLP190 T02610117=
201105012152 METAR KATL 012152Z COR 16012G17KT 10SM FEW100 BKN250 26/12 A3010 RMK AO2 SLP187 T02610117=
201105012052 METAR KATL 012052Z 16009KT 10SM FEW055 SCT090 OVC250 26/11 A3011 RMK AO2 SLP189 T02610111 56021 $=
201105011952 METAR KATL 011952Z 16011G14KT 10SM FEW060 BKN250 27/12 A3013 RMK AO2 SLP195 T02670117 $=
201105011852 METAR KATL 011852Z 16009G14KT 10SM FEW055 SCT085 BKN250 26/12 A3016 RMK AO2 SLP203 T02610117 $=
201105011752 METAR KATL 011752Z 15006KT 10SM FEW055 SCT090 BKN250 26/12 A3018 RMK AO2 SLP211 T02560117 10261 20156 58002 $=
201105011652 METAR KATL 011652Z 16003KT 10SM FEW050 SCT095 BKN250 24/13 A3019 RMK AO2 SLP216 T02440128 $=
201105011552 METAR KATL 011552Z 16003KT 10SM FEW100 BKN250 24/12 A3019 RMK AO2 SLP217 T02390122 $=
201105011452 METAR KATL 011452Z 20009G15KT 10SM FEW110 BKN250 22/12 A3018 RMK AO2 SLP213 T02220117 53010 $=
201105011352 METAR KATL 011352Z 18008KT 10SM FEW100 BKN250 19/12 A3017 RMK AO2 SLP208 T01940122=
201105011252 METAR KATL 011252Z 16006KT 10SM SCT250 17/12 A3015 RMK AO2 SLP205 T01670122=
