##########################################################
# Query made at 04/19/2024 23:24:36 UTC
# Time interval: from 11/01/2011 12:00  to 11/30/2011 12:59  UTC
##########################################################

##########################################################
# KATL, Atlanta, Hartsfield - Jackson Atlanta International Airport (United States)
# WMO index: 72219. WIGOS ID: 0-20000-0-72219
# Latitude 33-38-59N. Longitude 084-25-00W. Altitude 312 m.
##########################################################

201111301252 METAR KATL 301252Z 30008KT 10SM FEW015 BKN024 04/01 A3006 RMK AO2 SLP184 T00390006=
201111301152 METAR KATL 301152Z 29005KT 10SM OVC022 04/01 A3004 RMK AO2 SLP177 T00390006 10039 20028 53012=
201111301052 METAR KATL 301052Z 27007KT 10SM BKN017 OVC022 03/01 A3002 RMK AO2 SLP171 T00330006=
201111300952 METAR KATL 300952Z 26006KT 10SM FEW016 BKN020 OVC024 03/00 A3001 RMK AO2 SLP167 T00330000=
201111300852 METAR KATL 300852Z 28007KT 10SM BKN018 BKN025 03/00 A3000 RMK AO2 SLP165 T00330000 53001=
201111300752 METAR KATL 300752Z 29006KT 10SM BKN022 BKN030 03/00 A3000 RMK AO2 SLP165 T00330000=
201111300652 METAR KATL 300652Z 30009KT 10SM BKN020 OVC025 03/M01 A2999 RMK AO2 SLP163 T00331006=
201111300552 METAR KATL 300552Z 30014G18KT 10SM BKN016 OVC022 03/00 A3000 RMK AO2 SLP164 60000 T00330000 10039 20033 51006=
201111300452 METAR KATL 300452Z 32013G20KT 10SM SCT016 OVC022 04/00 A2999 RMK AO2 SLP161 T00390000 400440022=
201111300352 METAR KATL 300352Z 29012KT 10SM FEW012 BKN020 OVC025 04/01 A2998 RMK AO2 SLP160 T00390011=
201111300252 METAR KATL 300252Z 29010KT 10SM BKN012 OVC018 04/02 A2998 RMK AO2 RAE52 SLP157 P0000 60000 T00390017 51010=
201111300152 METAR KATL 300152Z 27007KT 10SM -RA BKN011 OVC018 04/02 A2998 RMK AO2 RAB44 SLP157 P0000 T00390017=
201111300052 METAR KATL 300052Z 26009KT 10SM OVC010 03/01 A2996 RMK AO2 SLP152 T00330011=
201111292352 METAR KATL 292352Z 25008KT 10SM BKN010 BKN018 OVC035 03/01 A2994 RMK AO2 RAB2255E04 SLP146 P0000 60000 T00330011 10044 20033 51022=
201111292252 METAR KATL 292252Z 24009KT 10SM BKN013 OVC020 03/01 A2993 RMK AO2 SLP141 T00330011=
201111292235 SPECI KATL 292235Z 24009KT 10SM BKN013 OVC020 03/01 A2992 RMK AO2=
201111292235 SPECI KATL 292235Z 24009KT 10SM BKN013 OVC020 03/01 A2992 RMK AO2=
201111292152 METAR KATL 292152Z 24009KT 10SM BKN017 BKN020 OVC040 04/01 A2991 RMK AO2 SLP134 T00390006=
201111292052 METAR KATL 292052Z 25009G18KT 10SM BKN015 BKN019 OVC040 04/00 A2988 RMK AO2 RAB1956E13 SLP123 P0000 60000 T00390000 53008=
201111292045 SPECI KATL 292045Z 26013G19KT 10SM BKN015 BKN019 OVC040 04/01 A2988 RMK AO2 RAB1956E13 P0000=
201111292045 SPECI KATL 292045Z 26013G19KT 10SM BKN015 BKN019 OVC040 04/01 A2988 RMK AO2 RAB1956E13 P0000=
201111292009 SPECI KATL 292009Z 24006KT 9SM -RA BKN013 BKN020 BKN040 04/01 A2986 RMK AO2 RAB1956 P0000=
201111292009 SPECI KATL 292009Z 24006KT 9SM -RA BKN013 BKN020 BKN040 04/01 A2986 RMK AO2 RAB1956 P0000=
201111291952 METAR KATL 291952Z 24007G15KT 9SM BKN013 BKN017 OVC040 04/01 A2986 RMK AO2 RAE42 SLP117 P0000 T00390011=
201111291913 SPECI KATL 291913Z 25010KT 8SM -RA BKN013 BKN018 OVC025 03/01 A2985 RMK AO2 P0000=
201111291913 SPECI KATL 291913Z 25010KT 8SM -RA BKN013 BKN018 OVC025 03/01 A2985 RMK AO2 P0000=
201111291852 METAR KATL 291852Z 24009KT 10SM -RA SCT015 BKN020 OVC030 04/01 A2985 RMK AO2 RAB1753E05B38 SLP114 P0000 T00390011=
201111291810 SPECI KATL 291810Z 23011KT 10SM FEW013 BKN017 BKN055 04/01 A2985 RMK AO2 RAB1753E05 P0000=
201111291810 SPECI KATL 291810Z 23011KT 10SM FEW013 BKN017 BKN055 04/01 A2985 RMK AO2 RAB1753E05 P0000=
201111291754 SPECI KATL 291754Z 23008KT 9SM -RA BKN014 BKN023 OVC034 03/01 A2985 RMK AO2 RAB53 P0000=
201111291754 SPECI KATL 291754Z 23008KT 9SM -RA BKN014 BKN023 OVC034 03/01 A2985 RMK AO2 RAB53 P0000=
201111291752 METAR KATL 291752Z 24011KT 9SM SCT014 BKN023 OVC034 03/01 A2985 RMK AO2 RAB03E26 SLP114 P0000 60000 T00330006 10039 20022 58002=
201111291723 SPECI KATL 291723Z 25010G17KT 9SM -RA BKN018 BKN023 OVC030 03/01 A2985 RMK AO2 RAB03 P0000=
201111291723 SPECI KATL 291723Z 25010G17KT 9SM -RA BKN018 BKN023 OVC030 03/01 A2985 RMK AO2 RAB03 P0000=
201111291652 METAR KATL 291652Z 24012G17KT 10SM BKN014 BKN018 OVC020 03/01 A2985 RMK AO2 RAE07 SLP116 P0000 T00330006=
201111291552 METAR KATL 291552Z 23008KT 10SM -RA BKN012 BKN015 OVC020 03/01 A2986 RMK AO2 SLP115 P0000 T00330006=
201111291521 SPECI KATL 291521Z 22008KT 10SM -RA BKN012 BKN015 OVC020 03/01 A2986 RMK AO2 P0000=
201111291521 SPECI KATL 291521Z 22008KT 10SM -RA BKN012 BKN015 OVC020 03/01 A2986 RMK AO2 P0000=
201111291513 SPECI KATL 291513Z 22008KT 10SM BKN009 OVC014 03/01 A2986 RMK AO2 RAE09 P0000=
201111291513 SPECI KATL 291513Z 22008KT 10SM BKN009 OVC014 03/01 A2986 RMK AO2 RAE09 P0000=
201111291452 METAR KATL 291452Z 23008KT 7SM -RA FEW009 BKN013 OVC020 03/01 A2986 RMK AO2 RAE02B24 SLP116 P0000 60000 T00280011 53005=
201111291425 SPECI KATL 291425Z 22008KT 10SM -RA FEW009 BKN013 OVC020 03/01 A2985 RMK AO2 RAE02B24 P0000=
201111291425 SPECI KATL 291425Z 22008KT 10SM -RA FEW009 BKN013 OVC020 03/01 A2985 RMK AO2 RAE02B24 P0000=
201111291352 METAR KATL 291352Z 22006KT 10SM -RA BKN009 BKN013 OVC018 03/01 A2984 RMK AO2 RAE07B42 SLP110 P0000 T00280006=
201111291252 METAR KATL 291252Z 22008KT 7SM -RA BKN013 BKN018 OVC028 02/00 A2984 RMK AO2 SLP111 SNB24E31RAB31 P0000 T00220000=
201111291152 METAR KATL 291152Z 22010KT 8SM BKN015 BKN022 OVC047 03/M01 A2984 RMK AO2 SLP110 60001 70061 T00281006 10044 20028 53004=
201111291113 SPECI KATL 291113Z 22005KT 10SM BKN015 OVC047 03/00 A2983 RMK AO2=
201111291113 SPECI KATL 291113Z 22005KT 10SM BKN015 OVC047 03/00 A2983 RMK AO2=
201111291052 METAR KATL 291052Z 23006KT 8SM SCT017 OVC047 03/00 A2983 RMK AO2 RAE01 SLP106 P0000 T00280000=
201111290952 METAR KATL 290952Z 25007G16KT 9SM -RA SCT016 BKN021 OVC039 03/00 A2983 RMK AO2 RAB41 SLP105 P0001 T00280000=
201111290947 SPECI KATL 290947Z 22008G16KT 9SM -RA BKN019 BKN025 OVC037 03/00 A2983 RMK AO2 RAB41 P0000=
201111290947 SPECI KATL 290947Z 22008G16KT 9SM -RA BKN019 BKN025 OVC037 03/00 A2983 RMK AO2 RAB41 P0000=
201111290852 METAR KATL 290852Z 22007KT 10SM FEW022 OVC031 04/M01 A2983 RMK AO2 SLP104 T00391006 58001=
201111290752 METAR KATL 290752Z 23011G14KT 10SM BKN029 04/00 A2984 RMK AO2 SLP108 T00390000=
201111290727 SPECI KATL 290727Z 23008KT 10SM BKN027 04/00 A2984 RMK AO2=
201111290727 SPECI KATL 290727Z 23008KT 10SM BKN027 04/00 A2984 RMK AO2=
201111290652 METAR KATL 290652Z 22007KT 10SM SCT029 04/00 A2983 RMK AO2 SLP105 T00390000=
201111290614 SPECI KATL 290614Z 24008KT 10SM BKN029 OVC033 04/01 A2983 RMK AO2=
201111290614 SPECI KATL 290614Z 24008KT 10SM BKN029 OVC033 04/01 A2983 RMK AO2=
201111290552 METAR KATL 290552Z 23007KT 10SM SCT027 BKN033 04/01 A2983 RMK AO2 SLP104 T00440006 10061 20044 56010=
201111290543 SPECI KATL 290543Z 23007KT 10SM SCT027 BKN033 04/01 A2983 RMK AO2=
201111290543 SPECI KATL 290543Z 23007KT 10SM SCT027 BKN033 04/01 A2983 RMK AO2=
201111290452 METAR KATL 290452Z 22009KT 10SM SCT020 BKN027 BKN050 04/01 A2984 RMK AO2 SLP108 T00440011 401830044=
201111290449 SPECI KATL 290449Z 22006KT 10SM SCT020 BKN027 BKN050 04/01 A2984 RMK AO2 401830044=
201111290449 SPECI KATL 290449Z 22006KT 10SM SCT020 BKN027 BKN050 04/01 A2984 RMK AO2 401830044=
201111290410 SPECI KATL 290410Z 22004KT 10SM FEW018 SCT027 BKN050 04/01 A2985 RMK AO2=
201111290410 SPECI KATL 290410Z 22004KT 10SM FEW018 SCT027 BKN050 04/01 A2985 RMK AO2=
201111290352 METAR KATL 290352Z 22007KT 10SM FEW018 OVC027 05/01 A2986 RMK AO2 SLP113 T00500011=
201111290252 METAR KATL 290252Z 25007KT 10SM FEW016 OVC027 05/01 A2986 RMK AO2 SLP111 T00500011 51004=
201111290246 SPECI KATL 290246Z 24008KT 10SM FEW016 BKN027 04/01 A2985 RMK AO2=
201111290246 SPECI KATL 290246Z 24008KT 10SM FEW016 BKN027 04/01 A2985 RMK AO2=
201111290218 SPECI KATL 290218Z 24007KT 10SM SCT016 SCT030 04/01 A2985 RMK AO2=
201111290218 SPECI KATL 290218Z 24007KT 10SM SCT016 SCT030 04/01 A2985 RMK AO2=
201111290152 METAR KATL 290152Z 23007KT 10SM SCT016 BKN028 OVC035 06/02 A2986 RMK AO2 SLP110 T00560017=
201111290108 SPECI KATL 290108Z 23009KT 10SM FEW016 SCT028 OVC035 06/02 A2985 RMK AO2=
201111290108 SPECI KATL 290108Z 23009KT 10SM FEW016 SCT028 OVC035 06/02 A2985 RMK AO2=
201111290052 METAR KATL 290052Z 23010G19KT 10SM FEW017 BKN027 OVC032 06/02 A2984 RMK AO2 SLP106 T00560017=
201111290011 SPECI KATL 290011Z 24006KT 10SM BKN018 BKN030 BKN200 06/02 A2983 RMK AO2=
201111290011 SPECI KATL 290011Z 24006KT 10SM BKN018 BKN030 BKN200 06/02 A2983 RMK AO2=
201111282352 METAR KATL 282352Z 24006KT 10SM FEW017 SCT028 SCT200 06/02 A2982 RMK AO2 SLP099 60000 T00610017 10100 20061 51010=
201111282252 METAR KATL 282252Z 23012G17KT 10SM BKN018 OVC030 07/03 A2981 RMK AO2 RAB11E20 SLP095 P0000 T00670033=
201111282152 METAR KATL 282152Z 24004KT 10SM BKN016 BKN020 OVC050 07/04 A2982 RMK AO2 SLP097 T00720039=
201111282105 SPECI KATL 282105Z 22011G17KT 10SM BKN016 BKN020 OVC050 07/04 A2979 RMK AO2=
201111282105 SPECI KATL 282105Z 22011G17KT 10SM BKN016 BKN020 OVC050 07/04 A2979 RMK AO2=
201111282052 METAR KATL 282052Z 22010G21KT 10SM BKN014 BKN020 OVC050 07/04 A2979 RMK AO2 RAE1953 SLP088 60000 T00720039 53012=
201111282031 SPECI KATL 282031Z 21014G23KT 10SM BKN016 BKN020 OVC050 07/04 A2978 RMK AO2 RAE1953=
201111282031 SPECI KATL 282031Z 21014G23KT 10SM BKN016 BKN020 OVC050 07/04 A2978 RMK AO2 RAE1953=
201111281952 METAR KATL 281952Z 21011KT 10SM -RA BKN014 BKN020 OVC050 08/05 A2977 RMK AO2 RAB48 SLP081 P0000 T00780050=
201111281937 SPECI KATL 281937Z 22010G18KT 10SM BKN014 OVC055 08/05 A2977 RMK AO2=
201111281937 SPECI KATL 281937Z 22010G18KT 10SM BKN014 OVC055 08/05 A2977 RMK AO2=
201111281928 SPECI KATL 281928Z 21013G20KT 10SM SCT014 BKN019 OVC055 08/05 A2977 RMK AO2=
201111281928 SPECI KATL 281928Z 21013G20KT 10SM SCT014 BKN019 OVC055 08/05 A2977 RMK AO2=
201111281852 METAR KATL 281852Z 20012KT 10SM BKN010 BKN015 OVC045 08/06 A2976 RMK AO2 SLP078 T00830061=
201111281819 SPECI KATL 281819Z 19014G22KT 10SM BKN013 BKN040 OVC070 09/06 A2976 RMK AO2=
201111281819 SPECI KATL 281819Z 19014G22KT 10SM BKN013 BKN040 OVC070 09/06 A2976 RMK AO2=
201111281752 METAR KATL 281752Z 19016G21KT 8SM SCT010 BKN040 OVC070 10/08 A2975 RMK AO2 RAE50 SLP073 P0004 60060 T01000078 10167 20100 58005=
201111281735 SPECI KATL 281735Z 21013KT 2SM -RA BR FEW008 BKN035 OVC050 10/09 A2976 RMK AO2 SFC VIS 5 P0004=
201111281735 SPECI KATL 281735Z 21013KT 2SM -RA BR FEW008 BKN035 OVC050 10/09 A2976 RMK AO2 SFC VIS 5 P0004=
201111281652 METAR KATL 281652Z 21016G25KT 2SM -RA BR FEW010 BKN030 OVC040 11/09 A2977 RMK AO2 PK WND 22030/1640 SFC VIS 3 SLP078 P0010 T01110089=
201111281616 SPECI KATL 281616Z 22014G27KT 2SM R09R/6000VP6000FT RA BR SCT007 BKN030 OVC040 12/10 A2977 RMK AO2 PK WND 22027/1607 SFC VIS 3 P0006=
201111281616 SPECI KATL 281616Z 22014G27KT 2SM R09R/6000VP6000FT RA BR SCT007 BKN030 OVC040 12/10 A2977 RMK AO2 PK WND 22027/1607 SFC VIS 3 P0006=
201111281552 METAR KATL 281552Z 21014G23KT 2SM R09R/6000VP6000FT -RA BR FEW007 BKN010 OVC048 12/11 A2976 RMK AO2 SFC VIS 4 SLP075 P0009 T01220106=
201111281452 METAR KATL 281452Z 21012KT 2SM R09R/5500VP6000FT RA BR FEW006 BKN010 OVC020 13/12 A2977 RMK AO2 SFC VIS 3 SLP077 P0005 60037 T01330117 51012=
201111281450 SPECI KATL 281450Z 22009KT 2SM R09R/6000VP6000FT -RA BR FEW006 BKN010 OVC020 13/12 A2977 RMK AO2 SFC VIS 3 P0005=
201111281450 SPECI KATL 281450Z 22009KT 2SM R09R/6000VP6000FT -RA BR FEW006 BKN010 OVC020 13/12 A2977 RMK AO2 SFC VIS 3 P0005=
201111281414 SPECI KATL 281414Z 21017G23KT 2SM BR SCT006 BKN020 OVC030 14/12 A2975 RMK AO2 SFC VIS 3 RAE13 P0003=
201111281414 SPECI KATL 281414Z 21017G23KT 2SM BR SCT006 BKN020 OVC030 14/12 A2975 RMK AO2 SFC VIS 3 RAE13 P0003=
201111281352 METAR KATL 281352Z 21014G20KT 1/2SM R09R/6000VP6000FT RA BR BKN006 BKN011 OVC016 16/14 A2975 RMK AO2 SFC VIS 2 SLP068 P0019 T01560144=
201111281321 SPECI KATL 281321Z 19011G17KT 1/2SM R09R/4500V5500FT RA BR OVC006 17/16 A2974 RMK AO2 SFC VIS 1 1/4 P0009=
201111281321 SPECI KATL 281321Z 19011G17KT 1/2SM R09R/4500V5500FT RA BR OVC006 17/16 A2974 RMK AO2 SFC VIS 1 1/4 P0009=
201111281304 SPECI KATL 281304Z 17011G21KT 1 1/2SM R09R/5500VP6000FT -RA BR OVC006 17/15 A2973 RMK AO2 P0002=
201111281304 SPECI KATL 281304Z 17011G21KT 1 1/2SM R09R/5500VP6000FT -RA BR OVC006 17/15 A2973 RMK AO2 P0002=
201111281252 METAR KATL 281252Z 16015G23KT 2SM -RA BR OVC006 17/15 A2973 RMK AO2 SLP063 P0013 T01670150=
201111281213 SPECI KATL 281213Z 15008G16KT 2 1/2SM -RA BR BKN008 OVC013 17/15 A2974 RMK AO2 P0005=
201111281213 SPECI KATL 281213Z 15008G16KT 2 1/2SM -RA BR BKN008 OVC013 17/15 A2974 RMK AO2 P0005=
201111281152 METAR KATL 281152Z 15011G21KT 3SM -RA BR BKN008 OVC013 17/15 A2974 RMK AO2 RAB19 SLP066 P0003 60006 70008 T01670150 10167 20161 56015=
201111281142 SPECI KATL 281142Z 16010G18KT 2 1/2SM -RA BR BKN008 OVC011 17/15 A2974 RMK AO2 RAB19 P0002=
201111281142 SPECI KATL 281142Z 16010G18KT 2 1/2SM -RA BR BKN008 OVC011 17/15 A2974 RMK AO2 RAB19 P0002=
201111281052 METAR KATL 281052Z 14017G24KT 7SM BKN013 OVC018 17/14 A2975 RMK AO2 RAB40E50 SLP067 P0000 T01670144=
201111280952 METAR KATL 280952Z 14010G17KT 10SM FEW009 BKN014 OVC022 16/14 A2977 RMK AO2 RAE45 SLP075 P0000 T01610144=
201111280852 METAR KATL 280852Z 15014G20KT 6SM -RA BR BKN009 BKN012 OVC019 16/14 A2979 RMK AO2 RAE0757B32 SLP081 P0001 60003 T01610144 58018=
201111280808 SPECI KATL 280808Z 14008G16KT 10SM BKN009 BKN016 OVC037 16/14 A2981 RMK AO2 RAE0757 P0000=
201111280808 SPECI KATL 280808Z 14008G16KT 10SM BKN009 BKN016 OVC037 16/14 A2981 RMK AO2 RAE0757 P0000=
201111280752 METAR KATL 280752Z 14011G14KT 10SM -RA SCT009 BKN021 OVC039 16/14 A2982 RMK AO2 RAE01B31 SLP091 P0000 T01610144=
201111280739 SPECI KATL 280739Z 15011G20KT 10SM -RA SCT015 BKN021 OVC060 16/14 A2982 RMK AO2 RAE01B31 P0000=
201111280739 SPECI KATL 280739Z 15011G20KT 10SM -RA SCT015 BKN021 OVC060 16/14 A2982 RMK AO2 RAE01B31 P0000=
201111280652 METAR KATL 280652Z 14008KT 10SM -RA FEW029 BKN033 OVC050 17/13 A2983 RMK AO2 SLP094 P0002 T01670128=
201111280552 METAR KATL 280552Z 16012KT 7SM -RA FEW023 BKN055 BKN075 OVC130 17/12 A2984 RMK AO2 RAB00 SLP099 P0002 60002 T01670122 10206 20167 58013=
201111280452 METAR KATL 280452Z 15013KT 10SM BKN055 BKN090 OVC110 18/11 A2986 RMK AO2 RAB06E46 SLP105 P0000 T01830106 402280150=
201111280352 METAR KATL 280352Z 15012G15KT 10SM BKN055 OVC150 19/10 A2988 RMK AO2 RAB25E49 SLP111 P0000 T01940100=
201111280252 METAR KATL 280252Z 15008KT 10SM SCT060 SCT085 OVC150 19/11 A2988 RMK AO2 RAE40 SLP114 P0000 60000 T01890106 58006=
201111280152 METAR KATL 280152Z 15010KT 9SM -RA BKN055 OVC070 19/11 A2991 RMK AO2 RAE06B37 SLP123 P0000 T01940106=
201111280052 METAR KATL 280052Z 16011G16KT 10SM -RA BKN065 OVC080 20/10 A2992 RMK AO2 RAB2358E16B50 SLP125 P0000 T02000100=
201111272352 METAR KATL 272352Z 15013G19KT 10SM OVC055 21/09 A2990 RMK AO2 RAB33E42 SLP120 P0000 60000 T02060094 10222 20206 56008=
201111272252 METAR KATL 272252Z 15010G20KT 10SM OVC055 21/09 A2990 RMK AO2 SLP120 T02110094=
201111272152 METAR KATL 272152Z 14011G17KT 10SM BKN055 OVC065 21/09 A2991 RMK AO2 SLP122 T02110094=
201111272052 METAR KATL 272052Z 15011G18KT 10SM BKN055 BKN065 22/09 A2992 RMK AO2 SLP128 T02170094 56019=
201111271952 METAR KATL 271952Z 16013G21KT 10SM BKN055 OVC065 22/09 A2994 RMK AO2 PK WND 15026/1906 SLP134 T02170094=
201111271852 METAR KATL 271852Z 17016G24KT 10SM BKN050 OVC065 22/09 A2996 RMK AO2 PK WND 16026/1816 SLP139 T02170094=
201111271752 METAR KATL 271752Z 15016G23KT 10SM BKN048 BKN060 22/09 A2998 RMK AO2 PK WND 18030/1704 SLP148 T02220094 10228 20161 58027=
201111271652 METAR KATL 271652Z 17018G28KT 10SM SCT048 BKN060 22/09 A3002 RMK AO2 PK WND 19029/1601 SLP160 T02170094=
201111271552 METAR KATL 271552Z 16021G28KT 10SM SCT049 SCT055 BKN140 21/09 A3004 RMK AO2 PK WND 16028/1551 SLP169 T02110094=
201111271452 METAR KATL 271452Z 16011G23KT 10SM SCT048 SCT055 BKN140 19/11 A3006 RMK AO2 SLP175 T01890106 53003=
201111271352 METAR KATL 271352Z 16012G18KT 10SM BKN050 BKN140 18/12 A3006 RMK AO2 SLP174 T01780117=
201111271252 METAR KATL 271252Z 15011G17KT 10SM BKN130 BKN180 16/12 A3005 RMK AO2 SLP173 T01610122=
201111271152 METAR KATL 271152Z 15008KT 10SM SCT060 BKN130 16/12 A3006 RMK AO2 SLP174 T01610122 10161 20150 56010=
201111271052 METAR KATL 271052Z 16009KT 10SM BKN060 BKN150 16/12 A3007 RMK AO2 SLP177 T01560117=
201111270952 METAR KATL 270952Z 13006KT 10SM BKN060 BKN100 15/12 A3007 RMK AO2 SLP179 T01500117=
201111270852 METAR KATL 270852Z 14007KT 10SM BKN060 OVC100 15/11 A3009 RMK AO2 SLP183 T01500111 58013=
201111270752 METAR KATL 270752Z 14006KT 10SM FEW050 SCT060 15/11 A3010 RMK AO2 SLP190 T01500111=
201111270652 METAR KATL 270652Z 15008KT 10SM FEW040 SCT058 16/11 A3012 RMK AO2 SLP194 T01560111=
201111270552 METAR KATL 270552Z 15007KT 10SM FEW038 SCT047 BKN055 16/11 A3013 RMK AO2 SLP198 T01560111 10183 20156 56009=
201111270452 METAR KATL 270452Z 14007KT 10SM SCT060 16/11 A3013 RMK AO2 SLP201 T01610106 402110100=
201111270352 METAR KATL 270352Z 13009KT 10SM SCT065 17/11 A3014 RMK AO2 SLP205 T01670106=
201111270252 METAR KATL 270252Z 12007KT 10SM BKN065 17/11 A3016 RMK AO2 SLP209 T01720106 50000=
201111270152 METAR KATL 270152Z 13007KT 10SM FEW047 BKN065 18/10 A3016 RMK AO2 SLP210 T01780100=
201111270052 METAR KATL 270052Z 13006KT 10SM FEW047 BKN060 18/09 A3016 RMK AO2 SLP212 T01780094=
201111262352 METAR KATL 262352Z 13005KT 10SM SCT060 SCT250 18/09 A3016 RMK AO2 SLP210 T01780094 10211 20178 55005=
201111262252 METAR KATL 262252Z 14005KT 10SM BKN060 BKN250 19/09 A3015 RMK AO2 SLP209 T01890094=
201111262152 METAR KATL 262152Z 15012G16KT 10SM FEW045 BKN060 BKN250 20/09 A3016 RMK AO2 SLP211 T02000089=
201111262052 METAR KATL 262052Z 18012KT 10SM FEW045 SCT060 BKN250 21/09 A3017 RMK AO2 SLP214 T02110089 56022=
201111261952 METAR KATL 261952Z 15008KT 10SM FEW043 SCT050 OVC060 21/11 A3018 RMK AO2 SLP218 T02060106=
201111261852 METAR KATL 261852Z 15010G15KT 10SM FEW045 BKN060 20/11 A3020 RMK AO2 SLP226 T02000106=
201111261752 METAR KATL 261752Z 14006KT 10SM OVC055 18/11 A3024 RMK AO2 SLP238 T01830111 10183 20128 58020=
201111261652 METAR KATL 261652Z 13005KT 10SM OVC055 17/11 A3027 RMK AO2 SLP251 T01670111=
201111261552 METAR KATL 261552Z 14003KT 10SM FEW042 OVC049 15/11 A3030 RMK AO2 SLP261 T01500106=
201111261452 METAR KATL 261452Z 14005KT 10SM OVC049 14/11 A3030 RMK AO2 SLP260 T01390106 51006 $=
201111261352 METAR KATL 261352Z 11004KT 10SM OVC049 13/10 A3029 RMK AO2 SLP258 T01330100 $=
201111261252 METAR KATL 261252Z 11003KT 10SM OVC045 13/10 A3029 RMK AO2 SLP257 T01280100 $=
201111261152 METAR KATL 261152Z 11004KT 10SM OVC043 13/09 A3028 RMK AO2 SLP253 T01280094 10128 20100 53009 $=
201111261052 METAR KATL 261052Z 12004KT 10SM OVC043 12/09 A3026 RMK AO2 SLP244 T01220089=
201111260952 METAR KATL 260952Z 12004KT 10SM OVC043 12/08 A3026 RMK AO2 SLP246 T01220083=
201111260852 METAR KATL 260852Z 13006KT 10SM OVC045 12/08 A3025 RMK AO2 SLP243 T01220078 56001=
201111260752 METAR KATL 260752Z 12005KT 10SM BKN047 12/06 A3026 RMK AO2 SLP244 T01220061=
201111260652 METAR KATL 260652Z 08004KT 10SM BKN047 11/05 A3025 RMK AO2 SLP243 T01060050=
201111260552 METAR KATL 260552Z 07007KT 10SM BKN047 BKN250 11/04 A3026 RMK AO2 SLP245 T01060039 10156 20100 58003=
201111260452 METAR KATL 260452Z 08006KT 10SM BKN047 BKN250 11/04 A3027 RMK AO2 SLP248 T01110044 402000039=
201111260352 METAR KATL 260352Z 11003KT 10SM SCT045 BKN250 12/04 A3026 RMK AO2 SLP247 T01220044=
201111260252 METAR KATL 260252Z 11004KT 10SM BKN045 BKN250 13/04 A3027 RMK AO2 SLP250 T01280044 53005=
201111260152 METAR KATL 260152Z 12005KT 10SM BKN250 13/04 A3026 RMK AO2 SLP249 T01330039=
201111260052 METAR KATL 260052Z 12005KT 10SM SCT250 14/03 A3026 RMK AO2 SLP248 T01440033=
201111252352 METAR KATL 252352Z 13003KT 10SM FEW250 16/03 A3025 RMK AO2 SLP246 T01560028 10200 20156 53000=
201111252252 METAR KATL 252252Z 00000KT 10SM FEW250 17/03 A3025 RMK AO2 SLP245 T01670033=
201111252152 METAR KATL 252152Z 13005KT 10SM FEW250 19/02 A3025 RMK AO2 SLP243 T01890017=
201111252052 METAR KATL 252052Z 16007KT 10SM CLR 19/01 A3025 RMK AO2 SLP245 T01890011 56027=
201111251952 METAR KATL 251952Z VRB03KT 10SM CLR 19/00 A3027 RMK AO2 SLP250 T01890000=
201111251852 METAR KATL 251852Z VRB06KT 10SM CLR 18/M01 A3030 RMK AO2 SLP260 T01781006=
201111251752 METAR KATL 251752Z 20006KT 10SM CLR 17/M02 A3034 RMK AO2 SLP272 T01721022 10178 20039 58020=
201111251652 METAR KATL 251652Z 17006KT 10SM CLR 16/M01 A3037 RMK AO2 SLP283 T01611006=
201111251552 METAR KATL 251552Z 18007KT 10SM CLR 14/01 A3039 RMK AO2 SLP291 T01390006=
201111251452 METAR KATL 251452Z 00000KT 10SM CLR 12/02 A3040 RMK AO2 SLP294 T01170022 53013=
201111251352 METAR KATL 251352Z 00000KT 10SM CLR 09/01 A3038 RMK AO2 SLP289 T00890011 $=
201111251252 METAR KATL 251252Z 00000KT 10SM CLR 06/00 A3037 RMK AO2 SLP287 T00560000 $=
201111251152 METAR KATL 251152Z 00000KT 10SM CLR 05/00 A3036 RMK AO2 SLP282 T00500000 10094 20044 53005=
201111251052 METAR KATL 251052Z 00000KT 10SM CLR 06/00 A3035 RMK AO2 SLP278 T00560000=
201111250952 METAR KATL 250952Z 00000KT 10SM CLR 07/M01 A3035 RMK AO2 SLP276 T00721006=
201111250852 METAR KATL 250852Z 10005KT 10SM CLR 07/M01 A3034 RMK AO2 SLP275 T00671006 57002=
201111250752 METAR KATL 250752Z 00000KT 10SM CLR 08/01 A3035 RMK AO2 SLP276 T00830006=
201111250652 METAR KATL 250652Z 12004KT 10SM CLR 08/01 A3034 RMK AO2 SLP273 T00830006=
201111250552 METAR KATL 250552Z 00000KT 10SM CLR 09/01 A3035 RMK AO2 SLP276 T00890006 10139 20078 58001=
201111250452 METAR KATL 250452Z 00000KT 10SM CLR 08/01 A3035 RMK AO2 SLP277 T00780011 401940033=
201111250352 METAR KATL 250352Z 00000KT 10SM CLR 10/01 A3035 RMK AO2 SLP279 T01000006=
201111250252 METAR KATL 250252Z 00000KT 10SM CLR 12/M01 A3035 RMK AO2 SLP279 T01171006 53004=
201111250152 METAR KATL 250152Z 00000KT 10SM CLR 12/00 A3034 RMK AO2 SLP276 T01170000=
201111250052 METAR KATL 250052Z 14003KT 10SM CLR 13/M01 A3034 RMK AO2 SLP278 T01281006=
201111242352 METAR KATL 242352Z 00000KT 10SM CLR 14/M01 A3034 RMK AO2 SLP277 T01391006 10194 20139 53010=
201111242252 METAR KATL 242252Z 17003KT 10SM CLR 16/M01 A3033 RMK AO2 SLP272 T01561006=
201111242152 METAR KATL 242152Z 13004KT 10SM CLR 18/M01 A3032 RMK AO2 SLP267 T01831011=
201111242052 METAR KATL 242052Z 08003KT 10SM CLR 19/M02 A3031 RMK AO2 SLP263 T01891017 56007=
201111241952 METAR KATL 241952Z 00000KT 10SM CLR 19/M01 A3031 RMK AO2 SLP264 T01891011=
201111241852 METAR KATL 241852Z 00000KT 10SM CLR 18/M02 A3032 RMK AO2 SLP268 T01831022=
201111241752 METAR KATL 241752Z 13005KT 10SM CLR 17/M02 A3033 RMK AO2 SLP271 T01721022 10172 20033 58010 $=
201111241652 METAR KATL 241652Z 10005KT 10SM CLR 16/M01 A3035 RMK AO2 SLP278 T01611006 $=
201111241552 METAR KATL 241552Z VRB03KT 10SM CLR 14/01 A3036 RMK AO2 SLP283 T01440011 $=
201111241452 METAR KATL 241452Z 09003KT 10SM CLR 12/03 A3036 RMK AO2 SLP282 T01170028 51021 $=
201111241352 METAR KATL 241352Z 31003KT 10SM CLR 09/04 A3034 RMK AO2 SLP278 T00940044 $=
201111241252 METAR KATL 241252Z 35003KT 10SM CLR 04/03 A3032 RMK AO2 SLP271 T00440028 $=
201111241152 METAR KATL 241152Z 32004KT 10SM CLR 04/02 A3029 RMK AO2 SLP263 T00390022 10072 20039 53015=
201111241052 METAR KATL 241052Z 34005KT 10SM CLR 05/03 A3027 RMK AO2 SLP255 T00500028=
201111240952 METAR KATL 240952Z 34004KT 10SM CLR 05/03 A3027 RMK AO2 SLP252 T00500028=
201111240852 METAR KATL 240852Z 33005KT 10SM CLR 06/03 A3025 RMK AO2 SLP245 T00560033 53010=
201111240752 METAR KATL 240752Z 33004KT 10SM CLR 06/03 A3023 RMK AO2 SLP240 T00610033=
201111240652 METAR KATL 240652Z 34007KT 10SM CLR 07/04 A3022 RMK AO2 SLP235 T00670039=
201111240552 METAR KATL 240552Z 34008KT 10SM CLR 07/04 A3022 RMK AO2 SLP234 T00720044 10106 20072 51004=
201111240452 METAR KATL 240452Z 33012KT 10SM CLR 08/04 A3022 RMK AO2 SLP234 T00830044 401720083=
201111240352 METAR KATL 240352Z 33009KT 10SM CLR 09/04 A3022 RMK AO2 SLP233 T00890044=
201111240252 METAR KATL 240252Z 32011KT 10SM CLR 09/04 A3021 RMK AO2 SLP230 T00890044 53016=
201111240152 METAR KATL 240152Z 32012KT 10SM CLR 10/05 A3018 RMK AO2 SLP220 T01000050=
201111240052 METAR KATL 240052Z 33012KT 10SM CLR 10/05 A3017 RMK AO2 SLP215 T01000050=
201111232352 METAR KATL 232352Z 33012KT 10SM CLR 11/05 A3016 RMK AO2 SLP213 T01060050 10150 20106 51016=
201111232252 METAR KATL 232252Z 33010KT 10SM CLR 11/05 A3014 RMK AO2 SLP206 T01110050=
201111232152 METAR KATL 232152Z 33013G19KT 10SM FEW030 13/05 A3014 RMK AO2 SLP203 T01280050=
201111232052 METAR KATL 232052Z 34014G23KT 10SM FEW035 14/05 A3011 RMK AO2 SLP194 T01390050 53006=
201111231952 METAR KATL 231952Z 35015KT 10SM FEW030 14/05 A3009 RMK AO2 SLP189 T01390050=
201111231852 METAR KATL 231852Z 34015G22KT 10SM SCT026 SCT030 14/06 A3009 RMK AO2 PK WND 32026/1815 SLP188 T01390061=
201111231850 SPECI KATL 231850Z 34017G22KT 10SM SCT026 SCT030 14/06 A3009 RMK AO2 PK WND 32026/1815=
201111231850 SPECI KATL 231850Z 34017G22KT 10SM SCT026 SCT030 14/06 A3009 RMK AO2 PK WND 32026/1815=
201111231813 SPECI KATL 231813Z 32018G22KT 10SM BKN026 BKN030 15/06 A3010 RMK AO2=
201111231813 SPECI KATL 231813Z 32018G22KT 10SM BKN026 BKN030 15/06 A3010 RMK AO2=
201111231752 METAR KATL 231752Z 33015KT 10SM SCT026 SCT032 13/07 A3010 RMK AO2 SLP190 T01330067 10150 20133 50007=
201111231652 METAR KATL 231652Z 32016G24KT 10SM BKN028 BKN032 14/07 A3010 RMK AO2 PK WND 34028/1623 SLP190 T01390067=
201111231552 METAR KATL 231552Z 32012G23KT 10SM BKN027 BKN030 14/07 A3009 RMK AO2 PK WND 31027/1505 SLP187 T01440072=
201111231452 METAR KATL 231452Z 31018G29KT 10SM BKN024 BKN028 14/08 A3008 RMK AO2 PK WND 31029/1443 SLP183 T01390078 51027=
201111231400 SPECI KATL 231400Z 30016KT 10SM FEW017 SCT024 14/09 A3005 RMK AO2=
201111231400 SPECI KATL 231400Z 30016KT 10SM FEW017 SCT024 14/09 A3005 RMK AO2=
201111231352 METAR KATL 231352Z 31013G19KT 10SM FEW017 BKN024 BKN030 14/09 A3006 RMK AO2 PK WND 31026/1328 SLP175 T01390094=
201111231252 METAR KATL 231252Z 30014G20KT 10SM SCT015 BKN022 BKN032 14/11 A3002 RMK AO2 SLP162 T01440106=
201111231152 METAR KATL 231152Z 30011G16KT 10SM SCT016 BKN036 15/12 A2999 RMK AO2 SLP153 70053 T01500117 10172 20150 53012=
201111231100 SPECI KATL 231100Z 30011KT 10SM FEW013 BKN024 OVC042 16/13 A2998 RMK AO2=
201111231100 SPECI KATL 231100Z 30011KT 10SM FEW013 BKN024 OVC042 16/13 A2998 RMK AO2=
201111231052 METAR KATL 231052Z 29012KT 10SM SCT018 BKN042 16/13 A2998 RMK AO2 SLP146 T01560133=
201111230952 METAR KATL 230952Z 27009KT 10SM FEW015 SCT022 16/13 A2996 RMK AO2 SLP138 T01560133=
201111230852 METAR KATL 230852Z 26006KT 10SM BKN018 BKN024 16/14 A2996 RMK AO2 SLP139 T01610139 56010=
201111230823 SPECI KATL 230823Z 26008KT 10SM BKN018 OVC050 16/14 A2996 RMK AO2=
201111230823 SPECI KATL 230823Z 26008KT 10SM BKN018 OVC050 16/14 A2996 RMK AO2=
201111230752 METAR KATL 230752Z 26008KT 10SM FEW020 BKN050 OVC150 16/14 A2997 RMK AO2 SLP141 T01610144=
201111230652 METAR KATL 230652Z 25005KT 10SM FEW041 BKN060 OVC080 17/14 A2998 RMK AO2 SLP144 T01670144=
201111230635 SPECI KATL 230635Z 26005KT 10SM SCT031 SCT042 OVC060 17/14 A2997 RMK AO2=
201111230635 SPECI KATL 230635Z 26005KT 10SM SCT031 SCT042 OVC060 17/14 A2997 RMK AO2=
201111230552 METAR KATL 230552Z 27008KT 10SM FEW016 BKN027 OVC035 17/15 A2999 RMK AO2 SLP149 60044 T01720150 10194 20167 53004=
201111230523 SPECI KATL 230523Z 26007KT 10SM BKN025 OVC032 17/16 A2999 RMK AO2=
201111230523 SPECI KATL 230523Z 26007KT 10SM BKN025 OVC032 17/16 A2999 RMK AO2=
201111230452 METAR KATL 230452Z 25006KT 10SM OVC035 17/16 A2999 RMK AO2 SLP148 T01720156 402500144=
201111230352 METAR KATL 230352Z 23004KT 10SM BKN045 BKN065 OVC120 17/16 A2998 RMK AO2 SLP144 T01670156=
201111230327 SPECI KATL 230327Z 00000KT 10SM SCT020 BKN050 OVC120 17/16 A2997 RMK AO2=
201111230327 SPECI KATL 230327Z 00000KT 10SM SCT020 BKN050 OVC120 17/16 A2997 RMK AO2=
201111230307 SPECI KATL 230307Z 27004KT 10SM BKN018 OVC110 17/16 A2998 RMK AO2=
201111230307 SPECI KATL 230307Z 27004KT 10SM BKN018 OVC110 17/16 A2998 RMK AO2=
201111230252 METAR KATL 230252Z 00000KT 10SM FEW020 BKN110 OVC150 17/15 A2998 RMK AO2 RAE52 SLP146 P0000 60044 T01670150 51006=
201111230152 METAR KATL 230152Z 00000KT 9SM -RA FEW007 SCT065 BKN090 OVC130 17/16 A2997 RMK AO2 WSHFT 0047 TSE24 SLP145 P0033 T01670156=
201111230124 SPECI KATL 230124Z 26005KT 9SM -RA SCT007 BKN090 OVC120 17/16 A2999 RMK AO2 WSHFT 0047 TSE24 TS MOV NE P0031=
201111230124 SPECI KATL 230124Z 26005KT 9SM -RA SCT007 BKN090 OVC120 17/16 A2999 RMK AO2 WSHFT 0047 TSE24 TS MOV NE P0031=
201111230110 SPECI KATL 230110Z 24006KT 4SM TSRA BR FEW008 SCT025CB BKN070 OVC130 17/16 A2999 RMK AO2 WSHFT 0047 OCNL LTGIC NE-SE TS NE-SE MOV NE P0030=
201111230110 SPECI KATL 230110Z 24006KT 4SM TSRA BR FEW008 SCT025CB BKN070 OVC130 17/16 A2999 RMK AO2 WSHFT 0047 OCNL LTGIC NE-SE TS NE-SE MOV NE P0030=
201111230105 SPECI KATL 230105Z 30008G22KT 1 1/2SM R09R/5000VP6000FT +TSRA BR FEW008 BKN022CB OVC040 17/16 A2998 RMK AO2 WSHFT 0047 OCNL LTGIC NE-OHD-SW TS NE-OHD-SW MOV NE P0025=
201111230105 SPECI KATL 230105Z 30008G22KT 1 1/2SM R09R/5000VP6000FT +TSRA BR FEW008 BKN022CB OVC040 17/16 A2998 RMK AO2 WSHFT 0047 OCNL LTGIC NE-OHD-SW TS NE-OHD-SW MOV NE P0025=
201111230055 SPECI KATL 230055Z 31016G24KT 1 1/2SM R09R/6000VP6000FT +TSRA BR SCT008 BKN020CB OVC040 18/17 A2999 RMK AO2 OCNL LTGIC NE-OHD-SW TS NE-OHD-SW MOV NE P0008=
201111230055 SPECI KATL 230055Z 31016G24KT 1 1/2SM R09R/6000VP6000FT +TSRA BR SCT008 BKN020CB OVC040 18/17 A2999 RMK AO2 OCNL LTGIC NE-OHD-SW TS NE-OHD-SW MOV NE P0008=
201111230052 METAR KATL 230052Z 30017G22KT 2SM R09R/6000VP6000FT +TSRA BR SCT008 BKN020CB OVC055 19/17 A3000 RMK AO2 TSB27 PRESRR SLP154 OCNL LTGIC NE-OHD-SW TS NE-OHD-SW MOV NE P0011 T01890172=
201111230027 SPECI KATL 230027Z 19010KT 7SM -TSRA FEW025CB BKN070 OVC110 19/17 A2996 RMK AO2 TSB27 OCNL LTGIC SW-NW TS SW-NW MOV NE P0007=
201111230027 SPECI KATL 230027Z 19010KT 7SM -TSRA FEW025CB BKN070 OVC110 19/17 A2996 RMK AO2 TSB27 OCNL LTGIC SW-NW TS SW-NW MOV NE P0007=
201111222352 METAR KATL 222352Z 20007KT 5SM RA BR SCT027 BKN032 OVC055 19/17 A2996 RMK AO2 RAB00 SLP141 P0009 60009 T01940172 10250 20194 57003=
201111222252 METAR KATL 222252Z 19010KT 10SM FEW040CB BKN055 BKN110 OVC200 22/16 A2996 RMK AO2 SLP140 CB SW-NW-N MOV NE T02170156=
201111222152 METAR KATL 222152Z 20015G21KT 10SM FEW040 SCT080 BKN250 23/15 A2997 RMK AO2 SLP142 CBMAM DSNT NW CB DSNT SW-NW T02280150=
201111222052 METAR KATL 222052Z 20008KT 10SM FEW035TCU SCT080 BKN250 24/15 A2997 RMK AO2 PK WND 21026/2041 SLP142 TCU NE-SE T02440150 56031=
201111221952 METAR KATL 221952Z 20014G21KT 10SM FEW037TCU SCT065 BKN080 BKN250 24/16 A3000 RMK AO2 SLP151 TCU SW-NW SHRA DSNT N T02440156=
201111221852 METAR KATL 221852Z 19013G21KT 10SM BKN040 BKN050 BKN250 23/15 A3002 RMK AO2 SLP161 T02330150=
201111221752 METAR KATL 221752Z 20010KT 10SM BKN037 BKN048 BKN250 23/14 A3007 RMK AO2 SLP175 T02280139 10233 20156 58034 $=
201111221652 METAR KATL 221652Z 20010KT 10SM BKN034 BKN045 BKN250 23/13 A3011 RMK AO2 SLP189 T02280133=
201111221552 METAR KATL 221552Z 18008KT 10SM BKN046 BKN250 22/13 A3014 RMK AO2 SLP200 T02170133 $=
201111221452 METAR KATL 221452Z 18008KT 10SM BKN050 BKN250 19/14 A3017 RMK AO2 SLP210 T01940139 53007=
201111221352 METAR KATL 221352Z 18006KT 10SM FEW150 SCT250 18/14 A3016 RMK AO2 SLP208 T01780139 $=
201111221252 METAR KATL 221252Z COR 15007KT 10SM SCT060 SCT200 16/14 A3015 RMK AO2 SLP205 T01560139 $=
201111221152 METAR KATL 221152Z 17005KT 10SM SCT045 SCT200 16/14 A3015 RMK AO2 SLP205 T01560139 10172 20144 51004=
201111221052 METAR KATL 221052Z 15003KT 10SM SCT180 16/14 A3015 RMK AO2 SLP203 T01610139=
201111220952 METAR KATL 220952Z 15004KT 9SM FEW040 16/14 A3014 RMK AO2 SLP200 T01560139=
201111220852 METAR KATL 220852Z 00000KT 8SM FEW040 SCT100 16/14 A3014 RMK AO2 SLP199 T01560139 58005=
201111220752 METAR KATL 220752Z 00000KT 9SM FEW050 16/14 A3015 RMK AO2 SLP204 T01610139=
201111220652 METAR KATL 220652Z 16003KT 10SM FEW050 17/14 A3015 RMK AO2 SLP203 T01670144=
201111220552 METAR KATL 220552Z 16005KT 10SM FEW040 BKN250 17/14 A3015 RMK AO2 SLP204 T01670144 10200 20167 58010=
201111220452 METAR KATL 220452Z 14003KT 10SM BKN040 BKN250 18/14 A3017 RMK AO2 SLP209 T01780144 402500156=
201111220352 METAR KATL 220352Z 00000KT 10SM FEW150 BKN250 18/14 A3018 RMK AO2 SLP215 T01830144=
201111220252 METAR KATL 220252Z 14003KT 10SM FEW200 BKN250 19/15 A3018 RMK AO2 SLP216 T01890150 56003=
201111220152 METAR KATL 220152Z 15003KT 10SM FEW200 BKN250 19/15 A3018 RMK AO2 SLP217 T01890150=
201111220052 METAR KATL 220052Z 14003KT 10SM FEW120 SCT200 BKN250 20/15 A3019 RMK AO2 SLP218 T02000150=
201111212352 METAR KATL 212352Z 00000KT 10SM FEW120 SCT200 BKN250 20/14 A3019 RMK AO2 SLP219 T02000144 10250 20200 55003=
201111212252 METAR KATL 212252Z 00000KT 10SM SCT120 BKN200 BKN250 22/14 A3019 RMK AO2 SLP218 T02170144=
201111212152 METAR KATL 212152Z 30003KT 10SM FEW040 SCT120 BKN200 23/14 A3020 RMK AO2 SLP220 T02280144=
201111212052 METAR KATL 212052Z 31007KT 10SM FEW040 SCT120 BKN200 23/15 A3020 RMK AO2 SLP221 T02280150 56017=
201111211952 METAR KATL 211952Z 29007KT 10SM FEW038 BKN120 BKN200 24/14 A3021 RMK AO2 SLP223 T02390144=
201111211852 METAR KATL 211852Z 25010G15KT 10SM FEW030 SCT110 BKN200 24/14 A3022 RMK AO2 SLP227 T02440144=
201111211752 METAR KATL 211752Z 23008KT 10SM FEW020 SCT110 SCT200 22/16 A3025 RMK AO2 SLP239 T02170156 10228 20167 58017=
201111211729 SPECI KATL 211729Z 23007KT 10SM FEW015 SCT020 SCT200 22/16 A3027 RMK AO2=
201111211729 SPECI KATL 211729Z 23007KT 10SM FEW015 SCT020 SCT200 22/16 A3027 RMK AO2=
201111211652 METAR KATL 211652Z 23010KT 10SM SCT015 BKN023 BKN028 22/17 A3028 RMK AO2 SLP249 T02220167=
201111211613 SPECI KATL 211613Z 23007KT 8SM BR FEW004 SCT006 BKN020 18/17 A3030 RMK AO2=
201111211613 SPECI KATL 211613Z 23007KT 8SM BR FEW004 SCT006 BKN020 18/17 A3030 RMK AO2=
201111211552 METAR KATL 211552Z 22006KT 1 1/2SM BR FEW002 BKN004 BKN020 18/17 A3031 RMK AO2 SFC VIS 5 SLP259 TWRINC T01780167=
201111211516 SPECI KATL 211516Z 22005KT 1/2SM R09R/3000VP6000FT BR BKN002 OVC004 17/17 A3030 RMK AO2 SFC VIS 5 TWRINC=
201111211516 SPECI KATL 211516Z 22005KT 1/2SM R09R/3000VP6000FT BR BKN002 OVC004 17/17 A3030 RMK AO2 SFC VIS 5 TWRINC=
201111211452 METAR KATL 211452Z 21008KT 1/2SM R09R/2400V3000FT BR BCFG BKN002 OVC004 17/16 A3031 RMK AO2 SFC VIS 1 SLP260 VIS NE-SE 1/2SM T01720161 53001=
201111211449 SPECI KATL 211449Z 22008KT 1/2SM R09R/2400V3000FT BR BCFG BKN002 OVC004 17/16 A3031 RMK AO2 SFC VIS 1 1/2 VIS NE-SE 1/2SM=
201111211449 SPECI KATL 211449Z 22008KT 1/2SM R09R/2400V3000FT BR BCFG BKN002 OVC004 17/16 A3031 RMK AO2 SFC VIS 1 1/2 VIS NE-SE 1/2SM=
201111211422 SPECI KATL 211422Z 18006KT 1/4SM R09R/1400V2600FT FG VV002 17/16 A3031 RMK AO2 TWR VIS 1/2=
201111211422 SPECI KATL 211422Z 18006KT 1/4SM R09R/1400V2600FT FG VV002 17/16 A3031 RMK AO2 TWR VIS 1/2=
201111211407 SPECI KATL 211407Z 20006KT 1/4SM R09R/1000V1200FT FG VV002 17/16 A3031 RMK AO2 TWR VIS 1/2=
201111211407 SPECI KATL 211407Z 20006KT 1/4SM R09R/1000V1200FT FG VV002 17/16 A3031 RMK AO2 TWR VIS 1/2=
201111211352 METAR KATL 211352Z 21005KT 1/4SM R09R/1200V4000FT FG VV002 17/16 A3031 RMK AO2 TWR VIS 1/2 SLP259 T01670161=
201111211252 METAR KATL 211252Z 27003KT 1/4SM R09R/1200V1600FT FG VV002 17/16 A3030 RMK AO2 TWR VIS 1/2 SLP254 T01670161=
201111211241 SPECI KATL 211241Z 28003KT 1/4SM R09R/1400V1800FT FG VV002 17/16 A3029 RMK AO2 TWR VIS 1/2=
201111211241 SPECI KATL 211241Z 28003KT 1/4SM R09R/1400V1800FT FG VV002 17/16 A3029 RMK AO2 TWR VIS 1/2=
201111211217 SPECI KATL 211217Z 27003KT 1/4SM R09R/1800V2800FT FG VV002 17/16 A3029 RMK AO2 TWR VIS 1/2=
201111211217 SPECI KATL 211217Z 27003KT 1/4SM R09R/1800V2800FT FG VV002 17/16 A3029 RMK AO2 TWR VIS 1/2=
201111211152 METAR KATL 211152Z 25003KT 1/2SM R09R/6000VP6000FT BR BKN002 17/16 A3028 RMK AO2 SFC VIS 2 SLP250 T01670156 10167 20156 53009=
201111211145 SPECI KATL 211145Z 26003KT 2SM BR BKN002 16/15 A3028 RMK AO2=
201111211145 SPECI KATL 211145Z 26003KT 2SM BR BKN002 16/15 A3028 RMK AO2=
201111211052 METAR KATL 211052Z 00000KT 3SM BR SCT034 16/14 A3027 RMK AO2 SLP246 T01610144 $=
201111210952 METAR KATL 210952Z 26005KT 4SM BR FEW032 16/15 A3026 RMK AO2 SLP241 T01610150 $=
201111210902 SPECI KATL 210902Z 22004KT 3SM BR BKN032 BKN120 16/15 A3025 RMK AO2 $=
201111210902 SPECI KATL 210902Z 22004KT 3SM BR BKN032 BKN120 16/15 A3025 RMK AO2 $=
201111210852 METAR KATL 210852Z 00000KT 2 1/2SM BR SCT065 SCT120 16/15 A3025 RMK AO2 SLP239 T01610150 56003 $=
201111210830 SPECI KATL 210830Z 21003KT 4SM BR SCT060 SCT090 16/15 A3025 RMK AO2 $=
201111210830 SPECI KATL 210830Z 21003KT 4SM BR SCT060 SCT090 16/15 A3025 RMK AO2 $=
201111210815 SPECI KATL 210815Z 20003KT 1 3/4SM BR FEW060 BKN090 OVC140 16/15 A3025 RMK AO2 $=
201111210815 SPECI KATL 210815Z 20003KT 1 3/4SM BR FEW060 BKN090 OVC140 16/15 A3025 RMK AO2 $=
201111210752 METAR KATL 210752Z 00000KT 4SM BR SCT016 SCT025 BKN031 16/15 A3026 RMK AO2 SLP241 T01610150 $=
201111210652 METAR KATL 210652Z 00000KT 7SM SCT019 BKN026 17/15 A3025 RMK AO2 SLP240 T01670150 $=
201111210552 METAR KATL 210552Z 00000KT 8SM FEW080 BKN100 BKN150 17/15 A3026 RMK AO2 SLP243 T01670150 10200 20161 58006 $=
201111210452 METAR KATL 210452Z 33003KT 8SM FEW019 SCT080 BKN150 17/15 A3027 RMK AO2 SLP248 T01720150 402060100 $=
201111210352 METAR KATL 210352Z 00000KT 9SM SCT019 BKN034 BKN080 18/16 A3029 RMK AO2 SLP256 T01780156 $=
201111210252 METAR KATL 210252Z COR 16004KT 10SM FEW024 BKN080 17/15 A3028 RMK AO2 SLP252 T01670150 58005 $=
201111210152 METAR KATL 210152Z 11004KT 10SM SCT020 BKN038 BKN085 18/15 A3029 RMK AO2 SLP256 T01830150 $=
201111210147 SPECI KATL 210147Z 10004KT 10SM SCT020 BKN038 BKN085 18/15 A3029 RMK AO2 $=
201111210147 SPECI KATL 210147Z 10004KT 10SM SCT020 BKN038 BKN085 18/15 A3029 RMK AO2 $=
201111210052 METAR KATL 210052Z 06005KT 10SM BKN024 BKN029 19/15 A3029 RMK AO2 SLP256 T01940150 $=
201111210029 SPECI KATL 210029Z 05004KT 10SM BKN024 BKN090 19/15 A3029 RMK AO2 $=
201111210029 SPECI KATL 210029Z 05004KT 10SM BKN024 BKN090 19/15 A3029 RMK AO2 $=
201111202352 METAR KATL 202352Z 00000KT 10SM SCT022 BKN090 19/15 A3029 RMK AO2 SLP255 T01890150 10206 20172 50008 $=
201111202350 SPECI KATL 202350Z 00000KT 10SM SCT022 BKN090 19/15 A3029 RMK AO2 $=
201111202350 SPECI KATL 202350Z 00000KT 10SM SCT022 BKN090 19/15 A3029 RMK AO2 $=
201111202252 METAR KATL 202252Z 00000KT 10SM BKN022 OVC028 20/16 A3029 RMK AO2 SLP256 T02000156 $=
201111202208 SPECI KATL 202208Z 00000KT 10SM BKN026 BKN032 20/16 A3027 RMK AO2 $=
201111202208 SPECI KATL 202208Z 00000KT 10SM BKN026 BKN032 20/16 A3027 RMK AO2 $=
201111202152 METAR KATL 202152Z 00000KT 10SM SCT024 BKN033 20/15 A3027 RMK AO2 SLP247 T02000150 $=
201111202113 SPECI KATL 202113Z 18004KT 10SM BKN022 OVC030 21/15 A3027 RMK AO2 $=
201111202113 SPECI KATL 202113Z 18004KT 10SM BKN022 OVC030 21/15 A3027 RMK AO2 $=
201111202052 METAR KATL 202052Z 19005KT 10SM SCT022 OVC030 21/15 A3026 RMK AO2 SLP247 T02060150 56012 $=
201111201952 METAR KATL 201952Z 20005KT 10SM SCT020 OVC027 21/15 A3027 RMK AO2 SLP247 T02060150 $=
201111201852 METAR KATL 201852Z COR 20005KT 10SM BKN021 19/14 A3027 RMK AO2 SLP250 T01890139=
201111201752 METAR KATL 201752Z VRB03KT 10SM OVC017 17/13 A3030 RMK AO2 SLP259 60000 T01720128 10172 20100 58019=
201111201717 SPECI KATL 201717Z 15005KT 8SM SCT007 OVC017 16/13 A3032 RMK AO2=
201111201717 SPECI KATL 201717Z 15005KT 8SM SCT007 OVC017 16/13 A3032 RMK AO2=
201111201702 SPECI KATL 201702Z VRB04KT 7SM BKN007 OVC015 15/12 A3033 RMK AO2=
201111201702 SPECI KATL 201702Z VRB04KT 7SM BKN007 OVC015 15/12 A3033 RMK AO2=
201111201652 METAR KATL 201652Z 12003KT 2 1/2SM BKN007 OVC015 15/12 A3034 RMK AO2 SFC VIS 7 SLP272 TWRINC T01500122=
201111201643 SPECI KATL 201643Z 10003KT 2 1/2SM HZ OVC007 14/12 A3034 RMK AO2 SFC VIS 6 TWRINC=
201111201643 SPECI KATL 201643Z 10003KT 2 1/2SM HZ OVC007 14/12 A3034 RMK AO2 SFC VIS 6 TWRINC=
201111201604 SPECI KATL 201604Z 15012G24KT 060V210 1 1/2SM BR BKN005 OVC007 13/12 A3035 RMK AO2 SFC VIS 5 TWRINC=
201111201604 SPECI KATL 201604Z 15012G24KT 060V210 1 1/2SM BR BKN005 OVC007 13/12 A3035 RMK AO2 SFC VIS 5 TWRINC=
201111201552 METAR KATL 201552Z 10003KT 1SM BR OVC003 13/11 A3035 RMK AO2 SFC VIS 4 SLP277 TWRINC T01280111=
201111201452 METAR KATL 201452Z 10006KT 1SM R09R/4500V6000FT BR OVC003 11/10 A3036 RMK AO2 SFC VIS 1 1/4 SLP281 60000 T01110100 53015=
201111201408 SPECI KATL 201408Z VRB05KT 1SM R09R/5500VP6000FT BR OVC003 11/09 A3035 RMK AO2 SFC VIS 1 1/2=
201111201408 SPECI KATL 201408Z VRB05KT 1SM R09R/5500VP6000FT BR OVC003 11/09 A3035 RMK AO2 SFC VIS 1 1/2=
201111201352 METAR KATL 201352Z VRB05KT 1SM BR OVC005 11/09 A3035 RMK AO2 SFC VIS 2 1/2 RAB19E28 SLP276 P0000 T01060094=
201111201334 SPECI KATL 201334Z 08008KT 1SM BR OVC005 11/09 A3034 RMK AO2 SFC VIS 4 RAB19E28 P0000=
201111201334 SPECI KATL 201334Z 08008KT 1SM BR OVC005 11/09 A3034 RMK AO2 SFC VIS 4 RAB19E28 P0000=
201111201252 METAR KATL 201252Z 09009KT 6SM BR OVC007 11/08 A3032 RMK AO2 SLP269 T01060083=
201111201152 METAR KATL 201152Z 10004KT 6SM BR BKN007 OVC012 10/08 A3031 RMK AO2 SLP265 60012 70012 T01000083 10122 20100 53003=
201111201052 METAR KATL 201052Z 09007KT 9SM OVC009 10/08 A3030 RMK AO2 RAE00 SLP260 P0000 T01000083=
201111201002 SPECI KATL 201002Z 09007KT 6SM BR BKN009 BKN012 OVC031 10/08 A3029 RMK AO2 RAE00 P0000=
201111201002 SPECI KATL 201002Z 09007KT 6SM BR BKN009 BKN012 OVC031 10/08 A3029 RMK AO2 RAE00 P0000=
201111200952 METAR KATL 200952Z 08008KT 5SM -RA BR FEW009 BKN016 OVC029 10/08 A3029 RMK AO2 SLP256 P0011 T01000083=
201111200933 SPECI KATL 200933Z 08008KT 3SM -RA BR FEW009 SCT022 OVC029 10/08 A3029 RMK AO2 P0010=
201111200933 SPECI KATL 200933Z 08008KT 3SM -RA BR FEW009 SCT022 OVC029 10/08 A3029 RMK AO2 P0010=
201111200926 SPECI KATL 200926Z 08007KT 3SM -RA BR SCT011 OVC029 10/08 A3030 RMK AO2 P0010=
201111200926 SPECI KATL 200926Z 08007KT 3SM -RA BR SCT011 OVC029 10/08 A3030 RMK AO2 P0010=
201111200920 SPECI KATL 200920Z 08007KT 2 1/2SM RA BR BKN011 OVC029 10/08 A3030 RMK AO2 P0009=
201111200920 SPECI KATL 200920Z 08007KT 2 1/2SM RA BR BKN011 OVC029 10/08 A3030 RMK AO2 P0009=
201111200907 SPECI KATL 200907Z VRB04KT 3SM -RA BR BKN013 OVC018 10/08 A3030 RMK AO2 P0004=
201111200907 SPECI KATL 200907Z VRB04KT 3SM -RA BR BKN013 OVC018 10/08 A3030 RMK AO2 P0004=
201111200852 METAR KATL 200852Z 12004KT 3SM RA OVC015 11/07 A3030 RMK AO2 RAB39 SLP261 P0001 60001 T01060067 53002=
201111200752 METAR KATL 200752Z 06007KT 10SM OVC017 12/04 A3029 RMK AO2 SLP256 T01220044=
201111200652 METAR KATL 200652Z 07006KT 10SM BKN017 OVC028 12/04 A3029 RMK AO2 SLP257 T01220039=
201111200612 SPECI KATL 200612Z 07006KT 10SM BKN021 BKN030 OVC041 12/04 A3030 RMK AO2=
201111200612 SPECI KATL 200612Z 07006KT 10SM BKN021 BKN030 OVC041 12/04 A3030 RMK AO2=
201111200552 METAR KATL 200552Z COR 08009KT 10SM FEW023 BKN041 OVC120 12/04 A3030 RMK AO2 SLP261 T01170039 10150 20117 55001=
201111200452 METAR KATL 200452Z 08010KT 10SM OVC041 12/05 A3029 RMK AO2 SLP258 T01220050 401720061=
201111200352 METAR KATL 200352Z 07008KT 10SM SCT043 OVC055 13/06 A3030 RMK AO2 SLP261 T01330061=
201111200252 METAR KATL 200252Z 08006KT 10SM OVC047 14/07 A3030 RMK AO2 SLP262 T01390067 51004=
201111200152 METAR KATL 200152Z 11006KT 10SM FEW043 BKN055 14/07 A3030 RMK AO2 SLP262 T01390067 $=
201111200052 METAR KATL 200052Z 11008KT 10SM FEW042 BKN060 14/06 A3029 RMK AO2 SLP259 T01440061 $=
201111192352 METAR KATL 192352Z 09010KT 10SM BKN045 OVC060 15/06 A3029 RMK AO2 SLP258 T01500061 10172 20117 53005 $=
201111192252 METAR KATL 192252Z 10006KT 10SM BKN047 16/07 A3028 RMK AO2 SLP255 T01560067 $=
201111192152 METAR KATL 192152Z 12005KT 10SM SCT055 BKN250 17/07 A3027 RMK AO2 SLP252 T01670067=
201111192052 METAR KATL 192052Z 12007KT 10SM FEW070 SCT250 17/07 A3027 RMK AO2 SLP252 T01720067 56020=
201111191952 METAR KATL 191952Z 12005KT 10SM FEW020 SCT050 BKN250 16/06 A3028 RMK AO2 SLP255 T01610061=
201111191852 METAR KATL 191852Z 14008KT 10SM SCT016 OVC220 14/04 A3030 RMK AO2 SLP262 T01440039=
201111191808 SPECI KATL 191808Z 00000KT 10SM SCT016 BKN050 OVC200 12/03 A3032 RMK AO2 $=
201111191808 SPECI KATL 191808Z 00000KT 10SM SCT016 BKN050 OVC200 12/03 A3032 RMK AO2 $=
201111191752 METAR KATL 191752Z 08012KT 10SM BKN016 BKN060 OVC200 12/03 A3034 RMK AO2 SLP276 T01170028 10128 20067 58019 $=
201111191652 METAR KATL 191652Z 09008KT 10SM OVC016 11/02 A3037 RMK AO2 SLP286 T01110017=
201111191641 SPECI KATL 191641Z 10009KT 10SM OVC016 11/01 A3037 RMK AO2=
201111191641 SPECI KATL 191641Z 10009KT 10SM OVC016 11/01 A3037 RMK AO2=
201111191552 METAR KATL 191552Z 11010G16KT 10SM OVC014 09/M01 A3039 RMK AO2 SLP294 T00941006=
201111191452 METAR KATL 191452Z 07008KT 10SM OVC014 08/M03 A3039 RMK AO2 SLP296 T00831033 53010=
201111191352 METAR KATL 191352Z 09007KT 10SM OVC014 08/M04 A3038 RMK AO2 SLP293 T00781044=
201111191252 METAR KATL 191252Z 08013KT 10SM BKN014 OVC017 07/M06 A3037 RMK AO2 SLP289 T00671056=
201111191152 METAR KATL 191152Z 08010KT 10SM BKN014 OVC018 07/M06 A3036 RMK AO2 SLP286 T00671056 10067 20061 53009=
201111191052 METAR KATL 191052Z 09006KT 10SM OVC016 07/M06 A3036 RMK AO2 SLP285 T00671056=
201111190952 METAR KATL 190952Z 08007KT 10SM BKN016 OVC020 07/M06 A3033 RMK AO2 SLP275 T00671061=
201111190909 SPECI KATL 190909Z 11009KT 10SM BKN019 OVC045 07/M07 A3034 RMK AO2=
201111190909 SPECI KATL 190909Z 11009KT 10SM BKN019 OVC045 07/M07 A3034 RMK AO2=
201111190852 METAR KATL 190852Z 11010KT 10SM FEW023 OVC047 07/M07 A3034 RMK AO2 SLP275 T00671067 58006=
201111190836 SPECI KATL 190836Z 11008KT 10SM FEW023 OVC047 06/M07 A3034 RMK AO2=
201111190836 SPECI KATL 190836Z 11008KT 10SM FEW023 OVC047 06/M07 A3034 RMK AO2=
201111190752 METAR KATL 190752Z 11009KT 10SM BKN023 OVC047 06/M06 A3034 RMK AO2 SLP277 T00611061=
201111190736 SPECI KATL 190736Z 11009KT 10SM BKN023 OVC045 07/M06 A3035 RMK AO2=
201111190736 SPECI KATL 190736Z 11009KT 10SM BKN023 OVC045 07/M06 A3035 RMK AO2=
201111190652 METAR KATL 190652Z 12008KT 10SM BKN037 OVC042 07/M07 A3035 RMK AO2 SLP280 T00671067=
201111190552 METAR KATL 190552Z 11009KT 10SM SCT030 BKN042 06/M07 A3035 RMK AO2 SLP282 T00611067 10089 20056 55001=
201111190452 METAR KATL 190452Z 11008KT 10SM SCT040 SCT250 06/M07 A3035 RMK AO2 SLP282 T00611067 401220000=
201111190352 METAR KATL 190352Z 10008KT 10SM FEW250 06/M06 A3036 RMK AO2 SLP285 T00611061=
201111190252 METAR KATL 190252Z 09009KT 10SM CLR 07/M06 A3036 RMK AO2 SLP285 T00671061 50003=
201111190152 METAR KATL 190152Z 10009KT 10SM CLR 06/M06 A3037 RMK AO2 SLP288 T00611056=
201111190052 METAR KATL 190052Z 11007KT 10SM FEW040 08/M06 A3036 RMK AO2 SLP286 T00781061=
201111182352 METAR KATL 182352Z 11008KT 10SM FEW040 09/M07 A3035 RMK AO2 SLP283 T00891067 10122 20089 53003=
201111182252 METAR KATL 182252Z 12010KT 10SM SCT040 10/M07 A3034 RMK AO2 SLP280 T01001072 $=
201111182152 METAR KATL 182152Z 11008KT 10SM FEW040 SCT200 11/M07 A3034 RMK AO2 SLP279 T01111072=
201111182052 METAR KATL 182052Z 11006KT 10SM FEW040 12/M07 A3034 RMK AO2 SLP278 T01171072 56019=
201111181952 METAR KATL 181952Z 12006G15KT 10SM CLR 12/M07 A3035 RMK AO2 SLP281 T01221067=
201111181852 METAR KATL 181852Z 15007KT 10SM CLR 11/M07 A3036 RMK AO2 SLP286 T01111067=
201111181752 METAR KATL 181752Z 12009KT 10SM CLR 11/M07 A3040 RMK AO2 SLP297 T01061067 10106 20000 58019=
201111181652 METAR KATL 181652Z 13010KT 10SM CLR 09/M07 A3043 RMK AO2 SLP308 T00941072=
201111181552 METAR KATL 181552Z 11011G17KT 10SM CLR 08/M07 A3046 RMK AO2 SLP319 T00831067=
201111181452 METAR KATL 181452Z 10013KT 10SM CLR 07/M07 A3045 RMK AO2 SLP318 T00671067 51022=
201111181352 METAR KATL 181352Z 09010KT 10SM CLR 04/M06 A3043 RMK AO2 SLP311 T00441061=
201111181252 METAR KATL 181252Z 07011KT 10SM CLR 02/M06 A3041 RMK AO2 SLP306 T00221061=
201111181152 METAR KATL 181152Z 08007KT 10SM CLR 00/M06 A3038 RMK AO2 SLP296 T00001056 10044 20000 53013=
201111181052 METAR KATL 181052Z 08006KT 10SM CLR 01/M06 A3036 RMK AO2 SLP287 T00061061=
201111180952 METAR KATL 180952Z 04008KT 10SM CLR 02/M07 A3035 RMK AO2 SLP282 T00221067=
201111180852 METAR KATL 180852Z 04007KT 10SM CLR 03/M07 A3035 RMK AO2 SLP280 T00281072 51008=
201111180752 METAR KATL 180752Z 01005KT 10SM CLR 02/M07 A3034 RMK AO2 SLP278 T00221072=
201111180652 METAR KATL 180652Z 01006KT 10SM CLR 03/M08 A3033 RMK AO2 SLP275 T00331078=
201111180552 METAR KATL 180552Z 36008KT 10SM CLR 04/M08 A3032 RMK AO2 SLP271 T00441078 10078 20044 51006=
201111180452 METAR KATL 180452Z 36008KT 10SM CLR 04/M07 A3032 RMK AO2 SLP270 T00441072 401610044=
201111180352 METAR KATL 180352Z 36007KT 10SM CLR 05/M07 A3031 RMK AO2 SLP268 T00501072=
201111180252 METAR KATL 180252Z 36006KT 10SM CLR 06/M07 A3030 RMK AO2 SLP264 T00611072 51015=
201111180152 METAR KATL 180152Z 36009KT 10SM CLR 07/M08 A3029 RMK AO2 SLP262 T00671078=
201111180052 METAR KATL 180052Z 35011KT 10SM CLR 07/M08 A3028 RMK AO2 SLP257 T00721083=
201111172352 METAR KATL 172352Z 35011G17KT 10SM CLR 08/M08 A3026 RMK AO2 SLP248 T00781078 10133 20078 52023=
201111172252 METAR KATL 172252Z 34012G20KT 10SM CLR 09/M07 A3023 RMK AO2 SLP238 T00891067=
201111172152 METAR KATL 172152Z 36018G24KT 10SM CLR 10/M07 A3021 RMK AO2 PK WND 36026/2128 SLP232 T01001067=
201111172052 METAR KATL 172052Z 34015G24KT 10SM CLR 12/M04 A3019 RMK AO2 PK WND 35027/2007 SLP222 T01171044 51012=
201111171952 METAR KATL 171952Z 33018G23KT 10SM FEW060 12/M03 A3018 RMK AO2 SLP220 T01221028=
201111171852 METAR KATL 171852Z 33014G22KT 10SM FEW050 12/M02 A3017 RMK AO2 SLP216 T01221022=
201111171752 METAR KATL 171752Z 30015G19KT 10SM FEW040 12/M01 A3015 RMK AO2 PK WND 34026/1720 SLP209 T01221006 10128 20094 51009=
201111171652 METAR KATL 171652Z 30014G20KT 10SM FEW035 12/01 A3015 RMK AO2 SLP208 T01170011 $=
201111171552 METAR KATL 171552Z 32014G20KT 10SM FEW030 12/02 A3015 RMK AO2 SLP210 T01170017=
201111171452 METAR KATL 171452Z 30016KT 10SM FEW025 10/03 A3012 RMK AO2 SLP200 T01000033 51036=
201111171352 METAR KATL 171352Z 32016KT 10SM SCT018 SCT026 09/05 A3010 RMK AO2 PK WND 31027/1342 SLP191 T00940050=
201111171350 SPECI KATL 171350Z 33017G27KT 10SM SCT018 SCT026 09/05 A3009 RMK AO2 PK WND 31027/1342=
201111171350 SPECI KATL 171350Z 33017G27KT 10SM SCT018 SCT026 09/05 A3009 RMK AO2 PK WND 31027/1342=
201111171252 METAR KATL 171252Z 32014KT 10SM BKN015 BKN027 11/07 A3006 RMK AO2 SLP178 T01060067=
201111171152 METAR KATL 171152Z 31017G22KT 10SM OVC015 11/07 A3001 RMK AO2 SLP161 60000 70013 T01110072 10133 20111 53028=
201111171052 METAR KATL 171052Z 31014G24KT 10SM OVC017 12/08 A2998 RMK AO2 RAE05 SLP150 P0000 T01170078=
201111170952 METAR KATL 170952Z 32016G21KT 10SM -RA BKN015 OVC090 12/09 A2995 RMK AO2 RAB0855E06B37 SLP139 P0000 T01170089=
201111170852 METAR KATL 170852Z 31014KT 10SM OVC015 12/09 A2993 RMK AO2 SLP130 T01220089 53010=
201111170752 METAR KATL 170752Z 32013KT 10SM OVC011 13/09 A2990 RMK AO2 SLP121 T01280094=
201111170721 SPECI KATL 170721Z 30009KT 10SM OVC011 13/10 A2990 RMK AO2=
201111170721 SPECI KATL 170721Z 30009KT 10SM OVC011 13/10 A2990 RMK AO2=
201111170652 METAR KATL 170652Z 32009KT 10SM OVC009 13/11 A2989 RMK AO2 SLP117 T01280106=
201111170552 METAR KATL 170552Z 31010KT 10SM OVC009 13/11 A2990 RMK AO2 SLP119 60001 T01280106 10200 20128 53003=
201111170452 METAR KATL 170452Z 32010KT 10SM OVC010 14/11 A2989 RMK AO2 SLP115 T01390111 402390139=
201111170410 SPECI KATL 170410Z 32012G19KT 10SM BKN009 OVC065 14/12 A2989 RMK AO2=
201111170410 SPECI KATL 170410Z 32012G19KT 10SM BKN009 OVC065 14/12 A2989 RMK AO2=
201111170352 METAR KATL 170352Z 32010KT 10SM SCT009 SCT022 BKN070 BKN250 14/12 A2989 RMK AO2 SLP115 T01390117=
201111170318 SPECI KATL 170318Z 31014KT 10SM SCT009 OVC020 14/12 A2989 RMK AO2=
201111170318 SPECI KATL 170318Z 31014KT 10SM SCT009 OVC020 14/12 A2989 RMK AO2=
201111170252 METAR KATL 170252Z 32009KT 10SM OVC008 16/13 A2989 RMK AO2 SLP115 60001 T01560133 51024=
201111170152 METAR KATL 170152Z 32008KT 10SM BKN007 OVC070 18/16 A2986 RMK AO2 RAB19E52 SLP106 P0000 T01780161=
201111170134 SPECI KATL 170134Z 27004KT 10SM -RA BKN009 OVC060 18/16 A2986 RMK AO2 RAB19 P0000=
201111170134 SPECI KATL 170134Z 27004KT 10SM -RA BKN009 OVC060 18/16 A2986 RMK AO2 RAB19 P0000=
201111170052 METAR KATL 170052Z 31009KT 10SM FEW010 SCT022 OVC060 18/16 A2984 RMK AO2 RAB30E49 SLP099 P0001 T01830161=
201111170049 SPECI KATL 170049Z 31010KT 10SM FEW010 SCT022 OVC060 19/16 A2984 RMK AO2 RAB30E49 P0001=
201111170049 SPECI KATL 170049Z 31010KT 10SM FEW010 SCT022 OVC060 19/16 A2984 RMK AO2 RAB30E49 P0001=
201111170020 SPECI KATL 170020Z 25005KT 10SM SCT012 BKN022 OVC060 19/18 A2983 RMK AO2=
201111170020 SPECI KATL 170020Z 25005KT 10SM SCT012 BKN022 OVC060 19/18 A2983 RMK AO2=
201111162352 METAR KATL 162352Z 23005KT 10SM FEW015 BKN060 BKN200 19/18 A2981 RMK AO2 SLP089 60012 T01940178 10228 20194 53009=
201111162252 METAR KATL 162252Z 23006KT 10SM FEW015 SCT080 BKN200 21/18 A2979 RMK AO2 SLP080 T02060178=
201111162152 METAR KATL 162152Z 23010KT 10SM FEW020 SCT050 SCT100 BKN250 22/18 A2978 RMK AO2 SLP076 CB DSNT NW T02170178=
201111162052 METAR KATL 162052Z 23010G16KT 180V240 10SM FEW025 SCT050 SCT100 BKN200 22/18 A2979 RMK AO2 RAE1954 SLP080 CB DSNT N & E-SE P0000 60012 T02220183 58009=
201111161959 SPECI KATL 161959Z 21011G17KT 10SM BKN015 BKN050 OVC100 22/19 A2978 RMK AO2 RAE54 P0000=
201111161959 SPECI KATL 161959Z 21011G17KT 10SM BKN015 BKN050 OVC100 22/19 A2978 RMK AO2 RAE54 P0000=
201111161952 METAR KATL 161952Z 22011KT 10SM -RA BKN013 BKN045 OVC100 22/19 A2979 RMK AO2 TSE21 SLP083 TS MOV NE CB DSNT NE-SE P0006 T02170189=
201111161922 SPECI KATL 161922Z 20010G18KT 10SM FEW010CB BKN070 BKN100 BKN200 21/19 A2979 RMK AO2 TSE21RAE21 TS MOV NE CB DSNT NE-SE P0006=
201111161922 SPECI KATL 161922Z 20010G18KT 10SM FEW010CB BKN070 BKN100 BKN200 21/19 A2979 RMK AO2 TSE21RAE21 TS MOV NE CB DSNT NE-SE P0006=
201111161914 SPECI KATL 161914Z 20012G18KT 6SM -TSRA BR FEW010CB BKN070 OVC100 21/19 A2979 RMK AO2 OCNL LTGICCG N-NE TS N-NE MOV NE P0006=
201111161914 SPECI KATL 161914Z 20012G18KT 6SM -TSRA BR FEW010CB BKN070 OVC100 21/19 A2979 RMK AO2 OCNL LTGICCG N-NE TS N-NE MOV NE P0006=
201111161852 METAR KATL 161852Z COR 20011G17KT 5SM TSRA BR SCT028CB BKN070 OVC110 21/19 A2981 RMK AO2 TSB36RAB1757 SLP088 OCNL LTGICCG OHD-NW-N TS OHD-NW-N MOV NE P0006 T02110189=
201111161836 SPECI KATL 161836Z 21011G20KT 5SM -TSRA SCT025CB BKN030 OVC070 22/19 A2982 RMK AO2 TSB36RAB1757 OCNL LTGICCG OHD-NW TS OHD-NW MOV NE P0003=
201111161836 SPECI KATL 161836Z 21011G20KT 5SM -TSRA SCT025CB BKN030 OVC070 22/19 A2982 RMK AO2 TSB36RAB1757 OCNL LTGICCG OHD-NW TS OHD-NW MOV NE P0003=
201111161834 SPECI KATL 161834Z 21010G20KT 5SM -RA SCT025CB BKN030 OVC070 22/19 A2982 RMK AO2 RAB1757 CB OHD-SW-NW MOV NE P0003=
201111161834 SPECI KATL 161834Z 21010G20KT 5SM -RA SCT025CB BKN030 OVC070 22/19 A2982 RMK AO2 RAB1757 CB OHD-SW-NW MOV NE P0003=
201111161809 SPECI KATL 161809Z 22009KT 10SM -RA BKN025CB BKN037 OVC070 22/18 A2982 RMK AO2 RAB1757 VIS LWR SW-NW SHRA CB SW-NW MOV NE P0000=
201111161809 SPECI KATL 161809Z 22009KT 10SM -RA BKN025CB BKN037 OVC070 22/18 A2982 RMK AO2 RAB1757 VIS LWR SW-NW SHRA CB SW-NW MOV NE P0000=
201111161752 METAR KATL 161752Z 20009G16KT 10SM SCT025CB BKN060 OVC100 23/18 A2982 RMK AO2 PK WND 21026/1658 RAB37E48 SLP090 CB SW-NW MOV NE SHRA SW-NW P0000 60000 T02280183 10239 20200 58021=
201111161652 METAR KATL 161652Z 21012G26KT 10SM SCT020TCU SCT050 BKN120 OVC200 23/18 A2985 RMK AO2 PK WND 22027/1637 SLP101 TCU NE-SE & SW-NW T02330183=
201111161650 SPECI KATL 161650Z 21015G26KT 10SM SCT020TCU SCT050 BKN120 OVC200 23/18 A2985 RMK AO2 PK WND 22027/1637 TCU NE-SE & SW-NW=
201111161650 SPECI KATL 161650Z 21015G26KT 10SM SCT020TCU SCT050 BKN120 OVC200 23/18 A2985 RMK AO2 PK WND 22027/1637 TCU NE-SE & SW-NW=
201111161552 METAR KATL 161552Z 22016G23KT 10SM BKN015 BKN025 OVC120 22/19 A2988 RMK AO2 SLP110 T02220189=
201111161550 SPECI KATL 161550Z 21016G21KT 10SM BKN015 BKN025 OVC120 22/19 A2988 RMK AO2=
201111161550 SPECI KATL 161550Z 21016G21KT 10SM BKN015 BKN025 OVC120 22/19 A2988 RMK AO2=
201111161511 SPECI KATL 161511Z 21011KT 10SM FEW008 BKN013 OVC120 21/19 A2988 RMK AO2=
201111161511 SPECI KATL 161511Z 21011KT 10SM FEW008 BKN013 OVC120 21/19 A2988 RMK AO2=
201111161452 METAR KATL 161452Z 20010KT 10SM BKN010 BKN020 BKN120 21/19 A2988 RMK AO2 SLP113 60000 T02060189 50000=
201111161352 METAR KATL 161352Z 20007KT 7SM BKN008 OVC013 21/19 A2989 RMK AO2 SLP116 T02060189=
201111161340 SPECI KATL 161340Z 18010KT 7SM FEW008 BKN011 OVC015 21/19 A2989 RMK AO2=
201111161340 SPECI KATL 161340Z 18010KT 7SM FEW008 BKN011 OVC015 21/19 A2989 RMK AO2=
201111161252 METAR KATL 161252Z 20008KT 6SM BR BKN008 BKN010 OVC050 20/18 A2989 RMK AO2 RAB01E31 SLP114 P0000 T02000183=
201111161152 METAR KATL 161152Z 22006KT 6SM BR BKN006 BKN010 OVC025 20/18 A2988 RMK AO2 RAE20 SLP112 P0005 60024 70040 T02000183 10200 20178 55002=
201111161101 SPECI KATL 161101Z 24009G15KT 4SM -RA BR BKN006 OVC014 20/18 A2988 RMK AO2 P0002=
201111161101 SPECI KATL 161101Z 24009G15KT 4SM -RA BR BKN006 OVC014 20/18 A2988 RMK AO2 P0002=
201111161052 METAR KATL 161052Z 21012G20KT 7SM -RA SCT006 BKN012 OVC045 20/18 A2987 RMK AO2 SLP107 P0006 T02000183=
201111161006 SPECI KATL 161006Z 18012KT 3SM -RA BKN006 BKN011 OVC047 19/18 A2987 RMK AO2 SFC VIS 7 P0005=
201111161006 SPECI KATL 161006Z 18012KT 3SM -RA BKN006 BKN011 OVC047 19/18 A2987 RMK AO2 SFC VIS 7 P0005=
201111160952 METAR KATL 160952Z 19009KT 2SM +RA BR BKN006 OVC013 19/18 A2989 RMK AO2 TWR VIS 3 RAB0855 SLP114 P0013 T01890178=
201111160852 METAR KATL 160852Z 17005KT 8SM BKN008 OVC014 18/17 A2989 RMK AO2 SLP113 T01830172 58004=
201111160849 SPECI KATL 160849Z 18006KT 8SM BKN008 OVC014 18/17 A2989 RMK AO2=
201111160849 SPECI KATL 160849Z 18006KT 8SM BKN008 OVC014 18/17 A2989 RMK AO2=
201111160752 METAR KATL 160752Z 18004KT 8SM BKN014 BKN018 18/17 A2990 RMK AO2 SLP118 T01830172=
201111160722 SPECI KATL 160722Z 21004KT 8SM BKN018 BKN100 18/17 A2991 RMK AO2=
201111160722 SPECI KATL 160722Z 21004KT 8SM BKN018 BKN100 18/17 A2991 RMK AO2=
201111160652 METAR KATL 160652Z 15004KT 6SM R09R/1600V3500FT BR FEW001 SCT029 18/17 A2990 RMK AO2 SLP117 VIS SE-SW 1 T01780172=
201111160645 SPECI KATL 160645Z 16005KT 6SM R09R/1400V2000FT BR FEW001 SCT029 18/17 A2991 RMK AO2 VIS SE-SW 1=
201111160645 SPECI KATL 160645Z 16005KT 6SM R09R/1400V2000FT BR FEW001 SCT029 18/17 A2991 RMK AO2 VIS SE-SW 1=
201111160600 SPECI KATL 160600Z 15003KT 8SM FEW001 SCT029 BKN250 18/18 A2993 RMK AO2 VIS SE-SW-W 1=
201111160600 SPECI KATL 160600Z 15003KT 8SM FEW001 SCT029 BKN250 18/18 A2993 RMK AO2 VIS SE-SW-W 1=
201111160550 METAR KATL 160550Z 17003KT 7SM FEW001 BKN029 BKN110 18/17 A2994 RMK AO2 SLP131 VIS SE-SW-W 1 60011 T01830172 10206 20178 58009=
201111160549 SPECI KATL 160549Z 17003KT 7SM FEW001 BKN029 BKN110 18/18 A2994 RMK AO2 VIS SE-SW-W 1=
201111160549 SPECI KATL 160549Z 17003KT 7SM FEW001 BKN029 BKN110 18/18 A2994 RMK AO2 VIS SE-SW-W 1=
201111160452 METAR KATL 160452Z 00000KT 8SM SCT030 BKN050 OVC110 19/18 A2995 RMK AO2 SLP136 VIS LWR SW T01890178 402440150=
201111160352 METAR KATL 160352Z 00000KT 8SM FEW007 OVC075 19/18 A2996 RMK AO2 RAB0258E15 SLP139 P0000 T01940178=
201111160252 METAR KATL 160252Z 00000KT 10SM FEW030 SCT040 OVC065 19/18 A2997 RMK AO2 RAE45 SLP142 P0011 60011 T01940183 53002=
201111160224 SPECI KATL 160224Z 26004KT 4SM RA BR FEW005 BKN030 OVC045 19/18 A2998 RMK AO2 P0010=
201111160224 SPECI KATL 160224Z 26004KT 4SM RA BR FEW005 BKN030 OVC045 19/18 A2998 RMK AO2 P0010=
201111160216 SPECI KATL 160216Z 25004KT 2 1/2SM RA BR FEW005 BKN028 OVC050 19/18 A2998 RMK AO2 P0005=
201111160216 SPECI KATL 160216Z 25004KT 2 1/2SM RA BR FEW005 BKN028 OVC050 19/18 A2998 RMK AO2 P0005=
201111160203 SPECI KATL 160203Z 29006KT 4SM -RA BR FEW005 SCT028 OVC050 19/18 A2997 RMK AO2 P0002=
201111160203 SPECI KATL 160203Z 29006KT 4SM -RA BR FEW005 SCT028 OVC050 19/18 A2997 RMK AO2 P0002=
201111160152 METAR KATL 160152Z 28008KT 8SM -RA BKN029 OVC055 19/18 A2997 RMK AO2 RAB49 SLP144 P0000 T01940183=
201111160052 METAR KATL 160052Z 14003KT 10SM FEW065 BKN080 OVC095 20/18 A2995 RMK AO2 RAE17 SLP138 P0000 T02000178=
201111152352 METAR KATL 152352Z 00000KT 10SM -RA FEW035 BKN050 OVC065 20/18 A2996 RMK AO2 RAB41 SLP141 P0000 60005 T02000183 10244 20200 51009=
201111152252 METAR KATL 152252Z 00000KT 10SM FEW032 OVC065 20/18 A2995 RMK AO2 RAE06B41E52 SLP136 P0000 T02000178=
201111152152 METAR KATL 152152Z 26005KT 5SM -RA BR FEW025CB BKN045 OVC055 20/18 A2996 RMK AO2 SLP140 VIS LWR NE-SE SHRA CB NE-SE MOV NE P0005 T02000178=
201111152137 SPECI KATL 152137Z 23009G20KT 5SM -RA BR SCT025CB BKN035 OVC070 20/18 A2996 RMK AO2 VIS LWR NE-SE SHRA CB NE-SE MOV E P0004=
201111152137 SPECI KATL 152137Z 23009G20KT 5SM -RA BR SCT025CB BKN035 OVC070 20/18 A2996 RMK AO2 VIS LWR NE-SE SHRA CB NE-SE MOV E P0004=
201111152130 SPECI KATL 152130Z 25014G21KT 2 1/2SM R09R/5500VP6000FT RA BKN025CB BKN050 OVC070 21/17 A2995 RMK AO2 CB OHD MOV E P0002=
201111152130 SPECI KATL 152130Z 25014G21KT 2 1/2SM R09R/5500VP6000FT RA BKN025CB BKN050 OVC070 21/17 A2995 RMK AO2 CB OHD MOV E P0002=
201111152052 METAR KATL 152052Z 20008KT 10SM -RA FEW030 BKN050 OVC080 23/16 A2994 RMK AO2 RAB50 SLP131 P0000 60000 T02330156 56018=
201111151952 METAR KATL 151952Z 22008KT 10SM FEW035 BKN070 OVC090 23/16 A2995 RMK AO2 SLP135 T02330156=
201111151852 METAR KATL 151852Z 22010G17KT 10SM FEW035 BKN080 BKN250 24/15 A2996 RMK AO2 SLP139 T02390150=
201111151752 METAR KATL 151752Z 21014G18KT 10SM FEW025 SCT030 BKN080 23/16 A2999 RMK AO2 SLP149 T02330156 10233 20161 58019=
201111151716 SPECI KATL 151716Z 22011G17KT 10SM BKN029 BKN034 BKN075 23/15 A3001 RMK AO2=
201111151716 SPECI KATL 151716Z 22011G17KT 10SM BKN029 BKN034 BKN075 23/15 A3001 RMK AO2=
201111151652 METAR KATL 151652Z 22009G15KT 10SM FEW025 BKN075 BKN090 BKN250 23/15 A3002 RMK AO2 SLP159 T02280150=
201111151552 METAR KATL 151552Z 21010KT 10SM FEW020 BKN040 BKN080 21/15 A3004 RMK AO2 SLP168 T02060150=
201111151452 METAR KATL 151452Z 20008KT 10SM FEW010 SCT020 OVC040 19/16 A3005 RMK AO2 SLP169 T01890156 53007=
201111151436 SPECI KATL 151436Z 20006KT 7SM FEW010 SCT030 OVC040 18/16 A3005 RMK AO2=
201111151436 SPECI KATL 151436Z 20006KT 7SM FEW010 SCT030 OVC040 18/16 A3005 RMK AO2=
201111151352 METAR KATL 151352Z 19004KT 6SM BR SCT010 BKN025 OVC030 18/16 A3004 RMK AO2 SLP166 T01780156=
201111151326 SPECI KATL 151326Z 19003KT 2 1/2SM BR SCT004 SCT010 OVC029 17/16 A3004 RMK AO2 SFC VIS 4=
201111151326 SPECI KATL 151326Z 19003KT 2 1/2SM BR SCT004 SCT010 OVC029 17/16 A3004 RMK AO2 SFC VIS 4=
201111151319 SPECI KATL 151319Z 19003KT 2 1/2SM BR BKN004 BKN010 OVC031 17/16 A3004 RMK AO2 SFC VIS 4=
201111151319 SPECI KATL 151319Z 19003KT 2 1/2SM BR BKN004 BKN010 OVC031 17/16 A3004 RMK AO2 SFC VIS 4=
201111151252 METAR KATL 151252Z 00000KT 1 1/2SM BR OVC004 17/15 A3003 RMK AO2 SFC VIS 2 1/2 SLP164 T01670150=
201111151245 SPECI KATL 151245Z 00000KT 1 1/2SM BR OVC004 16/15 A3003 RMK AO2 SFC VIS 2 1/2=
201111151245 SPECI KATL 151245Z 00000KT 1 1/2SM BR OVC004 16/15 A3003 RMK AO2 SFC VIS 2 1/2=
201111151217 SPECI KATL 151217Z 17003KT 1/2SM BR OVC004 16/15 A3002 RMK AO2 SFC VIS 4=
201111151217 SPECI KATL 151217Z 17003KT 1/2SM BR OVC004 16/15 A3002 RMK AO2 SFC VIS 4=
201111151209 SPECI KATL 151209Z 18004KT 1SM BR OVC004 16/15 A3002 RMK AO2 SFC VIS 6=
201111151209 SPECI KATL 151209Z 18004KT 1SM BR OVC004 16/15 A3002 RMK AO2 SFC VIS 6=
201111151152 METAR KATL 151152Z 00000KT 2SM BR OVC004 17/14 A3003 RMK AO2 SFC VIS 6 SLP162 T01670144 10183 20150 53002=
201111151052 METAR KATL 151052Z 24004KT 10SM OVC006 16/14 A3002 RMK AO2 SLP159 T01610144=
201111150952 METAR KATL 150952Z 00000KT 10SM BKN008 OVC140 16/14 A3002 RMK AO2 SLP158 T01560139=
201111150932 SPECI KATL 150932Z 18004KT 10SM BKN010 15/13 A3001 RMK AO2=
201111150932 SPECI KATL 150932Z 18004KT 10SM BKN010 15/13 A3001 RMK AO2=
201111150852 METAR KATL 150852Z 20004KT 10SM FEW013 16/13 A3002 RMK AO2 SLP159 T01560133 55001=
201111150819 SPECI KATL 150819Z 20004KT 10SM BKN013 16/13 A3002 RMK AO2=
201111150819 SPECI KATL 150819Z 20004KT 10SM BKN013 16/13 A3002 RMK AO2=
201111150752 METAR KATL 150752Z 20003KT 10SM FEW025 SCT140 16/13 A3002 RMK AO2 SLP159 T01610133=
201111150740 SPECI KATL 150740Z 19005KT 10SM CLR 16/13 A3002 RMK AO2=
201111150740 SPECI KATL 150740Z 19005KT 10SM CLR 16/13 A3002 RMK AO2=
201111150652 METAR KATL 150652Z 17004KT 8SM BKN025 BKN150 17/13 A3002 RMK AO2 SLP159 T01670128=
201111150555 SPECI KATL 150555Z 20005KT 10SM SCT020 BKN250 18/13 A3002 RMK AO2=
201111150555 SPECI KATL 150555Z 20005KT 10SM SCT020 BKN250 18/13 A3002 RMK AO2=
201111150552 METAR KATL 150552Z 21006KT 10SM BKN020 BKN250 18/13 A3002 RMK AO2 SLP160 60000 T01830128 10217 20183 58007=
201111150546 SPECI KATL 150546Z 21005KT 10SM BKN020 BKN250 18/13 A3002 RMK AO2=
201111150546 SPECI KATL 150546Z 21005KT 10SM BKN020 BKN250 18/13 A3002 RMK AO2=
201111150452 METAR KATL 150452Z 19008KT 10SM FEW070 SCT250 19/13 A3003 RMK AO2 SLP162 T01890128 402560122=
201111150352 METAR KATL 150352Z 17006KT 10SM FEW050 BKN070 BKN200 19/13 A3004 RMK AO2 SLP166 T01890133=
201111150252 METAR KATL 150252Z 00000KT 10SM FEW045 OVC065 20/14 A3004 RMK AO2 SLP168 60000 T02000139 58001=
201111150152 METAR KATL 150152Z 17004KT 10SM FEW040 BKN050 OVC065 21/13 A3004 RMK AO2 SLP168 T02060133=
201111150052 METAR KATL 150052Z 22004KT 10SM FEW038 SCT045 OVC055 21/13 A3005 RMK AO2 RAB38E48 SLP171 P0000 T02110128=
201111142352 METAR KATL 142352Z 22005KT 10SM BKN038 OVC050 22/12 A3005 RMK AO2 SLP170 T02170117 10256 20217 53010=
201111142252 METAR KATL 142252Z 24007KT 10SM BKN050 OVC070 23/12 A3003 RMK AO2 SLP163 T02280117=
201111142152 METAR KATL 142152Z 19009KT 10SM BKN048 OVC075 23/12 A3001 RMK AO2 SLP158 T02330117=
201111142052 METAR KATL 142052Z 20007KT 10SM BKN050 BKN200 24/12 A3002 RMK AO2 SLP159 T02440117 56023=
201111141952 METAR KATL 141952Z 22012KT 10SM FEW050 SCT080 BKN250 24/12 A3003 RMK AO2 SLP164 T02440117=
201111141852 METAR KATL 141852Z 21009G15KT 10SM FEW050 BKN080 BKN250 25/11 A3006 RMK AO2 SLP173 T02500111=
201111141752 METAR KATL 141752Z 19011KT 10SM BKN050 BKN060 BKN070 23/11 A3009 RMK AO2 SLP183 T02280106 10233 20128 58020=
201111141652 METAR KATL 141652Z 20010KT 10SM FEW050 SCT070 23/11 A3013 RMK AO2 SLP197 T02330106=
201111141552 METAR KATL 141552Z 22011KT 10SM BKN065 BKN250 21/11 A3014 RMK AO2 SLP204 T02060106=
201111141452 METAR KATL 141452Z 18007KT 10SM BKN065 BKN250 17/10 A3015 RMK AO2 SLP206 T01720100 51005=
201111141352 METAR KATL 141352Z 18007KT 10SM SCT045 BKN065 16/09 A3014 RMK AO2 SLP205 T01560094=
201111141252 METAR KATL 141252Z 17007KT 10SM FEW043 BKN060 14/09 A3014 RMK AO2 SLP203 T01390089=
201111141152 METAR KATL 141152Z 18004KT 10SM SCT045 13/08 A3013 RMK AO2 SLP201 T01280083 10139 20122 51009=
201111141052 METAR KATL 141052Z 17003KT 10SM BKN046 BKN055 13/08 A3013 RMK AO2 SLP199 T01330078=
201111140952 METAR KATL 140952Z 15003KT 10SM OVC044 13/08 A3012 RMK AO2 SLP196 T01280078=
201111140852 METAR KATL 140852Z 15004KT 10SM FEW050 13/08 A3010 RMK AO2 SLP190 T01280078 58006=
201111140752 METAR KATL 140752Z 20003KT 10SM BKN047 12/08 A3013 RMK AO2 SLP198 T01220078=
201111140652 METAR KATL 140652Z 16005KT 10SM FEW040 SCT250 13/08 A3011 RMK AO2 SLP193 T01330078=
201111140552 METAR KATL 140552Z 18007KT 10SM FEW039 BKN250 13/08 A3012 RMK AO2 SLP198 T01330078 10172 20133 58000=
201111140452 METAR KATL 140452Z 14004KT 10SM BKN250 14/09 A3012 RMK AO2 SLP198 T01440089 402220078=
201111140352 METAR KATL 140352Z 14004KT 10SM FEW039 SCT250 15/09 A3013 RMK AO2 SLP201 T01500089=
201111140252 METAR KATL 140252Z 18008KT 10SM FEW039 16/09 A3012 RMK AO2 SLP200 T01610094 53008=
201111140152 METAR KATL 140152Z COR 18006KT 10SM FEW039 SCT250 16/09 A3011 RMK AO2 SLP197 T01610094=
201111140052 METAR KATL 140052Z 18009KT 10SM FEW250 17/09 A3010 RMK AO2 SLP193 T01670094=
201111132352 METAR KATL 132352Z 18007KT 10SM FEW060 SCT250 17/09 A3010 RMK AO2 SLP193 T01670094 10222 20167 58001=
201111132252 METAR KATL 132252Z 19009KT 10SM FEW055 SCT150 BKN250 18/09 A3010 RMK AO2 SLP192 T01830094=
201111132152 METAR KATL 132152Z 20008KT 10SM SCT050 SCT100 BKN250 20/09 A3011 RMK AO2 SLP194 T02000094=
201111132052 METAR KATL 132052Z 20010KT 10SM FEW050 SCT120 BKN250 21/09 A3010 RMK AO2 SLP192 T02110089 56026=
201111131952 METAR KATL 131952Z 19011G18KT 10SM FEW045 SCT150 BKN250 22/08 A3011 RMK AO2 SLP193 T02170083=
201111131852 METAR KATL 131852Z 22014G22KT 10SM FEW050 SCT150 BKN250 21/08 A3014 RMK AO2 SLP203 T02060078=
201111131752 METAR KATL 131752Z 20011KT 10SM FEW060 BKN150 BKN250 17/04 A3019 RMK AO2 SLP221 T01670044 10167 20083 58023=
201111131652 METAR KATL 131652Z 20008KT 10SM FEW080 BKN150 13/01 A3024 RMK AO2 SLP240 T01330006=
201111131552 METAR KATL 131552Z 19007KT 10SM FEW080 BKN150 12/M02 A3025 RMK AO2 SLP246 T01221017=
201111131452 METAR KATL 131452Z 18003KT 10SM BKN150 OVC200 11/M02 A3026 RMK AO2 SLP247 T01111022 53014=
201111131352 METAR KATL 131352Z 18004KT 10SM BKN150 BKN200 09/M02 A3024 RMK AO2 SLP240 T00941022=
201111131252 METAR KATL 131252Z 18007KT 10SM BKN150 BKN250 09/M04 A3022 RMK AO2 SLP234 T00941039=
201111131152 METAR KATL 131152Z 17004KT 10SM BKN180 08/M01 A3021 RMK AO2 SLP233 T00831011 10100 20078 58002=
201111131052 METAR KATL 131052Z 00000KT 10SM SCT018 OVC250 09/M05 A3022 RMK AO2 SLP236 T00891050=
201111130952 METAR KATL 130952Z 00000KT 10SM OVC180 08/M03 A3022 RMK AO2 SLP234 T00831028=
201111130852 METAR KATL 130852Z 00000KT 10SM BKN180 BKN250 08/M04 A3022 RMK AO2 SLP234 T00831039 55007=
201111130752 METAR KATL 130752Z 18003KT 10SM BKN180 BKN250 08/M04 A3022 RMK AO2 SLP232 T00831039=
201111130652 METAR KATL 130652Z 15004KT 10SM BKN150 BKN250 09/M03 A3022 RMK AO2 SLP234 T00891033=
201111130552 METAR KATL 130552Z 00000KT 10SM BKN180 BKN220 09/M04 A3024 RMK AO2 SLP241 T00941039 10128 20083 55000=
201111130452 METAR KATL 130452Z 19006KT 10SM FEW180 BKN220 08/M03 A3024 RMK AO2 SLP239 T00831033 401780011=
201111130352 METAR KATL 130352Z 18006KT 10SM SCT180 BKN250 09/M03 A3024 RMK AO2 SLP242 T00941033=
201111130252 METAR KATL 130252Z 17006KT 10SM SCT200 BKN250 10/M03 A3024 RMK AO2 SLP242 T01001028 58001=
201111130152 METAR KATL 130152Z 19004KT 10SM FEW180 SCT220 OVC250 11/M02 A3025 RMK AO2 SLP246 T01111022=
201111130052 METAR KATL 130052Z 18005KT 10SM SCT180 OVC220 12/M02 A3026 RMK AO2 SLP249 T01171022=
201111122352 METAR KATL 122352Z 19005KT 10SM FEW180 SCT220 OVC250 13/M03 A3025 RMK AO2 SLP246 T01281028 10178 20128 53002=
201111122252 METAR KATL 122252Z 20007KT 10SM SCT180 BKN220 14/M03 A3024 RMK AO2 SLP245 T01441028=
201111122152 METAR KATL 122152Z 20004KT 10SM OVC230 16/M02 A3024 RMK AO2 SLP244 T01561022=
201111122052 METAR KATL 122052Z 22007KT 10SM OVC250 16/M03 A3024 RMK AO2 SLP242 T01611028 56012=
201111121952 METAR KATL 121952Z 19006KT 10SM BKN250 16/M03 A3025 RMK AO2 SLP244 T01611033=
201111121852 METAR KATL 121852Z 22005KT 10SM BKN250 16/M03 A3025 RMK AO2 SLP246 T01611033=
201111121752 METAR KATL 121752Z 21005KT 10SM BKN250 16/M04 A3028 RMK AO2 SLP253 T01611039 10161 20011 58011=
201111121652 METAR KATL 121652Z 25005KT 10SM BKN250 16/M03 A3030 RMK AO2 SLP262 T01561028=
201111121552 METAR KATL 121552Z 25007KT 10SM BKN250 14/M03 A3031 RMK AO2 SLP267 T01441033=
201111121452 METAR KATL 121452Z 24006KT 10SM SCT250 13/M02 A3031 RMK AO2 SLP266 T01281022 51016=
201111121352 METAR KATL 121352Z 00000KT 10SM FEW250 08/M01 A3030 RMK AO2 SLP264 T00831011=
201111121252 METAR KATL 121252Z 00000KT 10SM FEW040 03/M02 A3028 RMK AO2 SLP260 T00331022=
201111121152 METAR KATL 121152Z 00000KT 10SM FEW060 03/M02 A3026 RMK AO2 SLP253 T00281022 10056 20011 53010=
201111121052 METAR KATL 121052Z 00000KT 10SM CLR 01/M03 A3025 RMK AO2 SLP249 T00111028=
201111120952 METAR KATL 120952Z 00000KT 10SM CLR 02/M03 A3023 RMK AO2 SLP242 T00171028=
201111120852 METAR KATL 120852Z 00000KT 10SM CLR 03/M03 A3023 RMK AO2 SLP240 T00281028 53006=
201111120752 METAR KATL 120752Z 00000KT 10SM CLR 03/M03 A3022 RMK AO2 SLP238 T00331033=
201111120652 METAR KATL 120652Z 00000KT 10SM CLR 05/M04 A3021 RMK AO2 SLP234 T00501044=
201111120552 METAR KATL 120552Z 00000KT 10SM FEW250 04/M04 A3021 RMK AO2 SLP234 T00441039 10094 20039 58002=
201111120452 METAR KATL 120452Z 00000KT 10SM CLR 04/M03 A3022 RMK AO2 SLP237 T00441033 401440000=
201111120352 METAR KATL 120352Z 00000KT 10SM CLR 05/M03 A3022 RMK AO2 SLP237 T00501033=
201111120252 METAR KATL 120252Z 00000KT 10SM CLR 07/M04 A3022 RMK AO2 SLP237 T00721044 53010=
201111120152 METAR KATL 120152Z 00000KT 10SM CLR 07/M04 A3020 RMK AO2 SLP230 T00671044=
201111120052 METAR KATL 120052Z 00000KT 10SM CLR 08/M06 A3019 RMK AO2 SLP230 T00831056=
201111112352 METAR KATL 112352Z 27004KT 10SM CLR 09/M07 A3019 RMK AO2 SLP228 T00941072 10144 20089 53005=
201111112252 METAR KATL 112252Z 00000KT 10SM CLR 11/M09 A3018 RMK AO2 SLP225 T01111089=
201111112152 METAR KATL 112152Z 28003KT 10SM CLR 13/M09 A3018 RMK AO2 SLP223 T01281094 $=
201111112052 METAR KATL 112052Z 32010KT 10SM CLR 14/M12 A3017 RMK AO2 SLP221 T01391117 55006 $=
201111111952 METAR KATL 111952Z 30008KT 10SM CLR 14/M12 A3016 RMK AO2 SLP215 T01391117=
201111111852 METAR KATL 111852Z VRB04KT 10SM CLR 13/M12 A3017 RMK AO2 SLP220 T01281117=
201111111752 METAR KATL 111752Z VRB05G16KT 10SM CLR 12/M11 A3019 RMK AO2 SLP227 T01171111 10122 20000 58015=
201111111652 METAR KATL 111652Z 29010KT 10SM CLR 11/M09 A3022 RMK AO2 SLP235 T01061094=
201111111552 METAR KATL 111552Z 30010G16KT 10SM CLR 09/M09 A3023 RMK AO2 SLP239 T00941089=
201111111452 METAR KATL 111452Z 30008KT 10SM CLR 07/M07 A3024 RMK AO2 SLP243 T00721072 51022=
201111111352 METAR KATL 111352Z 31010KT 10SM CLR 04/M07 A3022 RMK AO2 SLP238 T00441067=
201111111252 METAR KATL 111252Z 29008KT 10SM CLR 01/M07 A3020 RMK AO2 SLP231 T00111067=
201111111152 METAR KATL 111152Z 30005KT 10SM CLR 00/M07 A3017 RMK AO2 SLP223 T00001067 10056 20000 51014=
201111111052 METAR KATL 111052Z 29005KT 10SM CLR 01/M07 A3016 RMK AO2 SLP218 T00061072=
201111110952 METAR KATL 110952Z 28006KT 10SM CLR 01/M07 A3014 RMK AO2 SLP212 T00061067=
201111110852 METAR KATL 110852Z 29007KT 10SM CLR 02/M07 A3013 RMK AO2 SLP206 T00171067 52007=
201111110752 METAR KATL 110752Z 32007KT 10SM CLR 03/M07 A3012 RMK AO2 SLP203 T00281072=
201111110652 METAR KATL 110652Z 34008KT 10SM CLR 04/M07 A3012 RMK AO2 SLP202 T00391072=
201111110552 METAR KATL 110552Z 33011KT 10SM CLR 06/M08 A3011 RMK AO2 SLP198 T00561078 10089 20056 51007=
201111110452 METAR KATL 110452Z 33012G21KT 10SM CLR 06/M08 A3011 RMK AO2 SLP197 T00611083 401500061=
201111110352 METAR KATL 110352Z 31010KT 10SM CLR 07/M07 A3010 RMK AO2 SLP194 T00671067=
201111110252 METAR KATL 110252Z 31009KT 10SM CLR 07/M06 A3009 RMK AO2 SLP192 T00671056 51018=
201111110152 METAR KATL 110152Z 30009KT 10SM CLR 07/M04 A3007 RMK AO2 SLP185 T00721039=
201111110052 METAR KATL 110052Z 29008KT 10SM CLR 08/M03 A3005 RMK AO2 SLP180 T00781033=
201111102352 METAR KATL 102352Z 28005KT 10SM FEW200 08/M04 A3003 RMK AO2 SLP173 T00831044 10128 20083 53011=
201111102252 METAR KATL 102252Z 30012G19KT 10SM FEW180 11/M06 A3002 RMK AO2 PK WND 32026/2159 SLP166 T01061056=
201111102152 METAR KATL 102152Z 32014G24KT 10SM FEW180 SCT250 12/M06 A3001 RMK AO2 SLP164 T01221061=
201111102052 METAR KATL 102052Z 32014G22KT 10SM FEW100 SCT180 BKN250 12/M03 A3000 RMK AO2 SLP159 T01221033 56007=
201111101952 METAR KATL 101952Z 32018G23KT 10SM FEW100 BKN180 BKN250 11/M03 A3001 RMK AO2 PK WND 31026/1933 SLP164 T01111033=
201111101852 METAR KATL 101852Z 33019G26KT 10SM FEW100 BKN180 BKN250 11/M03 A3000 RMK AO2 PK WND 33029/1815 SLP159 T01061033=
201111101752 METAR KATL 101752Z 33021G31KT 10SM FEW100 BKN180 BKN250 11/M02 A3002 RMK AO2 PK WND 33031/1752 SLP166 VIRGA NE-E-SE-S T01061017 10106 20061 58009=
201111101652 METAR KATL 101652Z 34016G22KT 10SM FEW100 BKN180 BKN250 10/01 A3005 RMK AO2 PK WND 34029/1640 SLP175 VIRGA DSNT E T01000006=
201111101552 METAR KATL 101552Z 32019G27KT 10SM FEW030 BKN200 BKN250 11/02 A3005 RMK AO2 PK WND 32027/1551 SLP175 T01060017=
201111101452 METAR KATL 101452Z 32015G22KT 10SM FEW100 BKN200 BKN250 08/02 A3005 RMK AO2 SLP175 T00780017 53010=
201111101352 METAR KATL 101352Z 33018G24KT 10SM FEW150 BKN220 07/02 A3003 RMK AO2 SLP168 T00720017=
201111101252 METAR KATL 101252Z 32015G21KT 10SM FEW049 BKN220 07/02 A3003 RMK AO2 PK WND 32026/1159 SLP169 T00670017=
201111101152 METAR KATL 101152Z 32019G26KT 10SM FEW042 SCT049 BKN220 07/02 A3002 RMK AO2 PK WND 32026/1145 SLP163 60000 70005 T00670022 10139 20067 53013=
201111101052 METAR KATL 101052Z 32013G20KT 10SM OVC033 08/04 A3000 RMK AO2 SLP158 T00830044=
201111101006 SPECI KATL 101006Z 32011KT 10SM OVC031 09/06 A2998 RMK AO2=
201111101006 SPECI KATL 101006Z 32011KT 10SM OVC031 09/06 A2998 RMK AO2=
201111100952 METAR KATL 100952Z 32013G21KT 10SM OVC029 09/06 A2998 RMK AO2 SLP150 T00940056=
201111100852 METAR KATL 100852Z 33012KT 10SM OVC025 10/07 A2998 RMK AO2 RAE17 SLP149 P0000 60000 T01000067 58004=
201111100752 METAR KATL 100752Z 32008KT 8SM -RA FEW010 OVC021 11/08 A2999 RMK AO2 RAB30 SLP152 P0000 T01110083=
201111100736 SPECI KATL 100736Z 33013G20KT 10SM -RA FEW012 OVC021 12/08 A2999 RMK AO2 RAB30 P0000=
201111100736 SPECI KATL 100736Z 33013G20KT 10SM -RA FEW012 OVC021 12/08 A2999 RMK AO2 RAB30 P0000=
201111100652 METAR KATL 100652Z 32009KT 10SM BKN009 OVC013 13/11 A2999 RMK AO2 SLP153 T01280111=
201111100650 SPECI KATL 100650Z 32008KT 10SM BKN009 OVC013 13/11 A2999 RMK AO2=
201111100650 SPECI KATL 100650Z 32008KT 10SM BKN009 OVC013 13/11 A2999 RMK AO2=
201111100552 METAR KATL 100552Z 34012KT 10SM FEW009 BKN014 OVC020 14/12 A2999 RMK AO2 RAE09 SLP153 P0000 60005 T01390122 10194 20139 58007=
201111100530 SPECI KATL 100530Z 33008KT 10SM SCT009 BKN014 OVC020 14/13 A3000 RMK AO2 RAE09 P0000=
201111100530 SPECI KATL 100530Z 33008KT 10SM SCT009 BKN014 OVC020 14/13 A3000 RMK AO2 RAE09 P0000=
201111100452 METAR KATL 100452Z 33008KT 6SM -RA BR BKN007 OVC012 15/13 A3001 RMK AO2 SLP157 P0003 T01500133 402170111=
201111100430 SPECI KATL 100430Z 32013G16KT 4SM -RA BR OVC006 16/14 A3001 RMK AO2 CIG 003V009 P0003=
201111100430 SPECI KATL 100430Z 32013G16KT 4SM -RA BR OVC006 16/14 A3001 RMK AO2 CIG 003V009 P0003=
201111100352 METAR KATL 100352Z COR 25004KT 3SM -RA BR BKN008 BKN018 OVC030 16/14 A3001 RMK AO2 RAE04B44 SLP158 P0001 T01610144=
201111100252 METAR KATL 100252Z 27005KT 5SM -RA BR FEW020 BKN027 OVC035 17/14 A3002 RMK AO2 RAB42 SLP161 P0001 60001 T01670144 53003=
201111100242 SPECI KATL 100242Z 26009KT 8SM -RA BKN027 OVC040 17/14 A3002 RMK AO2 RAB42 P0000=
201111100242 SPECI KATL 100242Z 26009KT 8SM -RA BKN027 OVC040 17/14 A3002 RMK AO2 RAB42 P0000=
201111100152 METAR KATL 100152Z 26003KT 10SM BKN030 OVC040 18/13 A3001 RMK AO2 RAB19E32 SLP158 P0000 T01780133=
201111100052 METAR KATL 100052Z 22004KT 10SM BKN035 OVC042 18/13 A3001 RMK AO2 RAB2355E20 SLP159 P0000 T01780133=
201111092352 METAR KATL 092352Z 22004KT 10SM FEW034 BKN040 OVC065 19/12 A3001 RMK AO2 SLP159 T01940122 10217 20194 55001=
201111092252 METAR KATL 092252Z 21004KT 10SM SCT043 BKN050 BKN100 19/12 A3000 RMK AO2 SLP156 T01940117=
201111092152 METAR KATL 092152Z COR 21006KT 10SM FEW045 BKN070 BKN100 BKN200 21/11 A3001 RMK AO2 SLP158 SHRA DSNT NW T02060111=
201111092052 METAR KATL 092052Z 17007KT 10SM FEW040 SCT065 SCT085 21/11 A3001 RMK AO2 SLP159 T02060111 56022=
201111091952 METAR KATL 091952Z 20010KT 10SM BKN070 BKN090 BKN200 21/12 A3003 RMK AO2 SLP166 T02110117 $=
201111091852 METAR KATL 091852Z 17003KT 10SM FEW045 BKN150 BKN200 21/11 A3005 RMK AO2 SLP171 VIRGA N-NE-E-SE T02060111 $=
201111091752 METAR KATL 091752Z 19008KT 10SM FEW030 SCT045 BKN150 OVC200 21/11 A3008 RMK AO2 SLP182 VIRGA DSNT W-NW T02060111 10206 20111 58016=
201111091652 METAR KATL 091652Z 20006KT 10SM FEW045 SCT070 SCT150 BKN200 20/11 A3011 RMK AO2 SLP191 T02000111=
201111091552 METAR KATL 091552Z 17009KT 10SM FEW070 SCT150 OVC200 19/11 A3012 RMK AO2 SLP197 T01890111=
201111091452 METAR KATL 091452Z 13004KT 10SM FEW150 SCT180 BKN200 17/11 A3013 RMK AO2 SLP199 T01720106 58003=
201111091352 METAR KATL 091352Z 14004KT 10SM FEW050 BKN220 15/10 A3014 RMK AO2 SLP202 T01500100=
201111091252 METAR KATL 091252Z 09005KT 10SM SCT050 BKN250 12/09 A3014 RMK AO2 SLP203 T01220094=
201111091152 METAR KATL 091152Z 09004KT 10SM SCT050 BKN250 12/09 A3014 RMK AO2 SLP203 T01170089 10133 20111 53001=
201111091052 METAR KATL 091052Z 12003KT 10SM SCT050 13/09 A3013 RMK AO2 SLP201 SCT050 V BKN T01280094=
201111090952 METAR KATL 090952Z 13003KT 10SM BKN050 13/09 A3013 RMK AO2 SLP199 T01280094=
201111090852 METAR KATL 090852Z 13003KT 10SM BKN050 13/09 A3013 RMK AO2 SLP201 T01280094 55001=
201111090752 METAR KATL 090752Z 00000KT 10SM BKN050 13/09 A3013 RMK AO2 SLP199 T01280094=
201111090652 METAR KATL 090652Z 00000KT 10SM CLR 12/08 A3013 RMK AO2 SLP200 T01170083=
201111090552 METAR KATL 090552Z 09004KT 10SM FEW250 12/09 A3014 RMK AO2 SLP202 T01220089 10183 20122 58005=
201111090452 METAR KATL 090452Z 10004KT 10SM CLR 14/09 A3015 RMK AO2 SLP208 T01390089 402220094=
201111090352 METAR KATL 090352Z 12005KT 10SM CLR 16/09 A3015 RMK AO2 SLP207 T01560089=
201111090252 METAR KATL 090252Z 12004KT 10SM CLR 16/09 A3015 RMK AO2 SLP207 T01610094 58003=
201111090152 METAR KATL 090152Z 12007KT 10SM CLR 17/09 A3016 RMK AO2 SLP209 T01670094=
201111090052 METAR KATL 090052Z 12005KT 10SM FEW050 17/09 A3016 RMK AO2 SLP211 T01720089=
201111082352 METAR KATL 082352Z 13005KT 10SM FEW050 18/09 A3016 RMK AO2 SLP211 T01830094 10222 20183 55001=
201111082252 METAR KATL 082252Z 14003KT 10SM FEW150 19/09 A3015 RMK AO2 SLP209 T01890094=
201111082152 METAR KATL 082152Z 11003KT 10SM FEW050 SCT150 SCT200 21/09 A3015 RMK AO2 SLP208 T02060089 $=
201111082052 METAR KATL 082052Z 09004KT 10SM BKN050 BKN150 BKN200 21/09 A3016 RMK AO2 SLP211 T02060089 56017=
201111081952 METAR KATL 081952Z 20007KT 130V240 10SM BKN045 BKN055 BKN200 21/09 A3018 RMK AO2 SLP217 T02110089=
201111081852 METAR KATL 081852Z 00000KT 10SM FEW035 SCT150 SCT200 21/09 A3020 RMK AO2 SLP222 T02110094=
201111081752 METAR KATL 081752Z 16006KT 10SM FEW035 SCT200 SCT250 21/10 A3022 RMK AO2 SLP228 T02060100 10206 20106=
201111081652 METAR KATL 081652Z 11007KT 10SM FEW030 SCT150 SCT200 19/10 A3025 RMK AO2 SLP238 T01940100=
201111081552 METAR KATL 081552Z 11007KT 10SM FEW150 SCT200 SCT250 18/11 A3027 RMK AO2 SLP247 T01780106 $=
201111081452 METAR KATL 081452Z 10007KT 10SM FEW060 SCT200 BKN250 16/09 A3028 RMK AO2 SLP252 T01610094 51009=
201111081352 METAR KATL 081352Z 09008KT 10SM FEW060 SCT150 SCT200 13/08 A3028 RMK AO2 SLP251 T01330083=
201111081252 METAR KATL 081252Z 07007KT 10SM FEW070 12/08 A3027 RMK AO2 SLP248 T01170083=
201111081152 METAR KATL 081152Z 07005KT 10SM FEW070 11/07 A3025 RMK AO2 SLP243 T01060072 10133 20094 53005=
201111081052 METAR KATL 081052Z 08007KT 10SM SCT065 SCT250 10/07 A3024 RMK AO2 SLP239 T01000072=
201111080952 METAR KATL 080952Z 07005KT 10SM SCT055 BKN250 11/07 A3024 RMK AO2 SLP239 T01060072=
201111080852 METAR KATL 080852Z 07005KT 10SM FEW055 SCT140 SCT250 11/08 A3024 RMK AO2 SLP236 T01110078 55007=
201111080752 METAR KATL 080752Z 08005KT 10SM FEW055 11/08 A3023 RMK AO2 SLP234 T01110078=
201111080652 METAR KATL 080652Z 09006KT 10SM FEW055 12/08 A3025 RMK AO2 SLP239 T01170078=
201111080552 METAR KATL 080552Z 08004KT 10SM BKN055 13/08 A3026 RMK AO2 SLP244 T01330083 10178 20133 58007=
201111080452 METAR KATL 080452Z 06004KT 10SM BKN050 14/08 A3027 RMK AO2 SLP246 T01440083 402220083=
201111080352 METAR KATL 080352Z 12004KT 10SM BKN050 14/08 A3028 RMK AO2 SLP252 T01440083=
201111080252 METAR KATL 080252Z 11003KT 10SM CLR 14/08 A3028 RMK AO2 SLP252 T01440083 50004=
201111080152 METAR KATL 080152Z 11003KT 10SM CLR 16/08 A3028 RMK AO2 SLP254 T01560078=
201111080052 METAR KATL 080052Z 12004KT 10SM CLR 17/08 A3028 RMK AO2 SLP252 T01720083=
201111072352 METAR KATL 072352Z 12004KT 10SM CLR 18/08 A3027 RMK AO2 SLP250 T01780083 10222 20172 53004=
201111072252 METAR KATL 072252Z 10005KT 10SM CLR 19/08 A3025 RMK AO2 SLP243 T01890083=
201111072152 METAR KATL 072152Z 00000KT 10SM FEW045 21/08 A3025 RMK AO2 SLP242 T02060078=
201111072052 METAR KATL 072052Z 09003KT 10SM FEW048 22/08 A3026 RMK AO2 SLP244 T02170078 56021=
201111071952 METAR KATL 071952Z 00000KT 10SM FEW045 21/08 A3028 RMK AO2 SLP250 T02110078=
201111071852 METAR KATL 071852Z 00000KT 10SM FEW040 SCT060 21/08 A3030 RMK AO2 SLP257 T02110083=
201111071752 METAR KATL 071752Z 07007KT 10SM FEW040 SCT060 20/08 A3033 RMK AO2 SLP267 T02000083 10206 20089 58020=
201111071652 METAR KATL 071652Z 08008KT 10SM FEW060 SCT250 19/09 A3036 RMK AO2 SLP279 T01940089=
201111071552 METAR KATL 071552Z 12004KT 10SM FEW060 SCT250 18/09 A3038 RMK AO2 SLP286 T01830089=
201111071452 METAR KATL 071452Z 11008KT 10SM FEW050 15/08 A3039 RMK AO2 SLP289 T01500078 50012=
201111071352 METAR KATL 071352Z VRB06KT 10SM CLR 13/08 A3039 RMK AO2 SLP290 T01280078=
201111071252 METAR KATL 071252Z 07008KT 10SM FEW250 11/07 A3037 RMK AO2 SLP286 T01060072=
201111071152 METAR KATL 071152Z 07007KT 10SM FEW250 09/07 A3035 RMK AO2 SLP278 T00940067 10122 20083 53003=
201111071052 METAR KATL 071052Z 08007KT 10SM CLR 09/07 A3035 RMK AO2 SLP278 T00940067=
201111070952 METAR KATL 070952Z 08008KT 10SM CLR 10/07 A3034 RMK AO2 SLP273 T01000072=
201111070852 METAR KATL 070852Z 07007KT 10SM FEW040 11/07 A3034 RMK AO2 SLP273 T01060072 56008=
201111070752 METAR KATL 070752Z 13005KT 10SM SCT048 12/08 A3035 RMK AO2 SLP275 T01220078=
201111070652 METAR KATL 070652Z 09006KT 10SM BKN048 12/08 A3036 RMK AO2 SLP278 T01170078=
201111070552 METAR KATL 070552Z 09005KT 10SM BKN048 11/08 A3037 RMK AO2 SLP282 T01110083 10150 20100 50001=
201111070452 METAR KATL 070452Z 09005KT 10SM FEW050 11/07 A3037 RMK AO2 SLP283 T01060072 401890061=
201111070352 METAR KATL 070352Z 10005KT 10SM CLR 12/08 A3037 RMK AO2 SLP283 T01170078=
201111070252 METAR KATL 070252Z 08008KT 10SM FEW250 12/08 A3036 RMK AO2 SLP282 T01220078 53008=
201111070152 METAR KATL 070152Z 07008KT 10SM FEW250 13/08 A3035 RMK AO2 SLP278 T01330083=
201111070052 METAR KATL 070052Z 10006KT 10SM SCT250 14/08 A3035 RMK AO2 SLP277 T01440078=
201111062352 METAR KATL 062352Z 10006KT 10SM SCT250 14/08 A3034 RMK AO2 SLP274 T01440078 10189 20144 53003=
201111062252 METAR KATL 062252Z 09007KT 10SM FEW070 SCT250 15/07 A3033 RMK AO2 SLP271 T01500072=
201111062152 METAR KATL 062152Z 08008KT 10SM FEW040 SCT070 SCT250 18/07 A3032 RMK AO2 SLP267 T01780072=
201111062052 METAR KATL 062052Z 10006KT 10SM FEW040 SCT060 SCT250 18/07 A3033 RMK AO2 SLP269 T01830072 56014=
201111061952 METAR KATL 061952Z 03006KT 10SM SCT038 BKN050 BKN250 19/07 A3034 RMK AO2 SLP273 T01890067=
201111061852 METAR KATL 061852Z 06007KT 10SM FEW034 SCT100 BKN250 18/07 A3034 RMK AO2 SLP275 T01830067=
201111061752 METAR KATL 061752Z 08008KT 10SM FEW040 SCT250 17/06 A3037 RMK AO2 SLP284 T01720056 10172 20078 58017=
201111061652 METAR KATL 061652Z 08006KT 10SM FEW040 SCT250 16/05 A3040 RMK AO2 SLP295 T01610050=
201111061552 METAR KATL 061552Z 07010KT 10SM FEW040 SCT250 14/04 A3042 RMK AO2 SLP303 T01390039=
201111061452 METAR KATL 061452Z 08013KT 10SM FEW040 SCT250 12/03 A3042 RMK AO2 SLP303 T01170028 51015=
201111061352 METAR KATL 061352Z 08014KT 10SM FEW040 10/02 A3042 RMK AO2 SLP302 T01000017=
201111061252 METAR KATL 061252Z 08015KT 10SM SCT040 08/01 A3040 RMK AO2 SLP297 T00780011=
201111061152 METAR KATL 061152Z 08011KT 10SM BKN038 08/01 A3038 RMK AO2 SLP289 T00830011 10083 20061 51016=
201111061052 METAR KATL 061052Z 08012KT 10SM BKN038 08/01 A3036 RMK AO2 SLP284 T00830011=
201111060952 METAR KATL 060952Z 08013KT 10SM BKN036 08/01 A3035 RMK AO2 SLP278 T00780011=
201111060852 METAR KATL 060852Z 08013KT 10SM BKN032 08/01 A3033 RMK AO2 SLP272 T00780011 50001=
201111060752 METAR KATL 060752Z 09008KT 10SM FEW032 07/01 A3034 RMK AO2 SLP274 T00670006=
201111060738 SPECI KATL 060738Z 08008KT 10SM SCT032 07/01 A3033 RMK AO2=
201111060738 SPECI KATL 060738Z 08008KT 10SM SCT032 07/01 A3033 RMK AO2=
201111060652 METAR KATL 060652Z 08009KT 10SM BKN029 07/01 A3033 RMK AO2 SLP273 T00720006=
201111060552 METAR KATL 060552Z 09013KT 10SM BKN033 08/01 A3033 RMK AO2 SLP271 T00780006 10106 20067 51007=
201111060452 METAR KATL 060452Z 09011KT 10SM CLR 07/00 A3033 RMK AO2 SLP271 T00720000 401610061=
201111060352 METAR KATL 060352Z 09011KT 10SM CLR 08/00 A3032 RMK AO2 SLP271 T00830000=
201111060252 METAR KATL 060252Z 09013G20KT 10SM CLR 09/00 A3031 RMK AO2 SLP265 T00890000 51019=
201111060152 METAR KATL 060152Z 10012KT 10SM CLR 09/M01 A3029 RMK AO2 SLP260 T00941006=
201111060052 METAR KATL 060052Z 10009KT 10SM CLR 10/M01 A3028 RMK AO2 SLP256 T01001011=
201111052352 METAR KATL 052352Z 09011KT 10SM CLR 11/M03 A3025 RMK AO2 SLP247 T01061028 10161 20106 53006=
201111052252 METAR KATL 052252Z 09008KT 10SM CLR 12/M04 A3024 RMK AO2 SLP241 T01171039=
201111052152 METAR KATL 052152Z 09008KT 10SM CLR 14/M04 A3023 RMK AO2 SLP237 T01441039=
201111052052 METAR KATL 052052Z 09010KT 10SM CLR 16/M04 A3023 RMK AO2 SLP238 T01561039 56014=
201111051952 METAR KATL 051952Z 07012G15KT 10SM CLR 16/M04 A3024 RMK AO2 PK WND 34030/1923 SLP240 T01611044=
201111051852 METAR KATL 051852Z 06011KT 10SM CLR 16/M02 A3025 RMK AO2 SLP244 T01561017=
201111051752 METAR KATL 051752Z 06010KT 10SM CLR 14/M01 A3027 RMK AO2 SLP253 T01441006 10144 20061 58010=
201111051652 METAR KATL 051652Z 06012G16KT 10SM CLR 13/M01 A3030 RMK AO2 SLP261 T01331006=
201111051552 METAR KATL 051552Z 07016KT 10SM CLR 12/M01 A3031 RMK AO2 SLP266 T01171006=
201111051452 METAR KATL 051452Z 10015G22KT 10SM CLR 11/M01 A3030 RMK AO2 SLP263 T01061006 51029=
201111051352 METAR KATL 051352Z 09016G26KT 10SM CLR 09/01 A3029 RMK AO2 PK WND 08026/1344 SLP260 T00890011=
201111051252 METAR KATL 051252Z 09011KT 10SM CLR 08/03 A3025 RMK AO2 SLP247 T00780028=
201111051152 METAR KATL 051152Z 09008KT 10SM CLR 07/03 A3021 RMK AO2 SLP234 T00670028 10089 20067 51025=
201111051052 METAR KATL 051052Z 07008KT 10SM CLR 08/04 A3020 RMK AO2 SLP228 T00830039=
201111050952 METAR KATL 050952Z 03004KT 8SM CLR 07/04 A3017 RMK AO2 SLP217 T00670044=
201111050852 METAR KATL 050852Z 33005KT 8SM CLR 07/04 A3014 RMK AO2 SLP207 T00670044 53004=
201111050752 METAR KATL 050752Z 01003KT 10SM CLR 09/05 A3013 RMK AO2 SLP204 T00890050=
201111050652 METAR KATL 050652Z 33004KT 10SM CLR 08/06 A3013 RMK AO2 SLP203 T00830056=
201111050552 METAR KATL 050552Z 32003KT 9SM CLR 08/06 A3013 RMK AO2 SLP202 T00780056 10128 20078 51012=
201111050452 METAR KATL 050452Z 31006KT 10SM CLR 08/06 A3012 RMK AO2 SLP200 T00830056 401670072=
201111050352 METAR KATL 050352Z 36006KT 10SM CLR 09/06 A3010 RMK AO2 SLP194 T00940056=
201111050252 METAR KATL 050252Z 34006KT 10SM CLR 10/06 A3009 RMK AO2 SLP191 T01000061 53014=
201111050152 METAR KATL 050152Z 35006KT 10SM CLR 11/06 A3007 RMK AO2 SLP185 T01110056=
201111050052 METAR KATL 050052Z 33009KT 10SM CLR 12/06 A3006 RMK AO2 SLP179 T01170061=
201111042352 METAR KATL 042352Z 34013G18KT 10SM CLR 13/06 A3005 RMK AO2 SLP177 T01280056 10167 20128 53024=
201111042252 METAR KATL 042252Z 33015KT 10SM CLR 14/06 A3002 RMK AO2 SLP166 T01390056=
201111042152 METAR KATL 042152Z 34012KT 10SM CLR 16/05 A2999 RMK AO2 SLP155 T01560050=
201111042052 METAR KATL 042052Z 33014KT 10SM CLR 17/06 A2997 RMK AO2 SLP150 T01670056 53001=
201111041952 METAR KATL 041952Z 32012KT 10SM FEW040 17/06 A2996 RMK AO2 SLP144 T01670056=
201111041852 METAR KATL 041852Z 34015G20KT 10SM FEW030 15/06 A2996 RMK AO2 SLP146 T01500056=
201111041752 METAR KATL 041752Z 33017G21KT 10SM FEW028 14/06 A2997 RMK AO2 SLP150 T01440056 10144 20072 58002=
201111041652 METAR KATL 041652Z 32013G24KT 10SM FEW025 13/05 A2998 RMK AO2 SLP152 T01280050=
201111041552 METAR KATL 041552Z 34016G28KT 10SM SCT025 11/04 A3000 RMK AO2 PK WND 33028/1545 SLP161 T01110044=
201111041452 METAR KATL 041452Z 33014G25KT 10SM FEW020 10/04 A2998 RMK AO2 PK WND 32027/1419 SLP153 T01000039 51021=
201111041352 METAR KATL 041352Z 32017G24KT 10SM FEW020 09/03 A2997 RMK AO2 PK WND 31031/1331 SLP151 T00890028=
201111041252 METAR KATL 041252Z 32019G25KT 10SM SCT020 07/03 A2995 RMK AO2 SLP143 T00720028=
201111041152 METAR KATL 041152Z 33017G24KT 10SM OVC022 07/02 A2992 RMK AO2 PK WND 31027/1118 SLP131 BINOVC 70057 T00720022 10078 20072 53008=
201111041052 METAR KATL 041052Z 32018G25KT 10SM OVC024 07/02 A2991 RMK AO2 PK WND 30027/1020 SLP128 T00720022=
201111040952 METAR KATL 040952Z 32014G19KT 10SM OVC026 07/03 A2989 RMK AO2 SLP123 T00720028=
201111040852 METAR KATL 040852Z 31015G19KT 10SM OVC024 07/03 A2989 RMK AO2 SLP121 T00720028 58005=
201111040752 METAR KATL 040752Z 30012KT 10SM BKN020 OVC024 08/03 A2990 RMK AO2 SLP122 T00780033=
201111040652 METAR KATL 040652Z 30014KT 10SM BKN018 OVC027 08/03 A2991 RMK AO2 SLP125 T00780033=
201111040552 METAR KATL 040552Z 30010KT 10SM BKN018 OVC034 07/04 A2991 RMK AO2 SLP124 60002 T00720039 10150 20072 58008=
201111040452 METAR KATL 040452Z 29015KT 10SM OVC020 08/03 A2993 RMK AO2 PK WND 31031/0428 SLP132 T00780033 402170072=
201111040352 METAR KATL 040352Z 31012G26KT 10SM OVC022 08/03 A2993 RMK AO2 PK WND 30026/0347 SLP135 T00830033=
201111040252 METAR KATL 040252Z 29013G21KT 10SM FEW015 OVC022 08/04 A2993 RMK AO2 PK WND 31027/0203 SLP134 60002 T00830039 51019=
201111040152 METAR KATL 040152Z 31016G23KT 10SM FEW014 BKN022 OVC065 10/06 A2991 RMK AO2 SLP130 T01000061=
201111040102 SPECI KATL 040102Z 29011KT 10SM FEW012 BKN022 BKN065 12/09 A2989 RMK AO2=
201111040102 SPECI KATL 040102Z 29011KT 10SM FEW012 BKN022 BKN065 12/09 A2989 RMK AO2=
201111040052 METAR KATL 040052Z 29013G19KT 10SM FEW012 SCT020 OVC065 12/09 A2990 RMK AO2 RAE08 SLP124 P0002 T01220089=
201111040014 SPECI KATL 040014Z 30016G20KT 10SM FEW007 BKN055 OVC150 14/12 A2988 RMK AO2 RAE08 P0002=
201111040014 SPECI KATL 040014Z 30016G20KT 10SM FEW007 BKN055 OVC150 14/12 A2988 RMK AO2 RAE08 P0002=
201111040003 SPECI KATL 040003Z 29016KT 9SM -RA SCT007 BKN014 OVC030 14/13 A2988 RMK AO2 SCT007 V BKN P0002=
201111040003 SPECI KATL 040003Z 29016KT 9SM -RA SCT007 BKN014 OVC030 14/13 A2988 RMK AO2 SCT007 V BKN P0002=
201111032352 METAR KATL 032352Z 27008KT 9SM -RA SCT007 BKN030 OVC045 15/13 A2987 RMK AO2 SLP116 P0019 60055 T01500133 10211 20150 51017=
201111032349 SPECI KATL 032349Z 28012KT 9SM -RA SCT007 BKN030 OVC045 15/13 A2986 RMK AO2 P0019=
201111032349 SPECI KATL 032349Z 28012KT 9SM -RA SCT007 BKN030 OVC045 15/13 A2986 RMK AO2 P0019=
201111032302 SPECI KATL 032302Z 27006KT 3SM RA BR BKN008 BKN025 OVC055 16/14 A2986 RMK AO2 P0004=
201111032302 SPECI KATL 032302Z 27006KT 3SM RA BR BKN008 BKN025 OVC055 16/14 A2986 RMK AO2 P0004=
201111032252 METAR KATL 032252Z 26005KT 2 1/2SM +RA BR FEW008 BKN025 OVC055 16/14 A2986 RMK AO2 SLP110 P0034 T01610144=
201111032240 SPECI KATL 032240Z 28009KT 2SM +RA BR FEW008 BKN020 OVC040 16/14 A2986 RMK AO2 P0025=
201111032240 SPECI KATL 032240Z 28009KT 2SM +RA BR FEW008 BKN020 OVC040 16/14 A2986 RMK AO2 P0025=
201111032232 SPECI KATL 032232Z 27009KT 3SM RA BR FEW008 BKN020 OVC040 16/14 A2986 RMK AO2 P0023=
201111032232 SPECI KATL 032232Z 27009KT 3SM RA BR FEW008 BKN020 OVC040 16/14 A2986 RMK AO2 P0023=
201111032223 SPECI KATL 032223Z 26009KT 1 1/2SM R09R/5000VP6000FT +RA BR FEW008 BKN015 OVC030 16/14 A2987 RMK AO2 PRESRR P0006=
201111032223 SPECI KATL 032223Z 26009KT 1 1/2SM R09R/5000VP6000FT +RA BR FEW008 BKN015 OVC030 16/14 A2987 RMK AO2 PRESRR P0006=
201111032220 SPECI KATL 032220Z 28012KT 2 1/2SM RA BR FEW008 BKN014 OVC030 16/14 A2986 RMK AO2 PRESRR P0003=
201111032220 SPECI KATL 032220Z 28012KT 2 1/2SM RA BR FEW008 BKN014 OVC030 16/14 A2986 RMK AO2 PRESRR P0003=
201111032152 METAR KATL 032152Z 17008KT 6SM -RA BKN040 OVC055 17/14 A2982 RMK AO2 SLP096 P0001 T01720139=
201111032052 METAR KATL 032052Z 18010KT 9SM -RA BKN038 OVC050 18/13 A2986 RMK AO2 SLP111 P0001 60001 T01780128 56034=
201111031952 METAR KATL 031952Z 19012G18KT 9SM -RA FEW032 BKN040 OVC060 21/10 A2989 RMK AO2 RAB25 SLP117 P0000 T02060100=
201111031852 METAR KATL 031852Z 18013G20KT 10SM FEW040 BKN060 BKN080 21/10 A2991 RMK AO2 PRESFR SLP126 SHRA DSNT SW-N T02110100=
201111031752 METAR KATL 031752Z 18012G21KT 10SM FEW040 SCT070 SCT120 21/09 A2997 RMK AO2 PRESFR SLP146 ACC DSNT NW T02110089 10217 20072 58046=
201111031652 METAR KATL 031652Z 19013G19KT 10SM FEW035 SCT050 20/08 A3004 RMK AO2 SLP171 T02000083=
201111031552 METAR KATL 031552Z 18012G19KT 10SM FEW050 18/08 A3007 RMK AO2 SLP181 T01830078=
201111031452 METAR KATL 031452Z 16011G23KT 10SM FEW200 16/06 A3011 RMK AO2 SLP193 T01560061 58017=
201111031352 METAR KATL 031352Z 15006KT 10SM FEW200 12/04 A3013 RMK AO2 SLP204 T01170044=
201111031252 METAR KATL 031252Z 15003KT 10SM FEW030 SCT200 08/04 A3014 RMK AO2 SLP209 T00830044=
201111031152 METAR KATL 031152Z 00000KT 10SM FEW034 07/04 A3016 RMK AO2 SLP213 T00720039 10106 20072 58013=
201111031052 METAR KATL 031052Z 12005KT 10SM FEW034 08/04 A3018 RMK AO2 SLP220 T00830039=
201111030952 METAR KATL 030952Z 12004KT 10SM SCT034 09/04 A3020 RMK AO2 SLP224 T00890039=
201111030852 METAR KATL 030852Z 11006KT 10SM BKN036 09/03 A3020 RMK AO2 SLP224 T00890033 56012=
201111030752 METAR KATL 030752Z 00000KT 10SM CLR 08/03 A3020 RMK AO2 SLP225 T00830033=
201111030652 METAR KATL 030652Z VRB04KT 10SM CLR 09/03 A3022 RMK AO2 SLP231 T00940033=
201111030552 METAR KATL 030552Z 10006KT 10SM CLR 09/03 A3023 RMK AO2 SLP237 T00890033 10150 20083 58009=
201111030452 METAR KATL 030452Z 08006KT 10SM CLR 09/03 A3025 RMK AO2 SLP243 T00890028 402000056=
201111030352 METAR KATL 030352Z 10004KT 10SM CLR 11/03 A3026 RMK AO2 SLP246 T01110033=
201111030252 METAR KATL 030252Z 12005KT 10SM CLR 13/02 A3026 RMK AO2 SLP247 T01280022 50004=
201111030152 METAR KATL 030152Z 12005KT 10SM CLR 13/02 A3026 RMK AO2 SLP248 T01330017=
201111030052 METAR KATL 030052Z 11005KT 10SM CLR 14/02 A3026 RMK AO2 SLP248 T01390017=
201111022352 METAR KATL 022352Z 11006KT 10SM CLR 14/01 A3025 RMK AO2 SLP246 T01440006 10200 20144 56004=
201111022252 METAR KATL 022252Z 12005KT 10SM CLR 17/00 A3025 RMK AO2 SLP245 T01670000=
201111022152 METAR KATL 022152Z 12010KT 10SM CLR 18/00 A3025 RMK AO2 SLP243 T01830000=
201111022052 METAR KATL 022052Z 11007KT 080V140 10SM CLR 19/00 A3026 RMK AO2 SLP247 T01940000 56019=
201111021952 METAR KATL 021952Z 10009KT 10SM FEW250 19/M01 A3028 RMK AO2 SLP253 T01941006=
201111021852 METAR KATL 021852Z 10004KT 10SM FEW250 19/00 A3029 RMK AO2 SLP257 T01940000=
201111021752 METAR KATL 021752Z 09008KT 10SM FEW250 18/01 A3032 RMK AO2 SLP267 T01780011 10178 20056 58020=
201111021652 METAR KATL 021652Z 13008KT 10SM FEW250 17/01 A3035 RMK AO2 SLP278 T01670011=
201111021552 METAR KATL 021552Z 13007KT 10SM FEW250 15/02 A3038 RMK AO2 SLP287 T01500022=
201111021452 METAR KATL 021452Z 10008KT 10SM CLR 13/03 A3038 RMK AO2 SLP289 T01330028 50007=
201111021352 METAR KATL 021352Z 12006KT 10SM CLR 11/02 A3039 RMK AO2 SLP291 T01060022=
201111021252 METAR KATL 021252Z 09007KT 10SM CLR 07/03 A3038 RMK AO2 SLP287 T00720028=
201111021152 METAR KATL 021152Z 09005KT 10SM CLR 06/02 A3036 RMK AO2 SLP283 T00560017 10106 20056 53015 $=
201111021052 METAR KATL 021052Z 07005KT 10SM CLR 06/02 A3034 RMK AO2 SLP277 T00610017=
201111020952 METAR KATL 020952Z 08005KT 10SM CLR 07/02 A3032 RMK AO2 SLP269 T00670017=
201111020852 METAR KATL 020852Z 07006KT 10SM CLR 07/02 A3032 RMK AO2 SLP265 T00720017 53003=
201111020752 METAR KATL 020752Z 10004KT 10SM CLR 07/02 A3030 RMK AO2 SLP262 T00720017=
201111020652 METAR KATL 020652Z 08004KT 10SM CLR 08/02 A3031 RMK AO2 SLP265 T00830017=
201111020552 METAR KATL 020552Z 11004KT 10SM CLR 10/02 A3031 RMK AO2 SLP261 T01000017 10156 20100 53001=
201111020452 METAR KATL 020452Z 13003KT 10SM CLR 11/02 A3030 RMK AO2 SLP260 T01110022 402000061=
201111020352 METAR KATL 020352Z 13004KT 10SM CLR 11/02 A3030 RMK AO2 SLP260 T01110022=
201111020252 METAR KATL 020252Z 12003KT 10SM CLR 12/02 A3031 RMK AO2 SLP261 T01220017 53010=
201111020152 METAR KATL 020152Z 00000KT 10SM CLR 13/02 A3029 RMK AO2 SLP258 T01280017=
201111020052 METAR KATL 020052Z 14003KT 10SM CLR 14/02 A3028 RMK AO2 SLP254 T01390017=
201111012352 METAR KATL 012352Z 13005KT 10SM CLR 16/00 A3027 RMK AO2 SLP252 T01560000 10200 20156 53007 $=
201111012252 METAR KATL 012252Z COR 12006KT 10SM FEW150 17/M01 A3026 RMK AO2 SLP249 T01721006 $=
201111012152 METAR KATL 012152Z 08006KT 10SM FEW200 18/M01 A3026 RMK AO2 SLP245 T01831011=
201111012052 METAR KATL 012052Z VRB03KT 10SM FEW150 SCT200 SCT250 19/M02 A3025 RMK AO2 SLP243 T01941017 55009=
201111011952 METAR KATL 011952Z 05006KT 10SM FEW150 SCT200 SCT250 18/M01 A3025 RMK AO2 SLP243 T01831011=
201111011852 METAR KATL 011852Z 07006KT 10SM FEW150 SCT200 SCT250 19/M02 A3026 RMK AO2 SLP246 T01941022=
201111011752 METAR KATL 011752Z 08005KT 10SM FEW200 SCT250 18/M02 A3028 RMK AO2 SLP254 T01831017 10189 20061 58015=
201111011652 METAR KATL 011652Z 10006KT 10SM FEW200 SCT250 18/00 A3031 RMK AO2 SLP264 T01780000=
201111011552 METAR KATL 011552Z VRB03KT 10SM FEW250 17/02 A3033 RMK AO2 SLP270 T01670017=
201111011452 METAR KATL 011452Z 08004KT 10SM FEW250 14/03 A3033 RMK AO2 SLP270 T01440028 51020=
201111011352 METAR KATL 011352Z 09003KT 10SM FEW250 12/04 A3031 RMK AO2 SLP263 T01220039=
201111011252 METAR KATL 011252Z 04003KT 10SM CLR 11/03 A3029 RMK AO2 SLP256 T01060033=
