##########################################################
# Query made at 04/19/2024 23:24:07 UTC
# Time interval: from 10/01/2011 12:00  to 10/31/2011 12:59  UTC
##########################################################

##########################################################
# KATL, Atlanta, Hartsfield - Jackson Atlanta International Airport (United States)
# WMO index: 72219. WIGOS ID: 0-20000-0-72219
# Latitude 33-38-59N. Longitude 084-25-00W. Altitude 312 m.
##########################################################

201110311252 METAR KATL 311252Z 10004KT 10SM SCT044 06/02 A3023 RMK AO2 SLP238 T00610017=
201110311152 METAR KATL 311152Z 10004KT 10SM FEW025 SCT200 05/01 A3022 RMK AO2 SLP236 T00500006 10072 20039 56003=
201110311052 METAR KATL 311052Z 08004KT 10SM SCT250 05/01 A3023 RMK AO2 SLP238 T00500006=
201110310952 METAR KATL 310952Z 08005KT 10SM SCT250 05/01 A3022 RMK AO2 SLP235 T00500006=
201110310852 METAR KATL 310852Z 07004KT 10SM FEW250 05/00 A3023 RMK AO2 SLP238 T00500000 55006=
201110310752 METAR KATL 310752Z 09004KT 10SM FEW250 06/00 A3023 RMK AO2 SLP238 T00610000=
201110310652 METAR KATL 310652Z 08004KT 10SM FEW250 07/00 A3024 RMK AO2 SLP242 T00670000=
201110310552 METAR KATL 310552Z 07005KT 10SM FEW250 07/00 A3025 RMK AO2 SLP244 T00720000 10122 20061 55000=
201110310452 METAR KATL 310452Z 09005KT 10SM FEW250 08/00 A3025 RMK AO2 SLP243 T00780000 401610039=
201110310352 METAR KATL 310352Z 11004KT 10SM FEW250 09/M01 A3025 RMK AO2 SLP244 T00941006=
201110310252 METAR KATL 310252Z 11003KT 10SM BKN250 10/M01 A3025 RMK AO2 SLP244 T01001006 53007=
201110310152 METAR KATL 310152Z 13003KT 10SM BKN250 11/M01 A3024 RMK AO2 SLP243 T01061006=
201110310052 METAR KATL 310052Z 13003KT 10SM BKN250 11/M01 A3023 RMK AO2 SLP241 T01061006=
201110302352 METAR KATL 302352Z 14003KT 10SM BKN250 12/M01 A3023 RMK AO2 SLP239 T01171011 10161 20117 53004=
201110302252 METAR KATL 302252Z 16005KT 10SM BKN250 12/M01 A3021 RMK AO2 SLP234 T01221011=
201110302152 METAR KATL 302152Z 15005KT 10SM BKN250 14/M03 A3021 RMK AO2 SLP234 T01391033=
201110302052 METAR KATL 302052Z 12008KT 10SM BKN250 16/M03 A3021 RMK AO2 SLP232 T01561033 56015=
201110301952 METAR KATL 301952Z 13006KT 10SM BKN250 16/M04 A3022 RMK AO2 SLP234 T01561044=
201110301852 METAR KATL 301852Z 09005KT 10SM BKN250 15/M04 A3023 RMK AO2 SLP239 T01501044 $=
201110301752 METAR KATL 301752Z 15006KT 10SM SCT250 14/M04 A3026 RMK AO2 SLP249 T01441044 10156 20044 58013 $=
201110301652 METAR KATL 301652Z 12009KT 10SM SCT250 14/M03 A3029 RMK AO2 SLP257 T01441033 $=
201110301552 METAR KATL 301552Z 09009G15KT 10SM SCT250 13/M02 A3030 RMK AO2 SLP261 T01331022 $=
201110301452 METAR KATL 301452Z 12008KT 10SM FEW250 12/M01 A3030 RMK AO2 SLP262 T01221011 51018 $=
201110301352 METAR KATL 301352Z 10006KT 10SM FEW250 08/M01 A3029 RMK AO2 SLP260 T00831006 $=
201110301252 METAR KATL 301252Z 07006KT 10SM CLR 07/M01 A3027 RMK AO2 SLP254 T00721011 $=
201110301152 METAR KATL 301152Z 05006KT 10SM CLR 06/M02 A3024 RMK AO2 SLP245 T00561017 10072 20039 53014 $=
201110301052 METAR KATL 301052Z 07003KT 10SM CLR 04/M01 A3022 RMK AO2 SLP239 T00441006=
201110300952 METAR KATL 300952Z 00000KT 10SM CLR 04/M01 A3021 RMK AO2 SLP232 T00441006=
201110300852 METAR KATL 300852Z 00000KT 10SM CLR 05/M01 A3020 RMK AO2 SLP229 T00501006 51006=
201110300752 METAR KATL 300752Z 04005KT 10SM CLR 07/M01 A3020 RMK AO2 SLP226 T00671006=
201110300652 METAR KATL 300652Z 04004KT 10SM CLR 07/00 A3019 RMK AO2 SLP224 T00720000=
201110300552 METAR KATL 300552Z 00000KT 10SM CLR 06/01 A3018 RMK AO2 SLP223 T00560006 10106 20056 53008=
201110300452 METAR KATL 300452Z 02005KT 10SM CLR 08/00 A3018 RMK AO2 SLP220 T00780000 401500061=
201110300352 METAR KATL 300352Z 35008KT 10SM CLR 08/00 A3016 RMK AO2 SLP216 T00830000=
201110300252 METAR KATL 300252Z 01007KT 10SM CLR 09/00 A3016 RMK AO2 SLP215 T00890000 53018=
201110300152 METAR KATL 300152Z 01005KT 10SM CLR 09/00 A3014 RMK AO2 SLP210 T00940000=
201110300052 METAR KATL 300052Z 34007KT 10SM CLR 10/M01 A3012 RMK AO2 SLP201 T01001006=
201110292352 METAR KATL 292352Z 34010KT 10SM CLR 11/M01 A3011 RMK AO2 SLP198 T01061006 10150 20106 53013=
201110292252 METAR KATL 292252Z 34010KT 10SM CLR 11/M01 A3008 RMK AO2 SLP189 T01111011=
201110292152 METAR KATL 292152Z 34014KT 10SM CLR 13/M02 A3008 RMK AO2 SLP186 T01281017=
201110292052 METAR KATL 292052Z 33017G24KT 10SM CLR 14/M03 A3007 RMK AO2 PK WND 35027/2001 SLP182 T01391028 55002=
201110291952 METAR KATL 291952Z 35019G27KT 10SM CLR 15/M02 A3006 RMK AO2 PK WND 34027/1945 SLP179 T01501022=
201110291852 METAR KATL 291852Z 34015G21KT 10SM CLR 15/M01 A3006 RMK AO2 SLP179 T01501006=
201110291752 METAR KATL 291752Z 32016G23KT 10SM CLR 13/M01 A3007 RMK AO2 SLP184 T01331011 10139 20061 58003=
201110291652 METAR KATL 291652Z 36017G24KT 10SM CLR 12/M01 A3010 RMK AO2 SLP192 T01221006=
201110291552 METAR KATL 291552Z 35015G20KT 10SM CLR 11/00 A3010 RMK AO2 SLP193 T01110000=
201110291452 METAR KATL 291452Z 34012KT 10SM FEW020 09/02 A3008 RMK AO2 SLP188 T00940017 51018=
201110291352 METAR KATL 291352Z 33013KT 10SM FEW020 08/03 A3007 RMK AO2 SLP184 T00780028=
201110291252 METAR KATL 291252Z 34011KT 10SM FEW016 07/03 A3005 RMK AO2 PK WND 36026/1153 SLP176 T00670028=
201110291225 SPECI KATL 291225Z 34010G18KT 10SM FEW016 06/03 A3003 RMK AO2 PK WND 36026/1153=
201110291225 SPECI KATL 291225Z 34010G18KT 10SM FEW016 06/03 A3003 RMK AO2 PK WND 36026/1153=
201110291152 METAR KATL 291152Z 35010G22KT 10SM FEW010 BKN014 BKN020 07/03 A3003 RMK AO2 SLP169 60001 70027 T00670033 10094 20067 51004=
201110291052 METAR KATL 291052Z 33011KT 10SM SCT008 BKN012 OVC020 07/04 A3003 RMK AO2 SLP167 T00670044=
201110291002 SPECI KATL 291002Z 34010KT 10SM BKN008 OVC012 07/05 A3002 RMK AO2=
201110291002 SPECI KATL 291002Z 34010KT 10SM BKN008 OVC012 07/05 A3002 RMK AO2=
201110290952 METAR KATL 290952Z 33012KT 10SM BKN010 OVC015 07/05 A3003 RMK AO2 SLP167 T00720050=
201110290939 SPECI KATL 290939Z 33013G20KT 10SM FEW006 OVC010 07/05 A3002 RMK AO2=
201110290939 SPECI KATL 290939Z 33013G20KT 10SM FEW006 OVC010 07/05 A3002 RMK AO2=
201110290852 METAR KATL 290852Z 32015G20KT 5SM BR BKN006 OVC011 07/06 A3002 RMK AO2 SLP162 60001 T00720056 53011=
201110290752 METAR KATL 290752Z 34011KT 6SM BR BKN005 OVC010 08/07 A2999 RMK AO2 DZE43 SLP153 P0000 T00780067=
201110290652 METAR KATL 290652Z 33011KT 4SM -DZ BR OVC005 08/07 A3000 RMK AO2 DZE15B42RAB15E35 SLP156 P0001 T00830072=
201110290552 METAR KATL 290552Z 34011KT 4SM -DZ BR OVC005 09/08 A2998 RMK AO2 RAE47DZB47 SLP150 P0000 60024 T00940078 10161 20094 53007=
201110290452 METAR KATL 290452Z 33008KT 8SM -RA OVC005 10/08 A2997 RMK AO2 SLP144 P0004 T01000083 402330100=
201110290352 METAR KATL 290352Z 33010KT 6SM -RA BR OVC005 11/09 A2997 RMK AO2 SLP145 P0001 T01060094=
201110290252 METAR KATL 290252Z 34008KT 8SM -RA OVC005 11/10 A2996 RMK AO2 RAB22 SLP144 P0002 60019 T01110100 51014=
201110290152 METAR KATL 290152Z 33011KT 10SM BKN005 OVC015 12/11 A2996 RMK AO2 RAE46 SLP143 P0004 T01170106=
201110290136 SPECI KATL 290136Z 33011KT 9SM -RA BKN005 OVC015 12/11 A2995 RMK AO2 P0004=
201110290136 SPECI KATL 290136Z 33011KT 9SM -RA BKN005 OVC015 12/11 A2995 RMK AO2 P0004=
201110290052 METAR KATL 290052Z 02008KT 10SM -RA FEW008 BKN016 OVC025 14/12 A2995 RMK AO2 SLP139 P0013 T01440122=
201110290017 SPECI KATL 290017Z 36010KT 5SM -RA BR SCT014 BKN026 OVC070 15/13 A2994 RMK AO2 P0011=
201110290017 SPECI KATL 290017Z 36010KT 5SM -RA BR SCT014 BKN026 OVC070 15/13 A2994 RMK AO2 P0011=
201110290002 SPECI KATL 290002Z 36009KT 2SM R09R/5000VP6000FT +RA BR FEW008 BKN014 OVC025 16/13 A2995 RMK AO2 PRESRR P0005=
201110290002 SPECI KATL 290002Z 36009KT 2SM R09R/5000VP6000FT +RA BR FEW008 BKN014 OVC025 16/13 A2995 RMK AO2 PRESRR P0005=
201110282352 METAR KATL 282352Z 03010KT 5SM -RA BR BKN017 BKN025 OVC045 16/14 A2992 RMK AO2 RAB05 SLP130 P0002 60002 T01610139 10233 20161 52012=
201110282301 SPECI KATL 282301Z 26003G16KT 10SM BKN024 BKN045 OVC070 19/13 A2992 RMK AO2=
201110282301 SPECI KATL 282301Z 26003G16KT 10SM BKN024 BKN045 OVC070 19/13 A2992 RMK AO2=
201110282252 METAR KATL 282252Z 30007KT 10SM FEW027 BKN045 OVC070 19/13 A2991 RMK AO2 SLP126 T01890133=
201110282152 METAR KATL 282152Z 31006KT 10SM FEW030 SCT050 OVC070 20/13 A2990 RMK AO2 SLP120 T02000128=
201110282052 METAR KATL 282052Z 30006KT 10SM FEW030 BKN060 OVC080 21/12 A2989 RMK AO2 SLP116 SHRA DSNT NW T02110122 56009=
201110281952 METAR KATL 281952Z 24003KT 10SM FEW050 BKN060 OVC090 22/11 A2989 RMK AO2 SLP116 SHRA DSNT N-NE & SW T02220111=
201110281852 METAR KATL 281852Z 26006KT 10SM BKN050 BKN070 OVC110 23/11 A2989 RMK AO2 SLP117 BINOVC SE T02280111=
201110281752 METAR KATL 281752Z VRB03KT 10SM FEW040 SCT050 BKN110 23/12 A2991 RMK AO2 SLP124 ACC ALQDS T02330117 10233 20111 58023=
201110281652 METAR KATL 281652Z 13006KT 10SM BKN045 BKN060 BKN070 22/13 A2995 RMK AO2 SLP137 ACC N-NE-E-SE T02170128=
201110281552 METAR KATL 281552Z 13005KT 10SM FEW040 BKN075 BKN250 19/12 A2997 RMK AO2 SLP145 ACC OHD-E-SE-S-SW T01940122=
201110281452 METAR KATL 281452Z 08004KT 10SM FEW065 BKN080 17/12 A2998 RMK AO2 SLP148 T01720117 51007=
201110281352 METAR KATL 281352Z 00000KT 10SM SCT070 BKN090 15/11 A2998 RMK AO2 SLP149 ACC NW-N T01500111=
201110281252 METAR KATL 281252Z 33004KT 10SM BKN075 12/10 A2998 RMK AO2 SLP147 T01220100=
201110281152 METAR KATL 281152Z 30004KT 9SM SCT080 11/09 A2996 RMK AO2 SLP143 T01110094 10139 20111 51010=
201110281052 METAR KATL 281052Z COR 36003KT 10SM FEW010 SCT070 12/09 A2995 RMK AO2 SLP138 T01170094=
201110280952 METAR KATL 280952Z 33003KT 10SM FEW010 12/09 A2994 RMK AO2 SLP135 T01170094=
201110280852 METAR KATL 280852Z 33004KT 10SM FEW010 12/09 A2993 RMK AO2 SLP130 T01170094 58001=
201110280752 METAR KATL 280752Z 32007KT 10SM CLR 13/10 A2994 RMK AO2 SLP132 T01280100=
201110280652 METAR KATL 280652Z 33007KT 10SM CLR 13/10 A2994 RMK AO2 SLP131 T01330100=
201110280552 METAR KATL 280552Z 32006KT 10SM CLR 14/11 A2993 RMK AO2 SLP129 T01390106 10200 20139 50001=
201110280452 METAR KATL 280452Z 33009KT 10SM FEW045 16/11 A2994 RMK AO2 SLP131 T01560111 402610122=
201110280352 METAR KATL 280352Z 30007KT 10SM FEW045 17/13 A2994 RMK AO2 SLP131 T01670128=
201110280252 METAR KATL 280252Z 30007KT 10SM SCT045 18/12 A2993 RMK AO2 SLP128 T01780117 51008=
201110280152 METAR KATL 280152Z 24004KT 10SM BKN050 BKN075 18/12 A2993 RMK AO2 SLP129 T01830117=
201110280052 METAR KATL 280052Z 24003KT 10SM FEW075 19/12 A2991 RMK AO2 SLP126 T01940117=
201110272352 METAR KATL 272352Z 26003KT 10SM FEW075 20/11 A2990 RMK AO2 SLP122 T02000111 10261 20200 53007=
201110272252 METAR KATL 272252Z 27004KT 10SM FEW055 22/11 A2989 RMK AO2 SLP117 T02170106=
201110272152 METAR KATL 272152Z 24006KT 10SM FEW055 24/11 A2988 RMK AO2 SLP113 T02390106=
201110272052 METAR KATL 272052Z 29008KT 10SM FEW055 24/11 A2988 RMK AO2 SLP113 T02390106 56009=
201110271952 METAR KATL 271952Z 31007KT 10SM FEW060 SCT070 24/11 A2989 RMK AO2 SLP116 T02440106=
201110271852 METAR KATL 271852Z 27006G17KT 10SM BKN060 25/09 A2989 RMK AO2 SLP115 T02500089=
201110271752 METAR KATL 271752Z 26009KT 10SM SCT050 24/11 A2991 RMK AO2 SLP122 T02440106 10250 20122 58015=
201110271652 METAR KATL 271652Z 27013G22KT 10SM FEW050 SCT070 24/09 A2994 RMK AO2 SLP131 T02390094=
201110271552 METAR KATL 271552Z 26014G20KT 10SM FEW040 23/11 A2995 RMK AO2 SLP136 T02280106=
201110271452 METAR KATL 271452Z 24008KT 10SM CLR 21/12 A2996 RMK AO2 SLP138 T02110122 58001=
201110271352 METAR KATL 271352Z 24005KT 10SM CLR 17/12 A2996 RMK AO2 SLP141 T01720117=
201110271252 METAR KATL 271252Z 23003KT 10SM FEW047 14/11 A2996 RMK AO2 SLP142 T01390106=
201110271152 METAR KATL 271152Z 23004KT 10SM SCT047 13/10 A2996 RMK AO2 SLP142 T01280100 10150 20122 53001=
201110271052 METAR KATL 271052Z 24003KT 10SM BKN047 13/09 A2995 RMK AO2 SLP138 T01280094=
201110270952 METAR KATL 270952Z 24004KT 10SM FEW047 13/09 A2995 RMK AO2 SLP137 T01280089=
201110270852 METAR KATL 270852Z 23003KT 10SM FEW060 13/09 A2996 RMK AO2 SLP139 T01280089 58011=
201110270752 METAR KATL 270752Z 22004KT 10SM FEW250 13/09 A2997 RMK AO2 SLP142 T01280089=
201110270652 METAR KATL 270652Z 20003KT 10SM FEW250 14/09 A2998 RMK AO2 SLP146 T01390089=
201110270552 METAR KATL 270552Z 23003KT 10SM SCT250 14/09 A2999 RMK AO2 SLP149 T01440089 10189 20139 58003=
201110270452 METAR KATL 270452Z 22004KT 10SM BKN250 14/09 A2999 RMK AO2 SLP152 T01440089 402500111=
201110270352 METAR KATL 270352Z 00000KT 10SM BKN250 16/08 A3000 RMK AO2 SLP152 T01560083=
201110270252 METAR KATL 270252Z 23003KT 10SM BKN250 16/08 A3000 RMK AO2 SLP154 T01610083 53002=
201110270152 METAR KATL 270152Z 22004KT 10SM BKN250 17/08 A3000 RMK AO2 SLP155 T01670083=
201110270052 METAR KATL 270052Z 21004KT 10SM SCT250 17/08 A3000 RMK AO2 SLP155 T01720083=
201110262352 METAR KATL 262352Z 22005KT 10SM SCT250 19/08 A2999 RMK AO2 SLP155 T01890078 10250 20189 55003=
201110262252 METAR KATL 262252Z 21006KT 10SM FEW250 21/07 A2999 RMK AO2 SLP153 T02060067=
201110262152 METAR KATL 262152Z 23008KT 10SM FEW250 23/06 A3000 RMK AO2 SLP154 T02330056=
201110262052 METAR KATL 262052Z 22010KT 10SM FEW250 24/05 A3000 RMK AO2 SLP155 T02390050 56026=
201110261952 METAR KATL 261952Z 24007G15KT 10SM FEW250 24/05 A3002 RMK AO2 SLP161 T02440050=
201110261852 METAR KATL 261852Z 26008KT 10SM FEW250 24/04 A3005 RMK AO2 SLP170 T02440044=
201110261752 METAR KATL 261752Z 25009G15KT 220V280 10SM FEW250 24/05 A3008 RMK AO2 SLP182 T02440050 10244 20117 58021=
201110261652 METAR KATL 261652Z 27008G18KT 10SM FEW250 23/06 A3011 RMK AO2 SLP192 T02330056=
201110261552 METAR KATL 261552Z 25006KT 10SM FEW250 22/08 A3014 RMK AO2 SLP201 T02220078=
201110261452 METAR KATL 261452Z 21005KT 10SM FEW250 19/08 A3015 RMK AO2 SLP205 T01890083 50006=
201110261352 METAR KATL 261352Z 22006KT 10SM FEW250 16/07 A3015 RMK AO2 SLP207 T01610072=
201110261252 METAR KATL 261252Z 22005KT 10SM CLR 13/07 A3014 RMK AO2 SLP205 T01280072=
201110261152 METAR KATL 261152Z 22003KT 10SM CLR 12/06 A3013 RMK AO2 SLP201 T01170061 10133 20111 51005=
201110261052 METAR KATL 261052Z 00000KT 10SM CLR 12/07 A3013 RMK AO2 SLP199 T01170067=
201110260952 METAR KATL 260952Z 21003KT 10SM CLR 12/07 A3012 RMK AO2 SLP196 T01220067=
201110260852 METAR KATL 260852Z 22003KT 10SM CLR 13/07 A3011 RMK AO2 SLP192 T01280067 55011=
201110260752 METAR KATL 260752Z 00000KT 10SM CLR 12/08 A3011 RMK AO2 SLP193 T01170078=
201110260652 METAR KATL 260652Z 00000KT 10SM CLR 13/08 A3013 RMK AO2 SLP198 T01280078=
201110260552 METAR KATL 260552Z 00000KT 10SM CLR 13/08 A3015 RMK AO2 SLP203 T01330078 10194 20133 58011=
201110260452 METAR KATL 260452Z 00000KT 10SM CLR 14/08 A3016 RMK AO2 SLP209 T01440078 402440106=
201110260352 METAR KATL 260352Z 00000KT 10SM CLR 15/08 A3018 RMK AO2 SLP213 T01500078=
201110260252 METAR KATL 260252Z 21003KT 10SM CLR 16/08 A3018 RMK AO2 SLP215 T01560078 53009=
201110260152 METAR KATL 260152Z 16003KT 10SM CLR 17/07 A3016 RMK AO2 SLP210 T01720072=
201110260052 METAR KATL 260052Z 15004KT 10SM CLR 18/07 A3016 RMK AO2 SLP209 T01830072=
201110252352 METAR KATL 252352Z 15003KT 10SM CLR 19/07 A3015 RMK AO2 SLP208 T01940072 10244 20194 58002=
201110252252 METAR KATL 252252Z 14004KT 10SM CLR 22/06 A3016 RMK AO2 SLP210 T02170061=
201110252152 METAR KATL 252152Z 17005KT 10SM CLR 23/05 A3015 RMK AO2 SLP207 T02330050=
201110252052 METAR KATL 252052Z 18007KT 10SM CLR 24/05 A3016 RMK AO2 SLP209 T02390050 56019=
201110251952 METAR KATL 251952Z 16005KT 10SM CLR 23/06 A3018 RMK AO2 SLP214 T02330061=
201110251852 METAR KATL 251852Z 13007KT 10SM CLR 24/06 A3019 RMK AO2 SLP218 T02390061=
201110251752 METAR KATL 251752Z 16005KT 10SM CLR 23/07 A3022 RMK AO2 SLP228 T02280067 10228 20111 58014=
201110251652 METAR KATL 251652Z 13007KT 10SM CLR 22/07 A3024 RMK AO2 SLP235 T02170067=
201110251552 METAR KATL 251552Z 11006KT 10SM CLR 21/08 A3025 RMK AO2 SLP240 T02110078=
201110251452 METAR KATL 251452Z 09006KT 10SM CLR 19/09 A3026 RMK AO2 SLP243 T01940089 50012=
201110251352 METAR KATL 251352Z 00000KT 10SM CLR 17/09 A3026 RMK AO2 SLP244 T01720089=
201110251252 METAR KATL 251252Z 02003KT 10SM CLR 15/08 A3024 RMK AO2 SLP239 T01500083=
201110251152 METAR KATL 251152Z 33004KT 10SM CLR 12/08 A3022 RMK AO2 SLP233 T01170078 10128 20106 53011=
201110251052 METAR KATL 251052Z 34005KT 10SM CLR 11/07 A3021 RMK AO2 SLP228 T01060072=
201110250952 METAR KATL 250952Z 33005KT 10SM CLR 12/08 A3019 RMK AO2 SLP220 T01170078 $=
201110250852 METAR KATL 250852Z 33006KT 10SM CLR 12/08 A3019 RMK AO2 SLP219 T01170078 58002 $=
201110250752 METAR KATL 250752Z 33006KT 10SM CLR 12/08 A3019 RMK AO2 SLP221 T01170078 $=
201110250652 METAR KATL 250652Z 31006KT 10SM CLR 12/08 A3019 RMK AO2 SLP221 T01220083 $=
201110250552 METAR KATL 250552Z 32006KT 10SM CLR 13/08 A3020 RMK AO2 SLP222 T01280083 10178 20128 58000 $=
201110250452 METAR KATL 250452Z 30006KT 10SM CLR 13/08 A3020 RMK AO2 SLP225 T01330083 402280128=
201110250352 METAR KATL 250352Z 31008KT 10SM CLR 16/09 A3020 RMK AO2 SLP223 T01560089=
201110250252 METAR KATL 250252Z 28004KT 10SM CLR 16/08 A3020 RMK AO2 SLP222 T01610083 53016=
201110250152 METAR KATL 250152Z 30005KT 10SM CLR 16/08 A3018 RMK AO2 SLP216 T01560078=
201110250052 METAR KATL 250052Z 32006KT 10SM CLR 17/08 A3016 RMK AO2 SLP212 T01670078=
201110242352 METAR KATL 242352Z 32006KT 10SM CLR 18/07 A3015 RMK AO2 SLP207 T01780072 10228 20178 53008=
201110242252 METAR KATL 242252Z AUTO 32007KT 10SM CLR 19/07 A3014 RMK AO2 SLP202 T01940072 TSNO=
201110242152 METAR KATL 242152Z 34007KT 10SM CLR 22/07 A3012 RMK AO2 SLP197 T02220067=
201110242052 METAR KATL 242052Z 35010KT 10SM CLR 23/07 A3013 RMK AO2 SLP197 T02280067 55004=
201110241952 METAR KATL 241952Z 35007KT 10SM CLR 22/07 A3012 RMK AO2 SLP197 T02220072=
201110241852 METAR KATL 241852Z 32009KT 10SM FEW050 22/08 A3013 RMK AO2 SLP198 T02220078=
201110241752 METAR KATL 241752Z 31006KT 10SM FEW050 21/08 A3014 RMK AO2 SLP202 T02110078 10217 20128 58009=
201110241652 METAR KATL 241652Z VRB06KT 10SM FEW050 20/08 A3016 RMK AO2 SLP209 T02000083=
201110241552 METAR KATL 241552Z 33006KT 10SM FEW050 19/09 A3017 RMK AO2 SLP213 T01940089=
201110241452 METAR KATL 241452Z 31007KT 10SM FEW050 18/08 A3017 RMK AO2 SLP212 T01830083 51012=
201110241352 METAR KATL 241352Z 34005KT 10SM FEW040 SCT070 17/08 A3016 RMK AO2 SLP211 T01720083=
201110241252 METAR KATL 241252Z 33005KT 10SM SCT044 BKN070 14/09 A3015 RMK AO2 SLP208 T01390089=
201110241152 METAR KATL 241152Z 33003KT 10SM BKN050 BKN070 14/08 A3013 RMK AO2 SLP201 60003 70003 T01390083 10150 20128 53009=
201110241052 METAR KATL 241052Z 33004KT 10SM BKN050 OVC070 13/10 A3012 RMK AO2 SLP198 T01280100=
201110240952 METAR KATL 240952Z 33004KT 10SM BKN060 BKN070 OVC090 13/10 A3010 RMK AO2 SLP191 T01330100=
201110240852 METAR KATL 240852Z 34004KT 10SM SCT065 BKN080 OVC100 13/10 A3010 RMK AO2 RAB04E21B37E47 SLP189 P0001 60003 T01330100 58006=
201110240752 METAR KATL 240752Z 00000KT 10SM OVC075 13/11 A3011 RMK AO2 RAE0659 SLP191 P0000 T01280106=
201110240652 METAR KATL 240652Z 32004KT 9SM -RA OVC070 13/09 A3012 RMK AO2 RAB05 SLP197 P0002 T01280094=
201110240552 METAR KATL 240552Z 00000KT 10SM BKN085 OVC100 14/07 A3012 RMK AO2 SLP195 T01440072 10172 20139 51007=
201110240452 METAR KATL 240452Z 00000KT 10SM OVC100 14/07 A3012 RMK AO2 SLP195 T01440072 402110067=
201110240352 METAR KATL 240352Z 00000KT 10SM BKN130 OVC250 14/07 A3011 RMK AO2 SLP193 T01440072=
201110240252 METAR KATL 240252Z 00000KT 10SM BKN150 BKN250 16/06 A3010 RMK AO2 SLP189 T01560061 53003=
201110240152 METAR KATL 240152Z 17003KT 10SM BKN150 BKN250 16/06 A3010 RMK AO2 SLP189 T01560061=
201110240052 METAR KATL 240052Z 14003KT 10SM FEW150 BKN250 17/07 A3009 RMK AO2 SLP188 T01670067=
201110232352 METAR KATL 232352Z 00000KT 10SM FEW150 BKN250 17/06 A3009 RMK AO2 SLP188 T01720061 10211 20167 53008=
201110232252 METAR KATL 232252Z 28003KT 10SM FEW150 BKN250 18/05 A3008 RMK AO2 SLP185 T01830050=
201110232152 METAR KATL 232152Z 00000KT 10SM FEW150 BKN250 19/04 A3006 RMK AO2 SLP179 T01940044=
201110232052 METAR KATL 232052Z 00000KT 10SM BKN250 21/05 A3006 RMK AO2 SLP178 T02110050 56011=
201110231952 METAR KATL 231952Z 11006KT 10SM BKN250 21/04 A3007 RMK AO2 SLP180 T02060044=
201110231852 METAR KATL 231852Z 17007KT 10SM FEW200 BKN250 19/04 A3007 RMK AO2 SLP181 T01940044=
201110231752 METAR KATL 231752Z 17004KT 10SM FEW200 SCT250 19/04 A3010 RMK AO2 SLP189 T01940044 10200 20067 58020=
201110231652 METAR KATL 231652Z 00000KT 10SM FEW250 18/05 A3012 RMK AO2 SLP199 T01830050=
201110231552 METAR KATL 231552Z 14005KT 10SM FEW250 17/06 A3015 RMK AO2 SLP207 T01720056=
201110231452 METAR KATL 231452Z 00000KT 10SM FEW250 16/06 A3016 RMK AO2 SLP210 T01610056 51016=
201110231352 METAR KATL 231352Z 00000KT 10SM FEW250 14/06 A3014 RMK AO2 SLP206 T01390061=
201110231252 METAR KATL 231252Z 00000KT 10SM CLR 09/06 A3013 RMK AO2 SLP204 T00940056=
201110231152 METAR KATL 231152Z 00000KT 10SM CLR 07/04 A3011 RMK AO2 SLP196 T00720039 10100 20067 51010=
201110231052 METAR KATL 231052Z 34003KT 10SM CLR 07/04 A3010 RMK AO2 SLP193 T00720039=
201110230952 METAR KATL 230952Z 00000KT 10SM CLR 07/04 A3008 RMK AO2 SLP187 T00670039=
201110230852 METAR KATL 230852Z 31004KT 10SM CLR 07/04 A3008 RMK AO2 SLP184 T00720039 56005=
201110230752 METAR KATL 230752Z 00000KT 10SM CLR 09/04 A3008 RMK AO2 SLP184 T00890044=
201110230652 METAR KATL 230652Z 00000KT 10SM CLR 09/04 A3008 RMK AO2 SLP182 T00890044=
201110230552 METAR KATL 230552Z 00000KT 10SM CLR 09/05 A3009 RMK AO2 SLP189 T00890050 10161 20083 56004=
201110230452 METAR KATL 230452Z 00000KT 10SM CLR 11/04 A3010 RMK AO2 SLP191 T01060044 402000050=
201110230352 METAR KATL 230352Z 00000KT 10SM CLR 11/04 A3010 RMK AO2 SLP191 T01060044=
201110230252 METAR KATL 230252Z 00000KT 10SM CLR 12/03 A3011 RMK AO2 SLP194 T01220033 51003=
201110230152 METAR KATL 230152Z 34005KT 10SM CLR 13/03 A3010 RMK AO2 SLP193 T01330033=
201110230052 METAR KATL 230052Z 33006KT 10SM CLR 15/04 A3010 RMK AO2 SLP195 T01500039=
201110222352 METAR KATL 222352Z 34005KT 10SM CLR 16/03 A3010 RMK AO2 SLP192 T01610033 10200 20161 53004=
201110222252 METAR KATL 222252Z 34004KT 10SM CLR 17/02 A3008 RMK AO2 SLP188 T01720022=
201110222152 METAR KATL 222152Z 31005KT 10SM CLR 19/03 A3008 RMK AO2 SLP187 T01890028=
201110222052 METAR KATL 222052Z 30006KT 10SM CLR 19/03 A3008 RMK AO2 SLP186 T01890028 56012=
201110221952 METAR KATL 221952Z 28006KT 10SM CLR 19/03 A3009 RMK AO2 SLP189 T01940028=
201110221852 METAR KATL 221852Z VRB03KT 10SM CLR 19/03 A3010 RMK AO2 SLP192 T01940033=
201110221752 METAR KATL 221752Z VRB05KT 10SM CLR 18/03 A3012 RMK AO2 SLP199 T01830033 10183 20050 58017=
201110221652 METAR KATL 221652Z VRB05KT 10SM CLR 17/03 A3015 RMK AO2 SLP208 T01720033=
201110221552 METAR KATL 221552Z 11003KT 10SM FEW250 16/03 A3016 RMK AO2 SLP215 T01560028=
201110221452 METAR KATL 221452Z COR VRB06KT 10SM FEW200 14/03 A3017 RMK AO2 SLP217 T01390033 51009=
201110221352 METAR KATL 221352Z 34005KT 10SM FEW200 11/03 A3017 RMK AO2 SLP218 T01060033=
201110221252 METAR KATL 221252Z 34006KT 10SM CLR 07/03 A3016 RMK AO2 SLP217 T00720028=
201110221152 METAR KATL 221152Z 32006KT 10SM CLR 05/02 A3014 RMK AO2 SLP210 T00500022 10072 20050 51016=
201110221052 METAR KATL 221052Z 34008KT 10SM CLR 05/02 A3013 RMK AO2 SLP204 T00500022=
201110220952 METAR KATL 220952Z 32003KT 10SM CLR 05/02 A3012 RMK AO2 SLP199 T00500022=
201110220852 METAR KATL 220852Z 32007KT 10SM CLR 06/02 A3010 RMK AO2 SLP192 T00560022 56006=
201110220752 METAR KATL 220752Z 31007KT 10SM CLR 06/03 A3010 RMK AO2 SLP194 T00610028=
201110220652 METAR KATL 220652Z 30006KT 10SM CLR 06/03 A3011 RMK AO2 SLP196 T00610028=
201110220552 METAR KATL 220552Z 29004KT 10SM CLR 07/03 A3011 RMK AO2 SLP198 T00670028 10122 20067 57005=
201110220452 METAR KATL 220452Z 28005KT 10SM CLR 07/03 A3012 RMK AO2 SLP199 T00670028 401720039=
201110220352 METAR KATL 220352Z 29007KT 10SM CLR 07/03 A3013 RMK AO2 SLP202 T00720028=
201110220252 METAR KATL 220252Z 29004KT 10SM CLR 09/03 A3013 RMK AO2 SLP203 T00890028 53006=
201110220152 METAR KATL 220152Z 31006KT 10SM CLR 09/03 A3012 RMK AO2 SLP202 T00940033=
201110220052 METAR KATL 220052Z 30006KT 10SM CLR 11/03 A3012 RMK AO2 SLP201 T01060028=
201110212352 METAR KATL 212352Z 27004KT 10SM CLR 13/02 A3011 RMK AO2 SLP199 T01280022 10172 20122 53005=
201110212252 METAR KATL 212252Z 30007KT 10SM CLR 14/02 A3010 RMK AO2 SLP195 T01390017=
201110212152 METAR KATL 212152Z 32011KT 10SM CLR 16/02 A3010 RMK AO2 SLP192 T01610017=
201110212052 METAR KATL 212052Z 31010KT 10SM FEW055 17/01 A3010 RMK AO2 SLP192 T01670011 55006=
201110211952 METAR KATL 211952Z 32012KT 10SM CLR 17/00 A3009 RMK AO2 SLP190 T01670000=
201110211852 METAR KATL 211852Z 28013KT 10SM CLR 17/01 A3010 RMK AO2 SLP193 T01670006=
201110211752 METAR KATL 211752Z 30009G20KT 10SM FEW055 16/01 A3011 RMK AO2 SLP199 T01610006 10161 20039 58015=
201110211652 METAR KATL 211652Z 30011KT 10SM FEW050 15/01 A3014 RMK AO2 SLP207 T01500006=
201110211552 METAR KATL 211552Z 30011KT 10SM FEW040 14/02 A3015 RMK AO2 SLP212 T01390017=
201110211452 METAR KATL 211452Z 30007KT 10SM CLR 12/03 A3016 RMK AO2 SLP215 T01220033 51015=
201110211352 METAR KATL 211352Z 30007KT 10SM CLR 09/03 A3015 RMK AO2 SLP212 T00940033=
201110211252 METAR KATL 211252Z 29006KT 10SM CLR 07/03 A3014 RMK AO2 SLP209 T00670028=
201110211152 METAR KATL 211152Z 28005KT 10SM CLR 04/02 A3011 RMK AO2 SLP201 T00390017 10067 20039 51010=
201110211052 METAR KATL 211052Z 30006KT 10SM CLR 04/02 A3010 RMK AO2 SLP198 T00440017=
201110210952 METAR KATL 210952Z 29005KT 10SM CLR 04/02 A3009 RMK AO2 SLP193 T00440017=
201110210852 METAR KATL 210852Z 29007KT 10SM CLR 05/02 A3008 RMK AO2 SLP188 T00500022 53003=
201110210752 METAR KATL 210752Z 28005KT 10SM CLR 06/02 A3007 RMK AO2 SLP186 T00560022=
201110210652 METAR KATL 210652Z 27005KT 10SM CLR 06/02 A3008 RMK AO2 SLP186 T00610022=
201110210552 METAR KATL 210552Z 28005KT 10SM CLR 06/02 A3007 RMK AO2 SLP185 T00610022 10100 20061 53007=
201110210452 METAR KATL 210452Z 28007KT 10SM CLR 07/03 A3006 RMK AO2 SLP181 T00720028 401500067=
201110210352 METAR KATL 210352Z 26006KT 10SM CLR 07/03 A3006 RMK AO2 SLP181 T00720028=
201110210252 METAR KATL 210252Z 27005KT 10SM CLR 08/03 A3005 RMK AO2 SLP179 T00780028 53015=
201110210152 METAR KATL 210152Z 27006KT 10SM CLR 08/03 A3003 RMK AO2 SLP173 T00830028=
201110210052 METAR KATL 210052Z 27006KT 10SM CLR 09/03 A3002 RMK AO2 SLP168 T00890028=
201110202352 METAR KATL 202352Z 27005KT 10SM FEW045 10/03 A3001 RMK AO2 SLP163 T01000028 10150 20100 53017=
201110202252 METAR KATL 202252Z 27007KT 10SM FEW045 11/02 A2998 RMK AO2 SLP153 T01110022=
201110202152 METAR KATL 202152Z 29009KT 10SM FEW045 13/02 A2996 RMK AO2 SLP147 T01280017=
201110202052 METAR KATL 202052Z 29012KT 10SM BKN045 13/02 A2995 RMK AO2 SLP144 T01330017 53004=
201110201952 METAR KATL 201952Z 29010KT 10SM BKN044 13/02 A2994 RMK AO2 SLP139 T01330022=
201110201852 METAR KATL 201852Z 30014KT 10SM BKN044 13/01 A2993 RMK AO2 SLP137 T01280011=
201110201752 METAR KATL 201752Z 32010KT 10SM BKN044 13/02 A2994 RMK AO2 SLP139 T01330017 10133 20072 58003=
201110201652 METAR KATL 201652Z 28011G17KT 10SM BKN040 13/02 A2995 RMK AO2 SLP141 T01280017=
201110201552 METAR KATL 201552Z 26012G18KT 10SM SCT037 12/01 A2995 RMK AO2 SLP142 T01170011=
201110201452 METAR KATL 201452Z 27014G21KT 10SM SCT030 SCT040 10/01 A2995 RMK AO2 SLP143 T01000011 51031=
201110201352 METAR KATL 201352Z 28010G20KT 10SM BKN025 BKN030 09/02 A2992 RMK AO2 SLP136 T00890022 $=
201110201252 METAR KATL 201252Z 27010G18KT 10SM SCT030 08/02 A2989 RMK AO2 SLP122 T00780022=
201110201152 METAR KATL 201152Z 27012G18KT 10SM FEW027 SCT035 07/03 A2986 RMK AO2 SLP112 T00720028 10078 20067 53018=
201110201052 METAR KATL 201052Z 27010KT 10SM FEW028 OVC034 08/03 A2983 RMK AO2 SLP103 T00780033=
201110200952 METAR KATL 200952Z 27011KT 10SM FEW022 BKN032 08/04 A2982 RMK AO2 SLP100 T00780039=
201110200859 SPECI KATL 200859Z 27013G19KT 10SM OVC030 08/04 A2981 RMK AO2=
201110200859 SPECI KATL 200859Z 27013G19KT 10SM OVC030 08/04 A2981 RMK AO2=
201110200852 METAR KATL 200852Z 27010G20KT 10SM OVC028 08/04 A2980 RMK AO2 SLP093 T00780039 53005=
201110200833 SPECI KATL 200833Z 28013G17KT 10SM BKN023 BKN030 07/04 A2980 RMK AO2=
201110200833 SPECI KATL 200833Z 28013G17KT 10SM BKN023 BKN030 07/04 A2980 RMK AO2=
201110200752 METAR KATL 200752Z 28012G18KT 10SM FEW012 BKN035 07/04 A2979 RMK AO2 SLP090 T00720044=
201110200726 SPECI KATL 200726Z 27011KT 10SM SCT012 BKN035 07/04 A2979 RMK AO2 BKN012 V SCT=
201110200726 SPECI KATL 200726Z 27011KT 10SM SCT012 BKN035 07/04 A2979 RMK AO2 BKN012 V SCT=
201110200702 SPECI KATL 200702Z 28013G20KT 10SM BKN012 BKN035 07/04 A2978 RMK AO2 BKN012 V SCT=
201110200702 SPECI KATL 200702Z 28013G20KT 10SM BKN012 BKN035 07/04 A2978 RMK AO2 BKN012 V SCT=
201110200652 METAR KATL 200652Z 27015G23KT 10SM SCT012 OVC035 07/05 A2979 RMK AO2 SLP088 SCT012 V BKN T00720050=
201110200622 SPECI KATL 200622Z 27011G20KT 10SM BKN012 OVC035 07/05 A2978 RMK AO2=
201110200622 SPECI KATL 200622Z 27011G20KT 10SM BKN012 OVC035 07/05 A2978 RMK AO2=
201110200552 METAR KATL 200552Z 28014G18KT 10SM FEW014 SCT020 OVC035 08/04 A2979 RMK AO2 SLP088 T00780044 10100 20078 53007=
201110200452 METAR KATL 200452Z 27009G19KT 10SM FEW018 SCT025 OVC035 08/04 A2978 RMK AO2 SLP085 T00830039 401940083=
201110200352 METAR KATL 200352Z 27013G21KT 10SM SCT027 OVC035 08/04 A2977 RMK AO2 SLP083 T00830039=
201110200252 METAR KATL 200252Z 28011G16KT 10SM BKN026 OVC040 08/03 A2977 RMK AO2 SLP081 T00830033 51019=
201110200245 SPECI KATL 200245Z 26009KT 10SM BKN026 OVC040 08/03 A2976 RMK AO2=
201110200245 SPECI KATL 200245Z 26009KT 10SM BKN026 OVC040 08/03 A2976 RMK AO2=
201110200152 METAR KATL 200152Z 29018KT 10SM SCT026 OVC035 09/03 A2975 RMK AO2 SLP074 T00890033=
201110200052 METAR KATL 200052Z 27010G19KT 10SM OVC028 09/03 A2973 RMK AO2 SLP069 T00940033=
201110192352 METAR KATL 192352Z 27012KT 10SM BKN033 OVC045 10/03 A2971 RMK AO2 SLP059 T01000028 10106 20094 53029=
201110192252 METAR KATL 192252Z 29012G23KT 10SM FEW035 BKN042 OVC050 10/03 A2968 RMK AO2 SLP049 T01000028=
201110192152 METAR KATL 192152Z 27011KT 10SM SCT038 OVC045 10/04 A2964 RMK AO2 SLP036 T01000044=
201110192052 METAR KATL 192052Z 28015G26KT 10SM FEW030 BKN040 OVC050 11/04 A2962 RMK AO2 PK WND 28026/2050 SLP027 T01060039 53018=
201110191952 METAR KATL 191952Z 29016G23KT 10SM FEW022 SCT025 OVC033 11/04 A2960 RMK AO2 PK WND 28026/1932 SLP019 BINOVC SE & NW T01060044=
201110191920 SPECI KATL 191920Z 28015G26KT 10SM SCT023 BKN030 OVC040 10/04 A2958 RMK AO2 PK WND 29026/1915=
201110191920 SPECI KATL 191920Z 28015G26KT 10SM SCT023 BKN030 OVC040 10/04 A2958 RMK AO2 PK WND 29026/1915=
201110191852 METAR KATL 191852Z 29014KT 10SM BKN020 BKN030 OVC040 10/04 A2957 RMK AO2 SLP011 T01000044=
201110191752 METAR KATL 191752Z 29013G21KT 10SM FEW014 BKN016 OVC020 09/06 A2956 RMK AO2 PK WND 28026/1701 SLP007 60000 T00940056 10111 20089 52005=
201110191723 SPECI KATL 191723Z 29014G24KT 10SM BKN014 BKN019 OVC040 09/06 A2956 RMK AO2 PK WND 28026/1701=
201110191723 SPECI KATL 191723Z 29014G24KT 10SM BKN014 BKN019 OVC040 09/06 A2956 RMK AO2 PK WND 28026/1701=
201110191652 METAR KATL 191652Z 28013G19KT 10SM BKN016 BKN020 OVC040 10/06 A2956 RMK AO2 SLP006 T01000061=
201110191633 SPECI KATL 191633Z 29017G23KT 10SM BKN016 BKN020 BKN040 11/07 A2955 RMK AO2=
201110191633 SPECI KATL 191633Z 29017G23KT 10SM BKN016 BKN020 BKN040 11/07 A2955 RMK AO2=
201110191552 METAR KATL 191552Z 29015G21KT 10SM BKN012 BKN015 OVC018 09/07 A2955 RMK AO2 SLP003 T00940067=
201110191452 METAR KATL 191452Z 30010G17KT 10SM FEW012 BKN014 OVC018 09/07 A2955 RMK AO2 SLP002 60000 T00940072 50018=
201110191427 SPECI KATL 191427Z 29014KT 8SM SCT008 BKN012 OVC014 09/07 A2955 RMK AO2=
201110191427 SPECI KATL 191427Z 29014KT 8SM SCT008 BKN012 OVC014 09/07 A2955 RMK AO2=
201110191352 METAR KATL 191352Z COR 28014G19KT 8SM BKN008 BKN012 OVC014 09/07 A2955 RMK AO2 SLP004 T00940072=
201110191307 SPECI KATL 191307Z 28013G19KT 10SM BKN008 BKN013 OVC018 10/08 A2954 RMK AO2=
201110191307 SPECI KATL 191307Z 28013G19KT 10SM BKN008 BKN013 OVC018 10/08 A2954 RMK AO2=
201110191252 METAR KATL 191252Z 29016G24KT 10SM BKN010 BKN013 OVC025 10/08 A2953 RMK AO2 RAE1158 SLP996 P0000 T01000083=
201110191243 SPECI KATL 191243Z 28015G22KT 10SM BKN010 OVC013 10/08 A2952 RMK AO2 RAE1158 CIG 008V012 P0000=
201110191243 SPECI KATL 191243Z 28015G22KT 10SM BKN010 OVC013 10/08 A2952 RMK AO2 RAE1158 CIG 008V012 P0000=
201110191223 SPECI KATL 191223Z 28010KT 10SM BKN008 OVC013 11/09 A2951 RMK AO2 RAE1158 P0000=
201110191223 SPECI KATL 191223Z 28010KT 10SM BKN008 OVC013 11/09 A2951 RMK AO2 RAE1158 P0000=
201110191217 SPECI KATL 191217Z 29011G21KT 10SM SCT008 BKN011 OVC060 11/09 A2950 RMK AO2 RAE1158 P0000=
201110191217 SPECI KATL 191217Z 29011G21KT 10SM SCT008 BKN011 OVC060 11/09 A2950 RMK AO2 RAE1158 P0000=
201110191207 SPECI KATL 191207Z 30017G21KT 10SM BKN008 OVC048 11/09 A2949 RMK AO2 RAE1158 P0000=
201110191207 SPECI KATL 191207Z 30017G21KT 10SM BKN008 OVC048 11/09 A2949 RMK AO2 RAE1158 P0000=
201110191152 METAR KATL 191152Z 30015KT 7SM -RA SCT008 BKN015 OVC050 11/09 A2949 RMK AO2 RAB14 SLP983 P0002 60031 70068 T01060094 10194 20106 50005=
201110191143 SPECI KATL 191143Z 31014KT 9SM -RA SCT008 OVC047 11/09 A2950 RMK AO2 RAB14 P0002=
201110191143 SPECI KATL 191143Z 31014KT 9SM -RA SCT008 OVC047 11/09 A2950 RMK AO2 RAB14 P0002=
201110191108 SPECI KATL 191108Z 30013KT 7SM BKN006 OVC015 12/10 A2949 RMK AO2=
201110191108 SPECI KATL 191108Z 30013KT 7SM BKN006 OVC015 12/10 A2949 RMK AO2=
201110191052 METAR KATL 191052Z 32013KT 1/4SM OVC004 12/11 A2949 RMK AO2 SFC VIS 10 SLP981 TWRINC T01220111=
201110191012 SPECI KATL 191012Z 29017G22KT 1/4SM BR OVC004 14/13 A2948 RMK AO2 SFC VIS 4 TWRINC=
201110191012 SPECI KATL 191012Z 29017G22KT 1/4SM BR OVC004 14/13 A2948 RMK AO2 SFC VIS 4 TWRINC=
201110190952 METAR KATL 190952Z 30011KT 9SM BKN004 OVC015 16/14 A2948 RMK AO2 RAE07 SLP975 P0001 T01560144=
201110190923 SPECI KATL 190923Z 30010KT 10SM OVC004 17/15 A2946 RMK AO2 RAE07 P0001=
201110190923 SPECI KATL 190923Z 30010KT 10SM OVC004 17/15 A2946 RMK AO2 RAE07 P0001=
201110190903 SPECI KATL 190903Z 31008KT 10SM -RA BKN006 OVC029 17/16 A2946 RMK AO2 P0001=
201110190903 SPECI KATL 190903Z 31008KT 10SM -RA BKN006 OVC029 17/16 A2946 RMK AO2 P0001=
201110190852 METAR KATL 190852Z 30010KT 5SM -RA BR SCT006 SCT015 OVC027 17/16 A2946 RMK AO2 WSHFT 0811 SLP970 P0027 60028 T01670156 56011=
201110190833 SPECI KATL 190833Z 31010G18KT 2 1/2SM +RA BR SCT004 BKN015 OVC023 17/16 A2946 RMK AO2 WSHFT 0811 P0015=
201110190833 SPECI KATL 190833Z 31010G18KT 2 1/2SM +RA BR SCT004 BKN015 OVC023 17/16 A2946 RMK AO2 WSHFT 0811 P0015=
201110190825 SPECI KATL 190825Z 29012KT 3SM -RA BR BKN004 BKN015 OVC025 17/16 A2946 RMK AO2 WSHFT 0811 P0011=
201110190825 SPECI KATL 190825Z 29012KT 3SM -RA BR BKN004 BKN015 OVC025 17/16 A2946 RMK AO2 WSHFT 0811 P0011=
201110190820 SPECI KATL 190820Z 30014G21KT 2SM R09R/6000VP6000FT +RA BR BKN004 BKN014 OVC025 17/16 A2946 RMK AO2 P0010=
201110190820 SPECI KATL 190820Z 30014G21KT 2SM R09R/6000VP6000FT +RA BR BKN004 BKN014 OVC025 17/16 A2946 RMK AO2 P0010=
201110190752 METAR KATL 190752Z 17003KT 6SM -RA BR BKN004 OVC010 19/18 A2946 RMK AO2 RAB35 SLP968 P0001 T01890178=
201110190747 SPECI KATL 190747Z 17004KT 6SM -RA BR OVC004 19/18 A2947 RMK AO2 RAB35 P0000=
201110190747 SPECI KATL 190747Z 17004KT 6SM -RA BR OVC004 19/18 A2947 RMK AO2 RAB35 P0000=
201110190652 METAR KATL 190652Z 16005KT 10SM BKN006 OVC013 19/18 A2949 RMK AO2 SLP978 T01890178=
201110190626 SPECI KATL 190626Z 15005KT 6SM BR OVC006 19/18 A2951 RMK AO2=
201110190626 SPECI KATL 190626Z 15005KT 6SM BR OVC006 19/18 A2951 RMK AO2=
201110190612 SPECI KATL 190612Z 14005KT 5SM BR OVC004 19/18 A2952 RMK AO2=
201110190612 SPECI KATL 190612Z 14005KT 5SM BR OVC004 19/18 A2952 RMK AO2=
201110190603 SPECI KATL 190603Z 15005KT 2 1/2SM BR OVC004 19/18 A2952 RMK AO2=
201110190603 SPECI KATL 190603Z 15005KT 2 1/2SM BR OVC004 19/18 A2952 RMK AO2=
201110190552 METAR KATL 190552Z 13004KT 6SM BR OVC006 19/18 A2952 RMK AO2 SLP986 T01940178 10200 20194 56024=
201110190452 METAR KATL 190452Z 13004KT 10SM BKN006 BKN012 OVC020 19/18 A2954 RMK AO2 SLP995 T01940178 402670144=
201110190352 METAR KATL 190352Z 14006KT 9SM BKN005 OVC020 19/18 A2957 RMK AO2 SLP004 CIG 004V007 T01940178=
201110190348 SPECI KATL 190348Z 13005KT 9SM BKN005 OVC020 19/18 A2957 RMK AO2 CIG 004V007=
201110190348 SPECI KATL 190348Z 13005KT 9SM BKN005 OVC020 19/18 A2957 RMK AO2 CIG 004V007=
201110190252 METAR KATL 190252Z 14005KT 1SM OVC004 19/18 A2959 RMK AO2 SFC VIS 9 SLP013 CIG 003V006 T01940183 56017=
201110190214 SPECI KATL 190214Z 12005KT 1SM OVC004 19/18 A2960 RMK AO2 SFC VIS 9 CIG 003V006=
201110190214 SPECI KATL 190214Z 12005KT 1SM OVC004 19/18 A2960 RMK AO2 SFC VIS 9 CIG 003V006=
201110190206 SPECI KATL 190206Z 11005KT 2SM OVC005 19/18 A2961 RMK AO2 SFC VIS 9 CIG 003V007=
201110190206 SPECI KATL 190206Z 11005KT 2SM OVC005 19/18 A2961 RMK AO2 SFC VIS 9 CIG 003V007=
201110190152 METAR KATL 190152Z 12007KT 10SM OVC005 19/18 A2961 RMK AO2 SLP019 CIG 004V007 T01940183=
201110190052 METAR KATL 190052Z 14006KT 10SM BKN008 OVC022 20/18 A2963 RMK AO2 SLP028 CIG 006V010 T02000178=
201110182352 METAR KATL 182352Z 13008KT 10SM BKN007 BKN013 OVC025 20/18 A2965 RMK AO2 SLP034 60037 T02000183 10267 20200 55010=
201110182348 SPECI KATL 182348Z 13006KT 10SM BKN007 BKN013 OVC025 20/18 A2964 RMK AO2=
201110182348 SPECI KATL 182348Z 13006KT 10SM BKN007 BKN013 OVC025 20/18 A2964 RMK AO2=
201110182326 SPECI KATL 182326Z 14007KT 10SM FEW007 SCT015 BKN028 20/18 A2964 RMK AO2=
201110182326 SPECI KATL 182326Z 14007KT 10SM FEW007 SCT015 BKN028 20/18 A2964 RMK AO2=
201110182252 METAR KATL 182252Z 13009KT 10SM FEW008 SCT030 SCT200 20/18 A2964 RMK AO2 SLP032 T02000183=
201110182240 SPECI KATL 182240Z 13010KT 10SM SCT008 BKN030 BKN055 21/19 A2964 RMK AO2=
201110182240 SPECI KATL 182240Z 13010KT 10SM SCT008 BKN030 BKN055 21/19 A2964 RMK AO2=
201110182152 METAR KATL 182152Z 14004KT 10SM OVC008 21/19 A2966 RMK AO2 RAE28 SLP039 CIG 006V010 P0009 T02060189=
201110182148 SPECI KATL 182148Z 16005KT 10SM OVC008 21/18 A2966 RMK AO2 RAE28 CIG 006V010 P0009=
201110182148 SPECI KATL 182148Z 16005KT 10SM OVC008 21/18 A2966 RMK AO2 RAE28 CIG 006V010 P0009=
201110182120 SPECI KATL 182120Z 08008KT 7SM -RA BKN012CB OVC025 20/18 A2966 RMK AO2 CB SW-NW MOV NE P0009=
201110182120 SPECI KATL 182120Z 08008KT 7SM -RA BKN012CB OVC025 20/18 A2966 RMK AO2 CB SW-NW MOV NE P0009=
201110182107 SPECI KATL 182107Z 11004KT 6SM -RA BR FEW013CB BKN026 OVC065 21/18 A2966 RMK AO2 PRESFR CB NE MOV NE P0008=
201110182107 SPECI KATL 182107Z 11004KT 6SM -RA BR FEW013CB BKN026 OVC065 21/18 A2966 RMK AO2 PRESFR CB NE MOV NE P0008=
201110182057 SPECI KATL 182057Z 10004KT 3SM R09R/2600VP6000FT -RA BR BKN013CB BKN023 OVC040 21/18 A2967 RMK AO2 SFC VIS 4 VIS NE 1SM CB OHD-NE MOV NE P0008=
201110182057 SPECI KATL 182057Z 10004KT 3SM R09R/2600VP6000FT -RA BR BKN013CB BKN023 OVC040 21/18 A2967 RMK AO2 SFC VIS 4 VIS NE 1SM CB OHD-NE MOV NE P0008=
201110182052 METAR KATL 182052Z 14004G16KT 1SM R09R/2600VP6000FT +RA BR BKN017CB BKN040 OVC060 21/19 A2968 RMK AO2 TWR VIS 1 1/2 SLP043 CB OHD MOV NE P0028 60028 T02060189 56006=
201110182049 SPECI KATL 182049Z 13008KT 1 1/2SM R09R/2600VP6000FT +RA BR BKN017CB BKN040 OVC060 21/19 A2968 RMK AO2 CB OHD MOV NE P0017=
201110182049 SPECI KATL 182049Z 13008KT 1 1/2SM R09R/2600VP6000FT +RA BR BKN017CB BKN040 OVC060 21/19 A2968 RMK AO2 CB OHD MOV NE P0017=
201110182045 SPECI KATL 182045Z 14011KT 3SM R09R/3500VP6000FT RA BR FEW015CB BKN040 OVC060 21/19 A2968 RMK AO2 CB OHD-SE-S-SW MOV NE P0006=
201110182045 SPECI KATL 182045Z 14011KT 3SM R09R/3500VP6000FT RA BR FEW015CB BKN040 OVC060 21/19 A2968 RMK AO2 CB OHD-SE-S-SW MOV NE P0006=
201110182043 SPECI KATL 182043Z 15011KT 1 3/4SM R09R/4000VP6000FT RA BR BKN040 OVC065 21/18 A2968 RMK AO2 P0004=
201110182043 SPECI KATL 182043Z 15011KT 1 3/4SM R09R/4000VP6000FT RA BR BKN040 OVC065 21/18 A2968 RMK AO2 P0004=
201110182037 SPECI KATL 182037Z 14011G17KT 4SM RA BKN040 BKN050 OVC070 22/18 A2967 RMK AO2 P0001=
201110182037 SPECI KATL 182037Z 14011G17KT 4SM RA BKN040 BKN050 OVC070 22/18 A2967 RMK AO2 P0001=
201110182021 SPECI KATL 182021Z 14008KT 7SM -RA BKN040 BKN050 OVC085 24/17 A2968 RMK AO2 P0000=
201110182021 SPECI KATL 182021Z 14008KT 7SM -RA BKN040 BKN050 OVC085 24/17 A2968 RMK AO2 P0000=
201110181952 METAR KATL 181952Z 15011KT 10SM -RA BKN040 BKN050 BKN060 25/16 A2967 RMK AO2 RAB50 SLP041 P0000 T02500161=
201110181852 METAR KATL 181852Z 00000KT 10SM SCT045 BKN060 BKN070 26/15 A2970 RMK AO2 SLP048 T02610150=
201110181752 METAR KATL 181752Z 18007G14KT 10SM SCT040 BKN050 BKN150 27/13 A2973 RMK AO2 SLP060 T02670128 10267 20144 58030=
201110181652 METAR KATL 181652Z 20012G17KT 10SM SCT040 SCT150 26/14 A2978 RMK AO2 SLP077 T02610144=
201110181552 METAR KATL 181552Z 19008KT 10SM FEW150 24/14 A2981 RMK AO2 SLP085 T02440144=
201110181452 METAR KATL 181452Z 18008KT 10SM FEW150 23/13 A2983 RMK AO2 SLP092 T02280128 58003=
201110181352 METAR KATL 181352Z 17006KT 10SM FEW250 21/13 A2984 RMK AO2 SLP096 T02060128=
201110181252 METAR KATL 181252Z 00000KT 10SM FEW250 17/11 A2983 RMK AO2 SLP096 T01670111=
201110181152 METAR KATL 181152Z 13003KT 10SM FEW250 15/10 A2983 RMK AO2 SLP097 T01500100 10178 20150 58002=
201110181052 METAR KATL 181052Z 00000KT 10SM CLR 16/10 A2984 RMK AO2 SLP098 T01610100=
201110180952 METAR KATL 180952Z 00000KT 10SM CLR 16/10 A2984 RMK AO2 SLP096 T01560100=
201110180852 METAR KATL 180852Z 00000KT 10SM CLR 16/09 A2984 RMK AO2 SLP096 T01610094 55006=
201110180752 METAR KATL 180752Z 20003KT 10SM CLR 16/09 A2984 RMK AO2 SLP096 T01560094=
201110180652 METAR KATL 180652Z 00000KT 10SM CLR 17/09 A2985 RMK AO2 SLP098 T01720094=
201110180552 METAR KATL 180552Z 00000KT 10SM CLR 18/09 A2986 RMK AO2 SLP102 T01780094 10228 20172 58015=
201110180452 METAR KATL 180452Z 24003KT 10SM CLR 18/09 A2987 RMK AO2 SLP106 T01830094 402940144=
201110180352 METAR KATL 180352Z 17004KT 10SM CLR 19/10 A2989 RMK AO2 SLP114 T01890100=
201110180252 METAR KATL 180252Z 23003KT 10SM CLR 20/09 A2990 RMK AO2 SLP119 T02000094 50002=
201110180152 METAR KATL 180152Z 23005KT 10SM CLR 22/09 A2991 RMK AO2 SLP120 T02170094=
201110180052 METAR KATL 180052Z 19004KT 10SM CLR 21/11 A2991 RMK AO2 SLP121 T02110106=
201110172352 METAR KATL 172352Z 00000KT 10SM CLR 23/09 A2990 RMK AO2 SLP119 T02280094 10294 20228 55002=
201110172252 METAR KATL 172252Z 20005KT 10SM CLR 26/09 A2989 RMK AO2 SLP117 T02560089=
201110172152 METAR KATL 172152Z 22005KT 10SM CLR 28/08 A2990 RMK AO2 SLP116 T02780083=
201110172052 METAR KATL 172052Z 25005KT 10SM CLR 28/08 A2990 RMK AO2 SLP118 T02830083 56020=
201110171952 METAR KATL 171952Z 27007KT 10SM CLR 29/09 A2991 RMK AO2 SLP120 T02890094=
201110171852 METAR KATL 171852Z 00000KT 10SM CLR 28/10 A2993 RMK AO2 SLP128 T02830100=
201110171752 METAR KATL 171752Z 31006KT 10SM CLR 28/11 A2997 RMK AO2 SLP139 T02830106 10283 20150 58023=
201110171652 METAR KATL 171652Z 27006KT 10SM FEW250 28/10 A3000 RMK AO2 SLP150 T02830100=
201110171552 METAR KATL 171552Z VRB06KT 10SM FEW250 26/10 A3003 RMK AO2 SLP160 T02610100=
201110171452 METAR KATL 171452Z 24006KT 10SM FEW250 23/11 A3004 RMK AO2 SLP164 CI DSNT N T02280106 50001=
201110171352 METAR KATL 171352Z 22004KT 10SM CLR 20/11 A3004 RMK AO2 SLP166 T02000106=
201110171252 METAR KATL 171252Z VRB03KT 10SM CLR 18/11 A3003 RMK AO2 SLP163 T01780106=
201110171152 METAR KATL 171152Z 00000KT 10SM FEW070 15/09 A3003 RMK AO2 SLP164 T01500094 10172 20144 53006=
201110171052 METAR KATL 171052Z 28004KT 10SM CLR 16/09 A3003 RMK AO2 SLP163 T01560094=
201110170952 METAR KATL 170952Z 26004KT 10SM CLR 16/09 A3001 RMK AO2 SLP155 T01610094=
201110170852 METAR KATL 170852Z 24003KT 10SM CLR 16/09 A3001 RMK AO2 SLP155 T01610094 56008=
201110170752 METAR KATL 170752Z 24004KT 10SM CLR 17/09 A3002 RMK AO2 SLP157 T01720094=
201110170652 METAR KATL 170652Z 23003KT 10SM CLR 16/09 A3003 RMK AO2 SLP160 T01610094=
201110170552 METAR KATL 170552Z 23003KT 10SM CLR 17/09 A3004 RMK AO2 SLP164 T01670094 10228 20167 58008=
201110170452 METAR KATL 170452Z 24004KT 10SM CLR 18/10 A3005 RMK AO2 SLP169 T01780100 402890100=
201110170352 METAR KATL 170352Z 24004KT 10SM CLR 19/09 A3006 RMK AO2 SLP174 T01890094=
201110170252 METAR KATL 170252Z 23004KT 10SM CLR 19/09 A3007 RMK AO2 SLP175 T01940094 53004=
201110170152 METAR KATL 170152Z 25003KT 10SM CLR 21/08 A3006 RMK AO2 SLP174 T02110083=
201110170052 METAR KATL 170052Z 24003KT 10SM CLR 21/09 A3006 RMK AO2 SLP173 T02110089=
201110162352 METAR KATL 162352Z 00000KT 10SM CLR 23/09 A3005 RMK AO2 SLP174 T02280089 10289 20228 55004=
201110162252 METAR KATL 162252Z 00000KT 10SM CLR 26/07 A3005 RMK AO2 SLP169 T02560067=
201110162152 METAR KATL 162152Z 26005KT 10SM CLR 28/06 A3006 RMK AO2 SLP172 T02780056=
201110162052 METAR KATL 162052Z 28007KT 10SM CLR 28/06 A3007 RMK AO2 SLP175 T02830061 56021=
201110161952 METAR KATL 161952Z 23005KT 10SM CLR 28/05 A3008 RMK AO2 SLP179 T02780050=
201110161852 METAR KATL 161852Z 33006KT 10SM CLR 28/05 A3010 RMK AO2 SLP187 T02830050=
201110161752 METAR KATL 161752Z 28005KT 10SM CLR 27/04 A3013 RMK AO2 SLP196 T02720039 10278 20100 58018=
201110161652 METAR KATL 161652Z VRB04KT 10SM CLR 26/04 A3016 RMK AO2 SLP208 T02560039=
201110161552 METAR KATL 161552Z 32007KT 10SM CLR 23/03 A3018 RMK AO2 SLP213 T02330028=
201110161452 METAR KATL 161452Z 26004KT 10SM CLR 21/04 A3018 RMK AO2 SLP216 T02110039 51012=
201110161352 METAR KATL 161352Z 32004KT 10SM CLR 17/06 A3018 RMK AO2 SLP217 T01670061=
201110161252 METAR KATL 161252Z 00000KT 10SM CLR 14/07 A3016 RMK AO2 SLP212 T01390072=
201110161152 METAR KATL 161152Z 26003KT 10SM CLR 10/06 A3015 RMK AO2 SLP207 T01000056 10150 20100 53010=
201110161052 METAR KATL 161052Z 32005KT 10SM CLR 12/06 A3014 RMK AO2 SLP201 T01170056=
201110160952 METAR KATL 160952Z 29004KT 10SM CLR 11/06 A3012 RMK AO2 SLP196 T01110061=
201110160852 METAR KATL 160852Z 00000KT 10SM CLR 12/06 A3012 RMK AO2 SLP194 T01170056 57008=
201110160752 METAR KATL 160752Z 31005KT 10SM CLR 13/06 A3012 RMK AO2 SLP195 T01330056=
201110160652 METAR KATL 160652Z 33005KT 10SM CLR 13/06 A3014 RMK AO2 SLP199 T01330056=
201110160552 METAR KATL 160552Z 30003KT 10SM CLR 15/05 A3014 RMK AO2 SLP201 T01500050 10206 20150 52004=
201110160452 METAR KATL 160452Z 29005KT 10SM CLR 15/06 A3014 RMK AO2 SLP199 T01500056 402670133=
201110160352 METAR KATL 160352Z 27004KT 10SM CLR 15/06 A3014 RMK AO2 SLP200 T01500061=
201110160252 METAR KATL 160252Z 30004KT 10SM CLR 17/06 A3013 RMK AO2 SLP198 T01670061 51016=
201110160152 METAR KATL 160152Z 28004KT 10SM CLR 18/06 A3011 RMK AO2 SLP193 T01780056=
201110160052 METAR KATL 160052Z 29005KT 10SM CLR 19/06 A3010 RMK AO2 SLP188 T01890056=
201110152352 METAR KATL 152352Z 31005KT 10SM CLR 20/05 A3008 RMK AO2 SLP183 T02000050 10267 20200 53012=
201110152252 METAR KATL 152252Z 29009KT 10SM CLR 22/04 A3006 RMK AO2 SLP174 T02220044=
201110152152 METAR KATL 152152Z 29012KT 10SM CLR 24/05 A3005 RMK AO2 SLP169 T02440050=
201110152052 METAR KATL 152052Z 29016G22KT 10SM CLR 26/05 A3005 RMK AO2 SLP167 T02560050 56008=
201110151952 METAR KATL 151952Z 31012G21KT 10SM CLR 26/06 A3005 RMK AO2 SLP168 T02610061=
201110151852 METAR KATL 151852Z 29014KT 10SM CLR 25/05 A3005 RMK AO2 SLP169 T02500050=
201110151752 METAR KATL 151752Z 28010G15KT 10SM CLR 25/06 A3007 RMK AO2 SLP176 T02500061 10250 20133 58006=
201110151652 METAR KATL 151652Z 29006KT 10SM CLR 23/06 A3009 RMK AO2 SLP182 T02330056=
201110151552 METAR KATL 151552Z 32008KT 10SM CLR 22/06 A3009 RMK AO2 SLP183 T02170056=
201110151452 METAR KATL 151452Z 33007KT 10SM CLR 20/07 A3009 RMK AO2 SLP184 T02000067 53015=
201110151352 METAR KATL 151352Z 30009KT 10SM CLR 17/08 A3008 RMK AO2 SLP180 T01720078=
201110151252 METAR KATL 151252Z 30007KT 10SM CLR 16/08 A3006 RMK AO2 SLP173 T01560078=
201110151152 METAR KATL 151152Z 29006KT 10SM CLR 13/07 A3005 RMK AO2 SLP171 T01330072 10178 20133 53010=
201110151052 METAR KATL 151052Z 27008KT 10SM CLR 16/07 A3003 RMK AO2 SLP165 T01560067=
201110150952 METAR KATL 150952Z 27008KT 10SM CLR 16/07 A3002 RMK AO2 SLP159 T01610067=
201110150852 METAR KATL 150852Z 26008KT 10SM CLR 17/07 A3001 RMK AO2 SLP157 T01670067 51006=
201110150752 METAR KATL 150752Z 26007KT 10SM CLR 17/07 A3001 RMK AO2 SLP155 T01670067=
201110150652 METAR KATL 150652Z 27009KT 10SM CLR 17/07 A3001 RMK AO2 SLP154 T01720067=
201110150552 METAR KATL 150552Z 26010G17KT 10SM CLR 18/06 A3000 RMK AO2 SLP150 T01780061 10194 20172 53008=
201110150452 METAR KATL 150452Z 26009KT 10SM CLR 18/06 A2998 RMK AO2 SLP146 T01830061 402500128=
201110150352 METAR KATL 150352Z 26007KT 10SM CLR 18/07 A2998 RMK AO2 SLP145 T01780067=
201110150252 METAR KATL 150252Z 25005KT 10SM CLR 18/07 A2997 RMK AO2 SLP143 T01780067 51018=
201110150152 METAR KATL 150152Z 27008KT 10SM CLR 19/06 A2996 RMK AO2 SLP139 T01890061=
201110150052 METAR KATL 150052Z 26007KT 10SM FEW250 19/07 A2993 RMK AO2 SLP133 T01890067=
201110142352 METAR KATL 142352Z 24004KT 10SM FEW250 19/07 A2991 RMK AO2 SLP126 T01940067 10250 20189 53012=
201110142252 METAR KATL 142252Z 27006KT 10SM FEW250 21/05 A2990 RMK AO2 SLP121 T02110050=
201110142152 METAR KATL 142152Z 30009KT 10SM FEW250 24/05 A2988 RMK AO2 SLP113 T02390050=
201110142052 METAR KATL 142052Z 29012G19KT 10SM FEW250 24/04 A2988 RMK AO2 SLP112 T02440044 56009=
201110141952 METAR KATL 141952Z 32012G18KT 10SM CLR 24/04 A2988 RMK AO2 SLP113 T02440039=
201110141852 METAR KATL 141852Z 31015G21KT 10SM CLR 24/04 A2990 RMK AO2 SLP117 T02440039=
201110141752 METAR KATL 141752Z 31015G19KT 10SM CLR 24/05 A2991 RMK AO2 SLP121 T02390050 10239 20128 58000=
201110141652 METAR KATL 141652Z 30011KT 10SM CLR 22/07 A2992 RMK AO2 SLP128 T02220067=
201110141552 METAR KATL 141552Z 30007KT 10SM CLR 21/10 A2993 RMK AO2 SLP129 T02060100=
201110141452 METAR KATL 141452Z 31010KT 10SM CLR 18/11 A2991 RMK AO2 SLP123 T01830106 51021=
201110141352 METAR KATL 141352Z 28009KT 10SM CLR 16/11 A2990 RMK AO2 SLP120 T01610106=
201110141252 METAR KATL 141252Z 28009KT 10SM CLR 14/11 A2987 RMK AO2 SLP111 T01440111=
201110141152 METAR KATL 141152Z 27007KT 10SM CLR 13/11 A2984 RMK AO2 SLP103 70040 T01280106 10150 20128 53019=
201110141052 METAR KATL 141052Z 27007KT 10SM CLR 13/11 A2982 RMK AO2 SLP096 T01330111=
201110140952 METAR KATL 140952Z 27007KT 10SM CLR 13/11 A2980 RMK AO2 SLP088 T01330111=
201110140852 METAR KATL 140852Z 27008KT 10SM CLR 13/12 A2978 RMK AO2 SLP083 T01330117 53004=
201110140752 METAR KATL 140752Z 25005KT 10SM CLR 14/12 A2977=
201110140652 METAR KATL 140652Z 26006KT 10SM CLR 14/12 A2978 RMK AO2 SLP079 T01440122=
201110140552 METAR KATL 140552Z 26008KT 10SM CLR 15/13 A2977 RMK AO2 SLP075 60011 T01500128 10167 20150 51009=
201110140452 METAR KATL 140452Z 27007KT 10SM FEW100 15/13 A2976 RMK AO2 SLP072 T01500133 402330150=
201110140352 METAR KATL 140352Z 28008KT 10SM FEW045 SCT070 BKN090 16/14 A2976 RMK AO2 RAB04E46 SLP071 P0002 T01560139=
201110140252 METAR KATL 140252Z 27006KT 10SM FEW045 SCT060 BKN110 16/13 A2974 RMK AO2 SLP067 60009 T01610133 51015=
201110140152 METAR KATL 140152Z 28005KT 10SM FEW050 BKN075 BKN120 16/13 A2974 RMK AO2 RAB08E40 SLP066 P0000 T01610133=
201110140052 METAR KATL 140052Z 26006KT 10SM FEW055 BKN075 BKN120 16/14 A2972 RMK AO2 RAE21 SLP058 P0009 T01610139=
201110132352 METAR KATL 132352Z 28005KT 10SM -RA FEW025 BKN075 BKN120 BKN150 16/14 A2970 RMK AO2 RAB31 SLP052 P0000 60029 T01610139 10228 20156 53014=
201110132252 METAR KATL 132252Z 24005KT 10SM FEW015 SCT150 17/14 A2968 RMK AO2 SLP048 T01670139=
201110132152 METAR KATL 132152Z 25005KT 10SM FEW008 SCT100 BKN150 18/14 A2966 RMK AO2 RAB19E28 SLP039 P0000 T01830139=
201110132052 METAR KATL 132052Z 24005KT 10SM FEW020 BKN100 BKN150 18/15 A2966 RMK AO2 SLP037 CB DSNT N & E 60029 T01780150 58010=
201110131952 METAR KATL 131952Z 22004KT 10SM FEW090 BKN110 BKN150 17/14 A2967 RMK AO2 TSE26RAE26 SLP043 CB DSNT E & DSNT SW-NW P0015 T01670144=
201110131926 SPECI KATL 131926Z 19005KT 10SM FEW030 BKN090 OVC110 17/14 A2966 RMK AO2 TSE26RAE26 OCNL LTGIC DSNT E TS MOV E CB DSNT E P0015=
201110131926 SPECI KATL 131926Z 19005KT 10SM FEW030 BKN090 OVC110 17/14 A2966 RMK AO2 TSE26RAE26 OCNL LTGIC DSNT E TS MOV E CB DSNT E P0015=
201110131915 SPECI KATL 131915Z 21003KT 8SM -TSRA FEW020CB BKN055 OVC090 16/13 A2967 RMK AO2 OCNL LTGICCG E-SE TS E-SE MOV E P0015=
201110131915 SPECI KATL 131915Z 21003KT 8SM -TSRA FEW020CB BKN055 OVC090 16/13 A2967 RMK AO2 OCNL LTGICCG E-SE TS E-SE MOV E P0015=
201110131903 SPECI KATL 131903Z 25009KT 6SM R09R/4000VP6000FT -TSRA BKN030CB BKN050 OVC070 16/12 A2970 RMK AO2 OCNL LTGICCG E-SE-S TS E-SE-S MOV E P0014=
201110131903 SPECI KATL 131903Z 25009KT 6SM R09R/4000VP6000FT -TSRA BKN030CB BKN050 OVC070 16/12 A2970 RMK AO2 OCNL LTGICCG E-SE-S TS E-SE-S MOV E P0014=
201110131852 METAR KATL 131852Z 27010G20KT 2SM R09R/5000VP6000FT TSRA BKN030CB BKN045 OVC070 17/14 A2969 RMK AO2 SFC VIS 4 TSB44RAB28 SLP049 OCNL LTGICCG OHD-E-SE-S TS OHD-E-SE-S MOV E P0014 T01720144=
201110131844 SPECI KATL 131844Z 25013G18KT 8SM -TSRA FEW020CB BKN040 OVC110 19/14 A2969 RMK AO2 TSB44RAB28 VIS LWR S SHRA OCNL LTGICCG S TS S MOV E CB S MOV E P0005=
201110131844 SPECI KATL 131844Z 25013G18KT 8SM -TSRA FEW020CB BKN040 OVC110 19/14 A2969 RMK AO2 TSB44RAB28 VIS LWR S SHRA OCNL LTGICCG S TS S MOV E CB S MOV E P0005=
201110131842 SPECI KATL 131842Z 25009G18KT 9SM -RA FEW020CB BKN040 OVC110 19/14 A2969 RMK AO2 RAB28 VIS LWR S SHRA CB S MOV E P0004=
201110131842 SPECI KATL 131842Z 25009G18KT 9SM -RA FEW020CB BKN040 OVC110 19/14 A2969 RMK AO2 RAB28 VIS LWR S SHRA CB S MOV E P0004=
201110131833 SPECI KATL 131833Z 27011G16KT 10SM -RA FEW025CB BKN040 BKN065 21/12 A2968 RMK AO2 RAB28 CB S-SW-W-NW MOV E P0000=
201110131833 SPECI KATL 131833Z 27011G16KT 10SM -RA FEW025CB BKN040 BKN065 21/12 A2968 RMK AO2 RAB28 CB S-SW-W-NW MOV E P0000=
201110131752 METAR KATL 131752Z 26010G19KT 10SM FEW030 SCT040 SCT110 23/12 A2969 RMK AO2 SLP045 TCU DSNT SW-W-NW-N 60000 T02280122 10233 20167 58014=
201110131652 METAR KATL 131652Z 23006KT 10SM FEW025 SCT035 BKN110 22/13 A2970 RMK AO2 SLP052 T02170133=
201110131637 SPECI KATL 131637Z 23009KT 10SM FEW025 SCT035 BKN110 21/13 A2971 RMK AO2=
201110131637 SPECI KATL 131637Z 23009KT 10SM FEW025 SCT035 BKN110 21/13 A2971 RMK AO2=
201110131552 METAR KATL 131552Z 24011G21KT 10SM BKN025 BKN030 BKN050 22/14 A2973 RMK AO2 SLP059 T02220139=
201110131541 SPECI KATL 131541Z 24010KT 10SM FEW020 BKN030 22/14 A2971 RMK AO2=
201110131541 SPECI KATL 131541Z 24010KT 10SM FEW020 BKN030 22/14 A2971 RMK AO2=
201110131452 METAR KATL 131452Z 24013G19KT 10SM FEW015TCU BKN024 19/14 A2973 RMK AO2 RAE1359 SLP061 TCU E-SE-S P0000 60000 T01940144 58001=
201110131422 SPECI KATL 131422Z 23013G19KT 10SM FEW015 BKN020 BKN050 19/16 A2973 RMK AO2 RAE1359 P0000=
201110131422 SPECI KATL 131422Z 23013G19KT 10SM FEW015 BKN020 BKN050 19/16 A2973 RMK AO2 RAE1359 P0000=
201110131352 METAR KATL 131352Z 22010KT 8SM -RA FEW008 BKN014 OVC020 18/16 A2974 RMK AO2 RAB49 SLP065 P0000 T01780156=
201110131252 METAR KATL 131252Z 21006KT 8SM BKN008 BKN016 BKN060 17/16 A2973 RMK AO2 SLP064 CIG 006V010 T01720156=
201110131221 SPECI KATL 131221Z 21006KT 7SM BKN006 OVC024 17/16 A2973 RMK AO2 CIG 004V008=
201110131221 SPECI KATL 131221Z 21006KT 7SM BKN006 OVC024 17/16 A2973 RMK AO2 CIG 004V008=
201110131152 METAR KATL 131152Z 21007KT 6SM BR BKN004 OVC010 17/16 A2973 RMK AO2 RAB06E17 SLP064 CIG 003V007 P0000 60000 T01670156 10172 20167 58001=
201110131144 SPECI KATL 131144Z 21005KT 6SM BR BKN004 OVC012 17/16 A2974 RMK AO2 RAB06E17 P0000=
201110131144 SPECI KATL 131144Z 21005KT 6SM BR BKN004 OVC012 17/16 A2974 RMK AO2 RAB06E17 P0000=
201110131052 METAR KATL 131052Z 22007KT 7SM OVC005 17/15 A2974 RMK AO2 SLP065 T01670150=
201110131049 SPECI KATL 131049Z 22007KT 7SM OVC005 17/15 A2974 RMK AO2=
201110131049 SPECI KATL 131049Z 22007KT 7SM OVC005 17/15 A2974 RMK AO2=
201110130952 METAR KATL 130952Z 23006KT 7SM BKN004 OVC037 17/15 A2974 RMK AO2 SLP064 T01670150=
201110130949 SPECI KATL 130949Z 21007KT 7SM BKN004 OVC037 17/15 A2974 RMK AO2=
201110130949 SPECI KATL 130949Z 21007KT 7SM BKN004 OVC037 17/15 A2974 RMK AO2=
201110130902 SPECI KATL 130902Z 21005KT 7SM FEW006 BKN037 OVC180 17/15 A2974 RMK AO2=
201110130902 SPECI KATL 130902Z 21005KT 7SM FEW006 BKN037 OVC180 17/15 A2974 RMK AO2=
201110130852 METAR KATL 130852Z 21005KT 7SM BKN006 OVC037 17/15 A2974 RMK AO2 SLP064 T01670150 56015=
201110130844 SPECI KATL 130844Z 21004KT 7SM BKN006 OVC037 17/15 A2974 RMK AO2=
201110130844 SPECI KATL 130844Z 21004KT 7SM BKN006 OVC037 17/15 A2974 RMK AO2=
201110130815 SPECI KATL 130815Z 22005KT 8SM SCT006 OVC042 17/15 A2974 RMK AO2=
201110130815 SPECI KATL 130815Z 22005KT 8SM SCT006 OVC042 17/15 A2974 RMK AO2=
201110130752 METAR KATL 130752Z 22006KT 5SM BR BKN006 OVC042 17/15 A2975 RMK AO2 SLP068 T01670150=
201110130703 SPECI KATL 130703Z 23004KT 7SM BKN008 OVC022 17/15 A2976 RMK AO2=
201110130703 SPECI KATL 130703Z 23004KT 7SM BKN008 OVC022 17/15 A2976 RMK AO2=
201110130652 METAR KATL 130652Z 25004KT 7SM SCT008 OVC022 17/15 A2977 RMK AO2 SLP074 T01720150=
201110130552 METAR KATL 130552Z 25004KT 7SM FEW004 BKN015 OVC031 17/16 A2978 RMK AO2 DZE27 SLP078 P0000 60000 T01720156 10183 20172 58013=
201110130548 SPECI KATL 130548Z 24004KT 7SM FEW004 SCT008 OVC015 17/16 A2978 RMK AO2 DZE27 P0000=
201110130548 SPECI KATL 130548Z 24004KT 7SM FEW004 SCT008 OVC015 17/16 A2978 RMK AO2 DZE27 P0000=
201110130454 SPECI KATL 130454Z 25006KT 1 1/2SM -DZ BR BKN004 BKN009 OVC015 17/16 A2980 RMK AO2 SFC VIS 3 P0000=
201110130454 SPECI KATL 130454Z 25006KT 1 1/2SM -DZ BR BKN004 BKN009 OVC015 17/16 A2980 RMK AO2 SFC VIS 3 P0000=
201110130452 METAR KATL 130452Z 25006KT 5SM -DZ BR SCT005 BKN009 OVC015 17/16 A2980 RMK AO2 DZB40 SLP085 P0000 T01720161 402280150=
201110130352 METAR KATL 130352Z 22004KT 8SM BKN008 OVC025 18/16 A2982 RMK AO2 SLP091 BKN V SCT T01780161=
201110130336 SPECI KATL 130336Z 22004KT 8SM BKN008 OVC028 18/16 A2982 RMK AO2=
201110130336 SPECI KATL 130336Z 22004KT 8SM BKN008 OVC028 18/16 A2982 RMK AO2=
201110130252 METAR KATL 130252Z 23003KT 8SM FEW008 BKN028 OVC035 18/16 A2982 RMK AO2 SLP093 60000 T01780161 53007=
201110130152 METAR KATL 130152Z 24006KT 9SM SCT008 BKN028 OVC035 18/16 A2982 RMK AO2 SLP091 T01780161=
201110130100 SPECI KATL 130100Z 22004KT 10SM FEW009 SCT025 OVC034 18/16 A2980 RMK AO2=
201110130100 SPECI KATL 130100Z 22004KT 10SM FEW009 SCT025 OVC034 18/16 A2980 RMK AO2=
201110130052 METAR KATL 130052Z 23004KT 10SM FEW013 BKN025 OVC035 18/16 A2980 RMK AO2 DZE07 SLP087 P0000 T01830156=
201110130034 SPECI KATL 130034Z 23006KT 10SM SCT013 BKN025 OVC035 18/16 A2980 RMK AO2 DZE07 P0000=
201110130034 SPECI KATL 130034Z 23006KT 10SM SCT013 BKN025 OVC035 18/16 A2980 RMK AO2 DZE07 P0000=
201110122352 METAR KATL 122352Z 20007KT 7SM -DZ OVC013 18/16 A2980 RMK AO2 DZB49 SLP087 CIG 011V016 P0000 60000 T01830156 10228 20183 53002=
201110122339 SPECI KATL 122339Z 20005KT 10SM BKN013 OVC020 19/16 A2980 RMK AO2=
201110122339 SPECI KATL 122339Z 20005KT 10SM BKN013 OVC020 19/16 A2980 RMK AO2=
201110122252 METAR KATL 122252Z 20006KT 10SM BKN017 OVC023 19/16 A2979 RMK AO2 SLP085 T01940156=
201110122152 METAR KATL 122152Z 24003KT 10SM BKN019 OVC025 20/16 A2979 RMK AO2 SLP084 T02000156=
201110122052 METAR KATL 122052Z 20006KT 10SM BKN019 BKN025 OVC040 21/16 A2979 RMK AO2 SLP084 T02060156 56012=
201110121952 METAR KATL 121952Z 22005KT 10SM BKN020 BKN023 OVC030 21/15 A2980 RMK AO2 SLP086 T02060150=
201110121852 METAR KATL 121852Z 23005KT 10SM FEW015 BKN019 BKN032 21/15 A2981 RMK AO2 SLP091 T02060150=
201110121812 SPECI KATL 121812Z 00000KT 10SM FEW015 BKN019 BKN032 22/15 A2982 RMK AO2=
201110121812 SPECI KATL 121812Z 00000KT 10SM FEW015 BKN019 BKN032 22/15 A2982 RMK AO2=
201110121752 METAR KATL 121752Z 31004KT 10SM FEW015 SCT017 BKN032 22/15 A2983 RMK AO2 SLP095 T02170150 10217 20156 58017=
201110121734 SPECI KATL 121734Z VRB03KT 10SM FEW015 SCT017 OVC034 21/15 A2984 RMK AO2=
201110121734 SPECI KATL 121734Z VRB03KT 10SM FEW015 SCT017 OVC034 21/15 A2984 RMK AO2=
201110121652 METAR KATL 121652Z VRB03KT 10SM OVC015 19/14 A2986 RMK AO2 SLP105 T01890144=
201110121552 METAR KATL 121552Z 01003KT 10SM OVC014 19/14 A2986 RMK AO2 SLP108 T01890144=
201110121452 METAR KATL 121452Z 04004KT 10SM OVC012 18/14 A2988 RMK AO2 SLP113 T01830139 50000=
201110121352 METAR KATL 121352Z 06005KT 10SM BKN010 BKN012 OVC017 17/14 A2989 RMK AO2 SLP117 T01670139=
201110121339 SPECI KATL 121339Z 06006KT 10SM BKN010 OVC017 17/14 A2989 RMK AO2=
201110121339 SPECI KATL 121339Z 06006KT 10SM BKN010 OVC017 17/14 A2989 RMK AO2=
201110121311 SPECI KATL 121311Z 04006KT 10SM FEW010 SCT016 OVC027 16/13 A2988 RMK AO2=
201110121311 SPECI KATL 121311Z 04006KT 10SM FEW010 SCT016 OVC027 16/13 A2988=
201110121252 METAR KATL 121252Z 05007KT 10SM FEW010 BKN014 OVC027 16/13 A2988 RMK AO2 SLP115 T01610133=
201110121236 SPECI KATL 121236Z 04005KT 10SM BKN011 OVC027 16/13 A2988 RMK AO2=
201110121236 SPECI KATL 121236Z 04005KT 10SM BKN011 OVC027 16/13 A2988 RMK AO2=
201110121226 SPECI KATL 121226Z 04006KT 10SM SCT007 OVC011 16/13 A2988 RMK AO2=
201110121226 SPECI KATL 121226Z 04006KT 10SM SCT007 OVC011 16/13 A2988 RMK AO2=
201110121152 METAR KATL 121152Z 05005KT 3SM BR OVC007 16/13 A2988 RMK AO2 SFC VIS 6 SLP114 SFC VIS 6 CIG 004V008 TWR IN BR 70010 T01560133 10156 20150 51006=
201110121052 METAR KATL 121052Z 04005KT 10SM OVC007 16/13 A2988 RMK AO2 SLP114 T01560133=
201110120952 METAR KATL 120952Z 06006KT 10SM OVC007 15/13 A2986 RMK AO2 SLP109 CIG 005V009 T01500133=
201110120852 METAR KATL 120852Z 05008KT 10SM OVC007 15/13 A2986 RMK AO2 SLP108 CIG 005V009 T01500128 56009=
201110120752 METAR KATL 120752Z 04005KT 10SM OVC005 15/13 A2987 RMK AO2 SLP110 T01500133=
201110120652 METAR KATL 120652Z 05008KT 6SM BR OVC007 15/13 A2988 RMK AO2 SLP114 CIG 007V010 T01500133=
201110120552 METAR KATL 120552Z 07006KT 10SM OVC007 15/13 A2989 RMK AO2 SLP119 CIG 007V010 60000 T01500133 10167 20150 56012=
201110120452 METAR KATL 120452Z 05011KT 10SM OVC009 16/14 A2989 RMK AO2 RAE19 SLP119 CIG 007V012 P0000 T01560139 401830156=
201110120449 SPECI KATL 120449Z 05006KT 10SM OVC009 16/13 A2990 RMK AO2 RAE19 CIG 007V012 P0000 401830156=
201110120449 SPECI KATL 120449Z 05006KT 10SM OVC009 16/13 A2990 RMK AO2 RAE19 CIG 007V012 P0000 401830156=
201110120352 METAR KATL 120352Z 07013KT 7SM -RA OVC012 16/13 A2991 RMK AO2 RAB25 SLP125 CIG 010V014 P0000 T01560133=
201110120252 METAR KATL 120252Z 05013KT 10SM OVC010 16/13 A2993 RMK AO2 SLP130 CIG 008V012 60000 T01610133 53008=
201110120213 SPECI KATL 120213Z 06009KT 10SM OVC011 16/14 A2992 RMK AO2 CIG 009V014=
201110120213 SPECI KATL 120213Z 06009KT 10SM OVC011 16/14 A2992 RMK AO2 CIG 009V014=
201110120152 METAR KATL 120152Z 06011KT 10SM OVC009 16/14 A2992 RMK AO2 RAE20 SLP127 CIG 007V012 P0000 T01610139=
201110120052 METAR KATL 120052Z 07011KT 7SM -RA FEW007 BKN012 OVC020 16/14 A2990 RMK AO2 RAE07B52DZB07E52 SLP120 P0000 T01610144=
201110112352 METAR KATL 112352Z 06014KT 8SM -RA SCT008 BKN012 OVC020 16/14 A2990 RMK AO2 SLP122 P0000 60008 T01610144 10172 20161 53001=
201110112252 METAR KATL 112252Z 06009KT 10SM -RA FEW008 BKN013 OVC020 17/14 A2990 RMK AO2 RAE10B41 SLP121 P0000 T01670144=
201110112152 METAR KATL 112152Z 07009KT 10SM -RA FEW009 BKN014 OVC020 17/14 A2990 RMK AO2 RAB52 SLP120 P0000 T01720144=
201110112103 SPECI KATL 112103Z 08014G18KT 10SM FEW009 BKN014 OVC020 17/14 A2990 RMK AO2=
201110112103 SPECI KATL 112103Z 08014G18KT 10SM FEW009 BKN014 OVC020 17/14 A2990 RMK AO2=
201110112052 METAR KATL 112052Z 07015KT 10SM FEW009 BKN016 OVC020 17/14 A2990 RMK AO2 SLP120 60008 T01720144 56011=
201110112032 SPECI KATL 112032Z 07015G20KT 10SM FEW009 BKN016 OVC020 17/14 A2990 RMK AO2=
201110112032 SPECI KATL 112032Z 07015G20KT 10SM FEW009 BKN016 OVC020 17/14 A2990 RMK AO2=
201110111952 METAR KATL 111952Z 07013KT 10SM BKN009 BKN014 OVC020 17/14 A2990 RMK AO2 RAE46 SLP122 P0002 T01720144=
201110111912 SPECI KATL 111912Z 07013G23KT 6SM -RA BR BKN009 BKN017 OVC020 17/15 A2990 RMK AO2 P0001=
201110111912 SPECI KATL 111912Z 07013G23KT 6SM -RA BR BKN009 BKN017 OVC020 17/15 A2990 RMK AO2 P0001=
201110111909 SPECI KATL 111909Z 07019G23KT 6SM -RA BR SCT009 BKN012 OVC020 17/14 A2991 RMK AO2 P0001=
201110111909 SPECI KATL 111909Z 07019G23KT 6SM -RA BR SCT009 BKN012 OVC020 17/14 A2991 RMK AO2 P0001=
201110111852 METAR KATL 111852Z 07011KT 3SM -RA BR OVC009 17/14 A2991 RMK AO2 SFC VIS 6 SLP125 P0006 T01670144=
201110111752 METAR KATL 111752Z 07013KT 3SM -RA BR BKN009 BKN014 OVC020 16/14 A2993 RMK AO2 SFC VIS 4 SLP131 P0001 60002 T01610144 10167 20161 58009=
201110111718 SPECI KATL 111718Z 07010KT 3SM -RA BR BKN009 BKN014 OVC020 16/14 A2995 RMK AO2 SFC VIS 6 P0000=
201110111718 SPECI KATL 111718Z 07010KT 3SM -RA BR BKN009 BKN014 OVC020 16/14 A2995 RMK AO2 SFC VIS 6 P0000=
201110111652 METAR KATL 111652Z 07015KT 3SM -RA BR FEW009 BKN012 OVC016 17/14 A2995 RMK AO2 SFC VIS 6 RAE09B49DZB11E49 SLP138 P0001 T01670144=
201110111617 SPECI KATL 111617Z 07012G19KT 3SM -DZ BR FEW009 BKN012 OVC016 17/14 A2997 RMK AO2 SFC VIS 3 RAE09DZB11 P0001=
201110111617 SPECI KATL 111617Z 07012G19KT 3SM -DZ BR FEW009 BKN012 OVC016 17/14 A2997 RMK AO2 SFC VIS 3 RAE09DZB11 P0001=
201110111557 SPECI KATL 111557Z 07015KT 3SM -RA BR BKN009 BKN014 OVC016 16/14 A2996 RMK AO2 SFC VIS 3 P0000=
201110111557 SPECI KATL 111557Z 07015KT 3SM -RA BR BKN009 BKN014 OVC016 16/14 A2996 RMK AO2 SFC VIS 3 P0000=
201110111552 METAR KATL 111552Z 07015KT 3SM -RA BR OVC012 16/14 A2997 RMK AO2 SFC VIS 4 DZE35RAB35 SLP143 P0000 T01610144=
201110111536 SPECI KATL 111536Z 07012G21KT 3SM -RA BR OVC010 17/14 A2996 RMK AO2 DZE35RAB35 P0000=
201110111536 SPECI KATL 111536Z 07012G21KT 3SM -RA BR OVC010 17/14 A2996 RMK AO2 DZE35RAB35 P0000=
201110111452 METAR KATL 111452Z 06014G22KT 6SM -DZ BR OVC012 17/14 A2996 RMK AO2 SLP141 P0000 60000 T01670139 50004=
201110111352 METAR KATL 111352Z 06016KT 5SM -DZ BR OVC012 16/13 A2997 RMK AO2 DZB32 SLP144 P0000 T01610133=
201110111252 METAR KATL 111252Z 06014G24KT 10SM SCT010 BKN012 BKN016 17/13 A2997 RMK AO2 SLP143 T01670133=
201110111152 METAR KATL 111152Z 07018G25KT 10SM BKN012 BKN016 OVC028 16/13 A2995 RMK AO2 PK WND 06026/1110 SLP138 60010 70022 T01610133 10178 20161 52007=
201110111052 METAR KATL 111052Z 07017G28KT 10SM FEW009 BKN012 OVC017 16/14 A2994 RMK AO2 PK WND 06028/1043 RAE03 SLP134 P0000 T01610139=
201110110952 METAR KATL 110952Z 06018G24KT 6SM -RA BR BKN009 OVC150 16/14 A2993 RMK AO2 RAB0859 SLP130 P0000 T01610144=
201110110905 SPECI KATL 110905Z 06018G23KT 6SM -RA BR BKN009 OVC013 17/14 A2992 RMK AO2 RAB0859 P0000=
201110110905 SPECI KATL 110905Z 06018G23KT 6SM -RA BR BKN009 OVC013 17/14 A2992 RMK AO2 RAB0859 P0000=
201110110852 METAR KATL 110852Z 06018G22KT 6SM BR SCT009 BKN011 OVC016 17/15 A2992 RMK AO2 RAE48 SLP128 P0001 60010 T01670150 58006=
201110110752 METAR KATL 110752Z 06014G24KT 5SM -RA BR BKN009 OVC016 17/16 A2992 RMK AO2 SLP129 P0002 T01720156=
201110110652 METAR KATL 110652Z 05015KT 6SM -RA BR BKN007 OVC014 17/16 A2994 RMK AO2 SLP133 P0007 T01720156=
201110110648 SPECI KATL 110648Z 05015KT 6SM -RA BR BKN007 OVC014 17/16 A2994 RMK AO2 P0007=
201110110648 SPECI KATL 110648Z 05015KT 6SM -RA BR BKN007 OVC014 17/16 A2994 RMK AO2 P0007=
201110110638 SPECI KATL 110638Z 06014KT 2 1/2SM +RA BR BKN007 OVC014 17/16 A2995 RMK AO2 P0005=
201110110638 SPECI KATL 110638Z 06014KT 2 1/2SM +RA BR BKN007 OVC014 17/16 A2995 RMK AO2 P0005=
201110110552 METAR KATL 110552Z 06015G21KT 10SM -RA BKN012 OVC018 18/15 A2995 RMK AO2 PK WND 08028/0533 RAE16B46 SLP139 P0000 60000 T01780150 10189 20172 56019=
201110110542 SPECI KATL 110542Z 07017G28KT 10SM BKN012 OVC018 18/15 A2996 RMK AO2 PK WND 08028/0533 RAE16 P0000=
201110110542 SPECI KATL 110542Z 07017G28KT 10SM BKN012 OVC018 18/15 A2996 RMK AO2 PK WND 08028/0533 RAE16 P0000=
201110110452 METAR KATL 110452Z 07019G22KT 8SM -RA FEW012 BKN018 OVC025 18/15 A2997 RMK AO2 RAB50 SLP144 P0000 T01780150 402000172=
201110110352 METAR KATL 110352Z 06017KT 10SM FEW012 BKN017 OVC025 18/14 A2999 RMK AO2 SLP150 T01780144=
201110110252 METAR KATL 110252Z 07017G22KT 10SM FEW010 BKN015 OVC025 18/15 A3001 RMK AO2 SLP157 T01780150 52004=
201110110152 METAR KATL 110152Z 06017G21KT 10SM FEW012 BKN017 OVC025 18/15 A3001 RMK AO2 PK WND 06026/0125 SLP156 T01780150=
201110110052 METAR KATL 110052Z 06016G20KT 10SM FEW008 BKN016 OVC025 18/15 A3000 RMK AO2 PK WND 05027/0006 SLP153 T01780150=
201110102352 METAR KATL 102352Z 06018G24KT 10SM FEW008 BKN014 OVC030 17/15 A3000 RMK AO2 RAE27 SLP152 P0000 60007 T01720150 10183 20172 56008=
201110102301 SPECI KATL 102301Z 05015G22KT 4SM -RA BR SCT008 BKN014 OVC030 17/16 A3000 RMK AO2 P0000=
201110102301 SPECI KATL 102301Z 05015G22KT 4SM -RA BR SCT008 BKN014 OVC030 17/16 A3000 RMK AO2 P0000=
201110102252 METAR KATL 102252Z 05014G25KT 2 1/2SM -RA BR FEW008 BKN014 OVC030 17/15 A3000 RMK AO2 SLP153 P0002 T01720150=
201110102159 SPECI KATL 102159Z 05015G23KT 2 1/2SM -RA BR SCT012 BKN018 OVC035 17/15 A3000 RMK AO2 P0000=
201110102159 SPECI KATL 102159Z 05015G23KT 2 1/2SM -RA BR SCT012 BKN018 OVC035 17/15 A3000 RMK AO2 P0000=
201110102152 METAR KATL 102152Z 05017G23KT 5SM -RA BR SCT012 BKN018 OVC035 17/15 A3000 RMK AO2 SLP155 P0001 T01720150=
201110102146 SPECI KATL 102146Z 05016G23KT 6SM -RA BR SCT012 BKN018 OVC035 17/15 A3001 RMK AO2 P0000=
201110102146 SPECI KATL 102146Z 05016G23KT 6SM -RA BR SCT012 BKN018 OVC035 17/15 A3001 RMK AO2 P0000=
201110102052 METAR KATL 102052Z 05020G26KT 5SM -RA FEW012 SCT017 OVC041 18/15 A3002 RMK AO2 PK WND 05026/2052 RAE10B36 SLP161 P0001 60004 T01780150 55010=
201110102042 SPECI KATL 102042Z 05017KT 8SM -RA SCT011 BKN017 OVC045 18/15 A3002 RMK AO2 RAE10B36 P0000=
201110102042 SPECI KATL 102042Z 05017KT 8SM -RA SCT011 BKN017 OVC045 18/15 A3002 RMK AO2 RAE10B36 P0000=
201110101952 METAR KATL 101952Z 05016G23KT 10SM -RA BKN011 BKN016 OVC041 17/15 A3004 RMK AO2 RAB1857 SLP166 P0002 T01720150=
201110101852 METAR KATL 101852Z 06014KT 10SM BKN011 BKN018 OVC039 18/16 A3005 RMK AO2 RAE43 SLP171 P0001 T01780156=
201110101815 SPECI KATL 101815Z 05015G21KT 4SM -RA BR FEW007 BKN013 OVC045 18/16 A3006 RMK AO2 P0001=
201110101815 SPECI KATL 101815Z 05015G21KT 4SM -RA BR FEW007 BKN013 OVC045 18/16 A3006 RMK AO2 P0001=
201110101752 METAR KATL 101752Z 05017G23KT 8SM -RA SCT010 BKN015 OVC045 18/16 A3007 RMK AO2 PK WND 05028/1714 SLP177 P0003 60005 T01780156 10200 20178 58018=
201110101736 SPECI KATL 101736Z 05018G25KT 5SM -RA BR SCT010 BKN016 OVC050 18/16 A3008 RMK AO2 PK WND 05028/1714 P0003=
201110101736 SPECI KATL 101736Z 05018G25KT 5SM -RA BR SCT010 BKN016 OVC050 18/16 A3008 RMK AO2 PK WND 05028/1714 P0003=
201110101729 SPECI KATL 101729Z 05016G24KT 6SM -RA BR SCT012 BKN047 OVC055 18/16 A3008 RMK AO2 PK WND 05028/1714 P0003=
201110101729 SPECI KATL 101729Z 05016G24KT 6SM -RA BR SCT012 BKN047 OVC055 18/16 A3008 RMK AO2 PK WND 05028/1714 P0003=
201110101652 METAR KATL 101652Z 05016G21KT 3SM -RA BR BKN014 OVC021 18/16 A3010 RMK AO2 PK WND 06026/1609 SLP185 P0002 T01830161=
201110101610 SPECI KATL 101610Z 06018G26KT 5SM -RA FEW012 BKN016 OVC065 18/16 A3011 RMK AO2 PK WND 06026/1609 P0002=
201110101610 SPECI KATL 101610Z 06018G26KT 5SM -RA FEW012 BKN016 OVC065 18/16 A3011 RMK AO2 PK WND 06026/1609 P0002=
201110101601 SPECI KATL 101601Z 06016G24KT 5SM -RA SCT016 BKN036 OVC075 18/16 A3011 RMK AO2 P0001=
201110101601 SPECI KATL 101601Z 06016G24KT 5SM -RA SCT016 BKN036 OVC075 18/16 A3011 RMK AO2 P0001=
201110101552 METAR KATL 101552Z 06016G21KT 10SM -RA BKN016 BKN047 OVC060 18/15 A3012 RMK AO2 PK WND 07031/1511 SLP193 P0000 T01830150=
201110101544 SPECI KATL 101544Z 06017G22KT 10SM BKN016 BKN047 OVC060 18/15 A3012 RMK AO2 PK WND 07031/1511 RAE38 P0000=
201110101544 SPECI KATL 101544Z 06017G22KT 10SM BKN016 BKN047 OVC060 18/15 A3012 RMK AO2 PK WND 07031/1511 RAE38 P0000=
201110101518 SPECI KATL 101518Z 07017G31KT 10SM -RA SCT018 BKN050 OVC090 18/15 A3013 RMK AO2 PK WND 07031/1511 P0000=
201110101518 SPECI KATL 101518Z 07017G31KT 10SM -RA SCT018 BKN050 OVC090 18/15 A3013 RMK AO2 PK WND 07031/1511 P0000=
201110101452 METAR KATL 101452Z 09021G26KT 8SM -RA BKN024 BKN060 OVC100 18/14 A3012 RMK AO2 PK WND 08030/1419 RAB1358E10B43 SLP195 P0000 60000 T01830144 53007=
201110101352 METAR KATL 101352Z 07019G24KT 10SM BKN022 OVC110 20/14 A3012 RMK AO2 RAE07 SLP192 P0000 T02000139=
201110101329 SPECI KATL 101329Z 07017G23KT 10SM BKN022 OVC110 19/14 A3011 RMK AO2 RAE07 P0000=
201110101329 SPECI KATL 101329Z 07017G23KT 10SM BKN022 OVC110 19/14 A3011 RMK AO2 RAE07 P0000=
201110101252 METAR KATL 101252Z 07016KT 10SM -RA SCT026 BKN080 BKN150 19/14 A3010 RMK AO2 RAB45 SLP187 P0000 T01890139=
201110101152 METAR KATL 101152Z 07017G23KT 10SM SCT065 BKN080 BKN140 19/13 A3010 RMK AO2 SLP187 T01890133 10194 20189 56000=
201110101052 METAR KATL 101052Z 07013KT 10SM SCT023 OVC150 19/14 A3010 RMK AO2 SLP188 T01940139=
201110100952 METAR KATL 100952Z 07017G21KT 10SM BKN023 OVC040 19/13 A3010 RMK AO2 SLP187 T01940133=
201110100852 METAR KATL 100852Z 07014KT 10SM BKN025 OVC055 19/13 A3010 RMK AO2 SLP188 T01940133 56015=
201110100752 METAR KATL 100752Z 06014G18KT 10SM BKN027 OVC055 19/13 A3011 RMK AO2 SLP192 T01940133=
201110100652 METAR KATL 100652Z 07017KT 10SM BKN029 BKN060 OVC150 19/13 A3014 RMK AO2 SLP199 T01940133=
201110100552 METAR KATL 100552Z 07016G23KT 10SM FEW036 BKN065 BKN075 19/13 A3015 RMK AO2 SLP202 T01940133 10206 20194 58010=
201110100452 METAR KATL 100452Z 07015KT 10SM FEW060 SCT075 BKN180 20/13 A3016 RMK AO2 SLP209 T02000128 402220161=
201110100352 METAR KATL 100352Z 07016G22KT 10SM BKN060 BKN075 OVC180 20/12 A3018 RMK AO2 SLP214 T02000122=
201110100252 METAR KATL 100252Z 07015KT 10SM FEW038 BKN047 OVC090 20/12 A3018 RMK AO2 SLP215 T02000122 56002=
201110100152 METAR KATL 100152Z 06011G19KT 10SM FEW038 BKN060 OVC180 21/12 A3018 RMK AO2 SLP215 VIRGA OHD T02060122=
201110100052 METAR KATL 100052Z 07013KT 10SM BKN038 BKN049 OVC180 21/12 A3018 RMK AO2 SLP215 T02060122=
201110092352 METAR KATL 092352Z 07012KT 10SM BKN036 OVC180 21/12 A3018 RMK AO2 SLP216 T02060117 10222 20206 51002=
201110092252 METAR KATL 092252Z 07012KT 10SM BKN038 OVC180 21/12 A3018 RMK AO2 SLP216 T02110117=
201110092152 METAR KATL 092152Z 09014KT 10SM BKN040 BKN120 OVC250 21/12 A3019 RMK AO2 SLP217 T02110117=
201110092052 METAR KATL 092052Z 08015G20KT 10SM SCT042 BKN120 OVC250 22/12 A3018 RMK AO2 SLP213 T02170117 56024=
201110091952 METAR KATL 091952Z 06016G20KT 10SM FEW040 BKN120 BKN250 22/12 A3020 RMK AO2 SLP219 T02170117=
201110091852 METAR KATL 091852Z 06014KT 10SM FEW040 BKN120 OVC250 22/12 A3021 RMK AO2 SLP226 T02170117=
201110091752 METAR KATL 091752Z 07018G24KT 10SM FEW040 BKN120 BKN250 22/12 A3025 RMK AO2 SLP238 T02220117 10222 20167 58020=
201110091652 METAR KATL 091652Z 07015KT 10SM FEW040 BKN120 OVC250 21/12 A3028 RMK AO2 SLP249 T02060117=
201110091552 METAR KATL 091552Z 06013KT 10SM FEW035 BKN120 BKN250 18/11 A3030 RMK AO2 SLP256 T01830111=
201110091452 METAR KATL 091452Z 06015G21KT 10SM FEW055 OVC120 18/11 A3031 RMK AO2 SLP260 T01780111 50006=
201110091352 METAR KATL 091352Z 07013KT 10SM FEW030 SCT055 OVC120 17/11 A3031 RMK AO2 SLP261 VIRGA E T01720106=
201110091252 METAR KATL 091252Z 07011KT 10SM FEW055 SCT085 BKN100 17/09 A3031 RMK AO2 SLP259 T01670094=
201110091152 METAR KATL 091152Z 07013KT 10SM FEW038 BKN075 BKN180 BKN250 17/09 A3029 RMK AO2 SLP253 T01670089 10183 20161 53005=
201110091052 METAR KATL 091052Z 06014KT 10SM SCT080 BKN180 OVC250 16/08 A3029 RMK AO2 SLP250 T01610078=
201110090952 METAR KATL 090952Z 07014KT 10SM BKN180 OVC250 17/07 A3028 RMK AO2 SLP248 T01670067=
201110090852 METAR KATL 090852Z 07012KT 10SM BKN180 OVC250 17/06 A3028 RMK AO2 SLP246 T01670061 55009=
201110090752 METAR KATL 090752Z 07015G19KT 10SM FEW030 BKN180 OVC250 17/06 A3028 RMK AO2 SLP245 T01720061=
201110090652 METAR KATL 090652Z 08013KT 10SM BKN200 OVC250 17/06 A3029 RMK AO2 SLP251 T01720061=
201110090552 METAR KATL 090552Z 08014KT 10SM BKN200 OVC250 18/06 A3030 RMK AO2 SLP255 T01830061 10222 20178 56008=
201110090452 METAR KATL 090452Z 08015KT 10SM BKN200 OVC250 19/07 A3031 RMK AO2 SLP257 T01890067 402560139=
201110090352 METAR KATL 090352Z 09012KT 10SM BKN200 19/08 A3031 RMK AO2 SLP260 T01890078=
201110090252 METAR KATL 090252Z 08012KT 10SM FEW180 SCT220 BKN250 19/09 A3033 RMK AO2 SLP265 T01940089 50006=
201110090152 METAR KATL 090152Z 07012KT 10SM OVC200 21/09 A3033 RMK AO2 SLP265 T02060094=
201110090052 METAR KATL 090052Z 07010KT 10SM BKN220 21/10 A3033 RMK AO2 SLP264 T02110100=
201110082352 METAR KATL 082352Z COR 07012KT 10SM BKN200 22/09 A3031 RMK AO2 SLP259 T02220094 10256 20222 53006=
201110082252 METAR KATL 082252Z 09012KT 10SM BKN220 23/08 A3030 RMK AO2 SLP254 T02330078=
201110082152 METAR KATL 082152Z 10011KT 10SM FEW060 BKN250 24/08 A3029 RMK AO2 SLP250 T02440078=
201110082052 METAR KATL 082052Z 09011KT 10SM FEW050 BKN250 25/08 A3029 RMK AO2 SLP252 T02500083 57024=
201110081952 METAR KATL 081952Z 11009KT 10SM FEW050 BKN250 26/10 A3032 RMK AO2 SLP260 T02560100=
201110081852 METAR KATL 081852Z 09015KT 10SM FEW048 SCT250 24/11 A3034 RMK AO2 SLP269 T02440106=
201110081752 METAR KATL 081752Z 11012G21KT 10SM SCT044 23/11 A3036 RMK AO2 SLP277 T02330111 10250 20139 58015=
201110081652 METAR KATL 081652Z 09015G21KT 10SM SCT035 23/11 A3039 RMK AO2 SLP285 T02280111=
201110081552 METAR KATL 081552Z 08012G21KT 10SM FEW033 22/11 A3040 RMK AO2 SLP288 T02220106=
201110081452 METAR KATL 081452Z 09016G25KT 10SM SCT030 21/10 A3041 RMK AO2 PK WND 07026/1427 SLP292 T02060100 51009=
201110081352 METAR KATL 081352Z 08016G20KT 10SM FEW045 18/10 A3041 RMK AO2 SLP292 T01830100=
201110081252 METAR KATL 081252Z 07012KT 10SM SCT049 16/09 A3040 RMK AO2 SLP289 T01560089=
201110081152 METAR KATL 081152Z 07008KT 10SM FEW150 14/08 A3038 RMK AO2 SLP284 T01390083 10172 20139 53010 $=
201110081052 METAR KATL 081052Z 06009KT 10SM CLR 14/08 A3037 RMK AO2 SLP277 T01440078=
201110080952 METAR KATL 080952Z 07011KT 10SM CLR 14/08 A3036 RMK AO2 SLP274 T01440078=
201110080852 METAR KATL 080852Z 07010KT 10SM CLR 15/08 A3035 RMK AO2 SLP273 T01500078 54000=
201110080752 METAR KATL 080752Z 08012KT 10SM CLR 16/08 A3035 RMK AO2 SLP273 T01560083=
201110080652 METAR KATL 080652Z 09009KT 10SM CLR 16/09 A3035 RMK AO2 SLP273 T01610089=
201110080552 METAR KATL 080552Z 08010KT 10SM CLR 17/09 A3035 RMK AO2 SLP272 T01720089 10222 20167 51000=
201110080452 METAR KATL 080452Z 08011KT 10SM CLR 18/09 A3035 RMK AO2 SLP273 T01780089 402610144=
201110080352 METAR KATL 080352Z 08012KT 10SM CLR 18/08 A3035 RMK AO2 SLP273 T01830083=
201110080252 METAR KATL 080252Z 08013KT 10SM CLR 19/08 A3035 RMK AO2 SLP272 T01890078 51015=
201110080152 METAR KATL 080152Z 07011KT 10SM CLR 20/08 A3034 RMK AO2 SLP270 T02000083=
201110080052 METAR KATL 080052Z 06011KT 10SM CLR 21/08 A3033 RMK AO2 SLP265 T02110083=
201110072352 METAR KATL 072352Z 11006KT 10SM CLR 22/08 A3031 RMK AO2 SLP258 T02220083 10261 20222 53002=
201110072252 METAR KATL 072252Z 11008G15KT 10SM CLR 24/07 A3029 RMK AO2 SLP252 T02390072=
201110072152 METAR KATL 072152Z 10009KT 10SM CLR 25/07 A3029 RMK AO2 SLP251 T02500067=
201110072052 METAR KATL 072052Z 09011KT 10SM CLR 26/06 A3030 RMK AO2 SLP255 T02560061 56014=
201110071952 METAR KATL 071952Z 08009G14KT 10SM CLR 26/07 A3030 RMK AO2 SLP255 T02560067=
201110071852 METAR KATL 071852Z 08012G17KT 10SM CLR 25/07 A3032 RMK AO2 SLP262 T02500067=
201110071752 METAR KATL 071752Z 11009G14KT 10SM CLR 24/08 A3034 RMK AO2 SLP270 T02440078 10244 20150 58014=
201110071652 METAR KATL 071652Z 11011G19KT 10SM FEW045 23/09 A3037 RMK AO2 SLP278 T02330089=
201110071552 METAR KATL 071552Z 09010G19KT 10SM FEW040 22/10 A3038 RMK AO2 SLP283 T02170100=
201110071452 METAR KATL 071452Z 09014G17KT 10SM CLR 21/10 A3039 RMK AO2 SLP284 T02060100 51015=
201110071352 METAR KATL 071352Z 09009G17KT 10SM CLR 18/10 A3038 RMK AO2 SLP280 T01830100=
201110071252 METAR KATL 071252Z 08010KT 10SM CLR 16/11 A3036 RMK AO2 SLP276 T01610106=
201110071152 METAR KATL 071152Z 06009KT 10SM CLR 15/10 A3034 RMK AO2 SLP269 T01500100 10167 20144 53014=
201110071052 METAR KATL 071052Z 07007KT 10SM CLR 14/10 A3032 RMK AO2 SLP263 T01440100=
201110070952 METAR KATL 070952Z 07007KT 10SM CLR 15/10 A3031 RMK AO2 SLP258 T01500100=
201110070852 METAR KATL 070852Z 07009KT 10SM CLR 16/10 A3030 RMK AO2 SLP253 T01560100 55001=
201110070752 METAR KATL 070752Z 08005KT 10SM CLR 14/10 A3030 RMK AO2 SLP254 T01440100=
201110070652 METAR KATL 070652Z 08006KT 10SM CLR 16/10 A3030 RMK AO2 SLP255 T01560100=
201110070552 METAR KATL 070552Z 08008KT 10SM CLR 17/10 A3030 RMK AO2 SLP255 T01670100 10228 20161 50000=
201110070452 METAR KATL 070452Z 09006KT 10SM FEW250 17/10 A3030 RMK AO2 SLP255 T01670100 402720133=
201110070352 METAR KATL 070352Z 08008KT 10SM FEW250 18/10 A3031 RMK AO2 SLP257 T01780100=
201110070252 METAR KATL 070252Z 08010KT 10SM SCT250 19/10 A3030 RMK AO2 SLP255 T01940100 51018=
201110070152 METAR KATL 070152Z 07011KT 10SM BKN250 21/09 A3029 RMK AO2 SLP250 T02110094=
201110070052 METAR KATL 070052Z 08008KT 10SM BKN250 21/09 A3027 RMK AO2 SLP245 T02110094=
201110062352 METAR KATL 062352Z 11007KT 10SM BKN250 23/09 A3025 RMK AO2 SLP238 T02330089 10272 20228 53005=
201110062252 METAR KATL 062252Z 12008KT 10SM BKN250 24/08 A3024 RMK AO2 SLP234 T02440083=
201110062152 METAR KATL 062152Z 10010KT 10SM BKN250 26/08 A3023 RMK AO2 SLP231 T02610083=
201110062052 METAR KATL 062052Z 12006KT 10SM SCT250 26/08 A3023 RMK AO2 SLP231 T02610083 56011=
201110061952 METAR KATL 061952Z 10008KT 10SM SCT250 27/08 A3024 RMK AO2 SLP232 T02670083=
201110061852 METAR KATL 061852Z 08010G17KT 10SM FEW250 27/08 A3025 RMK AO2 SLP235 T02670083=
201110061752 METAR KATL 061752Z 08006G15KT 10SM FEW250 25/09 A3027 RMK AO2 SLP243 T02500089 10256 20139 58015=
201110061652 METAR KATL 061652Z 08013G18KT 10SM FEW250 25/10 A3030 RMK AO2 SLP251 T02500100=
201110061552 METAR KATL 061552Z 09014G18KT 10SM FEW250 23/11 A3031 RMK AO2 SLP256 T02330106=
201110061452 METAR KATL 061452Z 10008KT 10SM FEW250 21/11 A3031 RMK AO2 SLP259 T02110111 51017=
201110061352 METAR KATL 061352Z 09006KT 10SM FEW250 18/11 A3030 RMK AO2 SLP256 T01830111=
201110061252 METAR KATL 061252Z 08007KT 10SM FEW250 16/11 A3028 RMK AO2 SLP248 T01610106=
201110061152 METAR KATL 061152Z 08009KT 10SM FEW250 14/10 A3026 RMK AO2 SLP242 T01390100 10183 20133 53015=
201110061052 METAR KATL 061052Z 10005KT 10SM CLR 14/09 A3024 RMK AO2 SLP235 T01390094=
201110060952 METAR KATL 060952Z 08006KT 10SM CLR 16/10 A3022 RMK AO2 SLP228 T01560100=
201110060852 METAR KATL 060852Z 07005KT 10SM CLR 16/09 A3022 RMK AO2 SLP225 T01610094 51004=
201110060752 METAR KATL 060752Z 06006KT 10SM CLR 17/09 A3022 RMK AO2 SLP224 T01670094=
201110060652 METAR KATL 060652Z 05004KT 10SM CLR 18/09 A3021 RMK AO2 SLP222 T01780094=
201110060552 METAR KATL 060552Z 06003KT 10SM CLR 18/09 A3021 RMK AO2 SLP221 T01780094 10256 20167 58001=
201110060452 METAR KATL 060452Z 08004KT 10SM CLR 19/10 A3021 RMK AO2 SLP223 T01890100 402830133=
201110060352 METAR KATL 060352Z 00000KT 10SM CLR 20/09 A3021 RMK AO2 SLP222 T02000089=
201110060252 METAR KATL 060252Z 00000KT 10SM CLR 20/09 A3021 RMK AO2 SLP222 T02000094 51010=
201110060152 METAR KATL 060152Z 00000KT 10SM CLR 21/09 A3020 RMK AO2 SLP220 T02110089=
201110060052 METAR KATL 060052Z 00000KT 10SM CLR 23/08 A3019 RMK AO2 SLP216 T02330083=
201110052352 METAR KATL 052352Z 06006KT 10SM CLR 26/07 A3018 RMK AO2 SLP213 T02560067 10283 20239 53001=
201110052252 METAR KATL 052252Z 06005KT 10SM CLR 26/07 A3017 RMK AO2 SLP211 T02610072=
201110052152 METAR KATL 052152Z 03003KT 10SM CLR 27/07 A3017 RMK AO2 SLP210 T02720072=
201110052052 METAR KATL 052052Z 02009KT 10SM CLR 28/07 A3018 RMK AO2 SLP211 T02780072 56020=
201110051952 METAR KATL 051952Z 07006KT 10SM CLR 28/08 A3019 RMK AO2 SLP215 T02780083=
201110051852 METAR KATL 051852Z VRB03KT 10SM CLR 27/07 A3021 RMK AO2 SLP222 T02670072=
201110051752 METAR KATL 051752Z 33004KT 10SM CLR 27/08 A3024 RMK AO2 SLP232 T02670083 10267 20139 58016=
201110051652 METAR KATL 051652Z 00000KT 10SM CLR 26/09 A3027 RMK AO2 SLP242 T02560089=
201110051552 METAR KATL 051552Z 12003KT 10SM CLR 24/08 A3028 RMK AO2 SLP246 T02390083=
201110051452 METAR KATL 051452Z 00000KT 10SM CLR 22/09 A3028 RMK AO2 SLP250 T02220089 51008 $=
201110051352 METAR KATL 051352Z 08005KT 10SM CLR 19/09 A3028 RMK AO2 SLP249 T01940089=
201110051252 METAR KATL 051252Z 09004KT 10SM CLR 17/09 A3027 RMK AO2 SLP245 T01720094=
201110051152 METAR KATL 051152Z 00000KT 10SM CLR 14/09 A3026 RMK AO2 SLP242 T01440089 10178 20133 53013=
201110051052 METAR KATL 051052Z 08004KT 10SM CLR 14/09 A3025 RMK AO2 SLP237 T01390089=
201110050952 METAR KATL 050952Z 07004KT 10SM CLR 16/08 A3023 RMK AO2 SLP230 T01560083=
201110050852 METAR KATL 050852Z 08003KT 10SM CLR 14/08 A3022 RMK AO2 SLP228 T01440083 53001=
201110050752 METAR KATL 050752Z 09003KT 10SM CLR 16/08 A3021 RMK AO2 SLP225 T01560083=
201110050652 METAR KATL 050652Z 00000KT 10SM CLR 17/08 A3022 RMK AO2 SLP226 T01670078=
201110050552 METAR KATL 050552Z 00000KT 10SM CLR 16/07 A3022 RMK AO2 SLP226 T01610072 10222 20161 53000=
201110050452 METAR KATL 050452Z 01004KT 10SM CLR 17/07 A3021 RMK AO2 SLP225 T01720067 402670100=
201110050352 METAR KATL 050352Z 35003KT 10SM CLR 18/07 A3022 RMK AO2 SLP226 T01780067=
201110050252 METAR KATL 050252Z VRB03KT 10SM CLR 18/08 A3022 RMK AO2 SLP226 T01830083 52010=
201110050152 METAR KATL 050152Z 32005KT 10SM CLR 18/08 A3020 RMK AO2 SLP223 T01830083=
201110050052 METAR KATL 050052Z 32007KT 10SM CLR 20/08 A3020 RMK AO2 SLP220 T02000083=
201110042352 METAR KATL 042352Z 32007KT 10SM CLR 22/07 A3018 RMK AO2 SLP217 T02220072 10267 20222 53003=
201110042252 METAR KATL 042252Z 33007KT 10SM CLR 24/07 A3018 RMK AO2 SLP216 T02440067=
201110042152 METAR KATL 042152Z 34008KT 10SM CLR 26/06 A3018 RMK AO2 SLP214 T02610061=
201110042052 METAR KATL 042052Z 36005KT 10SM CLR 27/06 A3018 RMK AO2 SLP214 T02670061 56021=
201110041952 METAR KATL 041952Z 33004KT 10SM CLR 26/06 A3019 RMK AO2 SLP219 T02610056=
201110041852 METAR KATL 041852Z VRB06KT 10SM CLR 26/05 A3022 RMK AO2 SLP227 T02560050=
201110041752 METAR KATL 041752Z VRB03KT 10SM CLR 25/05 A3024 RMK AO2 SLP235 T02500050 10250 20117 58015=
201110041652 METAR KATL 041652Z 01005KT 10SM CLR 23/03 A3026 RMK AO2 SLP245 T02330033=
201110041552 METAR KATL 041552Z 00000KT 10SM CLR 22/03 A3028 RMK AO2 SLP250 T02170033=
201110041452 METAR KATL 041452Z 10004KT 10SM CLR 20/03 A3028 RMK AO2 SLP252 T02000028 51015=
201110041352 METAR KATL 041352Z 08006KT 10SM CLR 18/02 A3027 RMK AO2 SLP247 T01780017=
201110041252 METAR KATL 041252Z VRB03KT 10SM FEW250 16/03 A3026 RMK AO2 SLP245 T01610033=
201110041152 METAR KATL 041152Z 02004KT 10SM CLR 13/03 A3024 RMK AO2 SLP237 T01330033 10133 20100 53012=
201110041052 METAR KATL 041052Z 25003KT 10SM CLR 11/04 A3022 RMK AO2 SLP231 T01060039=
201110040952 METAR KATL 040952Z 31003KT 10SM CLR 11/04 A3021 RMK AO2 SLP225 T01110039=
201110040852 METAR KATL 040852Z 00000KT 10SM CLR 10/04 A3020 RMK AO2 SLP224 T01000039 53001=
201110040752 METAR KATL 040752Z 36006KT 10SM CLR 12/04 A3020 RMK AO2 SLP222 T01220039=
201110040652 METAR KATL 040652Z 32004KT 10SM CLR 11/04 A3019 RMK AO2 SLP220 T01110039=
201110040552 METAR KATL 040552Z 31007KT 10SM CLR 12/04 A3020 RMK AO2 SLP223 T01170044 10189 20117 53003=
201110040452 METAR KATL 040452Z 32007KT 10SM CLR 12/04 A3020 RMK AO2 SLP222 T01220044 402390072=
201110040352 METAR KATL 040352Z 32007KT 10SM CLR 13/03 A3019 RMK AO2 SLP222 T01330033=
201110040252 METAR KATL 040252Z 31004KT 10SM CLR 15/02 A3019 RMK AO2 SLP221 T01500022 53012=
201110040152 METAR KATL 040152Z 30005KT 10SM CLR 17/02 A3018 RMK AO2 SLP217 T01670017=
201110040052 METAR KATL 040052Z 28003KT 10SM CLR 17/02 A3017 RMK AO2 SLP215 T01670017=
201110032352 METAR KATL 032352Z 32005KT 10SM FEW250 19/M01 A3016 RMK AO2 SLP211 T01891006 10239 20189 53009=
201110032252 METAR KATL 032252Z 33008KT 10SM FEW250 21/M02 A3015 RMK AO2 SLP206 T02111022=
201110032152 METAR KATL 032152Z 33010KT 10SM FEW250 23/M02 A3013 RMK AO2 SLP202 T02281017=
201110032052 METAR KATL 032052Z 33011KT 10SM FEW250 23/M01 A3013 RMK AO2 SLP201 T02331011 56017=
201110031952 METAR KATL 031952Z 35010KT 10SM FEW250 23/M04 A3014 RMK AO2 SLP205 T02331044=
201110031852 METAR KATL 031852Z 30007KT 10SM CLR 23/M01 A3016 RMK AO2 SLP211 T02281006=
201110031752 METAR KATL 031752Z 31010G16KT 10SM FEW250 22/M03 A3018 RMK AO2 SLP217 T02221028 10222 20083 58010=
201110031652 METAR KATL 031652Z 32012KT 10SM FEW250 21/M02 A3020 RMK AO2 SLP224 T02111017=
201110031552 METAR KATL 031552Z 33010KT 10SM FEW250 19/00 A3021 RMK AO2 SLP229 T01890000=
201110031452 METAR KATL 031452Z 33008KT 10SM FEW250 17/02 A3021 RMK AO2 SLP228 T01720017 51014=
201110031352 METAR KATL 031352Z 33006KT 10SM FEW250 14/02 A3020 RMK AO2 SLP224 T01440022=
201110031252 METAR KATL 031252Z 33006KT 10SM CLR 11/03 A3019 RMK AO2 SLP224 T01110028=
201110031152 METAR KATL 031152Z 32006KT 10SM CLR 08/02 A3017 RMK AO2 SLP216 T00830022 10100 20072 53007=
201110031052 METAR KATL 031052Z 34009KT 10SM CLR 09/02 A3015 RMK AO2 SLP210 T00940022 $=
201110030952 METAR KATL 030952Z 33006KT 10SM CLR 08/03 A3014 RMK AO2 SLP207 T00780028 $=
201110030852 METAR KATL 030852Z 32007KT 10SM CLR 08/03 A3015 RMK AO2 SLP208 T00780028 51003 $=
201110030752 METAR KATL 030752Z 32007KT 10SM CLR 08/02 A3014 RMK AO2 SLP205 T00830022 $=
201110030652 METAR KATL 030652Z 32007KT 10SM CLR 09/02 A3015 RMK AO2 SLP209 T00890022 $=
201110030552 METAR KATL 030552Z 00000KT 10SM CLR 10/02 A3014 RMK AO2 SLP203 T01000017 10156 20100 51005 $=
201110030452 METAR KATL 030452Z 32003KT 10SM CLR 11/02 A3013 RMK AO2 SLP202 T01060017 402000078 $=
201110030352 METAR KATL 030352Z 33009KT 10SM CLR 11/02 A3013 RMK AO2 SLP203 T01110017 $=
201110030252 METAR KATL 030252Z 33009KT 10SM CLR 12/01 A3012 RMK AO2 SLP199 T01220011 51012 $=
201110030152 METAR KATL 030152Z 34008KT 10SM CLR 14/01 A3011 RMK AO2 SLP196 T01390006 $=
201110030052 METAR KATL 030052Z 33007KT 10SM CLR 14/00 A3010 RMK AO2 SLP194 T01440000 $=
201110022352 METAR KATL 022352Z 30006KT 10SM CLR 16/M01 A3009 RMK AO2 SLP189 T01561006 10200 20156 53008 $=
201110022252 METAR KATL 022252Z 33009KT 10SM CLR 17/M02 A3007 RMK AO2 SLP184 T01721022 $=
201110022152 METAR KATL 022152Z 34011G18KT 10SM CLR 19/M01 A3007 RMK AO2 SLP180 T01891011 $=
201110022052 METAR KATL 022052Z 32010G16KT 10SM CLR 20/01 A3006 RMK AO2 SLP179 T02000006 56011 $=
201110021952 METAR KATL 021952Z 32013G16KT 10SM CLR 19/01 A3006 RMK AO2 SLP179 T01940006 $=
201110021852 METAR KATL 021852Z 32010KT 10SM CLR 19/00 A3007 RMK AO2 SLP183 T01890000 $=
201110021752 METAR KATL 021752Z 34012G19KT 10SM CLR 18/01 A3009 RMK AO2 SLP190 T01830006 10189 20078 58007 $=
201110021652 METAR KATL 021652Z 32009G20KT 10SM CLR 18/02 A3011 RMK AO2 SLP193 T01780017 $=
201110021552 METAR KATL 021552Z 33014G19KT 10SM CLR 17/02 A3012 RMK AO2 SLP197 T01670017 $=
201110021452 METAR KATL 021452Z 34014G19KT 10SM CLR 14/02 A3012 RMK AO2 SLP197 T01440017 51012 $=
201110021352 METAR KATL 021352Z 35009G16KT 10SM CLR 12/04 A3010 RMK AO2 SLP194 T01220039 $=
201110021252 METAR KATL 021252Z 31008KT 10SM CLR 10/04 A3009 RMK AO2 SLP191 T01000044 $=
201110021152 METAR KATL 021152Z 33009KT 10SM FEW250 08/04 A3008 RMK AO2 SLP187 T00780044 10094 20078 51008 $=
201110021052 METAR KATL 021052Z 33010KT 10SM FEW250 08/04 A3007 RMK AO2 SLP184 T00780039 $=
201110020952 METAR KATL 020952Z 32006KT 10SM CLR 08/04 A3007 RMK AO2 SLP181 T00780039 $=
201110020852 METAR KATL 020852Z 31007KT 10SM CLR 08/04 A3006 RMK AO2 SLP177 T00780039 58009 $=
201110020752 METAR KATL 020752Z 33005KT 10SM CLR 08/03 A3006 RMK AO2 SLP179 T00830033 $=
201110020652 METAR KATL 020652Z 33007KT 10SM CLR 09/03 A3008 RMK AO2 SLP184 T00890033 $=
201110020552 METAR KATL 020552Z 34008KT 10SM CLR 09/03 A3008 RMK AO2 SLP186 T00940028 10139 20094 58005 $=
201110020452 METAR KATL 020452Z 35010G16KT 10SM CLR 11/02 A3009 RMK AO2 SLP188 T01060022 401830100 $=
201110020352 METAR KATL 020352Z 34012KT 10SM CLR 11/02 A3010 RMK AO2 SLP192 T01110022 $=
201110020252 METAR KATL 020252Z 35012KT 10SM CLR 12/02 A3010 RMK AO2 SLP191 T01170017 51011 $=
201110020152 METAR KATL 020152Z 35013G21KT 10SM CLR 13/02 A3010 RMK AO2 SLP191 T01280017 $=
201110020052 METAR KATL 020052Z 35014G19KT 10SM CLR 13/02 A3008 RMK AO2 SLP186 T01330017 $=
201110012352 METAR KATL 012352Z 35012G21KT 10SM CLR 14/01 A3007 RMK AO2 SLP181 T01390011 10183 20139 53007 $=
201110012252 METAR KATL 012252Z 35013G22KT 10SM CLR 16/01 A3006 RMK AO2 SLP179 T01560006 $=
201110012152 METAR KATL 012152Z 33016G22KT 10SM FEW080 17/M01 A3005 RMK AO2 PK WND 33026/2139 SLP173 T01721006 $=
201110012052 METAR KATL 012052Z 33017G24KT 10SM FEW080 18/M01 A3004 RMK AO2 PK WND 35028/2034 SLP171 T01781006 53002=
201110011952 METAR KATL 011952Z 33014G22KT 10SM CLR 18/01 A3003 RMK AO2 SLP167 T01830006=
201110011852 METAR KATL 011852Z 34016G24KT 10SM CLR 18/M01 A3003 RMK AO2 PK WND 33026/1840 SLP168 T01781011=
201110011752 METAR KATL 011752Z 35014G25KT 10SM CLR 18/M02 A3004 RMK AO2 SLP168 T01781017 10178 20100 58001=
201110011652 METAR KATL 011652Z 33018G24KT 10SM FEW030 17/01 A3005 RMK AO2 SLP172 T01720006=
201110011552 METAR KATL 011552Z 33017G25KT 10SM FEW030 16/00 A3005 RMK AO2 SLP173 T01610000=
201110011452 METAR KATL 011452Z 33017G24KT 10SM FEW250 16/02 A3004 RMK AO2 SLP169 T01560017 51010=
201110011352 METAR KATL 011352Z 34012G17KT 10SM FEW250 14/03 A3004 RMK AO2 SLP169 T01390033=
201110011252 METAR KATL 011252Z 33010KT 10SM FEW250 12/07 A3002 RMK AO2 SLP164 T01220067=
