##########################################################
# Query made at 04/19/2024 23:21:21 UTC
# Time interval: from 04/01/2011 12:00  to 04/30/2011 12:59  UTC
##########################################################

##########################################################
# KATL, Atlanta, Hartsfield - Jackson Atlanta International Airport (United States)
# WMO index: 72219. WIGOS ID: 0-20000-0-72219
# Latitude 33-38-59N. Longitude 084-25-00W. Altitude 312 m.
##########################################################

201104301252 METAR KATL 301252Z 10004KT 10SM FEW250 17/09 A3011 RMK AO2 SLP192 T01670089=
201104301152 METAR KATL 301152Z 08003KT 10SM FEW250 14/09 A3009 RMK AO2 SLP184 T01440089 10150 20117 53016=
201104301052 METAR KATL 301052Z 00000KT 10SM FEW250 12/08 A3006 RMK AO2 SLP175 T01220078=
201104300952 METAR KATL 300952Z 00000KT 10SM SCT250 12/08 A3004 RMK AO2 SLP169 T01220078=
201104300852 METAR KATL 300852Z 00000KT 10SM FEW250 13/07 A3004 RMK AO2 SLP167 T01280072 55003=
201104300752 METAR KATL 300752Z 00000KT 10SM FEW250 13/08 A3004 RMK AO2 SLP166 T01330078=
201104300652 METAR KATL 300652Z 00000KT 10SM CLR 14/07 A3004 RMK AO2 SLP166 T01440072=
201104300552 METAR KATL 300552Z 30003KT 10SM CLR 14/08 A3005 RMK AO2 SLP170 T01390078 10211 20139 58001=
201104300452 METAR KATL 300452Z 28003KT 10SM FEW250 16/07 A3005 RMK AO2 SLP172 T01560072 402390094=
201104300352 METAR KATL 300352Z 29004KT 10SM CLR 18/06 A3006 RMK AO2 SLP172 T01830056=
201104300252 METAR KATL 300252Z 30004KT 10SM CLR 19/06 A3005 RMK AO2 SLP172 T01890061 53009=
201104300152 METAR KATL 300152Z 32005KT 10SM CLR 19/06 A3005 RMK AO2 SLP169 T01940056=
201104300052 METAR KATL 300052Z 32005KT 10SM CLR 20/06 A3003 RMK AO2 SLP164 T02000056=
201104292352 METAR KATL 292352Z 31008KT 10SM CLR 21/06 A3002 RMK AO2 SLP164 T02110061 10239 20211 53004=
201104292252 METAR KATL 292252Z 32009KT 10SM CLR 23/06 A3002 RMK AO2 SLP161 T02280061=
201104292152 METAR KATL 292152Z 28011G15KT 10SM CLR 23/07 A3001 RMK AO2 SLP159 T02330072=
201104292052 METAR KATL 292052Z VRB06G15KT 10SM FEW070 23/06 A3001 RMK AO2 SLP160 T02330056 56018=
201104291952 METAR KATL 291952Z 27014KT 10SM FEW070 24/06 A3002 RMK AO2 SLP162 T02390061=
201104291852 METAR KATL 291852Z 32008G17KT 10SM FEW070 23/06 A3005 RMK AO2 SLP172 T02280056=
201104291752 METAR KATL 291752Z 30008KT 10SM FEW065 22/07 A3007 RMK AO2 SLP177 T02220067 10228 20122 58007=
201104291652 METAR KATL 291652Z 34012G16KT 10SM FEW060 22/06 A3008 RMK AO2 SLP182 T02170061=
201104291552 METAR KATL 291552Z 32009G17KT 10SM FEW050 21/08 A3009 RMK AO2 SLP186 T02060078=
201104291452 METAR KATL 291452Z 31011G14KT 10SM CLR 19/08 A3009 RMK AO2 SLP185 T01890083 51007=
201104291352 METAR KATL 291352Z 30010KT 10SM CLR 17/08 A3008 RMK AO2 SLP182 T01670078=
201104291252 METAR KATL 291252Z 29009KT 10SM CLR 14/07 A3008 RMK AO2 SLP182 T01440072=
201104291152 METAR KATL 291152Z 29005KT 10SM CLR 12/07 A3006 RMK AO2 SLP178 T01220072 10128 20094 53012=
201104291052 METAR KATL 291052Z 29005KT 10SM CLR 10/06 A3005 RMK AO2 SLP172 T01000061=
201104290952 METAR KATL 290952Z 29007KT 10SM CLR 10/06 A3004 RMK AO2 SLP169 T01000061=
201104290852 METAR KATL 290852Z 29007KT 10SM CLR 10/07 A3003 RMK AO2 SLP166 T01000067 56007=
201104290752 METAR KATL 290752Z 28006KT 10SM CLR 11/06 A3003 RMK AO2 SLP167 T01060061=
201104290652 METAR KATL 290652Z 27004KT 10SM CLR 12/06 A3003 RMK AO2 SLP167 T01170061=
201104290552 METAR KATL 290552Z 27004KT 10SM CLR 13/06 A3005 RMK AO2 SLP171 T01280061 10172 20122 50001=
201104290452 METAR KATL 290452Z 30007KT 10SM CLR 12/07 A3005 RMK AO2 SLP173 T01220067 402110122=
201104290352 METAR KATL 290352Z 27003KT 10SM CLR 13/07 A3006 RMK AO2 SLP175 T01280072=
201104290252 METAR KATL 290252Z 30010KT 10SM CLR 14/07 A3005 RMK AO2 SLP172 T01390072 51020=
201104290152 METAR KATL 290152Z 29008KT 10SM CLR 15/07 A3003 RMK AO2 SLP167 T01500067=
201104290052 METAR KATL 290052Z 29009KT 10SM FEW045 16/07 A3002 RMK AO2 SLP161 T01560067=
201104282352 METAR KATL 282352Z 31011KT 10SM FEW045 17/07 A2999 RMK AO2 SLP151 T01720067 10211 20172 53012=
201104282252 METAR KATL 282252Z 32012KT 10SM FEW045 19/07 A2997 RMK AO2 SLP145 T01890072=
201104282152 METAR KATL 282152Z 30016G20KT 10SM FEW045 20/08 A2995 RMK AO2 SLP138 T02000078=
201104282052 METAR KATL 282052Z 31015G22KT 10SM FEW045 21/09 A2995 RMK AO2 SLP137 T02060089 58003=
201104281952 METAR KATL 281952Z 31014G21KT 10SM FEW050 21/09 A2996 RMK AO2 SLP138 T02060094=
201104281852 METAR KATL 281852Z 26011G20KT 10SM SCT040 21/10 A2997 RMK AO2 SLP141 T02110100=
201104281752 METAR KATL 281752Z 28011KT 10SM SCT042 21/11 A2996 RMK AO2 SLP138 T02110111 10211 20161 50000=
201104281652 METAR KATL 281652Z 29013G18KT 10SM FEW038 21/11 A2997 RMK AO2 SLP142 T02060111=
201104281552 METAR KATL 281552Z 28011G15KT 10SM FEW035 20/12 A2997 RMK AO2 SLP142 T02000117=
201104281452 METAR KATL 281452Z 31013KT 10SM FEW035 19/11 A2996 RMK AO2 SLP137 T01890106 53013=
201104281352 METAR KATL 281352Z 28013G21KT 10SM FEW030 18/10 A2994 RMK AO2 SLP131 T01780100=
201104281252 METAR KATL 281252Z 29014KT 10SM SCT070 17/12 A2993 RMK AO2 SLP125 T01670117=
201104281152 METAR KATL 281152Z 28009KT 10SM SCT065 BKN090 BKN100 16/12 A2992 RMK AO2 SLP124 60000 70057 T01610122 10206 20156 51032=
201104281052 METAR KATL 281052Z 29011KT 10SM BKN060 BKN110 16/12 A2989 RMK AO2 SLP114 T01610122=
201104280952 METAR KATL 280952Z 30011KT 10SM BKN050 17/13 A2986 RMK AO2 RAB28E38 SLP103 P0000 T01670128=
201104280852 METAR KATL 280852Z 29009KT 10SM FEW016 BKN049 OVC090 17/14 A2982 RMK AO2 SLP090 60000 T01720139 51022=
201104280752 METAR KATL 280752Z 26007KT 10SM SCT016 BKN045 BKN150 18/16 A2982 RMK AO2 SLP088 T01830161=
201104280652 METAR KATL 280652Z 31007KT 7SM BKN034 BKN045 OVC200 19/17 A2980 RMK AO2 WSHFT 0600 RAE26 SLP082 P0000 T01940172=
201104280614 SPECI KATL 280614Z 30013KT 8SM -RA FEW010 SCT025 BKN038 OVC200 20/17 A2980 RMK AO2 WSHFT 0600 P0000=
201104280614 SPECI KATL 280614Z 30013KT 8SM -RA FEW010 SCT025 BKN038 OVC200 20/17 A2980 RMK AO2 WSHFT 0600 P0000=
201104280606 SPECI KATL 280606Z 30015G25KT 8SM -RA FEW006 SCT015 BKN021 OVC200 21/18 A2980 RMK AO2 PRESRR P0000=
201104280606 SPECI KATL 280606Z 30015G25KT 8SM -RA FEW006 SCT015 BKN021 OVC200 21/18 A2980 RMK AO2 PRESRR P0000=
201104280552 METAR KATL 280552Z 24007G19KT 10SM -RA SCT010 BKN019 BKN030 21/19 A2976 RMK AO2 TSE51 SLP067 OCNL DSNT LTGIC SE TS MOV SE P0001 60057 T02060189 10278 20200 50008=
201104280537 SPECI KATL 280537Z 28012KT 10SM -TSRA SCT012 BKN030CB OVC055 21/19 A2975 RMK AO2 CONS LTGICCGCA E-SE-S TS E-SE-S MOV E P0001=
201104280537 SPECI KATL 280537Z 28012KT 10SM -TSRA SCT012 BKN030CB OVC055 21/19 A2975 RMK AO2 CONS LTGICCGCA E-SE-S TS E-SE-S MOV E P0001=
201104280452 METAR KATL 280452Z 20013G25KT 7SM -TSRA SCT012 BKN030CB OVC055 21/19 A2978 RMK AO2 SLP076 CONS LTGICCGCA E-OHD-SW TS E-OHD-SW MOV NE P0039 T02060189 402940194=
201104280417 SPECI KATL 280417Z 19008G16KT 4SM TSRA BR BKN030CB OVC050 22/21 A2979 RMK AO2 CONS LTGICCGCA N-NE AND SE-SW TS N-NE AND SE-SW MOV NE P0030=
201104280417 SPECI KATL 280417Z 19008G16KT 4SM TSRA BR BKN030CB OVC050 22/21 A2979 RMK AO2 CONS LTGICCGCA N-NE AND SE-SW TS N-NE AND SE-SW MOV NE P0030=
201104280406 SPECI KATL 280406Z 23012G25KT 1 1/2SM R09R/3500VP6000FT +TSRA BR BKN030CB OVC050 22/21 A2979 RMK AO2 PRESRR CONS LTGICCGCA OHD-ALQDS TS OHD-ALQDS MOV NE P0012=
201104280406 SPECI KATL 280406Z 23012G25KT 1 1/2SM R09R/3500VP6000FT +TSRA BR BKN030CB OVC050 22/21 A2979 RMK AO2 PRESRR CONS LTGICCGCA OHD-ALQDS TS OHD-ALQDS MOV NE P0012=
201104280352 METAR KATL 280352Z 20015G20KT 4SM TSRA BR BKN030CB BKN055 OVC110 22/21 A2975 RMK AO2 PK WND 20033/0319 TSB07RAB0259 PRESFR SLP063 FRQ LTGICCGCA OHD-ALQDS TS OHD-ALQDS MOV NE P0017 T02220211=
201104280345 SPECI KATL 280345Z 20013G30KT 2 1/2SM +TSRA BR BKN030CB OVC050 22/21 A2975 RMK AO2 PK WND 20033/0319 TSB07RAB0259 FRQ LTGICCG OHD-SW TS OHD-SW MOV NE P0010=
201104280345 SPECI KATL 280345Z 20013G30KT 2 1/2SM +TSRA BR BKN030CB OVC050 22/21 A2975 RMK AO2 PK WND 20033/0319 TSB07RAB0259 FRQ LTGICCG OHD-SW TS OHD-SW MOV NE P0010=
201104280308 SPECI KATL 280308Z 20025G32KT 9SM -TSRA BKN034CB BKN045 OVC150 26/19 A2976 RMK AO2 PK WND 18032/0308 TSB07RAB0259 OCNL LTGIC SW-W TS SW-W MOV NE P0000=
201104280308 SPECI KATL 280308Z 20025G32KT 9SM -TSRA BKN034CB BKN045 OVC150 26/19 A2976 RMK AO2 PK WND 18032/0308 TSB07RAB0259 OCNL LTGIC SW-W TS=
201104280252 METAR KATL 280252Z 20015G30KT 10SM SCT040 BKN090 OVC150 26/18 A2973 RMK AO2 PK WND 18030/0249 SLP059 FRQ LTG DSNT SW-NW T02610183 50002=
201104280152 METAR KATL 280152Z 20020G27KT 10SM FEW040 SCT110 OVC150 27/18 A2977 RMK AO2 PK WND 19031/0110 PRESRR SLP072 T02670178=
201104280052 METAR KATL 280052Z 20014G29KT 10SM FEW055 SCT100 OVC150 27/18 A2977 RMK AO2 PK WND 20034/0008 SLP070 T02720178=
201104272352 METAR KATL 272352Z 19020G30KT 9SM FEW055 BKN150 OVC200 28/17 A2973 RMK AO2 PK WND 19031/2341 SLP057 T02780167 10294 20261 53002=
201104272252 METAR KATL 272252Z 20019G33KT 10SM SCT055 BKN100 OVC200 28/17 A2973 RMK AO2 PK WND 18033/2249 SLP058 T02830167=
201104272152 METAR KATL 272152Z 19021G35KT 10SM SCT050TCU BKN070 BKN100 BKN200 28/16 A2971 RMK AO2 PK WND 18035/2144 SLP051 TCU OHD-ALQDS T02830161=
201104272052 METAR KATL 272052Z 19018G29KT 10SM FEW045 SCT060 BKN080 29/17 A2972 RMK AO2 PK WND 16034/2006 SLP055 T02890167 58024=
201104271952 METAR KATL 271952Z 19021G33KT 10SM FEW050 BKN080 BKN090 28/17 A2975 RMK AO2 PK WND 19038/1919 SLP065 T02830167=
201104271852 METAR KATL 271852Z 19024G37KT 10SM FEW045 SCT070 SCT090 28/17 A2978 RMK AO2 PK WND 17037/1849 SLP073 T02780172=
201104271752 METAR KATL 271752Z 20016G32KT 10SM BKN035 BKN045 BKN200 26/18 A2980 RMK AO2 PK WND 20032/1747 SLP080 T02610178 10267 20206 58015=
201104271652 METAR KATL 271652Z 17018G26KT 10SM BKN035 BKN200 BKN250 26/17 A2982 RMK AO2 PK WND 18029/1619 SLP087 T02560172=
201104271552 METAR KATL 271552Z 17014G21KT 10SM SCT024 BKN200 BKN250 25/18 A2984 RMK AO2 SLP097 T02500178=
201104271452 METAR KATL 271452Z 17012KT 10SM FEW020 SCT150 BKN200 23/18 A2984 RMK AO2 SLP096 T02280183 58010=
201104271352 METAR KATL 271352Z 18007KT 10SM FEW015 SCT050 OVC150 22/18 A2988 RMK AO2 SLP111 VIRGA OHD & ALQDS CB DSNT NW CBMAM DSNT N-NE SHRA DSNT NW T02170183=
201104271252 METAR KATL 271252Z COR 22009KT 10SM SCT015 BKN020 BKN050 21/18 A2993 RMK AO2 SLP127 T02110183=
201104271152 METAR KATL 271152Z 19010KT 7SM BKN015 BKN024 21/18 A2987 RMK AO2 PRESRR SLP107 T02060178 10211 20194 53028=
201104271052 METAR KATL 271052Z 18011G17KT 6SM BR BKN011 OVC020 20/18 A2983 RMK AO2 SLP092 T02000178=
201104270959 SPECI KATL 270959Z 15007KT 10SM BKN009 19/18 A2979 RMK AO2 CIG 008V012=
201104270959 SPECI KATL 270959Z 15007KT 10SM BKN009 19/18 A2979 RMK AO2 CIG 008V012=
201104270952 METAR KATL 270952Z 14006KT 10SM SCT011 BKN150 OVC250 19/17 A2979 RMK AO2 SLP077 T01940172=
201104270852 METAR KATL 270852Z 15007KT 10SM BKN150 OVC250 19/17 A2979 RMK AO2 SLP079 T01940172 56017=
201104270752 METAR KATL 270752Z 18007KT 10SM BKN150 OVC250 20/17 A2980 RMK AO2 SLP082 T02000172=
201104270652 METAR KATL 270652Z 15006KT 10SM BKN150 OVC250 20/17 A2980 RMK AO2 SLP083 T02000172=
201104270552 METAR KATL 270552Z 15006KT 10SM FEW090 SCT150 BKN200 21/17 A2984 RMK AO2 SLP095 T02110172 10244 20211 58003=
201104270452 METAR KATL 270452Z 14008KT 10SM SCT090 BKN200 22/17 A2984 RMK AO2 SLP097 OCNL LTG DSNT NE T02170167 402670189=
201104270352 METAR KATL 270352Z 13003KT 10SM SCT050 BKN070 BKN200 23/16 A2985 RMK AO2 SLP099 OCNL LTG DSNT SE T02280161=
201104270252 METAR KATL 270252Z 13003KT 10SM SCT065 BKN250 23/16 A2985 RMK AO2 SLP100 T02280161 53005=
201104270152 METAR KATL 270152Z 13003KT 10SM FEW050 SCT120 23/16 A2984 RMK AO2 SLP097 T02330161=
201104270052 METAR KATL 270052Z 14004KT 10SM FEW050 SCT110 24/16 A2984 RMK AO2 SLP096 T02390161=
201104262352 METAR KATL 262352Z 18004KT 10SM FEW045 SCT200 24/16 A2984 RMK AO2 SLP096 T02440161 10267 20244 56006=
201104262252 METAR KATL 262252Z 20011KT 10SM FEW045 SCT200 26/16 A2984 RMK AO2 SLP097 T02560156=
201104262152 METAR KATL 262152Z 19007KT 10SM FEW045 BKN200 26/16 A2984 RMK AO2 SLP097 T02560161=
201104262052 METAR KATL 262052Z 18012G21KT 10SM FEW045 SCT150 BKN200 26/16 A2986 RMK AO2 SLP102 T02560156 55020=
201104261952 METAR KATL 261952Z 19012G18KT 10SM FEW040 SCT050 BKN250 26/16 A2985 RMK AO2 PRESFR SLP100 T02610161=
201104261852 METAR KATL 261852Z 21012G20KT 10SM FEW035 SCT045 OVC200 26/17 A2991 RMK AO2 SLP121 T02560172=
201104261808 SPECI KATL 261808Z 20010G19KT 10SM FEW035 BKN045 OVC200 25/17 A2991 RMK AO2=
201104261808 SPECI KATL 261808Z 20010G19KT 10SM FEW035 BKN045 OVC200 25/17 A2991 RMK AO2=
201104261752 METAR KATL 261752Z 21014G21KT 10SM SCT033 BKN200 OVC250 25/17 A2992 RMK AO2 PK WND 19026/1711 SLP122 T02500167 10256 20189 58012=
201104261652 METAR KATL 261652Z 19010KT 10SM FEW033 BKN200 OVC250 24/17 A2994 RMK AO2 SLP129 T02440172=
201104261552 METAR KATL 261552Z 19011KT 10SM FEW025 SCT200 BKN250 23/17 A2994 RMK AO2 SLP131 T02330172=
201104261505 SPECI KATL 261505Z 19009KT 10SM FEW020 SCT030 BKN250 22/17 A2995 RMK AO2=
201104261505 SPECI KATL 261505Z 19009KT 10SM FEW020 SCT030 BKN250 22/17 A2995 RMK AO2=
201104261452 METAR KATL 261452Z 19009KT 10SM FEW020 BKN028 BKN250 22/17 A2995 RMK AO2 SLP135 T02170172 51007=
201104261424 SPECI KATL 261424Z 19013KT 10SM BKN015 BKN020 BKN250 22/17 A2995 RMK AO2=
201104261424 SPECI KATL 261424Z 19013KT 10SM BKN015 BKN020 BKN250 22/17 A2995 RMK AO2=
201104261352 METAR KATL 261352Z 20008KT 10SM FEW010 SCT016 BKN250 21/18 A2994 RMK AO2 SLP133 T02110183=
201104261343 SPECI KATL 261343Z 19010KT 10SM FEW008 SCT016 BKN250 21/18 A2994 RMK AO2=
201104261343 SPECI KATL 261343Z 19010KT 10SM FEW008 SCT016 BKN250 21/18 A2994 RMK AO2=
201104261252 METAR KATL 261252Z 18010KT 6SM BR BKN006 BKN012 19/18 A2994 RMK AO2 SLP130 T01940178=
201104261212 SPECI KATL 261212Z 19008KT 9SM BKN008 19/18 A2994 RMK AO2=
201104261212 SPECI KATL 261212Z 19008KT 9SM BKN008 19/18 A2994 RMK AO2=
201104261152 METAR KATL 261152Z 16007KT 9SM FEW018 SCT080 SCT150 19/17 A2993 RMK AO2 SLP127 70009 T01890172 10206 20189 55002=
201104261124 SPECI KATL 261124Z 16006KT 9SM SCT020 BKN150 BKN250 19/17 A2993 RMK AO2=
201104261124 SPECI KATL 261124Z 16006KT 9SM SCT020 BKN150 BKN250 19/17 A2993 RMK AO2=
201104261052 METAR KATL 261052Z 17006KT 10SM BKN021 BKN026 BKN150 19/17 A2992 RMK AO2 SLP123 T01890172=
201104261021 SPECI KATL 261021Z 16008KT 10SM BKN025 19/17 A2992 RMK AO2=
201104261021 SPECI KATL 261021Z 16008KT 10SM BKN025 19/17 A2992 RMK AO2=
201104260952 METAR KATL 260952Z 17005KT 10SM SCT027 BKN046 19/18 A2992 RMK AO2 SLP123 T01940178=
201104260904 SPECI KATL 260904Z 18007KT 10SM SCT021 BKN027 BKN047 20/18 A2993 RMK AO2=
201104260904 SPECI KATL 260904Z 18007KT 10SM SCT021 BKN027 BKN047 20/18 A2993 RMK AO2=
201104260852 METAR KATL 260852Z 17007KT 7SM SCT023 SCT031 BKN048 20/18 A2994 RMK AO2 SLP128 T02000178 53002=
201104260752 METAR KATL 260752Z 16006KT 10SM BKN021 BKN060 19/18 A2993 RMK AO2 SLP126 T01940178=
201104260717 SPECI KATL 260717Z 18004KT 10SM BKN023 19/18 A2993 RMK AO2=
201104260717 SPECI KATL 260717Z 18004KT 10SM BKN023 19/18 A2993 RMK AO2=
201104260652 METAR KATL 260652Z 16005KT 10SM SCT150 20/18 A2992 RMK AO2 SLP124 T02000178=
201104260552 METAR KATL 260552Z 15004KT 10SM BKN060 BKN150 21/18 A2993 RMK AO2 SLP125 60009 T02060183 10256 20194 53002=
201104260452 METAR KATL 260452Z 18009KT 10SM FEW250 21/18 A2991 RMK AO2 SLP117 T02060183 402890183=
201104260352 METAR KATL 260352Z 16007KT 10SM FEW090 SCT250 21/18 A2992 RMK AO2 SLP123 T02110183=
201104260252 METAR KATL 260252Z 17007KT 10SM FEW100 SCT150 BKN200 21/19 A2992 RMK AO2 RAE12 SLP124 P0004 60009 T02060189 53011=
201104260200 SPECI KATL 260200Z 18006KT 7SM -RA SCT035CB BKN055 OVC070 20/18 A2992 RMK AO2 CB N MOV NE P0004=
201104260200 SPECI KATL 260200Z 18006KT 7SM -RA SCT035CB BKN055 OVC070 20/18 A2992 RMK AO2 CB N MOV NE P0004=
201104260157 SPECI KATL 260157Z 18007KT 2SM +RA BR BKN035CB BKN055 OVC070 20/18 A2993 RMK AO2 CB OHD-N MOV NE P0004=
201104260157 SPECI KATL 260157Z 18007KT 2SM +RA BR BKN035CB BKN055 OVC070 20/18 A2993 RMK AO2 CB OHD-N MOV NE P0004=
201104260152 METAR KATL 260152Z 20007KT 9SM -RA SCT035 BKN055 BKN070 OVC150 19/18 A2993 RMK AO2 PK WND 23030/0117 WSHFT 0115 TSB05E52RAB20 SLP126 CONS LTGICCG DSNT NW-N TS MOV NE P0005 T01940178=
201104260132 SPECI KATL 260132Z 24010G18KT 7SM TSRA FEW009 BKN035CB BKN060 OVC150 19/17 A2992 RMK AO2 PK WND 23030/0117 WSHFT 0115 TSB05RAB20 CONS LTGICCG NW-N TS NW-N MOV NE P0004=
201104260132 SPECI KATL 260132Z 24010G18KT 7SM TSRA FEW009 BKN035CB BKN060 OVC150 19/17 A2992 RMK AO2 PK WND 23030/0117 WSHFT 0115 TSB05RAB20 CONS LTGICCG NW-N TS NW-N MOV NE P0004=
201104260105 SPECI KATL 260105Z 13006KT 10SM TS SCT045CB BKN060 BKN110 OVC200 25/18 A2988 RMK AO2 TSB05 CONS LTGICCG S-SW TS S-SW MOV N=
201104260105 SPECI KATL 260105Z 13006KT 10SM TS SCT045CB BKN060 BKN110 OVC200 25/18 A2988 RMK AO2 TSB05 CONS LTGICCG S-SW TS S-SW MOV N=
201104260052 METAR KATL 260052Z 14005KT 10SM SCT045 BKN110 BKN200 25/18 A2989 RMK AO2 RAB13E22 SLP111 FRQ LTG DSNT SW AND N P0000 T02500178=
201104252352 METAR KATL 252352Z 17008KT 10SM FEW042TCU SCT060 BKN200 26/17 A2989 RMK AO2 SLP113 CB DSNT N TCU SW T02560172 10289 20256 57010=
201104252252 METAR KATL 252252Z 18012G20KT 10SM FEW042 SCT110 BKN150 BKN200 26/17 A2991 RMK AO2 SLP119 CB DSNT NW T02610167=
201104252152 METAR KATL 252152Z 17012KT 10SM SCT045TCU BKN200 BKN250 27/16 A2990 RMK AO2 SLP117 CB DSNT SW AND NW TCU OHD T02670161=
201104252052 METAR KATL 252052Z 19018G21KT 10SM FEW045 SCT060 BKN250 28/17 A2992 RMK AO2 SLP122 CB DSNT NE-E & DSNT S TCU DSNT NW T02780167 58029=
201104251952 METAR KATL 251952Z 17013G22KT 10SM FEW045TCU SCT060 BKN250 28/18 A2996 RMK AO2 SLP135 CB DSNT N-NE-E-SE TCU E T02780178=
201104251852 METAR KATL 251852Z 17012KT 10SM FEW040CB SCT050TCU BKN060 BKN250 27/17 A2998 RMK AO2 SLP144 CB N MOV N TCU E-SE & SW-W SHRA N T02720167=
201104251752 METAR KATL 251752Z 18011G19KT 10SM SCT050TCU SCT250 28/17 A3001 RMK AO2 SLP151 TCU N-NE-E & NW T02830167 10283 20194 58020=
201104251652 METAR KATL 251652Z 17009KT 10SM BKN040TCU 26/17 A3003 RMK AO2 SLP161 TCU ALQDS T02610172=
201104251552 METAR KATL 251552Z 20006KT 10SM FEW035 SCT100 SCT250 26/17 A3006 RMK AO2 SLP170 T02610172=
201104251452 METAR KATL 251452Z 19010KT 10SM FEW035 SCT250 BKN300 25/17 A3007 RMK AO2 SLP173 T02500172 58002=
201104251352 METAR KATL 251352Z 20005KT 10SM FEW120 SCT250 BKN300 23/18 A3007 RMK AO2 SLP175 T02330183=
201104251252 METAR KATL 251252Z 20007KT 7SM FEW120 SCT250 21/18 A3008 RMK AO2 SLP177 T02110178=
201104251152 METAR KATL 251152Z 18006KT 7SM SCT120 19/17 A3007 RMK AO2 SLP175 T01940172 10217 20183 53008=
201104251052 METAR KATL 251052Z 19003KT 9SM SCT150 BKN250 18/17 A3006 RMK AO2 SLP170 T01830167=
201104250952 METAR KATL 250952Z 19005KT 10SM SCT150 18/16 A3005 RMK AO2 SLP166 T01830161=
201104250852 METAR KATL 250852Z 16004KT 10SM SCT150 19/16 A3005 RMK AO2 SLP166 T01890161 56012=
201104250752 METAR KATL 250752Z 15004KT 10SM SCT060 SCT140 20/16 A3005 RMK AO2 SLP168 T02000161=
201104250652 METAR KATL 250652Z 12005KT 10SM BKN060 BKN120 21/16 A3008 RMK AO2 SLP174 T02110156=
201104250552 METAR KATL 250552Z 07004KT 10SM FEW120 22/15 A3008 RMK AO2 SLP177 T02170150 10261 20206 58004=
201104250452 METAR KATL 250452Z 00000KT 10SM FEW070 21/16 A3009 RMK AO2 SLP181 T02110156 402890156=
201104250352 METAR KATL 250352Z 00000KT 10SM CLR 22/16 A3010 RMK AO2 SLP183 T02170156=
201104250252 METAR KATL 250252Z 00000KT 10SM CLR 23/16 A3010 RMK AO2 SLP182 T02280156 51010=
201104250152 METAR KATL 250152Z 00000KT 10SM CLR 24/15 A3009 RMK AO2 SLP181 T02440150=
201104250052 METAR KATL 250052Z 27005KT 10SM FEW060 SCT250 24/14 A3008 RMK AO2 SLP179 T02390144=
201104242352 METAR KATL 242352Z 23004KT 10SM FEW060 BKN250 26/14 A3007 RMK AO2 SLP174 T02610144 10289 20261 55003=
201104242252 METAR KATL 242252Z 21009KT 10SM FEW060 BKN250 27/13 A3006 RMK AO2 SLP172 T02670133=
201104242152 METAR KATL 242152Z 20011KT 10SM FEW060 BKN250 28/13 A3006 RMK AO2 SLP172 T02780128=
201104242052 METAR KATL 242052Z 21013G16KT 10SM SCT060 BKN250 28/13 A3008 RMK AO2 SLP177 T02830128 58025=
201104241952 METAR KATL 241952Z 20009KT 10SM FEW060 BKN250 28/11 A3010 RMK AO2 SLP186 T02830111=
201104241852 METAR KATL 241852Z 22009KT 10SM FEW060 SCT250 28/09 A3014 RMK AO2 SLP196 T02830094=
201104241752 METAR KATL 241752Z 20008KT 10SM SCT250 28/09 A3015 RMK AO2 SLP202 T02780089 10283 20167 58019=
201104241652 METAR KATL 241652Z 21009G14KT 10SM SCT250 27/07 A3017 RMK AO2 SLP209 T02670067=
201104241552 METAR KATL 241552Z VRB05KT 10SM SCT250 25/12 A3020 RMK AO2 SLP218 T02500117=
201104241452 METAR KATL 241452Z 29006KT 10SM BKN250 23/14 A3021 RMK AO2 SLP222 T02330144 51012=
201104241352 METAR KATL 241352Z 28007KT 10SM FEW150 BKN250 22/16 A3021 RMK AO2 SLP222 T02220161=
201104241252 METAR KATL 241252Z 00000KT 10SM FEW250 19/16 A3020 RMK AO2 SLP219 T01940161=
201104241152 METAR KATL 241152Z 00000KT 9SM FEW250 17/15 A3018 RMK AO2 SLP213 T01670150 10189 20156 53008=
201104241052 METAR KATL 241052Z 00000KT 8SM FEW250 16/15 A3016 RMK AO2 SLP205 T01610150=
201104240952 METAR KATL 240952Z 00000KT 6SM BR CLR 17/15 A3016 RMK AO2 SLP207 T01670150=
201104240852 METAR KATL 240852Z 00000KT 7SM FEW150 17/15 A3015 RMK AO2 SLP204 T01670150 51006=
201104240752 METAR KATL 240752Z 00000KT 7SM FEW150 17/16 A3015 RMK AO2 SLP202 T01720156=
201104240652 METAR KATL 240652Z 00000KT 9SM FEW060 SCT200 19/16 A3014 RMK AO2 SLP199 T01890161=
201104240552 METAR KATL 240552Z 00000KT 9SM BKN060 BKN250 19/16 A3013 RMK AO2 SLP198 T01890161 10239 20189 55002=
201104240452 METAR KATL 240452Z 14005KT 9SM FEW250 19/17 A3012 RMK AO2 SLP192 T01940167 402560128=
201104240352 METAR KATL 240352Z 12005KT 10SM FEW250 20/17 A3012 RMK AO2 SLP195 T02000167=
201104240252 METAR KATL 240252Z 12005KT 10SM FEW250 21/17 A3014 RMK AO2 SLP201 T02060172 50005=
201104240152 METAR KATL 240152Z 12005KT 10SM FEW250 22/17 A3014 RMK AO2 SLP203 T02170167=
201104240052 METAR KATL 240052Z 13005KT 10SM FEW250 23/17 A3014 RMK AO2 SLP200 T02280167=
201104232352 METAR KATL 232352Z 12006KT 10SM FEW250 24/17 A3012 RMK AO2 SLP195 T02390172 10256 20211 57001=
201104232252 METAR KATL 232252Z 16005KT 10SM FEW035 SCT250 26/17 A3012 RMK AO2 SLP195 T02560172=
201104232152 METAR KATL 232152Z 19006KT 10SM FEW035 BKN250 25/17 A3012 RMK AO2 SLP196 T02500172=
201104232052 METAR KATL 232052Z VRB04KT 10SM SCT035 SCT250 24/17 A3012 RMK AO2 SLP196 T02440167 56014=
201104231952 METAR KATL 231952Z 17008KT 10SM SCT033 SCT250 24/17 A3013 RMK AO2 SLP199 T02390167=
201104231852 METAR KATL 231852Z 18007KT 10SM SCT028 23/16 A3015 RMK AO2 SLP203 T02280156=
201104231752 METAR KATL 231752Z 22007KT 10SM SCT021 21/15 A3017 RMK AO2 SLP211 60000 T02110150 10217 20128 58016=
201104231709 SPECI KATL 231709Z 23006KT 10SM BKN018 21/16 A3018 RMK AO2=
201104231709 SPECI KATL 231709Z 23006KT 10SM BKN018 21/16 A3018 RMK AO2=
201104231652 METAR KATL 231652Z VRB06KT 10SM SCT016 21/16 A3019 RMK AO2 SLP218 T02060156=
201104231636 SPECI KATL 231636Z VRB04KT 9SM FEW007 SCT018 19/15 A3019 RMK AO2=
201104231636 SPECI KATL 231636Z VRB04KT 9SM FEW007 SCT018 19/15 A3019 RMK AO2=
201104231615 SPECI KATL 231615Z 14004KT 8SM SCT007 BKN018 18/16 A3019 RMK AO2=
201104231615 SPECI KATL 231615Z 14004KT 8SM SCT007 BKN018 18/16 A3019 RMK AO2=
201104231552 METAR KATL 231552Z VRB04KT 6SM BR BKN007 17/15 A3020 RMK AO2 SLP225 T01720150=
201104231509 SPECI KATL 231509Z 13005KT 4SM BR SCT002 OVC005 16/14 A3021 RMK AO2=
201104231509 SPECI KATL 231509Z 13005KT 4SM BR SCT002 OVC005 16/14 A3021 RMK AO2=
201104231452 METAR KATL 231452Z 11005KT 2SM BR BKN002 OVC007 15/14 A3022 RMK AO2 SFC VIS 2 1/2 DZE51 SLP230 TWRINC P0000 60000 T01500139 51012=
201104231352 METAR KATL 231352Z 10003KT 1/2SM R09R/4500VP6000FT -DZ BR OVC002 14/13 A3021 RMK AO2 SFC VIS 1 SLP228 TWRINC P0000 T01390133=
201104231252 METAR KATL 231252Z 00000KT 1/2SM R09R/6000VP6000FT -DZ BR OVC002 13/13 A3021 RMK AO2 SFC VIS 3/4 SLP228 P0000 T01330128=
201104231152 METAR KATL 231152Z 06003KT 1/2SM R09R/2600V3500FT -DZ FG OVC002 13/12 A3018 RMK AO2 SLP218 P0000 60000 T01280122 10139 20128 53021=
201104231052 METAR KATL 231052Z 08006KT 1/2SM R09R/4500VP6000FT -DZ BR OVC002 13/12 A3014 RMK AO2 SFC VIS 3/4 SLP206 P0000 T01280122=
201104230952 METAR KATL 230952Z 09008KT 1/2SM R09R/5500VP6000FT -DZ BR OVC002 13/12 A3012 RMK AO2 SFC VIS 1 SLP196 P0000 T01280122=
201104230852 METAR KATL 230852Z 11007KT 1/2SM R09R/6000VP6000FT -DZ BR OVC002 13/13 A3012 RMK AO2 SFC VIS 1 1/4 SLP196 P0000 60000 T01330128 58008=
201104230752 METAR KATL 230752Z 09007KT 1/2SM -DZ BR OVC002 13/13 A3013 RMK AO2 SFC VIS 1 3/4 SLP200 P0000 T01330128=
201104230652 METAR KATL 230652Z 07007KT 1/2SM -DZ BR OVC002 13/13 A3014 RMK AO2 SFC VIS 1 1/4 SLP201 P0000 T01330128=
201104230552 METAR KATL 230552Z 09006KT 1/2SM -DZ BR OVC002 13/13 A3014 RMK AO2 SFC VIS 1 1/4 SLP204 P0000 60000 T01330128 10167 20133 55001=
201104230452 METAR KATL 230452Z 08009KT 1/2SM -DZ BR OVC002 13/13 A3013 RMK AO2 SFC VIS 1 1/4 SLP201 P0000 T01330128 402170133=
201104230352 METAR KATL 230352Z 10012KT 1/2SM R09R/5500VP6000FT -DZ BR OVC002 14/13 A3013 RMK AO2 SFC VIS 1 SLP200 P0000 T01390133=
201104230252 METAR KATL 230252Z 09008KT 1/2SM R09R/6000VP6000FT -DZ BR OVC002 14/13 A3015 RMK AO2 SFC VIS 1 1/2 SLP207 P0000 60000 T01390133 50009=
201104230152 METAR KATL 230152Z 10011KT 1/2SM -DZ BR OVC002 14/14 A3015 RMK AO2 SFC VIS 1 1/2 SLP209 P0000 T01440139=
201104230052 METAR KATL 230052Z 10013KT 1/2SM -DZ BR OVC003 15/14 A3014 RMK AO2 SFC VIS 2 1/2 SLP204 P0000 T01500144=
201104222357 SPECI KATL 222357Z 08014KT 1/2SM -DZ BR OVC004 17/15 A3012 RMK AO2 SFC VIS 3 P0000=
201104222357 SPECI KATL 222357Z 08014KT 1/2SM -DZ BR OVC004 17/15 A3012 RMK AO2 SFC VIS 3 P0000=
201104222352 METAR KATL 222352Z 09014KT 2SM -DZ BR OVC006 17/15 A3012 RMK AO2 SFC VIS 4 DZB47 SLP196 P0000 60000 T01670150 10217 20167 53010=
201104222347 SPECI KATL 222347Z 08015KT 2SM -DZ BR OVC006 17/16 A3012 RMK AO2 SFC VIS 4 DZB47 P0000=
201104222347 SPECI KATL 222347Z 08015KT 2SM -DZ BR OVC006 17/16 A3012 RMK AO2 SFC VIS 4 DZB47 P0000=
201104222252 METAR KATL 222252Z 08014KT 6SM HZ OVC009 18/16 A3011 RMK AO2 SLP191 T01830156=
201104222152 METAR KATL 222152Z 08014KT 8SM OVC012 19/16 A3010 RMK AO2 SLP186 T01940161=
201104222107 SPECI KATL 222107Z 08013KT 8SM OVC014 19/16 A3009 RMK AO2=
201104222107 SPECI KATL 222107Z 08013KT 8SM OVC014 19/16 A3009 RMK AO2=
201104222052 METAR KATL 222052Z 08015KT 6SM HZ BKN016 BKN020 OVC100 19/16 A3009 RMK AO2 SLP184 T01940161 56018=
201104221952 METAR KATL 221952Z 09013KT 6SM HZ BKN016 BKN020 BKN100 20/16 A3009 RMK AO2 SLP184 T02000161=
201104221852 METAR KATL 221852Z 08011KT 9SM FEW016 BKN018 BKN020 21/17 A3013 RMK AO2 SLP197 T02110167=
201104221835 SPECI KATL 221835Z 07008KT 9SM SCT016 21/16 A3014 RMK AO2=
201104221835 SPECI KATL 221835Z 07008KT 9SM SCT016 21/16 A3014 RMK AO2=
201104221752 METAR KATL 221752Z 10009KT 9SM BKN012 BKN015 20/16 A3014 RMK AO2 SLP200 T02000161 10200 20161 58012=
201104221652 METAR KATL 221652Z 13007KT 7SM BKN011 BKN060 OVC100 18/15 A3016 RMK AO2 SLP207 T01830150=
201104221552 METAR KATL 221552Z 07009KT 6SM HZ BKN010 BKN060 OVC100 18/15 A3018 RMK AO2 SLP213 T01780150=
201104221550 SPECI KATL 221550Z 08009KT 8SM BKN010 BKN060 OVC100 17/14 A3018 RMK AO2=
201104221550 SPECI KATL 221550Z 08009KT 8SM BKN010 BKN060 OVC100 17/14 A3018 RMK AO2=
201104221452 METAR KATL 221452Z 07010KT 8SM BKN009 BKN060 OVC100 17/14 A3018 RMK AO2 SLP214 T01670144 50007=
201104221352 METAR KATL 221352Z 10009KT 6SM BR BKN008 BKN060 OVC100 16/14 A3018 RMK AO2 SLP215 T01610139=
201104221313 SPECI KATL 221313Z 07008KT 6SM BR BKN007 BKN010 OVC100 16/14 A3017 RMK AO2=
201104221313 SPECI KATL 221313Z 07008KT 6SM BR BKN007 BKN010 OVC100 16/14 A3017 RMK AO2=
201104221252 METAR KATL 221252Z 07010KT 10SM BKN008 OVC013 16/14 A3017 RMK AO2 SLP210 T01610139=
201104221152 METAR KATL 221152Z 07012KT 10SM BKN008 OVC013 16/14 A3016 RMK AO2 SLP207 60010 70010 T01610144 10217 20161 53017=
201104221052 METAR KATL 221052Z 07013KT 10SM BKN008 BKN120 OVC200 17/15 A3014 RMK AO2 SLP198 T01670150=
201104220957 SPECI KATL 220957Z 08009KT 10SM BKN008 BKN120 OVC200 18/16 A3011 RMK AO2=
201104220957 SPECI KATL 220957Z 08009KT 10SM BKN008 BKN120 OVC200 18/16 A3011 RMK AO2=
201104220952 METAR KATL 220952Z 08010KT 10SM SCT008 SCT120 BKN200 18/16 A3011 RMK AO2 SLP189 T01780161=
201104220943 SPECI KATL 220943Z 07011KT 10SM FEW008 SCT120 SCT200 18/16 A3011 RMK AO2=
201104220943 SPECI KATL 220943Z 07011KT 10SM FEW008 SCT120 SCT200 18/16 A3011 RMK AO2=
201104220852 METAR KATL 220852Z 08009KT 10SM FEW050 SCT120 BKN200 18/16 A3011 RMK AO2 SLP187 60010 T01830161 58003=
201104220752 METAR KATL 220752Z 09006KT 10SM FEW040 BKN070 OVC200 19/17 A3010 RMK AO2 RAE21 SLP183 P0000 T01890167=
201104220701 SPECI KATL 220701Z 07009KT 7SM -RA FEW010 BKN033 OVC060 20/16 A3012 RMK AO2 P0000=
201104220701 SPECI KATL 220701Z 07009KT 7SM -RA FEW010 BKN033 OVC060 20/16 A3012 RMK AO2 P0000=
201104220652 METAR KATL 220652Z 03007KT 3SM -RA FEW010 BKN026 OVC050 20/16 A3013 RMK AO2 RAB28 SLP193 P0010 T02000161=
201104220647 SPECI KATL 220647Z 34004KT 3SM RA FEW010 BKN026 OVC050 20/17 A3012 RMK AO2 RAB28 P0009=
201104220647 SPECI KATL 220647Z 34004KT 3SM RA FEW010 BKN026 OVC050 20/17 A3012 RMK AO2 RAB28 P0009=
201104220635 SPECI KATL 220635Z 00000KT 5SM -RA FEW008 BKN050 OVC120 20/16 A3012 RMK AO2 RAB28 P0005=
201104220635 SPECI KATL 220635Z 00000KT 5SM -RA FEW008 BKN050 OVC120 20/16 A3012 RMK AO2 RAB28 P0005=
201104220552 METAR KATL 220552Z 12004KT 10SM BKN060 BKN120 OVC200 22/15 A3012 RMK AO2 SLP189 T02170150 10239 20200 56001=
201104220452 METAR KATL 220452Z 09007KT 10SM FEW100 BKN200 BKN250 21/16 A3012 RMK AO2 SLP189 T02060156 402780161=
201104220352 METAR KATL 220352Z 06007KT 10SM FEW100 BKN200 BKN250 21/16 A3011 RMK AO2 SLP190 T02110156=
201104220252 METAR KATL 220252Z 05009KT 10SM FEW150 BKN250 22/16 A3012 RMK AO2 SLP191 T02220161 55000=
201104220152 METAR KATL 220152Z 00000KT 10SM FEW150 BKN200 23/16 A3012 RMK AO2 SLP192 T02330156=
201104220052 METAR KATL 220052Z 36004KT 10SM FEW150 BKN200 23/16 A3011 RMK AO2 SLP192 T02330161=
201104212352 SPECI KATL 212352Z 32006KT 10SM FEW110 SCT150 OVC200 24/15 A3012 RMK AO2 SLP193 T02390150 10278 20239 53005=
201104212252 METAR KATL 212252Z 29006KT 10SM FEW110 SCT150 OVC200 25/15 A3011 RMK AO2 SLP188 T02500150=
201104212152 METAR KATL 212152Z 30006KT 10SM FEW050 SCT150 OVC200 26/14 A3011 RMK AO2 SLP188 T02610144=
201104212052 METAR KATL 212052Z VRB04KT 10SM FEW050 BKN150 OVC250 27/14 A3010 RMK AO2 SLP186 TCU DSNT S T02670144 58018=
201104211952 METAR KATL 211952Z 28008KT 10SM FEW050 BKN150 BKN250 27/14 A3012 RMK AO2 SLP191 T02720144=
201104211852 METAR KATL 211852Z 24007KT 10SM FEW050 SCT090 SCT250 27/14 A3015 RMK AO2 SLP200 T02670144=
201104211752 METAR KATL 211752Z COR 30005KT 10SM FEW050 SCT090 BKN250 26/14 A3016 RMK AO2 SLP203 T02610144 10261 20167 57010=
201104211652 METAR KATL 211652Z 00000KT 10SM FEW045 SCT090 BKN250 26/14 A3017 RMK AO2 SLP208 T02560139=
201104211552 METAR KATL 211552Z 00000KT 10SM FEW080 SCT100 BKN250 23/14 A3018 RMK AO2 SLP214 T02280144 $=
201104211452 METAR KATL 211452Z 30005KT 10SM FEW100 SCT150 SCT200 22/16 A3019 RMK AO2 SLP215 T02170156 53004=
201104211352 METAR KATL 211352Z 34004KT 10SM FEW020 SCT150 BKN200 20/16 A3017 RMK AO2 SLP211 T02000156=
201104211252 METAR KATL 211252Z 22008KT 10SM FEW100 SCT150 BKN250 18/15 A3017 RMK AO2 SLP210 T01780150=
201104211152 METAR KATL 211152Z 22005KT 10SM FEW080 SCT150 BKN250 17/15 A3017 RMK AO2 SLP212 60004 70004 T01670150 10200 20161 51021=
201104211052 METAR KATL 211052Z 23005KT 10SM FEW080 SCT150 BKN200 17/15 A3015 RMK AO2 SLP205 T01670150=
201104210952 METAR KATL 210952Z 00000KT 10SM BKN150 OVC250 17/14 A3014 RMK AO2 SLP199 T01670144=
201104210852 METAR KATL 210852Z VRB03KT 10SM BKN150 OVC250 17/14 A3011 RMK AO2 TSE00RAE00 SLP189 TS MOV NE P0000 60004 T01720144 58012=
201104210803 SPECI KATL 210803Z 34016G23KT 8SM SCT010 SCT120 OVC150 17/15 A3011 RMK AO2 TSE00RAE00 TS MOV NE P0000 $=
201104210803 SPECI KATL 210803Z 34016G23KT 8SM SCT010 SCT120 OVC150 17/15 A3011 RMK AO2 TSE00RAE00 TS MOV NE P0000 $=
201104210752 METAR KATL 210752Z 34017G23KT 6SM -TSRA BR BKN012CB BKN039 OVC050 17/15 A3012 RMK AO2 PK WND 30034/0705 TSB10RAB08 SLP192 FRQ LTGICCCCG N-NE & NW TS N-NE & NW MOV NE P0004 T01720150 $=
201104210741 SPECI KATL 210741Z 33019KT 6SM -TSRA BR BKN012CB BKN039 OVC050 17/15 A3016 RMK AO2 PK WND 30034/0705 TSB10RAB08 FRQ LTGICCCCG N-NE & NW TS N-NE & NW MOV NE P0003 $=
201104210741 SPECI KATL 210741Z 33019KT 6SM -TSRA BR BKN012CB BKN039 OVC050 17/15 A3016 RMK AO2 PK WND 30034/0705 TSB10RAB08 FRQ LTGICCCCG N-NE & NW TS N-NE & NW MOV NE P0003 $=
201104210735 SPECI KATL 210735Z 32015G22KT 6SM -TSRA BR BKN017CB BKN039 OVC050 17/15 A3016 RMK AO2 PK WND 30034/0705 TSB10RAB08 FRQ LTGICCCCG N & S-SW-W-NW TS N & S-SW-W-NW MOV E P0003 $=
201104210735 SPECI KATL 210735Z 32015G22KT 6SM -TSRA BR BKN017CB BKN039 OVC050 17/15 A3016 RMK AO2 PK WND 30034/0705 TSB10RAB08 FRQ LTGICCCCG N & S-SW-W-NW TS N & S-SW-W-NW MOV E P0003 $=
201104210727 SPECI KATL 210727Z 32014G20KT 6SM -TSRA BR SCT020CB BKN050 OVC070 17/15 A3018 RMK AO2 PK WND 30034/0705 TSB10RAB08 CONS LTGICCCCG S-SW-W-NW TS S-SW-W-NW MOV E P0002=
201104210727 SPECI KATL 210727Z 32014G20KT 6SM -TSRA BR SCT020CB BKN050 OVC070 17/15 A3018 RMK AO2 PK WND 30034/0705 TSB10RAB08 CONS LTGICCCCG S-SW-W-NW TS S-SW-W-NW MOV E P0002=
201104210713 SPECI KATL 210713Z 30021G34KT 10SM -TSRA FEW042CB BKN055 BKN075 18/14 A3020 RMK AO2 PK WND 30034/0705 TSB10RAB08 CONS LTGICCCCG W-NW TS W-NW MOV E P0000=
201104210713 SPECI KATL 210713Z 30021G34KT 10SM -TSRA FEW042CB BKN055 BKN075 18/14 A3020 RMK AO2 PK WND 30034/0705 TSB10RAB08 CONS LTGICCCCG W-NW TS W-NW MOV E P0000=
201104210652 METAR KATL 210652Z 00000KT 10SM FEW090 SCT110 SCT130 OVC200 20/14 A3015 RMK AO2 SLP204 FRQ LTGIC DSNT W-NW T02000139=
201104210552 METAR KATL 210552Z 30004KT 10SM FEW080 SCT100 OVC200 20/14 A3015 RMK AO2 SLP200 T02000144 10228 20194 50010=
201104210452 METAR KATL 210452Z 32005KT 10SM SCT090 OVC200 20/14 A3015 RMK AO2 SLP204 T02000139 402500172=
201104210352 METAR KATL 210352Z 30003KT 10SM FEW035 BKN150 OVC200 21/14 A3015 RMK AO2 SLP203 T02060139=
201104210316 SPECI KATL 210316Z 30004KT 10SM SCT028 OVC033 21/15 A3014 RMK AO2=
201104210316 SPECI KATL 210316Z 30004KT 10SM SCT028 OVC033 21/15 A3014 RMK AO2=
201104210252 METAR KATL 210252Z 16003KT 10SM BKN027 OVC200 21/14 A3011 RMK AO2 SLP191 T02060144 58001=
201104210246 SPECI KATL 210246Z 00000KT 10SM BKN027 OVC200 21/14 A3012 RMK AO2=
201104210246 SPECI KATL 210246Z 00000KT 10SM BKN027 OVC200 21/14 A3012 RMK AO2=
201104210152 METAR KATL 210152Z 26003KT 10SM FEW070 BKN180 OVC250 22/14 A3012 RMK AO2 SLP193 T02170139=
201104210052 METAR KATL 210052Z 25003KT 10SM FEW150 BKN180 BKN250 21/14 A3012 RMK AO2 SLP192 T02110139=
201104202352 METAR KATL 202352Z 23005KT 10SM FEW150 BKN180 OVC250 23/14 A3010 RMK AO2 SLP186 T02280139 10250 20228 50000=
201104202252 METAR KATL 202252Z 27009KT 10SM FEW150 BKN180 OVC250 23/13 A3011 RMK AO2 SLP189 T02330128=
201104202152 METAR KATL 202152Z 21005KT 10SM FEW090 OVC200 25/14 A3010 RMK AO2 SLP186 T02500139=
201104202052 METAR KATL 202052Z 28005KT 10SM FEW090 SCT150 OVC200 24/14 A3010 RMK AO2 SLP185 VIRGA DSNT NW-N T02440139 56018=
201104201952 METAR KATL 201952Z 30006KT 10SM FEW040 SCT090 BKN150 OVC200 24/14 A3011 RMK AO2 SLP189 VIRGA DSNT NE & S T02440144=
201104201852 METAR KATL 201852Z 24011G18KT 10SM FEW030 SCT090 OVC150 23/14 A3012 RMK AO2 PRESFR SLP194 VIRGA NE-E & DSNT S-SW-W-NW T02330144=
201104201752 METAR KATL 201752Z 24015G19KT 10SM FEW030 BKN150 OVC200 24/16 A3015 RMK AO2 SLP204 T02390161 10239 20183 50009=
201104201652 METAR KATL 201652Z 22009G16KT 10SM FEW090 SCT150 OVC200 23/16 A3017 RMK AO2 SLP210 VIRGA S & DSNT NW T02280161=
201104201552 METAR KATL 201552Z 21006KT 10SM FEW050 SCT090 BKN150 OVC180 22/14 A3016 RMK AO2 SLP205 VIRGA DSNT NE-E-SE T02220144=
201104201452 METAR KATL 201452Z 32005KT 10SM FEW050 SCT080 BKN150 OVC200 22/14 A3013 RMK AO2 SLP195 VIRGA W-NW-N T02170139 50009=
201104201352 METAR KATL 201352Z 31010G16KT 10SM FEW080 BKN150 BKN250 21/16 A3015 RMK AO2 SLP204 CB DSNT SW-NW SHRA DSNT SW-NW T02110161=
201104201252 METAR KATL 201252Z 25013KT 6SM BR FEW015 SCT033 BKN080 BKN150 OVC250 19/17 A3016 RMK AO2 SLP208 T01940172=
201104201152 METAR KATL 201152Z 23006KT 9SM FEW015 BKN150 BKN250 18/16 A3010 RMK AO2 SLP184 T01830161 10200 20172 51020=
201104201103 SPECI KATL 201103Z 22005KT 10SM SCT009 SCT015 18/15 A3008 RMK AO2=
201104201103 SPECI KATL 201103Z 22005KT 10SM SCT009 SCT015 18/15 A3008 RMK AO2=
201104201052 METAR KATL 201052Z 22006KT 10SM BKN011 18/16 A3007 RMK AO2 SLP173 T01830156=
201104201003 SPECI KATL 201003Z 27006KT 10SM BKN011 18/14 A3007 RMK AO2=
201104201003 SPECI KATL 201003Z 27006KT 10SM BKN011 18/14 A3007 RMK AO2=
201104200952 METAR KATL 200952Z 29006KT 10SM FEW013 BKN150 18/14 A3007 RMK AO2 SLP173 T01780144=
201104200852 METAR KATL 200852Z 27008KT 10SM BKN180 18/14 A3004 RMK AO2 SLP162 T01830144 53008=
201104200752 METAR KATL 200752Z 22009KT 10SM BKN180 19/13 A3002 RMK AO2 SLP156 T01890133=
201104200652 METAR KATL 200652Z 23009KT 10SM BKN180 19/12 A3003 RMK AO2 SLP159 T01940122=
201104200552 METAR KATL 200552Z 21011KT 10SM FEW250 19/11 A3001 RMK AO2 SLP154 T01940111 10256 20194 56008=
201104200452 METAR KATL 200452Z 20012KT 10SM SCT250 21/09 A3002 RMK AO2 SLP156 T02060094 402940150=
201104200352 METAR KATL 200352Z 16006KT 10SM FEW250 20/07 A3003 RMK AO2 SLP161 T02000072=
201104200252 METAR KATL 200252Z 19007KT 10SM CLR 21/06 A3004 RMK AO2 SLP165 T02060061 53008=
201104200152 METAR KATL 200152Z 20008KT 10SM CLR 22/04 A3003 RMK AO2 SLP162 T02220044=
201104200052 METAR KATL 200052Z 19008KT 10SM CLR 23/03 A3002 RMK AO2 SLP159 T02330028=
201104192352 METAR KATL 192352Z 20009KT 10SM CLR 26/03 A3002 RMK AO2 SLP157 T02560028 10294 20256 58003=
201104192252 METAR KATL 192252Z 20012KT 10SM CLR 28/03 A3002 RMK AO2 SLP158 T02780028=
201104192152 METAR KATL 192152Z 19009KT 10SM CLR 29/03 A3002 RMK AO2 SLP158 T02890028=
201104192052 METAR KATL 192052Z 21013KT 10SM FEW250 29/03 A3002 RMK AO2 SLP159 T02890033 56014=
201104191952 METAR KATL 191952Z 20013G20KT 10SM FEW250 29/04 A3004 RMK AO2 SLP163 T02890039=
201104191852 METAR KATL 191852Z 24012G19KT 10SM FEW250 28/06 A3005 RMK AO2 SLP168 T02830061=
201104191752 METAR KATL 191752Z 22011KT 10SM FEW250 28/06 A3007 RMK AO2 SLP173 T02780061 10278 20161 57001=
201104191652 METAR KATL 191652Z 20008KT 10SM FEW250 26/03 A3007 RMK AO2 SLP173 T02610028=
201104191552 METAR KATL 191552Z COR 18008G17KT 10SM CLR 25/04 A3007 RMK AO2 SLP174 T02500039=
201104191452 METAR KATL 191452Z 20009KT 10SM CLR 22/08 A3007 RMK AO2 SLP175 T02220078 50004=
201104191352 METAR KATL 191352Z 18008KT 10SM CLR 19/11 A3008 RMK AO2 SLP177 T01940106=
201104191252 METAR KATL 191252Z 14004KT 10SM FEW070 17/11 A3007 RMK AO2 SLP178 T01720111=
201104191152 METAR KATL 191152Z 00000KT 10SM BKN070 16/09 A3006 RMK AO2 SLP172 T01610094 10178 20150 53005=
201104191052 METAR KATL 191052Z 00000KT 10SM BKN070 16/09 A3005 RMK AO2 SLP168 T01610094=
201104190952 METAR KATL 190952Z 23003KT 10SM FEW070 SCT100 16/09 A3004 RMK AO2 SLP167 T01560094=
201104190852 METAR KATL 190852Z 21008KT 10SM BKN070 16/10 A3004 RMK AO2 SLP166 T01610100 53004=
201104190752 METAR KATL 190752Z 21004KT 10SM FEW080 16/10 A3004 RMK AO2 SLP165 T01610100=
201104190652 METAR KATL 190652Z 20007KT 10SM CLR 17/10 A3002 RMK AO2 SLP160 T01670100=
201104190552 METAR KATL 190552Z 19007KT 10SM CLR 18/10 A3003 RMK AO2 SLP162 T01780100 10228 20178 58007=
201104190452 METAR KATL 190452Z 18008KT 10SM FEW080 19/10 A3004 RMK AO2 SLP165 T01890100 402560111=
201104190352 METAR KATL 190352Z 18007KT 10SM FEW065 SCT080 20/10 A3004 RMK AO2 SLP166 T02000100=
201104190252 METAR KATL 190252Z 17005KT 10SM FEW070 SCT090 BKN150 20/09 A3005 RMK AO2 SLP169 T02000094 53019=
201104190152 METAR KATL 190152Z 15003KT 10SM OVC070 22/07 A3003 RMK AO2 SLP164 T02220072=
201104190052 METAR KATL 190052Z 19006KT 10SM BKN070 BKN250 22/07 A3001 RMK AO2 SLP156 T02170072=
201104182352 METAR KATL 182352Z 19006KT 10SM FEW070 SCT250 23/06 A2999 RMK AO2 SLP152 T02280061 10256 20228 55003=
201104182252 METAR KATL 182252Z 17010KT 10SM FEW070 SCT250 24/06 A2999 RMK AO2 SLP150 T02440056=
201104182152 METAR KATL 182152Z 18010KT 10SM FEW080 BKN250 26/05 A2999 RMK AO2 SLP149 T02560050=
201104182052 METAR KATL 182052Z 17010KT 10SM FEW080 25/06 A3000 RMK AO2 SLP154 T02500056 56017=
201104181952 METAR KATL 181952Z 21008G19KT 10SM FEW080 25/04 A3001 RMK AO2 SLP158 T02500044=
201104181852 METAR KATL 181852Z 18011G15KT 10SM CLR 24/06 A3003 RMK AO2 SLP165 T02440061=
201104181752 METAR KATL 181752Z VRB05KT 10SM CLR 23/06 A3005 RMK AO2 SLP171 T02330056 10233 20117 58017=
201104181652 METAR KATL 181652Z 17012G17KT 10SM CLR 22/03 A3007 RMK AO2 SLP179 T02220033=
201104181552 METAR KATL 181552Z 20011KT 10SM FEW250 21/04 A3010 RMK AO2 SLP187 T02110039=
201104181452 METAR KATL 181452Z 20007KT 10SM FEW250 19/04 A3010 RMK AO2 SLP189 T01890044 51015=
201104181352 METAR KATL 181352Z 19005KT 10SM FEW250 17/05 A3010 RMK AO2 SLP187 T01720050=
201104181252 METAR KATL 181252Z 00000KT 10SM FEW250 14/07 A3008 RMK AO2 SLP183 T01440072=
201104181152 METAR KATL 181152Z 00000KT 10SM SCT150 BKN250 12/05 A3006 RMK AO2 SLP175 T01170050 10144 20111 51010=
201104181052 METAR KATL 181052Z 00000KT 10SM FEW150 SCT250 12/04 A3005 RMK AO2 SLP172 T01170039=
201104180952 METAR KATL 180952Z 00000KT 10SM FEW150 12/04 A3004 RMK AO2 SLP167 T01170039=
201104180852 METAR KATL 180852Z 00000KT 10SM BKN150 12/03 A3003 RMK AO2 SLP163 T01220033 55003=
201104180752 METAR KATL 180752Z 00000KT 10SM BKN150 13/04 A3002 RMK AO2 SLP162 T01280039=
201104180652 METAR KATL 180652Z 21003KT 10SM FEW150 13/04 A3003 RMK AO2 SLP166 T01280039=
201104180552 METAR KATL 180552Z 20003KT 10SM SCT180 BKN250 14/03 A3003 RMK AO2 SLP166 T01440028 10206 20139 50000=
201104180452 METAR KATL 180452Z COR 20003KT 10SM BKN250 15/03 A3004 RMK AO2 SLP169 T01500033 402330061=
201104180352 METAR KATL 180352Z 22003KT 10SM BKN250 16/03 A3004 RMK AO2 SLP169 T01560033=
201104180252 METAR KATL 180252Z 21005KT 10SM FEW250 16/04 A3003 RMK AO2 SLP168 T01560039 50010=
201104180152 METAR KATL 180152Z 21004KT 10SM SCT250 17/04 A3004 RMK AO2 SLP170 T01720039=
201104180052 METAR KATL 180052Z 19004KT 10SM FEW250 18/03 A3002 RMK AO2 SLP163 T01830033=
201104172352 METAR KATL 172352Z 22004KT 10SM FEW250 21/01 A3000 RMK AO2 SLP158 T02060011 10233 20200 55000=
201104172252 METAR KATL 172252Z 31003KT 10SM FEW250 22/M02 A2999 RMK AO2 SLP155 T02221017=
201104172152 METAR KATL 172152Z VRB03KT 10SM FEW250 23/00 A3000 RMK AO2 SLP156 T02280000=
201104172052 METAR KATL 172052Z VRB05KT 10SM CLR 23/01 A3000 RMK AO2 SLP158 T02280006 56021=
201104171952 METAR KATL 171952Z VRB05KT 10SM CLR 22/00 A3002 RMK AO2 SLP163 T02220000=
201104171852 METAR KATL 171852Z 03008KT 10SM CLR 22/01 A3005 RMK AO2 SLP173 T02220006=
201104171752 METAR KATL 171752Z 00000KT 10SM CLR 21/03 A3007 RMK AO2 SLP179 T02060033 10206 20067 58010=
201104171652 METAR KATL 171652Z 29003KT 10SM CLR 18/01 A3009 RMK AO2 SLP186 T01780006=
201104171552 METAR KATL 171552Z 00000KT 10SM CLR 16/01 A3010 RMK AO2 SLP191 T01610011=
201104171452 METAR KATL 171452Z 35006KT 10SM CLR 13/02 A3010 RMK AO2 SLP192 T01330017 51018=
201104171352 METAR KATL 171352Z 31009KT 10SM CLR 11/02 A3008 RMK AO2 SLP188 T01060022=
201104171252 METAR KATL 171252Z 33012KT 10SM CLR 08/02 A3007 RMK AO2 SLP184 T00830022=
201104171152 METAR KATL 171152Z 33009KT 10SM CLR 07/02 A3004 RMK AO2 SLP174 T00670022 10094 20061 53017=
201104171052 METAR KATL 171052Z 33008KT 10SM FEW200 07/02 A3002 RMK AO2 SLP166 T00670022=
201104170952 METAR KATL 170952Z 33007KT 10SM CLR 07/02 A3000 RMK AO2 SLP158 T00720022=
201104170852 METAR KATL 170852Z 33008KT 10SM FEW200 08/03 A2999 RMK AO2 SLP154 T00780028 57001=
201104170752 METAR KATL 170752Z 32006KT 10SM FEW034 08/03 A2999 RMK AO2 SLP155 T00780028=
201104170652 METAR KATL 170652Z 31009KT 10SM FEW034 08/03 A2999 RMK AO2 SLP156 T00830028=
201104170552 METAR KATL 170552Z 31012KT 10SM FEW050 09/03 A2999 RMK AO2 SLP155 T00940028 10150 20094 51011=
201104170452 METAR KATL 170452Z 32010KT 10SM FEW050 10/03 A2999 RMK AO2 SLP154 T01000033 401890100=
201104170352 METAR KATL 170352Z 32014KT 10SM FEW050 12/04 A2997 RMK AO2 SLP147 T01170039=
201104170252 METAR KATL 170252Z 30008KT 10SM BKN050 12/05 A2996 RMK AO2 SLP144 T01220050 51027=
201104170152 METAR KATL 170152Z 31009KT 10SM FEW050 SCT200 12/04 A2995 RMK AO2 SLP139 T01220044=
201104170052 METAR KATL 170052Z 31010KT 10SM FEW250 14/04 A2991 RMK AO2 SLP127 T01390044=
201104162352 METAR KATL 162352Z 31010KT 10SM FEW055 SCT250 15/04 A2988 RMK AO2 SLP115 T01500044 10189 20150 53022=
201104162252 METAR KATL 162252Z 28013G19KT 10SM SCT060 17/04 A2985 RMK AO2 SLP104 T01670044=
201104162152 METAR KATL 162152Z 27015G22KT 10SM SCT060 18/04 A2983 RMK AO2 SLP096 T01780044=
201104162052 SPECI KATL 162052Z 27018G27KT 10SM SCT060 18/04 A2981 RMK AO2 PK WND 29027/2045 SLP089 T01830044 55000=
201104161952 METAR KATL 161952Z 26016G25KT 10SM BKN055 18/05 A2980 RMK AO2 PK WND 25026/1859 SLP088 T01780050=
201104161852 METAR KATL 161852Z 24011G23KT 10SM BKN060 18/05 A2981 RMK AO2 SLP088 T01830050=
201104161752 METAR KATL 161752Z 25012G25KT 10SM SCT055 17/04 A2981 RMK AO2 SLP089 T01720044 10178 20133 58004=
201104161652 METAR KATL 161652Z 24015G24KT 10SM SCT050 17/04 A2981 RMK AO2 SLP091 T01720044=
201104161552 METAR KATL 161552Z 26017G22KT 10SM SCT050 16/04 A2982 RMK AO2 PK WND 24029/1500 SLP095 T01610039=
201104161452 METAR KATL 161452Z 24016G22KT 10SM SCT045 SCT200 16/04 A2982 RMK AO2 SLP094 T01560044 50012=
201104161352 METAR KATL 161352Z COR 25009G18KT 10SM SCT040 SCT200 14/06 A2983 RMK AO2 SLP097 T01440056=
201104161252 METAR KATL 161252Z 27012KT 10SM FEW040 BKN070 BKN200 14/07 A2982 RMK AO2 SLP094 T01390072=
201104161152 METAR KATL 161152Z 24010KT 10SM FEW040 BKN070 BKN200 14/09 A2979 RMK AO2 SLP082 60051 70100 T01390089 10167 20139 53017=
201104161052 METAR KATL 161052Z 24005KT 10SM FEW015 OVC038 14/09 A2977 RMK AO2 SLP074 T01440094=
201104161001 SPECI KATL 161001Z 25006KT 10SM FEW005 SCT015 OVC031 15/11 A2976 RMK AO2=
201104161001 SPECI KATL 161001Z 25006KT 10SM FEW005 SCT015 OVC031 15/11 A2976 RMK AO2=
201104160952 METAR KATL 160952Z 25007G15KT 10SM FEW005 SCT014 OVC027 16/11 A2975 RMK AO2 RAB03E30 SLP067 P0004 T01560111=
201104160940 SPECI KATL 160940Z 25009G19KT 10SM FEW005 SCT014 OVC027 16/12 A2974 RMK AO2 RAB03E30 P0004=
201104160940 SPECI KATL 160940Z 25009G19KT 10SM FEW005 SCT014 OVC027 16/12 A2974 RMK AO2 RAB03E30 P0004=
201104160926 SPECI KATL 160926Z 24010KT 10SM -RA SCT005 BKN014 OVC025 17/14 A2974 RMK AO2 RAB03 P0004=
201104160926 SPECI KATL 160926Z 24010KT 10SM -RA SCT005 BKN014 OVC025 17/14 A2974 RMK AO2 RAB03 P0004=
201104160909 SPECI KATL 160909Z 25008KT 6SM -RA BR BKN005 BKN014 OVC025 17/15 A2973 RMK AO2 RAB03 P0004=
201104160909 SPECI KATL 160909Z 25008KT 6SM -RA BR BKN005 BKN014 OVC025 17/15 A2973 RMK AO2 RAB03 P0004=
201104160902 SPECI KATL 160902Z 26006G20KT 9SM SCT003 BKN014 OVC030 16/15 A2974 RMK AO2=
201104160902 SPECI KATL 160902Z 26006G20KT 9SM SCT003 BKN014 OVC030 16/15 A2974 RMK AO2=
201104160852 METAR KATL 160852Z 29008G14KT 240V340 10SM FEW003 SCT015 OVC030 16/14 A2974 RMK AO2 RAE18 SLP064 P0001 60047 T01560144 58003=
201104160752 METAR KATL 160752Z 20010KT 5SM -RA BR FEW003 SCT012CB OVC040 16/14 A2975 RMK AO2 WSHFT 0643 TSE49 SLP069 TS DSIPT CB SE-S MOV NE P0032 T01560139=
201104160750 SPECI KATL 160750Z 20010KT 5SM RA BR FEW003 SCT012CB OVC040 16/14 A2975 RMK AO2 WSHFT 0643 TSE49 TS DSIPT CB SE-S MOV NE P0032=
201104160750 SPECI KATL 160750Z 20010KT 5SM RA BR FEW003 SCT012CB OVC040 16/14 A2975 RMK AO2 WSHFT 0643 TSE49 TS DSIPT CB SE-S MOV NE P0032=
201104160739 SPECI KATL 160739Z 20010KT 5SM -TSRA BR FEW005 SCT012CB OVC040 16/14 A2976 RMK AO2 WSHFT 0643 OCNL LTGIC S TS S MOV NE P0030=
201104160739 SPECI KATL 160739Z 20010KT 5SM -TSRA BR FEW005 SCT012CB OVC040 16/14 A2976 RMK AO2 WSHFT 0643 OCNL LTGIC S TS S MOV NE P0030=
201104160725 SPECI KATL 160725Z 20011G18KT 3SM -TSRA BR FEW005 BKN012CB OVC045 16/14 A2977 RMK AO2 WSHFT 0643 OCNL LTGIC NE & S TS NE & S MOV NE P0025=
201104160725 SPECI KATL 160725Z 20011G18KT 3SM -TSRA BR FEW005 BKN012CB OVC045 16/14 A2977 RMK AO2 WSHFT 0643 OCNL LTGIC NE & S TS NE & S MOV NE P0025=
201104160711 SPECI KATL 160711Z 23010G16KT 4SM -TSRA BR FEW005 BKN015CB OVC045 16/14 A2977 RMK AO2 WSHFT 0643 OCNL LTGICCG NE-SE TS NE-SE MOV NE P0021=
201104160711 SPECI KATL 160711Z 23010G16KT 4SM -TSRA BR FEW005 BKN015CB OVC045 16/14 A2977 RMK AO2 WSHFT 0643 OCNL LTGICCG NE-SE TS NE-SE MOV NE P0021=
201104160659 SPECI KATL 160659Z 24014G24KT 1 1/4SM R09R/4500VP6000FT +TSRA BR FEW005 BKN018CB OVC050 17/15 A2979 RMK AO2 WSHFT 0643 PRESRR OCNL LTGICCG OHD-S-W-NW TS OHD-S-W-NW MOV NE P0018=
201104160659 SPECI KATL 160659Z 24014G24KT 1 1/4SM R09R/4500VP6000FT +TSRA BR FEW005 BKN018CB OVC050 17/15 A2979 RMK AO2 WSHFT 0643 PRESRR OCNL LTGICCG OHD-S-W-NW TS OHD-S-W-NW MOV NE P0018=
201104160655 SPECI KATL 160655Z 27015G24KT 230V310 1 3/4SM R09R/5000VP6000FT +TSRA BR BKN020CB OVC055 16/15 A2979 RMK AO2 PRESRR OCNL LTGICCG OHD-S-W-NW TS OHD-S-W-NW MOV NE P0006=
201104160655 SPECI KATL 160655Z 27015G24KT 230V310 1 3/4SM R09R/5000VP6000FT +TSRA BR BKN020CB OVC055 16/15 A2979 RMK AO2 PRESRR OCNL LTGICCG OHD-S-W-NW TS OHD-S-W-NW MOV NE P0006=
201104160652 METAR KATL 160652Z 17017G24KT 2SM R09R/5500VP6000FT +TSRA BR BKN020CB OVC055 17/15 A2974 RMK AO2 SLP065 OCNL LTGICCG OHD-S-W-NW TS OHD-S-W-NW MOV NE P0014 T01670150=
201104160605 SPECI KATL 160605Z 16011KT 4SM TSRA BR BKN025CB OVC055 17/15 A2978 RMK AO2 OCNL LTGIC OHD-NE TS OHD-NE MOV NE P0007=
201104160605 SPECI KATL 160605Z 16011KT 4SM TSRA BR BKN025CB OVC055 17/15 A2978 RMK AO2 OCNL LTGIC OHD-NE TS OHD-NE MOV NE P0007=
201104160552 METAR KATL 160552Z 16010KT 8SM -TSRA BKN030CB OVC055 17/15 A2978 RMK AO2 TSB42 SLP080 OCNL LTGIC NW-NE TS NW-NE MOV NE P0005 60049 T01670150 10217 20161 56024=
201104160542 SPECI KATL 160542Z 15013KT 8SM -TSRA BKN030CB OVC070 16/15 A2979 RMK AO2 TSB42 OCNL LTGIC N TS N MOV NE P0004=
201104160542 SPECI KATL 160542Z 15013KT 8SM -TSRA BKN030CB OVC070 16/15 A2979 RMK AO2 TSB42 OCNL LTGIC N TS N MOV NE P0004=
201104160452 METAR KATL 160452Z 15010KT 6SM -RA BR BKN065 BKN100 OVC150 17/14 A2981 RMK AO2 TSE04 PRESRR SLP090 OCNL LTGIC DSNT S P0002 T01670144 402220133=
201104160404 SPECI KATL 160404Z 14009G16KT 10SM -RA SCT065 BKN100 OVC150 17/15 A2980 RMK AO2 TSE04 TS MOV NE P0000=
201104160404 SPECI KATL 160404Z 14009G16KT 10SM -RA SCT065 BKN100 OVC150 17/15 A2980 RMK AO2 TSE04 TS MOV NE P0000=
201104160352 METAR KATL 160352Z 16013G17KT 10SM -TSRA FEW035CB BKN060 OVC100 17/15 A2982 RMK AO2 SLP091 OCNL LTGIC NE TS NE MOV NE P0007 T01720150=
201104160252 METAR KATL 160252Z 16010KT 6SM -TSRA BR FEW035CB BKN055 OVC090 18/17 A2986 RMK AO2 SLP106 OCNL LTGICCA NE TS NE MOV NE P0014 60035 T01830172 53025=
201104160152 METAR KATL 160152Z 18016G22KT 8SM -TSRA SCT035CB BKN060 OVC100 19/17 A2983 RMK AO2 WSHFT 0054 SLP096 OCNL LTGICCA SE-SW TS SE-SW MOV NE P0013 T01890172=
201104160112 SPECI KATL 160112Z 19011G20KT 9SM -TSRA SCT030CB BKN055 OVC100 19/17 A2982 RMK AO2 WSHFT 0054 FRQ LTGICCG NE TS NE MOV NE P0006=
201104160112 SPECI KATL 160112Z 19011G20KT 9SM -TSRA SCT030CB BKN055 OVC100 19/17 A2982 RMK AO2 WSHFT 0054 FRQ LTGICCG NE TS NE MOV NE P0006=
201104160052 METAR KATL 160052Z 31009G14KT 4SM +TSRA BKN030CB BKN040 OVC070 19/17 A2977 RMK AO2 PK WND 16026/2356 TSB36RAB07 PRESFR SLP075 FRQ LTGICCG OHD-SW TS OHD-SW MOV NE VIS LWR SW P0008 T01940167=
201104160036 SPECI KATL 160036Z 17010G18KT 6SM TSRA FEW025CB BKN040 OVC070 21/16 A2980 RMK AO2 PK WND 16026/2356 TSB36RAB07 OCNL LTGIC S-SW TS S-SW MOV NE P0002=
201104160036 SPECI KATL 160036Z 17010G18KT 6SM TSRA FEW025CB BKN040 OVC070 21/16 A2980 RMK AO2 PK WND 16026/2356 TSB36RAB07 OCNL LTGIC S-SW TS S-SW MOV NE P0002=
201104152352 METAR KATL 152352Z 16017G22KT 10SM SCT042 BKN060 BKN100 OVC150 22/15 A2978 RMK AO2 RAB16E29 SLP081 FRQ LTGCGIC DSNT NW-N P0000 60000 T02170150 10222 20211 58026=
201104152252 METAR KATL 152252Z 14010G17KT 10SM FEW040 SCT060 BKN100 OVC150 22/14 A2981 RMK AO2 RAB48E52 SLP088 CB DSNT W-NW P0000 T02220144=
201104152152 METAR KATL 152152Z 15009KT 10SM FEW040 SCT055 BKN075 OVC150 22/14 A2985 RMK AO2 SLP102 T02220144=
201104152052 METAR KATL 152052Z 15015G22KT 10SM BKN040 BKN050 OVC120 22/14 A2986 RMK AO2 PK WND 14026/2009 SLP107 T02220144 56033=
201104151952 METAR KATL 151952Z 15015G23KT 10SM FEW035 BKN045 OVC120 22/14 A2988 RMK AO2 PK WND 16027/1938 SLP112 CB DSNT NW SHRA DSNT NW T02220144=
201104151852 METAR KATL 151852Z 14013G23KT 10SM BKN030 BKN040 OVC050 22/14 A2992 RMK AO2 SLP127 T02170144=
201104151752 METAR KATL 151752Z COR 15012G24KT 10SM BKN030 BKN040 OVC120 21/14 A2996 RMK AO2 SLP141 BINOVC N T02110139 10217 20139 58017=
201104151652 METAR KATL 151652Z 14014G21KT 10SM FEW030 BKN040 OVC150 21/14 A3000 RMK AO2 SLP152 T02060139=
201104151552 METAR KATL 151552Z 15011G17KT 10SM FEW030 BKN040 OVC150 20/14 A3001 RMK AO2 SLP158 T02000139=
201104151452 METAR KATL 151452Z 14015G21KT 10SM FEW020 SCT070 BKN150 OVC250 19/14 A3001 RMK AO2 SLP158 ACC DSNT NE T01890139 55002=
201104151352 METAR KATL 151352Z 15012G20KT 9SM FEW013 SCT070 BKN090 BKN250 18/14 A3001 RMK AO2 SLP157 ACC N-NE-E & S-SW-W T01780139=
201104151252 METAR KATL 151252Z 13009KT 6SM HZ FEW008 SCT013 BKN090 16/13 A3001 RMK AO2 SLP158 T01610133=
201104151152 METAR KATL 151152Z 14006KT 6SM BR BKN070 BKN150 14/12 A3002 RMK AO2 SLP161 T01390122 10167 20133 53012=
201104151052 METAR KATL 151052Z 13007KT 10SM SCT150 BKN250 13/11 A3000 RMK AO2 SLP155 T01330111=
201104150952 METAR KATL 150952Z 13006KT 10SM BKN150 OVC250 14/11 A3000 RMK AO2 SLP152 T01390106=
201104150852 METAR KATL 150852Z 13005KT 10SM BKN150 BKN250 14/10 A2999 RMK AO2 SLP148 T01440100 55001=
201104150752 METAR KATL 150752Z 13006KT 10SM SCT250 15/09 A2998 RMK AO2 SLP144 T01500094=
201104150652 METAR KATL 150652Z 14007KT 10SM SCT250 16/08 A2999 RMK AO2 SLP149 T01560083=
201104150552 METAR KATL 150552Z 13004KT 10SM BKN250 17/08 A2999 RMK AO2 SLP149 T01670078 10222 20167 58003=
201104150452 METAR KATL 150452Z 12005KT 10SM SCT250 18/07 A3000 RMK AO2 SLP154 T01780072 402440106=
201104150352 METAR KATL 150352Z 12004KT 10SM FEW250 18/07 A3001 RMK AO2 SLP156 T01830072=
201104150252 METAR KATL 150252Z 14004KT 10SM CLR 19/07 A3000 RMK AO2 SLP152 T01940072 51006=
201104150152 METAR KATL 150152Z 14004KT 10SM CLR 20/07 A3000 RMK AO2 SLP152 T02000067=
201104150052 METAR KATL 150052Z 14003KT 10SM FEW200 22/05 A2999 RMK AO2 SLP150 T02170050=
201104142352 METAR KATL 142352Z 16005KT 10SM FEW150 22/06 A2998 RMK AO2 SLP147 T02220061 10244 20222 54000=
201104142252 METAR KATL 142252Z 16009KT 10SM FEW200 24/06 A2998 RMK AO2 SLP148 T02390056=
201104142152 METAR KATL 142152Z 19007KT 10SM CLR 24/06 A2998 RMK AO2 SLP147 T02440056=
201104142052 METAR KATL 142052Z 18006KT 10SM FEW200 24/06 A2998 RMK AO2 SLP148 T02440061 57019=
201104141952 METAR KATL 141952Z 21007KT 10SM FEW200 SCT250 24/06 A3000 RMK AO2 SLP153 T02390061=
201104141852 METAR KATL 141852Z 17004KT 10SM BKN200 BKN250 BKN300 23/05 A3002 RMK AO2 SLP160 T02280050=
201104141752 METAR KATL 141752Z VRB05KT 10SM BKN200 BKN250 BKN300 23/06 A3004 RMK AO2 SLP166 T02280056 10239 20139 58008=
201104141652 METAR KATL 141652Z VRB04KT 10SM BKN200 BKN250 BKN300 23/08 A3005 RMK AO2 SLP170 T02280078=
201104141552 METAR KATL 141552Z VRB03KT 10SM FEW200 BKN250 OVC300 21/06 A3006 RMK AO2 SLP173 T02060061=
201104141452 METAR KATL 141452Z 05003KT 10SM FEW200 BKN250 OVC300 19/07 A3006 RMK AO2 SLP174 T01890067 53003=
201104141352 METAR KATL 141352Z VRB05KT 10SM FEW200 SCT250 BKN300 17/05 A3005 RMK AO2 SLP172 T01670050=
201104141252 METAR KATL 141252Z 06008KT 10SM SCT250 16/03 A3005 RMK AO2 SLP170 T01560028=
201104141152 METAR KATL 141152Z 05005KT 10SM BKN250 14/03 A3005 RMK AO2 SLP172 T01390033 10144 20106 53015=
201104141052 METAR KATL 141052Z 00000KT 10SM SCT250 11/06 A3002 RMK AO2 SLP162 T01110056=
201104140952 METAR KATL 140952Z 00000KT 10SM BKN180 11/06 A3001 RMK AO2 SLP158 T01060061=
201104140852 METAR KATL 140852Z 00000KT 10SM SCT180 11/07 A3001 RMK AO2 SLP157 T01110067 55001=
201104140752 METAR KATL 140752Z 00000KT 10SM FEW200 13/06 A3000 RMK AO2 SLP153 T01330056=
201104140652 METAR KATL 140652Z 00000KT 10SM CLR 12/06 A3001 RMK AO2 SLP156 T01220061=
201104140552 METAR KATL 140552Z 00000KT 10SM FEW200 14/05 A3001 RMK AO2 SLP158 T01440050 10211 20139 50002=
201104140452 METAR KATL 140452Z 33005KT 10SM FEW200 14/06 A3001 RMK AO2 SLP160 T01390056 402390083=
201104140352 METAR KATL 140352Z 32004KT 10SM FEW200 17/03 A3001 RMK AO2 SLP157 T01720033=
201104140252 METAR KATL 140252Z 34003KT 10SM FEW200 18/04 A3000 RMK AO2 SLP156 T01830039 51008=
201104140152 METAR KATL 140152Z 33003KT 10SM FEW200 19/04 A3000 RMK AO2 SLP155 T01890039=
201104140052 METAR KATL 140052Z 33005KT 10SM FEW200 19/03 A2999 RMK AO2 SLP152 T01940033=
201104132352 METAR KATL 132352Z 33006KT 10SM FEW150 21/03 A2998 RMK AO2 SLP149 T02060033 10239 20206 56002=
201104132252 METAR KATL 132252Z 32008KT 10SM SCT200 BKN250 23/03 A2998 RMK AO2 SLP149 T02330033=
201104132152 METAR KATL 132152Z 31009KT 10SM FEW200 23/03 A2998 RMK AO2 SLP149 T02330033=
201104132052 METAR KATL 132052Z 33007KT 10SM FEW200 23/02 A2998 RMK AO2 SLP150 T02330022 56016=
201104131952 METAR KATL 131952Z 32008KT 10SM FEW200 23/03 A2999 RMK AO2 SLP152 T02330033=
201104131852 SPECI KATL 131852Z 33008KT 10SM FEW200 23/03 A3001 RMK AO2 SLP160 T02280028=
201104131752 METAR KATL 131752Z 33005KT 10SM FEW200 21/04 A3003 RMK AO2 SLP167 T02110039 10211 20094 56011=
201104131652 METAR KATL 131652Z 32009KT 10SM FEW200 19/04 A3004 RMK AO2 SLP169 T01940044=
201104131552 METAR KATL 131552Z 35009KT 10SM FEW200 SCT250 18/05 A3005 RMK AO2 SLP174 T01780050=
201104131452 METAR KATL 131452Z 32011KT 10SM FEW200 SCT250 16/05 A3007 RMK AO2 SLP179 T01610050 51013=
201104131352 METAR KATL 131352Z 32011G17KT 10SM FEW200 BKN250 14/06 A3005 RMK AO2 SLP174 T01390056=
201104131252 METAR KATL 131252Z 33009KT 10SM FEW150 SCT300 12/06 A3004 RMK AO2 SLP171 T01170061=
201104131152 METAR KATL 131152Z 30009KT 10SM FEW150 SCT300 09/06 A3003 RMK AO2 SLP166 T00940056 10117 20083 53021=
201104131052 METAR KATL 131052Z 31005KT 10SM FEW020 BKN250 09/06 A2998 RMK AO2 SLP150 T00890056=
201104130952 METAR KATL 130952Z 32007KT 10SM FEW020 09/06 A2998 RMK AO2 SLP149 T00940056=
201104130852 METAR KATL 130852Z 33007KT 10SM CLR 09/06 A2996 RMK AO2 SLP144 T00940056 58009=
201104130752 METAR KATL 130752Z 32007KT 10SM CLR 10/05 A2998 RMK AO2 SLP150 T01000050=
201104130652 METAR KATL 130652Z 32007KT 10SM CLR 11/05 A2998 RMK AO2 SLP150 T01110050=
201104130552 METAR KATL 130552Z 32006KT 10SM CLR 12/05 A2999 RMK AO2 SLP154 T01170050 10183 20117 51005=
201104130452 METAR KATL 130452Z 32005KT 10SM CLR 13/05 A2999 RMK AO2 SLP152 T01280050 402170128=
201104130352 METAR KATL 130352Z 32005KT 10SM CLR 14/06 A2999 RMK AO2 SLP152 T01390056=
201104130252 METAR KATL 130252Z 31006KT 10SM CLR 14/06 A2997 RMK AO2 SLP148 T01440056 51017=
201104130152 METAR KATL 130152Z 30007KT 10SM CLR 16/06 A2996 RMK AO2 SLP144 T01560061=
201104130052 METAR KATL 130052Z 29006KT 10SM CLR 17/06 A2994 RMK AO2 SLP137 T01720056=
201104122352 METAR KATL 122352Z 29011KT 10SM FEW060 18/06 A2992 RMK AO2 SLP130 T01830056 10217 20183 53010=
201104122252 METAR KATL 122252Z 30015G23KT 10SM SCT060 20/06 A2991 RMK AO2 PK WND 29027/2205 SLP126 T02000056=
201104122152 METAR KATL 122152Z 29014G23KT 10SM SCT060 21/06 A2990 RMK AO2 PK WND 28027/2126 SLP122 T02060061=
201104122052 METAR KATL 122052Z 32017G29KT 10SM SCT060 21/06 A2989 RMK AO2 PK WND 31029/2048 SLP117 T02110061 56009=
201104121952 METAR KATL 121952Z 29016G26KT 10SM FEW055 21/07 A2989 RMK AO2 PK WND 31030/1923 SLP117 T02110072=
201104121852 METAR KATL 121852Z 31018G26KT 10SM FEW055 20/07 A2991 RMK AO2 PK WND 32027/1837 SLP123 T02000072=
201104121752 METAR KATL 121752Z 30020G28KT 10SM SCT050 19/08 A2992 RMK AO2 PK WND 31031/1720 SLP128 T01890078 10194 20128 53001=
201104121652 METAR KATL 121652Z 30020G30KT 10SM FEW045 SCT050 SCT200 19/08 A2992 RMK AO2 PK WND 29030/1652 SLP126 T01890078=
201104121552 METAR KATL 121552Z 29014G22KT 10SM FEW035 SCT200 BKN250 17/09 A2991 RMK AO2 PK WND 28030/1534 SLP122 T01720089=
201104121452 METAR KATL 121452Z 30016G26KT 10SM BKN030 16/08 A2992 RMK AO2 PK WND 29026/1450 SLP125 T01610083 53019=
201104121352 METAR KATL 121352Z 28012G20KT 10SM FEW025 15/09 A2989 RMK AO2 SLP115 T01500094=
201104121252 METAR KATL 121252Z 28010G18KT 10SM FEW019 SCT025 13/10 A2988 RMK AO2 SLP113 T01330100=
201104121152 METAR KATL 121152Z 27011KT 10SM FEW020 SCT080 13/11 A2986 RMK AO2 SLP106 60004 70019 T01280106 10167 20128 53019=
201104121052 METAR KATL 121052Z 27009KT 10SM FEW020 SCT080 13/11 A2984 RMK AO2 SLP097 T01330106=
201104120952 METAR KATL 120952Z 27009KT 10SM FEW020 SCT150 14/12 A2982 RMK AO2 SLP092 T01440117=
201104120852 METAR KATL 120852Z 28013G20KT 10SM SCT110 BKN150 16/13 A2980 RMK AO2 SLP084 60004 T01560133 55000=
201104120822 SPECI KATL 120822Z 27011KT 10SM FEW024 SCT065 BKN110 16/14 A2979 RMK AO2=
201104120822 SPECI KATL 120822Z 27011KT 10SM FEW024 SCT065 BKN110 16/14 A2979 RMK AO2=
201104120752 METAR KATL 120752Z 26009KT 6SM BR FEW009 BKN015 OVC100 17/15 A2979 RMK AO2 TSE26RAE0653 SLP080 TS MOV E T01670150=
201104120748 SPECI KATL 120748Z 25008KT 10SM FEW009 SCT015 OVC100 17/15 A2980 RMK AO2 TSE26RAE0653 TS MOV E=
201104120748 SPECI KATL 120748Z 25008KT 10SM FEW009 SCT015 OVC100 17/15 A2980 RMK AO2 TSE26RAE0653 TS MOV E=
201104120728 SPECI KATL 120728Z 24010KT 10SM SCT009 BKN013 OVC100 17/15 A2979 RMK AO2 TSE26RAE0653 TS MOV E=
201104120728 SPECI KATL 120728Z 24010KT 10SM SCT009 BKN013 OVC100 17/15 A2979 RMK AO2 TSE26RAE0653 TS MOV E=
201104120652 METAR KATL 120652Z 24008KT 8SM -TSRA SCT012CB OVC095 17/15 A2981 RMK AO2 TSB14 SLP086 OCNL LTGIC NE-E-SE TS NE-E-SE MOV NE OCNL LTGIC DSNT N P0004 T01670150=
201104120637 SPECI KATL 120637Z 25007G14KT 7SM -TSRA BKN024CB OVC090 17/15 A2980 RMK AO2 TSB14 OCNL LTGIC NE & S-SW TS NE & S-SW MOV NE P0004=
201104120637 SPECI KATL 120637Z 25007G14KT 7SM -TSRA BKN024CB OVC090 17/15 A2980 RMK AO2 TSB14 OCNL LTGIC NE & S-SW TS NE & S-SW MOV NE P0004=
201104120615 SPECI KATL 120615Z 24010KT 4SM TS BR SCT050CB OVC080 17/15 A2980 RMK AO2 TSB14RAE12 FRQ LTGIC OHD & N TS OHD & N MOV NE P0001=
201104120615 SPECI KATL 120615Z 24010KT 4SM TS BR SCT050CB OVC080 17/15 A2980 RMK AO2 TSB14RAE12 FRQ LTGIC OHD & N TS OHD & N MOV NE P0001=
201104120552 METAR KATL 120552Z 25009G14KT 8SM -RA SCT026 OVC080 17/15 A2980 RMK AO2 SLP085 P0007 60015 T01670150 10250 20167 52007=
201104120452 METAR KATL 120452Z 27009KT 6SM -RA FEW035 BKN065 OVC090 17/16 A2981 RMK AO2 PK WND 27032/0354 WSHFT 0345 TSE19 SLP087 P0008 T01720156 402780172=
201104120419 SPECI KATL 120419Z 27012G18KT 9SM -RA FEW020 BKN035 OVC090 18/16 A2981 RMK AO2 PK WND 27032/0354 WSHFT 0345 TSE19 TS MOV NE P0006=
201104120419 SPECI KATL 120419Z 27012G18KT 9SM -RA FEW020 BKN035 OVC090 18/16 A2981 RMK AO2 PK WND 27032/0354 WSHFT 0345 TSE19 TS MOV NE P0006=
201104120403 SPECI KATL 120403Z 27014G32KT 6SM TSRA FEW020 BKN035CB OVC090 18/16 A2979 RMK AO2 PK WND 27032/0354 WSHFT 0345 OCNL LTGIC N-NE TS N-NE MOV NE P0004=
201104120403 SPECI KATL 120403Z 27014G32KT 6SM TSRA FEW020 BKN035CB OVC090 18/16 A2979 RMK AO2 PK WND 27032/0354 WSHFT 0345 OCNL LTGIC N-NE TS N-NE MOV NE P0004=
201104120352 METAR KATL 120352Z 24017G25KT 10SM -TSRA FEW020 BKN035CB OVC090 24/16 A2978 RMK AO2 PK WND 21030/0342 TSB46RAB45 SLP075 OCNL LTGICCG SW NW-N TS SW NW-N MOV NE P0000 T02390156=
201104120346 SPECI KATL 120346Z 23018G30KT 10SM -TSRA BKN040CB BKN090 OVC150 24/16 A2977 RMK AO2 PK WND 21030/0342 TSB46RAB45 OCNL LTGICCG SW=
201104120346 SPECI KATL 120346Z 23018G30KT 10SM -TSRA BKN040CB BKN090 OVC150 24/16 A2977 RMK AO2 PK WND 21030/0342 TSB46RAB45 OCNL LTGICCG SW=
201104120252 METAR KATL 120252Z 20015G23KT 10SM FEW100 BKN150 OVC200 24/14 A2978 RMK AO2 SLP077 FRQ LTG DSNT SW-NW T02390144 56010=
201104120152 METAR KATL 120152Z 18010G21KT 10SM FEW065 SCT150 OVC200 24/14 A2978 RMK AO2 SLP077 T02440144=
201104120052 METAR KATL 120052Z 19011KT 10SM BKN065 BKN250 24/14 A2979 RMK AO2 SLP079 T02440144=
201104112352 METAR KATL 112352Z 18008KT 10SM FEW060 SCT200 BKN250 25/14 A2981 RMK AO2 SLP087 T02500139 10278 20250 58024=
201104112252 METAR KATL 112252Z 20011G20KT 10SM FEW060 SCT200 27/14 A2984 RMK AO2 PK WND 22027/2156 SLP095 T02670139=
201104112152 METAR KATL 112152Z 21020G26KT 10SM SCT060 BKN200 27/13 A2986 RMK AO2 PK WND 22026/2144 SLP104 T02670133=
201104112052 METAR KATL 112052Z 21013G20KT 10SM FEW060 SCT200 SCT250 28/14 A2989 RMK AO2 SLP112 T02780139 56038=
201104111952 METAR KATL 111952Z 21015G22KT 10SM FEW050 SCT060 BKN250 27/14 A2992 RMK AO2 SLP123 T02720144=
201104111852 METAR KATL 111852Z 22012G19KT 10SM FEW050 SCT060 BKN250 27/14 A2996 RMK AO2 SLP137 T02670139=
201104111752 METAR KATL 111752Z 22012G18KT 10SM FEW040 SCT050 BKN250 26/16 A3000 RMK AO2 SLP151 T02560156 10256 20189 58021=
201104111652 METAR KATL 111652Z 23011G19KT 10SM BKN030 BKN040 BKN250 23/16 A3004 RMK AO2 SLP164 T02330156=
201104111552 METAR KATL 111552Z 25012G19KT 10SM FEW025 SCT200 BKN250 23/16 A3006 RMK AO2 SLP171 T02280156=
201104111452 METAR KATL 111452Z 25012G18KT 10SM FEW020 SCT025 BKN250 22/16 A3006 RMK AO2 SLP173 T02170156 51007=
201104111450 SPECI KATL 111450Z 25012G18KT 10SM FEW020 SCT025 BKN250 21/16 A3006 RMK AO2=
201104111450 SPECI KATL 111450Z 25012G18KT 10SM FEW020 SCT025 BKN250 21/16 A3006 RMK AO2=
201104111352 METAR KATL 111352Z 25010G17KT 10SM BKN015 BKN250 20/16 A3005 RMK AO2 SLP170 T02000161=
201104111252 METAR KATL 111252Z 25011KT 10SM BKN011 19/16 A3004 RMK AO2 SLP165 T01940161=
201104111222 SPECI KATL 111222Z 24007KT 10SM BKN011 19/16 A3004 RMK AO2=
201104111222 SPECI KATL 111222Z 24007KT 10SM BKN011 19/16 A3004 RMK AO2=
201104111152 METAR KATL 111152Z 24007KT 6SM BR BKN009 BKN012 19/17 A3003 RMK AO2 SLP162 T01890167 10194 20172 53015=
201104111052 METAR KATL 111052Z 23006KT 6SM BR BKN007 18/17 A3001 RMK AO2 SLP152 T01830167=
201104111020 SPECI KATL 111020Z 24008KT 10SM BKN006 18/17 A3000 RMK AO2=
201104111020 SPECI KATL 111020Z 24008KT 10SM BKN006 18/17 A3000 RMK AO2=
201104110952 METAR KATL 110952Z 22006KT 9SM SCT006 SCT200 17/16 A2999 RMK AO2 SLP146 T01720156=
201104110950 SPECI KATL 110950Z 22006KT 9SM SCT006 SCT200 17/16 A2999 RMK AO2=
201104110950 SPECI KATL 110950Z 22006KT 9SM SCT006 SCT200 17/16 A2999 RMK AO2=
201104110852 METAR KATL 110852Z 22004KT 10SM SCT200 17/16 A2999 RMK AO2 SLP147 T01720156 56011=
201104110752 METAR KATL 110752Z 23006KT 10SM FEW200 18/16 A2999 RMK AO2 SLP147 T01830156=
201104110652 METAR KATL 110652Z 22006KT 10SM FEW200 19/15 A3001 RMK AO2 SLP153 T01890150=
201104110552 METAR KATL 110552Z 00000KT 10SM CLR 19/15 A3002 RMK AO2 SLP158 T01940150 10261 20194 58007=
201104110452 METAR KATL 110452Z 00000KT 10SM CLR 20/15 A3003 RMK AO2 SLP161 T02000150 402890178=
201104110352 METAR KATL 110352Z 22005KT 10SM CLR 21/14 A3004 RMK AO2 SLP164 T02060144=
201104110252 METAR KATL 110252Z 22005KT 10SM CLR 22/14 A3005 RMK AO2 SLP167 T02170144 51006=
201104110152 METAR KATL 110152Z 21005KT 10SM FEW250 23/14 A3004 RMK AO2 SLP166 T02280144=
201104110052 METAR KATL 110052Z 23005KT 10SM FEW250 24/13 A3004 RMK AO2 SLP163 T02440133=
201104102352 METAR KATL 102352Z 24006KT 10SM FEW250 26/13 A3003 RMK AO2 SLP161 T02610128 10289 20261 56005=
201104102252 METAR KATL 102252Z 23010KT 10SM CLR 28/13 A3003 RMK AO2 SLP161 T02780128=
201104102152 METAR KATL 102152Z 24007KT 10SM CLR 28/13 A3004 RMK AO2 SLP162 T02830133=
201104102052 METAR KATL 102052Z 19009G14KT 10SM FEW250 29/13 A3004 RMK AO2 SLP165 T02890133 56021=
201104101952 METAR KATL 101952Z 19012KT 10SM FEW050 28/13 A3006 RMK AO2 SLP170 T02830128=
201104101852 METAR KATL 101852Z 22009KT 10SM FEW050 SCT085 28/15 A3009 RMK AO2 SLP180 T02780150=
201104101752 METAR KATL 101752Z 19012G16KT 10SM FEW045 SCT095 27/14 A3011 RMK AO2 SLP187 T02720144 10272 20183 58010=
201104101652 METAR KATL 101652Z 23008KT 10SM FEW040 SCT095 27/16 A3012 RMK AO2 SLP191 T02670156=
201104101552 METAR KATL 101552Z 23008KT 10SM FEW100 26/17 A3013 RMK AO2 SLP195 T02560167=
201104101452 METAR KATL 101452Z 21006KT 10SM FEW250 24/17 A3014 RMK AO2 SLP197 T02390172 51012=
201104101352 METAR KATL 101352Z 22004KT 10SM SCT250 22/17 A3013 RMK AO2 SLP195 T02170167=
201104101252 METAR KATL 101252Z 00000KT 10SM SCT250 20/17 A3012 RMK AO2 SLP192 T02000167=
201104101152 METAR KATL 101152Z 00000KT 10SM SCT250 18/15 A3011 RMK AO2 SLP186 T01830150 10217 20178 53013=
201104101052 METAR KATL 101052Z 25004KT 10SM FEW250 19/16 A3009 RMK AO2 SLP179 T01890156=
201104100952 METAR KATL 100952Z 26005KT 10SM SCT250 19/16 A3008 RMK AO2 SLP174 T01940156=
201104100852 METAR KATL 100852Z 25005KT 10SM SCT250 20/16 A3007 RMK AO2 SLP171 T02000156 55001=
201104100752 METAR KATL 100752Z 00000KT 10SM FEW250 20/16 A3006 RMK AO2 SLP170 T02000156=
201104100652 METAR KATL 100652Z 20003KT 10SM FEW250 20/16 A3006 RMK AO2 SLP171 T02000156=
201104100552 METAR KATL 100552Z 24003KT 10SM SCT250 22/16 A3007 RMK AO2 SLP172 T02170156 10272 20217 58002=
201104100452 METAR KATL 100452Z 24006KT 10SM FEW250 22/16 A3007 RMK AO2 SLP175 T02220156 403000194=
201104100352 METAR KATL 100352Z 24006KT 10SM CLR 23/16 A3008 RMK AO2 SLP177 T02280156=
201104100252 SPECI KATL 100252Z 24006KT 10SM CLR 23/16 A3007 RMK AO2 SLP175 T02330156 53016=
201104100152 METAR KATL 100152Z 23005KT 10SM CLR 24/16 A3006 RMK AO2 SLP170 T02390156=
201104100052 METAR KATL 100052Z 22004KT 10SM CLR 25/14 A3004 RMK AO2 SLP166 T02500144=
201104092352 METAR KATL 092352Z 26005KT 10SM CLR 27/14 A3003 RMK AO2 SLP159 T02720139 10300 20272 56003=
201104092252 METAR KATL 092252Z 26007KT 10SM FEW065 SCT250 29/14 A3003 RMK AO2 SLP159 T02890144=
201104092152 METAR KATL 092152Z 27011KT 10SM FEW065 SCT250 30/13 A3003 RMK AO2 SLP158 T03000128=
201104092052 METAR KATL 092052Z 28009G16KT 10SM FEW065 SCT090 SCT250 30/14 A3004 RMK AO2 SLP161 T03000139 58027=
201104091952 METAR KATL 091952Z 27010G20KT 10SM FEW055 SCT090 SCT250 29/14 A3006 RMK AO2 SLP170 T02940144=
201104091852 SPECI KATL 091852Z 28008G15KT 10SM FEW045 SCT085 SCT250 29/16 A3010 RMK AO2 SLP181 T02890156=
201104091752 METAR KATL 091752Z 27008G16KT 10SM FEW027 BKN150 BKN250 28/17 A3012 RMK AO2 SLP190 T02780167 10278 20194 58012=
201104091652 METAR KATL 091652Z COR 25007KT 9SM SCT027 SCT034 BKN150 BKN250 26/19 A3015 RMK AO2 SLP201 T02610189=
201104091552 METAR KATL 091552Z 26011KT 8SM SCT021 BKN150 BKN250 25/19 A3016 RMK AO2 SLP203 T02500189=
201104091525 SPECI KATL 091525Z 23003KT 8SM SCT018 BKN150 BKN250 24/19 A3015 RMK AO2=
201104091525 SPECI KATL 091525Z 23003KT 8SM SCT018 BKN150 BKN250 24/19 A3015 RMK AO2=
201104091452 METAR KATL 091452Z 25007KT 8SM BKN016 23/19 A3016 RMK AO2 SLP203 T02330189 50007=
201104091435 SPECI KATL 091435Z 24006KT 8SM SCT014 23/19 A3015 RMK AO2=
201104091435 SPECI KATL 091435Z 24006KT 8SM SCT014 23/19 A3015 RMK AO2=
201104091352 METAR KATL 091352Z 26009KT 5SM HZ BKN012 22/19 A3016 RMK AO2 SLP204 T02170189=
201104091321 SPECI KATL 091321Z 25005KT 5SM BR BKN012 21/19 A3015 RMK AO2=
201104091321 SPECI KATL 091321Z 25005KT 5SM BR BKN012 21/19 A3015 RMK AO2=
201104091303 SPECI KATL 091303Z 23005KT 2SM BR OVC010 21/19 A3014 RMK AO2 SFC VIS 5 BINOVC=
201104091303 SPECI KATL 091303Z 23005KT 2SM BR OVC010 21/19 A3014 RMK AO2 SFC VIS 5 BINOVC=
201104091252 METAR KATL 091252Z 26005KT 2SM BR OVC008 21/19 A3014 RMK AO2 SFC VIS 4 SLP200 T02060189=
201104091238 SPECI KATL 091238Z 27005KT 2SM BR OVC006 20/19 A3014 RMK AO2 SFC VIS 4=
201104091238 SPECI KATL 091238Z 27005KT 2SM BR OVC006 20/19 A3014 RMK AO2 SFC VIS 4=
201104091152 METAR KATL 091152Z 27005KT 2SM BR OVC004 19/18 A3013 RMK AO2 SFC VIS 3 SLP196 T01940183 10211 20194 53028=
201104091139 SPECI KATL 091139Z 26007KT 2SM BR OVC004 19/18 A3013 RMK AO2 SFC VIS 3=
201104091139 SPECI KATL 091139Z 26007KT 2SM BR OVC004 19/18 A3013 RMK AO2 SFC VIS 3=
201104091052 METAR KATL 091052Z 26005KT 6SM BR BKN005 19/18 A3009 RMK AO2 SLP182 T01940183=
201104091030 SPECI KATL 091030Z 24008KT 6SM BR BKN005 19/18 A3007 RMK AO2=
201104091030 SPECI KATL 091030Z 24008KT 6SM BR BKN005 19/18 A3007 RMK AO2=
201104091015 SPECI KATL 091015Z 25007KT 6SM BR FEW006 19/18 A3007 RMK AO2=
201104091015 SPECI KATL 091015Z 25007KT 6SM BR FEW006 19/18 A3007 RMK AO2=
201104090952 METAR KATL 090952Z 24007KT 7SM FEW015 19/18 A3006 RMK AO2 SLP172 T01940183=
201104090852 METAR KATL 090852Z 25004KT 7SM CLR 20/18 A3005 RMK AO2 SLP167 T02000183 53001=
201104090752 METAR KATL 090752Z 28005KT 8SM FEW100 20/18 A3004 RMK AO2 SLP162 T02000183=
201104090652 METAR KATL 090652Z 26004KT 9SM FEW100 21/18 A3004 RMK AO2 SLP164 T02060183=
201104090552 METAR KATL 090552Z 27006KT 10SM CLR 21/18 A3005 RMK AO2 SLP166 T02110183 10244 20211 58001=
201104090452 METAR KATL 090452Z 25005KT 10SM FEW200 22/18 A3005 RMK AO2 SLP168 T02170183 402610150=
201104090352 METAR KATL 090352Z 24005KT 10SM CLR 22/19 A3005 RMK AO2 SLP170 T02170189=
201104090252 METAR KATL 090252Z 24005KT 10SM FEW040 23/19 A3005 RMK AO2 SLP168 T02280189 51013=
201104090152 METAR KATL 090152Z 24005KT 10SM SCT035 BKN048 23/19 A3004 RMK AO2 SLP165 T02330189=
201104090052 METAR KATL 090052Z 23004KT 10SM SCT035 BKN050 23/19 A3002 RMK AO2 SLP161 T02330189=
201104082352 METAR KATL 082352Z 22006KT 10SM FEW035 SCT045 SCT060 24/19 A3001 RMK AO2 SLP155 TCU DSNT NE AND W-N T02440189 10261 20239 55001=
201104082252 METAR KATL 082252Z 23008KT 10SM FEW035 SCT045 BKN100 26/19 A3000 RMK AO2 SLP152 TCU DSNT NW-NE T02560189=
201104082152 METAR KATL 082152Z 23005KT 10SM SCT032TCU BKN045 BKN250 25/18 A3000 RMK AO2 SLP153 TCU OHD-W T02500183=
201104082052 METAR KATL 082052Z 22011KT 10SM SCT029 BKN044 BKN055 25/19 A3001 RMK AO2 SLP156 T02500189 56018=
201104081952 SPECI KATL 081952Z COR 22012KT 10SM SCT028 BKN034 BKN070 25/18 A3002 RMK AO2 SLP160 T02500183=
201104081852 METAR KATL 081852Z 24010G18KT 8SM SCT023 BKN031 BKN070 24/18 A3005 RMK AO2 SLP168 T02440183=
201104081752 SPECI KATL 081752Z 25010G17KT 8SM SCT021 BKN027 OVC060 24/18 A3007 RMK AO2 SLP175 T02390183 10244 20172 58008=
201104081652 METAR KATL 081652Z 24008KT 7SM OVC019 22/18 A3008 RMK AO2 SLP181 T02220178=
201104081628 SPECI KATL 081628Z 27011G15KT 7SM BKN017 OVC022 22/18 A3009 RMK AO2=
201104081628 SPECI KATL 081628Z 27011G15KT 7SM BKN017 OVC022 22/18 A3009 RMK AO2=
201104081552 METAR KATL 081552Z 26007KT 7SM OVC011 22/18 A3009 RMK AO2 SLP182 T02170183=
201104081452 METAR KATL 081452Z 24010KT 6SM HZ OVC008 20/17 A3009 RMK AO2 SLP184 T02000172 51007=
201104081352 METAR KATL 081352Z 22007KT 6SM BR OVC006 19/17 A3008 RMK AO2 SLP182 T01890167=
201104081252 METAR KATL 081252Z 21004KT 6SM BR BKN006 OVC015 18/16 A3009 RMK AO2 SLP182 T01780161=
201104081152 METAR KATL 081152Z 24005KT 6SM BR BKN007 OVC013 18/16 A3007 RMK AO2 SLP176 T01780161 10178 20150 53016=
201104081052 METAR KATL 081052Z 23004KT 6SM BR OVC007 17/16 A3005 RMK AO2 SLP171 T01720156=
201104080952 METAR KATL 080952Z 22008KT 7SM BKN007 BKN011 17/14 A3003 RMK AO2 SLP161 T01720139=
201104080914 SPECI KATL 080914Z 21004KT 10SM BKN009 BKN038 17/13 A3002 RMK AO2=
201104080914 SPECI KATL 080914Z 21004KT 10SM BKN009 BKN038 17/13 A3002 RMK AO2=
201104080852 METAR KATL 080852Z 20006KT 10SM BKN011 17/12 A3002 RMK AO2 SLP160 T01670122 55008=
201104080824 SPECI KATL 080824Z 20005KT 10SM BKN011 17/12 A3002 RMK AO2=
201104080824 SPECI KATL 080824Z 20005KT 10SM BKN011 17/12 A3002 RMK AO2=
201104080802 SPECI KATL 080802Z 18006KT 10SM FEW013 SCT026 16/11 A3001 RMK AO2=
201104080802 SPECI KATL 080802Z 18006KT 10SM FEW013 SCT026 16/11 A3001 RMK AO2=
201104080752 METAR KATL 080752Z 18006KT 10SM FEW013 BKN026 16/11 A3002 RMK AO2 SLP159 T01560111=
201104080719 SPECI KATL 080719Z 20005KT 10SM BKN024 BKN036 17/11 A3002 RMK AO2=
201104080719 SPECI KATL 080719Z 20005KT 10SM BKN024 BKN036 17/11 A3002 RMK AO2=
201104080652 METAR KATL 080652Z 17005KT 10SM SCT039 BKN046 16/11 A3002 RMK AO2 SLP158 T01610111=
201104080552 METAR KATL 080552Z 15004KT 10SM FEW037 BKN049 17/12 A3005 RMK AO2 SLP169 T01720117 10217 20167 50006=
201104080452 METAR KATL 080452Z 14003KT 10SM OVC045 18/12 A3005 RMK AO2 SLP168 T01830117 402390078=
201104080352 METAR KATL 080352Z 16003KT 10SM SCT200 BKN250 18/11 A3003 RMK AO2 SLP165 T01830111=
201104080252 METAR KATL 080252Z 19006KT 10SM FEW150 BKN200 18/11 A3003 RMK AO2 SLP163 T01830111 51002=
201104080152 METAR KATL 080152Z 18006KT 10SM BKN150 OVC200 19/11 A3003 RMK AO2 SLP163 T01890111=
201104080052 METAR KATL 080052Z 23003KT 10SM FEW100 SCT150 BKN200 21/10 A3003 RMK AO2 SLP165 T02060100=
201104072352 METAR KATL 072352Z 23005KT 10SM FEW100 SCT150 BKN200 21/10 A3002 RMK AO2 SLP163 T02110100 10239 20206 53003=
201104072252 METAR KATL 072252Z 20006KT 10SM FEW100 SCT150 BKN200 23/09 A3001 RMK AO2 SLP158 T02280094=
201104072152 METAR KATL 072152Z 21008KT 10SM FEW150 BKN200 BKN250 23/08 A3001 RMK AO2 SLP159 T02280083=
201104072052 METAR KATL 072052Z 24006KT 10SM FEW150 SCT200 BKN250 23/09 A3001 RMK AO2 SLP159 T02330089 56027=
201104071952 SPECI KATL 071952Z 24006KT 10SM BKN200 BKN250 22/09 A3004 RMK AO2 SLP168 T02220089=
201104071852 METAR KATL 071852Z 00000KT 10SM FEW200 BKN250 22/09 A3006 RMK AO2 SLP176 T02220094=
201104071752 METAR KATL 071752Z 20003KT 10SM FEW045 SCT200 SCT250 21/10 A3009 RMK AO2 SLP187 T02060100 10211 20089 56021=
201104071652 METAR KATL 071652Z VRB04KT 10SM FEW040 SCT200 20/09 A3011 RMK AO2 SLP193 T02000094=
201104071552 METAR KATL 071552Z 30004KT 10SM FEW035 18/09 A3013 RMK AO2 SLP201 T01830094=
201104071452 METAR KATL 071452Z 30007KT 10SM FEW030 17/09 A3016 RMK AO2 SLP209 T01670094 51011=
201104071352 METAR KATL 071352Z 30006KT 10SM CLR 15/08 A3015 RMK AO2 SLP208 T01500078=
201104071252 METAR KATL 071252Z 27003KT 10SM CLR 12/06 A3014 RMK AO2 SLP203 T01220056=
201104071152 METAR KATL 071152Z 00000KT 10SM FEW250 09/03 A3012 RMK AO2 SLP199 T00890033 10117 20078 53009=
201104071052 METAR KATL 071052Z 00000KT 10SM FEW250 08/03 A3010 RMK AO2 SLP192 T00830033=
201104070952 METAR KATL 070952Z 00000KT 10SM CLR 09/03 A3009 RMK AO2 SLP188 T00890028=
201104070852 METAR KATL 070852Z 00000KT 10SM CLR 10/02 A3010 RMK AO2 SLP189 T01000017 58001=
201104070752 METAR KATL 070752Z 19003KT 10SM CLR 11/02 A3009 RMK AO2 SLP188 T01060022=
201104070652 METAR KATL 070652Z 23003KT 10SM CLR 11/02 A3010 RMK AO2 SLP192 T01110017=
201104070552 METAR KATL 070552Z 00000KT 10SM FEW200 12/02 A3010 RMK AO2 SLP190 T01220022 10189 20117 55001=
201104070452 METAR KATL 070452Z 18003KT 10SM FEW200 12/02 A3010 RMK AO2 SLP190 T01220017 402170039=
201104070352 METAR KATL 070352Z 18004KT 10SM SCT200 13/02 A3010 RMK AO2 SLP190 T01280017=
201104070252 METAR KATL 070252Z 18006KT 10SM SCT200 14/01 A3010 RMK AO2 SLP192 T01390011 51013=
201104070152 METAR KATL 070152Z 20004KT 10SM FEW200 15/01 A3010 RMK AO2 SLP190 T01500006=
201104070052 METAR KATL 070052Z 20007KT 10SM FEW200 17/M01 A3008 RMK AO2 SLP184 T01721006=
201104062352 METAR KATL 062352Z 19011KT 10SM FEW150 19/M01 A3006 RMK AO2 SLP180 T01891011 10217 20189 55006=
201104062252 METAR KATL 062252Z 20009KT 10SM FEW200 21/M01 A3006 RMK AO2 SLP177 T02061006=
201104062152 METAR KATL 062152Z 18009KT 10SM FEW150 BKN200 21/M01 A3006 RMK AO2 SLP178 T02111006=
201104062052 METAR KATL 062052Z 18012G15KT 10SM FEW200 BKN250 21/M01 A3008 RMK AO2 SLP185 T02111006 58026=
201104061952 METAR KATL 061952Z 19010G17KT 10SM FEW200 BKN250 21/M02 A3011 RMK AO2 SLP194 T02111017=
201104061852 METAR KATL 061852Z VRB03G15KT 10SM BKN200 20/M02 A3014 RMK AO2 SLP204 T02001022=
201104061752 METAR KATL 061752Z 13006KT 10SM FEW200 19/M03 A3016 RMK AO2 SLP213 T01891028 10194 20056 58028=
201104061652 METAR KATL 061652Z 12009KT 10SM FEW200 18/M03 A3019 RMK AO2 SLP222 T01781033=
201104061552 METAR KATL 061552Z 15006KT 10SM CLR 17/M03 A3023 RMK AO2 SLP236 T01671033=
201104061452 METAR KATL 061452Z 14003KT 10SM CLR 15/M03 A3025 RMK AO2 SLP244 T01501033 51012=
201104061352 METAR KATL 061352Z 14004KT 10SM CLR 13/M05 A3024 RMK AO2 SLP243 T01281050=
201104061252 METAR KATL 061252Z 00000KT 10SM FEW250 10/01 A3022 RMK AO2 SLP236 T01000011=
201104061152 METAR KATL 061152Z 00000KT 10SM CLR 06/00 A3021 RMK AO2 SLP233 T00560000 10072 20039 53026=
201104061052 METAR KATL 061052Z 00000KT 10SM CLR 04/01 A3019 RMK AO2 SLP225 T00440006=
201104060952 METAR KATL 060952Z 00000KT 10SM CLR 06/00 A3015 RMK AO2 SLP211 T00560000=
201104060852 METAR KATL 060852Z 00000KT 10SM CLR 06/M01 A3013 RMK AO2 SLP205 T00561006 51007=
201104060752 METAR KATL 060752Z 29003KT 10SM CLR 06/M01 A3013 RMK AO2 SLP203 T00611006=
201104060652 METAR KATL 060652Z 28003KT 10SM CLR 06/M01 A3012 RMK AO2 SLP202 T00611006=
201104060552 METAR KATL 060552Z 33005KT 10SM CLR 07/M01 A3011 RMK AO2 SLP197 T00671011 10117 20067 53012=
201104060452 METAR KATL 060452Z 29005KT 10SM CLR 07/M02 A3010 RMK AO2 SLP194 T00671017 401670061=
201104060352 METAR KATL 060352Z 28004KT 10SM CLR 08/M02 A3008 RMK AO2 SLP187 T00781017=
201104060252 METAR KATL 060252Z 28006KT 10SM CLR 08/M02 A3007 RMK AO2 SLP186 T00781017 51028=
201104060152 METAR KATL 060152Z 29006KT 10SM CLR 09/M02 A3005 RMK AO2 SLP178 T00891017=
201104060052 METAR KATL 060052Z 29007KT 10SM CLR 10/M02 A3001 RMK AO2 SLP166 T01001022=
201104052352 METAR KATL 052352Z 29010KT 10SM CLR 12/M03 A2999 RMK AO2 SLP157 T01171028 10150 20117 53016=
201104052252 METAR KATL 052252Z 30010KT 10SM CLR 13/M03 A2997 RMK AO2 PK WND 32026/2218 SLP149 T01331033=
201104052152 METAR KATL 052152Z 31014G24KT 10SM CLR 14/M03 A2995 RMK AO2 PK WND 31028/2054 SLP142 T01391028=
201104052052 METAR KATL 052052Z 30020G26KT 10SM CLR 14/M02 A2994 RMK AO2 PK WND 33027/1956 SLP138 T01441022 56005=
201104051952 METAR KATL 051952Z 32016G23KT 10SM CLR 14/M02 A2994 RMK AO2 PK WND 29027/1855 SLP138 T01441017=
201104051852 METAR KATL 051852Z 31013G24KT 10SM FEW060 14/M02 A2995 RMK AO2 SLP142 T01391022=
201104051752 METAR KATL 051752Z 30016G21KT 10SM FEW050 13/00 A2995 RMK AO2 PK WND 30026/1713 SLP140 T01280000 10128 20061 50004=
201104051652 METAR KATL 051652Z 33019G26KT 10SM FEW050 12/M01 A2998 RMK AO2 PK WND 29027/1639 SLP149 T01171011=
201104051552 METAR KATL 051552Z 34018G25KT 10SM FEW050 11/M01 A2997 RMK AO2 PK WND 33027/1520 SLP148 T01061011=
201104051452 METAR KATL 051452Z 33015G28KT 10SM BKN040 BKN050 09/M01 A2994 RMK AO2 PK WND 33028/1446 SLP135 T00891006 51027=
201104051352 METAR KATL 051352Z 33014G22KT 10SM SCT040 08/00 A2992 RMK AO2 SLP129 T00780000=
201104051252 METAR KATL 051252Z 32015KT 10SM FEW040 07/01 A2992 RMK AO2 SLP130 T00720006=
201104051152 METAR KATL 051152Z 33012G21KT 10SM SCT035 SCT080 06/01 A2986 RMK AO2 SLP107 60004 70104 T00610011 10156 20061 51027=
201104051052 METAR KATL 051052Z 33013G23KT 10SM SCT031 BKN040 07/02 A2983 RMK AO2 PK WND 32031/1009 SLP097 T00670017=
201104051022 SPECI KATL 051022Z 32019G28KT 10SM FEW029 BKN040 07/02 A2983 RMK AO2 PK WND 32031/1009=
201104051022 SPECI KATL 051022Z 32019G28KT 10SM FEW029 BKN040 07/02 A2983 RMK AO2 PK WND 32031/1009=
201104050952 METAR KATL 050952Z 31013G26KT 10SM BKN024 BKN029 OVC035 07/03 A2981 RMK AO2 PK WND 32030/0908 SLP091 T00720033=
201104050852 METAR KATL 050852Z 31019G28KT 10SM BKN025 OVC036 08/04 A2977 RMK AO2 PK WND 30032/0818 SLP078 60004 T00780039 51047=
201104050752 METAR KATL 050752Z 31021G33KT 10SM BKN024 OVC043 09/06 A2973 RMK AO2 PK WND 31040/0656 DZE44 SLP061 P0000 T00890056=
201104050652 METAR KATL 050652Z 29022G32KT 4SM -DZ BR SCT013 BKN020 OVC028 11/09 A2969 RMK AO2 PK WND 29035/0632 WSHFT 0604 TSE44RAE44DZB44 SLP048 TS MOV E OCNL LTGIC DSNT SE P0004 T01060089=
201104050645 SPECI KATL 050645Z 29024G31KT 4SM -DZ BR BKN013 OVC020 11/09 A2969 RMK AO2 PK WND 29035/0632 WSHFT 0604 TSE44RAE44DZB44 TS MOV E P0004=
201104050645 SPECI KATL 050645Z 29024G31KT 4SM -DZ BR BKN013 OVC020 11/09 A2969 RMK AO2 PK WND 29035/0632 WSHFT 0604 TSE44RAE44DZB44 TS MOV E P0004=
201104050618 SPECI KATL 050618Z 30021G33KT 10SM -TSRA FEW006 BKN013CB OVC024 14/12 A2965 RMK AO2 PK WND 29033/0614 WSHFT 0604 OCNL LTGICCA SE TS SE MOV E P0004=
201104050618 SPECI KATL 050618Z 30021G33KT 10SM -TSRA FEW006 BKN013CB OVC024 14/12 A2965 RMK AO2 PK WND 29033/0614 WSHFT 0604 OCNL LTGICCA SE TS SE MOV E P0004=
201104050602 SPECI KATL 050602Z 24013G20KT 6SM -TSRA BR FEW008 BKN018CB OVC024 16/14 A2963 RMK AO2 OCNL LTGICCA N-E-SE-SW TS N-E-SE-SW MOV E P0000=
201104050602 SPECI KATL 050602Z 24013G20KT 6SM -TSRA BR FEW008 BKN018CB OVC024 16/14 A2963 RMK AO2 OCNL LTGICCA N-E-SE-SW TS N-E-SE-SW MOV E P0000=
201104050552 METAR KATL 050552Z 22016G23KT 4SM TSRA BR FEW001 BKN008CB OVC022 16/14 A2963 RMK AO2 SLP025 OCNL LTGICCA N-E-SE TS N-E-SE MOV E P0024 60100 T01560144 10256 20144 55028=
201104050540 SPECI KATL 050540Z 22012G19KT 4SM TSRA BR FEW001 BKN011CB OVC022 16/14 A2963 RMK AO2 OCNL LTGICCA N-E-SE TS N-E-SE MOV E P0022=
201104050540 SPECI KATL 050540Z 22012G19KT 4SM TSRA BR FEW001 BKN011CB OVC022 16/14 A2963 RMK AO2 OCNL LTGICCA N-E-SE TS N-E-SE MOV E P0022=
201104050527 SPECI KATL 050527Z 20015KT 4SM TSRA BR FEW009 BKN014CB OVC028 16/14 A2964 RMK AO2 OCNL LTGICCA E-SW TS E-SW MOV E P0020=
201104050527 SPECI KATL 050527Z 20015KT 4SM TSRA BR FEW009 BKN014CB OVC028 16/14 A2964 RMK AO2 OCNL LTGICCA E-SW TS E-SW MOV E P0020=
201104050452 METAR KATL 050452Z 21009G16KT 4SM TSRA BR FEW009 BKN025CB OVC040 15/14 A2962 RMK AO2 PK WND 25036/0354 PRESFR SLP023 OCNL LTGICCA OHD-ALQDS TS OHD-ALQDS MOV E P0056 T01500144 402830128=
201104050427 SPECI KATL 050427Z 20013G21KT 4SM TSRA BR FEW009 BKN028CB OVC050 15/14 A2969 RMK AO2 PK WND 25036/0354 FRQ LTGICCA OHD-ALQDS TS OHD-ALQDS MOV E P0044=
201104050427 SPECI KATL 050427Z 20013G21KT 4SM TSRA BR FEW009 BKN028CB OVC050 15/14 A2969 RMK AO2 PK WND 25036/0354 FRQ LTGICCA OHD-ALQDS TS OHD-ALQDS MOV E P0044=
201104050401 SPECI KATL 050401Z 25018G36KT 3SM +TSRA BR SCT015 BKN030CB OVC050 14/13 A2970 RMK AO2 PK WND 25036/0354 FRQ LTGICCG OHD-ALQDS TS OHD-ALQDS MOV E P0028=
201104050401 SPECI KATL 050401Z 25018G36KT 3SM +TSRA BR SCT015 BKN030CB OVC050 14/13 A2970 RMK AO2 PK WND 25036/0354 FRQ LTGICCG OHD-ALQDS TS OHD-ALQDS MOV E P0028=
201104050352 METAR KATL 050352Z 25020G36KT 1SM R09R/5000VP6000FT +TSRA BR FEW010 OVC030CB 15/13 A2972 RMK AO2 PK WND 27041/0340 WSHFT 0322 TSB24RAB36 SLP056 FRQ LTGICCG OHD-ALQDS TS OHD-ALQDS MOV E P0020 T01500133=
201104050348 SPECI KATL 050348Z 25018G41KT 3/4SM R09R/5000VP6000FT +TSRA BR FEW010 OVC030CB 15/13 A2974 RMK AO2 PK WND 27041/0340 WSHFT 0322 TSB24RAB36 PRESRR FRQ LTGICCG OHD-ALQDS TS OHD-ALQDS MOV E P0011=
201104050348 SPECI KATL 050348Z 25018G41KT 3/4SM R09R/5000VP6000FT +TSRA BR FEW010 OVC030CB 15/13 A2974 RMK AO2 PK WND 27041/0340 WSHFT 0322 TSB24RAB36 PRESRR FRQ LTGICCG OHD-ALQDS TS OHD-ALQDS MOV E P0011=
201104050345 SPECI KATL 050345Z 27025G41KT 1 1/2SM R09R/5000VP6000FT +TSRA BKN030CB OVC080 16/13 A2972 RMK AO2 PK WND 27041/0340 WSHFT 0322 TSB24RAB36 PRESRR FRQ LTGICCG NE-OHD-SW TS NE-OHD-SW MOV E P0003=
201104050345 SPECI KATL 050345Z 27025G41KT 1 1/2SM R09R/5000VP6000FT +TSRA BKN030CB OVC080 16/13 A2972 RMK AO2 PK WND 27041/0340 WSHFT 0322 TSB24RAB36 PRESRR FRQ LTGICCG NE-OHD-SW TS NE-OHD-SW MOV E P0003=
201104050338 SPECI KATL 050338Z 29031G38KT 10SM -TSRA BKN032CB BKN080 OVC150 20/13 A2969 RMK AO2 PK WND 31038/0336 WSHFT 0322 TSB24RAB36 CONS LTGICCG SW-NW TS SW-NW MOV E BLDU OVR RWY P0000=
201104050338 SPECI KATL 050338Z 29031G38KT 10SM -TSRA BKN032CB BKN080 OVC150 20/13 A2969 RMK AO2 PK WND 31038/0336 WSHFT 0322 TSB24RAB36 CONS LTGICCG SW-NW TS SW-NW MOV E BLDU OVR RWY P0000=
201104050324 SPECI KATL 050324Z 20013G30KT 10SM TS SCT032CB BKN080 BKN150 OVC200 23/17 A2965 RMK AO2 PK WND 20030/0318 TSB24 CONS LTGICCG SW-NW TS SW-NW MOV E=
201104050324 SPECI KATL 050324Z 20013G30KT 10SM TS SCT032CB BKN080 BKN150 OVC200 23/17 A2965 RMK AO2 PK WND 20030/0318 TSB24 CONS LTGICCG SW-NW TS SW-NW MOV E=
201104050252 METAR KATL 050252Z 20021G30KT 10SM BKN035 OVC200 24/17 A2966 RMK AO2 PK WND 21035/0236 SLP034 T02390167 55008=
201104050152 METAR KATL 050152Z 19018G28KT 10SM FEW090 OVC200 24/16 A2964 RMK AO2 PK WND 20030/0108 SLP028 T02390156=
201104050052 METAR KATL 050052Z 19014G25KT 10SM FEW060 SCT090 BKN200 24/14 A2968 RMK AO2 PK WND 20030/0025 SLP043 T02440144=
201104042352 METAR KATL 042352Z 21017G26KT 10SM FEW060 SCT075 BKN200 BKN250 26/14 A2968 RMK AO2 PK WND 22028/2253 SLP044 ACC NE-OHD-W T02560139 10283 20256 56031=
201104042252 METAR KATL 042252Z 20020G30KT 10SM FEW060 BKN200 OVC250 26/14 A2970 RMK AO2 PK WND 20030/2250 SLP049 T02610139=
201104042152 METAR KATL 042152Z 20019G26KT 10SM FEW060 BKN200 OVC250 27/14 A2974 RMK AO2 PK WND 20033/2105 SLP063 T02670139=
201104042052 METAR KATL 042052Z 20022G30KT 10SM BKN065 BKN250 27/14 A2978 RMK AO2 PK WND 21033/2019 SLP076 T02670139 58031=
201104041952 SPECI KATL 041952Z 23020G28KT 10SM FEW060 SCT100 SCT250 28/13 A2982 RMK AO2 PK WND 23030/1926 SLP089 ACC DSNT E-SE T02780128=
201104041852 METAR KATL 041852Z 22013G24KT 10SM FEW060 SCT100 SCT250 27/12 A2985 RMK AO2 PK WND 19028/1834 SLP100 T02720117=
201104041752 METAR KATL 041752Z 22015KT 10SM FEW060 SCT200 SCT250 27/11 A2987 RMK AO2 PK WND 20028/1737 SLP107 T02670111 10267 20133 56020=
201104041652 METAR KATL 041652Z 24013G23KT 10SM FEW050 SCT100 SCT200 26/13 A2990 RMK AO2 PK WND 20030/1553 SLP117 T02560128=
201104041552 METAR KATL 041552Z 21024G33KT 10SM FEW035 24/14 A2990 RMK AO2 PK WND 20033/1550 SLP117 T02390139=
201104041452 METAR KATL 041452Z 21015G20KT 10SM FEW035 21/13 A2993 RMK AO2 SLP129 T02060128 58008=
201104041352 METAR KATL 041352Z 19011KT 10SM CLR 18/10 A2996 RMK AO2 SLP138 T01780100=
201104041252 METAR KATL 041252Z 19007KT 10SM CLR 16/08 A2996 RMK AO2 SLP141 T01560083=
201104041152 METAR KATL 041152Z 19004KT 10SM FEW250 13/07 A2996 RMK AO2 SLP139 T01330072 10178 20128 53015=
201104041052 METAR KATL 041052Z 19006KT 10SM FEW250 13/07 A2994 RMK AO2 SLP132 T01330067=
201104040952 METAR KATL 040952Z 22007KT 10SM CLR 16/07 A2993 RMK AO2 SLP128 T01560067=
201104040852 METAR KATL 040852Z 21010KT 10SM FEW200 15/08 A2991 RMK AO2 SLP122 T01500078 58022=
201104040752 METAR KATL 040752Z 21010KT 10SM FEW200 17/08 A2994 RMK AO2 SLP131 T01670078=
201104040652 METAR KATL 040652Z 21012KT 10SM FEW250 17/07 A2996 RMK AO2 SLP138 T01720072=
201104040552 METAR KATL 040552Z 21012KT 10SM SCT250 18/07 A2998 RMK AO2 SLP145 T01780067 10228 20172 56010=
201104040452 METAR KATL 040452Z 21009KT 10SM FEW250 18/06 A2999 RMK AO2 SLP149 T01830061 402610067=
201104040352 METAR KATL 040352Z 19008KT 10SM CLR 18/06 A2999 RMK AO2 SLP150 T01780056=
201104040252 METAR KATL 040252Z 17007KT 10SM CLR 18/06 A3001 RMK AO2 SLP156 T01830056 51004=
201104040152 METAR KATL 040152Z 18005KT 10SM CLR 19/05 A3001 RMK AO2 SLP156 T01890050=
201104040052 METAR KATL 040052Z 19006KT 10SM CLR 21/04 A3000 RMK AO2 SLP156 T02060044=
201104032352 METAR KATL 032352Z 20008KT 10SM CLR 23/04 A3000 RMK AO2 SLP155 T02280039 10261 20228 55005=
201104032252 METAR KATL 032252Z 18013G17KT 10SM CLR 25/04 A3000 RMK AO2 SLP154 T02500039=
201104032152 METAR KATL 032152Z 21014G19KT 10SM FEW250 26/03 A3000 RMK AO2 SLP154 T02560033=
201104032052 METAR KATL 032052Z 18015KT 10SM FEW250 26/03 A3001 RMK AO2 SLP159 T02560033 56028=
201104031952 METAR KATL 031952Z 19011KT 10SM FEW250 26/04 A3003 RMK AO2 SLP166 T02560039=
201104031852 METAR KATL 031852Z 19008G14KT 170V230 10SM FEW250 24/02 A3007 RMK AO2 SLP178 T02440022=
201104031752 METAR KATL 031752Z 18012G16KT 10SM CLR 23/02 A3010 RMK AO2 SLP188 T02330022 10233 20072 58019=
201104031652 METAR KATL 031652Z 20009KT 10SM CLR 22/02 A3013 RMK AO2 SLP199 T02220022 $=
201104031552 METAR KATL 031552Z 16007KT 10SM CLR 21/01 A3016 RMK AO2 SLP208 T02060011 $=
201104031452 METAR KATL 031452Z 13005KT 10SM CLR 19/02 A3016 RMK AO2 SLP208 T01890022 51010=
201104031352 METAR KATL 031352Z 14003KT 10SM FEW250 16/03 A3015 RMK AO2 SLP208 T01610028=
201104031252 METAR KATL 031252Z 19003KT 10SM FEW250 12/04 A3014 RMK AO2 SLP207 T01170044=
201104031152 METAR KATL 031152Z 00000KT 10SM CLR 07/03 A3013 RMK AO2 SLP201 T00720028 10128 20067 53015=
201104031052 METAR KATL 031052Z 00000KT 10SM CLR 07/03 A3010 RMK AO2 SLP191 T00720028=
201104030952 METAR KATL 030952Z 00000KT 10SM CLR 08/02 A3009 RMK AO2 SLP186 T00830017=
201104030852 METAR KATL 030852Z 29003KT 10SM CLR 08/02 A3008 RMK AO2 SLP184 T00830022 53000=
201104030752 METAR KATL 030752Z 00000KT 10SM CLR 09/02 A3007 RMK AO2 SLP181 T00890017=
201104030652 METAR KATL 030652Z 00000KT 10SM FEW250 11/01 A3007 RMK AO2 SLP179 T01060006=
201104030552 METAR KATL 030552Z 31004KT 10SM FEW250 12/00 A3008 RMK AO2 SLP183 T01220000 10178 20122 51004=
201104030452 METAR KATL 030452Z 29005KT 10SM CLR 13/00 A3008 RMK AO2 SLP184 T01280000 402060061=
201104030352 METAR KATL 030352Z 29004KT 10SM CLR 14/M01 A3007 RMK AO2 SLP182 T01391006=
201104030252 METAR KATL 030252Z 30004KT 10SM CLR 15/M01 A3007 RMK AO2 SLP179 T01501011 51022=
201104030152 METAR KATL 030152Z 32007KT 10SM CLR 16/M01 A3005 RMK AO2 SLP174 T01561011=
201104030052 METAR KATL 030052Z 29007KT 10SM CLR 16/M02 A3002 RMK AO2 SLP165 T01611017=
201104022352 METAR KATL 022352Z 30010KT 10SM CLR 18/M02 A3000 RMK AO2 SLP158 T01781022 10206 20178 53012=
201104022252 METAR KATL 022252Z 31014G22KT 10SM CLR 19/M02 A2998 RMK AO2 PK WND 31027/2205 SLP152 T01941022=
201104022152 METAR KATL 022152Z 30015G25KT 10SM FEW080 20/M02 A2997 RMK AO2 PK WND 30028/2134 SLP148 T02001017=
201104022052 METAR KATL 022052Z 32016G25KT 10SM FEW085 20/M02 A2996 RMK AO2 PK WND 30033/2006 SLP143 T02001017 56012=
201104021952 METAR KATL 021952Z 27019G27KT 10SM FEW080 21/M01 A2997 RMK AO2 PK WND 30032/1935 SLP145 T02061006=
201104021852 METAR KATL 021852Z 30022G29KT 10SM FEW075 SCT250 20/M01 A2998 RMK AO2 PK WND 31030/1814 SLP148 T02001006=
201104021752 METAR KATL 021752Z 31015G26KT 10SM FEW075 SCT250 19/00 A3000 RMK AO2 PK WND 32028/1734 SLP155 T01940000 10194 20072 58007=
201104021652 METAR KATL 021652Z 30020G27KT 10SM FEW070 SCT250 18/00 A3002 RMK AO2 PK WND 31030/1616 SLP165 T01830000=
201104021552 METAR KATL 021552Z 32013G23KT 10SM FEW060 SCT250 17/02 A3003 RMK AO2 SLP167 T01720017=
201104021452 METAR KATL 021452Z 28007G15KT 10SM SCT250 16/06 A3002 RMK AO2 SLP165 T01560056 51019=
201104021352 METAR KATL 021352Z 29013G19KT 10SM FEW200 13/06 A3000 RMK AO2 SLP160 T01330061=
201104021252 METAR KATL 021252Z 27008KT 10SM FEW200 10/06 A2999 RMK AO2 SLP155 T01000056=
201104021152 METAR KATL 021152Z 25004KT 10SM FEW200 07/04 A2996 RMK AO2 SLP147 T00720044 10100 20061 53019=
201104021052 METAR KATL 021052Z 00000KT 10SM FEW140 08/04 A2994 RMK AO2 SLP138 T00780044=
201104020952 METAR KATL 020952Z 29006KT 10SM CLR 07/04 A2991 RMK AO2 SLP129 T00720044=
201104020852 METAR KATL 020852Z 26004KT 10SM FEW120 08/04 A2990 RMK AO2 SLP126 T00830044 53001=
201104020752 METAR KATL 020752Z 29007KT 10SM CLR 08/04 A2989 RMK AO2 SLP122 T00830044=
201104020652 METAR KATL 020652Z 27006KT 10SM FEW100 09/04 A2990 RMK AO2 SLP124 T00890044=
201104020552 METAR KATL 020552Z 30007KT 10SM FEW120 09/04 A2990 RMK AO2 SLP125 T00940044 10122 20083 51004=
201104020452 METAR KATL 020452Z 30006KT 10SM FEW120 09/04 A2989 RMK AO2 SLP124 T00890044 401440044=
201104020352 METAR KATL 020352Z 27006KT 10SM FEW120 09/04 A2989 RMK AO2 SLP124 T00940044=
201104020252 METAR KATL 020252Z 28005KT 10SM FEW120 10/04 A2989 RMK AO2 SLP122 T01000044 53017=
201104020152 METAR KATL 020152Z 28004KT 10SM FEW120 11/04 A2987 RMK AO2 SLP116 T01060039=
201104020052 METAR KATL 020052Z 28004KT 10SM FEW120 11/04 A2985 RMK AO2 SLP109 T01110039=
201104012352 METAR KATL 012352Z 29005KT 10SM FEW060 12/04 A2984 RMK AO2 SLP105 T01220044 10144 20117 53004=
201104012252 METAR KATL 012252Z 29008KT 10SM FEW050 SCT065 14/04 A2982 RMK AO2 SLP100 T01390039=
201104012152 METAR KATL 012152Z 28013KT 10SM FEW055 BKN065 14/04 A2983 RMK AO2 SLP103 T01390044=
201104012052 METAR KATL 012052Z 30012KT 10SM SCT045 BKN055 BKN250 13/04 A2982 RMK AO2 SLP100 T01330044 55003=
201104011952 METAR KATL 011952Z 28011G19KT 10SM FEW040 BKN050 BKN250 13/04 A2981 RMK AO2 SLP095 T01330039=
201104011852 METAR KATL 011852Z 28010KT 10SM BKN035 BKN050 BKN250 13/04 A2981 RMK AO2 SLP097 T01280044=
201104011752 METAR KATL 011752Z 27008G19KT 10SM BKN030 BKN040 BKN250 12/04 A2983 RMK AO2 SLP103 T01220044 10122 20044 50006=
201104011652 METAR KATL 011652Z 26010G16KT 10SM BKN030 BKN040 BKN100 11/03 A2983 RMK AO2 SLP105 T01060033=
201104011552 METAR KATL 011552Z 31010KT 10SM FEW035 SCT100 BKN250 11/03 A2983 RMK AO2 SLP105 T01060028=
201104011452 METAR KATL 011452Z 31008KT 10SM FEW035 SCT080 SCT250 09/04 A2981 RMK AO2 SLP098 T00890039 51017=
201104011352 METAR KATL 011352Z 29005KT 9SM BKN035 BKN080 BKN250 07/04 A2981 RMK AO2 SLP097 T00670039=
201104011252 METAR KATL 011252Z 27004KT 6SM BR SCT050 BKN120 BKN250 06/03 A2977 RMK AO2 SLP084 T00560033=
