##########################################################
# Query made at 04/19/2024 23:24:57 UTC
# Time interval: from 12/01/2011 12:00  to 12/31/2011 12:59  UTC
##########################################################

##########################################################
# KATL, Atlanta, Hartsfield - Jackson Atlanta International Airport (United States)
# WMO index: 72219. WIGOS ID: 0-20000-0-72219
# Latitude 33-38-59N. Longitude 084-25-00W. Altitude 312 m.
##########################################################

201112311252 METAR KATL 311252Z 27005KT 10SM FEW250 07/03 A3008 RMK AO2 SLP188 T00670033=
201112311152 METAR KATL 311152Z 29006KT 10SM CLR 07/04 A3005 RMK AO2 SLP177 T00720039 10117 20067 53015=
201112311052 METAR KATL 311052Z 31006KT 10SM CLR 07/04 A3003 RMK AO2 SLP171 T00720044=
201112310952 METAR KATL 310952Z 29006KT 10SM CLR 08/06 A3002 RMK AO2 SLP164 T00830056=
201112310852 METAR KATL 310852Z 28008KT 10SM CLR 10/07 A3001 RMK AO2 SLP159 T01000067 53013=
201112310752 METAR KATL 310752Z 27007KT 10SM CLR 11/08 A2999 RMK AO2 SLP153 T01110083=
201112310652 METAR KATL 310652Z 26005KT 10SM CLR 11/09 A2998 RMK AO2 SLP151 T01060089=
201112310552 METAR KATL 310552Z 23007KT 10SM CLR 12/09 A2997 RMK AO2 SLP146 T01170089 10161 20117 58005=
201112310452 METAR KATL 310452Z 23006KT 10SM CLR 12/09 A2997 RMK AO2 SLP150 T01170089 401830039=
201112310352 METAR KATL 310352Z 22006KT 10SM CLR 12/09 A2998 RMK AO2 SLP153 T01220089=
201112310252 METAR KATL 310252Z 22006KT 10SM FEW200 13/09 A2998 RMK AO2 SLP153 T01330089 53006=
201112310152 METAR KATL 310152Z 21007KT 10SM FEW040 BKN200 15/09 A2998 RMK AO2 SLP152 T01500089=
201112310052 METAR KATL 310052Z 19006KT 10SM FEW040 BKN200 15/08 A2996 RMK AO2 SLP147 T01500083=
201112302352 METAR KATL 302352Z 22005KT 10SM BKN045 BKN200 16/08 A2996 RMK AO2 SLP146 T01610083 10183 20133 53002=
201112302252 METAR KATL 302252Z 21007KT 10SM FEW045 16/08 A2994 RMK AO2 SLP138 T01610083=
201112302152 METAR KATL 302152Z 20011G20KT 10SM FEW040 SCT045 SCT250 18/09 A2993 RMK AO2 SLP136 T01780089=
201112302052 METAR KATL 302052Z 21015G20KT 10SM BKN040 BKN050 BKN250 18/08 A2995 RMK AO2 SLP143 T01780083 55019=
201112301952 METAR KATL 301952Z 22009KT 10SM FEW040 SCT050 SCT250 17/08 A2995 RMK AO2 SLP143 T01720083=
201112301852 METAR KATL 301852Z 20010G19KT 10SM FEW020 SCT050 SCT250 17/09 A2997 RMK AO2 SLP148 T01670089=
201112301752 METAR KATL 301752Z 21009KT 10SM FEW009 SCT012 SCT014 13/09 A3001 RMK AO2 DZE1654 SLP164 P0000 60000 T01330094 10133 20061 58022=
201112301744 SPECI KATL 301744Z 20010G15KT 10SM FEW009 SCT012 13/09 A3002 RMK AO2 DZE1654 P0000=
201112301744 SPECI KATL 301744Z 20010G15KT 10SM FEW009 SCT012 13/09 A3002 RMK AO2 DZE1654 P0000=
201112301718 SPECI KATL 301718Z 20008KT 8SM BKN009 BKN013 BKN020 11/09 A3004 RMK AO2 DZE1654 P0000=
201112301718 SPECI KATL 301718Z 20008KT 8SM BKN009 BKN013 BKN020 11/09 A3004 RMK AO2 DZE1654 P0000=
201112301652 METAR KATL 301652Z 20006KT 6SM -DZ BR BKN008 BKN013 OVC020 10/08 A3005 RMK AO2 RAB1556E05DZB21 SLP180 P0000 T01000083=
201112301622 SPECI KATL 301622Z 21005KT 4SM -DZ BR BKN010 BKN013 OVC020 10/07 A3007 RMK AO2 RAB1556E05DZB21 P0000=
201112301622 SPECI KATL 301622Z 21005KT 4SM -DZ BR BKN010 BKN013 OVC020 10/07 A3007 RMK AO2 RAB1556E05DZB21 P0000=
201112301552 METAR KATL 301552Z 24004KT 9SM FEW015 BKN019 OVC024 10/07 A3008 RMK AO2 SLP190 T01000072=
201112301502 SPECI KATL 301502Z 20003KT 8SM FEW010 BKN017 OVC026 09/07 A3008 RMK AO2=
201112301502 SPECI KATL 301502Z 20003KT 8SM FEW010 BKN017 OVC026 09/07 A3008 RMK AO2=
201112301452 METAR KATL 301452Z 19003KT 6SM BR FEW010 BKN015 OVC020 08/06 A3008 RMK AO2 SLP188 T00830061 53006=
201112301439 SPECI KATL 301439Z 18004KT 6SM BR FEW010 BKN015 OVC020 08/06 A3007 RMK AO2=
201112301439 SPECI KATL 301439Z 18004KT 6SM BR FEW010 BKN015 OVC020 08/06 A3007 RMK AO2=
201112301352 METAR KATL 301352Z 16003KT 10SM BKN011 BKN025 07/05 A3006 RMK AO2 SLP182 CIG 009V013 T00720050=
201112301339 SPECI KATL 301339Z 16005KT 10SM BKN013 BKN025 07/04 A3005 RMK AO2=
201112301339 SPECI KATL 301339Z 16005KT 10SM BKN013 BKN025 07/04 A3005 RMK AO2=
201112301252 METAR KATL 301252Z 00000KT 10SM SCT019 BKN025 07/04 A3006 RMK AO2 SLP183 T00670044=
201112301227 SPECI KATL 301227Z 00000KT 10SM BKN023 BKN033 BKN041 06/04 A3006 RMK AO2=
201112301227 SPECI KATL 301227Z 00000KT 10SM BKN023 BKN033 BKN041 06/04 A3006 RMK AO2=
201112301152 METAR KATL 301152Z 19003KT 10SM SCT021 BKN041 07/04 A3006 RMK AO2 SLP181 T00670044 10067 20039 50000=
201112301052 METAR KATL 301052Z 22004KT 10SM SCT019 BKN039 07/04 A3006 RMK AO2 SLP183 T00670044=
201112301017 SPECI KATL 301017Z 00000KT 10SM FEW005 SCT017 SCT037 06/03 A3006 RMK AO2=
201112301017 SPECI KATL 301017Z 00000KT 10SM FEW005 SCT017 SCT037 06/03 A3006 RMK AO2=
201112300952 METAR KATL 300952Z 24003KT 10SM FEW005 BKN017 07/03 A3006 RMK AO2 SLP182 T00670033=
201112300946 SPECI KATL 300946Z 25003KT 10SM SCT005 BKN017 06/03 A3006 RMK AO2=
201112300946 SPECI KATL 300946Z 25003KT 10SM SCT005 BKN017 06/03 A3006 RMK AO2=
201112300852 METAR KATL 300852Z 00000KT 10SM BKN005 BKN019 06/02 A3006 RMK AO2 SLP180 T00610022 53006=
201112300837 SPECI KATL 300837Z 23003KT 10SM FEW008 SCT019 06/02 A3006 RMK AO2=
201112300837 SPECI KATL 300837Z 23003KT 10SM FEW008 SCT019 06/02 A3006 RMK AO2=
201112300808 SPECI KATL 300808Z 23003KT 10SM SCT008 BKN015 BKN020 05/01 A3005 RMK AO2=
201112300808 SPECI KATL 300808Z 23003KT 10SM SCT008 BKN015 BKN020 05/01 A3005 RMK AO2=
201112300759 SPECI KATL 300759Z 00000KT 10SM SCT008 04/01 A3004 RMK AO2=
201112300759 SPECI KATL 300759Z 00000KT 10SM SCT008 04/01 A3004 RMK AO2=
201112300752 METAR KATL 300752Z 00000KT 10SM CLR 04/01 A3004 RMK AO2 SLP173 T00440006=
201112300652 METAR KATL 300652Z 00000KT 10SM CLR 05/00 A3002 RMK AO2 SLP170 T00500000=
201112300552 METAR KATL 300552Z 23003KT 10SM CLR 06/00 A3004 RMK AO2 SLP175 T00560000 10100 20050 58003=
201112300452 METAR KATL 300452Z 16003KT 10SM CLR 06/01 A3004 RMK AO2 SLP174 T00560006 401391006=
201112300352 METAR KATL 300352Z 00000KT 10SM CLR 07/00 A3005 RMK AO2 SLP178 T00670000=
201112300252 METAR KATL 300252Z 24003KT 10SM FEW250 08/00 A3005 RMK AO2 SLP178 T00780000 53008=
201112300152 METAR KATL 300152Z 00000KT 10SM FEW250 08/00 A3004 RMK AO2 SLP176 T00830000=
201112300052 METAR KATL 300052Z 23004KT 10SM SCT250 09/01 A3003 RMK AO2 SLP175 T00890006=
201112292352 METAR KATL 292352Z 23003KT 10SM SCT250 10/00 A3002 RMK AO2 SLP171 T01000000 10139 20100 53005=
201112292252 METAR KATL 292252Z 19005KT 10SM FEW200 SCT250 11/00 A3001 RMK AO2 SLP167 T01110000=
201112292152 METAR KATL 292152Z 19006KT 10SM BKN250 13/00 A3001 RMK AO2 SLP166 T01330000=
201112292052 METAR KATL 292052Z 22005KT 10SM BKN250 13/M01 A3001 RMK AO2 SLP166 T01331006 56013=
201112291952 METAR KATL 291952Z 24009KT 10SM BKN250 14/M01 A3001 RMK AO2 SLP167 T01391006=
201112291852 METAR KATL 291852Z 28007KT 230V300 10SM FEW250 13/M01 A3003 RMK AO2 SLP173 T01281006=
201112291752 METAR KATL 291752Z 25009KT 10SM FEW250 12/M01 A3005 RMK AO2 SLP179 T01221006 10122 20006 58020=
201112291652 METAR KATL 291652Z 26010G14KT 10SM FEW150 12/00 A3009 RMK AO2 SLP192 T01170000=
201112291552 METAR KATL 291552Z 24005KT 10SM FEW150 09/01 A3011 RMK AO2 SLP201 T00940006=
201112291452 METAR KATL 291452Z 23004KT 10SM FEW150 SCT250 07/01 A3011 RMK AO2 SLP201 T00720006 53013=
201112291352 METAR KATL 291352Z 25003KT 10SM SCT250 04/00 A3008 RMK AO2 SLP193 T00390000=
201112291252 METAR KATL 291252Z 28003KT 10SM FEW250 01/M02 A3008 RMK AO2 SLP192 T00111022=
201112291152 METAR KATL 291152Z 28003KT 10SM FEW250 01/M02 A3007 RMK AO2 SLP189 T00061017 10028 21006 55000=
201112291052 METAR KATL 291052Z 00000KT 10SM CLR 00/M03 A3006 RMK AO2 SLP186 T00001028=
201112290952 METAR KATL 290952Z 00000KT 10SM CLR 01/M03 A3006 RMK AO2 SLP185 T00061028=
201112290852 METAR KATL 290852Z 00000KT 10SM CLR 01/M02 A3007 RMK AO2 SLP188 T00111022 50001=
201112290752 METAR KATL 290752Z 26003KT 10SM CLR 01/M03 A3008 RMK AO2 SLP190 T00111028=
201112290652 METAR KATL 290652Z 28003KT 10SM CLR 02/M03 A3007 RMK AO2 SLP189 T00171028=
201112290552 METAR KATL 290552Z 00000KT 10SM CLR 02/M03 A3007 RMK AO2 SLP188 T00221028 10083 20011 58009=
201112290452 METAR KATL 290452Z 00000KT 10SM FEW250 02/M03 A3008 RMK AO2 SLP192 T00221028 401170017=
201112290352 METAR KATL 290352Z 00000KT 10SM FEW250 03/M03 A3010 RMK AO2 SLP197 T00281033=
201112290252 METAR KATL 290252Z 32003KT 10SM SCT250 04/M04 A3010 RMK AO2 SLP198 T00441039 50004=
201112290152 METAR KATL 290152Z 32005KT 10SM SCT250 06/M04 A3011 RMK AO2 SLP200 T00561039=
201112290052 METAR KATL 290052Z 30004KT 10SM SCT250 07/M03 A3010 RMK AO2 SLP199 T00671033=
201112282352 METAR KATL 282352Z 32005KT 10SM FEW150 SCT250 08/M04 A3009 RMK AO2 SLP194 T00781039 10117 20078 53008=
201112282252 METAR KATL 282252Z 27004KT 10SM FEW150 SCT250 09/M04 A3007 RMK AO2 SLP188 T00891044=
201112282152 METAR KATL 282152Z 27005KT 10SM BKN250 10/M04 A3007 RMK AO2 SLP186 T01001044=
201112282052 METAR KATL 282052Z VRB06KT 10SM BKN250 11/M04 A3006 RMK AO2 SLP182 T01111044 56009=
201112281952 METAR KATL 281952Z 28006KT 10SM SCT250 11/M03 A3006 RMK AO2 SLP184 T01111033=
201112281852 METAR KATL 281852Z 31007KT 10SM SCT250 11/M03 A3006 RMK AO2 SLP181 T01061028=
201112281752 METAR KATL 281752Z 28006KT 10SM FEW250 09/M03 A3009 RMK AO2 SLP193 T00891028 10089 20017 58011=
201112281652 METAR KATL 281652Z 32008KT 10SM CLR 08/M03 A3012 RMK AO2 SLP205 T00781028=
201112281552 METAR KATL 281552Z 33011G19KT 10SM CLR 06/M02 A3013 RMK AO2 SLP207 T00611022=
201112281452 METAR KATL 281452Z 32016G20KT 10SM CLR 05/M02 A3012 RMK AO2 SLP204 T00501022 51019=
201112281352 METAR KATL 281352Z 30010KT 10SM CLR 03/M01 A3011 RMK AO2 SLP200 T00331011=
201112281252 METAR KATL 281252Z 29006KT 10SM CLR 02/M01 A3008 RMK AO2 SLP193 T00171011=
201112281152 METAR KATL 281152Z 29005KT 10SM CLR 02/M01 A3006 RMK AO2 SLP186 70006 T00221006 10056 20022 53012=
201112281052 METAR KATL 281052Z 30005KT 10SM CLR 03/00 A3005 RMK AO2 SLP180 T00280000=
201112280952 METAR KATL 280952Z 32007KT 10SM FEW023 03/01 A3003 RMK AO2 SLP175 T00330006=
201112280852 METAR KATL 280852Z 31013KT 10SM BKN030 05/01 A3003 RMK AO2 SLP173 T00500006 53013=
201112280752 METAR KATL 280752Z 31007KT 10SM SCT025 BKN034 04/02 A3002 RMK AO2 SLP169 T00440017=
201112280652 METAR KATL 280652Z 28008KT 10SM SCT034 04/02 A3000 RMK AO2 SLP163 T00440022=
201112280552 METAR KATL 280552Z 26010KT 10SM FEW060 04/02 A2999 RMK AO2 SLP160 T00440017 10067 20044 58001=
201112280452 METAR KATL 280452Z 27008KT 10SM FEW060 05/01 A2999 RMK AO2 SLP160 T00500011 401110050=
201112280352 METAR KATL 280352Z 27009KT 10SM FEW060 06/01 A2999 RMK AO2 SLP159 T00560006=
201112280252 METAR KATL 280252Z 29012G25KT 10SM FEW028 SCT060 06/01 A2999 RMK AO2 SLP159 T00610006 51020=
201112280152 METAR KATL 280152Z 29012G19KT 10SM FEW028 SCT035 OVC044 06/01 A2998 RMK AO2 SLP153 T00610011=
201112280052 METAR KATL 280052Z 28011G19KT 10SM FEW028 OVC036 06/01 A2996 RMK AO2 SLP148 T00610011=
201112272352 METAR KATL 272352Z 29014G20KT 10SM SCT027 OVC036 07/01 A2993 RMK AO2 SLP139 T00670011 10083 20067 53027=
201112272252 METAR KATL 272252Z 28012G21KT 10SM OVC025 07/02 A2989 RMK AO2 SLP125 T00670017=
201112272152 METAR KATL 272152Z 30014KT 10SM OVC027 07/02 A2987 RMK AO2 PK WND 26028/2059 SLP120 T00670017=
201112272052 METAR KATL 272052Z 26015G22KT 10SM OVC021 07/02 A2985 RMK AO2 PK WND 26026/2014 SLP111 T00720022 53012=
201112271952 METAR KATL 271952Z 25016G24KT 10SM OVC020 08/03 A2982 RMK AO2 SLP101 T00780033=
201112271852 METAR KATL 271852Z 27016G22KT 10SM OVC021 08/03 A2981 RMK AO2 PK WND 23026/1811 SLP098 T00830028=
201112271752 METAR KATL 271752Z 25015G23KT 10SM OVC024 08/03 A2981 RMK AO2 SLP099 60006 T00830028 10111 20072 50006=
201112271652 METAR KATL 271652Z 27018G28KT 10SM OVC025 09/03 A2983 RMK AO2 PK WND 27031/1559 SLP105 T00890028 $=
201112271640 SPECI KATL 271640Z 26016G27KT 10SM OVC027 09/03 A2984 RMK AO2 PK WND 27031/1559 $=
201112271640 SPECI KATL 271640Z 26016G27KT 10SM OVC027 09/03 A2984 RMK AO2 PK WND 27031/1559 $=
201112271552 METAR KATL 271552Z 27015G26KT 10SM SCT024 BKN033 10/04 A2983 RMK AO2 PK WND 28031/1527 SLP101 T01000039 $=
201112271500 SPECI KATL 271500Z 27013G18KT 10SM SCT022 BKN035 11/06 A2980 RMK AO2 $=
201112271500 SPECI KATL 271500Z 27013G18KT 10SM SCT022 BKN035 11/06 A2980 RMK AO2 $=
201112271452 METAR KATL 271452Z 26013G27KT 10SM FEW015 BKN022 BKN029 10/06 A2980 RMK AO2 PK WND 27027/1444 SLP091 60006 T01000056 53002 $=
201112271352 METAR KATL 271352Z 24012G19KT 10SM SCT014 BKN020 11/08 A2979 RMK AO2 SLP088 T01060083 $=
201112271329 SPECI KATL 271329Z 23008KT 3SM BR SCT006 BKN012 OVC020 09/08 A2979 RMK AO2 SFC VIS 6 $=
201112271329 SPECI KATL 271329Z 23008KT 3SM BR SCT006 BKN012 OVC020 09/08 A2979 RMK AO2 SFC VIS 6 $=
201112271321 SPECI KATL 271321Z 22006KT 2SM BR BKN006 BKN010 OVC014 09/08 A2979 RMK AO2 SFC VIS 6 $=
201112271321 SPECI KATL 271321Z 22006KT 2SM BR BKN006 BKN010 OVC014 09/08 A2979 RMK AO2 SFC VIS 6 $=
201112271252 METAR KATL 271252Z 20005KT 2SM BR BKN004 OVC090 08/07 A2979 RMK AO2 SFC VIS 6 RAE33 SLP088 P0006 T00830072 $=
201112271152 METAR KATL 271152Z 11004KT 1/2SM -RA BR BKN005 OVC015 07/06 A2980 RMK AO2 SFC VIS 3 RAB1055 SLP094 P0008 60109 70123 T00720061 10072 20061 56029=
201112271149 SPECI KATL 271149Z 11004KT 1/2SM -RA BR BKN005 OVC015 07/06 A2980 RMK AO2 SFC VIS 3 RAB1055 P0008=
201112271149 SPECI KATL 271149Z 11004KT 1/2SM -RA BR BKN005 OVC015 07/06 A2980 RMK AO2 SFC VIS 3 RAB1055 P0008=
201112271135 SPECI KATL 271135Z 10003KT 1/2SM -RA BR FEW005 OVC015 07/06 A2981 RMK AO2 SFC VIS 3 RAB1055 P0006=
201112271135 SPECI KATL 271135Z 10003KT 1/2SM -RA BR FEW005 OVC015 07/06 A2981 RMK AO2 SFC VIS 3 RAB1055 P0006=
201112271124 SPECI KATL 271124Z 12004KT 3SM -RA BR FEW002 BKN017 OVC034 07/06 A2982 RMK AO2 RAB1055 P0004=
201112271124 SPECI KATL 271124Z 12004KT 3SM -RA BR FEW002 BKN017 OVC034 07/06 A2982 RMK AO2 RAB1055 P0004=
201112271112 SPECI KATL 271112Z 00000KT 2SM -RA BR BKN007 OVC012 07/06 A2983 RMK AO2 RAB1055 P0001=
201112271112 SPECI KATL 271112Z 00000KT 2SM -RA BR BKN007 OVC012 07/06 A2983 RMK AO2 RAB1055 P0001=
201112271059 SPECI KATL 271059Z 00000KT 5SM -RA BR FEW005 BKN010 OVC019 07/06 A2982 RMK AO2 RAB55 P0000 $=
201112271059 SPECI KATL 271059Z 00000KT 5SM -RA BR FEW005 BKN010 OVC019 07/06 A2982 RMK AO2 RAB55 P0000 $=
201112271052 METAR KATL 271052Z 00000KT 7SM FEW005 BKN016 OVC023 07/06 A2982 RMK AO2 RAE41 SLP101 P0021 T00720061 $=
201112271027 SPECI KATL 271027Z 13005KT 3SM RA BR FEW005 BKN024 OVC031 07/06 A2982 RMK AO2 P0020 $=
201112271027 SPECI KATL 271027Z 13005KT 3SM RA BR FEW005 BKN024 OVC031 07/06 A2982 RMK AO2 P0020 $=
201112271022 SPECI KATL 271022Z 11003KT 2 1/2SM RA BR SCT005 BKN008 OVC029 07/06 A2984 RMK AO2 P0019 $=
201112271022 SPECI KATL 271022Z 11003KT 2 1/2SM RA BR SCT005 BKN008 OVC029 07/06 A2984 RMK AO2 P0019 $=
201112271011 SPECI KATL 271011Z 13004KT 1 3/4SM R09R/5500VP6000FT +RA BR BKN005 OVC028 07/06 A2982 RMK AO2 P0011 $=
201112271011 SPECI KATL 271011Z 13004KT 1 3/4SM R09R/5500VP6000FT +RA BR BKN005 OVC028 07/06 A2982 RMK AO2 P0011 $=
201112270952 METAR KATL 270952Z 12010G16KT 6SM RA BR BKN005 OVC010 07/06 A2984 RMK AO2 SLP106 P0024 T00670056 $=
201112270852 METAR KATL 270852Z 11010G15KT 6SM -RA BR BKN005 OVC010 07/05 A2989 RMK AO2 SLP124 P0014 60056 T00670050 56048 $=
201112270752 METAR KATL 270752Z 11010G18KT 4SM RA BR BKN005 OVC011 07/05 A2994 RMK AO2 SLP139 P0022 T00670050 $=
201112270656 SPECI KATL 270656Z 12012G20KT 5SM RA BR BKN007 OVC016 06/05 A2998 RMK AO2 P0000 $=
201112270656 SPECI KATL 270656Z 12012G20KT 5SM RA BR BKN007 OVC016 06/05 A2998 RMK AO2 P0000 $=
201112270652 METAR KATL 270652Z 11014G20KT 5SM RA BR SCT007 SCT011 OVC016 06/05 A2998 RMK AO2 PRESFR SLP154 P0020 T00610050 $=
201112270639 SPECI KATL 270639Z 12013KT 8SM RA FEW009 OVC018 07/04 A3000 RMK AO2 P0015 $=
201112270639 SPECI KATL 270639Z 12013KT 8SM RA FEW009 OVC018 07/04 A3000 RMK AO2 P0015 $=
201112270552 METAR KATL 270552Z 12011KT 5SM RA BR OVC022 07/04 A3004 RMK AO2 SLP174 P0008 60014 T00670044 10100 20067 58031 $=
201112270516 SPECI KATL 270516Z 11012KT 9SM -RA BKN024 OVC032 07/04 A3006 RMK AO2 P0002 $=
201112270516 SPECI KATL 270516Z 11012KT 9SM -RA BKN024 OVC032 07/04 A3006 RMK AO2 P0002 $=
201112270452 METAR KATL 270452Z 11012G19KT 7SM -RA OVC032 08/03 A3007 RMK AO2 RAB17 SLP187 P0005 T00780033 401170028 $=
201112270352 METAR KATL 270352Z 11011KT 10SM OVC034 09/03 A3010 RMK AO2 RAB11E46 SLP194 P0001 T00890028 $=
201112270252 METAR KATL 270252Z 11011G18KT 10SM BKN035 OVC060 10/01 A3013 RMK AO2 SLP205 T01000011 58015 $=
201112270152 METAR KATL 270152Z 10012KT 10SM BKN060 BKN075 OVC150 10/01 A3014 RMK AO2 SLP211 T01000011 $=
201112270052 METAR KATL 270052Z 10009G15KT 10SM FEW050 BKN130 OVC200 10/00 A3018 RMK AO2 SLP222 T01000000 $=
201112262352 METAR KATL 262352Z 10010KT 10SM BKN140 OVC200 09/01 A3018 RMK AO2 SLP223 T00940006 10117 20094 56011 $=
201112262252 METAR KATL 262252Z 11006KT 10SM SCT150 BKN200 OVC250 10/00 A3019 RMK AO2 SLP228 T01000000 $=
201112262152 METAR KATL 262152Z COR 11008KT 10SM SCT150 BKN250 11/M01 A3019 RMK AO2 SLP228 T01061006 $=
201112262052 METAR KATL 262052Z 11010KT 10SM BKN150 BKN250 11/M02 A3021 RMK AO2 SLP233 T01111022 56019 $=
201112261952 METAR KATL 261952Z 11008KT 10SM BKN150 BKN250 11/M01 A3022 RMK AO2 SLP238 T01061011 $=
201112261852 METAR KATL 261852Z 13009KT 10SM SCT150 BKN250 11/M01 A3024 RMK AO2 SLP246 T01061011 $=
201112261752 METAR KATL 261752Z 13010KT 10SM SCT150 BKN250 09/M01 A3027 RMK AO2 SLP253 T00941006 10094 20028 58013 $=
201112261652 METAR KATL 261652Z 09007KT 10SM BKN150 OVC250 08/01 A3030 RMK AO2 SLP263 T00780011 $=
201112261552 METAR KATL 261552Z 10006KT 10SM BKN150 BKN250 07/01 A3031 RMK AO2 SLP268 T00720006 $=
201112261452 METAR KATL 261452Z 05004KT 10SM SCT150 BKN250 07/M01 A3030 RMK AO2 SLP266 T00671006 53015 $=
201112261352 METAR KATL 261352Z 00000KT 10SM FEW100 SCT150 BKN250 04/02 A3029 RMK AO2 SLP261 T00440017 $=
201112261252 METAR KATL 261252Z 36005KT 10SM FEW150 OVC250 04/01 A3026 RMK AO2 SLP252 T00440006 $=
201112261152 METAR KATL 261152Z 32004KT 10SM SCT150 BKN250 03/02 A3026 RMK AO2 SLP251 70051 T00330017 10056 20028 53004 $=
201112261052 METAR KATL 261052Z 00000KT 8SM SCT250 03/02 A3024 RMK AO2 SLP245 T00330022 $=
201112260952 METAR KATL 260952Z 34007KT 300V010 7SM SCT250 03/02 A3024 RMK AO2 SLP244 T00330022 $=
201112260852 METAR KATL 260852Z 31006KT 7SM BKN250 04/03 A3025 RMK AO2 SLP247 T00390028 58013 $=
201112260752 METAR KATL 260752Z 31007KT 8SM BKN250 05/03 A3026 RMK AO2 SLP251 T00500033 $=
201112260652 METAR KATL 260652Z 30005KT 6SM BR FEW150 BKN250 05/04 A3027 RMK AO2 SLP256 T00500039 $=
201112260552 METAR KATL 260552Z 28006KT 7SM FEW003 BKN250 05/04 A3028 RMK AO2 SLP259 T00500039 10089 20050 58004 $=
201112260452 METAR KATL 260452Z 31006KT 4SM BR FEW003 SCT250 06/05 A3030 RMK AO2 SLP263 T00610050 401000061 $=
201112260436 SPECI KATL 260436Z 31006KT 5SM BR SCT003 06/05 A3030 RMK AO2 TWRINC $=
201112260436 SPECI KATL 260436Z 31006KT 5SM BR SCT003 06/05 A3030 RMK AO2 TWRINC $=
201112260401 SPECI KATL 260401Z 32007KT 1 1/2SM BR BKN004 07/06 A3030 RMK AO2 SFC VIS 4 TWRINC $=
201112260401 SPECI KATL 260401Z 32007KT 1 1/2SM BR BKN004 07/06 A3030 RMK AO2 SFC VIS 4 TWRINC $=
201112260352 METAR KATL 260352Z 32008KT 5SM BR SCT004 SCT250 07/06 A3030 RMK AO2 SLP264 T00670056 $=
201112260345 SPECI KATL 260345Z 30008KT 7SM FEW004 SCT250 07/06 A3030 RMK AO2 $=
201112260345 SPECI KATL 260345Z 30008KT 7SM FEW004 SCT250 07/06 A3030 RMK AO2 $=
201112260252 METAR KATL 260252Z 31007KT 10SM FEW250 08/06 A3030 RMK AO2 SLP263 T00780061 56001=
201112260152 METAR KATL 260152Z 31006KT 10SM FEW004 BKN200 08/07 A3030 RMK AO2 SLP263 T00830072=
201112260126 SPECI KATL 260126Z 32006KT 7SM SCT004 BKN200 09/07 A3029 RMK AO2=
201112260126 SPECI KATL 260126Z 32006KT 7SM SCT004 BKN200 09/07 A3029 RMK AO2=
201112260052 METAR KATL 260052Z 30007KT 2 1/2SM BR OVC004 09/08 A3030 RMK AO2 SFC VIS 6 SLP263 T00890078=
201112260031 SPECI KATL 260031Z 26003KT 2 1/2SM BR BKN004 BKN090 BKN250 09/08 A3028 RMK AO2 SFC VIS 5=
201112260031 SPECI KATL 260031Z 26003KT 2 1/2SM BR BKN004 BKN090 BKN250 09/08 A3028 RMK AO2 SFC VIS 5=
201112260020 SPECI KATL 260020Z VRB06KT 7SM BKN004 BKN090 BKN250 09/08 A3030 RMK AO2=
201112260020 SPECI KATL 260020Z VRB06KT 7SM BKN004 BKN090 BKN250 09/08 A3030 RMK AO2=
201112252352 METAR KATL 252352Z 29004KT 8SM FEW004 BKN095 BKN250 09/08 A3030 RMK AO2 SLP263 60020 T00890078 10100 20089 53001=
201112252344 SPECI KATL 252344Z 31005KT 8SM FEW007 BKN095 BKN250 09/08 A3030 RMK AO2=
201112252344 SPECI KATL 252344Z 31005KT 8SM FEW007 BKN095 BKN250 09/08 A3030 RMK AO2=
201112252252 METAR KATL 252252Z 29003KT 8SM FEW035 BKN080 BKN250 09/08 A3028 RMK AO2 SLP256 T00940078=
201112252152 METAR KATL 252152Z 22003KT 9SM FEW005 BKN033 OVC043 09/08 A3028 RMK AO2 RAE07 SLP257 P0000 T00940083=
201112252126 SPECI KATL 252126Z 00000KT 9SM SCT004 SCT025 OVC031 09/08 A3028 RMK AO2 RAE07 PRESFR P0000=
201112252126 SPECI KATL 252126Z 00000KT 9SM SCT004 SCT025 OVC031 09/08 A3028 RMK AO2 RAE07 PRESFR P0000=
201112252115 SPECI KATL 252115Z 30006KT 9SM BKN004 BKN012 OVC025 09/08 A3030 RMK AO2 RAE07 P0000=
201112252115 SPECI KATL 252115Z 30006KT 9SM BKN004 BKN012 OVC025 09/08 A3030 RMK AO2 RAE07 P0000=
201112252052 METAR KATL 252052Z 34012KT 2SM -RA BR BKN004 OVC012 09/08 A3029 RMK AO2 SFC VIS 5 SLP262 P0006 60020 T00940078 55001=
201112252047 SPECI KATL 252047Z 34008KT 2SM -RA BR BKN004 OVC012 09/08 A3028 RMK AO2 SFC VIS 5 P0006=
201112252047 SPECI KATL 252047Z 34008KT 2SM -RA BR BKN004 OVC012 09/08 A3028 RMK AO2 SFC VIS 5 P0006=
201112252028 SPECI KATL 252028Z 32009KT 1 1/4SM -RA BR BKN004 BKN080 OVC090 09/08 A3028 RMK AO2 SFC VIS 5 SCT004 V BKN P0005=
201112252028 SPECI KATL 252028Z 32009KT 1 1/4SM -RA BR BKN004 BKN080 OVC090 09/08 A3028 RMK AO2 SFC VIS 5 SCT004 V BKN P0005=
201112252012 SPECI KATL 252012Z 34008KT 1SM -RA BR SCT004 BKN045 OVC090 10/08 A3029 RMK AO2 SFC VIS 5 SCT004 V BKN P0003=
201112252012 SPECI KATL 252012Z 34008KT 1SM -RA BR SCT004 BKN045 OVC090 10/08 A3029 RMK AO2 SFC VIS 5 SCT004 V BKN P0003=
201112251952 METAR KATL 251952Z 31006KT 1SM RA BR BKN004 BKN046 OVC090 09/08 A3029 RMK AO2 SFC VIS 2 1/2 SLP259 P0009 T00940083=
201112251852 METAR KATL 251852Z 27003KT 1SM -RA BR BKN004 BKN010 OVC070 09/08 A3030 RMK AO2 SFC VIS 2 1/2 SLP263 P0005 T00940083=
201112251805 SPECI KATL 251805Z 00000KT 1SM -RA BR BKN002 OVC075 09/08 A3031 RMK AO2 SFC VIS 2 P0001=
201112251805 SPECI KATL 251805Z 00000KT 1SM -RA BR BKN002 OVC075 09/08 A3031 RMK AO2 SFC VIS 2 P0001=
201112251752 METAR KATL 251752Z 16004KT 1SM -RA BR SCT002 BKN080 OVC095 09/08 A3031 RMK AO2 SFC VIS 2 1/2 SLP268 P0008 60031 T00890078 10089 20078 56026=
201112251747 SPECI KATL 251747Z 00000KT 1SM -RA BR SCT002 BKN075 OVC095 09/08 A3032 RMK AO2 SFC VIS 2 1/2 P0007=
201112251747 SPECI KATL 251747Z 00000KT 1SM -RA BR SCT002 BKN075 OVC095 09/08 A3032 RMK AO2 SFC VIS 2 1/2 P0007=
201112251713 SPECI KATL 251713Z 00000KT 1SM -RA BR FEW060 OVC075 09/08 A3035 RMK AO2 SFC VIS 3 P0003=
201112251713 SPECI KATL 251713Z 00000KT 1SM -RA BR FEW060 OVC075 09/08 A3035 RMK AO2 SFC VIS 3 P0003=
201112251659 SPECI KATL 251659Z 00000KT 2SM RA BR BKN060 OVC080 08/07 A3035 RMK AO2 SFC VIS 2 1/2 P0001=
201112251659 SPECI KATL 251659Z 00000KT 2SM RA BR BKN060 OVC080 08/07 A3035 RMK AO2 SFC VIS 2 1/2 P0001=
201112251652 METAR KATL 251652Z 00000KT 3SM -RA BR SCT060 OVC080 08/07 A3036 RMK AO2 SLP284 P0008 T00830072=
201112251552 METAR KATL 251552Z 11003KT 4SM -RA BR BKN070 OVC085 08/07 A3039 RMK AO2 SLP295 P0006 T00780067=
201112251452 METAR KATL 251452Z 00000KT 6SM -RA BR SCT075 OVC090 08/06 A3039 RMK AO2 SLP294 P0006 60009 T00780056 51018=
201112251352 METAR KATL 251352Z VRB03KT 5SM -RA BR SCT075 BKN085 OVC100 08/06 A3037 RMK AO2 SLP288 P0003 T00780056=
201112251252 METAR KATL 251252Z 07004KT 10SM -RA FEW080 BKN095 OVC120 08/05 A3035 RMK AO2 RAB24 SLP281 P0000 T00780050=
201112251152 METAR KATL 251152Z 07006KT 10SM BKN100 OVC120 08/04 A3034 RMK AO2 RAB05E31 SLP275 P0000 60000 T00780044 10083 20072 55002=
201112251052 METAR KATL 251052Z 07005KT 10SM BKN090 OVC120 08/04 A3033 RMK AO2 SLP272 T00780044=
201112250952 METAR KATL 250952Z 10003KT 10SM BKN150 08/04 A3033 RMK AO2 SLP274 T00780044=
201112250852 METAR KATL 250852Z 09006KT 10SM SCT150 BKN250 08/04 A3034 RMK AO2 SLP275 T00830044 58010=
201112250752 METAR KATL 250752Z 07005KT 10SM BKN250 08/04 A3036 RMK AO2 SLP282 T00780044=
201112250652 METAR KATL 250652Z 07005KT 10SM BKN250 08/04 A3036 RMK AO2 SLP281 T00780044=
201112250552 METAR KATL 250552Z 08006KT 10SM BKN250 08/04 A3037 RMK AO2 SLP287 T00780044 10122 20072 58004=
201112250452 METAR KATL 250452Z 08005KT 10SM BKN250 08/04 A3038 RMK AO2 SLP290 T00780044 401440039=
201112250352 METAR KATL 250352Z 07005KT 10SM BKN250 09/05 A3039 RMK AO2 SLP294 T00890050=
201112250252 METAR KATL 250252Z 06007KT 10SM BKN250 10/05 A3038 RMK AO2 SLP292 T01000050 51011=
201112250152 METAR KATL 250152Z 07007KT 10SM BKN250 11/05 A3037 RMK AO2 SLP289 T01060050=
201112250052 METAR KATL 250052Z 07008KT 10SM SCT250 11/05 A3036 RMK AO2 SLP285 T01060050=
201112242352 METAR KATL 242352Z 07007KT 10SM SCT250 12/04 A3035 RMK AO2 SLP280 T01220044 10144 20117 51010=
201112242252 METAR KATL 242252Z 07007KT 10SM SCT250 12/04 A3034 RMK AO2 SLP278 T01220044=
201112242152 METAR KATL 242152Z 05006KT 10SM FEW120 BKN250 14/04 A3034 RMK AO2 SLP276 T01390044=
201112242052 METAR KATL 242052Z 02005KT 10SM FEW120 BKN250 14/04 A3032 RMK AO2 SLP269 T01440044 56014=
201112241952 METAR KATL 241952Z 01005KT 10SM SCT120 BKN250 13/04 A3032 RMK AO2 SLP270 T01330044=
201112241852 METAR KATL 241852Z 00000KT 10SM FEW150 BKN250 13/04 A3033 RMK AO2 SLP273 T01330044=
201112241752 METAR KATL 241752Z 12004KT 10SM FEW150 BKN250 12/04 A3036 RMK AO2 SLP283 T01220039 10122 20039 58016=
201112241652 METAR KATL 241652Z VRB03KT 10SM SCT150 BKN250 10/04 A3040 RMK AO2 SLP297 T01000039=
201112241552 METAR KATL 241552Z 03005KT 10SM SCT150 BKN250 08/03 A3041 RMK AO2 SLP302 T00780033=
201112241452 METAR KATL 241452Z 34006KT 9SM BKN150 BKN250 06/03 A3041 RMK AO2 SLP303 T00560028 53025=
201112241352 METAR KATL 241352Z 33006KT 6SM BR BKN150 BKN250 04/02 A3038 RMK AO2 SLP293 T00440022=
201112241252 METAR KATL 241252Z 33006KT 6SM BR SCT150 BKN250 04/02 A3035 RMK AO2 SLP283 T00390017=
201112241152 METAR KATL 241152Z 33010KT 10SM SCT180 BKN250 04/02 A3033 RMK AO2 SLP277 T00390017 10061 20039 53015=
201112241052 METAR KATL 241052Z 34008KT 10SM SCT180 BKN250 04/02 A3032 RMK AO2 SLP271 T00440017=
201112240952 METAR KATL 240952Z 34008KT 10SM SCT180 04/02 A3029 RMK AO2 SLP262 T00440022=
201112240852 METAR KATL 240852Z 34008KT 10SM CLR 05/02 A3029 RMK AO2 SLP258 T00500022 56001=
201112240752 METAR KATL 240752Z 33009KT 10SM CLR 06/03 A3029 RMK AO2 SLP259 T00560028=
201112240652 METAR KATL 240652Z 32013KT 10SM FEW250 06/03 A3029 RMK AO2 SLP258 T00560028=
201112240552 METAR KATL 240552Z 32009KT 10SM FEW200 BKN250 06/03 A3029 RMK AO2 SLP259 T00610028 10094 20056 50001=
201112240452 METAR KATL 240452Z 30007KT 10SM BKN250 06/03 A3030 RMK AO2 SLP261 T00610028 401390056=
201112240352 METAR KATL 240352Z 27003KT 10SM BKN250 06/03 A3030 RMK AO2 SLP264 T00610028=
201112240252 METAR KATL 240252Z 27005KT 10SM BKN250 06/03 A3029 RMK AO2 SLP259 T00610033 51016=
201112240152 METAR KATL 240152Z 30006KT 10SM FEW200 BKN250 08/03 A3028 RMK AO2 SLP255 T00780033=
201112240052 METAR KATL 240052Z 33012KT 10SM FEW250 08/04 A3026 RMK AO2 SLP249 T00830039=
201112232352 METAR KATL 232352Z 34009KT 10SM SCT250 09/04 A3024 RMK AO2 SLP241 T00940039 10139 20094 53018=
201112232252 METAR KATL 232252Z 33006KT 10SM SCT250 10/04 A3021 RMK AO2 SLP231 T01000044=
201112232152 METAR KATL 232152Z 34011KT 10SM FEW030 SCT250 12/04 A3019 RMK AO2 SLP224 T01220044=
201112232052 METAR KATL 232052Z 33013KT 10SM SCT250 13/05 A3018 RMK AO2 SLP222 T01330050 55005=
201112231952 METAR KATL 231952Z 32012KT 10SM FEW030 SCT250 14/05 A3017 RMK AO2 SLP217 T01390050=
201112231852 METAR KATL 231852Z 33012G18KT 10SM FEW025 SCT250 13/06 A3018 RMK AO2 SLP219 T01330056=
201112231752 METAR KATL 231752Z COR 33014G17KT 10SM FEW023 SCT250 13/06 A3020 RMK AO2 SLP226 T01280056 10128 20089 58007=
201112231652 METAR KATL 231652Z 31011KT 10SM SCT021 12/06 A3023 RMK AO2 SLP236 T01220061=
201112231608 SPECI KATL 231608Z 34009G17KT 10SM FEW021 12/06 A3024 RMK AO2=
201112231608 SPECI KATL 231608Z 34009G17KT 10SM FEW021 12/06 A3024 RMK AO2=
201112231552 METAR KATL 231552Z 33010G17KT 10SM BKN021 12/06 A3024 RMK AO2 SLP240 T01170056=
201112231452 METAR KATL 231452Z 33012KT 10SM BKN019 10/05 A3022 RMK AO2 SLP232 T01000050 51020=
201112231352 METAR KATL 231352Z 33014G20KT 10SM OVC015 09/05 A3021 RMK AO2 SLP230 T00890050=
201112231252 METAR KATL 231252Z 34017G26KT 10SM OVC015 09/05 A3019 RMK AO2 PK WND 32026/1245 SLP221 T00890050=
201112231248 SPECI KATL 231248Z 34019G26KT 10SM OVC015 09/06 A3018 RMK AO2 PK WND 32026/1245=
201112231248 SPECI KATL 231248Z 34019G26KT 10SM OVC015 09/06 A3018 RMK AO2 PK WND 32026/1245=
201112231152 METAR KATL 231152Z 33014G20KT 10SM OVC014 09/06 A3016 RMK AO2 SLP211 70101 T00940056 10117 20094 53022=
201112231052 METAR KATL 231052Z 33015G21KT 10SM OVC010 09/06 A3012 RMK AO2 SLP200 T00940061=
201112231046 SPECI KATL 231046Z 33014G21KT 10SM OVC010 09/07 A3012 RMK AO2=
201112231046 SPECI KATL 231046Z 33014G21KT 10SM OVC010 09/07 A3012 RMK AO2=
201112230952 METAR KATL 230952Z 31012KT 10SM OVC009 09/07 A3010 RMK AO2 SLP190 T00940067=
201112230852 METAR KATL 230852Z 31012KT 10SM OVC009 10/07 A3009 RMK AO2 SLP187 T01000072 51010=
201112230752 METAR KATL 230752Z 30007KT 10SM OVC009 11/08 A3009 RMK AO2 SLP186 T01060078=
201112230652 METAR KATL 230652Z 31010KT 10SM OVC011 11/08 A3007 RMK AO2 SLP180 T01060083=
201112230609 SPECI KATL 230609Z 32014G17KT 10SM OVC011 11/09 A3006 RMK AO2=
201112230609 SPECI KATL 230609Z 32014G17KT 10SM OVC011 11/09 A3006 RMK AO2=
201112230552 METAR KATL 230552Z 31011G15KT 10SM OVC009 12/09 A3006 RMK AO2 SLP176 60005 T01170094 10178 20117 51023=
201112230452 METAR KATL 230452Z 31013G17KT 8SM OVC008 12/10 A3005 RMK AO2 RAE11 SLP174 P0000 T01170100 402000117=
201112230436 SPECI KATL 230436Z 31012KT 8SM BKN009 BKN039 BKN049 12/11 A3005 RMK AO2 RAE11 P0000=
201112230436 SPECI KATL 230436Z 31012KT 8SM BKN009 BKN039 BKN049 12/11 A3005 RMK AO2 RAE11 P0000=
201112230401 SPECI KATL 230401Z 30013KT 7SM -RA SCT007 BKN020 OVC130 13/12 A3003 RMK AO2 P0000=
201112230401 SPECI KATL 230401Z 30013KT 7SM -RA SCT007 BKN020 OVC130 13/12 A3003 RMK AO2 P0000=
201112230352 METAR KATL 230352Z 30015G29KT 7SM -RA BKN007 BKN014 BKN020 OVC130 13/12 A3003 RMK AO2 PK WND 32030/0341 WSHFT 0337 RAB38 PRESRR SLP166 P0000 T01330117=
201112230343 SPECI KATL 230343Z 31020G30KT 7SM -RA SCT007 SCT011 BKN020 OVC250 14/13 A3002 RMK AO2 PK WND 32030/0341 RAB38 PRESRR P0000=
201112230343 SPECI KATL 230343Z 31020G30KT 7SM -RA SCT007 SCT011 BKN020 OVC250 14/13 A3002 RMK AO2 PK WND 32030/0341 RAB38 PRESRR P0000=
201112230306 SPECI KATL 230306Z 24008KT 10SM BKN007 OVC014 17/16 A3000 RMK AO2=
201112230306 SPECI KATL 230306Z 24008KT 10SM BKN007 OVC014 17/16 A3000 RMK AO2=
201112230252 METAR KATL 230252Z 23007KT 10SM FEW006 BKN014 BKN020 OVC130 17/16 A2999 RMK AO2 RAB0155E04 SLP151 P0000 60005 T01670156 53015=
201112230241 SPECI KATL 230241Z 22007KT 10SM FEW006 BKN014 BKN020 OVC130 17/16 A2998 RMK AO2 RAB0155E04 P0000=
201112230241 SPECI KATL 230241Z 22007KT 10SM FEW006 BKN014 BKN020 OVC130 17/16 A2998 RMK AO2 RAB0155E04 P0000=
201112230204 SPECI KATL 230204Z 21010KT 10SM SCT008 BKN022 17/16 A2996 RMK AO2 RAB0155E04 P0000=
201112230204 SPECI KATL 230204Z 21010KT 10SM SCT008 BKN022 17/16 A2996 RMK AO2 RAB0155E04 P0000=
201112230152 METAR KATL 230152Z 21012KT 10SM BKN008 BKN013 OVC022 17/16 A2996 RMK AO2 SLP141 T01670156=
201112230052 METAR KATL 230052Z 19011KT 10SM BKN008 OVC110 17/17 A2993 RMK AO2 TSE2358RAE48 SLP131 CIG 006V010 P0005 T01720167=
201112230038 SPECI KATL 230038Z 19010KT 10SM -RA BKN007 BKN090 OVC120 18/17 A2993 RMK AO2 TSE2358 P0005=
201112230038 SPECI KATL 230038Z 19010KT 10SM -RA BKN007 BKN090 OVC120 18/17 A2993 RMK AO2 TSE2358 P0005=
201112230024 SPECI KATL 230024Z 19010KT 10SM -RA SCT006 BKN090 OVC120 18/17 A2994 RMK AO2 TSE2358 P0005=
201112230024 SPECI KATL 230024Z 19010KT 10SM -RA SCT006 BKN090 OVC120 18/17 A2994 RMK AO2 TSE2358 P0005=
201112222359 SPECI KATL 222359Z 22008KT 7SM -RA FEW030 BKN085 OVC110 18/16 A2994 RMK AO2 TSE58 TS MOV NE P0001=
201112222359 SPECI KATL 222359Z 22008KT 7SM -RA FEW030 BKN085 OVC110 18/16 A2994 RMK AO2 TSE58 TS MOV NE P0001=
201112222352 METAR KATL 222352Z 23009KT 7SM -TSRA FEW025CB BKN070 OVC110 18/16 A2994 RMK AO2 WSHFT 2307 SLP136 OCNL LTGIC NE-SE TS NE-SE MOV NE P0061 60092 T01780161 10200 20178 53016=
201112222342 SPECI KATL 222342Z 26009G19KT 5SM TSRA BR FEW007 SCT025CB OVC060 18/17 A2994 RMK AO2 WSHFT 2307 OCNL LTGIC NE-SE TS NE-SE MOV NE P0059=
201112222342 SPECI KATL 222342Z 26009G19KT 5SM TSRA BR FEW007 SCT025CB OVC060 18/17 A2994 RMK AO2 WSHFT 2307 OCNL LTGIC NE-SE TS NE-SE MOV NE P0059=
201112222336 SPECI KATL 222336Z 26013KT 3SM +TSRA BR FEW007 BKN020CB OVC055 18/17 A2995 RMK AO2 WSHFT 2307 OCNL LTGIC NE-SE-SW TS NE-SE-SW MOV NE P0055=
201112222336 SPECI KATL 222336Z 26013KT 3SM +TSRA BR FEW007 BKN020CB OVC055 18/17 A2995 RMK AO2 WSHFT 2307 OCNL LTGIC NE-SE-SW TS NE-SE-SW MOV NE P0055=
201112222323 SPECI KATL 222323Z 31017G21KT 1 1/2SM +TSRA BR SCT007 BKN014CB OVC035 18/17 A2994 RMK AO2 WSHFT 2307 OCNL LTGIC NE-OHD-SW TS NE-OHD-SW MOV NE P0014=
201112222323 SPECI KATL 222323Z 31017G21KT 1 1/2SM +TSRA BR SCT007 BKN014CB OVC035 18/17 A2994 RMK AO2 WSHFT 2307 OCNL LTGIC NE-OHD-SW TS NE-OHD-SW MOV NE P0014=
201112222252 METAR KATL 222252Z 18015G21KT 3SM +TSRA BR SCT007 BKN013 OVC025CB 18/17 A2990 RMK AO2 TSB08 SLP121 OCNL LTGIC SW-NW TS SW-NW MOV NE P0021 T01830172=
201112222240 SPECI KATL 222240Z 18013KT 4SM TSRA BR SCT014 BKN025CB OVC065 18/17 A2990 RMK AO2 TSB08 OCNL LTGIC SW TS SW MOV NE P0016=
201112222240 SPECI KATL 222240Z 18013KT 4SM TSRA BR SCT014 BKN025CB OVC065 18/17 A2990 RMK AO2 TSB08 OCNL LTGIC SW TS SW MOV NE P0016=
201112222228 SPECI KATL 222228Z 18013KT 5SM -TSRA BR FEW009 SCT030CB OVC080 18/17 A2990 RMK AO2 TSB08 OCNL LTGIC N-NE TS N-NE MOV NE P0011=
201112222228 SPECI KATL 222228Z 18013KT 5SM -TSRA BR FEW009 SCT030CB OVC080 18/17 A2990 RMK AO2 TSB08 OCNL LTGIC N-NE TS N-NE MOV NE P0011=
201112222208 SPECI KATL 222208Z 18013G19KT 5SM TSRA BR FEW009 BKN025CB OVC045 19/18 A2990 RMK AO2 TSB08 OCNL LTGIC W TS W MOV NE P0004=
201112222208 SPECI KATL 222208Z 18013G19KT 5SM TSRA BR FEW009 BKN025CB OVC045 19/18 A2990 RMK AO2 TSB08 OCNL LTGIC W TS W MOV NE P0004=
201112222152 METAR KATL 222152Z 17011G19KT 8SM -RA BKN016 OVC034 19/18 A2989 RMK AO2 RAE10B28 SLP116 P0003 T01890178=
201112222114 SPECI KATL 222114Z 18010KT 10SM OVC015 20/18 A2989 RMK AO2 RAE10 P0001=
201112222114 SPECI KATL 222114Z 18010KT 10SM OVC015 20/18 A2989 RMK AO2 RAE10 P0001=
201112222052 METAR KATL 222052Z 18012G17KT 5SM -RA BR BKN014 20/18 A2990 RMK AO2 RAB41 SLP118 P0001 60007 T02000178 56029=
201112221952 METAR KATL 221952Z 18009KT 10SM FEW009 BKN019 OVC036 20/18 A2990 RMK AO2 RAB1854E39 SLP120 P0005 T02000178=
201112221930 SPECI KATL 221930Z 16008KT 3SM -RA SCT012 BKN018 OVC036 19/18 A2991 RMK AO2 SFC VIS 8 RAB1854 P0005=
201112221930 SPECI KATL 221930Z 16008KT 3SM -RA SCT012 BKN018 OVC036 19/18 A2991 RMK AO2 SFC VIS 8 RAB1854 P0005=
201112221904 SPECI KATL 221904Z AUTO 18011KT 5SM -RA BR BKN012 OVC021 19/18 A2993 RMK AO2 RAB1854 P0001 TSNO=
201112221904 SPECI KATL 221904Z AUTO 18011KT 5SM -RA BR BKN012 OVC021 19/18 A2993 RMK AO2 RAB1854 P0001 TSNO=
201112221856 SPECI KATL 221856Z AUTO 17009KT 7SM -RA SCT009 OVC015 19/18 A2993 RMK AO2 RAB54 P0000 TSNO=
201112221856 SPECI KATL 221856Z AUTO 17009KT 7SM -RA SCT009 OVC015 19/18 A2993 RMK AO2 RAB54 P0000 TSNO=
201112221852 METAR KATL 221852Z AUTO 18010KT 10SM BKN013 OVC017 19/18 A2993 RMK AO2 RAE29 SLP131 P0001 T01940178 TSNO=
201112221842 SPECI KATL 221842Z AUTO 18011KT 10SM SCT007 OVC013 19/18 A2994 RMK AO2 RAE29 P0001 TSNO=
201112221842 SPECI KATL 221842Z AUTO 18011KT 10SM SCT007 OVC013 19/18 A2994 RMK AO2 RAE29 P0001 TSNO=
201112221823 SPECI KATL 221823Z 16008KT 5SM R09R/5000VP6000FT -RA BR OVC005 19/18 A2995 RMK AO2 P0001=
201112221823 SPECI KATL 221823Z 16008KT 5SM R09R/5000VP6000FT -RA BR OVC005 19/18 A2995 RMK AO2 P0001=
201112221752 METAR KATL 221752Z 17009KT 2SM -RA BR OVC004 19/18 A2998 RMK AO2 SFC VIS 3 RAB37 SLP148 P0000 60004 T01890178 10189 20172 58024=
201112221707 SPECI KATL 221707Z 18007KT 7SM OVC006 19/17 A3002 RMK AO2=
201112221707 SPECI KATL 221707Z 18007KT 7SM OVC006 19/17 A3002 RMK AO2=
201112221652 METAR KATL 221652Z 17005KT 2SM BR OVC006 19/17 A3003 RMK AO2 SFC VIS 6 RAE22 SLP165 TWRINC P0001 T01890172=
201112221638 SPECI KATL 221638Z 17006KT 2SM BR OVC004 18/17 A3004 RMK AO2 SFC VIS 6 RAE22 TWRINC P0001=
201112221638 SPECI KATL 221638Z 17006KT 2SM BR OVC004 18/17 A3004 RMK AO2 SFC VIS 6 RAE22 TWRINC P0001=
201112221552 METAR KATL 221552Z 15006KT 1/2SM -RA BR OVC004 18/17 A3006 RMK AO2 SFC VIS 3 RAB06 SLP175 VSBY LOWER S P0002 T01780167=
201112221522 SPECI KATL 221522Z 14003KT 1/2SM R09R/5500VP6000FT -RA BR OVC004 18/17 A3006 RMK AO2 SFC VIS 3 RAB06 VSBY LOWER S P0000=
201112221522 SPECI KATL 221522Z 14003KT 1/2SM R09R/5500VP6000FT -RA BR OVC004 18/17 A3006 RMK AO2 SFC VIS 3 RAB06 VSBY LOWER S P0000=
201112221452 METAR KATL 221452Z 14004KT 2 1/2SM BR OVC004 18/17 A3006 RMK AO2 SFC VIS 5 RAE00 SLP174 P0000 60001 T01780167 53005=
201112221440 SPECI KATL 221440Z 14004KT 2 1/2SM BR OVC004 17/17 A3005 RMK AO2 SFC VIS 5 RAE00 P0000=
201112221440 SPECI KATL 221440Z 14004KT 2 1/2SM BR OVC004 17/17 A3005 RMK AO2 SFC VIS 5 RAE00 P0000=
201112221431 SPECI KATL 221431Z 12003KT 1 1/2SM BR OVC004 18/17 A3005 RMK AO2 SFC VIS 4 RAE00 P0000=
201112221431 SPECI KATL 221431Z 12003KT 1 1/2SM BR OVC004 18/17 A3005 RMK AO2 SFC VIS 4 RAE00 P0000=
201112221421 SPECI KATL 221421Z 11004KT 1/2SM BR OVC004 18/17 A3004 RMK AO2 SFC VIS 3 RAE00 P0000=
201112221421 SPECI KATL 221421Z 11004KT 1/2SM BR OVC004 18/17 A3004 RMK AO2 SFC VIS 3 RAE00 P0000=
201112221352 METAR KATL 221352Z 13003KT 1/4SM R09R/P6000FT -RA BR VV002 17/16 A3004 RMK AO2 SFC VIS 3/4 RAB14 SLP169 P0001 T01720161=
201112221252 METAR KATL 221252Z 14003KT 1/4SM BR OVC004 17/16 A3004 RMK AO2 SFC VIS 2 SLP167 T01720161=
201112221152 METAR KATL 221152Z 15003KT 1/4SM R09R/3000VP6000FT FG VV002 17/16 A3004 RMK AO2 SLP168 60000 70044 T01720161 10172 20172 52003=
201112221052 METAR KATL 221052Z 16003KT 1/4SM R09R/P6000FT BR OVC003 17/16 A3004 RMK AO2 SFC VIS 1 SLP167 T01720161=
201112220952 METAR KATL 220952Z 18005KT 1/4SM R09R/5000VP6000FT FG VV002 17/16 A3004 RMK AO2 SFC VIS 1/2 RAE05 SLP167 P0000 T01720161=
201112220934 SPECI KATL 220934Z 18005KT 1/4SM R09R/6000VP6000FT BR VV002 17/16 A3003 RMK AO2 SFC VIS 3/4 RAE05 P0000=
201112220934 SPECI KATL 220934Z 18005KT 1/4SM R09R/6000VP6000FT BR VV002 17/16 A3003 RMK AO2 SFC VIS 3/4 RAE05 P0000=
201112220852 METAR KATL 220852Z 19004KT 1SM -RA BKN003 OVC030 17/16 A3003 RMK AO2 SFC VIS 10 RAB48 SLP166 CIG 002V005 P0000 60000 T01720161 53002=
201112220752 METAR KATL 220752Z 17005KT 1/8SM BR OVC003 17/16 A3003 RMK AO2 SFC VIS 2 SLP164 T01720161=
201112220652 METAR KATL 220652Z 19007KT 1/8SM BR BKN003 OVC030 17/17 A3003 RMK AO2 SFC VIS 2 SLP163 T01720167=
201112220552 METAR KATL 220552Z 19006KT 1/8SM R09R/2200V2400FT FG VV002 17/16 A3003 RMK AO2 SFC VIS 1/4 SLP162 T01720161 10178 20172 58004=
201112220452 METAR KATL 220452Z 18004KT 1/2SM R09R/2600V3000FT FG VV002 17/16 A3003 RMK AO2 SLP164 T01720161 401890139=
201112220352 METAR KATL 220352Z 21003KT 1/2SM BR OVC003 17/16 A3004 RMK AO2 SFC VIS 3 SLP167 T01720161=
201112220252 METAR KATL 220252Z 22004KT 1/2SM BR OVC002 17/17 A3004 RMK AO2 SFC VIS 3 SLP167 T01720167 53011=
201112220152 METAR KATL 220152Z 20004KT 1/2SM R09R/4000VP6000FT BR OVC002 17/17 A3002 RMK AO2 SFC VIS 1 SLP160 T01720167=
201112220052 METAR KATL 220052Z 18007KT 1/2SM OVC003 17/17 A3001 RMK AO2 SFC VIS 8 SLP157 CIG 002V005 T01720167=
201112220042 SPECI KATL 220042Z 18008KT 1/2SM OVC003 18/17 A3001 RMK AO2 SFC VIS 7 CIG 002V005=
201112220042 SPECI KATL 220042Z 18008KT 1/2SM OVC003 18/17 A3001 RMK AO2 SFC VIS 7 CIG 002V005=
201112212352 METAR KATL 212352Z 19008KT 1SM OVC003 18/17 A3000 RMK AO2 SFC VIS 10 SLP156 CIG 002V005 60044 T01780167 10189 20167 53011=
201112212308 SPECI KATL 212308Z 17007KT 1SM OVC004 18/17 A2999 RMK AO2 SFC VIS 10 CIG 003V006=
201112212308 SPECI KATL 212308Z 17007KT 1SM OVC004 18/17 A2999 RMK AO2 SFC VIS 10 CIG 003V006=
201112212252 METAR KATL 212252Z 17006KT 1SM OVC006 18/17 A2999 RMK AO2 SFC VIS 10 RAE2157 SLP151 CIG 003V009 P0000 T01780167=
201112212242 SPECI KATL 212242Z 17005KT 1SM FEW003 BKN009 OVC035 18/17 A2998 RMK AO2 SFC VIS 10 RAE2157 P0000=
201112212242 SPECI KATL 212242Z 17005KT 1SM FEW003 BKN009 OVC035 18/17 A2998 RMK AO2 SFC VIS 10 RAE2157 P0000=
201112212233 SPECI KATL 212233Z 17006KT 1/2SM SCT003 BKN009 BKN035 OVC150 18/17 A2998 RMK AO2 SFC VIS 9 RAE2157 P0000=
201112212233 SPECI KATL 212233Z 17006KT 1/2SM SCT003 BKN009 BKN035 OVC150 18/17 A2998 RMK AO2 SFC VIS 9 RAE2157 P0000=
201112212230 SPECI KATL 212230Z 17007KT 3SM FEW003 BKN009 BKN035 OVC150 18/17 A2998 RMK AO2 SFC VIS 9 RAE2157 P0000=
201112212230 SPECI KATL 212230Z 17007KT 3SM FEW003 BKN009 BKN035 OVC150 18/17 A2998 RMK AO2 SFC VIS 9 RAE2157 P0000=
201112212226 SPECI KATL 212226Z 17007KT 10SM SCT009 BKN015 BKN035 OVC150 18/17 A2998 RMK AO2 RAE2157 P0000=
201112212226 SPECI KATL 212226Z 17007KT 10SM SCT009 BKN015 BKN035 OVC150 18/17 A2998 RMK AO2 RAE2157 P0000=
201112212206 SPECI KATL 212206Z 17005KT 10SM FEW007 SCT015 BKN070 BKN150 18/17 A2998 RMK AO2 RAE2157 P0000=
201112212206 SPECI KATL 212206Z 17005KT 10SM FEW007 SCT015 BKN070 BKN150 18/17 A2998 RMK AO2 RAE2157 P0000=
201112212152 METAR KATL 212152Z 17005KT 7SM -RA FEW007 BKN015 BKN045 OVC150 18/17 A2998 RMK AO2 RAB2059 SLP147 P0008 T01780167=
201112212140 SPECI KATL 212140Z 17005KT 2 1/2SM R09R/6000VP6000FT RA BR FEW007 BKN013 OVC020 18/17 A2997 RMK AO2 RAB2059 P0004=
201112212140 SPECI KATL 212140Z 17005KT 2 1/2SM R09R/6000VP6000FT RA BR FEW007 BKN013 OVC020 18/17 A2997 RMK AO2 RAB2059 P0004=
201112212136 SPECI KATL 212136Z 18004KT 8SM R09R/6000VP6000FT -RA FEW007 BKN013 OVC020 18/17 A2997 RMK AO2 RAB2059 P0000=
201112212136 SPECI KATL 212136Z 18004KT 8SM R09R/6000VP6000FT -RA FEW007 BKN013 OVC020 18/17 A2997 RMK AO2 RAB2059 P0000=
201112212100 SPECI KATL 212100Z 17006KT 10SM -RA BKN024 BKN045 OVC070 18/17 A2997 RMK AO2 RAB2059 P0000=
201112212100 SPECI KATL 212100Z 17006KT 10SM -RA BKN024 BKN045 OVC070 18/17 A2997 RMK AO2 RAB2059 P0000=
201112212052 METAR KATL 212052Z 18008KT 10SM FEW014CB BKN055 BKN090 18/16 A2997 RMK AO2 TSE14RAE25 SLP145 CB NW MOV NE SHRA NW P0020 60036 T01780161 55002=
201112212027 SPECI KATL 212027Z 14007KT 10SM FEW010CB BKN030 BKN090 BKN200 17/16 A2997 RMK AO2 TSE14RAE25 CB NE MOV NE TS MOV NE P0020=
201112212027 SPECI KATL 212027Z 14007KT 10SM FEW010CB BKN030 BKN090 BKN200 17/16 A2997 RMK AO2 TSE14RAE25 CB NE MOV NE TS MOV NE P0020=
201112212015 SPECI KATL 212015Z 19004KT 2SM R09R/4500VP6000FT +RA BR BKN007CB BKN020 OVC030 17/16 A2997 RMK AO2 TSE14 CB OHD-NE MOV NE TS MOV NE P0019=
201112212015 SPECI KATL 212015Z 19004KT 2SM R09R/4500VP6000FT +RA BR BKN007CB BKN020 OVC030 17/16 A2997 RMK AO2 TSE14 CB OHD-NE MOV NE TS MOV NE P0019=
201112212004 SPECI KATL 212004Z 07008KT 1SM R09R/5000VP6000FT +TSRA BR BKN007CB BKN020 OVC030 17/15 A2995 RMK AO2 TWR VIS 2 OCNL LTGIC OHD TS OHD MOV NE P0001=
201112212004 SPECI KATL 212004Z 07008KT 1SM R09R/5000VP6000FT +TSRA BR BKN007CB BKN020 OVC030 17/15 A2995 RMK AO2 TWR VIS 2 OCNL LTGIC OHD TS OHD MOV NE P0001=
201112211957 SPECI KATL 211957Z 35007KT 2SM -TSRA BR BKN007CB BKN020 OVC030 17/16 A2996 RMK AO2 SFC VIS 5 VIS LWR SW-W SHRA OCNL LTGIC SW-W TS SW-W MOV NE P0000=
201112211957 SPECI KATL 211957Z 35007KT 2SM -TSRA BR BKN007CB BKN020 OVC030 17/16 A2996 RMK AO2 SFC VIS 5 VIS LWR SW-W SHRA OCNL LTGIC SW-W TS SW-W MOV NE P0000=
201112211952 METAR KATL 211952Z 00000KT 3SM -TSRA BR BKN007CB BKN013 OVC020 18/16 A2995 RMK AO2 SFC VIS 4 TSE07B32 SLP140 OCNL LTGIC SW-W TS SW-W MOV NE P0016 T01780161=
201112211933 SPECI KATL 211933Z 00000KT 2SM +TSRA BR BKN007CB BKN013 OVC020 18/16 A2996 RMK AO2 TWR VIS 3 TSE07B32 OCNL LTGIC SW-W TS SW-W MOV NE P0006=
201112211933 SPECI KATL 211933Z 00000KT 2SM +TSRA BR BKN007CB BKN013 OVC020 18/16 A2996 RMK AO2 TWR VIS 3 TSE07B32 OCNL LTGIC SW-W TS SW-W MOV NE P0006=
201112211932 SPECI KATL 211932Z VRB03KT 3SM -TSRA BR BKN007CB BKN013 OVC020 18/17 A2996 RMK AO2 TSE07B32 OCNL LTGIC SW-W TS SW-W MOV NE P0005=
201112211932 SPECI KATL 211932Z VRB03KT 3SM -TSRA BR BKN007CB BKN013 OVC020 18/17 A2996 RMK AO2 TSE07B32 OCNL LTGIC SW-W TS SW-W MOV NE P0005=
201112211907 SPECI KATL 211907Z 21008KT 2 1/2SM -RA BR BKN007 BKN013 OVC020 18/17 A2996 RMK AO2 SFC VIS 3 TSE07 TS MOV NE P0000=
201112211907 SPECI KATL 211907Z 21008KT 2 1/2SM -RA BR BKN007 BKN013 OVC020 18/17 A2996 RMK AO2 SFC VIS 3 TSE07 TS MOV NE P0000=
201112211852 METAR KATL 211852Z 19008KT 4SM -TSRA BR BKN012CB BKN015 OVC020 18/17 A2996 RMK AO2 TSB19DZE09RAB38 SLP144 OCNL LTGIC NE & SW-W MOV NE TS NE & SW-W MOV NE P0000 T01830167=
201112211838 SPECI KATL 211838Z 20009G18KT 8SM -TSRA BKN012CB BKN015 OVC020 19/17 A2997 RMK AO2 TSB19DZE09RAB38 OCNL LTGIC N-NE TS N-NE MOV NE P0000=
201112211838 SPECI KATL 211838Z 20009G18KT 8SM -TSRA BKN012CB BKN015 OVC020 19/17 A2997 RMK AO2 TSB19DZE09RAB38 OCNL LTGIC N-NE TS N-NE MOV NE P0000=
201112211819 SPECI KATL 211819Z 19009KT 8SM TS BKN012CB BKN015 OVC020 19/17 A2997 RMK AO2 TSB19DZE09 OCNL LTGIC NW-N TS NW-N MOV NE SHRA SW-W-NW-N P0000=
201112211819 SPECI KATL 211819Z 19009KT 8SM TS BKN012CB BKN015 OVC020 19/17 A2997 RMK AO2 TSB19DZE09 OCNL LTGIC NW-N TS NW-N MOV NE SHRA SW-W-NW-N P0000=
201112211809 SPECI KATL 211809Z 20008G15KT 8SM BKN010 BKN015 OVC020 19/17 A2997 RMK AO2 DZE09 CB DSNT SW-NW SHRA DSNT SW-NW P0000=
201112211809 SPECI KATL 211809Z 20008G15KT 8SM BKN010 BKN015 OVC020 19/17 A2997 RMK AO2 DZE09 CB DSNT SW-NW SHRA DSNT SW-NW P0000=
201112211752 METAR KATL 211752Z 20011G17KT 7SM -DZ OVC010 19/17 A2998 RMK AO2 DZE14B48RAB47E48 SLP147 P0000 60000 T01890167 10189 20156 58014=
201112211716 SPECI KATL 211716Z 20011KT 10SM FEW008 BKN012 OVC020 19/17 A2999 RMK AO2 DZE14 P0000=
201112211716 SPECI KATL 211716Z 20011KT 10SM FEW008 BKN012 OVC020 19/17 A2999 RMK AO2 DZE14 P0000=
201112211652 METAR KATL 211652Z 19010G19KT 6SM -DZ BR BKN006 OVC008 18/17 A3001 RMK AO2 SLP158 P0000 T01780167=
201112211634 SPECI KATL 211634Z 19013G20KT 2 1/2SM -DZ BR OVC006 18/17 A3001 RMK AO2 SFC VIS 4 P0000=
201112211634 SPECI KATL 211634Z 19013G20KT 2 1/2SM -DZ BR OVC006 18/17 A3001 RMK AO2 SFC VIS 4 P0000=
201112211612 SPECI KATL 211612Z 19009KT 1 1/2SM -DZ BR OVC006 18/17 A3003 RMK AO2 SFC VIS 3 P0000=
201112211612 SPECI KATL 211612Z 19009KT 1 1/2SM -DZ BR OVC006 18/17 A3003 RMK AO2 SFC VIS 3 P0000=
201112211552 METAR KATL 211552Z 20011G18KT 3SM -DZ BR OVC006 18/16 A3003 RMK AO2 RAE13DZB34 SLP167 P0000 T01780161=
201112211534 SPECI KATL 211534Z 21011G19KT 3SM -DZ BR OVC006 18/16 A3003 RMK AO2 SFC VIS 4 RAE13DZB34 P0000=
201112211534 SPECI KATL 211534Z 21011G19KT 3SM -DZ BR OVC006 18/16 A3003 RMK AO2 SFC VIS 4 RAE13DZB34 P0000=
201112211452 METAR KATL 211452Z 19013G19KT 7SM -RA OVC006 17/16 A3002 RMK AO2 RAB08E21B49 SLP162 P0000 60000 T01720161 51009=
201112211409 SPECI KATL 211409Z 18011KT 2 1/2SM -RA BR OVC006 17/16 A3001 RMK AO2 SFC VIS 3 RAB08 P0000=
201112211409 SPECI KATL 211409Z 18011KT 2 1/2SM -RA BR OVC006 17/16 A3001 RMK AO2 SFC VIS 3 RAB08 P0000=
201112211352 METAR KATL 211352Z 17009KT 6SM BR BKN006 OVC010 17/16 A3001 RMK AO2 SLP159 T01670156=
201112211252 METAR KATL 211252Z 20012G19KT 6SM BR BKN005 BKN008 OVC012 17/15 A3001 RMK AO2 SLP160 T01670150=
201112211210 SPECI KATL 211210Z 19010KT 3SM OVC005 16/15 A2999 RMK AO2 SFC VIS 7=
201112211210 SPECI KATL 211210Z 19010KT 3SM OVC005 16/15 A2999 RMK AO2 SFC VIS 7=
201112211152 METAR KATL 211152Z 18010KT 1/4SM BR OVC003 16/14 A2999 RMK AO2 SFC VIS 4 SLP153 60009 70038 T01560144 10156 20139 56014=
201112211114 SPECI KATL 211114Z 17007KT 1/4SM BR OVC003 15/14 A2999 RMK AO2 SFC VIS 4=
201112211114 SPECI KATL 211114Z 17007KT 1/4SM BR OVC003 15/14 A2999 RMK AO2 SFC VIS 4=
201112211052 METAR KATL 211052Z 17007KT 1SM BR OVC003 15/14 A3000 RMK AO2 SFC VIS 6 SLP155 T01500139=
201112210952 METAR KATL 210952Z 17007KT 1SM BR OVC003 14/13 A3001 RMK AO2 SFC VIS 5 RAB00E45 SLP159 P0000 T01440133=
201112210852 METAR KATL 210852Z 15004KT 1SM BR OVC003 14/13 A3003 RMK AO2 SFC VIS 6 RAE45 SLP168 P0007 60009 T01440133 56017=
201112210752 METAR KATL 210752Z 14003KT 1SM -RA BR OVC003 14/13 A3004 RMK AO2 SFC VIS 4 SLP170 P0002 T01390128=
201112210714 SPECI KATL 210714Z 13003KT 1SM -RA BR OVC003 14/13 A3005 RMK AO2 SFC VIS 5 P0002=
201112210714 SPECI KATL 210714Z 13003KT 1SM -RA BR OVC003 14/13 A3005 RMK AO2 SFC VIS 5 P0002=
201112210652 METAR KATL 210652Z 12005KT 4SM -RA BR OVC005 14/13 A3005 RMK AO2 RAE23B50 SLP173 P0000 T01390128=
201112210552 METAR KATL 210552Z 12005KT 7SM -RA OVC005 14/13 A3009 RMK AO2 SLP186 CIG 004V007 P0002 60015 T01390128 10150 20133 58012=
201112210452 METAR KATL 210452Z 11004KT 3SM -RA BR BKN007 OVC020 14/13 A3010 RMK AO2 SLP191 CIG 005V009 P0003 T01390128 401500083=
201112210441 SPECI KATL 210441Z 11005KT 3SM -RA BR SCT007 BKN015 OVC030 14/13 A3010 RMK AO2 P0002=
201112210441 SPECI KATL 210441Z 11005KT 3SM -RA BR SCT007 BKN015 OVC030 14/13 A3010 RMK AO2 P0002=
201112210422 SPECI KATL 210422Z 12004KT 4SM -RA BR SCT018 BKN025 OVC045 14/13 A3011 RMK AO2 P0001=
201112210422 SPECI KATL 210422Z 12004KT 4SM -RA BR SCT018 BKN025 OVC045 14/13 A3011 RMK AO2 P0001=
201112210405 SPECI KATL 210405Z 14005KT 7SM -RA SCT005 BKN032 OVC050 14/12 A3011 RMK AO2 P0000=
201112210405 SPECI KATL 210405Z 14005KT 7SM -RA SCT005 BKN032 OVC050 14/12 A3011 RMK AO2 P0000=
201112210352 METAR KATL 210352Z 14006KT 9SM -RA BKN005 BKN044 OVC060 13/12 A3011 RMK AO2 RAE17B50 SLP195 P0001 T01330122=
201112210332 SPECI KATL 210332Z 13005KT 9SM BKN005 BKN065 OVC080 13/12 A3011 RMK AO2 RAE17 P0001=
201112210332 SPECI KATL 210332Z 13005KT 9SM BKN005 BKN065 OVC080 13/12 A3011 RMK AO2 RAE17 P0001=
201112210300 SPECI KATL 210300Z 15006KT 4SM -RA BR FEW005 SCT022 OVC040 13/12 A3012 RMK AO2 P0000=
201112210300 SPECI KATL 210300Z 15006KT 4SM -RA BR FEW005 SCT022 OVC040 13/12 A3012 RMK AO2 P0000=
201112210252 METAR KATL 210252Z 15006KT 6SM -RA BR FEW007 BKN022 OVC050 14/12 A3012 RMK AO2 SLP199 P0002 60009 T01390122 51002=
201112210234 SPECI KATL 210234Z 15006KT 5SM -RA BR FEW007 BKN022 OVC065 14/12 A3012 RMK AO2 P0001=
201112210234 SPECI KATL 210234Z 15006KT 5SM -RA BR FEW007 BKN022 OVC065 14/12 A3012 RMK AO2 P0001=
201112210152 METAR KATL 210152Z 13006KT 7SM -RA FEW030 BKN075 OVC100 14/12 A3011 RMK AO2 SLP196 P0003 T01390122=
201112210052 METAR KATL 210052Z 14004KT 6SM -RA BR FEW006 BKN030 OVC090 14/13 A3013 RMK AO2 SLP203 OCNL LTG DSNT N-NE P0004 T01390128=
201112210016 SPECI KATL 210016Z 14003KT 8SM -RA FEW006 BKN075 OVC110 14/13 A3011 RMK AO2 P0000=
201112210016 SPECI KATL 210016Z 14003KT 8SM -RA FEW006 BKN075 OVC110 14/13 A3011 RMK AO2 P0000=
201112202352 METAR KATL 202352Z COR 10005KT 9SM -RA SCT007 BKN080 OVC100 14/13 A3011 RMK AO2 SLP197 P0001 60012 T01390128 10150 20139 53010=
201112202252 METAR KATL 202252Z 12005KT 10SM -RA FEW007 BKN055 BKN080 OVC130 14/13 A3010 RMK AO2 RAB44 SLP192 P0000 T01440128=
201112202152 METAR KATL 202152Z 14006KT 10SM FEW007 BKN055 BKN110 OVC250 14/13 A3010 RMK AO2 RAE2055 SLP192 P0000 T01440128=
201112202052 METAR KATL 202052Z 13005KT 6SM -RA BR FEW007 BKN050 OVC080 15/13 A3008 RMK AO2 SLP187 BINOVC DSNT SW P0003 60011 T01500133 56018=
201112201952 METAR KATL 201952Z 17007KT 6SM -RA BR FEW007 SCT015 OVC050 15/13 A3009 RMK AO2 RAB51 SLP188 P0000 T01500133=
201112201852 METAR KATL 201852Z 12006KT 6SM BR FEW005 SCT015 OVC030 14/13 A3010 RMK AO2 RAE41 SLP192 P0008 T01440128=
201112201752 METAR KATL 201752Z 19005KT 2SM R09R/5500VP6000FT -RA BR FEW012 BKN040 OVC060 14/13 A3014 RMK AO2 SFC VIS 3 SLP207 P0002 60002 T01440128 10150 20100 58016=
201112201731 SPECI KATL 201731Z 20007KT 4SM -RA BR FEW012 BKN040 OVC060 14/12 A3015 RMK AO2 P0000=
201112201731 SPECI KATL 201731Z 20007KT 4SM -RA BR FEW012 BKN040 OVC060 14/12 A3015 RMK AO2 P0000=
201112201652 METAR KATL 201652Z 20008KT 9SM -RA FEW040 BKN050 OVC070 15/11 A3016 RMK AO2 RAE03B28 SLP214 P0000 T01500111=
201112201552 METAR KATL 201552Z 19009KT 9SM -RA FEW015 SCT040 OVC060 13/10 A3018 RMK AO2 RAB48 SLP219 P0000 T01330100=
201112201452 METAR KATL 201452Z 17004KT 6SM HZ FEW020 SCT050 OVC070 12/09 A3019 RMK AO2 SLP223 T01220089 53006=
201112201352 METAR KATL 201352Z 13005KT 10SM FEW020 BKN037 OVC045 11/08 A3018 RMK AO2 SLP220 T01110078=
201112201252 METAR KATL 201252Z 09004KT 10SM BKN038 OVC044 11/07 A3017 RMK AO2 SLP218 T01060072=
201112201152 METAR KATL 201152Z 09004KT 10SM BKN041 OVC060 10/07 A3017 RMK AO2 SLP216 T01000067 10100 20083 55001=
201112201052 METAR KATL 201052Z 08005KT 10SM OVC043 10/07 A3016 RMK AO2 SLP212 T01000067=
201112200952 METAR KATL 200952Z 06005KT 10SM BKN050 OVC065 09/07 A3017 RMK AO2 SLP215 T00940067=
201112200852 METAR KATL 200852Z 06006KT 10SM BKN044 OVC060 09/07 A3017 RMK AO2 SLP216 T00940067 56004=
201112200752 METAR KATL 200752Z 08005KT 9SM OVC042 09/06 A3017 RMK AO2 SLP217 T00940061=
201112200652 METAR KATL 200652Z 08005KT 9SM BKN250 08/06 A3017 RMK AO2 SLP217 T00830056=
201112200552 METAR KATL 200552Z 07005KT 10SM BKN250 09/06 A3018 RMK AO2 SLP221 T00890056 10128 20089 58012=
201112200452 METAR KATL 200452Z 12004KT 10SM FEW045 BKN250 11/06 A3020 RMK AO2 SLP228 T01060061 401560011=
201112200352 METAR KATL 200352Z 12004KT 10SM BKN045 BKN250 11/07 A3021 RMK AO2 SLP230 T01110067=
201112200252 METAR KATL 200252Z 12004KT 10SM BKN042 BKN250 11/06 A3022 RMK AO2 SLP235 T01110061 50000=
201112200152 METAR KATL 200152Z 13004KT 10SM FEW200 OVC250 12/06 A3022 RMK AO2 SLP236 T01170061=
201112200052 METAR KATL 200052Z 14004KT 10SM FEW200 OVC250 12/06 A3022 RMK AO2 SLP239 T01220056=
201112192352 METAR KATL 192352Z 13004KT 10SM BKN200 BKN250 13/04 A3022 RMK AO2 SLP237 T01280044 10156 20122 51002=
201112192252 METAR KATL 192252Z 10004KT 10SM BKN200 BKN250 13/01 A3021 RMK AO2 SLP235 T01280011=
201112192152 METAR KATL 192152Z 12003KT 10SM FEW150 BKN200 BKN250 15/M01 A3022 RMK AO2 SLP235 T01501006=
201112192052 METAR KATL 192052Z 19003KT 10SM FEW150 BKN200 BKN250 14/M01 A3021 RMK AO2 SLP234 T01441011 56020=
201112191952 METAR KATL 191952Z 15004KT 10SM FEW150 BKN200 BKN250 16/M01 A3021 RMK AO2 SLP232 T01561006=
201112191852 METAR KATL 191852Z 18005KT 10SM SCT150 SCT200 14/M02 A3023 RMK AO2 SLP240 T01441017=
201112191752 METAR KATL 191752Z 18006KT 10SM FEW150 SCT200 BKN250 13/M02 A3027 RMK AO2 SLP255 T01281017 10133 20022 58018=
201112191652 METAR KATL 191652Z 20007KT 10SM FEW250 12/M01 A3031 RMK AO2 SLP268 T01221011=
201112191552 METAR KATL 191552Z VRB04KT 10SM SCT250 11/M01 A3034 RMK AO2 SLP277 T01111011=
201112191452 METAR KATL 191452Z 12004KT 10SM FEW150 SCT250 08/M03 A3033 RMK AO2 SLP275 T00831028 53012=
201112191352 METAR KATL 191352Z 08003KT 10SM FEW150 SCT250 06/M03 A3032 RMK AO2 SLP271 T00611028=
201112191252 METAR KATL 191252Z 08005KT 10SM FEW150 02/M04 A3030 RMK AO2 SLP266 T00221039=
201112191152 METAR KATL 191152Z 07005KT 10SM CLR 03/M04 A3029 RMK AO2 SLP263 T00281039 10056 20011 53003=
201112191052 METAR KATL 191052Z 00000KT 10SM CLR 02/M03 A3028 RMK AO2 SLP260 T00221028=
201112190952 METAR KATL 190952Z 04003KT 10SM CLR 03/M03 A3028 RMK AO2 SLP257 T00281033=
201112190852 METAR KATL 190852Z 00000KT 10SM CLR 02/M03 A3028 RMK AO2 SLP259 T00221033 56000=
201112190752 METAR KATL 190752Z 03004KT 10SM FEW150 05/M03 A3028 RMK AO2 SLP258 T00501033=
201112190652 METAR KATL 190652Z 00000KT 10SM FEW150 SCT250 03/M03 A3028 RMK AO2 SLP258 T00331033=
201112190552 METAR KATL 190552Z 00000KT 10SM FEW250 04/M03 A3028 RMK AO2 SLP259 T00441033 10094 20033 58011=
201112190452 METAR KATL 190452Z 00000KT 10SM BKN150 BKN250 04/M02 A3029 RMK AO2 SLP263 T00441022 401280006=
201112190352 METAR KATL 190352Z 00000KT 10SM FEW150 BKN250 05/M03 A3031 RMK AO2 SLP270 T00501028=
201112190252 METAR KATL 190252Z 00000KT 10SM SCT250 06/M03 A3032 RMK AO2 SLP271 T00561028 50000=
201112190152 METAR KATL 190152Z 00000KT 10SM SCT250 06/M03 A3032 RMK AO2 SLP273 T00611033=
201112190052 METAR KATL 190052Z 35003KT 10SM SCT250 09/M04 A3032 RMK AO2 SLP273 T00891044=
201112182352 METAR KATL 182352Z 35004KT 10SM SCT250 09/M05 A3032 RMK AO2 SLP272 T00891050 10128 20083 50002=
201112182252 METAR KATL 182252Z 32004KT 10SM FEW150 BKN250 09/M04 A3032 RMK AO2 SLP273 T00891044=
201112182152 METAR KATL 182152Z 31010G15KT 10SM FEW250 11/M04 A3032 RMK AO2 SLP273 T01111039=
201112182052 METAR KATL 182052Z 34011KT 10SM FEW250 12/M04 A3031 RMK AO2 SLP268 T01221044 56010=
201112181952 METAR KATL 181952Z 29010KT 10SM FEW250 13/M05 A3031 RMK AO2 SLP268 T01281050=
201112181852 METAR KATL 181852Z 32006KT 10SM FEW250 12/M05 A3031 RMK AO2 SLP269 T01221050=
201112181752 METAR KATL 181752Z 30008KT 10SM CLR 11/M05 A3034 RMK AO2 SLP279 T01111050 10111 20006 58005=
201112181652 METAR KATL 181652Z 29006KT 10SM CLR 10/M03 A3037 RMK AO2 SLP290 T01001033=
201112181552 METAR KATL 181552Z 29008KT 10SM CLR 08/M03 A3038 RMK AO2 SLP292 T00781028=
201112181452 METAR KATL 181452Z 30004KT 10SM CLR 05/M03 A3036 RMK AO2 SLP286 T00501033 53020=
201112181352 METAR KATL 181352Z 30010KT 10SM CLR 03/M03 A3033 RMK AO2 SLP278 T00281033=
201112181252 METAR KATL 181252Z 30007KT 10SM CLR 01/M04 A3031 RMK AO2 SLP271 T00061044=
201112181152 METAR KATL 181152Z 33007KT 10SM CLR 01/M04 A3030 RMK AO2 SLP266 T00111044 10033 20011 55001=
201112181052 METAR KATL 181052Z 33009KT 10SM CLR 02/M04 A3029 RMK AO2 SLP263 T00171044=
201112180952 METAR KATL 180952Z 32009KT 10SM CLR 02/M04 A3030 RMK AO2 SLP267 T00171039=
201112180852 METAR KATL 180852Z 32008KT 10SM CLR 02/M03 A3030 RMK AO2 SLP266 T00221033 53005=
201112180752 METAR KATL 180752Z 31007KT 10SM CLR 02/M03 A3029 RMK AO2 SLP260 T00221033=
201112180652 METAR KATL 180652Z 32008KT 10SM CLR 03/M03 A3029 RMK AO2 SLP260 T00281033=
201112180552 METAR KATL 180552Z 32007KT 10SM CLR 03/M03 A3029 RMK AO2 SLP261 T00281033 10078 20028 50000=
201112180452 METAR KATL 180452Z 30007KT 10SM CLR 03/M03 A3030 RMK AO2 SLP264 T00331028 401170033=
201112180352 METAR KATL 180352Z 29007KT 10SM CLR 04/M03 A3030 RMK AO2 SLP264 T00391028=
201112180252 METAR KATL 180252Z 31007KT 10SM CLR 05/M03 A3029 RMK AO2 SLP261 T00501028 51012=
201112180152 METAR KATL 180152Z 31009KT 10SM CLR 06/M03 A3028 RMK AO2 SLP260 T00611028=
201112180052 METAR KATL 180052Z 31008KT 10SM CLR 07/M03 A3027 RMK AO2 SLP254 T00671028=
201112172352 METAR KATL 172352Z 32007KT 10SM CLR 08/M04 A3025 RMK AO2 SLP248 T00781039 10117 20072 53009=
201112172252 METAR KATL 172252Z 32007KT 10SM CLR 08/M04 A3024 RMK AO2 SLP244 T00831039=
201112172152 METAR KATL 172152Z 33008KT 10SM CLR 10/M05 A3023 RMK AO2 SLP240 T01001050=
201112172052 METAR KATL 172052Z 32010KT 10SM CLR 11/M06 A3022 RMK AO2 SLP236 T01111056 56009=
201112171952 METAR KATL 171952Z 31012KT 10SM CLR 12/M06 A3023 RMK AO2 SLP238 T01171056=
201112171852 METAR KATL 171852Z 32011KT 10SM CLR 11/M03 A3024 RMK AO2 SLP240 T01111033=
201112171752 METAR KATL 171752Z 30013G17KT 10SM CLR 11/M02 A3025 RMK AO2 SLP245 T01061017 10106 20061 58011=
201112171652 METAR KATL 171652Z 30011KT 10SM CLR 09/00 A3027 RMK AO2 SLP253 T00890000=
201112171552 METAR KATL 171552Z 31013KT 10SM FEW020 08/01 A3029 RMK AO2 SLP259 T00780011=
201112171452 METAR KATL 171452Z 32014G20KT 10SM SCT016 07/01 A3028 RMK AO2 SLP257 T00670011 51015=
201112171448 SPECI KATL 171448Z 32015G20KT 10SM SCT016 07/02 A3028 RMK AO2=
201112171448 SPECI KATL 171448Z 32015G20KT 10SM SCT016 07/02 A3028 RMK AO2=
201112171412 SPECI KATL 171412Z 31011G18KT 10SM BKN016 06/01 A3028 RMK AO2=
201112171412 SPECI KATL 171412Z 31011G18KT 10SM BKN016 06/01 A3028 RMK AO2=
201112171352 METAR KATL 171352Z 32015KT 10SM BKN014 BKN017 06/02 A3028 RMK AO2 SLP257 T00610017=
201112171252 METAR KATL 171252Z 32010G19KT 10SM BKN010 BKN015 07/03 A3026 RMK AO2 SLP249 T00670028=
201112171152 METAR KATL 171152Z 33011KT 10SM OVC008 07/04 A3024 RMK AO2 SLP239 T00670039 10100 20061 53010=
201112171121 SPECI KATL 171121Z 31008G16KT 10SM OVC008 06/04 A3022 RMK AO2=
201112171121 SPECI KATL 171121Z 31008G16KT 10SM OVC008 06/04 A3022 RMK AO2=
201112171052 METAR KATL 171052Z 32011KT 10SM OVC010 06/04 A3022 RMK AO2 SLP234 T00610039=
201112170952 METAR KATL 170952Z 32011KT 10SM OVC010 07/04 A3022 RMK AO2 SLP232 T00720044=
201112170852 METAR KATL 170852Z 32013KT 10SM SCT008 BKN010 OVC100 08/06 A3021 RMK AO2 SLP227 T00830056 53008=
201112170844 SPECI KATL 170844Z 33014G22KT 10SM SCT008 BKN010 OVC100 08/05 A3020 RMK AO2=
201112170844 SPECI KATL 170844Z 33014G22KT 10SM SCT008 BKN010 OVC100 08/05 A3020 RMK AO2=
201112170752 METAR KATL 170752Z 33014KT 10SM BKN011 09/06 A3019 RMK AO2 SLP222 T00890061=
201112170652 METAR KATL 170652Z 32012KT 10SM BKN011 09/07 A3019 RMK AO2 SLP219 T00940067=
201112170639 SPECI KATL 170639Z 33013G17KT 10SM FEW008 BKN011 10/07 A3019 RMK AO2=
201112170639 SPECI KATL 170639Z 33013G17KT 10SM FEW008 BKN011 10/07 A3019 RMK AO2=
201112170552 METAR KATL 170552Z 32014G18KT 10SM BKN008 10/07 A3018 RMK AO2 SLP218 60000 T01000072 10183 20094 56005=
201112170515 SPECI KATL 170515Z 30008KT 10SM BKN008 10/08 A3018 RMK AO2=
201112170515 SPECI KATL 170515Z 30008KT 10SM BKN008 10/08 A3018 RMK AO2=
201112170452 METAR KATL 170452Z 27005KT 10SM FEW020 09/08 A3018 RMK AO2 SLP219 T00940078 402220094=
201112170352 METAR KATL 170352Z 31008KT 10SM FEW010 11/08 A3020 RMK AO2 SLP223 T01060083=
201112170314 SPECI KATL 170314Z 33011KT 10SM FEW010 SCT022 12/08 A3020 RMK AO2=
201112170314 SPECI KATL 170314Z 33011KT 10SM FEW010 SCT022 12/08 A3020 RMK AO2=
201112170252 METAR KATL 170252Z 33010KT 10SM FEW008 BKN013 BKN025 12/09 A3020 RMK AO2 SLP224 60000 T01220094 51018=
201112170152 METAR KATL 170152Z 33013G21KT 10SM SCT008 BKN014 OVC020 14/11 A3019 RMK AO2 RAE00 SLP223 P0000 T01390111=
201112170052 METAR KATL 170052Z 32011KT 10SM -RA SCT008 BKN014 OVC020 16/13 A3018 RMK AO2 WSHFT 0003 SLP216 P0000 T01560133=
201112170018 SPECI KATL 170018Z 32013KT 9SM -RA FEW009 BKN019 OVC026 16/14 A3016 RMK AO2 WSHFT 0003 P0000=
201112170018 SPECI KATL 170018Z 32013KT 9SM -RA FEW009 BKN019 OVC026 16/14 A3016 RMK AO2 WSHFT 0003 P0000=
201112162352 METAR KATL 162352Z 24008KT 10SM -RA BKN022 BKN032 OVC045 18/13 A3014 RMK AO2 RAB49 SLP203 P0000 60000 T01830128 10222 20183 51015=
201112162252 METAR KATL 162252Z 23008KT 10SM SCT029 OVC045 19/12 A3013 RMK AO2 SLP200 T01890122=
201112162152 METAR KATL 162152Z 25010KT 10SM BKN030 BKN080 BKN100 19/12 A3012 RMK AO2 SLP196 T01940117=
201112162052 METAR KATL 162052Z 21012KT 10SM FEW040 SCT080 BKN100 21/11 A3010 RMK AO2 SLP186 T02060111 58019=
201112161952 METAR KATL 161952Z 24009KT 210V270 10SM FEW040 SCT080 BKN300 22/11 A3012 RMK AO2 SLP196 T02220111=
201112161852 METAR KATL 161852Z 25010G19KT 10SM FEW040 SCT100 BKN150 BKN300 22/11 A3014 RMK AO2 SLP203 T02220106=
201112161752 METAR KATL 161752Z 22014KT 10SM FEW040 SCT100 SCT300 21/10 A3015 RMK AO2 SLP206 T02110100 10217 20161 58011=
201112161652 METAR KATL 161652Z 22012KT 10SM FEW035 SCT050 SCT100 21/11 A3018 RMK AO2 SLP213 T02110106=
201112161552 METAR KATL 161552Z 22011G22KT 10SM FEW050 SCT100 SCT300 21/11 A3019 RMK AO2 SLP218 T02060106=
201112161452 METAR KATL 161452Z 25010KT 10SM FEW050 SCT250 19/11 A3019 RMK AO2 SLP217 T01890106 53005=
201112161352 METAR KATL 161352Z 25007KT 10SM SCT049 SCT250 17/11 A3018 RMK AO2 SLP217 T01720111=
201112161252 METAR KATL 161252Z 22005KT 10SM BKN049 16/12 A3017 RMK AO2 SLP213 T01610117=
201112161152 METAR KATL 161152Z 24004KT 10SM FEW015 OVC047 16/12 A3017 RMK AO2 SLP213 T01610122 10167 20156 53005=
201112161052 METAR KATL 161052Z 23004KT 10SM OVC043 16/12 A3016 RMK AO2 SLP210 T01610122=
201112160952 METAR KATL 160952Z 22007KT 10SM OVC043 16/12 A3015 RMK AO2 SLP206 T01610122=
201112160852 METAR KATL 160852Z 22006KT 10SM BKN045 BKN070 16/12 A3016 RMK AO2 SLP207 T01560117 55004=
201112160752 METAR KATL 160752Z 21006KT 10SM BKN039 16/12 A3016 RMK AO2 SLP206 T01560122=
201112160652 METAR KATL 160652Z 23004KT 10SM FEW070 16/12 A3016 RMK AO2 SLP209 T01560122=
201112160552 METAR KATL 160552Z 22005KT 10SM SCT070 17/12 A3017 RMK AO2 SLP211 T01670122 10189 20167 58006=
201112160452 METAR KATL 160452Z 20004KT 10SM FEW050 BKN070 17/12 A3018 RMK AO2 SLP216 T01720122 402220089=
201112160352 METAR KATL 160352Z 23003KT 10SM SCT042 BKN050 OVC070 18/12 A3019 RMK AO2 SLP219 T01830122=
201112160252 METAR KATL 160252Z 22005KT 10SM FEW034 OVC045 18/12 A3019 RMK AO2 SLP220 T01830122 51008=
201112160152 METAR KATL 160152Z 22005KT 10SM SCT042 BKN050 OVC065 18/12 A3018 RMK AO2 SLP219 T01830117=
201112160052 METAR KATL 160052Z 23003KT 10SM BKN048 OVC060 19/12 A3018 RMK AO2 SLP217 T01890117=
201112152352 METAR KATL 152352Z 20004KT 10SM FEW050 OVC065 18/12 A3016 RMK AO2 SLP213 T01830117 10222 20183 53002=
201112152252 METAR KATL 152252Z 24003KT 10SM FEW050 OVC065 19/12 A3016 RMK AO2 SLP212 T01940117=
201112152152 METAR KATL 152152Z 22006KT 10SM FEW040 BKN065 21/12 A3015 RMK AO2 SLP209 T02060117=
201112152052 METAR KATL 152052Z 21008KT 10SM FEW038 BKN065 21/11 A3016 RMK AO2 SLP209 T02110111 55013=
201112151952 METAR KATL 151952Z 20010KT 10SM FEW035 BKN060 21/11 A3015 RMK AO2 SLP207 T02110111=
201112151852 METAR KATL 151852Z 21012G19KT 10SM FEW035 SCT060 BKN250 22/11 A3017 RMK AO2 SLP214 T02170111=
201112151752 METAR KATL 151752Z 20008KT 10SM FEW032 SCT050 SCT250 21/11 A3020 RMK AO2 SLP222 T02110111 10211 20100 58023=
201112151652 METAR KATL 151652Z 21014G20KT 10SM FEW025 SCT050 SCT250 20/11 A3024 RMK AO2 SLP236 T02000111=
201112151552 METAR KATL 151552Z 21009G15KT 10SM FEW020 SCT050 SCT250 18/11 A3026 RMK AO2 SLP246 T01830111=
201112151452 METAR KATL 151452Z 19010KT 10SM FEW050 SCT100 SCT250 14/11 A3027 RMK AO2 SLP249 T01440106 51003=
201112151352 METAR KATL 151352Z 19004KT 10SM FEW044 SCT060 SCT100 12/09 A3027 RMK AO2 SLP249 T01170089=
201112151252 METAR KATL 151252Z 18003KT 10SM SCT044 10/08 A3027 RMK AO2 SLP249 T01000078=
201112151152 METAR KATL 151152Z 14003KT 10SM BKN038 11/07 A3026 RMK AO2 SLP246 T01060072 10128 20089 55000=
201112151052 METAR KATL 151052Z 13003KT 10SM FEW035 10/07 A3025 RMK AO2 SLP243 T01000067=
201112150952 METAR KATL 150952Z COR 00000KT 10SM FEW035 11/07 A3026 RMK AO2 SLP245 T01060072=
201112150852 METAR KATL 150852Z COR 18003KT 10SM FEW030 11/07 A3026 RMK AO2 SLP245 T01060067 52009=
201112150752 METAR KATL 150752Z 19006KT 10SM FEW250 11/07 A3025 RMK AO2 SLP243 T01060067=
201112150652 METAR KATL 150652Z 17005KT 10SM SCT250 12/07 A3024 RMK AO2 SLP237 T01220072=
201112150552 METAR KATL 150552Z 17008KT 10SM BKN250 13/07 A3023 RMK AO2 SLP235 T01280072 10161 20122 58014=
201112150452 METAR KATL 150452Z 17008KT 10SM BKN250 13/07 A3025 RMK AO2 SLP240 T01280072 402110078=
201112150352 METAR KATL 150352Z 17006KT 10SM BKN250 13/07 A3027 RMK AO2 SLP247 T01330072=
201112150252 METAR KATL 150252Z 17005KT 10SM BKN250 13/07 A3027 RMK AO2 SLP250 T01330072 58001=
201112150152 METAR KATL 150152Z 15005KT 10SM BKN250 14/07 A3028 RMK AO2 SLP252 T01440072=
201112150052 METAR KATL 150052Z 17006KT 10SM BKN250 16/07 A3028 RMK AO2 SLP254 T01560072=
201112142352 METAR KATL 142352Z 17007KT 10SM BKN250 16/07 A3028 RMK AO2 SLP253 T01610067 10211 20161 51003=
201112142252 METAR KATL 142252Z 17005KT 10SM BKN250 17/06 A3028 RMK AO2 SLP252 T01720061=
201112142152 METAR KATL 142152Z 20006KT 10SM BKN250 19/06 A3027 RMK AO2 SLP250 T01940061=
201112142052 METAR KATL 142052Z 18007KT 10SM BKN250 21/06 A3027 RMK AO2 SLP248 T02060061 56019=
201112141952 METAR KATL 141952Z 20007KT 10SM BKN250 21/06 A3028 RMK AO2 SLP251 T02060061=
201112141852 METAR KATL 141852Z 21006KT 10SM BKN250 21/07 A3030 RMK AO2 SLP258 T02060067=
201112141752 METAR KATL 141752Z 21007KT 10SM BKN250 20/07 A3033 RMK AO2 SLP268 T02000067 10200 20078 58015=
201112141652 METAR KATL 141652Z 16004KT 10SM BKN250 19/08 A3036 RMK AO2 SLP278 T01890078=
201112141552 METAR KATL 141552Z 18005KT 10SM BKN250 17/07 A3038 RMK AO2 SLP287 T01670072=
201112141452 METAR KATL 141452Z 19003KT 10SM BKN250 15/08 A3037 RMK AO2 SLP284 T01500078 51007 $=
201112141352 METAR KATL 141352Z 00000KT 10SM FEW150 SCT250 12/09 A3036 RMK AO2 SLP283 T01220089=
201112141252 METAR KATL 141252Z 00000KT 9SM FEW250 08/06 A3036 RMK AO2 SLP282 T00830061=
201112141152 METAR KATL 141152Z 00000KT 10SM FEW250 09/06 A3035 RMK AO2 SLP279 T00890061 10111 20078 53001=
201112141052 METAR KATL 141052Z 00000KT 10SM FEW250 10/07 A3034 RMK AO2 SLP274 T01000072=
201112140952 METAR KATL 140952Z 00000KT 10SM FEW250 09/07 A3035 RMK AO2 SLP276 T00890072=
201112140852 METAR KATL 140852Z 00000KT 9SM FEW250 10/07 A3035 RMK AO2 SLP275 T01000072 56012=
201112140752 METAR KATL 140752Z 00000KT 10SM FEW250 10/07 A3036 RMK AO2 SLP279 T01000067=
201112140652 METAR KATL 140652Z 00000KT 10SM FEW250 09/07 A3037 RMK AO2 SLP282 T00940067=
201112140552 METAR KATL 140552Z 00000KT 10SM FEW250 11/07 A3038 RMK AO2 SLP288 T01060067 10161 20100 58003=
201112140452 METAR KATL 140452Z 00000KT 10SM FEW250 13/07 A3039 RMK AO2 SLP289 T01280072 402000061=
201112140352 METAR KATL 140352Z 00000KT 10SM FEW250 11/07 A3039 RMK AO2 SLP293 T01060072=
201112140252 METAR KATL 140252Z 29003KT 10SM FEW250 13/07 A3039 RMK AO2 SLP293 T01280072 53005=
201112140152 METAR KATL 140152Z 00000KT 10SM FEW250 13/07 A3039 RMK AO2 SLP293 T01330072=
201112140052 METAR KATL 140052Z 00000KT 10SM FEW250 14/07 A3038 RMK AO2 SLP289 T01390072=
201112132352 METAR KATL 132352Z 00000KT 10SM FEW250 14/07 A3038 RMK AO2 SLP288 T01440072 10200 20144 55002=
201112132252 METAR KATL 132252Z 00000KT 10SM FEW250 16/07 A3037 RMK AO2 SLP286 T01610072=
201112132152 METAR KATL 132152Z 00000KT 10SM FEW045 SCT250 18/07 A3038 RMK AO2 SLP287 T01830072=
201112132052 METAR KATL 132052Z 00000KT 10SM FEW050 SCT250 19/07 A3038 RMK AO2 SLP288 T01890072 56016=
201112131952 METAR KATL 131952Z 07004KT 10SM FEW050 SCT250 19/07 A3039 RMK AO2 SLP290 T01890072=
201112131852 METAR KATL 131852Z 29003KT 10SM FEW050 SCT250 18/07 A3040 RMK AO2 SLP294 T01830072=
201112131752 METAR KATL 131752Z 00000KT 10SM FEW250 17/06 A3043 RMK AO2 SLP306 T01720061 10172 20067 58015=
201112131652 METAR KATL 131652Z 00000KT 10SM FEW250 16/06 A3046 RMK AO2 SLP315 T01610056=
201112131552 METAR KATL 131552Z 00000KT 10SM FEW045 SCT250 14/04 A3048 RMK AO2 SLP325 T01390039=
201112131452 METAR KATL 131452Z 09004KT 10SM FEW045 SCT250 11/02 A3048 RMK AO2 SLP323 T01110022 51013=
201112131352 METAR KATL 131352Z 08004KT 10SM FEW042 09/01 A3046 RMK AO2 SLP320 T00890006=
201112131252 METAR KATL 131252Z 07005KT 10SM FEW042 07/01 A3045 RMK AO2 SLP316 T00670006=
201112131152 METAR KATL 131152Z 07005KT 10SM BKN042 08/01 A3044 RMK AO2 SLP311 T00830006 10083 20061 53004=
201112131052 METAR KATL 131052Z 05004KT 10SM BKN044 08/01 A3043 RMK AO2 SLP309 T00780006=
201112130952 METAR KATL 130952Z 09005KT 10SM SCT047 07/01 A3043 RMK AO2 SLP309 T00670006=
201112130852 METAR KATL 130852Z 08004KT 10SM BKN050 07/01 A3043 RMK AO2 SLP307 T00720011 55003=
201112130752 METAR KATL 130752Z 09005KT 10SM BKN047 08/01 A3042 RMK AO2 SLP306 T00780011=
201112130652 METAR KATL 130652Z 08004KT 10SM FEW014 BKN047 08/01 A3043 RMK AO2 SLP307 T00780011=
201112130629 SPECI KATL 130629Z 09005KT 10SM SCT014 BKN047 08/01 A3043 RMK AO2=
201112130629 SPECI KATL 130629Z 09005KT 10SM SCT014 BKN047 08/01 A3043 RMK AO2=
201112130552 METAR KATL 130552Z 08004KT 10SM OVC014 08/01 A3044 RMK AO2 SLP310 T00830011 10100 20083 58002=
201112130528 SPECI KATL 130528Z 08004KT 10SM OVC015 08/01 A3045 RMK AO2=
201112130528 SPECI KATL 130528Z 08004KT 10SM OVC015 08/01 A3045 RMK AO2=
201112130452 METAR KATL 130452Z 08006KT 10SM OVC013 08/01 A3046 RMK AO2 SLP317 T00830011 401000056=
201112130352 METAR KATL 130352Z 07005KT 10SM OVC011 09/02 A3044 RMK AO2 SLP313 T00890022=
201112130252 METAR KATL 130252Z 07007KT 10SM OVC011 09/02 A3044 RMK AO2 SLP313 T00890017 51009=
201112130152 METAR KATL 130152Z 07006KT 10SM OVC013 09/01 A3043 RMK AO2 SLP310 T00890011=
201112130137 SPECI KATL 130137Z 08007KT 10SM OVC013 09/01 A3043 RMK AO2=
201112130137 SPECI KATL 130137Z 08007KT 10SM OVC013 09/01 A3043 RMK AO2=
201112130052 METAR KATL 130052Z 07007KT 10SM OVC015 09/01 A3043 RMK AO2 SLP310 T00940011=
201112122352 METAR KATL 122352Z 05006KT 10SM OVC015 09/02 A3042 RMK AO2 SLP304 T00940017 10100 20083 53004=
201112122252 METAR KATL 122252Z 06007KT 10SM OVC016 09/02 A3041 RMK AO2 SLP303 T00940022=
201112122152 METAR KATL 122152Z 09007KT 10SM OVC016 09/02 A3040 RMK AO2 SLP300 T00940022=
201112122052 METAR KATL 122052Z 07007KT 10SM OVC018 10/02 A3040 RMK AO2 SLP298 T01000022 56008=
201112121952 METAR KATL 121952Z 07008KT 10SM OVC018 09/02 A3041 RMK AO2 SLP301 T00940017=
201112121852 METAR KATL 121852Z 09008KT 10SM OVC018 09/01 A3041 RMK AO2 SLP303 T00940011=
201112121752 METAR KATL 121752Z 06007KT 10SM OVC016 08/00 A3043 RMK AO2 SLP308 T00830000 10089 20061 58011=
201112121652 METAR KATL 121652Z 08011KT 10SM OVC016 08/M01 A3045 RMK AO2 SLP317 T00781006=
201112121552 METAR KATL 121552Z 08010KT 10SM OVC016 07/M02 A3046 RMK AO2 SLP322 T00721017=
201112121452 METAR KATL 121452Z 07011G18KT 10SM OVC016 07/M02 A3046 RMK AO2 SLP319 T00671022 53016=
201112121434 SPECI KATL 121434Z 07011KT 10SM OVC016 07/M02 A3046 RMK AO2=
201112121434 SPECI KATL 121434Z 07011KT 10SM OVC016 07/M02 A3046 RMK AO2=
201112121352 METAR KATL 121352Z 08012KT 10SM OVC014 06/M03 A3044 RMK AO2 SLP313 T00611028=
201112121252 METAR KATL 121252Z 07012KT 10SM BKN014 OVC020 06/M04 A3043 RMK AO2 SLP308 T00611039=
201112121217 SPECI KATL 121217Z 06010KT 10SM OVC014 06/M04 A3042 RMK AO2=
201112121217 SPECI KATL 121217Z 06010KT 10SM OVC014 06/M04 A3042 RMK AO2=
201112121152 METAR KATL 121152Z 07012KT 10SM OVC016 06/M04 A3041 RMK AO2 SLP303 70001 T00611039 10061 20056 53001=
201112121052 METAR KATL 121052Z 07014KT 10SM BKN018 OVC070 06/M04 A3040 RMK AO2 SLP297 T00561039=
201112121001 SPECI KATL 121001Z 07010KT 10SM BKN020 BKN090 06/M03 A3040 RMK AO2=
201112121001 SPECI KATL 121001Z 07010KT 10SM BKN020 BKN090 06/M03 A3040 RMK AO2=
201112120952 METAR KATL 120952Z 07010KT 10SM SCT020 BKN090 06/M03 A3040 RMK AO2 SLP299 T00561033=
201112120852 METAR KATL 120852Z 07015KT 10SM BKN080 BKN090 06/M03 A3041 RMK AO2 SLP302 T00611028 56008=
201112120821 SPECI KATL 120821Z 07014KT 10SM FEW020 SCT034 OVC075 06/M02 A3041 RMK AO2=
201112120821 SPECI KATL 120821Z 07014KT 10SM FEW020 SCT034 OVC075 06/M02 A3041 RMK AO2=
201112120752 METAR KATL 120752Z 08014KT 10SM BKN020 OVC080 06/M02 A3042 RMK AO2 SLP304 T00611017=
201112120652 METAR KATL 120652Z 08015G22KT 10SM BKN020 OVC080 06/M01 A3042 RMK AO2 SLP305 T00561011=
201112120552 METAR KATL 120552Z 08012KT 10SM BKN020 OVC080 06/00 A3043 RMK AO2 RAE0459 SLP310 P0000 60001 T00560000 10089 20056 53002=
201112120452 METAR KATL 120452Z 10009G17KT 10SM -RA BKN021 OVC080 06/M01 A3042 RMK AO2 RAE03B51 SLP306 P0000 T00611006 401060000 $=
201112120352 METAR KATL 120352Z 09012KT 9SM -RA SCT031 BKN050 OVC070 06/00 A3042 RMK AO2 RAE0257B28 SLP307 P0001 T00610000=
201112120252 METAR KATL 120252Z 09010KT 10SM -RA FEW023 SCT048 OVC100 07/M02 A3043 RMK AO2 RAB48 SLP309 P0000 60000 T00721017 50006=
201112120152 METAR KATL 120152Z 08012KT 10SM SCT037 BKN055 OVC120 08/M03 A3043 RMK AO2 SLP309 T00781033=
201112120052 METAR KATL 120052Z 08014KT 10SM OVC033 08/M04 A3041 RMK AO2 SLP304 T00831039=
201112112352 METAR KATL 112352Z 08012KT 10SM BKN035 OVC180 08/M04 A3041 RMK AO2 SLP303 T00831039 10106 20083 55000=
201112112252 METAR KATL 112252Z 07013KT 10SM BKN037 OVC200 09/M04 A3040 RMK AO2 SLP299 T00891044=
201112112152 METAR KATL 112152Z 08010KT 10SM BKN043 OVC220 09/M04 A3040 RMK AO2 SLP301 T00891044=
201112112052 METAR KATL 112052Z 07012KT 10SM SCT070 OVC220 09/M04 A3041 RMK AO2 SLP302 T00941044 55016=
201112111952 METAR KATL 111952Z 09012KT 10SM FEW070 OVC220 10/M05 A3040 RMK AO2 SLP301 T01001050=
201112111852 METAR KATL 111852Z 08013KT 10SM FEW100 BKN250 10/M05 A3042 RMK AO2 SLP307 T01001050=
201112111752 METAR KATL 111752Z 05012G18KT 10SM FEW140 BKN250 09/M05 A3046 RMK AO2 SLP319 T00891050 10089 20011 58016=
201112111652 METAR KATL 111652Z 09014G17KT 10SM FEW140 BKN250 08/M04 A3049 RMK AO2 SLP331 T00781044=
201112111552 METAR KATL 111552Z 08012KT 10SM BKN250 07/M05 A3050 RMK AO2 SLP334 T00671050=
201112111452 METAR KATL 111452Z 08014KT 10SM SCT250 05/M06 A3050 RMK AO2 SLP337 T00501056 52018=
201112111352 METAR KATL 111352Z 07011KT 10SM CLR 03/M06 A3049 RMK AO2 SLP333 T00281056=
201112111252 METAR KATL 111252Z 07010KT 10SM FEW250 02/M06 A3046 RMK AO2 SLP324 T00171056=
201112111152 METAR KATL 111152Z 08010KT 10SM CLR 01/M05 A3045 RMK AO2 SLP319 T00111050 10022 20000 53013=
201112111052 METAR KATL 111052Z 07013KT 10SM CLR 02/M04 A3043 RMK AO2 SLP311 T00221044=
201112110952 METAR KATL 110952Z 06013KT 10SM CLR 02/M03 A3042 RMK AO2 SLP306 T00221033=
201112110852 METAR KATL 110852Z 06011KT 10SM CLR 02/M03 A3041 RMK AO2 SLP303 T00221028 51008=
201112110752 METAR KATL 110752Z 07006KT 10SM CLR 02/M02 A3041 RMK AO2 SLP302 T00171022=
201112110652 METAR KATL 110652Z 33005KT 9SM CLR 01/M03 A3039 RMK AO2 SLP297 T00061028=
201112110552 METAR KATL 110552Z 36005KT 10SM CLR 02/M03 A3039 RMK AO2 SLP295 T00221028 10061 20011 58000=
201112110452 METAR KATL 110452Z 33006KT 10SM CLR 02/M03 A3040 RMK AO2 SLP300 T00171028 401170011=
201112110352 METAR KATL 110352Z 33005KT 10SM CLR 02/M03 A3039 RMK AO2 SLP297 T00171028=
201112110252 METAR KATL 110252Z 34006KT 10SM CLR 02/M03 A3039 RMK AO2 SLP296 T00221028 51007=
201112110152 METAR KATL 110152Z 34006KT 10SM CLR 03/M03 A3038 RMK AO2 SLP294 T00331028=
201112110052 METAR KATL 110052Z 33008KT 10SM CLR 04/M02 A3037 RMK AO2 SLP293 T00441022=
201112102352 METAR KATL 102352Z 34013G17KT 10SM CLR 06/M02 A3036 RMK AO2 SLP288 T00611017 10117 20061 53012=
201112102252 METAR KATL 102252Z 34009KT 10SM FEW250 08/M03 A3035 RMK AO2 SLP281 T00781028=
201112102152 METAR KATL 102152Z 33012KT 10SM FEW250 10/M03 A3034 RMK AO2 SLP278 T01001028=
201112102052 METAR KATL 102052Z 33010KT 10SM FEW250 12/M03 A3033 RMK AO2 SLP274 T01171028 56007=
201112101952 METAR KATL 101952Z 35011KT 10SM FEW250 12/M03 A3033 RMK AO2 SLP276 T01171028=
201112101852 METAR KATL 101852Z 01009KT 10SM FEW250 12/M02 A3034 RMK AO2 SLP279 T01171017=
201112101752 METAR KATL 101752Z 32009KT 10SM FEW250 11/M03 A3035 RMK AO2 SLP281 T01111028 10111 20017 58006=
201112101652 METAR KATL 101652Z 34008KT 10SM FEW250 11/M02 A3037 RMK AO2 SLP287 T01111022=
201112101552 METAR KATL 101552Z 35008KT 10SM FEW250 09/M04 A3037 RMK AO2 SLP288 T00941039=
201112101452 METAR KATL 101452Z 35009KT 10SM SCT250 06/M03 A3037 RMK AO2 SLP288 T00611028 53022=
201112101352 METAR KATL 101352Z 34010KT 10SM BKN250 04/M03 A3035 RMK AO2 SLP282 T00391028=
201112101252 METAR KATL 101252Z 32009KT 10SM FEW120 SCT180 SCT250 02/M03 A3032 RMK AO2 SLP273 T00221033=
201112101152 METAR KATL 101152Z 31011KT 10SM SCT150 BKN200 02/M03 A3030 RMK AO2 SLP266 T00221028 10050 20022 53013=
201112101052 METAR KATL 101052Z 30008KT 10SM SCT150 OVC200 03/M03 A3029 RMK AO2 SLP262 T00281028=
201112100952 METAR KATL 100952Z 31006KT 10SM FEW140 BKN200 03/M02 A3027 RMK AO2 SLP255 T00281022=
201112100852 METAR KATL 100852Z 32007KT 10SM SCT140 BKN200 03/M02 A3026 RMK AO2 SLP252 T00331022 50003=
201112100752 METAR KATL 100752Z 32008KT 10SM SCT140 SCT200 04/M02 A3026 RMK AO2 SLP252 T00391017=
201112100652 METAR KATL 100652Z 32007KT 10SM SCT120 SCT200 04/M01 A3025 RMK AO2 SLP247 T00441006=
201112100552 METAR KATL 100552Z 31008KT 10SM FEW200 BKN250 05/00 A3025 RMK AO2 SLP247 T00500000 10100 20050 58002=
201112100452 METAR KATL 100452Z 31008KT 10SM FEW110 SCT200 BKN250 06/01 A3026 RMK AO2 SLP252 T00610006 401330017=
201112100352 METAR KATL 100352Z 32007KT 10SM FEW110 SCT180 BKN250 07/01 A3027 RMK AO2 SLP252 T00720006=
201112100252 METAR KATL 100252Z 33006KT 10SM BKN110 BKN180 OVC250 08/01 A3026 RMK AO2 SLP250 T00830006 51009=
201112100152 METAR KATL 100152Z 33006KT 10SM FEW100 BKN180 OVC250 09/00 A3025 RMK AO2 SLP247 T00890000=
201112100052 METAR KATL 100052Z 28003KT 10SM OVC100 09/M01 A3025 RMK AO2 SLP250 T00941006=
201112092352 METAR KATL 092352Z 30003KT 10SM BKN110 BKN200 OVC250 09/M01 A3023 RMK AO2 SLP243 T00941006 10133 20089 53006=
201112092252 METAR KATL 092252Z 33003KT 10SM BKN200 OVC250 11/M02 A3021 RMK AO2 SLP235 T01061022=
201112092152 METAR KATL 092152Z 30006KT 10SM FEW150 BKN200 BKN250 11/M01 A3022 RMK AO2 SLP239 T01111011=
201112092052 METAR KATL 092052Z 00000KT 10SM BKN200 BKN250 12/M02 A3022 RMK AO2 SLP236 T01221017 55010=
201112091952 METAR KATL 091952Z 00000KT 10SM BKN200 OVC250 12/M03 A3021 RMK AO2 SLP234 T01221028=
201112091852 METAR KATL 091852Z 30004KT 10SM BKN200 OVC250 12/M02 A3022 RMK AO2 SLP238 T01221022=
201112091752 METAR KATL 091752Z 20003KT 10SM FEW150 BKN200 BKN250 12/M02 A3024 RMK AO2 SLP244 T01221022 10122 20017 58015=
201112091652 METAR KATL 091652Z 00000KT 10SM BKN250 11/M02 A3028 RMK AO2 SLP257 T01111022=
201112091552 METAR KATL 091552Z 00000KT 10SM SCT250 10/M02 A3029 RMK AO2 SLP261 T01001017=
201112091452 METAR KATL 091452Z 10003KT 10SM FEW250 08/M01 A3029 RMK AO2 SLP262 T00831011 53013=
201112091352 METAR KATL 091352Z 05004KT 10SM FEW250 06/M02 A3028 RMK AO2 SLP258 T00561017=
201112091252 METAR KATL 091252Z 07007KT 10SM FEW150 SCT220 02/M02 A3026 RMK AO2 SLP251 T00221017=
201112091152 METAR KATL 091152Z 08005KT 10SM FEW180 BKN220 03/M02 A3025 RMK AO2 SLP250 T00281017 10061 20028 53002=
201112091052 METAR KATL 091052Z 08004KT 10SM OVC220 04/M01 A3025 RMK AO2 SLP246 T00391011=
201112090952 METAR KATL 090952Z 00000KT 10SM OVC220 04/M01 A3025 RMK AO2 SLP247 T00391011=
201112090852 METAR KATL 090852Z 00000KT 10SM SCT200 BKN250 03/M01 A3025 RMK AO2 SLP246 T00331011 53005=
201112090752 METAR KATL 090752Z 00000KT 10SM SCT200 05/M02 A3023 RMK AO2 SLP240 T00501017=
201112090652 METAR KATL 090652Z 12003KT 10SM BKN220 06/M02 A3023 RMK AO2 SLP240 T00561017=
201112090552 METAR KATL 090552Z 12005KT 10SM BKN200 BKN250 06/M02 A3023 RMK AO2 SLP241 T00611017 10094 20061 58007=
201112090452 METAR KATL 090452Z 13005KT 10SM OVC200 07/M02 A3025 RMK AO2 SLP246 T00671017 401220000=
201112090352 METAR KATL 090352Z 11004KT 10SM OVC200 07/M02 A3026 RMK AO2 SLP250 T00671017=
201112090252 METAR KATL 090252Z 13004KT 10SM BKN200 BKN250 07/M02 A3025 RMK AO2 SLP249 T00721022 50005=
201112090152 METAR KATL 090152Z 13004KT 10SM BKN200 BKN250 08/M02 A3025 RMK AO2 SLP251 T00781022=
201112090052 METAR KATL 090052Z 12003KT 10SM FEW200 BKN250 08/M03 A3025 RMK AO2 SLP249 T00831033=
201112082352 METAR KATL 082352Z 13003KT 10SM FEW200 BKN250 09/M04 A3024 RMK AO2 SLP245 T00941044 10122 20083 53001=
201112082252 METAR KATL 082252Z 10003KT 10SM SCT200 BKN250 10/M04 A3023 RMK AO2 SLP241 T01001044=
201112082152 SPECI KATL 082152Z 08004KT 10SM FEW140 BKN250 11/M05 A3022 RMK AO2 SLP240 T01061050=
201112082052 METAR KATL 082052Z 16004KT 10SM FEW140 BKN250 12/M06 A3023 RMK AO2 SLP243 T01171056 56012=
201112081952 METAR KATL 081952Z 00000KT 10SM FEW140 SCT250 12/M05 A3024 RMK AO2 SLP246 FU WEST T01171050=
201112081852 METAR KATL 081852Z 28006KT 10SM FEW140 SCT250 11/M04 A3026 RMK AO2 SLP251 T01111039=
201112081752 METAR KATL 081752Z 00000KT 10SM FEW250 09/M05 A3027 RMK AO2 SLP255 T00941050 10094 20000 58003=
201112081652 METAR KATL 081652Z 00000KT 10SM FEW250 08/M04 A3029 RMK AO2 SLP263 T00831044=
201112081552 METAR KATL 081552Z 00000KT 10SM SCT250 06/M04 A3029 RMK AO2 SLP264 T00611039=
201112081452 METAR KATL 081452Z 31005KT 10SM SCT250 03/M03 A3028 RMK AO2 SLP260 T00331028 53017=
201112081352 METAR KATL 081352Z 32006KT 10SM SCT250 01/M03 A3024 RMK AO2 SLP247 T00061033=
201112081252 METAR KATL 081252Z 33005KT 10SM SCT250 00/M04 A3024 RMK AO2 SLP247 T00001039=
201112081152 METAR KATL 081152Z 33009KT 10SM FEW250 00/M04 A3023 RMK AO2 SLP243 70020 T00001039 10033 20000 53007=
201112081052 METAR KATL 081052Z 34011KT 10SM CLR 01/M04 A3022 RMK AO2 SLP240 T00061039=
201112080952 METAR KATL 080952Z 34010KT 10SM CLR 01/M03 A3021 RMK AO2 SLP237 T00111033=
201112080852 METAR KATL 080852Z 33007KT 10SM CLR 02/M03 A3020 RMK AO2 SLP235 T00171033 53007=
201112080752 METAR KATL 080752Z 33010KT 10SM CLR 02/M03 A3018 RMK AO2 SLP226 T00171033=
201112080652 METAR KATL 080652Z 33011G20KT 10SM FEW032 02/M03 A3016 RMK AO2 SLP219 T00221033=
201112080552 METAR KATL 080552Z 34017G21KT 10SM BKN032 03/M03 A3018 RMK AO2 PRESFR SLP225 60000 T00331033 10044 20033 50011=
201112080452 METAR KATL 080452Z 29013G20KT 10SM OVC032 03/M03 A3020 RMK AO2 SLP233 T00331028 401390033=
201112080352 METAR KATL 080352Z 31011G18KT 10SM FEW021 SCT028 OVC033 04/M02 A3017 RMK AO2 SLP221 T00391017=
201112080252 METAR KATL 080252Z 32006G20KT 10SM FEW017 SCT025 OVC034 03/M01 A3015 RMK AO2 RAB37E44 SLP213 P0000 60000 T00331006 53029=
201112080152 METAR KATL 080152Z 32017G23KT 10SM FEW022 OVC028 04/M01 A3012 RMK AO2 PK WND 32029/0111 SLP203 T00391011=
201112080052 METAR KATL 080052Z 32011G21KT 10SM FEW020 BKN026 OVC032 04/00 A3008 RMK AO2 SLP191 T00440000=
201112072352 METAR KATL 072352Z 30019G24KT 10SM BKN022 OVC028 04/01 A3006 RMK AO2 PRESRR SLP182 60000 T00440006 10078 20044 53037=
201112072252 METAR KATL 072252Z 31018G24KT 10SM BKN022 BKN028 04/01 A3000 RMK AO2 PK WND 30026/2214 SLP161 T00440006=
201112072152 METAR KATL 072152Z 29017G32KT 10SM BKN024 BKN031 05/01 A2997 RMK AO2 PK WND 28032/2145 SLP151 T00500006=
201112072052 METAR KATL 072052Z 29020G31KT 10SM BKN023 OVC028 06/01 A2995 RMK AO2 PK WND 30031/2043 RAE00 SLP144 P0000 60000 T00560011 53025=
201112071952 METAR KATL 071952Z 27016G26KT 7SM -RA OVC021 06/03 A2991 RMK AO2 PK WND 26030/1937 RAB41 SLP131 P0000 T00560028=
201112071852 METAR KATL 071852Z 27018G31KT 10SM BKN017 OVC022 07/03 A2988 RMK AO2 PK WND 28031/1849 RAE06 SLP121 P0000 T00670033=
201112071756 SPECI KATL 071756Z 27016G32KT 3SM -RA BR FEW008 BKN015 OVC022 07/05 A2988 RMK AO2 SFC VIS 3 P0000=
201112071756 SPECI KATL 071756Z 27016G32KT 3SM -RA BR FEW008 BKN015 OVC022 07/05 A2988 RMK AO2 SFC VIS 3 P0000=
201112071752 METAR KATL 071752Z 26018G32KT 3SM -RA BR BKN010 BKN015 OVC022 07/05 A2987 RMK AO2 PK WND 27032/1748 RAE14B31 SLP116 P0001 60020 T00720050 10117 20072 50006=
201112071735 SPECI KATL 071735Z 25016G23KT 7SM -RA OVC013 08/06 A2986 RMK AO2 RAE14B31 P0000=
201112071735 SPECI KATL 071735Z 25016G23KT 7SM -RA OVC013 08/06 A2986 RMK AO2 RAE14B31 P0000=
201112071719 SPECI KATL 071719Z 25013G20KT 2 1/2SM BKN013 OVC027 08/06 A2986 RMK AO2 SFC VIS 10 RAE14 P0000=
201112071719 SPECI KATL 071719Z 25013G20KT 2 1/2SM BKN013 OVC027 08/06 A2986 RMK AO2 SFC VIS 10 RAE14 P0000=
201112071652 METAR KATL 071652Z 26018G29KT 2 1/2SM -RA BR SCT009 BKN016 OVC022 09/07 A2988 RMK AO2 PK WND 26029/1651 SFC VIS 5 RAB1558 SLP118 P0001 T00890067=
201112071647 SPECI KATL 071647Z 26016G28KT 2 1/2SM -RA BR BKN009 BKN016 OVC022 09/07 A2986 RMK AO2 PK WND 25028/1643 SFC VIS 3 RAB1558 P0001=
201112071647 SPECI KATL 071647Z 26016G28KT 2 1/2SM -RA BR BKN009 BKN016 OVC022 09/07 A2986 RMK AO2 PK WND 25028/1643 SFC VIS 3 RAB1558 P0001=
201112071619 SPECI KATL 071619Z 25013G19KT 2 1/2SM -RA BKN011 BKN018 OVC034 10/08 A2986 RMK AO2 SFC VIS 10 RAB1558 P0000=
201112071619 SPECI KATL 071619Z 25013G19KT 2 1/2SM -RA BKN011 BKN018 OVC034 10/08 A2986 RMK AO2 SFC VIS 10 RAB1558 P0000=
201112071552 METAR KATL 071552Z 25012KT 2 1/2SM SCT011 BKN016 OVC042 10/08 A2986 RMK AO2 SFC VIS 10 RAE49 SLP108 P0004 T01000083=
201112071542 SPECI KATL 071542Z 24013G17KT 2 1/2SM -RA BR BKN011 BKN028 OVC033 10/08 A2986 RMK AO2 SFC VIS 6 P0004=
201112071542 SPECI KATL 071542Z 24013G17KT 2 1/2SM -RA BR BKN011 BKN028 OVC033 10/08 A2986 RMK AO2 SFC VIS 6 P0004=
201112071511 SPECI KATL 071511Z 28010KT 2SM RA BR FEW009 BKN015 OVC032 11/09 A2986 RMK AO2 SFC VIS 6 BKN015 V SCT P0002=
201112071511 SPECI KATL 071511Z 28010KT 2SM RA BR FEW009 BKN015 OVC032 11/09 A2986 RMK AO2 SFC VIS 6 BKN015 V SCT P0002=
201112071505 SPECI KATL 071505Z 27008KT 2SM RA BR FEW009 BKN023 OVC030 11/09 A2987 RMK AO2 SFC VIS 6 SCT020 V BKN P0001=
201112071505 SPECI KATL 071505Z 27008KT 2SM RA BR FEW009 BKN023 OVC030 11/09 A2987 RMK AO2 SFC VIS 6 SCT020 V BKN P0001=
201112071452 METAR KATL 071452Z 27009KT 2SM -RA BR BKN005 BKN010 OVC020 11/09 A2987 RMK AO2 SFC VIS 6 SLP111 BKN005 V SCT CIG004V008 P0011 60014 T01060089 53001=
201112071437 SPECI KATL 071437Z 28011G14KT 2SM R09R/6000VP6000FT -RA BR BKN005 BKN010 OVC016 11/09 A2987 RMK AO2 SFC VIS 3 BKN005 V SCT CIG004V008 P0010=
201112071437 SPECI KATL 071437Z 28011G14KT 2SM R09R/6000VP6000FT -RA BR BKN005 BKN010 OVC016 11/09 A2987 RMK AO2 SFC VIS 3 BKN005 V SCT CIG004V008 P0010=
201112071406 SPECI KATL 071406Z 28006KT 2SM R09R/6000VP6000FT RA BR SCT006 BKN014 OVC022 11/09 A2986 RMK AO2 P0003=
201112071406 SPECI KATL 071406Z 28006KT 2SM R09R/6000VP6000FT RA BR SCT006 BKN014 OVC022 11/09 A2986 RMK AO2 P0003=
201112071352 METAR KATL 071352Z 26005KT 3SM -RA BR BKN006 OVC013 11/10 A2986 RMK AO2 SFC VIS 4 SLP109 P0002 T01110100=
201112071252 METAR KATL 071252Z 26005KT 3SM -RA BR SCT004 BKN012 OVC024 11/10 A2986 RMK AO2 SFC VIS 6 SLP109 P0001 T01110100=
201112071152 METAR KATL 071152Z 28005KT 3SM -RA BR BKN004 OVC016 12/11 A2988 RMK AO2 SFC VIS 6 RAB1059E15B46 SLP115 P0001 60001 70057 T01170106 10133 20117 55006=
201112071052 METAR KATL 071052Z 28005KT 3SM BKN004 OVC008 12/11 A2987 RMK AO2 SFC VIS 7 SLP113 T01220106=
201112070952 METAR KATL 070952Z 32005KT 3SM BR BKN004 OVC011 12/11 A2988 RMK AO2 SFC VIS 6 SLP115 T01220106=
201112070915 SPECI KATL 070915Z 31005KT 3SM BKN004 OVC009 12/11 A2990 RMK AO2 SFC VIS 7=
201112070915 SPECI KATL 070915Z 31005KT 3SM BKN004 OVC009 12/11 A2990 RMK AO2 SFC VIS 7=
201112070852 METAR KATL 070852Z 33006KT 1SM BR BKN004 OVC009 12/11 A2990 RMK AO2 SFC VIS 6 SLP121 60000 T01220111 58014=
201112070752 METAR KATL 070752Z 29006KT 1SM BR BKN004 OVC011 12/12 A2993 RMK AO2 SFC VIS 5 RAB24E34 SLP132 P0000 T01220117=
201112070652 METAR KATL 070652Z 30007KT 1SM BR BKN004 OVC007 12/12 A2993 RMK AO2 SFC VIS 6 RAE30 SLP131 P0000 T01220117=
201112070629 SPECI KATL 070629Z 29008KT 1SM -RA BR BKN004 OVC007 13/12 A2994 RMK AO2 SFC VIS 3 P0000=
201112070629 SPECI KATL 070629Z 29008KT 1SM -RA BR BKN004 OVC007 13/12 A2994 RMK AO2 SFC VIS 3 P0000=
201112070621 SPECI KATL 070621Z 30010KT 1SM -RA BR BKN006 OVC013 13/12 A2994 RMK AO2 SFC VIS 3 P0000=
201112070621 SPECI KATL 070621Z 30010KT 1SM -RA BR BKN006 OVC013 13/12 A2994 RMK AO2 SFC VIS 3 P0000=
201112070552 METAR KATL 070552Z 31007KT 3SM -RA BR BKN006 BKN013 OVC040 13/12 A2994 RMK AO2 SLP135 P0007 60034 T01330122 10178 20133 58010=
201112070541 SPECI KATL 070541Z 31004KT 2 1/2SM -RA BR SCT007 BKN013 OVC040 13/12 A2994 RMK AO2 P0005=
201112070541 SPECI KATL 070541Z 31004KT 2 1/2SM -RA BR SCT007 BKN013 OVC040 13/12 A2994 RMK AO2 P0005=
201112070533 SPECI KATL 070533Z 32004KT 2 1/2SM RA BR FEW007 BKN015 OVC040 13/12 A2994 RMK AO2 P0004=
201112070533 SPECI KATL 070533Z 32004KT 2 1/2SM RA BR FEW007 BKN015 OVC040 13/12 A2994 RMK AO2 P0004=
201112070452 METAR KATL 070452Z 32008KT 8SM -RA FEW005 BKN015 OVC030 14/13 A2996 RMK AO2 SLP141 P0006 T01390128 402110139=
201112070414 SPECI KATL 070414Z 22009KT 6SM -RA BR BKN007 BKN012 OVC030 18/17 A2996 RMK AO2 P0001=
201112070414 SPECI KATL 070414Z 22009KT 6SM -RA BR BKN007 BKN012 OVC030 18/17 A2996 RMK AO2 P0001=
201112070352 METAR KATL 070352Z 21008KT 4SM -RA BR SCT007 BKN012 OVC030 18/17 A2996 RMK AO2 SLP140 P0011 T01780167=
201112070252 METAR KATL 070252Z 22007KT 4SM RA BR SCT007 BKN020 OVC050 18/17 A2997 RMK AO2 SLP145 P0008 60010 T01780167 58004=
201112070237 SPECI KATL 070237Z 21009KT 5SM -RA BR SCT006 BKN025 OVC040 18/17 A2997 RMK AO2 P0004=
201112070237 SPECI KATL 070237Z 21009KT 5SM -RA BR SCT006 BKN025 OVC040 18/17 A2997 RMK AO2 P0004=
201112070230 SPECI KATL 070230Z 21009KT 2 1/2SM +RA BR SCT006 BKN012 OVC025 18/17 A2997 RMK AO2 P0003=
201112070230 SPECI KATL 070230Z 21009KT 2 1/2SM +RA BR SCT006 BKN012 OVC025 18/17 A2997 RMK AO2 P0003=
201112070213 SPECI KATL 070213Z 20007KT 6SM -RA BR SCT006 BKN012 OVC040 18/17 A2997 RMK AO2 P0001=
201112070213 SPECI KATL 070213Z 20007KT 6SM -RA BR SCT006 BKN012 OVC040 18/17 A2997 RMK AO2 P0001=
201112070152 METAR KATL 070152Z 20007KT 6SM -RA BR FEW004 BKN050 OVC100 18/17 A2998 RMK AO2 RAE23B50 SLP148 P0002 T01780167=
201112070122 SPECI KATL 070122Z 19006KT 9SM -RA FEW004 SCT010 OVC038 17/16 A2998 RMK AO2 P0002=
201112070122 SPECI KATL 070122Z 19006KT 9SM -RA FEW004 SCT010 OVC038 17/16 A2998 RMK AO2 P0002=
201112070052 METAR KATL 070052Z 15004KT 9SM -RA FEW004 OVC010 17/16 A2999 RMK AO2 RAB51 SLP151 P0000 T01720161=
201112062357 SPECI KATL 062357Z 14004KT 8SM FEW004 BKN013 OVC022 17/16 A2998 RMK AO2=
201112062357 SPECI KATL 062357Z 14004KT 8SM FEW004 BKN013 OVC022 17/16 A2998 RMK AO2=
201112062352 METAR KATL 062352Z 15004KT 10SM FEW004 BKN015 OVC022 17/16 A2998 RMK AO2 RAB2257E34 SLP150 P0002 60022 T01720161 10211 20172 58010=
201112062321 SPECI KATL 062321Z 13003KT 6SM -RA BR FEW006 BKN024 OVC050 17/16 A2999 RMK AO2 RAB2257 P0002=
201112062321 SPECI KATL 062321Z 13003KT 6SM -RA BR FEW006 BKN024 OVC050 17/16 A2999 RMK AO2 RAB2257 P0002=
201112062312 SPECI KATL 062312Z 00000KT 5SM -RA BR FEW004 SCT026 OVC060 17/16 A2999 RMK AO2 RAB2257 P0002=
201112062312 SPECI KATL 062312Z 00000KT 5SM -RA BR FEW004 SCT026 OVC060 17/16 A2999 RMK AO2 RAB2257 P0002=
201112062252 METAR KATL 062252Z 00000KT 10SM FEW004 BKN026 OVC035 17/16 A3000 RMK AO2 RAE16 SLP155 P0003 T01720161=
201112062216 SPECI KATL 062216Z 31004KT 6SM BR FEW004 BKN025 OVC035 17/16 A3000 RMK AO2 RAE16 P0003=
201112062216 SPECI KATL 062216Z 31004KT 6SM BR FEW004 BKN025 OVC035 17/16 A3000 RMK AO2 RAE16 P0003=
201112062201 SPECI KATL 062201Z 30005KT 2SM RA BR FEW007 BKN012 OVC018 18/16 A3001 RMK AO2 P0002=
201112062201 SPECI KATL 062201Z 30005KT 2SM RA BR FEW007 BKN012 OVC018 18/16 A3001 RMK AO2 P0002=
201112062152 METAR KATL 062152Z 31007KT 3SM -RA BR BKN007 OVC011 18/16 A3001 RMK AO2 SFC VIS 4 SLP156 CIG 004V009 P0007 T01780161=
201112062130 SPECI KATL 062130Z 31003KT 2 1/2SM R09R/5500VP6000FT RA BR BKN006 OVC011 18/16 A3001 RMK AO2 P0003=
201112062130 SPECI KATL 062130Z 31003KT 2 1/2SM R09R/5500VP6000FT RA BR BKN006 OVC011 18/16 A3001 RMK AO2 P0003=
201112062109 SPECI KATL 062109Z 31004KT 10SM SCT006 BKN011 OVC024 18/17 A3001 RMK AO2 RAE05 P0000=
201112062109 SPECI KATL 062109Z 31004KT 10SM SCT006 BKN011 OVC024 18/17 A3001 RMK AO2 RAE05 P0000=
201112062052 METAR KATL 062052Z 00000KT 8SM -RA FEW005 BKN016 OVC024 18/17 A3001 RMK AO2 SLP159 P0004 60010 T01780167 51001=
201112062039 SPECI KATL 062039Z 30004KT 10SM FEW004 SCT008 OVC018 18/17 A3001 RMK AO2 RAE37 P0004=
201112062039 SPECI KATL 062039Z 30004KT 10SM FEW004 SCT008 OVC018 18/17 A3001 RMK AO2 RAE37 P0004=
201112062025 SPECI KATL 062025Z 30005KT 4SM -RA BR SCT004 BKN016 BKN060 18/17 A3001 RMK AO2 P0004=
201112062025 SPECI KATL 062025Z 30005KT 4SM -RA BR SCT004 BKN016 BKN060 18/17 A3001 RMK AO2 P0004=
201112062011 SPECI KATL 062011Z 30005KT 3SM R09R/5000VP6000FT -RA BR SCT006 OVC012 18/17 A3002 RMK AO2 P0002=
201112062011 SPECI KATL 062011Z 30005KT 3SM R09R/5000VP6000FT -RA BR SCT006 OVC012 18/17 A3002 RMK AO2 P0002=
201112061959 SPECI KATL 061959Z 26008KT 1 1/2SM R09R/5000VP6000FT -RA BR BKN006 OVC010 18/17 A3002 RMK AO2 P0001=
201112061959 SPECI KATL 061959Z 26008KT 1 1/2SM R09R/5000VP6000FT -RA BR BKN006 OVC010 18/17 A3002 RMK AO2 P0001=
201112061952 METAR KATL 061952Z 24004KT 2SM R09R/5000VP6000FT -RA BR SCT006 BKN009 OVC020 18/17 A3001 RMK AO2 RAB1857E11B33 SLP159 VIS N-E1 1/4 P0006 T01830172=
201112061948 SPECI KATL 061948Z 25005KT 1SM R09R/5000VP6000FT RA BR FEW006 BKN009 OVC014 19/17 A3001 RMK AO2 RAB1857E11B33 P0005=
201112061948 SPECI KATL 061948Z 25005KT 1SM R09R/5000VP6000FT RA BR FEW006 BKN009 OVC014 19/17 A3001 RMK AO2 RAB1857E11B33 P0005=
201112061938 SPECI KATL 061938Z 24007KT 1 1/2SM R09R/5500VP6000FT RA BR FEW009 BKN014 OVC028 19/17 A3001 RMK AO2 RAB1857E11B33 P0001=
201112061938 SPECI KATL 061938Z 24007KT 1 1/2SM R09R/5500VP6000FT RA BR FEW009 BKN014 OVC028 19/17 A3001 RMK AO2 RAB1857E11B33 P0001=
201112061859 SPECI KATL 061859Z 21014KT 8SM -RA BKN018 OVC038 20/16 A3001 RMK AO2 RAB57 P0000=
201112061859 SPECI KATL 061859Z 21014KT 8SM -RA BKN018 OVC038 20/16 A3001 RMK AO2 RAB57 P0000=
201112061852 METAR KATL 061852Z 20011KT 10SM SCT018 OVC038 21/17 A3001 RMK AO2 SLP157 T02060167=
201112061843 SPECI KATL 061843Z 20009KT 10SM FEW015 SCT024 OVC038 21/17 A3001 RMK AO2=
201112061843 SPECI KATL 061843Z 20009KT 10SM FEW015 SCT024 OVC038 21/17 A3001 RMK AO2=
201112061752 METAR KATL 061752Z 19012KT 10SM BKN015 BKN021 OVC037 19/16 A3002 RMK AO2 SLP162 CIG 013V017 60000 T01940161 10194 20161 58017=
201112061652 METAR KATL 061652Z 19010G17KT 10SM OVC011 19/16 A3006 RMK AO2 SLP173 T01890161=
201112061624 SPECI KATL 061624Z 18011KT 8SM SCT007 BKN011 OVC043 19/16 A3006 RMK AO2=
201112061624 SPECI KATL 061624Z 18011KT 8SM SCT007 BKN011 OVC043 19/16 A3006 RMK AO2=
201112061552 METAR KATL 061552Z 18010KT 7SM OVC007 18/16 A3007 RMK AO2 RAB09E37 SLP178 P0000 T01780161=
201112061452 METAR KATL 061452Z 19013KT 7SM OVC007 17/16 A3008 RMK AO2 SLP180 60000 T01720156 53005=
201112061413 SPECI KATL 061413Z 19008KT 7SM BKN007 OVC012 17/15 A3007 RMK AO2=
201112061413 SPECI KATL 061413Z 19008KT 7SM BKN007 OVC012 17/15 A3007 RMK AO2=
201112061352 METAR KATL 061352Z 19012G17KT 7SM FEW009 BKN012 OVC100 17/14 A3007 RMK AO2 SLP177 T01670144=
201112061328 SPECI KATL 061328Z 18009KT 10SM BKN014 BKN022 BKN100 16/14 A3006 RMK AO2=
201112061328 SPECI KATL 061328Z 18009KT 10SM BKN014 BKN022 BKN100 16/14 A3006 RMK AO2=
201112061312 SPECI KATL 061312Z 19009KT 10SM FEW006 SCT014 BKN022 16/14 A3006 RMK AO2=
201112061312 SPECI KATL 061312Z 19009KT 10SM FEW006 SCT014 BKN022 16/14 A3006 RMK AO2=
201112061252 METAR KATL 061252Z 17008KT 7SM FEW009 BKN012 OVC024 16/14 A3006 RMK AO2 RAE09 SLP175 P0000 T01610144=
201112061152 METAR KATL 061152Z 18009KT 3SM -RA BR OVC009 16/14 A3006 RMK AO2 SFC VIS 6 RAB12E26B43 SLP175 P0000 60002 70002 T01610144 10178 20161 55001=
201112061110 SPECI KATL 061110Z 18013KT 3SM BR OVC006 17/16 A3004 RMK AO2 SFC VIS 5=
201112061110 SPECI KATL 061110Z 18013KT 3SM BR OVC006 17/16 A3004 RMK AO2 SFC VIS 5=
201112061052 METAR KATL 061052Z 18013KT 6SM BR BKN006 OVC027 17/16 A3004 RMK AO2 RAE15B34E43 SLP170 P0000 T01670156=
201112060952 METAR KATL 060952Z 17009KT 6SM -RA BR BKN006 BKN015 OVC030 17/15 A3005 RMK AO2 RAB36 SLP171 P0000 T01670150=
201112060852 METAR KATL 060852Z 18008KT 6SM BR BKN008 BKN015 OVC048 16/14 A3006 RMK AO2 RAE0754 SLP175 P0000 60002 T01610144 55008=
201112060823 SPECI KATL 060823Z 17008KT 10SM BKN010 BKN015 OVC050 16/14 A3006 RMK AO2 RAE0754 P0000=
201112060823 SPECI KATL 060823Z 17008KT 10SM BKN010 BKN015 OVC050 16/14 A3006 RMK AO2 RAE0754 P0000=
201112060752 METAR KATL 060752Z 17009KT 7SM -RA FEW015 BKN023 OVC034 16/14 A3006 RMK AO2 RAB0657 SLP175 P0002 T01610144=
201112060727 SPECI KATL 060727Z 18008KT 5SM -RA BR SCT019 BKN027 OVC037 17/14 A3007 RMK AO2 RAB0657 P0001=
201112060727 SPECI KATL 060727Z 18008KT 5SM -RA BR SCT019 BKN027 OVC037 17/14 A3007 RMK AO2 RAB0657 P0001=
201112060652 METAR KATL 060652Z 16007KT 10SM FEW019 SCT037 OVC048 17/13 A3006 RMK AO2 RAE44 SLP175 P0000 T01720133=
201112060552 METAR KATL 060552Z 18010KT 10SM -RA FEW040 BKN048 OVC055 18/13 A3009 RMK AO2 RAB50 SLP183 P0000 60000 T01780128 10189 20178 58003=
201112060452 METAR KATL 060452Z 16008KT 10SM OVC055 18/12 A3009 RMK AO2 SLP184 T01830122 402170106=
201112060352 METAR KATL 060352Z 17009KT 10SM BKN055 OVC070 18/12 A3010 RMK AO2 SLP187 T01830122=
201112060252 METAR KATL 060252Z 14005KT 10SM FEW045 OVC060 18/12 A3010 RMK AO2 SLP188 T01830117 58003=
201112060152 METAR KATL 060152Z 14006KT 10SM FEW040 BKN065 OVC090 18/12 A3010 RMK AO2 SLP191 T01830122=
201112060052 METAR KATL 060052Z 13006KT 10SM FEW040 OVC065 19/12 A3010 RMK AO2 SLP191 T01890117=
201112052352 METAR KATL 052352Z 13003KT 10SM BKN042 OVC070 19/12 A3011 RMK AO2 SLP192 T01890117 10217 20183 53011=
201112052252 METAR KATL 052252Z 18006KT 10SM SCT035 BKN070 OVC090 19/11 A3009 RMK AO2 SLP188 T01890111=
201112052152 METAR KATL 052152Z 18008KT 10SM FEW045 BKN090 BKN250 19/11 A3008 RMK AO2 SLP183 T01940111=
201112052052 METAR KATL 052052Z 17011G18KT 10SM FEW040 SCT065 BKN250 20/11 A3007 RMK AO2 SLP180 FEW040 V SCT T02000106 56020=
201112051952 METAR KATL 051952Z 18013G20KT 10SM FEW035 SCT065 BKN250 21/11 A3008 RMK AO2 SLP182 T02060106=
201112051852 METAR KATL 051852Z 16010G17KT 10SM SCT025 SCT060 BKN250 21/12 A3011 RMK AO2 SLP193 CIG019V025 T02060117=
201112051810 SPECI KATL 051810Z 17011G19KT 10SM R09R/6000VP6000FT SCT021 BKN250 19/12 A3012 RMK AO2 CIG019V025=
201112051810 SPECI KATL 051810Z 17011G19KT 10SM R09R/6000VP6000FT SCT021 BKN250 19/12 A3012 RMK AO2 CIG019V025=
201112051752 METAR KATL 051752Z COR 15014G21KT 10SM BKN019 BKN250 18/12 A3013 RMK AO2 SLP202 CIG 017V024 BKN019 V SCT T01830122 10183 20117 58027=
201112051727 SPECI KATL 051727Z 15010KT 10SM BKN019 18/12 A3015 RMK AO2=
201112051727 SPECI KATL 051727Z 15010KT 10SM BKN019 18/12 A3015 RMK AO2=
201112051712 SPECI KATL 051712Z 17011KT 10SM FEW014 SCT022 BKN250 17/12 A3016 RMK AO2=
201112051712 SPECI KATL 051712Z 17011KT 10SM FEW014 SCT022 BKN250 17/12 A3016 RMK AO2=
201112051706 SPECI KATL 051706Z 15011G15KT 10SM SCT014 BKN025 BKN250 18/12 A3016 RMK AO2=
201112051706 SPECI KATL 051706Z 15011G15KT 10SM SCT014 BKN025 BKN250 18/12 A3016 RMK AO2=
201112051652 METAR KATL 051652Z 14007KT 10SM BKN012 BKN050 BKN250 17/12 A3017 RMK AO2 SLP216 CIG 010V015 BKN012 V SCT T01670117=
201112051616 SPECI KATL 051616Z 15008KT 10SM SCT014 BKN025 16/11 A3019 RMK AO2 SCT014 V BKN=
201112051616 SPECI KATL 051616Z 15008KT 10SM SCT014 BKN025 16/11 A3019 RMK AO2 SCT014 V BKN=
201112051612 SPECI KATL 051612Z 15009G15KT 10SM BKN014 BKN250 16/11 A3019 RMK AO2=
201112051612 SPECI KATL 051612Z 15009G15KT 10SM BKN014 BKN250 16/11 A3019 RMK AO2=
201112051552 METAR KATL 051552Z 14008KT 10SM BKN009 BKN050 BKN250 16/11 A3020 RMK AO2 SLP226 T01560111=
201112051452 METAR KATL 051452Z 13007KT 10SM R09R/2400VP6000FT BKN009 OVC050 13/10 A3022 RMK AO2 SLP233 T01330100 53002=
201112051352 METAR KATL 051352Z 10005KT 10SM BKN009 OVC050 12/09 A3021 RMK AO2 SLP232 T01220089=
201112051252 METAR KATL 051252Z 10009KT 10SM BKN009 BKN055 BKN250 12/08 A3021 RMK AO2 SLP230 T01170083=
201112051152 METAR KATL 051152Z 09008KT 10SM OVC009 12/08 A3021 RMK AO2 SLP231 T01170083 10122 20106 55002=
201112051052 METAR KATL 051052Z 11006KT 10SM BKN009 OVC030 12/08 A3021 RMK AO2 SLP229 T01170083=
201112050952 METAR KATL 050952Z 11008KT 10SM BKN009 OVC055 12/08 A3021 RMK AO2 SLP228 T01220083=
201112050913 SPECI KATL 050913Z 09008KT 10SM BKN011 OVC055 12/08 A3021 RMK AO2=
201112050913 SPECI KATL 050913Z 09008KT 10SM BKN011 OVC055 12/08 A3021 RMK AO2=
201112050852 METAR KATL 050852Z 09007KT 10SM BKN055 BKN150 OVC250 12/08 A3022 RMK AO2 SLP232 T01170078 56010=
201112050752 METAR KATL 050752Z 09008KT 10SM SCT055 SCT250 11/07 A3022 RMK AO2 SLP233 T01110072=
201112050652 METAR KATL 050652Z 09008KT 10SM SCT055 BKN150 BKN250 11/07 A3023 RMK AO2 SLP236 T01110072=
201112050552 METAR KATL 050552Z 09008KT 10SM FEW024 BKN055 BKN250 11/07 A3025 RMK AO2 SLP244 T01110072 10128 20106 58012=
201112050452 METAR KATL 050452Z 10008KT 10SM SCT055 BKN250 12/07 A3026 RMK AO2 SLP246 T01170067 401670061=
201112050352 METAR KATL 050352Z 09007KT 10SM FEW032 SCT055 BKN250 11/06 A3029 RMK AO2 SLP258 T01060061=
201112050252 METAR KATL 050252Z 10008KT 10SM CLR 11/06 A3029 RMK AO2 SLP257 T01110061 50001=
201112050152 METAR KATL 050152Z 09008KT 10SM FEW033 SCT250 12/06 A3029 RMK AO2 SLP259 T01170061=
201112050052 METAR KATL 050052Z 09008KT 10SM BKN034 BKN060 13/06 A3029 RMK AO2 SLP259 T01280056=
201112042352 METAR KATL 042352Z 09007KT 10SM FEW045 BKN060 BKN250 12/06 A3028 RMK AO2 SLP257 T01220061 10167 20122 58000=
201112042252 METAR KATL 042252Z 10008KT 10SM BKN060 BKN250 13/07 A3028 RMK AO2 SLP256 T01330067=
201112042152 METAR KATL 042152Z 09009KT 10SM FEW043 OVC060 14/07 A3028 RMK AO2 SLP256 T01390067=
201112042052 METAR KATL 042052Z 09007KT 10SM FEW020 OVC060 15/07 A3028 RMK AO2 SLP255 T01500072 56019=
201112042000 SPECI KATL 042000Z 10006KT 10SM SCT019 OVC060 15/07 A3029 RMK AO2=
201112042000 SPECI KATL 042000Z 10006KT 10SM SCT019 OVC060 15/07 A3029 RMK AO2=
201112041952 METAR KATL 041952Z 09004KT 10SM BKN019 OVC060 15/08 A3030 RMK AO2 SLP260 T01500078=
201112041852 METAR KATL 041852Z 08008KT 10SM BKN015 BKN050 16/06 A3030 RMK AO2 SLP263 T01560061=
201112041752 METAR KATL 041752Z 10008KT 10SM OVC015 14/06 A3034 RMK AO2 RAB1656E06 SLP276 P0000 60000 T01390056 10139 20061 58026=
201112041652 METAR KATL 041652Z 11009KT 10SM FEW015 OVC019 13/05 A3039 RMK AO2 SLP291 T01280050=
201112041552 METAR KATL 041552Z 12008KT 10SM BKN023 OVC060 13/05 A3041 RMK AO2 SLP300 T01280050=
201112041518 SPECI KATL 041518Z 11008KT 10SM SCT015 BKN020 OVC055 12/04 A3041 RMK AO2=
201112041518 SPECI KATL 041518Z 11008KT 10SM SCT015 BKN020 OVC055 12/04 A3041 RMK AO2=
201112041452 METAR KATL 041452Z COR 09008KT 10SM FEW015 BKN055 BKN250 11/03 A3042 RMK AO2 SLP304 T01110033 50003=
201112041352 METAR KATL 041352Z 09009KT 10SM FEW027 BKN060 BKN250 09/02 A3042 RMK AO2 SLP305 T00890022=
201112041252 METAR KATL 041252Z 09007KT 10SM SCT015 BKN055 BKN250 07/02 A3042 RMK AO2 SLP305 T00670017=
201112041152 METAR KATL 041152Z 09007KT 10SM FEW026 07/01 A3041 RMK AO2 SLP301 T00670006 10089 20067 51001=
201112041052 METAR KATL 041052Z 08008KT 10SM FEW026 08/00 A3040 RMK AO2 SLP297 T00780000=
201112041045 SPECI KATL 041045Z 08009KT 10SM SCT026 07/00 A3041 RMK AO2=
201112041045 SPECI KATL 041045Z 08009KT 10SM SCT026 07/00 A3041 RMK AO2=
201112040952 METAR KATL 040952Z 09007KT 10SM BKN024 OVC043 09/00 A3042 RMK AO2 SLP301 T00890000=
201112040852 METAR KATL 040852Z 09010KT 10SM BKN026 OVC043 09/00 A3041 RMK AO2 SLP297 T00890000 56005=
201112040752 METAR KATL 040752Z 09009KT 10SM BKN030 OVC036 09/00 A3041 RMK AO2 SLP299 T00890000=
201112040652 METAR KATL 040652Z 09006KT 10SM BKN032 08/00 A3041 RMK AO2 SLP299 T00780000=
201112040552 METAR KATL 040552Z 08009KT 10SM BKN036 BKN250 08/M01 A3042 RMK AO2 SLP303 T00781006 10122 20067 58011=
201112040452 METAR KATL 040452Z 09008KT 10SM FEW150 BKN250 08/00 A3044 RMK AO2 SLP309 T00780000 401720028=
201112040352 METAR KATL 040352Z 09009KT 10SM BKN250 08/01 A3045 RMK AO2 SLP313 T00780006=
201112040252 METAR KATL 040252Z 09007KT 10SM BKN250 07/00 A3046 RMK AO2 SLP317 T00720000 51007=
201112040152 METAR KATL 040152Z 09008KT 10SM SCT250 08/M01 A3045 RMK AO2 SLP317 T00831006=
201112040052 METAR KATL 040052Z 09008KT 10SM FEW150 BKN250 10/M01 A3045 RMK AO2 SLP316 T01001006=
201112032352 METAR KATL 032352Z 10006KT 10SM FEW150 BKN250 11/M01 A3043 RMK AO2 SLP310 T01111011 10172 20111 53005=
201112032252 METAR KATL 032252Z 11006KT 10SM FEW150 BKN250 14/M01 A3043 RMK AO2 SLP305 T01391011=
201112032152 METAR KATL 032152Z 11011G16KT 10SM FEW120 BKN250 15/M02 A3041 RMK AO2 SLP300 VIRGA S T01501017=
201112032052 METAR KATL 032052Z 11010KT 10SM BKN250 16/M03 A3042 RMK AO2 SLP302 T01611033 56019=
201112031952 METAR KATL 031952Z 12009G14KT 10SM BKN250 17/M02 A3043 RMK AO2 SLP305 T01721022=
201112031852 METAR KATL 031852Z 13007KT 10SM BKN250 17/M02 A3044 RMK AO2 SLP311 T01671022=
201112031752 METAR KATL 031752Z 12007KT 10SM BKN250 16/M02 A3047 RMK AO2 SLP321 T01561022 10161 20028 58010=
201112031652 METAR KATL 031652Z 10011G20KT 050V120 10SM SCT250 14/M02 A3050 RMK AO2 SLP331 T01441017=
201112031552 METAR KATL 031552Z 10011KT 10SM FEW250 13/M01 A3052 RMK AO2 SLP335 T01281006=
201112031452 METAR KATL 031452Z 08009KT 10SM SCT250 10/01 A3050 RMK AO2 SLP332 T01000006 51016=
201112031352 METAR KATL 031352Z 08008KT 10SM SCT250 07/00 A3049 RMK AO2 SLP330 T00670000=
201112031252 METAR KATL 031252Z 08007KT 10SM FEW250 03/M02 A3048 RMK AO2 SLP326 T00331017=
201112031152 METAR KATL 031152Z 10004KT 10SM CLR 04/M01 A3045 RMK AO2 SLP317 T00391011 10067 20039 53007=
201112031052 METAR KATL 031052Z 08005KT 10SM CLR 04/M02 A3044 RMK AO2 SLP311 T00441017=
201112030952 METAR KATL 030952Z 08003KT 10SM CLR 06/M01 A3043 RMK AO2 SLP306 T00611011=
201112030852 METAR KATL 030852Z 10003KT 10SM FEW250 06/M01 A3043 RMK AO2 SLP307 T00561006 58001=
201112030752 METAR KATL 030752Z 00000KT 10SM CLR 06/M01 A3044 RMK AO2 SLP310 T00561011=
201112030652 METAR KATL 030652Z 00000KT 10SM FEW250 06/M01 A3044 RMK AO2 SLP308 T00561011=
201112030552 METAR KATL 030552Z 00000KT 10SM FEW250 07/M01 A3044 RMK AO2 SLP308 T00671011 10133 20061 50000=
201112030452 METAR KATL 030452Z 00000KT 10SM FEW250 07/M01 A3044 RMK AO2 SLP309 T00671011 401780006=
201112030352 METAR KATL 030352Z COR 00000KT 10SM FEW250 09/M02 A3044 RMK AO2 SLP309 T00891022=
201112030252 METAR KATL 030252Z VRB03KT 10SM FEW250 09/M02 A3043 RMK AO2 SLP309 T00941017 53012=
201112030152 METAR KATL 030152Z 33004KT 10SM FEW250 09/M02 A3042 RMK AO2 SLP304 T00891017=
201112030052 METAR KATL 030052Z 32004KT 10SM FEW250 11/M02 A3042 RMK AO2 SLP305 T01061022=
201112022352 METAR KATL 022352Z 00000KT 10SM FEW250 12/M04 A3040 RMK AO2 SLP299 T01171039 10178 20111 53010=
201112022252 METAR KATL 022252Z 28004KT 10SM FEW250 14/M04 A3039 RMK AO2 SLP293 T01441044=
201112022152 METAR KATL 022152Z 00000KT 10SM CLR 17/M04 A3038 RMK AO2 SLP290 T01671044=
201112022052 METAR KATL 022052Z 00000KT 10SM FEW250 17/M04 A3037 RMK AO2 SLP287 T01721039 56014=
201112021952 METAR KATL 021952Z 26003KT 10SM FEW250 17/M01 A3038 RMK AO2 SLP290 T01721011=
201112021852 METAR KATL 021852Z 30006KT 10SM FEW250 16/00 A3040 RMK AO2 SLP295 T01610000=
201112021752 METAR KATL 021752Z 31006KT 10SM CLR 16/01 A3041 RMK AO2 SLP300 T01560011 10156 20011 58011=
201112021652 METAR KATL 021652Z 30008KT 10SM FEW250 14/02 A3044 RMK AO2 SLP311 T01390017=
201112021552 METAR KATL 021552Z 31008KT 10SM FEW250 12/02 A3045 RMK AO2 SLP315 T01220022=
201112021452 METAR KATL 021452Z 31005KT 10SM FEW250 09/02 A3045 RMK AO2 SLP313 T00940017 53015=
201112021352 METAR KATL 021352Z 00000KT 10SM FEW250 07/01 A3043 RMK AO2 SLP308 T00720011 $=
201112021252 METAR KATL 021252Z 00000KT 10SM FEW250 02/M02 A3041 RMK AO2 SLP304 T00171017 $=
201112021152 METAR KATL 021152Z 00000KT 10SM FEW250 02/M02 A3040 RMK AO2 SLP300 T00221017 10050 20006 51009=
201112021052 METAR KATL 021052Z 28003KT 10SM CLR 02/M01 A3040 RMK AO2 SLP298 T00221011 $=
201112020952 METAR KATL 020952Z 31006KT 10SM CLR 01/M02 A3038 RMK AO2 SLP292 T00111022 $=
201112020852 METAR KATL 020852Z 30003KT 10SM CLR 03/M01 A3037 RMK AO2 SLP288 T00281011 53004 $=
201112020752 METAR KATL 020752Z 00000KT 10SM CLR 03/M01 A3036 RMK AO2 SLP284 T00281011 $=
201112020652 METAR KATL 020652Z 00000KT 10SM CLR 04/M01 A3036 RMK AO2 SLP283 T00441006 $=
201112020552 METAR KATL 020552Z 00000KT 10SM CLR 05/M01 A3036 RMK AO2 SLP283 T00501006 10106 20039 50003 $=
201112020452 METAR KATL 020452Z 00000KT 10SM CLR 07/M01 A3036 RMK AO2 SLP283 T00721011 401561017=
201112020352 METAR KATL 020352Z 14004KT 10SM CLR 08/M01 A3036 RMK AO2 SLP284 T00781011=
201112020252 METAR KATL 020252Z 14003KT 10SM CLR 08/M01 A3035 RMK AO2 SLP282 T00781006 51008=
201112020152 METAR KATL 020152Z 00000KT 10SM CLR 08/M01 A3035 RMK AO2 SLP283 T00831011=
201112020052 METAR KATL 020052Z 00000KT 10SM CLR 10/M02 A3035 RMK AO2 SLP283 T01001017=
201112012352 METAR KATL 012352Z 00000KT 10SM CLR 10/M02 A3033 RMK AO2 SLP276 T01001017 10156 20100 53008=
201112012252 METAR KATL 012252Z 16003KT 10SM CLR 12/M02 A3031 RMK AO2 SLP269 T01221017=
201112012152 METAR KATL 012152Z 16003KT 10SM CLR 14/M02 A3030 RMK AO2 SLP266 T01391022=
201112012052 METAR KATL 012052Z 00000KT 10SM CLR 14/M02 A3030 RMK AO2 SLP266 T01441022 53001=
201112011952 METAR KATL 011952Z 19004KT 10SM CLR 14/M02 A3028 RMK AO2 SLP259 T01441022=
201112011852 METAR KATL 011852Z 00000KT 10SM CLR 14/M01 A3029 RMK AO2 SLP261 T01391011=
201112011752 METAR KATL 011752Z 11005KT 10SM CLR 13/M01 A3030 RMK AO2 SLP264 T01331011 10133 21011 58011=
201112011652 METAR KATL 011652Z 10009KT 10SM CLR 12/01 A3031 RMK AO2 SLP266 T01220006=
201112011552 METAR KATL 011552Z VRB04KT 10SM CLR 09/M01 A3034 RMK AO2 SLP279 T00941006=
201112011452 METAR KATL 011452Z 11006KT 10SM CLR 07/M01 A3033 RMK AO2 SLP277 T00671006 51025=
201112011352 METAR KATL 011352Z 03003KT 10SM CLR 04/M02 A3031 RMK AO2 SLP271 T00441017=
201112011252 METAR KATL 011252Z 36004KT 10SM CLR 00/M03 A3028 RMK AO2 SLP264 T00001028=
