##########################################################
# Query made at 04/19/2024 23:23:41 UTC
# Time interval: from 09/01/2011 12:00  to 09/30/2011 12:59  UTC
##########################################################

##########################################################
# KATL, Atlanta, Hartsfield - Jackson Atlanta International Airport (United States)
# WMO index: 72219. WIGOS ID: 0-20000-0-72219
# Latitude 33-38-59N. Longitude 084-25-00W. Altitude 312 m.
##########################################################

201109301252 METAR KATL 301252Z 32013G21KT 10SM BKN070 19/13 A2989 RMK AO2 SLP117 T01890128=
201109301152 METAR KATL 301152Z 30010KT 10SM FEW065 SCT250 18/14 A2988 RMK AO2 SLP109 T01830139 10200 20178 53010=
201109301052 METAR KATL 301052Z 28008KT 10SM FEW040 SCT055 18/14 A2985 RMK AO2 SLP101 T01830139=
201109300952 METAR KATL 300952Z 24004KT 10SM CLR 18/14 A2984 RMK AO2 SLP096 T01830139=
201109300852 METAR KATL 300852Z 27006KT 10SM CLR 19/14 A2985 RMK AO2 SLP097 T01890139 57013=
201109300752 METAR KATL 300752Z 27006KT 10SM CLR 19/14 A2986 RMK AO2 SLP101 T01940139=
201109300652 METAR KATL 300652Z 25003KT 10SM CLR 19/14 A2987 RMK AO2 SLP107 T01940144=
201109300552 METAR KATL 300552Z 27004KT 10SM FEW250 19/14 A2989 RMK AO2 SLP110 T01940144 10239 20189 58005=
201109300452 METAR KATL 300452Z 28005KT 10SM FEW250 19/14 A2989 RMK AO2 SLP112 T01940144 402890167=
201109300352 METAR KATL 300352Z 30006KT 10SM FEW250 20/14 A2990 RMK AO2 SLP115 T02000144=
201109300252 METAR KATL 300252Z 28004KT 10SM FEW250 21/14 A2990 RMK AO2 SLP117 T02110139 51011=
201109300152 METAR KATL 300152Z 28004KT 10SM FEW250 22/14 A2990 RMK AO2 SLP116 T02170139=
201109300052 METAR KATL 300052Z 29005KT 10SM FEW250 22/14 A2988 RMK AO2 SLP112 T02220139=
201109292352 METAR KATL 292352Z 29006KT 10SM FEW250 23/13 A2987 RMK AO2 SLP107 T02330128 10289 20233 55002=
201109292252 METAR KATL 292252Z 28009KT 10SM FEW250 26/13 A2986 RMK AO2 SLP105 T02560128=
201109292152 METAR KATL 292152Z 28009KT 10SM FEW060 SCT250 28/12 A2986 RMK AO2 SLP104 T02780122=
201109292052 METAR KATL 292052Z 27008KT 10SM FEW060 SCT250 28/12 A2987 RMK AO2 SLP108 T02780122 57017=
201109291952 METAR KATL 291952Z 29007KT 10SM SCT070 28/12 A2989 RMK AO2 SLP112 T02830122=
201109291852 METAR KATL 291852Z 31007KT 10SM SCT060 28/12 A2991 RMK AO2 SLP119 T02780117=
201109291752 METAR KATL 291752Z 30006KT 10SM SCT050 27/12 A2992 RMK AO2 SLP125 T02720122 10278 20172 56008=
201109291652 METAR KATL 291652Z 32006G14KT 10SM FEW043 27/14 A2993 RMK AO2 SLP125 T02720144=
201109291552 METAR KATL 291552Z 28005KT 10SM FEW035 SCT250 26/15 A2994 RMK AO2 SLP131 T02610150=
201109291452 METAR KATL 291452Z 30006KT 10SM FEW250 24/15 A2995 RMK AO2 SLP134 T02390150 50013=
201109291352 METAR KATL 291352Z 26003KT 10SM FEW250 22/16 A2995 RMK AO2 SLP135 T02220156=
201109291152 METAR KATL 291152Z 32008KT 10SM SCT250 17/15 A2991 RMK AO2 SLP122 T01720150 10183 20167 53005=
201109291052 METAR KATL 291052Z 31007KT 10SM FEW250 17/15 A2990 RMK AO2 SLP117 T01670150=
201109290952 METAR KATL 290952Z 29005KT 10SM CLR 17/15 A2989 RMK AO2 SLP113 T01720150=
201109290852 METAR KATL 290852Z 29004KT 8SM SCT150 17/16 A2989 RMK AO2 SLP116 T01720161 58001=
201109290752 METAR KATL 290752Z 30005KT 9SM SCT150 BKN250 18/17 A2990 RMK AO2 SLP116 T01830172=
201109290652 METAR KATL 290652Z 24004KT 8SM SCT150 18/17 A2991 RMK AO2 SLP119 T01830172=
201109290552 METAR KATL 290552Z 22003KT 9SM SCT250 18/17 A2990 RMK AO2 SLP117 T01830172 10233 20183 58002=
201109290452 METAR KATL 290452Z 22004KT 10SM BKN250 19/18 A2991 RMK AO2 SLP120 T01890178 402610183=
201109290352 METAR KATL 290352Z 22003KT 10SM OVC250 19/18 A2990 RMK AO2 SLP119 T01940178=
201109290252 METAR KATL 290252Z 23004KT 10SM BKN250 21/18 A2990 RMK AO2 SLP117 T02060183 51015=
201109290152 METAR KATL 290152Z 23005KT 10SM BKN250 22/18 A2989 RMK AO2 SLP112 T02170183=
201109290052 METAR KATL 290052Z 27004KT 10SM BKN250 22/18 A2987 RMK AO2 SLP108 T02170183=
201109282352 METAR KATL 282352Z 29003KT 10SM FEW030 SCT200 BKN250 23/18 A2986 RMK AO2 SLP103 T02330178 10261 20233 56001=
201109282252 METAR KATL 282252Z 27006KT 10SM FEW030 BKN250 25/17 A2986 RMK AO2 SLP103 T02500172=
201109282152 METAR KATL 282152Z 25005KT 10SM FEW030 BKN250 26/18 A2985 RMK AO2 SLP098 T02610178=
201109282052 METAR KATL 282052Z 29009KT 10SM SCT030 BKN250 26/18 A2986 RMK AO2 SLP103 T02560178 57022=
201109281952 METAR KATL 281952Z 29006KT 10SM FEW025TCU SCT035 BKN250 25/18 A2988 RMK AO2 SLP111 TCU W T02500183=
201109281852 METAR KATL 281852Z 25006KT 10SM FEW025 SCT030 OVC250 26/18 A2990 RMK AO2 SLP117 T02610183=
201109281752 METAR KATL 281752Z 26010KT 10SM FEW020TCU SCT030 OVC250 24/18 A2993 RMK AO2 SLP125 TCU NE T02440183 10244 20189 58007=
201109281735 SPECI KATL 281735Z 25007KT 10SM FEW020TCU SCT030 BKN050 OVC250 24/19 A2993 RMK AO2 TCU E=
201109281735 SPECI KATL 281735Z 25007KT 10SM FEW020TCU SCT030 BKN050 OVC250 24/19 A2993 RMK AO2 TCU E=
201109281652 METAR KATL 281652Z 25005KT 10SM BKN018 BKN030 OVC120 24/18 A2994 RMK AO2 SLP131 T02390183=
201109281611 SPECI KATL 281611Z 28005KT 10SM FEW020 BKN034 OVC120 24/18 A2995 RMK AO2=
201109281611 SPECI KATL 281611Z 28005KT 10SM FEW020 BKN034 OVC120 24/18 A2995 RMK AO2=
201109281552 METAR KATL 281552Z 30006KT 10SM BKN022 BKN033 OVC120 23/18 A2995 RMK AO2 SLP133 T02330178=
201109281452 METAR KATL 281452Z 27003KT 10SM FEW020 BKN028 OVC120 23/17 A2995 RMK AO2 SLP133 T02330172 51010=
201109281352 METAR KATL 281352Z 26003KT 10SM FEW040 SCT120 BKN250 22/18 A2994 RMK AO2 SLP130 T02220178=
201109281252 METAR KATL 281252Z 28006KT 10SM FEW035 SCT150 BKN250 21/18 A2993 RMK AO2 SLP127 T02110183=
201109281152 METAR KATL 281152Z 22005KT 9SM FEW150 SCT250 19/17 A2992 RMK AO2 SLP123 T01890172 10217 20183 53004=
201109281052 METAR KATL 281052Z 23003KT 10SM CLR 18/17 A2990 RMK AO2 SLP118 T01830167=
201109280952 METAR KATL 280952Z 23003KT 10SM SCT040 19/17 A2991 RMK AO2 SLP120 T01940172=
201109280852 METAR KATL 280852Z 25004KT 10SM CLR 19/17 A2990 RMK AO2 SLP117 T01940172 58005=
201109280752 METAR KATL 280752Z 28005KT 10SM CLR 19/17 A2991 RMK AO2 SLP119 T01940172=
201109280652 METAR KATL 280652Z 25005KT 10SM FEW080 21/17 A2992 RMK AO2 SLP121 T02060172=
201109280552 METAR KATL 280552Z 24006KT 10SM FEW065 BKN080 22/17 A2992 RMK AO2 SLP121 T02170172 10239 20217 58003=
201109280452 METAR KATL 280452Z 24004KT 10SM BKN065 OVC090 22/17 A2993 RMK AO2 SLP124 T02170167 402890200=
201109280352 METAR KATL 280352Z 23004KT 10SM FEW035 BKN070 OVC095 22/17 A2993 RMK AO2 SLP127 T02220167=
201109280252 METAR KATL 280252Z 28006KT 10SM FEW040 SCT070 BKN090 22/16 A2993 RMK AO2 SLP125 T02220161 51012=
201109280152 METAR KATL 280152Z 25003KT 10SM FEW070 BKN090 23/17 A2992 RMK AO2 SLP124 T02280167=
201109280052 METAR KATL 280052Z 23003KT 10SM SCT070 23/16 A2991 RMK AO2 SLP120 T02280161=
201109272352 METAR KATL 272352Z 20003KT 10SM BKN070 BKN250 24/16 A2989 RMK AO2 SLP113 60000 T02390161 10289 20233 55005=
201109272252 METAR KATL 272252Z 28006KT 10SM FEW250 25/15 A2989 RMK AO2 SLP112 T02500150=
201109272152 METAR KATL 272152Z 31007KT 10SM FEW035 26/15 A2988 RMK AO2 RAB2057E07 SLP109 CB DSNT E-SE P0000 T02610150=
201109272052 METAR KATL 272052Z 31013G20KT 10SM FEW035 BKN100 BKN200 26/14 A2990 RMK AO2 SLP117 VIRGA W SHRA DSNT S T02560144 56018=
201109271952 METAR KATL 271952Z 27007KT 10SM FEW040 BKN110 BKN200 28/15 A2991 RMK AO2 SLP117 ACC OHD & ALQDS T02780150=
201109271852 METAR KATL 271852Z 29007KT 10SM FEW030 SCT150 BKN250 28/17 A2992 RMK AO2 SLP122 CB DSNT S T02830167=
201109271752 METAR KATL 271752Z 33014KT 10SM FEW030 SCT040 SCT250 28/19 A2996 RMK AO2 SLP135 CB DSNT S TCU DSNT SW T02780189 10289 20200 58003=
201109271654 SPECI KATL 271654Z 30011KT 10SM BKN030 BKN180 BKN250 27/19 A2996 RMK AO2=
201109271654 SPECI KATL 271654Z 30011KT 10SM BKN030 BKN180 BKN250 27/19 A2996 RMK AO2=
201109271652 METAR KATL 271652Z 29012KT 10SM BKN028 BKN180 BKN250 27/19 A2997 RMK AO2 SLP138 T02670194=
201109271552 METAR KATL 271552Z 26011G19KT 9SM FEW020 SCT180 SCT250 26/19 A2997 RMK AO2 SLP140 T02610194=
201109271452 METAR KATL 271452Z 26007KT 8SM FEW012 SCT200 BKN250 24/19 A2997 RMK AO2 SLP139 T02390189 53014=
201109271352 METAR KATL 271352Z 28007KT 6SM HZ FEW007 SCT200 22/19 A2995 RMK AO2 SLP133 T02220189=
201109271339 SPECI KATL 271339Z 29008KT 6SM HZ FEW007 22/19 A2995 RMK AO2=
201109271339 SPECI KATL 271339Z 29008KT 6SM HZ FEW007 22/19 A2995 RMK AO2=
201109271252 METAR KATL 271252Z 31006KT 4SM BR BKN005 21/18 A2994 RMK AO2 SLP129 T02060183=
201109271246 SPECI KATL 271246Z 32007KT 4SM BR BKN005 21/19 A2994 RMK AO2=
201109271246 SPECI KATL 271246Z 32007KT 4SM BR BKN005 21/19 A2994 RMK AO2=
201109271152 METAR KATL 271152Z 31008KT 3SM BR SCT003 20/18 A2993 RMK AO2 SLP125 70001 T02000183 10217 20200 53005=
201109271111 SPECI KATL 271111Z 32005KT 4SM BR FEW004 20/18 A2992 RMK AO2=
201109271111 SPECI KATL 271111Z 32005KT 4SM BR FEW004 20/18 A2992 RMK AO2=
201109271052 METAR KATL 271052Z 31005KT 6SM BR CLR 20/18 A2992 RMK AO2 SLP123 T02000183=
201109270952 METAR KATL 270952Z 29006KT 8SM CLR 21/19 A2992 RMK AO2 SLP121 T02060189=
201109270852 METAR KATL 270852Z 29009KT 8SM FEW060 21/19 A2991 RMK AO2 SLP119 T02110189 50000=
201109270752 METAR KATL 270752Z 29006KT 9SM SCT055 22/19 A2991 RMK AO2 SLP119 T02170189=
201109270652 METAR KATL 270652Z 27003KT 9SM BKN055 22/19 A2992 RMK AO2 SLP121 T02170189=
201109270552 METAR KATL 270552Z 00000KT 8SM FEW055 21/19 A2991 RMK AO2 SLP119 60001 T02110194 10267 20211 56003=
201109270452 METAR KATL 270452Z 00000KT 10SM FEW050 22/19 A2992 RMK AO2 SLP120 T02170194 403000211=
201109270352 METAR KATL 270352Z 28004KT 10SM FEW100 SCT250 22/19 A2992 RMK AO2 RAE00 SLP122 P0000 T02170194=
201109270252 METAR KATL 270252Z 28006KT 9SM -RA FEW035 SCT070 BKN100 OVC200 22/19 A2992 RMK AO2 RAB27 SLP124 P0001 60001 T02220194 51006=
201109270152 METAR KATL 270152Z 19004KT 10SM FEW048 SCT065 BKN250 25/18 A2992 RMK AO2 SLP121 T02500178=
201109270052 METAR KATL 270052Z 22004KT 10SM BKN050 OVC065 26/17 A2991 RMK AO2 SLP120 T02610172=
201109262352 METAR KATL 262352Z 21006KT 10SM OVC060 27/17 A2990 RMK AO2 SLP117 T02670172 10300 20267 50009=
201109262252 METAR KATL 262252Z 22007KT 10SM BKN055 27/17 A2991 RMK AO2 SLP116 T02720167=
201109262152 METAR KATL 262152Z 20007KT 10SM FEW050 28/16 A2988 RMK AO2 SLP106 T02830161=
201109262052 METAR KATL 262052Z 22013KT 10SM FEW050 SCT250 29/16 A2987 RMK AO2 SLP105 T02940161 58016=
201109261952 METAR KATL 261952Z 24012KT 10SM FEW050 SCT250 29/15 A2989 RMK AO2 SLP112 T02890150=
201109261852 METAR KATL 261852Z 23015G20KT 10SM FEW060 SCT250 29/13 A2991 RMK AO2 SLP118 CB DSNT N T02940133=
201109261752 METAR KATL 261752Z 21014G19KT 10SM FEW050 SCT150 SCT250 29/14 A2992 RMK AO2 SLP123 CB DSNT NW-N T02890139 10289 20217 58015=
201109261652 METAR KATL 261652Z 21012G17KT 10SM FEW050 SCT150 SCT250 28/15 A2995 RMK AO2 SLP132 CB DSNT N ACSL DSNT NE-SE T02830150=
201109261552 METAR KATL 261552Z 22012KT 10SM FEW030 SCT150 SCT250 27/17 A2996 RMK AO2 SLP135 CB DSNT NW T02670167=
201109261452 METAR KATL 261452Z 22008KT 10SM FEW022 SCT150 SCT250 25/18 A2997 RMK AO2 SLP139 T02500183 51007=
201109261352 METAR KATL 261352Z 22008KT 10SM FEW015 SCT017 SCT250 23/18 A2997 RMK AO2 SLP138 T02280183=
201109261252 METAR KATL 261252Z VRB05KT 8SM SCT009 BKN043 BKN150 BKN250 22/19 A2995 RMK AO2 SLP134 T02220194=
201109261205 SPECI KATL 261205Z 18006KT 8SM SCT009 SCT028 BKN040 BKN250 22/20 A2995 RMK AO2=
201109261205 SPECI KATL 261205Z 18006KT 8SM SCT009 SCT028 BKN040 BKN250 22/20 A2995 RMK AO2=
201109261152 METAR KATL 261152Z 19006KT 7SM BKN009 BKN028 BKN250 22/20 A2995 RMK AO2 SLP132 CIG 007V013 T02170200 10222 20211 53009=
201109261052 METAR KATL 261052Z 18003KT 10SM BKN009 OVC013 22/20 A2994 RMK AO2 SLP127 CIG 007V011 T02220200=
201109260952 METAR KATL 260952Z 17007KT 10SM BKN009 OVC013 22/20 A2992 RMK AO2 SLP122 CIG 007V012 T02220200=
201109260852 METAR KATL 260852Z 18008KT 10SM OVC007 22/20 A2992 RMK AO2 SLP122 T02220200 55003=
201109260752 METAR KATL 260752Z 15006KT 10SM OVC005 22/20 A2991 RMK AO2 SLP115 T02170200=
201109260726 SPECI KATL 260726Z 13007KT 10SM BKN005 OVC042 22/20 A2990 RMK AO2=
201109260726 SPECI KATL 260726Z 13007KT 10SM BKN005 OVC042 22/20 A2990 RMK AO2=
201109260652 METAR KATL 260652Z 13005KT 10SM SCT008 SCT048 BKN250 22/19 A2990 RMK AO2 SLP115 T02170194=
201109260622 SPECI KATL 260622Z 12005KT 10SM SCT008 SCT048 SCT250 22/19 A2992 RMK AO2=
201109260622 SPECI KATL 260622Z 12005KT 10SM SCT008 SCT048 SCT250 22/19 A2992 RMK AO2=
201109260552 METAR KATL 260552Z 13003KT 10SM BKN008 BKN046 BKN250 22/19 A2993 RMK AO2 SLP125 T02170194 10272 20217 50000=
201109260549 SPECI KATL 260549Z 13004KT 10SM BKN008 BKN046 BKN250 22/19 A2993 RMK AO2=
201109260549 SPECI KATL 260549Z 13004KT 10SM BKN008 BKN046 BKN250 22/19 A2993 RMK AO2=
201109260507 SPECI KATL 260507Z 14006KT 10SM SCT013 BKN250 22/19 A2993 RMK AO2=
201109260507 SPECI KATL 260507Z 14006KT 10SM SCT013 BKN250 22/19 A2993 RMK AO2=
201109260452 METAR KATL 260452Z 14007KT 10SM BKN013 BKN250 22/19 A2994 RMK AO2 SLP127 T02220194 403110161=
201109260449 SPECI KATL 260449Z 15007KT 10SM BKN013 BKN250 22/19 A2994 RMK AO2 403110161=
201109260449 SPECI KATL 260449Z 15007KT 10SM BKN013 BKN250 22/19 A2994 RMK AO2 403110161=
201109260352 METAR KATL 260352Z 15005KT 10SM FEW050 SCT250 23/19 A2995 RMK AO2 SLP131 T02280194=
201109260252 METAR KATL 260252Z 14009G17KT 10SM FEW055 24/19 A2993 RMK AO2 SLP126 T02390189 53015=
201109260152 METAR KATL 260152Z 13008KT 10SM SCT055 24/19 A2991 RMK AO2 SLP120 T02440194=
201109260052 METAR KATL 260052Z 13010G15KT 10SM FEW050 26/18 A2990 RMK AO2 SLP116 T02610183=
201109252352 METAR KATL 252352Z 16004KT 10SM FEW050 27/16 A2989 RMK AO2 SLP112 T02720156 10311 20261 56007=
201109252252 METAR KATL 252252Z 17004KT 10SM FEW050 28/16 A2989 RMK AO2 SLP112 T02830156=
201109252152 METAR KATL 252152Z 23005KT 10SM FEW055 SCT250 29/14 A2990 RMK AO2 SLP115 T02890144=
201109252052 METAR KATL 252052Z COR 17006KT 10SM SCT055 SCT200 29/14 A2991 RMK AO2 SLP118 CB DSNT E T02890144 56022=
201109251952 METAR KATL 251952Z 22008KT 10SM SCT055 30/14 A2992 RMK AO2 SLP121 CB DSNT E T03000139=
201109251852 METAR KATL 251852Z 18008KT 10SM SCT050 29/15 A2995 RMK AO2 SLP133 T02940150=
201109251752 METAR KATL 251752Z 22009KT 10SM BKN050 BKN070 29/16 A2997 RMK AO2 SLP140 T02940156 10300 20172 58015=
201109251652 METAR KATL 251652Z 00000KT 10SM FEW050 SCT070 29/14 A3000 RMK AO2 SLP151 ACC NE-SE T02890139=
201109251552 METAR KATL 251552Z 00000KT 10SM FEW065 28/16 A3002 RMK AO2 SLP155 T02780156=
201109251452 METAR KATL 251452Z 15005KT 10SM FEW065 24/14 A3002 RMK AO2 SLP158 T02440144 51010=
201109251352 METAR KATL 251352Z 13004KT 10SM FEW065 SCT150 23/13 A3001 RMK AO2 SLP155 T02280128=
201109251252 METAR KATL 251252Z 10003KT 10SM SCT060 20/12 A3001 RMK AO2 SLP154 T02000122=
201109251152 METAR KATL 251152Z 07005KT 10SM FEW070 17/11 A2999 RMK AO2 SLP149 T01720111 10206 20161 53007=
201109251052 METAR KATL 251052Z 09003KT 10SM FEW070 18/11 A2998 RMK AO2 SLP145 T01780111=
201109250952 METAR KATL 250952Z 09003KT 10SM FEW070 17/11 A2997 RMK AO2 SLP140 T01720106=
201109250852 METAR KATL 250852Z COR 09004KT 10SM FEW200 17/11 A2997 RMK AO2 SLP140 T01720106 55004=
201109250752 METAR KATL 250752Z 08003KT 10SM FEW250 18/10 A2996 RMK AO2 SLP139 T01830100=
201109250652 METAR KATL 250652Z 00000KT 10SM FEW250 17/11 A2997 RMK AO2 SLP142 T01670106=
201109250552 METAR KATL 250552Z 05003KT 10SM FEW250 21/09 A2998 RMK AO2 SLP143 T02060089 10228 20178 58004=
201109250452 METAR KATL 250452Z 00000KT 10SM CLR 18/11 A2999 RMK AO2 SLP148 T01830106 402780150=
201109250352 METAR KATL 250352Z 02003KT 10SM CLR 21/08 A3000 RMK AO2 SLP150 T02110083=
201109250252 METAR KATL 250252Z 02005KT 10SM CLR 21/08 A2999 RMK AO2 SLP148 T02110083 51012=
201109250152 METAR KATL 250152Z 34005KT 10SM CLR 21/07 A2998 RMK AO2 SLP146 T02110072=
201109250052 METAR KATL 250052Z 32005KT 10SM CLR 22/07 A2997 RMK AO2 SLP143 T02220067=
201109242352 METAR KATL 242352Z 31004KT 10SM CLR 23/05 A2996 RMK AO2 SLP139 T02280050 10278 20228 52003=
201109242252 METAR KATL 242252Z 34006KT 10SM CLR 26/01 A2996 RMK AO2 SLP137 T02560011=
201109242152 METAR KATL 242152Z 29005KT 10SM CLR 27/01 A2995 RMK AO2 SLP133 T02670011=
201109242052 METAR KATL 242052Z 28005KT 10SM FEW085 27/04 A2995 RMK AO2 SLP133 T02720039 56015=
201109241952 METAR KATL 241952Z 28007KT 10SM FEW085 27/03 A2995 RMK AO2 SLP136 T02720028=
201109241852 METAR KATL 241852Z 29007G14KT 250V310 10SM FEW060 26/09 A2997 RMK AO2 SLP140 T02610094=
201109241752 METAR KATL 241752Z 30008G14KT 10SM FEW048 27/12 A2999 RMK AO2 SLP148 T02670117 10267 20150 58009=
201109241652 METAR KATL 241652Z VRB05KT 10SM CLR 26/13 A3001 RMK AO2 SLP154 T02560128=
201109241552 METAR KATL 241552Z VRB06KT 10SM CLR 24/14 A3002 RMK AO2 SLP157 T02390144=
201109241452 METAR KATL 241452Z 27004KT 10SM CLR 23/14 A3002 RMK AO2 SLP157 T02280139 53008=
201109241352 METAR KATL 241352Z 30003KT 10SM CLR 20/14 A3001 RMK AO2 SLP154 T02000139=
201109241252 METAR KATL 241252Z 33006KT 10SM CLR 17/13 A3000 RMK AO2 SLP151 T01670133=
201109241152 METAR KATL 241152Z 31005KT 10SM SCT055 15/13 A2999 RMK AO2 SLP150 70002 T01500133 10167 20150 53005=
201109241052 METAR KATL 241052Z 32005KT 10SM FEW033 15/13 A2998 RMK AO2 SLP147 T01500128=
201109240952 METAR KATL 240952Z 33004KT 10SM FEW033 15/13 A2997 RMK AO2 SLP142 T01500128=
201109240852 METAR KATL 240852Z 32003KT 10SM CLR 16/13 A2998 RMK AO2 SLP143 T01560128 58006=
201109240752 METAR KATL 240752Z 32006KT 10SM FEW033 BKN042 16/13 A2998 RMK AO2 SLP144 T01610133=
201109240652 METAR KATL 240652Z 33005KT 10SM FEW060 SCT150 16/13 A2999 RMK AO2 SLP148 T01610133=
201109240552 METAR KATL 240552Z 32008KT 10SM FEW250 17/13 A2999 RMK AO2 SLP148 T01670133 10233 20167 58006=
201109240452 METAR KATL 240452Z 32010KT 10SM BKN060 BKN250 18/14 A3000 RMK AO2 SLP153 T01780144 402830178=
201109240352 METAR KATL 240352Z 33006KT 10SM BKN055 BKN250 19/15 A3001 RMK AO2 SLP156 T01890150=
201109240252 METAR KATL 240252Z 35010KT 10SM BKN250 19/15 A3001 RMK AO2 SLP156 T01940150 51016=
201109240152 METAR KATL 240152Z 33010KT 10SM BKN250 21/17 A3000 RMK AO2 SLP153 T02110172=
201109240052 METAR KATL 240052Z 31007KT 10SM FEW030 SCT250 22/18 A2998 RMK AO2 SLP146 T02220178=
201109232352 METAR KATL 232352Z 33010KT 10SM FEW200 23/17 A2997 RMK AO2 SLP140 T02330172 10283 20233 53001=
201109232252 METAR KATL 232252Z 32008KT 10SM FEW035 26/16 A2996 RMK AO2 SLP138 CB DSNT SE T02610161=
201109232152 METAR KATL 232152Z 31006KT 10SM FEW035 SCT050 BKN110 27/17 A2996 RMK AO2 SLP137 TCU DSNT SE T02720167=
201109232052 METAR KATL 232052Z 33010KT 10SM FEW030TCU SCT050 BKN110 BKN250 28/17 A2996 RMK AO2 SLP137 TCU N & S-SW T02780172 55017=
201109231952 METAR KATL 231952Z 35008KT 10SM BKN030TCU BKN050 28/17 A2996 RMK AO2 SLP138 TCU OHD-SE-S-SW T02780172=
201109231852 METAR KATL 231852Z 31009KT 260V330 10SM BKN030TCU BKN040 28/18 A2999 RMK AO2 SLP145 TCU SE-S & OHD-W T02830183=
201109231752 METAR KATL 231752Z 29005KT 10SM BKN023TCU BKN028 27/19 A3002 RMK AO2 SLP156 TCU OHD-W-NW 60002 T02720189 10272 20183 58010=
201109231724 SPECI KATL 231724Z VRB04KT 10SM SCT020 SCT028 26/18 A3003 RMK AO2=
201109231724 SPECI KATL 231724Z VRB04KT 10SM SCT020 SCT028 26/18 A3003 RMK AO2=
201109231652 METAR KATL 231652Z 29005KT 10SM BKN018 BKN026 BKN028 25/19 A3004 RMK AO2 SLP163 T02500189=
201109231635 SPECI KATL 231635Z 31007KT 10SM BKN016 BKN022 24/19 A3005 RMK AO2=
201109231635 SPECI KATL 231635Z 31007KT 10SM BKN016 BKN022 24/19 A3005 RMK AO2=
201109231552 METAR KATL 231552Z VRB06KT 10SM FEW012 24/19 A3005 RMK AO2 SLP166 T02390189=
201109231452 METAR KATL 231452Z 28007KT 10SM BKN011 BKN120 23/19 A3005 RMK AO2 SLP167 60002 T02280189 53008=
201109231352 METAR KATL 231352Z 00000KT 10SM FEW005 SCT040 SCT120 22/18 A3003 RMK AO2 SLP161 T02170183=
201109231252 METAR KATL 231252Z 00000KT 10SM FEW006 SCT036 SCT110 BKN150 19/17 A3003 RMK AO2 RAB20E49 SLP161 SHRA NE-SE P0002 T01890172=
201109231152 METAR KATL 231152Z 21004KT 10SM FEW004 SCT100 BKN140 BKN250 18/17 A3002 RMK AO2 SLP161 SHRA SW-NW 60073 70115 T01830172 10183 20178 56007=
201109231052 METAR KATL 231052Z 16004KT 10SM FEW006 SCT075 BKN100 18/17 A3002 RMK AO2 SLP161 T01830167=
201109230952 METAR KATL 230952Z 07007KT 9SM FEW006 OVC065 18/17 A3003 RMK AO2 RAE50 SLP162 P0006 T01830172=
201109230852 METAR KATL 230852Z 00000KT 4SM +RA BR FEW006 SCT044 OVC070 18/17 A3005 RMK AO2 SLP167 P0024 60067 T01830167 56013=
201109230828 SPECI KATL 230828Z 12003KT 6SM -RA BR BKN039 OVC070 18/17 A3004 RMK AO2 P0015=
201109230828 SPECI KATL 230828Z 12003KT 6SM -RA BR BKN039 OVC070 18/17 A3004 RMK AO2 P0015=
201109230752 METAR KATL 230752Z 18004KT 2SM +RA BR FEW022 BKN037 OVC065 18/17 A3005 RMK AO2 SLP168 P0020 T01780167=
201109230737 SPECI KATL 230737Z 21003KT 2SM +RA BR FEW022 BKN039 OVC060 18/17 A3005 RMK AO2 P0010=
201109230737 SPECI KATL 230737Z 21003KT 2SM +RA BR FEW022 BKN039 OVC060 18/17 A3005 RMK AO2 P0010=
201109230652 METAR KATL 230652Z 33003KT 8SM -RA FEW010 SCT035 OVC060 18/16 A3005 RMK AO2 TSE41 SLP167 TS DSIPT P0023 T01830161=
201109230641 SPECI KATL 230641Z 34003KT 6SM -RA BR FEW036 SCT048 OVC060 18/17 A3005 RMK AO2 TSE41 PRESFR TS DSIPT P0023=
201109230641 SPECI KATL 230641Z 34003KT 6SM -RA BR FEW036 SCT048 OVC060 18/17 A3005 RMK AO2 TSE41 PRESFR TS DSIPT P0023=
201109230625 SPECI KATL 230625Z 31004KT 2 1/2SM TSRA BR FEW025CB BKN042 OVC050 18/16 A3007 RMK AO2 OCNL LTGIC SW-W TS SW-W MOV NE P0016=
201109230625 SPECI KATL 230625Z 31004KT 2 1/2SM TSRA BR FEW025CB BKN042 OVC050 18/16 A3007 RMK AO2 OCNL LTGIC SW-W TS SW-W MOV NE P0016=
201109230614 SPECI KATL 230614Z 00000KT 4SM -TSRA BR FEW006 BKN025CB OVC042 18/16 A3008 RMK AO2 OCNL LTGIC SE-S-W TS SE-S-W MOV NE P0009=
201109230614 SPECI KATL 230614Z 00000KT 4SM -TSRA BR FEW006 BKN025CB OVC042 18/16 A3008 RMK AO2 OCNL LTGIC SE-S-W TS SE-S-W MOV NE P0009=
201109230552 METAR KATL 230552Z 35008KT 2 1/2SM -TSRA BR FEW006 SCT017CB OVC023 18/17 A3009 RMK AO2 WSHFT 0510 TSB05 SLP180 OCNL LTGIC ALQDS TS ALQDS MOV NE P0006 60027 T01830167 10228 20183 55002=
201109230535 SPECI KATL 230535Z 35011G23KT 4SM -TSRA BR FEW006 BKN017CB OVC023 19/17 A3008 RMK AO2 WSHFT 0510 TSB05 OCNL LTGICCG SW-NW-N TS SW-NW-N MOV NE P0002=
201109230535 SPECI KATL 230535Z 35011G23KT 4SM -TSRA BR FEW006 BKN017CB OVC023 19/17 A3008 RMK AO2 WSHFT 0510 TSB05 OCNL LTGICCG SW-NW-N TS SW-NW-N MOV NE P0002=
201109230526 SPECI KATL 230526Z 34011G23KT 10SM -TSRA FEW011 BKN021CB OVC033 19/17 A3008 RMK AO2 WSHFT 0510 TSB05 OCNL LTGICCG SW-NW-N TS SW-NW-N MOV NE P0000=
201109230526 SPECI KATL 230526Z 34011G23KT 10SM -TSRA FEW011 BKN021CB OVC033 19/17 A3008 RMK AO2 WSHFT 0510 TSB05 OCNL LTGICCG SW-NW-N TS SW-NW-N MOV NE P0000=
201109230505 SPECI KATL 230505Z 18006KT 10SM -TSRA BKN006 BKN015CB OVC035 22/20 A3008 RMK AO2 TSB05 OCNL LTGIC SW-NW-N TS SW-NW-N MOV NE P0000=
201109230505 SPECI KATL 230505Z 18006KT 10SM -TSRA BKN006 BKN015CB OVC035 22/20 A3008 RMK AO2 TSB05 OCNL LTGIC SW-NW-N TS SW-NW-N MOV NE P0000=
201109230452 METAR KATL 230452Z 15006KT 8SM -RA BKN006 BKN018 OVC030 22/20 A3007 RMK AO2 SLP174 OCNL LTG DSNT NW P0007 T02170200 402670206=
201109230352 METAR KATL 230352Z 12008KT 7SM -RA BKN006 BKN014 OVC030 22/21 A3007 RMK AO2 SLP174 P0001 T02220206=
201109230252 METAR KATL 230252Z 10003KT 7SM -RA BKN008 BKN080 OVC110 22/21 A3009 RMK AO2 SLP182 P0003 60013 T02220206 51012=
201109230242 SPECI KATL 230242Z 11004KT 7SM -RA BKN008 BKN080 OVC110 22/21 A3009 RMK AO2 P0002=
201109230242 SPECI KATL 230242Z 11004KT 7SM -RA BKN008 BKN080 OVC110 22/21 A3009 RMK AO2 P0002=
201109230152 METAR KATL 230152Z VRB05KT 4SM -RA BR FEW010 SCT045 BKN080 OVC130 22/21 A3009 RMK AO2 RAB03E16B33 SLP180 P0010 T02220206=
201109230112 SPECI KATL 230112Z 09006KT 10SM -RA SCT010 BKN040 OVC120 23/21 A3008 RMK AO2 RAB03 P0000=
201109230112 SPECI KATL 230112Z 09006KT 10SM -RA SCT010 BKN040 OVC120 23/21 A3008 RMK AO2 RAB03 P0000=
201109230052 METAR KATL 230052Z 12003KT 10SM SCT008 BKN013 BKN035 OVC130 23/21 A3008 RMK AO2 RAE33 SLP179 P0000 T02280206=
201109230007 SPECI KATL 230007Z 00000KT 7SM -RA BKN008 BKN045 OVC100 23/21 A3006 RMK AO2 CIG 006V011 P0000=
201109230007 SPECI KATL 230007Z 00000KT 7SM -RA BKN008 BKN045 OVC100 23/21 A3006 RMK AO2 CIG 006V011 P0000=
201109222352 METAR KATL 222352Z 10003KT 6SM -RA BR SCT007 BKN040 BKN100 OVC150 22/21 A3006 RMK AO2 SLP170 P0007 60015 T02220211 10267 20222 56003=
201109222319 SPECI KATL 222319Z 17003KT 4SM -RA BR FEW007 BKN080 BKN120 OVC150 22/21 A3005 RMK AO2 CB DSNT SE P0005=
201109222319 SPECI KATL 222319Z 17003KT 4SM -RA BR FEW007 BKN080 BKN120 OVC150 22/21 A3005 RMK AO2 CB DSNT SE P0005=
201109222302 SPECI KATL 222302Z 15005KT 2SM RA BR FEW007 BKN080 BKN120 OVC150 22/21 A3005 RMK AO2 SFC VIS 3 CB DSNT SE P0002=
201109222302 SPECI KATL 222302Z 15005KT 2SM RA BR FEW007 BKN080 BKN120 OVC150 22/21 A3005 RMK AO2 SFC VIS 3 CB DSNT SE P0002=
201109222252 METAR KATL 222252Z 15003KT 3SM -RA BR FEW007 BKN085 BKN120 OVC150 22/21 A3006 RMK AO2 SLP170 CB DSNT SE P0007 T02220206=
201109222239 SPECI KATL 222239Z 20003KT 3SM -RA BR FEW008 SCT020 BKN090 OVC130 22/21 A3005 RMK AO2 P0005=
201109222239 SPECI KATL 222239Z 20003KT 3SM -RA BR FEW008 SCT020 BKN090 OVC130 22/21 A3005 RMK AO2 P0005=
201109222152 METAR KATL 222152Z 20006KT 5SM -RA BR FEW008 BKN015 OVC120 23/21 A3006 RMK AO2 RAE2056B17 SLP173 P0001 T02280211=
201109222052 METAR KATL 222052Z 18003KT 10SM -RA FEW020 SCT050 BKN100CB OVC200 24/21 A3007 RMK AO2 RAE1957B20 SLP173 FRQ LTGICCG DSNT S & NW CBMAM OHD-NE-E-SE CB DSNT NE-E & DSNT S & NW P0000 60000 T02390211 55014=
201109222012 SPECI KATL 222012Z 13003KT 10SM FEW020 SCT050 BKN100CB OVC200 25/20 A3007 RMK AO2 RAE1957 CB DSNT S & W CBMAM OHD-NW-N TCU DSNT NE-E-SE SHRA DSNT S & W P0000=
201109222012 SPECI KATL 222012Z 13003KT 10SM FEW020 SCT050 BKN100CB OVC200 25/20 A3007 RMK AO2 RAE1957 CB DSNT S & W CBMAM OHD-NW-N TCU DSNT NE-E-SE SHRA DSNT S & W P0000=
201109221952 METAR KATL 221952Z 12007KT 10SM -RA FEW023 SCT060 BKN100CB OVC200 25/20 A3006 RMK AO2 RAB28 SLP172 VIS LWR SW SHRA OCNL LTGIC DSNT SW CB DSNT SW CBMAM OHD-NE-E-SE P0000 T02500200=
201109221932 SPECI KATL 221932Z 13006KT 10SM -RA FEW023 BKN029 OVC100 26/19 A3007 RMK AO2 RAB28 CB DSNT S-SW-W P0000=
201109221932 SPECI KATL 221932Z 13006KT 10SM -RA FEW023 BKN029 OVC100 26/19 A3007 RMK AO2 RAB28 CB DSNT S-SW-W P0000=
201109221852 METAR KATL 221852Z 11006KT 10SM FEW030 SCT050 BKN100 BKN200 26/19 A3007 RMK AO2 SLP175 CB DSNT SW-W CBMAM DSNT W T02610194=
201109221752 METAR KATL 221752Z VRB05KT 10SM BKN024 BKN150 BKN250 27/20 A3011 RMK AO2 SLP186 T02670200 10267 20206 58012=
201109221652 METAR KATL 221652Z 10006KT 10SM BKN018 BKN110 BKN250 26/20 A3014 RMK AO2 SLP197 T02560200=
201109221552 METAR KATL 221552Z 11008KT 10SM BKN016 BKN110 BKN250 25/19 A3014 RMK AO2 SLP196 T02500194=
201109221547 SPECI KATL 221547Z 11005KT 10SM BKN016 BKN110 BKN150 25/19 A3014 RMK AO2=
201109221547 SPECI KATL 221547Z 11005KT 10SM BKN016 BKN110 BKN150 25/19 A3014 RMK AO2=
201109221452 METAR KATL 221452Z 10007KT 10SM FEW007 BKN012 BKN110 23/19 A3015 RMK AO2 SLP202 T02330194 53009=
201109221352 METAR KATL 221352Z 08007KT 10SM FEW007 SCT020 SCT040 BKN150 22/20 A3014 RMK AO2 SLP198 T02220200=
201109221329 SPECI KATL 221329Z 11005KT 10SM FEW020 BKN150 BKN250 22/19 A3014 RMK AO2=
201109221329 SPECI KATL 221329Z 11005KT 10SM FEW020 BKN150 BKN250 22/19 A3014 RMK AO2=
201109221252 METAR KATL 221252Z 08005KT 10SM FEW010 BKN021 BKN150 BKN250 21/19 A3013 RMK AO2 SLP193 T02110189=
201109221235 SPECI KATL 221235Z 06007KT 10SM BKN019 BKN150 BKN250 21/18 A3013 RMK AO2=
201109221235 SPECI KATL 221235Z 06007KT 10SM BKN019 BKN150 BKN250 21/18 A3013 RMK AO2=
201109221152 METAR KATL 221152Z 08004KT 10SM FEW050 SCT140 BKN250 21/19 A3012 RMK AO2 SLP192 TCU DSNT N-NE 60013 70013 T02060189 10233 20206=
201109221052 METAR KATL 221052Z 00000KT 10SM SCT110 OVC200 21/19 A3009 RMK AO2 RAE41 SLP181 OCNL LTG DSNT N P0001 T02110189=
201109220952 METAR KATL 220952Z 00000KT 10SM -RA BKN120 OVC200 21/19 A3008 RMK AO2 RAB21 SLP178 P0003 T02060189 $=
201109220852 METAR KATL 220852Z 22005KT 7SM -RA BKN080 BKN100 OVC140 21/19 A3010 RMK AO2 SLP182 OCNL LTGCC DSNT W P0008 60009 T02060189 53002=
201109220752 METAR KATL 220752Z 27005KT 5SM -RA BKN050 OVC075 21/18 A3008 RMK AO2 RAB43 SLP176 OCNL LTGIC DSNT SW P0001 T02110183=
201109220652 METAR KATL 220652Z 19007KT 10SM SCT036 BKN110 OVC200 23/19 A3009 RMK AO2 SLP180 T02280194=
201109220552 METAR KATL 220552Z 15004KT 10SM FEW036 BKN110 OVC200 23/20 A3009 RMK AO2 SLP180 OCNL LTG DSNT SE T02330200 10261 20233 58002=
201109220452 METAR KATL 220452Z 31004KT 10SM SCT100 BKN200 OVC250 23/19 A3009 RMK AO2 SLP180 T02330194 403000206=
201109220352 METAR KATL 220352Z 30004KT 10SM SCT095 BKN200 OVC250 24/19 A3010 RMK AO2 SLP183 T02390194=
201109220252 METAR KATL 220252Z COR 00000KT 10SM FEW100 BKN200 OVC250 25/19 A3010 RMK AO2 SLP182 T02500194 51014=
201109220152 METAR KATL 220152Z 19003KT 10SM BKN200 OVC250 24/19 A3009 RMK AO2 SLP181 T02440189=
201109220052 METAR KATL 220052Z 30003KT 10SM BKN200 OVC250 25/19 A3007 RMK AO2 SLP172 T02500189=
201109212352 METAR KATL 212352Z 28004KT 10SM FEW100 BKN200 OVC250 26/18 A3006 RMK AO2 SLP169 T02610183 10300 20261 53009=
201109212252 METAR KATL 212252Z 25003KT 10SM FEW040 SCT200 BKN250 28/18 A3005 RMK AO2 SLP165 T02780178=
201109212152 METAR KATL 212152Z 23004KT 10SM SCT042TCU SCT060 BKN250 28/18 A3004 RMK AO2 SLP161 TCU OHD & NE-E T02830178=
201109212052 METAR KATL 212052Z 28007KT 10SM SCT040TCU SCT250 29/18 A3003 RMK AO2 SLP159 TCU ALQDS T02940183 56016=
201109211952 METAR KATL 211952Z VRB05KT 10SM SCT033 SCT250 28/18 A3004 RMK AO2 SLP162 TCU DSNT NE & NW T02830183=
201109211852 METAR KATL 211852Z VRB04KT 10SM BKN030TCU BKN040 BKN250 27/18 A3006 RMK AO2 SLP170 TCU SE & OHD-SW-W-NW T02720183=
201109211752 METAR KATL 211752Z 18007KT 10SM SCT025TCU BKN050 BKN250 27/19 A3008 RMK AO2 SLP177 TCU N & SE & SW & NW T02670189 10272 20211 58008=
201109211652 METAR KATL 211652Z 20007KT 170V260 10SM FEW020 BKN030 BKN250 27/19 A3009 RMK AO2 SLP182 T02670194=
201109211552 METAR KATL 211552Z 19006KT 10SM FEW018 BKN030 BKN120 25/19 A3010 RMK AO2 SLP186 T02500194=
201109211548 SPECI KATL 211548Z VRB04KT 10SM BKN027 BKN034 BKN120 25/19 A3010 RMK AO2=
201109211548 SPECI KATL 211548Z VRB04KT 10SM BKN027 BKN034 BKN120 25/19 A3010 RMK AO2=
201109211527 SPECI KATL 211527Z 20007KT 10SM FEW020 BKN030 BKN120 24/19 A3010 RMK AO2=
201109211527 SPECI KATL 211527Z 20007KT 10SM FEW020 BKN030 BKN120 24/19 A3010 RMK AO2=
201109211452 METAR KATL 211452Z VRB05KT 10SM BKN020TCU BKN120 BKN250 24/19 A3011 RMK AO2 SLP187 TCU OHD-SE-S-SW-W T02440194 51009=
201109211352 METAR KATL 211352Z 16003KT 10SM FEW010 SCT120 SCT250 23/19 A3010 RMK AO2 SLP185 T02330194=
201109211325 SPECI KATL 211325Z 16007KT 10SM FEW008 SCT024 BKN120 22/19 A3010 RMK AO2=
201109211325 SPECI KATL 211325Z 16007KT 10SM FEW008 SCT024 BKN120 22/19 A3010 RMK AO2=
201109211252 METAR KATL 211252Z COR 14003KT 6SM BR BKN008 BKN024 BKN036 22/19 A3009 RMK AO2 CIG 006V010 SLP182 T02170194=
201109211152 METAR KATL 211152Z 09004KT 2SM BR BKN006 OVC010 21/19 A3008 RMK AO2 SFC VIS 4 SLP178 60000 70006 T02110194 10211 20206 53011=
201109211132 SPECI KATL 211132Z 08005KT 2SM BR SCT004 OVC008 21/19 A3007 RMK AO2 SFC VIS 4 CIG 006V010=
201109211132 SPECI KATL 211132Z 08005KT 2SM BR SCT004 OVC008 21/19 A3007 RMK AO2 SFC VIS 4 CIG 006V010=
201109211118 SPECI KATL 211118Z 08005KT 1SM BR BKN003 OVC012 21/19 A3007 RMK AO2 SFC VIS 4 CIG 003V008=
201109211118 SPECI KATL 211118Z 08005KT 1SM BR BKN003 OVC012 21/19 A3007 RMK AO2 SFC VIS 4 CIG 003V008=
201109211105 SPECI KATL 211105Z 08007KT 1/2SM BR BKN003 BKN006 OVC012 21/19 A3007 RMK AO2 SFC VIS 4=
201109211105 SPECI KATL 211105Z 08007KT 1/2SM BR BKN003 BKN006 OVC012 21/19 A3007 RMK AO2 SFC VIS 4=
201109211102 SPECI KATL 211102Z 08007KT 1SM BR BKN003 BKN006 OVC012 21/19 A3006 RMK AO2 SFC VIS 6=
201109211102 SPECI KATL 211102Z 08007KT 1SM BR BKN003 BKN006 OVC012 21/19 A3006 RMK AO2 SFC VIS 6=
201109211052 METAR KATL 211052Z 08007KT 1 1/2SM BR BKN005 OVC010 21/19 A3007 RMK AO2 SFC VIS 6 SLP172 T02110194=
201109210952 METAR KATL 210952Z 09004KT 6SM BR OVC008 21/19 A3005 RMK AO2 CIG 004V011 SLP167 T02110194 $=
201109210935 SPECI KATL 210935Z 10003KT 10SM BKN008 OVC012 21/19 A3005 RMK AO2 CIG 004V009 $=
201109210935 SPECI KATL 210935Z 10003KT 10SM BKN008 OVC012 21/19 A3005 RMK AO2 CIG 004V009 $=
201109210852 METAR KATL 210852Z 07003KT 6SM BR FEW007 BKN014 OVC020 21/19 A3005 RMK AO2 SLP166 60000 T02110194 56004 $=
201109210841 SPECI KATL 210841Z 08004KT 6SM BR SCT005 OVC016 21/19 A3005 RMK AO2 $=
201109210841 SPECI KATL 210841Z 08004KT 6SM BR SCT005 OVC016 21/19 A3005 RMK AO2 $=
201109210752 METAR KATL 210752Z 11004KT 6SM BR OVC005 21/19 A3005 RMK AO2 SLP167 T02110194 $=
201109210652 METAR KATL 210652Z 12006KT 10SM OVC005 21/19 A3005 RMK AO2 RAB02E22 SLP167 P0000 T02110194 $=
201109210552 METAR KATL 210552Z 11006KT 7SM BKN006 OVC035 21/19 A3006 RMK AO2 RAB0453E05 SLP171 P0000 60005 T02060194 10239 20206 56007 $=
201109210452 METAR KATL 210452Z 12006KT 7SM BKN009 BKN035 OVC120 21/19 A3007 RMK AO2 RAE51 SLP174 P0002 T02060189 402780178 $=
201109210447 SPECI KATL 210447Z 11007KT 8SM -RA BKN009 BKN035 OVC120 21/19 A3007 RMK AO2 P0002 402780178 $=
201109210447 SPECI KATL 210447Z 11007KT 8SM -RA BKN009 BKN035 OVC120 21/19 A3007 RMK AO2 P0002 402780178 $=
201109210430 SPECI KATL 210430Z 10007KT 10SM -RA FEW009 BKN034 OVC120 21/19 A3006 RMK AO2 P0002 $=
201109210430 SPECI KATL 210430Z 10007KT 10SM -RA FEW009 BKN034 OVC120 21/19 A3006 RMK AO2 P0002 $=
201109210352 METAR KATL 210352Z 09009KT 9SM -RA FEW019 SCT070 BKN100 BKN150 21/19 A3007 RMK AO2 SLP175 P0002 T02060189 $=
201109210252 METAR KATL 210252Z 09005KT 10SM -RA FEW018 SCT075 BKN100 OVC150 22/19 A3008 RMK AO2 RAB0158 SLP181 P0001 60001 T02170189 50013 $=
201109210228 SPECI KATL 210228Z 10005KT 10SM -RA SCT018 SCT075 OVC100 22/18 A3008 RMK AO2 RAB0158 P0000 $=
201109210228 SPECI KATL 210228Z 10005KT 10SM -RA SCT018 SCT075 OVC100 22/18 A3008 RMK AO2 RAB0158 P0000 $=
201109210152 METAR KATL 210152Z 11009KT 10SM BKN028 OVC100 23/18 A3009 RMK AO2 SLP183 SHRA E-S-W T02280178 $=
201109210144 SPECI KATL 210144Z 10009KT 10SM BKN028 OVC100 23/18 A3009 RMK AO2 SHRA S-W $=
201109210144 SPECI KATL 210144Z 10009KT 10SM BKN028 OVC100 23/18 A3009 RMK AO2 SHRA S-W $=
201109210052 METAR KATL 210052Z 08011KT 10SM FEW060 BKN100 OVC150 23/18 A3006 RMK AO2 RAE13 SLP173 P0000 T02280178 $=
201109202352 METAR KATL 202352Z 10010KT 10SM -RA FEW028 BKN110 OVC150 23/18 A3004 RMK AO2 RAB41 SLP168 P0000 60000 T02330178 10278 20233 53005 $=
201109202252 METAR KATL 202252Z 11008KT 10SM FEW035 SCT110 BKN150 OVC250 25/17 A3004 RMK AO2 SLP164 SHRA SE-SW T02500172 $=
201109202152 METAR KATL 202152Z COR 09011KT 10SM FEW035 BKN100 BKN150 OVC250 26/17 A3002 RMK AO2 SLP159 T02610167=
201109202052 METAR KATL 202052Z 11010KT 10SM FEW030 SCT110 BKN150 BKN250 27/16 A3003 RMK AO2 SLP160 T02670161 56018=
201109201952 METAR KATL 201952Z 13008G17KT 10SM FEW030 SCT120 BKN150 BKN250 27/17 A3004 RMK AO2 SLP165 T02670167=
201109201852 METAR KATL 201852Z 15008KT 10SM FEW025 BKN120 BKN150 26/17 A3007 RMK AO2 SLP173 T02560172=
201109201752 METAR KATL 201752Z 10006G24KT 10SM FEW015 SCT055 OVC120 23/17 A3008 RMK AO2 SLP180 60001 T02330172 10239 20178 57015=
201109201652 METAR KATL 201652Z VRB06KT 10SM FEW015 SCT055 BKN150 23/17 A3009 RMK AO2 SLP184 T02280172=
201109201552 METAR KATL 201552Z 07008KT 9SM FEW010 BKN055 BKN150 21/17 A3012 RMK AO2 SLP192 T02060172=
201109201452 METAR KATL 201452Z 10006KT 7SM BKN007 BKN009 OVC012 19/17 A3013 RMK AO2 SLP196 60001 T01890167 53006=
201109201352 METAR KATL 201352Z 09010KT 6SM BR BKN007 BKN009 OVC012 18/16 A3011 RMK AO2 RAB06E36 SLP191 P0000 T01830161=
201109201305 SPECI KATL 201305Z 09009KT 7SM BKN008 OVC012 18/16 A3010 RMK AO2=
201109201305 SPECI KATL 201305Z 09009KT 7SM BKN008 OVC012 18/16 A3010 RMK AO2=
201109201252 METAR KATL 201252Z 08010KT 7SM BKN010 OVC017 18/15 A3010 RMK AO2 RAE45 SLP187 P0001 T01780150=
201109201231 SPECI KATL 201231Z 07010KT 10SM -RA BKN010 BKN017 OVC100 18/15 A3011 RMK AO2 P0001=
201109201231 SPECI KATL 201231Z 07010KT 10SM -RA BKN010 BKN017 OVC100 18/15 A3011 RMK AO2 P0001=
201109201220 SPECI KATL 201220Z 07009KT 9SM -RA SCT012 OVC100 18/15 A3010 RMK AO2 P0001=
201109201220 SPECI KATL 201220Z 07009KT 9SM -RA SCT012 OVC100 18/15 A3010 RMK AO2 P0001=
201109201152 METAR KATL 201152Z 10005KT 10SM -RA BKN012 OVC015 18/14 A3011 RMK AO2 RAE1057B14 SLP190 P0000 60000 T01780144 10183 20178 53010=
201109201113 SPECI KATL 201113Z 09010KT 10SM BKN012 BKN017 OVC048 18/14 A3010 RMK AO2 RAE1057 P0000=
201109201113 SPECI KATL 201113Z 09010KT 10SM BKN012 BKN017 OVC048 18/14 A3010 RMK AO2 RAE1057 P0000=
201109201107 SPECI KATL 201107Z 09010KT 10SM FEW012 SCT017 OVC048 18/14 A3009 RMK AO2 RAE1057 P0000=
201109201107 SPECI KATL 201107Z 09010KT 10SM FEW012 SCT017 OVC048 18/14 A3009 RMK AO2 RAE1057 P0000=
201109201052 METAR KATL 201052Z 09009KT 10SM -RA BKN015 OVC048 18/14 A3009 RMK AO2 RAB47 SLP183 P0000 T01830139=
201109200952 METAR KATL 200952Z 09009KT 10SM BKN015 OVC025 18/13 A3008 RMK AO2 SLP178 T01830133 $=
201109200948 SPECI KATL 200948Z 08008KT 10SM BKN015 OVC025 18/13 A3008 RMK AO2 $=
201109200948 SPECI KATL 200948Z 08008KT 10SM BKN015 OVC025 18/13 A3008 RMK AO2 $=
201109200852 METAR KATL 200852Z 08011KT 10SM OVC019 18/13 A3007 RMK AO2 RAB0756E12 SLP176 P0000 60000 T01830133 58003=
201109200752 METAR KATL 200752Z 08008KT 10SM OVC021 18/13 A3008 RMK AO2 SLP177 T01830133=
201109200652 METAR KATL 200652Z 09009KT 10SM BKN023 OVC110 18/13 A3008 RMK AO2 SLP179 T01830128=
201109200650 SPECI KATL 200650Z 09009KT 10SM BKN023 OVC110 18/13 A3008 RMK AO2=
201109200650 SPECI KATL 200650Z 09009KT 10SM BKN023 OVC110 18/13 A3008 RMK AO2=
201109200552 METAR KATL 200552Z 08011KT 10SM SCT110 OVC150 18/13 A3008 RMK AO2 SLP180 T01830128 10222 20183 58006=
201109200452 METAR KATL 200452Z 08012KT 10SM FEW035 OVC150 19/13 A3009 RMK AO2 SLP184 T01890128 402500172=
201109200352 METAR KATL 200352Z 08012KT 10SM FEW110 BKN150 OVC180 19/13 A3010 RMK AO2 SLP187 T01940128=
201109200252 METAR KATL 200252Z 08011KT 10SM SCT110 BKN180 BKN250 20/13 A3010 RMK AO2 SLP187 T02000133 53008=
201109200152 METAR KATL 200152Z 08015KT 10SM SCT110 SCT150 BKN250 21/13 A3009 RMK AO2 SLP184 T02060133=
201109200052 METAR KATL 200052Z 08012KT 10SM SCT110 SCT150 BKN250 22/13 A3008 RMK AO2 SLP181 T02170133=
201109192352 METAR KATL 192352Z 08008KT 10SM SCT110 SCT150 BKN250 22/13 A3008 RMK AO2 SLP179 T02220133 10250 20222 53002 $=
201109192252 METAR KATL 192252Z 08010KT 10SM BKN110 BKN200 23/13 A3007 RMK AO2 SLP176 T02330133=
201109192152 METAR KATL 192152Z 08009KT 10SM SCT150 BKN200 BKN250 24/13 A3006 RMK AO2 SLP173 T02390133=
201109192052 METAR KATL 192052Z 06008KT 10SM FEW035 BKN150 BKN250 24/13 A3007 RMK AO2 SLP176 T02440133 56027=
201109191952 METAR KATL 191952Z 07004KT 10SM FEW035 BKN150 BKN250 24/13 A3009 RMK AO2 SLP181 T02440133=
201109191852 METAR KATL 191852Z 03008G16KT 10SM FEW035 BKN150 BKN250 24/13 A3011 RMK AO2 SLP189 T02390128=
201109191752 METAR KATL 191752Z VRB04KT 10SM SCT032 BKN150 BKN250 23/13 A3015 RMK AO2 SLP205 T02330128 10239 20172 58012=
201109191655 SPECI KATL 191655Z VRB04KT 10SM BKN030 BKN150 BKN250 22/13 A3017 RMK AO2=
201109191655 SPECI KATL 191655Z VRB04KT 10SM BKN030 BKN150 BKN250 22/13 A3017 RMK AO2=
201109191652 METAR KATL 191652Z 17006KT 10SM BKN028 BKN150 BKN250 22/13 A3017 RMK AO2 SLP212 T02170128=
201109191552 METAR KATL 191552Z 10010G14KT 10SM BKN026 BKN150 BKN250 21/13 A3018 RMK AO2 SLP213 T02110128=
201109191452 METAR KATL 191452Z 11012KT 10SM BKN024 BKN150 BKN250 21/12 A3019 RMK AO2 SLP217 T02060122 55002=
201109191352 METAR KATL 191352Z 09012KT 10SM FEW020 BKN026 BKN150 19/12 A3018 RMK AO2 SLP215 T01890122=
201109191252 METAR KATL 191252Z 10012G17KT 10SM BKN026 BKN150 18/12 A3019 RMK AO2 SLP216 T01780122=
201109191152 METAR KATL 191152Z 09011KT 10SM BKN026 17/12 A3020 RMK AO2 SLP219 T01720122 10178 20172 50005=
201109191052 METAR KATL 191052Z 09012KT 10SM OVC026 17/12 A3020 RMK AO2 SLP222 T01720122=
201109190952 METAR KATL 190952Z 11007KT 10SM BKN026 BKN250 18/12 A3019 RMK AO2 SLP217 T01780122 $=
201109190852 METAR KATL 190852Z 11008KT 10SM BKN026 18/12 A3018 RMK AO2 SLP213 T01780122 58006 $=
201109190752 METAR KATL 190752Z 09009KT 10SM OVC026 18/12 A3018 RMK AO2 SLP214 T01780122 $=
201109190652 METAR KATL 190652Z 09008KT 10SM OVC026 18/13 A3020 RMK AO2 SLP219 T01780128 $=
201109190552 METAR KATL 190552Z 09011KT 10SM BKN028 BKN250 17/13 A3020 RMK AO2 SLP220 T01720128 10222 20172 58010 $=
201109190452 METAR KATL 190452Z 10009KT 10SM FEW030 SCT250 18/13 A3021 RMK AO2 SLP223 T01780133 402500144 $=
201109190352 METAR KATL 190352Z 11007KT 10SM FEW250 18/13 A3022 RMK AO2 SLP230 T01830128 $=
201109190252 METAR KATL 190252Z 12009KT 10SM SCT150 SCT250 19/13 A3023 RMK AO2 SLP233 T01890128 50010 $=
201109190152 METAR KATL 190152Z 11010KT 10SM FEW120 BKN150 BKN250 20/13 A3024 RMK AO2 SLP234 T02000133 $=
201109190052 METAR KATL 190052Z 10009KT 10SM FEW120 SCT150 BKN250 21/13 A3021 RMK AO2 SLP226 T02060128 $=
201109182352 METAR KATL 182352Z 12008KT 10SM FEW150 SCT250 22/13 A3020 RMK AO2 SLP221 T02220128 10250 20211 55000 $=
201109182252 METAR KATL 182252Z 12008KT 10SM FEW039 SCT150 SCT250 23/13 A3019 RMK AO2 SLP219 T02330128 $=
201109182152 METAR KATL 182152Z 10009KT 10SM FEW039 SCT150 BKN250 24/12 A3019 RMK AO2 SLP217 T02440122 $=
201109182052 METAR KATL 182052Z 12007KT 090V150 10SM FEW039 SCT150 BKN250 24/13 A3020 RMK AO2 SLP220 T02440128 56019 $=
201109181952 METAR KATL 181952Z 13007KT 10SM FEW035 SCT150 BKN250 24/13 A3022 RMK AO2 SLP226 T02390128 $=
201109181852 METAR KATL 181852Z 10011KT 10SM FEW150 SCT250 24/13 A3023 RMK AO2 SLP231 T02440128 $=
201109181752 METAR KATL 181752Z 08007KT 050V110 10SM FEW025 SCT150 BKN250 21/13 A3026 RMK AO2 SLP241 T02110128 10217 20150 58014 $=
201109181704 SPECI KATL 181704Z 07008KT 10SM SCT019 SCT150 BKN250 21/13 A3027 RMK AO2 $=
201109181704 SPECI KATL 181704Z 07008KT 10SM SCT019 SCT150 BKN250 21/13 A3027 RMK AO2 $=
201109181652 METAR KATL 181652Z 09008KT 050V120 10SM BKN019 BKN150 BKN250 21/13 A3028 RMK AO2 SLP247 T02060128 $=
201109181552 METAR KATL 181552Z 08008KT 10SM FEW013 BKN015 OVC018 18/13 A3030 RMK AO2 SLP256 T01780128 $=
201109181452 METAR KATL 181452Z 09011KT 10SM BKN010 BKN013 OVC100 17/12 A3030 RMK AO2 SLP255 T01670122 53008 $=
201109181352 METAR KATL 181352Z 09011KT 10SM OVC010 16/13 A3029 RMK AO2 SLP251 T01610128 $=
201109181252 METAR KATL 181252Z 09011KT 10SM OVC010 16/12 A3028 RMK AO2 SLP250 T01560122 $=
201109181152 METAR KATL 181152Z 09010KT 10SM OVC010 15/12 A3027 RMK AO2 SLP247 T01500122 10167 20144 53009 $=
201109181052 METAR KATL 181052Z 09011KT 10SM OVC010 14/12 A3025 RMK AO2 SLP239 T01440122 $=
201109181019 SPECI KATL 181019Z 09013KT 10SM BKN010 14/12 A3025 RMK AO2 $=
201109181019 SPECI KATL 181019Z 09013KT 10SM BKN010 14/12 A3025 RMK AO2 $=
201109180952 METAR KATL 180952Z 08008KT 10SM FEW020 14/12 A3025 RMK AO2 SLP238 T01440117 $=
201109180852 METAR KATL 180852Z 09010KT 10SM CLR 15/12 A3024 RMK AO2 SLP236 T01500122 55001 $=
201109180752 METAR KATL 180752Z 10010KT 10SM CLR 16/12 A3024 RMK AO2 SLP234 T01560122 $=
201109180652 METAR KATL 180652Z 09009KT 10SM CLR 16/12 A3025 RMK AO2 SLP236 T01610122 $=
201109180552 METAR KATL 180552Z 09010KT 10SM CLR 17/12 A3025 RMK AO2 SLP237 T01670122 10228 20167 50006 $=
201109180452 METAR KATL 180452Z 08011KT 10SM CLR 17/12 A3025 RMK AO2 SLP238 T01720122 402610133 $=
201109180352 METAR KATL 180352Z 09012KT 10SM CLR 18/12 A3024 RMK AO2 SLP236 T01830122 $=
201109180252 METAR KATL 180252Z 09009KT 10SM CLR 19/12 A3023 RMK AO2 SLP233 T01940117 51015 $=
201109180152 METAR KATL 180152Z 09009KT 10SM CLR 20/12 A3023 RMK AO2 SLP231 T02000117 $=
201109180052 METAR KATL 180052Z 10007KT 10SM FEW250 21/12 A3020 RMK AO2 SLP224 T02110117 $=
201109172352 METAR KATL 172352Z 07008KT 10SM FEW150 SCT250 23/11 A3019 RMK AO2 SLP217 T02280111 10261 20228 53005 $=
201109172252 METAR KATL 172252Z 08006KT 10SM FEW150 SCT200 SCT250 24/11 A3017 RMK AO2 SLP212 T02440106 $=
201109172152 METAR KATL 172152Z 04006KT 10SM FEW120 SCT150 SCT200 BKN250 25/11 A3017 RMK AO2 SLP211 T02500111 $=
201109172052 METAR KATL 172052Z VRB04KT 10SM FEW150 SCT200 BKN250 25/11 A3017 RMK AO2 SLP211 VIRGA W-N T02500106 56018 $=
201109171952 METAR KATL 171952Z 14003KT 10SM SCT150 BKN180 BKN250 24/12 A3018 RMK AO2 SLP214 VIRGA S-W T02390117 $=
201109171852 METAR KATL 171852Z 06006KT 10SM SCT150 SCT180 BKN250 24/12 A3021 RMK AO2 SLP223 T02440117 $=
201109171752 METAR KATL 171752Z VRB04KT 10SM FEW150 SCT250 23/11 A3023 RMK AO2 SLP231 T02280111 10233 20139 58016 $=
201109171652 METAR KATL 171652Z 04007KT 10SM SCT150 SCT250 21/11 A3025 RMK AO2 SLP241 T02110106 $=
201109171552 METAR KATL 171552Z VRB04KT 10SM FEW035 BKN150 BKN250 19/10 A3028 RMK AO2 SLP249 T01940100 $=
201109171452 METAR KATL 171452Z 07008KT 10SM SCT150 BKN250 17/09 A3027 RMK AO2 SLP249 T01720094 51011 $=
201109171352 METAR KATL 171352Z 09008KT 10SM SCT150 BKN250 16/09 A3027 RMK AO2 SLP247 T01560089 $=
201109171252 METAR KATL 171252Z 08012KT 030V100 10SM BKN014 14/08 A3026 RMK AO2 SLP244 T01440083 $=
201109171152 METAR KATL 171152Z 08009KT 10SM OVC014 14/08 A3024 RMK AO2 SLP237 T01390083 10144 20133 51010 $=
201109171150 SPECI KATL 171150Z 09010KT 10SM BKN014 14/08 A3024 RMK AO2 $=
201109171150 SPECI KATL 171150Z 09010KT 10SM BKN014 14/08 A3024 RMK AO2 $=
201109171142 SPECI KATL 171142Z 09009KT 10SM BKN016 14/08 A3024 RMK AO2 $=
201109171142 SPECI KATL 171142Z 09009KT 10SM BKN016 14/08 A3024 RMK AO2 $=
201109171052 METAR KATL 171052Z 07008KT 10SM SCT017 SCT150 14/08 A3022 RMK AO2 SLP231 T01390078 $=
201109170952 METAR KATL 170952Z 08011KT 10SM BKN019 14/08 A3021 RMK AO2 SLP226 T01440078 $=
201109170852 METAR KATL 170852Z 10010KT 10SM OVC021 14/08 A3021 RMK AO2 SLP225 T01440078 56011 $=
201109170752 METAR KATL 170752Z 10007KT 10SM OVC023 14/08 A3021 RMK AO2 SLP226 T01440083 $=
201109170724 SPECI KATL 170724Z 10006KT 10SM BKN023 14/08 A3022 RMK AO2 $=
201109170724 SPECI KATL 170724Z 10006KT 10SM BKN023 14/08 A3022 RMK AO2 $=
201109170652 METAR KATL 170652Z 09007KT 10SM SCT120 13/08 A3023 RMK AO2 SLP233 T01330078 $=
201109170552 METAR KATL 170552Z 09008KT 10SM FEW030 SCT120 SCT250 14/08 A3024 RMK AO2 SLP237 T01390078 10189 20133 51003 $=
201109170452 METAR KATL 170452Z 09011KT 10SM FEW030 SCT250 14/08 A3024 RMK AO2 SLP236 T01440078 402220133 $=
201109170352 METAR KATL 170352Z 07011KT 10SM FEW250 16/08 A3024 RMK AO2 SLP237 T01560083 $=
201109170252 METAR KATL 170252Z 09011KT 10SM SCT200 16/09 A3023 RMK AO2 SLP234 T01560089 52014 $=
201109170152 METAR KATL 170152Z 09012KT 10SM SCT042 BKN200 17/09 A3022 RMK AO2 SLP229 T01670089 $=
201109170052 METAR KATL 170052Z 09009KT 10SM BKN045 BKN200 18/09 A3020 RMK AO2 SLP222 T01830089 $=
201109162352 METAR KATL 162352Z 09009KT 10SM BKN048 BKN200 19/09 A3019 RMK AO2 SLP218 T01890094 10222 20189 53005 $=
201109162252 METAR KATL 162252Z 08010KT 10SM BKN048 OVC200 20/09 A3018 RMK AO2 SLP216 T02000094 $=
201109162152 METAR KATL 162152Z 07009KT 10SM SCT035 OVC045 21/10 A3018 RMK AO2 SLP214 T02060100=
201109162052 METAR KATL 162052Z 10009KT 10SM BKN034 BKN046 22/11 A3017 RMK AO2 SLP213 T02170106 56008=
201109161952 METAR KATL 161952Z 09010G14KT 10SM BKN032 BKN048 22/11 A3018 RMK AO2 SLP214 T02170106=
201109161852 METAR KATL 161852Z 08009G17KT 10SM BKN030 BKN040 BKN050 22/11 A3019 RMK AO2 SLP217 T02170111=
201109161840 SPECI KATL 161840Z 10011KT 10SM BKN030 BKN040 BKN050 21/11 A3019 RMK AO2=
201109161840 SPECI KATL 161840Z 10011KT 10SM BKN030 BKN040 BKN050 21/11 A3019 RMK AO2=
201109161752 METAR KATL 161752Z 11010KT 10SM BKN029 BKN037 OVC050 21/11 A3020 RMK AO2 SLP222 T02060111 10211 20178 50003=
201109161652 METAR KATL 161652Z 08012KT 10SM BKN027 BKN040 BKN050 21/11 A3020 RMK AO2 SLP222 T02060111=
201109161552 METAR KATL 161552Z 08015KT 10SM OVC025 19/12 A3020 RMK AO2 SLP222 T01940117=
201109161452 METAR KATL 161452Z 08017KT 10SM OVC022 19/12 A3019 RMK AO2 SLP218 T01940117 53021=
201109161352 METAR KATL 161352Z 07016KT 10SM OVC022 19/12 A3016 RMK AO2 SLP208 T01940117=
201109161252 METAR KATL 161252Z 08016KT 10SM BKN022 BKN120 19/12 A3014 RMK AO2 SLP201 T01890122=
201109161152 METAR KATL 161152Z 06011KT 10SM BKN022 BKN035 18/12 A3012 RMK AO2 SLP194 T01780122 10178 20139 53017=
201109161140 SPECI KATL 161140Z 06011KT 10SM BKN022 BKN035 18/12 A3012 RMK AO2=
201109161140 SPECI KATL 161140Z 06011KT 10SM BKN022 BKN035 18/12 A3012 RMK AO2=
201109161052 METAR KATL 161052Z 05009KT 10SM BKN035 17/12 A3010 RMK AO2 SLP186 T01670122=
201109160952 METAR KATL 160952Z 04006KT 10SM FEW038 16/12 A3008 RMK AO2 SLP179 T01560122=
201109160852 METAR KATL 160852Z 35007KT 10SM SCT038 14/11 A3007 RMK AO2 SLP175 T01440111 53002=
201109160752 METAR KATL 160752Z 36005KT 10SM FEW035 14/11 A3006 RMK AO2 SLP173 T01440111=
201109160652 METAR KATL 160652Z 33008KT 10SM CLR 14/11 A3006 RMK AO2 SLP173 T01440111=
201109160552 METAR KATL 160552Z 33009KT 10SM CLR 15/12 A3007 RMK AO2 SLP173 T01500117 10206 20150 52005=
201109160452 METAR KATL 160452Z 33009KT 10SM FEW015 SCT250 16/12 A3006 RMK AO2 SLP170 T01560117 403000156=
201109160352 METAR KATL 160352Z 33010KT 10SM FEW015 SCT250 17/12 A3006 RMK AO2 SLP172 T01670122=
201109160305 SPECI KATL 160305Z 34011G19KT 10SM SCT016 SCT250 17/13 A3005 RMK AO2=
201109160305 SPECI KATL 160305Z 34011G19KT 10SM SCT016 SCT250 17/13 A3005 RMK AO2=
201109160252 METAR KATL 160252Z 34012G20KT 10SM BKN016 BKN250 17/13 A3005 RMK AO2 SLP169 T01720128 52016=
201109160214 SPECI KATL 160214Z 32013G19KT 10SM BKN016 BKN250 18/13 A3004 RMK AO2=
201109160214 SPECI KATL 160214Z 32013G19KT 10SM BKN016 BKN250 18/13 A3004 RMK AO2=
201109160152 METAR KATL 160152Z 33015KT 10SM FEW017 SCT250 18/14 A3004 RMK AO2 SLP163 T01830139=
201109160052 METAR KATL 160052Z 32013G18KT 10SM FEW019 SCT250 19/14 A3002 RMK AO2 SLP158 T01940144=
201109152352 METAR KATL 152352Z 33014G22KT 10SM FEW030 SCT250 21/14 A3000 RMK AO2 SLP153 T02060144 10289 20206 51016=
201109152252 METAR KATL 152252Z 33012G20KT 10SM FEW030 SCT040 22/16 A3000 RMK AO2 SLP150 T02220161=
201109152152 METAR KATL 152152Z 34015G22KT 10SM FEW030 SCT040 SCT250 24/17 A2997 RMK AO2 SLP141 T02440167 $=
201109152052 METAR KATL 152052Z 32013KT 10SM SCT036 SCT250 27/17 A2995 RMK AO2 SLP134 T02720167 58003=
201109151952 METAR KATL 151952Z 31016G19KT 10SM SCT035 BKN250 29/17 A2996 RMK AO2 SLP135 T02890172=
201109151852 METAR KATL 151852Z 30016KT 10SM FEW027 SCT035 BKN250 28/18 A2997 RMK AO2 SLP139 T02780178=
201109151752 METAR KATL 151752Z 33013KT 10SM SCT032TCU BKN045 BKN080 29/19 A2996 RMK AO2 SLP136 TCU E-S-SW T02890189 10300 20211 58004=
201109151652 METAR KATL 151652Z 29007KT 230V320 10SM BKN032TCU BKN045 BKN080 29/18 A2998 RMK AO2 SLP139 TCU NE-OHD-SW T02890183=
201109151552 METAR KATL 151552Z VRB04KT 10SM FEW090 SCT200 27/17 A2998 RMK AO2 SLP142 T02670172=
201109151452 METAR KATL 151452Z 31009KT 10SM BKN090 BKN200 26/16 A2998 RMK AO2 SLP141 T02560156 53012=
201109151352 METAR KATL 151352Z 28008KT 10SM FEW035 SCT090 BKN250 26/15 A2996 RMK AO2 SLP135 T02560150=
201109151252 METAR KATL 151252Z 27006KT 10SM FEW030 SCT100 SCT250 23/14 A2995 RMK AO2 SLP134 T02280144=
201109151152 METAR KATL 151152Z 00000KT 10SM FEW060 SCT150 SCT250 21/14 A2994 RMK AO2 SLP128 T02110144 10228 20200 53005=
201109151052 METAR KATL 151052Z 23003KT 10SM SCT060 BKN095 BKN150 BKN250 21/14 A2993 RMK AO2 SLP124 T02110144=
201109150952 METAR KATL 150952Z 00000KT 10SM SCT095 BKN150 OVC250 21/14 A2993 RMK AO2 SLP123 T02060144=
201109150852 METAR KATL 150852Z 22003KT 10SM SCT140 BKN250 21/14 A2992 RMK AO2 SLP122 T02060144 50001=
201109150752 METAR KATL 150752Z 00000KT 10SM SCT140 SCT250 22/14 A2993 RMK AO2 SLP124 T02170144=
201109150652 METAR KATL 150652Z 23004KT 10SM FEW150 BKN250 22/14 A2993 RMK AO2 SLP125 T02170144=
201109150552 METAR KATL 150552Z 16003KT 10SM OVC250 23/14 A2992 RMK AO2 SLP121 T02280144 10283 20228 58010=
201109150452 METAR KATL 150452Z 00000KT 10SM OVC250 24/13 A2995 RMK AO2 SLP129 T02390133 403330189=
201109150352 METAR KATL 150352Z 30003KT 10SM OVC250 24/13 A2996 RMK AO2 SLP135 T02390133=
201109150252 METAR KATL 150252Z 29005KT 10SM OVC250 24/13 A2995 RMK AO2 SLP132 T02440133 51012=
201109150152 METAR KATL 150152Z 29006KT 10SM BKN250 26/13 A2995 RMK AO2 SLP131 T02560128=
201109150052 METAR KATL 150052Z 27007KT 10SM BKN250 26/12 A2993 RMK AO2 SLP125 T02610122=
201109142352 METAR KATL 142352Z 20003KT 10SM BKN250 28/11 A2992 RMK AO2 SLP120 T02830106 10333 20283 58013=
201109142252 METAR KATL 142252Z 20005KT 10SM FEW080 BKN250 31/09 A2993 RMK AO2 SLP126 T03060094=
201109142152 METAR KATL 142152Z VRB04KT 10SM FEW085 SCT250 32/09 A2995 RMK AO2 SLP129 T03170089=
201109142052 METAR KATL 142052Z 00000KT 10SM SCT090 SCT250 31/09 A2996 RMK AO2 SLP133 T03110089 55014=
201109141952 METAR KATL 141952Z VRB03KT 10SM SCT080 32/09 A2995 RMK AO2 SLP131 T03170094=
201109141852 METAR KATL 141852Z 15004KT 10SM SCT080 32/09 A2997 RMK AO2 SLP139 T03220094=
201109141752 METAR KATL 141752Z 00000KT 10SM SCT075 32/10 A3000 RMK AO2 SLP147 T03170100 10322 20206 58013=
201109141652 METAR KATL 141652Z VRB03KT 10SM FEW065 31/09 A3001 RMK AO2 SLP152 T03060094=
201109141552 METAR KATL 141552Z 00000KT 10SM FEW250 29/12 A3003 RMK AO2 SLP158 T02890122=
201109141452 METAR KATL 141452Z 05004KT 10SM FEW250 28/14 A3004 RMK AO2 SLP162 T02780144 51004=
201109141352 METAR KATL 141352Z 08005KT 10SM FEW250 26/14 A3003 RMK AO2 SLP160 T02560139 $=
201109141252 METAR KATL 141252Z 08003KT 10SM FEW250 23/13 A3003 RMK AO2 SLP159 T02330133=
201109141152 METAR KATL 141152Z 03004KT 10SM CLR 22/13 A3002 RMK AO2 SLP158 T02170133 10222 20189 53012=
201109141052 METAR KATL 141052Z VRB03KT 10SM FEW200 20/13 A3000 RMK AO2 SLP150 T02000133=
201109140952 METAR KATL 140952Z 00000KT 10SM FEW200 20/13 A2999 RMK AO2 SLP146 T02000133=
201109140852 METAR KATL 140852Z 02005KT 10SM FEW200 22/13 A2999 RMK AO2 SLP144 T02170133 56006=
201109140752 METAR KATL 140752Z 29003KT 10SM FEW200 20/13 A2999 RMK AO2 SLP146 T02000133=
201109140652 METAR KATL 140652Z 34003KT 10SM SCT200 21/13 A3000 RMK AO2 SLP149 T02110133=
201109140552 METAR KATL 140552Z 34005KT 10SM BKN200 22/13 A3001 RMK AO2 SLP150 T02170133 10272 20217 58003=
201109140452 METAR KATL 140452Z 33005KT 10SM BKN200 23/13 A3001 RMK AO2 SLP151 T02280133 403170178=
201109140352 METAR KATL 140352Z 33004KT 10SM BKN200 23/13 A3002 RMK AO2 SLP153 T02330128=
201109140252 METAR KATL 140252Z 32005KT 10SM SCT250 23/13 A3001 RMK AO2 SLP154 T02330133 53006=
201109140152 METAR KATL 140152Z 33007KT 10SM SCT250 25/12 A3001 RMK AO2 SLP152 T02500122=
201109140052 METAR KATL 140052Z 33006KT 10SM FEW075 SCT250 27/12 A3000 RMK AO2 SLP148 T02670122=
201109132352 METAR KATL 132352Z 31007KT 10SM FEW075 27/12 A3000 RMK AO2 SLP149 T02720122 10317 20272 56001=
201109132252 METAR KATL 132252Z 31009KT 10SM FEW075 29/12 A3000 RMK AO2 SLP149 T02940122=
201109132152 METAR KATL 132152Z 32006KT 10SM SCT075 31/11 A3000 RMK AO2 SLP148 T03060111=
201109132052 METAR KATL 132052Z VRB03KT 10SM SCT065 31/11 A3000 RMK AO2 SLP148 T03060111 56017=
201109131952 METAR KATL 131952Z 35004KT 10SM SCT065 31/12 A3001 RMK AO2 SLP151 T03060117=
201109131852 METAR KATL 131852Z 35007KT 310V010 10SM SCT060 30/13 A3002 RMK AO2 SLP157 T03000133=
201109131752 METAR KATL 131752Z VRB06KT 10SM SCT055 30/13 A3005 RMK AO2 SLP165 T03000133 10306 20189 58011=
201109131652 METAR KATL 131652Z 36008KT 10SM SCT050 29/13 A3007 RMK AO2 SLP172 T02890133=
201109131552 METAR KATL 131552Z 30007KT 10SM FEW045 28/14 A3008 RMK AO2 SLP177 T02830139=
201109131452 METAR KATL 131452Z 32006KT 10SM CLR 27/14 A3008 RMK AO2 SLP177 T02670144 53005=
201109131352 METAR KATL 131352Z 31005KT 10SM CLR 25/15 A3007 RMK AO2 SLP173 T02500150=
201109131252 METAR KATL 131252Z 30006KT 10SM CLR 21/15 A3007 RMK AO2 SLP174 T02110150=
201109131152 METAR KATL 131152Z 32006KT 10SM CLR 19/14 A3007 RMK AO2 SLP173 T01890144 10217 20178 53007=
201109131052 METAR KATL 131052Z 31006KT 10SM CLR 18/14 A3005 RMK AO2 SLP168 T01780144=
201109130952 METAR KATL 130952Z 31004KT 10SM CLR 18/14 A3005 RMK AO2 SLP165 T01830144=
201109130852 METAR KATL 130852Z 00000KT 10SM FEW050 19/14 A3004 RMK AO2 SLP164 T01890144 56006=
201109130752 METAR KATL 130752Z 30003KT 10SM CLR 19/14 A3005 RMK AO2 SLP164 T01940144=
201109130652 METAR KATL 130652Z 32003KT 10SM CLR 21/14 A3005 RMK AO2 SLP167 T02110144=
201109130552 METAR KATL 130552Z 31003KT 10SM CLR 21/15 A3006 RMK AO2 SLP170 T02060150 10256 20206 58004=
201109130452 METAR KATL 130452Z 29005KT 10SM CLR 21/15 A3007 RMK AO2 SLP173 T02110150 403060183=
201109130352 METAR KATL 130352Z 29004KT 10SM CLR 23/14 A3007 RMK AO2 SLP174 T02280144=
201109130252 METAR KATL 130252Z 29004KT 10SM CLR 23/14 A3008 RMK AO2 SLP175 T02330144 53012=
201109130152 METAR KATL 130152Z 31007KT 10SM CLR 24/14 A3007 RMK AO2 SLP172 T02440144=
201109130052 METAR KATL 130052Z 31004KT 10SM CLR 25/14 A3005 RMK AO2 SLP166 T02500139=
201109122352 METAR KATL 122352Z 28006KT 10SM FEW060 26/13 A3004 RMK AO2 SLP164 T02560133 10306 20256 54000=
201109122252 METAR KATL 122252Z 30007KT 10SM FEW065 SCT150 28/12 A3004 RMK AO2 SLP164 T02830122=
201109122152 METAR KATL 122152Z 30007KT 10SM FEW065 29/13 A3004 RMK AO2 SLP162 T02940128=
201109122052 METAR KATL 122052Z 28008KT 10SM FEW065 SCT150 29/12 A3004 RMK AO2 SLP163 T02940122 56022=
201109121952 METAR KATL 121952Z 31011G15KT 10SM SCT060 31/13 A3006 RMK AO2 SLP168 TCU DSNT SW-NW T03060128=
201109121852 METAR KATL 121852Z 32008KT 10SM SCT055 SCT150 28/13 A3008 RMK AO2 SLP177 TCU DSNT SE & SW T02830128=
201109121752 METAR KATL 121752Z 34011G15KT 10SM SCT055 29/13 A3011 RMK AO2 SLP185 TCU DSNT SW-NW T02940133 10294 20194 58017=
201109121652 METAR KATL 121652Z 33006G17KT 10SM FEW050TCU 28/13 A3013 RMK AO2 SLP194 TCU NW T02830128=
201109121552 METAR KATL 121552Z 32004KT 10SM FEW040 27/14 A3015 RMK AO2 SLP202 T02720144=
201109121452 METAR KATL 121452Z 30007KT 10SM CLR 26/16 A3016 RMK AO2 SLP203 T02560156 53008=
201109121352 METAR KATL 121352Z 30007KT 10SM CLR 24/14 A3015 RMK AO2 SLP200 T02390144=
201109121252 METAR KATL 121252Z 30007KT 10SM CLR 22/14 A3014 RMK AO2 SLP197 T02170139=
201109121152 METAR KATL 121152Z 28003KT 10SM FEW120 19/13 A3013 RMK AO2 SLP196 T01890128 10206 20183 53012=
201109121052 METAR KATL 121052Z 28004KT 10SM FEW030 SCT250 18/13 A3012 RMK AO2 SLP189 T01830133=
201109120952 METAR KATL 120952Z 31005KT 10SM CLR 18/13 A3010 RMK AO2 SLP185 T01830133=
201109120852 METAR KATL 120852Z 31004KT 10SM FEW150 SCT250 19/13 A3010 RMK AO2 SLP182 T01890133 56003=
201109120752 METAR KATL 120752Z 30004KT 10SM FEW150 SCT250 19/13 A3010 RMK AO2 SLP184 T01940128=
201109120652 METAR KATL 120652Z 30005KT 10SM FEW150 19/13 A3010 RMK AO2 SLP183 T01940133=
201109120552 METAR KATL 120552Z 31005KT 9SM FEW150 SCT250 21/13 A3010 RMK AO2 SLP184 T02060128 10261 20206 58000=
201109120452 METAR KATL 120452Z 31003KT 10SM FEW150 SCT250 22/13 A3011 RMK AO2 SLP185 T02170128 403000161=
201109120352 METAR KATL 120352Z 29004KT 10SM FEW150 BKN250 22/13 A3011 RMK AO2 SLP187 T02170128=
201109120252 METAR KATL 120252Z 00000KT 10SM FEW120 SCT150 BKN250 23/12 A3011 RMK AO2 SLP186 T02280117 51014=
201109120152 METAR KATL 120152Z 30003KT 10SM FEW120 23/12 A3010 RMK AO2 SLP184 T02280122=
201109120052 METAR KATL 120052Z 00000KT 10SM FEW120 SCT200 24/11 A3008 RMK AO2 SLP178 T02440111=
201109112352 METAR KATL 112352Z 31005KT 10SM FEW120 SCT150 SCT180 26/10 A3006 RMK AO2 SLP174 T02610100 10300 20261 53001=
201109112252 METAR KATL 112252Z 27005KT 10SM FEW075 SCT150 SCT250 28/10 A3006 RMK AO2 SLP170 T02780100=
201109112152 METAR KATL 112152Z 27006KT 10SM FEW075 SCT120 SCT150 BKN250 28/09 A3006 RMK AO2 SLP172 T02830089=
201109112052 METAR KATL 112052Z 33005KT 10SM FEW075 SCT250 29/08 A3006 RMK AO2 SLP171 T02940083 56016=
201109111952 METAR KATL 111952Z 22004KT 10SM FEW075 SCT250 29/08 A3008 RMK AO2 SLP176 T02890083=
201109111852 METAR KATL 111852Z 19004KT 10SM FEW075 SCT250 29/07 A3009 RMK AO2 SLP181 T02890067=
201109111752 METAR KATL 111752Z 31009KT 10SM FEW070 SCT250 29/08 A3011 RMK AO2 SLP186 T02940083 10294 20167 58007=
201109111652 METAR KATL 111652Z VRB04KT 10SM SCT065 28/09 A3012 RMK AO2 SLP191 T02830089=
201109111552 METAR KATL 111552Z 25003KT 10SM SCT060 28/09 A3013 RMK AO2 SLP194 T02780089=
201109111452 METAR KATL 111452Z 00000KT 10SM CLR 26/12 A3013 RMK AO2 SLP194 T02560117 51010=
201109111352 METAR KATL 111352Z 00000KT 10SM CLR 23/12 A3013 RMK AO2 SLP192 T02280122=
201109111252 METAR KATL 111252Z 31003KT 10SM CLR 19/12 A3011 RMK AO2 SLP190 T01890122=
201109111152 METAR KATL 111152Z 31003KT 10SM CLR 17/12 A3010 RMK AO2 SLP185 T01670117 10200 20161 53015=
201109111052 METAR KATL 111052Z 00000KT 10SM CLR 18/11 A3008 RMK AO2 SLP178 T01830111=
201109110952 METAR KATL 110952Z 00000KT 10SM CLR 17/11 A3006 RMK AO2 SLP172 T01720111=
201109110852 METAR KATL 110852Z 00000KT 10SM CLR 18/11 A3005 RMK AO2 SLP168 T01780106 56004=
201109110752 METAR KATL 110752Z 33004KT 10SM CLR 18/11 A3005 RMK AO2 SLP168 T01830111=
201109110652 METAR KATL 110652Z 32004KT 10SM CLR 18/12 A3006 RMK AO2 SLP171 T01780122=
201109110552 METAR KATL 110552Z 33003KT 10SM CLR 20/11 A3007 RMK AO2 SLP172 T02000106 10256 20183 51003=
201109110452 METAR KATL 110452Z VRB04KT 10SM CLR 21/10 A3006 RMK AO2 SLP172 T02060100 402890144=
201109110352 METAR KATL 110352Z 33005KT 10SM CLR 21/11 A3007 RMK AO2 SLP172 T02110106=
201109110252 METAR KATL 110252Z 32005KT 10SM CLR 22/10 A3006 RMK AO2 SLP169 T02170100 53012=
201109110152 METAR KATL 110152Z 34005KT 10SM CLR 24/08 A3004 RMK AO2 SLP163 T02440083=
201109110052 METAR KATL 110052Z 33004KT 10SM CLR 24/09 A3003 RMK AO2 SLP160 T02440089=
201109102352 METAR KATL 102352Z 34005KT 10SM CLR 26/09 A3002 RMK AO2 SLP160 T02560094 10289 20256 53006=
201109102252 METAR KATL 102252Z 33004KT 10SM CLR 27/07 A3001 RMK AO2 SLP153 T02720072=
201109102152 METAR KATL 102152Z 29007KT 10SM FEW075 28/09 A3000 RMK AO2 SLP151 T02830089=
201109102052 METAR KATL 102052Z 33004KT 10SM FEW075 28/08 A3000 RMK AO2 SLP152 T02830078 56013=
201109101952 METAR KATL 101952Z 34009KT 10SM FEW075 28/09 A3001 RMK AO2 SLP155 T02830089=
201109101852 METAR KATL 101852Z 30008KT 10SM FEW070 28/08 A3003 RMK AO2 SLP159 T02830083=
201109101752 METAR KATL 101752Z 06004KT 10SM FEW070 27/10 A3004 RMK AO2 SLP165 T02720100 10278 20156 58010=
201109101652 METAR KATL 101652Z VRB04KT 10SM CLR 27/08 A3006 RMK AO2 SLP172 T02670083=
201109101552 METAR KATL 101552Z 29005KT 10SM CLR 26/10 A3008 RMK AO2 SLP178 T02610100=
201109101452 METAR KATL 101452Z 30008KT 10SM CLR 25/11 A3007 RMK AO2 SLP175 T02500106 51012=
201109101352 METAR KATL 101352Z 32005KT 10SM CLR 22/12 A3007 RMK AO2 SLP173 T02170122=
201109101252 METAR KATL 101252Z 29003KT 10SM CLR 20/13 A3005 RMK AO2 SLP170 T02000133=
201109101152 METAR KATL 101152Z 31003KT 10SM CLR 16/12 A3004 RMK AO2 SLP165 T01560122 10183 20144 53013=
201109101052 METAR KATL 101052Z 32005KT 10SM CLR 16/12 A3002 RMK AO2 SLP159 T01560122=
201109100952 METAR KATL 100952Z 00000KT 10SM CLR 16/13 A3001 RMK AO2 SLP154 T01560128=
201109100852 METAR KATL 100852Z 32004KT 10SM CLR 16/12 A3000 RMK AO2 SLP151 T01560122 56003=
201109100752 METAR KATL 100752Z 32005KT 10SM CLR 16/13 A3000 RMK AO2 SLP152 T01610128=
201109100652 METAR KATL 100652Z 32008KT 10SM CLR 17/13 A3000 RMK AO2 SLP150 T01720128=
201109100552 METAR KATL 100552Z 31004KT 10SM CLR 18/13 A3001 RMK AO2 SLP153 T01780128 10233 20172 50001=
201109100452 METAR KATL 100452Z 00000KT 10SM FEW050 18/13 A3001 RMK AO2 SLP154 T01830128 402720144=
201109100352 METAR KATL 100352Z 00000KT 10SM FEW050 19/12 A3001 RMK AO2 SLP153 T01940122=
201109100252 METAR KATL 100252Z 32003KT 10SM FEW050 21/12 A3000 RMK AO2 SLP152 T02110117 51016=
201109100152 METAR KATL 100152Z 33003KT 10SM CLR 22/11 A2999 RMK AO2 SLP148 T02220111=
201109100052 METAR KATL 100052Z 33003KT 10SM FEW055 23/11 A2997 RMK AO2 SLP143 T02280111=
201109092352 METAR KATL 092352Z 33006KT 10SM FEW060 23/11 A2995 RMK AO2 SLP136 T02330111 10272 20233 53003=
201109092252 METAR KATL 092252Z 33008KT 10SM FEW060 26/11 A2994 RMK AO2 SLP134 T02560106=
201109092152 METAR KATL 092152Z 31009KT 10SM FEW060 26/11 A2994 RMK AO2 SLP132 T02610106=
201109092052 METAR KATL 092052Z 33013G17KT 10SM FEW060 26/11 A2994 RMK AO2 SLP133 T02610106 56010=
201109091952 METAR KATL 091952Z 31010KT 10SM FEW055 26/11 A2994 RMK AO2 SLP133 T02610106=
201109091852 METAR KATL 091852Z 28009KT 10SM SCT050 27/11 A2996 RMK AO2 SLP138 T02670111=
201109091752 METAR KATL 091752Z 29006KT 10SM SCT044 26/12 A2997 RMK AO2 SLP144 T02560122 10261 20150 58006=
201109091652 METAR KATL 091652Z 28007G14KT 240V340 10SM SCT036 24/13 A2999 RMK AO2 SLP148 T02440128=
201109091552 METAR KATL 091552Z 33009KT 10SM FEW035 23/12 A2999 RMK AO2 SLP149 T02280122=
201109091452 METAR KATL 091452Z 31009KT 10SM FEW025 22/13 A2999 RMK AO2 SLP150 T02170128 53011=
201109091352 METAR KATL 091352Z 30010KT 10SM CLR 19/13 A2998 RMK AO2 SLP146 T01890133=
201109091252 METAR KATL 091252Z 30009KT 10SM CLR 17/13 A2997 RMK AO2 SLP142 T01670133=
201109091152 METAR KATL 091152Z 28005KT 10SM CLR 15/13 A2996 RMK AO2 SLP140 T01500128 10156 20144 53009=
201109091052 METAR KATL 091052Z 29007KT 10SM CLR 14/13 A2994 RMK AO2 SLP134 T01440128=
201109090952 METAR KATL 090952Z 30005KT 10SM CLR 14/12 A2994 RMK AO2 SLP132 T01440122=
201109090852 METAR KATL 090852Z 29005KT 10SM CLR 14/12 A2993 RMK AO2 SLP130 T01440122 56004=
201109090752 METAR KATL 090752Z 28004KT 10SM CLR 15/12 A2994 RMK AO2 SLP131 T01500122=
201109090652 METAR KATL 090652Z 27004KT 10SM CLR 16/12 A2994 RMK AO2 SLP132 T01560122=
201109090552 METAR KATL 090552Z 28005KT 10SM CLR 16/12 A2994 RMK AO2 SLP134 T01560122 10206 20156 58008=
201109090452 METAR KATL 090452Z 28004KT 10SM FEW050 SCT250 16/12 A2995 RMK AO2 SLP138 T01610122 402280144=
201109090352 METAR KATL 090352Z 29004KT 10SM FEW050 17/13 A2996 RMK AO2 SLP141 T01720128=
201109090252 METAR KATL 090252Z 27003KT 10SM FEW050 18/13 A2997 RMK AO2 SLP142 T01830133 51010=
201109090152 METAR KATL 090152Z 32008KT 10SM BKN050 BKN200 20/13 A2996 RMK AO2 SLP140 T02000128=
201109090052 SPECI KATL 090052Z 31007KT 10SM BKN050 BKN200 20/13 A2995 RMK AO2 SLP136 T02000128=
201109082352 METAR KATL 082352Z 32006KT 10SM BKN050 BKN200 BKN250 21/13 A2993 RMK AO2 SLP132 T02060128 10228 20206 52003=
201109082252 METAR KATL 082252Z 33008KT 10SM BKN050 BKN200 BKN250 22/12 A2993 RMK AO2 SLP130 T02170122=
201109082152 METAR KATL 082152Z COR 31005KT 10SM BKN040 BKN200 22/12 A2993 RMK AO2 SLP129 T02170122=
201109082052 METAR KATL 082052Z 32009KT 10SM FEW030 BKN040 BKN250 22/12 A2992 RMK AO2 SLP128 T02220122 58008=
201109081952 METAR KATL 081952Z 32011G16KT 10SM BKN036 BKN250 22/13 A2993 RMK AO2 SLP130 T02220128=
201109081852 METAR KATL 081852Z 33009KT 10SM BKN032 BKN250 22/13 A2994 RMK AO2 SLP132 T02170128=
201109081806 SPECI KATL 081806Z 34010KT 10SM BKN030 BKN250 22/13 A2995 RMK AO2=
201109081806 SPECI KATL 081806Z 34010KT 10SM BKN030 BKN250 22/13 A2995 RMK AO2=
201109081752 METAR KATL 081752Z 34007KT 10SM BKN028 BKN250 22/13 A2995 RMK AO2 SLP135 T02220128 10228 20150 58005=
201109081652 METAR KATL 081652Z 33011KT 10SM BKN026 BKN030 BKN250 21/12 A2996 RMK AO2 SLP139 T02060122=
201109081552 METAR KATL 081552Z 35008KT 10SM BKN024 BKN030 BKN250 21/13 A2997 RMK AO2 SLP142 T02060128=
201109081549 SPECI KATL 081549Z 34008KT 10SM BKN024 BKN030 BKN250 21/13 A2997 RMK AO2=
201109081549 SPECI KATL 081549Z 34008KT 10SM BKN024 BKN030 BKN250 21/13 A2997 RMK AO2=
201109081452 METAR KATL 081452Z 34011KT 10SM SCT018 SCT180 BKN250 19/12 A2997 RMK AO2 SLP144 T01890122 53004=
201109081352 METAR KATL 081352Z 33014G19KT 10SM SCT014 BKN180 BKN250 17/13 A2996 RMK AO2 SLP141 T01720128=
201109081252 METAR KATL 081252Z 32009KT 10SM FEW010 SCT180 BKN250 17/13 A2996 RMK AO2 SLP142 T01670128=
201109081219 SPECI KATL 081219Z 32007KT 10SM FEW008 SCT180 SCT250 16/13 A2997 RMK AO2=
201109081219 SPECI KATL 081219Z 32007KT 10SM FEW008 SCT180 SCT250 16/13 A2997 RMK AO2=
201109081152 METAR KATL 081152Z 32006KT 10SM FEW010 SCT150 SCT250 15/13 A2996 RMK AO2 SLP142 T01500128 10172 20144 53007=
201109081052 METAR KATL 081052Z 32009KT 10SM FEW011 SCT150 SCT250 15/13 A2995 RMK AO2 SLP137 T01500128=
201109081018 SPECI KATL 081018Z 32009KT 10SM SCT011 SCT250 16/13 A2994 RMK AO2=
201109081018 SPECI KATL 081018Z 32009KT 10SM SCT011 SCT250 16/13 A2994 RMK AO2=
201109080952 METAR KATL 080952Z 33009KT 10SM BKN011 16/13 A2994 RMK AO2 SLP135 T01560133=
201109080912 SPECI KATL 080912Z 32010KT 10SM BKN011 16/13 A2994 RMK AO2=
201109080912 SPECI KATL 080912Z 32010KT 10SM BKN011 16/13 A2994 RMK AO2=
201109080852 METAR KATL 080852Z 32009KT 10SM FEW010 16/13 A2994 RMK AO2 SLP134 T01560133 56012=
201109080752 METAR KATL 080752Z 32010KT 10SM FEW012 SCT045 16/13 A2994 RMK AO2 SLP133 T01610133=
201109080652 METAR KATL 080652Z 32010KT 10SM FEW012 OVC045 17/13 A2995 RMK AO2 SLP137 T01670133=
201109080552 METAR KATL 080552Z 32009KT 10SM FEW010 OVC045 17/14 A2998 RMK AO2 SLP145 T01720139 10183 20167 58012=
201109080452 METAR KATL 080452Z 31009KT 10SM FEW012 OVC045 17/14 A2999 RMK AO2 SLP150 T01720139 402060144=
201109080352 METAR KATL 080352Z 32009KT 10SM FEW012 OVC045 17/14 A3001 RMK AO2 SLP157 T01720139=
201109080320 SPECI KATL 080320Z 32011KT 10SM SCT015 OVC045 17/14 A3001 RMK AO2=
201109080320 SPECI KATL 080320Z 32011KT 10SM SCT015 OVC045 17/14 A3001 RMK AO2=
201109080252 METAR KATL 080252Z 32010KT 10SM BKN015 OVC045 18/14 A3001 RMK AO2 SLP159 T01780144 51009=
201109080237 SPECI KATL 080237Z 32012KT 10SM BKN015 OVC045 18/14 A3001 RMK AO2=
201109080237 SPECI KATL 080237Z 32012KT 10SM BKN015 OVC045 18/14 A3001 RMK AO2=
201109080152 METAR KATL 080152Z 32008KT 10SM FEW030 OVC045 18/14 A3001 RMK AO2 SLP157 T01780144=
201109080052 METAR KATL 080052Z 31011KT 10SM FEW025 OVC040 18/14 A3000 RMK AO2 SLP153 T01830139=
201109072352 METAR KATL 072352Z 31010KT 10SM FEW022 OVC040 18/14 A2998 RMK AO2 SLP150 T01830144 10206 20183 52007=
201109072252 METAR KATL 072252Z 29007KT 10SM FEW022 OVC038 19/14 A2998 RMK AO2 SLP146 T01940144=
201109072152 METAR KATL 072152Z 31007KT 10SM FEW028 OVC035 19/14 A2997 RMK AO2 SLP143 T01940139=
201109072052 METAR KATL 072052Z 33005KT 10SM FEW028 BKN030 OVC040 20/14 A2996 RMK AO2 SLP141 T02000139 55000=
201109072033 SPECI KATL 072033Z 34008KT 10SM FEW025 BKN030 OVC040 20/14 A2996 RMK AO2=
201109072033 SPECI KATL 072033Z 34008KT 10SM FEW025 BKN030 OVC040 20/14 A2996 RMK AO2=
201109072004 SPECI KATL 072004Z 29010KT 10SM BKN024 BKN030 OVC037 20/14 A2995 RMK AO2=
201109072004 SPECI KATL 072004Z 29010KT 10SM BKN024 BKN030 OVC037 20/14 A2995 RMK AO2=
201109071952 METAR KATL 071952Z 27006KT 10SM FEW020 BKN030 OVC040 20/14 A2995 RMK AO2 SLP136 T02000139=
201109071908 SPECI KATL 071908Z 30006KT 10SM BKN025 BKN030 OVC040 19/14 A2995 RMK AO2=
201109071908 SPECI KATL 071908Z 30006KT 10SM BKN025 BKN030 OVC040 19/14 A2995 RMK AO2=
201109071852 METAR KATL 071852Z 29011KT 10SM FEW025 BKN030 OVC035 20/14 A2995 RMK AO2 SLP138 T02000139=
201109071842 SPECI KATL 071842Z 34006KT 10SM FEW025 BKN030 OVC035 20/13 A2995 RMK AO2=
201109071842 SPECI KATL 071842Z 34006KT 10SM FEW025 BKN030 OVC035 20/13 A2995 RMK AO2=
201109071800 SPECI KATL 071800Z 31008KT 10SM FEW020 OVC028 19/14 A2996 RMK AO2=
201109071800 SPECI KATL 071800Z 31008KT 10SM FEW020 OVC028 19/14 A2996 RMK AO2=
201109071752 METAR KATL 071752Z 32006KT 10SM FEW018 SCT025 OVC030 19/14 A2996 RMK AO2 SLP141 BINOVC DSNT NW 60000 T01940144 10200 20150 55002=
201109071652 METAR KATL 071652Z 33006KT 10SM FEW015 SCT020 OVC030 19/14 A2996 RMK AO2 SLP141 T01940144=
201109071555 SPECI KATL 071555Z 32008KT 10SM FEW012 BKN015 BKN030 18/14 A2996 RMK AO2=
201109071555 SPECI KATL 071555Z 32008KT 10SM FEW012 BKN015 BKN030 18/14 A2996 RMK AO2=
201109071552 METAR KATL 071552Z 31009KT 10SM BKN013 BKN018 BKN020 18/14 A2996 RMK AO2 SLP143 T01780144=
201109071452 METAR KATL 071452Z 30007KT 10SM FEW009 BKN014 OVC017 17/14 A2997 RMK AO2 SLP144 60000 T01720144 51014=
201109071430 SPECI KATL 071430Z 31005KT 10SM SCT009 BKN014 OVC017 17/14 A2996 RMK AO2=
201109071430 SPECI KATL 071430Z 31005KT 10SM SCT009 BKN014 OVC017 17/14 A2996 RMK AO2=
201109071416 SPECI KATL 071416Z 29004KT 10SM BKN010 OVC015 17/14 A2996 RMK AO2=
201109071416 SPECI KATL 071416Z 29004KT 10SM BKN010 OVC015 17/14 A2996 RMK AO2=
201109071352 METAR KATL 071352Z 32005KT 10SM BKN008 OVC013 17/14 A2995 RMK AO2 DZE48 SLP139 P0000 T01670144=
201109071316 SPECI KATL 071316Z 29006KT 6SM -DZ BR OVC006 16/14 A2995 RMK AO2 P0000=
201109071316 SPECI KATL 071316Z 29006KT 6SM -DZ BR OVC006 16/14 A2995 RMK AO2 P0000=
201109071252 METAR KATL 071252Z 28006KT 1 1/2SM -DZ BR BKN004 OVC010 16/14 A2994 RMK AO2 SFC VIS 2 1/2 SLP137 P0000 T01560139=
201109071232 SPECI KATL 071232Z 29006KT 1 1/2SM -DZ BR BKN004 OVC010 15/14 A2994 RMK AO2 SFC VIS 2 P0000=
201109071232 SPECI KATL 071232Z 29006KT 1 1/2SM -DZ BR BKN004 OVC010 15/14 A2994 RMK AO2 SFC VIS 2 P0000=
201109071159 SPECI KATL 071159Z 27003KT 1 1/2SM -DZ BR OVC006 15/14 A2993 RMK AO2 SFC VIS 2 1/2 P0000=
201109071159 SPECI KATL 071159Z 27003KT 1 1/2SM -DZ BR OVC006 15/14 A2993 RMK AO2 SFC VIS 2 1/2 P0000=
201109071152 METAR KATL 071152Z 25004KT 2SM -DZ BR BKN006 OVC010 15/14 A2993 RMK AO2 SFC VIS 4 SLP131 P0000 60000 70005 T01500139 10150 20144 53014=
201109071052 METAR KATL 071052Z 26005KT 2SM -DZ BR OVC006 14/13 A2991 RMK AO2 SFC VIS 4 SLP126 P0000 T01440133=
201109070952 METAR KATL 070952Z 26004KT 2SM -DZ BR OVC004 14/13 A2989 RMK AO2 SFC VIS 6 SLP119 P0000 T01440133=
201109070852 METAR KATL 070852Z VRB03KT 2SM -DZ BR BKN004 OVC009 14/13 A2988 RMK AO2 SFC VIS 4 SLP117 P0000 60000 T01440133 53003=
201109070826 SPECI KATL 070826Z 26006KT 2SM -DZ BR BKN004 OVC009 14/13 A2988 RMK AO2 SFC VIS 3 P0000=
201109070826 SPECI KATL 070826Z 26006KT 2SM -DZ BR BKN004 OVC009 14/13 A2988 RMK AO2 SFC VIS 3 P0000=
201109070752 METAR KATL 070752Z 27005KT 3SM -DZ BR BKN004 OVC009 14/13 A2988 RMK AO2 SFC VIS 4 SLP115 P0000 T01440133=
201109070652 METAR KATL 070652Z 27006KT 3SM -DZ BR BKN009 OVC012 14/13 A2987 RMK AO2 SFC VIS 5 DZB51 SLP111 P0000 T01440133=
201109070552 METAR KATL 070552Z 27004KT 7SM BKN007 OVC012 15/13 A2987 RMK AO2 DZE42 SLP113 P0000 60000 T01500133 10161 20144 58002=
201109070452 METAR KATL 070452Z 26005KT 10SM -DZ BKN007 OVC012 15/13 A2988 RMK AO2 DZB46 SLP116 P0000 T01500133 402390144=
201109070447 SPECI KATL 070447Z 25005KT 10SM -DZ BKN007 OVC012 15/13 A2988 RMK AO2 DZB46 P0000 402390150=
201109070447 SPECI KATL 070447Z 25005KT 10SM -DZ BKN007 OVC012 15/13 A2988 RMK AO2 DZB46 P0000 402390150=
201109070352 METAR KATL 070352Z 24007KT 10SM SCT008 OVC012 15/13 A2988 RMK AO2 SLP115 T01500128=
201109070252 METAR KATL 070252Z 23004KT 10SM SCT009 BKN013 OVC020 15/13 A2987 RMK AO2 SLP114 60000 T01500128 51014=
201109070152 METAR KATL 070152Z 24006KT 10SM SCT012 BKN018 OVC025 16/13 A2987 RMK AO2 SLP112 T01560133=
201109070052 METAR KATL 070052Z 25005G14KT 10SM SCT010 BKN018 OVC030 16/13 A2985 RMK AO2 RAE07B32E52 SLP106 P0000 T01560128=
201109062352 METAR KATL 062352Z 25008KT 9SM -RA SCT012 BKN025 OVC035 16/14 A2983 RMK AO2 RAE21B45 SLP098 P0000 60004 T01560139 10183 20156 51017=
201109062252 METAR KATL 062252Z 24008G15KT 10SM -RA SCT012 BKN028 OVC035 17/14 A2982 RMK AO2 RAB51 SLP093 P0000 T01670139=
201109062152 METAR KATL 062152Z 21005KT 10SM SCT012 BKN028 OVC035 17/14 A2980 RMK AO2 RAE10 SLP087 P0000 T01670144=
201109062052 METAR KATL 062052Z 25011KT 6SM -RA BR SCT008 BKN016 OVC030 16/14 A2978 RMK AO2 DZE1955B45E51RAB1955E30B51 SLP080 P0003 60004 T01610144 51005=
201109062037 SPECI KATL 062037Z 26011KT 10SM BKN008 BKN013 OVC030 16/14 A2978 RMK AO2 DZE1955RAB1955E30 P0002=
201109062037 SPECI KATL 062037Z 26011KT 10SM BKN008 BKN013 OVC030 16/14 A2978 RMK AO2 DZE1955RAB1955E30 P0002=
201109062030 SPECI KATL 062030Z 26011KT 10SM SCT008 BKN013 OVC019 17/14 A2978 RMK AO2 DZE1955RAB1955E30 P0002=
201109062030 SPECI KATL 062030Z 26011KT 10SM SCT008 BKN013 OVC019 17/14 A2978 RMK AO2 DZE1955RAB1955E30 P0002=
201109062015 SPECI KATL 062015Z 25009KT 3SM R09R/5500VP6000FT -RA BR BKN008 BKN014 OVC026 17/15 A2978 RMK AO2 DZE1955RAB1955 P0001=
201109062015 SPECI KATL 062015Z 25009KT 3SM R09R/5500VP6000FT -RA BR BKN008 BKN014 OVC026 17/15 A2978 RMK AO2 DZE1955RAB1955 P0001=
201109061955 SPECI KATL 061955Z 23009G16KT 3SM R09R/5000VP6000FT -RA BR FEW008 BKN015 OVC030 17/15 A2977 RMK AO2 DZE55RAB55 P0000=
201109061955 SPECI KATL 061955Z 23009G16KT 3SM R09R/5000VP6000FT -RA BR FEW008 BKN015 OVC030 17/15 A2977 RMK AO2 DZE55RAB55 P0000=
201109061954 SPECI KATL 061954Z 24009G16KT 6SM R09R/5000VP6000FT -DZ BR FEW008 BKN015 OVC030 17/14 A2977 RMK AO2 P0000=
201109061954 SPECI KATL 061954Z 24009G16KT 6SM R09R/5000VP6000FT -DZ BR FEW008 BKN015 OVC030 17/14 A2977 RMK AO2 P0000=
201109061952 METAR KATL 061952Z 24011KT 6SM R09R/5000VP6000FT -DZ BR FEW010 SCT015 OVC030 17/14 A2977 RMK AO2 DZE05B46RAB30E45 SLP075 P0001 T01670144=
201109061936 SPECI KATL 061936Z 22011G20KT 5SM R09R/4500VP6000FT -RA BR FEW013 BKN018 OVC040 17/14 A2977 RMK AO2 DZE05RAB30 P0001=
201109061936 SPECI KATL 061936Z 22011G20KT 5SM R09R/4500VP6000FT -RA BR FEW013 BKN018 OVC040 17/14 A2977 RMK AO2 DZE05RAB30 P0001=
201109061857 SPECI KATL 061857Z 21012KT 5SM -DZ BR BKN011 BKN016 OVC030 17/15 A2976 RMK AO2 P0000=
201109061857 SPECI KATL 061857Z 21012KT 5SM -DZ BR BKN011 BKN016 OVC030 17/15 A2976 RMK AO2 P0000=
201109061852 METAR KATL 061852Z 21009KT 9SM -DZ BKN011 BKN016 OVC030 17/15 A2976 RMK AO2 RAB17E49DZB51 SLP073 VIS LWR S-SW -DZ P0000 T01720150=
201109061822 SPECI KATL 061822Z 21009G20KT 6SM -RA BR BKN013 BKN018 OVC024 17/14 A2976 RMK AO2 RAB17 P0000=
201109061822 SPECI KATL 061822Z 21009G20KT 6SM -RA BR BKN013 BKN018 OVC024 17/14 A2976 RMK AO2 RAB17 P0000=
201109061755 SPECI KATL 061755Z 21012G20KT 10SM BKN011 BKN018 OVC028 17/14 A2975 RMK AO2=
201109061755 SPECI KATL 061755Z 21012G20KT 10SM BKN011 BKN018 OVC028 17/14 A2975 RMK AO2=
201109061752 METAR KATL 061752Z 21012G20KT 10SM SCT011 BKN018 BKN035 17/14 A2975 RMK AO2 DZE02RAB16E26 SLP067 P0000 60001 T01720139 10178 20161 51013=
201109061707 SPECI KATL 061707Z 21010KT 10SM SCT011 BKN015 OVC020 17/14 A2974 RMK AO2 DZE02 P0000=
201109061707 SPECI KATL 061707Z 21010KT 10SM SCT011 BKN015 OVC020 17/14 A2974 RMK AO2 DZE02 P0000=
201109061652 METAR KATL 061652Z 19011G16KT 8SM -DZ BKN011 BKN017 OVC020 17/15 A2974 RMK AO2 RAE04DZB04 SLP064 P0000 T01670150=
201109061614 SPECI KATL 061614Z 19010KT 6SM -DZ BR OVC011 16/14 A2973 RMK AO2 RAE04DZB04 P0000=
201109061614 SPECI KATL 061614Z 19010KT 6SM -DZ BR OVC011 16/14 A2973 RMK AO2 RAE04DZB04 P0000=
201109061604 SPECI KATL 061604Z 21010KT 6SM -DZ BR OVC009 16/14 A2973 RMK AO2 RAE04DZB04 P0000=
201109061604 SPECI KATL 061604Z 21010KT 6SM -DZ BR OVC009 16/14 A2973 RMK AO2 RAE04DZB04 P0000=
201109061552 METAR KATL 061552Z 20009KT 5SM -RA BR OVC011 16/14 A2973 RMK AO2 DZE47RAB47 SLP059 P0000 T01610144=
201109061544 SPECI KATL 061544Z 20011G18KT 6SM -DZ BR OVC009 16/14 A2973 RMK AO2 P0000=
201109061544 SPECI KATL 061544Z 20011G18KT 6SM -DZ BR OVC009 16/14 A2973 RMK AO2 P0000=
201109061452 METAR KATL 061452Z 21011G20KT 7SM -DZ OVC011 16/14 A2971 RMK AO2 SLP054 P0000 60001 T01610144 51028=
201109061412 SPECI KATL 061412Z 20011G20KT 9SM -DZ OVC011 16/14 A2969 RMK AO2 P0000=
201109061412 SPECI KATL 061412Z 20011G20KT 9SM -DZ OVC011 16/14 A2969 RMK AO2 P0000=
201109061352 METAR KATL 061352Z 20010G21KT 8SM -DZ BKN009 OVC013 17/14 A2968 RMK AO2 RAE29DZB48 SLP045 P0000 T01670144=
201109061323 SPECI KATL 061323Z 20013G21KT 6SM -RA BR BKN008 OVC014 16/14 A2967 RMK AO2 P0000=
201109061323 SPECI KATL 061323Z 20013G21KT 6SM -RA BR BKN008 OVC014 16/14 A2967 RMK AO2 P0000=
201109061310 SPECI KATL 061310Z 21013G18KT 6SM BR BKN010 OVC014 17/15 A2966 RMK AO2 RAE02 P0000=
201109061310 SPECI KATL 061310Z 21013G18KT 6SM BR BKN010 OVC014 17/15 A2966 RMK AO2 RAE02 P0000=
201109061252 METAR KATL 061252Z 21011G20KT 5SM -RA BR BKN008 BKN014 17/15 A2966 RMK AO2 SLP036 P0001 T01670150=
201109061222 SPECI KATL 061222Z 20014G17KT 6SM -RA BR BKN008 OVC016 17/15 A2964 RMK AO2 P0001=
201109061222 SPECI KATL 061222Z 20014G17KT 6SM -RA BR BKN008 OVC016 17/15 A2964 RMK AO2 P0001=
201109061152 METAR KATL 061152Z 21012G20KT 3SM -RA BR BKN008 OVC012 17/15 A2962 RMK AO2 SFC VIS 5 SLP025 P0000 60001 70064 T01670150 10228 20167 53028=
201109061137 SPECI KATL 061137Z 19015G20KT 3SM BR BKN008 OVC014 17/16 A2961 RMK AO2 SFC VIS 5 RAE28 PRESRR P0000=
201109061137 SPECI KATL 061137Z 19015G20KT 3SM BR BKN008 OVC014 17/16 A2961 RMK AO2 SFC VIS 5 RAE28 PRESRR P0000=
201109061104 SPECI KATL 061104Z 20012G18KT 2 1/2SM -RA BR BKN008 OVC012 17/16 A2959 RMK AO2 SFC VIS 4 P0000=
201109061104 SPECI KATL 061104Z 20012G18KT 2 1/2SM -RA BR BKN008 OVC012 17/16 A2959 RMK AO2 SFC VIS 4 P0000=
201109061052 METAR KATL 061052Z 19011KT 5SM -RA BR OVC010 17/16 A2958 RMK AO2 RAE0957B44 SLP010 P0000 T01720156=
201109060952 METAR KATL 060952Z 18014G18KT 8SM -RA BKN010 OVC014 17/16 A2956 RMK AO2 RAB0856E06B41 SLP000 P0000 T01720156=
201109060852 METAR KATL 060852Z 18013KT 7SM BKN012 OVC018 18/16 A2954 RMK AO2 PK WND 18027/0811 SLP996 60001 T01780161 53006=
201109060752 METAR KATL 060752Z 19013G24KT 6SM BR BKN014 OVC021 19/17 A2954 RMK AO2 RAE00B44E52 SLP993 P0000 T01940167=
201109060736 SPECI KATL 060736Z 19013G24KT 10SM BKN014 OVC023 19/17 A2953 RMK AO2 RAE00 P0000=
201109060736 SPECI KATL 060736Z 19013G24KT 10SM BKN014 OVC023 19/17 A2953 RMK AO2 RAE00 P0000=
201109060652 METAR KATL 060652Z 19017G23KT 7SM -RA BKN007 OVC012 20/18 A2952 RMK AO2 PK WND 17030/0611 RAB34 SLP988 P0001 T02000183=
201109060649 SPECI KATL 060649Z 21013G19KT 8SM -RA SCT007 OVC012 21/19 A2952 RMK AO2 PK WND 17030/0611 RAB34 P0001=
201109060649 SPECI KATL 060649Z 21013G19KT 8SM -RA SCT007 OVC012 21/19 A2952 RMK AO2 PK WND 17030/0611 RAB34 P0001=
201109060552 METAR KATL 060552Z 19015G23KT 10SM BKN013 BKN023 OVC048 23/21 A2952 RMK AO2 PK WND 18030/0538 RAB0456E06B28E45 SLP985 P0000 60006 T02280206 10244 20228 55002=
201109060452 METAR KATL 060452Z 14011G17KT 10SM FEW008 BKN015 OVC030 24/22 A2950 RMK AO2 RAE29 SLP979 P0001 T02390217 402560217=
201109060352 METAR KATL 060352Z 15010G18KT 7SM -RA FEW008 BKN016 OVC035 24/22 A2952 RMK AO2 RAE0256B25 SLP984 P0001 T02390222=
201109060252 METAR KATL 060252Z 15013G19KT 10SM -RA FEW008 BKN015 OVC030 24/22 A2952 RMK AO2 RAB0156 SLP987 P0004 60004 T02440222 56015=
201109060152 METAR KATL 060152Z 14014G21KT 10SM SCT008 BKN012 OVC040 24/22 A2953 RMK AO2 RAB18E39 SLP988 P0000 T02440222=
201109060052 METAR KATL 060052Z 15010G17KT 10SM SCT008 BKN012 BKN045 OVC140 24/22 A2955 RMK AO2 SLP997 T02390222=
201109060011 SPECI KATL 060011Z 13010G16KT 10SM SCT008 BKN014 BKN040 OVC150 24/23 A2956 RMK AO2=
201109060011 SPECI KATL 060011Z 13010G16KT 10SM SCT008 BKN014 BKN040 OVC150 24/23 A2956 RMK AO2=
201109052352 METAR KATL 052352Z 13009G16KT 10SM FEW007 SCT020 BKN080 OVC150 24/23 A2957 RMK AO2 RAB2259E17 SLP003 P0001 60035 T02440228 10256 20228 58022=
201109052342 SPECI KATL 052342Z 13008G16KT 10SM FEW007 SCT022 BKN080 OVC150 24/22 A2958 RMK AO2 RAB2259E17 P0001=
201109052342 SPECI KATL 052342Z 13008G16KT 10SM FEW007 SCT022 BKN080 OVC150 24/22 A2958 RMK AO2 RAB2259E17 P0001=
201109052319 SPECI KATL 052319Z 13005KT 10SM FEW007 BKN022 BKN050 OVC140 24/23 A2960 RMK AO2 RAB2259E17 P0001=
201109052319 SPECI KATL 052319Z 13005KT 10SM FEW007 BKN022 BKN050 OVC140 24/23 A2960 RMK AO2 RAB2259E17 P0001=
201109052252 METAR KATL 052252Z 15006KT 10SM SCT032 BKN060 BKN100 OVC140 24/22 A2961 RMK AO2 RAB29E46 SLP016 P0001 T02440222 $=
201109052152 METAR KATL 052152Z 17013G18KT 10SM FEW007 SCT065 BKN120 OVC150 24/22 A2962 RMK AO2 TSE08RAB04E51 SLP021 P0004 T02440222=
201109052109 SPECI KATL 052109Z 15006KT 10SM -RA FEW007 SCT030 BKN060 OVC140 24/22 A2963 RMK AO2 TSE08RAB04 TS MOV NE CB DSNT NE & SW-NW P0001=
201109052109 SPECI KATL 052109Z 15006KT 10SM -RA FEW007 SCT030 BKN060 OVC140 24/22 A2963 RMK AO2 TSE08RAB04 TS MOV NE CB DSNT NE & SW-NW P0001=
201109052052 METAR KATL 052052Z 16008KT 4SM TS SCT007 OVC080CB 23/21 A2964 RMK AO2 TSB20RAE20 SLP026 CB OHD OCNL LTGCG CB MOV N P0026 60029 T02280206 55011=
201109052050 SPECI KATL 052050Z 17007KT 4SM TS SCT007 OVC080CB 23/21 A2963 RMK AO2 TSB20RAE20 CB OHD P0026=
201109052050 SPECI KATL 052050Z 17007KT 4SM TS SCT007 OVC080CB 23/21 A2963 RMK AO2 TSB20RAE20 CB OHD P0026=
201109052040 SPECI KATL 052040Z VRB05G23KT 4SM R09R/2800VP6000FT TS BKN005CB OVC090 23/21 A2962 RMK AO2 TSB20RAE20 PRESFR CB OHD P0026=
201109052040 SPECI KATL 052040Z VRB05G23KT 4SM R09R/2800VP6000FT TS BKN005CB OVC090 23/21 A2962 RMK AO2 TSB20RAE20 PRESFR CB OHD P0026=
201109052023 SPECI KATL 052023Z VRB03KT 1 3/4SM R09R/6000VP6000FT TS BKN008CB OVC090 25/23 A2964 RMK AO2 VIS 1V4 TSB20RAE20 CB OHD P0005=
201109052023 SPECI KATL 052023Z VRB03KT 1 3/4SM R09R/6000VP6000FT TS BKN008CB OVC090 25/23 A2964 RMK AO2 VIS 1V4 TSB20RAE20 CB OHD P0005=
201109052020 SPECI KATL 052020Z 00000KT 3SM TS BKN008CB OVC090 25/23 A2964 RMK AO2 TSB20RAE20 P0004=
201109052020 SPECI KATL 052020Z 00000KT 3SM TS BKN008CB OVC090 25/23 A2964 RMK AO2 TSB20RAE20 P0004=
201109051952 METAR KATL 051952Z 13004KT 5SM -RA BR SCT007 BKN012 OVC110 25/23 A2966 RMK AO2 RAE00B22 SLP033 P0001 T02500233=
201109051852 METAR KATL 051852Z 13008KT 6SM -RA BR SCT007 BKN011 OVC014 25/23 A2967 RMK AO2 SLP037 P0002 T02500233=
201109051752 METAR KATL 051752Z 14008KT 4SM RA BR BKN007 OVC011 24/22 A2970 RMK AO2 SLP050 P0011 60022 T02390222 10239 20222 58018=
201109051652 METAR KATL 051652Z 16009G15KT 5SM -RA BR BKN007 OVC010 24/22 A2974 RMK AO2 SLP061 P0005 T02390222=
201109051552 METAR KATL 051552Z 17008G17KT 10SM -RA BKN008 OVC011 23/22 A2975 RMK AO2 SLP064 P0001 T02330217=
201109051452 METAR KATL 051452Z 17010KT 9SM -RA BKN008 OVC012 23/21 A2976 RMK AO2 RAE01B19 SLP069 P0000 60005 T02330211 55004=
201109051412 SPECI KATL 051412Z 16008G15KT 10SM BKN008 OVC012 23/21 A2975 RMK AO2 RAE01 P0000=
201109051412 SPECI KATL 051412Z 16008G15KT 10SM BKN008 OVC012 23/21 A2975 RMK AO2 RAE01 P0000=
201109051352 METAR KATL 051352Z 15010KT 10SM -RA OVC010 23/21 A2976 RMK AO2 SLP067 P0003 T02280211=
201109051320 SPECI KATL 051320Z 17010KT 10SM -RA OVC010 23/21 A2977 RMK AO2 P0001=
201109051320 SPECI KATL 051320Z 17010KT 10SM -RA OVC010 23/21 A2977 RMK AO2 P0001=
201109051252 METAR KATL 051252Z 17009G16KT 7SM -RA BKN008 OVC012 22/21 A2977 RMK AO2 SLP073 P0002 T02220211=
201109051152 METAR KATL 051152Z 15010G17KT 10SM -RA BKN007 BKN010 OVC020 22/21 A2977 RMK AO2 RAB41 SLP073 P0000 60000 70024 T02220206 10222 20217 56009=
201109051052 METAR KATL 051052Z 16007KT 8SM BKN007 BKN010 OVC030 22/21 A2977 RMK AO2 RAB38E49 SLP074 P0000 T02220206=
201109050952 METAR KATL 050952Z 14006KT 9SM BKN005 OVC035 22/21 A2978 RMK AO2 RAB25E43 SLP075 P0000 T02170206=
201109050852 METAR KATL 050852Z 15006KT 7SM BKN005 OVC010 22/21 A2980 RMK AO2 RAB23E46 SLP081 P0000 60000 T02170206 58014=
201109050818 SPECI KATL 050818Z 16007KT 7SM BKN005 OVC010 22/21 A2982 RMK AO2=
201109050818 SPECI KATL 050818Z 16007KT 7SM BKN005 OVC010 22/21 A2982 RMK AO2=
201109050752 METAR KATL 050752Z 16007KT 7SM BKN004 OVC007 22/21 A2982 RMK AO2 RAB25E39 SLP089 P0000 T02170206=
201109050652 METAR KATL 050652Z 14007KT 6SM BR OVC004 22/21 A2983 RMK AO2 SLP091 T02170206=
201109050626 SPECI KATL 050626Z 15004KT 6SM BR OVC004 22/21 A2984 RMK AO2=
201109050626 SPECI KATL 050626Z 15004KT 6SM BR OVC004 22/21 A2984 RMK AO2=
201109050552 METAR KATL 050552Z 12004KT 7SM BKN006 OVC008 22/20 A2984 RMK AO2 SLP095 60001 T02170200 10228 20217 58016=
201109050452 METAR KATL 050452Z 14006KT 10SM BKN006 OVC200 22/21 A2986 RMK AO2 SLP103 T02170206 402670217=
201109050352 METAR KATL 050352Z COR 12003KT 7SM BKN006 OVC150 22/21 A2988 RMK AO2 SLP107 T02220206=
201109050252 METAR KATL 050252Z 15006KT 6SM BR BKN006 BKN065 OVC200 22/21 A2989 RMK AO2 SLP112 60001 T02220206 56002=
201109050210 SPECI KATL 050210Z 16006KT 7SM BKN006 BKN021 BKN090 BKN130 22/21 A2990 RMK AO2=
201109050210 SPECI KATL 050210Z 16006KT 7SM BKN006 BKN021 BKN090 BKN130 22/21 A2990 RMK AO2=
201109050152 METAR KATL 050152Z 15006KT 7SM FEW006 SCT021 SCT100 BKN130 22/21 A2990 RMK AO2 RAE06 SLP115 P0000 T02220206=
201109050052 METAR KATL 050052Z 14004KT 7SM -RA FEW060 OVC110 22/21 A2988 RMK AO2 RAE2355B20 SLP111 P0001 T02220206=
201109042352 METAR KATL 042352Z 14004KT 8SM -RA FEW032 BKN050 OVC100 23/21 A2990 RMK AO2 SLP115 P0000 60021 T02280211 10256 20228 53001=
201109042252 METAR KATL 042252Z 17004KT 7SM -RA FEW032 BKN055 OVC090 23/21 A2989 RMK AO2 SLP114 P0015 T02280211=
201109042209 SPECI KATL 042209Z 18010KT 3SM -RA BR SCT017 BKN038 OVC080 23/22 A2989 RMK AO2 P0013=
201109042209 SPECI KATL 042209Z 18010KT 3SM -RA BR SCT017 BKN038 OVC080 23/22 A2989 RMK AO2 P0013=
201109042152 METAR KATL 042152Z 17007KT 2 1/2SM R09R/4500VP6000FT +RA BR FEW026CB BKN080 OVC095 24/22 A2989 RMK AO2 RAB30 SLP112 CB OHD-SE-SW MOV N P0005 T02390217=
201109042052 METAR KATL 042052Z 13005KT 9SM FEW070 BKN095 OVC120 25/22 A2989 RMK AO2 RAE46 SLP113 P0000 60001 T02500217 56018=
201109041952 METAR KATL 041952Z 10005KT 9SM -RA OVC090 24/21 A2990 RMK AO2 SLP116 P0001 T02440211=
201109041852 METAR KATL 041852Z 12006KT 10SM -RA OVC095 25/21 A2993 RMK AO2 RAE32B51 SLP125 P0000 T02500206=
201109041752 METAR KATL 041752Z 09007KT 10SM -RA OVC100 24/21 A2995 RMK AO2 SLP131 P0001 60002 T02440211 10250 20228 58004=
201109041652 METAR KATL 041652Z 15003KT 9SM -RA OVC110 24/20 A2998 RMK AO2 RAB20 SLP140 P0001 T02440200=
201109041552 METAR KATL 041552Z 12005KT 10SM FEW038 SCT070 OVC120 25/19 A2996 RMK AO2 SLP134 T02500189 $=
201109041452 METAR KATL 041452Z VRB03KT 10SM SCT110 BKN150 OVC250 25/18 A2996 RMK AO2 SLP134 T02500183 53006 $=
201109041352 METAR KATL 041352Z 15006KT 10SM BKN150 BKN250 24/18 A2995 RMK AO2 SLP131 T02390183 $=
201109041252 METAR KATL 041252Z 14005KT 10SM BKN150 BKN250 23/18 A2995 RMK AO2 SLP130 T02330183 $=
201109041152 METAR KATL 041152Z 11006KT 10SM BKN150 BKN250 23/18 A2994 RMK AO2 SLP128 T02280183 10267 20228 53008 $=
201109041052 METAR KATL 041052Z 12004KT 10SM FEW150 SCT250 23/18 A2993 RMK AO2 SLP123 T02280183 $=
201109040952 METAR KATL 040952Z 13005KT 10SM SCT150 BKN250 23/18 A2992 RMK AO2 SLP120 T02330178 $=
201109040852 METAR KATL 040852Z 13004KT 10SM FEW150 24/17 A2992 RMK AO2 SLP117 T02390172 56003 $=
201109040752 METAR KATL 040752Z 15008KT 10SM BKN085 25/17 A2992 RMK AO2 SLP118 T02500172 $=
201109040652 METAR KATL 040652Z 14004KT 10SM FEW080 26/17 A2992 RMK AO2 SLP117 T02560167 $=
201109040552 METAR KATL 040552Z 13004KT 10SM FEW250 27/16 A2993 RMK AO2 SLP120 T02670161 10311 20261 56005 $=
201109040452 METAR KATL 040452Z 18006KT 10SM FEW250 26/16 A2993 RMK AO2 SLP121 T02610161 403500233 $=
201109040352 METAR KATL 040352Z 18007KT 10SM FEW070 SCT150 BKN250 28/16 A2993 RMK AO2 SLP123 T02780156 $=
201109040252 METAR KATL 040252Z 16005KT 10SM SCT070 SCT150 BKN250 28/16 A2994 RMK AO2 SLP126 T02830161 53015 $=
201109040152 METAR KATL 040152Z 16004KT 10SM FEW150 BKN250 29/16 A2992 RMK AO2 SLP120 T02940156 $=
201109040052 METAR KATL 040052Z 16005KT 10SM FEW150 BKN250 30/16 A2990 RMK AO2 SLP113 T03000156 $=
201109032352 METAR KATL 032352Z 16005KT 10SM FEW150 OVC250 31/15 A2989 RMK AO2 SLP111 T03110150 10350 20311 56004 $=
201109032252 METAR KATL 032252Z 15009KT 10SM FEW070 SCT120 BKN250 33/15 A2989 RMK AO2 SLP111 T03280150 $=
201109032152 METAR KATL 032152Z 14007KT 10SM FEW070TCU SCT100 34/14 A2990 RMK AO2 SLP113 TCU N & SW T03390144 $=
201109032052 METAR KATL 032052Z 13008G15KT 10SM SCT070 34/15 A2991 RMK AO2 SLP114 T03440150 56020 $=
201109031952 METAR KATL 031952Z 12008KT 10SM SCT065 34/15 A2992 RMK AO2 SLP119 T03440150 $=
201109031852 METAR KATL 031852Z VRB04KT 10SM SCT065 34/16 A2994 RMK AO2 SLP125 T03440156 $=
201109031752 METAR KATL 031752Z VRB04KT 10SM FEW060 33/16 A2997 RMK AO2 SLP135 T03330156 10333 20239 58015 $=
201109031652 METAR KATL 031652Z VRB06KT 10SM FEW055 SCT250 32/16 A2999 RMK AO2 SLP141 T03220161 $=
201109031552 METAR KATL 031552Z VRB03KT 10SM SCT150 SCT250 31/16 A3000 RMK AO2 SLP147 T03110156=
201109031452 METAR KATL 031452Z 08007KT 10SM SCT150 SCT250 29/16 A3001 RMK AO2 SLP151 T02940156 50002 $=
201109031352 METAR KATL 031352Z 10004KT 10SM SCT150 BKN250 28/16 A3002 RMK AO2 SLP152 T02780161 $=
201109031252 METAR KATL 031252Z 11003KT 10SM SCT150 BKN250 26/16 A3001 RMK AO2 SLP150 T02560161 $=
201109031152 METAR KATL 031152Z 09006KT 10SM FEW150 SCT250 24/17 A3001 RMK AO2 SLP149 T02390167 10261 20233 53008=
201109031052 METAR KATL 031052Z 00000KT 10SM FEW040 SCT250 24/16 A3000 RMK AO2 SLP145 T02390161=
201109030952 METAR KATL 030952Z 00000KT 10SM SCT150 25/16 A2999 RMK AO2 SLP144 T02500156=
201109030852 METAR KATL 030852Z 00000KT 10SM SCT150 25/16 A2998 RMK AO2 SLP140 T02500156 58007=
201109030752 METAR KATL 030752Z 00000KT 10SM SCT075 SCT150 26/16 A2999 RMK AO2 SLP143 T02610161=
201109030652 METAR KATL 030652Z 21005KT 10SM SCT150 SCT250 26/16 A3000 RMK AO2 SLP145 T02560161=
201109030552 METAR KATL 030552Z 19005KT 10SM FEW110 BKN250 26/16 A3000 RMK AO2 SLP147 T02610161 10317 20261 58002=
201109030452 METAR KATL 030452Z 20004KT 10SM BKN250 26/16 A3002 RMK AO2 SLP151 T02610161 403560222=
201109030352 METAR KATL 030352Z 20005KT 10SM BKN250 27/16 A3002 RMK AO2 SLP151 T02720161=
201109030252 METAR KATL 030252Z 19003KT 10SM BKN250 28/16 A3001 RMK AO2 SLP150 T02830161 51013=
201109030152 METAR KATL 030152Z 00000KT 10SM SCT250 29/16 A3001 RMK AO2 SLP148 T02890156=
201109030052 METAR KATL 030052Z 20004KT 10SM FEW200 SCT250 30/15 A2999 RMK AO2 SLP144 T03000150=
201109022352 METAR KATL 022352Z 19008KT 10SM SCT200 BKN250 32/14 A2997 RMK AO2 SLP139 T03170144 10356 20317 56007=
201109022252 METAR KATL 022252Z 00000KT 10SM SCT200 BKN250 33/14 A2998 RMK AO2 SLP138 T03330139=
201109022152 METAR KATL 022152Z 14004KT 10SM FEW075 BKN250 34/14 A2998 RMK AO2 SLP141 T03390139=
201109022052 METAR KATL 022052Z VRB06KT 10SM FEW075 SCT200 BKN250 34/14 A3000 RMK AO2 SLP145 T03440139 56021=
201109021952 METAR KATL 021952Z VRB06G14KT 10SM FEW070 SCT250 34/14 A3001 RMK AO2 SLP151 T03390139=
201109021852 METAR KATL 021852Z VRB04KT 10SM SCT070 SCT250 34/14 A3004 RMK AO2 SLP161 T03390144=
201109021752 METAR KATL 021752Z 11008G14KT 10SM SCT065 SCT250 34/15 A3006 RMK AO2 SLP166 T03440150 10344 20228 56014=
201109021652 METAR KATL 021652Z 02005KT 10SM FEW250 33/15 A3007 RMK AO2 SLP170 T03330150=
201109021552 METAR KATL 021552Z 00000KT 10SM FEW250 32/14 A3009 RMK AO2 SLP176 T03170144=
201109021452 METAR KATL 021452Z 34004KT 10SM FEW250 31/15 A3010 RMK AO2 SLP180 T03060150 50001=
201109021352 METAR KATL 021352Z VRB03KT 10SM FEW250 27/17 A3010 RMK AO2 SLP182 T02720167=
201109021252 METAR KATL 021252Z 22004KT 10SM FEW250 25/16 A3011 RMK AO2 SLP184 T02500161=
201109021152 METAR KATL 021152Z 00000KT 10SM CLR 23/15 A3010 RMK AO2 SLP181 T02280150 10256 20222 53009=
201109021052 METAR KATL 021052Z 00000KT 10SM CLR 23/15 A3009 RMK AO2 SLP177 T02280150=
201109020952 METAR KATL 020952Z 00000KT 10SM CLR 23/15 A3008 RMK AO2 SLP174 T02330150=
201109020852 METAR KATL 020852Z 21004KT 10SM CLR 23/15 A3007 RMK AO2 SLP171 T02330150 56003=
201109020752 METAR KATL 020752Z 21006KT 10SM CLR 24/14 A3007 RMK AO2 SLP171 T02390144=
201109020652 METAR KATL 020652Z 19005KT 10SM CLR 24/16 A3007 RMK AO2 SLP171 T02390156=
201109020552 METAR KATL 020552Z 18006KT 10SM CLR 26/16 A3008 RMK AO2 SLP174 T02560156 10317 20256 55000=
201109020452 METAR KATL 020452Z 15004KT 10SM CLR 27/17 A3008 RMK AO2 SLP173 T02670167 403500239=
201109020352 METAR KATL 020352Z 14003KT 10SM CLR 28/17 A3008 RMK AO2 SLP172 T02830167=
201109020252 METAR KATL 020252Z 14003KT 10SM FEW150 29/17 A3008 RMK AO2 SLP174 T02890167 51006=
201109020152 METAR KATL 020152Z 15003KT 10SM FEW150 29/16 A3008 RMK AO2 SLP174 T02940161=
201109020052 METAR KATL 020052Z 16004KT 10SM FEW150 30/16 A3007 RMK AO2 SLP171 T03000161=
201109012352 METAR KATL 012352Z 15005KT 10SM FEW070 SCT140 32/16 A3006 RMK AO2 SLP168 T03170156 10350 20317 55004=
201109012252 METAR KATL 012252Z 16003KT 10SM FEW070 SCT085 33/14 A3006 RMK AO2 SLP167 T03280144=
201109012152 METAR KATL 012152Z 06004KT 10SM SCT070 33/14 A3006 RMK AO2 SLP168 T03280144=
201109012052 METAR KATL 012052Z 05003KT 10SM SCT065 33/15 A3008 RMK AO2 SLP172 TCU DSNT NW T03280150 56025=
201109011952 METAR KATL 011952Z 03007KT 10SM SCT060 33/16 A3010 RMK AO2 SLP179 T03330156=
201109011852 METAR KATL 011852Z 34003KT 10SM SCT055 33/16 A3012 RMK AO2 SLP186 T03280161=
201109011752 METAR KATL 011752Z 00000KT 10SM SCT045TCU SCT100 32/17 A3015 RMK AO2 SLP198 TCU OHD-NW-N T03170167 10322 20239 58018=
201109011652 METAR KATL 011652Z VRB03KT 10SM SCT040TCU 31/19 A3017 RMK AO2 SLP205 TCU N & NE & SE & NW T03060189=
201109011552 METAR KATL 011552Z 00000KT 10SM FEW030 SCT100 29/19 A3019 RMK AO2 SLP213 T02890194=
201109011452 METAR KATL 011452Z VRB03KT 10SM FEW020 SCT100 28/20 A3021 RMK AO2 SLP217 T02830200 53008=
201109011352 METAR KATL 011352Z 00000KT 9SM FEW015 SCT095 27/21 A3020 RMK AO2 SLP214 T02670206=
201109011252 METAR KATL 011252Z 16005KT 8SM SCT095 25/20 A3019 RMK AO2 SLP210 T02500200=
