##########################################################
# Query made at 04/19/2024 23:20:30 UTC
# Time interval: from 02/01/2011 12:00  to 02/28/2011 12:59  UTC
##########################################################

##########################################################
# KATL, Atlanta, Hartsfield - Jackson Atlanta International Airport (United States)
# WMO index: 72219. WIGOS ID: 0-20000-0-72219
# Latitude 33-38-59N. Longitude 084-25-00W. Altitude 312 m.
##########################################################

201102281259 SPECI KATL 281259Z 21008KT 10SM BKN016 BKN025 BKN035 17/12 A2998 RMK AO2 $=
201102281259 SPECI KATL 281259Z 21008KT 10SM BKN016 BKN025 BKN035 17/12 A2998 RMK AO2 $=
201102281252 METAR KATL 281252Z 21008KT 10SM BKN016 BKN025 BKN035 17/12 A2998=
201102281241 SPECI KATL 281241Z 20007KT 10SM SCT016 BKN029 BKN033 16/12 A2997 RMK AO2=
201102281241 SPECI KATL 281241Z 20007KT 10SM SCT016 BKN029 BKN033 16/12 A2997 RMK AO2=
201102281152 METAR KATL 281152Z 22004KT 10SM SCT045 SCT150 BKN250 16/12 A2998 RMK AO2 SLP146 T01610117 10183 20161 51016=
201102281052 METAR KATL 281052Z 21007KT 10SM BKN150 OVC250 17/11 A2997 RMK AO2 SLP143 T01670111=
201102280952 METAR KATL 280952Z 21011G17KT 10SM BKN150 17/12 A2994 RMK AO2 SLP132 T01720117=
201102280852 METAR KATL 280852Z 19014G20KT 10SM FEW042 BKN150 17/13 A2993 RMK AO2 SLP128 T01720128 58022=
201102280752 METAR KATL 280752Z 19013G21KT 10SM BKN044 BKN150 17/14 A2996 RMK AO2 SLP139 T01720139=
201102280652 METAR KATL 280652Z 19012KT 10SM BKN046 BKN150 18/14 A2999 RMK AO2 SLP147 T01780144=
201102280552 METAR KATL 280552Z 20008KT 10SM FEW040 18/14 A3000 RMK AO2 SLP151 T01780144 10217 20178 50001=
201102280452 METAR KATL 280452Z 20010KT 10SM FEW040 19/14 A3000 RMK AO2 SLP153 T01890144 402440111=
201102280352 METAR KATL 280352Z 19009G16KT 10SM SCT035 BKN045 19/14 A3000 RMK AO2 SLP152 T01940144=
201102280252 METAR KATL 280252Z 17010KT 10SM SCT042 BKN050 19/13 A2999 RMK AO2 SLP152 T01940133 50001=
201102280152 SPECI KATL 280152Z 17008KT 10SM FEW050 20/13 A2999 RMK AO2 SLP152 T02000133=
201102280052 METAR KATL 280052Z 19005KT 10SM OVC055 21/13 A2999 RMK AO2 SLP152 T02060128=
201102272352 METAR KATL 272352Z 21008KT 10SM FEW050 22/12 A2999 RMK AO2 SLP152 T02170122 10244 20211 53003=
201102272252 METAR KATL 272252Z 20009KT 10SM FEW042 SCT055 SCT200 23/13 A2998 RMK AO2 SLP148 T02330133=
201102272152 METAR KATL 272152Z 21009G17KT 10SM SCT042 BKN055 BKN120 24/14 A2998 RMK AO2 SLP148 T02390139=
201102272052 METAR KATL 272052Z 20015G19KT 10SM SCT038 BKN049 BKN110 24/14 A2998 RMK AO2 SLP147 T02390139 56030=
201102271952 METAR KATL 271952Z 21013G17KT 10SM SCT036 BKN043 BKN110 BKN200 23/14 A3000 RMK AO2 SLP156 T02330144=
201102271852 METAR KATL 271852Z COR 25010G19KT 10SM SCT032 BKN095 BKN200 23/14 A3003 RMK AO2 SLP166 T02280144=
201102271752 METAR KATL 271752Z 23009KT 10SM SCT019 BKN095 BKN200 21/14 A3007 RMK AO2 SLP179 T02110144 10211 20111 58014=
201102271652 METAR KATL 271652Z 25012G17KT 10SM SCT015 BKN095 BKN200 19/14 A3010 RMK AO2 SLP189 T01940144=
201102271639 SPECI KATL 271639Z 24012KT 10SM SCT012 BKN095 BKN200 19/14 A3010 RMK AO2=
201102271639 SPECI KATL 271639Z 24012KT 10SM SCT012 BKN095 BKN200 19/14 A3010 RMK AO2=
201102271610 SPECI KATL 271610Z 26011KT 10SM BKN012 18/14 A3011 RMK AO2=
201102271610 SPECI KATL 271610Z 26011KT 10SM BKN012 18/14 A3011 RMK AO2=
201102271552 METAR KATL 271552Z 23009G14KT 10SM BKN009 18/14 A3011 RMK AO2 SLP192 T01780139=
201102271524 SPECI KATL 271524Z 24008KT 10SM BKN009 BKN012 BKN200 16/12 A3011 RMK AO2=
201102271524 SPECI KATL 271524Z 24008KT 10SM BKN009 BKN012 BKN200 16/12 A3011 RMK AO2=
201102271452 METAR KATL 271452Z 24007KT 10SM FEW015 SCT200 16/12 A3011 RMK AO2 SLP195 T01560117 51025=
201102271352 METAR KATL 271352Z 24007KT 10SM FEW008 14/11 A3010 RMK AO2 SLP189 T01440111=
201102271322 SPECI KATL 271322Z 25007KT 10SM SCT007 SCT200 14/11 A3008 RMK AO2=
201102271322 SPECI KATL 271322Z 25007KT 10SM SCT007 SCT200 14/11 A3008 RMK AO2=
201102271252 METAR KATL 271252Z 26010G15KT 10SM BKN007 BKN200 13/10 A3007 RMK AO2 SLP181 T01330100=
201102271206 SPECI KATL 271206Z 25006KT 10SM BKN007 BKN200 12/06 A3005 RMK AO2=
201102271206 SPECI KATL 271206Z 25006KT 10SM BKN007 BKN200 12/06 A3005 RMK AO2=
201102271152 METAR KATL 271152Z 23004KT 10SM FEW007 SCT200 11/06 A3004 RMK AO2 SLP169 T01110056 10128 20111 53007=
201102271104 SPECI KATL 271104Z 24007KT 10SM FEW007 12/06 A3003 RMK AO2=
201102271104 SPECI KATL 271104Z 24007KT 10SM FEW007 12/06 A3003 RMK AO2=
201102271052 METAR KATL 271052Z 24006KT 10SM CLR 12/05 A3003 RMK AO2 SLP164 T01170050=
201102270952 METAR KATL 270952Z 23005KT 10SM CLR 12/05 A3001 RMK AO2 SLP159 T01170050=
201102270852 METAR KATL 270852Z 23006KT 10SM CLR 12/04 A3001 RMK AO2 SLP160 T01170044 58001=
201102270752 METAR KATL 270752Z 22007KT 10SM CLR 12/04 A3001 RMK AO2 SLP161 T01220039=
201102270652 METAR KATL 270652Z 21007KT 10SM CLR 12/03 A3003 RMK AO2 SLP167 T01170033=
201102270552 METAR KATL 270552Z 18006KT 10SM CLR 12/04 A3002 RMK AO2 SLP164 T01170039 10172 20117 58008=
201102270452 METAR KATL 270452Z 00000KT 10SM CLR 13/03 A3003 RMK AO2 SLP169 T01330028 402060022=
201102270352 METAR KATL 270352Z 16003KT 10SM CLR 14/03 A3005 RMK AO2 SLP174 T01390033=
201102270252 METAR KATL 270252Z 17004KT 10SM CLR 13/04 A3004 RMK AO2 SLP174 T01280044 50002=
201102270152 METAR KATL 270152Z 00000KT 10SM CLR 16/03 A3004 RMK AO2 SLP175 T01560028=
201102270052 METAR KATL 270052Z 17003KT 10SM CLR 16/02 A3004 RMK AO2 SLP173 T01610022=
201102262352 METAR KATL 262352Z 21003KT 10SM CLR 17/01 A3004 RMK AO2 SLP171 T01720011 10206 20156 53004=
201102262252 METAR KATL 262252Z 21007KT 10SM CLR 20/01 A3003 RMK AO2 SLP168 T02000011=
201102262152 METAR KATL 262152Z 21008KT 10SM CLR 21/02 A3001 RMK AO2 SLP164 T02060022=
201102262052 METAR KATL 262052Z 21004KT 10SM CLR 20/03 A3002 RMK AO2 SLP166 T02000028 56030=
201102261952 METAR KATL 261952Z 18006KT 10SM CLR 19/04 A3005 RMK AO2 SLP176 T01890039=
201102261852 METAR KATL 261852Z VRB05KT 10SM CLR 17/04 A3007 RMK AO2 SLP185 T01720039=
201102261752 METAR KATL 261752Z 16006KT 10SM CLR 16/04 A3011 RMK AO2 SLP198 T01560044 10156 20039 58018=
201102261652 METAR KATL 261652Z VRB05KT 10SM FEW200 13/03 A3015 RMK AO2 SLP210 T01330033=
201102261552 METAR KATL 261552Z VRB04KT 10SM FEW200 11/02 A3016 RMK AO2 SLP215 T01110022=
201102261452 METAR KATL 261452Z 11008KT 10SM FEW200 09/02 A3017 RMK AO2 SLP218 T00890017 51020=
201102261352 METAR KATL 261352Z 09014KT 10SM FEW200 07/02 A3016 RMK AO2 SLP215 T00670017=
201102261252 METAR KATL 261252Z 07009KT 10SM FEW200 05/02 A3014 RMK AO2 SLP208 T00500017=
201102261152 METAR KATL 261152Z 05006KT 10SM CLR 04/01 A3011 RMK AO2 SLP198 T00390006 10056 20022 51016=
201102261052 METAR KATL 261052Z 03004KT 10SM CLR 03/00 A3010 RMK AO2 SLP195 T00330000=
201102260952 METAR KATL 260952Z 33006KT 10SM CLR 03/00 A3008 RMK AO2 SLP189 T00280000=
201102260852 METAR KATL 260852Z 00000KT 10SM CLR 04/01 A3006 RMK AO2 SLP180 T00390006 53001=
201102260752 METAR KATL 260752Z 01005KT 10SM CLR 04/01 A3005 RMK AO2 SLP176 T00440006=
201102260652 METAR KATL 260652Z 33007KT 10SM CLR 04/01 A3006 RMK AO2 SLP178 T00440011=
201102260552 METAR KATL 260552Z 33006KT 10SM CLR 06/02 A3006 RMK AO2 SLP178 T00560017 10128 20056 58001=
201102260452 METAR KATL 260452Z 33006KT 10SM CLR 07/02 A3006 RMK AO2 SLP177 T00720022 402060067=
201102260352 METAR KATL 260352Z 33008KT 10SM CLR 08/02 A3007 RMK AO2 SLP181 T00830022=
201102260252 METAR KATL 260252Z 34006KT 10SM CLR 09/03 A3006 RMK AO2 SLP179 T00940033 51015=
201102260152 METAR KATL 260152Z 32009KT 10SM CLR 11/05 A3005 RMK AO2 SLP175 T01060050=
201102260052 METAR KATL 260052Z 32005KT 10SM CLR 12/05 A3003 RMK AO2 SLP170 T01170050=
201102252352 METAR KATL 252352Z 33009KT 10SM CLR 13/05 A3002 RMK AO2 SLP163 T01280050 10206 20128 53018=
201102252252 METAR KATL 252252Z 34012KT 10SM CLR 14/06 A2999 RMK AO2 SLP155 T01440056=
201102252152 METAR KATL 252152Z 33011KT 10SM FEW045 17/06 A2997 RMK AO2 SLP146 T01670056=
201102252052 METAR KATL 252052Z 30012G19KT 10SM FEW050 18/06 A2996 RMK AO2 SLP141 T01780056 53008=
201102251952 METAR KATL 251952Z 29014G22KT 10SM FEW040 18/07 A2995 RMK AO2 SLP138 T01780072=
201102251852 METAR KATL 251852Z 31017G22KT 10SM FEW040 19/08 A2994 RMK AO2 SLP133 T01890083=
201102251752 METAR KATL 251752Z 30015G21KT 10SM BKN045 19/09 A2994 RMK AO2 SLP132 T01890094 10206 20133 51007=
201102251652 METAR KATL 251652Z 27013G21KT 10SM BKN030 BKN050 19/10 A2994 RMK AO2 PK WND 26026/1633 SLP132 T01890100=
201102251552 METAR KATL 251552Z 26016G24KT 10SM FEW025 SCT050 17/11 A2993 RMK AO2 SLP131 T01720106=
201102251529 SPECI KATL 251529Z 27013G19KT 10SM FEW025 BKN030 BKN040 17/12 A2993 RMK AO2=
201102251529 SPECI KATL 251529Z 27013G19KT 10SM FEW025 BKN030 BKN040 17/12 A2993 RMK AO2=
201102251452 METAR KATL 251452Z 27008KT 10SM BKN015 BKN025 16/12 A2992 RMK AO2 SLP126 T01610122 51013=
201102251352 METAR KATL 251352Z 25010G16KT 10SM SCT010 BKN015 14/12 A2990 RMK AO2 SLP121 T01440122=
201102251348 SPECI KATL 251348Z 25012G18KT 10SM SCT010 BKN015 14/12 A2990 RMK AO2=
201102251348 SPECI KATL 251348Z 25012G18KT 10SM SCT010 BKN015 14/12 A2990 RMK AO2=
201102251252 METAR KATL 251252Z 26010KT 10SM BKN010 BKN015 14/12 A2988 RMK AO2 SLP113 T01390122=
201102251222 SPECI KATL 251222Z 24009KT 10SM FEW006 BKN012 14/12 A2987 RMK AO2=
201102251222 SPECI KATL 251222Z 24009KT 10SM FEW006 BKN012 14/12 A2987 RMK AO2=
201102251159 SPECI KATL 251159Z 26007KT 10SM BKN006 OVC014 13/12 A2985 RMK AO2 CIG 004V011=
201102251159 SPECI KATL 251159Z 26007KT 10SM BKN006 OVC014 13/12 A2985 RMK AO2 CIG 004V011=
201102251152 METAR KATL 251152Z 24008KT 7SM SCT005 BKN010 13/12 A2985 RMK AO2 RAE34 SLP105 P0001 60043 70043 T01330122 10172 20133 53006=
201102251052 METAR KATL 251052Z 20007KT 5SM -RA BR FEW002 SCT006 OVC012 13/13 A2983 RMK AO2 SLP096 P0019 T01330128=
201102251015 SPECI KATL 251015Z 23008KT 3SM +RA BR BKN005 OVC019 14/12 A2985 RMK AO2 P0008=
201102251015 SPECI KATL 251015Z 23008KT 3SM +RA BR BKN005 OVC019 14/12 A2985 RMK AO2 P0008=
201102250952 METAR KATL 250952Z 23007KT 5SM RA BR FEW005 BKN021 OVC060 14/12 A2984 RMK AO2 SLP099 P0018 T01390122=
201102250924 SPECI KATL 250924Z 24009KT 6SM -RA BR SCT005 OVC024 14/13 A2982 RMK AO2 P0014=
201102250924 SPECI KATL 250924Z 24009KT 6SM -RA BR SCT005 OVC024 14/13 A2982 RMK AO2 P0014=
201102250901 SPECI KATL 250901Z 25011G24KT 4SM RA BR BKN014 OVC021 15/13 A2982 RMK AO2 P0010=
201102250901 SPECI KATL 250901Z 25011G24KT 4SM RA BR BKN014 OVC021 15/13 A2982 RMK AO2 P0010=
201102250852 METAR KATL 250852Z 27016G23KT 2 1/2SM R09R/4500VP6000FT +RA BR SCT014 OVC021 16/14 A2983 RMK AO2 PK WND 22030/0809 WSHFT 0826 VIS 1 1/4V4 RAB39 SLP096 P0005 60005 T01610139 53003=
201102250844 SPECI KATL 250844Z 25016G23KT 220V280 6SM +RA FEW001 OVC021 17/13 A2981 RMK AO2 PK WND 22030/0809 WSHFT 0826 RAB39 P0001=
201102250844 SPECI KATL 250844Z 25016G23KT 220V280 6SM +RA FEW001 OVC021 17/13 A2981 RMK AO2 PK WND 22030/0809 WSHFT 0826 RAB39 P0001=
201102250752 METAR KATL 250752Z 21024G32KT 10SM BKN021 OVC250 17/13 A2977 RMK AO2 PK WND 21032/0752 SLP075 T01670128=
201102250652 METAR KATL 250652Z 21011G19KT 8SM BKN017 OVC022 17/14 A2981 RMK AO2 SLP086 T01720139=
201102250552 METAR KATL 250552Z 20014G20KT 10SM BKN022 BKN250 17/14 A2982 RMK AO2 PK WND 19026/0521 SLP093 60000 T01720139 10194 20172 58028=
201102250523 SPECI KATL 250523Z 20018G26KT 10SM FEW025 BKN200 17/13 A2985 RMK AO2 PK WND 19026/0521=
201102250523 SPECI KATL 250523Z 20018G26KT 10SM FEW025 BKN200 17/13 A2985 RMK AO2 PK WND 19026/0521=
201102250452 METAR KATL 250452Z 20011G19KT 10SM BKN026 BKN200 18/13 A2986 RMK AO2 SLP108 T01780133 402220089=
201102250432 SPECI KATL 250432Z 20011G20KT 10SM BKN025 BKN200 18/13 A2987 RMK AO2=
201102250432 SPECI KATL 250432Z 20011G20KT 10SM BKN025 BKN200 18/13 A2987 RMK AO2=
201102250352 METAR KATL 250352Z COR 19012KT 8SM SCT030 BKN200 17/12 A2988 RMK AO2 SLP115 T01720122=
201102250252 METAR KATL 250252Z 19010KT 9SM SCT055 BKN080 BKN200 18/12 A2991 RMK AO2 RAB30E39 SLP126 P0000 60000 T01780122 55007=
201102250152 METAR KATL 250152Z 18011KT 10SM BKN038 BKN090 BKN200 18/12 A2990 RMK AO2 SLP124 T01830122=
201102250052 METAR KATL 250052Z 16011G19KT 10SM FEW060 BKN090 OVC200 19/12 A2991 RMK AO2 SLP127 T01890117=
201102242352 METAR KATL 242352Z 15007KT 10SM SCT050 BKN090 OVC150 19/11 A2993 RMK AO2 SLP133 T01940111 10222 20183 56012=
201102242252 METAR KATL 242252Z 16010KT 10SM FEW090 BKN150 BKN200 21/11 A2993 RMK AO2 SLP134 T02060111=
201102242152 METAR KATL 242152Z 18012G18KT 10SM FEW080 SCT110 BKN250 21/11 A2995 RMK AO2 SLP139 T02110106=
201102242052 METAR KATL 242052Z 18008KT 10SM FEW070 SCT110 BKN250 22/10 A2997 RMK AO2 SLP145 T02220100 56037=
201102241952 METAR KATL 241952Z 18010G18KT 10SM FEW100 SCT150 BKN250 21/09 A3000 RMK AO2 SLP157 T02110094=
201102241852 METAR KATL 241852Z 18010G18KT 9SM FEW100 SCT150 BKN250 21/09 A3004 RMK AO2 SLP168 T02110094=
201102241752 METAR KATL 241752Z 18011KT 10SM FEW070 SCT150 BKN250 19/08 A3008 RMK AO2 SLP184 T01890083 10189 20089 58026=
201102241652 METAR KATL 241652Z 17011KT 10SM FEW070 SCT150 SCT250 16/08 A3012 RMK AO2 SLP199 T01610078=
201102241552 METAR KATL 241552Z 15006KT 10SM FEW050 BKN075 14/07 A3014 RMK AO2 SLP206 T01390067=
201102241452 METAR KATL 241452Z 13006KT 9SM FEW050 BKN070 BKN100 11/06 A3016 RMK AO2 SLP213 T01110061 58002=
201102241352 METAR KATL 241352Z 13004KT 7SM FEW055 BKN100 10/06 A3017 RMK AO2 SLP218 T01000061=
201102241252 METAR KATL 241252Z 11005KT 6SM HZ FEW040 BKN100 09/06 A3018 RMK AO2 SLP218 T00890056=
201102241152 METAR KATL 241152Z 11004KT 7SM FEW037 BKN100 09/06 A3017 RMK AO2 SLP215 T00890056 10117 20089 53006=
201102241052 METAR KATL 241052Z 14005KT 7SM SCT041 BKN100 09/05 A3016 RMK AO2 SLP211 T00940050=
201102240952 METAR KATL 240952Z 13006KT 7SM BKN045 BKN095 09/05 A3015 RMK AO2 SLP209 T00940050=
201102240852 METAR KATL 240852Z 10006KT 7SM SCT140 09/04 A3015 RMK AO2 SLP208 T00940044 58012=
201102240752 METAR KATL 240752Z 09007KT 9SM SCT120 09/04 A3017 RMK AO2 SLP214 T00890039=
201102240652 METAR KATL 240652Z 09006KT 9SM SCT130 10/04 A3018 RMK AO2 SLP219 T01000039=
201102240552 METAR KATL 240552Z 12007KT 9SM FEW070 12/04 A3018 RMK AO2 SLP220 T01170039 10161 20106 58004=
201102240452 METAR KATL 240452Z 10005KT 9SM FEW070 11/04 A3020 RMK AO2 SLP227 T01060039 401830072=
201102240352 METAR KATL 240352Z 11006KT 8SM FEW070 13/04 A3020 RMK AO2 SLP227 T01280039=
201102240252 METAR KATL 240252Z 10007KT 7SM FEW070 SCT100 13/04 A3020 RMK AO2 SLP227 T01330039 53007=
201102240152 METAR KATL 240152Z 10007KT 7SM BKN070 BKN100 14/04 A3019 RMK AO2 SLP225 T01440044=
201102240052 METAR KATL 240052Z 12007KT 7SM OVC100 16/04 A3018 RMK AO2 SLP221 T01560039=
201102232352 METAR KATL 232352Z 10006KT 9SM BKN100 15/03 A3018 RMK AO2 SLP220 T01500033 10183 20144 53002=
201102232252 METAR KATL 232252Z 16006KT 10SM BKN110 17/02 A3018 RMK AO2 SLP218 T01720022=
201102232152 METAR KATL 232152Z 13005KT 10SM SCT120 18/02 A3017 RMK AO2 SLP216 T01780022=
201102232052 METAR KATL 232052Z 11005KT 10SM FEW120 18/02 A3017 RMK AO2 SLP215 T01780022 56016=
201102231952 METAR KATL 231952Z VRB04KT 10SM FEW120 17/03 A3018 RMK AO2 SLP217 T01720033=
201102231852 METAR KATL 231852Z 12005KT 10SM CLR 16/03 A3019 RMK AO2 SLP223 T01560033=
201102231752 METAR KATL 231752Z 15003KT 10SM CLR 14/04 A3022 RMK AO2 SLP233 T01440044 10150 20072 58014=
201102231652 METAR KATL 231652Z VRB05KT 10SM CLR 13/04 A3023 RMK AO2 SLP236 T01330044=
201102231552 METAR KATL 231552Z 09008KT 10SM CLR 11/04 A3026 RMK AO2 SLP247 T01110039=
201102231452 METAR KATL 231452Z 07007KT 9SM CLR 09/03 A3026 RMK AO2 SLP249 T00940033 52024=
201102231352 METAR KATL 231352Z 07012KT 10SM CLR 08/03 A3024 RMK AO2 SLP242 T00830028=
201102231252 METAR KATL 231252Z 07011KT 10SM CLR 07/02 A3021 RMK AO2 SLP231 T00720022=
201102231152 METAR KATL 231152Z 05007KT 10SM FEW040 08/01 A3019 RMK AO2 SLP224 T00780006 10100 20078 53017=
201102231052 METAR KATL 231052Z 03005KT 10SM FEW035 SCT150 08/01 A3016 RMK AO2 SLP212 T00830006=
201102230952 METAR KATL 230952Z 01004KT 10SM SCT150 BKN250 08/01 A3014 RMK AO2 SLP204 T00830006=
201102230852 METAR KATL 230852Z 36006KT 10SM SCT150 08/01 A3014 RMK AO2 SLP203 T00830006 51002=
201102230752 METAR KATL 230752Z 36006KT 10SM SCT150 SCT250 09/01 A3014 RMK AO2 SLP203 T00940006=
201102230652 METAR KATL 230652Z 33004KT 10SM FEW150 SCT250 08/01 A3014 RMK AO2 SLP203 T00830006=
201102230552 METAR KATL 230552Z 33006KT 10SM SCT200 10/01 A3013 RMK AO2 SLP201 T01000006 10156 20094 53008=
201102230452 METAR KATL 230452Z 34005KT 10SM SCT220 11/00 A3012 RMK AO2 SLP197 T01060000 402170106=
201102230352 METAR KATL 230352Z 33007KT 10SM SCT220 12/00 A3011 RMK AO2 SLP195 T01220000=
201102230252 METAR KATL 230252Z 33010KT 10SM FEW220 13/00 A3011 RMK AO2 SLP193 T01330000 51015=
201102230152 METAR KATL 230152Z 33009KT 10SM FEW250 14/00 A3009 RMK AO2 SLP189 T01390000=
201102230052 METAR KATL 230052Z 32008KT 10SM FEW250 14/M01 A3009 RMK AO2 SLP186 T01441006=
201102222352 METAR KATL 222352Z 32010KT 10SM FEW250 16/M02 A3006 RMK AO2 SLP177 T01561022 10217 20156 53019=
201102222252 METAR KATL 222252Z 32013KT 10SM FEW250 18/M03 A3004 RMK AO2 SLP167 T01781033=
201102222152 METAR KATL 222152Z 33018G22KT 10SM FEW250 20/M05 A3001 RMK AO2 SLP158 T02001050=
201102222131 SPECI KATL 222131Z 31012G22KT 10SM FEW250 21/M06 A3001 RMK AO2=
201102222131 SPECI KATL 222131Z 31012G22KT 10SM FEW250 21/M06 A3001 RMK AO2=
201102222052 METAR KATL 222052Z 30015G22KT 10SM FEW090 SCT250 21/M01 A3001 RMK AO2 SLP156 T02111011 55004=
201102221952 METAR KATL 221952Z 31014G21KT 10SM FEW085 21/01 A3000 RMK AO2 PK WND 32026/1929 SLP153 T02110011=
201102221852 METAR KATL 221852Z 29011G20KT 10SM FEW060 SCT250 21/06 A3000 RMK AO2 SLP153 T02110061=
201102221752 METAR KATL 221752Z 32009KT 280V350 10SM FEW055 21/07 A3002 RMK AO2 SLP159 T02060072 10206 20156 50010=
201102221652 METAR KATL 221652Z 31011G17KT 250V360 10SM FEW045 20/08 A3002 RMK AO2 SLP159 T02000083=
201102221552 METAR KATL 221552Z 30011KT 10SM FEW030 18/10 A3001 RMK AO2 SLP157 T01780100=
201102221517 SPECI KATL 221517Z 31008KT 10SM FEW025 SCT035 17/11 A2999 RMK AO2=
201102221517 SPECI KATL 221517Z 31008KT 10SM FEW025 SCT035 17/11 A2999 RMK AO2=
201102221452 METAR KATL 221452Z 33008KT 10SM FEW023 BKN030 16/11 A2999 RMK AO2 SLP150 T01610111 51026=
201102221432 SPECI KATL 221432Z 33008KT 10SM BKN023 BKN034 16/12 A2998 RMK AO2=
201102221432 SPECI KATL 221432Z 33008KT 10SM BKN023 BKN034 16/12 A2998 RMK AO2=
201102221352 METAR KATL 221352Z 33008KT 10SM SCT020 SCT036 16/12 A2997 RMK AO2 SLP143 T01610117=
201102221317 SPECI KATL 221317Z 34012G15KT 10SM FEW013 BKN025 BKN046 16/13 A2995 RMK AO2=
201102221317 SPECI KATL 221317Z 34012G15KT 10SM FEW013 BKN025 BKN046 16/13 A2995 RMK AO2=
201102221259 SPECI KATL 221259Z 28006KT 10SM SCT017 BKN030 BKN048 17/14 A2994 RMK AO2=
201102221259 SPECI KATL 221259Z 28006KT 10SM SCT017 BKN030 BKN048 17/14 A2994 RMK AO2=
201102221252 METAR KATL 221252Z 27005KT 10SM SCT019 BKN025 BKN048 17/14 A2993 RMK AO2 SLP130 T01670144=
201102221210 SPECI KATL 221210Z 28008KT 10SM SCT019 BKN025 BKN040 17/14 A2992 RMK AO2=
201102221210 SPECI KATL 221210Z 28008KT 10SM SCT019 BKN025 BKN040 17/14 A2992 RMK AO2=
201102221152 METAR KATL 221152Z 26009KT 10SM FEW030 SCT050 17/14 A2991 RMK AO2 SLP122 T01670144 10183 20167 53021=
201102221052 METAR KATL 221052Z 26010KT 10SM BKN035 17/14 A2988 RMK AO2 SLP112 T01670144=
201102220952 METAR KATL 220952Z 25009KT 10SM SCT050 BKN065 17/14 A2985 RMK AO2 SLP103 T01720144=
201102220852 METAR KATL 220852Z 25009KT 10SM SCT014 17/14 A2984 RMK AO2 SLP099 T01670144 55005=
201102220752 METAR KATL 220752Z 25011G19KT 10SM SCT015 17/14 A2984 RMK AO2 SLP098 T01720144=
201102220652 METAR KATL 220652Z 24013G22KT 10SM FEW060 SCT150 18/14 A2985 RMK AO2 SLP102 T01780139=
201102220552 METAR KATL 220552Z 24013G20KT 10SM FEW045 SCT060 18/13 A2986 RMK AO2 SLP105 T01830133 10206 20178 50000=
201102220452 METAR KATL 220452Z 24013G24KT 10SM FEW045 SCT070 19/13 A2986 RMK AO2 SLP107 T01890128 402280117=
201102220352 METAR KATL 220352Z 25011G17KT 10SM FEW045 19/12 A2986 RMK AO2 SLP106 T01890122=
201102220252 METAR KATL 220252Z 25007KT 10SM FEW045 18/11 A2986 RMK AO2 SLP107 T01780111 50001=
201102220152 METAR KATL 220152Z 24005KT 10SM SCT050 SCT065 SCT090 18/11 A2986 RMK AO2 SLP109 T01830111=
201102220052 METAR KATL 220052Z 25004KT 10SM FEW055 19/11 A2986 RMK AO2 SLP107 T01940106=
201102212352 METAR KATL 212352Z 25006KT 10SM BKN055 BKN250 21/11 A2986 RMK AO2 SLP106 T02060106 10228 20189 53001=
201102212252 METAR KATL 212252Z 25014G20KT 10SM SCT060 BKN250 22/10 A2985 RMK AO2 SLP104 T02170100=
201102212152 METAR KATL 212152Z 26012G19KT 10SM FEW055 SCT200 BKN250 22/09 A2985 RMK AO2 PK WND 24030/2124 SLP104 T02170094=
201102212052 METAR KATL 212052Z 26017G23KT 10SM FEW055 SCT090 BKN250 22/09 A2985 RMK AO2 PK WND 24026/2009 SLP104 T02220094 56028=
201102211952 METAR KATL 211952Z 27013G16KT 10SM FEW040 BKN050 BKN250 21/11 A2988 RMK AO2 SLP113 T02110111=
201102211852 METAR KATL 211852Z 23011G18KT 10SM BKN040 BKN050 BKN250 21/11 A2990 RMK AO2 SLP122 T02060106=
201102211752 METAR KATL 211752Z 25013G18KT 10SM FEW035 BKN050 BKN100 19/11 A2994 RMK AO2 SLP134 T01890106 10189 20117 58019=
201102211652 METAR KATL 211652Z 22010G18KT 10SM FEW020 BKN050 17/11 A2997 RMK AO2 SLP145 T01670111=
201102211552 METAR KATL 211552Z 23007KT 10SM FEW015 OVC045 15/11 A2999 RMK AO2 SLP152 T01500111=
201102211452 METAR KATL 211452Z 22009KT 10SM FEW012 BKN045 14/12 A3000 RMK AO2 SLP155 T01440117 51008=
201102211352 METAR KATL 211352Z 23006KT 7SM BKN008 BKN015 BKN045 13/12 A2999 RMK AO2 SLP155 T01330117=
201102211252 METAR KATL 211252Z 22008KT 4SM BR BKN008 BKN042 12/11 A2998 RMK AO2 SLP149 T01220111=
201102211152 METAR KATL 211152Z 26006KT 6SM BR BKN008 BKN030 12/11 A2997 RMK AO2 SLP146 T01220106 10133 20117 53006=
201102211144 SPECI KATL 211144Z 25006KT 6SM BR BKN008 BKN030 12/11 A2997 RMK AO2=
201102211144 SPECI KATL 211144Z 25006KT 6SM BR BKN008 BKN030 12/11 A2997 RMK AO2=
201102211052 METAR KATL 211052Z 24004KT 6SM BR FEW035 12/11 A2996 RMK AO2 SLP143 T01170106=
201102210952 METAR KATL 210952Z 22005KT 7SM CLR 12/11 A2995 RMK AO2 SLP140 T01220106=
201102210852 METAR KATL 210852Z 22005KT 7SM CLR 12/10 A2995 RMK AO2 SLP140 T01170100 56012=
201102210752 METAR KATL 210752Z 22005KT 8SM FEW050 12/11 A2996 RMK AO2 SLP142 T01220106=
201102210652 METAR KATL 210652Z 19007KT 9SM SCT150 13/11 A2997 RMK AO2 SLP146 T01330106=
201102210552 METAR KATL 210552Z 19005KT 10SM FEW036 13/09 A2999 RMK AO2 SLP152 T01330094 10178 20128 56015=
201102210452 METAR KATL 210452Z 15003KT 10SM SCT047 13/03 A3000 RMK AO2 SLP157 T01330033 401830106=
201102210352 METAR KATL 210352Z 09004KT 10SM SCT055 13/03 A3002 RMK AO2 SLP163 T01330028=
201102210252 METAR KATL 210252Z 11006KT 10SM SCT050 16/03 A3003 RMK AO2 SLP168 T01560028 58006=
201102210152 METAR KATL 210152Z 13005KT 10SM BKN050 16/03 A3004 RMK AO2 SLP171 T01610033=
201102210052 METAR KATL 210052Z 11008KT 10SM FEW037 SCT060 17/04 A3005 RMK AO2 SLP173 T01670044=
201102202352 METAR KATL 202352Z 12004KT 10SM FEW045 SCT060 18/10 A3005 RMK AO2 SLP175 T01780100 10183 20167 55010=
201102202252 METAR KATL 202252Z 12005KT 10SM FEW038 BKN060 18/07 A3005 RMK AO2 SLP174 T01780067=
201102202152 METAR KATL 202152Z 13005KT 10SM BKN038 BKN060 18/07 A3006 RMK AO2 SLP177 T01830067=
201102202052 METAR KATL 202052Z 13010KT 10SM BKN038 BKN060 18/05 A3009 RMK AO2 SLP185 T01830050 56031=
201102201952 METAR KATL 201952Z 14009KT 10SM BKN040 18/03 A3011 RMK AO2 SLP194 T01780028=
201102201852 METAR KATL 201852Z 11010G14KT 10SM SCT048 BKN075 18/M01 A3014 RMK AO2 SLP205 T01781011=
201102201752 METAR KATL 201752Z 10010KT 10SM SCT050 BKN070 17/M03 A3018 RMK AO2 SLP218 T01671033 10172 20106 58012=
201102201652 METAR KATL 201652Z 10010KT 10SM SCT060 BKN070 16/M04 A3021 RMK AO2 SLP227 T01611044=
201102201552 METAR KATL 201552Z 11011KT 10SM BKN075 16/M07 A3022 RMK AO2 SLP231 T01561067=
201102201452 METAR KATL 201452Z 12010KT 10SM BKN055 BKN070 14/M07 A3022 RMK AO2 SLP231 T01391072 51013=
201102201352 METAR KATL 201352Z 11008KT 10SM BKN055 13/M07 A3021 RMK AO2 SLP227 T01331072=
201102201252 METAR KATL 201252Z 09007KT 10SM BKN050 12/M07 A3019 RMK AO2 SLP222 T01221067=
201102201152 METAR KATL 201152Z 08008KT 10SM SCT055 11/M06 A3018 RMK AO2 SLP217 T01061061 10144 20106 55001=
201102201052 METAR KATL 201052Z 08009KT 10SM SCT055 12/M05 A3017 RMK AO2 SLP214 T01171050=
201102200952 METAR KATL 200952Z 07009KT 10SM BKN055 13/M05 A3018 RMK AO2 SLP214 T01331050=
201102200852 METAR KATL 200852Z 08008KT 10SM SCT050 13/M03 A3018 RMK AO2 SLP215 T01331028 58002=
201102200752 METAR KATL 200752Z 05004KT 10SM CLR 14/M06 A3019 RMK AO2 SLP217 T01391061=
201102200652 METAR KATL 200652Z 09003KT 10SM FEW100 13/M05 A3019 RMK AO2 SLP219 T01281050=
201102200552 METAR KATL 200552Z 34003KT 10SM FEW100 14/M07 A3019 RMK AO2 SLP218 T01441072 10200 20139 55006=
201102200452 METAR KATL 200452Z 33004KT 10SM FEW100 14/M07 A3019 RMK AO2 SLP218 T01391067 402390100=
201102200352 METAR KATL 200352Z 32003KT 10SM BKN100 16/M07 A3020 RMK AO2 SLP223 T01561072=
201102200252 METAR KATL 200252Z 35007KT 10SM BKN095 17/M08 A3021 RMK AO2 SLP226 T01671078 51009=
201102200152 METAR KATL 200152Z 34006KT 10SM FEW080 BKN095 17/M04 A3020 RMK AO2 SLP223 T01721044=
201102200052 METAR KATL 200052Z 34008KT 10SM BKN080 19/M02 A3019 RMK AO2 SLP223 T01891022=
201102192352 METAR KATL 192352Z 34010KT 10SM BKN080 20/03 A3018 RMK AO2 SLP218 T02000028 10239 20194 53007=
201102192252 METAR KATL 192252Z 33008KT 10SM BKN085 21/07 A3016 RMK AO2 SLP212 T02110067=
201102192152 METAR KATL 192152Z 34008KT 10SM SCT055 BKN080 23/07 A3015 RMK AO2 SLP207 T02280067=
201102192052 METAR KATL 192052Z 34009KT 10SM SCT060 23/07 A3016 RMK AO2 SLP208 T02330072 56019=
201102191952 METAR KATL 191952Z 32006G14KT 10SM SCT060 23/08 A3016 RMK AO2 SLP210 T02330078=
201102191852 METAR KATL 191852Z 35009KT 10SM FEW060 23/08 A3018 RMK AO2 SLP217 T02330078=
201102191752 METAR KATL 191752Z 35003KT 10SM CLR 22/08 A3021 RMK AO2 SLP227 T02170083 10222 20100 58019=
201102191652 METAR KATL 191652Z 31005KT 10SM CLR 21/08 A3025 RMK AO2 SLP238 T02060078=
201102191552 METAR KATL 191552Z 34006KT 10SM FEW060 18/08 A3026 RMK AO2 SLP245 T01780078=
201102191452 METAR KATL 191452Z 34006KT 10SM FEW060 16/09 A3027 RMK AO2 SLP249 T01560089 51019=
201102191352 METAR KATL 191352Z 32006KT 7SM FEW020 12/09 A3026 RMK AO2 SLP247 T01220094=
201102191252 METAR KATL 191252Z COR 30007KT 5SM BR FEW010 11/09 A3024 RMK AO2 SLP239 T01060094=
201102191152 METAR KATL 191152Z 30006KT 3SM BR CLR 10/09 A3021 RMK AO2 TWR VIS 5 SLP230 T01000094 10128 20100 53009=
201102191052 METAR KATL 191052Z 31008KT 3SM BR CLR 11/11 A3020 RMK AO2 TWR VIS 5 SLP224 T01110106=
201102191047 SPECI KATL 191047Z 31008KT 3SM BR CLR 11/11 A3020 RMK AO2 TWR VIS 5=
201102191047 SPECI KATL 191047Z 31008KT 3SM BR CLR 11/11 A3020 RMK AO2 TWR VIS 5=
201102191019 SPECI KATL 191019Z 32007KT 2 1/2SM BR FEW010 11/11 A3020 RMK AO2=
201102191019 SPECI KATL 191019Z 32007KT 2 1/2SM BR FEW010 11/11 A3020 RMK AO2=
201102190952 METAR KATL 190952Z 31005KT 3SM BR FEW015 11/11 A3019 RMK AO2 SLP221 T01110106=
201102190852 METAR KATL 190852Z 29004KT 4SM BR FEW015 12/11 A3019 RMK AO2 SLP219 T01170111 56004=
201102190752 METAR KATL 190752Z 29004KT 4SM BR FEW060 12/11 A3019 RMK AO2 SLP220 T01220111=
201102190652 METAR KATL 190652Z 29004KT 5SM BR FEW060 12/11 A3019 RMK AO2 SLP222 T01220111=
201102190552 METAR KATL 190552Z 32005KT 6SM BR FEW060 12/11 A3020 RMK AO2 SLP224 T01220111 10167 20122 57007=
201102190452 METAR KATL 190452Z 34004KT 6SM BR FEW060 13/11 A3020 RMK AO2 SLP226 T01330111 402110100=
201102190352 METAR KATL 190352Z 29005KT 6SM HZ SCT060 14/12 A3022 RMK AO2 SLP230 T01440117=
201102190252 METAR KATL 190252Z 26005KT 6SM HZ SCT060 15/12 A3022 RMK AO2 SLP231 T01500117 51005=
201102190152 METAR KATL 190152Z 27006KT 7SM BKN065 15/12 A3022 RMK AO2 SLP231 T01500117=
201102190052 METAR KATL 190052Z 30004KT 7SM FEW035 16/12 A3021 RMK AO2 SLP230 T01610117=
201102182352 METAR KATL 182352Z 24004KT 8SM FEW035 17/12 A3020 RMK AO2 SLP227 T01670117 10211 20161 51009=
201102182252 METAR KATL 182252Z 28008KT 10SM SCT032 BKN038 18/12 A3020 RMK AO2 SLP224 T01830117=
201102182152 METAR KATL 182152Z 28009KT 10SM BKN033 BKN070 BKN200 19/12 A3019 RMK AO2 SLP220 T01940117=
201102182052 METAR KATL 182052Z 29007KT 10SM FEW030 SCT200 21/12 A3018 RMK AO2 SLP216 T02060117 56016=
201102181952 METAR KATL 181952Z 29009KT 10SM SCT030 SCT200 20/12 A3019 RMK AO2 SLP219 T02000117=
201102181914 SPECI KATL 181914Z 31010KT 10SM SCT028 SCT200 SCT250 19/11 A3020 RMK AO2=
201102181914 SPECI KATL 181914Z 31010KT 10SM SCT028 SCT200 SCT250 19/11 A3020 RMK AO2=
201102181852 METAR KATL 181852Z 28009KT 10SM BKN028 BKN200 19/12 A3020 RMK AO2 SLP225 T01940117=
201102181752 METAR KATL 181752Z 27012G16KT 10SM OVC025 19/12 A3023 RMK AO2 SLP234 T01890117 10189 20100 58004=
201102181652 METAR KATL 181652Z 24009G18KT 10SM FEW020 BKN025 BKN200 17/12 A3024 RMK AO2 SLP238 T01720117=
201102181629 SPECI KATL 181629Z 26013G19KT 10SM BKN019 BKN250 17/11 A3024 RMK AO2=
201102181629 SPECI KATL 181629Z 26013G19KT 10SM BKN019 BKN250 17/11 A3024 RMK AO2=
201102181552 METAR KATL 181552Z 25011KT 10SM FEW015 SCT018 SCT250 16/12 A3023 RMK AO2 SLP236 T01610117=
201102181455 SPECI KATL 181455Z 27006KT 9SM FEW009 BKN017 BKN250 15/12 A3024 RMK AO2=
201102181455 SPECI KATL 181455Z 27006KT 9SM FEW009 BKN017 BKN250 15/12 A3024 RMK AO2=
201102181452 METAR KATL 181452Z 26007KT 7SM BKN011 BKN017 BKN250 15/12 A3024 RMK AO2 SLP237 T01500117 51004=
201102181352 METAR KATL 181352Z 26006KT 6SM HZ BKN013 13/11 A3023 RMK AO2 SLP235 T01330106=
201102181252 METAR KATL 181252Z 25005KT 7SM BKN011 BKN015 12/08 A3023 RMK AO2 SLP236 T01170083=
201102181224 SPECI KATL 181224Z 27004KT 10SM BKN014 11/07 A3023 RMK AO2=
201102181224 SPECI KATL 181224Z 27004KT 10SM BKN014 11/07 A3023 RMK AO2=
201102181152 METAR KATL 181152Z 28004KT 10SM BKN017 11/07 A3023 RMK AO2 SLP234 T01060072 10122 20100 53020=
201102181122 SPECI KATL 181122Z 30005KT 9SM BKN017 11/08 A3022 RMK AO2=
201102181122 SPECI KATL 181122Z 30005KT 9SM BKN017 11/08 A3022 RMK AO2=
201102181052 METAR KATL 181052Z 28006KT 10SM FEW150 11/08 A3020 RMK AO2 SLP226 T01060078=
201102180952 METAR KATL 180952Z 23004KT 10SM FEW250 11/07 A3017 RMK AO2 SLP214 T01060067=
201102180852 METAR KATL 180852Z 23005KT 10SM FEW150 SCT250 11/06 A3016 RMK AO2 SLP212 T01110061 58005=
201102180752 METAR KATL 180752Z 23006KT 10SM SCT150 SCT250 12/05 A3017 RMK AO2 SLP213 T01220050=
201102180652 METAR KATL 180652Z 23006KT 10SM FEW150 SCT250 11/03 A3018 RMK AO2 SLP218 T01110033=
201102180552 METAR KATL 180552Z 23005KT 10SM BKN250 12/03 A3018 RMK AO2 SLP217 T01220033 10172 20117 58001=
201102180452 METAR KATL 180452Z 20007KT 10SM SCT250 12/04 A3018 RMK AO2 SLP217 T01170039 402220072=
201102180352 METAR KATL 180352Z 22004KT 10SM FEW250 13/03 A3019 RMK AO2 SLP221 T01280033=
201102180252 METAR KATL 180252Z 19004KT 10SM CLR 14/03 A3018 RMK AO2 SLP221 T01390033 53009=
201102180152 METAR KATL 180152Z 20004KT 10SM CLR 15/03 A3017 RMK AO2 SLP218 T01500028=
201102180052 METAR KATL 180052Z 20006KT 10SM CLR 17/03 A3016 RMK AO2 SLP213 T01670028=
201102172352 METAR KATL 172352Z 19005KT 10SM CLR 17/02 A3015 RMK AO2 SLP211 T01720022 10222 20172 56004=
201102172252 METAR KATL 172252Z 20009KT 10SM CLR 20/02 A3016 RMK AO2 SLP210 T02000017=
201102172152 METAR KATL 172152Z 21009KT 10SM CLR 22/01 A3016 RMK AO2 SLP211 T02170011=
201102172052 METAR KATL 172052Z 21009G17KT 10SM CLR 22/02 A3017 RMK AO2 SLP213 T02170017 56019=
201102171952 METAR KATL 171952Z 16008KT 10SM CLR 21/04 A3017 RMK AO2 SLP216 T02110044=
201102171852 METAR KATL 171852Z 19010G17KT 10SM CLR 20/04 A3019 RMK AO2 SLP222 T02000044=
201102171752 METAR KATL 171752Z 21008G16KT 180V250 9SM CLR 19/04 A3022 RMK AO2 SLP233 T01940044 10194 20072 58016=
201102171652 METAR KATL 171652Z 20009G15KT 9SM CLR 18/06 A3026 RMK AO2 SLP245 T01780061=
201102171552 METAR KATL 171552Z 00000KT 6SM HZ CLR 14/09 A3027 RMK AO2 SLP252 T01390089 $=
201102171524 SPECI KATL 171524Z 00000KT 6SM BR FEW005 11/09 A3028 RMK AO2 $=
201102171524 SPECI KATL 171524Z 00000KT 6SM BR FEW005 11/09 A3028 RMK AO2 $=
201102171513 SPECI KATL 171513Z 00000KT 2 1/2SM BR FEW004 10/09 A3027 RMK AO2 SFC VIS 5 $=
201102171513 SPECI KATL 171513Z 00000KT 2 1/2SM BR FEW004 10/09 A3027 RMK AO2 SFC VIS 5 $=
201102171458 SPECI KATL 171458Z 13003KT 2SM BR BCFG BKN002 BKN004 09/09 A3027 RMK AO2 SFC VIS 3 $=
201102171458 SPECI KATL 171458Z 13003KT 2SM BR BCFG BKN002 BKN004 09/09 A3027 RMK AO2 SFC VIS 3 $=
201102171454 SPECI KATL 171454Z 17003KT 1SM BR BCFG BKN002 BKN004 09/09 A3027 RMK AO2 SFC VIS 2 1/2 $=
201102171454 SPECI KATL 171454Z 17003KT 1SM BR BCFG BKN002 BKN004 09/09 A3027 RMK AO2 SFC VIS 2 1/2 $=
201102171452 METAR KATL 171452Z VRB03KT 1/4SM BR BCFG BKN002 BKN004 10/09 A3027 RMK AO2 SFC VIS 2 SLP252 TWRINC T01000089 52016=
201102171449 SPECI KATL 171449Z 12003KT 1/4SM BR BKN002 BKN004 09/09 A3027 RMK AO2 SFC VIS 1 3/4=
201102171449 SPECI KATL 171449Z 12003KT 1/4SM BR BKN002 BKN004 09/09 A3027 RMK AO2 SFC VIS 1 3/4=
201102171433 SPECI KATL 171433Z 12003KT 1/8SM R09R/1800V4500FT FG OVC001 09/09 A3027 RMK AO2 SFC VIS 1/2=
201102171433 SPECI KATL 171433Z 12003KT 1/8SM R09R/1800V4500FT FG OVC001 09/09 A3027 RMK AO2 SFC VIS 1/2=
201102171420 SPECI KATL 171420Z 12003KT 1/8SM R09R/1200V2200FT FG OVC001 09/09 A3027 RMK AO2 SFC VIS 1/4=
201102171420 SPECI KATL 171420Z 12003KT 1/8SM R09R/1200V2200FT FG OVC001 09/09 A3027 RMK AO2 SFC VIS 1/4=
201102171400 SPECI KATL 171400Z 12003KT 1/8SM R09R/1400V4000FT FG VV001 09/08 A3026 RMK AO2 SFC VIS 1/4=
201102171400 SPECI KATL 171400Z 12003KT 1/8SM R09R/1400V4000FT FG VV001 09/08 A3026 RMK AO2 SFC VIS 1/4=
201102171352 METAR KATL 171352Z 11004KT 1/8SM R09R/1000V2000FT FG VV001 08/08 A3026 RMK AO2 SLP247 T00830083 $=
201102171252 METAR KATL 171252Z 12003KT 1/8SM R09R/1000V1200FT FG VV001 08/08 A3024 RMK AO2 SLP241 T00780078 $=
201102171231 SPECI KATL 171231Z 14003KT 1/8SM R09R/1600VP6000FT BR OVC001 08/08 A3023 RMK AO2 SFC VIS 3/4 VIS M1/4V4 $=
201102171231 SPECI KATL 171231Z 14003KT 1/8SM R09R/1600VP6000FT BR OVC001 08/08 A3023 RMK AO2 SFC VIS 3/4 VIS M1/4V4 $=
201102171212 SPECI KATL 171212Z 12003KT 1/8SM BR OVC003 08/07 A3023 RMK AO2 SFC VIS 4 $=
201102171212 SPECI KATL 171212Z 12003KT 1/8SM BR OVC003 08/07 A3023 RMK AO2 SFC VIS 4 $=
201102171158 SPECI KATL 171158Z 00000KT 1/2SM BR BKN003 08/07 A3022 RMK AO2 SFC VIS 5 $=
201102171158 SPECI KATL 171158Z 00000KT 1/2SM BR BKN003 08/07 A3022 RMK AO2 SFC VIS 5 $=
201102171155 SPECI KATL 171155Z 00000KT 1 1/2SM BR BKN003 08/07 A3022 RMK AO2 SFC VIS 5 $=
201102171155 SPECI KATL 171155Z 00000KT 1 1/2SM BR BKN003 08/07 A3022 RMK AO2 SFC VIS 5 $=
201102171152 METAR KATL 171152Z 00000KT 5SM BR BKN003 07/06 A3022 RMK AO2 SLP236 T00720061 10106 20072 53004 $=
201102171147 SPECI KATL 171147Z 00000KT 5SM BR SCT003 08/06 A3022 RMK AO2=
201102171147 SPECI KATL 171147Z 00000KT 5SM BR SCT003 08/06 A3022 RMK AO2=
201102171052 METAR KATL 171052Z 00000KT 6SM BR CLR 07/06 A3021 RMK AO2 SLP229 T00720061=
201102170952 METAR KATL 170952Z 11003KT 7SM CLR 08/07 A3021 RMK AO2 SLP230 T00830067=
201102170852 METAR KATL 170852Z 11003KT 9SM CLR 08/07 A3021 RMK AO2 SLP229 T00830067 58008=
201102170752 METAR KATL 170752Z 09003KT 7SM CLR 08/07 A3022 RMK AO2 SLP234 T00830067=
201102170652 METAR KATL 170652Z 09003KT 10SM CLR 08/07 A3023 RMK AO2 SLP235 T00830067=
201102170552 METAR KATL 170552Z 00000KT 10SM CLR 11/08 A3024 RMK AO2 SLP239 T01060078 10150 20106 58002=
201102170452 METAR KATL 170452Z 11004KT 10SM CLR 11/08 A3024 RMK AO2 SLP240 T01060078 401830044=
201102170352 METAR KATL 170352Z 13004KT 10SM CLR 11/08 A3024 RMK AO2 SLP242 T01110078=
201102170252 METAR KATL 170252Z 13005KT 10SM CLR 12/08 A3024 RMK AO2 SLP242 T01220078 51003=
201102170152 METAR KATL 170152Z 12005KT 10SM CLR 13/07 A3024 RMK AO2 SLP242 T01280072=
201102170052 METAR KATL 170052Z 12004KT 10SM FEW200 14/07 A3024 RMK AO2 SLP241 T01390067=
201102162352 METAR KATL 162352Z 12004KT 10SM FEW200 15/07 A3023 RMK AO2 SLP239 T01500067 10183 20150 56005=
201102162252 METAR KATL 162252Z 14007KT 10SM FEW045 17/07 A3023 RMK AO2 SLP239 T01670067=
201102162152 METAR KATL 162152Z 12008KT 10SM FEW055TCU SCT100 18/07 A3023 RMK AO2 SLP238 TCU S T01780067=
201102162052 METAR KATL 162052Z VRB05KT 10SM FEW050 SCT060 18/06 A3025 RMK AO2 SLP243 T01830056 56024=
201102161952 METAR KATL 161952Z 15005KT 10SM FEW050 SCT060 SCT110 17/05 A3026 RMK AO2 SLP247 T01720050=
201102161852 METAR KATL 161852Z 16008KT 10SM FEW040 SCT110 17/06 A3028 RMK AO2 SLP255 T01670061=
201102161752 METAR KATL 161752Z VRB04KT 10SM FEW040 15/06 A3032 RMK AO2 SLP269 T01500061 10150 20056 58019=
201102161652 METAR KATL 161652Z 16003KT 10SM FEW025 SCT110 13/05 A3036 RMK AO2 SLP283 T01330050=
201102161552 METAR KATL 161552Z VRB06KT 10SM SCT030 11/04 A3038 RMK AO2 SLP290 T01060039=
201102161452 METAR KATL 161452Z 11006KT 10SM BKN024 09/02 A3038 RMK AO2 SLP290 T00890022 51016=
201102161352 METAR KATL 161352Z 08009KT 10SM BKN024 07/01 A3037 RMK AO2 SLP287 T00720011=
201102161252 METAR KATL 161252Z 08009KT 10SM BKN024 06/00 A3035 RMK AO2 SLP279 T00560000=
201102161152 METAR KATL 161152Z 08007KT 10SM BKN024 06/00 A3033 RMK AO2 SLP273 T00560000 10083 20044 53007=
201102161128 SPECI KATL 161128Z 10005KT 10SM BKN024 BKN030 BKN150 06/M01 A3033 RMK AO2=
201102161128 SPECI KATL 161128Z 10005KT 10SM BKN024 BKN030 BKN150 06/M01 A3033 RMK AO2=
201102161052 METAR KATL 161052Z 09005KT 10SM FEW025 BKN035 05/M02 A3032 RMK AO2 SLP270 T00501017=
201102161023 SPECI KATL 161023Z 10004KT 10SM FEW023 SCT029 BKN035 06/M02 A3032 RMK AO2=
201102161023 SPECI KATL 161023Z 10004KT 10SM FEW023 SCT029 BKN035 06/M02 A3032 RMK AO2=
201102160952 METAR KATL 160952Z 12004KT 10SM BKN021 BKN029 BKN150 06/M02 A3031 RMK AO2 SLP265 T00611017=
201102160948 SPECI KATL 160948Z 12004KT 10SM BKN021 BKN150 06/M02 A3031 RMK AO2=
201102160948 SPECI KATL 160948Z 12004KT 10SM BKN021 BKN150 06/M02 A3031 RMK AO2=
201102160852 METAR KATL 160852Z 11004KT 10SM SCT150 06/M02 A3030 RMK AO2 SLP262 T00611022 58001=
201102160752 METAR KATL 160752Z 14004KT 10SM SCT150 07/M02 A3030 RMK AO2 SLP263 T00671022=
201102160652 METAR KATL 160652Z 13003KT 10SM BKN150 08/M03 A3031 RMK AO2 SLP264 T00781028=
201102160552 METAR KATL 160552Z 13003KT 10SM FEW150 08/M03 A3030 RMK AO2 SLP263 T00831028 10139 20083 53004=
201102160452 METAR KATL 160452Z 12006KT 10SM FEW150 10/M03 A3029 RMK AO2 SLP257 T01001033 401720039=
201102160352 METAR KATL 160352Z 13005KT 10SM SCT150 10/M03 A3029 RMK AO2 SLP258 T01001028=
201102160252 SPECI KATL 160252Z 13005KT 10SM SCT150 11/M03 A3029 RMK AO2 SLP259 T01111028 53007=
201102160152 METAR KATL 160152Z 12006KT 10SM SCT150 12/M03 A3028 RMK AO2 SLP256 T01221028=
201102160052 METAR KATL 160052Z VRB05KT 10SM BKN150 13/M03 A3028 RMK AO2 SLP255 T01281033=
201102152352 METAR KATL 152352Z 12004KT 8SM FEW150 14/M04 A3027 RMK AO2 SLP253 T01391039 10172 20139 53004=
201102152252 METAR KATL 152252Z 13005KT 6SM FU FEW250 15/M04 A3025 RMK AO2 SLP247 T01501039=
201102152152 METAR KATL 152152Z 12006KT 9SM FEW200 SCT250 17/M04 A3025 RMK AO2 SLP245 T01671039=
201102152052 METAR KATL 152052Z 15008KT 10SM FEW150 SCT200 SCT250 17/M05 A3026 RMK AO2 SLP247 T01671050 56020=
201102151952 METAR KATL 151952Z 16011G15KT 10SM FEW200 BKN250 BKN300 17/M04 A3027 RMK AO2 SLP250 T01671044=
201102151852 METAR KATL 151852Z 12010KT 10SM FEW200 SCT250 SCT300 16/M05 A3029 RMK AO2 SLP258 T01561050=
201102151752 METAR KATL 151752Z 16010KT 10SM FEW200 SCT250 SCT300 15/M03 A3032 RMK AO2 SLP267 T01501033 10150 20044 58005=
201102151652 METAR KATL 151652Z 10008KT 10SM FEW200 BKN250 BKN300 14/M03 A3034 RMK AO2 SLP276 T01391028=
201102151552 METAR KATL 151552Z 11008KT 10SM BKN250 12/M03 A3035 RMK AO2 SLP279 T01171033=
201102151452 METAR KATL 151452Z 09010KT 10SM BKN250 10/M02 A3033 RMK AO2 SLP274 T01001022 51026=
201102151352 METAR KATL 151352Z 06008KT 10SM SCT150 BKN250 08/M01 A3031 RMK AO2 SLP266 T00781011=
201102151252 METAR KATL 151252Z 36005KT 10SM BKN250 06/M01 A3029 RMK AO2 SLP258 T00561011=
201102151152 METAR KATL 151152Z 33008KT 10SM SCT250 04/M01 A3026 RMK AO2 SLP247 T00441011 10100 20039 53015=
201102151052 METAR KATL 151052Z 33005KT 10SM BKN250 04/M02 A3024 RMK AO2 SLP240 T00441017=
201102150952 METAR KATL 150952Z 01006KT 10SM BKN250 07/M02 A3022 RMK AO2 SLP234 T00671017=
201102150852 METAR KATL 150852Z 34005KT 10SM SCT250 06/M02 A3021 RMK AO2 SLP229 T00611017 53004=
201102150752 METAR KATL 150752Z 35010KT 10SM FEW250 08/M02 A3020 RMK AO2 SLP225 T00831017=
201102150652 METAR KATL 150652Z 34007KT 10SM FEW250 09/M03 A3020 RMK AO2 SLP225 T00891028=
201102150552 METAR KATL 150552Z COR 33014G20KT 10SM FEW250 10/M03 A3020 RMK AO2 SLP225 T01001033 10150 20089 51008=
201102150452 METAR KATL 150452Z 33007KT 10SM FEW250 09/M01 A3020 RMK AO2 SLP226 T00891011 402000050=
201102150352 METAR KATL 150352Z 32007KT 10SM FEW250 11/M01 A3019 RMK AO2 SLP224 T01061006=
201102150252 METAR KATL 150252Z 29007KT 10SM CLR 12/00 A3017 RMK AO2 SLP219 T01170000 53015=
201102150152 METAR KATL 150152Z 28008KT 10SM CLR 13/00 A3016 RMK AO2 SLP213 T01330000=
201102150052 METAR KATL 150052Z 29009KT 10SM CLR 14/01 A3014 RMK AO2 SLP208 T01390011=
201102142352 METAR KATL 142352Z 29009KT 10SM CLR 15/00 A3013 RMK AO2 SLP203 T01500000 10200 20150 53015=
201102142252 METAR KATL 142252Z 29013G18KT 10SM FEW250 18/M01 A3010 RMK AO2 SLP193 T01781006=
201102142152 SPECI KATL 142152Z 31014KT 10SM CLR 19/M02 A3008 RMK AO2 SLP186 T01941017=
201102142052 METAR KATL 142052Z 30011KT 10SM FEW250 20/01 A3008 RMK AO2 SLP184 T02000006 55012=
201102141952 METAR KATL 141952Z 27012KT 10SM FEW250 19/01 A3008 RMK AO2 SLP185 T01940011=
201102141852 METAR KATL 141852Z 27011G19KT 10SM FEW250 19/02 A3009 RMK AO2 SLP187 T01890017=
201102141752 METAR KATL 141752Z 29013G22KT 10SM FEW250 17/02 A3012 RMK AO2 SLP198 T01720017 10178 20050 58014=
201102141652 METAR KATL 141652Z 27009G18KT 10SM FEW250 16/02 A3013 RMK AO2 SLP204 T01560022=
201102141552 METAR KATL 141552Z 26011KT 10SM FEW250 13/01 A3015 RMK AO2 SLP211 T01280006=
201102141452 METAR KATL 141452Z 27014G20KT 10SM FEW250 11/M01 A3016 RMK AO2 SLP214 T01061011 58001=
201102141352 METAR KATL 141352Z 26009KT 10SM SCT250 08/M03 A3017 RMK AO2 SLP219 T00831033=
201102141252 METAR KATL 141252Z 26006KT 10SM SCT250 06/M04 A3017 RMK AO2 SLP219 T00561039=
201102141152 METAR KATL 141152Z 24006KT 10SM FEW250 06/M04 A3016 RMK AO2 SLP215 T00561044 10089 20056 50002=
201102141052 METAR KATL 141052Z 25005KT 10SM CLR 06/M04 A3017 RMK AO2 SLP218 T00611044=
201102140952 METAR KATL 140952Z 25007KT 10SM CLR 08/M04 A3016 RMK AO2 SLP214 T00781044=
201102140852 METAR KATL 140852Z 24008KT 10SM CLR 08/M04 A3016 RMK AO2 SLP211 T00831044 58009=
201102140752 METAR KATL 140752Z 25007KT 10SM CLR 08/M04 A3017 RMK AO2 SLP216 T00831044=
201102140652 METAR KATL 140652Z 24005KT 10SM CLR 07/M04 A3018 RMK AO2 SLP221 T00721044=
201102140552 METAR KATL 140552Z 25004KT 10SM CLR 09/M04 A3019 RMK AO2 SLP222 T00891044 10144 20083 56006=
201102140452 METAR KATL 140452Z 23005KT 10SM CLR 08/M04 A3019 RMK AO2 SLP223 T00831044 401780017=
201102140352 METAR KATL 140352Z 23005KT 10SM CLR 09/M04 A3019 RMK AO2 SLP225 T00891044=
201102140252 METAR KATL 140252Z 24006KT 10SM CLR 10/M04 A3020 RMK AO2 SLP231 T01001044 53002=
201102140152 METAR KATL 140152Z 24006KT 10SM CLR 12/M04 A3020 RMK AO2 SLP228 T01171044=
201102140052 METAR KATL 140052Z 23006KT 10SM CLR 12/M04 A3020 RMK AO2 SLP232 T01221044=
201102132352 METAR KATL 132352Z 24006KT 10SM FEW250 14/M05 A3020 RMK AO2 SLP230 T01391050 10178 20139 55002=
201102132252 METAR KATL 132252Z 24009KT 10SM FEW250 16/M07 A3019 RMK AO2 SLP226 T01611067=
201102132152 METAR KATL 132152Z 25008KT 10SM FEW250 17/M06 A3019 RMK AO2 SLP226 T01721056=
201102132052 METAR KATL 132052Z 27009G19KT 10SM FEW250 18/M06 A3020 RMK AO2 SLP229 T01781056 56026=
201102131952 METAR KATL 131952Z 26009G18KT 10SM BKN250 17/M07 A3021 RMK AO2 SLP232 T01721067=
201102131852 METAR KATL 131852Z 24011KT 10SM BKN250 17/M06 A3024 RMK AO2 SLP242 T01671061=
201102131752 METAR KATL 131752Z 26008G15KT 10SM FEW200 15/M04 A3028 RMK AO2 SLP257 T01501039 10156 20017 58018=
201102131652 METAR KATL 131652Z 29010KT 10SM FEW200 13/M04 A3031 RMK AO2 SLP267 T01331039=
201102131552 METAR KATL 131552Z 29008KT 10SM FEW200 11/M03 A3033 RMK AO2 SLP274 T01111028=
201102131452 METAR KATL 131452Z 31006KT 10SM FEW200 08/M03 A3034 RMK AO2 SLP278 T00781033 53010=
201102131352 METAR KATL 131352Z 26003KT 10SM FEW200 06/M03 A3033 RMK AO2 SLP276 T00561033=
201102131252 METAR KATL 131252Z 28004KT 10SM FEW200 02/M05 A3031 RMK AO2 SLP271 T00171050=
201102131152 METAR KATL 131152Z 29007KT 10SM CLR 02/M04 A3031 RMK AO2 SLP269 T00171044 10044 20017 51007=
201102131052 METAR KATL 131052Z 29005KT 10SM CLR 03/M05 A3030 RMK AO2 SLP267 T00281050=
201102130952 METAR KATL 130952Z 26003KT 10SM CLR 02/M05 A3029 RMK AO2 SLP262 T00221050=
201102130852 METAR KATL 130852Z 27003KT 10SM CLR 04/M05 A3029 RMK AO2 SLP259 T00391050 58003=
201102130752 METAR KATL 130752Z 27005KT 10SM CLR 03/M05 A3029 RMK AO2 SLP259 T00331050=
201102130652 METAR KATL 130652Z 28004KT 10SM CLR 04/M05 A3030 RMK AO2 SLP264 T00391050=
201102130552 METAR KATL 130552Z 00000KT 10SM CLR 04/M05 A3030 RMK AO2 SLP263 T00391050 10089 20039 56008=
201102130452 METAR KATL 130452Z 29004KT 10SM CLR 05/M06 A3030 RMK AO2 SLP267 T00501056 401331017=
201102130352 METAR KATL 130352Z 29004KT 10SM SCT250 05/M06 A3031 RMK AO2 SLP269 T00501056=
201102130252 METAR KATL 130252Z 30006KT 10SM BKN250 06/M05 A3032 RMK AO2 SLP273 T00611050 51011=
201102130152 METAR KATL 130152Z 31006KT 10SM SCT250 06/M05 A3031 RMK AO2 SLP272 T00611050=
201102130052 METAR KATL 130052Z 30006KT 10SM SCT250 07/M06 A3030 RMK AO2 SLP269 T00721056=
201102122352 METAR KATL 122352Z 30005KT 10SM FEW250 08/M06 A3029 RMK AO2 SLP263 T00831061 10133 20083 53011=
201102122252 METAR KATL 122252Z 30009KT 10SM FEW065 10/M06 A3028 RMK AO2 SLP259 T01001061=
201102122152 METAR KATL 122152Z 31014KT 10SM FEW250 12/M07 A3026 RMK AO2 SLP251 T01171067=
201102122052 METAR KATL 122052Z 30007G15KT 10SM CLR 13/M06 A3025 RMK AO2 SLP249 T01281056 56020=
201102121952 METAR KATL 121952Z 29009G17KT 10SM CLR 13/M05 A3027 RMK AO2 SLP254 T01281050=
201102121852 METAR KATL 121852Z 31012KT 10SM CLR 12/M05 A3029 RMK AO2 SLP261 T01171050=
201102121752 METAR KATL 121752Z 30011G15KT 10SM CLR 10/M06 A3031 RMK AO2 SLP272 T01001061 10100 21017 58005=
201102121652 METAR KATL 121652Z 29009KT 10SM CLR 08/M07 A3034 RMK AO2 SLP279 T00831072=
201102121552 METAR KATL 121552Z 31011KT 10SM CLR 07/M07 A3034 RMK AO2 SLP281 T00671072=
201102121452 METAR KATL 121452Z 31009KT 10SM CLR 03/M08 A3033 RMK AO2 SLP279 T00331083 53016=
201102121352 METAR KATL 121352Z 30009KT 10SM CLR 01/M09 A3032 RMK AO2 SLP274 T00111094=
201102121252 METAR KATL 121252Z 29007KT 10SM CLR M01/M11 A3030 RMK AO2 SLP269 T10111106=
201102121152 METAR KATL 121152Z 30009KT 10SM CLR M01/M11 A3028 RMK AO2 SLP263 T10111111 11006 21017 53012=
201102121052 METAR KATL 121052Z 29010KT 10SM CLR M01/M12 A3026 RMK AO2 SLP256 T10111117=
201102120952 METAR KATL 120952Z 29008KT 10SM CLR M01/M12 A3025 RMK AO2 SLP252 T10111122=
201102120852 METAR KATL 120852Z 31009KT 10SM CLR M01/M13 A3025 RMK AO2 SLP250 T10061128 53009=
201102120752 METAR KATL 120752Z 30009KT 10SM CLR M01/M13 A3023 RMK AO2 SLP245 T10061133=
201102120652 METAR KATL 120652Z 30006KT 10SM CLR M01/M13 A3023 RMK AO2 SLP244 T10111133=
201102120552 METAR KATL 120552Z 30006KT 10SM CLR M01/M14 A3022 RMK AO2 SLP240 T10061139 10050 21006 51003=
201102120452 METAR KATL 120452Z 31007KT 10SM CLR 00/M14 A3022 RMK AO2 SLP240 T00001139 400891028=
201102120352 METAR KATL 120352Z 29008KT 10SM CLR 01/M14 A3022 RMK AO2 SLP240 T00061139=
201102120252 METAR KATL 120252Z 28009KT 10SM CLR 02/M14 A3021 RMK AO2 SLP239 T00171139 51018=
201102120152 METAR KATL 120152Z 29009KT 10SM CLR 03/M13 A3020 RMK AO2 SLP236 T00281128=
201102120052 METAR KATL 120052Z 29008KT 10SM CLR 03/M11 A3018 RMK AO2 SLP230 T00331106=
201102112352 METAR KATL 112352Z 31007KT 10SM CLR 05/M12 A3016 RMK AO2 SLP221 T00501117 10089 20050 52010=
201102112252 METAR KATL 112252Z 31012KT 10SM CLR 07/M12 A3014 RMK AO2 SLP216 T00671122=
201102112152 METAR KATL 112152Z 30010KT 10SM CLR 08/M12 A3014 RMK AO2 SLP213 T00781122=
201102112052 METAR KATL 112052Z 30010G15KT 10SM FEW080 08/M11 A3013 RMK AO2 SLP209 T00831111 56014=
201102111952 METAR KATL 111952Z 27010KT 10SM FEW070 08/M10 A3013 RMK AO2 SLP209 T00831100=
201102111852 METAR KATL 111852Z 30007KT 10SM FEW060 07/M08 A3015 RMK AO2 SLP216 T00721083=
201102111752 METAR KATL 111752Z 31010KT 10SM FEW050 07/M05 A3017 RMK AO2 SLP222 T00721050 10072 21017 58012=
201102111652 METAR KATL 111652Z 25008KT 10SM FEW040 06/M04 A3018 RMK AO2 SLP228 T00611039=
201102111552 METAR KATL 111552Z 29004KT 10SM FEW040 03/M05 A3020 RMK AO2 SLP233 T00331050=
201102111452 METAR KATL 111452Z 30006KT 10SM BKN044 00/M07 A3020 RMK AO2 SLP238 T00001067 53017=
201102111352 METAR KATL 111352Z 30005KT 10SM BKN044 M01/M07 A3019 RMK AO2 SLP232 T10111067=
201102111252 METAR KATL 111252Z 31004KT 10SM BKN046 M01/M07 A3017 RMK AO2 SLP225 T10111067=
201102111152 METAR KATL 111152Z 32005KT 10SM BKN048 M02/M07 A3015 RMK AO2 SLP220 T10171067 11006 21028 51012=
201102111052 METAR KATL 111052Z 31006KT 10SM BKN046 M02/M07 A3015 RMK AO2 SLP217 T10171067=
201102110952 METAR KATL 110952Z 32006KT 10SM BKN044 M02/M06 A3013 RMK AO2 SLP211 T10221061=
201102110852 METAR KATL 110852Z 32007KT 10SM FEW040 M03/M07 A3012 RMK AO2 SLP207 T10281067 53004=
201102110752 METAR KATL 110752Z 32006KT 10SM FEW040 M02/M06 A3011 RMK AO2 SLP206 T10221061=
201102110652 METAR KATL 110652Z 32005KT 10SM CLR M02/M06 A3011 RMK AO2 SLP204 T10171061=
201102110552 METAR KATL 110552Z 33003KT 10SM CLR M01/M07 A3011 RMK AO2 SLP203 T10061067 10033 21011 56010=
201102110452 METAR KATL 110452Z 00000KT 10SM CLR 01/M07 A3011 RMK AO2 SLP206 T00061067 400671006=
201102110352 METAR KATL 110352Z 33004KT 10SM CLR 01/M07 A3012 RMK AO2 SLP211 T00061072=
201102110252 METAR KATL 110252Z 34005KT 10SM CLR 01/M06 A3014 RMK AO2 SLP215 T00111061 51008=
201102110152 METAR KATL 110152Z 34007KT 10SM FEW045 02/M05 A3013 RMK AO2 SLP212 T00171050=
201102110052 METAR KATL 110052Z 32009KT 10SM FEW045 02/M04 A3012 RMK AO2 SLP210 T00221044=
201102102352 METAR KATL 102352Z 31008KT 10SM SCT045 03/M04 A3011 RMK AO2 SLP205 T00331044 10067 20028 53018=
201102102252 METAR KATL 102252Z 28008KT 10SM BKN042 05/M03 A3009 RMK AO2 SLP198 T00501033=
201102102152 METAR KATL 102152Z 28006KT 10SM FEW040 SCT300 06/M03 A3005 RMK AO2 SLP184 T00611033=
201102102052 METAR KATL 102052Z 28003KT 10SM BKN038 BKN300 05/M03 A3006 RMK AO2 SLP186 T00501033 55013=
201102101952 METAR KATL 101952Z VRB03KT 10SM SCT032 BKN300 06/M02 A3005 RMK AO2 SLP182 T00561017=
201102101852 METAR KATL 101852Z VRB06KT 10SM FEW025 SCT300 04/M02 A3007 RMK AO2 SLP190 T00441022=
201102101752 METAR KATL 101752Z 34008KT 10SM FEW020 SCT300 03/M02 A3009 RMK AO2 SLP200 T00281017 10028 21006 58010=
201102101652 METAR KATL 101652Z 34007KT 10SM SCT014 SCT020 SCT300 02/M02 A3012 RMK AO2 SLP208 T00171017=
201102101555 SPECI KATL 101555Z 35010KT 10SM SCT012 SCT300 01/M03 A3012 RMK AO2=
201102101555 SPECI KATL 101555Z 35010KT 10SM SCT012 SCT300 01/M03 A3012 RMK AO2=
201102101552 METAR KATL 101552Z 34008KT 10SM BKN012 BKN300 01/M03 A3013 RMK AO2 SLP210 T00061028=
201102101550 SPECI KATL 101550Z 35010KT 10SM BKN012 BKN300 01/M03 A3013 RMK AO2=
201102101550 SPECI KATL 101550Z 35010KT 10SM BKN012 BKN300 01/M03 A3013 RMK AO2=
201102101452 METAR KATL 101452Z 33015KT 8SM SCT010 SCT300 M01/M03 A3011 RMK AO2 SLP205 T10061033 53022=
201102101405 SPECI KATL 101405Z 33012KT 7SM BKN009 OVC012 M01/M02 A3010 RMK AO2=
201102101405 SPECI KATL 101405Z 33012KT 7SM BKN009 OVC012 M01/M02 A3010 RMK AO2=
201102101352 METAR KATL 101352Z 34012KT 7SM SCT009 BKN012 M01/M02 A3009 RMK AO2 SLP197 T10061022=
201102101252 METAR KATL 101252Z 33010KT 6SM BR BKN009 BKN012 M01/M02 A3007 RMK AO2 SLP188 T10061022=
201102101152 METAR KATL 101152Z 33014G17KT 6SM BR SCT005 BKN007 BKN012 00/M02 A3005 RMK AO2 SLP181 4/001 60007 70016 T00001017 10011 20000 53011=
201102101052 METAR KATL 101052Z 33008KT 5SM BR BKN005 BKN010 OVC060 00/M01 A3003 RMK AO2 SNE02 SLP174 P0000 T00001011=
201102100952 METAR KATL 100952Z 33006KT 3SM -SN BR BKN005 OVC050 01/M01 A3002 RMK AO2 SLP173 P0001 T00061006=
201102100901 SPECI KATL 100901Z 33009KT 2SM -SN BR OVC005 01/M01 A3001 RMK AO2 CIG 001V009 P0000=
201102100901 SPECI KATL 100901Z 33009KT 2SM -SN BR OVC005 01/M01 A3001 RMK AO2 CIG 001V009 P0000=
201102100852 METAR KATL 100852Z 34008KT 1SM R09R/P6000FT -SN BR OVC003 01/M01 A3001 RMK AO2 CIG 001V009 SLP170 P0002 60006 T00061006 53001=
201102100752 METAR KATL 100752Z 01006KT 1SM R09R/P6000FT -SN BR OVC003 01/00 A2998 RMK AO2 SLP160 P0000 T00060000=
201102100652 METAR KATL 100652Z 01006KT 1SM R09R/P6000FT -SN BR OVC003 01/00 A3001 RMK AO2 SLP167 P0004 T00060000=
201102100648 SPECI KATL 100648Z 01005KT 1SM R09R/P6000FT -SN BR OVC003 01/00 A3001 RMK AO2 P0004=
201102100648 SPECI KATL 100648Z 01005KT 1SM R09R/P6000FT -SN BR OVC003 01/00 A3001 RMK AO2 P0004=
201102100552 METAR KATL 100552Z 00000KT 1SM R09R/6000VP6000FT -SN BR BKN005 OVC012 01/00 A3004 RMK AO2 RAE21 SLP179 P0005 60009 T00060000 10072 20006 56009=
201102100524 SPECI KATL 100524Z 32003KT 1 3/4SM -SN BR BKN006 BKN012 OVC020 01/00 A3004 RMK AO2 RAE21 P0003=
201102100524 SPECI KATL 100524Z 32003KT 1 3/4SM -SN BR BKN006 BKN012 OVC020 01/00 A3004 RMK AO2 RAE21 P0003=
201102100513 SPECI KATL 100513Z 33004KT 2 1/2SM -SNRA BR SCT006 BKN012 OVC020 01/00 A3003 RMK AO2 P0001=
201102100513 SPECI KATL 100513Z 33004KT 2 1/2SM -SNRA BR SCT006 BKN012 OVC020 01/00 A3003 RMK AO2 P0001=
201102100452 METAR KATL 100452Z 00000KT 5SM -SNRA BR FEW006 BKN018 OVC026 02/00 A3004 RMK AO2 SLP180 P0002 T00170000 400781033=
201102100352 METAR KATL 100352Z 00000KT 6SM -SNRA BR FEW006 BKN012 OVC030 02/M01 A3005 RMK AO2 RAB0259SNB01 SLP183 P0002 T00171006=
201102100325 SPECI KATL 100325Z 02008KT 6SM -SNRA SCT006 BKN012 OVC030 03/M01 A3007 RMK AO2 RAB0259SNB01 P0001=
201102100325 SPECI KATL 100325Z 02008KT 6SM -SNRA SCT006 BKN012 OVC030 03/M01 A3007 RMK AO2 RAB0259SNB01 P0001=
201102100252 METAR KATL 100252Z 34006KT 10SM SCT035 BKN045 OVC065 06/M06 A3007 RMK AO2 SLP189 VIRGA OHD-ALQDS T00561056 53010=
201102100152 METAR KATL 100152Z VRB05KT 10SM BKN060 OVC085 07/M06 A3005 RMK AO2 SLP181 T00671061=
201102100052 METAR KATL 100052Z 36006KT 10SM OVC095 07/M06 A3004 RMK AO2 SLP181 T00671061=
201102092352 METAR KATL 092352Z 36004KT 10SM FEW085 BKN110 07/M06 A3004 RMK AO2 SLP179 T00671056 10078 20056 50005=
201102092252 METAR KATL 092252Z 00000KT 10SM FEW085 BKN110 07/M07 A3004 RMK AO2 SLP180 T00721067=
201102092152 METAR KATL 092152Z 12003KT 10SM BKN090 BKN110 BKN200 07/M06 A3004 RMK AO2 SLP181 T00721061=
201102092052 METAR KATL 092052Z 15004KT 10SM FEW090 SCT110 07/M06 A3002 RMK AO2 SLP173 T00721061 58051=
201102091952 METAR KATL 091952Z 15008KT 10SM BKN090 BKN110 06/M07 A3007 RMK AO2 PRESFR SLP192 T00611067=
201102091852 METAR KATL 091852Z 14004KT 10SM BKN090 BKN110 OVC150 06/M07 A3013 RMK AO2 SLP212 T00611072 $=
201102091834 SPECI KATL 091834Z 15003KT 10SM BKN095 06/M08 A3015 RMK AO2 $=
201102091834 SPECI KATL 091834Z 15003KT 10SM BKN095 06/M08 A3015 RMK AO2 $=
201102091752 METAR KATL 091752Z 10005KT 10SM BKN100 06/M08 A3018 RMK AO2 SLP226 T00611078 10061 21028 $=
201102091652 METAR KATL 091652Z 13006KT 10SM FEW110 SCT200 05/M08 A3022 RMK AO2 SLP242 T00501083 $=
201102091552 METAR KATL 091552Z 10007KT 10SM FEW110 04/M09 A3025 RMK AO2 SLP252 T00391094=
201102091452 METAR KATL 091452Z 10010KT 10SM FEW200 02/M09 A3025 RMK AO2 SLP252 T00221094 50001=
201102091352 METAR KATL 091352Z 09011KT 10SM FEW250 00/M08 A3026 RMK AO2 SLP256 T00001083=
201102091252 METAR KATL 091252Z 08009G16KT 10SM FEW040 M01/M08 A3026 RMK AO2 SLP254 T10111083=
201102091152 METAR KATL 091152Z 05007KT 10SM CLR M03/M08 A3025 RMK AO2 SLP252 T10281078 11017 21033 53002=
201102091052 METAR KATL 091052Z 04004KT 10SM CLR M03/M08 A3024 RMK AO2 SLP249 T10281078=
201102090952 METAR KATL 090952Z 36005KT 10SM CLR M03/M08 A3025 RMK AO2 SLP252 T10281078=
201102090852 METAR KATL 090852Z 34004KT 10SM CLR M03/M08 A3024 RMK AO2 SLP250 T10331078 53007=
201102090752 METAR KATL 090752Z 36006KT 10SM CLR M02/M08 A3023 RMK AO2 SLP246 T10221078=
201102090652 METAR KATL 090652Z 31006KT 10SM CLR M02/M08 A3022 RMK AO2 SLP241 T10221078=
201102090552 METAR KATL 090552Z 32007KT 10SM CLR M02/M08 A3022 RMK AO2 SLP242 T10171078 10039 21017 58004=
201102090452 METAR KATL 090452Z 34006KT 10SM CLR M01/M08 A3023 RMK AO2 SLP244 T10111078 400671011=
201102090352 METAR KATL 090352Z 32005KT 10SM CLR M01/M08 A3023 RMK AO2 SLP247 T10061078=
201102090252 METAR KATL 090252Z 33008KT 10SM CLR 01/M08 A3023 RMK AO2 SLP247 T00061078 53008=
201102090152 METAR KATL 090152Z 34009KT 10SM CLR 02/M08 A3022 RMK AO2 SLP243 T00171078=
201102090052 METAR KATL 090052Z 35012KT 10SM CLR 03/M08 A3021 RMK AO2 SLP239 T00281078=
201102082352 METAR KATL 082352Z 34009KT 10SM CLR 04/M07 A3021 RMK AO2 SLP238 T00391072 10067 20039 51004=
201102082252 METAR KATL 082252Z 33012KT 10SM CLR 05/M07 A3020 RMK AO2 SLP235 T00501067=
201102082152 METAR KATL 082152Z 34008G18KT 10SM CLR 06/M06 A3020 RMK AO2 SLP234 T00611061=
201102082052 METAR KATL 082052Z 32012G17KT 10SM CLR 06/M06 A3019 RMK AO2 SLP232 T00611061 58010=
201102081952 METAR KATL 081952Z 31009G19KT 10SM CLR 06/M06 A3021 RMK AO2 SLP236 T00561056=
201102081852 METAR KATL 081852Z 32012KT 10SM FEW040 05/M06 A3021 RMK AO2 SLP238 T00501056=
201102081752 METAR KATL 081752Z 33015KT 10SM FEW040 04/M06 A3022 RMK AO2 SLP242 T00391061 10044 21011 50010=
201102081652 METAR KATL 081652Z 33013G18KT 10SM FEW040 03/M06 A3023 RMK AO2 SLP245 T00331056=
201102081552 METAR KATL 081552Z 33015G21KT 10SM FEW035 02/M06 A3023 RMK AO2 SLP244 T00221061=
201102081452 METAR KATL 081452Z 33015G20KT 10SM FEW030 01/M07 A3019 RMK AO2 SLP233 T00061067 51023=
201102081352 METAR KATL 081352Z 33015G23KT 10SM FEW028 00/M06 A3017 RMK AO2 SLP223 T00001061=
201102081252 METAR KATL 081252Z 32012KT 10SM SCT027 M01/M06 A3015 RMK AO2 SLP218 T10061056=
201102081152 METAR KATL 081152Z 32013KT 10SM SCT030 M01/M06 A3012 RMK AO2 SLP208 70001 T10061061 10022 21006 53033=
201102081052 METAR KATL 081052Z 32015G21KT 10SM BKN026 BKN032 00/M05 A3009 RMK AO2 SLP196 T00001050=
201102080952 METAR KATL 080952Z 33018G24KT 10SM BKN023 BKN028 01/M04 A3005 RMK AO2 PK WND 32026/0855 SLP179 T00061044=
201102080852 METAR KATL 080852Z 32019G24KT 10SM BKN020 OVC025 01/M03 A3003 RMK AO2 PK WND 32028/0836 SLP172 T00111033 51014=
201102080752 METAR KATL 080752Z 31018G25KT 10SM OVC020 02/M02 A3002 RMK AO2 SLP169 T00171022=
201102080652 METAR KATL 080652Z 31016G23KT 10SM BKN022 OVC030 02/M02 A3000 RMK AO2 PK WND 30026/0630 SLP162 T00221017=
201102080552 METAR KATL 080552Z 31016G28KT 10SM BKN022 OVC030 02/M02 A2998 RMK AO2 PK WND 30028/0546 SLP159 60001 T00221017 10078 20022 53015=
201102080452 METAR KATL 080452Z 32017G24KT 10SM BKN023 OVC030 03/M02 A2996 RMK AO2 PK WND 32028/0433 SLP151 T00281017 401170000=
201102080352 METAR KATL 080352Z 31017G29KT 10SM BKN025 OVC032 03/M02 A2995 RMK AO2 PK WND 29031/0309 SLP147 T00281017=
201102080252 METAR KATL 080252Z 29022G30KT 10SM BKN019 BKN028 OVC045 03/M01 A2994 RMK AO2 PK WND 31036/0229 PRESRR SLP144 60001 T00281006 53049=
201102080249 SPECI KATL 080249Z 30022G33KT 10SM BKN019 BKN028 OVC045 03/M01 A2993 RMK AO2 PK WND 31036/0229 PRESRR=
201102080249 SPECI KATL 080249Z 30022G33KT 10SM BKN019 BKN028 OVC045 03/M01 A2993 RMK AO2 PK WND 31036/0229 PRESRR=
201102080221 SPECI KATL 080221Z 30022G29KT 10SM SCT022 BKN030 OVC045 05/02 A2989 RMK AO2 PK WND 30029/0219 PRESRR=
201102080221 SPECI KATL 080221Z 30022G29KT 10SM SCT022 BKN030 OVC045 05/02 A2989 RMK AO2 PK WND 30029/0219 PRESRR=
201102080152 METAR KATL 080152Z 29016G26KT 10SM SCT015 BKN024 OVC040 06/04 A2985 RMK AO2 PK WND 28026/0146 RAE29 SLP113 P0001 T00610039=
201102080118 SPECI KATL 080118Z 29016G19KT 8SM -RA SCT014 BKN028 OVC040 07/06 A2982 RMK AO2 P0001=
201102080118 SPECI KATL 080118Z 29016G19KT 8SM -RA SCT014 BKN028 OVC040 07/06 A2982 RMK AO2 P0001=
201102080052 METAR KATL 080052Z 27008KT 10SM -RA FEW020 BKN035 OVC050 08/06 A2980 RMK AO2 RAE02B52 SLP097 P0000 T00780056=
201102072352 METAR KATL 072352Z 27007KT 10SM -RA FEW022 BKN032 OVC036 08/06 A2979 RMK AO2 SLP092 P0000 60000 T00780056 10117 20072 51017=
201102072252 METAR KATL 072252Z 27008KT 10SM -RA SCT042 BKN055 OVC100 08/05 A2978 RMK AO2 RAB2155 SLP089 P0000 T00830050=
201102072152 METAR KATL 072152Z 23006KT 10SM FEW040 BKN055 OVC100 11/02 A2975 RMK AO2 SLP077 SHRA VC SW-N BINOVC DSNT E T01060017=
201102072052 METAR KATL 072052Z 20007KT 10SM FEW045 SCT110 SCT280 11/02 A2974 RMK AO2 SLP072 T01110017 58036=
201102071952 METAR KATL 071952Z 18008KT 10SM BKN050 BKN110 BKN150 11/02 A2978 RMK AO2 SLP088 T01060022=
201102071852 METAR KATL 071852Z 18006KT 10SM FEW110 BKN150 BKN280 09/01 A2981 RMK AO2 SLP098 T00890011=
201102071752 METAR KATL 071752Z 13004KT 10SM FEW110 BKN150 BKN280 07/01 A2985 RMK AO2 PRESFR SLP111 VIRGA OHD & ALQDS T00720006 10072 20006 58029=
201102071652 METAR KATL 071652Z 18005KT 10SM FEW110 BKN150 BKN280 06/01 A2990 RMK AO2 SLP130 VIRGA OHD & ALQDS T00560006=
201102071552 METAR KATL 071552Z 00000KT 10SM FEW110 BKN150 BKN280 04/M01 A2992 RMK AO2 SLP135 VIRGA OHD & ALQDS T00441006=
201102071452 METAR KATL 071452Z 14003KT 10SM BKN110 BKN150 BKN280 04/M01 A2993 RMK AO2 SLP142 VIRGA NE-E-SE-S-SW BINOVC DSNT NW-N T00441006 58003=
201102071352 METAR KATL 071352Z 16003KT 10SM BKN150 OVC250 02/M01 A2998 RMK AO2 SLP159 T00221011=
201102071252 METAR KATL 071252Z 00000KT 10SM SCT150 BKN250 01/M02 A2996 RMK AO2 SLP151 T00111017=
201102071152 METAR KATL 071152Z 05004KT 10SM FEW150 SCT250 02/M02 A2994 RMK AO2 SLP144 T00171022 10039 20000 58014=
201102071052 METAR KATL 071052Z 11003KT 10SM CLR 01/M02 A2996 RMK AO2 SLP149 T00111022 $=
201102070952 METAR KATL 070952Z 00000KT 10SM CLR 01/M02 A2998 RMK AO2 SLP157 T00111022 $=
201102070852 METAR KATL 070852Z 00000KT 10SM CLR 03/M02 A2999 RMK AO2 SLP158 T00281017 56010 $=
201102070752 METAR KATL 070752Z 00000KT 10SM CLR 02/M01 A2999 RMK AO2 SLP161 T00221011 $=
201102070652 METAR KATL 070652Z 00000KT 10SM CLR 03/M01 A3001 RMK AO2 SLP167 T00331006 $=
201102070552 METAR KATL 070552Z 17003KT 10SM CLR 03/M01 A3002 RMK AO2 SLP169 T00331011 10089 20033 58010 $=
201102070452 METAR KATL 070452Z 00000KT 10SM CLR 06/M01 A3005 RMK AO2 SLP179 T00561011 401221011 $=
201102070352 METAR KATL 070352Z 26003KT 10SM CLR 06/M02 A3005 RMK AO2 SLP182 T00611017 $=
201102070252 METAR KATL 070252Z 23004KT 10SM CLR 06/M01 A3005 RMK AO2 SLP180 T00561011 51009 $=
201102070152 METAR KATL 070152Z 23003KT 10SM CLR 06/M01 A3004 RMK AO2 SLP179 T00611011 $=
201102070052 METAR KATL 070052Z 22003KT 10SM CLR 08/M01 A3004 RMK AO2 SLP178 T00781011 $=
201102062352 METAR KATL 062352Z 00000KT 10SM CLR 09/M02 A3002 RMK AO2 SLP171 T00891017 10122 20078 51007 $=
201102062252 METAR KATL 062252Z 00000KT 10SM FEW250 11/M02 A3002 RMK AO2 SLP169 T01061022 $=
201102062152 METAR KATL 062152Z 29004KT 10SM FEW250 11/M02 A3000 RMK AO2 SLP165 T01111017 $=
201102062052 METAR KATL 062052Z VRB05KT 10SM FEW250 12/M02 A3000 RMK AO2 SLP163 T01171017 55014 $=
201102061952 METAR KATL 061952Z VRB05KT 10SM FEW250 11/M02 A3000 RMK AO2 SLP162 T01061022 $=
201102061852 METAR KATL 061852Z 31004KT 10SM CLR 09/M03 A3001 RMK AO2 SLP169 T00941028 $=
201102061752 METAR KATL 061752Z VRB05KT 10SM CLR 08/M02 A3004 RMK AO2 SLP179 T00781022 10078 21006 58004 $=
201102061652 METAR KATL 061652Z 30006KT 10SM CLR 06/M02 A3007 RMK AO2 SLP188 T00611017 $=
201102061552 METAR KATL 061552Z 30008KT 10SM CLR 05/M01 A3007 RMK AO2 SLP189 T00501011 $=
201102061452 METAR KATL 061452Z 29006KT 10SM CLR 03/M02 A3005 RMK AO2 SLP185 T00281017 53022 $=
201102061352 METAR KATL 061352Z 31006KT 10SM SCT015 01/M03 A3002 RMK AO2 SLP176 T00061028 $=
201102061301 SPECI KATL 061301Z 31005KT 10SM SCT015 M01/M03 A3001 RMK AO2 $=
201102061301 SPECI KATL 061301Z 31005KT 10SM SCT015 M01/M03 A3001 RMK AO2 $=
201102061252 METAR KATL 061252Z 31004KT 10SM BKN015 M01/M03 A3001 RMK AO2 SLP170 T10061028 $=
201102061243 SPECI KATL 061243Z 31006KT 10SM BKN015 M01/M03 A3001 RMK AO2 $=
201102061243 SPECI KATL 061243Z 31006KT 10SM BKN015 M01/M03 A3001 RMK AO2 $=
201102061152 METAR KATL 061152Z 32007KT 10SM OVC014 00/M03 A2999 RMK AO2 SLP162 70001 T00001028 10000 21011 52013 $=
201102061052 METAR KATL 061052Z 31010KT 10SM OVC012 00/M03 A2998 RMK AO2 SLP158 T00001028 $=
201102060952 METAR KATL 060952Z 32008KT 10SM OVC012 M01/M03 A2996 RMK AO2 SLP150 T10061028 $=
201102060852 METAR KATL 060852Z 31007KT 10SM BKN013 00/M03 A2995 RMK AO2 SLP147 T00001028 55002 $=
201102060752 METAR KATL 060752Z 32007KT 10SM BKN014 00/M03 A2994 RMK AO2 SLP143 T00001028 $=
201102060708 SPECI KATL 060708Z 29008KT 10SM BKN014 00/M02 A2995 RMK AO2 $=
201102060708 SPECI KATL 060708Z 29008KT 10SM BKN014 00/M02 A2995 RMK AO2 $=
201102060652 METAR KATL 060652Z 31010KT 10SM BKN015 00/M02 A2995 RMK AO2 SLP148 T00001022 $=
201102060639 SPECI KATL 060639Z 30006KT 10SM BKN015 M01/M02 A2995 RMK AO2 $=
201102060639 SPECI KATL 060639Z 30006KT 10SM BKN015 M01/M02 A2995 RMK AO2 $=
201102060552 METAR KATL 060552Z 30006KT 10SM SCT015 M01/M03 A2995 RMK AO2 SLP149 T10061028 10039 21006 51004 $=
201102060452 METAR KATL 060452Z 29006KT 10SM FEW025 00/M02 A2994 RMK AO2 SLP145 T00001022 400941006 $=
201102060352 METAR KATL 060352Z 29005KT 10SM FEW030 00/M02 A2995 RMK AO2 SLP148 T00001022 $=
201102060252 METAR KATL 060252Z 30005KT 10SM FEW030 SCT250 01/M02 A2994 RMK AO2 SLP145 T00111017 51012 $=
201102060152 METAR KATL 060152Z 29006KT 10SM FEW030 SCT250 02/M02 A2993 RMK AO2 SLP144 T00171017 $=
201102060052 METAR KATL 060052Z 29005KT 10SM FEW150 SCT250 03/M01 A2992 RMK AO2 SLP138 T00281011 $=
201102052352 METAR KATL 052352Z 27006KT 10SM FEW150 SCT250 04/M02 A2990 RMK AO2 SLP132 T00391017 10094 20039 51016 $=
201102052252 METAR KATL 052252Z 28009KT 10SM FEW030 SCT150 SCT250 06/M01 A2989 RMK AO2 SLP126 T00561011 $=
201102052152 METAR KATL 052152Z 25010KT 10SM FEW030 SCT150 SCT250 07/M01 A2987 RMK AO2 SLP119 T00721011 $=
201102052052 METAR KATL 052052Z 28008KT 10SM FEW035 SCT150 BKN250 08/M01 A2985 RMK AO2 SLP113 T00781006 55001 $=
201102051952 METAR KATL 051952Z 29012G16KT 10SM FEW025 SCT100 BKN150 BKN200 08/01 A2985 RMK AO2 SLP112 T00830006 $=
201102051852 METAR KATL 051852Z 29014G18KT 10SM SCT025 BKN150 BKN200 07/01 A2985 RMK AO2 SLP112 T00720011 $=
201102051752 METAR KATL 051752Z 28014G19KT 10SM SCT030 BKN150 08/02 A2986 RMK AO2 SLP114 60001 T00830017 10089 20028 58001 $=
201102051710 SPECI KATL 051710Z 24012G20KT 10SM SCT024 BKN150 08/02 A2986 RMK AO2 $=
201102051710 SPECI KATL 051710Z 24012G20KT 10SM SCT024 BKN150 08/02 A2986 RMK AO2 $=
201102051652 METAR KATL 051652Z 26011G18KT 10SM BKN024 BKN150 09/03 A2986 RMK AO2 SLP116 T00890033=
201102051552 METAR KATL 051552Z 26008KT 9SM BKN015 BKN021 BKN150 07/04 A2986 RMK AO2 SLP116 T00720039 $=
201102051507 SPECI KATL 051507Z 27009KT 7SM SCT008 BKN015 BKN023 06/04 A2986 RMK AO2 $=
201102051507 SPECI KATL 051507Z 27009KT 7SM SCT008 BKN015 BKN023 06/04 A2986 RMK AO2 $=
201102051452 METAR KATL 051452Z 26010G15KT 7SM BKN006 BKN010 BKN023 04/04 A2986 RMK AO2 DZE50 SLP117 P0000 60001 T00440039 51009=
201102051446 SPECI KATL 051446Z 27011KT 4SM -DZ BR BKN006 OVC012 04/04 A2986 RMK AO2 P0000=
201102051446 SPECI KATL 051446Z 27011KT 4SM -DZ BR BKN006 OVC012 04/04 A2986 RMK AO2 P0000=
201102051428 SPECI KATL 051428Z 26007KT 2SM -DZ BR OVC003 04/04 A2985 RMK AO2 SFC VIS 3 CIG 002V004 TWRINC P0000=
201102051428 SPECI KATL 051428Z 26007KT 2SM -DZ BR OVC003 04/04 A2985 RMK AO2 SFC VIS 3 CIG 002V004 TWRINC P0000=
201102051356 SPECI KATL 051356Z 22004KT 1SM -DZ BR OVC003 04/04 A2984 RMK AO2 SFC VIS 2 CIG 002V004 P0000=
201102051356 SPECI KATL 051356Z 22004KT 1SM -DZ BR OVC003 04/04 A2984 RMK AO2 SFC VIS 2 CIG 002V004 P0000=
201102051352 METAR KATL 051352Z 22003KT 1/2SM -DZ BR OVC002 04/03 A2984 RMK AO2 SFC VIS 1 1/4 SLP112 P0001 T00390033=
201102051252 METAR KATL 051252Z 16003KT 1/2SM R09R/5500VP6000FT -DZ BR OVC002 03/03 A2983 RMK AO2 SFC VIS 1 SLP108 P0000 T00330028=
201102051152 METAR KATL 051152Z 14003KT 1/2SM -DZ BR OVC002 03/02 A2983 RMK AO2 SFC VIS 1 3/4 SLP106 P0000 60008 70125 T00280022 10028 20028 55009=
201102051101 SPECI KATL 051101Z 12004KT 1/2SM -DZ BR OVC002 03/03 A2983 RMK AO2 SFC VIS 2 P0000=
201102051101 SPECI KATL 051101Z 12004KT 1/2SM -DZ BR OVC002 03/03 A2983 RMK AO2 SFC VIS 2 P0000=
201102051052 METAR KATL 051052Z 11004KT 1 1/2SM -DZ BR BKN002 OVC005 03/03 A2982 RMK AO2 SFC VIS 2 DZE0953B10RAB0953E10 SLP106 P0000 T00280028=
201102050952 METAR KATL 050952Z 10004KT 1 1/2SM -DZ BR BKN002 OVC005 03/02 A2985 RMK AO2 SFC VIS 1 3/4 SLP116 P0001 T00280022=
201102050852 METAR KATL 050852Z 10005KT 1 1/2SM -DZ BR OVC003 03/02 A2985 RMK AO2 SFC VIS 4 RAE04DZB04 SLP116 P0000 60007 T00280022 58019=
201102050752 METAR KATL 050752Z 10006KT 1 1/2SM -RA BR BKN003 OVC006 03/02 A2988 RMK AO2 SFC VIS 4 SLP124 P0004 T00280022=
201102050652 METAR KATL 050652Z 08006KT 1 1/2SM -RA BR OVC003 03/02 A2989 RMK AO2 SFC VIS 3 SLP129 P0003 T00280022=
201102050616 SPECI KATL 050616Z 09010KT 1 1/2SM -RA BR OVC004 03/02 A2989 RMK AO2 SFC VIS 4 P0001=
201102050616 SPECI KATL 050616Z 09010KT 1 1/2SM -RA BR OVC004 03/02 A2989 RMK AO2 SFC VIS 4 P0001=
201102050552 METAR KATL 050552Z 10010KT 1 1/2SM -RA OVC005 03/02 A2991 RMK AO2 SFC VIS 7 SLP136 CIG 003V007 P0000 60020 T00280022 10033 20028 58028=
201102050452 METAR KATL 050452Z 10010KT 1 1/2SM -RA OVC005 03/02 A2994 RMK AO2 SFC VIS 7 SLP147 CIG 003V007 P0005 T00330022 400330017=
201102050352 METAR KATL 050352Z 09010KT 1 1/2SM -RA BR OVC005 03/02 A2997 RMK AO2 SFC VIS 6 CIG 003V008 SLP157 P0007 T00330022=
201102050252 METAR KATL 050252Z 10008KT 1 1/2SM -RA OVC005 03/02 A3000 RMK AO2 SFC VIS 7 SLP165 CIG 003V008 P0005 60008 T00330022 58011=
201102050211 SPECI KATL 050211Z 10009KT 1 1/2SM -RA BR OVC004 03/02 A3001 RMK AO2 SFC VIS 5 CIG 003V007 P0002=
201102050211 SPECI KATL 050211Z 10009KT 1 1/2SM -RA BR OVC004 03/02 A3001 RMK AO2 SFC VIS 5 CIG 003V007 P0002=
201102050152 METAR KATL 050152Z 12007KT 1/2SM -RA BR OVC004 03/03 A3003 RMK AO2 SFC VIS 3 SLP175 CIG 002V005 P0000 T00330028=
201102050144 SPECI KATL 050144Z 12005KT 1/2SM -RA BR OVC004 03/03 A3003 RMK AO2 SFC VIS 3 CIG 002V005 P0000=
201102050144 SPECI KATL 050144Z 12005KT 1/2SM -RA BR OVC004 03/03 A3003 RMK AO2 SFC VIS 3 CIG 002V005 P0000=
201102050052 METAR KATL 050052Z 11008KT 2SM -RA OVC004 03/02 A3003 RMK AO2 SFC VIS 7 SLP175 CIG 003V006 P0003 T00330022=
201102042352 METAR KATL 042352Z 10008KT 2 1/2SM -RA BR BKN005 OVC035 03/02 A3003 RMK AO2 SFC VIS 6 SLP176 CIG 003V008 P0008 60056 T00330022 10033 20022 56027=
201102042343 SPECI KATL 042343Z 10008KT 2SM -RA BR BKN005 OVC035 03/02 A3003 RMK AO2 SFC VIS 4 CIG 003V008 P0008=
201102042343 SPECI KATL 042343Z 10008KT 2SM -RA BR BKN005 OVC035 03/02 A3003 RMK AO2 SFC VIS 4 CIG 003V008 P0008=
201102042335 SPECI KATL 042335Z 09009KT 1 1/4SM RA BR OVC004 03/02 A3003 RMK AO2 SFC VIS 3 CIG 002V007 P0007=
201102042335 SPECI KATL 042335Z 09009KT 1 1/4SM RA BR OVC004 03/02 A3003 RMK AO2 SFC VIS 3 CIG 002V007 P0007=
201102042314 SPECI KATL 042314Z 09009KT 1/2SM RA BR BKN004 OVC040 03/02 A3003 RMK AO2 SFC VIS 3 CIG 003V007 P0002=
201102042314 SPECI KATL 042314Z 09009KT 1/2SM RA BR BKN004 OVC040 03/02 A3003 RMK AO2 SFC VIS 3 CIG 003V007 P0002=
201102042300 SPECI KATL 042300Z 09007KT 2SM -RA BR BKN005 OVC040 03/02 A3005 RMK AO2 SFC VIS 4 CIG 003V007 P0000=
201102042300 SPECI KATL 042300Z 09007KT 2SM -RA BR BKN005 OVC040 03/02 A3005 RMK AO2 SFC VIS 4 CIG 003V007 P0000=
201102042252 METAR KATL 042252Z 10007KT 3SM -RA BR OVC005 03/02 A3005 RMK AO2 SFC VIS 4 SLP182 CIG 004V007 P0005 T00280022=
201102042214 SPECI KATL 042214Z 08011KT 3SM -RA BR BKN005 BKN020 OVC045 03/02 A3005 RMK AO2 SFC VIS 5 P0002=
201102042214 SPECI KATL 042214Z 08011KT 3SM -RA BR BKN005 BKN020 OVC045 03/02 A3005 RMK AO2 SFC VIS 5 P0002=
201102042152 METAR KATL 042152Z 08012KT 3SM -RA BR FEW005 SCT020 OVC040 03/02 A3005 RMK AO2 SFC VIS 5 SLP184 P0008 T00280017=
201102042103 SPECI KATL 042103Z 07010KT 3SM -RA BR SCT007 BKN017 OVC027 03/02 A3009 RMK AO2 SFC VIS 6 PRESFR P0002=
201102042103 SPECI KATL 042103Z 07010KT 3SM -RA BR SCT007 BKN017 OVC027 03/02 A3009 RMK AO2 SFC VIS 6 PRESFR P0002=
201102042052 METAR KATL 042052Z 04010KT 3SM RA BR FEW007 BKN011 OVC025 03/01 A3011 RMK AO2 SFC VIS 5 SLP205 P0016 60035 T00280011 56012=
201102042017 SPECI KATL 042017Z 03010KT 3SM -RA BR FEW007 BKN014 OVC020 03/01 A3012 RMK AO2 SFC VIS 4 P0007=
201102042017 SPECI KATL 042017Z 03010KT 3SM -RA BR FEW007 BKN014 OVC020 03/01 A3012 RMK AO2 SFC VIS 4 P0007=
201102041952 METAR KATL 041952Z 03007KT 3SM R09R/5000VP6000FT +RA BR BKN007 BKN010 OVC020 03/01 A3013 RMK AO2 SLP209 P0018 T00280011=
201102041914 SPECI KATL 041914Z 07010KT 3SM RA BR BKN007 BKN010 OVC020 02/01 A3011 RMK AO2 P0007=
201102041914 SPECI KATL 041914Z 07010KT 3SM RA BR BKN007 BKN010 OVC020 02/01 A3011 RMK AO2 P0007=
201102041852 METAR KATL 041852Z 06012KT 5SM -RA BR BKN007 BKN010 OVC020 02/01 A3012 RMK AO2 SLP206 P0001 T00220011=
201102041752 METAR KATL 041752Z 07012KT 6SM -RA BR BKN007 BKN010 OVC020 02/01 A3015 RMK AO2 SLP217 P0003 60041 T00220006 10022 20017 58022=
201102041706 SPECI KATL 041706Z 08010KT 6SM -RA BR BKN007 BKN010 OVC020 02/01 A3018 RMK AO2 P0001=
201102041706 SPECI KATL 041706Z 08010KT 6SM -RA BR BKN007 BKN010 OVC020 02/01 A3018 RMK AO2 P0001=
201102041652 METAR KATL 041652Z 08012KT 2 1/2SM -RA BR BKN007 BKN010 OVC020 02/01 A3018 RMK AO2 SFC VIS 5 SLP226 P0008 T00220006=
201102041552 METAR KATL 041552Z 08012KT 2 1/2SM RA BR BKN007 BKN010 OVC020 02/01 A3021 RMK AO2 SLP239 P0013 T00170006=
201102041452 METAR KATL 041452Z 07012KT 2 1/2SM -RA BR BKN007 BKN012 OVC020 02/01 A3022 RMK AO2 SFC VIS 3 SLP240 P0005 60017 T00170006 56004=
201102041439 SPECI KATL 041439Z 07011G17KT 2 1/2SM -RA BR OVC007 02/01 A3021 RMK AO2 SFC VIS 3 CIG 005V012 P0003=
201102041439 SPECI KATL 041439Z 07011G17KT 2 1/2SM -RA BR OVC007 02/01 A3021 RMK AO2 SFC VIS 3 CIG 005V012 P0003=
201102041352 METAR KATL 041352Z 07011KT 3SM RA BR OVC007 02/01 A3022 RMK AO2 SLP242 P0005 T00170006=
201102041252 METAR KATL 041252Z 07010KT 3SM -RA BR BKN007 OVC019 02/01 A3022 RMK AO2 SFC VIS 4 CIG 004V010 SLP242 P0007 T00170006=
201102041239 SPECI KATL 041239Z 07011KT 3SM -RA BR BKN007 OVC019 02/01 A3021 RMK AO2 SFC VIS 4 CIG 004V009 P0007=
201102041239 SPECI KATL 041239Z 07011KT 3SM -RA BR BKN007 OVC019 02/01 A3021 RMK AO2 SFC VIS 4 CIG 004V009 P0007=
201102041203 SPECI KATL 041203Z 08008KT 6SM -RA BR FEW007 BKN019 OVC025 02/00 A3024 RMK AO2 P0000=
201102041203 SPECI KATL 041203Z 08008KT 6SM -RA BR FEW007 BKN019 OVC025 02/00 A3024 RMK AO2 P0000=
201102041152 METAR KATL 041152Z 08009KT 6SM -RA BR FEW010 BKN028 OVC036 02/00 A3023 RMK AO2 SLP245 P0006 60021 70038 T00170000 10022 20017 55019=
201102041122 SPECI KATL 041122Z 09009KT 6SM -RA BR BKN028 OVC036 02/00 A3022 RMK AO2 P0004=
201102041122 SPECI KATL 041122Z 09009KT 6SM -RA BR BKN028 OVC036 02/00 A3022 RMK AO2 P0004=
201102041052 METAR KATL 041052Z 09010KT 6SM -RA BR FEW010 SCT029 OVC039 02/00 A3022 RMK AO2 SLP244 P0001 T00170000=
201102040952 METAR KATL 040952Z 06011KT 6SM -RA BR FEW010 OVC027 02/00 A3024 RMK AO2 SLP246 P0003 T00170000=
201102040852 METAR KATL 040852Z 05009KT 6SM -RA BR OVC023 02/00 A3028 RMK AO2 SLP263 P0004 60011 T00170000 55000=
201102040752 METAR KATL 040752Z 06009KT 6SM -RA BR BKN029 OVC080 02/00 A3026 RMK AO2 SLP256 P0006 T00170000=
201102040708 SPECI KATL 040708Z 09010KT 7SM -RA BKN029 BKN070 OVC140 02/00 A3026 RMK AO2 P0001=
201102040708 SPECI KATL 040708Z 09010KT 7SM -RA BKN029 BKN070 OVC140 02/00 A3026 RMK AO2 P0001=
201102040652 METAR KATL 040652Z 09007KT 7SM -RA BKN042 BKN140 OVC200 02/00 A3026 RMK AO2 UPB24E26RAB26 SLP256 P0001 T00220000=
201102040552 METAR KATL 040552Z 10007KT 10SM FEW030 BKN140 OVC200 02/00 A3028 RMK AO2 SLP263 60001 T00220000 10028 20011 58015=
201102040452 METAR KATL 040452Z 06008KT 10SM FEW075 SCT100 BKN150 OVC200 02/01 A3032 RMK AO2 SLP275 T00220006 400391022=
201102040352 METAR KATL 040352Z 04006KT 10SM SCT100 BKN120 OVC150 03/01 A3033 RMK AO2 SLP281 T00280006=
201102040252 METAR KATL 040252Z COR 04006KT 10SM BKN100 OVC150 02/01 A3033 RMK AO2 RAE05 SLP281 P0000 60001 T00220006 58010=
201102040152 METAR KATL 040152Z 00000KT 10SM -RA FEW008 SCT090 BKN110 OVC150 02/00 A3034 RMK AO2 SLP285 P0000 T00170000=
201102040052 METAR KATL 040052Z 34006KT 9SM -RA BKN085 OVC110 02/M01 A3037 RMK AO2 SLP293 P0001 T00171006=
201102032355 SPECI KATL 032355Z VRB04KT 8SM -RA FEW040 OVC080 01/M01 A3036 RMK AO2 P0000=
201102032355 SPECI KATL 032355Z VRB04KT 8SM -RA FEW040 OVC080 01/M01 A3036 RMK AO2 P0000=
201102032352 METAR KATL 032352Z VRB03KT 3SM -RA FEW040 OVC080 01/M01 A3036 RMK AO2 SFC VIS 8 SLP292 P0000 60016 T00111006 10039 20011 53006=
201102032252 METAR KATL 032252Z 34011KT 3SM -RA BR FEW035 OVC070 02/M01 A3034 RMK AO2 SFC VIS 6 SLP284 P0004 T00171006=
201102032209 SPECI KATL 032209Z 35006KT 3SM -RA BKN032 BKN065 OVC080 02/M01 A3033 RMK AO2 SFC VIS 5 P0001=
201102032209 SPECI KATL 032209Z 35006KT 3SM -RA BKN032 BKN065 OVC080 02/M01 A3033 RMK AO2 SFC VIS 5 P0001=
201102032152 METAR KATL 032152Z 34007KT 3SM -RA BKN020 BKN040 OVC070 02/M01 A3034 RMK AO2 SFC VIS 7 SLP284 P0003 T00221011=
201102032109 SPECI KATL 032109Z 33007KT 5SM -RA BR BKN020 BKN040 OVC060 02/M01 A3034 RMK AO2 P0001=
201102032109 SPECI KATL 032109Z 33007KT 5SM -RA BR BKN020 BKN040 OVC060 02/M01 A3034 RMK AO2 P0001=
201102032052 METAR KATL 032052Z 31008KT 8SM -RA FEW010 SCT020 OVC060 02/M01 A3034 RMK AO2 SLP285 P0006 60009 T00221011 55006=
201102032031 SPECI KATL 032031Z 05005KT 6SM RA FEW010 BKN020 OVC060 03/M03 A3032 RMK AO2 P0003=
201102032031 SPECI KATL 032031Z 05005KT 6SM RA FEW010 BKN020 OVC060 03/M03 A3032 RMK AO2 P0003=
201102031952 METAR KATL 031952Z 08003KT 8SM -RA FEW009 BKN020 OVC050 03/M03 A3032 RMK AO2 RAB07PLB11E38 SLP278 VIS LWR W-NW-N SHRA P0003 T00281028=
201102031938 SPECI KATL 031938Z 13003KT 7SM -RA BKN020 BKN050 OVC100 03/M03 A3032 RMK AO2 RAB07PLB11E38 P0002=
201102031938 SPECI KATL 031938Z 13003KT 7SM -RA BKN020 BKN050 OVC100 03/M03 A3032 RMK AO2 RAB07PLB11E38 P0002=
201102031932 SPECI KATL 031932Z 00000KT 7SM -RAPL BKN020 BKN050 OVC100 03/M04 A3032 RMK AO2 RAB07PLB11 P0002=
201102031932 SPECI KATL 031932Z 00000KT 7SM -RAPL BKN020 BKN050 OVC100 03/M04 A3032 RMK AO2 RAB07PLB11 P0002=
201102031912 SPECI KATL 031912Z 07005KT 10SM -PLRA BKN050 BKN100 OVC150 04/M06 A3034 RMK AO2 RAB07PLB11 P0000=
201102031912 SPECI KATL 031912Z 07005KT 10SM -PLRA BKN050 BKN100 OVC150 04/M06 A3034 RMK AO2 RAB07PLB11 P0000=
201102031852 METAR KATL 031852Z 35003KT 10SM FEW060 BKN100 OVC150 03/M07 A3036 RMK AO2 SLP289 VIRGA OHD & ALQDS T00331067=
201102031752 METAR KATL 031752Z 01004KT 10SM BKN090 BKN150 OVC180 03/M07 A3036 RMK AO2 SLP290 T00331067 10033 21022 58002=
201102031652 METAR KATL 031652Z 04006KT 10SM BKN090 BKN150 OVC180 01/M07 A3037 RMK AO2 SLP293 VIRGA DSNT SE-S-SW T00111072=
201102031552 METAR KATL 031552Z 36003KT 10SM BKN090 BKN150 OVC200 00/M08 A3038 RMK AO2 SLP297 VIRGA E-SE-S-SW T00001078=
201102031452 METAR KATL 031452Z 34008KT 10SM FEW100 BKN150 OVC200 M01/M08 A3037 RMK AO2 SLP294 VIRGA OHD-E-SE-S-SW T10111083 53016=
201102031352 METAR KATL 031352Z 35008KT 10SM FEW090 BKN150 BKN200 M02/M09 A3034 RMK AO2 SLP284 T10171089=
201102031252 METAR KATL 031252Z 33010KT 10SM FEW090 BKN150 OVC250 M02/M09 A3034 RMK AO2 SLP284 T10221089=
201102031152 METAR KATL 031152Z 32012KT 10SM BKN090 BKN150 OVC250 M02/M09 A3032 RMK AO2 SLP277 T10221089 11011 21022 53012=
201102031052 METAR KATL 031052Z 32009KT 10SM SCT090 BKN120 OVC250 M02/M08 A3030 RMK AO2 SLP272 T10221083=
201102030952 METAR KATL 030952Z 33012KT 10SM BKN150 OVC250 M02/M08 A3028 RMK AO2 SLP265 T10221083=
201102030852 METAR KATL 030852Z 31009KT 10SM SCT150 BKN200 OVC250 M02/M08 A3028 RMK AO2 SLP264 T10221083 53006=
201102030752 METAR KATL 030752Z 32014G18KT 10SM SCT150 BKN200 OVC250 M02/M08 A3026 RMK AO2 SLP257 T10171083=
201102030652 METAR KATL 030652Z 33014G19KT 10SM SCT150 BKN200 OVC250 M02/M08 A3026 RMK AO2 SLP256 T10171083=
201102030552 METAR KATL 030552Z 32015KT 10SM SCT120 BKN150 OVC200 M01/M08 A3026 RMK AO2 SLP257 T10111083 10017 21011 58005=
201102030452 METAR KATL 030452Z 32012G18KT 10SM SCT120 BKN150 OVC200 M01/M08 A3027 RMK AO2 SLP259 T10061078 401281006=
201102030352 METAR KATL 030352Z 33013G19KT 10SM FEW110 OVC150 00/M07 A3028 RMK AO2 SLP263 T00001072=
201102030252 METAR KATL 030252Z 32009G22KT 10SM FEW110 OVC150 01/M07 A3028 RMK AO2 SLP262 T00061067 51006=
201102030152 METAR KATL 030152Z 32012KT 10SM OVC110 01/M06 A3028 RMK AO2 SLP260 T00111061=
201102030052 METAR KATL 030052Z 32012KT 10SM BKN120 OVC150 01/M06 A3027 RMK AO2 SLP258 T00111061=
201102022352 METAR KATL 022352Z 32009KT 10SM BKN110 OVC150 02/M06 A3026 RMK AO2 SLP254 T00171056 10050 20017 53029=
201102022252 METAR KATL 022252Z 33013G20KT 10SM BKN120 BKN150 OVC200 03/M05 A3021 RMK AO2 SLP235 T00281050=
201102022152 METAR KATL 022152Z 31011KT 10SM FEW100 BKN150 OVC280 03/M04 A3020 RMK AO2 SLP232 VIRGA DSNT S T00331044=
201102022052 METAR KATL 022052Z 32012KT 10SM FEW080 SCT110 BKN280 04/M04 A3017 RMK AO2 SLP221 VIRGA DSNT NW T00391039 55002=
201102021952 METAR KATL 021952Z 32012KT 10SM FEW080 SCT110 OVC280 04/M03 A3016 RMK AO2 SLP216 T00441028=
201102021852 METAR KATL 021852Z 31013G19KT 10SM FEW100 BKN280 05/M02 A3015 RMK AO2 SLP214 T00501017=
201102021752 METAR KATL 021752Z 31014G17KT 10SM FEW020 SCT100 BKN280 03/M01 A3018 RMK AO2 SLP223 T00331011 10067 20022 53013=
201102021652 METAR KATL 021652Z 31013G18KT 10SM FEW017 SCT020 BKN280 03/M01 A3017 RMK AO2 SLP219 T00281011=
201102021552 METAR KATL 021552Z 30014G22KT 10SM FEW017 SCT020 BKN280 03/M01 A3014 RMK AO2 SLP211 T00331006=
201102021547 SPECI KATL 021547Z 30015G19KT 10SM FEW017 SCT020 BKN280 03/M01 A3014 RMK AO2=
201102021547 SPECI KATL 021547Z 30015G19KT 10SM FEW017 SCT020 BKN280 03/M01 A3014 RMK AO2=
201102021452 METAR KATL 021452Z 31012KT 10SM BKN015 BKN018 OVC280 04/01 A3011 RMK AO2 SLP200 T00390006 53035=
201102021352 METAR KATL 021352Z 29014KT 10SM BKN015 BKN021 05/02 A3008 RMK AO2 PRESRR SLP188 T00500017=
201102021252 METAR KATL 021252Z 27007KT 10SM BKN018 BKN023 06/03 A3002 RMK AO2 SLP171 T00560028=
201102021239 SPECI KATL 021239Z 27010KT 10SM BKN019 06/03 A3003 RMK AO2=
201102021239 SPECI KATL 021239Z 27010KT 10SM BKN019 06/03 A3003 RMK AO2=
201102021226 SPECI KATL 021226Z 27012KT 10SM SCT019 06/03 A3003 RMK AO2=
201102021226 SPECI KATL 021226Z 27012KT 10SM SCT019 06/03 A3003 RMK AO2=
201102021152 METAR KATL 021152Z 29014G19KT 10SM BKN015 07/04 A3001 RMK AO2 SLP164 70110 T00670039 10128 20067 53038=
201102021052 METAR KATL 021052Z 27011KT 10SM FEW018 08/05 A2997 RMK AO2 SLP149 T00780050=
201102021043 SPECI KATL 021043Z 27012KT 10SM FEW018 08/05 A2996 RMK AO2=
201102021043 SPECI KATL 021043Z 27012KT 10SM FEW018 08/05 A2996 RMK AO2=
201102020952 METAR KATL 020952Z 28010KT 10SM BKN024 10/07 A2992 RMK AO2 SLP134 T01000072=
201102020852 METAR KATL 020852Z 28007KT 10SM SCT015 11/09 A2989 RMK AO2 SLP124 T01060094 53019=
201102020752 METAR KATL 020752Z 26009G18KT 10SM FEW014 SCT028 12/11 A2986 RMK AO2 SLP113 T01220106=
201102020652 METAR KATL 020652Z 23005KT 8SM BKN014 BKN022 13/12 A2984 RMK AO2 SLP105 T01280122=
201102020641 SPECI KATL 020641Z 23005KT 8SM BKN014 BKN022 13/12 A2983 RMK AO2=
201102020641 SPECI KATL 020641Z 23005KT 8SM BKN014 BKN022 13/12 A2983 RMK AO2=
201102020552 METAR KATL 020552Z 21003KT 7SM R09R/2200V4000FT BCFG FEW001 BKN025 BKN120 OVC250 12/11 A2983 RMK AO2 SLP104 60091 T01170111 10128 20089 50000=
201102020508 SPECI KATL 020508Z 18003KT 7SM R09R/2600VP6000FT BCFG SCT003 BKN040 OVC150 12/11 A2984 RMK AO2 VIS S-SW 1/2=
201102020508 SPECI KATL 020508Z 18003KT 7SM R09R/2600VP6000FT BCFG SCT003 BKN040 OVC150 12/11 A2984 RMK AO2 VIS S-SW 1/2=
201102020452 METAR KATL 020452Z 16004KT 9SM BKN004 BKN100 OVC150 12/11 A2983 RMK AO2 RAE16 SLP104 CIG 002V006 P0000 T01170111 401280050=
201102020442 SPECI KATL 020442Z 13003KT 10SM BKN004 BKN100 OVC150 12/12 A2982 RMK AO2 RAE16 P0000=
201102020442 SPECI KATL 020442Z 13003KT 10SM BKN004 BKN100 OVC150 12/12 A2982 RMK AO2 RAE16 P0000=
201102020404 SPECI KATL 020404Z 10007KT 10SM FEW005 SCT030 BKN100 OVC150 12/11 A2981 RMK AO2 RAE02 PRESFR P0000=
201102020404 SPECI KATL 020404Z 10007KT 10SM FEW005 SCT030 BKN100 OVC150 12/11 A2981 RMK AO2 RAE02 PRESFR P0000=
201102020352 METAR KATL 020352Z 12007KT 8SM -RA FEW004 BKN020 OVC090 12/11 A2984 RMK AO2 SLP105 P0012 T01220111=
201102020328 SPECI KATL 020328Z 35003KT 8SM -RA FEW004 BKN018 OVC040 12/11 A2984 RMK AO2 P0008=
201102020328 SPECI KATL 020328Z 35003KT 8SM -RA FEW004 BKN018 OVC040 12/11 A2984 RMK AO2 P0008=
201102020252 METAR KATL 020252Z 16016G29KT 5SM RA BR SCT005 BKN015 OVC030 12/11 A2983 RMK AO2 PK WND 17029/0247 TSB02E52 SLP104 TS MOV NE P0034 60079 T01220111 55008=
201102020237 SPECI KATL 020237Z 17008KT 3SM TSRA BR BKN005 BKN015CB OVC030 11/11 A2981 RMK AO2 TSB02 OCNL LTGIC NE TS NE MOV NE CIG 002V008 P0030=
201102020237 SPECI KATL 020237Z 17008KT 3SM TSRA BR BKN005 BKN015CB OVC030 11/11 A2981 RMK AO2 TSB02 OCNL LTGIC NE TS NE MOV NE CIG 002V008 P0030=
201102020202 SPECI KATL 020202Z 12007G16KT 2SM +TSRA BR OVC005CB 11/11 A2981 RMK AO2 SFC VIS 2 1/2 TSB02 OCNL LTGIC SW-W TS SW-W MOV NE CIG 003V008 P0008=
201102020202 SPECI KATL 020202Z 12007G16KT 2SM +TSRA BR OVC005CB 11/11 A2981 RMK AO2 SFC VIS 2 1/2 TSB02 OCNL LTGIC SW-W TS SW-W MOV NE CIG 003V008 P0008=
201102020152 METAR KATL 020152Z 13010KT 2SM +RA BR OVC005 11/10 A2983 RMK AO2 SFC VIS 3 SLP103 CIG 002V007 P0032 T01060100=
201102020052 METAR KATL 020052Z 11009KT 1/2SM -RA BR OVC002 09/09 A2983 RMK AO2 SFC VIS 3 SLP104 CIG 001V004 P0013 T00940089=
201102012352 METAR KATL 012352Z 11013KT 1/2SM RA BR OVC002 09/08 A2986 RMK AO2 SFC VIS 2 1/2 SLP113 P0008 60019 T00890083 10089 20061 56031=
201102012252 METAR KATL 012252Z 13012G20KT 1/2SM R09R/5500VP6000FT -RA BR OVC002 08/08 A2989 RMK AO2 SFC VIS 1 1/4 SLP125 P0002 T00830078=
201102012152 METAR KATL 012152Z 13014G22KT 1/2SM -RA BR BKN003 OVC005 07/07 A2991 RMK AO2 SFC VIS 3 SLP134 P0008 T00720067=
201102012052 METAR KATL 012052Z 12010G14KT 1/4SM R09R/3500V4500FT -RA BR OVC003 07/06 A2995 RMK AO2 SFC VIS 3/4 DZE45RAB45 SLP147 P0001 60001 T00670061 55027=
201102012003 SPECI KATL 012003Z 12011KT 1/4SM R09R/4000V5500FT -DZ BR OVC003 06/06 A2994 RMK AO2 SFC VIS 1 P0000=
201102012003 SPECI KATL 012003Z 12011KT 1/4SM R09R/4000V5500FT -DZ BR OVC003 06/06 A2994 RMK AO2 SFC VIS 1 P0000=
201102011952 METAR KATL 011952Z 10012G21KT 1/4SM R09R/3500V4500FT -DZ BR VV003 06/06 A2995 RMK AO2 SFC VIS 3/4 DZE22B49RAB22E43 SLP145 P0000 T00610056=
201102011938 SPECI KATL 011938Z 11011G18KT 1/4SM R09R/2000V3000FT -RA FG VV003 06/06 A2995 RMK AO2 SFC VIS 1/2 DZE22RAB22 P0000=
201102011938 SPECI KATL 011938Z 11011G18KT 1/4SM R09R/2000V3000FT -RA FG VV003 06/06 A2995 RMK AO2 SFC VIS 1/2 DZE22RAB22 P0000=
201102011926 SPECI KATL 011926Z 11013KT 1/4SM R09R/1600V2000FT -RA FG VV003 06/06 A2996 RMK AO2 DZE22RAB22 P0000=
201102011926 SPECI KATL 011926Z 11013KT 1/4SM R09R/1600V2000FT -RA FG VV003 06/06 A2996 RMK AO2 DZE22RAB22 P0000=
201102011852 METAR KATL 011852Z 11010G16KT 1/4SM R09R/1800V2400FT DZ FG VV003 06/06 A3000 RMK AO2 SLP164 P0000 T00610061=
201102011842 SPECI KATL 011842Z 10011KT 1/4SM R09R/1800V2200FT -DZ FG VV002 06/06 A2999 RMK AO2 P0000=
201102011842 SPECI KATL 011842Z 10011KT 1/4SM R09R/1800V2200FT -DZ FG VV002 06/06 A2999 RMK AO2 P0000=
201102011752 METAR KATL 011752Z 09007KT 1/4SM R09R/1800V2800FT -DZ FG VV002 06/06 A3003 RMK AO2 SFC VIS 1/2 SLP175 P0000 60000 T00610056 10061 20050 58036=
201102011743 SPECI KATL 011743Z 09008KT 1/4SM R09R/2000V2200FT -DZ FG VV002 06/06 A3005 RMK AO2 SFC VIS 1/2 P0000=
201102011743 SPECI KATL 011743Z 09008KT 1/4SM R09R/2000V2200FT -DZ FG VV002 06/06 A3005 RMK AO2 SFC VIS 1/2 P0000=
201102011733 SPECI KATL 011733Z 10009KT 1/4SM R09R/2000V2400FT -DZ FG VV002 06/06 A3005 RMK AO2 SFC VIS 1/2 P0000=
201102011733 SPECI KATL 011733Z 10009KT 1/4SM R09R/2000V2400FT -DZ FG VV002 06/06 A3005 RMK AO2 SFC VIS 1/2 P0000=
201102011711 SPECI KATL 011711Z 10013KT 1/4SM R09R/1800V2200FT -DZ FG VV002 06/06 A3005 RMK AO2 SFC VIS 1/2 P0000=
201102011711 SPECI KATL 011711Z 10013KT 1/4SM R09R/1800V2200FT -DZ FG VV002 06/06 A3005 RMK AO2 SFC VIS 1/2 P0000=
201102011652 METAR KATL 011652Z 09011KT 1/4SM R09R/2000V2400FT -DZ FG VV002 06/05 A3007 RMK AO2 SFC VIS 1/2 SLP187 P0000 T00560050=
201102011552 METAR KATL 011552Z 09011KT 1/4SM R09R/2200V2600FT -DZ FG VV002 06/05 A3011 RMK AO2 SFC VIS 1/2 SLP199 P0000 T00560050=
201102011458 SPECI KATL 011458Z 10010KT 1/4SM R09R/2000V2400FT -DZ FG VV002 06/05 A3014 RMK AO2 SFC VIS 1/2 P0000=
201102011458 SPECI KATL 011458Z 10010KT 1/4SM R09R/2000V2400FT -DZ FG VV002 06/05 A3014 RMK AO2 SFC VIS 1/2 P0000=
201102011456 SPECI KATL 011456Z 09012KT 1/4SM R09R/2000V2200FT -DZ FG OVC001 06/05 A3014 RMK AO2 SFC VIS 1/2 P0000=
201102011456 SPECI KATL 011456Z 09012KT 1/4SM R09R/2000V2200FT -DZ FG OVC001 06/05 A3014 RMK AO2 SFC VIS 1/2 P0000=
201102011452 METAR KATL 011452Z 10008KT 1/4SM R09R/2000V2800FT -DZ FG VV002 06/05 A3014 RMK AO2 SFC VIS 1/2 SLP212 P0000 60000 T00560050 51009=
201102011352 METAR KATL 011352Z 10011KT 1/4SM R09R/3000V3500FT -DZ FG OVC002 05/04 A3014 RMK AO2 SFC VIS 1/2 DZB44 SLP211 P0000 T00500044=
201102011252 METAR KATL 011252Z 10010KT 1/4SM R09R/3500V4000FT BR OVC002 05/04 A3012 RMK AO2 SFC VIS 3/4 SLP204 T00500044=
