##########################################################
# Query made at 04/19/2024 23:20:54 UTC
# Time interval: from 03/01/2011 12:00  to 03/31/2011 12:59  UTC
##########################################################

##########################################################
# KATL, Atlanta, Hartsfield - Jackson Atlanta International Airport (United States)
# WMO index: 72219. WIGOS ID: 0-20000-0-72219
# Latitude 33-38-59N. Longitude 084-25-00W. Altitude 312 m.
##########################################################

201103311252 METAR KATL 311252Z 32010KT 2SM BR BKN006 OVC022 08/06 A2977 RMK AO2 SFC VIS 6 SLP080 T00780061=
201103311242 SPECI KATL 311242Z 32009KT 2SM BR BKN006 OVC020 08/06 A2976 RMK AO2 SFC VIS 6=
201103311242 SPECI KATL 311242Z 32009KT 2SM BR BKN006 OVC020 08/06 A2976 RMK AO2 SFC VIS 6=
201103311152 METAR KATL 311152Z 31010KT 2SM BR BKN004 BKN010 08/07 A2975 RMK AO2 SFC VIS 5 SLP075 70007 T00780067 10106 20078 53007=
201103311052 METAR KATL 311052Z 30006KT 2SM BR OVC004 08/07 A2974 RMK AO2 SFC VIS 5 SLP069 T00830072=
201103310952 METAR KATL 310952Z 33006KT 2SM BR OVC004 08/08 A2971 RMK AO2 SFC VIS 5 SLP061 T00830078=
201103310929 SPECI KATL 310929Z 34005KT 2SM BR OVC004 09/08 A2971 RMK AO2 SFC VIS 5=
201103310929 SPECI KATL 310929Z 34005KT 2SM BR OVC004 09/08 A2971 RMK AO2 SFC VIS 5=
201103310914 SPECI KATL 310914Z 33004KT 1SM BR OVC004 09/08 A2972 RMK AO2 SFC VIS 5 CIG 003V008=
201103310914 SPECI KATL 310914Z 33004KT 1SM BR OVC004 09/08 A2972 RMK AO2 SFC VIS 5 CIG 003V008=
201103310852 METAR KATL 310852Z 35005KT 1SM BR BKN006 OVC010 09/08 A2973 RMK AO2 SFC VIS 5 SLP067 T00890078 56017=
201103310833 SPECI KATL 310833Z 32008KT 1SM BR OVC002 09/08 A2974 RMK AO2 SFC VIS 5 CIG 001V005=
201103310833 SPECI KATL 310833Z 32008KT 1SM BR OVC002 09/08 A2974 RMK AO2 SFC VIS 5 CIG 001V005=
201103310752 METAR KATL 310752Z 34006KT 6SM BR OVC004 10/09 A2974 RMK AO2 SLP070 T01000089=
201103310652 METAR KATL 310652Z 32005KT 6SM BR BKN004 BKN009 OVC025 10/09 A2976 RMK AO2 SLP078 T01000089=
201103310552 METAR KATL 310552Z 32006KT 7SM BKN006 OVC025 11/09 A2978 RMK AO2 SLP083 60003 T01060094 10144 20106 58000=
201103310452 METAR KATL 310452Z 32010KT 8SM SCT004 BKN009 OVC014 12/10 A2979 RMK AO2 RAE32 SLP085 P0000 T01170100 401560100=
201103310352 METAR KATL 310352Z 29008KT 1 1/2SM -RA BR OVC004 13/12 A2980 RMK AO2 SFC VIS 3 SLP088 CIG 002V006 P0001 T01280122=
201103310324 SPECI KATL 310324Z 31007KT 3SM -RA BR OVC004 13/13 A2979 RMK AO2 CIG 002V006 P0001=
201103310324 SPECI KATL 310324Z 31007KT 3SM -RA BR OVC004 13/13 A2979 RMK AO2 CIG 002V006 P0001=
201103310252 METAR KATL 310252Z 00000KT 3SM -RA BR BKN005 OVC015 13/13 A2978 RMK AO2 SLP083 CIG 003V007 P0001 60002 T01330128 51007=
201103310228 SPECI KATL 310228Z 07003KT 3SM -RA BR FEW002 BKN006 OVC015 13/13 A2978 RMK AO2 P0001=
201103310228 SPECI KATL 310228Z 07003KT 3SM -RA BR FEW002 BKN006 OVC015 13/13 A2978 RMK AO2 P0001=
201103310152 METAR KATL 310152Z 02007KT 1SM -RA BR OVC004 14/13 A2978 RMK AO2 SFC VIS 2 SLP083 CIG 003V006 P0000 T01390128=
201103310119 SPECI KATL 310119Z 05004KT 1SM -RA BR OVC004 14/13 A2977 RMK AO2 SFC VIS 5 CIG 002V007 P0000=
201103310119 SPECI KATL 310119Z 05004KT 1SM -RA BR OVC004 14/13 A2977 RMK AO2 SFC VIS 5 CIG 002V007 P0000=
201103310052 METAR KATL 310052Z 00000KT 1SM -RA BR OVC005 14/13 A2976 RMK AO2 SFC VIS 4 SLP078 CIG 002V007 P0001 T01440133=
201103302352 METAR KATL 302352Z 15003KT 1SM -RA BR FEW002 BKN006 OVC015 14/13 A2976 RMK AO2 SFC VIS 1 1/2 SLP076 P0002 60003 T01390133 10156 20139 56004=
201103302254 SPECI KATL 302254Z 00000KT 1SM R09R/5500VP6000FT -RA BR FEW003 BKN007 OVC012 14/13 A2976 RMK AO2 SFC VIS 1 1/4 P0000=
201103302254 SPECI KATL 302254Z 00000KT 1SM R09R/5500VP6000FT -RA BR FEW003 BKN007 OVC012 14/13 A2976 RMK AO2 SFC VIS 1 1/4 P0000=
201103302252 METAR KATL 302252Z 00000KT 1 1/2SM R09R/6000VP6000FT -RA BR FEW003 BKN007 OVC012 14/13 A2976 RMK AO2 TWR VIS 2 DZE23RAB23 SLP077 P0001 T01440133=
201103302225 SPECI KATL 302225Z 15003KT 2SM -RA BR FEW003 BKN007 OVC012 14/13 A2976 RMK AO2 DZE23RAB23 P0000=
201103302225 SPECI KATL 302225Z 15003KT 2SM -RA BR FEW003 BKN007 OVC012 14/13 A2976 RMK AO2 DZE23RAB23 P0000=
201103302152 METAR KATL 302152Z 14003KT 3SM -DZ BR FEW003 BKN008 OVC013 14/13 A2976 RMK AO2 DZE12B32RAB12E32 SLP076 P0000 T01440133=
201103302117 SPECI KATL 302117Z 15004KT 2SM R09R/5500VP6000FT -RA BR BKN007 OVC012 14/13 A2977 RMK AO2 DZE12RAB12 P0000=
201103302117 SPECI KATL 302117Z 15004KT 2SM R09R/5500VP6000FT -RA BR BKN007 OVC012 14/13 A2977 RMK AO2 DZE12RAB12 P0000=
201103302052 METAR KATL 302052Z 13003KT 4SM -DZ BR FEW003 BKN009 OVC012 14/13 A2977 RMK AO2 DZB18 SLP081 P0000 60000 T01440133 56027=
201103302019 SPECI KATL 302019Z 13003KT 4SM -DZ BR BKN007 BKN009 OVC012 14/13 A2977 RMK AO2 DZB18 VIS LWR E-SE-S P0000=
201103302019 SPECI KATL 302019Z 13003KT 4SM -DZ BR BKN007 BKN009 OVC012 14/13 A2977 RMK AO2 DZB18 VIS LWR E-SE-S P0000=
201103301952 SPECI KATL 301952Z 00000KT 6SM BR BKN009 BKN012 OVC015 15/13 A2978 RMK AO2 SLP084 T01500133=
201103301852 METAR KATL 301852Z 14005KT 6SM HZ BKN009 BKN012 OVC015 16/13 A2981 RMK AO2 PRESFR SLP093 T01560128=
201103301752 METAR KATL 301752Z 00000KT 8SM BKN009 BKN013 OVC015 14/13 A2985 RMK AO2 SLP109 60001 T01440128 10150 20111 56010=
201103301652 METAR KATL 301652Z 07004KT 3SM BR FEW005 BKN007 OVC010 14/13 A2986 RMK AO2 SFC VIS 6 SLP111 T01440128=
201103301650 SPECI KATL 301650Z 04003KT 3SM BR FEW005 BKN007 OVC010 14/12 A2986 RMK AO2 SFC VIS 6=
201103301650 SPECI KATL 301650Z 04003KT 3SM BR FEW005 BKN007 OVC010 14/12 A2986 RMK AO2 SFC VIS 6=
201103301552 METAR KATL 301552Z 04005KT 1 1/2SM BR FEW002 BKN005 OVC010 13/12 A2989 RMK AO2 SFC VIS 5 SLP121 T01330117=
201103301550 SPECI KATL 301550Z 04006KT 1 1/2SM BR FEW002 BKN005 OVC010 13/12 A2989 RMK AO2 SFC VIS 5=
201103301550 SPECI KATL 301550Z 04006KT 1 1/2SM BR FEW002 BKN005 OVC010 13/12 A2989 RMK AO2 SFC VIS 5=
201103301452 METAR KATL 301452Z 36007KT 1/2SM BR FEW002 BKN005 OVC010 13/12 A2986 RMK AO2 SFC VIS 4 RAE37 SLP113 P0000 60001 T01280117 58010=
201103301352 METAR KATL 301352Z 10005KT 1/2SM -RA BR BKN004 BKN008 OVC010 12/11 A2987 RMK AO2 SFC VIS 5 RAB17 SLP116 P0000 T01170106=
201103301318 SPECI KATL 301318Z 08005KT 1/2SM -RA BR BKN003 BKN008 OVC010 12/11 A2991 RMK AO2 SFC VIS 4 RAB17 P0000=
201103301318 SPECI KATL 301318Z 08005KT 1/2SM -RA BR BKN003 BKN008 OVC010 12/11 A2991 RMK AO2 SFC VIS 4 RAB17 P0000=
201103301312 SPECI KATL 301312Z 08004KT 1/2SM BR FEW003 BKN008 OVC010 12/11 A2991 RMK AO2 SFC VIS 6=
201103301312 SPECI KATL 301312Z 08004KT 1/2SM BR FEW003 BKN008 OVC010 12/11 A2991 RMK AO2 SFC VIS 6=
201103301252 METAR KATL 301252Z 06007KT 1/2SM BR BKN003 OVC010 11/11 A2989 RMK AO2 SFC VIS 6 RAB19E48 SLP122 P0001 T01110106=
201103301234 SPECI KATL 301234Z 09006KT 1/2SM -RA BR BKN003 BKN010 11/11 A2991 RMK AO2 SFC VIS 6 RAB19 P0001=
201103301234 SPECI KATL 301234Z 09006KT 1/2SM -RA BR BKN003 BKN010 11/11 A2991 RMK AO2 SFC VIS 6 RAB19 P0001=
201103301156 SPECI KATL 301156Z 07008KT 1/2SM BR BKN005 OVC010 11/10 A2989 RMK AO2 SFC VIS 6=
201103301156 SPECI KATL 301156Z 07008KT 1/2SM BR BKN005 OVC010 11/10 A2989 RMK AO2 SFC VIS 6=
201103301152 METAR KATL 301152Z 07007KT 2SM BR OVC005 11/10 A2989 RMK AO2 SFC VIS 6 RAE05 CIG 003V009 SLP123 P0000 60105 70105 T01110100 10111 20100 55017=
201103301136 SPECI KATL 301136Z 36009KT 2SM BR FEW003 BKN005 BKN010 11/10 A2988 RMK AO2 SFC VIS 6 RAE05 P0000=
201103301136 SPECI KATL 301136Z 36009KT 2SM BR FEW003 BKN005 BKN010 11/10 A2988 RMK AO2 SFC VIS 6 RAE05 P0000=
201103301058 SPECI KATL 301058Z VRB03G18KT 2SM -RA BR SCT001 BKN003 OVC008 11/10 A2987 RMK AO2 SFC VIS 4 P0000=
201103301058 SPECI KATL 301058Z VRB03G18KT 2SM -RA BR SCT001 BKN003 OVC008 11/10 A2987 RMK AO2 SFC VIS 4 P0000=
201103301052 METAR KATL 301052Z 14011G24KT 0SM -RA BR BKN001 OVC003 11/10 A2984 RMK AO2 SFC VIS 3 TSE45 SLP106 TS MOV E P0025 T01060100=
201103301045 SPECI KATL 301045Z 14014G24KT 0SM -RA BR BKN001 OVC003 10/10 A2983 RMK AO2 SFC VIS 3 TSE45 PRESFR CONS LTG E-SE TS E-SE MOV E P0025=
201103301045 SPECI KATL 301045Z 14014G24KT 0SM -RA BR BKN001 OVC003 10/10 A2983 RMK AO2 SFC VIS 3 TSE45 PRESFR CONS LTG E-SE TS E-SE MOV E P0025=
201103301015 SPECI KATL 301015Z 10006KT 2 1/2SM TSRA BR BKN001 BKN003CB OVC010 10/09 A2991 RMK AO2 SFC VIS 3 PRESFR CONS LTG E-SE TS E-SE MOV E P0012=
201103301015 SPECI KATL 301015Z 10006KT 2 1/2SM TSRA BR BKN001 BKN003CB OVC010 10/09 A2991 RMK AO2 SFC VIS 3 PRESFR CONS LTG E-SE TS E-SE MOV E P0012=
201103301009 SPECI KATL 301009Z 09007KT 2 1/2SM TSRA BR SCT001 BKN003CB OVC010 10/10 A2992 RMK AO2 PRESFR CONS LTG OHD & N-E-SE-S TS OHD & N-E-SE-S MOV NE P0009=
201103301009 SPECI KATL 301009Z 09007KT 2 1/2SM TSRA BR SCT001 BKN003CB OVC010 10/10 A2992 RMK AO2 PRESFR CONS LTG OHD & N-E-SE-S TS OHD & N-E-SE-S MOV NE P0009=
201103300958 SPECI KATL 300958Z 12006KT 2SM TSRA BR SCT001 BKN005CB OVC010 10/10 A2995 RMK AO2 TWR VIS 2 1/2 CONS LTG OHD & N & S-SW TS OHD & N & S-SW MOV NE P0004=
201103300958 SPECI KATL 300958Z 12006KT 2SM TSRA BR SCT001 BKN005CB OVC010 10/10 A2995 RMK AO2 TWR VIS 2 1/2 CONS LTG OHD & N & S-SW TS OHD & N & S-SW MOV NE P0004=
201103300952 METAR KATL 300952Z 07004KT 1 1/2SM +TSRA BR SCT001 BKN005CB OVC010 10/10 A2994 RMK AO2 TWR VIS 2 1/2 TSB15DZE01RAB01 SLP140 CONS LTGICCC N & S-SW TS N & S-SW MOV NE FRQ LTGIC DSNT NE P0080 T01000100=
201103300942 SPECI KATL 300942Z 18004KT 3/4SM R09R/3500VP6000FT +TSRA BR BKN005CB BKN010 OVC018 10/09 A2996 RMK AO2 TWR VIS 2 1/2 TSB15DZE01RAB01 CONS LTGICCC SW-W-NW TS SW-W-NW MOV NE FRQ LTGIC DSNT N-NE P0065=
201103300942 SPECI KATL 300942Z 18004KT 3/4SM R09R/3500VP6000FT +TSRA BR BKN005CB BKN010 OVC018 10/09 A2996 RMK AO2 TWR VIS 2 1/2 TSB15DZE01RAB01 CONS LTGICCC SW-W-NW TS SW-W-NW MOV NE FRQ LTGIC DSNT N-NE P0065=
201103300934 SPECI KATL 300934Z 18003KT 1SM R09R/5000VP6000FT +TSRA BR BKN005CB BKN010 OVC018 10/10 A2994 RMK AO2 TWR VIS 2 1/2 TSB15DZE01RAB01 CONS LTGIC SW-W-NW TS SW-W-NW MOV NE P0029=
201103300934 SPECI KATL 300934Z 18003KT 1SM R09R/5000VP6000FT +TSRA BR BKN005CB BKN010 OVC018 10/10 A2994 RMK AO2 TWR VIS 2 1/2 TSB15DZE01RAB01 CONS LTGIC SW-W-NW TS SW-W-NW MOV NE P0029=
201103300926 SPECI KATL 300926Z 34006KT 2 1/2SM TSRA BR BKN005CB BKN010 OVC018 10/09 A2994 RMK AO2 SFC VIS 3 TSB15DZE01RAB01 FRQ LTGIC SW-W-NW TS SW-W-NW MOV NE P0007=
201103300926 SPECI KATL 300926Z 34006KT 2 1/2SM TSRA BR BKN005CB BKN010 OVC018 10/09 A2994 RMK AO2 SFC VIS 3 TSB15DZE01RAB01 FRQ LTGIC SW-W-NW TS SW-W-NW MOV NE P0007=
201103300915 SPECI KATL 300915Z 34009KT 1SM TSRA BR SCT001 BKN005CB OVC010 10/10 A2995 RMK AO2 SFC VIS 2 1/2 TSB15DZE01RAB01 P0003=
201103300915 SPECI KATL 300915Z 34009KT 1SM TSRA BR SCT001 BKN005CB OVC010 10/10 A2995 RMK AO2 SFC VIS 2 1/2 TSB15DZE01RAB01 P0003=
201103300852 METAR KATL 300852Z 33011KT 0SM R09R/2200V3000FT -DZ FG OVC001 10/09 A2995 RMK AO2 SFC VIS 1/2 DZB12 SLP141 OCNL LTGIC DSNT W-NW P0000 60000 T01000094 55010=
201103300752 METAR KATL 300752Z 14005KT 0SM R09R/2800V3500FT FG OVC001 10/09 A2994 RMK AO2 SFC VIS 1/2 SLP141 T01000094=
201103300750 SPECI KATL 300750Z 14006KT 0SM R09R/3000V3500FT BR OVC001 10/09 A2995 RMK AO2 SFC VIS 3/4=
201103300750 SPECI KATL 300750Z 14006KT 0SM R09R/3000V3500FT BR OVC001 10/09 A2995 RMK AO2 SFC VIS 3/4=
201103300734 SPECI KATL 300734Z 14005KT 3/4SM R09R/3500V4000FT BR OVC001 10/09 A2995 RMK AO2=
201103300734 SPECI KATL 300734Z 14005KT 3/4SM R09R/3500V4000FT BR OVC001 10/09 A2995 RMK AO2=
201103300658 SPECI KATL 300658Z 15006KT 1 1/2SM BR OVC001 10/09 A2998 RMK AO2=
201103300658 SPECI KATL 300658Z 15006KT 1 1/2SM BR OVC001 10/09 A2998 RMK AO2=
201103300652 METAR KATL 300652Z 14006KT 2SM BR OVC003 10/09 A2998 RMK AO2 SLP152 T01000094=
201103300647 SPECI KATL 300647Z 14006KT 2 1/2SM BR OVC003 10/09 A2998 RMK AO2=
201103300647 SPECI KATL 300647Z 14006KT 2 1/2SM BR OVC003 10/09 A2998 RMK AO2=
201103300634 SPECI KATL 300634Z 14008KT 3SM BR OVC003 10/09 A2999 RMK AO2=
201103300634 SPECI KATL 300634Z 14008KT 3SM BR OVC003 10/09 A2999 RMK AO2=
201103300552 METAR KATL 300552Z 13006KT 4SM BR OVC007 10/09 A3001 RMK AO2 SLP163 60000 T01000089 10111 20100 58021=
201103300452 METAR KATL 300452Z 12007KT 6SM BR OVC007 10/09 A3003 RMK AO2 SLP170 T01000089 401170061=
201103300352 METAR KATL 300352Z 13004KT 5SM BR OVC006 10/09 A3007 RMK AO2 DZE52 SLP184 CIG 004V008 P0000 T01000089=
201103300252 METAR KATL 300252Z 11007KT 2SM -DZ BR OVC005 10/09 A3007 RMK AO2 DZB27 SLP186 CIG 003V007 P0000 60000 T01000089 51002=
201103300247 SPECI KATL 300247Z 11006KT 2SM -DZ BR OVC005 10/09 A3007 RMK AO2 DZB27 CIG 003V007 P0000=
201103300247 SPECI KATL 300247Z 11006KT 2SM -DZ BR OVC005 10/09 A3007 RMK AO2 DZB27 CIG 003V007 P0000=
201103300228 SPECI KATL 300228Z 14006KT 3SM -DZ BR OVC006 10/09 A3008 RMK AO2 DZB27 CIG 004V008 P0000=
201103300228 SPECI KATL 300228Z 14006KT 3SM -DZ BR OVC006 10/09 A3008 RMK AO2 DZB27 CIG 004V008 P0000=
201103300152 METAR KATL 300152Z 13004KT 7SM OVC009 11/08 A3008 RMK AO2 SLP189 T01060083=
201103300052 METAR KATL 300052Z 13005KT 9SM OVC013 11/08 A3007 RMK AO2 SLP184 T01110083=
201103292352 METAR KATL 292352Z 12006KT 8SM OVC014 11/08 A3007 RMK AO2 SLP185 60000 T01110083 10117 20089 56010=
201103292252 METAR KATL 292252Z 14005KT 9SM OVC014 11/08 A3008 RMK AO2 RAE12 SLP187 P0000 T01110078=
201103292215 SPECI KATL 292215Z 13007KT 9SM OVC013 11/08 A3007 RMK AO2 RAE12 P0000=
201103292215 SPECI KATL 292215Z 13007KT 9SM OVC013 11/08 A3007 RMK AO2 RAE12 P0000=
201103292152 METAR KATL 292152Z 12005KT 7SM -RA OVC015 11/08 A3008 RMK AO2 RAB48 SLP188 P0000 T01110078=
201103292052 METAR KATL 292052Z 00000KT 9SM OVC015 11/07 A3010 RMK AO2 SLP195 T01060072 56016=
201103291952 METAR KATL 291952Z 12003KT 9SM OVC015 10/07 A3011 RMK AO2 SLP199 T01000067=
201103291852 METAR KATL 291852Z 15004KT 8SM BKN011 OVC014 09/07 A3013 RMK AO2 SLP204 T00940067=
201103291807 SPECI KATL 291807Z 15005KT 10SM BKN011 OVC014 09/07 A3014 RMK AO2=
201103291807 SPECI KATL 291807Z 15005KT 10SM BKN011 OVC014 09/07 A3014 RMK AO2=
201103291752 METAR KATL 291752Z 15006KT 9SM FEW005 BKN009 OVC012 09/06 A3015 RMK AO2 SLP211 60000 T00890061 10094 20061 58008=
201103291652 METAR KATL 291652Z 12007KT 10SM FEW005 BKN007 OVC010 08/06 A3016 RMK AO2 DZE40 SLP216 P0000 T00780056=
201103291643 SPECI KATL 291643Z 13007KT 10SM FEW005 BKN007 OVC010 08/06 A3016 RMK AO2 DZE40 P0000=
201103291643 SPECI KATL 291643Z 13007KT 10SM FEW005 BKN007 OVC010 08/06 A3016 RMK AO2 DZE40 P0000=
201103291552 METAR KATL 291552Z 08009KT 1 1/2SM -DZ BR OVC005 07/06 A3018 RMK AO2 SFC VIS 3 SLP222 P0000 T00720056=
201103291452 METAR KATL 291452Z 10009KT 1 1/2SM -DZ BR OVC005 07/06 A3017 RMK AO2 SFC VIS 3 SLP220 P0000 60000 T00670056 51014=
201103291449 SPECI KATL 291449Z 11008KT 1 1/2SM -DZ BR OVC005 07/06 A3017 RMK AO2 SFC VIS 3 P0000=
201103291449 SPECI KATL 291449Z 11008KT 1 1/2SM -DZ BR OVC005 07/06 A3017 RMK AO2 SFC VIS 3 P0000=
201103291351 METAR KATL 291351Z 08010KT 1/2SM -DZ BR OVC004 06/05 A3017 RMK AO2 SFC VIS 3 DZB12 SLP219 TWRINC P0000 T00610050=
201103291350 SPECI KATL 291350Z 08009KT 1/2SM -DZ BR OVC004 06/05 A3017 RMK AO2 SFC VIS 3 DZB12 P0000=
201103291350 SPECI KATL 291350Z 08009KT 1/2SM -DZ BR OVC004 06/05 A3017 RMK AO2 SFC VIS 3 DZB12 P0000=
201103291256 SPECI KATL 291256Z 11007KT 1 1/2SM BR OVC004 06/05 A3016 RMK AO2 SFC VIS 5=
201103291256 SPECI KATL 291256Z 11007KT 1 1/2SM BR OVC004 06/05 A3016 RMK AO2 SFC VIS 5=
201103291252 METAR KATL 291252Z 14007KT 2 1/2SM BR OVC004 06/05 A3016 RMK AO2 SFC VIS 6 SLP216 T00610050=
201103291152 METAR KATL 291152Z 08010KT 2 1/2SM BR OVC004 06/05 A3013 RMK AO2 SFC VIS 6 SLP206 70001 T00610050 10078 20061 51014=
201103291147 SPECI KATL 291147Z 08009KT 2 1/2SM BR OVC004 06/05 A3013 RMK AO2 SFC VIS 6=
201103291147 SPECI KATL 291147Z 08009KT 2 1/2SM BR OVC004 06/05 A3013 RMK AO2 SFC VIS 6=
201103291127 SPECI KATL 291127Z 09007KT 6SM BR OVC004 06/04 A3013 RMK AO2=
201103291127 SPECI KATL 291127Z 09007KT 6SM BR OVC004 06/04 A3013 RMK AO2=
201103291052 METAR KATL 291052Z 10008KT 6SM BR OVC006 06/04 A3011 RMK AO2 SLP199 T00610044=
201103290952 METAR KATL 290952Z 11008KT 6SM BR OVC008 06/04 A3009 RMK AO2 SLP191 T00610044=
201103290852 METAR KATL 290852Z 09011KT 10SM OVC008 07/04 A3008 RMK AO2 SLP187 T00670044 58004=
201103290807 SPECI KATL 290807Z 09008KT 10SM OVC008 07/05 A3008 RMK AO2=
201103290807 SPECI KATL 290807Z 09008KT 10SM OVC008 07/05 A3008 RMK AO2=
201103290752 METAR KATL 290752Z 10009KT 10SM OVC010 07/05 A3008 RMK AO2 SLP189 T00670050=
201103290652 METAR KATL 290652Z 11009KT 8SM OVC010 07/05 A3009 RMK AO2 SLP194 T00720050=
201103290552 METAR KATL 290552Z 10013KT 10SM OVC010 08/06 A3009 RMK AO2 SLP192 T00780056 10094 20067 58002=
201103290457 SPECI KATL 290457Z 10008KT 10SM OVC014 08/06 A3009 RMK AO2=
201103290457 SPECI KATL 290457Z 10008KT 10SM OVC014 08/06 A3009 RMK AO2=
201103290452 METAR KATL 290452Z 10009KT 10SM OVC016 08/06 A3009 RMK AO2 SLP194 T00830061 401000061=
201103290429 SPECI KATL 290429Z 10005KT 10SM BKN018 08/06 A3010 RMK AO2=
201103290429 SPECI KATL 290429Z 10005KT 10SM BKN018 08/06 A3010 RMK AO2=
201103290352 METAR KATL 290352Z 10005KT 10SM FEW022 07/06 A3009 RMK AO2 SLP195 T00720056=
201103290252 METAR KATL 290252Z 10004KT 10SM SCT022 08/06 A3009 RMK AO2 SLP195 T00780056 51023=
201103290152 METAR KATL 290152Z 09006KT 10SM OVC024 09/06 A3008 RMK AO2 SLP189 T00890061=
201103290052 METAR KATL 290052Z 10005KT 10SM OVC020 09/06 A3006 RMK AO2 SLP181 T00940061=
201103282352 METAR KATL 282352Z 10006KT 10SM OVC020 09/06 A3002 RMK AO2 SLP171 T00940061 10100 20072 51015=
201103282252 METAR KATL 282252Z 11006KT 10SM BKN018 OVC025 10/06 A3001 RMK AO2 SLP165 T01000061=
201103282152 METAR KATL 282152Z 06008KT 10SM OVC015 10/06 A3000 RMK AO2 SLP162 T01000061=
201103282052 METAR KATL 282052Z VRB04KT 10SM BKN012 BKN015 BKN020 10/06 A2998 RMK AO2 SLP154 T01000061 58010=
201103281952 METAR KATL 281952Z VRB03KT 10SM BKN010 BKN015 OVC020 09/06 A2999 RMK AO2 SLP159 T00890061=
201103281852 METAR KATL 281852Z 09004KT 9SM BKN007 BKN010 OVC020 08/06 A3000 RMK AO2 SLP162 T00830061=
201103281752 METAR KATL 281752Z 06007KT 8SM BKN007 BKN010 OVC020 08/06 A3001 RMK AO2 SLP165 60001 T00780056 10078 20061 58001=
201103281702 SPECI KATL 281702Z 09008KT 6SM BR BKN007 BKN010 OVC020 07/06 A3002 RMK AO2=
201103281702 SPECI KATL 281702Z 09008KT 6SM BR BKN007 BKN010 OVC020 07/06 A3002 RMK AO2=
201103281652 METAR KATL 281652Z 07008KT 2 1/2SM BR BKN007 BKN010 OVC020 08/06 A3002 RMK AO2 SFC VIS 6 DZE48 SLP167 P0000 T00780056=
201103281552 METAR KATL 281552Z 07010KT 2 1/2SM -DZ BR BKN007 OVC010 07/06 A3002 RMK AO2 SFC VIS 4 SLP168 P0000 T00720056=
201103281452 METAR KATL 281452Z 08009KT 2 1/2SM -DZ BR BKN007 BKN012 OVC020 07/05 A3001 RMK AO2 SFC VIS 4 SLP166 P0000 60001 T00670050 50010=
201103281447 SPECI KATL 281447Z 07008KT 2 1/2SM -DZ BR BKN007 BKN012 OVC020 07/05 A3001 RMK AO2 SFC VIS 4 P0000=
201103281447 SPECI KATL 281447Z 07008KT 2 1/2SM -DZ BR BKN007 BKN012 OVC020 07/05 A3001 RMK AO2 SFC VIS 4 P0000=
201103281422 SPECI KATL 281422Z 05010KT 2 1/2SM -DZ BR BKN010 BKN015 OVC020 07/06 A3001 RMK AO2 SFC VIS 5 P0000=
201103281422 SPECI KATL 281422Z 05010KT 2 1/2SM -DZ BR BKN010 BKN015 OVC020 07/06 A3001 RMK AO2 SFC VIS 5 P0000=
201103281405 SPECI KATL 281405Z 04010KT 3SM -DZ BR BKN010 BKN015 OVC020 07/06 A3001 RMK AO2 SFC VIS 5 P0000=
201103281405 SPECI KATL 281405Z 04010KT 3SM -DZ BR BKN010 BKN015 OVC020 07/06 A3001 RMK AO2 SFC VIS 5 P0000=
201103281352 METAR KATL 281352Z 03010G15KT 3SM -DZ BR BKN008 BKN013 OVC020 07/06 A3001 RMK AO2 SFC VIS 5 RAE05DZB49 SLP164 P0000 T00720056=
201103281323 SPECI KATL 281323Z 08008KT 3SM BR FEW008 BKN013 OVC018 07/05 A2999 RMK AO2 SFC VIS 6 RAE05 P0000=
201103281323 SPECI KATL 281323Z 08008KT 3SM BR FEW008 BKN013 OVC018 07/05 A2999 RMK AO2 SFC VIS 6 RAE05 P0000=
201103281252 METAR KATL 281252Z 06008KT 3SM -RA BR BKN007 OVC011 07/05 A2998 RMK AO2 SFC VIS 6 RAB12E24B40 SLP156 P0001 T00670050=
201103281152 METAR KATL 281152Z 12006G16KT 3SM BKN007 BKN025 06/05 A2992 RMK AO2 WSHFT 1046 SFC VIS 10 RAE11B29E50 SLP134 P0000 60042 70085 T00610050 10083 20061 50012=
201103281105 SPECI KATL 281105Z 12013G18KT 3SM -RA SCT008 BKN016 OVC033 06/05 A2992 RMK AO2 WSHFT 1046 SFC VIS 8 PRESFR P0000=
201103281105 SPECI KATL 281105Z 12013G18KT 3SM -RA SCT008 BKN016 OVC033 06/05 A2992 RMK AO2 WSHFT 1046 SFC VIS 8 PRESFR P0000=
201103281052 METAR KATL 281052Z 08012KT 3SM -RA BR BKN006 BKN012 OVC022 07/05 A2995 RMK AO2 SFC VIS 6 TSE33 SLP141 TS MOV NE P0002 T00670050=
201103281039 SPECI KATL 281039Z 04006KT 3SM -RA BKN007 OVC013 07/06 A2998 RMK AO2 SFC VIS 7 TSE33 CIG 005V009 PRESRR TS MOV NE P0001=
201103281039 SPECI KATL 281039Z 04006KT 3SM -RA BKN007 OVC013 07/06 A2998 RMK AO2 SFC VIS 7 TSE33 CIG 005V009 PRESRR TS MOV NE P0001=
201103280952 METAR KATL 280952Z 10010KT 3SM -TSRA BR BKN009CB OVC013 07/06 A2991 RMK AO2 PK WND 34030/0904 WSHFT 0912 SFC VIS 6 TSB13RAB05 SLP129 FRQ LTGICCC W-NW TS W-NW MOV E FRQ LTG DSNT N-NE-E P0003 T00670056=
201103280932 SPECI KATL 280932Z 08010KT 3SM -TSRA BKN007CB OVC027 07/06 A2992 RMK AO2 PK WND 34030/0904 WSHFT 0912 SFC VIS 7 TSB13RAB05 FRQ LTGICCC W-NW TS W-NW MOV E FRQ LTG DSNT N-NE P0001=
201103280932 SPECI KATL 280932Z 08010KT 3SM -TSRA BKN007CB OVC027 07/06 A2992 RMK AO2 PK WND 34030/0904 WSHFT 0912 SFC VIS 7 TSB13RAB05 FRQ LTGICCC W-NW TS W-NW MOV E FRQ LTG DSNT N-NE P0001=
201103280916 SPECI KATL 280916Z 03012KT 3SM -TSRA BKN007CB OVC027 07/06 A2994 RMK AO2 PK WND 34030/0904 WSHFT 0859 SFC VIS 7 TSB13RAB05 CONS LTGICCC SW-W TS SW-W TS SW-W MOV E FRQ LTG DSNT NW-NE P0001=
201103280916 SPECI KATL 280916Z 03012KT 3SM -TSRA BKN007CB OVC027 07/06 A2994 RMK AO2 PK WND 34030/0904 WSHFT 0859 SFC VIS 7 TSB13RAB05 CONS LTGICCC SW-W TS SW-W TS SW-W MOV E FRQ LTG DSNT NW-NE P0001=
201103280904 SPECI KATL 280904Z 35022G30KT 3SM BKN007 OVC029 08/07 A2998 RMK AO2 PK WND 34030/0904 SFC VIS 7 CIG 004V010 PRESRR CONS LTGICCC DSNT W-NW=
201103280904 SPECI KATL 280904Z 35022G30KT 3SM BKN007 OVC029 08/07 A2998 RMK AO2 PK WND 34030/0904 SFC VIS 7 CIG 004V010 PRESRR CONS LTGICCC DSNT W-NW=
201103280852 METAR KATL 280852Z 11007KT 3SM SCT004 BKN029 OVC051 07/06 A2989 RMK AO2 SFC VIS 7 TSE48RAE15 SLP121 TS MOV E CB DSNT NW P0033 60037 T00720061 56029=
201103280825 SPECI KATL 280825Z 12011KT 3SM TS BKN004CB OVC034 07/06 A2987 RMK AO2 SFC VIS 7 RAE15 CONS LTGICCC NE-E-SE TS NE-E-SE MOV E CB DSNT W P0033=
201103280825 SPECI KATL 280825Z 12011KT 3SM TS BKN004CB OVC034 07/06 A2987 RMK AO2 SFC VIS 7 RAE15 CONS LTGICCC NE-E-SE TS NE-E-SE MOV E CB DSNT W P0033=
201103280809 SPECI KATL 280809Z 07008G15KT 3SM -TSRA BR BKN004CB BKN013 OVC050 07/07 A2991 RMK AO2 SFC VIS 6 CONS LTGICCC OHD & ALQDS TS OHD & ALQDS MOV E P0033=
201103280809 SPECI KATL 280809Z 07008G15KT 3SM -TSRA BR BKN004CB BKN013 OVC050 07/07 A2991 RMK AO2 SFC VIS 6 CONS LTGICCC OHD & ALQDS TS OHD & ALQDS MOV E P0033=
201103280805 SPECI KATL 280805Z 11007G15KT 3SM -TSRA BR BKN007CB OVC041 07/06 A2990 RMK AO2 CONS LTGICCC SW-W-NW TS SW-W-NW MOV E P0033=
201103280805 SPECI KATL 280805Z 11007G15KT 3SM -TSRA BR BKN007CB OVC041 07/06 A2990 RMK AO2 CONS LTGICCC SW-W-NW TS SW-W-NW MOV E P0033=
201103280759 SPECI KATL 280759Z 11010G15KT 1SM R09R/3000VP6000FT +TSRA BR BKN007CB OVC041 07/06 A2990 RMK AO2 TWR VIS 3 CONS LTGICCC SW-W-NW TS SW-W-NW MOV E P0032=
201103280759 SPECI KATL 280759Z 11010G15KT 1SM R09R/3000VP6000FT +TSRA BR BKN007CB OVC041 07/06 A2990 RMK AO2 TWR VIS 3 CONS LTGICCC SW-W-NW TS SW-W-NW MOV E P0032=
201103280752 METAR KATL 280752Z 13011G14KT 3SM R09R/3000VP6000FT +TSRA BKN007CB BKN011 OVC017 08/07 A2994 RMK AO2 SFC VIS 7 TSB23RAB20 SLP140 CONS LTGICCC OHD-W-NW TS OHD-W-NW MOV E P0004 T00780067=
201103280744 SPECI KATL 280744Z 07012KT 3SM -TSRA BKN007CB BKN011 OVC017 08/07 A2990 RMK AO2 SFC VIS 7 TSB23RAB20 COM LTGICCC OHD-W-NW TS OHD-W-NW MOV E P0002=
201103280744 SPECI KATL 280744Z 07012KT 3SM -TSRA BKN007CB BKN011 OVC017 08/07 A2990 RMK AO2 SFC VIS 7 TSB23RAB20 COM LTGICCC OHD-W-NW TS OHD-W-NW MOV E P0002=
201103280740 SPECI KATL 280740Z 03012KT 3SM -TSRA BKN007CB BKN011 OVC017 08/07 A2992 RMK AO2 SFC VIS 7 TSB23RAB20 FRQ LTGIC NE-SE & W-NW TS NE-SE & W-NW MOV E P0002=
201103280740 SPECI KATL 280740Z 03012KT 3SM -TSRA BKN007CB BKN011 OVC017 08/07 A2992 RMK AO2 SFC VIS 7 TSB23RAB20 FRQ LTGIC NE-SE & W-NW TS NE-SE & W-NW MOV E P0002=
201103280724 SPECI KATL 280724Z 06008KT 3SM TSRA OVC007CB 08/07 A2992 RMK AO2 SFC VIS 7 TSB23RAB20 FRQ LTGIC N & W TS N & W MOV E P0002=
201103280724 SPECI KATL 280724Z 06008KT 3SM TSRA OVC007CB 08/07 A2992 RMK AO2 SFC VIS 7 TSB23RAB20 FRQ LTGIC N & W TS N & W MOV E P0002=
201103280652 METAR KATL 280652Z 10011KT 3SM BKN005 OVC070 08/07 A2991 RMK AO2 WSHFT 0544 SFC VIS 7 TSE21RAE0558 CIG 004V008 SLP129 OCNL LTGIC DSNT W P0000 T00780067=
201103280627 SPECI KATL 280627Z 10011KT 3SM BKN007 OVC075 08/07 A2991 RMK AO2 WSHFT 0544 SFC VIS 8 TSE21RAE0558 CIG 003V010 OCNL LTGIC DSNT E-ES TS MOV E P0000=
201103280627 SPECI KATL 280627Z 10011KT 3SM BKN007 OVC075 08/07 A2991 RMK AO2 WSHFT 0544 SFC VIS 8 TSE21RAE0558 CIG 003V010 OCNL LTGIC DSNT E-ES TS MOV E P0000=
201103280604 SPECI KATL 280604Z 08013KT 1/2SM TS FEW002 BKN007CB OVC012 08/07 A2993 RMK AO2 WSHFT 0544 SFC VIS 10 RAE0558 PRESFR OCNL LTGIC E-ES TS E-SE MOV E-NE P0000=
201103280604 SPECI KATL 280604Z 08013KT 1/2SM TS FEW002 BKN007CB OVC012 08/07 A2993 RMK AO2 WSHFT 0544 SFC VIS 10 RAE0558 PRESFR OCNL LTGIC E-ES TS E-SE MOV E-NE P0000=
201103280552 METAR KATL 280552Z COR 05011KT 1/2SM -TSRA BR FEW002CB BKN005 OVC014 08/07 A2997 RMK AO2 SFC VIS 6 RAB0457 SLP151 FRQ LTGIC NE-E-SE-S-SW FRQ LTGCG DSNT SW TS NE-E-SE-S-SW MOV NE CB DSNT SW P0041 60043 T00830072 10=
201103280525 SPECI KATL 280525Z 01011KT 1/2SM R09R/5500VP6000FT +TSRA BR OVC002CB 08/07 A3000 RMK AO2 SFC VIS 1 1/2 RAB0457 PRESRR CON LTGIC E-SE-S-W CON LTGCG DSNT SW TS E-SE-S-W MOV NE CB DSNT SW P0028=
201103280525 SPECI KATL 280525Z 01011KT 1/2SM R09R/5500VP6000FT +TSRA BR OVC002CB 08/07 A3000 RMK AO2 SFC VIS 1 1/2 RAB0457 PRESRR CON LTGIC E-SE-S-W CON LTGCG DSNT SW TS E-SE-S-W MOV NE CB DSNT SW P0028=
201103280452 METAR KATL 280452Z 10007KT 1/2SM TS BR OVC002CB 08/08 A2995 RMK AO2 SFC VIS 1 1/2 RAE08 PRESRR SLP142 FRQ LTGIC W FRQ LTGCG DSNT SW TS OHD-S-W MOV NE CB DSNT SW P0000 T00830078 401440083=
201103280358 SPECI KATL 280358Z 12012G19KT 1/2SM -TSRA BR OVC004CB 09/08 A2991 RMK AO2 SFC VIS 1 1/2 OCNL LTGIC OHD-S-SW OCNL LTG DSNT W TS OHD-S-SW MOV E CB DSNT W P0000=
201103280358 SPECI KATL 280358Z 12012G19KT 1/2SM -TSRA BR OVC004CB 09/08 A2991 RMK AO2 SFC VIS 1 1/2 OCNL LTGIC OHD-S-SW OCNL LTG DSNT W TS OHD-S-SW MOV E CB DSNT W P0000=
201103280352 METAR KATL 280352Z 09018KT 1 1/2SM -TSRA BR OVC004CB 09/08 A2989 RMK AO2 TWR VIS 2 TSB27RAB17 PRESFR SLP121 OCNL LTGIC OHD-S-SW OCNL LTG DSNT W TS OHD-S-SW MOV E CB DSNT W CIG 003V007 P0002 T00890078=
201103280327 SPECI KATL 280327Z 07012KT 2SM -TSRA BR OVC003CB 09/08 A2996 RMK AO2 TSB27RAB17 OCNL LTGIC SW-W TS SW-W MOV E P0000=
201103280327 SPECI KATL 280327Z 07012KT 2SM -TSRA BR OVC003CB 09/08 A2996 RMK AO2 TSB27RAB17 OCNL LTGIC SW-W TS SW-W MOV E P0000=
201103280252 METAR KATL 280252Z 08011KT 2SM BR OVC004 10/09 A2996 RMK AO2 DZE36 SLP144 CIG 003V007 P0000 60000 T01000089 51018=
201103280227 SPECI KATL 280227Z 10008KT 2SM -DZ BR BKN003 OVC010 10/09 A2996 RMK AO2 SFC VIS 2 1/2 P0000=
201103280227 SPECI KATL 280227Z 10008KT 2SM -DZ BR BKN003 OVC010 10/09 A2996 RMK AO2 SFC VIS 2 1/2 P0000=
201103280152 METAR KATL 280152Z 10006KT 1SM -DZ BR OVC003 11/09 A2995 RMK AO2 SFC VIS 1 1/2 DZB33 SLP144 P0000 T01060094=
201103280139 SPECI KATL 280139Z 09007KT 1SM -DZ BR OVC004 11/10 A2995 RMK AO2 SFC VIS 2 DZB33 P0000=
201103280139 SPECI KATL 280139Z 09007KT 1SM -DZ BR OVC004 11/10 A2995 RMK AO2 SFC VIS 2 DZB33 P0000=
201103280126 SPECI KATL 280126Z 09008KT 1 1/2SM BR OVC004 11/09 A2995 RMK AO2 SFC VIS 2 1/2=
201103280126 SPECI KATL 280126Z 09008KT 1 1/2SM BR OVC004 11/09 A2995 RMK AO2 SFC VIS 2 1/2=
201103280118 SPECI KATL 280118Z 10008KT 4SM BR OVC004 11/10 A2994 RMK AO2=
201103280118 SPECI KATL 280118Z 10008KT 4SM BR OVC004 11/10 A2994 RMK AO2=
201103280052 METAR KATL 280052Z 12008KT 6SM BR BKN007 OVC013 11/10 A2992 RMK AO2 SLP134 T01110100=
201103280011 SPECI KATL 280011Z 12007KT 6SM BR BKN008 OVC015 13/11 A2991 RMK AO2=
201103280011 SPECI KATL 280011Z 12007KT 6SM BR BKN008 OVC015 13/11 A2991 RMK AO2=
201103272352 METAR KATL 272352Z 09006KT 6SM BR OVC017 13/11 A2990 RMK AO2 SLP125 T01330111 10144 20122 51015=
201103272340 SPECI KATL 272340Z 07008KT 6SM HZ OVC017 14/11 A2989 RMK AO2=
201103272340 SPECI KATL 272340Z 07008KT 6SM HZ OVC017 14/11 A2989 RMK AO2=
201103272252 METAR KATL 272252Z 00000KT 7SM OVC014 14/11 A2989 RMK AO2 SLP121 T01390106=
201103272152 METAR KATL 272152Z 36005KT 7SM OVC012 14/11 A2987 RMK AO2 SLP116 T01390111=
201103272052 METAR KATL 272052Z 35007KT 320V030 6SM HZ OVC012 14/11 A2986 RMK AO2 SLP109 T01440111 55008=
201103271952 METAR KATL 271952Z 35007KT 6SM BR OVC009 13/11 A2985 RMK AO2 SLP106 T01330111=
201103271932 SPECI KATL 271932Z VRB05KT 6SM BR BKN007 OVC032 13/11 A2985 RMK AO2=
201103271932 SPECI KATL 271932Z VRB05KT 6SM BR BKN007 OVC032 13/11 A2985 RMK AO2=
201103271852 METAR KATL 271852Z 33006KT 6SM BR SCT009 OVC032 12/10 A2986 RMK AO2 SLP111 T01220100=
201103271752 METAR KATL 271752Z VRB03KT 4SM BR OVC007 12/11 A2988 RMK AO2 SLP116 T01220106 10122 20089 50006=
201103271652 METAR KATL 271652Z 26004KT 2 1/2SM BR OVC004 11/10 A2989 RMK AO2 SLP122 T01060100=
201103271552 METAR KATL 271552Z VRB03KT 2 1/2SM BR OVC004 11/09 A2988 RMK AO2 SLP118 T01060094=
201103271515 SPECI KATL 271515Z 36004KT 2 1/2SM BR OVC004 11/09 A2988 RMK AO2=
201103271515 SPECI KATL 271515Z 36004KT 2 1/2SM BR OVC004 11/09 A2988 RMK AO2=
201103271500 SPECI KATL 271500Z 01005KT 1 1/2SM BR OVC004 11/09 A2987 RMK AO2 SFC VIS 2 1/2=
201103271500 SPECI KATL 271500Z 01005KT 1 1/2SM BR OVC004 11/09 A2987 RMK AO2 SFC VIS 2 1/2=
201103271452 METAR KATL 271452Z 01006KT 1SM BR OVC004 11/09 A2986 RMK AO2 SFC VIS 2 1/2 SLP112 T01060094 51020=
201103271430 SPECI KATL 271430Z 01007KT 1SM BR OVC004 11/09 A2985 RMK AO2 SFC VIS 3=
201103271430 SPECI KATL 271430Z 01007KT 1SM BR OVC004 11/09 A2985 RMK AO2 SFC VIS 3=
201103271352 METAR KATL 271352Z 05006KT 1/4SM BR OVC004 10/08 A2985 RMK AO2 SFC VIS 2 1/2 SLP109 T01000083=
201103271252 METAR KATL 271252Z 11003KT 7SM BKN004 OVC020 09/08 A2981 RMK AO2 TSE11 SLP096 BINOVC T00890078=
201103271212 SPECI KATL 271212Z 04006KT 9SM BKN004 OVC020 09/08 A2980 RMK AO2 TSE11 TS MOVD E=
201103271212 SPECI KATL 271212Z 04006KT 9SM BKN004 OVC020 09/08 A2980 RMK AO2 TSE11 TS MOVD E=
201103271152 METAR KATL 271152Z 08006KT 8SM TS BKN004CB OVC015 09/08 A2980 RMK AO2 TSB21RAE41 SLP092 OCNL LTGIC SE-S TS SE-S MOV E P0022 60165 70302 T00890083 10139 20089 51024=
201103271122 SPECI KATL 271122Z 04008KT 5SM -TSRA BR BKN004CB OVC012 09/08 A2980 RMK AO2 TSB21 OCNL LTGICCG S-SW MOV E TS S-SW MOV E P0006=
201103271122 SPECI KATL 271122Z 04008KT 5SM -TSRA BR BKN004CB OVC012 09/08 A2980 RMK AO2 TSB21 OCNL LTGICCG S-SW MOV E TS S-SW MOV E P0006=
201103271052 METAR KATL 271052Z 03013G19KT 5SM R09R/6000VP6000FT +RA BR BKN004CB OVC012 09/09 A2979 RMK AO2 TSE04RAB48 SLP087 CB NW-N MOV E VIS LWR SE-SW P0003 T00940089=
201103271005 SPECI KATL 271005Z 07007KT 10SM BKN003 OVC012 10/09 A2976 RMK AO2 TSE04 OCNL LTGIC DSNT E TS MOVD E CB DSNT E MOV E=
201103271005 SPECI KATL 271005Z 07007KT 10SM BKN003 OVC012 10/09 A2976 RMK AO2 TSE04 OCNL LTGIC DSNT E TS MOVD E CB DSNT E MOV E=
201103270952 METAR KATL 270952Z 04008KT 10SM TS BKN003CB OVC008 10/09 A2976 RMK AO2 RAE49 SLP077 OCNL LTGIC E TS E MOV E P0019 T01000094=
201103270907 SPECI KATL 270907Z 13003KT 4SM -TSRA BR BKN002CB OVC008 11/10 A2973 RMK AO2 FRQ LTGICCG NE-SE TS NE-SE MOV E P0019=
201103270907 SPECI KATL 270907Z 13003KT 4SM -TSRA BR BKN002CB OVC008 11/10 A2973 RMK AO2 FRQ LTGICCG NE-SE TS NE-SE MOV E P0019=
201103270857 SPECI KATL 270857Z 05006KT 2SM R09R/2200VP6000FT +TSRA BR BKN002CB OVC008 11/10 A2974 RMK AO2 FRQ LTGICCG OHD-NE-SE-SW TS OHD-NE-SE-SW MOV E P0014=
201103270857 SPECI KATL 270857Z 05006KT 2SM R09R/2200VP6000FT +TSRA BR BKN002CB OVC008 11/10 A2974 RMK AO2 FRQ LTGICCG OHD-NE-SE-SW TS OHD-NE-SE-SW MOV E P0014=
201103270852 METAR KATL 270852Z 08009KT 1 1/2SM R09R/2200VP6000FT +TSRA BR BKN002CB OVC008 11/10 A2973 RMK AO2 TSB05 SLP066 VIS S 3/4 FRQ LTGICCG OHD-NE-SE-SW TS OHD-NE-SE-SW MOV E P0115 60121 T01060100 50002=
201103270844 SPECI KATL 270844Z 06011KT 3SM +TSRA BR BKN002CB OVC010 11/10 A2974 RMK AO2 TSB05 FRQ LTGICCG E-SE & SW-W TS E-SE & SW-W MOV E P0073=
201103270844 SPECI KATL 270844Z 06011KT 3SM +TSRA BR BKN002CB OVC010 11/10 A2974 RMK AO2 TSB05 FRQ LTGICCG E-SE & SW-W TS E-SE & SW-W MOV E P0073=
201103270836 SPECI KATL 270836Z 04010KT 2SM R09R/4000VP6000FT +TSRA BR OVC002CB 11/10 A2974 RMK AO2 TSB05 FRQ LTGICCG OHD-E-S TS OHD-E-S MOV E P0067=
201103270836 SPECI KATL 270836Z 04010KT 2SM R09R/4000VP6000FT +TSRA BR OVC002CB 11/10 A2974 RMK AO2 TSB05 FRQ LTGICCG OHD-E-S TS OHD-E-S MOV E P0067=
201103270810 SPECI KATL 270810Z 04008KT 1 1/2SM R09R/5500VP6000FT +TSRA BR BKN002CB OVC015 12/11 A2975 RMK AO2 TSB05 FRQ LTGICCG ALQDS TS ALQDS MOV E P0008=
201103270810 SPECI KATL 270810Z 04008KT 1 1/2SM R09R/5500VP6000FT +TSRA BR BKN002CB OVC015 12/11 A2975 RMK AO2 TSB05 FRQ LTGICCG ALQDS TS ALQDS MOV E P0008=
201103270805 SPECI KATL 270805Z 05005KT 5SM -TSRA BR BKN002CB OVC015 12/11 A2976 RMK AO2 TSB05 OCNL LTGICCG W TS W MOV E P0000=
201103270805 SPECI KATL 270805Z 05005KT 5SM -TSRA BR BKN002CB OVC015 12/11 A2976 RMK AO2 TSB05 OCNL LTGICCG W TS W MOV E P0000=
201103270752 METAR KATL 270752Z 05008KT 5SM -RA BR BKN002 OVC015 12/12 A2974 RMK AO2 TSE11RAE0654B11E31B52 SLP069 OCNL LTGIC DSNT W CB DSNT W MOV E P0001 T01220117=
201103270712 SPECI KATL 270712Z 09007KT 6SM -RA BR BKN004 OVC015 13/12 A2974 RMK AO2 TSE11RAE0654B11 TS DSIPT P0000=
201103270712 SPECI KATL 270712Z 09007KT 6SM -RA BR BKN004 OVC015 13/12 A2974 RMK AO2 TSE11RAE0654B11 TS DSIPT P0000=
201103270652 METAR KATL 270652Z 05008KT 8SM -TSRA SCT004CB BKN015 OVC050 14/13 A2975 RMK AO2 TSB39 SLP071 OCNL LTGIC S TS S MOV E P0005 T01390133=
201103270640 SPECI KATL 270640Z 00000KT 7SM -TSRA SCT004CB BKN015 OVC050 14/13 A2974 RMK AO2 TSB39 OCNL LTGIC S-SW TS S-SW MOV E P0005=
201103270640 SPECI KATL 270640Z 00000KT 7SM -TSRA SCT004CB BKN015 OVC050 14/13 A2974 RMK AO2 TSB39 OCNL LTGIC S-SW TS S-SW MOV E P0005=
201103270608 SPECI KATL 270608Z 32011G22KT 8SM -RA SCT005 BKN015 OVC050 14/13 A2979 RMK AO2 OCNL LTGIC DSNT SW-W CB DSNT SW-W MOV SE P0001=
201103270608 SPECI KATL 270608Z 32011G22KT 8SM -RA SCT005 BKN015 OVC050 14/13 A2979 RMK AO2 OCNL LTGIC DSNT SW-W CB DSNT SW-W MOV SE P0001=
201103270552 METAR KATL 270552Z VRB06KT 8SM -RA BKN008 OVC015 14/13 A2972 RMK AO2 WSHFT 0441 TSE49 SLP064 OCNL LTGIC DSNT W-NW TS MOV SE CB DSNT W-NW MOV SE P0028 60137 T01390128 10156 20122 58001=
201103270550 SPECI KATL 270550Z 12005KT 8SM -RA BKN008 OVC015 14/13 A2971 RMK AO2 WSHFT 0441 TSE49 OCNL LTGIC DSNT W-NW TS MOV SE CB DSNT W-NW MOV SE P0028=
201103270550 SPECI KATL 270550Z 12005KT 8SM -RA BKN008 OVC015 14/13 A2971 RMK AO2 WSHFT 0441 TSE49 OCNL LTGIC DSNT W-NW TS MOV SE CB DSNT W-NW MOV SE P0028=
201103270526 SPECI KATL 270526Z 21008KT 3SM -TSRA BR BKN005CB BKN015 OVC046 13/12 A2978 RMK AO2 WSHFT 0441 FRQ LTGICCG NE-SE TS NE-SE MOV SE P0024=
201103270526 SPECI KATL 270526Z 21008KT 3SM -TSRA BR BKN005CB BKN015 OVC046 13/12 A2978 RMK AO2 WSHFT 0441 FRQ LTGICCG NE-SE TS NE-SE MOV SE P0024=
201103270515 SPECI KATL 270515Z 12006KT 1 1/4SM R09R/6000VP6000FT +TSRA BR BKN003CB BKN015 OVC046 13/12 A2978 RMK AO2 WSHFT 0441 FRQ LTGICCG OHD-SW-NW FRQ LTGIC DSNT E-S TS OHD-SW-NW MOV SE CB DSNT E-S MOV SE P0016=
201103270515 SPECI KATL 270515Z 12006KT 1 1/4SM R09R/6000VP6000FT +TSRA BR BKN003CB BKN015 OVC046 13/12 A2978 RMK AO2 WSHFT 0441 FRQ LTGICCG OHD-SW-NW FRQ LTGIC DSNT E-S TS OHD-SW-NW MOV SE CB DSNT E-S MOV SE P0016=
201103270512 SPECI KATL 270512Z VRB03KT 3SM R09R/6000VP6000FT +TSRA BR BKN004CB BKN015 OVC046 13/12 A2981 RMK AO2 WSHFT 0441 FRQ LGTICCG SW-NW FRQ LTGIC DSNT E-S TS SW-NW MOV SE CB DSNT E-S MOV SE P0009=
201103270512 SPECI KATL 270512Z VRB03KT 3SM R09R/6000VP6000FT +TSRA BR BKN004CB BKN015 OVC046 13/12 A2981 RMK AO2 WSHFT 0441 FRQ LGTICCG SW-NW FRQ LTGIC DSNT E-S TS SW-NW MOV SE CB DSNT E-S MOV SE P0009=
201103270457 SPECI KATL 270457Z 02013KT 5SM -TSRA BR BKN005CB OVC046 13/12 A2980 RMK AO2 WSHFT 0441 FRQ LTGICCG E-SE OCNL LGTIC DSNT W TS E-SE MOV SE CB DSNT W CIG 003V007 P0000=
201103270457 SPECI KATL 270457Z 02013KT 5SM -TSRA BR BKN005CB OVC046 13/12 A2980 RMK AO2 WSHFT 0441 FRQ LTGICCG E-SE OCNL LGTIC DSNT W TS E-SE MOV SE CB DSNT W CIG 003V007 P0000=
201103270452 METAR KATL 270452Z 01016KT 5SM -TSRA BR SCT003 BKN005CB OVC046 13/12 A2981 RMK AO2 SLP095 FRQ LTGICCG E-SE OCNL LGTIC DSNT W TS E-SE MOV SE CB DSNT W P0040 T01330122 401560117=
201103270448 SPECI KATL 270448Z 01016KT 5SM -TSRA BR SCT003 BKN005CB OVC046 14/13 A2981 RMK AO2 PRESRR FRQ LTGICCG E-S TS E-S MOV SE P0039 401560117=
201103270448 SPECI KATL 270448Z 01016KT 5SM -TSRA BR SCT003 BKN005CB OVC046 14/13 A2981 RMK AO2 PRESRR FRQ LTGICCG E-S TS E-S MOV SE P0039 401560117=
201103270429 SPECI KATL 270429Z 18007KT 2 1/2SM TSRA BR SCT003 BKN010CB OVC022 13/13 A2976 RMK AO2 CONS LTGICCG S-W TS S-W MOV SE P0027=
201103270429 SPECI KATL 270429Z 18007KT 2 1/2SM TSRA BR SCT003 BKN010CB OVC022 13/13 A2976 RMK AO2 CONS LTGICCG S-W TS S-W MOV SE P0027=
201103270422 SPECI KATL 270422Z 18009KT 4SM -TSRA BR FEW003 OVC022CB 13/12 A2975 RMK AO2 CONS LTGICCG SE & SW TS SE & SW MOV SE P0020=
201103270422 SPECI KATL 270422Z 18009KT 4SM -TSRA BR FEW003 OVC022CB 13/12 A2975 RMK AO2 CONS LTGICCG SE & SW TS SE & SW MOV SE P0020=
201103270410 SPECI KATL 270410Z 12004KT 3SM R09R/4000VP6000FT TSRA BR SCT003 BKN012CB OVC022 13/12 A2975 RMK AO2 FRQ LTGICCG E-S-SW TS E-S-SW MOV SE P0019=
201103270410 SPECI KATL 270410Z 12004KT 3SM R09R/4000VP6000FT TSRA BR SCT003 BKN012CB OVC022 13/12 A2975 RMK AO2 FRQ LTGICCG E-S-SW TS E-S-SW MOV SE P0019=
201103270405 SPECI KATL 270405Z 12004KT 1 1/2SM R09R/4000VP6000FT +TSRA BR SCT003 BKN024CB OVC031 13/12 A2974 RMK AO2 FRQ LTGICCG OHD-ALQDS TS OHD-ALQDS MOV E P0015=
201103270405 SPECI KATL 270405Z 12004KT 1 1/2SM R09R/4000VP6000FT +TSRA BR SCT003 BKN024CB OVC031 13/12 A2974 RMK AO2 FRQ LTGICCG OHD-ALQDS TS OHD-ALQDS MOV E P0015=
201103270401 SPECI KATL 270401Z VRB05KT 3SM R09R/5000VP6000FT TSRA BR FEW003 BKN024CB OVC031 13/12 A2976 RMK AO2 OCNL LTGIC NE-SE-S & SW-W TS NE-SE-S & SW-W MOV E P0001=
201103270401 SPECI KATL 270401Z VRB05KT 3SM R09R/5000VP6000FT TSRA BR FEW003 BKN024CB OVC031 13/12 A2976 RMK AO2 OCNL LTGIC NE-SE-S & SW-W TS NE-SE-S & SW-W MOV E P0001=
201103270352 METAR KATL 270352Z 04008KT 5SM -TSRA BR SCT003 BKN014CB OVC031 13/12 A2976 RMK AO2 TSB08RAB15 SLP076 OCNL LTGIC NE-SE-S & NW TS NE-SE-S & NW MOV E P0030 T01330122=
201103270350 SPECI KATL 270350Z 05004KT 5SM -TSRA BR SCT003 BKN014CB OVC023 13/12 A2976 RMK AO2 TSB08RAB15 OCNL LTGIC NE-SE-S & NW TS NE-SE-S & NW MOV E P0029=
201103270350 SPECI KATL 270350Z 05004KT 5SM -TSRA BR SCT003 BKN014CB OVC023 13/12 A2976 RMK AO2 TSB08RAB15 OCNL LTGIC NE-SE-S & NW TS NE-SE-S & NW MOV E P0029=
201103270343 SPECI KATL 270343Z VRB06KT 1SM R09R/P6000FT TSRA BR FEW003 BKN014CB OVC023 13/12 A2974 RMK AO2 TSB08RAB15 OCNL LTGIC ALQDS TS ALQDS MOV E P0019=
201103270343 SPECI KATL 270343Z VRB06KT 1SM R09R/P6000FT TSRA BR FEW003 BKN014CB OVC023 13/12 A2974 RMK AO2 TSB08RAB15 OCNL LTGIC ALQDS TS ALQDS MOV E P0019=
201103270337 SPECI KATL 270337Z 04012G24KT 3SM TSRA BR SCT003 BKN014CB OVC023 14/12 A2975 RMK AO2 TSB08RAB15 OCNL LTGIC ALQDS TS ALQDS MOV E P0014=
201103270337 SPECI KATL 270337Z 04012G24KT 3SM TSRA BR SCT003 BKN014CB OVC023 14/12 A2975 RMK AO2 TSB08RAB15 OCNL LTGIC ALQDS TS ALQDS MOV E P0014=
201103270330 SPECI KATL 270330Z 03021G24KT 2SM +TSRA BR SCT003 BKN014CB OVC028 14/12 A2974 RMK AO2 TSB08RAB15 OCNL LTGICCG ALQDS TS ALQDS MOV E P0008=
201103270330 SPECI KATL 270330Z 03021G24KT 2SM +TSRA BR SCT003 BKN014CB OVC028 14/12 A2974 RMK AO2 TSB08RAB15 OCNL LTGICCG ALQDS TS ALQDS MOV E P0008=
201103270308 SPECI KATL 270308Z VRB05KT 4SM TS BR OVC003 13/12 A2976 RMK AO2 TSB08 PRESRR FRQ LTGICCG NW-NE TS NW-NE MOV E CIG 002V005=
201103270308 SPECI KATL 270308Z VRB05KT 4SM TS BR OVC003 13/12 A2976 RMK AO2 TSB08 PRESRR FRQ LTGICCG NW-NE TS NW-NE MOV E CIG 002V005=
201103270258 SPECI KATL 270258Z 14009KT 5SM BR SCT004 BKN017 BKN120 13/12 A2971 RMK AO2 FRQ LTGICCG DSNT NW-NE CB DSNT NW-NE=
201103270258 SPECI KATL 270258Z 14009KT 5SM BR SCT004 BKN017 BKN120 13/12 A2971 RMK AO2 FRQ LTGICCG DSNT NW-NE CB DSNT NW-NE=
201103270252 METAR KATL 270252Z 13007KT 4SM BR BKN004 BKN017 OVC046 13/12 A2973 RMK AO2 TSE40RAB0157E34 SLP064 FRQ LTGICCG DSNT N-NE & SE & NW-N TS MOV SE P0039 60039 T01280117 56006=
201103270240 SPECI KATL 270240Z 16006KT 4SM BR BKN003 BKN015 OVC027 12/12 A2973 RMK AO2 TSE40RAB0157E34 CIG 001V007 FRQ LTGICCG DSNT N-NE & SE &=
201103270240 SPECI KATL 270240Z 16006KT 4SM BR BKN003 BKN015 OVC027 12/12 A2973 RMK AO2 TSE40RAB0157E34 CIG 001V007 FRQ LTGICCG DSNT N-NE & SE &=
201103270231 SPECI KATL 270231Z VRB05G17KT 3SM -TSRA BR FEW003 BKN005CB OVC047 12/12 A2974 RMK AO2 RAB0157 FRQ LTGICCG SE TS SE MOV SE P0039=
201103270231 SPECI KATL 270231Z VRB05G17KT 3SM -TSRA BR FEW003 BKN005CB OVC047 12/12 A2974 RMK AO2 RAB0157 FRQ LTGICCG SE TS SE MOV SE P0039=
201103270220 SPECI KATL 270220Z 12008KT 1 1/2SM R09R/4000VP6000FT +TSRA BR OVC005CB 12/12 A2975 RMK AO2 RAB0157 FRQ LTGICCG OHD-ALQDS TS OHD-ALQDS MOV E P0024=
201103270220 SPECI KATL 270220Z 12008KT 1 1/2SM R09R/4000VP6000FT +TSRA BR OVC005CB 12/12 A2975 RMK AO2 RAB0157 FRQ LTGICCG OHD-ALQDS TS OHD-ALQDS MOV E P0024=
201103270214 SPECI KATL 270214Z VRB05KT 2 1/2SM +TSRA BR OVC005CB 12/12 A2975 RMK AO2 RAB0157 FRQ LTGICCG OHD-S-W-NW TS OHD-S-W-NW MOV E P0009=
201103270214 SPECI KATL 270214Z VRB05KT 2 1/2SM +TSRA BR OVC005CB 12/12 A2975 RMK AO2 RAB0157 FRQ LTGICCG OHD-S-W-NW TS OHD-S-W-NW MOV E P0009=
201103270152 METAR KATL 270152Z 09010KT 7SM TS OVC005CB 13/11 A2975 RMK AO2 TSB43 SLP071 FRQ LTGICCG W-NW TS W-NW MOV E T01280111=
201103270143 SPECI KATL 270143Z 11008KT 7SM TS OVC005CB 13/11 A2974 RMK AO2 TSB43 OCNL LTGICCG W-NW TS W-NW MOV E=
201103270143 SPECI KATL 270143Z 11008KT 7SM TS OVC005CB 13/11 A2974 RMK AO2 TSB43 OCNL LTGICCG W-NW TS W-NW MOV E=
201103270052 METAR KATL 270052Z 13007KT 7SM BKN005 OVC020 13/11 A2972 RMK AO2 SLP063 T01280111=
201103270033 SPECI KATL 270033Z 12009KT 7SM BKN008 BKN020 13/11 A2973 RMK AO2 PRESFR=
201103270033 SPECI KATL 270033Z 12009KT 7SM BKN008 BKN020 13/11 A2973 RMK AO2 PRESFR=
201103270011 SPECI KATL 270011Z 11008KT 7SM FEW008 OVC017 13/11 A2975 RMK AO2=
201103270011 SPECI KATL 270011Z 11008KT 7SM FEW008 OVC017 13/11 A2975 RMK AO2=
201103270005 SPECI KATL 270005Z 12010KT 7SM BKN017 OVC065 13/11 A2975 RMK AO2=
201103270005 SPECI KATL 270005Z 12010KT 7SM BKN017 OVC065 13/11 A2975 RMK AO2=
201103262352 METAR KATL 262352Z 11007KT 7SM FEW017 BKN065 OVC100 13/11 A2975 RMK AO2 SLP071 60000 T01330111 10150 20133 57005=
201103262331 SPECI KATL 262331Z 10008KT 7SM FEW009 SCT020 BKN065 BKN250 13/11 A2975 RMK AO2=
201103262331 SPECI KATL 262331Z 10008KT 7SM FEW009 SCT020 BKN065 BKN250 13/11 A2975 RMK AO2=
201103262314 SPECI KATL 262314Z 08010KT 7SM FEW007 BKN018 BKN075 13/11 A2976 RMK AO2=
201103262314 SPECI KATL 262314Z 08010KT 7SM FEW007 BKN018 BKN075 13/11 A2976 RMK AO2=
201103262259 SPECI KATL 262259Z 07010KT 9SM BKN024 BKN070 13/11 A2976 RMK AO2=
201103262259 SPECI KATL 262259Z 07010KT 9SM BKN024 BKN070 13/11 A2976 RMK AO2=
201103262252 METAR KATL 262252Z 06007KT 7SM FEW010 SCT024 BKN055 13/11 A2976 RMK AO2 TSE39RAE16 SLP075 TS MOV NE P0000 T01330111=
201103262239 SPECI KATL 262239Z 06005KT 7SM FEW010 SCT024 OVC060 14/11 A2976 RMK AO2 TSE39RAE16 TS MOV NE P0000=
201103262239 SPECI KATL 262239Z 06005KT 7SM FEW010 SCT024 OVC060 14/11 A2976 RMK AO2 TSE39RAE16 TS MOV NE P0000=
201103262152 METAR KATL 262152Z 09009KT 7SM -TSRA FEW012 SCT032CB BKN040 OVC150 13/11 A2975 RMK AO2 TSB15 SLP073 FRQ LTGICCG NW TS NW MOV NE P0000 T01330111=
201103262115 SPECI KATL 262115Z 09010KT 7SM -TSRA FEW012 SCT042CB BKN095 OVC150 13/11 A2976 RMK AO2 TSB15 OCNL LTGIC NW TS NW MOV NE P0000=
201103262115 SPECI KATL 262115Z 09010KT 7SM -TSRA FEW012 SCT042CB BKN095 OVC150 13/11 A2976 RMK AO2 TSB15 OCNL LTGIC NW TS NW MOV NE P0000=
201103262052 METAR KATL 262052Z 08009KT 8SM -RA BKN012 BKN050 OVC150 14/11 A2976 RMK AO2 TSE25RAE32B51 SLP076 CB DSNT SE-SW P0000 60000 T01390106 56032=
201103262025 SPECI KATL 262025Z 08008KT 8SM -RA BKN012 BKN031 BKN070 OVC150 14/11 A2979 RMK AO2 TSE25 OCNL LTGIC DSNT NE CB DSNT NE & E & SE & SW P0000=
201103262025 SPECI KATL 262025Z 08008KT 8SM -RA BKN012 BKN031 BKN070 OVC150 14/11 A2979 RMK AO2 TSE25 OCNL LTGIC DSNT NE CB DSNT NE & E & SE & SW P0000=
201103261952 METAR KATL 261952Z 09009G15KT 050V150 10SM -TSRA BKN012CB BKN020 OVC046 14/09 A2978 RMK AO2 TSB44RAB04E23B50 SLP081 OCNL LTGICCG E TS E MOV NE CB N-NE & SW-N MOV NE SHRA N-NE P0000 T01390089=
201103261945 SPECI KATL 261945Z 06010KT 10SM TS BKN012CB BKN020 OVC046 14/09 A2979 RMK AO2 TSB44RAB04E23 OCNL LTGICCG E TS E MOV NE CB N-NE &=
201103261945 SPECI KATL 261945Z 06010KT 10SM TS BKN012CB BKN020 OVC046 14/09 A2979 RMK AO2 TSB44RAB04E23 OCNL LTGICCG E TS E MOV NE CB N-NE &=
201103261852 METAR KATL 261852Z COR 07009KT 10SM OVC014CB 14/09 A2982 RMK AO2 SLP096 CB NW-N MOV NE CB DSNT SW-W T01390094=
201103261752 METAR KATL 261752Z 08008KT 8SM OVC011 14/09 A2986 RMK AO2 SLP110 60000 T01390089 10150 20117 58013=
201103261734 SPECI KATL 261734Z 08009KT 8SM OVC011 13/09 A2987 RMK AO2=
201103261734 SPECI KATL 261734Z 08009KT 8SM OVC011 13/09 A2987 RMK AO2=
201103261652 METAR KATL 261652Z 10007KT 7SM BKN005 OVC009 12/10 A2989 RMK AO2 DZE40 SLP120 P0000 T01220100=
201103261641 SPECI KATL 261641Z 08009KT 6SM BR BKN005 OVC009 12/10 A2989 RMK AO2 DZE40 CB DSNT N P0000=
201103261641 SPECI KATL 261641Z 08009KT 6SM BR BKN005 OVC009 12/10 A2989 RMK AO2 DZE40 CB DSNT N P0000=
201103261625 SPECI KATL 261625Z 08010KT 2SM -DZ BR OVC005 12/11 A2990 RMK AO2 CB DSNT NW P0000=
201103261625 SPECI KATL 261625Z 08010KT 2SM -DZ BR OVC005 12/11 A2990 RMK AO2 CB DSNT NW P0000=
201103261556 SPECI KATL 261556Z 04011KT 1SM R09R/P6000FT -DZ BR BKN005 OVC012 13/12 A2991 RMK AO2 CB DSNT NW P0000=
201103261556 SPECI KATL 261556Z 04011KT 1SM R09R/P6000FT -DZ BR BKN005 OVC012 13/12 A2991 RMK AO2 CB DSNT NW P0000=
201103261552 METAR KATL 261552Z 05008KT 1 1/2SM -DZ BR BKN005 OVC012 13/12 A2992 RMK AO2 SLP129 CB DSNT NW P0000 T01330117=
201103261452 METAR KATL 261452Z 34006KT 3/4SM R09R/P6000FT -DZ BR OVC008CB 13/12 A2990 RMK AO2 TWR VIS 1 1/2 DZB39 SLP123 OCNL LTGIC DSNT NE CB NE-SE-SW MOV SE CB DSNT NE & SW P0000 60000 T01330117 51018=
201103261439 SPECI KATL 261439Z 33007KT 2 1/2SM -DZ BR OVC008CB 14/12 A2990 RMK AO2 DZB39 OCNL LTGIC DSNT NE CB N-NE-OHD-SW MOV SE CB DSNT N-NE & SW P0000=
201103261439 SPECI KATL 261439Z 33007KT 2 1/2SM -DZ BR OVC008CB 14/12 A2990 RMK AO2 DZB39 OCNL LTGIC DSNT NE CB N-NE-OHD-SW MOV SE CB DSNT N-NE & SW P0000=
201103261431 SPECI KATL 261431Z 31007G14KT 6SM HZ OVC008CB 15/12 A2990 RMK AO2 OCNL LTGIC DSNT NE CB N-NE-OHD-SW MOV SE CB DSNT N-NE & SW=
201103261431 SPECI KATL 261431Z 31007G14KT 6SM HZ OVC008CB 15/12 A2990 RMK AO2 OCNL LTGIC DSNT NE CB N-NE-OHD-SW MOV SE CB DSNT N-NE & SW=
201103261352 METAR KATL 261352Z 20004KT 7SM OVC008 14/11 A2988 RMK AO2 SLP114 T01440111=
201103261252 METAR KATL 261252Z 24005KT 9SM OVC008 14/09 A2987 RMK AO2 SLP113 T01390089=
201103261209 SPECI KATL 261209Z 21005KT 10SM BKN008 OVC060 13/06 A2985 RMK AO2=
201103261209 SPECI KATL 261209Z 21005KT 10SM BKN008 OVC060 13/06 A2985 RMK AO2=
201103261152 METAR KATL 261152Z 22005KT 10SM BKN010 BKN060 OVC100 13/06 A2985 RMK AO2 SLP104 T01280056 10139 20122 55004=
201103261146 SPECI KATL 261146Z 21006KT 10SM BKN010 BKN060 OVC100 13/06 A2984 RMK AO2=
201103261146 SPECI KATL 261146Z 21006KT 10SM BKN010 BKN060 OVC100 13/06 A2984 RMK AO2=
201103261052 METAR KATL 261052Z 21006KT 10SM FEW060 SCT100 BKN200 13/04 A2984 RMK AO2 SLP102 T01280044=
201103260952 METAR KATL 260952Z 19003KT 10SM SCT060 BKN200 12/04 A2986 RMK AO2 SLP107 T01220044=
201103260852 METAR KATL 260852Z 19003KT 10SM SCT065 SCT200 13/04 A2986 RMK AO2 SLP107 T01280039 58011=
201103260752 METAR KATL 260752Z 00000KT 10SM BKN065 13/04 A2987 RMK AO2 SLP112 T01330044=
201103260652 METAR KATL 260652Z 00000KT 10SM BKN070 12/04 A2988 RMK AO2 SLP117 T01220039=
201103260552 METAR KATL 260552Z 00000KT 10SM FEW050 14/03 A2989 RMK AO2 SLP120 T01390033 10172 20133 58010=
201103260452 METAR KATL 260452Z 00000KT 10SM FEW055 14/03 A2991 RMK AO2 SLP125 T01440028 402000033=
201103260352 METAR KATL 260352Z 22005KT 10SM FEW080 14/03 A2992 RMK AO2 SLP130 T01390028=
201103260252 METAR KATL 260252Z 24003KT 10SM FEW080 16/02 A2992 RMK AO2 SLP131 T01610022 51007=
201103260152 METAR KATL 260152Z 25004KT 10SM FEW060 BKN075 17/02 A2992 RMK AO2 SLP131 T01670022=
201103260052 METAR KATL 260052Z 20004KT 10SM FEW090 16/02 A2991 RMK AO2 SLP129 T01560022=
201103252352 METAR KATL 252352Z 21006KT 10SM FEW100 SCT250 17/02 A2990 RMK AO2 SLP126 T01720022 10200 20150 55003=
201103252252 METAR KATL 252252Z 21007KT 10SM FEW100 19/01 A2989 RMK AO2 SLP123 T01940006=
201103252152 METAR KATL 252152Z 27006KT 10SM FEW100 19/01 A2990 RMK AO2 SLP126 T01940011=
201103252052 METAR KATL 252052Z 32007KT 10SM FEW150 20/02 A2991 RMK AO2 SLP128 T02000022 56019=
201103251952 METAR KATL 251952Z VRB03KT 10SM CLR 19/02 A2993 RMK AO2 SLP133 T01890022=
201103251852 METAR KATL 251852Z VRB04KT 10SM CLR 17/03 A2995 RMK AO2 SLP142 T01720028=
201103251752 METAR KATL 251752Z 15004KT 10SM FEW250 15/02 A2997 RMK AO2 SLP149 T01500022 10156 20033 58021=
201103251652 METAR KATL 251652Z 12006KT 10SM FEW250 14/03 A3000 RMK AO2 SLP159 T01440028=
201103251552 METAR KATL 251552Z 10005KT 10SM FEW250 12/02 A3001 RMK AO2 SLP165 T01170017=
201103251452 METAR KATL 251452Z 11007KT 10SM FEW250 11/02 A3003 RMK AO2 SLP172 T01060017 53004=
201103251352 METAR KATL 251352Z 10006KT 10SM FEW250 09/01 A3001 RMK AO2 SLP165 T00890011=
201103251252 METAR KATL 251252Z 06005KT 10SM SCT250 07/01 A3001 RMK AO2 SLP164 T00670006=
201103251152 METAR KATL 251152Z 32004KT 10SM FEW250 03/00 A3002 RMK AO2 SLP168 T00330000 10061 20033 53015=
201103251052 METAR KATL 251052Z 32005KT 10SM CLR 03/01 A3000 RMK AO2 SLP161 T00330006=
201103250952 METAR KATL 250952Z 31006KT 10SM CLR 04/01 A2998 RMK AO2 SLP154 T00390006=
201103250852 METAR KATL 250852Z 35007KT 10SM CLR 05/01 A2998 RMK AO2 SLP151 T00500006 54000=
201103250752 METAR KATL 250752Z 31005KT 10SM CLR 05/01 A2998 RMK AO2 SLP153 T00500006=
201103250652 METAR KATL 250652Z 33004KT 10SM CLR 06/01 A2997 RMK AO2 SLP149 T00560006=
201103250552 METAR KATL 250552Z 33006KT 10SM CLR 06/01 A2998 RMK AO2 SLP150 T00610006 10128 20061 58001=
201103250452 METAR KATL 250452Z 34007KT 10SM CLR 07/00 A2998 RMK AO2 SLP151 T00720000 402110072=
201103250352 METAR KATL 250352Z 34007KT 10SM CLR 08/00 A2998 RMK AO2 SLP153 T00780000=
201103250252 METAR KATL 250252Z 35008KT 10SM CLR 09/M01 A2998 RMK AO2 SLP152 T00891006 51011=
201103250152 METAR KATL 250152Z 36013G21KT 10SM CLR 10/00 A2998 RMK AO2 SLP151 T01000000=
201103250052 METAR KATL 250052Z 34013G19KT 10SM CLR 12/00 A2996 RMK AO2 SLP145 T01170000=
201103242352 METAR KATL 242352Z 34017KT 10SM CLR 13/01 A2994 RMK AO2 SLP139 T01280006 10183 20128 53019=
201103242252 METAR KATL 242252Z 35014G22KT 10SM FEW060 15/02 A2992 RMK AO2 PK WND 33029/2200 SLP129 T01500017=
201103242152 METAR KATL 242152Z 33017G24KT 10SM FEW060 17/02 A2990 RMK AO2 SLP120 T01670022=
201103242052 METAR KATL 242052Z 32016G27KT 10SM FEW060 17/02 A2989 RMK AO2 PK WND 31032/2018 SLP117 T01720022 55000=
201103241952 METAR KATL 241952Z 33016G24KT 10SM FEW060 18/03 A2988 RMK AO2 PK WND 30027/1931 SLP114 T01780028=
201103241852 METAR KATL 241852Z 32014G22KT 10SM FEW060 18/03 A2988 RMK AO2 PK WND 31026/1828 SLP113 T01780028=
201103241752 METAR KATL 241752Z 27015G22KT 10SM FEW055 18/03 A2989 RMK AO2 SLP114 T01780033 10178 20117 50000=
201103241652 METAR KATL 241652Z 33015G20KT 10SM FEW055 17/03 A2989 RMK AO2 SLP117 T01670028=
201103241552 METAR KATL 241552Z 31013G20KT 10SM FEW050 16/03 A2990 RMK AO2 PK WND 30026/1502 SLP119 T01560028=
201103241452 METAR KATL 241452Z 32013G19KT 10SM FEW040 14/03 A2989 RMK AO2 SLP115 T01440028 51017=
201103241352 METAR KATL 241352Z 32013G21KT 10SM CLR 13/03 A2987 RMK AO2 SLP110 T01330033=
201103241252 METAR KATL 241252Z 33010G17KT 10SM FEW035 13/04 A2986 RMK AO2 SLP106 T01280039=
201103241152 METAR KATL 241152Z 32009KT 10SM CLR 12/04 A2984 RMK AO2 SLP099 60007 70007 T01220044 10211 20122 53030=
201103241052 METAR KATL 241052Z 33011KT 10SM CLR 13/07 A2981 RMK AO2 SLP088 T01330072=
201103240952 METAR KATL 240952Z 29008KT 10SM CLR 15/07 A2977 RMK AO2 SLP074 T01500067=
201103240852 METAR KATL 240852Z 27010KT 10SM CLR 16/11 A2974 RMK AO2 SLP065 60007 T01610111 51007=
201103240752 METAR KATL 240752Z 27010G18KT 10SM FEW100 17/13 A2974 RMK AO2 SLP062 T01670133=
201103240652 METAR KATL 240652Z 28010KT 10SM FEW014 SCT027 OVC080 18/14 A2973 RMK AO2 RAB22E47 SLP060 P0007 T01780144=
201103240632 SPECI KATL 240632Z 28014G23KT 3SM RA FEW008 SCT041 BKN055 18/14 A2974 RMK AO2 RAB22 PRESRR P0005=
201103240632 SPECI KATL 240632Z 28014G23KT 3SM RA FEW008 SCT041 BKN055 18/14 A2974 RMK AO2 RAB22 PRESRR P0005=
201103240552 METAR KATL 240552Z 25009G19KT 10SM SCT055 SCT070 BKN110 21/12 A2972 RMK AO2 SLP056 T02060117 10239 20200 53002=
201103240452 METAR KATL 240452Z 24009G16KT 10SM FEW065 SCT250 21/11 A2972 RMK AO2 SLP055 T02110111 402610167=
201103240352 METAR KATL 240352Z 25011G22KT 10SM FEW070 SCT250 22/11 A2971 RMK AO2 SLP053 T02220111=
201103240252 METAR KATL 240252Z 25012G19KT 10SM FEW070 SCT110 22/11 A2972 RMK AO2 SLP055 T02220111 50001=
201103240152 METAR KATL 240152Z 25012G23KT 10SM BKN070 23/11 A2972 RMK AO2 SLP057 T02280106=
201103240052 METAR KATL 240052Z 24012KT 10SM BKN065 23/11 A2972 RMK AO2 SLP056 T02330106=
201103232352 METAR KATL 232352Z 24011G17KT 10SM SCT065 23/11 A2971 RMK AO2 SLP055 T02330106 10261 20233 56013=
201103232252 METAR KATL 232252Z 23015G25KT 10SM SCT065 24/11 A2972 RMK AO2 SLP057 T02440106=
201103232152 METAR KATL 232152Z 24016G23KT 10SM BKN065 BKN250 24/11 A2973 RMK AO2 SLP060 T02440106=
201103232052 METAR KATL 232052Z 24010G21KT 10SM BKN060 BKN070 25/10 A2975 RMK AO2 SLP068 T02500100 56028=
201103231952 METAR KATL 231952Z 25015G25KT 10SM BKN060 BKN070 25/11 A2978 RMK AO2 PK WND 24028/1926 SLP077 T02500106=
201103231852 METAR KATL 231852Z 25015G23KT 10SM BKN060 BKN070 BKN240 26/11 A2981 RMK AO2 PK WND 24026/1838 SLP084 T02560111=
201103231752 METAR KATL 231752Z 26011G24KT 10SM BKN050 BKN060 24/11 A2984 RMK AO2 PK WND 24030/1740 SLP097 T02390111 10244 20167 58020=
201103231652 METAR KATL 231652Z 26016G24KT 10SM FEW050 24/12 A2986 RMK AO2 PK WND 26027/1639 SLP104 T02390117=
201103231552 METAR KATL 231552Z 26011G23KT 10SM FEW035 22/13 A2989 RMK AO2 PK WND 20029/1530 SLP113 T02220128=
201103231452 METAR KATL 231452Z 24015G20KT 10SM SCT025 20/14 A2990 RMK AO2 PK WND 24028/1406 SLP119 T02000139 58004=
201103231352 METAR KATL 231352Z 26014G24KT 9SM BKN017 BKN022 18/14 A2992 RMK AO2 SLP124 T01830139=
201103231252 METAR KATL 231252Z 24010G19KT 8SM BKN017 BKN022 17/14 A2990 RMK AO2 SLP120 T01720139=
201103231229 SPECI KATL 231229Z 25010KT 5SM R09R/5500VP6000FT HZ BKN015 BKN022 17/14 A2991 RMK AO2=
201103231229 SPECI KATL 231229Z 25010KT 5SM R09R/5500VP6000FT HZ BKN015 BKN022 17/14 A2991 RMK AO2=
201103231217 SPECI KATL 231217Z 24007G17KT 8SM SCT015 SCT022 17/14 A2991 RMK AO2=
201103231217 SPECI KATL 231217Z 24007G17KT 8SM SCT015 SCT022 17/14 A2991 RMK AO2=
201103231152 METAR KATL 231152Z 24010KT 9SM BKN022 BKN150 17/13 A2991 RMK AO2 SLP123 T01670133 10189 20167 51004=
201103231139 SPECI KATL 231139Z 24013G18KT 10SM BKN022 BKN150 17/13 A2991 RMK AO2=
201103231139 SPECI KATL 231139Z 24013G18KT 10SM BKN022 BKN150 17/13 A2991 RMK AO2=
201103231052 METAR KATL 231052Z 24012G18KT 10SM SCT020 17/14 A2991 RMK AO2 SLP122 T01670139=
201103230952 METAR KATL 230952Z 25012G18KT 10SM BKN016 BKN150 BKN250 17/14 A2991 RMK AO2 SLP121 T01720139=
201103230852 METAR KATL 230852Z 25010KT 10SM BKN150 BKN250 17/13 A2990 RMK AO2 SLP118 T01720128 58012=
201103230752 METAR KATL 230752Z 24012G18KT 10SM SCT150 BKN250 18/12 A2992 RMK AO2 SLP123 T01830117=
201103230652 METAR KATL 230652Z 25008KT 10SM SCT150 19/11 A2993 RMK AO2 SLP127 T01890106=
201103230552 METAR KATL 230552Z 24006KT 10SM FEW120 SCT200 18/09 A2994 RMK AO2 SLP131 T01780094 10239 20178 55007=
201103230452 METAR KATL 230452Z 23005KT 10SM FEW200 BKN250 18/08 A2994 RMK AO2 SLP130 T01830083 402720133=
201103230352 METAR KATL 230352Z 24004KT 10SM FEW200 BKN250 19/07 A2995 RMK AO2 SLP135 T01940072=
201103230252 METAR KATL 230252Z 23005KT 10SM BKN200 BKN250 20/07 A2996 RMK AO2 SLP140 T02000072 58002=
201103230152 METAR KATL 230152Z 22006KT 10SM BKN200 BKN250 22/07 A2998 RMK AO2 SLP145 T02170067=
201103230052 METAR KATL 230052Z 23006KT 10SM BKN200 BKN250 23/06 A2997 RMK AO2 SLP143 T02280061=
201103222352 METAR KATL 222352Z 23007KT 10SM SCT200 BKN250 24/07 A2997 RMK AO2 SLP143 T02390067 10272 20239 55006=
201103222252 METAR KATL 222252Z 25007KT 10SM BKN250 26/06 A2997 RMK AO2 SLP142 T02560061=
201103222152 METAR KATL 222152Z 28010KT 10SM FEW250 26/07 A2998 RMK AO2 SLP143 T02610072=
201103222052 METAR KATL 222052Z 25009G19KT 10SM FEW250 27/08 A2999 RMK AO2 SLP147 T02670083 56030=
201103221952 METAR KATL 221952Z 25012KT 10SM FEW200 BKN250 27/07 A3001 RMK AO2 SLP154 T02720067=
201103221852 METAR KATL 221852Z 27008G18KT 10SM SCT250 27/08 A3004 RMK AO2 SLP166 T02720083=
201103221752 METAR KATL 221752Z 29011KT 10SM FEW065 SCT100 SCT250 26/10 A3008 RMK AO2 SLP179 T02560100 10256 20139 58025=
201103221652 METAR KATL 221652Z 24007G15KT 10SM FEW045 SCT100 BKN250 24/13 A3011 RMK AO2 SLP190 T02440128=
201103221552 METAR KATL 221552Z 29005KT 10SM FEW030 SCT200 BKN250 22/14 A3014 RMK AO2 SLP199 T02220139=
201103221452 METAR KATL 221452Z 30006KT 10SM FEW200 SCT250 SCT300 20/14 A3016 RMK AO2 SLP206 T02000139 51008=
201103221352 METAR KATL 221352Z 27010KT 9SM FEW200 19/13 A3015 RMK AO2 SLP204 T01890133=
201103221252 METAR KATL 221252Z 25004KT 8SM FEW250 16/13 A3015 RMK AO2 SLP203 T01610128=
201103221152 METAR KATL 221152Z 23004KT 8SM SCT250 14/11 A3013 RMK AO2 SLP198 T01390111 10167 20133 53005=
201103221052 METAR KATL 221052Z 25005KT 10SM CLR 15/12 A3011 RMK AO2 SLP192 T01500117=
201103220952 METAR KATL 220952Z 25006KT 10SM CLR 16/11 A3011 RMK AO2 SLP191 T01560111=
201103220852 METAR KATL 220852Z 25007KT 10SM CLR 17/11 A3011 RMK AO2 SLP190 T01670106 58010=
201103220752 METAR KATL 220752Z 25007KT 10SM FEW250 16/09 A3013 RMK AO2 SLP196 T01610094=
201103220652 METAR KATL 220652Z 25003KT 10SM FEW250 16/08 A3014 RMK AO2 SLP201 T01560083=
201103220552 METAR KATL 220552Z 25003KT 10SM SCT250 17/08 A3015 RMK AO2 SLP202 T01670083 10222 20167 58004=
201103220452 METAR KATL 220452Z 26004KT 10SM BKN250 18/08 A3016 RMK AO2 SLP208 T01830083 402560122=
201103220352 METAR KATL 220352Z 24005KT 10SM BKN250 19/08 A3016 RMK AO2 SLP208 T01940078=
201103220252 METAR KATL 220252Z 24009KT 10SM BKN250 20/07 A3016 RMK AO2 SLP208 T02000072 56004=
201103220152 METAR KATL 220152Z 24007KT 10SM SCT250 20/07 A3017 RMK AO2 SLP211 T02000072=
201103220052 METAR KATL 220052Z 22006KT 10SM BKN250 21/07 A3016 RMK AO2 SLP211 T02060067=
201103212352 METAR KATL 212352Z 23004KT 10SM FEW200 BKN250 22/06 A3017 RMK AO2 SLP213 T02220056 10256 20222 56013=
201103212252 METAR KATL 212252Z 24008KT 10SM SCT250 24/05 A3019 RMK AO2 SLP217 T02440050=
201103212152 METAR KATL 212152Z 26007KT 10SM FEW250 26/04 A3020 RMK AO2 SLP219 T02560044=
201103212052 METAR KATL 212052Z 28009G18KT 10SM FEW250 25/04 A3021 RMK AO2 SLP225 T02500044 56030=
201103211952 METAR KATL 211952Z 26012G18KT 10SM FEW250 25/05 A3023 RMK AO2 SLP232 T02500050=
201103211852 METAR KATL 211852Z 28010KT 10SM FEW250 24/07 A3027 RMK AO2 SLP244 T02390072=
201103211752 METAR KATL 211752Z 22010G18KT 10SM FEW055 SCT250 23/08 A3030 RMK AO2 SLP257 T02280083 10228 20133 58021=
201103211652 METAR KATL 211652Z 22009KT 10SM FEW050 22/08 A3033 RMK AO2 SLP266 T02170083=
201103211552 METAR KATL 211552Z 24010G15KT 10SM FEW025 19/12 A3035 RMK AO2 SLP274 T01940122=
201103211459 SPECI KATL 211459Z 24007KT 10SM BKN011 17/13 A3037 RMK AO2=
201103211459 SPECI KATL 211459Z 24007KT 10SM BKN011 17/13 A3037 RMK AO2=
201103211452 METAR KATL 211452Z 25010KT 10SM BKN009 17/13 A3037 RMK AO2 SLP280 T01670133 53008=
201103211419 SPECI KATL 211419Z 23007KT 10SM OVC009 16/13 A3036 RMK AO2 CIG 008V011=
201103211419 SPECI KATL 211419Z 23007KT 10SM OVC009 16/13 A3036 RMK AO2 CIG 008V011=
201103211352 METAR KATL 211352Z 22007KT 6SM BR OVC011 16/13 A3036 RMK AO2 SLP278 T01560133=
201103211252 METAR KATL 211252Z 16004KT 6SM BR BKN013 13/12 A3035 RMK AO2 SLP277 T01330122=
201103211244 SPECI KATL 211244Z 15003KT 5SM BR BKN015 13/12 A3036 RMK AO2=
201103211244 SPECI KATL 211244Z 15003KT 5SM BR BKN015 13/12 A3036 RMK AO2=
201103211152 METAR KATL 211152Z 12003KT 6SM BR SCT015 SCT150 SCT250 13/12 A3034 RMK AO2 SLP273 T01280117 10150 20122 53008=
201103211052 METAR KATL 211052Z 13003KT 9SM FEW018 13/12 A3033 RMK AO2 SLP268 T01280117=
201103210952 METAR KATL 210952Z 11003KT 10SM FEW070 13/11 A3032 RMK AO2 SLP266 T01330111=
201103210852 METAR KATL 210852Z 13004KT 10SM FEW070 SCT150 14/12 A3032 RMK AO2 SLP265 T01390117 58010=
201103210752 METAR KATL 210752Z 13005KT 10SM SCT026 BKN060 14/12 A3033 RMK AO2 SLP268 T01440117=
201103210652 METAR KATL 210652Z 12006KT 10SM OVC028 15/11 A3035 RMK AO2 SLP275 T01500111=
201103210552 METAR KATL 210552Z 12007KT 10SM OVC024 15/10 A3035 RMK AO2 SLP276 T01500100 10156 20150 58006=
201103210452 METAR KATL 210452Z 12008KT 10SM OVC020 15/09 A3036 RMK AO2 SLP278 T01500094 402000150=
201103210352 METAR KATL 210352Z 10008KT 10SM OVC022 15/09 A3036 RMK AO2 SLP280 T01500094=
201103210252 METAR KATL 210252Z 08012KT 10SM OVC024 15/10 A3037 RMK AO2 SLP281 T01500100 50003=
201103210152 METAR KATL 210152Z 09010KT 10SM OVC019 15/11 A3037 RMK AO2 SLP283 T01500106=
201103210133 SPECI KATL 210133Z 09009KT 10SM BKN019 15/11 A3037 RMK AO2=
201103210133 SPECI KATL 210133Z 09009KT 10SM BKN019 15/11 A3037 RMK AO2=
201103210109 SPECI KATL 210109Z 08010KT 10SM SCT021 15/11 A3036 RMK AO2=
201103210109 SPECI KATL 210109Z 08010KT 10SM SCT021 15/11 A3036 RMK AO2=
201103210052 METAR KATL 210052Z 10010KT 10SM OVC021 16/11 A3037 RMK AO2 SLP282 T01560111=
201103202352 METAR KATL 202352Z 10011KT 10SM BKN021 OVC026 16/11 A3036 RMK AO2 SLP279 T01560111 10178 20156 53001=
201103202252 METAR KATL 202252Z 08011KT 10SM OVC021 16/11 A3036 RMK AO2 SLP277 T01610111=
201103202152 METAR KATL 202152Z 10010KT 10SM OVC021 17/12 A3035 RMK AO2 SLP275 T01670117=
201103202052 METAR KATL 202052Z 08011KT 10SM OVC021 17/12 A3036 RMK AO2 SLP277 T01720117 56010=
201103201952 METAR KATL 201952Z 10011KT 10SM OVC019 17/12 A3036 RMK AO2 SLP276 T01720122=
201103201852 METAR KATL 201852Z 10010KT 9SM OVC015 17/13 A3037 RMK AO2 SLP279 T01720128=
201103201844 SPECI KATL 201844Z 09010KT 9SM OVC015 17/13 A3037 RMK AO2=
201103201844 SPECI KATL 201844Z 09010KT 9SM OVC015 17/13 A3037 RMK AO2=
201103201752 METAR KATL 201752Z 10009KT 9SM OVC013 16/13 A3039 RMK AO2 SLP287 T01610128 10172 20156 58002=
201103201744 SPECI KATL 201744Z 09011KT 9SM OVC013 16/13 A3039 RMK AO2=
201103201744 SPECI KATL 201744Z 09011KT 9SM OVC013 16/13 A3039 RMK AO2=
201103201652 METAR KATL 201652Z 10013KT 10SM OVC019 17/12 A3040 RMK AO2 SLP290 T01670122=
201103201552 METAR KATL 201552Z 11010G18KT 10SM OVC021 17/12 A3040 RMK AO2 SLP291 T01720117=
201103201452 METAR KATL 201452Z 11013KT 10SM OVC026 17/11 A3039 RMK AO2 SLP288 T01670111 51015=
201103201352 METAR KATL 201352Z 09011KT 10SM OVC022 16/11 A3038 RMK AO2 SLP283 T01560106=
201103201252 METAR KATL 201252Z 09009KT 10SM OVC022 16/10 A3037 RMK AO2 SLP278 BINOVC OHD T01560100=
201103201152 METAR KATL 201152Z 09012KT 10SM OVC020 16/12 A3035 RMK AO2 SLP272 T01560122 10183 20156 51023=
201103201052 METAR KATL 201052Z 08010KT 10SM BKN020 OVC070 16/13 A3033 RMK AO2 SLP263 T01560128=
201103201018 SPECI KATL 201018Z 07011KT 10SM BKN020 BKN070 16/13 A3032 RMK AO2=
201103201018 SPECI KATL 201018Z 07011KT 10SM BKN020 BKN070 16/13 A3032 RMK AO2=
201103200952 METAR KATL 200952Z 07010KT 10SM FEW060 16/13 A3031 RMK AO2 SLP256 T01560128=
201103200852 METAR KATL 200852Z 08010KT 10SM FEW070 16/13 A3028 RMK AO2 SLP247 T01610128 50004=
201103200752 METAR KATL 200752Z 08012KT 10SM FEW070 17/13 A3028 RMK AO2 SLP247 T01670128=
201103200652 METAR KATL 200652Z 09012KT 10SM FEW070 18/13 A3028 RMK AO2 SLP247 T01780128=
201103200552 METAR KATL 200552Z 07011KT 10SM CLR 18/12 A3027 RMK AO2 SLP242 T01830122 10256 20183 53013=
201103200452 METAR KATL 200452Z 03009KT 10SM CLR 20/12 A3025 RMK AO2 SLP236 T02000117 402780133=
201103200352 METAR KATL 200352Z 02007KT 10SM CLR 21/12 A3024 RMK AO2 SLP234 T02060117=
201103200252 METAR KATL 200252Z 36008KT 10SM CLR 21/12 A3023 RMK AO2 SLP230 T02110117 53016=
201103200152 METAR KATL 200152Z 36008KT 10SM CLR 23/13 A3020 RMK AO2 SLP219 T02280128=
201103200052 METAR KATL 200052Z 33007KT 10SM FEW250 23/12 A3018 RMK AO2 SLP214 T02330117=
201103192352 METAR KATL 192352Z 33004KT 10SM FEW060 26/11 A3018 RMK AO2 SLP214 T02560111 10278 20250 53006=
201103192252 METAR KATL 192252Z 30005KT 10SM FEW060 SCT250 26/11 A3017 RMK AO2 SLP210 T02610111=
201103192152 METAR KATL 192152Z 22004KT 10SM FEW060 SCT250 27/11 A3016 RMK AO2 SLP205 T02720106=
201103192052 METAR KATL 192052Z VRB04KT 10SM FEW060 SCT250 27/12 A3016 RMK AO2 SLP206 T02720117 56021=
201103191952 METAR KATL 191952Z 30004KT 10SM FEW060 27/12 A3017 RMK AO2 SLP210 T02720122=
201103191852 METAR KATL 191852Z 30008G16KT 10SM FEW050 27/13 A3020 RMK AO2 SLP220 T02670128=
201103191752 METAR KATL 191752Z 35011G16KT 10SM FEW050 27/13 A3023 RMK AO2 SLP228 T02670128 10267 20133 58004=
201103191652 METAR KATL 191652Z 33009G17KT 10SM CLR 25/13 A3024 RMK AO2 SLP232 T02500128=
201103191552 METAR KATL 191552Z 32005KT 10SM CLR 23/13 A3024 RMK AO2 SLP233 T02330133=
201103191452 METAR KATL 191452Z 30006KT 10SM FEW100 22/13 A3024 RMK AO2 SLP233 T02170128 51011=
201103191352 METAR KATL 191352Z 31007KT 10SM FEW100 19/13 A3023 RMK AO2 SLP231 T01890128=
201103191252 METAR KATL 191252Z 31006KT 10SM FEW100 17/12 A3022 RMK AO2 SLP228 T01670122=
201103191152 METAR KATL 191152Z 31005KT 10SM FEW100 14/11 A3021 RMK AO2 SLP224 T01390111 10178 20139 53015=
201103191052 METAR KATL 191052Z 28004KT 10SM FEW100 15/11 A3018 RMK AO2 SLP212 T01500111=
201103190952 METAR KATL 190952Z 29009KT 10SM CLR 16/11 A3017 RMK AO2 SLP209 T01560111=
201103190852 METAR KATL 190852Z 30006KT 10SM CLR 16/11 A3016 RMK AO2 SLP207 T01610111 58012=
201103190752 METAR KATL 190752Z 28005KT 10SM CLR 17/11 A3018 RMK AO2 SLP211 T01670111=
201103190652 METAR KATL 190652Z 28005KT 10SM CLR 17/11 A3020 RMK AO2 SLP218 T01670111=
201103190552 METAR KATL 190552Z 28007KT 10SM CLR 18/12 A3020 RMK AO2 SLP220 T01780117 10244 20178 51004=
201103190452 METAR KATL 190452Z 25005KT 10SM CLR 19/12 A3019 RMK AO2 SLP217 T01940122 402780111=
201103190352 METAR KATL 190352Z 25008KT 10SM CLR 21/12 A3020 RMK AO2 SLP218 T02060122=
201103190252 METAR KATL 190252Z 25008KT 10SM CLR 21/12 A3019 RMK AO2 SLP216 T02110117 53013=
201103190152 METAR KATL 190152Z 24004KT 10SM CLR 21/09 A3017 RMK AO2 SLP211 T02110094=
201103190052 METAR KATL 190052Z 26005KT 10SM CLR 23/09 A3015 RMK AO2 SLP206 T02280094=
201103182352 METAR KATL 182352Z 26005KT 10SM CLR 24/09 A3015 RMK AO2 SLP204 T02390094 10278 20239 55002=
201103182252 METAR KATL 182252Z 24007KT 10SM CLR 27/10 A3014 RMK AO2 SLP200 T02670100=
201103182152 METAR KATL 182152Z 23005KT 10SM CLR 27/10 A3014 RMK AO2 SLP200 T02720100=
201103182052 METAR KATL 182052Z 24010G16KT 10SM CLR 27/08 A3015 RMK AO2 SLP204 T02720083 56023=
201103181952 METAR KATL 181952Z 26009G18KT 10SM CLR 27/09 A3016 RMK AO2 SLP209 T02720094=
201103181852 METAR KATL 181852Z 28005G14KT 10SM CLR 26/11 A3019 RMK AO2 SLP217 T02610106=
201103181752 METAR KATL 181752Z 26007KT 10SM CLR 26/11 A3022 RMK AO2 SLP228 T02560111 10256 20117 58018=
201103181652 METAR KATL 181652Z 27011KT 10SM FEW050 24/12 A3025 RMK AO2 SLP239 T02390117=
201103181552 METAR KATL 181552Z 30008KT 10SM CLR 22/12 A3027 RMK AO2 SLP244 T02220117=
201103181452 METAR KATL 181452Z 29009KT 10SM CLR 20/09 A3028 RMK AO2 SLP248 T02000094 50006=
201103181352 METAR KATL 181352Z 29008KT 10SM CLR 17/07 A3028 RMK AO2 SLP250 T01720072=
201103181252 METAR KATL 181252Z 26004KT 10SM CLR 14/07 A3027 RMK AO2 SLP248 T01390067=
201103181152 METAR KATL 181152Z 28004KT 10SM FEW250 12/06 A3026 RMK AO2 SLP244 T01170061 10150 20111 53013=
201103181052 METAR KATL 181052Z 30003KT 10SM CLR 13/06 A3024 RMK AO2 SLP237 T01280056=
201103180952 METAR KATL 180952Z 24003KT 10SM CLR 12/06 A3022 RMK AO2 SLP228 T01220056=
201103180852 METAR KATL 180852Z 23003KT 10SM CLR 13/05 A3022 RMK AO2 SLP228 T01280050 58008=
201103180752 METAR KATL 180752Z 00000KT 10SM CLR 13/06 A3023 RMK AO2 SLP232 T01280056=
201103180652 METAR KATL 180652Z 00000KT 10SM CLR 14/05 A3024 RMK AO2 SLP234 T01390050=
201103180552 METAR KATL 180552Z 22005KT 10SM FEW250 15/05 A3024 RMK AO2 SLP237 T01500050 10211 20150 58004=
201103180452 METAR KATL 180452Z 22004KT 10SM FEW250 16/05 A3026 RMK AO2 SLP241 T01610050 402440056=
201103180352 METAR KATL 180352Z 23004KT 10SM FEW250 17/05 A3026 RMK AO2 SLP244 T01720050=
201103180252 METAR KATL 180252Z 23004KT 10SM CLR 17/05 A3026 RMK AO2 SLP243 T01720050 53007=
201103180152 METAR KATL 180152Z 22004KT 10SM FEW250 18/05 A3024 RMK AO2 SLP237 T01830050=
201103180052 METAR KATL 180052Z 00000KT 10SM FEW250 19/06 A3024 RMK AO2 SLP239 T01940056=
201103172352 METAR KATL 172352Z 20004KT 10SM FEW250 21/05 A3023 RMK AO2 SLP237 T02110050 10244 20211 55002=
201103172252 METAR KATL 172252Z 20007KT 10SM FEW250 23/04 A3023 RMK AO2 SLP236 T02330044=
201103172152 METAR KATL 172152Z 20008KT 10SM CLR 24/05 A3023 RMK AO2 SLP235 T02390050=
201103172052 METAR KATL 172052Z 20008KT 10SM CLR 24/05 A3024 RMK AO2 SLP238 T02390050 56022=
201103171952 METAR KATL 171952Z 18005KT 10SM CLR 23/04 A3025 RMK AO2 SLP242 T02330044=
201103171852 METAR KATL 171852Z VRB04KT 10SM CLR 23/04 A3028 RMK AO2 SLP252 T02330044=
201103171752 METAR KATL 171752Z 00000KT 10SM CLR 22/02 A3031 RMK AO2 SLP262 T02170022 10217 20056 58008 $=
201103171652 METAR KATL 171652Z 00000KT 10SM CLR 20/03 A3032 RMK AO2 SLP267 T02000028=
201103171552 METAR KATL 171552Z 29003KT 10SM CLR 17/03 A3034 RMK AO2 SLP273 T01720033=
201103171452 METAR KATL 171452Z 01005KT 10SM CLR 16/04 A3033 RMK AO2 SLP272 T01560044 51018=
201103171352 METAR KATL 171352Z 36005KT 10SM CLR 13/04 A3033 RMK AO2 SLP271 T01330044=
201103171252 METAR KATL 171252Z 36003KT 10SM CLR 09/06 A3031 RMK AO2 SLP264 T00940056=
201103171152 METAR KATL 171152Z 33004KT 10SM CLR 06/03 A3028 RMK AO2 SLP256 T00610033 10078 20056 53010=
201103171052 METAR KATL 171052Z 32005KT 10SM CLR 06/03 A3027 RMK AO2 SLP252 T00610033=
201103170952 METAR KATL 170952Z 32005KT 10SM CLR 06/04 A3026 RMK AO2 SLP246 T00610039=
201103170852 METAR KATL 170852Z 33004KT 10SM CLR 06/03 A3025 RMK AO2 SLP244 T00610033 58006=
201103170752 METAR KATL 170752Z 29004KT 10SM CLR 06/04 A3025 RMK AO2 SLP246 T00610039=
201103170652 METAR KATL 170652Z 00000KT 10SM CLR 07/04 A3027 RMK AO2 SLP250 T00720044=
201103170552 METAR KATL 170552Z 32004KT 10SM CLR 07/04 A3027 RMK AO2 SLP251 T00720044 10122 20072 58000=
201103170452 METAR KATL 170452Z 30006KT 10SM CLR 08/04 A3027 RMK AO2 SLP253 T00780044 401500050=
201103170352 METAR KATL 170352Z 31004KT 10SM CLR 09/04 A3027 RMK AO2 SLP252 T00890044=
201103170252 METAR KATL 170252Z 30005KT 10SM FEW200 10/04 A3027 RMK AO2 SLP252 T01000044 53007=
201103170152 METAR KATL 170152Z 31005KT 10SM SCT200 10/04 A3026 RMK AO2 SLP249 T01000044=
201103170052 METAR KATL 170052Z 33005KT 10SM FEW200 11/04 A3025 RMK AO2 SLP247 T01110044=
201103162352 METAR KATL 162352Z 31007KT 10SM FEW200 12/05 A3025 RMK AO2 SLP245 T01220050 10150 20122 53010=
201103162252 METAR KATL 162252Z 31008KT 10SM CLR 14/05 A3023 RMK AO2 SLP240 T01390050=
201103162152 METAR KATL 162152Z 32010KT 10SM CLR 14/05 A3023 RMK AO2 SLP236 T01440050=
201103162052 METAR KATL 162052Z 34005G14KT 10SM CLR 14/06 A3022 RMK AO2 SLP233 T01440056 56008=
201103161952 METAR KATL 161952Z 32010G16KT 10SM CLR 14/06 A3022 RMK AO2 SLP233 T01390056=
201103161852 METAR KATL 161852Z 30010G17KT 10SM FEW030 14/06 A3023 RMK AO2 SLP237 T01390061=
201103161752 METAR KATL 161752Z 34008KT 10SM FEW030 13/06 A3024 RMK AO2 SLP242 T01280061 10128 20056 58007=
201103161729 SPECI KATL 161729Z VRB06KT 10SM SCT027 12/06 A3025 RMK AO2=
201103161729 SPECI KATL 161729Z VRB06KT 10SM SCT027 12/06 A3025 RMK AO2=
201103161652 METAR KATL 161652Z 32008KT 10SM BKN023 BKN027 11/06 A3026 RMK AO2 SLP248 T01110056=
201103161552 METAR KATL 161552Z 34007KT 10SM BKN023 BKN027 11/05 A3027 RMK AO2 SLP250 T01060050=
201103161452 METAR KATL 161452Z 29008KT 10SM FEW023 BKN027 10/05 A3026 RMK AO2 SLP249 T01000050 51020=
201103161352 METAR KATL 161352Z 30007KT 10SM FEW015 SCT030 08/06 A3025 RMK AO2 SLP246 T00830056=
201103161252 METAR KATL 161252Z 31007KT 10SM FEW030 07/04 A3023 RMK AO2 SLP239 T00670044=
201103161152 METAR KATL 161152Z 30006KT 10SM FEW030 06/04 A3020 RMK AO2 SLP231 70020 T00560039 10100 20050 53019=
201103161052 METAR KATL 161052Z 31005KT 10SM SCT025 06/04 A3019 RMK AO2 SLP224 T00610044=
201103160952 METAR KATL 160952Z 29004KT 10SM FEW020 07/05 A3016 RMK AO2 SLP215 T00670050=
201103160852 METAR KATL 160852Z 29004KT 5SM BR FEW010 08/07 A3015 RMK AO2 SLP211 T00780067 58008=
201103160752 METAR KATL 160752Z 00000KT 5SM BR FEW010 SCT015 08/07 A3016 RMK AO2 SLP216 T00780072=
201103160652 METAR KATL 160652Z 34006KT 6SM BR SCT010 09/07 A3018 RMK AO2 SLP220 T00890072=
201103160552 METAR KATL 160552Z 36009KT 6SM BR SCT006 BKN011 BKN016 10/08 A3017 RMK AO2 SLP219 60000 T01000083 10122 20100 58001=
201103160452 METAR KATL 160452Z 01007KT 5SM BR BKN006 OVC020 11/09 A3018 RMK AO2 RAE03 SLP220 CIG 004V010 P0000 T01060094 401500083=
201103160403 SPECI KATL 160403Z 03003KT 4SM BR SCT004 BKN009 OVC020 11/09 A3018 RMK AO2 RAE03 P0000=
201103160403 SPECI KATL 160403Z 03003KT 4SM BR SCT004 BKN009 OVC020 11/09 A3018 RMK AO2 RAE03 P0000=
201103160352 METAR KATL 160352Z 36006KT 2SM -RA BR OVC006 11/09 A3018 RMK AO2 SFC VIS 3 RAB33 SLP220 CIG 003V010 P0000 T01060094=
201103160252 METAR KATL 160252Z 04005KT 1/4SM BR OVC003 11/10 A3016 RMK AO2 SFC VIS 3 SLP215 T01110100 51014=
201103160152 METAR KATL 160152Z 36006KT 2SM BR BKN005 OVC015 12/11 A3015 RMK AO2 SFC VIS 4 SLP211 CIG 003V007 T01170106=
201103160121 SPECI KATL 160121Z 06005KT 1SM BR OVC004 12/11 A3014 RMK AO2 SFC VIS 4 CIG 003V007=
201103160121 SPECI KATL 160121Z 06005KT 1SM BR OVC004 12/11 A3014 RMK AO2 SFC VIS 4 CIG 003V007=
201103160057 SPECI KATL 160057Z VRB03KT 2SM BR OVC005 12/11 A3013 RMK AO2 SFC VIS 4 CIG 003V007=
201103160057 SPECI KATL 160057Z VRB03KT 2SM BR OVC005 12/11 A3013 RMK AO2 SFC VIS 4 CIG 003V007=
201103160052 METAR KATL 160052Z 07006KT 3SM BR OVC006 12/11 A3013 RMK AO2 SFC VIS 5 SLP204 CIG 004V008 T01170106=
201103152352 METAR KATL 152352Z 07008KT 3SM BR OVC007 12/11 A3012 RMK AO2 SFC VIS 5 SLP200 CIG 005V009 60000 T01220106 10128 20100 53008=
201103152252 METAR KATL 152252Z 08006KT 3SM BR BKN006 OVC012 13/11 A3010 RMK AO2 SFC VIS 6 SLP193 T01280111=
201103152152 METAR KATL 152152Z 10006KT 3SM BR BKN005 BKN012 OVC018 12/11 A3009 RMK AO2 SFC VIS 5 SLP189 T01220111=
201103152148 SPECI KATL 152148Z 09006KT 3SM BR BKN005 BKN012 OVC018 12/11 A3009 RMK AO2 SFC VIS 5=
201103152148 SPECI KATL 152148Z 09006KT 3SM BR BKN005 BKN012 OVC018 12/11 A3009 RMK AO2 SFC VIS 5=
201103152128 SPECI KATL 152128Z 08004KT 1 1/2SM BR BKN006 OVC015 12/11 A3009 RMK AO2 SFC VIS 4 CIG 004V007=
201103152128 SPECI KATL 152128Z 08004KT 1 1/2SM BR BKN006 OVC015 12/11 A3009 RMK AO2 SFC VIS 4 CIG 004V007=
201103152052 METAR KATL 152052Z VRB05KT 1/4SM BR OVC003 12/11 A3010 RMK AO2 SFC VIS 3 SLP192 60000 T01170106 56015=
201103151952 METAR KATL 151952Z 10006G17KT 1/4SM BR OVC003 11/11 A3010 RMK AO2 SFC VIS 2 1/2 DZE50 SLP192 P0000 T01110106=
201103151852 METAR KATL 151852Z 10006KT 1/4SM -DZ BR OVC003 11/10 A3011 RMK AO2 SFC VIS 2 RAE34DZB50 SLP197 P0000 T01060100=
201103151752 METAR KATL 151752Z 08006KT 1/4SM -RA BR OVC004 10/09 A3014 RMK AO2 SFC VIS 3 RAB46 SLP206 P0000 60020 T01000094 10100 20089 58011=
201103151713 SPECI KATL 151713Z 08011KT 1/4SM BR OVC004 10/09 A3015 RMK AO2 SFC VIS 4=
201103151713 SPECI KATL 151713Z 08011KT 1/4SM BR OVC004 10/09 A3015 RMK AO2 SFC VIS 4=
201103151652 METAR KATL 151652Z 09010KT 6SM BR OVC004 10/09 A3016 RMK AO2 RAE1554 SLP213 P0000 T01000089=
201103151630 SPECI KATL 151630Z 09009KT 6SM BR OVC004 10/09 A3017 RMK AO2 RAE1554 P0000=
201103151630 SPECI KATL 151630Z 09009KT 6SM BR OVC004 10/09 A3017 RMK AO2 RAE1554 P0000=
201103151552 METAR KATL 151552Z 09009KT 5SM -RA BR OVC005 09/09 A3017 RMK AO2 SLP216 P0005 T00940089=
201103151452 METAR KATL 151452Z 09012KT 4SM RA BR OVC005 09/08 A3017 RMK AO2 RAE17B46 SLP217 P0001 60015 T00940083 53010=
201103151401 SPECI KATL 151401Z 09009KT 4SM -RA BR OVC005 09/08 A3016 RMK AO2 P0000=
201103151401 SPECI KATL 151401Z 09009KT 4SM -RA BR OVC005 09/08 A3016 RMK AO2 P0000=
201103151352 METAR KATL 151352Z 09010KT 2 1/2SM -RA BR OVC005 09/08 A3016 RMK AO2 SLP213 P0007 T00940083=
201103151345 SPECI KATL 151345Z 08008KT 1 3/4SM +RA BR OVC005 09/08 A3016 RMK AO2 P0005=
201103151345 SPECI KATL 151345Z 08008KT 1 3/4SM +RA BR OVC005 09/08 A3016 RMK AO2 P0005=
201103151252 METAR KATL 151252Z 09008KT 4SM -RA BR BKN005 BKN027 09/08 A3015 RMK AO2 SLP207 P0007 T00940083=
201103151152 METAR KATL 151152Z 08014KT 4SM -RA BR BKN007 OVC036 09/08 A3014 RMK AO2 CIG 001V008 SLP205 P0028 60112 70112 T00890078 10150 20083 53003=
201103151140 SPECI KATL 151140Z 06016KT 4SM -RA BR BKN007 OVC045 09/08 A3014 RMK AO2 CIG 001V009 P0027=
201103151140 SPECI KATL 151140Z 06016KT 4SM -RA BR BKN007 OVC045 09/08 A3014 RMK AO2 CIG 001V009 P0027=
201103151112 SPECI KATL 151112Z 08010KT 2 1/2SM +RA BR OVC007 09/08 A3016 RMK AO2 P0012=
201103151112 SPECI KATL 151112Z 08010KT 2 1/2SM +RA BR OVC007 09/08 A3016 RMK AO2 P0012=
201103151052 METAR KATL 151052Z 05011KT 4SM RA BR BKN005 OVC027 09/08 A3013 RMK AO2 SLP202 P0023 T00890078=
201103151036 SPECI KATL 151036Z 05015KT 4SM RA BR BKN003 BKN007 09/08 A3012 RMK AO2 P0016=
201103151036 SPECI KATL 151036Z 05015KT 4SM RA BR BKN003 BKN007 09/08 A3012 RMK AO2 P0016=
201103150952 METAR KATL 150952Z 04017KT 4SM RA BR SCT003 BKN007 OVC024 09/08 A3011 RMK AO2 PRESFR SLP194 P0031 T00940083=
201103150920 SPECI KATL 150920Z 03011KT 3SM RA BR SCT003 BKN007 OVC024 10/08 A3014 RMK AO2 P0020=
201103150920 SPECI KATL 150920Z 03011KT 3SM RA BR SCT003 BKN007 OVC024 10/08 A3014 RMK AO2 P0020=
201103150908 SPECI KATL 150908Z 03015KT 2 1/2SM +RA BR SCT001 BKN005 OVC023 10/09 A3011 RMK AO2 P0015=
201103150908 SPECI KATL 150908Z 03015KT 2 1/2SM +RA BR SCT001 BKN005 OVC023 10/09 A3011 RMK AO2 P0015=
201103150852 METAR KATL 150852Z 01011KT 2 1/2SM +RA BR FEW003 BKN016 OVC035 11/09 A3013 RMK AO2 SLP199 P0024 60030 T01060089 53001=
201103150848 SPECI KATL 150848Z 01013KT 3SM RA BR FEW005 BKN016 OVC035 11/09 A3012 RMK AO2 P0022=
201103150848 SPECI KATL 150848Z 01013KT 3SM RA BR FEW005 BKN016 OVC035 11/09 A3012 RMK AO2 P0022=
201103150752 METAR KATL 150752Z 03009KT 6SM -RA BR FEW010 BKN035 OVC047 13/11 A3009 RMK AO2 SLP186 P0005 T01280106=
201103150652 METAR KATL 150652Z 05007KT 10SM -RA BKN045 OVC055 14/09 A3011 RMK AO2 RAB41 SLP191 P0001 T01440094=
201103150552 METAR KATL 150552Z 03006KT 10SM SCT047 BKN055 BKN110 15/09 A3013 RMK AO2 SLP198 T01500089 10200 20144 58005=
201103150452 METAR KATL 150452Z 33011KT 10SM BKN047 BKN055 OVC110 14/09 A3016 RMK AO2 SLP209 T01440089 402330106=
201103150352 METAR KATL 150352Z 30009KT 10SM BKN065 OVC090 16/09 A3016 RMK AO2 SLP211 T01560089=
201103150252 METAR KATL 150252Z 19006KT 10SM SCT065 BKN090 BKN250 17/08 A3015 RMK AO2 SLP204 T01670078 53015=
201103150152 METAR KATL 150152Z 20006KT 10SM FEW250 17/08 A3013 RMK AO2 SLP200 T01670078=
201103150052 METAR KATL 150052Z 21006KT 10SM SCT250 18/07 A3011 RMK AO2 SLP194 T01830072=
201103142352 METAR KATL 142352Z 21009KT 10SM FEW055 SCT250 20/07 A3010 RMK AO2 SLP191 T02000072 10233 20200 53010=
201103142252 METAR KATL 142252Z 21011KT 10SM SCT070 SCT150 BKN250 22/04 A3008 RMK AO2 SLP182 T02220039=
201103142152 METAR KATL 142152Z 18009KT 10SM SCT070 BKN150 BKN250 23/06 A3007 RMK AO2 SLP178 T02330056=
201103142052 METAR KATL 142052Z 16009G18KT 10SM FEW065 SCT100 BKN250 23/07 A3007 RMK AO2 SLP179 T02330072 56027=
201103141952 METAR KATL 141952Z 15003KT 10SM FEW060 SCT100 BKN250 23/07 A3009 RMK AO2 SLP185 T02280072=
201103141852 METAR KATL 141852Z 18011G17KT 10SM SCT055 SCT180 BKN250 22/08 A3012 RMK AO2 SLP195 T02220083=
201103141752 METAR KATL 141752Z 21004KT 10SM SCT047 SCT250 22/09 A3015 RMK AO2 SLP207 T02170089 10222 20111 58015=
201103141652 METAR KATL 141652Z 19008KT 10SM FEW048 SCT180 BKN250 21/09 A3018 RMK AO2 SLP215 T02060094=
201103141552 METAR KATL 141552Z 22004KT 10SM FEW150 SCT180 OVC250 19/10 A3020 RMK AO2 SLP221 T01940100=
201103141452 METAR KATL 141452Z 00000KT 10SM FEW150 SCT180 OVC250 17/10 A3020 RMK AO2 SLP223 T01720100 51009=
201103141352 METAR KATL 141352Z 21003KT 10SM FEW150 BKN180 OVC250 14/10 A3019 RMK AO2 SLP222 VIRGA DSNT NW T01440100=
201103141252 METAR KATL 141252Z 00000KT 10SM SCT150 BKN250 12/09 A3018 RMK AO2 SLP219 T01220089=
201103141152 METAR KATL 141152Z 22005KT 10SM SCT150 BKN250 11/08 A3017 RMK AO2 SLP216 T01110083 10144 20106 53008=
201103141052 METAR KATL 141052Z 00000KT 10SM BKN150 BKN250 12/08 A3016 RMK AO2 SLP209 T01170083=
201103140952 METAR KATL 140952Z 00000KT 10SM BKN150 BKN250 12/08 A3015 RMK AO2 SLP206 T01220083=
201103140852 METAR KATL 140852Z 00000KT 10SM SCT150 BKN250 12/09 A3015 RMK AO2 SLP206 T01220089 58012=
201103140752 METAR KATL 140752Z 28003KT 10SM SCT150 BKN250 13/09 A3016 RMK AO2 SLP209 T01330089=
201103140652 METAR KATL 140652Z 31003KT 10SM FEW150 SCT250 14/08 A3018 RMK AO2 SLP214 T01390083=
201103140552 METAR KATL 140552Z 24004KT 10SM FEW250 13/08 A3018 RMK AO2 SLP217 T01330083 10200 20133 56005=
201103140452 METAR KATL 140452Z 24003KT 10SM CLR 14/08 A3019 RMK AO2 SLP219 T01390083 402390078=
201103140352 METAR KATL 140352Z 00000KT 10SM CLR 15/09 A3019 RMK AO2 SLP221 T01500089=
201103140252 METAR KATL 140252Z 32004KT 10SM CLR 17/08 A3020 RMK AO2 SLP224 T01720083 51006=
201103140152 METAR KATL 140152Z 33004KT 10SM CLR 18/08 A3020 RMK AO2 SLP222 T01830083=
201103140052 METAR KATL 140052Z 33007KT 10SM FEW070 SCT250 19/08 A3019 RMK AO2 SLP222 T01890078=
201103132352 METAR KATL 132352Z 32007KT 10SM FEW065 SCT250 20/08 A3018 RMK AO2 SLP219 T02000078 10239 20200 53007=
201103132252 METAR KATL 132252Z 30009KT 10SM SCT065 BKN250 22/08 A3016 RMK AO2 SLP212 T02170078=
201103132152 METAR KATL 132152Z 27008KT 10SM SCT060 BKN250 23/08 A3016 RMK AO2 SLP209 T02280078=
201103132052 METAR KATL 132052Z 26010KT 10SM SCT060 BKN250 23/08 A3016 RMK AO2 SLP209 T02330078 55016=
201103131952 METAR KATL 131952Z VRB06KT 10SM SCT065 SCT090 23/08 A3016 RMK AO2 SLP208 T02280078=
201103131852 METAR KATL 131852Z 32010G15KT 10SM SCT055 SCT100 23/08 A3018 RMK AO2 SLP215 T02280078=
201103131752 METAR KATL 131752Z 28004KT 10SM SCT050 SCT100 22/09 A3021 RMK AO2 SLP225 T02170089 10222 20078 58009=
201103131652 METAR KATL 131652Z 28007KT 10SM FEW045 SCT250 20/09 A3023 RMK AO2 SLP232 T02000094=
201103131552 METAR KATL 131552Z 27006KT 10SM FEW250 18/09 A3024 RMK AO2 SLP236 T01830094=
201103131452 METAR KATL 131452Z 29008KT 10SM FEW250 16/09 A3024 RMK AO2 SLP236 T01610089 53011=
201103131352 METAR KATL 131352Z 28007KT 10SM FEW250 14/08 A3023 RMK AO2 SLP234 T01390078=
201103131252 METAR KATL 131252Z 26003KT 10SM SCT250 10/05 A3021 RMK AO2 SLP229 T01000050=
201103131152 METAR KATL 131152Z 25003KT 10SM FEW250 08/03 A3020 RMK AO2 SLP227 T00780033 10133 20078 51014=
201103131052 METAR KATL 131052Z 00000KT 10SM SCT250 09/03 A3019 RMK AO2 SLP222 T00890033=
201103130952 METAR KATL 130952Z 27003KT 10SM SCT250 11/03 A3017 RMK AO2 SLP215 T01060033=
201103130852 METAR KATL 130852Z 25008KT 10SM FEW250 12/03 A3016 RMK AO2 SLP209 T01170028 54000=
201103130752 METAR KATL 130752Z 26006KT 10SM CLR 12/03 A3016 RMK AO2 SLP210 T01220028=
201103130652 METAR KATL 130652Z 25006KT 10SM FEW250 12/03 A3016 RMK AO2 SLP210 T01220028=
201103130552 METAR KATL 130552Z 24005KT 10SM CLR 13/03 A3016 RMK AO2 SLP210 T01330028 10189 20133 50002=
201103130452 METAR KATL 130452Z 25005KT 10SM CLR 14/03 A3016 RMK AO2 SLP211 T01440028 402280033=
201103130352 METAR KATL 130352Z 24005KT 10SM CLR 14/03 A3016 RMK AO2 SLP210 T01440028=
201103130252 METAR KATL 130252Z 24005KT 10SM CLR 16/02 A3016 RMK AO2 SLP210 T01560022 51009=
201103130152 METAR KATL 130152Z 24007KT 10SM CLR 17/02 A3016 RMK AO2 SLP211 T01670017=
201103130052 METAR KATL 130052Z 23004KT 10SM CLR 17/01 A3014 RMK AO2 SLP208 T01720011=
201103122352 METAR KATL 122352Z 26005KT 10SM FEW250 19/00 A3013 RMK AO2 SLP203 T01890000 10228 20189 53004=
201103122252 METAR KATL 122252Z 28008KT 10SM FEW250 21/01 A3011 RMK AO2 SLP197 T02060006=
201103122152 METAR KATL 122152Z 26012G17KT 10SM FEW250 22/M01 A3011 RMK AO2 SLP195 T02171011=
201103122052 METAR KATL 122052Z 24008G16KT 10SM FEW250 22/01 A3012 RMK AO2 SLP197 T02220006 56020=
201103121952 METAR KATL 121952Z 24011G17KT 10SM SCT250 22/00 A3013 RMK AO2 SLP201 T02170000=
201103121852 METAR KATL 121852Z 23011KT 10SM FEW250 21/02 A3015 RMK AO2 SLP208 T02110017=
201103121752 METAR KATL 121752Z 23011KT 10SM CLR 20/02 A3018 RMK AO2 SLP218 T02000017 10200 20033 58016=
201103121652 METAR KATL 121652Z 28011KT 10SM FEW250 18/02 A3021 RMK AO2 SLP231 T01830022=
201103121552 METAR KATL 121552Z 25009G16KT 10SM FEW250 17/01 A3022 RMK AO2 SLP235 T01670006=
201103121452 METAR KATL 121452Z 27011KT 10SM CLR 14/01 A3022 RMK AO2 SLP237 T01390006 50006=
201103121352 METAR KATL 121352Z 29006KT 10SM CLR 10/01 A3023 RMK AO2 SLP239 T01000006=
201103121252 METAR KATL 121252Z 00000KT 10SM CLR 05/M01 A3022 RMK AO2 SLP238 T00501006=
201103121152 METAR KATL 121152Z 30004KT 10SM CLR 03/M02 A3021 RMK AO2 SLP234 T00331022 10056 20033 53013=
201103121052 METAR KATL 121052Z 27004KT 10SM CLR 04/M02 A3019 RMK AO2 SLP227 T00441017=
201103120952 METAR KATL 120952Z 26004KT 10SM CLR 04/M03 A3017 RMK AO2 SLP218 T00441028=
201103120852 METAR KATL 120852Z 28003KT 10SM FEW250 06/M03 A3017 RMK AO2 SLP219 T00561033 58003=
201103120752 METAR KATL 120752Z 27003KT 10SM CLR 05/M03 A3017 RMK AO2 SLP218 T00501033=
201103120652 METAR KATL 120652Z 28004KT 10SM CLR 05/M04 A3018 RMK AO2 SLP224 T00501039=
201103120552 METAR KATL 120552Z 29006KT 10SM CLR 05/M03 A3018 RMK AO2 SLP223 T00501033 10100 20050 53002=
201103120452 METAR KATL 120452Z 28005KT 10SM CLR 06/M03 A3017 RMK AO2 SLP222 T00561033 401280033=
201103120352 METAR KATL 120352Z 29006KT 10SM CLR 06/M04 A3017 RMK AO2 SLP221 T00561039=
201103120252 METAR KATL 120252Z 27005KT 10SM CLR 06/M04 A3017 RMK AO2 SLP222 T00611044 50004=
201103120152 METAR KATL 120152Z 23003KT 10SM CLR 08/M04 A3017 RMK AO2 SLP222 T00781039=
201103120052 METAR KATL 120052Z 30005KT 10SM FEW250 08/M04 A3017 RMK AO2 SLP221 T00831044=
201103112352 METAR KATL 112352Z 31009KT 10SM FEW250 10/M06 A3016 RMK AO2 SLP218 T01001056 10128 20094 53013=
201103112252 METAR KATL 112252Z 31014G21KT 10SM FEW250 12/M04 A3014 RMK AO2 SLP211 T01171044=
201103112152 METAR KATL 112152Z 31016G21KT 10SM CLR 12/M06 A3012 RMK AO2 SLP203 T01221056=
201103112052 METAR KATL 112052Z 29013G16KT 10SM CLR 12/M03 A3012 RMK AO2 SLP203 T01221033 56016=
201103111952 METAR KATL 111952Z 28009G18KT 10SM CLR 11/M04 A3013 RMK AO2 SLP207 T01111039=
201103111852 METAR KATL 111852Z 29012G17KT 10SM CLR 11/M03 A3015 RMK AO2 SLP212 T01111033=
201103111752 METAR KATL 111752Z 28009G16KT 230V300 10SM FEW050 09/M03 A3017 RMK AO2 SLP220 T00941028 10094 20033 58005=
201103111652 METAR KATL 111652Z 32011G21KT 10SM FEW045 08/M03 A3019 RMK AO2 SLP228 T00781028=
201103111552 METAR KATL 111552Z 33013G21KT 10SM FEW040 07/M03 A3019 RMK AO2 SLP226 T00671028=
201103111452 METAR KATL 111452Z 33015G20KT 10SM FEW035 05/M03 A3018 RMK AO2 SLP227 T00501028 51019=
201103111352 METAR KATL 111352Z 32015G20KT 10SM BKN034 04/M03 A3017 RMK AO2 SLP223 T00391033=
201103111252 METAR KATL 111252Z 33011KT 10SM BKN032 BKN036 BKN040 03/M03 A3016 RMK AO2 SLP218 T00331033=
201103111152 METAR KATL 111152Z 31015KT 10SM FEW030 BKN034 BKN041 03/M03 A3013 RMK AO2 SLP208 T00331028 10044 20033 53011=
201103111052 METAR KATL 111052Z 30010KT 10SM SCT029 OVC038 04/M01 A3010 RMK AO2 SLP199 T00391006=
201103110952 METAR KATL 110952Z 30012G17KT 10SM BKN029 OVC036 04/M01 A3009 RMK AO2 SLP195 T00441011=
201103110852 METAR KATL 110852Z 29015KT 10SM BKN029 OVC032 04/M01 A3009 RMK AO2 SLP195 T00441011 58000=
201103110752 METAR KATL 110752Z 31014G20KT 10SM BKN029 OVC034 04/M01 A3010 RMK AO2 SLP196 T00441011=
201103110745 SPECI KATL 110745Z 30012KT 10SM BKN029 OVC034 04/M01 A3010 RMK AO2=
201103110745 SPECI KATL 110745Z 30012KT 10SM BKN029 OVC034 04/M01 A3010 RMK AO2=
201103110652 METAR KATL 110652Z 30015KT 10SM OVC033 04/M01 A3010 RMK AO2 PK WND 32026/0636 SLP198 T00441011=
201103110552 METAR KATL 110552Z 30014G21KT 10SM FEW030 OVC037 04/M01 A3010 RMK AO2 SLP196 T00441006 10061 20044 58006=
201103110452 METAR KATL 110452Z 29009KT 10SM FEW026 OVC037 05/00 A3010 RMK AO2 SLP199 T00500000 401390044=
201103110352 METAR KATL 110352Z 30014KT 10SM SCT026 OVC037 05/00 A3011 RMK AO2 SLP201 T00500000=
201103110252 METAR KATL 110252Z 31012G17KT 10SM SCT026 OVC037 05/01 A3012 RMK AO2 SLP203 T00500006 51015=
201103110249 SPECI KATL 110249Z 30011G21KT 10SM SCT026 OVC037 05/01 A3011 RMK AO2=
201103110249 SPECI KATL 110249Z 30011G21KT 10SM SCT026 OVC037 05/01 A3011 RMK AO2=
201103110152 METAR KATL 110152Z 32014G22KT 10SM BKN026 OVC034 06/01 A3011 RMK AO2 SLP199 T00560006=
201103110052 METAR KATL 110052Z 31014G21KT 10SM BKN026 OVC034 06/01 A3009 RMK AO2 PK WND 30026/0019 SLP193 T00560006=
201103110005 SPECI KATL 110005Z 31016G22KT 10SM BKN028 OVC034 06/01 A3007 RMK AO2=
201103110005 SPECI KATL 110005Z 31016G22KT 10SM BKN028 OVC034 06/01 A3007 RMK AO2=
201103102352 METAR KATL 102352Z 29016G23KT 10SM FEW028 OVC033 06/01 A3007 RMK AO2 PK WND 31028/2259 SLP187 60000 T00610006 10106 20061 53019=
201103102252 METAR KATL 102252Z 31017G25KT 10SM FEW029 OVC040 07/01 A3005 RMK AO2 PK WND 30029/2240 SLP180 T00670006=
201103102152 METAR KATL 102152Z 28018G26KT 10SM BKN035 BKN045 08/01 A3002 RMK AO2 PK WND 29026/2143 SLP169 T00780011=
201103102052 METAR KATL 102052Z 30011G18KT 10SM FEW025 SCT035 SCT060 08/02 A3001 RMK AO2 PK WND 30029/2007 RAB06E45 SLP165 SHRA DSNT NE-SE P0000 60000 T00830022 53002=
201103101952 METAR KATL 101952Z 29019G29KT 10SM FEW035 SCT045 BKN060 09/02 A3000 RMK AO2 PK WND 29029/1944 SLP159 SHRA DSNT N-NE & DSNT SE T00940022=
201103101852 METAR KATL 101852Z 29019G25KT 10SM FEW030 BKN040 BKN050 09/02 A3000 RMK AO2 PK WND 30029/1832 SLP160 SHRA DSNT NE & NW T00890022=
201103101752 METAR KATL 101752Z 30020G27KT 10SM FEW030 BKN040 BKN050 08/02 A3001 RMK AO2 PK WND 30027/1751 SLP161 T00830017 10094 20061 50003=
201103101654 SPECI KATL 101654Z 28012G18KT 10SM SCT025 BKN035 BKN055 08/03 A3001 RMK AO2=
201103101654 SPECI KATL 101654Z 28012G18KT 10SM SCT025 BKN035 BKN055 08/03 A3001 RMK AO2=
201103101652 METAR KATL 101652Z 29013G18KT 10SM BKN025 BKN030 BKN050 08/03 A3001 RMK AO2 PK WND 30030/1611 SLP162 T00780028=
201103101559 SPECI KATL 101559Z 29015G22KT 10SM BKN027 BKN035 BKN050 07/02 A3000 RMK AO2=
201103101559 SPECI KATL 101559Z 29015G22KT 10SM BKN027 BKN035 BKN050 07/02 A3000 RMK AO2=
201103101552 METAR KATL 101552Z 29013G24KT 10SM FEW025 BKN030 BKN050 07/02 A3000 RMK AO2 PK WND 30029/1525 SLP158 T00720022=
201103101452 METAR KATL 101452Z 29017G25KT 10SM FEW020 BKN025 BKN030 07/03 A2999 RMK AO2 SLP155 T00720033 51014=
201103101358 SPECI KATL 101358Z 29011G19KT 10SM SCT020 BKN026 07/03 A2998 RMK AO2=
201103101358 SPECI KATL 101358Z 29011G19KT 10SM SCT020 BKN026 07/03 A2998 RMK AO2=
201103101352 METAR KATL 101352Z 29015G19KT 10SM SCT020 SCT026 07/03 A2998 RMK AO2 SLP154 T00670033=
201103101252 METAR KATL 101252Z 28012G21KT 10SM FEW032 SCT100 06/03 A2996 RMK AO2 SLP148 T00610033=
201103101152 METAR KATL 101152Z 29010KT 10SM FEW017 BKN028 BKN060 07/05 A2994 RMK AO2 SLP140 60028 70138 T00670050 10133 20067 53018=
201103101118 SPECI KATL 101118Z 29018G23KT 10SM FEW021 BKN026 OVC041 08/05 A2993 RMK AO2=
201103101118 SPECI KATL 101118Z 29018G23KT 10SM FEW021 BKN026 OVC041 08/05 A2993 RMK AO2=
201103101052 METAR KATL 101052Z 29016G19KT 10SM FEW013 BKN043 OVC060 08/07 A2990 RMK AO2 PK WND 30028/0954 RAE41 SLP127 P0006 T00780067=
201103101034 SPECI KATL 101034Z 30013KT 6SM -RA BR FEW011 BKN022 OVC065 08/07 A2991 RMK AO2 PK WND 30028/0954 P0006=
201103101034 SPECI KATL 101034Z 30013KT 6SM -RA BR FEW011 BKN022 OVC065 08/07 A2991 RMK AO2 PK WND 30028/0954 P0006=
201103101004 SPECI KATL 101004Z 29014G26KT 8SM -RA BKN014 BKN023 OVC060 08/07 A2992 RMK AO2 PK WND 30028/0954 P0000=
201103101004 SPECI KATL 101004Z 29014G26KT 8SM -RA BKN014 BKN023 OVC060 08/07 A2992 RMK AO2 PK WND 30028/0954 P0000=
201103100958 SPECI KATL 100958Z 28014G28KT 10SM SCT014 SCT023 OVC060 08/07 A2992 RMK AO2 PK WND 30028/0954 RAE56 PRESRR P0000=
201103100958 SPECI KATL 100958Z 28014G28KT 10SM SCT014 SCT023 OVC060 08/07 A2992 RMK AO2 PK WND 30028/0954 RAE56 PRESRR P0000=
201103100952 METAR KATL 100952Z 31021G27KT 2SM -RA BR SCT016 BKN021 OVC060 09/07 A2989 RMK AO2 PK WND 32029/0940 WSHFT 0839 SFC VIS 4 SLP121 P0009 T00890067=
201103100924 SPECI KATL 100924Z 30018KT 2SM RA BR BKN009 OVC025 10/08 A2988 RMK AO2 PK WND 29027/0902 WSHFT 0839 SFC VIS 6 P0006=
201103100924 SPECI KATL 100924Z 30018KT 2SM RA BR BKN009 OVC025 10/08 A2988 RMK AO2 PK WND 29027/0902 WSHFT 0839 SFC VIS 6 P0006=
201103100910 SPECI KATL 100910Z 31015G27KT 2SM RA BR FEW001 BKN018 OVC024 10/09 A2987 RMK AO2 PK WND 29027/0902 WSHFT 0839 SFC VIS 6 P0001=
201103100910 SPECI KATL 100910Z 31015G27KT 2SM RA BR FEW001 BKN018 OVC024 10/09 A2987 RMK AO2 PK WND 29027/0902 WSHFT 0839 SFC VIS 6 P0001=
201103100855 SPECI KATL 100855Z 31014G22KT 2SM -RA BR FEW001 BKN005 OVC018 11/10 A2986 RMK AO2 WSHFT 0839 SFC VIS 5 P0001=
201103100855 SPECI KATL 100855Z 31014G22KT 2SM -RA BR FEW001 BKN005 OVC018 11/10 A2986 RMK AO2 WSHFT 0839 SFC VIS 5 P0001=
201103100852 METAR KATL 100852Z 32016G27KT 2SM RA BR BKN003 BKN009 OVC018 12/11 A2986 RMK AO2 PK WND 26048/0842 WSHFT 0835 SFC VIS 3 DZE44RAB44 SLP109 P0013 60013 T01170106 56025=
201103100849 SPECI KATL 100849Z 32017G48KT 2SM +RA BR BKN003 BKN009 OVC016 12/11 A2986 RMK AO2 PK WND 26048/0842 WSHFT 0835 DZE44RAB44 P0012=
201103100849 SPECI KATL 100849Z 32017G48KT 2SM +RA BR BKN003 BKN009 OVC016 12/11 A2986 RMK AO2 PK WND 26048/0842 WSHFT 0835 DZE44RAB44 P0012=
201103100752 METAR KATL 100752Z 17008KT 2SM -DZ BR FEW004 BKN007 OVC010 13/12 A2988 RMK AO2 SFC VIS 5 SLP115 P0000 T01330122=
201103100711 SPECI KATL 100711Z 18009KT 2SM -DZ BR BKN005 OVC010 13/13 A2990 RMK AO2 SFC VIS 6 CIG 002V007 P0000=
201103100711 SPECI KATL 100711Z 18009KT 2SM -DZ BR BKN005 OVC010 13/13 A2990 RMK AO2 SFC VIS 6 CIG 002V007 P0000=
201103100652 METAR KATL 100652Z 18007KT 2SM -DZ BR OVC003 13/13 A2991 RMK AO2 SFC VIS 3 CIG 001V006 SLP127 P0000 T01330128=
201103100552 METAR KATL 100552Z 19008KT 2SM -DZ BR OVC003 13/13 A2994 RMK AO2 SLP136 CB DSNT SW-NW TWRINC P0000 60000 T01330128 10144 20133 58017=
201103100526 SPECI KATL 100526Z 20009KT 2SM -DZ BR OVC005 13/13 A2995 RMK AO2 P0000=
201103100526 SPECI KATL 100526Z 20009KT 2SM -DZ BR OVC005 13/13 A2995 RMK AO2 P0000=
201103100452 METAR KATL 100452Z 20009KT 5SM -DZ BR OVC005 13/13 A2997 RMK AO2 SLP146 P0000 T01330128 401440106=
201103100420 SPECI KATL 100420Z 19007KT 6SM -DZ BR SCT005 BKN007 OVC013 13/13 A2997 RMK AO2 P0000=
201103100420 SPECI KATL 100420Z 19007KT 6SM -DZ BR SCT005 BKN007 OVC013 13/13 A2997 RMK AO2 P0000=
201103100352 METAR KATL 100352Z 18006KT 7SM -DZ SCT003 BKN013 BKN023 13/13 A2998 RMK AO2 DZB38 SLP150 TWRINC P0000 T01330128=
201103100341 SPECI KATL 100341Z 18006KT 6SM -DZ BR SCT003 BKN013 BKN023 13/13 A2998 RMK AO2 DZB38 TWRINC P0000=
201103100341 SPECI KATL 100341Z 18006KT 6SM -DZ BR SCT003 BKN013 BKN023 13/13 A2998 RMK AO2 DZB38 TWRINC P0000=
201103100252 METAR KATL 100252Z 17006KT 6SM BR SCT005 BKN017 BKN039 13/13 A2999 RMK AO2 DZE25 SLP153 P0000 60000 T01330128 50005=
201103100215 SPECI KATL 100215Z 16006KT 6SM -DZ BR SCT004 BKN016 OVC036 14/13 A2998 RMK AO2 P0000=
201103100215 SPECI KATL 100215Z 16006KT 6SM -DZ BR SCT004 BKN016 OVC036 14/13 A2998 RMK AO2 P0000=
201103100152 METAR KATL 100152Z COR 16005KT 6SM -DZ BR SCT005 BKN016 OVC034 14/13 A2999 RMK AO2 DZB51 SLP153 P0000 T01390128=
201103100052 METAR KATL 100052Z 14003KT 10SM SCT005 BKN018 OVC032 14/13 A2999 RMK AO2 SLP154 T01390128=
201103100011 SPECI KATL 100011Z 14004KT 10SM SCT005 BKN019 OVC026 14/13 A2998 RMK AO2=
201103100011 SPECI KATL 100011Z 14004KT 10SM SCT005 BKN019 OVC026 14/13 A2998 RMK AO2=
201103092352 METAR KATL 092352Z 13004KT 10SM FEW009 BKN012 OVC019 14/13 A2997 RMK AO2 SLP148 60030 T01440128 10144 20139 50023=
201103092252 METAR KATL 092252Z 00000KT 10SM SCT007 BKN010 OVC100 14/13 A2997 RMK AO2 SLP150 T01440128=
201103092152 METAR KATL 092152Z 28005KT 10SM BKN007 BKN050 OVC100 14/13 A2998 RMK AO2 PRESRR SLP149 T01440133=
201103092132 SPECI KATL 092132Z 20003KT 10SM BKN007 BKN050 OVC100 14/13 A2995 RMK AO2=
201103092132 SPECI KATL 092132Z 20003KT 10SM BKN007 BKN050 OVC100 14/13 A2995 RMK AO2=
201103092052 METAR KATL 092052Z 15010G16KT 10SM FEW007 SCT050 OVC110 14/13 A2990 RMK AO2 TSE07RAE11 SLP125 VIRGA OHD & ALQDS P0001 60030 T01440133 56050=
201103092028 SPECI KATL 092028Z 15015G19KT 10SM FEW005 SCT050 OVC100 14/13 A2990 RMK AO2 TSE07RAE11 OCNL LTG DSNT NE-SE CB DSNT NE-SE P0001=
201103092028 SPECI KATL 092028Z 15015G19KT 10SM FEW005 SCT050 OVC100 14/13 A2990 RMK AO2 TSE07RAE11 OCNL LTG DSNT NE-SE CB DSNT NE-SE P0001=
201103092015 SPECI KATL 092015Z 14012G20KT 10SM FEW005 SCT008 OVC020 14/13 A2989 RMK AO2 TSE07RAE11 OCNL LTG DSNT NE-SE CB DSNT NE-SE P0001=
201103092015 SPECI KATL 092015Z 14012G20KT 10SM FEW005 SCT008 OVC020 14/13 A2989 RMK AO2 TSE07RAE11 OCNL LTG DSNT NE-SE CB DSNT NE-SE P0001=
201103092007 SPECI KATL 092007Z 14013G25KT 3SM -RA BR FEW005CB BKN008 OVC020 14/13 A2989 RMK AO2 SFC VIS 6 TSE07 OCNL LTG DSNT NE-SE CB DSNT NE-SE P0001=
201103092007 SPECI KATL 092007Z 14013G25KT 3SM -RA BR FEW005CB BKN008 OVC020 14/13 A2989 RMK AO2 SFC VIS 6 TSE07 OCNL LTG DSNT NE-SE CB DSNT NE-SE P0001=
201103091952 METAR KATL 091952Z 14012G18KT 1/2SM -TSRA BR BKN005CB BKN008 OVC020 14/13 A2994 RMK AO2 SFC VIS 6 PRESFR SLP136 OCNL LTGIC NE-SE TS NE-SE MOV E TWRINC P0014 T01390133=
201103091930 SPECI KATL 091930Z 16009KT 1/2SM -TSRA BR FEW002 BKN007CB OVC020 14/13 A3000 RMK AO2 SFC VIS 3 OCNL LTGIC NE-SE TS NE-SE MOV E P0010=
201103091930 SPECI KATL 091930Z 16009KT 1/2SM -TSRA BR FEW002 BKN007CB OVC020 14/13 A3000 RMK AO2 SFC VIS 3 OCNL LTGIC NE-SE TS NE-SE MOV E P0010=
201103091852 METAR KATL 091852Z 15007KT 2SM TSRA BR FEW002 BKN007CB OVC020 14/13 A3002 RMK AO2 SFC VIS 3 SLP164 OCNL LTGIC OHD TS OHD MOV E P0015 T01390133=
201103091833 SPECI KATL 091833Z 15004KT 2SM TSRA BR FEW002 BKN007CB OVC020 14/13 A3003 RMK AO2 SFC VIS 3 OCNL LTGIC OHD TS OHD MOV E P0009=
201103091833 SPECI KATL 091833Z 15004KT 2SM TSRA BR FEW002 BKN007CB OVC020 14/13 A3003 RMK AO2 SFC VIS 3 OCNL LTGIC OHD TS OHD MOV E P0009=
201103091752 METAR KATL 091752Z 20003KT 3SM TSRA BR FEW005 SCT015CB OVC040 14/13 A3005 RMK AO2 TWR VIS 4 TSB46 SLP177 OCNL LTGIC OHD TS OHD MOV E P0011 60080 T01390133 10144 20122 51019=
201103091749 SPECI KATL 091749Z 21003KT 3SM TSRA BR FEW005 BKN010CB OVC040 14/13 A3006 RMK AO2 TWR VIS 4 TSB46 OCNL LTGIC OHD TS OHD MOV E P0010=
201103091749 SPECI KATL 091749Z 21003KT 3SM TSRA BR FEW005 BKN010CB OVC040 14/13 A3006 RMK AO2 TWR VIS 4 TSB46 OCNL LTGIC OHD TS OHD MOV E P0010=
201103091652 METAR KATL 091652Z 17003KT 6SM -RA BR FEW008 SCT014 OVC020 14/13 A3005 RMK AO2 WSHFT 1539 TSB05E27 SLP175 CB DSNT NE-SE P0062 T01390128=
201103091627 SPECI KATL 091627Z 17004KT 8SM RA FEW012 BKN014 OVC020 14/13 A3004 RMK AO2 WSHFT 1539 TSB05E27 CB DSNT NE-SE P0056=
201103091627 SPECI KATL 091627Z 17004KT 8SM RA FEW012 BKN014 OVC020 14/13 A3004 RMK AO2 WSHFT 1539 TSB05E27 CB DSNT NE-SE P0056=
201103091606 SPECI KATL 091606Z 24004KT 4SM R09R/3000VP6000FT -TSRA BR BKN012CB BKN016 OVC020 14/13 A3005 RMK AO2 WSHFT 1539 TSB05 OCNL LTGIC NE-SE TS NE-SE MOV E P0049=
201103091606 SPECI KATL 091606Z 24004KT 4SM R09R/3000VP6000FT -TSRA BR BKN012CB BKN016 OVC020 14/13 A3005 RMK AO2 WSHFT 1539 TSB05 OCNL LTGIC NE-SE TS NE-SE MOV E P0049=
201103091601 SPECI KATL 091601Z 26006G19KT 2SM R09R/2800V5500FT +RA BR BKN012CB BKN016 OVC020 14/13 A3006 RMK AO2 WSHFT 1539 CB OHD-NE-SE MOV NE P0043=
201103091601 SPECI KATL 091601Z 26006G19KT 2SM R09R/2800V5500FT +RA BR BKN012CB BKN016 OVC020 14/13 A3006 RMK AO2 WSHFT 1539 CB OHD-NE-SE MOV NE P0043=
201103091554 SPECI KATL 091554Z 28013G20KT 1/2SM R09R/2800VP6000FT +RA FG BKN012CB BKN016 OVC020 14/13 A3006 RMK AO2 WSHFT 1539 TWR VIS 2 PRESRR CB OHD MOV NE P0008=
201103091554 SPECI KATL 091554Z 28013G20KT 1/2SM R09R/2800VP6000FT +RA FG BKN012CB BKN016 OVC020 14/13 A3006 RMK AO2 WSHFT 1539 TWR VIS 2 PRESRR CB OHD MOV NE P0008=
201103091552 METAR KATL 091552Z 29015G20KT 1SM R09R/3500VP6000FT +RA BR BKN012CB BKN016 OVC020 14/13 A3006 RMK AO2 PK WND 15033/1504 WSHFT 1534 TWR VIS 2 PRESRR SLP177 CB OHD MOV NE P0006 T01390128=
201103091550 SPECI KATL 091550Z 29014G20KT 2SM R09R/6000VP6000FT +RA BR BKN012CB BKN016 OVC020 14/12 A3006 RMK AO2 PK WND 15033/1504 WSHFT 1534 TWR VIS 3 PRESRR CB OHD MOV NE P0004=
201103091550 SPECI KATL 091550Z 29014G20KT 2SM R09R/6000VP6000FT +RA BR BKN012CB BKN016 OVC020 14/12 A3006 RMK AO2 PK WND 15033/1504 WSHFT 1534 TWR VIS 3 PRESRR CB OHD MOV NE P0004=
201103091533 SPECI KATL 091533Z 16012G23KT 3SM RA BR BKN012CB BKN016 OVC020 14/12 A2998 RMK AO2 PK WND 15033/1504 CB OHD-SW-NW MOV NE P0001=
201103091533 SPECI KATL 091533Z 16012G23KT 3SM RA BR BKN012CB BKN016 OVC020 14/12 A2998 RMK AO2 PK WND 15033/1504 CB OHD-SW-NW MOV NE P0001=
201103091530 SPECI KATL 091530Z 16018G24KT 5SM RA BR FEW012CB BKN016 OVC020 14/12 A2998 RMK AO2 PK WND 15033/1504 CB SW-NW MOV NE P0000=
201103091530 SPECI KATL 091530Z 16018G24KT 5SM RA BR FEW012CB BKN016 OVC020 14/12 A2998 RMK AO2 PK WND 15033/1504 CB SW-NW MOV NE P0000=
201103091452 METAR KATL 091452Z 16017G25KT 9SM -RA FEW012 BKN015 OVC018 14/12 A3000 RMK AO2 PK WND 15026/1432 RAB44 SLP156 P0000 60001 T01440117 58009=
201103091426 SPECI KATL 091426Z 16015G23KT 10SM FEW012 BKN015 OVC018 14/12 A3000 RMK AO2 PK WND 15026/1412=
201103091426 SPECI KATL 091426Z 16015G23KT 10SM FEW012 BKN015 OVC018 14/12 A3000 RMK AO2 PK WND 15026/1412=
201103091359 SPECI KATL 091359Z 15013G22KT 6SM BR FEW012 BKN015 OVC018 14/12 A3001 RMK AO2=
201103091359 SPECI KATL 091359Z 15013G22KT 6SM BR FEW012 BKN015 OVC018 14/12 A3001 RMK AO2=
201103091352 METAR KATL 091352Z 15014G24KT 6SM BR BKN012 OVC018 14/12 A3001 RMK AO2 SLP161 T01390117=
201103091338 SPECI KATL 091338Z 14017G23KT 6SM BR BKN012 OVC018 14/12 A3002 RMK AO2=
201103091338 SPECI KATL 091338Z 14017G23KT 6SM BR BKN012 OVC018 14/12 A3002 RMK AO2=
201103091252 METAR KATL 091252Z 14012G23KT 6SM BR BKN008 BKN010 OVC015 13/11 A3002 RMK AO2 RAE18 SLP166 P0001 T01280111=
201103091152 METAR KATL 091152Z COR 13014G21KT 6SM -RA BR SCT008 BKN010 OVC100 12/11 A3003 RMK AO2 SLP166 P0014 60020 70022 T01220111 10122 20106 58025=
201103091138 SPECI KATL 091138Z 13013G18KT 4SM RA BR BKN008 OVC012 12/11 A3004 RMK AO2 PRESFR P0011=
201103091138 SPECI KATL 091138Z 13013G18KT 4SM RA BR BKN008 OVC012 12/11 A3004 RMK AO2 PRESFR P0011=
201103091052 METAR KATL 091052Z 09009KT 6SM -RA BR OVC010 11/10 A3008 RMK AO2 CIG 009V015 SLP184 P0006 T01110100=
201103090952 METAR KATL 090952Z 10008KT 10SM -RA OVC012 12/09 A3010 RMK AO2 RAB39 SLP190 P0000 T01170094=
201103090852 METAR KATL 090852Z 10009KT 10SM OVC014 11/08 A3010 RMK AO2 SLP192 60000 T01110083 58023=
201103090752 METAR KATL 090752Z 10011G16KT 10SM BKN014 OVC020 11/08 A3012 RMK AO2 SLP198 T01060078=
201103090740 SPECI KATL 090740Z 10011KT 10SM BKN014 OVC020 11/08 A3012 RMK AO2=
201103090740 SPECI KATL 090740Z 10011KT 10SM BKN014 OVC020 11/08 A3012 RMK AO2=
201103090652 METAR KATL 090652Z 10011KT 10SM BKN016 OVC020 11/07 A3016 RMK AO2 RAE07 SLP213 P0000 T01060072=
201103090602 SPECI KATL 090602Z 09011KT 10SM -RA BKN019 BKN060 OVC220 11/07 A3017 RMK AO2 P0000=
201103090602 SPECI KATL 090602Z 09011KT 10SM -RA BKN019 BKN060 OVC220 11/07 A3017 RMK AO2 P0000=
201103090552 METAR KATL 090552Z 09013KT 10SM -RA BKN040 BKN060 OVC220 11/08 A3017 RMK AO2 SLP217 P0001 60002 T01060078 10139 20106 58006=
201103090452 METAR KATL 090452Z 09010KT 8SM -RA BKN040 BKN080 OVC220 12/07 A3021 RMK AO2 RAB22 SLP232 P0001 T01170067 401610050=
201103090352 METAR KATL 090352Z 08013KT 10SM FEW050 BKN100 OVC220 12/04 A3021 RMK AO2 SLP230 T01220044=
201103090252 METAR KATL 090252Z 08015KT 10SM BKN050 OVC220 13/04 A3019 RMK AO2 SLP224 T01280044 53002=
201103090152 METAR KATL 090152Z 10011KT 10SM FEW080 SCT150 OVC220 13/04 A3019 RMK AO2 SLP223 T01280044=
201103090052 METAR KATL 090052Z 08013KT 10SM FEW080 BKN150 OVC220 13/04 A3017 RMK AO2 SLP220 T01280039=
201103082352 METAR KATL 082352Z 09012KT 10SM FEW090 BKN150 OVC220 14/04 A3018 RMK AO2 SLP223 T01390039 10161 20133 55000=
201103082252 METAR KATL 082252Z 11010G16KT 10SM FEW090 BKN150 BKN250 16/05 A3017 RMK AO2 SLP218 T01560050=
201103082152 METAR KATL 082152Z 11011KT 10SM FEW090 BKN150 BKN250 16/05 A3017 RMK AO2 SLP217 VIRGA DSNT N-NE T01560050=
201103082052 METAR KATL 082052Z 10011G18KT 10SM FEW150 BKN180 BKN250 16/04 A3018 RMK AO2 SLP222 VIRGA DSNT N T01560044 56022=
201103081952 METAR KATL 081952Z 11009G17KT 10SM FEW150 BKN200 BKN250 15/03 A3019 RMK AO2 SLP224 T01500033=
201103081852 METAR KATL 081852Z 11011G19KT 10SM FEW055 BKN200 BKN250 14/02 A3021 RMK AO2 SLP233 T01440022=
201103081752 METAR KATL 081752Z 09015KT 10SM FEW050 BKN200 BKN250 13/02 A3025 RMK AO2 SLP244 T01330017 10133 20050 58016=
201103081652 METAR KATL 081652Z 09014G19KT 10SM BKN200 BKN250 12/01 A3028 RMK AO2 SLP254 T01220011=
201103081552 METAR KATL 081552Z 12013G19KT 10SM FEW150 SCT200 BKN250 12/01 A3029 RMK AO2 SLP259 T01220006=
201103081452 METAR KATL 081452Z COR 12017G25KT 10SM SCT250 10/01 A3030 RMK AO2 SLP261 T01000011 53011=
201103081352 METAR KATL 081352Z 10012KT 10SM SCT250 08/01 A3028 RMK AO2 SLP257 T00830006=
201103081252 METAR KATL 081252Z 10011KT 10SM FEW015 SCT150 06/01 A3026 RMK AO2 SLP249 T00610006=
201103081152 METAR KATL 081152Z 09010KT 10SM SCT150 06/01 A3026 RMK AO2 SLP251 T00560006 10083 20056 53014=
201103081052 METAR KATL 081052Z 11010KT 10SM FEW250 07/01 A3025 RMK AO2 SLP245 T00720006=
201103080952 METAR KATL 080952Z 11010KT 10SM BKN150 BKN250 08/M01 A3023 RMK AO2 SLP239 T00781006=
201103080852 METAR KATL 080852Z 11008KT 10SM SCT150 BKN250 08/M01 A3022 RMK AO2 SLP236 T00781006 53011=
201103080752 METAR KATL 080752Z 10008KT 10SM BKN150 08/M01 A3019 RMK AO2 SLP225 T00831011=
201103080652 METAR KATL 080652Z 11010KT 10SM BKN150 08/M01 A3019 RMK AO2 SLP226 T00831011=
201103080552 METAR KATL 080552Z 10007KT 10SM BKN150 08/M01 A3019 RMK AO2 SLP224 T00831006 10117 20083 51008=
201103080452 METAR KATL 080452Z 11007KT 10SM SCT150 BKN200 09/00 A3018 RMK AO2 SLP222 T00890000 401280017=
201103080352 METAR KATL 080352Z 11007KT 10SM SCT150 BKN200 09/00 A3017 RMK AO2 SLP220 T00940000=
201103080252 METAR KATL 080252Z 12006KT 10SM SCT150 BKN200 10/01 A3016 RMK AO2 SLP217 T01000011 51013=
201103080152 METAR KATL 080152Z 12005KT 10SM SCT150 BKN250 11/01 A3015 RMK AO2 SLP213 T01060011=
201103080052 METAR KATL 080052Z 11004KT 10SM FEW150 SCT200 BKN250 11/01 A3014 RMK AO2 SLP212 T01110011=
201103072352 METAR KATL 072352Z 12005KT 10SM SCT150 BKN200 11/01 A3012 RMK AO2 SLP206 T01110011 10128 20106 53006=
201103072252 METAR KATL 072252Z 10005KT 10SM FEW120 SCT150 BKN200 12/01 A3012 RMK AO2 SLP202 T01220011=
201103072152 METAR KATL 072152Z 11006KT 10SM FEW150 BKN180 BKN200 13/02 A3010 RMK AO2 SLP195 T01280017=
201103072052 METAR KATL 072052Z 00000KT 10SM FEW150 BKN180 OVC200 12/02 A3010 RMK AO2 SLP198 T01220017 55009=
201103071952 METAR KATL 071952Z 08003KT 10SM FEW150 BKN180 OVC200 11/01 A3010 RMK AO2 SLP198 VIRGA DSNT S-SW-W T01110011 $=
201103071852 METAR KATL 071852Z VRB03KT 10SM FEW200 BKN250 OVC300 11/00 A3011 RMK AO2 SLP199 T01110000 $=
201103071752 METAR KATL 071752Z 09006KT 10SM BKN200 OVC250 11/01 A3013 RMK AO2 SLP207 T01060011 10106 20017 58001 $=
201103071652 METAR KATL 071652Z 00000KT 10SM BKN200 OVC250 09/01 A3015 RMK AO2 SLP213 T00890006 $=
201103071552 METAR KATL 071552Z VRB03KT 10SM BKN200 OVC250 08/01 A3015 RMK AO2 SLP213 T00780006 $=
201103071452 METAR KATL 071452Z 03005KT 10SM BKN250 06/00 A3013 RMK AO2 SLP210 T00560000 51019=
201103071352 METAR KATL 071352Z 01006KT 10SM BKN250 03/M01 A3012 RMK AO2 SLP207 T00331006=
201103071252 METAR KATL 071252Z 34006KT 10SM FEW150 BKN250 02/M01 A3010 RMK AO2 SLP198 T00221011=
201103071152 METAR KATL 071152Z 35008KT 10SM SCT250 02/M01 A3008 RMK AO2 SLP191 70004 T00221011 10033 20017 51014=
201103071052 METAR KATL 071052Z 34009KT 10SM FEW180 02/M01 A3007 RMK AO2 SLP189 T00171011=
201103070952 METAR KATL 070952Z 33009KT 10SM SCT017 SCT180 02/M01 A3006 RMK AO2 SLP184 T00171011=
201103070852 METAR KATL 070852Z 33011KT 10SM FEW017 SCT180 02/M01 A3003 RMK AO2 SLP176 T00221011 53001=
201103070752 METAR KATL 070752Z 32007G17KT 10SM FEW017 SCT180 02/M01 A3003 RMK AO2 SLP173 T00221011=
201103070652 METAR KATL 070652Z 33012G21KT 10SM FEW018 03/M01 A3004 RMK AO2 SLP177 T00281011=
201103070552 METAR KATL 070552Z 33009G21KT 10SM BKN018 03/M01 A3003 RMK AO2 SLP175 T00331006 10050 20033 58008=
201103070452 METAR KATL 070452Z 33015G20KT 10SM OVC020 04/M01 A3004 RMK AO2 SLP177 T00391006 401500039=
201103070352 METAR KATL 070352Z 33010KT 10SM OVC020 04/00 A3006 RMK AO2 SLP184 T00390000=
201103070252 METAR KATL 070252Z 32012G21KT 10SM OVC020 04/00 A3006 RMK AO2 SLP184 T00390000 53013=
201103070152 METAR KATL 070152Z 33017G22KT 10SM OVC020 04/00 A3004 RMK AO2 SLP178 T00440000=
201103070052 METAR KATL 070052Z 33012G19KT 10SM OVC020 04/00 A3003 RMK AO2 SLP173 T00440000=
201103062352 METAR KATL 062352Z 33014G23KT 10SM OVC020 04/01 A3002 RMK AO2 SLP170 T00440006 10072 20044 51007=
201103062252 METAR KATL 062252Z 32013G20KT 10SM OVC016 05/01 A3002 RMK AO2 SLP168 T00500011=
201103062152 METAR KATL 062152Z 33018G23KT 10SM OVC018 06/02 A3000 RMK AO2 PK WND 33027/2105 SLP160 T00560017=
201103062052 METAR KATL 062052Z 32016G20KT 10SM OVC020 06/02 A3000 RMK AO2 SLP159 T00610022 51005=
201103061952 METAR KATL 061952Z 31014G22KT 10SM OVC016 06/02 A2999 RMK AO2 PK WND 33026/1935 SLP157 T00610022=
201103061852 METAR KATL 061852Z 33018G23KT 10SM OVC016 07/03 A2999 RMK AO2 PK WND 32026/1827 SLP156 T00670028=
201103061820 SPECI KATL 061820Z 32016G25KT 10SM OVC016 07/03 A2998 RMK AO2=
201103061820 SPECI KATL 061820Z 32016G25KT 10SM OVC016 07/03 A2998 RMK AO2=
201103061752 METAR KATL 061752Z 31016G23KT 10SM OVC014 07/03 A2998 RMK AO2 PK WND 31027/1713 SLP153 60004 T00670028 10089 20056 51018=
201103061652 METAR KATL 061652Z 32020G26KT 10SM OVC014 07/04 A2996 RMK AO2 PK WND 31028/1607 SLP146 T00670039=
201103061552 METAR KATL 061552Z 33016G24KT 10SM OVC010 06/03 A2995 RMK AO2 PK WND 30034/1520 SLP145 T00610033=
201103061525 SPECI KATL 061525Z 30022G34KT 10SM OVC010 06/03 A2996 RMK AO2 PK WND 30034/1520=
201103061525 SPECI KATL 061525Z 30022G34KT 10SM OVC010 06/03 A2996 RMK AO2 PK WND 30034/1520=
201103061452 METAR KATL 061452Z 31018G25KT 9SM OVC008 06/04 A2993 RMK AO2 PK WND 32032/1432 RAE1359 PRESRR SLP135 P0000 60004 T00560039 53031=
201103061422 SPECI KATL 061422Z 30020G28KT 9SM OVC008 06/04 A2989 RMK AO2 PK WND 30028/1422 RAE1359 P0000=
201103061422 SPECI KATL 061422Z 30020G28KT 9SM OVC008 06/04 A2989 RMK AO2 PK WND 30028/1422 RAE1359 P0000=
201103061352 METAR KATL 061352Z 32017G23KT 10SM -RA FEW007 OVC010 06/05 A2988 RMK AO2 PK WND 30027/1305 SLP121 P0000 T00610050=
201103061252 METAR KATL 061252Z 31017G27KT 9SM -RA FEW007 BKN012 OVC040 07/06 A2987 RMK AO2 PK WND 31027/1248 SLP114 P0004 T00720056=
201103061231 SPECI KATL 061231Z 31019G24KT 8SM -RA FEW007 BKN014 OVC040 08/06 A2986 RMK AO2 P0003=
201103061231 SPECI KATL 061231Z 31019G24KT 8SM -RA FEW007 BKN014 OVC040 08/06 A2986 RMK AO2 P0003=
201103061159 SPECI KATL 061159Z 32013KT 6SM RA BR FEW005 BKN025 OVC040 08/07 A2984 RMK AO2 P0001=
201103061159 SPECI KATL 061159Z 32013KT 6SM RA BR FEW005 BKN025 OVC040 08/07 A2984 RMK AO2 P0001=
201103061152 METAR KATL 061152Z 32016G23KT 10SM -RA FEW010 BKN025 OVC040 09/07 A2983 RMK AO2 PK WND 34027/1101 SLP102 P0002 60019 70077 T00890072 10150 20089 53019=
201103061118 SPECI KATL 061118Z 33018G23KT 9SM -RA SCT007 BKN015 OVC029 09/08 A2980 RMK AO2 PK WND 34027/1101 P0001=
201103061118 SPECI KATL 061118Z 33018G23KT 9SM -RA SCT007 BKN015 OVC029 09/08 A2980 RMK AO2 PK WND 34027/1101 P0001=
201103061052 METAR KATL 061052Z 32018G35KT 6SM -RA BR BKN007 OVC014 10/08 A2979 RMK AO2 PK WND 33043/1027 WSHFT 1014 SLP088 P0013 T01000083=
201103061028 SPECI KATL 061028Z 33032G43KT 4SM -RA BR BKN007 OVC014 11/09 A2978 RMK AO2 PK WND 33043/1027 WSHFT 1014 PRESRR P0012=
201103061028 SPECI KATL 061028Z 33032G43KT 4SM -RA BR BKN007 OVC014 11/09 A2978 RMK AO2 PK WND 33043/1027 WSHFT 1014 PRESRR P0012=
201103061016 SPECI KATL 061016Z 26017G27KT 2SM +RA BR OVC007 13/13 A2976 RMK AO2 PK WND 29027/1016 P0009=
201103061016 SPECI KATL 061016Z 26017G27KT 2SM +RA BR OVC007 13/13 A2976 RMK AO2 PK WND 29027/1016 P0009=
201103061007 SPECI KATL 061007Z 19007KT 5SM RA BR OVC008 14/13 A2975 RMK AO2 CIG 006V012 P0003=
201103061007 SPECI KATL 061007Z 19007KT 5SM RA BR OVC008 14/13 A2975 RMK AO2 CIG 006V012 P0003=
201103060952 METAR KATL 060952Z 17009KT 8SM -RA FEW005 BKN010 OVC022 14/12 A2975 RMK AO2 RAB47 SLP074 P0000 T01390122=
201103060852 METAR KATL 060852Z 19008KT 10SM FEW005 BKN014 OVC022 14/12 A2978 RMK AO2 RAE45 SLP080 P0002 60004 T01390122 56034=
201103060752 METAR KATL 060752Z 17011G17KT 9SM -RA FEW005 BKN014 OVC022 14/12 A2981 RMK AO2 RAB0654E19B52 SLP093 P0002 T01440122=
201103060652 METAR KATL 060652Z 20009G18KT 10SM SCT005 BKN012 OVC022 14/12 A2982 RMK AO2 RAE01 SLP096 P0000 T01440122=
201103060645 SPECI KATL 060645Z 16011G19KT 10SM SCT005 BKN012 OVC022 14/12 A2983 RMK AO2 RAE01 P0000=
201103060645 SPECI KATL 060645Z 16011G19KT 10SM SCT005 BKN012 OVC022 14/12 A2983 RMK AO2 RAE01 P0000=
201103060632 SPECI KATL 060632Z 13007KT 110V170 10SM SCT005 SCT010 OVC022 14/13 A2984 RMK AO2 RAE01 P0000=
201103060632 SPECI KATL 060632Z 13007KT 110V170 10SM SCT005 SCT010 OVC022 14/13 A2984 RMK AO2 RAE01 P0000=
201103060610 SPECI KATL 060610Z 15009G17KT 8SM SCT005 BKN010 OVC022 14/13 A2985 RMK AO2 RAE01 PRESFR P0000=
201103060610 SPECI KATL 060610Z 15009G17KT 8SM SCT005 BKN010 OVC022 14/13 A2985 RMK AO2 RAE01 PRESFR P0000=
201103060552 METAR KATL 060552Z 13009G15KT 6SM -RA BR OVC005 14/13 A2988 RMK AO2 SLP115 CIG 003V008 P0004 60031 T01390128 10144 20139 58031=
201103060452 METAR KATL 060452Z 13006KT 6SM -RA BR BKN005 OVC070 14/13 A2992 RMK AO2 SLP131 P0005 T01390128 401500089=
201103060352 METAR KATL 060352Z 14005KT 4SM -RA BR SCT003 BKN006 OVC030 14/13 A2995 RMK AO2 SLP142 P0009 T01390133=
201103060252 METAR KATL 060252Z 15009KT 6SM -RA BR BKN006 BKN047 OVC080 14/13 A2997 RMK AO2 SLP149 P0005 60013 T01390133 56010=
201103060152 METAR KATL 060152Z 14006KT 6SM -RA BR BKN006 OVC070 14/13 A2998 RMK AO2 SLP151 P0002 T01390133=
201103060052 METAR KATL 060052Z 14007KT 6SM -RA BR SCT005 OVC008 14/13 A2999 RMK AO2 SLP155 RAB2354 P0006 T01440133 $=
201103060021 SPECI KATL 060021Z 14005KT 6SM -RA BR BKN008 BKN014 OVC043 14/13 A3000 RMK AO2 RAB2354 P0005=
201103060021 SPECI KATL 060021Z 14005KT 6SM -RA BR BKN008 BKN014 OVC043 14/13 A3000 RMK AO2 RAB2354 P0005=
201103052352 METAR KATL 052352Z 15007KT 7SM FEW008 BKN014 OVC020 14/13 A3000 RMK AO2 SLP159 60005 T01440128 10150 20139 55010=
201103052304 SPECI KATL 052304Z 15009KT 7SM SCT008 BKN014 OVC021 14/13 A3000 RMK AO2=
201103052304 SPECI KATL 052304Z 15009KT 7SM SCT008 BKN014 OVC021 14/13 A3000 RMK AO2=
201103052252 METAR KATL 052252Z 14007KT 10SM BKN007 OVC014 14/13 A3000 RMK AO2 SLP157 T01440133=
201103052152 METAR KATL 052152Z 13007KT 6SM BR BKN007 BKN012 OVC065 14/13 A3001 RMK AO2 RAE31 SLP161 P0001 T01390128=
201103052117 SPECI KATL 052117Z 13009KT 7SM -RA BKN007 BKN010 OVC019 14/13 A3002 RMK AO2 P0001=
201103052117 SPECI KATL 052117Z 13009KT 7SM -RA BKN007 BKN010 OVC019 14/13 A3002 RMK AO2 P0001=
201103052052 METAR KATL 052052Z 15008KT 8SM -RA SCT005 OVC019 14/13 A3003 RMK AO2 SLP170 P0004 60004 T01440128 56029=
201103051952 METAR KATL 051952Z 16008KT 9SM -RA BKN016 OVC022 15/12 A3006 RMK AO2 RAB47 SLP179 CB DSNT SW-W P0000 T01500122=
201103051930 SPECI KATL 051930Z 16006KT 9SM OVC016 15/12 A3006 RMK AO2=
201103051930 SPECI KATL 051930Z 16006KT 9SM OVC016 15/12 A3006 RMK AO2=
201103051852 METAR KATL 051852Z 15006G14KT 8SM OVC014 15/12 A3008 RMK AO2 SLP186 T01500122=
201103051752 METAR KATL 051752Z 16009G19KT 7SM OVC011 14/12 A3012 RMK AO2 DZE39 SLP201 P0000 60022 T01390122 10139 20094 58025=
201103051652 METAR KATL 051652Z 16010G19KT 6SM -DZ BR OVC006 13/12 A3016 RMK AO2 SLP213 P0001 T01280117=
201103051612 SPECI KATL 051612Z 15011G18KT 5SM -DZ BR OVC006 12/11 A3018 RMK AO2 P0001=
201103051612 SPECI KATL 051612Z 15011G18KT 5SM -DZ BR OVC006 12/11 A3018 RMK AO2 P0001=
201103051552 METAR KATL 051552Z 14012G21KT 5SM -DZ BR OVC004 12/11 A3019 RMK AO2 RAE32DZB49 SLP225 P0000 T01220111=
201103051452 METAR KATL 051452Z 14009KT 5SM -RA BR OVC004 11/11 A3020 RMK AO2 SLP228 P0005 60021 T01110106 58004=
201103051413 SPECI KATL 051413Z 14008KT 3SM -RA BR OVC004 11/10 A3021 RMK AO2 SFC VIS 4 P0002=
201103051413 SPECI KATL 051413Z 14008KT 3SM -RA BR OVC004 11/10 A3021 RMK AO2 SFC VIS 4 P0002=
201103051352 METAR KATL 051352Z 14008KT 2SM -RA BR BKN004 OVC007 11/09 A3021 RMK AO2 SFC VIS 4 SLP233 P0005 T01060094=
201103051252 METAR KATL 051252Z 12007KT 2SM -RA BR BKN004 OVC007 10/09 A3021 RMK AO2 SFC VIS 5 SLP234 P0011 T01000094=
201103051152 METAR KATL 051152Z 12007KT 3SM -RA BR BKN004 OVC010 10/09 A3021 RMK AO2 SFC VIS 5 SLP233 P0005 60026 70026 T01000089 10100 20094 56010=
201103051125 SPECI KATL 051125Z 11008KT 3SM -RA BR BKN004 OVC010 10/09 A3021 RMK AO2 SFC VIS 5 P0002=
201103051125 SPECI KATL 051125Z 11008KT 3SM -RA BR BKN004 OVC010 10/09 A3021 RMK AO2 SFC VIS 5 P0002=
201103051052 METAR KATL 051052Z 11007KT 6SM -RA BR BKN005 OVC010 09/09 A3021 RMK AO2 SLP234 P0007 T00940089=
201103051020 SPECI KATL 051020Z 11007KT 5SM RA BR BKN008 OVC025 09/08 A3022 RMK AO2 P0003=
201103051020 SPECI KATL 051020Z 11007KT 5SM RA BR BKN008 OVC025 09/08 A3022 RMK AO2 P0003=
201103050952 METAR KATL 050952Z 12007KT 8SM -RA BKN010 OVC025 09/08 A3022 RMK AO2 SLP238 P0005 T00940083=
201103050911 SPECI KATL 050911Z 11009KT 8SM -RA BKN011 BKN025 OVC050 10/08 A3023 RMK AO2 P0002=
201103050911 SPECI KATL 050911Z 11009KT 8SM -RA BKN011 BKN025 OVC050 10/08 A3023 RMK AO2 P0002=
201103050852 METAR KATL 050852Z 10007KT 6SM RA BR SCT010 BKN025 OVC050 09/08 A3024 RMK AO2 SLP243 P0007 60009 T00940083 58019=
201103050804 SPECI KATL 050804Z 11008KT 7SM -RA FEW008 BKN027 OVC055 09/08 A3026 RMK AO2 P0001=
201103050804 SPECI KATL 050804Z 11008KT 7SM -RA FEW008 BKN027 OVC055 09/08 A3026 RMK AO2 P0001=
201103050752 METAR KATL 050752Z 10007KT 7SM -RA FEW005 SCT025 OVC055 09/07 A3026 RMK AO2 RAB26 SLP251 P0002 T00940072=
201103050741 SPECI KATL 050741Z 11006KT 7SM -RA FEW005 SCT025 OVC055 10/07 A3027 RMK AO2 RAB26 P0001=
201103050741 SPECI KATL 050741Z 11006KT 7SM -RA FEW005 SCT025 OVC055 10/07 A3027 RMK AO2 RAB26 P0001=
201103050652 METAR KATL 050652Z 11006KT 10SM BKN025 BKN060 OVC150 10/06 A3029 RMK AO2 SLP259 SHRA VC SW-NW T01000061=
201103050557 SPECI KATL 050557Z 11007KT 10SM BKN027 BKN070 OVC150 09/06 A3030 RMK AO2=
201103050557 SPECI KATL 050557Z 11007KT 10SM BKN027 BKN070 OVC150 09/06 A3030 RMK AO2=
201103050552 METAR KATL 050552Z 11007KT 10SM SCT027 BKN070 OVC150 09/06 A3030 RMK AO2 SLP263 T00940056 10094 20072 58010=
201103050452 METAR KATL 050452Z 10009KT 10SM FEW055 SCT070 OVC200 09/05 A3031 RMK AO2 SLP268 T00890050 401220072=
201103050352 METAR KATL 050352Z 10007KT 10SM BKN055 BKN070 08/04 A3033 RMK AO2 SLP273 T00830039=
201103050252 METAR KATL 050252Z 10011KT 10SM SCT050 OVC065 08/04 A3033 RMK AO2 SLP274 T00830039 53003=
201103050152 METAR KATL 050152Z 10011KT 10SM SCT055 OVC070 08/03 A3031 RMK AO2 SLP269 T00780033=
201103050052 METAR KATL 050052Z 09012KT 10SM FEW013 SCT050 BKN060 08/04 A3031 RMK AO2 SLP268 T00780039=
201103042352 METAR KATL 042352Z 09012KT 10SM FEW013 BKN050 07/04 A3032 RMK AO2 SLP270 T00720039 10089 20072 55007=
201103042340 SPECI KATL 042340Z 09010KT 10SM SCT013 BKN050 BKN120 07/04 A3032 RMK AO2=
201103042340 SPECI KATL 042340Z 09010KT 10SM SCT013 BKN050 BKN120 07/04 A3032 RMK AO2=
201103042252 METAR KATL 042252Z 09012KT 10SM OVC013 08/04 A3032 RMK AO2 SLP269 T00780044=
201103042212 SPECI KATL 042212Z 08013KT 10SM BKN013 BKN018 08/04 A3032 RMK AO2=
201103042212 SPECI KATL 042212Z 08013KT 10SM BKN013 BKN018 08/04 A3032 RMK AO2=
201103042159 SPECI KATL 042159Z 09011KT 10SM FEW011 BKN015 BKN020 08/04 A3033 RMK AO2=
201103042159 SPECI KATL 042159Z 09011KT 10SM FEW011 BKN015 BKN020 08/04 A3033 RMK AO2=
201103042152 METAR KATL 042152Z 11010KT 10SM BKN011 OVC019 08/04 A3033 RMK AO2 SLP273 BINOVC N T00780044=
201103042052 METAR KATL 042052Z 09012G16KT 10SM OVC011 08/04 A3034 RMK AO2 SLP277 BINOVC SE T00830044 56022=
201103041952 METAR KATL 041952Z 09012KT 10SM OVC011 08/04 A3036 RMK AO2 SLP285 T00780044=
201103041852 METAR KATL 041852Z 09011KT 10SM OVC013 08/04 A3038 RMK AO2 SLP290 T00780039=
201103041832 SPECI KATL 041832Z 12012KT 10SM OVC013 08/04 A3039 RMK AO2=
201103041832 SPECI KATL 041832Z 12012KT 10SM OVC013 08/04 A3039 RMK AO2=
201103041752 METAR KATL 041752Z 10011KT 10SM BKN015 08/04 A3041 RMK AO2 SLP299 T00830039 10094 20078 58007=
201103041742 SPECI KATL 041742Z 10011KT 10SM OVC015 08/04 A3041 RMK AO2=
201103041742 SPECI KATL 041742Z 10011KT 10SM OVC015 08/04 A3041 RMK AO2=
201103041652 METAR KATL 041652Z 10012KT 10SM OVC013 08/04 A3043 RMK AO2 SLP306 T00830039=
201103041607 SPECI KATL 041607Z 10016G20KT 10SM OVC013 08/04 A3043 RMK AO2=
201103041607 SPECI KATL 041607Z 10016G20KT 10SM OVC013 08/04 A3043 RMK AO2=
201103041552 METAR KATL 041552Z 10014G18KT 10SM OVC015 08/04 A3043 RMK AO2 SLP307 T00830039=
201103041452 METAR KATL 041452Z 11011G18KT 10SM OVC020 09/02 A3043 RMK AO2 SLP305 T00940022 53017=
201103041352 METAR KATL 041352Z 09012KT 10SM OVC020 09/02 A3041 RMK AO2 SLP298 T00890017=
201103041252 METAR KATL 041252Z 10011G17KT 10SM BKN020 BKN025 09/01 A3039 RMK AO2 SLP290 T00890006=
201103041152 METAR KATL 041152Z 09013KT 10SM BKN022 BKN030 09/00 A3038 RMK AO2 SLP288 T00890000 10117 20089 53014=
201103041052 METAR KATL 041052Z 10010KT 10SM BKN024 OVC028 09/M02 A3036 RMK AO2 SLP280 T00941017=
201103041033 SPECI KATL 041033Z 10013G18KT 10SM BKN024 OVC028 09/M02 A3035 RMK AO2=
201103041033 SPECI KATL 041033Z 10013G18KT 10SM BKN024 OVC028 09/M02 A3035 RMK AO2=
201103040952 METAR KATL 040952Z 10010KT 10SM BKN031 09/M02 A3034 RMK AO2 SLP273 T00941017=
201103040852 METAR KATL 040852Z 11016G22KT 10SM BKN031 11/M01 A3034 RMK AO2 SLP271 T01061006 58001=
201103040752 METAR KATL 040752Z 12014G21KT 10SM BKN028 11/02 A3034 RMK AO2 SLP271 T01110017=
201103040734 SPECI KATL 040734Z 11011G20KT 10SM OVC026 11/02 A3034 RMK AO2=
201103040734 SPECI KATL 040734Z 11011G20KT 10SM OVC026 11/02 A3034 RMK AO2=
201103040652 METAR KATL 040652Z 11014G18KT 10SM BKN032 11/03 A3034 RMK AO2 SLP273 T01110033=
201103040552 METAR KATL 040552Z 12011KT 10SM BKN034 BKN180 12/03 A3034 RMK AO2 SLP272 T01170028 10167 20117 50007=
201103040452 METAR KATL 040452Z 11011G17KT 10SM FEW180 SCT250 13/03 A3034 RMK AO2 SLP273 T01280028 402000078=
201103040352 METAR KATL 040352Z 12013G18KT 10SM BKN250 13/02 A3033 RMK AO2 SLP270 T01330017=
201103040252 METAR KATL 040252Z 11010KT 10SM FEW150 BKN250 14/01 A3032 RMK AO2 SLP265 T01440006 53015=
201103040152 METAR KATL 040152Z 11010KT 10SM BKN150 BKN250 15/00 A3030 RMK AO2 SLP260 T01500000=
201103040052 METAR KATL 040052Z 11009KT 10SM FEW150 BKN250 16/00 A3029 RMK AO2 SLP256 T01610000=
201103032352 METAR KATL 032352Z 11011KT 10SM FEW120 BKN250 17/M01 A3027 RMK AO2 SLP252 T01671006 10200 20167 53009=
201103032252 METAR KATL 032252Z 12008G16KT 10SM FEW150 BKN250 18/M01 A3026 RMK AO2 SLP245 T01831006=
201103032152 METAR KATL 032152Z 13011G23KT 10SM BKN250 19/M01 A3024 RMK AO2 SLP240 T01941006=
201103032052 METAR KATL 032052Z 12015G21KT 10SM BKN250 19/M01 A3025 RMK AO2 SLP241 T01941006 56026=
201103031952 SPECI KATL 031952Z 15014G20KT 10SM BKN250 19/01 A3027 RMK AO2 SLP248 T01890011=
201103031852 METAR KATL 031852Z COR 14016G23KT 10SM FEW250 18/01 A3029 RMK AO2 SLP255 T01830011=
201103031752 METAR KATL 031752Z 12015G20KT 10SM FEW250 18/02 A3033 RMK AO2 SLP268 T01780022 10178 20078 58012=
201103031652 METAR KATL 031652Z 10016G21KT 10SM FEW250 17/03 A3036 RMK AO2 SLP278 T01720028=
201103031552 METAR KATL 031552Z 10011KT 10SM FEW150 SCT250 16/03 A3037 RMK AO2 SLP281 T01560033=
201103031452 METAR KATL 031452Z 09014KT 10SM FEW150 SCT250 14/03 A3036 RMK AO2 SLP279 T01390033 51024=
201103031352 METAR KATL 031352Z 09010KT 10SM FEW150 SCT250 11/04 A3034 RMK AO2 SLP275 T01110039=
201103031252 METAR KATL 031252Z COR 09010KT 10SM SCT150 BKN250 09/04 A3031 RMK AO2 SLP266 T00890039=
201103031152 METAR KATL 031152Z 08010KT 10SM FEW150 SCT250 08/04 A3029 RMK AO2 SLP257 T00830039 10139 20083 51014=
201103031052 METAR KATL 031052Z 07009KT 10SM SCT150 BKN250 09/03 A3028 RMK AO2 SLP253 T00890033=
201103030952 METAR KATL 030952Z 08008KT 10SM SCT150 BKN250 09/02 A3026 RMK AO2 SLP246 T00940022=
201103030852 METAR KATL 030852Z 06007KT 10SM SCT150 BKN250 12/02 A3025 RMK AO2 SLP241 T01170017 53004=
201103030752 METAR KATL 030752Z 00000KT 10SM FEW180 12/02 A3024 RMK AO2 SLP236 T01220017=
201103030652 METAR KATL 030652Z 00000KT 10SM SCT180 BKN250 13/02 A3024 RMK AO2 SLP237 T01330022=
201103030552 METAR KATL 030552Z 00000KT 10SM BKN180 OVC250 13/04 A3023 RMK AO2 SLP236 T01330039 10172 20128 53003=
201103030452 METAR KATL 030452Z 00000KT 10SM BKN180 OVC250 14/04 A3023 RMK AO2 SLP234 T01440039 402000061=
201103030352 METAR KATL 030352Z 04004KT 10SM BKN200 OVC250 17/01 A3022 RMK AO2 SLP233 T01670006=
201103030252 METAR KATL 030252Z 03006KT 10SM BKN200 OVC250 17/03 A3022 RMK AO2 SLP233 T01720033 53007=
201103030152 METAR KATL 030152Z 33004KT 10SM FEW150 BKN200 OVC250 16/04 A3021 RMK AO2 SLP229 T01610044=
201103030052 METAR KATL 030052Z 00000KT 10SM FEW150 BKN200 OVC250 16/05 A3020 RMK AO2 SLP227 T01610050=
201103022352 METAR KATL 022352Z 00000KT 10SM FEW150 BKN200 OVC250 17/04 A3020 RMK AO2 SLP227 T01720039 10200 20167 53001=
201103022252 METAR KATL 022252Z 30004KT 10SM FEW150 BKN200 OVC250 19/03 A3020 RMK AO2 SLP226 T01890028=
201103022152 METAR KATL 022152Z 30004KT 10SM FEW150 BKN250 19/03 A3020 RMK AO2 SLP224 T01940033=
201103022052 METAR KATL 022052Z 31005KT 10SM FEW150 BKN250 19/04 A3020 RMK AO2 SLP225 T01940039 56023=
201103021952 METAR KATL 021952Z 28004KT 10SM BKN250 19/04 A3021 RMK AO2 SLP229 T01940044=
201103021852 METAR KATL 021852Z 35003KT 10SM BKN250 18/06 A3023 RMK AO2 SLP237 T01830056=
201103021752 METAR KATL 021752Z 24003KT 10SM BKN250 17/06 A3027 RMK AO2 SLP249 T01670061 10167 20067 58015=
201103021652 METAR KATL 021652Z VRB03KT 10SM BKN250 15/06 A3030 RMK AO2 SLP258 T01500061=
201103021552 METAR KATL 021552Z VRB03KT 10SM BKN250 14/05 A3031 RMK AO2 SLP263 T01390050=
201103021452 METAR KATL 021452Z 17005KT 10SM BKN250 12/04 A3032 RMK AO2 SLP266 T01170044 51015=
201103021352 METAR KATL 021352Z 17003KT 10SM BKN250 10/05 A3031 RMK AO2 SLP262 T01000050=
201103021252 METAR KATL 021252Z 10003KT 10SM SCT250 07/03 A3029 RMK AO2 SLP258 T00720033=
201103021152 METAR KATL 021152Z 00000KT 10SM FEW250 07/02 A3027 RMK AO2 SLP252 T00670022 10094 20061 53010=
201103021052 METAR KATL 021052Z 08004KT 10SM CLR 06/02 A3026 RMK AO2 SLP246 T00610017=
201103020952 METAR KATL 020952Z 09005KT 10SM CLR 07/02 A3024 RMK AO2 SLP242 T00670017=
201103020852 METAR KATL 020852Z 08005KT 10SM CLR 08/02 A3024 RMK AO2 SLP240 T00780022 55001=
201103020752 METAR KATL 020752Z 08004KT 10SM CLR 09/02 A3024 RMK AO2 SLP239 T00890022=
201103020652 METAR KATL 020652Z 09004KT 10SM CLR 09/03 A3024 RMK AO2 SLP241 T00890028=
201103020552 METAR KATL 020552Z 09005KT 10SM FEW250 09/03 A3024 RMK AO2 SLP241 T00940028 10167 20094 55002=
201103020452 METAR KATL 020452Z 12005KT 10SM FEW250 12/03 A3024 RMK AO2 SLP239 T01170033 401940061=
201103020352 METAR KATL 020352Z 11004KT 10SM FEW250 12/04 A3025 RMK AO2 SLP244 T01220039=
201103020252 METAR KATL 020252Z 11005KT 10SM FEW250 13/04 A3025 RMK AO2 SLP244 T01330039 53016=
201103020152 METAR KATL 020152Z 11005KT 10SM FEW250 14/04 A3022 RMK AO2 SLP236 T01390044=
201103020052 METAR KATL 020052Z 12005KT 10SM CLR 16/04 A3021 RMK AO2 SLP230 T01560044=
201103012352 METAR KATL 012352Z 12005KT 10SM CLR 17/04 A3020 RMK AO2 SLP227 T01670044 10194 20150 53005=
201103012252 METAR KATL 012252Z 06006KT 10SM CLR 18/04 A3018 RMK AO2 SLP220 T01780044=
201103012152 METAR KATL 012152Z VRB04KT 10SM FEW250 19/04 A3017 RMK AO2 SLP217 T01890044=
201103012052 METAR KATL 012052Z 01007KT 10SM CLR 18/04 A3018 RMK AO2 SLP220 T01830044 55009=
201103011952 METAR KATL 011952Z 05003KT 10SM CLR 18/06 A3018 RMK AO2 SLP219 T01780056=
201103011852 SPECI KATL 011852Z VRB03KT 10SM FEW040 16/06 A3020 RMK AO2 SLP225 T01610056=
201103011752 SPECI KATL 011752Z VRB05KT 10SM FEW035 15/06 A3021 RMK AO2 SLP229 T01500061 10150 20061 58001=
201103011652 METAR KATL 011652Z 06004KT 10SM FEW030 13/06 A3023 RMK AO2 SLP235 T01330056=
201103011552 METAR KATL 011552Z 34006KT 10SM FEW020 12/05 A3022 RMK AO2 SLP234 T01170050=
201103011452 METAR KATL 011452Z 35009KT 10SM CLR 09/04 A3022 RMK AO2 SLP233 T00940039 53030=
201103011352 METAR KATL 011352Z 35008KT 10SM CLR 08/03 A3018 RMK AO2 SLP220 T00780033=
201103011252 METAR KATL 011252Z 33005KT 10SM FEW015 07/04 A3015 RMK AO2 SLP210 T00670039=
