##########################################################
# Query made at 04/19/2024 23:20:03 UTC
# Time interval: from 01/01/2011 12:00  to 01/31/2011 12:59  UTC
##########################################################

##########################################################
# KATL, Atlanta, Hartsfield - Jackson Atlanta International Airport (United States)
# WMO index: 72219. WIGOS ID: 0-20000-0-72219
# Latitude 33-38-59N. Longitude 084-25-00W. Altitude 312 m.
##########################################################

201101311252 METAR KATL 311252Z 22004KT 5SM -RA BR FEW004 BKN060 OVC080 11/10 A3017 RMK AO2 SLP215 P0000 T01060100=
201101311240 SPECI KATL 311240Z 22003KT 4SM BR SCT002 BKN075 11/10 A3016 RMK AO2 RAE29 P0000=
201101311240 SPECI KATL 311240Z 22003KT 4SM BR SCT002 BKN075 11/10 A3016 RMK AO2 RAE29 P0000=
201101311207 SPECI KATL 311207Z 22004KT 2SM -RA BR BKN002 BKN045 OVC070 11/10 A3015 RMK AO2 SFC VIS 3 P0000=
201101311207 SPECI KATL 311207Z 22004KT 2SM -RA BR BKN002 BKN045 OVC070 11/10 A3015 RMK AO2 SFC VIS 3 P0000=
201101311152 METAR KATL 311152Z 20004KT 4SM -RA BR FEW015 SCT045 OVC070 11/10 A3014 RMK AO2 SLP205 P0001 60002 70002 T01060100 10128 20106 53005=
201101311052 METAR KATL 311052Z 24004KT 7SM -RA BKN045 BKN055 OVC070 11/10 A3012 RMK AO2 SLP198 P0000 T01110100=
201101310952 METAR KATL 310952Z 25004KT 9SM -RA FEW018 OVC080 11/10 A3012 RMK AO2 RAE27B47 SLP197 P0000 T01110100=
201101310852 METAR KATL 310852Z 24003KT 9SM -RA OVC075 11/09 A3012 RMK AO2 RAB06 SLP197 P0001 60001 T01110094 53003=
201101310752 METAR KATL 310752Z 25003KT 10SM BKN090 BKN120 OVC150 12/09 A3012 RMK AO2 SLP195 T01220089=
201101310652 METAR KATL 310652Z 24004KT 10SM BKN100 OVC120 13/08 A3011 RMK AO2 SLP194 T01280083=
201101310552 METAR KATL 310552Z 24004KT 10SM OVC110 13/08 A3011 RMK AO2 SLP195 T01280078 10156 20117 58003=
201101310452 METAR KATL 310452Z 22004KT 10SM BKN120 OVC250 12/07 A3012 RMK AO2 SLP196 T01170067 402110083=
201101310352 METAR KATL 310352Z 24003KT 10SM FEW150 OVC250 12/07 A3012 RMK AO2 SLP198 T01220067=
201101310252 METAR KATL 310252Z 24006KT 10SM FEW150 OVC250 13/06 A3012 RMK AO2 SLP200 T01330061 53009=
201101310152 METAR KATL 310152Z 24006KT 10SM FEW070 SCT150 BKN250 14/06 A3012 RMK AO2 SLP199 T01390056=
201101310052 METAR KATL 310052Z 23005KT 10SM FEW150 BKN250 14/05 A3010 RMK AO2 SLP193 T01440050=
201101302352 METAR KATL 302352Z 23006KT 10SM FEW070 SCT150 SCT250 16/04 A3010 RMK AO2 SLP191 T01560044 10211 20156 53011=
201101302252 METAR KATL 302252Z 22008KT 10SM FEW070 SCT150 SCT250 18/04 A3007 RMK AO2 SLP181 T01780044=
201101302152 METAR KATL 302152Z 25007KT 10SM FEW070 SCT150 SCT250 20/03 A3007 RMK AO2 SLP179 T02000028=
201101302052 METAR KATL 302052Z 27010KT 10SM FEW070 SCT150 BKN250 21/02 A3006 RMK AO2 SLP178 T02060017 56015=
201101301952 METAR KATL 301952Z 23010G15KT 10SM FEW060 SCT150 BKN250 21/04 A3007 RMK AO2 SLP179 T02060044=
201101301852 METAR KATL 301852Z 24009KT 10SM FEW060 SCT150 BKN250 20/04 A3008 RMK AO2 SLP185 T02000044=
201101301752 METAR KATL 301752Z 24008KT 10SM SCT150 SCT250 19/05 A3011 RMK AO2 SLP193 T01890050 10194 20083 58012=
201101301652 METAR KATL 301652Z 28006KT 10SM SCT150 BKN250 17/06 A3013 RMK AO2 SLP202 T01720056=
201101301552 METAR KATL 301552Z 27006KT 10SM SCT150 BKN250 16/04 A3016 RMK AO2 SLP209 T01610044=
201101301452 METAR KATL 301452Z 26003KT 10SM SCT150 SCT250 13/04 A3014 RMK AO2 SLP207 T01330039 53013=
201101301352 METAR KATL 301352Z 00000KT 10SM FEW150 BKN250 09/03 A3012 RMK AO2 SLP200 T00940033=
201101301252 METAR KATL 301252Z 00000KT 10SM BKN250 09/03 A3011 RMK AO2 SLP198 T00940028=
201101301152 METAR KATL 301152Z 23004KT 10SM FEW250 08/03 A3011 RMK AO2 SLP194 T00830028 10111 20083 53013=
201101301052 METAR KATL 301052Z 24005KT 10SM FEW250 09/02 A3009 RMK AO2 SLP187 T00890022=
201101300952 METAR KATL 300952Z 24005KT 10SM SCT250 10/02 A3008 RMK AO2 SLP183 T01000022=
201101300852 METAR KATL 300852Z 25005KT 10SM SCT250 09/02 A3007 RMK AO2 SLP179 T00940022 51001=
201101300752 METAR KATL 300752Z 23005KT 10SM FEW250 10/02 A3007 RMK AO2 SLP179 T01000017=
201101300652 METAR KATL 300652Z 24004KT 10SM FEW250 11/02 A3007 RMK AO2 SLP179 T01060017=
201101300552 METAR KATL 300552Z 23007KT 10SM FEW250 11/02 A3006 RMK AO2 SLP178 T01060017 10172 20106 51004=
201101300452 METAR KATL 300452Z 23005KT 10SM CLR 12/02 A3006 RMK AO2 SLP178 T01170022 402170011=
201101300352 METAR KATL 300352Z 24006KT 10SM CLR 13/02 A3006 RMK AO2 SLP178 T01330022=
201101300252 METAR KATL 300252Z 24008KT 10SM CLR 14/02 A3005 RMK AO2 SLP177 T01440022 52009=
201101300152 METAR KATL 300152Z 24006KT 10SM CLR 15/02 A3004 RMK AO2 SLP173 T01500022=
201101300052 METAR KATL 300052Z 24005KT 10SM CLR 15/01 A3004 RMK AO2 SLP173 T01500011=
201101292352 METAR KATL 292352Z 25005KT 10SM CLR 17/01 A3002 RMK AO2 SLP168 T01720011 10217 20172 53008=
201101292252 METAR KATL 292252Z 24007KT 10SM CLR 19/01 A3001 RMK AO2 SLP162 T01940011=
201101292152 METAR KATL 292152Z 26013G19KT 10SM CLR 21/01 A3000 RMK AO2 SLP160 T02060011=
201101292052 METAR KATL 292052Z 27009G18KT 10SM CLR 21/01 A3000 RMK AO2 SLP158 T02110011 55011=
201101291952 METAR KATL 291952Z 24012G19KT 10SM FEW250 21/01 A3000 RMK AO2 SLP158 T02110011=
201101291852 METAR KATL 291852Z 26017G21KT 10SM CLR 20/02 A3001 RMK AO2 SLP163 T02000017=
201101291752 METAR KATL 291752Z 24011G17KT 10SM FEW250 18/02 A3003 RMK AO2 SLP170 T01830017 10183 20011 58018=
201101291652 METAR KATL 291652Z 24010KT 10SM CLR 16/01 A3006 RMK AO2 SLP181 T01610011=
201101291552 METAR KATL 291552Z 24009KT 10SM CLR 13/01 A3009 RMK AO2 SLP190 T01280011=
201101291452 METAR KATL 291452Z 22007KT 10SM CLR 09/01 A3009 RMK AO2 SLP192 T00890006 53008=
201101291352 METAR KATL 291352Z 21006KT 10SM CLR 06/01 A3008 RMK AO2 SLP190 T00560006=
201101291252 METAR KATL 291252Z 22003KT 10SM CLR 02/M01 A3007 RMK AO2 SLP186 T00221011=
201101291152 METAR KATL 291152Z 00000KT 10SM CLR 02/M02 A3006 RMK AO2 SLP185 T00171017 10056 20011 53014=
201101291052 METAR KATL 291052Z 27003KT 10SM CLR 03/M01 A3005 RMK AO2 SLP179 T00281011=
201101290952 METAR KATL 290952Z 00000KT 10SM CLR 02/M02 A3003 RMK AO2 SLP173 T00171017=
201101290852 METAR KATL 290852Z 27003KT 10SM CLR 03/M01 A3002 RMK AO2 SLP169 T00331011 53005=
201101290752 METAR KATL 290752Z 27003KT 10SM CLR 03/M01 A3002 RMK AO2 SLP168 T00281011=
201101290652 METAR KATL 290652Z 25003KT 10SM CLR 03/M01 A3001 RMK AO2 SLP164 T00331011=
201101290552 METAR KATL 290552Z 32004KT 10SM CLR 06/M01 A3001 RMK AO2 SLP163 T00561006 10100 20050 53001 $=
201101290452 METAR KATL 290452Z 32006KT 10SM CLR 06/M01 A3000 RMK AO2 SLP163 T00611006 401440022=
201101290352 METAR KATL 290352Z VRB05KT 10SM CLR 07/M01 A3000 RMK AO2 SLP162 T00671006=
201101290252 METAR KATL 290252Z 32006KT 10SM CLR 07/M01 A3001 RMK AO2 SLP165 T00721006 51016=
201101290152 METAR KATL 290152Z 31004KT 10SM CLR 08/M01 A3000 RMK AO2 SLP163 T00831006=
201101290052 METAR KATL 290052Z 32006KT 10SM CLR 09/M01 A2999 RMK AO2 SLP159 T00891006=
201101282352 METAR KATL 282352Z 30007KT 10SM CLR 10/M01 A2996 RMK AO2 SLP150 T01001006 10144 20100 53020=
201101282252 METAR KATL 282252Z 31008KT 10SM CLR 12/M01 A2994 RMK AO2 SLP141 T01221006=
201101282152 METAR KATL 282152Z 31015G18KT 10SM FEW055 13/M01 A2992 RMK AO2 SLP133 T01331006=
201101282052 METAR KATL 282052Z 29014G18KT 10SM FEW055 SCT250 14/M01 A2990 RMK AO2 SLP126 T01441006 55005=
201101281952 METAR KATL 281952Z 26014G21KT 10SM FEW050 SCT250 14/M01 A2989 RMK AO2 SLP122 T01441006=
201101281852 METAR KATL 281852Z 27015G21KT 10SM FEW250 14/00 A2989 RMK AO2 SLP125 T01390000=
201101281752 METAR KATL 281752Z 26016G20KT 10SM FEW050 SCT250 13/00 A2991 RMK AO2 SLP132 T01280000 10128 20022 58006=
201101281652 METAR KATL 281652Z 27010G15KT 10SM FEW250 11/M01 A2994 RMK AO2 SLP142 T01111006=
201101281552 METAR KATL 281552Z 28010KT 10SM FEW200 BKN250 09/M01 A2995 RMK AO2 SLP145 T00891006=
201101281452 METAR KATL 281452Z 27013KT 10SM BKN250 07/M01 A2993 RMK AO2 SLP140 T00721011 53008=
201101281352 METAR KATL 281352Z 26009KT 10SM SCT250 05/M01 A2992 RMK AO2 SLP137 T00501011=
201101281252 METAR KATL 281252Z 23004KT 10SM FEW250 03/M01 A2991 RMK AO2 SLP133 T00281011=
201101281152 METAR KATL 281152Z 23006KT 10SM FEW250 02/M01 A2991 RMK AO2 SLP132 T00221011 10044 20022 55004=
201101281052 METAR KATL 281052Z 23004KT 10SM CLR 02/M01 A2990 RMK AO2 SLP128 T00221011=
201101280952 METAR KATL 280952Z 24005KT 10SM CLR 04/M01 A2990 RMK AO2 SLP129 T00391011=
201101280852 METAR KATL 280852Z 25006KT 10SM CLR 04/M01 A2992 RMK AO2 SLP135 T00391011 58006=
201101280752 METAR KATL 280752Z 25006KT 10SM CLR 04/M01 A2993 RMK AO2 SLP137 T00391006=
201101280652 METAR KATL 280652Z 25006KT 10SM CLR 04/M01 A2993 RMK AO2 SLP141 T00391006=
201101280552 METAR KATL 280552Z 25003KT 10SM FEW200 03/M01 A2994 RMK AO2 SLP143 T00331011 10078 20033 58006=
201101280452 METAR KATL 280452Z 25003KT 10SM FEW200 04/M01 A2995 RMK AO2 SLP146 T00391011 401111028=
201101280352 METAR KATL 280352Z 23004KT 10SM FEW200 04/M01 A2996 RMK AO2 SLP150 T00441006=
201101280252 METAR KATL 280252Z 23006KT 10SM CLR 05/M01 A2996 RMK AO2 SLP152 T00501006 55000=
201101280152 METAR KATL 280152Z 24005KT 10SM CLR 07/M01 A2996 RMK AO2 SLP153 T00671006=
201101280052 METAR KATL 280052Z 25003KT 10SM CLR 07/M01 A2995 RMK AO2 SLP148 T00671006=
201101272352 METAR KATL 272352Z 25004KT 10SM CLR 08/M01 A2996 RMK AO2 SLP151 T00781006 10111 20061 53001=
201101272252 METAR KATL 272252Z 22007KT 10SM CLR 09/M01 A2995 RMK AO2 SLP148 T00941006=
201101272152 METAR KATL 272152Z 21011KT 10SM FEW060 11/M01 A2994 RMK AO2 SLP145 T01061011=
201101272052 METAR KATL 272052Z 23008KT 10SM FEW050 SCT200 11/M01 A2996 RMK AO2 SLP149 T01061011 56025=
201101271952 SPECI KATL 271952Z 24005KT 10SM FEW150 SCT200 10/M02 A2997 RMK AO2 SLP155 T01001017=
201101271852 METAR KATL 271852Z 27009KT 10SM FEW150 SCT200 09/M01 A3000 RMK AO2 SLP165 T00941011=
201101271752 METAR KATL 271752Z VRB04KT 10SM FEW150 SCT200 SCT300 06/M02 A3003 RMK AO2 SLP177 T00611017 10061 21028 58019=
201101271652 METAR KATL 271652Z 30005KT 10SM FEW150 BKN200 BKN300 04/M02 A3007 RMK AO2 SLP191 T00441022=
201101271552 METAR KATL 271552Z 32008KT 10SM FEW150 BKN200 BKN300 02/M03 A3009 RMK AO2 SLP198 T00221028=
201101271452 METAR KATL 271452Z 34010G16KT 10SM FEW150 SCT200 BKN300 01/M04 A3009 RMK AO2 SLP198 T00061039 51007=
201101271352 METAR KATL 271352Z 32009KT 7SM BKN150 BKN250 M02/M04 A3009 RMK AO2 SLP197 T10171044=
201101271252 METAR KATL 271252Z 31007KT 8SM FEW013 SCT150 SCT250 M02/M05 A3008 RMK AO2 SLP195 T10221050=
201101271152 METAR KATL 271152Z 31009KT 10SM SCT013 M02/M04 A3007 RMK AO2 SLP192 70001 T10171044 11006 21022 53011=
201101271052 METAR KATL 271052Z 31009KT 10SM SCT015 SCT120 M02/M05 A3005 RMK AO2 SLP184 T10221050=
201101271014 SPECI KATL 271014Z 31008KT 10SM BKN015 M02/M05 A3004 RMK AO2=
201101271014 SPECI KATL 271014Z 31008KT 10SM BKN015 M02/M05 A3004 RMK AO2=
201101270952 METAR KATL 270952Z 31010KT 10SM SCT015 BKN120 M02/M05 A3004 RMK AO2 SLP179 T10171050=
201101270852 METAR KATL 270852Z 32010KT 10SM FEW016 SCT150 M02/M04 A3004 RMK AO2 SLP180 T10171044 58002=
201101270844 SPECI KATL 270844Z 32011KT 10SM FEW016 SCT150 M01/M04 A3004 RMK AO2=
201101270844 SPECI KATL 270844Z 32011KT 10SM FEW016 SCT150 M01/M04 A3004 RMK AO2=
201101270752 METAR KATL 270752Z 32009KT 10SM BKN016 M01/M04 A3005 RMK AO2 SLP182 T10111044=
201101270652 METAR KATL 270652Z 31011KT 10SM BKN018 M01/M04 A3004 RMK AO2 SLP181 T10061039=
201101270619 SPECI KATL 270619Z 31011KT 10SM BKN018 M01/M04 A3004 RMK AO2=
201101270619 SPECI KATL 270619Z 31011KT 10SM BKN018 M01/M04 A3004 RMK AO2=
201101270552 METAR KATL 270552Z 30010KT 10SM SCT020 M01/M04 A3005 RMK AO2 SLP182 T10061039 10028 21006 53001=
201101270452 METAR KATL 270452Z 31014G17KT 10SM SCT020 00/M04 A3004 RMK AO2 SLP181 T00001039 400560000=
201101270425 SPECI KATL 270425Z 31010KT 10SM SCT020 00/M03 A3005 RMK AO2=
201101270425 SPECI KATL 270425Z 31010KT 10SM SCT020 00/M03 A3005 RMK AO2=
201101270352 METAR KATL 270352Z 31008KT 10SM BKN022 01/M03 A3004 RMK AO2 SLP180 T00111033=
201101270318 SPECI KATL 270318Z 30012KT 10SM BKN022 01/M03 A3004 RMK AO2=
201101270318 SPECI KATL 270318Z 30012KT 10SM BKN022 01/M03 A3004 RMK AO2=
201101270252 METAR KATL 270252Z 31011KT 10SM SCT024 01/M03 A3004 RMK AO2 SLP181 SCT024 V BKN T00111033 51007=
201101270205 SPECI KATL 270205Z 29010KT 10SM SCT024 01/M03 A3004 RMK AO2=
201101270205 SPECI KATL 270205Z 29010KT 10SM SCT024 01/M03 A3004 RMK AO2=
201101270152 METAR KATL 270152Z 29009KT 10SM BKN024 01/M03 A3004 RMK AO2 SLP180 T00111028=
201101270052 METAR KATL 270052Z 30016G21KT 10SM SCT025 02/M02 A3004 RMK AO2 SLP178 T00221022=
201101270049 SPECI KATL 270049Z 31015KT 10SM SCT025 02/M02 A3004 RMK AO2=
201101270049 SPECI KATL 270049Z 31015KT 10SM SCT025 02/M02 A3004 RMK AO2=
201101262352 METAR KATL 262352Z 31010KT 10SM BKN025 03/M02 A3002 RMK AO2 SLP171 T00281017 10056 20028 51024=
201101262252 METAR KATL 262252Z 29009KT 10SM BKN025 04/M01 A2999 RMK AO2 SLP161 T00391011=
201101262152 METAR KATL 262152Z 29012KT 10SM BKN024 BKN028 05/00 A2998 RMK AO2 SLP157 T00500000=
201101262052 METAR KATL 262052Z 30017G25KT 10SM BKN022 BKN027 04/00 A2995 RMK AO2 SLP146 T00440000 53013=
201101261952 METAR KATL 261952Z 30017G26KT 10SM BKN020 BKN028 06/01 A2993 RMK AO2 PK WND 31028/1901 SLP139 T00560011=
201101261852 METAR KATL 261852Z 30016G25KT 10SM BKN023 05/01 A2991 RMK AO2 PK WND 31027/1834 SLP133 T00500006=
201101261752 METAR KATL 261752Z 29016G24KT 10SM BKN023 04/01 A2991 RMK AO2 PK WND 29031/1730 SLP132 60001 T00440006 10056 20033 51019=
201101261652 METAR KATL 261652Z 29015G28KT 10SM BKN017 BKN020 04/01 A2990 RMK AO2 PK WND 27029/1633 SLP129 T00390006=
201101261552 METAR KATL 261552Z 29016G21KT 10SM BKN015 BKN020 03/01 A2989 RMK AO2 PK WND 30033/1453 SLP125 T00330011=
201101261452 METAR KATL 261452Z 29026G32KT 10SM SCT008 BKN015 OVC020 04/02 A2985 RMK AO2 PK WND 31032/1452 SLP112 60001 T00390017 53013=
201101261448 SPECI KATL 261448Z 29020G26KT 10SM SCT008 OVC019 04/02 A2984 RMK AO2 PK WND 29027/1437=
201101261448 SPECI KATL 261448Z 29020G26KT 10SM SCT008 OVC019 04/02 A2984 RMK AO2 PK WND 29027/1437=
201101261352 METAR KATL 261352Z 28018G27KT 10SM BKN008 BKN013 OVC025 04/03 A2981 RMK AO2 PK WND 28027/1352 RAE40 SLP098 P0000 T00440033=
201101261350 SPECI KATL 261350Z 28017G24KT 10SM BKN008 BKN013 OVC025 04/03 A2981 RMK AO2 RAE40 P0000=
201101261350 SPECI KATL 261350Z 28017G24KT 10SM BKN008 BKN013 OVC025 04/03 A2981 RMK AO2 RAE40 P0000=
201101261316 SPECI KATL 261316Z 28015G22KT 8SM -RA FEW008 BKN015 BKN030 06/04 A2979 RMK AO2 P0000=
201101261316 SPECI KATL 261316Z 28015G22KT 8SM -RA FEW008 BKN015 BKN030 06/04 A2979 RMK AO2 P0000=
201101261252 METAR KATL 261252Z 27015G21KT 2SM -RA BR BKN008 OVC015 06/04 A2978 RMK AO2 SFC VIS 6 RAE1159B22E31B50 SLP087 P0001 T00560044=
201101261157 SPECI KATL 261157Z 27012KT 2SM -RA BR BKN005 OVC010 06/04 A2976 RMK AO2 SFC VIS 5 P0000=
201101261157 SPECI KATL 261157Z 27012KT 2SM -RA BR BKN005 OVC010 06/04 A2976 RMK AO2 SFC VIS 5 P0000=
201101261152 METAR KATL 261152Z 27011KT 1SM -RA BR BKN003 OVC006 06/04 A2976 RMK AO2 SFC VIS 4 DZE45RAB45 SLP081 P0001 60019 70067 T00560044 10056 20050 53007=
201101261052 METAR KATL 261052Z 26003KT 1SM -DZ BR BKN003 OVC006 05/04 A2974 RMK AO2 SFC VIS 1 3/4 DZB46 SLP073 P0000 T00500044=
201101260952 METAR KATL 260952Z 30004KT 1SM BR BKN003 BKN005 OVC010 05/04 A2973 RMK AO2 SFC VIS 2 1/2 RAB18E30 SLP071 P0000 T00500044=
201101260852 METAR KATL 260852Z 08004KT 1SM BR BKN004 OVC021 05/04 A2974 RMK AO2 SFC VIS 6 RAB0755E34 CIG 002V006 SLP074 P0002 60018 T00500044 56001=
201101260825 SPECI KATL 260825Z 04004KT 1SM -RA BR SCT004 BKN012 OVC018 05/04 A2973 RMK AO2 SFC VIS 4 RAB0755 P0001=
201101260825 SPECI KATL 260825Z 04004KT 1SM -RA BR SCT004 BKN012 OVC018 05/04 A2973 RMK AO2 SFC VIS 4 RAB0755 P0001=
201101260752 METAR KATL 260752Z 00000KT 1SM BR BKN005 OVC012 05/04 A2974 RMK AO2 SFC VIS 6 RAE50 SLP077 P0010 T00500044=
201101260749 SPECI KATL 260749Z 00000KT 1SM -RA BR SCT005 OVC012 05/04 A2974 RMK AO2 SFC VIS 6 P0010=
201101260749 SPECI KATL 260749Z 00000KT 1SM -RA BR SCT005 OVC012 05/04 A2974 RMK AO2 SFC VIS 6 P0010=
201101260734 SPECI KATL 260734Z 00000KT 1/2SM -RA BR BKN005 OVC010 05/04 A2975 RMK AO2 SFC VIS 6 CIG 003V008 P0009=
201101260734 SPECI KATL 260734Z 00000KT 1/2SM -RA BR BKN005 OVC010 05/04 A2975 RMK AO2 SFC VIS 6 CIG 003V008 P0009=
201101260652 METAR KATL 260652Z VRB03KT 1/2SM -RA BR OVC003 05/04 A2972 RMK AO2 SFC VIS 3 SLP070 P0006 T00500044=
201101260552 METAR KATL 260552Z 10010KT 1/2SM -RA BR OVC003 05/04 A2974 RMK AO2 SFC VIS 2 1/2 DZE34RAB34 SLP076 CIG 002V005 P0000 60002 T00500044 10061 20050 58026=
201101260452 METAR KATL 260452Z 09011KT 1/2SM -DZ BR OVC002 05/04 A2977 RMK AO2 SFC VIS 1 1/2 SLP086 P0000 T00500044 400610028=
201101260406 SPECI KATL 260406Z 10009KT 1/2SM -DZ BR OVC003 06/05 A2979 RMK AO2 SFC VIS 1 3/4 P0000=
201101260406 SPECI KATL 260406Z 10009KT 1/2SM -DZ BR OVC003 06/05 A2979 RMK AO2 SFC VIS 1 3/4 P0000=
201101260354 SPECI KATL 260354Z 09009KT 1SM -DZ BR OVC003 06/05 A2981 RMK AO2 SFC VIS 2 P0000=
201101260354 SPECI KATL 260354Z 09009KT 1SM -DZ BR OVC003 06/05 A2981 RMK AO2 SFC VIS 2 P0000=
201101260352 METAR KATL 260352Z COR 10009KT 1SM -DZ BR OVC003 06/05 A2981 RMK AO2 SFC VIS 2 SLP099 P0001 T00560050=
201101260252 METAR KATL 260252Z 10010KT 1SM -DZ BR OVC003 06/05 A2982 RMK AO2 SFC VIS 2 1/2 RAE33DZB33 SLP103 CIG 002V005 P0000 60001 T00560050 58013=
201101260152 METAR KATL 260152Z 09014KT 1SM -RA BR OVC004 06/05 A2984 RMK AO2 SFC VIS 3 DZE24RAB24 SLP109 P0000 T00610050=
201101260052 METAR KATL 260052Z 09013KT 1SM -DZ BR OVC004 06/05 A2985 RMK AO2 SFC VIS 4 SLP115 P0001 T00560050=
201101252352 METAR KATL 252352Z 08011KT 1SM -DZ BR OVC004 06/04 A2986 RMK AO2 SFC VIS 2 1/2 RAE03DZB03 SLP117 P0000 60029 T00560044 10056 20039 58004=
201101252252 METAR KATL 252252Z 09012KT 1SM -RA BR OVC005 06/04 A2986 RMK AO2 SFC VIS 1 3/4 SLP117 CIG 003V006 P0002 T00560044=
201101252153 SPECI KATL 252153Z 09013KT 1SM -RA BR BKN005 BKN020 OVC030 06/04 A2988 RMK AO2 SFC VIS 3 P0000=
201101252153 SPECI KATL 252153Z 09013KT 1SM -RA BR BKN005 BKN020 OVC030 06/04 A2988 RMK AO2 SFC VIS 3 P0000=
201101252152 METAR KATL 252152Z 09013KT 1SM -RA BR BKN005 BKN020 OVC030 06/04 A2988 RMK AO2 SFC VIS 1 1/2 SLP122 P0009 T00560044=
201101252052 METAR KATL 252052Z 07014KT 1SM -RA BR BKN005 BKN020 OVC030 06/04 A2987 RMK AO2 SFC VIS 2 SLP121 P0009 60018 T00560044 56031=
201101252028 SPECI KATL 252028Z 07014KT 1SM R09R/5500VP6000FT RA BR BKN005 BKN020 OVC030 05/04 A2988 RMK AO2 SFC VIS 1 1/2 P0005=
201101252028 SPECI KATL 252028Z 07014KT 1SM R09R/5500VP6000FT RA BR BKN005 BKN020 OVC030 05/04 A2988 RMK AO2 SFC VIS 1 1/2 P0005=
201101251956 SPECI KATL 251956Z 07011KT 1SM RA BR BKN005 BKN020 OVC030 04/04 A2989 RMK AO2 SFC VIS 2 P0001=
201101251956 SPECI KATL 251956Z 07011KT 1SM RA BR BKN005 BKN020 OVC030 04/04 A2989 RMK AO2 SFC VIS 2 P0001=
201101251952 METAR KATL 251952Z 08008KT 1 1/2SM -RA BR BKN005 BKN020 OVC030 04/04 A2989 RMK AO2 SFC VIS 2 SLP126 P0004 T00440039=
201101251852 METAR KATL 251852Z 07015KT 1 1/2SM -RA BR BKN006 BKN020 OVC030 04/03 A2992 RMK AO2 SFC VIS 2 SLP137 P0005 T00390028=
201101251752 METAR KATL 251752Z 07012KT 1 1/2SM -RA BR BKN006 BKN018 OVC030 04/03 A2997 RMK AO2 SFC VIS 2 1/2 SLP154 P0003 60017 T00390028 10039 20028 58027=
201101251736 SPECI KATL 251736Z 07013KT 1 1/2SM -RA BR BKN006 BKN018 OVC025 04/03 A2998 RMK AO2 SFC VIS 2 P0001=
201101251736 SPECI KATL 251736Z 07013KT 1 1/2SM -RA BR BKN006 BKN018 OVC025 04/03 A2998 RMK AO2 SFC VIS 2 P0001=
201101251730 SPECI KATL 251730Z 06012KT 2 1/2SM -RA BR BKN006 BKN018 OVC032 04/03 A2998 RMK AO2 SFC VIS 3 CIG 005V009 PRESFR P0001=
201101251730 SPECI KATL 251730Z 06012KT 2 1/2SM -RA BR BKN006 BKN018 OVC032 04/03 A2998 RMK AO2 SFC VIS 3 CIG 005V009 PRESFR P0001=
201101251652 METAR KATL 251652Z 06016KT 2 1/2SM -RA BR FEW008 BKN016 OVC040 04/02 A3001 RMK AO2 SFC VIS 5 PRESFR SLP169 P0008 T00390022=
201101251636 SPECI KATL 251636Z 07014KT 2 1/2SM -RA BR FEW008 SCT020 OVC040 04/02 A3004 RMK AO2 SFC VIS 4 P0007=
201101251636 SPECI KATL 251636Z 07014KT 2 1/2SM -RA BR FEW008 SCT020 OVC040 04/02 A3004 RMK AO2 SFC VIS 4 P0007=
201101251552 METAR KATL 251552Z 08011KT 2 1/2SM RA BR SCT012 BKN045 OVC100 03/02 A3006 RMK AO2 SFC VIS 3 SLP184 P0005 T00330017=
201101251548 SPECI KATL 251548Z 08012KT 2 1/2SM RA BR BKN012 BKN050 OVC100 03/02 A3005 RMK AO2 SFC VIS 3 P0005=
201101251548 SPECI KATL 251548Z 08012KT 2 1/2SM RA BR BKN012 BKN050 OVC100 03/02 A3005 RMK AO2 SFC VIS 3 P0005=
201101251536 SPECI KATL 251536Z 09015KT 2 1/2SM RA BR SCT015 BKN050 OVC100 03/02 A3005 RMK AO2 SFC VIS 4 P0003=
201101251536 SPECI KATL 251536Z 09015KT 2 1/2SM RA BR SCT015 BKN050 OVC100 03/02 A3005 RMK AO2 SFC VIS 4 P0003=
201101251452 METAR KATL 251452Z 09012KT 7SM -RA BKN055 BKN100 OVC150 03/01 A3007 RMK AO2 RAB21 SLP187 P0000 60001 T00330011 55019=
201101251352 METAR KATL 251352Z 06013KT 6SM BR BKN070 OVC090 03/01 A3007 RMK AO2 RAB1258E30 SLP186 P0000 T00330011=
201101251332 SPECI KATL 251332Z 06012KT 6SM BR OVC075 03/01 A3008 RMK AO2 RAB1258E30 PRESFR P0000=
201101251332 SPECI KATL 251332Z 06012KT 6SM BR OVC075 03/01 A3008 RMK AO2 RAB1258E30 PRESFR P0000=
201101251252 METAR KATL 251252Z 09007KT 7SM BKN028 BKN041 OVC085 03/00 A3012 RMK AO2 RAE51 SLP206 P0001 T00280000=
201101251243 SPECI KATL 251243Z 11005KT 7SM -RA BKN028 BKN041 OVC085 03/00 A3013 RMK AO2 P0001=
201101251243 SPECI KATL 251243Z 11005KT 7SM -RA BKN028 BKN041 OVC085 03/00 A3013 RMK AO2 P0001=
201101251152 METAR KATL 251152Z 06010KT 6SM -RA BR FEW038 SCT049 OVC060 03/M01 A3013 RMK AO2 RAB29 SLP207 P0002 60002 70002 T00331006 10050 20033 55010=
201101251052 METAR KATL 251052Z 06011KT 10SM FEW065 SCT110 OVC200 04/M03 A3012 RMK AO2 SLP204 VIRGA ALQDS T00441028=
201101250952 METAR KATL 250952Z 09008KT 10SM BKN150 OVC250 04/M03 A3014 RMK AO2 SLP209 T00441033=
201101250852 METAR KATL 250852Z 08009KT 10SM SCT150 OVC200 04/M04 A3016 RMK AO2 SLP215 T00441039 58007=
201101250752 METAR KATL 250752Z 08008KT 10SM BKN150 OVC200 04/M04 A3017 RMK AO2 SLP220 T00441039=
201101250652 METAR KATL 250652Z 08009KT 10SM BKN150 OVC200 05/M04 A3018 RMK AO2 SLP222 T00501044=
201101250552 METAR KATL 250552Z 09007KT 10SM FEW070 BKN150 OVC200 05/M04 A3018 RMK AO2 SLP224 T00501044 10094 20039 58007=
201101250452 METAR KATL 250452Z 09007KT 10SM FEW070 BKN200 BKN250 04/M04 A3018 RMK AO2 SLP226 T00441044 401220006=
201101250352 METAR KATL 250352Z 10005KT 10SM FEW070 BKN200 BKN250 07/M05 A3021 RMK AO2 SLP234 T00671050=
201101250252 METAR KATL 250252Z 11007KT 10SM BKN150 BKN200 07/M04 A3020 RMK AO2 SLP233 T00721044 51004=
201101250152 METAR KATL 250152Z 11005KT 10SM FEW150 BKN250 07/M04 A3020 RMK AO2 SLP232 T00721044=
201101250052 METAR KATL 250052Z 10005KT 10SM FEW150 BKN250 08/M05 A3020 RMK AO2 SLP233 T00781050=
201101242352 METAR KATL 242352Z 12004KT 10SM FEW150 09/M06 A3019 RMK AO2 SLP228 T00941056 10122 20094 53007=
201101242252 METAR KATL 242252Z 12004KT 10SM SCT150 11/M06 A3018 RMK AO2 SLP224 T01061061=
201101242152 METAR KATL 242152Z 17005KT 10SM FEW120 SCT150 12/M06 A3018 RMK AO2 SLP224 T01171061=
201101242052 METAR KATL 242052Z 18007KT 10SM FEW120 SCT150 12/M07 A3017 RMK AO2 SLP220 T01171067 56015=
201101241952 METAR KATL 241952Z 14008KT 10SM FEW120 SCT150 SCT250 11/M06 A3018 RMK AO2 SLP225 T01111061=
201101241852 METAR KATL 241852Z 15009KT 10SM FEW120 SCT150 11/M06 A3019 RMK AO2 SLP229 T01111056=
201101241752 METAR KATL 241752Z 14008KT 10SM FEW120 SCT150 SCT250 09/M06 A3021 RMK AO2 SLP237 T00941056 10100 20011 58016=
201101241652 METAR KATL 241652Z 14008KT 10SM BKN120 BKN150 BKN250 08/M05 A3025 RMK AO2 SLP249 T00831050=
201101241552 METAR KATL 241552Z 12008KT 10SM BKN120 BKN150 BKN250 06/M06 A3026 RMK AO2 SLP252 T00611056=
201101241452 METAR KATL 241452Z 10006KT 10SM FEW120 SCT150 BKN250 04/M06 A3026 RMK AO2 SLP254 T00441061 53014=
201101241352 METAR KATL 241352Z 09006KT 10SM SCT130 BKN250 02/M06 A3024 RMK AO2 SLP249 T00171061=
201101241252 METAR KATL 241252Z 08008KT 10SM BKN150 BKN250 02/M06 A3022 RMK AO2 SLP242 T00171061=
201101241152 METAR KATL 241152Z 08008KT 10SM BKN150 02/M06 A3022 RMK AO2 SLP240 T00171061 10022 20006 51008=
201101241052 METAR KATL 241052Z 07006KT 10SM BKN140 02/M06 A3022 RMK AO2 SLP239 T00171061=
201101240952 METAR KATL 240952Z 06004KT 10SM SCT120 BKN250 02/M06 A3021 RMK AO2 SLP234 T00171061=
201101240852 METAR KATL 240852Z 10005KT 10SM BKN120 BKN250 02/M05 A3019 RMK AO2 SLP230 T00221050 56002=
201101240752 METAR KATL 240752Z 08003KT 10SM BKN120 OVC250 02/M06 A3020 RMK AO2 SLP232 T00221056=
201101240652 METAR KATL 240652Z 09007KT 10SM OVC140 02/M05 A3019 RMK AO2 SLP231 T00171050=
201101240552 METAR KATL 240552Z 09004KT 10SM OVC140 02/M05 A3020 RMK AO2 SLP232 T00221050 10056 20022 53005=
201101240452 METAR KATL 240452Z 10004KT 10SM BKN140 03/M05 A3018 RMK AO2 SLP228 T00281050 400781028=
201101240352 METAR KATL 240352Z 03005KT 10SM BKN130 03/M06 A3019 RMK AO2 SLP232 T00331056=
201101240252 METAR KATL 240252Z 02006KT 10SM BKN130 04/M06 A3018 RMK AO2 SLP228 T00391056 51012=
201101240152 METAR KATL 240152Z 34006KT 10SM BKN140 03/M06 A3017 RMK AO2 SLP225 T00331061=
201101240052 METAR KATL 240052Z 33006KT 10SM BKN140 04/M06 A3016 RMK AO2 SLP223 T00391061=
201101232352 METAR KATL 232352Z 33004KT 10SM BKN150 06/M08 A3015 RMK AO2 SLP216 T00561083 10078 20056 53007=
201101232252 METAR KATL 232252Z 27003KT 10SM FEW110 BKN150 06/M08 A3014 RMK AO2 SLP214 T00611083=
201101232152 METAR KATL 232152Z 30004KT 10SM FEW100 BKN150 07/M08 A3013 RMK AO2 SLP209 T00721078=
201101232052 METAR KATL 232052Z 33006KT 10SM SCT120 BKN150 BKN250 07/M08 A3013 RMK AO2 SLP209 T00671083 55005=
201101231952 METAR KATL 231952Z 28004KT 10SM FEW085 BKN150 BKN250 07/M09 A3011 RMK AO2 SLP204 T00671089=
201101231852 METAR KATL 231852Z 33004KT 10SM BKN150 BKN200 06/M08 A3012 RMK AO2 SLP208 T00561083=
201101231752 METAR KATL 231752Z VRB03KT 10SM SCT110 BKN150 BKN200 06/M08 A3014 RMK AO2 SLP214 T00611083 10061 21017 50001=
201101231652 METAR KATL 231652Z 29004KT 10SM SCT110 BKN150 BKN200 04/M08 A3015 RMK AO2 SLP219 T00441078=
201101231552 METAR KATL 231552Z 32004KT 10SM FEW110 BKN150 BKN250 02/M08 A3015 RMK AO2 SLP218 T00221078=
201101231452 METAR KATL 231452Z 35008KT 10SM SCT150 BKN250 01/M08 A3014 RMK AO2 SLP215 T00111083 50007=
201101231352 METAR KATL 231352Z 31005KT 10SM SCT180 BKN250 M01/M09 A3014 RMK AO2 SLP216 T10061089=
201101231252 METAR KATL 231252Z 30005KT 10SM FEW200 BKN250 M02/M09 A3013 RMK AO2 SLP213 T10171094=
201101231152 METAR KATL 231152Z 29005KT 10SM BKN250 M02/M09 A3012 RMK AO2 SLP208 T10171094 11011 21028 53015=
201101231052 METAR KATL 231052Z 29004KT 10SM BKN250 M02/M09 A3009 RMK AO2 SLP197 T10171094=
201101230952 METAR KATL 230952Z 30004KT 10SM FEW130 BKN250 M02/M09 A3009 RMK AO2 SLP196 T10171094=
201101230852 METAR KATL 230852Z 29004KT 10SM FEW130 BKN250 M02/M09 A3007 RMK AO2 SLP190 T10171089 53012=
201101230752 METAR KATL 230752Z 31004KT 10SM SCT130 BKN250 M02/M09 A3005 RMK AO2 SLP185 T10171094=
201101230652 METAR KATL 230652Z 00000KT 10SM FEW100 SCT250 M02/M10 A3002 RMK AO2 SLP175 T10221100=
201101230552 METAR KATL 230552Z 32004KT 10SM FEW180 SCT250 M02/M11 A3003 RMK AO2 SLP179 T10171106 10017 21017 53012=
201101230452 METAR KATL 230452Z 30004KT 10SM BKN180 BKN250 M01/M11 A3001 RMK AO2 SLP171 T10111106 400611039=
201101230352 METAR KATL 230352Z 31005KT 10SM FEW250 M01/M11 A3000 RMK AO2 SLP167 T10061106=
201101230252 METAR KATL 230252Z 32006KT 10SM CLR M01/M11 A3000 RMK AO2 SLP168 T10061106 50007=
201101230152 METAR KATL 230152Z 30006KT 10SM CLR 01/M11 A3000 RMK AO2 SLP170 T00061111=
201101230052 METAR KATL 230052Z 30007KT 10SM CLR 01/M11 A2999 RMK AO2 SLP164 T00061111=
201101222352 METAR KATL 222352Z 29006KT 10SM CLR 02/M12 A2998 RMK AO2 SLP161 T00171117 10061 20017 53020=
201101222252 METAR KATL 222252Z 30011KT 10SM CLR 03/M12 A2995 RMK AO2 SLP152 T00331122=
201101222152 METAR KATL 222152Z 31013KT 10SM CLR 05/M12 A2993 RMK AO2 SLP143 T00501122=
201101222052 METAR KATL 222052Z 33011KT 10SM CLR 06/M12 A2992 RMK AO2 SLP139 T00561117 55003=
201101221952 METAR KATL 221952Z 29010G15KT 10SM CLR 06/M11 A2990 RMK AO2 SLP132 T00611111=
201101221852 METAR KATL 221852Z 31009G20KT 10SM CLR 06/M11 A2990 RMK AO2 SLP134 T00561111=
201101221752 METAR KATL 221752Z 33009KT 10SM FEW110 04/M12 A2992 RMK AO2 SLP142 T00391117 10039 21028 58002=
201101221652 METAR KATL 221652Z 33005KT 10SM FEW110 SCT150 02/M11 A2995 RMK AO2 SLP150 T00221106=
201101221552 METAR KATL 221552Z 02005KT 10SM SCT110 SCT150 BKN200 01/M11 A2995 RMK AO2 SLP151 T00111111=
201101221452 METAR KATL 221452Z 35007KT 10SM BKN100 BKN150 BKN200 M01/M11 A2993 RMK AO2 SLP145 T10061111 53016=
201101221352 METAR KATL 221352Z 34007KT 10SM FEW100 SCT150 BKN250 M02/M11 A2991 RMK AO2 SLP139 T10221106=
201101221252 METAR KATL 221252Z 33006KT 10SM SCT100 BKN150 BKN250 M03/M11 A2989 RMK AO2 SLP133 T10281111=
201101221152 METAR KATL 221152Z 34006KT 10SM BKN090 OVC150 M03/M11 A2988 RMK AO2 SLP129 T10281111 11028 21039 53006=
201101221052 METAR KATL 221052Z 35009KT 10SM BKN100 OVC150 M03/M12 A2986 RMK AO2 SLP123 T10281117=
201101220952 METAR KATL 220952Z 34009KT 10SM BKN150 BKN250 M03/M12 A2986 RMK AO2 SLP120 T10331122=
201101220852 METAR KATL 220852Z COR 34008KT 10SM SCT150 BKN250 M04/M13 A2987 RMK AO2 SLP122 T10391128 53002=
201101220752 METAR KATL 220752Z 33009KT 10SM BKN150 BKN250 M03/M13 A2986 RMK AO2 SLP121 T10331128=
201101220652 METAR KATL 220652Z 33008KT 10SM BKN150 M03/M13 A2985 RMK AO2 SLP116 T10331128=
201101220552 METAR KATL 220552Z 33008KT 10SM OVC150 M03/M13 A2986 RMK AO2 SLP120 T10281133 10000 21028 56010=
201101220452 METAR KATL 220452Z 33009KT 10SM BKN150 BKN250 M03/M13 A2988 RMK AO2 SLP127 T10281133 400441028=
201101220352 METAR KATL 220352Z 34008KT 10SM BKN200 OVC250 M02/M14 A2987 RMK AO2 SLP125 T10221139=
201101220252 METAR KATL 220252Z 34012G20KT 10SM BKN200 OVC250 M02/M14 A2989 RMK AO2 SLP132 T10171139 55010=
201101220152 METAR KATL 220152Z 33012G20KT 10SM SCT200 BKN250 M01/M13 A2989 RMK AO2 SLP131 T10111133=
201101220052 METAR KATL 220052Z 34011KT 10SM FEW200 BKN250 M01/M13 A2989 RMK AO2 SLP132 T10061128=
201101212352 METAR KATL 212352Z 32012KT 10SM FEW200 BKN250 00/M13 A2992 RMK AO2 SLP142 T00001128 10044 20000 53010=
201101212252 METAR KATL 212252Z 33010KT 10SM FEW200 BKN250 01/M13 A2990 RMK AO2 SLP133 T00111128=
201101212152 METAR KATL 212152Z 33011G22KT 10SM FEW200 BKN250 03/M13 A2990 RMK AO2 SLP132 T00281128=
201101212052 METAR KATL 212052Z 31010KT 10SM BKN250 03/M12 A2989 RMK AO2 SLP129 T00331122 56016=
201101211952 METAR KATL 211952Z 34008KT 10SM SCT250 04/M12 A2990 RMK AO2 SLP133 T00391122=
201101211852 METAR KATL 211852Z 32015KT 10SM FEW250 04/M11 A2992 RMK AO2 SLP138 T00391106=
201101211752 METAR KATL 211752Z 33013G19KT 10SM FEW250 03/M11 A2994 RMK AO2 SLP146 T00281106 10033 21028 58016=
201101211652 METAR KATL 211652Z 35017G22KT 10SM FEW250 02/M11 A2997 RMK AO2 SLP154 T00221111=
201101211552 METAR KATL 211552Z 34013G20KT 10SM FEW250 01/M09 A2999 RMK AO2 SLP163 T00061094=
201101211452 METAR KATL 211452Z 32014KT 10SM FEW250 M01/M08 A2999 RMK AO2 SLP162 T10111083 51010=
201101211352 METAR KATL 211352Z 34012KT 10SM FEW120 M02/M08 A2998 RMK AO2 SLP161 T10221078=
201101211252 METAR KATL 211252Z 33010KT 10SM FEW250 M03/M07 A2997 RMK AO2 SLP157 T10281072=
201101211152 METAR KATL 211152Z 33012G20KT 10SM CLR M02/M07 A2996 RMK AO2 SLP152 T10221067 10028 21022 53015=
201101211052 METAR KATL 211052Z 32012G18KT 10SM CLR M02/M06 A2994 RMK AO2 SLP145 T10171056=
201101210952 METAR KATL 210952Z 32013KT 10SM FEW040 M01/M04 A2992 RMK AO2 SLP137 T10061044=
201101210918 SPECI KATL 210918Z 32015KT 10SM FEW019 00/M03 A2991 RMK AO2=
201101210918 SPECI KATL 210918Z 32015KT 10SM FEW019 00/M03 A2991 RMK AO2=
201101210852 METAR KATL 210852Z 33012G26KT 10SM BKN019 OVC030 01/M03 A2991 RMK AO2 PK WND 35026/0847 SLP135 T00061033 51003=
201101210841 SPECI KATL 210841Z 33020G26KT 10SM BKN019 OVC050 01/M03 A2991 RMK AO2 PK WND 32026/0835=
201101210841 SPECI KATL 210841Z 33020G26KT 10SM BKN019 OVC050 01/M03 A2991 RMK AO2 PK WND 32026/0835=
201101210805 SPECI KATL 210805Z 33017G23KT 10SM SCT017 BKN048 01/M03 A2991 RMK AO2=
201101210805 SPECI KATL 210805Z 33017G23KT 10SM SCT017 BKN048 01/M03 A2991 RMK AO2=
201101210752 METAR KATL 210752Z 33016G22KT 10SM FEW013 BKN017 BKN044 01/M02 A2991 RMK AO2 SLP134 T00111022=
201101210717 SPECI KATL 210717Z 33016G22KT 10SM SCT007 BKN017 OVC028 02/M01 A2991 RMK AO2=
201101210717 SPECI KATL 210717Z 33016G22KT 10SM SCT007 BKN017 OVC028 02/M01 A2991 RMK AO2=
201101210652 METAR KATL 210652Z 33014G21KT 10SM BKN007 OVC012 02/01 A2990 RMK AO2 SLP131 T00220006=
201101210628 SPECI KATL 210628Z 33015G19KT 10SM BKN009 OVC012 03/01 A2989 RMK AO2=
201101210628 SPECI KATL 210628Z 33015G19KT 10SM BKN009 OVC012 03/01 A2989 RMK AO2=
201101210552 METAR KATL 210552Z 32013KT 9SM BKN011 OVC029 03/01 A2990 RMK AO2 RAB08E32 SLP130 P0000 60000 T00280011 10061 20028 58000=
201101210521 SPECI KATL 210521Z 31012KT 9SM -RA FEW008 BKN013 OVC027 04/02 A2990 RMK AO2 RAB08 CIG 010V016 P0000=
201101210521 SPECI KATL 210521Z 31012KT 9SM -RA FEW008 BKN013 OVC027 04/02 A2990 RMK AO2 RAB08 CIG 010V016 P0000=
201101210452 METAR KATL 210452Z 33010KT 9SM SCT008 BKN018 OVC027 04/03 A2991 RMK AO2 RAE03B27E36DZB36E51 SLP134 P0000 T00440033 400720000=
201101210358 SPECI KATL 210358Z 34014G17KT 5SM -RA BR SCT006 BKN012 OVC020 05/04 A2991 RMK AO2 P0000=
201101210358 SPECI KATL 210358Z 34014G17KT 5SM -RA BR SCT006 BKN012 OVC020 05/04 A2991 RMK AO2 P0000=
201101210352 METAR KATL 210352Z 32012KT 3SM -RA BR BKN004 OVC012 05/04 A2992 RMK AO2 SLP136 CIG 003V008 P0000 T00500039=
201101210333 SPECI KATL 210333Z 28006KT 2 1/2SM -RA BR BKN004 OVC012 06/05 A2991 RMK AO2 CIG 003V005 P0000=
201101210333 SPECI KATL 210333Z 28006KT 2 1/2SM -RA BR BKN004 OVC012 06/05 A2991 RMK AO2 CIG 003V005 P0000=
201101210332 SPECI KATL 210332Z 28006KT 3SM BR BKN004 OVC012 06/05 A2991 RMK AO2 RAE23 P0000=
201101210332 SPECI KATL 210332Z 28006KT 3SM BR BKN004 OVC012 06/05 A2991 RMK AO2 RAE23 P0000=
201101210252 METAR KATL 210252Z 27006KT 6SM -RA BR FEW007 OVC023 06/04 A2990 RMK AO2 RAB51 SLP129 P0000 60000 T00610044 53004 $=
201101210248 SPECI KATL 210248Z 27006KT 5SM BR SCT007 OVC026 06/04 A2990 RMK AO2 $=
201101210248 SPECI KATL 210248Z 27006KT 5SM BR SCT007 OVC026 06/04 A2990 RMK AO2 $=
201101210224 SPECI KATL 210224Z 26005KT 5SM BR BKN007 BKN028 OVC037 06/04 A2989 RMK AO2 $=
201101210224 SPECI KATL 210224Z 26005KT 5SM BR BKN007 BKN028 OVC037 06/04 A2989 RMK AO2 $=
201101210152 METAR KATL 210152Z 27005KT 5SM BR SCT005 OVC034 06/04 A2988 RMK AO2 SLP125 T00560039 $=
201101210052 METAR KATL 210052Z 23004KT 6SM BR BKN006 OVC050 06/04 A2987 RMK AO2 SLP122 CIG 005V008 T00560039=
201101210046 SPECI KATL 210046Z 21004KT 6SM BR BKN006 OVC050 06/04 A2987 RMK AO2=
201101210046 SPECI KATL 210046Z 21004KT 6SM BR BKN006 OVC050 06/04 A2987 RMK AO2=
201101210029 SPECI KATL 210029Z 22003KT 7SM FEW007 BKN050 05/04 A2988 RMK AO2=
201101210029 SPECI KATL 210029Z 22003KT 7SM FEW007 BKN050 05/04 A2988 RMK AO2=
201101202352 METAR KATL 202352Z 00000KT 8SM FEW034 SCT130 BKN200 05/03 A2989 RMK AO2 SLP127 60000 T00500033 10072 20050 58020=
201101202252 METAR KATL 202252Z COR 22005KT 8SM FEW034 SCT150 BKN200 06/03 A2991 RMK AO2 SLP136 T00560033 TSNO=
201101202152 METAR KATL 202152Z 24005KT 8SM FEW012 OVC030 07/04 A2994 RMK AO2 DZE46 SLP143 P0000 T00670039=
201101202147 SPECI KATL 202147Z 25004KT 9SM FEW012 OVC030 07/04 A2994 RMK AO2 DZE46 P0000=
201101202147 SPECI KATL 202147Z 25004KT 9SM FEW012 OVC030 07/04 A2994 RMK AO2 DZE46 P0000=
201101202052 METAR KATL 202052Z 25006KT 7SM -DZ BKN012 BKN020 OVC080 07/04 A2995 RMK AO2 SLP147 P0000 60000 T00670039 56017=
201101201952 METAR KATL 201952Z 21005KT 7SM -DZ BKN012 BKN020 OVC080 07/04 A2996 RMK AO2 DZB49 SLP151 P0000 T00670039=
201101201852 METAR KATL 201852Z 24004KT 6SM HZ BKN012 BKN020 OVC080 07/03 A2997 RMK AO2 SLP154 T00670033=
201101201754 SPECI KATL 201754Z 00000KT 6SM HZ BKN014 BKN020 OVC080 07/02 A3000 RMK AO2=
201101201754 SPECI KATL 201754Z 00000KT 6SM HZ BKN014 BKN020 OVC080 07/02 A3000 RMK AO2=
201101201752 METAR KATL 201752Z 00000KT 6SM HZ FEW012 BKN020 OVC080 07/02 A3000 RMK AO2 SLP164 T00670022 10067 20006 58027=
201101201732 SPECI KATL 201732Z 00000KT 5SM HZ FEW012 BKN020 OVC080 07/02 A3001 RMK AO2=
201101201732 SPECI KATL 201732Z 00000KT 5SM HZ FEW012 BKN020 OVC080 07/02 A3001 RMK AO2=
201101201652 METAR KATL 201652Z 00000KT 6SM HZ BKN010 BKN150 OVC250 06/02 A3004 RMK AO2 SLP178 T00560017 $=
201101201552 METAR KATL 201552Z 10005KT 9SM BKN012 BKN150 OVC250 05/01 A3006 RMK AO2 SLP186 T00500006=
201101201452 METAR KATL 201452Z 05003KT 10SM BKN014 BKN150 OVC250 04/00 A3008 RMK AO2 SLP192 T00440000 53010=
201101201437 SPECI KATL 201437Z 09004KT 10SM BKN014 BKN150 BKN250 04/00 A3008 RMK AO2=
201101201437 SPECI KATL 201437Z 09004KT 10SM BKN014 BKN150 BKN250 04/00 A3008 RMK AO2=
201101201401 SPECI KATL 201401Z 00000KT 8SM BKN016 BKN150 BKN250 02/M01 A3007 RMK AO2=
201101201401 SPECI KATL 201401Z 00000KT 8SM BKN016 BKN150 BKN250 02/M01 A3007 RMK AO2=
201101201352 METAR KATL 201352Z 00000KT 7SM SCT016 BKN150 BKN250 02/M01 A3007 RMK AO2 SLP190 T00221006=
201101201252 METAR KATL 201252Z 04003KT 7SM SCT150 BKN250 01/M02 A3006 RMK AO2 SLP186 T00061017=
201101201152 METAR KATL 201152Z 36003KT 7SM BKN180 01/M02 A3005 RMK AO2 SLP182 T00061017 10022 20000 51002=
201101201052 METAR KATL 201052Z 35004KT 8SM SCT180 00/M02 A3005 RMK AO2 SLP182 T00001017 $=
201101200952 METAR KATL 200952Z 31006KT 8SM SCT180 00/M01 A3006 RMK AO2 SLP183 T00001011 $=
201101200852 METAR KATL 200852Z 31006KT 8SM SCT250 01/M01 A3005 RMK AO2 SLP179 T00061006 53002 $=
201101200752 METAR KATL 200752Z 31006KT 8SM SCT250 01/M01 A3003 RMK AO2 SLP173 T00111006 $=
201101200652 METAR KATL 200652Z 29006KT 9SM FEW250 02/00 A3004 RMK AO2 SLP178 T00170000 $=
201101200552 METAR KATL 200552Z 31003KT 10SM SCT250 02/00 A3004 RMK AO2 SLP177 T00220000 10061 20022 56011 $=
201101200452 METAR KATL 200452Z COR 34006KT 10SM FEW250 03/01 A3004 RMK AO2 SLP177 T00280006 401110028 $=
201101200352 METAR KATL 200352Z 34005KT 10SM FEW250 03/01 A3005 RMK AO2 SLP182 T00330011 $=
201101200252 METAR KATL 200252Z 34007KT 10SM SCT015 BKN250 04/02 A3007 RMK AO2 SLP188 T00440017 50004 $=
201101200248 SPECI KATL 200248Z 33007KT 10SM SCT015 BKN250 04/02 A3007 RMK AO2 $=
201101200248 SPECI KATL 200248Z 33007KT 10SM SCT015 BKN250 04/02 A3007 RMK AO2 $=
201101200152 METAR KATL 200152Z 31006KT 10SM OVC016 06/02 A3008 RMK AO2 SLP188 T00560017 $=
201101200052 METAR KATL 200052Z 34008KT 10SM OVC016 06/02 A3006 RMK AO2 SLP182 T00610022 $=
201101192352 METAR KATL 192352Z 33011KT 10SM BKN018 BKN250 06/02 A3006 RMK AO2 SLP183 T00610022 10111 20061 51016 $=
201101192252 METAR KATL 192252Z 32010G17KT 10SM BKN023 07/03 A3005 RMK AO2 SLP179 T00720028 $=
201101192233 SPECI KATL 192233Z 33012KT 10SM BKN023 07/03 A3004 RMK AO2 $=
201101192233 SPECI KATL 192233Z 33012KT 10SM BKN023 07/03 A3004 RMK AO2 $=
201101192152 METAR KATL 192152Z 35010KT 10SM FEW025 09/03 A3003 RMK AO2 SLP171 T00890033 $=
201101192052 METAR KATL 192052Z 30009G15KT 10SM FEW025 10/04 A3001 RMK AO2 SLP166 T01000039 53002 $=
201101191952 METAR KATL 191952Z 28006G15KT 10SM FEW026 11/04 A3000 RMK AO2 SLP159 T01060039 $=
201101191852 METAR KATL 191852Z 30010KT 10SM SCT023 10/04 A3000 RMK AO2 SLP163 T01000039 $=
201101191752 METAR KATL 191752Z 31013KT 10SM BKN020 10/04 A3001 RMK AO2 SLP164 T01000044 10106 20083 50005 $=
201101191652 METAR KATL 191652Z 29011G16KT 10SM BKN017 BKN020 BKN030 09/05 A3002 RMK AO2 SLP167 T00890050=
201101191554 SPECI KATL 191554Z 34012KT 10SM BKN015 BKN020 OVC030 08/05 A3001 RMK AO2=
201101191554 SPECI KATL 191554Z 34012KT 10SM BKN015 BKN020 OVC030 08/05 A3001 RMK AO2=
201101191552 METAR KATL 191552Z 33012KT 10SM BKN013 BKN023 OVC030 08/06 A3001 RMK AO2 SLP164 T00830056=
201101191528 SPECI KATL 191528Z 33012KT 10SM BKN013 BKN023 OVC030 08/06 A3001 RMK AO2=
201101191528 SPECI KATL 191528Z 33012KT 10SM BKN013 BKN023 OVC030 08/06 A3001 RMK AO2=
201101191452 METAR KATL 191452Z 30008KT 10SM BKN017 BKN023 OVC030 08/07 A2999 RMK AO2 SLP160 T00830067 51021=
201101191450 SPECI KATL 191450Z 30008KT 10SM BKN017 BKN023 OVC030 08/07 A2999 RMK AO2=
201101191450 SPECI KATL 191450Z 30008KT 10SM BKN017 BKN023 OVC030 08/07 A2999 RMK AO2=
201101191424 SPECI KATL 191424Z 30008KT 10SM BKN014 BKN023 OVC030 08/07 A2998 RMK AO2=
201101191424 SPECI KATL 191424Z 30008KT 10SM BKN014 BKN023 OVC030 08/07 A2998 RMK AO2=
201101191352 METAR KATL 191352Z 31008KT 3SM FEW014 BKN023 OVC026 08/07 A2995 RMK AO2 SFC VIS 9 SLP146 T00830067=
201101191252 METAR KATL 191252Z 32007KT 3SM BR FEW008 BKN014 OVC020 08/07 A2993 RMK AO2 SFC VIS 6 SLP138 T00830067=
201101191152 METAR KATL 191152Z 31007KT 3SM BR BKN007 OVC010 08/07 A2991 RMK AO2 SFC VIS 6 SLP132 60000 70002 T00830072 10083 20072 51014=
201101191052 METAR KATL 191052Z 29004KT 3SM BR BKN005 OVC010 08/07 A2990 RMK AO2 SFC VIS 6 SLP127 T00830072=
201101191049 SPECI KATL 191049Z 29005KT 3SM BR BKN005 OVC010 08/07 A2990 RMK AO2 SFC VIS 6=
201101191049 SPECI KATL 191049Z 29005KT 3SM BR BKN005 OVC010 08/07 A2990 RMK AO2 SFC VIS 6=
201101191017 SPECI KATL 191017Z 31005KT 3SM BR BKN004 08/07 A2988 RMK AO2 SFC VIS 6=
201101191017 SPECI KATL 191017Z 31005KT 3SM BR BKN004 08/07 A2988 RMK AO2 SFC VIS 6=
201101190952 METAR KATL 190952Z 31006KT 2SM BR BKN004 OVC007 08/07 A2987 RMK AO2 SFC VIS 6 SLP117 T00830072=
201101190852 METAR KATL 190852Z 29007KT 1/4SM BR OVC002 08/07 A2987 RMK AO2 SFC VIS 2 1/2 DZE46 SLP118 P0000 60000 T00780072 51017=
201101190752 METAR KATL 190752Z 29004KT 1/4SM R09R/3500VP6000FT -DZ FG OVC002 08/07 A2985 RMK AO2 SFC VIS 1/2 SLP113 P0000 T00780072=
201101190652 METAR KATL 190652Z 28004KT 1/4SM R09R/3500V4000FT -DZ BR OVC002 08/07 A2985 RMK AO2 SFC VIS 3/4 RAE0555DZB0556 SLP111 P0000 T00780072=
201101190600 SPECI KATL 190600Z 00000KT 1/4SM R09R/2800V4000FT -DZ BR OVC002 08/07 A2982 RMK AO2 SFC VIS 3/4 RAE0555DZB0556 P0000=
201101190600 SPECI KATL 190600Z 00000KT 1/4SM R09R/2800V4000FT -DZ BR OVC002 08/07 A2982 RMK AO2 SFC VIS 3/4 RAE0555DZB0556 P0000=
201101190552 METAR KATL 190552Z 15003KT 1SM R09R/3000VP6000FT -RA BR OVC002 08/07 A2982 RMK AO2 SFC VIS 1 1/2 PRESFR SLP102 P0001 60002 T00780067 10078 20072 58010=
201101190452 METAR KATL 190452Z 00000KT 1SM R09R/4000V5000FT -RA BR OVC002 07/07 A2986 RMK AO2 SFC VIS 1 1/4 SLP115 P0001 T00720072 400780039=
201101190352 METAR KATL 190352Z 17004KT 1SM R09R/5500VP6000FT -RA BR OVC003 07/07 A2985 RMK AO2 SFC VIS 2 SLP112 CIG 002V005 P0000 T00720067=
201101190252 METAR KATL 190252Z 00000KT 1SM -RA BR OVC003 07/07 A2985 RMK AO2 SFC VIS 3 SLP112 CIG 002V005 P0000 60000 T00720067 50005=
201101190217 SPECI KATL 190217Z 00000KT 1SM -RA BR OVC004 07/07 A2985 RMK AO2 SFC VIS 3 CIG 002V006 P0000=
201101190217 SPECI KATL 190217Z 00000KT 1SM -RA BR OVC004 07/07 A2985 RMK AO2 SFC VIS 3 CIG 002V006 P0000=
201101190152 METAR KATL 190152Z 20003KT 1/2SM -RA BR OVC003 07/07 A2985 RMK AO2 SFC VIS 2 1/2 DZE24RAB24 SLP113 P0000 T00720067=
201101190120 SPECI KATL 190120Z 00000KT 1/2SM -DZ BR OVC003 07/07 A2985 RMK AO2 SFC VIS 2 P0000=
201101190120 SPECI KATL 190120Z 00000KT 1/2SM -DZ BR OVC003 07/07 A2985 RMK AO2 SFC VIS 2 P0000=
201101190052 METAR KATL 190052Z 15004KT 1SM -DZ BR OVC003 07/07 A2985 RMK AO2 SFC VIS 2 1/2 DZB28 SLP111 CIG 002V006 P0000 T00720067=
201101190036 SPECI KATL 190036Z 16004KT 1SM -DZ BR OVC004 07/06 A2984 RMK AO2 SFC VIS 3 DZB28 CIG 003V006 P0000=
201101190036 SPECI KATL 190036Z 16004KT 1SM -DZ BR OVC004 07/06 A2984 RMK AO2 SFC VIS 3 DZB28 CIG 003V006 P0000=
201101182352 METAR KATL 182352Z 15003KT 7SM OVC007 07/06 A2984 RMK AO2 SLP107 T00720061 10078 20056 58002=
201101182252 METAR KATL 182252Z 14004KT 7SM BKN008 OVC012 08/06 A2984 RMK AO2 SLP109 T00780056=
201101182208 SPECI KATL 182208Z 13005KT 6SM BR SCT008 BKN012 OVC020 08/06 A2984 RMK AO2=
201101182208 SPECI KATL 182208Z 13005KT 6SM BR SCT008 BKN012 OVC020 08/06 A2984 RMK AO2=
201101182152 METAR KATL 182152Z 17004KT 3SM BR BKN008 BKN015 OVC020 07/06 A2986 RMK AO2 SFC VIS 6 SLP115 T00720056=
201101182052 METAR KATL 182052Z 18004KT 3SM BR BKN006 BKN012 OVC020 07/06 A2984 RMK AO2 SFC VIS 5 SLP109 T00720056 55008=
201101181952 METAR KATL 181952Z 18003KT 1 1/2SM BR FEW003 BKN006 OVC008 07/05 A2984 RMK AO2 SFC VIS 4 SLP108 T00670050=
201101181852 METAR KATL 181852Z 19003KT 1 1/2SM BR FEW003 BKN005 OVC007 06/05 A2985 RMK AO2 SFC VIS 4 SLP111 T00610050=
201101181841 SPECI KATL 181841Z 20005KT 1 1/2SM BR FEW003 BKN005 OVC007 06/04 A2985 RMK AO2 SFC VIS 4=
201101181841 SPECI KATL 181841Z 20005KT 1 1/2SM BR FEW003 BKN005 OVC007 06/04 A2985 RMK AO2 SFC VIS 4=
201101181752 METAR KATL 181752Z 19003KT 1/4SM BR BKN003 BKN005 OVC007 06/04 A2987 RMK AO2 SFC VIS 3 RAE13B40E51 SLP118 P0000 60000 T00560044 10056 20039 58011=
201101181716 SPECI KATL 181716Z 16005KT 1/4SM R09R/5500VP6000FT BR BKN003 BKN005 OVC007 05/04 A2989 RMK AO2 SFC VIS 1 1/2 RAE13 P0000=
201101181716 SPECI KATL 181716Z 16005KT 1/4SM R09R/5500VP6000FT BR BKN003 BKN005 OVC007 05/04 A2989 RMK AO2 SFC VIS 1 1/2 RAE13 P0000=
201101181652 METAR KATL 181652Z 20003KT 1/4SM R09R/3000V4500FT -RA BR OVC003 05/04 A2990 RMK AO2 SFC VIS 3/4 RAB46 SLP131 P0000 T00500044=
201101181552 METAR KATL 181552Z 15003KT 1/4SM R09R/3500V5000FT BR OVC004 04/04 A2992 RMK AO2 SFC VIS 1 RAB01E21 SLP136 P0000 T00440044=
201101181452 METAR KATL 181452Z 13003KT 1/4SM R09R/2800V4000FT BR OVC003 04/04 A2990 RMK AO2 SFC VIS 3/4 DZE49 SLP130 P0000 60000 T00440039 53009=
201101181352 METAR KATL 181352Z 14003KT 1/4SM R09R/2400V4500FT -DZ FG OVC001 04/04 A2989 RMK AO2 SFC VIS 1/2 SLP125 P0000 T00390039=
201101181336 SPECI KATL 181336Z 08006KT 1/4SM R09R/1600V2800FT -DZ FG OVC001 04/03 A2988 RMK AO2 P0000=
201101181336 SPECI KATL 181336Z 08006KT 1/4SM R09R/1600V2800FT -DZ FG OVC001 04/03 A2988 RMK AO2 P0000=
201101181320 SPECI KATL 181320Z VRB05KT 1/4SM R09R/1400V1800FT -DZ FG OVC001 04/03 A2987 RMK AO2 TWR VIS 1/4 P0000=
201101181320 SPECI KATL 181320Z VRB05KT 1/4SM R09R/1400V1800FT -DZ FG OVC001 04/03 A2987 RMK AO2 TWR VIS 1/4 P0000=
201101181252 METAR KATL 181252Z 10005KT 1/4SM R09R/3000VP6000FT -DZ FG OVC001 04/03 A2987 RMK AO2 SFC VIS 1/2 SLP121 P0000 T00390033=
201101181152 METAR KATL 181152Z 08003KT 1/4SM R09R/2600V3500FT -DZ FG OVC001 04/03 A2987 RMK AO2 SFC VIS 1/2 SLP120 P0000 60000 70002 T00390033 10044 20039 53003=
201101181058 SPECI KATL 181058Z 09005KT 1/4SM R09R/4500VP6000FT -DZ BR OVC001 04/03 A2986 RMK AO2 SFC VIS 1 1/4 P0000=
201101181058 SPECI KATL 181058Z 09005KT 1/4SM R09R/4500VP6000FT -DZ BR OVC001 04/03 A2986 RMK AO2 SFC VIS 1 1/4 P0000=
201101181052 METAR KATL 181052Z 10006KT 1SM R09R/4500V6000FT -DZ BR OVC001 04/03 A2986 RMK AO2 SLP117 P0000 T00390033=
201101181029 SPECI KATL 181029Z 10005KT 1SM R09R/6000VP6000FT -DZ BR OVC001 04/03 A2987 RMK AO2 SFC VIS 1 1/2 P0000=
201101181029 SPECI KATL 181029Z 10005KT 1SM R09R/6000VP6000FT -DZ BR OVC001 04/03 A2987 RMK AO2 SFC VIS 1 1/2 P0000=
201101180952 METAR KATL 180952Z 08004KT 1SM R09R/6000VP6000FT -DZ BR OVC003 04/03 A2987 RMK AO2 SFC VIS 1 1/2 SLP120 P0000 T00390033=
201101180852 METAR KATL 180852Z 08004KT 1SM -DZ BR OVC003 04/03 A2986 RMK AO2 SFC VIS 1 1/2 CIG 001V007 SLP118 P0000 60000 T00390033 58007=
201101180831 SPECI KATL 180831Z 07006KT 1SM -DZ BR OVC003 04/03 A2987 RMK AO2 SFC VIS 1 3/4 CIG 001V006 P0000=
201101180831 SPECI KATL 180831Z 07006KT 1SM -DZ BR OVC003 04/03 A2987 RMK AO2 SFC VIS 1 3/4 CIG 001V006 P0000=
201101180752 METAR KATL 180752Z 08005KT 1SM -DZ BR OVC001 04/03 A2987 RMK AO2 SFC VIS 1 1/4 SLP120 P0000 T00390033=
201101180716 SPECI KATL 180716Z 09004KT 1 1/2SM -DZ BR OVC001 04/03 A2988 RMK AO2 P0000=
201101180716 SPECI KATL 180716Z 09004KT 1 1/2SM -DZ BR OVC001 04/03 A2988 RMK AO2 P0000=
201101180652 METAR KATL 180652Z 08008KT 2SM -DZ BR OVC003 04/03 A2988 RMK AO2 SLP121 P0000 T00440033=
201101180620 SPECI KATL 180620Z 09008KT 1 3/4SM -DZ BR OVC003 04/03 A2988 RMK AO2 P0000=
201101180620 SPECI KATL 180620Z 09008KT 1 3/4SM -DZ BR OVC003 04/03 A2988 RMK AO2 P0000=
201101180552 METAR KATL 180552Z 08009KT 2 1/2SM -DZ BR OVC003 04/03 A2988 RMK AO2 SLP124 P0000 60000 T00440033 10056 20044 58007=
201101180452 METAR KATL 180452Z 08011KT 2 1/2SM -DZ BR OVC004 04/03 A2989 RMK AO2 SLP127 P0000 T00440033 400830022=
201101180432 SPECI KATL 180432Z 07010KT 2 1/2SM -DZ BR OVC004 04/03 A2990 RMK AO2 P0000=
201101180432 SPECI KATL 180432Z 07010KT 2 1/2SM -DZ BR OVC004 04/03 A2990 RMK AO2 P0000=
201101180418 SPECI KATL 180418Z 08010KT 2 1/2SM -DZ BR OVC005 04/03 A2990 RMK AO2 P0000=
201101180418 SPECI KATL 180418Z 08010KT 2 1/2SM -DZ BR OVC005 04/03 A2990 RMK AO2 P0000=
201101180352 METAR KATL 180352Z 09013KT 5SM -DZ BR OVC006 04/03 A2991 RMK AO2 SLP132 P0000 T00440033=
201101180252 METAR KATL 180252Z 08014KT 5SM -DZ BR OVC006 05/04 A2991 RMK AO2 RAB0157E17DZB21 CIG 004V008 SLP133 P0000 60000 T00500039 56002=
201101180152 METAR KATL 180152Z 07010KT 6SM BR OVC006 06/04 A2991 RMK AO2 SLP133 T00560039=
201101180052 METAR KATL 180052Z 07011KT 7SM OVC008 06/04 A2991 RMK AO2 SLP133 T00560039=
201101172352 METAR KATL 172352Z 06009KT 7SM OVC007 06/04 A2991 RMK AO2 RAE13 SLP135 P0000 60002 T00560039 10083 20056 51004=
201101172252 METAR KATL 172252Z 08010KT 7SM -RA OVC007 06/04 A2991 RMK AO2 RAB42 SLP134 P0000 T00560039=
201101172152 METAR KATL 172152Z 09009KT 6SM BR BKN008 BKN060 OVC100 06/04 A2992 RMK AO2 RAE50 SLP135 P0001 T00610039=
201101172112 SPECI KATL 172112Z 10007KT 9SM -RA FEW008 BKN060 OVC100 06/04 A2991 RMK AO2 P0001=
201101172112 SPECI KATL 172112Z 10007KT 9SM -RA FEW008 BKN060 OVC100 06/04 A2991 RMK AO2 P0001=
201101172052 METAR KATL 172052Z 11010KT 8SM -RA FEW010 BKN060 OVC100 06/03 A2990 RMK AO2 SLP130 P0001 60001 T00610033 56017=
201101171954 SPECI KATL 171954Z 14005KT 10SM -RA BKN017 BKN060 OVC100 07/03 A2991 RMK AO2 P0000=
201101171954 SPECI KATL 171954Z 14005KT 10SM -RA BKN017 BKN060 OVC100 07/03 A2991 RMK AO2 P0000=
201101171952 METAR KATL 171952Z 14006KT 10SM -RA FEW012 BKN060 OVC100 07/03 A2992 RMK AO2 RAB14 SLP134 P0000 T00670028=
201101171852 METAR KATL 171852Z 11008KT 10SM FEW100 BKN150 OVC180 08/01 A2992 RMK AO2 SLP137 SHRA DSNT E-SW T00830006=
201101171752 METAR KATL 171752Z 10006KT 10SM FEW080 BKN150 OVC200 08/01 A2995 RMK AO2 SLP147 T00780006 10078 20028 58023=
201101171652 METAR KATL 171652Z 13004KT 10SM FEW100 BKN150 OVC200 07/00 A3000 RMK AO2 SLP163 T00720000=
201101171552 SPECI KATL 171552Z 11005KT 10SM FEW080 BKN150 BKN200 06/00 A3002 RMK AO2 SLP169 T00610000=
201101171452 METAR KATL 171452Z 10006KT 10SM FEW080 BKN150 OVC200 04/00 A3002 RMK AO2 SLP171 VIRGA NE & NW T00440000 58000=
201101171352 METAR KATL 171352Z 08007KT 10SM FEW030 SCT150 BKN250 03/M01 A3003 RMK AO2 SLP174 T00331006=
201101171252 METAR KATL 171252Z 09005KT 10SM BKN150 BKN250 03/M01 A3002 RMK AO2 SLP171 T00281006=
201101171152 METAR KATL 171152Z 00000KT 10SM SCT180 SCT250 03/M01 A3002 RMK AO2 SLP171 T00331011 10050 20022 55002=
201101171052 METAR KATL 171052Z 00000KT 10SM BKN180 OVC250 04/M01 A3001 RMK AO2 SLP166 T00391006=
201101170952 METAR KATL 170952Z 04005KT 10SM BKN150 OVC250 04/M01 A3002 RMK AO2 SLP168 T00391006=
201101170852 METAR KATL 170852Z VRB04KT 10SM BKN150 04/M01 A3003 RMK AO2 SLP172 T00391006 58007=
201101170752 METAR KATL 170752Z 06003KT 10SM SCT150 04/M01 A3004 RMK AO2 SLP177 T00391011=
201101170652 METAR KATL 170652Z 34003KT 10SM SCT180 04/M01 A3006 RMK AO2 SLP181 T00441011=
201101170552 METAR KATL 170552Z 00000KT 10SM BKN180 OVC250 05/M01 A3005 RMK AO2 SLP180 T00501011 10078 20033 58008=
201101170452 METAR KATL 170452Z 36003KT 10SM SCT180 BKN250 06/M01 A3007 RMK AO2 SLP185 T00561011 401220000=
201101170352 METAR KATL 170352Z 00000KT 10SM SCT180 04/M01 A3008 RMK AO2 SLP190 T00441011=
201101170252 METAR KATL 170252Z 35004KT 10SM FEW180 SCT250 07/M01 A3008 RMK AO2 SLP190 T00671011 58001=
201101170152 METAR KATL 170152Z 34005KT 10SM FEW180 SCT250 07/M01 A3008 RMK AO2 SLP193 T00721011=
201101170052 METAR KATL 170052Z 34003KT 10SM FEW180 07/M02 A3009 RMK AO2 SLP195 T00721017=
201101162352 METAR KATL 162352Z 32005KT 10SM FEW250 08/M02 A3008 RMK AO2 SLP193 T00781017 10122 20078 53004=
201101162252 METAR KATL 162252Z 35007KT 10SM SCT200 SCT250 10/M01 A3007 RMK AO2 SLP187 T01001011=
201101162152 METAR KATL 162152Z 32005KT 10SM FEW200 BKN250 11/M01 A3007 RMK AO2 SLP187 T01111011=
201101162052 METAR KATL 162052Z 30004KT 10SM FEW200 BKN250 12/M01 A3007 RMK AO2 SLP186 T01221006 55008=
201101161952 METAR KATL 161952Z VRB03KT 10SM SCT200 BKN250 12/M01 A3006 RMK AO2 SLP183 T01171011=
201101161852 METAR KATL 161852Z 33008KT 10SM SCT200 BKN250 11/M01 A3008 RMK AO2 SLP188 T01111006=
201101161752 METAR KATL 161752Z 28007KT 10SM FEW200 BKN250 10/M01 A3010 RMK AO2 SLP196 T01001006 10100 20000 58015=
201101161652 METAR KATL 161652Z 29004KT 10SM BKN250 09/M02 A3012 RMK AO2 SLP205 T00891017=
201101161552 METAR KATL 161552Z 32010KT 10SM BKN250 07/M02 A3014 RMK AO2 SLP213 T00671022=
201101161452 METAR KATL 161452Z 29007KT 10SM FEW250 05/M03 A3014 RMK AO2 SLP212 T00501028 53008=
201101161352 METAR KATL 161352Z 31006KT 10SM CLR 02/M04 A3013 RMK AO2 SLP209 T00221044=
201101161252 METAR KATL 161252Z 29005KT 10SM FEW250 01/M05 A3012 RMK AO2 SLP207 T00061050=
201101161152 METAR KATL 161152Z 30006KT 10SM CLR 00/M04 A3011 RMK AO2 SLP204 T00001044 10033 20000 56007=
201101161052 METAR KATL 161052Z 29006KT 10SM CLR 01/M04 A3012 RMK AO2 SLP205 T00111044=
201101160952 METAR KATL 160952Z 30006KT 10SM CLR 01/M04 A3012 RMK AO2 SLP204 T00111044=
201101160852 METAR KATL 160852Z 28006KT 10SM FEW023 02/M04 A3014 RMK AO2 SLP210 T00171044 58004=
201101160818 SPECI KATL 160818Z 29006KT 10SM SCT023 02/M04 A3015 RMK AO2=
201101160818 SPECI KATL 160818Z 29006KT 10SM SCT023 02/M04 A3015 RMK AO2=
201101160752 METAR KATL 160752Z 29006KT 10SM OVC023 03/M04 A3015 RMK AO2 SLP215 T00331039=
201101160701 SPECI KATL 160701Z 29005KT 10SM BKN027 03/M04 A3015 RMK AO2=
201101160701 SPECI KATL 160701Z 29005KT 10SM BKN027 03/M04 A3015 RMK AO2=
201101160652 METAR KATL 160652Z 29005KT 10SM BKN030 03/M04 A3015 RMK AO2 SLP215 T00281039=
201101160552 METAR KATL 160552Z 29006KT 10SM BKN031 03/M04 A3015 RMK AO2 SLP215 T00281044 10061 20022 56007=
201101160452 METAR KATL 160452Z 25004KT 10SM FEW033 02/M04 A3015 RMK AO2 SLP217 T00221044 401001033=
201101160352 METAR KATL 160352Z 00000KT 10SM FEW038 03/M05 A3016 RMK AO2 SLP221 T00331050=
201101160252 METAR KATL 160252Z 00000KT 10SM SCT038 05/M06 A3017 RMK AO2 SLP224 T00501056 50001=
201101160152 METAR KATL 160152Z 00000KT 10SM OVC038 06/M05 A3018 RMK AO2 SLP228 T00561050=
201101160052 METAR KATL 160052Z 33004KT 10SM BKN040 06/M05 A3018 RMK AO2 SLP228 T00611050=
201101152352 METAR KATL 152352Z 30004KT 10SM SCT040 06/M04 A3017 RMK AO2 SLP226 T00611044 10100 20061 55003=
201101152252 METAR KATL 152252Z 30005KT 10SM FEW040 07/M04 A3017 RMK AO2 SLP223 T00721044=
201101152152 METAR KATL 152152Z 31012KT 10SM FEW040 09/M03 A3018 RMK AO2 SLP225 T00891028=
201101152052 METAR KATL 152052Z 28011KT 10SM FEW040 10/M03 A3018 RMK AO2 SLP226 T01001033 56020=
201101151952 METAR KATL 151952Z 27012G15KT 10SM FEW040 10/M03 A3019 RMK AO2 SLP230 T01001028=
201101151852 METAR KATL 151852Z 29011KT 10SM FEW045 09/M03 A3021 RMK AO2 SLP235 T00941028=
201101151752 METAR KATL 151752Z 31009KT 10SM CLR 08/M05 A3024 RMK AO2 SLP248 4/001 T00781050 10078 21033 58021=
201101151652 METAR KATL 151652Z 29007KT 10SM CLR 07/M06 A3028 RMK AO2 SLP262 T00671061=
201101151552 METAR KATL 151552Z 31007KT 10SM CLR 04/M08 A3031 RMK AO2 SLP272 T00441083=
201101151452 METAR KATL 151452Z 29005KT 10SM CLR 03/M09 A3031 RMK AO2 SLP271 T00281089 51008=
201101151352 METAR KATL 151352Z 00000KT 10SM CLR 00/M08 A3030 RMK AO2 SLP271 T00001083=
201101151252 METAR KATL 151252Z 30004KT 10SM CLR M03/M09 A3029 RMK AO2 SLP269 T10281089=
201101151152 METAR KATL 151152Z 31005KT 10SM CLR M03/M09 A3028 RMK AO2 SLP265 4/001 T10281089 11006 21033 55003=
201101151052 METAR KATL 151052Z 00000KT 10SM FEW250 M02/M08 A3027 RMK AO2 SLP259 T10221083=
201101150952 METAR KATL 150952Z 30003KT 10SM SCT250 M02/M09 A3028 RMK AO2 SLP263 T10171089=
201101150852 METAR KATL 150852Z 31005KT 10SM SCT250 M02/M08 A3029 RMK AO2 SLP265 T10171083 56002=
201101150752 METAR KATL 150752Z 32005KT 10SM SCT250 M02/M08 A3029 RMK AO2 SLP266 T10171083=
201101150652 METAR KATL 150652Z 31003KT 10SM SCT250 M01/M09 A3029 RMK AO2 SLP264 T10111094=
201101150552 METAR KATL 150552Z 32003KT 10SM FEW250 M01/M08 A3030 RMK AO2 SLP268 4/001 T10061083 10028 21011 56018=
201101150452 METAR KATL 150452Z 00000KT 10SM FEW250 M01/M08 A3031 RMK AO2 SLP274 T10111083 400671067=
201101150352 METAR KATL 150352Z 00000KT 10SM SCT250 M01/M09 A3034 RMK AO2 SLP284 T10061089=
201101150252 METAR KATL 150252Z 00000KT 10SM SCT250 01/M10 A3035 RMK AO2 SLP290 T00111100 51000=
201101150152 METAR KATL 150152Z 33006KT 10SM BKN250 01/M09 A3035 RMK AO2 SLP291 T00111094=
201101150052 METAR KATL 150052Z 32005KT 10SM BKN250 02/M10 A3036 RMK AO2 SLP292 T00171100=
201101142352 METAR KATL 142352Z VRB05KT 10SM FEW250 03/M10 A3035 RMK AO2 SLP290 4/001 T00281100 10067 20028 51005=
201101142252 METAR KATL 142252Z 32005KT 10SM FEW250 04/M11 A3034 RMK AO2 SLP287 T00441106=
201101142152 METAR KATL 142152Z 32004KT 10SM FEW250 06/M11 A3034 RMK AO2 SLP285 T00611111=
201101142052 METAR KATL 142052Z 00000KT 10SM FEW250 07/M12 A3034 RMK AO2 SLP283 T00671117 55010=
201101141952 METAR KATL 141952Z 33004KT 10SM FEW250 06/M11 A3033 RMK AO2 SLP280 T00611111=
201101141852 METAR KATL 141852Z 31007KT 10SM FEW250 05/M10 A3034 RMK AO2 SLP285 T00501100=
201101141752 METAR KATL 141752Z 35004KT 10SM FEW250 04/M09 A3037 RMK AO2 SLP293 4/002 933003 T00441094 10044 21067 58016=
201101141652 METAR KATL 141652Z 33003KT 10SM FEW250 02/M09 A3039 RMK AO2 SLP303 T00221094=
201101141552 METAR KATL 141552Z 32005KT 10SM FEW250 M01/M08 A3042 RMK AO2 SLP314 T10061083=
201101141452 METAR KATL 141452Z 32007KT 10SM FEW250 M03/M09 A3042 RMK AO2 SLP313 T10281089 53009=
201101141352 METAR KATL 141352Z 32007KT 10SM FEW250 M06/M09 A3040 RMK AO2 SLP310 T10561094=
201101141252 METAR KATL 141252Z 32009KT 10SM FEW250 M07/M10 A3040 RMK AO2 SLP307 T10671100=
201101141152 METAR KATL 141152Z 31010KT 10SM CLR M07/M10 A3039 RMK AO2 SLP304 4/002 T10671100 11044 21067 53002=
201101141052 METAR KATL 141052Z 31007KT 10SM CLR M07/M10 A3038 RMK AO2 SLP300 T10671100=
201101140952 METAR KATL 140952Z 31007KT 10SM CLR M06/M10 A3038 RMK AO2 SLP300 T10611100=
201101140852 METAR KATL 140852Z 31006KT 10SM CLR M06/M10 A3038 RMK AO2 SLP300 T10561100 56001=
201101140752 METAR KATL 140752Z 32006KT 10SM CLR M06/M10 A3038 RMK AO2 SLP301 T10561100=
201101140652 METAR KATL 140652Z 32005KT 10SM CLR M04/M09 A3038 RMK AO2 SLP299 T10441094=
201101140552 METAR KATL 140552Z 33009KT 10SM CLR M04/M09 A3038 RMK AO2 SLP302 T10441094 11011 21044 58007=
201101140452 METAR KATL 140452Z 33009KT 10SM CLR M04/M09 A3039 RMK AO2 SLP305 T10391094 400111067=
201101140352 METAR KATL 140352Z 33005KT 10SM CLR M03/M09 A3041 RMK AO2 SLP311 T10331094=
201101140252 METAR KATL 140252Z 33008KT 10SM CLR M03/M09 A3041 RMK AO2 SLP311 T10281094 58002=
201101140152 METAR KATL 140152Z 31008KT 10SM CLR M02/M09 A3041 RMK AO2 SLP311 T10221094=
201101140052 METAR KATL 140052Z 32008KT 10SM CLR M02/M09 A3041 RMK AO2 SLP313 T10171094=
201101132352 METAR KATL 132352Z 32006KT 10SM CLR M01/M09 A3041 RMK AO2 SLP313 4/002 T10111089 10011 21011 51005=
201101132252 METAR KATL 132252Z 33010KT 10SM CLR 00/M09 A3041 RMK AO2 SLP311 T00001089=
201101132152 METAR KATL 132152Z 32009KT 10SM CLR 01/M09 A3040 RMK AO2 SLP309 T00061089=
201101132052 METAR KATL 132052Z 30009KT 10SM CLR 01/M09 A3040 RMK AO2 SLP306 T00111089 55013=
201101131952 METAR KATL 131952Z 33012KT 10SM FEW250 01/M09 A3039 RMK AO2 SLP305 T00061089=
201101131852 METAR KATL 131852Z 31011KT 10SM FEW250 00/M09 A3040 RMK AO2 SLP309 T00001089=
201101131752 METAR KATL 131752Z 34008KT 10SM FEW250 M01/M09 A3044 RMK AO2 SLP321 4/003 933003 T10111089 11006 21067 58024=
201101131652 METAR KATL 131652Z 32009KT 10SM FEW250 M02/M09 A3048 RMK AO2 SLP335 T10221089=
201101131552 METAR KATL 131552Z 32007KT 10SM SCT250 M03/M09 A3050 RMK AO2 SLP344 T10331094=
201101131452 METAR KATL 131452Z 34010KT 10SM FEW025 BKN250 M05/M10 A3051 RMK AO2 SLP347 T10501100 53016=
201101131352 METAR KATL 131352Z 34012G19KT 10SM FEW025 BKN250 M06/M11 A3049 RMK AO2 SLP341 T10611106=
201101131252 METAR KATL 131252Z 34009KT 10SM SCT250 M07/M11 A3048 RMK AO2 SLP336 T10671111=
201101131152 METAR KATL 131152Z COR 33010KT 10SM FEW180 M07/M11 A3046 RMK AO2 SLP332 T10671111 11056 21067 53007=
201101131052 METAR KATL 131052Z 33007KT 10SM CLR M07/M11 A3045 RMK AO2 SLP326 T10671111=
201101130952 METAR KATL 130952Z 33010KT 10SM CLR M07/M11 A3044 RMK AO2 SLP323 T10671111=
201101130852 METAR KATL 130852Z 34010KT 10SM FEW024 M06/M11 A3044 RMK AO2 SLP324 T10611111 51009=
201101130752 METAR KATL 130752Z 34010G21KT 10SM FEW024 M06/M11 A3044 RMK AO2 SLP321 T10611106=
201101130652 METAR KATL 130652Z 33012G16KT 10SM SCT024 M06/M11 A3043 RMK AO2 SLP318 T10611106=
201101130552 METAR KATL 130552Z 32013KT 10SM SCT030 M06/M11 A3042 RMK AO2 SLP315 4/003 T10611111 11039 21061 58004=
201101130452 METAR KATL 130452Z 33010G18KT 10SM FEW030 M06/M11 A3042 RMK AO2 SLP317 T10561111 410111067=
201101130352 METAR KATL 130352Z 33013G19KT 10SM CLR M05/M11 A3044 RMK AO2 SLP322 T10501111=
201101130252 METAR KATL 130252Z 33012G21KT 10SM FEW030 M04/M11 A3043 RMK AO2 SLP319 T10441106 51007=
201101130152 METAR KATL 130152Z 33014G18KT 10SM BKN030 M04/M11 A3043 RMK AO2 SLP319 T10391106=
201101130052 METAR KATL 130052Z 32011KT 10SM SCT032 M04/M11 A3042 RMK AO2 SLP317 T10391106=
201101122352 METAR KATL 122352Z 32008KT 10SM FEW035 M04/M11 A3041 RMK AO2 SLP313 4/003 60000 T10391106 11017 21039 51015=
201101122252 METAR KATL 122252Z 32014KT 10SM SCT034 M03/M11 A3039 RMK AO2 SLP306 T10281106=
201101122152 METAR KATL 122152Z 32014G19KT 10SM SCT036 M02/M10 A3039 RMK AO2 SLP303 T10221100=
201101122052 METAR KATL 122052Z 33015KT 10SM FEW036 M02/M09 A3037 RMK AO2 PK WND 32027/2037 SLP296 60000 T10171094 53004=
201101121952 METAR KATL 121952Z 33016G24KT 10SM BKN033 M02/M08 A3035 RMK AO2 PK WND 31026/1915 SNE49 SLP290 P0000 T10221083=
201101121852 METAR KATL 121852Z 32020G26KT 10SM -SN FEW025 BKN030 BKN035 M03/M09 A3034 RMK AO2 PK WND 31026/1852 SNB26 SLP288 P0000 T10281094=
201101121826 SPECI KATL 121826Z 32017KT 10SM -SN BKN030 M03/M09 A3034 RMK AO2 SNB26 P0000=
201101121826 SPECI KATL 121826Z 32017KT 10SM -SN BKN030 M03/M09 A3034 RMK AO2 SNB26 P0000=
201101121752 METAR KATL 121752Z 33017KT 10SM FEW025 BKN030 M03/M09 A3035 RMK AO2 SLP291 SHSN DSNT NW-N-NE 4/003 933002 T10281094 11028 21067 58002=
201101121652 METAR KATL 121652Z 31014G20KT 10SM BKN030 M03/M09 A3037 RMK AO2 SLP296 T10331094=
201101121552 METAR KATL 121552Z 31013G19KT 10SM SCT027 M04/M09 A3037 RMK AO2 SLP298 T10391094=
201101121452 METAR KATL 121452Z 31014G19KT 10SM FEW025 M04/M10 A3036 RMK AO2 SLP292 T10441100 53021=
201101121352 METAR KATL 121352Z 29014G18KT 10SM CLR M06/M11 A3034 RMK AO2 SLP287 T10611106=
201101121252 METAR KATL 121252Z 29009KT 10SM CLR M07/M11 A3031 RMK AO2 SLP276 T10671106=
201101121152 METAR KATL 121152Z 30011G17KT 10SM CLR M06/M11 A3029 RMK AO2 SLP271 4/003 T10611106 11017 21061 53004=
201101121052 METAR KATL 121052Z 30014G21KT 10SM CLR M06/M11 A3028 RMK AO2 SLP266 T10561106=
201101120952 METAR KATL 120952Z 30014KT 10SM FEW035 M05/M11 A3027 RMK AO2 SLP263 T10501106=
201101120852 METAR KATL 120852Z 30014G22KT 10SM FEW035 M04/M10 A3028 RMK AO2 SLP266 T10441100 53012=
201101120752 METAR KATL 120752Z 31016G22KT 10SM BKN035 M04/M09 A3027 RMK AO2 PK WND 32028/0708 SLP261 T10391094=
201101120652 METAR KATL 120652Z 31011G21KT 10SM BKN034 M03/M09 A3025 RMK AO2 PK WND 29028/0603 SLP256 T10281089=
201101120552 METAR KATL 120552Z 29020G27KT 9SM BKN032 M02/M08 A3025 RMK AO2 PK WND 28027/0551 SLP253 4/003 T10171078 10006 21017 58001=
201101120452 METAR KATL 120452Z 30014G24KT 9SM BKN032 M01/M08 A3024 RMK AO2 PK WND 32028/0406 SLP253 T10111078 400111017=
201101120352 METAR KATL 120352Z 30019G26KT 9SM BKN033 M01/M07 A3025 RMK AO2 PK WND 30026/0352 SLP255 T10061067=
201101120252 METAR KATL 120252Z 29014G25KT 9SM BKN033 M01/M06 A3025 RMK AO2 SLP254 T10061061 51010=
201101120152 METAR KATL 120152Z 29015G26KT 8SM BKN035 00/M06 A3024 RMK AO2 PK WND 28029/0126 SLP251 T00001056=
201101120123 SPECI KATL 120123Z 29019G26KT 8SM SCT028 BKN035 00/M05 A3023 RMK AO2 PK WND 28026/0120=
201101120123 SPECI KATL 120123Z 29019G26KT 8SM SCT028 BKN035 00/M05 A3023 RMK AO2 PK WND 28026/0120=
201101120052 METAR KATL 120052Z 29014KT 8SM BKN028 01/M04 A3023 RMK AO2 SLP246 T00061044=
201101112352 METAR KATL 112352Z 29012KT 8SM BKN023 BKN030 BKN035 01/M03 A3022 RMK AO2 PLE15SNE40 SLP242 4/003 P0000 60000 T00061028 10011 20006 53015=
201101112341 SPECI KATL 112341Z 30016G21KT 8SM SCT021 BKN026 BKN030 01/M03 A3021 RMK AO2 PLE15SNE40 P0000=
201101112341 SPECI KATL 112341Z 30016G21KT 8SM SCT021 BKN026 BKN030 01/M03 A3021 RMK AO2 PLE15SNE40 P0000=
201101112316 SPECI KATL 112316Z 29013G20KT 7SM -SN SCT019 BKN024 OVC030 01/M02 A3020 RMK AO2 PLE15 P0000=
201101112316 SPECI KATL 112316Z 29013G20KT 7SM -SN SCT019 BKN024 OVC030 01/M02 A3020 RMK AO2 PLE15 P0000=
201101112252 METAR KATL 112252Z 28010G17KT 6SM -SNPL FEW010 SCT022 OVC030 01/M02 A3020 RMK AO2 SNB36PLB52 SLP236 P0000 T00111017=
201101112238 SPECI KATL 112238Z 28013KT 4SM -SN SCT022 BKN030 01/M02 A3019 RMK AO2 SNB36 P0000=
201101112238 SPECI KATL 112238Z 28013KT 4SM -SN SCT022 BKN030 01/M02 A3019 RMK AO2 SNB36 P0000=
201101112152 METAR KATL 112152Z 28010KT 9SM FEW010 BKN019 BKN026 01/M01 A3018 RMK AO2 SLP231 T00111011=
201101112052 METAR KATL 112052Z 27011KT 10SM FEW009 BKN017 OVC023 01/M01 A3017 RMK AO2 SLP226 BINOVC NW 60000 T00111006 55004=
201101112028 SPECI KATL 112028Z 27010KT 6SM BR BKN009 BKN015 OVC025 01/M01 A3016 RMK AO2=
201101112028 SPECI KATL 112028Z 27010KT 6SM BR BKN009 BKN015 OVC025 01/M01 A3016 RMK AO2=
201101111952 METAR KATL 111952Z 27009KT 6SM BR OVC010 01/M01 A3015 RMK AO2 CIG 006V013 SLP221 T00111006=
201101111852 METAR KATL 111852Z 27008KT 6SM BR BKN006 OVC012 01/M01 A3016 RMK AO2 SNE17 CIG 005V009 SLP223 P0000 T00061006=
201101111817 SPECI KATL 111817Z 26009KT 2SM BR BKN006 OVC009 01/M01 A3017 RMK AO2 SFC VIS 6 SNE17 P0000=
201101111817 SPECI KATL 111817Z 26009KT 2SM BR BKN006 OVC009 01/M01 A3017 RMK AO2 SFC VIS 6 SNE17 P0000=
201101111752 METAR KATL 111752Z 27010KT 2SM -SN BR OVC004 01/M01 A3018 RMK AO2 SFC VIS 4 SNB37 CIG 003V008 SLP231 4/003 933003 P0000 60000 T00061006 10006 21017 56016=
201101111741 SPECI KATL 111741Z 26008KT 2SM -SN BR OVC004 01/M01 A3019 RMK AO2 SFC VIS 3 SNB37 CIG 003V007 P0000=
201101111741 SPECI KATL 111741Z 26008KT 2SM -SN BR OVC004 01/M01 A3019 RMK AO2 SFC VIS 3 SNB37 CIG 003V007 P0000=
201101111737 SPECI KATL 111737Z 26006KT 1SM -SN BR OVC004 01/M01 A3019 RMK AO2 SFC VIS 3 SNB37 CIG 003V007 P0000=
201101111737 SPECI KATL 111737Z 26006KT 1SM -SN BR OVC004 01/M01 A3019 RMK AO2 SFC VIS 3 SNB37 CIG 003V007 P0000=
201101111652 METAR KATL 111652Z 25005KT 1SM BR FEW002 BKN003 OVC005 00/M01 A3021 RMK AO2 SFC VIS 3 FZDZE44 SLP240 P0000 T00001011=
201101111646 SPECI KATL 111646Z 25005KT 1SM BR FEW002 BKN003 OVC005 00/M01 A3020 RMK AO2 SFC VIS 3 FZDZE44 P0000=
201101111646 SPECI KATL 111646Z 25005KT 1SM BR FEW002 BKN003 OVC005 00/M01 A3020 RMK AO2 SFC VIS 3 FZDZE44 P0000=
201101111552 METAR KATL 111552Z 23005KT 1SM -FZDZ BR FEW002 BKN003 OVC005 M01/M01 A3023 RMK AO2 SFC VIS 3 FZDZB44 SLP248 P0000 T10061011=
201101111550 SPECI KATL 111550Z 23006KT 1SM -FZDZ BR FEW002 BKN003 OVC005 M01/M01 A3023 RMK AO2 SFC VIS 3 FZDZB44 P0000=
201101111550 SPECI KATL 111550Z 23006KT 1SM -FZDZ BR FEW002 BKN003 OVC005 M01/M01 A3023 RMK AO2 SFC VIS 3 FZDZB44 P0000=
201101111452 METAR KATL 111452Z 00000KT 1SM BR FEW002 BKN003 OVC005 M01/M01 A3023 RMK AO2 SFC VIS 3 FZDZE44 SLP246 P0000 60000 T10111011 50003=
201101111446 SPECI KATL 111446Z 23003KT 1SM BR FEW002 BKN003 OVC005 M01/M01 A3023 RMK AO2 SFC VIS 3 FZDZE44 P0000=
201101111446 SPECI KATL 111446Z 23003KT 1SM BR FEW002 BKN003 OVC005 M01/M01 A3023 RMK AO2 SFC VIS 3 FZDZE44 P0000=
201101111352 METAR KATL 111352Z 23003KT 1SM -FZDZ BR OVC002 M01/M02 A3022 RMK AO2 SFC VIS 1 1/2 SLP246 P0000 T10111017=
201101111252 METAR KATL 111252Z 23004KT 1SM R09R/5500VP6000FT -FZDZ BR OVC002 M01/M02 A3022 RMK AO2 SFC VIS 1 1/4 SLP243 FZDZE37B47 P0000 T10111022=
201101111247 SPECI KATL 111247Z 24003KT 1SM R09R/5500VP6000FT -FZDZ BR OVC002 M01/M02 A3021 RMK AO2 SFC VIS 1 1/4 P0000=
201101111247 SPECI KATL 111247Z 24003KT 1SM R09R/5500VP6000FT -FZDZ BR OVC002 M01/M02 A3021 RMK AO2 SFC VIS 1 1/4 P0000=
201101111237 SPECI KATL 111237Z 00000KT 1SM BR OVC002 M01/M02 A3020 RMK AO2 SFC VIS 2 FZDZE37 PRESRR P0000=
201101111237 SPECI KATL 111237Z 00000KT 1SM BR OVC002 M01/M02 A3020 RMK AO2 SFC VIS 2 FZDZE37 PRESRR P0000=
201101111152 METAR KATL 111152Z 00000KT 1SM -FZDZ BR BKN002 OVC004 M01/M02 A3017 RMK AO2 SFC VIS 1 3/4 SLP227 4/003 P0000 60000 70007 T10111022 11011 21017 53001=
201101111052 METAR KATL 111052Z 12004KT 1SM -FZDZ BR OVC002 M02/M02 A3015 RMK AO2 SFC VIS 2 SLP222 P0000 T10171022=
201101110952 METAR KATL 110952Z 08004KT 1SM -FZDZ BR OVC002 M02/M02 A3016 RMK AO2 SFC VIS 2 SLP224 P0000 T10171022=
201101110852 METAR KATL 110852Z 00000KT 1SM -FZDZ BR OVC002 M02/M02 A3017 RMK AO2 SFC VIS 3 SLP227 P0000 60000 T10171022 53011=
201101110752 METAR KATL 110752Z 10007KT 1SM -FZDZ BR OVC002 M02/M02 A3014 RMK AO2 SFC VIS 2 FZDZB28 SLP219 P0000 T10171022=
201101110729 SPECI KATL 110729Z 11006KT 1SM -FZDZ BR OVC003 M02/M02 A3014 RMK AO2 SFC VIS 2 1/2 FZDZB28 P0000=
201101110729 SPECI KATL 110729Z 11006KT 1SM -FZDZ BR OVC003 M02/M02 A3014 RMK AO2 SFC VIS 2 1/2 FZDZB28 P0000=
201101110654 SPECI KATL 110654Z 10006KT 1SM BR OVC003 M02/M02 A3013 RMK AO2 SFC VIS 3=
201101110654 SPECI KATL 110654Z 10006KT 1SM BR OVC003 M02/M02 A3013 RMK AO2 SFC VIS 3=
201101110652 METAR KATL 110652Z 09007KT 1 1/2SM BR OVC003 M02/M02 A3013 RMK AO2 SFC VIS 3 SLP214 T10171022=
201101110552 METAR KATL 110552Z 08010KT 1 1/2SM BR OVC004 M02/M03 A3013 RMK AO2 SFC VIS 2 1/2 SLP216 4/003 60000 T10171028 11017 21022 58006=
201101110452 METAR KATL 110452Z 08007KT 1 1/2SM BR OVC004 M02/M03 A3016 RMK AO2 SFC VIS 2 1/2 FZDZE42 SLP224 P0000 T10171028 410171028=
201101110443 SPECI KATL 110443Z 08008KT 1 1/2SM BR OVC004 M02/M03 A3016 RMK AO2 SFC VIS 2 1/2 FZDZE42 P0000=
201101110443 SPECI KATL 110443Z 08008KT 1 1/2SM BR OVC004 M02/M03 A3016 RMK AO2 SFC VIS 2 1/2 FZDZE42 P0000=
201101110352 METAR KATL 110352Z 08006KT 1SM R09R/P6000FT -FZDZ BR OVC004 M02/M03 A3017 RMK AO2 SLP229 P0000 T10171028=
201101110252 METAR KATL 110252Z 07008KT 1SM R09R/P6000FT -FZDZ BR OVC004 M02/M03 A3015 RMK AO2 SLP222 P0000 60000 T10171028 53010=
201101110152 METAR KATL 110152Z 07009KT 2SM -FZDZ BR OVC004 M02/M03 A3014 RMK AO2 SFC VIS 3 SLP217 P0000 T10171028=
201101110052 METAR KATL 110052Z 07010KT 2SM -FZDZ BR OVC004 M02/M03 A3013 RMK AO2 SFC VIS 3 SLP214 P0000 T10171028=
201101102352 METAR KATL 102352Z 07012KT 2SM -FZDZ BR OVC004 M02/M03 A3012 RMK AO2 SFC VIS 3 SLP212 4/003 P0000 60000 T10171033 11017 21017 51009=
201101102252 METAR KATL 102252Z 05011KT 2SM -FZDZ BR OVC004 M02/M03 A3012 RMK AO2 SFC VIS 3 SLP210 P0000 T10171028=
201101102152 METAR KATL 102152Z 08011KT 2SM -FZDZ BR OVC006 M02/M03 A3012 RMK AO2 SFC VIS 4 SLP210 P0000 T10171033=
201101102116 SPECI KATL 102116Z 07012KT 2SM -FZDZ BR OVC006 M02/M03 A3010 RMK AO2 SFC VIS 4 CIG 004V008 P0000=
201101102116 SPECI KATL 102116Z 07012KT 2SM -FZDZ BR OVC006 M02/M03 A3010 RMK AO2 SFC VIS 4 CIG 004V008 P0000=
201101102105 SPECI KATL 102105Z 07012KT 2SM -FZDZ BR OVC004 M02/M03 A3010 RMK AO2 SFC VIS 4 CIG 004V008 P0000=
201101102105 SPECI KATL 102105Z 07012KT 2SM -FZDZ BR OVC004 M02/M03 A3010 RMK AO2 SFC VIS 4 CIG 004V008 P0000=
201101102056 SPECI KATL 102056Z 07010KT 2SM -FZDZ BR OVC006 M02/M03 A3009 RMK AO2 SFC VIS 4 CIG 004V009 P0000=
201101102056 SPECI KATL 102056Z 07010KT 2SM -FZDZ BR OVC006 M02/M03 A3009 RMK AO2 SFC VIS 4 CIG 004V009 P0000=
201101102052 METAR KATL 102052Z 07009KT 1SM -FZDZ BR OVC006 M02/M03 A3009 RMK AO2 SFC VIS 3 FZRAE06FZDZB06 CIG 004V009 SLP202 P0000 60000 T10171028 55003=
201101102037 SPECI KATL 102037Z 09012KT 1SM -FZDZ BR BKN006 OVC009 M02/M03 A3009 RMK AO2 SFC VIS 3 FZRAE06FZDZB06 P0000=
201101102037 SPECI KATL 102037Z 09012KT 1SM -FZDZ BR BKN006 OVC009 M02/M03 A3009 RMK AO2 SFC VIS 3 FZRAE06FZDZB06 P0000=
201101102006 SPECI KATL 102006Z 08011KT 5SM -FZDZ BR OVC006 M02/M03 A3008 RMK AO2 FZRAE06FZDZB06 P0000=
201101102006 SPECI KATL 102006Z 08011KT 5SM -FZDZ BR OVC006 M02/M03 A3008 RMK AO2 FZRAE06FZDZB06 P0000=
201101101952 METAR KATL 101952Z 08012KT 3SM -FZRA BR OVC006 M02/M03 A3008 RMK AO2 FZDZE50FZRAB50 CIG 004V010 SLP199 P0000 T10171028=
201101101852 METAR KATL 101852Z 07015KT 4SM -FZDZ BR OVC006 M02/M03 A3007 RMK AO2 CIG 004V009 SLP195 P0000 T10171028=
201101101752 METAR KATL 101752Z COR 08014KT 3SM -FZDZ BR OVC006 M02/M03 A3010 RMK AO2 FZRAE42FZDZB42 SLP205 4/003 933004 P0000 60007 T10171028 11017 21028 56022=
201101101743 SPECI KATL 101743Z 08014KT 5SM -FZDZ BR OVC006 M02/M03 A3011 RMK AO2 FZRAE42FZDZB42 P0000=
201101101743 SPECI KATL 101743Z 08014KT 5SM -FZDZ BR OVC006 M02/M03 A3011 RMK AO2 FZRAE42FZDZB42 P0000=
201101101652 METAR KATL 101652Z 08014KT 4SM -FZRA BR OVC006 M02/M03 A3011 RMK AO2 SLP209 P0001 T10221033=
201101101552 METAR KATL 101552Z 08017KT 4SM -FZRA BR OVC008 M02/M03 A3015 RMK AO2 FZRAE00B41FZDZB00E41 SLP222 P0001 T10171033=
201101101541 SPECI KATL 101541Z 07015KT 5SM -FZRA BR OVC008 M02/M03 A3016 RMK AO2 FZRAE00B41FZDZB00E41 P0000=
201101101541 SPECI KATL 101541Z 07015KT 5SM -FZRA BR OVC008 M02/M03 A3016 RMK AO2 FZRAE00B41FZDZB00E41 P0000=
201101101500 SPECI KATL 101500Z 09016KT 8SM -FZDZ OVC008 M02/M04 A3017 RMK AO2 FZRAE00FZDZB00 P0000=
201101101500 SPECI KATL 101500Z 09016KT 8SM -FZDZ OVC008 M02/M04 A3017 RMK AO2 FZRAE00FZDZB00 P0000=
201101101452 METAR KATL 101452Z 09017KT 5SM -FZRA BR OVC008 M02/M04 A3017 RMK AO2 FZDZE14FZRAB14 CIG 007V010 SLP228 P0002 60005 T10221039 50009=
201101101433 SPECI KATL 101433Z 09016G22KT 8SM -FZRA OVC008 M02/M04 A3017 RMK AO2 FZDZE14FZRAB14 CIG 007V012 P0001=
201101101433 SPECI KATL 101433Z 09016G22KT 8SM -FZRA OVC008 M02/M04 A3017 RMK AO2 FZDZE14FZRAB14 CIG 007V012 P0001=
201101101415 SPECI KATL 101415Z 08017G21KT 8SM -FZRA OVC010 M02/M04 A3017 RMK AO2 FZDZE14FZRAB14 CIG 008V012 P0000=
201101101415 SPECI KATL 101415Z 08017G21KT 8SM -FZRA OVC010 M02/M04 A3017 RMK AO2 FZDZE14FZRAB14 CIG 008V012 P0000=
201101101352 METAR KATL 101352Z 08016KT 10SM -FZDZ BKN010 OVC018 M02/M04 A3017 RMK AO2 FZDZE01B36FZRAB01E36 SLP229 P0002 T10221044=
201101101336 SPECI KATL 101336Z 09016G23KT 10SM -FZDZ BKN012 OVC018 M02/M04 A3018 RMK AO2 FZDZE01B36FZRAB01E36 P0002=
201101101336 SPECI KATL 101336Z 09016G23KT 10SM -FZDZ BKN012 OVC018 M02/M04 A3018 RMK AO2 FZDZE01B36FZRAB01E36 P0002=
201101101301 SPECI KATL 101301Z 09017G24KT 6SM -FZRA BR BKN012 OVC020 M02/M04 A3017 RMK AO2 FZDZE01FZRAB01 P0002=
201101101301 SPECI KATL 101301Z 09017G24KT 6SM -FZRA BR BKN012 OVC020 M02/M04 A3017 RMK AO2 FZDZE01FZRAB01 P0002=
201101101252 METAR KATL 101252Z 09014G23KT 10SM -FZDZ BKN012 OVC035 M02/M04 A3017 RMK AO2 FZRAB13E34FZDZB34PLE34 SLP227 P0001 T10221044=
201101101234 SPECI KATL 101234Z 09020G24KT 10SM -FZDZ BKN010 OVC035 M02/M04 A3016 RMK AO2 FZRAB13E34FZDZB34PLE34 P0001=
201101101234 SPECI KATL 101234Z 09020G24KT 10SM -FZDZ BKN010 OVC035 M02/M04 A3016 RMK AO2 FZRAB13E34FZDZB34PLE34 P0001=
201101101214 SPECI KATL 101214Z 10014G19KT 6SM -FZRAPL BR FEW004 BKN010 OVC035 M02/M04 A3016 RMK AO2 FZRAB13 P0001=
201101101214 SPECI KATL 101214Z 10014G19KT 6SM -FZRAPL BR FEW004 BKN010 OVC035 M02/M04 A3016 RMK AO2 FZRAB13 P0001=
201101101152 METAR KATL 101152Z 10012KT 5SM -PL BR FEW004 BKN010 OVC035 M03/M04 A3014 RMK AO2 FZRAB12E29SNE47 SLP217 4/004 P0013 60028 70066 T10281039 11022 21028 50008=
201101101130 SPECI KATL 101130Z 09017G20KT 4SM PLSN BR FEW004 BKN010 OVC030 M03/M04 A3015 RMK AO2 FZRAB12E29 P0008=
201101101130 SPECI KATL 101130Z 09017G20KT 4SM PLSN BR FEW004 BKN010 OVC030 M03/M04 A3015 RMK AO2 FZRAB12E29 P0008=
201101101112 SPECI KATL 101112Z 09016KT 5SM -FZRAPLSN BR FEW004 BKN012 OVC030 M03/M04 A3015 RMK AO2 FZRAB12 P0005=
201101101112 SPECI KATL 101112Z 09016KT 5SM -FZRAPLSN BR FEW004 BKN012 OVC030 M03/M04 A3015 RMK AO2 FZRAB12 P0005=
201101101052 METAR KATL 101052Z 08013KT 4SM -PLSN BR FEW008 BKN012 OVC030 M03/M04 A3015 RMK AO2 FZRAE04SNB36 SLP221 P0006 T10281039=
201101101004 SPECI KATL 101004Z 07015G20KT 4SM PL BR SCT009 BKN012 OVC030 M02/M04 A3014 RMK AO2 FZRAE04 P0003=
201101101004 SPECI KATL 101004Z 07015G20KT 4SM PL BR SCT009 BKN012 OVC030 M02/M04 A3014 RMK AO2 FZRAE04 P0003=
201101100952 METAR KATL 100952Z 08017KT 4SM -FZRAPL BR SCT009 BKN012 OVC030 M02/M04 A3016 RMK AO2 PK WND 08030/0915 FZRAB09SNE09 SLP223 P0003 T10221044=
201101100939 SPECI KATL 100939Z 08014G24KT 6SM -FZRAPL BR SCT009 BKN012 OVC030 M03/M04 A3014 RMK AO2 PK WND 08030/0915 FZRAB09SNE09 P0001=
201101100939 SPECI KATL 100939Z 08014G24KT 6SM -FZRAPL BR SCT009 BKN012 OVC030 M03/M04 A3014 RMK AO2 PK WND 08030/0915 FZRAB09SNE09 P0001=
201101100909 SPECI KATL 100909Z 08021KT 4SM -FZRAPL BR SCT003 OVC009 M03/M04 A3012 RMK AO2 PK WND 08026/0905 FZRAB09SNE09 P0000=
201101100909 SPECI KATL 100909Z 08021KT 4SM -FZRAPL BR SCT003 OVC009 M03/M04 A3012 RMK AO2 PK WND 08026/0905 FZRAB09SNE09 P0000=
201101100852 METAR KATL 100852Z 08023G27KT 2 1/2SM -SNPL BR BKN003 OVC009 M03/M04 A3012 RMK AO2 PK WND 08029/0836 PLE23B44 SLP209 P0002 60006 T10281044 58014=
201101100849 SPECI KATL 100849Z 08020G27KT 2 1/2SM -SNPL BR BKN003 OVC009 M03/M04 A3012 RMK AO2 PK WND 08029/0836 PLE23B44 P0002=
201101100849 SPECI KATL 100849Z 08020G27KT 2 1/2SM -SNPL BR BKN003 OVC009 M03/M04 A3012 RMK AO2 PK WND 08029/0836 PLE23B44 P0002=
201101100827 SPECI KATL 100827Z 09020KT 1 1/2SM -SN BR BKN002 OVC009 M03/M04 A3015 RMK AO2 PK WND 09026/0824 PLE23 PRESFR P0001 $=
201101100827 SPECI KATL 100827Z 09020KT 1 1/2SM -SN BR BKN002 OVC009 M03/M04 A3015 RMK AO2 PK WND 09026/0824 PLE23 PRESFR P0001 $=
201101100823 SPECI KATL 100823Z 09018KT 2SM -SN BR BKN003 OVC009 M03/M04 A3016 RMK AO2 PLE23 P0001 $=
201101100823 SPECI KATL 100823Z 09018KT 2SM -SN BR BKN003 OVC009 M03/M04 A3016 RMK AO2 PLE23 P0001 $=
201101100752 METAR KATL 100752Z 08018KT 3SM -SNPL BR BKN009 OVC014 M03/M05 A3017 RMK AO2 FZRAB04E25B41E51 SLP227 P0002 T10281050 $=
201101100743 SPECI KATL 100743Z 07017G23KT 5SM -FZRAPLSN BR BKN009 OVC012 M03/M05 A3019 RMK AO2 FZRAB04E25B41 P0002=
201101100743 SPECI KATL 100743Z 07017G23KT 5SM -FZRAPLSN BR BKN009 OVC012 M03/M05 A3019 RMK AO2 FZRAB04E25B41 P0002=
201101100725 SPECI KATL 100725Z 05014KT 6SM -PLSN BR BKN009 OVC012 M03/M04 A3020 RMK AO2 FZRAB04E25 P0001=
201101100725 SPECI KATL 100725Z 05014KT 6SM -PLSN BR BKN009 OVC012 M03/M04 A3020 RMK AO2 FZRAB04E25 P0001=
201101100705 SPECI KATL 100705Z 04014KT 6SM FZRAPLSN OVC009 M03/M04 A3020 RMK AO2 FZRAB04 CIG 008V012 P0000=
201101100705 SPECI KATL 100705Z 04014KT 6SM FZRAPLSN OVC009 M03/M04 A3020 RMK AO2 FZRAB04 CIG 008V012 P0000=
201101100652 METAR KATL 100652Z 04013KT 7SM -PLSN OVC009 M03/M04 A3017 RMK AO2 SLP229 CIG 008V012 P0002 T10281044=
201101100643 SPECI KATL 100643Z 06013KT 7SM -PLSN BR OVC009 M03/M04 A3016 RMK AO2 CIG 008V012 P0002=
201101100643 SPECI KATL 100643Z 06013KT 7SM -PLSN BR OVC009 M03/M04 A3016 RMK AO2 CIG 008V012 P0002=
201101100552 METAR KATL 100552Z COR 09012KT 6SM -SNPL BR OVC011 M03/M04 A3016 RMK AO2 PK WND 08026/0507 PLB35 SLP223 P0001 60038 4/003 T10281044 10011 21033 56020=
201101100537 SPECI KATL 100537Z 08012G22KT 6SM -PL BR SCT008 BKN013 OVC055 M03/M05 A3016 RMK AO2 PK WND 08026/0507 SNE35PLB35 P0000=
201101100537 SPECI KATL 100537Z 08012G22KT 6SM -PL BR SCT008 BKN013 OVC055 M03/M05 A3016 RMK AO2 PK WND 08026/0507 SNE35PLB35 P0000=
201101100452 METAR KATL 100452Z 09016G21KT 4SM -SN BR OVC009 M03/M04 A3017 RMK AO2 SNE03B37PLE49 SLP228 P0001 T10281044 400111072=
201101100449 SPECI KATL 100449Z 09016KT 4SM -SN BR OVC008 M03/M04 A3017 RMK AO2 SNE03B37PLE49 P0001 400111072=
201101100449 SPECI KATL 100449Z 09016KT 4SM -SN BR OVC008 M03/M04 A3017 RMK AO2 SNE03B37PLE49 P0001 400111072=
201101100409 SPECI KATL 100409Z 08009G18KT 5SM -PL BR BKN008 BKN021 OVC085 M03/M04 A3019 RMK AO2 SNE03 PRESRR P0001 $=
201101100409 SPECI KATL 100409Z 08009G18KT 5SM -PL BR BKN008 BKN021 OVC085 M03/M04 A3019 RMK AO2 SNE03 PRESRR P0001 $=
201101100403 SPECI KATL 100403Z 09012KT 5SM -PL BR SCT008 BKN012 OVC085 M03/M04 A3017 RMK AO2 SNE03 P0001 $=
201101100403 SPECI KATL 100403Z 09012KT 5SM -PL BR SCT008 BKN012 OVC085 M03/M04 A3017 RMK AO2 SNE03 P0001 $=
201101100352 METAR KATL 100352Z 09011KT 2 1/2SM -PLSN BR SCT008 OVC085 M03/M04 A3016 RMK AO2 SFC VIS 3 SLP224 PLB39 SNINCR 1/3 P0012 T10281044 $=
201101100341 SPECI KATL 100341Z 08012KT 1 3/4SM -PLSN BR SCT008 BKN023 OVC060 M03/M04 A3018 RMK AO2 TWR VIS 2 PLB39 P0011 $=
201101100341 SPECI KATL 100341Z 08012KT 1 3/4SM -PLSN BR SCT008 BKN023 OVC060 M03/M04 A3018 RMK AO2 TWR VIS 2 PLB39 P0011 $=
201101100326 SPECI KATL 100326Z 09013KT 1/2SM R09R/P6000FT SN FZFG VV005 M03/M05 A3018 RMK AO2 P0006=
201101100326 SPECI KATL 100326Z 09013KT 1/2SM R09R/P6000FT SN FZFG VV005 M03/M05 A3018 RMK AO2 P0006=
201101100311 SPECI KATL 100311Z 10012KT 1/4SM R09R/2800V3500FT +SN FZFG VV005 M03/M04 A3019 RMK AO2 TWR VIS 1/2 P0002=
201101100311 SPECI KATL 100311Z 10012KT 1/4SM R09R/2800V3500FT +SN FZFG VV005 M03/M04 A3019 RMK AO2 TWR VIS 1/2 P0002=
201101100252 METAR KATL 100252Z 11009KT 1/2SM R09R/3000V3500FT SN FZFG VV008 M03/M04 A3022 RMK AO2 PRESFR SLP246 SNINCR 1/2 P0011 60024 T10331044 50000=
201101100152 METAR KATL 100152Z COR 08010KT 1/2SM R09R/4500V6000FT SN FZFG SCT009 OVC028 M03/M05 A3024 RMK AO2 TWR VIS 1 PLB16E37 SLP255 SNINCR 1/1 P0012 T10281050=
201101100137 SPECI KATL 100137Z 10012KT 1SM -SN SCT009 BKN024 OVC040 M03/M06 A3024 RMK AO2 SFC VIS 1 1/2 PLB16E37 P0009=
201101100137 SPECI KATL 100137Z 10012KT 1SM -SN SCT009 BKN024 OVC040 M03/M06 A3024 RMK AO2 SFC VIS 1 1/2 PLB16E37 P0009=
201101100130 SPECI KATL 100130Z 10011KT 3SM -PLSN SCT009 BKN024 OVC040 M02/M06 A3024 RMK AO2 PLB16 P0006=
201101100130 SPECI KATL 100130Z 10011KT 3SM -PLSN SCT009 BKN024 OVC040 M02/M06 A3024 RMK AO2 PLB16 P0006=
201101100127 SPECI KATL 100127Z 09013KT 3SM -PLSN BKN016 OVC026 M02/M06 A3024 RMK AO2 PLB16 P0006=
201101100127 SPECI KATL 100127Z 09013KT 3SM -PLSN BKN016 OVC026 M02/M06 A3024 RMK AO2 PLB16 P0006=
201101100117 SPECI KATL 100117Z 09013KT 1SM R09R/P6000FT -PLSN BKN016 OVC026 M02/M06 A3024 RMK AO2 TWR VIS 1 1/2 PLB16 P0002=
201101100117 SPECI KATL 100117Z 09013KT 1SM R09R/P6000FT -PLSN BKN016 OVC026 M02/M06 A3024 RMK AO2 TWR VIS 1 1/2 PLB16 P0002=
201101100109 SPECI KATL 100109Z 08012KT 1 1/2SM -SN FEW016 BKN024 OVC044 M02/M07 A3024 RMK AO2 P0000=
201101100109 SPECI KATL 100109Z 08012KT 1 1/2SM -SN FEW016 BKN024 OVC044 M02/M07 A3024 RMK AO2 P0000=
201101100107 SPECI KATL 100107Z 09012KT 1 1/2SM -SN FEW016 BKN029 OVC044 M02/M07 A3024 RMK AO2 P0000 $=
201101100107 SPECI KATL 100107Z 09012KT 1 1/2SM -SN FEW016 BKN029 OVC044 M02/M07 A3024 RMK AO2 P0000 $=
201101100052 METAR KATL 100052Z 10011KT 3SM -SN FEW016 BKN028 OVC044 M01/M08 A3025 RMK AO2 SNB21 SLP258 P0001 T10111083 $=
201101100048 SPECI KATL 100048Z 10011G17KT 3SM -SN FEW016 BKN024 OVC031 M01/M09 A3026 RMK AO2 SNB21 P0001 $=
201101100048 SPECI KATL 100048Z 10011G17KT 3SM -SN FEW016 BKN024 OVC031 M01/M09 A3026 RMK AO2 SNB21 P0001 $=
201101092352 METAR KATL 092352Z 10008KT 10SM BKN065 OVC075 01/M16 A3022 RMK AO2 SLP246 VIRGA ALQDS T00111156 10011 20000 50013=
201101092252 METAR KATL 092252Z 11006KT 10SM SCT075 OVC090 01/M16 A3023 RMK AO2 SLP248 VIRGA ALQDS T00111156=
201101092152 METAR KATL 092152Z 10005KT 10SM SCT090 BKN150 OVC200 01/M16 A3023 RMK AO2 SLP248 T00111156=
201101092052 METAR KATL 092052Z 12008KT 10SM FEW110 BKN150 OVC200 01/M15 A3018 RMK AO2 SLP232 T00111150 55007=
201101091952 METAR KATL 091952Z 10009KT 10SM BKN150 OVC200 01/M15 A3017 RMK AO2 SLP227 T00111150=
201101091852 METAR KATL 091852Z VRB06KT 10SM SCT095 BKN150 OVC200 01/M14 A3018 RMK AO2 SLP231 T00061144=
201101091752 METAR KATL 091752Z 09009KT 10SM SCT095 BKN150 OVC200 01/M14 A3020 RMK AO2 SLP239 T00061139 10006 21067 58002=
201101091652 METAR KATL 091652Z 08007KT 10SM FEW095 BKN200 BKN250 M01/M13 A3023 RMK AO2 SLP249 T10111133=
201101091552 METAR KATL 091552Z 15003KT 10SM FEW090 SCT150 BKN200 BKN250 M02/M13 A3026 RMK AO2 SLP258 T10171133=
201101091452 METAR KATL 091452Z 09008KT 10SM FEW150 BKN200 BKN250 M03/M13 A3021 RMK AO2 SLP241 T10331128 51029=
201101091352 METAR KATL 091352Z 06009KT 10SM FEW200 SCT250 M05/M13 A3019 RMK AO2 SLP236 T10501128=
201101091252 METAR KATL 091252Z 03009KT 10SM SCT250 M06/M13 A3016 RMK AO2 SLP225 T10611128=
201101091152 METAR KATL 091152Z 03004KT 10SM FEW200 M07/M13 A3012 RMK AO2 SLP211 T10671128 11044 21072 53011=
201101091052 METAR KATL 091052Z 36008KT 10SM FEW200 M07/M13 A3010 RMK AO2 SLP206 T10721133=
201101090952 METAR KATL 090952Z 34006KT 10SM CLR M07/M13 A3010 RMK AO2 SLP202 T10721128=
201101090852 METAR KATL 090852Z 34005KT 10SM CLR M07/M13 A3009 RMK AO2 SLP197 T10671128 51025=
201101090752 METAR KATL 090752Z 34009KT 10SM CLR M06/M13 A3006 RMK AO2 SLP189 T10611128=
201101090652 METAR KATL 090652Z 34013KT 10SM CLR M06/M13 A3003 RMK AO2 SLP178 T10561128=
201101090552 METAR KATL 090552Z 34009KT 10SM CLR M04/M13 A3001 RMK AO2 SLP170 T10441128 10017 21044 51019=
201101090452 METAR KATL 090452Z 34009KT 10SM CLR M04/M12 A3000 RMK AO2 SLP168 T10391117 400891039=
201101090352 METAR KATL 090352Z 35012G18KT 10SM CLR M03/M11 A2997 RMK AO2 SLP157 T10281106=
201101090252 METAR KATL 090252Z 35013KT 10SM CLR M02/M11 A2995 RMK AO2 SLP150 T10171106 51029=
201101090152 METAR KATL 090152Z 34012KT 10SM CLR M01/M09 A2992 RMK AO2 SLP141 T10061094=
201101090052 METAR KATL 090052Z 33010G20KT 10SM CLR 01/M08 A2989 RMK AO2 SLP132 T00061078=
201101082352 METAR KATL 082352Z 32015G22KT 10SM CLR 02/M06 A2986 RMK AO2 WSHFT 2239 SLP119 T00171061 10089 20017 52040=
201101082252 METAR KATL 082252Z 34014KT 10SM FEW040 04/M06 A2982 RMK AO2 PK WND 30027/2219 WSHFT 2236 SLP105 T00391056=
201101082247 SPECI KATL 082247Z 36014G20KT 10SM FEW040 04/M06 A2982 RMK AO2 PK WND 30027/2219=
201101082247 SPECI KATL 082247Z 36014G20KT 10SM FEW040 04/M06 A2982 RMK AO2 PK WND 30027/2219=
201101082152 METAR KATL 082152Z 30015G23KT 10SM FEW055 07/M07 A2977 RMK AO2 PK WND 31028/2107 SLP087 T00671072=
201101082052 METAR KATL 082052Z 29015G26KT 10SM CLR 08/M07 A2974 RMK AO2 PK WND 29029/2012 SLP073 T00781067 53012=
201101081952 METAR KATL 081952Z 30014G26KT 10SM CLR 08/M08 A2972 RMK AO2 PK WND 31027/1940 SLP066 T00831078=
201101081852 METAR KATL 081852Z 28017G24KT 10SM CLR 08/M07 A2970 RMK AO2 SLP061 T00831072=
201101081752 METAR KATL 081752Z 28016KT 10SM CLR 07/M06 A2970 RMK AO2 SLP062 T00671061 10072 20006 58002=
201101081652 METAR KATL 081652Z 30015G25KT 10SM FEW045 06/M06 A2972 RMK AO2 PK WND 29027/1606 SLP069 T00611061=
201101081552 METAR KATL 081552Z 28019G26KT 10SM SCT039 05/M05 A2972 RMK AO2 PK WND 29027/1510 SLP069 T00501050=
201101081452 METAR KATL 081452Z 29013G20KT 10SM FEW030 03/M04 A2971 RMK AO2 SLP064 T00331044 53019=
201101081352 METAR KATL 081352Z 26011G17KT 10SM CLR 02/M04 A2969 RMK AO2 SLP057 T00221044=
201101081252 METAR KATL 081252Z 26007KT 10SM FEW060 01/M04 A2967 RMK AO2 SLP050 T00061044=
201101081152 METAR KATL 081152Z 27009KT 10SM FEW050 01/M04 A2965 RMK AO2 SLP044 T00111039 10056 20006 53013=
201101081052 METAR KATL 081052Z 28008KT 10SM FEW050 01/M04 A2963 RMK AO2 SLP039 T00111039=
201101080952 METAR KATL 080952Z 29008KT 10SM FEW050 02/M04 A2962 RMK AO2 SLP033 T00171039=
201101080852 METAR KATL 080852Z 30009KT 10SM FEW070 03/M03 A2961 RMK AO2 SLP029 T00281033 51016=
201101080752 METAR KATL 080752Z 30010KT 10SM CLR 04/M03 A2960 RMK AO2 SLP025 T00391028=
201101080652 METAR KATL 080652Z 32006KT 10SM FEW100 03/M02 A2958 RMK AO2 SLP018 T00331017=
201101080552 METAR KATL 080552Z 30012KT 10SM FEW100 06/M02 A2956 RMK AO2 SLP013 60000 T00561022 10122 20056 51009=
201101080452 METAR KATL 080452Z 31015KT 10SM BKN110 07/M03 A2956 RMK AO2 SLP011 T00721028 401500011=
201101080352 METAR KATL 080352Z 34013KT 10SM FEW090 BKN110 08/M03 A2955 RMK AO2 SLP010 T00781028=
201101080252 METAR KATL 080252Z 33011KT 10SM FEW080 SCT100 08/M01 A2954 RMK AO2 SLP005 60000 T00831011 53032=
201101080152 METAR KATL 080152Z 30011KT 10SM FEW080 BKN100 08/01 A2951 RMK AO2 PK WND 35032/0100 RAB04E35 SLP995 P0000 T00830011=
201101080052 METAR KATL 080052Z 31008KT 10SM FEW060 SCT080 BKN110 11/00 A2946 RMK AO2 SLP980 SHRA NW-NE T01110000=
201101072352 METAR KATL 072352Z 26007KT 10SM SCT075 BKN090 BKN120 OVC150 12/M01 A2944 RMK AO2 SLP971 T01221006 10150 20117 52001=
201101072252 SPECI KATL 072252Z 27008KT 10SM OVC075 12/00 A2944 RMK AO2 SLP971 T01220000=
201101072152 METAR KATL 072152Z 27012G21KT 10SM BKN070 13/M01 A2944 RMK AO2 PK WND 25033/2056 SLP970 T01281011=
201101072052 METAR KATL 072052Z 26019G31KT 10SM BKN070 14/M01 A2944 RMK AO2 PK WND 27036/2013 SLP970 T01391011 55018=
201101071952 METAR KATL 071952Z 26020G28KT 10SM SCT070 SCT200 14/M02 A2942 RMK AO2 PK WND 28031/1929 SLP965 T01391017=
201101071852 METAR KATL 071852Z 26015G25KT 10SM FEW065 SCT200 14/M01 A2944 RMK AO2 PK WND 27028/1819 SLP971 T01391011=
201101071752 METAR KATL 071752Z 25014G22KT 10SM FEW050 SCT080 SCT200 12/M01 A2949 RMK AO2 SLP989 T01171011 10117 20022 58038=
201101071652 METAR KATL 071652Z 24010G21KT 10SM FEW085 SCT200 BKN250 09/M02 A2954 RMK AO2 PRESFR SLP007 T00941017=
201101071552 METAR KATL 071552Z 27010G18KT 10SM BKN080 BKN200 07/M02 A2960 RMK AO2 SLP028 T00721017=
201101071452 METAR KATL 071452Z 24008KT 10SM BKN080 05/M01 A2961 RMK AO2 SLP031 T00501011 58006=
201101071352 METAR KATL 071352Z 25006KT 10SM BKN080 BKN150 04/M02 A2962 RMK AO2 SLP035 T00441017=
201101071252 METAR KATL 071252Z 25009KT 10SM BKN085 BKN150 03/M02 A2962 RMK AO2 SLP037 T00281022=
201101071152 METAR KATL 071152Z 25009KT 10SM FEW150 03/M03 A2962 RMK AO2 SLP037 T00281028 10028 20011 56015=
201101071052 METAR KATL 071052Z 25008KT 10SM SCT150 02/M03 A2963 RMK AO2 SLP038 T00221028=
201101070952 METAR KATL 070952Z 25007KT 10SM CLR 02/M03 A2965 RMK AO2 SLP045 T00171033=
201101070852 METAR KATL 070852Z 25007KT 10SM CLR 01/M03 A2967 RMK AO2 SLP051 T00111033 57016=
201101070752 METAR KATL 070752Z 23005KT 10SM FEW150 02/M03 A2969 RMK AO2 SLP058 T00171033=
201101070652 METAR KATL 070652Z 26007KT 10SM FEW060 02/M03 A2970 RMK AO2 SLP062 T00221033=
201101070552 METAR KATL 070552Z 28009KT 10SM BKN060 03/M03 A2972 RMK AO2 SLP067 T00281028 10050 20022 55005=
201101070452 METAR KATL 070452Z 27010KT 10SM CLR 03/M02 A2971 RMK AO2 SLP066 T00281022 400940028=
201101070352 METAR KATL 070352Z 27008KT 10SM CLR 03/M02 A2972 RMK AO2 SLP071 T00281022=
201101070252 METAR KATL 070252Z 28008KT 10SM FEW200 03/M02 A2974 RMK AO2 SLP075 T00281022 50002=
201101070152 METAR KATL 070152Z 28007KT 10SM SCT200 03/M02 A2974 RMK AO2 SLP078 T00331022=
201101070052 METAR KATL 070052Z 28007KT 10SM SCT200 04/M02 A2974 RMK AO2 SLP075 T00441022=
201101062352 METAR KATL 062352Z 27007KT 10SM FEW050 05/M03 A2973 RMK AO2 SLP072 T00501028 10094 20044 51004=
201101062252 METAR KATL 062252Z 29009KT 10SM FEW050 06/M03 A2973 RMK AO2 SLP071 T00611028=
201101062152 METAR KATL 062152Z 30008KT 10SM FEW055 08/M03 A2972 RMK AO2 SLP068 T00781028=
201101062052 METAR KATL 062052Z 32016G21KT 10SM FEW050 SCT150 SCT250 09/M02 A2972 RMK AO2 SLP066 T00891022 56014=
201101061952 METAR KATL 061952Z 30011G19KT 10SM FEW040 BKN150 BKN250 08/M02 A2972 RMK AO2 SLP066 T00781022=
201101061852 METAR KATL 061852Z 31010KT 10SM FEW030 SCT060 BKN150 BKN250 08/01 A2973 RMK AO2 SLP071 T00780006=
201101061752 METAR KATL 061752Z 32010KT 10SM FEW024 SCT200 SCT250 08/01 A2976 RMK AO2 SLP081 T00780011 10078 20039 58015=
201101061652 METAR KATL 061652Z 31007KT 10SM FEW022 SCT200 BKN250 07/01 A2980 RMK AO2 SLP093 T00670011=
201101061624 SPECI KATL 061624Z 30010KT 10SM SCT022 BKN250 07/01 A2981 RMK AO2=
201101061624 SPECI KATL 061624Z 30010KT 10SM SCT022 BKN250 07/01 A2981 RMK AO2=
201101061552 METAR KATL 061552Z 31010KT 10SM BKN018 BKN250 05/01 A2981 RMK AO2 SLP099 T00500006=
201101061452 METAR KATL 061452Z 33007KT 10SM BKN018 BKN250 05/01 A2981 RMK AO2 SLP097 T00500006 51014=
201101061352 METAR KATL 061352Z 32013G17KT 10SM BKN018 BKN025 04/01 A2980 RMK AO2 SLP094 T00440006=
201101061252 METAR KATL 061252Z 32018KT 10SM BKN020 BKN025 04/M01 A2978 RMK AO2 SLP089 T00391006=
201101061152 METAR KATL 061152Z 33013KT 10SM BKN015 OVC022 05/02 A2976 RMK AO2 SLP083 70017 T00500022 10078 20050 53003=
201101061052 METAR KATL 061052Z 31016G24KT 9SM FEW014 BKN021 OVC028 05/02 A2975 RMK AO2 SLP080 T00500022=
201101061039 SPECI KATL 061039Z 32015G23KT 9SM FEW014 BKN021 OVC030 05/02 A2975 RMK AO2=
201101061039 SPECI KATL 061039Z 32015G23KT 9SM FEW014 BKN021 OVC030 05/02 A2975 RMK AO2=
201101060952 METAR KATL 060952Z 32013G21KT 6SM BR SCT009 BKN014 OVC021 05/03 A2975 RMK AO2 PK WND 33028/0906 SLP079 T00500033=
201101060852 METAR KATL 060852Z 32015G20KT 6SM BR BKN007 OVC013 06/04 A2976 RMK AO2 SLP079 T00610044 53002=
201101060752 METAR KATL 060752Z 31016KT 1/2SM BR BKN005 OVC010 07/06 A2976 RMK AO2 SFC VIS 6 SLP080 T00670056=
201101060731 SPECI KATL 060731Z 29013KT 1/2SM BR OVC005 07/06 A2976 RMK AO2 SFC VIS 6 CIG 003V011=
201101060731 SPECI KATL 060731Z 29013KT 1/2SM BR OVC005 07/06 A2976 RMK AO2 SFC VIS 6 CIG 003V011=
201101060652 METAR KATL 060652Z 28007KT 1/2SM BR OVC003 08/07 A2975 RMK AO2 SFC VIS 4 SLP076 T00780067=
201101060552 METAR KATL 060552Z 27007KT 1/2SM BR OVC003 08/07 A2975 RMK AO2 SFC VIS 3 SLP077 CIG 002V005 60004 T00780072 10078 20078 58009=
201101060452 METAR KATL 060452Z 28006KT 1/2SM BR OVC002 08/07 A2977 RMK AO2 SFC VIS 2 DZE51 SLP083 P0000 T00780072 400890033=
201101060352 METAR KATL 060352Z 23003KT 1/2SM R09R/6000VP6000FT -DZ BR OVC002 08/07 A2978 RMK AO2 SFC VIS 1 1/4 SLP086 P0000 T00780072=
201101060318 SPECI KATL 060318Z 23004KT 1/2SM -DZ BR OVC003 08/07 A2978 RMK AO2 SFC VIS 2 P0000=
201101060318 SPECI KATL 060318Z 23004KT 1/2SM -DZ BR OVC003 08/07 A2978 RMK AO2 SFC VIS 2 P0000=
201101060252 METAR KATL 060252Z 23003KT 4SM -DZ BR OVC005 08/07 A2978 RMK AO2 DZB26 SLP087 CIG 003V008 P0000 60004 T00780067 55005=
201101060152 METAR KATL 060152Z 00000KT 8SM BKN005 OVC015 08/07 A2978 RMK AO2 RAE48 SLP086 P0001 T00780067=
201101060111 SPECI KATL 060111Z 31005KT 2SM -RA BR BKN005 OVC015 08/07 A2980 RMK AO2 SFC VIS 5 CIG 003V009 P0001=
201101060111 SPECI KATL 060111Z 31005KT 2SM -RA BR BKN005 OVC015 08/07 A2980 RMK AO2 SFC VIS 5 CIG 003V009 P0001=
201101060052 METAR KATL 060052Z 20004KT 1/2SM -RA BR BKN005 OVC020 08/07 A2979 RMK AO2 SFC VIS 4 RAE2355B29DZB2355E29 SLP091 CIG 002V007 P0003 T00780072=
201101060043 SPECI KATL 060043Z 20006KT 1/2SM -RA BR BKN005 OVC020 08/07 A2979 RMK AO2 SFC VIS 4 RAE2355B29DZB2355E29 CIG 002V007 P0000=
201101060043 SPECI KATL 060043Z 20006KT 1/2SM -RA BR BKN005 OVC020 08/07 A2979 RMK AO2 SFC VIS 4 RAE2355B29DZB2355E29 CIG 002V007 P0000=
201101052352 METAR KATL 052352Z 17004KT 1 1/2SM -RA BR SCT003 BKN007 OVC020 08/07 A2980 RMK AO2 DZE45RAB45 SLP093 P0001 60009 T00780072 10089 20078 58011=
201101052252 METAR KATL 052252Z 18003KT 1 1/2SM -DZ BR OVC008 08/07 A2981 RMK AO2 RAB2158E08DZB31 CIG 003V010 SLP099 P0000 T00780072=
201101052235 SPECI KATL 052235Z 00000KT 2SM -DZ BR OVC008 08/07 A2981 RMK AO2 SFC VIS 3 RAB2158E08DZB31 P0000=
201101052235 SPECI KATL 052235Z 00000KT 2SM -DZ BR OVC008 08/07 A2981 RMK AO2 SFC VIS 3 RAB2158E08DZB31 P0000=
201101052206 SPECI KATL 052206Z 00000KT 9SM -RA BKN008 BKN020 OVC040 08/07 A2982 RMK AO2 RAB2158 P0000=
201101052206 SPECI KATL 052206Z 00000KT 9SM -RA BKN008 BKN020 OVC040 08/07 A2982 RMK AO2 RAB2158 P0000=
201101052152 METAR KATL 052152Z 00000KT 10SM BKN010 BKN020 OVC040 08/07 A2982 RMK AO2 RAE52 SLP103 P0001 T00830072=
201101052100 SPECI KATL 052100Z 29004KT 6SM BR FEW008 BKN014 OVC040 08/07 A2982 RMK AO2 RAE00 P0000=
201101052100 SPECI KATL 052100Z 29004KT 6SM BR FEW008 BKN014 OVC040 08/07 A2982 RMK AO2 RAE00 P0000=
201101052052 METAR KATL 052052Z 29004KT 5SM -RA BR BKN008 BKN020 OVC040 08/07 A2983 RMK AO2 DZE20RAB20 SLP105 P0006 60007 T00830067 55022=
201101052020 SPECI KATL 052020Z 18004KT 6SM -RA BR BKN008 BKN020 OVC040 08/07 A2982 RMK AO2 DZE20RAB20 P0003=
201101052020 SPECI KATL 052020Z 18004KT 6SM -RA BR BKN008 BKN020 OVC040 08/07 A2982 RMK AO2 DZE20RAB20 P0003=
201101051955 SPECI KATL 051955Z 18008KT 9SM -DZ BR BKN008 BKN020 OVC040 09/07 A2982 RMK AO2 P0000=
201101051955 SPECI KATL 051955Z 18008KT 9SM -DZ BR BKN008 BKN020 OVC040 09/07 A2982 RMK AO2 P0000=
201101051952 METAR KATL 051952Z 18007KT 6SM -DZ BR BKN010 BKN020 OVC040 09/07 A2982 RMK AO2 RAE44DZB49 SLP103 P0001 T00890067=
201101051920 SPECI KATL 051920Z 20005KT 5SM -RA BR FEW010 BKN050 OVC100 09/07 A2985 RMK AO2 P0001=
201101051920 SPECI KATL 051920Z 20005KT 5SM -RA BR FEW010 BKN050 OVC100 09/07 A2985 RMK AO2 P0001=
201101051852 METAR KATL 051852Z 20007KT 8SM -RA FEW007 SCT060 BKN080 09/07 A2985 RMK AO2 RAB33 SLP112 P0000 T00890072=
201101051752 METAR KATL 051752Z 17005KT 6SM BR FEW007 BKN060 OVC100 08/07 A2990 RMK AO2 RAE36 SLP127 P0001 60004 T00830067 10083 20050 58035=
201101051705 SPECI KATL 051705Z 18005KT 6SM -RA BR FEW007 SCT012 OVC050 07/06 A2995 RMK AO2 P0000=
201101051705 SPECI KATL 051705Z 18005KT 6SM -RA BR FEW007 SCT012 OVC050 07/06 A2995 RMK AO2 P0000=
201101051652 METAR KATL 051652Z 19005KT 8SM -RA FEW009 SCT012 OVC050 07/05 A2996 RMK AO2 SLP149 P0003 T00670050=
201101051615 SPECI KATL 051615Z 19005KT 7SM -RA BKN009 OVC055 06/03 A2999 RMK AO2 P0002=
201101051615 SPECI KATL 051615Z 19005KT 7SM -RA BKN009 OVC055 06/03 A2999 RMK AO2 P0002=
201101051600 SPECI KATL 051600Z 19003KT 7SM -RA BKN013 BKN055 06/02 A2999 RMK AO2 P0001=
201101051600 SPECI KATL 051600Z 19003KT 7SM -RA BKN013 BKN055 06/02 A2999 RMK AO2 P0001=
201101051552 METAR KATL 051552Z 19004KT 9SM -RA FEW019 SCT055 BKN070 07/01 A3000 RMK AO2 RAB43 SLP163 P0000 T00670011=
201101051452 METAR KATL 051452Z 00000KT 10SM BKN045 BKN065 OVC100 07/M01 A3000 RMK AO2 SLP163 60000 T00721006 56009=
201101051352 METAR KATL 051352Z 00000KT 10SM BKN055 BKN110 06/M02 A3002 RMK AO2 SLP167 T00611017=
201101051252 METAR KATL 051252Z 00000KT 10SM BKN080 OVC110 05/M02 A3001 RMK AO2 RAB1153E04 SLP165 VIRGA E-SE-S P0000 T00501017=
201101051152 METAR KATL 051152Z 21004KT 10SM BKN050 OVC110 05/M03 A3003 RMK AO2 SLP172 T00501028 10061 20033 55001=
201101051052 METAR KATL 051052Z 30003KT 10SM BKN150 OVC250 05/M03 A3001 RMK AO2 SLP164 T00501033=
201101050952 METAR KATL 050952Z 00000KT 10SM FEW055 BKN120 OVC250 04/M04 A3002 RMK AO2 SLP167 T00441039=
201101050852 METAR KATL 050852Z 28003KT 10SM FEW040 05/M04 A3003 RMK AO2 SLP171 T00501044 58009=
201101050752 METAR KATL 050752Z 31006KT 10SM FEW150 04/M04 A3004 RMK AO2 SLP175 T00441039=
201101050652 METAR KATL 050652Z 27004KT 10SM SCT150 06/M04 A3006 RMK AO2 SLP180 T00561044=
201101050552 METAR KATL 050552Z 30007KT 10SM FEW250 06/M04 A3006 RMK AO2 SLP181 T00561039 10100 20050 58006=
201101050452 METAR KATL 050452Z 28005KT 10SM FEW250 06/M04 A3007 RMK AO2 SLP187 T00561039 401440011=
201101050352 METAR KATL 050352Z 29005KT 10SM CLR 07/M04 A3008 RMK AO2 SLP188 T00671039=
201101050252 METAR KATL 050252Z 26003KT 10SM CLR 07/M03 A3008 RMK AO2 SLP189 T00721033 51001=
201101050152 METAR KATL 050152Z 29003KT 10SM CLR 08/M03 A3008 RMK AO2 SLP189 T00831033=
201101050052 METAR KATL 050052Z 27004KT 10SM CLR 09/M04 A3008 RMK AO2 SLP191 T00891039=
201101042352 METAR KATL 042352Z 27005KT 10SM CLR 10/M04 A3007 RMK AO2 SLP188 T01001039 10144 20100 53005=
201101042252 METAR KATL 042252Z 26005KT 10SM CLR 11/M04 A3007 RMK AO2 SLP186 T01111044=
201101042152 METAR KATL 042152Z 26005KT 10SM CLR 13/M06 A3006 RMK AO2 SLP181 T01331056=
201101042052 METAR KATL 042052Z 28006KT 10SM FEW070 14/M07 A3006 RMK AO2 SLP181 T01391067 56016=
201101041952 METAR KATL 041952Z 28007KT 10SM FEW070 14/M07 A3006 RMK AO2 SLP182 T01391067=
201101041852 METAR KATL 041852Z 31010KT 10SM FEW080 13/M06 A3008 RMK AO2 SLP188 T01331061=
201101041752 METAR KATL 041752Z 32008KT 280V340 10SM FEW150 12/M06 A3010 RMK AO2 SLP197 T01221056 10122 20011 58019=
201101041652 METAR KATL 041652Z 28008KT 10SM FEW090 SCT150 10/M05 A3014 RMK AO2 SLP210 T01001050=
201101041552 METAR KATL 041552Z 28007KT 10SM BKN090 BKN150 08/M05 A3016 RMK AO2 SLP219 T00781050=
201101041452 METAR KATL 041452Z 30007KT 10SM FEW090 SCT120 BKN150 06/M04 A3016 RMK AO2 SLP218 ACC N-NE & NW T00611039 53008=
201101041352 METAR KATL 041352Z 00000KT 10SM FEW120 SCT150 SCT200 03/M04 A3013 RMK AO2 SLP210 T00281039=
201101041252 METAR KATL 041252Z 28003KT 10SM FEW100 SCT150 BKN200 02/M04 A3014 RMK AO2 SLP212 T00171044=
201101041152 METAR KATL 041152Z 00000KT 10SM SCT100 SCT200 02/M04 A3014 RMK AO2 SLP211 T00171044 10039 20011 56006=
201101041052 METAR KATL 041052Z 00000KT 10SM BKN100 BKN150 02/M04 A3014 RMK AO2 SLP210 T00221044=
201101040952 METAR KATL 040952Z 00000KT 10SM SCT100 BKN150 03/M05 A3013 RMK AO2 SLP208 T00331050=
201101040852 METAR KATL 040852Z 23003KT 10SM BKN100 02/M04 A3015 RMK AO2 SLP216 T00171039 57009=
201101040752 METAR KATL 040752Z 00000KT 10SM SCT150 02/M04 A3016 RMK AO2 SLP219 T00221044=
201101040652 METAR KATL 040652Z 00000KT 10SM FEW120 SCT150 03/M06 A3017 RMK AO2 SLP222 T00331056=
201101040552 METAR KATL 040552Z 00000KT 10SM SCT150 BKN200 04/M06 A3018 RMK AO2 SLP225 T00391056 10072 20033 57004=
201101040452 METAR KATL 040452Z 00000KT 10SM BKN150 04/M06 A3019 RMK AO2 SLP229 T00391056 401061044=
201101040352 METAR KATL 040352Z 13004KT 10SM FEW150 BKN200 04/M06 A3018 RMK AO2 SLP227 T00441056=
201101040252 METAR KATL 040252Z 14004KT 10SM FEW150 04/M06 A3019 RMK AO2 SLP232 T00441061 58003=
201101040152 METAR KATL 040152Z 14003KT 10SM FEW150 06/M06 A3021 RMK AO2 SLP237 T00561061=
201101040052 METAR KATL 040052Z 00000KT 10SM FEW250 06/M07 A3021 RMK AO2 SLP239 T00611067=
201101032352 METAR KATL 032352Z 00000KT 10SM FEW250 07/M07 A3020 RMK AO2 SLP236 T00721072 10106 20061 55000=
201101032252 METAR KATL 032252Z 00000KT 10SM SCT250 08/M08 A3020 RMK AO2 SLP235 T00831078=
201101032152 METAR KATL 032152Z 18004KT 10SM FEW250 09/M08 A3020 RMK AO2 SLP234 T00941083=
201101032052 METAR KATL 032052Z 00000KT 10SM FEW250 10/M09 A3020 RMK AO2 SLP235 T01001094 56017=
201101031952 METAR KATL 031952Z 00000KT 10SM FEW250 09/M08 A3021 RMK AO2 SLP237 T00941083=
201101031852 METAR KATL 031852Z 09003KT 10SM FEW250 08/M09 A3022 RMK AO2 SLP240 T00831089=
201101031752 METAR KATL 031752Z 07004KT 10SM FEW250 07/M09 A3025 RMK AO2 SLP252 T00721089 10072 21044 58019=
201101031652 METAR KATL 031652Z 00000KT 10SM FEW250 06/M09 A3029 RMK AO2 SLP266 T00561089=
201101031552 METAR KATL 031552Z 00000KT 10SM CLR 04/M09 A3031 RMK AO2 SLP272 T00391089=
201101031452 METAR KATL 031452Z 34006KT 10SM FEW250 01/M09 A3031 RMK AO2 SLP274 T00061089 53019=
201101031352 METAR KATL 031352Z 33006KT 10SM CLR M02/M08 A3029 RMK AO2 SLP267 T10171083=
201101031252 METAR KATL 031252Z 32003KT 10SM CLR M04/M09 A3027 RMK AO2 SLP261 T10441094=
201101031152 METAR KATL 031152Z 32004KT 10SM CLR M04/M09 A3025 RMK AO2 SLP255 T10391094 11006 21039 53009=
201101031052 METAR KATL 031052Z 33006KT 10SM CLR M03/M09 A3023 RMK AO2 SLP245 T10331094=
201101030952 METAR KATL 030952Z 33006KT 10SM CLR M03/M09 A3022 RMK AO2 SLP243 T10281094=
201101030852 METAR KATL 030852Z 33009KT 10SM CLR M02/M09 A3023 RMK AO2 SLP243 T10221094 58001=
201101030752 METAR KATL 030752Z 32007KT 10SM CLR M02/M09 A3024 RMK AO2 SLP246 T10221094=
201101030652 METAR KATL 030652Z 33011KT 10SM CLR M01/M09 A3023 RMK AO2 SLP242 T10111094=
201101030552 METAR KATL 030552Z 33011KT 10SM CLR M01/M09 A3023 RMK AO2 SLP243 T10061094 10050 21006 57001=
201101030452 METAR KATL 030452Z 33009KT 10SM CLR 00/M09 A3023 RMK AO2 SLP244 T00001094 401280000=
201101030352 METAR KATL 030352Z 33011KT 10SM CLR 01/M10 A3023 RMK AO2 SLP243 T00111100=
201101030252 METAR KATL 030252Z 33010KT 10SM CLR 02/M10 A3024 RMK AO2 SLP245 T00171100 53009=
201101030152 METAR KATL 030152Z 33010KT 10SM CLR 03/M09 A3023 RMK AO2 SLP241 T00281089=
201101030052 METAR KATL 030052Z 33011KT 10SM CLR 04/M08 A3021 RMK AO2 SLP237 T00391078=
201101022352 METAR KATL 022352Z 33011KT 10SM CLR 05/M08 A3021 RMK AO2 SLP234 T00501083 10106 20044 53015=
201101022252 METAR KATL 022252Z 32011KT 10SM FEW250 06/M08 A3019 RMK AO2 SLP227 T00611083 $=
201101022152 METAR KATL 022152Z 33014G20KT 10SM FEW250 08/M09 A3018 RMK AO2 SLP222 T00831089 $=
201101022052 METAR KATL 022052Z 30016G23KT 10SM FEW250 09/M08 A3016 RMK AO2 PK WND 32026/2005 SLP215 T00941083 53010 $=
201101021952 METAR KATL 021952Z 31014G23KT 10SM FEW250 10/M03 A3015 RMK AO2 PK WND 32027/1907 SLP210 T01001033 $=
201101021852 METAR KATL 021852Z 31019G25KT 10SM FEW250 11/M04 A3014 RMK AO2 PK WND 30026/1808 SLP206 T01061044 $=
201101021752 METAR KATL 021752Z 32015G18KT 10SM FEW250 11/M02 A3013 RMK AO2 SLP204 T01061017 10106 20050 50000 $=
201101021652 METAR KATL 021652Z 31018G23KT 10SM FEW060 09/M01 A3015 RMK AO2 SLP211 T00941011 $=
201101021552 METAR KATL 021552Z 30011KT 10SM BKN060 08/03 A3016 RMK AO2 SLP213 T00780028 $=
201101021452 METAR KATL 021452Z 30010KT 10SM BKN060 07/03 A3013 RMK AO2 SLP203 T00670028 53021 $=
201101021352 METAR KATL 021352Z 31008KT 10SM BKN060 06/03 A3010 RMK AO2 SLP194 T00560028 $=
201101021252 METAR KATL 021252Z 30009KT 10SM FEW045 SCT065 SCT250 06/03 A3009 RMK AO2 SLP190 T00560028 $=
201101021152 METAR KATL 021152Z 33013KT 10SM BKN036 OVC045 07/04 A3006 RMK AO2 SLP181 60000 70093 T00670039 10111 20067 53010 $=
201101021052 METAR KATL 021052Z 32008KT 10SM SCT027 BKN035 OVC045 07/06 A3004 RMK AO2 RAB0958E52 SLP174 P0000 T00720056 $=
201101020952 METAR KATL 020952Z 33011KT 10SM OVC021 08/06 A3003 RMK AO2 RAE04 SLP171 P0000 T00830056 $=
201101020852 METAR KATL 020852Z 32005KT 10SM -RA BKN020 OVC026 09/07 A3003 RMK AO2 RAB03E12B52 SLP170 P0000 60000 T00890067 58001 $=
201101020752 METAR KATL 020752Z 34008KT 10SM OVC020 09/07 A3004 RMK AO2 RAE02B18E39 SLP174 P0000 T00940067 $=
201101020652 METAR KATL 020652Z 31010G18KT 10SM -RA OVC015 11/09 A3004 RMK AO2 DZE02RAB24 SLP172 P0000 T01060094 $=
201101020619 SPECI KATL 020619Z 31005KT 9SM FEW004 OVC013 11/11 A3004 RMK AO2 DZE02 P0000 $=
201101020619 SPECI KATL 020619Z 31005KT 9SM FEW004 OVC013 11/11 A3004 RMK AO2 DZE02 P0000 $=
201101020603 SPECI KATL 020603Z 33007KT 3SM SCT005 OVC012 11/10 A3005 RMK AO2 SFC VIS 7 DZE02 P0000 $=
201101020603 SPECI KATL 020603Z 33007KT 3SM SCT005 OVC012 11/10 A3005 RMK AO2 SFC VIS 7 DZE02 P0000 $=
201101020552 METAR KATL 020552Z 34013KT 1SM -DZ BR BKN004 OVC010 11/11 A3004 RMK AO2 SFC VIS 2 1/2 RAE06DZB06 SLP170 CIG 003V007 P0000 60001 T01110106 10150 20111 58002 $=
201101020452 METAR KATL 020452Z 31009KT 1SM -RA BR OVC003 13/12 A3004 RMK AO2 SFC VIS 1 1/2 DZB18E52RAB52 SLP172 CIG 002V008 P0001 T01280122 401670128 $=
201101020441 SPECI KATL 020441Z 31010KT 1SM -DZ BR OVC003 13/13 A3004 RMK AO2 SFC VIS 1 1/2 DZB18 CIG 001V007 P0001 $=
201101020441 SPECI KATL 020441Z 31010KT 1SM -DZ BR OVC003 13/13 A3004 RMK AO2 SFC VIS 1 1/2 DZB18 CIG 001V007 P0001 $=
201101020352 METAR KATL 020352Z 21006KT 1/4SM R09R/2600V2800FT FG OVC002 15/14 A3005 RMK AO2 DZE05 SLP173 CIG 001V003 P0000 T01500144 $=
201101020324 SPECI KATL 020324Z 21004KT 1/4SM R09R/3500V4500FT FG OVC002 15/14 A3005 RMK AO2 SFC VIS 1/2 DZE05 CIG 001V003 P0000 $=
201101020324 SPECI KATL 020324Z 21004KT 1/4SM R09R/3500V4500FT FG OVC002 15/14 A3005 RMK AO2 SFC VIS 1/2 DZE05 CIG 001V003 P0000 $=
201101020252 METAR KATL 020252Z 20007KT 1/2SM -DZ BR OVC003 15/14 A3004 RMK AO2 SFC VIS 1 1/2 DZE18B51 SLP171 CIG 001V005 P0000 60000 T01500144 51008 $=
201101020218 SPECI KATL 020218Z 19006KT 1/2SM BR OVC003 15/14 A3005 RMK AO2 SFC VIS 3 DZE18 CIG 002V004 P0000 $=
201101020218 SPECI KATL 020218Z 19006KT 1/2SM BR OVC003 15/14 A3005 RMK AO2 SFC VIS 3 DZE18 CIG 002V004 P0000 $=
201101020152 METAR KATL 020152Z 18005KT 5SM -DZ BR OVC004 15/14 A3004 RMK AO2 DZB42 SLP170 CIG 002V005 P0000 T01500144 $=
201101020144 SPECI KATL 020144Z 18006KT 5SM -DZ BR OVC003 15/14 A3004 RMK AO2 DZB42 CIG 002V005 P0000 $=
201101020144 SPECI KATL 020144Z 18006KT 5SM -DZ BR OVC003 15/14 A3004 RMK AO2 DZB42 CIG 002V005 P0000 $=
201101020052 METAR KATL 020052Z 17005KT 7SM OVC008 15/14 A3004 RMK AO2 CIG 005V011 SLP171 T01500139 $=
201101020043 SPECI KATL 020043Z 18005KT 7SM BKN008 OVC015 15/14 A3005 RMK AO2 CIG 005V011 $=
201101020043 SPECI KATL 020043Z 18005KT 7SM BKN008 OVC015 15/14 A3005 RMK AO2 CIG 005V011 $=
201101020008 SPECI KATL 020008Z 16005KT 7SM FEW005 BKN013 OVC020 14/14 A3004 RMK AO2 $=
201101020008 SPECI KATL 020008Z 16005KT 7SM FEW005 BKN013 OVC020 14/14 A3004 RMK AO2 $=
201101012352 METAR KATL 012352Z 14004KT 7SM FEW004 BKN018 OVC024 14/14 A3002 RMK AO2 SLP163 60055 T01440139 10150 20144 53005 $=
201101012342 SPECI KATL 012342Z 12005KT 7SM FEW004 BKN018 OVC035 14/14 A3002 RMK AO2 $=
201101012342 SPECI KATL 012342Z 12005KT 7SM FEW004 BKN018 OVC035 14/14 A3002 RMK AO2 $=
201101012252 METAR KATL 012252Z 15005KT 7SM SCT005 OVC060 15/14 A3001 RMK AO2 RAB2158E08B41E51 SLP161 P0000 T01500139 $=
201101012210 SPECI KATL 012210Z 12007KT 6SM BR BKN005 OVC010 15/14 A3001 RMK AO2 RAB2158E08 CB DSNT E-S P0000 $=
201101012210 SPECI KATL 012210Z 12007KT 6SM BR BKN005 OVC010 15/14 A3001 RMK AO2 RAB2158E08 CB DSNT E-S P0000 $=
201101012152 METAR KATL 012152Z 13008KT 2SM BR BKN005 OVC010 15/14 A3000 RMK AO2 SFC VIS 5 RAE45 SLP158 CB DSNT E-SE-SW P0002 T01500139 $=
201101012138 SPECI KATL 012138Z 13007KT 2SM -RA BR OVC003 15/14 A3002 RMK AO2 SFC VIS 4 CB DSNT E-SE-SW TWRINC P0002 $=
201101012138 SPECI KATL 012138Z 13007KT 2SM -RA BR OVC003 15/14 A3002 RMK AO2 SFC VIS 4 CB DSNT E-SE-SW TWRINC P0002 $=
201101012113 SPECI KATL 012113Z 13006G14KT 1/2SM -RA BR OVC003 15/14 A3001 RMK AO2 SFC VIS 3 CB DSNT SE-SW TWRINC P0001 $=
201101012113 SPECI KATL 012113Z 13006G14KT 1/2SM -RA BR OVC003 15/14 A3001 RMK AO2 SFC VIS 3 CB DSNT SE-SW TWRINC P0001 $=
201101012052 METAR KATL 012052Z COR 12007KT 1 1/2SM -RA BR OVC003 15/14 A3000 RMK AO2 SFC VIS 3 SLP158 CB DSNT SW TWRINC P0005 60053 T01500139 58007 $=
201101012033 SPECI KATL 012033Z 11006KT 6SM -RA BR SCT005 BKN028 OVC046 15/14 A3001 RMK AO2 CB DSNT NE-SE P0005 $=
201101012033 SPECI KATL 012033Z 11006KT 6SM -RA BR SCT005 BKN028 OVC046 15/14 A3001 RMK AO2 CB DSNT NE-SE P0005 $=
201101011952 METAR KATL 011952Z COR 13006KT 4SM -RA BR FEW001 BKN005CB OVC060 14/14 A3002 RMK AO2 SLP162 CB OHD-ALQDS MOV NE P0020 T01440139 $=
201101011915 SPECI KATL 011915Z 14005KT 2SM RA BR BKN009CB OVC039 15/14 A3001 RMK AO2 CB OHD-ALQDS MOV NE P0010 $=
201101011915 SPECI KATL 011915Z 14005KT 2SM RA BR BKN009CB OVC039 15/14 A3001 RMK AO2 CB OHD-ALQDS MOV NE P0010 $=
201101011852 METAR KATL 011852Z 10005KT 2SM R09R/6000VP6000FT RA BR FEW003 BKN021CB OVC039 15/14 A3003 RMK AO2 SLP167 CB E-SW MOV NE P0028 T01500139 $=
201101011836 SPECI KATL 011836Z 01005KT 2SM RA BR SCT003 BKN012CB OVC021 15/14 A3004 RMK AO2 CB OHD-ALQDS MOV NE TWRINC P0023 $=
201101011836 SPECI KATL 011836Z 01005KT 2SM RA BR SCT003 BKN012CB OVC021 15/14 A3004 RMK AO2 CB OHD-ALQDS MOV NE TWRINC P0023 $=
201101011824 SPECI KATL 011824Z 35005KT 1SM R09R/P6000FT -RA BR SCT003 BKN008CB OVC032 15/14 A3004 RMK AO2 CB OHD-ALQDS MOV NE TWRINC P0022 $=
201101011824 SPECI KATL 011824Z 35005KT 1SM R09R/P6000FT -RA BR SCT003 BKN008CB OVC032 15/14 A3004 RMK AO2 CB OHD-ALQDS MOV NE TWRINC P0022 $=
201101011813 SPECI KATL 011813Z 35004KT 1SM R09R/5000VP6000FT +RA BR SCT003 BKN010CB OVC026 15/14 A3004 RMK AO2 CB OHD-ALQDS MOV NE TWRINC P0013 $=
201101011813 SPECI KATL 011813Z 35004KT 1SM R09R/5000VP6000FT +RA BR SCT003 BKN010CB OVC026 15/14 A3004 RMK AO2 CB OHD-ALQDS MOV NE TWRINC P0013 $=
201101011752 METAR KATL 011752Z 00000KT 2SM RA BR BKN010CB OVC022 15/14 A3002 RMK AO2 RAB11 SLP165 CB OHD-ALQDS MOV NE P0023 60037 T01500139 10167 20139 55015 $=
201101011730 SPECI KATL 011730Z 30008KT 1 1/4SM R09R/5000VP6000FT +RA BR OVC017CB 15/14 A3005 RMK AO2 TWR VIS 2 RAB11 CB N-NE & SW-N MOV NE P0011 $=
201101011730 SPECI KATL 011730Z 30008KT 1 1/4SM R09R/5000VP6000FT +RA BR OVC017CB 15/14 A3005 RMK AO2 TWR VIS 2 RAB11 CB N-NE & SW-N MOV NE P0011 $=
201101011724 SPECI KATL 011724Z 30009KT 2 1/2SM R09R/5000VP6000FT +RA BR OVC017CB 15/14 A3004 RMK AO2 RAB11 CB SW-N MOV NE P0004 $=
201101011724 SPECI KATL 011724Z 30009KT 2 1/2SM R09R/5000VP6000FT +RA BR OVC017CB 15/14 A3004 RMK AO2 RAB11 CB SW-N MOV NE P0004 $=
201101011709 SPECI KATL 011709Z 29005KT 8SM BKN017CB OVC060 16/13 A3003 RMK AO2 CB SW-N MOV NE $=
201101011709 SPECI KATL 011709Z 29005KT 8SM BKN017CB OVC060 16/13 A3003 RMK AO2 CB=
201101011652 METAR KATL 011652Z 18010G19KT 7SM SCT019CB BKN060 OVC200 17/14 A3001 RMK AO2 SLP161 CB SW-N MOV NE T01670139 $=
201101011552 METAR KATL 011552Z 18010KT 7SM BKN020 BKN025 BKN035 OVC200 16/14 A3005 RMK AO2 RAE43 SLP173 CB DSNT NE-S & SW-N P0014 T01560139 $=
201101011539 SPECI KATL 011539Z 18009G17KT 5SM -RA BR BKN015CB OVC025 15/13 A3006 RMK AO2 CB NE-SE-S MOV NE CB DSNT SW-N P0014 $=
201101011539 SPECI KATL 011539Z 18009G17KT 5SM -RA BR BKN015CB OVC025 15/13 A3006 RMK AO2 CB NE-SE-S MOV NE CB DSNT SW-N P0014 $=
201101011505 SPECI KATL 011505Z 25008G15KT 2 1/2SM BR OVC018CB 15/13 A3009 RMK AO2 RAEMM CB SW-OHD-N MOV NE P0006 $=
201101011505 SPECI KATL 011505Z 25008G15KT 2 1/2SM BR OVC018CB 15/13 A3009 RMK AO2 RAEMM CB SW-OHD-N MOV NE P0006 $=
201101011452 METAR KATL 011452Z 20011G19KT 9SM -RA OVC018CB 16/13 A3007 RMK AO2 RAB13E23B49 PRESRR SLP180 CB SW-N MOV NE P0000 60000 T01560128 53015=
201101011352 METAR KATL 011352Z 17014G20KT 10SM BKN017 OVC025 15/12 A3004 RMK AO2 RAE11B39E49 SLP171 P0000 T01500122=
201101011304 SPECI KATL 011304Z 18012G18KT 10SM -RA SCT018 BKN028 BKN090 OVC200 14/12 A3005 RMK AO2 P0000=
201101011304 SPECI KATL 011304Z 18012G18KT 10SM -RA SCT018 BKN028 BKN090 OVC200 14/12 A3005 RMK AO2 P0000=
201101011252 METAR KATL 011252Z 18011G18KT 10SM -RA FEW015 SCT090 BKN120 BKN200 14/12 A3004 RMK AO2 RAB50 SLP171 P0000 T01440122=
