##########################################################
# Query made at 04/19/2024 23:26:57 UTC
# Time interval: from 04/01/2012 12:00  to 04/30/2012 12:59  UTC
##########################################################

##########################################################
# KATL, Atlanta, Hartsfield - Jackson Atlanta International Airport (United States)
# WMO index: 72219. WIGOS ID: 0-20000-0-72219
# Latitude 33-38-59N. Longitude 084-25-00W. Altitude 312 m.
##########################################################

201204301252 METAR KATL 301252Z 00000KT 10SM SCT150 BKN250 22/15 A3019 RMK AO2 SLP212 T02220150=
201204301152 METAR KATL 301152Z 17003KT 10SM FEW040 SCT150 BKN250 19/15 A3017 RMK AO2 SLP209 T01890150 10217 20183 53024=
201204301052 METAR KATL 301052Z 00000KT 10SM FEW040 SCT250 19/14 A3014 RMK AO2 SLP198 T01940139=
201204300952 METAR KATL 300952Z 00000KT 10SM BKN250 19/14 A3011 RMK AO2 SLP187 T01940139=
201204300852 METAR KATL 300852Z 00000KT 10SM SCT180 20/14 A3010 RMK AO2 SLP183 T02000139 56007=
201204300752 METAR KATL 300752Z 00000KT 10SM CLR 19/14 A3010 RMK AO2 SLP184 T01940139=
201204300652 METAR KATL 300652Z 00000KT 10SM CLR 20/14 A3011 RMK AO2 SLP186 T02000144=
201204300552 METAR KATL 300552Z 00000KT 10SM CLR 22/14 A3012 RMK AO2 SLP190 T02170139 10289 20217 58003=
201204300452 METAR KATL 300452Z 25003KT 10SM CLR 22/14 A3013 RMK AO2 SLP194 T02220144 403060167=
201204300352 METAR KATL 300352Z 00000KT 10SM FEW250 23/14 A3013 RMK AO2 SLP194 T02330144=
201204300252 METAR KATL 300252Z 15004KT 10SM FEW250 24/15 A3013 RMK AO2 SLP194 T02440150 51015=
201204300152 METAR KATL 300152Z 14003KT 10SM FEW250 26/15 A3012 RMK AO2 SLP191 T02560150=
201204300052 METAR KATL 300052Z 00000KT 10SM SCT250 28/13 A3010 RMK AO2 SLP185 T02780133=
201204292352 METAR KATL 292352Z 00000KT 10SM BKN250 28/14 A3008 RMK AO2 SLP179 T02830139 10306 20278 58001=
201204292252 METAR KATL 292252Z 00000KT 10SM SCT250 29/14 A3009 RMK AO2 SLP180 T02890139=
201204292152 METAR KATL 292152Z 00000KT 10SM FEW250 30/12 A3009 RMK AO2 SLP180 T03000122=
201204292052 METAR KATL 292052Z 20003KT 10SM BKN250 30/12 A3009 RMK AO2 SLP179 T03000117 56014=
201204291952 METAR KATL 291952Z 22004KT 10SM SCT250 29/11 A3010 RMK AO2 SLP183 T02940111=
201204291852 METAR KATL 291852Z VRB03KT 10SM SCT250 29/13 A3012 RMK AO2 SLP190 T02890133=
201204291752 METAR KATL 291752Z 26005KT 10SM FEW050 28/15 A3013 RMK AO2 SLP194 T02780150 10283 20167 58013=
201204291652 METAR KATL 291652Z 19006KT 10SM FEW045 27/16 A3015 RMK AO2 SLP201 T02670156=
201204291552 METAR KATL 291552Z 15003KT 10SM CLR 25/17 A3016 RMK AO2 SLP204 T02500167=
201204291452 METAR KATL 291452Z 00000KT 10SM FEW250 23/17 A3017 RMK AO2 SLP209 T02330172 51001=
201204291352 METAR KATL 291352Z 10004KT 6SM HZ FEW006 20/17 A3017 RMK AO2 SLP209 T02000167=
201204291350 SPECI KATL 291350Z 13003KT 6SM HZ FEW006 19/17 A3017 RMK AO2=
201204291350 SPECI KATL 291350Z 13003KT 6SM HZ FEW006 19/17 A3017 RMK AO2=
201204291333 SPECI KATL 291333Z 00000KT 1 1/2SM BR BKN006 19/17 A3017 RMK AO2 SFC VIS 4=
201204291333 SPECI KATL 291333Z 00000KT 1 1/2SM BR BKN006 19/17 A3017 RMK AO2 SFC VIS 4=
201204291252 METAR KATL 291252Z 10005KT 1/2SM BR OVC002 17/17 A3017 RMK AO2 SFC VIS 3 SLP209 T01720167=
201204291233 SPECI KATL 291233Z 07005KT 1/2SM R09R/6000VP6000FT BR OVC002 17/17 A3017 RMK AO2 SFC VIS 2 1/2=
201204291233 SPECI KATL 291233Z 07005KT 1/2SM R09R/6000VP6000FT BR OVC002 17/17 A3017 RMK AO2 SFC VIS 2 1/2=
201204291152 METAR KATL 291152Z 10004KT 0SM R09R/P6000FT BR OVC002 17/16 A3017 RMK AO2 SFC VIS 1 SLP209 T01670161 10200 20167 53012=
201204291052 METAR KATL 291052Z 07005KT 0SM R09R/5500VP6000FT BR OVC002 17/16 A3015 RMK AO2 SFC VIS 1 SLP200 T01670161=
201204290952 METAR KATL 290952Z 07005KT 0SM R09R/4000VP6000FT FG OVC002 17/16 A3013 RMK AO2 SFC VIS 1/2 SLP195 T01670161=
201204290914 SPECI KATL 290914Z 07008KT 0SM R09R/4000VP6000FT FG OVC003 17/16 A3013 RMK AO2 SFC VIS 1/4=
201204290914 SPECI KATL 290914Z 07008KT 0SM R09R/4000VP6000FT FG OVC003 17/16 A3013 RMK AO2 SFC VIS 1/4=
201204290852 METAR KATL 290852Z 07006KT 9SM CLR 17/15 A3013 RMK AO2 SLP195 T01720150 50001=
201204290752 METAR KATL 290752Z 07006KT 10SM CLR 18/14 A3014 RMK AO2 SLP196 T01780144=
201204290652 METAR KATL 290652Z 00000KT 10SM FEW250 18/13 A3012 RMK AO2 SLP191 T01830133=
201204290552 METAR KATL 290552Z 00000KT 10SM CLR 19/13 A3013 RMK AO2 SLP192 T01940128 10261 20194 51012=
201204290452 METAR KATL 290452Z 00000KT 10SM CLR 21/13 A3012 RMK AO2 SLP192 T02110128 402890167=
201204290352 METAR KATL 290352Z 00000KT 10SM CLR 21/13 A3010 RMK AO2 SLP184 T02110128=
201204290252 METAR KATL 290252Z 00000KT 10SM CLR 22/13 A3009 RMK AO2 SLP181 T02170133 51015=
201204290152 METAR KATL 290152Z 22004KT 10SM CLR 23/13 A3008 RMK AO2 SLP177 T02280133=
201204290052 METAR KATL 290052Z 00000KT 10SM CLR 24/13 A3006 RMK AO2 SLP172 T02440128=
201204282352 METAR KATL 282352Z 25003KT 10SM CLR 26/12 A3005 RMK AO2 SLP166 T02610117 10289 20261 51002=
201204282252 METAR KATL 282252Z 20006KT 10SM CLR 28/11 A3005 RMK AO2 SLP167 T02780111=
201204282152 METAR KATL 282152Z 21006KT 10SM FEW250 28/11 A3005 RMK AO2 SLP167 T02830106=
201204282052 METAR KATL 282052Z 19007KT 10SM FEW250 28/10 A3004 RMK AO2 SLP163 T02830100 58013=
201204281952 METAR KATL 281952Z 25007KT 10SM CLR 28/10 A3005 RMK AO2 SLP167 T02830100=
201204281852 METAR KATL 281852Z 20008KT 10SM CLR 28/09 A3007 RMK AO2 SLP174 T02780094=
201204281752 METAR KATL 281752Z 21009KT 10SM CLR 27/11 A3008 RMK AO2 SLP177 T02720111 10272 20183 58012=
201204281652 METAR KATL 281652Z 00000KT 10SM FEW045 26/13 A3010 RMK AO2 SLP184 T02610133=
201204281552 METAR KATL 281552Z 19009KT 10SM FEW035 25/13 A3011 RMK AO2 SLP189 T02500133=
201204281452 METAR KATL 281452Z VRB03KT 10SM FEW030 24/16 A3011 RMK AO2 SLP190 T02390161 50003=
201204281352 METAR KATL 281352Z VRB05KT 10SM FEW150 23/17 A3012 RMK AO2 SLP191 T02280172=
201204281252 METAR KATL 281252Z 28005KT 10SM SCT150 SCT250 21/17 A3011 RMK AO2 SLP189 T02060167=
201204281152 METAR KATL 281152Z 00000KT 7SM BKN150 BKN250 18/16 A3011 RMK AO2 SLP189 T01830161 10200 20167 53017=
201204281052 METAR KATL 281052Z 00000KT 7SM SCT150 BKN250 17/16 A3009 RMK AO2 SLP182 T01720156=
201204280952 METAR KATL 280952Z 23003KT 7SM SCT150 BKN250 17/16 A3007 RMK AO2 SLP174 T01720161=
201204280852 METAR KATL 280852Z 00000KT 7SM FEW150 SCT250 18/17 A3005 RMK AO2 SLP170 T01830167 55004=
201204280752 METAR KATL 280752Z 23004KT 7SM SCT150 BKN250 18/17 A3005 RMK AO2 SLP169 T01830167=
201204280652 METAR KATL 280652Z 00000KT 8SM SCT150 BKN250 19/17 A3005 RMK AO2 SLP167 T01890167=
201204280552 METAR KATL 280552Z 00000KT 8SM SCT250 19/17 A3007 RMK AO2 SLP173 T01940172 10228 20189 58002=
201204280452 METAR KATL 280452Z 15003KT 9SM SCT250 19/17 A3007 RMK AO2 SLP176 T01940172 402670178=
201204280352 METAR KATL 280352Z 00000KT 10SM FEW150 SCT250 21/17 A3008 RMK AO2 SLP178 T02110167=
201204280252 METAR KATL 280252Z 00000KT 10SM BKN150 BKN250 21/17 A3007 RMK AO2 SLP176 T02060172 52016=
201204280152 METAR KATL 280152Z 24006KT 10SM BKN150 OVC200 22/17 A3006 RMK AO2 SLP171 T02170172=
201204280052 METAR KATL 280052Z 25007KT 10SM BKN150 BKN250 22/17 A3004 RMK AO2 SLP165 T02170172=
201204272352 METAR KATL 272352Z 23006KT 10SM FEW025 SCT150 SCT250 23/17 A3002 RMK AO2 SLP161 T02280172 10267 20228 50004=
201204272252 METAR KATL 272252Z 23010KT 10SM FEW025 SCT250 24/18 A3003 RMK AO2 SLP161 T02390178=
201204272152 METAR KATL 272152Z 22013G20KT 10SM FEW030 SCT250 25/18 A3001 RMK AO2 SLP155 T02500178=
201204272052 METAR KATL 272052Z 20013G19KT 9SM FEW030 SCT250 25/18 A3001 RMK AO2 SLP155 T02500183 57016=
201204271952 METAR KATL 271952Z 22012G17KT 10SM SCT035 27/19 A3003 RMK AO2 SLP160 TCU DSNT N T02670189=
201204271852 METAR KATL 271852Z VRB04KT 10SM FEW030 SCT050 SCT150 27/19 A3004 RMK AO2 SLP164 T02670189=
201204271752 METAR KATL 271752Z 23007KT 10SM BKN026 BKN150 BKN250 26/18 A3006 RMK AO2 SLP171 T02560178 10261 20183 58003=
201204271652 METAR KATL 271652Z 23005KT 10SM FEW022 BKN150 BKN250 24/18 A3007 RMK AO2 SLP176 T02390178=
201204271552 METAR KATL 271552Z 24007KT 10SM FEW025 BKN150 BKN250 23/17 A3008 RMK AO2 SLP177 T02330172=
201204271452 METAR KATL 271452Z 24008KT 10SM FEW025 BKN150 BKN250 23/17 A3007 RMK AO2 SLP174 T02280172 51014=
201204271352 METAR KATL 271352Z 24008KT 10SM FEW100 SCT150 BKN250 21/16 A3006 RMK AO2 SLP171 T02110161=
201204271252 METAR KATL 271252Z 24007KT 10SM FEW090 SCT200 SCT250 20/16 A3004 RMK AO2 SLP165 T02000156=
201204271152 METAR KATL 271152Z 23007KT 10SM FEW090 SCT200 SCT250 18/14 A3003 RMK AO2 SLP160 T01830144 10217 20178 53013=
201204271052 METAR KATL 271052Z 23006KT 10SM FEW044 SCT075 SCT090 BKN200 18/14 A3001 RMK AO2 SLP154 T01830139=
201204270952 METAR KATL 270952Z 24007KT 10SM BKN050 OVC080 19/13 A3000 RMK AO2 SLP148 T01890133=
201204270852 METAR KATL 270852Z 23007KT 10SM SCT050 19/13 A2999 RMK AO2 SLP146 T01890128 53002=
201204270752 METAR KATL 270752Z 25008KT 10SM OVC055 21/13 A2999 RMK AO2 SLP145 T02060128=
201204270652 METAR KATL 270652Z 24009KT 10SM SCT055 BKN200 21/13 A2997 RMK AO2 SLP141 T02060133=
201204270552 METAR KATL 270552Z 24007KT 10SM BKN055 BKN200 22/14 A2998 RMK AO2 SLP144 T02170139 10261 20211 53005=
201204270452 METAR KATL 270452Z 24004KT 10SM SCT050 BKN200 22/13 A2998 RMK AO2 SLP145 T02170133 402830161=
201204270352 METAR KATL 270352Z 23006KT 10SM FEW100 OVC200 22/13 A2997 RMK AO2 SLP139 T02220128=
201204270252 METAR KATL 270252Z 24007KT 10SM FEW080 SCT100 BKN250 23/12 A2997 RMK AO2 SLP140 T02330122 52013=
201204270152 METAR KATL 270152Z 24007KT 10SM SCT080 BKN100 BKN250 24/12 A2996 RMK AO2 SLP137 T02390122=
201204270052 METAR KATL 270052Z 23008G17KT 10SM SCT085 BKN110 OVC250 25/12 A2994 RMK AO2 SLP130 T02500122=
201204262352 METAR KATL 262352Z 25008KT 10SM BKN090 BKN250 26/13 A2993 RMK AO2 PK WND 25027/2254 SLP127 T02610133 10283 20250 53002=
201204262252 METAR KATL 262252Z 25015G23KT 10SM FEW100 SCT250 27/13 A2989 RMK AO2 SLP113 T02670133=
201204262152 METAR KATL 262152Z 25015G23KT 10SM FEW120 SCT250 28/13 A2990 RMK AO2 SLP118 ACC DSNT NW T02780133=
201204262052 METAR KATL 262052Z 26022G28KT 10SM FEW150 SCT200 SCT250 28/11 A2992 RMK AO2 PK WND 26028/2051 SLP124 T02830111 56016=
201204261952 METAR KATL 261952Z 25011G21KT 10SM FEW150 SCT200 SCT250 28/13 A2994 RMK AO2 PK WND 27026/1918 SLP129 T02780133=
201204261852 METAR KATL 261852Z 25010G22KT 10SM FEW100CB SCT150 BKN200 26/13 A2996 RMK AO2 SLP135 VIRGA NW CBMAM OHD-NE-E T02560128=
201204261752 METAR KATL 261752Z 25012KT 10SM FEW100 SCT150 BKN200 26/14 A2997 RMK AO2 SLP141 VIRGA DSNT NE-E-SE-S & DSNT NW CBMAM DSNT NE T02560139 10256 20167 58004=
201204261652 METAR KATL 261652Z 23013G20KT 10SM FEW100 BKN150 BKN200 23/13 A2999 RMK AO2 SLP147 VIRGA DSNT NE & DSNT NW-N T02330128=
201204261552 METAR KATL 261552Z 25012KT 10SM FEW100 SCT150 BKN200 23/12 A3001 RMK AO2 SLP154 VIRGA DSNT N-NE-E-SE-S-SW T02330122=
201204261452 METAR KATL 261452Z 26013G18KT 10SM FEW100 BKN150 BKN200 21/12 A2999 RMK AO2 SLP148 VIRGA ALQDS T02110117 53007=
201204261352 METAR KATL 261352Z 26013G20KT 10SM FEW100 SCT150 BKN200 21/13 A2997 RMK AO2 SLP141 VIRGA NE & NW-N T02060128=
201204261252 METAR KATL 261252Z 24012G20KT 10SM FEW150 BKN250 18/13 A2997 RMK AO2 SLP141 T01830133=
201204261152 METAR KATL 261152Z 24013G17KT 10SM FEW150 SCT250 17/13 A2996 RMK AO2 SLP140 T01670133 10200 20161 51007=
201204261052 METAR KATL 261052Z 24011G18KT 10SM FEW150 SCT220 16/13 A2996 RMK AO2 SLP137 T01610133=
201204260952 METAR KATL 260952Z 23008G18KT 10SM FEW150 17/13 A2995 RMK AO2 SLP136 T01670128=
201204260852 METAR KATL 260852Z 23013G18KT 10SM BKN150 18/12 A2994 RMK AO2 SLP131 T01780122 55002=
201204260752 METAR KATL 260752Z 23011G17KT 10SM BKN150 18/12 A2994 RMK AO2 SLP130 T01830117=
201204260652 METAR KATL 260652Z 22009KT 10SM BKN150 19/12 A2994 RMK AO2 SLP130 T01890122=
201204260552 METAR KATL 260552Z 22010G14KT 10SM BKN150 BKN200 20/12 A2995 RMK AO2 SLP132 T02000122 10244 20194 50003=
201204260452 METAR KATL 260452Z 22008KT 10SM BKN150 BKN200 19/12 A2995 RMK AO2 SLP134 T01940117 402720100=
201204260352 METAR KATL 260352Z 21003KT 10SM BKN150 BKN200 BKN250 19/12 A2994 RMK AO2 SLP134 T01940117=
201204260252 METAR KATL 260252Z 21007KT 10SM FEW200 BKN250 20/12 A2994 RMK AO2 SLP131 T02000117 51013=
201204260152 METAR KATL 260152Z 22006KT 10SM SCT200 BKN250 21/12 A2993 RMK AO2 SLP128 T02110117=
201204260052 METAR KATL 260052Z 23007KT 10SM BKN200 BKN250 23/11 A2991 RMK AO2 SLP124 T02330106=
201204252352 METAR KATL 252352Z 23008KT 10SM FEW150 SCT200 BKN250 24/11 A2990 RMK AO2 SLP119 T02440111 10272 20244 53003=
201204252252 METAR KATL 252252Z 21015G22KT 10SM SCT150 BKN200 26/12 A2989 RMK AO2 SLP115 T02610117=
201204252152 METAR KATL 252152Z 21013G19KT 10SM FEW055 27/13 A2988 RMK AO2 SLP113 T02670133=
201204252052 METAR KATL 252052Z 23012G19KT 10SM SCT050 26/14 A2989 RMK AO2 SLP116 T02610139 56018=
201204251952 METAR KATL 251952Z 23012G19KT 10SM FEW050 26/14 A2990 RMK AO2 SLP120 T02560139=
201204251852 METAR KATL 251852Z 24010G22KT 10SM FEW048 26/13 A2992 RMK AO2 SLP126 T02560133=
201204251752 METAR KATL 251752Z 25010G16KT 10SM FEW050 SCT250 25/13 A2994 RMK AO2 SLP134 T02500133 10250 20106 58006=
201204251652 METAR KATL 251652Z 26010KT 10SM FEW045 SCT250 24/12 A2995 RMK AO2 SLP138 T02390122=
201204251552 METAR KATL 251552Z 23010G18KT 10SM FEW250 22/12 A2996 RMK AO2 SLP142 T02170117=
201204251452 METAR KATL 251452Z 25012G18KT 10SM FEW120 19/10 A2996 RMK AO2 SLP142 T01940100 51005=
201204251352 METAR KATL 251352Z 22008G14KT 10SM FEW120 SCT200 17/09 A2996 RMK AO2 SLP143 T01670089=
201204251252 METAR KATL 251252Z 22007KT 10SM SCT250 13/08 A2995 RMK AO2 SLP140 T01280078=
201204251152 METAR KATL 251152Z 22008KT 10SM SCT250 11/07 A2995 RMK AO2 SLP138 T01060067 10128 20100 51014=
201204251052 METAR KATL 251052Z 22006KT 10SM FEW250 10/06 A2994 RMK AO2 SLP135 T01000061=
201204250952 METAR KATL 250952Z 22004KT 10SM CLR 10/06 A2992 RMK AO2 SLP129 T01000061=
201204250852 METAR KATL 250852Z 22004KT 10SM CLR 10/06 A2991 RMK AO2 SLP124 T01000056 55001=
201204250752 METAR KATL 250752Z 00000KT 10SM CLR 11/06 A2989 RMK AO2 SLP120 T01060056=
201204250652 METAR KATL 250652Z 23005KT 10SM CLR 12/06 A2989 RMK AO2 SLP119 T01170056=
201204250552 METAR KATL 250552Z 25003KT 10SM FEW100 13/06 A2991 RMK AO2 SLP125 T01280056 10178 20122 55003=
201204250452 METAR KATL 250452Z 23007KT 10SM FEW100 14/05 A2991 RMK AO2 SLP124 T01390050 402000056=
201204250352 METAR KATL 250352Z 22005KT 10SM FEW100 13/05 A2991 RMK AO2 SLP125 T01330050=
201204250252 METAR KATL 250252Z 24005KT 10SM FEW100 14/04 A2992 RMK AO2 SLP129 T01440044 51010=
201204250152 METAR KATL 250152Z 00000KT 10SM FEW100 14/04 A2992 RMK AO2 SLP130 T01440044=
201204250052 METAR KATL 250052Z 26005KT 10SM FEW100 16/03 A2990 RMK AO2 SLP124 T01610033=
201204242352 METAR KATL 242352Z 28008KT 10SM FEW090 18/03 A2989 RMK AO2 SLP121 T01780033 10200 20172 56002=
201204242252 METAR KATL 242252Z 30009KT 10SM FEW070 19/03 A2989 RMK AO2 SLP122 T01890028=
201204242152 METAR KATL 242152Z 29011G20KT 10SM FEW070 19/03 A2989 RMK AO2 SLP119 T01940028=
201204242052 METAR KATL 242052Z 32015G23KT 10SM FEW070 SCT250 19/02 A2990 RMK AO2 PK WND 33028/2006 SLP123 T01940022 58010=
201204241952 METAR KATL 241952Z 30015G22KT 10SM FEW070 19/02 A2991 RMK AO2 PK WND 29026/1910 SLP129 T01890017=
201204241852 METAR KATL 241852Z 31016G24KT 10SM BKN070 BKN080 19/02 A2992 RMK AO2 SLP131 T01890022=
201204241752 METAR KATL 241752Z 30022G27KT 10SM SCT065 18/01 A2993 RMK AO2 PK WND 31027/1751 SLP133 T01830011 10183 20072 58006=
201204241652 METAR KATL 241652Z 29017G25KT 10SM SCT065 17/02 A2994 RMK AO2 PK WND 32029/1611 SLP136 T01720017=
201204241552 METAR KATL 241552Z 30020G27KT 10SM SCT060 17/02 A2995 RMK AO2 PK WND 30027/1552 SLP140 T01670017=
201204241452 METAR KATL 241452Z 29012G21KT 10SM FEW050 SCT250 16/03 A2994 RMK AO2 SLP139 T01560028 51007=
201204241352 METAR KATL 241352Z 29011G19KT 10SM FEW250 12/02 A2994 RMK AO2 SLP140 T01220017=
201204241252 METAR KATL 241252Z 27011KT 10SM CLR 10/01 A2993 RMK AO2 SLP136 T01000006=
201204241152 METAR KATL 241152Z 28009KT 10SM CLR 07/00 A2992 RMK AO2 SLP134 T00720000 10072 20056 53013=
201204241052 METAR KATL 241052Z COR 29008KT 10SM FEW250 06/M01 A2991 RMK AO2 SLP128 T00561006=
201204240952 METAR KATL 240952Z 27009KT 10SM CLR 07/M01 A2989 RMK AO2 SLP122 T00671011=
201204240852 METAR KATL 240852Z 27007KT 10SM CLR 06/M01 A2988 RMK AO2 SLP120 T00611011 55000=
201204240752 METAR KATL 240752Z 27007KT 10SM CLR 06/M01 A2988 RMK AO2 SLP119 T00561011=
201204240652 METAR KATL 240652Z 27006KT 10SM CLR 06/M02 A2988 RMK AO2 SLP118 T00561017=
201204240552 METAR KATL 240552Z 27006KT 10SM CLR 06/M02 A2988 RMK AO2 SLP121 T00611022 10128 20061 58006=
201204240452 METAR KATL 240452Z 28006KT 10SM CLR 07/M03 A2989 RMK AO2 SLP124 T00671028 401560061=
201204240352 METAR KATL 240352Z 28005KT 10SM CLR 08/M03 A2990 RMK AO2 SLP126 T00781028=
201204240252 METAR KATL 240252Z 29006KT 10SM CLR 09/M03 A2990 RMK AO2 SLP127 T00891033 51020=
201204240152 METAR KATL 240152Z 31008KT 10SM CLR 11/M04 A2989 RMK AO2 SLP122 T01061044=
201204240052 METAR KATL 240052Z 31009KT 10SM CLR 11/M04 A2986 RMK AO2 SLP114 T01111039=
201204232352 METAR KATL 232352Z 32020G24KT 10SM FEW075 13/M06 A2984 RMK AO2 PK WND 33029/2315 SLP107 T01281056 10156 20128 53013=
201204232252 METAR KATL 232252Z 31017G23KT 10SM FEW075 14/M04 A2983 RMK AO2 PK WND 32029/2240 SLP101 T01391044=
201204232152 METAR KATL 232152Z 31023G27KT 10SM FEW075 14/M03 A2982 RMK AO2 PK WND 31028/2055 SLP096 T01441033=
201204232052 METAR KATL 232052Z 31021G28KT 10SM FEW070 14/M03 A2980 RMK AO2 PK WND 33032/2017 SLP092 T01441028 55004=
201204231952 METAR KATL 231952Z 30020G26KT 10SM FEW070 15/M03 A2980 RMK AO2 PK WND 33034/1936 SLP092 T01501028=
201204231852 METAR KATL 231852Z 32017G26KT 10SM SCT065 15/M02 A2981 RMK AO2 PK WND 32035/1827 SLP095 T01501022=
201204231752 METAR KATL 231752Z 35022G30KT 10SM FEW060 13/M02 A2982 RMK AO2 PK WND 34033/1721 SLP097 T01331022 10144 20067 58003=
201204231652 METAR KATL 231652Z 31015G27KT 10SM SCT060 12/M03 A2982 RMK AO2 PK WND 29028/1618 SLP099 T01221028=
201204231552 METAR KATL 231552Z 31021G29KT 10SM SCT055 11/M03 A2982 RMK AO2 PK WND 33035/1521 SLP099 T01061028=
201204231452 METAR KATL 231452Z 33021G33KT 10SM BKN050 10/M02 A2983 RMK AO2 PK WND 34034/1407 SLP100 T01001022 53011=
201204231352 METAR KATL 231352Z 33018G24KT 10SM FEW045 10/M02 A2981 RMK AO2 PK WND 32035/1327 SLP094 T01001017=
201204231252 METAR KATL 231252Z 32014G27KT 10SM FEW035 08/00 A2980 RMK AO2 PK WND 30027/1246 SLP091 T00830000=
201204231152 METAR KATL 231152Z 33014G21KT 10SM CLR 07/00 A2979 RMK AO2 SLP089 T00670000 10089 20061 53009=
201204231052 METAR KATL 231052Z 31014G19KT 10SM FEW250 06/02 A2978 RMK AO2 SLP085 T00610017=
201204230952 METAR KATL 230952Z 31010KT 10SM CLR 07/01 A2977 RMK AO2 SLP079 T00670011 $=
201204230852 METAR KATL 230852Z 32012G18KT 10SM CLR 07/01 A2977 RMK AO2 SLP078 T00720006 55002 $=
201204230752 METAR KATL 230752Z 32011KT 10SM CLR 08/01 A2976 RMK AO2 SLP075 T00780011 $=
201204230652 METAR KATL 230652Z 33014G23KT 10SM CLR 08/01 A2976 RMK AO2 SLP076 T00830011 $=
201204230552 METAR KATL 230552Z 32011KT 10SM CLR 09/01 A2977 RMK AO2 SLP079 T00890011 10144 20089 50000 $=
201204230452 METAR KATL 230452Z 33015G21KT 10SM CLR 10/01 A2978 RMK AO2 SLP081 T01000011 401890100 $=
201204230352 METAR KATL 230352Z 33014G19KT 10SM CLR 11/01 A2978 RMK AO2 SLP081 T01060006 $=
201204230252 METAR KATL 230252Z 33016KT 10SM CLR 11/01 A2977 RMK AO2 PK WND 34026/0217 SLP080 T01110006 51019 $=
201204230152 METAR KATL 230152Z 32015G25KT 10SM FEW055 12/01 A2976 RMK AO2 PK WND 33029/0114 SLP075 T01220006 $=
201204230052 METAR KATL 230052Z 32018G31KT 10SM FEW055 13/01 A2974 RMK AO2 PK WND 34031/0044 SLP068 T01330011 $=
201204222352 METAR KATL 222352Z 33017G25KT 10SM SCT060 14/02 A2971 RMK AO2 PK WND 32032/2321 SLP059 T01440017 10189 20144 53023 $=
201204222252 METAR KATL 222252Z 33021G30KT 10SM FEW060 16/02 A2969 RMK AO2 PK WND 32034/2225 SLP050 T01610022 $=
201204222152 METAR KATL 222152Z 31020G31KT 10SM FEW060 18/03 A2966 RMK AO2 PK WND 31037/2110 SLP040 T01780028 $=
201204222052 METAR KATL 222052Z 33021G33KT 10SM SCT055 18/03 A2964 RMK AO2 PK WND 32033/2043 SLP035 T01830033 58006 $=
201204221952 METAR KATL 221952Z 31018G27KT 10SM FEW045 19/04 A2965 RMK AO2 PK WND 34032/1923 SLP037 T01890044 $=
201204221852 METAR KATL 221852Z 32020G28KT 10SM FEW030 18/04 A2967 RMK AO2 PK WND 32030/1827 SLP042 T01830044 $=
201204221752 METAR KATL 221752Z 33019G27KT 10SM FEW030 18/06 A2966 RMK AO2 PK WND 33027/1752 SLP040 T01780056 10178 20117 58014 $=
201204221652 METAR KATL 221652Z 33015G19KT 10SM FEW030 17/06 A2967 RMK AO2 PK WND 33029/1602 SLP045 T01670061 $=
201204221552 METAR KATL 221552Z 31017G22KT 10SM FEW025 16/07 A2969 RMK AO2 PK WND 34027/1512 SLP051 T01610072 $=
201204221452 METAR KATL 221452Z 34017G23KT 10SM FEW025 14/07 A2970 RMK AO2 SLP054 T01440072 51003 $=
201204221352 METAR KATL 221352Z 33017G23KT 10SM SCT020 13/07 A2970 RMK AO2 SLP053 T01330072 $=
201204221335 SPECI KATL 221335Z 34019G24KT 10SM SCT020 13/07 A2970 RMK AO2 $=
201204221335 SPECI KATL 221335Z 34019G24KT 10SM SCT020 13/07 A2970 RMK AO2 $=
201204221252 METAR KATL 221252Z 33016G25KT 10SM BKN018 12/07 A2970 RMK AO2 SLP052 T01170072 $=
201204221152 METAR KATL 221152Z 33014G24KT 10SM BKN016 12/08 A2969 RMK AO2 PK WND 34028/1053 SLP050 70053 T01170078 10139 20111 53005 $=
201204221118 SPECI KATL 221118Z 33017G26KT 10SM OVC016 12/08 A2969 RMK AO2 PK WND 34028/1053 $=
201204221118 SPECI KATL 221118Z 33017G26KT 10SM OVC016 12/08 A2969 RMK AO2 PK WND 34028/1053 $=
201204221052 METAR KATL 221052Z 33023G30KT 10SM BKN014 11/08 A2968 RMK AO2 PK WND 33030/1051 SLP045 T01110078 $=
201204220952 METAR KATL 220952Z 33013G21KT 10SM OVC014 12/09 A2968 RMK AO2 SLP045 T01170089 $=
201204220852 METAR KATL 220852Z 32018G24KT 10SM BKN012 BKN095 12/09 A2968 RMK AO2 PK WND 32027/0838 SLP044 T01170089 56014 $=
201204220752 METAR KATL 220752Z 32019G23KT 10SM BKN095 BKN180 12/09 A2968 RMK AO2 SLP044 T01220094 $=
201204220652 METAR KATL 220652Z 33013KT 10SM SCT038 OVC095 13/11 A2969 RMK AO2 SLP047 T01330106 $=
201204220552 METAR KATL 220552Z 33009KT 10SM BKN065 OVC070 14/11 A2972 RMK AO2 SLP058 60053 T01390111 10228 20139 56005 $=
201204220452 METAR KATL 220452Z 31010KT 10SM FEW023 BKN085 OVC130 16/13 A2973 RMK AO2 SLP060 T01560128 402500156 $=
201204220352 METAR KATL 220352Z 32009KT 10SM FEW055 OVC080 17/16 A2972 RMK AO2 TSE04RAE36 SLP058 TS DSIPT P0001 T01720156 $=
201204220304 SPECI KATL 220304Z 29005KT 8SM -RA FEW045 BKN070 OVC100 17/16 A2973 RMK AO2 TSE04 TS DSIPT OCNL LTGIC DSNT E-SE CB DSNT E-SE P0000 $=
201204220304 SPECI KATL 220304Z 29005KT 8SM -RA FEW045 BKN070 OVC100 17/16 A2973 RMK AO2 TSE04 TS DSIPT OCNL LTGIC DSNT E-SE CB DSNT E-SE P0000 $=
201204220252 METAR KATL 220252Z 27005KT 8SM TSRA FEW035CB BKN070 OVC100 17/16 A2974 RMK AO2 TSE16B45 SLP064 OCNL LTGIC SW-W TS SW-W MOV STNRY P0052 60052 T01720161 51012 $=
201204220245 SPECI KATL 220245Z 26007KT 8SM TSRA FEW035CB BKN060 OVC100 17/16 A2974 RMK AO2 TSE16B45 OCNL LTGIC SW-W TS SW-W MOV STNRY P0048 $=
201204220245 SPECI KATL 220245Z 26007KT 8SM TSRA FEW035CB BKN060 OVC100 17/16 A2974 RMK AO2 TSE16B45 OCNL LTGIC SW-W TS SW-W MOV STNRY P0048 $=
201204220216 SPECI KATL 220216Z 20007KT 6SM R09R/4500VP6000FT -RA BR BKN035 OVC100 17/16 A2973 RMK AO2 TSE16 TS DSIPT VIS SW 1 1/2 P0039 $=
201204220216 SPECI KATL 220216Z 20007KT 6SM R09R/4500VP6000FT -RA BR BKN035 OVC100 17/16 A2973 RMK AO2 TSE16 TS DSIPT VIS SW 1 1/2 P0039 $=
201204220152 METAR KATL 220152Z 19008KT 8SM -TSRA SCT040CB BKN100 OVC220 18/16 A2973 RMK AO2 RAB47 SLP061 OCNL LTGICCG NE & S-SW TS NE & S-SW MOV STNRY P0000 T01830161 $=
201204220052 METAR KATL 220052Z 36007KT 10SM TS SCT048CB BKN095 OVC220 22/13 A2971 RMK AO2 TSB52 SLP055 OCNL LTGIC NE TS NE MOV NW SHRA NE T02220133 $=
201204212352 METAR KATL 212352Z 36009KT 10SM SCT045 SCT070 OVC250 23/13 A2970 RMK AO2 SLP050 CB DSNT E & S T02280133 10250 20228 56001=
201204212252 METAR KATL 212252Z 35009KT 10SM SCT042 BKN070 OVC250 23/13 A2970 RMK AO2 SLP050 T02330133=
201204212152 METAR KATL 212152Z 02008KT 10SM SCT045 SCT070 OVC220 24/13 A2970 RMK AO2 SLP050 T02390133=
201204212052 METAR KATL 212052Z 01009KT 10SM SCT045 BKN070 OVC220 24/13 A2970 RMK AO2 SLP051 T02440133 56025=
201204211952 METAR KATL 211952Z 36005KT 10SM BKN045 OVC230 24/13 A2972 RMK AO2 SLP057 T02390128=
201204211852 METAR KATL 211852Z 00000KT 10SM SCT045 BKN055 OVC250 25/14 A2976 RMK AO2 SLP070 T02500139=
201204211752 METAR KATL 211752Z 00000KT 10SM SCT030 BKN250 23/12 A2978 RMK AO2 SLP078 SCT030 V BKN T02330117 10244 20161 58009=
201204211652 METAR KATL 211652Z 35006KT 10SM FEW026 SCT065 OVC250 23/15 A2979 RMK AO2 SLP081 T02330150=
201204211552 METAR KATL 211552Z 23003KT 10SM SCT021 BKN065 OVC250 22/16 A2982 RMK AO2 SLP091 T02170156=
201204211452 METAR KATL 211452Z 00000KT 8SM SCT013 BKN250 20/16 A2981 RMK AO2 SLP088 T02000156 51005=
201204211434 SPECI KATL 211434Z 00000KT 7SM BKN013 20/16 A2981 RMK AO2=
201204211434 SPECI KATL 211434Z 00000KT 7SM BKN013 20/16 A2981 RMK AO2=
201204211412 SPECI KATL 211412Z 00000KT 6SM HZ SCT010 19/16 A2980 RMK AO2=
201204211412 SPECI KATL 211412Z 00000KT 6SM HZ SCT010 19/16 A2980 RMK AO2=
201204211352 METAR KATL 211352Z 03003KT 6SM HZ OVC008 18/16 A2979 RMK AO2 PRESFR SLP084 THN SPOTS INOVC T01830156=
201204211316 SPECI KATL 211316Z 00000KT 6SM BR BKN006 17/15 A2981 RMK AO2=
201204211316 SPECI KATL 211316Z 00000KT 6SM BR BKN006 17/15 A2981 RMK AO2=
201204211252 METAR KATL 211252Z 00000KT 2SM BR BKN004 BKN009 17/16 A2981 RMK AO2 SFC VIS 3 SLP091 T01670156=
201204211152 METAR KATL 211152Z 14005KT 1/8SM R09R/6000VP6000FT BR OVC003 16/16 A2979 RMK AO2 SFC VIS 1 SLP084 T01610156 10167 20156 55006=
201204211122 SPECI KATL 211122Z 14003KT 1/8SM BR OVC003 16/16 A2979 RMK AO2 SFC VIS 2=
201204211122 SPECI KATL 211122Z 14003KT 1/8SM BR OVC003 16/16 A2979 RMK AO2 SFC VIS 2=
201204211057 SPECI KATL 211057Z 15004KT 1/2SM BR OVC003 17/16 A2979 RMK AO2 SFC VIS 3=
201204211057 SPECI KATL 211057Z 15004KT 1/2SM BR OVC003 17/16 A2979 RMK AO2 SFC VIS 3=
201204211052 METAR KATL 211052Z 12004KT 2SM BR BKN003 OVC006 17/16 A2979 RMK AO2 SFC VIS 4 SLP081 T01670156=
201204211008 SPECI KATL 211008Z 12004KT 2SM BR OVC003 16/16 A2980 RMK AO2 SFC VIS 4=
201204211008 SPECI KATL 211008Z 12004KT 2SM BR OVC003 16/16 A2980 RMK AO2 SFC VIS 4=
201204210952 METAR KATL 210952Z 12005KT 2SM BR OVC005 16/15 A2980 RMK AO2 SFC VIS 4 SLP087 T01610150=
201204210921 SPECI KATL 210921Z 10004KT 2SM BR BKN005 OVC013 16/15 A2981 RMK AO2 SFC VIS 5=
201204210921 SPECI KATL 210921Z 10004KT 2SM BR BKN005 OVC013 16/15 A2981=
201204210919 SPECI KATL 210919Z 10004KT 5SM BR BKN005 OVC013 16/15 A2980 RMK AO2=
201204210919 SPECI KATL 210919Z 10004KT 5SM BR BKN005 OVC013 16/15 A2980 RMK AO2=
201204210852 METAR KATL 210852Z 07004KT 5SM BR FEW005 OVC015 16/15 A2981 RMK AO2 SLP090 T01610150 56009=
201204210752 METAR KATL 210752Z 09004KT 5SM BR FEW005 BKN016 BKN140 16/14 A2982 RMK AO2 SLP093 T01560144=
201204210748 SPECI KATL 210748Z 09004KT 4SM BR FEW005 SCT016 BKN140 16/14 A2982 RMK AO2=
201204210748 SPECI KATL 210748Z 09004KT 4SM BR FEW005 SCT016 BKN140 16/14 A2982 RMK AO2=
201204210652 METAR KATL 210652Z 09004KT 5SM BR FEW040 BKN095 OVC120 16/14 A2984 RMK AO2 SLP099 T01560144=
201204210552 METAR KATL 210552Z 13003KT 6SM BR FEW080 OVC100 17/15 A2987 RMK AO2 SLP109 T01670150 10189 20167 58004=
201204210452 METAR KATL 210452Z 11004KT 7SM FEW070 OVC100 17/15 A2988 RMK AO2 SLP113 T01670150 402060150=
201204210352 METAR KATL 210352Z 13003KT 7SM BKN070 OVC095 17/15 A2988 RMK AO2 SLP114 T01720150=
201204210252 METAR KATL 210252Z 12003KT 7SM OVC095 17/15 A2988 RMK AO2 SLP114 T01720150 51012=
201204210152 METAR KATL 210152Z 13004KT 8SM BKN090 BKN250 17/14 A2987 RMK AO2 SLP112 T01720144=
201204210052 METAR KATL 210052Z 14004KT 9SM BKN090 BKN250 18/15 A2986 RMK AO2 SLP109 T01780150=
201204202352 METAR KATL 202352Z 15005KT 9SM FEW085 SCT250 19/15 A2984 RMK AO2 SLP101 T01890150 10206 20178 56019=
201204202252 METAR KATL 202252Z 13005KT 9SM FEW020 SCT080 SCT250 20/15 A2986 RMK AO2 SLP106 T02000150=
201204202219 SPECI KATL 202219Z 12007KT 9SM FEW020 SCT028 SCT080 21/15 A2987 RMK AO2=
201204202219 SPECI KATL 202219Z 12007KT 9SM FEW020 SCT028 SCT080 21/15 A2987 RMK AO2=
201204202152 METAR KATL 202152Z 13005KT 9SM SCT020TCU BKN028 BKN040 19/15 A2988 RMK AO2 SLP113 TCU SW-NW DSNT NW-NE T01940150=
201204202052 METAR KATL 202052Z 13006KT 10SM FEW020TCU BKN025 BKN070 19/15 A2990 RMK AO2 SLP121 TCU SW-NW T01940150 58020=
201204201952 METAR KATL 201952Z 13004KT 10SM BKN016 BKN018 OVC022 19/15 A2993 RMK AO2 SLP131 BINOVC T01940150=
201204201908 SPECI KATL 201908Z 15006KT 8SM FEW013 BKN016 OVC020 19/15 A2995 RMK AO2 BINOVC=
201204201908 SPECI KATL 201908Z 15006KT 8SM FEW013 BKN016 OVC020 19/15 A2995 RMK AO2 BINOVC=
201204201852 METAR KATL 201852Z 13007KT 7SM OVC014 19/15 A2995 RMK AO2 SLP136 T01890150=
201204201752 METAR KATL 201752Z 10004KT 6SM HZ OVC012 18/14 A2996 RMK AO2 SLP141 60000 T01780144 10178 20156 58007=
201204201652 METAR KATL 201652Z 10006KT 7SM OVC010 18/14 A2997 RMK AO2 SLP145 T01780144=
201204201555 SPECI KATL 201555Z 10005KT 6SM BR BKN008 OVC010 17/14 A2998 RMK AO2=
201204201555 SPECI KATL 201555Z 10005KT 6SM BR BKN008 OVC010 17/14 A2998 RMK AO2=
201204201552 METAR KATL 201552Z 08007KT 2SM BR OVC008 17/15 A2998 RMK AO2 SFC VIS 6 SLP148 T01720150=
201204201452 METAR KATL 201452Z 08006KT 2SM BR BKN006 BKN008 OVC010 16/14 A2998 RMK AO2 SFC VIS 5 SLP149 60000 T01610144 53006=
201204201429 SPECI KATL 201429Z 09008KT 1 1/2SM BR BCFG BKN005 BKN008 OVC013 17/15 A2997 RMK AO2 SFC VIS 4=
201204201429 SPECI KATL 201429Z 09008KT 1 1/2SM BR BCFG BKN005 BKN008 OVC013 17/15 A2997 RMK AO2 SFC VIS 4=
201204201352 METAR KATL 201352Z 08008KT 1/2SM BR BCFG BKN005 BKN013 OVC020 16/14 A2996 RMK AO2 SFC VIS 2 DZE47 SLP143 P0000 T01560144=
201204201329 SPECI KATL 201329Z 08007KT 1/2SM -DZ BR BKN005 BKN013 OVC015 16/15 A2996 RMK AO2 SFC VIS 1 1/2 P0000=
201204201329 SPECI KATL 201329Z 08007KT 1/2SM -DZ BR BKN005 BKN013 OVC015 16/15 A2996 RMK AO2 SFC VIS 1 1/2 P0000=
201204201324 SPECI KATL 201324Z 09007KT 1/4SM -DZ BR BKN005 BKN013 OVC015 16/15 A2996 RMK AO2 SFC VIS 1 1/2 P0000=
201204201324 SPECI KATL 201324Z 09007KT 1/4SM -DZ BR BKN005 BKN013 OVC015 16/15 A2996 RMK AO2 SFC VIS 1 1/2 P0000=
201204201252 METAR KATL 201252Z 09007KT 1/4SM R09R/P6000FT -DZ BR OVC003 16/14 A2996 RMK AO2 SFC VIS 3/4 DZB00 SLP142 P0000 T01560144=
201204201229 SPECI KATL 201229Z 09006KT 1/4SM R09R/6000VP6000FT -DZ BR OVC004 16/14 A2996 RMK AO2 SFC VIS 3/4 DZB00 CIG 003V007 P0000=
201204201229 SPECI KATL 201229Z 09006KT 1/4SM R09R/6000VP6000FT -DZ BR OVC004 16/14 A2996 RMK AO2 SFC VIS 3/4 DZB00 CIG 003V007 P0000=
201204201210 SPECI KATL 201210Z 08007KT 3/4SM R09R/6000VP6000FT -DZ BR OVC004 16/14 A2996 RMK AO2 DZB00 P0000=
201204201210 SPECI KATL 201210Z 08007KT 3/4SM R09R/6000VP6000FT -DZ BR OVC004 16/14 A2996 RMK AO2 DZB00 P0000=
201204201152 METAR KATL 201152Z 08006KT 1 1/2SM BR OVC005 16/14 A2996 RMK AO2 SLP141 60000 T01560144 10161 20150 53007=
201204201146 SPECI KATL 201146Z 07006KT 1 1/2SM BR OVC007 16/14 A2996 RMK AO2=
201204201146 SPECI KATL 201146Z 07006KT 1 1/2SM BR OVC007 16/14 A2996 RMK AO2=
201204201113 SPECI KATL 201113Z 08006KT 4SM BR BKN007 OVC013 16/14 A2995 RMK AO2=
201204201113 SPECI KATL 201113Z 08006KT 4SM BR BKN007 OVC013 16/14 A2995 RMK AO2=
201204201052 METAR KATL 201052Z 00000KT 4SM BR SCT007 OVC013 16/14 A2994 RMK AO2 DZE34 SLP135 P0000 T01560144=
201204201034 SPECI KATL 201034Z 08003KT 4SM BR BKN007 OVC011 16/14 A2994 RMK AO2 DZE34 CIG 005V009 P0000=
201204201034 SPECI KATL 201034Z 08003KT 4SM BR BKN007 OVC011 16/14 A2994 RMK AO2 DZE34 CIG 005V009 P0000=
201204200952 METAR KATL 200952Z 11005KT 2 1/2SM -DZ BR OVC005 15/14 A2994 RMK AO2 CIG 003V008 SLP133 P0000 T01500144=
201204200852 METAR KATL 200852Z 12006KT 2SM -DZ BR BKN007 OVC011 15/14 A2994 RMK AO2 DZB50 CIG 005V010 SLP133 P0000 60000 T01500139 57013=
201204200752 METAR KATL 200752Z 10007KT 7SM OVC009 16/14 A2995 RMK AO2 CIG 006V010 SLP138 T01560139=
201204200652 METAR KATL 200652Z 13009KT 7SM OVC007 16/14 A2996 RMK AO2 SLP142 T01560139=
201204200552 METAR KATL 200552Z 12009KT 9SM OVC009 16/14 A2998 RMK AO2 SLP147 T01610139 10183 20161 58009=
201204200532 SPECI KATL 200532Z 11009KT 10SM BKN009 16/14 A2998 RMK AO2=
201204200532 SPECI KATL 200532Z 11009KT 10SM BKN009 16/14 A2998 RMK AO2=
201204200452 METAR KATL 200452Z 11009KT 10SM BKN010 17/14 A2999 RMK AO2 SLP152 CIG 008V014 T01670139 402060133=
201204200352 METAR KATL 200352Z 10006KT 10SM OVC010 17/14 A3000 RMK AO2 SLP154 CIG 008V014 T01670144=
201204200252 METAR KATL 200252Z 10005KT 10SM BKN010 BKN045 17/14 A3001 RMK AO2 SLP158 CIG 008V014 T01670144 51010=
201204200214 SPECI KATL 200214Z 11007KT 10SM BKN012 BKN028 OVC045 17/14 A3001 RMK AO2=
201204200214 SPECI KATL 200214Z 11007KT 10SM BKN012 BKN028 OVC045 17/14 A3001 RMK AO2=
201204200152 METAR KATL 200152Z 11007KT 10SM FEW013 BKN028 OVC045 17/14 A3000 RMK AO2 SLP157 T01720144=
201204200052 METAR KATL 200052Z 13003KT 10SM SCT022 OVC027 18/14 A2999 RMK AO2 SLP151 T01830144=
201204192352 METAR KATL 192352Z 14004KT 10SM FEW022 OVC028 18/14 A2997 RMK AO2 SLP147 T01830144 10206 20183 55003=
201204192252 METAR KATL 192252Z 14006KT 10SM BKN027 OVC032 19/14 A2997 RMK AO2 SLP146 T01890139=
201204192152 METAR KATL 192152Z 10005KT 10SM BKN029 BKN070 19/13 A2998 RMK AO2 SLP147 T01940133=
201204192052 METAR KATL 192052Z 11006KT 10SM SCT028 SCT070 19/13 A2998 RMK AO2 SLP150 T01940133 56023=
201204192037 SPECI KATL 192037Z 00000KT 10SM SCT027 SCT070 20/13 A2999 RMK AO2=
201204192037 SPECI KATL 192037Z 00000KT 10SM SCT027 SCT070 20/13 A2999 RMK AO2=
201204191952 METAR KATL 191952Z 08007KT 10SM BKN025 BKN070 19/13 A3001 RMK AO2 SLP157 T01940133=
201204191852 METAR KATL 191852Z 04006KT 10SM BKN024 BKN070 BKN090 19/13 A3003 RMK AO2 SLP166 T01940128=
201204191752 METAR KATL 191752Z 08004KT 10SM BKN020 19/13 A3005 RMK AO2 SLP174 T01890133 10189 20139 58005=
201204191652 METAR KATL 191652Z 04008KT 10SM OVC015 17/12 A3006 RMK AO2 SLP178 BINOVC T01670122=
201204191552 METAR KATL 191552Z 10004KT 10SM OVC015 16/12 A3007 RMK AO2 SLP181 T01610117=
201204191452 METAR KATL 191452Z 04009KT 10SM OVC013 16/12 A3007 RMK AO2 SLP180 T01560117 53005=
201204191352 METAR KATL 191352Z 06012KT 8SM OVC011 15/12 A3006 RMK AO2 SLP176 T01500117=
201204191252 METAR KATL 191252Z 06010KT 7SM OVC011 14/12 A3006 RMK AO2 SLP176 BINOVC T01440117=
201204191220 SPECI KATL 191220Z 06010KT 7SM FEW008 BKN011 OVC085 14/11 A3006 RMK AO2=
201204191220 SPECI KATL 191220Z 06010KT 7SM FEW008 BKN011 OVC085 14/11 A3006 RMK AO2=
201204191152 METAR KATL 191152Z 07006KT 7SM OVC008 14/12 A3005 RMK AO2 CIG 007V013 SLP175 70009 T01390117 10139 20133 53009=
201204191052 METAR KATL 191052Z 08007KT 7SM OVC008 13/12 A3003 RMK AO2 CIG 007V010 SLP167 T01330117=
201204190952 METAR KATL 190952Z 08008KT 7SM OVC006 13/12 A3003 RMK AO2 SLP164 CIG 005V009 T01330117=
201204190911 SPECI KATL 190911Z 07009KT 7SM OVC006 13/12 A3003 RMK AO2=
201204190911 SPECI KATL 190911Z 07009KT 7SM OVC006 13/12 A3003 RMK AO2=
201204190852 METAR KATL 190852Z 07007KT 1SM BR OVC004 13/12 A3003 RMK AO2 SFC VIS 5 SLP165 T01330122 55007=
201204190829 SPECI KATL 190829Z 07009KT 1SM BR OVC004 13/12 A3002 RMK AO2 SFC VIS 5=
201204190829 SPECI KATL 190829Z 07009KT 1SM BR OVC004 13/12 A3002 RMK AO2 SFC VIS 5=
201204190752 METAR KATL 190752Z 06009KT 1SM OVC006 14/12 A3002 RMK AO2 SFC VIS 7 SLP163 CIG 004V008 T01390122=
201204190721 SPECI KATL 190721Z 08008KT 1SM OVC005 14/12 A3003 RMK AO2 SFC VIS 7=
201204190721 SPECI KATL 190721Z 08008KT 1SM OVC005 14/12 A3003 RMK AO2 SFC VIS 7=
201204190652 METAR KATL 190652Z 08008KT 1SM BR OVC004 14/12 A3004 RMK AO2 SFC VIS 6 SLP167 TWRINC T01390122=
201204190552 METAR KATL 190552Z 08007KT 1SM BR OVC004 14/13 A3005 RMK AO2 SFC VIS 4 SLP172 TWRINC T01390128 10172 20139 58003=
201204190539 SPECI KATL 190539Z 09009KT 1SM BR OVC004 14/13 A3005 RMK AO2 SFC VIS 5=
201204190539 SPECI KATL 190539Z 09009KT 1SM BR OVC004 14/13 A3005 RMK AO2 SFC VIS 5=
201204190534 SPECI KATL 190534Z 09007KT 1SM BR OVC005 14/13 A3005 RMK AO2 SFC VIS 5 CIG 004V007=
201204190534 SPECI KATL 190534Z 09007KT 1SM BR OVC005 14/13 A3005 RMK AO2 SFC VIS 5 CIG 004V007=
201204190452 METAR KATL 190452Z 06008KT 3SM OVC005 14/13 A3006 RMK AO2 SFC VIS 10 SLP177 CIG 004V007 T01440133 402000144=
201204190426 SPECI KATL 190426Z 07008KT 3SM OVC005 15/13 A3006 RMK AO2 SFC VIS 10 CIG 004V007=
201204190426 SPECI KATL 190426Z 07008KT 3SM OVC005 15/13 A3006 RMK AO2 SFC VIS 10 CIG 004V007=
201204190352 METAR KATL 190352Z 04007KT 10SM OVC007 15/13 A3007 RMK AO2 SLP178 CIG 005V009 T01500133=
201204190252 METAR KATL 190252Z 09009KT 10SM OVC008 16/14 A3006 RMK AO2 SLP176 CIG 006V010 T01560139 51009=
201204190152 METAR KATL 190152Z 08008KT 10SM BKN010 OVC045 16/14 A3006 RMK AO2 SLP176 CIG 008V012 T01610139=
201204190052 METAR KATL 190052Z 08008KT 10SM BKN009 BKN045 OVC080 17/14 A3004 RMK AO2 SLP170 T01670144=
201204190039 SPECI KATL 190039Z 07009KT 10SM BKN009 BKN040 BKN080 17/14 A3004 RMK AO2=
201204190039 SPECI KATL 190039Z 07009KT 10SM BKN009 BKN040 BKN080 17/14 A3004 RMK AO2=
201204190020 SPECI KATL 190020Z 08009KT 10SM SCT012 BKN035 BKN080 17/14 A3003 RMK AO2=
201204190020 SPECI KATL 190020Z 08009KT 10SM SCT012 BKN035 BKN080 17/14 A3003 RMK AO2=
201204182352 METAR KATL 182352Z 08008KT 10SM BKN012 BKN035 OVC080 17/15 A3003 RMK AO2 SLP167 T01720150 10200 20172 53003=
201204182331 SPECI KATL 182331Z 09008KT 10SM BKN012 BKN040 OVC075 18/15 A3003 RMK AO2=
201204182331 SPECI KATL 182331Z 09008KT 10SM BKN012 BKN040 OVC075 18/15 A3003 RMK AO2=
201204182252 METAR KATL 182252Z 10007KT 10SM FEW018 SCT040 BKN060 18/15 A3002 RMK AO2 SLP163 T01830150=
201204182152 METAR KATL 182152Z 07010KT 10SM SCT018 BKN035 BKN050 19/15 A3003 RMK AO2 SLP163 T01940150=
201204182052 METAR KATL 182052Z 08006KT 10SM FEW020 BKN040 BKN060 19/15 A3002 RMK AO2 SLP162 TCU DSNT NW T01940150 58015=
201204182004 SPECI KATL 182004Z 08006KT 10SM FEW015 BKN029 BKN065 19/16 A3003 RMK AO2=
201204182004 SPECI KATL 182004Z 08006KT 10SM FEW015 BKN029 BKN065 19/16 A3003 RMK AO2=
201204181952 METAR KATL 181952Z 07007KT 10SM FEW017 BKN030 BKN060 19/16 A3004 RMK AO2 SLP167 CB DSNT NW T01940156=
201204181901 SPECI KATL 181901Z 13003KT 10SM FEW017 BKN030 BKN075 19/15 A3006 RMK AO2=
201204181901 SPECI KATL 181901Z 13003KT 10SM FEW017 BKN030 BKN075 19/15 A3006 RMK AO2=
201204181852 METAR KATL 181852Z 09005KT 10SM FEW015 BKN027 BKN075 19/15 A3006 RMK AO2 SLP175 T01890150=
201204181752 METAR KATL 181752Z 12006KT 6SM BR FEW008 BKN020 OVC060 18/16 A3007 RMK AO2 RAE05 SLP179 P0001 60009 T01780156 10178 20161 56003=
201204181652 METAR KATL 181652Z 10005KT 6SM -RA BR FEW007 BKN010 OVC060 17/16 A3007 RMK AO2 RAB28 SLP179 BINOVC DSNT NW P0000 T01720156=
201204181552 METAR KATL 181552Z 13007KT 6SM BR BKN007 BKN013 OVC060 17/16 A3008 RMK AO2 RAE51 SLP181 P0005 T01720156=
201204181531 SPECI KATL 181531Z 11007KT 6SM -RA BR FEW007 BKN011 OVC060 17/16 A3008 RMK AO2 P0004=
201204181531 SPECI KATL 181531Z 11007KT 6SM -RA BR FEW007 BKN011 OVC060 17/16 A3008 RMK AO2 P0004=
201204181452 METAR KATL 181452Z COR 11007KT 3SM -RA BR BKN005 BKN007 OVC010 17/16 A3008 RMK AO2 SFC VIS 5 RAB16 SLP182 P0002 60003 T01670156 50004=
201204181352 METAR KATL 181352Z 08006KT 3SM BR FEW005 BKN007 OVC010 17/15 A3009 RMK AO2 SFC VIS 6 RAE06B26E49 SLP184 P0001 T01670150=
201204181252 METAR KATL 181252Z 06005KT 3SM -RA BR BKN007 OVC012 17/15 A3008 RMK AO2 SFC VIS 6 SLP181 P0000 T01670150=
201204181152 METAR KATL 181152Z 34007KT 3SM -RA BR BKN005 OVC070 16/16 A3007 RMK AO2 SFC VIS 6 RAB1056 SLP178 P0002 60160 70160 T01610156 10167 20150 53006=
201204181115 SPECI KATL 181115Z 04008KT 3SM BR BKN005 OVC070 16/15 A3004 RMK AO2 SFC VIS 6 RAB1056E07 P0000=
201204181115 SPECI KATL 181115Z 04008KT 3SM BR BKN005 OVC070 16/15 A3004 RMK AO2 SFC VIS 6 RAB1056E07 P0000=
201204181052 METAR KATL 181052Z 04007KT 3SM BR SCT005 BKN070 OVC090 16/15 A3003 RMK AO2 SFC VIS 6 RAE43 SLP165 P0002 T01610150=
201204180952 METAR KATL 180952Z 05010KT 3SM -RA BR FEW007 BKN070 OVC100 16/15 A3003 RMK AO2 SFC VIS 6 SLP163 P0009 T01610150 $=
201204180852 METAR KATL 180852Z 02007KT 3SM RA BR FEW009 BKN047 OVC065 16/14 A3005 RMK AO2 SLP169 P0066 60147 T01560144 56004 $=
201204180847 SPECI KATL 180847Z 35006KT 2 1/2SM +RA BR FEW009 BKN043 OVC070 15/14 A3005 RMK AO2 TWR VIS 3 P0064 $=
201204180847 SPECI KATL 180847Z 35006KT 2 1/2SM +RA BR FEW009 BKN043 OVC070 15/14 A3005 RMK AO2 TWR VIS 3 P0064 $=
201204180821 SPECI KATL 180821Z 32008KT 3SM RA BR FEW029 BKN033 OVC070 15/14 A3006 RMK AO2 P0051 $=
201204180821 SPECI KATL 180821Z 32008KT 3SM RA BR FEW029 BKN033 OVC070 15/14 A3006 RMK AO2 P0051 $=
201204180757 SPECI KATL 180757Z 32005KT 1 1/2SM R09R/6000VP6000FT +RA BR FEW004 BKN017 OVC041 15/14 A3005 RMK AO2 TWR VIS 3 P0011 $=
201204180757 SPECI KATL 180757Z 32005KT 1 1/2SM R09R/6000VP6000FT +RA BR FEW004 BKN017 OVC041 15/14 A3005 RMK AO2 TWR VIS 3 P0011 $=
201204180754 SPECI KATL 180754Z 28006KT 2 1/2SM +RA BR FEW004 BKN030 OVC037 15/14 A3005 RMK AO2 TWR VIS 3 P0003 $=
201204180754 SPECI KATL 180754Z 28006KT 2 1/2SM +RA BR FEW004 BKN030 OVC037 15/14 A3005 RMK AO2 TWR VIS 3 P0003 $=
201204180752 METAR KATL 180752Z 27007KT 3SM +RA BR FEW004 BKN030 OVC041 15/14 A3005 RMK AO2 SFC VIS 3 SLP170 P0073 T01500144 $=
201204180746 SPECI KATL 180746Z 32009KT 3SM -RA BR FEW004 BKN031 OVC041 15/14 A3005 RMK AO2 SFC VIS 5 P0071 $=
201204180746 SPECI KATL 180746Z 32009KT 3SM -RA BR FEW004 BKN031 OVC041 15/14 A3005 RMK AO2 SFC VIS 5 P0071 $=
201204180742 SPECI KATL 180742Z 34009KT 2 1/2SM R09R/3500VP6000FT RA BR FEW004 BKN022 OVC043 15/14 A3005 RMK AO2 TWR VIS 3 P0071 $=
201204180742 SPECI KATL 180742Z 34009KT 2 1/2SM R09R/3500VP6000FT RA BR FEW004 BKN022 OVC043 15/14 A3005 RMK AO2 TWR VIS 3 P0071 $=
201204180732 SPECI KATL 180732Z 32013KT 3/4SM R09R/3000VP6000FT +RA BR FEW004 BKN017 OVC045 15/14 A3005 RMK AO2 TWR VIS 3 P0044 $=
201204180732 SPECI KATL 180732Z 32013KT 3/4SM R09R/3000VP6000FT +RA BR FEW004 BKN017 OVC045 15/14 A3005 RMK AO2 TWR VIS 3 P0044 $=
201204180725 SPECI KATL 180725Z 20010KT 2 1/2SM +RA BR SCT004 BKN015 OVC045 16/14 A3007 RMK AO2 TWR VIS 3 P0011 $=
201204180725 SPECI KATL 180725Z 20010KT 2 1/2SM +RA BR SCT004 BKN015 OVC045 16/14 A3007 RMK AO2 TWR VIS 3 P0011 $=
201204180722 SPECI KATL 180722Z 24008KT 3SM +RA BR FEW004 BKN032 OVC047 15/14 A3005 RMK AO2 P0009 $=
201204180722 SPECI KATL 180722Z 24008KT 3SM +RA BR FEW004 BKN032 OVC047 15/14 A3005 RMK AO2 P0009 $=
201204180706 SPECI KATL 180706Z 34007KT 3SM -RA BR SCT004 BKN014 OVC036 15/14 A3005 RMK AO2 SFC VIS 4 P0001=
201204180706 SPECI KATL 180706Z 34007KT 3SM -RA BR SCT004 BKN014 OVC036 15/14 A3005 RMK AO2 SFC VIS 4 P0001=
201204180652 METAR KATL 180652Z 32007KT 6SM -RA BR BKN038 BKN047 OVC060 15/14 A3005 RMK AO2 RAB0554 SLP169 P0008 T01500144=
201204180552 METAR KATL 180552Z 34007KT 10SM FEW070 BKN110 OVC200 16/13 A3006 RMK AO2 SLP173 T01560133 10194 20156 58011=
201204180452 METAR KATL 180452Z 33008KT 10SM FEW060 BKN100 OVC200 16/14 A3008 RMK AO2 SLP180 T01610139 402720161=
201204180352 METAR KATL 180352Z 31007KT 10SM FEW065 BKN110 OVC200 17/14 A3010 RMK AO2 SLP185 T01670139=
201204180252 METAR KATL 180252Z 33006KT 10SM BKN110 OVC200 17/14 A3010 RMK AO2 SLP185 T01670144 52003=
201204180152 METAR KATL 180152Z 33007KT 10SM FEW010 SCT150 OVC200 17/15 A3010 RMK AO2 SLP187 T01720150=
201204180141 SPECI KATL 180141Z 32007KT 10SM SCT010 BKN150 OVC200 18/15 A3010 RMK AO2=
201204180141 SPECI KATL 180141Z 32007KT 10SM SCT010 BKN150 OVC200 18/15 A3010 RMK AO2=
201204180127 SPECI KATL 180127Z 34008KT 10SM BKN010 BKN030 OVC200 18/16 A3009 RMK AO2=
201204180127 SPECI KATL 180127Z 34008KT 10SM BKN010 BKN030 OVC200 18/16 A3009 RMK AO2=
201204180052 METAR KATL 180052Z 32010KT 10SM FEW010 SCT035 BKN200 BKN250 18/16 A3009 RMK AO2 SLP183 T01830156=
201204172352 METAR KATL 172352Z 35013G17KT 10SM FEW035 SCT120 BKN200 BKN250 19/16 A3009 RMK AO2 SLP183 TCU DSNT E-SE 60000 T01940161 10272 20194 53010=
201204172252 METAR KATL 172252Z COR 33016KT 10SM FEW018 SCT035 OVC250 21/17 A3007 RMK AO2 SLP177 FRQ LTGICCG DSNT NE-E CB DSNT NE-E NW-N TCU DSNT SW-W T02110167=
201204172230 SPECI KATL 172230Z 32015KT 10SM SCT040TCU BKN065 OVC250 22/16 A3007 RMK AO2 FRQ LTGICCG DSNT NE-SE CB DSNT NE-SE NW TCU SW-NW=
201204172230 SPECI KATL 172230Z 32015KT 10SM SCT040TCU BKN065 OVC250 22/16 A3007 RMK AO2 FRQ LTGICCG DSNT NE-SE CB DSNT NE-SE NW TCU SW-NW=
201204172152 METAR KATL 172152Z 28008KT 10SM SCT045TCU BKN060 OVC250 25/16 A3006 RMK AO2 SLP172 TCU N-E-SE W-NW T02500156=
201204172052 METAR KATL 172052Z VRB03KT 10SM FEW045TCU SCT075 BKN230 26/15 A3006 RMK AO2 TSB29E48RAB23E29 SLP171 FRQ LTGICCG DSNT NE TS MOV NE CB DSNT N-NE-E TCU SE-S SHRA DSNT N-NE-E P0000 60000 T02610150 58028=
201204172049 SPECI KATL 172049Z 29007KT 10SM FEW040TCU SCT075 BKN230 27/15 A3006 RMK AO2 TSB29E48RAB23E29 FRQ LTGICCG DSNT NE TS MOV NE CB DSNT N-NE-E TCU SE-S SHRA DSNT N-NE-E P0000=
201204172049 SPECI KATL 172049Z 29007KT 10SM FEW040TCU SCT075 BKN230 27/15 A3006 RMK AO2 TSB29E48RAB23E29 FRQ LTGICCG DSNT NE TS MOV NE CB DSNT N-NE-E TCU SE-S SHRA DSNT N-NE-E P0000=
201204172029 SPECI KATL 172029Z 25009KT 10SM TS FEW045CB BKN075 BKN230 27/16 A3008 RMK AO2 TSB29RAB23E29 OCNL LTGICCG NE TS NE MOV N CB NW MOV N SHRA NE & NW P0000=
201204172029 SPECI KATL 172029Z 25009KT 10SM TS FEW045CB BKN075 BKN230 27/16 A3008 RMK AO2 TSB29RAB23E29 OCNL LTGICCG NE TS NE MOV N CB NW MOV N SHRA NE & NW P0000=
201204172023 SPECI KATL 172023Z 26010KT 10SM -RA FEW040CB SCT070 BKN080 BKN230 26/16 A3008 RMK AO2 RAB23 CB NE & W MOV NE P0000=
201204172023 SPECI KATL 172023Z 26010KT 10SM -RA FEW040CB SCT070 BKN080 BKN230 26/16 A3008 RMK AO2 RAB23 CB NE & W MOV NE P0000=
201204171952 METAR KATL 171952Z 25008KT 10SM FEW050TCU BKN100 BKN230 26/16 A3009 RMK AO2 SLP180 CB DSNT NE & NW TCU SE-S-SW T02560156=
201204171852 METAR KATL 171852Z 22006KT 10SM SCT035TCU SCT075 BKN110 BKN230 25/16 A3013 RMK AO2 SLP195 TCU NE & SE & SW-W T02500156=
201204171752 METAR KATL 171752Z 20006KT 10SM BKN040TCU BKN060 BKN080 26/15 A3014 RMK AO2 SLP201 TCU NE-SE & NW T02560150 10261 20172 58017=
201204171652 METAR KATL 171652Z VRB03KT 10SM BKN030 BKN040 BKN080 25/17 A3016 RMK AO2 SLP207 T02500167=
201204171616 SPECI KATL 171616Z 00000KT 10SM FEW020 SCT040 SCT080 24/18 A3018 RMK AO2=
201204171616 SPECI KATL 171616Z 00000KT 10SM FEW020 SCT040 SCT080 24/18 A3018 RMK AO2=
201204171552 METAR KATL 171552Z 00000KT 10SM BKN020 BKN040 BKN080 24/17 A3020 RMK AO2 SLP218 T02390172=
201204171452 METAR KATL 171452Z 00000KT 9SM FEW014 SCT060 BKN080 22/18 A3020 RMK AO2 SLP221 T02220178 53000=
201204171352 METAR KATL 171352Z 02005KT 3SM BR FEW010 BKN050 BKN060 21/18 A3019 RMK AO2 SFC VIS 5 SLP218 T02060178=
201204171320 SPECI KATL 171320Z 01004KT 3SM BR BCFG FEW009 BKN050 BKN060 20/18 A3020 RMK AO2 SFC VIS 4=
201204171320 SPECI KATL 171320Z 01004KT 3SM BR BCFG FEW009 BKN050 BKN060 20/18 A3020 RMK AO2 SFC VIS 4=
201204171252 METAR KATL 171252Z 00000KT 3SM BR FEW004 BKN055 BKN065 19/17 A3019 RMK AO2 SFC VIS 4 SLP219 T01890172=
201204171235 SPECI KATL 171235Z 00000KT 2SM BR SCT002 BKN050 BKN065 18/17 A3020 RMK AO2 SFC VIS 3=
201204171235 SPECI KATL 171235Z 00000KT 2SM BR SCT002 BKN050 BKN065 18/17 A3020 RMK AO2 SFC VIS 3=
201204171217 SPECI KATL 171217Z 00000KT 2SM BR BKN002 OVC060 18/17 A3020 RMK AO2 SFC VIS 2 1/2=
201204171217 SPECI KATL 171217Z 00000KT 2SM BR BKN002 OVC060 18/17 A3020=
201204171200 SPECI KATL 171200Z 30003KT 1SM R09R/P6000FT BR BKN002 BKN028 OVC060 17/17 A3020 RMK AO2 TWR VIS 2=
201204171200 SPECI KATL 171200Z 30003KT 1SM R09R/P6000FT BR BKN002 BKN028 OVC060 17/17 A3020 RMK AO2 TWR VIS 2=
201204171152 METAR KATL 171152Z 00000KT 3/4SM R09R/P6000FT BR BKN002 BKN028 OVC065 17/17 A3020 RMK AO2 RAE1055 SLP220 P0000 60000 T01720167 10183 20167 50009=
201204171146 SPECI KATL 171146Z 00000KT 1SM R09R/4000VP6000FT BR BKN002 BKN028 OVC047 17/17 A3020 RMK AO2 RAE1055 P0000=
201204171146 SPECI KATL 171146Z 00000KT 1SM R09R/4000VP6000FT BR BKN002 BKN028 OVC047 17/17 A3020 RMK AO2 RAE1055 P0000=
201204171137 SPECI KATL 171137Z 32003KT 3SM BR FEW002 BKN028 OVC045 17/17 A3020 RMK AO2 RAE1055 P0000=
201204171137 SPECI KATL 171137Z 32003KT 3SM BR FEW002 BKN028 OVC045 17/17 A3020 RMK AO2 RAE1055 P0000=
201204171134 SPECI KATL 171134Z 33003KT 3SM BR FEW002 BKN045 OVC050 17/17 A3020 RMK AO2 RAE1055 P0000=
201204171134 SPECI KATL 171134Z 33003KT 3SM BR FEW002 BKN045 OVC050 17/17 A3020 RMK AO2 RAE1055 P0000=
201204171052 METAR KATL 171052Z 00000KT 6SM -RA BR FEW019 BKN045 OVC080 18/17 A3018 RMK AO2 RAB09 SLP214 P0000 T01780167=
201204170952 METAR KATL 170952Z 00000KT 6SM BR BKN043 OVC060 18/17 A3017 RMK AO2 SLP211 T01780167=
201204170852 METAR KATL 170852Z 00000KT 7SM FEW055 SCT100 BKN250 17/16 A3015 RMK AO2 SLP204 T01720161 56008=
201204170752 METAR KATL 170752Z 00000KT 8SM SCT090 18/17 A3016 RMK AO2 SLP205 T01830167=
201204170652 METAR KATL 170652Z 34003KT 8SM SCT055 BKN120 18/17 A3016 RMK AO2 SLP208 T01780167=
201204170552 METAR KATL 170552Z 34004KT 7SM SCT110 BKN250 18/16 A3018 RMK AO2 SLP212 T01780161 10211 20178 58009=
201204170452 METAR KATL 170452Z 31005KT 10SM FEW070 SCT110 BKN250 18/16 A3020 RMK AO2 SLP219 T01780161 402280161=
201204170352 METAR KATL 170352Z 30007KT 10SM BKN070 BKN120 BKN250 18/16 A3020 RMK AO2 SLP222 T01830161=
201204170252 METAR KATL 170252Z 00000KT 10SM FEW120 BKN250 19/17 A3020 RMK AO2 SLP222 T01890167 53011=
201204170152 METAR KATL 170152Z 00000KT 10SM SCT110 BKN250 19/17 A3019 RMK AO2 SLP218 T01940167=
201204170052 METAR KATL 170052Z 16004KT 10SM BKN120 BKN250 21/17 A3018 RMK AO2 SLP213 T02060167=
201204162352 METAR KATL 162352Z 18005KT 10SM BKN110 BKN200 BKN250 21/17 A3017 RMK AO2 RAB2253E05 SLP211 P0000 60000 T02110167 10228 20206 58010=
201204162252 METAR KATL 162252Z 22004KT 10SM FEW028 BKN100 OVC200 22/16 A3019 RMK AO2 SLP217 SHRA NW T02220156=
201204162152 METAR KATL 162152Z VRB05KT 10SM FEW028 SCT050 BKN100 BKN200 23/16 A3020 RMK AO2 SLP219 T02280161=
201204162052 METAR KATL 162052Z 21005KT 10SM FEW025 SCT065 BKN080 BKN250 21/16 A3020 RMK AO2 RAB17E38 SLP221 SHRA NE-E P0000 60000 T02110161 56012=
201204161952 METAR KATL 161952Z 21010KT 10SM FEW030 BKN080 BKN090 22/16 A3020 RMK AO2 RAE1858 SLP221 P0000 T02170156=
201204161852 METAR KATL 161852Z 22014G18KT 10SM -RA FEW040 BKN080 BKN090 21/16 A3022 RMK AO2 RAE01B20 SLP229 P0000 T02060161=
201204161752 METAR KATL 161752Z 23013G19KT 10SM -RA BKN040 BKN070 OVC110 22/16 A3023 RMK AO2 RAB42 SLP232 P0000 60000 T02220156 10228 20167=
201204161652 METAR KATL 161652Z 20008KT 10SM BKN038 BKN065 OVC080 22/14 A3024 RMK AO2 SLP235 SHRA DSNT NE-E & SW-W T02220144=
201204161552 METAR KATL 161552Z 21009KT 10SM FEW055 BKN065 OVC080 22/14 A3025 RMK AO2 SLP237 SHRA DSNT N-NE-E T02170139 $=
201204161452 METAR KATL 161452Z 23010KT 10SM FEW060 BKN070 BKN080 22/14 A3024 RMK AO2 SLP232 T02220139 51015=
201204161352 METAR KATL 161352Z 20007KT 10SM FEW050 BKN070 BKN080 21/14 A3022 RMK AO2 SLP227 SHRA DSNT N T02060139=
201204161252 METAR KATL 161252Z 19006KT 10SM SCT080 SCT250 19/14 A3021 RMK AO2 SLP223 T01890144=
201204161152 METAR KATL 161152Z 19007KT 10SM FEW060 16/14 A3019 RMK AO2 SLP217 T01610144 10189 20161 53012=
201204161052 METAR KATL 161052Z 16007KT 10SM FEW250 16/14 A3017 RMK AO2 SLP208 T01610144=
201204160952 METAR KATL 160952Z 19005KT 10SM BKN060 17/14 A3017 RMK AO2 SLP208 T01670144=
201204160852 METAR KATL 160852Z 17006KT 10SM SCT060 17/14 A3015 RMK AO2 SLP204 T01670144 53004=
201204160752 METAR KATL 160752Z 17007KT 10SM CLR 17/14 A3014 RMK AO2 SLP197 T01720144=
201204160652 METAR KATL 160652Z 17006KT 10SM CLR 18/14 A3013 RMK AO2 SLP194 T01780139=
201204160552 METAR KATL 160552Z 17008KT 10SM CLR 19/14 A3014 RMK AO2 SLP199 T01890144 10244 20189 56007=
201204160452 METAR KATL 160452Z 15006KT 10SM FEW060 19/14 A3015 RMK AO2 SLP203 T01940139 402720139=
201204160352 METAR KATL 160352Z 16007KT 10SM FEW060 21/14 A3015 RMK AO2 SLP203 T02060139=
201204160252 METAR KATL 160252Z 17006KT 10SM FEW070 21/14 A3016 RMK AO2 SLP207 T02060144 51009=
201204160152 METAR KATL 160152Z 15006KT 10SM CLR 22/14 A3015 RMK AO2 SLP205 T02170144=
201204160052 METAR KATL 160052Z 14005KT 10SM FEW070 23/14 A3014 RMK AO2 SLP201 T02330144=
201204152352 METAR KATL 152352Z 18009KT 10SM FEW070 24/14 A3013 RMK AO2 SLP198 T02440139 10272 20239 56012=
201204152252 METAR KATL 152252Z 20009KT 10SM FEW055 SCT075 26/14 A3013 RMK AO2 SLP198 T02560139=
201204152152 METAR KATL 152152Z 20007KT 10SM FEW055 SCT070 26/14 A3015 RMK AO2 SLP203 T02610139=
201204152052 METAR KATL 152052Z 19008KT 10SM FEW050 OVC070 26/13 A3017 RMK AO2 SLP210 T02560133 55012=
201204151952 METAR KATL 151952Z 23012G18KT 10SM SCT048 BKN065 27/14 A3016 RMK AO2 SLP207 T02670144=
201204151852 METAR KATL 151852Z 19011G17KT 10SM SCT044 BKN060 27/15 A3019 RMK AO2 SLP216 T02670150=
201204151752 METAR KATL 151752Z 19009G17KT 10SM BKN037 BKN055 24/14 A3020 RMK AO2 SLP222 T02390144 10250 20156 58006=
201204151652 METAR KATL 151652Z 20011KT 10SM FEW035 BKN045 BKN050 23/16 A3022 RMK AO2 SLP228 T02330156=
201204151552 METAR KATL 151552Z 21010KT 10SM FEW020 SCT037 BKN046 22/16 A3023 RMK AO2 SLP230 T02220156=
201204151533 SPECI KATL 151533Z 20011G18KT 10SM FEW021 SCT027 BKN035 22/16 A3023 RMK AO2=
201204151533 SPECI KATL 151533Z 20011G18KT 10SM FEW021 SCT027 BKN035 22/16 A3023 RMK AO2=
201204151452 METAR KATL 151452Z 21008KT 10SM BKN016 OVC026 21/16 A3022 RMK AO2 SLP228 T02060161 53014=
201204151432 SPECI KATL 151432Z 20014G17KT 10SM BKN016 BKN021 BKN042 20/16 A3022 RMK AO2=
201204151432 SPECI KATL 151432Z 20014G17KT 10SM BKN016 BKN021 BKN042 20/16 A3022 RMK AO2=
201204151352 METAR KATL 151352Z COR 20014G22KT 10SM BKN012 BKN045 19/16 A3020 RMK AO2 SLP222 BKN012 V SCT T01890156=
201204151252 METAR KATL 151252Z 19008KT 10SM SCT015 BKN045 18/14 A3019 RMK AO2 SLP216 T01780139=
201204151239 SPECI KATL 151239Z 19007KT 10SM BKN015 BKN024 17/13 A3018 RMK AO2=
201204151239 SPECI KATL 151239Z 19007KT 10SM BKN015 BKN024 17/13 A3018 RMK AO2=
201204151159 SPECI KATL 151159Z 19007KT 10SM BKN013 BKN024 BKN048 16/13 A3018 RMK AO2=
201204151159 SPECI KATL 151159Z 19007KT 10SM BKN013 BKN024 BKN048 16/13 A3018=
201204151152 METAR KATL 151152Z 19007KT 10SM SCT013 BKN026 BKN048 16/13 A3018 RMK AO2 SLP215 T01560128 10172 20139 53010=
201204151139 SPECI KATL 151139Z 18005KT 10SM FEW013 BKN026 BKN048 14/12 A3017 RMK AO2=
201204151139 SPECI KATL 151139Z 18005KT 10SM FEW013 BKN026 BKN048 14/12 A3017 RMK AO2=
201204151052 METAR KATL 151052Z VRB03KT 10SM BKN050 14/11 A3017 RMK AO2 SLP209 T01440106=
201204150952 METAR KATL 150952Z 15003KT 10SM CLR 14/10 A3015 RMK AO2 SLP205 T01440100=
201204150852 METAR KATL 150852Z 14003KT 10SM CLR 15/08 A3015 RMK AO2 SLP204 T01500083 56008=
201204150752 METAR KATL 150752Z 14004KT 10SM CLR 16/07 A3015 RMK AO2 SLP204 T01560067=
201204150652 METAR KATL 150652Z 14003KT 10SM CLR 16/05 A3016 RMK AO2 SLP207 T01610050=
201204150552 METAR KATL 150552Z 14004KT 10SM CLR 17/05 A3018 RMK AO2 SLP212 T01670050 10222 20167 58005=
201204150452 METAR KATL 150452Z 14003KT 10SM CLR 17/05 A3018 RMK AO2 SLP215 T01720050 402500100=
201204150352 METAR KATL 150352Z 15004KT 10SM CLR 18/05 A3019 RMK AO2 SLP217 T01780050=
201204150252 METAR KATL 150252Z 14005KT 10SM CLR 19/06 A3019 RMK AO2 SLP218 T01890056 50007=
201204150152 METAR KATL 150152Z 14004KT 10SM FEW250 19/06 A3019 RMK AO2 SLP219 T01940061=
201204150052 METAR KATL 150052Z 14004KT 10SM FEW250 22/06 A3018 RMK AO2 SLP216 T02170061=
201204142352 METAR KATL 142352Z 17007KT 10SM FEW250 22/07 A3017 RMK AO2 SLP213 T02220067 10250 20222 56004=
201204142252 METAR KATL 142252Z 16010KT 10SM FEW250 24/06 A3017 RMK AO2 SLP214 T02390061=
201204142152 METAR KATL 142152Z 17011G16KT 10SM FEW250 24/06 A3018 RMK AO2 SLP214 T02440061=
201204142052 METAR KATL 142052Z 19010G16KT 10SM FEW250 24/05 A3018 RMK AO2 SLP216 T02440050 56025=
201204141952 METAR KATL 141952Z 13006G15KT 10SM FEW250 24/04 A3021 RMK AO2 SLP225 T02390044=
201204141852 METAR KATL 141852Z 13007KT 10SM FEW250 24/04 A3023 RMK AO2 SLP233 T02390044=
201204141752 METAR KATL 141752Z VRB05G16KT 10SM FEW250 23/04 A3026 RMK AO2 SLP242 T02280044 10228 20117 58016=
201204141652 METAR KATL 141652Z 15011G15KT 10SM FEW250 23/05 A3029 RMK AO2 SLP251 T02280050=
201204141552 METAR KATL 141552Z 14009G15KT 10SM FEW250 21/05 A3031 RMK AO2 SLP259 T02060050=
201204141452 METAR KATL 141452Z 15013KT 10SM FEW250 19/05 A3031 RMK AO2 SLP259 T01940050 51008=
201204141352 METAR KATL 141352Z 15011KT 10SM FEW250 17/05 A3030 RMK AO2 SLP257 T01720050=
201204141252 METAR KATL 141252Z 15009KT 10SM FEW250 14/07 A3030 RMK AO2 SLP257 T01390072=
201204141152 METAR KATL 141152Z 13004KT 10SM FEW250 12/06 A3028 RMK AO2 SLP253 T01170061 10156 20100 53015=
201204141052 METAR KATL 141052Z COR 11004KT 10SM FEW150 11/06 A3027 RMK AO2 SLP248 T01110061=
201204140952 METAR KATL 140952Z 16005KT 10SM FEW250 12/06 A3025 RMK AO2 SLP238 T01170056=
201204140852 METAR KATL 140852Z 15004KT 10SM CLR 12/05 A3024 RMK AO2 SLP236 T01170050 53001=
201204140752 METAR KATL 140752Z 14004KT 10SM CLR 13/04 A3023 RMK AO2 SLP233 T01280044=
201204140652 METAR KATL 140652Z 13003KT 10SM CLR 14/03 A3023 RMK AO2 SLP234 T01440033=
201204140552 METAR KATL 140552Z 00000KT 10SM FEW250 16/03 A3024 RMK AO2 SLP234 T01560033 10211 20150 50010=
201204140452 METAR KATL 140452Z 12004KT 10SM BKN250 16/03 A3024 RMK AO2 SLP238 T01560033 402330089=
201204140352 METAR KATL 140352Z 15003KT 10SM BKN250 16/04 A3023 RMK AO2 SLP232 T01610039=
201204140252 METAR KATL 140252Z 13004KT 10SM BKN250 17/04 A3021 RMK AO2 SLP225 T01720039 50010=
201204140152 METAR KATL 140152Z 14004KT 10SM FEW250 18/04 A3021 RMK AO2 SLP228 T01780039=
201204140052 METAR KATL 140052Z 14004KT 10SM FEW250 19/03 A3019 RMK AO2 SLP220 T01940028=
201204132352 METAR KATL 132352Z 15005KT 10SM SCT250 21/02 A3018 RMK AO2 SLP217 T02060022 10233 20206 53004=
201204132252 METAR KATL 132252Z 13004KT 10SM SCT250 22/01 A3016 RMK AO2 SLP212 T02220006=
201204132152 METAR KATL 132152Z 14004KT 10SM BKN250 23/01 A3016 RMK AO2 SLP209 T02280011=
201204132052 METAR KATL 132052Z 06005KT 10SM SCT250 23/02 A3017 RMK AO2 SLP212 T02280022 57008=
201204131952 METAR KATL 131952Z 14005KT 10SM FEW250 22/01 A3017 RMK AO2 SLP215 T02170011=
201204131852 METAR KATL 131852Z 06008KT 10SM FEW250 21/02 A3018 RMK AO2 SLP218 T02110022=
201204131752 METAR KATL 131752Z VRB03KT 10SM FEW250 21/02 A3019 RMK AO2 SLP220 T02060017 10211 20089 58008=
201204131652 METAR KATL 131652Z VRB03KT 10SM FEW250 19/02 A3019 RMK AO2 SLP222 T01890017=
201204131552 METAR KATL 131552Z 00000KT 10SM FEW250 19/02 A3021 RMK AO2 SLP229 T01890022=
201204131452 METAR KATL 131452Z 00000KT 10SM FEW250 17/02 A3021 RMK AO2 SLP230 T01720022 50009=
201204131352 METAR KATL 131352Z 00000KT 10SM SCT250 15/01 A3022 RMK AO2 SLP230 T01500011=
201204131252 METAR KATL 131252Z 00000KT 10SM FEW250 13/03 A3020 RMK AO2 SLP227 T01330033=
201204131152 METAR KATL 131152Z 00000KT 10SM BKN250 09/04 A3019 RMK AO2 SLP222 T00890039 10111 20089 53017=
201204131052 METAR KATL 131052Z 00000KT 10SM SCT250 09/03 A3017 RMK AO2 SLP215 T00890028=
201204130952 METAR KATL 130952Z 00000KT 10SM BKN250 09/02 A3014 RMK AO2 SLP206 T00940022=
201204130852 METAR KATL 130852Z 00000KT 10SM BKN250 09/02 A3014 RMK AO2 SLP204 T00940022 56005=
201204130752 METAR KATL 130752Z 31005KT 10SM BKN250 09/02 A3014 RMK AO2 SLP206 T00890022=
201204130652 METAR KATL 130652Z 00000KT 9SM BKN250 11/01 A3014 RMK AO2 SLP205 T01060006=
201204130552 METAR KATL 130552Z 20004KT 10SM BKN250 11/01 A3015 RMK AO2 SLP209 T01110006 10156 20106 58002=
201204130452 METAR KATL 130452Z 20003KT 10SM BKN250 11/01 A3016 RMK AO2 SLP213 T01110006 401830044=
201204130352 METAR KATL 130352Z 00000KT 10SM BKN250 12/00 A3016 RMK AO2 SLP213 T01220000=
201204130252 METAR KATL 130252Z 00000KT 10SM SCT250 13/00 A3016 RMK AO2 SLP213 T01280000 53008=
201204130152 METAR KATL 130152Z 00000KT 10SM SCT250 13/00 A3015 RMK AO2 SLP211 T01330000=
201204130052 METAR KATL 130052Z 18006KT 10SM FEW250 14/00 A3013 RMK AO2 SLP205 T01390000=
201204122352 METAR KATL 122352Z 19005KT 10SM FEW250 16/M01 A3013 RMK AO2 SLP205 T01561011 10183 20150 56001=
201204122252 METAR KATL 122252Z VRB03KT 10SM FEW250 17/M02 A3013 RMK AO2 SLP205 T01721022=
201204122152 METAR KATL 122152Z 00000KT 10SM FEW250 18/M03 A3013 RMK AO2 SLP203 T01831033=
201204122052 METAR KATL 122052Z 00000KT 10SM CLR 18/M03 A3014 RMK AO2 SLP205 T01781033 56024=
201204121952 METAR KATL 121952Z VRB03KT 10SM FEW250 17/M04 A3015 RMK AO2 SLP210 T01671039=
201204121852 METAR KATL 121852Z 08004KT 10SM FEW250 16/M03 A3018 RMK AO2 SLP220 T01611028=
201204121752 METAR KATL 121752Z 00000KT 10SM FEW250 16/M03 A3021 RMK AO2 SLP230 T01561028 10156 20056 58012=
201204121652 METAR KATL 121652Z 00000KT 10SM CLR 14/M03 A3024 RMK AO2 SLP240 T01391028=
201204121552 METAR KATL 121552Z VRB04KT 10SM CLR 13/M03 A3025 RMK AO2 SLP243 T01281028=
201204121452 METAR KATL 121452Z 10007KT 10SM CLR 11/M04 A3025 RMK AO2 SLP243 T01061044 51009=
201204121352 METAR KATL 121352Z 09014KT 10SM CLR 09/M04 A3024 RMK AO2 SLP241 T00941044=
201204121252 METAR KATL 121252Z 09010KT 10SM CLR 08/M04 A3024 RMK AO2 SLP241 T00781039=
201204121152 METAR KATL 121152Z 08008KT 10SM CLR 06/M02 A3022 RMK AO2 SLP234 T00561022 10094 20044 52015=
201204121052 METAR KATL 121052Z 09006KT 10SM CLR 05/M02 A3021 RMK AO2 SLP230 T00501022=
201204120952 METAR KATL 120952Z 08009KT 10SM CLR 07/M02 A3018 RMK AO2 SLP221 T00671022=
201204120852 METAR KATL 120852Z 01005KT 10SM CLR 07/M02 A3017 RMK AO2 SLP216 T00721022 53012=
201204120752 METAR KATL 120752Z 01006KT 10SM CLR 08/M03 A3016 RMK AO2 SLP211 T00781028=
201204120652 METAR KATL 120652Z 01005KT 10SM CLR 09/M03 A3014 RMK AO2 SLP206 T00891028=
201204120552 METAR KATL 120552Z 36008KT 10SM CLR 09/M03 A3014 RMK AO2 SLP204 T00941028 10156 20094 53012=
201204120452 METAR KATL 120452Z 01009KT 10SM CLR 11/M03 A3012 RMK AO2 SLP198 T01061033 401940083=
201204120352 METAR KATL 120352Z 36010KT 10SM CLR 12/M03 A3012 RMK AO2 SLP197 T01171033=
201204120252 METAR KATL 120252Z 34010KT 10SM CLR 12/M04 A3010 RMK AO2 SLP192 T01221039 53018=
201204120152 METAR KATL 120152Z 35009KT 10SM CLR 13/M06 A3008 RMK AO2 SLP187 T01331056=
201204120052 METAR KATL 120052Z 32007KT 10SM FEW250 14/M07 A3006 RMK AO2 SLP178 T01391067=
201204112352 METAR KATL 112352Z 32012KT 10SM FEW250 16/M08 A3005 RMK AO2 SLP174 T01561078 10194 20156 53002=
201204112252 METAR KATL 112252Z 32011KT 10SM FEW250 17/M07 A3004 RMK AO2 PK WND 34026/2157 SLP171 T01721067=
201204112152 METAR KATL 112152Z 33015G23KT 10SM FEW250 18/M07 A3004 RMK AO2 SLP172 T01781072=
201204112052 METAR KATL 112052Z 32014G24KT 10SM FEW250 19/M04 A3004 RMK AO2 SLP170 T01891044 56013=
201204111952 METAR KATL 111952Z 32016G23KT 10SM CLR 18/M04 A3005 RMK AO2 SLP174 T01831044=
201204111852 METAR KATL 111852Z 33014G19KT 10SM CLR 18/M03 A3006 RMK AO2 SLP177 T01831033=
201204111752 METAR KATL 111752Z 31010G21KT 10SM FEW100 17/M04 A3008 RMK AO2 SLP182 T01721039 10172 20083 58013=
201204111652 METAR KATL 111652Z 33009G18KT 10SM FEW250 16/M04 A3009 RMK AO2 SLP189 T01611039=
201204111552 METAR KATL 111552Z 33018G22KT 10SM CLR 15/M06 A3011 RMK AO2 SLP195 T01501056=
201204111452 METAR KATL 111452Z 36013G24KT 10SM CLR 14/M05 A3012 RMK AO2 SLP196 T01391050 51008=
201204111352 METAR KATL 111352Z 35010G20KT 10SM CLR 12/M05 A3011 RMK AO2 SLP195 T01171050=
201204111252 METAR KATL 111252Z 33011KT 10SM CLR 10/M03 A3011 RMK AO2 SLP194 T01001028=
201204111152 METAR KATL 111152Z 32010KT 10SM CLR 08/M03 A3009 RMK AO2 SLP189 T00831028 10150 20083 53022=
201204111052 METAR KATL 111052Z 33009KT 10SM CLR 09/M03 A3007 RMK AO2 SLP179 T00891028=
201204110952 METAR KATL 110952Z 32012KT 10SM CLR 10/M03 A3005 RMK AO2 SLP172 T01001028=
201204110852 METAR KATL 110852Z 32008KT 10SM CLR 11/M01 A3003 RMK AO2 SLP163 T01061011 53004=
201204110752 METAR KATL 110752Z 32010KT 10SM CLR 12/01 A3001 RMK AO2 SLP155 T01220006=
201204110652 METAR KATL 110652Z 31010KT 10SM CLR 14/02 A3000 RMK AO2 SLP151 T01390017=
201204110552 METAR KATL 110552Z 31011KT 10SM CLR 15/02 A3001 RMK AO2 SLP157 60000 T01500022 10189 20144 53001=
201204110452 METAR KATL 110452Z 29009KT 10SM CLR 15/09 A3001 RMK AO2 SLP155 T01500089 402670106=
201204110352 METAR KATL 110352Z 29008KT 10SM CLR 16/10 A3001 RMK AO2 SLP156 T01560100=
201204110252 METAR KATL 110252Z 29008KT 10SM FEW090 17/10 A3001 RMK AO2 SLP157 60000 T01670100 51011=
201204110152 METAR KATL 110152Z 29008KT 10SM FEW080 SCT110 17/11 A3000 RMK AO2 SLP155 T01720106=
201204110052 METAR KATL 110052Z 30008KT 10SM SCT080 BKN120 19/10 A2999 RMK AO2 RAE09 SLP150 P0000 T01890100=
201204102352 METAR KATL 102352Z 31016G21KT 10SM -RA SCT060 BKN080 BKN150 19/10 A2998 RMK AO2 RAB46 SLP149 P0000 60000 T01890100 10267 20189 50006=
201204102252 METAR KATL 102252Z 32012G19KT 10SM BKN095 BKN150 21/09 A2998 RMK AO2 SLP151 VIRGA NW-N T02060089=
201204102152 METAR KATL 102152Z 34018G24KT 10SM FEW075 BKN110 BKN150 22/08 A2997 RMK AO2 WSHFT 2117 SLP145 VIRGA DSNT NW T02220083=
201204102135 SPECI KATL 102135Z 34016G24KT 10SM SCT075 BKN100 BKN250 23/08 A2997 RMK AO2 WSHFT 2117 VIRGA DSNT NW-NE=
201204102135 SPECI KATL 102135Z 34016G24KT 10SM SCT075 BKN100 BKN250 23/08 A2997 RMK AO2 WSHFT 2117 VIRGA DSNT NW-NE=
201204102052 METAR KATL 102052Z 27012G21KT 10SM FEW090 BKN110 BKN250 26/03 A2996 RMK AO2 SLP140 VIRGA DSNT NW-N T02610033 56023=
201204101952 METAR KATL 101952Z 25014G20KT 10SM FEW090 SCT150 SCT250 26/04 A2998 RMK AO2 PK WND 25026/1900 SLP147 T02610039=
201204101852 METAR KATL 101852Z 27008G20KT 10SM FEW085 SCT150 SCT250 26/04 A3001 RMK AO2 SLP155 T02610044=
201204101752 METAR KATL 101752Z 30012G19KT 10SM FEW080 SCT150 SCT250 26/05 A3003 RMK AO2 SLP163 T02560050 10256 20111 58019=
201204101652 METAR KATL 101652Z 28006G14KT 10SM FEW150 SCT250 24/06 A3006 RMK AO2 SLP172 T02440056=
201204101552 METAR KATL 101552Z 28011KT 10SM FEW150 SCT250 22/05 A3008 RMK AO2 SLP180 T02220050=
201204101452 METAR KATL 101452Z 29009KT 10SM FEW150 SCT250 20/03 A3009 RMK AO2 SLP184 T02000028 50003=
201204101352 METAR KATL 101352Z 29006KT 10SM CLR 18/03 A3009 RMK AO2 SLP185 T01830033=
201204101252 METAR KATL 101252Z 27004KT 10SM CLR 15/05 A3009 RMK AO2 SLP186 T01500050=
201204101152 METAR KATL 101152Z 30007KT 10SM FEW250 11/05 A3008 RMK AO2 SLP183 T01110050 10139 20106 53015=
201204101052 METAR KATL 101052Z 31007KT 10SM FEW250 11/04 A3006 RMK AO2 SLP174 T01060044=
201204100952 METAR KATL 100952Z 32008KT 10SM CLR 12/04 A3004 RMK AO2 SLP167 T01170039=
201204100852 METAR KATL 100852Z 30007KT 10SM CLR 12/04 A3003 RMK AO2 SLP165 T01170039 56006=
201204100752 METAR KATL 100752Z 30007KT 10SM CLR 12/04 A3004 RMK AO2 SLP167 T01170039=
201204100652 METAR KATL 100652Z 29007KT 10SM FEW250 12/03 A3004 RMK AO2 SLP169 T01220033=
201204100552 METAR KATL 100552Z 29007KT 10SM FEW250 14/03 A3005 RMK AO2 SLP170 T01390028 10217 20133 58002=
201204100452 METAR KATL 100452Z 28007KT 10SM FEW250 14/03 A3006 RMK AO2 SLP174 T01440028 402670106=
201204100352 METAR KATL 100352Z 29006KT 10SM CLR 16/03 A3006 RMK AO2 SLP173 T01560028=
201204100252 METAR KATL 100252Z 31010KT 10SM CLR 17/03 A3006 RMK AO2 SLP173 T01670028 51014=
201204100152 METAR KATL 100152Z 31011KT 10SM CLR 18/03 A3005 RMK AO2 SLP171 T01830028=
201204100052 METAR KATL 100052Z 31009KT 10SM CLR 20/02 A3003 RMK AO2 SLP164 T02000022=
201204092352 METAR KATL 092352Z 32012KT 10SM FEW200 22/02 A3001 RMK AO2 SLP160 T02170022 10267 20217 55001=
201204092252 METAR KATL 092252Z 30014KT 10SM FEW250 24/02 A3000 RMK AO2 SLP155 T02440017=
201204092152 METAR KATL 092152Z 30014G18KT 10SM CLR 26/M02 A3000 RMK AO2 SLP153 T02561022=
201204092052 METAR KATL 092052Z 29011G21KT 10SM CLR 26/M02 A3002 RMK AO2 SLP159 T02611022 56023=
201204091952 METAR KATL 091952Z 31011KT 10SM CLR 26/M04 A3004 RMK AO2 SLP166 T02561039=
201204091852 METAR KATL 091852Z 29011G16KT 10SM CLR 26/M03 A3006 RMK AO2 SLP174 T02561033=
201204091752 METAR KATL 091752Z 36004KT 10SM CLR 24/M04 A3009 RMK AO2 SLP183 T02441044 10250 20117 58019=
201204091652 METAR KATL 091652Z VRB03KT 10SM CLR 23/01 A3012 RMK AO2 SLP192 T02330006=
201204091552 METAR KATL 091552Z 00000KT 10SM CLR 21/03 A3014 RMK AO2 SLP199 T02110028=
201204091452 METAR KATL 091452Z VRB05KT 10SM CLR 19/03 A3015 RMK AO2 SLP203 T01940033 53008=
201204091352 METAR KATL 091352Z 04005KT 10SM FEW250 17/04 A3014 RMK AO2 SLP200 T01720039=
201204091252 METAR KATL 091252Z 34008KT 10SM FEW250 14/05 A3013 RMK AO2 SLP198 T01440050=
201204091152 METAR KATL 091152Z 33006KT 10SM FEW250 12/06 A3012 RMK AO2 SLP197 T01170061 10167 20106 53014=
201204091052 METAR KATL 091052Z 32007KT 10SM FEW250 12/06 A3010 RMK AO2 SLP188 T01220056=
201204090952 METAR KATL 090952Z 34009KT 10SM SCT250 13/06 A3008 RMK AO2 SLP179 T01330061=
201204090852 METAR KATL 090852Z 32009KT 10SM SCT250 14/07 A3008 RMK AO2 SLP180 T01390072 56007=
201204090752 METAR KATL 090752Z 33007KT 10SM BKN250 14/07 A3009 RMK AO2 SLP182 T01440072=
201204090652 METAR KATL 090652Z 32009KT 10SM SCT250 16/07 A3009 RMK AO2 SLP184 T01560072=
201204090552 METAR KATL 090552Z 32009KT 10SM BKN200 16/08 A3010 RMK AO2 SLP188 T01610083 10222 20161 58001=
201204090452 METAR KATL 090452Z 31006KT 10SM BKN220 17/09 A3011 RMK AO2 SLP190 T01720089 402560117=
201204090352 METAR KATL 090352Z 33007KT 10SM BKN220 18/09 A3011 RMK AO2 SLP189 T01830094=
201204090252 METAR KATL 090252Z 30008G19KT 10SM FEW200 BKN250 19/09 A3010 RMK AO2 SLP188 T01890094 53008=
201204090152 METAR KATL 090152Z 28008KT 10SM BKN250 20/09 A3010 RMK AO2 SLP187 T02000089=
201204090052 METAR KATL 090052Z 29008KT 10SM BKN220 21/08 A3008 RMK AO2 SLP183 T02060083=
201204082352 METAR KATL 082352Z 32008KT 10SM BKN250 22/08 A3008 RMK AO2 SLP182 T02220083 10256 20217 55003=
201204082252 METAR KATL 082252Z 30013G18KT 10SM BKN250 23/06 A3008 RMK AO2 SLP181 T02330061=
201204082152 METAR KATL 082152Z 31011G17KT 10SM BKN250 25/07 A3008 RMK AO2 SLP180 T02500067=
201204082052 METAR KATL 082052Z 28009G17KT 10SM FEW080 BKN250 25/07 A3009 RMK AO2 SLP185 T02500072 56023=
201204081952 METAR KATL 081952Z 28011G16KT 10SM BKN250 25/07 A3011 RMK AO2 SLP190 T02500067=
201204081852 METAR KATL 081852Z 30012G17KT 10SM FEW060 SCT250 24/08 A3014 RMK AO2 SLP200 T02440078=
201204081752 METAR KATL 081752Z 28011G16KT 10SM FEW060 24/08 A3016 RMK AO2 SLP207 T02390083 10244 20122 58015=
201204081652 METAR KATL 081652Z 29008G16KT 10SM FEW050 23/09 A3018 RMK AO2 SLP215 T02330094=
201204081552 METAR KATL 081552Z 30007G14KT 10SM FEW040 22/10 A3020 RMK AO2 SLP222 T02220100=
201204081452 METAR KATL 081452Z 29007KT 10SM FEW250 20/11 A3021 RMK AO2 SLP224 T02000106 58003=
201204081352 METAR KATL 081352Z 29007KT 10SM FEW250 17/09 A3022 RMK AO2 SLP229 T01670089=
201204081252 METAR KATL 081252Z 29006KT 10SM FEW250 15/08 A3022 RMK AO2 SLP231 T01500083=
201204081152 METAR KATL 081152Z 30006KT 10SM FEW150 12/08 A3022 RMK AO2 SLP230 T01220078 10144 20117 53014=
201204081052 METAR KATL 081052Z 29004KT 10SM FEW250 12/07 A3019 RMK AO2 SLP222 T01170072=
201204080952 METAR KATL 080952Z 29004KT 10SM CLR 12/07 A3018 RMK AO2 SLP217 T01220072=
201204080852 METAR KATL 080852Z 29006KT 10SM SCT150 13/08 A3017 RMK AO2 SLP214 T01280078 56001=
201204080752 METAR KATL 080752Z 29007KT 10SM SCT150 14/08 A3018 RMK AO2 SLP215 T01390078=
201204080652 METAR KATL 080652Z 28006KT 10SM FEW070 14/08 A3017 RMK AO2 SLP213 T01390078=
201204080552 METAR KATL 080552Z 00000KT 10SM FEW070 SCT250 14/08 A3018 RMK AO2 SLP215 T01440078 10194 20144 58009=
201204080452 METAR KATL 080452Z 23004KT 10SM FEW070 BKN250 14/08 A3019 RMK AO2 SLP220 T01440078 402280089=
201204080352 METAR KATL 080352Z 00000KT 10SM SCT065 15/07 A3020 RMK AO2 SLP223 T01500072=
201204080252 METAR KATL 080252Z 00000KT 10SM FEW065 17/07 A3021 RMK AO2 SLP226 T01670067 50009=
201204080152 METAR KATL 080152Z 00000KT 10SM FEW065 17/07 A3021 RMK AO2 SLP227 T01720067=
201204080052 METAR KATL 080052Z 28004KT 10SM SCT065 19/06 A3019 RMK AO2 SLP221 T01940061=
201204072352 METAR KATL 072352Z 27005KT 10SM SCT065 19/06 A3018 RMK AO2 SLP217 T01890061 10228 20189 55000=
201204072252 METAR KATL 072252Z 27005KT 10SM SCT065 19/07 A3018 RMK AO2 SLP216 T01940067=
201204072152 METAR KATL 072152Z 28005KT 10SM SCT065 SCT250 21/06 A3018 RMK AO2 SLP218 T02060061=
201204072052 METAR KATL 072052Z 27007KT 240V300 10SM SCT065 BKN250 22/06 A3018 RMK AO2 SLP217 T02220061 56015=
201204071952 METAR KATL 071952Z 00000KT 10SM SCT060 21/06 A3019 RMK AO2 SLP220 T02110056=
201204071852 METAR KATL 071852Z 24006KT 10SM SCT060 21/06 A3021 RMK AO2 SLP227 T02110056=
201204071752 METAR KATL 071752Z 00000KT 10SM SCT055 21/06 A3022 RMK AO2 SLP232 T02110061 10211 20094 58015=
201204071652 METAR KATL 071652Z VRB04KT 10SM SCT050 20/07 A3025 RMK AO2 SLP239 T02000067=
201204071552 METAR KATL 071552Z 00000KT 10SM FEW045 18/05 A3026 RMK AO2 SLP245 T01830050=
201204071452 METAR KATL 071452Z 18003KT 10SM FEW150 17/07 A3027 RMK AO2 SLP248 T01670067 51019=
201204071352 METAR KATL 071352Z 00000KT 10SM FEW150 15/08 A3027 RMK AO2 SLP248 T01500078=
201204071252 METAR KATL 071252Z 30003KT 10SM FEW150 13/08 A3025 RMK AO2 SLP241 T01330083=
201204071152 METAR KATL 071152Z 00000KT 10SM FEW150 09/07 A3021 RMK AO2 SLP230 T00940072 10122 20089 53029=
201204071052 METAR KATL 071052Z 00000KT 10SM FEW150 09/07 A3017 RMK AO2 SLP217 T00940067=
201204070952 METAR KATL 070952Z 00000KT 10SM CLR 10/07 A3015 RMK AO2 SLP206 T01000072=
201204070852 METAR KATL 070852Z 00000KT 10SM CLR 10/08 A3012 RMK AO2 SLP200 T01000078 53003=
201204070752 METAR KATL 070752Z 12003KT 10SM CLR 12/08 A3011 RMK AO2 SLP195 T01170083=
201204070652 METAR KATL 070652Z 00000KT 10SM CLR 12/08 A3011 RMK AO2 SLP196 T01170078=
201204070552 METAR KATL 070552Z 00000KT 10SM CLR 12/08 A3012 RMK AO2 SLP197 T01220083 10172 20117 51014=
201204070452 METAR KATL 070452Z 00000KT 10SM CLR 12/08 A3011 RMK AO2 SLP195 T01220083 401830122=
201204070352 METAR KATL 070352Z 20003KT 10SM CLR 12/08 A3009 RMK AO2 SLP188 T01220083=
201204070252 METAR KATL 070252Z 20003KT 10SM FEW050 13/08 A3007 RMK AO2 SLP182 T01330078 52021=
201204070152 METAR KATL 070152Z 14003KT 10SM CLR 14/08 A3006 RMK AO2 SLP176 T01440078=
201204070052 METAR KATL 070052Z 10006KT 10SM CLR 16/07 A3003 RMK AO2 SLP166 T01560072=
201204062352 METAR KATL 062352Z 00000KT 10SM CLR 17/08 A3001 RMK AO2 SLP159 T01720078 10183 20150 53010=
201204062252 METAR KATL 062252Z VRB04KT 10SM FEW040 18/08 A3000 RMK AO2 SLP155 T01830083=
201204062152 METAR KATL 062152Z 34003KT 10SM BKN042 18/09 A2999 RMK AO2 SLP150 T01830089=
201204062052 METAR KATL 062052Z VRB04KT 10SM BKN035 BKN050 17/08 A2998 RMK AO2 SLP149 T01720078 51005=
201204061952 METAR KATL 061952Z 06007KT 10SM FEW030 BKN050 17/09 A2997 RMK AO2 SLP145 T01720094=
201204061910 SPECI KATL 061910Z 06010KT 10SM FEW027 BKN030 BKN050 17/09 A2997 RMK AO2=
201204061910 SPECI KATL 061910Z 06010KT 10SM FEW027 BKN030 BKN050 17/09 A2997 RMK AO2=
201204061852 METAR KATL 061852Z 07009KT 10SM BKN027 BKN030 OVC050 16/09 A2998 RMK AO2 SLP148 T01560089=
201204061752 METAR KATL 061752Z 10010KT 10SM BKN025 BKN030 OVC050 16/09 A2996 RMK AO2 SLP144 T01560094 10172 20144 51015=
201204061652 METAR KATL 061652Z 06010KT 10SM BKN025 OVC050 16/09 A2995 RMK AO2 SLP137 T01560094=
201204061552 METAR KATL 061552Z 07008KT 10SM BKN025 BKN050 BKN200 16/10 A2994 RMK AO2 SLP136 T01610100=
201204061516 SPECI KATL 061516Z 06009KT 10SM BKN020 BKN030 BKN200 16/11 A2993 RMK AO2=
201204061516 SPECI KATL 061516Z 06009KT 10SM BKN020 BKN030 BKN200 16/11 A2993 RMK AO2=
201204061452 METAR KATL 061452Z 07008KT 10SM FEW017 SCT030 SCT200 16/11 A2992 RMK AO2 SLP128 T01560106 51033=
201204061445 SPECI KATL 061445Z 08010KT 10SM FEW017 SCT030 SCT200 16/11 A2992 RMK AO2=
201204061445 SPECI KATL 061445Z 08010KT 10SM FEW017 SCT030 SCT200 16/11 A2992 RMK AO2=
201204061352 METAR KATL 061352Z 06013KT 10SM BKN017 OVC030 14/09 A2989 RMK AO2 SLP119 BINOVC DSNT NW-N T01440094=
201204061252 METAR KATL 061252Z 02010KT 10SM BKN015 OVC022 14/11 A2986 RMK AO2 SLP107 T01440106=
201204061152 METAR KATL 061152Z 03010KT 10SM OVC018 14/11 A2982 RMK AO2 SLP092 70001 T01440111 10156 20139 53019=
201204061052 METAR KATL 061052Z 02009KT 10SM SCT013 OVC024 14/11 A2979 RMK AO2 SLP082 T01440111=
201204060952 METAR KATL 060952Z 01008KT 10SM OVC016 16/12 A2976 RMK AO2 SLP073 T01560117=
201204060946 SPECI KATL 060946Z 02006KT 10SM OVC016 15/12 A2976 RMK AO2=
201204060946 SPECI KATL 060946Z 02006KT 10SM OVC016 15/12 A2976 RMK AO2=
201204060852 METAR KATL 060852Z 07009KT 10SM OVC014 15/12 A2974 RMK AO2 SLP065 T01500117 53003=
201204060752 METAR KATL 060752Z 03005KT 10SM BKN014 15/12 A2973 RMK AO2 SLP063 T01500117=
201204060750 SPECI KATL 060750Z 35006KT 10SM BKN014 14/12 A2973 RMK AO2=
201204060750 SPECI KATL 060750Z 35006KT 10SM BKN014 14/12 A2973 RMK AO2=
201204060747 SPECI KATL 060747Z 33006KT 10SM BKN016 14/12 A2973 RMK AO2=
201204060747 SPECI KATL 060747Z 33006KT 10SM BKN016 14/12 A2973 RMK AO2=
201204060652 METAR KATL 060652Z 32007KT 10SM FEW020 SCT085 SCT200 14/12 A2973 RMK AO2 SLP060 T01440117=
201204060552 METAR KATL 060552Z 28005KT 10SM FEW110 SCT150 BKN200 14/12 A2972 RMK AO2 SLP060 T01440117 10194 20144 52003=
201204060452 METAR KATL 060452Z 28007KT 10SM FEW100 BKN150 BKN250 16/12 A2972 RMK AO2 SLP059 T01610117 402280156=
201204060352 METAR KATL 060352Z 29010G16KT 10SM BKN150 OVC250 17/12 A2972 RMK AO2 SLP056 T01670117=
201204060252 METAR KATL 060252Z 27006KT 10SM BKN150 BKN250 17/13 A2971 RMK AO2 SLP055 T01720133 53013=
201204060152 METAR KATL 060152Z 25004KT 10SM BKN130 BKN250 17/11 A2971 RMK AO2 SLP053 T01720111=
201204060052 METAR KATL 060052Z 22005KT 10SM FEW120 18/11 A2968 RMK AO2 SLP044 T01780106=
201204052352 METAR KATL 052352Z 23004KT 10SM FEW120 19/11 A2968 RMK AO2 SLP043 60001 T01940106 10228 20194 56013=
201204052252 METAR KATL 052252Z 20009KT 10SM FEW150 21/11 A2968 RMK AO2 SLP044 T02110106=
201204052152 METAR KATL 052152Z 21010KT 10SM FEW120 SCT250 22/10 A2968 RMK AO2 SLP044 T02170100=
201204052052 METAR KATL 052052Z 21008KT 10SM FEW045 SCT070 BKN100 BKN280 21/11 A2972 RMK AO2 RAE36 SLP056 P0000 60001 T02110111 58009=
201204052037 SPECI KATL 052037Z 21007KT 10SM FEW035 SCT100 BKN150 OVC280 21/12 A2972 RMK AO2 RAE36 P0000=
201204052037 SPECI KATL 052037Z 21007KT 10SM FEW035 SCT100 BKN150 OVC280 21/12 A2972 RMK AO2 RAE36 P0000=
201204051952 METAR KATL 051952Z 21005KT 9SM -RA FEW015CB SCT040 BKN080 OVC150 19/16 A2975 RMK AO2 RAB27 SLP069 CB E-SE MOV E P0001 T01940161=
201204051852 METAR KATL 051852Z 28006KT 10SM FEW030 BKN100 OVC150 23/14 A2974 RMK AO2 SLP065 VIRGA NE & S & NW SHRA DSNT S-SW T02280144=
201204051752 METAR KATL 051752Z 32009KT 10SM FEW030 BKN110 BKN150 22/13 A2974 RMK AO2 SLP065 VIRGA W-NW-N T02170133 10228 20172 58009=
201204051652 METAR KATL 051652Z 29009KT 10SM FEW035 BKN150 OVC280 22/14 A2977 RMK AO2 SLP074 VIRGA DSNT NW BINOVC DSNT E T02170139=
201204051552 METAR KATL 051552Z 32011KT 10SM FEW030 BKN150 BKN280 22/15 A2978 RMK AO2 SLP077 T02220150=
201204051452 METAR KATL 051452Z 31011KT 10SM FEW025 BKN150 BKN280 21/14 A2977 RMK AO2 SLP073 T02110144 51004=
201204051352 METAR KATL 051352Z 31009KT 10SM FEW020 SCT150 BKN280 20/15 A2976 RMK AO2 SLP070 T02000150=
201204051252 METAR KATL 051252Z 29009KT 10SM FEW200 BKN250 18/15 A2977 RMK AO2 SLP075 T01830150=
201204051152 METAR KATL 051152Z 29006KT 10SM FEW200 BKN250 17/16 A2976 RMK AO2 SLP068 T01720156 10194 20167 53006=
201204051052 METAR KATL 051052Z 28005KT 10SM SCT250 17/15 A2974 RMK AO2 SLP065 T01670150=
201204050952 METAR KATL 050952Z 27005KT 10SM CLR 17/16 A2974 RMK AO2 SLP062 T01670156=
201204050852 METAR KATL 050852Z 27005KT 10SM CLR 17/16 A2974 RMK AO2 SLP061 T01720156 56007=
201204050752 METAR KATL 050752Z 27008KT 10SM FEW200 18/16 A2974 RMK AO2 SLP061 T01780156=
201204050652 METAR KATL 050652Z 27008KT 10SM BKN200 19/16 A2975 RMK AO2 SLP065 T01890161=
201204050552 METAR KATL 050552Z 24008KT 10SM SCT200 19/16 A2976 RMK AO2 SLP067 60000 T01940161 10256 20194 56008=
201204050452 METAR KATL 050452Z 25005KT 10SM FEW200 19/16 A2976 RMK AO2 SLP069 T01940161 402890172=
201204050352 METAR KATL 050352Z 25007KT 10SM FEW200 SCT250 21/17 A2977 RMK AO2 SLP072 T02060167=
201204050252 METAR KATL 050252Z 25007KT 10SM FEW050 SCT200 BKN250 21/15 A2978 RMK AO2 SLP077 60000 T02110150 50013=
201204050152 METAR KATL 050152Z 33003KT 10SM FEW050 SCT110 BKN250 22/15 A2979 RMK AO2 RAE00 SLP080 P0000 T02170150=
201204050052 METAR KATL 050052Z 27008G22KT 10SM -RA FEW050 SCT100 BKN150 BKN200 23/14 A2977 RMK AO2 RAB49 SLP074 FRQ LTGICCG DSNT NE NW-N P0000 T02280144=
201204042352 METAR KATL 042352Z 25011KT 10SM SCT060 BKN200 BKN250 25/15 A2975 RMK AO2 SLP065 FRQ LTG DSNT NW CB DSNT SW-W NW T02500150 10289 20250 53003=
201204042252 METAR KATL 042252Z 25008KT 10SM FEW060 SCT200 BKN250 27/13 A2973 RMK AO2 SLP059 CB DSNT SW-W T02670133=
201204042152 METAR KATL 042152Z 29005KT 10SM FEW060 SCT200 BKN250 28/14 A2973 RMK AO2 SLP058 T02780139=
201204042052 METAR KATL 042052Z 28008KT 10SM FEW060 SCT200 SCT250 28/14 A2974 RMK AO2 SLP059 T02830139 56034=
201204041952 METAR KATL 041952Z VRB06KT 10SM FEW060 SCT200 SCT250 28/13 A2977 RMK AO2 SLP070 CB DSNT E T02830133=
201204041852 METAR KATL 041852Z 28009KT 10SM FEW060 SCT200 BKN250 28/12 A2981 RMK AO2 SLP083 T02780122=
201204041752 METAR KATL 041752Z 26005KT 10SM FEW045 SCT055 BKN250 27/14 A2984 RMK AO2 SLP094 CB DSNT NE-E T02720139 10272 20178 58016=
201204041652 METAR KATL 041652Z 24007KT 10SM BKN050 BKN200 BKN250 27/14 A2986 RMK AO2 SLP103 T02670144=
201204041552 METAR KATL 041552Z 31009KT 10SM FEW040 SCT200 BKN250 25/15 A2989 RMK AO2 SLP110 T02500150 $=
201204041452 METAR KATL 041452Z 28007KT 10SM FEW030 SCT200 BKN250 24/16 A2989 RMK AO2 SLP111 T02390156 50000 $=
201204041352 METAR KATL 041352Z 26006KT 10SM FEW100 SCT200 BKN250 22/14 A2989 RMK AO2 SLP113 T02170144 $=
201204041252 METAR KATL 041252Z 28005KT 10SM FEW090 BKN250 21/14 A2989 RMK AO2 SLP114 T02060139 $=
201204041152 METAR KATL 041152Z 27003KT 10SM FEW090 SCT150 18/13 A2989 RMK AO2 SLP112 T01780133 10206 20172 58003 $=
201204041052 METAR KATL 041052Z 00000KT 10SM FEW075 SCT090 SCT120 18/14 A2990 RMK AO2 SLP116 T01780139 $=
201204040952 METAR KATL 040952Z 23003KT 10SM OVC110 18/14 A2990 RMK AO2 SLP114 T01830144 $=
201204040852 METAR KATL 040852Z 26003KT 10SM BKN060 BKN100 19/15 A2989 RMK AO2 SLP114 T01940150 58006 $=
201204040752 METAR KATL 040752Z 00000KT 10SM BKN110 21/14 A2990 RMK AO2 SLP114 T02060144 $=
201204040652 METAR KATL 040652Z 00000KT 10SM BKN110 21/14 A2991 RMK AO2 SLP120 T02060144 $=
201204040552 METAR KATL 040552Z 09005KT 10SM FEW065 SCT180 19/14 A2991 RMK AO2 SLP120 T01940144 10267 20194 58008 $=
201204040452 METAR KATL 040452Z COR 04004KT 10SM FEW065 SCT250 21/14 A2992 RMK AO2 SLP123 T02110144 403060172 $=
201204040352 METAR KATL 040352Z 34003KT 10SM SCT065 SCT250 21/14 A2994 RMK AO2 SLP129 T02110144 $=
201204040252 METAR KATL 040252Z 15004KT 10SM SCT065 BKN110 BKN250 22/14 A2994 RMK AO2 SLP129 T02220144 53016 $=
201204040152 METAR KATL 040152Z 07008KT 10SM BKN070 BKN250 24/14 A2993 RMK AO2 SLP124 OCNL LTG DSNT N NE T02390144 $=
201204040052 METAR KATL 040052Z 25003KT 10SM FEW065 SCT250 25/12 A2990 RMK AO2 SLP116 OCNL LTGICCG DSNT NE T02500122 $=
201204032352 METAR KATL 032352Z COR 23004KT 10SM FEW065 SCT250 27/12 A2989 RMK AO2 SLP113 CB DSNT NE TCU DSNT NW-N T02670117 10306 20267 53005 $=
201204032252 METAR KATL 032252Z 23008KT 10SM FEW070 SCT250 28/11 A2987 RMK AO2 SLP105 T02830106 $=
201204032152 METAR KATL 032152Z 24008KT 10SM FEW075 SCT250 29/11 A2986 RMK AO2 SLP102 T02890106 $=
201204032052 METAR KATL 032052Z 21006KT 10SM FEW070 SCT250 29/13 A2987 RMK AO2 SLP107 CB DSNT NE TCU DSNT NE T02940128 56023 $=
201204031952 METAR KATL 031952Z 24010G14KT 10SM FEW065TCU SCT250 29/14 A2989 RMK AO2 SLP113 CB DSNT NE TCU NE-E T02940144 $=
201204031852 METAR KATL 031852Z VRB06KT 10SM SCT060TCU SCT250 28/16 A2992 RMK AO2 SLP124 TCU W-NW-N T02780156=
201204031752 METAR KATL 031752Z 18003KT 10SM SCT048 SCT250 28/17 A2994 RMK AO2 SLP131 TCU DSNT N T02830172 10283 20178 58014 $=
201204031652 METAR KATL 031652Z COR 22004KT 10SM FEW043TCU SCT250 27/17 A2997 RMK AO2 SLP140 TCU NE T02670106=
201204031552 METAR KATL 031552Z 28007KT 10SM FEW040 BKN250 27/17 A2999 RMK AO2 SLP146 T02670172=
201204031452 METAR KATL 031452Z 33005KT 10SM BKN250 25/16 A2999 RMK AO2 SLP145 T02500161 53012=
201204031352 METAR KATL 031352Z 32005KT 10SM BKN250 23/16 A2997 RMK AO2 SLP138 T02280161=
201204031252 METAR KATL 031252Z 33008KT 10SM FEW035 BKN150 21/16 A2996 RMK AO2 SLP137 T02060156=
201204031152 METAR KATL 031152Z 28004KT 8SM FEW070 BKN250 18/15 A2995 RMK AO2 SLP134 T01780150 10206 20172 51009=
201204031052 METAR KATL 031052Z 27003KT 9SM FEW070 SCT250 18/15 A2995 RMK AO2 SLP131 T01830150=
201204030952 METAR KATL 030952Z 25003KT 9SM BKN060 BKN075 18/15 A2994 RMK AO2 SLP129 T01780150=
201204030852 METAR KATL 030852Z 16004KT 10SM BKN130 18/15 A2992 RMK AO2 SLP123 T01780150 51004=
201204030752 METAR KATL 030752Z 12003KT 10SM SCT070 BKN120 19/15 A2992 RMK AO2 SLP123 T01890150=
201204030652 METAR KATL 030652Z 21003KT 10SM FEW250 19/14 A2991 RMK AO2 SLP120 T01890144=
201204030552 METAR KATL 030552Z 00000KT 10SM FEW250 20/15 A2991 RMK AO2 SLP119 T02000150 10261 20200 55000=
201204030452 METAR KATL 030452Z 00000KT 10SM FEW250 21/15 A2991 RMK AO2 SLP118 T02110150 402940178=
201204030352 METAR KATL 030352Z 29007KT 10SM FEW250 21/15 A2991 RMK AO2 SLP119 T02110150=
201204030252 METAR KATL 030252Z 28008KT 10SM FEW250 22/14 A2991 RMK AO2 SLP120 T02220144 51027=
201204030152 METAR KATL 030152Z 27009KT 10SM FEW250 23/14 A2990 RMK AO2 SLP117 T02330144=
201204030052 METAR KATL 030052Z 25006KT 10SM FEW250 24/14 A2986 RMK AO2 SLP103 T02440139=
201204022352 METAR KATL 022352Z 26007KT 10SM FEW250 26/12 A2983 RMK AO2 SLP092 T02610122 10294 20261 56003=
201204022252 METAR KATL 022252Z 28007KT 10SM FEW060 28/13 A2983 RMK AO2 SLP091 T02780128=
201204022152 METAR KATL 022152Z 26008KT 10SM SCT060 28/13 A2983 RMK AO2 SLP091 T02830128=
201204022052 METAR KATL 022052Z 31007KT 10SM FEW055 29/13 A2984 RMK AO2 SLP094 T02890133 56017=
201204021952 METAR KATL 021952Z 32009KT 290V350 10SM FEW055 29/13 A2985 RMK AO2 SLP100 T02890133=
201204021852 METAR KATL 021852Z 29012G19KT 10SM SCT049 28/14 A2987 RMK AO2 SLP106 T02830144=
201204021752 METAR KATL 021752Z 34011KT 10SM SCT043 28/16 A2989 RMK AO2 SLP112 T02780156 10278 20178 58005=
201204021652 METAR KATL 021652Z 31010G20KT 10SM SCT034 27/16 A2991 RMK AO2 SLP119 T02670156=
201204021552 METAR KATL 021552Z 30013G21KT 10SM SCT030 25/16 A2991 RMK AO2 SLP120 T02500161=
201204021452 METAR KATL 021452Z 30015G20KT 10SM FEW028 SCT040 24/17 A2990 RMK AO2 SLP118 T02390167 50010=
201204021352 METAR KATL 021352Z COR 28009KT 10SM FEW040 21/16 A2991 RMK AO2 SLP118 T02110161=
201204021252 METAR KATL 021252Z 28008KT 10SM CLR 19/16 A2990 RMK AO2 SLP116 T01940156=
201204021152 METAR KATL 021152Z 28005KT 10SM FEW025 18/14 A2987 RMK AO2 SLP108 T01780144 10206 20178 53020=
201204021052 METAR KATL 021052Z 28007KT 10SM CLR 18/14 A2985 RMK AO2 SLP100 T01830144=
201204020952 METAR KATL 020952Z 26006KT 10SM CLR 18/14 A2983 RMK AO2 SLP092 T01780144=
201204020852 METAR KATL 020852Z 27004KT 10SM CLR 18/14 A2981 RMK AO2 SLP085 T01830144 55002=
201204020752 METAR KATL 020752Z 27006KT 10SM CLR 19/14 A2981 RMK AO2 SLP084 T01890144=
201204020652 METAR KATL 020652Z 27006KT 10SM CLR 20/14 A2981 RMK AO2 SLP084 T02000144=
201204020552 METAR KATL 020552Z 24007KT 10SM CLR 21/14 A2982 RMK AO2 SLP087 T02060144 10250 20206 58008=
201204020452 METAR KATL 020452Z 25005KT 10SM CLR 21/14 A2983 RMK AO2 SLP091 T02060139 402890144=
201204020352 METAR KATL 020352Z 24006KT 10SM CLR 22/13 A2983 RMK AO2 SLP093 T02170133=
201204020252 METAR KATL 020252Z 23006KT 10SM CLR 22/13 A2984 RMK AO2 SLP097 T02170128 53006=
201204020152 METAR KATL 020152Z 23003KT 10SM CLR 23/12 A2984 RMK AO2 SLP096 T02330117=
201204020052 METAR KATL 020052Z 26005KT 10SM CLR 24/11 A2983 RMK AO2 SLP093 T02390111=
201204012352 METAR KATL 012352Z 27007KT 10SM FEW070 SCT250 25/11 A2982 RMK AO2 SLP093 T02500111 10289 20250 53001=
201204012252 METAR KATL 012252Z 27010G18KT 10SM SCT070 SCT250 27/11 A2982 RMK AO2 SLP092 T02670111=
201204012152 METAR KATL 012152Z 28012KT 10SM SCT075 27/10 A2982 RMK AO2 SLP090 T02720100=
201204012052 METAR KATL 012052Z 29012G18KT 10SM FEW075 28/10 A2982 RMK AO2 SLP090 T02830100 56021=
201204011952 METAR KATL 011952Z 27009KT 10SM FEW065 27/11 A2983 RMK AO2 SLP095 T02720111=
201204011852 METAR KATL 011852Z 25010G15KT 10SM FEW050 28/12 A2986 RMK AO2 SLP104 T02780122=
201204011752 METAR KATL 011752Z COR 31007KT 10SM SCT050 27/14 A2989 RMK AO2 SLP112 T02670144 10278 20150 58011=
201204011652 METAR KATL 011652Z 28007KT 10SM FEW040 26/14 A2991 RMK AO2 SLP120 T02560144=
201204011552 METAR KATL 011552Z 26007KT 10SM FEW040 SCT100 SCT250 24/14 A2993 RMK AO2 SLP127 T02440144=
201204011452 METAR KATL 011452Z 31007KT 10SM FEW040 SCT100 SCT250 23/13 A2992 RMK AO2 SLP125 T02280133 51011=
201204011352 METAR KATL 011352Z 31005KT 10SM SCT250 20/12 A2991 RMK AO2 SLP120 T02000122=
201204011252 METAR KATL 011252Z 31005KT 10SM FEW250 18/11 A2991 RMK AO2 SLP121 T01780111=
