##########################################################
# Query made at 04/19/2024 23:30:37 UTC
# Time interval: from 12/01/2012 12:00  to 12/31/2012 12:59  UTC
##########################################################

##########################################################
# KATL, Atlanta, Hartsfield - Jackson Atlanta International Airport (United States)
# WMO index: 72219. WIGOS ID: 0-20000-0-72219
# Latitude 33-38-59N. Longitude 084-25-00W. Altitude 312 m.
##########################################################

201212311252 METAR KATL 311252Z 00000KT 10SM BKN150 BKN250 01/M04 A3036 RMK AO2 SLP291 T00111039=
201212311152 METAR KATL 311152Z 07003KT 10SM SCT200 BKN250 02/M04 A3038 RMK AO2 SLP295 T00171039 10017 21011 53001=
201212311052 METAR KATL 311052Z 00000KT 10SM FEW150 BKN200 BKN250 01/M03 A3036 RMK AO2 SLP289 T00111033=
201212310952 METAR KATL 310952Z 00000KT 10SM BKN150 02/M04 A3037 RMK AO2 SLP291 T00171044=
201212310852 METAR KATL 310852Z 32004KT 10SM SCT150 BKN180 00/M04 A3037 RMK AO2 SLP293 T00001039 53005=
201212310752 METAR KATL 310752Z 33003KT 10SM SCT180 BKN250 01/M05 A3036 RMK AO2 SLP287 T00061050=
201212310652 METAR KATL 310652Z 00000KT 10SM FEW150 SCT180 BKN250 M01/M05 A3036 RMK AO2 SLP287 T10061050=
201212310552 METAR KATL 310552Z 00000KT 10SM SCT180 01/M06 A3036 RMK AO2 SLP287 T00111056 10039 20006 58004=
201212310452 METAR KATL 310452Z 00000KT 10SM SCT200 01/M05 A3037 RMK AO2 SLP292 T00111050 400831011=
201212310352 METAR KATL 310352Z 34006KT 10SM SCT220 01/M05 A3039 RMK AO2 SLP299 T00061050=
201212310252 METAR KATL 310252Z 36005KT 10SM FEW250 03/M06 A3037 RMK AO2 SLP294 T00281056 58007=
201212310152 METAR KATL 310152Z 33003KT 10SM FEW250 02/M06 A3039 RMK AO2 SLP299 T00221056=
201212310052 METAR KATL 310052Z 33005KT 10SM SCT250 02/M06 A3039 RMK AO2 SLP302 T00221056=
201212302352 METAR KATL 302352Z 34007KT 10SM SCT250 04/M06 A3039 RMK AO2 SLP301 T00391056 10083 20039 51010=
201212302252 METAR KATL 302252Z 33004KT 10SM FEW250 05/M06 A3039 RMK AO2 SLP299 T00501061=
201212302152 METAR KATL 302152Z 32005KT 10SM BKN250 07/M07 A3038 RMK AO2 SLP293 T00721067=
201212302052 METAR KATL 302052Z 34008KT 10SM BKN250 08/M07 A3036 RMK AO2 SLP288 T00781067 56014=
201212301952 METAR KATL 301952Z 31008KT 10SM FEW250 08/M06 A3037 RMK AO2 SLP289 T00781061=
201212301852 METAR KATL 301852Z 32009KT 10SM FEW250 07/M06 A3037 RMK AO2 SLP293 T00721056=
201212301752 METAR KATL 301752Z 31009KT 10SM FEW250 06/M06 A3040 RMK AO2 SLP302 T00561056 10056 21011 58001=
201212301652 METAR KATL 301652Z 31007KT 10SM FEW250 04/M06 A3043 RMK AO2 SLP311 T00391056=
201212301552 METAR KATL 301552Z 34009G17KT 10SM CLR 03/M06 A3043 RMK AO2 SLP312 T00281061=
201212301452 METAR KATL 301452Z 32011KT 10SM FEW250 01/M06 A3040 RMK AO2 SLP305 T00061061 53030=
201212301352 METAR KATL 301352Z 34009KT 10SM CLR M01/M06 A3037 RMK AO2 SLP294 T10061061=
201212301252 METAR KATL 301252Z 34010KT 10SM CLR M01/M06 A3033 RMK AO2 SLP281 T10111056=
201212301152 METAR KATL 301152Z 33011KT 10SM CLR M01/M06 A3031 RMK AO2 SLP275 T10111056 10011 21011 53016=
201212301052 METAR KATL 301052Z 34013G18KT 10SM FEW028 M01/M06 A3028 RMK AO2 SLP264 T10061056=
201212300952 METAR KATL 300952Z 33009KT 10SM FEW028 M01/M05 A3027 RMK AO2 SLP258 T10061050=
201212300852 METAR KATL 300852Z 33013G22KT 10SM FEW028 00/M06 A3026 RMK AO2 PK WND 31026/0833 SLP257 T00001056 53015=
201212300820 SPECI KATL 300820Z 32015G22KT 10SM SCT028 01/M05 A3026 RMK AO2=
201212300752 METAR KATL 300752Z 33017G27KT 10SM BKN028 01/M04 A3024 RMK AO2 PK WND 33027/0752 SLP249 T00061044=
201212300729 SPECI KATL 300729Z 32014G19KT 10SM BKN028 01/M04 A3023 RMK AO2=
201212300652 METAR KATL 300652Z 31014G20KT 10SM FEW023 SCT028 01/M04 A3022 RMK AO2 SLP242 T00061039=
201212300552 METAR KATL 300552Z 31013KT 10SM FEW023 BKN033 01/M03 A3022 RMK AO2 SLP240 T00111033 10022 20011 51015=
201212300527 SPECI KATL 300527Z 30014G20KT 10SM SCT023 OVC033 01/M03 A3022 RMK AO2=
201212300452 METAR KATL 300452Z 32012G21KT 10SM BKN023 BKN038 01/M03 A3021 RMK AO2 PK WND 30026/0428 SLP238 T00111033 400610011=
201212300352 METAR KATL 300352Z 31018G21KT 10SM OVC023 02/M03 A3020 RMK AO2 PK WND 32026/0332 SLP232 T00171028=
201212300341 SPECI KATL 300341Z 31018G26KT 10SM BKN025 OVC032 02/M03 A3019 RMK AO2 PK WND 32026/0332=
201212300310 SPECI KATL 300310Z 30014G22KT 10SM SCT023 OVC038 02/M03 A3018 RMK AO2=
201212300252 METAR KATL 300252Z 30016G26KT 10SM BKN024 OVC040 02/M02 A3017 RMK AO2 PK WND 31026/0244 SLP224 T00171022 51024=
201212300152 METAR KATL 300152Z 31016G21KT 10SM OVC022 02/M02 A3015 RMK AO2 SLP216 T00171022=
201212300052 METAR KATL 300052Z 30014G21KT 10SM BKN022 BKN028 OVC044 02/M02 A3013 RMK AO2 SLP209 T00221022=
201212300038 SPECI KATL 300038Z 30011KT 10SM BKN024 OVC046 02/M02 A3012 RMK AO2=
201212292352 METAR KATL 292352Z 29016G23KT 10SM FEW024 OVC039 02/M02 A3010 RMK AO2 PK WND 29027/2328 SLP199 60000 T00221022 10044 20022 51028=
201212292252 METAR KATL 292252Z COR 31014G21KT 10SM FEW020 OVC037 02/M02 A3007 RMK AO2 PK WND 28026/2156 PLB2153E37 SLP189 P0000 T00221017=
201212292245 SPECI KATL 292245Z 30014G21KT 10SM SCT020 BKN029 OVC037 02/M02 A3007 RMK AO2 PK WND 28026/2156 UPB2153E2159PLB2159E37 P0000=
201212292239 SPECI KATL 292239Z 29014G21KT 10SM FEW020 BKN029 OVC037 02/M02 A3006 RMK AO2 PK WND 28026/2156 UPB2153E2159PLB2159E37 P0000=
201212292200 SPECI KATL 292200Z 30017G26KT 9SM -PL BKN022 OVC028 02/M02 A3005 RMK AO2 PK WND 28026/2156 UPB2153E2159PLB2159 P0000=
201212292152 METAR KATL 292152Z 29018G24KT 10SM FEW015 BKN025 OVC030 03/M02 A3005 RMK AO2 PK WND 28029/2107 RAE11 SLP181 P0000 T00281017=
201212292052 METAR KATL 292052Z 29015G21KT 9SM -RA FEW015 BKN017 OVC020 03/00 A3001 RMK AO2 PK WND 27026/2022 RAB50 SLP169 P0000 60000 T00330000 53016=
201212291952 METAR KATL 291952Z 29014G22KT 10SM BKN019 BKN027 OVC030 03/00 A2999 RMK AO2 SLP159 T00330000=
201212291852 METAR KATL 291852Z 29016G21KT 10SM BKN015 BKN020 OVC030 03/01 A2998 RMK AO2 RAE1756B12E29 SLP156 P0000 T00330006=
201212291817 SPECI KATL 291817Z 28020G25KT 6SM -RA SCT015 BKN020 OVC030 04/01 A2997 RMK AO2 RAE1756B12 P0000=
201212291810 SPECI KATL 291810Z 29018G22KT 10SM FEW010 BKN020 OVC030 04/01 A2997 RMK AO2 RAE1756 P0000=
201212291752 METAR KATL 291752Z 29016G23KT 10SM -RA FEW009 BKN013 OVC020 04/02 A2997 RMK AO2 RAE13B46DZB23E46 SLP153 P0000 60000 T00440017 10061 20039 51010=
201212291723 SPECI KATL 291723Z 27011G18KT 8SM -DZ FEW009 BKN015 OVC020 04/02 A2996 RMK AO2 RAE13DZB23 P0000=
201212291706 SPECI KATL 291706Z 29014G21KT 8SM -RA BKN009 BKN015 OVC020 04/02 A2997 RMK AO2 P0000=
201212291652 METAR KATL 291652Z 28013G20KT 8SM -RA BKN012 BKN015 OVC020 04/02 A2996 RMK AO2 RAB50 SLP152 P0000 T00440022=
201212291605 SPECI KATL 291605Z 28013G19KT 10SM BKN016 BKN018 OVC022 04/02 A2997 RMK AO2=
201212291552 METAR KATL 291552Z 30015G20KT 10SM BKN014 BKN017 OVC020 04/02 A2997 RMK AO2 PK WND 30028/1539 SLP152 T00440017=
201212291510 SPECI KATL 291510Z 29014G25KT 10SM BKN012 BKN017 OVC020 04/02 A2995 RMK AO2=
201212291452 METAR KATL 291452Z 30016G24KT 10SM FEW010 BKN015 OVC020 06/03 A2994 RMK AO2 SLP141 60000 T00560028 53031=
201212291409 SPECI KATL 291409Z 30010KT 10SM FEW010 BKN016 OVC020 06/04 A2990 RMK AO2=
201212291352 METAR KATL 291352Z COR 30011KT 6SM BR FEW007 OVC014 06/04 A2990 RMK AO2 DZE04 SLP128 CIG 012V017 P0000 T00560044=
201212291345 SPECI KATL 291345Z 29011KT 6SM BR FEW005 SCT010 OVC016 06/04 A2990 RMK AO2 DZE04 P0000=
201212291332 SPECI KATL 291332Z 29011KT 5SM BR FEW007 BKN010 OVC016 06/04 A2989 RMK AO2 DZE04 P0000=
201212291306 SPECI KATL 291306Z 29009KT 6SM BR BKN005 OVC009 06/04 A2988 RMK AO2 DZE04 P0000=
201212291252 METAR KATL 291252Z 29007KT 2 1/2SM -DZ BR OVC004 05/04 A2987 RMK AO2 DZB51 SLP120 CIG 003V006 P0000 T00500044 $=
201212291152 METAR KATL 291152Z 32004KT 4SM BR OVC004 05/04 A2984 RMK AO2 DZE45 SLP108 CIG 003V006 P0000 60014 70067 T00500044 10056 20050 53016=
201212291146 SPECI KATL 291146Z 32006KT 4SM BR FEW002 OVC004 05/04 A2985 RMK AO2 DZE45 CIG 003V005 P0000=
201212291112 SPECI KATL 291112Z 32009KT 1 1/2SM -DZ BR FEW002 OVC004 05/04 A2983 RMK AO2 SFC VIS 2 CIG 003V005 P0000=
201212291052 METAR KATL 291052Z 31008KT 1/2SM -DZ BR FEW002 OVC004 05/04 A2982 RMK AO2 SFC VIS 1 1/4 DZE22B44 SLP101 CIG 003V005 P0000 T00500044=
201212291046 SPECI KATL 291046Z 31007KT 1/2SM -DZ BR OVC004 05/04 A2982 RMK AO2 SFC VIS 2 DZE22B44 CIG 003V005 P0000=
201212291044 SPECI KATL 291044Z 32007KT 2SM -DZ BR OVC004 05/04 A2981 RMK AO2 DZE22B44 CIG 003V005 P0000=
201212291022 SPECI KATL 291022Z 32003KT 4SM BR BKN004 OVC009 05/04 A2981 RMK AO2 DZE22 CIG 003V005 P0000=
201212291000 SPECI KATL 291000Z 00000KT 1 3/4SM -DZ BR OVC004 05/04 A2981 RMK AO2 CIG 003V005 P0000=
201212290952 METAR KATL 290952Z VRB04KT 1 3/4SM -DZ BR OVC005 06/04 A2980 RMK AO2 RAB0857E19DZB19 SLP095 CIG 003V007 P0001 T00560044=
201212290919 SPECI KATL 290919Z 00000KT 1 1/2SM -DZ BR OVC005 05/04 A2980 RMK AO2 RAB0857E19DZB19 P0000=
201212290852 METAR KATL 290852Z 09003KT 6SM BR OVC007 05/04 A2979 RMK AO2 RAE0754 SLP092 P0000 60013 T00500039 55020=
201212290810 SPECI KATL 290810Z 11004KT 7SM BKN007 OVC020 05/04 A2980 RMK AO2 RAE0754 P0000=
201212290752 METAR KATL 290752Z 11008KT 7SM -RA FEW007 OVC023 05/03 A2979 RMK AO2 SLP090 P0003 T00500033=
201212290712 SPECI KATL 290712Z 11008G18KT 6SM -RA BR FEW007 BKN028 OVC100 05/03 A2980 RMK AO2 PRESRR P0002=
201212290703 SPECI KATL 290703Z 11014G18KT 5SM -RA BR SCT005 BKN045 BKN090 OVC130 05/03 A2977 RMK AO2 PRESFR P0002=
201212290652 METAR KATL 290652Z 11011KT 2 1/2SM RA BR BKN005 BKN049 OVC075 05/04 A2978 RMK AO2 PRESFR SLP088 P0010 T00500039=
201212290611 SPECI KATL 290611Z 12006KT 2 1/2SM RA BR BKN005 BKN038 OVC049 05/04 A2986 RMK AO2 P0004=
201212290552 METAR KATL 290552Z 07010KT 3SM RA BR FEW005 BKN035 OVC050 05/04 A2985 RMK AO2 SLP112 P0028 60053 T00500039 10089 20050 58019=
201212290533 SPECI KATL 290533Z 08009KT 2 1/2SM +RA BR SCT025 BKN032 OVC045 06/04 A2989 RMK AO2 P0017=
201212290452 METAR KATL 290452Z 09011KT 3SM +RA BR SCT043 BKN055 OVC080 06/04 A2988 RMK AO2 SLP124 P0013 T00560039 401001006=
201212290352 METAR KATL 290352Z 12007KT 6SM -RA BKN060 BKN075 OVC090 06/03 A2990 RMK AO2 SLP129 P0006 T00610033=
201212290252 METAR KATL 290252Z 10007KT 6SM -RA SCT060 BKN075 OVC090 06/03 A2991 RMK AO2 SLP135 P0006 60006 T00610033 58017=
201212290152 METAR KATL 290152Z 12007KT 10SM -RA BKN075 OVC090 07/02 A2992 RMK AO2 RAB29 SLP139 P0000 T00720017=
201212290052 METAR KATL 290052Z 11005KT 10SM FEW075 BKN090 OVC110 08/01 A2997 RMK AO2 SLP152 T00830006=
201212282352 METAR KATL 282352Z 11006KT 10SM FEW095 OVC110 09/01 A2996 RMK AO2 RAB2259E09B35E44 SLP152 P0000 60000 T00890006 10100 20089 50002=
201212282252 METAR KATL 282252Z 11006KT 10SM BKN110 OVC150 09/M01 A2997 RMK AO2 SLP154 T00941006 $=
201212282152 METAR KATL 282152Z 11008KT 10SM FEW100 BKN150 BKN200 10/M01 A2996 RMK AO2 SLP151 T01001011=
201212282052 METAR KATL 282052Z 10007KT 10SM FEW100 BKN150 BKN200 10/M01 A2996 RMK AO2 SLP150 VIRGA DSNT NW-N T01001006 56027=
201212281952 METAR KATL 281952Z 10007KT 10SM FEW100 BKN150 BKN250 10/M02 A2997 RMK AO2 SLP155 VIRGA DSNT NW T01001017=
201212281852 METAR KATL 281852Z 08003KT 10SM FEW100 BKN150 BKN250 10/M01 A3000 RMK AO2 SLP163 T01001011=
201212281752 SPECI KATL 281752Z VRB03KT 10SM FEW100 SCT200 SCT250 09/M01 A3004 RMK AO2 SLP177 T00891006 10094 20006 58021=
201212281752 METAR KATL 281752Z VRB03KT 10SM FEW100 SCT200 SCT250 09/M01 A3004 RMK AO2 SLP177 T00891006 10094 20006 58021=
201212281652 METAR KATL 281652Z 11006KT 10SM FEW095 SCT110 SCT250 07/M01 A3007 RMK AO2 SLP188 T00671006=
201212281552 METAR KATL 281552Z 10005KT 10SM BKN095 BKN110 BKN250 04/M01 A3011 RMK AO2 SLP205 T00441006=
201212281452 METAR KATL 281452Z 07007KT 10SM FEW095 SCT110 BKN250 03/M01 A3010 RMK AO2 SLP201 T00331006 53012=
201212281352 METAR KATL 281352Z 06006KT 10SM BKN100 OVC250 02/M01 A3008 RMK AO2 SLP192 T00221011=
201212281252 METAR KATL 281252Z 10003KT 10SM SCT140 OVC250 01/M02 A3007 RMK AO2 SLP190 T00111022=
201212281152 METAR KATL 281152Z 00000KT 10SM BKN140 OVC250 01/M02 A3007 RMK AO2 SLP189 T00111022 10011 21006 53003=
201212281052 METAR KATL 281052Z 00000KT 10SM BKN140 00/M03 A3006 RMK AO2 SLP187 T00001028=
201212280952 METAR KATL 280952Z 32003KT 10SM BKN140 M01/M03 A3006 RMK AO2 SLP187 T10061028=
201212280852 METAR KATL 280852Z 33005KT 10SM OVC250 M01/M03 A3006 RMK AO2 SLP186 T10061028 52006=
201212280752 METAR KATL 280752Z 34004KT 10SM OVC250 M01/M03 A3005 RMK AO2 SLP182 T10061028=
201212280652 METAR KATL 280652Z 32004KT 10SM OVC250 M01/M03 A3005 RMK AO2 SLP184 T10061028=
201212280552 METAR KATL 280552Z 34006KT 10SM BKN250 00/M03 A3004 RMK AO2 SLP180 T00001028 10028 20000 58005=
201212280452 METAR KATL 280452Z 33006KT 10SM BKN250 00/M03 A3006 RMK AO2 SLP185 T00001028 400610000=
201212280352 METAR KATL 280352Z 31007KT 10SM FEW200 BKN250 01/M03 A3007 RMK AO2 SLP189 T00061028=
201212280252 METAR KATL 280252Z 31007KT 10SM FEW200 BKN250 01/M03 A3005 RMK AO2 SLP184 T00111028 58003=
201212280152 METAR KATL 280152Z 33007KT 10SM FEW200 BKN250 02/M02 A3006 RMK AO2 SLP188 T00171022=
201212280052 METAR KATL 280052Z 29006KT 10SM FEW200 BKN250 02/M02 A3007 RMK AO2 SLP190 T00171022=
201212272352 METAR KATL 272352Z 31008KT 10SM FEW200 BKN250 03/M02 A3006 RMK AO2 SLP188 T00281022 10061 20028 51004=
201212272252 METAR KATL 272252Z 31008KT 10SM SCT200 BKN250 03/M02 A3006 RMK AO2 SLP188 T00331017=
201212272152 METAR KATL 272152Z 32009KT 10SM FEW150 SCT200 BKN250 05/M02 A3005 RMK AO2 SLP183 T00501017=
201212272052 METAR KATL 272052Z 30008KT 10SM BKN250 06/M02 A3005 RMK AO2 SLP183 T00561017 58002=
201212271952 METAR KATL 271952Z 32010KT 10SM BKN250 06/M02 A3005 RMK AO2 SLP183 T00611017=
201212271852 METAR KATL 271852Z 28011KT 10SM FEW030 SCT200 BKN250 06/M01 A3006 RMK AO2 SLP186 T00611011=
201212271752 METAR KATL 271752Z 32012KT 10SM FEW025 SCT200 BKN250 05/M02 A3006 RMK AO2 SLP185 T00501017 10050 20011 58003=
201212271652 METAR KATL 271652Z 31014KT 10SM FEW020 SCT200 BKN250 04/M02 A3008 RMK AO2 SLP193 T00441017=
201212271552 METAR KATL 271552Z 34012KT 10SM FEW020 SCT200 BKN250 04/M02 A3008 RMK AO2 SLP192 T00391017=
201212271452 METAR KATL 271452Z 33012KT 10SM SCT019 SCT200 BKN250 03/M02 A3007 RMK AO2 SLP189 T00281022 53016=
201212271352 METAR KATL 271352Z 32014KT 10SM BKN019 02/M03 A3004 RMK AO2 SLP181 T00171028=
201212271252 METAR KATL 271252Z 32015G24KT 10SM OVC019 02/M03 A3003 RMK AO2 PK WND 32027/1228 SLP179 T00171028=
201212271152 METAR KATL 271152Z 31013G24KT 10SM OVC019 02/M03 A3002 RMK AO2 PK WND 31026/1121 SLP172 T00171028 10017 20017 53010=
201212271052 METAR KATL 271052Z 31011G20KT 10SM OVC021 02/M03 A3000 RMK AO2 SLP167 T00171028=
201212270952 METAR KATL 270952Z 30012KT 10SM OVC023 02/M02 A2999 RMK AO2 SLP162 T00171022=
201212270852 METAR KATL 270852Z 30020G27KT 10SM OVC020 02/M02 A2999 RMK AO2 PK WND 31029/0811 SLP162 T00171022 53006=
201212270752 METAR KATL 270752Z 31017G24KT 10SM OVC021 02/M02 A2998 RMK AO2 SLP159 T00171022=
201212270652 METAR KATL 270652Z 31014G20KT 10SM OVC019 02/M02 A2997 RMK AO2 SLP155 T00171017=
201212270552 METAR KATL 270552Z 30012G17KT 10SM SCT018 OVC024 02/M02 A2997 RMK AO2 SLP155 T00171017 10022 20017 50009=
201212270452 METAR KATL 270452Z 30014G28KT 10SM OVC017 02/M02 A2998 RMK AO2 PK WND 30028/0443 SLP159 T00171017 401500017=
201212270352 METAR KATL 270352Z 32016G23KT 10SM BKN018 OVC024 02/M02 A2996 RMK AO2 SLP150 T00171022=
201212270252 METAR KATL 270252Z 30018G23KT 10SM BKN018 OVC024 02/M02 A2994 RMK AO2 PK WND 30026/0225 SLP144 T00171022 51024=
201212270152 METAR KATL 270152Z 29019G28KT 10SM OVC017 02/M02 A2993 RMK AO2 PK WND 30028/0146 SLP138 T00171022=
201212270052 METAR KATL 270052Z 29020G25KT 10SM OVC016 02/M02 A2989 RMK AO2 PK WND 30031/0014 SLP126 T00171017=
201212262352 METAR KATL 262352Z 28019G25KT 10SM OVC016 02/M02 A2987 RMK AO2 PK WND 27028/2331 SLP117 T00221017 10044 20022 53035=
201212262252 METAR KATL 262252Z 28017G26KT 10SM OVC017 02/M01 A2983 RMK AO2 PK WND 28027/2211 SLP102 T00221011=
201212262152 METAR KATL 262152Z 28013G22KT 10SM BKN019 OVC028 02/M01 A2980 RMK AO2 PK WND 29028/2119 SLP093 T00221011=
201212262052 METAR KATL 262052Z 26015G21KT 10SM BKN025 OVC030 03/M01 A2976 RMK AO2 PK WND 29031/2026 SLP080 T00281011 53023=
201212261952 METAR KATL 261952Z 27015G21KT 10SM BKN021 OVC029 03/M01 A2973 RMK AO2 PK WND 28030/1853 SLP068 T00331011=
201212261852 METAR KATL 261852Z 27022G29KT 10SM OVC023 04/M01 A2970 RMK AO2 PK WND 26029/1851 SLP061 T00391011=
201212261752 METAR KATL 261752Z 26015G28KT 10SM OVC024 04/M01 A2969 RMK AO2 PK WND 26028/1752 SLP058 T00441006 10117 20044 51026=
201212261716 SPECI KATL 261716Z 27017G25KT 10SM BKN026 OVC033 05/M01 A2968 RMK AO2 PK WND 25027/1704 BKN026 V SCT=
201212261652 METAR KATL 261652Z 27011G25KT 10SM FEW001 SCT026 OVC033 06/M01 A2968 RMK AO2 PK WND 27030/1626 SLP053 FU FEW001 T00561006=
201212261640 SPECI KATL 261640Z 26016G23KT 10SM SCT026 OVC033 06/00 A2969 RMK AO2 PK WND 27030/1626=
201212261626 SPECI KATL 261626Z 27019G30KT 10SM BKN026 OVC033 05/M01 A2968 RMK AO2 PK WND 27030/1626=
201212261552 METAR KATL 261552Z 25015G23KT 10SM BKN032 OVC040 06/00 A2966 RMK AO2 PK WND 24027/1522 SLP047 T00610000=
201212261520 SPECI KATL 261520Z 27017G25KT 10SM BKN026 OVC033 06/01 A2965 RMK AO2 PK WND 27027/1502=
201212261452 METAR KATL 261452Z 25015G29KT 10SM FEW025 OVC033 08/02 A2961 RMK AO2 PK WND 24033/1410 SLP029 T00780022 53029=
201212261444 SPECI KATL 261444Z 25018G30KT 10SM FEW025 BKN032 OVC041 08/03 A2961 RMK AO2 PK WND 24033/1410=
201212261436 SPECI KATL 261436Z 25022G30KT 10SM FEW021 BKN025 OVC041 08/03 A2960 RMK AO2 PK WND 24033/1410 PRESRR=
201212261352 METAR KATL 261352Z 22015KT 10SM BKN021 BKN040 11/07 A2955 RMK AO2 PK WND 22028/1300 SLP007 T01060067=
201212261338 SPECI KATL 261338Z 23013G24KT 10SM BKN026 BKN035 BKN044 11/07 A2954 RMK AO2 PK WND 22028/1300=
201212261256 SPECI KATL 261256Z 21011G17KT 10SM SCT028 BKN050 11/08 A2953 RMK AO2=
201212261252 METAR KATL 261252Z 22012G19KT 10SM BKN028 BKN038 BKN046 11/07 A2954 RMK AO2 SLP001 T01110072=
201212261242 SPECI KATL 261242Z 22013G20KT 10SM BKN028 BKN038 BKN046 11/08 A2954 RMK AO2=
201212261152 METAR KATL 261152Z 22011KT 10SM FEW019 12/08 A2953 RMK AO2 SLP998 60035 70177 T01170078 10150 20111 53004=
201212261122 SPECI KATL 261122Z 24011G24KT 10SM FEW019 13/09 A2952 RMK AO2=
201212261052 METAR KATL 261052Z 21012G21KT 10SM SCT018 BKN041 BKN110 14/11 A2951 RMK AO2 SLP991 T01440106=
201212261004 SPECI KATL 261004Z 18010G18KT 10SM FEW009 SCT033 BKN100 15/13 A2950 RMK AO2=
201212260952 METAR KATL 260952Z 18011G18KT 7SM SCT009 BKN017 BKN043 15/13 A2951 RMK AO2 SLP990 T01500133=
201212260948 SPECI KATL 260948Z 19010G21KT 7SM SCT009 BKN017 BKN043 15/13 A2951 RMK AO2=
201212260919 SPECI KATL 260919Z 18011G18KT 7SM SCT006 BKN009 OVC095 15/13 A2952 RMK AO2=
201212260852 METAR KATL 260852Z 14008KT 10SM SCT006 BKN100 14/13 A2952 RMK AO2 RAE19 SLP993 P0001 60035 T01390128 56047=
201212260841 SPECI KATL 260841Z 13009KT 10SM SCT006 BKN080 14/13 A2952 RMK AO2 RAE19 PRESFR P0001=
201212260821 SPECI KATL 260821Z 14007KT 7SM OVC006 13/12 A2955 RMK AO2 RAE19 P0001=
201212260752 METAR KATL 260752Z 14012G21KT 3SM RA BR BKN006 OVC012 13/12 A2956 RMK AO2 TSB0653E48 SLP009 TS MOV NE P0013 T01280117=
201212260748 SPECI KATL 260748Z 14013G22KT 6SM -RA BR BKN006 OVC012 13/12 A2956 RMK AO2 TSB0653E48 TS MOV NE P0012=
201212260727 SPECI KATL 260727Z 13013G19KT 2 1/2SM TSRA BR BKN006 OVC012CB 12/11 A2958 RMK AO2 TSB0653 OCNL LTGIC SW-W TS SW-W MOV NE P0007=
201212260656 SPECI KATL 260656Z 13016G26KT 3SM TSRA BR BKN006 OVC012CB 12/11 A2959 RMK AO2 TSB53 OCNL LTGIC SW-W TS SW-W MOV NE P0001=
201212260652 METAR KATL 260652Z 13015G26KT 2 1/2SM -RA BR BKN006 OVC012 12/11 A2959 RMK AO2 PK WND 12030/0638 TSE34 SLP019 TS MOV E P0021 T01170106=
201212260647 SPECI KATL 260647Z 11017G30KT 2 1/2SM RA BR BKN006 OVC012 11/11 A2959 RMK AO2 PK WND 12030/0638 TSE34 TS MOV E P0020=
201212260634 SPECI KATL 260634Z 12014G21KT 6SM -RA BR BKN006 OVC015 11/10 A2962 RMK AO2 TSE34 TS MOV E P0018=
201212260616 SPECI KATL 260616Z 11013G20KT 3SM TSRA BR BKN006 BKN012CB OVC025 11/11 A2963 RMK AO2 PRESFR OCNL LTGIC NE-SE TS NE-SE MOV NE P0013=
201212260552 METAR KATL 260552Z 12016G23KT 2 1/2SM +TSRA BR BKN006 BKN012CB OVC025 11/10 A2966 RMK AO2 PRESFR SLP043 OCNL LTGIC ALQDS TS ALQDS MOV NE P0033 60129 T01110100 10111 20106 58046=
201212260452 METAR KATL 260452Z 11013G19KT 4SM +TSRA BR BKN006 OVC012CB 11/10 A2972 RMK AO2 SLP063 OCNL LTGIC SW-NW TS SW-NW MOV NE P0034 T01060100 401220094=
201212260427 SPECI KATL 260427Z 11012KT 3SM +TSRA BR BKN006 BKN010CB OVC020 11/09 A2974 RMK AO2 PRESFR OCNL LTGIC SW-NW TS SW-NW MOV NE P0022=
201212260410 SPECI KATL 260410Z 10014G20KT 4SM TSRA BR SCT006 BKN010CB OVC020 11/09 A2976 RMK AO2 PRESFR OCNL LTGIC NW-NE TS NW-NE MOV NE P0012=
201212260352 METAR KATL 260352Z 11010KT 2 1/2SM +TSRA BR BKN006 OVC012CB 11/09 A2978 RMK AO2 TSB19 SLP085 OCNL LTGIC ALQDS TS ALQDS MOV NE P0035 T01060094=
201212260319 SPECI KATL 260319Z 10014G22KT 3SM +TSRA BR BKN006 OVC010CB 11/09 A2978 RMK AO2 TSB19 OCNL LTGIC SW-W TS SW-W MOV NE P0011=
201212260252 METAR KATL 260252Z 11010G19KT 6SM RA BR BKN006 BKN010 OVC020 11/09 A2980 RMK AO2 TSB08E39 SLP091 P0025 60027 T01060094 58019=
201212260240 SPECI KATL 260240Z 09016KT 4SM RA BR BKN006 BKN010 OVC020 11/09 A2979 RMK AO2 TSB08E39 TS DSIPTD P0023=
201212260225 SPECI KATL 260225Z 10015G22KT 2 1/2SM +TSRA BR BKN005 OVC008CB 11/09 A2980 RMK AO2 TSB08 OCNL LTGIC SW TS SW MOV NE P0014=
201212260208 SPECI KATL 260208Z 10015G21KT 6SM TSRA BR BKN004 OVC008CB 11/09 A2982 RMK AO2 TSB08 OCNL LTGCG OHD-W TS OHD-W MOV NE P0005=
201212260152 METAR KATL 260152Z 11012G20KT 5SM RA BR OVC004 11/10 A2983 RMK AO2 RAB09E19B48 SLP102 P0002 T01060100=
201212260102 SPECI KATL 260102Z 11014G21KT 7SM OVC005 11/10 A2984 RMK AO2 CIG 004V007=
201212260052 METAR KATL 260052Z 10017G23KT 2SM OVC005 11/10 A2983 RMK AO2 SFC VIS 10 RAB27E44 SLP103 CIG 003V006 P0000 T01110100=
201212260021 SPECI KATL 260021Z 09018G21KT 2SM OVC004 11/10 A2985 RMK AO2 SFC VIS 9=
201212252352 METAR KATL 252352Z 10011G21KT 1/4SM OVC003 11/10 A2986 RMK AO2 SFC VIS 7 RAE12 SLP111 P0000 60013 T01110100 10117 20111 56029=
201212252345 SPECI KATL 252345Z 10014G22KT 1/4SM OVC003 11/10 A2986 RMK AO2 SFC VIS 7 RAE12 P0000=
201212252335 SPECI KATL 252335Z 10016G23KT 2SM OVC004 11/10 A2985 RMK AO2 SFC VIS 9 RAE12 CIG 003V005 P0000=
201212252252 METAR KATL 252252Z 09014KT 2SM -RA OVC005 11/10 A2990 RMK AO2 SFC VIS 8 RAB51 SLP124 CIG 004V006 P0000 T01110100=
201212252152 METAR KATL 252152Z 08013KT 2SM BR OVC004 11/11 A2990 RMK AO2 SFC VIS 6 RAE36 SLP124 TWRINC P0005 T01110106=
201212252131 SPECI KATL 252131Z 08013KT 2SM -RA BR BKN004 OVC080 11/11 A2990 RMK AO2 SFC VIS 6 TWRINC P0005=
201212252114 SPECI KATL 252114Z 07014KT 2SM -RA BR BKN006 BKN043 OVC080 12/11 A2992 RMK AO2 SFC VIS 6 PRESFR TWRINC P0004=
201212252101 SPECI KATL 252101Z 06009KT 2SM RA BR OVC004 12/11 A2994 RMK AO2 SFC VIS 4 P0003=
201212252052 METAR KATL 252052Z 08009KT 1/2SM RA BR OVC002 12/11 A2995 RMK AO2 SFC VIS 2 RAB1959 SLP142 P0008 60008 T01170111 55012=
201212251952 METAR KATL 251952Z 11005KT 1/4SM R09R/5000VP6000FT BR OVC002 12/11 A2994 RMK AO2 SFC VIS 1 SLP141 T01170111=
201212251852 METAR KATL 251852Z 09011KT 1/4SM R09R/4500V6000FT BR OVC002 12/11 A2993 RMK AO2 SFC VIS 1 SLP137 T01170111=
201212251752 METAR KATL 251752Z 10006KT 1/4SM R09R/5000VP6000FT BR OVC002 12/11 A2998 RMK AO2 SFC VIS 1 1/2 SLP154 T01170111 10122 20094 58002=
201212251652 METAR KATL 251652Z 11003KT 1/4SM BR OVC004 12/11 A3001 RMK AO2 SFC VIS 4 SLP162 TWRINC T01220111=
201212251552 METAR KATL 251552Z 10004KT 1/4SM BR OVC002 12/11 A3000 RMK AO2 SFC VIS 2 SLP159 T01170111=
201212251452 METAR KATL 251452Z 10003KT 1/4SM R09R/3000V4000FT FG OVC002 11/11 A2999 RMK AO2 SFC VIS 1/2 SLP155 T01110106 53005=
201212251352 METAR KATL 251352Z 11005KT 1/4SM R09R/2200V4000FT FG VV002 10/10 A2997 RMK AO2 SFC VIS 1/2 SLP151 T01000100=
201212251348 SPECI KATL 251348Z 10006KT 1/4SM R09R/2000V3000FT BR VV002 10/09 A2998 RMK AO2 SFC VIS 3/4=
201212251336 SPECI KATL 251336Z 12005KT 1/2SM R09R/1800V2400FT FG VV002 10/09 A2999 RMK AO2=
201212251324 SPECI KATL 251324Z 12005KT 1/4SM R09R/1400V2200FT FG VV002 10/09 A2998 RMK AO2=
201212251252 METAR KATL 251252Z 13003KT 1/8SM R09R/1400V1600FT FG VV002 10/09 A2998 RMK AO2 SLP154 T01000094=
201212251152 METAR KATL 251152Z 00000KT 1/8SM R09R/1200V1400FT FG VV002 10/09 A2997 RMK AO2 SLP150 70054 T01000094 10100 20094 53006=
201212251130 SPECI KATL 251130Z 00000KT 1/4SM R09R/1600V2000FT FG VV003 10/09 A2997 RMK AO2=
201212251052 METAR KATL 251052Z 00000KT 1/8SM R09R/1400FT FG VV002 09/09 A2996 RMK AO2 SLP147 T00940089=
201212251044 SPECI KATL 251044Z 00000KT 1/8SM R09R/1200V1400FT FG VV002 09/09 A2996 RMK AO2=
201212250959 SPECI KATL 250959Z 00000KT 1/4SM R09R/1600V2000FT FG VV002 09/09 A2995 RMK AO2=
201212250952 METAR KATL 250952Z 10004KT 1/4SM R09R/2000V2400FT FG VV002 09/09 A2995 RMK AO2 SLP141 T00940089=
201212250949 SPECI KATL 250949Z 08004KT 1/4SM R09R/2200V2400FT FG VV002 09/09 A2995 RMK AO2=
201212250943 SPECI KATL 250943Z 10003KT 1/2SM R09R/2000V2400FT FG VV002 09/09 A2995 RMK AO2=
201212250852 METAR KATL 250852Z 08003KT 1/4SM R09R/1400V1600FT FG VV002 09/09 A2995 RMK AO2 SLP142 T00940094 53001=
201212250850 SPECI KATL 250850Z 06003KT 1/4SM R09R/1600V1800FT FG VV002 09/09 A2995 RMK AO2=
201212250752 METAR KATL 250752Z 00000KT 1/8SM R09R/1400V1600FT FG VV002 10/09 A2995 RMK AO2 SLP143 T01000089=
201212250652 METAR KATL 250652Z 00000KT 1/8SM R09R/1200V1400FT FG VV002 09/09 A2994 RMK AO2 SLP139 T00940089=
201212250552 METAR KATL 250552Z 00000KT 1/4SM R09R/1200FT FG VV002 09/09 A2995 RMK AO2 SLP142 T00940094 10122 20094 51005=
201212250452 METAR KATL 250452Z 15004KT 1/4SM R09R/0700V1000FT FG VV002 09/09 A2995 RMK AO2 SLP142 T00940089 401560078=
201212250352 METAR KATL 250352Z 00000KT 1/4SM R09R/1200V1600FT FG VV002 10/09 A2995 RMK AO2 SFC VIS 1/2 SLP142 T01000094=
201212250252 METAR KATL 250252Z 00000KT 1/4SM R09R/0700V1000FT FG VV002 11/10 A2993 RMK AO2 SLP137 T01060100 51008=
201212250223 SPECI KATL 250223Z 16003KT 1/4SM R09R/1200V1800FT FG VV002 11/10 A2994 RMK AO2 SFC VIS 1/2=
201212250202 SPECI KATL 250202Z 15003KT 1/4SM R09R/0600V0800FT FG VV001 11/11 A2993 RMK AO2 TWR VIS 1/4=
201212250152 METAR KATL 250152Z 14003KT 1/4SM R09R/0600V0800FT FG OVC002 11/11 A2993 RMK AO2 SFC VIS 1/2 SLP135 T01110106=
201212250143 SPECI KATL 250143Z 13003KT 1/4SM R09R/0600V1000FT BR OVC002 11/11 A2992 RMK AO2 SFC VIS 2=
201212250137 SPECI KATL 250137Z 13004KT 1SM R09R/0700V3500FT BR BKN002 11/10 A2992 RMK AO2 SFC VIS 3=
201212250131 SPECI KATL 250131Z 13004KT 2SM R09R/0800VP6000FT BR BKN002 11/10 A2992 RMK AO2 SFC VIS 3=
201212250125 SPECI KATL 250125Z 14004KT 5SM BR FEW002 10/09 A2992 RMK AO2=
201212250052 METAR KATL 250052Z 00000KT 6SM BR FEW011 11/10 A2993 RMK AO2 SLP134 T01110100=
201212242352 METAR KATL 242352Z 18003KT 7SM FEW015 12/11 A2991 RMK AO2 SLP128 60000 T01220111 10156 20117 53009=
201212242252 METAR KATL 242252Z 19004KT 10SM FEW015 13/11 A2988 RMK AO2 SLP119 T01280106=
201212242152 METAR KATL 242152Z 22005KT 10SM FEW015 SCT025 15/12 A2989 RMK AO2 SLP121 T01500117=
201212242129 SPECI KATL 242129Z 00000KT 10SM FEW017 SCT022 16/12 A2988 RMK AO2=
201212242106 SPECI KATL 242106Z 29008KT 10SM SCT015 OVC020 15/12 A2988 RMK AO2=
201212242052 METAR KATL 242052Z 23008KT 10SM BKN013 OVC020 15/12 A2988 RMK AO2 SLP117 60000 T01500122 55001=
201212241952 METAR KATL 241952Z 22003KT 10SM OVC010 14/12 A2986 RMK AO2 SLP111 T01390117=
201212241852 METAR KATL 241852Z 22006KT 10SM OVC010 14/12 A2986 RMK AO2 RAB28E40 SLP113 P0000 T01390117=
201212241810 SPECI KATL 241810Z 21008KT 10SM BKN006 OVC041 13/12 A2987 RMK AO2=
201212241752 METAR KATL 241752Z 21009KT 10SM SCT006 BKN039 OVC095 12/11 A2988 RMK AO2 SLP119 60054 T01220111 10128 20089 56023=
201212241736 SPECI KATL 241736Z 21008KT 10SM SCT006 BKN041 BKN055 12/11 A2988 RMK AO2=
201212241701 SPECI KATL 241701Z 22006KT 10SM BKN008 BKN090 OVC110 12/11 A2990 RMK AO2=
201212241652 METAR KATL 241652Z 26006KT 10SM SCT008 BKN050 OVC090 12/11 A2990 RMK AO2 WSHFT 1603 RAE52 SLP128 P0003 T01170106=
201212241641 SPECI KATL 241641Z 22008G17KT 10SM -RA FEW006 SCT028 OVC085 12/11 A2990 RMK AO2 WSHFT 1603 P0003=
201212241631 SPECI KATL 241631Z 19011G17KT 6SM -RA BR FEW006 BKN028 OVC075 12/11 A2989 RMK AO2 WSHFT 1603 P0003=
201212241619 SPECI KATL 241619Z 30012KT 10SM -RA FEW006 BKN080 OVC095 11/10 A2995 RMK AO2 WSHFT 1603 PRESRR P0002=
201212241552 METAR KATL 241552Z 18017KT 6SM RA BR FEW005 OVC070 11/09 A2990 RMK AO2 TSE22 PRESFR SLP126 TS DSPTD P0021 T01060094=
201212241523 SPECI KATL 241523Z 18014KT 4SM RA BR FEW019 OVC070 10/09 A2993 RMK AO2 TSE22 TS DSPTD P0010=
201212241507 SPECI KATL 241507Z 22006KT 4SM +TSRA BR SCT015CB BKN055 OVC070 10/09 A2995 RMK AO2 OCNL LTGICCC SW-NW TS SW-NW MOVG E P0003=
201212241452 METAR KATL 241452Z 21008KT 7SM -TSRA FEW007 BKN020CB OVC029 10/08 A2995 RMK AO2 TSB38RAB25 SLP143 FRQ LTGICCG SW-W TS SW-W MOVG E P0016 60030 T01000083 53004=
201212241442 SPECI KATL 241442Z 25006KT 3SM TSRA BR FEW007 BKN020CB OVC029 10/09 A2994 RMK AO2 TSB38RAB25 PRESRR OCNL LTGICCC SW TS SW MOVG E P0015=
201212241439 SPECI KATL 241439Z 24007KT 1 3/4SM R09R/5500VP6000FT TSRA BR FEW007 BKN020CB OVC029 10/09 A2994 RMK AO2 VIS 3/4V5 TSB38RAB25 TS W MOVG E OCNL LTGICCC W P0014=
201212241432 SPECI KATL 241432Z 20010KT 1 3/4SM R09R/5500VP6000FT +RA BR FEW007 BKN020CB OVC041 10/08 A2992 RMK AO2 RAB25 P0004=
201212241402 SPECI KATL 241402Z 19011KT 10SM SCT005 OVC020 09/08 A2991 RMK AO2=
201212241352 METAR KATL 241352Z 20009KT 7SM BKN005 OVC020 09/08 A2991 RMK AO2 RAE49 SLP131 BKN005 V SCT P0003 T00940083=
201212241341 SPECI KATL 241341Z 20007KT 7SM -RA BKN005 OVC020 09/08 A2992 RMK AO2 BKN005 V SCT P0003=
201212241320 SPECI KATL 241320Z 20010KT 5SM -RA BR SCT007 BKN020 OVC041 09/08 A2992 RMK AO2 SCT007 V BKN P0003=
201212241312 SPECI KATL 241312Z 20011G17KT 2 1/2SM RA BR BKN007 BKN020 OVC046 09/08 A2992 RMK AO2 BKN007 V SCT P0002=
201212241252 METAR KATL 241252Z 20011KT 4SM -RA BR SCT005 BKN020 OVC046 09/08 A2993 RMK AO2 RAB08 SLP136 P0011 T00940083=
201212241245 SPECI KATL 241245Z 20009KT 3SM RA BR BKN005 BKN020 OVC029 09/08 A2993 RMK AO2 RAB08 P0008=
201212241231 SPECI KATL 241231Z 20011KT 2SM RA BR SCT005 BKN023 OVC039 09/08 A2993 RMK AO2 RAB08 P0003=
201212241152 METAR KATL 241152Z 20008G17KT 6SM BR BKN007 OVC023 09/08 A2994 RMK AO2 RAE38 SLP139 P0003 60021 70021 T00890078 10094 20078 56016=
201212241133 SPECI KATL 241133Z 19009KT 5SM -RA BR BKN007 BKN042 OVC060 08/07 A2994 RMK AO2 P0003=
201212241052 METAR KATL 241052Z 20009KT 6SM -RA BR FEW007 SCT037 OVC075 08/07 A2995 RMK AO2 SLP143 P0011 T00780067=
201212241049 SPECI KATL 241049Z 20008KT 6SM -RA BR FEW007 SCT043 OVC075 08/07 A2995 RMK AO2 P0011=
201212241032 SPECI KATL 241032Z 19011KT 6SM -RA BR BKN070 OVC080 08/06 A2995 RMK AO2 P0010=
201212240952 METAR KATL 240952Z 20009KT 2SM RA BR SCT040 BKN060 OVC075 08/06 A2997 RMK AO2 SLP149 P0007 T00780056=
201212240945 SPECI KATL 240945Z 20009KT 2 1/2SM RA FEW024 BKN040 OVC055 08/06 A2997 RMK AO2 P0004=
201212240852 METAR KATL 240852Z 20010KT 10SM -RA OVC040 09/03 A2999 RMK AO2 RAB47 SLP155 P0000 60000 T00890033 56017=
201212240752 METAR KATL 240752Z 20009KT 10SM BKN047 OVC100 09/03 A3000 RMK AO2 SLP159 T00890028=
201212240652 METAR KATL 240652Z 19007KT 10SM FEW028 OVC100 08/01 A3001 RMK AO2 SLP162 T00830006=
201212240552 METAR KATL 240552Z 18005KT 10SM BKN090 08/M01 A3004 RMK AO2 SLP172 T00831006 10100 20078 58018=
201212240452 METAR KATL 240452Z 20006KT 10SM BKN100 08/M01 A3006 RMK AO2 SLP181 T00831006 401440017=
201212240352 METAR KATL 240352Z 20006KT 10SM BKN100 09/M01 A3008 RMK AO2 SLP187 T00891006=
201212240252 METAR KATL 240252Z 20006KT 10SM BKN100 09/M01 A3009 RMK AO2 SLP192 T00891006 50002=
201212240152 METAR KATL 240152Z 21008KT 10SM OVC100 09/M01 A3009 RMK AO2 SLP196 T00941011=
201212240052 METAR KATL 240052Z 21005KT 10SM OVC085 10/M01 A3009 RMK AO2 SLP193 T01001011=
201212232352 METAR KATL 232352Z 21006KT 10SM OVC090 10/M01 A3008 RMK AO2 SLP192 60000 T01001011 10144 20100 55002=
201212232252 METAR KATL 232252Z 22004KT 10SM BKN100 OVC250 11/M01 A3008 RMK AO2 SLP191 T01061011=
201212232152 METAR KATL 232152Z 22007KT 10SM FEW030 SCT080 OVC100 12/M02 A3009 RMK AO2 SLP194 VIRGA OHD T01171017=
201212232052 METAR KATL 232052Z 23008KT 10SM FEW030 BKN090 BKN200 13/00 A3009 RMK AO2 RAB02E12 SLP193 VIRGA W P0000 60000 T01330000 56019=
201212231952 METAR KATL 231952Z 23006KT 10SM SCT090 OVC200 13/M01 A3009 RMK AO2 SLP194 VIRGA SW T01331011=
201212231852 METAR KATL 231852Z 23007KT 10SM SCT120 OVC200 13/M03 A3012 RMK AO2 SLP202 T01281028=
201212231752 METAR KATL 231752Z 24007KT 10SM SCT120 OVC220 12/M03 A3015 RMK AO2 SLP213 T01221033 10122 20017 58019=
201212231652 METAR KATL 231652Z 22004KT 10SM SCT120 OVC220 11/M03 A3018 RMK AO2 SLP224 T01111028=
201212231552 METAR KATL 231552Z 27006KT 10SM OVC220 09/M04 A3020 RMK AO2 SLP233 T00941044=
201212231452 METAR KATL 231452Z 29004KT 10SM BKN220 07/M04 A3021 RMK AO2 SLP233 T00721039 51009=
201212231352 METAR KATL 231352Z 29003KT 10SM BKN220 03/M05 A3020 RMK AO2 SLP232 T00281050=
201212231252 METAR KATL 231252Z 00000KT 10SM BKN200 BKN250 02/M07 A3019 RMK AO2 SLP230 T00221072=
201212231152 METAR KATL 231152Z 29003KT 10SM OVC250 02/M07 A3018 RMK AO2 SLP225 T00221072 10033 20017 53001=
201212231052 METAR KATL 231052Z 29005KT 10SM OVC250 02/M08 A3017 RMK AO2 SLP222 T00221078=
201212230952 METAR KATL 230952Z 29005KT 10SM BKN250 02/M08 A3017 RMK AO2 SLP220 T00171083=
201212230852 METAR KATL 230852Z 29005KT 10SM BKN250 02/M08 A3017 RMK AO2 SLP223 T00221083 57002=
201212230752 METAR KATL 230752Z 28005KT 10SM SCT250 02/M09 A3018 RMK AO2 SLP224 T00221094=
201212230652 METAR KATL 230652Z 29004KT 10SM FEW250 03/M09 A3017 RMK AO2 SLP223 T00281089=
201212230552 METAR KATL 230552Z 27003KT 10SM CLR 03/M09 A3018 RMK AO2 SLP225 T00331094 10061 20028 58012=
201212230452 METAR KATL 230452Z 27004KT 10SM CLR 04/M09 A3020 RMK AO2 SLP232 T00391094 401111006=
201212230352 METAR KATL 230352Z 28004KT 10SM CLR 04/M09 A3023 RMK AO2 SLP241 T00391094=
201212230252 METAR KATL 230252Z 28007KT 10SM CLR 04/M09 A3022 RMK AO2 SLP239 T00441094 55002=
201212230152 METAR KATL 230152Z 28004KT 10SM CLR 05/M10 A3022 RMK AO2 SLP240 T00501100=
201212230052 METAR KATL 230052Z 31006KT 10SM CLR 05/M11 A3021 RMK AO2 SLP239 T00501106=
201212222352 METAR KATL 222352Z 30006KT 10SM CLR 06/M11 A3022 RMK AO2 SLP243 T00611106 10111 20061 53007=
201212222252 METAR KATL 222252Z 30006KT 10SM CLR 08/M12 A3021 RMK AO2 SLP238 T00781117=
201212222152 METAR KATL 222152Z 29009KT 10SM CLR 10/M12 A3021 RMK AO2 SLP236 T01001117=
201212222052 METAR KATL 222052Z 29014KT 10SM CLR 11/M12 A3020 RMK AO2 SLP232 T01111117 55011=
201212221952 METAR KATL 221952Z 30010KT 10SM CLR 11/M11 A3019 RMK AO2 SLP229 T01061111=
201212221852 METAR KATL 221852Z 30010KT 10SM CLR 09/M12 A3022 RMK AO2 SLP237 T00941122=
201212221752 METAR KATL 221752Z 29009KT 10SM CLR 08/M11 A3024 RMK AO2 SLP245 T00831106 10083 21006 58005=
201212221652 METAR KATL 221652Z 32014KT 10SM CLR 07/M12 A3027 RMK AO2 SLP255 T00671117=
201212221552 METAR KATL 221552Z 30014KT 10SM CLR 04/M11 A3027 RMK AO2 SLP259 T00441106=
201212221452 METAR KATL 221452Z 32016G22KT 10SM CLR 02/M11 A3025 RMK AO2 SLP253 T00221111 53023=
201212221352 METAR KATL 221352Z 31018G23KT 10SM CLR 01/M11 A3023 RMK AO2 SLP243 T00061111=
201212221252 METAR KATL 221252Z 32015KT 10SM CLR M01/M11 A3019 RMK AO2 SLP234 T10061111=
201212221152 METAR KATL 221152Z 32018G23KT 10SM CLR M01/M11 A3018 RMK AO2 SLP229 T10061111 10017 21006 53009=
201212221052 METAR KATL 221052Z 31016G21KT 10SM CLR M01/M11 A3017 RMK AO2 SLP224 T10061106=
201212220952 METAR KATL 220952Z 31014KT 10SM CLR 00/M11 A3016 RMK AO2 SLP221 T00001111=
201212220852 METAR KATL 220852Z 31014G21KT 10SM CLR 01/M11 A3016 RMK AO2 SLP218 T00061106 50003=
201212220752 METAR KATL 220752Z 31011G20KT 10SM CLR 01/M10 A3016 RMK AO2 SLP219 T00061100=
201212220652 METAR KATL 220652Z 30015G21KT 10SM CLR 01/M10 A3016 RMK AO2 PK WND 30026/0602 SLP219 T00111100=
201212220552 METAR KATL 220552Z 30018G24KT 10SM CLR 02/M10 A3015 RMK AO2 PK WND 30026/0532 SLP215 T00171100 10044 20017 53006=
201212220452 METAR KATL 220452Z 31018G28KT 10SM CLR 02/M10 A3014 RMK AO2 PK WND 32028/0449 SLP213 T00221100 400780006=
201212220352 METAR KATL 220352Z 30017KT 10SM CLR 03/M10 A3013 RMK AO2 PK WND 31026/0337 SLP210 T00281100=
201212220252 METAR KATL 220252Z 30014G22KT 10SM CLR 03/M09 A3013 RMK AO2 SLP208 T00331094 53010=
201212220152 METAR KATL 220152Z 29015G28KT 10SM CLR 03/M09 A3012 RMK AO2 PK WND 29028/0144 SLP206 T00331094=
201212220052 METAR KATL 220052Z 29018KT 10SM CLR 04/M09 A3010 RMK AO2 SLP202 T00391094=
201212212352 METAR KATL 212352Z 29015G21KT 10SM CLR 04/M09 A3009 RMK AO2 SLP199 T00441089 10078 20044 53023=
201212212252 METAR KATL 212252Z 29018G21KT 10SM CLR 05/M09 A3007 RMK AO2 PK WND 30028/2157 SLP188 T00501094=
201212212152 METAR KATL 212152Z 29018G26KT 10SM CLR 07/M09 A3005 RMK AO2 PK WND 31029/2124 SLP181 T00671094=
201212212052 METAR KATL 212052Z 31022G28KT 10SM CLR 07/M09 A3003 RMK AO2 PK WND 30033/2001 SLP173 T00721094 55003=
201212211952 METAR KATL 211952Z 29022G31KT 10SM CLR 07/M09 A3002 RMK AO2 PK WND 30031/1949 SLP171 T00721094=
201212211852 METAR KATL 211852Z 28022G29KT 10SM FEW060 07/M09 A3002 RMK AO2 PK WND 29032/1756 SLP171 T00671089=
201212211752 METAR KATL 211752Z 28017G28KT 10SM FEW050 06/M07 A3003 RMK AO2 PK WND 30028/1752 SLP175 T00611072 10067 20006 50001=
201212211652 METAR KATL 211652Z 30016G27KT 10SM FEW050 05/M07 A3004 RMK AO2 PK WND 29027/1643 SLP179 T00501072=
201212211552 METAR KATL 211552Z 29017G29KT 10SM FEW050 04/M07 A3005 RMK AO2 PK WND 30030/1504 SLP180 T00391072=
201212211452 METAR KATL 211452Z 30021G31KT 10SM FEW050 03/M07 A3003 RMK AO2 PK WND 30031/1447 SLP175 T00281072 51018=
201212211352 METAR KATL 211352Z 29018G32KT 10SM FEW040 02/M08 A3002 RMK AO2 PK WND 30032/1347 SLP171 T00171083=
201212211252 METAR KATL 211252Z 28019G26KT 10SM FEW040 01/M08 A2999 RMK AO2 PK WND 28029/1231 SLP162 T00061083=
201212211152 METAR KATL 211152Z 29022G25KT 10SM CLR 01/M08 A2997 RMK AO2 PK WND 29028/1141 SLP155 70051 T00111078 10056 20006 53013=
201212211052 METAR KATL 211052Z 28018G26KT 10SM CLR 01/M07 A2996 RMK AO2 PK WND 26034/1022 SLP149 T00111072=
201212210952 METAR KATL 210952Z 29020G24KT 10SM CLR 02/M07 A2994 RMK AO2 PK WND 28026/0858 SLP142 T00171067=
201212210852 METAR KATL 210852Z 28015G24KT 10SM CLR 02/M07 A2993 RMK AO2 PK WND 27028/0757 SLP139 T00221067 53011=
201212210752 METAR KATL 210752Z 29017G31KT 10SM FEW040 03/M07 A2993 RMK AO2 PK WND 29035/0739 SLP137 T00281067=
201212210652 METAR KATL 210652Z 31015G19KT 10SM BKN038 05/M02 A2990 RMK AO2 SLP127 T00501022=
201212210552 METAR KATL 210552Z 28015G24KT 10SM BKN045 06/M03 A2990 RMK AO2 PK WND 28027/0533 SLP127 T00561028 10094 20056 50007=
201212210452 METAR KATL 210452Z 29016G23KT 10SM BKN048 OVC055 06/M03 A2990 RMK AO2 PK WND 28034/0402 SLP128 T00611033 401560061=
201212210352 METAR KATL 210352Z 28018G28KT 10SM BKN047 BKN055 06/M03 A2990 RMK AO2 PK WND 29028/0352 SLP125 T00611028=
201212210252 METAR KATL 210252Z 27015G23KT 10SM BKN047 BKN055 07/M02 A2988 RMK AO2 SLP120 T00671022 51021=
201212210152 METAR KATL 210152Z 28015G21KT 10SM FEW040 07/M02 A2987 RMK AO2 PK WND 27026/0137 SLP118 T00671017=
201212210052 METAR KATL 210052Z 28019G28KT 10SM SCT040 BKN050 08/M01 A2985 RMK AO2 PK WND 27029/0034 SLP110 T00781006=
201212202352 METAR KATL 202352Z 28014G23KT 10SM SCT040 09/02 A2982 RMK AO2 PK WND 28032/2324 PRESRR SLP098 60022 T00940017 10156 20094 53041=
201212202252 METAR KATL 202252Z 26009KT 10SM FEW020 SCT035 BKN150 12/06 A2975 RMK AO2 SLP074 T01170061=
201212202152 METAR KATL 202152Z 28013G24KT 10SM FEW020 SCT070 BKN150 12/06 A2974 RMK AO2 SLP069 T01170061=
201212202052 METAR KATL 202052Z 24013G20KT 10SM FEW010 SCT020 BKN050 14/11 A2969 RMK AO2 RAE26 SLP054 P0001 60022 T01440106 55005=
201212202007 SPECI KATL 202007Z 24007KT 6SM BR FEW005 BKN010 OVC040 15/14 A2969 RMK AO2 RAE02 P0000=
201212201952 METAR KATL 201952Z 24007KT 6SM -RA BR BKN006 BKN015 OVC020 15/14 A2969 RMK AO2 WSHFT 1843 SLP053 P0019 T01500144=
201212201900 SPECI KATL 201900Z 25010G18KT 3SM R09R/4500VP6000FT -RA BR BKN006 BKN010 OVC020 16/14 A2970 RMK AO2 WSHFT 1843 SFC VIS 4 P0006=
201212201855 SPECI KATL 201855Z 22011G19KT 2SM R09R/4500VP6000FT RA BR BKN006 BKN010 OVC020 15/14 A2969 RMK AO2 VIS 3/4V5 P0001=
201212201852 METAR KATL 201852Z 24012G19KT 4SM -RA BR BKN006 BKN010 OVC020 15/14 A2969 RMK AO2 SLP052 P0002 T01500139=
201212201809 SPECI KATL 201809Z 17015G23KT 3SM BKN006 BKN010 OVC020 14/13 A2970 RMK AO2 SFC VIS 9 RAE09 P0001=
201212201752 METAR KATL 201752Z 18015G28KT 3SM -RA BR BKN006 BKN012 OVC020 14/13 A2971 RMK AO2 PK WND 18028/1746 SFC VIS 5 SLP058 P0017 60029 T01440128 10144 20100 58058=
201212201722 SPECI KATL 201722Z 17014G19KT 3SM R09R/4000VP6000FT -RA BR BKN006 BKN010 OVC020 14/13 A2974 RMK AO2 SFC VIS 4 P0015=
201212201717 SPECI KATL 201717Z 18010G19KT 1SM R09R/4000VP6000FT +RA BR BKN008 BKN010 OVC020 14/13 A2975 RMK AO2 TWR VIS 2 P0006=
201212201714 SPECI KATL 201714Z 19012G19KT 2SM +RA BR BKN008 BKN010 OVC020 14/12 A2975 RMK AO2 SFC VIS 3 P0003=
201212201659 SPECI KATL 201659Z 18014G19KT 5SM -RA BR BKN008 BKN010 OVC020 13/12 A2976 RMK AO2 PRESFR P0002=
201212201652 METAR KATL 201652Z 17013G23KT 5SM RA BR FEW007 BKN010 OVC020 13/12 A2977 RMK AO2 PRESFR SLP081 P0002 T01330117=
201212201622 SPECI KATL 201622Z 17011G21KT 5SM -RA BR FEW005 BKN014 OVC020 13/11 A2981 RMK AO2 P0000=
201212201604 SPECI KATL 201604Z 17013G18KT 10SM FEW005 SCT010 OVC020 13/11 A2983 RMK AO2 RAE1555 P0000=
201212201552 METAR KATL 201552Z 17012G20KT 8SM -RA FEW005 BKN010 OVC020 12/10 A2984 RMK AO2 RAE06B40 SLP103 P0000 T01220100=
201212201548 SPECI KATL 201548Z 17012G17KT 10SM -RA FEW005 BKN010 OVC020 12/10 A2984 RMK AO2 RAE06B40 P0000=
201212201452 METAR KATL 201452Z 15012G17KT 9SM -RA BKN025 BKN030 OVC040 11/08 A2988 RMK AO2 RAB1353 SLP118 P0002 60010 T01110083 57014=
201212201434 SPECI KATL 201434Z 17008KT 10SM BKN025 BKN030 OVC040 11/08 A2989 RMK AO2 RAB1353E33 P0002=
201212201429 SPECI KATL 201429Z 17007KT 10SM -RA SCT025 BKN030 OVC041 11/08 A2989 RMK AO2 RAB1353 P0002=
201212201422 SPECI KATL 201422Z 25008KT 10SM -RA BKN025 BKN032 OVC047 11/08 A2991 RMK AO2 RAB1353 PRESRR P0001=
201212201352 METAR KATL 201352Z 15009KT 10SM FEW025 BKN050 OVC110 11/07 A2989 RMK AO2 RAE42 SLP123 P0008 T01060072=
201212201252 METAR KATL 201252Z VRB05KT 10SM -RA SCT034 BKN041 OVC100 11/04 A2991 RMK AO2 RAB28 SLP128 P0000 T01110044=
201212201152 METAR KATL 201152Z 15008KT 10SM FEW050 OVC065 11/03 A2992 RMK AO2 SLP132 60000 T01060033 10111 20089 56023=
201212201052 METAR KATL 201052Z 12006KT 10SM FEW055 OVC075 10/03 A2994 RMK AO2 RAE04 SLP136 P0000 T01000033=
201212200952 METAR KATL 200952Z 14007KT 10SM -RA FEW055 SCT075 BKN090 10/03 A2996 RMK AO2 RAB48 SLP144 P0000 T01000033=
201212200852 METAR KATL 200852Z 12006KT 10SM SCT100 BKN250 09/03 A3000 RMK AO2 SLP155 T00890033 58014=
201212200752 METAR KATL 200752Z 11005KT 10SM BKN250 09/02 A3003 RMK AO2 SLP167 T00890022=
201212200652 METAR KATL 200652Z 18006KT 10SM BKN250 11/02 A3004 RMK AO2 SLP169 T01060022=
201212200552 METAR KATL 200552Z 17006KT 10SM FEW200 BKN250 11/03 A3004 RMK AO2 SLP169 T01060033 10156 20100 58007=
201212200452 METAR KATL 200452Z 15003KT 10SM FEW200 BKN250 11/05 A3005 RMK AO2 SLP176 T01060050 402000050=
201212200352 METAR KATL 200352Z 13003KT 10SM FEW200 BKN250 13/04 A3006 RMK AO2 SLP177 T01280044=
201212200252 METAR KATL 200252Z 15006KT 10SM FEW200 BKN250 13/05 A3006 RMK AO2 SLP178 T01330050 50002=
201212200152 METAR KATL 200152Z 16003KT 10SM FEW200 BKN250 13/06 A3007 RMK AO2 SLP182 T01280056=
201212200052 METAR KATL 200052Z 15003KT 10SM FEW200 BKN250 15/06 A3007 RMK AO2 SLP184 T01500061=
201212192352 METAR KATL 192352Z 15004KT 10SM FEW200 BKN250 16/06 A3006 RMK AO2 SLP178 T01560056 10200 20150 53007=
201212192252 METAR KATL 192252Z 00000KT 10SM FEW200 BKN250 17/06 A3004 RMK AO2 SLP175 T01670056=
201212192152 METAR KATL 192152Z 20006KT 10SM FEW200 BKN250 19/06 A3004 RMK AO2 SLP170 T01890056=
201212192052 METAR KATL 192052Z 20005KT 10SM BKN200 BKN250 19/06 A3003 RMK AO2 SLP169 T01940056 55012=
201212191952 METAR KATL 191952Z 17006KT 10SM FEW200 BKN250 19/07 A3003 RMK AO2 SLP168 T01940067=
201212191852 METAR KATL 191852Z 17004KT 10SM FEW200 BKN250 19/07 A3004 RMK AO2 SLP172 T01940067=
201212191752 METAR KATL 191752Z 31005KT 10SM FEW050 SCT200 SCT250 19/06 A3007 RMK AO2 SLP182 T01890056 10189 20050 58010=
201212191652 METAR KATL 191652Z 29007KT 10SM FEW250 17/04 A3010 RMK AO2 SLP192 T01720044=
201212191552 METAR KATL 191552Z 26007KT 10SM FEW250 16/04 A3011 RMK AO2 SLP197 T01610039=
201212191452 METAR KATL 191452Z 25004KT 10SM FEW250 13/04 A3010 RMK AO2 SLP194 T01280044 51019=
201212191352 METAR KATL 191352Z 00000KT 10SM FEW250 08/03 A3009 RMK AO2 SLP192 T00780033=
201212191252 METAR KATL 191252Z 00000KT 10SM FEW250 05/02 A3007 RMK AO2 SLP186 T00500017=
201212191152 METAR KATL 191152Z 00000KT 10SM CLR 06/01 A3004 RMK AO2 SLP176 T00560011 10078 20056 53005=
201212191052 METAR KATL 191052Z 29004KT 10SM CLR 06/01 A3004 RMK AO2 SLP173 T00610011=
201212190952 METAR KATL 190952Z 26003KT 10SM FEW250 08/01 A3003 RMK AO2 SLP169 T00780011=
201212190852 METAR KATL 190852Z 25004KT 10SM CLR 07/01 A3003 RMK AO2 SLP168 T00720011 53005=
201212190752 METAR KATL 190752Z 26004KT 10SM CLR 06/01 A3002 RMK AO2 SLP166 T00610006=
201212190652 METAR KATL 190652Z 24003KT 10SM FEW250 07/00 A3000 RMK AO2 SLP161 T00670000=
201212190552 METAR KATL 190552Z 24005KT 10SM FEW250 07/00 A3001 RMK AO2 SLP164 T00720000 10106 20072 53001=
201212190452 METAR KATL 190452Z 22004KT 10SM FEW250 08/M01 A3001 RMK AO2 SLP162 T00781006 401560072=
201212190352 METAR KATL 190352Z 23004KT 10SM CLR 08/M01 A3001 RMK AO2 SLP164 T00781006=
201212190252 METAR KATL 190252Z 23004KT 10SM CLR 08/M01 A3001 RMK AO2 SLP165 T00831006 51015=
201212190152 METAR KATL 190152Z 24004KT 10SM CLR 09/00 A3000 RMK AO2 SLP160 T00890000=
201212190052 METAR KATL 190052Z 23003KT 10SM CLR 09/00 A2999 RMK AO2 SLP157 T00940000=
201212182352 METAR KATL 182352Z 00000KT 10SM CLR 11/M02 A2996 RMK AO2 SLP148 T01061017 10156 20106 53002=
201212182252 METAR KATL 182252Z 00000KT 10SM CLR 12/M03 A2996 RMK AO2 SLP145 T01221028=
201212182152 METAR KATL 182152Z 28004KT 10SM CLR 14/M03 A2996 RMK AO2 SLP144 T01441033=
201212182052 METAR KATL 182052Z 31009KT 10SM CLR 16/M03 A2996 RMK AO2 SLP143 T01561033 53002=
201212181952 METAR KATL 181952Z 31008KT 10SM CLR 16/M03 A2995 RMK AO2 SLP140 T01561028=
201212181852 METAR KATL 181852Z 31007KT 10SM CLR 15/M01 A2995 RMK AO2 SLP140 T01501011=
201212181752 METAR KATL 181752Z 32010G17KT 10SM CLR 13/01 A2995 RMK AO2 SLP141 T01330006 10133 20072 50003=
201212181652 METAR KATL 181652Z 30009KT 10SM CLR 12/02 A2996 RMK AO2 SLP145 T01220022=
201212181552 METAR KATL 181552Z 31013KT 10SM FEW020 11/03 A2996 RMK AO2 SLP144 T01060033=
201212181452 METAR KATL 181452Z 32011KT 10SM FEW015 09/04 A2994 RMK AO2 SLP140 T00890039 53028=
201212181352 METAR KATL 181352Z 30009KT 10SM FEW012 08/05 A2991 RMK AO2 SLP129 T00780050=
201212181252 METAR KATL 181252Z 30011KT 10SM FEW012 07/05 A2988 RMK AO2 SLP120 T00720050=
201212181152 METAR KATL 181152Z 29010KT 10SM CLR 08/06 A2986 RMK AO2 SLP110 70012 T00830061 10133 20083 53023=
201212181052 METAR KATL 181052Z 29009G19KT 10SM FEW016 09/07 A2983 RMK AO2 SLP102 T00940072=
201212180952 METAR KATL 180952Z 28011KT 10SM FEW007 11/09 A2980 RMK AO2 SLP091 T01060089=
201212180852 METAR KATL 180852Z 26006KT 10SM CLR 11/10 A2979 RMK AO2 SLP086 T01110100 53006=
201212180752 METAR KATL 180752Z 26008KT 10SM FEW048 12/11 A2977 RMK AO2 SLP080 T01220106=
201212180732 SPECI KATL 180732Z 27010KT 10SM SCT011 BKN048 13/11 A2977 RMK AO2=
201212180703 SPECI KATL 180703Z 25008KT 10SM FEW008 BKN013 BKN055 13/11 A2976 RMK AO2 $=
201212180652 METAR KATL 180652Z COR 26007KT 10SM FEW008 BKN013 BKN055 13/12 A2976 RMK AO2 SLP076 T01280117=
201212180637 SPECI KATL 180637Z 25005KT 10SM SCT011 SCT055 13/12 A2976 RMK AO2=
201212180552 METAR KATL 180552Z 25008KT 10SM SCT009 BKN013 OVC060 13/12 A2977 RMK AO2 SLP078 T01330117 10139 20128 53002 $=
201212180452 METAR KATL 180452Z 24007KT 10SM FEW009 13/12 A2976 RMK AO2 SLP076 T01280117 401440117=
201212180422 SPECI KATL 180422Z 23007KT 10SM SCT010 SCT018 13/12 A2977 RMK AO2 SCT018 V BKN=
201212180357 SPECI KATL 180357Z 23005KT 10SM SCT012 BKN020 13/12 A2977 RMK AO2=
201212180352 METAR KATL 180352Z 23005KT 10SM SCT012 SCT022 13/12 A2977 RMK AO2 SLP078 T01330117=
201212180346 SPECI KATL 180346Z 24006KT 10SM FEW015 SCT022 13/12 A2977 RMK AO2=
201212180314 SPECI KATL 180314Z 23006KT 10SM SCT015 BKN022 13/12 A2976 RMK AO2=
201212180252 METAR KATL 180252Z 24006KT 10SM FEW012 SCT250 13/12 A2976 RMK AO2 SLP077 T01330117 53011=
201212180249 SPECI KATL 180249Z 24006KT 10SM FEW012 SCT250 13/12 A2976 RMK AO2=
201212180205 SPECI KATL 180205Z 25008KT 10SM SCT012 BKN017 BKN250 14/12 A2975 RMK AO2=
201212180152 METAR KATL 180152Z 25007KT 10SM FEW009 BKN014 BKN250 14/12 A2975 RMK AO2 SLP071 T01390122=
201212180126 SPECI KATL 180126Z 23005KT 10SM FEW008 BKN013 BKN250 13/12 A2974 RMK AO2=
201212180110 SPECI KATL 180110Z 22006KT 10SM FEW008 SCT013 BKN250 14/12 A2974 RMK AO2=
201212180052 METAR KATL 180052Z 22006KT 10SM FEW008 BKN013 BKN250 14/12 A2974 RMK AO2 SLP069 T01390122=
201212180015 SPECI KATL 180015Z 22007KT 10SM SCT008 BKN015 OVC250 14/13 A2974 RMK AO2=
201212172352 METAR KATL 172352Z 22009KT 10SM FEW008 SCT012 OVC250 14/13 A2973 RMK AO2 SLP066 SCT012 V BKN T01390128 10144 20139 50000=
201212172328 SPECI KATL 172328Z 22008KT 10SM SCT012 OVC250 14/13 A2973 RMK AO2 SCT012 V BKN=
201212172252 METAR KATL 172252Z 22008KT 10SM BKN012 BKN017 OVC250 14/13 A2973 RMK AO2 SLP066 T01440128=
201212172159 SPECI KATL 172159Z 24007KT 10SM BKN010 BKN050 OVC100 14/13 A2974 RMK AO2=
201212172152 SPECI KATL 172152Z 24007KT 10SM BKN007 BKN010 OVC050 14/13 A2974 RMK AO2 SLP067 T01440128=
201212172152 METAR KATL 172152Z 24007KT 10SM BKN007 BKN010 OVC050 14/13 A2974 RMK AO2 SLP067 T01440128=
201212172052 METAR KATL 172052Z 21005KT 10SM BKN009 BKN050 OVC100 14/13 A2973 RMK AO2 SLP065 T01440128 56016=
201212171952 METAR KATL 171952Z 20005KT 10SM BKN008 BKN050 OVC100 14/13 A2974 RMK AO2 SLP067 T01390128=
201212171852 METAR KATL 171852Z 19006KT 10SM BKN006 BKN010 OVC050 14/13 A2974 RMK AO2 SLP069 T01440128=
201212171752 METAR KATL 171752Z 20004KT 8SM BKN006 BKN050 OVC090 14/13 A2978 RMK AO2 SLP081 60012 T01390133 10139 20117 58024=
201212171652 METAR KATL 171652Z 19008KT 8SM BKN007 BKN040 OVC090 13/13 A2981 RMK AO2 RAB04E44 SLP091 P0002 T01330128=
201212171611 SPECI KATL 171611Z 20009KT 6SM -RA BR FEW007 SCT040 OVC090 13/12 A2982 RMK AO2 RAB04 P0000=
201212171552 METAR KATL 171552Z 20008KT 6SM BR BKN007 BKN040 OVC080 13/12 A2983 RMK AO2 RAE29 SLP100 P0001 T01330122=
201212171505 SPECI KATL 171505Z 21007KT 9SM -RA BKN007 BKN055 OVC085 13/12 A2986 RMK AO2 P0001=
201212171452 METAR KATL 171452Z 18011KT 6SM -RA BR FEW005 SCT035 OVC080 12/12 A2985 RMK AO2 SLP107 P0008 60009 T01220117 55002=
201212171426 SPECI KATL 171426Z 20011KT 4SM -RA BR FEW005 SCT060 OVC070 12/11 A2985 RMK AO2 P0005=
201212171352 METAR KATL 171352Z 16008KT 7SM -RA FEW045 OVC085 12/11 A2981 RMK AO2 RAB08 PRESFR SLP095 P0001 T01220111=
201212171328 SPECI KATL 171328Z 19008KT 7SM -RA SCT029 SCT037 OVC085 12/11 A2986 RMK AO2 RAB08 P0000=
201212171312 SPECI KATL 171312Z 21006KT 7SM -RA FEW004 BKN027 OVC050 12/11 A2986 RMK AO2 RAB08 P0000=
201212171252 METAR KATL 171252Z 19007KT 7SM FEW004 BKN035 OVC075 12/11 A2985 RMK AO2 RAB28E44 SLP109 P0000 T01170111=
201212171247 SPECI KATL 171247Z 19009KT 7SM FEW004 BKN035 OVC100 12/11 A2985 RMK AO2 RAB28E44 P0000=
201212171242 SPECI KATL 171242Z 18009KT 2 1/2SM -RA SCT004 BKN035 OVC100 12/11 A2985 RMK AO2 SFC VIS 10 RAB28 P0000=
201212171152 METAR KATL 171152Z 19006KT 2 1/2SM BR OVC004 12/11 A2985 RMK AO2 SFC VIS 4 SLP109 CIG 003V005 60002 70120 T01170111 10122 20117 53001=
201212171104 SPECI KATL 171104Z 00000KT 2 1/2SM BR BKN004 OVC046 12/11 A2985 RMK AO2 SFC VIS 5=
201212171052 METAR KATL 171052Z 22003KT 6SM BR BKN004 OVC048 12/11 A2985 RMK AO2 SLP109 T01170111=
201212171050 SPECI KATL 171050Z 22004KT 6SM BR BKN003 OVC048 12/11 A2985 RMK AO2=
201212170952 METAR KATL 170952Z 19003KT 7SM SCT004 BKN044 OVC130 12/11 A2985 RMK AO2 SLP106 T01170111=
201212170852 METAR KATL 170852Z 18003KT 10SM BCFG FEW004 SCT070 OVC150 12/11 A2985 RMK AO2 SLP107 60002 T01170111 56014=
201212170752 METAR KATL 170752Z 16006KT 10SM FEW004 BKN060 OVC130 12/11 A2987 RMK AO2 SLP114 T01220111=
201212170652 METAR KATL 170652Z 17007KT 7SM FEW005 SCT075 OVC130 12/11 A2987 RMK AO2 RAE35 SLP114 P0002 T01220111=
201212170637 SPECI KATL 170637Z 15008KT 7SM SCT004 BKN100 BKN120 12/11 A2985 RMK AO2 RAE35 P0002=
201212170611 SPECI KATL 170611Z 14011G17KT 4SM -RA BR BKN003 BKN080 OVC090 12/12 A2986 RMK AO2 P0002=
201212170552 METAR KATL 170552Z 14008KT 6SM -RA BR SCT004 BKN080 OVC090 12/12 A2989 RMK AO2 SLP121 P0004 60046 T01220117 10133 20122 58022=
201212170542 SPECI KATL 170542Z 15007KT 5SM -RA BR FEW004 BKN080 OVC095 12/12 A2990 RMK AO2 P0004=
201212170452 METAR KATL 170452Z 11005KT 7SM -RA FEW010 OVC085 13/12 A2993 RMK AO2 SLP134 P0003 T01280117 401440111=
201212170352 METAR KATL 170352Z 00000KT 7SM -RA FEW010 OVC095 13/12 A2996 RMK AO2 SLP145 P0002 T01280117=
201212170252 METAR KATL 170252Z 00000KT 7SM -RA FEW010 OVC075 13/12 A2996 RMK AO2 SLP144 P0004 60037 T01280117 53010=
201212170214 SPECI KATL 170214Z 33003KT 7SM -RA FEW009 BKN065 OVC090 13/12 A2996 RMK AO2 P0002=
201212170152 METAR KATL 170152Z 33005KT 5SM -RA BR FEW015 OVC060 13/12 A2996 RMK AO2 SLP144 P0016 T01280117=
201212170052 METAR KATL 170052Z 02009KT 2 1/2SM -RA BR SCT006 BKN055 OVC075 13/12 A2992 RMK AO2 SFC VIS 5 SLP132 P0017 T01330117=
201212162359 SPECI KATL 162359Z 04005KT 2 1/2SM RA BR SCT005 BKN055 OVC070 13/12 A2994 RMK AO2 SFC VIS 5 SCT005 V BKN P0002=
201212162352 METAR KATL 162352Z 05006KT 2 1/2SM RA BR BKN005 BKN070 OVC085 13/12 A2993 RMK AO2 SFC VIS 5 SLP135 P0014 60072 T01330122 10144 20133 51007=
201212162348 SPECI KATL 162348Z 03008KT 2 1/2SM RA BR BKN005 BKN055 OVC070 13/12 A2993 RMK AO2 SFC VIS 5 P0013=
201212162252 METAR KATL 162252Z 07004KT 1SM -RA BR BKN005 OVC065 14/13 A2993 RMK AO2 SFC VIS 3 SLP133 P0006 T01390128=
201212162227 SPECI KATL 162227Z 12004KT 1SM -RA BR OVC005 14/13 A2992 RMK AO2 SFC VIS 5 P0004=
201212162207 SPECI KATL 162207Z 00000KT 1SM -RA BR OVC003 14/13 A2993 RMK AO2 SFC VIS 4 P0001=
201212162152 METAR KATL 162152Z 03008KT 1/4SM -RA BR OVC003 14/13 A2991 RMK AO2 SFC VIS 4 SLP127 TWRINC P0004 T01440128=
201212162052 METAR KATL 162052Z 00000KT 3SM -RA BR BKN060 OVC075 14/13 A2993 RMK AO2 SLP134 P0027 60048 T01440133 56016=
201212162010 SPECI KATL 162010Z 34006KT 2 1/2SM RA BR SCT005 OVC040 14/13 A2995 RMK AO2 P0014=
201212162001 SPECI KATL 162001Z 32007KT 1 1/4SM R09R/5500VP6000FT +RA BR FEW005 SCT014 OVC028 14/13 A2995 RMK AO2 TWR VIS 2 1/2 P0009=
201212161952 METAR KATL 161952Z 32006KT 1SM R09R/4500VP6000FT +RA BR FEW005 BKN014 OVC025 14/13 A2995 RMK AO2 SLP142 P0020 T01390133=
201212161940 SPECI KATL 161940Z 31012G15KT 1 3/4SM +RA BR SCT007 OVC014 14/13 A2995 RMK AO2 PRESRR P0005=
201212161852 METAR KATL 161852Z 14004KT 5SM -RA BR BKN014 OVC060 14/13 A2994 RMK AO2 RAE30B48 SLP137 P0001 T01440128=
201212161752 METAR KATL 161752Z 00000KT 6SM -RA BR OVC014 14/12 A2998 RMK AO2 RAB26 SLP152 P0000 60000 T01440122 10144 20117 57015=
201212161740 SPECI KATL 161740Z 14004KT 7SM BKN014 OVC043 14/12 A2997 RMK AO2 RAB26E35 P0000 $=
201212161711 SPECI KATL 161711Z 13003KT 7SM BKN016 OVC040 14/12 A2999 RMK AO2 $=
201212161652 METAR KATL 161652Z 14004KT 7SM SCT016 BKN043 OVC100 14/12 A2999 RMK AO2 RAB14E51 SLP154 P0000 T01390122 $=
201212161634 SPECI KATL 161634Z 15004KT 7SM -RA FEW016 BKN040 OVC070 14/12 A3000 RMK AO2 RAB14 P0000 $=
201212161552 METAR KATL 161552Z 19005KT 8SM BKN020 BKN032 BKN120 14/12 A3002 RMK AO2 SLP165 T01440117=
201212161459 SPECI KATL 161459Z 18004KT 10SM SCT019 BKN025 OVC035 13/11 A3002 RMK AO2=
201212161452 METAR KATL 161452Z 19004KT 10SM FEW019 SCT025 OVC035 13/11 A3003 RMK AO2 SLP168 T01330111 53005=
201212161352 METAR KATL 161352Z 00000KT 7SM FEW020 BKN095 OVC180 12/09 A3002 RMK AO2 SLP164 T01220094=
201212161252 METAR KATL 161252Z 00000KT 7SM FEW019 SCT028 BKN100 BKN150 12/09 A3002 RMK AO2 SLP164 T01170089=
201212161250 SPECI KATL 161250Z 13004KT 7SM FEW019 SCT028 BKN100 BKN150 12/09 A3001 RMK AO2=
201212161152 METAR KATL 161152Z 14003KT 10SM FEW019 BKN028 BKN100 OVC150 12/09 A3001 RMK AO2 SLP162 T01220089 10122 20111 53002=
201212161052 METAR KATL 161052Z 14004KT 10SM OVC023 12/08 A3000 RMK AO2 SLP159 T01170083=
201212160952 METAR KATL 160952Z 15003KT 10SM OVC020 12/08 A3001 RMK AO2 SLP160 T01170078=
201212160852 METAR KATL 160852Z 16004KT 10SM OVC020 12/08 A3001 RMK AO2 SLP160 T01170078 58014=
201212160752 METAR KATL 160752Z 18004KT 10SM BKN023 OVC090 12/07 A3003 RMK AO2 SLP168 T01170067=
201212160652 METAR KATL 160652Z 00000KT 10SM BKN025 OVC095 11/06 A3004 RMK AO2 SLP172 T01110061=
201212160552 METAR KATL 160552Z 15004KT 10SM BKN025 OVC095 11/06 A3005 RMK AO2 SLP175 T01110056 10133 20111 58016=
201212160452 METAR KATL 160452Z 00000KT 10SM BKN027 BKN095 OVC120 12/06 A3009 RMK AO2 SLP190 T01170056 401560067=
201212160352 METAR KATL 160352Z 00000KT 10SM BKN028 BKN120 OVC250 12/05 A3008 RMK AO2 SLP188 T01170050=
201212160252 METAR KATL 160252Z 12004KT 10SM FEW028 BKN095 OVC120 12/05 A3010 RMK AO2 SLP192 T01170050 53001=
201212160152 METAR KATL 160152Z 10004KT 10SM FEW028 BKN100 OVC250 12/06 A3009 RMK AO2 SLP192 T01220056=
201212160115 SPECI KATL 160115Z 12006KT 10SM SCT028 BKN100 OVC250 13/06 A3008 RMK AO2=
201212160052 METAR KATL 160052Z 11006KT 10SM BKN028 BKN095 OVC250 13/06 A3009 RMK AO2 SLP190 T01330056=
201212160030 SPECI KATL 160030Z 12004KT 10SM BKN027 BKN095 OVC250 13/06 A3009 RMK AO2=
201212152352 METAR KATL 152352Z 13003KT 10SM SCT028 BKN095 OVC250 13/06 A3009 RMK AO2 SLP191 T01330056 10156 20122 50003=
201212152252 METAR KATL 152252Z 00000KT 10SM BKN028 BKN095 BKN250 14/06 A3009 RMK AO2 SLP191 T01390061=
201212152152 METAR KATL 152152Z 15005KT 10SM FEW100 BKN250 14/06 A3010 RMK AO2 SLP193 T01440056=
201212152052 METAR KATL 152052Z 14006KT 10SM SCT100 BKN250 15/05 A3008 RMK AO2 SLP188 T01500050 56028=
201212151952 METAR KATL 151952Z 17006KT 10SM BKN080 BKN250 14/05 A3011 RMK AO2 SLP197 T01390050=
201212151852 METAR KATL 151852Z 14005KT 10SM BKN090 OVC250 13/04 A3012 RMK AO2 SLP202 T01280044=
201212151752 METAR KATL 151752Z 15006KT 10SM BKN090 BKN250 13/04 A3017 RMK AO2 SLP217 T01280044 10128 20078 58021=
201212151652 METAR KATL 151652Z 14007KT 10SM BKN110 BKN250 11/04 A3019 RMK AO2 SLP225 T01110039=
201212151552 METAR KATL 151552Z 14005KT 10SM OVC100 10/03 A3023 RMK AO2 SLP237 T01000033=
201212151452 METAR KATL 151452Z 12004KT 10SM OVC100 09/03 A3023 RMK AO2 SLP240 T00890028 53012=
201212151352 METAR KATL 151352Z 13004KT 10SM OVC100 08/03 A3021 RMK AO2 SLP233 T00830028=
201212151252 METAR KATL 151252Z 11004KT 10SM BKN120 OVC220 08/03 A3018 RMK AO2 SLP223 T00780028=
201212151152 METAR KATL 151152Z 10003KT 10SM OVC120 08/03 A3020 RMK AO2 SLP228 T00780028 10089 20067 51007=
201212151052 METAR KATL 151052Z 10003KT 10SM OVC150 08/03 A3019 RMK AO2 SLP223 T00780028=
201212150952 METAR KATL 150952Z 08004KT 10SM OVC150 08/03 A3019 RMK AO2 SLP224 T00780028=
201212150852 METAR KATL 150852Z 10003KT 10SM OVC180 08/03 A3018 RMK AO2 SLP220 T00780028 58002=
201212150752 METAR KATL 150752Z 09004KT 10SM SCT180 BKN250 07/03 A3019 RMK AO2 SLP225 T00720028=
201212150652 METAR KATL 150652Z 09005KT 10SM SCT200 SCT250 07/03 A3020 RMK AO2 SLP226 T00720028=
201212150552 METAR KATL 150552Z 12005KT 10SM BKN200 BKN250 09/03 A3018 RMK AO2 SLP222 T00890028 10117 20072 56014=
201212150452 METAR KATL 150452Z 11005KT 10SM SCT200 BKN250 08/03 A3019 RMK AO2 PRESFR SLP225 T00830028 401500028=
201212150352 METAR KATL 150352Z 12005KT 10SM SCT200 BKN250 10/03 A3019 RMK AO2 SLP226 T01000033=
201212150252 METAR KATL 150252Z 12004KT 10SM BKN200 OVC250 10/03 A3023 RMK AO2 SLP239 T01000033 50000 $=
201212150152 METAR KATL 150152Z 00000KT 10SM BKN200 OVC250 10/03 A3024 RMK AO2 SLP244 T01000028 $=
201212150052 METAR KATL 150052Z 12003KT 10SM FEW200 BKN250 11/03 A3023 RMK AO2 SLP239 T01110028 $=
201212142352 METAR KATL 142352Z 00000KT 10SM FEW200 BKN250 12/02 A3023 RMK AO2 SLP239 T01170022 10150 20117 53002 $=
201212142252 METAR KATL 142252Z 00000KT 10SM FEW200 SCT250 12/03 A3022 RMK AO2 SLP237 T01170028 $=
201212142152 METAR KATL 142152Z 15003KT 10SM BKN250 14/02 A3022 RMK AO2 SLP237 T01390022=
201212142052 METAR KATL 142052Z 13004KT 10SM SCT250 15/02 A3022 RMK AO2 SLP236 T01500017 56022=
201212141952 METAR KATL 141952Z 09004KT 10SM FEW250 14/02 A3023 RMK AO2 SLP239 T01440022=
201212141852 METAR KATL 141852Z 00000KT 10SM SCT250 13/02 A3026 RMK AO2 SLP250 T01330017=
201212141752 METAR KATL 141752Z 14003KT 10SM SCT250 12/01 A3029 RMK AO2 SLP260 T01220011 10122 20044 58030=
201212141652 METAR KATL 141652Z 11007KT 10SM BKN250 11/00 A3032 RMK AO2 SLP270 T01110000=
201212141552 METAR KATL 141552Z 13006KT 10SM FEW250 10/02 A3036 RMK AO2 SLP283 T01000017=
201212141452 METAR KATL 141452Z 09005KT 10SM FEW250 08/01 A3038 RMK AO2 SLP292 T00780006 53009=
201212141352 METAR KATL 141352Z VRB03KT 10SM CLR 07/M01 A3038 RMK AO2 SLP290 T00671011=
201212141252 METAR KATL 141252Z 06005KT 10SM FEW250 04/M01 A3035 RMK AO2 SLP284 T00441006=
201212141152 METAR KATL 141152Z 04005KT 10SM FEW026 04/00 A3035 RMK AO2 SLP283 T00440000 10061 20028 53011=
201212141052 METAR KATL 141052Z 03005KT 10SM SCT026 05/01 A3034 RMK AO2 SLP276 T00500011=
201212141032 SPECI KATL 141032Z 04006KT 10SM SCT026 05/01 A3032 RMK AO2=
201212140952 METAR KATL 140952Z 03005KT 10SM BKN026 06/02 A3033 RMK AO2 SLP273 T00560017=
201212140936 SPECI KATL 140936Z 03005KT 10SM BKN026 05/02 A3033 RMK AO2=
201212140852 METAR KATL 140852Z 05003KT 10SM CLR 04/02 A3032 RMK AO2 SLP269 T00440017 52002=
201212140752 METAR KATL 140752Z 08003KT 10SM CLR 06/02 A3032 RMK AO2 SLP270 T00560022=
201212140652 METAR KATL 140652Z 08004KT 10SM CLR 05/02 A3031 RMK AO2 SLP267 T00500022=
201212140552 METAR KATL 140552Z 07005KT 10SM CLR 06/02 A3031 RMK AO2 SLP268 T00560022 10100 20050 58003=
201212140452 METAR KATL 140452Z 07004KT 10SM CLR 06/02 A3032 RMK AO2 SLP270 T00560022 401390056=
201212140352 METAR KATL 140352Z 00000KT 10SM CLR 06/03 A3032 RMK AO2 SLP270 T00610028=
201212140252 METAR KATL 140252Z 00000KT 10SM CLR 07/03 A3032 RMK AO2 SLP272 T00720033 51011=
201212140152 METAR KATL 140152Z 16003KT 10SM CLR 08/03 A3032 RMK AO2 SLP271 T00780033=
201212140052 METAR KATL 140052Z 15003KT 10SM CLR 09/03 A3031 RMK AO2 SLP268 T00890033=
201212132352 METAR KATL 132352Z 14003KT 10SM CLR 10/03 A3029 RMK AO2 SLP261 T01000033 10139 20100 51006=
201212132252 METAR KATL 132252Z 12004KT 10SM CLR 12/03 A3029 RMK AO2 SLP258 T01170028=
201212132152 METAR KATL 132152Z 11005KT 10SM CLR 13/03 A3029 RMK AO2 SLP257 T01280033=
201212132052 METAR KATL 132052Z 09009KT 10SM CLR 14/03 A3027 RMK AO2 SLP252 T01390033 56015=
201212131952 METAR KATL 131952Z 00000KT 10SM FEW040 13/03 A3028 RMK AO2 SLP255 T01330028=
201212131852 METAR KATL 131852Z 36004KT 10SM FEW040 13/03 A3029 RMK AO2 SLP260 T01330028=
201212131752 METAR KATL 131752Z 05006KT 10SM FEW040 12/02 A3032 RMK AO2 SLP269 T01220022 10122 20061 58008=
201212131652 METAR KATL 131652Z VRB03KT 10SM FEW030 11/02 A3034 RMK AO2 SLP276 T01110022=
201212131552 METAR KATL 131552Z 07007KT 10SM FEW030 11/02 A3035 RMK AO2 SLP280 T01060022=
201212131452 METAR KATL 131452Z 08009KT 10SM FEW030 09/02 A3034 RMK AO2 SLP278 T00890017 51020=
201212131352 METAR KATL 131352Z 04008KT 10SM CLR 08/01 A3033 RMK AO2 SLP272 T00780006=
201212131252 METAR KATL 131252Z 04006KT 10SM CLR 07/01 A3031 RMK AO2 SLP267 T00670011=
201212131152 METAR KATL 131152Z 05009KT 10SM FEW032 06/01 A3028 RMK AO2 SLP259 T00610011 10078 20061 55000=
201212131052 METAR KATL 131052Z 05007KT 10SM BKN032 07/02 A3027 RMK AO2 SLP254 T00720017=
201212130952 METAR KATL 130952Z 05007KT 10SM FEW026 OVC034 08/02 A3028 RMK AO2 SLP258 T00780017=
201212130934 SPECI KATL 130934Z 04009KT 10SM SCT026 OVC034 08/01 A3028 RMK AO2=
201212130852 METAR KATL 130852Z 05007KT 10SM OVC026 08/02 A3028 RMK AO2 SLP257 T00780017 53014=
201212130752 METAR KATL 130752Z 05010KT 10SM OVC022 08/02 A3026 RMK AO2 SLP248 BINOVC T00780022=
201212130652 METAR KATL 130652Z 06010G19KT 10SM BKN020 07/02 A3023 RMK AO2 SLP239 T00720022=
201212130552 METAR KATL 130552Z 06007KT 10SM OVC024 08/03 A3024 RMK AO2 SLP243 60000 T00780028 10100 20067 53007=
201212130452 METAR KATL 130452Z 09005KT 10SM BKN025 07/03 A3023 RMK AO2 SLP240 T00670028 401110028=
201212130352 METAR KATL 130352Z 06013KT 10SM FEW025 08/03 A3021 RMK AO2 SLP232 T00780028=
201212130326 SPECI KATL 130326Z 07012KT 10SM SCT028 SCT250 08/03 A3020 RMK AO2=
201212130252 METAR KATL 130252Z 08011KT 10SM BKN028 BKN100 BKN250 09/03 A3022 RMK AO2 RAB17E28 SLP236 P0000 60000 T00890033 50005=
201212130152 METAR KATL 130152Z 03005KT 10SM BKN026 OVC090 09/03 A3024 RMK AO2 RAB07E37 SLP244 P0000 T00940033=
201212130052 METAR KATL 130052Z 04009KT 10SM OVC026 10/04 A3021 RMK AO2 SLP235 T01000039=
201212122352 METAR KATL 122352Z 04008KT 10SM OVC024 09/04 A3020 RMK AO2 SLP232 T00940044 10111 20089 53010=
201212122252 METAR KATL 122252Z 07010G17KT 10SM BKN025 BKN100 10/04 A3017 RMK AO2 SLP221 T01000039=
201212122216 SPECI KATL 122216Z 04006KT 10SM BKN026 OVC100 10/04 A3018 RMK AO2=
201212122152 METAR KATL 122152Z 05012KT 10SM FEW030 BKN100 BKN250 10/04 A3017 RMK AO2 SLP220 T01000039=
201212122052 METAR KATL 122052Z 05008KT 10SM FEW030 SCT100 SCT250 11/03 A3017 RMK AO2 SLP223 T01060033 53002=
201212121952 METAR KATL 121952Z 07010KT 10SM FEW030 SCT100 SCT150 BKN250 11/03 A3016 RMK AO2 SLP216 T01110033=
201212121852 METAR KATL 121852Z 06009KT 10SM FEW110 BKN150 BKN250 09/03 A3016 RMK AO2 SLP217 T00940028=
201212121752 METAR KATL 121752Z 06009KT 10SM FEW060 BKN120 BKN150 BKN250 09/02 A3017 RMK AO2 SLP221 VIRGA DSNT NE-SE T00890022 10094 20033 58010=
201212121652 METAR KATL 121652Z 06006KT 10SM FEW060 BKN150 BKN250 09/02 A3018 RMK AO2 SLP226 VIRGA DSNT E-NW T00890022=
201212121552 METAR KATL 121552Z 04009KT 10SM FEW060 BKN150 BKN250 08/01 A3020 RMK AO2 SLP231 T00780011=
201212121452 METAR KATL 121452Z 04008KT 10SM FEW060 BKN150 BKN250 07/01 A3020 RMK AO2 SLP232 T00720011 53018=
201212121352 METAR KATL 121352Z 36008KT 10SM SCT150 OVC200 05/01 A3018=
201212121252 METAR KATL 121252Z 01008KT 8SM SCT150 OVC250 05/01 A3014 RMK AO2 SLP213 VIRGA ALQDS T00500006=
201212121152 METAR KATL 121152Z 36006KT 10SM FEW150 OVC250 04/01 A3015 RMK AO2 SLP214 T00440006 10044 20028 53002=
201212121052 METAR KATL 121052Z 35006KT 10SM BKN150 OVC250 03/00 A3014 RMK AO2 SLP211 T00330000=
201212120952 METAR KATL 120952Z 33006KT 10SM OVC220 03/M01 A3014 RMK AO2 SLP212 T00281006=
201212120852 METAR KATL 120852Z 32007KT 10SM OVC200 03/M01 A3014 RMK AO2 SLP212 T00281006 51003=
201212120752 METAR KATL 120752Z 34004KT 10SM OVC180 03/M01 A3013 RMK AO2 SLP210 T00281011=
201212120652 METAR KATL 120652Z 33006KT 10SM OVC180 03/M01 A3014=
201212120552 METAR KATL 120552Z 32006KT 10SM BKN150 OVC200 03/M01 A3013 RMK AO2 SLP209 T00281011 10039 20022 51011=
201212120452 METAR KATL 120452Z 33007KT 10SM BKN150 OVC200 03/M01 A3012 RMK AO2 SLP205 T00281011 401000022=
201212120352 METAR KATL 120352Z 31008KT 10SM BKN200 OVC250 03/M02 A3011 RMK AO2 SLP204 T00281017=
201212120252 METAR KATL 120252Z 32006KT 10SM FEW200 OVC250 02/M01 A3010 RMK AO2 SLP199 T00221011 51009=
201212120152 METAR KATL 120152Z 33007KT 10SM BKN200 OVC250 03/M01 A3009 RMK AO2 SLP197 T00281011=
201212111752 METAR KATL 111752Z 31012KT 10SM FEW025 SCT150 BKN250 07/01 A3002 RMK AO2 SLP170 T00670006 10067 20028 58003=
201212111652 METAR KATL 111652Z 32010KT 10SM FEW015 SCT180 BKN250 06/01 A3003 RMK AO2 SLP172 T00560006=
201212111552 METAR KATL 111552Z 31013KT 10SM FEW015 SCT180 BKN250 04/00 A3003 RMK AO2 SLP171 T00440000=
201212111452 METAR KATL 111452Z 33010KT 8SM FEW013 SCT200 BKN250 04/00 A3003 RMK AO2 SLP172 T00440000 51024=
201212111352 METAR KATL 111352Z 32013G17KT 7SM SCT013 BKN250 03/M01 A3001 RMK AO2 SLP163 T00281006=
201212111252 METAR KATL 111252Z 32012KT 7SM SCT012 SCT180 BKN250 03/M01 A3000 RMK AO2 SLP159 T00281006=
201212111152 METAR KATL 111152Z 32011KT 10SM FEW014 SCT250 03/00 A2996 RMK AO2 SLP147 70085 T00330000 10094 20033 53022=
201212111052 METAR KATL 111052Z 32012KT 10SM FEW016 04/01 A2993 RMK AO2 SLP137 T00390006=
201212110952 METAR KATL 110952Z 31010KT 10SM FEW016 05/01 A2991 RMK AO2 SLP129 T00500011=
201212110852 METAR KATL 110852Z 32010KT 10SM FEW016 06/02 A2989 RMK AO2 SLP123 T00610022 53011=
201212110832 SPECI KATL 110832Z 32012KT 10SM SCT016 07/03 A2989 RMK AO2=
201212110752 METAR KATL 110752Z 34014KT 10SM BKN016 BKN032 07/03 A2988 RMK AO2 SLP117 T00720033=
201212110652 METAR KATL 110652Z 31011KT 10SM BKN015 OVC032 08/05 A2986 RMK AO2 SLP111 T00830050=
201212110603 SPECI KATL 110603Z 33013KT 10SM SCT009 BKN015 OVC032 09/07 A2986 RMK AO2=
201212110552 METAR KATL 110552Z 32016G20KT 10SM BKN009 OVC015 09/07 A2986 RMK AO2 SLP109 T00940067 10161 20094 51020=
201212110541 SPECI KATL 110541Z 31010G18KT 10SM OVC009 09/07 A2986 RMK AO2=
201212110502 SPECI KATL 110502Z 31013KT 10SM BKN011 OVC034 10/08 A2984 RMK AO2=
201212110452 METAR KATL 110452Z 30014KT 10SM SCT011 OVC034 11/08 A2985 RMK AO2 SLP104 T01060083 402000106=
201212110426 SPECI KATL 110426Z 31014KT 10SM SCT022 OVC034 11/08 A2985 RMK AO2=
201212110352 METAR KATL 110352Z 30013G22KT 10SM SCT010 OVC017 12/09 A2984 RMK AO2 SLP103 T01170089=
201212110339 SPECI KATL 110339Z 31014G24KT 10SM BKN010 OVC013 12/09 A2984 RMK AO2=
201212110300 SPECI KATL 110300Z 33013G20KT 10SM BKN006 OVC015 14/12 A2981 RMK AO2=
201212110252 METAR KATL 110252Z 29010KT 10SM FEW009 BKN015 OVC150 15/13 A2980 RMK AO2 SLP087 T01500133 53011=
201212110245 SPECI KATL 110245Z 29010G19KT 10SM FEW005 BKN015 OVC150 15/13 A2979 RMK AO2=
201212110240 SPECI KATL 110240Z 30014G19KT 10SM FEW005 SCT015 OVC150 16/14 A2979 RMK AO2=
201212110209 SPECI KATL 110209Z 24006KT 10SM SCT013 OVC150 16/14 A2978 RMK AO2 $=
201212110152 METAR KATL 110152Z COR 23006KT 10SM FEW009 OVC013 16/14 A2978 RMK AO2 SLP082 T01560144 $=
201212110144 SPECI KATL 110144Z 22007KT 10SM SCT008 BKN013 OVC110 16/15 A2979 RMK AO2 BKN013 V SCT $=
201212110133 SPECI KATL 110133Z 23005KT 10SM SCT008 BKN015 OVC110 16/14 A2978 RMK AO2 BKN015 V SCT $=
201212110112 SPECI KATL 110112Z 21005KT 10SM FEW008 SCT015 BKN110 16/14 A2977 RMK AO2 $=
201212110052 METAR KATL 110052Z 22004KT 10SM FEW008 BKN015 OVC110 16/15 A2976 RMK AO2 SLP075 T01610150 $=
201212110049 SPECI KATL 110049Z 23004KT 10SM FEW010 BKN016 OVC110 16/15 A2977 RMK AO2 $=
201212110038 SPECI KATL 110038Z 22005KT 10SM BKN011 BKN020 BKN030 16/15 A2977 RMK AO2 $=
201212110013 SPECI KATL 110013Z 24005KT 10SM FEW009 SCT026 SCT031 16/15 A2976 RMK AO2 $=
201212110009 SPECI KATL 110009Z 24006KT 10SM FEW011 SCT025 BKN030 16/15 A2976 RMK AO2 $=
201212102354 SPECI KATL 102354Z 24005KT 10SM FEW007 SCT013 BKN026 16/15 A2975 RMK AO2 $=
201212102352 METAR KATL 102352Z 23004KT 10SM FEW007 BKN013 OVC026 16/15 A2975 RMK AO2 RAE26 SLP069 P0001 60085 T01610150 10200 20156 56002 $=
201212102348 SPECI KATL 102348Z 24005KT 10SM FEW007 BKN013 OVC026 16/15 A2975 RMK AO2 RAE26 P0001 $=
201212102335 SPECI KATL 102335Z 25005KT 10SM BKN009 BKN015 OVC080 16/15 A2976 RMK AO2 RAE26 BKN017 V SCT P0001 $=
201212102319 SPECI KATL 102319Z 24005KT 10SM -RA SCT007 BKN017 OVC110 16/15 A2975 RMK AO2 BKN017 V SCT P0001 $=
201212102252 METAR KATL 102252Z 20008KT 10SM -RA FEW008 OVC095 16/15 A2974 RMK AO2 SLP068 P0009 T01560150 $=
201212102152 METAR KATL 102152Z 20007KT 7SM -RA FEW050 SCT080 OVC100 16/14 A2975 RMK AO2 SLP070 P0008 T01610144 $=
201212102052 METAR KATL 102052Z 26005KT 10SM -RA FEW030 BKN080 OVC100 16/14 A2976 RMK AO2 SLP075 P0004 60067 T01610144 58004=
201212101952 METAR KATL 101952Z 20004KT 3SM -RA BR FEW007 BKN060 OVC090 16/14 A2977 RMK AO2 SFC VIS 6 SLP076 P0018 T01560144=
201212101902 SPECI KATL 101902Z 24003KT 3SM R09R/5000VP6000FT -RA BR BKN005 BKN030 OVC050 16/14 A2978 RMK AO2 SFC VIS 4 CB NE-SE MOV NE P0009=
201212101852 METAR KATL 101852Z 26008KT 3SM R09R/6000VP6000FT -RA BR FEW020CB BKN030 OVC040 16/14 A2980 RMK AO2 WSHFT 1802 SFC VIS 5 TSE30RAB06 SLP087 TS MOV NE CB NE-SE MOV NE P0045 T01560144=
201212101830 SPECI KATL 101830Z 24008KT 2SM R09R/5500VP6000FT -RA BR FEW020CB BKN030 OVC040 16/14 A2979 RMK AO2 WSHFT 1802 SFC VIS 4 TSE30RAB06 TS MOV NE CB NE-SE & DSNT SW P0036=
201212101824 SPECI KATL 101824Z 26010G17KT 2SM R09R/5000VP6000FT -TSRA BR FEW020CB BKN030 OVC040 16/14 A2979 RMK AO2 WSHFT 1802 SFC VIS 4 RAB06 VIS LWR NE-SE SHRA OCNL LTGIC NE-SE TS NE-SE MOV NE P0031=
201212101817 SPECI KATL 101817Z 27010G23KT 2SM R09R/3500VP6000FT TSRA FEW017CB BKN025 OVC035 16/14 A2979 RMK AO2 WSHFT 1802 SFC VIS 3 RAB06 VIS LWR NE-SE SHRA OCNL LTGIC OHD-NE-SE TS OHD-NE-SE MOV NE P0025=
201212101813 SPECI KATL 101813Z 27012G23KT 2SM R09R/4000VP6000FT TSRA FEW017CB BKN030 OVC040 16/14 A2979 RMK AO2 SFC VIS 3 RAB06 VIS LWR NE-SE SHRA OCNL LTGIC OHD-NE-SE TS OHD-NE-SE MOV NE P0012=
201212101807 SPECI KATL 101807Z 28016G23KT 1SM R09R/5500VP6000FT +TSRA BKN024CB BKN030 OVC040 18/15 A2978 RMK AO2 TWR VIS 2 RAB06 OCNL LTGIC OHD-N-NE TS OHD-N-NE MOV NE P0001=
201212101802 SPECI KATL 101802Z 25010G19KT 10SM TS BKN024CB BKN040 OVC050 20/14 A2978 RMK AO2 VIS LWR N-NE SHRA OCNL LTGIC N-NE TS N-NE MOV NE=
201212101756 SPECI KATL 101756Z 21012G19KT 10SM TS BKN024CB BKN040 OVC050 20/14 A2978 RMK AO2 OCNL LTGIC NW-N TS VC NW-N MOV NE SHRA VC SW-NW=
201212101752 METAR KATL 101752Z 21013G19KT 10SM TS BKN024CB BKN030 OVC050 20/14 A2978 RMK AO2 TSB43 SLP078 OCNL LTGIC SW-NW TS VC SW-NW MOV NE SHRA VC SW-NW T02000144 10200 20172 58023=
201212101743 SPECI KATL 101743Z 21012G19KT 10SM TS BKN024CB BKN030 OVC050 20/14 A2978 RMK AO2 TSB43 OCNL LTGIC SW-NW TS VC SW-NW MOV NE SHRA VC SW-NW=
201212101652 METAR KATL 101652Z 22016G22KT 10SM BKN025 BKN055 OVC080 19/14 A2981 RMK AO2 SLP090 T01940144=
201212101552 METAR KATL 101552Z 21012G19KT 10SM BKN019 BKN025 OVC080 19/15 A2983 RMK AO2 SLP098 T01940150=
201212101452 METAR KATL 101452Z 21012G17KT 10SM FEW018 SCT025 OVC080 18/14 A2985 RMK AO2 SLP102 T01830144 58002=
201212101352 METAR KATL 101352Z 22015KT 7SM BKN018 OVC085 18/14 A2985 RMK AO2 SLP104 CIG 016V020 T01780144=
201212101326 SPECI KATL 101326Z 22013G20KT 7SM OVC017 18/14 A2986 RMK AO2 CIG 014V020=
201212101252 METAR KATL 101252Z 22009KT 7SM FEW009 BKN014 OVC080 17/15 A2985 RMK AO2 SLP105 CIG 012V016 T01720150=
201212101218 SPECI KATL 101218Z 20012KT 7SM FEW009 BKN012 OVC018 17/14 A2986 RMK AO2=
201212101152 METAR KATL 101152Z 20009KT 8SM OVC009 17/14 A2985 RMK AO2 SLP105 T01670144 10167 20150 55017=
201212101052 METAR KATL 101052Z 20009KT 7SM OVC009 16/14 A2985 RMK AO2 SLP103 T01610139=
201212101035 SPECI KATL 101035Z 19010KT 7SM BKN009 OVC080 16/14 A2985 RMK AO2=
201212101022 SPECI KATL 101022Z 20009KT 10SM BKN011 BKN033 OVC200 16/14 A2986 RMK AO2=
201212100952 METAR KATL 100952Z 20010G20KT 10SM SCT020 SCT032 BKN200 16/14 A2988 RMK AO2 SLP112 T01560139=
201212100852 METAR KATL 100852Z 21010G17KT 10SM SCT018 BKN032 BKN080 16/14 A2991 RMK AO2 SLP122 T01610139 56017=
201212100830 SPECI KATL 100830Z 22009KT 10SM FEW010 BKN025 OVC065 16/13 A2992 RMK AO2=
201212100752 METAR KATL 100752Z 19008KT 10SM OVC033 16/13 A2992 RMK AO2 SLP128 T01610133=
201212100652 METAR KATL 100652Z 18008KT 10SM OVC030 16/13 A2994 RMK AO2 SLP134 T01560133=
201212100631 SPECI KATL 100631Z 18007KT 10SM OVC030 16/13 A2995 RMK AO2=
201212100605 SPECI KATL 100605Z 19006KT 10SM BKN028 15/13 A2996 RMK AO2=
201212100552 METAR KATL 100552Z 19007KT 10SM FEW050 BKN200 15/13 A2996 RMK AO2 SLP140 T01500133 10172 20150 58012=
201212100452 METAR KATL 100452Z 17003KT 10SM BKN200 16/13 A2997 RMK AO2 SLP145 T01560128 402170144=
201212100352 METAR KATL 100352Z 20005KT 10SM OVC200 16/13 A2999 RMK AO2 SLP152 T01560128=
201212100252 METAR KATL 100252Z 17007KT 10SM OVC250 16/12 A2999 RMK AO2 SLP153 T01610122 58006=
201212100152 METAR KATL 100152Z 17006KT 10SM BKN250 16/11 A3000 RMK AO2 SLP157 T01610111=
201212100052 METAR KATL 100052Z 18005KT 10SM BKN250 17/11 A3001 RMK AO2 SLP158 T01670111=
201212092352 METAR KATL 092352Z 18004KT 10SM BKN250 17/12 A3001 RMK AO2 SLP159 T01720117 10217 20172 58002=
201212092252 METAR KATL 092252Z 20005KT 10SM FEW040 SCT055 BKN080 BKN250 18/12 A3002 RMK AO2 SLP163 T01830117=
201212092152 SPECI KATL 092152Z 24006KT 10SM FEW038 BKN055 BKN250 21/12 A3002 RMK AO2 SLP162 T02060117=
201212092152 METAR KATL 092152Z 24006KT 10SM FEW038 BKN055 BKN250 21/12 A3002 RMK AO2 SLP162 T02060117=
201212092052 METAR KATL 092052Z 22006KT 10SM FEW035 BKN048 BKN250 21/12 A3002 RMK AO2 SLP161 T02110122 55011=
201212091952 METAR KATL 091952Z 23006KT 10SM FEW030 SCT050 BKN250 21/13 A3001 RMK AO2 SLP159 T02060128=
201212091852 METAR KATL 091852Z 21007KT 10SM FEW025 OVC050 20/13 A3003 RMK AO2 SLP164 T02000133=
201212091752 METAR KATL 091752Z 23008KT 10SM SCT023 OVC044 19/14 A3005 RMK AO2 SLP172 T01940139 10206 20150 58014=
201212091652 METAR KATL 091652Z 19006KT 10SM SCT018 BKN030 19/14 A3008 RMK AO2 SLP182 T01890144=
201212091647 SPECI KATL 091647Z 20006KT 10SM FEW018 SCT023 BKN030 19/14 A3008 RMK AO2=
201212091611 SPECI KATL 091611Z 20008KT 10SM SCT014 BKN020 18/14 A3009 RMK AO2=
201212091555 SPECI KATL 091555Z 22009KT 10SM FEW009 OVC014 18/14 A3009 RMK AO2=
201212091552 METAR KATL 091552Z 23009KT 10SM SCT012 BKN016 BKN020 18/15 A3010 RMK AO2 SLP187 T01830150=
201212091538 SPECI KATL 091538Z 23006KT 10SM SCT012 BKN018 BKN080 18/16 A3009 RMK AO2 SCT012 V BKN=
201212091524 SPECI KATL 091524Z 21006KT 10SM SCT010 BKN030 BKN080 17/15 A3010 RMK AO2 SCT010 V BKN=
201212091511 SPECI KATL 091511Z 19005KT 7SM BKN006 BKN030 BKN080 17/15 A3010 RMK AO2 BKN006 V SCT=
201212091502 SPECI KATL 091502Z 19007KT 7SM SCT006 SCT028 BKN080 BKN250 17/15 A3010 RMK AO2 SCT006 V BKN=
201212091452 METAR KATL 091452Z 19006KT 7SM SCT006 BKN028 BKN080 BKN250 17/15 A3010 RMK AO2 SLP189 T01670150 53007=
201212091437 SPECI KATL 091437Z 15004KT 7SM FEW004 SCT012 BKN028 16/16 A3010 RMK AO2=
201212091426 SPECI KATL 091426Z 16005KT 6SM BR SCT004 BKN010 BKN028 16/15 A3010 RMK AO2=
201212091416 SPECI KATL 091416Z 18006KT 3SM BR SCT004 BKN009 OVC028 16/15 A3010 RMK AO2 SFC VIS 6=
201212091410 SPECI KATL 091410Z 18004KT 3SM BR BKN004 BKN028 16/15 A3009 RMK AO2 SFC VIS 6=
201212091352 METAR KATL 091352Z 18003KT 1/2SM BR OVC004 16/15 A3009 RMK AO2 SFC VIS 4 SLP187 CIG 003V007 T01560150=
201212091317 SPECI KATL 091317Z 18004KT 1/4SM BR BKN004 OVC009 16/15 A3009 RMK AO2 SFC VIS 1 1/2=
201212091252 METAR KATL 091252Z 18004KT 1/4SM BR BKN005 OVC010 15/14 A3008 RMK AO2 SFC VIS 1 1/4 SLP185 T01500144=
201212091236 SPECI KATL 091236Z 21005KT 2SM BR FEW003 OVC008 15/14 A3009 RMK AO2 SFC VIS 2 1/2=
201212091152 METAR KATL 091152Z 21004KT 1/4SM R09R/P6000FT BR OVC003 15/14 A3008 RMK AO2 SFC VIS 1 SLP183 CIG 002V005 70006 T01500144 10156 20144 53011=
201212091052 METAR KATL 091052Z 24003KT 1/4SM R09R/5000VP6000FT BR OVC003 15/14 A3006 RMK AO2 SFC VIS 3/4 SLP176 CIG 002V004 T01500144=
201212091045 SPECI KATL 091045Z 24004KT 1/4SM R09R/5000VP6000FT BR OVC003 15/14 A3005 RMK AO2 SFC VIS 1 1/4 CIG 002V004=
201212091010 SPECI KATL 091010Z 21003KT 4SM BR FEW002 BKN004 OVC013 15/14 A3004 RMK AO2=
201212090952 METAR KATL 090952Z 22003KT 6SM BR BKN005 OVC013 15/14 A3004 RMK AO2 SLP168 T01500139=
201212090900 SPECI KATL 090900Z 20003KT 7SM BKN008 OVC020 15/14 A3004 RMK AO2=
201212090852 METAR KATL 090852Z 00000KT 7SM SCT008 OVC012 14/14 A3004 RMK AO2 SLP169 T01440139 52000=
201212090844 SPECI KATL 090844Z 00000KT 7SM FEW008 OVC012 14/14 A3004 RMK AO2=
201212090822 SPECI KATL 090822Z 00000KT 7SM BKN012 BKN042 OVC055 14/14 A3004 RMK AO2=
201212090804 SPECI KATL 090804Z 00000KT 8SM FEW012 SCT029 BKN044 15/14 A3004 RMK AO2=
201212090752 METAR KATL 090752Z 00000KT 8SM FEW015 BKN029 BKN055 14/13 A3004 RMK AO2 SLP169 T01440133=
201212090744 SPECI KATL 090744Z 00000KT 8SM FEW015 BKN029 BKN055 14/13 A3004 RMK AO2=
201212090652 METAR KATL 090652Z 00000KT 8SM FEW015 BKN060 16/14 A3004 RMK AO2 SLP168 T01560139=
201212090552 METAR KATL 090552Z COR 00000KT 7SM BKN055 16/14 A3004 RMK AO2 SLP169 T01560144 10172 20150 51002 TSNO=
201212090452 METAR KATL 090452Z 00000KT 7SM SCT070 15/14 A3004 RMK AO2 SLP169 T01500139 402110122=
201212090352 METAR KATL 090352Z 00000KT 8SM SCT029 BKN050 16/14 A3004 RMK AO2 SLP170 T01560144=
201212090252 METAR KATL 090252Z 00000KT 9SM BKN029 BKN050 16/15 A3004 RMK AO2 SLP169 T01610150 50006=
201212090152 METAR KATL 090152Z 10003KT 8SM BKN050 16/15 A3004 RMK AO2 SLP170 T01610150=
201212090052 METAR KATL 090052Z 10003KT 10SM BKN050 16/15 A3003 RMK AO2 SLP167 T01610150=
201212082352 METAR KATL 082352Z 14004KT 9SM SCT070 16/15 A3002 RMK AO2 RAE09 SLP162 P0001 60006 T01610150 10211 20161 51008=
201212082252 METAR KATL 082252Z 00000KT 6SM -RA BR FEW026 OVC045 16/15 A3001 RMK AO2 SLP160 P0003 T01610150=
201212082207 SPECI KATL 082207Z 20004KT 4SM -RA BR FEW009 SCT031 OVC047 17/16 A3001 RMK AO2 P0000=
201212082152 METAR KATL 082152Z 20005KT 4SM -RA BR BKN032 OVC045 17/15 A3001 RMK AO2 RAB16 SLP159 P0002 T01720150=
201212082052 METAR KATL 082052Z 00000KT 10SM FEW025 BKN033 OVC060 21/13 A2999 RMK AO2 SLP153 T02060133 55005=
201212081952 METAR KATL 081952Z 00000KT 10SM FEW032 SCT044 BKN090 21/14 A2999 RMK AO2 SLP152 T02060139=
201212081903 SPECI KATL 081903Z 26003KT 10SM SCT025 BKN030 OVC085 20/14 A2999 RMK AO2=
201212081852 METAR KATL 081852Z 26006KT 10SM BKN027 BKN050 21/14 A2999 RMK AO2 SLP153 T02060139=
201212081805 SPECI KATL 081805Z VRB03KT 10SM BKN023 BKN039 OVC050 20/13 A3000 RMK AO2=
201212081752 METAR KATL 081752Z 24003KT 10SM SCT025 BKN042 OVC050 20/13 A3001 RMK AO2 SLP158 60000 T02000133 10200 20122 57015=
201212081652 METAR KATL 081652Z 00000KT 10SM SCT016 OVC047 18/13 A3003 RMK AO2 SLP166 SCT016 V BKN T01830128=
201212081649 SPECI KATL 081649Z VRB03KT 10SM SCT016 OVC047 18/13 A3003 RMK AO2 SCT016 V BKN=
201212081637 SPECI KATL 081637Z 00000KT 10SM BKN016 OVC085 17/12 A3004 RMK AO2=
201212081552 METAR KATL 081552Z 16005KT 8SM BKN014 BKN048 OVC080 16/12 A3005 RMK AO2 SLP175 T01610117=
201212081452 METAR KATL 081452Z 13003KT 10SM FEW014 SCT050 BKN085 14/11 A3005 RMK AO2 SLP175 60000 T01390111 50008=
201212081444 SPECI KATL 081444Z 15004KT 7SM SCT014 SCT047 BKN085 14/11 A3005 RMK AO2 SCT015 V BKN=
201212081408 SPECI KATL 081408Z 00000KT 7SM BKN014 BKN080 14/11 A3005 RMK AO2 BKN014 V SCT=
201212081352 METAR KATL 081352Z 00000KT 7SM SCT014 SCT055 OVC085 13/11 A3005 RMK AO2 RAE02 SLP175 P0000 T01330106=
201212081252 METAR KATL 081252Z 00000KT 7SM -RA SCT016 OVC070 13/10 A3004 RMK AO2 RAB48 SLP171 P0000 T01280100=
201212081152 METAR KATL 081152Z 00000KT 10SM BKN018 OVC043 13/10 A3003 RMK AO2 SLP167 T01280100 10133 20122 53006=
201212081148 SPECI KATL 081148Z 00000KT 10SM BKN018 OVC043 13/10 A3003 RMK AO2=
201212081052 METAR KATL 081052Z 00000KT 10SM SCT044 BKN075 BKN250 13/10 A3001 RMK AO2 SLP160 T01280100=
201212080952 METAR KATL 080952Z 00000KT 10SM BKN043 BKN060 BKN250 13/09 A3001 RMK AO2 SLP159 T01280094=
201212080852 METAR KATL 080852Z 00000KT 10SM BKN050 BKN075 BKN250 13/09 A3001 RMK AO2 SLP159 T01280094 55006=
201212080752 METAR KATL 080752Z 14004KT 10SM BKN075 OVC250 13/09 A3001 RMK AO2 SLP159 T01280089=
201212080652 METAR KATL 080652Z 00000KT 10SM OVC070 13/09 A3002 RMK AO2 SLP162 T01280089=
201212080552 METAR KATL 080552Z 13004KT 10SM FEW030 BKN070 OVC250 13/09 A3003 RMK AO2 SLP166 T01280089 10156 20122 51001=
201212080452 METAR KATL 080452Z 12004KT 10SM FEW027 BKN250 13/09 A3003 RMK AO2 SLP167 T01330089 401780083=
201212080433 SPECI KATL 080433Z 12003KT 10SM SCT027 BKN250 13/09 A3003 RMK AO2=
201212080352 METAR KATL 080352Z 11003KT 10SM BKN027 BKN250 13/09 A3003 RMK AO2 SLP168 T01330089=
201212080315 SPECI KATL 080315Z 00000KT 10SM BKN025 BKN250 13/09 A3002 RMK AO2=
201212080252 METAR KATL 080252Z 00000KT 10SM FEW028 BKN250 13/09 A3002 RMK AO2 SLP167 T01280089 51007=
201212080152 METAR KATL 080152Z 00000KT 10SM FEW030 BKN250 14/09 A3002 RMK AO2 SLP166 T01390089=
201212080052 METAR KATL 080052Z 12004KT 10SM FEW030 SCT250 15/09 A3001 RMK AO2 SLP162 T01500089=
201212072352 METAR KATL 072352Z 00000KT 10SM FEW030 SCT250 14/09 A3000 RMK AO2 SLP159 T01440089 10178 20144 53004=
201212072252 METAR KATL 072252Z 15004KT 10SM FEW070 SCT250 16/09 A2999 RMK AO2 SLP155 T01560089=
201212072152 METAR KATL 072152Z 16004KT 10SM FEW030 BKN075 BKN250 17/09 A2999 RMK AO2 SLP153 T01670089=
201212072052 METAR KATL 072052Z 14004KT 10SM FEW075 SCT200 SCT250 18/09 A2999 RMK AO2 SLP153 T01780089 56018=
201212071952 METAR KATL 071952Z 09003KT 10SM FEW030 SCT200 BKN250 17/08 A2999 RMK AO2 SLP155 T01720083=
201212071852 METAR KATL 071852Z 12003KT 10SM FEW025 SCT200 BKN250 16/08 A3001 RMK AO2 SLP161 T01610083=
201212071752 METAR KATL 071752Z 09004KT 10SM FEW020 SCT200 BKN250 15/07 A3004 RMK AO2 SLP173 T01500072 10150 20083 58024=
201212071720 SPECI KATL 071720Z VRB03KT 10SM FEW014 SCT200 BKN250 13/07 A3007 RMK AO2=
201212071652 METAR KATL 071652Z 00000KT 10SM BKN014 BKN250 12/07 A3008 RMK AO2 SLP187 T01220067=
201212071552 METAR KATL 071552Z 07004KT 9SM BKN012 11/06 A3011 RMK AO2 SLP196 T01060061=
201212071452 METAR KATL 071452Z 11006KT 9SM OVC012 09/06 A3012 RMK AO2 SLP199 T00940056 51007=
201212071352 METAR KATL 071352Z 10009KT 7SM OVC010 09/06 A3011 RMK AO2 SLP199 T00890061=
201212071252 METAR KATL 071252Z 07009KT 9SM OVC010 08/06 A3011 RMK AO2 SLP199 T00830056=
201212071152 METAR KATL 071152Z 08012KT 10SM OVC014 09/05 A3010 RMK AO2 SLP192 T00890050 10106 20089 55002=
201212071052 METAR KATL 071052Z 09010KT 10SM BKN014 09/05 A3009 RMK AO2 SLP189 T00940050=
201212071034 SPECI KATL 071034Z 09010KT 10SM BKN014 BKN022 09/05 A3009 RMK AO2=
201212070952 METAR KATL 070952Z 08008KT 10SM BKN016 BKN025 09/05 A3009 RMK AO2 SLP190 T00940050=
201212070852 METAR KATL 070852Z 08010KT 10SM BKN027 09/05 A3010 RMK AO2 SLP193 T00940050 56005=
201212070752 METAR KATL 070752Z 09007KT 10SM BKN025 09/05 A3011 RMK AO2 SLP194 T00940050=
201212070652 METAR KATL 070652Z 09010KT 10SM BKN018 OVC025 11/05 A3011 RMK AO2 SLP195 T01060050=
201212070552 METAR KATL 070552Z 08012KT 10SM OVC020 11/05 A3012 RMK AO2 SLP198 T01060050 10133 20106 56006=
201212070452 METAR KATL 070452Z 08012KT 10SM OVC020 11/05 A3013 RMK AO2 SLP202 T01060050 401780106=
201212070352 METAR KATL 070352Z 09010KT 10SM OVC022 11/06 A3013 RMK AO2 SLP200 T01110056=
201212070252 METAR KATL 070252Z 08011KT 10SM OVC020 11/06 A3014 RMK AO2 SLP205 T01110061 53008=
201212070156 SPECI KATL 070156Z 10011KT 10SM BKN025 BKN250 11/07 A3012 RMK AO2=
201212070152 METAR KATL 070152Z 09010KT 10SM SCT030 BKN250 11/07 A3012 RMK AO2 SLP201 T01060067=
201212070052 METAR KATL 070052Z 08011KT 10SM FEW080 BKN250 12/07 A3012 RMK AO2 SLP198 T01170067=
201212062352 METAR KATL 062352Z 07012KT 10SM BKN050 BKN080 BKN250 13/06 A3011 RMK AO2 SLP195 T01330056 10178 20133 50003=
201212062252 METAR KATL 062252Z 06012KT 10SM FEW035 BKN080 OVC250 14/05 A3011 RMK AO2 SLP195 T01440050=
201212062152 METAR KATL 062152Z 07011KT 10SM BKN035 BKN080 BKN250 16/06 A3011 RMK AO2 SLP193 T01610056=
201212062052 METAR KATL 062052Z 09010KT 10SM FEW050 SCT080 BKN250 17/06 A3010 RMK AO2 SLP191 T01670061 55011=
201212061952 METAR KATL 061952Z 05008KT 10SM FEW060 SCT200 BKN250 17/06 A3010 RMK AO2 SLP189 T01720061=
201212061852 METAR KATL 061852Z 07010KT 10SM FEW040 SCT060 SCT250 17/06 A3012 RMK AO2 SLP196 T01720061=
201212061752 METAR KATL 061752Z 06011KT 10SM FEW030 SCT040 BKN060 17/07 A3014 RMK AO2 SLP203 T01670072 10172 20144 58015=
201212061716 SPECI KATL 061716Z 06012KT 10SM SCT022 SCT050 OVC060 16/08 A3015 RMK AO2=
201212061652 METAR KATL 061652Z 09009KT 10SM BKN022 BKN250 16/08 A3016 RMK AO2 SLP212 T01610078=
201212061552 METAR KATL 061552Z 07010KT 10SM OVC020 15/07 A3018 RMK AO2 SLP219 T01500067=
201212061452 METAR KATL 061452Z 07011KT 10SM OVC017 14/06 A3018 RMK AO2 SLP218 T01440061 53013=
201212061352 METAR KATL 061352Z 08012KT 10SM OVC017 14/06 A3016 RMK AO2 SLP212 T01440056=
201212061252 METAR KATL 061252Z 08010KT 10SM OVC017 14/06 A3015 RMK AO2 SLP208 T01440061=
201212061152 METAR KATL 061152Z 08012KT 10SM OVC015 14/09 A3014 RMK AO2 SLP203 T01440094 10144 20144 53005=
201212061138 SPECI KATL 061138Z 07009KT 10SM OVC015 14/10 A3014 RMK AO2=
201212061052 METAR KATL 061052Z 08008KT 10SM BKN011 OVC075 14/12 A3012 RMK AO2 SLP197 T01440117 $=
201212061004 SPECI KATL 061004Z 08009KT 10SM BKN011 OVC075 14/12 A3012 RMK AO2 $=
201212060952 METAR KATL 060952Z 08007KT 10SM SCT011 OVC075 14/12 A3012 RMK AO2 SLP197 T01440122 $=
201212060927 SPECI KATL 060927Z 08007KT 10SM SCT011 OVC070 14/12 A3012 RMK AO2 $=
201212060916 SPECI KATL 060916Z 08008KT 10SM BKN011 OVC070 14/12 A3012 RMK AO2 $=
201212060852 METAR KATL 060852Z 08009KT 10SM OVC070 14/12 A3013 RMK AO2 SLP198 T01440122 56002 $=
201212060752 METAR KATL 060752Z 07006KT 10SM OVC075 14/12 A3013 RMK AO2 SLP199 T01440117 $=
201212060652 METAR KATL 060652Z 05005KT 10SM SCT060 OVC075 14/11 A3012 RMK AO2 SLP197 T01440111 $=
201212060552 METAR KATL 060552Z 04004KT 10SM OVC070 14/11 A3013 RMK AO2 SLP199 T01440106 10172 20144 56005 $=
201212060452 METAR KATL 060452Z 00000KT 10SM FEW050 OVC075 14/10 A3013 RMK AO2 SLP201 T01440100 402110133=
201212060352 METAR KATL 060352Z 34003KT 10SM FEW050 OVC080 14/11 A3014 RMK AO2 SLP203 T01440111=
201212060252 METAR KATL 060252Z 32003KT 10SM SCT050 OVC075 15/12 A3015 RMK AO2 SLP205 T01500122 50001=
201212060152 METAR KATL 060152Z 34006KT 10SM FEW040 SCT060 OVC080 16/13 A3015 RMK AO2 SLP209 T01560128=
201212060052 METAR KATL 060052Z 34005KT 10SM BKN055 OVC200 17/13 A3015 RMK AO2 SLP207 T01670128=
201212052352 METAR KATL 052352Z 34006KT 10SM BKN060 OVC200 17/12 A3014 RMK AO2 SLP204 60000 T01720122 10211 20172 53003=
201212052252 METAR KATL 052252Z 34006KT 10SM FEW065 SCT100 BKN150 BKN200 18/12 A3013 RMK AO2 SLP201 T01780117=
201212052152 METAR KATL 052152Z 33004KT 10SM FEW065 SCT095 BKN200 18/12 A3013 RMK AO2 SLP198 T01830117=
201212052052 METAR KATL 052052Z 33004KT 10SM BKN065 BKN080 BKN250 19/12 A3013 RMK AO2 SLP201 SHRA E 60000 T01890122 56017=
201212051952 METAR KATL 051952Z 33008KT 10SM BKN050 BKN060 BKN250 18/13 A3014 RMK AO2 RAB12E48 SLP203 SHRA E-SE P0000 T01830128=
201212051852 METAR KATL 051852Z 31009KT 10SM FEW030 BKN037 OVC080 21/13 A3015 RMK AO2 SLP206 SHRA NE & W T02060128=
201212051752 METAR KATL 051752Z 22003KT 10SM FEW023 SCT050 BKN080 BKN200 20/13 A3018 RMK AO2 SLP217 SHRA DSNT NW-N 60000 T02000133 10200 20139 58016=
201212051652 METAR KATL 051652Z 00000KT 10SM FEW025 BKN075 BKN250 19/13 A3021 RMK AO2 SLP225 T01890133=
201212051552 METAR KATL 051552Z 31005KT 10SM FEW020 BKN070 BKN090 BKN250 18/13 A3023 RMK AO2 SLP234 T01780133=
201212051452 METAR KATL 051452Z 29004KT 10SM BKN060 BKN090 BKN250 17/13 A3023 RMK AO2 SLP234 60000 T01670128 51009=
201212051352 METAR KATL 051352Z 25003KT 10SM FEW012 BKN065 BKN085 16/12 A3022 RMK AO2 SLP232 T01560122=
201212051252 METAR KATL 051252Z COR 22004KT 10SM FEW028 BKN060 BKN080 14/12 A3021 RMK AO2 RAB1158E23 SLP228 P0000 T01440122=
201212051152 METAR KATL 051152Z 00000KT 10SM BKN060 OVC080 14/12 A3020 RMK AO2 SLP224 T01440117 10144 20133 53007=
201212051052 METAR KATL 051052Z 23003KT 10SM FEW050 OVC060 14/11 A3019 RMK AO2 SLP219 T01390111=
201212050952 METAR KATL 050952Z 22004KT 10SM SCT060 BKN075 OVC090 14/11 A3018 RMK AO2 SLP214 T01390111=
201212050852 METAR KATL 050852Z 24004KT 10SM FEW049 BKN075 14/11 A3018 RMK AO2 SLP216 T01390111 58008=
201212050752 METAR KATL 050752Z 23003KT 10SM FEW049 SCT065 BKN080 BKN200 14/11 A3019 RMK AO2 SLP219 T01440111=
201212050652 METAR KATL 050652Z 22004KT 10SM FEW070 SCT200 BKN250 14/11 A3019 RMK AO2 SLP221 T01390111=
201212050552 METAR KATL 050552Z 20006KT 10SM FEW070 BKN200 14/11 A3021 RMK AO2 SLP223 T01440111 10178 20144 58008=
201212050452 METAR KATL 050452Z 00000KT 10SM SCT070 BKN200 16/12 A3022 RMK AO2 SLP228 T01560117 402330100=
201212050352 METAR KATL 050352Z 20003KT 10SM FEW070 SCT150 SCT250 16/12 A3023 RMK AO2 SLP232 T01560117=
201212050252 METAR KATL 050252Z 18003KT 10SM FEW080 BKN150 BKN250 16/12 A3023 RMK AO2 SLP234 T01610117 58000=
201212050152 METAR KATL 050152Z 00000KT 10SM SCT075 BKN150 BKN250 17/12 A3023 RMK AO2 SLP237 T01670117=
201212050052 METAR KATL 050052Z 18003KT 10SM FEW070 SCT120 BKN250 17/12 A3024 RMK AO2 SLP238 T01720117=
201212042352 METAR KATL 042352Z 18004KT 10SM FEW070 SCT250 17/12 A3023 RMK AO2 SLP236 T01720117 10233 20172 53002 $=
201212042252 METAR KATL 042252Z 19004KT 10SM BKN070 BKN250 19/12 A3022 RMK AO2 SLP232 T01940117=
201212042152 METAR KATL 042152Z 18005KT 10SM FEW040 BKN065 BKN250 21/12 A3022 RMK AO2 SLP232 T02060117=
201212042052 METAR KATL 042052Z 22008KT 10SM FEW045 BKN065 BKN250 22/11 A3022 RMK AO2 SLP232 T02170106 56015=
201212041952 METAR KATL 041952Z 23008KT 10SM FEW045 SCT060 BKN250 22/10 A3023 RMK AO2 SLP233 T02220100=
201212041852 METAR KATL 041852Z 23009KT 10SM FEW047 SCT055 BKN250 22/09 A3024 RMK AO2 SLP237 T02170094=
201212041752 METAR KATL 041752Z 25009KT 10SM FEW045 BKN055 BKN250 22/10 A3027 RMK AO2 SLP245 T02220100 10228 20100 58020=
201212041652 METAR KATL 041652Z 24005KT 10SM FEW040 SCT060 BKN250 21/12 A3031 RMK AO2 SLP258 T02110117=
201212041552 METAR KATL 041552Z 24004KT 10SM FEW050 SCT200 BKN250 20/11 A3033 RMK AO2 SLP267 T02000111=
201212041452 METAR KATL 041452Z 00000KT 10SM FEW070 SCT200 BKN250 17/12 A3033 RMK AO2 SLP268 T01670122 51014=
201212041352 METAR KATL 041352Z 00000KT 10SM FEW070 SCT250 14/11 A3032 RMK AO2 SLP265 T01390111=
201212041252 METAR KATL 041252Z 00000KT 10SM FEW060 SCT250 11/08 A3031 RMK AO2 SLP262 T01060083=
201212041152 METAR KATL 041152Z 00000KT 10SM FEW060 10/08 A3029 RMK AO2 SLP256 T01000078 10144 20100 53007=
201212041052 METAR KATL 041052Z 00000KT 10SM FEW060 SCT250 11/08 A3027 RMK AO2 SLP250 T01060083=
201212040952 METAR KATL 040952Z 00000KT 10SM FEW060 12/09 A3027 RMK AO2 SLP246 T01170089=
201212040852 METAR KATL 040852Z 00000KT 10SM FEW060 10/08 A3027 RMK AO2 SLP247 T01000078 53005=
201212040752 METAR KATL 040752Z 00000KT 10SM FEW060 12/09 A3026 RMK AO2 SLP242 T01220089=
201212040652 METAR KATL 040652Z 00000KT 10SM FEW060 14/09 A3025 RMK AO2 SLP240 T01390089=
201212040552 METAR KATL 040552Z 00000KT 10SM FEW060 14/09 A3025 RMK AO2 SLP240 T01440089 10178 20139 58007=
201212040452 METAR KATL 040452Z 00000KT 10SM SCT060 15/09 A3026 RMK AO2 SLP243 T01500089 402330089=
201212040352 METAR KATL 040352Z 00000KT 10SM BKN060 15/09 A3027 RMK AO2 SLP245 T01500089=
201212040252 METAR KATL 040252Z 17003KT 10SM BKN065 17/09 A3027 RMK AO2 SLP247 T01670089 51008=
201212040152 METAR KATL 040152Z 00000KT 10SM BKN065 16/09 A3026 RMK AO2 SLP246 T01610089=
201212040052 METAR KATL 040052Z 17003KT 10SM SCT065 17/09 A3026 RMK AO2 SLP246 T01670089=
201212032352 METAR KATL 032352Z 00000KT 10SM FEW065 18/09 A3025 RMK AO2 SLP242 T01780094 10233 20167 53003=
201212032252 METAR KATL 032252Z 00000KT 10SM BKN070 BKN250 19/10 A3024 RMK AO2 SLP239 T01940100=
201212032152 METAR KATL 032152Z 21003KT 10SM FEW045 BKN070 BKN250 21/10 A3024 RMK AO2 SLP236 T02110100=
201212032052 METAR KATL 032052Z 22004KT 10SM FEW050 BKN070 BKN250 22/10 A3024 RMK AO2 SLP236 T02170100 56013=
201212031952 METAR KATL 031952Z 20005KT 10SM FEW045 BKN070 BKN250 22/10 A3024 RMK AO2 SLP236 T02170100=
201212031852 METAR KATL 031852Z 23007KT 190V260 10SM FEW047 SCT070 SCT250 23/10 A3025 RMK AO2 SLP240 T02280100=
201212031752 METAR KATL 031752Z 19005KT 10SM SCT040 BKN060 BKN250 21/11 A3028 RMK AO2 SLP250 T02110111 10222 20089 58016=
201212031652 METAR KATL 031652Z 17007KT 10SM FEW030 SCT050 SCT250 21/12 A3030 RMK AO2 SLP257 T02110117=
201212031552 METAR KATL 031552Z 18005KT 10SM FEW050 SCT250 19/11 A3032 RMK AO2 SLP266 T01940111=
201212031452 METAR KATL 031452Z 00000KT 10SM FEW050 SCT250 17/12 A3033 RMK AO2 SLP267 T01720117 51007=
201212031352 METAR KATL 031352Z 15003KT 10SM FEW050 SCT250 14/11 A3032 RMK AO2 SLP268 T01390106=
201212031252 METAR KATL 031252Z 00000KT 9SM FEW050 SCT250 10/08 A3031 RMK AO2 SLP262 T01000083=
201212031152 METAR KATL 031152Z 08004KT 10SM FEW050 10/08 A3030 RMK AO2 SLP261 T01000078 10122 20100 53005=
201212031052 METAR KATL 031052Z 00000KT 10SM FEW050 11/08 A3029 RMK AO2 SLP255 T01060078=
201212030952 METAR KATL 030952Z 00000KT 10SM SCT050 11/08 A3028 RMK AO2 SLP253 T01060083=
201212030852 METAR KATL 030852Z 00000KT 10SM FEW050 11/08 A3029 RMK AO2 SLP254 T01110078 58001=
201212030752 METAR KATL 030752Z 00000KT 10SM FEW050 11/08 A3029 RMK AO2 SLP255 T01060078=
201212030652 METAR KATL 030652Z 00000KT 10SM CLR 12/08 A3029 RMK AO2 SLP255 T01170083=
201212030552 METAR KATL 030552Z 00000KT 10SM CLR 11/08 A3029 RMK AO2 SLP255 T01110083 10167 20111 53003=
201212030452 METAR KATL 030452Z 00000KT 10SM CLR 13/09 A3028 RMK AO2 SLP252 T01330089 402220100=
201212030352 METAR KATL 030352Z 00000KT 10SM CLR 13/09 A3028 RMK AO2 SLP251 T01280089=
201212030252 METAR KATL 030252Z 00000KT 10SM CLR 14/09 A3028 RMK AO2 SLP253 T01390089 51006=
201212030152 METAR KATL 030152Z 00000KT 10SM CLR 14/09 A3028 RMK AO2 SLP252 T01390089=
201212030052 METAR KATL 030052Z 00000KT 10SM CLR 16/09 A3028 RMK AO2 SLP251 T01610089=
201212022352 METAR KATL 022352Z 00000KT 10SM CLR 17/09 A3027 RMK AO2 SLP248 T01670089 10222 20167 55000=
201212022252 METAR KATL 022252Z 00000KT 10SM FEW250 18/08 A3026 RMK AO2 SLP247 T01830083=
201212022152 METAR KATL 022152Z 23006KT 10SM FEW050 21/09 A3027 RMK AO2 SLP246 T02060089=
201212022052 METAR KATL 022052Z 21007KT 10SM FEW045 22/09 A3027 RMK AO2 SLP246 T02170094 56018 $=
201212021952 SPECI KATL 021952Z 22004KT 10SM CLR BKN250 21/09 A3027 RMK AO2 SLP248 T02060089 $=
201212021952 METAR KATL 021952Z COR 22004KT 10SM FEW045 BKN250 21/09 A3027 RMK AO2 SLP248 T02060089 $=
201212021852 METAR KATL 021852Z 24005KT 10SM SCT040 BKN060 BKN250 22/11 A3029 RMK AO2 SLP254 T02170111 $=
201212021752 METAR KATL 021752Z 24005KT 10SM BKN055 BKN250 21/11 A3032 RMK AO2 SLP265 T02060106 10206 20100 58019=
201212021709 SPECI KATL 021709Z 26005KT 10SM SCT025 SCT050 BKN250 19/12 A3034 RMK AO2=
201212021652 METAR KATL 021652Z 26004KT 10SM BKN022 BKN250 19/12 A3035 RMK AO2 SLP275 T01890122=
201212021644 SPECI KATL 021644Z 27004KT 10SM BKN022 BKN250 20/13 A3036 RMK AO2=
201212021552 METAR KATL 021552Z 22006KT 10SM FEW055 BKN250 18/12 A3037 RMK AO2 SLP281 T01830122=
201212021452 METAR KATL 021452Z 00000KT 10SM SCT055 BKN250 16/12 A3038 RMK AO2 SLP285 T01560117 53010=
201212021352 METAR KATL 021352Z 00000KT 8SM FEW050 BKN250 13/11 A3037 RMK AO2 SLP282 T01280106=
201212021252 METAR KATL 021252Z 10004KT 7SM FEW050 BKN250 11/09 A3035 RMK AO2 SLP278 T01060089=
201212021152 METAR KATL 021152Z 07003KT 10SM FEW050 SCT250 11/09 A3035 RMK AO2 SLP274 T01110094 10133 20106 53004=
201212021052 METAR KATL 021052Z 00000KT 10SM FEW050 SCT250 11/09 A3034 RMK AO2 SLP271 T01110094=
201212020952 METAR KATL 020952Z 00000KT 10SM FEW050 SCT250 12/09 A3033 RMK AO2 SLP269 T01170094=
201212020852 METAR KATL 020852Z 00000KT 10SM FEW055 SCT250 12/09 A3034 RMK AO2 SLP271 T01170089 53002=
201212020752 METAR KATL 020752Z 14003KT 10SM SCT055 BKN250 12/09 A3034 RMK AO2 SLP270 T01220089=
201212020652 METAR KATL 020652Z 13003KT 10SM SCT055 BKN250 12/09 A3032 RMK AO2 SLP266 T01220089=
201212020552 METAR KATL 020552Z 14003KT 10SM SCT037 SCT050 BKN250 13/09 A3033 RMK AO2 SLP268 T01280089 10172 20128 53005=
201212020452 METAR KATL 020452Z 11005KT 10SM FEW043 SCT055 BKN250 13/09 A3032 RMK AO2 SLP265 T01330089 402000083=
201212020352 METAR KATL 020352Z 12004KT 10SM SCT047 BKN250 14/09 A3031 RMK AO2 SLP262 T01440089=
201212020252 METAR KATL 020252Z 13003KT 10SM BKN055 BKN250 15/08 A3031 RMK AO2 SLP263 T01500083 51004=
201212020152 METAR KATL 020152Z 13004KT 10SM BKN055 16/08 A3031 RMK AO2 SLP263 T01560083=
201212020052 METAR KATL 020052Z 12004KT 10SM BKN060 16/08 A3031 RMK AO2 SLP263 T01610078=
201212012352 METAR KATL 012352Z 12003KT 10SM BKN060 17/08 A3030 RMK AO2 SLP261 T01720078 10200 20167 53004=
201212012252 METAR KATL 012252Z 00000KT 10SM BKN055 BKN250 18/07 A3029 RMK AO2 SLP258 T01780072=
201212012152 METAR KATL 012152Z 15003KT 10SM BKN055 18/07 A3029 RMK AO2 SLP257 T01830072=
201212012052 METAR KATL 012052Z 16007KT 10SM BKN055 19/07 A3029 RMK AO2 SLP255 T01890067 56010=
201212011952 METAR KATL 011952Z 14005KT 10SM BKN050 19/07 A3029 RMK AO2 SLP256 T01940072=
201212011852 METAR KATL 011852Z 13006KT 10SM BKN050 19/08 A3030 RMK AO2 SLP260 T01890078=
201212011752 METAR KATL 011752Z VRB05KT 10SM BKN037 19/08 A3032 RMK AO2 SLP266 T01940078 10200 20083 58016=
201212011652 METAR KATL 011652Z 00000KT 10SM FEW030 18/11 A3036 RMK AO2 SLP278 T01830106=
201212011552 METAR KATL 011552Z 00000KT 8SM FEW250 16/11 A3037 RMK AO2 SLP282 T01610106=
201212011452 METAR KATL 011452Z 10003KT 7SM BKN250 13/09 A3037 RMK AO2 SLP283 T01330094 53013=
201212011352 METAR KATL 011352Z 11003KT 7SM FEW050 SCT120 BKN250 11/08 A3035 RMK AO2 SLP277 T01060083=
201212011252 METAR KATL 011252Z 08004KT 8SM FEW050 SCT120 BKN250 08/07 A3034 RMK AO2 SLP276 T00830067=
