##########################################################
# Query made at 04/19/2024 23:25:28 UTC
# Time interval: from 01/01/2012 12:00  to 01/31/2012 12:59  UTC
##########################################################

##########################################################
# KATL, Atlanta, Hartsfield - Jackson Atlanta International Airport (United States)
# WMO index: 72219. WIGOS ID: 0-20000-0-72219
# Latitude 33-38-59N. Longitude 084-25-00W. Altitude 312 m.
##########################################################

201201311252 METAR KATL 311252Z 15004KT 9SM SCT100 SCT250 05/M05 A3039 RMK AO2 SLP294 T00501050=
201201311152 METAR KATL 311152Z 00000KT 8SM SCT100 SCT250 04/M04 A3037 RMK AO2 SLP289 T00441044 10078 20039 53005=
201201311052 METAR KATL 311052Z 00000KT 9SM FEW150 SCT250 04/M06 A3037 RMK AO2 SLP286 T00441061=
201201310952 METAR KATL 310952Z 00000KT 7SM FEW250 06/M06 A3036 RMK AO2 SLP281 T00561061=
201201310852 METAR KATL 310852Z 00000KT 10SM FEW250 05/M06 A3036 RMK AO2 SLP281 T00501056 58002=
201201310752 METAR KATL 310752Z 00000KT 10SM FEW250 06/M06 A3036 RMK AO2 SLP283 T00561061=
201201310652 METAR KATL 310652Z 00000KT 10SM FEW250 06/M06 A3037 RMK AO2 SLP285 T00611061=
201201310552 METAR KATL 310552Z 24003KT 10SM FEW250 08/M08 A3036 RMK AO2 SLP284 T00781078 10128 20072 58003=
201201310452 METAR KATL 310452Z 20004KT 10SM FEW250 07/M07 A3038 RMK AO2 SLP288 T00721072 401670000=
201201310352 METAR KATL 310352Z 22003KT 10SM SCT250 08/M08 A3037 RMK AO2 SLP287 T00831078=
201201310252 METAR KATL 310252Z 23004KT 10SM SCT250 09/M08 A3037 RMK AO2 SLP288 T00941078 51007=
201201310152 METAR KATL 310152Z 00000KT 10SM SCT250 10/M08 A3037 RMK AO2 SLP288 T01001083=
201201310052 METAR KATL 310052Z 00000KT 10SM SCT250 12/M09 A3036 RMK AO2 SLP286 T01171094=
201201302352 METAR KATL 302352Z 00000KT 10SM FEW250 13/M09 A3035 RMK AO2 SLP283 T01281094 10167 20122 55001=
201201302252 METAR KATL 302252Z 21004KT 10SM FEW250 14/M10 A3034 RMK AO2 SLP280 T01441100=
201201302152 METAR KATL 302152Z 23008KT 10SM FEW250 16/M11 A3035 RMK AO2 SLP281 T01611106=
201201302052 METAR KATL 302052Z 21005KT 10SM FEW250 16/M12 A3036 RMK AO2 SLP282 T01611122 56021=
201201301952 METAR KATL 301952Z 23007KT 10SM SCT250 16/M12 A3037 RMK AO2 SLP288 T01561117=
201201301852 METAR KATL 301852Z 22009KT 10SM FEW250 16/M11 A3039 RMK AO2 SLP294 T01561111=
201201301752 METAR KATL 301752Z VRB05KT 10SM FEW250 14/M11 A3042 RMK AO2 SLP304 T01441111 10144 20000 58005=
201201301652 METAR KATL 301652Z 31003KT 10SM FEW250 13/M09 A3044 RMK AO2 SLP313 T01331094=
201201301552 METAR KATL 301552Z 33004KT 10SM FEW250 12/M09 A3044 RMK AO2 SLP310 T01171089=
201201301452 METAR KATL 301452Z 00000KT 10SM FEW250 09/M06 A3043 RMK AO2 SLP310 T00891061 51016=
201201301352 METAR KATL 301352Z 00000KT 10SM FEW250 04/M05 A3042 RMK AO2 SLP308 T00441050=
201201301252 METAR KATL 301252Z 00000KT 10SM CLR 01/M07 A3041 RMK AO2 SLP304 T00111067=
201201301152 METAR KATL 301152Z 00000KT 10SM CLR 01/M07 A3039 RMK AO2 SLP296 T00061067 10033 20000 53009=
201201301052 METAR KATL 301052Z 00000KT 10SM CLR 01/M07 A3037 RMK AO2 SLP291 T00061067=
201201300952 METAR KATL 300952Z 00000KT 10SM CLR 02/M08 A3036 RMK AO2 SLP286 T00171078=
201201300852 METAR KATL 300852Z 25003KT 10SM CLR 01/M07 A3036 RMK AO2 SLP285 T00111067 58001=
201201300752 METAR KATL 300752Z 00000KT 10SM CLR 02/M08 A3036 RMK AO2 SLP286 T00221078=
201201300652 METAR KATL 300652Z 00000KT 10SM CLR 03/M09 A3036 RMK AO2 SLP285 T00281089=
201201300552 METAR KATL 300552Z 00000KT 10SM CLR 03/M08 A3036 RMK AO2 SLP285 T00331083 10089 20033 51002=
201201300452 METAR KATL 300452Z 23003KT 10SM CLR 04/M08 A3036 RMK AO2 SLP286 T00391083 401281011=
201201300352 METAR KATL 300352Z 24003KT 10SM CLR 04/M08 A3036 RMK AO2 SLP284 T00441078=
201201300252 METAR KATL 300252Z 00000KT 10SM CLR 06/M09 A3035 RMK AO2 SLP284 T00611094 51004=
201201300152 METAR KATL 300152Z 26003KT 10SM CLR 06/M10 A3035 RMK AO2 SLP286 T00611100=
201201300052 METAR KATL 300052Z 32005KT 10SM CLR 08/M12 A3035 RMK AO2 SLP286 T00831122=
201201292352 METAR KATL 292352Z 32006KT 10SM CLR 08/M12 A3034 RMK AO2 SLP282 T00831122 10128 20083 50001=
201201292252 METAR KATL 292252Z 33009KT 10SM CLR 11/M13 A3034 RMK AO2 SLP280 T01061133=
201201292152 METAR KATL 292152Z 33013G19KT 10SM CLR 12/M14 A3034 RMK AO2 SLP280 T01221144=
201201292052 METAR KATL 292052Z 32010KT 10SM CLR 12/M16 A3034 RMK AO2 SLP279 T01221156 56017=
201201291952 METAR KATL 291952Z 32007G17KT 10SM CLR 12/M13 A3034 RMK AO2 SLP280 T01221133=
201201291852 METAR KATL 291852Z 26007KT 10SM CLR 12/M13 A3036 RMK AO2 SLP284 T01221128=
201201291752 METAR KATL 291752Z 29005KT 10SM CLR 11/M12 A3039 RMK AO2 SLP295 T01111122 10111 21011 58009=
201201291652 METAR KATL 291652Z 29006KT 10SM CLR 09/M13 A3042 RMK AO2 SLP305 T00891128=
201201291552 METAR KATL 291552Z 31005KT 10SM CLR 07/M09 A3042 RMK AO2 SLP308 T00671094=
201201291452 METAR KATL 291452Z 33011KT 10SM CLR 04/M09 A3042 RMK AO2 SLP306 T00441089 53016=
201201291352 METAR KATL 291352Z 32009KT 10SM CLR 02/M08 A3040 RMK AO2 SLP301 T00171083=
201201291252 METAR KATL 291252Z 32007KT 10SM CLR M01/M08 A3038 RMK AO2 SLP294 T10111078=
201201291152 METAR KATL 291152Z 32006KT 10SM CLR M01/M08 A3037 RMK AO2 SLP290 T10111078 10039 21011 53017=
201201291052 METAR KATL 291052Z 32007KT 10SM CLR 00/M08 A3035 RMK AO2 SLP282 T00001078=
201201290952 METAR KATL 290952Z 32007KT 10SM CLR 00/M08 A3033 RMK AO2 SLP275 T00001078=
201201290852 METAR KATL 290852Z 33006KT 10SM CLR 01/M08 A3032 RMK AO2 SLP269 T00061078 53007=
201201290752 METAR KATL 290752Z 34007KT 10SM CLR 02/M08 A3031 RMK AO2 SLP265 T00171083=
201201290652 METAR KATL 290652Z 34008KT 10SM CLR 03/M09 A3030 RMK AO2 SLP262 T00281089=
201201290552 METAR KATL 290552Z 33008KT 10SM CLR 04/M09 A3029 RMK AO2 SLP261 T00391089 10106 20039 53006=
201201290452 METAR KATL 290452Z 34010KT 10SM CLR 05/M10 A3028 RMK AO2 SLP257 T00501100 401780028=
201201290352 METAR KATL 290352Z 34007KT 10SM CLR 06/M10 A3028 RMK AO2 SLP256 T00561100=
201201290252 METAR KATL 290252Z 34009KT 10SM CLR 07/M09 A3028 RMK AO2 SLP256 T00721094 51018=
201201290152 METAR KATL 290152Z 34006KT 10SM CLR 08/M05 A3028 RMK AO2 SLP257 T00781050=
201201290052 METAR KATL 290052Z 35008KT 10SM CLR 09/M03 A3025 RMK AO2 SLP249 T00941028=
201201282352 METAR KATL 282352Z 34009KT 10SM FEW044 11/01 A3022 RMK AO2 SLP238 T01060006 10178 20106 53026=
201201282252 METAR KATL 282252Z 33012KT 10SM FEW044 12/02 A3019 RMK AO2 SLP227 T01220022=
201201282152 METAR KATL 282152Z 33015KT 10SM SCT044 14/03 A3016 RMK AO2 SLP214 T01440033=
201201282052 METAR KATL 282052Z 32015KT 10SM FEW045 16/03 A3014 RMK AO2 SLP209 T01560033 53001=
201201281952 METAR KATL 281952Z 30013KT 10SM FEW050 17/03 A3012 RMK AO2 SLP201 T01720033=
201201281852 METAR KATL 281852Z 28012G17KT 10SM FEW050 17/03 A3012 RMK AO2 SLP201 T01720028=
201201281752 METAR KATL 281752Z 28008KT 10SM CLR 16/03 A3014 RMK AO2 SLP207 T01610028 10161 20033 58005=
201201281652 METAR KATL 281652Z 27010KT 10SM CLR 14/03 A3016 RMK AO2 SLP216 T01440028=
201201281552 METAR KATL 281552Z 28011KT 10SM CLR 12/03 A3017 RMK AO2 SLP217 T01220028=
201201281452 METAR KATL 281452Z 27007KT 10SM CLR 10/03 A3016 RMK AO2 SLP214 T01000028 51008=
201201281352 METAR KATL 281352Z 29005KT 10SM CLR 07/02 A3015 RMK AO2 SLP212 T00670017=
201201281252 METAR KATL 281252Z 00000KT 10SM CLR 03/00 A3014 RMK AO2 SLP211 T00330000=
201201281152 METAR KATL 281152Z 26003KT 10SM CLR 03/00 A3013 RMK AO2 SLP207 T00330000 10061 20028 51017=
201201281052 METAR KATL 281052Z 30004KT 10SM CLR 03/00 A3013 RMK AO2 SLP205 T00280000=
201201280952 METAR KATL 280952Z 28005KT 10SM CLR 04/00 A3010 RMK AO2 SLP196 T00390000=
201201280852 METAR KATL 280852Z 00000KT 10SM CLR 03/00 A3008 RMK AO2 SLP188 T00330000 53010=
201201280752 METAR KATL 280752Z 29003KT 10SM CLR 05/01 A3007 RMK AO2 SLP183 T00500006=
201201280652 METAR KATL 280652Z 26003KT 10SM CLR 05/01 A3005 RMK AO2 SLP179 T00500006=
201201280552 METAR KATL 280552Z 29004KT 10SM CLR 06/01 A3005 RMK AO2 SLP177 T00610006 10100 20056 55001=
201201280452 METAR KATL 280452Z 27003KT 10SM CLR 06/01 A3005 RMK AO2 SLP177 T00610006 401670061=
201201280352 METAR KATL 280352Z 32006KT 10SM CLR 07/01 A3004 RMK AO2 SLP176 T00670006=
201201280252 METAR KATL 280252Z 30005KT 10SM CLR 07/01 A3005 RMK AO2 SLP179 T00720006 50003=
201201280152 METAR KATL 280152Z 31007KT 10SM CLR 08/01 A3006 RMK AO2 SLP182 T00830006=
201201280052 METAR KATL 280052Z 31005KT 10SM CLR 09/01 A3005 RMK AO2 SLP178 T00890006=
201201272352 METAR KATL 272352Z 31008KT 10SM CLR 10/01 A3004 RMK AO2 SLP173 T01000011 10139 20100 53021=
201201272252 METAR KATL 272252Z 31007KT 10SM CLR 12/01 A3002 RMK AO2 SLP167 T01170011=
201201272152 METAR KATL 272152Z 32009KT 10SM CLR 13/02 A2999 RMK AO2 SLP156 T01330022=
201201272052 METAR KATL 272052Z 28010KT 10SM FEW045 13/02 A2998 RMK AO2 SLP151 T01330022 53002=
201201271952 METAR KATL 271952Z 29013KT 10SM FEW040 13/03 A2997 RMK AO2 SLP148 T01330028=
201201271852 METAR KATL 271852Z 28012G16KT 10SM FEW038 SCT250 13/03 A2996 RMK AO2 SLP144 T01280028=
201201271752 METAR KATL 271752Z 28008KT 10SM FEW030 SCT250 12/03 A2997 RMK AO2 SLP148 60000 T01170028 10122 20083 50013=
201201271652 METAR KATL 271652Z 27009KT 10SM SCT030 SCT250 10/03 A2998 RMK AO2 SLP149 T01000028=
201201271639 SPECI KATL 271639Z 32009G19KT 10SM SCT024 SCT030 10/03 A2998 RMK AO2=
201201271639 SPECI KATL 271639Z 32009G19KT 10SM SCT024 SCT030 10/03 A2998 RMK AO2=
201201271552 METAR KATL 271552Z 29013G18KT 10SM FEW015 BKN018 OVC020 08/04 A2997 RMK AO2 SLP148 BINOVC DSNT N T00830039=
201201271523 SPECI KATL 271523Z 29013KT 10SM OVC016 08/04 A2995 RMK AO2=
201201271523 SPECI KATL 271523Z 29013KT 10SM OVC016 08/04 A2995 RMK AO2=
201201271452 METAR KATL 271452Z 31014KT 10SM BKN012 BKN016 OVC020 08/05 A2993 RMK AO2 PRESRR SLP136 60000 T00830050 53038=
201201271433 SPECI KATL 271433Z 31016KT 10SM BKN014 BKN016 OVC020 08/05 A2991 RMK AO2=
201201271433 SPECI KATL 271433Z 31016KT 10SM BKN014 BKN016 OVC020 08/05 A2991 RMK AO2=
201201271418 SPECI KATL 271418Z 30015G22KT 10SM OVC016 09/05 A2991 RMK AO2=
201201271418 SPECI KATL 271418Z 30015G22KT 10SM OVC016 09/05 A2991 RMK AO2=
201201271352 METAR KATL 271352Z 30015G18KT 10SM OVC012 09/06 A2989 RMK AO2 PK WND 29028/1306 RAE1255 SLP121 P0000 T00890061=
201201271327 SPECI KATL 271327Z 28012G22KT 10SM OVC012 09/06 A2988 RMK AO2 PK WND 29028/1306 RAE1255 P0000=
201201271327 SPECI KATL 271327Z 28012G22KT 10SM OVC012 09/06 A2988 RMK AO2 PK WND 29028/1306 RAE1255 P0000=
201201271252 METAR KATL 271252Z 29018G23KT 10SM -RA SCT015 BKN021 OVC038 10/07 A2985 RMK AO2 RAB45 SLP105 BINOVC E P0000 T01000072=
201201271226 SPECI KATL 271226Z 27010G16KT 10SM SCT018 BKN027 OVC038 11/08 A2983 RMK AO2=
201201271226 SPECI KATL 271226Z 27010G16KT 10SM SCT018 BKN027 OVC038 11/08 A2983 RMK AO2=
201201271155 SPECI KATL 271155Z 27010KT 10SM BKN032 11/07 A2982=
201201271155 SPECI KATL 271155Z 27010KT 10SM BKN032 11/07 A2982 RMK AO2=
201201271152 METAR KATL 271152Z 26009KT 10SM BKN028 11/07 A2982 RMK AO2 SLP095 60008 70026 T01060072 10161 20106 53022=
201201271115 SPECI KATL 271115Z 27011KT 10SM FEW023 BKN029 BKN045 11/08 A2980 RMK AO2=
201201271115 SPECI KATL 271115Z 27011KT 10SM FEW023 BKN029 BKN045 11/08 A2980 RMK AO2=
201201271052 METAR KATL 271052Z 28010KT 10SM BKN034 BKN045 11/08 A2978 RMK AO2 SLP083 T01110078=
201201270952 METAR KATL 270952Z 27010KT 10SM SCT007 BKN065 BKN100 12/09 A2976 RMK AO2 SLP072 T01170094=
201201270947 SPECI KATL 270947Z 27008KT 10SM SCT007 BKN065 BKN100 12/09 A2975 RMK AO2=
201201270947 SPECI KATL 270947Z 27008KT 10SM SCT007 BKN065 BKN100 12/09 A2975 RMK AO2=
201201270922 SPECI KATL 270922Z 24007KT 10SM BKN007 BKN030 OVC095 12/11 A2975 RMK AO2=
201201270922 SPECI KATL 270922Z 24007KT 10SM BKN007 BKN030 OVC095 12/11 A2975 RMK AO2=
201201270852 METAR KATL 270852Z 27007KT 10SM FEW009 SCT043 OVC090 12/11 A2975 RMK AO2 RAE26 SLP070 P0002 60008 T01220106 53009=
201201270817 SPECI KATL 270817Z 28009KT 6SM -RA BR SCT009 OVC037 12/11 A2975 RMK AO2 P0002=
201201270817 SPECI KATL 270817Z 28009KT 6SM -RA BR SCT009 OVC037 12/11 A2975 RMK AO2 P0002=
201201270752 METAR KATL 270752Z 26014G22KT 7SM -RA SCT014 BKN033 OVC055 13/11 A2975 RMK AO2 PK WND 27026/0741 RAB0659 PRESRR SLP068 P0006 T01330106=
201201270701 SPECI KATL 270701Z 24009G19KT 10SM -RA SCT018 BKN023 OVC070 16/12 A2972 RMK AO2 RAB0659 P0000=
201201270701 SPECI KATL 270701Z 24009G19KT 10SM -RA SCT018 BKN023 OVC070 16/12 A2972 RMK AO2 RAB0659 P0000=
201201270652 METAR KATL 270652Z 23013G18KT 10SM SCT020 SCT044 BKN070 BKN200 16/12 A2972 RMK AO2 SLP057 T01560117=
201201270623 SPECI KATL 270623Z 21015G22KT 10SM FEW017 SCT025 SCT048 SCT200 16/12 A2971 RMK AO2=
201201270623 SPECI KATL 270623Z 21015G22KT 10SM FEW017 SCT025 SCT048 SCT200 16/12 A2971 RMK AO2=
201201270552 METAR KATL 270552Z 22011G21KT 10SM FEW018 BKN025 BKN040 OVC200 16/13 A2972 RMK AO2 SLP058 60003 T01610128 10172 20161 58005=
201201270452 METAR KATL 270452Z 21010G20KT 10SM SCT017 BKN028 BKN035 OVC200 16/13 A2973 RMK AO2 SLP063 T01610133 402170117=
201201270417 SPECI KATL 270417Z 22014G25KT 10SM FEW009 SCT014 BKN050 OVC200 17/14 A2974 RMK AO2=
201201270417 SPECI KATL 270417Z 22014G25KT 10SM FEW009 SCT014 BKN050 OVC200 17/14 A2974 RMK AO2=
201201270352 METAR KATL 270352Z 21014G22KT 10SM SCT010 BKN014 OVC050 17/14 A2974 RMK AO2 RAE34 SLP067 P0000 T01670144=
201201270252 METAR KATL 270252Z 19010G18KT 8SM -RA BKN012 BKN025 OVC035 16/14 A2974 RMK AO2 RAB51 SLP066 P0000 60003 T01610144 58014=
201201270209 SPECI KATL 270209Z 17011KT 10SM FEW012 BKN026 OVC200 16/14 A2975 RMK AO2=
201201270209 SPECI KATL 270209Z 17011KT 10SM FEW012 BKN026 OVC200 16/14 A2975 RMK AO2=
201201270152 METAR KATL 270152Z 19010G18KT 10SM SCT012 BKN150 BKN250 16/14 A2975 RMK AO2 SLP070 SCT012 V BKN T01610139=
201201270118 SPECI KATL 270118Z 19015G19KT 10SM FEW010 BKN017 OVC070 17/14 A2977 RMK AO2=
201201270118 SPECI KATL 270118Z 19015G19KT 10SM FEW010 BKN017 OVC070 17/14 A2977 RMK AO2=
201201270105 SPECI KATL 270105Z 19011KT 10SM SCT012 BKN070 OVC150 17/15 A2977 RMK AO2=
201201270105 SPECI KATL 270105Z 19011KT 10SM SCT012 BKN070 OVC150 17/15 A2977 RMK AO2=
201201270052 METAR KATL 270052Z 19015G20KT 10SM BKN012 BKN070 OVC150 17/15 A2978 RMK AO2 RAE28 PRESRR SLP079 P0003 T01720150=
201201270049 SPECI KATL 270049Z 18012KT 10SM BKN012 BKN070 OVC150 17/15 A2977 RMK AO2 RAE28 P0003=
201201270049 SPECI KATL 270049Z 18012KT 10SM BKN012 BKN070 OVC150 17/15 A2977 RMK AO2 RAE28 P0003=
201201262352 METAR KATL 262352Z 15015G20KT 6SM RA BR FEW010 BKN070 OVC100 17/15 A2978 RMK AO2 SLP081 P0010 60015 T01720150 10217 20172 57020=
201201262329 SPECI KATL 262329Z 17010KT 5SM RA BR SCT025 BKN050 OVC080 17/15 A2980 RMK AO2 P0005=
201201262329 SPECI KATL 262329Z 17010KT 5SM RA BR SCT025 BKN050 OVC080 17/15 A2980 RMK AO2 P0005=
201201262310 SPECI KATL 262310Z 16006KT 7SM -RA BKN024 BKN035 OVC050 17/15 A2979 RMK AO2 P0001=
201201262310 SPECI KATL 262310Z 16006KT 7SM -RA BKN024 BKN035 OVC050 17/15 A2979 RMK AO2 P0001=
201201262252 METAR KATL 262252Z 11006KT 8SM -RA BKN032 BKN060 OVC085 18/14 A2979 RMK AO2 SLP085 P0005 T01830144=
201201262152 METAR KATL 262152Z 19012KT 10SM -RA FEW040 SCT060 OVC100 21/13 A2982 RMK AO2 RAB47 SLP095 P0000 T02060128=
201201262052 METAR KATL 262052Z 20011KT 10SM BKN040 BKN110 OVC150 21/13 A2984 RMK AO2 SLP100 SHRA DSNT NW T02110128 56022=
201201261952 METAR KATL 261952Z 19012G19KT 10SM SCT035 BKN110 OVC200 21/13 A2984 RMK AO2 SLP102 T02110133=
201201261852 METAR KATL 261852Z 19014G19KT 10SM FEW025 BKN030 OVC200 21/14 A2987 RMK AO2 SLP111 T02110144=
201201261752 METAR KATL 261752Z 18011G17KT 10SM FEW025 BKN030 BKN100 BKN200 21/14 A2991 RMK AO2 SLP123 T02060144 10206 20139 58037=
201201261652 METAR KATL 261652Z 18012KT 10SM BKN020 BKN100 BKN200 19/14 A2995 RMK AO2 SLP139 T01940144=
201201261556 SPECI KATL 261556Z 17009G16KT 8SM SCT014 BKN018 BKN100 18/14 A2999 RMK AO2=
201201261556 SPECI KATL 261556Z 17009G16KT 8SM SCT014 BKN018 BKN100 18/14 A2999 RMK AO2=
201201261552 METAR KATL 261552Z 16010G16KT 6SM HZ FEW008 BKN014 BKN080 18/14 A2999 RMK AO2 SLP154 T01780144=
201201261544 SPECI KATL 261544Z 17011G15KT 6SM HZ BKN012 BKN018 OVC080 18/14 A3000 RMK AO2=
201201261544 SPECI KATL 261544Z 17011G15KT 6SM HZ BKN012 BKN018 OVC080 18/14 A3000 RMK AO2=
201201261533 SPECI KATL 261533Z 16007KT 6SM BR SCT010 BKN016 OVC080 17/14 A3001 RMK AO2=
201201261533 SPECI KATL 261533Z 16007KT 6SM BR SCT010 BKN016 OVC080 17/14 A3001 RMK AO2=
201201261514 SPECI KATL 261514Z 15008KT 6SM BR BKN008 OVC013 16/14 A3001 RMK AO2=
201201261514 SPECI KATL 261514Z 15008KT 6SM BR BKN008 OVC013 16/14 A3001 RMK AO2=
201201261452 METAR KATL 261452Z 15006KT 2SM BR OVC006 15/14 A3002 RMK AO2 SFC VIS 5 SLP163 T01500139 58007=
201201261442 SPECI KATL 261442Z 16006KT 2SM BR OVC006 15/14 A3002 RMK AO2 SFC VIS 6=
201201261442 SPECI KATL 261442Z 16006KT 2SM BR OVC006 15/14 A3002 RMK AO2 SFC VIS 6=
201201261426 SPECI KATL 261426Z 16006KT 1/2SM BR OVC004 15/14 A3003 RMK AO2 SFC VIS 2 1/2=
201201261426 SPECI KATL 261426Z 16006KT 1/2SM BR OVC004 15/14 A3003 RMK AO2 SFC VIS 2 1/2=
201201261352 METAR KATL 261352Z 15006KT 1/8SM BR OVC003 14/14 A3003 RMK AO2 SFC VIS 1 1/2 SLP165 T01440139=
201201261252 METAR KATL 261252Z 14007KT 1/8SM R09R/2200V3000FT FG VV002 14/13 A3004 RMK AO2 SFC VIS 1/4 SLP169 T01440133=
201201261237 SPECI KATL 261237Z 15005KT 1/8SM R09R/2400V3000FT FG VV002 14/13 A3004 RMK AO2 SFC VIS 1/4=
201201261237 SPECI KATL 261237Z 15005KT 1/8SM R09R/2400V3000FT FG VV002 14/13 A3004 RMK AO2 SFC VIS 1/4=
201201261223 SPECI KATL 261223Z 13005KT 0SM R09R/2200V2800FT FG VV002 14/13 A3004 RMK AO2 SFC VIS 1/8=
201201261223 SPECI KATL 261223Z 13005KT 0SM R09R/2200V2800FT FG VV002 14/13 A3004 RMK AO2 SFC VIS 1/8=
201201261211 SPECI KATL 261211Z 13006KT 0SM R09R/2000V2200FT FG VV002 14/13 A3004 RMK AO2 SFC VIS 1/8=
201201261211 SPECI KATL 261211Z 13006KT 0SM R09R/2000V2200FT FG VV002 14/13 A3004 RMK AO2 SFC VIS 1/8=
201201261152 METAR KATL 261152Z 13006KT 0SM R09R/2200V2400FT FG VV002 14/13 A3004 RMK AO2 SFC VIS 1/8 SLP171 T01390128 10139 20122 55006=
201201261138 SPECI KATL 261138Z 15007KT 0SM R09R/1800V2600FT FG VV002 13/13 A3005 RMK AO2 SFC VIS 1/4=
201201261138 SPECI KATL 261138Z 15007KT 0SM R09R/1800V2600FT FG VV002 13/13 A3005 RMK AO2 SFC VIS 1/4=
201201261052 METAR KATL 261052Z 12006KT 0SM R09R/1800V2200FT FG VV002 13/12 A3004 RMK AO2 SFC VIS 1/4 SLP170 T01330122=
201201261050 SPECI KATL 261050Z 13004KT 0SM R09R/1800V2800FT FG VV002 13/12 A3004 RMK AO2 SFC VIS 1/4=
201201261050 SPECI KATL 261050Z 13004KT 0SM R09R/1800V2800FT FG VV002 13/12 A3004 RMK AO2 SFC VIS 1/4=
201201260952 METAR KATL 260952Z 13004KT 1/2SM BR OVC003 13/12 A3005 RMK AO2 SFC VIS 1 1/2 SLP173 T01280117=
201201260921 SPECI KATL 260921Z 14008KT 1/2SM BR OVC003 13/11 A3004 RMK AO2 SFC VIS 4=
201201260921 SPECI KATL 260921Z 14008KT 1/2SM BR OVC003 13/11 A3004 RMK AO2 SFC VIS 4=
201201260852 METAR KATL 260852Z 13007KT 7SM OVC004 13/11 A3006 RMK AO2 SLP176 T01280106 57016=
201201260840 SPECI KATL 260840Z 13007KT 8SM BKN004 13/11 A3007 RMK AO2=
201201260840 SPECI KATL 260840Z 13007KT 8SM BKN004 13/11 A3007 RMK AO2=
201201260810 SPECI KATL 260810Z 11006KT 10SM BKN008 BKN065 12/09 A3008 RMK AO2=
201201260810 SPECI KATL 260810Z 11006KT 10SM BKN008 BKN065 12/09 A3008 RMK AO2=
201201260757 SPECI KATL 260757Z 12006KT 10SM FEW008 BKN065 BKN250 12/09 A3008 RMK AO2=
201201260757 SPECI KATL 260757Z 12006KT 10SM FEW008 BKN065 BKN250 12/09 A3008 RMK AO2=
201201260752 METAR KATL 260752Z 12007KT 10SM FEW028 SCT065 BKN250 12/09 A3008 RMK AO2 SLP184 T01220089=
201201260652 METAR KATL 260652Z 12005KT 10SM FEW028 SCT250 12/08 A3009 RMK AO2 SLP187 T01220083=
201201260552 METAR KATL 260552Z 09007KT 10SM FEW028 BKN250 12/08 A3011 RMK AO2 SLP195 T01220078 10161 20117 58011=
201201260452 METAR KATL 260452Z 10007KT 10SM FEW030 BKN060 BKN250 13/08 A3013 RMK AO2 SLP201 T01280078 402000044=
201201260352 METAR KATL 260352Z 09006KT 10SM FEW035 SCT065 BKN250 12/08 A3014 RMK AO2 SLP206 T01220078=
201201260252 METAR KATL 260252Z 09006KT 10SM FEW035 SCT060 BKN250 13/08 A3014 RMK AO2 SLP208 T01330078 53005=
201201260152 METAR KATL 260152Z 10009KT 10SM SCT035 BKN200 BKN250 15/07 A3012 RMK AO2 SLP201 T01500072=
201201260052 METAR KATL 260052Z 10007KT 10SM SCT042 BKN200 BKN250 15/07 A3012 RMK AO2 SLP201 T01500072=
201201252352 METAR KATL 252352Z 10011KT 10SM SCT035 BKN045 BKN250 16/07 A3013 RMK AO2 SLP203 T01610072 10200 20156 56002=
201201252252 METAR KATL 252252Z 10011KT 10SM BKN048 BKN200 BKN250 17/08 A3013 RMK AO2 SLP203 T01720078=
201201252152 METAR KATL 252152Z 10006KT 10SM FEW030 SCT200 BKN250 18/07 A3013 RMK AO2 SLP203 T01830072=
201201252052 METAR KATL 252052Z 14008KT 10SM FEW030 SCT070 SCT250 19/07 A3013 RMK AO2 SLP203 T01940067 56014=
201201251952 METAR KATL 251952Z 14008KT 10SM FEW020 SCT030 BKN070 BKN250 18/06 A3014 RMK AO2 SLP207 T01830061=
201201251923 SPECI KATL 251923Z 10008KT 10SM BKN028 BKN070 BKN250 18/04 A3016 RMK AO2=
201201251923 SPECI KATL 251923Z 10008KT 10SM BKN028 BKN070 BKN250 18/04 A3016 RMK AO2=
201201251903 SPECI KATL 251903Z 11005KT 10SM BKN028 BKN070 19/04 A3017 RMK AO2=
201201251903 SPECI KATL 251903Z 11005KT 10SM BKN028 BKN070 19/04 A3017 RMK AO2=
201201251852 METAR KATL 251852Z 13008KT 10SM FEW030 SCT075 BKN250 18/03 A3018 RMK AO2 SLP217 T01830033=
201201251817 SPECI KATL 251817Z 10007KT 10SM FEW035 BKN075 BKN250 17/03 A3020 RMK AO2=
201201251817 SPECI KATL 251817Z 10007KT 10SM FEW035 BKN075 BKN250 17/03 A3020 RMK AO2=
201201251752 METAR KATL 251752Z 11006KT 10SM BKN030 BKN060 BKN250 16/03 A3021 RMK AO2 SLP231 T01560028 10156 20044 58015=
201201251736 SPECI KATL 251736Z 11006KT 10SM FEW025 BKN030 OVC060 15/03 A3023 RMK AO2=
201201251736 SPECI KATL 251736Z 11006KT 10SM FEW025 BKN030 OVC060 15/03 A3023 RMK AO2=
201201251708 SPECI KATL 251708Z 12006KT 10SM BKN024 BKN030 OVC060 14/02 A3024 RMK AO2=
201201251708 SPECI KATL 251708Z 12006KT 10SM BKN024 BKN030 OVC060 14/02 A3024 RMK AO2=
201201251652 METAR KATL 251652Z 12006KT 10SM BKN030 BKN060 BKN250 13/02 A3024 RMK AO2 SLP243 T01330022=
201201251552 METAR KATL 251552Z 08008KT 10SM BKN045 BKN070 BKN250 12/04 A3026 RMK AO2 SLP247 T01220039=
201201251452 METAR KATL 251452Z 08010KT 10SM FEW030 SCT200 SCT250 09/03 A3026 RMK AO2 SLP249 T00940033 51011=
201201251352 METAR KATL 251352Z 09006KT 10SM SCT150 BKN250 08/02 A3025 RMK AO2 SLP246 T00780022=
201201251252 METAR KATL 251252Z 08005KT 10SM SCT150 SCT250 06/01 A3024 RMK AO2 PK WND 33070/1217 SLP243 T00560006=
201201251152 METAR KATL 251152Z 07005KT 10SM FEW250 07/00 A3023 RMK AO2 SLP237 T00670000 10089 20050 53005=
201201251052 METAR KATL 251052Z 08004KT 10SM FEW150 06/M01 A3021 RMK AO2 SLP229 T00611006=
201201250952 METAR KATL 250952Z 08003KT 10SM FEW150 07/M01 A3020 RMK AO2 SLP226 T00721006=
201201250852 METAR KATL 250852Z 00000KT 10SM CLR 07/M01 A3021 RMK AO2 SLP231 T00671006 53003=
201201250752 METAR KATL 250752Z 00000KT 10SM CLR 07/00 A3021 RMK AO2 SLP231 T00670000=
201201250652 METAR KATL 250652Z 36004KT 10SM FEW250 08/00 A3020 RMK AO2 SLP229 T00780000=
201201250552 METAR KATL 250552Z 34006KT 10SM FEW250 09/00 A3020 RMK AO2 SLP229 T00940000 10133 20089 56009=
201201250452 METAR KATL 250452Z 33005KT 10SM FEW250 09/01 A3020 RMK AO2 SLP229 T00890006 401780061=
201201250352 METAR KATL 250352Z 34007KT 10SM SCT250 09/01 A3022 RMK AO2 SLP235 T00940011=
201201250252 METAR KATL 250252Z 33006KT 10SM BKN250 10/02 A3023 RMK AO2 SLP239 T01000017 50006=
201201250152 METAR KATL 250152Z 32005KT 10SM FEW200 BKN250 11/01 A3024 RMK AO2 SLP243 T01110011=
201201250052 METAR KATL 250052Z 32005KT 10SM SCT200 12/01 A3023 RMK AO2 SLP239 T01220011=
201201242352 METAR KATL 242352Z 31005KT 10SM FEW200 13/01 A3021 RMK AO2 SLP231 T01330006 10178 20133 53011=
201201242252 METAR KATL 242252Z 33006KT 10SM FEW250 14/01 A3020 RMK AO2 SLP228 T01440006=
201201242152 METAR KATL 242152Z 31008KT 10SM FEW250 17/00 A3018 RMK AO2 SLP221 T01670000=
201201242052 METAR KATL 242052Z 31004KT 10SM FEW250 17/00 A3018 RMK AO2 SLP218 T01720000 55008=
201201241952 METAR KATL 241952Z 31008KT 10SM FEW250 17/01 A3017 RMK AO2 SLP215 T01670006=
201201241852 METAR KATL 241852Z 32006KT 10SM FEW250 16/01 A3018 RMK AO2 SLP218 T01560011=
201201241752 METAR KATL 241752Z 00000KT 10SM FEW250 14/03 A3020 RMK AO2 SLP228 T01390028 10144 20061 58002=
201201241652 METAR KATL 241652Z 32006KT 10SM FEW150 13/03 A3022 RMK AO2 SLP234 T01280033=
201201241552 METAR KATL 241552Z 32005KT 10SM FEW150 12/06 A3022 RMK AO2 SLP235 T01170056=
201201241452 METAR KATL 241452Z 33009KT 10SM FEW010 SCT150 10/06 A3021 RMK AO2 SLP231 T01000061 53024=
201201241352 METAR KATL 241352Z 30005KT 10SM FEW010 08/06 A3018 RMK AO2 SLP221 T00780056=
201201241252 METAR KATL 241252Z 31005KT 10SM FEW010 06/04 A3016 RMK AO2 SLP214 T00610044=
201201241152 METAR KATL 241152Z 32004KT 10SM CLR 07/05 A3014 RMK AO2 SLP206 60000 70098 T00720050 10117 20067 53013=
201201241052 METAR KATL 241052Z 30004KT 10SM CLR 08/06 A3012 RMK AO2 SLP199 T00780061=
201201240952 METAR KATL 240952Z 30005KT 9SM CLR 09/08 A3010 RMK AO2 SLP192 T00890078=
201201240939 SPECI KATL 240939Z 30005KT 7SM FEW002 09/08 A3010 RMK AO2=
201201240939 SPECI KATL 240939Z 30005KT 7SM FEW002 09/08 A3010 RMK AO2=
201201240852 METAR KATL 240852Z 29005KT 1/8SM R09R/2600V4500FT FG VV002 10/09 A3010 RMK AO2 SFC VIS 1/2 DZE43 SLP191 P0000 60000 T01000089 52010=
201201240752 METAR KATL 240752Z 29005KT 1/8SM R09R/2800V4000FT -DZ BR OVC002 11/10 A3009 RMK AO2 SFC VIS 3/4 SLP187 P0000 T01110100=
201201240652 METAR KATL 240652Z COR 28005KT 1/8SM R09R/P6000FT -DZ FG OVC002 11/11 A3008 RMK AO2 SFC VIS 1/4 SLP184 P0000 T01110106=
201201240552 METAR KATL 240552Z 28008KT 1/8SM R09R/1600V2400FT -DZ BR VV002 11/11 A3006 RMK AO2 DZB51 SLP181 P0000 60000 T01110106 10133 20089 53005=
201201240540 SPECI KATL 240540Z 27007KT 1/8SM R09R/1400V2200FT FG VV002 11/11 A3006 RMK AO2=
201201240540 SPECI KATL 240540Z 27007KT 1/8SM R09R/1400V2200FT FG VV002 11/11 A3006 RMK AO2=
201201240536 SPECI KATL 240536Z 28007KT 1/2SM R09R/1400V2400FT FG VV002 11/11 A3006 RMK AO2=
201201240536 SPECI KATL 240536Z 28007KT 1/2SM R09R/1400V2400FT FG VV002 11/11 A3006 RMK AO2=
201201240452 METAR KATL 240452Z COR 00000KT 1/2SM R09R/1200V2400FT FG BKN002 BKN250 09/08 A3005 RMK AO2 SLP178 T00890078 401560067=
201201240425 SPECI KATL 240425Z 00000KT 1SM R09R/2600VP6000FT BR SCT002 BKN005 BKN250 09/08 A3006 RMK AO2 TWR VIS 2 VIS NW-N-NE 4=
201201240425 SPECI KATL 240425Z 00000KT 1SM R09R/2600VP6000FT BR SCT002 BKN005 BKN250 09/08 A3006 RMK AO2 TWR VIS 2 VIS NW-N-NE 4=
201201240352 METAR KATL 240352Z 00000KT 2SM R09R/1800VP6000FT BCFG BR FEW002 BKN250 11/09 A3005 RMK AO2 SLP178 T01060094=
201201240345 SPECI KATL 240345Z 00000KT 2SM R09R/1200V4500FT BCFG BR FEW002 SCT006 BKN250 11/09 A3005 RMK AO2=
201201240345 SPECI KATL 240345Z 00000KT 2SM R09R/1200V4500FT BCFG BR FEW002 SCT006 BKN250 11/09 A3005 RMK AO2=
201201240327 SPECI KATL 240327Z 00000KT 2SM R09R/0800V1400FT BR SCT002 BKN006 BKN250 11/10 A3006 RMK AO2 VIS N-NE 2 S-SW 1=
201201240327 SPECI KATL 240327Z 00000KT 2SM R09R/0800V1400FT BR SCT002 BKN006 BKN250 11/10 A3006 RMK AO2 VIS N-NE 2 S-SW 1=
201201240320 SPECI KATL 240320Z 00000KT 2SM R09R/1000V1400FT BR FEW002 SCT006 BKN250 11/10 A3005 RMK AO2 VIS N-NE 2 S-SW 1=
201201240320 SPECI KATL 240320Z 00000KT 2SM R09R/1000V1400FT BR FEW002 SCT006 BKN250 11/10 A3005 RMK AO2 VIS N-NE 2 S-SW 1=
201201240304 SPECI KATL 240304Z 00000KT 2SM R09R/2200VP6000FT BR FEW002 BKN006 BKN250 11/10 A3005 RMK AO2 VIS S-SW 1=
201201240304 SPECI KATL 240304Z 00000KT 2SM R09R/2200VP6000FT BR FEW002 BKN006 BKN250 11/10 A3005 RMK AO2 VIS S-SW 1=
201201240252 METAR KATL 240252Z 00000KT 5SM R09R/2400VP6000FT BCFG BR FEW002 BKN006 BKN250 12/11 A3005 RMK AO2 SLP176 VIS N-E 2 S-SW 1 1/2 T01170106 53013=
201201240222 SPECI KATL 240222Z 00000KT 6SM R09R/2800VP6000FT BCFG BR FEW002 BKN250 12/11 A3004 RMK AO2 VIS S-SW 1 1/2=
201201240222 SPECI KATL 240222Z 00000KT 6SM R09R/2800VP6000FT BCFG BR FEW002 BKN250 12/11 A3004 RMK AO2 VIS S-SW 1 1/2=
201201240152 METAR KATL 240152Z 15003KT 9SM BKN250 13/11 A3003 RMK AO2 SLP168 BCFG NE T01280111=
201201240052 METAR KATL 240052Z 14003KT 10SM BKN250 13/12 A3002 RMK AO2 SLP165 BCFG NE T01330117=
201201232352 METAR KATL 232352Z 16003KT 10SM FEW080 BKN250 13/12 A3001 RMK AO2 SLP163 T01330117 10156 20122 51012=
201201232252 METAR KATL 232252Z 17004KT 10SM FEW080 BKN250 14/12 A3001 RMK AO2 SLP162 T01390117=
201201232152 METAR KATL 232152Z 18005KT 10SM FEW010 BKN080 BKN250 16/12 A3000 RMK AO2 SLP158 T01560122=
201201232052 METAR KATL 232052Z 20005KT 10SM FEW010 SCT030 BKN070 16/13 A2998 RMK AO2 SLP151 T01560128 55005=
201201231952 METAR KATL 231952Z 14004KT 6SM BR FEW005 SCT030 OVC060 15/13 A2997 RMK AO2 SLP150 T01500133=
201201231948 SPECI KATL 231948Z 12003KT 6SM BR FEW005 SCT030 OVC060 15/13 A2998 RMK AO2=
201201231948 SPECI KATL 231948Z 12003KT 6SM BR FEW005 SCT030 OVC060 15/13 A2998 RMK AO2=
201201231918 SPECI KATL 231918Z 12004KT 2SM BR BKN005 BKN030 OVC060 14/13 A2998 RMK AO2 SFC VIS 6=
201201231918 SPECI KATL 231918Z 12004KT 2SM BR BKN005 BKN030 OVC060 14/13 A2998 RMK AO2 SFC VIS 6=
201201231852 METAR KATL 231852Z 14005KT 1SM BR FEW003 BKN009 OVC015 14/12 A2999 RMK AO2 SFC VIS 6 SLP156 T01390122=
201201231752 METAR KATL 231752Z 13005KT 1SM BR BKN009 BKN013 OVC030 12/11 A3001 RMK AO2 SFC VIS 6 RAE13 SLP163 P0002 60098 T01220111 10128 20083 55020=
201201231748 SPECI KATL 231748Z 13005KT 1SM BR BKN009 BKN013 OVC030 12/11 A3001 RMK AO2 SFC VIS 6 RAE13 P0002=
201201231748 SPECI KATL 231748Z 13005KT 1SM BR BKN009 BKN013 OVC030 12/11 A3001 RMK AO2 SFC VIS 6 RAE13 P0002=
201201231732 SPECI KATL 231732Z 12008KT 1SM BR FEW004 OVC013 12/11 A3001 RMK AO2 SFC VIS 6 RAE13 P0002=
201201231732 SPECI KATL 231732Z 12008KT 1SM BR FEW004 OVC013 12/11 A3001 RMK AO2 SFC VIS 6 RAE13 P0002=
201201231701 SPECI KATL 231701Z 11008KT 1SM -RA BR FEW004 BKN009 OVC015 12/11 A3004 RMK AO2 SFC VIS 4 P0001=
201201231701 SPECI KATL 231701Z 11008KT 1SM -RA BR FEW004 BKN009 OVC015 12/11 A3004 RMK AO2 SFC VIS 4 P0001=
201201231652 METAR KATL 231652Z 07008KT 2 1/2SM R09R/6000VP6000FT RA BR BKN009 BKN018 OVC030 12/11 A3005 RMK AO2 TSE19 SLP177 TS MOV E CB DSNT NE-E-SE P0031 T01170106=
201201231644 SPECI KATL 231644Z 05007KT 2 1/2SM -RA BR BKN009 OVC018 12/10 A3005 RMK AO2 SFC VIS 6 TSE19 CIG 007V014 TS MOV E CB DSNT NE-E-SE P0029=
201201231644 SPECI KATL 231644Z 05007KT 2 1/2SM -RA BR BKN009 OVC018 12/10 A3005 RMK AO2 SFC VIS 6 TSE19 CIG 007V014 TS MOV E CB DSNT NE-E-SE P0029=
201201231620 SPECI KATL 231620Z 04008KT 2 1/2SM -RA BR FEW008 BKN023 OVC034 12/11 A3005 RMK AO2 SFC VIS 6 TSE19 TS MOV E CB DSNT NE-E-SE P0029=
201201231620 SPECI KATL 231620Z 04008KT 2 1/2SM -RA BR FEW008 BKN023 OVC034 12/11 A3005 RMK AO2 SFC VIS 6 TSE19 TS MOV E CB DSNT NE-E-SE P0029=
201201231603 SPECI KATL 231603Z 07007KT 2 1/2SM R09R/2000VP6000FT -TSRA BR FEW008 BKN014CB OVC023 12/10 A3005 RMK AO2 SFC VIS 6 VIS LWR NE-E-SE SHRA OCNL LTGICCG NE-E-SE TS NE-E-SE MOV E P0027=
201201231603 SPECI KATL 231603Z 07007KT 2 1/2SM R09R/2000VP6000FT -TSRA BR FEW008 BKN014CB OVC023 12/10 A3005 RMK AO2 SFC VIS 6 VIS LWR NE-E-SE SHRA OCNL LTGICCG NE-E-SE TS NE-E-SE MOV E P0027=
201201231559 SPECI KATL 231559Z 06006KT 1/2SM R09R/2000VP6000FT -TSRA BR FEW004 SCT008CB OVC016 12/11 A3006 RMK AO2 SFC VIS 3 VIS LWR NE-E-SE SHRA OCNL LTGICCG NE-E-SE TS NE-E-SE MOV E P0026=
201201231559 SPECI KATL 231559Z 06006KT 1/2SM R09R/2000VP6000FT -TSRA BR FEW004 SCT008CB OVC016 12/11 A3006 RMK AO2 SFC VIS 3 VIS LWR NE-E-SE SHRA OCNL LTGICCG NE-E-SE TS NE-E-SE MOV E P0026=
201201231552 METAR KATL 231552Z 00000KT 1/2SM R09R/3000VP6000FT -TSRA BR SCT004 BKN008CB OVC021 12/11 A3007 RMK AO2 SFC VIS 3 TSB10 SLP184 VIS LWR NE-E-SE SHRA OCNL LTGICCG NE-E-SE TS NE-E-SE MOV E P0047 T01170106=
201201231548 SPECI KATL 231548Z VRB03G15KT 1/2SM R09R/3000VP6000FT +TSRA FG OVC004CB 12/11 A3006 RMK AO2 TSB10 OCNL LTGICCG OHD TS OHD MOV NE P0036=
201201231548 SPECI KATL 231548Z VRB03G15KT 1/2SM R09R/3000VP6000FT +TSRA FG OVC004CB 12/11 A3006 RMK AO2 TSB10 OCNL LTGICCG OHD TS OHD MOV NE P0036=
201201231532 SPECI KATL 231532Z 31012KT 1/2SM TSRA BR OVC004CB 13/12 A3006 RMK AO2 SFC VIS 3 TSB10 PRESRR OCNL LTGICCG OHD TS OHD MOV NE P0012=
201201231532 SPECI KATL 231532Z 31012KT 1/2SM TSRA BR OVC004CB 13/12 A3006 RMK AO2 SFC VIS 3 TSB10 PRESRR OCNL LTGICCG OHD TS OHD MOV NE P0012=
201201231512 SPECI KATL 231512Z 16010G15KT 1/2SM -TSRA BR OVC004CB 12/11 A3001 RMK AO2 SFC VIS 4 TSB10 OCNL LTGICCG SW-W-NW TS SW-W-NW MOV NE P0005=
201201231512 SPECI KATL 231512Z 16010G15KT 1/2SM -TSRA BR OVC004CB 12/11 A3001 RMK AO2 SFC VIS 4 TSB10 OCNL LTGICCG SW-W-NW TS SW-W-NW MOV NE P0005=
201201231452 METAR KATL 231452Z 14011G17KT 1/2SM RA BR OVC004 11/10 A2999 RMK AO2 SFC VIS 3 SLP158 P0008 60018 T01110100 56009=
201201231352 METAR KATL 231352Z 13008KT 1/2SM R09R/4500VP6000FT -RA BR OVC002 11/09 A3000 RMK AO2 SFC VIS 1 3/4 SLP161 P0006 T01060094=
201201231252 METAR KATL 231252Z 13009KT 1/2SM -RA BR OVC002 09/08 A3000 RMK AO2 SFC VIS 3 DZE1156RAB1156 SLP162 P0004 T00940083=
201201231152 METAR KATL 231152Z 13009KT 1/2SM R09R/3500V4500FT -DZ BR VV002 08/07 A3002 RMK AO2 SFC VIS 3/4 SLP168 P0000 60002 70010 T00780072 10078 20067 56019=
201201231052 METAR KATL 231052Z 12012G18KT 1/2SM R09R/6000VP6000FT -DZ BR OVC002 07/06 A3003 RMK AO2 SFC VIS 1 1/2 SLP171 P0000 T00720061=
201201230957 SPECI KATL 230957Z 11010KT 1/2SM -DZ BR OVC002 07/06 A3005 RMK AO2 SFC VIS 2 1/2 P0000=
201201230957 SPECI KATL 230957Z 11010KT 1/2SM -DZ BR OVC002 07/06 A3005 RMK AO2 SFC VIS 2 1/2 P0000=
201201230952 METAR KATL 230952Z 11009G16KT 0SM -DZ BR OVC002 07/06 A3005 RMK AO2 SFC VIS 2 SLP179 P0000 T00720061=
201201230852 METAR KATL 230852Z 11007KT 0SM -DZ BR OVC002 07/06 A3008 RMK AO2 SFC VIS 1 3/4 SLP187 P0001 60002 T00720061 55005=
201201230752 METAR KATL 230752Z 12009G18KT 0SM R09R/P6000FT -DZ BR OVC002 07/06 A3007 RMK AO2 SFC VIS 1 SLP183 P0000 T00720061=
201201230652 METAR KATL 230652Z 10013G18KT 0SM R09R/4000V5500FT -DZ FG VV002 07/06 A3008 RMK AO2 SFC VIS 1/2 DZB50 SLP189 P0001 T00670056=
201201230552 METAR KATL 230552Z 11010KT 0SM R09R/2400V4000FT FG VV002 07/06 A3009 RMK AO2 SFC VIS 1/4 DZE31 SLP192 P0000 60007 T00670056 10089 20067 58022=
201201230531 SPECI KATL 230531Z 11013G17KT 0SM R09R/2600V3500FT FG VV002 07/06 A3010 RMK AO2 SFC VIS 1/4 DZE31 P0000=
201201230531 SPECI KATL 230531Z 11013G17KT 0SM R09R/2600V3500FT FG VV002 07/06 A3010 RMK AO2 SFC VIS 1/4 DZE31 P0000=
201201230452 METAR KATL 230452Z 11013KT 1/2SM -DZ BR OVC003 07/06 A3012 RMK AO2 SFC VIS 3 RAE40DZB51 SLP202 P0003 T00670056 401330067=
201201230352 METAR KATL 230352Z 11010KT 1/2SM -RA BR OVC002 07/06 A3015 RMK AO2 SFC VIS 1 1/4 SLP211 P0004 T00720061=
201201230252 METAR KATL 230252Z 10012KT 1/2SM -RA BR OVC002 07/06 A3016 RMK AO2 SFC VIS 1 1/4 RAB28 SLP215 P0000 60000 T00720061 50002=
201201230152 METAR KATL 230152Z 10010KT 1/2SM R09R/6000VP6000FT BR OVC002 07/06 A3017 RMK AO2 SFC VIS 3/4 DZE49 SLP217 P0000 T00720061=
201201230052 METAR KATL 230052Z 09010KT 1/2SM R09R/P6000FT -DZ BR OVC002 08/07 A3016 RMK AO2 SFC VIS 3/4 SLP216 P0000 T00780067=
201201222352 METAR KATL 222352Z 10012KT 1/2SM -DZ BR OVC003 09/07 A3016 RMK AO2 SFC VIS 1 1/2 SLP214 P0000 60001 T00890072 10133 20089 51007=
201201222252 METAR KATL 222252Z 09013KT 1/2SM -DZ BR OVC003 09/08 A3015 RMK AO2 SFC VIS 1 1/4 DZB15 SLP213 P0000 T00940078=
201201222215 SPECI KATL 222215Z 08014KT 1/2SM -DZ BR OVC004 11/09 A3014 RMK AO2 SFC VIS 5 DZB15 P0000=
201201222215 SPECI KATL 222215Z 08014KT 1/2SM -DZ BR OVC004 11/09 A3014 RMK AO2 SFC VIS 5 DZB15 P0000=
201201222152 METAR KATL 222152Z 10012KT 1/2SM BR OVC005 11/09 A3014 RMK AO2 SFC VIS 5 SLP208 T01060089=
201201222052 METAR KATL 222052Z 10012KT 1/2SM BR OVC005 11/10 A3014 RMK AO2 SFC VIS 4 RAE1957 SLP206 P0001 60001 T01110100 55000=
201201222025 SPECI KATL 222025Z 10010G18KT 1/2SM BR BKN005 OVC013 12/11 A3013 RMK AO2 SFC VIS 3 RAE1957 P0001=
201201222025 SPECI KATL 222025Z 10010G18KT 1/2SM BR BKN005 OVC013 12/11 A3013 RMK AO2 SFC VIS 3 RAE1957 P0001=
201201221952 METAR KATL 221952Z 08016KT 1/2SM R09R/5000VP6000FT -RA BR OVC004 12/11 A3013 RMK AO2 SFC VIS 1 1/2 RAB27 CIG 003V008 SLP203 P0000 T01220106=
201201221852 METAR KATL 221852Z 11010G16KT 1/2SM BR OVC004 13/12 A3012 RMK AO2 SFC VIS 2 1/2 SLP202 T01280117=
201201221752 METAR KATL 221752Z 10009KT 1/2SM BR OVC004 13/11 A3014 RMK AO2 SFC VIS 4 SLP205 VIS N 2 TWR IN CLOUDS T01330111 10133 20106 58008=
201201221652 METAR KATL 221652Z 10010KT 1SM BR OVC004 13/11 A3017 RMK AO2 SFC VIS 6 SLP216 TWR IN CLOUDS T01280111=
201201221601 SPECI KATL 221601Z 11008KT 1SM BR OVC002 12/11 A3017 RMK AO2 SFC VIS 6 TWR IN CLOUDS=
201201221601 SPECI KATL 221601Z 11008KT 1SM BR OVC002 12/11 A3017 RMK AO2 SFC VIS 6 TWR IN CLOUDS=
201201221552 METAR KATL 221552Z 10010G15KT 1/4SM BR OVC002 12/11 A3017 RMK AO2 SFC VIS 5 SLP216 TWR IN CLOUDS T01220111=
201201221452 METAR KATL 221452Z 11011KT 1/4SM BR OVC002 12/11 A3016 RMK AO2 SFC VIS 2 1/2 SLP213 T01170106 53019=
201201221352 METAR KATL 221352Z 10008KT 1/4SM R09R/4500VP6000FT FG OVC002 12/11 A3014 RMK AO2 SFC VIS 1/2 SLP206 T01170106=
201201221252 METAR KATL 221252Z 10007KT 1/4SM R09R/6000VP6000FT BR OVC002 11/10 A3012 RMK AO2 SFC VIS 2 SLP199 T01110100=
201201221152 METAR KATL 221152Z 09010KT 1/4SM BR OVC004 11/09 A3010 RMK AO2 SFC VIS 4 SLP193 70170 T01060089 10111 20106 53007=
201201221124 SPECI KATL 221124Z 07009KT 1/4SM BR OVC004 11/09 A3010 RMK AO2 SFC VIS 4=
201201221124 SPECI KATL 221124Z 07009KT 1/4SM BR OVC004 11/09 A3010 RMK AO2 SFC VIS 4=
201201221052 METAR KATL 221052Z 07007KT 3SM BR BKN004 OVC023 11/09 A3008 RMK AO2 SFC VIS 5 SLP186 T01060089=
201201221042 SPECI KATL 221042Z 06007KT 3SM BR BKN004 OVC023 11/09 A3009 RMK AO2 SFC VIS 6=
201201221042 SPECI KATL 221042Z 06007KT 3SM BR BKN004 OVC023 11/09 A3009 RMK AO2 SFC VIS 6=
201201221012 SPECI KATL 221012Z 05007KT 6SM BR BKN005 OVC023 11/09 A3008 RMK AO2=
201201221012 SPECI KATL 221012Z 05007KT 6SM BR BKN005 OVC023 11/09 A3008 RMK AO2=
201201220952 METAR KATL 220952Z 05004KT 6SM BR FEW004 BKN020 OVC025 11/09 A3007 RMK AO2 SLP183 T01060089=
201201220852 METAR KATL 220852Z 04005KT 6SM BR FEW004 SCT014 BKN020 11/09 A3008 RMK AO2 SLP184 T01110089 53004=
201201220752 METAR KATL 220752Z 03006KT 5SM BR FEW004 BKN018 11/09 A3007 RMK AO2 SLP181 T01110094=
201201220748 SPECI KATL 220748Z 03005KT 5SM BR FEW004 BKN018 11/09 A3007 RMK AO2=
201201220748 SPECI KATL 220748Z 03005KT 5SM BR FEW004 BKN018 11/09 A3007 RMK AO2=
201201220709 SPECI KATL 220709Z 36005KT 3SM BR OVC016 11/09 A3007 RMK AO2=
201201220709 SPECI KATL 220709Z 36005KT 3SM BR OVC016 11/09 A3007 RMK AO2=
201201220652 METAR KATL 220652Z 35005KT 1 1/2SM BR SCT002 OVC016 11/09 A3007 RMK AO2 SLP181 T01060094=
201201220644 SPECI KATL 220644Z 33004KT 1 3/4SM BR FEW002 OVC016 11/09 A3007 RMK AO2=
201201220644 SPECI KATL 220644Z 33004KT 1 3/4SM BR FEW002 OVC016 11/09 A3007 RMK AO2=
201201220635 SPECI KATL 220635Z 35003KT 2SM BR SCT002 OVC014 11/09 A3007 RMK AO2=
201201220635 SPECI KATL 220635Z 35003KT 2SM BR SCT002 OVC014 11/09 A3007 RMK AO2=
201201220621 SPECI KATL 220621Z 00000KT 1 1/4SM BR BKN002 OVC014 11/09 A3006 RMK AO2=
201201220621 SPECI KATL 220621Z 00000KT 1 1/4SM BR BKN002 OVC014 11/09 A3006 RMK AO2=
201201220610 SPECI KATL 220610Z 00000KT 2SM BR OVC002 11/09 A3006 RMK AO2=
201201220610 SPECI KATL 220610Z 00000KT 2SM BR OVC002 11/09 A3006 RMK AO2=
201201220552 METAR KATL 220552Z 00000KT 1/2SM R09R/P6000FT BR OVC004 11/09 A3006 RMK AO2 SFC VIS 1 SLP178 T01060094 10150 20100 52007=
201201220538 SPECI KATL 220538Z 03004KT 1/2SM BR OVC004 11/09 A3005 RMK AO2 SFC VIS 2=
201201220538 SPECI KATL 220538Z 03004KT 1/2SM BR OVC004 11/09 A3005 RMK AO2 SFC VIS 2=
201201220502 SPECI KATL 220502Z 02004KT 2 1/2SM BR BKN004 11/09 A3005 RMK AO2 SFC VIS 4 CIG 003V006=
201201220502 SPECI KATL 220502Z 02004KT 2 1/2SM BR BKN004 11/09 A3005 RMK AO2 SFC VIS 4 CIG 003V006=
201201220458 SPECI KATL 220458Z 02004KT 2 1/2SM BR BKN005 10/09 A3005 RMK AO2 SFC VIS 5=
201201220458 SPECI KATL 220458Z 02004KT 2 1/2SM BR BKN005 10/09 A3005 RMK AO2 SFC VIS 5=
201201220452 METAR KATL 220452Z 01005KT 6SM BR BKN005 11/09 A3005 RMK AO2 SLP175 T01060094 401780106=
201201220450 SPECI KATL 220450Z 36005KT 6SM BR BKN005 11/09 A3005 RMK AO2 401780106=
201201220450 SPECI KATL 220450Z 36005KT 6SM BR BKN005 11/09 A3005 RMK AO2 401780106=
201201220352 METAR KATL 220352Z 33003KT 8SM FEW008 12/10 A3004 RMK AO2 SLP171 T01170100=
201201220333 SPECI KATL 220333Z 34004KT 8SM FEW008 12/11 A3004 RMK AO2=
201201220333 SPECI KATL 220333Z 34004KT 8SM FEW008 12/11 A3004 RMK AO2=
201201220252 METAR KATL 220252Z 33005KT 10SM FEW015 13/11 A3004 RMK AO2 SLP169 T01280111 51018=
201201220152 METAR KATL 220152Z 32004KT 10SM FEW019 13/11 A3002 RMK AO2 SLP165 T01330111=
201201220052 METAR KATL 220052Z VRB03KT 10SM FEW024 14/12 A3001 RMK AO2 SLP160 T01390117 $=
201201212352 METAR KATL 212352Z 30005KT 10SM FEW033 15/12 A2998 RMK AO2 SLP149 60006 T01500117 10172 20144 53016 $=
201201212252 METAR KATL 212252Z COR 33007KT 10SM FEW023 SCT250 16/13 A2995 RMK AO2 SLP139 T01610128 $=
201201212152 METAR KATL 212152Z 29004KT 10SM FEW016 SCT024 SCT250 16/14 A2993 RMK AO2 SLP132 T01610139 $=
201201212134 SPECI KATL 212134Z 32006KT 10SM SCT016 SCT022 SCT250 17/14 A2993 RMK AO2 $=
201201212134 SPECI KATL 212134Z 32006KT 10SM SCT016 SCT022 SCT250 17/14 A2993 RMK AO2 $=
201201212103 SPECI KATL 212103Z 27006KT 10SM FEW010 BKN015 BKN023 17/14 A2993 RMK AO2 $=
201201212103 SPECI KATL 212103Z 27006KT 10SM FEW010 BKN015 BKN023 17/14 A2993 RMK AO2 $=
201201212052 METAR KATL 212052Z 28008KT 10SM OVC012 17/14 A2993 RMK AO2 SLP131 60006 T01670139 53008 $=
201201212031 SPECI KATL 212031Z 25007KT 10SM BKN012 17/14 A2992 RMK AO2 $=
201201212031 SPECI KATL 212031Z 25007KT 10SM BKN012 17/14 A2992 RMK AO2 $=
201201211959 SPECI KATL 211959Z 25005KT 10SM FEW005 SCT100 16/14 A2991 RMK AO2 $=
201201211959 SPECI KATL 211959Z 25005KT 10SM FEW005 SCT100 16/14 A2991 RMK AO2 $=
201201211952 METAR KATL 211952Z 23004KT 10SM FEW010 BKN090 16/14 A2991 RMK AO2 RAE26 SLP124 P0002 T01610139 $=
201201211852 METAR KATL 211852Z 30006KT 4SM -RA BR SCT013 BKN075 OVC090 15/13 A2992 RMK AO2 SLP127 P0004 T01500133 $=
201201211840 SPECI KATL 211840Z 28006KT 10SM -RA BKN011 BKN080 OVC110 14/13 A2992 RMK AO2 P0002 $=
201201211840 SPECI KATL 211840Z 28006KT 10SM -RA BKN011 BKN080 OVC110 14/13 A2992 RMK AO2 P0002 $=
201201211832 SPECI KATL 211832Z 31006KT 10SM -RA SCT009 OVC095 14/13 A2992 RMK AO2 P0001 $=
201201211832 SPECI KATL 211832Z 31006KT 10SM -RA SCT009 OVC095 14/13 A2992 RMK AO2 P0001 $=
201201211752 METAR KATL 211752Z 24004KT 6SM -RA BR SCT043 OVC080 15/13 A2991 RMK AO2 TSE49 SLP124 CB MOV E P0049 60164 T01500133 10172 20150 58012 $=
201201211745 SPECI KATL 211745Z 23003KT 5SM -TSRA BR FEW008CB SCT016 OVC034 15/13 A2991 RMK AO2 OCNL LTGICCC E-S CB E-S MOV E P0048 $=
201201211745 SPECI KATL 211745Z 23003KT 5SM -TSRA BR FEW008CB SCT016 OVC034 15/13 A2991 RMK AO2 OCNL LTGICCC E-S CB E-S MOV E P0048 $=
201201211738 SPECI KATL 211738Z 28005KT 2 1/2SM TSRA BR FEW008CB SCT016 OVC034 15/13 A2992 RMK AO2 OCNL LTGICCC E-S CB E-S MOV E P0046 $=
201201211738 SPECI KATL 211738Z 28005KT 2 1/2SM TSRA BR FEW008CB SCT016 OVC034 15/13 A2992 RMK AO2 OCNL LTGICCC E-S CB E-S MOV E P0046 $=
201201211718 SPECI KATL 211718Z 29008KT 1 1/2SM R09R/6000VP6000FT +TSRA BR FEW008CB SCT016 OVC034 15/14 A2995 RMK AO2 FRQ LTGICCG OVHD CB OVHD MOV E P0027 $=
201201211718 SPECI KATL 211718Z 29008KT 1 1/2SM R09R/6000VP6000FT +TSRA BR FEW008CB SCT016 OVC034 15/14 A2995 RMK AO2 FRQ LTGICCG OVHD CB OVHD MOV E P0027 $=
201201211711 SPECI KATL 211711Z 31010KT 2 1/2SM R09R/6000VP6000FT +TSRA BR FEW008CB BKN030 OVC070 15/13 A2994 RMK AO2 FRQ LTGICCG OVHD CB OVHD MOV E P0019 $=
201201211711 SPECI KATL 211711Z 31010KT 2 1/2SM R09R/6000VP6000FT +TSRA BR FEW008CB BKN030 OVC070 15/13 A2994 RMK AO2 FRQ LTGICCG OVHD CB OVHD MOV E P0019 $=
201201211702 SPECI KATL 211702Z 24013G19KT 1SM R09R/4000VP6000FT +TSRA BR FEW008CB BKN030 OVC070 16/13 A2994 RMK AO2 VIS 1/4V4 FRQ LTGINCG OVHD CB OVHD MOV E P0013 $=
201201211702 SPECI KATL 211702Z 24013G19KT 1SM R09R/4000VP6000FT +TSRA BR FEW008CB BKN030 OVC070 16/13 A2994 RMK AO2 VIS 1/4V4 FRQ LTGINCG OVHD CB OVHD MOV E P0013 $=
201201211652 METAR KATL 211652Z COR 25010G19KT 1 1/4SM R09R/5000VP6000FT +TSRA BR FEW008CB BKN031 OVC070 15/13 A2993 RMK AO2 PK WND 22026/1639 SLP132 FRQ LTGICCG OVHD & N-E & SE-SW CB OVHD & N-E & SE-SW P0037 T01500128=
201201211637 SPECI KATL 211637Z 21016G26KT 1 3/4SM R09R/5000VP6000FT +TSRA BR BKN010CB BKN041 OVC090 16/14 A2993 RMK AO2 PK WND 22026/1628 P0011=
201201211637 SPECI KATL 211637Z 21016G26KT 1 3/4SM R09R/5000VP6000FT +TSRA BR BKN010CB BKN041 OVC090 16/14 A2993 RMK AO2 PK WND 22026/1628 P0011=
201201211552 METAR KATL 211552Z 23005KT 9SM -TSRA OVC012CB 17/15 A2995 RMK AO2 TSB29RAE03B33 SLP137 OCNL LTGIC N-E TS N-E MOV E P0002 T01720150=
201201211530 SPECI KATL 211530Z 20009KT 10SM TS OVC012CB 17/15 A2993 RMK AO2 TSB29RAE03 OCNL LTGIC NW TS NW MOV E P0001=
201201211530 SPECI KATL 211530Z 20009KT 10SM TS OVC012CB 17/15 A2993 RMK AO2 TSB29RAE03 OCNL LTGIC NW TS NW MOV E P0001=
201201211519 SPECI KATL 211519Z 21009KT 10SM BKN010 OVC014 17/15 A2994 RMK AO2 RAE03 CIG 007V012 P0001=
201201211519 SPECI KATL 211519Z 21009KT 10SM BKN010 OVC014 17/15 A2994 RMK AO2 RAE03 CIG 007V012 P0001=
201201211452 METAR KATL 211452Z 23007KT 5SM RA BR BKN008 BKN013 OVC019 16/14 A2994 RMK AO2 TSE35 SLP137 TS MOVD NE P0036 60076 T01610144 50004=
201201211447 SPECI KATL 211447Z 21007KT 5SM -RA BR SCT008 BKN013 OVC019 16/14 A2994 RMK AO2 TSE35 TS MOVD NE P0035=
201201211447 SPECI KATL 211447Z 21007KT 5SM -RA BR SCT008 BKN013 OVC019 16/14 A2994 RMK AO2 TSE35 TS MOVD NE P0035=
201201211445 SPECI KATL 211445Z 20008KT 3SM R09R/6000VP6000FT -RA BR SCT010 BKN016 OVC023 16/14 A2994 RMK AO2 TSE35 TS MOVD NE P0035=
201201211445 SPECI KATL 211445Z 20008KT 3SM R09R/6000VP6000FT -RA BR SCT010 BKN016 OVC023 16/14 A2994 RMK AO2 TSE35 TS MOVD NE P0035=
201201211443 SPECI KATL 211443Z 21006KT 2SM R09R/4500VP6000FT -RA BR SCT010 BKN014 OVC021 16/14 A2994 RMK AO2 TSE35 TS MOVD NE P0035=
201201211443 SPECI KATL 211443Z 21006KT 2SM R09R/4500VP6000FT -RA BR SCT010 BKN014 OVC021 16/14 A2994 RMK AO2 TSE35 TS MOVD NE P0035=
201201211436 SPECI KATL 211436Z 20009G16KT 1 3/4SM R09R/4500VP6000FT RA BR SCT012 BKN020 OVC041 17/14 A2994 RMK AO2 VIS 1V3 TSE35 TS MOVD NE P0029=
201201211436 SPECI KATL 211436Z 20009G16KT 1 3/4SM R09R/4500VP6000FT RA BR SCT012 BKN020 OVC041 17/14 A2994 RMK AO2 VIS 1V3 TSE35 TS MOVD NE P0029=
201201211431 SPECI KATL 211431Z 20010G16KT 2SM R09R/5000VP6000FT TSRA BR BKN012CB BKN032 OVC041 16/14 A2994 RMK AO2 VIS 1V3 OCNL LTGCGIC NE-E TS NE-E MOV NE P0026=
201201211431 SPECI KATL 211431Z 20010G16KT 2SM R09R/5000VP6000FT TSRA BR BKN012CB BKN032 OVC041 16/14 A2994 RMK AO2 VIS 1V3 OCNL LTGCGIC NE-E TS NE-E MOV NE P0026=
201201211426 SPECI KATL 211426Z 21009G16KT 2SM R09R/4500VP6000FT +TSRA BR FEW009CB BKN032 OVC041 16/14 A2994 RMK AO2 OCNL LTGCGIC N-E TS N-E MOV NE P0024=
201201211426 SPECI KATL 211426Z 21009G16KT 2SM R09R/4500VP6000FT +TSRA BR FEW009CB BKN032 OVC041 16/14 A2994 RMK AO2 OCNL LTGCGIC N-E TS N-E MOV NE P0024=
201201211411 SPECI KATL 211411Z VRB06KT 3SM -TSRA BR FEW009CB BKN032 OVC041 15/13 A2994 RMK AO2 CONS LTGCGIC OHD NE-S-SW-NW TS OHD NE-S-SW-NW MOV NE P0018=
201201211411 SPECI KATL 211411Z VRB06KT 3SM -TSRA BR FEW009CB BKN032 OVC041 15/13 A2994 RMK AO2 CONS LTGCGIC OHD NE-S-SW-NW TS OHD NE-S-SW-NW MOV NE P0018=
201201211400 SPECI KATL 211400Z 27007KT 1 3/4SM R09R/5500VP6000FT +TSRA BR FEW009CB BKN032 OVC041 15/13 A2995 RMK AO2 CONS LTGCGIC OHD NE-S-SW-NW TS OHD NE-S-SW-NW MOV NE P0006=
201201211400 SPECI KATL 211400Z 27007KT 1 3/4SM R09R/5500VP6000FT +TSRA BR FEW009CB BKN032 OVC041 15/13 A2995 RMK AO2 CONS LTGCGIC OHD NE-S-SW-NW TS OHD NE-S-SW-NW MOV NE P0006=
201201211352 METAR KATL 211352Z 26010G21KT 1 1/2SM +TSRA BR BKN009CB BKN023 OVC032 15/13 A2995 RMK AO2 TSB09RAE1254B33 SLP139 CONS LTGCGIC OHD-NE & W-NW TS OHD-NE & W-NW MOV NE P0029 T01500128=
201201211347 SPECI KATL 211347Z 27013G21KT 2SM +TSRA BR BKN009CB BKN023 OVC032 15/13 A2995 RMK AO2 TSB09RAE1254B33 CONS LTGCGIC OHD-NE & W-NW TS OHD-NE & W-NW MOV NE P0017=
201201211347 SPECI KATL 211347Z 27013G21KT 2SM +TSRA BR BKN009CB BKN023 OVC032 15/13 A2995 RMK AO2 TSB09RAE1254B33 CONS LTGCGIC OHD-NE & W-NW TS OHD-NE & W-NW MOV NE P0017=
201201211337 SPECI KATL 211337Z 29014G25KT 1 3/4SM R09R/5500VP6000FT +TSRA BR BKN009CB BKN023 OVC032 16/13 A2996 RMK AO2 TSB09RAE1254B33 CONS LTGCGIC N-NE & NW TS N-NE & NW MOV NE P0010=
201201211337 SPECI KATL 211337Z 29014G25KT 1 3/4SM R09R/5500VP6000FT +TSRA BR BKN009CB BKN023 OVC032 16/13 A2996 RMK AO2 TSB09RAE1254B33 CONS LTGCGIC N-NE & NW TS N-NE & NW MOV NE P0010=
201201211332 SPECI KATL 211332Z 32008KT 6SM R09R/5500VP6000FT TS BR BKN009CB BKN012 OVC019 17/14 A2997 RMK AO2 TSB09RAE1254 PRESRR CONS LTGCG N & NW TS N & NW MOV NE P0001=
201201211332 SPECI KATL 211332Z 32008KT 6SM R09R/5500VP6000FT TS BR BKN009CB BKN012 OVC019 17/14 A2997 RMK AO2 TSB09RAE1254 PRESRR CONS LTGCG N & NW TS N & NW MOV NE P0001=
201201211319 SPECI KATL 211319Z 25009KT 6SM TS BR SCT009CB BKN012 OVC019 17/14 A2995 RMK AO2 TSB09RAE1254 CONS LTGCG N & NW TS N & NW MOV E P0001=
201201211319 SPECI KATL 211319Z 25009KT 6SM TS BR SCT009CB BKN012 OVC019 17/14 A2995 RMK AO2 TSB09RAE1254 CONS LTGCG N & NW TS N & NW MOV E P0001=
201201211309 SPECI KATL 211309Z 23008KT 6SM TS BR SCT009CB BKN012 OVC019 17/14 A2994 RMK AO2 TSB09RAE1254 CONS LTGCG NW TS W MOV NE P0001=
201201211309 SPECI KATL 211309Z 23008KT 6SM TS BR SCT009CB BKN012 OVC019 17/14 A2994 RMK AO2 TSB09RAE1254 CONS LTGCG NW TS W MOV NE P0001=
201201211252 METAR KATL 211252Z 21009KT 6SM -RA BR BKN009 BKN014 OVC050 16/14 A2993 RMK AO2 SLP133 P0011 T01610144=
201201211152 METAR KATL 211152Z 21009KT 7SM -RA BKN009 OVC013 17/15 A2993 RMK AO2 SLP134 P0003 60027 70053 T01670150 10178 20167 55005=
201201211145 SPECI KATL 211145Z 22010KT 7SM -RA BKN009 BKN013 OVC019 17/15 A2993 RMK AO2 P0002=
201201211145 SPECI KATL 211145Z 22010KT 7SM -RA BKN009 BKN013 OVC019 17/15 A2993 RMK AO2 P0002=
201201211052 METAR KATL 211052Z 22012KT 10SM -RA BKN011 OVC014 17/15 A2993 RMK AO2 RAB47 SLP133 P0000 T01720150=
201201210959 SPECI KATL 210959Z 21015G22KT 6SM BR BKN013 OVC018 17/15 A2993 RMK AO2=
201201210959 SPECI KATL 210959Z 21015G22KT 6SM BR BKN013 OVC018 17/15 A2993 RMK AO2=
201201210952 METAR KATL 210952Z 22010G19KT 10SM OVC015 17/15 A2994 RMK AO2 SLP135 T01720150=
201201210852 METAR KATL 210852Z 22013G20KT 10SM BKN012 OVC019 17/15 A2995 RMK AO2 RAE14B31E48 SLP139 P0002 60024 T01720150 58009=
201201210752 METAR KATL 210752Z 24010G17KT 4SM RA BR BKN009 BKN014 OVC021 17/15 A2997 RMK AO2 RAB08 CIG 006V011 SLP145 P0022 T01720150=
201201210734 SPECI KATL 210734Z 21012KT 8SM -RA SCT010 BKN014 OVC024 17/16 A2996 RMK AO2 RAB08 P0014=
201201210734 SPECI KATL 210734Z 21012KT 8SM -RA SCT010 BKN014 OVC024 17/16 A2996 RMK AO2 RAB08 P0014=
201201210724 SPECI KATL 210724Z 22015G21KT 2 1/2SM R09R/3500VP6000FT +RA BR BKN012 OVC022 17/16 A2996 RMK AO2 RAB08 P0008=
201201210724 SPECI KATL 210724Z 22015G21KT 2 1/2SM R09R/3500VP6000FT +RA BR BKN012 OVC022 17/16 A2996 RMK AO2 RAB08 P0008=
201201210652 METAR KATL 210652Z 23010G20KT 7SM BKN016 OVC025 18/16 A2997 RMK AO2 SLP147 T01780156=
201201210552 METAR KATL 210552Z 23012G18KT 10SM SCT009 BKN014 OVC040 18/16 A2998 RMK AO2 SLP148 60003 T01780156 10178 20128 58008=
201201210452 METAR KATL 210452Z 21010KT 8SM SCT005 BKN009 OVC015 16/14 A2999 RMK AO2 RAB09E16 SLP153 P0000 T01610144 401610089=
201201210352 METAR KATL 210352Z 19009KT 1/2SM OVC004 15/14 A2999 RMK AO2 SFC VIS 8 RAE03B21E47 SLP156 CIG 002V006 P0001 T01500139=
201201210252 METAR KATL 210252Z 19008KT 1/2SM -RA OVC004 14/13 A3000 RMK AO2 SFC VIS 7 RAB14 SLP159 CIG 003V006 P0000 60002 T01390128 56004=
201201210152 METAR KATL 210152Z 18008KT 1/2SM R09R/5000VP6000FT BR VV002 13/12 A3000 RMK AO2 SFC VIS 1 RAE05DZB05E51 SLP161 P0002 T01330122=
201201210052 METAR KATL 210052Z 14004KT 1/2SM R09R/3500VP6000FT -RA BR VV002 13/12 A3000 RMK AO2 SFC VIS 3/4 SLP161 P0000 T01280117=
201201202352 METAR KATL 202352Z 17006KT 1/2SM -RA BR OVC003 13/12 A3001 RMK AO2 SFC VIS 1 1/2 RAE27B45 SLP164 CIG 002V005 P0002 60020 T01280117 10128 20122 53001=
201201202319 SPECI KATL 202319Z 16008KT 1/2SM -RA OVC004 13/12 A3001 RMK AO2 SFC VIS 7 CIG 002V007 P0001=
201201202319 SPECI KATL 202319Z 16008KT 1/2SM -RA OVC004 13/12 A3001 RMK AO2 SFC VIS 7 CIG 002V007 P0001=
201201202252 METAR KATL 202252Z 16007KT 1/2SM -RA BR BKN005 OVC030 13/12 A3001 RMK AO2 SFC VIS 6 SLP163 CIG 003V010 P0013 T01280117=
201201202152 METAR KATL 202152Z 17008KT 1/2SM -RA BR BKN003 BKN010 OVC030 13/12 A3000 RMK AO2 SFC VIS 3 SLP160 P0002 T01280117=
201201202121 SPECI KATL 202121Z 17008KT 1/2SM -RA BR BKN003 BKN010 OVC030 13/12 A3001 RMK AO2 SFC VIS 3 P0000=
201201202121 SPECI KATL 202121Z 17008KT 1/2SM -RA BR BKN003 BKN010 OVC030 13/12 A3001 RMK AO2 SFC VIS 3 P0000=
201201202052 METAR KATL 202052Z 18007KT 2SM -RA BR BKN003 BKN010 OVC030 13/11 A3001 RMK AO2 SFC VIS 6 RAB1959 SLP162 TWRINC P0001 60003 T01280111 55014=
201201201952 METAR KATL 201952Z COR 16006KT 2SM BR BKN003 BKN005 OVC010 12/11 A3000 RMK AO2 SFC VIS 6 RAE48 SLP161 TWRINC P0001 T01220106=
201201201928 SPECI KATL 201928Z 16008KT 2SM BR BKN005 BKN010 OVC030 13/11 A3001 RMK AO2 SFC VIS 7 RAE26 TWRINC P0001=
201201201928 SPECI KATL 201928Z 16008KT 2SM BR BKN005 BKN010 OVC030 13/11 A3001 RMK AO2 SFC VIS 7 RAE26 TWRINC P0001=
201201201913 SPECI KATL 201913Z 15006KT 2SM -RA BR OVC005 13/11 A3002 RMK AO2 SFC VIS 3 CIG 004V008 P0000=
201201201913 SPECI KATL 201913Z 15006KT 2SM -RA BR OVC005 13/11 A3002 RMK AO2 SFC VIS 3 CIG 004V008 P0000=
201201201852 METAR KATL 201852Z 17005KT 4SM -RA BR BKN005 BKN010 OVC030 12/11 A3003 RMK AO2 RAB25 SLP169 P0001 T01220106=
201201201837 SPECI KATL 201837Z 16004KT 3SM R09R/4500VP6000FT -RA BR BKN008 BKN010 OVC030 12/11 A3003 RMK AO2 RAB25 P0000=
201201201837 SPECI KATL 201837Z 16004KT 3SM R09R/4500VP6000FT -RA BR BKN008 BKN010 OVC030 12/11 A3003 RMK AO2 RAB25 P0000=
201201201827 SPECI KATL 201827Z 18005KT 5SM -RA BR BKN008 BKN010 OVC030 12/10 A3004 RMK AO2 RAB25 P0000=
201201201827 SPECI KATL 201827Z 18005KT 5SM -RA BR BKN008 BKN010 OVC030 12/10 A3004 RMK AO2 RAB25 P0000=
201201201816 SPECI KATL 201816Z VRB05KT 9SM BKN008 BKN010 OVC030 12/09 A3004 RMK AO2=
201201201816 SPECI KATL 201816Z VRB05KT 9SM BKN008 BKN010 OVC030 12/09 A3004 RMK AO2=
201201201752 METAR KATL 201752Z 18004KT 10SM BKN010 BKN030 OVC060 12/09 A3005 RMK AO2 RAE11 SLP177 P0000 60003 T01220089 10122 20089 58013=
201201201652 METAR KATL 201652Z 14004KT 9SM -RA BKN014 BKN030 OVC050 11/07 A3007 RMK AO2 RAB29 SLP184 P0000 T01110067=
201201201552 METAR KATL 201552Z 12003KT 10SM BKN014 BKN030 OVC040 11/06 A3009 RMK AO2 SLP191 T01060061=
201201201459 SPECI KATL 201459Z 11005KT 10SM BKN014 BKN030 BKN040 09/05 A3009 RMK AO2=
201201201459 SPECI KATL 201459Z 11005KT 10SM BKN014 BKN030 BKN040 09/05 A3009 RMK AO2=
201201201452 METAR KATL 201452Z 10004KT 10SM BKN016 BKN030 BKN050 09/06 A3009 RMK AO2 DZE1354RAB1354E49 SLP191 P0003 60003 T00890056 53009=
201201201412 SPECI KATL 201412Z 09004KT 10SM -RA BKN016 BKN030 OVC050 09/06 A3009 RMK AO2 DZE1354RAB1354 P0002=
201201201412 SPECI KATL 201412Z 09004KT 10SM -RA BKN016 BKN030 OVC050 09/06 A3009 RMK AO2 DZE1354RAB1354 P0002=
201201201401 SPECI KATL 201401Z 00000KT 6SM -RA SCT016 SCT030 OVC060 09/05 A3009 RMK AO2 DZE1354RAB1354 P0001=
201201201401 SPECI KATL 201401Z 00000KT 6SM -RA SCT016 SCT030 OVC060 09/05 A3009 RMK AO2 DZE1354RAB1354 P0001=
201201201352 METAR KATL 201352Z 00000KT 9SM -DZ BKN016 BKN030 OVC055 10/04 A3009 RMK AO2 DZB49 SLP189 P0000 T01000039=
201201201322 SPECI KATL 201322Z 12004KT 10SM BKN016 OVC080 10/04 A3008 RMK AO2=
201201201322 SPECI KATL 201322Z 12004KT 10SM BKN016 OVC080 10/04 A3008 RMK AO2=
201201201300 SPECI KATL 201300Z 12004KT 10SM BKN014 OVC080 09/03 A3007 RMK AO2=
201201201300 SPECI KATL 201300Z 12004KT 10SM BKN014 OVC080 09/03 A3007 RMK AO2=
201201201252 METAR KATL 201252Z 12005KT 10SM SCT014 BKN029 OVC085 09/03 A3006 RMK AO2 RAE07 SLP181 P0000 T00940033=
201201201250 SPECI KATL 201250Z 13005KT 10SM SCT014 BKN029 OVC085 09/03 A3006 RMK AO2 RAE07 P0000=
201201201250 SPECI KATL 201250Z 13005KT 10SM SCT014 BKN029 OVC085 09/03 A3006 RMK AO2 RAE07 P0000=
201201201236 SPECI KATL 201236Z 13004KT 10SM SCT014 BKN031 OVC085 10/03 A3006 RMK AO2 RAE07 P0000=
201201201236 SPECI KATL 201236Z 13004KT 10SM SCT014 BKN031 OVC085 10/03 A3006 RMK AO2 RAE07 P0000=
201201201212 SPECI KATL 201212Z 13004KT 10SM OVC014 09/03 A3006 RMK AO2 RAE07 P0000=
201201201212 SPECI KATL 201212Z 13004KT 10SM OVC014 09/03 A3006 RMK AO2 RAE07 P0000=
201201201152 METAR KATL 201152Z 00000KT 7SM -RA OVC015 10/03 A3006 RMK AO2 RAB37 SLP181 P0000 60001 70001 T01000033 10117 20094 53004=
201201201052 METAR KATL 201052Z 13003KT 10SM OVC016 10/02 A3005 RMK AO2 RAE12 SLP177 P0000 T01000022=
201201200952 METAR KATL 200952Z 21003KT 8SM -RA BKN016 BKN029 OVC050 10/03 A3005 RMK AO2 RAE00B30 SLP177 P0001 T01000033=
201201200922 SPECI KATL 200922Z 22004KT 10SM SCT016 BKN026 OVC046 11/01 A3005 RMK AO2 RAE00 P0000=
201201200922 SPECI KATL 200922Z 22004KT 10SM SCT016 BKN026 OVC046 11/01 A3005 RMK AO2 RAE00 P0000=
201201200852 METAR KATL 200852Z 20006KT 9SM -RA SCT027 BKN041 OVC060 11/01 A3005 RMK AO2 RAB46 SLP175 P0000 60000 T01110011 58005=
201201200843 SPECI KATL 200843Z 21006KT 10SM FEW017 SCT025 OVC070 11/01 A3005 RMK AO2=
201201200843 SPECI KATL 200843Z 21006KT 10SM FEW017 SCT025 OVC070 11/01 A3005 RMK AO2=
201201200752 METAR KATL 200752Z 22005KT 10SM BKN023 OVC085 11/M04 A3006 RMK AO2 SLP180 T01111044=
201201200747 SPECI KATL 200747Z 22006KT 10SM BKN021 OVC085 11/M05 A3006 RMK AO2=
201201200747 SPECI KATL 200747Z 22006KT 10SM BKN021 OVC085 11/M05 A3006 RMK AO2=
201201200652 METAR KATL 200652Z 22008KT 10SM FEW023 SCT045 OVC080 11/M03 A3007 RMK AO2 SLP182 T01111033=
201201200552 METAR KATL 200552Z 21007KT 10SM OVC085 11/M03 A3007 RMK AO2 SLP182 T01111033 10111 20100 56006=
201201200452 METAR KATL 200452Z 22007KT 10SM OVC080 11/M04 A3007 RMK AO2 SLP183 T01111039 401331017=
201201200352 METAR KATL 200352Z 21008KT 10SM OVC065 11/M05 A3007 RMK AO2 SLP187 T01061050=
201201200252 METAR KATL 200252Z 00000KT 10SM OVC060 11/M06 A3008 RMK AO2 SLP191 T01111056 51007=
201201200152 METAR KATL 200152Z 23004KT 10SM OVC060 11/M05 A3008 RMK AO2 SLP190 T01061050=
201201200052 METAR KATL 200052Z 21003KT 10SM BKN075 10/M06 A3008 RMK AO2 SLP190 T01001056=
201201192352 METAR KATL 192352Z 17005KT 10SM BKN065 11/M06 A3006 RMK AO2 SLP186 T01061056 10133 20094 53008=
201201192252 METAR KATL 192252Z 18004KT 10SM FEW065 12/M06 A3005 RMK AO2 SLP179 T01171061=
201201192152 METAR KATL 192152Z 18006KT 10SM FEW250 13/M07 A3003 RMK AO2 SLP175 T01331067=
201201192052 METAR KATL 192052Z 16009G14KT 10SM FEW150 SCT200 BKN250 13/M07 A3004 RMK AO2 SLP176 T01281067 58019=
201201191952 METAR KATL 191952Z 21005KT 10SM FEW150 SCT200 SCT250 12/M07 A3006 RMK AO2 SLP184 T01221072=
201201191852 METAR KATL 191852Z 14007KT 10SM FEW150 SCT200 11/M06 A3008 RMK AO2 SLP191 T01111061=
201201191752 METAR KATL 191752Z 11004KT 10SM SCT150 SCT200 09/M06 A3009 RMK AO2 SLP197 T00941061 10094 21017 58023=
201201191652 METAR KATL 191652Z 00000KT 10SM FEW150 SCT200 SCT250 08/M04 A3014 RMK AO2 SLP213 T00781039=
201201191552 METAR KATL 191552Z 15005KT 10SM FEW150 SCT200 SCT250 05/M04 A3017 RMK AO2 SLP222 T00501044 $=
201201191452 METAR KATL 191452Z 10007KT 10SM FEW150 SCT200 BKN250 04/M04 A3017 RMK AO2 SLP223 T00391044 51007=
201201191352 METAR KATL 191352Z 09007KT 10SM FEW180 SCT250 02/M05 A3016 RMK AO2 SLP221 T00221050=
201201191252 METAR KATL 191252Z 01005KT 10SM FEW200 SCT250 00/M06 A3016 RMK AO2 SLP220 T00001056=
201201191152 METAR KATL 191152Z 32005KT 10SM FEW200 BKN250 M01/M06 A3014 RMK AO2 SLP215 T10111056 10006 21011 53017=
201201191052 METAR KATL 191052Z 01004KT 10SM FEW200 BKN250 00/M06 A3012 RMK AO2 SLP206 T00001056 $=
201201190952 METAR KATL 190952Z 36006KT 10SM BKN200 00/M06 A3010 RMK AO2 SLP198 T00001056 $=
201201190852 METAR KATL 190852Z 33004KT 10SM BKN200 M01/M06 A3009 RMK AO2 SLP197 T10111056 53006 $=
201201190752 METAR KATL 190752Z 29003KT 10SM SCT220 M01/M06 A3009 RMK AO2 SLP195 T10111056 $=
201201190652 METAR KATL 190652Z 31005KT 10SM BKN220 00/M06 A3008 RMK AO2 SLP192 T00001056=
201201190552 METAR KATL 190552Z 32003KT 10SM BKN250 00/M06 A3007 RMK AO2 SLP191 T00001061 10050 20000 58007=
201201190452 METAR KATL 190452Z 32004KT 10SM BKN250 01/M06 A3010 RMK AO2 SLP199 T00061056 401170006=
201201190352 METAR KATL 190352Z 32006KT 10SM BKN250 01/M05 A3010 RMK AO2 SLP201 T00111050=
201201190252 METAR KATL 190252Z 32005KT 10SM SCT250 02/M06 A3010 RMK AO2 SLP199 T00171056 50000=
201201190152 METAR KATL 190152Z 32006KT 10SM FEW250 03/M06 A3010 RMK AO2 SLP199 T00281056=
201201190052 METAR KATL 190052Z 32009KT 10SM BKN250 04/M05 A3011 RMK AO2 SLP204 T00391050=
201201182352 METAR KATL 182352Z 32008KT 10SM BKN250 05/M06 A3010 RMK AO2 SLP198 T00501056 10083 20050 55000=
201201182252 METAR KATL 182252Z 32009KT 10SM SCT250 06/M06 A3010 RMK AO2 SLP197 T00561056=
201201182152 METAR KATL 182152Z 29007KT 270V340 10SM FEW250 08/M04 A3008 RMK AO2 SLP191 T00781044=
201201182052 METAR KATL 182052Z 31013KT 10SM FEW250 08/M04 A3010 RMK AO2 SLP195 T00831039 55002=
201201181952 METAR KATL 181952Z 32013KT 10SM FEW250 08/M04 A3007 RMK AO2 SLP186 T00831039=
201201181852 METAR KATL 181852Z 29011KT 10SM FEW250 08/M03 A3008 RMK AO2 SLP189 T00781033=
201201181752 METAR KATL 181752Z 32012G18KT 10SM SCT250 07/M03 A3010 RMK AO2 SLP195 T00721028 10072 20011 58008=
201201181652 METAR KATL 181652Z 33013KT 10SM FEW250 06/M03 A3012 RMK AO2 SLP204 T00561028=
201201181552 METAR KATL 181552Z 31011KT 10SM FEW250 04/M03 A3014 RMK AO2 SLP208 T00391028=
201201181452 METAR KATL 181452Z 31014G19KT 10SM FEW250 02/M03 A3013 RMK AO2 SLP205 T00221033 51015=
201201181352 METAR KATL 181352Z 32011G21KT 10SM BKN250 01/M03 A3012 RMK AO2 SLP202 T00111033=
201201181252 METAR KATL 181252Z 32012KT 10SM SCT250 01/M03 A3010 RMK AO2 SLP196 T00111033=
201201181152 METAR KATL 181152Z 32011KT 10SM CLR 02/M02 A3008 RMK AO2 SLP190 60002 70093 T00171022 10117 20017 $=
201201181052 METAR KATL 181052Z 33012KT 10SM CLR 03/M01 A3006 RMK AO2 SLP182 T00281011=
201201180952 METAR KATL 180952Z 32013G20KT 10SM CLR 04/01 A3005 RMK AO2 SLP177 T00440006=
201201180852 METAR KATL 180852Z 31009KT 10SM FEW080 06/02 A3003 RMK AO2 SLP171 60002 T00610017 51013=
201201180752 METAR KATL 180752Z 33013KT 10SM BKN080 08/02 A3002 RMK AO2 SLP167 T00780022=
201201180707 SPECI KATL 180707Z 32012KT 9SM SCT028 BKN060 OVC140 09/06 A3001 RMK AO2=
201201180707 SPECI KATL 180707Z 32012KT 9SM SCT028 BKN060 OVC140 09/06 A3001 RMK AO2=
201201180652 METAR KATL 180652Z 33014G23KT 8SM FEW012 BKN028 OVC060 10/06 A3002 RMK AO2 RAE26 SLP163 P0002 T01000056=
201201180627 SPECI KATL 180627Z 33017G24KT 8SM FEW008 BKN021 OVC038 11/07 A3000 RMK AO2 RAE26 P0002=
201201180627 SPECI KATL 180627Z 33017G24KT 8SM FEW008 BKN021 OVC038 11/07 A3000 RMK AO2 RAE26 P0002=
201201180613 SPECI KATL 180613Z 32013KT 5SM -RA BR BKN006 BKN011 OVC036 12/10 A3000 RMK AO2 P0001=
201201180613 SPECI KATL 180613Z 32013KT 5SM -RA BR BKN006 BKN011 OVC036 12/10 A3000 RMK AO2 P0001=
201201180601 SPECI KATL 180601Z 31010KT 7SM -RA SCT008 BKN013 OVC050 12/10 A2999 RMK AO2 P0001=
201201180601 SPECI KATL 180601Z 31010KT 7SM -RA SCT008 BKN013 OVC050 12/10 A2999 RMK AO2 P0001=
201201180552 METAR KATL 180552Z 31011KT 5SM -RA BR SCT015 BKN038 OVC055 12/10 A2999 RMK AO2 SLP155 P0001 60084 T01170100 10161 20111 56003=
201201180507 SPECI KATL 180507Z 32010KT 9SM -RA BKN032 OVC055 12/09 A2999 RMK AO2 P0000=
201201180507 SPECI KATL 180507Z 32010KT 9SM -RA BKN032 OVC055 12/09 A2999 RMK AO2 P0000=
201201180452 METAR KATL 180452Z 31012KT 7SM -RA BKN025 OVC050 12/09 A3000 RMK AO2 WSHFT 0434 SLP157 P0030 T01220094 401720078=
201201180435 SPECI KATL 180435Z 32014G21KT 5SM RA BR FEW006 BKN023 OVC047 15/13 A2999 RMK AO2 P0027=
201201180435 SPECI KATL 180435Z 32014G21KT 5SM RA BR FEW006 BKN023 OVC047 15/13 A2999 RMK AO2 P0027=
201201180416 SPECI KATL 180416Z 22011G16KT 4SM RA BR FEW025 BKN038 OVC065 15/13 A2998 RMK AO2 P0023=
201201180416 SPECI KATL 180416Z 22011G16KT 4SM RA BR FEW025 BKN038 OVC065 15/13 A2998 RMK AO2 P0023=
201201180406 SPECI KATL 180406Z 24008KT 2SM +RA BR FEW020 BKN032 OVC050 15/13 A2999 RMK AO2 P0014=
201201180406 SPECI KATL 180406Z 24008KT 2SM +RA BR FEW020 BKN032 OVC050 15/13 A2999 RMK AO2 P0014=
201201180352 METAR KATL 180352Z 24007KT 3SM +RA BR SCT030 BKN050 OVC080 15/13 A2998 RMK AO2 TSB12E44 SLP152 P0044 T01500133=
201201180345 SPECI KATL 180345Z 21009KT 3SM +RA BR SCT025 BKN050 OVC080 15/13 A2998 RMK AO2 TSB12E44 TS DSIPTD P0039=
201201180345 SPECI KATL 180345Z 21009KT 3SM +RA BR SCT025 BKN050 OVC080 15/13 A2998 RMK AO2 TSB12E44 TS DSIPTD P0039=
201201180338 SPECI KATL 180338Z 19009KT 3SM +TSRA BR FEW008 BKN025CB OVC065 15/14 A2998 RMK AO2 TSB12 PRESFR OCNL LTGIC NE-E TS NE-E MOV E P0033=
201201180338 SPECI KATL 180338Z 19009KT 3SM +TSRA BR FEW008 BKN025CB OVC065 15/14 A2998 RMK AO2 TSB12 PRESFR OCNL LTGIC NE-E TS NE-E MOV E P0033=
201201180331 SPECI KATL 180331Z 23005KT 1 3/4SM +TSRA BR SCT008 BKN020CB OVC040 15/14 A3000 RMK AO2 TSB12 OCNL LTGIC OHD-W TS OHD-W MOV E P0025=
201201180331 SPECI KATL 180331Z 23005KT 1 3/4SM +TSRA BR SCT008 BKN020CB OVC040 15/14 A3000 RMK AO2 TSB12 OCNL LTGIC OHD-W TS OHD-W MOV E P0025=
201201180326 SPECI KATL 180326Z 23005KT 2 1/2SM +TSRA BR SCT008 BKN020CB OVC055 15/14 A3001 RMK AO2 TSB12 OCNL LTGIC W TS W MOV E P0017=
201201180326 SPECI KATL 180326Z 23005KT 2 1/2SM +TSRA BR SCT008 BKN020CB OVC055 15/14 A3001 RMK AO2 TSB12 OCNL LTGIC W TS W MOV E P0017=
201201180312 SPECI KATL 180312Z 29005KT 3SM TSRA BR FEW008 BKN020CB OVC055 16/14 A3001 RMK AO2 TSB12 OCNL LTGIC SW-W TS SW-W MOV E P0009=
201201180312 SPECI KATL 180312Z 29005KT 3SM TSRA BR FEW008 BKN020CB OVC055 16/14 A3001 RMK AO2 TSB12 OCNL LTGIC SW-W TS SW-W MOV E P0009=
201201180252 METAR KATL 180252Z 22009KT 3SM RA BR FEW015 BKN045 OVC070 16/14 A3000 RMK AO2 RAB06 SLP158 P0008 60009 T01560139 56012=
201201180247 SPECI KATL 180247Z 23008KT 4SM RA BR SCT015 BKN045 OVC080 16/14 A3001 RMK AO2 RAB06 P0006=
201201180247 SPECI KATL 180247Z 23008KT 4SM RA BR SCT015 BKN045 OVC080 16/14 A3001 RMK AO2 RAB06 P0006=
201201180152 METAR KATL 180152Z 23010KT 10SM BKN015 BKN022 OVC035 16/13 A3001 RMK AO2 SLP162 T01610133=
201201180052 METAR KATL 180052Z 22013G20KT 10SM FEW010 BKN015 OVC022 16/13 A3002 RMK AO2 RAE00 SLP165 P0001 T01610133=
201201172352 METAR KATL 172352Z 23011G19KT 4SM RA BR BKN015 OVC025 16/13 A3004 RMK AO2 SLP172 P0005 60005 T01560133 10172 20150 53002=
201201172252 METAR KATL 172252Z 21012KT 10SM -RA BKN020 OVC040 17/13 A3001 RMK AO2 RAB36 SLP163 P0000 T01670128=
201201172152 METAR KATL 172152Z 20012G17KT 10SM BKN020 BKN040 OVC080 17/12 A3003 RMK AO2 SLP167 T01720122=
201201172052 METAR KATL 172052Z 20012G18KT 10SM BKN020 BKN040 OVC090 17/12 A3004 RMK AO2 SLP171 T01720122 56027=
201201171952 METAR KATL 171952Z 22013G19KT 10SM BKN020 BKN040 OVC090 17/12 A3006 RMK AO2 SLP178 T01670117=
201201171852 METAR KATL 171852Z 21010G22KT 10SM BKN015 BKN020 OVC050 16/12 A3008 RMK AO2 SLP185 T01610117=
201201171833 SPECI KATL 171833Z 21013G20KT 10SM BKN015 OVC050 16/12 A3009 RMK AO2=
201201171833 SPECI KATL 171833Z 21013G20KT 10SM BKN015 OVC050 16/12 A3009 RMK AO2=
201201171752 METAR KATL 171752Z 21012G20KT 10SM BKN013 OVC050 15/11 A3012 RMK AO2 SLP199 60002 T01500111 10150 20083 56041=
201201171709 SPECI KATL 171709Z 21016G22KT 10SM BKN013 BKN055 BKN250 14/11 A3014 RMK AO2=
201201171709 SPECI KATL 171709Z 21016G22KT 10SM BKN013 BKN055 BKN250 14/11 A3014 RMK AO2=
201201171652 METAR KATL 171652Z 20010KT 10SM BKN010 BKN055 BKN250 13/11 A3016 RMK AO2 SLP214 T01330106=
201201171647 SPECI KATL 171647Z 20010G16KT 10SM BKN010 BKN055 BKN250 13/11 A3016 RMK AO2=
201201171647 SPECI KATL 171647Z 20010G16KT 10SM BKN010 BKN055 BKN250 13/11 A3016 RMK AO2=
201201171552 METAR KATL 171552Z 19010KT 8SM FEW010 BKN065 OVC095 12/09 A3019 RMK AO2 RAE47 SLP224 P0002 T01170089=
201201171520 SPECI KATL 171520Z 17012KT 5SM -RA BR FEW010 SCT080 OVC100 11/09 A3021 RMK AO2 P0000=
201201171520 SPECI KATL 171520Z 17012KT 5SM -RA BR FEW010 SCT080 OVC100 11/09 A3021 RMK AO2 P0000=
201201171505 SPECI KATL 171505Z 18009KT 6SM -RA BKN011 BKN020 OVC110 11/08 A3022 RMK AO2 P0000=
201201171505 SPECI KATL 171505Z 18009KT 6SM -RA BKN011 BKN020 OVC110 11/08 A3022 RMK AO2 P0000=
201201171452 METAR KATL 171452Z 24004KT 7SM -RA BKN009 BKN020 OVC110 11/08 A3024 RMK AO2 RAB05E14B52 SLP243 P0000 60000 T01110083 53008=
201201171410 SPECI KATL 171410Z 19004KT 8SM -RA FEW008 BKN027 OVC110 11/08 A3022 RMK AO2 RAB05 P0000=
201201171410 SPECI KATL 171410Z 19004KT 8SM -RA FEW008 BKN027 OVC110 11/08 A3022 RMK AO2 RAB05 P0000=
201201171352 METAR KATL 171352Z 18004KT 7SM BKN025 OVC110 10/07 A3022 RMK AO2 RAB36E48 SLP234 P0000 T01000072=
201201171317 SPECI KATL 171317Z 17004KT 10SM BKN023 BKN120 09/06 A3021 RMK AO2=
201201171317 SPECI KATL 171317Z 17004KT 10SM BKN023 BKN120 09/06 A3021 RMK AO2=
201201171252 METAR KATL 171252Z 16005KT 10SM FEW120 SCT150 SCT250 08/05 A3021 RMK AO2 SLP233 T00830050=
201201171229 SPECI KATL 171229Z 15004KT 10SM SCT020 SCT110 08/04 A3022 RMK AO2=
201201171229 SPECI KATL 171229Z 15004KT 10SM SCT020 SCT110 08/04 A3022 RMK AO2=
201201171152 METAR KATL 171152Z 14004KT 10SM SCT015 BKN026 09/04 A3022 RMK AO2 RAB03E13 SLP234 P0000 60001 70001 T00890044 10100 20078 58006=
201201171116 SPECI KATL 171116Z 17004KT 10SM BKN019 OVC110 09/04 A3024 RMK AO2 RAB03E13 P0000=
201201171116 SPECI KATL 171116Z 17004KT 10SM BKN019 OVC110 09/04 A3024 RMK AO2 RAB03E13 P0000=
201201171052 METAR KATL 171052Z 13006KT 10SM FEW019 OVC100 08/04 A3024 RMK AO2 RAB36E48 SLP241 P0000 T00830039=
201201170952 METAR KATL 170952Z 00000KT 10SM BKN100 OVC250 09/04 A3025 RMK AO2 SLP245 T00890039=
201201170852 METAR KATL 170852Z 09005KT 10SM BKN090 OVC250 08/03 A3024 RMK AO2 SLP240 60001 T00780033 56022=
201201170752 METAR KATL 170752Z 13004KT 10SM SCT100 BKN120 OVC250 09/02 A3025 RMK AO2 SLP244 T00940022=
201201170652 METAR KATL 170652Z 12004KT 10SM FEW070 OVC095 09/02 A3026 RMK AO2 RAB19E49 SLP249 P0001 T00890017=
201201170552 METAR KATL 170552Z 16004KT 10SM BKN080 OVC110 09/01 A3030 RMK AO2 RAB17E39 SLP264 P0000 60000 T00940011 10122 20094 56008=
201201170452 METAR KATL 170452Z 10004KT 10SM BKN080 OVC130 11/M01 A3031 RMK AO2 SLP266 T01061006 401440022=
201201170352 METAR KATL 170352Z 12005KT 10SM BKN080 BKN110 OVC250 11/M01 A3032 RMK AO2 RAB37E46 SLP268 P0000 T01061006=
201201170252 METAR KATL 170252Z 14005KT 10SM BKN080 BKN110 OVC250 11/M01 A3033 RMK AO2 RAB35E47 SLP273 P0000 60000 T01061006 56001=
201201170152 METAR KATL 170152Z 13003KT 10SM BKN080 OVC095 11/M02 A3033 RMK AO2 SLP274 T01111022=
201201170052 METAR KATL 170052Z 14005KT 10SM BKN080 BKN100 OVC250 11/M03 A3033 RMK AO2 SLP274 T01111033=
201201162352 METAR KATL 162352Z 13005KT 10SM BKN085 BKN110 OVC250 12/M04 A3033 RMK AO2 SLP275 T01171044 10144 20106 58003=
201201162252 METAR KATL 162252Z 16007KT 10SM BKN080 BKN120 BKN250 13/M05 A3034 RMK AO2 SLP278 T01281050=
201201162152 METAR KATL 162152Z 12006KT 10SM BKN080 BKN120 BKN250 13/M02 A3034 RMK AO2 SLP278 T01331022=
201201162052 METAR KATL 162052Z 15008KT 10SM BKN090 BKN120 BKN250 13/M03 A3034 RMK AO2 SLP278 T01331028 56027=
201201161952 METAR KATL 161952Z 18009KT 10SM FEW095 BKN110 BKN250 13/M04 A3035 RMK AO2 SLP282 VIRGA DSNT NE T01281044=
201201161852 METAR KATL 161852Z 19005KT 10SM BKN095 BKN120 BKN250 12/M03 A3038 RMK AO2 SLP291 VIRGA DSNT W-NW-N T01171033=
201201161752 METAR KATL 161752Z 20005KT 10SM BKN095 BKN110 BKN250 11/M02 A3042 RMK AO2 SLP307 VIRGA DSNT NE-E T01061017 10111 20033 58023=
201201161652 METAR KATL 161652Z 13007KT 10SM BKN100 BKN120 BKN250 09/M02 A3045 RMK AO2 PRESFR SLP317 VIRGA DSNT NE & DSNT SE-S-SW-W T00891022=
201201161552 METAR KATL 161552Z 18010KT 10SM BKN110 BKN120 BKN250 08/M02 A3049 RMK AO2 SLP329 T00831022=
201201161452 METAR KATL 161452Z 14004KT 10SM BKN110 BKN120 BKN250 06/M04 A3049 RMK AO2 SLP332 T00561044 53016=
201201161352 METAR KATL 161352Z 14004KT 10SM BKN120 BKN250 04/M06 A3048 RMK AO2 SLP327 T00441061=
201201161252 METAR KATL 161252Z 13007KT 10SM FEW110 BKN150 BKN250 04/M07 A3045 RMK AO2 SLP319 T00441067=
201201161152 METAR KATL 161152Z 14005KT 10SM SCT150 BKN250 03/M06 A3045 RMK AO2 SLP315 T00331056 10056 20022 56002=
201201161052 METAR KATL 161052Z 10005KT 10SM SCT150 SCT250 03/M05 A3045 RMK AO2 SLP316 T00331050=
201201160952 METAR KATL 160952Z 08005KT 10SM SCT150 BKN250 04/M06 A3044 RMK AO2 SLP313 T00391061=
201201160852 METAR KATL 160852Z 00000KT 10SM SCT150 BKN250 04/M07 A3045 RMK AO2 SLP315 T00391067 53002=
201201160752 METAR KATL 160752Z 00000KT 10SM SCT150 BKN250 03/M07 A3045 RMK AO2 SLP315 T00331067=
201201160652 METAR KATL 160652Z 11003KT 10SM FEW150 SCT250 04/M08 A3044 RMK AO2 SLP312 T00441083=
201201160552 METAR KATL 160552Z 00000KT 10SM SCT250 04/M08 A3044 RMK AO2 SLP314 T00441078 10100 20039 53004=
201201160452 METAR KATL 160452Z 11004KT 10SM SCT250 04/M07 A3042 RMK AO2 SLP307 T00441072 401280006=
201201160352 METAR KATL 160352Z 12003KT 10SM FEW250 06/M07 A3044 RMK AO2 SLP313 T00561072=
201201160252 METAR KATL 160252Z 12003KT 10SM SCT250 06/M07 A3043 RMK AO2 SLP312 T00561067 50004=
201201160152 METAR KATL 160152Z 00000KT 10SM FEW250 05/M07 A3044 RMK AO2 SLP316 T00501067=
201201160052 METAR KATL 160052Z 00000KT 10SM FEW250 07/M07 A3042 RMK AO2 SLP309 T00721072=
201201152352 METAR KATL 152352Z 00000KT 10SM FEW250 09/M09 A3042 RMK AO2 SLP308 T00891094 10128 20083 52002=
201201152252 METAR KATL 152252Z 00000KT 10SM FEW250 10/M11 A3042 RMK AO2 SLP307 T01001106=
201201152152 METAR KATL 152152Z 32003KT 10SM FEW250 12/M10 A3041 RMK AO2 SLP303 T01171100=
201201152052 METAR KATL 152052Z 32003KT 10SM CLR 12/M10 A3041 RMK AO2 SLP302 T01221100 55007=
201201151952 METAR KATL 151952Z 00000KT 10SM CLR 12/M09 A3041 RMK AO2 SLP301 T01171094=
201201151852 METAR KATL 151852Z 35004KT 10SM CLR 11/M08 A3042 RMK AO2 SLP304 T01061078=
201201151752 METAR KATL 151752Z 02004KT 10SM CLR 10/M07 A3043 RMK AO2 SLP310 T01001067 10100 20006 58001=
201201151652 METAR KATL 151652Z 34003KT 10SM CLR 08/M07 A3045 RMK AO2 SLP317 T00831067=
201201151552 METAR KATL 151552Z 34007KT 10SM CLR 07/M06 A3046 RMK AO2 SLP321 T00671056=
201201151452 METAR KATL 151452Z 34008KT 10SM CLR 04/M06 A3044 RMK AO2 SLP312 T00441056 53034=
201201151352 METAR KATL 151352Z 31006KT 10SM CLR 03/M05 A3040 RMK AO2 SLP300 T00281050=
201201151252 METAR KATL 151252Z 30005KT 10SM CLR 01/M06 A3037 RMK AO2 SLP290 T00061056=
201201151152 METAR KATL 151152Z 30005KT 10SM CLR 01/M06 A3034 RMK AO2 SLP279 T00111056 10056 20011 53027=
201201151052 METAR KATL 151052Z 29006KT 10SM CLR 02/M05 A3030 RMK AO2 SLP266 T00221050=
201201150952 METAR KATL 150952Z 30008KT 10SM CLR 03/M05 A3026 RMK AO2 SLP253 T00281050=
201201150852 METAR KATL 150852Z 29010KT 10SM CLR 04/M06 A3025 RMK AO2 SLP248 T00391056 53019=
201201150752 METAR KATL 150752Z 27008KT 10SM CLR 04/M06 A3023 RMK AO2 SLP240 T00441061=
201201150652 METAR KATL 150652Z 26007KT 10SM CLR 05/M07 A3021 RMK AO2 SLP232 T00501067=
201201150552 METAR KATL 150552Z 25007KT 10SM CLR 05/M07 A3019 RMK AO2 SLP228 T00501072 10078 20050 51010=
201201150452 METAR KATL 150452Z 25010KT 10SM CLR 06/M08 A3019 RMK AO2 SLP228 T00611078 401171033=
201201150352 METAR KATL 150352Z 24012G18KT 10SM CLR 07/M08 A3018 RMK AO2 SLP225 T00671083=
201201150252 METAR KATL 150252Z 22010KT 10SM FEW090 07/M08 A3016 RMK AO2 SLP220 T00671083 51006=
201201150152 METAR KATL 150152Z 21008KT 10SM FEW090 06/M08 A3016 RMK AO2 SLP219 T00611083=
201201150052 METAR KATL 150052Z 22009KT 10SM FEW120 07/M08 A3016 RMK AO2 SLP220 T00721083=
201201142352 METAR KATL 142352Z 21011KT 10SM CLR 08/M08 A3014 RMK AO2 SLP215 T00781083 10117 20078 55003=
201201142252 METAR KATL 142252Z 22011KT 10SM CLR 09/M09 A3014 RMK AO2 SLP212 T00891089=
201201142152 METAR KATL 142152Z 21014G20KT 10SM FEW120 10/M09 A3013 RMK AO2 SLP208 T01001089=
201201142052 METAR KATL 142052Z 24010G18KT 10SM CLR 11/M09 A3015 RMK AO2 SLP215 T01111089 56021=
201201141952 METAR KATL 141952Z 25013G19KT 10SM CLR 11/M09 A3016 RMK AO2 SLP218 T01111094=
201201141852 METAR KATL 141852Z 24011KT 10SM CLR 10/M10 A3018 RMK AO2 SLP227 T01001100=
201201141752 METAR KATL 141752Z 26011G16KT 10SM CLR 09/M11 A3021 RMK AO2 SLP238 T00891106 10089 21033 58024=
201201141652 METAR KATL 141652Z 29009KT 10SM CLR 07/M11 A3026 RMK AO2 SLP255 T00671111=
201201141552 METAR KATL 141552Z 27009KT 10SM CLR 04/M11 A3029 RMK AO2 SLP266 T00441106=
201201141452 METAR KATL 141452Z 28008KT 10SM CLR 02/M10 A3029 RMK AO2 SLP266 T00221100 51019=
201201141352 METAR KATL 141352Z 27009KT 10SM CLR 00/M09 A3028 RMK AO2 SLP263 T00001094=
201201141252 METAR KATL 141252Z 27006KT 10SM CLR M03/M10 A3026 RMK AO2 SLP257 T10281100=
201201141152 METAR KATL 141152Z 28006KT 10SM CLR M03/M10 A3023 RMK AO2 SLP247 T10281100 11011 21033 51011=
201201141052 METAR KATL 141052Z 28006KT 10SM CLR M03/M09 A3022 RMK AO2 SLP246 T10281094=
201201140952 METAR KATL 140952Z 27008KT 10SM CLR M02/M09 A3022 RMK AO2 SLP242 T10221094=
201201140852 METAR KATL 140852Z 28007KT 10SM CLR M02/M09 A3020 RMK AO2 SLP235 T10221094 58002=
201201140752 METAR KATL 140752Z 25004KT 10SM CLR M02/M09 A3020 RMK AO2 SLP234 T10171094=
201201140652 METAR KATL 140652Z 27006KT 10SM CLR M02/M09 A3021 RMK AO2 SLP241 T10171094=
201201140552 METAR KATL 140552Z 28008KT 10SM CLR M02/M09 A3020 RMK AO2 SLP238 T10171094 10017 21017 51012=
201201140452 METAR KATL 140452Z 28006KT 10SM CLR M02/M09 A3019 RMK AO2 SLP236 T10171094 400391039=
201201140352 METAR KATL 140352Z 29007KT 10SM CLR M01/M09 A3018 RMK AO2 SLP231 T10111094=
201201140252 METAR KATL 140252Z 28005KT 10SM CLR M01/M09 A3017 RMK AO2 SLP228 T10111094 51014=
201201140152 METAR KATL 140152Z 27005KT 10SM FEW200 00/M09 A3016 RMK AO2 SLP225 T00001094=
201201140052 METAR KATL 140052Z 28007KT 10SM FEW150 OVC200 02/M09 A3015 RMK AO2 SLP219 T00171094=
201201132352 METAR KATL 132352Z 28006KT 10SM FEW150 BKN200 02/M09 A3013 RMK AO2 SLP213 T00171094 10039 20017 53010=
201201132252 METAR KATL 132252Z 27006KT 10SM BKN200 BKN250 02/M10 A3011 RMK AO2 SLP206 T00171100=
201201132152 METAR KATL 132152Z 27008KT 10SM FEW150 SCT200 BKN250 03/M10 A3010 RMK AO2 SLP204 T00281100=
201201132052 METAR KATL 132052Z 29013KT 10SM FEW150 SCT200 SCT250 03/M10 A3010 RMK AO2 SLP201 T00331100 53003=
201201131952 METAR KATL 131952Z 28007G14KT 230V310 10SM SCT150 BKN200 BKN250 03/M10 A3007 RMK AO2 SLP191 T00331100=
201201131852 METAR KATL 131852Z 31009KT 10SM FEW050 SCT150 BKN200 02/M11 A3006 RMK AO2 SLP190 T00221106=
201201131752 METAR KATL 131752Z 28010G21KT 10SM FEW050 SCT150 BKN200 02/M11 A3009 RMK AO2 SLP198 T00221106 10022 21039 58007=
201201131652 METAR KATL 131652Z 31013KT 10SM FEW040 SCT200 00/M11 A3011 RMK AO2 SLP206 T00001111=
201201131552 METAR KATL 131552Z 28014G19KT 10SM FEW035 SCT200 M01/M11 A3012 RMK AO2 SLP209 T10061106=
201201131452 METAR KATL 131452Z 28011G20KT 10SM SCT030 M02/M11 A3011 RMK AO2 SLP207 T10221106 53028=
201201131352 METAR KATL 131352Z 29009KT 10SM BKN028 M03/M11 A3008 RMK AO2 SLP195 T10331106=
201201131317 SPECI KATL 131317Z 28010KT 10SM BKN028 M03/M11 A3007 RMK AO2=
201201131317 SPECI KATL 131317Z 28010KT 10SM BKN028 M03/M11 A3007 RMK AO2=
201201131252 METAR KATL 131252Z 28013KT 10SM FEW033 M04/M11 A3006 RMK AO2 SLP187 T10391106=
201201131152 METAR KATL 131152Z 27010G18KT 10SM FEW033 M03/M11 A3002 RMK AO2 SLP176 T10331111 11006 21033 53016=
201201131052 METAR KATL 131052Z 28008KT 10SM FEW033 M03/M11 A3000 RMK AO2 SLP167 T10331111=
201201130952 METAR KATL 130952Z 28014G20KT 10SM FEW033 M03/M11 A2999 RMK AO2 PK WND 29026/0915 SLP160 T10281111=
201201130852 METAR KATL 130852Z 27007KT 10SM FEW033 M03/M10 A2997 RMK AO2 SLP156 T10281100 51007=
201201130752 METAR KATL 130752Z 29016G20KT 10SM BKN033 M01/M09 A2997 RMK AO2 SLP155 T10111089=
201201130652 METAR KATL 130652Z 29010KT 10SM BKN033 M01/M09 A2997 RMK AO2 SLP152 T10111089=
201201130552 METAR KATL 130552Z 28011G18KT 10SM BKN035 M01/M09 A2995 RMK AO2 SLP148 T10111089 10061 21011 51019=
201201130452 METAR KATL 130452Z 28016G23KT 10SM FEW035 M01/M09 A2994 RMK AO2 PK WND 29026/0355 SLP141 T10061094 401501006=
201201130352 METAR KATL 130352Z 29017G24KT 10SM FEW035 SCT045 01/M08 A2992 RMK AO2 PK WND 28033/0253 SLP137 T00061083=
201201130252 METAR KATL 130252Z 27018G29KT 10SM FEW035 BKN042 BKN050 01/M08 A2990 RMK AO2 PK WND 30030/0202 SLP128 T00111083 51041=
201201130152 METAR KATL 130152Z 29018G29KT 10SM SCT038 BKN045 02/M06 A2988 RMK AO2 PK WND 30032/0123 SLP121 T00221061=
201201130052 METAR KATL 130052Z 28021G29KT 10SM BKN038 BKN045 04/M04 A2982 RMK AO2 PK WND 28032/0024 SLP102 T00441044=
201201122352 METAR KATL 122352Z 28020G29KT 10SM FEW030 06/M03 A2977 RMK AO2 PK WND 28039/2330 PRESRR SLP085 60000 T00611033 10144 20061 53036=
201201122252 METAR KATL 122252Z 26014G24KT 10SM FEW030 SCT045 BKN060 10/03 A2970 RMK AO2 PK WND 25029/2237 SLP056 T01000028=
201201122152 METAR KATL 122152Z 26018G31KT 10SM FEW018TCU BKN030 BKN060 12/07 A2966 RMK AO2 PK WND 26031/2152 RAB30E45 SLP045 TCU NE SHRA NE P0000 T01170067=
201201122148 SPECI KATL 122148Z 26016G22KT 10SM FEW018TCU BKN030 BKN060 12/07 A2966 RMK AO2 RAB30E45 TCU NE SHRA NE P0000=
201201122148 SPECI KATL 122148Z 26016G22KT 10SM FEW018TCU BKN030 BKN060 12/07 A2966 RMK AO2 RAB30E45 TCU NE SHRA NE P0000=
201201122052 METAR KATL 122052Z 25013G23KT 10SM BKN018 BKN024 OVC040 12/08 A2964 RMK AO2 PK WND 24029/2038 RAB34E51 SLP036 VIS LWR E SHRA P0000 60000 T01170083 55003=
201201122039 SPECI KATL 122039Z 24022G29KT 4SM -RA BKN020 BKN040 OVC060 12/08 A2963 RMK AO2 PK WND 24029/2038 RAB34 P0000=
201201122039 SPECI KATL 122039Z 24022G29KT 4SM -RA BKN020 BKN040 OVC060 12/08 A2963 RMK AO2 PK WND 24029/2038 RAB34 P0000=
201201122002 SPECI KATL 122002Z 22016G21KT 10SM BKN027 BKN040 OVC080 14/06 A2962 RMK AO2 $=
201201122002 SPECI KATL 122002Z 22016G21KT 10SM BKN027 BKN040 OVC080 14/06 A2962 RMK AO2 $=
201201121952 METAR KATL 121952Z 22013G26KT 10SM BKN030 BKN040 OVC080 14/06 A2961 RMK AO2 PK WND 22026/1946 SLP028 SHRA DSNT NE T01390061 $=
201201121852 METAR KATL 121852Z 20009G17KT 10SM FEW030 BKN050 OVC080 14/04 A2961 RMK AO2 SLP026 T01440044 $=
201201121752 METAR KATL 121752Z 21012G18KT 10SM FEW030 BKN080 14/05 A2965 RMK AO2 SLP039 T01390050 10150 20089 58030 $=
201201121652 METAR KATL 121652Z 20011G18KT 10SM SCT026 13/06 A2970 RMK AO2 SLP058 T01330056 $=
201201121552 METAR KATL 121552Z 22011KT 10SM SCT018 12/06 A2973 RMK AO2 SLP066 T01220061 $=
201201121508 SPECI KATL 121508Z AUTO 25010KT 10SM SCT016 11/06 A2974 RMK AO2 $=
201201121508 SPECI KATL 121508Z AUTO 25010KT 10SM SCT016 11/06 A2974 RMK AO2 $=
201201121452 METAR KATL 121452Z 25010KT 10SM BKN018 11/06 A2974 RMK AO2 SLP071 CIG 015V020 T01060056 50001 $=
201201121352 METAR KATL 121352Z 24007KT 9SM FEW012 OVC017 09/06 A2975 RMK AO2 SLP076 T00940061 $=
201201121252 METAR KATL 121252Z 24007KT 10SM BKN015 OVC020 09/06 A2975 RMK AO2 SLP073 CIG 013V017 T00940056 $=
201201121238 SPECI KATL 121238Z 25006KT 10SM OVC015 09/06 A2975 RMK AO2=
201201121238 SPECI KATL 121238Z 25006KT 10SM OVC015 09/06 A2975 RMK AO2=
201201121152 METAR KATL 121152Z 25008KT 10SM BKN013 OVC019 09/06 A2974 RMK AO2 DZE47 SLP071 P0000 60000 70006 T00940056 10094 20089 53009 $=
201201121052 METAR KATL 121052Z 26005KT 8SM -DZ OVC012 09/06 A2972 RMK AO2 DZB45 SLP066 CIG 011V015 P0000 T00890056=
201201120952 METAR KATL 120952Z 25009KT 10SM OVC012 09/06 A2972 RMK AO2 SLP062 T00940056=
201201120852 METAR KATL 120852Z 25008KT 10SM BKN012 OVC019 09/06 A2971 RMK AO2 SLP061 T00940056 58001=
201201120752 METAR KATL 120752Z 27007KT 10SM BKN012 OVC019 09/06 A2972 RMK AO2 SLP063 CIG 010V015 T00890056=
201201120719 SPECI KATL 120719Z 27008KT 10SM BKN013 OVC025 09/06 A2972 RMK AO2=
201201120719 SPECI KATL 120719Z 27008KT 10SM BKN013 OVC025 09/06 A2972 RMK AO2=
201201120652 METAR KATL 120652Z 27007KT 10SM FEW013 OVC025 09/06 A2972 RMK AO2 SLP063 T00940056=
201201120642 SPECI KATL 120642Z 26007KT 10SM SCT013 OVC025 09/06 A2972 RMK AO2=
201201120642 SPECI KATL 120642Z 26007KT 10SM SCT013 OVC025 09/06 A2972 RMK AO2=
201201120611 SPECI KATL 120611Z 26007KT 10SM BKN013 OVC029 09/06 A2972 RMK AO2=
201201120611 SPECI KATL 120611Z 26007KT 10SM BKN013 OVC029 09/06 A2972 RMK AO2=
201201120552 METAR KATL 120552Z 26008KT 10SM SCT013 BKN025 OVC032 09/06 A2971 RMK AO2 SLP061 T00890056 10106 20089 51004=
201201120507 SPECI KATL 120507Z 25009G15KT 10SM BKN013 OVC020 09/06 A2972 RMK AO2=
201201120507 SPECI KATL 120507Z 25009G15KT 10SM BKN013 OVC020 09/06 A2972 RMK AO2=
201201120452 METAR KATL 120452Z 25010G16KT 10SM BKN016 OVC025 09/05 A2971 RMK AO2 SLP060 T00940050 401720094=
201201120430 SPECI KATL 120430Z 24009G16KT 10SM SCT017 BKN025 OVC032 09/05 A2971 RMK AO2=
201201120430 SPECI KATL 120430Z 24009G16KT 10SM SCT017 BKN025 OVC032 09/05 A2971 RMK AO2=
201201120418 SPECI KATL 120418Z 24009KT 10SM FEW018 SCT025 OVC032 09/05 A2971 RMK AO2=
201201120418 SPECI KATL 120418Z 24009KT 10SM FEW018 SCT025 OVC032 09/05 A2971 RMK AO2=
201201120352 METAR KATL 120352Z 24009KT 10SM SCT018 BKN025 OVC032 09/05 A2971 RMK AO2 SLP060 T00940050=
201201120252 METAR KATL 120252Z 24007KT 10SM FEW022 OVC032 10/04 A2970 RMK AO2 SLP056 T01000044 51008=
201201120152 METAR KATL 120152Z 26009KT 10SM FEW022 SCT028 OVC034 10/04 A2970 RMK AO2 SLP055 T01000044=
201201120052 METAR KATL 120052Z 27011G18KT 10SM OVC024 10/04 A2969 RMK AO2 SLP052 T01000044=
201201112352 METAR KATL 112352Z 23009KT 10SM OVC024 11/04 A2967 RMK AO2 SLP047 T01060044 10139 20106 51015=
201201112252 METAR KATL 112252Z 23009KT 10SM BKN026 OVC035 11/04 A2966 RMK AO2 SLP043 T01060039=
201201112152 METAR KATL 112152Z 24013G20KT 10SM BKN027 BKN030 OVC050 11/04 A2965 RMK AO2 PK WND 23026/2102 SLP038 T01110039=
201201112052 METAR KATL 112052Z 23011G20KT 10SM BKN025 BKN030 OVC050 12/04 A2963 RMK AO2 SLP032 T01170044 51009=
201201112048 SPECI KATL 112048Z 24014G23KT 10SM BKN025 BKN030 OVC050 12/04 A2962 RMK AO2=
201201112048 SPECI KATL 112048Z 24014G23KT 10SM BKN025 BKN030 OVC050 12/04 A2962 RMK AO2=
201201112010 SPECI KATL 112010Z 25010G18KT 10SM FEW023 BKN030 BKN050 12/05 A2961 RMK AO2=
201201112010 SPECI KATL 112010Z 25010G18KT 10SM FEW023 BKN030 BKN050 12/05 A2961 RMK AO2=
201201111952 METAR KATL 111952Z 24010G22KT 10SM BKN025 BKN030 12/05 A2961 RMK AO2 PK WND 24028/1907 SLP024 SHRA DSNT NE T01170050=
201201111921 SPECI KATL 111921Z 23014G26KT 10SM BKN025 BKN030 BKN050 12/05 A2961 RMK AO2 PK WND 24028/1907 SHRA DSNT NW=
201201111921 SPECI KATL 111921Z 23014G26KT 10SM BKN025 BKN030 BKN050 12/05 A2961 RMK AO2 PK WND 24028/1907 SHRA DSNT NW=
201201111852 METAR KATL 111852Z 22020G31KT 10SM FEW027 SCT030 SCT040 13/06 A2960 RMK AO2 PK WND 22031/1845 SLP021 T01330056=
201201111752 METAR KATL 111752Z 22017G22KT 10SM FEW023 BKN030 BKN040 13/07 A2960 RMK AO2 PK WND 22026/1722 SLP022 T01330067 10172 20133 55002=
201201111727 SPECI KATL 111727Z 22018G26KT 10SM FEW025 BKN030 BKN040 14/07 A2960 RMK AO2 PK WND 22026/1722=
201201111727 SPECI KATL 111727Z 22018G26KT 10SM FEW025 BKN030 BKN040 14/07 A2960 RMK AO2 PK WND 22026/1722=
201201111652 METAR KATL 111652Z COR 22023KT 10SM BKN018 BKN040 16/12 A2959 RMK AO2 SLP016 CB DSNT N T01560117 $=
201201111552 METAR KATL 111552Z 19015G20KT 10SM FEW015TCU BKN020 17/12 A2961 RMK AO2 SLP021 TCU W T01720122=
201201111549 SPECI KATL 111549Z 19015G25KT 10SM FEW015TCU BKN020 17/12 A2961 RMK AO2 TCU W=
201201111549 SPECI KATL 111549Z 19015G25KT 10SM FEW015TCU BKN020 17/12 A2961 RMK AO2 TCU W=
201201111528 SPECI KATL 111528Z 18015G23KT 10SM SCT015 17/13 A2961 RMK AO2 PRESFR=
201201111528 SPECI KATL 111528Z 18015G23KT 10SM SCT015 17/13 A2961 RMK AO2 PRESFR=
201201111502 SPECI KATL 111502Z 18012G19KT 8SM BKN011 BKN017 OVC020 16/13 A2964 RMK AO2=
201201111502 SPECI KATL 111502Z 18012G19KT 8SM BKN011 BKN017 OVC020 16/13 A2964 RMK AO2=
201201111452 METAR KATL 111452Z 19013KT 8SM BKN009 BKN013 OVC020 16/13 A2964 RMK AO2 SLP034 BINOVC N 60006 T01560133 56007=
201201111352 METAR KATL 111352Z 18011KT 6SM BR BKN007 OVC010 14/13 A2964 RMK AO2 TSE07 SLP036 TS MOV E T01440133=
201201111313 SPECI KATL 111313Z 17009KT 6SM BR BKN007 OVC013 14/13 A2965 RMK AO2 TSE07 TS MOV E=
201201111313 SPECI KATL 111313Z 17009KT 6SM BR BKN007 OVC013 14/13 A2965 RMK AO2 TSE07 TS MOV E=
201201111252 METAR KATL 111252Z 17009KT 6SM TS BR BKN009CB OVC013 14/13 A2965 RMK AO2 TSB33RAE48 SLP039 FRQ LTGICCC NE-E-SE TS NE-E-SE MOV E P0006 T01440128=
201201111233 SPECI KATL 111233Z 18013G18KT 6SM -TSRA BR BKN009CB OVC013 14/13 A2966 RMK AO2 TSB33 PRESRR LTGICCC NE-E-SE TS NE-E-SE MOV NE P0005 $=
201201111233 SPECI KATL 111233Z 18013G18KT 6SM -TSRA BR BKN009CB OVC013 14/13 A2966 RMK AO2 TSB33 PRESRR LTGICCC NE-E-SE TS NE-E-SE MOV NE P0005 $=
201201111152 METAR KATL 111152Z 15011KT 6SM -RA BR BKN009 OVC013 14/13 A2966 RMK AO2 TSE30 SLP042 TS MOV NE P0002 60008 70031 T01440128 10144 20139 58009 $=
201201111144 SPECI KATL 111144Z 17009G15KT 6SM BR BKN009 OVC014 14/13 A2966 RMK AO2 TSE30RAE30 TS MOV NE P0000 $=
201201111144 SPECI KATL 111144Z 17009G15KT 6SM BR BKN009 OVC014 14/13 A2966 RMK AO2 TSE30RAE30 TS MOV NE P0000 $=
201201111132 SPECI KATL 111132Z 17009KT 6SM BR BKN011 OVC018 14/13 A2966 RMK AO2 TSE30RAE30 TS MOV NE P0000 $=
201201111132 SPECI KATL 111132Z 17009KT 6SM BR BKN011 OVC018 14/13 A2966 RMK AO2 TSE30RAE30 TS MOV NE P0000 $=
201201111113 SPECI KATL 111113Z 15011G21KT 8SM TS SCT009CB BKN026 OVC048 14/12 A2966 RMK AO2 RAE09 CONS LTGICCC N-E & W-NW TS N-E & W-NW MOV NE P0000 $=
201201111113 SPECI KATL 111113Z 15011G21KT 8SM TS SCT009CB BKN026 OVC048 14/12 A2966 RMK AO2 RAE09 CONS LTGICCC N-E & W-NW TS N-E & W-NW MOV NE P0000 $=
201201111052 METAR KATL 111052Z 13014G21KT 4SM -TSRA BR SCT009CB BKN026 OVC048 14/12 A2967 RMK AO2 TSB35RAB41 SLP045 CONS LTGICCC OHD SE-S-SW TS OHD SE-S-SW MOV NE P0004 T01390122 $=
201201111037 SPECI KATL 111037Z 14011G18KT 6SM TS BR SCT007CB OVC046 14/12 A2967 RMK AO2 TSB35 CONS LTGIC S-SW TS S-SW $=
201201111037 SPECI KATL 111037Z 14011G18KT 6SM TS BR SCT007CB OVC046 14/12 A2967 RMK AO2 TSB35 CONS LTGIC S-SW TS S-SW $=
201201111023 SPECI KATL 111023Z 12011G17KT 6SM BR SCT007 BKN044 OVC055 14/12 A2966 RMK AO2 $=
201201111023 SPECI KATL 111023Z 12011G17KT 6SM BR SCT007 BKN044 OVC055 14/12 A2966 RMK AO2 $=
201201110952 METAR KATL 110952Z 13009KT 6SM BR SCT005 BKN010 OVC050 14/12 A2969 RMK AO2 SLP051 T01390122=
201201110950 SPECI KATL 110950Z 13010G17KT 6SM BR BKN005 BKN010 14/12 A2969 RMK AO2=
201201110950 SPECI KATL 110950Z 13010G17KT 6SM BR BKN005 BKN010 14/12 A2969 RMK AO2=
201201110852 METAR KATL 110852Z 13011KT 2 1/2SM BR BKN005 OVC090 14/13 A2974 RMK AO2 SFC VIS 6 SLP066 60002 T01390128 58031=
201201110752 METAR KATL 110752Z 13007KT 2 1/2SM BR BKN007 OVC070 14/13 A2977 RMK AO2 SFC VIS 5 RAE04 SLP078 P0000 T01440128=
201201110725 SPECI KATL 110725Z 14009G15KT 2 1/2SM BR BKN007 BKN035 OVC065 14/13 A2979 RMK AO2 SFC VIS 6 RAE04 P0000=
201201110725 SPECI KATL 110725Z 14009G15KT 2 1/2SM BR BKN007 BKN035 OVC065 14/13 A2979 RMK AO2 SFC VIS 6 RAE04 P0000=
201201110652 METAR KATL 110652Z 15010KT 2 1/2SM -RA BR SCT007 BKN028 OVC039 14/13 A2981 RMK AO2 SFC VIS 4 RAB08 SLP091 P0002 T01440133=
201201110552 METAR KATL 110552Z 15007KT 2 1/2SM OVC007 14/13 A2983 RMK AO2 SFC VIS 7 SLP098 CIG 004V010 60016 T01440128 10144 20133 58024=
201201110456 SPECI KATL 110456Z 16009KT 2 1/2SM BR OVC006 14/13 A2986 RMK AO2 SFC VIS 6 CIG 004V007=
201201110456 SPECI KATL 110456Z 16009KT 2 1/2SM BR OVC006 14/13 A2986 RMK AO2 SFC VIS 6 CIG 004V007=
201201110452 METAR KATL 110452Z COR 16006KT 2 1/2SM BR OVC006 14/13 A2986 RMK AO2 SFC VIS 6 SLP107 CIG 004V007 T01440128 401670117=
201201110352 METAR KATL 110352Z 16008KT 2SM OVC005 14/13 A2989 RMK AO2 SFC VIS 7 SLP118 CIG 003V007 T01440128=
201201110252 METAR KATL 110252Z 14007KT 2SM BKN005 OVC020 14/13 A2990 RMK AO2 SFC VIS 7 RAE19 SLP123 CIG 003V007 P0001 60016 T01390128 56017=
201201110205 SPECI KATL 110205Z 13006KT 2SM -RA BR BKN005 BKN020 OVC035 13/12 A2992 RMK AO2 SFC VIS 4 CIG 003V007 P0001=
201201110205 SPECI KATL 110205Z 13006KT 2SM -RA BR BKN005 BKN020 OVC035 13/12 A2992 RMK AO2 SFC VIS 4 CIG 003V007 P0001=
201201110152 METAR KATL 110152Z 13006KT 1 1/2SM -RA BR BKN005 BKN014 OVC030 13/12 A2992 RMK AO2 SLP131 P0012 T01330122=
201201110132 SPECI KATL 110132Z 13006KT 1 1/2SM RA BR BKN005 OVC020 13/12 A2993 RMK AO2 P0004=
201201110132 SPECI KATL 110132Z 13006KT 1 1/2SM RA BR BKN005 OVC020 13/12 A2993 RMK AO2 P0004=
201201110052 METAR KATL 110052Z 15009KT 6SM -RA BR BKN006 BKN050 OVC070 13/12 A2992 RMK AO2 SLP133 P0003 T01330117=
201201110018 SPECI KATL 110018Z 14005KT 7SM -RA BKN006 BKN065 OVC080 13/12 A2994 RMK AO2 P0002=
201201110018 SPECI KATL 110018Z 14005KT 7SM -RA BKN006 BKN065 OVC080 13/12 A2994 RMK AO2 P0002=
201201102352 METAR KATL 102352Z 16008KT 7SM -RA FEW006 BKN095 OVC120 13/12 A2995 RMK AO2 SLP143 P0004 60007 T01330117 10167 20133 56003=
201201102338 SPECI KATL 102338Z 17006KT 8SM -RA SCT006 BKN080 OVC100 13/12 A2996 RMK AO2 P0003=
201201102338 SPECI KATL 102338Z 17006KT 8SM -RA SCT006 BKN080 OVC100 13/12 A2996 RMK AO2 P0003=
201201102323 SPECI KATL 102323Z 16010KT 6SM -RA BR BKN006 BKN075 OVC090 13/12 A2996 RMK AO2 P0003=
201201102323 SPECI KATL 102323Z 16010KT 6SM -RA BR BKN006 BKN075 OVC090 13/12 A2996 RMK AO2 P0003=
201201102320 SPECI KATL 102320Z 16008KT 5SM -RA BR SCT006 BKN075 OVC090 13/12 A2996 RMK AO2 P0002=
201201102320 SPECI KATL 102320Z 16008KT 5SM -RA BR SCT006 BKN075 OVC090 13/12 A2996 RMK AO2 P0002=
201201102252 METAR KATL 102252Z 16008KT 7SM -RA FEW055 BKN090 OVC150 14/12 A2996 RMK AO2 SLP144 P0003 T01390117=
201201102152 METAR KATL 102152Z 16006KT 10SM -RA FEW020 BKN060 OVC110 14/12 A2995 RMK AO2 RAB48 SLP141 P0000 T01440122=
201201102052 METAR KATL 102052Z 19004KT 10SM FEW020 BKN060 OVC090 15/11 A2996 RMK AO2 RAE25 SLP143 P0000 60000 T01500111 58021=
201201101952 METAR KATL 101952Z 23005KT 8SM -RA FEW020 BKN060 OVC120 15/12 A2999 RMK AO2 RAB18 SLP152 P0000 T01500117=
201201101852 METAR KATL 101852Z 21003KT 10SM FEW015 BKN090 OVC120 17/12 A3000 RMK AO2 SLP156 T01670122=
201201101752 METAR KATL 101752Z 19004KT 10SM FEW020 BKN100 OVC120 16/13 A3002 RMK AO2 SLP165 T01610128 10161 20117 58016=
201201101701 SPECI KATL 101701Z 22003KT 10SM FEW010 BKN018 OVC110 16/13 A3005 RMK AO2=
201201101701 SPECI KATL 101701Z 22003KT 10SM FEW010 BKN018 OVC110 16/13 A3005 RMK AO2=
201201101652 METAR KATL 101652Z 21004KT 10SM FEW020 BKN110 OVC200 16/13 A3006 RMK AO2 SLP176 T01560128=
201201101552 METAR KATL 101552Z 22005KT 9SM FEW010 BKN120 OVC200 15/13 A3008 RMK AO2 SLP184 T01500133=
201201101452 METAR KATL 101452Z 22005KT 9SM FEW030 SCT150 OVC200 14/13 A3007 RMK AO2 SLP182 T01440128 53007=
201201101352 METAR KATL 101352Z 20004KT 10SM FEW150 BKN250 13/12 A3006 RMK AO2 SLP175 T01330122=
201201101252 METAR KATL 101252Z 19003KT 10SM FEW031 SCT150 SCT250 12/12 A3005 RMK AO2 SLP174 T01220117=
201201101152 METAR KATL 101152Z 19004KT 7SM BKN041 12/12 A3005 RMK AO2 SLP175 60004 70004 T01220117 10150 20122 55002=
201201101145 SPECI KATL 101145Z 19004KT 7SM R09R/4000VP6000FT BKN041 12/12 A3005 RMK AO2 $=
201201101145 SPECI KATL 101145Z 19004KT 7SM R09R/4000VP6000FT BKN041 12/12 A3005 RMK AO2 $=
201201101108 SPECI KATL 101108Z 00000KT 1/2SM R09R/1600V3500FT FG BKN041 13/12 A3005 RMK AO2 $=
201201101108 SPECI KATL 101108Z 00000KT 1/2SM R09R/1600V3500FT FG BKN041 13/12 A3005 RMK AO2 $=
201201101101 SPECI KATL 101101Z 00000KT 1/2SM R09R/1400V2000FT FG BKN041 13/12 A3005 RMK AO2 $=
201201101101 SPECI KATL 101101Z 00000KT 1/2SM R09R/1400V2000FT FG BKN041 13/12 A3005 RMK AO2 $=
201201101052 METAR KATL 101052Z 00000KT 1/2SM R09R/1000V1600FT FG VV002 13/12 A3005 RMK AO2 SLP174 T01330122 $=
201201101046 SPECI KATL 101046Z 00000KT 1/2SM R09R/1000V1400FT FG FEW002 SCT050 13/12 A3005 RMK AO2 $=
201201101046 SPECI KATL 101046Z 00000KT 1/2SM R09R/1000V1400FT FG FEW002 SCT050 13/12 A3005 RMK AO2 $=
201201101044 SPECI KATL 101044Z 00000KT 7SM R09R/1000V2000FT FG FEW002 SCT050 13/12 A3005 RMK AO2 VIS E-SE-S 1/2SM $=
201201101044 SPECI KATL 101044Z 00000KT 7SM R09R/1000V2000FT FG FEW002 SCT050 13/12 A3005 RMK AO2 VIS E-SE-S 1/2SM $=
201201101035 SPECI KATL 101035Z 00000KT 7SM R09R/1400V2800FT SCT050 13/12 A3005 RMK AO2 VIS E-SE-S 1/2SM $=
201201101035 SPECI KATL 101035Z 00000KT 7SM R09R/1400V2800FT SCT050 13/12 A3005 RMK AO2 VIS E-SE-S 1/2SM $=
201201101020 SPECI KATL 101020Z 00000KT 7SM R09R/1000V1400FT SCT050 BKN110 13/13 A3005 RMK AO2 VIS E-SE-S 1/2SM $=
201201101020 SPECI KATL 101020Z 00000KT 7SM R09R/1000V1400FT SCT050 BKN110 13/13 A3005 RMK AO2 VIS E-SE-S 1/2SM $=
201201100952 METAR KATL 100952Z COR 00000KT 7SM R09R/3000VP6000FT SCT041 SCT055 BKN110 14/13 A3006 RMK AO2 SLP176 T01390128 VIS SE-S 1SM $=
201201100852 METAR KATL 100852Z 00000KT 7SM SCT028 BKN033 OVC070 14/13 A3007 RMK AO2 RAB05E36 SLP180 P0004 60004 T01440133 58004 $=
201201100839 SPECI KATL 100839Z 00000KT 7SM R09R/6000VP6000FT FEW014 BKN031 OVC070 14/14 A3007 RMK AO2 RAB05E36 P0004 $=
201201100839 SPECI KATL 100839Z 00000KT 7SM R09R/6000VP6000FT FEW014 BKN031 OVC070 14/14 A3007 RMK AO2 RAB05E36 P0004 $=
201201100810 SPECI KATL 100810Z 00000KT 1SM R09R/2000V2400FT -RA BR SCT002 BKN012 OVC041 14/14 A3008 RMK AO2 TWR VIS 1 1/2 RAB05 P0000 $=
201201100810 SPECI KATL 100810Z 00000KT 1SM R09R/2000V2400FT -RA BR SCT002 BKN012 OVC041 14/14 A3008 RMK AO2 TWR VIS 1 1/2 RAB05 P0000 $=
201201100804 SPECI KATL 100804Z 00000KT 1/4SM R09R/2000V2400FT FG SCT002 BKN012 OVC041 15/14 A3008 RMK AO2 TWR VIS 1 1/2 $=
201201100804 SPECI KATL 100804Z 00000KT 1/4SM R09R/2000V2400FT FG SCT002 BKN012 OVC041 15/14 A3008 RMK AO2 TWR VIS 1 1/2 $=
201201100757 SPECI KATL 100757Z 00000KT 1/4SM R09R/1800V2000FT FG SCT002 BKN012 OVC038 14/14 A3008 RMK AO2 TWR VIS 1 1/2 $=
201201100757 SPECI KATL 100757Z 00000KT 1/4SM R09R/1800V2000FT FG SCT002 BKN012 OVC038 14/14 A3008 RMK AO2 TWR VIS 1 1/2 $=
201201100752 METAR KATL 100752Z 00000KT 1/4SM R09R/1800V2400FT FG BKN002 BKN012 OVC035 14/14 A3008 RMK AO2 TWR VIS 1 1/2 SLP184 T01440139 $=
201201100743 SPECI KATL 100743Z 00000KT 1/4SM R09R/1600V2400FT FG BKN002 BKN009 OVC025 14/14 A3009 RMK AO2 TWR VIS 1 1/2 $=
201201100743 SPECI KATL 100743Z 00000KT 1/4SM R09R/1600V2400FT FG BKN002 BKN009 OVC025 14/14 A3009 RMK AO2 TWR VIS 1 1/2 $=
201201100740 SPECI KATL 100740Z 00000KT 3/4SM R09R/1600V2200FT BR BKN002 BKN009 OVC025 14/14 A3008 RMK AO2 TWR VIS 1 1/2 $=
201201100740 SPECI KATL 100740Z 00000KT 3/4SM R09R/1600V2200FT BR BKN002 BKN009 OVC025 14/14 A3008 RMK AO2 TWR VIS 1 1/2 $=
201201100652 METAR KATL 100652Z 24003KT 1 1/2SM BR BKN002 BKN010 OVC014 15/14 A3009 RMK AO2 SFC VIS 4 SLP184 T01500139 $=
201201100649 SPECI KATL 100649Z 00000KT 1 1/2SM BR BKN002 BKN010 OVC014 15/14 A3008 RMK AO2 SFC VIS 4 $=
201201100649 SPECI KATL 100649Z 00000KT 1 1/2SM BR BKN002 BKN010 OVC014 15/14 A3008 RMK AO2 SFC VIS 4 $=
201201100555 SPECI KATL 100555Z 31003KT 1 1/2SM BR BKN005 BKN012 OVC075 15/14 A3009 RMK AO2 SFC VIS 6=
201201100555 SPECI KATL 100555Z 31003KT 1 1/2SM BR BKN005 BKN012 OVC075 15/14 A3009 RMK AO2 SFC VIS 6=
201201100552 METAR KATL 100552Z 31003KT 3/4SM BR SCT004 BKN010 OVC075 15/14 A3009 RMK AO2 SFC VIS 6 SLP187 T01500139 10161 20144 58002=
201201100514 SPECI KATL 100514Z 25003KT 3/4SM BR BKN004 OVC015 15/14 A3010 RMK AO2 SFC VIS 5=
201201100514 SPECI KATL 100514Z 25003KT 3/4SM BR BKN004 OVC015 15/14 A3010 RMK AO2 SFC VIS 5=
201201100452 METAR KATL 100452Z 00000KT 6SM BR FEW008 BKN015 OVC100 15/14 A3010 RMK AO2 SLP189 T01500139 401890128=
201201100441 SPECI KATL 100441Z 00000KT 7SM BKN018 BKN075 OVC100 15/14 A3010 RMK AO2=
201201100441 SPECI KATL 100441Z 00000KT 7SM BKN018 BKN075 OVC100 15/14 A3010 RMK AO2=
201201100352 METAR KATL 100352Z 00000KT 7SM FEW025 BKN080 BKN250 15/14 A3011 RMK AO2 SLP194 T01500139=
201201100252 METAR KATL 100252Z 25003KT 9SM FEW090 OVC250 15/14 A3010 RMK AO2 SLP190 T01500139 56004=
201201100152 METAR KATL 100152Z 25004KT 10SM FEW030 SCT100 OVC250 16/14 A3010 RMK AO2 SLP192 T01560139=
201201100052 METAR KATL 100052Z 23004KT 10SM FEW035 SCT100 BKN250 15/14 A3010 RMK AO2 SLP192 T01500139=
201201092358 SPECI KATL 092358Z 22004KT 10SM SCT015 BKN090 BKN200 16/14 A3011 RMK AO2=
201201092358 SPECI KATL 092358Z 22004KT 10SM SCT015 BKN090 BKN200 16/14 A3011 RMK AO2=
201201092352 METAR KATL 092352Z 22005KT 10SM BKN015 BKN090 BKN200 16/14 A3011 RMK AO2 SLP194 T01610139 10189 20161 53008=
201201092252 METAR KATL 092252Z 26003KT 10SM FEW015 SCT065 BKN090 BKN200 17/14 A3010 RMK AO2 SLP192 T01670139=
201201092152 METAR KATL 092152Z 22006KT 10SM SCT020 BKN150 BKN250 18/13 A3009 RMK AO2 SLP187 T01780133=
201201092052 METAR KATL 092052Z 22007KT 10SM FEW020 SCT050 BKN250 19/13 A3009 RMK AO2 SLP185 T01890133 56019=
201201091952 METAR KATL 091952Z 21008KT 10SM FEW015TCU BKN050 BKN250 18/14 A3010 RMK AO2 SLP190 TCU NW-N T01830139=
201201091852 METAR KATL 091852Z 23005KT 10SM FEW015 SCT080 BKN250 18/14 A3011 RMK AO2 SLP194 T01830139=
201201091845 SPECI KATL 091845Z 22007KT 10SM FEW015 SCT020 BKN075 BKN250 18/14 A3011 RMK AO2=
201201091845 SPECI KATL 091845Z 22007KT 10SM FEW015 SCT020 BKN075 BKN250 18/14 A3011 RMK AO2=
201201091817 SPECI KATL 091817Z 23007KT 10SM BKN019 BKN050 BKN080 17/14 A3014 RMK AO2=
201201091817 SPECI KATL 091817Z 23007KT 10SM BKN019 BKN050 BKN080 17/14 A3014 RMK AO2=
201201091752 METAR KATL 091752Z 23006KT 10SM BKN014 BKN050 BKN090 17/14 A3014 RMK AO2 SLP206 T01720139 10183 20133 58015=
201201091652 METAR KATL 091652Z 25008KT 10SM FEW015 BKN100 BKN250 18/14 A3016 RMK AO2 SLP209 T01780139=
201201091623 SPECI KATL 091623Z 25008KT 10SM BKN010 BKN100 BKN250 17/14 A3018 RMK AO2=
201201091623 SPECI KATL 091623Z 25008KT 10SM BKN010 BKN100 BKN250 17/14 A3018 RMK AO2=
201201091552 METAR KATL 091552Z 24007KT 10SM BKN008 BKN110 BKN250 16/14 A3019 RMK AO2 SLP221 T01610139=
201201091452 METAR KATL 091452Z 22007KT 10SM BKN110 BKN150 BKN250 14/13 A3019 RMK AO2 SLP222 T01440128 53005 $=
201201091352 METAR KATL 091352Z 00000KT 10SM BKN110 BKN200 BKN250 14/13 A3016 RMK AO2 SLP214 T01390128 $=
201201091252 METAR KATL 091252Z COR VRB05KT 8SM FEW050 SCT120 BKN250 14/13 A3016 RMK AO2 SLP212 T01390128=
201201091220 SPECI KATL 091220Z 23004KT 8SM FEW006 SCT120 BKN250 14/13 A3017 RMK AO2=
201201091220 SPECI KATL 091220Z 23004KT 8SM FEW006 SCT120 BKN250 14/13 A3017 RMK AO2=
201201091152 METAR KATL 091152Z 24008KT 2SM BR SCT006 BKN060 OVC150 14/13 A3017 RMK AO2 SFC VIS 6 SLP217 60006 70021 T01390128 10139 20128 53004=
201201091150 SPECI KATL 091150Z 25008KT 2SM BR SCT006 BKN060 OVC150 14/13 A3017 RMK AO2 SFC VIS 6=
201201091150 SPECI KATL 091150Z 25008KT 2SM BR SCT006 BKN060 OVC150 14/13 A3017 RMK AO2 SFC VIS 6=
201201091120 SPECI KATL 091120Z 23006KT 1 1/2SM BKN004 OVC070 14/13 A3017 RMK AO2 SFC VIS 7 $=
201201091120 SPECI KATL 091120Z 23006KT 1 1/2SM BKN004 OVC070 14/13 A3017 RMK AO2 SFC VIS 7 $=
201201091052 METAR KATL 091052Z 22006KT 3/4SM BR BKN004 OVC080 14/13 A3016 RMK AO2 SFC VIS 6 RAE28 SLP211 P0001 T01390128 $=
201201091045 SPECI KATL 091045Z 22007KT 6SM BR BKN004 OVC080 14/13 A3016 RMK AO2 RAE28 P0001 $=
201201091045 SPECI KATL 091045Z 22007KT 6SM BR BKN004 OVC080 14/13 A3016 RMK AO2 RAE28 P0001 $=
201201091033 SPECI KATL 091033Z 22008KT 7SM BKN006 OVC080 14/13 A3016 RMK AO2 RAE28 P0001 $=
201201091033 SPECI KATL 091033Z 22008KT 7SM BKN006 OVC080 14/13 A3016 RMK AO2 RAE28 P0001 $=
201201091011 SPECI KATL 091011Z 22005KT 8SM -RA FEW004 SCT050 OVC080 14/13 A3016 RMK AO2 P0001 $=
201201091011 SPECI KATL 091011Z 22005KT 8SM -RA FEW004 SCT050 OVC080 14/13 A3016 RMK AO2 P0001 $=
201201090952 METAR KATL 090952Z 22006KT 5SM -RA BR SCT004 BKN013 OVC080 14/13 A3016 RMK AO2 RAB07 SLP211 P0005 T01390128 $=
201201090944 SPECI KATL 090944Z 21008KT 3SM RA BR BKN004 BKN013 OVC055 14/13 A3015 RMK AO2 RAB07 P0004 $=
201201090944 SPECI KATL 090944Z 21008KT 3SM RA BR BKN004 BKN013 OVC055 14/13 A3015 RMK AO2 RAB07 P0004 $=
201201090914 SPECI KATL 090914Z 27004KT 5SM -RA BR BKN027 OVC055 13/12 A3016 RMK AO2 RAB07 P0000 $=
201201090914 SPECI KATL 090914Z 27004KT 5SM -RA BR BKN027 OVC055 13/12 A3016 RMK AO2 RAB07 P0000 $=
201201090852 METAR KATL 090852Z 24003KT 6SM BR BKN050 OVC100 13/12 A3016 RMK AO2 SLP211 T01330122 55002 $=
201201090752 METAR KATL 090752Z 20003KT 7SM FEW055 SCT070 BKN250 13/12 A3016 RMK AO2 SLP210 T01280117 $=
201201090652 METAR KATL 090652Z 18004KT 7SM BKN095 BKN250 13/12 A3016 RMK AO2 SLP211 T01280122 $=
201201090552 METAR KATL 090552Z 18003KT 7SM FEW002 SCT022 OVC100 13/12 A3016 RMK AO2 SLP213 60000 T01330122 10144 20128 58008 $=
201201090533 SPECI KATL 090533Z 00000KT 7SM R09R/5000VP6000FT BCFG FEW002 SCT022 OVC100 13/12 A3017 RMK AO2 VIS S 2 $=
201201090533 SPECI KATL 090533Z 00000KT 7SM R09R/5000VP6000FT BCFG FEW002 SCT022 OVC100 13/12 A3017 RMK AO2 VIS S 2 $=
201201090525 SPECI KATL 090525Z 00000KT 8SM BCFG FEW002 BKN022 OVC100 13/12 A3017 RMK AO2 VIS S 2 $=
201201090525 SPECI KATL 090525Z 00000KT 8SM BCFG FEW002 BKN022 OVC100 13/12 A3017 RMK AO2 VIS S 2 $=
201201090516 SPECI KATL 090516Z 00000KT 8SM BCFG SCT020 BKN075 OVC120 13/12 A3017 RMK AO2 VIS S 2 $=
201201090516 SPECI KATL 090516Z 00000KT 8SM BCFG SCT020 BKN075 OVC120 13/12 A3017 RMK AO2 VIS S 2 $=
201201090452 METAR KATL 090452Z 00000KT 8SM BCFG BKN028 OVC085 14/13 A3018 RMK AO2 RAB00E16DZB16E24 SLP217 VIS S 1 1/2 P0000 T01390128 401610089 $=
201201090428 SPECI KATL 090428Z 00000KT 3SM R09R/4500VP6000FT BR BKN028 BKN085 OVC110 14/13 A3019 RMK AO2 RAB00E16DZB16E24 VIS S-W 2 P0000 $=
201201090428 SPECI KATL 090428Z 00000KT 3SM R09R/4500VP6000FT BR BKN028 BKN085 OVC110 14/13 A3019 RMK AO2 RAB00E16DZB16E24 VIS S-W 2 P0000 $=
201201090417 SPECI KATL 090417Z 15003KT 3SM -DZ BR SCT026 BKN031 OVC080 13/13 A3019 RMK AO2 RAB00E16DZB16 P0000 $=
201201090417 SPECI KATL 090417Z 15003KT 3SM -DZ BR SCT026 BKN031 OVC080 13/13 A3019 RMK AO2 RAB00E16DZB16 P0000 $=
201201090352 METAR KATL 090352Z 00000KT 8SM BCFG BKN024 OVC080 13/13 A3020 RMK AO2 SLP225 T01330128 $=
201201090331 SPECI KATL 090331Z 13003KT 10SM BKN024 BKN080 BKN250 13/12 A3020 RMK AO2 $=
201201090331 SPECI KATL 090331Z 13003KT 10SM BKN024 BKN080 BKN250 13/12 A3020 RMK AO2 $=
201201090252 METAR KATL 090252Z 00000KT 10SM FEW024 SCT036 BKN110 BKN250 13/12 A3019 RMK AO2 SLP223 T01330122 50003 $=
201201090152 METAR KATL 090152Z 00000KT 10SM SCT021 BKN030 14/12 A3020 RMK AO2 SLP225 T01390122 $=
201201090052 METAR KATL 090052Z 19003KT 10SM FEW041 SCT100 BKN250 13/12 A3019 RMK AO2 SLP222 T01330122 $=
201201082352 METAR KATL 082352Z 00000KT 10SM FEW037 SCT100 BKN250 14/13 A3018 RMK AO2 SLP220 60015 T01390128 10161 20133 53007 $=
201201082252 METAR KATL 082252Z 20003KT 8SM FEW041 SCT085 SCT150 BKN250 14/13 A3017 RMK AO2 SLP216 T01440128 $=
201201082152 METAR KATL 082152Z 19003KT 7SM FEW020 BKN080 BKN120 16/14 A3016 RMK AO2 RAE33 SLP213 TCU DSNT S-SW P0004 T01560139 $=
201201082104 SPECI KATL 082104Z 20003KT 3SM -RA BR FEW008 SCT055 OVC080 16/13 A3016 RMK AO2 SFC VIS 5 P0002 $=
201201082104 SPECI KATL 082104Z 20003KT 3SM -RA BR FEW008 SCT055 OVC080 16/13 A3016 RMK AO2 SFC VIS 5 P0002 $=
201201082052 METAR KATL 082052Z 31003KT 2SM RA BR FEW008 BKN055 OVC070 16/14 A3016 RMK AO2 TWR VIS 3 SLP213 P0009 60011 T01560139 56007 $=
201201082038 SPECI KATL 082038Z 00000KT 2SM RA BR FEW008 BKN060 OVC080 16/14 A3016 RMK AO2 TWR VIS 3 P0007 $=
201201082038 SPECI KATL 082038Z 00000KT 2SM RA BR FEW008 BKN060 OVC080 16/14 A3016 RMK AO2 TWR VIS 3 P0007 $=
201201082031 SPECI KATL 082031Z 28003KT 3SM -RA BR FEW008 BKN065 OVC080 16/14 A3016 RMK AO2 P0003 $=
201201082031 SPECI KATL 082031Z 28003KT 3SM -RA BR FEW008 BKN065 OVC080 16/14 A3016 RMK AO2 P0003 $=
201201081952 METAR KATL 081952Z 28004KT 6SM -RA BR FEW043 BKN050 OVC080 16/14 A3016 RMK AO2 RAE03B21 SLP213 P0001 T01610139 $=
201201081903 SPECI KATL 081903Z 23004KT 7SM SCT013 BKN080 OVC095 16/13 A3016 RMK AO2 RAE03 P0000 $=
201201081903 SPECI KATL 081903Z 23004KT 7SM SCT013 BKN080 OVC095 16/13 A3016 RMK AO2 RAE03 P0000 $=
201201081852 METAR KATL 081852Z COR 22004KT 7SM -RA SCT011 BKN075 OVC090 16/13 A3016 RMK AO2 SLP212 RAB37 P0001 T01560128 $=
201201081835 SPECI KATL 081835Z 21005KT 7SM BKN011 BKN014 OVC070 16/13 A3016 RMK AO2 RAE26 P0001 $=
201201081835 SPECI KATL 081835Z 21005KT 7SM BKN011 BKN014 OVC070 16/13 A3016 RMK AO2 RAE26 P0001 $=
201201081801 SPECI KATL 081801Z 22003KT 5SM -RA BR OVC008 15/13 A3018 RMK AO2 P0001 $=
201201081801 SPECI KATL 081801Z 22003KT 5SM -RA BR OVC008 15/13 A3018 RMK AO2 P0001 $=
201201081752 METAR KATL 081752Z 21006KT 10SM -RA OVC010 15/13 A3018 RMK AO2 RAB36 SLP220 P0000 60000 T01500128 10156 20111 58012 $=
201201081735 SPECI KATL 081735Z 22006KT 8SM OVC010 15/12 A3019 RMK AO2 $=
201201081735 SPECI KATL 081735Z 22006KT 8SM OVC010 15/12 A3019 RMK AO2 $=
201201081652 METAR KATL 081652Z 19006KT 6SM HZ OVC006 15/12 A3021 RMK AO2 SLP228 T01500122=
201201081646 SPECI KATL 081646Z 23004KT 2SM BR OVC006 14/12 A3021 RMK AO2 SFC VIS 6 TWRINC=
201201081646 SPECI KATL 081646Z 23004KT 2SM BR OVC006 14/12 A3021 RMK AO2 SFC VIS 6 TWRINC=
201201081629 SPECI KATL 081629Z 22006KT 2SM BR OVC004 14/12 A3021 RMK AO2 SFC VIS 6 TWRINC=
201201081629 SPECI KATL 081629Z 22006KT 2SM BR OVC004 14/12 A3021 RMK AO2 SFC VIS 6 TWRINC=
201201081621 SPECI KATL 081621Z 20005KT 1SM BR OVC004 14/12 A3021 RMK AO2 SFC VIS 6 TWRINC=
201201081621 SPECI KATL 081621Z 20005KT 1SM BR OVC004 14/12 A3021 RMK AO2 SFC VIS 6 TWRINC=
201201081604 SPECI KATL 081604Z 22005KT 1/2SM BR OVC002 13/12 A3022 RMK AO2 SFC VIS 5 TWRIN SFC VSBY 4V6=
201201081604 SPECI KATL 081604Z 22005KT 1/2SM BR OVC002 13/12 A3022 RMK AO2 SFC VIS 5 TWRIN SFC VSBY 4V6=
201201081552 METAR KATL 081552Z 22004KT 1/4SM R09R/4500VP6000FT BR OVC002 13/12 A3022 RMK AO2 SFC VIS 2 1/2 VIS 1 1/2V5 SLP234 T01330122=
201201081452 METAR KATL 081452Z 24005KT 1/4SM R09R/2600V5000FT BR OVC002 13/12 A3021 RMK AO2 SFC VIS 3/4 SLP230 TWRINC T01280122 53015=
201201081413 SPECI KATL 081413Z 22006KT 1/4SM R09R/1200V2400FT FG VV002 13/12 A3019 RMK AO2 TWR VIS 1/4=
201201081413 SPECI KATL 081413Z 22006KT 1/4SM R09R/1200V2400FT FG VV002 13/12 A3019 RMK AO2 TWR VIS 1/4=
201201081405 SPECI KATL 081405Z 21005KT 1/4SM R09R/1200V1800FT FG BKN002 OVC010 12/12 A3018 RMK AO2 SFC VIS 1/2 VSBY 1/4 E-S=
201201081405 SPECI KATL 081405Z 21005KT 1/4SM R09R/1200V1800FT FG BKN002 OVC010 12/12 A3018 RMK AO2 SFC VIS 1/2 VSBY 1/4 E-S=
201201081352 METAR KATL 081352Z 22003KT 1/4SM R09R/1800V3500FT FG VV002 12/12 A3018 RMK AO2 SLP219 T01220117=
201201081336 SPECI KATL 081336Z 22003KT 1/4SM R09R/1000V2400FT FG VV002 12/11 A3018 RMK AO2 TWR VIS 1/4=
201201081336 SPECI KATL 081336Z 22003KT 1/4SM R09R/1000V2400FT FG VV002 12/11 A3018 RMK AO2 TWR VIS 1/4=
201201081311 SPECI KATL 081311Z 22003KT 1/16SM R09R/1000V1400FT FG VV002 12/11 A3017 RMK AO2 TWR VIS 1/4=
201201081311 SPECI KATL 081311Z 22003KT 1/16SM R09R/1000V1400FT FG VV002 12/11 A3017 RMK AO2 TWR VIS 1/4=
201201081252 METAR KATL 081252Z 00000KT 1/4SM R09R/1400V2200FT FG VV002 11/11 A3017 RMK AO2 TWR VIS 1/4 SLP215 T01110106=
201201081231 SPECI KATL 081231Z 21003KT 1/4SM R09R/3000VP6000FT BR OVC002 11/10 A3016 RMK AO2 SFC VIS 3/4=
201201081231 SPECI KATL 081231Z 21003KT 1/4SM R09R/3000VP6000FT BR OVC002 11/10 A3016 RMK AO2 SFC VIS 3/4=
201201081224 SPECI KATL 081224Z 21003KT 1SM BR OVC004 11/10 A3016 RMK AO2 SFC VIS 4=
201201081224 SPECI KATL 081224Z 21003KT 1SM BR OVC004 11/10 A3016 RMK AO2 SFC VIS 4=
201201081152 METAR KATL 081152Z 00000KT 6SM BR OVC007 11/10 A3017 RMK AO2 SLP214 T01110100 10117 20089 53008=
201201081052 METAR KATL 081052Z 26003KT 8SM BKN009 OVC011 11/09 A3016 RMK AO2 SLP211 T01110094=
201201081043 SPECI KATL 081043Z 25004KT 8SM BKN009 OVC011 11/09 A3015 RMK AO2=
201201081043 SPECI KATL 081043Z 25004KT 8SM BKN009 OVC011 11/09 A3015 RMK AO2=
201201080952 METAR KATL 080952Z 25003KT 10SM BKN013 11/09 A3014 RMK AO2 SLP206 T01060089=
201201080938 SPECI KATL 080938Z 25003KT 10SM BKN013 10/09 A3014 RMK AO2=
201201080938 SPECI KATL 080938Z 25003KT 10SM BKN013 10/09 A3014 RMK AO2=
201201080852 METAR KATL 080852Z 21003KT 10SM FEW023 10/08 A3014 RMK AO2 SLP204 T01000083 55004=
201201080752 METAR KATL 080752Z 20003KT 10SM FEW041 BKN095 10/09 A3014 RMK AO2 SLP203 T01000089=
201201080652 METAR KATL 080652Z 00000KT 10SM FEW034 BKN100 10/09 A3014 RMK AO2 SLP203 T01000089=
201201080552 METAR KATL 080552Z 34006KT 10SM FEW030TCU BKN040 BKN250 12/09 A3015 RMK AO2 SLP208 TCU N-NE T01170094 10150 20106 53008=
201201080452 METAR KATL 080452Z 00000KT 10SM FEW030 SCT090 SCT250 11/08 A3014 RMK AO2 SLP203 T01110083 402060100=
201201080352 METAR KATL 080352Z 00000KT 10SM FEW090 SCT250 12/08 A3013 RMK AO2 SLP202 T01170083=
201201080252 METAR KATL 080252Z 00000KT 10SM FEW040 SCT090 SCT250 13/09 A3013 RMK AO2 SLP200 T01330089 51008=
201201080152 METAR KATL 080152Z 35006KT 10SM FEW030 BKN040 BKN090 BKN250 14/09 A3012 RMK AO2 SLP200 T01440089=
201201080052 METAR KATL 080052Z 36014KT 10SM FEW030 BKN090 BKN250 15/10 A3013 RMK AO2 SLP200 CB DSNT N T01500100=
201201072352 METAR KATL 072352Z 23004KT 10SM FEW100 SCT150 SCT250 15/10 A3010 RMK AO2 SLP192 OCNL LTG DSNT NW-N CB DSNT NW-N T01500100 10206 20150 53014=
201201072252 METAR KATL 072252Z 23005KT 10SM FEW030 SCT150 BKN250 17/11 A3008 RMK AO2 SLP183 CB DSNT NW-N T01670111=
201201072152 METAR KATL 072152Z 24007KT 10SM SCT032TCU BKN038 18/10 A3007 RMK AO2 SLP180 TCU N AND NE T01830100=
201201072052 METAR KATL 072052Z 27007KT 10SM SCT035 BKN100 18/11 A3006 RMK AO2 SLP177 MDT CU SW AND NW-E T01830106 55007=
201201071952 METAR KATL 071952Z 26010KT 10SM SCT034 BKN044 BKN095 19/11 A3005 RMK AO2 SLP175 T01940106=
201201071852 METAR KATL 071852Z 26011KT 10SM FEW030 SCT037 BKN090 20/11 A3006 RMK AO2 SLP177 T02000106=
201201071752 METAR KATL 071752Z 26008KT 10SM FEW025 SCT034 OVC044 19/12 A3008 RMK AO2 SLP184 60000 T01890117 10189 20117 58007=
201201071744 SPECI KATL 071744Z 26006KT 10SM SCT025 BKN033 OVC042 18/11 A3009 RMK AO2=
201201071744 SPECI KATL 071744Z 26006KT 10SM SCT025 BKN033 OVC042 18/11 A3009 RMK AO2=
201201071719 SPECI KATL 071719Z 26011KT 10SM SCT025 BKN028 17/11 A3009 RMK AO2=
201201071719 SPECI KATL 071719Z 26011KT 10SM SCT025 BKN028 17/11 A3009 RMK AO2=
201201071652 METAR KATL 071652Z 26011KT 10SM SCT019 SCT050 18/11 A3010 RMK AO2 SLP190 T01830111=
201201071618 SPECI KATL 071618Z 27010KT 10SM SCT015 SCT025 BKN050 17/12 A3011 RMK AO2=
201201071618 SPECI KATL 071618Z 27010KT 10SM SCT015 SCT025 BKN050 17/12 A3011 RMK AO2=
201201071552 METAR KATL 071552Z 27010G17KT 10SM FEW008 BKN027 BKN048 16/11 A3012 RMK AO2 SLP198 T01610111=
201201071543 SPECI KATL 071543Z 24007G15KT 10SM FEW008 BKN027 BKN048 16/12 A3012 RMK AO2=
201201071543 SPECI KATL 071543Z 24007G15KT 10SM FEW008 BKN027 BKN048 16/12 A3012 RMK AO2=
201201071452 METAR KATL 071452Z 24009KT 10SM FEW008 SCT048 SCT100 14/11 A3010 RMK AO2 SLP193 60000 T01390111 53016=
201201071445 SPECI KATL 071445Z 25009KT 9SM FEW008 BKN048 BKN100 13/11 A3010 RMK AO2=
201201071445 SPECI KATL 071445Z 25009KT 9SM FEW008 BKN048 BKN100 13/11 A3010 RMK AO2=
201201071352 METAR KATL 071352Z 23005KT 8SM FEW065 BKN075 BKN095 12/11 A3008 RMK AO2 RAB1254E15 SLP185 P0000 T01220106=
201201071252 METAR KATL 071252Z 24006KT 8SM FEW060 SCT080 BKN100 12/09 A3007 RMK AO2 SLP183 T01170094 $=
201201071152 METAR KATL 071152Z COR 23006KT 10SM SCT060 BKN090 12/09 A3005 RMK AO2 SLP177 T01220094 10128 20100 55000 $=
201201071052 METAR KATL 071052Z 23006KT 10SM SCT033 BKN040 OVC085 12/09 A3005 RMK AO2 SLP175 T01220089=
201201070952 METAR KATL 070952Z 23006KT 10SM BKN032 BKN040 OVC075 12/07 A3005 RMK AO2 SLP173 T01170072=
201201070852 METAR KATL 070852Z 23007KT 10SM FEW047 BKN055 BKN070 12/07 A3005 RMK AO2 SLP175 T01170067 56001=
201201070752 METAR KATL 070752Z 24007KT 10SM BKN065 11/06 A3006 RMK AO2 SLP177 T01110056=
201201070652 METAR KATL 070652Z 24005KT 10SM SCT150 SCT250 10/04 A3005 RMK AO2 SLP174 T01000039=
201201070552 METAR KATL 070552Z 23005KT 10SM OVC250 10/03 A3006 RMK AO2 SLP178 T01000028 10133 20100 56003=
201201070452 METAR KATL 070452Z 24004KT 10SM OVC250 11/02 A3006 RMK AO2 SLP179 T01060022 401940017=
201201070352 METAR KATL 070352Z 23004KT 10SM BKN250 11/01 A3006 RMK AO2 SLP181 T01060006=
201201070252 METAR KATL 070252Z 23005KT 10SM BKN250 11/M01 A3007 RMK AO2 SLP183 T01111006 58001=
201201070152 METAR KATL 070152Z 22004KT 10SM BKN250 12/M02 A3007 RMK AO2 SLP185 T01221017=
201201070052 METAR KATL 070052Z 20005KT 10SM BKN250 12/M01 A3007 RMK AO2 SLP186 T01171006=
201201062352 METAR KATL 062352Z 25003KT 10SM FEW200 BKN250 13/M02 A3007 RMK AO2 SLP186 T01331017 10194 20133 51004=
201201062252 METAR KATL 062252Z 27004KT 10SM FEW200 SCT250 15/M03 A3007 RMK AO2 SLP185 T01501033=
201201062152 METAR KATL 062152Z 27009KT 10SM FEW200 SCT250 18/M04 A3007 RMK AO2 SLP183 T01781044=
201201062052 METAR KATL 062052Z 30009KT 10SM FEW200 SCT250 19/M05 A3006 RMK AO2 SLP180 T01891050 56016=
201201061952 METAR KATL 061952Z VRB06KT 10SM FEW200 19/M06 A3006 RMK AO2 SLP179 T01941056=
201201061852 METAR KATL 061852Z 27008KT 10SM FEW200 18/M03 A3008 RMK AO2 SLP187 T01831028 $=
201201061752 METAR KATL 061752Z COR 28007KT 10SM FEW200 16/M01 A3011 RMK AO2 SLP196 T01561011 10156 20033 58020 $=
201201061652 METAR KATL 061652Z COR 28009KT 10SM FEW250 13/01 A3015 RMK AO2 SLP210 T01330011 $=
201201061552 METAR KATL 061552Z 28005KT 10SM FEW250 13/01 A3018 RMK AO2 SLP220 T01280006 $=
201201061452 METAR KATL 061452Z 26007KT 10SM CLR 12/02 A3017 RMK AO2 SLP217 T01220017 53016 $=
201201061352 METAR KATL 061352Z 25006KT 10SM CLR 07/01 A3015 RMK AO2 SLP212 T00720011 $=
201201061252 METAR KATL 061252Z 26007KT 10SM CLR 04/M01 A3013 RMK AO2 SLP204 T00441006 $=
201201061152 METAR KATL 061152Z 25009KT 10SM CLR 03/M01 A3012 RMK AO2 SLP203 T00331011 10072 20017 53002 $=
201201061052 METAR KATL 061052Z 26004KT 10SM CLR 03/M01 A3011 RMK AO2 SLP199 T00331011 $=
201201060952 METAR KATL 060952Z 26007KT 10SM CLR 06/M01 A3010 RMK AO2 SLP194 T00561011 $=
201201060852 METAR KATL 060852Z 26005KT 10SM CLR 04/M01 A3011 RMK AO2 SLP199 T00391011 58004 $=
201201060752 METAR KATL 060752Z 00000KT 10SM CLR 04/M02 A3012 RMK AO2 SLP200 T00441017 $=
201201060652 METAR KATL 060652Z 24004KT 10SM CLR 05/M02 A3012 RMK AO2 SLP203 T00501017 $=
201201060552 METAR KATL 060552Z 27005KT 10SM CLR 07/M02 A3013 RMK AO2 SLP203 T00721017 10122 20056 58006 $=
201201060452 METAR KATL 060452Z 25005KT 10SM CLR 06/M02 A3014 RMK AO2 SLP207 T00611022 401670022 $=
201201060352 METAR KATL 060352Z 26006KT 10SM CLR 07/M03 A3014 RMK AO2 SLP209 T00721033 $=
201201060252 METAR KATL 060252Z 29007KT 10SM CLR 09/M04 A3014 RMK AO2 SLP211 T00941044 52002 $=
201201060152 METAR KATL 060152Z 29008KT 10SM CLR 11/M04 A3014 RMK AO2 SLP209 T01061039 $=
201201060052 METAR KATL 060052Z 30008KT 10SM CLR 12/M04 A3014 RMK AO2 SLP212 T01171039 $=
201201052352 METAR KATL 052352Z 26005KT 10SM CLR 12/M04 A3014 RMK AO2 SLP209 T01171044 10167 20117 53002 $=
201201052252 METAR KATL 052252Z 27006KT 10SM FEW250 13/M04 A3013 RMK AO2 SLP206 T01331044 $=
201201052152 METAR KATL 052152Z 27006KT 10SM FEW250 16/M03 A3013 RMK AO2 SLP205 T01561033 $=
201201052052 METAR KATL 052052Z 26005KT 10SM FEW250 16/M05 A3013 RMK AO2 SLP204 T01611050 56017 $=
201201051952 METAR KATL 051952Z 30010KT 10SM FEW250 16/M03 A3013 RMK AO2 SLP205 T01611033 $=
201201051852 METAR KATL 051852Z 30012KT 10SM FEW250 15/M02 A3016 RMK AO2 SLP213 T01501022=
201201051752 METAR KATL 051752Z 30014KT 10SM CLR 14/M01 A3018 RMK AO2 SLP223 T01391011 10139 20022 58013 $=
201201051652 METAR KATL 051652Z 29009KT 10SM CLR 12/00 A3021 RMK AO2 SLP233 T01220000=
201201051552 METAR KATL 051552Z 30007KT 10SM CLR 09/00 A3023 RMK AO2 SLP242 T00940000=
201201051452 METAR KATL 051452Z 31009KT 10SM CLR 07/01 A3022 RMK AO2 SLP239 T00720006 53022=
201201051352 METAR KATL 051352Z 28007KT 10SM CLR 05/00 A3019 RMK AO2 SLP228 T00500000=
201201051252 METAR KATL 051252Z 28006KT 10SM CLR 02/M01 A3017 RMK AO2 SLP221 T00221011=
201201051152 METAR KATL 051152Z 28006KT 10SM CLR 03/M02 A3016 RMK AO2 SLP218 T00281017 10056 20028 55000=
201201051052 METAR KATL 051052Z 27007KT 10SM CLR 04/M02 A3015 RMK AO2 SLP213 T00391017=
201201050952 METAR KATL 050952Z 25004KT 10SM CLR 04/M03 A3014 RMK AO2 SLP211 T00391033=
201201050852 METAR KATL 050852Z 27007KT 10SM CLR 04/M04 A3016 RMK AO2 SLP216 T00441039 56007=
201201050752 METAR KATL 050752Z 27008KT 10SM CLR 05/M06 A3016 RMK AO2 SLP217 T00501056=
201201050652 METAR KATL 050652Z 25005KT 10SM CLR 05/M07 A3017 RMK AO2 SLP219 T00501067=
201201050552 METAR KATL 050552Z 24007KT 10SM FEW035 06/M08 A3018 RMK AO2 SLP223 T00561078 10067 20050 58015=
201201050452 METAR KATL 050452Z 25004KT 10SM FEW040 06/M08 A3020 RMK AO2 SLP232 T00561083 401111056=
201201050352 METAR KATL 050352Z 25006KT 10SM FEW040 06/M09 A3022 RMK AO2 SLP238 T00561094=
201201050252 METAR KATL 050252Z 25005KT 10SM FEW250 06/M10 A3022 RMK AO2 SLP241 T00561100 53006=
201201050152 METAR KATL 050152Z 24007KT 10SM FEW250 06/M10 A3021 RMK AO2 SLP238 T00611100=
201201050052 METAR KATL 050052Z 24008KT 10SM FEW250 07/M11 A3021 RMK AO2 SLP240 T00671106=
201201042352 METAR KATL 042352Z 21006KT 10SM FEW250 07/M11 A3020 RMK AO2 SLP237 T00671106 10111 20067 53001=
201201042252 METAR KATL 042252Z 23004KT 10SM FEW150 SCT250 08/M12 A3020 RMK AO2 SLP235 T00831117=
201201042152 METAR KATL 042152Z 22008KT 10SM FEW100 SCT200 SCT250 10/M13 A3020 RMK AO2 SLP235 T01001128=
201201042052 METAR KATL 042052Z 24011KT 10SM FEW100 SCT200 BKN250 11/M13 A3020 RMK AO2 SLP233 T01061128 56022 $=
201201041952 METAR KATL 041952Z 28009G14KT 10SM BKN250 11/M13 A3022 RMK AO2 SLP240 T01061128=
201201041852 METAR KATL 041852Z 25009KT 10SM BKN250 10/M14 A3024 RMK AO2 SLP246 T01001139=
201201041752 METAR KATL 041752Z 23007KT 10SM FEW250 09/M16 A3027 RMK AO2 SLP257 T00891161 10089 21050 58037 $=
201201041652 METAR KATL 041652Z 24008KT 10SM FEW250 07/M16 A3032 RMK AO2 SLP275 T00721161 $=
201201041552 METAR KATL 041552Z 22005KT 10SM FEW250 04/M13 A3036 RMK AO2 SLP290 T00441133 $=
201201041452 METAR KATL 041452Z COR 00000KT 10SM FEW250 02/M12 A3038 RMK AO2 SLP298 T00171122 50003 $=
201201041352 METAR KATL 041352Z 28005KT 10SM FEW250 M02/M11 A3038 RMK AO2 SLP301 T10221111 $=
201201041252 METAR KATL 041252Z 28005KT 10SM FEW250 M04/M12 A3037 RMK AO2 SLP298 T10441117 $=
201201041152 METAR KATL 041152Z 28010KT 10SM CLR M05/M12 A3037 RMK AO2 SLP297 T10501117 11033 21056 51006 $=
201201041052 METAR KATL 041052Z 30010KT 10SM CLR M05/M12 A3037 RMK AO2 SLP296 T10501117 $=
201201040952 METAR KATL 040952Z 29008KT 10SM CLR M05/M12 A3035 RMK AO2 SLP291 T10501117 $=
201201040852 METAR KATL 040852Z 28009KT 10SM CLR M04/M12 A3035 RMK AO2 SLP289 T10441117 55000 $=
201201040752 METAR KATL 040752Z 27006KT 10SM CLR M04/M12 A3035 RMK AO2 SLP288 T10441122 $=
201201040652 METAR KATL 040652Z 29006KT 10SM CLR M04/M12 A3034 RMK AO2 SLP287 T10391122 $=
201201040552 METAR KATL 040552Z 29007KT 10SM CLR M03/M12 A3035 RMK AO2 SLP289 T10331122 11011 21039 50000 $=
201201040452 METAR KATL 040452Z 28009KT 10SM CLR M04/M13 A3035 RMK AO2 SLP291 T10391128 400171056 $=
201201040352 METAR KATL 040352Z 29007KT 10SM CLR M03/M13 A3035 RMK AO2 SLP291 T10281128 $=
201201040252 METAR KATL 040252Z 29007KT 10SM CLR M03/M13 A3035 RMK AO2 SLP291 T10281128 50001 $=
201201040152 METAR KATL 040152Z 29011KT 10SM CLR M02/M13 A3035 RMK AO2 SLP292 T10221133 $=
201201040052 METAR KATL 040052Z 30009KT 10SM CLR M02/M13 A3035 RMK AO2 SLP292 T10171133 $=
201201032352 METAR KATL 032352Z 29010KT 10SM CLR M01/M13 A3035 RMK AO2 SLP290 T10111133 10017 21011 58001 $=
201201032252 METAR KATL 032252Z 30011KT 10SM CLR M01/M14 A3036 RMK AO2 SLP293 T10061144 $=
201201032152 METAR KATL 032152Z 29012KT 10SM FEW250 01/M15 A3036 RMK AO2 SLP291 T00111150 $=
201201032052 METAR KATL 032052Z 29012G16KT 10SM FEW250 01/M15 A3035 RMK AO2 SLP289 T00111150 55012 $=
201201031952 METAR KATL 031952Z 30010KT 10SM FEW250 01/M14 A3035 RMK AO2 SLP287 T00061144 $=
201201031852 METAR KATL 031852Z 32011G17KT 10SM FEW250 01/M13 A3036 RMK AO2 SLP291 T00061133 $=
201201031752 METAR KATL 031752Z 30013KT 10SM FEW055 M01/M14 A3039 RMK AO2 SLP301 T10061139 11006 21056 58015 $=
201201031652 METAR KATL 031652Z 30013KT 10SM FEW050 M02/M14 A3042 RMK AO2 SLP312 T10171139 $=
201201031552 METAR KATL 031552Z 34010KT 10SM FEW045 SCT250 M03/M14 A3044 RMK AO2 SLP319 T10281139 $=
201201031452 METAR KATL 031452Z 34011KT 10SM FEW040 SCT250 M04/M14 A3043 RMK AO2 SLP318 T10391144 53028 $=
201201031352 METAR KATL 031352Z 32017G23KT 10SM FEW050 M05/M14 A3040 RMK AO2 SLP307 T10501144=
201201031252 METAR KATL 031252Z 31015KT 10SM CLR M06/M15 A3037 RMK AO2 SLP296 T10561150=
201201031152 METAR KATL 031152Z 33017KT 10SM CLR M06/M16 A3035 RMK AO2 SLP288 60000 T10561156 11017 21056 53025 $=
201201031122 METAR KATL 031122Z COR 35018G24KT 10SM FEW057 M04/M15 A3032=
201201031052 METAR KATL 031052Z COR 35018G24KT 10SM FEW057 M04/M15 A3032 RMK AO2 SNB18E27 SLP276 P0000 T10441150 $=
201201030952 METAR KATL 030952Z 34014KT 10SM SCT047 M04/M15 A3029 RMK AO2 PK WND 31028/0924 SLP267 T10391150 $=
201201030852 METAR KATL 030852Z 33017G26KT 10SM SCT060 M04/M16 A3027 RMK AO2 PK WND 32031/0832 SLP259 60000 T10391161 53008 $=
201201030752 METAR KATL 030752Z 33016G22KT 10SM SCT041 SCT060 M03/M12 A3026 RMK AO2 SLP256 T10331117 $=
201201030652 METAR KATL 030652Z 32016G21KT 10SM SCT042 SCT060 M03/M10 A3026 RMK AO2 PK WND 33029/0629 SNB26E41 SLP253 P0000 T10331100 $=
201201030552 METAR KATL 030552Z 33011G21KT 10SM SCT050 M02/M12 A3025 RMK AO2 PK WND 34028/0514 SLP251 60000 T10171122 10039 21017 51009 $=
201201030452 METAR KATL 030452Z 34017G22KT 10SM SCT055 BKN070 M01/M13 A3024 RMK AO2 SLP247 T10061128 400891006 $=
201201030352 METAR KATL 030352Z 34010G20KT 10SM FEW055 SCT070 M01/M12 A3023 RMK AO2 SLP246 T10061117 $=
201201030252 METAR KATL 030252Z 34016G22KT 10SM FEW055 SCT075 00/M12 A3022 RMK AO2 PK WND 33030/0206 SLP241 60000 T00001117 53034 $=
201201030152 METAR KATL 030152Z COR 34024G30KT 10SM SCT045 BKN055 BKN080 01/M10 A3019 RMK AO2 PK WND 30037/0055 SNB47E52 SLP231 P0000 T00111100 $=
201201030052 METAR KATL 030052Z 31027G37KT 10SM FEW070 BKN085 03/M15 A3014 RMK AO2 PK WND 33037/0049 SLP213 T00281150 $=
201201022352 METAR KATL 022352Z 31020G28KT 10SM FEW070 04/M14 A3012 RMK AO2 PK WND 31034/2333 SLP205 T00391139 10089 20039 53012 $=
201201022252 METAR KATL 022252Z 31019G25KT 10SM FEW060 05/M14 A3009 RMK AO2 PK WND 28034/2222 SLP195 T00501139=
201201022152 METAR KATL 022152Z 31019G25KT 10SM FEW060 07/M14 A3009 RMK AO2 PK WND 28032/2058 SLP193 T00671139=
201201022052 METAR KATL 022052Z 28020G28KT 10SM CLR 08/M13 A3008 RMK AO2 PK WND 28028/2046 SLP191 T00781133 56027=
201201021952 METAR KATL 021952Z 30021G28KT 10SM CLR 08/M14 A3010 RMK AO2 PK WND 30029/1937 SLP197 T00831139=
201201021852 METAR KATL 021852Z 28022G28KT 10SM CLR 08/M13 A3013 RMK AO2 PK WND 29028/1852 SLP205 T00781128=
201201021752 METAR KATL 021752Z 30017G28KT 10SM CLR 07/M12 A3016 RMK AO2 PK WND 30028/1750 SLP218 T00721122 10078 20017 58023=
201201021652 METAR KATL 021652Z 29016G27KT 10SM CLR 07/M11 A3020 RMK AO2 PK WND 33028/1626 SLP229 T00671111=
201201021552 METAR KATL 021552Z 30016KT 10SM CLR 06/M11 A3023 RMK AO2 PK WND 32027/1519 SLP239 T00561106=
201201021452 METAR KATL 021452Z 32011G20KT 10SM CLR 04/M09 A3023 RMK AO2 PK WND 31026/1437 SLP242 T00441094 52015=
201201021352 METAR KATL 021352Z 31009G21KT 10SM CLR 03/M09 A3022 RMK AO2 SLP237 T00281089=
201201021252 METAR KATL 021252Z 31011KT 10SM CLR 02/M09 A3021 RMK AO2 SLP233 T00171094=
201201021152 METAR KATL 021152Z 32012KT 10SM CLR 03/M09 A3019 RMK AO2 SLP226 T00281094 10078 20022 53008=
201201021052 METAR KATL 021052Z 32016G24KT 10SM CLR 03/M08 A3018 RMK AO2 PK WND 32027/1030 SLP223 T00331083=
201201020952 METAR KATL 020952Z 33012G19KT 10SM CLR 04/M08 A3017 RMK AO2 SLP217 T00441078=
201201020852 METAR KATL 020852Z 34014G20KT 10SM CLR 06/M06 A3017 RMK AO2 SLP216 T00561056 55001=
201201020752 METAR KATL 020752Z 31014KT 10SM CLR 06/M05 A3016 RMK AO2 SLP214 T00611050=
201201020652 METAR KATL 020652Z 32011KT 10SM CLR 07/M04 A3017 RMK AO2 SLP217 T00671039=
201201020552 METAR KATL 020552Z 32013G22KT 10SM CLR 08/M02 A3017 RMK AO2 SLP217 T00781022 10139 20078 58005=
201201020452 METAR KATL 020452Z 32012KT 10SM CLR 08/M02 A3018 RMK AO2 SLP222 T00831017 401830056=
201201020352 METAR KATL 020352Z 32011KT 10SM CLR 09/M01 A3018 RMK AO2 SLP221 T00941011=
201201020252 METAR KATL 020252Z 32012G20KT 10SM CLR 11/M01 A3018 RMK AO2 SLP220 T01061011 51018=
201201020152 METAR KATL 020152Z 31015G22KT 10SM CLR 11/M01 A3018 RMK AO2 SLP219 T01111006=
201201020052 METAR KATL 020052Z 30015G20KT 10SM CLR 12/01 A3016 RMK AO2 SLP213 T01220006=
201201012352 METAR KATL 012352Z 31014G22KT 10SM CLR 14/02 A3013 RMK AO2 SLP203 T01390022 10183 20139 53029=
201201012252 METAR KATL 012252Z 30012G18KT 10SM FEW030 16/04 A3009 RMK AO2 SLP190 T01560044=
201201012152 METAR KATL 012152Z 29011KT 10SM FEW020 18/03 A3006 RMK AO2 SLP177 T01830028=
201201012052 METAR KATL 012052Z 25007KT 10SM SCT017 17/12 A3004 RMK AO2 SLP172 T01720122 56005=
201201012038 SPECI KATL 012038Z 24010G17KT 10SM FEW017 SCT029 18/12 A3004 RMK AO2=
201201012038 SPECI KATL 012038Z 24010G17KT 10SM FEW017 SCT029 18/12 A3004 RMK AO2=
201201011959 SPECI KATL 011959Z 25010KT 10SM SCT015 BKN021 BKN042 18/13 A3004 RMK AO2=
201201011959 SPECI KATL 011959Z 25010KT 10SM SCT015 BKN021 BKN042 18/13 A3004 RMK AO2=
201201011952 METAR KATL 011952Z 24009KT 10SM SCT015 BKN042 BKN055 17/13 A3005 RMK AO2 SLP174 T01720128=
201201011927 SPECI KATL 011927Z 24010G16KT 10SM SCT013 SCT018 BKN023 17/13 A3005 RMK AO2=
201201011927 SPECI KATL 011927Z 24010G16KT 10SM SCT013 SCT018 BKN023 17/13 A3005 RMK AO2=
201201011904 SPECI KATL 011904Z 24009G16KT 10SM BKN011 OVC018 16/13 A3005 RMK AO2=
201201011904 SPECI KATL 011904Z 24009G16KT 10SM BKN011 OVC018 16/13 A3005 RMK AO2=
201201011852 METAR KATL 011852Z 24009G17KT 10SM BKN009 OVC015 16/13 A3006 RMK AO2 SLP179 T01560128=
201201011752 METAR KATL 011752Z 24010G19KT 7SM OVC007 15/13 A3008 RMK AO2 SLP188 T01500128 10156 20083 58016=
201201011652 METAR KATL 011652Z 24014KT 10SM OVC009 15/12 A3010 RMK AO2 SLP191 T01500122=
201201011635 SPECI KATL 011635Z 23010G19KT 10SM OVC009 15/12 A3010 RMK AO2=
201201011635 SPECI KATL 011635Z 23010G19KT 10SM OVC009 15/12 A3010 RMK AO2=
201201011552 METAR KATL 011552Z 23010KT 10SM OVC011 15/12 A3013 RMK AO2 SLP202 T01500122=
201201011452 METAR KATL 011452Z 23016G21KT 10SM OVC013 16/12 A3013 RMK AO2 SLP203 T01560117 53001=
201201011420 SPECI KATL 011420Z 24012G20KT 10SM BKN019 BKN026 15/12 A3013 RMK AO2=
201201011420 SPECI KATL 011420Z 24012G20KT 10SM BKN019 BKN026 15/12 A3013 RMK AO2=
201201011352 METAR KATL 011352Z 22010KT 10SM FEW043 SCT060 BKN150 14/11 A3012 RMK AO2 SLP200 T01390111=
201201011252 METAR KATL 011252Z 24008KT 10SM SCT030 SCT150 11/09 A3012 RMK AO2 SLP202 T01060089=
