##########################################################
# Query made at 04/19/2024 23:27:25 UTC
# Time interval: from 05/01/2012 12:00  to 05/31/2012 12:59  UTC
##########################################################

##########################################################
# KATL, Atlanta, Hartsfield - Jackson Atlanta International Airport (United States)
# WMO index: 72219. WIGOS ID: 0-20000-0-72219
# Latitude 33-38-59N. Longitude 084-25-00W. Altitude 312 m.
##########################################################

201205311252 METAR KATL 311252Z 00000KT 10SM BKN200 23/17 A2989 RMK AO2 SLP111 T02330167=
201205311152 METAR KATL 311152Z 00000KT 10SM FEW150 BKN200 23/15 A2988 RMK AO2 SLP107 T02330150 10244 20206 53004=
201205311052 METAR KATL 311052Z 00000KT 10SM FEW150 BKN200 22/16 A2988 RMK AO2 SLP105 T02170156=
201205310952 METAR KATL 310952Z 00000KT 10SM FEW150 BKN180 23/14 A2987 RMK AO2 SLP102 T02330139=
201205310852 METAR KATL 310852Z 00000KT 10SM BKN200 21/15 A2987 RMK AO2 SLP103 T02060150 53001=
201205310752 METAR KATL 310752Z 00000KT 9SM BKN200 22/14 A2986 RMK AO2 SLP101 T02220139=
201205310652 METAR KATL 310652Z 00000KT 10SM SCT200 22/14 A2987 RMK AO2 SLP103 T02220144=
201205310552 METAR KATL 310552Z 00000KT 10SM SCT200 23/14 A2987 RMK AO2 SLP103 T02330139 10300 20228 58000=
201205310452 METAR KATL 310452Z 00000KT 10SM SCT200 24/14 A2988 RMK AO2 SLP106 T02440139 403280189=
201205310352 METAR KATL 310352Z 31005KT 10SM FEW200 24/14 A2988 RMK AO2 SLP107 T02440139=
201205310252 METAR KATL 310252Z VRB05KT 10SM FEW250 26/13 A2987 RMK AO2 SLP104 T02560133 51012=
201205310152 METAR KATL 310152Z 34005KT 10SM FEW250 27/13 A2985 RMK AO2 SLP099 T02720133=
201205310052 METAR KATL 310052Z 33008KT 10SM FEW080 28/14 A2985 RMK AO2 SLP097 T02830139=
201205302352 METAR KATL 302352Z 33010KT 10SM FEW080 SCT250 30/14 A2983 RMK AO2 SLP092 T03000139 10328 20294 53002=
201205302252 METAR KATL 302252Z 34009KT 10SM FEW085 SCT250 31/13 A2982 RMK AO2 SLP087 T03110133=
201205302152 METAR KATL 302152Z 07010KT 10SM FEW090 32/11 A2982 RMK AO2 SLP087 T03220106=
201205302052 METAR KATL 302052Z 01011G14KT 10SM FEW085 SCT250 33/12 A2983 RMK AO2 SLP089 T03280117 56010=
201205301952 METAR KATL 301952Z COR 03009KT 10SM FEW065 SCT250 32/14 A2984 RMK AO2 SLP092 T03220139=
201205301852 METAR KATL 301852Z 34008KT 10SM FEW050 SCT250 31/16 A2985 RMK AO2 SLP096 T03110156=
201205301752 METAR KATL 301752Z 00000KT 10SM FEW040 SCT250 29/17 A2986 RMK AO2 SLP101 T02940172 10294 20189 58008=
201205301652 METAR KATL 301652Z 00000KT 10SM FEW030 SCT250 28/18 A2987 RMK AO2 SLP106 T02780183=
201205301552 METAR KATL 301552Z 32007KT 10SM FEW025 26/18 A2989 RMK AO2 SLP109 T02610183=
201205301527 SPECI KATL 301527Z 36008KT 10SM FEW019 25/18 A2988 RMK AO2=
201205301452 METAR KATL 301452Z 35007KT 10SM BKN014 24/18 A2989 RMK AO2 SLP111 T02390183 51003=
201205301352 METAR KATL 301352Z 34009KT 10SM FEW012 23/18 A2989 RMK AO2 SLP111 T02280183=
201205301252 METAR KATL 301252Z 30009KT 7SM FEW007 SCT020 SCT250 21/18 A2988 RMK AO2 SLP108 T02110178=
201205301152 METAR KATL 301152Z 31006KT 6SM BR FEW005 SCT010 SCT250 19/18 A2988 RMK AO2 SLP108 60007 70012 T01940178 10211 20189 53019=
201205301052 METAR KATL 301052Z 33013KT 6SM BR BKN005 19/17 A2986 RMK AO2 SLP101 T01890172=
201205300949 METAR KATL 300949Z 32008KT 6SM BR BKN005 BKN200 19/18 A2984=
201205300948 SPECI KATL 300948Z 32008KT 6SM BR BKN005 BKN200 19/18 A2984 RMK AO2=
201205300852 METAR KATL 300852Z 26005KT 10SM BKN120 OVC180 19/18 A2982 RMK AO2 SLP088 60007 T01890178 55025=
201205300752 METAR KATL 300752Z COR 07007KT 10SM SCT110 OVC150 20/18 A2981 RMK AO2 RAE32 SLP085 P0002 T02000178=
201205300652 METAR KATL 300652Z 15006KT 10SM -RA OVC110 20/18 A2985 RMK AO2 SLP099 P0005 T02000178=
201205300552 METAR KATL 300552Z 02009G14KT 8SM RA OVC085 21/17 A2990 RMK AO2 TSE44 PRESFR SLP114 TS MOV SE P0005 60005 T02110172 10267 20206 50007=
201205300546 SPECI KATL 300546Z 35007KT 8SM RA OVC085 21/17 A2990 RMK AO2 TSE44 TS MOV SE P0004=
201205300452 METAR KATL 300452Z 35019G24KT 10SM -TSRA FEW015 BKN035CB BKN050 OVC200 23/17 A2991 RMK AO2 WSHFT 0436 TSB52RAB52 SLP118 OCNL LTGICCG SW-W TS SW-W MOV SE P0000 T02280172 402890222=
201205300352 METAR KATL 300352Z 06006KT 10SM SCT090 SCT250 23/19 A2987 RMK AO2 SLP106 FRQ LTG DSNT W-N T02330189=
201205300252 METAR KATL 300252Z 07008KT 10SM FEW090 23/19 A2986 RMK AO2 SLP102 T02330189 53006=
201205300152 METAR KATL 300152Z 06010KT 10SM FEW090 25/18 A2985 RMK AO2 SLP100 T02500183=
201205300052 METAR KATL 300052Z 06006KT 10SM FEW090 26/18 A2984 RMK AO2 SLP095 T02610183=
201205292352 METAR KATL 292352Z 05007KT 10SM FEW035 27/18 A2984 RMK AO2 SLP094 60000 T02670183 10289 20250 55004=
201205292252 METAR KATL 292252Z 06005KT 10SM FEW035 28/18 A2983 RMK AO2 SLP091 TCU DSNT SE T02780178=
201205292152 METAR KATL 292152Z 07010KT 10SM FEW040 SCT070 28/18 A2984 RMK AO2 SLP094 TCU DSNT SE-S T02830178=
201205292052 METAR KATL 292052Z 06008KT 020V080 10SM FEW040 SCT070 SCT100 28/19 A2985 RMK AO2 SLP098 TCU DSNT E-SE-S 60000 T02780189 56016=
201205291952 METAR KATL 291952Z 06010G18KT 10SM FEW030 SCT070 BKN100 28/19 A2986 RMK AO2 RAB14E24 SLP102 TCU DSNT E-SE & DSNT NW SHRA DSNT S P0000 T02830189=
201205291852 METAR KATL 291852Z 05008KT 10SM FEW030 BKN060 BKN090 26/19 A2988 RMK AO2 SLP109 TCU DSNT E-SE-S & DSNT NW SHRA DSNT E & S & W T02610194=
201205291752 METAR KATL 291752Z 04009KT 10SM FEW030CB BKN040 BKN070 25/19 A2990 RMK AO2 RAB30E42 SLP115 CB W MOV S CB DSNT N & S SHRA W SHRA DSNT N & S P0000 60000 T02500194 10272 20228 56008=
201205291652 METAR KATL 291652Z 03008KT 10SM FEW025TCU BKN030 BKN070 26/19 A2991 RMK AO2 RAB36E45 SLP117 TCU NE-E & S SHRA NE-E & S P0000 T02610194=
201205291552 METAR KATL 291552Z 01010KT 9SM BKN020 BKN030 OVC070 26/19 A2992 RMK AO2 SLP123 SHRA DSNT NE & S-SW T02560194=
201205291522 SPECI KATL 291522Z 03011KT 10SM BKN030 BKN070 BKN110 25/19 A2992 RMK AO2=
201205291452 METAR KATL 291452Z 04012KT 10SM BKN020 BKN070 BKN110 25/19 A2992 RMK AO2 SLP121 T02500194 56007=
201205291406 SPECI KATL 291406Z 05012KT 10SM FEW015 SCT020 BKN070 24/19 A2992 RMK AO2=
201205291352 METAR KATL 291352Z 07013G19KT 10SM FEW015 BKN020 BKN070 24/19 A2992 RMK AO2 SLP122 T02390194=
201205291252 METAR KATL 291252Z 05011KT 10SM BKN015 BKN021 BKN030 24/19 A2994 RMK AO2 SLP127 T02390194=
201205291152 METAR KATL 291152Z 05008KT 10SM BKN015 BKN024 OVC046 23/19 A2994 RMK AO2 SLP128 T02280194 10233 20222 53013=
201205291052 METAR KATL 291052Z 05009KT 8SM FEW013 BKN027 BKN035 22/19 A2993 RMK AO2 SLP124 T02220189=
201205290952 METAR KATL 290952Z 09010KT 10SM SCT016 OVC023 22/19 A2990 RMK AO2 SLP114 T02220189=
201205290852 METAR KATL 290852Z 09011KT 10SM FEW015 BKN018 OVC022 23/19 A2990 RMK AO2 SLP114 T02280189 56014=
201205290752 METAR KATL 290752Z 08010KT 10SM SCT014 BKN021 OVC027 23/19 A2991 RMK AO2 SLP118 T02280194=
201205290652 METAR KATL 290652Z 09011KT 10SM BKN015 OVC018 23/19 A2992 RMK AO2 SLP120 T02280194=
201205290552 METAR KATL 290552Z 08011G19KT 10SM BKN014 OVC019 23/20 A2994 RMK AO2 SLP128 T02330200 10278 20228 58006=
201205290452 METAR KATL 290452Z 07012KT 10SM BKN018 23/19 A2995 RMK AO2 SLP131 T02330194 403110217=
201205290417 SPECI KATL 290417Z 08011KT 10SM BKN017 23/19 A2996 RMK AO2=
201205290352 METAR KATL 290352Z COR 08012KT 10SM FEW015 23/19 A2996 RMK AO2 SLP134 T02330194=
201205290252 METAR KATL 290252Z 08014KT 10SM FEW040 24/19 A2996 RMK AO2 SLP137 T02390189 53012=
201205290152 METAR KATL 290152Z 08011KT 10SM FEW080 25/18 A2995 RMK AO2 SLP131 T02500183=
201205290052 METAR KATL 290052Z 06011KT 10SM FEW080 27/18 A2993 RMK AO2 SLP125 T02670183=
201205282352 METAR KATL 282352Z 06019G23KT 10SM FEW045 SCT080 SCT200 28/18 A2993 RMK AO2 SLP124 CB DSNT NW-N 60000 T02780178 10311 20267 53001=
201205282252 METAR KATL 282252Z 08015G21KT 10SM SCT045TCU BKN070 BKN200 29/17 A2993 RMK AO2 SLP123 TCU NW DSNT NE T02890172=
201205282152 METAR KATL 282152Z 05012G18KT 10SM FEW045TCU SCT070 BKN200 29/20 A2992 RMK AO2 PK WND 04026/2113 WSHFT 2108 RAB10E20 SLP123 CB DSNT NW TCU NW-N P0000 T02890200=
201205282127 SPECI KATL 282127Z 36011KT 10SM SCT045CB BKN070 BKN200 27/19 A2993 RMK AO2 PK WND 04026/2113 WSHFT 2108 RAB10E20 CB W-NW MOV SW TCU DSNT N SHRA W-NW P0000=
201205282052 METAR KATL 282052Z 08012KT 10SM FEW050 BKN090 30/19 A2992 RMK AO2 SLP122 CB DSNT SE T03000189 56019=
201205281952 METAR KATL 281952Z 07013KT 10SM SCT046 BKN080 29/18 A2994 RMK AO2 SLP126 T02940183=
201205281852 METAR KATL 281852Z 04015G19KT 10SM SCT044 BKN070 30/18 A2996 RMK AO2 SLP133 T03000178=
201205281752 METAR KATL 281752Z 06013G20KT 10SM SCT040 BKN070 29/18 A2998 RMK AO2 SLP142 T02890183 10294 20228 58017=
201205281652 METAR KATL 281652Z 06011G17KT 10SM BKN038 28/19 A3000 RMK AO2 SLP148 T02830194=
201205281552 METAR KATL 281552Z 05015KT 10SM FEW028 BKN047 27/19 A3002 RMK AO2 SLP155 T02670189=
201205281511 SPECI KATL 281511Z 06012KT 10SM FEW024 BKN032 25/19 A3003 RMK AO2=
201205281452 METAR KATL 281452Z 09011KT 10SM BKN025 24/19 A3003 RMK AO2 SLP160 T02440189 51001=
201205281352 METAR KATL 281352Z 06010KT 10SM BKN018 24/19 A3003 RMK AO2 SLP159 T02440189=
201205281301 SPECI KATL 281301Z 08012KT 10SM BKN016 23/19 A3004 RMK AO2=
201205281252 METAR KATL 281252Z 08011KT 10SM SCT016 23/19 A3004 RMK AO2 SLP160 T02330189=
201205281152 METAR KATL 281152Z 06012KT 10SM FEW015 23/18 A3003 RMK AO2 SLP158 T02280183 10244 20217 53010=
201205281052 METAR KATL 281052Z 07011KT 10SM FEW200 22/18 A3002 RMK AO2 SLP154 T02170183=
201205280952 METAR KATL 280952Z 07010KT 10SM FEW250 22/18 A3001 RMK AO2 SLP150 T02220183=
201205280852 METAR KATL 280852Z 08011KT 10SM CLR 23/18 A3000 RMK AO2 SLP148 T02280183 56005=
201205280752 METAR KATL 280752Z 09011KT 10SM CLR 23/18 A3000 RMK AO2 SLP148 T02280183=
201205280652 METAR KATL 280652Z 09010KT 10SM CLR 23/18 A3000 RMK AO2 SLP148 T02330178=
201205280552 METAR KATL 280552Z 08009KT 10SM CLR 24/18 A3002 RMK AO2 SLP152 T02440178 10294 20244 58006=
201205280452 METAR KATL 280452Z 07013KT 10SM CLR 26/18 A3003 RMK AO2 SLP156 T02560178 403170228=
201205280352 METAR KATL 280352Z 07011KT 10SM CLR 26/17 A3003 RMK AO2 SLP158 T02610172=
201205280252 METAR KATL 280252Z 07010KT 10SM CLR 27/17 A3003 RMK AO2 SLP159 T02670167 53008=
201205280152 METAR KATL 280152Z 07010KT 10SM FEW250 28/17 A3002 RMK AO2 SLP155 T02780167=
201205280052 METAR KATL 280052Z 05011KT 10SM FEW055 SCT250 28/16 A3002 RMK AO2 SLP153 T02830161=
201205272352 METAR KATL 272352Z 06011KT 10SM FEW055 SCT070 SCT250 29/16 A3001 RMK AO2 SLP151 T02940161 10317 20289 56006=
201205272252 METAR KATL 272252Z 05011G15KT 10SM FEW055 30/16 A3001 RMK AO2 SLP152 T03000161=
201205272152 METAR KATL 272152Z 07008G15KT 10SM SCT055 31/17 A3002 RMK AO2 SLP155 T03060167=
201205272052 METAR KATL 272052Z 06012G18KT 10SM FEW055 32/17 A3003 RMK AO2 SLP156 T03170167 56015=
201205271952 METAR KATL 271952Z 06008G19KT 10SM SCT055 31/17 A3004 RMK AO2 SLP159 T03110167=
201205271852 METAR KATL 271852Z 05011G21KT 10SM FEW060 32/16 A3005 RMK AO2 SLP165 T03170161=
201205271752 METAR KATL 271752Z 07012KT 10SM FEW055 31/17 A3007 RMK AO2 SLP171 T03060167 10311 20233 57013=
201205271652 METAR KATL 271652Z 07015KT 10SM FEW050 30/17 A3008 RMK AO2 SLP176 T03000167=
201205271552 METAR KATL 271552Z 06013G22KT 10SM FEW045 29/17 A3010 RMK AO2 SLP180 T02890172=
201205271452 METAR KATL 271452Z 05014G19KT 10SM FEW038 28/18 A3011 RMK AO2 SLP184 T02780178 58002=
201205271352 METAR KATL 271352Z 08009KT 10SM CLR 26/18 A3012 RMK AO2 SLP189 T02560183=
201205271252 METAR KATL 271252Z 09009KT 10SM CLR 24/18 A3012 RMK AO2 SLP189 T02440183=
201205271152 METAR KATL 271152Z 08009KT 10SM FEW035 23/18 A3012 RMK AO2 SLP186 T02330178 10267 20228 53015=
201205271052 METAR KATL 271052Z 07008KT 10SM CLR 23/17 A3010 RMK AO2 SLP180 T02280172=
201205270952 METAR KATL 270952Z 06005KT 10SM CLR 24/17 A3008 RMK AO2 SLP175 T02390172=
201205270852 METAR KATL 270852Z 08007KT 10SM CLR 23/17 A3007 RMK AO2 SLP171 T02330172 55003=
201205270752 METAR KATL 270752Z 08008KT 10SM FEW060 24/17 A3006 RMK AO2 SLP168 T02440172=
201205270652 METAR KATL 270652Z 07007KT 10SM BKN070 26/17 A3007 RMK AO2 SLP169 T02560167=
201205270552 METAR KATL 270552Z 06005KT 10SM BKN065 BKN090 27/16 A3008 RMK AO2 SLP172 T02670161 10317 20267 58002=
201205270452 METAR KATL 270452Z 06006KT 10SM FEW075 27/16 A3009 RMK AO2 SLP176 T02720156 403390211=
201205270352 METAR KATL 270352Z 06007KT 10SM FEW080 27/16 A3009 RMK AO2 SLP177 T02720156=
201205270252 METAR KATL 270252Z 06007KT 10SM CLR 28/14 A3008 RMK AO2 SLP175 T02830144 53009=
201205270152 METAR KATL 270152Z 07008KT 10SM CLR 29/14 A3007 RMK AO2 SLP172 T02890144=
201205270052 METAR KATL 270052Z COR 06008KT 10SM FEW080 30/13 A3006 RMK AO2 SLP168 T03000133=
201205262352 METAR KATL 262352Z 07010KT 10SM FEW080 32/14 A3006 RMK AO2 SLP166 T03170139 10339 20317 55008=
201205262252 METAR KATL 262252Z 36008KT 10SM FEW080 33/14 A3005 RMK AO2 SLP166 T03280144=
201205262152 METAR KATL 262152Z 03007KT 10SM SCT080 33/14 A3007 RMK AO2 SLP170 T03280144=
201205262052 METAR KATL 262052Z 36005KT 9SM SCT080 34/14 A3008 RMK AO2 SLP174 T03390139 58018=
201205261952 METAR KATL 261952Z VRB05KT 10SM FEW080 33/13 A3010 RMK AO2 SLP181 T03280133=
201205261852 METAR KATL 261852Z 32010G14KT 10SM FEW080 34/15 A3012 RMK AO2 SLP188 T03390150=
201205261752 METAR KATL 261752Z 35008G15KT 320V020 10SM FEW065 32/16 A3014 RMK AO2 SLP193 T03220156 10328 20250 58005=
201205261652 METAR KATL 261652Z 03010G14KT 10SM FEW060 32/16 A3015 RMK AO2 SLP198 T03220161=
201205261552 METAR KATL 261552Z 35003KT 8SM FEW055 31/17 A3016 RMK AO2 SLP201 T03110167=
201205261452 METAR KATL 261452Z 01004KT 9SM CLR 31/17 A3016 RMK AO2 SLP199 T03060167 58001=
201205261352 METAR KATL 261352Z 00000KT 8SM CLR 29/18 A3016 RMK AO2 SLP200 T02890178=
201205261252 METAR KATL 261252Z 07003KT 8SM CLR 27/17 A3016 RMK AO2 SLP202 T02670172=
201205261152 METAR KATL 261152Z 01005KT 8SM CLR 25/17 A3016 RMK AO2 SLP200 T02500167 10267 20211 53009=
201205261052 METAR KATL 261052Z 34004KT 9SM CLR 21/17 A3015 RMK AO2 SLP198 T02110167=
201205260952 METAR KATL 260952Z 04005KT 10SM CLR 24/15 A3013 RMK AO2 SLP191 T02390150=
201205260852 METAR KATL 260852Z 04004KT 10SM CLR 24/15 A3013 RMK AO2 SLP190 T02440150 53004=
201205260752 METAR KATL 260752Z 00000KT 9SM CLR 24/16 A3012 RMK AO2 SLP190 T02390156=
201205260652 METAR KATL 260652Z 00000KT 10SM CLR 25/16 A3012 RMK AO2 SLP187 T02500156=
201205260552 METAR KATL 260552Z 02004KT 10SM FEW250 27/13 A3012 RMK AO2 SLP186 T02670133 10300 20261 50001=
201205260452 METAR KATL 260452Z 05004KT 10SM FEW250 27/15 A3012 RMK AO2 SLP188 T02670150 403220206=
201205260352 METAR KATL 260352Z 06005KT 10SM FEW250 27/16 A3011 RMK AO2 SLP185 T02720156=
201205260252 METAR KATL 260252Z 03005KT 10SM FEW250 29/16 A3011 RMK AO2 SLP184 T02890156 53008=
201205260152 METAR KATL 260152Z 34005KT 10SM FEW250 29/15 A3010 RMK AO2 SLP181 T02890150=
201205260052 METAR KATL 260052Z 33004KT 10SM FEW250 29/16 A3009 RMK AO2 SLP178 T02940156=
201205252352 METAR KATL 252352Z 32007KT 10SM FEW070 30/16 A3009 RMK AO2 SLP177 T03000161 10322 20300 53001=
201205252252 METAR KATL 252252Z 33008KT 10SM FEW070 31/16 A3008 RMK AO2 SLP175 T03110161=
201205252152 METAR KATL 252152Z 00000KT 10SM SCT070 31/15 A3008 RMK AO2 SLP175 T03110150=
201205252052 METAR KATL 252052Z 22003KT 10SM SCT065 31/15 A3008 RMK AO2 SLP176 T03110150 56012=
201205251952 METAR KATL 251952Z 00000KT 10SM SCT065 31/15 A3009 RMK AO2 SLP179 T03060150=
201205251852 METAR KATL 251852Z 00000KT 10SM SCT060 31/16 A3011 RMK AO2 SLP185 T03110156=
201205251752 METAR KATL 251752Z VRB03KT 10SM FEW060 31/16 A3012 RMK AO2 SLP187 TCU DSNT NW-N T03060156 10311 20217 58002=
201205251652 SPECI KATL 251652Z 30003KT 10SM FEW050 30/16 A3013 RMK AO2 SLP190 T03000161=
201205251652 METAR KATL 251652Z 30003KT 10SM FEW050 30/16 A3013 RMK AO2 SLP190 T03000161=
201205251552 METAR KATL 251552Z 00000KT 10SM CLR 29/17 A3013 RMK AO2 SLP192 T02890167=
201205251452 METAR KATL 251452Z VRB03KT 10SM CLR 27/18 A3013 RMK AO2 SLP191 T02720178 51008=
201205251352 METAR KATL 251352Z 20004KT 10SM FEW250 25/18 A3013 RMK AO2 SLP191 T02500178=
201205251252 METAR KATL 251252Z 18003KT 10SM CLR 23/18 A3012 RMK AO2 SLP189 T02280178=
201205251152 METAR KATL 251152Z 00000KT 10SM FEW018 22/17 A3010 RMK AO2 SLP183 T02170172 10244 20206 53025=
201205251052 METAR KATL 251052Z 00000KT 9SM CLR 21/17 A3008 RMK AO2 SLP174 T02060167=
201205250952 METAR KATL 250952Z 16003KT 10SM CLR 21/17 A3005 RMK AO2 SLP165 T02060167=
201205250852 METAR KATL 250852Z 16003KT 10SM CLR 22/17 A3003 RMK AO2 SLP157 T02170167 53009=
201205250752 METAR KATL 250752Z 15003KT 10SM CLR 22/16 A3001 RMK AO2 SLP151 T02220161=
201205250652 METAR KATL 250652Z 15005KT 10SM CLR 23/16 A3000 RMK AO2 SLP148 T02280161=
201205250552 METAR KATL 250552Z 12006KT 10SM FEW090 24/16 A3000 RMK AO2 SLP148 T02440156 10289 20239 51009=
201205250452 METAR KATL 250452Z 07007KT 10SM SCT070 BKN090 25/15 A3000 RMK AO2 SLP148 T02500150 403110172=
201205250352 METAR KATL 250352Z 00000KT 10SM BKN070 BKN085 26/14 A2999 RMK AO2 SLP143 T02610139=
201205250252 METAR KATL 250252Z 00000KT 10SM BKN080 26/13 A2997 RMK AO2 SLP138 T02610133 53014=
201205250152 METAR KATL 250152Z 00000KT 10SM FEW070 27/12 A2995 RMK AO2 SLP131 T02670117=
201205250052 METAR KATL 250052Z 00000KT 10SM FEW070 28/11 A2993 RMK AO2 SLP126 T02780111=
201205242352 METAR KATL 242352Z 23004KT 10SM FEW070 29/11 A2993 RMK AO2 SLP124 T02890106 10311 20289 55003=
201205242252 METAR KATL 242252Z 22003KT 10SM FEW070 30/11 A2993 RMK AO2 SLP125 T03000111=
201205242152 METAR KATL 242152Z 20005KT 10SM FEW075 31/11 A2993 RMK AO2 SLP124 T03060111=
201205242052 METAR KATL 242052Z 00000KT 10SM FEW075 30/11 A2994 RMK AO2 SLP129 T03000111 58015=
201205241952 METAR KATL 241952Z VRB03KT 10SM SCT070 31/13 A2995 RMK AO2 SLP134 T03060128=
201205241852 METAR KATL 241852Z 18004KT 10SM FEW070 29/11 A2997 RMK AO2 SLP140 T02940111=
201205241752 METAR KATL 241752Z 17007KT 10SM SCT070 29/12 A2998 RMK AO2 SLP143 T02940117 10294 20200 58005=
201205241652 METAR KATL 241652Z 11005KT 10SM FEW065 SCT080 SCT250 29/13 A3000 RMK AO2 SLP148 T02890128=
201205241552 METAR KATL 241552Z 12003KT 10SM FEW060 SCT200 SCT250 28/13 A3001 RMK AO2 SLP152 T02780133=
201205241452 METAR KATL 241452Z 09003KT 10SM FEW065 SCT250 26/14 A3000 RMK AO2 SLP149 T02610139 51011=
201205241352 METAR KATL 241352Z 08005KT 10SM FEW065 SCT250 24/17 A2999 RMK AO2 SLP148 T02390167=
201205241252 METAR KATL 241252Z 07006KT 10SM FEW065 SCT250 22/17 A2998 RMK AO2 SLP145 T02170167=
201205241152 METAR KATL 241152Z 05006KT 10SM FEW065 BKN250 21/16 A2996 RMK AO2 SLP137 T02060156 10206 20172 51020=
201205241052 METAR KATL 241052Z 08004KT 10SM FEW065 SCT250 19/14 A2995 RMK AO2 SLP132 T01890144=
201205240952 METAR KATL 240952Z 00000KT 10SM FEW070 SCT250 19/13 A2992 RMK AO2 SLP123 T01890133=
201205240852 METAR KATL 240852Z 08003KT 10SM SCT070 18/12 A2990 RMK AO2 SLP118 T01830122 55002=
201205240752 METAR KATL 240752Z 08005KT 10SM SCT070 18/12 A2990 RMK AO2 SLP116 T01830122=
201205240652 METAR KATL 240652Z 00000KT 10SM CLR 19/13 A2990 RMK AO2 SLP118 T01890128=
201205240552 METAR KATL 240552Z 00000KT 10SM FEW250 20/12 A2991 RMK AO2 SLP119 T02000122 10256 20189 56002=
201205240452 METAR KATL 240452Z 00000KT 10SM CLR 21/11 A2992 RMK AO2 SLP121 T02060106 402780161=
201205240352 METAR KATL 240352Z 22003KT 10SM CLR 21/11 A2991 RMK AO2 SLP119 T02110111=
201205240252 METAR KATL 240252Z 00000KT 10SM CLR 22/12 A2992 RMK AO2 SLP122 T02170122 51017=
201205240152 METAR KATL 240152Z 00000KT 10SM FEW060 23/12 A2990 RMK AO2 SLP117 T02280122=
201205240052 METAR KATL 240052Z 23003KT 10SM FEW060 23/12 A2988 RMK AO2 SLP112 T02330122=
201205232352 METAR KATL 232352Z 21005KT 10SM FEW060 26/11 A2986 RMK AO2 SLP105 T02560111 10278 20250 53001=
201205232252 METAR KATL 232252Z 21006KT 10SM FEW065 27/11 A2986 RMK AO2 SLP104 T02670106=
201205232152 METAR KATL 232152Z 25005KT 10SM SCT065 27/11 A2986 RMK AO2 SLP103 T02720111=
201205232052 METAR KATL 232052Z 23007KT 10SM SCT065 27/12 A2986 RMK AO2 SLP103 T02720122 56015=
201205231952 METAR KATL 231952Z 22006KT 10SM FEW060 SCT070 SCT250 27/13 A2987 RMK AO2 SLP107 T02720128=
201205231852 METAR KATL 231852Z 21004KT 10SM SCT055 SCT250 27/12 A2989 RMK AO2 SLP114 T02670122=
201205231752 METAR KATL 231752Z 31008KT 10SM FEW060 SCT250 26/13 A2991 RMK AO2 SLP120 T02610128 10272 20167 58005=
201205231652 METAR KATL 231652Z 22005KT 10SM FEW055 SCT250 26/13 A2992 RMK AO2 SLP122 T02610133=
201205231552 METAR KATL 231552Z 33007KT 10SM FEW040 SCT200 SCT250 25/14 A2993 RMK AO2 SLP127 T02500144=
201205231452 METAR KATL 231452Z 32006KT 10SM FEW030 SCT200 SCT250 24/16 A2992 RMK AO2 SLP125 T02390156 51010=
201205231352 METAR KATL 231352Z 33006KT 10SM FEW250 22/16 A2992 RMK AO2 SLP124 T02170156=
201205231252 METAR KATL 231252Z 30005KT 10SM FEW150 19/15 A2991 RMK AO2 SLP121 T01940150=
201205231152 METAR KATL 231152Z 28005KT 10SM FEW150 SCT250 17/14 A2989 RMK AO2 SLP115 T01670144 10172 20161 53009=
201205231052 METAR KATL 231052Z 29006KT 9SM SCT150 SCT250 16/14 A2988 RMK AO2 SLP110 T01610144=
201205230952 METAR KATL 230952Z 27005KT 10SM FEW150 16/14 A2986 RMK AO2 SLP105 T01610144=
201205230852 METAR KATL 230852Z 29004KT 10SM SCT120 17/14 A2986 RMK AO2 SLP106 T01670144 56007=
201205230752 METAR KATL 230752Z 24003KT 10SM BKN150 17/14 A2987 RMK AO2 SLP108 T01670144=
201205230652 METAR KATL 230652Z 30005KT 10SM FEW250 17/14 A2988 RMK AO2 SLP109 T01670144=
201205230552 METAR KATL 230552Z 30006KT 10SM SCT120 SCT250 17/14 A2989 RMK AO2 SLP114 T01720139 10250 20172 58003=
201205230452 METAR KATL 230452Z 28004KT 10SM SCT120 BKN250 18/14 A2990 RMK AO2 SLP117 T01780139 402610167=
201205230352 METAR KATL 230352Z 30004KT 10SM FEW100 SCT250 18/14 A2990 RMK AO2 SLP117 T01830139=
201205230252 METAR KATL 230252Z 29003KT 10SM SCT100 BKN250 19/13 A2990 RMK AO2 SLP116 T01940133 53014=
201205230152 METAR KATL 230152Z 34005KT 10SM FEW100 SCT200 20/13 A2988 RMK AO2 SLP110 T02000133=
201205230052 METAR KATL 230052Z 36008KT 10SM FEW035TCU SCT200 21/14 A2987 RMK AO2 SLP109 TCU SE-SW T02110139=
201205222352 METAR KATL 222352Z 32008KT 10SM SCT035TCU SCT200 24/15 A2985 RMK AO2 SLP102 CB DSNT NE TCU W-N T02440150 10261 20233 55004=
201205222252 METAR KATL 222252Z 29009KT 10SM FEW040 SCT150 26/14 A2985 RMK AO2 SLP101 CB DSNT NW-NE T02560144=
201205222152 METAR KATL 222152Z 31009KT 10SM FEW040 SCT100 SCT150 26/14 A2986 RMK AO2 SLP105 TCU DSNT NW-NE T02610144=
201205222052 METAR KATL 222052Z 27009KT 10SM FEW030 SCT150 SCT250 24/15 A2987 RMK AO2 SLP106 CB DSNT N TCU DSNT S & W T02440150 58015=
201205221952 METAR KATL 221952Z 28009KT 10SM FEW030 SCT150 SCT250 25/17 A2988 RMK AO2 SLP111 CB DSNT N-NE TCU DSNT W T02500167=
201205221852 METAR KATL 221852Z 30007KT 10SM BKN030 BKN150 BKN250 25/17 A2991 RMK AO2 SLP119 TCU DSNT NE & DSNT W T02500167=
201205221752 METAR KATL 221752Z 27008KT 10SM FEW028 BKN040 BKN150 23/17 A2991 RMK AO2 SLP122 T02330167 10239 20183 56009 $=
201205221652 METAR KATL 221652Z 29007KT 10SM FEW025 BKN150 BKN250 23/16 A2992 RMK AO2 SLP125 T02330161=
201205221552 METAR KATL 221552Z VRB05KT 10SM FEW025 BKN150 BKN250 23/17 A2993 RMK AO2 SLP128 T02330167=
201205221452 METAR KATL 221452Z VRB06KT 10SM FEW020 SCT150 SCT250 23/17 A2994 RMK AO2 SLP132 T02280172 50006=
201205221352 METAR KATL 221352Z 31007KT 10SM FEW020 SCT150 SCT250 22/17 A2995 RMK AO2 SLP134 T02170167=
201205221252 METAR KATL 221252Z 30005KT 7SM FEW010 SCT110 BKN250 19/17 A2993 RMK AO2 SLP128 T01940167=
201205221152 METAR KATL 221152Z 31005KT 6SM BR FEW005 SCT110 BKN150 18/16 A2992 RMK AO2 SLP126 70009 T01830161 10183 20167 53006=
201205221052 METAR KATL 221052Z 28006KT 6SM BR FEW004 BKN120 BKN150 17/16 A2992 RMK AO2 SLP125 T01670161=
201205221040 SPECI KATL 221040Z 28005KT 6SM BR FEW004 BKN120 BKN150 17/16 A2992 RMK AO2=
201205220952 METAR KATL 220952Z 28007KT 6SM BR FEW040 BKN120 BKN250 17/16 A2991 RMK AO2 SLP122 T01720161=
201205220852 METAR KATL 220852Z 31008KT 6SM BR FEW040 BKN110 BKN180 17/16 A2991 RMK AO2 SLP120 T01720161 58010=
201205220752 METAR KATL 220752Z 31010KT 6SM BR FEW050 BKN110 17/16 A2992 RMK A02 SLP123 T01720161=
201205220652 METAR KATL 220652Z 29009KT 10SM BKN110 18/16 A2992 RMK AO2 SLP124 T01780161=
201205220552 METAR KATL 220552Z 31005KT 10SM BKN100 18/17 A2993 RMK AO2 RAE17 SLP127 P0000 60006 T01830167 10222 20183 56014=
201205220452 METAR KATL 220452Z 32010KT 10SM -RA FEW065 BKN100 OVC120 18/17 A2996 RMK AO2 RAB16E25B50 SLP136 P0000 T01830167 402940183=
201205220352 METAR KATL 220352Z 35006KT 10SM BKN120 OVC150 19/17 A2995 RMK AO2 RAE38 SLP134 P0000 T01890167=
201205220252 METAR KATL 220252Z 32005KT 7SM -RA BKN095 OVC120 18/17 A2998 RMK AO2 SLP142 P0006 60006 T01830167 50006=
201205220152 METAR KATL 220152Z 31005KT 9SM -RA FEW080 BKN110 OVC150 19/16 A2998 RMK AO2 TSE20 SLP145 P0000 T01890161=
201205220120 SPECI KATL 220120Z 32010KT 10SM -RA FEW050 SCT080 BKN110 OVC150 19/16 A2997 RMK AO2 TSE20 TS DSIPTD P0000=
201205220052 METAR KATL 220052Z 33011KT 10SM -TSRA FEW030CB SCT090 BKN130 BKN200 21/17 A2997 RMK AO2 TSB18RAB44 SLP143 OCNL LTGICCA N-NE TS N-NE MOV SE P0000 T02060167=
201205220019 SPECI KATL 220019Z 29010KT 10SM TS FEW030CB SCT100 BKN200 BKN250 22/16 A2997 RMK AO2 TSB18 FRQ LTGICCG NW-NE TS NW-NE MOV SE=
201205212352 METAR KATL 212352Z 24004KT 10SM FEW030 SCT150 BKN200 BKN250 22/17 A2996 RMK AO2 SLP137 FRQ LTG DSNT NE W NW 60003 T02220167 10294 20206 55004=
201205212252 METAR KATL 212252Z 20005KT 10SM FEW100 SCT150 BKN250 24/17 A2995 RMK AO2 RAE02 SLP134 CB DSNT N NE W-NW P0000 T02440172=
201205212152 METAR KATL 212152Z 00000KT 10SM -RA FEW030 SCT060 BKN120 BKN200 22/19 A2996 RMK AO2 TSE51 SLP136 OCNL LTGICCA DSNT NE-SE TS MOV SE P0003 T02220189=
201205212052 METAR KATL 212052Z 33011KT 4SM -TSRA FEW030CB BKN060 BKN110 21/16 A2997 RMK AO2 PK WND 32026/2032 WSHFT 2024 TSB11RAB31 SLP142 VIS LWR E SHRA FRQ LTGICCG E TS E MOV SE P0000 60000 T02110161 55014=
201205212045 SPECI KATL 212045Z 32012G20KT 5SM -TSRA FEW030CB BKN060 BKN110 22/16 A2997 RMK AO2 PK WND 32026/2032 WSHFT 2024 TSB11RAB31 VIS LWR E SHRA FRQ LTGICCG E TS E MOV SE P0000=
201205212039 SPECI KATL 212039Z 35017G26KT 6SM -TSRA FEW030CB BKN060 OVC110 23/16 A2998 RMK AO2 PK WND 32026/2032 WSHFT 2024 TSB11RAB31 VIS LWR N SHRA FRQ LTGICCG N TS N MOV SE P0000=
201205212031 SPECI KATL 212031Z 32018G25KT 6SM -TSRA FEW030CB BKN060 OVC110 24/16 A2997 RMK AO2 TSB11RAB31 FRQ LTGICCG NW-N TS NW-N MOV SE P0000=
201205212023 SPECI KATL 212023Z 29019G23KT 10SM TS BKN060CB BKN110 BKN200 25/16 A2996 RMK AO2 TSB11 FRQ LTGICCG NW-N TS NW-N MOV SE SHRA SW-N=
201205212011 SPECI KATL 212011Z 30009KT 10SM TS SCT060CB BKN100 BKN200 27/14 A2995 RMK AO2 TSB11 FRQ LTGICCG SW-NW TS VC SW-NW MOV SE SHRA VC SW-NW=
201205211952 METAR KATL 211952Z VRB04KT 10SM FEW060TCU BKN080 BKN200 29/14 A2996 RMK AO2 SLP136 FRQ LTGICCG DSNT SW-NW CB DSNT SW-NW TCU N-NE & S SHRA DSNT SW-NW T02890139=
201205211852 METAR KATL 211852Z 32004KT 10SM SCT060TCU SCT080 28/14 A2999 RMK AO2 SLP144 CB DSNT SW-NW TCU NE-E-SE-S & NW T02780139=
201205211752 METAR KATL 211752Z VRB03KT 10SM FEW050TCU SCT080 29/15 A3001 RMK AO2 SLP153 TCU NE & SW & DSNT NW T02940150 10294 20200 58016=
201205211652 METAR KATL 211652Z 00000KT 10SM FEW050 27/13 A3003 RMK AO2 SLP161 CB DSNT N T02670128=
201205211552 METAR KATL 211552Z VRB04KT 10SM FEW045 26/14 A3005 RMK AO2 SLP166 CB DSNT NW T02610139=
201205211452 METAR KATL 211452Z 00000KT 10SM FEW050 26/14 A3006 RMK AO2 SLP170 T02560139 50004=
201205211352 METAR KATL 211352Z 00000KT 10SM FEW050 23/14 A3006 RMK AO2 SLP172 T02330144=
201205211252 METAR KATL 211252Z 00000KT 10SM FEW060 22/14 A3006 RMK AO2 SLP171 T02220139=
201205211152 METAR KATL 211152Z 00000KT 10SM FEW060 BKN150 20/16 A3005 RMK AO2 SLP169 60000 70036 T02000161 10222 20194 50002=
201205211052 METAR KATL 211052Z 13003KT 10SM SCT060 BKN095 BKN110 21/14 A3005 RMK AO2 RAB18E47 SLP167 P0000 T02060144=
201205210952 METAR KATL 210952Z 00000KT 10SM BKN060 OVC075 20/14 A3004 RMK AO2 SLP164 T02000144=
201205210852 METAR KATL 210852Z 30004KT 10SM BKN060 BKN075 OVC110 20/16 A3004 RMK AO2 SLP164 T02000161 56003=
201205210752 METAR KATL 210752Z 26003KT 10SM BKN055 BKN075 BKN100 20/16 A3004 RMK AO2 SLP164 T02000161=
201205210652 METAR KATL 210652Z 07003KT 10SM BKN055 OVC070 22/15 A3005 RMK AO2 SLP165 T02220150=
201205210552 METAR KATL 210552Z 00000KT 10SM SCT110 BKN200 21/16 A3005 RMK AO2 SLP166 60000 T02110161 10228 20200 58002=
201205210452 METAR KATL 210452Z 00000KT 10SM SCT070 BKN090 22/16 A3006 RMK AO2 SLP171 T02220161 402890167=
201205210352 METAR KATL 210352Z 06003KT 10SM FEW070 BKN095 BKN120 21/18 A3006 RMK AO2 SLP170 T02110178=
201205210252 METAR KATL 210252Z 00000KT 10SM FEW060 BKN085 BKN200 21/18 A3006 RMK AO2 SLP169 60000 T02060178 53004=
201205210152 METAR KATL 210152Z 15003KT 10SM FEW060 BKN200 21/18 A3005 RMK AO2 SLP167 T02060178=
201205210052 METAR KATL 210052Z 28005KT 10SM SCT060 SCT100 BKN180 BKN250 21/16 A3004 RMK AO2 TSE07RAE03 SLP166 TS MOV SW P0000 T02110156=
201205210008 SPECI KATL 210008Z 22003KT 10SM FEW026 SCT043 BKN085CB BKN250 20/16 A3004 RMK AO2 TSE07RAE03 OCNL LTGICCG DSNT S-SW CBMAM OHD-N-NE CB DSNT S-SW TS MOV SW P0000=
201205202352 METAR KATL 202352Z 19006G15KT 10SM -TSRA FEW023 BKN042CB BKN055 BKN250 20/16 A3004 RMK AO2 PKWND 09031/2335 WSHFT 2323 RAB19 PRESFR SLP167 FRQ LTGICCG E-S-SW TS E-S-SW MOV SW P0036 60036 T02000156 10289 20200 55002=
201205202342 SPECI KATL 202342Z 12011G31KT 7SM R09R/2000VP6000FT +TSRA FEW017 BKN060CB BKN080 BKN250 22/13 A3006 RMK AO2 PK WND 09031/2335 WSHFT 2323 RAB19 VIS E-S-SW 2 CONS LTGICCG NE-0HD-SW TS NE-OHD-SW MOV SW P0025=
201205202333 SPECI KATL 202333Z 10024G30KT 1SM R09R/4000VP6000FT +TSRA BKN060CB BKN080 BKN250 21/16 A3007 RMK AO2 PK WND 11030/2333 RAB19 PRESRR CONS LTGICCG 0HD-NE-E-S TS OHD-NE-E-S MOV SW P0006=
201205202252 METAR KATL 202252Z 00000KT 10SM TS SCT060CB SCT080 BKN250 28/13 A3003 RMK AO2 TSB39 SLP161 FRQ LTGICCG NE TS VC NE MOV S TCU OHD SHRA NE T02780133=
201205202239 SPECI KATL 202239Z 00000KT 10SM TS SCT060CB SCT080 BKN250 28/13 A3003 RMK AO2 TSB39 OCNL LTGIC NE TS VC NE MOV S TCU OHD SHRA NE=
201205202152 METAR KATL 202152Z 01006KT 10SM SCT060 SCT085 BKN250 29/13 A3004 RMK AO2 SLP164 CB DSNT NE T02890133=
201205202052 METAR KATL 202052Z 02008G14KT 10SM SCT065 SCT250 28/13 A3005 RMK AO2 SLP167 T02830133 56021=
201205201952 METAR KATL 201952Z 34008KT 10SM FEW060 28/13 A3007 RMK AO2 SLP173 T02830133=
201205201852 METAR KATL 201852Z 36010G17KT 10SM SCT060 28/13 A3009 RMK AO2 SLP181 T02830133=
201205201752 METAR KATL 201752Z 35010G15KT 10SM FEW060 27/12 A3011 RMK AO2 SLP188 T02720122 10278 20194 58015=
201205201652 METAR KATL 201652Z VRB04G14KT 10SM FEW250 26/12 A3014 RMK AO2 SLP196 T02610117=
201205201552 METAR KATL 201552Z 05007KT 020V080 10SM FEW250 25/12 A3016 RMK AO2 SLP203 T02500117=
201205201452 METAR KATL 201452Z 04004KT 10SM SCT250 24/11 A3016 RMK AO2 SLP204 T02390106 50003=
201205201352 METAR KATL 201352Z 08005KT 10SM SCT250 22/11 A3016 RMK AO2 SLP206 T02220106=
201205201252 METAR KATL 201252Z 09005KT 10SM FEW250 21/11 A3015 RMK AO2 SLP202 T02060106=
201205201152 METAR KATL 201152Z 06007KT 10SM FEW080 SCT250 19/10 A3015 RMK AO2 SLP201 T01940100 10194 20167 53010=
201205201052 METAR KATL 201052Z 06007KT 10SM FEW080 SCT250 18/10 A3014 RMK AO2 SLP198 T01780100=
201205200952 METAR KATL 200952Z 09008KT 10SM SCT065 18/10 A3013 RMK AO2 SLP193 T01780100=
201205200852 METAR KATL 200852Z 08005KT 10SM OVC065 18/10 A3012 RMK AO2 SLP190 T01830100 53002=
201205200752 METAR KATL 200752Z 10007KT 10SM BKN070 19/09 A3011 RMK AO2 SLP189 T01890094=
201205200652 METAR KATL 200652Z 09008KT 10SM BKN065 19/09 A3011 RMK AO2 SLP187 T01940094=
201205200552 METAR KATL 200552Z COR 09006KT 10SM FEW120 19/09 A3011 RMK AO2 SLP189 T01890094 10267 20189 51001=
201205200452 METAR KATL 200452Z 08007KT 10SM CLR 20/10 A3011 RMK AO2 SLP189 T02000100 402830167=
201205200352 METAR KATL 200352Z 07009KT 10SM CLR 22/11 A3011 RMK AO2 SLP188 T02170111=
201205200252 METAR KATL 200252Z 08007KT 10SM FEW180 SCT250 22/12 A3011 RMK AO2 SLP187 T02220117 51015=
201205200152 METAR KATL 200152Z 08009KT 10SM FEW180 SCT250 23/12 A3010 RMK AO2 SLP183 T02330117=
201205200052 SPECI KATL 200052Z 08008KT 10SM FEW180 SCT250 24/11 A3008 RMK AO2 SLP179 T02390111=
201205200052 METAR KATL 200052Z 08008KT 10SM FEW180 SCT250 24/11 A3008 RMK AO2 SLP179 T02390111=
201205192352 METAR KATL 192352Z 10006KT 10SM FEW180 BKN250 27/09 A3006 RMK AO2 SLP172 T02670094 10283 20256 53002=
201205192252 METAR KATL 192252Z 07008KT 10SM FEW150 SCT180 BKN250 27/10 A3005 RMK AO2 SLP168 T02670100=
201205192152 METAR KATL 192152Z 06005KT 10SM FEW065 SCT150 SCT250 28/08 A3005 RMK AO2 SLP168 CB DSNT NW-N T02780083=
201205192052 METAR KATL 192052Z 09008KT 10SM FEW065 28/11 A3006 RMK AO2 SLP170 CB DSNT N T02780111 56021=
201205191952 METAR KATL 191952Z VRB06KT 10SM FEW060 27/12 A3008 RMK AO2 SLP176 T02720122=
201205191852 METAR KATL 191852Z 07007G15KT 10SM FEW050 27/14 A3010 RMK AO2 SLP184 T02670139=
201205191752 METAR KATL 191752Z 07010KT 10SM FEW050 26/13 A3012 RMK AO2 SLP191 T02610133 10267 20189 58013=
201205191652 METAR KATL 191652Z VRB04KT 10SM FEW200 24/13 A3014 RMK AO2 SLP200 T02440128=
201205191552 METAR KATL 191552Z 08006KT 10SM SCT200 24/12 A3016 RMK AO2 SLP204 T02390122=
201205191452 METAR KATL 191452Z 09009KT 10SM FEW150 23/11 A3016 RMK AO2 SLP204 T02280111 51007=
201205191352 METAR KATL 191352Z 09011KT 10SM FEW150 21/11 A3016 RMK AO2 SLP205 T02110111=
201205191252 METAR KATL 191252Z 07011KT 10SM FEW150 19/13 A3015 RMK AO2 SLP202 T01940133=
201205191152 METAR KATL 191152Z 05008KT 10SM SCT034 SCT250 19/13 A3014 RMK AO2 SLP198 T01890128 10189 20167 53017=
201205191052 METAR KATL 191052Z 00000KT 10SM BKN034 BKN250 18/12 A3011 RMK AO2 SLP189 T01780122=
201205190952 METAR KATL 190952Z 00000KT 10SM FEW150 SCT250 17/13 A3009 RMK AO2 SLP182 T01670128=
201205190852 METAR KATL 190852Z 00000KT 10SM SCT150 17/13 A3008 RMK AO2 SLP180 T01720128 55001=
201205190752 METAR KATL 190752Z 00000KT 10SM CLR 18/12 A3008 RMK AO2 SLP177 T01780122=
201205190652 METAR KATL 190652Z 00000KT 10SM FEW250 18/12 A3008 RMK AO2 SLP178 T01830122=
201205190552 METAR KATL 190552Z 00000KT 10SM FEW250 18/13 A3009 RMK AO2 SLP181 T01830133 10244 20178 50002=
201205190452 METAR KATL 190452Z 15005KT 10SM FEW250 19/14 A3009 RMK AO2 SLP182 T01890139 402720172=
201205190352 METAR KATL 190352Z 14004KT 10SM FEW250 20/14 A3008 RMK AO2 SLP180 T02000144=
201205190252 METAR KATL 190252Z 14003KT 10SM FEW250 21/14 A3008 RMK AO2 SLP178 T02110139 51015=
201205190152 METAR KATL 190152Z 12006KT 10SM FEW200 22/13 A3006 RMK AO2 SLP171 T02220133=
201205190052 METAR KATL 190052Z 09007KT 10SM FEW200 23/13 A3005 RMK AO2 SLP170 T02280133=
201205182352 METAR KATL 182352Z 09011KT 10SM FEW055 SCT250 24/13 A3003 RMK AO2 SLP163 T02440133 10272 20244 53002=
201205182252 METAR KATL 182252Z 09012KT 10SM FEW050 SCT250 26/13 A3003 RMK AO2 SLP161 T02560133=
201205182152 METAR KATL 182152Z 11009G17KT 10SM SCT055TCU SCT250 26/13 A3003 RMK AO2 SLP160 TCU NW DSNT SW T02610133=
201205182052 METAR KATL 182052Z 09009KT 10SM SCT055 26/14 A3003 RMK AO2 SLP160 CB DSNT N TCU DSNT S T02610139 56015=
201205181952 METAR KATL 181952Z 08005G14KT 10SM SCT050 27/14 A3004 RMK AO2 SLP163 CB DSNT N T02670144=
201205181852 METAR KATL 181852Z 07006G16KT 10SM SCT045 26/15 A3006 RMK AO2 SLP170 T02610150=
201205181752 METAR KATL 181752Z 10009G17KT 10SM BKN044 25/15 A3007 RMK AO2 SLP175 T02500150 10256 20183 58004=
201205181652 METAR KATL 181652Z 08010KT 10SM SCT037 24/14 A3008 RMK AO2 SLP179 T02440144=
201205181552 METAR KATL 181552Z 08010G15KT 040V100 10SM BKN035 23/15 A3009 RMK AO2 SLP181 T02330150=
201205181452 METAR KATL 181452Z 06012G17KT 10SM SCT030 SCT100 23/15 A3008 RMK AO2 SLP179 T02280150 50008=
201205181352 METAR KATL 181352Z 09011KT 10SM FEW025 SCT150 22/15 A3009 RMK AO2 SLP181 T02170150=
201205181252 METAR KATL 181252Z 07009KT 10SM FEW020 21/15 A3009 RMK AO2 SLP180 T02060150=
201205181152 METAR KATL 181152Z 07008KT 10SM FEW250 18/14 A3006 RMK AO2 SLP171 T01830144 10189 20172 53015=
201205181052 METAR KATL 181052Z 06009KT 10SM FEW100 18/14 A3004 RMK AO2 SLP165 T01780144=
201205180952 METAR KATL 180952Z 07007KT 10SM FEW100 18/14 A3003 RMK AO2 SLP159 T01830139=
201205180852 METAR KATL 180852Z 05005KT 10SM FEW100 18/14 A3002 RMK AO2 SLP155 T01830139 57001=
201205180752 METAR KATL 180752Z 07007KT 10SM SCT110 18/14 A3002 RMK AO2 SLP156 T01780139=
201205180652 METAR KATL 180652Z 09004KT 10SM FEW110 SCT220 18/14 A3002 RMK AO2 SLP157 T01830139=
201205180552 METAR KATL 180552Z 09006KT 10SM SCT220 19/14 A3002 RMK AO2 SLP156 60000 T01890144 10256 20189 53003=
201205180452 METAR KATL 180452Z 10007KT 10SM FEW100 BKN250 21/15 A3000 RMK AO2 SLP150 T02060150 402890167=
201205180352 METAR KATL 180352Z 10003KT 10SM SCT110 BKN150 OVC250 21/14 A3001 RMK AO2 SLP154 T02110144=
201205180252 METAR KATL 180252Z 16003KT 10SM FEW060 BKN120 OVC150 22/14 A3001 RMK AO2 RAE01 SLP154 P0000 60000 T02170144 51019=
201205180152 METAR KATL 180152Z 15007KT 10SM -RA FEW035 BKN090 BKN120 OVC150 22/16 A2999 RMK AO2 RAB39 SLP149 FRQ LTGICCGCC DSNT SW P0000 T02220156=
201205180052 METAR KATL 180052Z 09007KT 10SM FEW035 SCT070 BKN100 BKN200 23/15 A2999 RMK AO2 RAB01E11 SLP148 FRQ LTGICCG DSNT SW-W NW P0000 T02330150=
201205172352 METAR KATL 172352Z COR 12011KT 10SM FEW055TCU SCT120 BKN200 BKN250 26/16 A2995 RMK AO2 SLP134 FRQ LTG DSNT N-NE SW CB DSNT N-NE SW TCU W-NW T02560156 10289 20256 53010=
201205172252 METAR KATL 172252Z 10004KT 10SM FEW060TCU SCT200 BKN250 27/12 A2993 RMK AO2 SLP128 TCU N SW-W T02720117=
201205172152 METAR KATL 172152Z 00000KT 10SM FEW065 SCT200 BKN250 28/12 A2993 RMK AO2 SLP125 TCU DSNT SE SW T02780122=
201205172052 METAR KATL 172052Z VRB03KT 10SM FEW065TCU SCT200 SCT250 28/12 A2992 RMK AO2 SLP124 CB DSNT N & E & S TCU SW-W-NW T02830122 56020=
201205171952 METAR KATL 171952Z 03007KT 10SM FEW060 SCT200 BKN250 28/13 A2994 RMK AO2 SLP132 CB DSNT NE-E-SE TCU DSNT S-SW & DSNT NW T02780133=
201205171852 METAR KATL 171852Z 09006G14KT 10SM FEW050TCU SCT200 BKN250 27/14 A2996 RMK AO2 SLP138 CB DSNT NE-E TCU S-SW & W-NW T02720144=
201205171752 METAR KATL 171752Z 08009KT 10SM FEW047TCU SCT200 BKN250 27/14 A2999 RMK AO2 SLP145 CB DSNT NE-E TCU S-SW T02720144 10272 20183 58004=
201205171652 METAR KATL 171652Z 09005KT 10SM FEW045TCU SCT200 BKN250 26/14 A3000 RMK AO2 SLP149 TCU SW T02610139=
201205171552 METAR KATL 171552Z 05007KT 10SM FEW040 SCT200 BKN250 24/16 A3001 RMK AO2 SLP152 T02440156=
201205171452 METAR KATL 171452Z 09004KT 10SM FEW150 SCT200 BKN250 24/16 A3000 RMK AO2 SLP149 T02390156 50006=
201205171352 METAR KATL 171352Z 04009KT 10SM BKN250 21/14 A3000 RMK AO2 SLP151 T02060144=
201205171252 METAR KATL 171252Z 03005KT 10SM FEW150 BKN250 19/14 A2999 RMK AO2 SLP148 T01940144=
201205171152 METAR KATL 171152Z 01007KT 10SM FEW120 BKN250 19/14 A2998 RMK AO2 SLP143 T01890139 10189 20167 53013=
201205171052 METAR KATL 171052Z 01005KT 9SM FEW100 BKN250 18/14 A2996 RMK AO2 SLP137 T01780139=
201205170952 METAR KATL 170952Z 33004KT 10SM BKN250 17/14 A2994 RMK AO2 SLP132 T01670139=
201205170852 METAR KATL 170852Z 32006KT 10SM SCT250 17/14 A2994 RMK AO2 SLP130 T01720139 58004=
201205170752 METAR KATL 170752Z 31005KT 10SM BKN250 17/14 A2995 RMK AO2 SLP133 T01720139=
201205170652 METAR KATL 170652Z 31005KT 10SM BKN250 18/14 A2995 RMK AO2 SLP133 T01780139=
201205170552 METAR KATL 170552Z 32005KT 10SM SCT250 19/14 A2995 RMK AO2 SLP134 T01890139 10250 20183 58006=
201205170452 METAR KATL 170452Z 32004KT 10SM SCT250 20/14 A2996 RMK AO2 SLP137 T02000139 402830167=
201205170352 METAR KATL 170352Z 32003KT 10SM FEW250 21/13 A2997 RMK AO2 SLP139 T02110133=
201205170252 METAR KATL 170252Z 35005KT 10SM FEW250 22/13 A2997 RMK AO2 SLP139 T02220128 53014=
201205170152 METAR KATL 170152Z 31004KT 10SM FEW250 22/13 A2995 RMK AO2 SLP134 T02220133=
201205170052 METAR KATL 170052Z 31005KT 10SM FEW200 SCT250 23/13 A2994 RMK AO2 SLP129 T02280133=
201205162352 METAR KATL 162352Z 32008KT 10SM FEW250 25/12 A2993 RMK AO2 SLP127 CB DSNT NE T02500122 10283 20244 55000=
201205162252 METAR KATL 162252Z 29007KT 10SM FEW055 SCT250 26/14 A2993 RMK AO2 SLP126 TCU DSNT NE T02560144=
201205162152 METAR KATL 162152Z 32011KT 10SM FEW055 SCT200 BKN250 26/14 A2993 RMK AO2 SLP127 CB DSNT NE T02610139=
201205162052 METAR KATL 162052Z 32011KT 10SM FEW060 SCT200 BKN250 27/14 A2993 RMK AO2 SLP126 TCU DSNT E T02670139 57015=
201205161952 METAR KATL 161952Z 29006KT 10SM FEW065 SCT200 BKN250 28/11 A2994 RMK AO2 SLP130 TCU DSNT NE-E T02780106=
201205161852 METAR KATL 161852Z VRB06KT 10SM SCT060 SCT200 BKN250 28/13 A2996 RMK AO2 SLP136 T02780128 $=
201205161752 METAR KATL 161752Z 31008G14KT 10SM FEW055 SCT200 BKN250 27/14 A2997 RMK AO2 SLP142 T02670139 10272 20178 58014=
201205161652 METAR KATL 161652Z 28006KT 10SM FEW050 SCT150 BKN200 26/16 A2999 RMK AO2 SLP147 T02610156=
201205161552 METAR KATL 161552Z 30007KT 10SM FEW040 SCT150 BKN200 25/16 A3000 RMK AO2 SLP151 T02500156=
201205161452 METAR KATL 161452Z 34007KT 10SM FEW150 SCT200 BKN250 24/15 A3002 RMK AO2 SLP156 T02390150 51006=
201205161352 METAR KATL 161352Z 33004KT 10SM FEW150 SCT200 BKN250 22/16 A3002 RMK AO2 SLP157 T02220161=
201205161252 METAR KATL 161252Z 32009KT 10SM FEW150 BKN250 20/16 A3000 RMK AO2 SLP153 T02000156=
201205161152 METAR KATL 161152Z 31008KT 10SM FEW150 SCT250 18/15 A3000 RMK AO2 SLP152 T01780150 10189 20167 51012=
201205161052 METAR KATL 161052Z 00000KT 10SM FEW150 BKN250 17/16 A2999 RMK AO2 SLP149 T01670156=
201205160952 METAR KATL 160952Z 32005KT 10SM FEW110 BKN250 17/16 A2998 RMK AO2 SLP144 T01720156=
201205160852 METAR KATL 160852Z 31005KT 10SM FEW110 SCT250 18/16 A2996 RMK AO2 SLP138 T01780161 56007=
201205160752 METAR KATL 160752Z 32005KT 10SM FEW110 BKN250 18/17 A2996 RMK AO2 SLP137 T01830167=
201205160652 METAR KATL 160652Z 31005KT 10SM FEW110 BKN250 19/17 A2996 RMK AO2 SLP140 T01890167=
201205160552 METAR KATL 160552Z 29005KT 10SM FEW110 BKN250 18/17 A2998 RMK AO2 SLP145 T01830167 10228 20183 58005=
201205160452 METAR KATL 160452Z 30004KT 10SM BKN110 OVC250 20/17 A2999 RMK AO2 SLP148 T02000172 402720161=
201205160352 METAR KATL 160352Z 31005KT 10SM FEW090 BKN110 OVC250 21/17 A2999 RMK AO2 SLP148 T02060172=
201205160252 METAR KATL 160252Z 30009KT 10SM OVC100 21/17 A3000 RMK AO2 SLP150 T02110172 53015=
201205160152 METAR KATL 160152Z 28005KT 10SM FEW030 BKN110 OVC200 21/18 A2998 RMK AO2 SLP144 T02110178=
201205160052 METAR KATL 160052Z 30005KT 10SM FEW035 SCT120 BKN200 BKN250 22/17 A2996 RMK AO2 SLP138 T02220172=
201205152352 METAR KATL 152352Z 27004KT 10SM FEW035 SCT120 BKN200 BKN250 23/17 A2995 RMK AO2 SLP136 CB DSNT SW T02280172 10272 20228 53001=
201205152252 METAR KATL 152252Z 27004KT 10SM FEW035 SCT085 BKN120 BKN200 23/16 A2995 RMK AO2 SLP135 T02330161=
201205152152 METAR KATL 152152Z 24007KT 10SM FEW040 SCT085 BKN110 BKN200 23/16 A2995 RMK AO2 SLP135 TCU DSNT E-S T02330161=
201205152052 METAR KATL 152052Z 31007KT 10SM FEW045CB SCT050TCU SCT200 25/16 A2995 RMK AO2 SLP134 CB W MOV E TCU NE & S-SW & NW SHRA W T02500156 56017=
201205151952 METAR KATL 151952Z 24005KT 10SM FEW045 SCT200 SCT250 26/15 A2996 RMK AO2 SLP138 TCU DSNT SW-W T02560150=
201205151852 METAR KATL 151852Z 26006KT 10SM FEW045TCU SCT060 BKN200 24/15 A2998 RMK AO2 SLP146 TCU SW-NW T02440150=
201205151752 METAR KATL 151752Z VRB04KT 10SM FEW035 SCT200 25/16 A3000 RMK AO2 SLP152 TCU DSNT S & DSNT NW T02500156 10256 20172 58002=
201205151652 METAR KATL 151652Z 26008KT 9SM SCT035 SCT200 23/16 A3002 RMK AO2 SLP158 T02330156=
201205151552 METAR KATL 151552Z VRB04KT 10SM FEW020 BKN030 BKN200 23/16 A3002 RMK AO2 SLP157 T02280156=
201205151517 SPECI KATL 151517Z 26006KT 10SM FEW018 BKN030 BKN200 22/17 A3001 RMK AO2=
201205151452 METAR KATL 151452Z 20007KT 10SM BKN023 BKN030 BKN200 21/17 A3001 RMK AO2 SLP154 T02110167 51005=
201205151352 METAR KATL 151352Z 21007KT 170V250 10SM FEW017 BKN020 BKN200 21/17 A3000 RMK AO2 SLP153 T02110167=
201205151350 SPECI KATL 151350Z 23005KT 10SM FEW017 BKN020 BKN200 21/17 A3000 RMK AO2=
201205151252 METAR KATL 151252Z 00000KT 7SM SCT150 BKN250 20/17 A2999 RMK AO2 SLP149 T02000172=
201205151152 METAR KATL 151152Z 00000KT 7SM FEW150 SCT250 17/16 A2998 RMK AO2 SLP145 T01720161 10183 20161 53010=
201205151052 METAR KATL 151052Z 28003KT 8SM SCT070 SCT250 16/15 A2997 RMK AO2 SLP142 T01610150=
201205150952 METAR KATL 150952Z 30003KT 9SM FEW150 SCT250 16/15 A2996 RMK AO2 SLP137 T01610150=
201205150852 METAR KATL 150852Z 29005KT 9SM SCT180 BKN250 17/16 A2995 RMK AO2 SLP135 T01670156 55005=
201205150752 METAR KATL 150752Z 27003KT 10SM SCT150 BKN250 17/16 A2995 RMK AO2 SLP134 T01720156=
201205150652 METAR KATL 150652Z 00000KT 10SM SCT250 18/16 A2996 RMK AO2 SLP137 T01780161=
201205150552 METAR KATL 150552Z 00000KT 10SM SCT250 18/16 A2997 RMK AO2 SLP140 T01830161 10244 20183 58005=
201205150452 METAR KATL 150452Z 31005KT 10SM SCT250 19/16 A2997 RMK AO2 SLP142 T01890161 402670178=
201205150352 METAR KATL 150352Z 29005KT 10SM FEW250 19/16 A2999 RMK AO2 SLP147 T01940161=
201205150252 METAR KATL 150252Z 30006KT 10SM FEW035 21/16 A2998 RMK AO2 SLP147 T02060161 51020=
201205150152 METAR KATL 150152Z 31007KT 10SM BKN035 22/17 A2997 RMK AO2 SLP140 T02220167=
201205150052 METAR KATL 150052Z 32007KT 10SM FEW040 23/16 A2995 RMK AO2 SLP135 TCU DSNT SE-S T02280161=
201205142352 METAR KATL 142352Z 32009KT 10SM FEW040TCU SCT060 SCT250 24/16 A2992 RMK AO2 SLP125 TCU SE-SW-W 60000 T02440156 10267 20239 53001=
201205142252 METAR KATL 142252Z 29006KT 10SM FEW040 SCT055 BKN070 25/17 A2991 RMK AO2 SLP122 TCU DSNT SE-SW T02500167=
201205142152 METAR KATL 142152Z 27011KT 10SM SCT040TCU BKN055 26/17 A2992 RMK AO2 SLP123 TCU OHD-ALQDS T02610167=
201205142052 METAR KATL 142052Z 29011KT 10SM FEW037TCU SCT050 27/17 A2992 RMK AO2 SLP123 TCU N & S & W 60000 T02670172 56018=
201205141952 METAR KATL 141952Z 27009KT 10SM FEW035TCU SCT060 26/17 A2994 RMK AO2 SLP129 TCU E & SW-W & NW T02610172=
201205141852 METAR KATL 141852Z 22008KT 10SM FEW040CB SCT050TCU 25/16 A2995 RMK AO2 RAB22E31 SLP134 CB W MOV NE TCU NE & S & NW SHRA W P0000 T02500156=
201205141752 METAR KATL 141752Z 20006KT 10SM FEW030TCU SCT065 SCT090 24/17 A2997 RMK AO2 SLP143 CB DSNT E TCU E & S & NW T02440167 10244 20178 58010=
201205141652 METAR KATL 141652Z VRB05KT 10SM FEW025 BKN030 BKN060 23/17 A3000 RMK AO2 SLP151 TCU DSNT SE-S & NW-N T02330172=
201205141552 METAR KATL 141552Z 22006KT 10SM FEW012 BKN040 BKN090 22/18 A3000 RMK AO2 SLP154 TCU DSNT E-SE-S T02220178=
201205141549 SPECI KATL 141549Z 19008KT 150V210 10SM FEW012 BKN040 BKN090 22/18 A3001 RMK AO2 TCU DSNT E-SE-S=
201205141518 SPECI KATL 141518Z 20005KT 10SM SCT010TCU BKN016 BKN045 21/18 A3001 RMK AO2 TCU ALQDS=
201205141452 METAR KATL 141452Z 22004KT 10SM BKN010TCU BKN040 BKN090 20/18 A3000 RMK AO2 SLP154 TCU ALQDS T02000178 51006=
201205141417 SPECI KATL 141417Z 21006KT 10SM BKN010 BKN040 OVC090 20/18 A3000 RMK AO2=
201205141352 METAR KATL 141352Z 20005KT 10SM FEW006 BKN008 OVC040 19/18 A3000 RMK AO2 SLP154 T01940178=
201205141257 SPECI KATL 141257Z 20006KT 6SM BR FEW004 BKN008 OVC040 19/17 A2999 RMK AO2=
201205141252 METAR KATL 141252Z 20006KT 1SM BR BKN004 OVC043 19/17 A2999 RMK AO2 SFC VIS 6 RAE1153 SLP150 T01890172=
201205141152 METAR KATL 141152Z 18005KT 1SM -RA BR OVC004 18/17 A2999 RMK AO2 SFC VIS 3 DZE41RAB41 SLP149 P0001 60001 70066 T01780172 10183 20178 53009=
201205141052 METAR KATL 141052Z 18004KT 1 1/2SM -DZ BR OVC004 18/17 A2997 RMK AO2 SFC VIS 3 DZB42 SLP144 P0000 T01780172=
201205141046 SPECI KATL 141046Z 19006KT 1 1/2SM -DZ BR OVC004 18/17 A2997 RMK AO2 SFC VIS 3 DZB42 P0000=
201205141036 SPECI KATL 141036Z 17005KT 2SM BR OVC004 18/17 A2996 RMK AO2 SFC VIS 6=
201205140952 METAR KATL 140952Z 17004KT 6SM BR BKN008 OVC013 18/17 A2996 RMK AO2 SLP138 T01830172=
201205140852 METAR KATL 140852Z 16004KT 6SM BR BKN014 OVC022 18/17 A2996 RMK AO2 SLP140 T01830172 55003=
201205140752 METAR KATL 140752Z 16006KT 6SM BR SCT005 BKN017 18/17 A2996 RMK AO2 SLP139 T01830172=
201205140707 SPECI KATL 140707Z 13003KT 7SM SCT007 SCT014 18/17 A2996 RMK AO2=
201205140652 METAR KATL 140652Z 00000KT 6SM BR BKN007 BKN014 18/17 A2997 RMK AO2 SLP143 T01830172=
201205140642 SPECI KATL 140642Z 18004KT 6SM BR BKN007 OVC016 18/17 A2997 RMK AO2=
201205140559 SPECI KATL 140559Z 17007KT 6SM BR FEW007 BKN018 OVC035 19/18 A2999 RMK AO2=
201205140552 METAR KATL 140552Z 17007KT 6SM BR BKN016 BKN022 OVC038 19/18 A2999 RMK AO2 SLP149 60005 T01890178 10200 20183 56015=
201205140526 SPECI KATL 140526Z 17007KT 7SM BKN022 BKN041 19/17 A3000 RMK AO2=
201205140452 METAR KATL 140452Z 18010KT 7SM FEW005 SCT045 SCT250 19/17 A3001 RMK AO2 SLP157 T01890172 402060156=
201205140424 SPECI KATL 140424Z 17010G16KT 6SM BR SCT004 18/18 A3001 RMK AO2=
201205140352 METAR KATL 140352Z 15009KT 6SM BR BKN005 19/18 A3001 RMK AO2 SLP156 T01890178=
201205140255 SPECI KATL 140255Z 14005KT 6SM BR BKN007 OVC013 19/18 A3003 RMK AO2=
201205140252 METAR KATL 140252Z 14004KT 6SM BR SCT007 OVC011 19/18 A3003 RMK AO2 RAE04 SLP166 P0000 60005 T01940178 53005=
201205140230 SPECI KATL 140230Z 14005KT 6SM BR SCT007 BKN011 OVC017 19/18 A3003 RMK AO2 RAE04 P0000=
201205140152 METAR KATL 140152Z 14007KT 3SM -RA BR BKN007 OVC016 19/18 A3003 RMK AO2 RAB04 SLP163 P0005 T01890178=
201205140144 SPECI KATL 140144Z 14005KT 2SM RA BR BKN005 BKN011 OVC016 19/18 A3003 RMK AO2 RAB04 P0004=
201205140140 SPECI KATL 140140Z VRB05KT 2SM RA BR SCT007 BKN011 OVC016 19/18 A3003 RMK AO2 RAB04 P0002=
201205140052 METAR KATL 140052Z 13007KT 7SM BKN012 BKN020 OVC029 19/17 A3002 RMK AO2 SLP161 T01940172=
201205132352 METAR KATL 132352Z 14005KT 7SM BKN012 OVC020 20/17 A3002 RMK AO2 SLP161 60023 T02000172 10206 20183 56008=
201205132314 SPECI KATL 132314Z 14009KT 7SM BKN012 OVC020 20/18 A3002 RMK AO2=
201205132252 METAR KATL 132252Z 15008KT 7SM FEW010 OVC018 20/18 A3002 RMK AO2 SLP162 T02000178=
201205132152 METAR KATL 132152Z 15007KT 7SM SCT010 BKN023 OVC037 20/18 A3004 RMK AO2 SLP166 T02000178=
201205132120 SPECI KATL 132120Z 15006KT 7SM SCT012 BKN021 OVC040 20/18 A3004 RMK AO2=
201205132052 METAR KATL 132052Z 14005KT 7SM BKN014 OVC023 19/18 A3004 RMK AO2 RAB06E31 SLP169 P0010 60023 T01890178 56019=
201205132041 SPECI KATL 132041Z 15006KT 6SM BR FEW007 OVC014 19/18 A3005 RMK AO2 RAB06E31 P0010=
201205132023 SPECI KATL 132023Z VRB04KT 3SM -RA BR BKN009 OVC016 19/18 A3005 RMK AO2 RAB06 P0010=
201205132017 SPECI KATL 132017Z 16005KT 1 3/4SM R09R/4500VP6000FT +RA BR BKN009 OVC016 18/17 A3006 RMK AO2 RAB06 P0007=
201205131952 METAR KATL 131952Z 15008KT 7SM BKN009 OVC014 19/17 A3006 RMK AO2 RAE35 SLP174 P0008 T01890172=
201205131945 SPECI KATL 131945Z 14006KT 7SM BKN009 OVC015 19/17 A3006 RMK AO2 RAE35 P0008=
201205131907 SPECI KATL 131907Z 16006KT 5SM -RA BR SCT009 BKN014 OVC034 18/17 A3009 RMK AO2 P0008=
201205131859 SPECI KATL 131859Z 16011KT 3SM RA BR BKN009 BKN016 OVC034 18/17 A3008 RMK AO2 P0007=
201205131855 SPECI KATL 131855Z 16010KT 1 3/4SM R09R/4000VP6000FT RA BR FEW006 BKN009 OVC040 18/17 A3008 RMK AO2 P0006=
201205131848 METAR KATL 131848Z 15013KT 1 3/4SM R09R/4000VP6000FT +RA BR OVC011 18/17 A3008=
201205131847 SPECI KATL 131847Z 16014KT 1 3/4SM R09R/4000VP6000FT +RA BR OVC011 18/17 A3009 RMK AO2 RAB43 P0003=
201205131752 METAR KATL 131752Z 17008G17KT 10SM OVC011 18/17 A3010 RMK AO2 SLP188 60037 T01830167 10189 20156 58017=
201205131709 SPECI KATL 131709Z 16009KT 7SM OVC011 18/16 A3012 RMK AO2=
201205131652 METAR KATL 131652Z 16011G19KT 7SM BKN009 OVC012 18/16 A3012 RMK AO2 SLP195 T01830161=
201205131552 METAR KATL 131552Z 14007KT 6SM BR BKN009 OVC012 17/16 A3014 RMK AO2 RAE1453B27E39 SLP201 P0001 T01720161=
201205131502 SPECI KATL 131502Z 13005KT 3SM BR OVC005 16/15 A3015 RMK AO2 SFC VIS 6 RAE1453=
201205131452 METAR KATL 131452Z 14005KT 2SM -RA BR OVC005 16/15 A3015 RMK AO2 SFC VIS 5 SLP205 P0006 60036 T01610150 55010=
201205131359 SPECI KATL 131359Z 12007KT 2SM -RA BR BKN007 OVC010 16/15 A3015 RMK AO2 SFC VIS 4 P0000=
201205131352 METAR KATL 131352Z 11008KT 1 3/4SM R09R/4000VP6000FT -RA BR BKN007 OVC010 16/15 A3015 RMK AO2 TWR VIS 2 SLP205 P0018 T01560150=
201205131342 SPECI KATL 131342Z 12008KT 1 1/2SM R09R/4000VP6000FT RA BR OVC007 16/15 A3016 RMK AO2 TWR VIS 2 P0006=
201205131324 SPECI KATL 131324Z 12008KT 6SM -RA BR BKN009 OVC012 16/15 A3016 RMK AO2 P0003=
201205131259 SPECI KATL 131259Z 12010KT 4SM -RA BR FEW009 BKN013 OVC038 16/14 A3017 RMK AO2 P0001=
201205131252 METAR KATL 131252Z 12008KT 5SM -RA BR FEW016 SCT025 OVC038 16/14 A3017 RMK AO2 SLP209 P0012 T01610144=
201205131218 SPECI KATL 131218Z 12007KT 4SM -RA BR FEW007 SCT010 OVC040 16/14 A3017 RMK AO2 P0010=
201205131209 SPECI KATL 131209Z 11008KT 1 3/4SM RA BR FEW007 BKN023 OVC042 16/14 A3017 RMK AO2 P0009=
201205131200 SPECI KATL 131200Z 13004KT 2 1/2SM -RA BR FEW007 BKN011 OVC034 16/14 A3018 RMK AO2 P0004=
201205131156 SPECI KATL 131156Z 12006KT 1 3/4SM R09R/5000VP6000FT -RA BR FEW007 BKN024 OVC034 16/14 A3018 RMK AO2 P0003=
201205131152 METAR KATL 131152Z 13005KT 2SM R09R/5000VP6000FT +RA BR FEW007 SCT025 OVC034 16/14 A3018 RMK AO2 SLP215 P0009 60062 70066 T01560144 10194 20156 53003=
201205131052 METAR KATL 131052Z 12006KT 6SM RA BR FEW019 SCT027 OVC036 16/14 A3016 RMK AO2 SLP208 P0008 T01560144=
201205130952 METAR KATL 130952Z 11007KT 6SM -RA BR FEW044 BKN080 OVC100 16/14 A3017 RMK AO2 SLP209 P0008 T01610139=
201205130852 METAR KATL 130852Z 12006KT 5SM RA BR FEW045 OVC055 17/15 A3017 RMK AO2 SLP212 P0012 60037 T01670150 57002=
201205130752 METAR KATL 130752Z 14007KT 6SM -RA BR SCT040 OVC050 17/15 A3018 RMK AO2 SLP213 P0015 T01670150=
201205130652 METAR KATL 130652Z 14004KT 5SM RA BR FEW044 SCT055 OVC070 18/16 A3018 RMK AO2 SLP214 P0010 T01780156=
201205130552 METAR KATL 130552Z 13006KT 9SM -RA BKN070 OVC085 19/15 A3018 RMK AO2 RAE14B46 SLP213 P0001 60001 T01940150 10233 20194 56008=
201205130452 METAR KATL 130452Z 10006KT 9SM -RA FEW042 OVC100 19/16 A3018 RMK AO2 RAB26 SLP215 P0000 T01940161 402440172=
201205130352 METAR KATL 130352Z 12007KT 10SM FEW095 OVC120 20/16 A3020 RMK AO2 RAE40 SLP221 P0000 T02000161=
201205130252 METAR KATL 130252Z 12005KT 10SM -RA OVC110 21/16 A3021 RMK AO2 RAB0155 SLP223 P0000 60000 T02060161 53008=
201205130152 METAR KATL 130152Z 12006KT 10SM BKN110 OVC150 21/16 A3019 RMK AO2 RAE48 SLP217 P0000 T02110161=
201205130052 METAR KATL 130052Z 12007KT 10SM -RA FEW070 OVC100 23/16 A3019 RMK AO2 RAB45 SLP217 P0000 T02280156=
201205122352 METAR KATL 122352Z 14007KT 10SM BKN090 BKN150 OVC200 23/14 A3018 RMK AO2 SLP214 T02330144 10244 20228 53001=
201205122252 METAR KATL 122252Z 15008KT 10SM FEW038 SCT120 OVC150 23/14 A3017 RMK AO2 SLP211 T02330144=
201205122152 METAR KATL 122152Z 16010KT 10SM FEW040 SCT095 BKN180 24/14 A3018 RMK AO2 SLP213 T02390144=
201205122052 METAR KATL 122052Z 14014G18KT 10SM SCT042 BKN095 24/14 A3018 RMK AO2 SLP213 T02390139 58025=
201205121952 METAR KATL 121952Z 16012G18KT 10SM SCT035 BKN045 BKN095 24/14 A3020 RMK AO2 SLP221 T02390139=
201205121852 METAR KATL 121852Z 17015G21KT 10SM BKN036 BKN043 BKN095 23/14 A3024 RMK AO2 SLP232 T02330144=
201205121752 METAR KATL 121752Z 15016G21KT 10SM SCT032 BKN041 BKN110 23/15 A3026 RMK AO2 SLP239 60003 T02330150 10233 20172 58009=
201205121713 SPECI KATL 121713Z 18013G21KT 10SM FEW017 BKN024 BKN090 22/16 A3026 RMK AO2=
201205121652 METAR KATL 121652Z 15008KT 100V180 10SM SCT017 BKN090 21/17 A3027 RMK AO2 SLP244 T02110167=
201205121552 METAR KATL 121552Z 15007KT 10SM FEW015 OVC095 19/16 A3028 RMK AO2 SLP250 T01890161=
201205121452 METAR KATL 121452Z 13007KT 7SM SCT035 OVC095 18/16 A3029 RMK AO2 RAE35 SLP251 P0001 60003 T01780161 50009=
201205121352 METAR KATL 121352Z 13007KT 6SM -RA BR SCT035 OVC095 17/16 A3030 RMK AO2 SLP256 P0002 T01720156=
201205121252 METAR KATL 121252Z 16003KT 8SM -RA FEW060 OVC100 17/15 A3030 RMK AO2 RAB30 SLP253 P0000 T01720150=
201205121152 METAR KATL 121152Z 12007KT 7SM FEW060 OVC250 18/14 A3026 RMK AO2 SLP240 T01780139 10194 20172 53022=
201205121052 METAR KATL 121052Z 12007KT 10SM BKN150 OVC250 18/14 A3023 RMK AO2 SLP229 T01780139=
201205120952 METAR KATL 120952Z 11006KT 10SM SCT150 OVC250 18/13 A3021 RMK AO2 SLP222 T01780133=
201205120852 METAR KATL 120852Z 10005KT 10SM SCT150 OVC250 18/13 A3019 RMK AO2 SLP217 T01780133 53007=
201205120752 METAR KATL 120752Z 11006KT 10SM FEW150 OVC250 18/13 A3017 RMK AO2 SLP209 T01830128=
201205120652 METAR KATL 120652Z 12008KT 10SM FEW150 OVC250 19/12 A3016 RMK AO2 SLP206 T01890122=
201205120552 METAR KATL 120552Z 10006KT 10SM SCT150 OVC250 18/11 A3017 RMK AO2 SLP209 T01830111 10233 20183 51006=
201205120452 METAR KATL 120452Z 08010KT 10SM OVC250 19/10 A3017 RMK AO2 SLP209 T01890100 402560122=
201205120352 METAR KATL 120352Z 08007KT 10SM FEW200 BKN250 19/11 A3017 RMK AO2 SLP209 T01890106=
201205120252 METAR KATL 120252Z 08009KT 10SM SCT200 BKN250 20/11 A3015 RMK AO2 SLP204 T02000111 51013=
201205120152 METAR KATL 120152Z 09007KT 10SM BKN200 OVC250 21/11 A3015 RMK AO2 SLP202 T02060106=
201205120052 METAR KATL 120052Z 09006KT 10SM BKN200 OVC250 22/11 A3013 RMK AO2 SLP195 T02170106=
201205112352 METAR KATL 112352Z 10005KT 10SM BKN200 OVC250 23/09 A3011 RMK AO2 SLP190 T02330094 10256 20228 51001=
201205112252 METAR KATL 112252Z 10006KT 10SM FEW065 BKN200 OVC250 24/09 A3011 RMK AO2 SLP190 T02390089=
201205112152 METAR KATL 112152Z 08008KT 10SM SCT065 BKN200 OVC250 25/09 A3011 RMK AO2 SLP191 T02500094=
201205112052 METAR KATL 112052Z 16008KT 10SM FEW065 BKN200 BKN250 24/09 A3011 RMK AO2 SLP190 T02440094 58001=
201205111952 METAR KATL 111952Z VRB03KT 10SM FEW060 SCT200 BKN250 25/10 A3012 RMK AO2 SLP192 T02500100=
201205111852 METAR KATL 111852Z 17006KT 10SM SCT060 SCT250 25/10 A3012 RMK AO2 SLP194 T02500100=
201205111752 METAR KATL 111752Z 00000KT 10SM FEW055 SCT250 24/09 A3011 RMK AO2 SLP190 T02390094 10239 20167 50003=
201205111652 METAR KATL 111652Z 12007KT 10SM FEW050 23/09 A3012 RMK AO2 SLP193 T02330094=
201205111552 METAR KATL 111552Z 08009G15KT 10SM FEW050 22/09 A3012 RMK AO2 SLP193 T02170089=
201205111452 METAR KATL 111452Z 06011KT 10SM FEW250 21/09 A3010 RMK AO2 SLP187 T02060089 51010=
201205111352 METAR KATL 111352Z 08013G22KT 10SM CLR 19/08 A3010 RMK AO2 SLP187 T01890078=
201205111252 METAR KATL 111252Z 06015KT 10SM CLR 17/06 A3009 RMK AO2 SLP185 T01720061=
201205111152 METAR KATL 111152Z 04012KT 10SM CLR 17/06 A3007 RMK AO2 SLP178 T01670056 10167 20122 51015=
201205111052 METAR KATL 111052Z 04008KT 10SM FEW250 14/06 A3005 RMK AO2 SLP172 T01440061=
201205110952 METAR KATL 110952Z 04005KT 10SM CLR 14/07 A3005 RMK AO2 SLP169 T01390067=
201205110852 METAR KATL 110852Z 35005KT 10SM CLR 13/08 A3003 RMK AO2 SLP162 T01280083 53008 $=
201205110752 METAR KATL 110752Z 34005KT 10SM CLR 13/08 A3001 RMK AO2 SLP157 T01330083 $=
201205110652 METAR KATL 110652Z 32004KT 10SM CLR 14/08 A3001 RMK AO2 SLP156 T01440083 $=
201205110552 METAR KATL 110552Z 33003KT 10SM CLR 16/08 A3000 RMK AO2 SLP153 T01610083 10211 20161 51010 $=
201205110452 METAR KATL 110452Z 35003KT 10SM CLR 17/08 A3000 RMK AO2 SLP153 T01670078 402330117 $=
201205110352 METAR KATL 110352Z 35006KT 10SM CLR 18/08 A2998 RMK AO2 SLP146 T01780078 $=
201205110252 METAR KATL 110252Z 01005KT 10SM CLR 19/07 A2997 RMK AO2 SLP142 T01890072 53013 $=
201205110152 METAR KATL 110152Z 35007KT 10SM CLR 19/07 A2996 RMK AO2 SLP138 T01940072 $=
201205110052 METAR KATL 110052Z 33006KT 10SM CLR 20/07 A2994 RMK AO2 SLP133 T02000072 $=
201205102352 METAR KATL 102352Z 33006KT 10SM FEW060 21/07 A2993 RMK AO2 SLP130 T02110072 10233 20211 53009=
201205102252 METAR KATL 102252Z 33010G16KT 10SM FEW060 22/07 A2991 RMK AO2 SLP125 T02220072=
201205102152 METAR KATL 102152Z 33011G15KT 10SM FEW060 23/08 A2991 RMK AO2 SLP123 T02280078=
201205102052 METAR KATL 102052Z 35011G16KT 10SM FEW060 23/08 A2990 RMK AO2 SLP121 T02330078 56007=
201205101952 METAR KATL 101952Z 31006KT 10SM FEW060 22/07 A2991 RMK AO2 SLP123 T02220067=
201205101852 METAR KATL 101852Z 33012G18KT 10SM FEW060 23/06 A2992 RMK AO2 SLP126 T02280061=
201205101752 METAR KATL 101752Z 29012G17KT 10SM FEW060 22/07 A2992 RMK AO2 SLP128 T02220067 10222 20133 58010=
201205101652 METAR KATL 101652Z 35010KT 320V020 10SM FEW060 21/06 A2994 RMK AO2 SLP134 T02110056=
201205101552 METAR KATL 101552Z 33011KT 10SM FEW055 21/07 A2995 RMK AO2 SLP139 T02060067=
201205101452 METAR KATL 101452Z 01007G15KT 10SM FEW050 SCT250 19/07 A2996 RMK AO2 SLP139 T01940072 51009=
201205101352 METAR KATL 101352Z 34009KT 10SM FEW250 18/09 A2995 RMK AO2 SLP137 T01780089=
201205101252 METAR KATL 101252Z 33008KT 10SM FEW250 15/09 A2994 RMK AO2 SLP135 T01500094=
201205101152 METAR KATL 101152Z 31007KT 10SM CLR 13/09 A2993 RMK AO2 SLP130 70005 T01330089 10139 20117 53020=
201205101052 METAR KATL 101052Z 31008KT 10SM CLR 12/09 A2990 RMK AO2 SLP120 T01170089=
201205100952 METAR KATL 100952Z 31007KT 10SM CLR 12/09 A2987 RMK AO2 SLP113 T01220094 $=
201205100852 METAR KATL 100852Z 31007KT 10SM CLR 12/10 A2987 RMK AO2 SLP111 T01220100 55002 $=
201205100752 METAR KATL 100752Z 32006KT 10SM CLR 12/11 A2986 RMK AO2 SLP108 T01220106 $=
201205100652 METAR KATL 100652Z 31007KT 10SM CLR 13/11 A2986 RMK AO2 SLP108 T01280106 $=
201205100552 METAR KATL 100552Z 30005KT 10SM CLR 14/11 A2987 RMK AO2 SLP112 T01390111 10194 20133 58002 $=
201205100452 METAR KATL 100452Z 30006KT 10SM CLR 14/11 A2988 RMK AO2 SLP115 T01390111 402060139 $=
201205100352 METAR KATL 100352Z 29005KT 10SM CLR 14/11 A2988 RMK AO2 SLP115 T01440111 $=
201205100252 METAR KATL 100252Z 30003KT 10SM CLR 16/11 A2988 RMK AO2 SLP113 T01610111 53017=
201205100152 METAR KATL 100152Z 00000KT 10SM CLR 17/11 A2986 RMK AO2 SLP104 T01670106=
201205100052 METAR KATL 100052Z 33006KT 10SM CLR 17/10 A2983 RMK AO2 SLP096 T01720100=
201205092352 METAR KATL 092352Z 34009G16KT 10SM CLR 19/09 A2982 RMK AO2 SLP093 60001 T01940094 10206 20172 53006=
201205092252 METAR KATL 092252Z 33013G19KT 10SM FEW200 20/10 A2981 RMK AO2 SLP089 T02000100=
201205092152 METAR KATL 092152Z 32014G21KT 10SM FEW020 SCT200 20/12 A2981 RMK AO2 SLP086 T02000117=
201205092115 SPECI KATL 092115Z 33013G21KT 10SM SCT020 BKN200 19/14 A2981 RMK AO2=
201205092103 SPECI KATL 092103Z 32016G22KT 10SM BKN020 BKN200 19/14 A2981 RMK AO2=
201205092052 METAR KATL 092052Z 33016KT 10SM FEW015 SCT100 SCT250 19/14 A2981 RMK AO2 RAE08 SLP086 P0000 60001 T01890139 56014=
201205092010 SPECI KATL 092010Z 32018G24KT 9SM FEW010 BKN020 OVC100 17/16 A2983 RMK AO2 RAE08 P0000=
201205091952 METAR KATL 091952Z 30011KT 9SM -RA FEW013 SCT040 OVC100 18/15 A2982 RMK AO2 RAB31 SLP092 P0001 T01780150=
201205091852 METAR KATL 091852Z 32008KT 10SM FEW010 SCT040 OVC070 18/15 A2985 RMK AO2 RAB05E44 SLP101 P0000 T01780150=
201205091752 METAR KATL 091752Z 33014KT 10SM FEW015 BKN040 OVC100 19/15 A2985 RMK AO2 RAB09E33 SLP102 P0000 60004 T01890150 10200 20183 58004=
201205091734 SPECI KATL 091734Z 32014G19KT 8SM SCT014 BKN039 OVC050 19/16 A2986 RMK AO2 RAB09E33 P0000=
201205091652 METAR KATL 091652Z 31016KT 8SM BKN012 BKN040 OVC070 19/16 A2987 RMK AO2 RAE40 SLP107 P0001 T01940161=
201205091632 SPECI KATL 091632Z 31011KT 6SM -RA BR BKN012 BKN040 OVC070 20/18 A2986 RMK AO2 P0001=
201205091607 SPECI KATL 091607Z 32012KT 6SM -RA BR FEW008 BKN050 OVC080 20/18 A2986 RMK AO2 P0001=
201205091552 METAR KATL 091552Z 32011KT 5SM -RA BR BKN008 BKN065 OVC095 19/18 A2987 RMK AO2 SLP108 P0002 T01940178=
201205091506 SPECI KATL 091506Z 32010KT 6SM -RA BR BKN008 BKN048 OVC100 19/18 A2987 RMK AO2 P0001=
201205091452 METAR KATL 091452Z 33011KT 6SM -RA BR BKN010 BKN050 OVC100 19/18 A2987 RMK AO2 SLP107 P0001 60001 T01940178 53003=
201205091401 SPECI KATL 091401Z 31012KT 6SM -RA BR FEW008 SCT030 OVC100 20/18 A2986 RMK AO2 P0000=
201205091352 METAR KATL 091352Z 31011KT 6SM -RA BR FEW030 BKN070 OVC100 20/18 A2986 RMK AO2 RAB48 SLP103 P0000 T02000178=
201205091252 METAR KATL 091252Z 29007KT 6SM BR FEW075 OVC100 19/18 A2985 RMK AO2 RAE05 SLP100 P0000 T01940178 $=
201205091152 METAR KATL 091152Z 29006KT 10SM -RA OVC100 19/18 A2986 RMK AO2 RAE1059B22 SLP102 P0000 60001 70001 T01940178 10206 20194 53002 $=
201205091052 METAR KATL 091052Z 00000KT 6SM -RA BR FEW042 OVC095 19/18 A2986 RMK AO2 RAB08E27B48 SLP101 P0000 T01940178=
201205090952 METAR KATL 090952Z 25003KT 10SM FEW045 BKN100 OVC200 19/18 A2985 RMK AO2 RAE51 SLP097 P0001 T01940178 $=
201205090852 METAR KATL 090852Z 28011KT 10SM -RA FEW047 SCT065 OVC110 20/17 A2985 RMK AO2 RAB39 SLP100 P0000 60000 T02000172 55006 $=
201205090752 METAR KATL 090752Z 30006KT 10SM BKN180 OVC250 21/18 A2984 RMK AO2 SLP095 T02060178 $=
201205090652 METAR KATL 090652Z 29006KT 10SM FEW150 OVC250 21/18 A2985 RMK AO2 SLP100 T02060183 $=
201205090552 METAR KATL 090552Z 26004KT 10SM SCT180 BKN250 20/18 A2987 RMK AO2 SLP106 T02000178 10244 20200 58009 $=
201205090452 METAR KATL 090452Z 23003KT 10SM SCT180 BKN250 21/18 A2988 RMK AO2 SLP111 T02060178 402890189 $=
201205090352 METAR KATL 090352Z 23005KT 10SM FEW045 BKN180 21/18 A2990 RMK AO2 SLP115 T02110178 $=
201205090252 METAR KATL 090252Z 22004KT 10SM SCT045 SCT200 21/18 A2990 RMK AO2 SLP115 T02110183 51015 $=
201205090152 METAR KATL 090152Z 22003KT 10SM FEW050 SCT200 22/19 A2988 RMK AO2 SLP112 T02170189 $=
201205090052 METAR KATL 090052Z 17007KT 10SM FEW030 SCT200 22/18 A2987 RMK AO2 SLP108 CB DSNT NE SE TCU DSNT SW T02220183 $=
201205082352 METAR KATL 082352Z 16007KT 10SM FEW035TCU SCT200 24/18 A2985 RMK AO2 SLP099 TCU NE DSNT S-SW 60000 T02440178 10289 20233 56006 $=
201205082252 METAR KATL 082252Z COR 00000KT 10SM FEW040CB SCT150 SCT250 27/17 A2985 RMK AO2 SLP099 CB NE MOV SE TCU DSNT S SW W T02720172 $=
201205082152 METAR KATL 082152Z 00000KT 10SM FEW035 SCT250 28/18 A2985 RMK AO2 SLP100 CB DSNT S TCU DSNT SW NW T02780178 $=
201205082052 METAR KATL 082052Z 31003KT 10SM FEW030 BKN090 BKN200 26/18 A2987 RMK AO2 RAB11E44 SLP106 CB DSNT N & E & SW TCU DSNT S-SW-W-NW P0000 60000 T02560183 56018 $=
201205081952 METAR KATL 081952Z 35014G19KT 10SM FEW030CB SCT040TCU BKN090 BKN200 26/17 A2989 RMK AO2 WSHFT 1920 TSE20 SLP111 TS DSIPT OCNL LTGICCG DSNT E CB DSNT E & W MOV SE TCU SE-S-SW SHRA E & W-NW T02610167=
201205081940 SPECI KATL 081940Z 36008KT 10SM FEW030CB SCT040TCU BKN060 BKN200 26/17 A2989 RMK AO2 WSHFT 1920 TSE20 TS DSIPT CB E & NW MOV SE TCU ALQDS SHRA E & NW=
201205081920 SPECI KATL 081920Z 02012G19KT 10SM FEW030CB BKN040TCU BKN060 28/18 A2990 RMK AO2 TSE20 TS DSIPT CB N-NE & NW MOV E TCU OHD & ALQDS SHRA N-NE & NW=
201205081907 SPECI KATL 081907Z 23006KT 10SM TS FEW035CB SCT040TCU BKN060 BKN200 27/18 A2990 RMK AO2 OCNL LTGICCG NW-N-NE TS VC NW-N-NE MOV SE TCU OHD-N-NE SHRA NW-N-NE=
201205081852 METAR KATL 081852Z 21006KT 10SM TS FEW030CB SCT040TCU BKN060 27/18 A2990 RMK AO2 TSB47 SLP117 OCNL LTGICCG NW-N TS VC NW-N MOV E CB DSNT NE TCU NE-E-SE-S-SW T02670183=
201205081847 SPECI KATL 081847Z 23007KT 10SM TS FEW030CB SCT040TCU BKN060 27/19 A2990 RMK AO2 TSB47 OCNL LTGICCG NW-N TS VC NW-N MOV E CB DSNT NE TCU NE-E-SE-S-SW=
201205081806 SPECI KATL 081806Z 23006KT 10SM BKN030TCU BKN040 27/18 A2992 RMK AO2 CB DSNT E & NW TCU ALQDS SHRA DSNT E & NW=
201205081752 METAR KATL 081752Z 22006KT 10SM BKN028TCU BKN040 26/19 A2992 RMK AO2 SLP125 TCU OHD & ALQDS 60000 T02560189 10256 20194 58010=
201205081707 SPECI KATL 081707Z VRB03KT 10SM BKN023TCU BKN050 25/19 A2993 RMK AO2 TCU NE-E & SW-NW=
201205081652 METAR KATL 081652Z VRB05KT 10SM SCT020TCU BKN040 BKN050 25/19 A2994 RMK AO2 SLP130 TCU NE & W-NW-N T02500189=
201205081559 SPECI KATL 081559Z 22005KT 10SM SCT020 BKN030 BKN040 24/18 A2995 RMK AO2=
201205081552 METAR KATL 081552Z 22005KT 10SM BKN020 BKN030 BKN150 24/18 A2995 RMK AO2 SLP134 T02390183=
201205081452 METAR KATL 081452Z VRB03KT 10SM FEW012 BKN015 BKN150 23/19 A2996 RMK AO2 SLP136 60000 T02280189 55004=
201205081447 SPECI KATL 081447Z 00000KT 10SM FEW012 BKN015 BKN150 22/18 A2995 RMK AO2=
201205081352 METAR KATL 081352Z 19004KT 10SM FEW009 BKN012 OVC016 21/18 A2997 RMK AO2 SLP140 T02110183=
201205081301 SPECI KATL 081301Z 20005KT 10SM SCT008 OVC014 20/18 A2997 RMK AO2=
201205081252 METAR KATL 081252Z 20007KT 8SM BKN010 OVC014 20/18 A2997 RMK AO2 RAB15E20 SLP142 P0000 T02000183=
201205081152 METAR KATL 081152Z 19006KT 6SM BR BKN007 BKN010 OVC015 19/18 A2996 RMK AO2 SLP138 70018 T01940183 10194 20189 53007=
201205081052 METAR KATL 081052Z 16005KT 6SM BR BKN005 BKN010 OVC015 19/18 A2994 RMK AO2 SLP132 T01940183=
201205080952 METAR KATL 080952Z 19005KT 6SM BR BKN007 OVC012 19/18 A2995 RMK AO2 SLP133 T01940178=
201205080852 METAR KATL 080852Z 18003KT 6SM BR BKN009 OVC035 19/18 A2994 RMK AO2 SLP130 T01890178 53002=
201205080840 SPECI KATL 080840Z 20003KT 6SM BR BKN009 BKN035 19/18 A2994 RMK AO2=
201205080752 METAR KATL 080752Z COR 17004KT 6SM BR SCT006 BKN100 19/18 A2993 RMK AO2 SLP126 T01890178=
201205080714 SPECI KATL 080714Z 17003KT 7SM BKN006 OVC065 19/18 A2993 RMK AO2=
201205080652 METAR KATL 080652Z 17004KT 7SM FEW008 BKN065 OVC080 19/18 A2993 RMK AO2 SLP128 T01940178=
201205080645 SPECI KATL 080645Z 00000KT 7SM FEW008 SCT043 OVC080 19/18 A2993 RMK AO2=
201205080621 SPECI KATL 080621Z 15004KT 7SM SCT010 BKN029 BKN090 19/18 A2994 RMK AO2=
201205080552 METAR KATL 080552Z 17004KT 6SM BR BKN013 BKN038 OVC090 19/18 A2994 RMK AO2 SLP133 60003 T01940178 10222 20189 50000=
201205080536 SPECI KATL 080536Z 00000KT 10SM BKN013 OVC075 19/18 A2995 RMK AO2=
201205080452 METAR KATL 080452Z 14004KT 10SM SCT060 BKN150 BKN250 19/18 A2994 RMK AO2 SLP133 T01940178 402670189=
201205080352 METAR KATL 080352Z 14006KT 10SM FEW065 BKN150 BKN250 20/18 A2994 RMK AO2 SLP132 T02000178=
201205080252 METAR KATL 080252Z 16007KT 10SM FEW008 BKN140 BKN250 21/19 A2994 RMK AO2 SLP131 60003 T02060189 53006=
201205080152 METAR KATL 080152Z 14005KT 10SM FEW100 BKN140 21/19 A2993 RMK AO2 SLP127 T02110189=
201205080052 METAR KATL 080052Z 12006KT 10SM FEW070 SCT110 BKN150 21/18 A2991 RMK AO2 RAB2355E52 SLP122 FRQ LTG DSNT S-SW P0003 T02110178=
201205072352 METAR KATL 072352Z 00000KT 10SM SCT035TCU BKN055 BKN110 BKN200 22/18 A2992 RMK AO2 SLP125 TCU OHD-W SHRA SW-W 60001 T02220178 10267 20206 53003=
201205072252 METAR KATL 072252Z 12008KT 10SM SCT035 BKN050 BKN150 23/18 A2992 RMK AO2 SLP123 CB DSNT SE TCU DSNT S-SW T02280183=
201205072152 METAR KATL 072152Z 08014KT 10SM SCT035CB SCT050 BKN080 BKN150 24/19 A2992 RMK AO2 TSB05E49 SLP124 TS DSIPTD CB N-NE E-SE MOV NW TCU SE-S-SW T02440189=
201205072149 SPECI KATL 072149Z 08012KT 10SM SCT035CB SCT050 BKN080 BKN150 25/19 A2992 RMK AO2 TSB05E49 TS DSIPTD CB N-NE E-SE MOV NW TCU SE-S-SW=
201205072105 SPECI KATL 072105Z 13003KT 10SM TS FEW030CB SCT045 SCT120 26/17 A2991 RMK AO2 TSB05 OCNL LTGICCG NE TS NE MOV W TCU E-S=
201205072052 METAR KATL 072052Z 22003KT 10SM FEW030CB SCT040TCU SCT120 26/17 A2991 RMK AO2 SLP121 CB E MOV N TCU W-NW-N TCU DSNT S-SW SHRA E 60001 T02560172 56030=
201205071952 METAR KATL 071952Z 13004KT 10SM FEW017 SCT020 SCT120 24/19 A2994 RMK AO2 SLP130 T02440189=
201205071852 METAR KATL 071852Z 00000KT 10SM FEW015 SCT050 BKN110 22/19 A2997 RMK AO2 RAE20 SLP143 P0001 T02220189=
201205071752 METAR KATL 071752Z 00000KT 7SM -RA FEW010 BKN050 OVC100 21/18 A3001 RMK AO2 SLP154 P0012 60014 T02060183 10222 20200 50000=
201205071712 SPECI KATL 071712Z 15005KT 7SM -RA FEW010CB BKN050 OVC080 20/18 A3001 RMK AO2 VIS LWR SE SHRA CB SE MOV N P0006 $=
201205071652 METAR KATL 071652Z 00000KT 7SM -RA FEW020CB BKN025 OVC030 21/18 A3002 RMK AO2 RAB34 SLP158 VIS LWR SE-S-SW SHRA CB SE-S-SW MOV N P0002 T02060183=
201205071552 METAR KATL 071552Z 14006KT 10SM FEW017 BKN019 OVC022 22/18 A3002 RMK AO2 SLP159 T02220178=
201205071452 METAR KATL 071452Z 11006KT 10SM BKN016 BKN020 OVC150 22/18 A3000 RMK AO2 SLP152 T02170178 53002=
201205071425 SPECI KATL 071425Z 14005KT 10SM BKN016 BKN023 OVC150 22/18 A3000 RMK AO2=
201205071352 METAR KATL 071352Z 12008KT 9SM BKN012 BKN017 OVC150 21/18 A2999 RMK AO2 SLP149 T02110178=
201205071321 SPECI KATL 071321Z 14007KT 7SM FEW012 SCT017 SCT150 21/18 A3000 RMK AO2=
201205071252 METAR KATL 071252Z 12008KT 8SM BKN015 BKN060 21/18 A3000 RMK AO2 SLP149 T02060178=
201205071250 SPECI KATL 071250Z 12007KT 8SM BKN015 BKN060 21/18 A3000 RMK AO2=
201205071152 METAR KATL 071152Z 10006KT 7SM FEW060 SCT150 20/17 A2998 RMK AO2 SLP142 70080 T02000172 10206 20189 53006=
201205071052 METAR KATL 071052Z 12005KT 10SM FEW140 19/17 A2996 RMK AO2 SLP136 T01940167=
201205070952 METAR KATL 070952Z 00000KT 10SM SCT140 19/17 A2996 RMK AO2 SLP135 T01890172=
201205070852 METAR KATL 070852Z 00000KT 10SM SCT140 19/17 A2996 RMK AO2 SLP135 T01890167 55002=
201205070752 METAR KATL 070752Z 12003KT 10SM SCT140 20/17 A2994 RMK AO2 SLP129 T02000172=
201205070652 METAR KATL 070652Z 06011KT 10SM FEW050 SCT120 BKN180 21/17 A2995 RMK AO2 SLP131 T02060172=
201205070552 METAR KATL 070552Z 06005KT 10SM BKN090 BKN120 BKN250 20/17 A2996 RMK AO2 RAE00 SLP137 P0000 60080 T02000172 10272 20183 58015=
201205070452 METAR KATL 070452Z 03006KT 10SM -RA FEW070 BKN095 BKN120 OVC200 20/18 A2998 RMK AO2 TSE09 SLP144 TS DSIPT P0009 T02000178 403110183=
201205070410 SPECI KATL 070410Z 23006KT 8SM +RA FEW036 SCT070 OVC100 19/17 A3001 RMK AO2 TSE09 TS DSIPT P0002=
201205070352 METAR KATL 070352Z 29007KT 10SM -TSRA FEW038CB BKN070 OVC090 19/17 A3002 RMK AO2 RAB0259 SLP158 OCNL LTGIC SW TS VC SW MOV STNRY P0071 T01890172=
201205070328 SPECI KATL 070328Z VRB03KT 3SM R09R/5000VP6000FT +TSRA BR FEW030CB OVC042 19/18 A3001 RMK AO2 RAB0259 OCNL LTGIC W & NW TS W & NW MOV SW P0060=
201205070311 SPECI KATL 070311Z 31013KT 1SM R09R/6000VP6000FT +TSRA BR FEW026 SCT036CB OVC048 19/17 A3002 RMK AO2 RAB0259 OCNL LTGIC OHD & N TS OHD & N MOV W P0017=
201205070305 SPECI KATL 070305Z 30010KT 3SM R09R/6000VP6000FT -TSRA FEW038CB OVC048 21/17 A3001 RMK AO2 SFC VIS 4 RAB0259 OCNL LTGIC OHD & N TS OHD & N P0000=
201205070252 METAR KATL 070252Z 26006KT 10SM TS FEW028 BKN050CB OVC250 22/16 A3001 RMK AO2 WSHFT 0141 TSB50 PRESRR SLP153 OCNL LTGIC N & E OCNL LTGICCG DSNT SW TS N & E MOV SW CB DSNT SW T02220161 53028=
201205070157 SPECI KATL 070157Z 35010KT 10SM BKN065 BKN110 BKN180 BKN250 24/16 A2997 RMK AO2 WSHFT 0141 $=
201205070152 METAR KATL 070152Z 35013KT 10SM SCT065 BKN110 BKN180 BKN250 24/16 A2997 RMK AO2 SLP139 T02440156 $=
201205070052 METAR KATL 070052Z 00000KT 10SM SCT065 SCT100 BKN180 BKN250 26/16 A2994 RMK AO2 SLP127 OCNL LTGICCG DSNT SW & NW-N CB DSNT SW & NW-N T02610156 $=
201205062352 METAR KATL 062352Z 31009KT 10SM FEW055 SCT065 BKN150 BKN250 26/16 A2993 RMK AO2 TSE51 SLP124 OCNL LTGICCG DSNT S & W-NW TS DSIPT CB DSNT S & W-NW SHRA W-NW T02560161 10311 20256 53006=
201205062252 METAR KATL 062252Z 10006KT 10SM TS FEW055CB SCT070 SCT180 BKN250 28/14 A2991 RMK AO2 TSB15 SLP121 OCNL LTGICCG SW & W OCNL LTGICCG DSNT NW TS VC SW & W MOV STNRY CB DSNT NW SHRA SW-NW T02830144=
201205062215 SPECI KATL 062215Z 09008KT 10SM TS FEW055CB SCT070 SCT150 BKN250 29/15 A2991 RMK AO2 TSB15 OCNL LTGIC W TS VC W MOV STNRY=
201205062152 METAR KATL 062152Z 11004KT 10SM FEW060TCU SCT150 SCT250 29/14 A2991 RMK AO2 SLP118 TCU W T02940139=
201205062052 METAR KATL 062052Z 09009KT 10SM FEW060 SCT150 SCT250 30/15 A2991 RMK AO2 SLP117 T03000150 56020=
201205061952 METAR KATL 061952Z 09011G16KT 10SM FEW050 SCT150 BKN250 30/17 A2992 RMK AO2 SLP120 T03000167=
201205061852 METAR KATL 061852Z 34003KT 10SM FEW050 SCT250 29/17 A2994 RMK AO2 SLP127 T02940167=
201205061752 METAR KATL 061752Z 29006KT 10SM FEW043 SCT080 BKN250 28/16 A2997 RMK AO2 SLP137 T02780161 10283 20211 58014=
201205061652 METAR KATL 061652Z 27009KT 10SM SCT043 BKN250 28/19 A3002 RMK AO2 SLP154 CB DSNT W MOV SE T02780189=
201205061552 METAR KATL 061552Z 27008KT 10SM SCT044TCU BKN070 BKN250 25/18 A3002 RMK AO2 SLP156 TCU SW T02500183=
201205061452 METAR KATL 061452Z 06003KT 10SM SCT048 BKN070 26/17 A3001 RMK AO2 SLP152 CB DSNT W MOV S T02610167 51013=
201205061352 METAR KATL 061352Z 04008KT 10SM FEW050 SCT075 SCT250 25/17 A3001 RMK AO2 SLP152 T02500167=
201205061252 METAR KATL 061252Z 33003KT 10SM BKN049 BKN065 BKN075 22/18 A2999 RMK AO2 SLP146 T02220183=
201205061152 METAR KATL 061152Z 34007KT 8SM FEW045 SCT150 SCT250 21/18 A2997 RMK AO2 SLP140 T02110183 10228 20200 53010=
201205061052 METAR KATL 061052Z 31004KT 9SM FEW250 21/18 A2995 RMK AO2 SLP133 T02060183=
201205060952 METAR KATL 060952Z 29004KT 10SM FEW250 21/18 A2994 RMK AO2 SLP129 T02060183=
201205060852 METAR KATL 060852Z 32005KT 10SM SCT250 21/19 A2994 RMK AO2 SLP127 T02110189 56005=
201205060752 METAR KATL 060752Z 31006KT 10SM FEW250 22/19 A2994 RMK AO2 SLP127 T02170194=
201205060652 METAR KATL 060652Z 31006KT 10SM FEW250 23/19 A2995 RMK AO2 SLP130 T02280194=
201205060552 METAR KATL 060552Z 29006KT 10SM FEW250 22/19 A2996 RMK AO2 SLP132 T02220194 10278 20222 50000=
201205060452 METAR KATL 060452Z 29007KT 10SM FEW250 23/19 A2996 RMK AO2 SLP133 T02330194 403110200=
201205060352 METAR KATL 060352Z 29006KT 10SM SCT250 24/19 A2996 RMK AO2 SLP133 T02440194=
201205060252 METAR KATL 060252Z 28008KT 10SM SCT250 25/19 A2996 RMK AO2 SLP133 T02500194 51012=
201205060152 METAR KATL 060152Z 28008KT 10SM FEW070 BKN250 26/19 A2995 RMK AO2 SLP130 T02610189=
201205060052 METAR KATL 060052Z 27006KT 10SM FEW055 BKN250 27/19 A2993 RMK AO2 SLP125 T02670189=
201205052352 METAR KATL 052352Z 28006KT 10SM FEW055 SCT070 BKN180 BKN250 28/18 A2992 RMK AO2 SLP121 T02780183 10311 20278 53004=
201205052252 METAR KATL 052252Z 29010KT 10SM SCT050 BKN250 29/18 A2991 RMK AO2 SLP118 T02940183=
201205052152 METAR KATL 052152Z 24009KT 10SM FEW050 SCT250 31/18 A2991 RMK AO2 SLP118 T03060178=
201205052052 METAR KATL 052052Z 24008G14KT 10SM FEW055 31/18 A2991 RMK AO2 SLP117 T03060178 56022=
201205051952 METAR KATL 051952Z 23008KT 190V270 10SM FEW050 31/17 A2991 RMK AO2 PRESFR SLP118 T03060167=
201205051852 METAR KATL 051852Z 29010KT 10SM FEW050 30/18 A2996 RMK AO2 SLP133 T03000183=
201205051752 METAR KATL 051752Z 23008KT 10SM FEW045 29/18 A2998 RMK AO2 SLP140 T02940183 10294 20217 58022=
201205051652 METAR KATL 051652Z 34007KT 310V010 10SM SCT037 29/18 A3002 RMK AO2 SLP156 T02890178=
201205051552 METAR KATL 051552Z 30011KT 10SM BKN035 28/19 A3004 RMK AO2 SLP164 T02780189=
201205051452 METAR KATL 051452Z 29008KT 10SM SCT030 26/19 A3004 RMK AO2 SLP163 T02610194 51009=
201205051352 METAR KATL 051352Z 30007KT 10SM FEW025 25/20 A3003 RMK AO2 SLP160 T02500200=
201205051252 METAR KATL 051252Z 32008KT 7SM FEW034 23/19 A3003 RMK AO2 SLP159 T02330189=
201205051152 METAR KATL 051152Z 31006KT 10SM FEW034 22/19 A3001 RMK AO2 SLP155 70042 T02170189 10222 20200 53009=
201205051052 METAR KATL 051052Z 31006KT 10SM FEW033 SCT250 21/18 A2999 RMK AO2 SLP146 T02060183=
201205050952 METAR KATL 050952Z COR 26005KT 10SM FEW037 21/18 A2999 RMK AO2 SLP144 T02060183=
201205050852 METAR KATL 050852Z 28004KT 10SM CLR 21/18 A2999 RMK AO2 SLP144 T02060183 55000=
201205050752 METAR KATL 050752Z 27003KT 10SM CLR 21/18 A2998 RMK AO2 SLP143 T02110183=
201205050652 METAR KATL 050652Z 29004KT 10SM CLR 22/18 A2998 RMK AO2 SLP143 T02220183=
201205050552 METAR KATL 050552Z 00000KT 10SM CLR 22/18 A2999 RMK AO2 SLP145 T02170183 10272 20217 56012=
201205050452 METAR KATL 050452Z 23004KT 10SM CLR 22/18 A2999 RMK AO2 SLP148 T02220183 402940189=
201205050352 METAR KATL 050352Z 00000KT 10SM CLR 23/18 A3001 RMK AO2 SLP152 T02330183=
201205050252 METAR KATL 050252Z 00000KT 10SM CLR 23/18 A3002 RMK AO2 SLP158 T02330183 53001=
201205050252 SPECI KATL 050252Z 00000KT 10SM CLR 23/18 A3002 RMK AO2 SLP158 T02330183 53001=
201205050152 METAR KATL 050152Z 27003KT 10SM CLR 26/18 A3002 RMK AO2 SLP157 T02560178=
201205050052 METAR KATL 050052Z 28003KT 10SM CLR 27/17 A3001 RMK AO2 SLP154 T02670172=
201205042352 METAR KATL 042352Z 30006KT 10SM FEW045 27/18 A3002 RMK AO2 SLP156 T02720178 10294 20256 55010=
201205042252 METAR KATL 042252Z 27005KT 10SM SCT045 28/18 A3001 RMK AO2 SLP154 T02830178=
201205042152 METAR KATL 042152Z 28005KT 10SM SCT045TCU SCT060 29/17 A3002 RMK AO2 SLP156 TCU NE T02890172=
201205042052 METAR KATL 042052Z 29007KT 10SM SCT045TCU BKN060 BKN075 29/18 A3005 RMK AO2 SLP166 TCU OHD-ALQDS T02890178 56021=
201205041952 METAR KATL 041952Z VRB04KT 10SM SCT040 BKN050 28/17 A3006 RMK AO2 SLP171 T02780172=
201205041852 METAR KATL 041852Z VRB03KT 10SM FEW040 SCT050 SCT080 27/17 A3009 RMK AO2 SLP179 TCU DSNT NE-E-SE-S T02720172=
201205041752 METAR KATL 041752Z 28004KT 10SM BKN035TCU BKN050 26/18 A3011 RMK AO2 SLP188 TCU OHD-SE-S-SW-W-NW 60042 T02560178 10272 20189 58009=
201205041652 METAR KATL 041652Z 00000KT 10SM BKN035 BKN055 26/18 A3012 RMK AO2 SLP192 T02610178=
201205041552 METAR KATL 041552Z 06003KT 10SM FEW025 SCT040 SCT080 24/18 A3014 RMK AO2 SLP197 T02390178=
201205041452 METAR KATL 041452Z 10006KT 10SM BKN040 BKN050 BKN080 22/19 A3014 RMK AO2 SLP199 TCU DSNT S-SW 60042 T02220189 50002=
201205041352 METAR KATL 041352Z 07007KT 10SM BKN037 BKN050 BKN060 21/18 A3015 RMK AO2 RAB1254E03 SLP203 SHRA DSNT NE-SE P0000 T02060178=
201205041252 METAR KATL 041252Z COR 05008KT 8SM FEW031TCU BKN049 OVC075 20/18 A3014 RMK AO2 RAE51 SLP200 TCU NE-SE SHRA NE P0042 T02000178=
201205041247 SPECI KATL 041247Z 03009KT 7SM -RA FEW031TCU BKN044 OVC070 20/18 A3014 RMK AO2 TCU NE-SE P0042=
201205041247 SPECI KATL 041247Z 03009KT 7SM -RA FEW031TCU BKN044 OVC070 20/18 A3014 RMK AO2 TCU NE-SE P0042=
201205041230 SPECI KATL 041230Z 01013KT 4SM -RA BR FEW011 BKN027TCU OVC075 19/18 A3014 RMK AO2 TCU E-SE P0042=
201205041230 SPECI KATL 041230Z 01013KT 4SM -RA BR FEW011 BKN027TCU OVC075 19/18 A3014 RMK AO2 TCU E-SE P0042=
201205041218 SPECI KATL 041218Z 03013KT 1/2SM R09R/2600VP6000FT +RA FG SCT011TCU BKN027 OVC095 19/18 A3013 RMK AO2 TCU OHD P0025=
201205041218 SPECI KATL 041218Z 03013KT 1/2SM R09R/2600VP6000FT +RA FG SCT011TCU BKN027 OVC095 19/18 A3013 RMK AO2 TCU OHD P0025=
201205041215 SPECI KATL 041215Z 35008KT 1/2SM R09R/2600VP6000FT +RA FG SCT011TCU BKN039 OVC095 19/18 A3014 RMK AO2 TCU OHD P0008=
201205041215 SPECI KATL 041215Z 35008KT 1/2SM R09R/2600VP6000FT +RA FG SCT011TCU BKN039 OVC095 19/18 A3014 RMK AO2 TCU OHD P0008=
201205041152 METAR KATL 041152Z 00000KT 8SM -RA FEW040TCU BKN080 OVC095 20/18 A3012 RMK AO2 RAB10E31B47 SLP193 TCU E-SE P0000 60006 70006 T02000183 10217 20194 53016=
201205041052 METAR KATL 041052Z 34004KT 10SM FEW040 OVC070 21/17 A3010 RMK AO2 RAB03E20 SLP186 SHRA ALQDS P0006 T02060172=
201205040952 METAR KATL 040952Z 00000KT 10SM BKN040 OVC080 21/17 A3008 RMK AO2 SLP177 SHRA S T02110167=
201205040852 METAR KATL 040852Z 36005KT 10SM FEW050 OVC085 21/17 A3007 RMK AO2 SLP175 T02110172 56002=
201205040752 METAR KATL 040752Z 32003KT 10SM OVC085 21/17 A3008 RMK AO2 SLP176 T02060172=
201205040652 METAR KATL 040652Z 00000KT 10SM OVC090 21/17 A3007 RMK AO2 SLP175 T02110167=
201205040552 METAR KATL 040552Z 00000KT 10SM FEW050 BKN095 OVC150 21/17 A3008 RMK AO2 SLP176 60000 T02110167 10222 20194 58009=
201205040452 METAR KATL 040452Z 01004KT 10SM FEW050 BKN100 OVC150 21/17 A3009 RMK AO2 RAB04E26 SLP181 P0000 T02060172 402890194=
201205040352 METAR KATL 040352Z 31006KT 10SM SCT150 BKN200 OVC250 21/17 A3010 RMK AO2 SLP183 T02060167=
201205040252 METAR KATL 040252Z 03004KT 10SM BKN150 OVC250 22/16 A3011 RMK AO2 SLP187 T02170161 50004=
201205040152 METAR KATL 040152Z 32003KT 10SM BKN150 OVC200 21/16 A3011 RMK AO2 SLP188 T02060161=
201205040052 METAR KATL 040052Z 00000KT 10SM BKN140 OVC200 21/16 A3010 RMK AO2 SLP187 T02060161=
201205032352 METAR KATL 032352Z 00000KT 10SM FEW030 BKN150 OVC200 22/16 A3010 RMK AO2 RAB2259E28 SLP184 P0000 60000 T02220161 10289 20211 50000=
201205032252 METAR KATL 032252Z 30011KT 10SM FEW030 BKN140 OVC200 22/17 A3011 RMK AO2 SLP189 VIRGA OHD-SW T02170167=
201205032152 METAR KATL 032152Z 22004KT 10SM FEW025 SCT050 BKN150 OVC200 26/17 A3010 RMK AO2 SLP184 FRQ LTGICCG DSNT SW-NW T02610167=
201205032052 METAR KATL 032052Z 16004KT 10SM FEW050 BKN150 OVC180 27/16 A3009 RMK AO2 SLP182 FRQ LTGICCG DSNT SW-NW CB DSNT SW-NW SHRA DSNT SW-NW BINOVC DSNT E T02720156 55007=
201205031952 METAR KATL 031952Z 15008KT 10SM FEW050 SCT150 BKN180 BKN240 28/16 A3009 RMK AO2 SLP181 CB DSNT SW-W SHRA DSNT SW-W T02830156=
201205031852 METAR KATL 031852Z 13006KT 10SM BKN040TCU BKN150 OVC180 28/17 A3011 RMK AO2 SLP185 TCU OHD-SW-W-NW T02780172=
201205031752 METAR KATL 031752Z VRB05KT 10SM SCT050 BKN180 OVC240 28/17 A3012 RMK AO2 SLP188 T02830172 10283 20200 58013=
201205031652 METAR KATL 031652Z 15005KT 10SM SCT038 BKN180 OVC240 27/17 A3014 RMK AO2 SLP195 T02720172=
201205031552 METAR KATL 031552Z 00000KT 10SM SCT030TCU SCT180 BKN240 27/19 A3016 RMK AO2 SLP202 TCU N-NE & SE T02670189=
201205031452 METAR KATL 031452Z 00000KT 10SM FEW030 BKN180 BKN240 26/19 A3015 RMK AO2 SLP201 T02560189 50005=
201205031352 METAR KATL 031352Z VRB03KT 10SM FEW150 BKN180 BKN240 24/19 A3016 RMK AO2 SLP203 T02440189=
201205031252 METAR KATL 031252Z 15003KT 10SM FEW100 SCT150 BKN250 22/18 A3015 RMK AO2 SLP202 T02170183=
201205031152 METAR KATL 031152Z 11004KT 10SM FEW150 BKN250 20/17 A3014 RMK AO2 SLP197 T02000172 10228 20194 51017=
201205031052 METAR KATL 031052Z COR 13004KT 10SM BKN250 20/17 A3012 RMK AO2 SLP191 T02000172=
201205030952 METAR KATL 030952Z 16005KT 10SM BKN250 20/17 A3010 RMK AO2 SLP184 T02000167 $=
201205030852 METAR KATL 030852Z 17006KT 10SM BKN250 20/17 A3009 RMK AO2 SLP178 T02000167 56005 $=
201205030752 METAR KATL 030752Z 19007KT 10SM BKN250 21/16 A3009 RMK AO2 SLP179 T02060161 $=
201205030652 METAR KATL 030652Z 15006KT 10SM BKN250 22/14 A3008 RMK AO2 SLP176 T02220144 $=
201205030552 METAR KATL 030552Z 18007KT 10SM BKN250 22/14 A3010 RMK AO2 SLP183 T02220144 10289 20222 58005 $=
201205030452 METAR KATL 030452Z 17005KT 10SM BKN250 23/14 A3012 RMK AO2 SLP188 T02330144 403110194 $=
201205030352 METAR KATL 030352Z 14003KT 10SM BKN250 24/15 A3011 RMK AO2 SLP186 T02440150 $=
201205030252 METAR KATL 030252Z 00000KT 10SM BKN250 25/14 A3012 RMK AO2 SLP188 T02500144 51016 $=
201205030152 METAR KATL 030152Z 14004KT 10SM FEW065 BKN250 26/14 A3011 RMK AO2 SLP185 T02610144 $=
201205030052 METAR KATL 030052Z 15005KT 10SM BKN250 27/14 A3009 RMK AO2 SLP180 T02720139 $=
201205022352 METAR KATL 022352Z 13006KT 10SM FEW065 BKN250 29/13 A3007 RMK AO2 SLP173 T02890133 10311 20289 55000 $=
201205022252 METAR KATL 022252Z 15005KT 10SM FEW070 SCT250 29/14 A3007 RMK AO2 SLP173 T02940139=
201205022152 METAR KATL 022152Z 14005KT 10SM SCT070 SCT250 31/14 A3006 RMK AO2 SLP171 T03060139=
201205022052 METAR KATL 022052Z VRB03KT 10SM SCT060 SCT250 29/15 A3007 RMK AO2 SLP173 T02940150 56019=
201205021952 METAR KATL 021952Z 16006KT 10SM SCT060 SCT250 29/16 A3009 RMK AO2 SLP178 T02940156=
201205021852 METAR KATL 021852Z 00000KT 10SM SCT055 SCT250 29/17 A3011 RMK AO2 SLP186 T02940167=
201205021752 METAR KATL 021752Z 00000KT 10SM SCT045 SCT250 30/17 A3013 RMK AO2 SLP191 T03000172 10300 20200 58014=
201205021652 METAR KATL 021652Z 23005KT 10SM BKN038 BKN250 27/18 A3015 RMK AO2 SLP200 T02720178=
201205021552 METAR KATL 021552Z 18004KT 10SM FEW025 SCT200 SCT250 27/19 A3017 RMK AO2 SLP205 T02670189=
201205021452 METAR KATL 021452Z VRB03KT 10SM FEW020 SCT200 BKN250 25/19 A3017 RMK AO2 SLP207 T02500189 51008=
201205021352 METAR KATL 021352Z 22007KT 10SM BKN250 23/18 A3017 RMK AO2 SLP207 T02330178=
201205021252 METAR KATL 021252Z 19006KT 10SM BKN250 22/17 A3016 RMK AO2 SLP204 T02170172=
201205021152 METAR KATL 021152Z 14005KT 10SM BKN250 20/17 A3015 RMK AO2 SLP200 T02000167 10222 20194 53016=
201205021052 METAR KATL 021052Z 15003KT 10SM SCT150 BKN250 19/16 A3013 RMK AO2 SLP192 T01940161=
201205020952 METAR KATL 020952Z 00000KT 10SM FEW200 20/16 A3011 RMK AO2 SLP186 T02000161=
201205020852 METAR KATL 020852Z 15004KT 10SM SCT180 20/16 A3010 RMK AO2 SLP182 T02000156 53005=
201205020752 METAR KATL 020752Z 17004KT 10SM FEW200 20/15 A3009 RMK AO2 SLP180 T02000150=
201205020652 METAR KATL 020652Z 18007KT 10SM FEW140 SCT200 22/15 A3008 RMK AO2 SLP176 T02170150=
201205020552 METAR KATL 020552Z 18006KT 10SM SCT120 BKN250 22/14 A3008 RMK AO2 SLP177 T02220144 10283 20217 50000=
201205020452 METAR KATL 020452Z 19006KT 10SM SCT200 BKN250 23/15 A3008 RMK AO2 SLP177 T02330150 403110194=
201205020352 METAR KATL 020352Z 19007KT 10SM SCT250 24/16 A3008 RMK AO2 SLP177 T02390156=
201205020252 METAR KATL 020252Z 17008KT 10SM SCT250 26/16 A3008 RMK AO2 SLP177 T02560161 51010=
201205020152 METAR KATL 020152Z 16007KT 10SM SCT250 26/17 A3008 RMK AO2 SLP176 T02610167=
201205020052 METAR KATL 020052Z 16006KT 10SM FEW055 SCT250 27/17 A3007 RMK AO2 SLP173 T02720167=
201205012352 METAR KATL 012352Z 17007KT 10SM FEW055 SCT250 28/16 A3005 RMK AO2 SLP167 T02830161 10311 20283 55004=
201205012252 METAR KATL 012252Z 18008KT 10SM FEW055 SCT250 30/16 A3005 RMK AO2 SLP165 T03000161=
201205012152 METAR KATL 012152Z 19004KT 10SM FEW060 31/16 A3005 RMK AO2 SLP166 T03060161=
201205012052 METAR KATL 012052Z 16006KT 10SM FEW055 31/16 A3006 RMK AO2 SLP171 TCU DSNT SW T03060161 58017=
201205011952 METAR KATL 011952Z 00000KT 10SM SCT055 SCT250 30/17 A3008 RMK AO2 SLP176 TCU DSNT NW T03000172=
201205011852 METAR KATL 011852Z VRB04KT 10SM SCT050 SCT250 30/17 A3010 RMK AO2 SLP182 TCU DSNT N T03000167=
201205011752 METAR KATL 011752Z 21003KT 10SM BKN038 29/18 A3012 RMK AO2 SLP187 TCU DSNT S & DSNT NW T02890178 10289 20206 58016=
201205011652 METAR KATL 011652Z 26006KT 10SM FEW035 SCT250 28/19 A3014 RMK AO2 SLP196 T02830194=
201205011552 METAR KATL 011552Z 23005KT 10SM FEW035 SCT250 27/19 A3016 RMK AO2 SLP203 T02670189=
201205011452 METAR KATL 011452Z 20006KT 10SM FEW060 SCT250 24/18 A3017 RMK AO2 SLP205 T02440183 55002=
201205011352 METAR KATL 011352Z 20006KT 10SM FEW060 SCT070 SCT250 23/18 A3016 RMK AO2 SLP204 T02280178=
201205011252 METAR KATL 011252Z COR 18007KT 10SM SCT070 22/17 A3017 RMK AO2 SLP208 T02170172=
