##########################################################
# Query made at 04/19/2024 23:27:53 UTC
# Time interval: from 06/01/2012 12:00  to 06/30/2012 12:59  UTC
##########################################################

##########################################################
# KATL, Atlanta, Hartsfield - Jackson Atlanta International Airport (United States)
# WMO index: 72219. WIGOS ID: 0-20000-0-72219
# Latitude 33-38-59N. Longitude 084-25-00W. Altitude 312 m.
##########################################################

201206301252 METAR KATL 301252Z 30007KT 9SM SCT150 28/18 A2994 RMK AO2 SLP124 T02830183 $=
201206301152 METAR KATL 301152Z 31005KT 9SM FEW150 27/18 A2992 RMK AO2 SLP119 T02720178 10283 20244 51014 $=
201206301052 METAR KATL 301052Z 28005KT 9SM FEW150 26/17 A2991 RMK AO2 SLP115 T02560172 $=
201206300952 METAR KATL 300952Z 30004KT 10SM FEW250 24/18 A2989 RMK AO2 SLP109 T02440178 $=
201206300852 METAR KATL 300852Z 30005KT 10SM CLR 26/17 A2988 RMK AO2 SLP104 T02610172 56009 $=
201206300752 METAR KATL 300752Z 29006KT 10SM CLR 27/17 A2989 RMK AO2 SLP106 T02670172 $=
201206300652 METAR KATL 300652Z 28006KT 10SM FEW250 28/17 A2989 RMK AO2 SLP107 T02780167 $=
201206300552 METAR KATL 300552Z 27006KT 10SM FEW250 28/17 A2991 RMK AO2 SLP113 T02830172 10372 20283 50000 $=
201206300452 METAR KATL 300452Z 29008KT 10SM CLR 29/17 A2992 RMK AO2 SLP118 T02940172 404000233 $=
201206300352 METAR KATL 300352Z 29006KT 10SM CLR 30/17 A2992 RMK AO2 SLP116 T03000167 $=
201206300252 METAR KATL 300252Z 27007KT 10SM CLR 32/16 A2991 RMK AO2 SLP114 T03170161 53010 $=
201206300152 METAR KATL 300152Z 26005KT 10SM CLR 33/15 A2989 RMK AO2 SLP108 T03280150 $=
201206300052 METAR KATL 300052Z 26004KT 10SM CLR 34/14 A2988 RMK AO2 SLP104 T03440144 $=
201206292352 METAR KATL 292352Z 27004KT 10SM CLR 37/13 A2988 RMK AO2 SLP103 T03720128 10400 20372 56009 $=
201206292252 METAR KATL 292252Z 34006KT 10SM CLR 39/12 A2988 RMK AO2 SLP104 T03940117 $=
201206292152 METAR KATL 292152Z 34008KT 10SM CLR 40/12 A2989 RMK AO2 SLP108 T04000122=
201206292052 METAR KATL 292052Z VRB03KT 10SM CLR 39/11 A2990 RMK AO2 SLP112 T03940111 58019=
201206291952 METAR KATL 291952Z 29006KT 10SM CLR 39/12 A2992 RMK AO2 SLP119 T03940122=
201206291852 METAR KATL 291852Z 00000KT 10SM CLR 38/12 A2994 RMK AO2 SLP126 T03830122=
201206291752 METAR KATL 291752Z 36008G14KT 10SM CLR 38/14 A2996 RMK AO2 SLP131 T03780139 10378 20244 58011=
201206291652 METAR KATL 291652Z 34010KT 10SM CLR 36/15 A2998 RMK AO2 SLP136 T03610150=
201206291552 METAR KATL 291552Z 34015G21KT 10SM CLR 35/15 A2999 RMK AO2 SLP141 T03500150=
201206291452 METAR KATL 291452Z 33012KT 10SM CLR 33/16 A2999 RMK AO2 SLP142 T03330161 58002=
201206291352 METAR KATL 291352Z 30010KT 10SM FEW150 30/18 A3000 RMK AO2 SLP144 T03000183=
201206291252 METAR KATL 291252Z 29008KT 8SM FEW200 27/18 A3000 RMK AO2 SLP147 T02720183=
201206291152 METAR KATL 291152Z 28007KT 8SM SCT200 24/19 A3000 RMK AO2 SLP145 T02440189 10272 20233 53008=
201206291052 METAR KATL 291052Z 29007KT 8SM FEW150 SCT200 23/19 A2999 RMK AO2 SLP144 T02330189=
201206290952 METAR KATL 290952Z 28008KT 10SM FEW150 24/19 A2998 RMK AO2 SLP137 T02390189=
201206290852 METAR KATL 290852Z 27007KT 10SM CLR 24/19 A2997 RMK AO2 SLP136 T02440189 58009=
201206290752 METAR KATL 290752Z 28008KT 10SM CLR 26/19 A2998 RMK AO2 SLP137 T02610189=
201206290652 METAR KATL 290652Z 25007KT 10SM CLR 27/19 A3000 RMK AO2 SLP143 T02720189=
201206290552 METAR KATL 290552Z 27010KT 10SM CLR 27/18 A3000 RMK AO2 SLP145 T02720183 10344 20272 58005=
201206290452 METAR KATL 290452Z 26007KT 10SM CLR 28/18 A3001 RMK AO2 SLP149 T02830178 403670206=
201206290352 METAR KATL 290352Z 25004KT 10SM CLR 28/18 A3002 RMK AO2 SLP152 T02830178=
201206290252 METAR KATL 290252Z 24004KT 10SM CLR 31/16 A3001 RMK AO2 SLP150 T03060161 53003=
201206290152 METAR KATL 290152Z 24005KT 10SM CLR 32/16 A3001 RMK AO2 SLP148 T03170156=
201206290052 METAR KATL 290052Z 25005KT 10SM FEW150 33/16 A3001 RMK AO2 SLP148 T03280156=
201206282352 METAR KATL 282352Z 24007KT 10SM CLR 34/16 A3001 RMK AO2 SLP149 T03440156 10367 20339 56008=
201206282252 METAR KATL 282252Z 28010KT 10SM CLR 36/16 A3001 RMK AO2 SLP149 T03560161=
201206282152 METAR KATL 282152Z VRB03KT 10SM CLR 36/16 A3001 RMK AO2 SLP152 T03610156=
201206282052 METAR KATL 282052Z VRB05KT 10SM CLR 36/14 A3003 RMK AO2 SLP157 T03610144 58016=
201206281952 METAR KATL 281952Z 00000KT 10SM CLR 36/14 A3005 RMK AO2 SLP163 T03560139=
201206281852 METAR KATL 281852Z 28010G15KT 10SM CLR 36/14 A3007 RMK AO2 SLP169 T03610144=
201206281752 METAR KATL 281752Z 25005KT 10SM FEW250 34/16 A3008 RMK AO2 SLP174 T03440156 10344 20233 58008=
201206281652 METAR KATL 281652Z 27006KT 10SM FEW250 33/16 A3009 RMK AO2 SLP176 T03330156=
201206281552 METAR KATL 281552Z 30007KT 240V340 10SM CLR 32/17 A3010 RMK AO2 SLP180 T03220167=
201206281452 METAR KATL 281452Z 29010KT 10SM FEW250 30/17 A3010 RMK AO2 SLP182 T03000172 50008=
201206281352 METAR KATL 281352Z 31008KT 10SM CLR 28/16 A3011 RMK AO2 SLP183 T02780161=
201206281252 METAR KATL 281252Z 29007KT 10SM CLR 26/16 A3009 RMK AO2 SLP178 T02610156=
201206281152 METAR KATL 281152Z 28006KT 10SM CLR 23/16 A3008 RMK AO2 SLP174 T02330156 10239 20206 53016=
201206281052 METAR KATL 281052Z 29003KT 10SM CLR 21/14 A3006 RMK AO2 SLP169 T02110139=
201206280952 METAR KATL 280952Z 00000KT 10SM CLR 21/14 A3004 RMK AO2 SLP162 T02060139=
201206280852 METAR KATL 280852Z 21003KT 10SM CLR 21/13 A3003 RMK AO2 SLP158 T02110133 55002=
201206280752 METAR KATL 280752Z 00000KT 10SM CLR 23/12 A3002 RMK AO2 SLP156 T02280122=
201206280652 METAR KATL 280652Z 28004KT 10SM CLR 24/12 A3003 RMK AO2 SLP156 T02390122=
201206280552 METAR KATL 280552Z 00000KT 10SM CLR 23/13 A3004 RMK AO2 SLP160 T02330128 10306 20228 50002=
201206280452 METAR KATL 280452Z 22003KT 10SM CLR 23/14 A3004 RMK AO2 SLP163 T02280139 403220178=
201206280352 METAR KATL 280352Z 00000KT 10SM CLR 25/13 A3004 RMK AO2 SLP162 T02500128=
201206280252 METAR KATL 280252Z 00000KT 10SM CLR 26/13 A3003 RMK AO2 SLP158 T02560133 53012=
201206280152 METAR KATL 280152Z 00000KT 10SM CLR 28/12 A3002 RMK AO2 SLP153 T02830117=
201206280052 METAR KATL 280052Z 33005KT 10SM CLR 29/11 A3001 RMK AO2 SLP150 T02940106=
201206272352 METAR KATL 272352Z 33005KT 10SM CLR 31/09 A3000 RMK AO2 SLP147 T03060094 10322 20289 55001=
201206272252 METAR KATL 272252Z 32008KT 10SM CLR 32/09 A2999 RMK AO2 SLP147 T03170094=
201206272152 METAR KATL 272152Z VRB06KT 10SM CLR 32/09 A3000 RMK AO2 SLP148 T03220094=
201206272052 METAR KATL 272052Z 33008KT 10SM CLR 32/12 A3000 RMK AO2 SLP148 T03170117 56010=
201206271952 METAR KATL 271952Z COR 05006KT 10SM CLR 31/11 A3000 RMK AO2 SLP150 T03060111=
201206271852 METAR KATL 271852Z 01010KT 10SM CLR 31/11 A3002 RMK AO2 SLP153 T03110106=
201206271752 METAR KATL 271752Z 06003KT 10SM CLR 29/11 A3003 RMK AO2 SLP157 T02940106 10300 20206 50000=
201206271652 METAR KATL 271652Z 05007KT 10SM CLR 28/11 A3004 RMK AO2 SLP162 T02830111=
201206271552 METAR KATL 271552Z VRB03KT 10SM CLR 27/11 A3004 RMK AO2 SLP163 T02720106=
201206271452 METAR KATL 271452Z 06005KT 10SM CLR 26/11 A3003 RMK AO2 SLP157 T02610106 51015=
201206271352 METAR KATL 271352Z 06006KT 10SM CLR 24/11 A3002 RMK AO2 SLP155 T02390111=
201206271252 METAR KATL 271252Z 08004KT 10SM CLR 22/10 A3001 RMK AO2 SLP151 T02220100=
201206271152 METAR KATL 271152Z 06005KT 10SM CLR 21/12 A2998 RMK AO2 SLP143 T02060117 10222 20178 53025=
201206271052 METAR KATL 271052Z 09005KT 10SM FEW250 18/12 A2995 RMK AO2 SLP131 T01830117=
201206270952 METAR KATL 270952Z 09005KT 10SM FEW250 18/12 A2993 RMK AO2 SLP125 T01830117=
201206270852 METAR KATL 270852Z 08007KT 10SM CLR 19/12 A2991 RMK AO2 SLP117 T01940117 53008=
201206270752 METAR KATL 270752Z 09006KT 10SM CLR 20/12 A2990 RMK AO2 SLP112 T02000117=
201206270652 METAR KATL 270652Z 09008KT 10SM CLR 21/12 A2988 RMK AO2 SLP108 T02110117=
201206270552 METAR KATL 270552Z 08008KT 10SM CLR 22/12 A2988 RMK AO2 SLP107 T02220117 10294 20222 51009=
201206270452 METAR KATL 270452Z 08008KT 10SM CLR 23/11 A2988 RMK AO2 SLP107 T02330111 403220233=
201206270352 METAR KATL 270352Z 08006KT 10SM CLR 24/10 A2987 RMK AO2 SLP102 T02390100=
201206270252 METAR KATL 270252Z 08009KT 10SM FEW080 26/09 A2985 RMK AO2 SLP097 T02610094 53023=
201206270152 METAR KATL 270152Z 07010KT 10SM FEW250 27/09 A2982 RMK AO2 SLP087 T02720089=
201206270052 METAR KATL 270052Z 08011KT 10SM FEW250 28/11 A2980 RMK AO2 SLP079 T02830106=
201206262352 METAR KATL 262352Z 07011KT 10SM FEW300 29/10 A2978 RMK AO2 SLP074 T02940100 10322 20294 53004=
201206262252 METAR KATL 262252Z 07010KT 10SM FEW300 31/09 A2977 RMK AO2 SLP068 T03110094=
201206262152 METAR KATL 262152Z 05014G20KT 10SM FEW300 32/11 A2978 RMK AO2 SLP070 T03170106=
201206262052 METAR KATL 262052Z 05012G21KT 10SM FEW080 32/12 A2977 RMK AO2 SLP069 T03170117 56008=
201206261952 METAR KATL 261952Z 03014KT 10SM FEW070 32/13 A2978 RMK AO2 SLP070 T03170128=
201206261852 METAR KATL 261852Z 04017G22KT 10SM FEW065 32/15 A2979 RMK AO2 SLP075 T03170150=
201206261752 METAR KATL 261752Z 04014G18KT 10SM FEW055 SCT250 31/17 A2980 RMK AO2 SLP077 T03060167 10311 20244 58008=
201206261652 METAR KATL 261652Z 09009G18KT 10SM FEW250 29/16 A2981 RMK AO2 SLP081 T02940156=
201206261552 METAR KATL 261552Z 06016G21KT 10SM FEW250 29/16 A2982 RMK AO2 SLP085 T02940156=
201206261452 METAR KATL 261452Z 06018G23KT 10SM CLR 28/16 A2982 RMK AO2 SLP085 T02780156 50007=
201206261352 METAR KATL 261352Z 06018G23KT 10SM FEW040 27/16 A2982 RMK AO2 PK WND 07027/1336 SLP087 T02670161=
201206261252 METAR KATL 261252Z 07020G24KT 10SM CLR 26/17 A2982 RMK AO2 SLP084 T02560172=
201206261152 METAR KATL 261152Z 07018G24KT 10SM SCT035 SCT150 24/18 A2980 RMK AO2 SLP078 T02440183 10261 20233 53014=
201206261052 METAR KATL 261052Z 03009KT 10SM FEW025 SCT200 24/20 A2977 RMK AO2 SLP070 T02440200=
201206260952 METAR KATL 260952Z 04006KT 10SM CLR 24/20 A2975 RMK AO2 SLP061 T02440200 $=
201206260852 METAR KATL 260852Z 07004KT 10SM FEW060 23/19 A2976 RMK AO2 SLP063 T02330194 53005 $=
201206260752 METAR KATL 260752Z 08004KT 10SM CLR 24/19 A2974 RMK AO2 SLP059 T02440194 $=
201206260652 METAR KATL 260652Z 10003KT 10SM CLR 25/20 A2973 RMK AO2 SLP056 T02500200 $=
201206260552 METAR KATL 260552Z 00000KT 10SM SCT250 26/19 A2974 RMK AO2 SLP058 T02610194 10328 20261 58002 $=
201206260452 METAR KATL 260452Z 14005KT 10SM FEW070 BKN250 27/19 A2975 RMK AO2 SLP063 T02720194 403390217 $=
201206260352 METAR KATL 260352Z 12007KT 10SM BKN070 OVC250 28/18 A2975 RMK AO2 SLP063 T02830183 $=
201206260252 SPECI KATL 260252Z 00000KT 10SM SCT065 BKN080 OVC250 29/18 A2975 RMK AO2 SLP060 T02890183 53007 $=
201206260252 METAR KATL 260252Z 00000KT 10SM SCT065 BKN080 OVC250 29/18 A2975 RMK AO2 SLP060 T02890183 53007 $=
201206260152 METAR KATL 260152Z 14007KT 10SM SCT065 OVC250 29/18 A2972 RMK AO2 SLP054 T02940183 $=
201206260052 METAR KATL 260052Z 10007KT 10SM SCT065 BKN200 OVC250 31/17 A2972 RMK AO2 SLP053 T03110172 $=
201206252352 METAR KATL 252352Z 06012KT 10SM FEW070 BKN250 33/16 A2973 RMK AO2 SLP053 CB DSNT N T03280161 10339 20311 55004=
201206252252 METAR KATL 252252Z 05011KT 10SM FEW070 BKN250 33/16 A2972 RMK AO2 SLP052 CB DSNT NE T03330161=
201206252152 METAR KATL 252152Z 05011G18KT 10SM FEW070 SCT250 34/16 A2972 RMK AO2 SLP053 CB DSNT N T03390161=
201206252052 SPECI KATL 252052Z 06012G16KT 10SM FEW060 SCT200 SCT250 33/18 A2974 RMK AO2 SLP057 CB DSNT NE T03280178 56025=
201206252052 METAR KATL 252052Z 06012G16KT 10SM FEW060 SCT200 SCT250 33/18 A2974 RMK AO2 SLP057 CB DSNT NE T03280178 56025=
201206251952 METAR KATL 251952Z 07009G18KT 10SM FEW055 SCT200 SCT250 33/18 A2976 RMK AO2 SLP065 T03280178=
201206251852 METAR KATL 251852Z 04011G18KT 10SM FEW050 SCT200 BKN250 32/19 A2978 RMK AO2 SLP072 T03220189=
201206251752 METAR KATL 251752Z 06007G16KT 340V080 10SM FEW048 SCT200 SCT250 31/19 A2981 RMK AO2 SLP083 T03110194 10311 20222 58020=
201206251652 METAR KATL 251652Z 06011KT 10SM FEW040 SCT200 BKN250 30/19 A2984 RMK AO2 SLP092 T03000194=
201206251552 METAR KATL 251552Z 07008KT 10SM FEW030 BKN200 BKN250 28/19 A2986 RMK AO2 SLP099 T02780194=
201206251452 METAR KATL 251452Z 06008KT 10SM FEW030 SCT200 BKN250 26/19 A2987 RMK AO2 SLP104 T02610194 58006=
201206251352 METAR KATL 251352Z 08009KT 10SM FEW020 SCT200 BKN250 24/19 A2988 RMK AO2 SLP107 T02440194=
201206251252 METAR KATL 251252Z 07008KT 10SM BKN250 24/19 A2989 RMK AO2 SLP109 T02390194=
201206251152 METAR KATL 251152Z 07010KT 10SM FEW150 BKN250 22/19 A2989 RMK AO2 SLP110 T02220194 10239 20217 51005=
201206251052 METAR KATL 251052Z 05008KT 10SM SCT250 22/19 A2989 RMK AO2 SLP110 T02220194=
201206250952 METAR KATL 250952Z 07008KT 10SM SCT250 22/19 A2988 RMK AO2 SLP107 T02220194=
201206250852 METAR KATL 250852Z 07008KT 10SM FEW025 SCT200 22/20 A2988 RMK AO2 SLP105 T02220200 56007=
201206250752 METAR KATL 250752Z 11007KT 10SM FEW014 SCT025 BKN200 23/19 A2988 RMK AO2 SLP107 T02280194=
201206250724 SPECI KATL 250724Z 11005KT 10SM FEW018 23/19 A2988 RMK AO2=
201206250700 SPECI KATL 250700Z 00000KT 10SM BKN018 23/19 A2989 RMK AO2=
201206250652 METAR KATL 250652Z 16004KT 10SM FEW120 SCT160 BKN250 23/19 A2989 RMK AO2 SLP109 T02280194=
201206250552 METAR KATL 250552Z 14003KT 10SM FEW150 BKN250 24/19 A2990 RMK AO2 SLP111 T02390189 10294 20239 58008=
201206250452 METAR KATL 250452Z 15004KT 10SM FEW120 BKN250 24/19 A2990 RMK AO2 SLP113 T02440189 403390233=
201206250352 METAR KATL 250352Z 16005KT 10SM FEW120 OVC250 25/20 A2992 RMK AO2 SLP119 T02500200=
201206250252 METAR KATL 250252Z 15006KT 10SM FEW060 BKN250 26/20 A2992 RMK AO2 SLP120 T02610200 53009=
201206250152 METAR KATL 250152Z 17007KT 10SM FEW055 SCT075 OVC250 27/21 A2991 RMK AO2 SLP118 T02670206=
201206250052 METAR KATL 250052Z 15005KT 10SM FEW055 SCT100 OVC250 28/21 A2990 RMK AO2 SLP112 T02830206=
201206242352 METAR KATL 242352Z 17005KT 9SM SCT055 BKN150 OVC200 29/19 A2989 RMK AO2 SLP111 60000 T02940194 10328 20289 56006=
201206242252 METAR KATL 242252Z 14008KT 9SM BKN050 BKN150 OVC220 29/19 A2989 RMK AO2 SLP112 T02940194=
201206242152 METAR KATL 242152Z 15008KT 10SM SCT035TCU SCT060 BKN220 32/20 A2990 RMK AO2 SLP111 TCU NE-E T03170200=
201206242052 METAR KATL 242052Z 18003KT 10SM FEW030TCU SCT060 BKN220 31/19 A2991 RMK AO2 RAB1958E12 SLP116 CB DSNT SW TCU W-N P0000 60000 T03110194 58007=
201206241952 METAR KATL 241952Z COR 17008KT 10SM FEW040 BKN060TCU BKN090 29/20 A2992 RMK AO2 SLP121 CB DSNT S MOV SW TCU W-N & NE T02940200=
201206241852 METAR KATL 241852Z 14007KT 10SM BKN050 BKN070 OVC250 32/19 A2992 RMK AO2 SLP121 T03170189=
201206241752 METAR KATL 241752Z 14005KT 10SM BKN050 BKN060 BKN250 32/19 A2993 RMK AO2 SLP124 T03220189 10339 20250 58020=
201206241652 METAR KATL 241652Z 04006KT 10SM SCT040 BKN250 32/19 A2996 RMK AO2 SLP132 T03220189=
201206241552 METAR KATL 241552Z 04004KT 10SM FEW040 SCT250 31/21 A2997 RMK AO2 SLP137 T03060206=
201206241452 METAR KATL 241452Z COR 07006KT 10SM FEW075 SCT250 29/22 A3000 RMK AO2 SLP144 ACC NW-N T02940217 58001=
201206241352 METAR KATL 241352Z 10005KT 10SM FEW070 SCT100 SCT250 28/21 A3000 RMK AO2 SLP147 ACC W-N T02780211=
201206241252 METAR KATL 241252Z 08006KT 10SM FEW050 SCT150 BKN250 26/20 A3000 RMK AO2 SLP147 T02610200=
201206241152 METAR KATL 241152Z 00000KT 10SM FEW080 SCT130 BKN250 24/21 A3000 RMK AO2 SLP146 T02440206 10261 20233 53007=
201206241052 METAR KATL 241052Z 00000KT 10SM SCT250 24/20 A2997 RMK AO2 SLP137 T02390200=
201206240952 METAR KATL 240952Z 00000KT 10SM FEW140 24/19 A2997 RMK AO2 SLP136 T02390194=
201206240852 METAR KATL 240852Z 15003KT 10SM FEW140 24/20 A2998 RMK AO2 SLP138 T02390200 55004=
201206240752 METAR KATL 240752Z 00000KT 10SM SCT140 24/19 A2997 RMK AO2 SLP138 T02440194=
201206240652 METAR KATL 240652Z 21003KT 10SM BKN120 25/19 A2998 RMK AO2 SLP139 T02500189=
201206240552 METAR KATL 240552Z 15004KT 10SM SCT130 26/18 A2999 RMK AO2 SLP142 T02560183 10322 20256 51005=
201206240452 METAR KATL 240452Z 00000KT 10SM FEW130 27/18 A2998 RMK AO2 SLP141 T02670178 403330233=
201206240352 METAR KATL 240352Z 16004KT 10SM FEW130 28/18 A2998 RMK AO2 SLP139 T02780178=
201206240252 METAR KATL 240252Z 00000KT 10SM FEW090 SCT130 SCT250 30/17 A2997 RMK AO2 SLP137 T03000172 51010=
201206240152 METAR KATL 240152Z 00000KT 10SM FEW090 BKN120 BKN250 30/17 A2996 RMK AO2 SLP135 T03000172=
201206240052 METAR KATL 240052Z 19005KT 10SM FEW060 SCT090 BKN110 BKN250 31/17 A2996 RMK AO2 SLP134 T03060172=
201206232352 METAR KATL 232352Z 14005KT 10SM FEW055TCU SCT070 SCT110 BKN250 32/16 A2994 RMK AO2 SLP127 CB DSNT NE & NW TCU NW T03220161 10333 20311 53001=
201206232252 METAR KATL 232252Z 00000KT 10SM SCT065 SCT110 BKN250 33/17 A2993 RMK AO2 SLP124 T03280172=
201206232152 METAR KATL 232152Z 10004KT 10SM FEW050 SCT110 SCT250 33/18 A2994 RMK AO2 SLP125 CB DSNT NW T03280183=
201206232052 METAR KATL 232052Z 11007G15KT 10SM FEW030CB SCT050 SCT075 32/18 A2994 RMK AO2 SLP126 CB 5 SE MOV SE SHRA AT AP T03220183 56008=
201206231952 METAR KATL 231952Z COR 22007KT 10SM SCT040CB SCT050TCU SCT110 33/19 A2994 RMK AO2 SLP126 CB 5 NE MOV S TCU S-W T03280189=
201206231852 METAR KATL 231852Z 18006KT 10SM FEW050TCU SCT085 SCT250 32/19 A2995 RMK AO2 SLP130 TCU N-NE & S-SE & OHD T03170189=
201206231752 METAR KATL 231752Z 18007KT 10SM FEW045TCU SCT250 32/21 A2996 RMK AO2 SLP135 TCU SE T03170206 10317 20239 58009=
201206231652 METAR KATL 231652Z 14004KT 10SM FEW045 SCT090 SCT250 30/19 A2997 RMK AO2 SLP138 MDT CU E-SE T03000194=
201206231552 METAR KATL 231552Z VRB04KT 10SM BKN095 29/19 A2999 RMK AO2 SLP143 T02890194=
201206231452 METAR KATL 231452Z 00000KT 10SM BKN090 27/19 A2999 RMK AO2 SLP145 T02720194 52018=
201206231352 METAR KATL 231352Z 06003KT 10SM BKN100 27/19 A2997 RMK AO2 SLP139 T02720189=
201206231252 METAR KATL 231252Z 10006KT 10SM FEW050 26/19 A2995 RMK AO2 SLP132 T02610189=
201206231152 METAR KATL 231152Z 06005KT 10SM SCT110 24/18 A2994 RMK AO2 SLP126 70002 T02440183 10256 20233 53012=
201206231052 METAR KATL 231052Z 08004KT 10SM FEW050 SCT100 BKN150 23/19 A2993 RMK AO2 SLP123 T02330189=
201206230952 METAR KATL 230952Z 00000KT 10SM SCT100 24/18 A2991 RMK AO2 SLP115 T02440183=
201206230852 METAR KATL 230852Z 00000KT 10SM SCT100 24/18 A2990 RMK AO2 SLP113 T02440178 55007=
201206230752 METAR KATL 230752Z 15004KT 10SM FEW095 24/18 A2990 RMK AO2 SLP113 T02440183=
201206230652 METAR KATL 230652Z 15004KT 10SM FEW065 SCT090 BKN150 24/19 A2991 RMK AO2 SLP115 T02440189=
201206230552 METAR KATL 230552Z 14007KT 10SM BKN070 BKN120 26/20 A2992 RMK AO2 SLP120 60000 T02560200 10289 20250 58004=
201206230452 METAR KATL 230452Z 00000KT 10SM BKN070 BKN090 BKN110 26/21 A2993 RMK AO2 SLP124 T02610206 403330217=
201206230352 METAR KATL 230352Z 00000KT 10SM FEW055 BKN085 OVC110 26/21 A2994 RMK AO2 RAE18 SLP125 P0000 T02610206=
201206230252 METAR KATL 230252Z 33007KT 10SM -RA BKN055 BKN080 OVC110 26/20 A2994 RMK AO2 RAB51 SLP125 P0000 60000 T02610200 53017=
201206230152 METAR KATL 230152Z 10003KT 10SM BKN055 BKN070 BKN200 27/19 A2990 RMK AO2 SLP113 FRQ LTGICCG DSNT NW T02720189=
201206230052 METAR KATL 230052Z 18006KT 10SM SCT050CB BKN075 BKN150 26/21 A2989 RMK AO2 RAE08 SLP113 CB NE AND DSNT SE MOV SE P0000 T02610206=
201206222352 METAR KATL 222352Z 30008KT 9SM -RA BKN060CB BKN075 BKN200 28/21 A2988 RMK AO2 RAB27 SLP109 CB OHD-S AND DSNT NE MOV SE TCU ALQDS P0002 60002 T02780206 10333 20278 53001=
201206222252 METAR KATL 222252Z 21007KT 10SM SCT065TCU BKN090 BKN200 32/17 A2987 RMK AO2 SLP104 CB DSNT NE AND SW TCU OHD-NW AND N-NE T03170167=
201206222152 METAR KATL 222152Z VRB06KT 10SM SCT065TCU BKN080 33/17 A2988 RMK AO2 SLP106 TCU OHD-W AND DSNT ALQDS T03280172=
201206222052 METAR KATL 222052Z VRB06KT 10SM SCT065TCU BKN080 33/17 A2988 RMK AO2 SLP106 CB DSNT N TCU OHD-S & W-NW-N T03280172 56019=
201206221952 METAR KATL 221952Z 30004KT 10SM BKN060TCU BKN080 32/18 A2990 RMK AO2 SLP113 TCU OHD-W-NW-N T03170178=
201206221852 METAR KATL 221852Z VRB03KT 10SM SCT065TCU SCT250 32/18 A2992 RMK AO2 SLP119 TCU W-NW-N T03170178=
201206221752 METAR KATL 221752Z 25003KT 10SM SCT060TCU SCT250 31/18 A2994 RMK AO2 SLP127 TCU NE & SE-S-SW T03110183 10322 20233 58008=
201206221652 METAR KATL 221652Z VRB04KT 10SM SCT055 SCT250 31/18 A2996 RMK AO2 SLP133 T03060178=
201206221552 METAR KATL 221552Z VRB03KT 10SM FEW040 SCT060 SCT250 31/19 A2996 RMK AO2 SLP134 T03110189=
201206221452 METAR KATL 221452Z VRB04KT 10SM FEW060 SCT250 29/18 A2996 RMK AO2 SLP135 T02890183 58001=
201206221352 METAR KATL 221352Z 20005KT 10SM FEW060 SCT250 27/18 A2997 RMK AO2 SLP136 T02670178=
201206221252 METAR KATL 221252Z 20004KT 10SM FEW055 25/17 A2997 RMK AO2 SLP138 T02500172=
201206221152 METAR KATL 221152Z 00000KT 10SM FEW055 SCT250 23/18 A2997 RMK AO2 SLP137 T02330178 10239 20217 53003 $=
201206221052 METAR KATL 221052Z 00000KT 10SM SCT055 SCT250 23/17 A2996 RMK AO2 SLP135 T02280167=
201206220952 METAR KATL 220952Z 00000KT 10SM SCT055 SCT250 23/17 A2995 RMK AO2 SLP132 T02280167 $=
201206220852 METAR KATL 220852Z 00000KT 10SM FEW250 22/17 A2996 RMK AO2 SLP133 T02220167 56014 $=
201206220752 METAR KATL 220752Z 21003KT 10SM FEW060 SCT250 23/17 A2996 RMK AO2 SLP134 T02280172 $=
201206220652 METAR KATL 220652Z 00000KT 10SM SCT060 23/17 A2997 RMK AO2 SLP139 T02330172 $=
201206220552 METAR KATL 220552Z 00000KT 10SM FEW200 23/17 A3000 RMK AO2 SLP147 T02330172 10300 20233 58003 $=
201206220452 METAR KATL 220452Z 00000KT 10SM FEW200 24/17 A3000 RMK AO2 SLP147 T02390172 403170206 $=
201206220352 METAR KATL 220352Z 20004KT 10SM FEW200 24/17 A3001 RMK AO2 SLP151 T02440172 $=
201206220252 SPECI KATL 220252Z 18005KT 10SM FEW200 26/17 A3001 RMK AO2 SLP150 T02560172 53015 $=
201206220252 METAR KATL 220252Z 18005KT 10SM FEW200 26/17 A3001 RMK AO2 SLP150 T02560172 53015 $=
201206220152 METAR KATL 220152Z 18005KT 10SM FEW200 26/17 A2999 RMK AO2 SLP145 T02610172 $=
201206220052 METAR KATL 220052Z 17006KT 10SM FEW060 SCT200 28/17 A2997 RMK AO2 SLP137 T02780167 $=
201206212352 METAR KATL 212352Z 15007KT 10SM FEW060 SCT200 30/16 A2996 RMK AO2 SLP134 T03000161 10317 20289 55005 $=
201206212252 METAR KATL 212252Z 18006KT 10SM SCT060TCU BKN250 31/16 A2995 RMK AO2 SLP132 TCU OHD-NE T03060156 $=
201206212152 METAR KATL 212152Z 16007KT 10SM SCT060 SCT080 BKN250 32/16 A2997 RMK AO2 SLP136 T03170161 $=
201206212052 METAR KATL 212052Z 00000KT 10SM FEW060 SCT080 SCT250 31/16 A2998 RMK AO2 SLP140 T03110161 58027 $=
201206211952 METAR KATL 211952Z 05007KT 10SM FEW060TCU SCT085 SCT250 30/17 A3001 RMK AO2 SLP151 TCU NW-N T03000172 $=
201206211852 METAR KATL 211852Z VRB03KT 10SM BKN055TCU BKN070 30/17 A3004 RMK AO2 SLP160 TCU ALQDS T03000172=
201206211752 METAR KATL 211752Z 00000KT 10SM FEW050 SCT070 SCT250 29/18 A3006 RMK AO2 SLP169 T02890178 10306 20228 58017=
201206211652 METAR KATL 211652Z 00000KT 10SM BKN040 BKN060 29/18 A3008 RMK AO2 SLP176 T02940178=
201206211552 METAR KATL 211552Z 00000KT 10SM SCT035 SCT065 29/18 A3010 RMK AO2 SLP182 TCU DSNT E T02890183=
201206211452 METAR KATL 211452Z 15003KT 10SM FEW035 BKN060 27/18 A3011 RMK AO2 SLP186 T02670183 58004=
201206211352 METAR KATL 211352Z 18003KT 10SM FEW065 25/18 A3013 RMK AO2 SLP191 T02500178=
201206211252 METAR KATL 211252Z 22003KT 10SM SCT065 BKN250 23/18 A3013 RMK AO2 SLP194 T02330178=
201206211152 METAR KATL 211152Z 00000KT 10SM FEW150 SCT250 23/17 A3013 RMK AO2 SLP191 T02280172 10233 20206 53011=
201206211052 METAR KATL 211052Z 00000KT 10SM FEW150 SCT250 21/17 A3012 RMK AO2 SLP188 T02110172=
201206210952 METAR KATL 210952Z COR 16003KT 10SM FEW150 SCT250 22/17 A3010 RMK AO2 SLP182 T02170172=
201206210852 METAR KATL 210852Z 16003KT 10SM SCT250 22/17 A3009 RMK AO2 SLP179 T02220172 55004=
201206210752 METAR KATL 210752Z 00000KT 10SM BKN250 22/17 A3009 RMK AO2 SLP179 T02220172=
201206210652 METAR KATL 210652Z 19003KT 10SM SCT250 23/17 A3010 RMK AO2 SLP181 T02280172=
201206210552 METAR KATL 210552Z 17004KT 10SM SCT250 23/17 A3011 RMK AO2 SLP184 T02280167 10289 20228 55001=
201206210452 METAR KATL 210452Z 00000KT 10SM SCT250 24/16 A3010 RMK AO2 SLP183 T02390161 403110206=
201206210352 METAR KATL 210352Z 14003KT 10SM FEW250 25/16 A3011 RMK AO2 SLP184 T02500161=
201206210252 METAR KATL 210252Z 15003KT 10SM FEW250 26/17 A3011 RMK AO2 SLP185 T02610167 53004=
201206210152 METAR KATL 210152Z 15004KT 10SM FEW150 SCT250 27/16 A3010 RMK AO2 SLP181 T02670161=
201206210052 METAR KATL 210052Z 16006KT 10SM FEW055 SCT250 28/16 A3010 RMK AO2 SLP182 T02780161=
201206202352 METAR KATL 202352Z 16007KT 10SM FEW055 SCT200 BKN250 29/16 A3010 RMK AO2 SLP182 T02890161 10311 20289 56007=
201206202252 METAR KATL 202252Z 16008KT 10SM FEW060 BKN200 BKN250 29/17 A3010 RMK AO2 SLP183 T02940167=
201206202152 METAR KATL 202152Z 13008KT 10SM FEW060 BKN200 BKN250 30/16 A3011 RMK AO2 SLP187 T03000156=
201206202052 METAR KATL 202052Z 13006G16KT 10SM FEW065 BKN200 BKN250 31/15 A3012 RMK AO2 SLP189 T03110150 58016=
201206201952 METAR KATL 201952Z 08011KT 10SM FEW060 SCT080 SCT200 30/16 A3014 RMK AO2 SLP195 T03000156=
201206201852 SPECI KATL 201852Z 13008G16KT 10SM SCT065 SCT200 31/16 A3016 RMK AO2 SLP201 T03060156=
201206201852 METAR KATL 201852Z 13008G16KT 10SM SCT065 SCT200 31/16 A3016 RMK AO2 SLP201 T03060156=
201206201752 METAR KATL 201752Z 10013G17KT 10SM FEW055 SCT200 BKN250 30/17 A3017 RMK AO2 SLP205 T03000167 10300 20222 56007=
201206201652 METAR KATL 201652Z 08010G15KT 10SM FEW050 SCT200 BKN250 29/17 A3018 RMK AO2 SLP208 T02890167=
201206201552 METAR KATL 201552Z 07004KT 10SM FEW040 SCT200 SCT250 28/17 A3018 RMK AO2 SLP209 T02830172=
201206201452 METAR KATL 201452Z 00000KT 10SM FEW040 SCT200 SCT250 27/17 A3019 RMK AO2 SLP213 T02670167 58001=
201206201352 METAR KATL 201352Z 00000KT 10SM SCT250 24/18 A3020 RMK AO2 SLP216 T02440178=
201206201252 METAR KATL 201252Z 17005KT 10SM FEW250 23/18 A3020 RMK AO2 SLP216 T02330178=
201206201152 METAR KATL 201152Z 15003KT 10SM FEW250 22/18 A3019 RMK AO2 SLP214 T02220178 10239 20206 53011=
201206201052 METAR KATL 201052Z 00000KT 10SM FEW250 21/17 A3018 RMK AO2 SLP211 T02110167=
201206200952 METAR KATL 200952Z 00000KT 10SM CLR 21/17 A3016 RMK AO2 SLP203 T02110167=
201206200852 METAR KATL 200852Z 14003KT 10SM CLR 22/16 A3016 RMK AO2 SLP202 T02170161 56002=
201206200752 METAR KATL 200752Z 15003KT 10SM CLR 22/16 A3016 RMK AO2 SLP203 T02170156=
201206200652 METAR KATL 200652Z 00000KT 10SM CLR 23/15 A3016 RMK AO2 SLP203 T02330150=
201206200552 METAR KATL 200552Z 11003KT 10SM CLR 23/15 A3017 RMK AO2 SLP204 T02330150 10289 20228 51003=
201206200452 METAR KATL 200452Z 09006KT 10SM CLR 23/15 A3017 RMK AO2 SLP204 T02330150 403110194=
201206200352 METAR KATL 200352Z 14004KT 10SM CLR 25/14 A3016 RMK AO2 SLP202 T02500144=
201206200252 METAR KATL 200252Z 00000KT 10SM CLR 26/14 A3016 RMK AO2 SLP201 T02560144 53010=
201206200152 METAR KATL 200152Z 15003KT 10SM FEW070 27/14 A3014 RMK AO2 SLP197 T02670139=
201206200052 METAR KATL 200052Z 15005KT 10SM FEW070 27/14 A3013 RMK AO2 SLP193 T02720139=
201206192352 METAR KATL 192352Z 12005KT 10SM FEW070 29/13 A3013 RMK AO2 SLP191 T02890128 10311 20278 56005=
201206192252 METAR KATL 192252Z 13009KT 10SM FEW070 30/13 A3013 RMK AO2 SLP192 T03000128=
201206192152 METAR KATL 192152Z 09009KT 10SM SCT070 31/13 A3013 RMK AO2 SLP192 T03060133=
201206192052 METAR KATL 192052Z 00000KT 10SM FEW070 30/13 A3014 RMK AO2 SLP196 T03000133 57015=
201206191952 METAR KATL 191952Z 09007KT 10SM FEW065 SCT250 30/14 A3015 RMK AO2 SLP200 T03000139=
201206191852 METAR KATL 191852Z 08011G15KT 10SM SCT060 30/14 A3017 RMK AO2 SLP207 T03000144=
201206191752 METAR KATL 191752Z 11007G17KT 10SM SCT055 29/14 A3019 RMK AO2 SLP212 T02940144 10294 20206 58006=
201206191652 METAR KATL 191652Z COR 14008KT 10SM SCT050 28/16 A3020 RMK AO2 SLP217 T02830156 $=
201206191552 METAR KATL 191552Z 00000KT 10SM FEW045 SCT060 SCT250 27/16 A3020 RMK AO2 SLP218 T02720156 $=
201206191452 METAR KATL 191452Z COR 00000KT 10SM FEW060 SCT150 SCT250 27/17 A3020 RMK AO2 SLP218 T02670167 51008 $=
201206191352 METAR KATL 191352Z 23004KT 10SM FEW250 24/16 A3020 RMK AO2 SLP219 T02390161=
201206191252 METAR KATL 191252Z VRB05KT 10SM FEW250 22/15 A3020 RMK AO2 SLP216 T02220150=
201206191152 METAR KATL 191152Z 15003KT 10SM FEW250 21/16 A3018 RMK AO2 SLP210 T02060156 10222 20194 53016=
201206191052 METAR KATL 191052Z 15004KT 10SM SCT250 19/15 A3016 RMK AO2 SLP203 T01940150=
201206190952 METAR KATL 190952Z 13003KT 10SM FEW250 21/15 A3014 RMK AO2 SLP198 T02060150=
201206190852 METAR KATL 190852Z 12005KT 10SM FEW250 21/15 A3013 RMK AO2 SLP193 T02060150 53004=
201206190752 METAR KATL 190752Z 14003KT 10SM FEW065 22/15 A3011 RMK AO2 SLP188 T02170150=
201206190652 METAR KATL 190652Z 00000KT 10SM FEW065 21/15 A3011 RMK AO2 SLP187 T02110150=
201206190552 METAR KATL 190552Z 19004KT 10SM CLR 22/15 A3012 RMK AO2 SLP189 T02170150 10283 20217 51005=
201206190452 METAR KATL 190452Z 18005KT 10SM CLR 23/15 A3012 RMK AO2 SLP189 T02280150 403060183=
201206190352 METAR KATL 190352Z 18004KT 10SM CLR 23/15 A3011 RMK AO2 SLP187 T02330150=
201206190252 METAR KATL 190252Z 18005KT 10SM CLR 24/15 A3010 RMK AO2 SLP184 T02390150 53015 $=
201206190152 METAR KATL 190152Z 17005KT 10SM FEW065 25/15 A3008 RMK AO2 SLP178 T02500150=
201206190052 METAR KATL 190052Z 17006KT 10SM FEW065 27/14 A3007 RMK AO2 SLP173 T02670144=
201206182352 METAR KATL 182352Z 18006KT 10SM SCT065 28/14 A3006 RMK AO2 SLP170 T02830139 10306 20278 55000=
201206182252 METAR KATL 182252Z 22005KT 10SM SCT065 29/14 A3005 RMK AO2 SLP166 T02940139=
201206182152 METAR KATL 182152Z 18006KT 10SM SCT065 30/14 A3005 RMK AO2 SLP165 T03000139=
201206182052 METAR KATL 182052Z VRB04KT 10SM SCT065 SCT250 30/13 A3006 RMK AO2 SLP169 T03000133 56015=
201206181952 METAR KATL 181952Z VRB03KT 10SM SCT065 SCT250 29/13 A3007 RMK AO2 SLP174 T02940128=
201206181852 METAR KATL 181852Z 00000KT 10SM SCT060 29/14 A3009 RMK AO2 SLP178 T02890139=
201206181752 METAR KATL 181752Z 00000KT 10SM SCT060 28/14 A3011 RMK AO2 SLP184 T02830139 10289 20200 58004=
201206181652 METAR KATL 181652Z 09003KT 10SM BKN060 28/13 A3012 RMK AO2 SLP189 T02780133=
201206181552 METAR KATL 181552Z 27004KT 10SM FEW050 BKN060 BKN250 28/14 A3012 RMK AO2 SLP190 T02780144=
201206181452 METAR KATL 181452Z 20007KT 10SM FEW200 SCT250 26/16 A3012 RMK AO2 SLP189 T02560156 51012=
201206181352 METAR KATL 181352Z 20005KT 10SM FEW250 24/15 A3011 RMK AO2 SLP189 T02390150=
201206181252 METAR KATL 181252Z 22006KT 10SM FEW250 22/14 A3010 RMK AO2 SLP184 T02170144=
201206181152 METAR KATL 181152Z 00000KT 10SM FEW250 20/14 A3008 RMK AO2 SLP178 T02000144 10217 20183 52018=
201206181052 METAR KATL 181052Z 00000KT 10SM FEW250 19/13 A3006 RMK AO2 SLP171 T01890133=
201206180952 METAR KATL 180952Z 00000KT 10SM FEW250 20/13 A3005 RMK AO2 SLP165 T02000133 $=
201206180852 METAR KATL 180852Z 00000KT 10SM CLR 20/13 A3003 RMK AO2 SLP159 T02000128 56007 $=
201206180752 METAR KATL 180752Z 00000KT 10SM CLR 21/13 A3003 RMK AO2 SLP160 T02060133 $=
201206180652 METAR KATL 180652Z 15003KT 10SM CLR 21/13 A3004 RMK AO2 SLP163 T02110133 $=
201206180552 METAR KATL 180552Z 00000KT 10SM CLR 21/14 A3005 RMK AO2 SLP167 T02110139 10283 20211 50001 $=
201206180452 METAR KATL 180452Z 00000KT 10SM CLR 22/13 A3005 RMK AO2 SLP168 T02170133 402940183 $=
201206180352 METAR KATL 180352Z 00000KT 10SM FEW250 23/14 A3005 RMK AO2 SLP168 T02280139 $=
201206180252 METAR KATL 180252Z 00000KT 10SM FEW250 24/14 A3005 RMK AO2 SLP166 T02390139 51009 $=
201206180152 METAR KATL 180152Z 21004KT 10SM SCT250 24/12 A3004 RMK AO2 SLP164 T02440117 $=
201206180052 METAR KATL 180052Z 18005KT 10SM FEW070 SCT250 26/11 A3003 RMK AO2 SLP161 T02560111 $=
201206172352 METAR KATL 172352Z 14004KT 10SM FEW070 SCT250 28/10 A3002 RMK AO2 SLP157 T02830100 10294 20278 55010 $=
201206172252 METAR KATL 172252Z 19003KT 10SM FEW070 SCT250 29/09 A3002 RMK AO2 SLP155 T02890089 $=
201206172152 METAR KATL 172152Z 23006KT 10SM FEW065 SCT250 29/10 A3003 RMK AO2 SLP160 T02940100 $=
201206172052 METAR KATL 172052Z 16006KT 10SM FEW065 SCT250 29/11 A3005 RMK AO2 SLP167 T02940106 56027 $=
201206171952 METAR KATL 171952Z 15004KT 10SM FEW065 BKN250 29/11 A3008 RMK AO2 SLP176 T02890111 $=
201206171852 METAR KATL 171852Z 20004KT 10SM FEW060 BKN250 28/11 A3010 RMK AO2 SLP184 T02830111 $=
201206171752 METAR KATL 171752Z COR VRB03KT 10SM FEW060 BKN250 28/12 A3013 RMK AO2 SLP195 T02780117 10283 20194 58013 $=
201206171652 METAR KATL 171652Z 00000KT 10SM FEW055 SCT250 27/13 A3015 RMK AO2 SLP202 T02720128 $=
201206171552 METAR KATL 171552Z 00000KT 10SM FEW045 SCT250 26/13 A3017 RMK AO2 SLP207 T02560133 $=
201206171452 METAR KATL 171452Z 13004KT 10SM BKN250 25/13 A3017 RMK AO2 SLP209 T02500128 58001 $=
201206171352 METAR KATL 171352Z VRB04KT 10SM BKN250 23/13 A3018 RMK AO2 SLP211 T02330133 $=
201206171252 METAR KATL 171252Z 14003KT 10SM BKN250 21/14 A3019 RMK AO2 SLP215 T02110139 $=
201206171152 METAR KATL 171152Z 00000KT 10SM BKN250 20/14 A3018 RMK AO2 SLP210 T02000139 10206 20183 51010 $=
201206171052 METAR KATL 171052Z VRB05KT 10SM SCT250 18/13 A3017 RMK AO2 SLP208 T01830133 $=
201206170952 METAR KATL 170952Z 07004KT 10SM FEW250 19/13 A3016 RMK AO2 SLP204 T01890133 $=
201206170852 METAR KATL 170852Z 07003KT 10SM CLR 19/13 A3015 RMK AO2 SLP199 T01940133 58002 $=
201206170752 METAR KATL 170752Z 14003KT 10SM CLR 20/13 A3015 RMK AO2 SLP201 T02000133 $=
201206170652 METAR KATL 170652Z 07004KT 10SM CLR 20/13 A3015 RMK AO2 SLP201 T02000133=
201206170552 METAR KATL 170552Z 12003KT 10SM CLR 21/13 A3015 RMK AO2 SLP202 T02060133 10261 20194 58002=
201206170452 METAR KATL 170452Z 09005KT 10SM CLR 21/13 A3016 RMK AO2 SLP204 T02060133 402830172=
201206170352 METAR KATL 170352Z 11005KT 10SM CLR 22/14 A3016 RMK AO2 SLP204 T02220139=
201206170252 METAR KATL 170252Z 11004KT 10SM CLR 23/14 A3016 RMK AO2 SLP204 T02330139 53010=
201206170152 METAR KATL 170152Z 12004KT 10SM FEW055 24/14 A3014 RMK AO2 SLP197 T02390144=
201206170052 METAR KATL 170052Z 10006KT 10SM FEW055 SCT250 24/15 A3013 RMK AO2 SLP194 T02440150=
201206162352 METAR KATL 162352Z 10008KT 10SM FEW055 BKN250 26/15 A3013 RMK AO2 SLP193 T02610150 10283 20261 56016=
201206162252 METAR KATL 162252Z 08009G17KT 10SM SCT050 SCT250 27/14 A3013 RMK AO2 SLP196 T02670144=
201206162152 METAR KATL 162152Z 08011KT 10SM SCT050 SCT250 28/15 A3015 RMK AO2 SLP203 T02780150=
201206162052 METAR KATL 162052Z 08006G14KT 10SM SCT050 BKN250 27/15 A3018 RMK AO2 SLP210 T02670150 58019=
201206161952 METAR KATL 161952Z 13008KT 090V170 10SM BKN055 27/14 A3020 RMK AO2 SLP217 T02720144=
201206161852 METAR KATL 161852Z 06007G16KT 10SM BKN060 27/14 A3022 RMK AO2 SLP224 T02670144=
201206161752 METAR KATL 161752Z 08011KT 10SM BKN050 26/14 A3023 RMK AO2 SLP230 T02610139 10272 20200 56008=
201206161652 METAR KATL 161652Z 11009G14KT 10SM SCT050 27/14 A3024 RMK AO2 SLP231 T02670144=
201206161552 METAR KATL 161552Z 09010KT 10SM FEW044 26/14 A3025 RMK AO2 SLP236 T02560144=
201206161452 METAR KATL 161452Z 09009KT 10SM FEW040 24/14 A3026 RMK AO2 SLP238 T02440139 50004=
201206161352 METAR KATL 161352Z 09008KT 10SM FEW250 23/14 A3026 RMK AO2 SLP239 T02330144=
201206161252 METAR KATL 161252Z 08005KT 10SM FEW250 22/15 A3026 RMK AO2 SLP238 T02170150=
201206161152 METAR KATL 161152Z 09005KT 10SM FEW080 SCT250 20/14 A3025 RMK AO2 SLP234 T02000144 10206 20172 53021=
201206161052 METAR KATL 161052Z 08003KT 9SM FEW080 SCT250 18/14 A3023 RMK AO2 SLP227 T01830144 $=
201206160952 METAR KATL 160952Z 08006KT 10SM FEW250 18/14 A3020 RMK AO2 SLP220 T01780144=
201206160852 METAR KATL 160852Z 07005KT 10SM FEW250 18/14 A3018 RMK AO2 SLP212 T01830144 50001=
201206160752 METAR KATL 160752Z 08005KT 10SM SCT055 19/15 A3019 RMK AO2 SLP213 T01940150=
201206160652 METAR KATL 160652Z 09006KT 10SM CLR 19/16 A3018 RMK AO2 SLP211 T01940156=
201206160552 METAR KATL 160552Z 07007KT 10SM CLR 21/16 A3018 RMK AO2 SLP211 T02060156 10267 20206 58001=
201206160452 METAR KATL 160452Z 09007KT 10SM CLR 21/16 A3018 RMK AO2 SLP212 T02110161 402890206=
201206160352 METAR KATL 160352Z 09005KT 10SM FEW045 22/16 A3019 RMK AO2 SLP216 T02170156=
201206160252 METAR KATL 160252Z 09007KT 10SM FEW250 23/16 A3018 RMK AO2 SLP212 T02330156 53015=
201206160152 METAR KATL 160152Z 09009KT 10SM FEW200 SCT250 24/16 A3016 RMK AO2 SLP204 T02390156=
201206160052 METAR KATL 160052Z 09011KT 10SM FEW045 BKN250 25/16 A3014 RMK AO2 SLP198 T02500161=
201206152352 METAR KATL 152352Z 10011KT 10SM FEW045 SCT250 27/16 A3014 RMK AO2 SLP196 T02670161 10289 20267 55000=
201206152252 METAR KATL 152252Z 09011KT 10SM FEW045TCU SCT070 SCT250 28/17 A3013 RMK AO2 SLP192 TCU S AND DSNT SE T02780167=
201206152152 METAR KATL 152152Z 08009KT 10SM SCT045TCU SCT080 27/17 A3013 RMK AO2 SLP195 TCU SW-W AND DSNT NW T02720167=
201206152052 METAR KATL 152052Z 10011KT 10SM SCT047 28/17 A3014 RMK AO2 SLP195 TCU DSNT S T02830167 56009=
201206151952 METAR KATL 151952Z 09009KT 060V120 10SM SCT045 28/17 A3014 RMK AO2 SLP196 T02830167=
201206151852 METAR KATL 151852Z 08010KT 10SM SCT045 27/17 A3015 RMK AO2 SLP201 T02720172=
201206151752 METAR KATL 151752Z VRB04KT 10SM BKN040 28/17 A3017 RMK AO2 SLP205 T02780172 10278 20217 57007=
201206151652 METAR KATL 151652Z VRB06KT 10SM SCT035 BKN045 27/18 A3017 RMK AO2 SLP207 T02670178=
201206151552 METAR KATL 151552Z 06009KT 10SM SCT030 26/18 A3018 RMK AO2 SLP211 T02610178=
201206151452 METAR KATL 151452Z 08008KT 10SM SCT025 25/18 A3019 RMK AO2 SLP213 T02500178 50001=
201206151352 METAR KATL 151352Z 10007KT 10SM FEW025 SCT065 24/18 A3020 RMK AO2 SLP217 T02390178=
201206151252 METAR KATL 151252Z 09010KT 10SM SCT044 BKN060 BKN095 OVC130 22/17 A3021 RMK AO2 SLP220 T02220167=
201206151152 METAR KATL 151152Z 09006KT 10SM FEW028 BKN042 BKN095 22/17 A3018 RMK AO2 RAB27E44 SLP212 P0000 60000 T02170167 10233 20206 52031=
201206151052 METAR KATL 151052Z 09009KT 10SM BKN043 BKN080 OVC095 21/16 A3016 RMK AO2 SLP202 T02110161=
201206150952 METAR KATL 150952Z 08007KT 10SM SCT048 BKN065 21/17 A3012 RMK AO2 SLP189 T02060167=
201206150852 METAR KATL 150852Z 08007KT 10SM BKN040 BKN250 21/17 A3009 RMK AO2 SLP179 T02110172 55003=
201206150752 METAR KATL 150752Z 09008KT 10SM BKN250 21/17 A3008 RMK AO2 SLP176 T02110172=
201206150652 METAR KATL 150652Z 08007KT 10SM FEW037 OVC250 22/18 A3009 RMK AO2 SLP180 T02170178=
201206150552 METAR KATL 150552Z 12006KT 10SM BKN037 OVC250 23/18 A3010 RMK AO2 SLP183 T02330178 10272 20233 58002=
201206150452 METAR KATL 150452Z 10008KT 10SM FEW040 SCT055 OVC250 24/17 A3012 RMK AO2 SLP189 T02390172 402940217=
201206150352 METAR KATL 150352Z 08011KT 10SM SCT045 BKN060 OVC250 24/18 A3012 RMK AO2 SLP191 T02390183=
201206150252 METAR KATL 150252Z 09007KT 10SM OVC250 24/18 A3011 RMK AO2 SLP185 T02440183 51021=
201206150152 METAR KATL 150152Z 08010KT 10SM BKN250 26/18 A3010 RMK AO2 SLP184 T02560183=
201206150052 METAR KATL 150052Z 10006KT 10SM FEW035 BKN250 26/19 A3008 RMK AO2 SLP177 T02610189=
201206142352 METAR KATL 142352Z 08010KT 10SM FEW200 OVC250 27/19 A3004 RMK AO2 SLP163 T02720189 10294 20261 53007=
201206142252 METAR KATL 142252Z 09011KT 10SM FEW035 BKN250 28/19 A3003 RMK AO2 SLP159 T02830189=
201206142152 METAR KATL 142152Z 08009KT 10SM FEW200 BKN250 29/19 A3002 RMK AO2 SLP157 T02890194=
201206142052 METAR KATL 142052Z 09007KT 10SM FEW200 BKN250 29/19 A3002 RMK AO2 SLP155 T02890194 58018=
201206141952 METAR KATL 141952Z 07010KT 10SM FEW035 SCT200 BKN250 28/20 A3005 RMK AO2 SLP164 CB DSNT SW TCU DSNT S-SW T02830200=
201206141852 METAR KATL 141852Z 06010KT 10SM FEW035 BKN200 BKN250 27/19 A3006 RMK AO2 SLP169 T02720194=
201206141752 METAR KATL 141752Z 08014KT 10SM FEW030TCU BKN200 BKN250 26/19 A3008 RMK AO2 SLP175 TCU S-SW-W T02610194 10283 20228 57002=
201206141652 METAR KATL 141652Z 10008G14KT 10SM FEW025 SCT200 BKN250 28/21 A3007 RMK AO2 SLP174 CB DSNT SW T02780206=
201206141552 METAR KATL 141552Z 08010G17KT 10SM FEW020CB SCT200 BKN250 27/21 A3008 RMK AO2 TSB02E26 SLP178 TS DSIPTD CB S & NW MOV S SHRA S & NW T02670206=
201206141526 SPECI KATL 141526Z 06017KT 10SM FEW018CB SCT025TCU BKN250 26/21 A3008 RMK AO2 TSB02E26 TS DSIPTD CB NW MOV S TCU SE-S-SW-W SHRA NW=
201206141503 SPECI KATL 141503Z 07010KT 10SM TS FEW015CB SCT025TCU BKN250 27/22 A3008 RMK AO2 TSB02 OCNL LTGICCG N TS VC N MOV S TCU ALQDS SHRA VC N=
201206141452 METAR KATL 141452Z 08011KT 10SM BKN020TCU BKN040 BKN250 27/22 A3008 RMK AO2 SLP177 CB DSNT N TCU ALQDS SHRA DSNT N T02670222 51009=
201206141352 METAR KATL 141352Z 11010KT 10SM FEW015 SCT200 BKN250 26/21 A3008 RMK AO2 SLP175 T02560211=
201206141252 METAR KATL 141252Z 08007KT 9SM FEW250 BKN300 23/21 A3005 RMK AO2 SLP169 T02330206=
201206141152 METAR KATL 141152Z 08006KT 8SM FEW080 BKN250 23/20 A3003 RMK AO2 SLP160 70084 T02280200 10233 20217 53015=
201206141052 METAR KATL 141052Z 09005KT 9SM FEW080 BKN250 22/19 A3001 RMK AO2 SLP153 T02170194=
201206140952 METAR KATL 140952Z 09005KT 10SM FEW080 22/19 A2999 RMK AO2 SLP145 T02170194 $=
201206140852 METAR KATL 140852Z 06006KT 10SM FEW038 SCT080 SCT250 23/20 A2999 RMK AO2 SLP144 T02280200 53000 $=
201206140752 METAR KATL 140752Z 06007KT 10SM SCT080 SCT250 23/20 A2998 RMK AO2 SLP141 T02280200 $=
201206140652 METAR KATL 140652Z 04003KT 10SM FEW050 SCT070 BKN200 23/20 A2998 RMK AO2 SLP141 T02330200 $=
201206140552 METAR KATL 140552Z 34004KT 10SM FEW050 SCT070 BKN200 23/19 A2999 RMK AO2 TSB25E52 SLP143 TS DSIPT 60084 T02330194 10289 20211 51006 $=
201206140526 SPECI KATL 140526Z 00000KT 10SM TS FEW035CB SCT055 SCT070 BKN250 23/20 A2998 RMK AO2 TSB25 OCNL LTGIC NW TS NW MOV STNRY $=
201206140452 METAR KATL 140452Z 07005KT 10SM SCT045 BKN060 BKN250 23/20 A2998 RMK AO2 SLP143 T02280200 403170200 $=
201206140352 METAR KATL 140352Z 00000KT 10SM BKN045 BKN200 23/20 A2998 RMK AO2 SLP141 T02280200 $=
201206140252 METAR KATL 140252Z 00000KT 10SM FEW040 BKN150 BKN250 23/19 A2997 RMK AO2 SLP137 60084 T02330194 51007 $=
201206140152 METAR KATL 140152Z 35004KT 10SM FEW035 SCT100 BKN150 BKN200 23/18 A2996 RMK AO2 TSE41RAE52 SLP136 FRQ LTGICCGCA DSNT N-NE TS DSIPTD P0000 T02330183 $=
201206140142 SPECI KATL 140142Z 35007KT 10SM -RA FEW035 SCT100 BKN150 23/18 A2997 RMK AO2 TSE41 FRQ LTGICCGCA DSNT N-NE TS DSIPTD P0000 $=
201206140052 METAR KATL 140052Z 15009KT 8SM -TSRA FEW040CB SCT070 BKN110 BKN150 22/16 A2996 RMK AO2 PK WND 17048/0021 WSHFT 0014 GSB00E06 SLP138 FRQ LTGICCGCA E-S AND NW TS E-S AND NW MOV S P0084 T02220161 $=
201206140041 SPECI KATL 140041Z 18017G29KT 2SM +TSRA FEW020 BKN045CB OVC080 21/17 A2997=
201206140038 SPECI KATL 140038Z 18020G31KT 4SM TSRA FEW020 SCT045CB BKN080 OVC150 21/17 A2999 RMK AO2 PK WND 17048/0021 WSHFT 0014 GSB00E06 VIS LWR NE-SE-SW FRQ LTGICCG NE-OHD-SW TS NE-OHD-SW MOV S P0084 $=
201206140031 SPECI KATL 140031Z 17024G40KT 2 1/2SM R09R/4000VP6000FT +TSRA FEW020 BKN045CB OVC080 22/19 A2999 RMK AO2 PK WND 17048/0021 WSHFT 0014 GSB00E06 VIS LWR NE-SE-SW FRQ LTGICCG NE-OHD-SW TS NE-OHD-SW MOV S P0083 $=
201206140025 SPECI KATL 140025Z 16020G48KT 2 1/2SM R09R/1600VP6000FT +TSRA SQ FEW020 BKN045CB OVC070 22/18 A2999 RMK AO2 PK WND 17048/0021 WSHFT 2353 GSB00E06 VIS LWR NE-SE-S FRQ LTGICCG NE-OHD-S TS NE-OHD-S MOV S P0081 $=
201206140012 SPECI KATL 140012Z 05021G37KT 1 1/2SM R09R/2200VP6000FT +TSRA FEW015 BKN040CB OVC070 23/18 A2997 RMK AO2 PK WND 06046/2357 WSHFT 2353 GSB00E06 FRQ LTGICCG OHD-ALQDS TS OHD-ALQDS MOV S P0025 $=
201206140007 SPECI KATL 140007Z 06024G39KT 3/4SM R09R/2000VP6000FT +TSRA FEW010 BKN040CB OVC060 22/18 A2997 RMK AO2 PK WND 06046/2357 WSHFT 2353 GSB00E06 FRQ LTGICCG OHD-ALQDS TS OHD-ALQDS MOV S P0021=
201206140001 SPECI KATL 140001Z 04030G46KT 1/2SM R09R/2000VP6000FT +TSRAGS SQ BKN040CB BKN060 OVC120 24/18 A3002 RMK AO2 PK WND 06046/2357 GSB00 PRESRR CONS LTGICCG OHD-ALQDS TS OHD-ALQDS MOV S P0005=
201206132358 SPECI KATL 132358Z 06033G46KT 1/2SM R09R/2400VP6000FT +TSRA SQ BKN040CB BKN060 OVC120 27/19 A3000 RMK AO2 PK WND 06046/2357 PRESRR CONS LTGICCG OHD-ALQDS TS OHD-ALQDS MOV S P0001=
201206132355 SPECI KATL 132355Z 09012KT 1SM R09R/P6000FT +TSRA BKN045CB BKN080 BKN200 29/18 A2997 RMK AO2 PRESRR CONS LTGICCG OHD-ALQDS TS OHD-ALQDS MOV S P0000=
201206132352 METAR KATL 132352Z 09011G14KT 6SM TSRA BKN050CB BKN080 BKN200 28/18 A2995 RMK AO2 TSB23RAB28 SLP130 VIS LWR NW-N CONS LTGICCG OHD-NW TS OHD-NW MOV S P0000 60000 T02830178 10317 20283 53008=
201206132337 SPECI KATL 132337Z 18004KT 10SM -TSRA BKN050CB BKN080 BKN200 31/19 A2993 RMK AO2 TSB23RAB28 FRQ LTGICCG SE-S AND NW TS SE-S AND VC NW MOV STNRY TCU OHD-ALQDS P0000=
201206132323 SPECI KATL 132323Z 27007KT 10SM TS SCT055CB BKN080 BKN200 31/19 A2993 RMK AO2 TSB23 FRQ LTGCG NW TS VC NW MOV SW CB NW AND SE-S MOV SW TCU OHD-ALQDS=
201206132252 METAR KATL 132252Z 28006KT 10SM SCT055TCU SCT080 32/19 A2992 RMK AO2 SLP120 CB DSNT SE TCU OHD AND N-E T03170194=
201206132152 METAR KATL 132152Z 27006KT 10SM SCT055TCU BKN080 BKN250 31/19 A2992 RMK AO2 SLP122 TCU OHD AND N-NE T03060189=
201206132052 METAR KATL 132052Z 19007KT 150V210 10SM SCT065 SCT250 32/16 A2992 RMK AO2 SLP121 TCU DSNT E T03170161 56018=
201206131952 METAR KATL 131952Z 05003KT 10SM FEW055 SCT150 SCT250 31/17 A2993 RMK AO2 SLP124 T03110167=
201206131852 METAR KATL 131852Z 21003KT 10SM SCT050 BKN150 BKN250 29/18 A2995 RMK AO2 SLP131 T02940178=
201206131752 METAR KATL 131752Z 31006KT 10SM BKN046 BKN250 31/19 A2998 RMK AO2 SLP140 T03060189 10306 20211 58002=
201206131652 METAR KATL 131652Z 00000KT 10SM FEW040 SCT150 SCT250 28/19 A2998 RMK AO2 SLP143 T02830189=
201206131552 METAR KATL 131552Z 35005KT 10SM FEW030 SCT150 SCT250 28/19 A3000 RMK AO2 SLP147 T02830189=
201206131452 METAR KATL 131452Z 00000KT 10SM BKN150 BKN200 BKN250 27/19 A2998 RMK AO2 SLP142 T02670189 51004=
201206131352 METAR KATL 131352Z VRB03KT 9SM FEW150 SCT200 BKN250 26/18 A2998 RMK AO2 SLP141 T02560183=
201206131252 METAR KATL 131252Z 30006KT 6SM HZ BKN150 BKN250 22/18 A2998 RMK AO2 SLP141 T02220183=
201206131152 METAR KATL 131152Z 32007KT 7SM BKN150 BKN250 21/18 A2997 RMK AO2 SLP140 T02110183 10222 20200 53001=
201206131052 METAR KATL 131052Z 33006KT 8SM SCT150 BKN250 20/18 A2996 RMK AO2 SLP134 T02000178=
201206130952 METAR KATL 130952Z 36006KT 10SM BKN250 21/18 A2995 RMK AO2 SLP131 T02060178=
201206130852 METAR KATL 130852Z 33007KT 10SM SCT250 21/18 A2997 RMK AO2 SLP137 T02060178 56002=
201206130752 METAR KATL 130752Z 31007KT 10SM FEW250 21/18 A2997 RMK AO2 SLP137 T02110178=
201206130652 METAR KATL 130652Z 32007KT 10SM FEW250 22/17 A2997 RMK AO2 SLP137 T02170172=
201206130552 METAR KATL 130552Z 32007KT 10SM FEW080 22/18 A2997 RMK AO2 SLP140 T02220178 10278 20222 58001=
201206130452 METAR KATL 130452Z 32005KT 10SM FEW080 23/18 A2998 RMK AO2 SLP143 T02280183 403000211=
201206130352 METAR KATL 130352Z 32006KT 10SM FEW080 23/18 A2999 RMK AO2 SLP145 T02330183=
201206130252 METAR KATL 130252Z 32006KT 10SM FEW040 24/18 A2998 RMK AO2 SLP141 T02440183 51009=
201206130152 METAR KATL 130152Z 32006KT 10SM FEW100 SCT250 26/18 A2997 RMK AO2 SLP138 T02560178=
201206130052 METAR KATL 130052Z 36007KT 10SM BKN100 BKN250 27/18 A2996 RMK AO2 SLP136 T02720178=
201206122352 METAR KATL 122352Z 33011G16KT 10SM FEW040 BKN100 BKN250 28/19 A2995 RMK AO2 SLP131 T02780189 10300 20272 55002=
201206122252 METAR KATL 122252Z 32009KT 10SM SCT042 SCT200 29/19 A2993 RMK AO2 SLP125 T02940189=
201206122152 METAR KATL 122152Z 29010G14KT 10SM BKN042 BKN250 29/19 A2995 RMK AO2 SLP131 T02890189=
201206122052 METAR KATL 122052Z 34008KT 10SM SCT040 SCT250 29/19 A2996 RMK AO2 SLP133 T02940189 58012=
201206121952 METAR KATL 121952Z 31011KT 10SM FEW037 SCT100 SCT250 29/18 A2997 RMK AO2 SLP140 T02890183=
201206121852 METAR KATL 121852Z 31010G17KT 10SM FEW040 SCT100 SCT250 29/17 A2998 RMK AO2 SLP141 T02890172=
201206121752 METAR KATL 121752Z 28009KT 10SM BKN035 BKN050 BKN250 27/19 A2999 RMK AO2 SLP146 T02720194 10294 20217 58009=
201206121652 METAR KATL 121652Z VRB06KT 10SM SCT035 BKN100 BKN250 28/18 A3002 RMK AO2 SLP155 T02780183=
201206121552 METAR KATL 121552Z 29007KT 10SM FEW030 SCT100 BKN250 27/18 A3003 RMK AO2 SLP157 T02670183=
201206121452 METAR KATL 121452Z 30006KT 10SM FEW024 SCT100 BKN250 25/19 A3002 RMK AO2 SLP156 T02500189 53002=
201206121352 METAR KATL 121352Z 29005KT 10SM FEW020 SCT100 BKN250 25/19 A3001 RMK AO2 SLP153 T02500189=
201206121307 SPECI KATL 121307Z 32005KT 10SM FEW010 SCT200 SCT250 23/19 A3001 RMK AO2=
201206121252 METAR KATL 121252Z 30004KT 10SM BKN010 BKN250 23/20 A3001 RMK AO2 SLP153 T02280200=
201206121152 METAR KATL 121152Z 26004KT 6SM BR FEW005 SCT010 SCT250 22/20 A3001 RMK AO2 SLP154 70008 T02170200 10228 20211 53010=
201206121052 METAR KATL 121052Z 24005KT 6SM BR FEW010 SCT150 SCT250 21/20 A3000 RMK AO2 SLP150 T02110200=
201206120952 METAR KATL 120952Z 25003KT 10SM FEW012 SCT120 21/20 A2998 RMK AO2 SLP144 T02110200 $=
201206120949 SPECI KATL 120949Z 00000KT 10SM FEW012 SCT120 22/20 A2998 RMK AO2 $=
201206120852 METAR KATL 120852Z 23005KT 7SM BKN012 22/21 A2998 RMK AO2 SLP142 T02170206 50008 $=
201206120752 METAR KATL 120752Z 20003KT 6SM BR BKN012 22/21 A2998 RMK AO2 SLP145 T02170206 $=
201206120708 SPECI KATL 120708Z 23004KT 6SM BR SCT007 22/21 A2997 RMK AO2 $=
201206120652 METAR KATL 120652Z 21008KT 6SM BR BKN006 23/21 A2996 RMK AO2 SLP138 T02280211 $=
201206120552 METAR KATL 120552Z 19013G17KT 7SM OVC005 23/22 A2995 RMK AO2 SLP133 T02280217 10256 20228 58032 $=
201206120452 METAR KATL 120452Z 18010KT 10SM OVC006 23/22 A2999 RMK AO2 PRESFR SLP149 CIG 005V008 T02280217 402670200 $=
201206120416 SPECI KATL 120416Z 21007KT 10SM BKN008 BKN065 BKN200 23/21 A3003 RMK AO2 $=
201206120352 METAR KATL 120352Z 22007KT 10SM FEW010 SCT065 BKN200 23/21 A3004 RMK AO2 SLP164 T02280211 $=
201206120252 METAR KATL 120252Z 23006KT 10SM FEW012 SCT070 BKN150 BKN200 23/21 A3005 RMK AO2 SLP167 T02330211 53005 $=
201206120152 METAR KATL 120152Z 22006KT 10SM FEW020 SCT032 BKN120 BKN200 24/21 A3004 RMK AO2 SLP164 T02390211 $=
201206120129 SPECI KATL 120129Z 22007KT 10SM SCT022 BKN035 BKN120 BKN200 24/21 A3004 RMK AO2 $=
201206120052 METAR KATL 120052Z 22009KT 10SM SCT018 BKN025 BKN120 BKN200 25/22 A3003 RMK AO2 SLP161 T02500217 $=
201206120013 SPECI KATL 120013Z 21007KT 10SM SCT018 BKN028 BKN120 BKN200 26/22 A3003 RMK AO2 $=
201206112352 METAR KATL 112352Z 22009KT 10SM FEW020 SCT028 BKN120 BKN200 26/22 A3003 RMK AO2 SLP161 CB DSNT NE 60005 T02560217 10267 20228 53000 $=
201206112259 SPECI KATL 112259Z 24007KT 10SM FEW020 SCT030 BKN110 BKN200 27/21 A3002 RMK AO2 CB DSNT N AND NE $=
201206112252 METAR KATL 112252Z COR 23005KT 10SM FEW020TCU SCT030 BKN110 BKN200 27/22 A3002 RMK AO2 SLP158 CB DSNT NE TCU N AND NE-E T02670217 $=
201206112206 SPECI KATL 112206Z 24007KT 10SM FEW018 SCT025 BKN100 BKN200 26/21 A3003 RMK AO2 CB DSNT NW-N $=
201206112152 METAR KATL 112152Z 23006KT 10SM SCT018 BKN025 BKN100 BKN200 26/21 A3003 RMK AO2 SLP160 CB DSNT NW-N T02610211=
201206112120 SPECI KATL 112120Z 25006KT 10SM SCT016 BKN100 BKN200 26/21 A3003 RMK AO2 SCT016 V BKN CB DSNT NW-N=
201206112052 METAR KATL 112052Z 23008KT 10SM BKN014 BKN018 BKN095 24/21 A3003 RMK AO2 SLP162 60005 T02440211 56014=
201206111952 METAR KATL 111952Z 23006KT 10SM BKN012 BKN055 OVC095 24/22 A3005 RMK AO2 RAE12 SLP167 P0002 T02390217=
201206111914 SPECI KATL 111914Z 23008KT 200V270 10SM SCT009 BKN012 BKN060 BKN200 23/21 A3005 RMK AO2 RAE12 VIS LWR NE-E-SE SHRA CB DSNT NE TCU DSNT NW-N P0002=
201206111905 SPECI KATL 111905Z 22008G14KT 4SM -RA BR BKN009 BKN015 OVC035 23/22 A3006 RMK AO2 VIW LWR NE-E-SE SHRA P0002=
201206111903 SPECI KATL 111903Z 24010G16KT 2SM -RA BR SCT009 BKN013 OVC035 23/21 A3006 RMK AO2 TWR VIS 4 P0001=
201206111858 SPECI KATL 111858Z 22009KT 1SM R09R/P6000FT RA BR BKN009 BKN015 OVC035 23/21 A3006 RMK AO2 TWR VIS 4 P0001=
201206111852 SPECI KATL 111852Z 21009KT 8SM -RA SCT009 BKN015 OVC037 23/22 A3006 RMK AO2 RAE15B38 SLP171 P0003 T02280217=
201206111852 METAR KATL 111852Z 21009KT 8SM -RA SCT009 BKN015 OVC037 23/22 A3006 RMK AO2 RAE15B38 SLP171 P0003 T02280217=
201206111845 SPECI KATL 111845Z 21011KT 8SM R09R/6000VP6000FT -RA FEW009 BKN024 OVC035 23/22 A3006 RMK AO2 RAE15B38 VIS LWR S-SW-W SHRA P0002=
201206111752 METAR KATL 111752Z 19008KT 8SM -RA SCT008 BKN013 OVC020 23/22 A3008 RMK AO2 RAE18B50DZB20E33 SLP176 P0000 60003 T02330217 10239 20206 58007=
201206111721 SPECI KATL 111721Z 21007KT 3SM -DZ BR BKN008 BKN015 OVC020 23/21 A3008 RMK AO2 SFC VIS 6 RAE18DZB20 P0000=
201206111655 SPECI KATL 111655Z 22007KT 3SM -RA BKN010 BKN013 OVC020 22/21 A3009 RMK AO2 SFC VIS 7 P0000=
201206111652 METAR KATL 111652Z 21009KT 3SM -RA BR BKN008 BKN010 OVC020 22/21 A3009 RMK AO2 SFC VIS 5 SLP181 P0003 T02220211=
201206111624 SPECI KATL 111624Z 21006KT 3SM -RA BR BKN006 BKN010 OVC020 22/21 A3009 RMK AO2 SFC VIS 5 P0000=
201206111610 SPECI KATL 111610Z 20005KT 3SM -RA BR BKN006 BKN010 OVC020 22/21 A3009 RMK AO2 P0000=
201206111552 METAR KATL 111552Z 20007KT 3SM -RA BR BKN010 BKN016 OVC030 22/21 A3010 RMK AO2 SFC VIS 5 RAB32 SLP184 P0000 T02220206=
201206111455 SPECI KATL 111455Z 22007KT 10SM BKN010 BKN015 OVC030 22/20 A3010 RMK AO2=
201206111452 METAR KATL 111452Z 20005KT 10SM BKN008 BKN012 OVC030 22/20 A3010 RMK AO2 SLP184 BINOVC S T02220200 51005=
201206111352 METAR KATL 111352Z 19006KT 6SM BR BKN006 BKN008 OVC012 22/20 A3009 RMK AO2 SLP183 T02170200=
201206111252 METAR KATL 111252Z 19005KT 6SM BR BKN006 OVC011 21/19 A3009 RMK AO2 SLP181 T02110194=
201206111152 METAR KATL 111152Z 18005KT 6SM BR OVC006 21/19 A3008 RMK AO2 SLP179 60001 70077 T02060194 10206 20200 51012=
201206111052 METAR KATL 111052Z 17003KT 6SM BR BKN006 OVC010 20/19 A3007 RMK AO2 SLP176 T02000189=
201206110952 METAR KATL 110952Z 18006KT 6SM BR BKN009 OVC012 20/19 A3006 RMK AO2 RAE01 SLP172 P0000 T02000189 $=
201206110852 METAR KATL 110852Z 15004KT 6SM -RA BR BKN007 BKN037 OVC060 20/19 A3005 RMK AO2 RAB50 SLP166 P0000 60001 T02000194 55003 $=
201206110758 SPECI KATL 110758Z 16007KT 6SM BR BKN009 BKN033 21/19 A3004 RMK AO2 $=
201206110752 METAR KATL 110752Z 16008KT 6SM BR SCT005 BKN035 OVC046 21/19 A3004 RMK AO2 SLP166 T02060194 $=
201206110652 METAR KATL 110652Z 15006KT 6SM BR SCT007 BKN043 OVC055 21/19 A3005 RMK AO2 RAB32E45 SLP169 P0001 T02060194 $=
201206110613 SPECI KATL 110613Z 15007KT 6SM BR FEW007 BKN048 BKN070 21/19 A3005 RMK AO2 $=
201206110552 METAR KATL 110552Z 16007KT 6SM BR BKN007 BKN050 OVC150 21/19 A3006 RMK AO2 SLP171 60001 T02060194 10222 20206 58007 $=
201206110452 METAR KATL 110452Z 15006KT 5SM BR BKN005 OVC150 21/19 A3007 RMK AO2 SLP175 T02060194 402440194 $=
201206110352 METAR KATL 110352Z 15009KT 5SM BR OVC005 21/19 A3007 RMK AO2 SLP177 CIG 004V007 T02060194 $=
201206110325 SPECI KATL 110325Z 15009KT 5SM BR OVC005 21/20 A3008 RMK AO2 CIG 004V007 $=
201206110252 METAR KATL 110252Z 14007KT 1/2SM BR OVC004 21/20 A3008 RMK AO2 SFC VIS 5 SLP178 TWRINC 60001 T02110200 51009 $=
201206110216 SPECI KATL 110216Z 15009KT 1/2SM BR OVC004 21/20 A3008 RMK AO2 SFC VIS 5 TWRINC $=
201206110152 METAR KATL 110152Z 14007KT 7SM OVC005 21/20 A3007 RMK AO2 SLP176 T02110200 $=
201206110052 METAR KATL 110052Z 13004KT 7SM BKN009 OVC120 22/21 A3006 RMK AO2 RAB00E29 SLP173 P0001 T02220206 $=
201206110018 SPECI KATL 110018Z 11007KT 7SM -RA BKN007 BKN046 OVC120 22/21 A3005 RMK AO2 RAB00 P0001 $=
201206102352 METAR KATL 102352Z 11006KT 7SM FEW007 SCT060 OVC120 22/21 A3005 RMK AO2 RAE52 SLP169 P0003 60063 T02220206 10244 20222 50002 $=
201206102336 SPECI KATL 102336Z 11007KT 7SM -RA SCT007 BKN090 OVC130 22/21 A3005 RMK AO2 PRESFR P0003 $=
201206102252 METAR KATL 102252Z 13006KT 4SM -RA BR BKN007 BKN033 OVC090 23/22 A3007 RMK AO2 SLP174 P0018 T02280217 $=
201206102250 SPECI KATL 102250Z 13006KT 3SM RA BR BKN007 BKN033 OVC090 23/22 A3006 RMK AO2 P0017 $=
201206102227 SPECI KATL 102227Z 17005KT 4SM RA BR FEW007 BKN055 OVC100 23/22 A3007 RMK AO2 P0008 $=
201206102214 SPECI KATL 102214Z 15005KT 4SM RA BR FEW007 BKN014 OVC090 23/22 A3007 RMK AO2 P0005 $=
201206102152 METAR KATL 102152Z 00000KT 4SM -RA BR FEW008 BKN025 OVC037 23/22 A3007 RMK AO2 TSB13E51RAE00B24 SLP175 TS MOV NE CB DSNT NW-NE P0041 T02280217 $=
201206102140 SPECI KATL 102140Z VRB06KT 4SM TSRA BR SCT008 BKN018CB OVC037 23/22 A3006 RMK AO2 TSB13RAE00B24 OCNL LTGIC NE AND-W-NW TS NE AND W-NW MOV NE P0038 $=
201206102130 SPECI KATL 102130Z 06006KT 1/2SM R09R/2400VP6000FT +TSRA BR SCT012 BKN021CB OVC039 23/22 A3005 RMK AO2 SFC VIS 3/4 TSB13RAE00B24 OCNL LTGIC E-OHD-W TS E-OHD-W MOV NE P0021 $=
201206102126 SPECI KATL 102126Z 11007KT 1 1/4SM R09R/2600VP6000FT TSRA SCT007 BKN039CB OVC048 24/21 A3007 RMK AO2 TSB13RAE00B24 OCNL LTGIC SW TS SW MOV NE SHRA E-S-W P0000 $=
201206102113 SPECI KATL 102113Z 10008KT 10SM TS SCT007 BKN039CB OVC048 24/22 A3005 RMK AO2 TSB13RAE00 OCNL LTGIC SW TS SW MOV NE SHRA E-S-W P0000 $=
201206102052 SPECI KATL 102052Z 08011KT 5SM -RA BR FEW007 SCT028 OVC044 24/22 A3004 RMK AO2 RAB43 SLP167 CB DSNT E MOV NE P0001 60001 T02390217 55011 $=
201206102052 METAR KATL 102052Z 08011KT 5SM -RA BR FEW007 SCT028 OVC044 24/22 A3004 RMK AO2 RAB43 SLP167 CB DSNT E MOV NE P0001 60001 T02390217 55011 $=
201206101952 METAR KATL 101952Z 07009KT 8SM SCT008 BKN015 OVC043 24/22 A3004 RMK AO2 RAB23E41 SLP166 P0000 T02390217 $=
201206101943 SPECI KATL 101943Z 07009KT 8SM FEW008 BKN015 OVC025 24/21 A3004 RMK AO2 RAB23E41 P0000 $=
201206101936 SPECI KATL 101936Z 07010KT 8SM -RA SCT008 OVC013 24/22 A3004 RMK AO2 RAB23 P0000 $=
201206101852 METAR KATL 101852Z 07008KT 8SM OVC008 23/21 A3005 RMK AO2 RAE1758 SLP170 P0000 T02280206 $=
201206101752 METAR KATL 101752Z 10007KT 6SM R09R/4000VP6000FT -RA BR BKN008 OVC012 22/21 A3008 RMK AO2 RAE1659B31 SLP178 P0000 60012 T02220206 10228 20194 50001 $=
201206101652 METAR KATL 101652Z 11005KT 3SM -RA BR OVC006 22/21 A3008 RMK AO2 SFC VIS 6 RAB42 SLP179 P0000 T02170206 $=
201206101552 METAR KATL 101552Z 12005KT 3SM BR OVC006 21/20 A3009 RMK AO2 SFC VIS 5 SLP181 T02110200 $=
201206101514 SPECI KATL 101514Z 11007KT 3SM BR BKN008 OVC011 22/19 A3008 RMK AO2 SFC VIS 6 $=
201206101452 METAR KATL 101452Z 11006KT 1 1/2SM BR BKN006 OVC011 21/19 A3008 RMK AO2 SFC VIS 5 RAB25E36 SLP176 P0000 60012 T02110194 51007 $=
201206101444 SPECI KATL 101444Z 11006KT 1 1/2SM BR OVC006 21/20 A3007 RMK AO2 SFC VIS 4 RAB25E36 P0000 $=
201206101406 SPECI KATL 101406Z 13005KT 1 1/2SM BR OVC004 21/19 A3008 RMK AO2 SFC VIS 4 $=
201206101352 METAR KATL 101352Z 12006KT 1/2SM BR OVC004 21/19 A3007 RMK AO2 SFC VIS 3 RAB1254E49 SLP176 P0011 T02060194 $=
201206101252 METAR KATL 101252Z 11006KT 1/2SM BR OVC004 20/19 A3006 RMK AO2 SFC VIS 3 RAE11 SLP172 P0001 T02000189 $=
201206101152 METAR KATL 101152Z 09007KT 1/2SM -RA BR OVC004 19/19 A3005 RMK AO2 SFC VIS 2 RAB02 SLP168 P0008 60015 70020 T01940189 10200 20194 52010 $=
201206101122 SPECI KATL 101122Z 11006KT 1/2SM -RA BR OVC004 19/18 A3005 RMK AO2 SFC VIS 2 RAB02 P0001 $=
201206101052 METAR KATL 101052Z 11005KT 2SM BR BKN006 BKN010 OVC015 19/18 A3005 RMK AO2 SFC VIS 5 RAB0959E08B30E44 SLP166 P0000 T01940183 $=
201206101038 SPECI KATL 101038Z 11006KT 2SM -RA BR OVC008 19/18 A3005 RMK AO2 SFC VIS 5 RAB0959E08B30 P0000 $=
201206101034 SPECI KATL 101034Z 10006KT 9SM -RA OVC008 19/18 A3004 RMK AO2 RAB0959E08B30 P0000 $=
201206100952 METAR KATL 100952Z 09006KT 6SM BR OVC012 19/18 A3003 RMK AO2 RAE43 SLP159 P0000 T01940183 $=
201206100852 METAR KATL 100852Z 09007KT 6SM -RA BR OVC012 19/18 A3002 RMK AO2 SLP158 P0003 60007 T01940178 55003 $=
201206100752 METAR KATL 100752Z 10006KT 6SM -RA BR OVC014 19/18 A3002 RMK AO2 RAE24B47 SLP155 P0003 T01940178 $=
201206100652 METAR KATL 100652Z 10007KT 6SM -RA BR OVC018 19/18 A3003 RMK AO2 SLP159 P0001 T01940178 $=
201206100611 SPECI KATL 100611Z 11005KT 10SM BKN018 BKN110 20/18 A3004 RMK AO2 RAE08 P0001 $=
201206100552 METAR KATL 100552Z 12006KT 7SM -RA SCT018 BKN090 OVC110 20/18 A3003 RMK AO2 RAB11 SLP161 P0005 60005 T02000178 10267 20200 58004 $=
201206100519 SPECI KATL 100519Z 14011G18KT 7SM -RA SCT020 BKN060 OVC075 22/17 A3003 RMK AO2 RAB11 P0001 $=
201206100452 METAR KATL 100452Z 14009G16KT 10SM BKN022 OVC065 22/16 A3004 RMK AO2 SLP161 T02220156 403000189 $=
201206100426 SPECI KATL 100426Z 13008KT 10SM BKN024 BKN042 OVC065 23/15 A3005 RMK AO2 $=
201206100352 METAR KATL 100352Z 14011G16KT 10SM OVC047 23/14 A3005 RMK AO2 SLP166 T02280144 $=
201206100252 METAR KATL 100252Z 14008G15KT 10SM FEW055 SCT070 OVC150 23/15 A3005 RMK AO2 SLP165 T02280150 53013 $=
201206100152 METAR KATL 100152Z 15005KT 10SM BKN060 BKN075 OVC100 23/16 A3003 RMK AO2 SLP160 T02330156 $=
201206100052 METAR KATL 100052Z 17011KT 10SM BKN120 OVC150 24/14 A3001 RMK AO2 SLP155 T02440139 $=
201206092352 METAR KATL 092352Z 16010KT 10SM SCT120 BKN150 OVC200 27/11 A3001 RMK AO2 SLP152 T02670106 10300 20267 53002 $=
201206092252 METAR KATL 092252Z 17009G16KT 10SM FEW150 OVC200 28/11 A3000 RMK AO2 SLP149 T02780106 $=
201206092152 METAR KATL 092152Z 11007G15KT 10SM FEW150 OVC180 28/11 A3000 RMK AO2 SLP149 T02830106 $=
201206092052 METAR KATL 092052Z 12008KT 10SM FEW070 OVC200 28/10 A3000 RMK AO2 SLP151 T02830100 58020 $=
201206091952 METAR KATL 091952Z 12013G18KT 10SM FEW065 BKN200 28/10 A3002 RMK AO2 SLP157 T02830100 $=
201206091852 METAR KATL 091852Z 10013G17KT 10SM FEW065 BKN250 29/12 A3005 RMK AO2 SLP165 T02940122=
201206091852 SPECI KATL 091852Z 10013G17KT 10SM FEW065 BKN250 29/12 A3005 RMK AO2 SLP165 T02940122=
201206091752 METAR KATL 091752Z 15011G15KT 10SM FEW060 BKN250 28/12 A3006 RMK AO2 SLP171 T02780117 10283 20206 58012=
201206091652 METAR KATL 091652Z 14012G15KT 10SM FEW050 BKN250 28/12 A3008 RMK AO2 SLP177 T02780122=
201206091552 METAR KATL 091552Z 13008KT 10SM BKN250 27/13 A3009 RMK AO2 SLP179 T02670128=
201206091452 METAR KATL 091452Z 16008KT 10SM BKN250 24/13 A3010 RMK AO2 SLP183 T02440133 51004=
201206091352 METAR KATL 091352Z 10005KT 10SM BKN250 24/14 A3010 RMK AO2 SLP182 T02390144=
201206091252 METAR KATL 091252Z 09006KT 10SM BKN250 23/16 A3009 RMK AO2 SLP181 T02280156=
201206091152 METAR KATL 091152Z 00000KT 10SM BKN250 21/14 A3009 RMK AO2 SLP179 T02060144 10211 20189 51013=
201206091052 METAR KATL 091052Z 09003KT 10SM BKN250 19/14 A3008 RMK AO2 SLP175 T01890144=
201206090952 METAR KATL 090952Z 08004KT 10SM SCT250 19/14 A3006 RMK AO2 SLP171 T01890144=
201206090852 METAR KATL 090852Z 00000KT 10SM FEW200 20/14 A3005 RMK AO2 SLP166 T02000144 53005=
201206090752 METAR KATL 090752Z 15004KT 10SM FEW180 SCT250 21/15 A3003 RMK AO2 SLP161 T02060150=
201206090652 METAR KATL 090652Z COR 17005KT 10SM FEW180 SCT250 20/14 A3003 RMK AO2 SLP161 T02000144=
201206090552 METAR KATL 090552Z 19005KT 10SM FEW200 SCT250 21/14 A3003 RMK AO2 SLP161 T02110144 10278 20211 50001=
201206090452 METAR KATL 090452Z 18006KT 10SM FEW200 BKN250 22/14 A3004 RMK AO2 SLP164 T02220139 402940189=
201206090352 METAR KATL 090352Z 16005KT 10SM FEW060 BKN250 23/13 A3004 RMK AO2 SLP162 T02330133=
201206090252 METAR KATL 090252Z 18006KT 10SM FEW060 BKN250 23/13 A3003 RMK AO2 SLP160 T02330133 53008=
201206090152 METAR KATL 090152Z 15003KT 10SM FEW065 BKN250 26/12 A3002 RMK AO2 SLP155 T02560122=
201206090052 METAR KATL 090052Z 16003KT 10SM FEW065 BKN250 26/13 A3001 RMK AO2 SLP152 T02610128=
201206082352 METAR KATL 082352Z 17005KT 10SM FEW065 BKN250 28/12 A3001 RMK AO2 SLP151 T02780122 10294 20267 53003=
201206082252 METAR KATL 082252Z 16008KT 10SM FEW065 SCT090 BKN250 29/13 A3000 RMK AO2 SLP149 T02890128=
201206082152 METAR KATL 082152Z 18006KT 10SM SCT065 BKN090 BKN250 29/13 A2999 RMK AO2 SLP147 T02890128=
201206082052 METAR KATL 082052Z 12008KT 10SM SCT060 BKN095 BKN250 28/12 A3000 RMK AO2 SLP149 T02830122 56014=
201206081952 METAR KATL 081952Z 11010KT 10SM FEW060TCU BKN095 BKN250 28/13 A3001 RMK AO2 SLP153 TCU N & SE T02830128=
201206081852 METAR KATL 081852Z 17005KT 10SM FEW055 SCT070 BKN250 28/13 A3002 RMK AO2 SLP155 T02780133=
201206081752 METAR KATL 081752Z 14005KT 10SM SCT055TCU SCT250 27/13 A3004 RMK AO2 SLP163 TCU SW-W-NW T02670133 10283 20206 58015=
201206081652 METAR KATL 081652Z 06007KT 020V090 10SM BKN045TCU BKN250 27/14 A3007 RMK AO2 SLP173 TCU S-SW-W-NW T02670144=
201206081552 METAR KATL 081552Z 10004KT 10SM BKN045TCU BKN250 26/15 A3008 RMK AO2 SLP177 TCU ALQDS T02560150=
201206081452 METAR KATL 081452Z VRB04KT 10SM FEW040 SCT200 SCT250 25/16 A3009 RMK AO2 SLP179 T02500156 50006=
201206081352 METAR KATL 081352Z VRB05KT 10SM FEW030 SCT200 SCT250 24/16 A3009 RMK AO2 SLP180 T02390156=
201206081252 METAR KATL 081252Z VRB03KT 10SM BKN250 22/16 A3008 RMK AO2 SLP176 T02170161=
201206081152 METAR KATL 081152Z 00000KT 10SM BKN250 21/17 A3007 RMK AO2 SLP173 T02060172 10206 20189 53013=
201206081118 SPECI KATL 081118Z 04004KT 10SM FEW001 BKN250 20/17 A3006 RMK AO2 FU FEW001=
201206081052 METAR KATL 081052Z 04004KT 10SM BKN250 19/16 A3006 RMK AO2 SLP169 T01940161=
201206080952 METAR KATL 080952Z 00000KT 10SM BKN250 19/16 A3004 RMK AO2 SLP164 T01940161=
201206080852 METAR KATL 080852Z 00000KT 10SM SCT250 19/16 A3003 RMK AO2 SLP160 T01890161 53003=
201206080752 METAR KATL 080752Z 00000KT 10SM BKN250 19/16 A3002 RMK AO2 SLP159 T01890161=
201206080652 METAR KATL 080652Z 00000KT 10SM BKN250 19/16 A3002 RMK AO2 SLP157 T01940161=
201206080552 METAR KATL 080552Z 15003KT 10SM SCT250 21/16 A3002 RMK AO2 SLP157 T02060156 10267 20206 50001=
201206080452 METAR KATL 080452Z 14003KT 10SM FEW100 SCT250 22/14 A3002 RMK AO2 SLP157 T02170144 402890178=
201206080352 METAR KATL 080352Z 14003KT 10SM FEW100 SCT250 22/14 A3002 RMK AO2 SLP158 T02220144=
201206080252 METAR KATL 080252Z 14003KT 10SM FEW100 SCT250 24/14 A3002 RMK AO2 SLP155 T02390139 53008=
201206080152 METAR KATL 080152Z 15004KT 10SM FEW100 SCT250 23/14 A3000 RMK AO2 SLP151 T02330139=
201206080052 METAR KATL 080052Z 11006KT 10SM FEW090 SCT200 BKN250 26/12 A2999 RMK AO2 SLP147 T02560117=
201206072352 METAR KATL 072352Z 10007KT 10SM FEW060 BKN250 26/12 A2999 RMK AO2 SLP148 T02610122 10289 20256 51004=
201206072252 METAR KATL 072252Z 08010KT 10SM FEW060 SCT090 BKN250 27/13 A2999 RMK AO2 SLP147 T02670128=
201206072152 METAR KATL 072152Z 06007G14KT 10SM SCT060 BKN090 BKN250 27/13 A2998 RMK AO2 SLP145 T02720128=
201206072052 METAR KATL 072052Z 08010KT 10SM BKN060 BKN250 27/13 A2998 RMK AO2 SLP143 T02720133 56015=
201206071952 METAR KATL 071952Z 06007KT 10SM SCT060 SCT250 27/13 A2998 RMK AO2 SLP145 T02670128=
201206071852 METAR KATL 071852Z 08004KT 10SM FEW050 SCT250 27/13 A3000 RMK AO2 SLP149 T02670133=
201206071752 METAR KATL 071752Z 08007KT 10SM SCT040 SCT250 26/14 A3002 RMK AO2 SLP158 T02610144 10267 20189 58007=
201206071652 METAR KATL 071652Z 17003KT 10SM BKN035 BKN250 24/16 A3003 RMK AO2 SLP162 T02440156=
201206071620 SPECI KATL 071620Z VRB03KT 10SM SCT030 SCT250 24/16 A3004 RMK AO2=
201206071552 METAR KATL 071552Z 16006KT 10SM BKN028 BKN250 23/16 A3004 RMK AO2 SLP166 T02280156=
201206071452 METAR KATL 071452Z VRB04KT 10SM FEW023 SCT070 SCT250 23/16 A3005 RMK AO2 SLP167 T02330161 50004=
201206071352 METAR KATL 071352Z 08007KT 10SM FEW025 SCT070 SCT250 22/16 A3006 RMK AO2 SLP170 T02170161=
201206071252 METAR KATL 071252Z 07007KT 10SM FEW065 SCT250 21/16 A3006 RMK AO2 SLP170 T02060156=
201206071152 METAR KATL 071152Z 08008KT 10SM FEW043 SCT065 SCT250 19/16 A3004 RMK AO2 SLP164 T01890156 10194 20178 51014=
201206071052 METAR KATL 071052Z 10005KT 10SM SCT027 BKN046 18/16 A3003 RMK AO2 SLP161 T01830156=
201206071047 SPECI KATL 071047Z 10004KT 10SM SCT027 BKN044 18/16 A3003 RMK AO2=
201206070952 METAR KATL 070952Z 09006KT 10SM BKN023 18/16 A3001 RMK AO2 SLP153 T01780161=
201206070949 SPECI KATL 070949Z 08006KT 10SM BKN023 18/16 A3001 RMK AO2=
201206070931 SPECI KATL 070931Z 09006KT 10SM FEW023 18/16 A3000 RMK AO2=
201206070852 METAR KATL 070852Z 09007KT 10SM FEW018 BKN023 BKN039 18/16 A3000 RMK AO2 SLP149 T01830161 57006=
201206070848 SPECI KATL 070848Z 07008KT 10SM FEW018 BKN023 BKN039 18/16 A3000 RMK AO2=
201206070752 METAR KATL 070752Z 08007KT 10SM FEW012 SCT021 BKN039 19/16 A3000 RMK AO2 SLP152 T01890161=
201206070702 SPECI KATL 070702Z 10007KT 10SM BKN012 OVC022 19/16 A3001 RMK AO2=
201206070652 METAR KATL 070652Z 10007KT 10SM SCT014 OVC020 19/16 A3001 RMK AO2 SLP153 T01940161=
201206070552 METAR KATL 070552Z 10008KT 10SM SCT013 OVC019 19/16 A3001 RMK AO2 SLP155 T01940161 10256 20194 53016=
201206070452 METAR KATL 070452Z 10007KT 10SM BKN015 OVC055 19/16 A3001 RMK AO2 SLP152 T01940161 402720183=
201206070450 SPECI KATL 070450Z 09007KT 10SM BKN015 OVC055 19/16 A3000 RMK AO2 402720183=
201206070352 METAR KATL 070352Z 11008KT 10SM FEW028 21/16 A2997 RMK AO2 SLP142 T02060161=
201206070252 METAR KATL 070252Z 12009KT 10SM FEW028 SCT090 22/17 A2997 RMK AO2 SLP139 T02220167 53019=
201206070152 METAR KATL 070152Z 12010KT 10SM FEW030 BKN055 BKN075 23/16 A2995 RMK AO2 SLP133 T02330161=
201206070052 METAR KATL 070052Z 14003KT 10SM SCT055TCU BKN080 24/14 A2992 RMK AO2 SLP124 TCU NW-NE T02440139=
201206062352 METAR KATL 062352Z 15003KT 10SM FEW060 SCT085 25/13 A2991 RMK AO2 SLP120 T02500133 10272 20250 51009=
201206062252 METAR KATL 062252Z 14005KT 10SM SCT060 BKN080 26/13 A2991 RMK AO2 SLP119 T02610128=
201206062152 METAR KATL 062152Z 00000KT 10SM SCT055 BKN075 26/12 A2990 RMK AO2 SLP116 T02610122=
201206062052 METAR KATL 062052Z 16004KT 10SM BKN055 26/13 A2988 RMK AO2 SLP110 T02610133 56007=
201206061952 METAR KATL 061952Z 08007KT 10SM BKN050 26/13 A2988 RMK AO2 SLP111 T02610133=
201206061852 METAR KATL 061852Z 10006KT 10SM BKN050 26/14 A2989 RMK AO2 SLP114 T02560139=
201206061752 METAR KATL 061752Z 03007KT 10SM BKN050 26/14 A2990 RMK AO2 SLP117 T02610144 10267 20189 50002=
201206061652 METAR KATL 061652Z VRB05KT 10SM BKN040 26/15 A2991 RMK AO2 SLP119 T02560150=
201206061552 METAR KATL 061552Z 06009KT 10SM SCT030 24/16 A2990 RMK AO2 SLP118 T02440156=
201206061452 METAR KATL 061452Z VRB04KT 10SM SCT025 23/16 A2990 RMK AO2 SLP115 T02330161 51010=
201206061418 SPECI KATL 061418Z 00000KT 10SM FEW018 SCT023 22/16 A2989 RMK AO2=
201206061414 SPECI KATL 061414Z 06005KT 10SM SCT018 BKN023 22/16 A2989 RMK AO2=
201206061352 METAR KATL 061352Z 11004KT 10SM SCT015 21/17 A2989 RMK AO2 SLP115 T02110167=
201206061252 METAR KATL 061252Z 06005KT 10SM FEW012 SCT016 SCT020 20/16 A2988 RMK AO2 SLP111 T02000161=
201206061152 METAR KATL 061152Z 06006KT 10SM FEW010 BKN018 BKN040 19/16 A2987 RMK AO2 SLP106 70003 T01890161 10194 20183 51013=
201206061052 METAR KATL 061052Z 06007KT 10SM BKN016 BKN045 19/16 A2986 RMK AO2 SLP103 T01890161=
201206060959 SPECI KATL 060959Z 03011KT 10SM BKN016 BKN070 19/16 A2984 RMK AO2=
201206060952 METAR KATL 060952Z 03010KT 10SM BKN014 BKN070 18/16 A2984 RMK AO2 SLP097 T01830161=
201206060912 SPECI KATL 060912Z 07005KT 10SM BKN012 BKN044 18/16 A2983 RMK AO2=
201206060852 METAR KATL 060852Z 07006KT 10SM FEW015 BKN042 BKN100 18/16 A2983 RMK AO2 SLP094 T01830161 56008=
201206060752 METAR KATL 060752Z 09005KT 10SM FEW012 BKN030 OVC045 19/16 A2983 RMK AO2 SLP096 T01890161=
201206060652 METAR KATL 060652Z 07009KT 10SM BKN016 BKN029 19/16 A2984 RMK AO2 SLP098 T01940161=
201206060552 METAR KATL 060552Z 07008KT 10SM OVC018 19/16 A2985 RMK AO2 SLP101 T01940161 10233 20194 50002=
201206060452 METAR KATL 060452Z 08008KT 10SM FEW010 OVC020 20/16 A2986 RMK AO2 SLP103 T02000161 402440200=
201206060352 METAR KATL 060352Z 09006KT 10SM FEW012 BKN022 OVC070 20/17 A2986 RMK AO2 SLP104 T02000172=
201206060252 METAR KATL 060252Z 11006KT 10SM BKN032 BKN065 21/17 A2985 RMK AO2 SLP099 T02060167 51016=
201206060152 METAR KATL 060152Z 12006KT 10SM FEW024 BKN070 OVC110 21/17 A2983 RMK AO2 SLP095 T02110172=
201206060052 METAR KATL 060052Z 13007KT 10SM SCT025 BKN070 BKN110 22/18 A2982 RMK AO2 SLP090 T02170178=
201206060016 SPECI KATL 060016Z 14010KT 10SM BKN025 BKN070 BKN100 22/17 A2981 RMK AO2=
201206052352 METAR KATL 052352Z 11005KT 10SM FEW025 SCT070 SCT100 23/17 A2980 RMK AO2 SLP081 T02280172 10244 20222 55003=
201206052252 METAR KATL 052252Z 09007KT 10SM FEW100 24/17 A2979 RMK AO2 SLP078 T02390172=
201206052152 METAR KATL 052152Z 08008G15KT 10SM FEW020 SCT100 SCT250 24/17 A2978 RMK AO2 SLP076 T02390172=
201206052052 METAR KATL 052052Z 07011KT 10SM FEW020 BKN040 BKN100 BKN200 23/17 A2981 RMK AO2 SLP085 T02280172 58005=
201206052027 SPECI KATL 052027Z 08012KT 10SM FEW020 BKN030 BKN100 23/17 A2981 RMK AO2=
201206051952 METAR KATL 051952Z 09008KT 10SM BKN020CB BKN030 BKN080 22/17 A2982 RMK AO2 SLP089 CB SE-S-SW MOV E SHRA SE-S-SW T02220167=
201206051925 SPECI KATL 051925Z COR 06009KT 10SM BKN020 BKN040 OVC080 23/17 A2982 RMK AO2 CB DSNT SE-S SHRA DSNT SE-S-SW-W=
201206051852 METAR KATL 051852Z 05009KT 10SM BKN038 BKN050 OVC070 23/18 A2981 RMK AO2 SLP088 CB DSNT S-SW-W SHRA DSNT S-SW-W T02280178=
201206051829 SPECI KATL 051829Z 07008KT 10SM FEW030 BKN040 BKN070 BKN200 24/18 A2981 RMK AO2 CB DSNT S-SW-W=
201206051816 SPECI KATL 051816Z 05011KT 10SM FEW020 BKN030 OVC070 23/18 A2982 RMK AO2=
201206051752 METAR KATL 051752Z 08009KT 10SM BKN020 BKN030 OVC070 23/18 A2982 RMK AO2 SLP091 60003 T02280178 10239 20200 50001=
201206051733 SPECI KATL 051733Z 09007KT 10SM FEW020 BKN030 BKN070 23/18 A2982 RMK AO2=
201206051652 METAR KATL 051652Z 07010KT 10SM BKN017 BKN025 BKN070 23/18 A2983 RMK AO2 SLP092 T02280183=
201206051646 SPECI KATL 051646Z 08011KT 10SM BKN017 BKN025 BKN070 23/19 A2983 RMK AO2=
201206051552 METAR KATL 051552Z 07005KT 10SM FEW012 SCT030 BKN070 BKN200 23/19 A2982 RMK AO2 RAE1454 SLP091 P0000 T02280189=
201206051452 METAR KATL 051452Z 10007KT 10SM -RA FEW010 SCT020 BKN070 BKN200 21/18 A2982 RMK AO2 WSHFT 1418 RAE1358B38 SLP089 P0000 60003 T02110178 50005=
201206051449 SPECI KATL 051449Z 11006KT 10SM -RA FEW010 SCT020 BKN070 BKN200 21/18 A2981 RMK AO2 WSHFT 1418 RAE1358B38 P0000=
201206051438 SPECI KATL 051438Z 10009KT 10SM -RA BKN010 BKN030 OVC070 20/17 A2982 RMK AO2 WSHFT 1418 RAE1358B38 P0000=
201206051429 SPECI KATL 051429Z 08011KT 10SM BKN010 BKN030 OVC070 20/17 A2983 RMK AO2 RAE1358 P0000=
201206051401 SPECI KATL 051401Z 03008KT 6SM BR FEW008 BKN033 OVC075 22/19 A2983 RMK AO2 RAE1358 P0000=
201206051352 METAR KATL 051352Z 01008KT 6SM -RA BR BKN031 BKN075 BKN095 21/19 A2983 RMK AO2 RAB13 SLP092 P0003 T02110194=
201206051327 SPECI KATL 051327Z 33007KT 6SM -RA BR FEW009 BKN021 OVC033 21/19 A2983 RMK AO2 RAB13 P0001=
201206051307 SPECI KATL 051307Z 30006KT 6SM BR BKN019 BKN025 22/19 A2982 RMK AO2=
201206051252 METAR KATL 051252Z 25003KT 6SM BR FEW010 BKN014 BKN019 OVC250 22/19 A2981 RMK AO2 SLP086 T02170194=
201206051152 METAR KATL 051152Z 34004KT 6SM BR BKN012 BKN050 BKN060 21/19 A2980 RMK AO2 SLP082 70024 T02110189 10211 20200 51019=
201206051052 METAR KATL 051052Z 31005KT 10SM BKN049 BKN060 OVC250 21/19 A2979 RMK AO2 SLP077 T02060189=
201206050952 METAR KATL 050952Z 30006KT 10SM SCT150 OVC250 21/19 A2976 RMK AO2 SLP069 T02060189=
201206050852 METAR KATL 050852Z 25004KT 10SM SCT200 BKN250 20/19 A2974 RMK AO2 SLP062 T02000189 55023=
201206050752 METAR KATL 050752Z 24004KT 10SM FEW180 SCT250 20/18 A2974 RMK AO2 SLP061 T02000183=
201206050652 METAR KATL 050652Z 26004KT 10SM FEW250 20/18 A2978 RMK AO2 SLP075 T02000183=
201206050552 METAR KATL 050552Z 30006KT 10SM FEW034 21/19 A2981 RMK AO2 SLP088 T02060189 10250 20206 58003=
201206050452 METAR KATL 050452Z 28009KT 10SM FEW200 BKN250 21/19 A2983 RMK AO2 SLP092 T02110189 402670194=
201206050352 METAR KATL 050352Z 25005KT 10SM FEW200 BKN250 22/19 A2981 RMK AO2 SLP088 T02170189=
201206050252 METAR KATL 050252Z 27007KT 10SM FEW200 BKN250 22/19 A2982 RMK AO2 SLP093 T02170189 53003=
201206050152 METAR KATL 050152Z 27005KT 10SM FEW200 BKN250 22/18 A2982 RMK AO2 SLP089 T02220183=
201206050052 METAR KATL 050052Z 27004KT 10SM FEW200 BKN250 23/18 A2982 RMK AO2 SLP088 T02280178=
201206042352 METAR KATL 042352Z 29008KT 10SM FEW032 BKN250 25/18 A2982 RMK AO2 SLP087 T02500178 10267 20228 56006=
201206042252 METAR KATL 042252Z 31011KT 10SM BKN032 BKN250 25/17 A2982 RMK AO2 SLP088 T02500172=
201206042152 METAR KATL 042152Z 28008KT 10SM BKN030 BKN250 26/18 A2982 RMK AO2 SLP089 T02560183=
201206042052 METAR KATL 042052Z 30011KT 10SM BKN030 BKN250 26/18 A2984 RMK AO2 SLP093 T02610178 58015=
201206042026 SPECI KATL 042026Z 31010G17KT 10SM BKN030 BKN250 26/18 A2984 RMK AO2=
201206041952 METAR KATL 041952Z 33012G17KT 10SM BKN027 BKN250 26/18 A2985 RMK AO2 SLP099 T02610183=
201206041950 SPECI KATL 041950Z 33012G17KT 10SM BKN027 BKN250 26/18 A2985 RMK AO2=
201206041934 SPECI KATL 041934Z 31011KT 10SM SCT024 BKN250 26/18 A2986 RMK AO2=
201206041908 SPECI KATL 041908Z 31011KT 10SM BKN022 BKN250 25/18 A2987 RMK AO2=
201206041852 METAR KATL 041852Z 32009KT 10SM SCT020 BKN250 24/18 A2986 RMK AO2 SLP103 T02440183=
201206041836 SPECI KATL 041836Z 30013G17KT 10SM SCT017 SCT024 BKN250 25/19 A2987 RMK AO2=
201206041817 SPECI KATL 041817Z 28012G18KT 10SM BKN015 BKN090 24/19 A2988 RMK AO2 CIG 013V017=
201206041752 METAR KATL 041752Z 28010KT 10SM SCT011 BKN100 BKN200 BKN250 23/19 A2988 RMK AO2 SLP110 60024 T02280189 10233 20194 58008=
201206041726 SPECI KATL 041726Z 28008KT 10SM SCT011 BKN095 BKN200 BKN250 22/19 A2990 RMK AO2=
201206041652 METAR KATL 041652Z 27008KT 8SM BKN009 BKN035 OVC060 21/19 A2991 RMK AO2 RAE42 SLP119 P0002 T02110189=
201206041642 SPECI KATL 041642Z 27008KT 8SM BKN009 BKN040 OVC085 21/19 A2991 RMK AO2 RAE42 P0002=
201206041552 METAR KATL 041552Z 27006KT 6SM -RA BR FEW007 BKN090 OVC110 20/19 A2992 RMK AO2 SLP123 P0007 T02000189=
201206041548 SPECI KATL 041548Z 27006KT 7SM -RA FEW007 BKN090 OVC110 20/18 A2992 RMK AO2 P0007=
201206041519 SPECI KATL 041519Z 28006KT 5SM -RA BR BKN005 BKN090 OVC110 19/18 A2991 RMK AO2 P0004=
201206041509 SPECI KATL 041509Z 25007KT 5SM -RA BR FEW005 BKN090 OVC110 19/18 A2991 RMK AO2 P0002=
201206041452 METAR KATL 041452Z 26007KT 4SM RA BR FEW080 OVC095 19/18 A2990 RMK AO2 TSB15E47 SLP118 TS DSIPT P0011 60015 T01940183 51007=
201206041447 SPECI KATL 041447Z 27008KT 6SM -RA BR FEW085 OVC100 19/18 A2990 RMK AO2 TSB15E47 TS DSIPT P0010=
201206041415 SPECI KATL 041415Z 33010KT 6SM -TSRA BR FEW030CB SCT085 OVC110 20/18 A2988 RMK AO2 TSB15 OCNL LTGIC SW TS SW MOV SE P0004=
201206041352 METAR KATL 041352Z 32009KT 7SM -RA FEW050 BKN090 OVC110 20/18 A2990 RMK AO2 SLP118 P0004 T02000178=
201206041252 METAR KATL 041252Z 28005KT 10SM -RA BKN050 BKN075 BKN120 21/18 A2990 RMK AO2 RAB19E29B47 SLP117 OCNL LTG DSNT SW-W P0000 T02110178=
201206041152 METAR KATL 041152Z 28005KT 10SM BKN055 BKN120 BKN180 22/17 A2988 RMK AO2 SLP109 T02170172 10239 20211 53002=
201206041052 METAR KATL 041052Z 24003KT 10SM SCT085 BKN120 BKN180 22/17 A2986 RMK AO2 SLP103 T02170172=
201206040952 METAR KATL 040952Z 25003KT 10SM FEW070 BKN250 21/17 A2986 RMK AO2 SLP101 T02110172=
201206040852 METAR KATL 040852Z 29005KT 10SM SCT034 BKN090 OVC250 22/17 A2988 RMK AO2 SLP107 T02170172 58007=
201206040752 METAR KATL 040752Z 32010KT 10SM BKN046 BKN080 OVC250 23/17 A2989 RMK AO2 SLP113 OCNL LTG DSNT NE T02330172=
201206040652 METAR KATL 040652Z 26010KT 10SM SCT070 BKN120 OVC250 24/17 A2989 RMK AO2 SLP113 T02390172=
201206040552 METAR KATL 040552Z 26006KT 10SM FEW120 BKN250 23/18 A2990 RMK AO2 SLP114 T02280178 10267 20228 58005=
201206040452 METAR KATL 040452Z 25005KT 10SM BKN250 23/18 A2991 RMK AO2 SLP118 T02330178 402890167=
201206040352 METAR KATL 040352Z 26006KT 10SM SCT060 SCT100 BKN250 24/18 A2992 RMK AO2 SLP121 T02390183=
201206040252 METAR KATL 040252Z 25010KT 10SM FEW100 BKN250 25/19 A2991 RMK AO2 SLP120 T02500189 55003=
201206040152 METAR KATL 040152Z 23007KT 10SM FEW050 BKN250 25/19 A2990 RMK AO2 SLP115 T02500194=
201206040052 METAR KATL 040052Z 27004KT 10SM FEW050 BKN250 26/19 A2991 RMK AO2 SLP120 T02560189=
201206032352 METAR KATL 032352Z 24003KT 10SM FEW060 SCT220 OVC250 27/18 A2992 RMK AO2 TSE10 SLP124 TS DSIPT T02670183 10289 20261 56012=
201206032310 SPECI KATL 032310Z 26005KT 10SM FEW043 SCT060 BKN220 OVC250 27/18 A2992 RMK AO2 TSE10 TS DSIPT=
201206032252 METAR KATL 032252Z 26005KT 10SM TS FEW043CB SCT080 BKN250 27/18 A2992 RMK AO2 TSB52 SLP125 OCNL LTGIC W TS W MOV SE T02720183=
201206032152 METAR KATL 032152Z 26007KT 10SM FEW046 SCT250 28/18 A2994 RMK AO2 SLP131 T02780178=
201206032052 METAR KATL 032052Z 27011KT 10SM BKN043 27/17 A2996 RMK AO2 SLP137 T02670167 56019=
201206031952 METAR KATL 031952Z 22007KT 10SM BKN055 27/16 A2997 RMK AO2 SLP139 T02720156=
201206031852 METAR KATL 031852Z 25009KT 10SM FEW050 SCT070 BKN250 26/13 A2999 RMK AO2 SLP147 T02610133=
201206031752 METAR KATL 031752Z 27006KT 10SM BKN065 27/15 A3002 RMK AO2 SLP156 T02670150 10272 20178 58006=
201206031652 METAR KATL 031652Z 27007KT 10SM OVC065 24/14 A3004 RMK AO2 SLP166 T02390144=
201206031552 METAR KATL 031552Z 29007KT 10SM SCT060 OVC100 24/14 A3005 RMK AO2 SLP168 T02440139=
201206031452 METAR KATL 031452Z 22005KT 10SM BKN080 24/14 A3004 RMK AO2 SLP163 T02390139 50002=
201206031352 METAR KATL 031352Z 29006KT 10SM FEW075 23/14 A3004 RMK AO2 SLP164 T02330139=
201206031252 METAR KATL 031252Z 29005KT 10SM SCT075 22/13 A3004 RMK AO2 SLP163 T02220133=
201206031152 METAR KATL 031152Z 23003KT 10SM SCT070 18/13 A3003 RMK AO2 SLP163 T01780133 10189 20167 53013=
201206031052 METAR KATL 031052Z 00000KT 10SM FEW050 BKN250 18/12 A3001 RMK AO2 SLP156 T01780117=
201206030952 METAR KATL 030952Z 28004KT 10SM FEW080 17/12 A3000 RMK AO2 SLP151 T01720117=
201206030852 METAR KATL 030852Z 27005KT 10SM BKN080 17/12 A2999 RMK AO2 SLP148 T01720117 53003=
201206030752 METAR KATL 030752Z 27004KT 10SM SCT075 18/12 A2997 RMK AO2 SLP142 T01780117=
201206030652 METAR KATL 030652Z 29003KT 10SM CLR 18/11 A2997 RMK AO2 SLP143 T01830111=
201206030552 METAR KATL 030552Z 28003KT 10SM CLR 19/11 A2998 RMK AO2 SLP145 T01890111 10233 20178 50000=
201206030452 METAR KATL 030452Z 28003KT 10SM CLR 19/11 A2999 RMK AO2 SLP147 T01890111 402560128=
201206030352 METAR KATL 030352Z 33004KT 10SM CLR 20/11 A2998 RMK AO2 SLP147 T02000111=
201206030252 METAR KATL 030252Z 00000KT 10SM CLR 20/11 A2998 RMK AO2 SLP146 T02000111 53015=
201206030152 METAR KATL 030152Z 27004KT 10SM CLR 21/10 A2996 RMK AO2 SLP138 T02110100=
201206030052 METAR KATL 030052Z 31006KT 10SM CLR 22/10 A2995 RMK AO2 SLP134 T02170100=
201206022352 METAR KATL 022352Z 31008KT 10SM CLR 23/09 A2993 RMK AO2 SLP131 T02330094 10256 20233 55001=
201206022252 METAR KATL 022252Z 30010KT 10SM FEW060 24/09 A2993 RMK AO2 SLP130 T02440089=
201206022152 METAR KATL 022152Z 32012KT 10SM FEW060 25/08 A2993 RMK AO2 SLP127 T02500083=
201206022052 METAR KATL 022052Z 29015G21KT 10SM FEW060 25/08 A2994 RMK AO2 SLP132 T02500078 58009=
201206021952 METAR KATL 021952Z 30016G23KT 10SM FEW060 25/08 A2995 RMK AO2 SLP136 T02500078=
201206021852 METAR KATL 021852Z 30015G21KT 10SM CLR 24/06 A2996 RMK AO2 SLP138 T02440061=
201206021752 METAR KATL 021752Z 31010G26KT 10SM CLR 24/07 A2997 RMK AO2 PK WND 30029/1659 SLP141 T02390072 10239 20144 58007=
201206021652 METAR KATL 021652Z 33014G26KT 10SM CLR 22/07 A2998 RMK AO2 PK WND 33026/1647 SLP147 T02220067=
201206021552 METAR KATL 021552Z 32018G25KT 10SM FEW250 21/06 A2998 RMK AO2 SLP146 T02110056=
201206021452 METAR KATL 021452Z 32016G21KT 10SM FEW250 19/07 A2999 RMK AO2 SLP148 T01940067 51017=
201206021352 METAR KATL 021352Z 32013G19KT 10SM FEW250 18/08 A2998 RMK AO2 SLP146 T01830083=
201206021252 METAR KATL 021252Z 33013KT 10SM FEW250 17/09 A2996 RMK AO2 SLP138 T01670089=
201206021152 METAR KATL 021152Z 32008KT 10SM CLR 14/10 A2994 RMK AO2 SLP131 T01440100 10161 20128 53014=
201206021052 METAR KATL 021052Z 32007KT 10SM CLR 13/09 A2992 RMK AO2 SLP126 T01280094=
201206020952 METAR KATL 020952Z 31007KT 10SM CLR 13/09 A2991 RMK AO2 SLP121 T01330094=
201206020852 METAR KATL 020852Z 31005KT 10SM CLR 13/09 A2989 RMK AO2 SLP116 T01330094 58003=
201206020752 METAR KATL 020752Z 31007KT 10SM CLR 14/09 A2989 RMK AO2 SLP116 T01390089=
201206020652 METAR KATL 020652Z 31005KT 10SM CLR 15/09 A2990 RMK AO2 SLP119 T01500089=
201206020552 METAR KATL 020552Z 32007KT 10SM CLR 16/09 A2990 RMK AO2 SLP118 T01610089 10239 20156 50010=
201206020452 METAR KATL 020452Z 36010KT 10SM CLR 17/10 A2990 RMK AO2 SLP120 T01720100 402670172=
201206020352 METAR KATL 020352Z 33013KT 10SM CLR 18/11 A2990 RMK AO2 SLP118 T01830106=
201206020252 METAR KATL 020252Z 32009KT 10SM CLR 19/11 A2987 RMK AO2 SLP109 T01940111 53014=
201206020152 METAR KATL 020152Z 31008KT 10SM CLR 21/11 A2984 RMK AO2 SLP099 T02060106=
201206020052 METAR KATL 020052Z 32009KT 10SM FEW045 22/12 A2984 RMK AO2 SLP096 T02220117=
201206012352 METAR KATL 012352Z 32010KT 10SM FEW045 24/13 A2983 RMK AO2 SLP093 60000 T02390133 10267 20233 53005=
201206012252 METAR KATL 012252Z 28009G17KT 10SM SCT038 SCT250 25/15 A2981 RMK AO2 SLP087 T02500150=
201206012152 METAR KATL 012152Z 30010KT 10SM SCT030 BKN200 BKN250 25/17 A2981 RMK AO2 SLP087 T02500172=
201206012052 METAR KATL 012052Z 30010G19KT 10SM SCT032 BKN090 BKN150 OVC200 26/17 A2981 RMK AO2 SLP087 60000 T02560167 55004=
201206011952 METAR KATL 011952Z 27013KT 10SM FEW025 SCT045 BKN150 OVC200 26/18 A2981 RMK AO2 RAB28E37 SLP087 TCU DSNT E-S P0000 T02560178=
201206011852 METAR KATL 011852Z 29009G16KT 10SM SCT037TCU BKN050 BKN090 BKN200 24/18 A2982 RMK AO2 RAB07E43 SLP091 CB DSNT NE-E TCU NE-E-SE SHRA NE-E P0000 T02440183=
201206011810 SPECI KATL 011810Z 25013G17KT 10SM -RA SCT037CB BKN060 BKN200 25/17 A2983 RMK AO2 RAB07 CB W-NW-N MOV NE SHRA W-NW-N P0000=
201206011752 METAR KATL 011752Z 25008KT 10SM FEW035CB SCT110 BKN200 26/17 A2983 RMK AO2 RAE1658 SLP092 CB SW-W-NW-N MOV NE TCU DSNT E-SE-S SHRA SW-W-NW-N P0000 60000 T02610172 10261 20189 58012=
201206011652 METAR KATL 011652Z 28009KT 10SM -RA SCT025TCU BKN060 BKN110 BKN200 24/18 A2985 RMK AO2 RAB47 SLP100 TCU SE-S-SW SHRA SE-S-SW P0000 T02390178=
201206011613 SPECI KATL 011613Z 24006G15KT 10SM BKN025 BKN080 BKN110 23/18 A2986 RMK AO2=
201206011552 METAR KATL 011552Z 26010KT 10SM FEW018 SCT080 BKN110 23/18 A2986 RMK AO2 SLP105 T02280178=
201206011452 METAR KATL 011452Z 23009KT 10SM FEW013 SCT080 BKN110 21/18 A2986 RMK AO2 SLP104 T02110178 51009=
201206011352 METAR KATL 011352Z 24009KT 10SM BKN013 BKN080 BKN110 21/18 A2986 RMK AO2 SLP101 T02060178=
201206011252 METAR KATL 011252Z 22007KT 10SM FEW007 BKN100 BKN130 BKN250 20/18 A2985 RMK AO2 SLP100 T02000183=
201206011208 SPECI KATL 011208Z 23006KT 10SM FEW005 BKN095 OVC130 19/18 A2985 RMK AO2=
