##########################################################
# Query made at 04/19/2024 23:26:27 UTC
# Time interval: from 03/01/2012 12:00  to 03/31/2012 12:59  UTC
##########################################################

##########################################################
# KATL, Atlanta, Hartsfield - Jackson Atlanta International Airport (United States)
# WMO index: 72219. WIGOS ID: 0-20000-0-72219
# Latitude 33-38-59N. Longitude 084-25-00W. Altitude 312 m.
##########################################################

201203311252 METAR KATL 311252Z 27005KT 6SM BR BKN011 BKN080 BKN150 18/16 A2992 RMK AO2 SLP125 CB DSNT S T01780161=
201203311152 METAR KATL 311152Z 28003KT 6SM BR FEW009 SCT065 BKN100 BKN150 17/16 A2989 RMK AO2 SLP116 60017 70035 T01720156 10178 20172 51007=
201203311052 METAR KATL 311052Z 24004KT 6SM BR FEW009 BKN100 BKN110 18/16 A2988 RMK AO2 RAB16E34 SLP113 P0000 T01780161=
201203311045 SPECI KATL 311045Z 25005KT 6SM BR FEW008 SCT080 BKN100 17/16 A2988 RMK AO2 RAB16E34 P0000=
201203311045 SPECI KATL 311045Z 25005KT 6SM BR FEW008 SCT080 BKN100 17/16 A2988 RMK AO2 RAB16E34 P0000=
201203311015 SPECI KATL 311015Z 26007KT 6SM BR SCT018 BKN024 BKN030 18/16 A2988 RMK AO2=
201203311015 SPECI KATL 311015Z 26007KT 6SM BR SCT018 BKN024 BKN030 18/16 A2988 RMK AO2=
201203310952 METAR KATL 310952Z 27007KT 6SM BR SCT012 SCT025 BKN075 18/16 A2988 RMK AO2 RAB22E35 SLP112 P0000 T01780161=
201203310852 METAR KATL 310852Z 27008KT 6SM BR BKN008 OVC012 18/16 A2987 RMK AO2 SLP107 60017 T01780161 55005=
201203310832 SPECI KATL 310832Z 27010KT 6SM BR BKN008 OVC015 18/16 A2986 RMK AO2=
201203310832 SPECI KATL 310832Z 27010KT 6SM BR BKN008 OVC015 18/16 A2986 RMK AO2=
201203310752 METAR KATL 310752Z 25008KT 6SM BR SCT010 BKN033 OVC042 18/16 A2986 RMK AO2 RAB00E43 SLP102 P0017 T01780161=
201203310718 SPECI KATL 310718Z 28005KT 3SM RA BR FEW006 BKN014 OVC028 18/16 A2986 RMK AO2 RAB00 P0014=
201203310718 SPECI KATL 310718Z 28005KT 3SM RA BR FEW006 BKN014 OVC028 18/16 A2986 RMK AO2 RAB00 P0014=
201203310707 SPECI KATL 310707Z 23005KT 1 3/4SM +RA BR FEW008 BKN014 OVC032 18/16 A2987 RMK AO2 RAB00 P0005=
201203310707 SPECI KATL 310707Z 23005KT 1 3/4SM +RA BR FEW008 BKN014 OVC032 18/16 A2987 RMK AO2 RAB00 P0005=
201203310659 SPECI KATL 310659Z 24004KT 7SM SCT006 BKN013 OVC033 18/16 A2987 RMK AO2=
201203310659 SPECI KATL 310659Z 24004KT 7SM SCT006 BKN013 OVC033 18/16 A2987 RMK AO2=
201203310652 METAR KATL 310652Z 24004KT 7SM BKN010 BKN020 OVC031 17/16 A2987 RMK AO2 RAB25E36 SLP107 P0000 T01720161=
201203310552 METAR KATL 310552Z 22009KT 7SM BKN006 OVC012 17/16 A2988 RMK AO2 RAE50 SLP112 P0010 60018 T01720161 10194 20172 58012=
201203310542 SPECI KATL 310542Z 21010G15KT 9SM -RA BKN006 OVC014 17/16 A2988 RMK AO2 P0010=
201203310542 SPECI KATL 310542Z 21010G15KT 9SM -RA BKN006 OVC014 17/16 A2988 RMK AO2 P0010=
201203310536 SPECI KATL 310536Z 20007KT 2 1/2SM R09R/6000VP6000FT -RA BR BKN006 OVC014 17/16 A2988 RMK AO2 P0009=
201203310536 SPECI KATL 310536Z 20007KT 2 1/2SM R09R/6000VP6000FT -RA BR BKN006 OVC014 17/16 A2988 RMK AO2 P0009=
201203310452 METAR KATL 310452Z 20007KT 10SM -RA BKN008 OVC075 17/16 A2990 RMK AO2 RAB28 SLP117 CIG 006V011 P0000 T01720156 402610144=
201203310352 METAR KATL 310352Z 20008KT 10SM OVC008 17/16 A2992 RMK AO2 RAB16E43 SLP124 CIG 006V010 P0000 T01720156=
201203310325 SPECI KATL 310325Z 21007KT 10SM -RA BKN009 BKN014 OVC025 17/16 A2992 RMK AO2 RAB16 P0000=
201203310325 SPECI KATL 310325Z 21007KT 10SM -RA BKN009 BKN014 OVC025 17/16 A2992 RMK AO2 RAB16 P0000=
201203310252 METAR KATL 310252Z 20007KT 10SM SCT008 BKN014 OVC050 17/16 A2992 RMK AO2 RAE47 SLP125 P0001 60008 T01720156 50002=
201203310152 METAR KATL 310152Z 20013G21KT 9SM -RA SCT009 BKN025 OVC070 18/16 A2993 RMK AO2 RAE15B37 SLP129 P0001 T01780156=
201203310118 SPECI KATL 310118Z 19006KT 10SM SCT012 BKN025 OVC090 18/16 A2993 RMK AO2 RAE15 P0001=
201203310118 SPECI KATL 310118Z 19006KT 10SM SCT012 BKN025 OVC090 18/16 A2993 RMK AO2 RAE15 P0001=
201203310104 SPECI KATL 310104Z 19007KT 9SM -RA FEW010 BKN050 OVC100 18/16 A2993 RMK AO2 OCNL LTG DSNT NW-N P0001=
201203310104 SPECI KATL 310104Z 19007KT 9SM -RA FEW010 BKN050 OVC100 18/16 A2993 RMK AO2 OCNL LTG DSNT NW-N P0001=
201203310052 METAR KATL 310052Z 19009KT 5SM RA BR FEW012 BKN020 OVC050 18/16 A2993 RMK AO2 RAB39 SLP130 OCNL LTG DSNT NW P0006 T01830161=
201203302352 METAR KATL 302352Z 20005KT 10SM FEW040 SCT080 BKN100 OVC150 19/15 A2992 RMK AO2 RAE51 SLP126 P0000 60000 T01890150 10261 20189 50007=
201203302252 METAR KATL 302252Z 22007KT 10SM -RA FEW050 SCT090 BKN110 OVC150 21/15 A2992 RMK AO2 SLP128 P0000 T02060150=
201203302152 METAR KATL 302152Z 20014G19KT 10SM -RA FEW050 BKN090 BKN120 OVC150 23/13 A2991 RMK AO2 RAB48 SLP123 P0000 T02280128=
201203302052 METAR KATL 302052Z 20012KT 10SM FEW065 BKN100 BKN200 25/09 A2989 RMK AO2 SLP116 CB DSNT N & S SHRA DSNT S T02500089 56019=
201203301952 METAR KATL 301952Z 21012G20KT 10SM FEW060 SCT100 BKN200 26/08 A2990 RMK AO2 SLP118 ACC SE-S & DSNT NW T02610078=
201203301852 METAR KATL 301852Z 19009G15KT 10SM FEW055 SCT100 BKN200 26/12 A2992 RMK AO2 SLP124 CB DSNT N T02560117=
201203301752 METAR KATL 301752Z 21010KT 10SM FEW050TCU SCT200 BKN250 26/12 A2995 RMK AO2 SLP134 CB DSNT N TCU SW-NW T02560117 10261 20150 58021=
201203301652 METAR KATL 301652Z 25008KT 10SM FEW050TCU SCT100 BKN250 24/13 A2998 RMK AO2 SLP145 TCU DSNT N & E & S & VC W T02440128=
201203301552 METAR KATL 301552Z 00000KT 10SM FEW030 BKN100 BKN250 23/14 A3000 RMK AO2 SLP153 TCU DSNT NE & NW T02280144=
201203301452 METAR KATL 301452Z 18004KT 10SM BKN110 BKN200 BKN250 21/14 A3002 RMK AO2 SLP158 ACC DSNT W T02110139 51005=
201203301352 METAR KATL 301352Z 28003KT 10SM FEW110 SCT200 BKN250 21/13 A3001 RMK AO2 SLP156 T02110133=
201203301252 METAR KATL 301252Z 00000KT 10SM SCT100 SCT200 SCT250 17/13 A3002 RMK AO2 SLP159 T01670128=
201203301152 METAR KATL 301152Z 00000KT 9SM FEW100 SCT200 SCT250 15/12 A3000 RMK AO2 SLP152 T01500117 10183 20144 53014=
201203301052 METAR KATL 301052Z 00000KT 10SM FEW250 15/11 A2998 RMK AO2 SLP146 T01500111=
201203300952 METAR KATL 300952Z 00000KT 10SM CLR 15/11 A2997 RMK AO2 SLP141 T01500111=
201203300852 METAR KATL 300852Z 00000KT 10SM CLR 16/11 A2996 RMK AO2 SLP137 T01560111 55005=
201203300752 METAR KATL 300752Z 22003KT 10SM CLR 16/12 A2995 RMK AO2 SLP134 T01610117=
201203300652 METAR KATL 300652Z 27005KT 10SM CLR 17/12 A2997 RMK AO2 SLP140 T01720117=
201203300552 METAR KATL 300552Z 25004KT 10SM FEW100 SCT250 18/12 A2997 RMK AO2 SLP142 T01830117 10233 20178 58006=
201203300452 METAR KATL 300452Z 26003KT 10SM SCT250 18/11 A2998 RMK AO2 SLP146 T01780111 402670144=
201203300352 METAR KATL 300352Z 24003KT 10SM SCT250 19/11 A2999 RMK AO2 SLP149 T01890111=
201203300252 METAR KATL 300252Z 24003KT 10SM BKN250 20/11 A2999 RMK AO2 SLP149 T02000111 51014=
201203300152 METAR KATL 300152Z 24003KT 10SM SCT250 21/12 A2999 RMK AO2 SLP149 T02060117=
201203300052 METAR KATL 300052Z 23003KT 10SM SCT250 22/12 A2996 RMK AO2 SLP140 T02170117=
201203292352 METAR KATL 292352Z 23003KT 10SM FEW200 SCT250 23/12 A2995 RMK AO2 SLP136 T02330117 10267 20233 55002=
201203292252 METAR KATL 292252Z 23007KT 10SM FEW055 BKN250 25/12 A2995 RMK AO2 SLP135 T02500117=
201203292152 METAR KATL 292152Z 26009KT 10SM FEW055 SCT250 26/12 A2994 RMK AO2 SLP132 T02610117=
201203292052 METAR KATL 292052Z 25009KT 10SM FEW050 SCT070 BKN200 26/11 A2996 RMK AO2 SLP136 T02610111 56020=
201203291952 METAR KATL 291952Z 35006KT 10SM FEW050 SCT070 BKN200 OVC280 26/12 A2997 RMK AO2 SLP143 T02560117=
201203291852 METAR KATL 291852Z VRB05KT 10SM BKN060 BKN200 OVC280 25/12 A2999 RMK AO2 SLP149 T02500117=
201203291752 METAR KATL 291752Z 00000KT 10SM FEW050 BKN200 BKN280 26/13 A3002 RMK AO2 SLP157 T02560128 10256 20144 58015=
201203291652 METAR KATL 291652Z 27010KT 10SM FEW045 BKN200 BKN280 24/13 A3004 RMK AO2 SLP164 T02440128=
201203291552 METAR KATL 291552Z 28008KT 10SM BKN200 BKN280 23/13 A3006 RMK AO2 SLP171 T02330128=
201203291452 METAR KATL 291452Z 28011KT 10SM BKN200 BKN280 22/12 A3006 RMK AO2 SLP173 T02170122 51006=
201203291352 METAR KATL 291352Z 28012KT 10SM BKN250 20/11 A3006 RMK AO2 SLP172 T02000111=
201203291252 METAR KATL 291252Z 28007KT 10SM BKN250 18/12 A3006 RMK AO2 SLP173 T01780117=
201203291152 METAR KATL 291152Z 28006KT 10SM BKN250 14/11 A3004 RMK AO2 SLP167 T01440106 10183 20144 52009=
201203291052 METAR KATL 291052Z 28003KT 10SM SCT250 14/10 A3004 RMK AO2 SLP165 T01440100=
201203290952 METAR KATL 290952Z 27006KT 10SM FEW250 16/10 A3002 RMK AO2 SLP159 T01610100=
201203290852 METAR KATL 290852Z 28007KT 10SM SCT250 16/10 A3002 RMK AO2 SLP157 T01560100 58007=
201203290752 METAR KATL 290752Z 28006KT 10SM FEW250 16/09 A3002 RMK AO2 SLP159 T01610094=
201203290652 METAR KATL 290652Z COR 27007KT 10SM FEW250 18/09 A3003 RMK AO2 SLP161 T01780094=
201203290552 METAR KATL 290552Z 27006KT 10SM FEW250 18/09 A3004 RMK AO2 SLP163 T01780094 10244 20178 58008=
201203290452 METAR KATL 290452Z 27005KT 10SM FEW250 18/09 A3005 RMK AO2 SLP170 T01830094 402720133=
201203290352 METAR KATL 290352Z 26003KT 10SM FEW250 19/09 A3006 RMK AO2 SLP172 T01890089=
201203290252 METAR KATL 290252Z 27005KT 10SM FEW250 19/09 A3006 RMK AO2 SLP173 T01940094 50006=
201203290152 METAR KATL 290152Z 24005KT 10SM FEW250 21/09 A3006 RMK AO2 SLP175 T02110089=
201203290052 METAR KATL 290052Z 25005KT 10SM SCT250 23/08 A3005 RMK AO2 SLP169 T02280083=
201203282352 METAR KATL 282352Z 25008KT 10SM FEW070 SCT250 24/08 A3004 RMK AO2 SLP167 T02440078 10272 20244 55008=
201203282252 METAR KATL 282252Z 24008KT 10SM FEW070 SCT250 26/08 A3004 RMK AO2 SLP166 T02560078=
201203282152 METAR KATL 282152Z 26008KT 10SM FEW070 SCT250 26/08 A3005 RMK AO2 SLP168 T02560083=
201203282052 METAR KATL 282052Z 25009G20KT 10SM FEW070 SCT200 BKN250 26/09 A3007 RMK AO2 SLP175 T02610089 56031=
201203281952 METAR KATL 281952Z 24011G19KT 10SM FEW060 SCT200 SCT250 27/09 A3009 RMK AO2 SLP182 T02670094=
201203281852 METAR KATL 281852Z 24012G17KT 10SM FEW060 SCT200 BKN250 26/11 A3013 RMK AO2 SLP194 T02610106=
201203281752 METAR KATL 281752Z 26009G19KT 220V280 10SM FEW055 SCT080 BKN250 26/11 A3016 RMK AO2 SLP206 T02610111 10261 20139 58021=
201203281652 METAR KATL 281652Z 22008KT 10SM FEW050 SCT080 SCT250 24/11 A3018 RMK AO2 SLP215 T02440106=
201203281552 METAR KATL 281552Z VRB04KT 10SM FEW150 SCT200 SCT250 22/13 A3021 RMK AO2 SLP224 T02220128=
201203281452 METAR KATL 281452Z 22006KT 10SM FEW150 SCT200 BKN250 19/13 A3022 RMK AO2 SLP229 T01940128 51008=
201203281352 METAR KATL 281352Z 21007KT 8SM BKN250 17/13 A3022 RMK AO2 SLP227 T01670133=
201203281301 SPECI KATL 281301Z 20005KT 3SM BR FU FEW004 BKN250 15/13 A3021 RMK AO2 SFC VIS 6=
201203281301 SPECI KATL 281301Z 20005KT 3SM BR FU FEW004 BKN250 15/13 A3021=
201203281252 METAR KATL 281252Z 20004KT 2SM BR SCT004 BKN250 14/13 A3021 RMK AO2 SFC VIS 5 SLP226 T01440128=
201203281230 SPECI KATL 281230Z 20005KT 2SM BR BKN004 OVC250 14/13 A3021 RMK AO2 SFC VIS 5=
201203281230 SPECI KATL 281230Z 20005KT 2SM BR BKN004 OVC250 14/13 A3021 RMK AO2 SFC VIS 5=
201203281152 METAR KATL 281152Z 20004KT 5SM BR SCT004 BKN250 14/12 A3020 RMK AO2 SLP221 T01390122 10172 20133 53013=
201203281052 METAR KATL 281052Z 19003KT 6SM BR FEW020 13/12 A3019 RMK AO2 SLP217 T01330122=
201203280952 METAR KATL 280952Z 16003KT 7SM FEW250 14/12 A3017 RMK AO2 SLP209 T01390122=
201203280852 METAR KATL 280852Z 16004KT 10SM FEW250 15/12 A3016 RMK AO2 SLP207 T01500122 56012=
201203280752 METAR KATL 280752Z 14004KT 10SM SCT250 15/12 A3017 RMK AO2 SLP210 T01500117=
201203280652 METAR KATL 280652Z 15004KT 10SM SCT250 16/11 A3018 RMK AO2 SLP215 T01610111=
201203280552 METAR KATL 280552Z 14005KT 10SM SCT250 17/09 A3020 RMK AO2 SLP220 T01670094 10233 20167 58002=
201203280452 METAR KATL 280452Z 12006KT 10SM SCT250 18/08 A3020 RMK AO2 SLP222 T01780083 402500144=
201203280352 METAR KATL 280352Z 12006KT 10SM FEW250 19/08 A3021 RMK AO2 SLP223 T01890078=
201203280252 METAR KATL 280252Z 11006KT 10SM FEW250 19/07 A3020 RMK AO2 SLP221 T01940072 53012=
201203280152 METAR KATL 280152Z 11006KT 10SM FEW250 21/08 A3019 RMK AO2 SLP218 T02060078=
201203280052 METAR KATL 280052Z 12005KT 10SM SCT250 22/08 A3017 RMK AO2 SLP211 T02220078=
201203272352 METAR KATL 272352Z 13005KT 10SM BKN250 23/07 A3017 RMK AO2 SLP210 T02330072 10250 20222 55002=
201203272252 METAR KATL 272252Z 12006KT 10SM BKN250 24/07 A3016 RMK AO2 SLP208 T02440072=
201203272152 METAR KATL 272152Z 12008KT 10SM BKN250 25/07 A3017 RMK AO2 SLP209 T02500072=
201203272052 METAR KATL 272052Z 11006KT 9SM SCT250 24/07 A3017 RMK AO2 SLP211 T02440072 56018=
201203271952 METAR KATL 271952Z 16008G14KT 10SM FEW250 24/07 A3018 RMK AO2 SLP214 T02390072=
201203271852 METAR KATL 271852Z 14006KT 10SM FEW250 23/06 A3020 RMK AO2 SLP221 T02280061=
201203271752 METAR KATL 271752Z 09009KT 10SM FEW250 22/06 A3023 RMK AO2 SLP230 T02220061 10228 20144 58007=
201203271652 METAR KATL 271652Z 11010G14KT 10SM FEW250 22/05 A3024 RMK AO2 SLP235 T02170050=
201203271552 METAR KATL 271552Z 08011KT 060V120 10SM FEW250 20/05 A3025 RMK AO2 SLP239 T02000050=
201203271452 METAR KATL 271452Z 10011G19KT 10SM FEW250 19/04 A3025 RMK AO2 SLP237 T01890039 51025=
201203271352 METAR KATL 271352Z 09015G19KT 10SM FEW250 17/04 A3023 RMK AO2 SLP230 T01720039=
201203271252 METAR KATL 271252Z 09016KT 10SM CLR 16/04 A3021 RMK AO2 SLP224 T01610044=
201203271152 METAR KATL 271152Z 08012KT 10SM CLR 14/06 A3017 RMK AO2 SLP211 T01440056 10172 20144 53029=
201203271052 METAR KATL 271052Z 08009KT 10SM CLR 14/06 A3014 RMK AO2 SLP199 T01440061=
201203270952 METAR KATL 270952Z 07007KT 10SM CLR 16/06 A3011 RMK AO2 SLP188 T01560061=
201203270852 METAR KATL 270852Z 04008KT 10SM CLR 17/06 A3008 RMK AO2 SLP180 T01670061 52008=
201203270752 METAR KATL 270752Z 01006KT 10SM CLR 17/07 A3007 RMK AO2 SLP176 T01670072=
201203270652 METAR KATL 270652Z 34005KT 10SM CLR 16/07 A3007 RMK AO2 SLP176 T01610072=
201203270552 METAR KATL 270552Z 33003KT 10SM CLR 17/07 A3006 RMK AO2 SLP173 T01720072 10239 20172 53001=
201203270452 METAR KATL 270452Z 34004KT 10SM CLR 18/07 A3005 RMK AO2 SLP169 T01830072 402720128=
201203270352 METAR KATL 270352Z 33004KT 10SM CLR 19/07 A3006 RMK AO2 SLP171 T01890067=
201203270252 METAR KATL 270252Z 34008KT 10SM CLR 21/07 A3005 RMK AO2 SLP171 T02060067 51019=
201203270152 METAR KATL 270152Z 34009KT 10SM CLR 21/07 A3004 RMK AO2 SLP165 T02110067=
201203270052 METAR KATL 270052Z 33010KT 10SM CLR 22/07 A3002 RMK AO2 SLP159 T02220072=
201203262352 METAR KATL 262352Z 33007KT 10SM CLR 24/06 A3000 RMK AO2 SLP152 T02390056 10272 20239 53004=
201203262252 METAR KATL 262252Z 01007KT 10SM CLR 26/04 A2998 RMK AO2 SLP145 T02610044=
201203262152 METAR KATL 262152Z 00000KT 10SM CLR 27/04 A2998 RMK AO2 SLP144 T02720044=
201203262052 METAR KATL 262052Z 31007KT 290V350 10SM FEW070 27/08 A2998 RMK AO2 SLP147 T02670078 56013=
201203261952 METAR KATL 261952Z VRB05KT 10SM FEW070 26/08 A2999 RMK AO2 SLP150 T02560078=
201203261852 METAR KATL 261852Z 32008KT 10SM FEW065 26/08 A3001 RMK AO2 SLP156 T02560083=
201203261752 METAR KATL 261752Z 12005KT 10SM CLR 24/08 A3002 RMK AO2 SLP161 T02390083 10244 20128 58008=
201203261652 METAR KATL 261652Z 02005KT 10SM FEW060 23/09 A3005 RMK AO2 SLP168 T02330094=
201203261552 METAR KATL 261552Z VRB04KT 10SM CLR 22/09 A3005 RMK AO2 SLP172 T02170094=
201203261452 METAR KATL 261452Z 02004KT 10SM CLR 20/09 A3005 RMK AO2 SLP171 T02000094 53018=
201203261352 METAR KATL 261352Z 35005KT 10SM CLR 17/10 A3003 RMK AO2 SLP163 T01720100=
201203261252 METAR KATL 261252Z 33008KT 10SM CLR 15/09 A3002 RMK AO2 SLP161 T01500094=
201203261152 METAR KATL 261152Z 32007KT 10SM CLR 13/09 A2999 RMK AO2 SLP154 T01280089 10150 20128 53016=
201203261052 METAR KATL 261052Z 33007KT 10SM CLR 13/09 A2997 RMK AO2 SLP143 T01330089=
201203260952 METAR KATL 260952Z 32008KT 10SM CLR 13/08 A2996 RMK AO2 SLP139 T01330083=
201203260852 METAR KATL 260852Z 32008KT 10SM CLR 14/08 A2994 RMK AO2 SLP136 T01390083 55000=
201203260752 METAR KATL 260752Z 34010KT 10SM CLR 14/08 A2994 RMK AO2 SLP133 T01440078=
201203260652 METAR KATL 260652Z 32008KT 10SM CLR 15/08 A2994 RMK AO2 SLP134 T01500078=
201203260552 METAR KATL 260552Z 31008KT 10SM CLR 15/07 A2995 RMK AO2 SLP136 T01500072 10200 20150 53001=
201203260452 METAR KATL 260452Z 30006KT 10SM CLR 15/07 A2994 RMK AO2 SLP135 T01500072 402220094=
201203260352 METAR KATL 260352Z 31008KT 10SM CLR 16/07 A2994 RMK AO2 SLP133 T01610067=
201203260252 METAR KATL 260252Z 29006KT 10SM CLR 16/07 A2994 RMK AO2 SLP136 T01560067 53013=
201203260152 METAR KATL 260152Z 29004KT 10SM CLR 17/06 A2993 RMK AO2 SLP131 T01670061=
201203260052 METAR KATL 260052Z 33007KT 10SM FEW060 18/06 A2991 RMK AO2 SLP126 T01830061=
201203252352 METAR KATL 252352Z 34011G16KT 10SM FEW060 20/05 A2990 RMK AO2 SLP123 T02000050 10222 20200 53009=
201203252252 METAR KATL 252252Z 33010KT 10SM FEW060 21/06 A2989 RMK AO2 SLP119 T02110056=
201203252152 METAR KATL 252152Z 34012KT 10SM FEW060 22/06 A2988 RMK AO2 SLP116 T02170061=
201203252052 METAR KATL 252052Z 32017G27KT 10SM SCT060 22/06 A2987 RMK AO2 PK WND 33027/2049 SLP112 T02170061 56004=
201203251952 METAR KATL 251952Z 33021G26KT 10SM SCT055 22/06 A2988 RMK AO2 PK WND 33026/1952 SLP113 T02170061=
201203251852 METAR KATL 251852Z 32013G23KT 10SM FEW050 21/07 A2988 RMK AO2 SLP114 T02110067=
201203251752 METAR KATL 251752Z 32017G21KT 10SM FEW040 20/07 A2989 RMK AO2 PK WND 31027/1701 SLP117 T02000067 10206 20094 58012=
201203251652 METAR KATL 251652Z 33016G23KT 10SM FEW035 19/06 A2991 RMK AO2 SLP125 T01890061=
201203251552 METAR KATL 251552Z 35013G23KT 10SM FEW030 18/06 A2992 RMK AO2 SLP128 T01780061=
201203251452 METAR KATL 251452Z 32013G20KT 10SM FEW025 16/07 A2992 RMK AO2 SLP131 T01560072 51015=
201203251352 METAR KATL 251352Z 32011KT 10SM FEW018 13/08 A2991 RMK AO2 SLP128 T01330083=
201203251252 METAR KATL 251252Z 30010KT 10SM FEW020 SCT080 11/08 A2990 RMK AO2 SLP124 T01110078=
201203251152 METAR KATL 251152Z 29009KT 10SM FEW080 09/07 A2988 RMK AO2 SLP115 T00940072 10111 20094 53009=
201203251052 METAR KATL 251052Z 30010KT 10SM CLR 09/07 A2986 RMK AO2 SLP109 T00940072=
201203250952 METAR KATL 250952Z 30010KT 10SM FEW090 09/07 A2985 RMK AO2 SLP106 T00940072=
201203250852 METAR KATL 250852Z 31012KT 10SM FEW030 SCT090 10/07 A2985 RMK AO2 SLP104 T01000072 58006=
201203250752 METAR KATL 250752Z 30012KT 10SM FEW030 SCT090 11/07 A2986 RMK AO2 SLP108 T01060072=
201203250652 METAR KATL 250652Z 31012KT 10SM FEW035 SCT080 11/08 A2986 RMK AO2 SLP109 T01060078=
201203250552 METAR KATL 250552Z 30009KT 10SM FEW040 SCT070 11/08 A2987 RMK AO2 SLP110 60000 T01110083 10189 20111 55003=
201203250452 METAR KATL 250452Z 27007KT 10SM CLR 11/09 A2987 RMK AO2 SLP110 T01110089 402330111=
201203250352 METAR KATL 250352Z 27006KT 10SM FEW070 11/09 A2988 RMK AO2 SLP114 T01110089=
201203250252 METAR KATL 250252Z 31009KT 10SM FEW070 12/09 A2988 RMK AO2 RAE07 SLP114 P0000 60000 T01220094 50011=
201203250152 METAR KATL 250152Z 29010KT 10SM -RA FEW055TCU BKN065 OVC080 13/09 A2990 RMK AO2 RAB28 SLP120 TCU OHD-W P0000 T01330089=
201203250052 METAR KATL 250052Z 33011KT 10SM FEW055 SCT070 BKN090 16/06 A2987 RMK AO2 PK WND 31035/0008 RAB38E48 SLP112 P0000 T01610056=
201203250010 SPECI KATL 250010Z 32028G35KT 10SM SQ BKN070 BKN085 BKN200 18/05 A2986 RMK AO2 PK WND 31035/0008=
201203250010 SPECI KATL 250010Z 32028G35KT 10SM SQ BKN070 BKN085 BKN200 18/05 A2986 RMK AO2 PK WND 31035/0008=
201203242352 METAR KATL 242352Z 30009KT 10SM FEW055 SCT070 SCT200 18/04 A2985 RMK AO2 SLP102 SHRA W-N T01830044 10233 20183 53011=
201203242252 METAR KATL 242252Z 29012G21KT 10SM SCT075 21/06 A2983 RMK AO2 SLP095 T02060056=
201203242152 METAR KATL 242152Z 28010G19KT 10SM SCT070 BKN090 BKN250 21/05 A2982 RMK AO2 SLP090 T02110050=
201203242052 METAR KATL 242052Z 24012G19KT 10SM SCT075 BKN250 22/05 A2981 RMK AO2 SLP088 T02220050 56015=
201203241952 METAR KATL 241952Z 27014G19KT 10SM FEW075 SCT250 23/06 A2983 RMK AO2 SLP093 T02280061=
201203241852 METAR KATL 241852Z 27012G19KT 10SM FEW070 22/05 A2984 RMK AO2 SLP098 T02220050=
201203241752 METAR KATL 241752Z 24014G19KT 10SM FEW065 SCT250 23/06 A2986 RMK AO2 PK WND 29026/1731 SLP103 T02280056 10233 20156 58024=
201203241652 METAR KATL 241652Z 24015G21KT 10SM FEW060 SCT250 22/06 A2989 RMK AO2 SLP113 T02220056=
201203241552 METAR KATL 241552Z 24008KT 200V260 10SM FEW080 SCT250 22/06 A2992 RMK AO2 SLP125 T02170061=
201203241452 METAR KATL 241452Z 00000KT 10SM FEW060 19/05 A2993 RMK AO2 SLP129 T01940050 58003=
201203241352 METAR KATL 241352Z 29005KT 10SM FEW070 18/08 A2994 RMK AO2 SLP134 T01830078=
201203241252 METAR KATL 241252Z 25003KT 10SM FEW065 SCT250 17/10 A2994 RMK AO2 SLP135 ACC NE-SE T01670100=
201203241152 METAR KATL 241152Z 32007KT 10SM BKN049 OVC060 16/10 A2994 RMK AO2 SLP132 ACC NE-S AND W 60000 70001 T01610100 10183 20156 53010=
201203241052 METAR KATL 241052Z 32008KT 10SM FEW009 SCT049 17/10 A2992 RMK AO2 SLP126 T01670100=
201203241048 SPECI KATL 241048Z 32010KT 10SM FEW006 SCT020 SCT049 17/10 A2992 RMK AO2=
201203241048 SPECI KATL 241048Z 32010KT 10SM FEW006 SCT020 SCT049 17/10 A2992 RMK AO2=
201203241021 SPECI KATL 241021Z 29004KT 10SM FEW008 BKN021 OVC033 18/16 A2991 RMK AO2=
201203241021 SPECI KATL 241021Z 29004KT 10SM FEW008 BKN021 OVC033 18/16 A2991 RMK AO2=
201203240952 METAR KATL 240952Z 22005KT 10SM FEW008 SCT012 BKN030 17/16 A2991 RMK AO2 RAB0857E03 SLP121 P0000 T01720156=
201203240950 SPECI KATL 240950Z 22005KT 10SM FEW008 SCT012 BKN029 18/16 A2991 RMK AO2 RAB0857E03 P0000=
201203240950 SPECI KATL 240950Z 22005KT 10SM FEW008 SCT012 BKN029 18/16 A2991 RMK AO2 RAB0857E03 P0000=
201203240935 SPECI KATL 240935Z 23005KT 10SM SCT010 BKN014 OVC026 18/16 A2991 RMK AO2 RAB0857E03 P0000=
201203240935 SPECI KATL 240935Z 23005KT 10SM SCT010 BKN014 OVC026 18/16 A2991 RMK AO2 RAB0857E03 P0000=
201203240919 SPECI KATL 240919Z 22005KT 10SM BKN009 BKN014 OVC019 18/16 A2991 RMK AO2 RAB0857E03 P0000=
201203240919 SPECI KATL 240919Z 22005KT 10SM BKN009 BKN014 OVC019 18/16 A2991 RMK AO2 RAB0857E03 P0000=
201203240909 SPECI KATL 240909Z 21007KT 10SM SCT008 OVC014 18/16 A2991 RMK AO2 RAB0857E03 P0000=
201203240909 SPECI KATL 240909Z 21007KT 10SM SCT008 OVC014 18/16 A2991 RMK AO2 RAB0857E03 P0000=
201203240852 METAR KATL 240852Z 22006KT 10SM FEW007 BKN016 OVC023 18/16 A2991 RMK AO2 SLP122 T01780161 58009=
201203240843 SPECI KATL 240843Z 21006KT 10SM SCT007 BKN018 OVC023 18/16 A2991 RMK AO2=
201203240843 SPECI KATL 240843Z 21006KT 10SM SCT007 BKN018 OVC023 18/16 A2991 RMK AO2=
201203240752 METAR KATL 240752Z 20007KT 10SM BKN007 OVC015 18/16 A2991 RMK AO2 SLP123 T01780161=
201203240652 METAR KATL 240652Z 22008KT 10SM OVC007 18/16 A2994 RMK AO2 SLP131 T01830161=
201203240552 METAR KATL 240552Z 21006KT 10SM BKN007 OVC012 18/16 A2994 RMK AO2 SLP131 T01830161 10194 20178 56009=
201203240452 METAR KATL 240452Z 21007KT 10SM BKN009 OVC015 18/16 A2994 RMK AO2 SLP133 T01830161 402170178=
201203240352 METAR KATL 240352Z 20005KT 10SM BKN009 OVC018 18/16 A2996 RMK AO2 SLP139 CIG 007V012 T01830161=
201203240301 SPECI KATL 240301Z 20007KT 10SM SCT013 BKN018 BKN250 18/16 A2996 RMK AO2=
201203240301 SPECI KATL 240301Z 20007KT 10SM SCT013 BKN018 BKN250 18/16 A2996 RMK AO2=
201203240252 METAR KATL 240252Z 20006KT 10SM FEW012 SCT022 BKN250 18/16 A2997 RMK AO2 SLP141 T01830161 56003=
201203240245 SPECI KATL 240245Z 20007KT 10SM FEW015 SCT022 BKN250 18/16 A2996 RMK AO2=
201203240245 SPECI KATL 240245Z 20007KT 10SM FEW015 SCT022 BKN250 18/16 A2996 RMK AO2=
201203240208 SPECI KATL 240208Z 20008KT 10SM BKN017 BKN200 19/16 A2997 RMK AO2=
201203240208 SPECI KATL 240208Z 20008KT 10SM BKN017 BKN200 19/16 A2997 RMK AO2=
201203240152 METAR KATL 240152Z 19007KT 10SM SCT018 BKN150 BKN200 19/16 A2997 RMK AO2 SLP141 T01890161=
201203240123 SPECI KATL 240123Z 18005KT 10SM BKN018 BKN110 OVC150 19/16 A2997 RMK AO2=
201203240123 SPECI KATL 240123Z 18005KT 10SM BKN018 BKN110 OVC150 19/16 A2997 RMK AO2=
201203240052 METAR KATL 240052Z 19005KT 10SM FEW020 SCT110 BKN150 BKN200 19/16 A2997 RMK AO2 SLP144 T01890161=
201203232352 METAR KATL 232352Z 20003KT 10SM FEW025 SCT100 BKN200 19/16 A2998 RMK AO2 SLP144 60000 T01940156 10217 20194 56008=
201203232252 METAR KATL 232252Z 21007KT 10SM FEW025 SCT055 BKN090 OVC150 19/15 A2998 RMK AO2 RAE16 SLP147 P0000 T01940150=
201203232152 METAR KATL 232152Z 22014G18KT 10SM -RA FEW070 BKN100 OVC150 21/14 A2998 RMK AO2 RAB07E22B50 SLP147 P0000 T02060144=
201203232052 METAR KATL 232052Z 20016G22KT 10SM FEW025 BKN070 BKN100 OVC150 21/15 A3000 RMK AO2 RAB39E49 SLP153 P0000 60000 T02060150 56024=
201203231952 METAR KATL 231952Z 19012KT 10SM FEW025 BKN070 BKN100 22/16 A3002 RMK AO2 RAE21 SLP161 SHRA DSNT SW P0000 T02170156=
201203231852 METAR KATL 231852Z 20013KT 10SM -RA FEW020 BKN090 OVC120 21/17 A3005 RMK AO2 RAB23 SLP168 P0000 T02110167=
201203231806 SPECI KATL 231806Z 19007KT 10SM SCT020 BKN085 OVC120 21/16 A3007 RMK AO2=
201203231806 SPECI KATL 231806Z 19007KT 10SM SCT020 BKN085 OVC120 21/16 A3007 RMK AO2=
201203231759 SPECI KATL 231759Z 22009G17KT 10SM SCT017 BKN024 OVC090 21/16 A3007 RMK AO2=
201203231759 SPECI KATL 231759Z 22009G17KT 10SM SCT017 BKN024 OVC090 21/16 A3007 RMK AO2=
201203231752 METAR KATL 231752Z 20011KT 10SM FEW017 BKN080 OVC120 21/17 A3007 RMK AO2 SLP178 60001 T02110167 10211 20189 58014=
201203231652 METAR KATL 231652Z 20010G18KT 10SM FEW012 SCT020 OVC100 21/17 A3010 RMK AO2 RAE48 SLP187 P0001 T02060167=
201203231552 METAR KATL 231552Z 21011G19KT 10SM -RA BKN014 BKN020 OVC120 21/17 A3012 RMK AO2 RAB30 SLP193 P0000 T02060167=
201203231507 SPECI KATL 231507Z 21013G19KT 10SM BKN014 BKN020 OVC120 21/17 A3012 RMK AO2=
201203231507 SPECI KATL 231507Z 21013G19KT 10SM BKN014 BKN020 OVC120 21/17 A3012 RMK AO2=
201203231452 METAR KATL 231452Z 21011KT 10SM BKN016 BKN023 OVC120 21/17 A3011 RMK AO2 SLP191 T02060167 51009=
201203231352 METAR KATL 231352Z 19010KT 7SM FEW007 BKN120 BKN180 20/17 A3011 RMK AO2 SLP188 T02000172=
201203231252 METAR KATL 231252Z 17007KT 6SM BR OVC007 19/17 A3010 RMK AO2 SLP186 T01890172=
201203231152 METAR KATL 231152Z 14005KT 5SM BR BKN007 OVC110 19/17 A3009 RMK AO2 RAB44E51 SLP181 P0000 60000 T01890167 10194 20183 50001=
201203231059 SPECI KATL 231059Z 14005KT 7SM BKN009 BKN085 OVC120 19/17 A3009 RMK AO2=
201203231059 SPECI KATL 231059Z 14005KT 7SM BKN009 BKN085 OVC120 19/17 A3009 RMK AO2=
201203231052 METAR KATL 231052Z 14005KT 7SM FEW020 SCT085 BKN120 19/17 A3009 RMK AO2 SLP182 T01890167=
201203230952 METAR KATL 230952Z COR 16005KT 10SM BKN085 OVC110 19/17 A3010 RMK AO2 SLP184 T01890167=
201203230852 METAR KATL 230852Z 15004KT 8SM OVC110 19/17 A3008 RMK AO2 SLP180 T01890167 56010=
201203230752 METAR KATL 230752Z 12004KT 10SM SCT150 OVC220 19/17 A3009 RMK AO2 SLP181 T01890167=
201203230652 METAR KATL 230652Z 12005KT 10SM FEW100 SCT150 OVC220 19/16 A3010 RMK AO2 SLP186 T01940161=
201203230552 METAR KATL 230552Z 12004KT 10SM FEW029 BKN100 BKN150 OVC250 19/16 A3012 RMK AO2 RAE01 SLP191 P0000 60000 T01940161 10233 20194 58009=
201203230452 METAR KATL 230452Z 13003KT 10SM -RA FEW032 SCT100 BKN150 BKN250 20/16 A3013 RMK AO2 RAB51 SLP196 P0000 T02000156 402500183=
201203230352 METAR KATL 230352Z 13004KT 10SM FEW035 SCT085 BKN250 21/16 A3014 RMK AO2 SLP201 T02060156=
201203230252 METAR KATL 230252Z 00000KT 10SM BKN055 BKN110 OVC250 21/16 A3014 RMK AO2 SLP202 60000 T02110156 53007=
201203230152 METAR KATL 230152Z 14007KT 10SM FEW035 SCT110 BKN250 22/16 A3013 RMK AO2 RAE0055 SLP197 FRQ LTG DSNT NW-N P0000 T02170156=
201203230052 METAR KATL 230052Z 12006KT 10SM -RA SCT034 BKN045 BKN080 OVC200 23/16 A3013 RMK AO2 RAB51 SLP196 P0000 T02280156=
201203222352 METAR KATL 222352Z 09008KT 040V110 10SM FEW035 BKN100 OVC200 23/14 A3012 RMK AO2 SLP194 T02330144 10250 20222 55001=
201203222252 METAR KATL 222252Z 10004KT 10SM FEW040 SCT090 OVC200 24/14 A3012 RMK AO2 SLP192 T02390144=
201203222152 METAR KATL 222152Z 15005KT 10SM FEW040 BKN090 BKN200 24/14 A3011 RMK AO2 SLP188 CB DSNT SW-W T02390144=
201203222052 METAR KATL 222052Z 11008KT 10SM FEW040 SCT090 BKN200 24/15 A3013 RMK AO2 SLP194 T02440150 58021=
201203221952 METAR KATL 221952Z 14004KT 10SM FEW030 SCT040 BKN090 BKN200 23/15 A3016 RMK AO2 SLP207 T02330150=
201203221852 METAR KATL 221852Z 14004KT 10SM FEW020TCU BKN030 BKN200 23/16 A3018 RMK AO2 SLP213 TCU E-SE-S T02280161=
201203221814 SPECI KATL 221814Z VRB03KT 10SM FEW025 BKN040 BKN200 23/16 A3019 RMK AO2=
201203221814 SPECI KATL 221814Z VRB03KT 10SM FEW025 BKN040 BKN200 23/16 A3019 RMK AO2=
201203221752 METAR KATL 221752Z 09007KT 10SM BKN020 BKN030 BKN040 23/17 A3019 RMK AO2 SLP216 60000 T02280167 10228 20183 58010=
201203221722 SPECI KATL 221722Z 13005KT 10SM FEW020 BKN030 BKN040 22/16 A3020 RMK AO2=
201203221722 SPECI KATL 221722Z 13005KT 10SM FEW020 BKN030 BKN040 22/16 A3020 RMK AO2=
201203221652 METAR KATL 221652Z 12007KT 10SM BKN020 BKN030 OVC040 21/16 A3021 RMK AO2 SLP224 T02110161=
201203221603 SPECI KATL 221603Z 11007KT 10SM FEW012 BKN014 OVC020 20/16 A3022 RMK AO2=
201203221603 SPECI KATL 221603Z 11007KT 10SM FEW012 BKN014 OVC020 20/16 A3022 RMK AO2=
201203221552 METAR KATL 221552Z 13005KT 9SM FEW012 BKN016 OVC020 20/16 A3022 RMK AO2 DZE42 SLP228 P0000 T02000161=
201203221512 SPECI KATL 221512Z 13007KT 8SM -DZ FEW012 BKN016 OVC020 19/16 A3022 RMK AO2 P0000=
201203221512 SPECI KATL 221512Z 13007KT 8SM -DZ FEW012 BKN016 OVC020 19/16 A3022 RMK AO2 P0000=
201203221452 METAR KATL 221452Z 15006KT 7SM -DZ FEW012 BKN014 OVC018 19/16 A3022 RMK AO2 SLP227 P0000 60000 T01940161 51021=
201203221352 METAR KATL 221352Z 16008KT 7SM -DZ BKN010 OVC016 19/16 A3020 RMK AO2 DZB41 SLP221 P0000 T01890161=
201203221252 METAR KATL 221252Z 13007KT 8SM FEW009 OVC012 19/16 A3018 RMK AO2 SLP214 T01890161=
201203221229 SPECI KATL 221229Z 13006KT 7SM FEW009 OVC012 19/16 A3017 RMK AO2=
201203221229 SPECI KATL 221229Z 13006KT 7SM FEW009 OVC012 19/16 A3017 RMK AO2=
201203221152 METAR KATL 221152Z 12007KT 7SM BKN008 OVC014 18/16 A3016 RMK AO2 SLP205 T01830161 10194 20183 53002=
201203221052 METAR KATL 221052Z 12008KT 7SM BKN009 OVC014 18/16 A3015 RMK AO2 SLP202 T01830156=
201203221007 SPECI KATL 221007Z 12007KT 8SM BKN009 OVC017 18/16 A3015 RMK AO2=
201203221007 SPECI KATL 221007Z 12007KT 8SM BKN009 OVC017 18/16 A3015 RMK AO2=
201203220952 METAR KATL 220952Z 11007KT 8SM BKN012 OVC017 18/16 A3015 RMK AO2 SLP203 T01830156=
201203220852 METAR KATL 220852Z 12006KT 10SM OVC012 18/15 A3015 RMK AO2 SLP203 T01830150 58015=
201203220808 SPECI KATL 220808Z 11007KT 10SM BKN012 OVC250 18/15 A3016 RMK AO2=
201203220808 SPECI KATL 220808Z 11007KT 10SM BKN012 OVC250 18/15 A3016 RMK AO2=
201203220752 METAR KATL 220752Z 12005KT 10SM FEW080 OVC250 18/15 A3017 RMK AO2 SLP208 T01830150=
201203220652 METAR KATL 220652Z 13006KT 10SM FEW060 BKN250 19/15 A3020 RMK AO2 SLP219 T01890150=
201203220552 METAR KATL 220552Z 14007G15KT 10SM SCT060 BKN250 19/14 A3020 RMK AO2 SLP219 T01940144 10222 20194 51004=
201203220452 METAR KATL 220452Z 13007KT 10SM FEW060 OVC250 20/14 A3020 RMK AO2 SLP219 T02000139 402500161=
201203220352 METAR KATL 220352Z 14007KT 10SM FEW060 OVC250 21/14 A3020 RMK AO2 SLP219 T02060139=
201203220252 METAR KATL 220252Z 14007KT 10SM FEW060 OVC250 21/13 A3018 RMK AO2 SLP215 T02110133 53014=
201203220152 METAR KATL 220152Z 08011KT 10SM FEW060 OVC250 21/13 A3014 RMK AO2 SLP201 T02110128=
201203220052 METAR KATL 220052Z 09011KT 10SM FEW200 OVC250 22/13 A3013 RMK AO2 SLP196 T02170128=
201203212352 METAR KATL 212352Z 09009KT 10SM FEW090 SCT200 BKN250 22/13 A3014 RMK AO2 SLP200 T02220133 10250 20217 50003=
201203212252 METAR KATL 212252Z 11008KT 10SM FEW060 BKN090 BKN250 24/13 A3014 RMK AO2 SLP201 T02390128=
201203212152 METAR KATL 212152Z 10011KT 10SM FEW045 BKN090 BKN250 24/13 A3013 RMK AO2 SLP198 T02440128=
201203212052 METAR KATL 212052Z 14008G14KT 10SM SCT048 BKN090 BKN250 24/12 A3013 RMK AO2 SLP197 T02440122 56021=
201203211952 METAR KATL 211952Z 11012G16KT 10SM FEW045 SCT065 BKN085 BKN250 24/12 A3015 RMK AO2 SLP202 T02390122=
201203211852 METAR KATL 211852Z 12012G17KT 10SM FEW050 BKN070 24/13 A3017 RMK AO2 SLP208 T02440128=
201203211752 METAR KATL 211752Z 12008KT 10SM BKN040 BKN060 23/13 A3019 RMK AO2 SLP218 T02330128 10239 20161 56007=
201203211748 SPECI KATL 211748Z 13009KT 10SM BKN040 BKN060 23/13 A3019 RMK AO2=
201203211748 SPECI KATL 211748Z 13009KT 10SM BKN040 BKN060 23/13 A3019 RMK AO2=
201203211652 METAR KATL 211652Z 12008G14KT 10SM BKN028 BKN048 23/14 A3021 RMK AO2 SLP221 T02280139=
201203211552 METAR KATL 211552Z 13008KT 10SM FEW016 BKN018 BKN020 22/15 A3022 RMK AO2 SLP225 T02170150=
201203211520 SPECI KATL 211520Z 15010KT 10SM FEW012 BKN016 BKN020 20/16 A3022 RMK AO2=
201203211520 SPECI KATL 211520Z 15010KT 10SM FEW012 BKN016 BKN020 20/16 A3022 RMK AO2=
201203211452 METAR KATL 211452Z 12010KT 10SM BKN012 BKN015 OVC018 19/15 A3022 RMK AO2 SLP228 T01890150 51009=
201203211428 SPECI KATL 211428Z 12008KT 10SM BKN010 BKN012 18/15 A3022 RMK AO2=
201203211428 SPECI KATL 211428Z 12008KT 10SM BKN010 BKN012 18/15 A3022 RMK AO2=
201203211352 METAR KATL 211352Z 12010KT 9SM BKN008 BKN012 18/15 A3022 RMK AO2 SLP228 T01780150=
201203211257 SPECI KATL 211257Z 12008KT 7SM FEW007 OVC012 17/14 A3021 RMK AO2=
201203211257 SPECI KATL 211257Z 12008KT 7SM FEW007 OVC012 17/14 A3021 RMK AO2=
201203211252 METAR KATL 211252Z 10008KT 7SM OVC012 17/14 A3021 RMK AO2 SLP225 T01670144=
201203211216 SPECI KATL 211216Z 12006KT 9SM BKN014 BKN250 16/14 A3020 RMK AO2 BKN014 V SCT=
201203211216 SPECI KATL 211216Z 12006KT 9SM BKN014 BKN250 16/14 A3020 RMK AO2 BKN014 V SCT=
201203211200 SPECI KATL 211200Z 13004KT 9SM SCT014 SCT250 16/14 A3020 RMK AO2 SCT014 V BKN=
201203211200 SPECI KATL 211200Z 13004KT 9SM SCT014 SCT250 16/14 A3020 RMK AO2 SCT014 V BKN=
201203211152 METAR KATL 211152Z 12006KT 9SM BKN014 BKN250 16/14 A3019 RMK AO2 SLP219 BKN014 V SCT T01610139 10200 20161 53012=
201203211052 METAR KATL 211052Z 11005KT 10SM FEW250 16/14 A3018 RMK AO2 SLP213 T01610139=
201203210952 METAR KATL 210952Z 13003KT 10SM FEW250 17/13 A3017 RMK AO2 SLP208 T01670133=
201203210852 METAR KATL 210852Z 12004KT 10SM FEW250 18/13 A3016 RMK AO2 SLP204 T01780133 50000=
201203210752 METAR KATL 210752Z 15005KT 10SM FEW250 18/13 A3016 RMK AO2 SLP204 T01830133=
201203210652 METAR KATL 210652Z 14006KT 10SM FEW250 19/13 A3016 RMK AO2 SLP204 T01940133=
201203210552 METAR KATL 210552Z 15007KT 10SM FEW250 20/12 A3016 RMK AO2 SLP203 T02000122 10250 20200 52005=
201203210452 METAR KATL 210452Z 14009KT 10SM FEW250 21/12 A3015 RMK AO2 SLP202 T02110117 402830167=
201203210352 METAR KATL 210352Z 14005KT 10SM FEW250 22/11 A3015 RMK AO2 SLP200 T02170111=
201203210252 METAR KATL 210252Z 13005KT 10SM FEW250 22/11 A3014 RMK AO2 SLP199 T02220106 51017=
201203210152 METAR KATL 210152Z 13003KT 10SM FEW065 23/11 A3013 RMK AO2 SLP194 T02330106=
201203210052 METAR KATL 210052Z 13004KT 10SM FEW250 24/10 A3011 RMK AO2 SLP189 T02440100=
201203202352 METAR KATL 202352Z 13005KT 10SM FEW070 25/09 A3009 RMK AO2 SLP182 T02500094 10283 20250 55001=
201203202252 METAR KATL 202252Z COR 16008G16KT 10SM FEW015 SCT250 26/10 A3007 RMK AO2 SLP173 FU FEW015 T02610100=
201203202152 METAR KATL 202152Z 15010KT 10SM FEW070 26/09 A3007 RMK AO2 SLP174 T02610094=
201203202052 METAR KATL 202052Z 14009G19KT 6SM HZ FEW060 SCT080 28/10 A3009 RMK AO2 SLP182 T02780100 56023=
201203201952 METAR KATL 201952Z 14010G19KT 10SM FEW065 SCT080 28/11 A3012 RMK AO2 SLP189 T02780111=
201203201852 METAR KATL 201852Z 10011G17KT 10SM SCT060 SCT250 28/12 A3013 RMK AO2 SLP195 T02780117 $=
201203201752 METAR KATL 201752Z 14009G19KT 10SM FEW065 SCT080 SCT250 27/12 A3016 RMK AO2 SLP205 T02670117 10272 20172 58007=
201203201652 METAR KATL 201652Z VRB06KT 10SM FEW055 SCT150 SCT250 26/13 A3018 RMK AO2 SLP212 T02610128=
201203201552 METAR KATL 201552Z 13004KT 10SM FEW250 24/14 A3019 RMK AO2 SLP216 T02390139=
201203201452 METAR KATL 201452Z 13004KT 8SM BKN250 22/14 A3019 RMK AO2 SLP214 T02220139 51014=
201203201352 METAR KATL 201352Z 14004KT 9SM FEW010 BKN200 BKN250 19/13 A3018 RMK AO2 SLP212 FU FEW010 T01890133=
201203201252 METAR KATL 201252Z 13004KT 9SM BKN250 18/13 A3016 RMK AO2 SLP206 T01780133=
201203201152 METAR KATL 201152Z 00000KT 7SM SCT250 17/13 A3014 RMK AO2 SLP200 T01720128 10200 20167 53016=
201203201052 METAR KATL 201052Z 00000KT 10SM SCT250 18/13 A3013 RMK AO2 SLP194 T01830128=
201203200952 METAR KATL 200952Z 00000KT 9SM SCT250 18/12 A3011 RMK AO2 SLP186 T01830122 $=
201203200852 METAR KATL 200852Z 00000KT 10SM FEW250 18/13 A3009 RMK AO2 SLP182 T01830128 56004 $=
201203200752 METAR KATL 200752Z 10003KT 9SM FEW250 19/12 A3010 RMK AO2 SLP182 T01890122 $=
201203200652 METAR KATL 200652Z 13003KT 10SM FEW250 19/12 A3010 RMK AO2 SLP185 T01940122 $=
201203200552 METAR KATL 200552Z 10006KT 10SM FEW065 SCT250 19/12 A3011 RMK AO2 SLP186 T01940117 10256 20194 58005 $=
201203200452 METAR KATL 200452Z 00000KT 10SM SCT250 21/12 A3011 RMK AO2 SLP188 T02060117 402830161 $=
201203200352 METAR KATL 200352Z 00000KT 10SM BKN250 22/12 A3012 RMK AO2 SLP190 T02220117 $=
201203200252 METAR KATL 200252Z 14003KT 10SM BKN250 23/11 A3012 RMK AO2 SLP191 T02330111 51006 $=
201203200152 METAR KATL 200152Z 15004KT 10SM BKN250 23/11 A3012 RMK AO2 SLP191 T02330111 $=
201203200052 METAR KATL 200052Z 16003KT 10SM BKN250 24/11 A3011 RMK AO2 SLP189 T02390111 $=
201203192352 METAR KATL 192352Z 16004KT 10SM BKN250 26/11 A3010 RMK AO2 SLP187 T02560106 10283 20256 56004 $=
201203192252 METAR KATL 192252Z 15003KT 10SM FEW065 BKN250 27/10 A3010 RMK AO2 SLP186 T02670100 $=
201203192152 METAR KATL 192152Z 19004KT 10SM FEW065 SCT200 BKN250 28/11 A3011 RMK AO2 SLP186 T02780106 $=
201203192052 METAR KATL 192052Z 19007KT 10SM FEW065 BKN200 BKN250 27/11 A3011 RMK AO2 SLP190 T02720106 56022 $=
201203191952 METAR KATL 191952Z VRB03KT 10SM FEW070 BKN200 BKN250 27/11 A3013 RMK AO2 SLP196 T02720106 $=
201203191852 METAR KATL 191852Z 00000KT 10SM SCT070 SCT200 BKN250 27/11 A3016 RMK AO2 SLP203 T02720111 $=
201203191752 METAR KATL 191752Z 00000KT 10SM FEW065 SCT200 BKN250 27/12 A3018 RMK AO2 SLP211 T02720117 10272 20161 58011=
201203191652 METAR KATL 191652Z COR 00000KT 10SM FEW060 SCT200 BKN250 27/12 A3020 RMK AO2 SLP218 T02670117=
201203191552 METAR KATL 191552Z 00000KT 10SM FEW250 26/11 A3022 RMK AO2 SLP223 T02610111=
201203191452 METAR KATL 191452Z 00000KT 8SM FEW250 23/13 A3022 RMK AO2 SLP224 T02280128 51012=
201203191352 METAR KATL 191352Z 00000KT 9SM SCT250 21/13 A3021 RMK AO2 SLP221 T02110128=
201203191252 METAR KATL 191252Z 00000KT 8SM FEW120 SCT250 18/13 A3019 RMK AO2 SLP217 T01830133=
201203191152 METAR KATL 191152Z 00000KT 9SM FEW120 SCT250 17/12 A3018 RMK AO2 SLP213 T01670117 10211 20161 53007=
201203191052 METAR KATL 191052Z 30005KT 10SM CLR 17/12 A3017 RMK AO2 SLP210 T01670117=
201203190952 METAR KATL 190952Z 00000KT 10SM FEW150 17/12 A3016 RMK AO2 SLP206 T01720122=
201203190852 METAR KATL 190852Z 00000KT 10SM SCT150 18/12 A3016 RMK AO2 SLP205 T01830122 56008=
201203190752 METAR KATL 190752Z 00000KT 10SM SCT120 18/12 A3017 RMK AO2 SLP207 T01830122=
201203190652 METAR KATL 190652Z 00000KT 10SM FEW150 19/12 A3017 RMK AO2 SLP209 T01940117=
201203190552 METAR KATL 190552Z 12003KT 10SM SCT080 21/10 A3018 RMK AO2 SLP212 T02110100 10256 20206 58001=
201203190452 METAR KATL 190452Z 00000KT 10SM SCT075 21/11 A3019 RMK AO2 SLP215 T02110106 402890156=
201203190352 METAR KATL 190352Z 21003KT 10SM SCT075 22/10 A3019 RMK AO2 SLP215 T02170100=
201203190252 METAR KATL 190252Z 22004KT 10SM SCT075 22/10 A3019 RMK AO2 SLP215 T02220100 51008=
201203190152 METAR KATL 190152Z 00000KT 10SM FEW080 22/09 A3018 RMK AO2 SLP214 T02170094=
201203190052 METAR KATL 190052Z 00000KT 10SM FEW080 SCT250 24/09 A3018 RMK AO2 SLP213 T02440089=
201203182352 METAR KATL 182352Z 20003KT 10SM FEW080 BKN250 25/08 A3016 RMK AO2 SLP208 T02500083 10289 20250 55004=
201203182252 METAR KATL 182252Z 20005KT 10SM FEW075 SCT250 27/08 A3016 RMK AO2 SLP206 T02720083=
201203182152 METAR KATL 182152Z 23003KT 10SM FEW075 BKN250 28/08 A3017 RMK AO2 SLP207 T02780083=
201203182052 METAR KATL 182052Z VRB03KT 10SM SCT080 BKN250 27/08 A3018 RMK AO2 SLP211 T02720083 56026=
201203181952 METAR KATL 181952Z 00000KT 10SM SCT075 SCT250 27/09 A3019 RMK AO2 SLP215 T02720094=
201203181852 METAR KATL 181852Z 00000KT 10SM SCT065 SCT250 28/09 A3023 RMK AO2 SLP227 T02780089=
201203181752 METAR KATL 181752Z 00000KT 10SM SCT065 SCT250 27/11 A3026 RMK AO2 SLP237 T02720106 10272 20156 58012=
201203181652 METAR KATL 181652Z 25005KT 10SM FEW060 SCT120 SCT250 26/11 A3028 RMK AO2 SLP245 T02610106=
201203181552 METAR KATL 181552Z VRB04KT 10SM FEW250 25/10 A3029 RMK AO2 SLP248 T02500100=
201203181452 METAR KATL 181452Z 33005KT 10SM FEW120 SCT250 23/11 A3029 RMK AO2 SLP250 T02330111 53016=
201203181352 METAR KATL 181352Z 32006KT 10SM FEW120 SCT220 21/12 A3028 RMK AO2 SLP246 T02110117=
201203181252 METAR KATL 181252Z 00000KT 10SM FEW200 18/12 A3026 RMK AO2 SLP241 T01830122=
201203181152 METAR KATL 181152Z 32005KT 10SM FEW050 16/11 A3024 RMK AO2 SLP235 T01610111 10206 20161 53015=
201203181052 METAR KATL 181052Z 27003KT 10SM FEW180 16/12 A3022 RMK AO2 SLP227 T01610117=
201203180952 METAR KATL 180952Z 00000KT 10SM SCT150 17/12 A3021 RMK AO2 SLP223 T01720117=
201203180852 METAR KATL 180852Z 00000KT 10SM BKN150 18/12 A3020 RMK AO2 SLP217 T01780117 55002=
201203180752 METAR KATL 180752Z 00000KT 10SM BKN150 19/11 A3019 RMK AO2 SLP216 T01940111=
201203180652 METAR KATL 180652Z 20005KT 10SM SCT100 19/11 A3019 RMK AO2 SLP217 T01940111=
201203180552 METAR KATL 180552Z 16003KT 10SM OVC100 20/12 A3020 RMK AO2 SLP219 T02000122 10239 20200 58000=
201203180452 METAR KATL 180452Z 00000KT 10SM OVC100 21/12 A3021 RMK AO2 SLP223 T02110117 402780161=
201203180352 METAR KATL 180352Z 16003KT 10SM BKN085 21/12 A3022 RMK AO2 SLP225 T02110117=
201203180252 METAR KATL 180252Z 00000KT 10SM SCT090 SCT250 21/12 A3020 RMK AO2 SLP222 T02110117 51013=
201203180152 METAR KATL 180152Z 00000KT 10SM SCT250 22/12 A3019 RMK AO2 SLP218 T02220117=
201203180052 METAR KATL 180052Z 00000KT 10SM SCT250 23/14 A3017 RMK AO2 SLP212 T02280139=
201203172352 METAR KATL 172352Z 00000KT 10SM SCT080 BKN250 24/12 A3016 RMK AO2 SLP208 60000 T02390122 10278 20228 53003=
201203172252 METAR KATL 172252Z 00000KT 10SM SCT085 BKN120 BKN250 26/10 A3016 RMK AO2 RAE2156 SLP206 P0000 T02610100=
201203172152 METAR KATL 172152Z COR 31003KT 10SM -RA FEW040 BKN090 BKN110 BKN250 24/13 A3015 RMK AO2 RAB39 SLP205 P0000 T02390133=
201203172052 METAR KATL 172052Z 00000KT 10SM FEW050 SCT100 BKN250 27/11 A3015 RMK AO2 RAE1955 SLP203 TCU DSNT E AND W P0000 60000 T02670106 56026=
201203171952 METAR KATL 171952Z COR 00000KT 10SM -RA SCT050 BKN095 BKN250 26/11 A3018 RMK AO2 RAB44 SLP210 TCU DSNT S AND W P0000 T02610111=
201203171852 METAR KATL 171852Z VRB03KT 10SM SCT050TCU SCT120 SCT250 26/12 A3020 RMK AO2 SLP218 TCU S MOV SE TCU DSNT SW T02610117=
201203171752 METAR KATL 171752Z VRB03KT 10SM FEW045 SCT100 SCT250 25/13 A3023 RMK AO2 SLP231 TCU DSNT SW ACC N T02500128 10250 20172 58013=
201203171652 METAR KATL 171652Z VRB03KT 10SM FEW090 SCT120 SCT250 24/13 A3026 RMK AO2 SLP239 T02390128=
201203171552 METAR KATL 171552Z 00000KT 10SM FEW050 SCT120 BKN250 23/13 A3027 RMK AO2 SLP243 TCU DSTN NE T02280133=
201203171452 METAR KATL 171452Z 07006KT 10SM BKN095 BKN120 20/13 A3027 RMK AO2 SLP244 ACC DSNT NE T02000128 53013=
201203171352 METAR KATL 171352Z 09004KT 10SM FEW050 BKN095 OVC120 18/13 A3026 RMK AO2 SLP239 CB DSTN N ACC E T01830133=
201203171252 METAR KATL 171252Z 07008KT 10SM FEW080 SCT120 BKN150 17/13 A3024 RMK AO2 SLP234 T01720128=
201203171152 METAR KATL 171152Z 06010KT 10SM FEW100 BKN120 17/12 A3023 RMK AO2 SLP231 T01720122 10189 20161 53017=
201203171052 METAR KATL 171052Z 35009KT 10SM FEW080 SCT120 17/12 A3022 RMK AO2 SLP226 T01720122=
201203170952 METAR KATL 170952Z 00000KT 10SM FEW070 SCT110 17/13 A3019 RMK AO2 SLP215 T01670128=
201203170852 METAR KATL 170852Z 00000KT 10SM SCT080 BKN100 18/12 A3018 RMK AO2 SLP212 T01780122 56004=
201203170752 METAR KATL 170752Z 08003KT 10SM BKN090 18/13 A3018 RMK AO2 SLP212 T01830128=
201203170652 METAR KATL 170652Z 00000KT 10SM FEW150 SCT250 18/12 A3019 RMK AO2 SLP214 T01830122=
201203170552 METAR KATL 170552Z 00000KT 10SM FEW250 18/12 A3019 RMK AO2 SLP216 T01830122 10244 20178 51000=
201203170452 METAR KATL 170452Z 00000KT 10SM FEW250 19/12 A3019 RMK AO2 SLP216 T01890117 402830150=
201203170352 METAR KATL 170352Z 00000KT 10SM BKN250 21/12 A3020 RMK AO2 SLP218 T02060117=
201203170252 METAR KATL 170252Z 07004KT 10SM FEW150 SCT250 22/11 A3019 RMK AO2 SLP216 T02220111 51014=
201203170152 METAR KATL 170152Z 05003KT 10SM FEW100 BKN250 23/11 A3018 RMK AO2 SLP214 T02330111=
201203170052 METAR KATL 170052Z 34004KT 10SM FEW100 SCT250 23/11 A3017 RMK AO2 SLP209 T02330106=
201203162352 METAR KATL 162352Z 28004KT 10SM FEW060 SCT100 BKN250 24/10 A3015 RMK AO2 RAB20E36 SLP203 OCNL LTG DSNT NE P0000 60000 T02440100 10283 20244 53003=
201203162252 METAR KATL 162252Z 25009KT 10SM SCT065TCU SCT100 BKN250 26/09 A3014 RMK AO2 SLP199 TCU OHD-N DSNT SE T02610094=
201203162152 METAR KATL 162152Z 24006KT 10SM FEW070 SCT250 27/09 A3013 RMK AO2 SLP195 CB DSNT NE TCU DSNT SE-S T02670089=
201203162052 METAR KATL 162052Z 26010G16KT 10SM FEW065 BKN100 BKN250 27/08 A3014 RMK AO2 SLP198 CB DSNT N & DSNT SW TCU DSNT NE-E-SE T02720078 56026=
201203161952 METAR KATL 161952Z 24005KT 10SM FEW065 SCT250 27/10 A3016 RMK AO2 SLP204 CB DSNT N & DSNT SE-S T02720100=
201203161852 METAR KATL 161852Z 26007KT 10SM FEW055CB SCT065TCU SCT250 27/11 A3018 RMK AO2 SLP213 CB N & DSNT SW & NW TCU NE-E-SE SHRA N T02720111=
201203161752 METAR KATL 161752Z 30008KT 10SM BKN060TCU 26/12 A3022 RMK AO2 SLP225 TCU ALQDS T02560122 10267 20150 58015=
201203161652 METAR KATL 161652Z 27006KT 10SM FEW050 SCT090 SCT250 26/12 A3024 RMK AO2 SLP233 T02560122=
201203161552 METAR KATL 161552Z 22006KT 10SM FEW080 SCT250 24/11 A3026 RMK AO2 SLP240 T02390111=
201203161452 METAR KATL 161452Z 17004KT 10SM FEW250 21/12 A3026 RMK AO2 SLP242 T02110117 53013=
201203161352 METAR KATL 161352Z 00000KT 10SM BKN250 19/11 A3025 RMK AO2 SLP236 T01940111=
201203161252 METAR KATL 161252Z 00000KT 10SM FEW065 BKN250 17/12 A3023 RMK AO2 SLP231 T01720117=
201203161152 METAR KATL 161152Z 00000KT 10SM FEW065 BKN250 16/11 A3022 RMK AO2 SLP229 T01560111 10194 20150 53008=
201203161052 METAR KATL 161052Z 18003KT 10SM BKN250 15/11 A3021 RMK AO2 SLP225 T01500106=
201203160952 METAR KATL 160952Z 00000KT 10SM FEW180 BKN250 16/11 A3021 RMK AO2 SLP221 T01610106=
201203160852 METAR KATL 160852Z 11003KT 10SM FEW180 BKN250 17/11 A3020 RMK AO2 SLP219 T01670106 56017=
201203160752 METAR KATL 160752Z 09004KT 10SM SCT180 BKN250 17/11 A3020 RMK AO2 SLP219 T01720106=
201203160652 METAR KATL 160652Z 05007KT 10SM OVC180 18/10 A3023 RMK AO2 SLP229 T01780100=
201203160552 METAR KATL 160552Z 02011G20KT 10SM FEW100 BKN250 19/10 A3025 RMK AO2 PK WND 01032/0453 SLP235 T01940100 10250 20194 51008=
201203160452 METAR KATL 160452Z 35009G16KT 10SM BKN075 BKN250 19/13 A3025 RMK AO2 SLP236 T01940133 402780150=
201203160352 METAR KATL 160352Z 00000KT 10SM SCT200 BKN250 19/13 A3023 RMK AO2 SLP229 T01940133=
201203160252 METAR KATL 160252Z 31006KT 10SM SCT150 BKN200 OVC250 21/13 A3023 RMK AO2 SLP229 T02060133 53017=
201203160152 METAR KATL 160152Z 00000KT 10SM FEW100 BKN150 OVC200 23/12 A3021 RMK AO2 SLP223 T02280122=
201203160052 METAR KATL 160052Z 00000KT 10SM FEW090 BKN140 BKN200 23/13 A3019 RMK AO2 SLP218 T02280128=
201203152352 METAR KATL 152352Z 00000KT 10SM FEW090 SCT150 BKN180 BKN250 24/11 A3018 RMK AO2 SLP213 60000 T02440106 10278 20233 56003=
201203152252 METAR KATL 152252Z 24004KT 10SM FEW050 SCT120 BKN170 OVC200 24/12 A3018 RMK AO2 SLP213 T02440122=
201203152152 METAR KATL 152152Z 00000KT 10SM FEW050 SCT100 BKN130 BKN200 26/11 A3018 RMK AO2 RAB27E38 SLP212 CB DSNT N-NE SW-NW P0000 T02610106=
201203152052 METAR KATL 152052Z 20005KT 10SM FEW050CB SCT070 BKN200 27/11 A3019 RMK AO2 RAB14E31 SLP215 CB NW MOV SE CB DSNT N SHRA NW P0000 60000 T02670106 56024=
201203152014 SPECI KATL 152014Z 12004KT 10SM -RA FEW050CB SCT060TCU BKN150 BKN200 28/10 A3020 RMK AO2 RAB14 CB NW MOV SE CB DSNT N-NE TCU S-SW-W SHRA NW P0000=
201203152014 SPECI KATL 152014Z 12004KT 10SM -RA FEW050CB SCT060TCU BKN150 BKN200 28/10 A3020 RMK AO2 RAB14 CB NW MOV SE CB DSNT N-NE TCU S-SW-W SHRA NW P0000=
201203151952 METAR KATL 151952Z 23005KT 10SM FEW055CB SCT065TCU BKN250 27/09 A3021 RMK AO2 SLP221 CB NW MOV SE CB DSNT NE TCU SE-S-SW & W-NW SHRA NW T02720094=
201203151852 METAR KATL 151852Z 25004KT 10SM SCT060TCU SCT200 28/11 A3023 RMK AO2 SLP229 CB DSNT N-NE TCU NE & W-NW T02780111=
201203151752 METAR KATL 151752Z 00000KT 10SM FEW060 SCT200 27/11 A3026 RMK AO2 SLP239 CB DSNT N-NE TCU DSNT NW T02720111 10272 20156 58014=
201203151652 METAR KATL 151652Z 00000KT 10SM FEW050 SCT250 26/12 A3028 RMK AO2 SLP248 CB DSNT N & NW T02610117=
201203151552 METAR KATL 151552Z 28003KT 10SM FEW040 SCT250 24/14 A3030 RMK AO2 SLP253 T02440139=
201203151452 METAR KATL 151452Z 31005KT 10SM FEW250 23/14 A3030 RMK AO2 SLP254 T02280144 51007=
201203151352 METAR KATL 151352Z 00000KT 10SM FEW250 21/14 A3030 RMK AO2 SLP254 T02060139=
201203151252 METAR KATL 151252Z 00000KT 10SM FEW250 17/13 A3029 RMK AO2 SLP253 T01720128=
201203151152 METAR KATL 151152Z 29003KT 10SM FEW250 16/12 A3028 RMK AO2 SLP248 T01560122 10189 20150 53018=
201203151052 METAR KATL 151052Z COR 32003KT 10SM FEW250 17/12 A3025 RMK AO2 SLP238 T01670122=
201203150952 METAR KATL 150952Z 33003KT 10SM CLR 17/12 A3024 RMK AO2 SLP232 T01670122=
201203150852 METAR KATL 150852Z 00000KT 10SM CLR 16/12 A3023 RMK AO2 SLP229 T01610117 56004=
201203150752 METAR KATL 150752Z 32004KT 10SM FEW250 17/12 A3023 RMK AO2 SLP229 T01670122=
201203150652 METAR KATL 150652Z 31005KT 10SM FEW250 18/12 A3023 RMK AO2 SLP229 T01780122=
201203150552 METAR KATL 150552Z 28003KT 10SM BKN250 18/12 A3024 RMK AO2 SLP233 T01780117 10239 20178 55003=
201203150452 METAR KATL 150452Z 00000KT 10SM BKN250 18/12 A3024 RMK AO2 SLP232 T01830122 402720156=
201203150352 METAR KATL 150352Z 27003KT 10SM SCT250 19/12 A3024 RMK AO2 SLP235 T01940117=
201203150252 METAR KATL 150252Z 26004KT 10SM FEW250 20/12 A3025 RMK AO2 SLP238 T02000117 52018=
201203150152 METAR KATL 150152Z 24003KT 10SM FEW060 21/12 A3023 RMK AO2 SLP233 T02060117=
201203150052 METAR KATL 150052Z 28005KT 10SM FEW060 23/10 A3021 RMK AO2 SLP224 T02280100=
201203142352 METAR KATL 142352Z 31005KT 10SM FEW060 24/10 A3019 RMK AO2 SLP219 T02390100 10272 20239 53001=
201203142252 METAR KATL 142252Z 32008KT 10SM SCT065 26/10 A3018 RMK AO2 SLP214 TCU DSNT S-SW T02560100=
201203142152 METAR KATL 142152Z 34007KT 10SM FEW065 27/11 A3018 RMK AO2 SLP213 T02670106=
201203142052 METAR KATL 142052Z 34004KT 10SM FEW060 SCT250 27/11 A3019 RMK AO2 SLP217 TCU DSNT SE-S-SW T02720111 56022=
201203141952 METAR KATL 141952Z 31007KT 10SM SCT055TCU SCT250 26/12 A3021 RMK AO2 SLP222 TCU S-SW-W-NW T02610122=
201203141852 METAR KATL 141852Z 28005KT 10SM SCT050 SCT250 26/12 A3023 RMK AO2 SLP229 TCU DSNT S & DSNT NW T02610117=
201203141752 METAR KATL 141752Z 00000KT 10SM SCT040TCU SCT250 26/13 A3026 RMK AO2 SLP240 TCU E-SE-S & DSNT NW T02560133 10256 20156 58010=
201203141652 METAR KATL 141652Z 29005KT 10SM SCT030TCU SCT250 24/15 A3028 RMK AO2 SLP247 TCU NE-E-SE & DSNT NW T02390150=
201203141552 METAR KATL 141552Z 30003KT 10SM FEW025 SCT070 SCT250 23/15 A3029 RMK AO2 SLP250 TCU DSNT N T02280150=
201203141452 METAR KATL 141452Z 30004KT 10SM FEW020 SCT040 BKN070 19/16 A3029 RMK AO2 SLP251 CB DSNT E TCU DSNT E T01940156 51014=
201203141352 METAR KATL 141352Z 28004KT 10SM FEW010CB SCT040 BKN070 BKN200 17/15 A3028 RMK AO2 SLP250 CB N-NE MOV SE CB DSNT NW SHRA N-NE T01670150=
201203141252 METAR KATL 141252Z COR 29004KT 10SM FEW045TCU SCT070 BKN090 BKN180 BKN250 17/15 A3027 RMK AO2 SLP245 CB DSNT NW TCU N-NE SHRA N-NE T01670150=
201203141152 METAR KATL 141152Z 32004KT 10SM FEW055TCU SCT075 BKN250 16/14 A3025 RMK AO2 SLP238 TCU NW 70001 T01610144 10167 20156 53016=
201203141052 METAR KATL 141052Z 00000KT 10SM FEW060 SCT250 16/14 A3023 RMK AO2 SLP230 T01560139=
201203140952 METAR KATL 140952Z 28004KT 10SM FEW060 SCT250 16/14 A3021 RMK AO2 SLP224 T01610144=
201203140852 METAR KATL 140852Z 27006KT 10SM FEW250 16/14 A3020 RMK AO2 SLP221 T01610144 57007=
201203140752 METAR KATL 140752Z 26004KT 10SM FEW250 17/14 A3021 RMK AO2 SLP223 T01670144=
201203140652 METAR KATL 140652Z 25004KT 10SM FEW250 16/14 A3022 RMK AO2 SLP226 T01610144=
201203140552 METAR KATL 140552Z 00000KT 10SM FEW250 16/14 A3022 RMK AO2 SLP229 T01610144 10211 20161 58001=
201203140452 METAR KATL 140452Z 23003KT 10SM FEW250 17/14 A3023 RMK AO2 SLP232 T01720144 402390156=
201203140352 METAR KATL 140352Z 23004KT 10SM SCT250 18/14 A3023 RMK AO2 SLP232 T01780144=
201203140252 METAR KATL 140252Z 22004KT 10SM SCT250 19/14 A3022 RMK AO2 SLP230 T01890144 53012=
201203140152 METAR KATL 140152Z 22003KT 10SM FEW250 19/14 A3021 RMK AO2 SLP225 T01940144=
201203140052 METAR KATL 140052Z 23004KT 10SM FEW250 20/14 A3020 RMK AO2 SLP221 T02000139=
201203132352 METAR KATL 132352Z 22005KT 10SM FEW250 21/13 A3019 RMK AO2 SLP218 60000 T02110133 10239 20211 53002=
201203132252 METAR KATL 132252Z 23004KT 10SM FEW035 SCT045 SCT250 23/13 A3018 RMK AO2 TSE24 SLP213 OCNL LTG DSNT E-SE T02280133=
201203132224 SPECI KATL 132224Z 25007KT 10SM FEW035 SCT250 23/13 A3017 RMK AO2 TSE24 FRQ LTGICCG DSNT NE TS MOV SE=
201203132224 SPECI KATL 132224Z 25007KT 10SM FEW035 SCT250 23/13 A3017 RMK AO2 TSE24 FRQ LTGICCG DSNT NE TS MOV SE=
201203132152 METAR KATL 132152Z 24009KT 10SM TS FEW035CB SCT045 BKN250 23/14 A3018 RMK AO2 TSB52 SLP213 OCNL LTGICCG NW-N-NE TS NW-N-NE MOV SE T02330139=
201203132116 SPECI KATL 132116Z 21008KT 10SM FEW040 SCT200 SCT250 23/13 A3017 RMK AO2 OCNL LTGIC DSNT NW-N-NE CB DSNT NW-N-NE SHRA DSNT NW-N-NE=
201203132116 SPECI KATL 132116Z 21008KT 10SM FEW040 SCT200 SCT250 23/13 A3017 RMK AO2 OCNL LTGIC DSNT NW-N-NE CB DSNT NW-N-NE SHRA DSNT NW-N-NE=
201203132052 METAR KATL 132052Z 21007KT 10SM SCT040 BKN200 BKN250 23/13 A3018 RMK AO2 SLP215 CB DSNT N-NE & DSNT NW SHRA DSNT N 60000 T02330133 56022=
201203131952 METAR KATL 131952Z 23007KT 190V280 10SM FEW030 BKN040 BKN250 23/14 A3020 RMK AO2 RAB35E46 SLP220 CB DSNT W TCU DSNT N P0000 T02280144=
201203131852 METAR KATL 131852Z 27005KT 10SM FEW020 SCT055 SCT250 24/15 A3022 RMK AO2 SLP228 TCU DSNT N-NE-E-SE T02390150=
201203131752 METAR KATL 131752Z 00000KT 10SM FEW014TCU SCT055 BKN075 BKN250 21/16 A3025 RMK AO2 SLP238 TCU E-SE-S & W 60001 T02110156 10217 20161 58007=
201203131720 SPECI KATL 131720Z 26004KT 10SM FEW014 SCT020 BKN040 21/17 A3027 RMK AO2=
201203131720 SPECI KATL 131720Z 26004KT 10SM FEW014 SCT020 BKN040 21/17 A3027 RMK AO2=
201203131652 METAR KATL 131652Z 25003KT 10SM FEW009 BKN012 BKN040 19/16 A3027 RMK AO2 RAB28E41 SLP247 P0000 T01890161=
201203131636 SPECI KATL 131636Z 24003KT 7SM -RA FEW007 BKN012 OVC040 19/17 A3027 RMK AO2 RAB28 P0000=
201203131636 SPECI KATL 131636Z 24003KT 7SM -RA FEW007 BKN012 OVC040 19/17 A3027 RMK AO2 RAB28 P0000=
201203131552 METAR KATL 131552Z 23009KT 3SM BR BKN006 BKN008 OVC010 18/16 A3027 RMK AO2 SFC VIS 6 RAE40 SLP247 P0000 T01830161=
201203131452 METAR KATL 131452Z 25004KT 3SM -RA BR BKN005 OVC008 18/16 A3027 RMK AO2 SFC VIS 6 RAB50 SLP247 P0000 60001 T01780161 51010=
201203131430 SPECI KATL 131430Z 24006KT 3SM BR BKN005 OVC008 17/16 A3027 RMK AO2 SFC VIS 6=
201203131430 SPECI KATL 131430Z 24006KT 3SM BR BKN005 OVC008 17/16 A3027 RMK AO2 SFC VIS 6=
201203131352 METAR KATL 131352Z 22004KT 1 1/2SM BR OVC005 17/16 A3027 RMK AO2 SFC VIS 4 SLP246 T01720161=
201203131326 SPECI KATL 131326Z 25004KT 1 1/2SM BR OVC004 17/16 A3026 RMK AO2 SFC VIS 3=
201203131326 SPECI KATL 131326Z 25004KT 1 1/2SM BR OVC004 17/16 A3026 RMK AO2 SFC VIS 3=
201203131301 SPECI KATL 131301Z 21005KT 1SM R09R/5000VP6000FT BR OVC003 17/16 A3026 RMK AO2 SFC VIS 1 1/2=
201203131301 SPECI KATL 131301Z 21005KT 1SM R09R/5000VP6000FT BR OVC003 17/16 A3026 RMK AO2 SFC VIS 1 1/2=
201203131252 METAR KATL 131252Z 22005KT 3/4SM R09R/5500VP6000FT BR OVC003 17/16 A3025 RMK AO2 SFC VIS 1 1/2 RAB16E35 SLP242 TWRINC P0001 T01670156=
201203131159 SPECI KATL 131159Z 21004KT 1/4SM BR OVC003 16/15 A3024 RMK AO2 SFC VIS 1 1/2 TWRINC=
201203131159 SPECI KATL 131159Z 21004KT 1/4SM BR OVC003 16/15 A3024 RMK AO2 SFC VIS 1 1/2 TWRINC=
201203131152 METAR KATL 131152Z 21004KT 1SM BR OVC004 16/15 A3024 RMK AO2 SFC VIS 2 SLP237 60001 70007 T01610150 10161 20156 53004=
201203131111 SPECI KATL 131111Z 19004KT 1SM BR OVC004 16/14 A3023 RMK AO2 SFC VIS 2=
201203131111 SPECI KATL 131111Z 19004KT 1SM BR OVC004 16/14 A3023 RMK AO2 SFC VIS 2=
201203131052 METAR KATL 131052Z 21004KT 1/2SM BR OVC002 16/14 A3024 RMK AO2 SFC VIS 3 RAB03E37 SLP236 TWRINC P0001 T01560144=
201203130952 METAR KATL 130952Z 19003KT 1/2SM BR OVC002 16/14 A3023 RMK AO2 SFC VIS 2 SLP232 TWRINC T01560144=
201203130936 SPECI KATL 130936Z 18003KT 1/2SM BR OVC002 16/14 A3022 RMK AO2 SFC VIS 3 TWRINC=
201203130936 SPECI KATL 130936Z 18003KT 1/2SM BR OVC002 16/14 A3022 RMK AO2 SFC VIS 3 TWRINC=
201203130852 METAR KATL 130852Z 18003KT 4SM BR BKN004 OVC015 16/14 A3023 RMK AO2 SLP232 T01560144 57007=
201203130752 METAR KATL 130752Z 00000KT 6SM BR BKN004 OVC015 16/14 A3023 RMK AO2 SLP234 T01560144=
201203130742 SPECI KATL 130742Z 00000KT 6SM BR BKN004 OVC016 16/14 A3024 RMK AO2=
201203130742 SPECI KATL 130742Z 00000KT 6SM BR BKN004 OVC016 16/14 A3024 RMK AO2=
201203130652 METAR KATL 130652Z 00000KT 7SM SCT004 OVC019 16/14 A3025 RMK AO2 SLP238 T01610144=
201203130602 SPECI KATL 130602Z 14003KT 7SM FEW004 BKN021 BKN040 16/14 A3025 RMK AO2=
201203130602 SPECI KATL 130602Z 14003KT 7SM FEW004 BKN021 BKN040 16/14 A3025 RMK AO2=
201203130552 METAR KATL 130552Z 13003KT 7SM SCT022 SCT027 OVC040 16/14 A3025 RMK AO2 SLP240 60001 T01610144 10172 20156 58003=
201203130452 METAR KATL 130452Z 12004KT 10SM FEW006 SCT030 BKN045 OVC200 16/14 A3026 RMK AO2 SLP243 T01610144 401890139=
201203130352 METAR KATL 130352Z 12004KT 10SM FEW030 SCT045 BKN075 BKN200 16/14 A3026 RMK AO2 RAE01 SLP244 P0000 T01610144=
201203130252 METAR KATL 130252Z 09005KT 10SM -RA FEW030 SCT060 OVC095 16/14 A3026 RMK AO2 RAB15 SLP244 P0001 60001 T01610144 50000=
201203130152 METAR KATL 130152Z 09003KT 10SM BKN032 BKN045 OVC110 16/14 A3026 RMK AO2 SLP246 T01610144=
201203130052 METAR KATL 130052Z 12003KT 10SM FEW025 BKN034 OVC110 17/14 A3026 RMK AO2 SLP245 T01670144=
201203122352 METAR KATL 122352Z 00000KT 10SM SCT028 BKN035 BKN070 OVC150 17/14 A3026 RMK AO2 RAE45 SLP245 P0001 60005 T01720139 10189 20167 53001=
201203122252 METAR KATL 122252Z 11005KT 9SM -RA FEW030 BKN095 BKN110 OVC200 17/14 A3024 RMK AO2 SLP237 P0004 T01720139=
201203122234 SPECI KATL 122234Z 13004KT 7SM -RA SCT030 BKN085 OVC110 17/14 A3024 RMK AO2 P0003=
201203122234 SPECI KATL 122234Z 13004KT 7SM -RA SCT030 BKN085 OVC110 17/14 A3024 RMK AO2 P0003=
201203122152 METAR KATL 122152Z 13005KT 10SM -RA BKN028 BKN035 OVC080 18/13 A3025 RMK AO2 RAB48 SLP241 P0000 T01830128=
201203122113 SPECI KATL 122113Z 13006KT 10SM BKN028 BKN050 OVC120 19/12 A3025 RMK AO2=
201203122113 SPECI KATL 122113Z 13006KT 10SM BKN028 BKN050 OVC120 19/12 A3025 RMK AO2=
201203122052 METAR KATL 122052Z COR 13006KT 10SM BKN027 BKN040 OVC120 19/12 A3026 RMK AO2 SLP242 T01890122 56017=
201203121952 METAR KATL 121952Z 15010KT 10SM BKN025 BKN030 OVC040 19/12 A3027 RMK AO2 SLP245 T01890122=
201203121852 METAR KATL 121852Z 15008KT 10SM BKN025 BKN030 OVC040 18/12 A3028 RMK AO2 SLP251 T01830122=
201203121752 METAR KATL 121752Z 15007KT 10SM BKN020 BKN030 OVC040 18/12 A3031 RMK AO2 SLP259 T01780117 10178 20139 58011=
201203121652 METAR KATL 121652Z 17010KT 10SM BKN020 BKN025 OVC045 17/12 A3033 RMK AO2 SLP267 T01720117=
201203121611 SPECI KATL 121611Z 16010KT 10SM FEW020 BKN025 OVC045 17/12 A3034 RMK AO2=
201203121611 SPECI KATL 121611Z 16010KT 10SM FEW020 BKN025 OVC045 17/12 A3034 RMK AO2=
201203121552 METAR KATL 121552Z 16012KT 10SM FEW017 BKN030 OVC040 17/12 A3034 RMK AO2 SLP271 T01670117=
201203121539 SPECI KATL 121539Z 16012KT 10SM FEW017 BKN030 BKN040 17/12 A3034 RMK AO2=
201203121539 SPECI KATL 121539Z 16012KT 10SM FEW017 BKN030 BKN040 17/12 A3034 RMK AO2=
201203121452 METAR KATL 121452Z 15010KT 10SM FEW010 BKN015 OVC040 16/12 A3034 RMK AO2 SLP271 T01610117 50003=
201203121440 SPECI KATL 121440Z 14010G16KT 10SM FEW010 BKN015 OVC040 16/12 A3034 RMK AO2=
201203121440 SPECI KATL 121440Z 14010G16KT 10SM FEW010 BKN015 OVC040 16/12 A3034 RMK AO2=
201203121352 METAR KATL 121352Z 14009KT 10SM BKN011 BKN015 BKN037 15/11 A3034 RMK AO2 SLP272 T01500111=
201203121320 SPECI KATL 121320Z 13007KT 10SM BKN011 OVC037 14/11 A3034 RMK AO2=
201203121320 SPECI KATL 121320Z 13007KT 10SM BKN011 OVC037 14/11 A3034 RMK AO2=
201203121252 METAR KATL 121252Z 14009KT 8SM BKN009 OVC012 14/11 A3034 RMK AO2 SLP270 T01390111=
201203121222 SPECI KATL 121222Z 14007KT 10SM BKN009 OVC035 14/11 A3033 RMK AO2=
201203121222 SPECI KATL 121222Z 14007KT 10SM BKN009 OVC035 14/11 A3033 RMK AO2=
201203121152 METAR KATL 121152Z 14009KT 10SM BKN011 OVC033 14/11 A3033 RMK AO2 SLP269 60000 T01390111 10161 20139 53002=
201203121119 SPECI KATL 121119Z 13010G15KT 10SM BKN013 BKN020 OVC080 14/11 A3032 RMK AO2=
201203121119 SPECI KATL 121119Z 13010G15KT 10SM BKN013 BKN020 OVC080 14/11 A3032 RMK AO2=
201203121052 METAR KATL 121052Z 15008G15KT 10SM FEW016 OVC026 15/11 A3032 RMK AO2 RAB12E22 SLP265 P0000 T01500106=
201203120952 METAR KATL 120952Z 14009KT 10SM BKN029 OVC035 15/11 A3032 RMK AO2 SLP263 T01500106=
201203120852 METAR KATL 120852Z 16010G14KT 10SM BKN024 OVC037 16/11 A3033 RMK AO2 SLP265 T01560106 55006=
201203120850 SPECI KATL 120850Z 15009G14KT 10SM BKN024 OVC037 16/11 A3032 RMK AO2=
201203120850 SPECI KATL 120850Z 15009G14KT 10SM BKN024 OVC037 16/11 A3032 RMK AO2=
201203120752 METAR KATL 120752Z 14008KT 10SM FEW028 SCT038 BKN080 16/11 A3033 RMK AO2 SLP267 T01560106=
201203120718 SPECI KATL 120718Z 14010KT 10SM BKN032 OVC049 16/11 A3033 RMK AO2=
201203120718 SPECI KATL 120718Z 14010KT 10SM BKN032 OVC049 16/11 A3033 RMK AO2=
201203120652 METAR KATL 120652Z 15007KT 10SM BKN026 OVC032 16/11 A3034 RMK AO2 SLP272 T01610111=
201203120552 METAR KATL 120552Z 14008G17KT 10SM SCT022 BKN027 OVC075 16/11 A3034 RMK AO2 SLP271 T01610111 10189 20161 58001=
201203120452 METAR KATL 120452Z 14008KT 10SM BKN025 OVC047 17/11 A3035 RMK AO2 SLP276 T01670106 402000056=
201203120446 SPECI KATL 120446Z 13006KT 10SM BKN025 BKN047 OVC060 17/11 A3035 RMK AO2 402000056=
201203120446 SPECI KATL 120446Z 13006KT 10SM BKN025 BKN047 OVC060 17/11 A3035 RMK AO2 402000056=
201203120352 METAR KATL 120352Z 13009G15KT 10SM BKN042 OVC085 17/09 A3034 RMK AO2 SLP273 T01720094=
201203120252 METAR KATL 120252Z 11009KT 10SM OVC038 18/08 A3035 RMK AO2 SLP275 T01780083 51003=
201203120152 METAR KATL 120152Z 11008KT 10SM FEW044 BKN055 OVC070 18/08 A3035 RMK AO2 SLP276 T01780083=
201203120052 METAR KATL 120052Z 12007KT 10SM BKN060 OVC090 18/08 A3034 RMK AO2 SLP274 T01830078=
201203112352 METAR KATL 112352Z 11007KT 10SM BKN049 OVC060 19/08 A3034 RMK AO2 SLP274 T01890078 10200 20161 55004=
201203112252 METAR KATL 112252Z 11010KT 10SM FEW045 BKN060 19/08 A3032 RMK AO2 SLP269 T01890078=
201203112152 METAR KATL 112152Z 13012KT 10SM SCT045 SCT250 19/08 A3033 RMK AO2 SLP270 T01940078=
201203112052 METAR KATL 112052Z 14008G14KT 10SM BKN040 BKN055 19/08 A3035 RMK AO2 SLP278 T01890078 56030=
201203111952 METAR KATL 111952Z 12010KT 10SM SCT050 BKN070 19/08 A3038 RMK AO2 SLP286 T01890078=
201203111852 METAR KATL 111852Z 12010G18KT 10SM FEW025 SCT040 BKN060 18/08 A3041 RMK AO2 SLP298 T01780078=
201203111810 SPECI KATL 111810Z 09011KT 10SM SCT025 BKN038 BKN055 17/07 A3043 RMK AO2=
201203111810 SPECI KATL 111810Z 09011KT 10SM SCT025 BKN038 BKN055 17/07 A3043 RMK AO2=
201203111752 METAR KATL 111752Z 10012KT 10SM BKN025 OVC035 16/07 A3044 RMK AO2 SLP310 T01610067 10161 20067 58012=
201203111659 SPECI KATL 111659Z VRB06KT 10SM BKN025 15/06 A3047 RMK AO2=
201203111659 SPECI KATL 111659Z VRB06KT 10SM BKN025 15/06 A3047 RMK AO2=
201203111652 METAR KATL 111652Z 09009KT 10SM FEW020 BKN030 15/06 A3046 RMK AO2 SLP317 T01500056=
201203111614 SPECI KATL 111614Z 11009KT 10SM FEW020 SCT028 BKN050 14/05 A3048 RMK AO2=
201203111614 SPECI KATL 111614Z 11009KT 10SM FEW020 SCT028 BKN050 14/05 A3048 RMK AO2=
201203111552 METAR KATL 111552Z 11009KT 10SM FEW018 BKN028 OVC049 13/03 A3049 RMK AO2 SLP324 T01330033=
201203111452 METAR KATL 111452Z 11011KT 10SM SCT016 OVC028 11/02 A3048 RMK AO2 SLP323 T01110022 51010=
201203111434 SPECI KATL 111434Z 10014KT 10SM BKN028 OVC050 10/03 A3048 RMK AO2 BKN028 V SCT=
201203111434 SPECI KATL 111434Z 10014KT 10SM BKN028 OVC050 10/03 A3048=
201203111352 METAR KATL 111352Z 10008KT 10SM BKN030 OVC045 09/02 A3047 RMK AO2 SLP321 T00890022=
201203111252 METAR KATL 111252Z 09009KT 10SM OVC038 08/02 A3046 RMK AO2 SLP316 T00780017=
201203111152 METAR KATL 111152Z 09011KT 10SM SCT034 SCT044 07/01 A3045 RMK AO2 SLP313 T00670006 10100 20056 53018=
201203111052 METAR KATL 111052Z 08011KT 10SM FEW150 SCT250 06/M01 A3043 RMK AO2 SLP305 T00611006=
201203110952 METAR KATL 110952Z 08007KT 10SM FEW150 SCT250 06/M01 A3041 RMK AO2 SLP299 T00611011=
201203110852 METAR KATL 110852Z 08007KT 10SM SCT250 07/M02 A3040 RMK AO2 SLP294 T00671017 58005=
201203110752 METAR KATL 110752Z 09009KT 10SM BKN250 08/M02 A3040 RMK AO2 SLP293 T00781022=
201203110652 METAR KATL 110652Z 10008KT 10SM BKN250 09/M03 A3041 RMK AO2 SLP298 T00891028=
201203110552 METAR KATL 110552Z 10009KT 10SM BKN250 09/M03 A3041 RMK AO2 SLP298 T00941033 10150 20094 50001=
201203110452 METAR KATL 110452Z 10007KT 10SM SCT250 11/M03 A3042 RMK AO2 SLP300 T01061033 401830056=
201203110352 METAR KATL 110352Z 09008KT 10SM SCT250 11/M03 A3042 RMK AO2 SLP300 T01061028=
201203110252 METAR KATL 110252Z 10008KT 10SM SCT250 12/M03 A3041 RMK AO2 SLP298 T01171028 53023=
201203110152 METAR KATL 110152Z 09008KT 10SM FEW250 12/M02 A3039 RMK AO2 SLP291 T01171017=
201203110052 METAR KATL 110052Z 09009KT 10SM FEW250 14/M02 A3036 RMK AO2 SLP281 T01391022=
201203102352 METAR KATL 102352Z 09009KT 10SM FEW250 15/M02 A3034 RMK AO2 SLP274 T01501022 10183 20150 56001=
201203102252 METAR KATL 102252Z 09008KT 10SM FEW250 17/M03 A3034 RMK AO2 SLP274 T01721033=
201203102152 METAR KATL 102152Z 10010KT 10SM FEW250 18/M03 A3033 RMK AO2 SLP271 T01831033=
201203102052 METAR KATL 102052Z 09007KT 10SM FEW250 18/M03 A3034 RMK AO2 SLP274 T01831033 56022=
201203101952 METAR KATL 101952Z 05011G15KT 10SM FEW250 18/M02 A3036 RMK AO2 SLP279 T01831022=
201203101852 METAR KATL 101852Z 12008KT 10SM FEW250 17/M02 A3037 RMK AO2 SLP285 T01721022=
201203101752 METAR KATL 101752Z 12009KT 10SM FEW250 17/M03 A3041 RMK AO2 SLP297 T01671028 10167 20067 58005=
201203101652 METAR KATL 101652Z 10009KT 10SM FEW250 16/M02 A3042 RMK AO2 SLP302 T01561022=
201203101552 METAR KATL 101552Z 10010KT 10SM FEW250 14/M03 A3043 RMK AO2 SLP306 T01391033=
201203101452 METAR KATL 101452Z 09012KT 10SM FEW250 12/M03 A3042 RMK AO2 SLP302 T01171028 51021=
201203101352 METAR KATL 101352Z 09011KT 10SM FEW250 09/M03 A3040 RMK AO2 SLP297 T00941028=
201203101252 METAR KATL 101252Z 06008KT 10SM FEW250 08/M03 A3038 RMK AO2 SLP289 T00781033=
201203101152 METAR KATL 101152Z 05006KT 10SM FEW150 07/M04 A3036 RMK AO2 SLP282 70006 T00721039 10089 20056 53016=
201203101052 METAR KATL 101052Z 03003KT 10SM SCT140 07/M03 A3034 RMK AO2 SLP276 T00671033=
201203100952 METAR KATL 100952Z 02005KT 10SM FEW150 07/M03 A3032 RMK AO2 SLP270 T00671033=
201203100852 METAR KATL 100852Z 36003KT 10SM BKN150 06/M03 A3031 RMK AO2 SLP266 T00611033 57000=
201203100752 METAR KATL 100752Z 35004KT 10SM SCT150 08/M03 A3031 RMK AO2 SLP264 T00781033=
201203100652 METAR KATL 100652Z 34005KT 10SM FEW150 SCT250 07/M03 A3031 RMK AO2 SLP266 T00721033=
201203100552 METAR KATL 100552Z 34007KT 10SM FEW250 09/M04 A3031 RMK AO2 SLP265 T00891039 10111 20089 51004=
201203100452 METAR KATL 100452Z 35010KT 10SM FEW250 10/M04 A3031 RMK AO2 SLP265 T01001044 402000100=
201203100352 METAR KATL 100352Z 36012KT 10SM FEW250 11/M04 A3030 RMK AO2 SLP262 T01061044=
201203100252 METAR KATL 100252Z 35011KT 10SM FEW250 11/M04 A3030 RMK AO2 SLP261 T01061039 51010=
201203100152 METAR KATL 100152Z 34010KT 10SM BKN250 10/M03 A3030 RMK AO2 SLP260 T01001028=
201203100052 METAR KATL 100052Z 34006KT 10SM BKN250 11/M03 A3028 RMK AO2 SLP255 T01061033=
201203092352 METAR KATL 092352Z 33010KT 10SM FEW200 BKN250 11/M03 A3027 RMK AO2 SLP249 T01111028 10139 20111 51009=
201203092252 METAR KATL 092252Z 33013KT 10SM SCT200 BKN250 12/M03 A3026 RMK AO2 SLP247 T01221028=
201203092152 METAR KATL 092152Z 34012KT 10SM SCT200 BKN250 13/M02 A3024 RMK AO2 SLP240 T01331017=
201203092052 METAR KATL 092052Z 33011G18KT 10SM FEW100 SCT150 BKN200 13/00 A3024 RMK AO2 SLP239 T01330000 55004=
201203091952 METAR KATL 091952Z 35013KT 10SM FEW100 SCT150 BKN200 13/02 A3023 RMK AO2 SLP235 T01330017=
201203091852 METAR KATL 091852Z 31011KT 10SM FEW070 SCT100 BKN150 BKN200 12/03 A3024 RMK AO2 SLP240 T01220033=
201203091752 METAR KATL 091752Z 34011KT 10SM FEW070 BKN100 OVC150 12/05 A3025 RMK AO2 SLP243 60006 T01220050 10144 20106 50000=
201203091652 METAR KATL 091652Z 31011KT 10SM FEW010 SCT070 BKN090 OVC150 11/08 A3027 RMK AO2 SLP247 T01110078=
201203091552 METAR KATL 091552Z 32011KT 10SM FEW006 BKN040 OVC070 11/09 A3025 RMK AO2 SLP242 T01060089=
201203091507 SPECI KATL 091507Z 32013KT 9SM FEW003 BKN006 OVC030 12/10 A3025 RMK AO2=
201203091507 SPECI KATL 091507Z 32013KT 9SM FEW003 BKN006 OVC030 12/10 A3025 RMK AO2=
201203091501 SPECI KATL 091501Z 32011KT 10SM OVC003 12/10 A3024 RMK AO2=
201203091501 SPECI KATL 091501Z 32011KT 10SM OVC003 12/10 A3024 RMK AO2=
201203091452 METAR KATL 091452Z 31011KT 6SM BR BKN005 BKN040 OVC050 12/11 A3025 RMK AO2 RAE17 SLP240 P0001 60006 T01220106 53018=
201203091417 SPECI KATL 091417Z 32011KT 6SM BR BKN005 BKN040 OVC050 12/11 A3023 RMK AO2 RAE17 P0001=
201203091417 SPECI KATL 091417Z 32011KT 6SM BR BKN005 BKN040 OVC050 12/11 A3023 RMK AO2 RAE17 P0001=
201203091357 SPECI KATL 091357Z 31012KT 3SM R09R/5000VP6000FT -RA BR BKN005 OVC033 13/11 A3023 RMK AO2 P0001=
201203091357 SPECI KATL 091357Z 31012KT 3SM R09R/5000VP6000FT -RA BR BKN005 OVC033 13/11 A3023 RMK AO2 P0001=
201203091352 METAR KATL 091352Z 32011KT 5SM -RA BR SCT005 BKN020 OVC035 13/12 A3023 RMK AO2 RAB16 SLP232 P0000 T01330117=
201203091344 SPECI KATL 091344Z 32009KT 5SM -RA BR FEW005 SCT029 OVC035 13/12 A3022 RMK AO2 RAB16 P0000=
201203091344 SPECI KATL 091344Z 32009KT 5SM -RA BR FEW005 SCT029 OVC035 13/12 A3022 RMK AO2 RAB16 P0000=
201203091333 SPECI KATL 091333Z 34010KT 2SM -RA BR SCT005 BKN021 OVC029 13/12 A3022 RMK AO2 SFC VIS 4 RAB16 P0000=
201203091333 SPECI KATL 091333Z 34010KT 2SM -RA BR SCT005 BKN021 OVC029 13/12 A3022 RMK AO2 SFC VIS 4 RAB16 P0000=
201203091330 SPECI KATL 091330Z 34010KT 2SM -RA BR SCT005 BKN014 OVC029 13/12 A3022 RMK AO2 SFC VIS 3 RAB16 VIS NW-NE 2 P0000=
201203091330 SPECI KATL 091330Z 34010KT 2SM -RA BR SCT005 BKN014 OVC029 13/12 A3022 RMK AO2 SFC VIS 3 RAB16 VIS NW-NE 2 P0000=
201203091316 SPECI KATL 091316Z 34011KT 2SM R09R/5500VP6000FT -RA BR BKN003 OVC007 14/13 A3021 RMK AO2 SFC VIS 4 RAB16 VIS NW-NE 2 P0000=
201203091316 SPECI KATL 091316Z 34011KT 2SM R09R/5500VP6000FT -RA BR BKN003 OVC007 14/13 A3021 RMK AO2 SFC VIS 4 RAB16 VIS NW-NE 2 P0000=
201203091252 METAR KATL 091252Z 30006KT 1/2SM BR OVC003 14/13 A3020 RMK AO2 SFC VIS 4 RAE43 PRESRR SLP222 TWRINC P0005 T01390133=
201203091240 SPECI KATL 091240Z 20006KT 1/2SM -RA BR BKN003 BKN019 OVC100 14/13 A3017 RMK AO2 SFC VIS 4 TWRINC P0005=
201203091240 SPECI KATL 091240Z 20006KT 1/2SM -RA BR BKN003 BKN019 OVC100 14/13 A3017 RMK AO2 SFC VIS 4 TWRINC P0005=
201203091228 SPECI KATL 091228Z 15005KT 2 1/2SM -RA BR BKN005 OVC100 14/13 A3016 RMK AO2 SFC VIS 4 P0004=
201203091228 SPECI KATL 091228Z 15005KT 2 1/2SM -RA BR BKN005 OVC100 14/13 A3016 RMK AO2 SFC VIS 4 P0004=
201203091207 SPECI KATL 091207Z 17004KT 2 1/2SM -RA BR FEW005 BKN080 OVC095 14/13 A3018 RMK AO2 SFC VIS 4 PRESFR P0003=
201203091207 SPECI KATL 091207Z 17004KT 2 1/2SM -RA BR FEW005 BKN080 OVC095 14/13 A3018 RMK AO2 SFC VIS 4 PRESFR P0003=
201203091152 METAR KATL 091152Z 21003KT 4SM -RA BR FEW005 SCT055 OVC075 14/13 A3019 RMK AO2 SLP220 P0008 60043 70047 T01390128 10156 20139 53001=
201203091146 SPECI KATL 091146Z 21004KT 4SM RA BR FEW005 SCT055 OVC075 14/13 A3020 RMK AO2 P0007=
201203091146 SPECI KATL 091146Z 21004KT 4SM RA BR FEW005 SCT055 OVC075 14/13 A3020 RMK AO2 P0007=
201203091117 SPECI KATL 091117Z 22003KT 5SM -RA BR BKN003 BKN060 OVC075 14/13 A3020 RMK AO2 P0003=
201203091117 SPECI KATL 091117Z 22003KT 5SM -RA BR BKN003 BKN060 OVC075 14/13 A3020 RMK AO2 P0003=
201203091052 METAR KATL 091052Z 00000KT 5SM -RA BR BKN005 BKN012 OVC042 14/13 A3020 RMK AO2 SLP221 P0006 T01390128=
201203090952 METAR KATL 090952Z 18003KT 5SM -RA BR BKN005 BKN060 OVC075 14/13 A3018 RMK AO2 SLP216 P0010 T01390128=
201203090942 SPECI KATL 090942Z 00000KT 5SM -RA BR BKN005 BKN060 OVC075 14/13 A3018 RMK AO2 P0010=
201203090942 SPECI KATL 090942Z 00000KT 5SM -RA BR BKN005 BKN060 OVC075 14/13 A3018 RMK AO2 P0010=
201203090920 SPECI KATL 090920Z 20004KT 2 1/2SM RA BR SCT004 OVC047 14/13 A3019 RMK AO2 P0007=
201203090920 SPECI KATL 090920Z 20004KT 2 1/2SM RA BR SCT004 OVC047 14/13 A3019 RMK AO2 P0007=
201203090852 METAR KATL 090852Z 00000KT 1 1/2SM -RA BR BKN006 BKN033 OVC042 14/13 A3019 RMK AO2 SLP217 P0007 60019 T01440128 51004=
201203090842 SPECI KATL 090842Z 22004KT 2SM -RA BR FEW006 BKN033 OVC042 14/13 A3019 RMK AO2 P0006=
201203090842 SPECI KATL 090842Z 22004KT 2SM -RA BR FEW006 BKN033 OVC042 14/13 A3019 RMK AO2 P0006=
201203090812 SPECI KATL 090812Z 00000KT 1 1/2SM -RA BR SCT006 BKN033 OVC049 14/13 A3018 RMK AO2 P0003=
201203090812 SPECI KATL 090812Z 00000KT 1 1/2SM -RA BR SCT006 BKN033 OVC049 14/13 A3018 RMK AO2 P0003=
201203090802 SPECI KATL 090802Z 25004KT 2SM -RA BR FEW014 SCT033 OVC041 14/13 A3018 RMK AO2 P0001=
201203090802 SPECI KATL 090802Z 25004KT 2SM -RA BR FEW014 SCT033 OVC041 14/13 A3018 RMK AO2 P0001=
201203090752 METAR KATL 090752Z VRB03KT 5SM -RA BR OVC038 14/13 A3019 RMK AO2 SLP217 P0003 T01440128=
201203090652 METAR KATL 090652Z 34007KT 5SM -RA BR BKN043 OVC055 15/13 A3019 RMK AO2 SLP217 P0009 T01500128=
201203090612 SPECI KATL 090612Z 35005KT 5SM -RA BR FEW010 SCT028 OVC039 15/13 A3017 RMK AO2 P0008=
201203090612 SPECI KATL 090612Z 35005KT 5SM -RA BR FEW010 SCT028 OVC039 15/13 A3017 RMK AO2 P0008=
201203090559 SPECI KATL 090559Z 34013KT 2SM +RA BR FEW012 SCT030 OVC037 15/13 A3019 RMK AO2 P0004=
201203090559 SPECI KATL 090559Z 34013KT 2SM +RA BR FEW012 SCT030 OVC037 15/13 A3019 RMK AO2 P0004=
201203090552 METAR KATL 090552Z 31010G17KT 5SM RA BR FEW010 BKN030 OVC045 15/13 A3018 RMK AO2 PK WND 32029/0524 WSHFT 0516 RAB16 SLP214 P0004 60004 T01500133 10217 20150 53017=
201203090533 SPECI KATL 090533Z 35017G29KT 7SM -RA SCT012 BKN025 OVC040 17/13 A3017 RMK AO2 PK WND 32029/0524 WSHFT 0516 RAB16 P0000=
201203090533 SPECI KATL 090533Z 35017G29KT 7SM -RA SCT012 BKN025 OVC040 17/13 A3017 RMK AO2 PK WND 32029/0524 WSHFT 0516 RAB16 P0000=
201203090526 SPECI KATL 090526Z 33023G29KT 9SM -RA FEW015 BKN026 OVC045 18/13 A3016 RMK AO2 PK WND 32029/0524 RAB16 PRESRR P0000=
201203090526 SPECI KATL 090526Z 33023G29KT 9SM -RA FEW015 BKN026 OVC045 18/13 A3016 RMK AO2 PK WND 32029/0524 RAB16 PRESRR P0000=
201203090452 METAR KATL 090452Z 24007KT 10SM BKN085 OVC110 19/12 A3013 RMK AO2 SLP196 T01940117 402440100=
201203090352 METAR KATL 090352Z 21010KT 10SM FEW045 SCT060 BKN085 BKN250 20/11 A3012 RMK AO2 SLP195 T02000111=
201203090252 METAR KATL 090252Z 20008KT 10SM SCT080 BKN250 19/11 A3013 RMK AO2 SLP198 T01940111 58005=
201203090152 METAR KATL 090152Z 19008KT 10SM OVC085 21/11 A3014 RMK AO2 SLP203 T02060106=
201203090052 METAR KATL 090052Z 19007KT 10SM FEW075 BKN250 21/11 A3014 RMK AO2 SLP202 T02060106=
201203082352 METAR KATL 082352Z 18007KT 10SM BKN075 BKN250 22/11 A3014 RMK AO2 SLP204 T02220106 10244 20211 58011=
201203082252 METAR KATL 082252Z 18008KT 10SM BKN070 BKN250 23/10 A3016 RMK AO2 SLP209 T02280100=
201203082152 METAR KATL 082152Z 19009KT 10SM FEW060 SCT070 SCT200 24/10 A3016 RMK AO2 SLP210 T02390100=
201203082052 METAR KATL 082052Z 20013G18KT 10SM FEW050 SCT070 SCT200 24/10 A3018 RMK AO2 SLP214 T02390100 56028=
201203081952 METAR KATL 081952Z 20011KT 10SM BKN050 BKN070 BKN200 22/10 A3020 RMK AO2 SLP221 T02220100=
201203081852 METAR KATL 081852Z 20012KT 10SM BKN050 BKN070 BKN200 22/09 A3022 RMK AO2 SLP231 T02220094=
201203081752 METAR KATL 081752Z 17013G18KT 10SM BKN045 BKN065 BKN200 22/11 A3026 RMK AO2 SLP244 T02220106 10222 20100 58027=
201203081652 METAR KATL 081652Z 15013KT 10SM FEW040 SCT060 SCT200 21/11 A3029 RMK AO2 SLP254 T02060111=
201203081552 METAR KATL 081552Z 19010KT 10SM FEW020 BKN065 BKN200 18/12 A3032 RMK AO2 SLP265 T01780122=
201203081452 METAR KATL 081452Z 18009G14KT 10SM FEW012 BKN065 BKN200 16/12 A3034 RMK AO2 SLP274 T01560117 58001=
201203081352 METAR KATL 081352Z 14006KT 7SM FEW008 BKN065 13/11 A3035 RMK AO2 SLP275 T01330106=
201203081319 SPECI KATL 081319Z 13003KT 6SM BR FEW004 SCT025 BKN060 12/10 A3035 RMK AO2=
201203081319 SPECI KATL 081319Z 13003KT 6SM BR FEW004 SCT025 BKN060 12/10 A3035 RMK AO2=
201203081252 METAR KATL 081252Z 13004KT 6SM BR SCT060 11/09 A3034 RMK AO2 SLP274 T01110094=
201203081152 METAR KATL 081152Z 11004KT 7SM FEW060 SCT200 11/09 A3035 RMK AO2 SLP274 T01060089 10133 20100 50002=
201203081052 METAR KATL 081052Z 08005KT 8SM FEW060 10/08 A3035 RMK AO2 SLP276 T01000083=
201203080952 METAR KATL 080952Z 12004KT 10SM FEW060 12/09 A3034 RMK AO2 SLP273 T01170094=
201203080852 METAR KATL 080852Z 12004KT 10SM FEW060 SCT200 12/09 A3034 RMK AO2 SLP272 T01170089 58007=
201203080752 METAR KATL 080752Z 12005KT 10SM SCT055 SCT200 12/09 A3035 RMK AO2 SLP277 T01220089=
201203080652 METAR KATL 080652Z 13004KT 10SM FEW055 13/08 A3036 RMK AO2 SLP280 T01280083=
201203080552 METAR KATL 080552Z 13005KT 10SM FEW055 13/08 A3036 RMK AO2 SLP280 T01330083 10178 20133 57005=
201203080452 METAR KATL 080452Z 13006KT 10SM FEW065 14/08 A3036 RMK AO2 SLP280 T01390083 401890083=
201203080352 METAR KATL 080352Z 13005KT 10SM FEW065 14/08 A3037 RMK AO2 SLP285 T01440083=
201203080252 METAR KATL 080252Z 11004KT 10SM FEW065 14/08 A3038 RMK AO2 SLP286 T01390083 56001=
201203080152 METAR KATL 080152Z 11004KT 10SM FEW200 16/08 A3038 RMK AO2 SLP287 T01560078=
201203080052 METAR KATL 080052Z 11005KT 10SM FEW200 SCT250 17/08 A3037 RMK AO2 SLP285 T01670078=
201203072352 METAR KATL 072352Z 13006KT 10SM FEW065 SCT200 BKN250 18/08 A3038 RMK AO2 SLP286 T01780078 10189 20161 56013=
201203072252 METAR KATL 072252Z 12008KT 10SM FEW042 SCT065 BKN250 18/08 A3038 RMK AO2 SLP288 T01830078=
201203072152 METAR KATL 072152Z 09012G18KT 10SM FEW045 BKN065 BKN250 18/08 A3040 RMK AO2 SLP292 T01830083=
201203072052 METAR KATL 072052Z 14008KT 10SM BKN045 BKN060 BKN250 18/07 A3042 RMK AO2 SLP300 T01830072 56024=
201203071952 METAR KATL 071952Z 14010KT 10SM SCT040 BKN060 OVC250 18/07 A3043 RMK AO2 SLP305 T01830072=
201203071852 METAR KATL 071852Z 13009KT 10SM FEW030 BKN060 BKN250 18/07 A3046 RMK AO2 SLP314 T01780072=
201203071752 METAR KATL 071752Z 13010KT 10SM BKN060 BKN250 17/07 A3049 RMK AO2 SLP324 T01670067 10167 20083 58014=
201203071652 METAR KATL 071652Z 13006KT 10SM BKN060 BKN250 14/07 A3052 RMK AO2 SLP335 T01440067=
201203071552 METAR KATL 071552Z 10007KT 10SM BKN055 BKN250 13/07 A3053 RMK AO2 SLP338 T01330067=
201203071452 METAR KATL 071452Z 12006KT 10SM BKN055 BKN250 12/06 A3053 RMK AO2 SLP340 T01170061 53008=
201203071352 METAR KATL 071352Z 12007KT 10SM FEW055 SCT250 11/06 A3052 RMK AO2 SLP336 T01060056=
201203071252 METAR KATL 071252Z 09009KT 10SM FEW025 BKN055 BKN250 08/04 A3051 RMK AO2 SLP333 T00830039=
201203071152 METAR KATL 071152Z COR 10008KT 10SM FEW025 BKN055 BKN250 09/04 A3050 RMK AO2 SLP331 T00890044 10100 20083 53006=
201203071052 METAR KATL 071052Z 10008G16KT 10SM FEW025 BKN050 BKN250 09/04 A3049 RMK AO2 SLP326 T00890044=
201203070952 METAR KATL 070952Z 11008KT 10SM SCT050 BKN250 09/03 A3048 RMK AO2 SLP322 T00890033=
201203070852 METAR KATL 070852Z 11009KT 10SM BKN050 OVC250 09/02 A3049 RMK AO2 SLP324 T00940022 58009=
201203070752 METAR KATL 070752Z 11009KT 10SM BKN045 OVC250 09/01 A3049 RMK AO2 SLP326 T00940011=
201203070652 METAR KATL 070652Z 10008KT 10SM FEW080 OVC250 10/00 A3051 RMK AO2 SLP332 T01000000=
201203070552 METAR KATL 070552Z 12008KT 10SM OVC250 10/M01 A3051 RMK AO2 SLP335 T01001011 10139 20100 53005=
201203070452 METAR KATL 070452Z 12008KT 10SM OVC250 11/M02 A3051 RMK AO2 SLP334 T01111022 401610011=
201203070352 METAR KATL 070352Z 11011KT 10SM OVC250 11/M04 A3050 RMK AO2 SLP329 T01111044=
201203070252 METAR KATL 070252Z 11008KT 10SM BKN250 12/M06 A3050 RMK AO2 SLP331 T01171056 53010=
201203070152 METAR KATL 070152Z 11008KT 10SM BKN250 12/M06 A3049 RMK AO2 SLP327 T01221056=
201203070052 METAR KATL 070052Z 12007KT 10SM BKN250 13/M06 A3047 RMK AO2 SLP322 T01281056=
201203062352 METAR KATL 062352Z 12006KT 10SM BKN250 14/M07 A3047 RMK AO2 SLP322 T01391067 10161 20122 53002=
201203062252 METAR KATL 062252Z 11011KT 10SM SCT250 16/M07 A3046 RMK AO2 SLP319 T01561072=
201203062152 METAR KATL 062152Z 13006G14KT 10SM FEW250 16/M07 A3046 RMK AO2 SLP318 T01611067=
201203062052 METAR KATL 062052Z 14009G17KT 10SM FEW250 16/M07 A3046 RMK AO2 SLP319 T01561067 56022=
201203061952 METAR KATL 061952Z 15012G19KT 10SM FEW250 15/M06 A3047 RMK AO2 SLP322 T01501061=
201203061852 METAR KATL 061852Z 14010G15KT 10SM FEW250 14/M06 A3050 RMK AO2 SLP332 T01441061=
201203061752 METAR KATL 061752Z 13009G16KT 10SM FEW250 13/M06 A3053 RMK AO2 SLP341 T01281061 10128 20028 58012=
201203061652 METAR KATL 061652Z 13010G16KT 10SM CLR 11/M07 A3056 RMK AO2 SLP352 T01111067=
201203061552 METAR KATL 061552Z 14007G17KT 10SM FEW250 09/M07 A3057 RMK AO2 SLP355 T00941072=
201203061452 METAR KATL 061452Z 12013G17KT 10SM FEW250 07/M08 A3057 RMK AO2 SLP355 T00721083 51016=
201203061352 METAR KATL 061352Z 12013G18KT 10SM CLR 06/M08 A3056 RMK AO2 SLP352 T00561083=
201203061252 METAR KATL 061252Z 10010KT 10SM CLR 04/M08 A3053 RMK AO2 SLP344 T00391078=
201203061152 METAR KATL 061152Z 10007KT 10SM CLR 03/M08 A3052 RMK AO2 SLP340 T00281083 10061 20011 51020=
201203061052 METAR KATL 061052Z 10006KT 10SM CLR 02/M07 A3050 RMK AO2 SLP335 T00171072=
201203060952 METAR KATL 060952Z 08009KT 10SM CLR 02/M07 A3047 RMK AO2 SLP324 T00171072=
201203060852 METAR KATL 060852Z 08006KT 10SM CLR 02/M07 A3046 RMK AO2 SLP318 T00221072 53002=
201203060752 METAR KATL 060752Z 07005KT 10SM CLR 03/M08 A3046 RMK AO2 SLP317 T00331078=
201203060652 METAR KATL 060652Z 05007KT 10SM CLR 05/M09 A3045 RMK AO2 SLP315 T00501089=
201203060552 METAR KATL 060552Z 36005KT 10SM CLR 06/M09 A3045 RMK AO2 SLP315 T00561089 10106 20056 50006=
201203060452 METAR KATL 060452Z 01005KT 10SM CLR 07/M09 A3046 RMK AO2 SLP317 T00671094 401390056=
201203060352 METAR KATL 060352Z 36006KT 10SM CLR 08/M09 A3045 RMK AO2 SLP315 T00781094=
201203060252 METAR KATL 060252Z 01007KT 10SM CLR 08/M09 A3043 RMK AO2 SLP308 T00831094 52019=
201203060152 METAR KATL 060152Z 36007KT 10SM CLR 09/M09 A3041 RMK AO2 SLP301 T00891089=
201203060052 METAR KATL 060052Z 35008KT 10SM CLR 10/M09 A3039 RMK AO2 SLP295 T01001089=
201203052352 METAR KATL 052352Z 35007KT 10SM CLR 11/M08 A3038 RMK AO2 SLP289 T01061083 10139 20106 53020=
201203052252 METAR KATL 052252Z 35013G20KT 10SM CLR 12/M10 A3035 RMK AO2 SLP279 T01221100=
201203052152 METAR KATL 052152Z 35013G20KT 10SM CLR 13/M09 A3033 RMK AO2 SLP272 T01331089=
201203052052 METAR KATL 052052Z 33016G21KT 10SM CLR 14/M08 A3031 RMK AO2 PK WND 34027/2015 SLP266 T01391083 53002=
201203051952 METAR KATL 051952Z 33018G26KT 10SM CLR 13/M10 A3031 RMK AO2 PK WND 34030/1922 SLP264 T01331100=
201203051852 METAR KATL 051852Z 33015G24KT 10SM CLR 13/M08 A3031 RMK AO2 SLP265 T01331083=
201203051752 METAR KATL 051752Z 33017G27KT 10SM CLR 13/M07 A3031 RMK AO2 PK WND 31029/1707 SLP265 T01281067 10128 20083 51027=
201203051652 METAR KATL 051652Z 31021G27KT 10SM FEW080 12/M08 A3029 RMK AO2 PK WND 33032/1602 SLP261 T01221083=
201203051552 METAR KATL 051552Z 33019G29KT 10SM CLR 12/M08 A3027 RMK AO2 PK WND 32032/1533 SLP252 T01171078=
201203051452 METAR KATL 051452Z 31022G31KT 10SM CLR 11/M10 A3022 RMK AO2 PK WND 30039/1427 SLP237 T01111100 53041=
201203051352 METAR KATL 051352Z 30014G26KT 10SM CLR 11/M02 A3017 RMK AO2 PK WND 30026/1344 SLP220 T01111017=
201203051252 METAR KATL 051252Z 26012KT 10SM CLR 09/M03 A3014 RMK AO2 SLP208 T00891028=
201203051152 METAR KATL 051152Z 25009KT 10SM CLR 08/M03 A3010 RMK AO2 SLP195 70001 T00831033 10100 20061 53027=
201203051052 METAR KATL 051052Z 26012KT 10SM CLR 09/M04 A3007 RMK AO2 PK WND 24029/0957 SLP183 T00891039=
201203050952 METAR KATL 050952Z 24015G30KT 10SM CLR 10/M04 A3002 RMK AO2 PK WND 24030/0944 SLP166 T01001044=
201203050852 METAR KATL 050852Z 23015G19KT 10SM FEW100 09/M05 A3002 RMK AO2 SLP166 T00891050 56011=
201203050752 METAR KATL 050752Z 22013G20KT 10SM CLR 08/M05 A3002 RMK AO2 SLP166 T00831050=
201203050652 METAR KATL 050652Z 22011KT 10SM CLR 07/M05 A3003 RMK AO2 SLP172 T00721050=
201203050552 METAR KATL 050552Z 22009KT 10SM CLR 06/M05 A3005 RMK AO2 SLP179 T00611050 10094 20056 58009=
201203050452 METAR KATL 050452Z 22006KT 10SM CLR 06/M06 A3006 RMK AO2 SLP183 T00561056 401170044=
201203050352 METAR KATL 050352Z 22007KT 10SM CLR 06/M06 A3007 RMK AO2 SLP188 T00611056=
201203050252 METAR KATL 050252Z 22006KT 10SM CLR 06/M06 A3008 RMK AO2 SLP188 T00611061 53017=
201203050152 METAR KATL 050152Z 22004KT 10SM CLR 07/M06 A3005 RMK AO2 SLP181 T00671056=
201203050052 METAR KATL 050052Z 25003KT 10SM CLR 08/M07 A3004 RMK AO2 SLP178 T00781072=
201203042352 METAR KATL 042352Z 29008KT 10SM CLR 09/M07 A3002 RMK AO2 SLP170 T00891072 10117 20089 51012=
201203042252 METAR KATL 042252Z 30012G23KT 10SM FEW080 11/M08 A3002 RMK AO2 PK WND 30029/2206 SLP167 T01111083=
201203042152 METAR KATL 042152Z 30019G25KT 10SM FEW080 11/M08 A3000 RMK AO2 SLP162 T01111078=
201203042052 METAR KATL 042052Z 28015G22KT 10SM FEW080 10/M07 A2999 RMK AO2 PK WND 32028/1956 SLP157 T01001067 55003=
201203041952 METAR KATL 041952Z 33022G26KT 10SM FEW065 BKN085 BKN250 10/M07 A2998 RMK AO2 PK WND 30030/1927 SLP155 VIRGA N-NE & NW T01001072=
201203041852 METAR KATL 041852Z 29025G33KT 10SM BKN065 BKN090 10/M06 A2999 RMK AO2 PK WND 30033/1851 SLP156 VIRGA DSNT N-NE T01001061=
201203041752 METAR KATL 041752Z 28021G28KT 10SM BKN075 09/M06 A3000 RMK AO2 PK WND 29030/1721 SLP159 T00891061 10106 20044 56002=
201203041652 METAR KATL 041652Z 32017G21KT 10SM BKN070 09/M07 A3000 RMK AO2 PK WND 31029/1634 SLP161 T00891067=
201203041552 METAR KATL 041552Z 31016G28KT 10SM FEW055 09/M07 A3000 RMK AO2 PK WND 29028/1546 SLP159 T00891067=
201203041452 METAR KATL 041452Z COR 33015G23KT 10SM FEW100 08/M06 A3000 RMK AO2 SLP163 T00781056 51035=
201203041352 METAR KATL 041352Z 32011KT 10SM CLR 06/M05 A2999 RMK AO2 SLP157 T00611050=
201203041252 METAR KATL 041252Z 31011KT 10SM CLR 05/M05 A2994 RMK AO2 SLP143 T00501050=
201203041152 METAR KATL 041152Z 31010KT 10SM FEW250 05/M06 A2990 RMK AO2 SLP127 70014 T00501056 10100 20044 53023=
201203041052 METAR KATL 041052Z 31010KT 10SM CLR 06/M05 A2987 RMK AO2 SLP118 T00561050=
201203040952 METAR KATL 040952Z 30008KT 10SM CLR 06/M04 A2985 RMK AO2 SLP110 T00561044=
201203040852 METAR KATL 040852Z 31010G18KT 10SM SCT250 07/M04 A2983 RMK AO2 SLP101 T00671044 53004=
201203040752 METAR KATL 040752Z 31011KT 10SM SCT250 08/M04 A2982 RMK AO2 SLP098 T00781039=
201203040652 METAR KATL 040652Z 31011KT 10SM BKN120 09/M04 A2982 RMK AO2 SLP097 T00891039=
201203040552 METAR KATL 040552Z 32011G17KT 10SM BKN120 09/M04 A2982 RMK AO2 SLP097 T00941039 10111 20094 58006=
201203040452 METAR KATL 040452Z 32006KT 10SM FEW080 OVC110 10/M04 A2984 RMK AO2 SLP103 T01001039 401940083=
201203040352 METAR KATL 040352Z 32009KT 10SM FEW075 SCT090 OVC110 11/M04 A2984 RMK AO2 SLP106 T01061039=
201203040252 METAR KATL 040252Z 32010KT 10SM OVC090 10/M03 A2984 RMK AO2 SLP104 T01001028 51009=
201203040152 METAR KATL 040152Z 32007KT 10SM OVC085 11/M03 A2982 RMK AO2 SLP100 T01061033=
201203040052 METAR KATL 040052Z 32007KT 10SM OVC080 11/M04 A2984 RMK AO2 SLP104 T01061044=
201203032352 METAR KATL 032352Z 33011KT 10SM OVC090 11/M05 A2981 RMK AO2 SLP094 T01111050 10144 20111 53007=
201203032252 METAR KATL 032252Z 33010KT 10SM BKN080 BKN110 12/M05 A2979 RMK AO2 SLP088 T01171050=
201203032152 METAR KATL 032152Z 34012KT 10SM FEW080 OVC100 13/M05 A2977 RMK AO2 SLP077 T01281050=
201203032052 METAR KATL 032052Z 32017G22KT 10SM FEW085 SCT110 14/M04 A2979 RMK AO2 SLP084 T01391039 58004=
201203031952 METAR KATL 031952Z 31013G18KT 10SM SCT090 BKN120 BKN200 14/00 A2980 RMK AO2 SLP087 T01440000=
201203031852 METAR KATL 031852Z 34014G21KT 10SM BKN100 BKN200 14/00 A2980 RMK AO2 SLP087 T01390000=
201203031752 METAR KATL 031752Z 31015KT 10SM FEW100 BKN120 BKN200 13/02 A2980 RMK AO2 SLP087 60014 T01280022 10128 20083 58006=
201203031652 METAR KATL 031652Z 32013KT 10SM FEW120 SCT180 11/04 A2981 RMK AO2 SLP092 T01060039=
201203031552 METAR KATL 031552Z 32014G21KT 10SM FEW020 BKN110 OVC150 08/04 A2983 RMK AO2 SLP099 T00830044=
201203031452 METAR KATL 031452Z 32010KT 10SM SCT015 BKN100 OVC120 08/06 A2982 RMK AO2 RAB16E31 SLP095 P0000 60014 T00830056 53005=
201203031352 METAR KATL 031352Z 31009KT 10SM FEW030 OVC100 09/07 A2980 RMK AO2 RAE29 SLP087 P0005 T00890067=
201203031252 METAR KATL 031252Z VRB03KT 6SM -RA BR FEW030 OVC090 09/07 A2977 RMK AO2 SLP077 P0009 T00890067=
201203031152 METAR KATL 031152Z 32010G21KT 5SM RA BR SCT028 OVC075 09/07 A2980 RMK AO2 SLP089 P0014 60164 70195 T00940072 10189 20094 51030=
201203031052 METAR KATL 031052Z 33018G26KT 8SM -RA SCT015 BKN050 OVC075 09/07 A2979 RMK AO2 PK WND 33034/1016 WSHFT 1012 PRESRR SLP085 P0013 T00940067=
201203031047 SPECI KATL 031047Z 33020G26KT 8SM -RA SCT015 BKN050 OVC075 09/07 A2978 RMK AO2 PK WND 33034/1016 WSHFT 1012 PRESRR P0012=
201203031047 SPECI KATL 031047Z 33020G26KT 8SM -RA SCT015 BKN050 OVC075 09/07 A2978 RMK AO2 PK WND 33034/1016 WSHFT 1012 PRESRR P0012=
201203031029 SPECI KATL 031029Z 32021G30KT 5SM RA SCT008 BKN017 OVC031 11/08 A2977 RMK AO2 PK WND 33034/1016 WSHFT 1012 PRESRR P0009=
201203031029 SPECI KATL 031029Z 32021G30KT 5SM RA SCT008 BKN017 OVC031 11/08 A2977 RMK AO2 PK WND 33034/1016 WSHFT 1012 PRESRR P0009=
201203030952 METAR KATL 030952Z 23005KT 7SM -RA SCT005 BKN009 OVC055 16/14 A2971 RMK AO2 TSE10 SLP054 TS DSPTD P0015 T01610144=
201203030919 SPECI KATL 030919Z 23007KT 6SM RA BR BKN007 BKN020 OVC044 16/14 A2972 RMK AO2 TSE10 TS DSPTD P0009=
201203030919 SPECI KATL 030919Z 23007KT 6SM RA BR BKN007 BKN020 OVC044 16/14 A2972 RMK AO2 TSE10 TS DSPTD P0009=
201203030910 SPECI KATL 030910Z 23004KT 6SM RA BR SCT007 BKN020 OVC039 16/14 A2972 RMK AO2 TSE10 TS DSPTD P0006=
201203030910 SPECI KATL 030910Z 23004KT 6SM RA BR SCT007 BKN020 OVC039 16/14 A2972 RMK AO2 TSE10 TS DSPTD P0006=
201203030852 METAR KATL 030852Z 23008KT 6SM TSRA BR FEW009 OVC075CB 16/14 A2973 RMK AO2 TSE36B50 PRESRR SLP059 OCNL LTGIC E TS E MOV SE P0012 60122 T01560144 53015=
201203030850 SPECI KATL 030850Z 24008KT 6SM TSRA BR FEW009 OVC075CB 16/14 A2972 RMK AO2 TSE36B50 OCNL LTGIC E TS E MOV SE P0011=
201203030850 SPECI KATL 030850Z 24008KT 6SM TSRA BR FEW009 OVC075CB 16/14 A2972 RMK AO2 TSE36B50 OCNL LTGIC E TS E MOV SE P0011=
201203030842 SPECI KATL 030842Z 23010KT 5SM RA BR BKN080 OVC090 16/14 A2971 RMK AO2 TSE36 TS MOV SE P0010=
201203030842 SPECI KATL 030842Z 23010KT 5SM RA BR BKN080 OVC090 16/14 A2971 RMK AO2 TSE36 TS MOV SE P0010=
201203030824 SPECI KATL 030824Z 22008KT 8SM -TSRA FEW007 BKN070CB OVC085 16/14 A2971 RMK AO2 OCNL LTGIC E TS E MOV SE P0005=
201203030824 SPECI KATL 030824Z 22008KT 8SM -TSRA FEW007 BKN070CB OVC085 16/14 A2971 RMK AO2 OCNL LTGIC E TS E MOV SE P0005=
201203030752 METAR KATL 030752Z 25007G15KT 3SM +TSRA BR FEW009 OVC017CB 16/14 A2969 RMK AO2 PK WND 27030/0738 PRESFR SLP045 FRQ LTGICCG ALQDS TS ALQDS MOV E P0097 T01560139=
201203030750 SPECI KATL 030750Z 27010G19KT 2SM R09R/4500VP6000FT +TSRA BR FEW009 OVC017CB 16/14 A2969 RMK AO2 PK WND 27030/0738 FRQ LTGICCG ALQDS TS ALQDS MOV E P0095=
201203030750 SPECI KATL 030750Z 27010G19KT 2SM R09R/4500VP6000FT +TSRA BR FEW009 OVC017CB 16/14 A2969 RMK AO2 PK WND 27030/0738 FRQ LTGICCG ALQDS TS ALQDS MOV E P0095=
201203030736 SPECI KATL 030736Z 27019G27KT 1 1/4SM R09R/4500VP6000FT +TSRA BR BKN009CB OVC017 16/14 A2972 RMK AO2 PK WND 28027/0736 PRESRR FRQ LTGICCG W-N TS W-N MOV NE P0060=
201203030736 SPECI KATL 030736Z 27019G27KT 1 1/4SM R09R/4500VP6000FT +TSRA BR BKN009CB OVC017 16/14 A2972 RMK AO2 PK WND 28027/0736 PRESRR FRQ LTGICCG W-N TS W-N MOV NE P0060=
201203030729 SPECI KATL 030729Z 28020G27KT 2SM +TSRA BR BKN009CB OVC017 17/15 A2970 RMK AO2 PK WND 27027/0725 OCNL LTGIC OHD TS OHD MOV NE P0041=
201203030729 SPECI KATL 030729Z 28020G27KT 2SM +TSRA BR BKN009CB OVC017 17/15 A2970 RMK AO2 PK WND 27027/0725 OCNL LTGIC OHD TS OHD MOV NE P0041=
201203030721 SPECI KATL 030721Z 27008KT 3SM TSRA BR BKN009CB BKN015 OVC027 18/17 A2968 RMK AO2 OCNL LTGIC OHD TS OHD MOV NE P0029=
201203030721 SPECI KATL 030721Z 27008KT 3SM TSRA BR BKN009CB BKN015 OVC027 18/17 A2968 RMK AO2 OCNL LTGIC OHD TS OHD MOV NE P0029=
201203030706 SPECI KATL 030706Z 24008G16KT 2 1/2SM +TSRA BR BKN011CB BKN022 OVC065 19/17 A2967 RMK AO2 FRQ LTGICCG OHD TS OHD MOV NE P0013=
201203030706 SPECI KATL 030706Z 24008G16KT 2 1/2SM +TSRA BR BKN011CB BKN022 OVC065 19/17 A2967 RMK AO2 FRQ LTGICCG OHD TS OHD MOV NE P0013=
201203030652 METAR KATL 030652Z 22010KT 5SM TSRA BR SCT009 BKN014CB OVC022 19/17 A2968 RMK AO2 SLP041 OCNL LTGICCG W-N-NE TS W-N-NE MOV NE P0013 T01890172=
201203030627 SPECI KATL 030627Z 20010G15KT 8SM -TSRA BKN007CB BKN014 OVC024 19/17 A2967 RMK AO2 PRESFR OCNL LTGICCG W-N TS W-N MOV NE P0008=
201203030627 SPECI KATL 030627Z 20010G15KT 8SM -TSRA BKN007CB BKN014 OVC024 19/17 A2967 RMK AO2 PRESFR OCNL LTGICCG W-N TS W-N MOV NE P0008=
201203030613 SPECI KATL 030613Z 22006KT 6SM TSRA BR SCT009 BKN014CB OVC032 19/17 A2969 RMK AO2 OCNL LTGICCG NW-NE TS NW-NE MOV NE P0007=
201203030613 SPECI KATL 030613Z 22006KT 6SM TSRA BR SCT009 BKN014CB OVC032 19/17 A2969 RMK AO2 OCNL LTGICCG NW-NE TS NW-NE MOV NE P0007=
201203030552 METAR KATL 030552Z 21013G16KT 3SM +TSRA BR SCT014 BKN025CB OVC040 19/17 A2968 RMK AO2 PK WND 23028/0454 SLP043 FRQ LTGICCG SW-NW-NE TS SW-NW-NE MOV NE P0026 60031 T01890167 10217 20189 58014=
201203030539 SPECI KATL 030539Z 22010G21KT 5SM TSRA BR FEW015 SCT025CB OVC080 19/17 A2969 RMK AO2 PK WND 23028/0454 FRQ LTGICCG SW-NW-NE TS SW-NW-NE MOV NE P0019=
201203030539 SPECI KATL 030539Z 22010G21KT 5SM TSRA BR FEW015 SCT025CB OVC080 19/17 A2969 RMK AO2 PK WND 23028/0454 FRQ LTGICCG SW-NW-NE TS SW-NW-NE MOV NE P0019=
201203030458 SPECI KATL 030458Z 22012G28KT 5SM TSRA FEW014 BKN022CB OVC035 19/17 A2970 RMK AO2 PK WND 23028/0454 FRQ LTGICCG N-NE NW TS N-NE NW MOV NE P0009=
201203030458 SPECI KATL 030458Z 22012G28KT 5SM TSRA FEW014 BKN022CB OVC035 19/17 A2970 RMK AO2 PK WND 23028/0454 FRQ LTGICCG N-NE NW TS N-NE NW MOV NE P0009=
201203030454 SPECI KATL 030454Z 23020G28KT 1 1/2SM R09R/6000VP6000FT +TSRA SCT014 BKN022CB OVC035 19/17 A2971 RMK AO2 PK WND 23028/0454 FRQ LTGICCG OHD-SW TS OHD-SW MOV NE P0004=
201203030454 SPECI KATL 030454Z 23020G28KT 1 1/2SM R09R/6000VP6000FT +TSRA SCT014 BKN022CB OVC035 19/17 A2971 RMK AO2 PK WND 23028/0454 FRQ LTGICCG OHD-SW TS OHD-SW MOV NE P0004=
201203030452 METAR KATL 030452Z 22020G28KT 3SM R09R/6000VP6000FT -TSRA FEW014 SCT022CB OVC035 20/16 A2971 RMK AO2 PK WND 23028/0452 TSB46RAB04 SLP053 FRQ LTGICCG SW-W TS SW-W MOV NE P0004 T02000161 402500172=
201203030446 SPECI KATL 030446Z 21014G20KT 4SM +TSRA SCT022CB BKN035 OVC090 20/16 A2970 RMK AO2 PK WND 22028/0401 TSB46RAB04 OCNL LTGIC SW TS SW MOV NE P0003 402500172=
201203030446 SPECI KATL 030446Z 21014G20KT 4SM +TSRA SCT022CB BKN035 OVC090 20/16 A2970 RMK AO2 PK WND 22028/0401 TSB46RAB04 OCNL LTGIC SW TS SW MOV NE P0003 402500172=
201203030415 SPECI KATL 030415Z 22015G23KT 10SM -RA BKN027 BKN034 OVC045 21/16 A2971 RMK AO2 PK WND 22028/0401 RAB04 P0000=
201203030415 SPECI KATL 030415Z 22015G23KT 10SM -RA BKN027 BKN034 OVC045 21/16 A2971 RMK AO2 PK WND 22028/0401 RAB04 P0000=
201203030352 METAR KATL 030352Z 21016G24KT 10SM SCT032 BKN050 BKN110 OVC200 21/15 A2971 RMK AO2 PK WND 20028/0302 RAB21E42 SLP052 P0000 T02110150=
201203030252 METAR KATL 030252Z 21014G22KT 10SM SCT032 BKN110 BKN250 21/15 A2972 RMK AO2 SLP058 FRQ LTG DSNT NE 60001 T02110150 58012=
201203030152 METAR KATL 030152Z 22007KT 10SM BKN034 BKN045 OVC100 21/16 A2976 RMK AO2 RAB00E51 SLP069 FRQ LTG DSNT NW P0001 T02110156=
201203030052 METAR KATL 030052Z 19014KT 10SM FEW040 SCT100 BKN200 21/16 A2975 RMK AO2 SLP066 OCNL LTG DSNT SW-W T02110156=
201203022352 METAR KATL 022352Z 21012G23KT 10SM FEW040 SCT200 BKN250 22/14 A2976 RMK AO2 RAE09 SLP071 TCU DSNT SE P0000 60000 T02170144 10250 20211 56006=
201203022252 METAR KATL 022252Z 23007KT 10SM -RA FEW040CB SCT060 BKN090 BKN200 22/15 A2976 RMK AO2 RAB23E35B52 SLP071 CB W-NW MOV NE TCU NE P0000 T02170150=
201203022152 METAR KATL 022152Z 21016G26KT 10SM FEW050CB BKN070 BKN090 OVC200 24/13 A2976 RMK AO2 PK WND 22027/2122 SLP069 CB SW-W-NW MOV NE SHRA SW-W-NW BINOVC DSNT E T02390128=
201203022052 METAR KATL 022052Z 21014G26KT 10SM BKN045TCU BKN070 BKN150 BKN200 24/13 A2978 RMK AO2 PK WND 22029/2005 SLP076 TCU OHD-S-SW-W-NW T02390133 56019=
201203021952 METAR KATL 021952Z 21020G32KT 10SM SCT046TCU BKN065 BKN150 BKN200 24/13 A2979 RMK AO2 PK WND 22032/1948 SLP079 TCU N-NE & S & NW ACC S T02440133=
201203021852 METAR KATL 021852Z 20015G23KT 10SM FEW040 SCT050 BKN150 BKN200 24/14 A2980 RMK AO2 PK WND 20028/1830 SLP085 T02390144=
201203021752 METAR KATL 021752Z 21015G21KT 10SM BKN030 BKN150 BKN200 23/16 A2984 RMK AO2 PK WND 21027/1710 SLP097 T02280156 10228 20178 58011=
201203021652 METAR KATL 021652Z 21016G24KT 10SM FEW025 BKN150 BKN200 22/16 A2986 RMK AO2 PK WND 23029/1632 SLP103 T02220156=
201203021649 SPECI KATL 021649Z 21017G24KT 10SM FEW025 BKN150 BKN200 22/16 A2986 RMK AO2 PK WND 23029/1632=
201203021649 SPECI KATL 021649Z 21017G24KT 10SM FEW025 BKN150 BKN200 22/16 A2986 RMK AO2 PK WND 23029/1632=
201203021552 METAR KATL 021552Z 21016G23KT 10SM BKN020 BKN200 BKN250 21/16 A2987 RMK AO2 SLP108 T02110161=
201203021452 METAR KATL 021452Z 22015G25KT 10SM BKN015 BKN018 OVC020 19/16 A2990 RMK AO2 SLP118 T01940156 58002=
201203021352 METAR KATL 021352Z 21009KT 10SM OVC015 18/15 A2991 RMK AO2 SLP122 T01830150=
201203021252 METAR KATL 021252Z 21009KT 10SM BKN015 18/14 A2990 RMK AO2 SLP119 T01780144=
201203021152 METAR KATL 021152Z 22010G19KT 10SM BKN012 BKN200 18/15 A2990 RMK AO2 SLP119 T01780150 10183 20172 53008=
201203021052 METAR KATL 021052Z 21008KT 10SM BKN014 BKN180 18/15 A2988 RMK AO2 SLP113 T01780150=
201203021050 SPECI KATL 021050Z 22007KT 10SM BKN014 BKN180 18/15 A2989 RMK AO2=
201203021050 SPECI KATL 021050Z 22007KT 10SM BKN014 BKN180 18/15 A2989 RMK AO2=
201203020952 METAR KATL 020952Z 22011G15KT 10SM FEW012 BKN180 18/16 A2987 RMK AO2 SLP109 T01780156=
201203020852 METAR KATL 020852Z 22008KT 10SM FEW009 SCT013 BKN180 18/16 A2988 RMK AO2 SLP110 T01830161 58006=
201203020849 SPECI KATL 020849Z 22009KT 9SM FEW009 BKN180 18/16 A2988 RMK AO2=
201203020849 SPECI KATL 020849Z 22009KT 9SM FEW009 BKN180 18/16 A2988 RMK AO2=
201203020817 SPECI KATL 020817Z 23009KT 9SM FEW009 BKN013 BKN180 18/16 A2989 RMK AO2=
201203020817 SPECI KATL 020817Z 23009KT 9SM FEW009 BKN013 BKN180 18/16 A2989 RMK AO2=
201203020752 METAR KATL 020752Z 23009KT 9SM BKN009 18/17 A2988 RMK AO2 SLP112 CIG 008V012 T01830167=
201203020652 METAR KATL 020652Z 21008KT 8SM BKN008 BKN023 BKN050 BKN180 18/17 A2989 RMK AO2 SLP115 T01830167=
201203020649 SPECI KATL 020649Z 21008KT 8SM BKN008 BKN023 BKN070 BKN180 18/17 A2989 RMK AO2=
201203020649 SPECI KATL 020649Z 21008KT 8SM BKN008 BKN023 BKN070 BKN180 18/17 A2989 RMK AO2=
201203020639 SPECI KATL 020639Z 21007KT 8SM FEW006 SCT023 BKN050 BKN180 18/17 A2990 RMK AO2=
201203020639 SPECI KATL 020639Z 21007KT 8SM FEW006 SCT023 BKN050 BKN180 18/17 A2990 RMK AO2=
201203020552 METAR KATL 020552Z 21007KT 10SM FEW006 BKN025 BKN080 OVC250 18/17 A2990 RMK AO2 SLP117 T01830167 10211 20178 58002=
201203020540 SPECI KATL 020540Z 21007KT 9SM SCT006 BKN022 OVC090 18/17 A2990 RMK AO2=
201203020540 SPECI KATL 020540Z 21007KT 9SM SCT006 BKN022 OVC090 18/17 A2990 RMK AO2=
201203020527 SPECI KATL 020527Z 19007KT 8SM BKN006 BKN035 OVC250 18/17 A2989 RMK AO2=
201203020527 SPECI KATL 020527Z 19007KT 8SM BKN006 BKN035 OVC250 18/17 A2989 RMK AO2=
201203020500 SPECI KATL 020500Z 21004KT 8SM SCT007 BKN035 BKN060 OVC250 18/17 A2989 RMK AO2=
201203020500 SPECI KATL 020500Z 21004KT 8SM SCT007 BKN035 BKN060 OVC250 18/17 A2989 RMK AO2=
201203020452 METAR KATL 020452Z 22005KT 9SM BKN007 BKN055 OVC250 18/17 A2990 RMK AO2 SLP117 T01830167 402500161=
201203020417 SPECI KATL 020417Z 22004KT 10SM FEW008 SCT060 OVC250 18/16 A2990 RMK AO2=
201203020417 SPECI KATL 020417Z 22004KT 10SM FEW008 SCT060 OVC250 18/16 A2990 RMK AO2=
201203020403 SPECI KATL 020403Z 22004KT 10SM BKN008 BKN060 OVC250 18/16 A2990 RMK AO2=
201203020403 SPECI KATL 020403Z 22004KT 10SM BKN008 BKN060 OVC250 18/16 A2990 RMK AO2=
201203020356 SPECI KATL 020356Z 22006KT 10SM FEW008 SCT050 BKN250 18/16 A2991 RMK AO2=
201203020356 SPECI KATL 020356Z 22006KT 10SM FEW008 SCT050 BKN250 18/16 A2991 RMK AO2=
201203020352 METAR KATL 020352Z 22006KT 10SM FEW050 BKN250 18/16 A2991 RMK AO2 SLP123 T01830161=
201203020252 METAR KATL 020252Z 21005KT 10SM BKN250 18/16 A2990 RMK AO2 SLP121 T01830156 51003=
201203020152 METAR KATL 020152Z 21005KT 10SM BKN250 19/16 A2990 RMK AO2 SLP120 T01890156=
201203020052 METAR KATL 020052Z 22006KT 10SM FEW200 BKN250 20/16 A2990 RMK AO2 SLP121 T02000156=
201203012352 METAR KATL 012352Z 22006KT 10SM FEW200 BKN250 21/15 A2990 RMK AO2 SLP118 T02110150 10250 20211 53004=
201203012252 METAR KATL 012252Z 22008KT 10SM FEW055 SCT200 BKN250 23/13 A2989 RMK AO2 SLP115 T02280128=
201203012152 METAR KATL 012152Z 22009KT 10SM FEW050 BKN060 BKN250 23/12 A2989 RMK AO2 SLP114 T02330117=
201203012052 METAR KATL 012052Z 29009KT 10SM FEW050 BKN060 BKN250 24/12 A2988 RMK AO2 SLP112 T02390122 56022=
201203011952 METAR KATL 011952Z 25009G14KT 10SM FEW050 SCT090 SCT250 24/12 A2990 RMK AO2 SLP116 T02440117=
201203011852 METAR KATL 011852Z 26009KT 10SM FEW050 SCT090 SCT250 24/11 A2992 RMK AO2 SLP125 ACC NW-N T02390111=
201203011752 METAR KATL 011752Z 25008KT 10SM FEW040 SCT090 SCT250 23/11 A2995 RMK AO2 SLP135 ACC W-NW-N 60000 T02280111 10228 20167 58008=
201203011652 METAR KATL 011652Z 25007KT 10SM FEW030 SCT070 BKN250 22/12 A2997 RMK AO2 SLP142 T02170117=
201203011552 METAR KATL 011552Z 31006KT 10SM FEW020 SCT070 BKN250 19/16 A2998 RMK AO2 SLP145 T01940156=
201203011452 METAR KATL 011452Z 30007KT 10SM FEW010 BKN080 BKN250 18/16 A2998 RMK AO2 SLP146 60000 T01830156 52010=
201203011352 METAR KATL 011352Z 25003KT 10SM BKN080 OVC250 17/16 A2997 RMK AO2 SLP145 T01720161=
201203011252 METAR KATL 011252Z 26004KT 10SM FEW065 BKN100 OVC250 17/16 A2995 RMK AO2 RAE16 SLP138 P0000 T01720156=
