##########################################################
# Query made at 04/19/2024 23:25:59 UTC
# Time interval: from 02/01/2012 12:00  to 02/29/2012 12:59  UTC
##########################################################

##########################################################
# KATL, Atlanta, Hartsfield - Jackson Atlanta International Airport (United States)
# WMO index: 72219. WIGOS ID: 0-20000-0-72219
# Latitude 33-38-59N. Longitude 084-25-00W. Altitude 312 m.
##########################################################

201202291252 METAR KATL 291252Z 21009KT 2 1/2SM BR BKN005 OVC008 16/14 A3013 RMK AO2 SFC VIS 6 SLP200 T01610144=
201202291229 SPECI KATL 291229Z 20011G17KT 2 1/2SM BR OVC005 16/14 A3013 RMK AO2 SFC VIS 6=
201202291229 SPECI KATL 291229Z 20011G17KT 2 1/2SM BR OVC005 16/14 A3013 RMK AO2 SFC VIS 6=
201202291152 METAR KATL 291152Z 17013KT 1 1/2SM BR OVC003 16/14 A3011 RMK AO2 SFC VIS 3 SLP194 70029 T01560144 10156 20150 58021=
201202291052 METAR KATL 291052Z 20009KT 1 1/2SM BR OVC004 16/14 A3016 RMK AO2 SFC VIS 6 SLP211 T01560144=
201202291030 SPECI KATL 291030Z 20008KT 1 1/2SM BR OVC004 16/14 A3017 RMK AO2 SFC VIS 4=
201202291030 SPECI KATL 291030Z 20008KT 1 1/2SM BR OVC004 16/14 A3017 RMK AO2 SFC VIS 4=
201202290952 METAR KATL 290952Z 21010KT 3SM BR OVC004 16/14 A3017 RMK AO2 SFC VIS 5 SLP214 T01560144=
201202290852 METAR KATL 290852Z 20009KT 3SM BR OVC004 16/14 A3018 RMK AO2 SFC VIS 5 SLP216 T01560139 56017=
201202290815 SPECI KATL 290815Z 19008KT 3SM BR OVC004 16/14 A3019 RMK AO2 SFC VIS 5=
201202290815 SPECI KATL 290815Z 19008KT 3SM BR OVC004 16/14 A3019 RMK AO2 SFC VIS 5=
201202290752 METAR KATL 290752Z 19009KT 2SM BR OVC004 16/14 A3019 RMK AO2 SFC VIS 4 SLP223 T01560139=
201202290652 METAR KATL 290652Z 18007KT 2SM BR OVC004 15/14 A3020 RMK AO2 SFC VIS 5 SLP224 T01500139=
201202290633 SPECI KATL 290633Z 18008KT 2SM BR OVC004 15/14 A3021 RMK AO2 SFC VIS 5=
201202290633 SPECI KATL 290633Z 18008KT 2SM BR OVC004 15/14 A3021=
201202290552 METAR KATL 290552Z 18007KT 9SM OVC005 15/14 A3023 RMK AO2 SLP233 60013 T01500139 10150 20139 56015=
201202290452 METAR KATL 290452Z 17007KT 8SM OVC005 15/13 A3024 RMK AO2 SLP237 CIG 004V007 T01500133 401670100=
201202290352 METAR KATL 290352Z 13004KT 7SM OVC006 14/13 A3026 RMK AO2 SLP244 CIG 004V008 T01440128=
201202290252 METAR KATL 290252Z 14005KT 9SM OVC006 14/13 A3027 RMK AO2 RAE43 SLP251 CIG 004V009 P0000 60013 T01440128 55003=
201202290152 METAR KATL 290152Z 12005KT 7SM -RA OVC006 14/13 A3027 RMK AO2 DZB39E52 SLP250 CIG 004V009 P0001 T01440128=
201202290104 SPECI KATL 290104Z 12005KT 9SM -RA BKN006 OVC014 14/13 A3027 RMK AO2 P0001=
201202290104 SPECI KATL 290104Z 12005KT 9SM -RA BKN006 OVC014 14/13 A3027 RMK AO2 P0001=
201202290052 METAR KATL 290052Z 12006KT 5SM -RA BR SCT006 BKN014 OVC035 14/13 A3028 RMK AO2 SLP252 SCT006 V BKN P0012 T01440128=
201202290043 SPECI KATL 290043Z 12005KT 4SM -RA BR SCT006 BKN025 OVC035 14/13 A3028 RMK AO2 P0011=
201202290043 SPECI KATL 290043Z 12005KT 4SM -RA BR SCT006 BKN025 OVC035 14/13 A3028 RMK AO2 P0011=
201202290035 SPECI KATL 290035Z 13006KT 2 1/2SM +RA BR SCT006 BKN025 OVC035 14/13 A3027 RMK AO2 P0010=
201202290035 SPECI KATL 290035Z 13006KT 2 1/2SM +RA BR SCT006 BKN025 OVC035 14/13 A3027 RMK AO2 P0010=
201202290025 SPECI KATL 290025Z 12006KT 5SM -RA BR FEW006 BKN027 OVC035 14/13 A3028 RMK AO2 P0009=
201202290025 SPECI KATL 290025Z 12006KT 5SM -RA BR FEW006 BKN027 OVC035 14/13 A3028 RMK AO2 P0009=
201202290019 SPECI KATL 290019Z 13007KT 2 1/2SM +RA BR FEW006 BKN027 OVC035 14/13 A3028 RMK AO2 P0006=
201202290019 SPECI KATL 290019Z 13007KT 2 1/2SM +RA BR FEW006 BKN027 OVC035 14/13 A3028 RMK AO2 P0006=
201202290001 SPECI KATL 290001Z 13008KT 5SM -RA BR FEW007 SCT020 OVC032 14/13 A3028 RMK AO2 P0002=
201202290001 SPECI KATL 290001Z 13008KT 5SM -RA BR FEW007 SCT020 OVC032 14/13 A3028 RMK AO2 P0002=
201202282352 METAR KATL 282352Z 13007KT 5SM -RA BR FEW008 BKN020 OVC032 14/13 A3028 RMK AO2 SLP254 P0009 60016 T01440128 10167 20144 53001=
201202282325 SPECI KATL 282325Z 10007KT 4SM -RA BR SCT026 BKN034 OVC045 14/13 A3028 RMK AO2 P0007=
201202282325 SPECI KATL 282325Z 10007KT 4SM -RA BR SCT026 BKN034 OVC045 14/13 A3028 RMK AO2 P0007=
201202282313 SPECI KATL 282313Z 14004KT 3SM RA BR FEW018 BKN026 OVC035 14/13 A3028 RMK AO2 P0003=
201202282313 SPECI KATL 282313Z 14004KT 3SM RA BR FEW018 BKN026 OVC035 14/13 A3028 RMK AO2 P0003=
201202282252 METAR KATL 282252Z 12006KT 7SM -RA BKN032 OVC075 15/12 A3027 RMK AO2 RAB15 SLP249 P0003 T01500122=
201202282152 METAR KATL 282152Z 11006KT 10SM FEW015 BKN035 OVC070 16/12 A3027 RMK AO2 RAB13E22 SLP250 P0000 T01560117=
201202282052 METAR KATL 282052Z 10008KT 10SM FEW015 BKN035 BKN070 16/12 A3028 RMK AO2 RAE21 SLP253 P0000 60004 T01560117 56020=
201202281952 METAR KATL 281952Z 11008KT 10SM -RA FEW015 SCT040 BKN070 16/12 A3029 RMK AO2 RAE17B43 SLP256 P0001 T01560117=
201202281927 SPECI KATL 281927Z 11011G14KT 10SM FEW009 SCT060 BKN110 16/12 A3030 RMK AO2 RAE17 P0001=
201202281927 SPECI KATL 281927Z 11011G14KT 10SM FEW009 SCT060 BKN110 16/12 A3030 RMK AO2 RAE17 P0001=
201202281852 METAR KATL 281852Z 12004KT 8SM -RA FEW020 BKN060 OVC080 14/12 A3032 RMK AO2 RAB32 SLP266 P0003 T01440122=
201202281752 METAR KATL 281752Z 13007KT 10SM FEW030 SCT050 BKN090 17/11 A3034 RMK AO2 SLP272 60000 T01670111 10167 20111 58007=
201202281656 SPECI KATL 281656Z 12008KT 10SM FEW020 BKN045 OVC090 16/10 A3036 RMK AO2 VIRGA S SHRA NW-N=
201202281656 SPECI KATL 281656Z 12008KT 10SM FEW020 BKN045 OVC090 16/10 A3036 RMK AO2 VIRGA S SHRA NW-N=
201202281652 METAR KATL 281652Z 12009KT 10SM FEW020 BKN050 BKN095 16/10 A3036 RMK AO2 RAB08E37 SLP281 P0000 T01560100=
201202281552 METAR KATL 281552Z 11008KT 10SM FEW020 BKN050 OVC080 15/10 A3036 RMK AO2 SLP281 T01500100=
201202281452 METAR KATL 281452Z 11006KT 10SM BKN065 BKN075 BKN120 13/10 A3036 RMK AO2 SLP281 T01330100 51009=
201202281352 METAR KATL 281352Z 09004KT 10SM BKN080 BKN110 12/09 A3036 RMK AO2 SLP280 T01170089=
201202281252 METAR KATL 281252Z 07005KT 10SM BKN085 BKN110 12/09 A3035 RMK AO2 SLP277 T01170089=
201202281152 METAR KATL 281152Z 00000KT 10SM SCT090 BKN110 12/09 A3033 RMK AO2 SLP271 60000 T01170089 10122 20100 51007=
201202281052 METAR KATL 281052Z 00000KT 10SM SCT090 BKN110 11/09 A3033 RMK AO2 RAB10E35 SLP270 P0000 T01110089=
201202280952 METAR KATL 280952Z 00000KT 7SM BKN100 OVC130 11/08 A3032 RMK AO2 SLP265 T01110083=
201202280852 METAR KATL 280852Z 00000KT 10SM BKN100 11/08 A3031 RMK AO2 SLP263 T01060078 58007=
201202280752 METAR KATL 280752Z 00000KT 10SM BKN110 11/08 A3033 RMK AO2 SLP267 T01110083=
201202280652 METAR KATL 280652Z 00000KT 10SM SCT250 12/08 A3034 RMK AO2 SLP273 T01170083=
201202280552 METAR KATL 280552Z 00000KT 10SM SCT250 12/08 A3034 RMK AO2 SLP273 T01220083 10161 20117 58006=
201202280452 METAR KATL 280452Z 00000KT 10SM FEW200 BKN250 12/08 A3035 RMK AO2 SLP277 T01170078 401890083=
201202280352 METAR KATL 280352Z 00000KT 10SM BKN200 BKN250 14/08 A3036 RMK AO2 SLP281 T01390083=
201202280252 METAR KATL 280252Z 00000KT 10SM BKN200 BKN250 14/08 A3036 RMK AO2 SLP281 T01390083 53006=
201202280152 METAR KATL 280152Z 00000KT 10SM SCT200 BKN250 14/08 A3034 RMK AO2 SLP277 T01440078=
201202280052 METAR KATL 280052Z 00000KT 10SM BKN200 OVC250 16/08 A3034 RMK AO2 SLP275 T01610078=
201202272352 METAR KATL 272352Z 00000KT 10SM FEW150 BKN200 OVC250 17/08 A3034 RMK AO2 SLP273 T01670078 10189 20133 53005=
201202272252 METAR KATL 272252Z 00000KT 10SM SCT200 BKN250 18/08 A3033 RMK AO2 SLP269 T01780078=
201202272152 METAR KATL 272152Z 00000KT 10SM FEW020 SCT200 BKN250 18/08 A3031 RMK AO2 SLP264 T01780078=
201202272052 METAR KATL 272052Z VRB04KT 10SM FEW020 BKN250 18/08 A3032 RMK AO2 SLP267 T01830078 56023=
201202271952 METAR KATL 271952Z 00000KT 10SM FEW020 SCT050 BKN250 17/08 A3033 RMK AO2 SLP268 T01720083=
201202271852 METAR KATL 271852Z 00000KT 10SM SCT020 SCT050 BKN250 15/08 A3036 RMK AO2 SLP279 T01500083=
201202271836 SPECI KATL 271836Z 09003KT 10SM SCT019 BKN250 16/08 A3036 RMK AO2 BKN017 V SCT=
201202271836 SPECI KATL 271836Z 09003KT 10SM SCT019 BKN250 16/08 A3036 RMK AO2 BKN017 V SCT=
201202271828 SPECI KATL 271828Z 00000KT 10SM BKN017 BKN250 15/08 A3037 RMK AO2 BKN017 V SCT=
201202271828 SPECI KATL 271828Z 00000KT 10SM BKN017 BKN250 15/08 A3037 RMK AO2 BKN017 V SCT=
201202271752 METAR KATL 271752Z 00000KT 10SM BKN014 BKN017 BKN020 13/08 A3039 RMK AO2 SLP292 T01330083 10139 20083 58009=
201202271652 METAR KATL 271652Z 00000KT 10SM BKN012 BKN017 OVC020 12/08 A3041 RMK AO2 SLP301 T01170078=
201202271625 SPECI KATL 271625Z 00000KT 9SM BKN011 BKN017 OVC020 12/08 A3041 RMK AO2=
201202271625 SPECI KATL 271625Z 00000KT 9SM BKN011 BKN017 OVC020 12/08 A3041 RMK AO2=
201202271552 METAR KATL 271552Z 08004KT 6SM HZ BKN007 BKN009 OVC012 11/07 A3041 RMK AO2 SLP301 T01060072=
201202271456 SPECI KATL 271456Z 10004KT 2 1/2SM BR OVC005 09/07 A3042 RMK AO2 SFC VIS 5=
201202271456 SPECI KATL 271456Z 10004KT 2 1/2SM BR OVC005 09/07 A3042 RMK AO2 SFC VIS 5=
201202271452 METAR KATL 271452Z 10003KT 1SM BR OVC005 09/07 A3042 RMK AO2 SFC VIS 5 SLP302 T00940072 51008=
201202271450 SPECI KATL 271450Z 11004KT 1SM BR OVC005 09/07 A3042 RMK AO2 SFC VIS 5=
201202271450 SPECI KATL 271450Z 11004KT 1SM BR OVC005 09/07 A3042 RMK AO2 SFC VIS 5=
201202271352 METAR KATL 271352Z VRB06KT 1SM BR OVC004 09/07 A3040 RMK AO2 SFC VIS 4 SLP296 T00890072=
201202271252 METAR KATL 271252Z 07005KT 1SM BR OVC004 09/07 A3039 RMK AO2 SFC VIS 3 SLP294 T00890072=
201202271206 SPECI KATL 271206Z 07005KT 1SM BR OVC004 09/07 A3038 RMK AO2 SFC VIS 4=
201202271206 SPECI KATL 271206Z 07005KT 1SM BR OVC004 09/07 A3038 RMK AO2 SFC VIS 4=
201202271152 METAR KATL 271152Z 07006KT 5SM BR OVC004 08/07 A3038 RMK AO2 SLP289 60000 T00830072 10117 20083 51011=
201202271136 SPECI KATL 271136Z 07006KT 5SM BR OVC004 09/07 A3037 RMK AO2=
201202271136 SPECI KATL 271136Z 07006KT 5SM BR OVC004 09/07 A3037 RMK AO2=
201202271052 METAR KATL 271052Z 08005KT 4SM BR BKN006 OVC012 09/07 A3037 RMK AO2 DZE44 SLP285 P0000 T00890072=
201202271014 SPECI KATL 271014Z 09004KT 4SM -DZ BR BKN004 OVC009 08/07 A3036 RMK AO2 P0000=
201202271014 SPECI KATL 271014Z 09004KT 4SM -DZ BR BKN004 OVC009 08/07 A3036 RMK AO2 P0000=
201202270952 METAR KATL 270952Z 08004KT 5SM -DZ BR BKN009 OVC013 08/07 A3036 RMK AO2 DZB52 SLP282 P0000 T00830067=
201202270852 METAR KATL 270852Z 13003KT 5SM HZ BKN014 OVC022 09/07 A3035 RMK AO2 SLP277 T00940067 58002=
201202270752 METAR KATL 270752Z 16004KT 10SM OVC018 11/04 A3035 RMK AO2 SLP278 T01060039=
201202270652 METAR KATL 270652Z 15010KT 10SM BKN020 OVC026 11/02 A3035 RMK AO2 SLP279 T01110017=
201202270552 METAR KATL 270552Z 14004KT 10SM OVC027 12/M02 A3035 RMK AO2 SLP279 T01171022 10139 20111 56002=
201202270536 SPECI KATL 270536Z 16005KT 10SM OVC029 12/M02 A3035 RMK AO2=
201202270536 SPECI KATL 270536Z 16005KT 10SM OVC029 12/M02 A3035 RMK AO2=
201202270452 METAR KATL 270452Z 14004KT 10SM OVC033 12/M03 A3035 RMK AO2 SLP280 T01171028 401610017=
201202270352 METAR KATL 270352Z 13004KT 10SM OVC037 12/M03 A3035 RMK AO2 SLP280 T01171033=
201202270252 METAR KATL 270252Z 14003KT 10SM BKN050 OVC065 12/M04 A3036 RMK AO2 SLP283 T01171039 51013=
201202270152 METAR KATL 270152Z 16007KT 10SM BKN065 BKN180 12/M04 A3035 RMK AO2 SLP280 T01171039=
201202270052 METAR KATL 270052Z 14003KT 10SM FEW220 13/M05 A3034 RMK AO2 SLP277 T01281050=
201202262352 METAR KATL 262352Z 13004KT 10SM FEW250 14/M06 A3032 RMK AO2 SLP270 T01391056 10161 20128 55001=
201202262252 METAR KATL 262252Z 12008KT 10SM FEW250 15/M06 A3031 RMK AO2 SLP266 T01501061=
201202262152 METAR KATL 262152Z 15009KT 10SM FEW250 16/M06 A3031 RMK AO2 SLP264 T01611056=
201202262052 METAR KATL 262052Z 11008KT 10SM FEW250 16/M06 A3032 RMK AO2 SLP269 T01561056 56024=
201202261952 METAR KATL 261952Z VRB04KT 10SM FEW250 15/M06 A3034 RMK AO2 SLP274 T01501061=
201202261852 METAR KATL 261852Z 12007KT 100V170 10SM FEW250 14/M07 A3036 RMK AO2 SLP284 T01441067=
201202261752 METAR KATL 261752Z 13006KT 10SM FEW250 13/M07 A3039 RMK AO2 SLP295 T01331067 10133 20022 58007=
201202261652 METAR KATL 261652Z 13009KT 10SM FEW250 12/M08 A3041 RMK AO2 SLP302 T01171078=
201202261552 METAR KATL 261552Z 12005KT 10SM FEW150 SCT250 10/M06 A3042 RMK AO2 SLP304 T01001061=
201202261452 METAR KATL 261452Z 13008KT 10SM FEW150 SCT250 08/M07 A3042 RMK AO2 SLP304 T00781067 51016=
201202261352 METAR KATL 261352Z 08009KT 10SM FEW150 SCT250 06/M07 A3040 RMK AO2 SLP300 T00561072=
201202261252 METAR KATL 261252Z 09007KT 10SM FEW070 BKN150 BKN250 04/M08 A3039 RMK AO2 SLP296 T00441078=
201202261152 METAR KATL 261152Z 08007KT 10SM SCT150 SCT250 02/M08 A3037 RMK AO2 SLP289 T00221078 10067 20017 51016=
201202261052 METAR KATL 261052Z 09005KT 10SM BKN150 BKN250 04/M08 A3035 RMK AO2 SLP282 T00391078=
201202260952 METAR KATL 260952Z 06005KT 10SM FEW180 04/M09 A3034 RMK AO2 SLP277 T00441094=
201202260852 METAR KATL 260852Z 04007KT 10SM BKN150 BKN250 06/M10 A3032 RMK AO2 SLP269 T00561100 50001=
201202260752 METAR KATL 260752Z 03004KT 10SM SCT150 BKN200 06/M10 A3033 RMK AO2 SLP272 T00611100=
201202260652 METAR KATL 260652Z 35004KT 10SM SCT150 BKN200 06/M09 A3032 RMK AO2 SLP272 T00561089=
201202260552 METAR KATL 260552Z 34005KT 10SM BKN200 05/M07 A3032 RMK AO2 SLP269 T00501067 10094 20050 53005=
201202260452 METAR KATL 260452Z 29005KT 10SM SCT220 05/M07 A3031 RMK AO2 SLP269 T00501072 401280011=
201202260352 METAR KATL 260352Z 33005KT 10SM SCT220 06/M08 A3029 RMK AO2 SLP261 T00611078=
201202260252 METAR KATL 260252Z 31005KT 10SM BKN220 07/M07 A3030 RMK AO2 SLP265 T00671072 51021=
201202260152 METAR KATL 260152Z 28005KT 10SM BKN220 08/M07 A3029 RMK AO2 SLP261 T00781072=
201202260052 METAR KATL 260052Z 28004KT 10SM SCT250 08/M08 A3026 RMK AO2 SLP253 T00831078=
201202252352 METAR KATL 252352Z 31008KT 10SM SCT250 09/M08 A3023 RMK AO2 SLP243 T00941083 10128 20094 53009=
201202252252 METAR KATL 252252Z 31012KT 10SM SCT250 11/M08 A3022 RMK AO2 SLP239 T01111083=
201202252152 METAR KATL 252152Z 31017G22KT 10SM BKN250 12/M09 A3021 RMK AO2 SLP235 T01221089=
201202252052 METAR KATL 252052Z 30017G21KT 10SM BKN250 13/M08 A3021 RMK AO2 SLP232 T01281083 56014=
201202251952 METAR KATL 251952Z 29013G20KT 10SM BKN250 12/M08 A3021 RMK AO2 PK WND 30028/1929 SLP232 T01221078=
201202251852 METAR KATL 251852Z 28018G28KT 10SM BKN250 12/M08 A3022 RMK AO2 PK WND 29029/1811 SLP237 T01171078=
201202251752 METAR KATL 251752Z 29016G27KT 10SM FEW035 BKN250 12/M08 A3025 RMK AO2 PK WND 30027/1744 SLP246 T01171078 10117 20017 58008=
201202251652 METAR KATL 251652Z 32018G24KT 10SM FEW030 BKN250 11/M11 A3027 RMK AO2 SLP252 T01061111=
201202251552 METAR KATL 251552Z 29013G19KT 10SM BKN250 09/M07 A3028 RMK AO2 SLP256 T00891072=
201202251452 METAR KATL 251452Z 31007G17KT 10SM BKN250 07/M05 A3027 RMK AO2 SLP255 T00671050 51019=
201202251352 METAR KATL 251352Z 30006KT 10SM SCT250 04/M05 A3027 RMK AO2 SLP255 T00391050=
201202251252 METAR KATL 251252Z 28005KT 10SM BKN250 02/M05 A3024 RMK AO2 SLP245 T00221050=
201202251152 METAR KATL 251152Z 30006KT 10SM FEW250 02/M06 A3021 RMK AO2 SLP236 70020 T00171056 10061 20011 51013=
201202251052 METAR KATL 251052Z 29007KT 10SM FEW250 02/M06 A3020 RMK AO2 SLP232 T00221056=
201202250952 METAR KATL 250952Z 29007KT 10SM BKN250 03/M06 A3019 RMK AO2 SLP226 T00281056=
201202250852 METAR KATL 250852Z 29007KT 10SM FEW150 SCT250 03/M06 A3018 RMK AO2 SLP221 T00331061 53012=
201202250752 METAR KATL 250752Z 31010KT 10SM FEW200 04/M07 A3015 RMK AO2 SLP213 T00441067=
201202250652 METAR KATL 250652Z 31012KT 10SM FEW200 BKN250 06/M07 A3015 RMK AO2 SLP211 T00561067=
201202250552 METAR KATL 250552Z 31014KT 10SM FEW200 BKN250 06/M07 A3014 RMK AO2 PK WND 30031/0520 SLP207 T00611067 10117 20061 53028=
201202250452 METAR KATL 250452Z 33014G21KT 10SM FEW200 BKN250 07/M05 A3010 RMK AO2 SLP194 T00671050 402110067=
201202250352 METAR KATL 250352Z 32017G24KT 10SM FEW150 SCT200 BKN250 08/M06 A3008 RMK AO2 PK WND 31027/0330 SLP182 T00781056=
201202250252 METAR KATL 250252Z 32012KT 10SM FEW150 SCT200 BKN250 09/M06 A3005 RMK AO2 PK WND 32026/0232 SLP175 T00891056 53040=
201202250152 METAR KATL 250152Z 31018G23KT 10SM FEW110 SCT150 OVC250 10/M06 A3001 RMK AO2 SLP159 T01001056=
201202250052 METAR KATL 250052Z 31015G28KT 10SM FEW120 BKN150 OVC250 11/M07 A2997 RMK AO2 PK WND 31032/0004 SLP146 T01061067=
201202242352 METAR KATL 242352Z 32022G29KT 10SM SCT120 BKN150 BKN200 12/M07 A2993 RMK AO2 PK WND 32032/2321 SLP132 60000 T01171067 10156 20117 53033=
201202242252 METAR KATL 242252Z 30017G21KT 10SM SCT120 BKN150 BKN200 13/M05 A2989 RMK AO2 PK WND 29029/2212 SLP117 T01281050=
201202242152 METAR KATL 242152Z 29017G30KT 10SM FEW120 BKN150 BKN200 13/M04 A2987 RMK AO2 PK WND 29033/2136 SLP110 T01281044=
201202242052 METAR KATL 242052Z 30016G23KT 10SM BKN060 BKN100 BKN200 14/M03 A2983 RMK AO2 PK WND 30030/2037 SLP098 SHRA DSNT E-SE-S 60000 T01441028 53022=
201202241952 METAR KATL 241952Z 32016G26KT 10SM FEW050 SCT060 BKN110 BKN200 15/M02 A2980 RMK AO2 PK WND 31029/1925 RAB1853E21 SLP085 SHRA DSNT E-SE P0000 T01501017=
201202241852 METAR KATL 241852Z 30017G27KT 10SM FEW050 BKN060 BKN100 OVC200 15/M02 A2979 RMK AO2 PK WND 29029/1808 RAB14E50 SLP081 SHRA NE-E-SE P0000 T01501017=
201202241752 METAR KATL 241752Z 29013KT 10SM BKN035 BKN045 OVC065 16/06 A2977 RMK AO2 PK WND 29026/1721 WSHFT 1639 TSE01 SLP074 FROPA VIS LWR NE-E-SE SHRA 60020 T01560056 10206 20150 51024=
201202241703 SPECI KATL 241703Z 31014G18KT 10SM FEW007 BKN030 OVC075 16/11 A2975 RMK AO2 WSHFT 1639 TSE01 FROPA OCNL LTGICCG DSNT NE-E TS MOV NE CB DSNT NE-E-SE=
201202241703 SPECI KATL 241703Z 31014G18KT 10SM FEW007 BKN030 OVC075 16/11 A2975 RMK AO2 WSHFT 1639 TSE01 FROPA OCNL LTGICCG DSNT NE-E TS MOV NE CB DSNT NE-E-SE=
201202241656 SPECI KATL 241656Z 31013G18KT 10SM TS FEW009 SCT019CB BKN030 BKN150 17/12 A2975 RMK AO2 WSHFT 1639 FROPA VIS LWR NE-E-SE SHRA OCNL LTGICCG NE-E-SE TS NE-E-SE MOV NE=
201202241656 SPECI KATL 241656Z 31013G18KT 10SM TS FEW009 SCT019CB BKN030 BKN150 17/12 A2975 RMK AO2 WSHFT 1639 FROPA VIS LWR NE-E-SE SHRA OCNL LTGICCG NE-E-SE TS NE-E-SE MOV NE=
201202241652 METAR KATL 241652Z 31012G25KT 10SM TS FEW009 BKN019CB BKN030 BKN150 17/13 A2975 RMK AO2 TSB25RAB05E50 PRESRR SLP067 VIS LWR NE-E-SE-S SHRA OCNL LTGICCG NE-E-SE-S TS NE-E-SE-S MOV NE P0020 T01670128=
201202241646 SPECI KATL 241646Z 29016G25KT 9SM R09R/4000VP6000FT -TSRA BKN015CB BKN030 BKN050 17/14 A2974 RMK AO2 TSB25RAB05 PRESRR VIS LWR NE-E-SE-S SHRA FRQ LTGICCG NE-E-SE-S TS NE-E-SE-S MOV NE P0019=
201202241646 SPECI KATL 241646Z 29016G25KT 9SM R09R/4000VP6000FT -TSRA BKN015CB BKN030 BKN050 17/14 A2974 RMK AO2 TSB25RAB05 PRESRR VIS LWR NE-E-SE-S SHRA FRQ LTGICCG NE-E-SE-S TS NE-E-SE-S MOV NE P0019=
201202241639 SPECI KATL 241639Z 25013G23KT 200V280 3SM +TSRA BR SCT010 BKN015CB OVC050 19/17 A2971 RMK AO2 TSB25RAB05 FRQ LTGICCG OHD-NE TS OHD-NE MOV NE P0007=
201202241639 SPECI KATL 241639Z 25013G23KT 200V280 3SM +TSRA BR SCT010 BKN015CB OVC050 19/17 A2971 RMK AO2 TSB25RAB05 FRQ LTGICCG OHD-NE TS OHD-NE MOV NE P0007=
201202241631 SPECI KATL 241631Z 21011KT 3SM +TSRA BR BKN010CB BKN015 OVC100 19/17 A2970 RMK AO2 TSB25RAB05 FRQ LTGICCG OHD-SW-W TS OHD-SW-W MOV NE P0002=
201202241631 SPECI KATL 241631Z 21011KT 3SM +TSRA BR BKN010CB BKN015 OVC100 19/17 A2970 RMK AO2 TSB25RAB05 FRQ LTGICCG OHD-SW-W TS OHD-SW-W MOV NE P0002=
201202241625 SPECI KATL 241625Z 21008KT 7SM -TSRA BKN012CB BKN018 OVC100 19/17 A2970 RMK AO2 TSB25RAB05 VIS LWR SW-W OCNL LTGICCG SW-W TS SW-W MOV NE P0000=
201202241625 SPECI KATL 241625Z 21008KT 7SM -TSRA BKN012CB BKN018 OVC100 19/17 A2970 RMK AO2 TSB25RAB05 VIS LWR SW-W OCNL LTGICCG SW-W TS SW-W MOV NE P0000=
201202241608 SPECI KATL 241608Z 21012G17KT 8SM -RA SCT014CB BKN070 OVC110 20/17 A2970 RMK AO2 RAB05 VIS LWR SW-NW SHRA CB SW-NW MOV NE P0000=
201202241608 SPECI KATL 241608Z 21012G17KT 8SM -RA SCT014CB BKN070 OVC110 20/17 A2970 RMK AO2 RAB05 VIS LWR SW-NW SHRA CB SW-NW MOV NE P0000=
201202241603 SPECI KATL 241603Z 22010KT 8SM BKN014 BKN070 BKN110 20/17 A2970 RMK AO2 CB DSNT SW-NW SHRA DSNT SW-NW=
201202241603 SPECI KATL 241603Z 22010KT 8SM BKN014 BKN070 BKN110 20/17 A2970 RMK AO2 CB DSNT SW-NW SHRA DSNT SW-NW=
201202241601 SPECI KATL 241601Z 22008KT 8SM BKN016 BKN070 BKN100 20/17 A2970 RMK AO2 CB DSNT SW-NW SHRA DSNT SW-NW=
201202241601 SPECI KATL 241601Z 22008KT 8SM BKN016 BKN070 BKN100 20/17 A2970 RMK AO2 CB DSNT SW-NW SHRA DSNT SW-NW=
201202241552 METAR KATL 241552Z 22014G18KT 8SM BKN014 BKN020 BKN070 21/17 A2971 RMK AO2 SLP053 CB DSNT SE-S & SW-NW T02060172=
201202241505 SPECI KATL 241505Z 23007KT 8SM BKN014 BKN110 BKN150 20/17 A2969 RMK AO2=
201202241505 SPECI KATL 241505Z 23007KT 8SM BKN014 BKN110 BKN150 20/17 A2969 RMK AO2=
201202241452 METAR KATL 241452Z 23008KT 7SM FEW012 SCT030 BKN110 BKN150 20/17 A2969 RMK AO2 SLP047 FRQ LTGICCG DSNT E-SE-S-SW CB DSNT E-SE-S-SW SHRA DSNT E-SE-S-SW 60000 T02000172 58002=
201202241412 SPECI KATL 241412Z 22008KT 7SM FEW013 BKN100 OVC120 20/17 A2970 RMK AO2 FRQ LTGICCG DSNT SE-SW CB DSNT SE-SW MOV NE SHRA DSNT SE-SW=
201202241412 SPECI KATL 241412Z 22008KT 7SM FEW013 BKN100 OVC120 20/17 A2970 RMK AO2 FRQ LTGICCG DSNT SE-SW CB DSNT SE-SW MOV NE SHRA DSNT SE-SW=
201202241352 METAR KATL 241352Z 22010KT 7SM FEW015 BKN070 BKN080 OVC130 20/17 A2970 RMK AO2 RAE14 SLP051 OCNL LTG DSNT S-SW CB DSNT S-SW P0000 T02000167=
201202241252 METAR KATL 241252Z 22010G16KT 8SM -RA SCT019 BKN036 BKN110 OVC180 20/17 A2969 RMK AO2 RAB44 SLP047 OCNL LTG DSNT SE & SW CB DSNT SE & SW P0000 T02000167=
201202241247 SPECI KATL 241247Z 22011KT 8SM -RA SCT019 BKN034 BKN110 OVC180 21/17 A2970 RMK AO2 RAB44 OCNL LTG DSNT SE & SW CB DSNT SE & SW P0000=
201202241247 SPECI KATL 241247Z 22011KT 8SM -RA SCT019 BKN034 BKN110 OVC180 21/17 A2970 RMK AO2 RAB44 OCNL LTG DSNT SE & SW CB DSNT SE & SW P0000=
201202241234 SPECI KATL 241234Z 23012G17KT 8SM BKN017 BKN045 BKN110 BKN180 21/17 A2970 RMK AO2 OCNL LTG DSNT SE CB DSNT SE=
201202241234 SPECI KATL 241234Z 23012G17KT 8SM BKN017 BKN045 BKN110 BKN180 21/17 A2970 RMK AO2 OCNL LTG DSNT SE CB DSNT SE=
201202241209 SPECI KATL 241209Z 22011G16KT 10SM SCT020 BKN095 BKN180 21/17 A2969 RMK AO2 OCNL LTG DSNT SE-SW CB DSNT SE-SW=
201202241209 SPECI KATL 241209Z 22011G16KT 10SM SCT020 BKN095 BKN180 21/17 A2969 RMK AO2 OCNL LTG DSNT SE-SW CB DSNT SE-SW=
201202241152 METAR KATL 241152Z 22009KT 10SM BKN020 BKN080 BKN180 21/16 A2970 RMK AO2 SLP048 OCNL LTG DSNT S-SW CB DSNT S-SW 60000 T02060161 10211 20206 53000=
201202241052 METAR KATL 241052Z 25009G17KT 10SM BKN020TCU BKN030 OVC120 21/16 A2970 RMK AO2 RAB0958E11 SLP049 TCU OHD P0000 T02060161=
201202240952 METAR KATL 240952Z 24010G16KT 10SM BKN025 BKN036 OVC120 21/16 A2969 RMK AO2 SLP044 T02060156=
201202240929 SPECI KATL 240929Z 24013KT 10SM SCT025 BKN036 BKN043 21/16 A2969 RMK AO2=
201202240929 SPECI KATL 240929Z 24013KT 10SM SCT025 BKN036 BKN043 21/16 A2969 RMK AO2=
201202240852 METAR KATL 240852Z 24011G21KT 10SM BKN025 BKN040 BKN180 21/16 A2970 RMK AO2 PK WND 24028/0830 SLP047 T02060156 51011=
201202240752 METAR KATL 240752Z 23015G24KT 10SM BKN027 BKN036 OVC180 21/16 A2969 RMK AO2 PK WND 25028/0703 SLP045 T02110156=
201202240652 METAR KATL 240652Z 23014G21KT 10SM BKN025 OVC039 21/16 A2969 RMK AO2 SLP045 T02110156=
201202240552 METAR KATL 240552Z 22016G21KT 10SM BKN025 BKN034 BKN250 21/16 A2966 RMK AO2 PK WND 21028/0517 SLP036 T02060156 10222 20206 50003=
201202240452 METAR KATL 240452Z 23013G21KT 10SM BKN026 BKN034 BKN250 21/15 A2967 RMK AO2 SLP039 T02060150 402440161=
201202240352 METAR KATL 240352Z 22014G22KT 10SM BKN027 BKN032 BKN250 21/15 A2967 RMK AO2 SLP040 T02110150=
201202240252 METAR KATL 240252Z 21020G27KT 10SM FEW035 BKN250 21/15 A2965 RMK AO2 PK WND 21027/0251 SLP034 T02110150 53012=
201202240152 METAR KATL 240152Z 22014G23KT 10SM BKN034 BKN045 OVC250 22/14 A2965 RMK AO2 PK WND 22035/0057 SLP032 T02170139=
201202240052 METAR KATL 240052Z 21026G36KT 10SM FEW032 BKN040 BKN250 22/14 A2962 RMK AO2 PK WND 20036/0052 SLP023 T02170144=
201202232352 METAR KATL 232352Z 20012G26KT 10SM SCT040 BKN200 BKN250 22/13 A2962 RMK AO2 PK WND 21034/2315 SLP022 T02220128 10244 20222 55007=
201202232252 METAR KATL 232252Z 21012G21KT 10SM SCT045 BKN200 BKN250 23/13 A2961 RMK AO2 SLP021 T02330128=
201202232152 METAR KATL 232152Z 22019G32KT 10SM FEW055 SCT200 SCT250 23/12 A2962 RMK AO2 PK WND 20032/2146 SLP023 T02330122=
201202232052 METAR KATL 232052Z 21022G27KT 10SM FEW050 SCT200 BKN250 24/11 A2964 RMK AO2 PK WND 22034/2034 SLP028 T02390111 56018=
201202231952 METAR KATL 231952Z 21016G27KT 10SM FEW050 SCT250 24/11 A2964 RMK AO2 PK WND 21029/1927 SLP031 T02390106=
201202231852 METAR KATL 231852Z 21017G23KT 10SM FEW040 SCT250 23/11 A2966 RMK AO2 PK WND 19030/1809 SLP036 T02330111=
201202231752 METAR KATL 231752Z 20017G27KT 10SM FEW035 SCT250 23/12 A2969 RMK AO2 PK WND 19027/1745 SLP047 T02280122 10233 20161 58014=
201202231652 METAR KATL 231652Z 23012G20KT 10SM FEW030 SCT040 SCT250 22/13 A2973 RMK AO2 PK WND 22026/1620 SLP060 T02170128=
201202231552 METAR KATL 231552Z 22013KT 10SM FEW020 BKN025 BKN030 20/14 A2974 RMK AO2 SLP063 T02000139=
201202231452 METAR KATL 231452Z 23010KT 10SM FEW015 BKN025 BKN250 19/14 A2973 RMK AO2 SLP063 T01940144 51012=
201202231352 METAR KATL 231352Z 22009KT 9SM SCT011 BKN032 BKN250 18/15 A2973 RMK AO2 SLP061 T01780150=
201202231252 METAR KATL 231252Z 23009KT 8SM BKN011 BKN250 17/15 A2971 RMK AO2 SLP056 CIG 009V013 T01720150=
201202231243 SPECI KATL 231243Z 22009KT 7SM BKN011 BKN250 17/14 A2971 RMK AO2 CIG 009V013=
201202231243 SPECI KATL 231243Z 22009KT 7SM BKN011 BKN250 17/14 A2971 RMK AO2 CIG 009V013=
201202231224 SPECI KATL 231224Z 23007KT 7SM SCT009 SCT030 BKN250 17/14 A2971 RMK AO2=
201202231224 SPECI KATL 231224Z 23007KT 7SM SCT009 SCT030 BKN250 17/14 A2971 RMK AO2=
201202231211 SPECI KATL 231211Z 23006KT 9SM BKN009 BKN030 BKN250 16/14 A2970 RMK AO2=
201202231211 SPECI KATL 231211Z 23006KT 9SM BKN009 BKN030 BKN250 16/14 A2970 RMK AO2=
201202231152 METAR KATL 231152Z 22008KT 8SM FEW007 SCT028 SCT060 BKN250 16/14 A2970 RMK AO2 SLP052 T01610144 10178 20161 53006=
201202231052 METAR KATL 231052Z 23007KT 10SM FEW011 17/14 A2969 RMK AO2 SLP048 T01670144=
201202231035 SPECI KATL 231035Z 24009KT 10SM SCT011 17/14 A2969 RMK AO2=
201202231035 SPECI KATL 231035Z 24009KT 10SM SCT011 17/14 A2969 RMK AO2=
201202230952 METAR KATL 230952Z 24011KT 10SM BKN013 17/14 A2968 RMK AO2 SLP045 CIG 011V015 T01720144=
201202230905 SPECI KATL 230905Z 25009KT 10SM BKN014 17/14 A2968 RMK AO2=
201202230905 SPECI KATL 230905Z 25009KT 10SM BKN014 17/14 A2968 RMK AO2=
201202230852 METAR KATL 230852Z 24008KT 10SM FEW012 BKN018 17/14 A2968 RMK AO2 SLP045 T01720144 53001=
201202230821 SPECI KATL 230821Z 23007KT 10SM FEW020 BKN026 17/14 A2967 RMK AO2=
201202230821 SPECI KATL 230821Z 23007KT 10SM FEW020 BKN026 17/14 A2967 RMK AO2=
201202230752 METAR KATL 230752Z 23007KT 10SM FEW029 SCT075 17/14 A2967 RMK AO2 SLP042 T01670144=
201202230652 METAR KATL 230652Z 24007KT 10SM FEW012 SCT039 SCT090 BKN250 17/14 A2968 RMK AO2 SLP044 T01720139=
201202230552 METAR KATL 230552Z 23010KT 10SM FEW018 SCT040 BKN070 BKN250 18/14 A2968 RMK AO2 SLP044 T01780139 10178 20167 52001=
201202230515 SPECI KATL 230515Z 24010G16KT 10SM FEW020 SCT028 BKN250 17/13 A2968 RMK AO2=
201202230515 SPECI KATL 230515Z 24010G16KT 10SM FEW020 SCT028 BKN250 17/13 A2968 RMK AO2=
201202230452 METAR KATL 230452Z 24014G21KT 10SM SCT020 BKN028 BKN040 BKN250 18/13 A2967 RMK AO2 SLP044 T01780133 401890100=
201202230352 METAR KATL 230352Z 22010KT 10SM BKN022 BKN030 BKN250 17/13 A2967 RMK AO2 SLP044 T01720128=
201202230350 SPECI KATL 230350Z 22010KT 10SM BKN022 BKN028 BKN250 17/13 A2967 RMK AO2=
201202230350 SPECI KATL 230350Z 22010KT 10SM BKN022 BKN028 BKN250 17/13 A2967 RMK AO2=
201202230252 METAR KATL 230252Z 20014G22KT 10SM FEW024 SCT035 BKN250 17/12 A2968 RMK AO2 SLP049 T01720117 55002=
201202230215 SPECI KATL 230215Z 24007G15KT 10SM BKN024 BKN035 OVC055 17/11 A2969 RMK AO2=
201202230215 SPECI KATL 230215Z 24007G15KT 10SM BKN024 BKN035 OVC055 17/11 A2969 RMK AO2=
201202230152 METAR KATL 230152Z 21013KT 10SM SCT025 BKN032 BKN250 17/11 A2967 RMK AO2 SLP045 T01720111=
201202230052 METAR KATL 230052Z 20012KT 10SM SCT038 BKN050 BKN250 17/10 A2968 RMK AO2 SLP049 T01720100=
201202222352 METAR KATL 222352Z 20009KT 10SM FEW045 SCT200 BKN250 18/09 A2969 RMK AO2 SLP051 T01780089 10189 20167 58026=
201202222252 METAR KATL 222252Z 21005KT 10SM SCT055 BKN200 BKN250 18/09 A2972 RMK AO2 SLP060 T01830089=
201202222152 METAR KATL 222152Z 29006KT 10SM BKN045 BKN060 BKN280 18/09 A2975 RMK AO2 SLP071 T01830094=
201202222052 METAR KATL 222052Z 24013KT 10SM FEW040 BKN180 BKN280 18/08 A2977 RMK AO2 SLP078 T01830083 56040=
201202221952 METAR KATL 221952Z 26011G18KT 10SM BKN040 BKN180 BKN280 18/09 A2981 RMK AO2 SLP091 T01780089=
201202221852 METAR KATL 221852Z 25010KT 10SM FEW025 SCT030 BKN280 18/09 A2984 RMK AO2 SLP103 T01780089=
201202221752 METAR KATL 221752Z 23011G18KT 10SM FEW020 SCT025 BKN280 17/10 A2989 RMK AO2 SLP120 T01670100 10167 20111 58026=
201202221652 METAR KATL 221652Z 23012KT 10SM FEW012 BKN015 OVC018 14/10 A2993 RMK AO2 SLP136 T01440100=
201202221616 SPECI KATL 221616Z 24009G17KT 10SM FEW012 BKN015 OVC018 14/10 A2995 RMK AO2=
201202221616 SPECI KATL 221616Z 24009G17KT 10SM FEW012 BKN015 OVC018 14/10 A2995 RMK AO2=
201202221552 METAR KATL 221552Z 23012G17KT 9SM FEW009 BKN011 OVC013 13/10 A2996 RMK AO2 SLP144 T01330100=
201202221542 SPECI KATL 221542Z 23007G15KT 8SM FEW009 BKN011 OVC013 13/11 A2996 RMK AO2=
201202221542 SPECI KATL 221542Z 23007G15KT 8SM FEW009 BKN011 OVC013 13/11 A2996 RMK AO2=
201202221452 METAR KATL 221452Z 23009KT 6SM BR OVC007 13/11 A2997 RMK AO2 SLP148 T01280106 56003=
201202221352 METAR KATL 221352Z 24007KT 6SM BR BKN005 BKN008 12/10 A2997 RMK AO2 SLP149 T01220100=
201202221344 SPECI KATL 221344Z 24005KT 6SM BR OVC004 12/10 A2997 RMK AO2=
201202221344 SPECI KATL 221344Z 24005KT 6SM BR OVC004 12/10 A2997 RMK AO2=
201202221252 METAR KATL 221252Z 22008KT 2 1/2SM BR OVC004 12/10 A2997 RMK AO2 SFC VIS 6 SLP147 T01170100=
201202221244 SPECI KATL 221244Z 23009KT 2 1/2SM BR OVC004 11/10 A2997 RMK AO2 SFC VIS 6=
201202221244 SPECI KATL 221244Z 23009KT 2 1/2SM BR OVC004 11/10 A2997 RMK AO2 SFC VIS 6=
201202221200 SPECI KATL 221200Z 24008KT 6SM BR OVC004 12/10 A2998 RMK AO2=
201202221200 SPECI KATL 221200Z 24008KT 6SM BR OVC004 12/10 A2998 RMK AO2=
201202221152 METAR KATL 221152Z 24010KT 6SM BR OVC006 12/10 A2998 RMK AO2 SLP152 T01170100 10117 20100 56006=
201202221052 METAR KATL 221052Z 25009KT 6SM BR BKN006 BKN010 12/10 A2999 RMK AO2 SLP154 T01170100=
201202220952 METAR KATL 220952Z 24007KT 8SM OVC006 11/10 A2999 RMK AO2 SLP153 T01110100=
201202220922 SPECI KATL 220922Z 23006KT 9SM BKN006 OVC010 11/09 A2999 RMK AO2=
201202220922 SPECI KATL 220922Z 23006KT 9SM BKN006 OVC010 11/09 A2999 RMK AO2=
201202220852 METAR KATL 220852Z 23006KT 10SM BKN250 10/09 A3000 RMK AO2 SLP157 T01000089 56015=
201202220752 METAR KATL 220752Z 22006KT 10SM BKN250 10/08 A3001 RMK AO2 SLP160 T01000083=
201202220652 METAR KATL 220652Z 22006KT 10SM FEW026 SCT035 BKN250 10/08 A3003 RMK AO2 SLP169 T01000083=
201202220552 METAR KATL 220552Z 23005KT 10SM FEW250 11/08 A3004 RMK AO2 SLP172 T01060083 10139 20106 58008=
201202220452 METAR KATL 220452Z 22006KT 10SM FEW250 11/08 A3006 RMK AO2 SLP179 T01110083 401670050=
201202220352 METAR KATL 220352Z 22006KT 10SM FEW250 11/08 A3006 RMK AO2 SLP181 T01110083=
201202220252 METAR KATL 220252Z 22007KT 10SM CLR 12/08 A3007 RMK AO2 SLP183 T01170078 50001=
201202220152 METAR KATL 220152Z 22007KT 10SM CLR 12/07 A3007 RMK AO2 SLP184 T01220072=
201202220052 METAR KATL 220052Z 21007KT 10SM CLR 13/07 A3006 RMK AO2 SLP181 T01330067=
201202212352 METAR KATL 212352Z 21010KT 10SM CLR 14/06 A3006 RMK AO2 SLP182 T01390061 10167 20139 55002=
201202212252 METAR KATL 212252Z 24010KT 10SM FEW040 16/06 A3006 RMK AO2 SLP180 T01610056=
201202212152 METAR KATL 212152Z 21011KT 10SM FEW037 SCT300 17/06 A3005 RMK AO2 SLP176 T01670061=
201202212052 METAR KATL 212052Z 20010KT 10SM FEW035 SCT045 BKN300 16/07 A3007 RMK AO2 SLP183 T01560067 56029=
201202211952 METAR KATL 211952Z 21015G19KT 10SM BKN030 BKN040 BKN300 16/07 A3009 RMK AO2 SLP189 T01610067=
201202211852 METAR KATL 211852Z 20013G20KT 10SM BKN030 BKN040 BKN300 14/06 A3012 RMK AO2 SLP200 T01440056=
201202211752 METAR KATL 211752Z 20012KT 10SM BKN030 BKN040 BKN060 14/04 A3016 RMK AO2 SLP213 60000 T01390044 10144 20056 58019=
201202211652 METAR KATL 211652Z 20007KT 10SM BKN035 BKN045 OVC060 12/03 A3019 RMK AO2 RAB38E50 SLP226 P0000 T01170033=
201202211610 SPECI KATL 211610Z 17010KT 10SM BKN035 BKN045 BKN060 11/02 A3020 RMK AO2=
201202211610 SPECI KATL 211610Z 17010KT 10SM BKN035 BKN045 BKN060 11/02 A3020 RMK AO2=
201202211552 METAR KATL 211552Z 18012G18KT 10SM FEW060 BKN080 BKN300 11/02 A3020 RMK AO2 SLP230 T01110022=
201202211452 METAR KATL 211452Z 18012G17KT 10SM BKN050 BKN080 BKN300 08/01 A3022 RMK AO2 SLP235 T00830011 58003=
201202211352 METAR KATL 211352Z 17010KT 10SM BKN050 BKN080 07/02 A3024 RMK AO2 SLP243 T00670017=
201202211252 METAR KATL 211252Z COR 19007KT 10SM BKN070 OVC090 06/02 A3023 RMK AO2 SLP239 T00610017=
201202211152 METAR KATL 211152Z 16004KT 10SM OVC080 06/02 A3023 RMK AO2 RAB04E21 SLP239 P0000 60000 T00560017 10067 20050 50003=
201202211052 METAR KATL 211052Z 18005KT 10SM BKN080 OVC140 06/01 A3024 RMK AO2 RAB30E43 PRESRR SLP242 P0000 T00560011=
201202210952 METAR KATL 210952Z 11003KT 10SM BKN045 BKN100 06/01 A3024 RMK AO2 SLP242 T00610006=
201202210852 METAR KATL 210852Z 10006KT 10SM BKN150 BKN250 05/01 A3022 RMK AO2 SLP235 T00500006 58003=
201202210752 METAR KATL 210752Z 11003KT 10SM SCT150 BKN250 06/00 A3024 RMK AO2 SLP241 T00610000=
201202210652 METAR KATL 210652Z 14004KT 10SM BKN250 06/M01 A3023 RMK AO2 SLP237 T00611006=
201202210552 METAR KATL 210552Z 14005KT 10SM BKN250 07/M01 A3023 RMK AO2 SLP238 T00671006 10117 20067 50003=
201202210452 METAR KATL 210452Z 13007KT 10SM BKN250 08/M01 A3023 RMK AO2 SLP239 T00781011 401440006=
201202210352 METAR KATL 210352Z 12007KT 10SM BKN250 08/M01 A3022 RMK AO2 SLP237 T00831006=
201202210252 METAR KATL 210252Z 12007KT 10SM BKN250 09/00 A3022 RMK AO2 SLP237 T00890000 50004=
201202210152 METAR KATL 210152Z 12007KT 10SM BKN250 10/00 A3023 RMK AO2 SLP241 T01000000=
201202210052 METAR KATL 210052Z 11008KT 10SM FEW200 BKN250 11/01 A3022 RMK AO2 SLP238 T01060006=
201202202352 METAR KATL 202352Z 15005KT 10SM FEW200 BKN250 12/01 A3021 RMK AO2 SLP234 T01170006 10144 20111 53007=
201202202252 METAR KATL 202252Z 15007KT 10SM BKN250 13/00 A3019 RMK AO2 SLP228 T01330000=
201202202152 METAR KATL 202152Z 00000KT 10SM SCT250 14/00 A3019 RMK AO2 SLP226 T01390000=
201202202052 METAR KATL 202052Z 14007G14KT 10SM SCT250 14/00 A3019 RMK AO2 SLP226 T01390000 56009=
201202201952 METAR KATL 201952Z 08004KT 10SM FEW250 13/01 A3019 RMK AO2 SLP226 T01330006=
201202201852 METAR KATL 201852Z 15004KT 10SM FEW250 12/01 A3019 RMK AO2 SLP228 T01220006=
201202201752 METAR KATL 201752Z 11007KT 10SM FEW250 12/01 A3021 RMK AO2 SLP235 T01170011 10117 20006 58001=
201202201652 METAR KATL 201652Z 09006KT 10SM FEW250 10/01 A3022 RMK AO2 SLP239 T01000006=
201202201552 METAR KATL 201552Z 10004KT 10SM SCT250 08/01 A3021 RMK AO2 SLP236 T00780011=
201202201452 METAR KATL 201452Z 00000KT 10SM FEW010 SCT250 06/00 A3022 RMK AO2 SLP238 T00560000 53025=
201202201352 METAR KATL 201352Z 32007KT 7SM SCT250 03/M01 A3019 RMK AO2 SLP230 T00281006=
201202201252 METAR KATL 201252Z 33006KT 6SM BR FEW150 SCT250 01/M01 A3016 RMK AO2 SLP221 T00111011=
201202201152 METAR KATL 201152Z 33008KT 9SM FEW250 01/M02 A3014 RMK AO2 SLP214 70005 T00061017 10028 20006 53027=
201202201052 METAR KATL 201052Z 32006KT 10SM FEW180 01/M01 A3011 RMK AO2 SLP203 T00111011=
201202200952 METAR KATL 200952Z 32008KT 10SM CLR 01/M01 A3008 RMK AO2 SLP191 T00111011=
201202200852 METAR KATL 200852Z 33006KT 10SM CLR 02/M01 A3006 RMK AO2 SLP184 T00171011 53008=
201202200752 METAR KATL 200752Z 34011KT 10SM CLR 02/M01 A3005 RMK AO2 SLP178 T00221011=
201202200652 METAR KATL 200652Z 33015KT 10SM CLR 03/M01 A3003 RMK AO2 SLP174 T00281006=
201202200552 METAR KATL 200552Z 33011KT 10SM FEW019 03/M01 A3004 RMK AO2 SLP174 T00281006 10072 20028 53021=
201202200452 METAR KATL 200452Z 32008KT 10SM FEW019 03/00 A3001 RMK AO2 SLP165 T00330000 401220033=
201202200352 METAR KATL 200352Z 33013KT 10SM FEW019 04/01 A2997 RMK AO2 SLP153 T00390006=
201202200252 METAR KATL 200252Z 33014KT 10SM FEW019 05/01 A2997 RMK AO2 SLP152 T00500006 51034=
201202200217 SPECI KATL 200217Z 33015G22KT 10SM SCT019 05/01 A2995 RMK AO2=
201202200217 SPECI KATL 200217Z 33015G22KT 10SM SCT019 05/01 A2995 RMK AO2=
201202200152 METAR KATL 200152Z 33013KT 10SM OVC019 06/01 A2995 RMK AO2 PK WND 33027/0113 SLP145 T00560011=
201202200052 METAR KATL 200052Z 34017G28KT 10SM BKN015 BKN033 06/02 A2990 RMK AO2 PK WND 33028/0049 SLP127 T00610022=
201202200048 SPECI KATL 200048Z 33016G23KT 10SM BKN015 BKN033 06/02 A2989 RMK AO2 PK WND 32026/0027=
201202200048 SPECI KATL 200048Z 33016G23KT 10SM BKN015 BKN033 06/02 A2989 RMK AO2 PK WND 32026/0027=
201202192352 METAR KATL 192352Z 32016G22KT 10SM BKN010 BKN018 07/04 A2987 RMK AO2 DZE12 SLP115 P0000 60000 T00720044 10122 20072 53045=
201202192330 SPECI KATL 192330Z 31018G25KT 10SM BKN010 OVC017 08/05 A2984 RMK AO2 DZE12 P0000=
201202192330 SPECI KATL 192330Z 31018G25KT 10SM BKN010 OVC017 08/05 A2984 RMK AO2 DZE12 P0000=
201202192306 SPECI KATL 192306Z 32016G23KT 7SM -DZ OVC008 08/06 A2983 RMK AO2 P0000=
201202192306 SPECI KATL 192306Z 32016G23KT 7SM -DZ OVC008 08/06 A2983 RMK AO2 P0000=
201202192252 METAR KATL 192252Z 31012KT 7SM -DZ BKN010 OVC013 08/06 A2981 RMK AO2 DZB48 SLP098 P0000 T00830061=
201202192152 METAR KATL 192152Z 30015G24KT 10SM OVC012 09/06 A2977 RMK AO2 SLP084 T00890061=
201202192110 SPECI KATL 192110Z 31016KT 10SM OVC010 09/07 A2974 RMK AO2=
201202192110 SPECI KATL 192110Z 31016KT 10SM OVC010 09/07 A2974 RMK AO2=
201202192052 METAR KATL 192052Z 31013G21KT 7SM OVC008 10/08 A2973 RMK AO2 RAE1959B17E39 SLP068 P0000 60000 T01000078 53012=
201202192039 SPECI KATL 192039Z 32019G24KT 10SM BKN007 OVC014 10/08 A2972 RMK AO2 RAE1959B17E39 PRESRR P0000=
201202192039 SPECI KATL 192039Z 32019G24KT 10SM BKN007 OVC014 10/08 A2972 RMK AO2 RAE1959B17E39 PRESRR P0000=
201202192025 SPECI KATL 192025Z 30012KT 7SM -RA FEW007 BKN013 OVC040 12/09 A2970 RMK AO2 RAE1959B17 P0000=
201202192025 SPECI KATL 192025Z 30012KT 7SM -RA FEW007 BKN013 OVC040 12/09 A2970 RMK AO2 RAE1959B17 P0000=
201202192006 SPECI KATL 192006Z 30012KT 7SM SCT010 BKN016 OVC040 12/10 A2969 RMK AO2 RAE1959 P0000=
201202192006 SPECI KATL 192006Z 30012KT 7SM SCT010 BKN016 OVC040 12/10 A2969 RMK AO2 RAE1959 P0000=
201202191952 METAR KATL 191952Z 29011KT 7SM -RA BKN008 OVC014 12/10 A2969 RMK AO2 DZE14RAB14E35B51 SLP052 P0000 T01170100=
201202191937 SPECI KATL 191937Z 29011KT 4SM BR SCT008 OVC014 12/11 A2969 RMK AO2 DZE14RAB14E35 P0000=
201202191937 SPECI KATL 191937Z 29011KT 4SM BR SCT008 OVC014 12/11 A2969 RMK AO2 DZE14RAB14E35 P0000=
201202191904 SPECI KATL 191904Z 27007KT 2SM -DZ BR OVC006 12/11 A2968 RMK AO2 SFC VIS 3 P0000=
201202191904 SPECI KATL 191904Z 27007KT 2SM -DZ BR OVC006 12/11 A2968 RMK AO2 SFC VIS 3 P0000=
201202191852 METAR KATL 191852Z 27005KT 3SM -DZ BR OVC006 12/10 A2968 RMK AO2 TWR VIS 7 RAB00E17DZB41 SLP050 P0000 T01170100=
201202191828 SPECI KATL 191828Z 25006KT 4SM BR OVC006 12/10 A2968 RMK AO2 RAB00E17 P0000=
201202191828 SPECI KATL 191828Z 25006KT 4SM BR OVC006 12/10 A2968 RMK AO2 RAB00E17 P0000=
201202191752 METAR KATL 191752Z 21006KT 7SM OVC004 11/09 A2969 RMK AO2 SLP055 60005 T01110094 10111 20089 58007=
201202191652 METAR KATL 191652Z 15004KT 7SM OVC004 11/09 A2971 RMK AO2 RAE34 SLP062 P0001 T01060089=
201202191552 METAR KATL 191552Z 11005KT 7SM -RA OVC004 10/08 A2972 RMK AO2 RAB42 SLP066 P0000 T01000083=
201202191452 METAR KATL 191452Z VRB06KT 10SM OVC004 09/08 A2971 RMK AO2 RAE14 SLP063 P0001 60004 T00940083 58013=
201202191432 SPECI KATL 191432Z 10006KT 2 1/2SM BR OVC004 09/08 A2973 RMK AO2 SFC VIS 6 RAE14 P0001=
201202191432 SPECI KATL 191432Z 10006KT 2 1/2SM BR OVC004 09/08 A2973 RMK AO2 SFC VIS 6 RAE14 P0001=
201202191403 SPECI KATL 191403Z 10011KT 1 1/2SM BR OVC006 09/08 A2973 RMK AO2 SFC VIS 5 RAE01 P0001=
201202191403 SPECI KATL 191403Z 10011KT 1 1/2SM BR OVC006 09/08 A2973 RMK AO2 SFC VIS 5 RAE01 P0001=
201202191352 METAR KATL 191352Z 10008KT 1 1/2SM -RA BR BKN004 OVC008 09/08 A2973 RMK AO2 SFC VIS 4 SLP069 P0002 T00940078=
201202191252 METAR KATL 191252Z 08009G19KT 1 1/2SM -RA BR BKN004 OVC008 09/08 A2974 RMK AO2 SFC VIS 3 RAE19B37 SLP071 P0001 T00940078=
201202191236 SPECI KATL 191236Z 07011KT 1 1/2SM BR OVC003 09/08 A2974 RMK AO2 SFC VIS 4 RAE19 P0001=
201202191236 SPECI KATL 191236Z 07011KT 1 1/2SM BR OVC003 09/08 A2974 RMK AO2 SFC VIS 4 RAE19 P0001=
201202191152 METAR KATL 191152Z 08011KT 3/4SM -RA BR OVC003 09/08 A2975 RMK AO2 SFC VIS 2 1/2 RAB12 SLP075 P0001 60001 70069 T00890078 10089 20089 56008=
201202191052 METAR KATL 191052Z 08011KT 3/4SM BR OVC003 09/08 A2976 RMK AO2 SFC VIS 2 SLP077 T00890078=
201202190952 METAR KATL 190952Z 08009KT 3/4SM BR OVC003 09/07 A2976 RMK AO2 SFC VIS 4 SLP078 T00890072=
201202190910 SPECI KATL 190910Z 08009KT 3/4SM BR OVC003 09/07 A2977 RMK AO2 SFC VIS 6=
201202190910 SPECI KATL 190910Z 08009KT 3/4SM BR OVC003 09/07 A2977 RMK AO2 SFC VIS 6=
201202190908 SPECI KATL 190908Z 08010KT 6SM BR OVC003 09/07 A2978 RMK AO2=
201202190908 SPECI KATL 190908Z 08010KT 6SM BR OVC003 09/07 A2978 RMK AO2=
201202190852 METAR KATL 190852Z 09012KT 6SM BR BKN005 OVC008 09/07 A2978 RMK AO2 SLP083 60000 T00890072 58011=
201202190752 METAR KATL 190752Z 09009KT 6SM BR BKN005 OVC010 09/07 A2979 RMK AO2 SLP087 T00890072=
201202190652 METAR KATL 190652Z 10011KT 10SM BKN007 BKN045 OVC090 09/07 A2981 RMK AO2 RAB0555E08 SLP092 P0000 T00890067=
201202190552 METAR KATL 190552Z 10014G20KT 8SM BKN007 BKN045 OVC090 09/07 A2981 RMK AO2 RAE36 SLP094 P0001 60051 T00890072 10117 20089 58037=
201202190546 SPECI KATL 190546Z 09014KT 8SM BKN007 BKN037 OVC090 09/07 A2981 RMK AO2 RAE36 PRESFR P0001=
201202190546 SPECI KATL 190546Z 09014KT 8SM BKN007 BKN037 OVC090 09/07 A2981 RMK AO2 RAE36 PRESFR P0001=
201202190452 METAR KATL 190452Z 12006KT 10SM -RA FEW008 OVC090 09/07 A2991 RMK AO2 SLP127 P0002 T00890067 401610083=
201202190423 SPECI KATL 190423Z 10009G16KT 10SM -RA SCT008 OVC100 09/07 A2989 RMK AO2 P0001=
201202190423 SPECI KATL 190423Z 10009G16KT 10SM -RA SCT008 OVC100 09/07 A2989 RMK AO2 P0001=
201202190352 METAR KATL 190352Z 10012KT 9SM -RA BKN008 BKN040 OVC090 09/07 A2987 RMK AO2 SLP115 P0009 T00940072=
201202190350 SPECI KATL 190350Z 10012KT 9SM -RA BKN008 BKN040 OVC080 09/07 A2987 RMK AO2 P0008=
201202190350 SPECI KATL 190350Z 10012KT 9SM -RA BKN008 BKN040 OVC080 09/07 A2987 RMK AO2 P0008=
201202190252 METAR KATL 190252Z 09013KT 4SM RA BR FEW007 OVC060 10/08 A2993 RMK AO2 SLP134 P0013 60039 T01000083 58007=
201202190152 METAR KATL 190152Z 09010KT 4SM RA BR FEW008 OVC065 10/08 A2995 RMK AO2 SLP142 P0017 T01000083=
201202190150 SPECI KATL 190150Z 09010KT 4SM RA BR FEW008 OVC065 11/08 A2995 RMK AO2 P0017=
201202190150 SPECI KATL 190150Z 09010KT 4SM RA BR FEW008 OVC065 11/08 A2995 RMK AO2 P0017=
201202190052 METAR KATL 190052Z 09008KT 5SM RA BR OVC065 11/09 A2996 RMK AO2 SLP147 P0009 T01110089=
201202182352 METAR KATL 182352Z 09008KT 7SM -RA FEW060 OVC075 12/09 A2995 RMK AO2 SLP141 P0004 60017 T01170089 10161 20117 58001=
201202182252 METAR KATL 182252Z 10004KT 6SM -RA BR FEW008 OVC075 12/10 A2997 RMK AO2 SLP149 P0009 T01220100=
201202182152 METAR KATL 182152Z 09005KT 6SM -RA OVC070 13/09 A2996 RMK AO2 SLP144 P0004 T01330094=
201202182052 METAR KATL 182052Z 08007KT 10SM -RA FEW040 OVC085 15/07 A2995 RMK AO2 RAB28 SLP142 P0000 60000 T01500067 58019=
201202181952 METAR KATL 181952Z 12005KT 10SM SCT040 OVC090 16/07 A2998 RMK AO2 RAB41E52 SLP149 P0000 T01610067=
201202181852 METAR KATL 181852Z 13007KT 10SM SCT037 OVC110 16/07 A2999 RMK AO2 SLP153 T01560067=
201202181825 SPECI KATL 181825Z 13007KT 10SM BKN030 BKN150 OVC250 16/08 A3000 RMK AO2=
201202181825 SPECI KATL 181825Z 13007KT 10SM BKN030 BKN150 OVC250 16/08 A3000 RMK AO2=
201202181752 METAR KATL 181752Z 12007KT 100V160 10SM BKN027 OVC250 16/08 A3001 RMK AO2 SLP161 T01560078 10156 20083 58018=
201202181652 METAR KATL 181652Z 11007KT 10SM SCT027 BKN250 15/08 A3003 RMK AO2 SLP166 T01500078=
201202181552 METAR KATL 181552Z 07006KT 10SM FEW150 BKN250 14/08 A3006 RMK AO2 SLP177 T01390083=
201202181452 METAR KATL 181452Z 09006KT 10SM FEW150 BKN250 11/08 A3006 RMK AO2 SLP180 T01110078 50005=
201202181352 METAR KATL 181352Z VRB06KT 10SM BKN150 BKN250 10/07 A3007 RMK AO2 SLP182 T01000067=
201202181252 METAR KATL 181252Z 08006KT 10SM BKN150 BKN250 09/06 A3006 RMK AO2 SLP180 T00890061=
201202181152 METAR KATL 181152Z 08004KT 10SM FEW150 SCT250 09/06 A3005 RMK AO2 SLP174 T00940056 10117 20089 53002=
201202181052 METAR KATL 181052Z 08003KT 10SM SCT150 09/06 A3004 RMK AO2 SLP171 T00940056=
201202180952 METAR KATL 180952Z 09003KT 10SM SCT150 09/05 A3003 RMK AO2 SLP166 T00940050=
201202180852 METAR KATL 180852Z 08004KT 10SM BKN110 10/04 A3004 RMK AO2 SLP171 T01000044 58008=
201202180752 METAR KATL 180752Z 09003KT 10SM BKN110 10/03 A3005 RMK AO2 SLP174 T01000033=
201202180652 METAR KATL 180652Z 00000KT 10SM SCT130 11/02 A3006 RMK AO2 SLP176 T01110022=
201202180552 METAR KATL 180552Z 35003KT 10SM OVC130 12/02 A3007 RMK AO2 SLP180 T01170017 10167 20117 50000=
201202180452 METAR KATL 180452Z 34005KT 10SM BKN130 BKN250 12/02 A3007 RMK AO2 SLP183 T01170017 401890061=
201202180352 METAR KATL 180352Z 35005KT 10SM BKN130 BKN200 13/02 A3006 RMK AO2 SLP180 T01330017=
201202180252 METAR KATL 180252Z 35007KT 10SM SCT130 BKN200 13/02 A3007 RMK AO2 SLP182 T01330017 51006=
201202180152 METAR KATL 180152Z 36006KT 10SM BKN140 BKN200 15/03 A3006 RMK AO2 SLP181 T01500028=
201202180052 METAR KATL 180052Z 33005KT 10SM FEW150 SCT200 BKN250 16/02 A3007 RMK AO2 SLP182 T01560022=
201202172352 METAR KATL 172352Z 00000KT 10SM SCT150 BKN200 BKN250 17/01 A3005 RMK AO2 SLP174 T01720011 10189 20150 58001=
201202172252 METAR KATL 172252Z 31005KT 10SM FEW150 SCT200 BKN250 18/02 A3005 RMK AO2 SLP175 T01780022=
201202172152 METAR KATL 172152Z 35004KT 10SM FEW150 SCT200 19/02 A3005 RMK AO2 SLP175 T01890022=
201202172052 METAR KATL 172052Z 31005KT 10SM FEW150 SCT180 SCT250 19/04 A3005 RMK AO2 SLP175 T01890039 56017=
201202171952 METAR KATL 171952Z VRB03KT 10SM FEW120 SCT150 SCT250 18/05 A3007 RMK AO2 SLP180 T01830050=
201202171852 METAR KATL 171852Z 00000KT 10SM FEW120 SCT150 BKN250 17/06 A3007 RMK AO2 SLP183 VIRGA DSNT NE T01720056=
201202171752 METAR KATL 171752Z 26003KT 10SM FEW120 SCT150 BKN180 BKN250 16/06 A3010 RMK AO2 SLP193 VIRGA DSNT NE & NW T01560056 10156 20061 58012=
201202171652 METAR KATL 171652Z 00000KT 10SM FEW120 SCT150 BKN250 13/06 A3012 RMK AO2 SLP200 VIRGA DSNT NW T01330056=
201202171552 METAR KATL 171552Z VRB03KT 10SM FEW150 BKN180 BKN250 12/07 A3014 RMK AO2 SLP207 T01170067=
201202171452 METAR KATL 171452Z 34006KT 10SM FEW120 BKN150 BKN250 09/06 A3014 RMK AO2 SLP207 T00940061 51013=
201202171352 METAR KATL 171352Z 34006KT 10SM SCT150 BKN250 08/05 A3013 RMK AO2 SLP206 T00780050=
201202171252 METAR KATL 171252Z 30006KT 10SM FEW150 BKN250 06/04 A3013 RMK AO2 SLP205 T00610044=
201202171152 METAR KATL 171152Z 31006KT 10SM FEW150 BKN250 07/04 A3010 RMK AO2 SLP195 70006 T00670044 10100 20067 53010=
201202171052 METAR KATL 171052Z 32007KT 10SM FEW200 BKN250 07/05 A3007 RMK AO2 SLP185 T00720050=
201202170952 METAR KATL 170952Z 33007KT 10SM SCT250 08/06 A3007 RMK AO2 SLP183 T00780056=
201202170852 METAR KATL 170852Z 32005KT 10SM SCT250 08/06 A3007 RMK AO2 SLP183 T00780056 58005=
201202170752 METAR KATL 170752Z 31004KT 10SM BKN250 08/07 A3009 RMK AO2 SLP189 T00830067=
201202170652 METAR KATL 170652Z 33005KT 10SM BKN250 09/07 A3008 RMK AO2 SLP187 T00940072=
201202170552 METAR KATL 170552Z 31007KT 10SM BKN250 10/08 A3009 RMK AO2 SLP187 T01000078 10133 20100 56006=
201202170452 METAR KATL 170452Z 31005KT 10SM BKN250 11/08 A3009 RMK AO2 SLP190 T01060083 401610106=
201202170352 METAR KATL 170352Z COR 29004KT 9SM BKN250 11/09 A3009 RMK AO2 SLP190 T01110089=
201202170252 METAR KATL 170252Z 26003KT 8SM SCT200 BKN250 12/09 A3010 RMK AO2 SLP195 T01170094 53006=
201202170152 METAR KATL 170152Z 27003KT 9SM BKN200 OVC250 12/10 A3009 RMK AO2 SLP192 T01170100=
201202170052 METAR KATL 170052Z 00000KT 10SM BKN200 OVC250 13/10 A3008 RMK AO2 SLP187 T01330100=
201202162352 METAR KATL 162352Z 33003KT 10SM BKN200 OVC250 13/10 A3008 RMK AO2 SLP187 60002 T01330100 10161 20133 53008=
201202162252 METAR KATL 162252Z 33005KT 10SM FEW020 BKN200 OVC250 14/11 A3008 RMK AO2 SLP184 T01440106=
201202162227 SPECI KATL 162227Z 30008KT 10SM FEW014 SCT022 BKN200 15/11 A3007 RMK AO2=
201202162227 SPECI KATL 162227Z 30008KT 10SM FEW014 SCT022 BKN200 15/11 A3007 RMK AO2=
201202162152 METAR KATL 162152Z 33010KT 10SM FEW012 BKN020 BKN200 16/12 A3007 RMK AO2 SLP180 T01560122=
201202162143 SPECI KATL 162143Z 31007KT 10SM FEW012 BKN020 BKN200 16/12 A3006 RMK AO2=
201202162143 SPECI KATL 162143Z 31007KT 10SM FEW012 BKN020 BKN200 16/12 A3006 RMK AO2=
201202162052 METAR KATL 162052Z 32007KT 10SM FEW008 BKN010 OVC012 15/13 A3006 RMK AO2 SLP178 60002 T01500128 55009=
201202161952 METAR KATL 161952Z 33006KT 6SM BR BKN005 OVC008 15/13 A3006 RMK AO2 SLP178 T01500128=
201202161927 SPECI KATL 161927Z 32006KT 6SM BR BKN005 OVC008 16/13 A3007 RMK AO2=
201202161927 SPECI KATL 161927Z 32006KT 6SM BR BKN005 OVC008 16/13 A3007 RMK AO2=
201202161852 METAR KATL 161852Z 30003KT 2SM BR BKN004 BKN006 OVC008 14/13 A3007 RMK AO2 SFC VIS 6 DZE15RAB15E47 SLP181 P0002 T01440128=
201202161815 SPECI KATL 161815Z 32007KT 1 1/2SM R09R/5000VP6000FT -RA BR BKN004 BKN006 OVC008 14/13 A3009 RMK AO2 DZE15RAB15 P0001=
201202161815 SPECI KATL 161815Z 32007KT 1 1/2SM R09R/5000VP6000FT -RA BR BKN004 BKN006 OVC008 14/13 A3009 RMK AO2 DZE15RAB15 P0001=
201202161752 METAR KATL 161752Z 26003KT 2 1/2SM -DZ BR BKN004 OVC006 14/12 A3009 RMK AO2 SFC VIS 4 RAB1655E07B25E38DZB50 SLP187 P0000 60004 T01390122 10139 20111 58013=
201202161741 SPECI KATL 161741Z 00000KT 2 1/2SM BR BKN004 OVC006 13/12 A3009 RMK AO2 SFC VIS 4 RAB1655E07B25E38 P0000=
201202161741 SPECI KATL 161741Z 00000KT 2 1/2SM BR BKN004 OVC006 13/12 A3009 RMK AO2 SFC VIS 4 RAB1655E07B25E38 P0000=
201202161732 SPECI KATL 161732Z 00000KT 1/2SM R09R/5500VP6000FT -RA BR BKN004 OVC006 13/12 A3010 RMK AO2 SFC VIS 3 RAB1655E07B25 P0000=
201202161732 SPECI KATL 161732Z 00000KT 1/2SM R09R/5500VP6000FT -RA BR BKN004 OVC006 13/12 A3010 RMK AO2 SFC VIS 3 RAB1655E07B25 P0000=
201202161652 METAR KATL 161652Z 00000KT 1/2SM BR FEW002 BKN004 OVC006 12/11 A3011 RMK AO2 SFC VIS 4 DZE51 SLP195 TWRINC P0002 T01220111=
201202161552 METAR KATL 161552Z 13004KT 1/4SM R09R/4500VP6000FT -DZ BR OVC003 12/11 A3012 RMK AO2 SFC VIS 1 1/2 RAE49DZB49 SLP199 TWRINC P0001 T01170106=
201202161452 METAR KATL 161452Z 11005KT 1/4SM R09R/4500V5000FT -RA BR OVC002 11/10 A3013 RMK AO2 SFC VIS 1 DZE49RAB49 SLP202 TWRINC P0001 60001 T01110100 50006=
201202161418 SPECI KATL 161418Z VRB05KT 1/4SM R09R/4000V5500FT -DZ BR OVC002 11/10 A3013 RMK AO2 SFC VIS 1 TWRINC P0000=
201202161418 SPECI KATL 161418Z VRB05KT 1/4SM R09R/4000V5500FT -DZ BR OVC002 11/10 A3013 RMK AO2 SFC VIS 1 TWRINC P0000=
201202161352 METAR KATL 161352Z 09006KT 1/2SM R09R/4000V5000FT DZ FG VV002 11/10 A3013 RMK AO2 DZB48 SLP204 P0000 T01110100=
201202161252 METAR KATL 161252Z 11006KT 1/2SM BR OVC003 11/10 A3012 RMK AO2 SFC VIS 1 1/4 SLP200 TWRINC T01110100=
201202161242 SPECI KATL 161242Z 12008KT 1/2SM BR OVC003 11/09 A3012 RMK AO2 SFC VIS 1 1/4 TWRINC=
201202161242 SPECI KATL 161242Z 12008KT 1/2SM BR OVC003 11/09 A3012 RMK AO2 SFC VIS 1 1/4 TWRINC=
201202161205 SPECI KATL 161205Z 09006KT 1SM BR OVC004 11/09 A3012 RMK AO2 SFC VIS 2 $=
201202161205 SPECI KATL 161205Z 09006KT 1SM BR OVC004 11/09 A3012 RMK AO2 SFC VIS 2 $=
201202161152 METAR KATL 161152Z 08006KT 1 1/2SM BR BKN005 OVC013 11/09 A3011 RMK AO2 SFC VIS 2 1/2 RAE03 SLP195 P0000 60014 70014 T01110094 10122 20106 55020 $=
201202161150 SPECI KATL 161150Z 09006KT 1 1/2SM BR BKN005 OVC013 11/09 A3011 RMK AO2 SFC VIS 2 1/2 RAE03 P0000 $=
201202161150 SPECI KATL 161150Z 09006KT 1 1/2SM BR BKN005 OVC013 11/09 A3011 RMK AO2 SFC VIS 2 1/2 RAE03 P0000 $=
201202161130 SPECI KATL 161130Z 10005KT 2 1/2SM BR BKN005 OVC049 11/09 A3012 RMK AO2 SFC VIS 4 RAE03 P0000=
201202161130 SPECI KATL 161130Z 10005KT 2 1/2SM BR BKN005 OVC049 11/09 A3012 RMK AO2 SFC VIS 4 RAE03 P0000=
201202161115 SPECI KATL 161115Z 12005KT 4SM BR BKN005 BKN028 OVC085 11/09 A3012 RMK AO2 RAE03 P0000=
201202161115 SPECI KATL 161115Z 12005KT 4SM BR BKN005 BKN028 OVC085 11/09 A3012 RMK AO2 RAE03 P0000=
201202161052 METAR KATL 161052Z 09008KT 4SM -RA BR FEW007 SCT065 OVC080 11/09 A3011 RMK AO2 SLP194 P0008 T01060089=
201202160952 METAR KATL 160952Z 06008KT 4SM -RA BR SCT010 BKN038 OVC075 11/09 A3014 RMK AO2 SLP205 P0006 T01060089=
201202160949 SPECI KATL 160949Z 07006KT 4SM RA BR SCT010 BKN038 OVC075 11/09 A3015 RMK AO2 P0006=
201202160949 SPECI KATL 160949Z 07006KT 4SM RA BR SCT010 BKN038 OVC075 11/09 A3015 RMK AO2 P0006=
201202160852 METAR KATL 160852Z 00000KT 7SM -RA OVC011 12/08 A3017 RMK AO2 RAB18 SLP215 P0000 60000 T01170078 53004=
201202160844 SPECI KATL 160844Z 35005KT 8SM -RA OVC011 12/08 A3017 RMK AO2 RAB18 P0000=
201202160844 SPECI KATL 160844Z 35005KT 8SM -RA OVC011 12/08 A3017 RMK AO2 RAB18 P0000=
201202160807 SPECI KATL 160807Z 10005KT 10SM BKN007 OVC015 12/07 A3015 RMK AO2=
201202160807 SPECI KATL 160807Z 10005KT 10SM BKN007 OVC015 12/07 A3015 RMK AO2=
201202160754 SPECI KATL 160754Z 11004KT 10SM FEW009 BKN015 OVC050 12/07 A3015 RMK AO2=
201202160754 SPECI KATL 160754Z 11004KT 10SM FEW009 BKN015 OVC050 12/07 A3015 RMK AO2=
201202160752 METAR KATL 160752Z 12004KT 10SM BKN015 OVC050 12/07 A3016 RMK AO2 SLP210 T01170067=
201202160726 SPECI KATL 160726Z 10004KT 10SM BKN018 OVC130 12/06 A3016 RMK AO2=
201202160726 SPECI KATL 160726Z 10004KT 10SM BKN018 OVC130 12/06 A3016 RMK AO2=
201202160652 METAR KATL 160652Z 00000KT 10SM FEW023 BKN120 BKN180 OVC250 12/06 A3016 RMK AO2 SLP210 T01170056=
201202160552 METAR KATL 160552Z 12005KT 10SM BKN120 BKN250 12/05 A3016 RMK AO2 SLP211 T01220050 10156 20117 58002=
201202160452 METAR KATL 160452Z 11006KT 10SM FEW130 BKN250 12/05 A3016 RMK AO2 SLP212 T01220050 401890022=
201202160352 METAR KATL 160352Z 10005KT 10SM BKN130 BKN250 12/04 A3017 RMK AO2 SLP216 T01220044=
201202160252 METAR KATL 160252Z 12005KT 10SM BKN120 BKN250 14/04 A3016 RMK AO2 SLP214 T01390044 50000=
201202160152 METAR KATL 160152Z 11006KT 10SM BKN120 BKN250 14/04 A3016 RMK AO2 SLP215 T01440044=
201202160052 METAR KATL 160052Z 10006KT 10SM BKN120 BKN250 14/05 A3017 RMK AO2 SLP220 T01440050=
201202152352 METAR KATL 152352Z 10005KT 10SM BKN120 BKN250 16/04 A3016 RMK AO2 SLP215 ACC OHD-SE T01610044 10189 20156 53009=
201202152252 METAR KATL 152252Z 13008KT 10SM BKN120 BKN150 BKN250 17/04 A3015 RMK AO2 SLP213 ACC NE T01670039=
201202152152 METAR KATL 152152Z 14007KT 10SM BKN120 BKN150 BKN250 19/03 A3014 RMK AO2 SLP206 ACC OHD & ALQDS T01890033=
201202152052 METAR KATL 152052Z 12007KT 10SM FEW150 BKN250 BKN300 18/03 A3013 RMK AO2 SLP205 T01780028 56018=
201202151952 METAR KATL 151952Z 13006KT 10SM FEW150 BKN250 BKN300 17/04 A3014 RMK AO2 SLP207 T01720039=
201202151852 METAR KATL 151852Z 15005KT 10SM FEW120 SCT150 BKN250 17/04 A3016 RMK AO2 SLP215 T01670044=
201202151752 METAR KATL 151752Z VRB03KT 10SM FEW120 SCT150 BKN250 16/04 A3019 RMK AO2 SLP224 T01560044 10156 20028 58010=
201202151652 METAR KATL 151652Z 00000KT 10SM FEW120 SCT150 BKN250 14/04 A3022 RMK AO2 SLP236 T01390039=
201202151552 METAR KATL 151552Z 00000KT 9SM FEW120 SCT150 BKN250 12/04 A3022 RMK AO2 SLP237 T01170039=
201202151452 METAR KATL 151452Z 05003KT 10SM FEW120 SCT150 BKN250 10/04 A3022 RMK AO2 SLP236 T01000039 52018=
201202151352 METAR KATL 151352Z 33004KT 6SM HZ BKN250 08/04 A3021 RMK AO2 SLP231 T00830044=
201202151252 METAR KATL 151252Z 00000KT 6SM BR SCT250 03/02 A3018 RMK AO2 SLP224 T00330017=
201202151152 METAR KATL 151152Z 00000KT 6SM BR FEW020 03/02 A3016 RMK AO2 SLP219 70006 T00280017 10078 20022 53013=
201202151052 METAR KATL 151052Z 00000KT 6SM BR CLR 03/02 A3015 RMK AO2 SLP213 T00330017=
201202150952 METAR KATL 150952Z 00000KT 4SM BR CLR 04/03 A3014 RMK AO2 SLP211 T00390028=
201202150852 METAR KATL 150852Z 00000KT 4SM BR CLR 04/03 A3013 RMK AO2 SLP206 T00440028 51001=
201202150752 METAR KATL 150752Z 34003KT 5SM BR FEW020 06/04 A3012 RMK AO2 SLP204 T00610044=
201202150704 SPECI KATL 150704Z 00000KT 6SM BR SCT020 07/04 A3013 RMK AO2=
201202150704 SPECI KATL 150704Z 00000KT 6SM BR SCT020 07/04 A3013 RMK AO2=
201202150652 METAR KATL 150652Z 00000KT 5SM BR SCT020 BKN025 06/04 A3013 RMK AO2 SLP208 T00610044=
201202150552 METAR KATL 150552Z 00000KT 8SM FEW012 OVC020 08/05 A3012 RMK AO2 SLP204 T00780050 10089 20078 50006=
201202150452 METAR KATL 150452Z 00000KT 8SM FEW012 OVC020 08/05 A3013 RMK AO2 SLP206 T00780050 400890028=
201202150352 METAR KATL 150352Z 00000KT 8SM FEW012 OVC020 08/05 A3012 RMK AO2 SLP204 T00780050=
201202150252 METAR KATL 150252Z 09004KT 10SM FEW013 OVC022 08/05 A3010 RMK AO2 SLP198 T00780050 52016=
201202150152 METAR KATL 150152Z VRB04KT 10SM SCT013 OVC024 08/05 A3008 RMK AO2 SLP192 T00830050=
201202150130 SPECI KATL 150130Z 06004KT 10SM BKN014 OVC024 08/05 A3008 RMK AO2=
201202150130 SPECI KATL 150130Z 06004KT 10SM BKN014 OVC024 08/05 A3008 RMK AO2=
201202150052 METAR KATL 150052Z 00000KT 10SM SCT014 OVC024 09/05 A3007 RMK AO2 SLP188 T00890050=
201202150012 SPECI KATL 150012Z 00000KT 10SM BKN014 OVC020 09/05 A3006 RMK AO2=
201202150012 SPECI KATL 150012Z 00000KT 10SM BKN014 OVC020 09/05 A3006 RMK AO2=
201202142352 METAR KATL 142352Z 00000KT 10SM SCT013 OVC020 09/05 A3005 RMK AO2 SLP182 60000 T00890050 10089 20067 53014=
201202142252 METAR KATL 142252Z 00000KT 10SM BKN015 OVC022 09/05 A3004 RMK AO2 SLP175 T00890050=
201202142239 SPECI KATL 142239Z 19003KT 10SM BKN013 OVC020 09/05 A3003 RMK AO2=
201202142239 SPECI KATL 142239Z 19003KT 10SM BKN013 OVC020 09/05 A3003 RMK AO2=
201202142212 SPECI KATL 142212Z 00000KT 9SM SCT012 BKN020 OVC030 09/05 A3003 RMK AO2=
201202142212 SPECI KATL 142212Z 00000KT 9SM SCT012 BKN020 OVC030 09/05 A3003 RMK AO2=
201202142152 METAR KATL 142152Z 00000KT 9SM BKN012 BKN020 OVC030 09/05 A3002 RMK AO2 SLP170 T00890050=
201202142052 METAR KATL 142052Z 00000KT 9SM BKN012 BKN020 OVC030 08/04 A3001 RMK AO2 SLP168 60000 T00830044 56009=
201202141952 METAR KATL 141952Z 00000KT 10SM BKN010 BKN012 OVC020 08/04 A3001 RMK AO2 SLP168 T00780044=
201202141852 METAR KATL 141852Z 18004KT 9SM BKN011 BKN020 OVC030 07/04 A3002 RMK AO2 DZE45 SLP170 P0000 T00720039=
201202141752 METAR KATL 141752Z VRB03KT 8SM -DZ BKN013 BKN020 OVC030 07/03 A3004 RMK AO2 DZB50 SLP177 P0000 60006 T00670033 10067 20028 58007=
201202141652 METAR KATL 141652Z 18004KT 10SM FEW008 BKN020 OVC030 06/02 A3006 RMK AO2 SLP185 T00560022=
201202141552 METAR KATL 141552Z 15004KT 6SM HZ FEW008 BKN025 OVC030 05/02 A3007 RMK AO2 RAE1455 SLP186 P0000 T00500022=
201202141534 SPECI KATL 141534Z VRB04KT 6SM BR SCT008 BKN018 OVC026 04/02 A3006 RMK AO2 RAE1455 P0000=
201202141534 SPECI KATL 141534Z VRB04KT 6SM BR SCT008 BKN018 OVC026 04/02 A3006 RMK AO2 RAE1455 P0000=
201202141452 METAR KATL 141452Z 17006KT 6SM -RA BR BKN008 BKN019 OVC025 04/02 A3006 RMK AO2 RAE1355B12 SLP184 P0000 60006 T00390022 53000=
201202141421 SPECI KATL 141421Z 17010KT 4SM -RA BR BKN009 BKN025 OVC034 04/02 A3005 RMK AO2 RAE1355B12 P0000=
201202141421 SPECI KATL 141421Z 17010KT 4SM -RA BR BKN009 BKN025 OVC034 04/02 A3005 RMK AO2 RAE1355B12 P0000=
201202141352 METAR KATL 141352Z 16011KT 4SM -RA BR FEW025 BKN036 OVC043 04/02 A3005 RMK AO2 SLP179 P0003 T00390017=
201202141252 METAR KATL 141252Z 16008KT 3SM -RA BR SCT026 BKN047 OVC055 03/01 A3005 RMK AO2 SLP180 P0003 T00330011=
201202141152 METAR KATL 141152Z 16005KT 6SM -RA BR FEW034 BKN055 OVC070 03/01 A3006 RMK AO2 RAE01B49 SLP184 P0000 60015 70016 T00330011 10056 20028 56006=
201202141052 METAR KATL 141052Z 15005KT 6SM -RA BR SCT036 BKN050 OVC070 03/01 A3006 RMK AO2 RAB17 SLP184 P0000 T00280006=
201202141015 SPECI KATL 141015Z 14004KT 6SM HZ BKN026 BKN031 OVC075 03/01 A3005 RMK AO2=
201202141015 SPECI KATL 141015Z 14004KT 6SM HZ BKN026 BKN031 OVC075 03/01 A3005 RMK AO2=
201202140952 METAR KATL 140952Z 15003KT 7SM SCT031 BKN070 OVC095 03/01 A3006 RMK AO2 RAE50 SLP184 P0002 T00280006=
201202140852 METAR KATL 140852Z 17004KT 7SM -RA FEW037 SCT048 OVC085 03/01 A3008 RMK AO2 SLP189 P0006 60013 T00330006 53004=
201202140752 METAR KATL 140752Z 07003KT 6SM -RA SCT043 OVC055 04/M01 A3006 RMK AO2 PRESFR SLP182 P0006 T00441006=
201202140652 METAR KATL 140652Z 00000KT 7SM -RA BKN050 OVC070 06/M02 A3007 RMK AO2 SLP185 P0001 T00561022=
201202140552 METAR KATL 140552Z 00000KT 10SM -RA BKN070 OVC090 07/M03 A3007 RMK AO2 PLE01 SLP184 P0001 60001 T00671028 10100 20067 58014=
201202140501 SPECI KATL 140501Z 00000KT 10SM BKN075 OVC090 07/M04 A3008 RMK AO2 RAE01PLE01 P0000=
201202140501 SPECI KATL 140501Z 00000KT 10SM BKN075 OVC090 07/M04 A3008 RMK AO2 RAE01PLE01 P0000=
201202140452 METAR KATL 140452Z COR 20003KT 10SM -RAPL FEW050 BKN070 OVC085 07/M05 A3008 RMK AO2 RAB28PLB33 SLP190 P0000 T00671050 401281039=
201202140434 SPECI KATL 140434Z 20007KT 10SM -PLRA SCT050 BKN065 OVC080 08/M07 A3010 RMK AO2 RAB28PLB33 PRESFR P0000=
201202140434 SPECI KATL 140434Z 20007KT 10SM -PLRA SCT050 BKN065 OVC080 08/M07 A3010 RMK AO2 RAB28PLB33 PRESFR P0000=
201202140352 METAR KATL 140352Z 21005KT 10SM OVC065 08/M09 A3012 RMK AO2 SLP205 T00831089=
201202140252 METAR KATL 140252Z 24003KT 10SM OVC070 09/M09 A3011 RMK AO2 SLP201 T00891089 53004=
201202140152 METAR KATL 140152Z 23004KT 10SM BKN075 OVC090 09/M09 A3011 RMK AO2 SLP200 T00891089=
201202140052 METAR KATL 140052Z 18005KT 10SM BKN075 OVC100 09/M09 A3009 RMK AO2 SLP197 T00941094=
201202132352 METAR KATL 132352Z 17005KT 10SM BKN100 BKN120 10/M09 A3010 RMK AO2 SLP198 T01001094 10128 20094 55004=
201202132252 METAR KATL 132252Z 20005KT 10SM BKN100 BKN120 11/M12 A3009 RMK AO2 SLP197 T01061117=
201202132152 METAR KATL 132152Z 21006KT 10SM FEW120 SCT150 SCT250 12/M12 A3010 RMK AO2 SLP198 T01171122=
201202132052 METAR KATL 132052Z 18006KT 10SM FEW120 SCT150 BKN250 12/M11 A3011 RMK AO2 SLP201 T01221106 56035=
201202131952 METAR KATL 131952Z 00000KT 10SM FEW100 BKN150 BKN250 12/M12 A3013 RMK AO2 SLP209 T01171117=
201202131852 METAR KATL 131852Z VRB04KT 10SM FEW100 BKN150 BKN250 11/M12 A3017 RMK AO2 SLP223 T01061117=
201202131752 METAR KATL 131752Z 00000KT 10SM FEW100 SCT150 SCT180 09/M11 A3021 RMK AO2 SLP238 T00941111 10100 21039 58017=
201202131652 METAR KATL 131652Z 00000KT 10SM FEW150 SCT180 07/M11 A3024 RMK AO2 SLP250 T00721106=
201202131552 METAR KATL 131552Z 15003KT 10SM FEW180 SCT250 04/M10 A3026 RMK AO2 SLP257 T00441100=
201202131452 METAR KATL 131452Z 00000KT 10SM FEW200 02/M11 A3027 RMK AO2 SLP258 T00221106 51007=
201202131352 METAR KATL 131352Z 32004KT 10SM FEW200 M01/M11 A3026 RMK AO2 SLP257 T10061111=
201202131252 METAR KATL 131252Z 33004KT 10SM FEW250 M03/M11 A3026 RMK AO2 SLP258 T10281111=
201202131152 METAR KATL 131152Z 32005KT 10SM CLR M04/M12 A3024 RMK AO2 SLP252 T10391117 11017 21039 55000=
201202131052 METAR KATL 131052Z 31004KT 10SM CLR M03/M12 A3024 RMK AO2 SLP250 T10331117=
201202130952 METAR KATL 130952Z 31008KT 10SM CLR M03/M11 A3024 RMK AO2 SLP251 T10331111=
201202130852 METAR KATL 130852Z 32007KT 10SM CLR M03/M11 A3024 RMK AO2 SLP251 T10281111 58012=
201202130752 METAR KATL 130752Z 31007KT 10SM CLR M02/M12 A3026 RMK AO2 SLP256 T10221117=
201202130652 METAR KATL 130652Z 30006KT 10SM CLR M02/M12 A3027 RMK AO2 SLP260 T10221117=
201202130552 METAR KATL 130552Z 30008KT 10SM CLR M02/M12 A3028 RMK AO2 SLP264 T10171117 10017 21022 55004=
201202130452 METAR KATL 130452Z 30005KT 10SM CLR M02/M12 A3028 RMK AO2 SLP265 T10171122 400441072=
201202130352 METAR KATL 130352Z 34007KT 10SM CLR M01/M13 A3029 RMK AO2 SLP267 T10061128=
201202130252 METAR KATL 130252Z 33006KT 10SM CLR M01/M13 A3029 RMK AO2 SLP270 T10061128 56010=
201202130152 METAR KATL 130152Z 32007KT 10SM CLR 00/M13 A3030 RMK AO2 SLP274 T00001133=
201202130052 METAR KATL 130052Z 30005KT 10SM CLR 01/M13 A3031 RMK AO2 SLP277 T00061128=
201202122352 METAR KATL 122352Z 29006KT 10SM CLR 02/M14 A3032 RMK AO2 SLP281 T00171139 10044 20011 53001=
201202122252 METAR KATL 122252Z 31013KT 10SM CLR 03/M14 A3032 RMK AO2 SLP279 T00331144=
201202122152 METAR KATL 122152Z 32011KT 10SM CLR 04/M14 A3032 RMK AO2 SLP279 T00441139=
201202122052 METAR KATL 122052Z 32014KT 10SM CLR 04/M14 A3032 RMK AO2 SLP279 T00441139 56018=
201202121952 METAR KATL 121952Z 32013G19KT 10SM CLR 04/M14 A3033 RMK AO2 SLP281 T00391144=
201202121852 METAR KATL 121852Z 34011KT 10SM CLR 03/M15 A3034 RMK AO2 SLP287 T00281150=
201202121752 METAR KATL 121752Z 31008G18KT 10SM CLR 02/M15 A3038 RMK AO2 SLP299 T00171150 10017 21072 58006=
201202121652 METAR KATL 121652Z 34009KT 10SM CLR 00/M15 A3040 RMK AO2 SLP307 T00001150=
201202121552 METAR KATL 121552Z 30012KT 10SM CLR M02/M14 A3040 RMK AO2 SLP307 T10171144=
201202121452 METAR KATL 121452Z 33010G16KT 10SM CLR M03/M15 A3040 RMK AO2 SLP306 T10331150 51028=
201202121352 METAR KATL 121352Z 33011KT 10SM FEW250 M05/M14 A3038 RMK AO2 SLP303 T10501144=
201202121252 METAR KATL 121252Z 33011KT 10SM FEW250 M07/M15 A3036 RMK AO2 SLP295 T10671150=
201202121152 METAR KATL 121152Z 33013KT 10SM CLR M07/M15 A3031 RMK AO2 SLP278 T10671150 11050 21067 53004=
201202121052 METAR KATL 121052Z 33013KT 10SM CLR M07/M14 A3030 RMK AO2 SLP274 T10671144=
201202120952 METAR KATL 120952Z 33014G20KT 10SM CLR M07/M14 A3029 RMK AO2 SLP272 T10671144=
201202120852 METAR KATL 120852Z 32018G26KT 10SM CLR M06/M15 A3030 RMK AO2 PK WND 32026/0849 SLP273 T10611150 57006=
201202120752 METAR KATL 120752Z 33021G28KT 10SM CLR M06/M16 A3030 RMK AO2 PK WND 33029/0714 SLP274 T10561156=
201202120652 METAR KATL 120652Z 33015G26KT 10SM CLR M06/M16 A3031 RMK AO2 PK WND 34028/0629 SLP276 T10561161=
201202120552 METAR KATL 120552Z 33013KT 10SM CLR M05/M16 A3032 RMK AO2 SLP277 T10501156 11022 21050 51010=
201202120452 METAR KATL 120452Z 33019G23KT 10SM CLR M04/M16 A3032 RMK AO2 PK WND 30026/0358 SLP277 T10441156 400721044=
201202120352 METAR KATL 120352Z 32013G24KT 10SM CLR M04/M16 A3031 RMK AO2 PK WND 34028/0321 SLP273 T10391156=
201202120252 METAR KATL 120252Z 32019G28KT 10SM CLR M03/M16 A3029 RMK AO2 PK WND 32033/0212 SLP265 T10331156 53025=
201202120152 METAR KATL 120152Z 34019G31KT 10SM CLR M03/M15 A3025 RMK AO2 PK WND 33031/0147 SLP254 T10281150=
201202120052 METAR KATL 120052Z 33014G27KT 10SM CLR M02/M14 A3023 RMK AO2 PK WND 31030/2359 SLP246 T10221144=
201202112352 METAR KATL 112352Z 33018G27KT 10SM CLR M02/M14 A3021 RMK AO2 PK WND 32034/2304 SLP238 T10221144 10028 21022 51022=
201202112252 METAR KATL 112252Z 34022G32KT 10SM FEW050 M01/M14 A3020 RMK AO2 PK WND 34032/2252 SLP233 T10111144=
201202112152 METAR KATL 112152Z COR 33023G35KT 10SM FEW050 00/M13 A3017 RMK AO2 PK WND 33035/2147 SLP224 T00001133=
201202112052 METAR KATL 112052Z 33022G33KT 10SM FEW050 01/M13 A3014 RMK AO2 PK WND 32034/1956 SLP213 T00061133 53017=
201202111952 METAR KATL 111952Z 32021G33KT 10SM FEW048 02/M11 A3011 RMK AO2 PK WND 32035/1942 SLP203 T00221111=
201202111852 METAR KATL 111852Z 33018G27KT 10SM SCT049 02/M11 A3010 RMK AO2 PK WND 31034/1830 SLP200 T00221111=
201202111752 METAR KATL 111752Z 31016G27KT 10SM FEW041 03/M09 A3009 RMK AO2 PK WND 34033/1704 SLP195 60000 T00281094 10044 20017 51026=
201202111652 METAR KATL 111652Z 34021G27KT 10SM BKN036 02/M08 A3007 RMK AO2 PK WND 31032/1620 SLP189 T00171078=
201202111552 METAR KATL 111552Z 30020G28KT 10SM FEW024 BKN034 BKN250 02/M06 A3005 RMK AO2 PK WND 32033/1530 SLP182 T00221056=
201202111534 SPECI KATL 111534Z 32025G33KT 10SM SCT024 OVC032 02/M05 A3004 RMK AO2 PK WND 32033/1530=
201202111534 SPECI KATL 111534Z 32025G33KT 10SM SCT024 OVC032 02/M05 A3004 RMK AO2 PK WND 32033/1530=
201202111459 SPECI KATL 111459Z 32022G31KT 10SM BKN029 OVC034 03/M04 A3002 RMK AO2 PK WND 30031/1455=
201202111459 SPECI KATL 111459Z 32022G31KT 10SM BKN029 OVC034 03/M04 A3002 RMK AO2 PK WND 30031/1455=
201202111452 METAR KATL 111452Z 32020G28KT 10SM BKN035 03/M04 A3001 RMK AO2 PK WND 35036/1410 RAB07E22 SLP167 P0000 60000 T00331039 53012=
201202111424 SPECI KATL 111424Z 32022G34KT 10SM SCT020 SCT026 BKN037 04/M02 A2999 RMK AO2 PK WND 35036/1410 RAB07E22 P0000=
201202111424 SPECI KATL 111424Z 32022G34KT 10SM SCT020 SCT026 BKN037 04/M02 A2999 RMK AO2 PK WND 35036/1410 RAB07E22 P0000=
201202111352 METAR KATL 111352Z 30017G22KT 10SM BKN024 BKN032 OVC050 04/M01 A2997 RMK AO2 SLP155 T00441011=
201202111252 METAR KATL 111252Z 32014G21KT 10SM SCT024 SCT050 04/M01 A2996 RMK AO2 PK WND 32026/1211 SLP150 T00391011=
201202111152 METAR KATL 111152Z 31013G25KT 10SM SCT024 BKN034 05/M01 A2997 RMK AO2 PK WND 29030/1125 SLP153 T00501011 10072 20050 51020=
201202111052 METAR KATL 111052Z 29017KT 10SM BKN022 BKN027 05/00 A2997 RMK AO2 PK WND 30027/1002 SLP151 T00500000=
201202110952 METAR KATL 110952Z 29014G21KT 10SM BKN019 OVC024 06/01 A2995 RMK AO2 PK WND 30028/0934 SLP144 T00560006=
201202110852 METAR KATL 110852Z 31015G20KT 10SM BKN018 OVC023 06/01 A2991 RMK AO2 SLP132 T00610011 55012=
201202110819 SPECI KATL 110819Z 31015G21KT 10SM BKN023 OVC037 07/01 A2991 RMK AO2=
201202110819 SPECI KATL 110819Z 31015G21KT 10SM BKN023 OVC037 07/01 A2991 RMK AO2=
201202110752 METAR KATL 110752Z 31015KT 10SM OVC037 07/00 A2991 RMK AO2 SLP129 T00670000=
201202110652 METAR KATL 110652Z 30011KT 10SM OVC041 07/00 A2992 RMK AO2 SLP135 T00720000=
201202110552 METAR KATL 110552Z 29006KT 10SM OVC045 07/01 A2995 RMK AO2 SLP145 60000 T00720011 10100 20072 58012=
201202110452 METAR KATL 110452Z 28006KT 10SM BKN035 OVC042 07/01 A2997 RMK AO2 SLP152 T00720011 401000028=
201202110352 METAR KATL 110352Z 24003KT 10SM OVC050 07/01 A2998 RMK AO2 RAE26 SLP155 P0000 T00720011=
201202110252 METAR KATL 110252Z 28006KT 10SM -RA BKN060 OVC075 08/01 A2999 RMK AO2 RAB02 SLP158 P0000 60000 T00780011 55001=
201202110152 METAR KATL 110152Z 27004KT 10SM SCT070 BKN090 OVC120 09/01 A2998 RMK AO2 RAB21E30 SLP155 P0000 T00890011=
201202110052 METAR KATL 110052Z 29005KT 10SM BKN055 OVC070 09/01 A2999 RMK AO2 SLP157 T00940011=
201202102352 METAR KATL 102352Z 24003KT 10SM BKN050 OVC065 09/01 A2999 RMK AO2 SLP159 T00940006 10100 20094 56002=
201202102252 METAR KATL 102252Z 28005KT 10SM FEW050 SCT060 OVC075 10/00 A2999 RMK AO2 SLP159 T01000000=
201202102152 METAR KATL 102152Z 24003KT 10SM BKN050 BKN070 OVC120 10/00 A2998 RMK AO2 SLP158 VIRGA DSNT N T01000000=
201202102052 METAR KATL 102052Z 23004KT 10SM BKN060 BKN090 OVC120 10/M01 A3000 RMK AO2 SLP161 T01001006 56029=
201202101952 METAR KATL 101952Z 22004KT 10SM BKN070 BKN090 OVC120 10/M01 A3001 RMK AO2 SLP167 T01001006=
201202101852 METAR KATL 101852Z 27005KT 10SM BKN060 BKN080 OVC120 10/M01 A3005 RMK AO2 SLP181 VIRGA N-NE-E T01001006=
201202101801 SPECI KATL 101801Z 24006KT 10SM BKN080 BKN090 OVC120 09/M01 A3008 RMK AO2 VIRGA OHD & ALQDS=
201202101801 SPECI KATL 101801Z 24006KT 10SM BKN080 BKN090 OVC120 09/M01 A3008 RMK AO2 VIRGA OHD & ALQDS=
201202101752 METAR KATL 101752Z 26005KT 10SM BKN090 BKN120 OVC150 09/00 A3008 RMK AO2 SLP190 T00940000 10094 20044 58008=
201202101652 METAR KATL 101652Z 21005KT 10SM BKN100 BKN120 OVC150 09/00 A3011 RMK AO2 SLP198 T00890000=
201202101552 METAR KATL 101552Z 22004KT 9SM BKN120 BKN150 BKN200 08/01 A3012 RMK AO2 SLP203 T00780006=
201202101452 METAR KATL 101452Z 00000KT 8SM FEW100 BKN150 OVC200 07/01 A3011 RMK AO2 SLP199 T00720006 58010=
201202101352 METAR KATL 101352Z 00000KT 8SM FEW100 BKN130 BKN150 06/01 A3012 RMK AO2 SLP204 T00560006=
201202101252 METAR KATL 101252Z 00000KT 8SM BKN100 OVC130 05/M01 A3014 RMK AO2 SLP210 VIRGA NE-OHD-W T00501006=
201202101152 METAR KATL 101152Z 00000KT 10SM OVC130 04/M01 A3014 RMK AO2 SLP211 T00441006 10056 20028 53004=
201202101052 METAR KATL 101052Z 32003KT 10SM BKN150 OVC250 04/M01 A3012 RMK AO2 SLP205 T00391011=
201202100952 METAR KATL 100952Z 00000KT 10SM FEW200 OVC250 03/M01 A3013 RMK AO2 SLP207 T00331011=
201202100852 METAR KATL 100852Z 00000KT 10SM SCT200 BKN250 04/M02 A3013 RMK AO2 SLP205 T00391017 58012=
201202100752 METAR KATL 100752Z 00000KT 10SM OVC200 05/M02 A3014 RMK AO2 SLP210 T00501017=
201202100652 METAR KATL 100652Z 00000KT 10SM SCT200 BKN250 04/M02 A3016 RMK AO2 SLP217 T00391017=
201202100552 METAR KATL 100552Z 00000KT 10SM BKN250 05/M02 A3016 RMK AO2 SLP218 T00501017 10094 20039 58005=
201202100452 METAR KATL 100452Z 00000KT 10SM BKN250 06/M02 A3018 RMK AO2 SLP226 T00561022 401170022=
201202100352 METAR KATL 100352Z 31006KT 10SM BKN250 05/M02 A3019 RMK AO2 SLP227 T00501017=
201202100252 METAR KATL 100252Z 00000KT 10SM BKN250 07/M02 A3018 RMK AO2 SLP224 T00721022 58001=
201202100152 METAR KATL 100152Z 00000KT 10SM BKN250 07/M02 A3018 RMK AO2 SLP226 T00721022=
201202100052 METAR KATL 100052Z 00000KT 10SM BKN250 07/M02 A3018 RMK AO2 SLP226 T00721022=
201202092352 METAR KATL 092352Z 00000KT 10SM FEW150 SCT250 09/M03 A3018 RMK AO2 SLP225 T00891028 10117 20089 56000=
201202092252 METAR KATL 092252Z 19004KT 10SM FEW150 SCT200 BKN250 10/M02 A3018 RMK AO2 SLP225 T01001022=
201202092152 METAR KATL 092152Z 20004KT 10SM BKN150 BKN180 BKN250 11/M03 A3018 RMK AO2 SLP224 T01061028=
201202092052 METAR KATL 092052Z 23005KT 10SM SCT150 BKN180 BKN250 11/M02 A3018 RMK AO2 SLP225 T01111022 55015=
201202091952 METAR KATL 091952Z 18005KT 10SM BKN150 BKN180 BKN250 11/M02 A3018 RMK AO2 SLP225 T01111022=
201202091852 METAR KATL 091852Z 18006KT 10SM FEW150 SCT180 BKN250 11/M02 A3020 RMK AO2 SLP230 T01061022=
201202091752 METAR KATL 091752Z VRB03KT 10SM FEW180 BKN250 BKN300 09/M03 A3023 RMK AO2 SLP241 T00941028 10106 20022 58015=
201202091652 METAR KATL 091652Z 19003KT 10SM FEW180 SCT250 BKN300 08/M03 A3027 RMK AO2 SLP256 T00781033 $=
201202091552 METAR KATL 091552Z 00000KT 10SM FEW180 BKN250 BKN300 07/M04 A3029 RMK AO2 SLP262 T00721039=
201202091452 METAR KATL 091452Z 01008KT 10SM BKN250 04/M04 A3028 RMK AO2 SLP257 T00441044 51011=
201202091352 METAR KATL 091352Z 01006KT 10SM BKN250 03/M04 A3027 RMK AO2 SLP254 T00331039=
201202091252 METAR KATL 091252Z 34007KT 10SM BKN250 02/M04 A3026 RMK AO2 SLP251 T00221039=
201202091152 METAR KATL 091152Z 34009KT 10SM SCT250 02/M03 A3024 RMK AO2 SLP246 T00221033 10039 20022 53006=
201202091052 METAR KATL 091052Z 33008KT 10SM SCT250 03/M03 A3024 RMK AO2 SLP243 T00281028=
201202090952 METAR KATL 090952Z 35008KT 10SM FEW250 03/M02 A3023 RMK AO2 SLP239 T00331022=
201202090852 METAR KATL 090852Z 34010KT 10SM FEW250 03/M02 A3022 RMK AO2 SLP237 T00331017 58004=
201202090752 METAR KATL 090752Z 33010KT 10SM FEW035 03/M02 A3023 RMK AO2 SLP238 T00331017 $=
201202090652 METAR KATL 090652Z 33007KT 10SM FEW035 03/M02 A3024 RMK AO2 SLP242 T00331017=
201202090552 METAR KATL 090552Z 32006KT 10SM FEW035 04/M02 A3024 RMK AO2 SLP242 T00391017 10106 20039 50003=
201202090452 METAR KATL 090452Z 29005KT 10SM FEW250 04/M02 A3025 RMK AO2 SLP247 T00391022 401500039=
201202090352 METAR KATL 090352Z 32004KT 10SM CLR 06/M02 A3024 RMK AO2 SLP244 T00561022=
201202090252 METAR KATL 090252Z 34005KT 10SM CLR 07/M02 A3023 RMK AO2 SLP239 T00671017 53015=
201202090152 METAR KATL 090152Z 34012G19KT 10SM CLR 08/M02 A3020 RMK AO2 SLP231 T00781017=
201202090052 METAR KATL 090052Z 35011KT 10SM CLR 09/M02 A3018 RMK AO2 SLP224 T00941017=
201202082352 METAR KATL 082352Z 35010KT 10SM CLR 11/M02 A3018 RMK AO2 SLP222 T01061017 10150 20106 53009=
201202082252 METAR KATL 082252Z 33011G17KT 10SM FEW055 12/M01 A3018 RMK AO2 SLP222 T01221011=
201202082152 METAR KATL 082152Z 32013G21KT 10SM FEW055 SCT250 14/M01 A3015 RMK AO2 SLP212 T01391006=
201202082052 METAR KATL 082052Z 36013G19KT 10SM FEW055 SCT250 14/M01 A3015 RMK AO2 SLP212 T01441006 55010=
201202081952 METAR KATL 081952Z 30010G18KT 10SM FEW050 SCT250 14/M01 A3015 RMK AO2 SLP210 T01441006=
201202081852 METAR KATL 081852Z 31014KT 10SM FEW050 SCT250 14/M01 A3016 RMK AO2 SLP214 T01391006=
201202081752 METAR KATL 081752Z 33014G18KT 10SM FEW050 SCT250 14/M01 A3019 RMK AO2 SLP223 60000 T01391011 10139 20078 58012=
201202081652 METAR KATL 081652Z 31014G19KT 10SM FEW050 SCT080 SCT250 13/M02 A3021 RMK AO2 SLP232 T01281017=
201202081552 METAR KATL 081552Z 31011KT 10SM BKN080 BKN250 11/M01 A3022 RMK AO2 SLP237 T01061011=
201202081452 METAR KATL 081452Z 32014KT 10SM FEW060 BKN070 BKN100 09/M01 A3022 RMK AO2 SLP236 60000 T00941011 51024=
201202081352 METAR KATL 081352Z 31010KT 10SM SCT060 BKN070 BKN100 08/M01 A3021 RMK AO2 SLP231 T00831011=
201202081252 METAR KATL 081252Z 31008KT 10SM BKN075 BKN110 08/M01 A3018 RMK AO2 RAE1156 SLP221 P0000 T00781011=
201202081152 METAR KATL 081152Z 32008KT 10SM -RA BKN075 OVC095 08/M01 A3015 RMK AO2 RAB46 SLP211 P0000 60000 T00781011 10078 20056 53006=
201202081052 METAR KATL 081052Z 32012KT 10SM BKN070 OVC095 08/M02 A3013 RMK AO2 SLP205 T00781017=
201202080952 METAR KATL 080952Z 32011KT 10SM BKN090 BKN100 07/M02 A3013 RMK AO2 SLP204 T00721017=
201202080852 METAR KATL 080852Z 32009KT 10SM BKN085 08/M02 A3013 RMK AO2 SLP204 T00781017 58007=
201202080752 METAR KATL 080752Z 31006KT 10SM OVC080 07/M02 A3015 RMK AO2 SLP210 T00671022=
201202080652 METAR KATL 080652Z 30006KT 10SM SCT080 06/M02 A3015 RMK AO2 SLP211 T00611022=
201202080552 METAR KATL 080552Z 31006KT 10SM FEW100 07/M02 A3015 RMK AO2 SLP211 T00721022 10122 20067 58002=
201202080452 METAR KATL 080452Z 32003KT 10SM FEW110 08/M02 A3015 RMK AO2 SLP212 T00831022 401670039=
201202080352 METAR KATL 080352Z 31005KT 10SM CLR 08/M02 A3016 RMK AO2 SLP215 T00781022=
201202080252 METAR KATL 080252Z 32005KT 10SM CLR 09/M03 A3016 RMK AO2 SLP215 T00891028 53009=
201202080152 METAR KATL 080152Z 33007KT 10SM CLR 10/M03 A3015 RMK AO2 SLP213 T01001033=
201202080052 METAR KATL 080052Z 32004KT 10SM CLR 11/M04 A3013 RMK AO2 SLP207 T01111044=
201202072352 METAR KATL 072352Z 31006KT 10SM CLR 12/M05 A3013 RMK AO2 SLP205 T01171050 10167 20117 53001=
201202072252 METAR KATL 072252Z 32006KT 10SM FEW200 14/M07 A3012 RMK AO2 SLP202 T01391067=
201202072152 METAR KATL 072152Z 32007KT 10SM FEW200 16/M04 A3012 RMK AO2 SLP200 T01561039=
201202072052 METAR KATL 072052Z 30009KT 10SM FEW200 BKN250 16/M04 A3012 RMK AO2 SLP202 T01561044 56010=
201202071952 METAR KATL 071952Z VRB06KT 10SM FEW150 BKN200 BKN250 17/M03 A3013 RMK AO2 SLP203 T01671033=
201202071852 METAR KATL 071852Z 31007KT 10SM FEW150 BKN200 BKN250 14/M02 A3013 RMK AO2 SLP204 T01441017=
201202071752 METAR KATL 071752Z 29006KT 10SM FEW150 SCT200 BKN250 14/00 A3016 RMK AO2 SLP212 T01440000 10144 20039 58010=
201202071652 METAR KATL 071652Z 27004KT 10SM FEW150 SCT200 BKN250 12/01 A3018 RMK AO2 SLP221 T01220006=
201202071552 METAR KATL 071552Z 00000KT 10SM BKN250 11/02 A3020 RMK AO2 SLP228 T01060022=
201202071452 METAR KATL 071452Z 31004KT 10SM BKN250 08/03 A3019 RMK AO2 SLP225 T00780028 53007=
201202071352 METAR KATL 071352Z 32005KT 9SM BKN250 06/03 A3018 RMK AO2 SLP224 T00560028=
201202071252 METAR KATL 071252Z 31007KT 9SM BKN250 04/02 A3017 RMK AO2 SLP219 T00390017=
201202071152 METAR KATL 071152Z 29006KT 10SM BKN250 04/02 A3017 RMK AO2 SLP218 T00440017 10072 20044 53006=
201202071052 METAR KATL 071052Z 29005KT 10SM SCT150 BKN250 04/02 A3015 RMK AO2 SLP213 T00440022=
201202070952 METAR KATL 070952Z 31004KT 10SM SCT180 SCT250 05/03 A3014 RMK AO2 SLP209 T00500028=
201202070852 METAR KATL 070852Z 33003KT 10SM SCT250 06/03 A3015 RMK AO2 SLP211 T00560028 58001=
201202070752 METAR KATL 070752Z 34006KT 10SM SCT250 06/03 A3015 RMK AO2 SLP213 T00610033=
201202070652 METAR KATL 070652Z 32005KT 9SM SCT150 SCT250 06/04 A3015 RMK AO2 SLP214 T00610044=
201202070552 METAR KATL 070552Z 30003KT 9SM BKN250 07/05 A3015 RMK AO2 SLP213 T00720050 10117 20067 58001=
201202070452 METAR KATL 070452Z 00000KT 9SM BKN250 07/05 A3016 RMK AO2 SLP217 T00720050 401440072=
201202070352 METAR KATL 070352Z 00000KT 10SM SCT250 07/05 A3016 RMK AO2 SLP216 T00720050=
201202070252 METAR KATL 070252Z 00000KT 10SM SCT250 08/06 A3016 RMK AO2 SLP215 T00830056 51003=
201202070152 METAR KATL 070152Z 18003KT 10SM FEW200 SCT250 08/05 A3015 RMK AO2 SLP214 T00830050=
201202070052 METAR KATL 070052Z 00000KT 10SM FEW035 SCT200 BKN250 11/05 A3015 RMK AO2 SLP211 T01060050=
201202062352 METAR KATL 062352Z 00000KT 10SM FEW150 SCT250 12/04 A3015 RMK AO2 SLP209 T01170039 10144 20106 53003=
201202062252 METAR KATL 062252Z 35005KT 10SM FEW035 SCT250 13/04 A3013 RMK AO2 SLP204 T01280044=
201202062152 METAR KATL 062152Z 00000KT 10SM BKN035 BKN150 BKN250 14/04 A3014 RMK AO2 SLP204 T01390044=
201202062108 SPECI KATL 062108Z 35003KT 10SM SCT030 SCT150 SCT250 13/05 A3013 RMK AO2=
201202062108 SPECI KATL 062108Z 35003KT 10SM SCT030 SCT150 SCT250 13/05 A3013 RMK AO2=
201202062052 METAR KATL 062052Z 33003KT 10SM BKN026 BKN150 BKN250 13/05 A3014 RMK AO2 SLP205 T01280050 56017=
201202061952 METAR KATL 061952Z 00000KT 10SM BKN024 BKN028 BKN150 12/05 A3015 RMK AO2 SLP212 T01170050=
201202061852 METAR KATL 061852Z VRB03KT 10SM OVC020 11/05 A3016 RMK AO2 SLP215 T01110050=
201202061752 METAR KATL 061752Z 12003KT 10SM OVC018 11/04 A3019 RMK AO2 SLP224 T01060044 10111 20089 58004=
201202061652 METAR KATL 061652Z 08005KT 10SM OVC018 11/04 A3020 RMK AO2 SLP229 T01060044=
201202061552 METAR KATL 061552Z 08005KT 10SM BKN018 BKN150 09/04 A3021 RMK AO2 SLP232 T00940039=
201202061452 METAR KATL 061452Z 06008KT 10SM BKN018 BKN150 09/04 A3020 RMK AO2 SLP229 T00940039 51019=
201202061359 SPECI KATL 061359Z 07009KT 10SM OVC016 09/04 A3019 RMK AO2=
201202061359 SPECI KATL 061359Z 07009KT 10SM OVC016 09/04 A3019 RMK AO2=
201202061352 METAR KATL 061352Z 08012KT 10SM BKN014 OVC018 09/04 A3019 RMK AO2 SLP224 T00890044=
201202061252 METAR KATL 061252Z 08009KT 10SM BKN012 OVC016 09/05 A3017 RMK AO2 SLP217 T00940050=
201202061152 METAR KATL 061152Z 07012KT 10SM OVC011 10/07 A3014 RMK AO2 SLP207 T01000067 10117 20100 53006=
201202061052 METAR KATL 061052Z 08011KT 8SM OVC011 11/07 A3013 RMK AO2 SLP202 T01060072 $=
201202060952 METAR KATL 060952Z 08010KT 7SM OVC011 11/07 A3013 RMK AO2 SLP200 T01060072 $=
201202060934 SPECI KATL 060934Z 08011KT 10SM BKN011 OVC036 11/07 A3013 RMK AO2 $=
201202060934 SPECI KATL 060934Z 08011KT 10SM BKN011 OVC036 11/07 A3013 RMK AO2 $=
201202060852 METAR KATL 060852Z 06011KT 10SM OVC036 11/07 A3013 RMK AO2 SLP198 T01110067 53003 $=
201202060752 METAR KATL 060752Z 36005KT 10SM FEW040 BKN180 10/07 A3012 RMK AO2 SLP198 T01000067 $=
201202060652 METAR KATL 060652Z 33005KT 10SM FEW040 BKN200 11/07 A3012 RMK AO2 SLP196 T01110067 $=
201202060552 METAR KATL 060552Z 35005KT 10SM BKN200 12/07 A3012 RMK AO2 SLP196 T01170072 10161 20111 53002 $=
201202060452 METAR KATL 060452Z 33006KT 10SM BKN220 11/08 A3011 RMK AO2 SLP195 T01110078 402110111 $=
201202060352 METAR KATL 060352Z 33005KT 10SM SCT180 BKN220 12/08 A3011 RMK AO2 SLP194 T01220078 $=
201202060252 METAR KATL 060252Z 32007KT 10SM BKN220 13/08 A3011 RMK AO2 SLP195 T01280083 51013 $=
201202060152 METAR KATL 060152Z 32009KT 10SM FEW250 13/08 A3011 RMK AO2 SLP194 T01330083 $=
201202060052 METAR KATL 060052Z 33010KT 10SM FEW250 15/08 A3009 RMK AO2 SLP188 T01500078 $=
201202052352 METAR KATL 052352Z 33008KT 10SM FEW050 SCT220 16/06 A3007 RMK AO2 SLP181 T01610061 10211 20161 53011 $=
201202052252 METAR KATL 052252Z 32010KT 10SM FEW050 SCT220 18/07 A3006 RMK AO2 SLP175 T01830067 $=
201202052152 METAR KATL 052152Z 29007G16KT 10SM FEW050 SCT220 20/07 A3004 RMK AO2 SLP169 T02000067 $=
201202052052 METAR KATL 052052Z 26008G15KT 10SM FEW050 SCT220 21/07 A3004 RMK AO2 SLP167 T02110072 56012 $=
201202051952 METAR KATL 051952Z 32007KT 10SM FEW050 21/08 A3004 RMK AO2 SLP168 T02060078 $=
201202051852 METAR KATL 051852Z VRB06KT 10SM BKN043 20/09 A3005 RMK AO2 SLP172 T02000094 $=
201202051752 METAR KATL 051752Z 30008KT 10SM FEW027 SCT220 19/11 A3007 RMK AO2 SLP179 T01940111 10200 20128 58007 $=
201202051711 SPECI KATL 051711Z 27006KT 10SM SCT028 18/12 A3008 RMK AO2 $=
201202051711 SPECI KATL 051711Z 27006KT 10SM SCT028 18/12 A3008 RMK AO2 $=
201202051652 METAR KATL 051652Z 30008KT 10SM SCT019 BKN025 OVC030 17/12 A3009 RMK AO2 SLP186 T01720117 $=
201202051623 SPECI KATL 051623Z 30006KT 10SM BKN016 17/12 A3009 RMK AO2 $=
201202051623 SPECI KATL 051623Z 30006KT 10SM BKN016 17/12 A3009 RMK AO2 $=
201202051559 SPECI KATL 051559Z 30004KT 10SM SCT008 OVC012 16/12 A3010 RMK AO2 SCT008 V BKN $=
201202051559 SPECI KATL 051559Z 30004KT 10SM SCT008 OVC012 16/12 A3010 RMK AO2 SCT008 V BKN $=
201202051552 METAR KATL 051552Z 30006KT 10SM BKN008 OVC012 16/12 A3009 RMK AO2 SLP188 BKN008 V SCT T01560122 $=
201202051452 METAR KATL 051452Z 30005KT 10SM OVC006 14/12 A3009 RMK AO2 SLP189 T01440122 53010 $=
201202051352 METAR KATL 051352Z 30007KT 10SM BKN006 14/12 A3008 RMK AO2 SLP183 T01390117 $=
201202051321 SPECI KATL 051321Z 30008KT 10SM BKN008 14/12 A3008 RMK AO2 $=
201202051321 SPECI KATL 051321Z 30008KT 10SM BKN008 14/12 A3008 RMK AO2 $=
201202051252 METAR KATL 051252Z 28006KT 7SM BKN010 BKN016 13/12 A3006 RMK AO2 SLP178 T01330117 $=
201202051246 SPECI KATL 051246Z 28004KT 7SM BKN012 BKN019 13/12 A3006 RMK AO2 $=
201202051246 SPECI KATL 051246Z 28004KT 7SM BKN012 BKN019 13/12 A3006 RMK AO2 $=
201202051152 METAR KATL 051152Z 26004KT 10SM FEW016 13/11 A3006 RMK AO2 SLP174 70004 T01330111 10150 20128 53007 $=
201202051108 SPECI KATL 051108Z 25003KT 10SM FEW016 13/12 A3004 RMK AO2 $=
201202051108 SPECI KATL 051108Z 25003KT 10SM FEW016 13/12 A3004 RMK AO2 $=
201202051052 METAR KATL 051052Z 27004KT 10SM BKN016 BKN020 14/12 A3004 RMK AO2 SLP168 T01390117 $=
201202050952 METAR KATL 050952Z 27007KT 6SM HZ FEW009 BKN012 OVC020 15/12 A3005 RMK AO2 SLP170 T01500122 $=
201202050852 METAR KATL 050852Z 28007KT 10SM SCT009 OVC014 15/13 A3003 RMK AO2 SLP165 T01500128 51002 $=
201202050820 SPECI KATL 050820Z 27006KT 10SM BKN009 BKN016 OVC021 15/13 A3003 RMK AO2 $=
201202050820 SPECI KATL 050820Z 27006KT 10SM BKN009 BKN016 OVC021 15/13 A3003 RMK AO2 $=
201202050752 METAR KATL 050752Z 26007KT 7SM FEW008 SCT014 OVC022 15/13 A3003 RMK AO2 SLP163 T01500133 $=
201202050747 SPECI KATL 050747Z 24008KT 7SM SCT008 SCT014 OVC022 15/13 A3002 RMK AO2 $=
201202050747 SPECI KATL 050747Z 24008KT 7SM SCT008 SCT014 OVC022 15/13 A3002 RMK AO2 $=
201202050652 METAR KATL 050652Z 26007KT 7SM BKN008 OVC012 15/13 A3004 RMK AO2 SLP168 T01500133 $=
201202050552 METAR KATL 050552Z 23007KT 10SM BKN009 OVC100 16/13 A3003 RMK AO2 RAE05 SLP164 P0000 60004 T01560133 10183 20156 56002 $=
201202050546 SPECI KATL 050546Z 24008KT 10SM BKN009 OVC100 16/13 A3003 RMK AO2 RAE05 P0000 $=
201202050546 SPECI KATL 050546Z 24008KT 10SM BKN009 OVC100 16/13 A3003 RMK AO2 RAE05 P0000 $=
201202050511 SPECI KATL 050511Z 23011KT 10SM SCT009 OVC100 16/13 A3003 RMK AO2 RAE05 P0000 $=
201202050511 SPECI KATL 050511Z 23011KT 10SM SCT009 OVC100 16/13 A3003 RMK AO2 RAE05 P0000 $=
201202050452 METAR KATL 050452Z 22009KT 9SM -RA BKN009 BKN042 OVC095 16/14 A3003 RMK AO2 RAE26B50 SLP165 P0002 T01610139 402110111 $=
201202050439 SPECI KATL 050439Z 22008KT 10SM BKN009 OVC100 17/14 A3003 RMK AO2 RAE26 P0002 $=
201202050439 SPECI KATL 050439Z 22008KT 10SM BKN009 OVC100 17/14 A3003 RMK AO2 RAE26 P0002 $=
201202050352 METAR KATL 050352Z 20009KT 7SM -RA FEW031 BKN085 OVC110 17/14 A3003 RMK AO2 RAB19 SLP167 P0001 T01720139 $=
201202050252 METAR KATL 050252Z 20005KT 10SM SCT028 BKN042 OVC070 17/13 A3006 RMK AO2 RAB18E42 SLP176 P0001 60001 T01670133 58003 $=
201202050152 METAR KATL 050152Z 18004KT 10SM SCT041 BKN075 OVC180 18/12 A3007 RMK AO2 SLP179 T01780117 $=
201202050052 METAR KATL 050052Z 19004KT 10SM FEW047 SCT150 OVC220 17/11 A3007 RMK AO2 SLP181 T01720111 $=
201202042352 METAR KATL 042352Z 16005KT 10SM FEW040 SCT085 BKN150 BKN200 18/11 A3007 RMK AO2 SLP179 T01830111 10211 20183 58009 $=
201202042252 METAR KATL 042252Z 18004KT 10SM BKN040 BKN050 BKN250 20/11 A3008 RMK AO2 SLP185 T02000111 $=
201202042152 METAR KATL 042152Z 21008KT 10SM BKN047 OVC060 21/11 A3009 RMK AO2 SLP186 T02060106 $=
201202042052 METAR KATL 042052Z 22008KT 10SM BKN040 BKN060 21/11 A3009 RMK AO2 SLP187 T02110106 56026 $=
201202041952 METAR KATL 041952Z 19007KT 10SM SCT037 BKN075 21/11 A3010 RMK AO2 SLP191 T02060106 $=
201202041852 METAR KATL 041852Z 17012G15KT 10SM SCT033 BKN050 21/11 A3013 RMK AO2 SLP200 T02060106 $=
201202041752 METAR KATL 041752Z 20011G18KT 10SM FEW028 BKN050 19/11 A3017 RMK AO2 SLP215 T01940106 10194 20111 58028 $=
201202041652 METAR KATL 041652Z 16008KT 10SM SCT026 SCT055 BKN080 17/09 A3022 RMK AO2 SLP231 T01720094 $=
201202041605 SPECI KATL 041605Z 13004KT 10SM FEW017 SCT023 BKN065 16/08 A3024 RMK AO2 $=
201202041605 SPECI KATL 041605Z 13004KT 10SM FEW017 SCT023 BKN065 16/08 A3024 RMK AO2 $=
201202041552 METAR KATL 041552Z VRB04KT 10SM SCT017 BKN023 BKN060 14/08 A3024 RMK AO2 SLP241 T01440078 $=
201202041532 SPECI KATL 041532Z 14006KT 10SM SCT015 OVC023 13/07 A3024 RMK AO2 $=
201202041532 SPECI KATL 041532Z 14006KT 10SM SCT015 OVC023 13/07 A3024 RMK AO2 $=
201202041452 METAR KATL 041452Z 14005KT 10SM OVC013 12/06 A3026 RMK AO2 SLP246 T01220056 58000 $=
201202041352 METAR KATL 041352Z 11004KT 10SM BKN013 OVC016 12/05 A3026 RMK AO2 SLP248 T01170050 $=
201202041252 METAR KATL 041252Z 13005KT 10SM BKN013 OVC017 11/04 A3026 RMK AO2 SLP249 T01110044 $=
201202041152 METAR KATL 041152Z 11006KT 10SM BKN014 OVC017 11/04 A3026 RMK AO2 SLP247 T01110044 10117 20111 50003 $=
201202041052 METAR KATL 041052Z 10005KT 10SM BKN015 OVC018 11/04 A3026 RMK AO2 SLP247 T01110039 $=
201202040952 METAR KATL 040952Z 09007KT 8SM OVC017 11/03 A3025 RMK AO2 SLP244 T01110033 $=
201202040852 METAR KATL 040852Z 08010KT 8SM BKN017 OVC020 11/03 A3025 RMK AO2 SLP243 T01110028 58007 $=
201202040752 METAR KATL 040752Z 07008KT 10SM BKN022 OVC060 12/02 A3027 RMK AO2 SLP248 T01170022 $=
201202040728 SPECI KATL 040728Z 07009KT 10SM BKN022 OVC060 12/02 A3027 RMK AO2 $=
201202040728 SPECI KATL 040728Z 07009KT 10SM BKN022 OVC060 12/02 A3027 RMK AO2 $=
201202040652 METAR KATL 040652Z 08008KT 7SM OVC060 12/02 A3026 RMK AO2 SLP247 T01170022 $=
201202040552 METAR KATL 040552Z 10005KT 10SM BKN070 OVC100 12/02 A3027 RMK AO2 SLP250 60000 T01170017 10144 20111 56018 $=
201202040452 METAR KATL 040452Z 10009KT 10SM FEW090 BKN120 BKN250 11/01 A3027 RMK AO2 SLP251 T01110011 401670072=
201202040352 METAR KATL 040352Z 09008KT 10SM BKN090 OVC150 12/03 A3031 RMK AO2 SLP263 T01170028=
201202040252 METAR KATL 040252Z 09007KT 10SM OVC090 12/03 A3033 RMK AO2 RAB26E46 SLP271 P0000 60000 T01170033 50000=
201202040152 METAR KATL 040152Z 07009KT 10SM OVC085 13/01 A3034 RMK AO2 SLP275 T01330011=
201202040052 METAR KATL 040052Z 09008KT 10SM OVC090 14/01 A3033 RMK AO2 SLP272 T01390011=
201202032352 METAR KATL 032352Z 08009KT 10SM BKN100 OVC150 14/02 A3033 RMK AO2 SLP271 T01440017 10167 20139 53004=
201202032252 METAR KATL 032252Z 10006KT 10SM SCT110 BKN150 OVC200 16/01 A3032 RMK AO2 SLP268 T01560006=
201202032152 METAR KATL 032152Z 10006KT 10SM BKN110 BKN150 OVC200 16/00 A3032 RMK AO2 SLP268 T01610000=
201202032052 METAR KATL 032052Z 10010KT 10SM FEW110 BKN150 OVC200 16/01 A3031 RMK AO2 SLP266 VIRGA DSNT E T01610006 56013=
201202031952 METAR KATL 031952Z 11007KT 10SM FEW110 BKN150 OVC200 16/00 A3032 RMK AO2 SLP267 VIRGA SW-NW T01610000=
201202031852 METAR KATL 031852Z 09007KT 10SM FEW150 BKN200 BKN250 16/00 A3034 RMK AO2 SLP275 T01610000=
201202031752 METAR KATL 031752Z 10011G20KT 10SM FEW150 SCT200 BKN250 15/M01 A3036 RMK AO2 SLP279 T01501006 10156 20072 58013=
201202031652 METAR KATL 031652Z 11012KT 10SM FEW080 SCT150 BKN250 14/M02 A3038 RMK AO2 SLP288 T01441017=
201202031552 METAR KATL 031552Z 10011KT 10SM FEW080 BKN200 BKN250 13/M01 A3039 RMK AO2 SLP293 T01281011=
201202031452 METAR KATL 031452Z 09010KT 10SM FEW150 SCT200 BKN250 11/M01 A3039 RMK AO2 SLP294 T01111006 51018=
201202031352 METAR KATL 031352Z 09010KT 10SM FEW150 BKN250 09/00 A3038 RMK AO2 SLP288 T00940000=
201202031252 METAR KATL 031252Z 09009KT 10SM FEW150 SCT250 08/00 A3036 RMK AO2 SLP282 T00780000=
201202031152 METAR KATL 031152Z 09009KT 10SM SCT250 08/00 A3034 RMK AO2 SLP275 T00780000 10111 20072 53013=
201202031052 METAR KATL 031052Z 09006KT 10SM SCT250 07/01 A3031 RMK AO2 SLP264 T00720006=
201202030952 METAR KATL 030952Z 09006KT 10SM SCT250 08/01 A3030 RMK AO2 SLP261 T00780006=
201202030852 METAR KATL 030852Z 08005KT 10SM SCT250 09/00 A3030 RMK AO2 SLP258 T00890000 51006=
201202030752 METAR KATL 030752Z 07005KT 10SM SCT250 10/00 A3030 RMK AO2 SLP258 T01000000 $=
201202030652 METAR KATL 030652Z 03004KT 10SM BKN250 11/00 A3029 RMK AO2 SLP255 T01110000=
201202030552 METAR KATL 030552Z 03005KT 10SM BKN250 11/00 A3028 RMK AO2 SLP251 T01110000 10156 20100 51005=
201202030452 METAR KATL 030452Z 34004KT 10SM BKN250 10/01 A3028 RMK AO2 SLP252 T01000011 401940100=
201202030352 METAR KATL 030352Z 34003KT 10SM BKN250 12/01 A3027 RMK AO2 SLP250 T01170006=
201202030252 METAR KATL 030252Z 32004KT 10SM BKN250 12/01 A3026 RMK AO2 SLP249 T01170006 53017=
201202030152 METAR KATL 030152Z 31006KT 10SM BKN250 12/01 A3025 RMK AO2 SLP243 T01220011=
201202030052 METAR KATL 030052Z 32007KT 10SM BKN250 14/01 A3022 RMK AO2 SLP233 T01390011=
201202022352 METAR KATL 022352Z 34008KT 10SM BKN250 16/01 A3021 RMK AO2 SLP229 T01560006 10194 20156 53012=
201202022252 METAR KATL 022252Z 34007KT 10SM BKN250 17/01 A3019 RMK AO2 SLP223 T01720006=
201202022152 METAR KATL 022152Z 34008KT 10SM FEW250 BKN300 19/03 A3018 RMK AO2 SLP218 T01940028=
201202022052 METAR KATL 022052Z 32010G16KT 10SM FEW250 BKN300 19/03 A3018 RMK AO2 SLP216 T01940033 55009=
201202021952 METAR KATL 021952Z 32010KT 10SM FEW250 BKN300 19/05 A3017 RMK AO2 SLP215 T01890050=
201202021852 METAR KATL 021852Z 32009KT 10SM FEW030 SCT250 18/08 A3019 RMK AO2 SLP220 T01830078=
201202021752 METAR KATL 021752Z 35012G16KT 10SM SCT030 18/09 A3021 RMK AO2 SLP226 T01780094 10178 20133 58004=
201202021728 SPECI KATL 021728Z 33011KT 10SM FEW025 SCT030 SCT250 17/10 A3022 RMK AO2=
201202021728 SPECI KATL 021728Z 33011KT 10SM FEW025 SCT030 SCT250 17/10 A3022 RMK AO2=
201202021652 METAR KATL 021652Z 35012G15KT 10SM BKN025 BKN030 BKN250 17/10 A3022 RMK AO2 SLP232 T01670100=
201202021559 SPECI KATL 021559Z 32007KT 10SM BKN020 BKN250 16/11 A3023 RMK AO2=
201202021559 SPECI KATL 021559Z 32007KT 10SM BKN020 BKN250 16/11 A3023 RMK AO2=
201202021552 METAR KATL 021552Z 30006KT 10SM SCT017 SCT250 16/11 A3023 RMK AO2 SLP233 T01560106=
201202021509 SPECI KATL 021509Z 31003KT 10SM FEW020 SCT250 14/11 A3022 RMK AO2=
201202021509 SPECI KATL 021509Z 31003KT 10SM FEW020 SCT250 14/11 A3022 RMK AO2=
201202021502 SPECI KATL 021502Z 32005KT 10SM SCT015 OVC021 14/11 A3022 RMK AO2=
201202021502 SPECI KATL 021502Z 32005KT 10SM SCT015 OVC021 14/11 A3022 RMK AO2=
201202021452 METAR KATL 021452Z 31008KT 10SM FEW010 BKN014 BKN018 13/11 A3022 RMK AO2 SLP232 T01330106 51019=
201202021352 METAR KATL 021352Z 32008KT 10SM FEW010 BKN014 13/11 A3020 RMK AO2 SLP227 T01330106=
201202021252 METAR KATL 021252Z 31007KT 10SM FEW008 BKN012 BKN022 14/12 A3018 RMK AO2 SLP220 T01390117=
201202021240 SPECI KATL 021240Z 30011KT 10SM FEW008 BKN012 BKN022 14/12 A3018 RMK AO2=
201202021240 SPECI KATL 021240Z 30011KT 10SM FEW008 BKN012 BKN022 14/12 A3018 RMK AO2=
201202021152 METAR KATL 021152Z 30008G15KT 7SM FEW005 BKN008 OVC013 14/12 A3016 RMK AO2 SLP212 70045 T01390122 10139 20133 53016=
201202021112 SPECI KATL 021112Z 28010KT 2 1/2SM BR OVC005 14/12 A3014 RMK AO2 SFC VIS 6 CIG 003V007 $=
201202021112 SPECI KATL 021112Z 28010KT 2 1/2SM BR OVC005 14/12 A3014 RMK AO2 SFC VIS 6 CIG 003V007 $=
201202021055 SPECI KATL 021055Z 28009KT 2 1/2SM BR OVC004 14/12 A3014 RMK AO2 SFC VIS 5 CIG 003V007 $=
201202021055 SPECI KATL 021055Z 28009KT 2 1/2SM BR OVC004 14/12 A3014 RMK AO2 SFC VIS 5 CIG 003V007 $=
201202021052 METAR KATL 021052Z 28009KT 1SM BR OVC004 14/12 A3013 RMK AO2 SFC VIS 5 SLP203 CIG 003V007 T01390122 $=
201202020952 METAR KATL 020952Z 27007KT 1SM BR OVC003 14/13 A3013 RMK AO2 SFC VIS 4 SLP201 T01390128=
201202020852 METAR KATL 020852Z 25005KT 1SM BR OVC003 13/12 A3011 RMK AO2 SFC VIS 4 SLP195 T01330122 56014=
201202020823 SPECI KATL 020823Z 24005KT 1SM BR OVC003 14/12 A3010 RMK AO2 SFC VIS 4=
201202020823 SPECI KATL 020823Z 24005KT 1SM BR OVC003 14/12 A3010 RMK AO2 SFC VIS 4=
201202020816 SPECI KATL 020816Z 24005KT 2 1/2SM BR OVC003 14/12 A3010 RMK AO2 SFC VIS 5=
201202020816 SPECI KATL 020816Z 24005KT 2 1/2SM BR OVC003 14/12 A3010 RMK AO2 SFC VIS 5=
201202020752 METAR KATL 020752Z 25004KT 2 1/2SM OVC005 14/12 A3011 RMK AO2 SFC VIS 7 SLP194 CIG 004V007 T01390122=
201202020652 METAR KATL 020652Z 26005KT 2 1/2SM OVC006 14/12 A3012 RMK AO2 SFC VIS 8 SLP196 CIG 004V007 T01390122=
201202020552 METAR KATL 020552Z 28008KT 2 1/2SM OVC005 14/12 A3015 RMK AO2 SFC VIS 10 SLP207 CIG 004V007 60004 T01390122 10144 20139 52010=
201202020452 METAR KATL 020452Z 27009KT 2 1/2SM OVC006 14/13 A3014 RMK AO2 SFC VIS 7 DZE42 SLP203 CIG 003V008 P0000 T01440128 401940089=
201202020352 METAR KATL 020352Z 26005KT 1SM -DZ BR OVC004 14/13 A3013 RMK AO2 SFC VIS 4 SLP202 CIG 003V005 P0000 T01440133=
201202020252 METAR KATL 020252Z 21004KT 1SM -DZ BR OVC004 14/13 A3012 RMK AO2 SFC VIS 2 DZB20 SLP199 CIG 003V005 P0001 60004 T01390128 56004=
201202020220 SPECI KATL 020220Z 00000KT 1 1/2SM -DZ BR OVC004 14/13 A3012 RMK AO2 SFC VIS 2 1/2 DZB20 CIG 003V005 P0000=
201202020220 SPECI KATL 020220Z 00000KT 1 1/2SM -DZ BR OVC004 14/13 A3012 RMK AO2 SFC VIS 2 1/2 DZB20 CIG 003V005 P0000=
201202020152 METAR KATL 020152Z 25003KT 3SM BR OVC004 14/13 A3013 RMK AO2 SFC VIS 5 RAE39 SLP202 CIG 003V006 P0000 T01390128=
201202020106 SPECI KATL 020106Z 17003KT 3/4SM -RA BR BKN004 BKN009 OVC015 14/13 A3011 RMK AO2 SFC VIS 6 P0000=
201202020106 SPECI KATL 020106Z 17003KT 3/4SM -RA BR BKN004 BKN009 OVC015 14/13 A3011 RMK AO2 SFC VIS 6 P0000=
201202020101 SPECI KATL 020101Z 16004KT 5SM -RA BR SCT003 BKN008 OVC020 14/13 A3011 RMK AO2 P0000=
201202020101 SPECI KATL 020101Z 16004KT 5SM -RA BR SCT003 BKN008 OVC020 14/13 A3011 RMK AO2 P0000=
201202020052 METAR KATL 020052Z 14008KT 6SM -RA BR FEW004 SCT017 OVC070 14/13 A3010 RMK AO2 SLP194 P0003 T01390128=
201202020014 SPECI KATL 020014Z 00000KT 3SM -RA BR SCT007 BKN017 OVC025 14/12 A3013 RMK AO2 P0001=
201202020014 SPECI KATL 020014Z 00000KT 3SM -RA BR SCT007 BKN017 OVC025 14/12 A3013 RMK AO2 P0001=
201202020007 SPECI KATL 020007Z 00000KT 3SM -RA BR BKN007 BKN016 OVC025 14/13 A3013 RMK AO2 P0001=
201202020007 SPECI KATL 020007Z 00000KT 3SM -RA BR BKN007 BKN016 OVC025 14/13 A3013 RMK AO2 P0001=
201202012352 METAR KATL 012352Z 00000KT 2 1/2SM -RA BR BKN007 OVC020 14/13 A3013 RMK AO2 SLP204 CIG 004V010 P0014 60041 T01390128 10194 20133 56006=
201202012325 SPECI KATL 012325Z 00000KT 2 1/2SM -RA BR SCT005 BKN014 OVC025 14/12 A3014 RMK AO2 P0009=
201202012325 SPECI KATL 012325Z 00000KT 2 1/2SM -RA BR SCT005 BKN014 OVC025 14/12 A3014 RMK AO2 P0009=
201202012252 METAR KATL 012252Z 00000KT 2SM RA BR FEW007 BKN025 OVC060 14/13 A3014 RMK AO2 SLP207 P0011 T01390128=
201202012245 SPECI KATL 012245Z 00000KT 1 3/4SM RA BR FEW008 BKN014 OVC025 14/12 A3014 RMK AO2 P0007=
201202012245 SPECI KATL 012245Z 00000KT 1 3/4SM RA BR FEW008 BKN014 OVC025 14/12 A3014 RMK AO2 P0007=
201202012235 SPECI KATL 012235Z 00000KT 2 1/2SM RA BR BKN014 BKN019 OVC024 14/12 A3014 RMK AO2 P0003=
201202012235 SPECI KATL 012235Z 00000KT 2 1/2SM RA BR BKN014 BKN019 OVC024 14/12 A3014 RMK AO2 P0003=
201202012216 SPECI KATL 012216Z 30003KT 8SM -RA FEW008 BKN025 OVC080 14/12 A3014 RMK AO2 P0000=
201202012216 SPECI KATL 012216Z 30003KT 8SM -RA FEW008 BKN025 OVC080 14/12 A3014 RMK AO2 P0000=
201202012152 METAR KATL 012152Z 00000KT 5SM -RA BR FEW020 SCT080 OVC100 14/12 A3013 RMK AO2 SLP203 P0009 T01390122=
201202012111 SPECI KATL 012111Z 00000KT 5SM -RA BR BKN029 BKN040 OVC060 14/12 A3015 RMK AO2 P0003=
201202012111 SPECI KATL 012111Z 00000KT 5SM -RA BR BKN029 BKN040 OVC060 14/12 A3015 RMK AO2 P0003=
201202012052 METAR KATL 012052Z 32006KT 5SM -RA BR BKN030 BKN040 OVC080 14/12 A3015 RMK AO2 SLP210 P0007 60007 T01390117 55008=
201202012032 SPECI KATL 012032Z 29008KT 3SM RA BKN030 BKN040 OVC080 14/12 A3016 RMK AO2 P0002=
201202012032 SPECI KATL 012032Z 29008KT 3SM RA BKN030 BKN040 OVC080 14/12 A3016 RMK AO2 P0002=
201202012017 SPECI KATL 012017Z 29004KT 6SM -RA BKN047 BKN055 OVC080 16/11 A3015 RMK AO2 P0001=
201202012017 SPECI KATL 012017Z 29004KT 6SM -RA BKN047 BKN055 OVC080 16/11 A3015 RMK AO2 P0001=
201202011952 METAR KATL 011952Z 29005KT 9SM -RA BKN050 BKN080 OVC110 17/09 A3015 RMK AO2 RAB32 SLP207 P0000 T01720089=
201202011852 METAR KATL 011852Z 22006KT 10SM FEW050 BKN080 OVC110 19/06 A3014 RMK AO2 SLP205 T01940061=
201202011752 METAR KATL 011752Z 21005KT 10SM FEW050 SCT110 BKN250 18/06 A3018 RMK AO2 SLP217 T01830061 10189 20089 58022=
201202011652 METAR KATL 011652Z 20006KT 10SM FEW090 SCT110 BKN150 BKN250 17/07 A3020 RMK AO2 SLP226 T01720072 $=
201202011552 METAR KATL 011552Z 17004KT 10SM FEW085 BKN110 BKN150 14/06 A3023 RMK AO2 SLP238 T01390061 $=
201202011452 METAR KATL 011452Z 11003KT 9SM FEW090 BKN110 BKN150 12/06 A3024 RMK AO2 SLP242 T01220061 58002 $=
201202011352 METAR KATL 011352Z 00000KT 8SM FEW090 BKN110 BKN150 BKN200 11/06 A3025 RMK AO2 SLP244 T01060056 $=
201202011252 METAR KATL 011252Z 12003KT 8SM BKN110 BKN160 09/04 A3025 RMK AO2 SLP245 T00940044=
