##########################################################
# Query made at 04/19/2024 23:28:45 UTC
# Time interval: from 08/01/2012 12:00  to 08/31/2012 12:59  UTC
##########################################################

##########################################################
# KATL, Atlanta, Hartsfield - Jackson Atlanta International Airport (United States)
# WMO index: 72219. WIGOS ID: 0-20000-0-72219
# Latitude 33-38-59N. Longitude 084-25-00W. Altitude 312 m.
##########################################################

201208311252 METAR KATL 311252Z 16005KT 8SM BKN008 OVC180 23/21 A3025 RMK AO2 SLP233 T02330211=
201208311229 SPECI KATL 311229Z 13004KT 7SM BKN008 OVC180 23/21 A3024 RMK AO2=
201208311152 METAR KATL 311152Z 13004KT 7SM FEW008 OVC180 23/21 A3023 RMK AO2 SLP227 T02330211 10239 20228 53015=
201208311150 SPECI KATL 311150Z 12004KT 7SM FEW008 OVC180 23/21 A3023 RMK AO2=
201208311109 SPECI KATL 311109Z 00000KT 7SM BKN007 OVC180 23/21 A3021 RMK AO2=
201208311052 METAR KATL 311052Z 18003KT 10SM FEW007 SCT120 OVC180 23/21 A3020 RMK AO2 SLP219 T02280211=
201208310952 METAR KATL 310952Z 17005KT 10SM FEW007 OVC180 23/22 A3019 RMK AO2 SLP214 T02330217=
201208310852 METAR KATL 310852Z 12005KT 10SM FEW150 SCT180 OVC250 23/22 A3018 RMK AO2 SLP211 T02330217 56001=
201208310752 METAR KATL 310752Z 00000KT 8SM FEW009 BKN150 OVC200 24/22 A3019 RMK AO2 SLP212 T02390217=
201208310652 METAR KATL 310652Z 15006KT 10SM FEW009 SCT120 OVC150 24/22 A3018 RMK AO2 SLP210 T02390217=
201208310552 METAR KATL 310552Z 15004KT 10SM FEW045 OVC180 24/22 A3019 RMK AO2 SLP212 60000 T02390222 10250 20239 50005=
201208310452 METAR KATL 310452Z 12005KT 10SM FEW045 SCT150 OVC200 24/22 A3019 RMK AO2 SLP213 T02440222 402670228=
201208310352 METAR KATL 310352Z 11006KT 10SM FEW010 SCT035 BKN060 OVC200 24/22 A3019 RMK AO2 SLP212 T02440222=
201208310252 METAR KATL 310252Z 12005KT 10SM BKN035 BKN150 OVC200 25/22 A3017 RMK AO2 RAE52 SLP207 P0000 60000 T02500217 51018=
201208310152 METAR KATL 310152Z 12008KT 10SM -RA FEW012 BKN035 OVC150 25/22 A3016 RMK AO2 RAB50 SLP202 P0000 T02500222=
201208310052 METAR KATL 310052Z 11005KT 10SM FEW012 SCT025 BKN150 OVC200 25/22 A3013 RMK AO2 SLP195 T02500222=
201208310017 SPECI KATL 310017Z 12007KT 10SM SCT014 BKN020 BKN150 OVC200 25/22 A3012 RMK AO2=
201208302352 METAR KATL 302352Z 11006KT 10SM FEW015 SCT120 BKN150 OVC200 25/22 A3012 RMK AO2 SLP189 60000 T02500222 10267 20250 50001=
201208302252 METAR KATL 302252Z 11007KT 10SM FEW020 BKN120 OVC150 26/22 A3012 RMK AO2 RAE02 SLP190 P0000 T02560222=
201208302152 METAR KATL 302152Z 12007KT 10SM -RA FEW020 BKN110 OVC150 26/22 A3012 RMK AO2 RAB50 SLP189 P0000 T02610217=
201208302052 METAR KATL 302052Z 12005KT 10SM FEW020 SCT050 BKN110 OVC150 27/21 A3011 RMK AO2 SLP187 60000 T02670211 58006=
201208301952 METAR KATL 301952Z 15006KT 10SM FEW020 SCT030 BKN110 OVC150 26/22 A3012 RMK AO2 SLP190 T02610217=
201208301852 METAR KATL 301852Z 17008KT 10SM FEW020 SCT050 BKN110 OVC150 26/22 A3013 RMK AO2 RAE1759 SLP193 P0000 T02610217=
201208301752 METAR KATL 301752Z 14007KT 10SM -RA BKN020 BKN050 OVC150 26/22 A3013 RMK AO2 RAB48 SLP193 P0000 60000 T02610222 10267 20228 50001=
201208301652 METAR KATL 301652Z 16010KT 10SM BKN020 BKN030 OVC050 26/22 A3013 RMK AO2 SLP194 T02610222=
201208301552 METAR KATL 301552Z 16007KT 10SM FEW015 BKN020 BKN050 BKN150 26/22 A3014 RMK AO2 SLP196 T02610222=
201208301518 SPECI KATL 301518Z 14007KT 10SM SCT014 BKN050 BKN150 26/22 A3014 RMK AO2=
201208301452 METAR KATL 301452Z 15008KT 10SM BKN012 OVC130 26/22 A3013 RMK AO2 SLP192 T02560217 53024=
201208301423 SPECI KATL 301423Z 16008KT 10SM BKN010 BKN049 OVC150 25/22 A3012 RMK AO2=
201208301352 METAR KATL 301352Z 15006KT 9SM OVC009 24/22 A3010 RMK AO2 SLP183 T02440217=
201208301333 SPECI KATL 301333Z 15008KT 9SM BKN008 BKN065 BKN150 OVC250 24/22 A3009 RMK AO2=
201208301252 METAR KATL 301252Z 14005KT 8SM SCT006 SCT065 BKN150 OVC220 23/22 A3008 RMK AO2 SLP176 T02330217=
201208301152 METAR KATL 301152Z 12007KT 7SM SCT006 BKN150 OVC220 23/21 A3005 RMK AO2 SLP167 T02280211 10233 20228 51019=
201208301150 SPECI KATL 301150Z 13005KT 7SM SCT006 BKN150 OVC220 23/21 A3005 RMK AO2=
201208301137 SPECI KATL 301137Z 14005KT 7SM BKN006 OVC220 23/21 A3005 RMK AO2=
201208301121 SPECI KATL 301121Z 12006KT 8SM SCT006 OVC220 23/21 A3004 RMK AO2=
201208301052 METAR KATL 301052Z 12006KT 8SM BKN006 BKN150 OVC220 23/21 A3003 RMK AO2 SLP160 T02280211=
201208301020 SPECI KATL 301020Z 12005KT 10SM BKN008 OVC150 23/21 A3003 RMK AO2=
201208300952 METAR KATL 300952Z 12006KT 10SM FEW009 SCT075 BKN150 OVC220 23/21 A3002 RMK AO2 SLP154 T02330211=
201208300852 METAR KATL 300852Z 17005KT 10SM FEW008 SCT150 OVC220 23/21 A3000 RMK AO2 SLP146 T02280211 56000=
201208300752 METAR KATL 300752Z 18007KT 10SM FEW009 SCT150 OVC180 23/21 A3000 RMK AO2 SLP146 T02330211=
201208300721 SPECI KATL 300721Z 18011KT 10SM FEW009 SCT150 OVC180 23/21 A2999 RMK AO2=
201208300652 METAR KATL 300652Z 17009KT 10SM BKN009 OVC180 23/21 A2999 RMK AO2 SLP146 T02330211=
201208300635 SPECI KATL 300635Z 17006KT 10SM BKN009 BKN090 OVC180 23/21 A3000 RMK AO2=
201208300552 METAR KATL 300552Z 17006KT 10SM FEW010 SCT090 OVC200 23/22 A3000 RMK AO2 SLP146 60000 T02330217 10278 20233 58005=
201208300511 SPECI KATL 300511Z 16009KT 10SM SCT010 SCT090 OVC200 24/22 A3000 RMK AO2=
201208300452 METAR KATL 300452Z 15006KT 10SM BKN010 BKN090 OVC200 24/22 A3001 RMK AO2 SLP150 T02390217 403000228=
201208300427 SPECI KATL 300427Z 14005KT 10SM BKN010 OVC090 24/22 A3001 RMK AO2=
201208300352 METAR KATL 300352Z 15005KT 10SM FEW020 BKN090 BKN150 OVC200 24/22 A3001 RMK AO2 SLP152 T02440217=
201208300252 METAR KATL 300252Z VRB03KT 10SM FEW020 BKN090 BKN150 OVC200 25/22 A3001 RMK AO2 SLP151 60000 T02500222 52015=
201208300152 METAR KATL 300152Z 14004KT 10SM FEW020 SCT090 BKN150 OVC200 26/22 A3001 RMK AO2 SLP151 T02560222 $=
201208300052 METAR KATL 300052Z 17004KT 10SM FEW080 BKN150 OVC200 26/23 A2997 RMK AO2 RAB26E39 SLP138 P0000 T02560228=
201208292352 METAR KATL 292352Z 14004KT 10SM FEW030 SCT150CB BKN200 OVC250 28/22 A2996 RMK AO2 SLP137 CBMAM OHD-SW T02780222 10300 20278 51006=
201208292252 METAR KATL 292252Z 15005KT 10SM FEW030 SCT150 BKN200 OVC250 28/22 A2996 RMK AO2 SLP136 TCU DSNT NE & S & NW-N T02830217=
201208292152 METAR KATL 292152Z 15006KT 10SM FEW030TCU BKN200 OVC250 29/22 A2995 RMK AO2 SLP132 TCU NW & DSNT N-NE T02890222=
201208292052 METAR KATL 292052Z 16004KT 10SM SCT033TCU BKN200 29/21 A2995 RMK AO2 SLP129 TCU NW-N-NE T02940211 56020=
201208291952 METAR KATL 291952Z 15006KT 10SM FEW035TCU BKN050 BKN200 30/21 A2996 RMK AO2 SLP135 TCU E & SW-NW T03000211=
201208291852 METAR KATL 291852Z 16003KT 10SM FEW030TCU SCT065 BKN200 29/21 A2998 RMK AO2 SLP139 TCU E T02940211=
201208291752 METAR KATL 291752Z 14003KT 10SM BKN040TCU BKN200 29/21 A3001 RMK AO2 SLP150 TCU OHD-SE-S-SW-W T02890211 10300 20233 58009=
201208291652 METAR KATL 291652Z 18004KT 10SM FEW030 SCT040 BKN200 28/21 A3002 RMK AO2 SLP156 T02830211=
201208291552 METAR KATL 291552Z 00000KT 10SM SCT025TCU SCT150 BKN250 28/21 A3004 RMK AO2 SLP160 TCU SE-SW T02780211=
201208291452 METAR KATL 291452Z VRB03KT 10SM FEW015 SCT150 BKN250 27/22 A3003 RMK AO2 SLP160 T02670222 51008=
201208291448 SPECI KATL 291448Z 10003KT 10SM FEW015 SCT150 BKN250 27/22 A3003 RMK AO2=
201208291410 SPECI KATL 291410Z 12003KT 10SM FEW010 BKN014 BKN020 25/22 A3003 RMK AO2=
201208291352 METAR KATL 291352Z VRB03KT 10SM FEW010 BKN016 BKN020 25/22 A3002 RMK AO2 SLP157 T02500217=
201208291325 SPECI KATL 291325Z 14005KT 8SM FEW009 BKN016 BKN020 24/22 A3001 RMK AO2=
201208291252 METAR KATL 291252Z 11004KT 6SM BR BKN007 OVC014 24/22 A3001 RMK AO2 SLP153 T02440222=
201208291152 METAR KATL 291152Z 12005KT 6SM BR OVC007 23/22 A2999 RMK AO2 SLP147 70098 T02330222 10244 20228 53007=
201208291136 SPECI KATL 291136Z 13003KT 6SM BR SCT007 BKN120 23/22 A2999 RMK AO2=
201208291119 SPECI KATL 291119Z 12003KT 6SM BR BKN004 BKN009 OVC022 23/22 A2999 RMK AO2=
201208291052 METAR KATL 291052Z 13003KT 1 1/2SM BR BKN004 23/22 A2997 RMK AO2 SFC VIS 6 SLP140 T02330222=
201208291031 SPECI KATL 291031Z 00000KT 6SM BR BKN004 23/22 A2997 RMK AO2=
201208290952 METAR KATL 290952Z 12003KT 6SM BR FEW006 SCT014 23/22 A2996 RMK AO2 SLP136 T02330222=
201208290946 SPECI KATL 290946Z 12003KT 6SM BR FEW006 SCT014 23/22 A2996 RMK AO2=
201208290852 METAR KATL 290852Z 09007KT 6SM BR BKN011 23/22 A2997 RMK AO2 SLP139 T02330222 56005=
201208290752 METAR KATL 290752Z 07006KT 7SM FEW008 BKN014 BKN100 23/22 A2997 RMK AO2 SLP139 T02330222=
201208290652 METAR KATL 290652Z 09005KT 10SM SCT034 BKN050 24/22 A2997 RMK AO2 SLP141 T02390217=
201208290645 SPECI KATL 290645Z 10003KT 10SM SCT036 24/22 A2998 RMK AO2=
201208290552 METAR KATL 290552Z 11003KT 10SM BKN014 OVC018 24/22 A2998 RMK AO2 SLP144 T02440217 10250 20239 56001=
201208290452 METAR KATL 290452Z 14005KT 10SM OVC012 24/22 A2999 RMK AO2 SLP145 CIG 009V014 T02440222 402670233=
201208290417 SPECI KATL 290417Z 12008KT 10SM SCT008 BKN014 BKN200 24/22 A2998 RMK AO2=
201208290352 METAR KATL 290352Z 11009KT 10SM BKN008 BKN015 BKN200 24/23 A2998 RMK AO2 SLP144 T02440228=
201208290252 METAR KATL 290252Z 08008KT 10SM BKN007 OVC015 24/23 A2999 RMK AO2 SLP145 T02440228 50011=
201208290210 SPECI KATL 290210Z 10008KT 10SM BKN009 BKN014 24/23 A3000 RMK AO2=
201208290152 METAR KATL 290152Z 08008KT 10SM FEW009 SCT018 BKN150 BKN200 24/22 A2999 RMK AO2 SLP146 T02390222=
201208290125 SPECI KATL 290125Z 10007KT 10SM SCT009 BKN015 BKN150 OVC200 24/22 A2999 RMK AO2=
201208290052 METAR KATL 290052Z 08008KT 10SM FEW010 SCT020 BKN150 OVC200 24/22 A2997 RMK AO2 SLP141 T02440222=
201208290012 SPECI KATL 290012Z 08009KT 10SM FEW010 BKN022 BKN150 BKN250 24/22 A2996 RMK AO2=
201208282352 METAR KATL 282352Z 06011KT 10SM FEW012 BKN150 BKN250 25/22 A2995 RMK AO2 SLP134 60001 T02500222 10267 20239 58005=
201208282318 SPECI KATL 282318Z 06010KT 10SM FEW014 SCT022 BKN150 BKN250 25/22 A2996 RMK AO2=
201208282252 METAR KATL 282252Z 06010KT 10SM FEW012 BKN022 BKN150 BKN250 26/22 A2996 RMK AO2 SLP135 T02560217=
201208282152 METAR KATL 282152Z 05009KT 10SM SCT014 BKN022 BKN150 BKN250 26/22 A2997 RMK AO2 SLP138 T02610222=
201208282052 METAR KATL 282052Z 04008KT 10SM BKN012 BKN100 BKN200 26/22 A2997 RMK AO2 SLP138 60001 T02560222 56015=
201208281952 METAR KATL 281952Z 04008KT 10SM SCT009 BKN018 BKN100 26/23 A2998 RMK AO2 RAE05 SLP141 P0000 T02560228=
201208281852 METAR KATL 281852Z 04009KT 10SM -RA SCT007 SCT030 BKN100 24/23 A3000 RMK AO2 SLP150 P0001 T02440228=
201208281811 SPECI KATL 281811Z 08008KT 6SM -RA BR FEW007 BKN034 OVC100 24/23 A3001 RMK AO2 P0001=
201208281756 SPECI KATL 281756Z 07008KT 2 1/2SM -RA BR FEW006 BKN029 OVC047 24/23 A3001 RMK AO2 SFC VIS 5 P0000=
201208281752 METAR KATL 281752Z 08007KT 2SM -RA BR FEW006 BKN027 OVC045 24/23 A3001 RMK AO2 SFC VIS 5 SLP154 P0019 60097 T02390228 10239 20233 58002=
201208281732 SPECI KATL 281732Z 09006KT 2SM -RA BR FEW006 BKN040 OVC050 24/23 A3002 RMK AO2 SFC VIS 5 P0016=
201208281719 SPECI KATL 281719Z 09008KT 2SM +RA BR SCT006 BKN012 OVC050 24/23 A3002 RMK AO2 SFC VIS 3 P0012=
201208281656 SPECI KATL 281656Z 07007KT 2SM +RA BR SCT004 BKN008 OVC023 24/23 A3002 RMK AO2 SFC VIS 4 P0004=
201208281648 METAR KATL 281648Z 08008KT 2SM +RA BR BKN004 BKN014 OVC019 24/23 A3002=
201208281622 SPECI KATL 281622Z 08008KT 2SM R09R/3500VP6000FT +RA BR SCT006 SCT014 OVC021 23/22 A3002 RMK AO2 SFC VIS 3 P0031=
201208281552 METAR KATL 281552Z 08007KT 2SM R09R/5500VP6000FT +RA BR BKN006 BKN010 OVC020 23/22 A3003 RMK AO2 SFC VIS 3 SLP160 P0026 T02330222=
201208281536 SPECI KATL 281536Z 08008KT 2SM RA BR BKN006 BKN011 OVC024 24/22 A3003 RMK AO2 SFC VIS 3 P0018=
201208281452 METAR KATL 281452Z 08007KT 2SM -RA BR BKN006 BKN010 OVC012 24/22 A3002 RMK AO2 SFC VIS 5 SLP156 P0002 60002 T02390222 53006=
201208281352 METAR KATL 281352Z 08010KT 2SM -RA BR OVC006 24/22 A3001 RMK AO2 SFC VIS 5 RAB20DZB36E48 SLP152 P0000 T02390222=
201208281334 SPECI KATL 281334Z 08008KT 1 1/2SM BR OVC006 23/22 A3001 RMK AO2 SFC VIS 3 RAB20E34 P0000=
201208281324 SPECI KATL 281324Z 08010G16KT 1/2SM R09R/5500VP6000FT -RA BR OVC006 23/22 A3001 RMK AO2 SFC VIS 1 1/2 RAB20 P0000=
201208281252 METAR KATL 281252Z 07010KT 6SM BR BKN006 OVC010 24/22 A3001 RMK AO2 RAB31E46 SLP151 P0000 T02390217=
201208281152 METAR KATL 281152Z 08011KT 6SM BR BKN006 OVC009 23/22 A3000 RMK AO2 SLP148 60000 T02330217 10250 20233 53003=
201208281052 METAR KATL 281052Z 10007KT 10SM BKN008 OVC012 24/22 A3000 RMK AO2 SLP147 T02390217=
201208281026 SPECI KATL 281026Z 09008KT 10SM BKN008 OVC012 23/22 A2999 RMK AO2=
201208280952 METAR KATL 280952Z 08010KT 10SM BKN010 OVC100 24/21 A2998 RMK AO2 SLP141 T02390211 $=
201208280852 METAR KATL 280852Z 12009KT 10SM OVC014 24/21 A2999 RMK AO2 SLP144 60000 T02440211 55005 $=
201208280805 SPECI KATL 280805Z 10008KT 10SM BKN014 OVC095 24/21 A2999=
201208280752 METAR KATL 280752Z 10009KT 10SM FEW014 SCT047 OVC095 24/21 A2998 RMK AO2 RAB28E38 SLP141 P0000 T02440211 $=
201208280652 METAR KATL 280652Z 07008KT 10SM FEW055 BKN075 BKN100 OVC200 24/21 A2999 RMK AO2 SLP142 T02440211 $=
201208280552 METAR KATL 280552Z 08009KT 10SM FEW015 SCT049 OVC080 25/21 A3001 RMK AO2 SLP149 T02500211 10300 20250 58007 $=
201208280452 METAR KATL 280452Z 09007KT 10SM FEW030 SCT060 BKN200 25/21 A3002 RMK AO2 SLP153 T02500211 403220206=
201208280352 METAR KATL 280352Z 11009G14KT 10SM FEW032 BKN060 BKN250 26/21 A3003 RMK AO2 SLP157 T02560211=
201208280252 METAR KATL 280252Z 12011KT 10SM FEW040 SCT070 BKN250 26/21 A3003 RMK AO2 SLP157 T02610206 53013=
201208280152 METAR KATL 280152Z 14006KT 10SM FEW045 BKN070 BKN250 27/21 A3002 RMK AO2 SLP154 T02720211=
201208280052 METAR KATL 280052Z 11008KT 10SM BKN045 BKN060 BKN250 29/19 A3000 RMK AO2 SLP148 T02940189=
201208272352 METAR KATL 272352Z 08014KT 10SM FEW055 SCT070 BKN250 30/17 A2999 RMK AO2 SLP145 T03000172 10322 20300 55001=
201208272252 METAR KATL 272252Z 07014KT 10SM FEW060 BKN250 31/17 A2999 RMK AO2 SLP144 T03110167=
201208272152 METAR KATL 272152Z 07012G18KT 10SM FEW070 BKN250 32/14 A2999 RMK AO2 PK WND 05026/2127 SLP143 T03220144=
201208272052 METAR KATL 272052Z 10013G19KT 10SM FEW070 SCT150 SCT250 32/14 A2999 RMK AO2 SLP146 T03220144 56023=
201208271952 METAR KATL 271952Z 09012G16KT 10SM FEW070 SCT150 SCT250 32/15 A3002 RMK AO2 SLP153 T03220150=
201208271852 METAR KATL 271852Z 05010KT 10SM FEW065 SCT150 SCT250 31/16 A3004 RMK AO2 SLP161 T03110161=
201208271752 METAR KATL 271752Z 09010G16KT 10SM FEW060 SCT250 31/17 A3007 RMK AO2 SLP170 T03110167 10311 20217 58020=
201208271652 METAR KATL 271652Z 07012G17KT 10SM FEW050 SCT250 29/17 A3010 RMK AO2 SLP180 T02940172=
201208271552 METAR KATL 271552Z 08015KT 10SM FEW040 SCT250 29/17 A3012 RMK AO2 SLP189 T02890172=
201208271452 METAR KATL 271452Z 10011KT 10SM FEW250 27/18 A3013 RMK AO2 SLP191 T02670178 58005=
201208271352 METAR KATL 271352Z 06013KT 10SM FEW250 26/18 A3013 RMK AO2 SLP193 T02560178=
201208271252 METAR KATL 271252Z 05010KT 10SM FEW250 23/18 A3015 RMK AO2 SLP198 T02330178=
201208271152 METAR KATL 271152Z 05008KT 10SM FEW250 22/17 A3014 RMK AO2 SLP196 T02170172 10228 20206 53018=
201208271052 METAR KATL 271052Z 04006KT 10SM CLR 21/17 A3011 RMK AO2 SLP188 T02110172=
201208270952 METAR KATL 270952Z 05005KT 10SM CLR 22/17 A3009 RMK AO2 SLP179 T02170172=
201208270852 METAR KATL 270852Z 08006KT 10SM CLR 21/17 A3009 RMK AO2 SLP177 T02110172 55004=
201208270752 METAR KATL 270752Z 08006KT 10SM CLR 22/17 A3008 RMK AO2 SLP176 T02170172=
201208270652 METAR KATL 270652Z 08004KT 10SM CLR 22/17 A3009 RMK AO2 SLP178 T02220172=
201208270552 METAR KATL 270552Z 09006KT 10SM CLR 22/18 A3010 RMK AO2 SLP182 T02220178 10283 20222 58003=
201208270452 METAR KATL 270452Z 08006KT 10SM CLR 23/18 A3011 RMK AO2 SLP184 T02330178 403220200=
201208270352 METAR KATL 270352Z 00000KT 10SM CLR 26/18 A3011 RMK AO2 SLP184 T02560178=
201208270252 METAR KATL 270252Z 11003KT 10SM CLR 26/18 A3011 RMK AO2 SLP185 T02610178 53011=
201208270152 METAR KATL 270152Z 12003KT 10SM FEW055 28/17 A3010 RMK AO2 SLP180 T02780172=
201208270052 METAR KATL 270052Z 14003KT 10SM FEW055 SCT100 28/18 A3008 RMK AO2 SLP177 T02780178=
201208262352 METAR KATL 262352Z 16005KT 10SM FEW060 SCT100 28/18 A3007 RMK AO2 SLP174 T02830178 10322 20283 56004=
201208262252 METAR KATL 262252Z 12006KT 10SM FEW060 SCT100 30/17 A3007 RMK AO2 SLP174 T03000167=
201208262152 METAR KATL 262152Z 13007KT 10SM SCT060 SCT110 31/18 A3008 RMK AO2 SLP174 MDT CU OHD-NW T03110178=
201208262052 METAR KATL 262052Z 02007KT 10SM SCT060 SCT120 31/16 A3009 RMK AO2 SLP177 MDT CU NE-E-S T03060156 56023=
201208261952 METAR KATL 261952Z 02010KT 10SM SCT060 31/16 A3010 RMK AO2 SLP183 T03110161=
201208261852 METAR KATL 261852Z 01005KT 10SM SCT055 31/16 A3013 RMK AO2 SLP192 T03060161=
201208261752 METAR KATL 261752Z COR 01007KT 330V050 10SM SCT052 30/17 A3015 RMK AO2 SLP200 T03000167 10306 20217 58016=
201208261652 METAR KATL 261652Z 06008KT 10SM FEW048 30/18 A3018 RMK AO2 SLP208 T03000178=
201208261552 METAR KATL 261552Z 00000KT 10SM FEW042 29/17 A3019 RMK AO2 SLP214 T02890172=
201208261452 METAR KATL 261452Z 07005KT 10SM CLR 28/17 A3020 RMK AO2 SLP217 T02780172 51012=
201208261352 METAR KATL 261352Z 00000KT 10SM CLR 26/18 A3019 RMK AO2 SLP213 T02610178=
201208261252 METAR KATL 261252Z 09003KT 10SM CLR 23/18 A3018 RMK AO2 SLP211 T02330183=
201208261152 METAR KATL 261152Z 07004KT 10SM CLR 22/18 A3017 RMK AO2 SLP206 T02170178 10233 20200 53015=
201208261052 METAR KATL 261052Z 08004KT 10SM CLR 21/17 A3015 RMK AO2 SLP199 T02110172=
201208260952 METAR KATL 260952Z 00000KT 10SM CLR 21/17 A3014 RMK AO2 SLP195 T02110167=
201208260852 METAR KATL 260852Z 05005KT 10SM CLR 22/17 A3012 RMK AO2 SLP190 T02170172 56004=
201208260752 METAR KATL 260752Z 08004KT 10SM CLR 22/17 A3013 RMK AO2 SLP194 T02220167=
201208260652 METAR KATL 260652Z 00000KT 10SM CLR 22/17 A3012 RMK AO2 SLP190 T02220167=
201208260552 METAR KATL 260552Z 00000KT 10SM FEW110 22/17 A3013 RMK AO2 SLP194 T02170172 10267 20217 58001=
201208260452 METAR KATL 260452Z 00000KT 10SM FEW110 24/17 A3014 RMK AO2 SLP197 T02390172 402940194=
201208260352 METAR KATL 260352Z 00000KT 10SM FEW250 23/17 A3015 RMK AO2 SLP199 T02330167=
201208260252 METAR KATL 260252Z 18003KT 10SM FEW250 24/17 A3014 RMK AO2 SLP196 T02440167 51010=
201208260152 METAR KATL 260152Z 14003KT 10SM FEW250 25/17 A3013 RMK AO2 SLP194 T02500167=
201208260052 METAR KATL 260052Z 14004KT 10SM BKN250 26/16 A3012 RMK AO2 SLP191 T02610161=
201208252352 METAR KATL 252352Z 19004KT 10SM FEW150 BKN250 27/16 A3011 RMK AO2 SLP186 T02670161 10294 20267 55000=
201208252252 METAR KATL 252252Z 16005KT 10SM FEW050 BKN250 28/16 A3010 RMK AO2 SLP185 T02830156=
201208252152 METAR KATL 252152Z VRB04KT 10SM FEW050 BKN250 28/16 A3010 RMK AO2 SLP183 T02830161=
201208252052 METAR KATL 252052Z 16003KT 10SM FEW048 SCT150 BKN250 29/16 A3011 RMK AO2 SLP186 T02890156 56014=
201208251952 METAR KATL 251952Z VRB03KT 10SM FEW048 BKN250 29/16 A3012 RMK AO2 SLP188 T02890161=
201208251852 METAR KATL 251852Z COR 17006KT 10SM SCT048 BKN250 29/16 A3013 RMK AO2 SLP194 P0000 T02890161=
201208251752 METAR KATL 251752Z 16008KT 10SM FEW048 BKN250 28/16 A3015 RMK AO2 SLP200 T02830156 10283 20200 58008=
201208251652 SPECI KATL 251652Z 15006KT 10SM FEW042 BKN250 27/17 A3016 RMK AO2 SLP204 T02670167=
201208251652 METAR KATL 251652Z 15006KT 10SM FEW042 BKN250 27/17 A3016 RMK AO2 SLP204 T02670167=
201208251552 METAR KATL 251552Z 16006KT 10SM FEW036 BKN250 27/17 A3017 RMK AO2 SLP207 T02720172=
201208251452 METAR KATL 251452Z VRB05KT 10SM BKN250 26/18 A3018 RMK AO2 SLP209 T02560178 51004=
201208251352 METAR KATL 251352Z VRB05KT 10SM BKN250 23/18 A3017 RMK AO2 SLP208 T02330178=
201208251252 METAR KATL 251252Z 13004KT 7SM FEW150 SCT250 22/19 A3017 RMK AO2 SLP208 T02170189=
201208251152 METAR KATL 251152Z 15003KT 10SM FEW250 20/18 A3016 RMK AO2 SLP205 T02000183 10228 20194 53014=
201208251052 METAR KATL 251052Z 09004KT 10SM FEW150 19/17 A3014 RMK AO2 SLP198 T01940172=
201208250952 METAR KATL 250952Z 09004KT 10SM CLR 20/17 A3013 RMK AO2 SLP194 T02000172=
201208250852 METAR KATL 250852Z 10004KT 10SM CLR 20/17 A3012 RMK AO2 SLP191 T02000167 56004=
201208250752 METAR KATL 250752Z 12004KT 10SM CLR 22/17 A3013 RMK AO2 SLP192 T02170167=
201208250652 METAR KATL 250652Z 09004KT 10SM CLR 22/16 A3013 RMK AO2 SLP192 T02170161=
201208250552 METAR KATL 250552Z 10005KT 10SM CLR 23/16 A3013 RMK AO2 SLP194 T02280161 10272 20228 50002=
201208250452 METAR KATL 250452Z 12005KT 10SM FEW120 24/17 A3013 RMK AO2 SLP194 T02390167 403000206=
201208250352 METAR KATL 250352Z 12004KT 10SM FEW120 24/17 A3013 RMK AO2 SLP191 T02440167=
201208250252 METAR KATL 250252Z 12004KT 10SM FEW120 26/16 A3013 RMK AO2 SLP192 T02560161 53018=
201208250152 METAR KATL 250152Z 12004KT 10SM SCT120 26/16 A3011 RMK AO2 SLP185 T02610161=
201208250052 METAR KATL 250052Z 14003KT 10SM FEW120 26/17 A3009 RMK AO2 SLP179 T02610167=
201208242352 METAR KATL 242352Z 16003KT 10SM FEW120 SCT250 27/17 A3007 RMK AO2 SLP174 T02670167 10300 20267 53002=
201208242252 METAR KATL 242252Z 12006KT 10SM FEW055 SCT120 SCT250 28/16 A3006 RMK AO2 SLP170 CB DSNT W T02830156=
201208242152 METAR KATL 242152Z 14005KT 10SM FEW055 SCT080 SCT250 29/15 A3006 RMK AO2 SLP168 CB DSNT W-NW T02890150=
201208242052 METAR KATL 242052Z 16006KT 10SM SCT048TCU BKN070 BKN090 29/17 A3007 RMK AO2 SLP170 CB DSNT NW SHRA DSNT NW TCU OHD-SW-NW T02890167 56018=
201208241952 METAR KATL 241952Z VRB06KT 10SM SCT046TCU SCT090 29/17 A3008 RMK AO2 SLP175 TCU N-NE & SW-NW T02890172=
201208241852 METAR KATL 241852Z 17006KT 10SM FEW040CB SCT045TCU BKN110 28/18 A3010 RMK AO2 SLP183 CB W MOV S SHRA W TCU E-SE & SW-W T02830183=
201208241752 METAR KATL 241752Z VRB03KT 10SM SCT045TCU SCT120 28/18 A3012 RMK AO2 SLP190 CB DSNT SE TCU NE-SE & SW-NW T02830178 10294 20222 58015=
201208241652 METAR KATL 241652Z 09006KT 10SM SCT045TCU SCT120 29/18 A3014 RMK AO2 SLP197 TCU E & S & W & NW T02890178=
201208241552 METAR KATL 241552Z 08007KT 10SM BKN040TCU 27/19 A3016 RMK AO2 SLP203 TCU ALQDS T02720194=
201208241452 METAR KATL 241452Z 08007KT 10SM FEW018 BKN120 25/20 A3017 RMK AO2 SLP207 T02500200 51010=
201208241352 METAR KATL 241352Z 06006KT 10SM FEW090 BKN120 24/19 A3016 RMK AO2 SLP204 T02390194=
201208241252 METAR KATL 241252Z 07005KT 10SM FEW090 BKN120 23/18 A3015 RMK AO2 SLP202 T02280178=
201208241152 METAR KATL 241152Z 05003KT 10SM BKN090 BKN120 22/19 A3014 RMK AO2 SLP197 T02220189 10228 20206 51011=
201208241052 METAR KATL 241052Z 06003KT 10SM FEW120 BKN250 21/19 A3013 RMK AO2 SLP193 T02110189=
201208240952 METAR KATL 240952Z 05007KT 10SM FEW050 SCT110 SCT250 22/19 A3012 RMK AO2 SLP188 CB DSNT NE-E T02170189=
201208240852 METAR KATL 240852Z 01003KT 10SM FEW050 SCT120 BKN250 23/19 A3010 RMK AO2 SLP183 T02280189 58004=
201208240752 METAR KATL 240752Z 00000KT 10SM FEW048 SCT100 SCT250 22/19 A3011 RMK AO2 SLP184 T02170194=
201208240652 METAR KATL 240652Z 00000KT 10SM FEW120 22/19 A3012 RMK AO2 SLP189 T02170194=
201208240552 METAR KATL 240552Z 00000KT 10SM FEW120 23/20 A3012 RMK AO2 SLP189 60000 T02280200 10261 20222 58000=
201208240452 METAR KATL 240452Z 15003KT 10SM FEW120 23/20 A3013 RMK AO2 SLP194 T02280200 403110211=
201208240352 METAR KATL 240352Z 09004KT 10SM FEW110 23/20 A3013 RMK AO2 SLP193 T02280200=
201208240252 METAR KATL 240252Z 00000KT 10SM SCT120 SCT200 23/19 A3012 RMK AO2 SLP190 60000 T02330194 51013=
201208240152 METAR KATL 240152Z 32006KT 10SM SCT080 BKN110 BKN200 23/19 A3011 RMK AO2 WSHFT 0040 TSE08RAE49 SLP187 P0000 T02280194=
201208240108 SPECI KATL 240108Z 34007KT 9SM -RA FEW055 BKN085 OVC110 23/21 A3010 RMK AO2 WSHFT 0040 TSE08 TS DSIPTD P0000=
201208240056 SPECI KATL 240056Z 34010KT 9SM -TSRA BKN055CB BKN080 OVC110 24/20 A3011 RMK AO2 WSHFT 0040 OCNL LTGICCG W-NW TS W-NW MOV SW P0000=
201208240052 METAR KATL 240052Z 01013KT 8SM -TSRA BKN055CB BKN080 OVC110 24/20 A3010 RMK AO2 TSB19RAB41 SLP185 OCNL LTGICCG W-NW TS W-NW MOV SW P0000 T02440200=
201208240019 SPECI KATL 240019Z 14003KT 10SM TS SCT055CB BKN070 BKN250 26/18 A3008 RMK AO2 TSB19 OCNL LTGICCG NW-N TS NW-N MOV SW=
201208232352 METAR KATL 232352Z COR 17003KT 10SM SCT055CB BKN070 BKN250 26/19 A3008 RMK AO2 SLP177 CB N-NE MOV SW TCU OHD-NW T02610189 10311 20256 50000=
201208232252 METAR KATL 232252Z 15007KT 10SM FEW055 SCT250 27/18 A3009 RMK AO2 SLP179 TCU DSNT SW-NW-NE-E T02670178=
201208232152 METAR KATL 232152Z 16010KT 10SM FEW060CB SCT100 SCT250 29/18 A3008 RMK AO2 SLP177 CB SE MOV SW SHRA SW T02890178=
201208232052 METAR KATL 232052Z 05008G15KT 10SM FEW060 SCT100 SCT250 30/16 A3008 RMK AO2 SLP176 CB DSNT E-SE-S SHRA DSNT E-SE-S T03000161 56017=
201208231952 METAR KATL 231952Z 36004KT 10SM FEW060TCU SCT110 SCT250 30/14 A3009 RMK AO2 SLP179 TCU E & SE & NW T03000144=
201208231852 METAR KATL 231852Z 08007KT 10SM SCT050TCU BKN100 BKN250 29/16 A3011 RMK AO2 SLP187 TCU ALQDS T02890161=
201208231752 METAR KATL 231752Z COR 05006KT 10SM SCT045TCU BKN100 BKN250 28/16 A3013 RMK AO2 SLP193 CB DSNT E & SW TCU E & S-SW-W T02830161 10289 20211 58014=
201208231652 METAR KATL 231652Z 03005KT 10SM SCT035TCU SCT250 28/18 A3015 RMK AO2 SLP200 TCU E & S & W-NW-N T02830183=
201208231552 METAR KATL 231552Z 09003KT 10SM FEW016 SCT250 27/20 A3016 RMK AO2 SLP204 T02670200=
201208231452 METAR KATL 231452Z 07005KT 10SM FEW015 SCT250 24/20 A3017 RMK AO2 SLP209 T02390200 51012=
201208231433 SPECI KATL 231433Z 07005KT 9SM FEW009 SCT030 SCT250 23/20 A3017 RMK AO2=
201208231352 METAR KATL 231352Z 06010KT 8SM BKN009 BKN030 BKN250 22/19 A3017 RMK AO2 SLP208 T02220194=
201208231320 SPECI KATL 231320Z 05011KT 9SM FEW009 SCT100 SCT250 22/19 A3016 RMK AO2=
201208231252 METAR KATL 231252Z 05010KT 8SM FEW095 SCT250 22/19 A3015 RMK AO2 SLP202 T02170189=
201208231152 METAR KATL 231152Z 04010KT 8SM FEW095 SCT250 21/18 A3014 RMK AO2 SLP197 70086 T02110183 10233 20211 53012=
201208231052 METAR KATL 231052Z 05009KT 10SM FEW100 SCT250 21/18 A3013 RMK AO2 SLP192 T02110178=
201208230952 METAR KATL 230952Z 04006KT 10SM FEW100 22/18 A3011 RMK AO2 SLP187 T02170183=
201208230852 METAR KATL 230852Z 00000KT 10SM FEW100 21/18 A3010 RMK AO2 SLP184 T02110178 58004=
201208230752 METAR KATL 230752Z 00000KT 10SM SCT100 21/18 A3010 RMK AO2 SLP186 T02110178=
201208230652 METAR KATL 230652Z 00000KT 10SM SCT100 22/18 A3012 RMK AO2 SLP188 T02170178=
201208230552 METAR KATL 230552Z 00000KT 10SM SCT095 SCT250 22/18 A3012 RMK AO2 SLP189 T02170178 10256 20211 51008=
201208230452 METAR KATL 230452Z 00000KT 10SM FEW250 22/18 A3011 RMK AO2 SLP186 T02170183 402890200=
201208230352 METAR KATL 230352Z 00000KT 10SM FEW250 23/18 A3010 RMK AO2 SLP183 T02280183=
201208230252 METAR KATL 230252Z 00000KT 10SM CLR 23/19 A3009 RMK AO2 SLP181 T02280189 51009=
201208230152 METAR KATL 230152Z 00000KT 10SM FEW110 23/18 A3009 RMK AO2 SLP181 T02330183=
201208230052 METAR KATL 230052Z 00000KT 10SM FEW110 25/18 A3008 RMK AO2 SLP175 T02500178=
201208222352 METAR KATL 222352Z 00000KT 10SM FEW075 SCT110 SCT250 26/18 A3006 RMK AO2 SLP171 60085 T02560178 10289 20211 56003=
201208222252 METAR KATL 222252Z VRB05KT 10SM FEW075 BKN110 27/19 A3007 RMK AO2 SLP173 T02670189=
201208222152 METAR KATL 222152Z 20003KT 10SM FEW040 BKN075 BKN100 26/17 A3007 RMK AO2 SLP172 T02560172=
201208222052 METAR KATL 222052Z 09004KT 10SM FEW040 SCT070 BKN090 26/16 A3007 RMK AO2 RAE00 SLP174 CB DSNT NE-E SHRA DSNT NE-E P0000 60085 T02610161 58012=
201208221952 METAR KATL 221952Z COR 10014G18KT 9SM -RA FEW027CB BKN065 BKN080 BKN200 23/19 A3009 RMK AO2 PK WND 21029/1919 WSHFT 1929 TSB20E46RAB13 SLP184 OCNL LTGIC DSNT NE TS MOV NE CB NE-SE MOV NE P0085 T02280189=
201208221947 SPECI KATL 221947Z 11011KT 8SM -RA BKN027CB BKN080 BKN200 22/19 A3010 RMK AO2 PK WND 21029/1919 WSHFT 1929 TSB20E46RAB13 VIS LWR NE-SE SHRA TS MOV NE CB NE-SE MOV NE P0085=
201208221943 SPECI KATL 221943Z 10010G22KT 3SM R09R/5500VP6000FT TSRA BKN027CB BKN040 OVC070 21/18 A3010 RMK AO2 PK WND 21029/1919 WSHFT 1929 TSB20RAB13 VIS LWR NE-SE SHRA OCNL LTGICCG NE-SE TS NE-SE MOV NE P0084=
201208221941 SPECI KATL 221941Z 08015G22KT 2SM R09R/3000VP6000FT TSRA BKN027CB BKN040 OVC070 21/18 A3010 RMK AO2 PK WND 21029/1919 TSB20RAB13 VIS LWR NE-SE SHRA OCNL LTGICCG NE-SE TS NE-SE MOV NE P0083=
201208221937 SPECI KATL 221937Z 07015G21KT 1SM R09R/2400VP6000FT TSRA BKN020CB BKN040 OVC050 21/17 A3012 RMK AO2 PK WND 21029/1919 TSB20RAB13 VIS LWR NE-SE SHRA OCNL LTGICCG NE-SE TS NE-SE MOV NE P0081=
201208221934 SPECI KATL 221934Z 08012G20KT 1/2SM R09R/2400V5500FT +TSRA BKN020CB BKN040 OVC050 22/17 A3012 RMK AO2 PK WND 21029/1919 TSB20RAB13 OCNL LTGICCG OHD-E-S TS OHD-E-S MOV NE P0078=
201208221928 SPECI KATL 221928Z 14009G29KT 1/2SM R09R/1400V4000FT +TSRA BKN012CB BKN040 OVC050 22/17 A3013 RMK AO2 PK WND 21029/1919 TSB20RAB13 PRESRR OCNL LTGICCG OHD-E-SW TS OHD-E-SW MOV NE P0062=
201208221923 SPECI KATL 221923Z 17012G29KT 5SM R09R/1400VP6000FT TSRA BKN020CB BKN045 BKN100 22/17 A3010 RMK AO2 PK WND 21029/1919 TSB20RAB13 VIS LWR NE-S SHRA OCNL LTGICCG NE-S TS NE-S MOV NE P0037=
201208221920 SPECI KATL 221920Z 21021G29KT 5SM R09R/1600VP6000FT TSRA BKN020CB BKN045 BKN100 22/17 A3010 RMK AO2 PK WND 21029/1919 TSB20RAB13 VIS LWR NE-S SHRA OCNL LTGICCG NE-S TS NE-S MOV NE P0018=
201208221916 SPECI KATL 221916Z 24019G23KT 1 1/2SM R09R/3500VP6000FT -RA FEW017 BKN043 OVC055 23/18 A3010 RMK AO2 RAB13 P0002=
201208221852 METAR KATL 221852Z 11003KT 10SM FEW040CB SCT050TCU BKN100 BKN250 28/16 A3009 RMK AO2 RAE04 SLP180 CB SE & W MOV SE TCU N-NE SHRA SE & W P0000 T02780161=
201208221829 SPECI KATL 221829Z 10009KT 10SM FEW040CB SCT090 BKN110 28/17 A3009 RMK AO2 RAE04 CB E-SE-S & W MOV S SHRA E-SE-S & W P0000=
201208221752 METAR KATL 221752Z VRB03KT 10SM -RA FEW030CB BKN040TCU BKN090 BKN200 26/18 A3011 RMK AO2 RAB37 SLP187 VIS LWR SW SHRA CB SW MOV NE TCU NE-SE & SW-NW P0001 60001 T02610183 10289 20211 58004=
201208221652 METAR KATL 221652Z 05004KT 10SM BKN032TCU 28/18 A3012 RMK AO2 SLP188 TCU OHD & ALQDS T02830183=
201208221552 METAR KATL 221552Z 00000KT 10SM FEW030 SCT200 BKN250 27/18 A3012 RMK AO2 SLP191 TCU DSNT N T02720183=
201208221452 METAR KATL 221452Z 10006KT 10SM FEW030 SCT200 BKN250 26/18 A3012 RMK AO2 SLP190 T02560183 51009=
201208221352 METAR KATL 221352Z VRB05KT 10SM FEW100 BKN150 BKN250 24/18 A3012 RMK AO2 SLP189 ACC DSNT N-NE T02440183=
201208221252 METAR KATL 221252Z 06007KT 10SM FEW040 SCT150 BKN250 22/18 A3012 RMK AO2 SLP189 T02220183=
201208221152 METAR KATL 221152Z 06006KT 10SM SCT150 BKN250 21/18 A3009 RMK AO2 SLP181 T02110178 10222 20200 51014=
201208221052 METAR KATL 221052Z 06007KT 10SM SCT250 21/17 A3008 RMK AO2 SLP176 T02060172=
201208220952 METAR KATL 220952Z 04005KT 10SM FEW250 21/16 A3006 RMK AO2 SLP169 T02110156=
201208220852 METAR KATL 220852Z 34004KT 10SM FEW075 SCT250 21/15 A3005 RMK AO2 SLP165 T02110150 55000=
201208220752 METAR KATL 220752Z 32004KT 10SM FEW080 SCT150 BKN250 21/15 A3005 RMK AO2 SLP165 T02060150=
201208220652 METAR KATL 220652Z 00000KT 10SM BKN150 BKN250 22/14 A3005 RMK AO2 SLP165 T02220139=
201208220552 METAR KATL 220552Z 00000KT 10SM SCT150 BKN250 22/14 A3005 RMK AO2 SLP165 T02220139 10278 20217 58004=
201208220452 METAR KATL 220452Z 00000KT 10SM SCT200 BKN250 22/17 A3006 RMK AO2 SLP169 T02220167 403110183=
201208220352 METAR KATL 220352Z 00000KT 10SM SCT200 BKN250 23/17 A3007 RMK AO2 SLP172 T02330167 $=
201208220252 METAR KATL 220252Z 00000KT 10SM FEW200 BKN250 24/18 A3006 RMK AO2 SLP170 T02440178 51013=
201208220152 METAR KATL 220152Z COR 05005KT 10SM FEW070 SCT200 BKN250 26/16 A3005 RMK AO2 SLP165 T02610161=
201208220052 METAR KATL 220052Z 05007KT 10SM FEW070 SCT200 BKN250 27/14 A3004 RMK AO2 SLP165 T02670144=
201208212352 METAR KATL 212352Z 35007KT 10SM SCT070 BKN200 BKN250 28/11 A3002 RMK AO2 SLP157 T02780111 10311 20278 53004=
201208212252 METAR KATL 212252Z 32012KT 10SM SCT070TCU BKN200 BKN250 29/11 A3002 RMK AO2 SLP155 TCU NE-SE-S T02890111=
201208212152 METAR KATL 212152Z 34010KT 10SM SCT070TCU BKN250 31/13 A3001 RMK AO2 SLP153 TCU OHD-SE T03110128=
201208212052 METAR KATL 212052Z VRB04KT 10SM FEW070TCU SCT250 31/12 A3001 RMK AO2 SLP151 TCU N & SE & SW T03060117 55004=
201208211952 METAR KATL 211952Z 33006KT 10SM SCT070TCU 31/12 A3000 RMK AO2 SLP150 TCU NE-S T03060117=
201208211852 METAR KATL 211852Z 36005KT 10SM SCT065 28/12 A3001 RMK AO2 SLP153 CB DSNT E T02830122=
201208211752 METAR KATL 211752Z 34010KT 240V020 10SM FEW055 29/13 A3002 RMK AO2 SLP157 TCU DSNT E SHRA DSNT E T02940133 10294 20206 56008=
201208211652 METAR KATL 211652Z VRB05KT 10SM FEW050 SCT250 28/14 A3003 RMK AO2 SLP157 TCU DSNT NE-SE SHRA DSNT E T02830144=
201208211552 METAR KATL 211552Z 35003KT 10SM FEW043TCU SCT250 28/16 A3004 RMK AO2 SLP163 TCU NE-SE T02780156=
201208211452 METAR KATL 211452Z 34005KT 10SM FEW100 27/17 A3005 RMK AO2 SLP166 T02670167 51007=
201208211352 METAR KATL 211352Z 00000KT 10SM FEW100 SCT250 24/17 A3004 RMK AO2 SLP165 ACC DSNT N-NE T02440172=
201208211252 METAR KATL 211252Z 33004KT 10SM BKN095 BKN250 21/17 A3004 RMK AO2 SLP165 T02110167=
201208211152 METAR KATL 211152Z 01005KT 10SM FEW070 SCT140 BKN250 21/16 A3003 RMK AO2 SLP159 T02110161 10217 20183 53019=
201208211052 METAR KATL 211052Z 33003KT 10SM FEW150 SCT250 19/16 A3000 RMK AO2 SLP152 T01890161=
201208210952 METAR KATL 210952Z 32004KT 10SM FEW140 19/16 A2999 RMK AO2 SLP145 T01890161 $=
201208210852 METAR KATL 210852Z 00000KT 10SM SCT140 21/16 A2997 RMK AO2 SLP139 T02110156 58003 $=
201208210752 METAR KATL 210752Z 00000KT 10SM BKN150 20/16 A2997 RMK AO2 SLP141 T02000161 $=
201208210652 METAR KATL 210652Z 32003KT 10SM SCT130 20/16 A2998 RMK AO2 SLP142 T02000156 $=
201208210552 METAR KATL 210552Z 32004KT 10SM SCT110 BKN250 21/16 A2998 RMK AO2 SLP143 T02060161 10250 20206 58004 $=
201208210452 METAR KATL 210452Z 00000KT 10SM BKN140 BKN250 21/16 A2999 RMK AO2 SLP146 T02110156 402890194 $=
201208210352 METAR KATL 210352Z 34003KT 10SM FEW120 SCT250 23/15 A2998 RMK AO2 SLP143 T02280150 $=
201208210252 METAR KATL 210252Z 00000KT 10SM FEW120 BKN250 24/14 A2999 RMK AO2 SLP146 T02440144 51019=
201208210152 METAR KATL 210152Z 34004KT 10SM FEW200 BKN250 24/14 A2998 RMK AO2 SLP141 T02390144=
201208210052 METAR KATL 210052Z 32005KT 10SM FEW200 BKN250 24/14 A2995 RMK AO2 SLP135 T02390139=
201208202352 METAR KATL 202352Z 32008KT 10SM FEW200 BKN250 25/13 A2994 RMK AO2 SLP129 T02500133 10289 20250 53003=
201208202252 METAR KATL 202252Z 31008KT 10SM BKN250 26/12 A2992 RMK AO2 SLP124 T02610122=
201208202152 METAR KATL 202152Z 32009KT 10SM BKN250 27/13 A2992 RMK AO2 SLP122 T02720133=
201208202052 METAR KATL 202052Z 29007KT 230V330 10SM FEW180 BKN250 28/14 A2993 RMK AO2 SLP124 T02830139 56010=
201208201952 METAR KATL 201952Z VRB04KT 10SM FEW060 OVC200 28/13 A2993 RMK AO2 SLP126 T02830128=
201208201852 METAR KATL 201852Z VRB04KT 10SM FEW060 BKN140 BKN250 28/13 A2994 RMK AO2 SLP129 T02780133=
201208201752 METAR KATL 201752Z 35006KT 10SM FEW060 BKN150 BKN250 28/12 A2996 RMK AO2 SLP134 T02830122 10283 20200 55003=
201208201652 METAR KATL 201652Z 33006KT 10SM FEW050 SCT180 BKN250 28/13 A2995 RMK AO2 SLP133 T02780133=
201208201552 METAR KATL 201552Z 35006KT 10SM FEW045 SCT250 27/13 A2997 RMK AO2 SLP138 T02670133=
201208201452 METAR KATL 201452Z VRB03KT 10SM BKN180 BKN250 26/18 A2997 RMK AO2 SLP138 T02560183 52003=
201208201352 METAR KATL 201352Z 33004KT 10SM BKN150 BKN250 23/18 A2997 RMK AO2 SLP139 T02330183=
201208201252 METAR KATL 201252Z 33005KT 9SM BKN150 BKN250 22/19 A2996 RMK AO2 SLP136 T02170189=
201208201152 METAR KATL 201152Z 30005KT 5SM BR FEW003 SCT150 SCT250 20/19 A2996 RMK AO2 SLP135 70021 T02000189 10211 20194 53013=
201208201052 METAR KATL 201052Z 29005KT 1 1/2SM BR SCT003 BKN250 20/19 A2994 RMK AO2 SFC VIS 6 SLP130 T02000189=
201208200952 METAR KATL 200952Z 31003KT 1 1/2SM BR BKN003 20/19 A2993 RMK AO2 SFC VIS 6 SLP125 T02000189 $=
201208200852 METAR KATL 200852Z 32007KT 1 1/2SM BR BKN003 OVC015 21/19 A2992 RMK AO2 SFC VIS 4 SLP121 T02060194 53003 $=
201208200752 METAR KATL 200752Z 29006KT 1 1/2SM BR BKN003 BKN250 20/19 A2991 RMK AO2 SFC VIS 6 SLP119 T02000194 $=
201208200652 METAR KATL 200652Z 00000KT 10SM FEW006 SCT120 BKN250 21/19 A2990 RMK AO2 SLP116 T02060194 $=
201208200552 METAR KATL 200552Z 26003KT 8SM FEW005 SCT090 OVC200 21/19 A2991 RMK AO2 SLP118 60021 T02110194 10233 20206 58001=
201208200452 METAR KATL 200452Z 21003KT 10SM FEW005 SCT090 BKN140 21/20 A2991 RMK AO2 SLP120 T02110200 402890206=
201208200352 METAR KATL 200352Z 00000KT 10SM BKN090 BKN110 BKN250 21/19 A2991 RMK AO2 SLP119 T02110194=
201208200252 METAR KATL 200252Z 27003KT 10SM BKN070 BKN090 OVC200 21/19 A2991 RMK AO2 SLP120 60021 T02110194 53008=
201208200152 METAR KATL 200152Z 00000KT 10SM FEW006 SCT070 OVC095 22/20 A2991 RMK AO2 RAE0055B27E37 SLP119 P0000 T02170200=
201208200052 METAR KATL 200052Z 00000KT 10SM -RA FEW006 BKN065 OVC090 22/20 A2989 RMK AO2 PK WND 36026/2354 SLP113 P0021 T02170200=
201208200012 SPECI KATL 200012Z 33008KT 7SM -RA FEW008 BKN032 OVC110 22/20 A2989 RMK AO2 PK WND 36026/2354 CB DSNT S-SW P0021 $=
201208200005 SPECI KATL 200005Z 33011KT 3SM R09R/5000VP6000FT -RA BR FEW015CB BKN036 OVC060 22/20 A2988 RMK AO2 PK WND 36026/2354 VIS N-E 2 CB E-S MOV E P0021 $=
201208192356 SPECI KATL 192356Z 01019G26KT 1/2SM R09R/1600VP6000FT +RA FG SCT013CB BKN034 OVC042 22/19 A2989 RMK AO2 PK WND 36026/2354 CB OHD MOV E P0010 $=
201208192352 METAR KATL 192352Z 31016G24KT 4SM R09R/4500VP6000FT -RA SCT018CB BKN034 BKN044 OVC150 24/19 A2989 RMK AO2 RAB52 SLP111 CB SW-W MOV E SHRA SW-W P0000 60000 T02390194 10289 20239 53005 $=
201208192252 METAR KATL 192252Z 27008KT 10SM SCT035CB BKN180 OVC250 26/18 A2987 RMK AO2 SLP105 CB N MOV E CB DSNT W-NW SHRA NW-N T02610183 $=
201208192152 METAR KATL 192152Z 28008KT 10SM SCT035 SCT150 OVC250 27/18 A2987 RMK AO2 SLP104 T02720183 $=
201208192052 SPECI KATL 192052Z 25007KT 10SM FEW035 SCT045 SCT150 BKN250 27/18 A2987 RMK AO2 SLP105 CB DSNT N T02720183 58015 $=
201208192052 METAR KATL 192052Z 25007KT 10SM FEW035 SCT045 SCT150 BKN250 27/18 A2987 RMK AO2 SLP105 CB DSNT N T02720183 58015 $=
201208191952 METAR KATL 191952Z 25006KT 10SM SCT031 SCT043 BKN060 BKN250 27/19 A2989 RMK AO2 SLP111 T02720189 $=
201208191852 METAR KATL 191852Z 25007KT 10SM SCT028 BKN037 BKN150 27/19 A2990 RMK AO2 SLP117 T02720189 $=
201208191752 METAR KATL 191752Z 25005KT 10SM FEW024 SCT031 BKN150 BKN250 25/18 A2991 RMK AO2 SLP121 60000 T02500183 10256 20206 58004 $=
201208191652 METAR KATL 191652Z 26007KT 10SM FEW016 SCT022 BKN033 24/19 A2993 RMK AO2 SLP127 T02440194 $=
201208191630 SPECI KATL 191630Z 26009KT 10SM FEW016 SCT022 BKN031 24/19 A2993 RMK AO2 $=
201208191552 METAR KATL 191552Z 24005KT 10SM FEW012 BKN026 OVC031 23/20 A2993 RMK AO2 SLP126 T02330200 $=
201208191452 METAR KATL 191452Z 23004KT 10SM FEW012 OVC019 22/19 A2993 RMK AO2 SLP126 60000 T02220194 51002 $=
201208191352 METAR KATL 191352Z 19003KT 8SM SCT005 OVC021 22/20 A2992 RMK AO2 SLP125 SCT005 V BKN T02170200 $=
201208191311 SPECI KATL 191311Z 20004KT 6SM BR BKN005 BKN027 OVC080 21/20 A2993 RMK AO2 $=
201208191301 SPECI KATL 191301Z 17005KT 10SM SCT005 BKN027 BKN080 21/20 A2993 RMK AO2 $=
201208191252 METAR KATL 191252Z 20004KT 6SM BR FEW005 SCT065 SCT150 21/20 A2993 RMK AO2 RAE13 SLP125 P0000 T02110200 $=
201208191244 SPECI KATL 191244Z 20004KT 6SM BR FEW005 SCT065 SCT150 21/20 A2992 RMK AO2 RAE13 P0000 $=
201208191152 METAR KATL 191152Z 00000KT 2SM -RA BR BKN003 BKN014 OVC065 21/19 A2992 RMK AO2 PK WND 09039/1124 SFC VIS 5 RAB02 SLP124 P0002 60003 70014 T02060194 10211 20206 53012 $=
201208191120 SPECI KATL 191120Z 00000KT 2SM -RA BR BKN003 BKN014 OVC065 21/19 A2993 RMK AO2 SFC VIS 5 RAB02 P0000 $=
201208191107 SPECI KATL 191107Z 00000KT 3SM -RA BKN003 OVC041 21/19 A2993 RMK AO2 SFC VIS 7 RAB02 P0000 $=
201208191052 METAR KATL 191052Z 22003KT 7SM SCT003 BKN041 BKN075 21/20 A2992 RMK AO2 SLP123 T02060200 $=
201208190952 METAR KATL 190952Z 00000KT 8SM FEW007 BKN090 OVC200 21/20 A2988 RMK AO2 RAB11E21 SLP109 P0000 T02110200 $=
201208190852 METAR KATL 190852Z 00000KT 7SM FEW002 BKN095 OVC120 21/19 A2989 RMK AO2 RAE18 SLP110 P0000 60001 T02060194 55013 $=
201208190834 SPECI KATL 190834Z 00000KT 7SM FEW002 BKN095 BKN120 21/20 A2989 RMK AO2 RAE18 P0000 $=
201208190752 METAR KATL 190752Z 00000KT 7SM -RA FEW012 BKN110 OVC200 21/19 A2988 RMK AO2 RAB0657E08B42 SLP109 P0000 T02110194 $=
201208190652 METAR KATL 190652Z COR 00000KT 7SM BKN100 BKN120 OVC200 21/19 A2989 RMK AO2 RAE44 SLP113 P0001 T02060194 $=
201208190552 METAR KATL 190552Z 27005KT 10SM -RA FEW013 SCT090 BKN120 OVC250 21/19 A2993 RMK AO2 SLP124 P0003 60003 T02060194 10233 20206 58002 $=
201208190452 METAR KATL 190452Z 26011G23KT 10SM -RA FEW013 SCT055 BKN110 OVC250 23/19 A2994 RMK AO2 RAB50 SLP130 P0000 T02280194 403060206 $=
201208190352 METAR KATL 190352Z 27005KT 10SM FEW085 BKN110 OVC150 23/20 A2993 RMK AO2 SLP124 T02330200 $=
201208190252 METAR KATL 190252Z 00000KT 10SM FEW050 BKN090 BKN130 OVC250 23/19 A2993 RMK AO2 SLP126 T02280194 51010 $=
201208190152 METAR KATL 190152Z 28006KT 10SM FEW085 BKN100 BKN140 OVC250 23/19 A2992 RMK AO2 SLP122 T02280194 $=
201208190052 METAR KATL 190052Z 25005KT 10SM SCT090 BKN110 OVC150 23/19 A2991 RMK AO2 SLP121 T02280194 $=
201208182352 METAR KATL 182352Z 30007KT 10SM FEW055 SCT110 BKN150 OVC250 23/20 A2990 RMK AO2 SLP116 60001 T02330200 10306 20233 53007 $=
201208182252 METAR KATL 182252Z 00000KT 10SM SCT055 BKN150 OVC250 25/21 A2989 RMK AO2 TSE23RAE17 SLP112 TS DSIPT P0001 T02500206 $=
201208182223 SPECI KATL 182223Z 21006KT 10SM FEW035 BKN060 OVC110 24/21 A2989 RMK AO2 TSE23RAE17 TS DSIPT SHRA N-NE P0001 $=
201208182152 METAR KATL 182152Z 21012G20KT 9SM -TSRA SCT037CB BKN049 BKN085 OVC250 25/21 A2989 RMK AO2 TSB11RAB49 SLP111 OCNL LTGICCG SE & NW TS SE & NW MOV NE SHRA SE-SW & NW P0000 T02500211 $=
201208182112 SPECI KATL 182112Z 30007KT 10SM TS FEW035CB SCT060 BKN095 BKN250 29/18 A2987 RMK AO2 TSB11 OCNL LTGICCG SW TS SW MOV NE SHRA S-SW $=
201208182052 METAR KATL 182052Z 28007KT 10SM SCT035 SCT100 BKN250 29/18 A2988 RMK AO2 SLP107 CB DSNT SW-W T02940183 58016 $=
201208181952 METAR KATL 181952Z 30005KT 10SM SCT035 SCT050 BKN200 30/19 A2989 RMK AO2 SLP110 TCU DSNT E T03000189 $=
201208181852 METAR KATL 181852Z 27008KT 10SM SCT034 BKN047 28/19 A2992 RMK AO2 SLP122 T02830194 $=
201208181752 METAR KATL 181752Z VRB03KT 10SM FEW040 SCT150 SCT250 28/19 A2993 RMK AO2 SLP124 60007 T02780194 10283 20211 58020 $=
201208181652 METAR KATL 181652Z COR 00000KT 10SM FEW035 SCT050 SCT120 BKN250 26/20 A2995 RMK AO2 CB MOV E RAE1557 SLP133 P0000 T02610200 $=
201208181552 METAR KATL 181552Z COR 29003KT 10SM -RA FEW029CB SCT048 BKN060 23/20 A2998 RMK AO2 RAB25 SLP144 CB NE-E MOV E P0007 T02280200 $=
201208181546 SPECI KATL 181546Z 00000KT 7SM -RA FEW010 SCT026 BKN050 23/20 A2999 RMK AO2 RAB25 CB E MOV E P0007 $=
201208181536 SPECI KATL 181536Z 27003KT 2SM R09R/6000VP6000FT +RA BR FEW009CB BKN050 OVC065 22/20 A2999 RMK AO2 RAB25 CB OHD MOV E P0004 $=
201208181532 SPECI KATL 181532Z 29008KT 6SM R09R/6000VP6000FT +RA FEW009CB BKN050 OVC065 23/19 A3000 RMK AO2 RAB25 CB W-NW MOV E P0001 $=
201208181452 METAR KATL 181452Z 29003KT 10SM FEW020 SCT040 SCT055 24/19 A2999 RMK AO2 SLP145 T02440194 53012 $=
201208181352 METAR KATL 181352Z 30006KT 10SM FEW075 SCT120 BKN250 24/19 A2996 RMK AO2 SLP136 T02440194 $=
201208181252 METAR KATL 181252Z 28006KT 7SM BKN120 BKN250 22/19 A2996 RMK AO2 SLP137 T02220194 $=
201208181152 METAR KATL 181152Z 28003KT 7SM FEW100 BKN150 BKN250 21/19 A2995 RMK AO2 SLP132 T02110189 10228 20206 53010 $=
201208181052 METAR KATL 181052Z 28004KT 10SM FEW045 SCT150 SCT250 21/19 A2994 RMK AO2 SLP127 T02060189=
201208180952 METAR KATL 180952Z 31006KT 10SM SCT150 21/19 A2992 RMK AO2 SLP122 T02110189=
201208180852 METAR KATL 180852Z 31006KT 10SM SCT150 21/19 A2992 RMK AO2 SLP120 T02110189 56007=
201208180752 METAR KATL 180752Z 31008KT 10SM SCT200 22/19 A2992 RMK AO2 SLP119 T02170194=
201208180652 METAR KATL 180652Z 29005KT 10SM CLR 22/19 A2992 RMK AO2 SLP121 T02170189=
201208180552 METAR KATL 180552Z 29005KT 10SM CLR 22/19 A2994 RMK AO2 SLP128 T02220189 10278 20222 58007=
201208180452 METAR KATL 180452Z 30005KT 10SM CLR 23/19 A2995 RMK AO2 SLP130 T02280189 403060222=
201208180352 METAR KATL 180352Z 28005KT 10SM FEW050 23/19 A2996 RMK AO2 SLP133 T02330194=
201208180252 METAR KATL 180252Z 31006KT 10SM CLR 24/19 A2996 RMK AO2 SLP134 T02440194 51011 $=
201208180252 SPECI KATL 180252Z 31006KT 10SM CLR 24/19 A2996 RMK AO2 SLP134 T02440194 51011 $=
201208180152 METAR KATL 180152Z 32004KT 10SM FEW250 25/19 A2996 RMK AO2 SLP133 T02500189 $=
201208180052 METAR KATL 180052Z 33005KT 10SM FEW200 SCT250 26/19 A2993 RMK AO2 SLP126 T02610189 $=
201208172352 METAR KATL 172352Z 32010KT 10SM FEW120 SCT200 BKN250 28/18 A2993 RMK AO2 SLP124 T02780178 10306 20278 55000 $=
201208172252 METAR KATL 172252Z 33006KT 10SM FEW120 SCT200 BKN250 28/18 A2992 RMK AO2 SLP120 T02830178 $=
201208172152 METAR KATL 172152Z 30007KT 10SM FEW120 SCT200 BKN250 28/17 A2992 RMK AO2 SLP123 T02830172 $=
201208172052 METAR KATL 172052Z 32011G18KT 10SM FEW050 SCT120 SCT250 30/17 A2993 RMK AO2 SLP123 CB DSNT SE T03000172 56015=
201208171952 METAR KATL 171952Z 32012KT 10SM FEW045 SCT110 BKN250 30/17 A2994 RMK AO2 SLP126 CB DSNT SE T03000167=
201208171852 METAR KATL 171852Z 32009KT 10SM FEW045 SCT100 BKN250 30/17 A2995 RMK AO2 SLP129 CB DSNT E-S T03000172=
201208171752 METAR KATL 171752Z 32009KT 10SM FEW045 SCT100 BKN250 29/17 A2997 RMK AO2 SLP138 CB DSNT SE-S T02890172 10306 20228 58001=
201208171652 METAR KATL 171652Z 35010KT 10SM FEW045 BKN100 OVC250 28/18 A3000 RMK AO2 SLP147 DSNT TCU E-SE T02780178=
201208171552 METAR KATL 171552Z 34009KT 10SM FEW045 BKN100 BKN250 31/19 A2999 RMK AO2 SLP144 T03060194=
201208171452 METAR KATL 171452Z VRB04KT 10SM FEW100 SCT250 29/19 A2998 RMK AO2 SLP138 T02890189 55005=
201208171352 METAR KATL 171352Z 30006KT 10SM FEW100 SCT250 27/19 A2997 RMK AO2 SLP137 T02670194=
201208171252 METAR KATL 171252Z 29004KT 9SM FEW100 BKN250 24/20 A2998 RMK AO2 SLP141 T02440200 $=
201208171152 METAR KATL 171152Z 30008KT 8SM FEW100 BKN250 23/21 A2999 RMK AO2 SLP145 T02280206 10256 20222 52002=
201208171052 METAR KATL 171052Z 29006KT 7SM FEW100 SCT250 22/21 A2998 RMK AO2 SLP142 T02220206=
201208170952 METAR KATL 170952Z 29008KT 8SM FEW050 SCT080 BKN250 23/21 A2999 RMK AO2 SLP144 T02280206=
201208170852 METAR KATL 170852Z 24006KT 10SM FEW100 BKN250 23/21 A2998 RMK AO2 SLP141 T02330206 58008=
201208170752 METAR KATL 170752Z 26005KT 10SM FEW250 24/19 A2999 RMK AO2 SLP144 T02390194=
201208170652 METAR KATL 170652Z 29006KT 10SM FEW100 SCT250 24/19 A3001 RMK AO2 SLP149 T02440194=
201208170552 METAR KATL 170552Z 29004KT 10SM FEW100 SCT250 25/19 A3001 RMK AO2 SLP150 T02500194 10300 20250 58009=
201208170452 METAR KATL 170452Z 25004KT 10SM FEW070 SCT100 SCT250 27/19 A3003 RMK AO2 SLP157 T02670189 403280217=
201208170352 METAR KATL 170352Z 28004KT 10SM FEW070 SCT110 BKN250 27/18 A3004 RMK AO2 SLP160 T02670178=
201208170252 METAR KATL 170252Z 31005KT 10SM FEW060 SCT120 BKN250 27/18 A3004 RMK AO2 SLP160 T02720178 51021=
201208170152 METAR KATL 170152Z 29004KT 10SM BKN250 28/16 A3003 RMK AO2 SLP159 T02830161=
201208170052 METAR KATL 170052Z 00000KT 10SM BKN250 29/16 A2999 RMK AO2 SLP145 T02890161=
201208162352 METAR KATL 162352Z 28004KT 10SM BKN250 29/17 A2997 RMK AO2 SLP139 T02940172 10328 20294 55008=
201208162252 METAR KATL 162252Z 30005KT 10SM SCT250 31/17 A2996 RMK AO2 SLP135 T03060167=
201208162152 METAR KATL 162152Z 29006KT 10SM FEW055 SCT250 32/16 A2999 RMK AO2 SLP143 T03220161=
201208162052 METAR KATL 162052Z 00000KT 10SM FEW055 SCT250 33/17 A3000 RMK AO2 SLP147 T03280167 58021=
201208161952 METAR KATL 161952Z 35011G14KT 10SM FEW050 SCT250 32/15 A3002 RMK AO2 SLP153 T03220150=
201208161852 METAR KATL 161852Z VRB05KT 10SM FEW050 SCT250 32/16 A3005 RMK AO2 SLP163 T03220161=
201208161752 METAR KATL 161752Z 32007KT 10SM FEW050 SCT220 32/17 A3006 RMK AO2 SLP169 T03170167 10317 20228 56004=
201208161652 METAR KATL 161652Z 31007KT 10SM SCT042 SCT150 31/18 A3007 RMK AO2 SLP170 T03060183=
201208161552 METAR KATL 161552Z 31005KT 10SM FEW040 29/19 A3007 RMK AO2 SLP172 T02940189=
201208161452 METAR KATL 161452Z VRB03KT 10SM FEW035 28/19 A3008 RMK AO2 SLP173 CU S T02830189 50004=
201208161352 METAR KATL 161352Z 05005KT 9SM FEW035 SCT150 26/20 A3008 RMK AO2 SLP175 T02610200=
201208161252 METAR KATL 161252Z 00000KT 7SM SCT031 SCT150 24/21 A3008 RMK AO2 SLP174 T02440206=
201208161152 METAR KATL 161152Z 33004KT 7SM FEW036 SCT150 23/20 A3006 RMK AO2 SLP170 T02280200 10239 20217 51011=
201208161052 METAR KATL 161052Z 00000KT 8SM SCT041 SCT150 22/19 A3005 RMK AO2 SLP167 T02220194=
201208160952 METAR KATL 160952Z 33004KT 10SM BKN043 22/19 A3004 RMK AO2 SLP163 T02220194=
201208160852 METAR KATL 160852Z 32003KT 10SM SCT042 SCT150 23/19 A3003 RMK AO2 SLP158 T02280194 56003=
201208160752 METAR KATL 160752Z 00000KT 10SM SCT047 BKN060 BKN130 23/20 A3003 RMK AO2 SLP158 T02330200=
201208160652 METAR KATL 160652Z 31006KT 10SM FEW050 BKN130 OVC180 23/19 A3003 RMK AO2 SLP158 T02330194=
201208160552 METAR KATL 160552Z 00000KT 10SM SCT130 BKN180 OVC250 22/19 A3004 RMK AO2 SLP162 T02220194 10267 20222 53010=
201208160452 METAR KATL 160452Z 00000KT 10SM SCT150 BKN250 23/19 A3003 RMK AO2 SLP157 T02330194 402940217=
201208160352 METAR KATL 160352Z 34006KT 10SM SCT150 BKN200 24/19 A3001 RMK AO2 SLP152 T02440194=
201208160252 METAR KATL 160252Z 00000KT 10SM BKN150 BKN200 25/19 A3001 RMK AO2 SLP151 T02500194 53007=
201208160152 METAR KATL 160152Z 29003KT 10SM BKN180 BKN250 26/19 A3000 RMK AO2 SLP148 T02560189=
201208160052 METAR KATL 160052Z 30005KT 10SM BKN180 BKN250 26/19 A2999 RMK AO2 SLP147 T02560189=
201208152352 METAR KATL 152352Z 28007KT 10SM BKN180 BKN250 27/19 A2998 RMK AO2 SLP144 T02670194 10294 20267 56003=
201208152252 METAR KATL 152252Z 29007KT 10SM BKN180 OVC250 28/19 A2999 RMK AO2 SLP145 T02780194=
201208152152 METAR KATL 152152Z 29006KT 10SM BKN180 BKN250 29/17 A2998 RMK AO2 SLP143 T02890172=
201208152052 METAR KATL 152052Z 26006KT 10SM FEW040 BKN150 BKN220 29/19 A2999 RMK AO2 SLP147 T02890194 56012=
201208151952 METAR KATL 151952Z 32008KT 10SM FEW040 BKN150 OVC220 28/18 A3000 RMK AO2 SLP147 T02830183=
201208151852 METAR KATL 151852Z 27007KT 10SM FEW035 SCT150 OVC220 29/18 A3001 RMK AO2 SLP152 T02890183=
201208151752 METAR KATL 151752Z 28009KT 10SM FEW030 SCT150 BKN250 28/19 A3003 RMK AO2 SLP159 T02780189 10283 20217 58003=
201208151652 METAR KATL 151652Z 31007KT 10SM FEW020 BKN150 OVC250 27/20 A3004 RMK AO2 SLP162 T02720200=
201208151552 METAR KATL 151552Z 28007KT 10SM FEW015 BKN120 27/21 A3005 RMK AO2 SLP164 T02720206=
201208151452 METAR KATL 151452Z 30004KT 10SM FEW010 BKN120 26/21 A3004 RMK AO2 SLP162 T02610211 51015=
201208151422 SPECI KATL 151422Z 24004KT 7SM SCT010 BKN100 25/21 A3003 RMK AO2=
201208151352 METAR KATL 151352Z 25005KT 5SM BR BKN006 BKN080 23/21 A3003 RMK AO2 SLP160 T02330211=
201208151252 METAR KATL 151252Z 28004KT 2 1/2SM BR BKN004 BKN250 23/21 A3002 RMK AO2 SFC VIS 4 SLP155 T02280211 $=
201208151152 METAR KATL 151152Z 22004KT 1SM BR BKN003 OVC100 22/21 A2999 RMK AO2 SFC VIS 3 SLP147 70007 T02170211 10228 20217 51013=
201208151127 SPECI KATL 151127Z 26005KT 1SM BR BKN003 OVC100 22/21 A2999 RMK AO2 SFC VIS 3=
201208151052 METAR KATL 151052Z 28005KT 1/2SM BR BKN002 22/21 A2999 RMK AO2 SFC VIS 3 SLP146 T02170211=
201208150952 METAR KATL 150952Z 25006KT 1/2SM BR OVC002 22/21 A2997 RMK AO2 SFC VIS 2 SLP137 T02170211=
201208150927 SPECI KATL 150927Z 25005KT 1/2SM R09R/5500VP6000FT BR OVC002 22/21 A2996 RMK AO2 SFC VIS 2 VIS 1 1/2V3=
201208150911 SPECI KATL 150911Z 24005KT 1SM BR OVC004 22/21 A2996 RMK AO2 SFC VIS 5=
201208150852 METAR KATL 150852Z 23003KT 6SM BR SCT004 22/21 A2996 RMK AO2 SLP132 T02170211 51002=
201208150752 METAR KATL 150752Z 00000KT 7SM SCT005 SCT120 22/21 A2995 RMK AO2 SLP131 T02170206=
201208150659 SPECI KATL 150659Z 23004KT 7SM SCT005 SCT120 22/21 A2995 RMK AO2=
201208150652 METAR KATL 150652Z 21006KT 7SM SCT010 SCT120 22/21 A2996 RMK AO2 SLP134 T02220206=
201208150552 METAR KATL 150552Z 26004KT 10SM CLR 23/21 A2995 RMK AO2 SLP131 T02280211 10289 20228 58007=
201208150452 METAR KATL 150452Z 22004KT 10SM FEW035 23/21 A2996 RMK AO2 SLP137 T02280211 403110206=
201208150352 METAR KATL 150352Z 00000KT 10SM FEW035 23/21 A2996 RMK AO2 SLP137 T02330211=
201208150252 METAR KATL 150252Z 24007KT 10SM FEW250 24/21 A2997 RMK AO2 SLP140 T02440211 51017=
201208150152 METAR KATL 150152Z 20007KT 10SM FEW250 25/21 A2996 RMK AO2 SLP137 T02500211=
201208150052 METAR KATL 150052Z 22007KT 10SM FEW035 27/21 A2995 RMK AO2 SLP132 CB DSNT NE TCU DSNT NW T02670211=
201208142352 METAR KATL 142352Z 24005KT 10SM FEW040TCU 29/19 A2992 RMK AO2 SLP121 CB DSNT NE TCU OHD T02940194 10311 20272 54000=
201208142252 METAR KATL 142252Z 23007KT 10SM SCT040TCU SCT250 30/21 A2991 RMK AO2 SLP119 CB DSNT SE TCU NE-E & DSNT NW T03000211=
201208142152 METAR KATL 142152Z 24006KT 10SM SCT040TCU BKN055 BKN250 30/21 A2992 RMK AO2 SLP123 CB DSNT NE & SE TCU OHD-ALQDS T03000206=
201208142052 METAR KATL 142052Z 00000KT 10SM SCT037 SCT250 30/21 A2992 RMK AO2 SLP120 TCU SE-S T03000206 58022=
201208141952 METAR KATL 141952Z 31004KT 10SM BKN034 BKN050 29/21 A2995 RMK AO2 SLP130 T02940211=
201208141852 METAR KATL 141852Z 28005KT 10SM SCT030 BKN040 BKN120 28/21 A2997 RMK AO2 SLP139 T02830206=
201208141752 METAR KATL 141752Z 25007KT 10SM FEW040 SCT120 BKN250 28/21 A2999 RMK AO2 SLP144 60007 T02830211 10289 20211 55010=
201208141652 METAR KATL 141652Z 25005KT 10SM FEW025 BKN250 26/20 A2998 RMK AO2 SLP144 T02610200=
201208141552 METAR KATL 141552Z 23005KT 10SM SCT012 BKN250 23/21 A3001 RMK AO2 SLP153 T02330206=
201208141452 METAR KATL 141452Z 20005KT 10SM BKN180 OVC250 22/20 A3002 RMK AO2 TSE1358RAE10 SLP156 TS DSPTD P0000 60007 T02220200 50011=
201208141404 SPECI KATL 141404Z 25003KT 9SM -RA FEW060 BKN120 BKN250 21/20 A3003 RMK AO2 TSE1358 TS DSPTD P0000=
201208141352 METAR KATL 141352Z 23005KT 6SM -TSRA BR FEW040CB SCT060 OVC120 21/20 A3002 RMK AO2 TSB22RAB00 SLP160 OCNL LTGIC S TS S MOV E P0007 T02110200=
201208141323 SPECI KATL 141323Z 27015G20KT 7SM -TSRA FEW012CB SCT040 BKN070 OVC250 22/19 A3005 RMK AO2 TSB22RAB00 OCNL LTGIC W TS S-SW-W MOV E P0001=
201208141252 METAR KATL 141252Z 23005KT 8SM SCT070 SCT100 BKN150 BKN250 22/20 A3001 RMK AO2 SLP154 CB DSNT S-SW T02170200=
201208141152 METAR KATL 141152Z 24003KT 8SM FEW040 SCT110 BKN150 21/20 A2998 RMK AO2 RAE18 SLP145 P0001 60014 70051 T02110200 10222 20206 55005=
201208141052 METAR KATL 141052Z 19008KT 9SM -RA SCT120 BKN150 BKN250 21/19 A2997 RMK AO2 RAE09B28 SLP139 P0005 T02110194=
201208140952 METAR KATL 140952Z 24005KT 6SM RA BR FEW050 BKN075 OVC110 21/19 A3000 RMK AO2 RAB0857 SLP147 OCNL LTGIC DSNT S-SW & N P0003 T02110194=
201208140852 METAR KATL 140852Z 26006KT 7SM FEW035 BKN070 OVC080 22/20 A3000 RMK AO2 RAB30E43 SLP147 P0005 60005 T02170200 55002=
201208140752 METAR KATL 140752Z 20004KT 7SM SCT070 BKN085 BKN110 OVC250 22/21 A2999 RMK AO2 SLP144 T02170206=
201208140652 METAR KATL 140652Z 00000KT 7SM SCT100 BKN250 22/20 A2999 RMK AO2 SLP144 T02170200=
201208140552 METAR KATL 140552Z 15003KT 8SM FEW050 SCT090 BKN150 BKN250 22/21 A3000 RMK AO2 SLP149 T02220206 10239 20211 58007=
201208140452 METAR KATL 140452Z 00000KT 7SM SCT090 BKN250 22/21 A3002 RMK AO2 SLP154 T02170206 403280172=
201208140352 METAR KATL 140352Z 00000KT 8SM FEW100 BKN250 22/21 A3003 RMK AO2 SLP157 T02170206=
201208140252 METAR KATL 140252Z 31003KT 9SM FEW007 SCT250 22/20 A3003 RMK AO2 SLP158 T02220200 50010=
201208140152 METAR KATL 140152Z 30005KT 8SM SCT009 BKN040 BKN070 22/21 A3003 RMK AO2 SLP160 T02220206=
201208140119 SPECI KATL 140119Z 05003KT 9SM SCT010 BKN045 BKN070 23/21 A3001 RMK AO2=
201208140109 SPECI KATL 140109Z 35006KT 10SM BKN010 BKN045 OVC070 23/21 A3001 RMK AO2 CIG 008V012=
201208140052 METAR KATL 140052Z 02003KT 10SM SCT045 BKN070 BKN200 23/21 A3000 RMK AO2 SLP151 T02330206 $=
201208132352 METAR KATL 132352Z 01007KT 10SM FEW040 SCT070 BKN150 OVC200 23/21 A2999 RMK AO2 SLP150 60037 T02330206 10328 20222 58007=
201208132252 METAR KATL 132252Z 01011KT 10SM FEW035 SCT070 BKN110 OVC150 23/20 A3000 RMK AO2 PK WND 29029/2205 TSE49RAB07E52 SLP152 P0037 T02330200=
201208132249 SPECI KATL 132249Z 02010KT 10SM -RA FEW035 SCT070 BKN110 OVC150 23/20 A2999 RMK AO2 PK WND 29029/2205 TSE49RAB07 TS MOV NE P0037=
201208132234 SPECI KATL 132234Z 02009KT 3SM TSRA BR SCT035CB BKN070 BKN120 OVC150 23/21 A3004 RMK AO2 PK WND 29029/2205 RAB07 VIS LWR NE-SE OCNL LTGIC NE-SE TS NE-SE MOV NE P0037=
201208132226 SPECI KATL 132226Z 32009G28KT 3/4SM R09R/3000VP6000FT +TSRA BR FEW020 BKN035CB OVC060 22/21 A3006 RMK AO2 PK WND 29029/2205 RAB07 OCNL LTGIC ALQDS TS ALQDS MOV NE P0028=
201208132223 SPECI KATL 132223Z 29017G28KT 1 1/4SM R09R/3000VP6000FT +TSRA BR BKN040CB BKN060 OVC120 22/21 A3006 RMK AO2 PK WND 29029/2205 RAB07 PRESRR OCNL LTGIC SW-NW TS SW-NW MOV NE P0016=
201208132219 SPECI KATL 132219Z 29021G25KT 2 1/2SM R09R/5500VP6000FT +TSRA BR BKN045CB BKN080 OVC150 23/21 A3005 RMK AO2 PK WND 29029/2205 RAB07 PRESRR OCNL LTGIC SW-NW TS SW-NW MOV NE P0010=
201208132152 METAR KATL 132152Z 27007KT 10SM TS FEW055CB SCT140 BKN200 OVC250 29/17 A3002 RMK AO2 TSB52 SLP158 OCNL LTGICCG W-NW TS VC W-NW MOV NE T02940167=
201208132052 METAR KATL 132052Z 31008G14KT 10SM SCT060 SCT150 OVC250 31/16 A3002 RMK AO2 SLP155 T03060156 55010=
201208131952 METAR KATL 131952Z 33008KT 10SM FEW065 BKN140 BKN250 31/14 A3001 RMK AO2 SLP152 T03110144=
201208131852 METAR KATL 131852Z VRB03KT 10SM FEW060 BKN250 31/13 A3002 RMK AO2 SLP157 T03060133=
201208131752 METAR KATL 131752Z 28004G14KT 10SM FEW060 BKN250 29/13 A3005 RMK AO2 SLP166 T02940133 10306 20189 58011=
201208131652 METAR KATL 131652Z VRB05KT 10SM FEW050 SCT250 29/14 A3007 RMK AO2 SLP174 T02890144=
201208131552 METAR KATL 131552Z 31007KT 10SM SCT250 28/14 A3008 RMK AO2 SLP177 T02830139=
201208131452 METAR KATL 131452Z VRB04KT 10SM SCT250 27/14 A3008 RMK AO2 SLP177 T02670139 50003=
201208131352 METAR KATL 131352Z 24004KT 10SM FEW250 25/13 A3009 RMK AO2 SLP178 T02500133=
201208131252 METAR KATL 131252Z 00000KT 10SM FEW250 22/16 A3009 RMK AO2 SLP179 T02170156=
201208131152 METAR KATL 131152Z 00000KT 10SM CLR 19/14 A3007 RMK AO2 SLP175 T01890144 10211 20172 53013=
201208131052 METAR KATL 131052Z 00000KT 10SM FEW250 18/14 A3006 RMK AO2 SLP169 T01780139=
201208130952 METAR KATL 130952Z 28004KT 7SM CLR 18/14 A3005 RMK AO2 SLP166 T01830139=
201208130852 METAR KATL 130852Z 27003KT 10SM CLR 19/14 A3003 RMK AO2 SLP160 T01890144 55003=
201208130752 METAR KATL 130752Z 31003KT 9SM CLR 20/14 A3002 RMK AO2 SLP157 T02000144=
201208130652 METAR KATL 130652Z 31003KT 7SM CLR 21/14 A3003 RMK AO2 SLP160 T02060144=
201208130552 METAR KATL 130552Z 30004KT 10SM CLR 21/15 A3004 RMK AO2 SLP163 T02060150 10278 20200 58005=
201208130452 METAR KATL 130452Z 31004KT 10SM CLR 22/14 A3005 RMK AO2 SLP167 T02170144 403110172=
201208130352 METAR KATL 130352Z 32004KT 10SM FEW250 22/14 A3006 RMK AO2 SLP169 T02220139=
201208130252 METAR KATL 130252Z 32005KT 10SM FEW250 23/13 A3006 RMK AO2 SLP170 T02330133 51014=
201208130152 METAR KATL 130152Z 31006KT 10SM SCT250 24/13 A3005 RMK AO2 SLP167 T02440128=
201208130052 METAR KATL 130052Z 31009KT 10SM BKN250 26/13 A3003 RMK AO2 SLP161 T02610128=
201208122352 METAR KATL 122352Z 31007KT 10SM BKN250 28/12 A3002 RMK AO2 SLP156 T02780122 10311 20278 53005=
201208122252 METAR KATL 122252Z 30008KT 10SM BKN250 28/11 A3000 RMK AO2 SLP149 T02830111=
201208122152 METAR KATL 122152Z 32007KT 10SM BKN250 31/07 A3000 RMK AO2 SLP148 T03060072=
201208122052 METAR KATL 122052Z 30009KT 10SM SCT250 31/11 A3000 RMK AO2 SLP150 T03110106 56009=
201208121952 METAR KATL 121952Z 32010KT 10SM FEW250 31/10 A3001 RMK AO2 SLP152 T03110100=
201208121852 SPECI KATL 121852Z VRB05KT 10SM FEW250 30/09 A3002 RMK AO2 SLP154 T03000094=
201208121852 METAR KATL 121852Z VRB05KT 10SM FEW250 30/09 A3002 RMK AO2 SLP154 T03000094=
201208121752 METAR KATL 121752Z 32009KT 10SM FEW250 29/09 A3003 RMK AO2 SLP159 T02890094 10294 20178 58007=
201208121652 METAR KATL 121652Z 33007KT 10SM CLR 28/11 A3004 RMK AO2 SLP162 T02780111=
201208121552 METAR KATL 121552Z 32010KT 10SM CLR 26/12 A3004 RMK AO2 SLP164 T02610117=
201208121452 METAR KATL 121452Z 33007KT 10SM CLR 25/13 A3005 RMK AO2 SLP167 T02500128 51009=
201208121352 METAR KATL 121352Z 32005KT 10SM CLR 23/14 A3004 RMK AO2 SLP164 T02330139=
201208121252 METAR KATL 121252Z 32007KT 10SM CLR 20/14 A3003 RMK AO2 SLP162 T02000144=
201208121152 METAR KATL 121152Z 32007KT 10SM CLR 18/14 A3002 RMK AO2 SLP158 T01780139 10200 20172 53007=
201208121052 METAR KATL 121052Z 33009KT 10SM FEW250 17/14 A3002 RMK AO2 SLP156 T01720139=
201208120952 METAR KATL 120952Z 32008KT 10SM CLR 17/14 A3001 RMK AO2 SLP152 T01720144=
201208120852 METAR KATL 120852Z 31007KT 10SM CLR 18/14 A3000 RMK AO2 SLP150 T01780144 53003=
201208120752 METAR KATL 120752Z 31006KT 10SM CLR 18/15 A3000 RMK AO2 SLP148 T01830150=
201208120652 METAR KATL 120652Z 32007KT 10SM CLR 19/15 A2999 RMK AO2 SLP145 T01940150=
201208120552 METAR KATL 120552Z 31007KT 10SM CLR 20/15 A2999 RMK AO2 SLP147 T02000150 10272 20200 50003=
201208120452 METAR KATL 120452Z 31005KT 10SM CLR 22/14 A3000 RMK AO2 SLP149 T02170139 402940217=
201208120352 METAR KATL 120352Z 32004KT 10SM CLR 22/14 A2999 RMK AO2 SLP147 T02220144=
201208120252 METAR KATL 120252Z 35007KT 10SM CLR 24/14 A2998 RMK AO2 SLP144 T02390144 51017=
201208120152 METAR KATL 120152Z 34006KT 10SM CLR 24/15 A2997 RMK AO2 SLP139 T02440150=
201208120052 METAR KATL 120052Z 33006KT 10SM FEW090 SCT250 26/15 A2995 RMK AO2 SLP133 T02560150=
201208112352 METAR KATL 112352Z 33006KT 10SM FEW045 SCT250 27/16 A2993 RMK AO2 SLP125 T02720156 10294 20267 51007=
201208112252 METAR KATL 112252Z 33011KT 10SM SCT045 SCT250 28/17 A2993 RMK AO2 SLP123 T02830172=
201208112152 METAR KATL 112152Z 32011G15KT 10SM SCT041 BKN250 29/17 A2992 RMK AO2 SLP120 T02890172=
201208112052 METAR KATL 112052Z 31010KT 10SM FEW045 BKN250 28/18 A2991 RMK AO2 SLP118 T02830178 58008=
201208111952 METAR KATL 111952Z 30010KT 10SM SCT040 SCT090 BKN250 29/18 A2992 RMK AO2 SLP122 T02890178=
201208111852 METAR KATL 111852Z 33010G16KT 10SM SCT030 SCT045 BKN250 29/18 A2993 RMK AO2 SLP122 T02890183=
201208111829 SPECI KATL 111829Z 31008KT 10SM FEW024 SCT030 BKN250 29/20 A2993 RMK AO2=
201208111752 METAR KATL 111752Z 30010KT 10SM SCT024 BKN029 BKN045 27/20 A2993 RMK AO2 SLP126 T02670200 10272 20228 58001=
201208111719 SPECI KATL 111719Z 30006KT 10SM BKN022 OVC041 26/20 A2995 RMK AO2=
201208111652 METAR KATL 111652Z 30008KT 10SM FEW021 BKN043 OVC050 26/20 A2995 RMK AO2 SLP131 T02610200=
201208111627 SPECI KATL 111627Z 29009KT 10SM SCT019 OVC033 25/20 A2995 RMK AO2=
201208111552 METAR KATL 111552Z 32009KT 10SM SCT016 OVC024 25/21 A2995 RMK AO2 SLP131 T02500206=
201208111452 METAR KATL 111452Z 25006KT 10SM FEW018 OVC026 25/21 A2994 RMK AO2 SLP128 T02500206 53006=
201208111417 SPECI KATL 111417Z 24005KT 10SM FEW013 BKN024 OVC043 24/21 A2993 RMK AO2=
201208111352 METAR KATL 111352Z 27004KT 10SM FEW020 SCT040 BKN055 24/21 A2992 RMK AO2 SLP122 T02440211=
201208111252 METAR KATL 111252Z 00000KT 10SM FEW015 BKN043 BKN050 BKN180 23/21 A2992 RMK AO2 SLP120 T02330206=
201208111152 METAR KATL 111152Z 00000KT 10SM FEW023 BKN038 BKN085 BKN250 23/20 A2992 RMK AO2 SLP122 60001 70002 T02280200 10228 20217 51013=
201208111052 METAR KATL 111052Z 00000KT 10SM FEW015 SCT023 BKN035 22/19 A2991 RMK AO2 SLP117 T02220194=
201208111003 SPECI KATL 111003Z 00000KT 10SM BKN015 OVC110 23/19 A2989 RMK AO2=
201208110952 METAR KATL 110952Z 01003KT 10SM FEW015 BKN110 OVC200 22/19 A2988 RMK AO2 RAE10B38E48 SLP109 P0000 T02220194=
201208110919 SPECI KATL 110919Z 04005KT 10SM SCT012 SCT020 OVC100 22/19 A2987 RMK AO2 RAE10 P0000=
201208110852 METAR KATL 110852Z 00000KT 10SM -RA BKN012 OVC022 22/20 A2989 RMK AO2 RAB00E19B38 SLP111 P0000 60001 T02170200 55005=
201208110844 SPECI KATL 110844Z 00000KT 10SM -RA BKN012 22/19 A2989 RMK AO2 RAB00E19B38 P0000=
201208110752 METAR KATL 110752Z 01005KT 10SM FEW005 OVC200 22/21 A2987 RMK AO2 RAE35 SLP105 P0000 T02220206=
201208110739 SPECI KATL 110739Z 35007KT 10SM SCT005 SCT011 BKN100 22/21 A2987 RMK AO2 RAE35 P0000=
201208110730 SPECI KATL 110730Z 34006KT 10SM -RA SCT005 BKN011 BKN110 22/21 A2987 RMK AO2 P0000=
201208110652 METAR KATL 110652Z COR 21006KT 6SM -RA BR FEW009 SCT095 BKN110 OVC180 23/22 A2988 RMK AO2 RAE33B51 SLP109 OCNL LTGIC DSNT N P0001 T02280217=
201208110613 SPECI KATL 110613Z 22005KT 7SM -RA BKN009 OVC013 23/22 A2991 RMK AO2 OCNL LTGIC DSNT NW P0000=
201208110552 METAR KATL 110552Z 22007KT 7SM -RA BKN011 OVC013 23/22 A2991 RMK AO2 SLP117 P0001 60001 T02280217 10283 20228 55002=
201208110529 SPECI KATL 110529Z 21006KT 7SM -RA BKN013 BKN026 OVC110 23/22 A2991 RMK AO2 P0001=
201208110452 METAR KATL 110452Z 20010KT 10SM -RA SCT010 BKN080 BKN120 OVC150 23/21 A2990 RMK AO2 RAB43 SLP115 OCNL LTG DSNT NW P0000 T02330211 403060217=
201208110352 METAR KATL 110352Z 19007KT 10SM BKN150 BKN200 OVC250 24/22 A2990 RMK AO2 SLP115 OCNL LTG DSNT SW-NW T02390217=
201208110252 METAR KATL 110252Z 20007KT 10SM FEW150 BKN250 25/21 A2991 RMK AO2 SLP120 OCNL LTG DSNT NE T02500211 51013=
201208110152 METAR KATL 110152Z 21007KT 10SM FEW030 SCT250 26/21 A2990 RMK AO2 SLP115 FRQ LTG DSNT N-NE T02560211=
201208110052 METAR KATL 110052Z 20007KT 10SM FEW035 SCT250 27/21 A2989 RMK AO2 SLP111 CB DSNT NE T02670211=
201208102352 METAR KATL 102352Z 22010KT 10SM FEW040 SCT250 28/21 A2987 RMK AO2 SLP105 CB DSNT NE 60000 T02830206 10306 20278 55001=
201208102252 METAR KATL 102252Z 21010KT 10SM SCT040TCU SCT250 29/21 A2985 RMK AO2 SLP099 TCU NE-SE & NW T02940206=
201208102152 METAR KATL 102152Z 20006KT 10SM BKN040TCU BKN100 BKN250 29/20 A2985 RMK AO2 RAB45E51 SLP097 TCU ALQDS P0000 T02890200=
201208102052 METAR KATL 102052Z 17009KT 10SM BKN038TCU BKN250 29/21 A2987 RMK AO2 SLP105 TCU ALQDS T02890206 58011=
201208101952 METAR KATL 101952Z 19011KT 10SM BKN034TCU BKN050 BKN250 29/21 A2989 RMK AO2 SLP110 TCU OHD-SW-NW T02890206=
201208101852 METAR KATL 101852Z VRB04KT 9SM SCT030 SCT050 28/21 A2990 RMK AO2 SLP114 T02780206=
201208101752 METAR KATL 101752Z VRB04KT 10SM FEW028 SCT050 BKN250 28/20 A2991 RMK AO2 SLP117 T02780200 10283 20217 58005=
201208101652 METAR KATL 101652Z VRB03KT 10SM FEW025 SCT150 BKN250 27/20 A2992 RMK AO2 SLP121 T02670200=
201208101645 SPECI KATL 101645Z 19005KT 10SM FEW025 SCT150 BKN250 27/20 A2992 RMK AO2=
201208101552 METAR KATL 101552Z 24006KT 10SM FEW017 BKN020 BKN200 25/20 A2993 RMK AO2 SLP125 T02500200=
201208101452 METAR KATL 101452Z VRB05KT 8SM FEW013 BKN016 OVC020 24/20 A2992 RMK AO2 SLP124 T02390200 53005=
201208101427 SPECI KATL 101427Z 26005KT 6SM HZ FEW008 SCT010 OVC013 23/19 A2992 RMK AO2=
201208101359 SPECI KATL 101359Z 27007KT 6SM HZ OVC008 22/19 A2992 RMK AO2=
201208101352 METAR KATL 101352Z 25006KT 6SM HZ OVC010 22/19 A2992 RMK AO2 SLP122 T02220194=
201208101329 SPECI KATL 101329Z 26005KT 8SM OVC010 22/19 A2991 RMK AO2=
201208101257 SPECI KATL 101257Z 24007KT 8SM OVC008 22/19 A2992=
201208101252 METAR KATL 101252Z 26005KT 8SM OVC010 22/19 A2992 RMK AO2 SLP122 CIG 008V012 T02170194=
201208101208 SPECI KATL 101208Z 28006KT 8SM OVC011 22/20 A2992 RMK AO2=
201208101152 METAR KATL 101152Z 27007KT 7SM OVC009 22/20 A2991 RMK AO2 SLP118 CIG 007V011 70015 T02220200 10222 20217 53011=
201208101134 SPECI KATL 101134Z 28005KT 7SM BKN009 BKN055 OVC250 22/20 A2991 RMK AO2 CIG 007V011=
201208101059 SPECI KATL 101059Z 27005KT 8SM FEW008 BKN055 BKN250 22/20 A2990 RMK AO2=
201208101052 METAR KATL 101052Z 26006KT 9SM BKN009 BKN055 BKN250 22/20 A2989 RMK AO2 SLP113 T02170200=
201208101049 SPECI KATL 101049Z 27006KT 10SM BKN009 BKN055 BKN250 22/20 A2989 RMK AO2=
201208100952 METAR KATL 100952Z 24007KT 10SM OVC011 22/20 A2989 RMK AO2 SLP112 CIG 009V014 T02220200 $=
201208100918 SPECI KATL 100918Z 23006KT 10SM BKN011 OVC017 22/20 A2988 RMK AO2 CIG 009V014 $=
201208100852 METAR KATL 100852Z 23007KT 10SM SCT008 OVC031 22/21 A2987 RMK AO2 SLP107 T02220206 56005 $=
201208100752 METAR KATL 100752Z 24005KT 8SM BKN006 BKN013 OVC019 22/21 A2988 RMK AO2 SLP108 T02220206 $=
201208100652 METAR KATL 100652Z 21006KT 10SM OVC008 22/21 A2989 RMK AO2 SLP109 CIG 006V009 T02220206 $=
201208100621 SPECI KATL 100621Z 21005KT 10SM BKN008 OVC028 22/21 A2989 RMK AO2 $=
201208100552 METAR KATL 100552Z 20003KT 10SM SCT007 SCT028 BKN180 OVC250 22/21 A2989 RMK AO2 SLP110 T02220206 10250 20222 56011 $=
201208100550 SPECI KATL 100550Z 21003KT 10SM SCT007 SCT028 BKN180 OVC250 22/21 A2989 RMK AO2 $=
201208100531 SPECI KATL 100531Z 19003KT 10SM BKN007 BKN028 BKN047 BKN250 22/21 A2990 RMK AO2 $=
201208100517 SPECI KATL 100517Z 18005KT 10SM FEW009 BKN028 BKN043 BKN250 22/21 A2990 RMK AO2 $=
201208100452 METAR KATL 100452Z 00000KT 10SM FEW009 SCT055 BKN200 23/21 A2990 RMK AO2 SLP113 T02280206 403110222 $=
201208100435 SPECI KATL 100435Z 15005KT 10SM FEW009 SCT025 BKN200 23/21 A2990 RMK AO2 $=
201208100352 METAR KATL 100352Z 15005KT 10SM BKN020 BKN080 OVC200 23/21 A2990 RMK AO2 SLP113 T02280211 $=
201208100306 SPECI KATL 100306Z 17004KT 10SM SCT020 BKN110 OVC200 23/21 A2991 RMK AO2 $=
201208100252 METAR KATL 100252Z 00000KT 10SM FEW008 BKN020 OVC110 23/21 A2992 RMK AO2 SLP122 T02330206 53006 $=
201208100220 SPECI KATL 100220Z 15004KT 10SM FEW008 BKN020 BKN110 BKN200 23/22 A2991 RMK AO2 $=
201208100152 METAR KATL 100152Z 00000KT 10SM FEW020 BKN110 BKN200 23/22 A2991 RMK AO2 SLP117 T02330217 $=
201208100122 SPECI KATL 100122Z 00000KT 10SM FEW008 SCT025 BKN150 BKN250 23/22 A2991 RMK AO2 $=
201208100105 SPECI KATL 100105Z 18003KT 10SM SCT008 BKN025 BKN080 BKN250 23/22 A2991 RMK AO2 $=
201208100052 METAR KATL 100052Z 20005KT 10SM SCT008 BKN014 BKN080 BKN250 23/22 A2991 RMK AO2 SLP120 T02330217 $=
201208092358 SPECI KATL 092358Z 14007KT 10SM BKN017 BKN080 OVC150 24/22 A2991 RMK AO2 $=
201208092352 METAR KATL 092352Z 14007KT 10SM SCT017 BKN080 BKN150 BKN250 25/21 A2991 RMK AO2 SLP118 60015 T02500206 10311 20222 56002 $=
201208092252 METAR KATL 092252Z 13005KT 10SM FEW025 BKN130 BKN200 BKN250 25/20 A2992 RMK AO2 SLP121 T02500200 $=
201208092152 METAR KATL 092152Z 02008KT 10SM FEW035 SCT120 BKN200 BKN250 25/21 A2989 RMK AO2 RAB35E52 SLP113 P0000 T02500211 $=
201208092052 METAR KATL 092052Z 35008G16KT 10SM FEW015 SCT100 OVC150 25/22 A2991 RMK AO2 RAE37 SLP119 CB DSNT NE-E-SE SHRA DSNT NE-E-SE P0005 60015 T02500217 56008 $=
201208092043 SPECI KATL 092043Z 32008KT 10SM FEW015 SCT050 SCT100 OVC150 24/22 A2992 RMK AO2 RAE37 CB DSNT NE-E-SE P0005 $=
201208092006 SPECI KATL 092006Z 29007KT 6SM -RA BR BKN019CB BKN060 OVC100 23/21 A2994 RMK AO2 PRESRR CB OHD-S MOV NE P0003 $=
201208091952 METAR KATL 091952Z COR 26004KT 9SM -RA FEW030 BKN070 OVC100 23/20 A2992 RMK AO2 WSHFT 1905 TSE50RAB1858 SLP121 FRQ LTG DSNT N-NE TS MOV NE CB DSNT N-NE P0010 T02330200 $=
201208091946 SPECI KATL 091946Z 00000KT 8SM -TSRA FEW010 SCT030CB OVC100 23/19 A2991=
201208091933 SPECI KATL 091933Z 00000KT 8SM -TSRA FEW010 SCT030CB OVC080 23/19 A2994 RMK AO2 WSHFT 1905 RAB1858 VIS LWR NE SHRA CNS LTGICCG NE TS NE MOV NE P0009 $=
201208091928 SPECI KATL 091928Z 15004G15KT 5SM -TSRA FEW010 BKN030CB OVC060 22/19 A2995 RMK AO2 WSHFT 1905 RAB1858 VIS LWR NE-SE SHRA FRQ LTGICCG NE-SE TS NE-SE MOV NE P0008 $=
201208091923 SPECI KATL 091923Z 18011G25KT 2 1/2SM R09R/6000VP6000FT TSRA FEW010 BKN030CB OVC050 22/19 A2995 RMK AO2 WSHFT 1905 SFC VIS 4 RAB1858 PRESRR VIS LWR NE-SE SHRA FRQ LTGICCG OHD-NE-SE TS OHD-NE-SE MOV NE P0008 $=
201208091916 SPECI KATL 091916Z 18017G25KT 2 1/2SM R09R/6000VP6000FT +TSRA BKN030CB BKN040 OVC080 23/20 A2994 RMK AO2 SFC VIS 3 RAB1858 FRQ LTGICCG OHD-SE-S TS OHD-SE-S MOV NE P0001 $=
201208091906 SPECI KATL 091906Z 21016G21KT 7SM -TSRA BKN030CB BKN040TCU OVC080 27/22 A2993 RMK AO2 RAB1858 VIS LWR SE-S SHRA FRQ LTGICCG SE-S TS VC SE-S MOV NE TCU OHD & ALQDS P0000=
201208091852 METAR KATL 091852Z 25005KT 10SM TS FEW030CB SCT050TCU BKN075 OVC150 29/22 A2993 RMK AO2 TSB49RAB33E51 SLP123 FRQ LTGICCG S TS VC S MOV NE TCU SW-NW SHRA S P0000 T02940217=
201208091752 METAR KATL 091752Z 25006KT 10SM SCT027TCU SCT150 BKN200 31/22 A2994 RMK AO2 SLP125 CB DSNT NE TCU N-NE & S-SW-W SHRA DSNT NE T03110217 10311 20228 58018=
201208091652 METAR KATL 091652Z 22004KT 10SM SCT030TCU BKN150 OVC200 29/22 A2996 RMK AO2 SLP134 CB DSNT NE & SW & NW TCU NE & SE-SW SHRA DSNT NE & SW & NW T02890217=
201208091552 METAR KATL 091552Z 21007KT 10SM FEW030 BKN150 BKN200 29/21 A2998 RMK AO2 SLP138 CB DSNT NW SHRA DSNT NW T02940211=
201208091452 METAR KATL 091452Z VRB04KT 10SM FEW150 BKN200 BKN250 29/22 A2999 RMK AO2 SLP143 T02890222 58005=
201208091352 METAR KATL 091352Z 23004KT 10SM FEW150 SCT200 BKN250 26/22 A3001 RMK AO2 SLP150 T02610217=
201208091252 METAR KATL 091252Z 17003KT 10SM FEW200 BKN250 24/21 A3001 RMK AO2 SLP151 T02440206=
201208091152 METAR KATL 091152Z 14003KT 10SM FEW030 BKN250 23/19 A3000 RMK AO2 SLP149 T02280194 10244 20222 50006=
201208091052 METAR KATL 091052Z 09005KT 10SM FEW030 BKN250 23/19 A3001 RMK AO2 SLP150 T02280189=
201208090952 METAR KATL 090952Z 09006KT 10SM BKN250 23/19 A3000 RMK AO2 SLP147 T02280189=
201208090852 METAR KATL 090852Z 00000KT 10SM OVC250 24/19 A2999 RMK AO2 SLP142 T02390189 55005=
201208090752 METAR KATL 090752Z 00000KT 10SM BKN250 23/19 A2999 RMK AO2 SLP142 T02330189=
201208090652 METAR KATL 090652Z 00000KT 10SM FEW080 BKN250 24/18 A2999 RMK AO2 SLP145 T02390183=
201208090552 METAR KATL 090552Z 10006KT 10SM FEW045 SCT080 BKN250 24/19 A3000 RMK AO2 SLP149 T02390189 10306 20239 58002=
201208090452 METAR KATL 090452Z 09005KT 10SM FEW045 SCT080 BKN250 25/20 A3002 RMK AO2 SLP154 T02500200 403330217=
201208090352 METAR KATL 090352Z 11004KT 10SM FEW045 SCT200 27/19 A3002 RMK AO2 SLP152 OCNL LTG DSNT NE T02670194=
201208090252 METAR KATL 090252Z 00000KT 10SM FEW040 28/19 A3001 RMK AO2 SLP151 T02780194 53012=
201208090152 METAR KATL 090152Z 21003KT 10SM FEW040 SCT200 28/19 A2999 RMK AO2 TSB16E52 SLP144 TS DSIPTD T02830189=
201208090116 SPECI KATL 090116Z 07012G17KT 10SM TS BKN045CB BKN250 29/19 A3001 RMK AO2 TSB16 FRQ LTGICCG NE-SE TS VC NE-SE MOV SW=
201208090052 METAR KATL 090052Z 17004KT 10SM SCT045 SCT250 29/20 A2999 RMK AO2 SLP144 OCNL LTGICCG DSNT NE T02890200=
201208082352 METAR KATL 082352Z 21005KT 10SM FEW045 SCT200 BKN250 31/21 A2997 RMK AO2 SLP139 CB DSNT NE T03060206 10333 20294 55001=
201208082252 METAR KATL 082252Z 18008KT 10SM SCT050TCU BKN250 32/21 A2996 RMK AO2 SLP135 CB DSNT NE TCU OHD-S T03220206=
201208082152 METAR KATL 082152Z 19005KT 10SM FEW050 BKN250 32/19 A2997 RMK AO2 SLP138 CB DSNT NE T03220194=
201208082052 SPECI KATL 082052Z 00000KT 10SM SCT050TCU SCT250 32/19 A2998 RMK AO2 SLP140 TCU N & DSNT NE T03220194 56020=
201208082052 METAR KATL 082052Z 00000KT 10SM SCT050TCU SCT250 32/19 A2998 RMK AO2 SLP140 TCU N & DSNT NE T03220194 56020=
201208081952 METAR KATL 081952Z 26007KT 10SM SCT050TCU SCT250 33/20 A2999 RMK AO2 SLP144 TCU NE-E-SE-S T03280200=
201208081852 METAR KATL 081852Z 00000KT 10SM BKN043TCU BKN250 31/20 A3002 RMK AO2 SLP153 TCU OHD-N-NE-E-SE T03060200=
201208081752 METAR KATL 081752Z VRB06KT 10SM BKN040TCU BKN250 31/21 A3004 RMK AO2 SLP161 TCU OHD & ALQDS T03060206 10317 20228 58006=
201208081652 METAR KATL 081652Z 00000KT 10SM SCT030TCU SCT250 29/21 A3005 RMK AO2 SLP165 TCU N-NE-E-SE T02940206=
201208081552 METAR KATL 081552Z 32004KT 10SM FEW020 SCT200 SCT250 28/21 A3006 RMK AO2 SLP167 T02830206=
201208081452 METAR KATL 081452Z 30003KT 10SM FEW020 SCT250 27/21 A3006 RMK AO2 SLP167 T02670211 50003=
201208081417 SPECI KATL 081417Z 33005KT 10SM SCT011 26/21 A3007 RMK AO2=
201208081352 METAR KATL 081352Z 33005KT 9SM BKN009 BKN011 BKN250 25/21 A3006 RMK AO2 SLP171 T02500211=
201208081252 METAR KATL 081252Z 33005KT 7SM OVC005 23/21 A3006 RMK AO2 SLP170 T02330211=
201208081152 METAR KATL 081152Z 31003KT 3SM BR OVC005 23/21 A3005 RMK AO2 SFC VIS 6 SLP164 T02280211 10239 20217 53012=
201208081052 METAR KATL 081052Z 00000KT 10SM OVC005 22/21 A3003 RMK AO2 SLP158 T02220211=
201208081016 SPECI KATL 081016Z 00000KT 10SM BKN007 22/21 A3002 RMK AO2=
201208081007 SPECI KATL 081007Z 00000KT 10SM SCT007 22/21 A3002 RMK AO2=
201208080952 METAR KATL 080952Z 00000KT 10SM SCT015 SCT090 22/21 A3002 RMK AO2 SLP155 T02220206 $=
201208080852 METAR KATL 080852Z 00000KT 10SM FEW015 SCT090 22/21 A3001 RMK AO2 SLP152 T02220206 56005 $=
201208080752 METAR KATL 080752Z 00000KT 10SM FEW020 SCT100 23/21 A3002 RMK AO2 SLP154 T02330211 $=
201208080652 METAR KATL 080652Z 23004KT 10SM FEW030 SCT100 23/21 A3001 RMK AO2 SLP151 T02280211 $=
201208080552 METAR KATL 080552Z 16006KT 10SM FEW050 SCT100 SCT250 24/21 A3002 RMK AO2 SLP155 T02390211 10272 20239 58001 $=
201208080452 METAR KATL 080452Z 16005KT 10SM FEW090 SCT250 24/22 A3004 RMK AO2 SLP162 T02440217 402890239 $=
201208080352 METAR KATL 080352Z 00000KT 10SM FEW100 BKN250 25/22 A3004 RMK AO2 SLP161 T02500217 $=
201208080252 METAR KATL 080252Z 00000KT 10SM SCT095 BKN130 BKN250 26/21 A3003 RMK AO2 SLP157 T02560211 51013=
201208080152 METAR KATL 080152Z 15003KT 10SM BKN095 BKN120 BKN250 26/21 A3002 RMK AO2 SLP155 T02610211=
201208080052 METAR KATL 080052Z 00000KT 10SM FEW100 SCT150 BKN250 26/21 A3001 RMK AO2 SLP151 CB DSNT NE T02610206=
201208072352 METAR KATL 072352Z 18006KT 10SM FEW030 SCT100 BKN150 BKN250 27/21 A2999 RMK AO2 SLP143 CB DSNT NE T02720206 10289 20272 50003=
201208072252 METAR KATL 072252Z 18006KT 10SM FEW030 SCT090 BKN150 BKN200 28/21 A2999 RMK AO2 SLP144 CB DSNT NE TCU DSNT NW T02780206=
201208072152 METAR KATL 072152Z VRB05KT 10SM SCT030TCU BKN100 BKN200 28/21 A2999 RMK AO2 SLP144 TCU W & NW-N T02780206=
201208072052 METAR KATL 072052Z 17008KT 10SM SCT030 BKN100 BKN200 28/21 A2998 RMK AO2 SLP140 TCU DSNT NE T02830206 58017=
201208071952 METAR KATL 071952Z VRB03KT 10SM FEW025 BKN100 BKN200 29/21 A3000 RMK AO2 SLP148 CB DSNT NW TCU DSNT W-NW-N SHRA DSNT NW T02890211=
201208071852 METAR KATL 071852Z 20007KT 10SM FEW025 BKN100 BKN120 BKN200 28/21 A3001 RMK AO2 SLP152 CB DSNT W-NW-N TCU DSNT SW & NW SHRA DSNT W-NW-N T02780211=
201208071752 METAR KATL 071752Z 15007KT 10SM SCT025TCU BKN100 OVC120 28/21 A3003 RMK AO2 SLP158 CB DSNT NW TCU NE & SW-NW SHRA DSNT NW 60000 T02780211 10283 20244 56007=
201208071652 METAR KATL 071652Z 14004KT 10SM SCT020TCU BKN090 OVC100 28/22 A3004 RMK AO2 RAB15E28 SLP160 TCU NE & SW-NW SHRA W-NW-N P0000 T02780217=
201208071552 METAR KATL 071552Z 13005KT 10SM BKN025TCU BKN100 BKN200 28/22 A3005 RMK AO2 SLP165 TCU ALQDS T02780217=
201208071524 SPECI KATL 071524Z 00000KT 10SM FEW015 BKN030 BKN100 28/22 A3006 RMK AO2=
201208071452 METAR KATL 071452Z 00000KT 10SM FEW015 BKN025 BKN075 27/22 A3005 RMK AO2 SLP166 T02670222 51001=
201208071450 SPECI KATL 071450Z 11003KT 10SM FEW015 BKN020 BKN075 27/22 A3005 RMK AO2=
201208071354 SPECI KATL 071354Z VRB05KT 10SM BKN014 BKN019 BKN075 26/22 A3005 RMK AO2=
201208071352 METAR KATL 071352Z VRB03KT 10SM FEW010 BKN017 BKN075 26/22 A3005 RMK AO2 SLP165 T02560222=
201208071332 SPECI KATL 071332Z VRB04KT 10SM FEW009 SCT011 OVC017 26/22 A3005 RMK AO2=
201208071252 METAR KATL 071252Z 00000KT 10SM FEW009 BKN011 BKN015 25/22 A3005 RMK AO2 SLP165 T02500217=
201208071244 SPECI KATL 071244Z 00000KT 10SM FEW009 BKN011 BKN015 25/22 A3005 RMK AO2=
201208071152 METAR KATL 071152Z 00000KT 10SM BKN008 BKN012 24/22 A3004 RMK AO2 SLP161 70005 T02440217 10244 20239 53008=
201208071052 METAR KATL 071052Z 17004KT 6SM BR BKN008 BKN120 BKN200 24/22 A3002 RMK AO2 SLP155 T02390217=
201208070952 METAR KATL 070952Z 00000KT 6SM BR BKN008 OVC012 24/22 A3001 RMK AO2 SLP151 T02440222=
201208070852 METAR KATL 070852Z 00000KT 10SM OVC006 24/22 A3001 RMK AO2 SLP152 T02390222 56010=
201208070752 METAR KATL 070752Z 13003KT 6SM BR OVC006 24/22 A3002 RMK AO2 SLP154 T02390222=
201208070652 METAR KATL 070652Z 15005KT 6SM BR BKN006 OVC010 24/22 A3003 RMK AO2 SLP159 T02390222=
201208070601 SPECI KATL 070601Z 14005KT 7SM FEW008 BKN080 OVC180 24/22 A3005 RMK AO2=
201208070552 METAR KATL 070552Z 14006KT 7SM FEW040 BKN085 OVC200 24/22 A3005 RMK AO2 SLP163 T02390217 10278 20239 58006=
201208070452 METAR KATL 070452Z 13003KT 10SM FEW040 BKN065 BKN080 OVC200 24/22 A3005 RMK AO2 SLP165 T02440217 403000228=
201208070352 METAR KATL 070352Z 13004KT 10SM FEW040 SCT070 BKN200 24/22 A3006 RMK AO2 SLP170 T02440222 $=
201208070252 METAR KATL 070252Z 13005KT 10SM FEW014 SCT150 BKN200 25/22 A3006 RMK AO2 SLP170 T02500222 53009=
201208070152 METAR KATL 070152Z 15006KT 10SM FEW110 26/22 A3003 RMK AO2 SLP160 T02610217=
201208070052 METAR KATL 070052Z 16005KT 10SM SCT070 BKN110 BKN200 27/21 A3003 RMK AO2 SLP160 T02720211=
201208062352 METAR KATL 062352Z 16005KT 10SM FEW030 BKN060 BKN100 BKN200 28/22 A3003 RMK AO2 RAE33 SLP161 CB DSNT NW P0000 60000 T02780217 10300 20256 55002=
201208062252 METAR KATL 062252Z 18007KT 10SM -RA SCT030TCU BKN055 BKN100 BKN200 28/21 A3002 RMK AO2 RAB51 SLP155 CB DSNT E-SE TCU OHD-NW P0000 T02830211=
201208062152 METAR KATL 062152Z 24005KT 10SM SCT025TCU BKN050 BKN200 29/22 A3003 RMK AO2 SLP156 TCU OHD-ALQDS T02890217=
201208062052 METAR KATL 062052Z VRB04KT 10SM FEW023 SCT040 SCT080 BKN250 28/22 A3004 RMK AO2 SLP162 CB DSNT N-NE TCU DSNT SE-S-SW T02780217 58023=
201208061952 METAR KATL 061952Z 20006KT 10SM FEW018CB SCT040 SCT080 BKN250 26/21 A3007 RMK AO2 SLP174 CB W MOV W CB DSNT S TCU DSNT E-SE-S SHRA W T02610206=
201208061852 METAR KATL 061852Z 19008KT 10SM FEW020CB SCT040 BKN080 BKN250 27/22 A3010 RMK AO2 SLP182 CB SW-NW MOV W SHRA SW-NW T02670222=
201208061835 SPECI KATL 061835Z 13007KT 10SM SCT025CB BKN040 BKN085 BKN250 27/22 A3010 RMK AO2 CB W MOV W SHRA W=
201208061752 METAR KATL 061752Z 13009KT 10SM SCT028 BKN080 BKN250 28/22 A3011 RMK AO2 SLP186 CB DSNT NE-SE TCU DSNT SE-S-SW-W-NW SHRA DSNT NE-SE 60005 T02830217 10289 20228 58012=
201208061652 METAR KATL 061652Z 12006KT 10SM SCT027TCU SCT040 BKN100 BKN250 29/21 A3013 RMK AO2 SLP191 TCU N-NE-E-SE & NW T02890211=
201208061552 METAR KATL 061552Z 11007KT 10SM BKN020TCU BKN040 BKN100 27/22 A3015 RMK AO2 SLP198 TCU OHD & ALQDS T02670217=
201208061452 METAR KATL 061452Z 09006KT 10SM BKN015 BKN040 OVC100 24/22 A3015 RMK AO2 SLP200 60005 T02440217 52003=
201208061405 SPECI KATL 061405Z VRB05KT 10SM BKN015 BKN040 OVC100 25/22 A3015 RMK AO2=
201208061352 METAR KATL 061352Z COR 11006KT 8SM BKN015 BKN040 BKN100 24/22 A3014 RMK AO2 RAE05 SLP199 P0001 T02390217=
201208061306 SPECI KATL 061306Z 12006KT 2 1/2SM BR SCT005 BKN012 OVC020 23/22 A3014 RMK AO2 SFC VIS 6 RAE05 P0001=
201208061252 METAR KATL 061252Z 10005KT 2 1/2SM -RA BR BKN005 BKN009 OVC012 23/22 A3015 RMK AO2 SFC VIS 4 SLP199 P0004 T02330217=
201208061227 SPECI KATL 061227Z 07005KT 2 1/2SM -RA BR BKN005 BKN009 OVC012 23/22 A3015 RMK AO2 P0003=
201208061152 METAR KATL 061152Z 08006KT 6SM -RA BR BKN007 OVC010 23/21 A3014 RMK AO2 RAB48 SLP196 P0000 60000 T02280211 10244 20228 53006=
201208061052 METAR KATL 061052Z 09007KT 8SM BKN009 BKN012 OVC250 23/21 A3014 RMK AO2 SLP194 T02330211=
201208061024 SPECI KATL 061024Z 09006KT 10SM BKN009 OVC012 23/21 A3013 RMK AO2=
201208060952 METAR KATL 060952Z 13004KT 10SM BKN011 OVC022 24/21 A3012 RMK AO2 RAE01 SLP188 P0000 T02390211 $=
201208060857 SPECI KATL 060857Z 12004KT 10SM -RA BKN009 BKN025 OVC030 24/22 A3012 RMK AO2 P0000 $=
201208060852 METAR KATL 060852Z 11004KT 7SM -RA SCT011 BKN025 OVC030 24/22 A3012 RMK AO2 RAB42 SLP189 P0000 60000 T02390217 55005 $=
201208060834 SPECI KATL 060834Z 12007KT 10SM BKN011 BKN017 OVC022 24/22 A3012 RMK AO2 $=
201208060752 METAR KATL 060752Z 12004KT 10SM SCT009 BKN025 BKN031 OVC150 24/22 A3012 RMK AO2 SLP188 T02390217 $=
201208060652 METAR KATL 060652Z 14005KT 7SM BKN009 BKN014 OVC030 24/22 A3012 RMK AO2 SLP189 T02440217 $=
201208060552 METAR KATL 060552Z 12004KT 10SM OVC014 24/22 A3014 RMK AO2 SLP193 T02440217 10289 20239 58002 $=
201208060452 METAR KATL 060452Z 11005KT 10SM OVC013 24/22 A3015 RMK AO2 SLP199 CIG 010V016 T02440217 403220228 $=
201208060352 METAR KATL 060352Z 12007KT 10SM BKN012 BKN250 24/22 A3015 RMK AO2 SLP199 T02440217 $=
201208060252 METAR KATL 060252Z 11009KT 10SM BKN012 BKN250 24/21 A3014 RMK AO2 SLP196 T02440211 53008 $=
201208060239 SPECI KATL 060239Z 11007KT 10SM BKN012 BKN250 24/21 A3015 RMK AO2 $=
201208060152 METAR KATL 060152Z 12008KT 10SM FEW038 BKN250 25/21 A3013 RMK AO2 SLP192 T02500211 $=
201208060052 METAR KATL 060052Z 12008KT 10SM SCT038 BKN050 BKN065 BKN250 27/21 A3013 RMK AO2 SLP191 TCU DSNT NE T02720211 $=
201208052352 METAR KATL 052352Z 11007KT 10SM SCT035 SCT080 BKN250 29/20 A3012 RMK AO2 SLP188 TCU DSNT NE 60000 T02890200 10322 20283 55004 $=
201208052252 METAR KATL 052252Z 09007KT 10SM FEW033 SCT080 BKN250 29/21 A3011 RMK AO2 SLP185 CB DSNT E & SE T02940206 $=
201208052152 METAR KATL 052152Z 12005KT 10SM FEW037 SCT080 BKN120 BKN250 29/20 A3013 RMK AO2 RAB25E34 SLP191 P0000 T02940200 $=
201208052052 METAR KATL 052052Z 08012KT 10SM SCT037 BKN060 BKN090 30/21 A3013 RMK AO2 RAB22E39 SLP192 CB DSNT SE P0000 60000 T03000206 56013 $=
201208051952 METAR KATL 051952Z 11014G19KT 10SM BKN050 OVC070 31/19 A3014 RMK AO2 SLP194 TCU DSNT SE T03110194 $=
201208051852 METAR KATL 051852Z 08006KT 10SM SCT050 SCT250 32/19 A3013 RMK AO2 SLP191 T03170189 $=
201208051752 METAR KATL 051752Z 07012G17KT 10SM SCT043 SCT055 BKN250 31/20 A3017 RMK AO2 SLP205 T03110200 10311 20233 58018 $=
201208051652 METAR KATL 051652Z 04005KT 10SM SCT037 BKN250 31/20 A3021 RMK AO2 SLP218 T03060200 $=
201208051552 METAR KATL 051552Z 05007KT 020V100 10SM SCT030 SCT150 BKN250 29/19 A3023 RMK AO2 SLP224 T02940189 $=
201208051452 METAR KATL 051452Z VRB06KT 10SM FEW020 SCT150 BKN250 28/19 A3023 RMK AO2 SLP225 T02830194 50004 $=
201208051352 METAR KATL 051352Z 12004KT 10SM SCT015 SCT120 SCT250 26/21 A3023 RMK AO2 SLP226 T02610211 $=
201208051252 METAR KATL 051252Z 10007KT 10SM FEW010 SCT150 SCT250 24/22 A3022 RMK AO2 SLP221 T02440217 $=
201208051152 METAR KATL 051152Z 09007KT 9SM FEW015 SCT150 SCT250 23/22 A3021 RMK AO2 SLP220 T02330217 10250 20228 53014 $=
201208051052 METAR KATL 051052Z 07007KT 10SM FEW150 SCT250 23/21 A3019 RMK AO2 SLP211 T02280211 $=
201208050952 METAR KATL 050952Z 08004KT 10SM CLR 23/21 A3018 RMK AO2 SLP208 T02280211 $=
201208050852 METAR KATL 050852Z 11004KT 10SM SCT150 SCT200 23/22 A3017 RMK AO2 SLP205 T02330217 56001 $=
201208050752 METAR KATL 050752Z 11003KT 10SM FEW200 23/22 A3017 RMK AO2 SLP206 T02330217 $=
201208050652 METAR KATL 050652Z 10003KT 10SM SCT180 24/22 A3017 RMK AO2 SLP206 T02390217 $=
201208050552 METAR KATL 050552Z 12004KT 10SM SCT150 BKN180 25/21 A3017 RMK AO2 SLP207 T02500211 10283 20244 53002 $=
201208050452 METAR KATL 050452Z 13004KT 10SM FEW150 BKN180 25/21 A3017 RMK AO2 SLP205 T02500211 403060228 $=
201208050352 METAR KATL 050352Z 13005KT 10SM FEW055 SCT150 BKN180 26/21 A3016 RMK AO2 SLP203 T02560211 $=
201208050252 METAR KATL 050252Z 11008G16KT 10SM SCT055 SCT150 BKN200 26/21 A3017 RMK AO2 SLP205 T02610206 53009 $=
201208050152 METAR KATL 050152Z 12005KT 10SM FEW120 BKN150 OVC250 27/21 A3015 RMK AO2 SLP201 T02720211 $=
201208050052 METAR KATL 050052Z 11005KT 10SM SCT120 BKN150 OVC250 28/22 A3015 RMK AO2 SLP198 T02780222 $=
201208042352 METAR KATL 042352Z 09004KT 10SM FEW031 BKN140 BKN180 OVC250 28/22 A3014 RMK AO2 SLP194 OCNL LTGIC DSNT NW CB DSNT NW T02830217 10306 20261 53010 $=
201208042252 METAR KATL 042252Z 11006KT 10SM FEW031 SCT120 BKN180 BKN250 29/21 A3012 RMK AO2 SLP188 TCU DSNT W T02890211 $=
201208042152 METAR KATL 042152Z VRB06KT 9SM SCT031 SCT120 BKN250 31/21 A3010 RMK AO2 SLP183 TCU DSNT N-NE MDT CU NE-SE T03060211 $=
201208042052 METAR KATL 042052Z 10006KT 10SM SCT030 SCT045 BKN100 29/23 A3011 RMK AO2 SLP184 TCU DSNT E CB DSNT SE-SW T02890228 56018 $=
201208041952 METAR KATL 041952Z 07005KT 9SM FEW019 SCT030 BKN120 28/23 A3012 RMK AO2 SLP189 T02780228 $=
201208041852 METAR KATL 041852Z 08007KT 8SM BKN016 OVC025 27/23 A3014 RMK AO2 SLP196 T02720228 $=
201208041813 SPECI KATL 041813Z 12005KT 8SM BKN012 27/23 A3015 RMK AO2 $=
201208041752 METAR KATL 041752Z 00000KT 7SM BKN007 26/23 A3016 RMK AO2 SLP204 T02610228 10261 20233 51004 $=
201208041652 METAR KATL 041652Z 15006KT 8SM BKN007 OVC015 25/23 A3016 RMK AO2 SLP204 T02500228 $=
201208041552 METAR KATL 041552Z 13004KT 7SM BKN005 OVC015 24/22 A3016 RMK AO2 SLP205 CB DSNT NW T02390222 $=
201208041452 METAR KATL 041452Z 12007KT 6SM BR OVC005 23/22 A3015 RMK AO2 SLP201 T02330222 51014 $=
201208041352 METAR KATL 041352Z 11006KT 4SM BR OVC005 23/22 A3014 RMK AO2 SLP198 T02330217 $=
201208041252 METAR KATL 041252Z 11005KT 6SM BR BKN005 OVC010 23/22 A3013 RMK AO2 SLP193 T02330217 $=
201208041152 METAR KATL 041152Z 10005KT 6SM BR BKN007 OVC012 23/22 A3011 RMK AO2 SLP185 70090 T02330217 10244 20228 53020 $=
201208041144 SPECI KATL 041144Z 09007KT 6SM BR BKN007 OVC012 23/22 A3011 RMK AO2 $=
201208041126 SPECI KATL 041126Z 06006KT 6SM BR SCT007 BKN090 OVC150 23/22 A3010 RMK AO2 $=
201208041052 METAR KATL 041052Z 09005KT 6SM BR SCT100 BKN150 BKN250 23/22 A3009 RMK AO2 SLP176 T02330217 $=
201208040952 METAR KATL 040952Z 09004KT 6SM BR BKN090 BKN120 OVC180 23/22 A3007 RMK AO2 SLP170 T02330217 $=
201208040852 METAR KATL 040852Z 12003KT 7SM SCT100 BKN150 BKN250 23/21 A3005 RMK AO2 SLP164 T02280211 51003 $=
201208040752 METAR KATL 040752Z 12005KT 10SM FEW049 SCT060 BKN100 23/21 A3005 RMK AO2 SLP163 T02280211 $=
201208040652 METAR KATL 040652Z 11006G14KT 10SM BKN045 BKN110 OVC150 23/21 A3005 RMK AO2 SLP164 T02330211 $=
201208040552 METAR KATL 040552Z 00000KT 10SM BKN100 BKN150 OVC250 24/21 A3004 RMK AO2 SLP161 60090 T02440211 10311 20228 55003 $=
201208040452 METAR KATL 040452Z 20003KT 10SM SCT110 BKN150 BKN250 24/22 A3003 RMK AO2 SLP159 OCNL LTG DSNT SE T02390217 403440217 $=
201208040352 METAR KATL 040352Z 23003KT 10SM SCT110 BKN150 OVC250 23/22 A3003 RMK AO2 TSE01RAE16 SLP157 OCNL LTG DSNT SE P0005 T02330217 $=
201208040301 SPECI KATL 040301Z 20006KT 7SM -RA SCT040 BKN070 OVC120 23/22 A3005 RMK AO2 TSE01 TS DSIPTD P0005 $=
201208040252 METAR KATL 040252Z 21005KT 6SM TSRA BR BKN040CB BKN070 OVC120 23/22 A3005 RMK AO2 TSB18 SLP166 OCNL LTGIC SW TS SW MOV SLOLY SE P0085 60085 T02280217 51021 $=
201208040223 SPECI KATL 040223Z 18013G21KT 6SM R09R/3500VP6000FT TSRA BR BKN040CB BKN070 OVC120 23/21 A3006 RMK AO2 TSB18 VIS LWR SE-SW-W OCNL LTGIC SE-SW-W TS SE-SW-W MOV SLOLY SE P0032 $=
201208040219 SPECI KATL 040219Z 18015KT 2 1/2SM R09R/4000VP6000FT +TSRA BKN040CB BKN070 OVC120 24/21 A3006 RMK AO2 TSB18 OCNL LTGIC OHD-SW TS OHD-SW MOV SLOLY SE P0011 $=
201208040152 METAR KATL 040152Z 15003KT 8SM -RA SCT040 BKN070 OVC150 25/19 A3004 RMK AO2 TSE27 SLP162 OCNL LTG DSNT SE-S P0000 T02500194 $=
201208040128 SPECI KATL 040128Z 11006KT 5SM RA SCT035CB BKN060 BKN080 OVC150 23/20 A3003 RMK AO2 TSE27 TS DSIPTD CB NE-SE MOV STNRY P0000 $=
201208040052 METAR KATL 040052Z 16008KT 5SM +TSRA SCT035CB BKN050 OVC150 26/20 A3002 RMK AO2 RAB50 SLP155 OCNL LTGICCG SE TS SE MOV NE P0000 T02610200=
201208032352 METAR KATL 032352Z 29005KT 10SM TS SCT050CB BKN150 BKN250 31/21 A2999 RMK AO2 TSB44 SLP143 CONS LTGICCG SE-SW TS VC SE-SW MOV NE TCU E-SE T03110206 10344 20311 53008=
201208032344 SPECI KATL 032344Z 29005KT 10SM TS SCT050CB BKN150 BKN250 31/20 A2998 RMK AO2 TSB44 FRQ LTGICCG S-SW TS VC S-SW MOV NE=
201208032252 METAR KATL 032252Z 32004KT 10SM FEW055 SCT120 BKN150 OVC200 32/20 A2997 RMK AO2 SLP139 FRQ LTGICCG DSNT NE & NW T03170200=
201208032152 METAR KATL 032152Z 30007KT 10SM FEW050CB BKN150 OVC200 32/20 A2997 RMK AO2 SLP136 CB E-SE AND DSNT NW MOV E SHRA E-SE T03170200=
201208032052 METAR KATL 032052Z 27009KT 10SM FEW055TCU SCT120 SCT250 34/19 A2996 RMK AO2 SLP134 TCU N & NE & SW-W T03390189 56021=
201208031952 METAR KATL 031952Z 27005KT 10SM BKN050TCU BKN120 BKN250 34/19 A2997 RMK AO2 SLP138 CB DSNT N & W TCU NE-E-SE-S-SW T03390189=
201208031852 METAR KATL 031852Z 27007KT 10SM SCT045TCU SCT120 BKN250 34/19 A3001 RMK AO2 SLP149 TCU E & S & W T03390194=
201208031752 METAR KATL 031752Z VRB04KT 10SM BKN040TCU BKN180 BKN250 31/20 A3003 RMK AO2 SLP157 TCU OHD-NE-E-SE-S-SW T03110200 10322 20222 58002=
201208031652 METAR KATL 031652Z 22008KT 10SM FEW036 SCT180 BKN250 31/20 A3003 RMK AO2 SLP159 T03060200=
201208031552 METAR KATL 031552Z 20005KT 10SM FEW030 SCT180 BKN250 29/20 A3004 RMK AO2 SLP160 T02890200=
201208031452 METAR KATL 031452Z 29003KT 10SM FEW020 SCT180 BKN250 28/21 A3003 RMK AO2 SLP160 T02780206 53008=
201208031352 METAR KATL 031352Z 19003KT 10SM FEW040 SCT180 BKN250 25/21 A3003 RMK AO2 SLP159 T02500206=
201208031252 METAR KATL 031252Z 22005KT 10SM FEW180 BKN250 23/21 A3002 RMK AO2 SLP155 T02330206=
201208031152 METAR KATL 031152Z 19003KT 7SM FEW035 SCT180 BKN250 22/21 A3001 RMK AO2 SLP153 T02220206 10233 20217 53006=
201208031052 METAR KATL 031052Z 16004KT 6SM BR FEW004 SCT035 BKN250 22/21 A3000 RMK AO2 SLP148 T02170206=
201208031008 SPECI KATL 031008Z VRB03KT 6SM BR FEW004 SCT009 BKN039 OVC250 22/21 A3000 RMK AO2=
201208030952 METAR KATL 030952Z 13007KT 6SM BR BKN007 OVC037 22/21 A2999 RMK AO2 SLP145 T02220206=
201208030948 SPECI KATL 030948Z 13007KT 6SM BR BKN007 OVC037 22/21 A2999 RMK AO2=
201208030852 METAR KATL 030852Z 17004KT 10SM SCT250 22/21 A2996 RMK AO2 SLP132 T02220206 51007=
201208030752 METAR KATL 030752Z 27003KT 10SM SCT250 22/20 A2995 RMK AO2 SLP130 T02220200=
201208030652 METAR KATL 030652Z 29004KT 10SM SCT250 22/20 A2995 RMK AO2 SLP129 T02220200=
201208030552 METAR KATL 030552Z 30003KT 10SM SCT250 23/19 A2994 RMK AO2 SLP125 60000 T02280194 10267 20228 56004=
201208030452 METAR KATL 030452Z 25004KT 10SM SCT250 24/19 A2994 RMK AO2 SLP125 T02390194 403720233=
201208030352 METAR KATL 030352Z VRB04KT 10SM BKN250 24/19 A2994 RMK AO2 SLP127 T02440194=
201208030252 METAR KATL 030252Z 21005KT 10SM FEW100 SCT250 24/19 A2995 RMK AO2 SLP131 60000 T02390194 58003=
201208030152 METAR KATL 030152Z 18015G19KT 10SM FEW045 SCT100 BKN250 23/20 A2997 RMK AO2 RAE19 SLP136 P0000 T02330200=
201208030052 METAR KATL 030052Z 17015KT 10SM -RA SCT050TCU BKN080 BKN150 BKN200 24/21 A2997 RMK AO2 RAB47 SLP138 OCNL LTGICCG DSNT SE-S TCU W-N P0000 T02440211=
201208022352 METAR KATL 022352Z 18013G22KT 10SM SCT050TCU BKN090 BKN150 BKN200 26/21 A2996 RMK AO2 PK WND 16027/2338 WSHFT 2324 TSE22RAE2259 SLP135 FRQ LTGICCG DSNT NE & SE-S TCU OHD-ALQDS P0000 60000 T02610211 10372 20256 53028=
201208022343 SPECI KATL 022343Z 17014G27KT 10SM SCT050TCU BKN090 BKN150 BKN200 26/21 A2995 RMK AO2 PK WND 16027/2338 WSHFT 2324 TSE22RAE2259 OCNL LTGICCG DSNT NE & SE-S TCU OHD-ALQDS P0000=
201208022323 SPECI KATL 022323Z 19009G20KT 150V280 10SM FEW050 SCT090 BKN150 BKN200 31/20 A2993 RMK AO2 TSE22RAE2259 PRESRR TS MOV SE FRQ LTGICCG DSNT NE & SE-S P0000=
201208022252 METAR KATL 022252Z VRB04G20KT 10SM -TSRA FEW050CB SCT090 BKN150 BKN200 29/21 A2989 RMK AO2 TSB02RAB24 SLP111 OCNL LTGICCG NE & SE-S TS NE & SE-S MOV SE P0000 T02890211=
201208022203 SPECI KATL 022203Z 31010G14KT 10SM TS SCT065CB BKN090 BKN150 BKN200 35/18 A2987 RMK AO2 TSB02 OCNL LTGICCG N-NE TS VC N-NE MOV SE TCU ALQDS=
201208022152 METAR KATL 022152Z 29008KT 10SM SCT065CB BKN090 BKN200 36/17 A2987 RMK AO2 SLP102 CB N-NE & DSNT SE MOV SE TCU OHD-ALQDS T03560172=
201208022052 METAR KATL 022052Z 27010G16KT 10SM FEW060CB SCT065TCU SCT200 36/18 A2987 RMK AO2 SLP102 CB NE MOV SE CB DSNT SE TCU S-SW SHRA NE T03610178 56021=
201208021952 METAR KATL 021952Z 29008KT 10SM FEW060TCU SCT200 36/18 A2989 RMK AO2 SLP106 CB DSNT SE TCU SW & NW TCU DSNT ALQDS T03610183=
201208021852 METAR KATL 021852Z 30010G15KT 10SM FEW065 SCT200 36/18 A2990 RMK AO2 SLP111 CB DSNT SE TCU DSNT N T03560183=
201208021752 METAR KATL 021752Z 28006KT 10SM FEW060 SCT110 35/19 A2994 RMK AO2 SLP124 CB DSNT S-SW TCU DSNT E-SE-S T03500189 10356 20250 58011=
201208021652 METAR KATL 021652Z 26005KT 10SM FEW050TCU SCT110 SCT150 34/19 A2996 RMK AO2 SLP132 TCU E-SE-S ACC NE-E-SE-S-SW-W T03390189=
201208021552 METAR KATL 021552Z 30009KT 10SM FEW040 SCT100 SCT150 33/21 A2996 RMK AO2 SLP134 ACC W-NW-N T03280211=
201208021452 METAR KATL 021452Z 24004KT 10SM FEW100 SCT150 31/22 A2997 RMK AO2 SLP136 ACC DSNT NW-N T03060217 50008=
201208021352 METAR KATL 021352Z 31007KT 10SM FEW020 SCT150 SCT200 29/22 A2998 RMK AO2 SLP137 TCU DSNT S T02890217=
201208021252 METAR KATL 021252Z 32005KT 10SM FEW150 SCT200 27/21 A2997 RMK AO2 SLP135 T02670211=
201208021152 METAR KATL 021152Z 22003KT 9SM FEW180 25/21 A2995 RMK AO2 SLP128 T02500211 10278 20239 53012=
201208021052 METAR KATL 021052Z 23003KT 9SM FEW180 24/21 A2993 RMK AO2 SLP122 T02440211=
201208020952 METAR KATL 020952Z 00000KT 10SM FEW180 25/21 A2992 RMK AO2 SLP119 T02500206=
201208020852 METAR KATL 020852Z 00000KT 10SM SCT150 BKN200 26/20 A2991 RMK AO2 SLP115 T02560200 58004=
201208020752 METAR KATL 020752Z 00000KT 10SM SCT150 BKN200 26/20 A2991 RMK AO2 SLP116 T02610200=
201208020652 METAR KATL 020652Z 36005KT 10SM BKN200 OVC250 27/18 A2993 RMK AO2 SLP121 T02720178=
201208020552 METAR KATL 020552Z 04007KT 10SM FEW200 OVC250 28/20 A2992 RMK AO2 SLP119 T02780200 10311 20278 58007=
201208020452 METAR KATL 020452Z 33006KT 10SM BKN200 OVC250 28/22 A2995 RMK AO2 SLP127 T02780222 403440222=
201208020352 METAR KATL 020352Z 28004KT 10SM FEW120 BKN200 OVC250 28/21 A2994 RMK AO2 SLP127 T02830211=
201208020252 METAR KATL 020252Z 27004KT 10SM FEW120 BKN200 OVC250 29/22 A2994 RMK AO2 SLP128 T02890217 53008=
201208020152 METAR KATL 020152Z 20003KT 10SM BKN200 OVC250 29/22 A2993 RMK AO2 SLP123 T02940222=
201208020052 METAR KATL 020052Z 27005KT 10SM FEW150 BKN200 OVC250 29/22 A2992 RMK AO2 SLP120 T02940217=
201208012352 METAR KATL 012352Z 29006KT 10SM FEW100 BKN200 OVC250 31/22 A2992 RMK AO2 SLP121 CB DSNT SW T03110217 10344 20311 53001=
201208012252 METAR KATL 012252Z 26006KT 10SM FEW045 BKN200 OVC250 32/21 A2990 RMK AO2 SLP115 FRQ LTGICCG DSNT SE T03220211=
201208012152 METAR KATL 012152Z 28006KT 10SM FEW045 BKN200 OVC250 32/21 A2991 RMK AO2 SLP117 CB DSNT N TCU DSNT NE & SE T03170211=
201208012052 METAR KATL 012052Z 26008KT 10SM FEW050TCU SCT200 SCT250 33/21 A2992 RMK AO2 SLP119 CB DSNT NE & SE & SW & NW TCU N-NE-E & DSNT S T03330211 57014=
201208011952 METAR KATL 011952Z VRB06KT 10SM FEW040TCU SCT250 33/22 A2993 RMK AO2 SLP122 CB DSNT NW-N TCU N-NE-E T03330217=
201208011852 METAR KATL 011852Z VRB05KT 10SM FEW036 33/22 A2995 RMK AO2 SLP129 T03280217=
201208011752 METAR KATL 011752Z 00000KT 10SM FEW035 32/22 A2996 RMK AO2 SLP133 T03170217 10322 20222 58013=
201208011652 METAR KATL 011652Z VRB04KT 10SM FEW023 31/22 A2998 RMK AO2 SLP140 T03060222=
201208011552 METAR KATL 011552Z 30004KT 10SM FEW015 29/23 A2999 RMK AO2 SLP143 T02940228=
201208011528 SPECI KATL 011528Z 34004KT 8SM FEW012 28/23 A2999 RMK AO2=
201208011452 METAR KATL 011452Z 31006KT 7SM BKN010 26/22 A3000 RMK AO2 SLP148 T02610222 51005=
201208011352 METAR KATL 011352Z 29007KT 6SM HZ FEW009 26/23 A2999 RMK AO2 SLP144 T02610228=
201208011331 SPECI KATL 011331Z 27003KT 6SM HZ FEW005 SCT012 SCT200 25/22 A2998 RMK AO2=
201208011307 SPECI KATL 011307Z 32004KT 3SM BR FEW003 SCT012 SCT200 23/22 A2999 RMK AO2 SFC VIS 5=
201208011255 SPECI KATL 011255Z 29003KT 3SM BR FEW003 SCT012 23/22 A2998 RMK AO2 SFC VIS 4=
201208011252 METAR KATL 011252Z 31003KT 1 1/2SM BR FEW003 SCT012 23/22 A2998 RMK AO2 SFC VIS 4 SLP142 T02330222=
201208011233 SPECI KATL 011233Z 27004KT 1 1/2SM BR BKN002 23/22 A2997 RMK AO2 SFC VIS 2=
201208011227 SPECI KATL 011227Z 00000KT 1/2SM R09R/P6000FT BR BKN002 BKN120 23/22 A2997 RMK AO2 SFC VIS 1=
