##########################################################
# Query made at 04/19/2024 23:30:12 UTC
# Time interval: from 11/01/2012 12:00  to 11/30/2012 12:59  UTC
##########################################################

##########################################################
# KATL, Atlanta, Hartsfield - Jackson Atlanta International Airport (United States)
# WMO index: 72219. WIGOS ID: 0-20000-0-72219
# Latitude 33-38-59N. Longitude 084-25-00W. Altitude 312 m.
##########################################################

201211301252 METAR KATL 301252Z 08005KT 8SM BKN038 BKN250 07/02 A3036 RMK AO2 SLP283 T00670017=
201211301152 METAR KATL 301152Z 07005KT 10SM OVC038 07/01 A3036 RMK AO2 SLP283 BINOVC T00720011 10083 20067 53001=
201211301052 METAR KATL 301052Z 10003KT 10SM OVC036 07/01 A3035 RMK AO2 SLP281 T00720011=
201211300952 METAR KATL 300952Z COR 07005KT 10SM SCT034 08/01 A3035 RMK AO2 SLP277 T00780006=
201211300852 METAR KATL 300852Z 00000KT 10SM OVC034 08/01 A3035 RMK AO2 SLP280 T00780011 56001=
201211300752 METAR KATL 300752Z 08004KT 10SM BKN032 08/01 A3035 RMK AO2 SLP280 T00780006=
201211300708 SPECI KATL 300708Z 10003KT 10SM BKN030 07/00 A3035 RMK AO2=
201211300652 METAR KATL 300652Z 10004KT 10SM BKN029 07/M01 A3035 RMK AO2 SLP279 T00671006=
201211300552 METAR KATL 300552Z 08004KT 10SM SCT030 BKN250 07/M01 A3036 RMK AO2 SLP281 T00671006 10117 20061 50003=
201211300452 METAR KATL 300452Z 08004KT 10SM FEW028 SCT250 07/M01 A3037 RMK AO2 SLP286 T00721006 401560011=
201211300420 SPECI KATL 300420Z 11004KT 10SM SCT028 SCT250 08/M01 A3036 RMK AO2=
201211300406 SPECI KATL 300406Z 11004KT 10SM BKN028 BKN250 08/M01 A3036 RMK AO2=
201211300352 METAR KATL 300352Z 11003KT 10SM FEW250 08/M01 A3036 RMK AO2 SLP284 T00831011=
201211300252 METAR KATL 300252Z 11004KT 10SM FEW250 09/M01 A3035 RMK AO2 SLP279 T00891011 50002=
201211300152 METAR KATL 300152Z 00000KT 10SM FEW250 09/M01 A3036 RMK AO2 SLP284 T00941006=
201211300052 METAR KATL 300052Z 12004KT 10SM FEW250 11/M01 A3035 RMK AO2 SLP283 T01111006=
201211292352 METAR KATL 292352Z 11003KT 10SM FEW250 12/M01 A3034 RMK AO2 SLP279 T01171011 10156 20117 53004=
201211292252 METAR KATL 292252Z 14003KT 10SM FEW250 13/M01 A3033 RMK AO2 SLP276 T01281011=
201211292152 METAR KATL 292152Z 14004KT 10SM FEW250 14/M01 A3033 RMK AO2 SLP275 T01441006=
201211292052 METAR KATL 292052Z 15004KT 10SM FEW200 15/02 A3033 RMK AO2 SLP273 T01500022 56022=
201211291952 METAR KATL 291952Z 11005KT 10SM FEW200 15/02 A3034 RMK AO2 SLP278 T01500022=
201211291852 METAR KATL 291852Z 16003KT 10SM FEW200 14/02 A3037 RMK AO2 SLP286 T01440017=
201211291752 METAR KATL 291752Z 13005KT 10SM CLR 14/03 A3040 RMK AO2 SLP296 T01390028 10139 20017 58010=
201211291652 METAR KATL 291652Z 15007KT 10SM CLR 13/03 A3042 RMK AO2 SLP305 T01330028=
201211291552 METAR KATL 291552Z 12005KT 10SM CLR 12/04 A3043 RMK AO2 SLP309 T01170044=
201211291452 METAR KATL 291452Z 06003KT 10SM CLR 09/00 A3043 RMK AO2 SLP307 T00940000 53015=
201211291352 METAR KATL 291352Z VRB04KT 10SM CLR 07/M01 A3041 RMK AO2 SLP301 T00671006 $=
201211291252 METAR KATL 291252Z 00000KT 10SM CLR 03/M02 A3039 RMK AO2 SLP296 T00281022 $=
201211291152 METAR KATL 291152Z 00000KT 10SM CLR 03/M03 A3038 RMK AO2 SLP294 T00281028 10050 20011 53007 $=
201211291052 METAR KATL 291052Z 33004KT 10SM CLR 03/M03 A3037 RMK AO2 SLP289 T00281028 $=
201211290952 METAR KATL 290952Z 31003KT 10SM CLR 01/M03 A3036 RMK AO2 SLP286 T00111033 $=
201211290852 METAR KATL 290852Z 00000KT 10SM CLR 03/M03 A3036 RMK AO2 SLP283 T00331028 50005 $=
201211290752 METAR KATL 290752Z 16003KT 10SM CLR 03/M02 A3036 RMK AO2 SLP285 T00331022 $=
201211290652 METAR KATL 290652Z 34003KT 10SM CLR 04/M03 A3035 RMK AO2 SLP280 T00441033 $=
201211290552 METAR KATL 290552Z 33004KT 10SM CLR 05/M03 A3034 RMK AO2 SLP279 T00501033 10094 20050 56004 $=
201211290452 METAR KATL 290452Z 32003KT 10SM CLR 06/M03 A3035 RMK AO2 SLP281 T00561033 401500039 $=
201211290352 METAR KATL 290352Z 33007KT 10SM CLR 06/M03 A3035 RMK AO2 SLP281 T00561033 $=
201211290252 METAR KATL 290252Z 33005KT 10SM CLR 07/M04 A3036 RMK AO2 SLP285 T00671039 51007 $=
201211290152 METAR KATL 290152Z 33007KT 10SM CLR 08/M05 A3035 RMK AO2 SLP284 T00781050 $=
201211290052 METAR KATL 290052Z 33006KT 10SM CLR 08/M03 A3034 RMK AO2 SLP280 T00831033 $=
201211282352 METAR KATL 282352Z 32005KT 10SM CLR 09/M03 A3033 RMK AO2 SLP277 T00941033 10150 20094 53011 $=
201211282252 METAR KATL 282252Z 33008KT 10SM CLR 11/M02 A3031 RMK AO2 SLP269 T01061017 $=
201211282152 METAR KATL 282152Z 32008KT 10SM CLR 13/M02 A3031 RMK AO2 SLP266 T01331017 $=
201211282052 METAR KATL 282052Z 32009KT 10SM CLR 15/M01 A3030 RMK AO2 SLP263 T01501011 56014 $=
201211281952 METAR KATL 281952Z 35010KT 10SM CLR 14/02 A3031 RMK AO2 SLP266 T01440017 $=
201211281852 METAR KATL 281852Z 01007KT 280V040 10SM CLR 14/04 A3032 RMK AO2 SLP270 T01440039 $=
201211281752 METAR KATL 281752Z 31004KT 10SM FEW025 13/05 A3034 RMK AO2 SLP278 T01280050 10128 20039 58005 $=
201211281652 METAR KATL 281652Z 35007KT 9SM FEW020 12/04 A3036 RMK AO2 SLP284 T01170044 $=
201211281552 METAR KATL 281552Z 36005KT 9SM FEW025 10/04 A3037 RMK AO2 SLP285 T01000039 $=
201211281452 METAR KATL 281452Z 33005KT 8SM FEW020 07/02 A3036 RMK AO2 SLP285 T00670022 53019=
201211281352 METAR KATL 281352Z 33008KT 7SM FEW011 05/02 A3034 RMK AO2 SLP279 T00500017=
201211281326 SPECI KATL 281326Z 34007KT 6SM BR FEW011 SCT022 04/02 A3033 RMK AO2=
201211281252 METAR KATL 281252Z 34012KT 7SM BKN020 04/02 A3031 RMK AO2 SLP269 T00440017=
201211281152 METAR KATL 281152Z 33008KT 7SM FEW014 BKN022 04/02 A3030 RMK AO2 SLP265 70002 T00390017 10067 20039 53016=
201211281052 METAR KATL 281052Z 31010KT 7SM OVC018 04/02 A3028 RMK AO2 SLP258 CIG 014V022 T00440017=
201211281048 SPECI KATL 281048Z 31010KT 7SM BKN016 04/02 A3028 RMK AO2 CIG 014V019=
201211281018 SPECI KATL 281018Z 32008KT 8SM BKN012 04/02 A3027 RMK AO2=
201211280952 METAR KATL 280952Z 32009KT 8SM SCT011 04/02 A3026 RMK AO2 SLP252 T00440017=
201211280923 SPECI KATL 280923Z 33009KT 10SM SCT011 04/02 A3025 RMK AO2=
201211280852 METAR KATL 280852Z 32012KT 10SM OVC011 05/02 A3025 RMK AO2 SLP247 T00500022 51009=
201211280752 METAR KATL 280752Z 33007KT 10SM BKN012 05/03 A3024 RMK AO2 SLP244 T00500028=
201211280750 SPECI KATL 280750Z 33008KT 10SM BKN012 05/03 A3024 RMK AO2=
201211280652 METAR KATL 280652Z 33007KT 10SM FEW014 06/03 A3023 RMK AO2 SLP239 T00610028=
201211280624 SPECI KATL 280624Z 32008G14KT 10SM SCT014 06/03 A3023 RMK AO2=
201211280552 METAR KATL 280552Z 33013KT 10SM BKN015 07/03 A3022 RMK AO2 SLP235 T00670033 10106 20067 51002=
201211280452 METAR KATL 280452Z 34012KT 10SM OVC014 08/04 A3022 RMK AO2 SLP234 T00780044 401440078=
201211280352 METAR KATL 280352Z 32010KT 10SM OVC013 08/06 A3023 RMK AO2 SLP236 T00830056=
201211280252 METAR KATL 280252Z 31010KT 9SM OVC013 08/06 A3022 RMK AO2 SLP235 T00830056 51016=
201211280152 METAR KATL 280152Z 32010KT 10SM BKN012 BKN030 BKN250 08/06 A3021 RMK AO2 SLP231 T00830061=
201211280146 SPECI KATL 280146Z 32011KT 10SM BKN012 BKN030 BKN250 08/06 A3021 RMK AO2=
201211280052 METAR KATL 280052Z 33014KT 10SM FEW010 BKN032 OVC250 10/07 A3019 RMK AO2 SLP225 T01000067=
201211272352 METAR KATL 272352Z 32008KT 10SM FEW012 BKN035 OVC250 11/08 A3017 RMK AO2 SLP217 60000 T01060078 10144 20106 51015=
201211272252 METAR KATL 272252Z 32011KT 10SM FEW012 SCT025 OVC035 11/08 A3015 RMK AO2 SLP212 T01110083=
201211272217 SPECI KATL 272217Z 32011KT 7SM FEW010 SCT025 OVC035 11/09 A3015 RMK AO2=
201211272152 METAR KATL 272152Z 33012KT 6SM BR SCT010 BKN015 OVC022 11/09 A3014 RMK AO2 DZE33 SLP206 P0000 T01110094=
201211272134 SPECI KATL 272134Z 32011KT 6SM BR FEW010 BKN015 OVC020 12/09 A3014 RMK AO2 DZE33 P0000=
201211272052 METAR KATL 272052Z 32010KT 2 1/2SM -DZ BR FEW008 BKN010 OVC015 12/11 A3012 RMK AO2 DZB41 SLP201 P0000 60000 T01170106 53004=
201211271952 METAR KATL 271952Z 30007KT 2 1/2SM BR BKN006 BKN012 OVC015 13/12 A3011 RMK AO2 SFC VIS 4 SLP197 T01330117=
201211271945 SPECI KATL 271945Z 28006KT 4SM BR BKN006 BKN012 OVC015 13/12 A3012 RMK AO2=
201211271856 SPECI KATL 271856Z 33006KT 6SM BR SCT006 BKN012 OVC015 14/13 A3011 RMK AO2=
201211271852 METAR KATL 271852Z 33006KT 2 1/2SM BR BKN006 BKN010 OVC015 14/13 A3011 RMK AO2 SFC VIS 5 RAE46 SLP196 P0000 T01390128=
201211271827 SPECI KATL 271827Z VRB03KT 2 1/2SM -RA BR BKN006 BKN012 OVC015 14/12 A3011 RMK AO2 SFC VIS 5 P0000=
201211271803 SPECI KATL 271803Z 23003KT 6SM -RA BR BKN006 BKN012 OVC015 14/12 A3012 RMK AO2 P0000=
201211271752 METAR KATL 271752Z 13005KT 6SM -RA BR FEW008 BKN012 OVC015 14/12 A3011 RMK AO2 RAB1654 PRESFR SLP195 P0000 60002 T01390122 10139 20111 58012=
201211271655 SPECI KATL 271655Z 20005KT 6SM -RA BR BKN008 BKN010 OVC012 13/12 A3015 RMK AO2 RAB54 P0000=
201211271652 METAR KATL 271652Z 19005KT 6SM BR OVC007 13/12 A3015 RMK AO2 SLP210 T01330117=
201211271552 METAR KATL 271552Z 23005KT 6SM BR BKN007 OVC012 14/12 A3016 RMK AO2 SLP211 T01390117=
201211271452 METAR KATL 271452Z 24006KT 6SM BR OVC005 12/11 A3015 RMK AO2 RAB1354E13 SLP208 P0002 60002 T01170106 53004=
201211271352 METAR KATL 271352Z 23004KT 7SM OVC007 11/09 A3015 RMK AO2 SLP208 T01110094=
201211271252 METAR KATL 271252Z 20004KT 10SM OVC009 11/09 A3013 RMK AO2 SLP203 T01110089=
201211271216 SPECI KATL 271216Z 22004KT 10SM OVC009 11/09 A3013 RMK AO2=
201211271152 METAR KATL 271152Z 22004KT 10SM OVC011 11/09 A3013 RMK AO2 SLP204 60000 T01110089 10122 20100 53002=
201211271052 METAR KATL 271052Z 21006KT 10SM OVC013 11/08 A3013 RMK AO2 RAE18 SLP200 P0000 T01060083=
201211271038 SPECI KATL 271038Z 22005KT 10SM BKN013 OVC022 10/08 A3012 RMK AO2 RAE18 P0000=
201211270952 METAR KATL 270952Z 21006KT 8SM -RA SCT012 OVC028 10/06 A3013 RMK AO2 RAB16 SLP200 P0000 T01000056=
201211270928 SPECI KATL 270928Z 20004KT 8SM -RA BKN029 BKN039 OVC048 11/03 A3013 RMK AO2 RAB16 P0000=
201211270852 METAR KATL 270852Z 00000KT 10SM SCT042 BKN049 OVC060 12/01 A3013 RMK AO2 SLP199 T01170006 56008=
201211270752 METAR KATL 270752Z 00000KT 10SM BKN045 12/M01 A3013 RMK AO2 SLP202 T01171011=
201211270652 METAR KATL 270652Z 00000KT 10SM BKN049 12/M03 A3014 RMK AO2 SLP205 T01221028=
201211270552 METAR KATL 270552Z 20003KT 10SM FEW065 SCT090 BKN110 12/M03 A3015 RMK AO2 RAB02E20 SLP208 P0000 60000 T01221033 10150 20122 58004=
201211270452 METAR KATL 270452Z 21004KT 10SM FEW070 BKN090 OVC110 12/M03 A3017 RMK AO2 SLP214 T01221033 401940022=
201211270352 METAR KATL 270352Z 00000KT 10SM SCT080 BKN110 12/M04 A3017 RMK AO2 SLP214 T01221039=
201211270252 METAR KATL 270252Z 00000KT 10SM BKN100 BKN200 13/M04 A3016 RMK AO2 SLP214 T01281044 51004 $=
201211270152 METAR KATL 270152Z 19005KT 10SM FEW100 BKN200 13/M04 A3016 RMK AO2 SLP213 T01331044=
201211270052 METAR KATL 270052Z 23003KT 10SM FEW110 BKN140 BKN250 14/M03 A3016 RMK AO2 SLP215 T01391033=
201211262352 METAR KATL 262352Z 21004KT 10SM BKN120 BKN250 14/M04 A3015 RMK AO2 SLP211 T01441039 10194 20144 53006=
201211262252 METAR KATL 262252Z 16004KT 10SM BKN120 BKN250 16/M03 A3014 RMK AO2 SLP209 T01611033=
201211262152 METAR KATL 262152Z 18005KT 10SM FEW150 SCT250 18/M06 A3013 RMK AO2 SLP205 T01781056=
201211262052 METAR KATL 262052Z 20005KT 10SM FEW150 SCT250 19/M06 A3013 RMK AO2 SLP204 T01941061 56017=
201211261952 METAR KATL 261952Z VRB04KT 10SM FEW150 19/M07 A3014 RMK AO2 SLP206 T01891072=
201211261852 METAR KATL 261852Z 00000KT 10SM FEW150 18/M06 A3016 RMK AO2 SLP213 T01831061=
201211261752 METAR KATL 261752Z 00000KT 10SM CLR 17/M04 A3018 RMK AO2 SLP221 T01721044 10178 20033 58014=
201211261652 METAR KATL 261652Z 34004KT 10SM CLR 16/M03 A3021 RMK AO2 SLP230 T01611033=
201211261552 METAR KATL 261552Z 30006KT 10SM CLR 14/M04 A3023 RMK AO2 SLP237 T01441039=
201211261452 METAR KATL 261452Z 00000KT 10SM CLR 13/M05 A3022 RMK AO2 SLP236 T01281050 51013=
201211261352 METAR KATL 261352Z 00000KT 10SM CLR 08/M03 A3022 RMK AO2 SLP235 T00781033=
201211261252 METAR KATL 261252Z 00000KT 10SM FEW250 04/M05 A3021 RMK AO2 SLP232 T00441050=
201211261152 METAR KATL 261152Z 30003KT 10SM CLR 04/M06 A3018 RMK AO2 SLP225 T00391061 10061 20022 53014=
201211261052 METAR KATL 261052Z 00000KT 10SM CLR 03/M06 A3017 RMK AO2 SLP221 T00331056 $=
201211260952 METAR KATL 260952Z 29003KT 10SM CLR 03/M06 A3015 RMK AO2 SLP212 T00331061 $=
201211260852 METAR KATL 260852Z 30003KT 10SM CLR 03/M05 A3014 RMK AO2 SLP209 T00331050 53005 $=
201211260752 METAR KATL 260752Z 00000KT 10SM CLR 03/M05 A3013 RMK AO2 SLP206 T00331050 $=
201211260652 METAR KATL 260652Z 29003KT 10SM CLR 04/M06 A3012 RMK AO2 SLP203 T00441056 $=
201211260552 METAR KATL 260552Z 28003KT 10SM CLR 05/M06 A3013 RMK AO2 SLP205 T00501061 10106 20050 50001 $=
201211260452 METAR KATL 260452Z 00000KT 10SM CLR 06/M07 A3013 RMK AO2 SLP207 T00561067 401561011 $=
201211260352 METAR KATL 260352Z 25003KT 10SM FEW090 08/M08 A3013 RMK AO2 SLP205 T00781078 $=
201211260252 METAR KATL 260252Z 24003KT 10SM CLR 08/M08 A3012 RMK AO2 SLP205 T00781083 51009 $=
201211260152 METAR KATL 260152Z 23005KT 10SM CLR 08/M07 A3012 RMK AO2 SLP203 T00831072 $=
201211260052 METAR KATL 260052Z 23004KT 10SM CLR 09/M08 A3011 RMK AO2 SLP203 T00941078 $=
201211252352 METAR KATL 252352Z 00000KT 10SM CLR 11/M09 A3010 RMK AO2 SLP197 T01061089 10156 20100 53005 $=
201211252252 METAR KATL 252252Z 00000KT 10SM CLR 12/M11 A3009 RMK AO2 SLP192 T01171106 $=
201211252152 METAR KATL 252152Z 23007KT 10SM CLR 14/M12 A3008 RMK AO2 SLP190 T01441122 $=
201211252052 METAR KATL 252052Z 22007KT 200V270 10SM CLR 15/M12 A3008 RMK AO2 SLP189 T01501122 56016 $=
201211251952 METAR KATL 251952Z 00000KT 10SM FEW250 15/M13 A3008 RMK AO2 SLP191 T01501128 $=
201211251852 METAR KATL 251852Z 24004KT 10SM FEW250 15/M12 A3010 RMK AO2 SLP195 T01501122 $=
201211251752 METAR KATL 251752Z 30005KT 10SM FEW250 13/M12 A3013 RMK AO2 SLP206 T01281117 10133 21011 58018 $=
201211251652 METAR KATL 251652Z 00000KT 10SM FEW250 12/M11 A3017 RMK AO2 SLP219 T01171106 $=
201211251552 METAR KATL 251552Z 00000KT 10SM FEW250 09/M08 A3018 RMK AO2 SLP226 CI DSNT N T00941078 $=
201211251452 METAR KATL 251452Z 34005KT 10SM FEW250 06/M07 A3018 RMK AO2 SLP227 T00611067 53008 $=
201211251352 METAR KATL 251352Z VRB03KT 10SM CLR 03/M06 A3017 RMK AO2 SLP224 T00331061 $=
201211251252 METAR KATL 251252Z 33004KT 10SM CLR M01/M06 A3017 RMK AO2 SLP224 T10061061 $=
201211251152 METAR KATL 251152Z 32003KT 10SM CLR M01/M07 A3016 RMK AO2 SLP220 T10061067 10017 21011 53013 $=
201211251052 METAR KATL 251052Z 32005KT 10SM CLR M01/M07 A3014 RMK AO2 SLP213 T10061067 $=
201211250952 METAR KATL 250952Z 32006KT 10SM CLR M01/M07 A3013 RMK AO2 SLP209 T10061067 $=
201211250852 METAR KATL 250852Z 33008KT 10SM CLR 01/M07 A3012 RMK AO2 SLP204 T00061067 58001 $=
201211250752 METAR KATL 250752Z 31007KT 10SM CLR 01/M07 A3013 RMK AO2 SLP206 T00061067 $=
201211250652 METAR KATL 250652Z 31010KT 10SM CLR 01/M07 A3012 RMK AO2 SLP205 T00111067 $=
201211250552 METAR KATL 250552Z 31006KT 10SM CLR 01/M07 A3012 RMK AO2 SLP206 T00111067 10056 20006 56005 $=
201211250452 METAR KATL 250452Z 31005KT 10SM CLR 02/M07 A3013 RMK AO2 SLP208 T00221072 401060022 $=
201211250352 METAR KATL 250352Z 32010KT 10SM CLR 03/M07 A3013 RMK AO2 SLP209 T00331072 $=
201211250252 METAR KATL 250252Z 32009KT 10SM CLR 03/M07 A3014 RMK AO2 SLP212 T00331067 51004 $=
201211250152 METAR KATL 250152Z 32006KT 10SM FEW250 04/M07 A3014 RMK AO2 SLP213 T00391067 $=
201211250052 METAR KATL 250052Z 32007KT 10SM FEW250 05/M07 A3014 RMK AO2 SLP213 T00501072=
201211242352 METAR KATL 242352Z 32006KT 10SM FEW250 06/M08 A3013 RMK AO2 SLP208 T00561078 10106 20056 51008=
201211242252 METAR KATL 242252Z 32009KT 10SM FEW250 07/M08 A3013 RMK AO2 SLP206 T00721078=
201211242152 METAR KATL 242152Z 31011KT 10SM FEW250 09/M08 A3012 RMK AO2 SLP203 T00891083=
201211242052 METAR KATL 242052Z 31012KT 10SM FEW250 10/M08 A3010 RMK AO2 SLP197 T01001078 56011=
201211241952 METAR KATL 241952Z 31012G19KT 10SM FEW250 10/M08 A3011 RMK AO2 SLP198 T01001078=
201211241852 METAR KATL 241852Z 33009KT 10SM FEW250 10/M07 A3012 RMK AO2 SLP203 T01001067=
201211241752 METAR KATL 241752Z 34013G21KT 10SM FEW250 09/M08 A3014 RMK AO2 SLP208 T00891083 10089 20028 58013=
201211241652 METAR KATL 241652Z 31012G19KT 10SM FEW250 08/M07 A3016 RMK AO2 SLP217 T00781067=
201211241552 METAR KATL 241552Z 31011G19KT 10SM FEW250 07/M06 A3018 RMK AO2 SLP223 T00671061=
201211241452 METAR KATL 241452Z 32010KT 10SM CLR 06/M05 A3018 RMK AO2 SLP221 T00561050 53018=
201211241352 METAR KATL 241352Z 32012KT 10SM CLR 04/M04 A3016 RMK AO2 SLP215 T00391039=
201211241252 METAR KATL 241252Z 33011KT 10SM CLR 03/M03 A3014 RMK AO2 SLP208 T00281033=
201211241152 METAR KATL 241152Z 32010KT 10SM CLR 03/M03 A3012 RMK AO2 SLP202 T00331028 10089 20033 53009=
201211241052 METAR KATL 241052Z 33011KT 10SM CLR 04/M01 A3011 RMK AO2 SLP196 T00391011=
201211240952 METAR KATL 240952Z 33013G20KT 10SM CLR 05/M01 A3010 RMK AO2 SLP191 T00501011=
201211240852 METAR KATL 240852Z 33009KT 10SM CLR 06/M01 A3010 RMK AO2 SLP190 T00611006 52003=
201211240752 METAR KATL 240752Z 33008G16KT 10SM CLR 07/M01 A3009 RMK AO2 SLP188 T00721006=
201211240652 METAR KATL 240652Z 33011KT 10SM CLR 08/01 A3009 RMK AO2 SLP187 T00780006=
201211240552 METAR KATL 240552Z 32012G18KT 10SM CLR 09/02 A3009 RMK AO2 SLP186 T00890022 10161 20089 56003=
201211240452 METAR KATL 240452Z 31007KT 10SM CLR 09/03 A3009 RMK AO2 SLP186 T00940033 402220078 $=
201211240352 METAR KATL 240352Z 32009KT 10SM CLR 11/03 A3010 RMK AO2 SLP189 T01060033=
201211240252 METAR KATL 240252Z 32010KT 10SM CLR 12/04 A3010 RMK AO2 SLP189 T01170039 51008=
201211240152 METAR KATL 240152Z 33016G22KT 10SM FEW025 13/07 A3009 RMK AO2 PK WND 31027/0057 SLP189 T01330072=
201211240052 METAR KATL 240052Z 31017G23KT 10SM FEW028 BKN035 OVC060 15/09 A3008 RMK AO2 PK WND 29027/2354 SLP186 T01500089=
201211232352 METAR KATL 232352Z 32019G23KT 10SM FEW026 BKN040 BKN060 16/10 A3007 RMK AO2 PK WND 32029/2341 SLP183 T01610100 10222 20161 53009=
201211232252 METAR KATL 232252Z 31012KT 10SM BKN050 OVC065 19/08 A3005 RMK AO2 SLP174 T01890083=
201211232152 METAR KATL 232152Z 30009KT 10SM BKN065 BKN150 OVC200 20/08 A3004 RMK AO2 SLP170 T02000078=
201211232052 METAR KATL 232052Z 27012G18KT 10SM FEW150 BKN200 BKN250 21/06 A3004 RMK AO2 SLP172 T02110061 56014=
201211231952 METAR KATL 231952Z 25014G18KT 10SM FEW150 SCT200 SCT250 22/06 A3005 RMK AO2 SLP174 T02170056=
201211231852 METAR KATL 231852Z 27010KT 10SM FEW150 SCT200 SCT250 22/07 A3007 RMK AO2 SLP179 T02170067=
201211231752 METAR KATL 231752Z 28008G16KT 10SM FEW150 SCT200 BKN250 22/06 A3009 RMK AO2 SLP185 T02170061 10222 20094 58028=
201211231652 METAR KATL 231652Z 27008KT 10SM FEW150 SCT200 SCT250 20/06 A3013 RMK AO2 SLP200 T02000061=
201211231552 METAR KATL 231552Z 27009G16KT 10SM FEW150 SCT200 BKN250 18/06 A3016 RMK AO2 SLP212 ACC E-SE & W-NW T01780061=
201211231452 METAR KATL 231452Z 28011KT 10SM FEW150 SCT200 BKN250 17/07 A3017 RMK AO2 SLP216 T01670067 56002=
201211231352 METAR KATL 231352Z 00000KT 10SM FEW200 SCT250 12/07 A3017 RMK AO2 SLP218 T01220072=
201211231252 METAR KATL 231252Z 27003KT 10SM FEW200 BKN250 11/05 A3017 RMK AO2 SLP218 T01060050=
201211231152 METAR KATL 231152Z 29005KT 10SM FEW200 SCT250 09/04 A3018 RMK AO2 SLP220 T00940044 10106 20078 51003=
201211231052 METAR KATL 231052Z 29004KT 10SM FEW200 SCT250 10/04 A3018 RMK AO2 SLP219 T01000044=
201211230952 METAR KATL 230952Z 28003KT 10SM FEW200 SCT250 09/04 A3017 RMK AO2 SLP216 T00940039=
201211230852 METAR KATL 230852Z 00000KT 10SM SCT200 BKN250 09/03 A3017 RMK AO2 SLP215 T00940033 58004=
201211230752 METAR KATL 230752Z 00000KT 10SM SCT200 09/03 A3018 RMK AO2 SLP217 T00940033 $=
201211230652 METAR KATL 230652Z 00000KT 10SM SCT200 11/03 A3018 RMK AO2 SLP218 T01060033=
201211230552 METAR KATL 230552Z 00000KT 10SM BKN200 11/03 A3018 RMK AO2 SLP219 T01060033 10144 20100 58004=
201211230452 METAR KATL 230452Z 21004KT 10SM BKN200 11/03 A3019 RMK AO2 SLP221 T01110033 402000072=
201211230352 METAR KATL 230352Z 00000KT 10SM BKN250 11/03 A3020 RMK AO2 SLP224 T01110028=
201211230252 METAR KATL 230252Z 21003KT 10SM SCT250 12/03 A3020 RMK AO2 SLP224 T01220028 50003=
201211230152 METAR KATL 230152Z 00000KT 10SM FEW250 12/03 A3020 RMK AO2 SLP227 T01170033=
201211230052 METAR KATL 230052Z 00000KT 10SM FEW250 13/03 A3020 RMK AO2 SLP226 T01330033=
201211222352 METAR KATL 222352Z 00000KT 10SM FEW250 14/03 A3019 RMK AO2 SLP223 T01440028 10200 20144 53004=
201211222252 METAR KATL 222252Z 00000KT 10SM FEW250 17/02 A3018 RMK AO2 SLP219 T01670022=
201211222152 METAR KATL 222152Z 23004KT 10SM FEW250 19/02 A3018 RMK AO2 SLP217 T01890022=
201211222052 METAR KATL 222052Z 00000KT 10SM CLR 20/02 A3017 RMK AO2 SLP216 T02000017 56017=
201211221952 METAR KATL 221952Z 00000KT 10SM CLR 19/03 A3018 RMK AO2 SLP217 T01940028=
201211221852 METAR KATL 221852Z VRB04KT 10SM CLR 19/03 A3020 RMK AO2 SLP226 T01890028=
201211221752 METAR KATL 221752Z 00000KT 10SM CLR 18/01 A3023 RMK AO2 SLP234 T01780006 10178 20072 58014=
201211221652 METAR KATL 221652Z 11006KT 10SM CLR 16/00 A3026 RMK AO2 SLP245 T01610000=
201211221552 METAR KATL 221552Z 12005KT 10SM CLR 16/02 A3027 RMK AO2 SLP250 T01560017=
201211221452 METAR KATL 221452Z 13006KT 10SM CLR 14/02 A3027 RMK AO2 SLP249 T01390017 51018=
201211221352 METAR KATL 221352Z 09006KT 10SM CLR 11/04 A3026 RMK AO2 SLP248 T01060039=
201211221252 METAR KATL 221252Z 09005KT 10SM CLR 08/04 A3024 RMK AO2 SLP240 T00780044=
201211221152 METAR KATL 221152Z 08005KT 10SM CLR 08/04 A3021 RMK AO2 SLP231 T00780044 10111 20078 53011=
201211221052 METAR KATL 221052Z 06003KT 10SM CLR 09/05 A3020 RMK AO2 SLP226 T00940050=
201211220952 METAR KATL 220952Z 04004KT 10SM CLR 09/05 A3019 RMK AO2 SLP220 T00940050=
201211220852 METAR KATL 220852Z 00000KT 10SM CLR 09/05 A3018 RMK AO2 SLP218 T00940050 53006=
201211220752 METAR KATL 220752Z 36004KT 10SM CLR 10/05 A3017 RMK AO2 SLP214 T01000050=
201211220652 METAR KATL 220652Z 32005KT 10SM CLR 10/05 A3016 RMK AO2 SLP211 T01000050=
201211220552 METAR KATL 220552Z 31005KT 10SM CLR 10/05 A3016 RMK AO2 SLP212 T01000050 10161 20100 53001=
201211220452 METAR KATL 220452Z 32005KT 10SM CLR 11/05 A3016 RMK AO2 SLP212 T01110050 402110083=
201211220352 METAR KATL 220352Z 31007KT 10SM CLR 12/06 A3016 RMK AO2 SLP210 T01170056=
201211220252 METAR KATL 220252Z 32005KT 10SM CLR 13/06 A3016 RMK AO2 SLP211 T01330056 53005=
201211220152 METAR KATL 220152Z 33005KT 10SM CLR 14/06 A3015 RMK AO2 SLP208 T01390056=
201211220052 METAR KATL 220052Z 30004KT 10SM FEW070 16/06 A3015 RMK AO2 SLP209 T01560056=
201211212352 METAR KATL 212352Z 31006KT 10SM FEW070 16/06 A3015 RMK AO2 SLP208 T01610056 10211 20161 53012=
201211212252 METAR KATL 212252Z 31004KT 10SM FEW070 18/06 A3013 RMK AO2 SLP201 T01780056=
201211212152 METAR KATL 212152Z 36005KT 10SM FEW070 19/05 A3011 RMK AO2 SLP195 T01940050=
201211212052 METAR KATL 212052Z 33005KT 10SM SCT070 19/06 A3011 RMK AO2 SLP194 T01940056 55010=
201211211952 METAR KATL 211952Z 06003KT 10SM FEW060 SCT070 21/06 A3011 RMK AO2 SLP193 T02060061=
201211211852 METAR KATL 211852Z VRB04KT 10SM SCT055 21/06 A3012 RMK AO2 SLP197 T02110061=
201211211752 METAR KATL 211752Z 01006KT 10SM FEW060 SCT080 20/06 A3014 RMK AO2 SLP204 T02000056 10206 20083 58009=
201211211652 METAR KATL 211652Z 00000KT 10SM FEW080 19/06 A3016 RMK AO2 SLP209 T01940061=
201211211552 METAR KATL 211552Z VRB03KT 10SM FEW080 18/06 A3017 RMK AO2 SLP214 T01830061=
201211211452 METAR KATL 211452Z 35006KT 10SM FEW080 16/06 A3017 RMK AO2 SLP215 T01560061 51019=
201211211352 METAR KATL 211352Z 32009KT 10SM FEW250 13/06 A3015 RMK AO2 SLP209 T01280061=
201211211252 METAR KATL 211252Z 31005KT 10SM FEW200 09/06 A3013 RMK AO2 SLP202 T00940056=
201211211152 METAR KATL 211152Z 32005KT 10SM FEW080 08/05 A3011 RMK AO2 SLP196 T00830050 10122 20083 53003=
201211211052 METAR KATL 211052Z 32005KT 10SM FEW080 09/05 A3010 RMK AO2 SLP193 T00890050 $=
201211210952 METAR KATL 210952Z 32005KT 10SM SCT080 09/05 A3009 RMK AO2 SLP188 T00940050 $=
201211210852 METAR KATL 210852Z 31007KT 10SM BKN075 11/06 A3010 RMK AO2 SLP190 T01060056 55001 $=
201211210752 METAR KATL 210752Z 30005KT 10SM SCT070 10/05 A3009 RMK AO2 SLP187 T01000050 $=
201211210652 METAR KATL 210652Z 31005KT 10SM BKN065 11/06 A3009 RMK AO2 SLP188 T01110056 $=
201211210552 METAR KATL 210552Z 32007KT 10SM FEW070 11/06 A3010 RMK AO2 SLP192 T01060056 10161 20106 55001 $=
201211210452 METAR KATL 210452Z 32006KT 10SM FEW070 11/06 A3010 RMK AO2 SLP191 T01110056 402060106=
201211210352 METAR KATL 210352Z 32008KT 10SM FEW070 12/06 A3011 RMK AO2 SLP193 T01170056=
201211210252 METAR KATL 210252Z 31007KT 10SM FEW250 12/05 A3011 RMK AO2 SLP193 T01220050 51008=
201211210152 METAR KATL 210152Z 30004KT 10SM CLR 14/05 A3010 RMK AO2 SLP192 T01390050=
201211210052 METAR KATL 210052Z 30004KT 10SM FEW250 15/05 A3009 RMK AO2 SLP189 T01500050=
201211202352 METAR KATL 202352Z 33004KT 10SM FEW250 16/04 A3008 RMK AO2 SLP185 T01610044 10206 20156 53004=
201211202252 METAR KATL 202252Z 33005KT 10SM FEW250 17/04 A3007 RMK AO2 SLP181 T01670044=
201211202152 METAR KATL 202152Z 33007KT 10SM FEW250 19/04 A3007 RMK AO2 SLP180 T01890044=
201211202052 METAR KATL 202052Z 33007KT 10SM FEW060 SCT250 20/04 A3007 RMK AO2 SLP181 T02000044 56015=
201211201952 METAR KATL 201952Z 28004KT 10SM FEW060 SCT200 SCT250 20/04 A3007 RMK AO2 SLP180 T02000044=
201211201852 METAR KATL 201852Z VRB04KT 10SM FEW055 SCT200 SCT250 19/05 A3009 RMK AO2 SLP187 T01940050=
201211201752 METAR KATL 201752Z 34004KT 10SM FEW050 SCT150 SCT250 19/04 A3012 RMK AO2 SLP195 T01940044 10194 20106 58024=
201211201652 METAR KATL 201652Z COR 32008KT 10SM FEW040 SCT150 SCT250 19/06 A3016 RMK AO2 SLP209 T01890061=
201211201552 METAR KATL 201552Z 28003KT 10SM FEW050 SCT150 SCT250 17/06 A3018 RMK AO2 SLP218 T01720061=
201211201452 METAR KATL 201452Z 31003KT 10SM FEW050 SCT150 SCT250 16/06 A3019 RMK AO2 SLP220 T01610061 50009=
201211201352 METAR KATL 201352Z 30003KT 10SM FEW020 BKN055 BKN250 13/07 A3019 RMK AO2 SLP222 T01330067=
201211201252 METAR KATL 201252Z 00000KT 10SM FEW027 SCT050 SCT200 11/08 A3017 RMK AO2 SLP216 T01110078=
201211201212 SPECI KATL 201212Z 33004KT 10SM SCT027 BKN050 11/08 A3017 RMK AO2=
201211201152 METAR KATL 201152Z 32005KT 10SM BKN025 BKN030 BKN050 12/09 A3016 RMK AO2 SLP212 T01220089 10139 20106 55000=
201211201052 METAR KATL 201052Z 00000KT 10SM BKN025 OVC050 12/10 A3016 RMK AO2 SLP212 T01220100=
201211200952 METAR KATL 200952Z 00000KT 10SM BKN025 OVC055 11/10 A3015 RMK AO2 SLP209 T01110100=
201211200937 SPECI KATL 200937Z 30003KT 10SM BKN025 OVC055 11/09 A3016 RMK AO2=
201211200852 METAR KATL 200852Z 31003KT 10SM SCT055 11/09 A3016 RMK AO2 SLP213 T01110094 56006=
201211200752 METAR KATL 200752Z 32005KT 10SM BKN050 12/11 A3017 RMK AO2 SLP217 T01170106=
201211200652 METAR KATL 200652Z 00000KT 10SM BKN055 13/10 A3016 RMK AO2 SLP213 T01280100=
201211200552 METAR KATL 200552Z 00000KT 10SM BKN050 14/10 A3018 RMK AO2 SLP219 T01390100 10156 20133 58007=
201211200452 METAR KATL 200452Z 00000KT 10SM BKN048 14/10 A3019 RMK AO2 SLP221 T01440100 401560083=
201211200352 METAR KATL 200352Z 06006KT 10SM OVC040 16/09 A3020 RMK AO2 SLP226 T01560094=
201211200252 METAR KATL 200252Z 04005KT 10SM OVC038 16/09 A3020 RMK AO2 SLP226 T01560094 51001=
201211200152 METAR KATL 200152Z 03004KT 10SM OVC043 16/10 A3020 RMK AO2 SLP226 T01560100=
201211200052 METAR KATL 200052Z 34007KT 10SM OVC043 16/09 A3020 RMK AO2 SLP227 T01560094=
201211192352 METAR KATL 192352Z 36004KT 10SM OVC045 15/10 A3020 RMK AO2 SLP227 T01500100 10156 20133 58005=
201211192252 METAR KATL 192252Z 31003KT 10SM OVC042 14/10 A3021 RMK AO2 SLP231 T01440100=
201211192152 METAR KATL 192152Z 33007KT 10SM FEW020 BKN040 BKN250 15/10 A3022 RMK AO2 SLP233 T01500100=
201211192052 METAR KATL 192052Z 35004KT 10SM FEW020 BKN040 BKN250 16/10 A3021 RMK AO2 SLP232 T01560100 56015=
201211191952 METAR KATL 191952Z 33005KT 10SM FEW020 BKN035 OVC040 14/10 A3022 RMK AO2 SLP235 T01440100=
201211191943 SPECI KATL 191943Z 34005KT 10SM FEW020 BKN033 OVC040 14/10 A3022 RMK AO2=
201211191852 METAR KATL 191852Z 01008KT 10SM FEW015 BKN025 OVC030 14/10 A3024 RMK AO2 SLP240 T01390100=
201211191752 METAR KATL 191752Z 34005KT 3SM BR FEW010 BKN020 OVC030 13/10 A3026 RMK AO2 SFC VIS 6 DZE49 SLP248 P0000 60000 T01330100 10133 20094 58014=
201211191729 SPECI KATL 191729Z 27004KT 2SM -DZ BR FEW010 BKN017 OVC030 13/11 A3027 RMK AO2 SFC VIS 6 P0000=
201211191652 METAR KATL 191652Z 04007KT 2SM -DZ BR BKN012 BKN030 OVC250 13/10 A3029 RMK AO2 SFC VIS 4 SLP257 P0000 T01280100=
201211191643 SPECI KATL 191643Z 01008KT 2SM -DZ BR BKN012 BKN030 OVC250 13/09 A3029 RMK AO2 SFC VIS 4 P0000=
201211191634 SPECI KATL 191634Z 02008KT 4SM -DZ BR BKN012 BKN030 OVC250 13/09 A3029 RMK AO2 P0000=
201211191625 SPECI KATL 191625Z VRB05KT 9SM BKN014 BKN030 OVC250 13/09 A3029 RMK AO2 DZE25 P0000=
201211191552 METAR KATL 191552Z 05010KT 2SM -DZ BR BKN014 BKN030 OVC250 13/09 A3031 RMK AO2 SFC VIS 5 DZB48 SLP264 P0000 T01280089=
201211191549 SPECI KATL 191549Z 04011KT 2SM -DZ BR BKN014 BKN030 OVC250 13/09 A3031 RMK AO2 SFC VIS 5 DZB48 P0000=
201211191500 SPECI KATL 191500Z 04008KT 10SM FEW020 BKN027 OVC250 12/07 A3031 RMK AO2=
201211191452 METAR KATL 191452Z 05010KT 10SM FEW015 BKN030 OVC250 12/07 A3030 RMK AO2 SLP263 T01220067 51008=
201211191352 METAR KATL 191352Z 05009KT 10SM SCT014 BKN037 BKN250 11/04 A3030 RMK AO2 SLP261 T01060044=
201211191321 SPECI KATL 191321Z 02005KT 10SM BKN012 BKN250 10/04 A3031 RMK AO2=
201211191252 METAR KATL 191252Z 03006KT 10SM FEW040 SCT250 09/04 A3031 RMK AO2 SLP264 T00940039=
201211191152 METAR KATL 191152Z 04006KT 10SM FEW250 08/04 A3028 RMK AO2 SLP254 T00830039 10100 20083 58002=
201211191052 METAR KATL 191052Z 04005KT 10SM CLR 09/04 A3029 RMK AO2 SLP256 T00890039=
201211190952 METAR KATL 190952Z 04006KT 10SM CLR 09/04 A3029 RMK AO2 SLP257 T00890039=
201211190852 METAR KATL 190852Z 05007KT 10SM CLR 09/04 A3029 RMK AO2 SLP255 T00890044 58012=
201211190752 METAR KATL 190752Z 05009KT 10SM CLR 09/04 A3030 RMK AO2 SLP259 T00940044=
201211190652 METAR KATL 190652Z 05007KT 10SM CLR 10/04 A3031 RMK AO2 SLP264 T01000044=
201211190552 METAR KATL 190552Z 03004KT 10SM FEW045 10/04 A3032 RMK AO2 SLP268 T01000044 10144 20100 55003=
201211190452 METAR KATL 190452Z 04004KT 10SM CLR 10/05 A3032 RMK AO2 SLP267 T01000050 401780067=
201211190352 METAR KATL 190352Z 07007KT 10SM CLR 11/06 A3032 RMK AO2 SLP267 T01110056 $=
201211190252 METAR KATL 190252Z 07007KT 10SM FEW046 11/06 A3033 RMK AO2 SLP273 T01110061 53004=
201211190152 METAR KATL 190152Z 06009KT 10SM FEW034 13/06 A3033 RMK AO2 SLP271 T01330061=
201211190052 METAR KATL 190052Z 07010KT 10SM FEW034 14/07 A3032 RMK AO2 SLP267 T01390067=
201211182352 METAR KATL 182352Z 08008KT 10SM SCT034 BKN046 14/07 A3032 RMK AO2 SLP268 T01390072 10178 20133 53008=
201211182252 METAR KATL 182252Z 08011KT 10SM BKN036 16/08 A3031 RMK AO2 SLP265 T01560078=
201211182152 METAR KATL 182152Z 07009KT 10SM FEW046 16/07 A3030 RMK AO2 SLP263 T01610067=
201211182052 METAR KATL 182052Z 06008KT 10SM FEW046 18/06 A3029 RMK AO2 SLP259 T01780061 55011=
201211181952 METAR KATL 181952Z 07010G15KT 10SM FEW048 18/06 A3029 RMK AO2 SLP258 T01780061=
201211181852 METAR KATL 181852Z 06009KT 10SM FEW042 17/06 A3030 RMK AO2 SLP261 T01720061=
201211181752 METAR KATL 181752Z 06010G16KT 10SM FEW043 16/06 A3033 RMK AO2 SLP270 T01610061 10161 20078 58016=
201211181652 METAR KATL 181652Z 08008KT 10SM BKN043 14/04 A3037 RMK AO2 SLP284 T01440044=
201211181552 METAR KATL 181552Z 07010G17KT 10SM BKN036 13/04 A3038 RMK AO2 SLP291 T01280039=
201211181452 METAR KATL 181452Z 06012KT 10SM SCT034 SCT250 11/03 A3038 RMK AO2 SLP289 T01110028 50002=
201211181429 SPECI KATL 181429Z 06011KT 10SM FEW016 BKN033 11/03 A3038 RMK AO2=
201211181352 METAR KATL 181352Z 06014G22KT 10SM BKN016 OVC019 09/01 A3038 RMK AO2 SLP290 T00890006=
201211181333 SPECI KATL 181333Z 06012KT 10SM BKN018 OVC031 09/00 A3038 RMK AO2=
201211181317 SPECI KATL 181317Z 06013KT 10SM FEW020 BKN031 08/M01 A3038 RMK AO2=
201211181252 METAR KATL 181252Z 05012KT 10SM BKN024 BKN031 08/M01 A3039 RMK AO2 SLP295 T00831006=
201211181152 METAR KATL 181152Z 05010KT 10SM BKN020 BKN250 08/M02 A3037 RMK AO2 SLP287 T00781017 10083 20067 53008=
201211181138 SPECI KATL 181138Z 06008KT 10SM BKN020 BKN250 07/M02 A3036 RMK AO2=
201211181052 METAR KATL 181052Z 05010KT 10SM CLR 07/M03 A3035 RMK AO2 SLP280 T00671028=
201211180952 METAR KATL 180952Z 05010KT 10SM CLR 07/M04 A3035 RMK AO2 SLP277 T00671039=
201211180852 METAR KATL 180852Z 06009KT 10SM CLR 07/M03 A3034 RMK AO2 SLP277 T00721033 58005=
201211180752 METAR KATL 180752Z 06011KT 10SM CLR 08/M04 A3035 RMK AO2 SLP280 T00781039=
201211180652 METAR KATL 180652Z 06013KT 10SM CLR 08/M04 A3036 RMK AO2 SLP282 T00781039=
201211180552 METAR KATL 180552Z 06011KT 10SM CLR 08/M03 A3036 RMK AO2 SLP282 T00781033 10122 20067 55007=
201211180452 METAR KATL 180452Z 07011KT 10SM CLR 08/M03 A3036 RMK AO2 SLP282 T00831033 401560050=
201211180352 METAR KATL 180352Z 09008KT 10SM CLR 07/M02 A3037 RMK AO2 SLP287 T00721017=
201211180252 METAR KATL 180252Z 08009KT 10SM CLR 08/M02 A3038 RMK AO2 SLP292 T00831017 51012=
201211180152 METAR KATL 180152Z 07008KT 10SM CLR 10/M01 A3038 RMK AO2 SLP290 T01001011=
201211180052 METAR KATL 180052Z 06009KT 10SM CLR 11/M01 A3036 RMK AO2 SLP284 T01111011=
201211172352 METAR KATL 172352Z 06009KT 10SM CLR 12/00 A3035 RMK AO2 SLP280 T01220000 10156 20117 51006=
201211172252 METAR KATL 172252Z 06009KT 10SM CLR 13/00 A3034 RMK AO2 SLP278 T01330000=
201211172152 METAR KATL 172152Z 06009KT 10SM CLR 14/00 A3034 RMK AO2 SLP275 T01440000=
201211172052 METAR KATL 172052Z 05009G16KT 10SM CLR 15/00 A3033 RMK AO2 SLP271 T01500000 56015=
201211171952 METAR KATL 171952Z 07008KT 10SM CLR 16/00 A3033 RMK AO2 SLP273 T01560000=
201211171852 METAR KATL 171852Z 06010KT 10SM CLR 14/M01 A3035 RMK AO2 SLP279 T01441011=
201211171752 METAR KATL 171752Z 06007KT 10SM CLR 13/M01 A3037 RMK AO2 SLP287 T01331011 10133 20050 58016=
201211171652 METAR KATL 171652Z 09012G19KT 10SM CLR 13/M02 A3040 RMK AO2 SLP297 T01281017=
201211171552 METAR KATL 171552Z 07016G24KT 10SM CLR 11/M02 A3043 RMK AO2 SLP306 T01111022=
201211171452 METAR KATL 171452Z 07020G25KT 10SM CLR 09/M01 A3042 RMK AO2 SLP304 T00941011 51015=
201211171352 METAR KATL 171352Z 07015KT 10SM CLR 08/M01 A3041 RMK AO2 SLP300 T00781006=
201211171252 METAR KATL 171252Z 05008KT 10SM CLR 06/01 A3039 RMK AO2 SLP295 T00560006=
201211171152 METAR KATL 171152Z 05008KT 10SM CLR 05/01 A3038 RMK AO2 SLP290 T00500006 10067 20050 51014=
201211171052 METAR KATL 171052Z 06008KT 10SM CLR 05/01 A3036 RMK AO2 SLP285 T00500011=
201211170952 METAR KATL 170952Z 05009KT 10SM CLR 06/01 A3035 RMK AO2 SLP280 T00560011=
201211170852 METAR KATL 170852Z 06009KT 10SM CLR 06/02 A3033 RMK AO2 SLP273 T00610017 51004=
201211170752 METAR KATL 170752Z 07008KT 10SM CLR 06/02 A3033 RMK AO2 SLP272 T00560017=
201211170652 METAR KATL 170652Z 07007KT 10SM CLR 06/02 A3033 RMK AO2 SLP272 T00560017=
201211170552 METAR KATL 170552Z 07007KT 10SM CLR 06/02 A3032 RMK AO2 SLP270 T00610022 10128 20061 51008=
201211170452 METAR KATL 170452Z 09005KT 10SM CLR 07/03 A3032 RMK AO2 SLP270 T00720028 401610044=
201211170352 METAR KATL 170352Z 07005KT 10SM CLR 09/02 A3031 RMK AO2 SLP267 T00890022=
201211170252 METAR KATL 170252Z 06005KT 10SM CLR 10/02 A3030 RMK AO2 SLP262 T01000022 52009=
201211170152 METAR KATL 170152Z 06005KT 10SM FEW250 12/02 A3029 RMK AO2 SLP258 T01170022=
201211170052 METAR KATL 170052Z 00000KT 10SM FEW250 11/04 A3028 RMK AO2 SLP258 T01060039=
201211162352 METAR KATL 162352Z 00000KT 10SM FEW250 12/04 A3027 RMK AO2 SLP254 T01170039 10161 20111 53009=
201211162252 METAR KATL 162252Z 11003KT 10SM FEW250 13/04 A3026 RMK AO2 SLP248 T01280039=
201211162152 METAR KATL 162152Z 06003KT 10SM FEW250 15/03 A3025 RMK AO2 SLP245 T01500028=
201211162052 METAR KATL 162052Z 00000KT 10SM FEW250 16/03 A3024 RMK AO2 SLP242 T01610033 56013=
201211161952 METAR KATL 161952Z 09006KT 10SM FEW250 15/03 A3024 RMK AO2 SLP242 T01500033=
201211161852 METAR KATL 161852Z 00000KT 10SM BKN250 14/03 A3026 RMK AO2 SLP247 T01440028=
201211161752 METAR KATL 161752Z 13003KT 10SM FEW250 14/03 A3028 RMK AO2 SLP256 T01390028 10139 20044 58010=
201211161652 METAR KATL 161652Z 07003KT 10SM SCT250 12/03 A3031 RMK AO2 SLP266 T01220028=
201211161552 METAR KATL 161552Z 07004KT 10SM FEW250 11/02 A3032 RMK AO2 SLP270 T01060022=
201211161452 METAR KATL 161452Z 07007KT 10SM FEW250 08/02 A3031 RMK AO2 SLP269 T00830022 51013=
201211161352 METAR KATL 161352Z 08007KT 10SM FEW250 07/02 A3030 RMK AO2 SLP264 T00720022=
201211161252 METAR KATL 161252Z 06007KT 9SM FEW250 06/03 A3029 RMK AO2 SLP260 T00610028=
201211161152 METAR KATL 161152Z 08005KT 10SM FEW250 05/02 A3027 RMK AO2 SLP256 T00500017 10072 20050 53007=
201211161052 METAR KATL 161052Z 04006KT 10SM FEW250 06/03 A3026 RMK AO2 SLP252 T00560033=
201211160952 METAR KATL 160952Z 04004KT 8SM FEW020 SCT250 06/04 A3026 RMK AO2 SLP249 T00610039=
201211160852 METAR KATL 160852Z 00000KT 7SM FEW250 06/03 A3025 RMK AO2 SLP248 T00560033 58001=
201211160752 METAR KATL 160752Z 04006KT 8SM FEW250 06/04 A3025 RMK AO2 SLP248 T00610044=
201211160652 METAR KATL 160652Z 00000KT 8SM FEW040 SCT250 07/05 A3025 RMK AO2 SLP248 T00720050=
201211160552 METAR KATL 160552Z 00000KT 9SM FEW040 BKN250 07/05 A3025 RMK AO2 SLP248 T00670050 10083 20061 58001=
201211160452 METAR KATL 160452Z 00000KT 9SM OVC040 07/06 A3027 RMK AO2 SLP253 T00720056 401060056=
201211160352 METAR KATL 160352Z 00000KT 9SM SCT045 BKN250 07/05 A3027 RMK AO2 SLP253 T00670050=
201211160252 METAR KATL 160252Z 00000KT 9SM FEW040 BKN250 07/06 A3026 RMK AO2 SLP251 T00720056 53007=
201211160152 METAR KATL 160152Z 00000KT 10SM FEW038 BKN250 07/05 A3025 RMK AO2 SLP248 T00720050=
201211160052 METAR KATL 160052Z 00000KT 10SM SCT038 BKN250 08/06 A3023 RMK AO2 SLP243 T00780056=
201211152352 METAR KATL 152352Z 00000KT 10SM FEW020 SCT250 08/05 A3023 RMK AO2 SLP242 T00830050 10106 20083 53001=
201211152252 METAR KATL 152252Z 00000KT 10SM SCT022 SCT250 09/06 A3023 RMK AO2 SLP240 T00890056=
201211152216 SPECI KATL 152216Z 07004KT 10SM SCT023 10/06 A3023 RMK AO2=
201211152152 METAR KATL 152152Z 07006KT 10SM BKN023 11/06 A3023 RMK AO2 SLP239 T01060056=
201211152052 METAR KATL 152052Z 11003KT 10SM BKN023 10/06 A3023 RMK AO2 SLP240 T01000056 56010=
201211151952 METAR KATL 151952Z 09005KT 10SM OVC018 10/06 A3023 RMK AO2 SLP241 T01000056=
201211151911 SPECI KATL 151911Z 08004KT 10SM OVC016 09/05 A3024 RMK AO2=
201211151852 METAR KATL 151852Z 04005KT 10SM OVC014 09/05 A3024 RMK AO2 SLP244 T00940050=
201211151752 METAR KATL 151752Z 10005KT 10SM OVC012 08/04 A3026 RMK AO2 SLP251 60000 T00830044 10083 20056 58015=
201211151652 METAR KATL 151652Z 04005KT 9SM OVC012 08/04 A3028 RMK AO2 SLP258 T00780039=
201211151552 METAR KATL 151552Z 04009KT 9SM OVC012 07/03 A3030 RMK AO2 SLP264 T00720033=
201211151452 METAR KATL 151452Z 07010KT 9SM OVC010 06/03 A3031 RMK AO2 SLP267 60000 T00610033 51009=
201211151352 METAR KATL 151352Z 06009KT 5SM HZ OVC008 06/03 A3030 RMK AO2 DZE33 SLP264 P0000 T00610033 $=
201211151339 SPECI KATL 151339Z 04009KT 3SM BR OVC007 06/04 A3030 RMK AO2 DZE33 CIG 006V010 P0000=
201211151252 METAR KATL 151252Z 02009KT 1 1/2SM -DZ BR OVC006 06/04 A3029 RMK AO2 DZB24 SLP263 CIG 005V008 P0000 T00560039=
201211151152 METAR KATL 151152Z 04010KT 1 1/2SM BR OVC005 06/04 A3028 RMK AO2 SFC VIS 2 1/2 DZE51 SLP257 BINOVC P0000 60000 70008 T00560039 10067 20056 51007=
201211151123 SPECI KATL 151123Z 05007KT 1 1/2SM -DZ BR OVC007 06/04 A3028 RMK AO2 SFC VIS 2 CIG 005V009 P0000=
201211151052 METAR KATL 151052Z 05010KT 2 1/2SM -DZ BR OVC007 06/04 A3028 RMK AO2 DZB21 SLP257 CIG 005V009 P0000 T00560039=
201211150952 METAR KATL 150952Z 07011KT 2 1/2SM BR OVC007 06/04 A3026 RMK AO2 SFC VIS 4 DZE25 SLP252 CIG 005V009 P0000 T00560039=
201211150852 METAR KATL 150852Z 08012KT 2 1/2SM -DZ BR BKN007 OVC012 06/04 A3026 RMK AO2 SFC VIS 3 DZB47 SLP249 P0000 60000 T00560039 56002=
201211150752 METAR KATL 150752Z 07010KT 5SM BR OVC009 06/04 A3026 RMK AO2 SLP251 CIG 008V012 T00610044=
201211150711 SPECI KATL 150711Z 08010KT 8SM BKN009 OVC023 06/04 A3026 RMK AO2=
201211150652 METAR KATL 150652Z 07009KT 8SM SCT009 OVC023 07/04 A3026 RMK AO2 SLP250 T00670044=
201211150552 METAR KATL 150552Z 05010KT 10SM FEW009 OVC025 07/04 A3027 RMK AO2 SLP252 60008 T00670044 10100 20067 56014=
201211150504 SPECI KATL 150504Z 05007KT 10SM SCT009 BKN026 OVC045 07/05 A3029 RMK AO2=
201211150452 METAR KATL 150452Z 04007KT 10SM FEW007 BKN030 OVC045 07/05 A3028 RMK AO2 RAE0356 SLP257 P0000 T00670050 401060050=
201211150352 METAR KATL 150352Z 08010KT 8SM -RA SCT028 BKN045 OVC080 07/04 A3028 RMK AO2 SLP258 P0008 T00720044=
201211150343 SPECI KATL 150343Z 08008KT 7SM -RA BKN025 BKN040 OVC080 07/05 A3030 RMK AO2 P0007=
201211150305 SPECI KATL 150305Z 06007KT 5SM -RA SCT025 BKN038 OVC080 07/04 A3030 RMK AO2 P0003=
201211150252 METAR KATL 150252Z 08006KT 8SM -RA OVC025 08/04 A3031 RMK AO2 RAB42 SLP266 P0000 60000 T00780039 53008=
201211150152 METAR KATL 150152Z 11008KT 10SM OVC026 08/02 A3030 RMK AO2 SLP263 T00830022=
201211150052 METAR KATL 150052Z 11006KT 10SM OVC026 10/01 A3029 RMK AO2 SLP262 T01000011=
201211142352 METAR KATL 142352Z 09008KT 10SM OVC026 10/01 A3028 RMK AO2 SLP259 T01000011 10106 20094 53005=
201211142252 METAR KATL 142252Z 06008KT 10SM OVC025 10/00 A3027 RMK AO2 SLP255 T01000000=
201211142152 METAR KATL 142152Z 06008KT 10SM BKN025 OVC040 10/00 A3028 RMK AO2 SLP256 T01000000=
201211142052 METAR KATL 142052Z 06011KT 10SM BKN025 OVC040 11/00 A3027 RMK AO2 SLP253 T01060000 56014=
201211141952 METAR KATL 141952Z 08010KT 10SM BKN025 BKN040 OVC150 11/00 A3027 RMK AO2 SLP255 T01060000=
201211141852 METAR KATL 141852Z 08010KT 10SM BKN022 BKN040 OVC150 11/01 A3029 RMK AO2 SLP260 T01060006=
201211141752 METAR KATL 141752Z 08010KT 10SM BKN024 BKN040 OVC150 10/00 A3031 RMK AO2 SLP268 T01000000 10100 20050 58020=
201211141652 METAR KATL 141652Z 09013G23KT 10SM BKN022 BKN043 BKN150 BKN250 10/M01 A3033 RMK AO2 SLP273 T01001006=
201211141632 SPECI KATL 141632Z 07014KT 10SM BKN024 BKN043 BKN150 BKN250 10/M01 A3034 RMK AO2=
201211141552 METAR KATL 141552Z 08015KT 10SM BKN043 BKN150 BKN250 09/M01 A3037 RMK AO2 SLP287 T00891006=
201211141452 METAR KATL 141452Z 06015KT 10SM BKN040 BKN150 BKN250 08/M01 A3037 RMK AO2 SLP290 T00831006 50011=
201211141352 METAR KATL 141352Z 07015KT 10SM BKN040 BKN150 BKN250 07/M01 A3038 RMK AO2 SLP291 T00671006=
201211141252 METAR KATL 141252Z 08014G19KT 10SM BKN036 BKN250 06/00 A3036 RMK AO2 SLP287 T00560000=
201211141152 METAR KATL 141152Z 07011KT 10SM BKN250 06/M01 A3034 RMK AO2 SLP278 T00561011 10072 20056 53010=
201211141052 METAR KATL 141052Z 08012KT 10SM BKN250 06/M01 A3033 RMK AO2 SLP273 T00561006=
201211140952 METAR KATL 140952Z 08013KT 10SM BKN250 06/00 A3031 RMK AO2 SLP267 T00610000=
201211140852 METAR KATL 140852Z 07013KT 10SM BKN250 07/02 A3031 RMK AO2 SLP264 T00670017 53002=
201211140752 METAR KATL 140752Z 07011KT 10SM SCT250 07/03 A3030 RMK AO2 SLP262 T00670028=
201211140652 METAR KATL 140652Z 08009KT 10SM SCT250 06/03 A3030 RMK AO2 SLP261 T00610033=
201211140552 METAR KATL 140552Z 07008KT 10SM BKN250 07/03 A3030 RMK AO2 SLP263 T00720033 10089 20050 50001=
201211140452 METAR KATL 140452Z 04007KT 10SM SCT250 07/01 A3030 RMK AO2 SLP264 T00720006 401440017=
201211140352 METAR KATL 140352Z VRB05KT 10SM FEW250 07/M01 A3030 RMK AO2 SLP265 T00671011=
201211140252 METAR KATL 140252Z 33005KT 10SM CLR 06/M01 A3030 RMK AO2 SLP265 T00611011 51008=
201211140152 METAR KATL 140152Z 34005KT 10SM CLR 07/M01 A3029 RMK AO2 SLP263 T00721011=
201211140052 METAR KATL 140052Z 33008KT 10SM CLR 08/M02 A3029 RMK AO2 SLP261 T00831017=
201211132352 METAR KATL 132352Z 33007KT 10SM CLR 09/M01 A3027 RMK AO2 SLP256 T00941011 10144 20094 53009=
201211132252 METAR KATL 132252Z 32008KT 10SM FEW250 11/M01 A3026 RMK AO2 SLP250 T01061006=
201211132152 METAR KATL 132152Z 33009KT 10SM CLR 13/M01 A3025 RMK AO2 SLP249 T01281006=
201211132052 METAR KATL 132052Z 34009KT 10SM CLR 14/M01 A3024 RMK AO2 SLP244 T01391011 56010=
201211131952 METAR KATL 131952Z 31008KT 10SM CLR 14/M01 A3025 RMK AO2 SLP245 T01391006=
201211131852 METAR KATL 131852Z 36011KT 10SM FEW030 14/M01 A3026 RMK AO2 SLP247 T01391011=
201211131752 METAR KATL 131752Z 34012KT 10SM CLR 12/M02 A3027 RMK AO2 SLP254 T01221017 10122 20017 58014=
201211131652 METAR KATL 131652Z 36009KT 10SM FEW020 SCT250 11/M02 A3031 RMK AO2 SLP265 T01061017=
201211131552 METAR KATL 131552Z 31012KT 10SM FEW250 09/M01 A3032 RMK AO2 SLP269 T00891011=
201211131452 METAR KATL 131452Z 33011KT 10SM FEW250 07/M02 A3032 RMK AO2 SLP269 T00671017 51013=
201211131352 METAR KATL 131352Z 33008KT 10SM CLR 04/M01 A3031 RMK AO2 SLP269 T00441011=
201211131252 METAR KATL 131252Z 33009KT 10SM CLR 02/M01 A3030 RMK AO2 SLP264 T00221011=
201211131152 METAR KATL 131152Z 32009KT 10SM FEW250 02/M01 A3028 RMK AO2 SLP257 70022 T00171006 10078 20017 53008=
201211131052 METAR KATL 131052Z 32012KT 10SM CLR 02/00 A3026 RMK AO2 SLP250 T00220000=
201211130952 METAR KATL 130952Z 32008KT 10SM SCT055 03/00 A3026 RMK AO2 SLP247 T00280000=
201211130852 METAR KATL 130852Z 32011KT 10SM BKN049 OVC060 05/01 A3025 RMK AO2 SLP245 T00500011 55002=
201211130752 METAR KATL 130752Z 33015KT 10SM BKN049 OVC060 06/02 A3024 RMK AO2 SLP241 T00560017=
201211130652 METAR KATL 130652Z COR 33012KT 10SM BKN046 OVC055 07/02 A3025 RMK AO2 SLP243 T00670022=
201211130552 METAR KATL 130552Z 33011G18KT 10SM FEW012 BKN045 08/05 A3026 RMK AO2 SLP245 60004 T00780050 10139 20078 58001=
201211130457 SPECI KATL 130457Z 32014G21KT 10SM SCT012 OVC040 09/07 A3027 RMK AO2=
201211130452 METAR KATL 130452Z 32015G21KT 10SM BKN012 OVC040 09/07 A3027 RMK AO2 SLP247 T00890067 402060089=
201211130352 METAR KATL 130352Z 33018G24KT 10SM FEW008 OVC035 10/08 A3027 RMK AO2 RAE24 SLP248 P0000 T01000078=
201211130252 METAR KATL 130252Z 32010KT 6SM -RA BR FEW006 OVC032 11/09 A3026 RMK AO2 SLP246 P0001 60004 T01060094 51008=
201211130152 METAR KATL 130152Z 33015KT 8SM -RA FEW006 OVC025 11/09 A3026 RMK AO2 SLP247 P0000 T01110094=
201211130132 SPECI KATL 130132Z 34011G18KT 9SM -RA FEW006 SCT014 OVC025 12/10 A3025 RMK AO2 P0000=
201211130106 SPECI KATL 130106Z 35015G24KT 10SM FEW006 BKN014 OVC025 12/11 A3024 RMK AO2 RAE05 P0000=
201211130052 METAR KATL 130052Z 35017G20KT 9SM -RA BKN007 BKN013 OVC025 13/12 A3024 RMK AO2 SLP239 P0003 T01280117=
201211130010 SPECI KATL 130010Z 32010KT 4SM -RA BR BKN007 BKN025 OVC040 13/12 A3024 RMK AO2 P0002=
201211130003 SPECI KATL 130003Z 32011KT 2 1/2SM RA BR SCT006 BKN018 OVC030 13/12 A3024 RMK AO2 P0001=
201211122352 METAR KATL 122352Z 31014KT 3SM RA BR FEW006 BKN018 OVC030 14/13 A3024 RMK AO2 WSHFT 2330 SLP238 P0011 60018 T01390128 10206 20139 51014=
201211122346 SPECI KATL 122346Z 31014KT 4SM RA BR FEW006 BKN015 OVC030 14/13 A3023 RMK AO2 WSHFT 2330 FROPA P0010=
201211122327 SPECI KATL 122327Z 26004KT 5SM -RA BR SCT008 BKN013 OVC037 17/15 A3022 RMK AO2 P0007=
201211122304 SPECI KATL 122304Z 25005KT 4SM RA BR FEW015 BKN040 OVC060 17/16 A3022 RMK AO2 P0004=
201211122252 METAR KATL 122252Z 23007KT 2 1/2SM RA BR SCT025 BKN038 OVC060 17/15 A3022 RMK AO2 RAB14 SLP232 P0003 T01670150=
201211122249 SPECI KATL 122249Z 22007KT 2 1/2SM RA BR SCT025 BKN038 OVC060 17/15 A3021 RMK AO2 RAB14 P0002=
201211122152 METAR KATL 122152Z 19005KT 10SM FEW050 BKN060 OVC070 18/16 A3019 RMK AO2 RAB2057E31 SLP223 P0000 T01780156=
201211122152 SPECI KATL 122152Z 19005KT 10SM FEW050 BKN060 OVC070 18/16 A3019 RMK AO2 RAB2057E31 SLP223 P0000 T01780156=
201211122052 METAR KATL 122052Z 20003KT 10SM FEW010 SCT050 OVC070 18/16 A3020 RMK AO2 RAE39 SLP224 P0001 60004 T01780161 55004=
201211122006 SPECI KATL 122006Z 20006KT 10SM -RA FEW025 BKN045 OVC070 18/16 A3019 RMK AO2 P0001=
201211121952 METAR KATL 121952Z 16006KT 5SM RA FEW020 SCT050 OVC070 19/15 A3019 RMK AO2 RAB18 SLP219 P0003 T01890150=
201211121948 SPECI KATL 121948Z 15006KT 4SM RA FEW020 SCT050 OVC070 19/15 A3017 RMK AO2 RAB18 PRESFR P0001=
201211121852 METAR KATL 121852Z 19006KT 10SM FEW025 BKN090 OVC110 21/14 A3020 RMK AO2 RAE1754 SLP223 SHRA DSNT SW-NW P0000 T02060139=
201211121752 METAR KATL 121752Z 15008KT 10SM -RA SCT025 BKN050 OVC100 20/15 A3021 RMK AO2 RAB39 SLP226 P0000 60000 T02000150 10206 20133 58029=
201211121724 SPECI KATL 121724Z 18007KT 10SM FEW020 BKN110 BKN250 19/14 A3024 RMK AO2 VIRGA SW=
201211121652 METAR KATL 121652Z 17011KT 10SM BKN015 BKN100 BKN250 20/14 A3027 RMK AO2 SLP246 T02000144=
201211121621 SPECI KATL 121621Z 16009G17KT 10SM FEW010 SCT015 BKN250 19/15 A3028 RMK AO2=
201211121552 METAR KATL 121552Z 16007G14KT 10SM BKN010 BKN015 BKN250 18/15 A3028 RMK AO2 SLP252 T01780150=
201211121500 SPECI KATL 121500Z 16007KT 6SM BR BKN011 BKN015 BKN250 17/15 A3030 RMK AO2=
201211121452 METAR KATL 121452Z VRB05KT 3SM BR BKN009 BKN013 BKN250 17/15 A3030 RMK AO2 SFC VIS 5 SLP258 T01670150 50012=
201211121441 SPECI KATL 121441Z 14006KT 3SM BR FEW004 BKN007 OVC013 16/15 A3030 RMK AO2 SFC VIS 5=
201211121415 SPECI KATL 121415Z 13005KT 1 1/2SM BR FEW004 BKN007 OVC013 15/14 A3030 RMK AO2 SFC VIS 5=
201211121358 SPECI KATL 121358Z 00000KT 1 1/2SM BR OVC004 14/14 A3030 RMK AO2 SFC VIS 4=
201211121352 METAR KATL 121352Z 15004KT 1SM BR OVC002 14/14 A3030 RMK AO2 SFC VIS 3 SLP259 T01440139=
201211121252 METAR KATL 121252Z 13006KT 1/2SM R09R/3500V5500FT BR OVC002 13/13 A3028 RMK AO2 SFC VIS 1 SLP253 T01330133=
201211121242 SPECI KATL 121242Z 14005KT 1/2SM R09R/3500V4500FT BR OVC002 13/13 A3028 RMK AO2 SFC VIS 3/4=
201211121152 METAR KATL 121152Z 14007KT 1 1/4SM R09R/3000V4500FT BR BKN002 13/13 A3026 RMK AO2 SFC VIS 2 SLP246 T01330128 10139 20128 58001=
201211121052 METAR KATL 121052Z 13006KT 1 1/4SM R09R/2600V4500FT BR BKN002 13/13 A3027 RMK AO2 SFC VIS 3 SLP247 T01330128=
201211121008 SPECI KATL 121008Z 12005KT 1 1/4SM BR BKN004 13/12 A3027 RMK AO2 SFC VIS 6=
201211121005 SPECI KATL 121005Z 13006KT 7SM SCT004 SCT055 BKN250 13/12 A3027 RMK AO2=
201211120952 METAR KATL 120952Z 12005KT 8SM SCT055 SCT250 13/12 A3027 RMK AO2 SLP247 T01280117=
201211120852 METAR KATL 120852Z 13005KT 10SM SCT050 BKN250 13/12 A3027 RMK AO2 SLP246 T01330117 58015=
201211120752 METAR KATL 120752Z 13004KT 10SM BKN050 BKN250 13/11 A3028 RMK AO2 SLP252 T01330111=
201211120652 METAR KATL 120652Z 12006KT 10SM FEW050 SCT250 13/11 A3030 RMK AO2 SLP256 T01330111=
201211120552 METAR KATL 120552Z 12005KT 10SM FEW050 BKN250 14/11 A3031 RMK AO2 SLP262 T01390111 10172 20139 57002=
201211120452 METAR KATL 120452Z 12005KT 10SM FEW050 SCT250 14/11 A3031 RMK AO2 SLP263 T01440106 401940067=
201211120352 METAR KATL 120352Z 13005KT 10SM SCT050 BKN250 15/11 A3031 RMK AO2 SLP264 T01500106=
201211120252 METAR KATL 120252Z 13004KT 10SM SCT050 BKN250 16/11 A3032 RMK AO2 SLP264 T01610106 51002=
201211120152 METAR KATL 120152Z 11006KT 10SM SCT060 BKN250 17/10 A3031 RMK AO2 SLP264 T01670100=
201211120052 METAR KATL 120052Z 10004KT 10SM FEW060 BKN250 16/10 A3032 RMK AO2 SLP266 T01610100=
201211112352 METAR KATL 112352Z 11005KT 10SM SCT060 SCT220 BKN250 17/10 A3031 RMK AO2 SLP264 T01720100 10194 20172 56005=
201211112252 METAR KATL 112252Z 11005KT 10SM FEW050 BKN250 18/11 A3031 RMK AO2 SLP265 T01780106=
201211112152 METAR KATL 112152Z 13004KT 10SM BKN050 BKN250 19/10 A3032 RMK AO2 SLP266 T01890100=
201211112052 METAR KATL 112052Z 13007KT 10SM FEW035 BKN048 BKN250 19/11 A3033 RMK AO2 SLP268 T01940106 56018=
201211111952 METAR KATL 111952Z 13007KT 10SM FEW046 BKN250 19/11 A3033 RMK AO2 SLP270 T01890106=
201211111852 METAR KATL 111852Z 11007KT 10SM FEW030 BKN049 BKN250 18/11 A3035 RMK AO2 SLP277 T01830106=
201211111752 METAR KATL 111752Z 13007KT 10SM OVC047 17/10 A3038 RMK AO2 SLP287 T01720100 10172 20072 58014=
201211111652 METAR KATL 111652Z 13006G14KT 10SM OVC045 17/10 A3042 RMK AO2 SLP298 T01670100=
201211111552 METAR KATL 111552Z 13007KT 10SM BKN045 16/09 A3043 RMK AO2 SLP303 T01610089=
201211111452 METAR KATL 111452Z 12005KT 10SM BKN043 BKN250 13/08 A3042 RMK AO2 SLP301 T01330078 51016=
201211111352 METAR KATL 111352Z 10004KT 10SM SCT250 11/06 A3041 RMK AO2 SLP298 T01060056=
201211111252 METAR KATL 111252Z 09005KT 10SM FEW150 SCT250 08/04 A3040 RMK AO2 SLP293 T00830044=
201211111152 METAR KATL 111152Z 07005KT 10SM FEW040 07/03 A3037 RMK AO2 SLP285 T00720033 10111 20067 53015=
201211111052 METAR KATL 111052Z 10003KT 10SM CLR 08/04 A3034 RMK AO2 SLP274 T00830039=
201211110952 METAR KATL 110952Z 13003KT 10SM CLR 09/03 A3032 RMK AO2 SLP266 T00890033=
201211110852 METAR KATL 110852Z 12004KT 10SM CLR 09/03 A3033 RMK AO2 SLP268 T00940028 56001=
201211110752 METAR KATL 110752Z 12003KT 10SM CLR 09/03 A3033 RMK AO2 SLP269 T00940028=
201211110652 METAR KATL 110652Z 12003KT 10SM CLR 11/03 A3032 RMK AO2 SLP265 T01110028=
201211110552 METAR KATL 110552Z 00000KT 10SM CLR 09/03 A3033 RMK AO2 SLP269 T00940033 10172 20094 58002=
201211110452 METAR KATL 110452Z 11003KT 10SM CLR 12/03 A3033 RMK AO2 SLP270 T01170028 402110056=
201211110352 METAR KATL 110352Z 12004KT 10SM CLR 13/03 A3033 RMK AO2 SLP269 T01330028=
201211110252 METAR KATL 110252Z 12003KT 10SM CLR 13/03 A3034 RMK AO2 SLP271 T01330033 51012=
201211110152 METAR KATL 110152Z 13004KT 10SM SCT050 14/04 A3032 RMK AO2 SLP267 T01440039=
201211110052 METAR KATL 110052Z COR 12004KT 10SM SCT050 16/03 A3032 RMK AO2 SLP268 T01560033=
201211102352 METAR KATL 102352Z 14004KT 10SM CLR 17/03 A3030 RMK AO2 SLP262 T01670028 10211 20161 53007=
201211102252 METAR KATL 102252Z 15003KT 10SM CLR 18/03 A3028 RMK AO2 SLP254 T01830028=
201211102152 METAR KATL 102152Z 15003KT 10SM CLR 20/02 A3028 RMK AO2 SLP253 T02000022=
201211102052 METAR KATL 102052Z 20005KT 10SM CLR 21/01 A3028 RMK AO2 SLP252 T02060011 56015=
201211101952 METAR KATL 101952Z 20005KT 10SM CLR 21/01 A3028 RMK AO2 SLP252 T02060006=
201211101952 SPECI KATL 101952Z 20005KT 10SM CLR 21/01 A3028 RMK AO2 SLP252 T02060006=
201211101852 METAR KATL 101852Z 17006KT 10SM CLR 21/02 A3030 RMK AO2 SLP258 T02060022=
201211101752 METAR KATL 101752Z 26006KT 10SM CLR 21/03 A3032 RMK AO2 SLP266 T02060028 10206 20056 58013=
201211101652 METAR KATL 101652Z 16004KT 10SM CLR 19/01 A3034 RMK AO2 SLP274 T01890011=
201211101552 METAR KATL 101552Z 00000KT 10SM CLR 19/02 A3036 RMK AO2 SLP280 T01890022=
201211101452 METAR KATL 101452Z 00000KT 10SM CLR 17/03 A3036 RMK AO2 SLP280 T01670028 51018=
201211101352 METAR KATL 101352Z 00000KT 10SM CLR 12/06 A3035 RMK AO2 SLP278 T01220056=
201211101252 METAR KATL 101252Z 00000KT 10SM CLR 07/03 A3033 RMK AO2 SLP272 T00670028=
201211101152 METAR KATL 101152Z 00000KT 10SM FEW250 06/02 A3031 RMK AO2 SLP265 T00560022 10100 20056 51013=
201211101052 METAR KATL 101052Z 00000KT 10SM CLR 06/02 A3030 RMK AO2 SLP260 T00560022=
201211100952 METAR KATL 100952Z 00000KT 10SM CLR 07/02 A3028 RMK AO2 SLP253 T00670022=
201211100852 METAR KATL 100852Z 00000KT 10SM CLR 07/03 A3027 RMK AO2 SLP249 T00720028 50002=
201211100752 METAR KATL 100752Z 00000KT 10SM CLR 08/02 A3027 RMK AO2 SLP249 T00780022=
201211100652 METAR KATL 100652Z 00000KT 10SM FEW250 10/02 A3027 RMK AO2 SLP248 T01000022=
201211100552 METAR KATL 100552Z 00000KT 10SM FEW250 09/02 A3026 RMK AO2 SLP246 T00890022 10150 20078 51002=
201211100452 METAR KATL 100452Z 00000KT 10SM FEW250 10/02 A3026 RMK AO2 SLP246 T01000022 402060039=
201211100352 METAR KATL 100352Z 00000KT 10SM FEW250 11/02 A3026 RMK AO2 SLP246 T01060022=
201211100252 METAR KATL 100252Z 00000KT 10SM FEW250 11/02 A3025 RMK AO2 SLP246 T01110022 53011=
201211100152 METAR KATL 100152Z 00000KT 10SM FEW250 12/02 A3024 RMK AO2 SLP243 T01170022=
201211100052 METAR KATL 100052Z 00000KT 10SM FEW250 12/03 A3023 RMK AO2 SLP239 T01170028=
201211092352 METAR KATL 092352Z 00000KT 10SM FEW250 14/02 A3022 RMK AO2 SLP237 T01390022 10206 20133 53004=
201211092252 METAR KATL 092252Z 00000KT 10SM FEW250 18/M01 A3021 RMK AO2 SLP232 T01781011=
201211092152 METAR KATL 092152Z 33005KT 10SM FEW250 19/M02 A3020 RMK AO2 SLP228 T01941022=
201211092052 METAR KATL 092052Z 27005KT 10SM FEW250 20/M01 A3021 RMK AO2 SLP229 T02001006 56016=
201211091952 METAR KATL 091952Z 26005KT 10SM FEW250 19/00 A3021 RMK AO2 SLP231 T01940000=
201211091852 METAR KATL 091852Z 26004KT 10SM FEW250 19/00 A3023 RMK AO2 SLP238 T01940000=
201211091752 METAR KATL 091752Z 00000KT 10SM BKN250 18/01 A3026 RMK AO2 SLP246 T01780006 10183 20039 58015=
201211091652 METAR KATL 091652Z 32006KT 10SM SCT250 17/02 A3029 RMK AO2 SLP258 T01720022=
201211091552 METAR KATL 091552Z 31005KT 10SM FEW250 15/04 A3030 RMK AO2 SLP263 T01500039=
201211091452 METAR KATL 091452Z 32005KT 10SM FEW250 11/04 A3030 RMK AO2 SLP263 T01110039 51021=
201211091352 METAR KATL 091352Z 32005KT 9SM FEW250 08/03 A3028 RMK AO2 SLP258 T00830033=
201211091252 METAR KATL 091252Z 31003KT 9SM CLR 06/02 A3026 RMK AO2 SLP251 T00560022=
201211091152 METAR KATL 091152Z 32005KT 9SM CLR 04/01 A3024 RMK AO2 SLP244 T00390011 10061 20039 53016=
201211091052 METAR KATL 091052Z 29004KT 10SM CLR 04/02 A3022 RMK AO2 SLP236 T00440017=
201211090952 METAR KATL 090952Z 31004KT 10SM CLR 06/02 A3020 RMK AO2 SLP226 T00560017=
201211090852 METAR KATL 090852Z 32006KT 10SM CLR 06/02 A3019 RMK AO2 SLP224 T00560017 53003=
201211090752 METAR KATL 090752Z 31006KT 10SM CLR 05/02 A3019 RMK AO2 SLP223 T00500017=
201211090652 METAR KATL 090652Z 31008KT 10SM CLR 06/02 A3018 RMK AO2 SLP221 T00560017=
201211090552 METAR KATL 090552Z 31007KT 10SM CLR 06/02 A3018 RMK AO2 SLP222 T00610017 10111 20061 50003=
201211090452 METAR KATL 090452Z 31005KT 10SM CLR 07/02 A3018 RMK AO2 SLP222 T00670022 401670033=
201211090352 METAR KATL 090352Z 32007KT 10SM CLR 07/02 A3018 RMK AO2 SLP221 T00720022=
201211090252 METAR KATL 090252Z 31008KT 10SM CLR 08/02 A3017 RMK AO2 SLP220 T00780022 53003=
201211090152 METAR KATL 090152Z 31009KT 10SM CLR 09/02 A3016 RMK AO2 SLP218 T00890022=
201211090052 METAR KATL 090052Z 32007KT 10SM CLR 10/01 A3016 RMK AO2 SLP218 T01000011=
201211082352 METAR KATL 082352Z 33007KT 10SM CLR 11/01 A3016 RMK AO2 SLP217 T01060011 10167 20106 53012=
201211082252 METAR KATL 082252Z 33009KT 10SM CLR 13/01 A3014 RMK AO2 SLP210 T01280006=
201211082152 METAR KATL 082152Z 32009KT 10SM CLR 15/01 A3014 RMK AO2 SLP207 T01500006=
201211082052 METAR KATL 082052Z 31009KT 10SM CLR 16/02 A3012 RMK AO2 SLP202 T01610017 55010=
201211081952 METAR KATL 081952Z 33007KT 10SM CLR 17/01 A3012 RMK AO2 SLP200 T01670011=
201211081852 METAR KATL 081852Z 31008KT 10SM CLR 15/02 A3013 RMK AO2 SLP206 T01500017=
201211081752 METAR KATL 081752Z 35007KT 10SM CLR 14/03 A3015 RMK AO2 SLP213 T01390028 10139 20033 58009=
201211081652 METAR KATL 081652Z 34006KT 10SM FEW025 12/05 A3018 RMK AO2 SLP222 T01220050=
201211081552 METAR KATL 081552Z 31007KT 9SM FEW020 10/04 A3019 RMK AO2 SLP226 T01000044=
201211081452 METAR KATL 081452Z 32006KT 6SM HZ FEW010 08/05 A3018 RMK AO2 SLP225 T00780050 51024=
201211081355 SPECI KATL 081355Z 32009KT 4SM BR SCT005 06/04 A3017 RMK AO2=
201211081352 METAR KATL 081352Z 33009KT 3SM BR BKN004 06/04 A3017 RMK AO2 SLP220 T00560039=
201211081339 SPECI KATL 081339Z 32009KT 3SM BR BKN004 05/04 A3016 RMK AO2=
201211081252 METAR KATL 081252Z 32008KT 2 1/2SM BR BKN004 04/03 A3014 RMK AO2 SLP212 T00440033=
201211081242 SPECI KATL 081242Z 32009KT 3SM BR BKN004 04/03 A3014 RMK AO2=
201211081152 METAR KATL 081152Z 31007KT 5SM BR FEW005 04/03 A3011 RMK AO2 SLP201 70006 T00390028 10050 20039 53015=
201211081052 METAR KATL 081052Z 31008KT 6SM BR CLR 04/03 A3009 RMK AO2 SLP196 T00390028=
201211080952 METAR KATL 080952Z 32007KT 7SM CLR 04/03 A3008 RMK AO2 SLP191 T00440033=
201211080852 METAR KATL 080852Z 32008KT 7SM CLR 04/03 A3007 RMK AO2 SLP185 T00440033 51008=
201211080752 METAR KATL 080752Z 32010KT 9SM CLR 05/03 A3006 RMK AO2 SLP182 T00500033=
201211080652 METAR KATL 080652Z 32008KT 8SM CLR 04/03 A3005 RMK AO2 SLP181 T00440033=
201211080552 METAR KATL 080552Z 31006KT 10SM CLR 05/04 A3004 RMK AO2 SLP176 T00500039 10072 20050 51005=
201211080452 METAR KATL 080452Z 32009KT 10SM CLR 06/04 A3004 RMK AO2 SLP176 T00560039 401060056=
201211080352 METAR KATL 080352Z 32011KT 10SM CLR 06/04 A3003 RMK AO2 SLP173 T00560039=
201211080252 METAR KATL 080252Z 32009KT 10SM CLR 06/04 A3002 RMK AO2 SLP171 T00610044 51015=
201211080152 METAR KATL 080152Z 31009KT 10SM FEW080 07/04 A3001 RMK AO2 SLP166 T00670044=
201211080052 METAR KATL 080052Z 32009KT 10SM FEW080 07/05 A2999 RMK AO2 SLP160 T00670050=
201211072352 METAR KATL 072352Z 31006KT 10SM BKN070 BKN100 07/06 A2998 RMK AO2 SLP155 60004 T00720056 10100 20072 53021=
201211072252 METAR KATL 072252Z VRB06KT 10SM SCT060 BKN080 BKN110 08/05 A2995 RMK AO2 RAE2153 SLP144 T00780050=
201211072152 METAR KATL 072152Z 33008KT 10SM -RA FEW020 BKN050 BKN060 08/04 A2993 RMK AO2 RAB2054 SLP137 VIRGA SE-S-SW-W-NW P0001 T00830044=
201211072052 METAR KATL 072052Z 32011KT 10SM FEW020 BKN060 BKN080 09/05 A2991 RMK AO2 SLP131 60003 T00940050 53004=
201211071952 METAR KATL 071952Z 33006KT 10SM FEW015 SCT055 BKN085 10/06 A2989 RMK AO2 RAE23 SLP124 TCU DSNT SE & SW SHRA DSNT SE & SW P0001 T01000061=
201211071852 METAR KATL 071852Z 03007KT 9SM -RA BKN017TCU BKN040 OVC080 09/06 A2990 RMK AO2 RAB32 SLP126 VIS LWR SE-S SHRA TCU OHD & ALQDS P0002 T00890056=
201211071752 METAR KATL 071752Z 28005KT 10SM FEW010TCU BKN050 BKN080 09/07 A2990 RMK AO2 RAE16 SLP126 TCU N-NE & SE-S SHRA N-NE & SE-S P0002 60002 T00940067 10106 20072 58008=
201211071720 SPECI KATL 071720Z 31008KT 10SM FEW015TCU BKN055 BKN075 08/06 A2991 RMK AO2 RAE16 TCU NE-S SHRA NE-S P0002=
201211071659 SPECI KATL 071659Z 31009KT 6SM R09R/5000VP6000FT -RA BR BKN015TCU BKN034 OVC080 07/05 A2992 RMK AO2 TCU OHD & ALQDS P0001=
201211071655 SPECI KATL 071655Z 30010KT 5SM R09R/5000VP6000FT -RA BKN015TCU BKN030 OVC080 08/05 A2992 RMK AO2 TCU OHD & ALQDS P0000=
201211071652 METAR KATL 071652Z 30010KT 8SM R09R/5000VP6000FT -RA BKN015TCU BKN032 OVC080 08/05 A2992 RMK AO2 RAE1555B41 SLP133 TCU OHD & ALQDS P0000 T00780050=
201211071552 METAR KATL 071552Z 27006KT 10SM -RA FEW015TCU BKN060 BKN070 09/07 A2992 RMK AO2 RAB05E14B41 SLP134 TCU N-NE P0000 T00940067=
201211071452 METAR KATL 071452Z 28008KT 6SM BR BKN010 BKN014 BKN040 09/07 A2993 RMK AO2 RAE1353B18E27 SLP136 P0000 60000 T00890072 53003=
201211071443 SPECI KATL 071443Z 30006KT 6SM BR BKN010 BKN029 OVC050 09/07 A2993 RMK AO2 RAE1353B18E27 P0000=
201211071405 SPECI KATL 071405Z 26005KT 5SM BR FEW008 BKN031 OVC070 09/07 A2992 RMK AO2 RAE1353=
201211071352 METAR KATL 071352Z 27005KT 5SM -RA BR SCT008 BKN029 OVC042 08/07 A2992 RMK AO2 RAB43 SLP135 P0000 T00830067=
201211071252 METAR KATL 071252Z 00000KT 3SM BR FEW006 SCT035 BKN060 08/07 A2992 RMK AO2 SLP132 T00830067=
201211071152 METAR KATL 071152Z 28003KT 5SM BR SCT021 OVC035 08/07 A2991 RMK AO2 RAE39 SLP131 P0002 60003 70076 T00780067 10089 20078 53000=
201211071122 SPECI KATL 071122Z 27003KT 3SM -RA BR SCT008 BKN016 OVC035 08/07 A2991 RMK AO2 P0002=
201211071100 SPECI KATL 071100Z 28003KT 2 1/2SM -RA BR FEW008 BKN012 OVC017 08/07 A2991 RMK AO2 P0001=
201211071052 METAR KATL 071052Z 30003KT 4SM -RA BR BKN012 OVC017 08/07 A2991 RMK AO2 SLP130 P0001 T00780067=
201211071012 SPECI KATL 071012Z 00000KT 7SM -RA SCT023 BKN028 OVC036 08/05 A2991 RMK AO2 P0000=
201211070952 METAR KATL 070952Z 00000KT 7SM -RA BKN034 OVC045 08/04 A2990 RMK AO2 RAB26 SLP128 P0000 T00780044=
201211070852 METAR KATL 070852Z 00000KT 10SM BKN032 OVC045 08/04 A2991 RMK AO2 SLP130 60000 T00830039 56011=
201211070752 METAR KATL 070752Z COR 10003KT 10SM FEW050 BKN070 OVC090 08/04 A2992 RMK AO2 SLP133 T00780039=
201211070652 METAR KATL 070652Z 11003KT 10SM FEW020 BKN033 OVC065 08/03 A2993 RMK AO2 RAB31E44 SLP137 P0000 T00830033=
201211070552 METAR KATL 070552Z 00000KT 9SM FEW010 BKN017 OVC035 09/07 A2994 RMK AO2 RAE0455 SLP141 P0000 60000 T00890067 10100 20089 58006=
201211070505 SPECI KATL 070505Z 35003KT 8SM FEW012 BKN025 OVC040 09/06 A2996 RMK AO2 RAE0455 P0000=
201211070452 METAR KATL 070452Z 36004KT 9SM -RA SCT025 BKN032 OVC040 09/07 A2995 RMK AO2 RAB46 SLP146 P0000 T00890067 401220083=
201211070352 METAR KATL 070352Z 30003KT 9SM OVC038 09/06 A2996 RMK AO2 SLP147 T00890061=
201211070252 METAR KATL 070252Z 29003KT 10SM OVC042 09/06 A2996 RMK AO2 SLP149 T00890061 50005=
201211070152 METAR KATL 070152Z 00000KT 10SM FEW030 OVC045 09/06 A2997 RMK AO2 SLP151 T00940056=
201211070052 METAR KATL 070052Z 00000KT 10SM BKN038 OVC050 10/03 A2996 RMK AO2 SLP146 T01000033=
201211062352 METAR KATL 062352Z 10003KT 10SM BKN038 OVC050 10/04 A2995 RMK AO2 SLP143 T01000044 10100 20094 51004=
201211062252 METAR KATL 062252Z 08006KT 10SM BKN034 OVC050 09/04 A2994 RMK AO2 SLP138 T00940039=
201211062152 METAR KATL 062152Z 06004KT 10SM FEW022 SCT027 OVC030 10/04 A2995 RMK AO2 SLP142 T01000039=
201211062059 SPECI KATL 062059Z 07008KT 10SM FEW022 BKN027 OVC030 10/04 A2994 RMK AO2=
201211062052 METAR KATL 062052Z 06008KT 10SM FEW022 SCT027 OVC030 10/04 A2994 RMK AO2 SLP139 T01000044 55001=
201211062022 SPECI KATL 062022Z 08007KT 10SM FEW020 SCT025 OVC030 10/04 A2993 RMK AO2=
201211061954 SPECI KATL 061954Z 09007KT 10SM SCT020 BKN027 OVC034 10/06 A2992 RMK AO2=
201211061952 METAR KATL 061952Z 10006KT 10SM FEW023 SCT027 OVC034 10/05 A2992 RMK AO2 SLP134 T01000050=
201211061947 SPECI KATL 061947Z 09008KT 10SM FEW020 SCT027 OVC034 10/05 A2992 RMK AO2=
201211061852 METAR KATL 061852Z 07008KT 10SM FEW023 BKN027 OVC030 09/05 A2994 RMK AO2 SLP139 T00940050=
201211061759 SPECI KATL 061759Z 08012G19KT 10SM BKN016 BKN020 BKN040 09/06 A2995 RMK AO2=
201211061752 METAR KATL 061752Z 08016KT 10SM BKN014 BKN020 BKN040 09/06 A2995 RMK AO2 SLP141 60073 T00940056 10111 20083 58012=
201211061745 SPECI KATL 061745Z 07014KT 10SM BKN014 BKN023 BKN040 10/06 A2995 RMK AO2=
201211061726 SPECI KATL 061726Z 10014G21KT 10SM FEW014 BKN023 BKN042 09/06 A2995 RMK AO2=
201211061654 SPECI KATL 061654Z 09015KT 9SM SCT009 OVC016 09/06 A2997 RMK AO2=
201211061652 METAR KATL 061652Z 09013KT 7SM BKN009 BKN014 OVC030 09/07 A2997 RMK AO2 RAE14 SLP149 P0000 T00890067=
201211061604 SPECI KATL 061604Z 08013KT 6SM -RA BR BKN009 BKN014 OVC030 09/07 A2997 RMK AO2 P0000=
201211061552 METAR KATL 061552Z 08014KT 6SM -RA BR SCT009 BKN014 OVC022 08/07 A2997 RMK AO2 SLP150 P0012 T00830067=
201211061533 SPECI KATL 061533Z 08014KT 4SM -RA BR SCT009 BKN014 OVC048 08/07 A2998 RMK AO2 P0012=
201211061452 METAR KATL 061452Z 06014KT 3SM +RA BR BKN007 BKN012 OVC030 08/07 A2998 RMK AO2 SLP153 P0017 60061 T00830067 53025=
201211061414 SPECI KATL 061414Z 06014G20KT 3SM RA BR BKN007 BKN018 OVC028 09/07 A2997 RMK AO2 P0006=
201211061352 METAR KATL 061352Z 07012KT 2 1/2SM RA BR BKN009 BKN018 OVC024 09/07 A2996 RMK AO2 PK WND 06027/1300 SLP145 OCNL LTGIC DSNT SW & W P0020 T00890072=
201211061331 SPECI KATL 061331Z 07015KT 3SM RA BR SCT007 BKN011 OVC026 08/07 A2995 RMK AO2 PK WND 06027/1300 P0015=
201211061319 SPECI KATL 061319Z 06018G25KT 3SM RA BR FEW007 SCT011 OVC023 08/07 A2994 RMK AO2 PK WND 06027/1300 P0011=
201211061308 SPECI KATL 061308Z 07018G27KT 2SM +RA BR FEW005 BKN009 OVC023 09/07 A2994 RMK AO2 PK WND 06027/1300 P0007=
201211061258 SPECI KATL 061258Z 07021KT 2 1/2SM +RA BR SCT006 BKN010 OVC023 09/07 A2993 RMK AO2 VIS 1 3/4V4 P0003=
201211061252 METAR KATL 061252Z 07019G24KT 4SM RA BR BKN006 BKN025 OVC030 09/08 A2993 RMK AO2 SLP135 OCNL LTGIC DSNT W P0024 T00890078=
201211061152 METAR KATL 061152Z 11008KT 4SM RA BR BKN006 BKN014 OVC020 10/09 A2990 RMK AO2 SLP126 P0010 60049 70053 T01000089 10111 20100 55001=
201211061147 SPECI KATL 061147Z 11008KT 4SM -RA BR BKN006 BKN013 OVC018 10/09 A2990 RMK AO2 P0008=
201211061125 SPECI KATL 061125Z 10008G15KT 6SM RA BR SCT004 BKN010 OVC065 10/09 A2991 RMK AO2 P0003=
201211061112 SPECI KATL 061112Z 10011G17KT 6SM -RA BR SCT007 BKN033 OVC070 10/09 A2990 RMK AO2 P0002=
201211061052 METAR KATL 061052Z 10014G17KT 5SM -RA BR BKN007 OVC012 10/09 A2991 RMK AO2 SLP127 P0017 T01000089=
201211061032 SPECI KATL 061032Z 10011G19KT 6SM -RA BR BKN008 BKN036 OVC042 10/09 A2991 RMK AO2 P0015=
201211061018 SPECI KATL 061018Z 11017G21KT 4SM RA BR FEW008 OVC038 10/09 A2991 RMK AO2 P0012=
201211061004 SPECI KATL 061004Z 11017G23KT 2 1/2SM +RA BR SCT004 BKN030 OVC040 10/09 A2991 RMK AO2 VIS 1 3/4V5 P0006=
201211060952 METAR KATL 060952Z 12009KT 6SM -RA BR BKN004 OVC041 11/09 A2991 RMK AO2 SLP126 P0004 T01060094=
201211060852 METAR KATL 060852Z 11006KT 6SM -RA BR BKN004 OVC048 10/09 A2992 RMK AO2 SLP131 P0001 60018 T01000094 58010=
201211060807 SPECI KATL 060807Z 14004KT 6SM -RA BR BKN006 OVC060 10/09 A2993 RMK AO2 P0000=
201211060752 METAR KATL 060752Z 00000KT 5SM -RA BR BKN010 OVC060 10/09 A2994 RMK AO2 SLP135 P0004 T01000089=
201211060732 SPECI KATL 060732Z 19003KT 6SM -RA BR FEW008 BKN013 OVC049 10/09 A2995 RMK AO2 P0003=
201211060701 SPECI KATL 060701Z 00000KT 6SM -RA BR SCT018 BKN024 OVC047 10/09 A2995 RMK AO2 P0001=
201211060652 METAR KATL 060652Z 16003KT 4SM RA BR FEW020 BKN039 OVC049 10/09 A2996 RMK AO2 SLP143 P0013 T01000089=
201211060552 METAR KATL 060552Z 00000KT 9SM -RA BKN055 OVC070 11/08 A2995 RMK AO2 SLP141 P0003 60004 T01110078 10150 20111 55009=
201211060452 METAR KATL 060452Z 13006KT 9SM -RA OVC055 12/07 A2995 RMK AO2 SLP139 P0001 T01220072 401780044=
201211060352 METAR KATL 060352Z 11005KT 10SM -RA BKN065 OVC080 14/05 A2997 RMK AO2 RAB37 SLP146 P0000 T01390050=
201211060252 METAR KATL 060252Z 08004KT 10SM FEW050 SCT065 OVC085 14/04 A2998 RMK AO2 SLP151 T01390044 58000=
201211060152 METAR KATL 060152Z 00000KT 10SM FEW095 BKN110 OVC150 14/04 A2999 RMK AO2 SLP155 T01440044=
201211060052 METAR KATL 060052Z 00000KT 10SM BKN120 BKN150 OVC200 14/04 A2998 RMK AO2 SLP154 T01440039 $=
201211052352 METAR KATL 052352Z 00000KT 10SM SCT140 BKN200 OVC250 14/03 A2998 RMK AO2 SLP154 T01440033 10178 20144 53002=
201211052252 METAR KATL 052252Z 18004KT 10SM BKN150 OVC200 14/03 A2998 RMK AO2 SLP152 VIRGA DSNT SW-W T01440033=
201211052152 METAR KATL 052152Z 16003KT 10SM BKN150 BKN180 BKN250 16/02 A2997 RMK AO2 SLP149 T01560022=
201211052052 METAR KATL 052052Z 15003KT 10SM BKN150 BKN180 BKN250 17/01 A2998 RMK AO2 SLP151 T01670011 56017=
201211051952 METAR KATL 051952Z 00000KT 10SM FEW150 BKN200 BKN250 18/01 A2999 RMK AO2 SLP153 T01780006=
201211051852 METAR KATL 051852Z VRB03KT 10SM FEW150 BKN200 BKN250 18/02 A3001 RMK AO2 SLP160 T01780017=
201211051752 METAR KATL 051752Z 08003KT 10SM FEW150 SCT200 BKN250 16/02 A3003 RMK AO2 SLP168 T01610022 10167 20044 58017=
201211051652 METAR KATL 051652Z 00000KT 10SM FEW150 SCT200 BKN250 16/03 A3006 RMK AO2 SLP178 T01610028=
201211051552 METAR KATL 051552Z 08005KT 10SM FEW150 SCT250 14/03 A3008 RMK AO2 SLP186 T01440033=
201211051452 METAR KATL 051452Z 01004KT 10SM FEW150 SCT250 12/03 A3008 RMK AO2 SLP186 T01220028 50004=
201211051352 METAR KATL 051352Z 34006KT 10SM FEW250 09/03 A3009 RMK AO2 SLP189 T00890028=
201211051252 METAR KATL 051252Z 33008KT 10SM FEW250 06/02 A3008 RMK AO2 SLP188 T00610022=
201211051152 METAR KATL 051152Z 32008KT 10SM FEW250 04/02 A3007 RMK AO2 SLP184 T00440022 10078 20044 53011=
201211051052 METAR KATL 051052Z 34004KT 10SM CLR 05/02 A3006 RMK AO2 SLP179 T00500022=
201211050952 METAR KATL 050952Z 32006KT 10SM CLR 06/02 A3004 RMK AO2 SLP173 T00560022=
201211050852 METAR KATL 050852Z 34006KT 10SM CLR 06/03 A3003 RMK AO2 SLP170 T00610028 50000=
201211050752 METAR KATL 050752Z 32008KT 10SM CLR 06/03 A3004 RMK AO2 SLP171 T00610028=
201211050652 METAR KATL 050652Z 32011KT 10SM CLR 07/03 A3004 RMK AO2 SLP172 T00720033=
201211050552 METAR KATL 050552Z 33009KT 10SM CLR 08/03 A3003 RMK AO2 SLP169 T00780033 10156 20078 53001=
201211050452 METAR KATL 050452Z 31011KT 10SM CLR 09/04 A3003 RMK AO2 SLP167 T00940039 402220094=
201211050352 METAR KATL 050352Z 33011KT 10SM FEW220 11/04 A3003 RMK AO2 SLP165 T01110039=
201211050252 METAR KATL 050252Z 33008KT 10SM FEW220 12/05 A3003 RMK AO2 SLP166 T01220050 53007=
201211050152 METAR KATL 050152Z 32010KT 10SM SCT220 13/07 A3002 RMK AO2 SLP164 T01330072=
201211050052 METAR KATL 050052Z 31013KT 10SM SCT220 14/07 A3001 RMK AO2 SLP160 T01440072=
201211042352 METAR KATL 042352Z 31010KT 10SM FEW030 SCT250 16/08 A3001 RMK AO2 SLP159 60000 T01560083 10200 20156 53005=
201211042252 METAR KATL 042252Z 31007G15KT 9SM SCT030 SCT250 17/10 A3000 RMK AO2 SLP155 T01670100=
201211042152 METAR KATL 042152Z 30007KT 10SM SCT028 SCT120 BKN250 18/12 A2999 RMK AO2 SLP151 T01830117=
201211042052 METAR KATL 042052Z 28008KT 10SM FEW023 BKN030 BKN120 18/12 A2999 RMK AO2 SLP153 60000 T01830117 56005=
201211042022 SPECI KATL 042022Z 29009KT 10SM SCT025 BKN110 18/12 A2999 RMK AO2=
201211041952 METAR KATL 041952Z 29010KT 10SM BKN021 BKN110 OVC200 18/13 A3000 RMK AO2 RAE02 SLP154 P0000 T01830128=
201211041938 SPECI KATL 041938Z 31008KT 10SM BKN021 BKN100 OVC200 18/13 A2999 RMK AO2 RAE02 P0000=
201211041852 METAR KATL 041852Z 29007KT 10SM -RA FEW030 BKN085 OVC200 18/12 A3000 RMK AO2 RAB15 SLP152 P0000 T01830122=
201211041752 METAR KATL 041752Z 31011G15KT 10SM FEW030 BKN075 BKN090 20/12 A3001 RMK AO2 RAB23E49 SLP157 P0000 60000 T02000122 10222 20139 58008=
201211041652 METAR KATL 041652Z 29013G21KT 10SM SCT025 BKN080 OVC250 22/11 A3002 RMK AO2 SLP161 T02170111=
201211041552 METAR KATL 041552Z 30012KT 10SM FEW025 SCT070 BKN250 21/13 A3003 RMK AO2 SLP163 T02060128=
201211041452 METAR KATL 041452Z 29010KT 10SM SCT150 BKN250 19/13 A3004 RMK AO2 SLP166 T01890128 50007=
201211041352 METAR KATL 041352Z 26005KT 10SM SCT150 BKN250 18/12 A3004 RMK AO2 SLP167 T01780122=
201211041252 METAR KATL 041252Z 29005KT 10SM FEW150 BKN250 14/12 A3003 RMK AO2 SLP166 T01390117=
201211041152 METAR KATL 041152Z 27005KT 10SM SCT150 BKN250 14/11 A3001 RMK AO2 SLP158 T01390111 10189 20139 53003=
201211041052 METAR KATL 041052Z 23006KT 10SM CLR 15/12 A3001 RMK AO2 SLP155 T01500117=
201211040952 METAR KATL 040952Z 23005KT 10SM FEW150 15/11 A3001 RMK AO2 SLP154 T01500111=
201211040852 METAR KATL 040852Z 22003KT 10SM FEW070 SCT140 15/11 A3000 RMK AO2 SLP154 T01500111 58010=
201211040752 METAR KATL 040752Z 27005KT 10SM FEW120 17/12 A3003 RMK AO2 SLP160 T01670117=
201211040652 METAR KATL 040652Z 30011KT 10SM SCT085 SCT120 19/12 A3004 RMK AO2 SLP164 T01890117=
201211040552 METAR KATL 040552Z 24005KT 10SM FEW120 17/11 A3004 RMK AO2 SLP164 T01720111 10222 20161 53001=
201211040452 METAR KATL 040452Z 24004KT 10SM FEW120 17/11 A3003 RMK AO2 SLP164 T01720106 402720094=
201211040352 METAR KATL 040352Z 24006KT 10SM CLR 18/11 A3003 RMK AO2 SLP164 T01830106=
201211040252 METAR KATL 040252Z 24005KT 10SM CLR 18/10 A3003 RMK AO2 SLP164 T01830100 53004=
201211040152 METAR KATL 040152Z 24003KT 10SM CLR 19/09 A3003 RMK AO2 SLP164 T01890094=
201211040052 METAR KATL 040052Z 25005KT 10SM CLR 22/09 A3002 RMK AO2 SLP164 T02170094=
201211032352 METAR KATL 032352Z 25005KT 10SM CLR 22/10 A3002 RMK AO2 SLP162 T02220100 10272 20222 55000=
201211032252 METAR KATL 032252Z 23004KT 10SM FEW050 23/11 A3002 RMK AO2 SLP161 T02330106=
201211032152 METAR KATL 032152Z VRB04KT 10SM FEW050 26/11 A3001 RMK AO2 SLP158 T02610106=
201211032052 METAR KATL 032052Z 24006KT 10SM FEW050 26/11 A3002 RMK AO2 SLP161 T02610106 56018=
201211031952 METAR KATL 031952Z 00000KT 10SM FEW050 26/11 A3003 RMK AO2 SLP165 T02610106=
201211031852 METAR KATL 031852Z 29005KT 10SM FEW050 26/10 A3006 RMK AO2 SLP173 T02560100=
201211031752 METAR KATL 031752Z 30008KT 10SM CLR 26/10 A3008 RMK AO2 SLP179 T02560100 10256 20094 58016=
201211031652 METAR KATL 031652Z 21007KT 10SM CLR 23/07 A3010 RMK AO2 SLP188 T02280067=
201211031552 METAR KATL 031552Z 31004KT 10SM CLR 21/04 A3012 RMK AO2 SLP195 T02110039=
201211031452 METAR KATL 031452Z 29003KT 10SM FEW250 18/04 A3013 RMK AO2 SLP197 T01780039 51016=
201211031352 METAR KATL 031352Z 30003KT 10SM CLR 14/03 A3012 RMK AO2 SLP197 T01440033=
201211031252 METAR KATL 031252Z 00000KT 10SM FEW250 11/04 A3011 RMK AO2 SLP193 T01110044=
201211031152 METAR KATL 031152Z 00000KT 10SM FEW250 11/03 A3008 RMK AO2 SLP183 T01060028 10128 20100 53015=
201211031052 METAR KATL 031052Z 31004KT 10SM CLR 10/03 A3006 RMK AO2 SLP177 T01000033=
201211030952 METAR KATL 030952Z 30003KT 10SM CLR 11/03 A3005 RMK AO2 SLP170 T01110033=
201211030852 METAR KATL 030852Z 29003KT 10SM CLR 12/04 A3003 RMK AO2 SLP166 T01170044 50001=
201211030752 METAR KATL 030752Z 30005KT 10SM CLR 12/06 A3004 RMK AO2 SLP166 T01170056=
201211030652 METAR KATL 030652Z 30006KT 10SM CLR 12/07 A3003 RMK AO2 SLP165 T01220067=
201211030552 METAR KATL 030552Z 31007KT 10SM CLR 13/07 A3003 RMK AO2 SLP165 T01280072 10194 20128 50006=
201211030452 METAR KATL 030452Z 31008KT 10SM SCT250 14/08 A3003 RMK AO2 SLP165 T01390078 402500078=
201211030352 METAR KATL 030352Z 30006KT 10SM SCT250 15/08 A3002 RMK AO2 SLP161 T01500078=
201211030252 METAR KATL 030252Z 29004KT 10SM BKN250 16/08 A3001 RMK AO2 SLP159 T01610078 51014=
201211030152 METAR KATL 030152Z 28003KT 10SM SCT250 17/08 A3000 RMK AO2 SLP157 T01720078=
201211030052 METAR KATL 030052Z 28005KT 10SM FEW250 18/08 A2998 RMK AO2 SLP150 T01780078=
201211022352 METAR KATL 022352Z 27005KT 10SM FEW250 19/08 A2997 RMK AO2 SLP146 T01940078 10250 20194 53012=
201211022252 METAR KATL 022252Z 26006KT 10SM SCT250 21/07 A2995 RMK AO2 SLP140 T02110072=
201211022152 METAR KATL 022152Z 27010KT 10SM SCT250 23/06 A2994 RMK AO2 SLP135 T02280061=
201211022052 METAR KATL 022052Z 28011G19KT 10SM SCT250 24/06 A2993 RMK AO2 SLP131 T02390061 56010=
201211021952 METAR KATL 021952Z 28013G18KT 10SM SCT250 24/06 A2993 RMK AO2 SLP132 T02440061=
201211021852 METAR KATL 021852Z 26008G17KT 10SM SCT250 23/06 A2995 RMK AO2 SLP137 T02330061=
201211021752 METAR KATL 021752Z 28014G22KT 10SM FEW060 SCT250 23/06 A2996 RMK AO2 SLP144 T02280061 10233 20083 58019=
201211021652 METAR KATL 021652Z 27009G16KT 10SM SCT250 21/07 A2999 RMK AO2 SLP153 T02110067=
201211021552 METAR KATL 021552Z 26014G20KT 10SM SCT250 19/06 A3001 RMK AO2 SLP161 T01940056=
201211021452 METAR KATL 021452Z 28010KT 10SM FEW250 17/04 A3002 RMK AO2 SLP165 T01670039 50008=
201211021352 METAR KATL 021352Z 24007KT 10SM FEW250 13/03 A3002 RMK AO2 SLP167 T01280028=
201211021252 METAR KATL 021252Z 25004KT 10SM FEW180 SCT250 11/02 A3001 RMK AO2 SLP162 T01060022=
201211021152 METAR KATL 021152Z 24003KT 10SM FEW250 09/01 A3000 RMK AO2 SLP158 T00940011 10111 20078 53007=
201211021052 METAR KATL 021052Z 24005KT 10SM FEW110 09/01 A2999 RMK AO2 SLP156 T00890011=
201211020952 METAR KATL 020952Z 24003KT 10SM FEW110 09/00 A2998 RMK AO2 SLP151 T00890000=
201211020852 METAR KATL 020852Z 25003KT 10SM BKN110 11/M01 A2998 RMK AO2 SLP149 T01061006 58005=
201211020752 METAR KATL 020752Z 28005KT 10SM OVC110 11/M02 A2999 RMK AO2 SLP152 T01061017=
201211020652 METAR KATL 020652Z 27003KT 10SM BKN110 09/M03 A2998 RMK AO2 SLP152 T00941033=
201211020552 METAR KATL 020552Z 24004KT 10SM SCT110 08/M05 A2999 RMK AO2 SLP155 T00831050 10122 20083 50001=
201211020452 METAR KATL 020452Z 24003KT 10SM FEW110 09/M06 A3000 RMK AO2 SLP158 T00891056 401780028=
201211020352 METAR KATL 020352Z 25004KT 10SM CLR 11/M06 A2999 RMK AO2 SLP157 T01061061=
201211020252 METAR KATL 020252Z 29005KT 10SM CLR 11/M07 A2999 RMK AO2 SLP155 T01061067 51006=
201211020152 METAR KATL 020152Z 29006KT 10SM CLR 11/M07 A2998 RMK AO2 SLP155 T01061067=
201211020052 METAR KATL 020052Z 29007KT 10SM CLR 12/M08 A2998 RMK AO2 SLP155 T01171078=
201211012352 METAR KATL 012352Z 29006KT 10SM CLR 12/M08 A2997 RMK AO2 SLP152 T01171083 10178 20117 51013=
201211012252 METAR KATL 012252Z 29005KT 10SM CLR 13/M09 A2996 RMK AO2 SLP146 T01331089=
201211012152 METAR KATL 012152Z 29008KT 10SM CLR 17/M08 A2994 RMK AO2 SLP140 T01671083=
201211012052 METAR KATL 012052Z 29012G19KT 10SM CLR 17/M09 A2993 RMK AO2 SLP135 T01721089 56012=
201211011952 METAR KATL 011952Z 29011KT 10SM CLR 18/M09 A2993 RMK AO2 SLP137 T01781089=
201211011852 METAR KATL 011852Z 31011KT 10SM FEW250 17/M09 A2994 RMK AO2 SLP141 T01671089=
201211011752 METAR KATL 011752Z 31012G20KT 10SM FEW250 16/M10 A2997 RMK AO2 SLP148 T01561100 10156 20028 58013=
201211011652 METAR KATL 011652Z 30013G20KT 10SM FEW250 14/M09 A2999 RMK AO2 SLP154 T01441094=
201211011552 METAR KATL 011552Z 32014KT 10SM CLR 12/M08 A3001 RMK AO2 SLP163 T01221078=
201211011452 METAR KATL 011452Z 32014KT 10SM FEW250 10/M06 A3000 RMK AO2 SLP162 T01001056 51017=
201211011352 METAR KATL 011352Z 31011KT 10SM CLR 08/M04 A2999 RMK AO2 SLP159 T00781044=
201211011252 METAR KATL 011252Z 29009KT 10SM CLR 06/M04 A2997 RMK AO2 SLP151 T00561044=
