##########################################################
# Query made at 04/19/2024 23:28:20 UTC
# Time interval: from 07/01/2012 12:00  to 07/31/2012 12:59  UTC
##########################################################

##########################################################
# KATL, Atlanta, Hartsfield - Jackson Atlanta International Airport (United States)
# WMO index: 72219. WIGOS ID: 0-20000-0-72219
# Latitude 33-38-59N. Longitude 084-25-00W. Altitude 312 m.
##########################################################

201207311252 METAR KATL 311252Z 27008KT 10SM BKN150 OVC250 25/20 A2998 RMK AO2 SLP139 T02500200=
201207311152 METAR KATL 311152Z 29005KT 10SM FEW050 BKN150 OVC250 25/21 A2996 RMK AO2 SLP133 T02500211 10272 20250 53008=
201207311052 METAR KATL 311052Z 27007KT 8SM BKN120 BKN150 BKN200 25/21 A2995 RMK AO2 SLP129 T02500211=
201207310952 METAR KATL 310952Z 26008KT 10SM SCT055 OVC140 26/21 A2994 RMK AO2 SLP126 T02610211=
201207310852 METAR KATL 310852Z 23007KT 10SM BKN150 26/20 A2994 RMK AO2 SLP124 T02560200 55010=
201207310752 METAR KATL 310752Z 22005KT 10SM BKN150 25/19 A2992 RMK AO2 SLP119 T02500189=
201207310652 METAR KATL 310652Z 17009KT 10SM BKN120 27/19 A2994 RMK AO2 SLP124 T02670189=
201207310552 METAR KATL 310552Z 16007KT 10SM SCT095 BKN110 27/18 A2997 RMK AO2 SLP135 T02720183 10333 20272 58007=
201207310452 METAR KATL 310452Z 15005KT 10SM FEW090 SCT110 28/19 A2999 RMK AO2 SLP142 T02830194 403560217=
201207310352 METAR KATL 310352Z 12003KT 10SM SCT090 BKN110 29/19 A2999 RMK AO2 SLP144 T02940194=
201207310252 METAR KATL 310252Z 12003KT 10SM BKN085 BKN110 31/18 A2999 RMK AO2 SLP142 T03060183 53013=
201207310152 METAR KATL 310152Z 10003KT 10SM FEW090 BKN120 BKN200 31/15 A2997 RMK AO2 SLP135 T03110150=
201207310052 METAR KATL 310052Z 32007KT 10SM SCT085 BKN120 BKN200 32/16 A2995 RMK AO2 SLP130 T03170156=
201207302352 METAR KATL 302352Z 36006KT 10SM BKN120 BKN150 33/14 A2995 RMK AO2 SLP129 ACC OHD-SW T03280139 10356 20328 53001=
201207302252 METAR KATL 302252Z 33008KT 10SM FEW150 34/14 A2994 RMK AO2 SLP125 T03440139=
201207302152 METAR KATL 302152Z 29007KT 10SM FEW080 35/14 A2993 RMK AO2 SLP123 T03500139=
201207302052 METAR KATL 302052Z 35006KT 10SM FEW080 SCT150 SCT250 35/14 A2994 RMK AO2 SLP128 CB DSNT E TCU DSNT NE T03500139 56018=
201207301952 METAR KATL 301952Z VRB05G15KT 10SM FEW080 SCT250 35/14 A2996 RMK AO2 SLP133 CB DSNT NE TCU DSNT SE T03500139=
201207301852 METAR KATL 301852Z VRB05G17KT 10SM FEW070 SCT250 34/13 A2998 RMK AO2 SLP139 T03390133=
201207301752 METAR KATL 301752Z 30008G16KT 10SM FEW060 SCT150 33/15 A3000 RMK AO2 SLP147 T03330150 10339 20222 58007=
201207301652 METAR KATL 301652Z 33008KT 10SM FEW050 SCT150 33/17 A3002 RMK AO2 SLP153 TCU DSNT NW T03280167=
201207301552 METAR KATL 301552Z VRB05KT 10SM FEW040 31/18 A3002 RMK AO2 SLP154 T03060183 $=
201207301452 METAR KATL 301452Z 30005KT 10SM FEW040 29/18 A3002 RMK AO2 SLP154 T02940183 51005=
201207301352 METAR KATL 301352Z 02003KT 10SM FEW150 27/18 A3002 RMK AO2 SLP154 T02720178=
201207301252 METAR KATL 301252Z 33004KT 10SM CLR 24/18 A3002 RMK AO2 SLP153 T02440178=
201207301152 METAR KATL 301152Z 31008KT 10SM FEW150 22/18 A3000 RMK AO2 SLP149 T02220178 10239 20217 51013=
201207301052 METAR KATL 301052Z 30006KT 10SM FEW150 SCT250 22/17 A3000 RMK AO2 SLP146 T02170172=
201207300952 METAR KATL 300952Z 00000KT 10SM SCT150 22/17 A2998 RMK AO2 SLP141 T02170172=
201207300852 METAR KATL 300852Z 31005KT 10SM FEW150 23/17 A2996 RMK AO2 SLP134 T02280172 55005=
201207300752 METAR KATL 300752Z 32004KT 10SM FEW250 23/17 A2996 RMK AO2 SLP133 T02280172=
201207300652 METAR KATL 300652Z 31007KT 10SM SCT150 SCT200 23/17 A2996 RMK AO2 SLP134 T02330172=
201207300552 METAR KATL 300552Z 31006KT 10SM SCT200 24/17 A2998 RMK AO2 SLP140 T02390172 10306 20239 58006=
201207300452 METAR KATL 300452Z 32007KT 10SM FEW150 SCT200 25/17 A2999 RMK AO2 SLP144 T02500167 403440239=
201207300352 METAR KATL 300352Z 32004KT 10SM SCT150 BKN250 27/16 A3000 RMK AO2 SLP147 T02670161=
201207300252 METAR KATL 300252Z 34006KT 10SM BKN250 28/15 A3000 RMK AO2 SLP145 T02830150 51003=
201207300152 METAR KATL 300152Z 34006KT 10SM FEW150 BKN250 29/15 A3000 RMK AO2 SLP145 T02890150=
201207300052 METAR KATL 300052Z 35006KT 10SM FEW065 SCT250 29/16 A3000 RMK AO2 SLP147 T02940156=
201207292352 METAR KATL 292352Z 33009KT 10SM FEW065 SCT250 31/16 A2999 RMK AO2 SLP143 T03060161 10344 20306 53006=
201207292252 METAR KATL 292252Z 34011G21KT 10SM FEW065 SCT250 31/16 A2998 RMK AO2 SLP140 T03110161=
201207292152 METAR KATL 292152Z 35016G20KT 10SM FEW065 BKN250 33/15 A2998 RMK AO2 SLP139 T03280150=
201207292052 METAR KATL 292052Z 35011G15KT 10SM FEW070 BKN250 34/16 A2997 RMK AO2 SLP136 T03390156 56021=
201207291952 METAR KATL 291952Z 32012G16KT 10SM FEW070 BKN250 34/13 A2999 RMK AO2 SLP143 T03440133=
201207291852 METAR KATL 291852Z 28007G15KT 250V310 10SM FEW060 BKN250 33/15 A3001 RMK AO2 SLP149 T03330150=
201207291752 METAR KATL 291752Z 32009KT 10SM FEW060 33/16 A3004 RMK AO2 SLP158 T03280156 10328 20250 58008=
201207291652 METAR KATL 291652Z 31009G17KT 10SM FEW060 32/16 A3005 RMK AO2 SLP162 T03220161=
201207291552 METAR KATL 291552Z 31004KT 10SM FEW045 SCT250 31/18 A3006 RMK AO2 SLP166 T03060178 $=
201207291452 METAR KATL 291452Z 34006KT 10SM FEW250 30/20 A3006 RMK AO2 SLP167 T03000200 51009 $=
201207291352 METAR KATL 291352Z VRB04KT 10SM FEW060 28/21 A3005 RMK AO2 SLP164 T02830211 $=
201207291252 METAR KATL 291252Z 33007KT 10SM SCT060 26/22 A3005 RMK AO2 SLP162 T02610217 $=
201207291152 METAR KATL 291152Z 33003KT 10SM FEW070 24/22 A3003 RMK AO2 SLP158 60012 70012 T02440222 10278 20239 53007 $=
201207291052 METAR KATL 291052Z 32004KT 10SM FEW060 24/22 A3002 RMK AO2 SLP151 TCU DSNT SE T02390222 $=
201207290952 METAR KATL 290952Z 32003KT 10SM FEW090 25/22 A3001 RMK AO2 RAB0859E11 SLP148 P0000 T02500217 $=
201207290852 METAR KATL 290852Z 33005KT 10SM SCT060 BKN080 BKN110 25/22 A3001 RMK AO2 SLP149 60012 T02500222 56003 $=
201207290752 METAR KATL 290752Z 01004KT 10SM BKN050 BKN065 OVC080 26/22 A3001 RMK AO2 RAB14E48 SLP150 P0012 T02560217 $=
201207290652 METAR KATL 290652Z 34006KT 10SM BKN048 OVC110 27/21 A3001 RMK AO2 SLP147 T02720206 $=
201207290552 METAR KATL 290552Z 33007KT 10SM SCT050 BKN110 28/21 A3002 RMK AO2 SLP153 T02780206 10328 20278 55003 $=
201207290452 METAR KATL 290452Z 31003KT 10SM FEW060 SCT120 SCT250 28/21 A3002 RMK AO2 SLP152 T02830206 403610228 $=
201207290352 METAR KATL 290352Z 33005KT 10SM FEW060 SCT250 28/20 A3002 RMK AO2 SLP154 T02830200 $=
201207290252 METAR KATL 290252Z 31006KT 10SM FEW060 SCT250 29/20 A3003 RMK AO2 SLP156 T02940200 51012 $=
201207290152 METAR KATL 290152Z 32006KT 10SM FEW060 SCT250 30/19 A3002 RMK AO2 SLP154 T03000194 $=
201207290052 METAR KATL 290052Z 29005KT 10SM FEW060 SCT250 31/18 A3000 RMK AO2 SLP147 CB DSNT NE T03060183 $=
201207282352 METAR KATL 282352Z 28007KT 10SM FEW060 SCT250 33/17 A2999 RMK AO2 SLP144 T03280172 10361 20328 55004 $=
201207282252 METAR KATL 282252Z 27007KT 10SM FEW060 SCT250 34/18 A2999 RMK AO2 SLP142 T03440183 $=
201207282152 METAR KATL 282152Z 30008KT 10SM SCT060 SCT100 SCT250 36/19 A3000 RMK AO2 SLP144 MDT CU OHD T03560189 $=
201207282052 METAR KATL 282052Z VRB04KT 10SM FEW060 35/18 A3000 RMK AO2 SLP147 CB DSNT NE T03500178 56017 $=
201207281952 METAR KATL 281952Z 00000KT 10SM FEW060 35/18 A3002 RMK AO2 SLP153 T03500183 $=
201207281852 METAR KATL 281852Z VRB05KT 10SM FEW050 34/19 A3003 RMK AO2 SLP158 T03440194 $=
201207281752 METAR KATL 281752Z 33009KT 10SM FEW045 33/20 A3006 RMK AO2 SLP166 T03330200 10339 20233 58006 $=
201207281652 METAR KATL 281652Z 35011G19KT 10SM SCT042 33/20 A3007 RMK AO2 SLP171 T03280200 $=
201207281552 METAR KATL 281552Z 34009G15KT 10SM FEW040 32/20 A3007 RMK AO2 SLP172 T03170200 $=
201207281452 METAR KATL 281452Z 31007KT 10SM FEW250 29/21 A3008 RMK AO2 SLP173 T02940211 51000 $=
201207281352 METAR KATL 281352Z 30006KT 10SM FEW150 SCT250 27/21 A3007 RMK AO2 SLP173 T02670211 $=
201207281252 METAR KATL 281252Z 30007KT 10SM SCT150 SCT250 25/21 A3008 RMK AO2 SLP177 T02500206 $=
201207281152 METAR KATL 281152Z 29008KT 10SM BKN150 BKN250 23/21 A3007 RMK AO2 SLP175 70003 T02330206 10244 20228 53014 $=
201207281052 METAR KATL 281052Z 30006KT 10SM BKN150 BKN250 23/20 A3005 RMK AO2 SLP167 T02330200 $=
201207280952 METAR KATL 280952Z 30008KT 10SM BKN150 OVC250 23/20 A3004 RMK AO2 SLP162 T02330200 $=
201207280852 METAR KATL 280852Z 30007KT 10SM BKN150 OVC250 24/21 A3003 RMK AO2 SLP158 T02390206 53002 $=
201207280752 METAR KATL 280752Z 29007KT 10SM BKN150 BKN250 24/21 A3002 RMK AO2 SLP156 T02390206 $=
201207280652 METAR KATL 280652Z 30007KT 10SM SCT150 BKN250 24/22 A3002 RMK AO2 SLP154 T02390217 $=
201207280552 METAR KATL 280552Z 28004KT 10SM FEW120 SCT150 OVC200 24/22 A3003 RMK AO2 SLP156 T02440217 10256 20244 51002 $=
201207280452 METAR KATL 280452Z 25003KT 10SM FEW100 BKN150 OVC200 25/22 A3003 RMK AO2 SLP156 T02500217 403610244 $=
201207280352 METAR KATL 280352Z 24003KT 10SM FEW100 BKN150 OVC200 25/22 A3003 RMK AO2 SLP157 T02500217 $=
201207280252 METAR KATL 280252Z 00000KT 10SM FEW100 BKN150 OVC200 25/22 A3002 RMK AO2 SLP154 T02500217 53008 $=
201207280152 METAR KATL 280152Z 22004KT 10SM FEW150 BKN200 OVC250 25/22 A3000 RMK AO2 SLP148 T02500217 $=
201207280052 METAR KATL 280052Z 20003KT 10SM SCT150 BKN200 OVC250 25/21 A2999 RMK AO2 SLP146 T02500211 $=
201207272352 METAR KATL 272352Z 19008KT 10SM FEW100 SCT150 BKN200 OVC250 26/22 A3000 RMK AO2 RAE03 SLP147 P0000 60003 T02560217 10361 20256 52011=
201207272252 METAR KATL 272252Z 24006KT 10SM -RA FEW045 SCT110 BKN150CB OVC200 28/20 A2999 RMK AO2 RAB52 SLP146 OCNL LTG DSNT SE CBMAM SE TCU DSNT E P0000 T02780200=
201207272152 METAR KATL 272152Z 25005KT 10SM FEW045 SCT070 BKN150CB BKN200 29/23 A2996 RMK AO2 SLP135 FRQ LTGICCG DSNT SE-SW CBMAM OHD-SW T02940228=
201207272052 METAR KATL 272052Z 31007KT 10SM FEW050 SCT150 BKN200 32/22 A2996 RMK AO2 RAE35 SLP134 FRQ LTGICCG DSNT SE-S & SW TCU DSNT N-NE P0000 60003 T03220217 55010=
201207271952 METAR KATL 271952Z 28011G18KT 10SM -RA FEW050CB SCT060TCU BKN090 BKN200 27/23 A2996 RMK AO2 WSHFT 1920 TSB08E36RAB29 SLP133 VIS LWR S-SW-W SHRA TS DSIPT CB S-SW-W MOV SE TCU NE-E-SE P0003 T02720228=
201207271936 SPECI KATL 271936Z 36013G23KT 10SM BKN050CB BKN060 BKN250 32/18 A2996 RMK AO2 WSHFT 1920 TSB08E36RAB29E36 TS DSIPT CB E & W MOV SE SHRA E & W P0000=
201207271931 SPECI KATL 271931Z 36016G23KT 7SM -TSRA BKN050CB BKN060 BKN250 32/19 A2996 RMK AO2 TSB08RAB29 OCNL LTGICCG OHD-N-NE & W-NW TS OHD-N-NE & W-NW MOV SE CB DSNT NE P0000=
201207271925 SPECI KATL 271925Z 36017G22KT 10SM TS BKN050CB BKN060 BKN250 34/21 A2997 RMK AO2 TSB08 OCNL LTGICCG N-NE & W-NW TS N-NE & W-NW MOV SE CB DSNT NE SHRA N-NE & W-NW=
201207271915 SPECI KATL 271915Z 26009G14KT 10SM TS FEW050CB SCT060TCU SCT250 36/19 A2996 RMK AO2 TSB08 OCNL LTGICCG W-NW-N TS W-NW-N MOV E TCU ALQDS CB DSNT NE SHRA DSNT NE & W-NW-N=
201207271908 SPECI KATL 271908Z 28007KT 230V300 10SM TS FEW050CB SCT060TCU SCT250 35/19 A2996 RMK AO2 TSB08 OCNL LTGICCG NW-N TS NW-N MOV E TCU ALQDS SHRA NW-N=
201207271852 METAR KATL 271852Z VRB06G14KT 10SM FEW050CB SCT060TCU SCT250 35/19 A2997 RMK AO2 SLP135 CB N-NE MOV E TCU NE & NW SHRA N-NE T03500194=
201207271752 METAR KATL 271752Z 24007G15KT 10SM FEW040CB SCT045TCU SCT250 33/21 A2999 RMK AO2 SLP144 CB SE-S MOV E CB DSNT E & W & N TCU E & SW-W T03280206 10344 20250 58012=
201207271652 METAR KATL 271652Z 30012G17KT 10SM FEW035CB BKN040TCU BKN250 32/21 A3001 RMK AO2 SLP149 CB SE MOV E CB DSNT SW & NW TCU ALQDS SHRA SE T03220211=
201207271552 METAR KATL 271552Z 29005KT 10SM BKN030TCU BKN250 32/22 A3003 RMK AO2 SLP155 TCU ALQDS T03220217=
201207271452 METAR KATL 271452Z 30006G14KT 10SM SCT025 SCT250 31/22 A3003 RMK AO2 SLP157 TCU DSNT NE & DSNT NW T03060222 51012=
201207271352 METAR KATL 271352Z 28007KT 10SM FEW020 SCT150 SCT250 29/22 A3002 RMK AO2 SLP153 T02940222=
201207271252 METAR KATL 271252Z 23006KT 10SM FEW150 SCT180 SCT250 26/22 A3001 RMK AO2 SLP150 T02610222=
201207271152 METAR KATL 271152Z 22006KT 10SM SCT150 BKN180 BKN250 25/22 A2999 RMK AO2 SLP144 T02500222 10261 20250 53009=
201207271052 METAR KATL 271052Z 23004KT 10SM SCT150 BKN200 26/22 A2997 RMK AO2 SLP137 T02560217=
201207270952 METAR KATL 270952Z 28006KT 10SM FEW015 BKN150 BKN200 25/22 A2997 RMK AO2 SLP134 T02500217=
201207270852 METAR KATL 270852Z 28009KT 10SM BKN150 BKN250 26/22 A2997 RMK AO2 SLP134 T02560217 56004=
201207270752 METAR KATL 270752Z 26004KT 10SM BKN130 BKN250 26/22 A2998 RMK AO2 SLP137 T02560217=
201207270652 METAR KATL 270652Z 23009G14KT 10SM BKN150 BKN250 25/22 A2997 RMK AO2 SLP135 T02500217=
201207270552 METAR KATL 270552Z 21006KT 10SM FEW150 BKN250 26/21 A2998 RMK AO2 SLP138 60000 T02610211 10333 20256 53007=
201207270452 METAR KATL 270452Z 28009KT 10SM FEW150 BKN250 27/21 A2996 RMK AO2 SLP132 OCNL LTG DSNT NW-N T02670211 403670250=
201207270352 METAR KATL 270352Z 25009KT 10SM FEW050 BKN200 26/21 A2996 RMK AO2 RAE0254 SLP132 OCNL LTG DSNT N & NW P0000 T02610211=
201207270252 METAR KATL 270252Z 23008G15KT 10SM -RA FEW025 SCT055 BKN200 26/20 A2996 RMK AO2 PK WND 21030/0226 TSB25E47RAB42 SLP132 P0000 60000 T02610200 52013=
201207270247 SPECI KATL 270247Z 22010G19KT 10SM -RA FEW025 SCT055 BKN200 27/20 A2996 RMK AO2 PK WND 21030/0226 TSB25E47RAB42 TS DSIPTD P0000=
201207270225 SPECI KATL 270225Z 23019G28KT 10SM TS SCT055CB BKN200 29/20 A2997 RMK AO2 PK WND 21028/0225 TSB25 OCNL LTGICCG SW TS VC SW MOV NE=
201207270152 METAR KATL 270152Z COR 21010KT 10SM SCT250 31/21 A2995 RMK AO2 SLP129 OCNL LTG DSNT SE T03060211=
201207270052 METAR KATL 270052Z 25007KT 10SM FEW055 BKN250 32/21 A2993 RMK AO2 SLP121 TCU DSNT E-SE T03220211=
201207262352 METAR KATL 262352Z 26008KT 10SM SCT060TCU SCT250 33/21 A2992 RMK AO2 SLP118 TCU OHD-E T03330211 10367 20333 55006=
201207262252 METAR KATL 262252Z 29007KT 10SM FEW065TCU SCT250 35/20 A2991 RMK AO2 SLP116 TCU S & DSNT W-NW T03500200=
201207262152 METAR KATL 262152Z VRB05KT 10SM FEW065 SCT250 36/19 A2992 RMK AO2 SLP119 TCU DSNT S-SW T03560194=
201207262052 METAR KATL 262052Z 32007KT 10SM FEW065 SCT250 36/20 A2994 RMK AO2 SLP123 CB DSNT W TCU DSNT NE & NW T03610200 56015=
201207261952 METAR KATL 261952Z 28004KT 10SM SCT060 35/20 A2995 RMK AO2 SLP129 TCU DSNT W T03500200=
201207261852 METAR KATL 261852Z 29010G14KT 10SM SCT055 36/19 A2997 RMK AO2 SLP133 TCU DSNT NW T03560194=
201207261752 METAR KATL 261752Z VRB05G14KT 10SM SCT047 35/19 A2998 RMK AO2 SLP139 T03500194 10350 20267 58009=
201207261652 METAR KATL 261652Z 28009G14KT 10SM SCT045 34/21 A3000 RMK AO2 SLP145 T03440206=
201207261552 METAR KATL 261552Z 30007KT 10SM FEW035 33/21 A3001 RMK AO2 SLP149 T03280206=
201207261452 METAR KATL 261452Z 29009KT 10SM FEW035 32/22 A3001 RMK AO2 SLP149 T03170217 50007=
201207261352 METAR KATL 261352Z 31009KT 10SM CLR 31/22 A3002 RMK AO2 SLP151 T03060217=
201207261252 METAR KATL 261252Z 32008KT 10SM CLR 28/21 A3001 RMK AO2 SLP150 T02830211=
201207261152 METAR KATL 261152Z 31008KT 10SM FEW200 27/21 A2999 RMK AO2 SLP142 T02670206 10294 20250 51013=
201207261052 METAR KATL 261052Z 28006KT 9SM FEW200 26/21 A2998 RMK AO2 SLP139 T02560206=
201207260952 METAR KATL 260952Z 28005KT 10SM CLR 26/21 A2996 RMK AO2 SLP133 T02560206=
201207260852 METAR KATL 260852Z 27004KT 10SM CLR 26/21 A2995 RMK AO2 SLP128 T02610206 55001=
201207260752 METAR KATL 260752Z 00000KT 10SM CLR 27/21 A2994 RMK AO2 SLP124 T02720206=
201207260652 METAR KATL 260652Z 01004KT 10SM CLR 29/20 A2994 RMK AO2 SLP124 T02890200=
201207260552 METAR KATL 260552Z 34004KT 10SM FEW200 28/21 A2995 RMK AO2 SLP129 T02830206 10333 20283 58006=
201207260452 METAR KATL 260452Z 30003KT 10SM FEW200 29/21 A2996 RMK AO2 SLP132 T02890211 403670244=
201207260352 METAR KATL 260352Z 28004KT 10SM SCT200 29/21 A2997 RMK AO2 SLP135 T02890206=
201207260252 METAR KATL 260252Z 29006KT 10SM SCT200 30/21 A2997 RMK AO2 SLP136 T03000206 51006=
201207260152 METAR KATL 260152Z 26005KT 10SM FEW150 31/21 A2997 RMK AO2 SLP136 T03110206=
201207260052 METAR KATL 260052Z 27007KT 10SM FEW060 BKN150 32/21 A2996 RMK AO2 SLP133 T03170206=
201207252352 METAR KATL 252352Z 27006KT 10SM FEW060 BKN150 33/21 A2995 RMK AO2 SLP130 T03330211 10367 20333 55005=
201207252252 METAR KATL 252252Z 30009KT 10SM FEW060 SCT150 34/21 A2995 RMK AO2 SLP129 T03440206=
201207252152 METAR KATL 252152Z 25007KT 220V310 10SM FEW060TCU SCT150 36/19 A2996 RMK AO2 SLP132 TCU SW T03560189=
201207252052 METAR KATL 252052Z 01006KT 10SM FEW060TCU SCT150 35/19 A2997 RMK AO2 SLP135 TCU SW T03500194 58014=
201207251952 METAR KATL 251952Z VRB06KT 10SM FEW060TCU SCT200 36/19 A2999 RMK AO2 SLP141 TCU W-NW T03610194=
201207251852 METAR KATL 251852Z VRB06KT 10SM FEW050 SCT200 SCT250 36/20 A3000 RMK AO2 SLP145 T03560200=
201207251752 METAR KATL 251752Z 32010KT 10SM SCT045 SCT250 34/19 A3001 RMK AO2 SLP149 T03390194 10344 20261 58009=
201207251652 METAR KATL 251652Z 36007G17KT 10SM SCT040 SCT250 34/21 A3002 RMK AO2 SLP152 T03390206=
201207251552 METAR KATL 251552Z 36012G18KT 10SM SCT035 SCT200 33/22 A3004 RMK AO2 SLP159 T03330217=
201207251452 METAR KATL 251452Z 33008KT 10SM FEW030 SCT200 SCT250 31/22 A3004 RMK AO2 SLP158 T03110222 50001=
201207251352 METAR KATL 251352Z 32007KT 10SM FEW200 SCT250 29/22 A3005 RMK AO2 SLP163 T02940222=
201207251252 METAR KATL 251252Z 29008KT 10SM FEW150 SCT250 28/22 A3005 RMK AO2 SLP164 T02780217=
201207251152 METAR KATL 251152Z 31009KT 10SM FEW150 SCT250 26/22 A3003 RMK AO2 SLP157 T02610217 10272 20244 53017=
201207251052 METAR KATL 251052Z 29006KT 10SM FEW150 SCT250 24/21 A3001 RMK AO2 SLP151 T02440211=
201207250952 METAR KATL 250952Z 29006KT 10SM FEW250 24/21 A2999 RMK AO2 SLP144 T02440211=
201207250852 METAR KATL 250852Z 29005KT 10SM CLR 26/21 A2998 RMK AO2 SLP140 T02560211 56008=
201207250752 METAR KATL 250752Z 30005KT 10SM CLR 26/21 A2998 RMK AO2 SLP140 T02610211=
201207250652 METAR KATL 250652Z 31005KT 10SM CLR 27/21 A2999 RMK AO2 SLP143 T02670211=
201207250552 METAR KATL 250552Z 32006KT 10SM CLR 27/21 A3001 RMK AO2 SLP148 T02720211 10328 20272 55007=
201207250452 METAR KATL 250452Z 30007KT 10SM FEW250 28/21 A2999 RMK AO2 SLP142 T02780211 403610244=
201207250352 METAR KATL 250352Z 29007KT 10SM FEW250 28/21 A2999 RMK AO2 SLP144 T02780211=
201207250252 METAR KATL 250252Z 30006KT 10SM FEW250 29/21 A3003 RMK AO2 SLP156 T02940211 50013=
201207250152 METAR KATL 250152Z 29006KT 10SM FEW250 29/21 A3003 RMK AO2 SLP156 T02890211=
201207250052 METAR KATL 250052Z 28005KT 10SM FEW250 31/21 A3000 RMK AO2 SLP146 T03110206=
201207242352 METAR KATL 242352Z 30009KT 10SM FEW060 33/19 A2999 RMK AO2 SLP143 T03280194 10361 20328 55008=
201207242252 METAR KATL 242252Z 30008KT 10SM FEW060 34/19 A2999 RMK AO2 SLP142 T03390194=
201207242152 METAR KATL 242152Z 31009G16KT 10SM FEW060 34/19 A3000 RMK AO2 SLP146 T03440189=
201207242052 METAR KATL 242052Z 29012G17KT 10SM SCT060 36/19 A3002 RMK AO2 SLP151 CB DSNT S TCU DSNT SW T03560189 56017=
201207241952 METAR KATL 241952Z 32010KT 10SM SCT055 SCT200 35/19 A3003 RMK AO2 SLP157 CB DSNT S T03500194=
201207241852 METAR KATL 241852Z 30011G18KT 10SM SCT060 34/19 A3005 RMK AO2 SLP162 T03440194=
201207241752 METAR KATL 241752Z 28008KT 10SM SCT050 34/19 A3007 RMK AO2 SLP169 T03390194 10344 20261 56017=
201207241652 METAR KATL 241652Z 28011G16KT 10SM FEW050 34/20 A3009 RMK AO2 SLP175 T03390200=
201207241552 METAR KATL 241552Z 32012KT 10SM FEW045 32/21 A3010 RMK AO2 SLP179 T03220206=
201207241452 METAR KATL 241452Z VRB06KT 10SM FEW035 32/22 A3012 RMK AO2 SLP186 T03170217 58000=
201207241352 METAR KATL 241352Z 32005KT 10SM CLR 29/21 A3012 RMK AO2 SLP188 T02940211=
201207241252 METAR KATL 241252Z 30008KT 10SM CLR 28/21 A3013 RMK AO2 SLP191 T02780211=
201207241152 METAR KATL 241152Z 31007KT 10SM CLR 27/21 A3012 RMK AO2 SLP187 T02670211 10267 20244 51008=
201207241052 METAR KATL 241052Z 27003KT 10SM CLR 25/21 A3012 RMK AO2 SLP185 T02500211 $=
201207240952 METAR KATL 240952Z 31005KT 10SM CLR 25/22 A3011 RMK AO2 SLP182 T02500217=
201207240852 METAR KATL 240852Z 32007KT 10SM CLR 25/22 A3009 RMK AO2 SLP179 T02500217 56009=
201207240752 METAR KATL 240752Z 31005KT 10SM CLR 26/22 A3010 RMK AO2 SLP180 T02560217=
201207240652 METAR KATL 240652Z 27003KT 10SM CLR 26/22 A3011 RMK AO2 SLP181 T02610217=
201207240552 METAR KATL 240552Z 28003KT 10SM CLR 27/21 A3012 RMK AO2 SLP187 T02670211 10317 20256 58007=
201207240452 METAR KATL 240452Z 27003KT 10SM FEW050 SCT250 26/21 A3013 RMK AO2 SLP191 T02610211 403610228=
201207240352 METAR KATL 240352Z 00000KT 10SM FEW050 SCT250 27/21 A3014 RMK AO2 SLP193 T02670211=
201207240252 METAR KATL 240252Z 00000KT 10SM SCT055 BKN250 28/21 A3015 RMK AO2 SLP195 T02780211 52010=
201207240152 METAR KATL 240152Z 21006KT 10SM SCT055 BKN250 28/22 A3013 RMK AO2 SLP192 CB DSNT NE-E T02830217=
201207240052 METAR KATL 240052Z 19005KT 10SM FEW050TCU SCT250 30/21 A3013 RMK AO2 SLP190 TCU NE-E & DSNT NW-NE T03000211=
201207232352 METAR KATL 232352Z 23005KT 10SM SCT050TCU BKN250 32/22 A3011 RMK AO2 SLP186 TCU N-NE & DSNT NE-E T03170222 10361 20311 55005=
201207232252 METAR KATL 232252Z 21006KT 10SM FEW055 SCT200 BKN250 33/19 A3011 RMK AO2 SLP183 CB DSNT NE TCU DSNT NW-N T03330189=
201207232152 METAR KATL 232152Z 19007KT 10SM FEW055TCU SCT070 BKN200 33/18 A3011 RMK AO2 WSHFT 2046 TSE23 SLP186 CB DSNT SE & SW TCU NE-SE & NW-N T03330178=
201207232123 SPECI KATL 232123Z 17005KT 10SM SCT050TCU SCT070 BKN200 32/20 A3012 RMK AO2 WSHFT 2046 TSE23 TS DSIPTD CB DSNT SE & SW TCU N-E-SE & W-NW=
201207232102 SPECI KATL 232102Z 20010G22KT 10SM TS FEW050CB BKN060TCU BKN200 32/19 A3013 RMK AO2 WSHFT 2046 OCNL LTGICCG SE-S TS VC SE-S MOV S SHRA VC SE-S TCU OHD & ALQDS=
201207232052 METAR KATL 232052Z 19015G23KT 10SM TS FEW050CB BKN060TCU BKN200 33/19 A3013 RMK AO2 TSB35 SLP191 OCNL LTGICCG SE-S TS VC SE-S MOV S SHRA VC SE-S TCU OHD & ALQDS T03280194 56018=
201207232035 SPECI KATL 232035Z 01006KT 10SM TS FEW055CB BKN060TCU BKN200 35/19 A3012 RMK AO2 TSB35 OCNL LTGICCG SE-S TS VC SE-S MOV SE SHRA VC SE-S TCU OHD-E-SE-S-SW=
201207232023 SPECI KATL 232023Z 36003KT 10SM FEW055CB SCT060TCU 36/18 A3012 RMK AO2 CB SE MOV STNRY CB DSNT S TCU SE-S-SW SHRA SE & DSNT S=
201207231952 METAR KATL 231952Z VRB05KT 10SM SCT060TCU 36/19 A3014 RMK AO2 SLP192 CB DSNT S TCU ALQDS SHRA DSNT S T03560194=
201207231852 METAR KATL 231852Z VRB03KT 10SM SCT060TCU 36/18 A3016 RMK AO2 SLP199 TCU E-SE-S-SW T03610183=
201207231752 METAR KATL 231752Z 32008KT 10SM SCT050TCU 35/20 A3018 RMK AO2 SLP209 TCU E & W & NW T03500200 10350 20250 58016=
201207231652 METAR KATL 231652Z VRB03KT 10SM FEW050TCU 33/19 A3020 RMK AO2 SLP215 TCU NE T03330194=
201207231552 METAR KATL 231552Z 36005KT 10SM FEW045 SCT250 33/20 A3022 RMK AO2 SLP221 TCU DSNT SW & NW T03280200=
201207231452 METAR KATL 231452Z 35008KT 10SM FEW040 SCT100 31/21 A3023 RMK AO2 SLP225 T03060211 51001=
201207231352 METAR KATL 231352Z 32006KT 10SM FEW250 29/22 A3023 RMK AO2 SLP225 T02940217=
201207231252 METAR KATL 231252Z 00000KT 10SM FEW030 SCT180 27/21 A3024 RMK AO2 SLP227 T02720211=
201207231152 METAR KATL 231152Z 29004KT 10SM FEW030 SCT180 25/21 A3023 RMK AO2 SLP225 T02500211 10267 20228 52015=
201207231052 METAR KATL 231052Z 21004KT 10SM FEW150 SCT250 23/21 A3022 RMK AO2 SLP220 T02280206=
201207230952 METAR KATL 230952Z 00000KT 10SM CLR 23/21 A3020 RMK AO2 SLP216 T02280206=
201207230852 METAR KATL 230852Z 00000KT 10SM CLR 24/20 A3019 RMK AO2 SLP210 T02440200 53001=
201207230752 METAR KATL 230752Z 00000KT 10SM CLR 24/20 A3017 RMK AO2 SLP204 T02440200=
201207230652 METAR KATL 230652Z 15003KT 10SM CLR 26/20 A3016 RMK AO2 SLP202 T02560200=
201207230552 METAR KATL 230552Z 22003KT 10SM CLR 26/21 A3018 RMK AO2 SLP209 T02610206 10322 20261 58005=
201207230452 METAR KATL 230452Z 20004KT 10SM CLR 27/21 A3021 RMK AO2 SLP217 T02720206 403500228=
201207230352 METAR KATL 230352Z 00000KT 10SM CLR 28/21 A3021 RMK AO2 SLP217 T02780206=
201207230252 METAR KATL 230252Z 15003KT 10SM CLR 29/20 A3020 RMK AO2 SLP214 T02890200 51012=
201207230152 METAR KATL 230152Z 20003KT 10SM FEW250 29/19 A3019 RMK AO2 SLP211 T02940194=
201207230052 METAR KATL 230052Z 19004KT 10SM FEW055 SCT250 30/19 A3018 RMK AO2 SLP207 CB DSNT NE T03000189=
201207222352 METAR KATL 222352Z 23003KT 10SM FEW055 SCT250 32/18 A3016 RMK AO2 SLP202 SHRA NE T03220178 10350 20306 53002=
201207222252 METAR KATL 222252Z 30007KT 10SM SCT060 33/19 A3015 RMK AO2 SLP198 MDT CU N T03330189=
201207222152 METAR KATL 222152Z 27005KT 10SM SCT060 33/18 A3015 RMK AO2 SLP198 MDT CU NE T03280178=
201207222052 METAR KATL 222052Z 21006KT 10SM SCT055 33/18 A3016 RMK AO2 SLP201 T03330183 56015=
201207221952 METAR KATL 221952Z 28004KT 10SM SCT050 SCT065 33/18 A3017 RMK AO2 SLP204 T03280183=
201207221852 METAR KATL 221852Z 29007KT 10SM SCT049 SCT070 32/19 A3019 RMK AO2 SLP210 MDT CU NE T03220194=
201207221752 METAR KATL 221752Z 28004KT 10SM SCT040 SCT050 SCT150 31/20 A3020 RMK AO2 SLP216 T03110200 10322 20244 58006=
201207221652 METAR KATL 221652Z VRB03KT 10SM SCT036 SCT050 SCT150 31/21 A3022 RMK AO2 SLP221 MDT CU NE T03060206=
201207221552 METAR KATL 221552Z 20005KT 10SM SCT032 SCT150 29/21 A3022 RMK AO2 SLP224 T02890206=
201207221452 METAR KATL 221452Z VRB03KT 10SM FEW030 BKN150 BKN200 28/21 A3022 RMK AO2 SLP222 T02830211 51014=
201207221352 METAR KATL 221352Z 27003KT 10SM FEW020 SCT150 SCT200 27/22 A3021 RMK AO2 SLP218 T02670222 $=
201207221252 METAR KATL 221252Z 00000KT 10SM SCT150 BKN250 26/22 A3020 RMK AO2 SLP216 T02610217 $=
201207221152 METAR KATL 221152Z 00000KT 10SM SCT150 BKN250 24/22 A3018 RMK AO2 SLP208 70005 T02440217 10250 20228 53016 $=
201207221052 METAR KATL 221052Z 10SM BKN150 BKN250 23/21 A3015 RMK AO2 SLP199 T02330211 $=
201207220952 METAR KATL 220952Z 00000KT 10SM FEW250 24/21 A3014 RMK AO2 SLP194 T02390211=
201207220852 METAR KATL 220852Z 00000KT 10SM FEW180 24/21 A3013 RMK AO2 SLP191 T02390211 55003=
201207220752 METAR KATL 220752Z 26003KT 10SM FEW180 24/21 A3012 RMK AO2 SLP190 T02390211=
201207220652 METAR KATL 220652Z 00000KT 10SM SCT150 BKN180 24/22 A3013 RMK AO2 SLP193 T02440217=
201207220552 METAR KATL 220552Z 00000KT 10SM FEW060 BKN150 BKN180 25/22 A3014 RMK AO2 SLP195 T02500222 10283 20250 51009=
201207220452 METAR KATL 220452Z 00000KT 10SM FEW060 SCT150 BKN180 BKN250 26/23 A3014 RMK AO2 SLP194 T02560228 403220239=
201207220352 METAR KATL 220352Z 00000KT 10SM FEW060 SCT180 BKN250 26/23 A3013 RMK AO2 SLP191 T02560228=
201207220252 METAR KATL 220252Z 27005KT 10SM BKN048 BKN060 BKN250 27/22 A3011 RMK AO2 SLP185 T02670217 53014=
201207220216 SPECI KATL 220216Z 00000KT 10SM BKN044 BKN200 BKN250 28/21 A3010 RMK AO2=
201207220152 METAR KATL 220152Z 00000KT 10SM FEW150 BKN200 BKN250 28/21 A3009 RMK AO2 SLP178 T02780211=
201207220052 METAR KATL 220052Z 00000KT 10SM FEW055 BKN200 BKN250 27/23 A3007 RMK AO2 SLP171 T02720228=
201207212352 METAR KATL 212352Z 33003KT 10SM FEW055 SCT100 BKN150 BKN250 27/23 A3007 RMK AO2 TSE02 SLP172 TS DSIPT 60005 T02720228 10322 20267 53005=
201207212302 SPECI KATL 212302Z 27006KT 10SM FEW041 SCT110 BKN250 27/23 A3005 RMK AO2 TSE02 TS DSIPT=
201207212252 METAR KATL 212252Z 25004KT 10SM TS FEW037CB SCT075 SCT090 BKN250 28/23 A3005 RMK AO2 TSB29RAB2157E23 SLP165 OCNL LTGICCG NW TS NW MOV NE P0003 T02780228=
201207212230 SPECI KATL 212230Z 29007KT 10SM TS SCT037CB SCT075 BKN090 BKN250 27/24 A3005 RMK AO2 TSB29RAB2157E23 OCNL LTGICCG W-NW TS W-NW MOV NE P0003=
201207212152 METAR KATL 212152Z 21012KT 10SM FEW038TCU BKN060 BKN250 30/21 A3006 RMK AO2 SLP167 TCU SW-W SHRA SW-W T03000206=
201207212052 METAR KATL 212052Z 24010G19KT 10SM SCT040 BKN080 32/20 A3005 RMK AO2 SLP165 DSNT TCU NE-SE 60002 T03170200 58012=
201207211952 METAR KATL 211952Z 20010KT 10SM SCT040 BKN055 BKN080 31/21 A3007 RMK AO2 SLP171 TCU DSNT NE & W T03060211=
201207211852 METAR KATL 211852Z 23009KT 10SM SCT030 BKN040 30/22 A3008 RMK AO2 RAB1759E15 SLP175 MDT CU ALQDS P0002 T03000217=
201207211810 SPECI KATL 211810Z 21011KT 5SM -RA SCT027 BKN038 BKN047 28/23 A3009 RMK AO2 RAB1759 P0002=
201207211752 METAR KATL 211752Z 21011KT 10SM BKN027 BKN031 OVC041 28/22 A3009 RMK AO2 SLP178 TCU DSNT SW T02830217 10289 20239 55006=
201207211747 SPECI KATL 211747Z 22008KT 10SM BKN027 BKN031 OVC050 28/22 A3009 RMK AO2=
201207211652 METAR KATL 211652Z 25006KT 10SM FEW023 SCT031 BKN047 28/22 A3009 RMK AO2 SLP180 T02830217=
201207211635 SPECI KATL 211635Z 22008KT 10SM FEW021 BKN031 OVC038 28/22 A3010 RMK AO2=
201207211552 METAR KATL 211552Z 23008KT 8SM FEW016 OVC025 27/22 A3011 RMK AO2 SLP184 T02670217=
201207211452 METAR KATL 211452Z 24006KT 8SM BKN018 OVC022 27/22 A3009 RMK AO2 SLP180 T02670217 53014=
201207211426 SPECI KATL 211426Z 26006KT 7SM BKN015 OVC020 26/22 A3008 RMK AO2=
201207211359 SPECI KATL 211359Z 27006KT 9SM OVC011 26/22 A3007 RMK AO2=
201207211352 METAR KATL 211352Z 26008KT 6SM HZ BKN009 OVC011 26/22 A3007 RMK AO2 SLP171 T02560222=
201207211252 METAR KATL 211252Z 25009KT 6SM BR BKN007 BKN010 24/22 A3006 RMK AO2 SLP168 T02440222=
201207211152 METAR KATL 211152Z 24005KT 6SM BR BKN005 OVC015 24/22 A3005 RMK AO2 SLP166 T02390222 10250 20239 51011=
201207211052 METAR KATL 211052Z 22005KT 6SM BR BKN005 OVC015 24/22 A3005 RMK AO2 SLP166 T02390222=
201207210952 METAR KATL 210952Z 23009KT 6SM BR BKN005 OVC009 24/22 A3004 RMK AO2 SLP161 T02390222=
201207210852 METAR KATL 210852Z 22009KT 6SM BR OVC007 24/22 A3002 RMK AO2 SLP155 T02390222 55005=
201207210752 METAR KATL 210752Z 22009KT 6SM BR BKN007 OVC020 24/22 A3002 RMK AO2 SLP154 T02390222=
201207210652 METAR KATL 210652Z 21006KT 7SM FEW009 BKN018 BKN031 24/22 A3003 RMK AO2 SLP158 T02440222=
201207210552 METAR KATL 210552Z 18003KT 8SM BKN025 BKN045 BKN060 OVC250 25/23 A3004 RMK AO2 SLP160 T02500228 10272 20250 53003=
201207210535 SPECI KATL 210535Z 18003KT 8SM BKN025 BKN049 25/23 A3004 RMK AO2=
201207210452 METAR KATL 210452Z 00000KT 10SM BKN045 OVC070 26/23 A3004 RMK AO2 SLP161 FRQ LTG DSNT NE T02560228 402890233=
201207210352 METAR KATL 210352Z 20005KT 10SM BKN048 BKN070 BKN250 26/22 A3002 RMK AO2 SLP155 CONS LTG DSNT NE T02560222=
201207210252 METAR KATL 210252Z 22005KT 10SM SCT055 BKN080 BKN250 26/22 A3003 RMK AO2 SLP157 OCNL LTG DSNT NE T02610222 51005=
201207210152 METAR KATL 210152Z 22005KT 10SM FEW060 SCT080 BKN250 26/22 A3002 RMK AO2 SLP155 OCNL LTG DSNT N T02610222=
201207210052 METAR KATL 210052Z 27004KT 10SM FEW030 SCT070 SCT250 27/22 A3002 RMK AO2 SLP155 CB DSNT NE T02670217=
201207202352 METAR KATL 202352Z 24008KT 10SM FEW024 BKN032 BKN080 BKN200 28/22 A3001 RMK AO2 SLP151 CB DSNT N-NE T02780217 10289 20267 55001=
201207202252 METAR KATL 202252Z 22006KT 10SM SCT022 OVC030 27/22 A3000 RMK AO2 SLP148 BINOVC T02720217=
201207202152 METAR KATL 202152Z 24008KT 10SM SCT022 BKN030 BKN200 27/22 A3000 RMK AO2 SLP148 T02720217=
201207201952 METAR KATL 201952Z 21009G14KT 10SM FEW020 BKN028 BKN150 BKN200 27/22 A3002 RMK AO2 SLP156 T02720217=
201207201852 METAR KATL 201852Z COR 23007KT 10SM BKN024 BKN150 OVC200 27/22 A3003 RMK AO2 SLP157 T02720217=
201207201752 METAR KATL 201752Z 22007KT 10SM FEW018 SCT050 BKN150 OVC200 27/22 A3004 RMK AO2 SLP160 T02670217 10267 20233 55008=
201207201652 METAR KATL 201652Z 21008KT 7SM FEW015 SCT050 BKN150 BKN200 26/22 A3003 RMK AO2 SLP159 T02610222=
201207201509 SPECI KATL 201509Z 24008KT 5SM HZ FEW008 BKN010 OVC012 26/22 A3006 RMK AO2=
201207201452 METAR KATL 201452Z 24010G15KT 5SM HZ BKN008 OVC013 25/22 A3006 RMK AO2 SLP168 T02500217 50004=
201207201352 METAR KATL 201352Z 24007KT 5SM BR OVC008 24/22 A3007 RMK AO2 SLP173 T02390217=
201207201252 METAR KATL 201252Z 25007KT 5SM BR OVC006 24/22 A3006 RMK AO2 SLP167 T02390217=
201207201152 METAR KATL 201152Z 25005KT 5SM BR OVC008 24/22 A3005 RMK AO2 SLP164 T02390217 10256 20233 52004=
201207201059 SPECI KATL 201059Z 25005KT 7SM BKN008 BKN070 OVC250 23/21 A3004 RMK AO2=
201207201052 METAR KATL 201052Z 24005KT 8SM SCT008 BKN065 OVC250 23/21 A3004 RMK AO2 SLP160 T02330211=
201207200952 METAR KATL 200952Z 22005KT 10SM FEW025 BKN065 BKN250 24/21 A3004 RMK AO2 SLP162 T02390211=
201207200852 METAR KATL 200852Z 23007KT 10SM FEW025 SCT065 BKN250 24/21 A3004 RMK AO2 SLP159 T02390211 53005=
201207200812 SPECI KATL 200812Z 22008KT 10SM SCT025 BKN250 24/22 A3002 RMK AO2=
201207200752 METAR KATL 200752Z 23007KT 10SM BKN027 BKN250 24/22 A3002 RMK AO2 SLP154 T02440217=
201207200744 SPECI KATL 200744Z 23007KT 10SM BKN029 BKN250 24/22 A3002 RMK AO2=
201207200652 METAR KATL 200652Z 24007KT 10SM SCT250 25/22 A3002 RMK AO2 SLP153 T02500217=
201207200552 METAR KATL 200552Z 24006KT 10SM FEW250 26/21 A3002 RMK AO2 SLP153 T02560211 10306 20256 56013 $=
201207200452 METAR KATL 200452Z 22006KT 10SM FEW250 26/21 A3002 RMK AO2 SLP155 T02610211 403280217=
201207200352 METAR KATL 200352Z 23006KT 10SM SCT250 27/21 A3004 RMK AO2 SLP160 T02670211=
201207200252 METAR KATL 200252Z 21005KT 10SM FEW045 SCT250 27/21 A3006 RMK AO2 SLP168 T02720211 53016=
201207200152 METAR KATL 200152Z 21007KT 10SM SCT250 28/21 A3004 RMK AO2 SLP161 T02830211=
201207200052 METAR KATL 200052Z 21005KT 10SM FEW045 SCT250 29/21 A3002 RMK AO2 SLP154 T02940211=
201207192352 METAR KATL 192352Z 26008KT 10SM FEW045TCU SCT250 31/21 A3001 RMK AO2 SLP151 TCU NE-E T03060206 10328 20300 55007=
201207192252 METAR KATL 192252Z 26008KT 10SM SCT045TCU SCT250 32/20 A3000 RMK AO2 SLP149 TCU E-S-SW T03170200=
201207192152 METAR KATL 192152Z 27006KT 10SM SCT045 SCT250 32/19 A3002 RMK AO2 SLP153 T03170194=
201207192052 METAR KATL 192052Z VRB05KT 10SM FEW045TCU SCT250 33/20 A3003 RMK AO2 SLP158 CB DSNT S TCU S T03280200 56020=
201207191952 METAR KATL 191952Z 25008KT 220V290 10SM SCT050TCU 32/21 A3005 RMK AO2 SLP164 TCU N & NE & SE & SW T03220206=
201207191852 METAR KATL 191852Z 25006KT 10SM SCT040TCU SCT250 32/20 A3007 RMK AO2 SLP173 TCU NE-E-SE-S-SW T03170200=
201207191752 METAR KATL 191752Z 27008KT 10SM SCT035 SCT250 31/21 A3010 RMK AO2 SLP180 T03110211 10311 20228 58009=
201207191652 METAR KATL 191652Z 26007KT 10SM BKN030 BKN250 30/21 A3011 RMK AO2 SLP184 T03000211=
201207191552 METAR KATL 191552Z 24008KT 10SM FEW030 SCT110 BKN250 28/21 A3012 RMK AO2 SLP189 T02830206=
201207191452 METAR KATL 191452Z 26007KT 10SM FEW020 SCT110 BKN150 BKN250 27/22 A3012 RMK AO2 SLP191 T02720217 50005=
201207191352 METAR KATL 191352Z 30004KT 10SM FEW010 BKN110 BKN150 BKN250 25/22 A3012 RMK AO2 SLP192 T02500217=
201207191252 METAR KATL 191252Z 32004KT 9SM BKN100 BKN180 BKN250 24/22 A3012 RMK AO2 SLP190 T02440217=
201207191152 METAR KATL 191152Z 29005KT 9SM FEW003 BKN095 BKN180 BKN250 23/21 A3011 RMK AO2 SLP187 70004 T02280211 10228 20217 51022=
201207191052 METAR KATL 191052Z 26004KT 8SM SCT006 SCT080 SCT180 BKN250 22/21 A3010 RMK AO2 SLP183 T02220206=
201207191046 SPECI KATL 191046Z 27004KT 10SM FEW007 SCT080 SCT180 BKN250 22/21 A3010 RMK AO2=
201207190952 METAR KATL 190952Z 19003KT 10SM FEW180 BKN250 22/21 A3008 RMK AO2 SLP176 T02170206=
201207190852 METAR KATL 190852Z 20004KT 10SM FEW150 BKN250 22/21 A3004 RMK AO2 SLP163 T02220206 55011=
201207190752 METAR KATL 190752Z 23004KT 10SM FEW020 SCT150 BKN200 22/21 A3004 RMK AO2 SLP160 T02220206=
201207190652 METAR KATL 190652Z 22006KT 10SM FEW025 SCT150 BKN200 22/21 A3005 RMK AO2 SLP165 T02220211=
201207190613 SPECI KATL 190613Z 21005KT 10SM FEW005 SCT025 SCT080 SCT200 22/21 A3007 RMK AO2=
201207190552 METAR KATL 190552Z 19008KT 10SM SCT025 SCT080 SCT250 23/21 A3008 RMK AO2 SLP173 60001 T02280211 10239 20228 52002=
201207190452 METAR KATL 190452Z 19004KT 10SM FEW080 BKN250 23/22 A3008 RMK AO2 SLP174 T02280217 403390211=
201207190352 METAR KATL 190352Z 30005KT 10SM FEW070 BKN150 OVC200 23/21 A3007 RMK AO2 RAE12 SLP171 P0000 T02330211=
201207190252 METAR KATL 190252Z 32005KT 10SM -RA FEW070 BKN120 OVC150 23/21 A3007 RMK AO2 RAB20 SLP173 P0000 60001 T02330211 53015=
201207190152 METAR KATL 190152Z 23006KT 10SM SCT120 BKN150 OVC200 23/21 A3005 RMK AO2 RAE16 SLP167 P0000 T02330211=
201207190052 METAR KATL 190052Z 18007KT 10SM -RA FEW035 BKN120 OVC150 24/22 A3004 RMK AO2 RAE30B52 SLP163 OCNL LTG DSNT NW P0001 T02390217=
201207182352 METAR KATL 182352Z 19005KT 10SM -RA FEW035TCU BKN110 OVC150 24/22 A3003 RMK AO2 SLP159 OCNL LTG DSNT NW TCU SW-W P0003 60003 T02390217 10339 20233 53009=
201207182252 METAR KATL 182252Z 07003KT 9SM -RA FEW040 BKN120 OVC150 24/20 A3001 RMK AO2 TSE28RAE00B26 SLP152 OCNL LTG DSNT SE-SW P0000 T02440200=
201207182228 SPECI KATL 182228Z 11005KT 10SM -RA FEW040 SCT070 BKN140 OVC200 25/21 A3002 RMK AO2 TSE28RAE00B26 TS MOV SE OCNL LTGICCGCA DSNT SE & S-SW P0000=
201207182152 METAR KATL 182152Z 13007KT 10SM -TSRA FEW040CB SCT110 BKN150 BKN200 26/22 A3001 RMK AO2 SLP154 OCNL LTGICCGCA NE-SE & DSNT SW TS VC NE-SE & DSNT SW MOV SE P0000 T02560222=
201207182052 METAR KATL 182052Z 31004KT 9SM -TSRA FEW040CB BKN100 BKN120 BKN200 28/19 A3000 RMK AO2 PK WND 31030/2017 TSE34B46RAB43 SLP149 VIS LWR NE-E-SE SHRA FRQ LTGICCG NE-E-SE TS VC NE-E-SE MOV E P0000 60000 T02830189 55015=
201207182046 SPECI KATL 182046Z 29009G16KT 9SM -TSRA FEW040CB BKN100 BKN120 BKN200 28/18 A3000 RMK AO2 PK WND 31030/2017 TSE34B46RAB43 VIS LWR NE-E-SE SHRA FRQ LTGICCG NE-E-SE TS VC NE-E-SE MOV E P0000=
201207182035 SPECI KATL 182035Z 29014G23KT 10SM FEW040CB SCT050TCU BKN070 BKN200 28/19 A2999 RMK AO2 PK WND 31030/2017 TSE34 TS DSIPT CB W MOV E CB DSNT N-NE & DSNT S TCU NE-SE SHRA W & DSNT N-NE & DSNT S=
201207182014 SPECI KATL 182014Z 31024G29KT 10SM TS FEW045CB BKN050TCU BKN200 31/21 A3000 RMK AO2 PK WND 30029/2014 OCNL LTGICCG W TS W MOV E TCU OHD & ALQDS SHRA W=
201207181952 METAR KATL 181952Z 29007KT 10SM TS FEW040CB SCT050TCU BKN090 BKN250 33/21 A2999 RMK AO2 TSB50 SLP143 OCNL LTGICCG W-NW TS VC W-NW MOV SE SHRA VC W-NW CB DSNT N-NE TCU NE-SW T03330206=
201207181852 METAR KATL 181852Z 29004KT 10SM FEW038TCU SCT090 SCT250 32/22 A3003 RMK AO2 SLP158 CB DSNT N-NE & DSNT NW TCU N-NE-E T03170217=
201207181752 METAR KATL 181752Z 23006KT 10SM FEW040 SCT090 SCT250 32/22 A3005 RMK AO2 SLP163 CB DSNT N-NE T03220217 10322 20228 58012=
201207181652 METAR KATL 181652Z 35007G16KT 10SM FEW040 SCT055 SCT250 31/21 A3006 RMK AO2 SLP168 CB DSNT NW TCU DSNT NE T03060206=
201207181552 METAR KATL 181552Z 34007KT 10SM FEW030 SCT055 BKN090 BKN250 29/21 A3008 RMK AO2 SLP176 CB DSNT NW-N ACC DSNT NE T02890211=
201207181452 METAR KATL 181452Z 30009KT 10SM FEW020 SCT090 BKN250 27/21 A3008 RMK AO2 SLP176 CB DSNT E & NW TCU DSNT NE T02720211 50006=
201207181352 METAR KATL 181352Z 31007KT 10SM FEW080 BKN090 BKN250 26/21 A3009 RMK AO2 SLP179 CB DSNT NW-N T02560211=
201207181252 METAR KATL 181252Z 28005KT 9SM FEW035 SCT080 SCT150 BKN250 24/21 A3008 RMK AO2 SLP176 CB DSNT NW TCU DSNT SW T02390206=
201207181152 METAR KATL 181152Z 27005KT 10SM FEW060 SCT080 BKN150 BKN250 23/20 A3006 RMK AO2 SLP171 TCU DSNT SW 70001 T02280200 10228 20211 51019=
201207181052 METAR KATL 181052Z 00000KT 10SM FEW035 SCT150 BKN250 22/19 A3005 RMK AO2 SLP167 T02170194=
201207180952 METAR KATL 180952Z 30003KT 10SM FEW180 22/19 A3003 RMK AO2 SLP160 T02170194=
201207180852 METAR KATL 180852Z 26004KT 10SM SCT180 BKN250 22/19 A3001 RMK AO2 SLP152 T02170194 55005=
201207180752 METAR KATL 180752Z 27005KT 10SM FEW150 BKN200 22/19 A3000 RMK AO2 SLP149 T02170194=
201207180652 METAR KATL 180652Z 27005KT 10SM SCT150 21/19 A3001 RMK AO2 SLP152 T02110194=
201207180552 METAR KATL 180552Z 28005KT 10SM FEW120 SCT250 22/19 A3002 RMK AO2 SLP156 T02170194 10239 20217 55000=
201207180452 METAR KATL 180452Z 28006KT 10SM SCT080 BKN140 BKN250 22/19 A3002 RMK AO2 SLP155 T02220194 403390222=
201207180352 METAR KATL 180352Z 23005KT 10SM BKN150 BKN250 23/21 A3002 RMK AO2 SLP154 T02280206=
201207180252 METAR KATL 180252Z 21004KT 10SM FEW100 SCT150 BKN250 23/21 A3002 RMK AO2 SLP157 T02330206 51012=
201207180152 METAR KATL 180152Z 22006KT 10SM FEW150 OVC250 23/21 A3002 RMK AO2 SLP154 T02330211=
201207180052 METAR KATL 180052Z 20005KT 10SM FEW100 BKN200 OVC250 24/21 A3000 RMK AO2 SLP149 T02390211=
201207172352 METAR KATL 172352Z 24008KT 10SM FEW060 BKN200 OVC250 24/21 A2999 RMK AO2 SLP146 60001 T02390211 10339 20239 51008=
201207172252 METAR KATL 172252Z COR 21007KT 10SM FEW100 BKN150 OVC200 24/21 A2999 RMK AO2 RAE21 SLP145 P0001 T02440211=
201207172152 METAR KATL 172152Z 18006KT 10SM -RA FEW060 BKN110CB OVC150 26/21 A2998 RMK AO2 SLP143 CBMAM OHD P0000 T02610211=
201207172052 METAR KATL 172052Z 00000KT 10SM -RA FEW030 SCT060 BKN150 BKN200 27/20 A2997 RMK AO2 RAB50 SLP137 CBMAM DSNT S CB DSNT SE-S-SW-W-NW TCU DSNT NW P0000 60000 T02670200 58013=
201207171952 METAR KATL 171952Z 06008KT 10SM FEW030 SCT060 BKN150CB BKN200 29/21 A3001 RMK AO2 WSHFT 1840 TSE1858B12E42 SLP152 TS MOV S CBMAM OHD-NE-E CB DSNT SE-S-SW SHRA DSNT SE-S-SW T02890206=
201207171942 SPECI KATL 171942Z 33004KT 10SM FEW030CB SCT060 BKN150 BKN200 28/20 A3000 RMK AO2 WSHFT 1840 TSE1858B12E42 TS MOV S CBMAM DSNT NE-E CB W MOV S CB DSNT SE-S SHRA VC W & DSNT SE-S=
201207171929 SPECI KATL 171929Z 29006KT 10SM TS FEW040CB SCT060 BKN150 BKN200 29/19 A3000 RMK AO2 WSHFT 1840 TSE1858B12 OCNL LTGICCG SE TS VC SE MOV S SHRA VC SE & W CB W MOV S=
201207171913 SPECI KATL 171913Z 28007KT 10SM TS FEW030CB BKN060 BKN150 BKN200 29/20 A3000 RMK AO2 WSHFT 1840 TSE1858B12 OCNL LTGICCG S & W TS VC S & W MOV S SHRA VC S & W=
201207171858 SPECI KATL 171858Z 30011G18KT 10SM SCT045CB SCT060 BKN200 30/21 A2999 RMK AO2 WSHFT 1840 TSE58 TS DSIPT CB NE-E-SE-S & SW-NW MOV S SHRA SW-W=
201207171852 METAR KATL 171852Z 30013G18KT 10SM TS FEW045CB SCT055TCU BKN200 29/21 A2999 RMK AO2 TSB11 SLP144 OCNL LTGICCG W TS VC W MOV S SHRA VC W T02940206=
201207171836 SPECI KATL 171836Z 01012G15KT 10SM TS FEW050CB SCT060 BKN200 34/21 A2999 RMK AO2 TSB11 OCNL LTGICCG W TS VC W MOV S CB N-NE-E MOV S CB DSNT S SHRA VC N-NE-E & VC W=
201207171811 SPECI KATL 171811Z 31008KT 10SM TS FEW040CB BKN050TCU BKN200 32/21 A3000 RMK AO2 TSB11 FRQ LTGICCG NE TS VC NE MOV S CB W MOV S CB DSNT S TCU E-SE-S & W-NW-N SHRA VC NE & VC W=
201207171752 METAR KATL 171752Z VRB05KT 10SM FEW040TCU SCT120 SCT200 32/22 A3001 RMK AO2 SLP149 CB DSNT N-NE & DSNT S & DSNT W TCU NE & SE SHRA DSNT N-NE T03220217 10322 20239 58017=
201207171652 METAR KATL 171652Z 29004KT 10SM FEW040 SCT120 BKN150 BKN240 32/21 A3005 RMK AO2 SLP162 CB DSNT N & NE & S & W T03170211=
201207171552 METAR KATL 171552Z 28004KT 10SM FEW025 SCT120 BKN150 BKN240 29/22 A3006 RMK AO2 SLP166 TCU DSNT N T02940222=
201207171452 METAR KATL 171452Z 28003KT 10SM FEW120 BKN150 BKN240 28/22 A3006 RMK AO2 SLP167 CB DSNT N T02780222 51008=
201207171352 METAR KATL 171352Z 28003KT 10SM FEW120 BKN150 BKN240 27/22 A3005 RMK AO2 SLP165 T02670222=
201207171252 METAR KATL 171252Z 29004KT 10SM BKN150 BKN250 26/23 A3005 RMK AO2 SLP163 T02560228=
201207171152 METAR KATL 171152Z 23003KT 8SM BKN150 BKN250 24/22 A3003 RMK AO2 SLP159 70020 T02390222 10250 20233 50011=
201207171052 METAR KATL 171052Z 00000KT 6SM BR FEW015 SCT150 SCT250 24/23 A3004 RMK AO2 SLP160 T02390228=
201207170952 METAR KATL 170952Z 15004KT 10SM SCT150 24/23 A3001 RMK AO2 SLP153 T02390228=
201207170852 METAR KATL 170852Z 00000KT 10SM BKN150 24/23 A3000 RMK AO2 SLP149 T02440228 55009=
201207170752 METAR KATL 170752Z 00000KT 10SM BKN150 24/23 A3000 RMK AO2 SLP145 T02440228=
201207170652 METAR KATL 170652Z 00000KT 10SM FEW060 SCT150 24/23 A3001 RMK AO2 SLP149 T02440228=
201207170552 METAR KATL 170552Z 00000KT 10SM FEW150 SCT250 26/22 A3003 RMK AO2 SLP156 T02560222 10289 20256 58005=
201207170452 METAR KATL 170452Z 00000KT 10SM FEW150 SCT250 26/23 A3004 RMK AO2 SLP162 T02560228 403330233=
201207170352 METAR KATL 170352Z 30004KT 10SM FEW150 BKN250 26/23 A3004 RMK AO2 SLP162 T02610233 $=
201207170252 METAR KATL 170252Z 00000KT 10SM SCT150 BKN250 27/23 A3004 RMK AO2 SLP161 T02670233 53008=
201207170152 METAR KATL 170152Z 00000KT 10SM SCT150 BKN250 27/24 A3002 RMK AO2 SLP155 T02720239=
201207170052 METAR KATL 170052Z 00000KT 10SM FEW100 SCT200 BKN250 28/23 A3001 RMK AO2 SLP151 T02780228=
201207162352 METAR KATL 162352Z 00000KT 10SM FEW050 BKN200 BKN250 29/22 A3002 RMK AO2 RAE29 SLP154 P0000 60020 T02890222 10333 20250 55004=
201207162252 METAR KATL 162252Z 00000KT 10SM -RA FEW030 SCT100 BKN150 BKN200 28/23 A3001 RMK AO2 TSE40RAB2153E17B52 SLP153 CB DSNT E-SE & NW P0000 T02780233=
201207162240 SPECI KATL 162240Z 00000KT 10SM FEW030CB SCT100 BKN150 BKN200 28/23 A3001 RMK AO2 TSE40RAB2153E17 TS DSIPTD CB N-NE MOV S SHRA N-NE P0000=
201207162152 METAR KATL 162152Z 28004KT 10SM TS FEW030CB SCT060 BKN110 BKN200 26/23 A3002 RMK AO2 SLP155 OCNL LTGICCG N-NE TS N-NE MOV S T02610228=
201207162137 SPECI KATL 162137Z 00000KT 10SM TS FEW030CB SCT100 BKN150 BKN200 26/22 A3003 RMK AO2 OCNL LTGICCG N-NE & NW TS VC N-NE & NW MOV S=
201207162057 SPECI KATL 162057Z 27010G15KT 10SM TS FEW020CB BKN080 BKN100 BKN200 26/23 A3003 RMK AO2 FRQ LTGICCG OHD-S-SW-W TS OHD-S-SW-W MOV S=
201207162052 METAR KATL 162052Z VRB05KT 10SM TS FEW020CB BKN080 BKN100 BKN200 26/23 A3003 RMK AO2 PK WND 35028/2010 RAB03E38 SLP159 FRQ LTGICCG W TS W MOV S CB NE & DSNT E-SE & DSNT S SHRA NE & DSNT S & W P0020 60020 T02610228 56018=
201207162038 SPECI KATL 162038Z 18007KT 10SM TS FEW020CB BKN090 BKN200 26/22 A3003 RMK AO2 PK WND 35028/2010 RAB03E38 OCNL LTGICCG S TS S MOV S CB W MOV S SHRA S & W P0020 $=
201207162018 SPECI KATL 162018Z 33008G28KT 9SM R09R/4000VP6000FT -TSRA FEW020CB BKN050 BKN200 27/22 A3005 RMK AO2 PK WND 35028/2010 RAB03 OCNL LTGICCG OHD-SE-S TS OHD-SE-S MOV S P0011 $=
201207162007 SPECI KATL 162007Z VRB05KT 5SM TSRA BKN048CB BKN060 BKN200 31/20 A3005 RMK AO2 RAB03 FRQ LTGICCG OHD-N-NE-E TS OHD-N-NE-E MOV S P0000=
201207161952 METAR KATL 161952Z 15008KT 10SM TS FEW040CB BKN050TCU BKN200 31/21 A3004 RMK AO2 TSB51 SLP160 OCNL LTGICCG E TS E MOV S SHRA E TCU OHD & ALQDS T03060206=
201207161852 METAR KATL 161852Z 00000KT 10SM FEW050CB SCT060TCU BKN100 BKN200 32/19 A3006 RMK AO2 SLP166 CB SE MOV S CB DSNT W TCU N-NE-E & NW SHRA SE T03220189=
201207161840 SPECI KATL 161840Z 00000KT 10SM FEW050CB SCT060TCU BKN095 BKN200 33/19 A3006 RMK AO2 CB SE MOV S CB DSNT W TCU N-NE-E & NW SHRA SE=
201207161752 METAR KATL 161752Z VRB05KT 10SM FEW045CB SCT055TCU BKN065 BKN200 32/20 A3008 RMK AO2 SLP175 CB SW MOV S TCU S-SW-W & DSNT NW SHRA SW T03170200 10328 20244 58018=
201207161652 METAR KATL 161652Z 28007KT 10SM FEW040CB SCT050TCU SCT200 31/19 A3011 RMK AO2 SLP185 CB NW MOV S TCU N & E-SE-S-SW SHRA NW T03060194=
201207161552 METAR KATL 161552Z VRB04KT 10SM FEW040 BKN050 BKN200 31/19 A3013 RMK AO2 SLP191 T03060194=
201207161452 METAR KATL 161452Z 25005KT 10SM FEW030 SCT100 SCT200 29/21 A3014 RMK AO2 SLP193 T02940206 51003=
201207161352 METAR KATL 161352Z 23005KT 10SM FEW150 SCT200 28/21 A3013 RMK AO2 SLP192 T02830211=
201207161252 METAR KATL 161252Z 24005KT 10SM FEW150 SCT250 27/21 A3014 RMK AO2 SLP193 T02720206=
201207161152 METAR KATL 161152Z 00000KT 10SM FEW150 SCT250 24/21 A3013 RMK AO2 SLP191 T02440211 10261 20233 53010=
201207161052 METAR KATL 161052Z 00000KT 10SM FEW030 SCT150 SCT250 24/21 A3012 RMK AO2 SLP187 T02390206=
201207160952 METAR KATL 160952Z 09003KT 10SM FEW250 24/21 A3010 RMK AO2 SLP182 T02390206=
201207160852 METAR KATL 160852Z 00000KT 10SM FEW200 24/21 A3010 RMK AO2 SLP180 T02440206 56010=
201207160752 METAR KATL 160752Z 00000KT 10SM SCT200 24/21 A3010 RMK AO2 SLP182 T02440206=
201207160652 METAR KATL 160652Z 09003KT 10SM SCT180 25/21 A3012 RMK AO2 SLP187 T02500211=
201207160552 METAR KATL 160552Z 07004KT 10SM FEW180 26/21 A3013 RMK AO2 SLP190 T02560211 10300 20250 56007=
201207160452 METAR KATL 160452Z 06004KT 10SM FEW180 26/21 A3013 RMK AO2 SLP192 T02610211 403220233=
201207160352 METAR KATL 160352Z 00000KT 10SM SCT180 27/21 A3013 RMK AO2 SLP192 T02670206=
201207160252 METAR KATL 160252Z 01009KT 10SM FEW080 SCT180 28/21 A3015 RMK AO2 SLP198 T02780206 53015=
201207160152 METAR KATL 160152Z 33005KT 10SM FEW055 SCT250 28/22 A3013 RMK AO2 SLP194 T02780217=
201207160052 METAR KATL 160052Z 00000KT 10SM FEW080 SCT250 29/18 A3012 RMK AO2 SLP187 T02890183=
201207152352 METAR KATL 152352Z 17004KT 10SM FEW055 BKN250 30/18 A3010 RMK AO2 SLP183 T03000183 10322 20300 55006=
201207152252 METAR KATL 152252Z 00000KT 10SM FEW055 SCT250 32/17 A3010 RMK AO2 SLP181 T03170172=
201207152152 METAR KATL 152152Z 17005KT 10SM SCT055 SCT250 32/17 A3011 RMK AO2 SLP184 CB DSNT N & NW T03220172=
201207152052 METAR KATL 152052Z 14004KT 10SM FEW055 SCT250 31/17 A3012 RMK AO2 SLP188 CB DSNT NW-N T03110167 56023=
201207151952 METAR KATL 151952Z 13007G15KT 10SM SCT050 BKN250 31/18 A3013 RMK AO2 SLP192 T03110183=
201207151852 METAR KATL 151852Z VRB06KT 10SM SCT050 BKN250 31/19 A3015 RMK AO2 SLP198 CB DSNT NW T03110194=
201207151752 METAR KATL 151752Z 14008KT 10SM R09R/5500VP6000FT SCT040 31/20 A3019 RMK AO2 SLP212 TCU DSNT W T03060200 10311 20239 58015=
201207151652 METAR KATL 151652Z 13005KT 10SM R09R/5500VP6000FT BKN032TCU BKN050 30/22 A3021 RMK AO2 SLP220 TCU W-N T03000217=
201207151613 SPECI KATL 151613Z 12007KT 10SM SCT028TCU 29/22 A3023 RMK AO2 TCU N=
201207151552 METAR KATL 151552Z 14007KT 10SM BKN025 BKN045 29/22 A3023 RMK AO2 SLP226 T02890217=
201207151452 METAR KATL 151452Z 20004KT 10SM BKN020 BKN034 27/22 A3024 RMK AO2 SLP228 T02670217 51016=
201207151412 SPECI KATL 151412Z VRB05KT 10SM SCT019 BKN250 27/22 A3023 RMK AO2=
201207151352 METAR KATL 151352Z 16005KT 10SM BKN018 BKN250 27/22 A3023 RMK AO2 SLP226 T02670217=
201207151252 METAR KATL 151252Z 17007KT 10SM SCT025 SCT250 25/21 A3021 RMK AO2 SLP220 T02500211=
201207151152 METAR KATL 151152Z 14003KT 10SM FEW040 SCT250 24/22 A3019 RMK AO2 SLP210 T02390217 10250 20233 53013=
201207151052 METAR KATL 151052Z 12004KT 7SM FEW015 SCT047 BKN250 23/22 A3017 RMK AO2 SLP205 T02330217=
201207150952 METAR KATL 150952Z 14004KT 10SM FEW015 SCT047 23/22 A3016 RMK AO2 SLP200 T02330217=
201207150852 METAR KATL 150852Z 14004KT 10SM FEW015 24/22 A3015 RMK AO2 SLP197 T02390217 55004=
201207150752 METAR KATL 150752Z 13005KT 10SM FEW040 24/22 A3014 RMK AO2 SLP195 T02440217=
201207150652 METAR KATL 150652Z 12005KT 10SM SCT031 SCT120 24/21 A3015 RMK AO2 SLP199 T02440211=
201207150552 METAR KATL 150552Z 13004KT 10SM FEW050 SCT120 25/22 A3016 RMK AO2 SLP201 60000 T02500217 10311 20244 58006=
201207150452 METAR KATL 150452Z 09004KT 10SM FEW055 BKN070 BKN090 25/22 A3018 RMK AO2 RAB13E46 SLP208 P0000 T02500222 403220233=
201207150352 METAR KATL 150352Z 00000KT 10SM FEW070 BKN120 BKN250 26/21 A3018 RMK AO2 SLP207 T02560211=
201207150252 METAR KATL 150252Z 15005KT 10SM FEW040TCU SCT110 BKN250 25/21 A3018 RMK AO2 SLP209 TCU S 60000 T02500206 51024=
201207150152 METAR KATL 150152Z 13006KT 10SM FEW060 SCT090 BKN250 26/19 A3017 RMK AO2 SLP206 TSE24RAB0054E04 TS DSIPT P0000 T02610189=
201207150124 SPECI KATL 150124Z 14012G18KT 10SM TS FEW033 BKN060 BKN090 BKN250 26/19 A3016 RMK AO2 RAB0054E04 TS DSIPT P0000=
201207150052 METAR KATL 150052Z 20003KT 10SM TS SCT048CB SCT065 BKN110 BKN250 28/20 A3014 RMK AO2 TSB46 SLP194 OCNL LTGICCG SE & NW TS SE & NW MOV NW SHRA SE T02780200=
201207150046 SPECI KATL 150046Z 20007KT 10SM TS SCT048CB SCT065 BKN110 BKN250 28/20 A3013 RMK AO2 TSB46 OCNL LTGICCG SE & NW TS SE & NW MOV NW=
201207142352 METAR KATL 142352Z 12008KT 10SM SCT049 SCT085 SCT250 31/19 A3010 RMK AO2 SLP182 TCU DSNT E-S-W-NW SHRA S T03110189 10322 20300 55002=
201207142252 METAR KATL 142252Z 15005KT 10SM SCT055TCU SCT100 SCT250 32/19 A3010 RMK AO2 SLP181 CB DSNT SW TCU OHD-SE-SW T03170189=
201207142152 METAR KATL 142152Z 14010G16KT 10SM SCT055 SCT250 32/19 A3010 RMK AO2 SLP179 T03220194=
201207142052 METAR KATL 142052Z 13007KT 10SM SCT050 SCT250 32/19 A3011 RMK AO2 SLP184 T03170189 56021=
201207141952 METAR KATL 141952Z 15009KT 10SM SCT045 31/19 A3012 RMK AO2 SLP188 T03110194=
201207141852 METAR KATL 141852Z 13010G16KT 10SM SCT042 BKN250 31/19 A3014 RMK AO2 SLP194 T03110194=
201207141752 METAR KATL 141752Z 13009KT 10SM SCT036 SCT060 BKN250 30/21 A3017 RMK AO2 SLP207 T03000211 10306 20239 58010=
201207141652 METAR KATL 141652Z 16005KT 10SM SCT036 BKN250 28/20 A3019 RMK AO2 SLP213 T02830200=
201207141552 METAR KATL 141552Z 15008KT 10SM SCT033 BKN250 29/20 A3020 RMK AO2 SLP217 T02890200=
201207141517 SPECI KATL 141517Z 15006KT 10SM FEW023 BKN031 BKN250 27/21 A3021 RMK AO2=
201207141452 METAR KATL 141452Z 15006KT 10SM FEW020 BKN029 BKN250 26/21 A3020 RMK AO2 SLP218 T02610211 51012=
201207141352 METAR KATL 141352Z 17007KT 10SM BKN016 26/22 A3020 RMK AO2 SLP218 T02560217=
201207141333 SPECI KATL 141333Z 15006KT 8SM SCT014 BKN029 BKN250 25/21 A3021 RMK AO2=
201207141252 METAR KATL 141252Z 13006KT 6SM HZ BKN010 BKN015 BKN027 24/22 A3020 RMK AO2 SLP217 T02440217=
201207141152 METAR KATL 141152Z 15004KT 6SM BR BKN010 BKN014 24/22 A3017 RMK AO2 SLP207 70010 T02390222 10244 20233 53013=
201207141117 SPECI KATL 141117Z 14006KT 6SM BR FEW009 BKN011 24/22 A3016 RMK AO2=
201207141052 METAR KATL 141052Z 13005KT 6SM BR BKN009 BKN037 24/22 A3015 RMK AO2 SLP201 T02390222=
201207140952 METAR KATL 140952Z 13006KT 6SM BR BKN009 BKN011 BKN035 24/22 A3013 RMK AO2 SLP191 T02390222=
201207140944 SPECI KATL 140944Z 13006KT 6SM BR BKN009 BKN011 BKN035 24/22 A3013 RMK AO2=
201207140912 SPECI KATL 140912Z 13006KT 7SM FEW007 BKN011 BKN035 24/22 A3013 RMK AO2=
201207140859 SPECI KATL 140859Z 13005KT 10SM BKN011 24/22 A3013 RMK AO2=
201207140852 METAR KATL 140852Z 13005KT 6SM BR SCT007 BKN015 24/22 A3013 RMK AO2 SLP191 T02390222 57001=
201207140804 SPECI KATL 140804Z 13004KT 10SM BKN009 BKN020 BKN028 24/22 A3013 RMK AO2=
201207140752 METAR KATL 140752Z 13005KT 6SM BR SCT007 BKN013 OVC030 24/22 A3013 RMK AO2 SLP192 T02390222=
201207140747 SPECI KATL 140747Z 14006KT 6SM BR SCT007 BKN011 OVC028 24/22 A3013 RMK AO2=
201207140652 METAR KATL 140652Z 11007KT 6SM BR BKN009 BKN015 OVC030 24/22 A3013 RMK AO2 SLP192 T02390222=
201207140632 SPECI KATL 140632Z 09007KT 6SM BR BKN009 BKN013 OVC050 24/22 A3014 RMK AO2=
201207140552 METAR KATL 140552Z 09008KT 6SM BR BKN014 BKN050 OVC200 23/22 A3014 RMK AO2 SLP195 T02330222 10250 20233 58002=
201207140522 SPECI KATL 140522Z 09006KT 10SM BKN011 BKN019 BKN050 23/22 A3014 RMK AO2=
201207140452 METAR KATL 140452Z 09007KT 10SM FEW020 BKN050 OVC200 23/22 A3015 RMK AO2 SLP197 T02330217 403220217=
201207140352 METAR KATL 140352Z 09006KT 10SM FEW060 SCT200 BKN250 23/21 A3015 RMK AO2 SLP201 T02330206=
201207140252 METAR KATL 140252Z 09005KT 10SM FEW020 SCT200 BKN250 25/21 A3015 RMK AO2 SLP198 T02500206 51013=
201207140152 METAR KATL 140152Z 09007KT 10SM FEW040 SCT200 BKN250 24/22 A3013 RMK AO2 SLP194 T02440217=
201207140052 METAR KATL 140052Z 05007KT 10SM FEW025 SCT150 BKN200 24/21 A3012 RMK AO2 SLP192 FRQ LTG DSNT S-SW OCNL LTG DSNT NE T02440211=
201207132352 METAR KATL 132352Z 36009KT 10SM FEW070 SCT120 BKN150 BKN200 23/21 A3011 RMK AO2 TSE08RAE03 SLP186 FRQ LTG DSNT SE P0000 60010 T02330206 10322 20233 53014=
201207132309 SPECI KATL 132309Z 32007KT 10SM FEW070 SCT120 BKN150 BKN200 24/22 A3009 RMK AO2 TSE08RAE03 TS MOV NE FRQ LTGICCGCA DSNT W-NW CB DSNT SE P0000=
201207132252 METAR KATL 132252Z 01008KT 9SM -TSRA FEW030CB SCT070 BKN120 BKN200 25/22 A3009 RMK AO2 PK WND 16026/2154 WSHFT 2145 RAB2155 SLP180 FRQ LTGICCGCA W-NW TS VC W-NW MOV NW P0009 T02500222=
201207132214 SPECI KATL 132214Z 12006KT 3SM TSRA BR FEW020 SCT040CB BKN060 OVC150 24/22 A3008 RMK AO2 PK WND 16026/2154 WSHFT 2145 RAB2155 FRQ LTGICCG NW-NE TS NW-NE MOV NW P0005=
201207132202 SPECI KATL 132202Z 16010G26KT 5SM TSRA FEW025 BKN040CB BKN060 OVC150 24/22 A3008 RMK AO2 PK WND 16026/2154 WSHFT 2145 RAB2155 VIS N-E 1 1/2 FRQ LTGICCG NE-OHD-SW TS NE-OHD-SW MOV NW P0000=
201207132152 METAR KATL 132152Z 16022G32KT 10SM TS FEW025 BKN040CB BKN060 OVC150 27/21 A3007 RMK AO2 PK WND 15032/2150 TSB43 SLP171 FRQ LTGICCG SE-SW & NW-N TS SE-SW & NW-N MOV NW TCU ALQDS T02720211=
201207132143 SPECI KATL 132143Z 12008KT 10SM TS SCT040CB BKN055 BKN150 32/21 A3007 RMK AO2 TSB43 FRQ LTGICCG SE-SW TS SE-SW MOV NW CB N-NE MOV NW TCU ALQDS=
201207132052 METAR KATL 132052Z 10003KT 10SM FEW040TCU SCT150 SCT200 31/21 A3007 RMK AO2 RAB01E20 SLP170 CB DSNT N-NE-E-SE-S TCU E & NW P0000 60001 T03110206 56021=
201207132007 SPECI KATL 132007Z 12007G17KT 10SM -RA FEW030CB BKN050 BKN080 28/23 A3009 RMK AO2 RAB01 CB N-NE MOV N CB DSNT SE-S TCU DSNT S-SW-W SHRA N-NE P0000=
201207132001 SPECI KATL 132001Z 14011G17KT 1SM R09R/P6000FT +RA BKN030CB BKN080 OVC150 29/22 A3009 RMK AO2 TWR VIS 4 RAB01 CB OHD-SE MOV N P0000=
201207131952 METAR KATL 131952Z COR 17007KT 10SM FEW030CB BKN040TCU BKN080 29/22 A3009 RMK AO2 RAB41E51 SLP177 CB SE MOV N CB DSNT NE TCU OHD & ALQDS SHRA SE SHRA DSNT NE P0001 T02940222=
201207131852 METAR KATL 131852Z 14006KT 10SM FEW040TCU SCT150 31/21 A3010 RMK AO2 SLP181 CB DSNT E & SE & NW TCU S TCU DSNT N-NE-E T03110206=
201207131752 METAR KATL 131752Z 14007G14KT 100V170 10SM BKN035 31/21 A3013 RMK AO2 SLP192 CB DSNT NW-N TCU DSNT NW 60000 T03060206 10306 20228 58006=
201207131652 METAR KATL 131652Z 14006KT 10SM SCT025 SCT150 28/21 A3015 RMK AO2 SLP198 TCU DSNT NE-E-SE & DSNT NW T02830211=
201207131552 METAR KATL 131552Z 14008KT 10SM BKN020 BKN030 BKN150 27/22 A3015 RMK AO2 SLP200 TCU DSNT SW-W-NW T02720217=
201207131452 METAR KATL 131452Z 12006KT 7SM FEW010 BKN015 BKN250 26/22 A3015 RMK AO2 RAB10E17 SLP200 P0000 60000 T02560222 50005=
201207131420 SPECI KATL 131420Z 13007KT 6SM HZ FEW006 BKN013 BKN150 25/22 A3015 RMK AO2 RAB10E17 P0000=
201207131352 METAR KATL 131352Z 13006KT 5SM BR FEW004 BKN006 OVC010 24/22 A3015 RMK AO2 DZB23E46 SLP202 P0000 T02390222=
201207131347 SPECI KATL 131347Z 14005KT 5SM BR FEW004 BKN006 OVC012 23/22 A3015 RMK AO2 DZB23E46 P0000=
201207131333 SPECI KATL 131333Z 12006KT 2SM -DZ BR OVC004 23/22 A3015 RMK AO2 SFC VIS 4 DZB23 P0000=
201207131323 SPECI KATL 131323Z 12005KT 2SM -DZ BR OVC006 23/22 A3015 RMK AO2 SFC VIS 4 DZB23 P0000=
201207131252 METAR KATL 131252Z 14004KT 4SM BR OVC006 23/22 A3015 RMK AO2 SLP200 T02330217=
201207131157 SPECI KATL 131157Z 14003KT 4SM BR OVC006 23/22 A3014 RMK AO2=
201207131152 METAR KATL 131152Z 14003KT 2SM BR BKN004 OVC010 23/22 A3013 RMK AO2 SFC VIS 3 SLP195 70032 T02280217 10228 20217 53013=
201207131144 SPECI KATL 131144Z 00000KT 2SM BR OVC004 23/22 A3013 RMK AO2 SFC VIS 3=
201207131111 SPECI KATL 131111Z 14004KT 1SM BR OVC004 23/21 A3013 RMK AO2 SFC VIS 2 1/2=
201207131052 METAR KATL 131052Z 13004KT 2SM BR OVC004 23/21 A3012 RMK AO2 SFC VIS 3 SLP192 T02280211=
201207131003 SPECI KATL 131003Z 12005KT 2SM BR OVC004 22/21 A3010 RMK AO2 SFC VIS 4=
201207130952 METAR KATL 130952Z 12006KT 1SM BR OVC003 22/21 A3010 RMK AO2 SFC VIS 4 SLP183 T02220211=
201207130922 SPECI KATL 130922Z 10007KT 1SM BR OVC003 22/21 A3010 RMK AO2 SFC VIS 5=
201207130852 METAR KATL 130852Z 11007KT 1 1/2SM BR OVC004 22/21 A3010 RMK AO2 SFC VIS 5 SLP181 T02220206 55003=
201207130845 SPECI KATL 130845Z 12008KT 1 1/2SM BR OVC004 22/21 A3009 RMK AO2 SFC VIS 5=
201207130752 METAR KATL 130752Z 12005KT 7SM OVC004 22/21 A3009 RMK AO2 SLP178 T02220206=
201207130732 SPECI KATL 130732Z 11005KT 8SM BKN005 OVC070 22/21 A3008 RMK AO2=
201207130652 METAR KATL 130652Z 00000KT 10SM FEW005 SCT038 BKN070 22/21 A3010 RMK AO2 SLP182 T02170206=
201207130641 SPECI KATL 130641Z 12003KT 10SM SCT005 OVC070 22/21 A3010 RMK AO2=
201207130552 METAR KATL 130552Z 13006KT 10SM BKN005 OVC065 22/21 A3011 RMK AO2 SLP185 60023 T02220206 10239 20222 58009=
201207130452 METAR KATL 130452Z 11009KT 10SM BKN008 OVC080 22/21 A3012 RMK AO2 SLP191 CIG 005V011 T02220211 402890217=
201207130352 METAR KATL 130352Z 11004KT 10SM SCT007 BKN012 OVC080 23/21 A3012 RMK AO2 RAE10 SLP192 P0000 T02280211=
201207130329 SPECI KATL 130329Z 14004KT 10SM FEW008 SCT017 BKN080 OVC150 23/21 A3013 RMK AO2 RAE10 P0000=
201207130252 METAR KATL 130252Z 16006KT 8SM -RA SCT009 BKN017 OVC060 23/21 A3013 RMK AO2 RAB19 SLP195 P0000 60023 T02280211 53019=
201207130233 SPECI KATL 130233Z 20006KT 9SM -RA FEW009 BKN015 OVC050 23/21 A3013 RMK AO2 RAB19 P0000=
201207130152 METAR KATL 130152Z 11008KT 10SM FEW008 SCT018 BKN050 OVC140 23/21 A3011 RMK AO2 RAB08E17 SLP186 OCNL LTG DSNT NE P0000 T02330211=
201207130052 METAR KATL 130052Z 00000KT 10SM FEW025 BKN080 BKN120 OVC150 24/19 A3007 RMK AO2 RAE50 SLP174 OCNL LTG DSNT NE-SE P0023 T02390189=
201207122352 METAR KATL 122352Z 23006KT 5SM RA BR SCT055 BKN080 OVC110 23/22 A3008 RMK AO2 RAB14 SLP177 P0009 60009 T02330217 10289 20233 53006=
201207122252 METAR KATL 122252Z 23004KT 10SM FEW025 BKN090 BKN200 26/21 A3005 RMK AO2 RAB26E46 SLP166 P0000 T02560211=
201207122152 METAR KATL 122152Z 23003KT 10SM FEW030 BKN100 BKN200 27/20 A3006 RMK AO2 RAB02E28 SLP167 TCU DSNT NE P0000 T02720200=
201207122052 METAR KATL 122052Z 18008KT 10SM FEW035TCU SCT080 BKN200 28/19 A3006 RMK AO2 SLP169 CB DSNT S TCU N-NE-E T02780194 56015=
201207121952 METAR KATL 121952Z 14007KT 10SM FEW030TCU SCT080 SCT150 28/19 A3007 RMK AO2 SLP171 TCU S-SW-W T02830194=
201207121852 METAR KATL 121852Z 15007KT 10SM FEW025 SCT030 BKN040 BKN150 27/19 A3009 RMK AO2 SLP180 SHRA DSNT SW-NW T02670194=
201207121811 SPECI KATL 121811Z 15006KT 10SM FEW025 BKN030 BKN035 26/19 A3010 RMK AO2=
201207121752 METAR KATL 121752Z 13007KT 10SM FEW024 BKN027 BKN030 27/19 A3011 RMK AO2 SLP185 60000 T02670194 10267 20217 50000=
201207121652 METAR KATL 121652Z 13007KT 100V160 10SM BKN020 BKN027 BKN030 26/20 A3012 RMK AO2 SLP191 T02610200=
201207121552 METAR KATL 121552Z 13008KT 10SM FEW016 BKN018 OVC020 24/20 A3012 RMK AO2 SLP191 T02440200=
201207121504 SPECI KATL 121504Z 14007KT 10SM BKN015 BKN018 BKN024 24/20 A3010=
201207121452 METAR KATL 121452Z 12005KT 10SM BKN013 BKN015 OVC016 24/20 A3010 RMK AO2 SLP185 60000 T02440200 50005=
201207121352 METAR KATL 121352Z 12008KT 10SM FEW005 BKN011 OVC015 23/20 A3010 RMK AO2 RAB01E09 SLP185 P0000 T02280200=
201207121329 SPECI KATL 121329Z 13008KT 6SM BR FEW005 BKN006 OVC009 22/20 A3010 RMK AO2 RAB01E09 P0000=
201207121313 SPECI KATL 121313Z 12009KT 2SM BR OVC004 22/21 A3010 RMK AO2 SFC VIS 5 RAB01E09 P0000=
201207121259 SPECI KATL 121259Z 11008KT 1SM BR OVC004 22/21 A3010 RMK AO2 SFC VIS 3=
201207121256 SPECI KATL 121256Z 11008KT 2SM BR OVC004 22/21 A3010 RMK AO2 SFC VIS 4=
201207121252 METAR KATL 121252Z 12006KT 2SM BR OVC005 22/21 A3010 RMK AO2 SFC VIS 4 SLP184 T02170206=
201207121238 SPECI KATL 121238Z 12009KT 2SM BR OVC005 22/21 A3010 RMK AO2 SFC VIS 6=
201207121152 METAR KATL 121152Z 10006KT 7SM OVC006 22/20 A3009 RMK AO2 SLP179 60000 70027 T02170200 10222 20217 53009=
201207121052 METAR KATL 121052Z 10009KT 7SM BKN006 OVC012 22/20 A3008 RMK AO2 SLP175 T02220200=
201207120952 METAR KATL 120952Z 09007KT 8SM BKN005 OVC015 22/21 A3006 RMK AO2 RAE24 SLP169 P0000 T02220206 $=
201207120902 SPECI KATL 120902Z 10007KT 8SM -RA BKN005 BKN021 OVC120 22/21 A3006 RMK AO2 P0000 $=
201207120852 METAR KATL 120852Z 09007KT 10SM -RA FEW005 SCT019 BKN120 OVC150 22/21 A3006 RMK AO2 RAB29 SLP169 P0000 60000 T02220206 55001 $=
201207120752 METAR KATL 120752Z 07004KT 10SM SCT005 SCT019 OVC130 22/21 A3005 RMK AO2 SLP166 T02220206 $=
201207120741 SPECI KATL 120741Z 08003KT 10SM SCT005 SCT100 OVC150 22/21 A3005 RMK AO2 $=
201207120701 SPECI KATL 120701Z 05007KT 10SM BKN005 OVC150 22/21 A3005 RMK AO2 $=
201207120652 METAR KATL 120652Z 04005KT 10SM SCT005 SCT120 OVC150 22/21 A3005 RMK AO2 RAE0554 SLP165 P0000 T02220206 $=
201207120552 METAR KATL 120552Z 02005KT 10SM -RA FEW007 SCT023 BKN120 OVC150 22/21 A3006 RMK AO2 RAB36 SLP170 P0000 60027 T02220206 10289 20217 58008 $=
201207120546 SPECI KATL 120546Z 04006KT 10SM FEW007 SCT023 BKN120 OVC150 22/21 A3007 RMK AO2 RAB36E45 P0000 $=
201207120452 METAR KATL 120452Z 36004KT 10SM FEW007 BKN023 OVC060 22/21 A3009 RMK AO2 RAE46 SLP180 P0002 T02220206 403220217 $=
201207120447 SPECI KATL 120447Z 35005KT 10SM FEW007 BKN025 OVC060 22/21 A3010 RMK AO2 RAE46 P0002 403220217 $=
201207120352 METAR KATL 120352Z 29006KT 7SM RA FEW035 BKN080 OVC120 22/21 A3009 RMK AO2 TSE46 SLP179 TS MOV NE FRQ LTGICCGCA DSNT NW-NE P0012 T02220206 $=
201207120346 SPECI KATL 120346Z 28005KT 6SM RA FEW035 BKN080 OVC120 22/21 A3009 RMK AO2 TSE46 TS MOV NE FRQ LTGICCGCA DSNT NW-NE P0012 $=
201207120252 METAR KATL 120252Z 27006KT 7SM -TSRA FEW010 SCT035CB BKN080 OVC150 22/21 A3009 RMK AO2 PK WND 31029/0206 RAB0153 SLP181 FRQ LTGICCGCA NW-NE TS NW-NE MOV NE P0013 60013 T02220206 53022 $=
201207120215 SPECI KATL 120215Z 30020G29KT 4SM TSRA BR FEW015 SCT035CB BKN080 OVC150 22/20 A3007 RMK AO2 PK WND 31029/0206 RAB0153 VIS LWR NW-NE FRQ LTGICCG NW-NE TS NW-NE MOV NE P0010 $=
201207120205 SPECI KATL 120205Z 30022G26KT 1SM R09R/4000VP6000FT +TSRA BR SCT015 BKN030CB OVC080 22/21 A3008 RMK AO2 PK WND 30027/0202 RAB0153 FRQ LTGICCG OHD-N TS OHD-N MOV NE P0006 $=
201207120200 SPECI KATL 120200Z 30023G27KT 1 1/2SM +TSRA BR SCT015 BKN030CB OVC080 23/21 A3007 RMK AO2 PK WND 28027/0153 RAB0153 PRESRR FRQ LTGICCG SW-OHD-N TS SW-OHD-N MOV NE P0002 $=
201207120152 METAR KATL 120152Z 27018G22KT 10SM TS SCT030CB BKN050 OVC080 25/20 A3006 RMK AO2 PRESRR SLP169 FRQ LTGICCG SW-NW-N TS SW-NW-N MOV NE T02500200 $=
201207120052 METAR KATL 120052Z 30012KT 10SM TS FEW040CB SCT055 BKN070 BKN150 26/20 A3004 RMK AO2 TSB00 SLP161 FRQ LTGICCG W-NW AND DSNT SW TS W-NW AND DSNT SW MOV NE T02610200=
201207120000 SPECI KATL 120000Z VRB06KT 10SM TS FEW050CB SCT120 BKN150 BKN200 29/21 A3003 RMK AO2 TSB00 OCNL LTGICCG SW-W TS VC SW-W MOV SLO NE=
201207112352 METAR KATL 112352Z 10008KT 10SM FEW050CB SCT120 BKN150 BKN200 29/20 A3002 RMK AO2 SLP156 CB VC SW-W MOV NE T02890200 10322 20289 53002=
201207112252 METAR KATL 112252Z 18003KT 10SM SCT050TCU BKN110 BKN200 31/18 A3000 RMK AO2 SLP149 CB DSNT SE-S TCU N AND SW-W T03060183=
201207112152 METAR KATL 112152Z 14006KT 10SM SCT055TCU SCT080 BKN120 BKN200 31/19 A3000 RMK AO2 SLP149 CB DSNT NE TCU OHD-N T03060194=
201207112052 METAR KATL 112052Z VRB03KT 10SM BKN055TCU BKN080 BKN150 31/16 A3002 RMK AO2 SLP154 CB DSNT E-SE TCU OHD-S-SW-W-NW T03110156 56020=
201207111952 METAR KATL 111952Z VRB04KT 10SM FEW060TCU SCT080 SCT150 32/16 A3003 RMK AO2 SLP157 CB DSNT N & SE TCU SE-S-SW T03170161=
201207111852 METAR KATL 111852Z 28007KT 250V320 10SM SCT050 BKN060 BKN150 31/18 A3005 RMK AO2 SLP166 T03110178=
201207111752 METAR KATL 111752Z VRB03KT 10SM BKN045TCU BKN150 BKN250 32/18 A3008 RMK AO2 SLP174 TCU OHD-S T03170183 10317 20222 58007=
201207111652 SPECI KATL 111652Z 00000KT 10SM FEW035 SCT150 SCT180 28/18 A3010 RMK AO2 SLP182 T02830183=
201207111652 METAR KATL 111652Z 00000KT 10SM FEW035 SCT150 SCT180 28/18 A3010 RMK AO2 SLP182 T02830183=
201207111552 METAR KATL 111552Z 00000KT 10SM FEW023 BKN150 BKN180 28/20 A3010 RMK AO2 SLP183 T02780200=
201207111452 METAR KATL 111452Z 23004KT 10SM SCT016 BKN150 BKN180 26/20 A3010 RMK AO2 SLP184 T02560200 51011 $=
201207111352 METAR KATL 111352Z 24003KT 10SM FEW012 BKN150 BKN180 24/21 A3010 RMK AO2 SLP181 T02440206=
201207111252 METAR KATL 111252Z 21003KT 10SM FEW009 SCT150 BKN180 23/21 A3008 RMK AO2 SLP177 T02330206=
201207111152 METAR KATL 111152Z 00000KT 9SM FEW006 SCT120 BKN150 BKN220 22/21 A3007 RMK AO2 SLP171 70044 T02220206 10222 20217 53009=
201207111131 SPECI KATL 111131Z 26003KT 9SM SCT006 BKN150 BKN220 22/21 A3007 RMK AO2=
201207111052 METAR KATL 111052Z 19005KT 8SM BKN006 BKN150 22/21 A3006 RMK AO2 SLP168 T02170206=
201207110952 METAR KATL 110952Z 20004KT 8SM BKN006 BKN180 22/21 A3004 RMK AO2 SLP162 T02170206=
201207110852 METAR KATL 110852Z 16004KT 8SM OVC006 22/21 A3004 RMK AO2 SLP160 T02220206 55005=
201207110822 SPECI KATL 110822Z 17004KT 8SM BKN006 BKN250 22/21 A3003 RMK AO2=
201207110752 METAR KATL 110752Z 15004KT 8SM SCT006 BKN250 22/21 A3003 RMK AO2 SLP158 T02220206=
201207110741 SPECI KATL 110741Z 14005KT 8SM BKN006 BKN250 22/21 A3003 RMK AO2=
201207110652 METAR KATL 110652Z 11005KT 10SM SCT006 BKN250 22/21 A3004 RMK AO2 SLP161 T02220206=
201207110635 SPECI KATL 110635Z 12003KT 8SM BKN006 OVC250 22/21 A3005 RMK AO2=
201207110552 METAR KATL 110552Z 09006KT 10SM FEW006 BKN200 22/21 A3005 RMK AO2 SLP165 60044 T02220206 10272 20217 58001=
201207110452 METAR KATL 110452Z 00000KT 10SM FEW020 SCT070 BKN120 OVC150 23/19 A3007 RMK AO2 SLP172 T02280189 403500217=
201207110352 METAR KATL 110352Z 33004KT 10SM FEW007 SCT100 BKN150 OVC200 22/20 A3007 RMK AO2 TSE26RAE21 SLP171 FRQ LTG DSNT NE P0000 T02220200=
201207110330 SPECI KATL 110330Z 34005KT 10SM SCT007 BKN050 OVC150 22/21 A3006 RMK AO2 TSE26RAE21 FRQ LTGICCGCA DSNT N-NE P0000=
201207110326 SPECI KATL 110326Z 33006KT 10SM BKN007 BKN050 OVC150 22/21 A3006 RMK AO2 TSE26RAE21 TS MOV NE FRQ LTGICCGCA DSNT N-NE P0000=
201207110252 METAR KATL 110252Z 35007KT 10SM -TSRA FEW030CB SCT080 BKN120 OVC150 22/20 A3006 RMK AO2 PK WND 29030/0205 WSHFT 0141 RAB0158 SLP167 FRQ LTGICCA NE-SE TS VC NE-SE MOV NE P0044 60044 T02220200 53026=
201207110220 SPECI KATL 110220Z 31012KT 3SM +TSRA BR FEW010 SCT025CB BKN040 OVC150 22/21 A3005 RMK AO2 PK WND 29030/0205 WSHFT 0141 RAB0158 VIS LWR NW-NE FRQ LTGICCG NW-NE TS NW-NE MOV NE P0043=
201207110211 SPECI KATL 110211Z 31021G30KT 3/4SM R09R/3500VP6000FT +TSRA BR BKN025CB OVC040 22/21 A3004=
201207110208 SPECI KATL 110208Z 31024G30KT 1SM R09R/4000VP6000FT +TSRA BR SCT022 BKN030CB OVC050 22/21 A3004 RMK AO2 PK WND 29030/0205 WSHFT 0141 RAB0158 FRQ LTGICCG OHD-NW TS OHD-NW MOV NE P0014=
201207110158 SPECI KATL 110158Z 28019G28KT 10SM -TSRA SCT022 BKN035CB OVC050 24/20 A3004 RMK AO2 PK WND 27028/0158 WSHFT 0141 RAB58 FRQ LTGICCG SW-NW TS SW-NW MOV NE P0000=
201207110152 METAR KATL 110152Z 26014G25KT 10SM TS SCT035CB BKN050 OVC110 26/20 A3003 RMK AO2 TSE14B51 SLP157 FRQ LTGICCG SW-NW AND DSNT SE TS VC SW-NW AND DSNT SE MOV NE T02560200=
201207110114 SPECI KATL 110114Z 05004KT 10SM FEW050 SCT100 BKN150 BKN200 27/18 A3000 RMK AO2 TSE14 TS DSIPTD FRQ LTG DSNT SW-NW=
201207110052 METAR KATL 110052Z 00000KT 10SM TS FEW050CB SCT100 BKN150 BKN200 26/18 A3000 RMK AO2 SLP147 FRQ LTGICCA NE-SE TS VC NE-SE MOV NE CBMAM OHD TCU S-W-NW T02610183=
201207102352 METAR KATL 102352Z 04014KT 10SM TS SCT050CB BKN080 BKN150 BKN200 27/19 A2998 RMK AO2 WSHFT 2324 TSB2256RAB2259E23 SLP141 FRQ LTGICCG NE-E AND SE-S TS VC NE-E AND SE-S MOV NE TCU SW-NW-NE P0000 60000 T02720194 10350 20272 53016=
201207102344 SPECI KATL 102344Z 03010KT 10SM TS SCT050CB BKN080 BKN150 BKN200 27/19 A2998 RMK AO2 WSHFT 2324 TSB2256RAB2259E23 FRQ LTGICCG NE-E AND SE-S TS NE-E AND SE-S MOV NE TCU NW-NE P0000=
201207102256 SPECI KATL 102256Z 34015G20KT 10SM TS SCT060CB SCT100 BKN200 32/19 A2994 RMK AO2 TSB56 OCNL LTGICCG E-SE TS E-SE MOV NE FRQ LTG DSNT NE-E TCU OHD-SW=
201207102252 METAR KATL 102252Z 33015G20KT 10SM SCT060TCU SCT100 BKN200 32/19 A2994 RMK AO2 SLP126 FRQ LTGICCG DSNT NE-E TCU OHD-SW T03220194=
201207102152 METAR KATL 102152Z 31013KT 10SM SCT060TCU BKN110 BKN250 34/19 A2993 RMK AO2 SLP124 TCU NE-SE-SW T03390194=
201207102052 METAR KATL 102052Z 22009KT 190V250 10SM FEW060TCU BKN070 BKN200 34/17 A2993 RMK AO2 SLP122 CB DSNT N TCU W TCU DSNT SE-SW T03390172 56021=
201207101952 METAR KATL 101952Z 18006G15KT 10SM SCT060TCU SCT200 33/17 A2995 RMK AO2 SLP128 CB DSNT N & W TCU W-NW-N T03330172=
201207101852 METAR KATL 101852Z 17007KT 10SM SCT055TCU 33/17 A2997 RMK AO2 SLP135 TCU N-NE & NW T03280172=
201207101752 METAR KATL 101752Z 17005KT 10SM BKN050TCU 33/18 A2999 RMK AO2 SLP144 CB DSNT NW TCU NE & S-NW T03280178 10333 20233 58013=
201207101652 METAR KATL 101652Z 00000KT 10SM BKN045TCU 32/19 A3002 RMK AO2 SLP152 TCU ALQDS T03170189=
201207101552 METAR KATL 101552Z 26005KT 10SM FEW040 32/20 A3003 RMK AO2 SLP157 CB DSNT NW T03170200=
201207101452 METAR KATL 101452Z VRB03KT 10SM FEW030 29/20 A3003 RMK AO2 SLP157 T02940200 51004=
201207101352 METAR KATL 101352Z 34005KT 10SM CLR 28/21 A3003 RMK AO2 SLP156 T02780206=
201207101252 METAR KATL 101252Z 30006KT 10SM CLR 26/20 A3002 RMK AO2 SLP155 T02560200=
201207101152 METAR KATL 101152Z 29005KT 10SM FEW250 23/20 A3002 RMK AO2 SLP154 70001 T02330200 10250 20217 53009=
201207101052 METAR KATL 101052Z 28004KT 10SM FEW250 22/19 A3001 RMK AO2 SLP151 T02170194=
201207100952 METAR KATL 100952Z 26005KT 10SM FEW250 22/20 A2999 RMK AO2 SLP142 T02220200=
201207100852 METAR KATL 100852Z 25004KT 10SM FEW250 23/20 A2999 RMK AO2 SLP144 T02280200 50004=
201207100752 METAR KATL 100752Z 00000KT 10SM SCT150 SCT250 23/20 A3000 RMK AO2 SLP146 T02330200=
201207100652 METAR KATL 100652Z 27005KT 10SM FEW150 SCT250 23/20 A2999 RMK AO2 SLP144 T02330200=
201207100552 METAR KATL 100552Z 00000KT 10SM SCT150 BKN250 24/20 A2998 RMK AO2 SLP140 60001 T02440200 10294 20244 58006=
201207100452 METAR KATL 100452Z 30006KT 10SM FEW100 SCT150 BKN200 24/20 A2999 RMK AO2 TSE38 SLP143 T02440200 403610244=
201207100439 SPECI KATL 100439Z 33006KT 10SM FEW040 SCT100 BKN200 24/20 A3000 RMK AO2 TSE38 TS DSIPTD=
201207100352 METAR KATL 100352Z 33005KT 10SM TS SCT040CB BKN060 BKN100 BKN250 26/21 A3002 RMK AO2 PK WND 03028/0259 RAE21 SLP155 FRQ LTGICCG NE-E AND SE TS VC NE-E AND SE MOV NE P0001 T02560206=
201207100252 METAR KATL 100252Z 06005KT 10SM -TSRA BKN042CB BKN065 OVC150 28/19 A3000 RMK AO2 TSB25RAB52 SLP145 FRQ LTGICCG NE-OHD TS N-OHD MOV NE P0000 60000 T02830194 53022=
201207100226 SPECI KATL 100226Z 09006KT 10SM TS SCT045CB BKN065 BKN150 OVC200 28/19 A2998 RMK AO2 TSB25 FRQ LTGICCG NE AND DSNT NW-N TS NE AND DSNT NW-N MOV NE=
201207100152 METAR KATL 100152Z 00000KT 10SM FEW045 SCT065 BKN150 BKN200 27/19 A2996 RMK AO2 SLP135 FRQ LTGICCG DSNT NE AND NW-N T02720189=
201207100052 METAR KATL 100052Z 30010KT 10SM FEW045 SCT100 SCT150 BKN200 28/17 A2995 RMK AO2 SLP130 FRQ LTGICCG DSNT NE T02780172=
201207092352 METAR KATL 092352Z 32011KT 10SM FEW045TCU SCT080 BKN200 BKN250 29/18 A2993 RMK AO2 TSB28E52RAE12 SLP124 TS DSIPTD FRQ LTGICCG DSNT NW TCU NW-NE P0000 60000 T02940183 10361 20272 55001=
201207092328 SPECI KATL 092328Z 29007KT 10SM TS SCT045CB BKN080 BKN200 30/21 A2993 RMK AO2 TSB28RAE12 FRQ LTGICCG NW-N TS VC NW-N MOV NE P0000=
201207092252 METAR KATL 092252Z 23010KT 10SM -RA SCT050CB SCT100 BKN200 28/21 A2991 RMK AO2 RAB08 SLP118 CB W-NW MOV NW TCU OHD-NW P0000 T02780206=
201207092152 METAR KATL 092152Z 30009KT 10SM FEW060TCU SCT100 BKN200 33/18 A2991 RMK AO2 SLP115 CB DSNT E-SE TCU S-W T03330183=
201207092052 METAR KATL 092052Z 31007KT 10SM FEW060TCU SCT100 SCT250 34/18 A2993 RMK AO2 TSB00E32RAE07 SLP123 TS DSIPT CB DSNT E TCU SE-S-SW-W TCU DSNT N P0000 60000 T03440183 56015=
201207092032 SPECI KATL 092032Z 34007KT 10SM FEW050TCU SCT100 SCT250 32/20 A2994 RMK AO2 TSB00E32RAE07 TS DSIPT CB DSNT E TCU SE-S-SW-W SHRA DSNT E P0000=
201207092015 SPECI KATL 092015Z 35008KT 10SM TS FEW030CB SCT040TCU BKN100 BKN250 32/23 A2996 RMK AO2 TSB00RAE07 VIS LWR E SHRA OCNL LTGICCG E TS E MOV E TCU S-SW-W P0000=
201207092004 SPECI KATL 092004Z 34009KT 10SM -TSRA FEW020CB BKN070 BKN100 29/23 A2995=
201207092000 SPECI KATL 092000Z 32012G23KT 10SM R09R/5500VP6000FT -TSRA FEW025CB BKN050 BKN060 28/23 A2995 RMK AO2 TSB00 OCNL LTGICCG OHD TS OHD MOV E P0000=
201207091952 METAR KATL 091952Z 32021G42KT 10SM R09R/5500VP6000FT -RA FEW050CB BKN060TCU 29/20 A2995 RMK AO2 PK WND 31042/1950 RAB51 SLP129 CB NW-N MOV E TCU OHD & ALQDS SHRA NW-N P0000 T02940200=
201207091852 METAR KATL 091852Z 33006G15KT 10SM SCT060TCU 36/18 A2996 RMK AO2 SLP132 TCU SW-W & NW-N T03560183=
201207091752 METAR KATL 091752Z 28008G14KT 10SM SCT050 33/19 A2998 RMK AO2 SLP139 CB DSNT NW TCU DSNT S-SW-W T03330189 10339 20256 58013=
201207091652 METAR KATL 091652Z VRB04KT 10SM SCT045TCU 33/19 A3001 RMK AO2 SLP147 CB DSNT NW TCU ALQDS T03280194=
201207091552 METAR KATL 091552Z 27008KT 10SM SCT036 32/21 A3002 RMK AO2 SLP151 T03170206=
201207091452 METAR KATL 091452Z VRB05KT 10SM FEW035 31/21 A3002 RMK AO2 SLP152 T03060211 50000=
201207091352 METAR KATL 091352Z 28007KT 10SM CLR 29/21 A3003 RMK AO2 SLP155 T02890211=
201207091252 METAR KATL 091252Z 29008KT 7SM CLR 27/21 A3003 RMK AO2 SLP157 T02670211=
201207091152 METAR KATL 091152Z 28008KT 8SM CLR 26/21 A3002 RMK AO2 SLP153 T02560211 10272 20244 53006=
201207091052 METAR KATL 091052Z 27009KT 8SM FEW250 24/21 A3001 RMK AO2 SLP149 T02440211=
201207090952 METAR KATL 090952Z 23007KT 10SM SCT085 25/21 A3000 RMK AO2 SLP144 T02500206=
201207090852 METAR KATL 090852Z 26007KT 10SM SCT060 26/21 A3000 RMK AO2 SLP146 T02560211 58004=
201207090752 METAR KATL 090752Z 25007KT 10SM FEW060 26/21 A3001 RMK AO2 SLP150 T02610206=
201207090652 METAR KATL 090652Z 26006KT 10SM SCT050 SCT075 27/21 A3001 RMK AO2 SLP150 T02670206=
201207090552 METAR KATL 090552Z 25007KT 10SM CLR 27/21 A3001 RMK AO2 SLP150 T02720206 10322 20272 50000=
201207090452 METAR KATL 090452Z 24005KT 10SM FEW060 27/20 A3002 RMK AO2 SLP152 T02720200 403500244=
201207090352 METAR KATL 090352Z 24005KT 10SM CLR 28/19 A3002 RMK AO2 SLP154 T02780194=
201207090252 METAR KATL 090252Z 24007KT 10SM FEW200 29/19 A3001 RMK AO2 SLP150 T02940189 53016=
201207090152 METAR KATL 090152Z 24007KT 10SM CLR 30/19 A3000 RMK AO2 SLP144 T03000189=
201207090052 METAR KATL 090052Z 24008KT 10SM FEW250 31/19 A2997 RMK AO2 SLP135 T03060189=
201207082352 METAR KATL 082352Z 22010G17KT 10SM FEW055 32/19 A2997 RMK AO2 SLP135 T03220189 10350 20322 55006=
201207082252 METAR KATL 082252Z 25013G16KT 10SM FEW055 SCT250 33/18 A2996 RMK AO2 SLP134 CB DSNT N-NE T03330183=
201207082152 METAR KATL 082152Z 23011G18KT 190V260 10SM SCT060 34/18 A2997 RMK AO2 SLP137 T03390178=
201207082052 METAR KATL 082052Z 25008G19KT 10SM SCT060 34/18 A2999 RMK AO2 SLP141 T03390178 58023=
201207081952 METAR KATL 081952Z 20006KT 10SM SCT050 34/19 A3002 RMK AO2 SLP152 T03390189=
201207081852 METAR KATL 081852Z 21007KT 10SM SCT050 SCT065 34/19 A3003 RMK AO2 SLP156 T03390189=
201207081752 METAR KATL 081752Z 25006KT 10SM SCT045TCU BKN060 32/20 A3006 RMK AO2 SLP166 TCU NE T03220200 10328 20250 58015=
201207081652 METAR KATL 081652Z 22011G16KT 10SM FEW040 SCT050 32/21 A3008 RMK AO2 SLP173 T03220206=
201207081552 METAR KATL 081552Z 23010KT 10SM SCT035 31/21 A3009 RMK AO2 SLP176 T03110211=
201207081452 METAR KATL 081452Z 29008KT 260V320 10SM FEW035 31/22 A3010 RMK AO2 SLP180 T03060217 50004=
201207081352 METAR KATL 081352Z 26008KT 10SM FEW030 28/22 A3011 RMK AO2 SLP184 CU N T02830217=
201207081252 METAR KATL 081252Z 28007KT 10SM CLR 27/22 A3011 RMK AO2 SLP183 T02720217=
201207081152 METAR KATL 081152Z 25007KT 10SM CLR 25/21 A3009 RMK AO2 SLP176 T02500211 10261 20244 51005=
201207081052 METAR KATL 081052Z 24006KT 10SM CLR 24/21 A3008 RMK AO2 SLP175 T02440211=
201207080952 METAR KATL 080952Z 25006KT 10SM CLR 24/21 A3008 RMK AO2 SLP173 T02440206=
201207080852 METAR KATL 080852Z 24006KT 10SM CLR 24/20 A3007 RMK AO2 SLP172 T02440200 55005=
201207080752 METAR KATL 080752Z 24005KT 10SM CLR 26/19 A3007 RMK AO2 SLP170 T02560194=
201207080652 METAR KATL 080652Z 25004KT 10SM CLR 26/19 A3007 RMK AO2 SLP171 T02560194=
201207080552 METAR KATL 080552Z 26005KT 10SM CLR 26/20 A3009 RMK AO2 SLP177 T02560200 10317 20256 50006=
201207080452 METAR KATL 080452Z 28005KT 10SM CLR 26/20 A3009 RMK AO2 SLP177 T02610200 403390233=
201207080352 METAR KATL 080352Z 26005KT 10SM CLR 27/20 A3008 RMK AO2 SLP175 T02720200=
201207080252 METAR KATL 080252Z 26006KT 10SM CLR 28/20 A3007 RMK AO2 SLP171 T02780200 53020=
201207080152 METAR KATL 080152Z 24006KT 10SM FEW070 29/19 A3004 RMK AO2 SLP162 T02890194=
201207080052 SPECI KATL 080052Z 21007KT 10SM FEW050 SCT250 30/20 A3002 RMK AO2 SLP152 T03000200=
201207080052 METAR KATL 080052Z 21007KT 10SM FEW050 SCT250 30/20 A3002 RMK AO2 SLP152 T03000200=
201207072352 METAR KATL 072352Z 23008KT 10SM FEW050 SCT120 SCT250 32/19 A3001 RMK AO2 SLP151 T03170189 10339 20311 55005=
201207072252 METAR KATL 072252Z COR 23007KT 10SM FEW050 SCT250 33/19 A3001 RMK AO2 SLP150 CB DSNT NE & NW T03280189=
201207072152 METAR KATL 072152Z 18009KT 10SM SCT050 SCT250 33/19 A3001 RMK AO2 SLP150 CB DSNT NE T03280194=
201207072052 METAR KATL 072052Z 20008KT 10SM SCT050 33/19 A3003 RMK AO2 SLP156 CB DSNT NW TCU DSNT S T03330194 56013=
201207071952 METAR KATL 071952Z 19009KT 10SM SCT050 32/20 A3004 RMK AO2 SLP160 T03220200=
201207071852 METAR KATL 071852Z VRB04KT 10SM BKN047 32/19 A3005 RMK AO2 SLP165 TCU DSNT W T03170194=
201207071752 METAR KATL 071752Z 24009KT 10SM SCT043 32/19 A3007 RMK AO2 SLP170 T03220194 10328 20239 56006=
201207071652 METAR KATL 071652Z 26007KT 10SM FEW042 32/19 A3007 RMK AO2 SLP171 T03220194=
201207071552 METAR KATL 071552Z VRB06KT 10SM FEW045 SCT090 SCT250 31/19 A3008 RMK AO2 SLP173 T03060194=
201207071452 METAR KATL 071452Z VRB06KT 10SM FEW040 SCT090 SCT250 29/20 A3009 RMK AO2 SLP177 T02940200 50010=
201207071352 METAR KATL 071352Z 00000KT 10SM FEW070 SCT100 SCT250 28/19 A3009 RMK AO2 SLP177 T02780194=
201207071252 METAR KATL 071252Z 00000KT 10SM FEW150 SCT250 26/20 A3008 RMK AO2 SLP174 T02610200=
201207071152 METAR KATL 071152Z 00000KT 10SM FEW150 SCT250 24/21 A3006 RMK AO2 SLP167 T02390206 10256 20233 51009=
201207071052 METAR KATL 071052Z 26003KT 10SM SCT035 23/21 A3004 RMK AO2 SLP160 T02330206=
201207070952 METAR KATL 070952Z 25008KT 6SM HZ SCT014 OVC035 23/21 A3005 RMK AO2 SLP164 T02330206=
201207070942 SPECI KATL 070942Z 23009KT 10SM BR FEW008 SCT014 BKN035 23/21 A3006 RMK AO2=
201207070926 SPECI KATL 070926Z 20010KT 10SM FEW006 BKN014 23/22 A3006 RMK AO2=
201207070910 SPECI KATL 070910Z 19009KT 10SM SCT006 SCT065 23/22 A3004 RMK AO2=
201207070852 METAR KATL 070852Z 17008KT 10SM BKN120 BKN180 24/22 A3003 RMK AO2 SLP156 T02390217 53000=
201207070752 METAR KATL 070752Z 00000KT 10SM BKN100 BKN150 24/22 A3002 RMK AO2 SLP151 T02390217=
201207070652 METAR KATL 070652Z 18004KT 10SM FEW070 24/22 A3003 RMK AO2 SLP155 T02440217=
201207070552 METAR KATL 070552Z 00000KT 10SM SCT070 SCT090 BKN250 25/22 A3003 RMK AO2 SLP155 T02500217 10283 20250 53005=
201207070452 METAR KATL 070452Z 18004KT 10SM SCT250 26/21 A3002 RMK AO2 SLP152 T02560211 403670239=
201207070352 METAR KATL 070352Z 20003KT 10SM FEW065 SCT200 BKN250 27/21 A3002 RMK AO2 SLP153 T02670211 $=
201207070252 METAR KATL 070252Z 19004KT 10SM SCT065 BKN100 BKN250 27/21 A3001 RMK AO2 SLP151 T02720211 53012 $=
201207070152 METAR KATL 070152Z 19005KT 10SM FEW060 BKN080 BKN110 BKN200 28/21 A3000 RMK AO2 SLP147 FRQ LTG DSNT SW T02780206=
201207070052 METAR KATL 070052Z 15005KT 10SM FEW060 SCT150 BKN200 BKN250 28/19 A2997 RMK AO2 TSE10 SLP139 CB DSNT SW AND NW T02780194=
201207070010 SPECI KATL 070010Z 13012G20KT 10SM FEW070CB SCT150 BKN200 BKN250 27/19 A2998 RMK AO2 TSE10 TS DSIPTD CB SE MOV SW TCU DSNT S-SW=
201207062352 METAR KATL 062352Z 13012G21KT 10SM TS FEW070CB SCT150 BKN250 28/19 A2998 RMK AO2 PK WND 12029/2336 TSB52 SLP140 OCNL LTGICCG SE TS VC SE MOV SW CB DSNT NE TCU SW-NW T02830194 10367 20283 53007=
201207062252 METAR KATL 062252Z 05006KT 10SM FEW075 SCT150 BKN250 36/14 A2994 RMK AO2 SLP124 CB DSNT E-SE T03560144=
201207062152 METAR KATL 062152Z 09003KT 10SM FEW075 SCT150 BKN250 36/16 A2994 RMK AO2 SLP125 CB DSNT E-SE T03560161=
201207062052 METAR KATL 062052Z 02011G17KT 10SM FEW075 SCT150 SCT250 36/16 A2996 RMK AO2 SLP131 CB DSNT N-NE TCU DSNT E T03610161 56017=
201207061952 METAR KATL 061952Z VRB04KT 10SM FEW070 SCT150 SCT250 35/17 A2997 RMK AO2 SLP136 T03500167=
201207061852 METAR KATL 061852Z 05008KT 10SM FEW070 SCT150 SCT250 35/18 A2999 RMK AO2 SLP143 T03500178=
201207061752 METAR KATL 061752Z 00000KT 10SM FEW065 SCT150 SCT250 34/17 A3001 RMK AO2 SLP149 T03390167 10339 20244 58005=
201207061652 METAR KATL 061652Z VRB04KT 10SM FEW150 SCT250 33/18 A3002 RMK AO2 SLP153 T03280178=
201207061552 METAR KATL 061552Z 32009KT 10SM FEW150 SCT250 32/17 A3002 RMK AO2 SLP154 T03170172=
201207061452 METAR KATL 061452Z 30004KT 10SM FEW150 SCT200 29/18 A3003 RMK AO2 SLP155 T02890183 51003=
201207061352 METAR KATL 061352Z 31003KT 10SM SCT150 SCT200 26/18 A3003 RMK AO2 SLP156 T02610183=
201207061252 METAR KATL 061252Z 31006KT 10SM SCT150 BKN200 26/18 A3002 RMK AO2 SLP153 T02560183=
201207061152 METAR KATL 061152Z 32004KT 10SM FEW100 BKN150 BKN200 24/18 A3002 RMK AO2 SLP151 T02440183 10261 20239 51008=
201207061052 METAR KATL 061052Z 32007KT 10SM SCT150 BKN200 24/18 A3001 RMK AO2 SLP149 T02390183=
201207060952 METAR KATL 060952Z 33005KT 10SM FEW065 BKN180 24/18 A3001 RMK AO2 SLP149 T02390183=
201207060852 METAR KATL 060852Z 33008KT 10SM FEW065 OVC180 24/18 A2999 RMK AO2 SLP142 T02440183 51007=
201207060752 METAR KATL 060752Z 00000KT 10SM FEW065 OVC180 24/18 A2998 RMK AO2 SLP139 T02440183=
201207060652 METAR KATL 060652Z 34006KT 10SM FEW065 SCT200 BKN250 25/18 A3000 RMK AO2 SLP145 T02500178=
201207060552 METAR KATL 060552Z 00000KT 10SM FEW150 SCT200 BKN250 26/18 A2997 RMK AO2 SLP135 T02560183 10356 20256 58018=
201207060452 METAR KATL 060452Z 11004KT 10SM FEW060 BKN150 OVC200 27/18 A2998 RMK AO2 SLP139 T02720183 403780233=
201207060352 METAR KATL 060352Z 03011KT 10SM FEW060 BKN150 OVC200 28/18 A3002 RMK AO2 SLP150 T02780178=
201207060252 METAR KATL 060252Z 36017G23KT 10SM FEW060 SCT150 BKN200 29/18 A3003 RMK AO2 SLP154 FRQ LTG DSNT NE T02890178 51028=
201207060152 METAR KATL 060152Z 21004KT 10SM FEW060 SCT150 BKN250 27/19 A3000 RMK AO2 SLP146 FRQ LTG DSNT NW T02720194=
201207060052 METAR KATL 060052Z 18014G21KT 10SM FEW065 SCT150 BKN200 29/18 A3000 RMK AO2 SLP147 FRQ LTG DSNT SE-S T02940178=
201207052352 METAR KATL 052352Z 35008G15KT 10SM FEW070 SCT200 BKN250 36/16 A2994 RMK AO2 SLP125 FRQ LTG DSNT SE AND S-SW T03560156 10378 20350 53001=
201207052252 METAR KATL 052252Z 02010KT 10SM FEW075TCU SCT200 SCT250 37/18 A2993 RMK AO2 SLP122 CB DSNT NE-SE TCU S-SW T03670178=
201207052152 METAR KATL 052152Z 02004KT 10SM SCT075TCU SCT250 37/17 A2993 RMK AO2 SLP122 TCU S-SW AND DSNT E-SE T03670167=
201207052052 METAR KATL 052052Z 01008KT 10SM SCT060 SCT080 37/16 A2993 RMK AO2 SLP123 CB DSNT S T03720161 58026=
201207051952 METAR KATL 051952Z VRB03KT 10SM SCT055 SCT250 37/16 A2997 RMK AO2 SLP133 TCU DSNT E T03720156=
201207051852 METAR KATL 051852Z VRB06KT 10SM SCT055 SCT250 36/17 A2999 RMK AO2 SLP143 T03610172=
201207051752 METAR KATL 051752Z 36009G14KT 10SM SCT055 SCT250 36/17 A3001 RMK AO2 SLP151 T03610172 10361 20250 58013=
201207051652 METAR KATL 051652Z 30004KT 10SM FEW055 SCT250 35/19 A3003 RMK AO2 SLP157 T03500189=
201207051552 METAR KATL 051552Z 32006KT 10SM FEW250 34/19 A3004 RMK AO2 SLP160 T03390189=
201207051452 METAR KATL 051452Z 30007KT 10SM FEW250 32/19 A3005 RMK AO2 SLP164 T03170194 50005=
201207051352 METAR KATL 051352Z 32010KT 10SM FEW250 29/19 A3006 RMK AO2 SLP167 T02940194=
201207051252 METAR KATL 051252Z 31007KT 10SM FEW250 27/20 A3005 RMK AO2 SLP165 T02720200=
201207051152 METAR KATL 051152Z 28007KT 10SM CLR 25/19 A3004 RMK AO2 SLP161 70008 T02500194 10261 20233 53008=
201207051052 METAR KATL 051052Z 28006KT 10SM FEW150 23/19 A3002 RMK AO2 SLP156 T02330194=
201207050952 METAR KATL 050952Z 28004KT 10SM FEW150 24/19 A3002 RMK AO2 SLP154 T02390194=
201207050852 METAR KATL 050852Z 30003KT 10SM FEW150 24/20 A3002 RMK AO2 SLP151 T02390200 55002=
201207050752 METAR KATL 050752Z 23003KT 10SM FEW150 24/20 A3001 RMK AO2 SLP150 T02440200=
201207050652 METAR KATL 050652Z 30004KT 10SM FEW150 26/20 A3002 RMK AO2 SLP152 T02560200=
201207050552 METAR KATL 050552Z 00000KT 10SM FEW150 25/21 A3002 RMK AO2 SLP153 T02500206 10289 20244 58002=
201207050452 METAR KATL 050452Z 00000KT 7SM SCT150 25/21 A3003 RMK AO2 SLP158 T02500211 403670211=
201207050352 METAR KATL 050352Z 27003KT 10SM BKN150 BKN250 27/19 A3003 RMK AO2 SLP158 T02670189=
201207050252 METAR KATL 050252Z 29006KT 10SM BKN150 BKN200 BKN250 27/19 A3003 RMK AO2 SLP157 T02670189 53005=
201207050152 METAR KATL 050152Z 00000KT 10SM BKN150 BKN200 BKN250 26/21 A3002 RMK AO2 SLP153 T02610206=
201207050052 METAR KATL 050052Z 21004KT 10SM SCT150 BKN200 BKN250 27/21 A3001 RMK AO2 SLP152 T02720211 $=
201207042352 METAR KATL 042352Z 26005KT 10SM FEW100 SCT150 BKN200 29/20 A3001 RMK AO2 SLP154 60008 T02890200 10367 20256 53006 $=
201207042252 METAR KATL 042252Z 27006KT 10SM FEW050 SCT120 BKN150 BKN200 28/19 A2999 RMK AO2 TSE08RAE16 SLP147 CB DSNT SE AND S P0000 T02780194 $=
201207042209 SPECI KATL 042209Z 24005KT 10SM -RA FEW050 SCT080 BKN110 BKN200 28/21 A3001 RMK AO2 TSE08 FRQ LTG DSNT NE AND SE-SW TS MOV S P0000 $=
201207042152 METAR KATL 042152Z 17008G16KT 10SM -TSRA SCT050CB BKN100 BKN200 26/21 A3001 RMK AO2 PK WND 01035/2114 WSHFT 2109 TSB15RAB14 SLP152 OCNL LTGICCG SE-S TS VC SE-S MOV SE P0007 T02610206 $=
201207042135 SPECI KATL 042135Z 07012G32KT 7SM -TSRA SCT055CB BKN100 BKN200 27/17 A3001 RMK AO2 PK WND 01035/2114 WSHFT 2109 TSB15RAB14 OCNL LTGICCG SE-SW TS SE-SW MOV SE P0005 $=
201207042127 SPECI KATL 042127Z 08023G32KT 3SM +TSRA SCT060CB BKN100 BKN250 26/18 A3002 RMK AO2 PK WND 01035/2114 WSHFT 2109 TSB15RAB14 OCNL LTGICCG OHD-S TS OHD-S MOV SE P0002 $=
201207042115 SPECI KATL 042115Z 01025G35KT 2SM +TSRA SCT060CB BKN100 BKN250 32/18 A3001 RMK AO2 PK WND 01035/2114 TSB15RAB14 OCNL LTGICCG OHD-NW TS OHD-NW MOV SE P0000 $=
201207042052 METAR KATL 042052Z 15007KT 10SM SCT060TCU SCT100 BKN250 35/18 A3000 RMK AO2 RAB03E20 SLP146 CB DSNT NW-W TCU OHD-NW AND S-W P0001 60001 T03500178 56020 $=
201207041952 METAR KATL 041952Z 35011G15KT 300V030 10SM BKN060TCU BKN250 34/17 A3001 RMK AO2 SLP150 CB DSNT NW TCU OHD-SE-S-SW-W-NW T03440172 $=
201207041852 METAR KATL 041852Z VRB03KT 10SM FEW065TCU SCT250 34/19 A3003 RMK AO2 SLP158 CB DSNT W-NW TCU S & NW T03440189 $=
201207041752 METAR KATL 041752Z 29005KT 10SM FEW050 SCT090 SCT250 33/19 A3006 RMK AO2 SLP167 CB DSNT NW T03330194 10333 20217 58014 $=
201207041652 METAR KATL 041652Z VRB03KT 10SM FEW150 SCT200 SCT250 31/19 A3008 RMK AO2 SLP175 T03110194 $=
201207041552 METAR KATL 041552Z 25006KT 10SM FEW200 BKN250 31/19 A3009 RMK AO2 SLP179 T03060194 $=
201207041452 METAR KATL 041452Z 25004KT 10SM FEW150 SCT200 BKN250 28/19 A3010 RMK AO2 SLP183 T02830189 51006 $=
201207041352 METAR KATL 041352Z 23008KT 10SM FEW150 SCT200 BKN250 26/19 A3010 RMK AO2 SLP183 T02610189 $=
201207041252 METAR KATL 041252Z 22006KT 10SM FEW150 BKN250 24/19 A3010 RMK AO2 SLP183 T02390189 $=
201207041152 METAR KATL 041152Z 22005KT 9SM FEW150 BKN250 22/19 A3008 RMK AO2 SLP178 70162 T02170194 10228 20211 53021 $=
201207041052 METAR KATL 041052Z 00000KT 9SM SCT150 BKN250 22/19 A3005 RMK AO2 SLP168 T02170189 $=
201207040952 METAR KATL 040952Z 28004KT 10SM FEW150 22/19 A3002 RMK AO2 SLP156 T02170189 $=
201207040852 METAR KATL 040852Z 00000KT 10SM FEW150 23/19 A3002 RMK AO2 SLP152 T02280189 56008 $=
201207040752 METAR KATL 040752Z 27004KT 10SM FEW150 22/19 A3002 RMK AO2 SLP154 T02170189 $=
201207040652 METAR KATL 040652Z 23003KT 10SM FEW150 SCT250 22/19 A3003 RMK AO2 SLP155 T02220194 $=
201207040552 METAR KATL 040552Z 19004KT 10SM SCT150 BKN250 23/19 A3004 RMK AO2 SLP160 60000 T02280194 10244 20228 58012 $=
201207040452 METAR KATL 040452Z 26011KT 10SM FEW060 SCT150 BKN200 23/20 A3006 RMK AO2 SLP166 T02330200 403720217 $=
201207040352 METAR KATL 040352Z 26008KT 10SM FEW060 SCT150 OVC200 23/20 A3009 RMK AO2 SLP176 T02330200 $=
201207040252 METAR KATL 040252Z 21005KT 10SM FEW060 SCT100 BKN150 OVC200 23/21 A3008 RMK AO2 RAB08E15 SLP174 P0000 60000 T02280206 51022 $=
201207040152 METAR KATL 040152Z 00000KT 10SM FEW060 SCT120 BKN150 OVC200 24/20 A3007 RMK AO2 SLP171 T02390200 $=
201207040052 METAR KATL 040052Z 05013G18KT 8SM FEW008 SCT120 BKN150 OVC200 23/21 A3006 RMK AO2 RAE2357 SLP171 OCNL LTGICCA DSNT NE-E P0000 T02280211 $=
201207032352 METAR KATL 032352Z COR 18003KT 10SM -RA FEW080 SCT120 BKN150 OVC200 24/20 A3001 RMK AO2 TSE19 SLP154 P0000 60162 T02390200 10372 20217 50017 $=
201207032320 SPECI KATL 032320Z 00000KT 10SM -RA FEW050 SCT080 BKN120 OVC200 23/19 A3002 RMK AO2 TSE19 TS DSIPTD P0000 $=
201207032252 METAR KATL 032252Z 11010G20KT 6SM -TSRA FEW050CB SCT070 BKN100 OVC150 23/19 A3002 RMK AO2 PK WND 12029/2209 RAB2155 PRESFR SLP156 VIS LWR NE-SE OCNL LTGICCG NE-SE TS NE-SE MOV SE P0162 T02330189 $=
201207032245 SPECI KATL 032245Z 07016G20KT 2SM +TSRA SCT050CB BKN070 OVC150 23/20 A3004 RMK AO2 PK WND 12029/2209 RAB2155 FRQ LTGICCG OHD-N TS OHD-N MOV SE P0152 $=
201207032231 SPECI KATL 032231Z 10013KT 3SM TSRA BR FEW015 BKN045CB OVC100 22/20 A3004 RMK AO2 PK WND 12029/2209 RAB2155 OCNL LTGICCG OHD-ALQDS TS OHD-ALQDS MOV S P0150 $=
201207032227 SPECI KATL 032227Z 09020KT 1 1/4SM R09R/5000VP6000FT +TSRA BR FEW015 BKN045CB OVC100 22/20 A3004 RMK AO2 PK WND 12029/2209 RAB2155 OCNL LTGICCG OHD-ALQDS TS OHD-ALQDS MOV S P0140 $=
201207032208 SPECI KATL 032208Z 12021G28KT 1/2SM R09R/P6000FT +TSRA BKN045CB BKN065 OVC150 26/20 A3005 RMK AO2 PK WND 12028/2207 RAB2155 PRESRR FRQ LTGICCG OHD-ALQDS TS OHD-ALQDS MOV S P0000 $=
201207032205 SPECI KATL 032205Z 12015G22KT 1SM R09R/P6000FT +TSRA BKN050CB BKN065 OVC150 27/19 A3004 RMK AO2 RAB2155 PRESRR FRQ LTGICCG OHD-ALQDS TS OHD-ALQDS MOV S P0000 $=
201207032203 SPECI KATL 032203Z 13016G22KT 2SM +TSRA BKN055CB BKN070 OVC200 28/19 A3003 RMK AO2 RAB2155 PRESRR FRQ LTGICCG OHD-ALQDS TS OHD-ALQDS MOV S P0000 $=
201207032152 METAR KATL 032152Z VRB06G19KT 10SM TS BKN065CB BKN080 BKN200 28/19 A3000 RMK AO2 TSB32 SLP149 FRQ LTGICCG N-NE AND SE-S TS N-NE AND VC SE-S MOV S TCU OHD-ALQDS T02830189 $=
201207032133 SPECI KATL 032133Z 27016G23KT 10SM TS SCT065CB BKN100 BKN150 BKN200 32/17 A2998 RMK AO2 TSB32 FRQ LTGICCG W-NW TS VC W-NW MOV S TCU OHD-ALQDS $=
201207032052 METAR KATL 032052Z 04004KT 10SM FEW070TCU SCT200 SCT250 37/15 A2996 RMK AO2 SLP132 CB DSNT SE & DSNT W-NW TCU NE-E & NW T03670150 56029 $=
201207031952 METAR KATL 031952Z 00000KT 10SM FEW070 SCT200 SCT250 36/16 A2998 RMK AO2 SLP138 CB DSNT E & DSNT SW & DSNT NW TCU DSNT S-SW T03610161 $=
201207031852 METAR KATL 031852Z 30008KT 260V350 10SM FEW070 SCT200 37/17 A3000 RMK AO2 SLP146 CB DSNT E & DSNT S-SW-W-NW TCU DSNT S T03720167 $=
201207031752 METAR KATL 031752Z 31007KT 270V330 10SM SCT060TCU 36/18 A3005 RMK AO2 SLP161 TCU NE-E-SE T03560178 10356 20244 58012 $=
201207031652 METAR KATL 031652Z 33010G14KT 10SM FEW060 35/19 A3006 RMK AO2 SLP167 T03500194 $=
201207031552 METAR KATL 031552Z 30006KT 9SM FEW150 33/21 A3007 RMK AO2 SLP171 T03330206 $=
201207031452 METAR KATL 031452Z 32006KT 10SM FEW150 31/19 A3008 RMK AO2 SLP174 T03110194 51006 $=
201207031352 METAR KATL 031352Z 32006KT 10SM FEW150 29/19 A3008 RMK AO2 SLP173 T02940189=
201207031252 METAR KATL 031252Z 32006KT 10SM FEW150 27/19 A3007 RMK AO2 SLP171 T02720189=
201207031152 METAR KATL 031152Z 31006KT 10SM SCT150 24/18 A3007 RMK AO2 SLP169 T02440183 10261 20228 53014=
201207031052 METAR KATL 031052Z 28006KT 10SM SCT150 23/18 A3005 RMK AO2 SLP163 T02330183=
201207030952 METAR KATL 030952Z 29004KT 10SM SCT150 23/18 A3004 RMK AO2 SLP159 T02330183=
201207030852 METAR KATL 030852Z 27004KT 10SM FEW250 24/19 A3002 RMK AO2 SLP155 T02390189 56010=
201207030752 METAR KATL 030752Z 28005KT 10SM FEW150 SCT250 24/19 A3003 RMK AO2 SLP155 T02440189=
201207030652 METAR KATL 030652Z 28003KT 10SM SCT150 26/19 A3005 RMK AO2 SLP161 T02560189=
201207030552 METAR KATL 030552Z 31006KT 10SM SCT250 26/19 A3006 RMK AO2 SLP165 T02610189 10317 20261 58000=
201207030452 METAR KATL 030452Z 30006KT 10SM SCT250 26/19 A3006 RMK AO2 SLP168 T02610194 403390222=
201207030352 METAR KATL 030352Z 28007KT 10SM SCT250 27/19 A3007 RMK AO2 SLP169 T02720194=
201207030252 METAR KATL 030252Z 27005KT 10SM FEW200 BKN250 28/19 A3006 RMK AO2 SLP167 T02830189 53012=
201207030152 METAR KATL 030152Z 27006KT 10SM BKN250 29/19 A3004 RMK AO2 SLP160 T02890189=
201207030052 METAR KATL 030052Z 27008KT 10SM BKN250 30/19 A3004 RMK AO2 SLP161 T03000189=
201207022352 METAR KATL 022352Z 30007KT 10SM SCT250 32/18 A3002 RMK AO2 SLP155 T03170178 10339 20317 56008=
201207022252 METAR KATL 022252Z 32008KT 10SM SCT250 33/18 A3002 RMK AO2 SLP155 T03280178=
201207022152 METAR KATL 022152Z VRB06KT 10SM SCT250 33/18 A3003 RMK AO2 SLP155 T03330178=
201207022052 METAR KATL 022052Z 27007KT 10SM BKN250 33/19 A3005 RMK AO2 SLP162 T03330189 58015=
201207021952 METAR KATL 021952Z 28011G15KT 10SM FEW050 SCT180 BKN250 33/18 A3007 RMK AO2 SLP170 T03280183=
201207021852 SPECI KATL 021852Z 29010G18KT 10SM FEW050 SCT180 SCT250 33/19 A3008 RMK AO2 SLP172 T03330194=
201207021852 METAR KATL 021852Z 29010G18KT 10SM FEW050 SCT180 SCT250 33/19 A3008 RMK AO2 SLP172 T03330194=
201207021752 METAR KATL 021752Z 30015G19KT 10SM FEW050 SCT180 BKN250 32/19 A3009 RMK AO2 SLP177 T03220194 10333 20228 58007=
201207021652 METAR KATL 021652Z 31015G19KT 10SM FEW150 SCT180 BKN250 32/19 A3011 RMK AO2 SLP183 T03220189=
201207021552 METAR KATL 021552Z 31011KT 10SM FEW150 BKN180 BKN200 28/18 A3012 RMK AO2 SLP189 T02780178=
201207021452 METAR KATL 021452Z 31009KT 10SM FEW150 BKN180 BKN200 27/18 A3011 RMK AO2 SLP185 T02720178 55016=
201207021352 METAR KATL 021352Z 23006KT 10SM FEW150 BKN180 OVC200 26/18 A3011 RMK AO2 SLP184 T02610178=
201207021252 METAR KATL 021252Z 19005KT 10SM BKN150 OVC250 24/18 A3015 RMK AO2 SLP199 T02390178=
201207021152 METAR KATL 021152Z 00000KT 10SM FEW032 BKN150 BKN250 23/18 A3016 RMK AO2 RAB14E32 SLP202 P0000 60000 T02280178 10267 20222 51010=
201207021052 METAR KATL 021052Z 08007KT 10SM FEW070 SCT150 BKN250 23/18 A3016 RMK AO2 SLP199 T02280178=
201207020952 METAR KATL 020952Z 11005KT 10SM BKN075 BKN180 OVC250 23/17 A3016 RMK AO2 SLP198 T02330172 $=
201207020852 METAR KATL 020852Z 13005KT 10SM SCT075 OVC200 24/17 A3013 RMK AO2 SLP189 T02390172 53000 $=
201207020752 METAR KATL 020752Z 12008KT 10SM BKN070 OVC200 24/17 A3012 RMK AO2 SLP187 T02390172 $=
201207020652 METAR KATL 020652Z 12010G20KT 10SM SCT150 OVC250 26/17 A3013 RMK AO2 SLP189 T02560167 $=
201207020552 METAR KATL 020552Z 12011G16KT 10SM BKN180 BKN250 27/17 A3013 RMK AO2 WSHFT 0523 SLP189 T02670172 10344 20261 53028 $=
201207020538 SPECI KATL 020538Z 10014G19KT 10SM BKN180 BKN250 27/17 A3013 RMK AO2 WSHFT 0523 $=
201207020452 METAR KATL 020452Z 20009KT 10SM SCT180 BKN250 26/17 A3006 RMK AO2 SLP165 T02610172 404060261 $=
201207020352 METAR KATL 020352Z 23005KT 10SM FEW150 BKN250 27/18 A3005 RMK AO2 SLP160 T02670183 $=
201207020252 METAR KATL 020252Z 17003KT 10SM FEW150 BKN250 28/19 A3004 RMK AO2 SLP159 T02780189 53030 $=
201207020152 METAR KATL 020152Z 19003KT 10SM FEW110 SCT150 BKN250 27/19 A3000 RMK AO2 SLP145 T02720189 $=
201207020052 METAR KATL 020052Z 17010G19KT 7SM FEW070 SCT110 SCT150 BKN180 BKN250 28/19 A2999 RMK AO2 SLP143 PK WND 17028/0014 WSHFT 10 CB DSNT NE T02830189 $=
201207020022 SPECI KATL 020022Z 17014G28KT 8SM FEW070TCU SCT110 BKN180 OVC250 30/19 A2999 RMK AO2 PK WND 17028/0014 WSHFT 10 CB DSNT SE TCU SE $=
201207012352 METAR KATL 012352Z 28011KT 8SM FEW080 SCT120 BKN180 OVC250 34/18 A2995 RMK AO2 SLP128 CB DSNT SE T03440178 10406 20344 53003 $=
201207012252 METAR KATL 012252Z 30013KT 8SM FEW080TCU SCT150 BKN250 36/17 A2993 RMK AO2 SLP120 CB DSNT SE TCU SE T03610172 $=
201207012152 METAR KATL 012152Z 29013G18KT 8SM FEW085 SCT250 40/16 A2993 RMK AO2 SLP119 T04000161 $=
201207012052 METAR KATL 012052Z 29011G16KT 9SM FEW090 41/17 A2994 RMK AO2 SLP124 T04060167 58025 $=
201207011952 METAR KATL 011952Z VRB06KT 9SM SCT090 41/16 A2998 RMK AO2 SLP138 T04060156=
201207011852 METAR KATL 011852Z 33006KT 9SM SCT080 40/16 A3001 RMK AO2 SLP148 T04000156=
201207011752 METAR KATL 011752Z 26005KT 8SM FEW080 SCT250 39/17 A3002 RMK AO2 SLP151 T03890167 10394 20283 58002 $=
201207011652 METAR KATL 011652Z 36012G17KT 8SM FEW250 39/17 A3003 RMK AO2 SLP154 T03890172 $=
201207011552 METAR KATL 011552Z 05005KT 7SM SCT250 36/19 A3003 RMK AO2 SLP154 T03610189 $=
201207011452 METAR KATL 011452Z 35008KT 7SM BKN200 34/19 A3003 RMK AO2 SLP153 T03390189 51011 $=
201207011352 METAR KATL 011352Z 33008KT 7SM BKN200 32/20 A3002 RMK AO2 SLP150 T03220200 $=
201207011252 METAR KATL 011252Z 31010KT 7SM FEW060 SCT150 29/20 A3001 RMK AO2 SLP147 T02940200 $=
