##########################################################
# Query made at 04/19/2024 23:29:45 UTC
# Time interval: from 10/01/2012 12:00  to 10/31/2012 12:59  UTC
##########################################################

##########################################################
# KATL, Atlanta, Hartsfield - Jackson Atlanta International Airport (United States)
# WMO index: 72219. WIGOS ID: 0-20000-0-72219
# Latitude 33-38-59N. Longitude 084-25-00W. Altitude 312 m.
##########################################################

201210311252 METAR KATL 311252Z COR 27008KT 10SM FEW150 SCT180 SCT250 05/M03 A2989 RMK AO2 SLP124 T00501028=
201210311152 METAR KATL 311152Z 28007KT 10SM SCT250 04/M03 A2988 RMK AO2 SLP120 T00441028 10061 20044 51010=
201210311052 METAR KATL 311052Z 27007KT 10SM SCT200 05/M03 A2986 RMK AO2 SLP116 T00501028=
201210310952 METAR KATL 310952Z 27008KT 10SM SCT150 05/M03 A2986 RMK AO2 SLP113 T00501028=
201210310852 METAR KATL 310852Z 27009KT 10SM SCT150 05/M03 A2984 RMK AO2 SLP108 T00501028 51005=
201210310752 METAR KATL 310752Z 27011KT 10SM BKN150 06/M03 A2984 RMK AO2 SLP106 T00611028=
201210310652 METAR KATL 310652Z 27008KT 10SM CLR 06/M03 A2983 RMK AO2 SLP104 T00611033=
201210310552 METAR KATL 310552Z 27007KT 10SM FEW250 06/M03 A2983 RMK AO2 SLP102 T00561033 10100 20056 55000=
201210310452 METAR KATL 310452Z 27010KT 10SM FEW250 07/M04 A2983 RMK AO2 SLP102 T00671039 401330050=
201210310352 METAR KATL 310352Z 28009KT 10SM SCT250 07/M04 A2983 RMK AO2 SLP103 T00721039=
201210310252 METAR KATL 310252Z 28009KT 10SM SCT250 07/M04 A2983 RMK AO2 SLP104 T00721044 51016=
201210310152 METAR KATL 310152Z 28012KT 10SM FEW150 BKN250 08/M05 A2981 RMK AO2 SLP099 T00831050=
201210310052 METAR KATL 310052Z 28012KT 10SM FEW150 SCT200 BKN250 09/M06 A2980 RMK AO2 SLP093 T00941056=
201210302352 METAR KATL 302352Z 28010G17KT 10SM FEW150 BKN200 BKN250 10/M06 A2978 RMK AO2 SLP087 T01001056 10133 20100 53018=
201210302252 METAR KATL 302252Z 28010G20KT 10SM SCT150 BKN200 BKN250 10/M06 A2976 RMK AO2 SLP079 T01001061=
201210302152 METAR KATL 302152Z 29017G25KT 10SM FEW100 BKN150 OVC200 11/M07 A2973 RMK AO2 PK WND 28031/2113 SLP071 T01111072=
201210302052 METAR KATL 302052Z 28016G25KT 10SM FEW150 BKN180 BKN200 12/M08 A2973 RMK AO2 PK WND 28027/2018 SLP068 T01171078 53001=
201210301952 METAR KATL 301952Z 29014G25KT 10SM FEW150 BKN180 BKN200 12/M07 A2972 RMK AO2 PK WND 30031/1923 SLP064 T01221072=
201210301852 METAR KATL 301852Z 30022G31KT 10SM FEW150 SCT180 BKN200 13/M09 A2971 RMK AO2 PK WND 30032/1818 SLP063 T01281089=
201210301752 METAR KATL 301752Z 28019G28KT 10SM FEW150 SCT180 BKN200 13/M07 A2972 RMK AO2 PK WND 30032/1724 SLP066 T01281067 10128 20056 58005=
201210301652 METAR KATL 301652Z 29018G33KT 10SM FEW150 SCT180 BKN200 11/M07 A2974 RMK AO2 PK WND 30038/1559 SLP071 T01111072=
201210301552 METAR KATL 301552Z 30021G33KT 10SM FEW180 SCT200 BKN250 11/M06 A2974 RMK AO2 PK WND 29034/1542 SLP073 T01061061=
201210301452 METAR KATL 301452Z 31022G28KT 10SM FEW180 SCT200 BKN250 08/M05 A2974 RMK AO2 PK WND 30029/1440 SLP072 T00831050 51005=
201210301352 METAR KATL 301352Z 30017G24KT 10SM FEW180 BKN200 BKN250 07/M04 A2974 RMK AO2 SLP073 T00671044=
201210301252 METAR KATL 301252Z 30016G24KT 10SM FEW180 BKN250 06/M04 A2974 RMK AO2 SLP072 T00561039=
201210301152 METAR KATL 301152Z 29014KT 10SM FEW150 SCT250 06/M04 A2972 RMK AO2 SLP067 T00561039 10067 20050 53005=
201210301052 METAR KATL 301052Z 29015G24KT 10SM SCT150 BKN200 06/M03 A2971 RMK AO2 SLP063 T00561033=
201210300952 METAR KATL 300952Z 29016G22KT 10SM FEW180 06/M03 A2971 RMK AO2 SLP062 T00561028=
201210300852 METAR KATL 300852Z 30016G25KT 10SM FEW150 06/M03 A2970 RMK AO2 PK WND 30028/0822 SLP060 T00611028 56013=
201210300752 METAR KATL 300752Z 30014G23KT 10SM FEW140 07/M02 A2972 RMK AO2 PK WND 30026/0735 SLP063 T00671022=
201210300652 METAR KATL 300652Z 30015G27KT 10SM SCT120 07/M03 A2973 RMK AO2 PK WND 30027/0646 SLP067 T00671028=
201210300552 METAR KATL 300552Z 30015G23KT 10SM FEW100 SCT200 07/M04 A2974 RMK AO2 SLP073 T00671039 10094 20067 56016=
201210300452 METAR KATL 300452Z 30015G24KT 10SM FEW100 SCT200 07/M05 A2976 RMK AO2 PK WND 30026/0410 SLP078 T00721050 401330067=
201210300352 METAR KATL 300352Z 30014G22KT 10SM FEW100 SCT200 07/M07 A2977 RMK AO2 SLP083 T00721067=
201210300252 METAR KATL 300252Z 31014G24KT 10SM FEW060 SCT200 08/M07 A2979 RMK AO2 SLP090 T00781067 58008=
201210300152 METAR KATL 300152Z 31011KT 10SM FEW060 SCT200 08/M05 A2980 RMK AO2 SLP095 T00831050=
201210300052 METAR KATL 300052Z 31012G21KT 10SM FEW060 08/M04 A2981 RMK AO2 SLP097 T00831039=
201210292352 METAR KATL 292352Z 31015G21KT 10SM FEW060 09/M04 A2982 RMK AO2 PK WND 31026/2332 SLP099 T00941039 10133 20094 53001=
201210292252 METAR KATL 292252Z 31015G27KT 10SM SCT060 11/M04 A2981 RMK AO2 PK WND 34030/2209 SLP096 T01061039=
201210292152 METAR KATL 292152Z 33016G26KT 10SM FEW055 12/M02 A2980 RMK AO2 PK WND 32033/2126 SLP094 T01171022=
201210292052 METAR KATL 292052Z 33014G27KT 10SM FEW055 12/M02 A2981 RMK AO2 PK WND 32034/2000 SLP097 T01221022 56012=
201210291952 METAR KATL 291952Z 33025G35KT 10SM FEW055 12/M02 A2983 RMK AO2 PK WND 33035/1950 SLP101 T01221022=
201210291852 METAR KATL 291852Z 34022G31KT 10SM FEW055 13/M03 A2983 RMK AO2 PK WND 33033/1841 SLP102 T01281028=
201210291752 METAR KATL 291752Z 32024G35KT 10SM FEW050 13/M01 A2985 RMK AO2 PK WND 32035/1752 SLP108 T01331011 10133 20067 58013=
201210291652 METAR KATL 291652Z 34020G26KT 10SM FEW050 12/M01 A2987 RMK AO2 PK WND 32030/1629 SLP115 T01221011=
201210291552 METAR KATL 291552Z 33020G28KT 10SM FEW040 11/M01 A2988 RMK AO2 PK WND 34032/1539 SLP120 T01111011=
201210291452 METAR KATL 291452Z 33019G32KT 10SM FEW035 09/M01 A2989 RMK AO2 PK WND 32032/1445 SLP122 T00941006 50007=
201210291352 METAR KATL 291352Z 32017G24KT 10SM FEW030 07/00 A2989 RMK AO2 PK WND 31026/1319 SLP124 T00720000=
201210291252 METAR KATL 291252Z 32018G26KT 10SM FEW032 07/00 A2988 RMK AO2 PK WND 33027/1217 SLP121 T00720000=
201210291152 METAR KATL 291152Z 33015G24KT 10SM SCT032 07/00 A2987 RMK AO2 PK WND 32026/1128 SLP116 T00720000 10083 20072 53006=
201210291052 METAR KATL 291052Z 34019G27KT 10SM BKN032 08/01 A2986 RMK AO2 PK WND 33030/1007 SLP115 T00780006=
201210290952 METAR KATL 290952Z 34018G29KT 10SM SCT032 08/01 A2985 RMK AO2 PK WND 32029/0947 SLP109 T00780006=
201210290852 METAR KATL 290852Z 33020G27KT 10SM SCT030 07/01 A2985 RMK AO2 PK WND 32029/0823 SLP109 T00720006 56006=
201210290752 METAR KATL 290752Z 33021G27KT 10SM FEW029 07/01 A2985 RMK AO2 PK WND 34028/0720 SLP110 T00720011=
201210290652 METAR KATL 290652Z 33015G31KT 10SM FEW030 08/01 A2986 RMK AO2 PK WND 34034/0603 SLP112 T00780011=
201210290552 METAR KATL 290552Z 34020G30KT 10SM FEW029 08/01 A2987 RMK AO2 PK WND 33039/0531 SLP114 T00830011 10100 20083 50000=
201210290452 METAR KATL 290452Z 34019G31KT 10SM SCT031 08/02 A2987 RMK AO2 PK WND 34036/0442 SLP115 T00830017 401330083=
201210290411 SPECI KATL 290411Z 34017G27KT 10SM SCT027 08/02 A2988 RMK AO2 PK WND 35036/0359=
201210290352 METAR KATL 290352Z 34020G30KT 10SM BKN027 09/02 A2989 RMK AO2 PK WND 33038/0306 SLP120 T00890022=
201210290252 METAR KATL 290252Z 33021G31KT 10SM BKN029 09/02 A2987 RMK AO2 PK WND 33036/0225 SLP115 T00890022 50000=
201210290152 METAR KATL 290152Z 33021G39KT 10SM OVC027 09/03 A2987 RMK AO2 PK WND 34039/0144 SLP115 T00940028=
201210290052 METAR KATL 290052Z 33014G29KT 10SM OVC027 09/03 A2987 RMK AO2 PK WND 32033/0006 SLP115 T00940033=
201210282352 METAR KATL 282352Z 33020G28KT 10SM BKN025 OVC032 10/04 A2987 RMK AO2 PK WND 33031/2336 SLP114 T01000039 10133 20100 51019=
201210282252 METAR KATL 282252Z 33015G26KT 10SM OVC024 10/04 A2984 RMK AO2 PK WND 33027/2240 SLP106 T01000044=
201210282152 METAR KATL 282152Z 33014G24KT 10SM OVC022 11/05 A2984 RMK AO2 PK WND 33032/2133 SLP103 T01060050=
201210282052 METAR KATL 282052Z 33017G23KT 10SM BKN025 11/06 A2981 RMK AO2 PK WND 32031/2005 SLP095 T01110056 53003=
201210281952 METAR KATL 281952Z 32020G28KT 10SM OVC027 12/06 A2981 RMK AO2 PK WND 33028/1951 SLP094 T01220056=
201210281852 METAR KATL 281852Z 32018G26KT 10SM OVC025 13/06 A2980 RMK AO2 PK WND 34026/1843 SLP090 T01280061=
201210281752 METAR KATL 281752Z 33020G26KT 10SM OVC021 13/06 A2980 RMK AO2 PK WND 33026/1751 SLP091 60000 T01280061 10128 20106 58009=
201210281728 SPECI KATL 281728Z 32017G24KT 10SM BKN021 OVC032 12/07 A2981 RMK AO2=
201210281709 SPECI KATL 281709Z 32013G21KT 10SM SCT019 OVC030 12/07 A2982 RMK AO2=
201210281652 METAR KATL 281652Z 31016G21KT 10SM SCT017 OVC028 12/07 A2982 RMK AO2 SLP099 T01170067=
201210281552 METAR KATL 281552Z 32012KT 10SM BKN017 OVC028 12/07 A2982 RMK AO2 SLP099 T01170067=
201210281542 SPECI KATL 281542Z 31011G18KT 10SM SCT015 OVC028 12/07 A2982 RMK AO2=
201210281522 SPECI KATL 281522Z 32013G19KT 10SM SCT015 OVC031 12/07 A2982 RMK AO2=
201210281452 METAR KATL 281452Z 31012KT 10SM BKN015 OVC029 11/07 A2983 RMK AO2 RAB27E39 SLP101 P0000 60000 T01110072 53009=
201210281411 SPECI KATL 281411Z 31011G18KT 10SM BKN014 OVC034 11/07 A2983 RMK AO2=
201210281352 METAR KATL 281352Z 32014KT 10SM FEW014 OVC036 11/07 A2982 RMK AO2 SLP098 T01110072=
201210281252 METAR KATL 281252Z 32009KT 10SM FEW013 BKN034 BKN050 11/07 A2981 RMK AO2 RAB07E36 SLP094 P0000 T01060072=
201210281152 METAR KATL 281152Z 30013G17KT 10SM FEW013 BKN038 11/07 A2980 RMK AO2 RAB1053E05 SLP091 P0000 60000 T01060072 10111 20100 53007=
201210281052 METAR KATL 281052Z 31010G16KT 10SM FEW012 BKN033 OVC050 11/07 A2979 RMK AO2 SLP088 T01060072=
201210280952 METAR KATL 280952Z 32009KT 10SM FEW031 BKN046 OVC055 11/07 A2979 RMK AO2 SLP085 T01060072=
201210280852 METAR KATL 280852Z 32010KT 10SM BKN040 BKN065 10/07 A2978 RMK AO2 SLP083 T01000072 56007=
201210280752 METAR KATL 280752Z 31009KT 10SM BKN065 10/07 A2979 RMK AO2 SLP085 T01000072=
201210280652 METAR KATL 280652Z 31011KT 10SM SCT048 BKN060 BKN085 11/07 A2979 RMK AO2 SLP086 T01060072=
201210280552 METAR KATL 280552Z 33007KT 10SM FEW014 BKN055 11/08 A2980 RMK AO2 SLP089 T01110078 10133 20106 58009=
201210280525 SPECI KATL 280525Z 32011KT 10SM SCT014 SCT080 11/07 A2982 RMK AO2=
201210280452 METAR KATL 280452Z 32014KT 10SM BKN014 BKN075 OVC250 11/08 A2982 RMK AO2 SLP096 T01110078 402110111=
201210280400 SPECI KATL 280400Z 32014G20KT 10SM BKN014 BKN075 OVC250 11/08 A2984 RMK AO2=
201210280352 METAR KATL 280352Z 32011G20KT 10SM SCT014 BKN075 BKN250 11/08 A2983 RMK AO2 SLP099 T01110078=
201210280252 METAR KATL 280252Z 32012KT 10SM FEW020 OVC250 12/08 A2983 RMK AO2 SLP099 T01170078 53003=
201210280152 METAR KATL 280152Z 32011G20KT 10SM FEW020 OVC250 12/08 A2982 RMK AO2 SLP095 T01170078=
201210280052 METAR KATL 280052Z 33010KT 10SM FEW020 OVC250 12/08 A2981 RMK AO2 SLP094 T01220078=
201210272352 METAR KATL 272352Z 32012KT 10SM OVC250 13/08 A2982 RMK AO2 SLP095 T01330083 10200 20133 51009=
201210272252 METAR KATL 272252Z 32015KT 10SM FEW020 BKN250 14/09 A2981 RMK AO2 SLP093 T01390089=
201210272152 METAR KATL 272152Z 31015G20KT 10SM FEW040 OVC250 16/09 A2981 RMK AO2 SLP090 T01560094=
201210272052 METAR KATL 272052Z 32011G19KT 10SM FEW040 OVC250 18/11 A2979 RMK AO2 SLP083 T01780106 56013=
201210271952 METAR KATL 271952Z 32011KT 10SM FEW040 BKN250 18/11 A2980 RMK AO2 SLP085 T01830111=
201210271852 METAR KATL 271852Z 30013G16KT 10SM BKN250 20/12 A2981 RMK AO2 SLP086 T02000117=
201210271752 METAR KATL 271752Z 33013KT 10SM BKN250 19/12 A2983 RMK AO2 SLP095 T01890117 10194 20150 58022=
201210271652 METAR KATL 271652Z 32011KT 10SM FEW080 OVC250 19/12 A2987 RMK AO2 SLP107 T01890122=
201210271552 METAR KATL 271552Z 33009KT 10SM FEW080 OVC250 18/12 A2989 RMK AO2 SLP115 T01780122=
201210271452 METAR KATL 271452Z 31010KT 9SM FEW080 OVC250 17/12 A2990 RMK AO2 SLP118 T01670122 50005=
201210271352 METAR KATL 271352Z 33013KT 8SM FEW007 SCT080 OVC250 16/13 A2990 RMK AO2 SLP118 T01610128=
201210271258 SPECI KATL 271258Z 32014KT 6SM BR FEW006 SCT020 BKN140 BKN250 15/13 A2990 RMK AO2=
201210271252 METAR KATL 271252Z 32014G18KT 6SM BR FEW020 BKN140 BKN250 16/13 A2990 RMK AO2 SLP119 T01560133=
201210271152 METAR KATL 271152Z 32010KT 7SM SCT180 BKN250 16/13 A2988 RMK AO2 SLP112 T01560133 10194 20156 53005=
201210271052 METAR KATL 271052Z 34006KT 10SM BKN180 OVC250 16/13 A2987 RMK AO2 SLP109 T01610128=
201210270952 METAR KATL 270952Z 34007KT 8SM SCT180 BKN250 17/13 A2987 RMK AO2 SLP106 T01670128=
201210270852 METAR KATL 270852Z 01006KT 10SM FEW080 OVC200 18/13 A2987 RMK AO2 SLP105 T01780128 56017=
201210270752 METAR KATL 270752Z 06008KT 8SM BKN085 BKN250 18/13 A2988 RMK AO2 SLP108 T01780128=
201210270652 METAR KATL 270652Z 07009KT 10SM FEW080 SCT250 18/13 A2990 RMK AO2 SLP115 T01830128=
201210270552 METAR KATL 270552Z 07009KT 10SM BKN055 BKN250 19/13 A2992 RMK AO2 SLP123 T01940128 10233 20194 57005=
201210270452 METAR KATL 270452Z 02004KT 10SM BKN055 BKN230 21/13 A2992 RMK AO2 SLP125 T02060128 402670167=
201210270352 METAR KATL 270352Z 04005KT 10SM SCT250 21/12 A2993 RMK AO2 SLP126 T02060122=
201210270252 METAR KATL 270252Z 05005KT 10SM FEW250 21/13 A2993 RMK AO2 SLP129 T02110128 56003=
201210270152 METAR KATL 270152Z 06005KT 10SM FEW250 22/12 A2993 RMK AO2 SLP129 T02220122=
201210270052 METAR KATL 270052Z 00000KT 10SM FEW250 21/13 A2994 RMK AO2 SLP131 T02060128=
201210262352 METAR KATL 262352Z 00000KT 10SM FEW250 23/12 A2994 RMK AO2 SLP133 T02330122 10267 20228 55000=
201210262252 METAR KATL 262252Z 11003KT 10SM FEW250 24/13 A2994 RMK AO2 SLP130 T02390128=
201210262152 METAR KATL 262152Z 05008KT 10SM FEW060 SCT250 25/13 A2994 RMK AO2 SLP131 T02500128=
201210262052 METAR KATL 262052Z 05007KT 10SM FEW050 SCT060 SCT250 26/13 A2994 RMK AO2 SLP131 TCU DSNT E-SE T02610133 56024=
201210261952 METAR KATL 261952Z 05009KT 10SM FEW045TCU SCT065 SCT250 27/14 A2996 RMK AO2 SLP137 TCU W T02670139=
201210261852 METAR KATL 261852Z VRB05KT 10SM SCT040TCU SCT250 26/14 A2999 RMK AO2 SLP147 TCU E & SE-SW T02560139=
201210261752 METAR KATL 261752Z 06009KT 10SM BKN040 BKN060 25/14 A3002 RMK AO2 SLP158 T02500144 10256 20172 58021=
201210261652 METAR KATL 261652Z 09006KT 10SM FEW030 SCT050 SCT250 25/14 A3005 RMK AO2 SLP167 T02500144=
201210261552 METAR KATL 261552Z 09007KT 10SM FEW025 SCT050 SCT250 23/16 A3007 RMK AO2 SLP176 T02330161=
201210261452 METAR KATL 261452Z 06008KT 10SM FEW015 SCT045 SCT250 21/16 A3008 RMK AO2 SLP179 T02110161 51014=
201210261352 METAR KATL 261352Z 05007KT 10SM FEW040 BKN050 19/16 A3008 RMK AO2 SLP179 T01940161=
201210261252 METAR KATL 261252Z 07007KT 10SM FEW044 18/16 A3006 RMK AO2 SLP173 T01830156=
201210261152 METAR KATL 261152Z 06008KT 10SM FEW025 SCT060 SCT250 17/15 A3004 RMK AO2 SLP166 T01720150 10183 20167 53001=
201210261052 METAR KATL 261052Z 07007KT 10SM FEW025 17/14 A3003 RMK AO2 SLP164 T01720144=
201210260952 METAR KATL 260952Z 07006KT 10SM FEW025 17/14 A3003 RMK AO2 SLP160 T01670144=
201210260852 METAR KATL 260852Z 07006KT 10SM SCT060 18/14 A3004 RMK AO2 SLP163 T01830144 50001=
201210260752 METAR KATL 260752Z 05004KT 10SM FEW023 BKN060 18/14 A3004 RMK AO2 SLP165 T01830144=
201210260652 METAR KATL 260652Z 07005KT 10SM SCT035 SCT060 18/14 A3004 RMK AO2 SLP166 T01780139=
201210260552 METAR KATL 260552Z 08005KT 10SM FEW035 SCT060 18/14 A3003 RMK AO2 SLP163 T01780139 10233 20178 57007=
201210260452 METAR KATL 260452Z 09007KT 10SM SCT035 BKN060 19/14 A3004 RMK AO2 SLP164 T01940139 402670144=
201210260352 METAR KATL 260352Z 08008KT 10SM SCT042 BKN060 20/14 A3005 RMK AO2 SLP169 T02000139=
201210260252 METAR KATL 260252Z 07009KT 10SM SCT060 21/14 A3006 RMK AO2 SLP171 T02060139 55001=
201210260152 METAR KATL 260152Z 06009KT 10SM SCT050 21/14 A3005 RMK AO2 SLP171 T02110139=
201210260052 METAR KATL 260052Z 07010KT 10SM FEW070 22/14 A3006 RMK AO2 SLP172 T02220139=
201210252352 METAR KATL 252352Z 05007KT 10SM FEW070 SCT250 23/14 A3006 RMK AO2 SLP172 T02330139 10267 20228 53005=
201210252252 METAR KATL 252252Z 08006KT 10SM FEW070 23/13 A3005 RMK AO2 SLP170 T02280133=
201210252152 METAR KATL 252152Z 08006KT 10SM FEW050 SCT070 25/13 A3005 RMK AO2 SLP168 T02500128=
201210252052 METAR KATL 252052Z 07008KT 10SM FEW050 BKN060 26/13 A3004 RMK AO2 SLP168 T02560128 56012=
201210251952 METAR KATL 251952Z 06009KT 10SM BKN050 BKN060 26/13 A3005 RMK AO2 SLP169 T02560128=
201210251852 METAR KATL 251852Z VRB05KT 10SM FEW045 BKN050 BKN060 26/13 A3006 RMK AO2 SLP172 T02560133=
201210251752 METAR KATL 251752Z 15007KT 10SM FEW045 BKN055 24/13 A3008 RMK AO2 SLP179 T02440133 10256 20156 58015=
201210251652 METAR KATL 251652Z 09007KT 10SM FEW040 SCT055 SCT250 25/14 A3011 RMK AO2 SLP188 T02500139=
201210251552 METAR KATL 251552Z 14006KT 10SM FEW035 SCT060 23/13 A3012 RMK AO2 SLP193 T02330133=
201210251452 METAR KATL 251452Z VRB04KT 10SM FEW250 21/14 A3013 RMK AO2 SLP196 T02110144 50006=
201210251352 METAR KATL 251352Z 09007KT 10SM FEW250 18/14 A3013 RMK AO2 SLP196 T01830144=
201210251252 METAR KATL 251252Z 07006KT 10SM CLR 17/13 A3012 RMK AO2 SLP193 T01670133=
201210251152 METAR KATL 251152Z 05005KT 10SM CLR 16/13 A3011 RMK AO2 SLP189 T01560128 10178 20144 53010=
201210251052 METAR KATL 251052Z 05004KT 10SM CLR 16/12 A3009 RMK AO2 SLP184 T01560122=
201210250952 METAR KATL 250952Z 07006KT 10SM CLR 14/12 A3008 RMK AO2 SLP180 T01440117 $=
201210250852 METAR KATL 250852Z 06005KT 10SM CLR 15/12 A3008 RMK AO2 SLP179 T01500117 56011 $=
201210250752 METAR KATL 250752Z 07004KT 10SM CLR 16/11 A3008 RMK AO2 SLP180 T01560111 $=
201210250652 METAR KATL 250652Z 09004KT 10SM CLR 17/11 A3010 RMK AO2 SLP184 T01720111 $=
201210250552 METAR KATL 250552Z 07004KT 10SM CLR 18/11 A3011 RMK AO2 SLP189 T01780111 10228 20172 55001 $=
201210250452 METAR KATL 250452Z 00000KT 10SM CLR 18/11 A3011 RMK AO2 SLP189 T01780106 402610128 $=
201210250352 METAR KATL 250352Z 00000KT 10SM CLR 18/11 A3011 RMK AO2 SLP190 T01830111 $=
201210250252 METAR KATL 250252Z 00000KT 10SM CLR 18/11 A3011 RMK AO2 SLP191 T01830111 51004 $=
201210250152 METAR KATL 250152Z 11003KT 10SM CLR 21/11 A3011 RMK AO2 SLP190 T02060106 $=
201210250052 METAR KATL 250052Z 00000KT 10SM CLR 21/12 A3011 RMK AO2 SLP190 T02110117=
201210242352 METAR KATL 242352Z 12003KT 10SM CLR 23/11 A3010 RMK AO2 SLP189 T02280111 10261 20222 53004=
201210242252 METAR KATL 242252Z 15003KT 10SM CLR 23/11 A3009 RMK AO2 SLP185 T02330111=
201210242152 METAR KATL 242152Z 14005KT 10SM FEW250 25/11 A3009 RMK AO2 SLP183 T02500111=
201210242052 METAR KATL 242052Z 14005KT 10SM FEW250 26/11 A3009 RMK AO2 SLP183 T02560106 56016=
201210241952 METAR KATL 241952Z 14006KT 10SM FEW250 26/11 A3010 RMK AO2 SLP186 T02610111=
201210241852 METAR KATL 241852Z 15005KT 10SM FEW055 SCT250 25/12 A3011 RMK AO2 SLP190 T02500117=
201210241752 METAR KATL 241752Z VRB06KT 10SM FEW050 SCT250 25/12 A3014 RMK AO2 SLP199 T02500122 10256 20128 58022=
201210241652 METAR KATL 241652Z 00000KT 10SM FEW040 SCT250 24/13 A3017 RMK AO2 SLP210 T02440128=
201210241552 METAR KATL 241552Z 12003KT 10SM FEW035 SCT250 23/14 A3019 RMK AO2 SLP216 T02330139=
201210241452 METAR KATL 241452Z 00000KT 10SM FEW250 22/13 A3020 RMK AO2 SLP222 T02220128 50004=
201210241352 METAR KATL 241352Z 00000KT 10SM FEW250 19/11 A3021 RMK AO2 SLP225 T01890111=
201210241252 METAR KATL 241252Z 00000KT 10SM CLR 15/11 A3020 RMK AO2 SLP224 T01500106=
201210241152 METAR KATL 241152Z 09004KT 10SM FEW250 13/09 A3019 RMK AO2 SLP220 T01280089 10161 20128 51013=
201210241052 METAR KATL 241052Z VRB03KT 10SM CLR 14/09 A3018 RMK AO2 SLP214 T01390089=
201210240952 METAR KATL 240952Z 09003KT 10SM CLR 14/09 A3017 RMK AO2 SLP210 T01390094=
201210240852 METAR KATL 240852Z 08004KT 10SM CLR 15/09 A3015 RMK AO2 SLP204 T01500094 53001=
201210240752 METAR KATL 240752Z 07003KT 10SM CLR 15/10 A3014 RMK AO2 SLP200 T01500100=
201210240652 METAR KATL 240652Z 08003KT 10SM FEW250 15/10 A3014 RMK AO2 SLP200 T01500100=
201210240552 METAR KATL 240552Z 09003KT 10SM FEW250 16/10 A3015 RMK AO2 SLP203 T01560100 10206 20156 53001=
201210240452 METAR KATL 240452Z 00000KT 10SM SCT250 17/09 A3014 RMK AO2 SLP201 T01670094 402560128=
201210240352 METAR KATL 240352Z 15003KT 10SM SCT250 17/09 A3014 RMK AO2 SLP200 T01670094=
201210240252 METAR KATL 240252Z 13003KT 10SM FEW250 18/10 A3014 RMK AO2 SLP201 T01830100 53003=
201210240152 METAR KATL 240152Z 00000KT 10SM FEW250 18/09 A3014 RMK AO2 SLP202 T01780094=
201210240052 METAR KATL 240052Z 00000KT 10SM FEW250 19/09 A3013 RMK AO2 SLP200 T01890094=
201210232352 METAR KATL 232352Z 00000KT 10SM SCT250 20/08 A3013 RMK AO2 SLP201 T02000083 10256 20200 53005=
201210232252 METAR KATL 232252Z 14003KT 10SM FEW200 BKN250 23/08 A3012 RMK AO2 SLP195 T02280083=
201210232152 METAR KATL 232152Z 15004KT 10SM FEW200 BKN250 24/07 A3012 RMK AO2 SLP193 T02390072=
201210232052 METAR KATL 232052Z 16004KT 10SM FEW150 SCT200 BKN250 24/08 A3012 RMK AO2 SLP193 T02440078 56014=
201210231952 METAR KATL 231952Z COR 14006KT 10SM FEW150 SCT200 BKN250 24/08 A3012 RMK AO2 SLP193 T02440078=
201210231852 METAR KATL 231852Z 10007KT 10SM FEW150 SCT200 BKN250 25/09 A3013 RMK AO2 SLP198 T02500094=
201210231752 METAR KATL 231752Z 15007KT 10SM FEW150 SCT200 BKN250 24/08 A3016 RMK AO2 SLP207 T02440083 10244 20128 58018=
201210231652 METAR KATL 231652Z VRB03KT 10SM FEW150 SCT200 BKN250 23/09 A3019 RMK AO2 SLP217 T02330089=
201210231552 METAR KATL 231552Z 15003KT 10SM FEW180 SCT200 SCT250 22/09 A3020 RMK AO2 SLP221 T02220089=
201210231452 METAR KATL 231452Z 00000KT 10SM FEW200 BKN250 20/08 A3022 RMK AO2 SLP227 T02000083 51009=
201210231352 METAR KATL 231352Z 00000KT 10SM FEW180 SCT200 BKN250 17/09 A3022 RMK AO2 SLP227 T01720089=
201210231252 METAR KATL 231252Z 00000KT 10SM BKN250 15/11 A3021 RMK AO2 SLP225 T01500106=
201210231152 METAR KATL 231152Z 00000KT 8SM FEW080 SCT250 13/09 A3019 RMK AO2 SLP219 T01280089 10161 20128 53015=
201210231052 METAR KATL 231052Z 12003KT 10SM FEW250 13/08 A3017 RMK AO2 SLP211 T01280083=
201210230952 METAR KATL 230952Z 15003KT 10SM FEW250 14/09 A3015 RMK AO2 SLP205 T01440094=
201210230852 METAR KATL 230852Z 00000KT 10SM CLR 14/09 A3014 RMK AO2 SLP201 T01440094 56006=
201210230752 METAR KATL 230752Z 12003KT 10SM CLR 15/10 A3014 RMK AO2 SLP201 T01500100=
201210230652 METAR KATL 230652Z 12003KT 10SM CLR 16/11 A3015 RMK AO2 SLP203 T01610106=
201210230552 METAR KATL 230552Z 00000KT 10SM CLR 15/10 A3016 RMK AO2 SLP208 T01500100 10211 20150 57008=
201210230452 METAR KATL 230452Z 00000KT 10SM CLR 18/10 A3017 RMK AO2 SLP211 T01780100 402610106=
201210230352 METAR KATL 230352Z 00000KT 10SM FEW250 17/11 A3018 RMK AO2 SLP213 T01720106=
201210230252 METAR KATL 230252Z 14003KT 10SM CLR 18/10 A3019 RMK AO2 SLP217 T01780100 51007=
201210230152 METAR KATL 230152Z 00000KT 10SM CLR 19/10 A3018 RMK AO2 SLP216 T01890100 $=
201210230052 METAR KATL 230052Z COR 10SM CLR 19/09 A3018 RMK AO2 SLP217 T01890094=
201210222352 METAR KATL 222352Z 18003KT 10SM CLR 20/09 A3016 RMK AO2 SLP212 T02000094 10261 20200 53010=
201210222252 METAR KATL 222252Z 16004KT 10SM FEW250 23/09 A3015 RMK AO2 SLP205 T02280089=
201210222152 METAR KATL 222152Z 17003KT 10SM FEW250 25/08 A3014 RMK AO2 SLP200 T02500078=
201210222052 METAR KATL 222052Z 00000KT 10SM FEW250 25/09 A3014 RMK AO2 SLP200 T02500089 56021=
201210221952 METAR KATL 221952Z 00000KT 10SM FEW250 26/07 A3015 RMK AO2 SLP204 T02560072=
201210221852 METAR KATL 221852Z 00000KT 10SM FEW250 26/09 A3017 RMK AO2 SLP210 T02560089=
201210221752 METAR KATL 221752Z 00000KT 10SM FEW250 24/08 A3020 RMK AO2 SLP221 T02440083 10244 20111 58012=
201210221652 METAR KATL 221652Z 17003KT 10SM SCT250 23/09 A3022 RMK AO2 SLP230 T02330089=
201210221552 METAR KATL 221552Z VRB04KT 10SM BKN250 22/09 A3023 RMK AO2 SLP234 T02170089=
201210221452 METAR KATL 221452Z 00000KT 10SM BKN250 20/08 A3024 RMK AO2 SLP234 T02000078 51008=
201210221352 METAR KATL 221352Z 00000KT 10SM SCT250 18/09 A3024 RMK AO2 SLP235 T01830094=
201210221252 METAR KATL 221252Z 00000KT 10SM FEW250 14/09 A3022 RMK AO2 SLP231 T01440094=
201210221152 METAR KATL 221152Z 00000KT 10SM FEW250 12/08 A3021 RMK AO2 SLP228 T01170078 10144 20106 53016=
201210221052 METAR KATL 221052Z 17003KT 10SM CLR 11/07 A3019 RMK AO2 SLP220 T01110072=
201210220952 METAR KATL 220952Z 32004KT 10SM CLR 12/07 A3017 RMK AO2 SLP213 T01170072=
201210220852 METAR KATL 220852Z 00000KT 10SM CLR 12/08 A3016 RMK AO2 SLP209 T01220078 53003=
201210220752 METAR KATL 220752Z 00000KT 10SM CLR 12/08 A3016 RMK AO2 SLP208 T01220078=
201210220652 METAR KATL 220652Z 00000KT 10SM CLR 13/08 A3016 RMK AO2 SLP206 T01330078=
201210220552 METAR KATL 220552Z 00000KT 10SM FEW250 13/08 A3015 RMK AO2 SLP207 T01330078 10211 20128 53003=
201210220452 METAR KATL 220452Z 00000KT 10SM SCT250 14/08 A3015 RMK AO2 SLP205 T01390078 402440083=
201210220352 METAR KATL 220352Z 00000KT 10SM BKN250 16/08 A3014 RMK AO2 SLP204 T01560078=
201210220252 METAR KATL 220252Z 00000KT 10SM SCT250 17/07 A3014 RMK AO2 SLP204 T01720072 50005=
201210220152 METAR KATL 220152Z 00000KT 10SM SCT250 17/07 A3015 RMK AO2 SLP206 T01670072=
201210220052 METAR KATL 220052Z 00000KT 10SM FEW250 18/07 A3014 RMK AO2 SLP203 T01830067=
201210212352 METAR KATL 212352Z 34004KT 10SM FEW250 21/05 A3013 RMK AO2 SLP200 T02110050 10244 20211 53005=
201210212252 METAR KATL 212252Z 31005KT 10SM FEW250 21/06 A3012 RMK AO2 SLP197 T02110056=
201210212152 METAR KATL 212152Z 00000KT 10SM FEW250 24/06 A3011 RMK AO2 SLP194 T02390061=
201210212052 METAR KATL 212052Z 32004KT 10SM CLR 24/06 A3011 RMK AO2 SLP193 T02390061 56010=
201210211952 METAR KATL 211952Z VRB04KT 10SM CLR 24/06 A3012 RMK AO2 SLP194 T02390061=
201210211852 METAR KATL 211852Z VRB04KT 10SM CLR 23/07 A3012 RMK AO2 SLP196 T02280072=
201210211752 METAR KATL 211752Z VRB05KT 10SM CLR 21/07 A3014 RMK AO2 SLP205 T02110067 10217 20083 58008=
201210211652 METAR KATL 211652Z 01005KT 10SM CLR 20/06 A3016 RMK AO2 SLP208 T02000061=
201210211552 METAR KATL 211552Z 02003KT 10SM CLR 18/07 A3016 RMK AO2 SLP212 T01830072=
201210211452 METAR KATL 211452Z 08003KT 10SM CLR 17/07 A3017 RMK AO2 SLP215 T01670072 51016=
201210211352 METAR KATL 211352Z 34004KT 10SM CLR 13/08 A3016 RMK AO2 SLP213 T01330078=
201210211252 METAR KATL 211252Z 32005KT 10SM FEW250 11/08 A3013 RMK AO2 SLP202 T01110078=
201210211152 METAR KATL 211152Z 31006KT 10SM FEW250 08/06 A3012 RMK AO2 SLP200 T00830061 10117 20083 53024=
201210211052 METAR KATL 211052Z 30004KT 10SM CLR 09/07 A3010 RMK AO2 SLP190 T00890067=
201210210952 METAR KATL 210952Z 32003KT 10SM CLR 09/07 A3007 RMK AO2 SLP179 T00940067=
201210210852 METAR KATL 210852Z 33003KT 10SM CLR 11/07 A3005 RMK AO2 SLP172 T01060072 51011=
201210210752 METAR KATL 210752Z 00000KT 10SM CLR 10/07 A3004 RMK AO2 SLP170 T01000067=
201210210652 METAR KATL 210652Z 32006KT 10SM CLR 11/07 A3003 RMK AO2 SLP166 T01110072=
201210210552 METAR KATL 210552Z 33006KT 10SM CLR 11/07 A3001 RMK AO2 SLP162 T01110072 10167 20111 53008=
201210210452 METAR KATL 210452Z 33006KT 10SM CLR 12/07 A3000 RMK AO2 SLP158 T01170072 402170083=
201210210352 METAR KATL 210352Z 30004KT 10SM CLR 13/08 A3000 RMK AO2 SLP155 T01280078=
201210210252 METAR KATL 210252Z 32006KT 10SM CLR 14/08 A2999 RMK AO2 SLP153 T01390078 51013=
201210210152 METAR KATL 210152Z 31007KT 10SM CLR 14/08 A2998 RMK AO2 SLP151 T01390078=
201210210052 METAR KATL 210052Z 32005KT 10SM CLR 15/07 A2996 RMK AO2 SLP146 T01500072=
201210202352 METAR KATL 202352Z 31006KT 10SM CLR 17/07 A2995 RMK AO2 SLP141 T01670072 10217 20167 53016=
201210202252 METAR KATL 202252Z 31007KT 10SM FEW250 18/07 A2993 RMK AO2 SLP132 T01830067=
201210202152 METAR KATL 202152Z 31010KT 10SM FEW250 20/06 A2992 RMK AO2 SLP128 T02000061=
201210202052 METAR KATL 202052Z 30011KT 10SM FEW250 21/06 A2990 RMK AO2 SLP121 T02110061 55011=
201210201952 METAR KATL 201952Z 29006KT 10SM BKN250 21/06 A2989 RMK AO2 SLP118 T02110061=
201210201852 METAR KATL 201852Z 33012G18KT 10SM SCT250 21/05 A2990 RMK AO2 SLP124 T02060050=
201210201752 METAR KATL 201752Z 29012KT 10SM FEW250 20/06 A2993 RMK AO2 SLP133 T02000056 10206 20089 58003=
201210201652 METAR KATL 201652Z 32013G17KT 10SM SCT250 19/06 A2994 RMK AO2 SLP138 T01890056=
201210201552 METAR KATL 201552Z 31012G18KT 10SM FEW250 18/06 A2995 RMK AO2 SLP139 T01780056=
201210201452 METAR KATL 201452Z 29007KT 10SM CLR 16/06 A2994 RMK AO2 SLP136 T01610056 51015=
201210201352 METAR KATL 201352Z 30008KT 10SM FEW250 13/06 A2994 RMK AO2 SLP135 T01330056=
201210201252 METAR KATL 201252Z 28003KT 10SM SCT250 11/05 A2992 RMK AO2 SLP132 T01060050=
201210201152 METAR KATL 201152Z 28004KT 10SM SCT250 09/04 A2990 RMK AO2 SLP123 T00890044 10111 20083 51013=
201210201052 METAR KATL 201052Z 29005KT 10SM CLR 09/04 A2989 RMK AO2 SLP119 T00890044=
201210200952 METAR KATL 200952Z 29007KT 10SM CLR 10/04 A2989 RMK AO2 SLP117 T01000039=
201210200852 METAR KATL 200852Z 29007KT 10SM CLR 11/04 A2986 RMK AO2 SLP108 T01060039 53005=
201210200752 METAR KATL 200752Z 30006KT 10SM CLR 11/03 A2985 RMK AO2 SLP103 T01060033=
201210200652 METAR KATL 200652Z 26003KT 10SM CLR 11/04 A2985 RMK AO2 SLP106 T01060039=
201210200552 METAR KATL 200552Z 00000KT 10SM CLR 11/04 A2984 RMK AO2 SLP102 T01110039 10167 20106 50002=
201210200452 METAR KATL 200452Z 28003KT 10SM CLR 12/03 A2984 RMK AO2 SLP103 T01220028 402280106=
201210200352 METAR KATL 200352Z 25004KT 10SM CLR 13/03 A2984 RMK AO2 SLP101 T01330028=
201210200252 METAR KATL 200252Z 27006KT 9SM CLR 14/02 A2984 RMK AO2 SLP101 T01440022 51014=
201210200152 METAR KATL 200152Z 27006KT 10SM CLR 16/02 A2983 RMK AO2 SLP099 T01560022=
201210200052 METAR KATL 200052Z 26004KT 10SM CLR 16/02 A2982 RMK AO2 SLP094 T01610022=
201210192352 METAR KATL 192352Z 22005KT 10SM CLR 17/02 A2980 RMK AO2 SLP088 T01670017 10228 20167 53009=
201210192252 METAR KATL 192252Z 22005KT 10SM CLR 19/01 A2977 RMK AO2 SLP079 T01940006=
201210192152 METAR KATL 192152Z 24012G18KT 10SM CLR 21/00 A2977 RMK AO2 SLP079 T02110000=
201210192052 METAR KATL 192052Z 23009G21KT 10SM CLR 22/M01 A2977 RMK AO2 PK WND 22026/1958 SLP076 T02221006 56017=
201210191952 METAR KATL 191952Z 23013G20KT 10SM CLR 22/M01 A2978 RMK AO2 SLP078 T02221006=
201210191852 METAR KATL 191852Z 25013G23KT 10SM CLR 22/M02 A2979 RMK AO2 PK WND 25026/1840 SLP082 T02171017=
201210191752 METAR KATL 191752Z 25014G24KT 10SM CLR 22/M02 A2982 RMK AO2 SLP093 T02171022 10217 20106 58010=
201210191652 METAR KATL 191652Z 26013G22KT 10SM CLR 21/00 A2985 RMK AO2 SLP103 T02110000=
201210191552 METAR KATL 191552Z 27014G19KT 10SM CLR 20/M01 A2985 RMK AO2 SLP102 T02001006=
201210191452 METAR KATL 191452Z 25010G18KT 10SM CLR 19/00 A2985 RMK AO2 SLP102 T01890000 50003=
201210191352 METAR KATL 191352Z 24006KT 10SM CLR 16/02 A2985 RMK AO2 SLP105 T01610017=
201210191252 METAR KATL 191252Z 23005KT 10SM CLR 12/03 A2985 RMK AO2 SLP104 T01220033=
201210191152 METAR KATL 191152Z 24005KT 10SM CLR 11/03 A2984 RMK AO2 SLP102 T01110028 10144 20106 53004=
201210191052 METAR KATL 191052Z 26005KT 10SM CLR 12/03 A2984 RMK AO2 SLP099 T01170033=
201210190952 METAR KATL 190952Z 24003KT 10SM CLR 12/04 A2983 RMK AO2 SLP097 T01170039=
201210190852 METAR KATL 190852Z 27006KT 10SM CLR 12/03 A2983 RMK AO2 SLP096 T01220033 58007=
201210190752 METAR KATL 190752Z 27007KT 10SM CLR 13/03 A2984 RMK AO2 SLP099 T01330033=
201210190652 METAR KATL 190652Z 27007KT 10SM CLR 14/04 A2985 RMK AO2 SLP104 T01390044=
201210190552 METAR KATL 190552Z 29007KT 10SM CLR 14/06 A2985 RMK AO2 SLP104 T01390061 10194 20139 52004=
201210190452 METAR KATL 190452Z 28007KT 10SM FEW120 14/08 A2985 RMK AO2 SLP103 T01440078 402330144=
201210190352 METAR KATL 190352Z 29007KT 10SM SCT120 16/09 A2984 RMK AO2 SLP101 T01610094=
201210190252 METAR KATL 190252Z 26005KT 10SM FEW120 18/13 A2984 RMK AO2 SLP099 T01830128 53009=
201210190152 METAR KATL 190152Z 24006KT 10SM BKN120 19/16 A2983 RMK AO2 SLP096 T01890156=
201210190052 METAR KATL 190052Z 23004KT 10SM FEW120 18/16 A2982 RMK AO2 SLP093 T01830156=
201210182352 METAR KATL 182352Z 21005KT 10SM FEW030 19/16 A2981 RMK AO2 SLP090 T01940156 10233 20194 53003=
201210182252 METAR KATL 182252Z 20006KT 10SM FEW030 21/16 A2980 RMK AO2 SLP086 T02110156=
201210182152 METAR KATL 182152Z 19006KT 10SM FEW030 22/16 A2980 RMK AO2 SLP083 TCU DSNT N-NE T02220156=
201210182052 METAR KATL 182052Z 22010KT 10SM SCT027TCU SCT030 23/16 A2980 RMK AO2 SLP084 TCU NW-N T02330161 56004=
201210181952 METAR KATL 181952Z 20008KT 10SM FEW025 SCT035 BKN040 23/16 A2980 RMK AO2 SLP086 T02280161=
201210181855 SPECI KATL 181855Z 20007KT 10SM FEW020 SCT025 BKN030 22/16 A2980 RMK AO2=
201210181852 METAR KATL 181852Z 23008KT 10SM BKN020 BKN030 22/16 A2981 RMK AO2 SLP087 T02170161=
201210181752 METAR KATL 181752Z 25008KT 10SM BKN015 BKN020 BKN030 21/16 A2981 RMK AO2 SLP090 T02060161 10206 20144 58013=
201210181652 METAR KATL 181652Z 21007KT 10SM FEW015 BKN028 OVC035 20/16 A2984 RMK AO2 SLP098 T02000161=
201210181602 SPECI KATL 181602Z 21007KT 10SM FEW011 BKN017 OVC030 19/16 A2984 RMK AO2=
201210181552 METAR KATL 181552Z 21009KT 10SM BKN011 BKN018 OVC030 19/16 A2985 RMK AO2 SLP102 T01940161=
201210181518 SPECI KATL 181518Z 20010KT 10SM BKN011 BKN018 BKN200 19/16 A2985 RMK AO2=
201210181506 SPECI KATL 181506Z 22009KT 10SM OVC011 19/16 A2986 RMK AO2=
201210181452 METAR KATL 181452Z 20009KT 8SM BKN009 BKN120 BKN200 18/16 A2985 RMK AO2 SLP104 T01830161 53010=
201210181352 METAR KATL 181352Z 21006KT 7SM BKN007 BKN010 BKN200 17/15 A2984 RMK AO2 SLP102 T01670150=
201210181342 SPECI KATL 181342Z 20005KT 7SM BKN007 BKN120 BKN200 17/15 A2984 RMK AO2=
201210181252 METAR KATL 181252Z 16004KT 7SM FEW005 SCT120 SCT200 16/14 A2982 RMK AO2 SLP093 T01560139=
201210181152 METAR KATL 181152Z 17004KT 7SM FEW005 SCT120 BKN180 14/13 A2982 RMK AO2 RAE09 SLP094 P0001 60010 70010 T01440133 10161 20144 58001=
201210181052 METAR KATL 181052Z 13009KT 6SM -RA BR FEW049 SCT065 OVC090 14/13 A2983 RMK AO2 RAB0959 PRESFR SLP095 P0009 T01440133=
201210181020 SPECI KATL 181020Z 28005KT 5SM RA FEW028 BKN048 OVC085 15/12 A2989 RMK AO2 RAB0959 P0002=
201210180952 METAR KATL 180952Z 25006KT 10SM FEW035 BKN065 OVC080 16/12 A2986 RMK AO2 PRESRR SLP104 T01610122=
201210180852 METAR KATL 180852Z 17008KT 10SM FEW070 OVC200 16/12 A2982 RMK AO2 SLP093 T01560117 56005=
201210180752 METAR KATL 180752Z 17007KT 10SM FEW070 BKN220 16/11 A2983 RMK AO2 SLP093 T01560111=
201210180652 METAR KATL 180652Z 17007KT 10SM FEW070 BKN250 16/10 A2984 RMK AO2 SLP096 T01560100=
201210180552 METAR KATL 180552Z 16008KT 10SM SCT250 16/08 A2984 RMK AO2 SLP099 T01610083 10200 20161 55011=
201210180452 METAR KATL 180452Z 16011KT 10SM FEW250 17/08 A2983 RMK AO2 SLP095 T01670078 402390106=
201210180352 METAR KATL 180352Z 15008KT 10SM CLR 16/08 A2984 RMK AO2 SLP100 T01610078=
201210180252 METAR KATL 180252Z 15005KT 10SM CLR 17/08 A2987 RMK AO2 SLP110 T01670083 50005=
201210180152 METAR KATL 180152Z 14005KT 10SM CLR 18/08 A2988 RMK AO2 SLP113 T01830083=
201210180052 METAR KATL 180052Z 14006KT 10SM CLR 19/08 A2986 RMK AO2 SLP109 T01940083=
201210172352 METAR KATL 172352Z 13006KT 10SM CLR 21/08 A2986 RMK AO2 SLP107 T02060083 10239 20206 50004=
201210172252 METAR KATL 172252Z 14005KT 10SM CLR 22/08 A2986 RMK AO2 SLP107 T02170078=
201210172152 METAR KATL 172152Z 18008KT 10SM CLR 23/07 A2984 RMK AO2 SLP100 T02280067=
201210172052 METAR KATL 172052Z 14007KT 100V160 10SM FEW200 23/06 A2984 RMK AO2 SLP100 T02330061 56022=
201210171952 METAR KATL 171952Z 17009KT 10SM FEW060 23/06 A2986 RMK AO2 SLP104 T02330056=
201210171852 METAR KATL 171852Z 16005KT 10SM FEW060 23/07 A2988 RMK AO2 SLP111 T02280072=
201210171752 METAR KATL 171752Z 18006KT 10SM CLR 22/06 A2991 RMK AO2 SLP124 T02170061 10222 20111 58019=
201210171652 METAR KATL 171652Z 18006G15KT 10SM CLR 22/06 A2994 RMK AO2 SLP133 T02170056=
201210171552 METAR KATL 171552Z 17008KT 10SM CLR 21/07 A2996 RMK AO2 SLP140 T02060067=
201210171452 METAR KATL 171452Z 18008KT 10SM FEW150 19/06 A2997 RMK AO2 SLP144 T01940056 50008=
201210171352 METAR KATL 171352Z 00000KT 10SM FEW150 17/08 A2997 RMK AO2 SLP146 T01670083=
201210171252 METAR KATL 171252Z 14003KT 10SM FEW150 SCT250 13/08 A2995 RMK AO2 SLP138 T01330083=
201210171152 METAR KATL 171152Z 00000KT 10SM FEW150 SCT250 12/08 A2994 RMK AO2 SLP137 T01170078 10144 20106 53010=
201210171052 METAR KATL 171052Z 00000KT 10SM FEW180 12/08 A2993 RMK AO2 SLP132 T01220078=
201210170952 METAR KATL 170952Z 00000KT 10SM BKN180 OVC250 13/08 A2992 RMK AO2 SLP129 T01330078=
201210170852 METAR KATL 170852Z 34005KT 10SM SCT180 OVC250 13/08 A2991 RMK AO2 SLP125 T01330078 55005=
201210170752 METAR KATL 170752Z 00000KT 10SM SCT180 BKN250 14/08 A2990 RMK AO2 SLP122 T01390083=
201210170652 METAR KATL 170652Z 00000KT 10SM SCT200 BKN250 13/08 A2992 RMK AO2 SLP125 T01330078=
201210170552 METAR KATL 170552Z 00000KT 10SM BKN200 OVC250 13/08 A2993 RMK AO2 SLP130 T01330078 10183 20128 51006=
201210170452 METAR KATL 170452Z 00000KT 10SM BKN200 OVC250 14/07 A2992 RMK AO2 SLP126 T01440067 402330094=
201210170352 METAR KATL 170352Z 00000KT 10SM BKN200 OVC250 13/08 A2992 RMK AO2 SLP129 T01330078=
201210170252 METAR KATL 170252Z 35003KT 10SM BKN200 OVC250 16/06 A2991 RMK AO2 SLP123 T01610056 51006=
201210170152 METAR KATL 170152Z 00000KT 10SM BKN200 OVC250 15/07 A2990 RMK AO2 SLP124 T01500067=
201210170052 METAR KATL 170052Z 00000KT 10SM BKN200 OVC250 16/06 A2990 RMK AO2 SLP123 T01610061=
201210162352 METAR KATL 162352Z VRB03KT 10SM BKN200 OVC250 18/04 A2989 RMK AO2 SLP120 T01830044 10233 20178 55003=
201210162252 METAR KATL 162252Z 33004KT 10SM BKN200 OVC250 19/04 A2988 RMK AO2 SLP116 T01890044=
201210162152 METAR KATL 162152Z 31006KT 10SM FEW150 BKN200 OVC250 20/03 A2990 RMK AO2 SLP121 T02000033=
201210162052 METAR KATL 162052Z 28009KT 10SM FEW150 SCT180 BKN200 21/03 A2990 RMK AO2 SLP122 T02110033 56016=
201210161952 METAR KATL 161952Z 31007KT 10SM BKN180 BKN200 BKN250 22/02 A2992 RMK AO2 SLP128 T02170022=
201210161852 METAR KATL 161852Z 35007KT 10SM FEW180 SCT200 BKN250 23/02 A2992 RMK AO2 SLP128 T02280022=
201210161752 METAR KATL 161752Z 35009KT 10SM FEW250 22/02 A2995 RMK AO2 SLP137 T02220022 10222 20094 58018=
201210161652 METAR KATL 161652Z 33009KT 310V010 10SM FEW250 21/03 A2999 RMK AO2 SLP150 T02110028=
201210161552 METAR KATL 161552Z 36009KT 10SM FEW250 20/04 A3000 RMK AO2 SLP155 T02000039=
201210161452 METAR KATL 161452Z 35008KT 10SM CLR 18/07 A3000 RMK AO2 SLP157 T01780072 53005=
201210161352 METAR KATL 161352Z 33007KT 10SM CLR 14/08 A2999 RMK AO2 SLP154 T01440078=
201210161252 METAR KATL 161252Z 34007KT 10SM CLR 12/07 A2999 RMK AO2 SLP154 T01170072=
201210161152 METAR KATL 161152Z 31008KT 10SM CLR 09/07 A2999 RMK AO2 SLP152 T00940067 10122 20094 52006=
201210161052 METAR KATL 161052Z 32008KT 10SM CLR 10/07 A2999 RMK AO2 SLP151 T01000067=
201210160952 METAR KATL 160952Z 32004KT 10SM CLR 10/07 A2997 RMK AO2 SLP146 T01000067=
201210160852 METAR KATL 160852Z 30006KT 10SM CLR 10/07 A2997 RMK AO2 SLP144 T01000072 51001=
201210160752 METAR KATL 160752Z 32006KT 10SM CLR 11/07 A2997 RMK AO2 SLP143 T01060072=
201210160652 METAR KATL 160652Z 30004KT 10SM CLR 12/07 A2997 RMK AO2 SLP145 T01170072=
201210160552 METAR KATL 160552Z 30006KT 10SM CLR 12/07 A2997 RMK AO2 SLP142 T01220072 10194 20117 51005=
201210160452 METAR KATL 160452Z 32008KT 10SM CLR 13/07 A2996 RMK AO2 SLP141 T01280072 402500128=
201210160352 METAR KATL 160352Z 32006KT 10SM CLR 14/07 A2996 RMK AO2 SLP141 T01440072=
201210160252 METAR KATL 160252Z 33008KT 10SM CLR 14/07 A2995 RMK AO2 SLP137 T01440067 50008=
201210160152 METAR KATL 160152Z 31003KT 10SM CLR 17/06 A2995 RMK AO2 SLP137 T01670061=
201210160052 METAR KATL 160052Z 33006KT 10SM CLR 17/07 A2994 RMK AO2 SLP133 T01720067=
201210152352 METAR KATL 152352Z 33008KT 10SM CLR 19/06 A2992 RMK AO2 SLP128 T01940061 10250 20194 53008=
201210152252 METAR KATL 152252Z 33006KT 10SM FEW250 21/07 A2991 RMK AO2 SLP122 T02110072=
201210152152 METAR KATL 152152Z 33011G18KT 10SM FEW060 23/08 A2990 RMK AO2 SLP119 T02280078=
201210152052 METAR KATL 152052Z 32012G21KT 10SM FEW060 24/08 A2990 RMK AO2 SLP117 T02390078 56009=
201210151952 METAR KATL 151952Z 33017G23KT 10SM FEW050 24/09 A2990 RMK AO2 PK WND 32029/1858 SLP119 T02390094=
201210151852 METAR KATL 151852Z 31015KT 10SM FEW050 24/11 A2991 RMK AO2 SLP122 T02390111=
201210151752 METAR KATL 151752Z 30017G23KT 10SM SCT040 24/13 A2993 RMK AO2 SLP126 T02390128 10244 20183 58012=
201210151652 METAR KATL 151652Z 26010KT 10SM SCT028 24/16 A2994 RMK AO2 SLP130 T02390156=
201210151624 SPECI KATL 151624Z 32012KT 10SM SCT025 22/16 A2995 RMK AO2=
201210151552 METAR KATL 151552Z 29010KT 10SM BKN015 BKN025 21/16 A2996 RMK AO2 SLP140 TCU DSNT S T02110161=
201210151452 METAR KATL 151452Z 30009KT 10SM BKN010 BKN015 BKN030 19/18 A2997 RMK AO2 SLP141 T01940178 51005=
201210151352 METAR KATL 151352Z 27006KT 6SM BR BKN005 BKN020 OVC037 19/18 A2996 RMK AO2 SLP139 T01940178=
201210151252 METAR KATL 151252Z 23006KT 6SM BR BKN006 BKN250 19/18 A2997 RMK AO2 SLP141 T01890178=
201210151152 METAR KATL 151152Z 23005KT 6SM BR BKN006 18/17 A2995 RMK AO2 TSE03RAE1053 SLP136 OCNL LTG DSNT SE-S TS MOV SE 60011 70011 T01830172 10200 20183 53001=
201210151137 SPECI KATL 151137Z 22008KT 6SM BR OVC006 18/17 A2995 RMK AO2 TSE03RAE1053 OCNL LTG DSNT SE-S TS MOV SE=
201210151103 SPECI KATL 151103Z 23005KT 6SM BR SCT006 SCT070 BKN095 OVC200 18/17 A2993 RMK AO2 TSE03RAE1053 OCNL LTG DSNT SE TS MOV SE $=
201210151052 METAR KATL 151052Z 24006KT 6SM -TSRA BR BKN008CB BKN070 OVC090 19/18 A2993 RMK AO2 SLP129 FRQ LTICCC SE AND S TS SE AND S MOV E P0006 T01890178 $=
201210151045 SPECI KATL 151045Z 24006KT 6SM -TSRA BR BKN008CB BKN070 OVC090 19/18 A2994 RMK AO2 FEW LTICCC E AND S-SW TS E AND S-SW MOV E P0006 $=
201210151036 SPECI KATL 151036Z 22006KT 6SM -TSRA BR SCT010CB SCT065 OVC090 19/18 A2994 RMK AO2 FRQ LTICCC E AND S-SW TS E AND S-SW MOV E P0006 $=
201210151011 SPECI KATL 151011Z 23008KT 4SM TSRA BR SCT012CB BKN019 OVC070 19/18 A2995 RMK AO2 CONS LTICCC NE-SE TS NE-SE MOV E P0005 $=
201210150952 METAR KATL 150952Z 22010KT 4SM TSRA BR SCT012CB BKN019 OVC049 19/18 A2995 RMK AO2 TSB19RAB22 SLP135 FRQ LTGICCC SW-W TS SW-W MOV E P0005 T01940178 $=
201210150925 SPECI KATL 150925Z 21008KT 10SM -TSRA SCT038CB BKN055 OVC120 19/18 A2994 RMK AO2 TSB19RAB22 OCNL LTGIC SW-NW TS SW-NW MOV E P0000 $=
201210150907 SPECI KATL 150907Z 19009G20KT 10SM FEW009 BKN065 BKN075 19/18 A2994 RMK AO2 LTG DSNT NW $=
201210150852 METAR KATL 150852Z 21009KT 10SM FEW015 BKN065 OVC100 19/18 A2994 RMK AO2 SLP131 T01940178 58012 $=
201210150752 METAR KATL 150752Z 20009KT 10SM BKN042 BKN070 OVC250 19/17 A2995 RMK AO2 SLP134 T01940172 $=
201210150652 METAR KATL 150652Z 19006KT 10SM BKN140 BKN200 19/17 A2998 RMK AO2 SLP143 T01940167 $=
201210150552 METAR KATL 150552Z 18008KT 10SM BKN110 BKN250 19/17 A2998 RMK AO2 SLP144 T01940167 10222 20194 58024 $=
201210150452 METAR KATL 150452Z 18006KT 10SM BKN100 OVC250 20/17 A3000 RMK AO2 SLP153 T02000172 402500150 $=
201210150352 METAR KATL 150352Z 18006KT 10SM SCT100 OVC250 20/17 A3003 RMK AO2 SLP163 T02000172 $=
201210150252 METAR KATL 150252Z 17006KT 10SM OVC100 21/17 A3005 RMK AO2 SLP170 T02060172 52001 $=
201210150152 METAR KATL 150152Z 18004KT 10SM FEW120 SCT180 BKN250 20/17 A3005 RMK AO2 SLP170 T02000172 $=
201210150052 METAR KATL 150052Z 18004KT 10SM FEW150 SCT200 OVC250 21/17 A3005 RMK AO2 SLP171 T02060167 $=
201210142352 METAR KATL 142352Z 17005KT 10SM FEW200 OVC250 22/16 A3005 RMK AO2 SLP170 T02170161 10250 20217 56016 $=
201210142252 METAR KATL 142252Z 17007KT 10SM FEW036 SCT100 BKN220 23/16 A3005 RMK AO2 SLP170 T02330161=
201210142152 METAR KATL 142152Z 18009KT 10SM SCT036 BKN250 25/16 A3008 RMK AO2 SLP180 T02500161=
201210142052 METAR KATL 142052Z 18006KT 10SM FEW036 SCT050 OVC250 24/17 A3009 RMK AO2 SLP185 T02440167 56028=
201210141952 METAR KATL 141952Z 20007KT 10SM SCT036 SCT060 OVC250 24/16 A3012 RMK AO2 SLP193 T02440156=
201210141852 METAR KATL 141852Z 24010KT 10SM SCT030 BKN036 BKN250 24/16 A3015 RMK AO2 SLP203 T02440161=
201210141752 METAR KATL 141752Z 20007KT 10SM SCT026 BKN035 OVC250 24/17 A3018 RMK AO2 SLP214 T02390167 10239 20156 58019=
201210141735 SPECI KATL 141735Z 19006KT 10SM SCT026 BKN031 23/17 A3019 RMK AO2=
201210141652 METAR KATL 141652Z VRB06KT 10SM BKN023 BKN029 BKN060 22/16 A3022 RMK AO2 SLP226 T02220161=
201210141641 SPECI KATL 141641Z 17006KT 10SM BKN023 BKN050 BKN250 22/16 A3022 RMK AO2 BKN023 V SCT=
201210141623 SPECI KATL 141623Z 00000KT 10SM SCT021 BKN050 BKN250 22/16 A3023 RMK AO2=
201210141552 METAR KATL 141552Z 18005KT 10SM BKN017 BKN250 21/16 A3025 RMK AO2 SLP237 T02060156=
201210141533 SPECI KATL 141533Z 00000KT 10SM BKN015 BKN020 BKN250 20/15 A3024 RMK AO2=
201210141452 METAR KATL 141452Z 13004KT 10SM BKN011 OVC250 18/14 A3024 RMK AO2 SLP236 T01830139 53006=
201210141352 METAR KATL 141352Z 12008KT 10SM OVC011 17/13 A3023 RMK AO2 SLP232 T01720128=
201210141252 METAR KATL 141252Z 11008KT 10SM BKN011 BKN014 BKN250 16/12 A3022 RMK AO2 SLP229 T01610122=
201210141152 METAR KATL 141152Z 08007KT 10SM BKN011 BKN014 16/13 A3022 RMK AO2 SLP229 T01560128 10167 20150 56001=
201210141052 METAR KATL 141052Z 09008KT 10SM OVC014 16/13 A3022 RMK AO2 SLP229 T01560133=
201210141019 SPECI KATL 141019Z 08008KT 10SM BKN014 15/13 A3021 RMK AO2=
201210140952 METAR KATL 140952Z COR 09006KT 10SM FEW010 SCT150 15/13 A3022 RMK AO2 SLP227 T01500133=
201210140852 METAR KATL 140852Z 10007KT 10SM SCT010 16/13 A3022 RMK AO2 SLP228 T01610133 56014=
201210140814 SPECI KATL 140814Z 12006KT 10SM SCT011 OVC030 17/13 A3023 RMK AO2=
201210140752 METAR KATL 140752Z 12006KT 10SM BKN011 OVC030 17/13 A3023 RMK AO2 SLP230 T01670133=
201210140715 SPECI KATL 140715Z 12008KT 10SM BKN011 OVC032 17/13 A3024 RMK AO2=
201210140652 METAR KATL 140652Z 11006KT 10SM SCT011 BKN020 OVC030 17/12 A3025 RMK AO2 SLP236 T01670122=
201210140552 METAR KATL 140552Z 09008KT 10SM OVC015 16/12 A3026 RMK AO2 SLP242 T01610117 10206 20156 57006=
201210140524 SPECI KATL 140524Z 09009KT 10SM FEW015 BKN027 16/11 A3026 RMK AO2=
201210140452 METAR KATL 140452Z 09009KT 10SM SCT250 16/11 A3027 RMK AO2 SLP244 T01610111 402390156=
201210140352 METAR KATL 140352Z 09009KT 10SM SCT250 17/11 A3028 RMK AO2 SLP247 T01670111=
201210140252 METAR KATL 140252Z 09007KT 10SM FEW250 17/11 A3028 RMK AO2 SLP249 T01720111 50006=
201210140152 METAR KATL 140152Z 09010KT 10SM CLR 18/11 A3028 RMK AO2 SLP250 T01780111=
201210140052 METAR KATL 140052Z 09010KT 10SM FEW250 19/12 A3027 RMK AO2 SLP247 T01890117=
201210132352 METAR KATL 132352Z 10008KT 10SM FEW250 21/12 A3026 RMK AO2 SLP243 T02060117 10239 20206 55000=
201210132252 METAR KATL 132252Z 09009KT 10SM FEW250 22/12 A3026 RMK AO2 SLP241 T02170117=
201210132152 METAR KATL 132152Z 11007KT 10SM FEW050 23/11 A3026 RMK AO2 SLP241 T02330111=
201210132052 METAR KATL 132052Z 12007KT 10SM FEW050 24/11 A3026 RMK AO2 SLP243 T02390111 56016=
201210131952 METAR KATL 131952Z 11010KT 10SM FEW050 SCT250 24/11 A3027 RMK AO2 SLP244 T02390111=
201210131852 METAR KATL 131852Z 09008KT 070V150 10SM FEW045 SCT250 23/12 A3029 RMK AO2 SLP250 T02330117=
201210131752 METAR KATL 131752Z 10008KT 10SM FEW040 22/12 A3031 RMK AO2 SLP259 T02220117 10228 20156 58018=
201210131652 METAR KATL 131652Z 09011KT 10SM FEW040 SCT250 22/12 A3034 RMK AO2 SLP268 T02220117=
201210131552 METAR KATL 131552Z 10011G18KT 10SM FEW250 22/12 A3036 RMK AO2 SLP275 T02170117=
201210131452 METAR KATL 131452Z 11009KT 10SM FEW250 20/12 A3037 RMK AO2 SLP278 T02000122 51014=
201210131352 METAR KATL 131352Z 09012G16KT 10SM FEW250 18/12 A3035 RMK AO2 SLP273 T01830122=
201210131252 METAR KATL 131252Z 09009KT 10SM CLR 17/12 A3034 RMK AO2 SLP270 T01670122=
201210131152 METAR KATL 131152Z 08009KT 10SM FEW250 16/13 A3032 RMK AO2 SLP264 T01560128 10183 20156 53016=
201210131052 METAR KATL 131052Z 07012KT 10SM FEW040 16/13 A3031 RMK AO2 SLP257 T01610133=
201210130952 METAR KATL 130952Z 06008KT 10SM SCT040 17/14 A3029 RMK AO2 SLP251 T01670139=
201210130852 METAR KATL 130852Z 06006KT 10SM BKN031 17/14 A3027 RMK AO2 SLP246 T01720144 53003=
201210130752 METAR KATL 130752Z 04006KT 10SM CLR 18/14 A3027 RMK AO2 SLP245 T01780144=
201210130652 METAR KATL 130652Z 04009KT 10SM CLR 18/15 A3027 RMK AO2 SLP242 T01780150=
201210130552 METAR KATL 130552Z 02004KT 10SM FEW035 18/15 A3026 RMK AO2 SLP241 T01830150 10222 20178 55005=
201210130452 METAR KATL 130452Z 33005KT 10SM FEW035 18/15 A3026 RMK AO2 SLP239 T01830150 402610161=
201210130352 METAR KATL 130352Z 31006KT 10SM FEW036 19/15 A3027 RMK AO2 SLP243 T01890150=
201210130252 METAR KATL 130252Z 03009KT 10SM BKN035 21/15 A3028 RMK AO2 SLP247 T02110150 51009=
201210130152 METAR KATL 130152Z 35005KT 10SM OVC035 21/15 A3027 RMK AO2 SLP245 T02060150=
201210130052 METAR KATL 130052Z 36012KT 10SM OVC034 21/15 A3026 RMK AO2 SLP242 T02110150=
201210122352 METAR KATL 122352Z 36011KT 10SM FEW030 BKN037 BKN250 22/15 A3025 RMK AO2 SLP239 T02170150 10250 20217 53012=
201210122252 METAR KATL 122252Z 01008KT 10SM SCT035 BKN120 BKN250 22/15 A3024 RMK AO2 SLP233 T02220150=
201210122152 METAR KATL 122152Z 34013G19KT 10SM FEW035 SCT120 BKN250 24/15 A3022=
201210122052 METAR KATL 122052Z 34009KT 10SM FEW035 SCT120 BKN250 23/14 A3022 RMK AO2 SLP226 T02330144 56006=
201210121952 METAR KATL 121952Z 31013KT 10SM FEW040 SCT120 BKN250 23/14 A3022 RMK AO2 SLP227 T02280144=
201210121852 METAR KATL 121852Z 32012KT 10SM FEW040 SCT120 BKN250 24/14 A3023 RMK AO2 SLP229 T02440144=
201210121752 METAR KATL 121752Z 33017G23KT 10SM FEW045 SCT120 BKN250 25/14 A3023 RMK AO2 SLP231 T02500139 10261 20161 55014=
201210121652 METAR KATL 121652Z 27010KT 10SM FEW070 BKN120 BKN250 25/14 A3023 RMK AO2 SLP230 T02500144=
201210121552 METAR KATL 121552Z 29010KT 10SM FEW040 SCT070 SCT250 23/14 A3026 RMK AO2 SLP242 T02330139=
201210121452 METAR KATL 121452Z 31004KT 10SM FEW035 SCT050 BKN250 21/12 A3028 RMK AO2 SLP247 T02060122 50005=
201210121412 SPECI KATL 121412Z 30005KT 10SM SCT025 BKN035 OVC050 19/12 A3028 RMK AO2=
201210121352 METAR KATL 121352Z 34008KT 10SM BKN027 BKN040 OVC050 18/12 A3029 RMK AO2 SLP253 T01830117=
201210121347 SPECI KATL 121347Z 32009KT 10SM BKN027 BKN040 OVC050 18/11 A3030 RMK AO2=
201210121252 METAR KATL 121252Z 32005KT 10SM FEW039 SCT047 BKN055 18/11 A3026 RMK AO2 SLP243 T01780106=
201210121152 METAR KATL 121152Z 29003KT 10SM SCT027 BKN041 BKN070 16/10 A3024 RMK AO2 SLP236 T01610100 10178 20161 53009=
201210121052 METAR KATL 121052Z 28004KT 10SM FEW030 BKN042 BKN070 17/10 A3023 RMK AO2 SLP233 T01670100=
201210120952 METAR KATL 120952Z 00000KT 10SM BKN036 BKN060 17/09 A3022 RMK AO2 SLP227 T01720094=
201210120852 METAR KATL 120852Z 30003KT 10SM BKN060 BKN075 17/11 A3022 RMK AO2 SLP226 T01670106 55007=
201210120752 METAR KATL 120752Z 00000KT 10SM FEW044 BKN075 17/11 A3021 RMK AO2 SLP223 T01720106=
201210120652 METAR KATL 120652Z 00000KT 10SM BKN044 17/11 A3023 RMK AO2 SLP232 T01720106=
201210120552 METAR KATL 120552Z 00000KT 10SM SCT044 BKN070 17/10 A3024 RMK AO2 SLP233 T01670100 10206 20167 58007=
201210120452 METAR KATL 120452Z 00000KT 10SM BKN070 18/09 A3025 RMK AO2 SLP236 T01780094 402390106=
201210120352 METAR KATL 120352Z 00000KT 10SM BKN060 BKN080 18/09 A3025 RMK AO2 SLP240 T01780089=
201210120252 METAR KATL 120252Z 34004KT 10SM FEW080 19/07 A3026 RMK AO2 SLP242 T01890067 50008=
201210120152 METAR KATL 120152Z 33004KT 10SM FEW080 18/07 A3026 RMK AO2 SLP244 T01830072=
201210120052 METAR KATL 120052Z 34007KT 10SM FEW080 19/07 A3025 RMK AO2 SLP243 T01890072=
201210112352 METAR KATL 112352Z 33006KT 10SM FEW070 SCT200 21/07 A3023 RMK AO2 SLP236 T02060072 10239 20206 51002=
201210112252 METAR KATL 112252Z 33005KT 10SM FEW070 SCT200 BKN250 22/07 A3023 RMK AO2 SLP235 T02220067=
201210112152 METAR KATL 112152Z 31007KT 10SM FEW200 BKN250 23/08 A3023 RMK AO2 SLP234 T02280078=
201210112052 METAR KATL 112052Z VRB03KT 10SM FEW250 24/07 A3023 RMK AO2 SLP232 T02390072 55007=
201210111952 METAR KATL 111952Z 31005KT 10SM FEW250 23/06 A3023 RMK AO2 SLP231 T02330061=
201210111852 METAR KATL 111852Z 28004KT 10SM FEW250 23/06 A3023 RMK AO2 SLP233 T02280061=
201210111752 METAR KATL 111752Z 33003KT 10SM CLR 22/06 A3025 RMK AO2 SLP240 T02220061 10222 20106 58015=
201210111652 METAR KATL 111652Z 00000KT 10SM FEW050 21/08 A3028 RMK AO2 SLP249 T02110078=
201210111552 METAR KATL 111552Z 00000KT 10SM CLR 19/08 A3029 RMK AO2 SLP254 T01890078=
201210111452 METAR KATL 111452Z 00000KT 10SM FEW250 17/09 A3030 RMK AO2 SLP255 T01720094 51019=
201210111352 METAR KATL 111352Z 33003KT 10SM CLR 15/11 A3028 RMK AO2 SLP252 T01500106=
201210111252 METAR KATL 111252Z 29003KT 10SM CLR 12/10 A3026 RMK AO2 SLP246 T01220100=
201210111152 METAR KATL 111152Z 00000KT 9SM CLR 11/09 A3024 RMK AO2 SLP237 T01060089 10133 20106 53016=
201210111052 METAR KATL 111052Z 33004KT 9SM CLR 11/09 A3022 RMK AO2 SLP230 T01060094=
201210110952 METAR KATL 110952Z 32004KT 10SM CLR 11/09 A3020 RMK AO2 SLP223 T01110094 $=
201210110852 METAR KATL 110852Z 32005KT 10SM CLR 12/10 A3019 RMK AO2 SLP219 T01170100 53001 $=
201210110752 METAR KATL 110752Z 32006KT 10SM CLR 12/11 A3018 RMK AO2 SLP218 T01220106 $=
201210110652 METAR KATL 110652Z 34004KT 10SM CLR 13/11 A3018 RMK AO2 SLP215 T01280106 $=
201210110552 METAR KATL 110552Z 32003KT 10SM CLR 13/11 A3018 RMK AO2 SLP217 T01330111 10189 20133 50003 $=
201210110452 METAR KATL 110452Z 33004KT 10SM CLR 14/12 A3019 RMK AO2 SLP219 T01440117 402280106 $=
201210110352 METAR KATL 110352Z 33004KT 10SM CLR 16/12 A3019 RMK AO2 SLP218 T01560122 $=
201210110252 METAR KATL 110252Z 34005KT 10SM CLR 17/12 A3018 RMK AO2 SLP215 T01670122 53013 $=
201210110152 METAR KATL 110152Z 34004KT 10SM CLR 17/12 A3016 RMK AO2 SLP211 T01670122 $=
201210110052 METAR KATL 110052Z 31005KT 10SM CLR 18/12 A3015 RMK AO2 SLP207 T01780122 $=
201210102352 METAR KATL 102352Z 31006KT 10SM CLR 19/12 A3014 RMK AO2 SLP204 T01890122 10228 20189 53009 $=
201210102252 METAR KATL 102252Z 32007KT 10SM FEW040 20/12 A3012 RMK AO2 SLP196 T02000122 $=
201210102152 METAR KATL 102152Z 29010KT 10SM SCT042 21/12 A3011 RMK AO2 SLP193 T02110117 $=
201210102052 METAR KATL 102052Z 32011G18KT 10SM FEW040 22/12 A3011 RMK AO2 SLP193 T02220122 56009 $=
201210101952 METAR KATL 101952Z 31013KT 10SM FEW035 SCT045 21/12 A3012 RMK AO2 SLP197 T02110117=
201210101852 METAR KATL 101852Z 33012KT 10SM BKN040 21/12 A3013 RMK AO2 SLP198 T02110122=
201210101752 METAR KATL 101752Z 31009G16KT 10SM BKN035 BKN045 21/12 A3014 RMK AO2 SLP203 T02060117 10217 20117 58009=
201210101652 METAR KATL 101652Z 30010KT 10SM FEW035 BKN045 BKN070 20/12 A3016 RMK AO2 SLP210 T02000117=
201210101552 METAR KATL 101552Z 30012KT 10SM FEW030 SCT050 SCT070 19/11 A3017 RMK AO2 SLP212 T01890111=
201210101452 METAR KATL 101452Z COR 30010KT 10SM FEW050 SCT070 18/11 A3017 RMK AO2 SLP212 T01780111 51012=
201210101352 METAR KATL 101352Z 28005KT 10SM FEW070 16/12 A3016 RMK AO2 SLP209 T01560117=
201210101254 SPECI KATL 101254Z 28005KT 6SM BR SCT003 13/12 A3016 RMK AO2=
201210101252 METAR KATL 101252Z 29005KT 2SM BR SCT003 13/12 A3016 RMK AO2 SFC VIS 5 SLP209 T01280117=
201210101152 METAR KATL 101152Z 26003KT 2SM BR SCT003 12/12 A3013 RMK AO2 SLP201 T01220117 10122 20106 51006=
201210101150 SPECI KATL 101150Z 25003KT 2SM BR SCT003 12/12 A3013 RMK AO2=
201210101052 METAR KATL 101052Z 00000KT 2SM BR BKN004 OVC007 12/10 A3013 RMK AO2 SFC VIS 6 SLP200 T01220100=
201210100952 METAR KATL 100952Z 00000KT 6SM BR OVC009 12/10 A3011 RMK AO2 SLP194 T01170100=
201210100926 SPECI KATL 100926Z 09003KT 6SM BR OVC009 12/10 A3011 RMK AO2=
201210100905 SPECI KATL 100905Z 00000KT 10SM SCT012 BKN026 BKN120 11/09 A3010 RMK AO2=
201210100852 METAR KATL 100852Z 08003KT 9SM SCT012 BKN120 11/09 A3010 RMK AO2 SLP190 T01060094 55002=
201210100752 METAR KATL 100752Z 12004KT 10SM CLR 11/09 A3009 RMK AO2 SLP189 T01110094=
201210100652 METAR KATL 100652Z 11005KT 10SM CLR 12/10 A3011 RMK AO2 SLP193 T01170100=
201210100552 METAR KATL 100552Z 08006KT 9SM SCT035 12/11 A3010 RMK AO2 SLP192 T01220106 10167 20122 53002=
201210100452 METAR KATL 100452Z 00000KT 10SM FEW038 14/11 A3010 RMK AO2 SLP189 T01390106 402110111=
201210100352 METAR KATL 100352Z 15003KT 10SM FEW040 14/11 A3010 RMK AO2 SLP191 T01440111=
201210100252 METAR KATL 100252Z 14004KT 10SM CLR 15/11 A3010 RMK AO2 SLP190 T01500111 51012=
201210100152 METAR KATL 100152Z 15003KT 10SM CLR 16/11 A3009 RMK AO2 SLP186 T01560106=
201210100052 METAR KATL 100052Z 18004KT 10SM CLR 16/10 A3008 RMK AO2 SLP183 T01610100=
201210092352 METAR KATL 092352Z 19004KT 10SM CLR 17/10 A3006 RMK AO2 SLP178 T01670100 10211 20167 55002=
201210092252 METAR KATL 092252Z 18005KT 10SM CLR 19/10 A3005 RMK AO2 SLP175 T01890100=
201210092152 METAR KATL 092152Z 00000KT 10SM CLR 20/09 A3006 RMK AO2 SLP175 T02000089=
201210092052 METAR KATL 092052Z 25008KT 10SM FEW040 21/09 A3007 RMK AO2 SLP179 T02060094 56014=
201210091952 METAR KATL 091952Z 26004KT 10SM SCT038 20/10 A3008 RMK AO2 SLP182 T02000100=
201210091852 METAR KATL 091852Z 09004KT 10SM SCT036 19/10 A3008 RMK AO2 SLP185 T01890100=
201210091752 METAR KATL 091752Z 00000KT 10SM BKN034 19/10 A3011 RMK AO2 SLP194 T01890100 10189 20117 58017=
201210091652 METAR KATL 091652Z 07004KT 10SM FEW027 BKN038 18/10 A3014 RMK AO2 SLP203 T01780100=
201210091552 METAR KATL 091552Z 12003KT 10SM FEW020 BKN037 16/09 A3015 RMK AO2 SLP207 T01560094=
201210091452 METAR KATL 091452Z 08005KT 10SM FEW015 BKN037 14/09 A3016 RMK AO2 SLP212 T01440094 51007=
201210091352 METAR KATL 091352Z 09008KT 10SM FEW012 SCT035 BKN038 13/09 A3016 RMK AO2 SLP212 T01280089=
201210091339 SPECI KATL 091339Z 09008KT 10SM FEW012 SCT015 BKN035 13/09 A3016 RMK AO2=
201210091252 METAR KATL 091252Z 10007KT 7SM BKN010 OVC015 12/09 A3015 RMK AO2 SLP210 T01170089=
201210091152 METAR KATL 091152Z 08005KT 6SM BR BKN010 BKN013 12/09 A3014 RMK AO2 SLP206 T01170094 10122 20111 51008=
201210091052 METAR KATL 091052Z 09005KT 6SM HZ OVC011 12/09 A3014 RMK AO2 SLP204 T01170089=
201210090952 METAR KATL 090952Z 12004KT 7SM OVC011 12/09 A3012 RMK AO2 SLP198 T01170089=
201210090852 METAR KATL 090852Z 10003KT 7SM BKN011 OVC037 11/09 A3011 RMK AO2 SLP196 T01110089 58003=
201210090804 SPECI KATL 090804Z 08007KT 10SM SCT027 OVC035 12/08 A3011 RMK AO2=
201210090752 METAR KATL 090752Z 09006KT 8SM BKN027 OVC033 12/09 A3011 RMK AO2 SLP195 T01170089=
201210090652 METAR KATL 090652Z 10006KT 10SM SCT014 OVC025 12/09 A3013 RMK AO2 SLP201 T01170089=
201210090626 SPECI KATL 090626Z 08008KT 10SM FEW014 OVC025 12/09 A3013 RMK AO2=
201210090552 METAR KATL 090552Z 05008KT 10SM BKN014 OVC025 12/09 A3012 RMK AO2 SLP199 T01220089 10139 20122 58004=
201210090452 METAR KATL 090452Z 07007KT 10SM FEW015 OVC025 13/09 A3013 RMK AO2 SLP199 T01280089 401720111=
201210090352 METAR KATL 090352Z 33003KT 10SM SCT014 BKN020 OVC028 13/09 A3014 RMK AO2 SLP204 T01280094=
201210090252 METAR KATL 090252Z 34004KT 10SM FEW012 BKN020 OVC028 12/09 A3014 RMK AO2 SLP204 T01220094 51012=
201210090152 METAR KATL 090152Z 34008KT 10SM FEW015 OVC022 12/09 A3013 RMK AO2 SLP200 T01220094=
201210090052 METAR KATL 090052Z 33009KT 10SM FEW015 BKN022 OVC040 12/09 A3011 RMK AO2 SLP196 T01220094=
201210090044 SPECI KATL 090044Z 33008KT 10SM FEW015 BKN025 OVC040 12/09 A3011 RMK AO2=
201210082352 METAR KATL 082352Z 33009KT 10SM FEW020 OVC040 14/10 A3010 RMK AO2 SLP191 T01390100 10167 20139 53006=
201210082252 METAR KATL 082252Z 34009KT 10SM FEW020 OVC040 15/11 A3009 RMK AO2 SLP187 T01500106=
201210082152 METAR KATL 082152Z 35008KT 10SM FEW020 BKN034 17/11 A3009 RMK AO2 SLP186 T01670106=
201210082052 METAR KATL 082052Z 35005KT 10SM FEW025 BKN030 16/10 A3008 RMK AO2 SLP185 T01610100 55004=
201210082050 SPECI KATL 082050Z 35005KT 10SM FEW025 BKN030 16/10 A3008 RMK AO2=
201210081952 METAR KATL 081952Z 33004KT 10SM BKN025 BKN030 17/10 A3009 RMK AO2 SLP187 T01670100=
201210081852 METAR KATL 081852Z 09004KT 10SM OVC022 16/11 A3009 RMK AO2 SLP190 BINOVC T01610106=
201210081752 METAR KATL 081752Z 05005KT 10SM OVC024 16/10 A3012 RMK AO2 SLP197 T01610100 10172 20133 56011=
201210081652 METAR KATL 081652Z 05004KT 10SM OVC020 16/11 A3012 RMK AO2 SLP199 BINOVC T01610106=
201210081552 METAR KATL 081552Z 04006KT 10SM OVC020 16/10 A3014 RMK AO2 SLP203 T01610100=
201210081452 METAR KATL 081452Z 05007KT 10SM OVC018 15/10 A3015 RMK AO2 SLP208 T01500100 51023=
201210081418 SPECI KATL 081418Z 05007KT 020V080 10SM OVC016 14/10 A3015 RMK AO2=
201210081352 METAR KATL 081352Z 07006KT 10SM OVC014 14/11 A3014 RMK AO2 SLP205 T01440106=
201210081252 METAR KATL 081252Z 09009KT 10SM BKN012 OVC017 14/11 A3011 RMK AO2 SLP195 T01390106=
201210081152 METAR KATL 081152Z 10006KT 10SM BKN011 OVC015 13/10 A3008 RMK AO2 SLP184 T01330100 10133 20111 53001=
201210081052 METAR KATL 081052Z 05006KT 10SM OVC013 13/09 A3007 RMK AO2 SLP180 T01330089=
201210080952 METAR KATL 080952Z 07005KT 10SM BKN011 OVC016 12/08 A3007 RMK AO2 SLP181 T01220078=
201210080852 METAR KATL 080852Z 34005KT 10SM BKN012 OVC029 12/07 A3008 RMK AO2 SLP182 T01170072 51006=
201210080838 SPECI KATL 080838Z 34005KT 10SM BKN012 OVC031 11/07 A3008 RMK AO2=
201210080752 METAR KATL 080752Z 34005KT 10SM BKN150 OVC250 11/07 A3007 RMK AO2 SLP182 T01110072=
201210080652 METAR KATL 080652Z 34006KT 10SM SCT150 OVC250 11/07 A3008 RMK AO2 SLP183 T01110067=
201210080552 METAR KATL 080552Z 36004KT 10SM SCT150 OVC250 12/06 A3006 RMK AO2 SLP176 T01170061 10144 20117 58012=
201210080452 METAR KATL 080452Z 33004KT 10SM SCT150 OVC220 12/06 A3007 RMK AO2 SLP182 T01170061 402000117=
201210080352 METAR KATL 080352Z 33004KT 10SM OVC220 12/06 A3008 RMK AO2 SLP183 T01170056=
201210080252 METAR KATL 080252Z 31007KT 10SM BKN220 12/06 A3009 RMK AO2 SLP189 T01170056 51007=
201210080152 METAR KATL 080152Z 32008KT 10SM OVC220 13/06 A3009 RMK AO2 SLP188 T01280061=
201210080052 METAR KATL 080052Z 32009KT 10SM BKN220 13/07 A3008 RMK AO2 SLP186 VIRGA E & W-N T01330067=
201210072352 METAR KATL 072352Z 32007KT 10SM FEW150 OVC220 14/07 A3007 RMK AO2 SLP182 VIRGA ALQDS T01440067 10200 20144 53006=
201210072252 METAR KATL 072252Z 32005KT 10SM FEW150 BKN220 BKN250 15/08 A3006 RMK AO2 SLP176 T01500078=
201210072152 METAR KATL 072152Z 34007KT 10SM FEW150 SCT220 BKN250 16/07 A3006 RMK AO2 SLP177 T01560072=
201210072052 METAR KATL 072052Z 33013KT 10SM FEW032 BKN250 18/08 A3005 RMK AO2 SLP175 T01780083 55004=
201210071952 METAR KATL 071952Z 32014G19KT 10SM FEW045 BKN250 18/09 A3004 RMK AO2 SLP171 T01830094=
201210071852 METAR KATL 071852Z 32013KT 10SM FEW040 SCT160 BKN250 19/09 A3005 RMK AO2 PK WND 33026/1805 SLP174 T01890094=
201210071752 METAR KATL 071752Z 34014G23KT 10SM FEW035 SCT150 BKN250 19/10 A3007 RMK AO2 SLP177 T01940100 10200 20122 58005=
201210071652 METAR KATL 071652Z 31013G19KT 10SM FEW030 SCT150 BKN250 18/11 A3008 RMK AO2 SLP183 T01830106=
201210071552 METAR KATL 071552Z 31010KT 10SM BKN150 BKN250 17/10 A3008 RMK AO2 SLP183 T01670100=
201210071452 METAR KATL 071452Z 32011KT 10SM FEW030 BKN150 16/10 A3008 RMK AO2 SLP183 T01560100 53019=
201210071352 METAR KATL 071352Z 32009KT 10SM BKN150 14/10 A3006 RMK AO2 SLP176 T01440100=
201210071252 METAR KATL 071252Z 33008KT 10SM FEW050 BKN150 BKN250 13/09 A3004 RMK AO2 SLP169 T01280094=
201210071152 METAR KATL 071152Z 31006KT 10SM SCT150 BKN250 12/09 A3002 RMK AO2 SLP162 T01220094 10150 20122 53007=
201210071052 METAR KATL 071052Z 31005KT 10SM SCT150 12/09 A3002 RMK AO2 SLP159 T01220094=
201210070952 METAR KATL 070952Z 32007KT 10SM FEW050 BKN150 12/09 A2999 RMK AO2 SLP151 T01220094=
201210070852 METAR KATL 070852Z 31007KT 10SM FEW050 SCT150 BKN250 13/10 A3000 RMK AO2 SLP153 T01280100 58002=
201210070752 METAR KATL 070752Z 31007KT 10SM FEW050 SCT150 13/11 A3001 RMK AO2 SLP155 T01330106=
201210070652 METAR KATL 070652Z 33010KT 10SM FEW100 SCT150 14/11 A3001 RMK AO2 SLP157 T01390111=
201210070552 METAR KATL 070552Z 31012KT 10SM FEW100 BKN140 15/12 A3001 RMK AO2 SLP154 60000 T01500117 10222 20150 55007=
201210070452 METAR KATL 070452Z 30005KT 10SM FEW100 SCT140 BKN200 15/12 A3001 RMK AO2 RAB18E28 SLP155 P0000 T01500122 402830150=
201210070352 METAR KATL 070352Z 31008KT 10SM BKN140 OVC250 16/12 A3002 RMK AO2 SLP157 T01610122=
201210070316 SPECI KATL 070316Z 33009KT 10SM SCT016 17/13 A3003 RMK AO2=
201210070252 METAR KATL 070252Z 31009KT 10SM OVC016 18/13 A3003 RMK AO2 SLP162 T01780133 53017=
201210070152 METAR KATL 070152Z 34011G17KT 10SM OVC014 18/14 A3001 RMK AO2 SLP155 T01830144=
201210070136 SPECI KATL 070136Z 32009G18KT 10SM BKN014 19/15 A3001 RMK AO2=
201210070106 SPECI KATL 070106Z 35012KT 10SM BKN016 19/16 A3000 RMK AO2=
201210070052 METAR KATL 070052Z 34010KT 10SM FEW016 SCT080 20/16 A3000 RMK AO2 SLP152 T02000161=
201210062352 METAR KATL 062352Z 34011KT 10SM BKN080 BKN250 22/17 A2998 RMK AO2 SLP146 T02220167 10283 20222 53015=
201210062252 METAR KATL 062252Z 32011KT 10SM FEW044 BKN250 24/17 A2995 RMK AO2 SLP137 T02390167=
201210062152 METAR KATL 062152Z 33012KT 10SM SCT044 BKN065 BKN250 26/17 A2994 RMK AO2 SLP130 T02610167=
201210062052 METAR KATL 062052Z 30007KT 10SM BKN050 27/16 A2993 RMK AO2 SLP128 T02670156 56020=
201210061952 METAR KATL 061952Z 30004KT 10SM BKN050 28/16 A2994 RMK AO2 SLP131 T02780156=
201210061852 METAR KATL 061852Z VRB03KT 10SM FEW045 27/15 A2996 RMK AO2 SLP137 T02720150=
201210061752 METAR KATL 061752Z 27007KT 10SM FEW045 27/16 A3000 RMK AO2 SLP149 T02720156 10278 20167 58015=
201210061652 METAR KATL 061652Z 24007KT 10SM SCT100 26/16 A3002 RMK AO2 SLP157 T02610156=
201210061552 METAR KATL 061552Z 27007KT 10SM BKN100 26/15 A3003 RMK AO2 SLP160 T02560150=
201210061452 METAR KATL 061452Z 30006KT 10SM FEW120 24/16 A3004 RMK AO2 SLP164 T02440156 51003 $=
201210061352 METAR KATL 061352Z 27005KT 10SM FEW100 22/15 A3003 RMK AO2 SLP162 T02220150 $=
201210061252 METAR KATL 061252Z 28004KT 10SM FEW080 19/15 A3004 RMK AO2 SLP164 T01940150 $=
201210061152 METAR KATL 061152Z 29004KT 9SM FEW080 17/14 A3003 RMK AO2 SLP162 T01670144 10183 20167 50007 $=
201210061052 METAR KATL 061052Z 28006KT 9SM CLR 17/16 A3003 RMK AO2 SLP162 T01720156 $=
201210060952 METAR KATL 060952Z 25003KT 9SM CLR 18/16 A3001 RMK AO2 SLP155 T01780161 $=
201210060852 METAR KATL 060852Z 25003KT 9SM CLR 18/16 A3001 RMK AO2 SLP153 T01780156 56015 $=
201210060752 METAR KATL 060752Z 26004KT 10SM CLR 18/16 A3002 RMK AO2 SLP156 T01780156 $=
201210060652 METAR KATL 060652Z 24003KT 9SM CLR 18/15 A3004 RMK AO2 SLP163 T01780150 $=
201210060552 METAR KATL 060552Z 22005KT 10SM CLR 18/15 A3005 RMK AO2 SLP168 T01830150 10233 20183 58002 $=
201210060452 METAR KATL 060452Z 22004KT 10SM CLR 19/14 A3007 RMK AO2 SLP173 T01940144 402780150 $=
201210060352 METAR KATL 060352Z COR 00000KT 10SM CLR 20/14 A3007 RMK AO2 SLP174 T02000139 $=
201210060252 METAR KATL 060252Z 00000KT 10SM CLR 21/14 A3006 RMK AO2 SLP170 T02060139 51004 $=
201210060152 METAR KATL 060152Z 00000KT 10SM CLR 22/13 A3006 RMK AO2 SLP170 T02170133 $=
201210060052 METAR KATL 060052Z 00000KT 10SM CLR 22/13 A3006 RMK AO2 SLP171 T02220133 $=
201210052352 METAR KATL 052352Z 00000KT 10SM CLR 23/13 A3004 RMK AO2 SLP168 T02330128 10278 20233 55005=
201210052252 METAR KATL 052252Z 21004KT 10SM FEW250 25/12 A3004 RMK AO2 SLP166 T02500122=
201210052152 METAR KATL 052152Z 26003KT 10SM FEW065 27/12 A3005 RMK AO2 SLP169 T02720122=
201210052052 METAR KATL 052052Z 25008KT 10SM FEW065 SCT250 28/11 A3006 RMK AO2 SLP171 T02780111 56027=
201210051952 METAR KATL 051952Z 21005KT 10SM FEW060 SCT250 27/12 A3008 RMK AO2 SLP178 T02720117=
201210051852 METAR KATL 051852Z VRB04KT 10SM FEW060 SCT250 28/12 A3011 RMK AO2 SLP187 T02780122=
201210051752 METAR KATL 051752Z 28005KT 10SM FEW060 SCT250 27/13 A3014 RMK AO2 SLP199 T02670128 10272 20161 58019=
201210051652 METAR KATL 051652Z 01003KT 10SM FEW055 SCT250 26/13 A3017 RMK AO2 SLP207 T02610128=
201210051552 METAR KATL 051552Z 35007KT 10SM FEW250 25/13 A3019 RMK AO2 SLP215 T02500133=
201210051452 METAR KATL 051452Z 36007KT 10SM FEW250 24/14 A3020 RMK AO2 SLP218 T02390139 58002=
201210051352 METAR KATL 051352Z 01004KT 10SM FEW250 22/13 A3021 RMK AO2 SLP222 T02170133=
201210051252 METAR KATL 051252Z 34003KT 10SM FEW250 19/14 A3021 RMK AO2 SLP222 T01940139=
201210051152 METAR KATL 051152Z 33003KT 10SM FEW250 17/13 A3020 RMK AO2 SLP222 T01670128 10178 20150 50008=
201210051052 METAR KATL 051052Z 35003KT 10SM FEW250 16/13 A3020 RMK AO2 SLP222 T01560128=
201210050952 METAR KATL 050952Z 00000KT 10SM CLR 16/13 A3019 RMK AO2 SLP216 T01610128=
201210050852 METAR KATL 050852Z 31004KT 10SM CLR 16/13 A3018 RMK AO2 SLP212 T01610128 58009=
201210050752 METAR KATL 050752Z 34006KT 10SM CLR 17/13 A3018 RMK AO2 SLP214 T01670128=
201210050652 METAR KATL 050652Z 34003KT 10SM CLR 17/13 A3020 RMK AO2 SLP220 T01720128=
201210050552 METAR KATL 050552Z 32004KT 10SM CLR 17/13 A3021 RMK AO2 SLP222 T01720128 10228 20172 58012=
201210050452 METAR KATL 050452Z 00000KT 10SM FEW250 18/13 A3022 RMK AO2 SLP227 T01780133 402780150=
201210050352 METAR KATL 050352Z 00000KT 10SM FEW250 19/13 A3024 RMK AO2 SLP232 T01890133=
201210050252 METAR KATL 050252Z 00000KT 10SM FEW250 20/13 A3024 RMK AO2 SLP234 T02000133 51013=
201210050152 METAR KATL 050152Z 33003KT 10SM FEW250 21/13 A3023 RMK AO2 SLP230 T02110128=
201210050052 METAR KATL 050052Z 36008KT 10SM FEW250 23/13 A3022 RMK AO2 SLP228 T02280128=
201210042352 METAR KATL 042352Z 34007KT 10SM FEW250 23/12 A3020 RMK AO2 SLP221 T02280122 10278 20228 56004=
201210042252 METAR KATL 042252Z 32006KT 10SM FEW250 24/11 A3021 RMK AO2 SLP223 T02440106=
201210042152 METAR KATL 042152Z 32007KT 10SM FEW200 26/11 A3020 RMK AO2 SLP221 T02610111=
201210042052 METAR KATL 042052Z 31007KT 10SM FEW200 27/12 A3021 RMK AO2 SLP225 T02670117 56015=
201210041952 METAR KATL 041952Z 33009KT 10SM FEW200 27/11 A3022 RMK AO2 SLP228 T02720111=
201210041852 METAR KATL 041852Z VRB05KT 10SM FEW200 27/12 A3023 RMK AO2 SLP230 T02670117=
201210041752 METAR KATL 041752Z 29006KT 10SM FEW200 26/13 A3026 RMK AO2 SLP239 T02610133 10261 20150 58012=
201210041652 METAR KATL 041652Z 34007KT 10SM FEW200 25/13 A3028 RMK AO2 SLP247 T02500128=
201210041552 METAR KATL 041552Z 34004KT 10SM FEW200 23/13 A3029 RMK AO2 SLP250 T02330133=
201210041452 METAR KATL 041452Z 34007KT 10SM FEW200 22/14 A3030 RMK AO2 SLP253 T02170139 51011=
201210041352 METAR KATL 041352Z 31003KT 10SM FEW200 21/14 A3029 RMK AO2 SLP251 T02060144=
201210041252 METAR KATL 041252Z 32004KT 10SM FEW250 18/15 A3028 RMK AO2 SLP248 T01780150=
201210041152 METAR KATL 041152Z 00000KT 8SM SCT250 16/13 A3026 RMK AO2 SLP243 T01560133 10183 20150 51013=
201210041052 METAR KATL 041052Z 00000KT 10SM FEW250 16/14 A3025 RMK AO2 SLP240 T01560139=
201210040952 METAR KATL 040952Z 00000KT 10SM SCT250 16/14 A3024 RMK AO2 SLP234 T01610139=
201210040852 METAR KATL 040852Z 00000KT 10SM BKN250 17/14 A3022 RMK AO2 SLP228 T01670144 53003=
201210040752 METAR KATL 040752Z 34003KT 10SM FEW008 SCT150 BKN250 16/14 A3021 RMK AO2 SLP224 T01610144=
201210040652 METAR KATL 040652Z 32005KT 10SM FEW150 BKN250 17/14 A3021 RMK AO2 SLP225 T01720144=
201210040552 METAR KATL 040552Z 00000KT 10SM FEW200 BKN250 18/14 A3021 RMK AO2 SLP224 T01780144 10194 20172 50000=
201210040452 METAR KATL 040452Z 00000KT 10SM BKN200 18/15 A3022 RMK AO2 SLP227 T01780150 402330150=
201210040352 METAR KATL 040352Z 00000KT 10SM FEW150 BKN250 18/14 A3022 RMK AO2 SLP226 T01830144=
201210040252 METAR KATL 040252Z 00000KT 10SM FEW150 BKN250 18/14 A3021 RMK AO2 SLP224 T01830144 51017=
201210040152 METAR KATL 040152Z 00000KT 10SM FEW030 BKN250 19/14 A3019 RMK AO2 SLP219 T01890139=
201210040052 METAR KATL 040052Z 00000KT 10SM BKN030 BKN200 19/14 A3018 RMK AO2 SLP214 T01940144=
201210032352 METAR KATL 032352Z 29004KT 10SM SCT150 BKN200 19/14 A3016 RMK AO2 SLP208 T01940144 10233 20194 51009=
201210032252 METAR KATL 032252Z 22004KT 10SM FEW100 SCT150 BKN200 21/14 A3015 RMK AO2 SLP204 T02110139=
201210032152 METAR KATL 032152Z VRB03KT 10SM FEW100 BKN150 OVC250 22/13 A3014 RMK AO2 SLP201 T02170133=
201210032052 METAR KATL 032052Z VRB04KT 10SM FEW040 BKN150 BKN250 23/14 A3013 RMK AO2 SLP197 T02280139 56003=
201210031952 METAR KATL 031952Z 28005KT 10SM FEW035 BKN150 BKN250 22/14 A3013 RMK AO2 SLP197 VIRGA DSNT E T02220139=
201210031852 METAR KATL 031852Z 31005KT 10SM FEW035 SCT120 BKN150 BKN250 22/13 A3013 RMK AO2 SLP197 VIRGA DSNT SE & DSNT W T02220133=
201210031752 METAR KATL 031752Z 27006KT 10SM FEW035 BKN150 BKN250 22/13 A3014 RMK AO2 SLP199 VIRGA DSNT W-NW T02220133 10233 20150 58005=
201210031652 METAR KATL 031652Z 26007KT 10SM FEW025 SCT150 SCT250 22/14 A3015 RMK AO2 SLP204 T02170139=
201210031552 METAR KATL 031552Z VRB04KT 10SM FEW020 SCT150 SCT250 21/14 A3016 RMK AO2 SLP207 T02060139=
201210031452 METAR KATL 031452Z 31007KT 10SM FEW020 SCT150 BKN200 20/16 A3015 RMK AO2 SLP205 T02000156 51017=
201210031352 METAR KATL 031352Z 00000KT 10SM FEW015 SCT150 BKN200 18/15 A3014 RMK AO2 SLP200 T01780150=
201210031322 SPECI KATL 031322Z 00000KT 9SM FEW005 SCT150 SCT250 17/15 A3013 RMK AO2=
201210031252 METAR KATL 031252Z 00000KT 9SM FEW150 SCT250 17/15 A3012 RMK AO2 SLP193 T01670150=
201210031152 METAR KATL 031152Z 00000KT 9SM BKN150 BKN250 15/14 A3010 RMK AO2 SLP188 T01500139 10161 20150 53019=
201210031052 METAR KATL 031052Z 00000KT 8SM SCT150 BKN250 15/14 A3008 RMK AO2 SLP183 T01500139=
201210030952 METAR KATL 030952Z 00000KT 7SM SCT120 BKN250 15/14 A3005 RMK AO2 SLP173 T01500144 $=
201210030852 METAR KATL 030852Z 00000KT 8SM R09R/2200VP6000FT FEW002 SCT150 BKN250 15/14 A3004 RMK AO2 SLP168 T01500144 53003 $=
201210030752 METAR KATL 030752Z 32004KT 4SM BR FEW003 SCT150 15/14 A3003 RMK AO2 SLP163 T01500144 $=
201210030652 METAR KATL 030652Z 29004KT 9SM SCT002 BKN150 16/15 A3004 RMK AO2 SLP167 T01560150 $=
201210030646 SPECI KATL 030646Z 27006KT 9SM FEW004 BKN150 16/15 A3004 RMK AO2 $=
201210030552 METAR KATL 030552Z 28005KT 2SM BR BKN003 16/15 A3003 RMK AO2 SFC VIS 4 SLP164 T01610150 10200 20161 53012 $=
201210030510 SPECI KATL 030510Z 27005KT 10SM FEW011 SCT025 BKN150 17/15 A3002 RMK AO2 $=
201210030452 METAR KATL 030452Z 27005KT 10SM SCT009 BKN025 BKN200 17/16 A3002 RMK AO2 SLP159 T01670156 402220167 $=
201210030445 SPECI KATL 030445Z 25003KT 10SM SCT009 BKN025 BKN200 17/16 A3002 RMK AO2 $=
201210030352 METAR KATL 030352Z 22003KT 10SM FEW007 SCT200 17/16 A3001 RMK AO2 SLP157 T01670156 $=
201210030252 METAR KATL 030252Z 27004KT 10SM FEW020 BKN040 18/16 A3000 RMK AO2 SLP152 T01780156 51021 $=
201210030152 METAR KATL 030152Z 26005KT 10SM FEW020 OVC040 18/16 A2998 RMK AO2 SLP147 T01830156 $=
201210030052 METAR KATL 030052Z 22004KT 10SM FEW025 OVC042 19/16 A2995 RMK AO2 SLP138 T01940156 $=
201210022352 METAR KATL 022352Z 23003KT 10SM FEW025 OVC040 20/16 A2993 RMK AO2 SLP129 60000 T02000156 10222 20200 53017=
201210022252 METAR KATL 022252Z 22005KT 10SM SCT027 OVC045 21/15 A2992 RMK AO2 SLP124 T02060150=
201210022152 METAR KATL 022152Z 22005KT 10SM FEW025 OVC035 21/15 A2989 RMK AO2 SLP116 T02060150=
201210022052 METAR KATL 022052Z 23007KT 10SM FEW025 BKN035 OVC040 21/14 A2988 RMK AO2 SLP112 SHRA DSNT SW-NW 60000 T02110144 53008=
201210021952 METAR KATL 021952Z 23009KT 10SM FEW025 SCT030 BKN040 21/15 A2986 RMK AO2 SLP105 T02110150=
201210021852 METAR KATL 021852Z 23007G16KT 10SM FEW020 SCT030 OVC040 20/15 A2986 RMK AO2 RAB39E48 SLP106 P0000 T02000150=
201210021752 METAR KATL 021752Z 25008KT 10SM FEW025 BKN035 OVC040 21/15 A2986 RMK AO2 SLP103 T02060150 10211 20183 51007=
201210021652 METAR KATL 021652Z 21006KT 10SM BKN025 BKN033 21/15 A2985 RMK AO2 SLP102 T02060150 $=
201210021552 METAR KATL 021552Z 22007KT 10SM BKN025 BKN030 BKN035 20/15 A2984 RMK AO2 SLP098 T02000150 $=
201210021452 METAR KATL 021452Z 20010G18KT 10SM FEW020 BKN035 BKN250 20/16 A2983 RMK AO2 SLP095 T02000156 51012=
201210021352 METAR KATL 021352Z 20011G17KT 10SM FEW012 BKN020 BKN250 19/16 A2982 RMK AO2 SLP089 T01940161=
201210021348 SPECI KATL 021348Z 21012G17KT 10SM FEW012 BKN018 BKN250 19/16 A2982 RMK AO2=
201210021305 SPECI KATL 021305Z 19009KT 10SM SCT008 SCT025 18/17 A2980 RMK AO2=
201210021252 METAR KATL 021252Z 20006KT 10SM BKN007 BKN011 18/17 A2980 RMK AO2 SLP083 T01830167=
201210021210 SPECI KATL 021210Z 20007KT 10SM FEW005 BKN008 BKN012 18/17 A2978 RMK AO2=
201210021152 METAR KATL 021152Z 20007KT 10SM SCT006 SCT012 18/17 A2977 RMK AO2 SLP075 60001 70151 T01830167 10222 20183 53020=
201210021140 SPECI KATL 021140Z 19007KT 10SM FEW006 SCT012 18/17 A2977 RMK AO2=
201210021052 METAR KATL 021052Z 19007KT 10SM FEW010 SCT025 18/17 A2975 RMK AO2 SLP068 T01830172=
201210020952 METAR KATL 020952Z 19008KT 10SM FEW025 19/18 A2973 RMK AO2 SLP060 T01940178=
201210020852 METAR KATL 020852Z 20006KT 10SM FEW009 SCT042 20/19 A2971 RMK AO2 SLP054 60001 T02000189 52003=
201210020849 SPECI KATL 020849Z 19005KT 10SM FEW009 SCT042 20/19 A2971 RMK AO2=
201210020752 METAR KATL 020752Z 18005KT 10SM BKN040 OVC050 21/19 A2970 RMK AO2 RAB07E16 SLP050 P0000 T02110194=
201210020652 METAR KATL 020652Z 21004KT 10SM BKN038 OVC050 21/19 A2970 RMK AO2 RAB00E13 SLP050 P0001 T02110194=
201210020631 SPECI KATL 020631Z 21007KT 10SM FEW012 BKN036 OVC047 21/19 A2970 RMK AO2 RAB00E13 P0001=
201210020552 METAR KATL 020552Z 19008KT 6SM BR SCT007 BKN012 OVC020 22/21 A2969 RMK AO2 SLP045 60024 T02220206 10228 20217 55003=
201210020526 SPECI KATL 020526Z 19005KT 6SM BR BKN007 OVC011 22/21 A2968 RMK AO2 $=
201210020507 SPECI KATL 020507Z 19005KT 10SM SCT007 BKN011 OVC045 22/21 A2969 RMK AO2=
201210020452 METAR KATL 020452Z 16006KT 10SM SCT005 BKN045 OVC060 22/21 A2968 RMK AO2 SLP043 T02170211 402390189=
201210020352 METAR KATL 020352Z 19005KT 10SM FEW005 BKN050 BKN200 22/21 A2969 RMK AO2 RAE22 SLP047 P0010 T02220211=
201210020314 SPECI KATL 020314Z 19008KT 5SM -RA BR FEW008 SCT025 OVC060 22/21 A2969 RMK AO2 P0010=
201210020303 SPECI KATL 020303Z 20011KT 2 1/2SM RA BR FEW007 BKN025 OVC040 22/21 A2970 RMK AO2 P0003=
201210020252 METAR KATL 020252Z 19007KT 3SM RA BR SCT007 BKN012 OVC040 22/21 A2970 RMK AO2 RAB13 SLP048 P0006 60014 T02220211 51010=
201210020247 SPECI KATL 020247Z 16010KT 2 1/2SM +RA BR SCT007 BKN012 OVC040 22/21 A2970 RMK AO2 RAB13 P0003=
201210020218 SPECI KATL 020218Z 17006KT 7SM -RA FEW007 BKN012 OVC050 22/21 A2970 RMK AO2 RAB13 P0000=
201210020152 METAR KATL 020152Z 17005KT 10SM FEW006 SCT025 OVC055 22/21 A2970 RMK AO2 RAB0057E39 SLP047 P0008 T02220211=
201210020148 SPECI KATL 020148Z 17005KT 10SM FEW006 SCT025 OVC055 22/21 A2969 RMK AO2 RAB0057E39 P0008=
201210020134 SPECI KATL 020134Z 16005KT 4SM -RA BR SCT007 BKN015 OVC030 22/21 A2969 RMK AO2 RAB0057 P0008=
201210020115 SPECI KATL 020115Z 19005KT 2 1/2SM +RA BR SCT009 BKN015 OVC050 22/21 A2969 RMK AO2 RAB0057 P0002=
201210020052 METAR KATL 020052Z 18007KT 10SM FEW009 BKN022 OVC060 23/21 A2968 RMK AO2 RAE00B21E52 SLP043 P0000 T02280211=
201210020021 SPECI KATL 020021Z 17010KT 10SM -RA SCT008 BKN016 OVC060 23/21 A2968 RMK AO2 RAE00B21 P0000=
201210012352 METAR KATL 012352Z 18009G16KT 8SM -RA SCT006 BKN013 OVC035 22/21 A2967 RMK AO2 SLP038 P0005 60049 T02220211 10239 20222 53001=
201210012305 SPECI KATL 012305Z 20009KT 4SM -RA BR SCT007 BKN013 OVC025 22/21 A2966 RMK AO2 P0001=
201210012258 SPECI KATL 012258Z 19009G16KT 1 1/2SM +RA BR SCT007 BKN013 OVC030 22/21 A2966 RMK AO2 P0000=
201210012252 METAR KATL 012252Z 20011G16KT 7SM -RA SCT007 BKN013 OVC030 22/21 A2966 RMK AO2 SLP036 P0013 T02220211=
201210012248 SPECI KATL 012248Z 18009G20KT 5SM -RA BR SCT007 BKN013 OVC030 22/21 A2966 RMK AO2 P0013=
201210012242 SPECI KATL 012242Z 17013G21KT 1 1/4SM R09R/4500VP6000FT +RA BR SCT007 BKN013 OVC030 23/21 A2966 RMK AO2 P0010=
201210012237 SPECI KATL 012237Z 16015G20KT 2 1/2SM +RA BR FEW007 BKN013 OVC030 23/21 A2966 RMK AO2 P0008=
201210012216 SPECI KATL 012216Z 18010G20KT 7SM -RA SCT007 BKN013 OVC030 22/21 A2966 RMK AO2 P0007=
201210012152 METAR KATL 012152Z 19014G21KT 2 1/2SM -RA BR SCT007 BKN015 OVC040 23/21 A2965 RMK AO2 SLP034 P0012 T02280211=
201210012131 SPECI KATL 012131Z 18004KT 2 1/2SM RA BR SCT008 BKN018 OVC035 23/22 A2965 RMK AO2 P0001=
201210012127 SPECI KATL 012127Z 18005KT 10SM -RA SCT008 BKN022 OVC035 23/22 A2965 RMK AO2 P0001=
201210012113 SPECI KATL 012113Z 16006KT 10SM -RA FEW008 SCT022 OVC035 23/22 A2965 RMK AO2 P0001=
201210012054 SPECI KATL 012054Z 16012G17KT 5SM -RA BR SCT012 BKN022 OVC049 23/21 A2966 RMK AO2 P0000=
201210012052 METAR KATL 012052Z 16010KT 9SM -RA SCT012 BKN022 OVC045 23/21 A2967 RMK AO2 RAB03E20B42 SLP037 VIS LWR SE SHRA P0001 60019 T02330211 50009=
201210011952 METAR KATL 011952Z 17010KT 8SM SCT012 BKN018 OVC048 23/21 A2967 RMK AO2 RAE20B41E52 SLP040 P0000 T02330211=
201210011945 SPECI KATL 011945Z 17010KT 4SM -RA BR FEW012 BKN018 OVC031 23/21 A2967 RMK AO2 RAE20B41 P0000=
201210011855 SPECI KATL 011855Z 16010G16KT 10SM FEW008 BKN035 OVC060 23/21 A2968 RMK AO2 RAE54 P0000=
201210011852 METAR KATL 011852Z 17013G20KT 8SM -RA FEW010 BKN020 OVC065 23/21 A2968 RMK AO2 SLP043 VIS LWR NE-SE SHRA P0018 T02280211=
201210011831 SPECI KATL 011831Z 18014G20KT 6SM -RA BR SCT008 BKN013 OVC020 22/21 A2969 RMK AO2 P0018=
201210011828 SPECI KATL 011828Z 18014G20KT 3SM R09R/4500VP6000FT -RA BR FEW008 BKN013 OVC020 22/21 A2969 RMK AO2 SFC VIS 6 P0018=
201210011822 SPECI KATL 011822Z 19010KT 2SM R09R/4500VP6000FT +RA BR FEW006 BKN016 OVC025 22/21 A2969 RMK AO2 TWR VIS 3 P0015=
201210011819 SPECI KATL 011819Z 18012KT 2 1/2SM R09R/4500VP6000FT +RA BR FEW006 BKN012 OVC025 22/21 A2968 RMK AO2 TWR VIS 3 P0011=
201210011802 SPECI KATL 011802Z 20009KT 3SM R09R/2800VP6000FT -RA BR BKN010CB BKN020 BKN060 22/21 A2969 RMK AO2 SFC VIS 4 VIS LWR N-NE SHRA CB N MOV NE P0006=
201210011752 METAR KATL 011752Z 25015G18KT 1SM R09R/5000VP6000FT +RA BR BKN010CB BKN020 OVC060 22/21 A2964 RMK AO2 SFC VIS 2 PRESFR SLP028 CB OHD-S-SW-W MOV NE P0060 60077 T02220211 10228 20206 58031=
201210011736 SPECI KATL 011736Z 12008G19KT 1SM R09R/4000VP6000FT +RA BR SCT010CB BKN020 OVC060 22/21 A2968 RMK AO2 SFC VIS 2 PRESFR CB OHD-S-SW MOV NE P0035=
201210011716 SPECI KATL 011716Z 14005G15KT 2SM R09R/5000VP6000FT +RA BR SCT009CB BKN016 OVC024 22/21 A2971 RMK AO2 SFC VIS 2 1/2 CB OHD-S-SW MOV NE P0010=
201210011715 SPECI KATL 011715Z 15006G15KT 2 1/2SM R09R/5000VP6000FT +RA BR SCT009CB BKN016 OVC024 22/21 A2971 RMK AO2 TWR VIS 4 CB OHD-S-SW MOV NE P0009=
201210011712 SPECI KATL 011712Z 15007G15KT 2SM R09R/5000VP6000FT +RA BR SCT011CB BKN016 OVC060 22/21 A2971 RMK AO2 TWR VIS 4 CB OHD-S MOV NE P0006 $=
201210011711 SPECI KATL 011711Z 15007G15KT 2SM R09R/5000VP6000FT +RA BR SCT011 BKN016 OVC055 22/21 A2971 RMK AO2 TWR VIS 4 P0004 $=
201210011702 SPECI KATL 011702Z 15011G17KT 8SM -RA BKN013 BKN027 OVC090 22/21 A2970 RMK AO2 P0001 $=
201210011659 SPECI KATL 011659Z 14009G17KT 8SM BKN013 BKN030 OVC090 22/21 A2970 RMK AO2 RAEMM P0001 $=
201210011652 METAR KATL 011652Z 15010KT 6SM -RA BR FEW010 BKN030 OVC090 22/21 A2971 RMK AO2 SLP052 P0011 T02220206=
201210011615 SPECI KATL 011615Z 16010G17KT 4SM RA BR SCT006 BKN010 OVC070 22/21 A2972 RMK AO2 P0007=
201210011552 METAR KATL 011552Z 13009G16KT 5SM RA BR BKN008 BKN012 OVC070 22/21 A2972 RMK AO2 SLP056 P0005 T02220211=
201210011452 METAR KATL 011452Z 14007KT 6SM -RA BR FEW006 BKN008 OVC014 22/21 A2973 RMK AO2 RAE09B45 SLP061 P0001 60001 T02220211 53002=
201210011424 SPECI KATL 011424Z 15009KT 6SM BR FEW006 BKN008 OVC012 22/21 A2974 RMK AO2 RAE09 P0001=
201210011352 METAR KATL 011352Z 13006G16KT 2SM -RA BR FEW006 BKN008 OVC010 22/21 A2973 RMK AO2 SFC VIS 6 RAB48 SLP058 P0000 T02170211=
201210011314 SPECI KATL 011314Z 13010KT 2SM BR BKN006 BKN008 OVC010 21/21 A2972 RMK AO2 SFC VIS 6=
201210011252 METAR KATL 011252Z 13007KT 2SM BR BKN004 BKN008 OVC010 21/21 A2972 RMK AO2 SFC VIS 6 RAE18 SLP059 P0000 T02110206=
