##########################################################
# Query made at 04/19/2024 23:29:12 UTC
# Time interval: from 09/01/2012 12:00  to 09/30/2012 12:59  UTC
##########################################################

##########################################################
# KATL, Atlanta, Hartsfield - Jackson Atlanta International Airport (United States)
# WMO index: 72219. WIGOS ID: 0-20000-0-72219
# Latitude 33-38-59N. Longitude 084-25-00W. Altitude 312 m.
##########################################################

201209301252 METAR KATL 301252Z 10005KT 6SM BR FEW007 BKN028 BKN150 19/17 A2989 RMK AO2 SLP115 T01890172 $=
201209301230 SPECI KATL 301230Z 09005KT 6SM BR FEW007 SCT029 BKN150 19/17 A2989 RMK AO2 $=
201209301213 SPECI KATL 301213Z 07007KT 6SM BR SCT007 BKN029 BKN150 19/17 A2989 RMK AO2 $=
201209301152 METAR KATL 301152Z 07007KT 6SM BR FEW007 SCT029 BKN150 19/17 A2989 RMK AO2 SLP113 T01890167 10200 20183 55001 $=
201209301137 SPECI KATL 301137Z 06007KT 6SM BR FEW007 SCT032 BKN150 19/17 A2989 RMK AO2 $=
201209301052 METAR KATL 301052Z 05005KT 7SM FEW032 SCT150 BKN250 19/17 A2988 RMK AO2 SLP111 T01890167 $=
201209300952 METAR KATL 300952Z 35004KT 10SM FEW150 SCT250 19/16 A2988 RMK AO2 SLP111 T01890161 $=
201209300852 METAR KATL 300852Z 35003KT 10SM SCT150 18/16 A2989 RMK AO2 SLP113 T01830156 58006 $=
201209300752 METAR KATL 300752Z 34006KT 10SM SCT150 19/16 A2990 RMK AO2 SLP114 T01890161 $=
201209300652 METAR KATL 300652Z 33007KT 8SM SCT150 SCT250 19/17 A2991 RMK AO2 SLP117 T01940172 $=
201209300552 METAR KATL 300552Z 31005KT 10SM FEW035 BKN250 20/17 A2991 RMK AO2 SLP118 T02000172 10250 20200 58007 $=
201209300452 METAR KATL 300452Z 32004KT 10SM BKN250 21/18 A2992 RMK AO2 SLP122 T02110178 402890200 $=
201209300352 METAR KATL 300352Z 00000KT 10SM FEW030 OVC250 22/18 A2993 RMK AO2 SLP125 T02220178 $=
201209300252 METAR KATL 300252Z 34004KT 10SM SCT030 BKN250 22/18 A2993 RMK AO2 SLP126 T02220178 51008=
201209300152 METAR KATL 300152Z 34007KT 10SM OVC250 23/18 A2992 RMK AO2 SLP124 T02330178=
201209300052 METAR KATL 300052Z 35006KT 10SM FEW032 OVC220 24/18 A2992 RMK AO2 SLP122 T02390183=
201209292352 METAR KATL 292352Z 28003KT 10SM FEW035 OVC220 24/17 A2991 RMK AO2 SLP118 T02440172 10283 20239 56001=
201209292252 METAR KATL 292252Z 00000KT 10SM FEW035 OVC200 24/17 A2991 RMK AO2 TSB05E23 SLP120 TS DSIPT T02440167=
201209292223 SPECI KATL 292223Z 17004KT 10SM FEW035 BKN055 OVC200 24/17 A2992 RMK AO2 TSB05E23 TS DSIPT SHRA SE=
201209292205 SPECI KATL 292205Z 21006KT 10SM TS SCT035CB BKN060 OVC200 26/17 A2991 RMK AO2 TSB05 OCNL LTGIC SE-S TS SE-S MOV E SHRA SE-S=
201209292152 METAR KATL 292152Z 02003KT 10SM SCT035CB BKN060 BKN080 OVC200 26/18 A2990 RMK AO2 SLP117 CB SE-S MOV E SHRA SE-S T02610178=
201209292052 METAR KATL 292052Z 34006KT 10SM FEW040 BKN110 OVC220 27/18 A2991 RMK AO2 SLP119 CB DSNT S-SW T02720178 56021 $=
201209291952 METAR KATL 291952Z 32005KT 10SM FEW045 BKN110 OVC220 27/17 A2992 RMK AO2 SLP122 T02720172 $=
201209291852 METAR KATL 291852Z 34005KT 10SM SCT045 BKN110 OVC220 28/18 A2994 RMK AO2 SLP130 T02830178 $=
201209291752 METAR KATL 291752Z 32006KT 10SM FEW045 BKN120 OVC220 28/17 A2997 RMK AO2 SLP139 T02780172 10289 20200 58017 $=
201209291652 METAR KATL 291652Z 32008KT 10SM FEW040 BKN120 OVC250 27/17 A3000 RMK AO2 SLP149 T02670172 $=
201209291552 METAR KATL 291552Z 29005KT 10SM SCT120 BKN140 BKN250 27/17 A3002 RMK AO2 SLP155 T02670172 $=
201209291452 METAR KATL 291452Z 30006KT 10SM BKN140 BKN250 26/17 A3002 RMK AO2 SLP158 T02610172 50003 $=
201209291352 METAR KATL 291352Z VRB03KT 10SM BKN150 BKN250 24/18 A3002 RMK AO2 SLP158 T02390178 $=
201209291252 METAR KATL 291252Z 00000KT 10SM BKN150 BKN250 22/18 A3002 RMK AO2 SLP156 T02170183 $=
201209291152 METAR KATL 291152Z 00000KT 10SM FEW050 BKN150 BKN250 21/17 A3002 RMK AO2 SLP156 T02060172 10217 20200 53003 $=
201209291052 METAR KATL 291052Z 00000KT 10SM SCT055 BKN120 BKN250 21/18 A3001 RMK AO2 SLP152 T02110178 $=
201209290952 METAR KATL 290952Z 00000KT 10SM BKN100 BKN250 21/18 A3000 RMK AO2 SLP151 T02060178 $=
201209290852 METAR KATL 290852Z 26003KT 10SM SCT150 SCT250 21/18 A3000 RMK AO2 SLP151 T02060178 58012 $=
201209290752 METAR KATL 290752Z 00000KT 10SM FEW080 SCT150 SCT250 21/17 A3002 RMK AO2 SLP157 T02060172 $=
201209290652 METAR KATL 290652Z 00000KT 10SM SCT015 SCT200 21/17 A3003 RMK AO2 SLP160 T02110172 $=
201209290552 METAR KATL 290552Z 29003KT 10SM FEW200 SCT250 22/17 A3004 RMK AO2 SLP163 T02170172 10250 20211 58004 $=
201209290452 METAR KATL 290452Z 00000KT 10SM FEW200 OVC250 21/17 A3005 RMK AO2 SLP167 T02110172 403000194 $=
201209290352 METAR KATL 290352Z 23003KT 10SM BKN250 22/18 A3005 RMK AO2 SLP167 T02170178 $=
201209290252 METAR KATL 290252Z 23003KT 10SM OVC250 22/18 A3005 RMK AO2 SLP168 T02220178 51006 $=
201209290152 METAR KATL 290152Z 20004KT 10SM OVC250 23/18 A3005 RMK AO2 SLP166 T02280183 $=
201209290052 METAR KATL 290052Z 00000KT 10SM FEW150 OVC250 24/17 A3004 RMK AO2 SLP166 T02440172 $=
201209282352 METAR KATL 282352Z 00000KT 10SM FEW150 BKN250 25/17 A3004 RMK AO2 SLP163 T02500167 10300 20250 55000=
201209282252 SPECI KATL 282252Z 24003KT 10SM FEW150 BKN250 27/17 A3002 RMK AO2 SLP158 CB DSNT SE T02720167=
201209282252 METAR KATL 282252Z 24003KT 10SM FEW150 BKN250 27/17 A3002 RMK AO2 SLP158 CB DSNT SE T02720167=
201209282152 METAR KATL 282152Z 27003KT 10SM FEW040 SCT200 BKN250 28/17 A3002 RMK AO2 SLP158 CB DSNT SE & S T02780172=
201209282052 METAR KATL 282052Z 29006KT 10SM FEW040TCU SCT120 BKN250 28/17 A3004 RMK AO2 SLP162 CB DSNT SE TCU NE T02830167 56023=
201209281952 METAR KATL 281952Z 30009KT 10SM FEW040CB SCT050TCU SCT110 BKN200 28/17 A3005 RMK AO2 SLP168 CB W MOV E CB DSNT N-NE TCU E & NW SHRA W T02830172=
201209281852 METAR KATL 281852Z 24006KT 10SM SCT045TCU SCT065 OVC200 29/17 A3007 RMK AO2 SLP172 CB DSNT N & SW TCU DSNT NE & S-SW-W-NW T02890167=
201209281752 METAR KATL 281752Z 28006KT 10SM SCT040TCU BKN200 BKN250 28/18 A3011 RMK AO2 SLP185 TCU E-SE-S & DSNT ALQDS T02830183 10283 20206 58015=
201209281652 METAR KATL 281652Z 27006KT 10SM FEW040TCU SCT070 OVC200 28/18 A3012 RMK AO2 SLP191 TCU E & S & DSNT NW T02780183=
201209281552 METAR KATL 281552Z VRB04KT 10SM FEW070 SCT150 BKN200 27/19 A3014 RMK AO2 SLP198 T02670189=
201209281452 METAR KATL 281452Z 26004KT 10SM FEW070 SCT150 BKN200 26/19 A3015 RMK AO2 SLP200 T02560189 51008=
201209281352 METAR KATL 281352Z 23005KT 10SM FEW015 SCT070 BKN200 23/19 A3015 RMK AO2 SLP201 TCU DSNT N T02280189=
201209281252 METAR KATL 281252Z 00000KT 10SM FEW070 OVC250 21/17 A3014 RMK AO2 SLP198 T02110172=
201209281152 METAR KATL 281152Z 00000KT 10SM FEW070 OVC250 21/16 A3013 RMK AO2 SLP192 T02060161 10222 20194 53003=
201209281052 METAR KATL 281052Z 00000KT 10SM BKN250 20/16 A3012 RMK AO2 SLP191 T02000156=
201209280952 METAR KATL 280952Z 00000KT 10SM OVC250 20/16 A3011 RMK AO2 SLP185 T02000156 $=
201209280852 METAR KATL 280852Z 00000KT 10SM BKN250 20/16 A3012 RMK AO2 SLP189 T02000156 56006 $=
201209280752 METAR KATL 280752Z 00000KT 10SM FEW250 20/16 A3012 RMK AO2 SLP190 T02000156 $=
201209280652 METAR KATL 280652Z 00000KT 10SM SCT250 21/16 A3012 RMK AO2 SLP191 T02060156 $=
201209280552 METAR KATL 280552Z 00000KT 10SM SCT250 22/16 A3014 RMK AO2 SLP194 T02220156 10267 20217 58004 $=
201209280452 METAR KATL 280452Z 00000KT 10SM BKN250 22/16 A3015 RMK AO2 SLP198 T02220156 403110167 $=
201209280352 METAR KATL 280352Z 00000KT 10SM SCT250 23/15 A3015 RMK AO2 SLP200 T02330150 $=
201209280252 METAR KATL 280252Z 15005KT 10SM SCT250 24/14 A3015 RMK AO2 SLP199 T02390144 53011 $=
201209280152 METAR KATL 280152Z 00000KT 10SM FEW200 BKN250 24/14 A3013 RMK AO2 SLP195 T02440139 $=
201209280052 METAR KATL 280052Z 10003KT 10SM FEW200 BKN250 26/14 A3012 RMK AO2 SLP191 T02560139=
201209272352 METAR KATL 272352Z 00000KT 10SM FEW200 BKN250 27/13 A3011 RMK AO2 SLP190 T02670133 10311 20267 56002=
201209272252 METAR KATL 272252Z 28004KT 10SM FEW070 BKN250 28/12 A3012 RMK AO2 SLP191 T02830122=
201209272152 METAR KATL 272152Z 26005KT 10SM FEW070 BKN250 30/12 A3011 RMK AO2 SLP188 T03000122=
201209272052 METAR KATL 272052Z 29008KT 10SM FEW070 SCT150 BKN250 31/12 A3012 RMK AO2 SLP189 T03060122 56022=
201209271952 METAR KATL 271952Z 00000KT 10SM FEW070 SCT250 29/12 A3013 RMK AO2 SLP195 T02940117=
201209271852 METAR KATL 271852Z 21005KT 10SM SCT065 SCT250 29/12 A3016 RMK AO2 SLP203 T02890117=
201209271752 METAR KATL 271752Z 27008KT 10SM SCT060 SCT250 29/13 A3019 RMK AO2 SLP212 T02940133 10300 20178 58016=
201209271652 METAR KATL 271652Z VRB05KT 10SM FEW060 SCT250 30/13 A3021 RMK AO2 SLP220 T03000133=
201209271552 METAR KATL 271552Z 35005KT 10SM FEW045 SCT065 SCT250 28/14 A3022 RMK AO2 SLP225 ACC S T02830139=
201209271452 METAR KATL 271452Z 00000KT 10SM FEW070 SCT250 26/14 A3024 RMK AO2 SLP230 ACC S & NW T02610139 51009=
201209271352 METAR KATL 271352Z 00000KT 10SM FEW065 SCT250 24/14 A3023 RMK AO2 SLP229 T02440139=
201209271252 METAR KATL 271252Z 03003KT 10SM FEW002 SCT250 22/14 A3022 RMK AO2 SLP225 FU FEW002 T02170139=
201209271245 SPECI KATL 271245Z 00000KT 10SM FEW002 SCT250 21/14 A3022 RMK AO2 FU FEW002=
201209271152 METAR KATL 271152Z 00000KT 10SM FEW070 SCT250 18/13 A3021 RMK AO2 SLP222 T01780133 10206 20167 51012=
201209271052 METAR KATL 271052Z 00000KT 10SM FEW070 17/13 A3020 RMK AO2 SLP219 T01720133=
201209270952 METAR KATL 270952Z 00000KT 10SM FEW070 19/13 A3019 RMK AO2 SLP214 T01890128=
201209270852 METAR KATL 270852Z 06004KT 10SM FEW070 19/13 A3017 RMK AO2 SLP207 T01890128 55008=
201209270752 METAR KATL 270752Z 00000KT 10SM FEW070 19/13 A3016 RMK AO2 SLP203 T01940128=
201209270652 METAR KATL 270652Z 09004KT 10SM CLR 19/13 A3018 RMK AO2 SLP212 T01940133=
201209270552 METAR KATL 270552Z 00000KT 10SM CLR 20/13 A3019 RMK AO2 SLP216 T02000133 10250 20194 58001=
201209270452 METAR KATL 270452Z 00000KT 10SM CLR 20/13 A3020 RMK AO2 SLP218 T02000128 403000156=
201209270352 METAR KATL 270352Z 00000KT 10SM FEW250 22/13 A3021 RMK AO2 SLP220 T02170128=
201209270252 METAR KATL 270252Z 00000KT 10SM FEW250 22/13 A3020 RMK AO2 SLP217 T02220128 51010=
201209270152 METAR KATL 270152Z 12004KT 10SM SCT250 23/12 A3019 RMK AO2 SLP215 T02330122=
201209270052 METAR KATL 270052Z 00000KT 10SM SCT250 25/11 A3018 RMK AO2 SLP213 T02500111=
201209262352 METAR KATL 262352Z 16004KT 10SM BKN250 24/12 A3016 RMK AO2 SLP209 T02440117 10300 20244 53007=
201209262252 METAR KATL 262252Z 16004KT 10SM BKN250 28/10 A3016 RMK AO2 SLP203 T02780100=
201209262152 METAR KATL 262152Z 19006KT 10SM BKN250 28/11 A3015 RMK AO2 SLP201 T02830106=
201209262052 SPECI KATL 262052Z 22005KT 10SM FEW060 SCT200 BKN250 29/11 A3014 RMK AO2 SLP198 T02940111 56019=
201209262052 METAR KATL 262052Z 22005KT 10SM FEW060 SCT200 BKN250 29/11 A3014 RMK AO2 SLP198 T02940111 56019=
201209261952 METAR KATL 261952Z 00000KT 10SM SCT250 30/12 A3016 RMK AO2 SLP203 T03000117=
201209261852 METAR KATL 261852Z 10005KT 10SM FEW055 SCT200 SCT250 29/12 A3018 RMK AO2 SLP209 T02890117=
201209261752 METAR KATL 261752Z 00000KT 10SM FEW050 SCT200 SCT250 27/12 A3020 RMK AO2 SLP218 T02720122 10283 20161 58014=
201209261652 METAR KATL 261652Z 00000KT 10SM FEW040 SCT200 BKN250 26/13 A3023 RMK AO2 SLP227 T02610128=
201209261552 METAR KATL 261552Z VRB04KT 10SM BKN250 26/14 A3024 RMK AO2 SLP232 T02560144=
201209261452 METAR KATL 261452Z 21006KT 10SM BKN250 23/14 A3024 RMK AO2 SLP233 T02330144 51009=
201209261352 METAR KATL 261352Z 17005KT 10SM FEW250 21/13 A3023 RMK AO2 SLP231 T02060133=
201209261252 METAR KATL 261252Z 20005KT 10SM CLR 18/13 A3023 RMK AO2 SLP229 T01780128=
201209261152 METAR KATL 261152Z 00000KT 10SM CLR 16/12 A3021 RMK AO2 SLP225 T01610122 10194 20156 53011=
201209261052 METAR KATL 261052Z 00000KT 10SM CLR 16/12 A3020 RMK AO2 SLP218 T01610122=
201209260952 METAR KATL 260952Z 14003KT 10SM CLR 17/12 A3019 RMK AO2 SLP216 T01670122=
201209260852 METAR KATL 260852Z 12003KT 10SM CLR 18/12 A3018 RMK AO2 SLP212 T01780122 56004=
201209260752 METAR KATL 260752Z 07005KT 10SM CLR 18/12 A3018 RMK AO2 SLP213 T01780122=
201209260652 METAR KATL 260652Z 00000KT 10SM CLR 18/13 A3018 RMK AO2 SLP213 T01830128=
201209260552 METAR KATL 260552Z 10003KT 10SM FEW250 19/13 A3019 RMK AO2 SLP216 T01890128 10239 20189 51004=
201209260452 METAR KATL 260452Z 14003KT 10SM SCT250 19/13 A3019 RMK AO2 SLP216 T01940133 402780122=
201209260352 METAR KATL 260352Z 12004KT 10SM BKN250 21/13 A3019 RMK AO2 SLP214 T02110128=
201209260252 METAR KATL 260252Z 00000KT 10SM BKN250 21/13 A3018 RMK AO2 SLP213 T02110128 50002=
201209260152 METAR KATL 260152Z 15005KT 10SM OVC250 22/13 A3018 RMK AO2 SLP215 T02220128=
201209260052 METAR KATL 260052Z 14004KT 10SM BKN250 23/13 A3017 RMK AO2 SLP211 T02280133=
201209252352 METAR KATL 252352Z 14005KT 10SM BKN250 24/12 A3017 RMK AO2 SLP213 T02390122 10278 20239 51003=
201209252252 METAR KATL 252252Z 15004KT 10SM BKN250 26/11 A3017 RMK AO2 SLP212 T02560106=
201209252152 METAR KATL 252152Z 15006KT 10SM OVC250 26/12 A3017 RMK AO2 SLP210 T02610117=
201209252052 METAR KATL 252052Z 17007KT 10SM BKN250 BKN300 27/12 A3016 RMK AO2 SLP209 T02670117 56013=
201209251952 METAR KATL 251952Z VRB04KT 10SM BKN250 BKN300 27/11 A3017 RMK AO2 SLP210 T02720106=
201209251852 METAR KATL 251852Z 20005KT 10SM FEW250 SCT300 27/11 A3019 RMK AO2 SLP216 T02670111=
201209251752 METAR KATL 251752Z 00000KT 10SM FEW050 BKN250 BKN300 27/11 A3020 RMK AO2 SLP220 T02670111 10267 20128 58009=
201209251652 METAR KATL 251652Z 22006KT 10SM FEW050 SCT250 BKN300 26/11 A3022 RMK AO2 SLP226 T02560106=
201209251552 METAR KATL 251552Z VRB04KT 10SM FEW045 SCT250 23/12 A3023 RMK AO2 SLP232 T02330122=
201209251452 METAR KATL 251452Z 13003KT 10SM FEW250 21/14 A3023 RMK AO2 SLP230 T02110144 53010=
201209251352 METAR KATL 251352Z 13004KT 10SM FEW250 18/13 A3022 RMK AO2 SLP227 T01830133=
201209251252 METAR KATL 251252Z 09003KT 10SM FEW250 16/11 A3020 RMK AO2 SLP221 T01560111=
201209251152 METAR KATL 251152Z 09005KT 10SM FEW250 13/09 A3020 RMK AO2 SLP222 T01280094 10156 20122 53008=
201209251052 METAR KATL 251052Z 08006KT 10SM CLR 12/09 A3019 RMK AO2 SLP219 T01220089=
201209250952 METAR KATL 250952Z 08004KT 10SM CLR 13/08 A3018 RMK AO2 SLP213 T01330083=
201209250852 METAR KATL 250852Z 09004KT 10SM CLR 14/08 A3017 RMK AO2 SLP211 T01390078 56002=
201209250752 METAR KATL 250752Z 06005KT 10SM CLR 15/08 A3018 RMK AO2 SLP213 T01500078=
201209250652 METAR KATL 250652Z 08008KT 10SM CLR 14/07 A3017 RMK AO2 SLP210 T01440072=
201209250552 METAR KATL 250552Z 08007KT 10SM CLR 15/07 A3018 RMK AO2 SLP213 T01500072 10217 20150 56001=
201209250452 METAR KATL 250452Z 09004KT 10SM CLR 16/07 A3018 RMK AO2 SLP213 T01610067 402560100=
201209250352 METAR KATL 250352Z 09005KT 10SM CLR 17/07 A3018 RMK AO2 SLP214 T01670067=
201209250252 METAR KATL 250252Z 10005KT 10SM CLR 18/06 A3018 RMK AO2 SLP215 T01780061 51010=
201209250152 METAR KATL 250152Z 00000KT 10SM CLR 19/06 A3018 RMK AO2 SLP213 T01890056=
201209250052 METAR KATL 250052Z 10004KT 10SM CLR 21/05 A3016 RMK AO2 SLP208 T02060050=
201209242352 METAR KATL 242352Z 11004KT 10SM FEW250 22/05 A3015 RMK AO2 SLP206 T02170050 10256 20217 53006=
201209242252 METAR KATL 242252Z 09004KT 10SM FEW250 23/04 A3014 RMK AO2 SLP203 T02330039=
201209242152 METAR KATL 242152Z 06006KT 10SM SCT250 25/04 A3013 RMK AO2 SLP200 T02500039=
201209242052 METAR KATL 242052Z 09005KT 10SM BKN250 26/03 A3013 RMK AO2 SLP198 T02560028 56017=
201209241952 METAR KATL 241952Z VRB06KT 10SM SCT250 26/03 A3014 RMK AO2 SLP203 T02560033=
201209241852 METAR KATL 241852Z 08008KT 10SM FEW250 24/04 A3016 RMK AO2 SLP207 T02440044=
201209241752 METAR KATL 241752Z 03004KT 10SM FEW250 23/04 A3018 RMK AO2 SLP216 T02330044 10233 20106 58010=
201209241652 METAR KATL 241652Z 11006KT 10SM FEW250 22/05 A3020 RMK AO2 SLP223 T02220050=
201209241552 METAR KATL 241552Z 07007KT 030V090 10SM CLR 21/04 A3021 RMK AO2 SLP226 T02110044=
201209241452 METAR KATL 241452Z 08014KT 10SM FEW250 19/04 A3022 RMK AO2 SLP227 T01940039 51008=
201209241352 METAR KATL 241352Z 06007KT 10SM FEW250 17/03 A3021 RMK AO2 SLP225 T01720033=
201209241252 METAR KATL 241252Z 36006KT 10SM CLR 14/04 A3021 RMK AO2 SLP224 T01390044=
201209241152 METAR KATL 241152Z 34007KT 10SM CLR 10/04 A3019 RMK AO2 SLP220 T01000044 10139 20100 53015=
201209241052 METAR KATL 241052Z 34009KT 10SM CLR 11/04 A3017 RMK AO2 SLP213 T01060044=
201209240952 METAR KATL 240952Z 33007KT 10SM CLR 11/04 A3016 RMK AO2 SLP206 T01060039=
201209240852 METAR KATL 240852Z 32008KT 10SM CLR 12/04 A3014 RMK AO2 SLP201 T01170039 56009=
201209240752 METAR KATL 240752Z 32006KT 10SM CLR 12/03 A3015 RMK AO2 SLP204 T01220033=
201209240652 METAR KATL 240652Z 34006KT 10SM CLR 14/03 A3016 RMK AO2 SLP206 T01390028=
201209240552 METAR KATL 240552Z 32007KT 10SM CLR 14/04 A3017 RMK AO2 SLP211 T01390039 10228 20139 50005=
201209240452 METAR KATL 240452Z 32008KT 10SM CLR 15/05 A3017 RMK AO2 SLP212 T01500050 402720133=
201209240352 METAR KATL 240352Z 32008KT 10SM CLR 16/07 A3017 RMK AO2 SLP209 T01560067=
201209240252 METAR KATL 240252Z 31005KT 10SM CLR 17/06 A3016 RMK AO2 SLP206 T01720061 51012=
201209240152 METAR KATL 240152Z 34006KT 10SM CLR 19/06 A3014 RMK AO2 SLP201 T01940061=
201209240052 METAR KATL 240052Z 32005KT 10SM CLR 20/05 A3013 RMK AO2 SLP199 T02000050=
201209232352 METAR KATL 232352Z 31007KT 10SM CLR 22/04 A3012 RMK AO2 SLP194 T02220044 10272 20222 53001=
201209232252 METAR KATL 232252Z 30008KT 10SM CLR 24/06 A3012 RMK AO2 SLP192 T02440061=
201209232152 METAR KATL 232152Z 32012KT 10SM CLR 26/05 A3011 RMK AO2 SLP191 T02610050=
201209232052 METAR KATL 232052Z 34014KT 10SM FEW050 27/04 A3011 RMK AO2 SLP191 T02670044 56014=
201209231952 METAR KATL 231952Z 33011G17KT 10SM FEW050 27/07 A3012 RMK AO2 SLP193 T02720067=
201209231852 METAR KATL 231852Z 32012G18KT 10SM FEW050 27/08 A3015 RMK AO2 SLP202 T02670078=
201209231752 METAR KATL 231752Z 33013KT 10SM FEW050 26/07 A3016 RMK AO2 SLP204 T02610072 10267 20144 58008=
201209231652 METAR KATL 231652Z 28012G16KT 10SM CLR 26/07 A3017 RMK AO2 SLP209 T02560072=
201209231552 METAR KATL 231552Z 32008KT 10SM CLR 25/08 A3018 RMK AO2 SLP212 T02500078=
201209231452 METAR KATL 231452Z 32007KT 10SM CLR 23/09 A3018 RMK AO2 SLP213 T02280094 51013=
201209231352 METAR KATL 231352Z 32005KT 10SM CLR 19/09 A3017 RMK AO2 SLP210 T01940094=
201209231252 METAR KATL 231252Z 31006KT 10SM CLR 18/09 A3016 RMK AO2 SLP206 T01780089=
201209231152 METAR KATL 231152Z 29004KT 10SM CLR 14/09 A3014 RMK AO2 SLP201 T01440089 10183 20133 51017=
201209231052 METAR KATL 231052Z 30003KT 10SM CLR 15/09 A3013 RMK AO2 SLP196 T01500089=
201209230952 METAR KATL 230952Z 30005KT 10SM CLR 15/09 A3012 RMK AO2 SLP190 T01500094=
201209230852 METAR KATL 230852Z 33006KT 10SM CLR 15/09 A3009 RMK AO2 SLP182 T01500094 57000=
201209230752 METAR KATL 230752Z 32006KT 10SM CLR 16/10 A3009 RMK AO2 SLP182 T01560100=
201209230652 METAR KATL 230652Z 32007KT 10SM CLR 17/09 A3009 RMK AO2 SLP181 T01670094=
201209230552 METAR KATL 230552Z 32006KT 10SM CLR 18/09 A3009 RMK AO2 SLP181 T01830094 10256 20183 51008=
201209230452 METAR KATL 230452Z 33008KT 10SM CLR 20/09 A3009 RMK AO2 SLP180 T02000094 403060172=
201209230352 METAR KATL 230352Z 33009KT 10SM CLR 22/11 A3008 RMK AO2 SLP178 T02170106=
201209230252 METAR KATL 230252Z 34009KT 10SM FEW050 23/13 A3007 RMK AO2 SLP173 T02280133 53018=
201209230152 METAR KATL 230152Z 31009KT 10SM FEW050 SCT080 24/16 A3005 RMK AO2 SLP166 T02390156=
201209230052 METAR KATL 230052Z 29008KT 10SM SCT045 BKN060 BKN080 25/17 A3003 RMK AO2 SLP161 T02500167=
201209222352 METAR KATL 222352Z 27006KT 10SM FEW060 26/16 A3001 RMK AO2 SLP155 T02610161 10306 20256 53006=
201209222252 METAR KATL 222252Z 27008KT 10SM FEW060 28/16 A3000 RMK AO2 SLP150 T02780156=
201209222152 METAR KATL 222152Z 28011G16KT 10SM SCT060 29/15 A3000 RMK AO2 SLP149 T02940150=
201209222052 METAR KATL 222052Z 27010KT 10SM FEW060 29/15 A3000 RMK AO2 SLP148 T02940150 56014=
201209221952 METAR KATL 221952Z 27009G17KT 10SM FEW060 30/14 A3000 RMK AO2 SLP151 T03000144=
201209221852 METAR KATL 221852Z VRB05KT 10SM CLR 29/16 A3001 RMK AO2 SLP154 T02940156=
201209221752 METAR KATL 221752Z 27008KT 10SM FEW050 29/16 A3004 RMK AO2 SLP162 T02940161 10294 20178 58014=
201209221652 SPECI KATL 221652Z 30012G17KT 10SM FEW048 28/15 A3006 RMK AO2 SLP170 T02780150=
201209221652 METAR KATL 221652Z 30012G17KT 10SM FEW048 28/15 A3006 RMK AO2 SLP170 T02780150=
201209221552 METAR KATL 221552Z 28013KT 10SM FEW040 27/16 A3007 RMK AO2 SLP175 T02670161=
201209221452 METAR KATL 221452Z 27009KT 10SM CLR 26/17 A3008 RMK AO2 SLP176 T02560167 51003=
201209221352 METAR KATL 221352Z 27006KT 10SM CLR 24/17 A3008 RMK AO2 SLP176 T02390167=
201209221252 METAR KATL 221252Z 24003KT 10SM CLR 21/16 A3008 RMK AO2 SLP178 T02060161=
201209221152 METAR KATL 221152Z 22004KT 10SM FEW140 18/16 A3007 RMK AO2 SLP175 T01780156 10200 20172 53009=
201209221052 METAR KATL 221052Z 00000KT 10SM SCT150 18/16 A3006 RMK AO2 SLP170 T01830156=
201209220952 METAR KATL 220952Z 28005KT 10SM FEW100 18/16 A3004 RMK AO2 SLP164 T01830156=
201209220852 METAR KATL 220852Z 00000KT 10SM FEW150 18/16 A3004 RMK AO2 SLP163 T01830156 51004=
201209220752 METAR KATL 220752Z 24004KT 10SM CLR 19/16 A3003 RMK AO2 SLP161 T01890161=
201209220652 METAR KATL 220652Z 23003KT 10SM CLR 19/16 A3004 RMK AO2 SLP162 T01940161=
201209220552 METAR KATL 220552Z 23003KT 10SM CLR 19/17 A3003 RMK AO2 SLP160 T01940167 10244 20194 58004=
201209220452 METAR KATL 220452Z 21004KT 10SM CLR 20/17 A3003 RMK AO2 SLP162 T02000172 402940178=
201209220352 METAR KATL 220352Z 19004KT 10SM CLR 21/17 A3004 RMK AO2 SLP165 T02110172=
201209220252 METAR KATL 220252Z 19004KT 10SM CLR 21/17 A3004 RMK AO2 SLP166 T02110167 53014=
201209220152 METAR KATL 220152Z 19004KT 10SM CLR 22/16 A3003 RMK AO2 SLP163 T02220161=
201209220052 METAR KATL 220052Z 18006KT 10SM CLR 23/16 A3001 RMK AO2 SLP153 T02280156=
201209212352 METAR KATL 212352Z 20004KT 10SM CLR 24/14 A3000 RMK AO2 SLP151 T02440139 10294 20239 56006=
201209212252 METAR KATL 212252Z 22005KT 10SM FEW055 27/13 A3001 RMK AO2 SLP153 T02670133=
201209212152 METAR KATL 212152Z 23006KT 10SM FEW055 SCT250 28/14 A3001 RMK AO2 SLP152 T02780139=
201209212052 METAR KATL 212052Z 00000KT 10SM FEW055 SCT250 28/14 A3002 RMK AO2 SLP155 T02830139 56022=
201209211952 METAR KATL 211952Z 25007KT 10SM SCT055 28/13 A3004 RMK AO2 SLP162 TCU DSNT N T02830133=
201209211852 METAR KATL 211852Z 25004KT 10SM SCT043 28/15 A3006 RMK AO2 SLP169 T02780150=
201209211752 METAR KATL 211752Z 23005KT 10SM SCT032TCU 26/16 A3008 RMK AO2 SLP178 TCU S & NW T02610161 10267 20183 58008=
201209211652 METAR KATL 211652Z 27004KT 10SM BKN030TCU 26/18 A3010 RMK AO2 SLP185 TCU ALQDS T02560178=
201209211652 SPECI KATL 211652Z 27004KT 10SM BKN030TCU 26/18 A3010 RMK AO2 SLP185 TCU ALQDS T02560178=
201209211619 SPECI KATL 211619Z 21005KT 10SM SCT017 SCT030 23/18 A3011 RMK AO2=
201209211552 METAR KATL 211552Z 26004KT 9SM BKN015 23/18 A3011 RMK AO2 SLP188 T02330183=
201209211526 SPECI KATL 211526Z VRB03KT 9SM BKN012 BKN018 22/18 A3011 RMK AO2=
201209211452 METAR KATL 211452Z 24004KT 6SM BR FEW004 BKN006 OVC008 21/18 A3011 RMK AO2 SLP188 T02060183 51005=
201209211413 SPECI KATL 211413Z 25005KT 6SM BR OVC004 19/18 A3010 RMK AO2=
201209211352 METAR KATL 211352Z 23005KT 2SM BR OVC004 19/18 A3010 RMK AO2 SFC VIS 4 SLP186 T01890183=
201209211333 SPECI KATL 211333Z 21004KT 2SM BR SCT002 BKN004 19/18 A3009 RMK AO2 SFC VIS 4=
201209211305 SPECI KATL 211305Z 19003KT 1/4SM R09R/6000VP6000FT BR BKN002 OVC004 19/18 A3009 RMK AO2 SFC VIS 2=
201209211302 SPECI KATL 211302Z 20004KT 2SM R09R/6000VP6000FT BR BKN002 OVC004 19/18 A3009 RMK AO2=
201209211252 METAR KATL 211252Z 22004KT 1/2SM R09R/2800VP6000FT FG OVC003 19/18 A3009 RMK AO2 SLP184 VIS W-NW 1/4 CIG 002V004 T01890183=
201209211236 SPECI KATL 211236Z 23004KT 3/4SM R09R/2600V4000FT BR OVC003 18/18 A3009 RMK AO2 VIS N-E 1/4=
201209211223 SPECI KATL 211223Z 19004KT 1/4SM R09R/1400V3000FT FG VV002 18/18 A3009 RMK AO2=
201209211152 METAR KATL 211152Z 19003KT 1/4SM R09R/1400V2000FT FG VV002 18/18 A3010 RMK AO2 SLP186 T01830178 10200 20178 53008=
201209211131 SPECI KATL 211131Z 00000KT 1/4SM R09R/2600V5000FT FG VV002 18/18 A3010 RMK AO2=
201209211052 METAR KATL 211052Z 00000KT 1/2SM R09R/2800V6000FT FG OVC003 18/17 A3009 RMK AO2 SLP181 CIG 002V004 T01830172=
201209211022 SPECI KATL 211022Z 00000KT 1/2SM R09R/4500VP6000FT FG BKN003 OVC008 18/18 A3009 RMK AO2 CIG 002V004=
201209210952 METAR KATL 210952Z 20003KT 1SM BR BKN003 18/18 A3008 RMK AO2 SFC VIS 1 1/2 SLP177 T01830178=
201209210852 METAR KATL 210852Z 20005KT 1SM BR OVC003 19/18 A3007 RMK AO2 SFC VIS 3 SLP177 T01890178 56002=
201209210848 SPECI KATL 210848Z 19006KT 1SM BR OVC003 19/18 A3007 RMK AO2 SFC VIS 4=
201209210752 METAR KATL 210752Z 16003KT 7SM OVC007 19/17 A3007 RMK AO2 SLP176 T01890172=
201209210718 SPECI KATL 210718Z 12003KT 9SM BKN009 19/17 A3008 RMK AO2=
201209210652 METAR KATL 210652Z 00000KT 10SM SCT013 20/17 A3008 RMK AO2 SLP178 T02000172=
201209210552 METAR KATL 210552Z 00000KT 10SM FEW034 20/17 A3008 RMK AO2 SLP180 T02000167 10239 20200 58003=
201209210452 METAR KATL 210452Z 11003KT 10SM FEW034 SCT045 21/17 A3010 RMK AO2 SLP184 T02060167 402610178=
201209210352 METAR KATL 210352Z 12003KT 10SM FEW040 21/17 A3009 RMK AO2 SLP184 T02110167=
201209210252 METAR KATL 210252Z 00000KT 10SM FEW040 22/16 A3009 RMK AO2 SLP183 T02170161 53012=
201209210152 METAR KATL 210152Z 00000KT 10SM FEW040 22/16 A3008 RMK AO2 SLP180 T02220156=
201209210052 METAR KATL 210052Z 00000KT 10SM CLR 22/15 A3007 RMK AO2 SLP175 T02220150=
201209202352 METAR KATL 202352Z 00000KT 10SM CLR 23/15 A3005 RMK AO2 SLP171 T02280150 10261 20228 53001=
201209202252 METAR KATL 202252Z 18005KT 10SM FEW040 25/14 A3005 RMK AO2 SLP169 T02500139=
201209202152 METAR KATL 202152Z 16005KT 10SM FEW040 26/15 A3005 RMK AO2 SLP168 T02560150=
201209202052 METAR KATL 202052Z 16005KT 10SM SCT038 24/16 A3005 RMK AO2 SLP169 T02440156 56020=
201209201952 METAR KATL 201952Z 16004KT 10SM SCT035 SCT250 24/16 A3006 RMK AO2 SLP173 T02440161=
201209201852 METAR KATL 201852Z 15005KT 10SM SCT030 SCT250 25/17 A3008 RMK AO2 SLP179 T02500172=
201209201802 SPECI KATL 201802Z 06005KT 10SM FEW022 BKN030 BKN034 23/17 A3011 RMK AO2=
201209201752 METAR KATL 201752Z 06005KT 10SM BKN022 BKN025 BKN030 23/17 A3011 RMK AO2 SLP190 T02280167 10228 20178 58006=
201209201652 METAR KATL 201652Z 00000KT 10SM BKN015 BKN018 OVC020 21/17 A3012 RMK AO2 SLP195 BINOVC T02110167=
201209201552 METAR KATL 201552Z 12007KT 10SM OVC015 21/16 A3013 RMK AO2 SLP198 BINOVC T02060161=
201209201452 METAR KATL 201452Z 12004KT 10SM OVC012 20/16 A3014 RMK AO2 SLP200 T02000161 50005=
201209201352 METAR KATL 201352Z 10009KT 10SM BKN010 BKN012 OVC015 19/16 A3014 RMK AO2 SLP200 T01890156=
201209201259 SPECI KATL 201259Z 11008KT 8SM BKN010 OVC015 18/16 A3014 RMK AO2=
201209201252 METAR KATL 201252Z 11007KT 8SM BKN009 OVC015 18/16 A3014 RMK AO2 SLP199 T01830156=
201209201152 METAR KATL 201152Z 11006KT 9SM BKN007 BKN014 OVC046 18/16 A3012 RMK AO2 SLP195 T01780161 10200 20178 51011=
201209201121 SPECI KATL 201121Z 09007KT 8SM BKN007 OVC014 18/16 A3012 RMK AO2=
201209201052 METAR KATL 201052Z 11007KT 8SM SCT007 BKN014 BKN046 18/16 A3012 RMK AO2 SLP191 T01780161=
201209201046 SPECI KATL 201046Z 10005G14KT 8SM SCT007 BKN014 BKN046 18/16 A3012 RMK AO2=
201209201014 SPECI KATL 201014Z 09007KT 8SM BKN009 BKN046 18/16 A3011 RMK AO2=
201209200952 METAR KATL 200952Z 11006KT 9SM SCT008 BKN046 18/16 A3010 RMK AO2 SLP186 T01830161 $=
201209200852 METAR KATL 200852Z 08006KT 10SM SCT008 BKN049 18/16 A3009 RMK AO2 SLP183 T01780161 53003=
201209200832 SPECI KATL 200832Z 08006KT 10SM FEW008 BKN049 18/16 A3009 RMK AO2=
201209200752 METAR KATL 200752Z 09006KT 10SM FEW019 SCT042 18/16 A3009 RMK AO2 SLP180 T01780161=
201209200652 METAR KATL 200652Z 09004KT 10SM FEW030 SCT043 19/16 A3009 RMK AO2 SLP179 T01940161=
201209200552 METAR KATL 200552Z 15003KT 10SM FEW037 BKN047 19/15 A3008 RMK AO2 SLP179 T01940150 10233 20189 50002=
201209200452 METAR KATL 200452Z 00000KT 10SM FEW045 19/14 A3009 RMK AO2 SLP181 T01890139 402720122=
201209200352 METAR KATL 200352Z 33003KT 10SM SCT045 SCT250 19/14 A3008 RMK AO2 SLP181 T01940139=
201209200252 METAR KATL 200252Z 32006KT 10SM FEW250 19/14 A3008 RMK AO2 SLP179 T01890139 51016=
201209200152 METAR KATL 200152Z 33007KT 10SM FEW250 21/13 A3007 RMK AO2 SLP176 T02060133=
201209200052 METAR KATL 200052Z 29003KT 10SM FEW055 SCT250 22/11 A3005 RMK AO2 SLP172 T02170111=
201209192352 METAR KATL 192352Z 29004KT 10SM FEW050 SCT200 23/11 A3003 RMK AO2 SLP165 T02330106 10272 20233 53001=
201209192252 METAR KATL 192252Z 31003KT 10SM FEW060 SCT200 26/12 A3002 RMK AO2 SLP161 T02560117=
201209192152 METAR KATL 192152Z 00000KT 10SM FEW060 SCT200 27/11 A3002 RMK AO2 SLP159 T02670111=
201209192052 METAR KATL 192052Z 18004KT 10SM FEW060 SCT200 26/11 A3003 RMK AO2 SLP162 T02560111 55008=
201209191952 METAR KATL 191952Z 24003KT 10SM FEW050 SCT200 27/12 A3002 RMK AO2 SLP159 T02670122=
201209191852 METAR KATL 191852Z 00000KT 10SM FEW050 27/13 A3003 RMK AO2 SLP163 T02670128=
201209191752 METAR KATL 191752Z 00000KT 10SM FEW040 25/13 A3005 RMK AO2 SLP170 T02500128 10250 20122 58006=
201209191652 METAR KATL 191652Z VRB05KT 10SM FEW040 24/14 A3006 RMK AO2 SLP174 T02390139=
201209191552 METAR KATL 191552Z 07003KT 10SM FEW045 22/13 A3007 RMK AO2 SLP177 T02170128=
201209191452 METAR KATL 191452Z 06004KT 10SM FEW045 19/12 A3007 RMK AO2 SLP176 T01940117 51021=
201209191352 METAR KATL 191352Z 35004KT 10SM FEW025 17/11 A3005 RMK AO2 SLP170 T01670111=
201209191252 METAR KATL 191252Z 33007KT 10SM CLR 14/11 A3003 RMK AO2 SLP165 T01390106=
201209191152 METAR KATL 191152Z 33006KT 10SM FEW250 12/11 A3001 RMK AO2 SLP156 70015 T01220106 10156 20122 51017=
201209191052 METAR KATL 191052Z 32006KT 10SM CLR 12/11 A2999 RMK AO2 SLP151 T01220106=
201209190952 METAR KATL 190952Z 33007KT 10SM CLR 13/11 A2997 RMK AO2 SLP143 T01280106=
201209190852 METAR KATL 190852Z 33008KT 10SM CLR 13/11 A2995 RMK AO2 SLP137 T01330106 55003=
201209190752 METAR KATL 190752Z 33012KT 10SM CLR 14/11 A2994 RMK AO2 SLP132 T01440106=
201209190652 METAR KATL 190652Z 33009KT 10SM CLR 15/11 A2995 RMK AO2 SLP136 T01500106=
201209190552 METAR KATL 190552Z 32010KT 10SM CLR 16/11 A2996 RMK AO2 SLP140 T01560111 10228 20156 51007=
201209190452 METAR KATL 190452Z 33012KT 10SM CLR 17/12 A2996 RMK AO2 SLP140 T01670122 402610167=
201209190352 METAR KATL 190352Z 32010G17KT 10SM FEW250 17/13 A2995 RMK AO2 SLP137 T01720133=
201209190302 SPECI KATL 190302Z 33015G21KT 10SM FEW013 SCT028 18/14 A2994 RMK AO2=
201209190252 METAR KATL 190252Z 33014G21KT 10SM SCT013 BKN028 19/14 A2994 RMK AO2 PK WND 33026/0224 SLP131 T01890144 53036=
201209190235 SPECI KATL 190235Z 33015G25KT 10SM SCT013 OVC030 19/16 A2993 RMK AO2 PK WND 33026/0224=
201209190152 METAR KATL 190152Z 34014KT 10SM BKN011 BKN018 OVC030 20/18 A2990 RMK AO2 SLP117 T02000178=
201209190116 SPECI KATL 190116Z 34012G17KT 10SM BKN012 BKN018 20/17 A2988 RMK AO2=
201209190052 METAR KATL 190052Z 33012KT 10SM FEW015 SCT250 21/17 A2987 RMK AO2 SLP108 T02060172=
201209182352 METAR KATL 182352Z 31010KT 10SM FEW035TCU SCT250 23/18 A2983 RMK AO2 SLP093 TCU SW-NW 60000 T02280178 10261 20206 51018=
201209182252 METAR KATL 182252Z 32009KT 10SM FEW035 SCT060 SCT250 24/17 A2981 RMK AO2 SLP086 TCU DSNT SE & SW T02390167=
201209182152 METAR KATL 182152Z 35010KT 10SM SCT032TCU SCT050 BKN250 26/17 A2980 RMK AO2 SLP081 TCU SE & S-W T02560172=
201209182052 METAR KATL 182052Z 32012G20KT 10SM FEW030 SCT200 BKN250 24/17 A2978 RMK AO2 SLP074 60000 T02440172 55003=
201209181952 METAR KATL 181952Z 34008KT 10SM FEW022 SCT028 BKN250 24/18 A2977 RMK AO2 SLP072 T02440178=
201209181931 SPECI KATL 181931Z 33005KT 10SM FEW020 SCT030 SCT150 BKN250 24/19 A2978 RMK AO2=
201209181852 METAR KATL 181852Z 33011KT 10SM BKN015 BKN150 BKN250 23/19 A2979 RMK AO2 RAE06 SLP078 TCU DSNT SW-NW P0000 T02280189=
201209181836 SPECI KATL 181836Z 34012KT 10SM SCT010 BKN014 BKN019 BKN150 BKN250 22/19 A2979 RMK AO2 RAE06 P0000=
201209181829 SPECI KATL 181829Z 33006KT 10SM FEW008 SCT020 BKN150 BKN250 22/19 A2979 RMK AO2 RAE06 P0000=
201209181809 SPECI KATL 181809Z 31007KT 10SM SCT010 BKN013 OVC028 22/19 A2979 RMK AO2 RAE06 P0000=
201209181802 SPECI KATL 181802Z 34009KT 6SM -RA BR FEW008 BKN013 OVC020 21/19 A2978 RMK AO2 P0000=
201209181752 METAR KATL 181752Z 33007KT 6SM -RA BR BKN008 BKN015 21/19 A2979 RMK AO2 SLP079 P0001 60015 T02110194 10228 20206 51002=
201209181746 SPECI KATL 181746Z 32005KT 6SM -RA BR FEW008 BKN012 OVC033 21/19 A2979 RMK AO2 P0000=
201209181742 SPECI KATL 181742Z 30006KT 6SM BR BKN010 BKN013 OVC033 21/19 A2979 RMK AO2 RAE34 P0000=
201209181724 SPECI KATL 181724Z 34010KT 6SM -RA BR FEW008 BKN027 OVC033 21/19 A2977 RMK AO2 P0000=
201209181711 SPECI KATL 181711Z 34009KT 6SM -RA BR SCT008 BKN011 OVC033 21/19 A2978 RMK AO2 P0000=
201209181652 METAR KATL 181652Z 30007KT 5SM -RA BR BKN006 BKN050 OVC070 21/19 A2978 RMK AO2 TSE44 SLP077 OCNL LTGIC DSNT NE-SE TS MOV NE CB DSNT NE-SE FROPA P0013 T02060194=
201209181650 SPECI KATL 181650Z 29007KT 5SM -RA BR BKN006 BKN050 OVC070 21/19 A2978 RMK AO2 TSE44 OCNL LTGIC DSNT NE-SE TS MOV NE CB DSNT NE-SE FROPA P0013=
201209181635 SPECI KATL 181635Z 27006KT 6SM -TSRA BR BKN009CB BKN050 OVC090 21/19 A2977 RMK AO2 OCNL LTGIC NE-SE TS NE-SE MOV NE P0011=
201209181621 SPECI KATL 181621Z 29011KT 3SM -TSRA BR BKN012CB BKN040 OVC055 21/19 A2976 RMK AO2 SFC VIS 5 OCNL LTGIC NE-SE TS NE-SE MOV NE P0009=
201209181617 SPECI KATL 181617Z 28010G20KT 1 1/2SM R09R/4500VP6000FT TSRA BR BKN010CB BKN015 OVC030 21/19 A2977 RMK AO2 SFC VIS 2 1/2 OCNL LTGIC OHD TS OHD MOV NE P0008=
201209181612 SPECI KATL 181612Z 28016G20KT 1SM R09R/4500VP6000FT +TSRA BR BKN010CB BKN015 OVC030 22/20 A2978 RMK AO2 TWR VIS 1 1/2 OCNL LTGIC OHD-SW-NW TS OHD-SW-NW MOV NE P0003=
201209181558 SPECI KATL 181558Z 20009KT 3SM R09R/4500VP6000FT -TSRA BR BKN013CB BKN020 OVC060 22/21 A2976 RMK AO2 OCNL LTGIC SW-NW TS SW-NW MOV NE P0001=
201209181552 METAR KATL 181552Z 21010KT 6SM R09R/6000VP6000FT -TSRA BR BKN013CB BKN020 OVC060 23/21 A2976 RMK AO2 TSB44RAB15E26B43 SLP069 VIS LWR SW-NW SHRA OCNL LTGIC SW-NW TS VC SW-NW MOV NE P0001 T02280206=
201209181546 SPECI KATL 181546Z 19007KT 5SM R09R/6000VP6000FT -TSRA BR BKN013CB BKN020 OVC060 23/21 A2976 RMK AO2 TSB44RAB15E26B43 VIS LWR SW-NW SHRA OCNL LTGIC SW-NW TS VC SW-NW MOV NE P0001=
201209181544 SPECI KATL 181544Z 20009KT 9SM R09R/6000VP6000FT -TSRA BKN013CB BKN020 OVC060 23/20 A2976 RMK AO2 TSB44RAB15E26B43 VIS LWR SW-NW SHRA OCNL LTGIC SW-NW TS VC SW-NW MOV NE P0000=
201209181508 SPECI KATL 181508Z 20009KT 10SM BKN016 BKN020 OVC060 23/20 A2976 RMK AO2=
201209181452 METAR KATL 181452Z 21011KT 10SM BKN014 BKN019 OVC060 23/20 A2975 RMK AO2 SLP067 60000 T02280200 53004=
201209181400 SPECI KATL 181400Z 21007KT 10SM BKN011 BKN065 22/20 A2975 RMK AO2=
201209181352 METAR KATL 181352Z 22006KT 10SM FEW011 SCT065 BKN080 OVC150 22/20 A2975 RMK AO2 SLP064 T02220200=
201209181328 SPECI KATL 181328Z 21008KT 10SM SCT013 BKN021 OVC080 22/20 A2974 RMK AO2=
201209181317 SPECI KATL 181317Z 22010KT 10SM SCT009 BKN013 OVC021 22/21 A2975 RMK AO2=
201209181252 METAR KATL 181252Z 22006KT 10SM BKN013 BKN020 22/21 A2973 RMK AO2 RAB21E40 SLP058 P0000 T02220206=
201209181228 SPECI KATL 181228Z 22008KT 10SM -RA SCT010 BKN013 OVC025 22/21 A2974 RMK AO2 RAB21 P0000=
201209181152 METAR KATL 181152Z 18010G15KT 7SM BKN006 OVC110 22/21 A2974 RMK AO2 RAB1059E43 SLP062 P0001 60001 70018 T02220206 10222 20217 58009=
201209181052 METAR KATL 181052Z 19008G15KT 10SM BKN007 OVC010 22/21 A2975 RMK AO2 SLP065 T02220206=
201209180952 METAR KATL 180952Z 19010G15KT 10SM BKN007 OVC010 22/20 A2976 RMK AO2 RAE0853 SLP068 T02220200 $=
201209180852 METAR KATL 180852Z 19010KT 10SM -RA BKN009 OVC120 22/20 A2977 RMK AO2 RAB43 SLP071 P0000 60000 T02170200 58016 $=
201209180752 METAR KATL 180752Z 19007KT 10SM BKN013 BKN017 BKN070 22/20 A2979 RMK AO2 SLP078 T02170200 $=
201209180652 METAR KATL 180652Z 20009KT 10SM BKN011 BKN014 OVC040 22/20 A2980 RMK AO2 SLP081 T02220200 $=
201209180559 SPECI KATL 180559Z 20012KT 10SM BKN013 BKN018 BKN030 22/21 A2981 RMK AO2 $=
201209180552 METAR KATL 180552Z 19012KT 10SM SCT011 BKN015 BKN027 22/21 A2982 RMK AO2 SLP087 60001 T02220206 10222 20217 58004 $=
201209180542 SPECI KATL 180542Z 20011G17KT 8SM BKN011 BKN017 OVC025 22/21 A2982 RMK AO2 $=
201209180519 SPECI KATL 180519Z 19012KT 10SM BKN009 OVC014 22/21 A2982 RMK AO2=
201209180452 METAR KATL 180452Z 19013G18KT 10SM SCT007 BKN014 OVC025 22/21 A2982 RMK AO2 RAB16E38 SLP089 P0000 T02220206 402830206=
201209180352 METAR KATL 180352Z 17010G15KT 10SM FEW007 BKN013 OVC020 22/21 A2983 RMK AO2 SLP093 T02220206=
201209180326 SPECI KATL 180326Z 20006KT 10SM FEW007 BKN013 OVC025 22/21 A2984 RMK AO2=
201209180317 SPECI KATL 180317Z 21006KT 10SM SCT007 BKN025 OVC120 22/21 A2984 RMK AO2=
201209180252 METAR KATL 180252Z 17007KT 10SM FEW008 SCT120 BKN150 OVC200 22/21 A2983 RMK AO2 RAE40 SLP092 P0001 60001 T02170206 58014=
201209180152 METAR KATL 180152Z 18007KT 10SM -RA FEW010 BKN040 OVC060 22/21 A2985 RMK AO2 RAB33 SLP100 P0000 T02170206=
201209180052 METAR KATL 180052Z 17005KT 10SM FEW045 SCT120 BKN150 OVC200 22/21 A2986 RMK AO2 RAE20 SLP104 P0000 T02170206=
201209172352 METAR KATL 172352Z 18011KT 8SM -RA FEW025 SCT040 BKN080 OVC150 22/21 A2987 RMK AO2 TSB31E48 SLP108 P0005 60016 T02220206 10283 20222 55000=
201209172348 SPECI KATL 172348Z 18010KT 7SM -RA FEW025 SCT040 BKN080 OVC150 23/21 A2987 RMK AO2 TSB31E48 TS DSIPTD P0005=
201209172331 SPECI KATL 172331Z 20007KT 7SM TSRA FEW025CB SCT045 BKN080 OVC150 23/21 A2987 RMK AO2 TSB31 OCNL LTGIC SE TS VC SE MOV N P0002=
201209172252 METAR KATL 172252Z 21007KT 7SM RA SCT045 BKN090 BKN110 OVC150 24/21 A2986 RMK AO2 RAB21 SLP103 P0001 T02440206=
201209172152 METAR KATL 172152Z 16007KT 10SM FEW025CB SCT045 BKN110 OVC200 26/22 A2986 RMK AO2 SLP101 CB SW-W MOV N SHRA SW-W T02560217=
201209172052 METAR KATL 172052Z 13005KT 10SM FEW025 SCT040 BKN110 BKN200 25/22 A2987 RMK AO2 RAE30 SLP107 CB DSNT N & E SHRA DSNT N & E P0003 60010 T02500217 56030=
201209172025 SPECI KATL 172025Z 15007G20KT 9SM -RA SCT025CB BKN040 OVC110 24/21 A2989 RMK AO2 VIS LWR N-NE SHRA CB N-NE MOV N P0003=
201209172019 SPECI KATL 172019Z 15014G20KT 2SM RA BKN025CB BKN040 OVC110 26/21 A2989 RMK AO2 CB OHD-SE-S MOV N P0001=
201209171952 METAR KATL 171952Z 19005KT 9SM -RA FEW030CB SCT040TCU OVC075 26/21 A2989 RMK AO2 RAB39 SLP112 VIS LWR E & S SHRA CB E MOV N TCU ALQDS P0001 T02560211=
201209171852 METAR KATL 171852Z 14007KT 10SM FEW030TCU SCT040 BKN200 28/21 A2992 RMK AO2 RAB12E22 SLP122 CB DSNT N-NE TCU SW-NW SHRA DSNT N-NE P0006 T02780206=
201209171822 SPECI KATL 171822Z 15009KT 120V180 10SM R09R/5500VP6000FT SCT027CB BKN040TCU BKN065 BKN200 27/22 A2994 RMK AO2 RAB12E22 CB OHD-N MOV N TCU ALQDS SHRA N P0006=
201209171815 SPECI KATL 171815Z 16007KT 5SM R09R/5500VP6000FT RA BKN027CB BKN030TCU OVC070 26/21 A2995 RMK AO2 RAB12 CB OHD-S MOV N TCU ALQDS P0003=
201209171752 METAR KATL 171752Z 19009KT 10SM FEW025CB SCT030TCU BKN070 BKN200 27/20 A2996 RMK AO2 SLP137 CB E MOV N TCU SE-S & NW-N SHRA E T02670200 10272 20206 58020=
201209171659 SPECI KATL 171659Z 14007KT 10SM BKN025TCU BKN035 OVC150 26/21 A2999 RMK AO2 TCU S-SW-W-NW=
201209171652 METAR KATL 171652Z 12007KT 10SM SCT025TCU BKN035 OVC150 26/21 A2999 RMK AO2 SLP148 TCU S-SW-W-NW T02560206=
201209171552 METAR KATL 171552Z 13006KT 10SM FEW018 SCT100 OVC200 26/21 A3001 RMK AO2 SLP151 T02560206=
201209171452 METAR KATL 171452Z 13005KT 8SM FEW010 SCT100 BKN200 24/21 A3003 RMK AO2 SLP158 T02440206 50002=
201209171442 SPECI KATL 171442Z 15007KT 7SM BKN011 BKN100 BKN200 23/20 A3003 RMK AO2=
201209171352 METAR KATL 171352Z VRB05KT 6SM BR BKN007 BKN100 BKN200 22/20 A3003 RMK AO2 SLP161 T02220200=
201209171252 METAR KATL 171252Z 11006KT 6SM BR BKN007 BKN100 21/19 A3002 RMK AO2 SLP157 T02110194=
201209171219 SPECI KATL 171219Z 11006KT 6SM BR BKN007 BKN090 BKN120 21/19 A3002 RMK AO2=
201209171152 METAR KATL 171152Z 11004KT 6SM BR FEW006 BKN110 BKN150 21/19 A3002 RMK AO2 SLP156 70010 T02060189 10211 20206 55002=
201209171052 METAR KATL 171052Z 09004KT 10SM BKN090 BKN110 21/19 A3001 RMK AO2 SLP154 T02060189=
201209170952 METAR KATL 170952Z 08006KT 10SM BKN090 OVC120 21/19 A3002 RMK AO2 SLP155 T02060189 $=
201209170852 METAR KATL 170852Z 08005KT 8SM BKN090 OVC100 21/19 A3002 RMK AO2 SLP158 T02060189 58012 $=
201209170752 METAR KATL 170752Z 00000KT 8SM SCT060 BKN080 OVC095 21/19 A3004 RMK AO2 SLP163 T02110189 $=
201209170652 METAR KATL 170652Z 08006KT 10SM BKN060 OVC075 21/19 A3005 RMK AO2 SLP166 T02110189 $=
201209170552 METAR KATL 170552Z 07006KT 10SM BKN048 BKN060 BKN100 21/19 A3006 RMK AO2 SLP169 60010 T02110189 10267 20211 58008=
201209170452 METAR KATL 170452Z 10007KT 10SM FEW070 SCT090 BKN140 22/19 A3007 RMK AO2 SLP173 T02170194 403000206=
201209170352 METAR KATL 170352Z 11003KT 10SM FEW055 SCT110 OVC140 22/20 A3008 RMK AO2 SLP176 T02220200=
201209170252 METAR KATL 170252Z 08009KT 10SM SCT055 BKN090 OVC120 22/20 A3008 RMK AO2 TSE02RAE12 SLP178 TS DSIPT P0003 60010 T02220200 50013=
201209170202 SPECI KATL 170202Z 00000KT 7SM -RA FEW045 OVC065 22/20 A3008 RMK AO2 TSE02 TS DSIPT P0003=
201209170152 METAR KATL 170152Z 26003KT 5SM +TSRA BR SCT043CB BKN065 OVC080 22/20 A3009 RMK AO2 TSB46 SLP179 OCNL LTGIC SE-S TS SE-S MOV NE P0007 T02220200=
201209170147 SPECI KATL 170147Z 25004KT 7SM TSRA SCT043CB BKN050 OVC090 23/20 A3008 RMK AO2 TSB46 OCNL LTGIC SE-S TS SE-S MOV NE P0004=
201209170052 METAR KATL 170052Z 10005KT 10SM -RA FEW045 BKN085 OVC100 26/18 A3005 RMK AO2 RAB47 SLP167 P0000 T02560178=
201209162352 METAR KATL 162352Z 10005KT 10SM FEW045 BKN090 BKN120 OVC220 27/17 A3004 RMK AO2 SLP164 60000 T02670172 10283 20261 53001=
201209162252 METAR KATL 162252Z 00000KT 10SM FEW045 SCT080 BKN120 BKN220 27/17 A3004 RMK AO2 SLP163 T02720167=
201209162152 METAR KATL 162152Z 18004KT 10SM FEW045 BKN080 BKN120 BKN220 28/16 A3004 RMK AO2 SLP164 T02780156=
201209162052 METAR KATL 162052Z 00000KT 10SM FEW045 SCT090 BKN150 OVC220 27/17 A3004 RMK AO2 RAE1953 SLP164 60000 T02720172 58016=
201209161952 METAR KATL 161952Z 25003KT 10SM -RA FEW046 OVC080 26/18 A3006 RMK AO2 RAE06B37 SLP170 P0000 T02610178=
201209161852 METAR KATL 161852Z 19006KT 10SM -RA SCT045 OVC080 27/17 A3007 RMK AO2 RAB51 SLP175 P0000 T02670172=
201209161752 METAR KATL 161752Z 34007KT 10SM SCT050 BKN100 28/17 A3009 RMK AO2 SLP179 T02830167 10300 20206 58014=
201209161652 METAR KATL 161652Z 30007KT 260V320 10SM BKN065 BKN100 29/17 A3012 RMK AO2 SLP188 T02890172=
201209161552 METAR KATL 161552Z 24003KT 10SM FEW035 OVC100 27/18 A3013 RMK AO2 SLP191 T02670178=
201209161452 METAR KATL 161452Z 24007KT 10SM SCT070 BKN100 BKN250 26/18 A3013 RMK AO2 SLP194 T02560178 50007=
201209161352 METAR KATL 161352Z VRB05KT 10SM FEW120 BKN250 24/17 A3013 RMK AO2 SLP195 T02390172=
201209161252 METAR KATL 161252Z 19004KT 10SM FEW090 SCT150 BKN250 22/17 A3012 RMK AO2 SLP191 T02220167=
201209161152 METAR KATL 161152Z 00000KT 10SM BKN100 BKN150 BKN250 21/17 A3011 RMK AO2 SLP188 T02060167 10228 20206 53007=
201209161052 METAR KATL 161052Z 00000KT 10SM FEW060 SCT100 SCT250 21/16 A3010 RMK AO2 SLP185 T02060161=
201209160952 METAR KATL 160952Z 18003KT 10SM SCT095 BKN150 BKN250 21/16 A3009 RMK AO2 SLP181 T02110161=
201209160852 METAR KATL 160852Z 00000KT 10SM FEW150 21/16 A3009 RMK AO2 SLP180 T02110161 56009=
201209160752 METAR KATL 160752Z 00000KT 10SM SCT100 21/17 A3010 RMK AO2 SLP182 T02110172=
201209160652 METAR KATL 160652Z 00000KT 10SM FEW065 SCT100 SCT250 22/16 A3010 RMK AO2 SLP184 T02170161=
201209160552 METAR KATL 160552Z 26003KT 10SM SCT065 BKN100 BKN250 22/16 A3012 RMK AO2 SLP188 T02220161 10267 20222 58002=
201209160452 METAR KATL 160452Z 22003KT 10SM SCT095 BKN250 22/17 A3012 RMK AO2 SLP191 T02220167 403060200=
201209160352 METAR KATL 160352Z 00000KT 10SM FEW090 BKN220 23/17 A3013 RMK AO2 SLP192 T02280167=
201209160252 METAR KATL 160252Z 11003KT 10SM FEW100 BKN220 24/16 A3013 RMK AO2 SLP191 T02440161 52006=
201209160152 METAR KATL 160152Z 00000KT 10SM FEW100 BKN220 26/15 A3012 RMK AO2 SLP189 T02610150=
201209160052 METAR KATL 160052Z 00000KT 10SM FEW055 SCT100 BKN250 26/16 A3012 RMK AO2 SLP189 T02560156=
201209152352 METAR KATL 152352Z 30003KT 10SM FEW060 SCT100 BKN250 27/15 A3011 RMK AO2 SLP186 T02670150 10306 20261 58001=
201209152252 METAR KATL 152252Z 26003KT 10SM FEW060 SCT100 BKN250 28/15 A3011 RMK AO2 SLP187 T02780150=
201209152152 METAR KATL 152152Z 23004KT 10SM BKN060 BKN100 BKN250 28/14 A3011 RMK AO2 SLP188 T02830144=
201209152052 METAR KATL 152052Z 23004KT 10SM BKN060 BKN100 BKN250 28/14 A3011 RMK AO2 SLP186 T02830139 56016=
201209151952 METAR KATL 151952Z 00000KT 10SM SCT060 BKN100 BKN250 29/14 A3012 RMK AO2 SLP190 T02890139=
201209151852 METAR KATL 151852Z VRB05KT 10SM BKN065 BKN250 29/14 A3014 RMK AO2 SLP195 T02940139=
201209151752 METAR KATL 151752Z VRB06KT 10SM BKN055 BKN250 30/15 A3016 RMK AO2 SLP202 T03000150 10306 20217 58018=
201209151652 METAR KATL 151652Z 10003KT 10SM SCT050 BKN250 28/14 A3018 RMK AO2 SLP209 T02830144=
201209151552 METAR KATL 151552Z 00000KT 10SM FEW048 BKN250 28/15 A3020 RMK AO2 SLP215 T02780150=
201209151452 METAR KATL 151452Z VRB03KT 10SM BKN250 26/16 A3021 RMK AO2 SLP221 T02610156 50002=
201209151352 METAR KATL 151352Z 00000KT 10SM FEW100 BKN250 24/15 A3022 RMK AO2 SLP224 T02440150=
201209151252 METAR KATL 151252Z 08003KT 10SM SCT090 23/16 A3022 RMK AO2 SLP223 T02280156=
201209151152 METAR KATL 151152Z 00000KT 10SM BKN095 22/16 A3021 RMK AO2 SLP220 T02170156 10228 20200 53010=
201209151052 METAR KATL 151052Z 03004KT 10SM SCT095 21/15 A3019 RMK AO2 SLP213 T02060150=
201209150952 METAR KATL 150952Z 01003KT 10SM SCT095 21/16 A3018 RMK AO2 SLP210 T02060156=
201209150852 METAR KATL 150852Z 36003KT 10SM BKN095 21/16 A3018 RMK AO2 SLP209 T02110161 57004=
201209150752 METAR KATL 150752Z 33004KT 10SM BKN095 21/17 A3018 RMK AO2 SLP209 T02110167=
201209150652 METAR KATL 150652Z 34004KT 10SM BKN095 21/17 A3019 RMK AO2 SLP214 T02110172=
201209150552 METAR KATL 150552Z 00000KT 10SM OVC090 23/16 A3019 RMK AO2 SLP214 T02280161 10256 20211 58000=
201209150452 METAR KATL 150452Z 00000KT 10SM BKN095 22/17 A3019 RMK AO2 SLP214 T02220167 402830194=
201209150352 METAR KATL 150352Z 04005KT 10SM BKN090 BKN200 24/16 A3019 RMK AO2 SLP215 T02390156=
201209150252 METAR KATL 150252Z 03007KT 10SM BKN090 BKN200 24/16 A3019 RMK AO2 SLP214 T02440156 51004=
201209150152 METAR KATL 150152Z 04008KT 10SM FEW090 BKN200 24/16 A3019 RMK AO2 SLP215 T02440156=
201209150052 METAR KATL 150052Z 04006KT 10SM FEW070 BKN090 BKN200 25/16 A3019 RMK AO2 SLP214 T02500156=
201209142352 METAR KATL 142352Z 35008KT 10SM FEW050 BKN090 BKN200 26/16 A3018 RMK AO2 SLP212 T02560156 10283 20256 55001 $=
201209142252 METAR KATL 142252Z 06007KT 10SM FEW050 SCT090 BKN200 27/14 A3018 RMK AO2 SLP210 T02670139=
201209142152 METAR KATL 142152Z VRB06KT 10SM FEW050 SCT070 BKN090 BKN250 27/15 A3018 RMK AO2 SLP211 T02670150=
201209142052 METAR KATL 142052Z 34007KT 10SM BKN055 BKN070 BKN250 27/14 A3018 RMK AO2 SLP211 T02670144 56015=
201209141952 METAR KATL 141952Z 06006KT 10SM BKN055 BKN070 BKN090 27/14 A3019 RMK AO2 SLP216 T02670139=
201209141852 METAR KATL 141852Z VRB04KT 10SM FEW045 SCT075 BKN085 27/14 A3020 RMK AO2 SLP219 T02670139=
201209141752 METAR KATL 141752Z 05006KT 10SM FEW050 SCT075 BKN090 26/14 A3023 RMK AO2 SLP228 T02610144 10267 20200 58012=
201209141652 METAR KATL 141652Z 03005KT 10SM FEW040 SCT050 BKN085 25/15 A3024 RMK AO2 SLP233 T02500150=
201209141552 METAR KATL 141552Z 10006KT 10SM FEW030 SCT050 BKN080 24/15 A3026 RMK AO2 SLP238 T02390150=
201209141452 METAR KATL 141452Z 07007KT 10SM FEW030 SCT055 BKN090 23/16 A3026 RMK AO2 SLP240 T02280156 53006=
201209141352 METAR KATL 141352Z 06007KT 10SM FEW040 SCT060 BKN070 21/16 A3026 RMK AO2 SLP238 T02110156=
201209141252 METAR KATL 141252Z 05009KT 10SM FEW040 BKN050 21/16 A3025 RMK AO2 SLP235 T02060161=
201209141152 METAR KATL 141152Z 05008KT 10SM BKN039 BKN050 OVC085 20/16 A3025 RMK AO2 SLP235 60001 70015 T02000161 10206 20194 53007=
201209141052 METAR KATL 141052Z 05007KT 10SM FEW028 BKN055 OVC080 20/17 A3024 RMK AO2 SLP231 T02000167=
201209140952 METAR KATL 140952Z 04005KT 10SM FEW028 OVC060 21/17 A3022 RMK AO2 SLP227 T02060172=
201209140852 METAR KATL 140852Z 05006KT 10SM FEW028 SCT060 OVC090 20/18 A3023 RMK AO2 SLP227 60001 T02000178 56015=
201209140752 METAR KATL 140752Z 05005KT 10SM FEW005 OVC055 20/18 A3023 RMK AO2 SLP230 T02000183=
201209140652 METAR KATL 140652Z 03004KT 10SM FEW005 OVC060 20/18 A3024 RMK AO2 RAE15 SLP234 P0001 T02000183=
201209140612 SPECI KATL 140612Z 06007KT 6SM -RA BR SCT005 SCT047 OVC055 19/18 A3026 RMK AO2 P0001=
201209140552 METAR KATL 140552Z 08006KT 4SM -RA BR BKN006 BKN033 OVC044 19/18 A3027 RMK AO2 SLP244 P0011 60014 T01940183 10244 20194 50004=
201209140533 SPECI KATL 140533Z 10005KT 2SM RA BR BKN005 BKN026 OVC041 19/19 A3028 RMK AO2 P0010=
201209140523 SPECI KATL 140523Z 11005KT 2 1/2SM RA BR SCT005 BKN026 OVC036 20/19 A3028 RMK AO2 P0007=
201209140452 METAR KATL 140452Z 12007KT 3SM RA BR FEW005 SCT028 OVC050 20/19 A3028 RMK AO2 SLP245 P0002 T02000189 402720172=
201209140352 METAR KATL 140352Z 14006G14KT 9SM -RA SCT028 BKN045 OVC060 20/18 A3027 RMK AO2 RAB34 SLP242 P0001 T02000178=
201209140252 METAR KATL 140252Z 07009KT 10SM FEW045 SCT080 BKN150 23/16 A3026 RMK AO2 SLP238 T02280156 51012=
201209140152 METAR KATL 140152Z 08009KT 10SM SCT045 BKN150 23/16 A3025 RMK AO2 SLP236 T02330156=
201209140052 METAR KATL 140052Z 08009KT 10SM SCT045 BKN060 BKN150 24/15 A3024 RMK AO2 SLP232 T02390150=
201209132352 METAR KATL 132352Z 11005KT 10SM SCT050 BKN150 24/14 A3022 RMK AO2 SLP227 T02440144 10272 20244 53001=
201209132252 METAR KATL 132252Z 12006KT 10SM FEW055 SCT150 BKN200 26/13 A3021 RMK AO2 SLP224 T02560128=
201209132152 METAR KATL 132152Z 08007KT 10SM FEW050 SCT200 BKN250 25/12 A3021 RMK AO2 SLP223 T02500122=
201209132052 METAR KATL 132052Z 11007KT 10SM FEW050 BKN150 BKN250 27/12 A3022 RMK AO2 SLP225 T02670122 56019=
201209131952 METAR KATL 131952Z 07008G15KT 10SM FEW060 BKN150 BKN250 26/12 A3023 RMK AO2 SLP230 T02560117=
201209131852 METAR KATL 131852Z VRB03KT 10SM SCT055 BKN150 BKN250 26/11 A3026 RMK AO2 SLP237 T02560111=
201209131752 METAR KATL 131752Z VRB05KT 10SM FEW055 SCT150 BKN250 26/11 A3028 RMK AO2 SLP244 T02610111 10261 20178 58017=
201209131652 METAR KATL 131652Z 09005KT 10SM FEW050 BKN150 BKN250 25/11 A3030 RMK AO2 SLP253 T02500111=
201209131552 METAR KATL 131552Z 08007KT 10SM FEW045 SCT150 BKN250 24/13 A3032 RMK AO2 SLP260 T02440128=
201209131452 METAR KATL 131452Z 08008G14KT 10SM FEW040 SCT150 BKN250 23/13 A3033 RMK AO2 SLP264 T02330128 51007=
201209131352 METAR KATL 131352Z 07006KT 10SM BKN150 BKN250 22/13 A3033 RMK AO2 SLP262 T02170133=
201209131252 METAR KATL 131252Z 09006KT 10SM FEW060 SCT150 BKN250 19/13 A3032 RMK AO2 SLP260 T01940133=
201209131152 METAR KATL 131152Z 07007KT 10SM FEW060 SCT150 BKN250 18/13 A3031 RMK AO2 SLP257 T01780128 10206 20172 53015=
201209131052 METAR KATL 131052Z 08006KT 10SM SCT060 SCT150 BKN250 18/13 A3029 RMK AO2 SLP251 T01780128=
201209130952 METAR KATL 130952Z 09006KT 10SM SCT200 BKN250 18/13 A3028 RMK AO2 SLP245 T01780128=
201209130852 METAR KATL 130852Z 13004KT 10SM FEW065 BKN200 19/13 A3026 RMK AO2 SLP240 T01940128 55002=
201209130752 METAR KATL 130752Z 11005KT 10SM SCT065 BKN250 20/13 A3026 RMK AO2 SLP238 T02000128=
201209130652 METAR KATL 130652Z 13006KT 10SM BKN065 BKN250 21/13 A3027 RMK AO2 SLP240 T02060128=
201209130552 METAR KATL 130552Z 10006KT 10SM SCT060 BKN250 20/13 A3027 RMK AO2 SLP242 T02000128 10239 20194 50000=
201209130452 METAR KATL 130452Z 10007KT 10SM BKN060 BKN250 21/13 A3028 RMK AO2 SLP245 T02110128 402720161=
201209130352 METAR KATL 130352Z 08007KT 10SM SCT060 BKN250 20/13 A3027 RMK AO2 SLP243 T02000133=
201209130252 METAR KATL 130252Z 08006KT 10SM FEW150 BKN250 20/13 A3027 RMK AO2 SLP243 T02000133 53009=
201209130152 METAR KATL 130152Z 08007KT 10SM FEW150 BKN250 22/13 A3025 RMK AO2 SLP237 T02170128=
201209130052 METAR KATL 130052Z 09007KT 10SM FEW150 BKN250 22/13 A3024 RMK AO2 SLP234 T02220128=
201209122352 METAR KATL 122352Z 11009KT 10SM FEW150 SCT200 BKN250 24/12 A3024 RMK AO2 SLP234 T02440122 10272 20244 55001=
201209122252 METAR KATL 122252Z COR 12005KT 10SM FEW060 BKN250 25/11 A3024 RMK AO2 SLP232 T02500111=
201209122152 METAR KATL 122152Z 12008G15KT 10SM FEW065 SCT200 BKN250 26/11 A3024 RMK AO2 SLP233 T02610106=
201209122052 METAR KATL 122052Z 08009KT 10SM FEW070 SCT150 BKN200 26/12 A3024 RMK AO2 SLP234 T02610117 56018=
201209121952 METAR KATL 121952Z 12009KT 10SM FEW060 BKN070 BKN200 27/11 A3026 RMK AO2 SLP237 T02720106=
201209121852 METAR KATL 121852Z 08012G17KT 10SM BKN065 BKN200 26/11 A3028 RMK AO2 SLP245 T02560111=
201209121752 METAR KATL 121752Z 09008KT 10SM FEW050 BKN070 BKN200 26/12 A3030 RMK AO2 SLP252 T02560122 10261 20172 58015=
201209121652 METAR KATL 121652Z 11008KT 10SM FEW050 SCT060 BKN200 25/12 A3032 RMK AO2 SLP260 T02500122=
201209121552 METAR KATL 121552Z 09010KT 10SM FEW050 SCT070 BKN200 26/12 A3033 RMK AO2 SLP264 T02560122=
201209121452 METAR KATL 121452Z 12006KT 10SM FEW065 SCT200 BKN250 23/12 A3034 RMK AO2 SLP268 T02330122 51012=
201209121352 METAR KATL 121352Z 10007KT 10SM FEW035 SCT065 BKN250 23/13 A3033 RMK AO2 SLP264 T02280133=
201209121252 METAR KATL 121252Z 09005KT 10SM FEW070 SCT250 19/14 A3032 RMK AO2 SLP261 T01940139=
201209121152 METAR KATL 121152Z 09006KT 10SM FEW070 SCT250 17/14 A3031 RMK AO2 SLP256 T01720139 10200 20161 53020=
201209121052 METAR KATL 121052Z 08007KT 10SM FEW250 17/13 A3028 RMK AO2 SLP247 T01670133=
201209120952 METAR KATL 120952Z 07004KT 10SM FEW200 17/14 A3025 RMK AO2 SLP236 T01720139=
201209120852 METAR KATL 120852Z 00000KT 10SM FEW180 18/14 A3025 RMK AO2 SLP233 T01830139 56005=
201209120752 METAR KATL 120752Z 13003KT 10SM FEW180 19/14 A3025 RMK AO2 SLP234 T01890139=
201209120652 METAR KATL 120652Z 11006KT 10SM FEW120 19/14 A3026 RMK AO2 SLP238 T01940144=
201209120552 METAR KATL 120552Z 13004KT 10SM SCT080 BKN250 20/14 A3026 RMK AO2 SLP239 T02000144 10250 20200 58000=
201209120452 METAR KATL 120452Z 13005KT 10SM FEW070 SCT250 21/14 A3027 RMK AO2 SLP241 T02060139 402830183=
201209120352 METAR KATL 120352Z 12005KT 10SM SCT075 BKN250 22/14 A3027 RMK AO2 SLP242 T02170139=
201209120252 METAR KATL 120252Z 10004KT 10SM SCT075 BKN250 21/13 A3026 RMK AO2 SLP240 T02110133 53016=
201209120152 METAR KATL 120152Z 10006KT 10SM FEW075 SCT250 22/12 A3025 RMK AO2 SLP234 T02220122=
201209120052 METAR KATL 120052Z 11006KT 10SM FEW075 24/12 A3023 RMK AO2 SLP228 T02390117=
201209112352 METAR KATL 112352Z 13007KT 10SM SCT075 25/12 A3021 RMK AO2 SLP224 T02500117 10283 20250 53003=
201209112252 METAR KATL 112252Z 11009KT 10SM SCT075 26/11 A3021 RMK AO2 SLP223 T02610111=
201209112152 METAR KATL 112152Z 14011G17KT 10SM BKN075 27/12 A3021 RMK AO2 SLP220 T02670117=
201209112052 METAR KATL 112052Z 16011G16KT 10SM BKN070 28/11 A3021 RMK AO2 SLP220 T02780106 56015=
201209111952 METAR KATL 111952Z 15008KT 10SM BKN065 BKN075 28/11 A3022 RMK AO2 SLP224 T02830106=
201209111852 METAR KATL 111852Z 10008KT 10SM BKN065 BKN075 26/10 A3023 RMK AO2 SLP229 T02610100=
201209111752 METAR KATL 111752Z 12007KT 080V170 10SM BKN060 BKN070 27/11 A3025 RMK AO2 SLP235 T02670106 10278 20189 58007=
201209111652 METAR KATL 111652Z 15009G16KT 10SM BKN060 BKN070 26/11 A3027 RMK AO2 SLP241 T02610106=
201209111552 METAR KATL 111552Z 12007KT 10SM FEW050 SCT075 26/11 A3027 RMK AO2 SLP243 T02610111=
201209111452 METAR KATL 111452Z 00000KT 10SM BKN075 24/13 A3027 RMK AO2 SLP242 T02390133 51016=
201209111352 METAR KATL 111352Z COR 20003KT 10SM BKN075 22/13 A3026 RMK AO2 SLP239 T02220133=
201209111252 METAR KATL 111252Z 10005KT 10SM BKN075 21/13 A3025 RMK AO2 SLP234 T02060133=
201209111152 METAR KATL 111152Z 08005KT 10SM BKN070 19/13 A3022 RMK AO2 SLP227 T01890133 10211 20183 53022=
201209111052 METAR KATL 111052Z 00000KT 10SM BKN070 19/13 A3020 RMK AO2 SLP218 T01890128=
201209110952 METAR KATL 110952Z 00000KT 10SM OVC070 20/13 A3017 RMK AO2 SLP208 T02000128 $=
201209110852 METAR KATL 110852Z 00000KT 9SM BKN070 20/13 A3016 RMK AO2 SLP203 T02000128 53006 $=
201209110752 METAR KATL 110752Z 00000KT 10SM BKN070 21/13 A3014 RMK AO2 SLP199 T02060128 $=
201209110652 METAR KATL 110652Z 00000KT 10SM BKN070 20/13 A3014 RMK AO2 SLP198 T02000128=
201209110552 METAR KATL 110552Z 11003KT 10SM SCT070 21/13 A3014 RMK AO2 SLP197 T02110128 10256 20211 58002=
201209110452 METAR KATL 110452Z 00000KT 10SM SCT070 22/13 A3014 RMK AO2 SLP199 T02170128 402890161=
201209110352 METAR KATL 110352Z 14004KT 10SM SCT070 22/13 A3014 RMK AO2 SLP197 T02220133=
201209110252 METAR KATL 110252Z 15003KT 10SM SCT070 22/13 A3014 RMK AO2 SLP199 T02220133 51016=
201209110152 METAR KATL 110152Z 15006KT 10SM BKN075 23/13 A3013 RMK AO2 SLP195 T02330128 $=
201209110052 METAR KATL 110052Z 13005KT 10SM BKN070 25/12 A3011 RMK AO2 SLP189 T02500122=
201209102352 METAR KATL 102352Z 16006KT 10SM BKN070 26/13 A3010 RMK AO2 SLP185 T02560128 10289 20256 51006=
201209102252 METAR KATL 102252Z 20003KT 10SM BKN070 26/12 A3009 RMK AO2 SLP183 T02610122=
201209102152 METAR KATL 102152Z 20003KT 10SM BKN065 27/12 A3008 RMK AO2 SLP179 T02670117=
201209102052 METAR KATL 102052Z VRB03KT 10SM BKN070 28/11 A3008 RMK AO2 SLP177 T02780111 56013=
201209101952 METAR KATL 101952Z 11003KT 10SM BKN065 27/11 A3008 RMK AO2 SLP180 T02720111=
201209101852 METAR KATL 101852Z 06003KT 10SM BKN060 27/11 A3010 RMK AO2 SLP184 T02670111=
201209101752 METAR KATL 101752Z 18004KT 10SM SCT060 27/11 A3012 RMK AO2 SLP191 T02670111 10278 20178 58007=
201209101652 METAR KATL 101652Z 19005KT 10SM BKN050 26/12 A3013 RMK AO2 SLP195 T02610122=
201209101552 METAR KATL 101552Z 10005KT 10SM FEW050 SCT065 25/12 A3014 RMK AO2 SLP198 T02500122=
201209101452 METAR KATL 101452Z 12008KT 10SM SCT060 24/12 A3014 RMK AO2 SLP199 T02440122 51013=
201209101352 METAR KATL 101352Z 09006KT 10SM SCT065 23/12 A3013 RMK AO2 SLP196 T02280122=
201209101252 METAR KATL 101252Z 08008KT 10SM SCT065 21/12 A3012 RMK AO2 SLP193 T02060122=
201209101152 METAR KATL 101152Z 06004KT 10SM SCT100 18/12 A3010 RMK AO2 SLP187 T01780122 10178 20161 53021=
201209101052 METAR KATL 101052Z 03005KT 10SM FEW080 17/12 A3007 RMK AO2 SLP177 T01720117=
201209100952 METAR KATL 100952Z 01005KT 10SM CLR 17/12 A3006 RMK AO2 SLP170 T01720117=
201209100852 METAR KATL 100852Z 34006KT 10SM CLR 18/12 A3004 RMK AO2 SLP164 T01780117 53001=
201209100752 METAR KATL 100752Z 33005KT 10SM CLR 16/12 A3004 RMK AO2 SLP164 T01610117=
201209100652 METAR KATL 100652Z 32003KT 10SM CLR 17/12 A3004 RMK AO2 SLP163 T01720117=
201209100552 METAR KATL 100552Z 34005KT 10SM CLR 18/12 A3004 RMK AO2 SLP164 T01780117 10239 20172 50001=
201209100452 METAR KATL 100452Z 35006KT 10SM CLR 20/11 A3004 RMK AO2 SLP164 T02000111 402830150=
201209100352 METAR KATL 100352Z 36007KT 10SM CLR 21/11 A3004 RMK AO2 SLP165 T02110111=
201209100252 METAR KATL 100252Z 35007KT 10SM CLR 21/11 A3003 RMK AO2 SLP162 T02110111 52017=
201209100152 METAR KATL 100152Z 35007KT 10SM CLR 22/11 A3002 RMK AO2 SLP159 T02170111=
201209100052 METAR KATL 100052Z 33007KT 10SM CLR 22/11 A2999 RMK AO2 SLP151 T02220111=
201209092352 METAR KATL 092352Z 33008KT 10SM CLR 24/11 A2998 RMK AO2 SLP146 T02390106 10283 20239 53013=
201209092252 METAR KATL 092252Z 34010G17KT 10SM CLR 26/11 A2997 RMK AO2 SLP141 T02560106=
201209092152 METAR KATL 092152Z 33010KT 10SM FEW055 28/09 A2995 RMK AO2 SLP135 T02780094=
201209092052 METAR KATL 092052Z 30009G15KT 10SM FEW055 28/09 A2994 RMK AO2 SLP132 T02780094 56009=
201209091952 METAR KATL 091952Z 03005KT 10SM FEW050 27/11 A2995 RMK AO2 SLP133 T02720111=
201209091852 METAR KATL 091852Z 31010G15KT 10SM FEW045 27/13 A2995 RMK AO2 SLP135 T02670128=
201209091752 METAR KATL 091752Z 33009KT 10SM SCT044 26/13 A2997 RMK AO2 SLP141 T02560128 10261 20156 58006=
201209091652 METAR KATL 091652Z 04007KT 10SM BKN040 25/14 A2998 RMK AO2 SLP145 T02500139=
201209091552 METAR KATL 091552Z VRB03KT 10SM FEW044 24/13 A2999 RMK AO2 SLP149 T02390133=
201209091452 METAR KATL 091452Z 32005KT 10SM BKN044 22/13 A2999 RMK AO2 SLP147 T02170128 53012=
201209091352 METAR KATL 091352Z 32007KT 10SM BKN042 19/13 A2997 RMK AO2 SLP142 T01890128=
201209091252 METAR KATL 091252Z 33010KT 10SM FEW028 BKN036 17/13 A2995 RMK AO2 SLP137 T01670133=
201209091248 SPECI KATL 091248Z 33008KT 10SM SCT028 BKN036 16/13 A2995 RMK AO2=
201209091231 SPECI KATL 091231Z 33009KT 10SM BKN028 BKN034 17/13 A2994 RMK AO2=
201209091152 METAR KATL 091152Z 32008KT 10SM BKN030 16/13 A2993 RMK AO2 SLP129 70001 T01560133 10178 20150 51016=
201209091052 METAR KATL 091052Z 33008KT 10SM BKN030 15/13 A2991 RMK AO2 SLP123 T01500133=
201209091018 SPECI KATL 091018Z 32007KT 10SM BKN026 16/13 A2991 RMK AO2=
201209090952 METAR KATL 090952Z 32006KT 10SM FEW120 16/13 A2990 RMK AO2 SLP117 T01560133=
201209090852 METAR KATL 090852Z 33005KT 10SM CLR 16/14 A2988 RMK AO2 SLP111 T01560139 55002=
201209090752 METAR KATL 090752Z 32007KT 10SM CLR 16/14 A2987 RMK AO2 SLP109 T01610144=
201209090652 METAR KATL 090652Z 33005KT 10SM CLR 17/15 A2988 RMK AO2 SLP110 T01670150=
201209090552 METAR KATL 090552Z 31010KT 10SM CLR 18/15 A2989 RMK AO2 SLP112 T01780150 10233 20178 58000=
201209090452 METAR KATL 090452Z 32006KT 10SM CLR 18/16 A2990 RMK AO2 SLP117 T01830156 403110183=
201209090352 METAR KATL 090352Z 32005KT 10SM FEW150 19/16 A2990 RMK AO2 SLP117 T01890156=
201209090252 METAR KATL 090252Z 33009KT 10SM FEW150 20/16 A2989 RMK AO2 SLP112 T02000156 51020=
201209090152 METAR KATL 090152Z 33011KT 10SM FEW120 BKN150 21/16 A2989 RMK AO2 SLP111 T02110156=
201209090052 METAR KATL 090052Z 33014KT 10SM FEW017 BKN120 BKN150 22/17 A2987 RMK AO2 SLP106 T02170167=
201209082352 METAR KATL 082352Z 33014G22KT 10SM FEW017 SCT026 BKN042 BKN130 23/19 A2983 RMK AO2 SLP092 60001 T02330189 10306 20233 53008=
201209082252 METAR KATL 082252Z 32009KT 10SM SCT032 BKN120 BKN150 26/19 A2981 RMK AO2 SLP085 T02610189=
201209082152 METAR KATL 082152Z 30011G20KT 10SM FEW029 SCT110 BKN150 BKN250 27/19 A2980 RMK AO2 SLP079 T02720194=
201209082052 METAR KATL 082052Z 30007KT 10SM SCT024 BKN110 27/21 A2980 RMK AO2 SLP081 60001 T02670211 58007=
201209081952 METAR KATL 081952Z 29006KT 10SM FEW035 BKN100 BKN200 25/22 A2981 RMK AO2 RAE33 SLP086 P0001 T02500222=
201209081859 SPECI KATL 081859Z 31013KT 10SM -RA SCT035 BKN055 OVC200 25/21 A2983 RMK AO2 P0000=
201209081852 METAR KATL 081852Z 30014G22KT 10SM -RA BKN028 OVC100 25/21 A2982 RMK AO2 PK WND 29030/1834 RAB38 SLP089 P0000 T02500206=
201209081842 SPECI KATL 081842Z 30019G30KT 10SM -RA BKN028 OVC100 28/21 A2983 RMK AO2 PK WND 29030/1834 RAB38 P0000=
201209081752 METAR KATL 081752Z 24011G17KT 10SM SCT030CB BKN200 31/21 A2983 RMK AO2 SLP088 CB N MOV NE T03060211 10311 20222 58013=
201209081652 METAR KATL 081652Z 24012G18KT 10SM SCT032TCU BKN100 28/19 A2984 RMK AO2 SLP093 TCU W-N T02830194=
201209081552 METAR KATL 081552Z 24010KT 10SM FEW030 BKN046 BKN100 29/21 A2985 RMK AO2 SLP097 T02940211=
201209081452 METAR KATL 081452Z 27009KT 10SM SCT026 SCT150 28/22 A2986 RMK AO2 SLP101 T02830217 51003=
201209081352 METAR KATL 081352Z COR 25007KT 10SM FEW150 26/22 A2986 RMK AO2 SLP101 T02610217=
201209081252 METAR KATL 081252Z 24005KT 10SM SCT150 BKN250 24/21 A2986 RMK AO2 SLP101 T02440211 $=
201209081152 METAR KATL 081152Z 21003KT 10SM FEW040 SCT070 BKN100 BKN250 22/21 A2986 RMK AO2 SLP099 T02220206 10239 20222 58004 $=
201209081052 METAR KATL 081052Z 22004KT 10SM CLR SCT150 SCT250 23/21 A2986 RMK AO2 SLP099 T02280206 $=
201209080952 METAR KATL 080952Z 24004KT 10SM SCT028 BKN035 BKN200 23/21 A2987 RMK AO2 SLP101 T02330206 $=
201209080852 METAR KATL 080852Z 24004KT 10SM SCT250 23/21 A2987 RMK AO2 SLP102 T02280206 56011 $=
201209080752 METAR KATL 080752Z 23005KT 10SM FEW180 BKN250 23/21 A2987 RMK AO2 SLP104 T02280211 $=
201209080652 METAR KATL 080652Z 21005KT 10SM FEW050 SCT100 BKN250 23/21 A2988 RMK AO2 SLP107 T02330211 $=
201209080552 METAR KATL 080552Z 29006KT 10SM BKN250 23/21 A2990 RMK AO2 SLP113 T02330211 10300 20233 53007 $=
201209080452 METAR KATL 080452Z 24003KT 10SM SCT250 24/21 A2989 RMK AO2 SLP109 T02440211 403330222=
201209080352 METAR KATL 080352Z 21006KT 10SM FEW060 24/21 A2988 RMK AO2 SLP105 T02440211=
201209080252 METAR KATL 080252Z 21007KT 10SM SCT065 25/21 A2988 RMK AO2 SLP107 T02500211 50004=
201209080152 METAR KATL 080152Z 20008KT 10SM FEW065 27/20 A2988 RMK AO2 SLP108 T02670200=
201209080052 METAR KATL 080052Z 22003KT 10SM FEW250 28/18 A2986 RMK AO2 SLP101 T02780183=
201209072352 METAR KATL 072352Z 00000KT 10SM FEW060 30/18 A2987 RMK AO2 SLP103 T03000178 10333 20300 56010=
201209072252 METAR KATL 072252Z 27005KT 10SM FEW060 32/17 A2988 RMK AO2 SLP106 T03170172=
201209072152 METAR KATL 072152Z 25003KT 10SM FEW060 33/18 A2989 RMK AO2 SLP108 T03280178=
201209072052 METAR KATL 072052Z 25006KT 10SM FEW060 33/18 A2990 RMK AO2 SLP112 T03280178 56023=
201209071952 METAR KATL 071952Z 21006KT 10SM FEW055 33/18 A2991 RMK AO2 SLP117 CB DSNT S T03280183=
201209071852 METAR KATL 071852Z 00000KT 10SM FEW050 32/18 A2995 RMK AO2 SLP128 T03220183=
201209071752 METAR KATL 071752Z 31005KT 10SM FEW045 32/19 A2997 RMK AO2 SLP136 T03220194 10322 20228 58013=
201209071652 METAR KATL 071652Z 30004KT 10SM SCT040 31/19 A2999 RMK AO2 SLP144 T03110189=
201209071552 METAR KATL 071552Z 34005KT 10SM FEW035 SCT250 31/21 A3000 RMK AO2 SLP148 T03060206=
201209071452 METAR KATL 071452Z 30004KT 10SM FEW030 SCT250 28/21 A3001 RMK AO2 SLP151 TCU DSNT S-SW T02830211 51012=
201209071352 METAR KATL 071352Z 00000KT 10SM FEW250 27/22 A3001 RMK AO2 SLP151 T02670217=
201209071252 METAR KATL 071252Z 00000KT 8SM FEW180 26/22 A2999 RMK AO2 SLP144 T02560217=
201209071152 METAR KATL 071152Z 00000KT 9SM FEW100 23/21 A2997 RMK AO2 SLP140 70001 T02280211 10239 20222 53008=
201209071052 METAR KATL 071052Z 32003KT 9SM FEW100 22/21 A2996 RMK AO2 SLP134 T02220211=
201209070952 METAR KATL 070952Z 30005KT 10SM FEW100 23/21 A2995 RMK AO2 SLP131 T02280211=
201209070852 METAR KATL 070852Z 30006KT 9SM FEW100 23/22 A2995 RMK AO2 SLP131 T02280217 55008=
201209070752 METAR KATL 070752Z 30005KT 10SM FEW100 23/21 A2995 RMK AO2 SLP130 T02330211=
201209070652 METAR KATL 070652Z COR 29004KT 10SM SCT100 23/21 A2996 RMK AO2 SLP134 T02330211=
201209070552 METAR KATL 070552Z 26003KT 10SM CLR 23/21 A2997 RMK AO2 SLP141 T02330211 10272 20233 56002=
201209070452 METAR KATL 070452Z 27003KT 10SM CLR 24/21 A2998 RMK AO2 SLP141 T02390211 402940228=
201209070352 METAR KATL 070352Z 00000KT 10SM FEW150 24/22 A2997 RMK AO2 SLP140 T02440217=
201209070252 METAR KATL 070252Z 00000KT 10SM FEW150 25/22 A2998 RMK AO2 SLP142 T02500217 51014=
201209070152 METAR KATL 070152Z 29004KT 10SM FEW130 26/22 A2997 RMK AO2 SLP139 T02560217=
201209070052 METAR KATL 070052Z 28004KT 10SM SCT130 26/21 A2995 RMK AO2 SLP133 T02610211=
201209062352 METAR KATL 062352Z 26004KT 10SM FEW030 BKN130 27/22 A2994 RMK AO2 SLP128 T02720217 10294 20256 56007=
201209062252 METAR KATL 062252Z 30004KT 10SM FEW030 BKN120 28/22 A2994 RMK AO2 SLP128 T02830222=
201209062152 METAR KATL 062152Z 00000KT 10SM SCT028TCU BKN110 29/22 A2995 RMK AO2 SLP129 TCU SE-SW & DSNT NE T02940217=
201209062118 SPECI KATL 062118Z 30006KT 10SM SCT028TCU BKN110 29/22 A2995 RMK AO2 TCU OHD-SW & DSNT NE-E=
201209062058 SPECI KATL 062058Z 23008KT 10SM BKN028TCU BKN034 BKN050 29/22 A2996 RMK AO2 TCU OHD-NE-E-SE & NW=
201209062052 METAR KATL 062052Z VRB05KT 10SM BKN030TCU BKN050 29/22 A2996 RMK AO2 SLP135 TCU OHD-NE-E-SE & NW T02890217 56017=
201209061952 METAR KATL 061952Z 26005KT 10SM FEW020 SCT030 BKN050 28/22 A2998 RMK AO2 SLP140 T02830217=
201209061852 METAR KATL 061852Z 22006KT 10SM FEW020 SCT028 BKN034 28/22 A3000 RMK AO2 SLP147 T02780222=
201209061834 SPECI KATL 061834Z 22005KT 10SM FEW014 BKN028 BKN040 28/22 A3001 RMK AO2=
201209061752 METAR KATL 061752Z 21006KT 10SM FEW020 SCT030 BKN040 26/22 A3001 RMK AO2 RAB16E40 SLP154 P0001 60001 T02560222 10261 20233 58006=
201209061738 SPECI KATL 061738Z 20004KT 10SM -RA SCT020 BKN030 OVC040 24/22 A3002 RMK AO2 RAB16 P0001=
201209061652 METAR KATL 061652Z 23005KT 10SM SCT016 BKN026 OVC030 26/22 A3002 RMK AO2 SLP157 T02560217=
201209061614 SPECI KATL 061614Z 21005KT 10SM SCT014 BKN022 OVC028 25/22 A3002 RMK AO2=
201209061608 SPECI KATL 061608Z 24004KT 10SM BKN014 OVC020 25/22 A3003 RMK AO2=
201209061552 METAR KATL 061552Z 27004KT 10SM FEW012 BKN016 OVC020 25/21 A3003 RMK AO2 SLP159 T02500211=
201209061534 SPECI KATL 061534Z 23005KT 7SM FEW012 BKN019 OVC023 25/22 A3003 RMK AO2=
201209061452 METAR KATL 061452Z 26006KT 6SM HZ FEW008 BKN014 OVC018 24/22 A3003 RMK AO2 SLP160 60000 T02440217 53014=
201209061352 METAR KATL 061352Z 25005KT 5SM HZ FEW008 BKN010 OVC013 24/21 A3002 RMK AO2 SLP155 T02390211=
201209061310 SPECI KATL 061310Z 28006KT 6SM HZ FEW008 BKN010 OVC012 24/21 A3001 RMK AO2=
201209061252 METAR KATL 061252Z 24004KT 7SM OVC009 24/22 A3000 RMK AO2 DZE05 SLP149 CIG 008V012 P0000 T02390217=
201209061152 METAR KATL 061152Z 25005KT 6SM -DZ BR OVC008 23/22 A2999 RMK AO2 DZB48 SLP145 P0000 60000 T02330217 10233 20228 53017=
201209061052 METAR KATL 061052Z 25005KT 7SM OVC005 23/22 A2997 RMK AO2 SLP138 T02280217=
201209060952 METAR KATL 060952Z 21008KT 7SM OVC005 23/22 A2994 RMK AO2 SLP128 T02280217=
201209060852 METAR KATL 060852Z 22007KT 7SM OVC005 23/22 A2994 RMK AO2 SLP126 T02330217 56010=
201209060752 METAR KATL 060752Z 21009KT 10SM OVC006 23/22 A2995 RMK AO2 SLP130 T02330217=
201209060652 METAR KATL 060652Z 00000KT 10SM BKN008 OVC070 23/22 A2995 RMK AO2 SLP133 T02330217=
201209060649 SPECI KATL 060649Z 22003KT 10SM BKN008 OVC070 23/22 A2996 RMK AO2=
201209060607 SPECI KATL 060607Z 22005KT 10SM FEW008 BKN044 OVC070 23/22 A2996 RMK AO2=
201209060552 METAR KATL 060552Z 23006KT 10SM FEW030 BKN050 OVC070 23/22 A2997 RMK AO2 SLP137 T02330217 10267 20233 50007=
201209060452 METAR KATL 060452Z 23005KT 10SM FEW030 SCT045 BKN055 23/22 A2997 RMK AO2 SLP140 T02330217 402940217=
201209060352 METAR KATL 060352Z 20006KT 10SM FEW040 23/21 A2995 RMK AO2 SLP134 T02330211=
201209060252 METAR KATL 060252Z 20008KT 10SM FEW040 24/22 A2995 RMK AO2 SLP131 T02440217 51014=
201209060152 METAR KATL 060152Z 19003KT 10SM FEW040 25/22 A2994 RMK AO2 SLP128 T02500217=
201209060052 METAR KATL 060052Z 00000KT 10SM FEW040 SCT055 26/22 A2992 RMK AO2 SLP122 T02610217=
201209052352 METAR KATL 052352Z 18004KT 10SM FEW030 27/21 A2990 RMK AO2 SLP117 TCU DSNT N-NE & W-NW T02670211 10294 20267 56004=
201209052252 METAR KATL 052252Z 18006KT 10SM SCT035TCU BKN080 28/21 A2990 RMK AO2 SLP116 TCU NW-NE & E-SE & SW T02830206=
201209052152 METAR KATL 052152Z 22004KT 10SM FEW030 SCT050 BKN080 28/21 A2991 RMK AO2 SLP118 TCU DSNT SE T02830211=
201209052052 METAR KATL 052052Z 19007KT 10SM FEW030TCU BKN050 BKN070 28/21 A2992 RMK AO2 SLP120 TCU SW-NW T02830211 56016=
201209051952 METAR KATL 051952Z 20008KT 10SM FEW030 BKN040 BKN060 29/21 A2992 RMK AO2 SLP121 T02940211=
201209051852 METAR KATL 051852Z VRB04KT 10SM FEW025 SCT040 BKN060 28/21 A2994 RMK AO2 SLP130 T02780211=
201209051752 METAR KATL 051752Z 20005KT 10SM BKN023 BKN040 BKN050 27/21 A2997 RMK AO2 SLP137 T02670211 10267 20222 58011=
201209051735 SPECI KATL 051735Z 21004KT 10SM BKN020 BKN030 BKN050 27/21 A2997 RMK AO2=
201209051652 METAR KATL 051652Z VRB06KT 10SM FEW020 BKN030 BKN050 26/21 A2998 RMK AO2 SLP144 T02560206=
201209051552 METAR KATL 051552Z 18006KT 10SM FEW015 BKN020 BKN050 25/21 A3000 RMK AO2 SLP150 T02500211=
201209051455 SPECI KATL 051455Z 20004KT 10SM FEW013 BKN020 BKN050 24/21 A3000 RMK AO2=
201209051452 METAR KATL 051452Z VRB03KT 10SM BKN013 BKN020 BKN030 24/20 A3000 RMK AO2 SLP149 T02440200 53005=
201209051404 SPECI KATL 051404Z VRB04KT 10SM BKN011 BKN020 BKN040 23/21 A2999 RMK AO2=
201209051352 METAR KATL 051352Z 16004KT 10SM FEW008 BKN018 BKN040 23/21 A2999 RMK AO2 SLP145 T02330206=
201209051349 SPECI KATL 051349Z 17004KT 10SM FEW008 BKN018 BKN040 24/21 A2999 RMK AO2=
201209051308 SPECI KATL 051308Z 19005KT 8SM FEW008 BKN011 OVC040 23/21 A2999 RMK AO2=
201209051252 METAR KATL 051252Z 17005KT 7SM BKN008 BKN011 BKN040 23/21 A2998 RMK AO2 SLP145 T02280211=
201209051152 METAR KATL 051152Z 00000KT 7SM BKN008 OVC035 22/21 A2997 RMK AO2 SLP139 70010 T02220211 10228 20217 51012=
201209051052 METAR KATL 051052Z 19003KT 6SM BR BKN005 OVC011 22/21 A2996 RMK AO2 SLP138 T02220211=
201209050952 METAR KATL 050952Z 20003KT 6SM BR BKN005 22/21 A2995 RMK AO2 SLP133 T02170206 $=
201209050923 SPECI KATL 050923Z 19005KT 10SM BKN003 OVC023 22/21 A2994 RMK AO2 $=
201209050852 METAR KATL 050852Z 19003KT 6SM BR SCT003 OVC021 22/21 A2993 RMK AO2 SLP127 T02220211 55006 $=
201209050835 SPECI KATL 050835Z 18006KT 6SM BR BKN004 OVC007 22/21 A2993 RMK AO2 $=
201209050752 METAR KATL 050752Z COR 18007KT COR 6SM BR FEW005 BKN008 22/21 A2993 RMK AO2 SLP125 T02220211 $=
201209050705 SPECI KATL 050705Z 16004KT 10SM BKN006 BKN070 22/21 A2994 RMK AO2 $=
201209050652 METAR KATL 050652Z 18004KT 10SM SCT055 BKN070 22/21 A2994 RMK AO2 SLP130 T02220211 $=
201209050552 METAR KATL 050552Z 21004KT 6SM BR FEW006 BKN030 OVC040 23/21 A2995 RMK AO2 SLP133 T02280211 10233 20228 56002=
201209050543 SPECI KATL 050543Z 22004KT 6SM BR FEW006 BKN030 OVC040 23/21 A2995 RMK AO2=
201209050507 SPECI KATL 050507Z 21005KT 10SM FEW004 BKN008 OVC025 23/22 A2996 RMK AO2=
201209050452 METAR KATL 050452Z 20005KT 10SM SCT006 BKN014 OVC025 23/22 A2995 RMK AO2 SLP134 T02280217 402500222=
201209050352 METAR KATL 050352Z 00000KT 10SM SCT007 BKN010 BKN200 23/22 A2995 RMK AO2 SLP132 T02280217=
201209050345 SPECI KATL 050345Z 00000KT 10SM FEW006 SCT200 23/21 A2995 RMK AO2=
201209050252 METAR KATL 050252Z 00000KT 10SM FEW006 BKN015 OVC025 23/22 A2996 RMK AO2 SLP135 T02330217 50012=
201209050152 METAR KATL 050152Z 16003KT 10SM BKN010 BKN050 23/22 A2996 RMK AO2 SLP137 CIG 008V012 T02280217=
201209050132 SPECI KATL 050132Z 17003KT 10SM SCT008 BKN020 BKN045 23/22 A2996 RMK AO2=
201209050116 SPECI KATL 050116Z 17003KT 10SM SCT007 SCT015 23/22 A2995 RMK AO2=
201209050052 METAR KATL 050052Z 00000KT 10SM SCT007 BKN010 BKN015 23/22 A2994 RMK AO2 SLP130 T02280217=
201209050041 SPECI KATL 050041Z 18004KT 10SM SCT007 BKN010 OVC015 23/22 A2994 RMK AO2=
201209042352 METAR KATL 042352Z 20004KT 10SM BKN008 OVC013 23/22 A2992 RMK AO2 SLP123 60002 T02330217 10250 20233 58000=
201209042252 METAR KATL 042252Z 21004KT 10SM BKN008 BKN050 BKN120 23/22 A2993 RMK AO2 RAE21 SLP125 P0001 T02330217=
201209042219 SPECI KATL 042219Z 22006KT 10SM -RA SCT007 BKN035 OVC090 23/22 A2993 RMK AO2 P0001=
201209042152 METAR KATL 042152Z 21006KT 9SM -RA BKN008 BKN013 OVC050 23/22 A2993 RMK AO2 SLP128 P0001 T02330217=
201209042106 SPECI KATL 042106Z 22007KT 10SM -RA BKN010 BKN050 OVC100 23/22 A2992 RMK AO2 CIG 008V012 P0000=
201209042052 METAR KATL 042052Z 21008KT 9SM -RA SCT010 BKN020 BKN070 23/22 A2992 RMK AO2 RAB36 SLP124 VIS LWR SE-W SHRA P0000 60000 T02330217 58008=
201209041954 SPECI KATL 041954Z 21008KT 10SM BKN012 BKN020 OVC070 24/21 A2994 RMK AO2=
201209041952 METAR KATL 041952Z 21007KT 10SM FEW012 SCT025 BKN050 24/21 A2994 RMK AO2 RAE18 SLP128 P0000 T02390211=
201209041949 SPECI KATL 041949Z 22009KT 10SM FEW012 SCT025 BKN050 24/21 A2994 RMK AO2 RAE18 P0000=
201209041919 SPECI KATL 041919Z 20012KT 10SM FEW015 BKN025 OVC040 24/21 A2994 RMK AO2 RAE18 P0000=
201209041852 METAR KATL 041852Z 20014G19KT 9SM -RA BKN012 BKN020 OVC025 24/21 A2995 RMK AO2 RAE02B50 SLP132 P0000 T02440206=
201209041752 METAR KATL 041752Z 22007KT 8SM -RA FEW008 BKN010 OVC020 24/22 A2995 RMK AO2 RAB52 SLP134 P0000 60008 T02440217 10244 20222 58005=
201209041711 SPECI KATL 041711Z 21006KT 6SM BR FEW005 BKN008 OVC010 24/22 A2996 RMK AO2=
201209041652 METAR KATL 041652Z 20004KT 3SM BR BKN005 OVC007 23/22 A2997 RMK AO2 SFC VIS 6 DZE49 SLP138 P0000 T02330217=
201209041552 METAR KATL 041552Z 18005KT 3SM -DZ BR BKN005 OVC008 23/22 A2997 RMK AO2 SFC VIS 5 RAE18DZB49 SLP141 P0007 T02280217=
201209041507 SPECI KATL 041507Z 18007KT 3SM R09R/5000VP6000FT -RA BR BKN005 OVC008 23/21 A2997 RMK AO2 SFC VIS 6 P0007=
201209041452 METAR KATL 041452Z 20006KT 3SM -RA BR BKN005 OVC008 23/21 A2997 RMK AO2 SFC VIS 6 RAB49 SLP140 P0000 60001 T02280211 53003=
201209041352 METAR KATL 041352Z 18005KT 3SM BR BKN005 BKN008 OVC010 23/21 A2996 RMK AO2 SFC VIS 5 RAE1257DZB37E50 SLP137 P0000 T02280211=
201209041338 SPECI KATL 041338Z 19007KT 3SM -DZ BR BKN005 BKN008 OVC010 22/21 A2996 RMK AO2 SFC VIS 6 RAE1257DZB37 P0000=
201209041252 METAR KATL 041252Z 18006KT 4SM -RA BR BKN005 OVC008 22/21 A2996 RMK AO2 RAB31 SLP135 P0001 T02220211=
201209041152 METAR KATL 041152Z 19006KT 6SM BR BKN005 OVC008 22/21 A2996 RMK AO2 SLP136 60000 T02220206 10222 20222 53007=
201209041052 METAR KATL 041052Z 20005KT 6SM BR OVC006 22/21 A2995 RMK AO2 SLP131 T02220206=
201209040952 METAR KATL 040952Z 19005KT 6SM BR BKN006 OVC010 22/21 A2994 RMK AO2 SLP128 T02220206 $=
201209040852 METAR KATL 040852Z 20006KT 7SM BKN008 OVC012 22/21 A2994 RMK AO2 SLP128 60000 T02220206 56007 $=
201209040752 METAR KATL 040752Z 21006KT 6SM BR BKN006 OVC010 22/21 A2994 RMK AO2 SLP131 T02220211 $=
201209040652 METAR KATL 040652Z 21008KT 10SM BKN008 OVC014 22/21 A2995 RMK AO2 RAB25E47 SLP131 P0000 T02220206 $=
201209040605 SPECI KATL 040605Z 19005KT 8SM BKN008 BKN012 OVC050 22/21 A2996 RMK AO2 $=
201209040552 METAR KATL 040552Z 19006KT 8SM BKN010 OVC075 22/21 A2996 RMK AO2 RAB11E52 SLP135 P0000 60000 T02220206 10250 20222 58003 $=
201209040521 SPECI KATL 040521Z 19005KT 8SM -RA BKN012 BKN075 OVC090 23/21 A2996=
201209040452 METAR KATL 040452Z 22004KT 10SM FEW010 BKN070 OVC090 23/21 A2996 RMK AO2 SLP135 T02280206 402940228 $=
201209040352 METAR KATL 040352Z 21006KT 10SM FEW010 SCT022 OVC080 23/21 A2998 RMK AO2 SLP141 T02280206 $=
201209040252 METAR KATL 040252Z 20006KT 10SM SCT012 BKN025 OVC080 23/21 A2997 RMK AO2 SLP138 T02330206 53005 $=
201209040218 SPECI KATL 040218Z 20008KT 10SM SCT013 BKN022 OVC080 23/21 A2996 RMK AO2 $=
201209040152 METAR KATL 040152Z 19006KT 10SM SCT015 BKN032 OVC075 24/21 A2996 RMK AO2 SLP135 T02390206 $=
201209040052 METAR KATL 040052Z 19009KT 10SM FEW020 SCT032 BKN070 OVC200 24/21 A2996 RMK AO2 SLP136 T02440206 $=
201209040012 SPECI KATL 040012Z 20009KT 10SM SCT025 BKN032 BKN070 OVC200 24/21 A2995 RMK AO2 $=
201209032352 METAR KATL 032352Z 19005KT 10SM BKN025 BKN060 BKN150 OVC200 25/21 A2995 RMK AO2 SLP134 60000 T02500206 10294 20250 53001 $=
201209032252 METAR KATL 032252Z 20008KT 10SM FEW025 SCT060 BKN150 BKN200 26/21 A2995 RMK AO2 SLP130 T02560206 $=
201209032152 METAR KATL 032152Z 23007KT 10SM FEW025 SCT050 BKN120 OVC200 27/20 A2995 RMK AO2 SLP132 T02670200 $=
201209032052 METAR KATL 032052Z 25009KT 10SM SCT026 BKN050 BKN075 BKN250 27/21 A2995 RMK AO2 SLP132 60000 T02720206 56015 $=
201209031952 METAR KATL 031952Z 23008KT 10SM SCT025 BKN035 BKN070 BKN220 27/21 A2995 RMK AO2 RAB28E42 SLP133 P0000 T02670211 $=
201209031852 METAR KATL 031852Z 24013KT 10SM SCT030 SCT100 BKN220 27/20 A2997 RMK AO2 SLP139 CB DSNT E-SE T02720200 $=
201209031752 METAR KATL 031752Z 26010G17KT 10SM SCT025 BKN100 BKN220 28/19 A2999 RMK AO2 SLP146 T02830194 10283 20239 58007 $=
201209031652 METAR KATL 031652Z 26009KT 10SM SCT025 BKN080 BKN200 28/21 A3001 RMK AO2 SLP150 T02830206 $=
201209031610 SPECI KATL 031610Z 24009KT 10SM SCT021 SCT080 BKN200 27/22 A3002 RMK AO2 $=
201209031552 METAR KATL 031552Z 26011KT 10SM BKN016 BKN080 BKN200 27/22 A3002 RMK AO2 SLP156 BKN016 V SCT T02720217 $=
201209031534 SPECI KATL 031534Z 25008KT 10SM BKN016 BKN080 BKN095 27/22 A3002 RMK AO2 $=
201209031452 METAR KATL 031452Z 24007KT 10SM BKN012 BKN090 26/22 A3002 RMK AO2 SLP153 T02560222 53006 $=
201209031428 SPECI KATL 031428Z 24005KT 10SM BKN012 OVC090 26/22 A3001 RMK AO2 $=
201209031352 METAR KATL 031352Z 21007KT 8SM BKN008 OVC090 24/22 A3001 RMK AO2 SLP150 T02440222 $=
201209031322 SPECI KATL 031322Z 21006KT 8SM BKN008 BKN090 OVC110 24/22 A3000 RMK AO2 $=
201209031252 METAR KATL 031252Z 20007KT 6SM BR FEW007 BKN012 BKN090 24/22 A3000 RMK AO2 SLP148 T02390222 $=
201209031218 SPECI KATL 031218Z 19005KT 7SM SCT009 SCT120 24/22 A3000 RMK AO2 $=
201209031152 METAR KATL 031152Z 20004KT 7SM SCT009 BKN013 BKN150 24/22 A3000 RMK AO2 SLP146 T02390217 10244 20233 53005 $=
201209031149 SPECI KATL 031149Z 19005KT 7SM SCT009 BKN013 BKN150 24/22 A2999 RMK AO2 $=
201209031052 METAR KATL 031052Z 20005KT 10SM BKN013 BKN030 BKN180 24/22 A2998 RMK AO2 SLP141 T02390217 $=
201209031048 SPECI KATL 031048Z 20006KT 10SM BKN013 BKN030 BKN180 24/22 A2998 RMK AO2 $=
201209030952 METAR KATL 030952Z 22005KT 10SM BKN019 BKN030 OVC180 24/22 A2998 RMK AO2 SLP140 T02390217 $=
201209030852 METAR KATL 030852Z 19006KT 10SM BKN040 OVC180 23/22 A2998 RMK AO2 SLP140 T02330217 56006 $=
201209030752 METAR KATL 030752Z 20004KT 10SM FEW180 23/22 A2998 RMK AO2 SLP140 T02330217 $=
201209030652 METAR KATL 030652Z 23004KT 10SM FEW180 24/22 A2998 RMK AO2 SLP139 T02440217=
201209030552 METAR KATL 030552Z 21004KT 10SM FEW150 SCT250 24/22 A3000 RMK AO2 SLP147 T02440217 10289 20244 50001=
201209030452 METAR KATL 030452Z 20004KT 10SM SCT150 BKN250 25/22 A3000 RMK AO2 SLP147 T02500217 403170228=
201209030352 METAR KATL 030352Z 24004KT 10SM FEW150 BKN250 27/22 A3000 RMK AO2 SLP147 T02670217=
201209030252 METAR KATL 030252Z 21005KT 10SM FEW150 BKN250 27/22 A3000 RMK AO2 SLP145 T02670217 51004=
201209030152 METAR KATL 030152Z 23006KT 10SM FEW150 BKN250 27/22 A2999 RMK AO2 SLP146 T02720217=
201209030052 METAR KATL 030052Z 23003KT 10SM FEW045 BKN250 28/22 A3000 RMK AO2 SLP146 T02780217=
201209022352 METAR KATL 022352Z 21007KT 10SM FEW045 BKN250 29/21 A2998 RMK AO2 SLP141 T02890211 10317 20289 53002=
201209022252 METAR KATL 022252Z 22008KT 10SM FEW045 BKN250 30/21 A2996 RMK AO2 SLP135 TCU DSNT NE T03000206=
201209022152 METAR KATL 022152Z 23008G17KT 10SM FEW043 SCT070 SCT150 BKN250 30/21 A2997 RMK AO2 SLP138 CB DSNT NE TCU DSNT NE-E-S T03000211=
201209022052 METAR KATL 022052Z 22011KT 10SM BKN043TCU BKN250 31/21 A2998 RMK AO2 SLP139 TCU NW-N T03110211 56021=
201209021952 METAR KATL 021952Z 22009G17KT 10SM SCT045 BKN250 31/20 A2999 RMK AO2 SLP144 T03110200=
201209021852 METAR KATL 021852Z 22009KT 10SM SCT048 BKN060 BKN250 31/21 A3002 RMK AO2 SLP153 T03060206=
201209021752 METAR KATL 021752Z 25009KT 10SM BKN042 BKN055 30/21 A3004 RMK AO2 SLP162 T03000206 10311 20239 58020=
201209021652 METAR KATL 021652Z 24010G15KT 10SM SCT035 SCT090 BKN250 31/20 A3006 RMK AO2 SLP169 CB DSNT NE-E T03060200=
201209021552 METAR KATL 021552Z 26009KT 10SM SCT032 SCT090 BKN250 31/21 A3009 RMK AO2 SLP178 T03060211=
201209021452 METAR KATL 021452Z 25007KT 10SM FEW025 SCT085 BKN250 29/22 A3010 RMK AO2 SLP181 T02890217 51007=
201209021352 METAR KATL 021352Z 28007KT 10SM FEW025 BKN085 BKN250 27/22 A3009 RMK AO2 SLP180 CB DSNT NE T02720217=
201209021252 METAR KATL 021252Z 23007KT 10SM FEW040 SCT150 SCT250 26/22 A3009 RMK AO2 SLP179 T02560217=
201209021152 METAR KATL 021152Z 24004KT 10SM FEW030 SCT150 BKN250 24/21 A3008 RMK AO2 SLP175 CB DSNT N T02390211 10250 20228 53005=
201209021052 METAR KATL 021052Z 21003KT 10SM FEW043 SCT150 SCT250 23/21 A3007 RMK AO2 SLP172 T02280206=
201209020952 METAR KATL 020952Z 00000KT 10SM CLR 23/21 A3006 RMK AO2 SLP169 T02280206=
201209020852 METAR KATL 020852Z 25003KT 10SM CLR 24/21 A3006 RMK AO2 SLP168 T02440206 56014=
201209020752 METAR KATL 020752Z 23003KT 10SM CLR 24/21 A3007 RMK AO2 SLP172 T02390206=
201209020652 METAR KATL 020652Z 00000KT 10SM CLR 24/21 A3009 RMK AO2 SLP177 T02440206=
201209020552 METAR KATL 020552Z 23003KT 10SM FEW180 24/21 A3011 RMK AO2 SLP183 T02440206 10300 20244 58002=
201209020452 METAR KATL 020452Z 23003KT 10SM SCT180 25/21 A3012 RMK AO2 SLP187 T02500206 403280233=
201209020352 METAR KATL 020352Z 21005KT 10SM FEW070 SCT180 26/21 A3012 RMK AO2 SLP188 T02560206=
201209020252 METAR KATL 020252Z 23004KT 10SM FEW150 SCT250 27/21 A3011 RMK AO2 SLP186 T02670206 52005=
201209020152 METAR KATL 020152Z 23003KT 10SM FEW070 27/21 A3011 RMK AO2 SLP186 T02720206=
201209020052 SPECI KATL 020052Z 00000KT 10SM FEW070 SCT150 SCT250 28/20 A3010 RMK AO2 SLP182 T02830200=
201209020052 METAR KATL 020052Z 00000KT 10SM FEW070 SCT150 SCT250 28/20 A3010 RMK AO2 SLP182 T02830200=
201209012352 METAR KATL 012352Z 26005KT 10SM FEW050 SCT150 SCT250 30/19 A3010 RMK AO2 SLP182 T03000194 10328 20300 55001=
201209012252 METAR KATL 012252Z 24006KT 10SM FEW050 SCT150 SCT250 31/19 A3008 RMK AO2 SLP176 T03060194=
201209012152 METAR KATL 012152Z 26004KT 10SM SCT050 SCT100 SCT200 32/21 A3009 RMK AO2 SLP178 T03170206=
201209012052 SPECI KATL 012052Z VRB03KT 10SM FEW050 SCT080 SCT200 32/20 A3010 RMK AO2 SLP182 T03220200 56026=
201209012052 METAR KATL 012052Z VRB03KT 10SM FEW050 SCT080 SCT200 32/20 A3010 RMK AO2 SLP182 T03220200 56026=
201209011952 METAR KATL 011952Z 30010KT 10SM SCT045 SCT200 32/19 A3013 RMK AO2 SLP189 MDT CU ALQDS T03170194=
201209011852 METAR KATL 011852Z 31009KT 10SM SCT045 SCT060 BKN200 32/21 A3015 RMK AO2 SLP199 T03170206=
201209011752 METAR KATL 011752Z 27009KT 10SM FEW040 SCT055 BKN150 32/21 A3018 RMK AO2 SLP209 T03170206 10317 20233 58016=
201209011652 METAR KATL 011652Z 27008KT 10SM FEW045 SCT060 BKN150 29/21 A3021 RMK AO2 SLP218 T02940206=
201209011552 METAR KATL 011552Z 30009KT 10SM FEW030 SCT035 BKN150 29/21 A3023 RMK AO2 SLP225 T02940206=
201209011452 METAR KATL 011452Z 31004KT 10SM FEW020 SCT150 SCT250 28/22 A3023 RMK AO2 SLP226 T02780217 53009=
201209011352 METAR KATL 011352Z 30008KT 10SM FEW020 SCT150 SCT250 27/22 A3022 RMK AO2 SLP222 T02670217=
201209011252 METAR KATL 011252Z 30006KT 10SM SCT150 SCT250 26/22 A3021 RMK AO2 SLP220 T02560217=
