##########################################################
# Query made at 04/19/2024 23:33:28 UTC
# Time interval: from 06/01/2013 12:00  to 06/30/2013 12:59  UTC
##########################################################

##########################################################
# KATL, Atlanta, Hartsfield - Jackson Atlanta International Airport (United States)
# WMO index: 72219. WIGOS ID: 0-20000-0-72219
# Latitude 33-38-59N. Longitude 084-25-00W. Altitude 312 m.
##########################################################

201306301252 METAR KATL 301252Z 22004KT 9SM FEW009 SCT110 SCT250 23/20 A2979 RMK AO2 SLP078 T02280200 $=
201306301209 SPECI KATL 301209Z 29004KT 6SM BR FEW004 SCT110 SCT250 22/20 A2978 RMK AO2 $=
201306301152 METAR KATL 301152Z 29005KT 2 1/2SM BR SCT004 SCT250 21/20 A2978 RMK AO2 SFC VIS 5 SLP073 T02110200 10228 20206 51012 $=
201306301150 SPECI KATL 301150Z 28003KT 2 1/2SM BR SCT004 SCT250 21/20 A2977 RMK AO2 SFC VIS 5 $=
201306301052 METAR KATL 301052Z 00000KT 1 1/2SM BR OVC004 21/20 A2977 RMK AO2 SFC VIS 4 SLP070 CIG 003V006 T02060200 $=
201306300952 METAR KATL 300952Z 20004KT 1 1/2SM BR BKN004 21/20 A2975 RMK AO2 SFC VIS 4 SLP064 CIG 003V005 T02060200 $=
201306300859 SPECI KATL 300859Z 21006KT 1 1/2SM BR OVC003 21/20 A2974 RMK AO2 SFC VIS 5 $=
201306300852 METAR KATL 300852Z 20005KT 6SM BR BKN003 BKN060 BKN085 21/20 A2974 RMK AO2 SLP060 T02060200 55002 $=
201306300837 SPECI KATL 300837Z 19004KT 8SM FEW003 SCT060 BKN085 21/20 A2973 RMK AO2 $=
201306300752 METAR KATL 300752Z 23003KT 10SM FEW085 SCT110 21/19 A2973 RMK AO2 SLP055 T02110194 $=
201306300652 METAR KATL 300652Z 23004KT 10SM FEW085 SCT110 BKN150 22/19 A2974 RMK AO2 SLP061 T02170194 $=
201306300552 METAR KATL 300552Z 27005KT 10SM FEW060 BKN085 BKN110 BKN250 23/19 A2974 RMK AO2 SLP061 T02280194 10261 20228 50001 $=
201306300452 METAR KATL 300452Z 24005KT 10SM FEW060 SCT110 BKN250 23/19 A2975 RMK AO2 SLP065 T02280194 403110222 $=
201306300352 METAR KATL 300352Z 26005KT 10SM BKN110 BKN220 23/19 A2975 RMK AO2 SLP065 T02330189 $=
201306300252 METAR KATL 300252Z 25006KT 10SM FEW085 BKN120 BKN220 24/19 A2974 RMK AO2 SLP061 T02440194 51012 $=
201306300152 METAR KATL 300152Z 22007KT 10SM FEW075 BKN140 BKN220 24/21 A2974 RMK AO2 SLP059 TCU DSNT SE T02440211=
201306300052 METAR KATL 300052Z COR 24005KT 10SM FEW032 SCT070 SCT130 BKN220 26/20 A2971 RMK AO2 SLP051 CB DSNT S T02560200=
201306292352 METAR KATL 292352Z 21005KT 10SM FEW032 SCT080 SCT120 BKN200 26/19 A2971 RMK AO2 SLP049 CB DSNT S TCU DSNT W 60000 T02610194 10311 20261 53003=
201306292252 METAR KATL 292252Z 23007KT 10SM SCT042TCU BKN070 BKN120 BKN200 27/19 A2970 RMK AO2 SLP047 CB DSNT E TCU ALQDS T02720194=
201306292152 METAR KATL 292152Z 24007KT 10SM SCT044CB SCT075 BKN110 BKN200 28/19 A2969 RMK AO2 RAB34E45 SLP045 CB E MOV E TCU DSNT SW P0000 T02830189=
201306292052 METAR KATL 292052Z 22012G18KT 10SM SCT050 BKN080 29/20 A2969 RMK AO2 SLP045 SCT050 V BKN CB DSNT S TCU DSNT SE-S T02890200 56013=
201306291952 METAR KATL 291952Z 29011G17KT 10SM SCT045 SCT250 31/18 A2970 RMK AO2 SLP046 CB DSNT SW AND NW T03060183=
201306291852 METAR KATL 291852Z 23008KT 10SM SCT040 SCT250 29/19 A2972 RMK AO2 SLP053 T02940189=
201306291752 METAR KATL 291752Z 24005KT 10SM SCT035 29/20 A2973 RMK AO2 SLP057 T02890200 10300 20228 58009=
201306291652 METAR KATL 291652Z 24006KT 10SM SCT030 SCT100 SCT250 28/21 A2974 RMK AO2 SLP062 T02780206=
201306291552 METAR KATL 291552Z 22009KT 10SM FEW023TCU SCT036 SCT100 27/21 A2976 RMK AO2 SLP066 TCU SE T02720206=
201306291452 METAR KATL 291452Z 25006KT 10SM SCT015 SCT025TCU BKN030 26/21 A2976 RMK AO2 SLP068 TCU SE T02610211 53005=
201306291439 SPECI KATL 291439Z 24006KT 10SM SCT015 SCT020 BKN026 26/21 A2976 RMK AO2=
201306291405 SPECI KATL 291405Z 25003KT 10SM SCT015 SCT019 BKN110 26/21 A2975 RMK AO2=
201306291352 METAR KATL 291352Z 26006KT 8SM SCT015 BKN020 BKN110 25/21 A2975 RMK AO2 SLP065 T02500211=
201306291252 METAR KATL 291252Z 23005KT 7SM SCT009 OVC250 24/22 A2975 RMK AO2 SLP063 T02440217=
201306291235 SPECI KATL 291235Z 23005KT 7SM SCT008 OVC250 24/22 A2974 RMK AO2=
201306291152 METAR KATL 291152Z 27004KT 6SM BR SCT007 OVC014 23/21 A2975 RMK AO2 SLP061 T02280211 10228 20222 51006=
201306291052 METAR KATL 291052Z 24005KT 6SM BR OVC007 23/21 A2974 RMK AO2 CIG 006V011 SLP061 T02280211=
201306290952 METAR KATL 290952Z 26006KT 5SM BR OVC005 22/21 A2973 RMK AO2 SLP057 T02220211=
201306290852 METAR KATL 290852Z 25007KT 7SM OVC006 22/21 A2973 RMK AO2 SLP055 T02220211 58001=
201306290817 SPECI KATL 290817Z 24008KT 7SM BKN006 OVC250 22/21 A2973 RMK AO2=
201306290752 METAR KATL 290752Z 25007KT 10SM SCT008 SCT060 OVC250 22/21 A2973 RMK AO2 SLP054 T02220206=
201306290749 SPECI KATL 290749Z 25007KT 10SM SCT008 SCT060 OVC250 22/21 A2973 RMK AO2=
201306290708 SPECI KATL 290708Z 25007KT 10SM BKN012 BKN060 OVC250 23/21 A2974 RMK AO2=
201306290652 METAR KATL 290652Z 24007KT 10SM FEW011 SCT060 OVC250 23/21 A2974 RMK AO2 SLP058 T02280206=
201306290552 METAR KATL 290552Z 26004KT 10SM FEW032 SCT060 OVC250 23/21 A2973 RMK AO2 SLP055 60000 T02280206 10294 20228 58012=
201306290452 METAR KATL 290452Z 30007KT 10SM FEW014 SCT060 BKN200 OVC250 23/21 A2976 RMK AO2 SLP064 T02330206 403330228=
201306290352 METAR KATL 290352Z 29005KT 10SM FEW014 SCT025 BKN040 OVC150 23/21 A2977 RMK AO2 TSB09E52RAB12E52 SLP068 OCNL LTG DSNT NW TS DSIPTD P0000 T02330211=
201306290343 SPECI KATL 290343Z 32009KT 9SM -TSRA SCT014 BKN025CB OVC100 24/21 A2978 RMK AO2 TSB09RAB12 VIS NE 2 OCNL LTGIC NE TS NE MOV SE P0000=
201306290309 SPECI KATL 290309Z 24010KT 10SM TS FEW035CB SCT060 BKN120 BKN250 24/21 A2977 RMK AO2 TSB09 OCNL LTGIC NW TS VC NW MOV SE=
201306290252 METAR KATL 290252Z 23009KT 10SM FEW040 SCT060 BKN250 24/21 A2977 RMK AO2 SLP068 T02440206 53004=
201306290152 METAR KATL 290152Z 21010KT 10SM FEW035 SCT100 BKN250 26/22 A2975 RMK AO2 SLP062 T02560222=
201306290052 METAR KATL 290052Z 21009KT 10SM FEW035 SCT070 BKN110 BKN250 27/24 A2975 RMK AO2 SLP063 TCU DSNT SW ACC NE-SE T02670239=
201306282352 METAR KATL 282352Z 24007KT 10SM FEW040 BKN075 BKN120 OVC250 29/19 A2975 RMK AO2 SLP064 60000 T02940194 10333 20278 53026=
201306282252 METAR KATL 282252Z 29012G20KT 10SM FEW040 SCT200 BKN250 31/19 A2972 RMK AO2 SLP052 T03060189=
201306282152 METAR KATL 282152Z 23007KT 10SM FEW035 SCT200 BKN250 29/22 A2971 RMK AO2 TSE31 SLP026 CB DSNT NE & E-SE T02890222 $=
201306282131 SPECI KATL 282131Z 22010KT 10SM FEW035 SCT200 BKN250 29/22 A2972 RMK AO2 TSE31 TS DSIPTD CB DSNT NE & E-SE $=
201306282105 SPECI KATL 282105Z 21009KT 10SM TS FEW035CB SCT090 BKN200 29/22 A2974 RMK AO2 FRQ LTGICCG SE TS VC SE MOV SE CB DSNT NE-E SHRA VC SE $=
201306282052 METAR KATL 282052Z 27012G18KT 10SM TS SCT043CB BKN090 BKN250 31/22 A2974 RMK AO2 TSB48 SLP037 OCNL LTGICCG S TS VC S MOV SE 60000 T03110222 $=
201306282049 SPECI KATL 282049Z 27010G18KT 10SM TS SCT041CB BKN090 BKN250 31/22 A2974 RMK AO2 TSB48 OCNL LTGICCG S TS VC S MOV SE $=
201306281952 METAR KATL 281952Z 27010G17KT 10SM SCT042TCU SCT090 BKN250 33/23 A2974 RMK AO2 TSB1858E38RAB1858E13 SLP036 CB DSNT NE-E TCU SW P0000 T03280228 $=
201306281944 SPECI KATL 281944Z 27009G16KT 10SM SCT042 BKN200 BKN250 33/22 A2974 RMK AO2 TSB1858E38RAB1858E13 CB DSNT SE TS MOV SE P0000 $=
201306281916 SPECI KATL 281916Z 29009KT 10SM TS SCT035CB BKN090 BKN250 33/23 A2976 RMK AO2 TSB1858RAB1858E13 OCNL LTGICCG E AND S-SW TS E AND S-SW MOV SE P0000 $=
201306281903 SPECI KATL 281903Z 31006KT 8SM -TSRA BKN030CB BKN090 BKN250 29/23 A2977 RMK AO2 TSB1858RAB1858 VIS LWR NE-E SHRA FRQ LTGICCG NE-E TS NE-E MOV SE P0000 $=
201306281852 METAR KATL 281852Z 28008G15KT 6SM TSRA BKN038CB BKN090 BKN250 32/23 A2977 RMK AO2 TSB51RAB52 SLP067 FRQ LTGICCG NW-N-NE TS NW-N-NE MOV SE P0000 T03220233=
201306281852 SPECI KATL 281852Z 28008G15KT 6SM TSRA BKN038CB BKN090 BKN250 32/23 A2977 RMK AO2 TSB51RAB52 SLP067 FRQ LTGICCG NW-N-NE TS NW-N-NE MOV SE P0000 T03220233=
201306281752 METAR KATL 281752Z 26009KT 10SM SCT034TCU BKN200 BKN250 32/24 A2979 RMK AO2 SLP075 TCU NW T03220239 10322 20233 58017=
201306281652 METAR KATL 281652Z 26007KT 10SM FEW030 BKN200 BKN250 31/24 A2983 RMK AO2 SLP091 T03110239=
201306281552 METAR KATL 281552Z VRB05KT 10SM FEW030 BKN200 BKN250 30/23 A2983 RMK AO2 SLP091 T03000228=
201306281452 METAR KATL 281452Z 26005KT 10SM FEW025 BKN200 BKN250 28/23 A2984 RMK AO2 SLP094 T02830228 58006=
201306281352 METAR KATL 281352Z 27006KT 9SM FEW015 SCT200 BKN250 27/23 A2986 RMK AO2 SLP100 T02720233=
201306281252 METAR KATL 281252Z 27004KT 6SM HZ FEW009 BKN250 26/23 A2987 RMK AO2 SLP102 T02560228=
201306281152 METAR KATL 281152Z 28005KT 3SM BR BCFG SCT003 BKN250 23/23 A2986 RMK AO2 SLP100 VIS W 2 70013 T02330228 10233 20228 52008=
201306281139 SPECI KATL 281139Z 28005KT 3SM BR BCFG SCT003 BKN250 23/23 A2986 RMK AO2 VIS NW 2=
201306281052 METAR KATL 281052Z 27005KT 1 1/2SM BR BCFG BKN002 BKN250 23/22 A2986 RMK AO2 SFC VIS 3 SLP099 VIS NW-N 1 T02280222=
201306281019 SPECI KATL 281019Z 29006KT 5SM BR BCFG FEW003 BKN250 23/22 A2985 RMK AO2 VIS NW 2=
201306280952 METAR KATL 280952Z COR 29007KT 6SM BR BCFG FEW250 23/22 A2984 RMK AO2 SLP093 T02280217=
201306280852 METAR KATL 280852Z 29005KT 7SM FEW250 23/22 A2984 RMK AO2 SLP091 T02280217 56016=
201306280752 METAR KATL 280752Z 27005KT 8SM SCT250 23/22 A2984 RMK AO2 SLP094 T02280217=
201306280652 METAR KATL 280652Z COR 22005KT 9SM SCT220 23/22 A2987 RMK AO2 SLP102 T02280217=
201306280552 METAR KATL 280552Z 22005KT 9SM BKN220 23/22 A2988 RMK AO2 SLP108 60008 T02280222 10294 20228 58008=
201306280452 METAR KATL 280452Z 20007KT 10SM FEW005 SCT050 BKN200 23/22 A2991 RMK AO2 SLP116 OCNL LTG DSNT SE T02330222 403110233=
201306280352 METAR KATL 280352Z 22006KT 10SM FEW005 SCT050 BKN150 OVC200 24/22 A2990 RMK AO2 TSE26RAE0257 SLP113 CONS LTGICCG DSNT NE-SE P0000 T02390217=
201306280326 SPECI KATL 280326Z 20005KT 10SM FEW025 SCT050 BKN120 OVC150 23/22 A2990 RMK AO2 TSE26RAE0257 FRQ LTGICCG DSNT NE-SE TS MOV SE P0000=
201306280252 METAR KATL 280252Z 04006KT 10SM -TSRA FEW025CB BKN050 OVC100 24/22 A2991 RMK AO2 RAE04B40 SLP116 FRQ LTGICCCCG NE-SE TS NE-SE MOV SE P0000 60008 T02390217 53012=
201306280152 METAR KATL 280152Z 31004KT 9SM -TSRA FEW025CB SCT050 BKN100 BKN200 24/21 A2988 RMK AO2 PK WND 33026/0132 TSB04RAB21 SLP108 CONS LTGICCCCA NE-SE-SW-W TS NE-SE-SW-W MOV SE P0008 T02390211=
201306280142 SPECI KATL 280142Z 30010G20KT 5SM TSRA SCT025CB BKN040 BKN100 OVC200 24/21 A2988 RMK AO2 PK WND 33026/0132 TSB04RAB21 CONS LTGICCA NE-OHD-SW TS NE-OHD-SW MOV SE P0007=
201306280134 SPECI KATL 280134Z 34019G26KT 1 1/2SM +TSRA BKN025CB BKN040 OVC100 24/22 A2989 RMK AO2 PK WND 33026/0132 TSB04RAB21 CONS LTGICCA NE-OHD-SW TS NE-OHD-SW MOV SE P0001=
201306280104 SPECI KATL 280104Z 21007KT 10SM TS FEW025CB SCT070 BKN100 OVC250 28/24 A2986 RMK AO2 TSB04 FRQ LTGICCGCA NW-N TS VC NW-N MOV SE=
201306280052 METAR KATL 280052Z 22007KT 10SM FEW030 SCT070 BKN100 BKN250 28/24 A2987 RMK AO2 SLP103 OCNL LTG DSNT NW T02830244=
201306272352 METAR KATL 272352Z 26005KT 10SM FEW035 SCT200 BKN250 29/23 A2987 RMK AO2 SLP103 CB DSNT SW 60005 T02940228 10311 20278 55001=
201306272252 METAR KATL 272252Z 31009KT 10SM FEW035 SCT200 BKN250 31/22 A2986 RMK AO2 SLP099 CB DSNT SW T03060222=
201306272152 METAR KATL 272152Z 31015KT 10SM FEW030 SCT200 BKN250 31/22 A2986 RMK AO2 SLP098 CB DSNT SE-SW T03060222=
201306272052 METAR KATL 272052Z 32010KT 10SM FEW020TCU SCT040 SCT250 30/24 A2987 RMK AO2 WSHFT 2003 RAB02E36 SLP104 FRQ LTGICCG DSNT SE-S-SW CB DSNT SE-S-SW TCU SW-NW SHRA DSNT SE-S-SW P0005 60005 T03000244 56020=
201306272017 SPECI KATL 272017Z 32014G22KT 9SM -RA FEW015CB BKN030TCU BKN250 28/25 A2989 RMK AO2 WSHFT 2003 RAB02 VIS LWR S SHRA CB S MOV SE TCU OHD & ALQDS P0005=
201306272003 SPECI KATL 272003Z 28010KT 9SM -RA SCT033TCU SCT050 BKN100 BKN250 30/24 A2990 RMK AO2 RAB02 VIS LWR N-NE SHRA CB DSNT E & SW TCU OHD-NW-N-NE P0000=
201306271959 SPECI KATL 271959Z 27008KT 10SM BKN033TCU BKN050 BKN250 30/24 A2990 RMK AO2 VIS LWR N-NE SHRA CB DSNT E & SW TCU OHD-NW-N-NE=
201306271952 METAR KATL 271952Z 27012KT 10SM FEW030CB SCT050TCU SCT250 30/24 A2990 RMK AO2 SLP112 CB NW MOV SE CB DSNT NE & SW TCU NE & SE-SW SHRA NW T03000239=
201306271936 SPECI KATL 271936Z 27010G19KT 10SM SCT030TCU SCT250 30/23 A2990 RMK AO2 TCU ALQDS SHRA SE & NW=
201306271929 SPECI KATL 271929Z 26011G19KT 10SM BKN029 BKN036 29/23 A2991 RMK AO2=
201306271852 SPECI KATL 271852Z 26014G20KT 10SM FEW030TCU BKN040 BKN250 31/23 A2991 RMK AO2 SLP116 TCU S T03060228=
201306271852 METAR KATL 271852Z 26014G20KT 10SM FEW030TCU BKN040 BKN250 31/23 A2991 RMK AO2 SLP116 TCU S T03060228=
201306271752 METAR KATL 271752Z 27012G17KT 10SM FEW030 BKN050 BKN250 30/23 A2993 RMK AO2 SLP124 T03000228 10300 20250 58010=
201306271652 METAR KATL 271652Z 30011G17KT 10SM BKN030 BKN055 BKN250 29/23 A2995 RMK AO2 SLP131 T02940228=
201306271552 METAR KATL 271552Z 27012KT 10SM FEW035 BKN055 BKN250 29/21 A2998 RMK AO2 SLP140 CB DSNT W T02890211=
201306271452 METAR KATL 271452Z 27009KT 10SM FEW020 SCT150 BKN250 28/22 A2997 RMK AO2 SLP136 CB DSNT NW-N T02830222 58000=
201306271352 METAR KATL 271352Z 27008KT 10SM FEW017 BKN150 BKN250 26/22 A2998 RMK AO2 SLP139 T02610222=
201306271252 METAR KATL 271252Z 25008KT 10SM FEW013 SCT090 BKN190 BKN250 25/22 A2998 RMK AO2 SLP140 ACC DSNT NE-E T02500222=
201306271152 METAR KATL 271152Z 25007KT 10SM FEW012 BKN150 BKN250 25/22 A2997 RMK AO2 SLP136 T02500222 10256 20239 55001=
201306271052 METAR KATL 271052Z 25007G16KT 9SM FEW090 SCT170 BKN250 24/22 A2995 RMK AO2 SLP129 T02440222=
201306270952 METAR KATL 270952Z 25009KT 10SM FEW110 SCT150 BKN250 24/22 A2997 RMK AO2 SLP137 ACC OHD-W T02440222=
201306270852 METAR KATL 270852Z 24009KT 10SM FEW034 SCT110 BKN250 25/22 A2997 RMK AO2 SLP137 T02500222 56013=
201306270752 METAR KATL 270752Z 23007KT 10SM FEW110 BKN250 25/22 A2999 RMK AO2 SLP142 T02500222=
201306270652 METAR KATL 270652Z 22006KT 10SM FEW040 SCT220 25/22 A2998 RMK AO2 SLP141 T02500222=
201306270552 METAR KATL 270552Z 24006KT 10SM FEW040 SCT220 26/22 A3001 RMK AO2 SLP149 T02560222 10289 20256 50006=
201306270452 METAR KATL 270452Z 24005KT 10SM FEW150 BKN250 26/22 A3002 RMK AO2 SLP154 T02560222 403110217=
201306270352 METAR KATL 270352Z 22007KT 10SM BKN250 26/22 A3000 RMK AO2 SLP145 T02560222=
201306270252 METAR KATL 270252Z 21008KT 10SM BKN250 26/23 A2999 RMK AO2 SLP144 T02610228 51004=
201306270152 METAR KATL 270152Z 21007KT 10SM BKN250 27/23 A2999 RMK AO2 SLP146 T02670228=
201306270052 METAR KATL 270052Z 22006KT 10SM BKN250 28/22 A2998 RMK AO2 SLP142 T02780222=
201306262352 METAR KATL 262352Z 20008KT 10SM FEW035 BKN250 29/23 A2998 RMK AO2 SLP140 T02890228 10311 20283 57009=
201306262252 METAR KATL 262252Z 20007KT 10SM FEW035 BKN250 29/23 A2999 RMK AO2 SLP145 TCU DSNT NW-NE T02940228=
201306262152 METAR KATL 262152Z 20007KT 10SM FEW030 BKN250 29/22 A2999 RMK AO2 SLP145 T02940222=
201306262052 METAR KATL 262052Z 20008KT 10SM FEW030TCU SCT200 BKN250 29/22 A3001 RMK AO2 SLP150 TCU NW T02940222 56017=
201306261952 METAR KATL 261952Z 21007KT 180V250 10SM FEW045TCU SCT200 BKN250 31/21 A3002 RMK AO2 SLP155 CB DSNT E-SE TCU E-SE-S SHRA DSNT E-SE T03110211=
201306261925 SPECI KATL 261925Z 28009KT 10SM FEW040TCU BKN200 BKN250 31/22 A3003 RMK AO2 FRQ LTGICCG DSNT SE-S CB DSNT SE-S TCU E-SE-S SHRA DSNT SE-S=
201306261852 METAR KATL 261852Z 29007KT 10SM FEW045 BKN200 BKN250 31/21 A3004 RMK AO2 SLP160 CB DSNT S-SW TCU DSNT NE T03060206=
201306261752 METAR KATL 261752Z 24010G15KT 10SM FEW038 SCT200 BKN250 31/21 A3006 RMK AO2 SLP168 TCU DSNT NE-W T03060211 10311 20233 58013=
201306261652 METAR KATL 261652Z 29006KT 10SM SCT037TCU SCT200 BKN250 30/21 A3007 RMK AO2 SLP173 TCU N-NE & E-SE & SW-W T03000206=
201306261552 METAR KATL 261552Z 30006KT 10SM SCT025TCU SCT250 29/22 A3009 RMK AO2 SLP178 TCU N & E & W-NW T02940222=
201306261452 METAR KATL 261452Z 30009KT 10SM FEW020 SCT100 SCT200 28/23 A3010 RMK AO2 SLP181 T02830228 58001=
201306261352 METAR KATL 261352Z 26005KT 7SM FEW007 SCT100 SCT200 24/22 A3011 RMK AO2 TSE13 SLP188 TS MOV E CB DSNT E SHRA DSNT E T02440222=
201306261313 SPECI KATL 261313Z 28005KT 7SM FEW007 SCT100 BKN200 23/22 A3012 RMK AO2 TSE13 TS MOV E CB DSNT E SHRA DSNT E=
201306261252 METAR KATL 261252Z COR 29005KT 6SM TS BR FEW007 SCT039CB SCT100 BKN250 23/22 A3011 RMK AO2 TSB36 SLP187 OCNL LTGIC NE TS VC NE MOV SE SHRA NE T02330217 $=
201306261237 SPECI KATL 261237Z 28006KT 6SM TS BR SCT007 SCT039CB BKN100 BKN250 23/22 A3011 RMK AO2 TSB36 OCNL LTGIC VC NE TS VC NE MOV SE SHRA N-NE $=
201306261228 SPECI KATL 261228Z 29006KT 6SM BR BKN007 BKN039CB BKN100 BKN250 23/22 A3010 RMK AO2 OCNL LTG DSNT N-NE CB VC N-NE MOV SE SHRA N-NE=
201306261152 METAR KATL 261152Z 24008KT 7SM SCT041 SCT055 BKN070 23/22 A3010 RMK AO2 SLP183 T02330217 10233 20217 51018=
201306261052 METAR KATL 261052Z 21004KT 8SM FEW005 SCT042 BKN100 22/21 A3009 RMK AO2 SLP179 T02220211=
201306260952 METAR KATL 260952Z 22004KT 10SM FEW095 22/21 A3008 RMK AO2 SLP173 T02220211=
201306260852 METAR KATL 260852Z 23005KT 10SM CLR 22/21 A3005 RMK AO2 SLP163 T02220211 55006=
201306260752 METAR KATL 260752Z 22005KT 10SM FEW010 23/21 A3004 RMK AO2 SLP162 T02280211=
201306260652 METAR KATL 260652Z 22003KT 10SM CLR 22/21 A3005 RMK AO2 SLP165 T02220211=
201306260552 METAR KATL 260552Z 20004KT 10SM FEW040 SCT250 23/21 A3006 RMK AO2 SLP169 T02280211 10272 20228 58012=
201306260452 METAR KATL 260452Z 20005KT 10SM FEW040 SCT250 23/22 A3008 RMK AO2 SLP175 T02330217 403110217=
201306260352 METAR KATL 260352Z 15004KT 10SM FEW045 SCT200 24/21 A3009 RMK AO2 SLP177 T02440211=
201306260252 SPECI KATL 260252Z 19004KT 10SM SCT045 BKN200 25/21 A3010 RMK AO2 SLP182 60000 T02500211 53008 $=
201306260252 METAR KATL 260252Z 19004KT 10SM SCT045 BKN200 25/21 A3010 RMK AO2 SLP182 60000 T02500211 53008 $=
201306260152 METAR KATL 260152Z 18004KT 10SM FEW110 SCT200 26/21 A3009 RMK AO2 RAB28E40 SLP179 P0000 T02560211=
201306260052 METAR KATL 260052Z 26003KT 10SM FEW035 SCT200 SCT250 26/21 A3007 RMK AO2 SLP172 OCNL LTG DSNT SE T02610206=
201306252352 METAR KATL 252352Z 32007KT 10SM FEW035 SCT120 BKN200 BKN250 27/21 A3008 RMK AO2 SLP174 FRQ LTG DSNT SE T02720206 10311 20272 55002=
201306252252 METAR KATL 252252Z 28009KT 10SM FEW035 SCT110 BKN200 28/21 A3007 RMK AO2 SLP173 CB DSNT NE TCU DSNT SE-S T02780206=
201306252152 METAR KATL 252152Z 28006KT 10SM FEW040 SCT110 BKN250 29/21 A3008 RMK AO2 SLP175 CB DSNT NE TCU DSNT SE & S T02940206=
201306252052 METAR KATL 252052Z 29008KT 10SM FEW040 SCT110 BKN250 30/21 A3008 RMK AO2 SLP176 CB DSNT E & NW TCU DSNT NE-SW T03000211 58021=
201306251952 METAR KATL 251952Z 32006KT 10SM FEW040TCU SCT070 BKN250 30/21 A3011 RMK AO2 SLP185 CB DSNT N TCU E & S & W SHRA DSNT N T03000211=
201306251852 METAR KATL 251852Z 31007KT 10SM BKN040TCU BKN070 BKN250 29/21 A3013 RMK AO2 SLP191 CB DSNT NW TCU OHD-E-SE-S-SW-W SHRA DSNT NW T02940211=
201306251752 METAR KATL 251752Z VRB04KT 10SM SCT042CB SCT200 BKN250 29/20 A3015 RMK AO2 SLP198 CB NW-N-NE SHRA NW-N-NE T02940200 10300 20222 58016=
201306251652 METAR KATL 251652Z VRB03KT 10SM FEW030TCU SCT080 BKN250 28/19 A3017 RMK AO2 SLP206 CB DSNT NW TCU NW TCU DSNT NE T02830194=
201306251552 METAR KATL 251552Z 00000KT 10SM FEW025 SCT080 BKN250 28/21 A3019 RMK AO2 SLP213 TCU DSNT NW T02780206=
201306251452 METAR KATL 251452Z 30003KT 10SM FEW020 BKN070 BKN250 26/21 A3020 RMK AO2 SLP217 T02610211 51008=
201306251352 METAR KATL 251352Z 28004KT 10SM FEW020 SCT060 BKN250 25/21 A3019 RMK AO2 SLP215 T02500211=
201306251252 METAR KATL 251252Z 27007KT 10SM FEW012 SCT065 BKN250 24/21 A3018 RMK AO2 SLP211 T02440211=
201306251152 METAR KATL 251152Z 22004KT 10SM FEW055 BKN070 BKN250 22/21 A3017 RMK AO2 SLP209 70064 T02220206 10228 20217 53007=
201306251052 METAR KATL 251052Z 21003KT 10SM BKN055 BKN070 22/21 A3016 RMK AO2 SLP207 T02170206=
201306250952 METAR KATL 250952Z 00000KT 10SM FEW044 BKN060 22/20 A3016 RMK AO2 SLP204 T02170200 $=
201306250852 METAR KATL 250852Z 00000KT 10SM SCT049 BKN250 22/20 A3015 RMK AO2 SLP200 T02170200 55007 $=
201306250752 METAR KATL 250752Z 25004KT 10SM FEW150 22/20 A3015 RMK AO2 SLP198 T02170200 $=
201306250652 METAR KATL 250652Z 00000KT 10SM FEW150 SCT220 22/21 A3016 RMK AO2 SLP204 T02170206 $=
201306250552 METAR KATL 250552Z 00000KT 10SM SCT150 BKN250 22/21 A3017 RMK AO2 SLP207 T02220206 10244 20222 50001 $=
201306250452 METAR KATL 250452Z 00000KT 10SM SCT150 BKN250 23/21 A3018 RMK AO2 SLP210 T02280206 403060206 $=
201306250352 METAR KATL 250352Z 00000KT 10SM FEW150 SCT200 BKN250 23/21 A3017 RMK AO2 SLP207 T02280206 $=
201306250252 METAR KATL 250252Z 00000KT 10SM SCT150 BKN200 22/21 A3017 RMK AO2 SLP206 T02220211 50002 $=
201306250152 METAR KATL 250152Z 00000KT 10SM FEW010 BKN150 BKN200 23/21 A3017 RMK AO2 SLP208 T02330211=
201306250052 METAR KATL 250052Z 30005KT 10SM FEW120 SCT150 BKN200 23/21 A3018 RMK AO2 SLP210 T02330211=
201306242352 METAR KATL 242352Z 26003KT 10SM FEW150 BKN200 OVC250 24/22 A3016 RMK AO2 SLP204 60064 T02440217 10306 20222 53003=
201306242252 METAR KATL 242252Z 00000KT 10SM FEW035 SCT150 OVC200 24/22 A3015 RMK AO2 TSE06RAE27 SLP200 CBMAM OHD-NE P0000 T02390217=
201306242206 SPECI KATL 242206Z 33006KT 10SM FEW035 SCT100 BKN150 OVC200 23/21 A3015 RMK AO2 TSE06RAE02 TS DSIPTD P0000=
201306242154 SPECI KATL 242154Z 35006KT 6SM -TSRA BR FEW015 SCT035CB BKN070 OVC200 23/22 A3015 RMK AO2 VIS NE-E 2 OCNL LTGIC NE-E TS NE-E MOV NE P0000=
201306242152 METAR KATL 242152Z 35006KT 1 1/4SM R09R/2800VP6000FT -TSRA BR FEW015 BKN035CB OVC070 23/22 A3015 RMK AO2 TSB05RAB16 SLP203 OCNL LTGICCG NE-OHD-SW TS NE-OHD-SW MOV NE P0064 T02280217=
201306242142 SPECI KATL 242142Z VRB06G15KT 1 1/4SM R09R/2800VP6000FT +TSRA BR FEW015 BKN035CB OVC070 23/22 A3017 RMK AO2 TSB05RAB16 OCNL LTGICCG NE-OHD-SW TS NE-OHD-SW MOV NE P0041=
201306242135 SPECI KATL 242135Z 29010G24KT 2SM R09R/5000VP6000FT +TSRA FEW015 BKN035CB BKN070 OVC200 24/21 A3017 RMK AO2 TSB05RAB16 VIS NW-N 6 OCNL LTGICCG NE-OHD-SW TS NE-OHD-SW MOV NE P0020=
201306242105 SPECI KATL 242105Z 33011KT 10SM TS SCT040CB BKN070 BKN200 28/21 A3015 RMK AO2 TSB05 OCNL LTGIC SW-W TS SW-W MOV E SHRA SW-W=
201306242052 METAR KATL 242052Z 28007KT 10SM FEW045CB BKN050TCU BKN090 BKN200 29/19 A3015 RMK AO2 SLP200 CB SW MOV E CB DSNT W-NW-N TCU OHD-S-SW-W SHRA SW & DSNT W-NW-N T02890194 56018=
201306241952 METAR KATL 241952Z 22008KT 10SM FEW048TCU BKN090 BKN250 29/19 A3017 RMK AO2 SLP207 CB DSNT NW-N TCU NE T02940189=
201306241852 METAR KATL 241852Z 20006KT 10SM SCT045TCU BKN080 BKN200 29/19 A3018 RMK AO2 SLP209 CB DSNT NW TCU NE-SE & SW-NW T02940189=
201306241752 METAR KATL 241752Z 25006KT 10SM FEW035TCU SCT070 SCT200 29/19 A3021 RMK AO2 SLP217 CB DSNT NW-N-NE TCU E & W-NW T02890194 10294 20217 58015=
201306241652 METAR KATL 241652Z 23005KT 10SM SCT030 BKN070 BKN200 28/20 A3024 RMK AO2 SLP229 CB DSNT NW-N T02780200=
201306241552 METAR KATL 241552Z 23006KT 10SM SCT030 SCT070 27/21 A3024 RMK AO2 SLP231 T02720206=
201306241452 METAR KATL 241452Z 24005KT 10SM SCT016 BKN070 26/21 A3025 RMK AO2 SLP234 T02610211 51011=
201306241352 METAR KATL 241352Z 24005KT 10SM FEW012 BKN070 BKN250 24/21 A3025 RMK AO2 SLP232 T02440211=
201306241252 METAR KATL 241252Z VRB04KT 10SM FEW006 SCT015 BKN060 BKN150 23/21 A3024 RMK AO2 SLP229 T02280211=
201306241242 SPECI KATL 241242Z 23005KT 10SM FEW006 SCT015 SCT070 BKN150 22/21 A3023 RMK AO2=
201306241233 SPECI KATL 241233Z 22006KT 9SM FEW006 BKN015 BKN070 BKN150 22/21 A3023 RMK AO2=
201306241152 METAR KATL 241152Z 25004KT 10SM FEW005 BKN070 22/21 A3022 RMK AO2 SLP223 T02170206 10233 20206 51011=
201306241052 METAR KATL 241052Z 19003KT 8SM FEW004 BKN060 21/20 A3021 RMK AO2 SLP219 T02110200=
201306240952 METAR KATL 240952Z 18003KT 10SM FEW003 SCT045 SCT250 21/21 A3020 RMK AO2 SLP216 T02110206 $=
201306240852 METAR KATL 240852Z 15003KT 10SM FEW004 22/21 A3018 RMK AO2 SLP211 T02170206 55001 $=
201306240844 SPECI KATL 240844Z 15003KT 10SM FEW004 21/21 A3018 RMK AO2 $=
201306240752 METAR KATL 240752Z 15004KT 10SM CLR 22/21 A3017 RMK AO2 SLP207 T02170206 $=
201306240652 METAR KATL 240652Z 00000KT 10SM CLR 22/21 A3018 RMK AO2 SLP211 T02220206 $=
201306240552 METAR KATL 240552Z 13004KT 10SM FEW095 23/22 A3019 RMK AO2 SLP212 T02330217 10272 20228 50005 $=
201306240452 METAR KATL 240452Z 00000KT 10SM FEW250 23/21 A3019 RMK AO2 SLP215 T02330211 402890206 $=
201306240352 METAR KATL 240352Z 00000KT 10SM SCT250 23/21 A3018 RMK AO2 SLP212 T02330211 $=
201306240252 METAR KATL 240252Z VRB05KT 10SM FEW050 SCT220 24/21 A3017 RMK AO2 SLP207 T02390211 53013 $=
201306240152 METAR KATL 240152Z 19006KT 10SM FEW110 BKN220 25/20 A3015 RMK AO2 SLP200 T02500200 $=
201306240052 METAR KATL 240052Z 16005KT 10SM FEW035 SCT130 BKN220 27/21 A3014 RMK AO2 SLP197 CB DSNT NE T02670206 $=
201306232352 METAR KATL 232352Z 19007KT 10SM FEW036TCU SCT110 BKN220 27/19 A3013 RMK AO2 SLP193 CB DSNT E TCU N & DSNT NE T02720189 10289 20261 56004 $=
201306232252 METAR KATL 232252Z 19006KT 10SM SCT037TCU SCT110 BKN220 29/19 A3013 RMK AO2 SLP194 CB DSNT N & SW TCU VC ALQDS T02890194 $=
201306232152 METAR KATL 232152Z 20004KT 10SM SCT036TCU SCT100 BKN220 28/20 A3013 RMK AO2 SLP193 CB DSNT SW TCU VC ALQDS T02830200=
201306232052 METAR KATL 232052Z 00000KT 10SM SCT034TCU SCT080 BKN250 28/20 A3014 RMK AO2 SLP197 TCU ALQDS T02780200 56016=
201306231952 METAR KATL 231952Z 14007KT 10SM BKN032TCU BKN055 28/20 A3014 RMK AO2 SLP198 TCU SE T02780200=
201306231852 METAR KATL 231852Z 11004KT 10SM BKN032 BKN050 27/20 A3016 RMK AO2 SLP204 T02670200=
201306231752 METAR KATL 231752Z 00000KT 10SM FEW036 SCT050 BKN120 BKN250 26/19 A3019 RMK AO2 SLP215 T02610194 10261 20217 58009=
201306231716 SPECI KATL 231716Z 00000KT 10SM SCT027 BKN037 24/20 A3021 RMK AO2=
201306231652 METAR KATL 231652Z 15003KT 10SM BKN020 BKN030 24/19 A3022 RMK AO2 SLP224 T02390194=
201306231552 METAR KATL 231552Z 14005KT 10SM BKN015 OVC020 23/19 A3023 RMK AO2 SLP226 T02280194=
201306231452 METAR KATL 231452Z 13003KT 10SM BKN016 OVC022 23/19 A3022 RMK AO2 SLP225 T02280194 51013=
201306231352 METAR KATL 231352Z 09005KT 10SM OVC015 23/19 A3021 RMK AO2 SLP222 T02280194=
201306231319 SPECI KATL 231319Z 13005KT 10SM OVC015 22/19 A3021 RMK AO2=
201306231252 METAR KATL 231252Z 13003KT 7SM SCT010 OVC013 22/19 A3020 RMK AO2 SLP219 T02220194=
201306231247 SPECI KATL 231247Z VRB04KT 7SM SCT010 OVC013 22/19 A3021 RMK AO2=
201306231152 METAR KATL 231152Z 12007KT 6SM BR OVC007 22/20 A3018 RMK AO2 SLP210 T02170200 10222 20206 51014=
201306231052 METAR KATL 231052Z 15006KT 6SM BR OVC005 21/19 A3017 RMK AO2 SLP208 T02060194=
201306231019 SPECI KATL 231019Z 12005KT 10SM BKN007 21/19 A3016 RMK AO2=
201306230952 METAR KATL 230952Z 13004KT 10SM FEW045 21/19 A3015 RMK AO2 SLP201 T02110189=
201306230852 METAR KATL 230852Z 12003KT 10SM CLR 22/19 A3014 RMK AO2 SLP195 T02170189 55011=
201306230752 METAR KATL 230752Z 00000KT 10SM CLR 22/19 A3013 RMK AO2 SLP193 T02170189=
201306230652 METAR KATL 230652Z 00000KT 10SM FEW042 22/19 A3015 RMK AO2 SLP199 T02170194=
201306230552 METAR KATL 230552Z 14005KT 10SM FEW042 22/19 A3017 RMK AO2 SLP206 T02220194 10278 20222 50004=
201306230452 METAR KATL 230452Z 15004KT 10SM FEW042 23/19 A3017 RMK AO2 SLP208 T02330189 402940200=
201306230352 METAR KATL 230352Z 12005KT 10SM BKN038 25/18 A3017 RMK AO2 SLP207 T02500183=
201306230252 METAR KATL 230252Z 12003KT 10SM CLR 25/18 A3016 RMK AO2 SLP202 T02500183 53013=
201306230152 METAR KATL 230152Z 00000KT 10SM CLR 26/18 A3014 RMK AO2 SLP196 T02560183=
201306230052 METAR KATL 230052Z 13005KT 10SM FEW044 27/18 A3013 RMK AO2 SLP193 TCU DSNT SE-S T02670178=
201306222352 METAR KATL 222352Z 13005KT 10SM FEW050 28/17 A3012 RMK AO2 SLP190 T02780167 10294 20272 55011=
201306222252 METAR KATL 222252Z 08007KT 10SM FEW050 28/17 A3012 RMK AO2 SLP189 TCU DSNT S & NW T02780167=
201306222152 METAR KATL 222152Z 15003KT 10SM SCT050TCU 28/16 A3014 RMK AO2 SLP197 TCU NE-SE & SW-W T02780161=
201306222052 METAR KATL 222052Z 00000KT 10SM SCT065 SCT250 29/16 A3015 RMK AO2 SLP200 T02890161 56021=
201306221952 METAR KATL 221952Z 10007KT 10SM BKN060 28/16 A3017 RMK AO2 SLP208 T02780161=
201306221852 METAR KATL 221852Z VRB03KT 10SM SCT050 28/16 A3019 RMK AO2 SLP213 T02830161=
201306221752 METAR KATL 221752Z VRB05KT 10SM FEW050 28/16 A3022 RMK AO2 SLP222 T02830161 10283 20211 58006=
201306221652 METAR KATL 221652Z VRB03KT 10SM FEW050 27/15 A3023 RMK AO2 SLP226 T02720150=
201306221552 METAR KATL 221552Z 07004KT 10SM FEW050 SCT250 27/15 A3024 RMK AO2 SLP229 T02670150=
201306221452 METAR KATL 221452Z 09007KT 10SM FEW040 SCT250 26/16 A3023 RMK AO2 SLP228 T02560156 51009=
201306221352 METAR KATL 221352Z 07006KT 10SM CLR 24/16 A3023 RMK AO2 SLP227 T02440161=
201306221252 METAR KATL 221252Z 08007KT 10SM CLR 23/17 A3022 RMK AO2 SLP224 T02280167=
201306221152 METAR KATL 221152Z 08009KT 10SM CLR 21/17 A3020 RMK AO2 SLP219 T02110167 10222 20200 51010=
201306221052 METAR KATL 221052Z 05006KT 10SM FEW045 21/17 A3020 RMK AO2 SLP218 T02060167=
201306220952 METAR KATL 220952Z 05006KT 10SM FEW045 21/17 A3018 RMK AO2 SLP212 T02060172=
201306220852 METAR KATL 220852Z 10003KT 10SM CLR 21/18 A3017 RMK AO2 SLP207 T02060178 56006=
201306220752 METAR KATL 220752Z 08004KT 10SM CLR 21/18 A3017 RMK AO2 SLP207 T02110178=
201306220652 METAR KATL 220652Z 09004KT 10SM CLR 22/17 A3018 RMK AO2 SLP210 T02170172=
201306220552 METAR KATL 220552Z 09005KT 10SM CLR 22/18 A3019 RMK AO2 SLP214 T02170178 10272 20217 58004=
201306220452 METAR KATL 220452Z 08005KT 10SM CLR 22/18 A3020 RMK AO2 SLP218 T02220183 402940206=
201306220352 METAR KATL 220352Z 09006KT 10SM CLR 23/18 A3020 RMK AO2 SLP216 T02330178=
201306220252 METAR KATL 220252Z 11006KT 10SM CLR 24/18 A3020 RMK AO2 SLP218 T02440178 53012=
201306220152 METAR KATL 220152Z 10007KT 10SM FEW050 26/17 A3018 RMK AO2 SLP209 T02560172=
201306220052 METAR KATL 220052Z 10007KT 10SM FEW050 26/17 A3016 RMK AO2 SLP206 T02610172=
201306212352 METAR KATL 212352Z 10007KT 040V110 10SM FEW050 27/17 A3017 RMK AO2 SLP206 T02720167 10294 20267 56009=
201306212252 METAR KATL 212252Z 08007KT 10SM FEW045 28/16 A3017 RMK AO2 SLP207 T02780161=
201306212152 METAR KATL 212152Z VRB05KT 10SM FEW050 28/16 A3018 RMK AO2 SLP210 T02780161=
201306212052 METAR KATL 212052Z 05007KT 10SM FEW050 SCT070 29/16 A3019 RMK AO2 SLP215 T02890156 57017=
201306211952 METAR KATL 211952Z 11004KT 10SM SCT050 28/17 A3021 RMK AO2 SLP222 T02830167=
201306211852 METAR KATL 211852Z 07009G16KT 10SM SCT050 28/16 A3023 RMK AO2 SLP227 T02780161=
201306211752 METAR KATL 211752Z 06007KT 020V130 10SM SCT046 27/17 A3024 RMK AO2 SLP233 T02720167 10283 20211 58003=
201306211652 METAR KATL 211652Z 11007G14KT 10SM SCT040 27/17 A3025 RMK AO2 SLP235 T02720172=
201306211552 METAR KATL 211552Z 08008G15KT 10SM SCT038 27/18 A3026 RMK AO2 SLP237 T02670178=
201306211452 METAR KATL 211452Z 11008KT 10SM FEW030 SCT090 26/17 A3025 RMK AO2 SLP236 T02560172 51009=
201306211352 METAR KATL 211352Z 09007KT 10SM FEW090 24/18 A3024 RMK AO2 SLP232 T02440178=
201306211252 METAR KATL 211252Z 09007KT 10SM FEW090 SCT130 22/18 A3024 RMK AO2 SLP233 ACC DSNT W-NW T02220178=
201306211152 METAR KATL 211152Z 09008KT 10SM FEW090 SCT120 21/18 A3023 RMK AO2 SLP227 ACC DSNT NW T02110178 10222 20206 53010=
201306211052 METAR KATL 211052Z 06006KT 9SM FEW120 21/17 A3021 RMK AO2 SLP222 T02060172=
201306210952 METAR KATL 210952Z 07005KT 10SM FEW050 SCT110 21/17 A3020 RMK AO2 SLP217 T02110172=
201306210852 METAR KATL 210852Z 07005KT 10SM FEW050 SCT110 21/17 A3019 RMK AO2 SLP216 T02060172 53002=
201306210752 METAR KATL 210752Z 09005KT 10SM FEW045 SCT110 21/17 A3019 RMK AO2 SLP214 T02060172=
201306210652 METAR KATL 210652Z 09005KT 10SM FEW110 21/17 A3019 RMK AO2 SLP213 T02110172=
201306210552 METAR KATL 210552Z 10005KT 10SM FEW110 22/18 A3019 RMK AO2 SLP214 T02170178 10267 20217 58002=
201306210452 METAR KATL 210452Z 09006KT 10SM FEW150 22/18 A3021 RMK AO2 SLP220 T02220178 402890206=
201306210352 METAR KATL 210352Z 10007KT 10SM FEW150 23/18 A3020 RMK AO2 SLP219 T02280178=
201306210252 METAR KATL 210252Z 10007KT 10SM FEW150 23/18 A3020 RMK AO2 SLP216 T02330178 53015=
201306210152 METAR KATL 210152Z 09008KT 10SM FEW150 24/18 A3018 RMK AO2 SLP209 T02440183=
201306210052 METAR KATL 210052Z 10008KT 10SM FEW040 26/17 A3016 RMK AO2 SLP205 T02560172=
201306202352 METAR KATL 202352Z 10008KT 10SM FEW045 27/17 A3015 RMK AO2 SLP201 T02670167 10289 20267 55005=
201306202252 METAR KATL 202252Z 10008KT 10SM FEW045 27/17 A3014 RMK AO2 SLP198 T02720167=
201306202152 METAR KATL 202152Z 12008KT 10SM FEW045 SCT250 28/17 A3015 RMK AO2 SLP201 T02830167=
201306202052 METAR KATL 202052Z 09007KT 10SM FEW047 SCT250 28/17 A3017 RMK AO2 SLP206 T02780172 56009=
201306201952 METAR KATL 201952Z 10012G18KT 10SM FEW040 SCT250 28/16 A3017 RMK AO2 SLP208 TCU DSNT SE & S & NW T02830161=
201306201852 METAR KATL 201852Z 10012G17KT 10SM SCT045 SCT250 27/18 A3019 RMK AO2 SLP213 T02670178=
201306201752 METAR KATL 201752Z 06010KT 10SM SCT037 SCT250 27/18 A3019 RMK AO2 SLP216 T02720183 10272 20211 50000=
201306201652 METAR KATL 201652Z 06011G19KT 10SM BKN035 BKN250 27/18 A3020 RMK AO2 SLP218 T02670183=
201306201552 METAR KATL 201552Z 09012G18KT 10SM SCT028 SCT250 26/19 A3020 RMK AO2 SLP216 T02610189=
201306201550 SPECI KATL 201550Z 09013G18KT 10SM SCT028 SCT250 26/19 A3019 RMK AO2=
201306201452 METAR KATL 201452Z 10010KT 10SM BKN025 24/19 A3019 RMK AO2 SLP216 T02440189 50008=
201306201352 METAR KATL 201352Z 09010KT 10SM BKN020 BKN025 23/19 A3020 RMK AO2 SLP217 T02330189=
201306201341 SPECI KATL 201341Z 10008G16KT 10SM BKN020 23/19 A3020 RMK AO2=
201306201252 METAR KATL 201252Z 09008KT 9SM FEW012 SCT250 23/19 A3018 RMK AO2 SLP211 T02280194=
201306201152 METAR KATL 201152Z 08008KT 9SM FEW080 SCT110 21/19 A3017 RMK AO2 SLP207 T02110194 10222 20206 51020=
201306201052 METAR KATL 201052Z 07006KT 8SM FEW110 21/19 A3015 RMK AO2 SLP200 T02060189=
201306200952 METAR KATL 200952Z 08005KT 8SM CLR 21/19 A3013 RMK AO2 SLP195 T02060194=
201306200852 METAR KATL 200852Z 07007KT 8SM CLR 21/19 A3011 RMK AO2 SLP187 T02110194 51005=
201306200752 METAR KATL 200752Z 09005KT 8SM FEW007 21/20 A3010 RMK AO2 SLP184 T02110200=
201306200652 METAR KATL 200652Z 09005KT 8SM FEW007 21/20 A3010 RMK AO2 SLP185 T02110200=
201306200552 METAR KATL 200552Z 08007KT 10SM CLR 22/20 A3009 RMK AO2 SLP181 T02170200 10272 20217 50002=
201306200452 METAR KATL 200452Z 08005KT 10SM FEW040 22/20 A3010 RMK AO2 SLP183 T02220200 402830206=
201306200352 METAR KATL 200352Z 09005KT 10SM FEW050 22/19 A3010 RMK AO2 SLP185 T02220194=
201306200252 METAR KATL 200252Z 08007KT 10SM FEW200 23/19 A3009 RMK AO2 SLP179 T02330194 53014=
201306200152 METAR KATL 200152Z 09006KT 10SM FEW200 24/19 A3007 RMK AO2 SLP172 T02390189=
201306200052 SPECI KATL 200052Z 08008KT 10SM FEW200 26/18 A3005 RMK AO2 SLP165 CB DSNT N T02560183=
201306200052 METAR KATL 200052Z 08008KT 10SM FEW200 26/18 A3005 RMK AO2 SLP165 CB DSNT N T02560183=
201306192352 METAR KATL 192352Z 06008G18KT 10SM FEW030 SCT250 27/18 A3004 RMK AO2 SLP164 TCU DSNT SE-SW T02720183 10283 20250 53012=
201306192252 METAR KATL 192252Z 08011G15KT 10SM SCT032TCU SCT050 BKN250 28/19 A3002 RMK AO2 SLP156 TCU S-SW & DSNT E-SE T02780194=
201306192152 METAR KATL 192152Z 06007KT 10SM SCT032TCU BKN045 BKN200 28/19 A3002 RMK AO2 SLP155 TCU NE-SE-S T02780189=
201306192052 METAR KATL 192052Z 03005KT 10SM FEW030 BKN150 BKN250 27/19 A3001 RMK AO2 SLP153 TCU DSNT S-SW & NW T02720194 56007=
201306191952 METAR KATL 191952Z 36008KT 320V030 10SM SCT030TCU SCT050 BKN150 BKN250 27/20 A3001 RMK AO2 SLP153 TCU NE-S & NW-N T02670200=
201306191852 METAR KATL 191852Z 31009KT 10SM FEW030TCU BKN040 BKN150 BKN250 26/20 A3001 RMK AO2 SLP154 TCU NE-SE T02610200=
201306191752 METAR KATL 191752Z 30006KT 10SM FEW030TCU SCT050 OVC150 26/19 A3003 RMK AO2 SLP160 TCU NE-S T02560194 10261 20211 50000=
201306191652 METAR KATL 191652Z VRB04KT 10SM SCT024 BKN150 BKN250 26/19 A3003 RMK AO2 SLP161 T02560189=
201306191552 METAR KATL 191552Z 31006KT 10SM FEW020 BKN150 BKN250 25/19 A3003 RMK AO2 SLP161 T02500189=
201306191548 SPECI KATL 191548Z 31006KT 10SM FEW020 BKN150 BKN250 25/19 A3003 RMK AO2=
201306191454 SPECI KATL 191454Z 00000KT 10SM FEW020 BKN026 BKN150 BKN250 24/19 A3002 RMK AO2=
201306191452 METAR KATL 191452Z 31004KT 10SM FEW018 SCT026 BKN150 BKN250 24/19 A3002 RMK AO2 SLP155 T02440189 51010=
201306191352 METAR KATL 191352Z 33004KT 10SM FEW014 SCT150 SCT250 23/19 A3001 RMK AO2 SLP155 T02280189=
201306191317 SPECI KATL 191317Z 32005KT 10SM SCT010 SCT180 SCT250 22/18 A3001 RMK AO2=
201306191252 METAR KATL 191252Z 34007KT 10SM BKN010 BKN250 22/19 A3001 RMK AO2 SLP151 T02220189=
201306191152 METAR KATL 191152Z 32006KT 10SM FEW009 SCT075 SCT120 BKN250 21/19 A2999 RMK AO2 SLP146 70005 T02110189 10228 20206 53015=
201306191052 METAR KATL 191052Z 30006KT 10SM FEW008 SCT075 BKN250 21/19 A2997 RMK AO2 SLP139 T02060189=
201306190952 METAR KATL 190952Z 27004KT 10SM FEW008 SCT075 BKN220 21/19 A2995 RMK AO2 SLP132 T02110194=
201306190925 SPECI KATL 190925Z 28005KT 10SM FEW008 SCT060 BKN075 21/20 A2994 RMK AO2=
201306190852 METAR KATL 190852Z 28003KT 10SM SCT012 BKN049 BKN080 OVC200 22/20 A2994 RMK AO2 SLP130 T02170200 50001=
201306190803 SPECI KATL 190803Z 27003KT 8SM FEW006 BKN012 BKN050 OVC200 22/21 A2995 RMK AO2=
201306190752 METAR KATL 190752Z 27004KT 10SM SCT012 BKN055 BKN200 22/21 A2994 RMK AO2 SLP130 T02170206=
201306190652 METAR KATL 190652Z 30006KT 10SM FEW006 SCT060 SCT085 BKN200 22/21 A2994 RMK AO2 SLP128 T02220206=
201306190555 SPECI KATL 190555Z 30006KT 10SM SCT008 SCT015 BKN085 BKN200 22/21 A2994 RMK AO2=
201306190552 METAR KATL 190552Z 29006KT 10SM SCT010 BKN085 BKN200 23/21 A2994 RMK AO2 SLP127 T02280211 10244 20222 52001=
201306190503 SPECI KATL 190503Z 27006KT 10SM FEW010 SCT020 BKN080 BKN200 23/22 A2993 RMK AO2=
201306190452 METAR KATL 190452Z 27005KT 10SM FEW010 BKN020 BKN080 OVC200 23/22 A2994 RMK AO2 SLP127 T02280217 403000200=
201306190450 SPECI KATL 190450Z 27004KT 10SM FEW010 BKN020 BKN080 OVC200 23/22 A2994 RMK AO2 403000200=
201306190352 METAR KATL 190352Z 24004KT 10SM FEW020 SCT080 BKN200 23/21 A2993 RMK AO2 SLP127 T02280211=
201306190252 METAR KATL 190252Z 24005KT 10SM FEW020 SCT150 BKN200 23/21 A2994 RMK AO2 SLP128 T02330211 51012=
201306190152 METAR KATL 190152Z 22004KT 10SM FEW020 BKN075 BKN120 OVC200 23/21 A2993 RMK AO2 SLP126 T02330211=
201306190052 METAR KATL 190052Z 24004KT 10SM FEW090 SCT150 BKN200 24/21 A2991 RMK AO2 SLP120 TCU DSNT N-NE T02390211=
201306182352 METAR KATL 182352Z 24005KT 10SM SCT080 BKN150 BKN200 BKN250 24/21 A2990 RMK AO2 SLP116 60002 T02440211 10300 20228 55001=
201306182252 METAR KATL 182252Z 25008KT 10SM FEW080 SCT150 BKN200 BKN250 25/21 A2989 RMK AO2 RAB2154E28 SLP111 CB DSNT SE-S & NW-N P0000 T02500211=
201306182152 METAR KATL 182152Z 27009KT 10SM FEW070 SCT120 BKN150 OVC200 24/21 A2990 RMK AO2 TSE08RAE19 SLP118 CB DSNT NE-SE-S & NW-N P0000 T02390206=
201306182108 SPECI KATL 182108Z 26009KT 9SM -RA FEW015 SCT090 BKN120 OVC150 23/20 A2990 RMK AO2 TSE08 FRQ LTGICCG DSNT NE-SE-SW TS MOV E P0000=
201306182052 METAR KATL 182052Z 29009KT 8SM -TSRA FEW015CB BKN070 OVC090 23/19 A2990 RMK AO2 TSB21RAB30 SLP119 FRQ LTGICCG NE-S TS NE-S MOV E P0002 60002 T02280189 55005=
201306182048 SPECI KATL 182048Z 31013G25KT 6SM -TSRA FEW026CB BKN070 OVC090 23/19 A2991 RMK AO2 TSB21RAB30 FRQ LTGICCG NE-S TS NE-S MOV E P0002=
201306182045 SPECI KATL 182045Z 32015G25KT 3SM +TSRA BKN028CB BKN040 OVC065 24/21 A2991 RMK AO2 SFC VIS 5 TSB21RAB30 FRQ LTGICCG N-OHD-SE-S TS N-OHD-SE-S MOV E P0001=
201306182041 SPECI KATL 182041Z 29018G23KT 6SM -TSRA BKN028CB BKN040 OVC065 26/22 A2992 RMK AO2 TSB21RAB30 PRESRR VIS 1/2SM SE & NW SHRA FRQ LTGICCG SE & NW TS SE & NW MOV E P0001=
201306182035 SPECI KATL 182035Z 27014G19KT 7SM -TSRA SCT028CB BKN045 BKN080 27/22 A2990 RMK AO2 TSB21RAB30 FRQ LTGICCG SE-NW TS SE-NW MOV E P0000=
201306182021 SPECI KATL 182021Z 27013G19KT 10SM TS FEW035CB BKN100 BKN250 28/21 A2988 RMK AO2 TSB21 OCNL LTGICCG S-NW TS S-NW MOV E SHRA S-NW=
201306181952 METAR KATL 181952Z 27009KT 10SM FEW033TCU SCT040 SCT250 29/22 A2989 RMK AO2 RAB1854E03 SLP112 CB DSNT NE-E & SW-NW TCU SW-NW P0000 T02890217=
201306181852 METAR KATL 181852Z 24011G16KT 10SM FEW030CB BKN040 BKN100 29/21 A2991 RMK AO2 SLP119 CB W MOV E CB DSNT NE SHRA W T02890211=
201306181833 SPECI KATL 181833Z 26010KT 10SM FEW030TCU BKN040 BKN100 28/22 A2991 RMK AO2 CB DSNT N-NE-E TCU W-NW=
201306181752 METAR KATL 181752Z 27016G23KT 10SM FEW027 SCT040 BKN100 28/22 A2992 RMK AO2 SLP122 TCU DSNT E 60003 T02830217 10283 20217 56012=
201306181652 METAR KATL 181652Z 23013G18KT 10SM BKN027 BKN120 BKN250 27/22 A2993 RMK AO2 SLP126 CB DSNT NE T02670217=
201306181552 METAR KATL 181552Z 24011G16KT 10SM FEW020 SCT050 SCT120 SCT250 26/21 A2996 RMK AO2 SLP135 CB DSNT NW TCU DSNT NE T02610211=
201306181452 METAR KATL 181452Z 23006KT 9SM FEW008 SCT014 SCT120 BKN150 24/22 A2997 RMK AO2 RAE1357 SLP140 P0000 60003 T02390217 50001=
201306181426 SPECI KATL 181426Z 21006KT 7SM FEW008 BKN014 BKN110 23/22 A2997 RMK AO2 RAE1357 P0000=
201306181409 SPECI KATL 181409Z 22006KT 3SM SCT006 BKN110 23/22 A2998 RMK AO2 SFC VIS 8 RAE1357 P0000=
201306181352 METAR KATL 181352Z 26004KT 3SM -RA BR BKN006 BKN020 BKN110 23/22 A2999 RMK AO2 SFC VIS 6 SLP146 P0002 T02280217=
201306181328 SPECI KATL 181328Z 25004KT 3SM BR BKN006 BKN100 OVC120 22/22 A2999 RMK AO2 SFC VIS 5 RAE26 P0002=
201306181316 SPECI KATL 181316Z 27005KT 3SM -RA BR BKN004 BKN090 OVC110 22/22 A2999 RMK AO2 SFC VIS 5 P0002=
201306181252 METAR KATL 181252Z 25006KT 1 1/2SM RA BR OVC004 22/21 A2999 RMK AO2 SFC VIS 1 3/4 RAB24 SLP148 P0001 T02220211=
201306181240 SPECI KATL 181240Z 24007KT 2 1/2SM -RA BR OVC004 22/21 A2999 RMK AO2 RAB24 P0000=
201306181232 SPECI KATL 181232Z 24007KT 2 1/2SM -RA BR OVC006 22/21 A2998 RMK AO2 SFC VIS 4 RAB24 CIG 003V008 P0000=
201306181203 SPECI KATL 181203Z 23006KT 9SM BKN009 OVC014 22/21 A2997 RMK AO2=
201306181152 METAR KATL 181152Z 21007KT 9SM BKN010 OVC050 22/21 A2996 RMK AO2 RAE1053 SLP139 60006 70083 T02170206 10217 20200 53009=
201306181140 SPECI KATL 181140Z 22009KT 9SM BKN014 OVC046 21/21 A2996 RMK AO2 RAE1053=
201306181052 METAR KATL 181052Z 22008KT 7SM -RA FEW005 SCT046 BKN070 BKN150 OVC220 21/20 A2995 RMK AO2 TSB23E44RAB10 SLP134 OCNL LTG DSNT NE-SE TS MOV E CB DSNT NE-SE P0006 T02110200=
201306181044 SPECI KATL 181044Z 23009KT 7SM -RA FEW005 SCT035 BKN075 OVC150 21/20 A2994 RMK AO2 TSB23E44RAB10 OCNL LTG DSNT E-SE TS MOV E CB DSNT E-SE P0006=
201306181037 SPECI KATL 181037Z 23008KT 5SM -TSRA BR FEW006 SCT013CB BKN095 OVC150 21/20 A2995 RMK AO2 TSB23RAB10 OCNL LTGIC SE TS VC SE MOV NE P0005=
201306181024 SPECI KATL 181024Z 22009KT 5SM TSRA BR SCT011 BKN017CB OVC036 21/20 A2995 RMK AO2 TSB23RAB10 OCNL LTGIC SE TS VC SE MOV NE P0003=
201306181018 SPECI KATL 181018Z 23010KT 5SM RA BR BKN014TCU BKN019 OVC060 21/19 A2996 RMK AO2 RAB10 OCNL LTG DSNT S CB DSNT S TCU S P0002 $=
201306181007 SPECI KATL 181007Z 23005KT 10SM BKN019TCU BKN060 BKN100 BKN250 21/19 A2995 RMK AO2 OCNL LTG DSNT SW CB DSNT SW TCU SW SHRA SW-W $=
201306180952 METAR KATL 180952Z 23005KT 10SM FEW021 SCT060 BKN100 BKN180 BKN250 21/19 A2995 RMK AO2 SLP134 T02060194 $=
201306180852 METAR KATL 180852Z 23007KT 10SM FEW004 SCT050 SCT070 BKN150 21/19 A2994 RMK AO2 SLP127 T02060194 58009 $=
201306180752 METAR KATL 180752Z 21004KT 10SM FEW004 BKN070 BKN090 BKN150 20/19 A2995 RMK AO2 SLP131 T02000194 $=
201306180652 METAR KATL 180652Z 20004KT 10SM FEW005 BKN065 BKN090 20/19 A2996 RMK AO2 SLP136 T02000194 $=
201306180552 METAR KATL 180552Z 21004KT 10SM FEW005 SCT080 BKN100 OVC200 21/19 A2996 RMK AO2 SLP137 60014 T02060194 10228 20206 58004 $=
201306180452 METAR KATL 180452Z 19004KT 10SM FEW005 BKN150 OVC200 21/19 A2998 RMK AO2 SLP143 T02060194 403000200 $=
201306180352 METAR KATL 180352Z 22011KT 10SM BKN005 OVC150 22/21 A3001 RMK AO2 RAE10 SLP151 CIG 004V007 P0000 T02170206 $=
201306180341 SPECI KATL 180341Z 00000KT 8SM BKN004 BKN120 OVC150 22/21 A3001 RMK AO2 RAE10 P0000 $=
201306180252 METAR KATL 180252Z 11003KT 9SM -RA FEW007 BKN110 OVC150 22/21 A2998 RMK AO2 SLP142 P0002 60014 T02170211 58009=
201306180152 METAR KATL 180152Z 00000KT 8SM -RA SCT090 BKN110 OVC150 23/21 A2996 RMK AO2 RAB0059 PRESFR SLP137 P0011 T02280206=
201306180115 SPECI KATL 180115Z 24004KT 6SM RA BR FEW008 SCT020 BKN090 OVC150 22/21 A3002 RMK AO2 RAB0059 P0003=
201306180052 METAR KATL 180052Z 23009G16KT 10SM SCT009 BKN020 BKN080 OVC150 22/21 A3004 RMK AO2 RAE21 SLP166 FRQ LTG DSNT SE P0001 T02170206=
201306172352 METAR KATL 172352Z 36003KT 8SM -RA FEW040 BKN100 BKN150 OVC200 22/20 A3001 RMK AO2 TSE52 SLP154 OCNL LTG DSNT NE & S-SW TS DSIPTD P0010 60062 T02170200 10300 20217 51014=
201306172308 SPECI KATL 172308Z 29009KT 6SM -TSRA BR FEW030CB SCT060 BKN100 OVC150 22/20 A3002 RMK AO2 PRESRR OCNL LTGICCA SW-NW-N TS SW-NW-N MOV E P0001 $=
201306172252 METAR KATL 172252Z 30010KT 3SM +TSRA BR FEW010 SCT030CB BKN050 OVC130 22/21 A3001 RMK AO2 SLP154 OCNL LTGICCGCA SW-NW-N TS SW-NW-N MOV E P0029 T02170206=
201306172200 SPECI KATL 172200Z VRB05KT 5SM TSRA BR SCT012 BKN030CB OVC110 23/22 A3000 RMK AO2 VIS NE-SE-S 2 FRQ LTGICCG NE-SE-S TS NE-SE-S MOV E P0006=
201306172152 METAR KATL 172152Z 00000KT 2 1/2SM +TSRA BR SCT012 BKN025CB OVC050 22/21 A3002 RMK AO2 TSB19RAB2053E02B19 SLP158 VIS NE-SE-S 1 FRQ LTGICCG NE-OHD-SW TS NE-OHD-SW MOV E P0023 T02220206=
201306172119 SPECI KATL 172119Z 35015G20KT 9SM -TSRA BKN035CB BKN050 OVC150 27/22 A2996 RMK AO2 TSB19RAB2053E02B19 OCNL LTGICCG NE-SE & SW TS VC NE-SE & SW MOV E P0000=
201306172052 METAR KATL 172052Z 30005KT 10SM BKN038TCU BKN065 OVC150 29/22 A2996 RMK AO2 SLP137 CB DSNT E-SE & W-NW TCU OHD-NE-SW SHRA DSNT E-SE & W-NW 60000 T02890217 56020=
201306171952 METAR KATL 171952Z 22007KT 10SM SCT035TCU SCT090 BKN250 29/21 A2997 RMK AO2 SLP140 CB DSNT NW-N & DSNT E & DSNT SE TCU ALQDS T02940211=
201306171852 METAR KATL 171852Z VRB03KT 10SM SCT032TCU SCT080 SCT250 30/22 A3000 RMK AO2 RAB02E22 SLP149 CB DSNT N-NE & DSNT NW TCU ALQDS P0000 T03000222=
201306171805 SPECI KATL 171805Z 24007KT 10SM -RA BKN030TCU BKN075 BKN100 28/22 A3002 RMK AO2 RAB02 CB DSNT NE TCU OHD-E & ALQDS VIS LWR E SHRA P0000=
201306171752 METAR KATL 171752Z 20007KT 10SM FEW025TCU SCT040 SCT250 28/22 A3003 RMK AO2 SLP158 OCNL LTGICCG DSNT NE CB DSNT NE TCU SW-NW SHRA DSNT NE 60001 T02830217 10289 20200 58008=
201306171718 SPECI KATL 171718Z 24005KT 10SM FEW025CB BKN033TCU BKN250 28/22 A3005 RMK AO2 CB N MOV E TCU OHD & ALQDS SHRA N=
201306171652 METAR KATL 171652Z 26006KT 10SM BKN025TCU BKN035 BKN250 28/22 A3006 RMK AO2 SLP169 TCU OHD & ALQDS T02780222=
201306171552 METAR KATL 171552Z 24006KT 10SM SCT017 SCT140 SCT250 27/22 A3006 RMK AO2 SLP167 T02670217=
201306171452 METAR KATL 171452Z VRB06KT 10SM FEW012 SCT140 SCT250 25/22 A3005 RMK AO2 SLP166 60001 T02500217 58001=
201306171417 SPECI KATL 171417Z VRB04KT 10SM FEW008 SCT120 SCT140 BKN250 23/21 A3005 RMK AO2=
201306171352 METAR KATL 171352Z 19006KT 10SM FEW120 BKN140 BKN250 23/21 A3006 RMK AO2 SLP169 T02280211=
201306171252 METAR KATL 171252Z 19004KT 9SM FEW005 SCT055 SCT090 BKN130 21/20 A3006 RMK AO2 RAE22 SLP171 P0001 T02110200=
201306171245 SPECI KATL 171245Z 00000KT 9SM FEW005 SCT070 SCT090 BKN130 21/20 A3006 RMK AO2 RAE22 P0001=
201306171152 METAR KATL 171152Z 17008KT 9SM -RA FEW055 BKN110 20/19 A3005 RMK AO2 SLP167 P0005 60065 70118 T02000189 10211 20200 58006=
201306171052 METAR KATL 171052Z 22004KT 5SM RA BR SCT055 BKN070 OVC100 20/19 A3006 RMK AO2 SLP171 VIS SE-S 2 P0015 T02000189=
201306170952 METAR KATL 170952Z 22004KT 7SM RA FEW055 BKN100 OVC110 21/19 A3007 RMK AO2 TSE52 SLP173 OCNL LTG DSNT SE TS DSPTD CB DSNT SE P0014 T02060194=
201306170917 SPECI KATL 170917Z 22008KT 4SM TSRA BR FEW005 BKN050CB OVC100 21/20 A3007 RMK AO2 OCNL LTGICCA S-SW & DSNT SE TS VC S-SW MOV NE CB DSNT SE P0008=
201306170852 METAR KATL 170852Z 21006KT 4SM TSRA BR BKN005 BKN022CB OVC090 21/20 A3007 RMK AO2 TSB05 SLP173 OCNL LTGICCA S-SW TS VC S-SW MOV NE P0007 60031 T02110200 55006=
201306170813 SPECI KATL 170813Z 23004KT 5SM -TSRA BR BKN005 BKN022CB OVC090 21/20 A3007 RMK AO2 TSB05 FRQ LTGICCACG SW-W TS VC SW-W MOV NE P0004=
201306170805 SPECI KATL 170805Z 22003KT 4SM -TSRA BR SCT005 SCT022CB OVC090 21/20 A3006 RMK AO2 TSB05 FRQ LTGICCACC SW-W TS SW-W MOV NE P0004=
201306170752 METAR KATL 170752Z 13003KT 3SM RA BR FEW005 SCT065 OVC095 21/20 A3007 RMK AO2 SLP172 OCNL LTG DSNT SW-W CB DSNT SW-W P0016 T02060200=
201306170652 METAR KATL 170652Z 12004KT 4SM RA BR SCT006 BKN095 OVC110 21/19 A3007 RMK AO2 SLP174 OCNL LTG DSNT SE-SW CB DSNT SE-SW P0008 T02060194=
201306170552 METAR KATL 170552Z 07007KT 9SM -RA FEW005 SCT065 OVC110 21/20 A3009 RMK AO2 TSE29 SLP180 OCNL LTGIC DSNT SW TS MOV E-SE CB DSNT SW P0025 60053 T02060200 10283 20206 50004=
201306170529 SPECI KATL 170529Z 04007KT 7SM -RA FEW005 SCT080 BKN110 OVC150 21/20 A3009 RMK AO2 TSE29 OCNL LTGIC DSNT E-SE TS MOV E-SE P0025=
201306170504 SPECI KATL 170504Z 05008KT 3SM +TSRA BR FEW009 SCT026CB OVC045 21/20 A3009 RMK AO2 PRESFR OCNL LTGICCCCG E-S TS E-S MOV E P0019=
201306170457 SPECI KATL 170457Z 01009KT 1 1/2SM R09R/5500VP6000FT +TSRA BR FEW009 BKN022CB OVC045 21/20 A3010 RMK AO2 TWR VIS 3 P0014=
201306170452 METAR KATL 170452Z 36006KT 3SM R09R/5500VP6000FT +TSRA BR FEW009 BKN022CB OVC045 21/19 A3012 RMK AO2 WSHFT 0403 TSB02 SLP189 OCNL LTGICCCCG E-OHD-W TS E-OHD-W MOV E P0028 T02060194 403000194=
201306170421 SPECI KATL 170421Z 34017G24KT 5SM TSRA BR SCT023CB OVC042 22/20 A3011 RMK AO2 WSHFT 0403 TSB02 OCNL LTGICCG N TS N MOV E P0003=
201306170403 SPECI KATL 170403Z 33014G21KT 7SM -TSRA FEW012CB BKN042 OVC090 25/21 A3010 RMK AO2 TSB02 PRESRR FRQ LTGCGIC VC NW-N TS VC NW-N MOV E P0000=
201306170352 METAR KATL 170352Z 16003KT 8SM -RA FEW050 BKN085 OVC120 26/21 A3009 RMK AO2 RAB44 SLP178 FRQ LTG DSNT NW-N P0000 T02560206=
201306170252 METAR KATL 170252Z 16006KT 10SM SCT090 BKN180 OVC250 26/21 A3008 RMK AO2 SLP175 OCNL LTG DSNT W-NW T02610206 53010=
201306170152 METAR KATL 170152Z 16005KT 10SM FEW150 BKN220 26/21 A3007 RMK AO2 SLP172 CB DSNT NE & W-NW T02610211=
201306170052 METAR KATL 170052Z 16004KT 10SM FEW100 SCT180 BKN220 27/21 A3005 RMK AO2 SLP168 CB DSNT W-NW TCU DSNT NE T02670211=
201306162352 METAR KATL 162352Z 18006KT 10SM FEW034 SCT110 SCT220 28/20 A3005 RMK AO2 SLP166 TCU DSNT N-NE 60000 T02830200 10300 20267 55006=
201306162252 METAR KATL 162252Z 20008KT 10SM FEW034TCU SCT090 SCT250 29/19 A3004 RMK AO2 SLP164 TCU VC N & NW T02890194=
201306162152 METAR KATL 162152Z 17006KT 10SM FEW036TCU SCT090 SCT200 29/21 A3005=
201306162052 METAR KATL 162052Z 22005KT 10SM SCT035 BKN045 BKN080 30/21 A3006 RMK AO2 SLP171 CB DSNT NW TCU S-SW 60000 T03000206 56015=
201306161952 METAR KATL 161952Z 17007KT 10SM SCT030 SCT090 29/21 A3007 RMK AO2 SLP173 CB DSNT NW T02940206=
201306161852 METAR KATL 161852Z 19005KT 10SM FEW029TCU BKN060 BKN075 28/21 A3010 RMK AO2 RAB21E39 SLP181 TCU NE AND S-W P0000 T02780211=
201306161752 METAR KATL 161752Z 22008KT 10SM FEW027TCU SCT032 BKN047 28/21 A3011 RMK AO2 SLP186 TCU W-N T02830206 10283 20206 58013=
201306161652 METAR KATL 161652Z 23005KT 10SM SCT022 BKN070 BKN250 27/21 A3013 RMK AO2 SLP193 SCT022 V BKN MDT CU ALQDS T02720206=
201306161646 SPECI KATL 161646Z VRB06KT 10SM SCT022 BKN070 BKN250 27/21 A3013 RMK AO2 SCT022 V BKN MDT CU ALQDS=
201306161625 SPECI KATL 161625Z 20005KT 10SM BKN022 BKN070 BKN250 27/21 A3014 RMK AO2=
201306161552 METAR KATL 161552Z 22007KT 10SM SCT024 SCT070 SCT250 26/21 A3015 RMK AO2 SLP199 T02610206=
201306161452 METAR KATL 161452Z VRB04KT 10SM SCT020 BKN070 BKN250 25/20 A3016 RMK AO2 SLP205 T02500200 50002=
201306161352 METAR KATL 161352Z 20006KT 10SM FEW040 SCT070 SCT250 24/19 A3017 RMK AO2 SLP207 T02440194 $=
201306161252 METAR KATL 161252Z 18008KT 10SM FEW070 SCT250 22/19 A3017 RMK AO2 SLP206 T02220189 $=
201306161152 METAR KATL 161152Z 15003KT 10SM FEW070 SCT250 21/18 A3015 RMK AO2 SLP202 T02060178 10228 20194 51014 $=
201306161052 METAR KATL 161052Z 14003KT 10SM FEW250 20/17 A3014 RMK AO2 SLP197 T02000167 $=
201306160952 METAR KATL 160952Z 17004KT 10SM FEW250 19/17 A3013 RMK AO2 SLP194 T01940167 $=
201306160852 METAR KATL 160852Z 14004KT 10SM CLR 20/16 A3011 RMK AO2 SLP187 T02000161 55002 $=
201306160752 METAR KATL 160752Z 00000KT 10SM CLR 22/16 A3010 RMK AO2 SLP183 T02170156 $=
201306160652 METAR KATL 160652Z 00000KT 10SM FEW120 22/16 A3010 RMK AO2 SLP183 T02170161 $=
201306160552 METAR KATL 160552Z 00000KT 10SM CLR 22/16 A3012 RMK AO2 SLP189 T02220156 10272 20217 58001 $=
201306160452 METAR KATL 160452Z 17003KT 10SM CLR 23/15 A3012 RMK AO2 SLP191 T02280150 402890194 $=
201306160352 METAR KATL 160352Z COR 13004KT 10SM CLR 23/16 A3013 RMK AO2 SLP192 T02330156 $=
201306160252 METAR KATL 160252Z 15003KT 10SM CLR 23/16 A3012 RMK AO2 SLP190 T02330161 53009=
201306160152 METAR KATL 160152Z 15003KT 10SM CLR 24/16 A3010 RMK AO2 SLP182 T02440156=
201306160052 METAR KATL 160052Z 16005KT 10SM CLR 26/15 A3008 RMK AO2 SLP177 T02560150=
201306152352 METAR KATL 152352Z 16007KT 10SM FEW060 27/14 A3009 RMK AO2 SLP181 T02720139 10289 20272 55005=
201306152252 METAR KATL 152252Z 16004KT 10SM FEW060 SCT250 28/13 A3009 RMK AO2 SLP180 T02780133=
201306152152 METAR KATL 152152Z 17006KT 10SM FEW060 SCT250 28/14 A3010 RMK AO2 SLP182 T02780144=
201306152052 METAR KATL 152052Z 15006KT 10SM SCT065 SCT250 28/14 A3011 RMK AO2 SLP186 T02780139 56009=
201306151952 METAR KATL 151952Z 15008KT 10SM SCT060 SCT250 28/14 A3012 RMK AO2 SLP188 T02830144=
201306151852 METAR KATL 151852Z 17004G14KT 10SM SCT055 SCT250 28/14 A3012 RMK AO2 SLP188 T02780139=
201306151752 METAR KATL 151752Z 00000KT 10SM SCT050 28/15 A3014 RMK AO2 SLP195 T02780150 10278 20211 58002=
201306151652 METAR KATL 151652Z 15008KT 10SM SCT045 SCT250 28/15 A3014 RMK AO2 SLP195 T02780150=
201306151552 METAR KATL 151552Z 13007G15KT 10SM FEW040 SCT250 27/16 A3015 RMK AO2 SLP197 T02670156=
201306151452 METAR KATL 151452Z 13007KT 10SM FEW250 26/17 A3014 RMK AO2 SLP197 T02560167 50010=
201306151352 METAR KATL 151352Z 13006KT 10SM FEW250 24/17 A3014 RMK AO2 SLP198 T02440167=
201306151252 METAR KATL 151252Z 10006KT 10SM FEW250 23/16 A3012 RMK AO2 SLP190 T02280161=
201306151152 METAR KATL 151152Z 07006KT 10SM FEW070 21/16 A3011 RMK AO2 SLP186 T02110156 10228 20194 51023=
201306151052 METAR KATL 151052Z 07007KT 10SM FEW070 20/16 A3009 RMK AO2 SLP182 T02000156=
201306150952 METAR KATL 150952Z 09006KT 10SM FEW070 19/15 A3007 RMK AO2 SLP172 T01940150=
201306150852 METAR KATL 150852Z 09006KT 10SM SCT070 21/15 A3004 RMK AO2 SLP163 T02060150 50001=
201306150752 METAR KATL 150752Z 10004KT 10SM SCT070 21/15 A3004 RMK AO2 SLP163 T02110150=
201306150652 METAR KATL 150652Z 09006KT 10SM SCT070 22/16 A3004 RMK AO2 SLP164 T02170156=
201306150552 METAR KATL 150552Z 12004KT 10SM SCT070 23/15 A3004 RMK AO2 SLP161 T02330150 10283 20228 51008=
201306150452 METAR KATL 150452Z 13004KT 10SM SCT065 BKN250 24/14 A3003 RMK AO2 SLP159 T02440144 403000200=
201306150352 METAR KATL 150352Z 12005KT 10SM SCT065 BKN250 26/14 A3002 RMK AO2 SLP155 T02560139=
201306150252 METAR KATL 150252Z 00000KT 10SM BKN065 BKN250 26/15 A3001 RMK AO2 SLP152 T02560150 53019=
201306150152 METAR KATL 150152Z 11003KT 10SM BKN065 BKN250 27/13 A2999 RMK AO2 SLP145 T02670133=
201306150052 METAR KATL 150052Z 12004KT 10SM FEW060 SCT250 27/13 A2996 RMK AO2 SLP136 T02720133=
201306142352 METAR KATL 142352Z 10006KT 10SM FEW060 28/13 A2995 RMK AO2 SLP133 T02830133 10300 20272 53007=
201306142252 METAR KATL 142252Z 06007KT 10SM FEW060 29/14 A2994 RMK AO2 SLP128 T02890144=
201306142152 METAR KATL 142152Z VRB06KT 10SM FEW060 SCT250 29/13 A2993 RMK AO2 SLP125 T02890133=
201306142052 METAR KATL 142052Z 03005KT 10SM FEW060 SCT250 29/14 A2993 RMK AO2 SLP125 T02940139 56008=
201306141952 METAR KATL 141952Z 35011G15KT 10SM FEW060 SCT250 29/13 A2993 RMK AO2 SLP126 T02890133=
201306141852 METAR KATL 141852Z 34011G14KT 10SM FEW050 SCT250 28/16 A2994 RMK AO2 SLP128 T02830156=
201306141752 METAR KATL 141752Z 31005KT 10SM FEW050 SCT250 27/15 A2995 RMK AO2 SLP134 T02720150 10278 20206 50000=
201306141652 METAR KATL 141652Z 35004KT 10SM FEW040 SCT250 27/17 A2996 RMK AO2 SLP135 T02670167=
201306141552 METAR KATL 141552Z VRB03KT 10SM FEW040 SCT250 27/16 A2996 RMK AO2 SLP135 T02670161=
201306141452 METAR KATL 141452Z 04006KT 10SM FEW035 26/17 A2995 RMK AO2 SLP134 T02560167 50008=
201306141352 METAR KATL 141352Z 01008KT 10SM CLR 24/17 A2996 RMK AO2 SLP138 T02390172=
201306141252 METAR KATL 141252Z 35008KT 10SM CLR 22/18 A2995 RMK AO2 SLP133 T02220183=
201306141152 METAR KATL 141152Z 35008KT 9SM FEW012 21/18 A2993 RMK AO2 SLP124 70085 T02060183 10217 20200 53038=
201306141052 METAR KATL 141052Z 33009KT 8SM FEW250 20/18 A2990 RMK AO2 SLP115 T02000183=
201306140952 METAR KATL 140952Z 34011KT 9SM FEW250 20/19 A2988 RMK AO2 SLP083 T02000189 $=
201306140852 METAR KATL 140852Z 32009KT 9SM FEW250 21/19 A2988 RMK AO2 SLP084 T02060194 54000 $=
201306140752 METAR KATL 140752Z 31008KT 9SM FEW250 21/19 A2988 RMK AO2 SLP084 T02110194 $=
201306140652 METAR KATL 140652Z 30008KT 10SM FEW250 21/20 A2988 RMK AO2 SLP084 T02110200 $=
201306140552 METAR KATL 140552Z 27004KT 10SM FEW250 22/21 A2988 RMK AO2 SLP084 60085 T02170206 10300 20194 50000 $=
201306140452 METAR KATL 140452Z 27004KT 10SM BKN250 21/20 A2989 RMK AO2 SLP087 T02110200 403280194 $=
201306140352 METAR KATL 140352Z 29009KT 10SM SCT200 BKN250 22/20 A2988 RMK AO2 SLP084 T02170200 $=
201306140252 METAR KATL 140252Z COR 29005KT 10SM FEW150 BKN200 OVC250 21/20 A2988 RMK AO2 TSE05 SLP085 CONS LTGICCGCA DSNT SE-SW 60085 T02110200 52014 $=
201306140205 SPECI KATL 140205Z 24004KT 10SM FEW060 SCT100 BKN150 OVC200 20/19 A2988 RMK AO2 TSE05 CONS LTGICCGCA SE-SW TS MOV SE $=
201306140152 METAR KATL 140152Z 24006KT 10SM TS FEW030CB SCT060 BKN100 OVC150 19/19 A2988 RMK AO2 RAE51 SLP085 CONS LTGICCGCA SE-SW TS VC SE-SW MOV SE P0021 T01940189 $=
201306140052 METAR KATL 140052Z COR 18006KT 3SM +TSRA BR FEW008 SCT030CB BKN060 OVC150 20/19 A2989 RMK AO2 PK WND 35026/0036 TSB38RAB36 SLP089 CONS LTGICCGCA E-OHD-W TS E-OHD-W MOV SE PRESFR P0064 T02000194 $=
201306140045 SPECI KATL 140045Z 01010G25KT 1 1/2SM R09R/2000VP6000FT +TSRA BR FEW015 BKN030CB OVC060 21/19 A2994 RMK AO2 PK WND 35026/0036 TSB38RAB36 CONS LTGICCG OHD-ALQDS TS OHD-ALQDS MOV SE P0051 $=
201306140038 SPECI KATL 140038Z 02025G40KT 1/2SM +TSRA FEW015 BKN030CB OVC060 22/18 A2996 RMK AO2 PK WND 35026/0036 TSB38RAB36 CONS LTGICCG OHD-ALQDS TS OHD-ALQDS MOV SE P0011 RVRNO $=
201306140032 SPECI KATL 140032Z 36024G47KT 1SM R09R/6000VP6000FT +TSRA FEW015 BKN030CB OVC100 22/18 A2994 RMK AO2 PK WND 02047/0027 WSHFT 0016 TSB11RAB23 FRQ LTGICCG OHD-ALQDS TS OHD-ALQDS MOV SE P0000=
201306140012 SPECI KATL 140012Z 28007KT 10SM TS SCT040CB BKN100 BKN200 29/21 A2984 RMK AO2 TSB11 FRQ LTGICCG NW-NE TS VC NW-NE MOV SE=
201306132352 METAR KATL 132352Z 25009KT 10SM FEW040 SCT120 BKN200 BKN250 30/21 A2984 RMK AO2 PRESRR SLP094 FRQ LTG DSNT NW-NE T03000206 10328 20300 55004=
201306132252 METAR KATL 132252Z 25009G17KT 10SM FEW045 SCT200 BKN250 31/21 A2980 RMK AO2 SLP077 TCU DSNT NE T03110211=
201306132152 METAR KATL 132152Z 25013G23KT 10SM FEW045 SCT250 32/20 A2981 RMK AO2 SLP080 T03170200=
201306132052 METAR KATL 132052Z 26013G22KT 10SM SCT050TCU 31/21 A2986 RMK AO2 SLP098 TCU W-NW-N T03110206 56017=
201306131952 METAR KATL 131952Z 27016G23KT 10SM SCT050 32/21 A2987 RMK AO2 SLP102 T03220206=
201306131852 METAR KATL 131852Z 27015G23KT 10SM FEW050 32/21 A2988 RMK AO2 SLP107 T03170211=
201306131752 METAR KATL 131752Z 26013G20KT 10SM FEW045 32/21 A2991 RMK AO2 SLP114 T03220211 10322 20256 58016 $=
201306131652 METAR KATL 131652Z 27012G22KT 10SM FEW040 31/21 A2992 RMK AO2 SLP119 T03110206=
201306131552 METAR KATL 131552Z 27014G20KT 10SM SCT035 31/22 A2995 RMK AO2 SLP128 T03060217=
201306131452 METAR KATL 131452Z 29016G23KT 10SM FEW030 SCT250 29/22 A2996 RMK AO2 SLP131 T02940217 58006=
201306131352 METAR KATL 131352Z 28013G21KT 10SM FEW025 28/22 A2997 RMK AO2 SLP136 T02780217=
201306131252 METAR KATL 131252Z 28012G18KT 10SM CLR 27/22 A2998 RMK AO2 SLP139 T02670217=
201306131152 METAR KATL 131152Z 28010KT 10SM CLR 26/21 A2997 RMK AO2 SLP137 T02560211 10261 20239 58003=
201306131052 METAR KATL 131052Z 28008KT 9SM CLR 24/21 A2998 RMK AO2 SLP138 T02390211=
201306130952 METAR KATL 130952Z 27006KT 9SM CLR 24/22 A2998 RMK AO2 SLP140 T02390217 $=
201306130852 METAR KATL 130852Z 27005KT 9SM CLR 24/22 A2998 RMK AO2 SLP140 T02440217 56003 $=
201306130752 METAR KATL 130752Z 28007KT 9SM CLR 24/22 A2998 RMK AO2 SLP140 T02440222 $=
201306130652 METAR KATL 130652Z 27005KT 9SM CLR 25/22 A2998 RMK AO2 SLP140 T02500222 $=
201306130552 METAR KATL 130552Z 28007KT 9SM CLR 26/22 A2999 RMK AO2 SLP142 T02610222 10300 20261 58012 $=
201306130452 METAR KATL 130452Z 24005KT 10SM FEW250 26/23 A3001 RMK AO2 SLP148 T02610228 403280233 $=
201306130352 METAR KATL 130352Z 24003KT 10SM FEW250 27/23 A3001 RMK AO2 SLP151 T02670233 $=
201306130252 METAR KATL 130252Z 23004KT 10SM FEW040 SCT250 28/24 A3003 RMK AO2 SLP156 T02780239 53005 $=
201306130152 METAR KATL 130152Z 22005KT 10SM BKN045 BKN250 28/24 A3001 RMK AO2 SLP152 T02830239 $=
201306130052 METAR KATL 130052Z 25003KT 10SM FEW200 BKN250 29/23 A3001 RMK AO2 SLP150 T02940233=
201306122352 METAR KATL 122352Z 27005KT 10SM FEW030 SCT200 BKN250 30/24 A3001 RMK AO2 SLP150 60000 T03000239 10328 20300 55010=
201306122252 METAR KATL 122252Z 29008KT 10SM FEW120 SCT200 SCT250 31/23 A3001 RMK AO2 SLP151 CB DSNT NE T03110233=
201306122152 METAR KATL 122152Z 33009KT 10SM FEW030 SCT120 BKN200 32/23 A3003 RMK AO2 SLP157 TCU DSNT E-SE T03170228=
201306122052 METAR KATL 122052Z 31008KT 10SM FEW030 SCT060 BKN200 31/23 A3004 RMK AO2 TSB11E44RAE00 SLP162 OCNL LTGICCG DSNT SE TS MOV SE CB DSNT SE TCU DSNT E & W SHRA DSNT SE P0000 60000 T03060228 56013=
201306122044 SPECI KATL 122044Z 30007KT 10SM FEW030CB SCT060 BKN200 31/23 A3004 RMK AO2 TSB11E44RAE00 FRQ LTGICCG DSNT SE TS MOV SE TCU DSNT E & W SHRA DSNT SE P0000=
201306122023 SPECI KATL 122023Z 32008KT 280V350 10SM TS FEW040CB SCT060 BKN200 31/23 A3005 RMK AO2 TSB11RAE00 FRQ LTGICCG SE-S TS VC SE-S MOV SE SHRA VC SE-S P0000=
201306122011 SPECI KATL 122011Z 31008KT 10SM TS FEW040CB SCT060 BKN200 31/23 A3004 RMK AO2 TSB11RAE00 FRQ LTGICCG S TS S MOV SE SHRA S P0000=
201306122007 SPECI KATL 122007Z 32010KT 10SM FEW040CB BKN200 BKN250 32/23 A3004 RMK AO2 RAE00 CB E MOV SE CB DSNT SE-S TCU DSNT NW SHRA E & DSNT SE-S P0000=
201306121952 METAR KATL 121952Z 34010KT 10SM -RA FEW035CB SCT045TCU BKN250 33/23 A3005 RMK AO2 RAE14B50 SLP164 CB N MOV SE CB DSNT SE & NW TCU N-NE & S-SW-W SHRA N & DSNT SE & NW P0000 T03280228=
201306121858 SPECI KATL 121858Z 29007KT 10SM -RA FEW040CB SCT045TCU BKN095 BKN250 31/23 A3007 RMK AO2 CB OHD-E MOV SE CB DSNT NW TCU NE-E & S-SW & NW SHRA E & DSNT NW P0000=
201306121852 METAR KATL 121852Z 32006KT 9SM -RA SCT040CB BKN045TCU BKN250 32/22 A3007 RMK AO2 RAB50 SLP170 CB OHD-E MOV SE CB DSNT NW TCU N-NE-E & W-NW P0000 T03170222=
201306121850 SPECI KATL 121850Z 31006KT 8SM -RA SCT040CB BKN045TCU BKN250 32/22 A3007 RMK AO2 RAB50 CB OHD-E MOV SE TCU N-NE-E & W-NW P0000=
201306121752 METAR KATL 121752Z 29007KT 10SM SCT040TCU SCT250 32/23 A3008 RMK AO2 SLP174 TCU N-NE & W-NW T03220228 10328 20250 50000=
201306121652 METAR KATL 121652Z 33006KT 10SM SCT037TCU SCT250 32/23 A3009 RMK AO2 SLP177 TCU NE-E T03170228=
201306121552 METAR KATL 121552Z 29010KT 10SM FEW030 SCT200 SCT250 31/23 A3009 RMK AO2 SLP178 T03060228=
201306121452 METAR KATL 121452Z 31011G17KT 10SM FEW025 SCT200 SCT250 30/23 A3008 RMK AO2 SLP174 T03000233 51008=
201306121352 METAR KATL 121352Z 31008KT 10SM SCT250 29/23 A3008 RMK AO2 SLP174 T02890233=
201306121252 METAR KATL 121252Z 31011KT 10SM BKN250 27/23 A3008 RMK AO2 SLP173 T02670228=
201306121152 METAR KATL 121152Z 31008KT 10SM BKN250 25/22 A3006 RMK AO2 SLP166 T02500222 10250 20233 51010=
201306121052 METAR KATL 121052Z 29005KT 9SM BKN250 23/22 A3005 RMK AO2 SLP166 T02330217=
201306120952 METAR KATL 120952Z 28005KT 10SM BKN250 23/22 A3004 RMK AO2 SLP159 T02330217=
201306120852 METAR KATL 120852Z 29005KT 10SM BKN250 24/22 A3003 RMK AO2 SLP156 T02390217 56007=
201306120752 METAR KATL 120752Z 28004KT 10SM FEW250 24/22 A3003 RMK AO2 SLP156 T02390217=
201306120652 METAR KATL 120652Z 26006KT 10SM SCT250 24/22 A3003 RMK AO2 SLP157 T02440222=
201306120552 METAR KATL 120552Z 00000KT 10SM SCT250 25/22 A3005 RMK AO2 SLP163 T02500222 10300 20250 50003=
201306120452 METAR KATL 120452Z 27004KT 10SM BKN250 26/22 A3006 RMK AO2 SLP166 T02560222 403220217=
201306120352 METAR KATL 120352Z 27005KT 10SM SCT250 26/22 A3005 RMK AO2 SLP164 T02610222=
201306120252 METAR KATL 120252Z 27006KT 10SM FEW045 27/22 A3004 RMK AO2 SLP161 T02670222 53013=
201306120152 METAR KATL 120152Z 27006KT 10SM FEW045 27/22 A3002 RMK AO2 SLP156 T02720222=
201306120052 METAR KATL 120052Z 27006KT 10SM FEW045 28/22 A3001 RMK AO2 SLP151 TCU DSNT NW T02830217=
201306112352 METAR KATL 112352Z 28008KT 10SM FEW045 30/22 A3000 RMK AO2 SLP148 TCU DSNT NE & SE T03000217 10322 20294 55004=
201306112252 METAR KATL 112252Z 27008KT 10SM FEW045 31/21 A2999 RMK AO2 SLP145 T03110211=
201306112152 METAR KATL 112152Z 28007KT 10SM FEW045TCU SCT080 32/22 A3000 RMK AO2 SLP149 TCU OHD-N T03170217=
201306112052 METAR KATL 112052Z 29012KT 10SM FEW045TCU 32/21 A3001 RMK AO2 SLP152 TCU N T03170211 56012=
201306111952 METAR KATL 111952Z 26010KT 10SM FEW042 SCT250 32/21 A3002 RMK AO2 SLP156 TCU DSNT NE & S & NW T03170211=
201306111852 METAR KATL 111852Z 27008G15KT 10SM SCT038TCU 31/22 A3004 RMK AO2 SLP160 TCU E & S & NW T03110222=
201306111752 METAR KATL 111752Z 27011KT 10SM SCT032TCU 30/22 A3005 RMK AO2 SLP165 TCU N-NE & NW T03000222 10306 20233 58007=
201306111652 METAR KATL 111652Z 25008G15KT 10SM SCT030 30/22 A3006 RMK AO2 SLP168 TCU DSNT NW-N T03000222=
201306111552 METAR KATL 111552Z 27013KT 10SM SCT025 28/22 A3007 RMK AO2 SLP174 T02830222=
201306111452 METAR KATL 111452Z 27009KT 10SM FEW020 28/21 A3007 RMK AO2 SLP173 T02780211 50005 PNO $=
201306111352 METAR KATL 111352Z 27010G16KT 10SM FEW016 SCT090 27/22 A3008 RMK AO2 SLP177 T02670222=
201306111252 METAR KATL 111252Z 26010KT 9SM FEW009 SCT090 25/22 A3007 RMK AO2 SLP172 T02500217=
201306111152 METAR KATL 111152Z 26009KT 7SM SCT009 BKN090 23/22 A3006 RMK AO2 SLP169 70057 T02330217 10233 20217 51010=
201306111052 METAR KATL 111052Z 25009KT 6SM BR BKN009 BKN090 23/22 A3005 RMK AO2 SLP167 T02330217=
201306110952 METAR KATL 110952Z 24007KT 7SM BKN009 OVC090 23/22 A3004 RMK AO2 SLP162 CIG 007V012 T02280217=
201306110852 METAR KATL 110852Z COR 26008KT 7SM BKN009 OVC090 23/21 A3002 RMK AO2 SLP159 CIG 007V012 T02280211 55004=
201306110752 METAR KATL 110752Z 25007KT 7SM BKN007 OVC080 23/22 A3002 RMK AO2 SLP159 CIG 005V010 T02280217=
201306110731 SPECI KATL 110731Z 23008KT 7SM BKN006 OVC010 23/22 A3002 RMK AO2 CIG 003V007=
201306110652 METAR KATL 110652Z 22007KT 7SM OVC004 22/21 A3003 RMK AO2 SLP161 T02220211=
201306110552 METAR KATL 110552Z 23008KT 7SM BKN004 22/21 A3004 RMK AO2 SLP164 T02170211 10244 20217 50005=
201306110500 SPECI KATL 110500Z 22006KT 10SM BKN006 22/21 A3004 RMK AO2=
201306110452 METAR KATL 110452Z 22007KT 10SM SCT007 22/21 A3004 RMK AO2 SLP165 T02170206 402560206=
201306110352 METAR KATL 110352Z 22007KT 10SM FEW010 22/21 A3004 RMK AO2 SLP164 T02170206=
201306110252 METAR KATL 110252Z 21006KT 10SM FEW010 22/21 A3002 RMK AO2 SLP159 T02170206 53014=
201306110152 METAR KATL 110152Z 22005KT 10SM FEW250 22/21 A3001 RMK AO2 SLP153 T02220206=
201306110052 METAR KATL 110052Z 21008KT 10SM FEW012 SCT250 23/21 A2998 RMK AO2 SLP144 T02330206=
201306102352 METAR KATL 102352Z 22006KT 10SM FEW012 SCT250 24/21 A2998 RMK AO2 SLP144 60049 T02440211 10250 20206 56012=
201306102311 SPECI KATL 102311Z 21008KT 10SM FEW012 SCT020 BKN250 24/21 A2998 RMK AO2=
201306102252 METAR KATL 102252Z 20010KT 10SM FEW012 BKN020 BKN250 25/21 A2999 RMK AO2 SLP145 T02500211=
201306102224 SPECI KATL 102224Z 20008KT 10SM FEW012 BKN020 BKN200 24/21 A3000 RMK AO2=
201306102152 METAR KATL 102152Z 19007KT 10SM FEW010 BKN200 BKN250 24/21 A3000 RMK AO2 SLP152 T02390211=
201306102052 METAR KATL 102052Z 24004KT 10SM FEW010 SCT110 BKN250 23/21 A3002 RMK AO2 RAE26 SLP157 P0002 60049 T02280206 58009=
201306101952 METAR KATL 101952Z 23007KT 7SM -RA FEW010 BKN070 OVC090 21/20 A3003 RMK AO2 TSB06E46 SLP163 TS MOV E CB DSNT E P0039 T02110200=
201306101928 SPECI KATL 101928Z 25009KT 4SM R09R/6000VP6000FT -TSRA BR FEW010CB BKN035 OVC055 22/20 A3005 RMK AO2 TSB06 OCNL LTGIC E-SW TS VC E-SW MOV E P0026=
201306101906 SPECI KATL 101906Z 29006KT 6SM R09R/3000VP6000FT -TSRA FEW010CB BKN030 OVC050 22/21 A3004 RMK AO2 TSB06 OCNL LTGIC SE & SW TS VC SE & SW MOV E P0023=
201306101852 METAR KATL 101852Z 26006KT 7SM R09R/4000VP6000FT -RA FEW006 BKN030 OVC070 22/21 A3005 RMK AO2 SLP168 P0008 T02170206=
201306101752 METAR KATL 101752Z 28007KT 9SM -RA FEW010CB BKN030 BKN040 23/21 A3005 RMK AO2 RAB01 SLP166 VIS LWR E-SE SHRA CB E-SE MOV E P0004 60008 T02280211 10256 20217 56001=
201306101720 SPECI KATL 101720Z 31011G18KT 8SM -RA FEW010CB BKN050 BKN070 23/20 A3004 RMK AO2 RAB01 VIS LWR E-S & W SHRA CB E-S & W MOV E P0001=
201306101652 METAR KATL 101652Z 31013KT 9SM FEW020CB BKN030TCU BKN080 23/19 A3005 RMK AO2 WSHFT 1632 RAB25E42 SLP166 CB E MOV E CB DSNT N & W TCU OHD-NE-SE SHRA E & DSNT N & W P0000 T02330189=
201306101631 SPECI KATL 101631Z 30007KT 270V330 9SM -RA FEW023CB BKN040 OVC055 25/21 A3005 RMK AO2 RAB25 VIS LWR E-S SHRA CB E-S MOV E P0000=
201306101552 METAR KATL 101552Z 24008KT 10SM FEW015 SCT020 SCT030 25/22 A3005 RMK AO2 RAE27 SLP166 CB DSNT S & NW TCU DSNT NE & SE P0000 T02500217=
201306101457 SPECI KATL 101457Z 22008KT 8SM -RA BKN014 BKN020 BKN030 23/22 A3005 RMK AO2 P0000=
201306101452 METAR KATL 101452Z 22008G15KT 9SM -RA BKN015 BKN020 BKN030 23/22 A3005 RMK AO2 RAB1355E23B48 SLP167 SHRA NW P0004 60004 T02330217 50002=
201306101358 SPECI KATL 101358Z 21010KT 6SM -RA BR FEW010 BKN012 OVC015 23/21 A3004 RMK AO2 RAB55 P0000=
201306101352 METAR KATL 101352Z 21011KT 10SM BKN010 BKN012 OVC015 23/21 A3004 RMK AO2 SLP165 SHRA SW-W T02280206=
201306101252 METAR KATL 101252Z 21009KT 7SM OVC008 22/21 A3004 RMK AO2 RAB40E50 SLP165 CIG 006V010 P0000 T02170206=
201306101152 METAR KATL 101152Z 21008KT 8SM OVC009 22/20 A3004 RMK AO2 RAB1054E03 SLP162 P0000 60000 70081 T02170200 10217 20206 50005=
201306101142 SPECI KATL 101142Z 21007KT 7SM OVC090 22/21 A3004 RMK AO2 RAB1054E03 P0000=
201306101052 METAR KATL 101052Z 21008KT 7SM OVC007 21/20 A3004 RMK AO2 CIG 006V010 SLP163 T02110200=
201306100952 METAR KATL 100952Z 20009KT 8SM OVC009 21/20 A3002 RMK AO2 CIG 007V014 SLP157 T02110200=
201306100852 METAR KATL 100852Z 20005KT 8SM OVC009 21/20 A3002 RMK AO2 RAB14E28 CIG 007V012 SLP157 P0000 60000 T02110200 56009=
201306100758 SPECI KATL 100758Z 22007KT 10SM BKN009 OVC014 21/19 A3003 RMK AO2=
201306100752 METAR KATL 100752Z 21009KT 10SM SCT007 OVC011 21/19 A3003 RMK AO2 SLP160 T02110194=
201306100701 SPECI KATL 100701Z 21009KT 10SM SCT007 BKN013 BKN018 21/19 A3003 RMK AO2=
201306100652 METAR KATL 100652Z 21007KT 10SM FEW007 SCT013 SCT035 SCT180 21/19 A3003 RMK AO2 SLP162 T02060194=
201306100552 METAR KATL 100552Z 20007KT 10SM FEW007 SCT032 SCT070 BKN180 21/19 A3005 RMK AO2 SLP167 60007 T02110194 10244 20211 50004=
201306100452 METAR KATL 100452Z 19009KT 10SM FEW006 SCT038 BKN170 BKN230 22/21 A3006 RMK AO2 SLP170 T02170206 402670211=
201306100352 METAR KATL 100352Z 19007KT 9SM FEW007 SCT050 OVC130 22/21 A3005 RMK AO2 SLP168 T02170206=
201306100252 METAR KATL 100252Z 16005KT 10SM BKN120 OVC200 22/20 A3004 RMK AO2 RAE19 SLP163 OCNL LTG DSNT E CB DSNT NE-E P0001 60007 T02170200 56001=
201306100208 SPECI KATL 100208Z 18006KT 7SM -RA FEW009CB SCT060 OVC090 22/21 A3004 RMK AO2 CB NE & DSNT SE MOV NE P0001=
201306100152 METAR KATL 100152Z 18008KT 4SM RA BR FEW018CB BKN065 OVC100 22/21 A3004 RMK AO2 SLP163 VIS E 2 CB E & DSNT SE MOV NE P0006 T02170211=
201306100052 METAR KATL 100052Z COR 26004KT 9SM -RA FEW024TCU BKN065 BKN100 OVC180 23/20 A3004 RMK AO2 RAB33 SLP163 CB DSNT SE & S TCU SW-NW-N P0000 T02280200=
201306092352 METAR KATL 092352Z 20005KT 10SM FEW031TCU SCT065 BKN130 OVC200 24/21 A3004 RMK AO2 SLP165 CB DSNT NE & SE & SW TCU VC NE 60000 T02440206 10267 20239 53005=
201306092252 METAR KATL 092252Z 21006KT 10SM FEW026TCU SCT060 BKN130 OVC220 25/20 A3003 RMK AO2 SLP159 TCU VC E & S T02500200=
201306092152 METAR KATL 092152Z 20011G16KT 10SM FEW028 BKN090 OVC220 26/20 A3002 RMK AO2 SLP157 CB DSNT N TCU DSNT ALQDS T02560200=
201306092052 METAR KATL 092052Z 18009KT 10SM FEW025 SCT060 BKN100 OVC250 25/22 A3003 RMK AO2 RAB20E31 SLP160 CB DSNT SW AND N P0000 60000 T02500217 58015=
201306091952 METAR KATL 091952Z 18007KT 10SM SCT025TCU BKN060 OVC090 26/22 A3005 RMK AO2 RAE1857B17E28 SLP166 CB DSNT SW TCU E P0000 T02560217=
201306091852 METAR KATL 091852Z 20008KT 3SM -RA BKN032 OVC080 25/22 A3006 RMK AO2 RAB36 SLP171 P0000 T02500217=
201306091752 METAR KATL 091752Z 20006KT 10SM FEW025 BKN100 BKN250 26/22 A3008 RMK AO2 RAE1658 SLP176 CB DSNT N TCU DSNT N-NE-E P0000 60074 T02560222 10261 20217 58013=
201306091652 METAR KATL 091652Z 26004KT 4SM -RA BR FEW028 BKN040CB BKN080 BKN250 23/21 A3011 RMK AO2 SLP187 CB NW-N MOV N P0073 T02280211=
201306091628 SPECI KATL 091628Z 22008KT 2SM R09R/6000VP6000FT +RA BR FEW012 BKN032CB OVC050 22/21 A3013 RMK AO2 CB W-NW MOV N P0060=
201306091609 SPECI KATL 091609Z VRB03KT 2SM R09R/3000VP6000FT +RA BR FEW012 BKN024CB OVC040 22/20 A3012 RMK AO2 CB SW-W-NW MOV N P0034=
201306091559 SPECI KATL 091559Z 00000KT 1/2SM R09R/2400VP6000FT +RA FG BKN014CB OVC040 22/21 A3012 RMK AO2 CB S-SW-W MOV N P0016=
201306091552 METAR KATL 091552Z 19008KT 1 3/4SM R09R/3500VP6000FT +RA BR BKN026CB BKN055 OVC100 24/22 A3012 RMK AO2 RAB47 SLP191 CB S-SW-W MOV N P0001 T02390217=
201306091522 SPECI KATL 091522Z 20006KT 10SM BKN026 BKN090 BKN250 26/21 A3012 RMK AO2 CB DSNT SW=
201306091452 METAR KATL 091452Z 17007KT 10SM SCT020 BKN150 BKN250 26/21 A3011 RMK AO2 SLP188 CB DSNT SW T02610206 50001=
201306091439 SPECI KATL 091439Z 16007KT 10SM BKN020 BKN250 26/21 A3012 RMK AO2=
201306091352 METAR KATL 091352Z 19004KT 10SM FEW017 BKN150 BKN250 24/21 A3012 RMK AO2 SLP190 T02440206=
201306091252 METAR KATL 091252Z 15004KT 9SM FEW015 SCT220 BKN250 23/20 A3012 RMK AO2 SLP189 T02330200=
201306091152 METAR KATL 091152Z 15005KT 7SM FEW150 SCT220 BKN250 22/20 A3011 RMK AO2 SLP187 T02170200 10233 20211 51007=
201306091052 METAR KATL 091052Z 00000KT 7SM FEW150 SCT220 BKN250 21/20 A3011 RMK AO2 SLP187 T02110200=
201306090952 METAR KATL 090952Z 21003KT 9SM FEW180 BKN250 21/20 A3010 RMK AO2 SLP183 T02110200=
201306090852 METAR KATL 090852Z 14003KT 8SM SCT180 BKN250 22/20 A3009 RMK AO2 SLP179 T02220200 53000=
201306090752 METAR KATL 090752Z 00000KT 10SM FEW150 SCT220 BKN250 22/20 A3008 RMK AO2 SLP177 T02220200=
201306090652 METAR KATL 090652Z 14003KT 10SM FEW150 BKN220 OVC250 23/20 A3008 RMK AO2 SLP176 T02330200=
201306090552 METAR KATL 090552Z 15004KT 10SM SCT150 BKN250 23/20 A3009 RMK AO2 SLP179 T02330200 10261 20233 50000=
201306090452 METAR KATL 090452Z 00000KT 9SM SCT180 BKN220 23/20 A3010 RMK AO2 SLP181 T02330200 402830194=
201306090352 METAR KATL 090352Z 16005KT 9SM SCT180 BKN220 24/20 A3010 RMK AO2 SLP183 T02390200=
201306090252 METAR KATL 090252Z 15006KT 9SM SCT180 BKN220 24/20 A3009 RMK AO2 SLP179 T02440200 53014=
201306090152 METAR KATL 090152Z 15004KT 9SM SCT180 OVC220 25/19 A3007 RMK AO2 SLP175 T02500194=
201306090052 METAR KATL 090052Z 00000KT 9SM FEW035 SCT180 OVC220 26/19 A3005 RMK AO2 SLP168 T02560194=
201306082352 METAR KATL 082352Z 19005KT 10SM FEW036TCU SCT090 BKN220 26/19 A3004 RMK AO2 SLP165 TCU VC E & S T02610194 10283 20261 53009=
201306082252 METAR KATL 082252Z 00000KT 10SM SCT038TCU BKN090 BKN250 27/18 A3002 RMK AO2 SLP157 TCU OHD-E-S-SW T02670183=
201306082152 METAR KATL 082152Z VRB03KT 10SM SCT037TCU SCT075 BKN250 28/18 A3001 RMK AO2 SLP153 TCU E-S-SW T02830183=
201306082052 METAR KATL 082052Z 23006KT 10SM SCT038TCU BKN090 BKN250 27/18 A3002 RMK AO2 SLP155 TCU E T02720183 58006=
201306081952 METAR KATL 081952Z 20008KT 10SM SCT035TCU BKN090 BKN250 26/18 A3003 RMK AO2 SLP160 TCU W-N-E T02610183=
201306081852 METAR KATL 081852Z 22007KT 9SM SCT040 BKN100 BKN250 27/18 A3004 RMK AO2 SLP162 T02670183=
201306081752 METAR KATL 081752Z 26005KT 10SM BKN032 BKN080 BKN250 26/18 A3004 RMK AO2 SLP163 T02610183 10272 20200 50001=
201306081652 METAR KATL 081652Z 23005KT 10SM BKN040 BKN250 26/18 A3004 RMK AO2 SLP164 T02610183=
201306081609 SPECI KATL 081609Z VRB03KT 9SM SCT027 BKN070 BKN250 25/18 A3005 RMK AO2=
201306081552 METAR KATL 081552Z 00000KT 9SM BKN028 BKN250 24/18 A3005 RMK AO2 SLP167 T02440178=
201306081519 SPECI KATL 081519Z 23006KT 9SM BKN020 BKN250 24/18 A3004 RMK AO2=
201306081452 METAR KATL 081452Z VRB03KT 7SM SCT018 BKN250 24/19 A3003 RMK AO2 SLP162 T02390189 51016=
201306081402 SPECI KATL 081402Z VRB03KT 6SM HZ SCT012 BKN100 22/18 A3003 RMK AO2=
201306081352 METAR KATL 081352Z 00000KT 6SM BR BKN012 BKN080 22/18 A3003 RMK AO2 SLP160 T02170183=
201306081337 SPECI KATL 081337Z 26004KT 6SM BR BKN010 BKN080 21/18 A3003 RMK AO2=
201306081252 METAR KATL 081252Z 25004KT 5SM BR OVC009 21/18 A3000 RMK AO2 SLP151 BINOVC T02060183=
201306081218 SPECI KATL 081218Z 25005KT 5SM BR BKN009 OVC012 20/18 A2999 RMK AO2=
201306081202 SPECI KATL 081202Z 24005KT 5SM BR FEW009 OVC012 20/18 A2999 RMK AO2=
201306081152 METAR KATL 081152Z 24005KT 5SM BR BKN009 OVC012 20/18 A2998 RMK AO2 SLP146 70001 T02000178 10200 20194 53022=
201306081052 METAR KATL 081052Z 26004KT 5SM BR OVC009 19/18 A2995 RMK AO2 SLP137 CIG 008V012 T01940178=
201306080952 METAR KATL 080952Z 26004KT 6SM BR OVC008 19/18 A2993 RMK AO2 SLP130 T01940178=
201306080852 METAR KATL 080852Z 28006KT 5SM BR OVC006 19/18 A2992 RMK AO2 SLP121 T01940183 53008=
201306080752 METAR KATL 080752Z 26006KT 4SM BR OVC005 19/18 A2991 RMK AO2 CIG 005V010 SLP119 T01940183=
201306080652 METAR KATL 080652Z 26004KT 5SM BR OVC005 19/18 A2990 RMK AO2 SLP114 T01940183=
201306080649 SPECI KATL 080649Z 26004KT 5SM BR OVC005 19/18 A2990 RMK AO2=
201306080552 METAR KATL 080552Z 27005KT 4SM BR OVC004 19/19 A2989 RMK AO2 SLP113 T01940189 10217 20194 50004=
201306080550 SPECI KATL 080550Z 27005KT 4SM BR OVC004 19/19 A2989 RMK AO2=
201306080452 METAR KATL 080452Z 29008KT 8SM OVC005 20/19 A2989 RMK AO2 SLP113 T02000189 402830200=
201306080417 SPECI KATL 080417Z 28008KT 10SM BKN006 OVC015 20/19 A2990 RMK AO2 BINOVC=
201306080406 SPECI KATL 080406Z 28006KT 10SM FEW008 BKN015 20/19 A2990 RMK AO2=
201306080352 METAR KATL 080352Z 27005KT 10SM FEW009 20/19 A2989 RMK AO2 SLP112 T02000189=
201306080252 METAR KATL 080252Z 27005KT 10SM FEW008 SCT015 BKN110 BKN200 21/19 A2988 RMK AO2 SLP110 T02060189 52024=
201306080152 METAR KATL 080152Z 25003KT 10SM FEW009 BKN080 BKN120 OVC150 21/19 A2986 RMK AO2 SLP104 T02110189=
201306080052 METAR KATL 080052Z 31007KT 10SM FEW008 BKN100 BKN150 OVC200 21/19 A2983 RMK AO2 SLP093 T02110194=
201306072352 METAR KATL 072352Z 25003KT 10SM FEW080 SCT120 BKN150 OVC200 22/19 A2981 RMK AO2 RAB2253E35 SLP087 P0000 60001 T02170194 10283 20211 50013=
201306072252 METAR KATL 072252Z 28009KT 10SM SCT010 BKN080 BKN120 BKN200 22/19 A2982 RMK AO2 TSE00RAE04 SLP089 P0000 T02170189=
201306072202 SPECI KATL 072202Z 32012KT 10SM -RA FEW010 BKN070 BKN090 BKN250 22/19 A2980 RMK AO2 TSE00 TS MOV NE CB DSNT NE-E P0000=
201306072152 METAR KATL 072152Z 31015G21KT 10SM -TSRA FEW010CB BKN060 BKN090 BKN250 22/19 A2980 RMK AO2 PK WND 31028/2121 TSB46RAB40 SLP084 OCNL LTGICCG E-SE TS VC E-SE MOV NE P0000 T02170194=
201306072146 SPECI KATL 072146Z 30015G25KT 9SM -TSRA FEW020CB BKN050 BKN090 BKN250 22/19 A2980 RMK AO2 PK WND 31028/2121 TSB46RAB40 OCNL LTGICCG E-SE TS VC E-SE MOV NE P0000=
201306072134 SPECI KATL 072134Z 29019G27KT 10SM FEW020CB BKN050 BKN100 23/18 A2980 RMK AO2 PK WND 31028/2121 CB N MOV NE CB DSNT E & DSNT S SHRA N & DSNT E & DSNT S=
201306072120 SPECI KATL 072120Z 31017G23KT 10SM SCT025CB BKN035TCU BKN100 24/18 A2980 RMK AO2 PK WND 26026/2103 PRESRR CB N-NE-E & SW-W-NW MOV E TCU OHD & ALQDS SHRA N-NE-E & SW-W-NW=
201306072052 METAR KATL 072052Z 28009KT 10SM SCT030TCU BKN100 BKN250 27/21 A2977 RMK AO2 RAE00 SLP071 CB DSNT E & DSNT W-NW-N TCU E & S & W SHRA DSNT E & DSNT W-NW-N P0000 60001 T02720206 55006=
201306071952 METAR KATL 071952Z 29006G14KT 10SM -RA FEW020CB BKN030TCU BKN100 BKN250 26/21 A2977 RMK AO2 RAE23B51 SLP070 CB N-NE-E MOV NE CB DSNT NW TCU OHD-SW SHRA N-NE-E P0001 T02610211=
201306071908 SPECI KATL 071908Z 25005KT 10SM -RA SCT030CB BKN060 BKN080 BKN250 26/21 A2977 RMK AO2 CB E & W & NW MOV E TCU DSNT S SHRA E & W & NW P0001=
201306071852 METAR KATL 071852Z 22006KT 9SM -RA FEW030CB BKN035TCU BKN150 BKN250 27/21 A2977 RMK AO2 RAB48 SLP072 CB SW-W MOV E TCU OHD-S & NW SHRA SW-W P0000 T02670206=
201306071752 METAR KATL 071752Z 25007KT 10SM SCT028TCU SCT150 BKN250 28/20 A2979 RMK AO2 SLP078 TCU N-NE & SW-NW T02780200 10278 20206 50000=
201306071652 METAR KATL 071652Z 28008KT 10SM FEW024 BKN150 BKN250 27/20 A2980 RMK AO2 SLP080 T02720200=
201306071552 METAR KATL 071552Z 26007KT 10SM FEW023 BKN150 BKN250 26/21 A2980 RMK AO2 SLP081 T02610206=
201306071452 METAR KATL 071452Z 27006KT 10SM FEW020 BKN150 BKN250 25/21 A2979 RMK AO2 SLP078 T02500206 51010=
201306071359 SPECI KATL 071359Z VRB05KT 8SM FEW010 SCT012 BKN250 24/20 A2978 RMK AO2=
201306071352 METAR KATL 071352Z 29006KT 7SM BKN010 BKN012 BKN250 24/21 A2978 RMK AO2 SLP075 T02390206=
201306071324 SPECI KATL 071324Z 30007KT 6SM HZ FEW008 BKN010 BKN250 23/20 A2978 RMK AO2=
201306071321 SPECI KATL 071321Z 28007KT 2 1/2SM HZ BKN008 BKN010 BKN250 23/20 A2978 RMK AO2 SFC VIS 6=
201306071252 METAR KATL 071252Z 27006KT 2 1/2SM BR OVC005 22/20 A2977 RMK AO2 SFC VIS 4 SLP072 T02170200=
201306071244 SPECI KATL 071244Z 25004KT 2 1/2SM BR OVC004 22/21 A2977 RMK AO2 SFC VIS 4 BINOVC=
201306071200 SPECI KATL 071200Z 25006KT 1 1/2SM BR BKN003 OVC009 21/20 A2976 RMK AO2 SFC VIS 3=
201306071152 METAR KATL 071152Z 24005KT 6SM BR BKN005 BKN009 BKN220 21/20 A2976 RMK AO2 SLP068 T02110200 10217 20200 53011=
201306071113 SPECI KATL 071113Z 26003KT 10SM FEW005 BKN009 BKN220 21/19 A2975 RMK AO2=
201306071052 METAR KATL 071052Z 30004KT 10SM FEW005 BKN011 OVC022 21/19 A2975 RMK AO2 SLP064 T02060194=
201306070952 METAR KATL 070952Z 00000KT 9SM FEW004 BKN019 BKN220 21/19 A2973 RMK AO2 SLP057 VIS LWR W-NW T02060194=
201306070907 SPECI KATL 070907Z 29004KT 10SM BKN028 BKN220 20/19 A2973 RMK AO2=
201306070852 METAR KATL 070852Z 30003KT 10SM FEW005 SCT031 BKN220 21/19 A2972 RMK AO2 SLP056 T02060194 55013=
201306070752 METAR KATL 070752Z 03003KT 10SM FEW007 SCT025 BKN190 BKN250 21/19 A2972 RMK AO2 SLP054 T02110194=
201306070737 SPECI KATL 070737Z 03003KT 10SM FEW007 BKN190 BKN250 21/19 A2972 RMK AO2=
201306070652 METAR KATL 070652Z 04003KT 10SM FEW060 BKN170 BKN250 21/19 A2973 RMK AO2 SLP060 T02110194=
201306070552 METAR KATL 070552Z 00000KT 10SM FEW008 SCT037 OVC180 21/19 A2976 RMK AO2 SLP070 T02110194 10228 20211 58013=
201306070452 METAR KATL 070452Z 00000KT 10SM SCT008 BKN060 OVC200 21/19 A2978 RMK AO2 SLP076 T02110194 402500206=
201306070424 SPECI KATL 070424Z 00000KT 10SM SCT008 BKN050 OVC200 21/19 A2979 RMK AO2=
201306070352 METAR KATL 070352Z 00000KT 10SM BKN008 BKN050 OVC200 21/19 A2980 RMK AO2 SLP082 T02110194=
201306070252 METAR KATL 070252Z 12004KT 10SM BKN008 BKN080 OVC200 21/19 A2980 RMK AO2 SLP083 T02110194 53006 $=
201306070221 SPECI KATL 070221Z 10004KT 10SM SCT008 BKN150 OVC200 21/19 A2979 RMK AO2=
201306070152 METAR KATL 070152Z 13003KT 10SM BKN008 BKN150 OVC200 22/20 A2978 RMK AO2 SLP077 T02170200=
201306070147 SPECI KATL 070147Z 13004KT 10SM BKN008 BKN150 OVC200 22/20 A2978 RMK AO2=
201306070130 SPECI KATL 070130Z 10005KT 10SM FEW008 BKN200 OVC250 22/20 A2977 RMK AO2=
201306070052 METAR KATL 070052Z 11003KT 10SM FEW020 SCT150 BKN200 OVC250 22/20 A2977 RMK AO2 SLP074 T02220200=
201306062352 METAR KATL 062352Z 13006KT 10SM FEW020 SCT110 BKN150 OVC200 23/20 A2978 RMK AO2 SLP077 TCU DSNT N-NE & SW-W 60000 T02280200 10244 20228 56011=
201306062252 METAR KATL 062252Z 15004KT 10SM SCT020TCU BKN110 BKN150 OVC200 24/20 A2979 RMK AO2 SLP079 TCU E-S & W-NW T02440200=
201306062152 METAR KATL 062152Z 00000KT 10SM FEW015 SCT110 BKN150 OVC200 24/19 A2980 RMK AO2 SLP083 TCU DSNT NE-SE-S & W-NW T02440194=
201306062052 METAR KATL 062052Z 15006KT 10SM FEW015 BKN100 BKN150 OVC250 24/20 A2982 RMK AO2 SLP088 TCU DSNT E-S & W-NW 60000 T02390200 56018=
201306061952 METAR KATL 061952Z 17007KT 10SM FEW015 SCT090 BKN120 OVC250 24/20 A2984 RMK AO2 SLP095 TCU DSNT W T02390200=
201306061852 METAR KATL 061852Z 17007KT 10SM FEW015 BKN040 BKN120 OVC250 24/20 A2985 RMK AO2 RAB1754E14 SLP099 TCU DSNT SW-NW P0000 T02390200=
201306061752 METAR KATL 061752Z 17008KT 10SM FEW018 BKN027TCU BKN110 OVC250 24/21 A2987 RMK AO2 SLP106 CB DSNT NE SHRA DSNT NE TCU OHD-N-NE & SW-NW 60000 T02390206 10250 20206 58002=
201306061750 SPECI KATL 061750Z 17009KT 10SM FEW018 BKN025TCU BKN110 OVC250 24/21 A2987 RMK AO2 CB DSNT NE SHRA DSNT NE TCU OHD-N-NE & SW-NW=
201306061652 METAR KATL 061652Z VRB04KT 10SM FEW020 SCT025 BKN110 OVC250 24/20 A2988 RMK AO2 SLP108 TCU DSNT NE-S SHRA DSNT NE-S T02440200=
201306061650 SPECI KATL 061650Z 18004KT 10SM FEW020 SCT025 BKN110 OVC250 24/20 A2988 RMK AO2 TCU DSNT NE-S SHRA DSNT NE-S=
201306061552 METAR KATL 061552Z 26006KT 10SM SCT015TCU BKN025 BKN110 OVC250 23/21 A2991 RMK AO2 SLP119 TCU NE-E-SE-S-SW SHRA NE-E-SE-S-SW T02330206=
201306061452 METAR KATL 061452Z 22005KT 10SM SCT015 BKN110 OVC250 23/20 A2991 RMK AO2 SLP118 SCT015 V BKN 60000 T02330200 52005=
201306061352 METAR KATL 061352Z 21004KT 10SM SCT010TCU BKN150 BKN250 22/20 A2990 RMK AO2 SLP115 TCU E & SW-NW T02220200=
201306061350 SPECI KATL 061350Z 20005KT 10SM SCT010TCU BKN150 BKN250 22/20 A2990 RMK AO2 TCU E & SW-NW=
201306061303 SPECI KATL 061303Z 19005KT 7SM BKN007 BKN010 BKN150 22/20 A2989 RMK AO2 $=
201306061252 METAR KATL 061252Z 18005KT 7SM BKN006TCU BKN140 22/20 A2989 RMK AO2 DZE17 SLP113 TCU VC N P0000 T02170200 $=
201306061152 METAR KATL 061152Z 23005KT 3SM -DZ BR BKN007 OVC013 21/20 A2990 RMK AO2 RAE08DZB24 SLP117 P0000 60000 70414 T02110200 10222 20206 53031 $=
201306061052 METAR KATL 061052Z 12003KT 3SM -RA BR BKN008 OVC013 21/20 A2989 RMK AO2 SFC VIS 5 RAB29 SLP112 PCPN VRY LGT P0000 T02110200=
201306061040 SPECI KATL 061040Z 00000KT 3SM -RA BR BKN006 OVC013 21/20 A2988 RMK AO2 SFC VIS 5 RAB29 P0000=
201306061029 SPECI KATL 061029Z 00000KT 3SM -RA BR BKN004 OVC012 21/20 A2988 RMK AO2 SFC VIS 4 RAB29 P0000 $=
201306061006 SPECI KATL 061006Z 08008KT 1SM BR BCFG BKN004 BKN140 BKN200 21/20 A2986 RMK AO2 SFC VIS 3 $=
201306060952 METAR KATL 060952Z 08007KT 4SM BR BCFG BKN005 BKN140 BKN200 21/20 A2986 RMK AO2 SLP079 VIS NE 2 1/2 BKN005 V SCT T02060200 $=
201306060852 METAR KATL 060852Z 13003KT 7SM BCFG BKN006 OVC012 21/19 A2987 RMK AO2 SLP081 T02110194 58013 $=
201306060752 METAR KATL 060752Z 00000KT 7SM BKN007 OVC190 21/19 A2989 RMK AO2 SLP089 T02060194 $=
201306060743 SPECI KATL 060743Z 00000KT 8SM BKN008 OVC190 21/19 A2989 RMK AO2 $=
201306060652 METAR KATL 060652Z 12006KT 9SM FEW005 SCT012 BKN160 OVC220 21/20 A2990 RMK AO2 SLP091 SCT V BKN T02110200 $=
201306060626 SPECI KATL 060626Z 11007KT 9SM SCT005 SCT014 OVC230 22/21 A2991 RMK AO2 CIG 005 SW $=
201306060552 METAR KATL 060552Z 08007KT 9SM BKN006 OVC014 22/21 A2991 RMK AO2 RAB31E41 SLP096 P0000 60222 T02220211 10228 20211 58020 $=
201306060452 METAR KATL 060452Z 17004KT 10SM BKN007 OVC020 22/21 A2995 RMK AO2 RAE13 SLP109 CIG 005V010 P0001 T02170206 402940211 $=
201306060352 METAR KATL 060352Z 12007KT 8SM -RA BKN006 OVC100 22/21 A2994 RMK AO2 TSE25 SLP106 FRQ LTG DSNT E-SE CIG 004V008 P0016 T02170211 $=
201306060325 SPECI KATL 060325Z 08012KT 5SM RA BR SCT007 BKN020 OVC100 22/21 A2995 RMK AO2 TSE25 FRQ LTG DSNT E-SE TS MOV E P0013 $=
201306060252 METAR KATL 060252Z 08009KT 5SM TSRA BR SCT006 BKN014CB OVC060 22/21 A2997 RMK AO2 SLP116 FRQ LTGICCA E-SE TS VC E-SE MOV E P0021 60205 T02220211 51007 $=
201306060247 SPECI KATL 060247Z 06009KT 4SM TSRA BR BKN007 BKN013 OVC045 22/21 A2997 RMK AO2 FRQ LTGICCA SE-S TS VC SE-S MOV E CIG 005V009 P0019 $=
201306060226 SPECI KATL 060226Z 03009KT 5SM TSRA BR BKN007 OVC020CB 22/21 A2998 RMK AO2 FRQ LTGICCA SE-S TS VC SE-S & NW MOV E CIG 005V009 P0010 $=
201306060215 SPECI KATL 060215Z 01003KT 5SM TSRA BR SCT006 BKN020CB OVC100 22/21 A2998 RMK AO2 FRQ LTGICCA SE-S TS VC SE-S & NW MOV E P0008 $=
201306060152 METAR KATL 060152Z 00000KT 4SM TSRA BR FEW005 SCT030CB BKN080 OVC150 22/21 A2997 RMK AO2 SLP116 FRQ LTGICCA E-S-SW TS E-S-SW MOV STNRY P0039 T02220211 $=
201306060052 METAR KATL 060052Z 00000KT 5SM TSRA BR FEW010 SCT030CB OVC080 22/21 A2996 RMK AO2 SLP114 OCNL LTGICCG S-SW TS VC S-SW MOV N P0145 T02220211 $=
201306060049 SPECI KATL 060049Z VRB03KT 4SM TSRA BR FEW010 SCT030CB OVC080 22/21 A2996 RMK AO2 OCNL LTGICCG S-SW TS VC S-SW MOV N P0144 $=
201306060037 SPECI KATL 060037Z 06008KT 2 1/2SM +TSRA BR FEW010 BKN025CB OVC060 22/21 A2997 RMK AO2 OCNL LTGICCG OHD-ALQDS TS OHD-ALQDS MOV N P0141 $=
201306052352 METAR KATL 052352Z COR 11008G19KT 1SM R09R/3000V5500FT +TSRA BR FEW010 BKN025CB OVC040 21/20 A2995 RMK AO2 TSB21RAB18 SLP111 OCNL LTGICCG OHD-ALQDS TS OHD-ALQDS MOV N P0182 60192 T02110200 10294 20211 53010 $=
201306052325 SPECI KATL 052325Z 05009KT 1SM +TSRA BR BKN030CB BKN050 OVC100 24/22 A2992 RMK AO2 TSB21RAB18 FRQ LTGICCG OHD-ALQDS TS OHD-ALQDS MOV N P0037 RVRNO $=
201306052314 SPECI KATL 052314Z 07011KT 2SM R09R/5500VP6000FT +TSRA BR BKN032CB BKN050 OVC110 24/22 A2992 RMK AO2 FRQ LTGICCG NE-OHD-S TS NE-OHD-S MOV N P0007=
201306052252 METAR KATL 052252Z 07012KT 5SM TSRA SCT030CB BKN050 OVC110 23/18 A2990 RMK AO2 PK WND 12031/2236 TSB36RAB33 SLP117 VIS NW-NE 2 FRQ LTGICCG NW-NE TS NW-NE MOV N P0010 T02330178=
201306052241 SPECI KATL 052241Z 11014G31KT 3/4SM R09R/4500VP6000FT +TSRA FEW010 BKN030CB OVC070 23/18 A2993 RMK AO2 PK WND 12031/2236 TSB36RAB33 FRQ LTGICCG NE-OHD-SW TS NE-OHD-SW MOV N P0007=
201306052239 SPECI KATL 052239Z 12019G31KT 1SM R09R/4500VP6000FT +TSRA BKN030CB OVC070 24/20 A2991 RMK AO2 PK WND 12031/2236 TSB36RAB33 FRQ LTGICCG NE-OHD-SW TS NE-OHD-SW MOV N P0002=
201306052237 SPECI KATL 052237Z 13021G31KT 2SM R09R/6000VP6000FT +TSRA BKN030CB BKN070 OVC200 26/21 A2991 RMK AO2 PK WND 12031/2236 TSB36RAB33 FRQ LTGICCG SE-S TS SE-S MOV N P0000=
201306052152 METAR KATL 052152Z 18003KT 10SM SCT035TCU BKN070 BKN250 28/20 A2992 RMK AO2 SLP120 TCU SE-SW-W & DSNT NW-NE-E T02830200=
201306052052 METAR KATL 052052Z 11005KT 10SM BKN037TCU BKN070 BKN200 28/20 A2995 RMK AO2 SLP133 TCU OHD & ALQDS T02830200 55020=
201306051952 METAR KATL 051952Z 13008KT 10SM BKN035TCU BKN045 BKN200 28/20 A2995 RMK AO2 SLP131 TCU ALQDS T02830200=
201306051852 SPECI KATL 051852Z 14006KT 10SM FEW030 BKN043 BKN200 28/20 A2997 RMK AO2 SLP138 T02830200=
201306051852 METAR KATL 051852Z 14006KT 10SM FEW030 BKN043 BKN200 28/20 A2997 RMK AO2 SLP138 T02830200=
201306051752 METAR KATL 051752Z 11010KT 10SM FEW025 SCT030 BKN040 27/20 A3001 RMK AO2 SLP154 T02670200 10272 20222 58009=
201306051652 METAR KATL 051652Z 14006KT 10SM SCT023 BKN035 BKN040 26/19 A3004 RMK AO2 SLP162 T02610194=
201306051615 SPECI KATL 051615Z 17004KT 10SM SCT020 BKN030 BKN035 26/20 A3005 RMK AO2=
201306051552 METAR KATL 051552Z 12006KT 10SM BKN020 BKN025 BKN028 25/20 A3005 RMK AO2 SLP167 T02500200=
201306051452 METAR KATL 051452Z 10010KT 10SM FEW015 BKN022 BKN025 25/21 A3004 RMK AO2 SLP162 T02500206 50000=
201306051412 SPECI KATL 051412Z 09009KT 9SM BKN012 BKN015 OVC020 24/21 A3004 RMK AO2=
201306051352 METAR KATL 051352Z 09008KT 10SM FEW010 SCT015 OVC020 24/21 A3005 RMK AO2 SLP164 T02390206=
201306051252 METAR KATL 051252Z 10008KT 7SM BKN010 OVC018 23/21 A3005 RMK AO2 SLP164 T02330206=
201306051250 SPECI KATL 051250Z 11008KT 7SM BKN008 OVC018 23/21 A3005 RMK AO2=
201306051152 METAR KATL 051152Z 09011KT 5SM BR BKN006 OVC017 22/21 A3004 RMK AO2 SLP162 T02220211 10239 20222 51013=
201306051052 METAR KATL 051052Z 09006KT 5SM BR BKN006 OVC014 22/21 A3004 RMK AO2 SLP161 T02220211=
201306050950 METAR KATL 050950Z 07004KT 5SM BR BKN006 BKN013 OVC250 22/21 A3002 RMK AO2 SLP153 T02220211=
201306050949 SPECI KATL 050949Z 08004KT 5SM BR BKN006 BKN013 OVC250 22/21 A3002 RMK AO2=
201306050928 SPECI KATL 050928Z 06005KT 6SM BR SCT006 OVC250 22/21 A3001 RMK AO2=
201306050852 METAR KATL 050852Z 12005KT 7SM FEW011 BKN250 23/21 A3000 RMK AO2 SLP149 T02280206 56007=
201306050803 SPECI KATL 050803Z 16005KT 7SM SCT011 OVC250 23/21 A3001 RMK AO2=
201306050752 METAR KATL 050752Z 18005KT 7SM BKN011 23/21 A3001 RMK AO2 SLP151 T02280211=
201306050742 SPECI KATL 050742Z 16005KT 7SM BKN012 23/21 A3001 RMK AO2=
201306050652 METAR KATL 050652Z 00000KT 10SM FEW012 SCT250 23/21 A3000 RMK AO2 SLP148 T02330211=
201306050552 METAR KATL 050552Z 16006KT 10SM FEW012 SCT250 24/21 A3002 RMK AO2 SLP156 T02390211 10294 20239 50002=
201306050452 METAR KATL 050452Z 13006KT 10SM FEW020 SCT250 25/21 A3003 RMK AO2 SLP159 T02500206 403170206=
201306050352 METAR KATL 050352Z 12007KT 10SM FEW055 26/20 A3002 RMK AO2 SLP155 T02560200=
201306050252 METAR KATL 050252Z 12006KT 10SM FEW055 SCT070 27/19 A3002 RMK AO2 SLP154 T02670194 53012=
201306050152 METAR KATL 050152Z 10009KT 10SM BKN055 27/19 A3000 RMK AO2 SLP149 T02720194=
201306050052 METAR KATL 050052Z 10007KT 10SM FEW050 SCT250 28/19 A2999 RMK AO2 SLP145 T02780194=
201306042352 METAR KATL 042352Z 36006KT 10SM SCT055TCU SCT250 29/17 A2998 RMK AO2 SLP142 TCU OHD-SE T02940172 10317 20294 53002=
201306042252 METAR KATL 042252Z 31006KT 10SM FEW055TCU SCT250 30/17 A2997 RMK AO2 SLP139 TCU SE & DSNT E T03000167=
201306042152 METAR KATL 042152Z 35008KT 10SM FEW060 SCT250 30/17 A2996 RMK AO2 SLP136 T03000172=
201306042052 METAR KATL 042052Z 32007KT 10SM FEW060 SCT250 31/18 A2998 RMK AO2 SLP139 T03060178 58011=
201306041952 METAR KATL 041952Z 35006G17KT 10SM FEW060 BKN100 BKN250 31/17 A2999 RMK AO2 SLP144 TCU DSNT W T03110172=
201306041852 METAR KATL 041852Z 00000KT 10SM FEW050 BKN090 BKN250 31/17 A3000 RMK AO2 SLP147 T03060172=
201306041752 METAR KATL 041752Z VRB05KT 10SM SCT045TCU BKN075 BKN250 29/18 A3001 RMK AO2 SLP151 TCU NE-SE T02940178 10306 20233 58006=
201306041652 METAR KATL 041652Z 27004KT 10SM BKN045TCU BKN070 BKN250 29/18 A3002 RMK AO2 SLP154 TCU OHD & ALQDS T02940183=
201306041552 METAR KATL 041552Z VRB03KT 10SM FEW042 SCT100 BKN250 28/18 A3003 RMK AO2 SLP157 T02830183=
201306041452 METAR KATL 041452Z 11005KT 10SM FEW040 SCT100 BKN250 28/18 A3003 RMK AO2 SLP157 ACC DSNT N-NE T02780178 51007=
201306041352 METAR KATL 041352Z 07006KT 10SM FEW100 SCT250 26/17 A3002 RMK AO2 SLP156 ACC DSNT N T02610172=
201306041252 METAR KATL 041252Z 05006KT 10SM FEW250 25/17 A3002 RMK AO2 SLP154 T02500167=
201306041152 METAR KATL 041152Z 00000KT 10SM FEW100 23/18 A3001 RMK AO2 SLP151 70001 T02330178 10244 20206 53015=
201306041052 METAR KATL 041052Z 34006KT 10SM FEW070 21/18 A2999 RMK AO2 SLP147 T02060183=
201306040952 METAR KATL 040952Z 34005KT 10SM FEW060 21/18 A2997 RMK AO2 SLP141 T02060183=
201306040852 METAR KATL 040852Z 03003KT 10SM FEW060 22/18 A2996 RMK AO2 SLP136 T02220178 55004=
201306040752 METAR KATL 040752Z 33005KT 10SM FEW042 22/18 A2996 RMK AO2 SLP135 T02170183=
201306040652 METAR KATL 040652Z 33004KT 10SM FEW042 23/18 A2996 RMK AO2 SLP136 T02280183=
201306040552 METAR KATL 040552Z 00000KT 10SM SCT042 SCT080 24/18 A2998 RMK AO2 SLP140 T02390183 10278 20233 51000=
201306040452 METAR KATL 040452Z 01004KT 10SM FEW045 SCT080 25/17 A2998 RMK AO2 SLP140 T02500172 403000206=
201306040352 METAR KATL 040352Z 00000KT 10SM SCT050 BKN080 25/18 A2999 RMK AO2 SLP144 T02500183=
201306040252 METAR KATL 040252Z 33004KT 10SM FEW040 BKN070 26/18 A2997 RMK AO2 SLP140 T02560183 53020=
201306040152 METAR KATL 040152Z 34005KT 10SM FEW040 26/17 A2995 RMK AO2 SLP133 T02610172=
201306040052 METAR KATL 040052Z 36005KT 10SM FEW040 27/18 A2993 RMK AO2 SLP125 TCU DSNT SE-S T02670178=
201306032352 METAR KATL 032352Z 32006KT 10SM FEW040 28/18 A2991 RMK AO2 SLP121 TCU DSNT NE & SE & NW 60001 T02780178 10300 20261 53006=
201306032252 METAR KATL 032252Z 35006KT 10SM SCT040 SCT200 28/18 A2989 RMK AO2 SLP114 T02780183=
201306032152 METAR KATL 032152Z 36008KT 10SM FEW045 SCT120 28/18 A2990 RMK AO2 SLP115 TCU DSNT SE T02830183=
201306032052 METAR KATL 032052Z 34007KT 10SM FEW047 SCT060 SCT120 29/18 A2990 RMK AO2 SLP113 TCU DSNT N-NE & DSNT SE-S 60001 T02890178 56015=
201306031952 METAR KATL 031952Z 28007KT 10SM FEW040 SCT120 SCT200 29/19 A2991 RMK AO2 SLP118 TCU DSNT S-SW T02890194=
201306031852 METAR KATL 031852Z 34009KT 10SM FEW030 SCT120 SCT200 28/19 A2992 RMK AO2 RAE13 SLP122 CB DSNT E-SE TCU DSNT S P0001 T02830194=
201306031752 METAR KATL 031752Z 32013G19KT 10SM -RA FEW025CB BKN030TCU BKN060 27/19 A2994 RMK AO2 RAB52 SLP130 CB W MOV E CB DSNT E-S TCU OHD & ALQDS SHRA W P0000 60000 T02720194 10278 20211 58010=
201306031652 METAR KATL 031652Z 28006KT 10SM FEW025CB BKN030TCU BKN095 26/20 A2996 RMK AO2 SLP137 CB SE MOV NE TCU ALQDS SHRA SE T02610200=
201306031552 METAR KATL 031552Z VRB03KT 10SM FEW020 SCT024 BKN090 26/21 A2998 RMK AO2 SLP142 T02610206=
201306031452 METAR KATL 031452Z 00000KT 10SM FEW012 SCT040 BKN090 25/21 A2997 RMK AO2 SLP141 T02500211 51012=
201306031414 SPECI KATL 031414Z 32005KT 7SM BKN010 BKN040 BKN120 24/21 A2997 RMK AO2=
201306031354 SPECI KATL 031354Z 32004KT 6SM BR BKN012 BKN040 OVC100 23/21 A2997 RMK AO2=
201306031352 METAR KATL 031352Z 31004KT 6SM BR BKN008 BKN012 OVC100 23/21 A2997 RMK AO2 SLP141 T02280206=
201306031315 SPECI KATL 031315Z 29003KT 6SM BR BKN006 BKN040 BKN110 22/21 A2996 RMK AO2=
201306031252 METAR KATL 031252Z 00000KT 2 1/2SM BR BKN004 BKN045 22/21 A2995 RMK AO2 SFC VIS 6 SLP133 T02170206=
201306031216 SPECI KATL 031216Z 30005KT 2 1/2SM BR OVC004 21/20 A2995 RMK AO2 SFC VIS 6=
201306031152 METAR KATL 031152Z 30006KT 1/2SM BR OVC004 21/20 A2994 RMK AO2 SFC VIS 4 SLP129 CIG 003V005 TWRINC 60000 70033 T02110200 10211 20206 53009=
201306031052 METAR KATL 031052Z 29005KT 1/2SM BR OVC003 21/21 A2993 RMK AO2 SFC VIS 4 SLP126 TWRINC T02110206=
201306031028 SPECI KATL 031028Z 28004KT 1/2SM BR OVC003 21/21 A2992 RMK AO2 SFC VIS 4=
201306030952 METAR KATL 030952Z 24005KT 6SM BR OVC004 21/20 A2992 RMK AO2 RAE11 SLP121 P0000 T02110200 $=
201306030852 METAR KATL 030852Z 26006KT 7SM -RA BKN004 OVC110 21/20 A2991 RMK AO2 RAB22E32B51 SLP120 P0000 60000 T02110200 56009 $=
201306030845 SPECI KATL 030845Z 25005KT 7SM BKN004 OVC110 21/20 A2991 RMK AO2 RAB22E32 P0000 $=
201306030752 METAR KATL 030752Z 22004KT 7SM FEW004 OVC120 21/20 A2992 RMK AO2 SLP122 T02110200 $=
201306030742 SPECI KATL 030742Z 20003KT 7SM SCT004 OVC120 21/20 A2992 RMK AO2 $=
201306030724 SPECI KATL 030724Z 21005KT 7SM BKN004 OVC130 21/20 A2993 RMK AO2 $=
201306030652 METAR KATL 030652Z 18003KT 10SM SCT004 OVC130 21/21 A2993 RMK AO2 SLP125 T02110206 $=
201306030644 SPECI KATL 030644Z 20004KT 10SM FEW004 OVC130 21/21 A2993 RMK AO2 $=
201306030552 METAR KATL 030552Z 21003KT 10SM SCT130 BKN150 21/21 A2994 RMK AO2 SLP127 60022 T02110206 10244 20211 55000 $=
201306030452 METAR KATL 030452Z 17004KT 9SM BKN120 21/21 A2993 RMK AO2 SLP127 T02110206 402940211 $=
201306030352 METAR KATL 030352Z 00000KT 10SM FEW110 21/20 A2993 RMK AO2 SLP127 T02110200 $=
201306030252 METAR KATL 030252Z 00000KT 10SM SCT043 SCT120 22/20 A2994 RMK AO2 SLP129 60022 T02220200 50009 $=
201306030152 METAR KATL 030152Z 00000KT 10SM BKN036 BKN110 BKN200 22/20 A2995 RMK AO2 RAB05E49 SLP134 CB DSNT SE TCU DSNT NW P0022 T02170200 $=
201306030135 SPECI KATL 030135Z 13004KT 7SM -RA SCT025CB BKN038 BKN100 BKN200 22/20 A2995 RMK AO2 RAB05 CB SE-S MOV SE TCU DSNT NW VIS LWR E-SE P0022 $=
201306030112 SPECI KATL 030112Z 00000KT 3SM RA FEW014CB BKN026 OVC040 23/20 A2995 RMK AO2 RAB05 CB E-OHD-W MOV SE P0004 $=
201306030052 METAR KATL 030052Z 07011G20KT 10SM SCT018CB BKN032 OVC100 24/19 A2994 RMK AO2 TSB07E51 SLP128 TS DSPTD CB E-OHD-W MOV SE VIS LWR NW-N T02440189 $=
201306030033 SPECI KATL 030033Z 06006KT 10SM TS BKN015CB BKN032TCU OVC100 24/21 A2994 RMK AO2 TSB07 OCNL LTGICCG NW-N TS NW-N MOV SE CB DSNT S TCU OHD-SE-SW $=
201306030009 SPECI KATL 030009Z 14006KT 10SM TS FEW025CB SCT090 BKN120 BKN200 24/21 A2992 RMK AO2 TSB07 OCNL LTGCGIC VC NW-N TS VC NW-N MOV SE CB DSNT NE TCU SW-W $=
201306022352 METAR KATL 022352Z 15010KT 10SM FEW025CB SCT070 BKN110 BKN200 24/21 A2991 RMK AO2 RAB2258E11 SLP120 CB VC NW-N-NE MOV E TCU SW-W P0000 60011 T02390206 10294 20217 55002 $=
201306022252 METAR KATL 022252Z 14007KT 10SM FEW032TCU BKN110 BKN200 26/21 A2990 RMK AO2 SLP117 CB DSNT N TCU VC W-NW T02560211 $=
201306022152 METAR KATL 022152Z 22006KT 10SM FEW030 SCT120 SCT200 27/21 A2990 RMK AO2 SLP117 CB DSNT N & E-S TCU DSNT SW-NW T02670211 $=
201306022052 METAR KATL 022052Z 00000KT 10SM FEW015 SCT040 BKN100 24/21 A2992 RMK AO2 TSE42RAB1956E24 SLP121 OCNL LTG DSNT E TS MOV E P0008 60011 T02440211 58010 $=
201306022045 SPECI KATL 022045Z VRB03KT 10SM FEW015 SCT040 BKN100 24/21 A2992 RMK AO2 TSE42RAB1956E24 OCNL LTG DSNT E TS MOV E P0008 $=
201306021952 METAR KATL 021952Z COR 31013KT 10SM TS FEW035 SCT045CB BKN055 23/18 A2994 RMK AO2 WSHFT 1933 TSB39RAE19 SLP131 OCNL LTGICCC N AND S TS N AND S MOV NE CB DSNT SE P0002 T02330183 $=
201306021941 SPECI KATL 021941Z 31016G23KT 10SM TS FEW010 SCT040CB BKN060 24/19 A2994 RMK AO2 TSB39RAE19 OCNL LTGICCC NW-N TS NW-N MOV NE DSNT CB SE-SE P0002 $=
201306021927 SPECI KATL 021927Z 26004KT 10SM FEW009 SCT040 OVC070 26/22 A2994 RMK AO2 RAE19 OCNL LTG W-NW DSNT CB W-NW CB SE DSPTD P0002 $=
201306021852 METAR KATL 021852Z 20011KT 8SM R09R/5000VP6000FT -RA FEW035CB SCT060 BKN080 26/22 A2993 RMK AO2 RAB45 SLP126 CB SW MOV NE CB DSNT W P0001 T02610217 $=
201306021752 METAR KATL 021752Z 20007KT 10SM FEW035TCU SCT045 BKN055 28/20 A2995 RMK AO2 SLP130 TCU OHD-NW CB DSNT W T02830200 10289 20217 58016 $=
201306021652 METAR KATL 021652Z 21011KT 10SM FEW030 BKN035 OVC090 27/19 A2998 RMK AO2 SLP141 T02720194 $=
201306021604 SPECI KATL 021604Z 19008KT 10SM FEW025 BKN034 27/20 A2999 RMK AO2 $=
201306021552 METAR KATL 021552Z 22008KT 10SM BKN025 BKN034 26/20 A2999 RMK AO2 SLP146 T02610200 $=
201306021452 METAR KATL 021452Z 19008KT 10SM SCT020 BKN025 BKN030 26/21 A3000 RMK AO2 SLP147 T02560206 56004 $=
201306021352 METAR KATL 021352Z 18008KT 10SM BKN015 BKN020 BKN100 24/21 A3000 RMK AO2 SLP148 T02440206 $=
201306021252 METAR KATL 021252Z 21009KT 10SM FEW012 BKN019 OVC100 23/20 A3000 RMK AO2 SLP148 T02280200 $=
201306021152 METAR KATL 021152Z 18008KT 10SM BKN019 OVC100 22/19 A3001 RMK AO2 SLP152 60000 70001 T02170194 10244 20211 53002 $=
201306021131 SPECI KATL 021131Z 19007KT 10SM BKN024 BKN028 BKN100 OVC250 22/19 A3001 RMK AO2 $=
201306021113 SPECI KATL 021113Z 18008KT 10SM FEW022 SCT028 BKN100 BKN250 22/19 A3001 RMK AO2 $=
201306021052 METAR KATL 021052Z COR 17006KT 10SM FEW012 SCT045 SCT090 BKN250 22/19 A3000 RMK AO2 SLP149 T02170189 $=
201306020952 METAR KATL 020952Z 18007KT 10SM FEW045 SCT110 BKN250 22/19 A3000 RMK AO2 SLP149 T02170189 $=
201306020852 METAR KATL 020852Z 17008KT 10SM FEW045 SCT100 BKN130 22/19 A3000 RMK AO2 SLP149 60000 T02220189 58006 $=
201306020752 METAR KATL 020752Z 17008KT 10SM FEW050 SCT100 BKN120 23/19 A3001 RMK AO2 SLP152 T02280189 $=
201306020652 METAR KATL 020652Z 17012G15KT 10SM FEW050 SCT075 BKN110 BKN220 23/19 A3002 RMK AO2 RAB22E44 SLP154 P0000 T02330189 $=
201306020552 METAR KATL 020552Z 17009KT 10SM FEW050 SCT065 BKN100 OVC220 24/19 A3002 RMK AO2 SLP156 60001 T02440189 10267 20244 55013 $=
201306020452 METAR KATL 020452Z 16006KT 10SM BKN095 OVC220 24/19 A3001 RMK AO2 SLP152 T02440194 402940200 $=
201306020352 METAR KATL 020352Z 15005KT 10SM SCT100 OVC230 25/19 A3003 RMK AO2 SLP160 T02500194 $=
201306020252 METAR KATL 020252Z COR 170/04KT 10SM FEW080 BKN120 OVC200 25/20 A3006 RMK AO2 RAB04E24 SLP169 CB DSNT SW P0001 60001 T02500200 50012 $=
201306020152 METAR KATL 020152Z 20003KT 10SM BKN080 BKN120 OVC200 26/19 A3006 RMK AO2 SLP170 TCU DSNT NW-N T02560189=
201306020052 METAR KATL 020052Z 17003KT 10SM FEW100 SCT130 OVC200 26/18 A3003 RMK AO2 SLP161 T02610183=
201306012352 METAR KATL 012352Z 18004KT 10SM FEW035 SCT130 BKN200 27/18 A3002 RMK AO2 SLP157 CB DSNT W & NW T02670183 10294 20261 56008=
201306012252 METAR KATL 012252Z 18008KT 10SM FEW038 SCT140 BKN200 28/18 A3003 RMK AO2 SLP159 CB DSNT W T02780183=
201306012152 METAR KATL 012152Z 18013G18KT 10SM FEW042TCU SCT100 BKN250 29/18 A3003 RMK AO2 SLP159 TCU VC SW & NW-N T02890178=
201306012052 METAR KATL 012052Z 16011KT 10SM FEW045 SCT070 BKN100 28/18 A3005 RMK AO2 SLP164 T02830183 58019=
201306011952 METAR KATL 011952Z 15010G15KT 10SM SCT040 BKN085 28/18 A3006 RMK AO2 SLP170 CB DSNT E T02830183=
201306011852 METAR KATL 011852Z 17008KT 10SM FEW035TCU SCT047 OVC075 28/18 A3009 RMK AO2 SLP180 TCU SW-N T02830183=
201306011752 METAR KATL 011752Z COR 18007G15KT 10SM SCT029 BKN039 27/19 A3011 RMK AO2 SLP184 T02670189 10267 20211 58001=
201306011652 METAR KATL 011652Z 16010KT 10SM SCT028 OVC033 26/19 A3011 RMK AO2 SLP186 T02560189=
201306011645 SPECI KATL 011645Z 18008KT 10SM SCT026 OVC031 26/19 A3011 RMK AO2=
201306011552 METAR KATL 011552Z 17008KT 10SM BKN024 26/19 A3011 RMK AO2 SLP187 T02560189=
201306011546 SPECI KATL 011546Z 18011KT 10SM BKN024 26/19 A3011 RMK AO2=
201306011452 METAR KATL 011452Z 18007KT 10SM SCT021 24/19 A3011 RMK AO2 SLP186 T02440189 58003=
201306011426 SPECI KATL 011426Z 17007KT 9SM SCT019 24/19 A3011 RMK AO2 TSB25E26RAB25E26GRB25E26 P0000=
201306011352 METAR KATL 011352Z 17010KT 10SM SCT015 SCT100 24/19 A3012 RMK AO2 SLP189 T02390189=
201306011252 METAR KATL 011252Z 19010KT 10SM SCT010 22/19 A3012 RMK AO2 SLP189 T02220189=
201306011222 SPECI KATL 011222Z 17006KT 10SM SCT010 22/19 A3012 RMK AO2=
201306011213 SPECI KATL 011213Z 16009G14KT 9SM BKN008 22/19 A3011 RMK AO2=
