##########################################################
# Query made at 04/19/2024 23:36:03 UTC
# Time interval: from 12/01/2013 12:00  to 12/31/2013 12:59  UTC
##########################################################

##########################################################
# KATL, Atlanta, Hartsfield - Jackson Atlanta International Airport (United States)
# WMO index: 72219. WIGOS ID: 0-20000-0-72219
# Latitude 33-38-59N. Longitude 084-25-00W. Altitude 312 m.
##########################################################

201312311252 METAR KATL 311252Z 32009KT 8SM FEW009 BKN012 OVC250 04/01 A3030 RMK AO2 SLP267 T00390011=
201312311218 SPECI KATL 311218Z 32009KT 8SM FEW009 BKN014 BKN220 04/02 A3029 RMK AO2=
201312311152 METAR KATL 311152Z 33009KT 8SM OVC009 04/02 A3029 RMK AO2 SLP261 T00390022 10050 20039 53015=
201312311052 METAR KATL 311052Z 33010KT 7SM OVC009 04/02 A3026 RMK AO2 SLP251 CIG 008V010 T00440022=
201312310952 METAR KATL 310952Z 32008KT 7SM OVC009 05/03 A3024 RMK AO2 SLP243 T00500028=
201312310940 SPECI KATL 310940Z 31010KT 8SM OVC009 05/03 A3024 RMK AO2=
201312310852 METAR KATL 310852Z 28007KT 6SM BR FEW009 OVC013 04/03 A3024 RMK AO2 SLP245 CIG 011V016 T00440028 53012=
201312310845 SPECI KATL 310845Z 29006KT 7SM BR FEW009 OVC013 04/03 A3025 RMK AO2 CIG 011V016=
201312310752 METAR KATL 310752Z 29009KT 7SM FEW009 BKN016 OVC220 04/03 A3023 RMK AO2 SLP239 T00440028=
201312310725 SPECI KATL 310725Z 29008KT 8SM FEW009 BKN020 OVC220 04/02 A3022 RMK AO2=
201312310706 SPECI KATL 310706Z 31007KT 8SM SCT011 OVC020 04/02 A3022 RMK AO2=
201312310652 METAR KATL 310652Z 31008KT 7SM BKN011 OVC020 05/03 A3022 RMK AO2 SLP238 T00500028=
201312310552 METAR KATL 310552Z 32008KT 8SM BKN011 OVC017 05/03 A3021 RMK AO2 SLP233 60000 T00500028 10094 20050 51006=
201312310452 METAR KATL 310452Z 32009KT 8SM SCT009 BKN014 OVC025 06/04 A3021 RMK AO2 SLP233 T00610039 401000039=
201312310352 METAR KATL 310352Z 30005KT 8SM FEW009 BKN015 OVC075 07/05 A3020 RMK AO2 SLP230 T00720050=
201312310252 METAR KATL 310252Z 32009KT 9SM SCT009 BKN014 OVC040 08/06 A3019 RMK AO2 SLP227 60000 T00830061 51019=
201312310205 SPECI KATL 310205Z 28005KT 9SM SCT015 BKN022 OVC050 08/07 A3018 RMK AO2=
201312310152 METAR KATL 310152Z 28005KT 10SM SCT017 BKN050 OVC065 08/06 A3017 RMK AO2 RAB07E18B37E51 SLP222 P0000 T00830061=
201312310052 METAR KATL 310052Z 28005KT 10SM BKN040 OVC065 09/06 A3016 RMK AO2 SLP217 T00890061=
201312302352 METAR KATL 302352Z 23004KT 10SM FEW038 BKN065 OVC200 09/06 A3013 RMK AO2 SLP207 T00940056 10100 20083 53001=
201312302252 METAR KATL 302252Z 23003KT 10SM BKN040 BKN055 OVC200 09/06 A3013 RMK AO2 SLP207 T00940056=
201312302152 METAR KATL 302152Z 25003KT 10SM BKN055 BKN070 OVC200 09/06 A3013 RMK AO2 SLP206 T00940056=
201312302052 METAR KATL 302052Z 29007KT 10SM FEW019 SCT120 OVC200 10/06 A3013 RMK AO2 SLP206 T01000056 56004=
201312301952 METAR KATL 301952Z 29005KT 10SM FEW020 SCT100 SCT150 OVC180 09/06 A3014 RMK AO2 SLP209 T00940056=
201312301852 METAR KATL 301852Z 29005KT 10SM FEW015 BKN150 BKN220 09/05 A3012 RMK AO2 SLP205 T00940050=
201312301752 METAR KATL 301752Z 33008KT 10SM FEW015 BKN150 OVC230 09/05 A3014 RMK AO2 SLP211 T00890050 10089 20050 58004 $=
201312301652 METAR KATL 301652Z 31009KT 10SM FEW010 BKN150 BKN220 08/05 A3018 RMK AO2 SLP224 T00780050 $=
201312301552 METAR KATL 301552Z 32007KT 10SM FEW009 BKN150 BKN200 08/06 A3018 RMK AO2 SLP223 T00780056=
201312301544 SPECI KATL 301544Z 32008KT 10SM FEW009 BKN150 BKN200 08/06 A3019 RMK AO2=
201312301452 METAR KATL 301452Z 32007KT 10SM FEW045 BKN150 BKN230 07/05 A3015 RMK AO2 SLP216 T00670050 53020=
201312301352 METAR KATL 301352Z 31007KT 9SM FEW044 SCT200 BKN250 06/04 A3013 RMK AO2 SLP208 VIRGA SW T00560044=
201312301252 METAR KATL 301252Z COR 31004KT 10SM FEW044 SCT200 BKN250 05/04 A3011 RMK AO2 SLP199 T00500039=
201312301152 METAR KATL 301152Z 27004KT 10SM FEW044 SCT250 05/04 A3009 RMK AO2 SLP194 T00500039 10056 20039 51013=
201312301052 METAR KATL 301052Z 29004KT 10SM SCT250 04/03 A3009 RMK AO2 SLP192 T00440033 $=
201312300952 METAR KATL 300952Z 30006KT 10SM FEW250 04/03 A3006 RMK AO2 SLP184 T00440033 $=
201312300852 METAR KATL 300852Z 30005KT 10SM SCT250 04/03 A3006 RMK AO2 SLP181 T00440033 56001 $=
201312300752 METAR KATL 300752Z 30007KT 10SM FEW200 BKN250 05/04 A3006 RMK AO2 SLP183 T00500039 $=
201312300652 METAR KATL 300652Z 30006KT 9SM SCT200 BKN250 05/04 A3005 RMK AO2 SLP179 T00500039 $=
201312300552 METAR KATL 300552Z 28004KT 10SM BKN200 BKN250 05/04 A3006 RMK AO2 SLP183 T00500039 10089 20050 52004 $=
201312300452 METAR KATL 300452Z 28006KT 10SM SCT200 BKN250 06/04 A3005 RMK AO2 SLP180 T00560044 401000050 $=
201312300352 METAR KATL 300352Z 28007KT 10SM BKN200 BKN250 06/04 A3006 RMK AO2 SLP181 T00610044 $=
201312300252 METAR KATL 300252Z 27005KT 10SM BKN200 OVC250 07/05 A3005 RMK AO2 SLP178 T00670050 53013 $=
201312300152 METAR KATL 300152Z 29007KT 10SM FEW020 BKN200 BKN250 07/05 A3003 RMK AO2 SLP174 T00720050 $=
201312300052 METAR KATL 300052Z 28006KT 10SM FEW022 BKN200 BKN250 08/06 A3002 RMK AO2 SLP170 T00780056 $=
201312300039 SPECI KATL 300039Z 27004KT 10SM FEW015 SCT024 BKN200 BKN250 08/06 A3002 RMK AO2=
201312292352 METAR KATL 292352Z 31009KT 10SM OVC017 09/06 A3001 RMK AO2 SLP165 CIG 014V020 T00890056 10100 20089 53016=
201312292252 METAR KATL 292252Z 31009KT 10SM OVC017 09/06 A2998 RMK AO2 SLP157 CIG 014V019 T00940061=
201312292152 METAR KATL 292152Z 30006KT 10SM OVC017 09/06 A2997 RMK AO2 SLP153 T00940061=
201312292104 SPECI KATL 292104Z 26005KT 10SM OVC015 09/06 A2995 RMK AO2=
201312292052 METAR KATL 292052Z 29006KT 10SM OVC013 09/06 A2996 RMK AO2 SLP148 T00940061 55000=
201312291952 METAR KATL 291952Z 29008KT 10SM OVC013 09/06 A2995 RMK AO2 SLP145 T00940061=
201312291852 METAR KATL 291852Z 31010KT 10SM OVC013 09/06 A2995 RMK AO2 SLP146 T00940061=
201312291752 METAR KATL 291752Z 28010KT 10SM OVC013 10/07 A2996 RMK AO2 SLP148 60000 T01000067 10100 20056 50000=
201312291652 METAR KATL 291652Z 32010KT 10SM BKN011 OVC017 09/07 A2997 RMK AO2 SLP152 BINOVC T00940067 $=
201312291614 SPECI KATL 291614Z 30010KT 10SM OVC011 09/07 A2997 RMK AO2 $=
201312291552 METAR KATL 291552Z 29009KT 10SM OVC009 08/07 A2997 RMK AO2 SLP153 T00830067 $=
201312291452 METAR KATL 291452Z 28007KT 7SM BKN005 OVC010 07/06 A2996 RMK AO2 SLP149 60000 T00720061 53025 $=
201312291352 METAR KATL 291352Z 31005KT 2SM BR OVC004 06/06 A2992 RMK AO2 SFC VIS 6 SLP138 T00610056 $=
201312291252 METAR KATL 291252Z 31006KT 2SM BR BKN004 OVC009 06/05 A2990 RMK AO2 SFC VIS 5 RAB00E13 SLP130 CIG 003V006 P0000 T00610050 $=
201312291152 METAR KATL 291152Z 32006KT 2SM BR BKN004 OVC012 06/05 A2988 RMK AO2 SFC VIS 6 SLP124 CIG 003V005 60011 70161 T00560050 10061 20050 50007 $=
201312291052 METAR KATL 291052Z 33004KT 2SM BR BKN004 OVC016 06/05 A2988 RMK AO2 SFC VIS 6 RAE17 SLP125 P0002 T00560050 $=
201312290952 METAR KATL 290952Z 29008KT 2SM -RA BR OVC004 06/05 A2991 RMK AO2 RAB22 PRESRR SLP132 CIG 003V006 P0001 T00560050 $=
201312290852 METAR KATL 290852Z 08008KT 2SM BR OVC004 06/05 A2986 RMK AO2 SFC VIS 5 RAE16 SLP116 CIG 003V005 P0002 60008 T00560050 56027 $=
201312290752 METAR KATL 290752Z 10010KT 2SM -RA BR BKN004 OVC012 05/04 A2987 RMK AO2 SFC VIS 4 SLP120 CIG 003V005 P0002 T00500044 $=
201312290652 METAR KATL 290652Z 09009KT 2SM -RA BR OVC004 05/04 A2992 RMK AO2 SFC VIS 2 1/2 SLP136 CIG 003V005 P0004 T00500044 $=
201312290618 SPECI KATL 290618Z 09009KT 2SM -RA BR OVC004 05/04 A2993 RMK AO2 SFC VIS 5 P0001 $=
201312290552 METAR KATL 290552Z 08013KT 2SM -RA BR BKN005 OVC016 05/04 A2994 RMK AO2 SFC VIS 3 PRESFR SLP144 VIS 1 1/2V4 CIG 004V007 P0010 60108 T00500044 10050 20039 58032 $=
201312290545 SPECI KATL 290545Z 08012KT 2SM +RA BR OVC005 05/04 A2995 RMK AO2 PRESFR CIG 004V006 P0007 $=
201312290452 METAR KATL 290452Z 10009G19KT 3SM -RA BR BKN005 OVC014 05/04 A2998 RMK AO2 SLP156 CIG 004V007 P0011 T00500044 400780022 $=
201312290352 METAR KATL 290352Z 10014KT 5SM -RA BR OVC005 05/04 A3001 RMK AO2 SLP167 CIG 004V007 P0002 T00500039 $=
201312290302 SPECI KATL 290302Z 10013G16KT 6SM -RA BR OVC005 05/04 A3006 RMK AO2 CIG 004V007 P0001 $=
201312290252 METAR KATL 290252Z 09010G20KT 2SM -RA BR OVC005 05/04 A3004 RMK AO2 SFC VIS 2 1/2 SLP177 VIS 1 1/2V3 CIG 004V007 P0036 60085 T00500039 58028 $=
201312290152 METAR KATL 290152Z 08016KT 2SM RA BR OVC005 04/03 A3007 RMK AO2 SFC VIS 3 SLP189 VIS 2V4 CIG 004V007 P0025 T00440033 $=
201312290052 METAR KATL 290052Z 08012G16KT 2SM RA BR BKN006 BKN016 OVC030 04/03 A3010 RMK AO2 SFC VIS 3 SLP200 CIG 005V008 P0024 T00440033 $=
201312290028 SPECI KATL 290028Z 08013KT 2SM RA BR FEW006 BKN022 OVC032 04/03 A3011 RMK AO2 SFC VIS 3 P0019 $=
201312282352 METAR KATL 282352Z 08012KT 2SM RA BR BKN022 OVC034 04/03 A3013 RMK AO2 SFC VIS 2 1/2 SLP207 VIS 2V3 P0015 60042 T00440028 10078 20039 58025 $=
201312282338 SPECI KATL 282338Z 08012KT 2SM +RA BR OVC026 04/03 A3014 RMK AO2 PCPN VRY LGT P0004 $=
201312282325 SPECI KATL 282325Z 07014KT 9SM -RA OVC026 04/02 A3012 RMK AO2 PCPN VRY LGT P0002 $=
201312282252 METAR KATL 282252Z 08015KT 5SM -RA BR OVC032 04/02 A3014 RMK AO2 SLP211 P0005 T00440022 $=
201312282216 SPECI KATL 282216Z 07012KT 4SM -RA BR BKN036 OVC048 05/03 A3016 RMK AO2 PRESFR P0002 $=
201312282152 METAR KATL 282152Z 08010KT 2 1/2SM RA BR BKN037 OVC050 05/03 A3020 RMK AO2 SLP232 VIS E-S 2 P0012 T00500028 $=
201312282052 METAR KATL 282052Z 07009KT 4SM -RA BKN045 OVC055 06/02 A3020 RMK AO2 SLP233 P0008 60010 T00560022 56034 $=
201312281952 METAR KATL 281952Z 07007KT 6SM -RA OVC055 07/02 A3023 RMK AO2 SLP244 P0002 T00670017 $=
201312281852 METAR KATL 281852Z 09009KT 10SM -RA BKN065 OVC100 07/M01 A3024 RMK AO2 RAB17 SLP245 PCPN VRY LGT P0000 T00721011 $=
201312281752 METAR KATL 281752Z 08004KT 10SM BKN085 OVC200 08/M02 A3030 RMK AO2 SLP267 VIRGA N-NE T00781022 10078 20039 58012 $=
201312281652 METAR KATL 281652Z 09005KT 10SM FEW080 BKN100 OVC200 08/M02 A3034 RMK AO2 SLP278 VIRGA NW-N T00781022 $=
201312281552 METAR KATL 281552Z 10007KT 10SM BKN100 OVC200 07/M03 A3034 RMK AO2 SLP280 VIRGA W T00721033 $=
201312281452 METAR KATL 281452Z 10010KT 10SM SCT110 BKN180 OVC220 06/M02 A3034 RMK AO2 PRESFR SLP280 VIRGA SW-NW T00611022 50004 $=
201312281352 METAR KATL 281352Z 08007KT 10SM SCT110 BKN140 OVC200 06/M02 A3035 RMK AO2 SLP282 VIRGA W-N T00561022 $=
201312281252 METAR KATL 281252Z 08007KT 10SM FEW110 BKN140 OVC200 05/M02 A3034 RMK AO2 SLP278 VIRGA OHD-W-NW T00501022 $=
201312281152 METAR KATL 281152Z 08007KT 10SM BKN130 OVC200 04/M02 A3033 RMK AO2 SLP276 VIRGA OHD-NW-N T00391017 10044 20022 55008 $=
201312281052 METAR KATL 281052Z 08007KT 10SM SCT150 OVC250 04/M02 A3033 RMK AO2 SLP275 T00391017 $=
201312280952 METAR KATL 280952Z 05006KT 10SM SCT150 BKN200 BKN250 04/M02 A3034 RMK AO2 SLP280 T00391022 $=
201312280852 METAR KATL 280852Z 08004KT 10SM BKN180 BKN250 03/M02 A3035 RMK AO2 SLP284 T00281017 58008 $=
201312280752 METAR KATL 280752Z 08004KT 10SM SCT250 03/M02 A3037 RMK AO2 SLP287 T00281022 $=
201312280652 METAR KATL 280652Z 05004KT 10SM SCT250 03/M02 A3037 RMK AO2 SLP288 T00331022 $=
201312280552 METAR KATL 280552Z 08005KT 10SM BKN250 04/M02 A3038 RMK AO2 SLP291 T00441022 10078 20039 58005 $=
201312280452 METAR KATL 280452Z 10004KT 10SM BKN250 05/M02 A3039 RMK AO2 SLP296 T00501022 401110006 $=
201312280352 METAR KATL 280352Z 00000KT 10SM BKN250 06/M02 A3040 RMK AO2 SLP299 T00561017 $=
201312280252 METAR KATL 280252Z 08004KT 10SM BKN250 06/M02 A3039 RMK AO2 SLP297 T00561022 51009 $=
201312280152 METAR KATL 280152Z 08005KT 10SM FEW200 BKN250 07/M02 A3039 RMK AO2 SLP298 T00671022 $=
201312280052 METAR KATL 280052Z 11003KT 10SM FEW200 SCT250 08/M02 A3038 RMK AO2 SLP295 T00781022 $=
201312272352 METAR KATL 272352Z 09005KT 10SM FEW200 BKN250 07/M02 A3037 RMK AO2 SLP289 T00721022 10111 20072 58003 $=
201312272252 METAR KATL 272252Z 10004KT 10SM FEW120 SCT180 BKN250 08/M03 A3037 RMK AO2 SLP290 T00831028=
201312272152 METAR KATL 272152Z 09005KT 10SM SCT180 BKN250 09/M02 A3037 RMK AO2 SLP291 T00941022=
201312272052 METAR KATL 272052Z 08005KT 10SM BKN180 BKN250 11/M03 A3037 RMK AO2 SLP291 T01061028 56008=
201312271952 METAR KATL 271952Z 00000KT 10SM BKN180 BKN250 11/M03 A3037 RMK AO2 SLP291 T01111033=
201312271852 METAR KATL 271852Z VRB04KT 10SM SCT150 BKN200 BKN250 11/M03 A3037 RMK AO2 SLP291 T01061028=
201312271752 METAR KATL 271752Z 10004KT 10SM FEW150 SCT200 BKN250 10/M02 A3040 RMK AO2 SLP299 T01001022 10100 20017 58015=
201312271652 METAR KATL 271652Z 11005KT 10SM FEW150 SCT200 BKN250 08/M03 A3043 RMK AO2 SLP310 T00781033 $=
201312271552 METAR KATL 271552Z 07008KT 10SM FEW150 BKN200 BKN250 06/M03 A3044 RMK AO2 SLP313 T00611028 $=
201312271452 METAR KATL 271452Z 09009KT 10SM FEW150 BKN200 BKN250 05/M02 A3044 RMK AO2 SLP314 T00501022 53022 $=
201312271352 METAR KATL 271352Z 06007KT 10SM FEW140 BKN200 BKN250 03/M03 A3042 RMK AO2 SLP308 T00331028 $=
201312271252 METAR KATL 271252Z 07007KT 10SM FEW140 SCT200 SCT250 02/M03 A3039 RMK AO2 SLP298 T00221028 $=
201312271152 METAR KATL 271152Z 04006KT 10SM FEW200 SCT250 02/M03 A3038 RMK AO2 SLP293 T00221033 10033 20006 53010 $=
201312271052 METAR KATL 271052Z 34004KT 10SM FEW200 01/M03 A3035 RMK AO2 SLP283 T00111033 $=
201312270952 METAR KATL 270952Z 34003KT 10SM FEW200 SCT250 02/M03 A3034 RMK AO2 SLP280 T00171033 $=
201312270852 METAR KATL 270852Z 02004KT 10SM FEW200 SCT250 03/M04 A3034 RMK AO2 SLP280 T00281039 53009 $=
201312270752 METAR KATL 270752Z 33005KT 10SM SCT200 BKN250 02/M03 A3033 RMK AO2 SLP276 T00171028 $=
201312270652 METAR KATL 270652Z 32004KT 10SM SCT200 BKN250 02/M03 A3032 RMK AO2 SLP272 T00221028 $=
201312270552 METAR KATL 270552Z 33005KT 10SM BKN250 03/M03 A3032 RMK AO2 SLP271 T00331028 10078 20033 58001 $=
201312270452 METAR KATL 270452Z VRB04KT 10SM BKN250 04/M03 A3032 RMK AO2 SLP271 T00391028 401280011 $=
201312270352 METAR KATL 270352Z 33004KT 10SM BKN250 04/M03 A3032 RMK AO2 SLP275 T00441028 $=
201312270252 METAR KATL 270252Z 34007KT 10SM FEW200 BKN250 06/M03 A3032 RMK AO2 SLP273 T00561033 51008=
201312270152 METAR KATL 270152Z 34007KT 10SM FEW200 BKN250 07/M03 A3031 RMK AO2 SLP269 T00671033=
201312270052 METAR KATL 270052Z 34007KT 10SM FEW200 BKN250 07/M03 A3031 RMK AO2 SLP269 T00721033=
201312262352 METAR KATL 262352Z 33009KT 10SM SCT200 BKN250 08/M03 A3030 RMK AO2 SLP265 T00781033 10128 20072 53009=
201312262252 METAR KATL 262252Z VRB05KT 10SM SCT200 BKN250 09/M04 A3028 RMK AO2 SLP260 T00891039=
201312262152 METAR KATL 262152Z 36005KT 10SM FEW200 SCT250 BKN300 11/M05 A3027 RMK AO2 SLP256 T01111050=
201312262052 METAR KATL 262052Z 33007KT 10SM FEW200 BKN250 12/M04 A3027 RMK AO2 SLP253 T01221039 56015=
201312261952 METAR KATL 261952Z VRB06KT 10SM FEW200 BKN250 12/M03 A3027 RMK AO2 SLP254 T01221033=
201312261852 METAR KATL 261852Z 32007KT 10SM FEW200 BKN250 11/M04 A3029 RMK AO2 SLP261 T01111039=
201312261752 METAR KATL 261752Z 34005KT 10SM FEW200 SCT250 10/M04 A3031 RMK AO2 SLP269 T01001044 10100 20011 58018 $=
201312261652 METAR KATL 261652Z 33008KT 10SM FEW200 SCT250 SCT300 08/M04 A3034 RMK AO2 SLP281 T00831039 $=
201312261552 METAR KATL 261552Z 32004KT 10SM FEW200 SCT250 BKN300 06/M05 A3036 RMK AO2 SLP289 T00561050 $=
201312261452 METAR KATL 261452Z 32004KT 10SM FEW200 SCT250 BKN300 04/M05 A3037 RMK AO2 SLP289 T00441050 51016 $=
201312261352 METAR KATL 261352Z 35004KT 10SM SCT200 BKN250 04/M06 A3035 RMK AO2 SLP284 T00391061=
201312261252 METAR KATL 261252Z 01003KT 10SM BKN200 BKN250 03/M06 A3034 RMK AO2 SLP280 T00281061=
201312261152 METAR KATL 261152Z 03004KT 10SM FEW120 BKN200 OVC250 02/M06 A3032 RMK AO2 SLP274 T00221061 10039 20022 55001=
201312261052 METAR KATL 261052Z 06004KT 10SM FEW034 SCT120 BKN200 OVC250 03/M06 A3031 RMK AO2 SLP269 T00281061 $=
201312260952 METAR KATL 260952Z 06003KT 10SM FEW034 SCT120 BKN200 OVC250 03/M06 A3032 RMK AO2 SLP272 T00281061 $=
201312260852 METAR KATL 260852Z 08003KT 10SM FEW020 SCT034 BKN120 OVC200 03/M06 A3032 RMK AO2 SLP274 T00281061 50001 $=
201312260806 SPECI KATL 260806Z 09004KT 10SM SCT020 SCT034 BKN200 OVC250 03/M06 A3033 RMK AO2 $=
201312260752 METAR KATL 260752Z 09005KT 10SM BKN020 BKN034 BKN200 OVC250 03/M06 A3033 RMK AO2 SLP276 T00331056 $=
201312260712 SPECI KATL 260712Z 09004KT 10SM BKN020 BKN034 BKN200 BKN250 03/M06 A3033 RMK AO2 $=
201312260652 METAR KATL 260652Z 09005KT 10SM FEW022 BKN034 BKN200 BKN250 03/M06 A3033 RMK AO2 SLP275 T00281061 $=
201312260646 SPECI KATL 260646Z 10007KT 10SM SCT024 BKN036 BKN200 BKN250 03/M07 A3032 RMK AO2 $=
201312260552 METAR KATL 260552Z 08007KT 10SM BKN024 OVC040 04/M06 A3034 RMK AO2 SLP281 T00391061 10056 20033 58004 $=
201312260522 SPECI KATL 260522Z 06007KT 10SM SCT028 BKN035 OVC250 04/M07 A3034 RMK AO2 $=
201312260452 METAR KATL 260452Z 05007KT 10SM BKN026 OVC045 04/M06 A3035 RMK AO2 SLP284 T00391061 400781028 $=
201312260352 METAR KATL 260352Z 07005KT 10SM FEW028 BKN045 BKN250 03/M06 A3037 RMK AO2 SLP291 T00331056 $=
201312260252 METAR KATL 260252Z 08008KT 10SM BKN042 BKN250 04/M06 A3035 RMK AO2 SLP287 T00391056 51006 $=
201312260152 METAR KATL 260152Z 08009KT 10SM BKN038 BKN250 04/M05 A3035 RMK AO2 SLP286 T00441050 $=
201312260052 METAR KATL 260052Z 08008KT 10SM OVC035 05/M05 A3035 RMK AO2 SLP287 BINOVC T00501050 $=
201312252352 METAR KATL 252352Z 09007KT 10SM BKN032 BKN250 05/M04 A3034 RMK AO2 SLP282 T00501039 10078 20050 53005 $=
201312252252 METAR KATL 252252Z 09005KT 10SM BKN030 BKN250 06/M04 A3033 RMK AO2 SLP280 T00611044 $=
201312252152 METAR KATL 252152Z 09006KT 10SM SCT027 BKN250 07/M04 A3032 RMK AO2 SLP274 T00721039 $=
201312252052 METAR KATL 252052Z 09006KT 10SM SCT029 BKN250 07/M06 A3032 RMK AO2 SLP275 T00721056 56022 $=
201312251952 METAR KATL 251952Z 08006KT 10SM SCT029 BKN250 07/M06 A3034 RMK AO2 SLP280 T00721061 $=
201312251945 SPECI KATL 251945Z 05005KT 10SM SCT029 BKN250 07/M06 A3034 RMK AO2 $=
201312251910 SPECI KATL 251910Z 09005KT 10SM BKN029 BKN250 07/M06 A3035 RMK AO2 $=
201312251852 METAR KATL 251852Z 07007KT 10SM FEW029 SCT160 BKN250 07/M06 A3035 RMK AO2 SLP287 T00671061 $=
201312251752 METAR KATL 251752Z 06008KT 10SM FEW031 SCT160 BKN250 06/M06 A3039 RMK AO2 SLP298 T00561061 10056 21028 58020 $=
201312251652 METAR KATL 251652Z 11008KT 10SM BKN250 04/M07 A3043 RMK AO2 SLP313 T00391072 $=
201312251552 METAR KATL 251552Z 09011KT 10SM SCT250 02/M08 A3045 RMK AO2 SLP322 T00221078 $=
201312251452 METAR KATL 251452Z 08015KT 10SM SCT250 01/M08 A3045 RMK AO2 SLP320 T00061083 51008 $=
201312251352 METAR KATL 251352Z 09013KT 10SM SCT250 M01/M08 A3044 RMK AO2 SLP319 T10111078 $=
201312251252 METAR KATL 251252Z 09008KT 10SM FEW250 M03/M08 A3044 RMK AO2 SLP320 T10281078 $=
201312251152 METAR KATL 251152Z COR 09008KT 10SM FEW250 M03/M08 A3042 RMK AO2 SLP313 T10281078 11011 21028 51014 $=
201312251052 METAR KATL 251052Z 08007KT 10SM CLR M03/M07 A3041 RMK AO2 SLP310 T10281072 $=
201312250952 METAR KATL 250952Z 08007KT 10SM CLR M02/M07 A3040 RMK AO2 SLP303 T10221072 $=
201312250852 METAR KATL 250852Z 08006KT 10SM CLR M02/M07 A3038 RMK AO2 SLP297 T10221072 53009 $=
201312250752 METAR KATL 250752Z 07008KT 10SM CLR M01/M07 A3037 RMK AO2 SLP292 T10111072 $=
201312250652 METAR KATL 250652Z 05006KT 10SM CLR M02/M08 A3035 RMK AO2 SLP288 T10171078 $=
201312250552 METAR KATL 250552Z 01007KT 10SM CLR M01/M08 A3035 RMK AO2 SLP288 T10111078 10011 21017 58004 $=
201312250452 METAR KATL 250452Z 36005KT 10SM CLR M02/M08 A3036 RMK AO2 SLP289 T10171078 400501017 $=
201312250352 METAR KATL 250352Z 34006KT 10SM CLR M01/M08 A3036 RMK AO2 SLP291 T10111078 $=
201312250252 METAR KATL 250252Z 33006KT 10SM CLR M01/M08 A3036 RMK AO2 SLP293 T10111078 58005 $=
201312250152 METAR KATL 250152Z 33009KT 10SM CLR 00/M08 A3037 RMK AO2 SLP296 T00001078 $=
201312250052 METAR KATL 250052Z 33007KT 10SM CLR 01/M07 A3038 RMK AO2 SLP299 T00061072 $=
201312242352 METAR KATL 242352Z 33010KT 10SM CLR 01/M08 A3038 RMK AO2 SLP298 T00111078 10050 20011 53001 $=
201312242252 METAR KATL 242252Z 34009KT 10SM CLR 02/M07 A3037 RMK AO2 SLP294 T00171072 $=
201312242152 METAR KATL 242152Z 34014G18KT 10SM CLR 03/M08 A3037 RMK AO2 SLP293 T00331078 $=
201312242052 METAR KATL 242052Z 33013KT 10SM CLR 04/M07 A3038 RMK AO2 SLP295 T00391067 53001 $=
201312241952 METAR KATL 241952Z 33014KT 10SM CLR 04/M06 A3037 RMK AO2 SLP293 T00441061=
201312241852 METAR KATL 241852Z 33013KT 10SM FEW040 04/M05 A3037 RMK AO2 SLP292 T00441050=
201312241752 METAR KATL 241752Z 34014G19KT 10SM FEW040 04/M05 A3037 RMK AO2 SLP294 T00391050 10050 21006 58005=
201312241652 METAR KATL 241652Z 31015G19KT 10SM FEW030 04/M04 A3040 RMK AO2 SLP302 T00391044=
201312241552 METAR KATL 241552Z 32015G19KT 10SM FEW025 03/M04 A3039 RMK AO2 SLP300 T00281039=
201312241452 METAR KATL 241452Z 33012KT 10SM FEW020 01/M04 A3039 RMK AO2 SLP299 T00111039 51022 $=
201312241352 METAR KATL 241352Z 32016KT 10SM FEW015 00/M04 A3038 RMK AO2 SLP294 T00001039=
201312241252 METAR KATL 241252Z 32014G22KT 10SM CLR M01/M04 A3034 RMK AO2 SLP281 T10061039=
201312241152 METAR KATL 241152Z 32012KT 10SM CLR M01/M04 A3032 RMK AO2 SLP276 T10061039 10017 21006 53012=
201312241052 METAR KATL 241052Z 33016KT 10SM CLR M01/M04 A3030 RMK AO2 SLP268 T10061039=
201312240952 METAR KATL 240952Z 32013KT 10SM CLR 00/M04 A3030 RMK AO2 SLP267 T00001039=
201312240852 METAR KATL 240852Z 32016KT 10SM CLR 00/M03 A3029 RMK AO2 SLP263 T00001033 53011=
201312240752 METAR KATL 240752Z 32018G26KT 10SM FEW020 SCT250 01/M03 A3027 RMK AO2 PK WND 31028/0724 SLP256 T00061033=
201312240652 METAR KATL 240652Z 32019G25KT 10SM FEW020 SCT180 BKN250 01/M03 A3026 RMK AO2 SLP252 T00111028=
201312240552 METAR KATL 240552Z 32016G21KT 10SM FEW020 BKN250 02/M02 A3025 RMK AO2 SLP250 T00171017 10050 20017 58000=
201312240452 METAR KATL 240452Z 31012G19KT 10SM FEW020 BKN250 02/M01 A3026 RMK AO2 SLP251 T00221011 401440022=
201312240419 SPECI KATL 240419Z 32015G23KT 10SM SCT020 BKN250 03/M01 A3026 RMK AO2=
201312240352 METAR KATL 240352Z 32012KT 10SM BKN020 BKN250 03/M01 A3026 RMK AO2 SLP250 T00331006=
201312240252 METAR KATL 240252Z 32016G22KT 10SM BKN020 BKN250 03/M01 A3026 RMK AO2 SLP249 T00331006 51012=
201312240152 METAR KATL 240152Z 31012KT 10SM OVC020 04/00 A3024 RMK AO2 SLP245 BINOVC T00390000=
201312240052 METAR KATL 240052Z 32009G17KT 10SM BKN017 OVC025 04/01 A3024 RMK AO2 SLP243 T00440011=
201312232352 METAR KATL 232352Z 32012G18KT 10SM BKN015 OVC022 05/02 A3022 RMK AO2 SLP237 T00500017 10100 20050 53012=
201312232252 METAR KATL 232252Z 31011KT 10SM BKN015 OVC022 06/03 A3021 RMK AO2 SLP232 T00610028=
201312232152 METAR KATL 232152Z 31015KT 10SM BKN015 OVC110 07/03 A3020 RMK AO2 SLP227 T00670033=
201312232052 METAR KATL 232052Z 32013KT 10SM BKN015 BKN018 OVC110 08/04 A3018 RMK AO2 SLP223 T00780044 51006=
201312232047 SPECI KATL 232047Z 32012KT 10SM BKN015 BKN020 OVC110 08/04 A3018 RMK AO2=
201312231952 METAR KATL 231952Z 32012KT 10SM BKN013 BKN020 OVC120 08/06 A3017 RMK AO2 SLP218 T00830056=
201312231852 METAR KATL 231852Z 32014G20KT 10SM BKN013 BKN020 OVC110 09/06 A3016 RMK AO2 SLP216 T00890061=
201312231752 METAR KATL 231752Z 32016G23KT 270V340 10SM BKN011 BKN020 BKN110 10/07 A3017 RMK AO2 SLP215 60000 T01000072 10117 20100 50005=
201312231652 METAR KATL 231652Z 31014KT 10SM BKN009 BKN110 OVC200 11/09 A3019 RMK AO2 DZE17 SLP223 P0000 T01060089=
201312231552 METAR KATL 231552Z 32013G19KT 8SM -DZ BKN007 BKN110 OVC200 12/10 A3017 RMK AO2 DZB49 SLP214 P0000 T01170100=
201312231502 SPECI KATL 231502Z 31012G18KT 10SM BKN008 BKN110 OVC200 12/10 A3016 RMK AO2=
201312231452 METAR KATL 231452Z 31009KT 10SM BKN010 BKN110 OVC200 12/11 A3015 RMK AO2 SLP209 T01170106 50013=
201312231359 SPECI KATL 231359Z 30006G16KT 10SM BKN013 OVC110 12/10 A3014 RMK AO2=
201312231352 METAR KATL 231352Z 28009KT 10SM FEW014 BKN110 OVC150 12/10 A3015 RMK AO2 SLP210 T01170100=
201312231252 METAR KATL 231252Z 28006KT 10SM FEW080 BKN100 BKN150 OVC220 11/10 A3013 RMK AO2 SLP201 T01110100=
201312231152 METAR KATL 231152Z 30005KT 10SM FEW070 OVC085 12/10 A3011 RMK AO2 SLP196 60008 70318 T01170100 10139 20117 52013=
201312231052 METAR KATL 231052Z 00000KT 10SM FEW023 BKN070 OVC110 12/11 A3011 RMK AO2 RAE42 SLP195 P0002 T01170106=
201312230952 METAR KATL 230952Z 32007KT 7SM -RA FEW060 BKN095 OVC110 12/11 A3008 RMK AO2 RAB35 SLP183 P0002 T01170106=
201312230852 METAR KATL 230852Z 31006KT 10SM FEW005 SCT045 OVC120 12/12 A3007 RMK AO2 RAB31E45 SLP182 P0000 60004 T01220117 50003=
201312230752 METAR KATL 230752Z 18003KT 10SM FEW005 BKN046 OVC090 13/12 A3008 RMK AO2 RAE38 SLP185 P0002 T01280117=
201312230652 METAR KATL 230652Z 30005KT 8SM -RA FEW005 OVC060 13/12 A3007 RMK AO2 RAB21 SLP181 P0002 T01280117=
201312230604 SPECI KATL 230604Z 32007KT 10SM SCT005 BKN040 BKN075 OVC130 13/12 A3006 RMK AO2=
201312230555 SPECI KATL 230555Z 32005KT 10SM BKN005 BKN040 BKN090 BKN130 14/13 A3006 RMK AO2=
201312230552 METAR KATL 230552Z 31004KT 10SM SCT005 BKN038 OVC090 14/13 A3006 RMK AO2 RAE0456 SLP178 P0000 60086 T01390128 10150 20139 56002=
201312230539 SPECI KATL 230539Z 31006KT 10SM SCT005 BKN038 OVC100 14/13 A3007 RMK AO2 RAE0456 P0000=
201312230515 SPECI KATL 230515Z 31005KT 10SM BKN005 BKN036 OVC110 14/13 A3007 RMK AO2 RAE0456 CIG 004V007 P0000=
201312230452 METAR KATL 230452Z 30007KT 10SM -RA FEW006 SCT020 BKN060 OVC130 14/13 A3006 RMK AO2 RAE16B36 SLP178 PCPN VRY LGT P0002 T01440133 402170144=
201312230432 SPECI KATL 230432Z 33003KT 10SM FEW005 SCT016 BKN055 OVC130 14/13 A3006 RMK AO2 RAE16 P0001=
201312230415 SPECI KATL 230415Z 30006KT 10SM -RA BKN004 BKN015 OVC044 14/14 A3008 RMK AO2 CIG 003V007 P0001=
201312230352 METAR KATL 230352Z 33006KT 6SM -RA BR SCT002 BKN038 OVC120 14/14 A3006 RMK AO2 TSE31 SLP178 TS MOVD NE P0011 T01440139=
201312230332 SPECI KATL 230332Z 31007KT 8SM -RA FEW006 SCT020 SCT044 OVC130 14/14 A3007 RMK AO2 TSE31 TS MOVD NE OCNL LTGICCA DSNT NE-SE-S CB DSNT NE-SE-S P0009=
201312230256 SPECI KATL 230256Z 00000KT 3SM TSRA BR FEW004 SCT018 OVC042CB 14/14 A3007 RMK AO2 TWR VIS 4 OCNL LTGICCA N-OHD-S TS N-OHD-S MOV NE P0002=
201312230252 METAR KATL 230252Z 32004KT 1 1/2SM TSRA BR FEW004 SCT018 OVC040CB 14/14 A3007 RMK AO2 SFC VIS 3 SLP181 OCNL LTGICCA OHD-ALQDS TS OHD-ALQDS MOV NE P0029 60073 T01440139 53016=
201312230249 SPECI KATL 230249Z 31005KT 1 1/2SM TSRA BR FEW004 SCT018 OVC040CB 14/14 A3008 RMK AO2 SFC VIS 2 1/2 OCNL LTGICCA OHD-ALQDS TS OHD-ALQDS MOV NE P0027=
201312230242 SPECI KATL 230242Z 32005KT 1 1/2SM +TSRA BR SCT006 BKN016 OVC036CB 14/14 A3007 RMK AO2 SFC VIS 2 1/2 OCNL LTGICCA OHD-ALQDS TS OHD-ALQDS MOV NE P0023=
201312230224 SPECI KATL 230224Z 30008KT 1 1/2SM TSRA BR BKN006 BKN016 OVC034CB 15/14 A3009 RMK AO2 SFC VIS 2 PRESRR CIG 004V008 OCNL LTGICCA OHD-ALQDS TS OHD-ALQDS MOV NE P0012=
201312230152 METAR KATL 230152Z 06003KT 1 1/2SM TSRA BR SCT005 BKN016 OVC034CB 15/14 A3005 RMK AO2 SFC VIS 3 TSB42 SLP173 OCNL LTGICCA SE TS SE MOV NE P0025 T01500139=
201312230143 SPECI KATL 230143Z 13003KT 1 1/2SM -TSRA BR BKN005 BKN018 OVC032CB 15/14 A3005 RMK AO2 SFC VIS 3 TSB42 OCNL LTGICCA SE-S TS SE-S MOV NE P0023=
201312230052 METAR KATL 230052Z 01003KT 1 1/2SM RA BR BKN005 BKN015 OVC030 15/14 A3004 RMK AO2 SFC VIS 2 1/2 SLP167 CIG 004V007 P0019 T01500144=
201312222359 SPECI KATL 222359Z 04004KT 1 1/2SM RA BR BKN005 BKN013 OVC050 15/14 A3002 RMK AO2 SFC VIS 3 CIG 004V007 P0002=
201312222352 METAR KATL 222352Z 06003KT 1 1/2SM RA BR BKN004 BKN013 OVC048 15/14 A3002 RMK AO2 SFC VIS 2 1/2 SLP162 CIG 003V006 P0014 60085 T01500139 10150 20144 55000=
201312222347 SPECI KATL 222347Z 03005KT 1 1/2SM RA BR BKN004 BKN015 OVC048 15/14 A3002 RMK AO2 SFC VIS 3 CIG 003V006 P0013=
201312222338 SPECI KATL 222338Z 11003KT 1 1/2SM -RA BR BKN015 BKN032 OVC050 15/14 A3003 RMK AO2 SFC VIS 5 P0011=
201312222308 SPECI KATL 222308Z 11004KT 1 1/2SM -RA BR SCT004 BKN046 OVC100 14/14 A3002 RMK AO2 SFC VIS 3 P0004=
201312222252 METAR KATL 222252Z 09004KT 1 1/2SM RA BR BKN003 BKN032 OVC070 14/14 A3001 RMK AO2 SFC VIS 3 SLP158 CIG 002V005 P0016 T01440144=
201312222221 SPECI KATL 222221Z 15005KT 1 1/2SM RA BR BKN003 BKN026 OVC060 15/14 A3004 RMK AO2 SFC VIS 2 1/2 PRESRR CIG 002V005 P0005=
201312222152 METAR KATL 222152Z 10004KT 1 1/2SM RA BR BKN005 BKN045 OVC060 14/14 A3001 RMK AO2 SFC VIS 2 SLP157 P0009 T01440144=
201312222116 SPECI KATL 222116Z 12003KT 1 1/2SM -RA BR FEW003 SCT045 OVC100 14/14 A3000 RMK AO2 SFC VIS 3 P0002=
201312222052 METAR KATL 222052Z 13006KT 2SM -RA BR FEW004 BKN035 OVC080 14/14 A3002 RMK AO2 SLP162 P0020 60046 T01440144 55007=
201312222045 SPECI KATL 222045Z 12010KT 1SM R09R/P6000FT +RA BR FEW004 BKN032 OVC042 14/14 A3003 RMK AO2 TWR VIS 2 P0017=
201312221952 METAR KATL 221952Z 12005KT 2SM -RA BR FEW006 SCT040 OVC080 14/14 A3002 RMK AO2 SFC VIS 3 SLP161 P0011 T01440139=
201312221852 METAR KATL 221852Z 13003KT 2SM RA BR FEW006 BKN060 OVC075 14/14 A3003 RMK AO2 SFC VIS 2 1/2 SLP165 P0015 T01440139=
201312221814 SPECI KATL 221814Z 10003KT 2SM RA BR SCT005 BKN038 OVC080 14/14 A3003 RMK AO2 SFC VIS 3 P0006=
201312221752 METAR KATL 221752Z 14005KT 2SM RA BR BKN006 BKN032 OVC038 14/13 A3004 RMK AO2 SFC VIS 3 SLP168 P0023 60139 T01440133 10206 20144 51006=
201312221741 SPECI KATL 221741Z 00000KT 2SM RA BR BKN005 BKN032 OVC040 14/14 A3005 RMK AO2 SFC VIS 2 1/2 P0018=
201312221652 METAR KATL 221652Z 04010KT 2SM RA BR SCT006 BKN070 OVC100 14/13 A3002 RMK AO2 SFC VIS 3 PRESFR SLP162 P0017 T01440133=
201312221636 SPECI KATL 221636Z 05007KT 2SM RA BR FEW006 BKN037 OVC075 14/13 A3005 RMK AO2 SFC VIS 2 1/2 P0013=
201312221622 SPECI KATL 221622Z 36007KT 2SM RA BR FEW018 OVC039 14/13 A3006 RMK AO2 SFC VIS 2 1/2 P0010=
201312221552 METAR KATL 221552Z 35010KT 2SM RA BR SCT007 SCT013 OVC027 14/14 A3005 RMK AO2 SFC VIS 2 1/2 SLP172 P0063 T01440139=
201312221541 SPECI KATL 221541Z 31004KT 1SM R09R/4500VP6000FT RA BR FEW005 BKN025 OVC035 15/14 A3004 RMK AO2 TWR VIS 1 1/2 P0059=
201312221531 SPECI KATL 221531Z 02012G19KT 1/2SM R09R/3500V6000FT +RA FG FEW005 BKN020 OVC040 14/14 A3004 RMK AO2 TWR VIS 1 1/2 P0039=
201312221524 SPECI KATL 221524Z 35007KT 1SM R09R/4500VP6000FT +RA BR SCT005 BKN024 OVC040 15/14 A3004 RMK AO2 TWR VIS 2 P0020=
201312221515 SPECI KATL 221515Z 35008KT 2SM RA BR FEW005 BKN034 OVC040 15/14 A3004 RMK AO2 SFC VIS 2 1/2 VIS 1 1/4V5 P0011=
201312221503 SPECI KATL 221503Z 01007KT 1 1/2SM R09R/5000VP6000FT RA BR SCT007 BKN022 OVC038 15/14 A3003 RMK AO2 TWR VIS 2 VIS 3/4V3 P0007=
201312221452 METAR KATL 221452Z 33013KT 2SM -RA BR BKN007 OVC022 14/14 A3002 RMK AO2 SFC VIS 4 TSE07 SLP162 TS DSPTD P0022 60036 T01440139 53027=
201312221445 SPECI KATL 221445Z 32009KT 1 1/2SM -RA BR BKN007 OVC022 14/14 A3003 RMK AO2 TWR VIS 2 TSE07 TS DSPTD P0022=
201312221434 SPECI KATL 221434Z 34004KT 1 3/4SM R09R/6000VP6000FT +RA BR FEW006 BKN021 OVC029 14/14 A3003 RMK AO2 TWR VIS 2 TSE07 TS DSPTD P0016=
201312221426 SPECI KATL 221426Z 35005KT 1 1/2SM R09R/6000VP6000FT RA BR BKN015 BKN023 OVC030 15/14 A3002 RMK AO2 TWR VIS 2 TSE07 TS DSPTD P0012=
201312221418 SPECI KATL 221418Z 35006KT 2SM RA BR SCT015 BKN022 OVC032 15/14 A3001 RMK AO2 TSE07 TS DSPTD P0009=
201312221410 SPECI KATL 221410Z 35005KT 1 1/2SM R09R/5500VP6000FT -RA BR FEW007 BKN024 OVC030 15/14 A3001 RMK AO2 TWR VIS 2 TSE07 TS DSPTD P0008=
201312221352 METAR KATL 221352Z 34012G16KT 1 1/2SM R09R/5000VP6000FT TSRA BR SCT007 BKN015CB OVC024 15/14 A3000 RMK AO2 TWR VIS 2 TSB19 SLP153 OCNL LTGIC OHD-ALQDS TS OHD-ALQDS MOV NE P0014 T01500139=
201312221350 SPECI KATL 221350Z 33013G16KT 1 1/2SM R09R/5000VP6000FT TSRA BR SCT007 BKN015CB OVC024 15/14 A3000 RMK AO2 TWR VIS 2 TSB19 OCNL LTGIC OHD-ALQDS TS OHD-ALQDS MOV NE P0013=
201312221344 SPECI KATL 221344Z 30009G14KT 210V340 1SM R09R/5000VP6000FT +TSRA BR SCT007 BKN015CB OVC024 16/15 A3001 RMK AO2 TWR VIS 3 TSB19 PRESRR OCNL LTGIC OHD-SW-W-N TS OHD-SW-W-N MOV NE P0007=
201312221340 SPECI KATL 221340Z 32007G23KT 270V340 2SM TSRA BR FEW009 BKN015CB OVC022 16/15 A2999 RMK AO2 TWR VIS 3 TSB19 PRESRR OCNL LTGIC OHD-SW-W-N TS OHD-SW-W-N MOV NE P0003=
201312221331 SPECI KATL 221331Z 23010G17KT 3SM -TSRA BR FEW014 SCT018CB OVC025 20/18 A2997 RMK AO2 TSB19 OCNL LTGIC SW-W-N TS SW-W-N MOV NE P0001=
201312221319 SPECI KATL 221319Z 19012G21KT 7SM -TSRA FEW014 SCT018CB OVC029 20/18 A2996 RMK AO2 TSB19 OCNL LTGIC W-NW TS VC W-NW MOV NE VIS LWR W-NW P0000=
201312221252 METAR KATL 221252Z 18008KT 8SM -RA SCT014 BKN025 OVC041 20/18 A2997 RMK AO2 RAB01E11B51 SLP141 P0000 T02000183=
201312221203 SPECI KATL 221203Z 17007KT 7SM -RA SCT014 BKN019 OVC027 19/18 A2994 RMK AO2 RAB01 P0000=
201312221152 METAR KATL 221152Z 18009KT 7SM BKN014 BKN019 OVC060 20/18 A2994 RMK AO2 RAE45 SLP132 P0002 60002 70002 T02000183 10217 20200 53005=
201312221126 SPECI KATL 221126Z 18008KT 6SM -RA BR BKN014 OVC022 20/18 A2994 RMK AO2 P0001=
201312221052 METAR KATL 221052Z 18011G20KT 8SM -RA BKN016 OVC026 21/18 A2994 RMK AO2 RAB49 SLP130 P0000 T02060178=
201312220952 METAR KATL 220952Z 19011KT 10SM BKN016 BKN024 21/18 A2993 RMK AO2 SLP129 T02060178=
201312220937 SPECI KATL 220937Z 19011G22KT 10SM BKN019 BKN028 21/18 A2992 RMK AO2=
201312220852 METAR KATL 220852Z 17014G20KT 10SM SCT019 SCT055 21/18 A2993 RMK AO2 SLP127 T02060178 58014=
201312220752 METAR KATL 220752Z 18013G20KT 10SM FEW022 SCT029 BKN055 21/18 A2995 RMK AO2 SLP135 T02110178=
201312220739 SPECI KATL 220739Z 18013G19KT 10SM FEW021 SCT026 BKN055 21/18 A2995 RMK AO2=
201312220652 METAR KATL 220652Z COR 19009G17KT 10SM SCT021 BKN026 BKN060 22/18 A2997 RMK AO2 SLP141 CIG 023V028 T02170178=
201312220552 METAR KATL 220552Z 19012KT 10SM BKN020 BKN032 OVC055 22/18 A2997 RMK AO2 SLP141 CIG 018V022 T02170178 10217 20206 53003=
201312220452 METAR KATL 220452Z 19014G23KT 10SM BKN020 BKN050 BKN200 BKN250 21/18 A2995 RMK AO2 SLP137 CIG 018V022 T02110178 402170111=
201312220352 METAR KATL 220352Z 18014G25KT 10SM BKN016 OVC040 21/18 A2996 RMK AO2 SLP141 CIG 014V018 T02110178=
201312220315 SPECI KATL 220315Z 18015G21KT 10SM BKN018 BKN045 BKN070 OVC200 21/18 A2996 RMK AO2 CIG 015V020=
201312220309 SPECI KATL 220309Z 17015G20KT 10SM SCT018 BKN040 BKN070 BKN250 21/18 A2995 RMK AO2=
201312220252 METAR KATL 220252Z 17015G23KT 10SM BKN020 BKN035 OVC070 21/18 A2996 RMK AO2 SLP141 CIG 018V022 T02110178 58004=
201312220152 METAR KATL 220152Z 17012G23KT 10SM BKN022 OVC035 21/17 A2997 RMK AO2 SLP143 CIG 018V026 T02110172=
201312220140 SPECI KATL 220140Z 17013G21KT 10SM BKN022 BKN035 OVC065 21/17 A2997 RMK AO2 CIG 018V026=
201312220052 METAR KATL 220052Z 17011G19KT 10SM SCT026 BKN040 BKN070 OVC200 21/17 A2998 RMK AO2 SLP146 T02110172=
201312212352 METAR KATL 212352Z 17010KT 10SM BKN034 BKN065 BKN200 BKN250 22/17 A2997 RMK AO2 SLP145 60000 T02170167 10217 20200 51004=
201312212252 METAR KATL 212252Z 17010KT 10SM BKN036 BKN060 BKN200 BKN250 21/17 A2997 RMK AO2 SLP145 T02110172=
201312212152 METAR KATL 212152Z 18009KT 10SM FEW035 BKN065 BKN250 21/18 A2997 RMK AO2 SLP145 T02060178=
201312212052 METAR KATL 212052Z 17011KT 10SM FEW035 BKN060 BKN250 22/17 A2996 RMK AO2 RAE24 SLP142 P0000 60000 T02170172 58003=
201312212026 SPECI KATL 212026Z 18008KT 7SM SCT025 OVC055 21/18 A2997 RMK AO2 RAE24 P0000=
201312211952 METAR KATL 211952Z 19007KT 10SM -RA BKN025 OVC031 21/17 A2997 RMK AO2 RAB41 SLP144 P0000 T02110172=
201312211909 SPECI KATL 211909Z 17009KT 10SM FEW018 BKN025 OVC034 21/17 A2997 RMK AO2=
201312211852 METAR KATL 211852Z 18010G19KT 10SM SCT018 BKN036 BKN046 21/17 A2997 RMK AO2 SLP145 T02110172=
201312211808 SPECI KATL 211808Z 17012G21KT 10SM SCT016 BKN025 BKN047 21/17 A2996 RMK AO2=
201312211752 METAR KATL 211752Z 17016G26KT 10SM SCT016 BKN047 BKN250 22/17 A2997 RMK AO2 PK WND 17026/1751 SLP145 60000 T02170172 10217 20128 56026=
201312211726 SPECI KATL 211726Z 17013G21KT 10SM BKN016 BKN039 21/17 A2999 RMK AO2=
201312211707 SPECI KATL 211707Z 17012G21KT 8SM SCT012 BKN039 20/17 A3001 RMK AO2=
201312211652 METAR KATL 211652Z 17012KT 7SM BKN014 OVC048 19/17 A3001 RMK AO2 SLP161 T01940167=
201312211552 METAR KATL 211552Z 14005KT 7SM OVC011 16/14 A3005 RMK AO2 SLP174 T01560144=
201312211537 SPECI KATL 211537Z 13005KT 6SM BR BKN013 OVC024 16/14 A3005 RMK AO2=
201312211452 METAR KATL 211452Z 13005KT 6SM BR BKN015 BKN022 OVC027 14/13 A3005 RMK AO2 RAB19E33 SLP174 P0000 60000 T01440133 58004=
201312211408 SPECI KATL 211408Z 13005KT 5SM BR FEW013 OVC029 14/13 A3005 RMK AO2=
201312211352 METAR KATL 211352Z 13006KT 6SM BR FEW021 OVC031 14/13 A3005 RMK AO2 SLP176 T01390128=
201312211345 SPECI KATL 211345Z 13006KT 3SM BR BKN021 BKN033 OVC042 14/13 A3005 RMK AO2 SFC VIS 4=
201312211306 SPECI KATL 211306Z 11005KT 3SM BR FEW003 BKN032 OVC040 13/13 A3005 RMK AO2=
201312211252 METAR KATL 211252Z 10004KT 2SM BR FEW003 BKN030 OVC040 13/13 A3006 RMK AO2 SFC VIS 2 1/2 SLP178 T01330128=
201312211250 SPECI KATL 211250Z 12005KT 2SM BR FEW003 BKN030 OVC040 13/13 A3006 RMK AO2 SFC VIS 3=
201312211246 SPECI KATL 211246Z 12005KT 1 1/2SM BR FEW003 BKN030 OVC042 13/13 A3006 RMK AO2 SFC VIS 3=
201312211231 SPECI KATL 211231Z 12005KT 1SM BR OVC004 13/13 A3006 RMK AO2 SFC VIS 3 CIG 002V004 TWRINC=
201312211152 METAR KATL 211152Z 13005KT 1/4SM R09R/5000VP6000FT BR OVC002 13/13 A3006 RMK AO2 SFC VIS 1 SLP180 T01330128 10133 20111 55003=
201312211141 SPECI KATL 211141Z 11004KT 1/4SM R09R/3000V5000FT BR VV002 13/13 A3007 RMK AO2 SFC VIS 3/4=
201312211052 METAR KATL 211052Z 12004KT 1/2SM BR OVC004 13/12 A3006 RMK AO2 SFC VIS 2 1/2 SLP179 CIG 003V005 TWRINC T01280122=
201312211050 SPECI KATL 211050Z 11003KT 1/2SM BR OVC004 13/12 A3006 RMK AO2 SFC VIS 2 1/2=
201312211015 SPECI KATL 211015Z 08006KT 5SM BR BKN005 BKN015 12/11 A3006 RMK AO2=
201312211008 SPECI KATL 211008Z 09006KT 5SM BR FEW005 BKN015 12/11 A3006 RMK AO2=
201312211001 SPECI KATL 211001Z 09005KT 5SM BR OVC015 11/11 A3006 RMK AO2=
201312210952 METAR KATL 210952Z 08006KT 6SM BR SCT017 11/10 A3006 RMK AO2 SLP180 T01110100=
201312210852 METAR KATL 210852Z 08005KT 8SM BKN033 BKN080 BKN250 11/10 A3007 RMK AO2 SLP183 T01110100 56011=
201312210752 METAR KATL 210752Z 10003KT 8SM FEW080 SCT200 BKN250 12/11 A3009 RMK AO2 SLP188 T01170106=
201312210652 METAR KATL 210652Z 15005KT 9SM SCT080 SCT200 BKN250 12/11 A3009 RMK AO2 SLP188 T01170106=
201312210552 METAR KATL 210552Z 13003KT 9SM BKN080 BKN200 OVC250 12/10 A3011 RMK AO2 SLP194 T01220100 10122 20106 58016=
201312210452 METAR KATL 210452Z 13005KT 8SM OVC080 12/09 A3013 RMK AO2 SLP202 T01170094 401440044=
201312210352 METAR KATL 210352Z 13003KT 8SM BKN080 OVC200 11/09 A3015 RMK AO2 SLP209 T01110089=
201312210252 METAR KATL 210252Z 12003KT 8SM SCT090 BKN200 OVC250 11/09 A3015 RMK AO2 SLP213 T01110089 58001=
201312210152 METAR KATL 210152Z 10004KT 9SM FEW030 SCT100 BKN200 OVC250 11/08 A3016 RMK AO2 SLP214 T01110083=
201312210052 METAR KATL 210052Z 11003KT 9SM SCT032 BKN100 BKN200 OVC250 12/08 A3017 RMK AO2 SLP219 T01170083=
201312202352 METAR KATL 202352Z 12003KT 9SM SCT100 BKN200 OVC250 12/08 A3016 RMK AO2 SLP215 T01170083 10144 20117 52005=
201312202252 METAR KATL 202252Z 11003KT 10SM SCT100 BKN200 OVC250 12/08 A3015 RMK AO2 SLP212 T01220083=
201312202152 METAR KATL 202152Z 14004KT 8SM BKN100 OVC250 13/08 A3015 RMK AO2 SLP211 T01330083=
201312202052 METAR KATL 202052Z 13004KT 10SM FEW075 BKN090 OVC200 14/08 A3014 RMK AO2 SLP207 T01390083 56009=
201312201952 METAR KATL 201952Z 18003KT 10SM FEW036 BKN075 BKN090 OVC200 14/08 A3014 RMK AO2 SLP209 T01440083=
201312201852 METAR KATL 201852Z 18005KT 10SM BKN080 BKN100 BKN200 14/08 A3015 RMK AO2 SLP211 T01390078=
201312201752 METAR KATL 201752Z 14004KT 10SM FEW050 BKN090 BKN110 BKN200 12/07 A3017 RMK AO2 PRESFR SLP218 T01220067 10122 20061 58021=
201312201652 METAR KATL 201652Z 14004KT 10SM FEW050 BKN090 BKN100 OVC200 11/05 A3022 RMK AO2 SLP234 T01060050=
201312201552 METAR KATL 201552Z 12004KT 10SM FEW050 BKN090 BKN110 OVC200 09/04 A3023 RMK AO2 SLP239 SHRA DSNT E & S BINOVC NW T00940039=
201312201452 METAR KATL 201452Z 11005KT 10SM FEW050 BKN080 OVC200 09/02 A3023 RMK AO2 SLP239 SHRA DSNT E-SE T00890022 53007=
201312201352 METAR KATL 201352Z 10006KT 10SM FEW055 BKN075 BKN200 OVC250 08/01 A3021 RMK AO2 SLP233 VIRGA VC S-SW & DSNT NE T00780011=
201312201252 METAR KATL 201252Z 08005KT 10SM BKN070 OVC200 07/01 A3022 RMK AO2 SLP236 T00720006=
201312201152 METAR KATL 201152Z 08006KT 10SM SCT075 BKN200 OVC250 06/00 A3021 RMK AO2 SLP232 T00610000 10094 20044 53003=
201312201052 METAR KATL 201052Z 07006KT 10SM SCT200 OVC250 05/M01 A3020 RMK AO2 SLP228 T00501006=
201312200952 METAR KATL 200952Z 08005KT 10SM BKN200 OVC250 06/M01 A3020 RMK AO2 SLP227 T00561011=
201312200852 METAR KATL 200852Z 00000KT 10SM SCT200 OVC250 08/M02 A3020 RMK AO2 SLP227 T00781017 53006=
201312200752 METAR KATL 200752Z 00000KT 10SM SCT200 OVC250 08/M02 A3019 RMK AO2 SLP224 T00831017=
201312200652 METAR KATL 200652Z 17006KT 10SM SCT200 OVC250 09/M02 A3018 RMK AO2 SLP218 T00891017=
201312200552 METAR KATL 200552Z 16006KT 10SM FEW200 OVC250 08/M02 A3018 RMK AO2 SLP222 T00781017 10128 20078 56015=
201312200452 METAR KATL 200452Z 13005KT 10SM FEW200 OVC250 08/M02 A3019 RMK AO2 SLP226 T00831022 401720006=
201312200352 METAR KATL 200352Z 13003KT 10SM FEW200 OVC250 09/M03 A3021 RMK AO2 SLP233 T00891028=
201312200252 METAR KATL 200252Z 00000KT 10SM SCT200 BKN250 11/M03 A3023 RMK AO2 SLP239 T01061033 53003=
201312200152 METAR KATL 200152Z 16005KT 10SM BKN200 OVC250 11/M02 A3022 RMK AO2 SLP237 T01061022=
201312200052 METAR KATL 200052Z 15006KT 10SM BKN200 OVC250 12/M03 A3021 RMK AO2 SLP235 T01171033=
201312192352 METAR KATL 192352Z 14004KT 10SM SCT200 BKN250 13/M04 A3022 RMK AO2 SLP238 T01281044 10172 20128 53002=
201312192252 METAR KATL 192252Z 15005KT 10SM FEW200 SCT250 14/M04 A3022 RMK AO2 SLP235 T01391044=
201312192152 METAR KATL 192152Z 16004KT 10SM FEW150 SCT180 BKN250 16/M05 A3021 RMK AO2 SLP233 T01611050=
201312192052 METAR KATL 192052Z 14005KT 10SM FEW150 SCT180 SCT250 17/M06 A3021 RMK AO2 SLP234 T01721056 56021=
201312191952 METAR KATL 191952Z 19004KT 10SM FEW150 SCT180 BKN250 17/M06 A3022 RMK AO2 SLP234 T01671061=
201312191852 METAR KATL 191852Z 20005KT 10SM FEW200 BKN250 BKN300 16/M06 A3024 RMK AO2 SLP244 T01611061=
201312191752 METAR KATL 191752Z 19005KT 10SM FEW200 BKN250 BKN300 15/M06 A3028 RMK AO2 SLP256 T01501056 10150 20006 58015=
201312191652 METAR KATL 191652Z 18007KT 10SM FEW200 SCT250 BKN300 14/M06 A3032 RMK AO2 SLP269 T01391061=
201312191552 METAR KATL 191552Z 13005KT 10SM FEW200 SCT250 BKN300 11/M06 A3033 RMK AO2 SLP274 T01111056=
201312191452 METAR KATL 191452Z 14004KT 10SM FEW200 SCT250 BKN300 09/M04 A3032 RMK AO2 SLP274 T00891044 53007=
201312191352 METAR KATL 191352Z 11003KT 10SM FEW001 SCT200 BKN250 05/M04 A3031 RMK AO2 SLP269 FU FEW001 FU PLUME S T00501044=
201312191346 SPECI KATL 191346Z 10003KT 10SM FEW001 SCT200 BKN250 04/M03 A3031 RMK AO2 FU FEW001 FU PLUME S=
201312191252 METAR KATL 191252Z 00000KT 10SM FEW200 BKN250 01/M04 A3030 RMK AO2 SLP268 T00061044=
201312191152 METAR KATL 191152Z 09003KT 10SM SCT200 BKN250 01/M04 A3030 RMK AO2 SLP267 T00111039 10039 20006 53005=
201312191052 METAR KATL 191052Z 00000KT 10SM FEW200 SCT250 02/M03 A3029 RMK AO2 SLP264 T00221033=
201312190952 METAR KATL 190952Z 00000KT 10SM FEW250 03/M06 A3029 RMK AO2 SLP262 T00331056=
201312190852 METAR KATL 190852Z 00000KT 10SM FEW250 03/M06 A3029 RMK AO2 SLP260 T00281061 53002=
201312190752 METAR KATL 190752Z 00000KT 10SM FEW200 SCT250 02/M04 A3028 RMK AO2 SLP260 T00171039=
201312190652 METAR KATL 190652Z 00000KT 10SM FEW200 BKN250 03/M04 A3027 RMK AO2 SLP255 T00281044=
201312190552 METAR KATL 190552Z 00000KT 10SM BKN250 03/M05 A3028 RMK AO2 SLP259 T00281050 10078 20017 58002=
201312190452 METAR KATL 190452Z 00000KT 10SM BKN250 03/M05 A3028 RMK AO2 SLP260 T00331050 401220017=
201312190352 METAR KATL 190352Z 00000KT 10SM BKN250 03/M05 A3029 RMK AO2 SLP264 T00331050=
201312190252 METAR KATL 190252Z 00000KT 10SM BKN250 04/M05 A3029 RMK AO2 SLP263 T00391050 53001=
201312190152 METAR KATL 190152Z 00000KT 10SM SCT250 04/M06 A3029 RMK AO2 SLP265 T00441056=
201312190052 METAR KATL 190052Z 00000KT 10SM SCT250 06/M07 A3028 RMK AO2 SLP262 T00611067=
201312182352 METAR KATL 182352Z 31004KT 10SM SCT250 08/M08 A3029 RMK AO2 SLP262 T00781078 10122 20072 51004=
201312182252 METAR KATL 182252Z 31005KT 10SM FEW250 09/M08 A3028 RMK AO2 SLP258 T00891078=
201312182152 METAR KATL 182152Z 33007KT 10SM FEW250 11/M10 A3028 RMK AO2 SLP258 T01111100=
201312182052 METAR KATL 182052Z 29007KT 10SM FEW250 12/M09 A3027 RMK AO2 SLP255 T01171089 56013=
201312181952 METAR KATL 181952Z 32007KT 10SM FEW250 12/M09 A3027 RMK AO2 SLP255 T01171094=
201312181852 METAR KATL 181852Z 33009KT 10SM SCT250 11/M09 A3029 RMK AO2 SLP261 T01061094=
201312181752 METAR KATL 181752Z 32012KT 10SM SCT250 10/M08 A3031 RMK AO2 SLP268 T01001083 10100 20017 58004=
201312181652 METAR KATL 181652Z 32009KT 10SM FEW250 08/M07 A3033 RMK AO2 SLP275 T00831072=
201312181552 METAR KATL 181552Z 33011KT 10SM FEW250 07/M07 A3034 RMK AO2 SLP277 T00671067=
201312181452 METAR KATL 181452Z 34013KT 10SM CLR 05/M06 A3032 RMK AO2 SLP273 T00501061 53015=
201312181352 METAR KATL 181352Z 33008KT 10SM CLR 03/M05 A3031 RMK AO2 SLP267 T00331050=
201312181252 METAR KATL 181252Z 33007KT 10SM CLR 02/M04 A3029 RMK AO2 SLP261 T00171039=
201312181152 METAR KATL 181152Z 32005KT 10SM CLR 02/M04 A3028 RMK AO2 SLP258 T00171039 10078 20017 53015=
201312181052 METAR KATL 181052Z 32006KT 10SM CLR 03/M04 A3026 RMK AO2 SLP250 T00281039=
201312180952 METAR KATL 180952Z 31007KT 10SM CLR 03/M03 A3024 RMK AO2 SLP243 T00331033=
201312180852 METAR KATL 180852Z 31007KT 10SM CLR 04/M03 A3023 RMK AO2 SLP239 T00391028 51010=
201312180752 METAR KATL 180752Z 32009KT 10SM CLR 05/M03 A3022 RMK AO2 SLP235 T00501033=
201312180652 METAR KATL 180652Z 33011KT 10SM CLR 06/M03 A3022 RMK AO2 SLP233 T00611028=
201312180552 METAR KATL 180552Z 34011G18KT 10SM CLR 08/00 A3020 RMK AO2 SLP229 T00780000 10122 20078 53021=
201312180452 METAR KATL 180452Z 30010KT 10SM CLR 09/02 A3017 RMK AO2 SLP218 T00890017 401670028=
201312180352 METAR KATL 180352Z 27009KT 10SM FEW250 09/02 A3016 RMK AO2 SLP215 T00940017=
201312180252 METAR KATL 180252Z 27009KT 10SM FEW250 11/01 A3014 RMK AO2 SLP208 T01060011 53003=
201312180152 METAR KATL 180152Z 25009KT 10SM FEW250 12/01 A3013 RMK AO2 SLP205 T01170006=
201312180052 METAR KATL 180052Z 24008KT 10SM FEW250 12/M01 A3013 RMK AO2 SLP205 T01171006=
201312172352 METAR KATL 172352Z 25007KT 10SM FEW250 12/M01 A3013 RMK AO2 SLP207 T01221006 10167 20122 53007=
201312172252 METAR KATL 172252Z 25008KT 10SM FEW250 13/M02 A3011 RMK AO2 SLP200 T01331017=
201312172152 METAR KATL 172152Z 25006KT 10SM FEW250 16/M02 A3011 RMK AO2 SLP197 T01561017=
201312172052 METAR KATL 172052Z 28010KT 10SM CLR 17/M01 A3011 RMK AO2 SLP197 T01671006 56018=
201312171952 METAR KATL 171952Z 27012KT 10SM CLR 17/M01 A3011 RMK AO2 SLP197 T01671011=
201312171852 METAR KATL 171852Z 26011KT 10SM CLR 16/M01 A3013 RMK AO2 SLP205 T01611011=
201312171752 METAR KATL 171752Z 26013G19KT 10SM FEW250 16/01 A3016 RMK AO2 SLP216 T01560006 10161 20028 58022=
201312171652 METAR KATL 171652Z 27008G16KT 10SM FEW250 13/M01 A3019 RMK AO2 SLP226 T01331006=
201312171552 METAR KATL 171552Z 27008G14KT 10SM FEW250 12/01 A3022 RMK AO2 SLP237 T01170006=
201312171452 METAR KATL 171452Z 25007KT 10SM FEW250 09/00 A3023 RMK AO2 SLP242 T00890000 53009=
201312171352 METAR KATL 171352Z 25004KT 10SM FEW230 07/00 A3022 RMK AO2 SLP240 T00670000=
201312171252 METAR KATL 171252Z 00000KT 10SM FEW230 03/M01 A3021 RMK AO2 SLP236 T00281011=
201312171152 METAR KATL 171152Z 26004KT 10SM CLR 03/M01 A3021 RMK AO2 SLP233 T00331011 10067 20033 58002=
201312171052 METAR KATL 171052Z 27005KT 10SM CLR 04/M01 A3022 RMK AO2 SLP236 T00391011 $=
201312170952 METAR KATL 170952Z 00000KT 10SM CLR 03/M01 A3020 RMK AO2 SLP232 T00331011 $=
201312170852 METAR KATL 170852Z 26003KT 10SM CLR 04/M01 A3021 RMK AO2 SLP234 T00391011 58003 $=
201312170752 METAR KATL 170752Z 25003KT 10SM CLR 05/M01 A3022 RMK AO2 SLP236 T00501011 $=
201312170652 METAR KATL 170652Z 24003KT 10SM CLR 06/M01 A3022 RMK AO2 SLP235 T00561011 $=
201312170452 METAR KATL 170452Z 25006KT 10SM CLR 07/M02 A3022 RMK AO2 SLP240 T00671017 401391017 $=
201312170352 METAR KATL 170352Z 24006KT 10SM CLR 07/M02 A3022 RMK AO2 SLP239 T00671022 $=
201312170252 METAR KATL 170252Z 26004KT 10SM CLR 07/M02 A3023 RMK AO2 SLP243 T00671022 52008 $=
201312170152 METAR KATL 170152Z 25003KT 10SM CLR 07/M02 A3022 RMK AO2 SLP240 T00671022=
201312170052 METAR KATL 170052Z 00000KT 10SM FEW200 07/M02 A3021 RMK AO2 SLP239 T00721022=
201312162352 METAR KATL 162352Z 00000KT 10SM FEW200 08/M02 A3020 RMK AO2 SLP235 T00831022 10139 20083 53006=
201312162252 METAR KATL 162252Z 23005KT 10SM FEW200 11/M03 A3020 RMK AO2 SLP232 T01061028=
201312162152 METAR KATL 162152Z 26006KT 10SM FEW250 12/M03 A3019 RMK AO2 SLP228 T01221028=
201312162052 METAR KATL 162052Z 25007KT 10SM FEW250 14/M03 A3019 RMK AO2 SLP226 T01391033 55010=
201312161952 METAR KATL 161952Z 27005KT 10SM FEW250 13/M02 A3018 RMK AO2 SLP226 T01331022=
201312161852 METAR KATL 161852Z VRB05KT 10SM FEW250 12/M01 A3019 RMK AO2 SLP229 T01171011=
201312161752 METAR KATL 161752Z 29007KT 10SM FEW250 10/M01 A3022 RMK AO2 SLP238 T01001006 10100 21017 58014=
201312161652 METAR KATL 161652Z COR 00000KT 10SM FEW250 07/M01 A3025 RMK AO2 SLP251 T00671006 $=
201312161552 METAR KATL 161552Z 29005KT 9SM CLR 03/M01 A3026 RMK AO2 SLP257 T00281006 $=
201312161452 METAR KATL 161452Z 30004KT 8SM FEW010 01/M01 A3026 RMK AO2 SLP255 T00111011 51012 $=
201312161352 METAR KATL 161352Z 29006KT 5SM BR FEW006 M01/M02 A3024 RMK AO2 SLP251 T10061022=
201312161350 SPECI KATL 161350Z 29007KT 5SM BR FEW006 M01/M02 A3024 RMK AO2=
201312161252 METAR KATL 161252Z 28006KT 4SM BR CLR M02/M03 A3022 RMK AO2 SLP244 T10171028=
201312161152 METAR KATL 161152Z 27004KT 6SM BR CLR M02/M03 A3021 RMK AO2 SLP240 T10171028 11006 21017 53008=
201312161052 METAR KATL 161052Z 28004KT 7SM CLR M02/M03 A3020 RMK AO2 SLP236 T10171028 $=
201312160952 METAR KATL 160952Z 30005KT 8SM CLR M01/M03 A3020 RMK AO2 SLP234 T10111028 $=
201312160852 METAR KATL 160852Z 31005KT 9SM CLR M01/M03 A3019 RMK AO2 SLP231 T10111028 50002 $=
201312160752 METAR KATL 160752Z 30003KT 9SM CLR M01/M03 A3019 RMK AO2 SLP232 T10111028 $=
201312160652 METAR KATL 160652Z 31006KT 10SM CLR M01/M03 A3018 RMK AO2 SLP228 T10061028 $=
201312160552 METAR KATL 160552Z 32007KT 10SM CLR M01/M03 A3018 RMK AO2 SLP227 T10061028 10022 21006 58001 $=
201312160452 METAR KATL 160452Z 31007KT 10SM CLR 00/M03 A3019 RMK AO2 SLP230 T00001028 401220000 $=
201312160352 METAR KATL 160352Z 32008KT 10SM CLR 01/M02 A3019 RMK AO2 SLP230 T00061022 $=
201312160252 METAR KATL 160252Z 32007KT 10SM CLR 01/M02 A3018 RMK AO2 SLP228 T00111022 51008 $=
201312160152 METAR KATL 160152Z 32010KT 10SM FEW020 01/M02 A3018 RMK AO2 SLP227 T00111017 $=
201312160052 METAR KATL 160052Z 32012KT 10SM FEW020 02/M02 A3017 RMK AO2 SLP223 T00221017 $=
201312152352 METAR KATL 152352Z 31012KT 10SM FEW022 02/M02 A3016 RMK AO2 SLP219 T00221017 10056 20022 51019 $=
201312152252 METAR KATL 152252Z 32011KT 10SM SCT022 03/M02 A3014 RMK AO2 SLP213 T00281017 $=
201312152152 METAR KATL 152152Z 32011G18KT 10SM BKN022 03/M02 A3013 RMK AO2 SLP209 T00331017 $=
201312152052 METAR KATL 152052Z 31014G19KT 10SM OVC022 04/M01 A3010 RMK AO2 SLP197 BINOVC T00391011 53007 $=
201312151952 METAR KATL 151952Z 31009KT 10SM BKN022 04/M01 A3008 RMK AO2 SLP191 T00441006 $=
201312151852 METAR KATL 151852Z 31014KT 10SM BKN022 06/00 A3008 RMK AO2 SLP189 T00560000 $=
201312151752 METAR KATL 151752Z 30015G21KT 10SM OVC020 04/00 A3008 RMK AO2 SLP188 BINOVC 60000 T00440000 10050 20039 50000 $=
201312151652 METAR KATL 151652Z 32015G19KT 10SM OVC020 04/M01 A3008 RMK AO2 SLP187 BINOVC T00441006=
201312151552 METAR KATL 151552Z 32011G20KT 10SM OVC019 04/M01 A3009 RMK AO2 SLP191 T00391006 $=
201312151452 METAR KATL 151452Z 33015G25KT 10SM OVC021 04/M01 A3008 RMK AO2 SLP188 60000 T00391006 51037=
201312151352 METAR KATL 151352Z 31014G19KT 10SM BKN019 OVC026 04/01 A3004 RMK AO2 SLP175 T00390006=
201312151252 METAR KATL 151252Z 31011KT 10SM SCT012 BKN016 OVC030 04/02 A3001 RMK AO2 RAB15E30 SLP165 P0000 T00440017=
201312151152 METAR KATL 151152Z 30012G19KT 10SM BKN012 OVC020 04/02 A2997 RMK AO2 SLP150 CIG 010V014 60000 70055 T00440022 10117 20044 53024=
201312151052 METAR KATL 151052Z 31015G21KT 10SM FEW009 OVC014 05/03 A2994 RMK AO2 SLP140 T00500028=
201312150952 METAR KATL 150952Z 30014G21KT 10SM FEW009 OVC012 06/04 A2992 RMK AO2 SLP132 T00610039=
201312150925 SPECI KATL 150925Z 29012G20KT 10SM SCT009 OVC012 07/04 A2991 RMK AO2=
201312150852 METAR KATL 150852Z 29011KT 10SM BKN007 BKN014 OVC037 07/06 A2989 RMK AO2 SLP124 60000 T00720056 53012=
201312150813 SPECI KATL 150813Z 31014KT 10SM BKN008 OVC018 09/07 A2987 RMK AO2=
201312150752 METAR KATL 150752Z 31012KT 10SM BKN012 BKN016 OVC029 09/07 A2986 RMK AO2 SLP113 T00890072=
201312150707 SPECI KATL 150707Z 31012KT 10SM SCT007 BKN014 OVC029 09/08 A2986 RMK AO2=
201312150652 METAR KATL 150652Z 32014G23KT 10SM BKN007 BKN014 OVC029 10/08 A2984 RMK AO2 RAE00 SLP106 P0000 T01000083=
201312150636 SPECI KATL 150636Z 32012KT 10SM BKN007 BKN014 OVC029 11/09 A2986 RMK AO2 RAE00 PRESRR P0000=
201312150552 METAR KATL 150552Z 30011KT 10SM -RA SCT008 OVC014 12/11 A2986 RMK AO2 SLP110 CIG 012V016 PCPN VRY LGT P0001 60007 T01170106 10128 20117 58004=
201312150541 SPECI KATL 150541Z 29010KT 8SM -RA SCT006 BKN014 OVC030 12/11 A2984 RMK AO2 P0001=
201312150452 METAR KATL 150452Z 29007KT 8SM -RA FEW004 SCT065 OVC090 12/12 A2987 RMK AO2 RAE29B48 SLP114 PCPN VRY LGT P0002 T01220117 401390083=
201312150409 SPECI KATL 150409Z 17008KT 4SM -RA BR FEW006 SCT032 OVC060 12/12 A2984 RMK AO2 P0000=
201312150352 METAR KATL 150352Z 19003KT 4SM -RA BR SCT006 BKN013 OVC060 12/12 A2986 RMK AO2 RAB0257 PRESFR SLP112 P0004 T01220122=
201312150322 SPECI KATL 150322Z 27006KT 5SM -RA BR BKN008 BKN021 OVC110 12/12 A2989 RMK AO2 RAB0257 P0000=
201312150308 SPECI KATL 150308Z 26003KT 5SM -RA BR FEW002 BKN022 OVC095 12/12 A2989 RMK AO2 RAB0257 P0000=
201312150252 METAR KATL 150252Z 24005KT 5SM BR FEW002 SCT022 BKN085 OVC130 12/12 A2987 RMK AO2 SLP115 VIRGA OHD-ALQDS T01220117 55004=
201312150245 SPECI KATL 150245Z 23005KT 4SM BR SCT002 SCT020 OVC090 12/12 A2986 RMK AO2 VIRGA OHD-ALQDS=
201312150213 SPECI KATL 150213Z 00000KT 1SM R09R/1800V3500FT BR BKN002 BKN018 BKN032 OVC130 12/12 A2986 RMK AO2 VIS SW-NW-N 1/2 VIRGA OHD-ALQDS CIG 001V003=
201312150204 SPECI KATL 150204Z 29003KT 1SM R09R/1600V1800FT BR BKN002 BKN018 BKN032 OVC130 12/12 A2986 RMK AO2 VIS SW-NW-N 1/2 VIRGA OHD-ALQDS CIG 001V003=
201312150152 METAR KATL 150152Z 00000KT 1SM R09R/1600VP6000FT BR BKN002 BKN018 BKN030 OVC130 12/12 A2987 RMK AO2 SFC VIS 1 1/2 SLP114 VIS SW-NW 3/4 VIRGA OHD-ALQDS CIG 001V004 T01220117=
201312150146 SPECI KATL 150146Z 00000KT 1SM R09R/1600V2400FT BR BKN002 BKN018 BKN030 OVC130 12/12 A2986 RMK AO2 VIRGA OHD-ALQDS CIG 001V004=
201312150110 SPECI KATL 150110Z 30005KT 1 1/2SM R09R/5000VP6000FT BR BKN003 BKN015 OVC030 12/12 A2989 RMK AO2 PRESRR CIG 002V005=
201312150052 METAR KATL 150052Z 33003KT 1/2SM R09R/P6000FT BR VV002 12/12 A2987 RMK AO2 SFC VIS 3/4 SLP114 VIS 1/2V1 1/4 T01220122=
201312150047 SPECI KATL 150047Z 34004KT 1/2SM R09R/P6000FT BR OVC002 12/12 A2986 RMK AO2 SFC VIS 3/4 CIG 001V003=
201312142352 METAR KATL 142352Z 00000KT 1SM BR BKN003 OVC012 13/12 A2988 RMK AO2 SFC VIS 2 1/2 PRESRR SLP120 CIG 002V004 60004 T01280122 10139 20122 53017=
201312142335 SPECI KATL 142335Z 00000KT 1SM BR OVC003 13/12 A2986 RMK AO2 SFC VIS 1 1/2 CIG 002V004=
201312142252 METAR KATL 142252Z 08004KT 1/2SM BR BKN003 OVC012 13/12 A2986 RMK AO2 SFC VIS 2 DZB02E50 SLP111 CIG 002V004 TWRINC P0000 T01330122=
201312142152 METAR KATL 142152Z 00000KT 1/2SM BR OVC003 13/13 A2985 RMK AO2 SFC VIS 1 1/2 SLP107 T01330128=
201312142052 METAR KATL 142052Z 00000KT 1/2SM BR OVC003 13/13 A2983 RMK AO2 SFC VIS 2 1/2 RAE1955 SLP102 TWRINC P0000 60004 T01330128 55016=
201312141952 METAR KATL 141952Z 00000KT 1/2SM R09R/5500VP6000FT -RA BR OVC003 13/13 A2983 RMK AO2 SFC VIS 1 1/2 RAB1854E07B26 SLP101 P0002 T01330128=
201312141945 SPECI KATL 141945Z 00000KT 1/2SM R09R/5500VP6000FT -RA BR OVC003 13/13 A2983 RMK AO2 SFC VIS 1 1/2 RAB1854E07B26 P0001=
201312141929 SPECI KATL 141929Z 00000KT 1 1/2SM R09R/6000VP6000FT -RA BR OVC003 13/13 A2983 RMK AO2 SFC VIS 2 RAB1854E07B26 P0001=
201312141916 SPECI KATL 141916Z 15003KT 1 1/2SM BR BKN005 BKN010 OVC016 13/12 A2983 RMK AO2 SFC VIS 4 RAB1854E07 P0000=
201312141855 SPECI KATL 141855Z 11003KT 1 1/2SM -RA BR FEW005 BKN012 OVC019 13/12 A2983 RMK AO2 SFC VIS 4 RAB54 P0000=
201312141852 METAR KATL 141852Z 00000KT 2 1/2SM BR FEW005 BKN008 OVC012 13/12 A2983 RMK AO2 SFC VIS 3 RAE52 PRESFR SLP102 P0002 T01330122=
201312141752 METAR KATL 141752Z 33004KT 2 1/2SM -RA BR BKN006 OVC009 13/12 A2988 RMK AO2 SFC VIS 4 SLP118 P0012 60044 T01280117 10128 20083 56019=
201312141714 SPECI KATL 141714Z 25004KT 2 1/2SM -RA BR BKN008 BKN012 OVC022 12/12 A2989 RMK AO2 SFC VIS 4 P0003=
201312141701 SPECI KATL 141701Z 25004KT 2 1/2SM -RA BR SCT005 BKN011 OVC018 12/12 A2991 RMK AO2 SFC VIS 3 SCT005 V BKN P0001=
201312141652 METAR KATL 141652Z 22006KT 2SM +RA BR BKN005 BKN011 OVC021 12/12 A2990 RMK AO2 TWR VIS 2 1/2 SLP126 P0013 T01220117=
201312141638 SPECI KATL 141638Z 20005KT 2 1/2SM -RA BR BKN005 OVC009 12/11 A2990 RMK AO2 P0009=
201312141634 SPECI KATL 141634Z 21004G14KT 1 3/4SM RA BR OVC005 12/11 A2991 RMK AO2 TWR VIS 2 1/2 P0009=
201312141552 METAR KATL 141552Z 17009G16KT 2 1/2SM -RA BR BKN005 OVC008 11/10 A2991 RMK AO2 SFC VIS 5 SLP129 P0004 T01060100=
201312141509 SPECI KATL 141509Z 16012G16KT 2 1/2SM -RA BR OVC005 10/09 A2993 RMK AO2 SFC VIS 3 P0002=
201312141452 METAR KATL 141452Z 15010KT 3SM RA BR SCT005 OVC008 09/08 A2994 RMK AO2 SFC VIS 5 SLP139 SCT005 V BKN P0004 60015 T00940083 56034=
201312141412 SPECI KATL 141412Z 13011KT 3SM -RA BR BKN007 OVC015 09/08 A2995 RMK AO2 SFC VIS 4 P0000=
201312141352 METAR KATL 141352Z 13010G18KT 2 1/2SM -RA BR SCT007 SCT012 OVC018 09/08 A2996 RMK AO2 TWR VIS 3 SLP146 P0006 T00890078=
201312141350 SPECI KATL 141350Z 13010G18KT 2 1/2SM RA BR SCT007 SCT012 OVC018 09/08 A2996 RMK AO2 TWR VIS 3 P0005=
201312141337 SPECI KATL 141337Z 13010KT 3SM -RA BR FEW007 BKN010 OVC018 09/08 A2997 RMK AO2 SFC VIS 4 P0003=
201312141324 SPECI KATL 141324Z 13010KT 6SM -RA BR FEW008 BKN012 OVC018 09/07 A2997 RMK AO2 P0002=
201312141252 METAR KATL 141252Z 11013G19KT 5SM RA BR SCT013 BKN025 OVC070 09/07 A2998 RMK AO2 RAB16 SLP155 P0005 T00890072=
201312141152 METAR KATL 141152Z 12010KT 10SM FEW012 SCT024 BKN060 OVC150 09/06 A3004 RMK AO2 SLP174 T00890056 10089 20083 58020=
201312141136 SPECI KATL 141136Z 11012G16KT 10SM FEW012 SCT024 BKN070 OVC150 09/06 A3003 RMK AO2 PRESFR=
201312141052 METAR KATL 141052Z 10007KT 10SM FEW010 BKN028 BKN065 OVC150 09/06 A3007 RMK AO2 SLP184 T00890056=
201312141025 SPECI KATL 141025Z 10007KT 10SM SCT010 BKN024 BKN045 OVC150 09/05 A3007 RMK AO2=
201312140952 METAR KATL 140952Z 11008KT 10SM FEW022 SCT034 BKN045 BKN150 OVC200 08/04 A3008 RMK AO2 SLP188 T00830044=
201312140936 SPECI KATL 140936Z 12007KT 10SM SCT024 BKN050 OVC150 08/04 A3008 RMK AO2=
201312140923 SPECI KATL 140923Z 11007KT 10SM BKN024 BKN033 OVC047 09/04 A3010 RMK AO2=
201312140852 METAR KATL 140852Z 11006KT 10SM FEW033 BKN047 OVC150 08/03 A3010 RMK AO2 SLP194 T00830028 56018=
201312140752 METAR KATL 140752Z 12006KT 10SM FEW035 BKN150 OVC200 08/02 A3011 RMK AO2 SLP199 T00830017=
201312140652 METAR KATL 140652Z 12007KT 10SM BKN150 OVC200 09/00 A3013 RMK AO2 SLP205 T00890000=
201312140552 METAR KATL 140552Z 12003KT 10SM BKN140 OVC200 09/M02 A3016 RMK AO2 SLP214 T00891022 10106 20089 58011=
201312140452 METAR KATL 140452Z 12006KT 10SM BKN150 OVC200 09/M03 A3017 RMK AO2 SLP219 T00891028 401391022=
201312140352 METAR KATL 140352Z 14004KT 10SM BKN150 OVC200 09/M02 A3019 RMK AO2 SLP227 T00891022=
201312140252 METAR KATL 140252Z 14005KT 10SM BKN150 OVC200 09/M03 A3019 RMK AO2 SLP227 T00891028 58003=
201312140152 METAR KATL 140152Z 12004KT 10SM FEW120 BKN150 OVC200 10/M03 A3021 RMK AO2 SLP235 T01001033=
201312140052 METAR KATL 140052Z 12005KT 10SM BKN130 OVC200 10/M04 A3023 RMK AO2 SLP241 T01001044=
201312132352 METAR KATL 132352Z 12005KT 10SM BKN140 BKN200 11/M06 A3020 RMK AO2 SLP232 T01061056 10139 20106 55005=
201312132252 METAR KATL 132252Z 11005KT 10SM BKN150 BKN220 12/M09 A3019 RMK AO2 SLP230 T01171089=
201312132152 METAR KATL 132152Z 00000KT 10SM BKN150 OVC220 12/M08 A3020 RMK AO2 SLP231 T01171083=
201312132052 METAR KATL 132052Z 18006KT 10SM BKN200 BKN250 12/M11 A3021 RMK AO2 SLP237 T01221106 56019=
201312131952 METAR KATL 131952Z VRB03KT 10SM FEW140 BKN250 13/M11 A3022 RMK AO2 SLP238 T01331106=
201312131852 METAR KATL 131852Z VRB04KT 10SM FEW140 BKN250 13/M09 A3025 RMK AO2 SLP249 T01281094=
201312131752 METAR KATL 131752Z 00000KT 10SM FEW160 BKN250 11/M10 A3027 RMK AO2 SLP257 T01111100 10111 21022 58021=
201312131652 METAR KATL 131652Z 00000KT 10SM FEW150 SCT180 BKN250 10/M09 A3032 RMK AO2 SLP271 T01001094=
201312131552 METAR KATL 131552Z 00000KT 10SM FEW150 SCT180 BKN250 07/M09 A3033 RMK AO2 SLP279 T00721094=
201312131452 METAR KATL 131452Z 11004KT 10SM FEW150 SCT180 SCT250 05/M08 A3034 RMK AO2 SLP280 T00501078 51009=
201312131352 METAR KATL 131352Z 00000KT 10SM FEW140 SCT200 BKN250 03/M08 A3033 RMK AO2 SLP280 T00331078=
201312131252 METAR KATL 131252Z 33006KT 10SM FEW150 SCT200 BKN250 M01/M08 A3032 RMK AO2 SLP277 T10061078=
201312131152 METAR KATL 131152Z 00000KT 10SM FEW200 M02/M08 A3031 RMK AO2 SLP273 T10171078 10011 21017 56009=
201312131052 METAR KATL 131052Z 07003KT 10SM FEW250 01/M09 A3031 RMK AO2 SLP273 T00061094=
201312130952 METAR KATL 130952Z 34003KT 10SM FEW250 M01/M09 A3033 RMK AO2 SLP278 T10111089=
201312130852 METAR KATL 130852Z 34005KT 10SM FEW250 M01/M09 A3034 RMK AO2 SLP281 T10061089 56008=
201312130752 METAR KATL 130752Z 31004KT 10SM SCT250 M01/M09 A3034 RMK AO2 SLP282 T10061089=
201312130652 METAR KATL 130652Z 34008KT 10SM FEW200 SCT250 01/M09 A3034 RMK AO2 SLP281 T00061094=
201312130552 METAR KATL 130552Z 33007KT 10SM BKN250 01/M09 A3036 RMK AO2 SLP290 T00061089 10033 20006 51002=
201312130452 METAR KATL 130452Z 33007KT 10SM SCT250 01/M09 A3036 RMK AO2 SLP289 T00061089 400831006=
201312130352 METAR KATL 130352Z 32006KT 10SM FEW250 01/M09 A3037 RMK AO2 SLP292 T00061089=
201312130252 METAR KATL 130252Z 31008KT 10SM CLR 01/M09 A3036 RMK AO2 SLP290 T00111089 58005=
201312130152 METAR KATL 130152Z 33007KT 10SM CLR 02/M09 A3037 RMK AO2 SLP293 T00221094=
201312130052 METAR KATL 130052Z 31009KT 10SM CLR 03/M10 A3038 RMK AO2 SLP298 T00331100=
201312122352 METAR KATL 122352Z 32008KT 10SM CLR 03/M10 A3038 RMK AO2 SLP294 T00331100 10083 20033 58002=
201312122252 METAR KATL 122252Z 32007KT 10SM CLR 04/M11 A3038 RMK AO2 SLP296 T00441111=
201312122152 METAR KATL 122152Z 31011KT 10SM CLR 07/M12 A3038 RMK AO2 SLP296 T00671117=
201312122052 METAR KATL 122052Z 32010KT 10SM CLR 08/M10 A3038 RMK AO2 SLP294 T00781100 55011=
201312121952 METAR KATL 121952Z 32013G16KT 10SM CLR 08/M09 A3038 RMK AO2 SLP292 T00781094=
201312121852 METAR KATL 121852Z 32012KT 10SM CLR 08/M09 A3039 RMK AO2 SLP296 T00781094 $=
201312121752 METAR KATL 121752Z 32015G18KT 10SM CLR 07/M09 A3041 RMK AO2 SLP305 T00671089 10067 21006 58007 $=
201312121652 METAR KATL 121652Z 34009KT 10SM CLR 06/M07 A3044 RMK AO2 SLP313 T00561072=
201312121552 METAR KATL 121552Z 32010KT 10SM CLR 04/M06 A3045 RMK AO2 SLP317 T00391056 $=
201312121452 METAR KATL 121452Z 32009G18KT 10SM CLR 02/M06 A3044 RMK AO2 SLP313 T00221056 53011 $=
201312121352 METAR KATL 121352Z 32008KT 10SM CLR 01/M04 A3042 RMK AO2 SLP307 T00061044=
201312121252 METAR KATL 121252Z 32011KT 10SM FEW250 M01/M04 A3041 RMK AO2 SLP303 T10061044=
201312121152 METAR KATL 121152Z 33009KT 10SM FEW250 01/M04 A3040 RMK AO2 SLP302 T00061044 10044 20006 53019=
201312121052 METAR KATL 121052Z 32012KT 10SM CLR 01/M04 A3037 RMK AO2 SLP290 T00111044 $=
201312120952 METAR KATL 120952Z 32010KT 10SM CLR 01/M04 A3035 RMK AO2 SLP283 T00111044 $=
201312120852 METAR KATL 120852Z 32010KT 10SM CLR 02/M04 A3034 RMK AO2 SLP280 T00221039 58000 $=
201312120752 METAR KATL 120752Z 33011KT 10SM CLR 03/M04 A3036 RMK AO2 SLP284 T00281039 $=
201312120652 METAR KATL 120652Z 33009KT 10SM FEW250 03/M03 A3034 RMK AO2 SLP280 T00331033 $=
201312120552 METAR KATL 120552Z 32010KT 10SM SCT250 04/M03 A3035 RMK AO2 SLP280 T00391028 10094 20039 55003 $=
201312120452 METAR KATL 120452Z 32007KT 10SM BKN250 04/M02 A3034 RMK AO2 SLP280 T00391022 401281017 $=
201312120352 METAR KATL 120352Z 32007KT 10SM BKN250 06/M02 A3034 RMK AO2 SLP281 T00561017 $=
201312120252 METAR KATL 120252Z 31004KT 10SM BKN250 06/M01 A3036 RMK AO2 SLP285 T00611011 50004=
201312120152 METAR KATL 120152Z 30004KT 10SM FEW110 BKN250 08/M02 A3036 RMK AO2 SLP287 T00781022=
201312120052 METAR KATL 120052Z 32005KT 10SM BKN110 BKN250 09/M02 A3036 RMK AO2 SLP286 T00891022=
201312112352 METAR KATL 112352Z 32006KT 10SM BKN110 BKN250 09/M02 A3034 RMK AO2 SLP281 T00941022 10128 20094 52004=
201312112252 METAR KATL 112252Z 32005KT 10SM SCT110 BKN250 10/M02 A3034 RMK AO2 SLP280 T01001022=
201312112152 METAR KATL 112152Z 00000KT 10SM SCT150 BKN250 12/M03 A3033 RMK AO2 SLP277 T01171033=
201312112052 METAR KATL 112052Z 36004KT 10SM FEW150 SCT200 BKN250 12/M06 A3033 RMK AO2 SLP276 T01221056 56009=
201312111952 METAR KATL 111952Z 00000KT 10SM SCT250 12/M04 A3034 RMK AO2 SLP279 T01171044=
201312111852 METAR KATL 111852Z 00000KT 10SM SCT250 12/M03 A3034 RMK AO2 SLP279 T01171028=
201312111752 METAR KATL 111752Z 15004KT 10SM FEW250 10/M02 A3036 RMK AO2 SLP287 T01001022 10100 21017 58020=
201312111652 METAR KATL 111652Z 00000KT 10SM FEW250 08/M03 A3039 RMK AO2 SLP298 T00831028=
201312111552 METAR KATL 111552Z 14005KT 10SM FEW250 07/M04 A3042 RMK AO2 SLP307 T00671039=
201312111452 METAR KATL 111452Z 08006KT 10SM FEW250 05/M04 A3042 RMK AO2 SLP308 T00501039 51014=
201312111352 METAR KATL 111352Z 00000KT 10SM FEW250 02/M02 A3041 RMK AO2 SLP306 T00221022=
201312111252 METAR KATL 111252Z 04004KT 10SM CLR 00/M04 A3039 RMK AO2 SLP300 T00001044=
201312111152 METAR KATL 111152Z 36003KT 10SM CLR M01/M04 A3038 RMK AO2 SLP295 70003 T10111039 10000 21017 51008=
201312111052 METAR KATL 111052Z 00000KT 10SM CLR M02/M04 A3037 RMK AO2 SLP293 T10171044 $=
201312110952 METAR KATL 110952Z 34005KT 10SM CLR M01/M04 A3037 RMK AO2 SLP290 T10111039 $=
201312110852 METAR KATL 110852Z 34008KT 10SM CLR M01/M03 A3035 RMK AO2 SLP286 T10111033 53012 $=
201312110752 METAR KATL 110752Z 33009KT 10SM CLR M01/M03 A3033 RMK AO2 SLP275 T10061033 $=
201312110652 METAR KATL 110652Z 31005KT 10SM FEW250 M01/M03 A3031 RMK AO2 SLP271 T10061033 $=
201312110552 METAR KATL 110552Z 31004KT 10SM SCT250 00/M03 A3032 RMK AO2 SLP272 T00001033 10050 20000 58003 $=
201312110452 METAR KATL 110452Z 33004KT 10SM SCT250 01/M03 A3033 RMK AO2 SLP279 T00061033 401060006 $=
201312110352 METAR KATL 110352Z 34006KT 10SM SCT250 02/M03 A3033 RMK AO2 SLP278 T00171028 $=
201312110252 METAR KATL 110252Z 34007KT 10SM SCT250 02/M03 A3033 RMK AO2 SLP275 T00221028 51009 $=
201312110152 METAR KATL 110152Z 34009KT 10SM BKN250 03/M03 A3033 RMK AO2 SLP275 T00281028 $=
201312110052 METAR KATL 110052Z 34010KT 10SM BKN250 04/M03 A3032 RMK AO2 SLP270 T00391028 $=
201312102352 METAR KATL 102352Z 35010KT 10SM BKN250 05/M02 A3030 RMK AO2 SLP264 T00501017 10094 20050 53020 $=
201312102252 METAR KATL 102252Z 32009KT 280V340 10SM FEW200 BKN250 06/M02 A3028 RMK AO2 SLP256 T00561022 $=
201312102152 METAR KATL 102152Z 32012KT 10SM FEW200 BKN250 08/M02 A3026 RMK AO2 SLP249 T00781017 $=
201312102052 METAR KATL 102052Z 34015G21KT 10SM FEW200 SCT250 09/M02 A3024 RMK AO2 SLP241 T00891017 53010 $=
201312101952 METAR KATL 101952Z 34016G23KT 10SM FEW030 SCT200 BKN250 09/M01 A3022 RMK AO2 SLP236 T00891006 $=
201312101852 METAR KATL 101852Z 33013G22KT 10SM FEW025 SCT200 BKN250 08/02 A3020 RMK AO2 SLP229 T00830022=
201312101752 METAR KATL 101752Z 31015G23KT 10SM FEW018 SCT025 BKN250 08/03 A3021 RMK AO2 PK WND 32028/1654 SLP231 60003 T00830028 10100 20067 50028=
201312101652 METAR KATL 101652Z 32019G31KT 10SM BKN015 BKN025 BKN250 07/03 A3022 RMK AO2 PK WND 34031/1648 SLP237 T00720033=
201312101645 SPECI KATL 101645Z 32014G28KT 10SM BKN015 BKN025 BKN250 08/04 A3022 RMK AO2 PK WND 31028/1638=
201312101552 METAR KATL 101552Z 32016G27KT 10SM BKN012 BKN015 OVC020 08/05 A3018 RMK AO2 PK WND 30029/1518 SLP224 T00780050=
201312101524 SPECI KATL 101524Z 32019G29KT 10SM SCT012 BKN017 OVC020 08/06 A3015 RMK AO2 PK WND 30029/1518=
201312101452 METAR KATL 101452Z 29015G23KT 9SM BKN010 BKN020 OVC040 09/07 A3012 RMK AO2 PK WND 30027/1423 SLP202 BINOVC 60003 T00890072 53034=
201312101421 SPECI KATL 101421Z 30020G26KT 8SM BKN010 BKN015 OVC040 10/08 A3009 RMK AO2 PK WND 30026/1421 BINOVC=
201312101352 METAR KATL 101352Z 28009KT 8SM BKN007 BKN015 BKN043 10/08 A3006 RMK AO2 RAE00 SLP182 CIG 005V009 P0000 T01000083=
201312101252 METAR KATL 101252Z 29009KT 8SM -RA BKN006 OVC014 10/09 A3004 RMK AO2 RAE19B41 SLP173 P0003 T01000089=
201312101223 SPECI KATL 101223Z 28008KT 8SM BKN006 OVC010 10/09 A3002 RMK AO2 RAE19 P0003=
201312101201 SPECI KATL 101201Z 27006KT 3SM RA BR BKN004 OVC044 10/09 A3002 RMK AO2 P0002=
201312101152 METAR KATL 101152Z 26006KT 3SM -RA BR SCT004 SCT026 OVC042 10/09 A3002 RMK AO2 SLP166 P0009 60015 70114 T01000089 10106 20094 51017=
201312101129 SPECI KATL 101129Z 25003KT 6SM RA BR BKN004 BKN033 OVC055 09/09 A3001 RMK AO2 P0008=
201312101052 METAR KATL 101052Z COR 31006KT 7SM -RA SCT005 OVC030 09/09 A3000 RMK AO2 WSHFT 0945 SLP161 P0005 T00940089=
201312101043 SPECI KATL 101043Z 32011KT 1SM -RA BR BKN005 BKN010 OVC029 09/09 A3000 RMK AO2 WSHFT 0945 SFC VIS 6 CIG 003V007 P0005=
201312101039 SPECI KATL 101039Z 31011KT 1SM -RA BR SCT004 SCT010 OVC029 09/09 A3000 RMK AO2 WSHFT 0945 SFC VIS 2 1/2 P0005=
201312101016 SPECI KATL 101016Z 31012KT 1SM -RA BR BKN004 BKN017 OVC024 10/09 A3000 RMK AO2 WSHFT 0945 SFC VIS 2 1/2 P0002=
201312101004 SPECI KATL 101004Z 30007KT 1/2SM -RA BR BKN003 BKN010 OVC017 10/09 A2999 RMK AO2 WSHFT 0945 SFC VIS 2 P0002=
201312100952 METAR KATL 100952Z 31013G20KT 1/2SM R09R/5500VP6000FT -RA BR BKN003 OVC007 10/09 A2999 RMK AO2 SFC VIS 1 DZB02E37RAB37 PRESRR SLP158 CIG 002V004 P0001 T01000094=
201312100852 METAR KATL 100852Z 00000KT 1/2SM BR OVC003 10/10 A2997 RMK AO2 SFC VIS 1 1/4 SLP148 CIG 002V004 60000 T01000100 56014=
201312100752 METAR KATL 100752Z 18003KT 1/2SM R09R/2800V3000FT FG VV002 10/10 A2997 RMK AO2 SLP151 T01000100=
201312100652 METAR KATL 100652Z COR 18003KT 1/2SM R09R/3000V3500FT FG VV002 10/09 A3000 RMK AO2 DZE52 SLP160 P0000 T01000094=
201312100554 SPECI KATL 100554Z 17004KT 1/2SM -DZ BR OVC004 10/09 A3000 RMK AO2 SFC VIS 1 3/4 CIG 002V006 P0000=
201312100550 METAR KATL 100550Z 17004KT 2SM -DZ BR OVC004 10/09 A3001 RMK AO2 DZB48 SLP164 CIG 002V006 P0000 60000 T01000094 10106 20094 56020=
201312100549 SPECI KATL 100549Z 17005KT 2SM -DZ BR OVC004 10/09 A3001 RMK AO2 DZB48 CIG 002V006 P0000=
201312100452 METAR KATL 100452Z 00000KT 10SM OVC009 10/09 A3003 RMK AO2 SLP170 T01000089 401060050=
201312100352 METAR KATL 100352Z 00000KT 10SM FEW005 OVC012 10/09 A3004 RMK AO2 SLP175 T01000089=
201312100330 SPECI KATL 100330Z 00000KT 10SM FEW005 OVC014 10/09 A3006 RMK AO2=
201312100252 METAR KATL 100252Z 00000KT 10SM FEW005 BKN018 OVC030 10/09 A3007 RMK AO2 SLP184 T01000089 58014=
201312100152 METAR KATL 100152Z 00000KT 10SM SCT005 OVC022 09/08 A3009 RMK AO2 SLP194 SCT005 V BKN T00940083=
201312100133 SPECI KATL 100133Z 30003KT 10SM FEW004 SCT007 OVC022 09/08 A3010 RMK AO2=
201312100112 SPECI KATL 100112Z 30004KT 10SM SCT004 BKN007 OVC025 09/08 A3010 RMK AO2=
201312100052 METAR KATL 100052Z 30004KT 10SM FEW004 OVC025 09/08 A3010 RMK AO2 SLP198 T00940083=
201312092352 METAR KATL 092352Z 30004KT 10SM FEW005 OVC020 09/08 A3011 RMK AO2 SLP199 60024 T00940083 10094 20072 51005=
201312092252 METAR KATL 092252Z 00000KT 10SM FEW005 BKN023 OVC040 09/08 A3010 RMK AO2 RAE16 SLP198 P0000 T00890083=
201312092152 METAR KATL 092152Z 00000KT 8SM -RA FEW005 BKN023 BKN040 09/08 A3010 RMK AO2 RAB38 SLP197 P0000 T00890078=
201312092134 SPECI KATL 092134Z 00000KT 9SM FEW007 BKN023 BKN040 09/08 A3010 RMK AO2=
201312092052 METAR KATL 092052Z 00000KT 3SM BR FEW005 BKN023 OVC040 09/07 A3009 RMK AO2 SFC VIS 6 RAE20 SLP194 P0003 60024 T00890072 58007=
201312092045 SPECI KATL 092045Z 13003KT 3SM BR FEW005 BKN023 OVC040 09/07 A3009 RMK AO2 SFC VIS 6 RAE20 P0003=
201312092001 SPECI KATL 092001Z 34007KT 1 1/2SM -RA BR BKN005 BKN016 OVC020 08/07 A3011 RMK AO2 SFC VIS 5 P0002=
201312091952 METAR KATL 091952Z 33006KT 1SM -RA BR SCT005 BKN016 OVC020 08/07 A3010 RMK AO2 SFC VIS 3 SLP199 P0006 T00780067=
201312091935 SPECI KATL 091935Z 35006KT 1SM -RA SCT005 BKN014 OVC050 08/07 A3010 RMK AO2 SFC VIS 7 P0005=
201312091852 METAR KATL 091852Z 36003KT 1/2SM -RA BR BKN005 BKN012 OVC040 08/07 A3011 RMK AO2 SFC VIS 3 SLP200 P0015 T00780067=
201312091816 SPECI KATL 091816Z VRB03KT 1/2SM +RA BR BKN005 BKN020 OVC040 07/07 A3011 RMK AO2 SFC VIS 2 P0009=
201312091759 SPECI KATL 091759Z 10005KT 1/2SM R09R/3500VP6000FT +RA BR SCT005 BKN026 OVC035 07/07 A3011 RMK AO2 SFC VIS 2 P0003=
201312091752 METAR KATL 091752Z 09005KT 1/2SM RA BR SCT005 BKN030 OVC050 07/06 A3011 RMK AO2 SFC VIS 2 SLP202 P0019 60075 T00720061 10072 20061 58017=
201312091728 SPECI KATL 091728Z 09008KT 1/2SM R09R/6000VP6000FT +RA BR BKN005 BKN030 OVC050 07/06 A3011 RMK AO2 SFC VIS 2 PRESFR P0014=
201312091714 SPECI KATL 091714Z 09005KT 1/2SM R09R/2000VP6000FT +RA BR BKN005 OVC010 07/06 A3013 RMK AO2 SFC VIS 1 P0004=
201312091652 METAR KATL 091652Z 03006KT 2 1/2SM -RA BR FEW003 BKN005 OVC010 07/06 A3015 RMK AO2 SFC VIS 5 SLP213 P0013 T00720061=
201312091647 SPECI KATL 091647Z 02007KT 2 1/2SM -RA BR FEW003 BKN005 OVC010 07/06 A3015 RMK AO2 SFC VIS 5 P0012=
201312091631 SPECI KATL 091631Z 06007KT 2 1/2SM -RA BR FEW003 SCT005 OVC010 07/06 A3015 RMK AO2 SFC VIS 6 P0011=
201312091552 METAR KATL 091552Z 36007KT 1 1/2SM R09R/5000VP6000FT RA BR OVC005 07/06 A3016 RMK AO2 SFC VIS 3 SLP220 P0016 T00720061=
201312091452 METAR KATL 091452Z 01004KT 1 1/2SM -RA BR OVC005 07/06 A3015 RMK AO2 SFC VIS 5 SLP215 P0016 60027 T00670061 51010=
201312091352 METAR KATL 091352Z 08006KT 1/2SM -RA BR OVC004 07/06 A3012 RMK AO2 SFC VIS 3 SLP205 VIS NE-SE 2 CIG 003V007 P0008 T00670061=
201312091252 METAR KATL 091252Z 10007KT 1/2SM R09R/5500VP6000FT -RA BR BKN002 OVC004 06/06 A3012 RMK AO2 SFC VIS 1 DZE02RAB02 SLP204 P0003 T00610061=
201312091152 METAR KATL 091152Z 10006KT 1/2SM R09R/4000V4500FT -DZ BR VV002 06/06 A3011 RMK AO2 SFC VIS 3/4 DZB15E25B52RAB25E52 SLP199 P0000 60001 70009 T00610056 10061 20050 56009=
201312091052 METAR KATL 091052Z 12007KT 1/2SM R09R/5000VP6000FT BR VV002 06/05 A3011 RMK AO2 SFC VIS 3/4 DZE51 SLP200 P0000 T00560050 $=
201312090952 METAR KATL 090952Z 12007KT 1/2SM -DZ BR OVC002 06/05 A3011 RMK AO2 SFC VIS 1 1/4 DZE19B41RAB19E41 SLP202 TWRINC PCPN VRY LGT P0001 T00560050 $=
201312090852 METAR KATL 090852Z 10010KT 1/2SM R09R/P6000FT -DZ BR OVC002 06/05 A3013 RMK AO2 SFC VIS 1 SLP209 TWRINC PCPN VRY LGT P0000 60000 T00560050 56012 $=
201312090752 METAR KATL 090752Z 11008KT 1/2SM -DZ BR OVC002 06/05 A3014 RMK AO2 SFC VIS 1 1/4 SLP213 TWRINC PCPN VRY LGT P0000 T00560050 $=
201312090652 METAR KATL 090652Z 10009KT 1/2SM -DZ BR OVC003 06/05 A3015 RMK AO2 SFC VIS 1 1/2 SLP216 TWRINC P0000 T00560050 $=
201312090552 METAR KATL 090552Z 11006KT 1/2SM -DZ BR OVC003 06/05 A3017 RMK AO2 SFC VIS 1 1/4 SLP221 CIG 002V004 TWRINC P0000 60000 T00560050 10067 20056 58007 $=
201312090452 METAR KATL 090452Z 10011KT 1/2SM -DZ BR OVC003 06/05 A3019 RMK AO2 SFC VIS 1 1/2 SLP229 CIG 002V004 TWRINC P0000 T00560050 400890056 $=
201312090352 METAR KATL 090352Z 09008KT 1/2SM -DZ BR OVC004 06/05 A3020 RMK AO2 SFC VIS 3 SLP232 CIG 003V005 TWRINC P0000 T00560050 $=
201312090252 METAR KATL 090252Z 11010G17KT 1/2SM -DZ OVC003 06/05 A3019 RMK AO2 SFC VIS 8 SLP228 CIG 002V004 TWRINC PCPN VRY LGT P0000 60000 T00610050 58005 $=
201312090152 METAR KATL 090152Z 08013KT 1/2SM -DZ BR OVC003 06/06 A3020 RMK AO2 SFC VIS 1 3/4 SLP231 CIG 002V004 TWRINC P0000 T00610056 $=
201312090052 METAR KATL 090052Z 08008KT 1/2SM -DZ BR OVC003 07/06 A3023 RMK AO2 SFC VIS 1 1/2 SLP239 CIG 002V004 TWRINC P0000 T00670061 $=
201312082352 METAR KATL 082352Z 10008KT 1/2SM -DZ BR OVC003 07/06 A3021 RMK AO2 SFC VIS 2 1/2 SLP233 CIG 002V004 TWRINC P0000 60004 T00670061 10078 20067 53008 $=
201312082252 METAR KATL 082252Z 11012G17KT 1/2SM -DZ BR OVC004 07/07 A3018 RMK AO2 SFC VIS 3 SLP225 CIG 003V005 TWRINC P0000 T00720067 $=
201312082152 METAR KATL 082152Z 09011KT 1/2SM R09R/P6000FT -DZ BR OVC003 08/07 A3019 RMK AO2 SFC VIS 3/4 SLP228 P0000 T00780072 $=
201312082052 METAR KATL 082052Z 10009KT 1/2SM R09R/6000VP6000FT -DZ BR OVC004 08/07 A3018 RMK AO2 SFC VIS 1 SLP224 P0000 60004 T00780072 53001 $=
201312081952 SPECI KATL 081952Z 10014KT 1/2SM -DZ BR OVC004 08/07 A3017 RMK AO2 SFC VIS 4 RAE29DZB30 SLP220 P0002 T00780067 $=
201312081952 METAR KATL 081952Z 10014KT 1/2SM -DZ BR OVC004 08/07 A3017 RMK AO2 SFC VIS 4 RAE29DZB30 SLP220 P0002 T00780067 $=
201312081943 SPECI KATL 081943Z 10010KT 1/2SM -DZ BR OVC004 08/07 A3018 RMK AO2 SFC VIS 2 RAE29DZB30 P0002 $=
201312081935 SPECI KATL 081935Z 09011G16KT 2 1/2SM -DZ BR OVC004 08/07 A3018 RMK AO2 RAE29DZB30 P0002 $=
201312081915 SPECI KATL 081915Z 10011G17KT 2 1/2SM BR OVC006 08/07 A3018 RMK AO2 SFC VIS 6 RAE08 P0001 $=
201312081852 METAR KATL 081852Z 10011G17KT 1 1/2SM R09R/6000VP6000FT RA BR OVC004 08/07 A3018 RMK AO2 SFC VIS 3 DZE21RAB21 SLP223 P0002 T00780072 $=
201312081849 SPECI KATL 081849Z 10010G16KT 1 1/2SM R09R/6000VP6000FT RA BR OVC004 08/07 A3018 RMK AO2 SFC VIS 3 DZE21RAB21 P0001 $=
201312081818 SPECI KATL 081818Z 10012G16KT 3/4SM -DZ BR OVC004 08/07 A3019 RMK AO2 SFC VIS 3 P0000 $=
201312081752 METAR KATL 081752Z 10011KT 1/4SM -DZ BR OVC004 08/07 A3021 RMK AO2 SFC VIS 2 DZE23B46RAB23E46 SLP233 P0001 60004 T00780072 10078 20072 56023 $=
201312081747 SPECI KATL 081747Z 10012KT 1/4SM -DZ BR OVC005 08/07 A3021 RMK AO2 SFC VIS 2 DZE23B46RAB23E46 P0001 $=
201312081725 SPECI KATL 081725Z 11010G17KT 3/4SM -RA BR OVC005 08/07 A3023 RMK AO2 SFC VIS 2 DZE23RAB23 P0000 $=
201312081652 METAR KATL 081652Z 09012KT 1 1/2SM -DZ BR OVC005 08/07 A3025 RMK AO2 SFC VIS 3 SLP248 P0000 T00780067 $=
201312081552 METAR KATL 081552Z 10011KT 1 1/2SM -DZ BR OVC005 08/07 A3028 RMK AO2 SFC VIS 2 1/2 SLP258 P0001 T00780067 $=
201312081532 SPECI KATL 081532Z 11008G16KT 1 1/2SM -DZ BR OVC005 08/07 A3028 RMK AO2 SFC VIS 2 1/2 P0001 $=
201312081452 METAR KATL 081452Z 10008G16KT 3/4SM -DZ BR OVC005 07/07 A3027 RMK AO2 SFC VIS 1 3/4 RAE1358DZB1358 SLP255 P0001 60002 T00720067 53005 $=
201312081352 METAR KATL 081352Z 10010G19KT 1 1/2SM -RA BR OVC005 08/07 A3025 RMK AO2 DZB38E48 SLP248 CIG 004V007 P0000 T00780067 $=
201312081343 SPECI KATL 081343Z 11011G17KT 1 1/2SM -DZ BR BKN005 OVC012 08/07 A3026 RMK AO2 RAE38DZB38 CIG 004V007 P0000 $=
201312081309 SPECI KATL 081309Z 09006KT 1 1/2SM -RA BR OVC004 08/07 A3027 RMK AO2 CIG 003V007 P0000 $=
201312081256 SPECI KATL 081256Z 10011KT 2SM -RA BR BKN004 OVC012 08/07 A3027 RMK AO2 SFC VIS 4 CIG 003V007 TWRINC P0000 $=
201312081252 METAR KATL 081252Z 10007KT 1SM -RA BR BKN004 OVC012 08/07 A3027 RMK AO2 SFC VIS 4 RAE33B52DZB33E52 SLP254 CIG 003V007 TWRINC P0001 T00780067 $=
201312081241 SPECI KATL 081241Z 11011G17KT 1SM -DZ BR BKN004 OVC012 08/07 A3027 RMK AO2 SFC VIS 1 1/2 RAE33DZB33 CIG 003V007 P0000 $=
201312081152 METAR KATL 081152Z 09010KT 2SM -RA BR BKN006 OVC011 08/07 A3026 RMK AO2 SFC VIS 2 1/2 DZE41RAB41 SLP250 CIG 005V008 P0001 60005 70005 T00780072 10089 20078 53004 $=
201312081052 METAR KATL 081052Z 10010KT 2SM -DZ BR BKN006 OVC010 08/07 A3025 RMK AO2 RAE40DZB02E14B40 SLP247 P0001 T00830072 $=
201312080952 METAR KATL 080952Z 10011KT 2SM -RA BR OVC005 08/07 A3024 RMK AO2 DZE47RAB47 SLP242 CIG 004V007 P0000 T00830072 $=
201312080852 METAR KATL 080852Z 10012KT 2SM -DZ BR OVC004 08/08 A3024 RMK AO2 SFC VIS 3 RAE21DZB21 SLP245 CIG 003V007 P0001 60003 T00830078 55005 $=
201312080752 METAR KATL 080752Z 09012KT 2SM -RA BR OVC004 09/08 A3024 RMK AO2 SFC VIS 3 RAE0659B20DZB0659E20 SLP244 CIG 003V007 P0001 T00890078 $=
201312080652 METAR KATL 080652Z 09013KT 2SM -RA BR OVC004 09/08 A3024 RMK AO2 SFC VIS 2 1/2 DZE13RAB13 SLP244 CIG 003V005 P0001 T00890083 $=
201312080552 METAR KATL 080552Z 07006KT 1/4SM R09R/4500V5500FT -DZ BR VV002 08/08 A3026 RMK AO2 SFC VIS 3/4 SLP252 P0000 60000 T00830078 10083 20061 56008 $=
201312080547 SPECI KATL 080547Z 08006KT 1/4SM R09R/5000V5500FT -DZ BR VV002 08/08 A3027 RMK AO2 SFC VIS 3/4 P0000 $=
201312080452 METAR KATL 080452Z 08005KT 1/2SM -DZ BR OVC003 08/07 A3027 RMK AO2 SFC VIS 2 DZE03B50RAB03E12 SLP253 CIG 002V004 PCPN VRY LGT P0000 T00780067 401500050 $=
201312080412 SPECI KATL 080412Z 06005KT 1/2SM BR OVC003 07/06 A3027 RMK AO2 SFC VIS 2 DZE03RAB03E12 CIG 002V004 PCPN VRY LGT P0000 $=
201312080352 METAR KATL 080352Z 03004KT 1SM -DZ BR OVC004 07/06 A3028 RMK AO2 SFC VIS 2 DZE04B49RAB04E33 SLP258 CIG 003V005 PCPN VRY LGT P0000 T00670056 $=
201312080342 SPECI KATL 080342Z 05005KT 1SM BR OVC004 07/06 A3027 RMK AO2 SFC VIS 3 DZE04RAB04E33 CIG 003V006 P0000 $=
201312080319 SPECI KATL 080319Z 35004KT 2 1/2SM -RA BR OVC006 06/05 A3029 RMK AO2 SFC VIS 6 DZE04RAB04 CIG 005V007 PCPN VRY LGT P0000 $=
201312080252 METAR KATL 080252Z 01004KT 8SM -DZ OVC007 07/04 A3029 RMK AO2 DZB52 SLP261 CIG 006V008 PCPN VRY LGT P0000 60000 T00670044 51006 $=
201312080152 METAR KATL 080152Z 33008KT 10SM OVC009 07/04 A3029 RMK AO2 SLP261 CIG 008V010 T00670039 $=
201312080125 SPECI KATL 080125Z 35005KT 10SM OVC009 07/04 A3028 RMK AO2 $=
201312080052 METAR KATL 080052Z 01005KT 10SM OVC010 07/04 A3027 RMK AO2 SLP256 T00670039 $=
201312072352 METAR KATL 072352Z 36007KT 10SM OVC012 07/04 A3027 RMK AO2 SLP254 T00670039 10089 20067 53012 $=
201312072252 METAR KATL 072252Z 31008KT 10SM OVC014 07/04 A3025 RMK AO2 SLP249 T00720039 $=
201312072152 METAR KATL 072152Z 33010KT 10SM OVC014 08/04 A3024 RMK AO2 SLP246 T00780039 $=
201312072139 SPECI KATL 072139Z 32010KT 10SM BKN014 BKN100 OVC250 08/04 A3024 RMK AO2 $=
201312072052 METAR KATL 072052Z 33009KT 10SM SCT046 BKN090 OVC250 08/04 A3023 RMK AO2 SLP240 T00830039 56009 $=
201312071952 METAR KATL 071952Z 33010KT 10SM FEW016 OVC040 08/04 A3024 RMK AO2 SLP242 T00830039 $=
201312071852 METAR KATL 071852Z 32007KT 10SM FEW016 BKN045 BKN250 08/04 A3024 RMK AO2 SLP243 T00780039 $=
201312071752 METAR KATL 071752Z 32013KT 10SM FEW013 SCT040 BKN065 07/04 A3026 RMK AO2 SLP247 T00720039 10078 20050 58002 $=
201312071743 SPECI KATL 071743Z 32013KT 10SM SCT011 BKN040 BKN065 07/04 A3026 RMK AO2 $=
201312071652 METAR KATL 071652Z 32010KT 10SM OVC011 07/04 A3027 RMK AO2 SLP253 T00670039 $=
201312071619 SPECI KATL 071619Z 33011G17KT 10SM OVC010 06/04 A3028 RMK AO2 $=
201312071552 METAR KATL 071552Z 32010KT 10SM OVC008 06/04 A3028 RMK AO2 SLP254 T00610039 $=
201312071452 METAR KATL 071452Z 32012KT 10SM OVC008 06/04 A3026 RMK AO2 SLP250 T00560039 51019 $=
201312071352 METAR KATL 071352Z 32011KT 7SM OVC006 05/04 A3025 RMK AO2 SLP243 T00500039 $=
201312071252 METAR KATL 071252Z 31010KT 7SM OVC006 06/04 A3023 RMK AO2 SLP237 T00560044 $=
201312071152 METAR KATL 071152Z 32016G20KT 7SM OVC006 06/04 A3021 RMK AO2 SLP228 60005 70038 T00560044 10139 20056 51022 $=
201312071052 METAR KATL 071052Z 31012KT 7SM OVC005 06/05 A3018 RMK AO2 SLP219 CIG 004V008 T00610050 $=
201312070952 METAR KATL 070952Z 31010KT 7SM OVC005 07/06 A3017 RMK AO2 SLP214 CIG 004V008 T00720061=
201312070852 METAR KATL 070852Z 33011KT 7SM OVC006 08/07 A3014 RMK AO2 SLP204 CIG 005V009 60005 T00830072 53016=
201312070752 METAR KATL 070752Z 32013KT 7SM BKN005 BKN010 OVC014 10/09 A3012 RMK AO2 SLP197 CIG 004V007 T01000089=
201312070652 METAR KATL 070652Z 32012KT 7SM BKN005 OVC010 12/11 A3011 RMK AO2 RAE34 SLP191 P0005 T01170106=
201312070552 METAR KATL 070552Z 32006KT 6SM -RA BR BKN006 BKN014 OVC040 14/13 A3009 RMK AO2 SLP185 P0015 60033 T01390128 10217 20139 51012=
201312070530 SPECI KATL 070530Z 34007KT 5SM -RA BR SCT006 BKN014 OVC070 14/13 A3008 RMK AO2 P0012=
201312070520 SPECI KATL 070520Z 32005KT 5SM -RA BR BKN006 BKN015 OVC060 14/13 A3009 RMK AO2 P0010=
201312070506 SPECI KATL 070506Z 34004KT 2 1/2SM +RA BR SCT005 BKN015 OVC040 15/14 A3009 RMK AO2 P0002=
201312070452 METAR KATL 070452Z 35005KT 8SM -RA BKN006 OVC025 16/14 A3008 RMK AO2 RAB0356 SLP180 P0005 T01560144 402390156=
201312070424 SPECI KATL 070424Z 28004KT 7SM -RA BKN006 OVC025 16/15 A3008 RMK AO2 RAB0356 P0005=
201312070352 METAR KATL 070352Z 29007KT 10SM FEW006 BKN026 OVC040 16/14 A3007 RMK AO2 RAE37 SLP178 P0007 T01560144=
201312070312 SPECI KATL 070312Z 32011KT 6SM -RA BR FEW009 BKN040 OVC070 16/15 A3006 RMK AO2 P0007=
201312070252 METAR KATL 070252Z 30015G35KT 3SM R09R/5500VP6000FT +RA BR SCT015CB BKN022 OVC070 17/16 A3006 RMK AO2 PK WND 29035/0246 TSB24E48RAB35 SLP172 CB NE-SE-SW MOV NE P0006 60006 T01720156 52014=
201312070249 SPECI KATL 070249Z 30019G35KT 1 1/2SM R09R/5500VP6000FT +RA BR BKN015CB BKN022 OVC070 19/17 A3006 RMK AO2 PK WND 29035/0246 TSB24E48RAB35 PRESRR TS DSIPTD CB NE-OHD-SW MOV NE P0000=
201312070224 SPECI KATL 070224Z 21013G19KT 10SM TS SCT015CB BKN022 BKN070 OVC200 22/19 A3002 RMK AO2 TSB24 OCNL LTGIC W-NW TS VC W-NW MOV NE=
201312070152 SPECI KATL 070152Z 20011G18KT 10SM SCT015 BKN022 BKN080 OVC200 21/19 A3001 RMK AO2 SLP156 OCNL LTG DSNT NW-N T02110189=
201312070152 METAR KATL 070152Z 20011G18KT 10SM SCT015 BKN022 BKN080 OVC200 21/19 A3001 RMK AO2 SLP156 OCNL LTG DSNT NW-N T02110189=
201312070112 SPECI KATL 070112Z 19009G16KT 10SM SCT015 BKN026 OVC085 22/19 A3002 RMK AO2=
201312070052 METAR KATL 070052Z 18010G17KT 10SM FEW015 SCT040 BKN080 OVC250 21/18 A3001 RMK AO2 SLP157 T02110183=
201312062352 METAR KATL 062352Z 17009G16KT 10SM FEW020 BKN085 BKN250 22/18 A3001 RMK AO2 SLP157 60000 T02170183 10239 20217 50001=
201312062252 METAR KATL 062252Z 19009G18KT 10SM SCT028 BKN040 BKN090 OVC250 23/18 A3002 RMK AO2 SLP159 T02280183=
201312062152 METAR KATL 062152Z 19009KT 10SM SCT028 BKN035 BKN080 OVC250 23/18 A3001 RMK AO2 RAB25E37 SLP156 P0000 T02280183=
201312062112 SPECI KATL 062112Z 19012G18KT 10SM SCT026 BKN040 BKN080 BKN250 23/18 A3001 RMK AO2=
201312062052 METAR KATL 062052Z 21014G22KT 10SM BKN024 BKN080 OVC250 23/18 A3001 RMK AO2 SLP155 T02330183 56006=
201312062044 SPECI KATL 062044Z 19011G18KT 10SM BKN024 BKN080 OVC250 23/18 A3001 RMK AO2=
201312061952 METAR KATL 061952Z 20013G17KT 10SM SCT021 BKN050 BKN070 OVC250 23/18 A3001 RMK AO2 SLP155 T02330183=
201312061940 SPECI KATL 061940Z 20010KT 10SM SCT021 BKN050 BKN070 OVC250 23/18 A3002 RMK AO2=
201312061852 METAR KATL 061852Z 19015G20KT 10SM BKN018 BKN030 OVC250 23/18 A3002 RMK AO2 SLP157 T02280183=
201312061752 METAR KATL 061752Z 20013G19KT 10SM BKN020 BKN040 BKN250 23/18 A3003 RMK AO2 SLP161 T02330183 10233 20200 58016=
201312061652 METAR KATL 061652Z 19012G17KT 10SM BKN017 BKN040 BKN250 23/19 A3005 RMK AO2 SLP169 T02280189=
201312061552 METAR KATL 061552Z 19009KT 10SM BKN015 BKN022 BKN250 22/19 A3008 RMK AO2 SLP180 T02170189=
201312061452 METAR KATL 061452Z 21009KT 10SM BKN015 BKN020 BKN250 21/19 A3008 RMK AO2 SLP179 T02110189 53010=
201312061352 METAR KATL 061352Z 20010KT 10SM BKN010 BKN020 BKN075 BKN250 21/18 A3006 RMK AO2 SLP174 T02060183=
201312061327 SPECI KATL 061327Z 19011KT 10SM BKN010 BKN018 BKN080 BKN250 20/18 A3006 RMK AO2=
201312061252 METAR KATL 061252Z 20011G16KT 10SM FEW012 BKN046 BKN070 BKN250 20/18 A3005 RMK AO2 SLP171 T02000183=
201312061152 METAR KATL 061152Z 20010KT 10SM SCT016 OVC038 21/18 A3005 RMK AO2 SLP168 70004 T02060183 10211 20206 53010=
201312061148 SPECI KATL 061148Z 20007KT 10SM SCT016 OVC038 21/18 A3005 RMK AO2=
201312061052 METAR KATL 061052Z 21008KT 10SM SCT015 BKN028 OVC065 21/18 A3003 RMK AO2 SLP163 T02060183=
201312061013 SPECI KATL 061013Z 20011KT 10SM BKN015 BKN028 OVC070 21/18 A3001 RMK AO2=
201312060952 METAR KATL 060952Z 20009G16KT 10SM FEW013 BKN036 BKN070 BKN250 21/18 A3001 RMK AO2 PK WND 20026/0901 SLP155 T02060183=
201312060852 METAR KATL 060852Z 19014G18KT 10SM SCT015 BKN032 OVC070 21/18 A3002 RMK AO2 SLP157 T02060183 56010=
201312060849 SPECI KATL 060849Z 19013KT 10SM SCT015 BKN032 OVC070 21/18 A3002 RMK AO2=
201312060752 METAR KATL 060752Z 20010G18KT 10SM FEW012 BKN016 OVC025 21/18 A3002 RMK AO2 SLP159 CIG 014V019 T02060183=
201312060652 METAR KATL 060652Z 20010G18KT 10SM OVC018 21/18 A3003 RMK AO2 SLP163 CIG 015V021 T02110183=
201312060552 METAR KATL 060552Z 20010G19KT 10SM BKN017 OVC025 21/18 A3005 RMK AO2 SLP168 60000 T02110183 10211 20211 53005=
201312060452 METAR KATL 060452Z 20010KT 10SM BKN017 BKN022 OVC040 21/18 A3004 RMK AO2 SLP165 T02110183 402220183=
201312060352 METAR KATL 060352Z 21008KT 10SM BKN017 BKN022 OVC060 21/19 A3004 RMK AO2 SLP166 T02110189=
201312060321 SPECI KATL 060321Z 21009KT 10SM FEW012 BKN020 BKN070 OVC150 21/19 A3004 RMK AO2=
201312060252 METAR KATL 060252Z 20010KT 10SM SCT012 BKN080 BKN150 OVC200 21/19 A3003 RMK AO2 SLP164 60000 T02110194 51007=
201312060223 SPECI KATL 060223Z 20009KT 10SM FEW010 BKN080 BKN150 OVC200 21/19 A3003 RMK AO2=
201312060159 SPECI KATL 060159Z 21010KT 10SM FEW008 BKN014 BKN060 OVC200 21/20 A3003 RMK AO2=
201312060152 METAR KATL 060152Z 20009KT 10SM FEW008 SCT015 BKN060 OVC200 21/20 A3003 RMK AO2 RAB13E22 SLP162 P0000 T02110200=
201312060109 SPECI KATL 060109Z 17008KT 10SM SCT008 BKN012 OVC090 21/20 A3003 RMK AO2=
201312060052 METAR KATL 060052Z 17008KT 10SM FEW010 SCT050 BKN100 OVC200 21/20 A3002 RMK AO2 SLP160 OCNL LTGIC DSNT NW T02110200=
201312052352 METAR KATL 052352Z 17008KT 10SM FEW030 BKN150 BKN200 OVC250 21/19 A3001 RMK AO2 SLP157 60004 T02110194 10222 20211 50001=
201312052252 METAR KATL 052252Z 17004KT 10SM FEW025 BKN038 BKN070 OVC200 21/20 A3001 RMK AO2 RAE16 SLP157 OCNL LTG DSNT NW P0001 T02110200=
201312052152 METAR KATL 052152Z 15005KT 5SM -RA BR FEW010 BKN050 OVC080 22/19 A3001 RMK AO2 RAB34 SLP155 P0002 T02170194=
201312052052 METAR KATL 052052Z 19004KT 10SM FEW017 SCT040 OVC100 22/19 A3001 RMK AO2 SLP156 60001 T02220194 58008=
201312052044 SPECI KATL 052044Z 18006KT 10SM FEW020 SCT040 OVC100 22/19 A3000 RMK AO2=
201312051954 SPECI KATL 051954Z 20004KT 10SM FEW012 BKN016 OVC040 21/20 A3001 RMK AO2=
201312051952 METAR KATL 051952Z 20004KT 8SM BKN012 BKN018 OVC040 21/20 A3001 RMK AO2 RAB19E44 SLP157 VIS LWR N-NE-E SHRA P0001 T02110200=
201312051937 SPECI KATL 051937Z 19003KT 5SM -RA BR SCT014 BKN020 OVC040 22/20 A3001 RMK AO2 RAB19 P0001=
201312051936 SPECI KATL 051936Z 18003KT 5SM -RA BR SCT014 BKN024 OVC042 22/20 A3001 RMK AO2 RAB19 VIS LWR S-SW-W SHRA P0001=
201312051923 SPECI KATL 051923Z 19007KT 8SM -RA SCT014 BKN020 OVC040 22/19 A3002 RMK AO2 RAB19 VIS LWR S-SW-W SHRA P0000=
201312051852 METAR KATL 051852Z 16005KT 10SM BKN012 BKN015 BKN025 22/19 A3003 RMK AO2 SLP163 T02170194=
201312051850 SPECI KATL 051850Z 16005KT 10SM BKN012 BKN015 BKN025 22/19 A3003 RMK AO2=
201312051754 SPECI KATL 051754Z 20006KT 10SM SCT010 BKN017 BKN030 22/19 A3006 RMK AO2=
201312051752 METAR KATL 051752Z 20006KT 10SM SCT008 BKN012 OVC030 22/19 A3006 RMK AO2 SLP173 60000 T02170189 10217 20189 58014=
201312051652 METAR KATL 051652Z 20005KT 10SM SCT008 BKN010 OVC015 21/19 A3009 RMK AO2 SLP183 T02060189=
201312051552 METAR KATL 051552Z 21008KT 9SM BKN007 BKN010 OVC012 20/19 A3011 RMK AO2 SLP189 T02000189=
201312051516 SPECI KATL 051516Z 19006KT 8SM BKN006 BKN008 OVC010 20/19 A3010 RMK AO2=
201312051452 METAR KATL 051452Z 21006KT 2SM BR OVC005 19/18 A3010 RMK AO2 SFC VIS 6 SLP188 60000 T01940183 51016=
201312051445 SPECI KATL 051445Z 21007KT 2SM BR OVC005 19/18 A3010 RMK AO2 SFC VIS 6 TWRINC=
201312051352 METAR KATL 051352Z 21005KT 1/2SM BR OVC004 19/18 A3009 RMK AO2 SFC VIS 5 DZE30 SLP182 VIS S-SW 2 CIG 003V005 TWRINC P0000 T01890183=
201312051302 SPECI KATL 051302Z 19007KT 1/2SM -DZ BR OVC004 19/18 A3007 RMK AO2 SFC VIS 5 CIG 003V005 TWRINC P0000=
201312051252 METAR KATL 051252Z 19006KT 1SM -DZ BR OVC005 19/18 A3007 RMK AO2 SFC VIS 6 RAB1156E16B35E45DZB45 SLP178 CIG 003V006 P0000 T01890178=
201312051152 METAR KATL 051152Z 19008KT 2SM OVC005 19/18 A3005 RMK AO2 SFC VIS 10 SLP172 CIG 004V007 60000 T01890178 10189 20183 53005=
201312051052 METAR KATL 051052Z 19005KT 2SM OVC006 19/18 A3004 RMK AO2 SFC VIS 8 SLP165 CIG 004V008 T01890183=
201312051009 SPECI KATL 051009Z 19005KT 2SM BKN005 OVC012 19/18 A3003 RMK AO2 SFC VIS 8 CIG 003V007=
201312050952 METAR KATL 050952Z 18007KT 3/4SM BR OVC003 19/18 A3003 RMK AO2 SFC VIS 6 SLP163 CIG 002V004 TWRINC T01890183=
201312050935 SPECI KATL 050935Z 20006KT 1/4SM BR OVC003 19/18 A3003 RMK AO2 SFC VIS 5 CIG 002V004 TWRINC=
201312050852 METAR KATL 050852Z 18006KT 1/2SM BR OVC002 19/18 A3004 RMK AO2 SFC VIS 3 RAE0757 SLP166 TWRINC P0000 60000 T01890183 56002=
201312050752 METAR KATL 050752Z 18005KT 2SM -RA BR OVC004 19/18 A3004 RMK AO2 SFC VIS 6 RAB46 SLP166 CIG 003V005 P0000 T01890178=
201312050739 SPECI KATL 050739Z 18005KT 2SM OVC004 19/18 A3004 RMK AO2 SFC VIS 7 CIG 003V005=
201312050652 METAR KATL 050652Z 20004KT 1/2SM BR OVC003 18/18 A3004 RMK AO2 SFC VIS 6 DZB32E49 SLP166 CIG 002V004 TWRINC P0000 T01830178=
201312050635 SPECI KATL 050635Z 20006KT 1/2SM -DZ OVC004 19/18 A3004 RMK AO2 SFC VIS 7 DZB32 CIG 003V005 TWRINC P0000=
201312050552 METAR KATL 050552Z 20009KT 10SM OVC005 19/18 A3005 RMK AO2 SLP168 60000 T01890178 10189 20183 50007=
201312050452 METAR KATL 050452Z 18005KT 9SM BKN008 OVC020 18/18 A3005 RMK AO2 RAB17E26 SLP169 CIG 006V010 P0000 T01830178 402280144=
201312050352 METAR KATL 050352Z 22004KT 8SM BKN006 OVC015 18/18 A3004 RMK AO2 SLP166 CIG 004V008 T01830178=
201312050252 METAR KATL 050252Z 15006KT 6SM BR BKN006 OVC070 18/17 A3002 RMK AO2 RAE44 SLP162 CIG 004V008 P0000 60000 T01830172 51005=
201312050243 SPECI KATL 050243Z 16008KT 7SM -RA BKN005 BKN036 OVC075 18/17 A3002 RMK AO2 P0000=
201312050216 SPECI KATL 050216Z 16008KT 6SM -RA BR FEW007 SCT020 OVC040 18/17 A3003 RMK AO2 P0000=
201312050152 METAR KATL 050152Z 15007KT 7SM -RA SCT015 BKN024 OVC040 18/17 A3002 RMK AO2 RAB52 SLP162 P0000 T01830172=
201312050114 SPECI KATL 050114Z 14006KT 9SM SCT015 BKN023 BKN080 BKN200 18/17 A3001 RMK AO2=
201312050052 METAR KATL 050052Z 14004KT 9SM FEW018 SCT025 BKN250 18/16 A3001 RMK AO2 SLP159 T01830161=
201312050045 SPECI KATL 050045Z 14004KT 10SM FEW018 SCT025 BKN250 18/16 A3001 RMK AO2=
201312050029 SPECI KATL 050029Z 14004KT 10SM FEW018 BKN025 BKN250 18/17 A3001 RMK AO2=
201312042352 METAR KATL 042352Z 15006KT 10SM FEW020 SCT050 BKN250 19/16 A3001 RMK AO2 SLP158 T01890161 10228 20189 52016=
201312042252 METAR KATL 042252Z 17006KT 10SM FEW050 BKN250 19/16 A2999 RMK AO2 SLP150 T01940161=
201312042152 METAR KATL 042152Z 18008KT 10SM FEW020 SCT050 BKN250 21/16 A2998 RMK AO2 SLP147 T02060161=
201312042052 METAR KATL 042052Z 18011KT 10SM FEW025 SCT055 BKN250 22/16 A2996 RMK AO2 SLP139 T02170156 55009=
201312041952 METAR KATL 041952Z 20011G17KT 10SM FEW030 SCT250 22/16 A2995 RMK AO2 SLP137 T02220156=
201312041945 SPECI KATL 041945Z 22009G17KT 10SM FEW030 SCT250 23/16 A2995 RMK AO2=
201312041852 METAR KATL 041852Z 21008KT 10SM BKN028 BKN050 22/16 A2996 RMK AO2 SLP141 T02170156=
201312041752 METAR KATL 041752Z 20007KT 10SM SCT020TCU BKN040 BKN250 22/16 A2999 RMK AO2 SLP149 TCU E & S & NW T02170161 10217 20144 58013=
201312041652 METAR KATL 041652Z 21009KT 10SM BKN015 BKN025 BKN250 20/17 A3002 RMK AO2 SLP161 T02000167=
201312041611 SPECI KATL 041611Z 22007KT 10SM BKN011 BKN015 BKN250 18/17 A3003 RMK AO2=
201312041552 METAR KATL 041552Z VRB05KT 8SM BKN008 BKN015 BKN250 18/17 A3003 RMK AO2 SLP164 T01780172=
201312041515 SPECI KATL 041515Z 20008KT 6SM BR BKN006 BKN008 BKN012 17/17 A3003 RMK AO2=
201312041503 SPECI KATL 041503Z 19006KT 1SM BR BCFG BKN005 BKN008 BKN012 17/17 A3002 RMK AO2 SFC VIS 4=
201312041452 METAR KATL 041452Z 17007KT 1/4SM R09R/5000VP6000FT BR BCFG BKN003 BKN005 OVC010 17/17 A3002 RMK AO2 SFC VIS 1 SLP164 VIS LWR NE-SW BCFG TWRINC T01720167 53019=
201312041352 METAR KATL 041352Z 00000KT 1/4SM R09R/2200VP6000FT FG BKN002 OVC012 16/16 A3001 RMK AO2 SFC VIS 1/2 SLP158 VIS NW-N 1 T01610156=
201312041341 SPECI KATL 041341Z 00000KT 1/4SM R09R/1600V5000FT FG BKN002 BKN012 OVC030 16/16 A3000 RMK AO2=
201312041252 METAR KATL 041252Z 14003KT 1/4SM R09R/1400V2200FT FG BKN003 OVC012 15/15 A2999 RMK AO2 SFC VIS 1/2 SLP151 VIS NW-NE 1 1/4 T01500150=
201312041152 METAR KATL 041152Z 12003KT 1/4SM R09R/1600V3000FT FG BKN002 OVC010 14/14 A2997 RMK AO2 SFC VIS 1/2 RAE20DZB00E11 SLP145 P0001 60001 70051 T01440144 10156 20144 53014=
201312041134 SPECI KATL 041134Z 00000KT 1/2SM BR BKN003 BKN011 OVC018 15/14 A2996 RMK AO2 SFC VIS 2 RAE20DZB00E11 CIG 002V005 TWRINC P0001=
201312041052 METAR KATL 041052Z 00000KT 1/4SM R09R/4000V5000FT -RA BR VV002 15/15 A2995 RMK AO2 SFC VIS 3/4 DZE46RAB46 SLP140 VIS 1/4V1 1/4 PCPN VRY LGT P0000 T01500150=
201312040952 METAR KATL 040952Z 12003KT 1/4SM R09R/4000V6000FT -DZ BR VV003 15/15 A2992 RMK AO2 SFC VIS 3/4 RAB21E35DZB35 SLP130 VIS 1/4V1 PCPN VRY LGT P0000 T01500150=
201312040950 SPECI KATL 040950Z 00000KT 1/4SM R09R/4000VP6000FT -DZ BR VV003 15/15 A2992 RMK AO2 SFC VIS 3/4 RAB21E35DZB35 VIS 1/4V1 PCPN VRY LGT P0000=
201312040852 METAR KATL 040852Z 10003KT 1/16SM R09R/2800V3500FT FG VV003 15/14 A2992 RMK AO2 SFC VIS 1/2 SLP130 VIS 1/8V3/4 60000 T01500144 50001=
201312040752 METAR KATL 040752Z 09003KT 1/16SM R09R/2800VP6000FT FG VV002 15/14 A2992 RMK AO2 SFC VIS 1/4 RAE12DZB12E42 SLP131 VIS 1/16V3/4 P0000 T01500144=
201312040652 METAR KATL 040652Z COR 00000KT 1/16SM R09R/2600V3000FT -RA FG VV002 15/14 A2992 RMK AO2 SFC VIS 1/8 DZE50RAB50 SLP129 PCPN VRY LGT P0000 T01500144=
201312040552 METAR KATL 040552Z 14003KT 1/2SM R09R/3000V4500FT -DZ BR OVC002 15/14 A2991 RMK AO2 SFC VIS 3/4 DZB50 SLP127 PCPN VRY LGT P0000 60029 T01500144 10150 20144 51005=
201312040452 METAR KATL 040452Z 11004KT 1/2SM R09R/3500VP6000FT BR VV002 15/14 A2991 RMK AO2 SFC VIS 3/4 SLP126 T01500144 401500100=
201312040352 METAR KATL 040352Z 10004KT 1/2SM BR OVC003 14/14 A2990 RMK AO2 SFC VIS 2 SLP125 CIG 002V005 TWRINC T01440144=
201312040252 METAR KATL 040252Z 00000KT 1/2SM BR OVC003 15/14 A2990 RMK AO2 SFC VIS 5 RAE01 SLP123 CIG 002V005 TWRINC P0001 60029 T01500144 51007=
201312040207 SPECI KATL 040207Z 13003KT 1/2SM BR BKN003 OVC020 15/14 A2990 RMK AO2 SFC VIS 5 RAE01 CIG 002V007 TWRINC P0001=
201312040152 METAR KATL 040152Z 11004KT 1SM -RA BR BKN004 OVC050 15/14 A2990 RMK AO2 SFC VIS 2 SLP123 CIG 003V007 P0024 T01500144=
201312040052 METAR KATL 040052Z 11003KT 1SM +RA BR SCT003 BKN008 OVC025 15/14 A2988 RMK AO2 SFC VIS 2 RAB38 SLP119 P0004 T01500144=
201312040041 SPECI KATL 040041Z 15003KT 1SM RA BR SCT003 BKN007 OVC012 15/14 A2988 RMK AO2 SFC VIS 3 RAB38 P0001=
201312040032 SPECI KATL 040032Z 10003KT 1 1/2SM BR FEW003 BKN008 OVC015 15/14 A2988 RMK AO2 SFC VIS 6=
201312032352 METAR KATL 032352Z 00000KT 7SM SCT007 BKN014 OVC022 15/14 A2988 RMK AO2 SLP117 60018 T01500144 10150 20139 53013 $=
201312032252 METAR KATL 032252Z 00000KT 6SM BR BKN006 BKN012 OVC020 15/14 A2986 RMK AO2 RAE20 SLP110 P0002 T01500139=
201312032221 SPECI KATL 032221Z 17004KT 3SM BR BKN005 BKN010 OVC030 15/14 A2985 RMK AO2 SFC VIS 6 RAE20 P0002=
201312032152 METAR KATL 032152Z 17004KT 1SM -RA BR BKN006 BKN010 OVC030 15/14 A2984 RMK AO2 SFC VIS 2 SLP105 P0004 T01500144=
201312032102 SPECI KATL 032102Z 16005KT 1SM -RA BR BKN006 BKN008 OVC030 15/14 A2984 RMK AO2 SFC VIS 4 P0001=
201312032057 SPECI KATL 032057Z 17006KT 1SM -RA BR BKN006 BKN017 OVC031 15/14 A2984 RMK AO2 SFC VIS 2 1/2 P0000=
201312032052 METAR KATL 032052Z 17006KT 1SM -RA BR BKN004 BKN008 OVC032 15/14 A2984 RMK AO2 SFC VIS 3 SLP103 P0008 60012 T01500139 56006=
201312032016 SPECI KATL 032016Z 16004KT 1SM RA BR OVC004 14/14 A2984 RMK AO2 SFC VIS 1 1/2 P0004=
201312031952 METAR KATL 031952Z 17003KT 1SM R09R/5000VP6000FT -RA BR BKN004 OVC006 14/14 A2984 RMK AO2 SFC VIS 2 RAB36 SLP104 P0004 T01440139=
201312031948 SPECI KATL 031948Z 18004KT 1/2SM R09R/5000VP6000FT +RA BR OVC004 14/14 A2984 RMK AO2 SFC VIS 1 1/4 RAB36 P0002=
201312031852 METAR KATL 031852Z 18006KT 1/2SM BR OVC005 14/13 A2985 RMK AO2 SFC VIS 4 SLP108 T01440133=
201312031752 METAR KATL 031752Z 18005KT 1/2SM BR OVC005 14/13 A2986 RMK AO2 SFC VIS 4 SLP109 60003 T01390133 10139 20100 58014=
201312031652 METAR KATL 031652Z 18004KT 1/2SM BR OVC004 13/12 A2989 RMK AO2 SFC VIS 3 SLP122 T01280122=
201312031552 METAR KATL 031552Z 17007KT 1/2SM BR OVC003 12/12 A2990 RMK AO2 SFC VIS 2 DZE50 SLP127 TWRINC P0000 T01220117=
201312031452 METAR KATL 031452Z 15003KT 1/2SM R09R/5000V6000FT -DZ BR OVC003 11/11 A2990 RMK AO2 SFC VIS 1 RAE1356DZB49 SLP125 CIG 003V005 P0000 60003 T01110111 53013=
201312031432 SPECI KATL 031432Z 16004KT 1/2SM R09R/4000V5000FT BR OVC003 11/11 A2989 RMK AO2 SFC VIS 3/4 RAE1356 CIG 003V005 P0000=
201312031415 SPECI KATL 031415Z AUTO 15005KT 1/2SM R09R/4500VP6000FT BR BKN002 OVC005 11/11 A2988 RMK AO2 SFC VIS 1 RAE1356 CIG 003V005 P0000=
201312031406 SPECI KATL 031406Z 13006KT 1SM BR OVC004 11/11 A2987 RMK AO2 SFC VIS 1 1/2 RAE1356 CIG 003V005 P0000=
201312031352 METAR KATL 031352Z 13005KT 1 1/2SM -RA BR BKN004 BKN012 OVC042 11/10 A2987 RMK AO2 RAB06 SLP115 CIG 003V006 P0003 T01060100=
201312031302 SPECI KATL 031302Z 14003KT 1 1/2SM BR BKN004 BKN009 OVC023 11/10 A2987 RMK AO2 SFC VIS 2=
201312031252 METAR KATL 031252Z VRB03KT 1 1/2SM BR FEW004 SCT009 OVC023 10/09 A2987 RMK AO2 SFC VIS 2 SLP114 VIS NE-SE 1 1/2 T01000094=
201312031232 SPECI KATL 031232Z 12005KT 2 1/2SM BR FEW005 SCT014 OVC023 11/09 A2986 RMK AO2=
201312031212 SPECI KATL 031212Z 12003KT 2 1/2SM BR BKN005 BKN010 OVC014 11/10 A2987 RMK AO2 SFC VIS 3=
201312031152 METAR KATL 031152Z 12003KT 4SM BR FEW004 OVC008 10/09 A2986 RMK AO2 RAE10 SLP111 P0001 60003 70020 T01000094 10111 20100 53005=
201312031136 SPECI KATL 031136Z 12003KT 4SM BR BKN008 OVC012 10/09 A2985 RMK AO2 RAE10 P0001=
201312031111 SPECI KATL 031111Z 12003KT 5SM BR FEW003 BKN010 OVC070 10/09 A2985 RMK AO2 RAE10 P0001=
201312031052 METAR KATL 031052Z 14003KT 5SM -RA BR FEW034 OVC070 10/09 A2985 RMK AO2 SLP107 P0001 T01000094=
201312031007 SPECI KATL 031007Z 12003KT 4SM -RA BR SCT027 SCT037 OVC090 10/09 A2985 RMK AO2 P0000=
201312030952 METAR KATL 030952Z 14005KT 5SM -RA BR BKN024 OVC035 10/09 A2985 RMK AO2 RAB10 SLP108 P0001 T01000094=
201312030937 SPECI KATL 030937Z 13003KT 6SM -RA BR BKN024 OVC035 11/09 A2985 RMK AO2 RAB10 P0000=
201312030852 METAR KATL 030852Z 12004KT 6SM BR FEW006 BKN039 OVC090 11/09 A2984 RMK AO2 SLP106 60000 T01060094 56005=
201312030752 METAR KATL 030752Z 10003KT 5SM BR FEW004 BKN045 BKN070 11/09 A2985 RMK AO2 SLP107 T01060094=
201312030652 METAR KATL 030652Z 14004KT 5SM BR FEW001 SCT050 BKN085 11/10 A2984 RMK AO2 RAB07E36 SLP106 VIS LWR S-W P0000 T01060100=
201312030552 METAR KATL 030552Z 10004KT 6SM BR BCFG FEW001 BKN046 BKN080 11/10 A2986 RMK AO2 SLP111 VIS LWR SE-SW 60009 T01060100 10117 20106 58002=
201312030452 METAR KATL 030452Z 17005KT 6SM BR FEW003 SCT048 BKN065 BKN130 11/10 A2986 RMK AO2 SLP113 VIS LWR NW-NE T01060100 401220072=
201312030352 METAR KATL 030352Z 15004KT 6SM BR FEW001 BKN050 BKN110 11/11 A2986 RMK AO2 RAE23 SLP114 VIS LWR E-S-SW P0002 T01110106=
201312030252 METAR KATL 030252Z 18003KT 4SM -RA BR FEW040 BKN055 OVC075 11/11 A2986 RMK AO2 SLP114 P0003 60007 T01110106 51005=
201312030152 METAR KATL 030152Z 00000KT 6SM -RA BR FEW008 BKN045 OVC110 11/11 A2986 RMK AO2 RAE22B52 SLP113 VIS LWR SE-SW P0001 T01110106=
201312030052 METAR KATL 030052Z 17003KT 4SM -RA BR FEW008 BKN055 OVC070 11/11 A2986 RMK AO2 SLP112 P0003 T01110106=
201312022352 METAR KATL 022352Z 19003KT 6SM -RA BR FEW010 BKN045 OVC070 12/11 A2985 RMK AO2 RAB2259 SLP109 P0000 60001 T01170106 10122 20100 53004=
201312022252 METAR KATL 022252Z 17003KT 6SM BR SCT010 BKN040 OVC060 12/11 A2984 RMK AO2 SLP106 T01170106=
201312022208 SPECI KATL 022208Z 19003KT 6SM BR SCT009 BKN055 OVC070 12/11 A2983 RMK AO2=
201312022152 METAR KATL 022152Z 00000KT 3SM BR BKN009 BKN012 OVC030 12/11 A2983 RMK AO2 SFC VIS 6 SLP103 T01220106=
201312022052 METAR KATL 022052Z 22004KT 3SM BR BKN009 BKN012 OVC040 12/11 A2984 RMK AO2 SFC VIS 6 SLP104 60001 T01220106 56018=
201312021952 METAR KATL 021952Z 22005KT 3SM BR BKN007 BKN020 OVC040 12/11 A2984 RMK AO2 SFC VIS 6 RAB27E41 SLP105 P0000 T01170106=
201312021852 METAR KATL 021852Z 21005KT 3SM BR BKN006 BKN030 OVC040 11/09 A2986 RMK AO2 SFC VIS 5 RAB11E37 SLP114 P0001 T01060094=
201312021850 SPECI KATL 021850Z 22005KT 3SM BR BKN005 BKN030 OVC040 11/09 A2986 RMK AO2 SFC VIS 5 RAB11E37 P0001=
201312021752 METAR KATL 021752Z 22004KT 2 1/2SM BR SCT005 BKN030 OVC040 10/09 A2989 RMK AO2 SFC VIS 5 RAB22E43 SLP123 P0001 60007 T01000089 10100 20072 58018=
201312021729 SPECI KATL 021729Z 22003KT 2 1/2SM -RA BR SCT005 BKN030 OVC040 10/09 A2990 RMK AO2 SFC VIS 3 RAB22 P0000=
201312021652 METAR KATL 021652Z 18003KT 5SM BR FEW004 BKN025 OVC040 09/08 A2991 RMK AO2 DZE20RAB23E34 SLP129 P0000 T00940083=
201312021620 SPECI KATL 021620Z 21004KT 5SM BR FEW004 BKN020 OVC040 09/08 A2993 RMK AO2 DZE20 P0000=
201312021553 SPECI KATL 021553Z 22003KT 2 1/2SM -DZ BR FEW004 SCT013 OVC022 09/08 A2993 RMK AO2 SFC VIS 4 P0000=
201312021552 METAR KATL 021552Z 21003KT 2SM -DZ BR FEW004 BKN022 OVC027 09/08 A2993 RMK AO2 TWR VIS 2 1/2 SLP139 P0001 T00890078=
201312021452 METAR KATL 021452Z 23003KT 2 1/2SM -DZ BR FEW004 BKN022 OVC040 08/07 A2995 RMK AO2 SFC VIS 4 RAE26DZB32 SLP143 P0000 60005 T00830072 55005=
201312021450 SPECI KATL 021450Z 00000KT 2 1/2SM -DZ BR FEW004 BKN022 OVC040 08/07 A2995 RMK AO2 SFC VIS 4 RAE26DZB32 P0000=
201312021432 SPECI KATL 021432Z 24004KT 2SM -DZ BR BKN024 BKN030 OVC060 08/07 A2994 RMK AO2 SFC VIS 3 RAE26DZB32 P0000 $=
201312021354 SPECI KATL 021354Z 22005KT 3SM -RA BR FEW017 BKN034 OVC060 08/07 A2994 RMK AO2 P0000=
201312021352 METAR KATL 021352Z 21005KT 2 1/2SM -RA BR SCT017 BKN038 OVC060 08/07 A2994 RMK AO2 DZE1257RAB1257 SLP142 P0005 T00780067=
201312021325 SPECI KATL 021325Z 00000KT 3SM -RA BR SCT023 BKN032 OVC041 07/06 A2995 RMK AO2 DZE1257RAB1257 P0004=
201312021312 SPECI KATL 021312Z 00000KT 3SM -RA BR BKN023 OVC034 07/06 A2996 RMK AO2 DZE1257RAB1257 P0003=
201312021308 SPECI KATL 021308Z 31004KT 2 1/2SM RA BR SCT023 OVC034 07/06 A2996 RMK AO2 TWR VIS 3 DZE1257RAB1257 P0002=
201312021305 SPECI KATL 021305Z 33003KT 1 1/2SM RA BR SCT023 OVC034 07/06 A2996 RMK AO2 DZE1257RAB1257 P0001=
201312021252 METAR KATL 021252Z 31005KT 4SM -DZ BR SCT023 OVC036 07/06 A2996 RMK AO2 DZE13B33RAB13E33 SLP149 P0000 T00720056=
201312021152 METAR KATL 021152Z 32004KT 7SM -DZ FEW020 OVC043 08/05 A2996 RMK AO2 RAE51DZB51 SLP146 P0000 60000 T00780050 10094 20078 55006=
201312021052 METAR KATL 021052Z 32005KT 10SM -RA FEW020 OVC043 08/04 A2995 RMK AO2 RAB50 SLP145 P0000 T00830044=
201312020952 METAR KATL 020952Z 00000KT 10SM FEW020 OVC043 09/04 A2995 RMK AO2 SLP141 T00890044=
201312020852 METAR KATL 020852Z 00000KT 10SM BKN045 OVC070 08/04 A2997 RMK AO2 SLP151 T00830044 56012=
201312020752 METAR KATL 020752Z 00000KT 10SM BKN046 OVC060 08/04 A2999 RMK AO2 SLP155 T00830039=
201312020652 METAR KATL 020652Z 00000KT 10SM FEW047 BKN065 OVC180 09/04 A2999 RMK AO2 SLP154 T00890039=
201312020552 METAR KATL 020552Z 00000KT 10SM BKN050 OVC180 09/04 A3001 RMK AO2 SLP163 T00890039 10111 20083 58012=
201312020452 METAR KATL 020452Z 00000KT 10SM SCT055 OVC180 09/03 A3003 RMK AO2 SLP172 T00890033 401560044=
201312020352 METAR KATL 020352Z 29003KT 10SM OVC200 09/04 A3004 RMK AO2 SLP175 T00890039=
201312020252 METAR KATL 020252Z 00000KT 10SM OVC200 09/04 A3005 RMK AO2 SLP177 T00940039 56010=
201312020152 METAR KATL 020152Z 30004KT 10SM OVC200 09/04 A3006 RMK AO2 SLP182 T00940039=
201312020052 METAR KATL 020052Z 00000KT 10SM SCT180 OVC250 10/04 A3006 RMK AO2 SLP183 T01000039=
201312012352 METAR KATL 012352Z 29003KT 10SM BKN180 OVC250 11/04 A3008 RMK AO2 SLP188 T01060039 10156 20106 55005=
201312012252 METAR KATL 012252Z 24004KT 10SM OVC200 12/03 A3007 RMK AO2 SLP186 T01170033=
201312012152 METAR KATL 012152Z 24003KT 10SM OVC200 13/03 A3008 RMK AO2 SLP188 T01280033=
201312012052 METAR KATL 012052Z 27006KT 10SM SCT060 OVC220 14/03 A3009 RMK AO2 SLP192 T01390028 56029=
201312011952 METAR KATL 011952Z 31004KT 10SM SCT060 BKN250 14/03 A3011 RMK AO2 SLP197 T01440033=
201312011852 METAR KATL 011852Z VRB03KT 10SM BKN250 15/03 A3014 RMK AO2 SLP209 T01500033=
201312011752 METAR KATL 011752Z 00000KT 10SM FEW035 BKN250 13/03 A3018 RMK AO2 SLP223 T01280033 10133 20061 58028 $=
201312011652 METAR KATL 011652Z 00000KT 10SM SCT035 BKN250 11/02 A3023 RMK AO2 SLP239 T01110017 $=
201312011552 METAR KATL 011552Z 00000KT 10SM FEW012 BKN032 OVC250 09/01 A3026 RMK AO2 SLP250 T00940006 $=
201312011452 METAR KATL 011452Z 14003KT 10SM SCT012 BKN250 08/M01 A3027 RMK AO2 SLP254 SCT012 V BKN T00831011 50003 $=
201312011444 SPECI KATL 011444Z 00000KT 10SM SCT012 BKN250 08/M02 A3027 RMK AO2 SCT012 V BKN $=
201312011352 METAR KATL 011352Z 00000KT 10SM OVC014 07/M03 A3027 RMK AO2 SLP257 T00721028 $=
201312011348 SPECI KATL 011348Z 12004KT 10SM OVC014 07/M03 A3027 RMK AO2 $=
201312011329 SPECI KATL 011329Z 00000KT 10SM BKN015 OVC250 07/M03 A3028 RMK AO2 $=
201312011304 SPECI KATL 011304Z 00000KT 10SM SCT016 SCT024 BKN250 06/M03 A3027 RMK AO2 $=
201312011252 METAR KATL 011252Z 13003KT 10SM BKN016 BKN024 BKN250 06/M03 A3027 RMK AO2 SLP254 T00611033 $=
