##########################################################
# Query made at 04/19/2024 23:34:21 UTC
# Time interval: from 08/01/2013 12:00  to 08/31/2013 12:59  UTC
##########################################################

##########################################################
# KATL, Atlanta, Hartsfield - Jackson Atlanta International Airport (United States)
# WMO index: 72219. WIGOS ID: 0-20000-0-72219
# Latitude 33-38-59N. Longitude 084-25-00W. Altitude 312 m.
##########################################################

201308311252 METAR KATL 311252Z 15003KT 3SM BR BKN008 BKN250 24/23 A2999 RMK AO2 SLP145 T02440228 $=
201308311152 METAR KATL 311152Z 00000KT 3SM BR FEW008 SCT250 24/22 A2999 RMK AO2 SLP145 T02390222 10244 20222 53010 $=
201308311052 METAR KATL 311052Z 00000KT 5SM BR FEW009 23/22 A2997 RMK AO2 SLP139 T02330222 $=
201308310952 METAR KATL 310952Z 00000KT 6SM BR SCT008 23/22 A2996 RMK AO2 SLP135 T02330222 $=
201308310945 SPECI KATL 310945Z 00000KT 6SM BR FEW009 23/22 A2996 RMK AO2 $=
201308310852 METAR KATL 310852Z 00000KT 6SM BR FEW015 SCT250 24/22 A2996 RMK AO2 SLP135 T02390222 56007 $=
201308310803 SPECI KATL 310803Z 09003KT 6SM BR FEW015 SCT024 OVC250 23/22 A2997 RMK AO2 $=
201308310752 METAR KATL 310752Z 09003KT 6SM BR FEW015 BKN022 OVC250 24/22 A2997 RMK AO2 SLP136 T02390222 $=
201308310738 SPECI KATL 310738Z 00000KT 7SM BKN022 OVC250 24/22 A2996 RMK AO2 $=
201308310652 METAR KATL 310652Z COR 08003KT 7SM FEW022 BKN250 24/22 A2997 RMK AO2 SLP138 T02440222 $=
201308310552 METAR KATL 310552Z 00000KT 7SM FEW090 BKN250 24/22 A2998 RMK AO2 SLP142 T02390222 10278 20239 58003=
201308310452 METAR KATL 310452Z 00000KT 6SM BR FEW090 BKN250 24/23 A2999 RMK AO2 SLP145 T02440228 403060239=
201308310352 METAR KATL 310352Z 17003KT 8SM SCT030 BKN090 BKN250 24/23 A2999 RMK AO2 SLP147 T02440228=
201308310252 METAR KATL 310252Z COR 16005KT 8SM BKN250 25/23 A2999 RMK AO2 SLP145 T02500228 53010=
201308310152 METAR KATL 310152Z 13006KT 8SM BKN250 26/23 A2999 RMK AO2 SLP143 T02610233=
201308310052 METAR KATL 310052Z 12007KT 9SM BKN250 27/23 A2997 RMK AO2 SLP137 T02720233 $=
201308302352 METAR KATL 302352Z 09005KT 8SM FEW030TCU BKN250 28/23 A2996 RMK AO2 SLP135 TCU VC SW T02780233 10306 20278 56002 $=
201308302252 METAR KATL 302252Z 12004KT 8SM FEW030 SCT250 29/23 A2996 RMK AO2 SLP135 TCU DSNT N T02890228 $=
201308302152 METAR KATL 302152Z 06006KT 8SM FEW030 SCT250 30/23 A2996 RMK AO2 SLP135 T03000228 $=
201308302052 METAR KATL 302052Z VRB04KT 7SM SCT032 BKN200 31/23 A2997 RMK AO2 SLP137 T03060228 56020=
201308302036 SPECI KATL 302036Z 08008KT 7SM SCT032 BKN200 29/23 A2997 RMK AO2=
201308302017 SPECI KATL 302017Z 08006KT 7SM BKN028 29/23 A2998 RMK AO2=
201308301952 METAR KATL 301952Z 09008KT 6SM HZ SCT024 BKN032 BKN200 30/23 A2998 RMK AO2 SLP142 T03000233=
201308301852 METAR KATL 301852Z 10006KT 6SM HZ SCT020 BKN032 BKN250 28/23 A3001 RMK AO2 SLP150 T02830228=
201308301824 SPECI KATL 301824Z 06007KT 6SM HZ SCT022 BKN035 OVC250 29/23 A3002 RMK AO2=
201308301752 METAR KATL 301752Z 10004KT 5SM HZ OVC020 28/23 A3003 RMK AO2 SLP158 T02780228 10278 20244 58005=
201308301652 METAR KATL 301652Z 08006KT 5SM HZ OVC018 28/23 A3004 RMK AO2 SLP162 T02780228=
201308301552 METAR KATL 301552Z 10007KT 6SM HZ OVC016 27/22 A3005 RMK AO2 SLP165 T02670222=
201308301508 SPECI KATL 301508Z 08010KT 6SM HZ OVC016 27/23 A3005 RMK AO2=
201308301452 METAR KATL 301452Z 10008G16KT 7SM BKN014 27/23 A3005 RMK AO2 SLP163 T02720228 51010=
201308301420 SPECI KATL 301420Z 09008KT 6SM HZ BKN012 26/22 A3004 RMK AO2=
201308301352 METAR KATL 301352Z 09010KT 5SM HZ BKN010 26/22 A3004 RMK AO2 SLP161 T02560222=
201308301252 METAR KATL 301252Z 08009KT 3SM BR OVC006 24/23 A3003 RMK AO2 SFC VIS 5 SLP157 BINOVC T02440228=
201308301219 SPECI KATL 301219Z 06010KT 5SM BR BKN008 24/22 A3002 RMK AO2=
201308301152 METAR KATL 301152Z 03008KT 6SM HZ FEW012 SCT045 25/22 A3001 RMK AO2 SLP151 T02500222 10256 20239 53015=
201308301052 METAR KATL 301052Z 02006KT 8SM FEW055 25/22 A2999 RMK AO2 SLP144 T02500222=
201308300952 METAR KATL 300952Z 35005KT 8SM FEW050 24/22 A2998 RMK AO2 SLP139 T02440222=
201308300852 METAR KATL 300852Z 32006KT 8SM FEW080 24/22 A2997 RMK AO2 SLP136 T02390222 58002=
201308300752 METAR KATL 300752Z 32006KT 9SM CLR 24/22 A2997 RMK AO2 SLP136 T02440222=
201308300652 METAR KATL 300652Z 32006KT 9SM FEW250 25/22 A2997 RMK AO2 SLP138 T02500222=
201308300552 METAR KATL 300552Z 30007KT 9SM FEW250 25/22 A2997 RMK AO2 SLP138 T02500222 10300 20250 56008=
201308300452 METAR KATL 300452Z 31006KT 10SM FEW250 26/22 A2998 RMK AO2 SLP140 T02610222 403330222=
201308300352 METAR KATL 300352Z 32007KT 10SM SCT250 27/22 A2998 RMK AO2 SLP141 T02670222=
201308300252 METAR KATL 300252Z 29005KT 10SM SCT250 26/22 A3000 RMK AO2 SLP146 T02610222 51011=
201308300152 METAR KATL 300152Z 29006KT 10SM SCT250 27/22 A2999 RMK AO2 SLP144 T02720222=
201308300052 METAR KATL 300052Z 31006KT 10SM FEW100 SCT250 28/22 A2997 RMK AO2 SLP139 T02830222=
201308292352 METAR KATL 292352Z 32009KT 10SM FEW100 SCT250 30/22 A2996 RMK AO2 SLP136 T03000222 10333 20300 55002=
201308292252 METAR KATL 292252Z 33009KT 10SM FEW045 SCT100 31/22 A2996 RMK AO2 SLP135 T03110217=
201308292152 METAR KATL 292152Z 32011KT 10SM FEW045 SCT100 32/21 A2997 RMK AO2 SLP137 T03170211=
201308292052 METAR KATL 292052Z 32012G17KT 10SM FEW045 SCT100 33/22 A2997 RMK AO2 SLP137 CB DSNT E TCU DSNT S T03330217 56014=
201308291952 METAR KATL 291952Z 31007G15KT 10SM SCT040TCU 32/22 A2998 RMK AO2 SLP139 TCU NE-SE & NW T03220217=
201308291852 METAR KATL 291852Z 32006G14KT 10SM SCT040 32/22 A3000 RMK AO2 SLP147 TCU DSNT N T03170217=
201308291752 METAR KATL 291752Z 33011G16KT 10SM FEW040 32/22 A3001 RMK AO2 SLP151 T03170217 10317 20228 58011=
201308291652 METAR KATL 291652Z 33010G18KT 10SM FEW040 32/22 A3003 RMK AO2 SLP155 T03170217=
201308291552 METAR KATL 291552Z 33012KT 10SM FEW035 30/21 A3004 RMK AO2 SLP161 T03000211=
201308291452 METAR KATL 291452Z 31011KT 9SM CLR 29/22 A3005 RMK AO2 SLP164 T02890217 51004=
201308291352 METAR KATL 291352Z 30009KT 8SM FEW250 27/21 A3005 RMK AO2 SLP164 T02670211=
201308291252 METAR KATL 291252Z 30010KT 8SM FEW250 24/21 A3004 RMK AO2 SLP164 T02440206=
201308291152 METAR KATL 291152Z 31009KT 8SM FEW250 23/21 A3004 RMK AO2 SLP161 T02280206 10239 20222 53010=
201308291052 METAR KATL 291052Z 31008KT 8SM FEW250 23/21 A3002 RMK AO2 SLP156 T02280206=
201308290952 METAR KATL 290952Z 30007KT 8SM FEW250 23/21 A3002 RMK AO2 SLP153 T02280206=
201308290852 METAR KATL 290852Z 30008KT 8SM SCT250 23/21 A3001 RMK AO2 SLP149 T02330206 56005=
201308290752 METAR KATL 290752Z 30006KT 8SM SCT250 23/21 A3001 RMK AO2 SLP149 T02330211=
201308290652 METAR KATL 290652Z 30007KT 8SM SCT250 23/21 A3001 RMK AO2 SLP151 T02330211=
201308290552 METAR KATL 290552Z 29006KT 8SM FEW250 23/21 A3002 RMK AO2 SLP155 T02330211 10278 20233 58006=
201308290452 METAR KATL 290452Z 32006KT 10SM FEW250 24/21 A3004 RMK AO2 SLP162 T02440211 403220200=
201308290352 METAR KATL 290352Z 31007KT 10SM FEW250 26/21 A3004 RMK AO2 SLP162 T02610211=
201308290252 METAR KATL 290252Z 30006KT 10SM FEW250 26/21 A3004 RMK AO2 SLP161 T02560211 51009=
201308290152 METAR KATL 290152Z 31006KT 10SM FEW150 BKN250 27/21 A3004 RMK AO2 SLP161 T02670211=
201308290052 METAR KATL 290052Z 30006KT 10SM FEW150 BKN250 27/21 A3003 RMK AO2 SLP158 T02670211=
201308282352 METAR KATL 282352Z 28006KT 10SM FEW045 BKN250 28/20 A3001 RMK AO2 SLP154 T02780200 10322 20278 55003=
201308282252 METAR KATL 282252Z 29009KT 10SM FEW045 30/20 A3001 RMK AO2 SLP151 T03000200=
201308282152 METAR KATL 282152Z 31009KT 10SM FEW050 31/19 A3001 RMK AO2 SLP153 T03110194=
201308282052 METAR KATL 282052Z 30009KT 10SM FEW050 SCT250 32/19 A3002 RMK AO2 SLP154 T03170194 58015=
201308281952 METAR KATL 281952Z 30005KT 9SM BKN045 BKN250 32/20 A3003 RMK AO2 SLP159 T03170200=
201308281852 METAR KATL 281852Z 32007KT 9SM SCT045 SCT250 31/19 A3006 RMK AO2 SLP166 MDT CU NE-SW T03060194=
201308281752 METAR KATL 281752Z 29004KT 9SM SCT040 SCT250 29/21 A3006 RMK AO2 SLP171 T02940206 10311 20211 58004=
201308281652 METAR KATL 281652Z VRB04KT 9SM FEW040 SCT150 BKN250 30/19 A3008 RMK AO2 SLP174 T03000194=
201308281552 METAR KATL 281552Z 31005KT 9SM FEW030 SCT150 BKN250 28/21 A3009 RMK AO2 SLP178 T02830206=
201308281452 METAR KATL 281452Z 30004KT 8SM BKN150 BKN200 BKN250 27/21 A3008 RMK AO2 SLP175 T02670211 53002=
201308281352 METAR KATL 281352Z 33004KT 8SM FEW150 SCT200 BKN250 24/21 A3008 RMK AO2 SLP175 T02440206=
201308281252 METAR KATL 281252Z 31006KT 7SM FEW100 SCT250 22/19 A3007 RMK AO2 SLP173 T02170194=
201308281152 METAR KATL 281152Z 30005KT 7SM FEW090 SCT250 21/19 A3007 RMK AO2 SLP174 T02110194 10222 20200 53009=
201308281052 METAR KATL 281052Z 29005KT 8SM FEW050 SCT250 21/19 A3005 RMK AO2 SLP167 T02060189=
201308280952 METAR KATL 280952Z 28004KT 9SM FEW050 SCT250 21/19 A3004 RMK AO2 SLP163 T02060189 $=
201308280852 METAR KATL 280852Z 27003KT 10SM CLR 21/19 A3004 RMK AO2 SLP164 T02110189 56007 $=
201308280752 METAR KATL 280752Z 30005KT 10SM CLR 21/19 A3005 RMK AO2 SLP164 T02110189 $=
201308280652 METAR KATL 280652Z 31006KT 10SM CLR 22/19 A3005 RMK AO2 SLP166 T02220194 $=
201308280552 METAR KATL 280552Z 29004KT 10SM CLR 22/19 A3007 RMK AO2 SLP171 T02170194 10272 20217 58009 $=
201308280452 METAR KATL 280452Z 32007KT 10SM FEW250 23/20 A3008 RMK AO2 SLP176 T02280200 403000183 $=
201308280352 METAR KATL 280352Z 00000KT 10SM SCT250 24/20 A3009 RMK AO2 SLP180 T02390200 $=
201308280252 METAR KATL 280252Z 00000KT 10SM FEW200 BKN250 24/20 A3009 RMK AO2 SLP180 T02390200 53009 $=
201308280152 METAR KATL 280152Z 29004KT 10SM FEW045 SCT200 BKN250 25/19 A3008 RMK AO2 SLP177 T02500194 $=
201308280052 METAR KATL 280052Z 26003KT 10SM FEW045 SCT060 BKN250 27/19 A3007 RMK AO2 SLP173 T02670189 $=
201308272352 METAR KATL 272352Z 29005KT 10SM SCT045TCU BKN250 27/18 A3006 RMK AO2 SLP171 TCU OHD-N T02720183 10300 20272 56002 $=
201308272252 METAR KATL 272252Z 31007KT 10SM SCT045TCU BKN250 29/18 A3007 RMK AO2 SLP173 TCU OHD-N & S-SW T02890183 $=
201308272152 METAR KATL 272152Z 34007KT 10SM SCT045TCU BKN250 29/18 A3007 RMK AO2 SLP172 TCU OHD-W T02940183 $=
201308272052 METAR KATL 272052Z 32005KT 10SM FEW045 SCT060 SCT250 28/18 A3007 RMK AO2 SLP174 T02830178 56017 $=
201308271952 METAR KATL 271952Z 35007KT 10SM BKN050 BKN250 29/18 A3008 RMK AO2 SLP177 T02890178=
201308271852 METAR KATL 271852Z 33007KT 10SM FEW050 BKN060 BKN250 28/18 A3010 RMK AO2 SLP185 T02830178=
201308271752 METAR KATL 271752Z VRB03KT 10SM FEW045 SCT150 BKN250 29/18 A3012 RMK AO2 SLP192 T02890178 10289 20194 58011=
201308271652 METAR KATL 271652Z 00000KT 10SM FEW040 SCT150 BKN240 27/17 A3014 RMK AO2 SLP198 T02720172=
201308271552 METAR KATL 271552Z 33007KT 10SM FEW040 SCT150 BKN250 27/17 A3015 RMK AO2 SLP202 T02720172=
201308271452 METAR KATL 271452Z 32009KT 10SM FEW150 SCT180 SCT250 26/17 A3016 RMK AO2 SLP203 T02610172 55001=
201308271352 METAR KATL 271352Z 32005KT 10SM FEW150 SCT180 BKN240 23/18 A3016 RMK AO2 SLP204 T02280178=
201308271252 METAR KATL 271252Z 32004KT 10SM FEW150 SCT180 SCT250 22/17 A3016 RMK AO2 SLP204 T02170167=
201308271152 METAR KATL 271152Z COR 30003KT 10SM FEW055 SCT150 19/16 A3016 RMK AO2 SLP205 T01940161 10206 20183 51004=
201308271052 METAR KATL 271052Z 32004KT 10SM FEW055 18/16 A3016 RMK AO2 SLP205 T01830156=
201308270952 METAR KATL 270952Z 00000KT 10SM FEW055 18/16 A3015 RMK AO2 SLP202 T01830161 $=
201308270852 METAR KATL 270852Z 00000KT 10SM FEW055 19/16 A3015 RMK AO2 SLP200 T01890161 56014 $=
201308270752 METAR KATL 270752Z 30005KT 10SM FEW055 19/16 A3016 RMK AO2 SLP205 T01890156 $=
201308270652 METAR KATL 270652Z 29003KT 10SM FEW055 20/16 A3017 RMK AO2 SLP209 T02000161 $=
201308270552 METAR KATL 270552Z 00000KT 10SM FEW050 20/16 A3019 RMK AO2 SLP215 T02000161 10256 20200 58001 $=
201308270452 METAR KATL 270452Z 00000KT 10SM FEW050 20/16 A3020 RMK AO2 SLP218 T02000161 402780167 $=
201308270352 METAR KATL 270352Z 00000KT 10SM CLR 20/16 A3019 RMK AO2 SLP217 T02000161 $=
201308270252 METAR KATL 270252Z 22003KT 10SM FEW250 22/16 A3019 RMK AO2 SLP216 T02170161 53004 $=
201308270152 METAR KATL 270152Z 00000KT 10SM FEW250 22/16 A3018 RMK AO2 SLP214 T02220156 $=
201308270052 METAR KATL 270052Z 15003KT 10SM FEW250 23/16 A3018 RMK AO2 SLP212 T02330156=
201308262352 METAR KATL 262352Z 12005KT 10SM FEW250 26/14 A3018 RMK AO2 SLP212 T02560139 10278 20250 56010=
201308262252 METAR KATL 262252Z 10006KT 10SM FEW050 26/14 A3019 RMK AO2 SLP215 T02610144=
201308262152 METAR KATL 262152Z 06006KT 10SM FEW050 27/14 A3019 RMK AO2 SLP217 T02720144=
201308262052 METAR KATL 262052Z 04005G15KT 10SM FEW050 SCT250 27/15 A3021 RMK AO2 SLP222 T02720150 56027=
201308261952 METAR KATL 261952Z 08008KT 020V120 10SM SCT048 SCT250 27/15 A3023 RMK AO2 SLP228 T02720150=
201308261852 METAR KATL 261852Z 10008KT 10SM FEW047 SCT200 BKN250 27/16 A3026 RMK AO2 SLP240 T02670156=
201308261752 METAR KATL 261752Z VRB04KT 10SM FEW048 SCT200 BKN250 26/16 A3029 RMK AO2 SLP249 T02610156 10261 20183 58011=
201308261652 METAR KATL 261652Z 04008KT 10SM FEW045 SCT200 BKN250 26/15 A3032 RMK AO2 SLP257 T02560150=
201308261552 METAR KATL 261552Z VRB04KT 10SM FEW040 SCT200 BKN250 24/15 A3032 RMK AO2 SLP261 T02440150=
201308261452 METAR KATL 261452Z 00000KT 10SM BKN250 24/14 A3033 RMK AO2 SLP262 T02390139 51008 $=
201308261352 METAR KATL 261352Z 10004KT 10SM SCT250 22/15 A3032 RMK AO2 SLP260 T02220150=
201308261252 METAR KATL 261252Z 07004KT 10SM FEW250 20/15 A3031 RMK AO2 SLP256 T02000150=
201308261152 METAR KATL 261152Z 07004KT 10SM FEW250 18/15 A3030 RMK AO2 SLP254 T01830150 10200 20167 53003=
201308261052 METAR KATL 261052Z 08004KT 10SM FEW250 17/14 A3029 RMK AO2 SLP251 T01720144=
201308260952 METAR KATL 260952Z 00000KT 10SM SCT250 18/14 A3029 RMK AO2 SLP249 T01830144=
201308260852 METAR KATL 260852Z 08006KT 10SM BKN250 18/15 A3029 RMK AO2 SLP250 T01830150 56005=
201308260752 METAR KATL 260752Z 06006KT 10SM SCT250 19/15 A3030 RMK AO2 SLP251 T01890150=
201308260652 METAR KATL 260652Z 06006KT 10SM SCT250 18/15 A3029 RMK AO2 SLP251 T01830150=
201308260552 METAR KATL 260552Z COR 07005KT 10SM FEW250 20/15 A3031 RMK AO2 SLP254 T02000150 10244 20200 58005=
201308260452 METAR KATL 260452Z 06007KT 10SM FEW055 SCT250 21/14 A3032 RMK AO2 SLP259 T02060144 402780189=
201308260352 METAR KATL 260352Z 10003KT 10SM SCT250 21/14 A3032 RMK AO2 SLP259 T02060139=
201308260252 METAR KATL 260252Z 00000KT 10SM FEW055 SCT250 21/15 A3032 RMK AO2 SLP260 T02110150 52010=
201308260152 METAR KATL 260152Z 12005KT 10SM SCT250 23/15 A3031 RMK AO2 SLP256 T02280150=
201308260052 METAR KATL 260052Z 09007KT 10SM FEW060 SCT250 23/15 A3030 RMK AO2 SLP253 T02280150=
201308252352 METAR KATL 252352Z 09008KT 10SM SCT060 SCT250 24/16 A3029 RMK AO2 SLP249 T02440156 10278 20244 53007=
201308252252 METAR KATL 252252Z 08013KT 10SM FEW045 SCT065 SCT250 26/16 A3028 RMK AO2 SLP244 T02560161=
201308252152 METAR KATL 252152Z 10011KT 10SM FEW050 27/15 A3026 RMK AO2 SLP238 T02720150=
201308252052 METAR KATL 252052Z 09012KT 10SM FEW050 27/16 A3027 RMK AO2 SLP241 T02720156 56016=
201308251952 METAR KATL 251952Z 06010KT 10SM SCT045 SCT060 27/16 A3027 RMK AO2 SLP243 T02720161=
201308251852 METAR KATL 251852Z 07009G15KT 10SM SCT045 27/16 A3030 RMK AO2 SLP253 T02670161=
201308251752 METAR KATL 251752Z 09009G15KT 050V110 10SM BKN042 26/16 A3032 RMK AO2 SLP257 T02610161 10267 20194 58020=
201308251652 METAR KATL 251652Z 09010KT 10SM SCT040 26/16 A3034 RMK AO2 SLP266 T02560161=
201308251552 METAR KATL 251552Z 10008G17KT 10SM SCT038 SCT060 26/16 A3037 RMK AO2 PK WND 11032/1458 SLP275 T02610161=
201308251452 METAR KATL 251452Z 08010KT 10SM FEW030 SCT050 24/17 A3038 RMK AO2 SLP279 T02390167 53015=
201308251352 METAR KATL 251352Z 10009KT 10SM FEW025 SCT045 23/17 A3036 RMK AO2 SLP273 T02280172=
201308251252 METAR KATL 251252Z 09009KT 10SM FEW046 21/17 A3034 RMK AO2 SLP266 T02110167=
201308251152 METAR KATL 251152Z 08008KT 10SM FEW046 19/16 A3033 RMK AO2 SLP263 T01940161 10211 20189 53016=
201308251052 METAR KATL 251052Z 08006KT 10SM FEW046 19/17 A3030 RMK AO2 SLP252 T01940167=
201308250952 METAR KATL 250952Z 08008KT 10SM FEW046 SCT095 20/17 A3029 RMK AO2 SLP250 T02000167=
201308250852 METAR KATL 250852Z 09009KT 10SM FEW044 BKN095 21/18 A3028 RMK AO2 SLP244 T02060178 50002=
201308250752 METAR KATL 250752Z 09008KT 10SM BKN042 OVC100 21/19 A3028 RMK AO2 SLP245 T02110189=
201308250652 METAR KATL 250652Z 07007KT 10SM BKN036 OVC100 21/19 A3028 RMK AO2 SLP246 T02110189=
201308250552 METAR KATL 250552Z 08006KT 10SM FEW100 SCT250 21/19 A3027 RMK AO2 SLP243 T02060189 10250 20206 51006=
201308250452 METAR KATL 250452Z 08007KT 10SM SCT100 BKN250 21/19 A3027 RMK AO2 SLP240 T02110189 402890211=
201308250352 METAR KATL 250352Z 09008KT 10SM BKN100 BKN220 22/19 A3026 RMK AO2 SLP240 T02170189=
201308250252 METAR KATL 250252Z 09007KT 10SM BKN100 BKN220 22/18 A3026 RMK AO2 SLP237 T02170183 51021=
201308250152 METAR KATL 250152Z 10009KT 10SM FEW110 SCT220 22/18 A3023 RMK AO2 SLP229 T02220183=
201308250052 METAR KATL 250052Z 09011KT 10SM FEW140 SCT220 23/19 A3022 RMK AO2 SLP225 T02330189=
201308242352 METAR KATL 242352Z 09011KT 10SM FEW026 SCT220 25/19 A3019 RMK AO2 SLP214 T02500194 10289 20250 53002=
201308242252 METAR KATL 242252Z 09013KT 10SM FEW032 SCT220 27/19 A3018 RMK AO2 SLP211 T02670194=
201308242152 METAR KATL 242152Z 09011KT 10SM SCT034 BKN055 28/19 A3018 RMK AO2 SLP209 TCU DSNT S-SW T02780194=
201308242052 METAR KATL 242052Z 08009KT 10SM SCT036 SCT250 29/20 A3018 RMK AO2 SLP210 T02890200 58006=
201308241952 METAR KATL 241952Z 07011KT 10SM SCT036 BKN250 28/20 A3019 RMK AO2 SLP214 T02830200=
201308241852 METAR KATL 241852Z 11010KT 10SM BKN032 28/19 A3020 RMK AO2 SLP217 T02780194=
201308241752 METAR KATL 241752Z 08009KT 10SM BKN030 27/19 A3020 RMK AO2 SLP218 T02670194 10278 20217 58001=
201308241652 METAR KATL 241652Z 11010KT 10SM FEW023 27/20 A3021 RMK AO2 SLP220 T02670200=
201308241611 SPECI KATL 241611Z 08009KT 10SM SCT021 26/20 A3021 RMK AO2=
201308241552 METAR KATL 241552Z 10010KT 10SM BKN018 25/20 A3021 RMK AO2 SLP221 BKN018 V SCT T02500200=
201308241545 SPECI KATL 241545Z 09014G19KT 10SM BKN019 24/19 A3021 RMK AO2 BKN018 V SCT=
201308241525 SPECI KATL 241525Z 07009KT 10SM SCT016 24/20 A3021 RMK AO2 SCT016 V BKN=
201308241452 METAR KATL 241452Z 08013KT 10SM BKN014 24/20 A3021 RMK AO2 SLP219 T02440200 51016=
201308241422 SPECI KATL 241422Z 08011KT 10SM BKN011 BKN015 22/19 A3021 RMK AO2=
201308241352 METAR KATL 241352Z 07010G17KT 9SM OVC007 22/20 A3020 RMK AO2 SLP216 T02220200=
201308241252 METAR KATL 241252Z 06011KT 5SM BR OVC007 22/20 A3018 RMK AO2 SLP211 CIG 006V009 T02170200 $=
201308241152 METAR KATL 241152Z 07007KT 6SM BR SCT006 BKN009 BKN075 23/21 A3016 RMK AO2 SLP202 60000 T02280206 10233 20217 53016=
201308241150 SPECI KATL 241150Z 05008KT 6SM BR SCT006 BKN009 BKN075 22/21 A3016 RMK AO2=
201308241137 SPECI KATL 241137Z 07005KT 7SM SCT006 SCT011 BKN070 22/21 A3015 RMK AO2=
201308241052 METAR KATL 241052Z 09004KT 7SM FEW004 OVC009 22/21 A3014 RMK AO2 SLP195 T02170206=
201308240955 SPECI KATL 240955Z 08008KT 5SM BR BKN005 BKN012 22/21 A3011 RMK AO2=
201308240952 METAR KATL 240952Z 09006KT 5SM BR SCT005 BKN012 22/21 A3011 RMK AO2 SLP184 T02220211=
201308240950 SPECI KATL 240950Z 09006KT 5SM BR SCT005 BKN012 22/21 A3011 RMK AO2=
201308240852 METAR KATL 240852Z 01004KT 10SM FEW007 BKN250 23/21 A3009 RMK AO2 SLP178 60000 T02330206 51016=
201308240752 METAR KATL 240752Z 29003KT 10SM FEW007 SCT090 BKN250 23/21 A3008 RMK AO2 RAE0658 SLP175 P0000 T02280211=
201308240652 METAR KATL 240652Z 35003KT 8SM -RA FEW007 SCT090 BKN110 BKN250 23/22 A3007 RMK AO2 RAE02B30 SLP171 P0000 T02330217=
201308240552 METAR KATL 240552Z 26007KT 10SM -RA FEW009 BKN095 OVC120 23/22 A3004 RMK AO2 TSB17E39 SLP162 TS DSIPT P0000 60000 T02330217 10278 20233 58005=
201308240539 SPECI KATL 240539Z 25005KT 10SM -RA FEW009 BKN095 OVC120 23/22 A3005 RMK AO2 TSB17E39 PRESFR TS DSIPT P0000=
201308240517 SPECI KATL 240517Z 00000KT 10SM TS FEW010 SCT038CB BKN110 OVC150 24/21 A3010 RMK AO2 TSB17RAE12 OCNL LTGICCG NW-N TS VC NW-N MOV SW P0000=
201308240452 METAR KATL 240452Z 19004KT 8SM -RA FEW010 SCT040 BKN110 OVC150 24/21 A3009 RMK AO2 RAB46 SLP179 OCNL LTG DSNT N-NE P0000 T02390211 403220217=
201308240352 METAR KATL 240352Z 20008KT 10SM FEW012 BKN040CB BKN080 OVC250 24/22 A3010 RMK AO2 SLP181 CB VC NE-SE MOV STNRY T02440222=
201308240252 METAR KATL 240252Z 00000KT 10SM FEW040 SCT200 BKN250 26/22 A3006 RMK AO2 SLP168 T02560222 50013=
201308240152 METAR KATL 240152Z 00000KT 10SM FEW140 SCT200 BKN250 26/22 A3006 RMK AO2 SLP169 T02560217=
201308240052 METAR KATL 240052Z 09004KT 10SM FEW060 SCT140 BKN200 BKN250 26/21 A3004 RMK AO2 SLP163 T02610211=
201308232352 METAR KATL 232352Z 23005KT 10SM FEW040TCU SCT200 BKN250 27/21 A3002 RMK AO2 SLP156 TCU VC E-SE T02720206 10322 20272 53003=
201308232252 METAR KATL 232252Z 33006KT 10SM FEW045CB SCT200 BKN250 30/20 A3002 RMK AO2 SLP153 CB VC SE-S & DSNT NE MOV S VCSH SE-S T03000200=
201308232152 METAR KATL 232152Z VRB05KT 10SM SCT045TCU SCT200 BKN250 32/19 A3001 RMK AO2 SLP151 TCU OHD-SE & DSNT S-SW T03170194=
201308232052 METAR KATL 232052Z 34005KT 10SM SCT044TCU SCT210 31/19 A3001 RMK AO2 SLP152 TCU N-NE-E AND W-NW T03110194 56018=
201308231952 METAR KATL 231952Z 35008G15KT 10SM SCT044 SCT180 31/19 A3002 RMK AO2 SLP156 CB DSNT S T03110194=
201308231852 METAR KATL 231852Z 35007KT 10SM SCT041TCU BKN180 31/20 A3005 RMK AO2 SLP164 TCU S T03110200=
201308231752 METAR KATL 231752Z 31005KT 10SM SCT037TCU BKN120 30/21 A3007 RMK AO2 SLP171 TCU E AND SE-S T03000206 10306 20222 58017=
201308231652 METAR KATL 231652Z 34006KT 10SM SCT030TCU SCT120 30/21 A3009 RMK AO2 SLP178 TCU NE-E & SE-S-SW-W T03000211=
201308231552 METAR KATL 231552Z 31009KT 10SM FEW030 SCT120 SCT250 29/22 A3011 RMK AO2 SLP184 TCU DSNT SW T02890217=
201308231452 METAR KATL 231452Z 33008KT 10SM FEW025TCU SCT050 SCT120 27/21 A3012 RMK AO2 SLP188 TCU SW-W T02720206 51008=
201308231352 METAR KATL 231352Z 32008KT 10SM FEW020TCU SCT070 BKN120 25/20 A3011 RMK AO2 SLP187 TCU S-SW & NW-N T02500200=
201308231252 METAR KATL 231252Z 28005KT 10SM FEW070 BKN120 BKN250 23/21 A3011 RMK AO2 SLP187 ACC DSNT NW-N T02330211=
201308231152 METAR KATL 231152Z 29005KT 10SM FEW065 SCT130 SCT250 22/21 A3009 RMK AO2 SLP180 ACC DSNT N & SE-S T02220206 10233 20217 53010=
201308231052 METAR KATL 231052Z 28005KT 9SM FEW030 SCT220 22/20 A3007 RMK AO2 SLP173 TCU DSNT NW T02170200=
201308230952 METAR KATL 230952Z 30003KT 9SM FEW250 22/21 A3006 RMK AO2 SLP167 T02170206=
201308230852 METAR KATL 230852Z 00000KT 9SM FEW140 22/21 A3006 RMK AO2 SLP169 T02170206 56008=
201308230752 METAR KATL 230752Z 00000KT 10SM FEW140 22/21 A3007 RMK AO2 SLP170 T02220211=
201308230652 METAR KATL 230652Z 00000KT 10SM CLR 22/21 A3007 RMK AO2 SLP173 T02220211=
201308230552 METAR KATL 230552Z 00000KT 10SM FEW140 23/21 A3009 RMK AO2 SLP177 T02330211 10267 20228 58006=
201308230452 METAR KATL 230452Z 24004KT 10SM SCT140 SCT250 23/21 A3009 RMK AO2 SLP178 T02330211 403110217=
201308230352 METAR KATL 230352Z 34004KT 10SM SCT040 BKN140 BKN250 24/22 A3011 RMK AO2 SLP184 T02390217=
201308230252 METAR KATL 230252Z 00000KT 10SM FEW110 BKN140 BKN250 24/21 A3011 RMK AO2 SLP183 T02440206 51010=
201308230152 METAR KATL 230152Z 00000KT 10SM FEW150 SCT200 BKN250 24/21 A3010 RMK AO2 SLP183 T02440206=
201308230052 METAR KATL 230052Z 06003KT 10SM FEW040 SCT150 BKN250 26/22 A3008 RMK AO2 SLP177 T02560217=
201308222352 METAR KATL 222352Z COR 32005KT 10SM FEW040 SCT200 BKN250 27/21 A3007 RMK AO2 SLP175 CB DSNT E & W-NW T02720206 10311 20272 56006=
201308222252 METAR KATL 222252Z 22003KT 10SM SCT045CB SCT070 BKN200 29/20 A3008 RMK AO2 SLP175 CB VC NE MOV SE TCU E-OHD-W VCSH NE T02940200=
201308222152 METAR KATL 222152Z 24005KT 10SM FEW045TCU SCT200 30/20 A3007 RMK AO2 SLP172 TCU VC N-NE CB DSNT NW-NE T03000200=
201308222052 METAR KATL 222052Z 21007KT 10SM SCT048 SCT200 31/20 A3009 RMK AO2 SLP179 CB DSNT N-NE TCU DSNT E-SE-S T03060200 56018=
201308221952 METAR KATL 221952Z 21005KT 10SM SCT045 SCT200 31/20 A3009 RMK AO2 SLP180 CB DSNT N-NE T03060200=
201308221852 METAR KATL 221852Z 14004KT 10SM FEW045 SCT200 SCT250 30/19 A3012 RMK AO2 SLP188 CB DSNT NW-N-NE T03000194=
201308221752 METAR KATL 221752Z 10003KT 10SM SCT040 SCT250 31/21 A3015 RMK AO2 SLP197 CB DSNT NW-N-NE T03060206 10306 20217 58016=
201308221652 METAR KATL 221652Z VRB03KT 10SM FEW030 SCT200 SCT250 29/21 A3017 RMK AO2 SLP207 TCU DSNT NW-N T02890206=
201308221552 METAR KATL 221552Z 19003KT 10SM FEW030 SCT200 SCT250 28/22 A3019 RMK AO2 SLP213 TCU DSNT NW-N T02780217 $=
201308221452 METAR KATL 221452Z 00000KT 10SM FEW030 SCT200 SCT250 28/19 A3020 RMK AO2 SLP214 CB DSNT NW TCU DSNT N T02780194 50005=
201308221352 METAR KATL 221352Z VRB04KT 10SM FEW025 SCT200 SCT250 26/20 A3020 RMK AO2 SLP216 CB DSNT NW-N T02610200=
201308221252 METAR KATL 221252Z 30003KT 10SM FEW140 SCT220 25/21 A3019 RMK AO2 SLP212 CB DSNT N & NW T02500206=
201308221152 METAR KATL 221152Z 15003KT 10SM FEW140 SCT220 22/21 A3018 RMK AO2 SLP211 CB DSNT N & NW 70044 T02170206 10228 20217 51005=
201308221052 METAR KATL 221052Z 00000KT 10SM SCT140 SCT250 22/20 A3017 RMK AO2 SLP208 CB DSNT N T02170200=
201308220952 METAR KATL 220952Z 00000KT 10SM SCT170 22/21 A3017 RMK AO2 SLP208 T02170206 $=
201308220852 METAR KATL 220852Z 00000KT 10SM BKN170 23/21 A3016 RMK AO2 SLP205 T02280206 58004 $=
201308220752 METAR KATL 220752Z 00000KT 10SM BKN170 BKN250 23/21 A3017 RMK AO2 SLP206 T02280206 $=
201308220652 METAR KATL 220652Z 00000KT 10SM BKN160 BKN250 23/21 A3018 RMK AO2 SLP210 T02280206 $=
201308220552 METAR KATL 220552Z 00000KT 10SM BKN150 BKN250 23/21 A3018 RMK AO2 SLP210 T02280211 10267 20228 58001 $=
201308220452 METAR KATL 220452Z 16004KT 10SM FEW010 BKN150 BKN250 23/22 A3018 RMK AO2 SLP209 T02330217 402890206 $=
201308220352 METAR KATL 220352Z 00000KT 10SM FEW030 BKN150 BKN250 24/22 A3019=
201308220252 METAR KATL 220252Z 11003KT 10SM FEW030 SCT200 BKN250 24/22 A3018 RMK AO2 SLP211 FRQ LTG DSNT SW-NW T02440217 50008 $=
201308220152 METAR KATL 220152Z 10005KT 10SM FEW100 SCT200 BKN250 25/22 A3019 RMK AO2 SLP215 T02500222 $=
201308220052 METAR KATL 220052Z 14005KT 10SM FEW100 SCT200 BKN250 26/23 A3016 RMK AO2 SLP204 T02560228=
201308212352 METAR KATL 212352Z 12004KT 10SM FEW025 SCT200 BKN250 27/22 A3016 RMK AO2 SLP203 TCU DSNT SE-S T02670222 10289 20244 55003=
201308212252 METAR KATL 212252Z 09004KT 10SM FEW028 SCT200 BKN250 28/22 A3014 RMK AO2 SLP198 TCU DSNT SE T02780217=
201308212152 METAR KATL 212152Z 16003KT 10SM SCT028 SCT200 BKN250 28/22 A3017 RMK AO2 SLP205 TCU DSNT SE T02830217=
201308212052 METAR KATL 212052Z VRB04KT 10SM FEW025 SCT100 SCT200 28/22 A3017 RMK AO2 SLP206 CB DSNT E & NW-N T02780222 56023=
201308212047 SPECI KATL 212047Z VRB04KT 10SM FEW025 SCT100 SCT200 28/23 A3017 RMK AO2 CB DSNT E & NW-N=
201308211952 METAR KATL 211952Z VRB03KT 10SM BKN020TCU BKN100 BKN200 27/22 A3019 RMK AO2 SLP214 TCU SE-N T02670217=
201308211852 METAR KATL 211852Z 13003KT 10SM BKN015 BKN100 BKN200 26/22 A3021 RMK AO2 SLP221 T02560222=
201308211752 METAR KATL 211752Z 15005KT 10SM FEW012 BKN030 BKN100 BKN200 24/22 A3024 RMK AO2 SLP230 60044 T02440217 10250 20206 58005=
201308211652 METAR KATL 211652Z 09007KT 10SM FEW010 BKN020 BKN100 OVC200 24/21 A3024 RMK AO2 SLP233 T02390211=
201308211552 METAR KATL 211552Z 07008KT 10SM FEW008 BKN020 BKN100 BKN200 23/21 A3026 RMK AO2 SLP237 T02280206=
201308211531 SPECI KATL 211531Z 08008KT 10SM FEW006 SCT010 OVC020 23/21 A3026 RMK AO2=
201308211452 METAR KATL 211452Z 07007KT 7SM BKN006 BKN010 OVC020 23/21 A3025 RMK AO2 SLP235 60044 T02280211 53010=
201308211352 METAR KATL 211352Z 09004KT 8SM FEW010CB BKN015 OVC100 21/20 A3024 RMK AO2 RAB23E47 SLP232 VIS LWR N-NE-E SHRA CB N-NE-E MOV NE P0043 T02110200=
201308211339 SPECI KATL 211339Z VRB03KT 4SM R09R/6000VP6000FT -RA BR SCT010CB BKN020 OVC100 21/21 A3023 RMK AO2 RAB23 VIS LWR NE-E SHRA CB OHD-NE-E MOV NE P0043=
201308211334 SPECI KATL 211334Z VRB04KT 1SM R09R/2400VP6000FT RA BR BKN010CB BKN020 OVC100 21/21 A3023 RMK AO2 RAB23 CB OHD MOV NE P0043=
201308211331 SPECI KATL 211331Z 06005KT 1SM R09R/2400VP6000FT +RA BR BKN013CB BKN020 OVC100 21/20 A3024 RMK AO2 RAB23 CB OHD-S-SW-W MOV E P0038=
201308211325 SPECI KATL 211325Z 10006KT 1 1/2SM R09R/2400VP6000FT +RA BR SCT013 OVC022 21/20 A3024 RMK AO2 RAB23 P0000=
201308211252 METAR KATL 211252Z 09005KT 10SM FEW005 BKN024TCU OVC033 22/19 A3023 RMK AO2 RAE36 SLP227 CB DSNT E-SE TCU VC NE SHRA NE-SE P0001 T02170194=
201308211218 SPECI KATL 211218Z 09004KT 8SM -RA FEW005 BKN026 OVC033 21/20 A3022 RMK AO2 P0001=
201308211202 SPECI KATL 211202Z 10005KT 8SM -RA BKN028 BKN037 OVC065 21/20 A3022 RMK AO2 P0000=
201308211152 METAR KATL 211152Z 09006KT 8SM -RA FEW028 BKN037 OVC065 21/20 A3022 RMK AO2 RAB26 SLP224 P0001 60001 70001 T02110200 10228 20211 53021=
201308211052 METAR KATL 211052Z 09006KT 10SM FEW007 SCT050 BKN110 BKN150 21/19 A3019 RMK AO2 RAE10B40E50 SLP216 P0000 T02110194=
201308210952 METAR KATL 210952Z 07005KT 10SM -RA FEW005 SCT050 SCT120 OVC150 21/20 A3016 RMK AO2 RAB42 SLP206 P0000 T02110200=
201308210852 METAR KATL 210852Z 11004KT 10SM FEW005 SCT120 OVC180 21/20 A3016 RMK AO2 RAB01E16 SLP202 P0000 60000 T02110200 55007=
201308210752 METAR KATL 210752Z COR 12004KT 10SM FEW008 SCT120 OVC150 22/20 A3015 RMK AO2 SLP201 T02170200=
201308210652 METAR KATL 210652Z 14003KT 9SM FEW008 SCT034 BKN150 OVC200 22/20 A3017 RMK AO2 SLP206 T02170200=
201308210638 SPECI KATL 210638Z 00000KT 9SM FEW008 SCT034 BKN150 OVC200 22/20 A3017 RMK AO2=
201308210552 METAR KATL 210552Z 14007KT 8SM SCT008 BKN016 BKN050 OVC200 23/21 A3018 RMK AO2 SLP210 T02280206 10256 20228 55006=
201308210549 SPECI KATL 210549Z 15008KT 8SM SCT008 BKN016 BKN050 OVC200 23/20 A3018 RMK AO2=
201308210512 SPECI KATL 210512Z 09006KT 8SM BKN008 BKN018 OVC028 24/22 A3017 RMK AO2=
201308210452 METAR KATL 210452Z 08007KT 10SM SCT012 BKN020 BKN050 OVC200 24/22 A3017 RMK AO2 SLP208 T02390222 402890222=
201308210352 METAR KATL 210352Z COR 11007KT 10SM FEW012 SCT022 BKN150 OVC250 24/22 A3018 RMK AO2 OCNL LTG DSNT SE-S SLP212 T02390222=
201308210252 METAR KATL 210252Z 13005KT 10SM FEW020 BKN120 BKN200 BKN250 24/22 A3020 RMK AO2 SLP216 T02440222 53020=
201308210152 METAR KATL 210152Z 10006KT 10SM FEW020 SCT200 BKN250 24/23 A3017 RMK AO2 SLP206 T02440228=
201308210052 METAR KATL 210052Z 09005KT 10SM FEW025 SCT120 BKN200 BKN250 25/23 A3014 RMK AO2 SLP198 T02500228=
201308202352 METAR KATL 202352Z 10006KT 10SM FEW025 SCT150 SCT200 BKN250 26/21 A3013 RMK AO2 SLP195 60000 T02560211 10289 20256 53003=
201308202252 METAR KATL 202252Z 13005KT 10SM FEW025TCU BKN250 27/21 A3012 RMK AO2 SLP191 TCU VC NE & NW T02670211=
201308202152 METAR KATL 202152Z 15005KT 10SM SCT025TCU SCT150 BKN250 28/22 A3012 RMK AO2 SLP189 TCU VC NE-E & DSNT NW-N T02780217=
201308202052 METAR KATL 202052Z 11007KT 10SM SCT020TCU SCT065 BKN250 27/21 A3012 RMK AO2 SLP191 CB DSNT SE TCU NE-SE & SW-NW 60000 T02720211 56020=
201308201959 SPECI KATL 201959Z 08005KT 10SM BKN020 BKN030 BKN250 28/23 A3013 RMK AO2 TCU NE-SE & SW-NW=
201308201952 METAR KATL 201952Z 12007KT 10SM FEW025 SCT075 BKN250 28/22 A3013 RMK AO2 RAB21E29 SLP192 TCU DSNT NE-SE & SW-NW P0000 T02780222=
201308201921 SPECI KATL 201921Z 06006KT 10SM -RA SCT020 BKN030 OVC050 27/22 A3014 RMK AO2 RAB21 P0000=
201308201852 METAR KATL 201852Z 10006KT 10SM BKN020 OVC040 26/22 A3016 RMK AO2 RAB09E22 SLP204 P0000 T02610217=
201308201752 METAR KATL 201752Z 08007KT 10SM FEW020 BKN030 OVC040 26/22 A3018 RMK AO2 SLP212 T02610217 10261 20222 50000 $=
201308201704 SPECI KATL 201704Z 12006KT 10SM BKN013 BKN018 OVC020 24/22 A3020 RMK AO2=
201308201652 METAR KATL 201652Z 11007KT 10SM BKN015 BKN018 OVC020 24/22 A3020 RMK AO2 SLP218 T02440217=
201308201620 SPECI KATL 201620Z 12006KT 10SM FEW010 SCT012 OVC015 24/22 A3020 RMK AO2=
201308201552 METAR KATL 201552Z 09009KT 10SM BKN010 BKN012 OVC015 24/22 A3019 RMK AO2 SLP216 T02390217=
201308201522 SPECI KATL 201522Z 12007KT 10SM FEW008 BKN010 OVC013 24/21 A3019 RMK AO2=
201308201452 METAR KATL 201452Z 09008KT 10SM FEW006 BKN008 OVC012 23/22 A3018 RMK AO2 SLP212 T02330217 53016=
201308201411 SPECI KATL 201411Z 09006KT 8SM FEW006 BKN008 OVC010 23/22 A3017 RMK AO2=
201308201352 METAR KATL 201352Z 08007KT 3SM BR BKN006 OVC008 23/22 A3016 RMK AO2 SFC VIS 5 SLP206 T02280217=
201308201331 SPECI KATL 201331Z 07006KT 3SM BR OVC006 23/22 A3016 RMK AO2 SFC VIS 6=
201308201259 SPECI KATL 201259Z 09008KT 1/2SM BR OVC004 23/22 A3015 RMK AO2 SFC VIS 5 TWRINC=
201308201252 METAR KATL 201252Z 07007KT 1SM BR OVC004 23/22 A3015 RMK AO2 SFC VIS 5 SLP200 CIG 003V005 TWRINC T02280217=
201308201154 SPECI KATL 201154Z 09007KT 1SM BR OVC004 22/21 A3013 RMK AO2 SFC VIS 5 CIG 003V005 TWRINC=
201308201152 METAR KATL 201152Z 09007KT 2SM BR OVC004 22/21 A3013 RMK AO2 SFC VIS 5 SLP195 CIG 003V005 TWRINC 60000 70016 T02220211 10228 20222 53012=
201308201129 SPECI KATL 201129Z 09006KT 2SM BR OVC004 22/22 A3013 RMK AO2 SFC VIS 5 CIG 003V006 TWRINC=
201308201052 METAR KATL 201052Z 09007KT 6SM BR OVC004 22/22 A3012 RMK AO2 RAE03 SLP190 P0000 T02220217=
201308200952 METAR KATL 200952Z 08009KT 6SM -RA BR OVC004 22/22 A3011 RMK AO2 RAE0855B52 SLP186 P0000 T02220217 $=
201308200852 METAR KATL 200852Z 09008KT 5SM -RA BR BKN004 OVC014 23/22 A3010 RMK AO2 RAB43 SLP182 P0000 60000 T02280217 56011 $=
201308200752 METAR KATL 200752Z 08007KT 6SM BR BKN004 OVC016 23/22 A3011 RMK AO2 SLP186 T02280217 $=
201308200732 SPECI KATL 200732Z 08007KT 6SM BR BKN004 OVC013 23/22 A3011 RMK AO2 CIG 004V009 $=
201308200652 METAR KATL 200652Z 09006KT 7SM BKN006 OVC011 23/22 A3012 RMK AO2 CIG 004V010 SLP188 T02280217 $=
201308200552 METAR KATL 200552Z 08008KT 9SM FEW006 SCT011 OVC024 23/22 A3013 RMK AO2 SLP194 T02280217 10250 20222 51001 $=
201308200550 SPECI KATL 200550Z 08007KT 9SM FEW006 SCT011 OVC024 23/22 A3013 RMK AO2 $=
201308200524 SPECI KATL 200524Z 07006KT 7SM BKN006 OVC014 23/22 A3014 RMK AO2 $=
201308200452 METAR KATL 200452Z 09007KT 10SM FEW006 BKN014 BKN120 BKN250 22/22 A3013 RMK AO2 SLP194 T02220217 402780217 $=
201308200448 SPECI KATL 200448Z 09008KT 10SM FEW006 BKN014 BKN120 BKN250 22/21 A3013 RMK AO2 402780217 $=
201308200352 METAR KATL 200352Z 09006KT 10SM FEW010 BKN120 BKN250 22/21 A3013 RMK AO2 SLP194 T02220211 $=
201308200252 METAR KATL 200252Z 09006KT 10SM FEW010 BKN100 BKN250 23/21 A3013 RMK AO2 SLP196 T02280211 51017 $=
201308200152 METAR KATL 200152Z 11008KT 10SM FEW010 BKN100 BKN250 23/21 A3012 RMK AO2 SLP193 T02330211 $=
201308200052 METAR KATL 200052Z 10006KT 10SM FEW012 SCT110 BKN200 BKN250 24/22 A3010 RMK AO2 SLP185 T02390217 $=
201308192352 METAR KATL 192352Z COR 09011KT 10SM FEW020 SCT120 BKN200 BKN250 24/22 A3008 RMK AO2 SLP178 CB DSNT W 60016 T02440217 10278 20244 53002 $=
201308192252 METAR KATL 192252Z 09009KT 10SM FEW018 SCT025 BKN250 26/22 A3008 RMK AO2 SLP177 T02560222 $=
201308192052 METAR KATL 192052Z 08007KT 050V120 10SM FEW020 SCT040 BKN250 27/23 A3008 RMK AO2 RAE1958 SLP175 CB DSNT E-SE TCU DSNT S & NW SHRA DSNT E-SE P0000 60016 T02720228 58011 $=
201308192000 SPECI KATL 192000Z 08008KT 9SM FEW015CB SCT030 BKN250 26/23 A3009 RMK AO2 RAE1958 VIS 1SM NE-SE SHRA CB NE-SE MOV NE TCU DSNT N P0000 $=
201308191952 METAR KATL 191952Z 03009G23KT 6SM -RA BR BKN015CB BKN020 BKN030 25/23 A3009 RMK AO2 RAB25 SLP181 VIS 1 1/2SM NE-SE SHRA CB NE-SE MOV NE P0016 T02500228 $=
201308191947 SPECI KATL 191947Z 04012G23KT 1SM R09R/P6000FT +RA BR BKN015CB BKN025 BKN040 25/22 A3010 RMK AO2 RAB25 CB OHD-NE-SE MOV NE P0016 $=
201308191943 SPECI KATL 191943Z 03015G23KT 6SM R09R/3500VP6000FT -RA FEW015CB BKN025 BKN040 25/22 A3009 RMK AO2 RAB25 VIS 1SM N-NE-E-SE SHRA CB N-NE-E-SE MOV NE P0016 $=
201308191933 SPECI KATL 191933Z 32008KT 280V350 9SM -RA FEW025CB BKN030 BKN065 25/22 A3009 RMK AO2 RAB25 VIS LWR N-NE & SE-S SHRA CB N-NE & SE-S MOV NE P0002 $=
201308191907 SPECI KATL 191907Z 10007KT 10SM BKN025CB BKN035 BKN075 27/22 A3010 RMK AO2 CB SW-NW MOV NE SHRA SW-NW $=
201308191852 METAR KATL 191852Z 08006KT 10SM FEW023CB BKN030TCU BKN250 27/22 A3011 RMK AO2 SLP187 CB SW MOV NE TCU OHD-SW-W SHRA SW-W T02720217=
201308191752 METAR KATL 191752Z 00000KT 10SM SCT020TCU BKN030 BKN250 26/21 A3014 RMK AO2 RAE1656 SLP196 TCU NE-E & SW-W P0000 60000 T02610211 10278 20217 58007=
201308191713 SPECI KATL 191713Z 10004KT 7SM FEW007 BKN011 BKN045 26/22 A3014 RMK AO2 RAE1656 P0000=
201308191710 SPECI KATL 191710Z VRB04KT 7SM BKN011 OVC045 26/22 A3015 RMK AO2 RAE1656 CIG 007V013 P0000=
201308191652 METAR KATL 191652Z 07005KT 5SM -RA BR FEW007 BKN009 OVC017 24/22 A3015 RMK AO2 RAB43 SLP201 P0000 T02440222=
201308191612 SPECI KATL 191612Z 07004KT 6SM BR OVC005 23/22 A3016 RMK AO2 CIG 005V011=
201308191552 METAR KATL 191552Z 07006KT 2SM BR OVC005 23/22 A3016 RMK AO2 SFC VIS 4 SLP204 T02280217=
201308191452 METAR KATL 191452Z 08005KT 1SM BR OVC005 23/22 A3016 RMK AO2 SFC VIS 4 SLP204 60000 T02280217=
201308191427 SPECI KATL 191427Z 09005KT 1/2SM BR OVC004 23/22 A3015 RMK AO2 SFC VIS 4 $=
201308191352 METAR KATL 191352Z 09005KT 2SM BR OVC005 22/21 A3015 RMK AO2 SFC VIS 5 DZE49 SLP200 P0000 T02220211 $=
201308191252 METAR KATL 191252Z 10006KT 1/2SM -DZ BR OVC004 22/21 A3014 RMK AO2 SFC VIS 1 1/2 SLP198 CIG 003V006 P0000 T02170211 $=
201308191156 SPECI KATL 191156Z 11006KT 1/2SM -DZ BR OVC004 22/21 RMK AO2 SFC VIS 1 1/4 DZB55 P0000 $=
201308191144 SPECI KATL 191144Z 11007KT 1 1/4SM -DZ BR OVC004 22/21 A3012 RMK AO2 TWR VIS 2 DZB44 CIG 003V005 TWRINC P0000=
201308191052 METAR KATL 191052Z 11005KT 2SM BR OVC005 22/21 A3012 RMK AO2 SFC VIS 5 SLP190 T02170211=
201308191008 SPECI KATL 191008Z 11004KT 2SM BR BKN005 OVC014 22/21 A3011 RMK AO2 SFC VIS 5 $=
201308190952 METAR KATL 190952Z 13004KT 2SM BR BKN004 OVC014 22/21 A3011 RMK AO2 SFC VIS 5 DZE23 SLP187 TWRINC P0000 T02170211 $=
201308190923 SPECI KATL 190923Z 13005KT 2SM BR BKN003 OVC009 22/21 A3011 RMK AO2 SFC VIS 4 DZE23 TWRINC P0000 $=
201308190855 SPECI KATL 190855Z 18016G21KT 060V200 3/4SM -DZ BR OVC003 22/21 A3011 RMK AO2 SFC VIS 1 1/4 P0000 $=
201308190852 METAR KATL 190852Z VRB06KT 1SM -DZ BR OVC003 22/21 A3011 RMK AO2 SFC VIS 1 1/2 DZB17 SLP188 TWRINC P0000 60000 T02170211 56013 $=
201308190839 SPECI KATL 190839Z 13004KT 1SM BR OVC003 22/21 A3011 RMK AO2 SFC VIS 2 DZB17E39 TWRINC P0000 $=
201308190752 METAR KATL 190752Z 12005KT 4SM BR OVC004 22/21 A3011 RMK AO2 SLP189 T02170211 $=
201308190652 METAR KATL 190652Z 11003KT 5SM BR BKN004 BKN010 OVC080 22/21 A3013 RMK AO2 SLP194 T02170211 $=
201308190640 SPECI KATL 190640Z 00000KT 5SM BR BKN004 BKN019 OVC080 22/21 A3013 RMK AO2 $=
201308190552 METAR KATL 190552Z 16005KT 6SM BR SCT007 BKN016 OVC023 22/21 A3015 RMK AO2 TSE0459RAE0459 SLP202 TS MOV N P0001 60105 T02220211 10233 20217 58003 $=
201308190549 SPECI KATL 190549Z 14004KT 3SM BR SCT007 BKN016 OVC023 22/21 A3015 RMK AO2 SFC VIS 6 TSE0459RAE0459 P0001 $=
201308190501 SPECI KATL 190501Z 14003KT 3SM BR OVC005 22/21 A3016 RMK AO2 SFC VIS 5 TSE0459RAE0459 TS MOV N OCNL LTG DSNT N P0001 $=
201308190452 METAR KATL 190452Z 00000KT 3SM TSRA BR BKN006CB OVC042 22/22 A3016 RMK AO2 SFC VIS 4 TSB15 SLP205 OCNL LTGICCG VC NW-N TS VC NW-N MOV N P0054 T02170217 402500189 $=
201308190417 SPECI KATL 190417Z 00000KT 3SM TSRA BR BKN006CB OVC013 22/21 A3016 RMK AO2 TSB15 OCNL LTGCGIC W-NW TS W-NW MOV N P0042 $=
201308190352 METAR KATL 190352Z 31003KT 2SM R09R/4500VP6000FT +RA BR BKN004CB OVC016 22/21 A3016 RMK AO2 RAB14 SLP204 CB NE-OHD-SW MOV N P0050 T02170211 $=
201308190338 SPECI KATL 190338Z VRB03KT 2SM +RA BR BKN004CB OVC022 22/21 A3017 RMK AO2 RAB14 CB OHD-SW MOV N P0011 $=
201308190332 SPECI KATL 190332Z 09007KT 3SM RA BR OVC004CB 22/21 A3016 RMK AO2 RAB14 CB OHD-SW MOV N P0006 $=
201308190252 METAR KATL 190252Z 09009KT 7SM BKN005 OVC060 22/21 A3016 RMK AO2 RAE10 SLP206 CB DSNT W TCU DSNT SW P0000 60000 T02220211 50007 $=
201308190222 SPECI KATL 190222Z 08010KT 8SM BKN006 OVC130 22/21 A3014 RMK AO2 RAE10 CB DSNT NE & W P0000 $=
201308190152 METAR KATL 190152Z 09010KT 8SM -RA FEW008 SCT022 OVC120 22/21 A3016 RMK AO2 RAE20B42 SLP206 CB DSNT NE & W P0000 T02220211 $=
201308190136 SPECI KATL 190136Z 08009KT 8SM FEW009 SCT026 OVC120 22/21 A3016 RMK AO2 RAE20 CB DSNT E & W P0000 $=
201308190110 SPECI KATL 190110Z 08009KT 8SM -RA SCT014 BKN026 OVC095 23/21 A3015 RMK AO2 CB DSNT SE & W P0000 $=
201308190052 METAR KATL 190052Z 08009KT 8SM -RA FEW032 BKN080 OVC130 23/21 A3014 RMK AO2 RAB37 SLP201 CB DSNT SE & W P0000 T02280211 $=
201308182352 METAR KATL 182352Z 08008KT 9SM FEW012 BKN080 OVC150 24/21 A3014 RMK AO2 SLP199 CB DSNT SE TCU DSNT S 60000 T02390211 10250 20233 50003 $=
201308182336 SPECI KATL 182336Z 05009KT 10SM SCT013 SCT085 OVC150 24/21 A3013 RMK AO2 CB DSNT SE TCU DSNT S $=
201308182303 SPECI KATL 182303Z 08007KT 10SM BKN013 BKN110 OVC180 24/21 A3015 RMK AO2 $=
201308182252 METAR KATL 182252Z 07007KT 10SM SCT013 SCT042 BKN110 OVC180 24/21 A3015 RMK AO2 SLP200 T02390211 $=
201308182152 METAR KATL 182152Z 06007KT 10SM SCT014 BKN042 OVC180 24/21 A3013 RMK AO2 SLP195 T02440211 $=
201308182106 SPECI KATL 182106Z 06004KT 10SM SCT016 SCT046 OVC200 25/21 A3013 RMK AO2 $=
201308182052 METAR KATL 182052Z 04005KT 10SM BKN016 OVC150 24/21 A3013 RMK AO2 SLP195 60000 T02440211 58017 $=
201308182042 SPECI KATL 182042Z 08006KT 10SM BKN016 OVC150 24/21 A3014 RMK AO2 $=
201308181952 METAR KATL 181952Z 07008KT 10SM FEW010 SCT070 OVC150 24/22 A3015 RMK AO2 RAE34 SLP203 P0000 T02440217 $=
201308181926 SPECI KATL 181926Z 05007KT 7SM -RA FEW009 OVC110 23/21 A3017 RMK AO2 P0000 $=
201308181852 METAR KATL 181852Z 06006KT 10SM -RA FEW012 BKN110 23/21 A3018 RMK AO2 RAB19 SLP214 P0000 T02330211 $=
201308181808 SPECI KATL 181808Z 05006KT 10SM SCT012 BKN080 BKN120 23/21 A3018 RMK AO2 $=
201308181752 METAR KATL 181752Z 07005KT 10SM BKN010 OVC075 23/21 A3018 RMK AO2 RAB1653E19 SLP214 VSBY LWR E P0010 60021 T02330206 10239 20200 58006 $=
201308181731 SPECI KATL 181731Z 11004KT 3SM BR BKN012 BKN025 OVC080 23/21 A3019 RMK AO2 SFC VIS 6 RAB1653E19 VSBY LWR E P0010 $=
201308181718 SPECI KATL 181718Z 00000KT 3SM -RA BR SCT012 BKN023 OVC037 23/21 A3019 RMK AO2 SFC VIS 5 RAB1653 VSBY LWR E P0010 $=
201308181713 SPECI KATL 181713Z 00000KT 2SM -RA BR SCT012 BKN025 OVC040 23/21 A3019 RMK AO2 SFC VIS 4 VSBY LWR E P0010 $=
201308181700 SPECI KATL 181700Z 02005KT 1 1/4SM R09R/3500VP6000FT +RA BR BKN016 BKN025 OVC038 22/21 A3020 RMK AO2 TWR VIS 2 VIS 1/2V3 RAB1653 P0006 $=
201308181652 METAR KATL 181652Z COR VRB05KT 2SM R09R/4500VP6000FT RA BKN018 BKN033 OVC075 23/20 A3020 RMK AO2 SFC VIS 4 RAB41 SLP218 VSBY LWR N P0011 T02280200 $=
201308181645 SPECI KATL 181645Z 13005KT 2SM R09R/2200VP6000FT +RA BR BKN018 BKN028 OVC080 22/20 A3020 RMK AO2 RAB41 VSBY LWR W P0006 $=
201308181600 SPECI KATL 181600Z 09007KT 10SM BKN016 BKN041 BKN070 23/20 A3020 RMK AO2 $=
201308181552 METAR KATL 181552Z 08008G20KT 10SM BKN014 BKN043 BKN070 23/20 A3020 RMK AO2 SLP219 T02330200 $=
201308181452 METAR KATL 181452Z 11005KT 10SM SCT008 BKN014 BKN150 22/20 A3020 RMK AO2 SLP221 T02220200 53011 $=
201308181414 SPECI KATL 181414Z 10005KT 7SM FEW006 OVC010 22/20 A3020 RMK AO2 $=
201308181352 METAR KATL 181352Z 05006KT 2 1/2SM BKN008 OVC012 22/20 A3017 RMK AO2 SFC VIS 7 SLP212 T02170200 $=
201308181340 SPECI KATL 181340Z 07005KT 2SM BR BKN006 OVC010 21/20 A3018 RMK AO2 SFC VIS 6 TWRINC $=
201308181320 SPECI KATL 181320Z 12004KT 2SM BR OVC004 21/20 A3019 RMK AO2 SFC VIS 6 TWRINC $=
201308181252 METAR KATL 181252Z 12003KT 1/2SM BR OVC004 21/20 A3019 RMK AO2 SFC VIS 6 SLP218 CIG 003V005 TWRINC T02060200 $=
201308181249 SPECI KATL 181249Z 11003KT 1/2SM BR OVC004 21/20 A3019 RMK AO2 SFC VIS 6 CIG 003V005 $=
201308181152 METAR KATL 181152Z 10003KT 1/4SM R09R/P6000FT BR OVC003 20/20 A3017 RMK AO2 SFC VIS 3/4 SLP210 60006 70019 T02000200 10200 20189 53015 $=
201308181125 SPECI KATL 181125Z 10003KT 1/4SM R09R/P6000FT BR OVC003 20/19 A3016 RMK AO2 SFC VIS 3/4 $=
201308181052 METAR KATL 181052Z 08003KT 1/2SM BR OVC003 20/19 A3014 RMK AO2 SFC VIS 6 RAE01 SLP202 P0000 T02000194 $=
201308180952 METAR KATL 180952Z 10003KT 1/2SM R09R/P6000FT -RA BR VV002 19/19 A3013 RMK AO2 SFC VIS 1 RAB01 SLP198 P0003 T01940194 $=
201308180852 METAR KATL 180852Z 12003KT 1/2SM R09R/6000VP6000FT BR OVC002 19/19 A3012 RMK AO2 SFC VIS 1 1/2 DZE47 SLP195 P0000 60003 T01940189 53001 $=
201308180752 METAR KATL 180752Z 09006KT 1/2SM -DZ BR OVC002 19/19 A3012 RMK AO2 SFC VIS 4 RAE31DZB31 SLP193 P0003 T01940189 $=
201308180652 METAR KATL 180652Z 12007KT 1/2SM R09R/2600V3000FT -RA FG VV002 19/19 A3012 RMK AO2 DZE49RAB49 SLP196 P0000 T01940189 $=
201308180552 METAR KATL 180552Z 10010KT 1/2SM R09R/5500VP6000FT DZ FG VV002 19/19 A3012 RMK AO2 SLP194 P0000 60000 T01890189 10189 20189 58010 $=
201308180452 METAR KATL 180452Z 08008KT 1/2SM R09R/2600V3500FT -DZ FG VV002 19/19 A3013 RMK AO2 RAE11DZB31 SLP198 P0000 T01890189 401890161 $=
201308180352 METAR KATL 180352Z 09006KT 1/2SM R09R/3500V4000FT -RA BR VV002 19/19 A3015 RMK AO2 SFC VIS 3/4 RAB31 SLP204 P0000 T01890189 $=
201308180252 METAR KATL 180252Z 11005KT 1/2SM BR OVC002 19/18 A3015 RMK AO2 SFC VIS 1 1/2 SLP205 T01890183 53011 $=
201308180241 SPECI KATL 180241Z 10006KT 1/2SM BR OVC002 19/18 A3015 RMK AO2 SFC VIS 2 $=
201308180152 METAR KATL 180152Z 09009KT 1 1/2SM BR OVC003 19/18 A3012 RMK AO2 SFC VIS 5 SLP196 TWRINC T01890183 $=
201308180052 METAR KATL 180052Z 07005KT 3SM BR OVC004 19/18 A3012 RMK AO2 SFC VIS 6 SLP194 T01890183 $=
201308172352 METAR KATL 172352Z 08007KT 7SM BKN005 OVC016 19/18 A3012 RMK AO2 RAE16 SLP194 P0000 60011 T01890178 10189 20178 51006 $=
201308172252 METAR KATL 172252Z 08006KT 6SM -RA BR BKN006 OVC020 19/18 A3011 RMK AO2 SLP193 P0002 T01890178 $=
201308172152 METAR KATL 172152Z 07007KT 6SM -RA BR OVC006 19/18 A3011 RMK AO2 SLP190 P0003 T01890178 $=
201308172052 METAR KATL 172052Z 09008KT 5SM -RA BR BKN006 OVC011 18/18 A3010 RMK AO2 SLP188 P0001 60006 T01830178 57009 $=
201308172035 SPECI KATL 172035Z 09010KT 5SM R09R/6000VP6000FT -RA BR BKN006 OVC010 18/17 A3010 RMK AO2 P0001 $=
201308171952 METAR KATL 171952Z 10010KT 6SM -RA BR SCT006 OVC012 18/17 A3010 RMK AO2 SLP189 P0003 T01830172 $=
201308171852 METAR KATL 171852Z 06006KT 5SM -RA BR OVC006 18/17 A3012 RMK AO2 DZE01RAB01 SLP196 P0002 T01830172 $=
201308171752 METAR KATL 171752Z 08011KT 4SM -DZ BR OVC006 18/17 A3013 RMK AO2 RAE30DZB30 SLP197 P0000 60002 T01780167 10178 20167 58005 $=
201308171652 METAR KATL 171652Z 08009KT 2 1/2SM -RA BR OVC006 17/17 A3013 RMK AO2 SFC VIS 4 SLP199 P0000 T01720167 $=
201308171613 SPECI KATL 171613Z 07013G19KT 1 1/4SM -RA BR OVC006 17/16 A3014 RMK AO2 SFC VIS 2 P0000 $=
201308171552 METAR KATL 171552Z 08012G19KT 2SM -RA BR OVC006 17/16 A3015 RMK AO2 SFC VIS 3 DZE18RAB25 SLP206 P0000 T01720161 $=
201308171452 METAR KATL 171452Z 09012KT 3SM -DZ BR BKN006 OVC010 17/16 A3014 RMK AO2 SFC VIS 4 RAE01DZB01 SLP203 P0000 60002 T01720161 51010 $=
201308171402 SPECI KATL 171402Z 08012KT 3SM -DZ BR BKN006 OVC012 17/16 A3014 RMK AO2 SFC VIS 4 RAE01DZB01 P0000 $=
201308171352 METAR KATL 171352Z 09010KT 2 1/2SM -RA BR BKN006 OVC012 17/16 A3014 RMK AO2 DZE1259RAB1259 SLP201 P0002 T01720161 $=
201308171332 SPECI KATL 171332Z 08012KT 1SM -RA BR OVC005 17/16 A3014 RMK AO2 SFC VIS 1 1/2 DZE1259RAB1259 P0001 $=
201308171305 SPECI KATL 171305Z 08009G17KT 3/4SM R09R/P6000FT -RA BR OVC005 17/16 A3014 RMK AO2 SFC VIS 1 DZE1259RAB1259 P0000 $=
201308171252 METAR KATL 171252Z 07011KT 1 1/2SM -DZ BR OVC005 17/16 A3013 RMK AO2 SLP197 P0000 T01720161 $=
201308171249 SPECI KATL 171249Z 07012KT 1 1/2SM -DZ BR OVC005 17/16 A3013 RMK AO2 P0000 $=
201308171245 SPECI KATL 171245Z 07010KT 2SM -DZ BR OVC005 17/16 A3012 RMK AO2 P0000 $=
201308171152 METAR KATL 171152Z 07011KT 6SM -DZ BR OVC006 17/16 A3011 RMK AO2 DZB47 SLP191 PCPN VRY LGT P0000 60000 70007 T01670161 10172 20161 53002 $=
201308171059 SPECI KATL 171059Z 08011KT 6SM BR OVC006 17/16 A3011 RMK AO2 $=
201308171052 METAR KATL 171052Z 07011KT 1 1/2SM BR OVC004 17/16 A3010 RMK AO2 SFC VIS 6 DZE50 SLP188 P0000 T01670156=
201308170952 METAR KATL 170952Z 07011KT 1 1/2SM -DZ BR OVC004 17/16 A3009 RMK AO2 SFC VIS 4 SLP187 TWRINC P0000 T01670156=
201308170852 METAR KATL 170852Z 08011KT 1 1/2SM -DZ BR OVC004 17/16 A3010 RMK AO2 SFC VIS 2 SLP189 P0000 60000 T01670156 55004=
201308170752 METAR KATL 170752Z 07010KT 1 1/2SM -DZ BR OVC004 17/16 A3010 RMK AO2 SFC VIS 3 DZB0653 SLP189 P0000 T01670161=
201308170658 SPECI KATL 170658Z 06011KT 1 1/2SM -DZ BR OVC004 17/16 A3010 RMK AO2 SFC VIS 2 DZB53 P0000=
201308170652 METAR KATL 170652Z 07010KT 5SM BR OVC004 17/16 A3010 RMK AO2 SLP190 T01670161=
201308170552 METAR KATL 170552Z 09010KT 7SM OVC006 17/16 A3012 RMK AO2 DZE44 SLP194 P0000 60000 T01720156 10194 20172 56003=
201308170452 METAR KATL 170452Z 08012KT 9SM -DZ OVC008 17/16 A3012 RMK AO2 DZB38 SLP194 P0000 T01720161 401940172=
201308170438 SPECI KATL 170438Z 09015KT 9SM -DZ OVC008 18/16 A3012 RMK AO2 DZB38 P0000=
201308170352 METAR KATL 170352Z 08015KT 10SM BKN012 OVC020 18/16 A3012 RMK AO2 SLP196 T01780156=
201308170252 METAR KATL 170252Z 09011G20KT 10SM FEW008 BKN016 OVC030 18/16 A3013 RMK AO2 DZB20E43 SLP196 P0000 60000 T01830161 51012=
201308170152 METAR KATL 170152Z 08010KT 10SM SCT008 BKN014 OVC025 19/17 A3012 RMK AO2 DZB06E25 SLP193 P0000 T01890172=
201308170125 SPECI KATL 170125Z 09010KT 8SM SCT008 BKN015 OVC025 18/17 A3011 RMK AO2 DZB06E25 P0000=
201308170052 METAR KATL 170052Z 09009KT 10SM OVC010 19/17 A3011 RMK AO2 SLP190 CIG 008V013 T01890172=
201308162352 METAR KATL 162352Z 10007KT 10SM OVC013 19/17 A3009 RMK AO2 SLP184 T01940167 10194 20178 53005=
201308162252 METAR KATL 162252Z 07009KT 10SM BKN012 OVC016 19/17 A3007 RMK AO2 SLP177 T01940167=
201308162152 METAR KATL 162152Z 08011KT 10SM OVC010 19/17 A3006 RMK AO2 SLP174 T01890167=
201308162052 METAR KATL 162052Z 08011KT 10SM OVC010 19/17 A3007 RMK AO2 SLP178 T01940167 58006=
201308161952 METAR KATL 161952Z 08012KT 10SM OVC013 19/16 A3007 RMK AO2 SLP179 T01940161=
201308161852 METAR KATL 161852Z 07010KT 10SM OVC012 19/16 A3009 RMK AO2 SLP185 T01890161=
201308161752 METAR KATL 161752Z 07016G19KT 10SM OVC009 18/16 A3010 RMK AO2 SLP189 60007 T01780161 10183 20172 58001=
201308161652 METAR KATL 161652Z 07014KT 9SM BKN009 BKN012 OVC020 18/16 A3012 RMK AO2 RAE46 SLP193 P0000 T01780161=
201308161552 METAR KATL 161552Z 07016KT 6SM -RA BR BKN008 BKN012 OVC020 18/17 A3011 RMK AO2 DZE47RAB47 SLP190 P0000 T01780167=
201308161504 SPECI KATL 161504Z 08014KT 3SM -DZ BR BKN008 BKN015 OVC020 18/17 A3011 RMK AO2 SFC VIS 5 P0000=
201308161452 METAR KATL 161452Z 07011G18KT 3SM -DZ BR BKN006 BKN010 OVC020 18/17 A3011 RMK AO2 RAE51DZB52 SLP190 P0001 60007 T01780167 53009=
201308161412 SPECI KATL 161412Z 08014KT 3SM -RA BR BKN006 BKN012 OVC020 17/16 A3010 RMK AO2 SFC VIS 3 P0001=
201308161352 METAR KATL 161352Z 07010KT 2 1/2SM -RA BR FEW005 BKN008 OVC020 17/16 A3010 RMK AO2 TWR VIS 3 SLP186 P0005 T01720161=
201308161252 METAR KATL 161252Z 07011KT 3SM -RA BR BKN005 OVC020 17/16 A3008 RMK AO2 SLP180 VIS NW 2 1/2 P0001 T01720161=
201308161152 METAR KATL 161152Z 06012G18KT 3SM -RA BR BKN007 OVC022 18/16 A3008 RMK AO2 SLP179 P0000 60014 70015 T01780161 10194 20172 53010=
201308161127 SPECI KATL 161127Z 07012G17KT 3SM -RA BR BKN006 OVC011 17/17 A3007 RMK AO2 P0000=
201308161052 METAR KATL 161052Z 07011KT 2 1/2SM -RA BR BKN005 OVC012 17/17 A3007 RMK AO2 SLP175 P0004 T01720167=
201308160952 METAR KATL 160952Z 06008KT 2 1/2SM -RA BR OVC004 17/16 A3005 RMK AO2 SLP170 P0002 T01720161 $=
201308160918 SPECI KATL 160918Z 07009KT 2 1/2SM -RA BR OVC004 17/16 A3005 RMK AO2 P0002 $=
201308160852 METAR KATL 160852Z 07014KT 3SM -RA BR BKN005 OVC022 17/16 A3005 RMK AO2 SLP168 P0002 60008 T01720161 56009 $=
201308160752 METAR KATL 160752Z 08012KT 3SM RA BR BKN005 OVC032 17/16 A3005 RMK AO2 SLP169 P0006 T01720161 $=
201308160739 SPECI KATL 160739Z 09011KT 3SM -RA BR BKN005 OVC038 17/16 A3005 RMK AO2 P0005 $=
201308160703 SPECI KATL 160703Z 08014KT 4SM -RA BR FEW008 BKN012 OVC022 18/16 A3006 RMK AO2 VIS SE 2 1/2 P0001 $=
201308160652 METAR KATL 160652Z 09010KT 6SM -RA BR OVC013 18/16 A3007 RMK AO2 RAB41 SLP176 VIS LWR SE-S P0000 T01780161 $=
201308160641 SPECI KATL 160641Z 09013KT 9SM -RA OVC014 19/16 A3007 RMK AO2 RAB41 P0000 $=
201308160552 METAR KATL 160552Z 10011KT 10SM OVC019 19/15 A3007 RMK AO2 SLP177 T01890150 10206 20189 58007 $=
201308160352 METAR KATL 160352Z 10010G16KT 10SM OVC028 19/16 A3010 RMK AO2 SLP187 T01940156 $=
201308160252 METAR KATL 160252Z 09011KT 10SM OVC030 20/16 A3009 RMK AO2 SLP184 T02000156 51006 $=
201308160152 METAR KATL 160152Z 08013KT 10SM OVC028 20/16 A3008 RMK AO2 SLP181 T02000156 $=
201308160052 SPECI KATL 160052Z 09011KT 10SM OVC028 21/15 A3008 RMK AO2 SLP178 T02060150=
201308160052 METAR KATL 160052Z 09011KT 10SM OVC028 21/15 A3008 RMK AO2 SLP178 T02060150=
201308152352 METAR KATL 152352Z 09012KT 10SM SCT026 BKN032 OVC040 21/15 A3006 RMK AO2 SLP173 T02060150 10228 20206 52003=
201308152252 METAR KATL 152252Z 08013G18KT 10SM FEW024 BKN030 OVC040 21/16 A3006 RMK AO2 SLP171 T02110161=
201308152152 METAR KATL 152152Z 08014KT 10SM SCT025 BKN030 OVC040 22/16 A3005 RMK AO2 SLP170 T02220161=
201308152052 METAR KATL 152052Z 09013G21KT 10SM FEW025 BKN030 BKN040 22/16 A3005 RMK AO2 SLP169 T02220156 56010 $=
201308151952 METAR KATL 151952Z 09013KT 10SM SCT020 BKN030 BKN040 22/17 A3006 RMK AO2 SLP172 T02170167=
201308151852 METAR KATL 151852Z 09018G25KT 10SM SCT020 BKN030 BKN090 21/16 A3005 RMK AO2 SLP170 T02110156=
201308151752 METAR KATL 151752Z 09015G24KT 10SM FEW015 SCT030 BKN060 21/17 A3008 RMK AO2 SLP180 60001 T02110167 10211 20189 58001=
201308151652 METAR KATL 151652Z 07019G25KT 9SM BKN015 BKN045 OVC060 19/17 A3009 RMK AO2 PK WND 07026/1559 RAE35 SLP184 P0000 T01940172=
201308151605 SPECI KATL 151605Z 08018G26KT 3SM -RA BR SCT010 BKN025 OVC050 19/18 A3009 RMK AO2 PK WND 07026/1559 SFC VIS 6 VIS LWR E-SW SHRA P0000=
201308151552 METAR KATL 151552Z 08017G22KT 7SM -RA SCT010 BKN040 OVC060 19/18 A3010 RMK AO2 RAE13B45 SLP185 VIS LWR E-SW SHRA P0001 T01940178=
201308151510 SPECI KATL 151510Z 09010KT 6SM -RA BR SCT017 BKN020 OVC050 20/18 A3009 RMK AO2 P0000=
201308151452 METAR KATL 151452Z 10012G19KT 8SM -RA FEW017 BKN020 OVC030 21/18 A3009 RMK AO2 RAB50 SLP181 P0000 60000 T02060178 51011=
201308151447 SPECI KATL 151447Z 10014G19KT 9SM BKN020 BKN030 OVC040 21/17 A3008 RMK AO2=
201308151416 SPECI KATL 151416Z 07013KT 9SM SCT020 BKN030 OVC040 21/18 A3008 RMK AO2 $=
201308151352 METAR KATL 151352Z 08011KT 8SM BKN016 BKN025 OVC030 21/18 A3007 RMK AO2 SLP174 T02110178 $=
201308151313 SPECI KATL 151313Z 08010KT 5SM BR OVC010 21/18 A3006 RMK AO2=
201308151252 METAR KATL 151252Z 08014G17KT 6SM BR OVC008 21/18 A3005 RMK AO2 SLP170 T02060183=
201308151220 SPECI KATL 151220Z 06013KT 6SM BR OVC009 21/18 A3005 RMK AO2=
201308151152 METAR KATL 151152Z 07011KT 6SM BR FEW007 BKN010 OVC038 21/18 A3004 RMK AO2 SLP166 70019 T02060183 10211 20206 53008=
201308151052 METAR KATL 151052Z 07011KT 6SM BR SCT007 BKN011 BKN080 21/19 A3003 RMK AO2 SLP159 T02110194=
201308151023 SPECI KATL 151023Z 08008KT 6SM BR SCT006 BKN011 OVC022 21/19 A3001 RMK AO2=
201308150952 METAR KATL 150952Z 07009KT 5SM BR BKN006 BKN011 OVC026 21/20 A3002 RMK AO2 SLP156 T02110200 $=
201308150934 SPECI KATL 150934Z 08007KT 6SM BR SCT006 BKN028 OVC075 21/20 A3002 RMK AO2 $=
201308150852 METAR KATL 150852Z 10007KT 5SM BR BKN007 BKN014 OVC026 21/20 A3002 RMK AO2 SLP157 T02110200 55002 $=
201308150752 METAR KATL 150752Z 09008KT 5SM BR BKN007 BKN015 OVC028 21/20 A3002 RMK AO2 SLP156 T02110200 $=
201308150740 SPECI KATL 150740Z 10007KT 6SM BR BKN007 OVC013 21/20 A3002 RMK AO2=
201308150652 METAR KATL 150652Z 08009KT 6SM BR FEW008 BKN012 BKN075 21/20 A3002 RMK AO2 SLP157 T02110200=
201308150640 SPECI KATL 150640Z 08010KT 6SM BR FEW008 OVC012 21/20 A3002 RMK AO2=
201308150552 METAR KATL 150552Z 09009KT 7SM BKN013 BKN070 21/19 A3002 RMK AO2 SLP158 60011 T02060194 10228 20206 58004=
201308150452 METAR KATL 150452Z 12004KT 9SM FEW007 SCT025 BKN100 BKN200 21/19 A3003 RMK AO2 RAE0359 SLP161 P0000 T02110194 402830211=
201308150352 METAR KATL 150352Z 11005KT 7SM -RA SCT012 BKN020 OVC080 22/20 A3004 RMK AO2 SLP162 P0004 T02170200=
201308150252 METAR KATL 150252Z 08010KT 7SM -RA SCT008 BKN014 OVC070 22/21 A3004 RMK AO2 RAB03 SLP162 P0000 60007 T02170206 53016=
201308150152 METAR KATL 150152Z 00000KT 9SM SCT007 BKN012 OVC070 22/21 A3001 RMK AO2 SLP154 T02170206=
201308150119 SPECI KATL 150119Z 16005KT 10SM SCT008 BKN013 OVC065 22/21 A3000 RMK AO2 CB DSNT NW=
201308150052 METAR KATL 150052Z 14004KT 10SM FEW015 BKN070 BKN150 BKN200 22/21 A2999 RMK AO2 RAE31 SLP148 CB DSNT NW-N P0007 T02170206=
201308142352 METAR KATL 142352Z 07008KT 5SM RA BR FEW009 SCT018CB BKN060 OVC150 23/21 A2999 RMK AO2 RAB13 SLP146 VIS LWR N CB OHD & VC SE-S MOV STNRY P0000 60008 T02280211 10283 20228 53012=
201308142252 METAR KATL 142252Z 33005KT 10SM FEW008 BKN022 BKN060 OVC150 25/21 A2997 RMK AO2 RAE27 SLP138 CB DSNT E & SE P0004 T02500211=
201308142152 METAR KATL 142152Z 29007KT 8SM -RA SCT020TCU BKN045 BKN070 OVC150 24/22 A2996 RMK AO2 RAE14B51 SLP135 TCU OHD CB DSNT E-SE P0001 T02440217=
201308142108 SPECI KATL 142108Z 21004KT 7SM -RA FEW015 SCT025 BKN050 OVC150 24/22 A2995 RMK AO2 P0001=
201308142052 METAR KATL 142052Z 25004KT 5SM -RA BR SCT015CB BKN025 BKN120 OVC150 24/22 A2995 RMK AO2 SLP132 VIS LWR E-SE-S SHRA CB OHD E-SE-S MOV S P0003 60003 T02390222 56004=
201308142046 SPECI KATL 142046Z 26004KT 3SM -RA BR BKN025CB BKN050 OVC120 24/22 A2995 RMK AO2 SFC VIS 5 CB OHD-SE-S MOV S P0001=
201308141952 METAR KATL 141952Z 17006KT 9SM -RA FEW020CB BKN030TCU OVC120 24/22 A2995 RMK AO2 RAB21 SLP132 CB S MOV S TCU N-NE & SE-S-SW-W-NW P0000 T02440217=
201308141926 SPECI KATL 141926Z 14005KT 9SM -RA SCT028CB BKN120 OVC150 26/22 A2996 RMK AO2 RAB21 CB OHD-S MOV S SHRA S P0000=
201308141852 METAR KATL 141852Z 32005KT 10SM BKN030TCU BKN120 BKN150 27/21 A2996 RMK AO2 SLP136 TCU OHD-SE-S-SW-W-NW T02720211=
201308141752 METAR KATL 141752Z VRB03KT 10SM FEW028 SCT120 BKN160 BKN200 28/21 A2997 RMK AO2 SLP140 T02780206 10278 20228 58004=
201308141652 METAR KATL 141652Z 30005KT 10SM FEW025 SCT120 BKN160 BKN200 27/21 A2998 RMK AO2 SLP143 T02720211=
201308141552 METAR KATL 141552Z 00000KT 10SM FEW120 BKN160 BKN200 27/21 A2999 RMK AO2 SLP144 T02670211=
201308141452 METAR KATL 141452Z 33003KT 10SM BKN120 BKN150 OVC200 24/21 A2999 RMK AO2 SLP145 T02440211 53004=
201308141352 METAR KATL 141352Z 34004KT 10SM BKN110 BKN150 OVC200 23/21 A2998 RMK AO2 SLP142 T02330211=
201308141252 METAR KATL 141252Z 31005KT 8SM FEW110 BKN140 OVC180 23/21 A2998 RMK AO2 SLP142 T02280211=
201308141152 METAR KATL 141152Z 31007KT 7SM SCT075 BKN150 OVC180 23/21 A2997 RMK AO2 SLP139 60000 T02280211 10233 20228 53014=
201308141052 METAR KATL 141052Z 31007KT 7SM FEW080 OVC140 23/21 A2995 RMK AO2 SLP133 T02280211 $=
201308140952 METAR KATL 140952Z 31007KT 9SM FEW080 BKN140 BKN200 23/22 A2993 RMK AO2 SLP125 T02280217=
201308140852 METAR KATL 140852Z 30007KT 9SM FEW080 BKN150 OVC200 23/22 A2993 RMK AO2 RAE11 SLP123 P0000 60000 T02330217 55004=
201308140752 METAR KATL 140752Z 30006KT 9SM -RA FEW040 SCT120 OVC150 23/22 A2992 RMK AO2 RAB08 SLP121 PCPN VRY LGT P0000 T02330217 $=
201308140652 METAR KATL 140652Z 30007KT 10SM FEW007 BKN110 OVC150 23/22 A2993 RMK AO2 SLP125 T02330217=
201308140552 METAR KATL 140552Z 30007KT 10SM FEW040 BKN150 OVC200 23/22 A2994 RMK AO2 SLP128 T02330217 10272 20233 58003=
201308140452 METAR KATL 140452Z 27005KT 10SM FEW080 BKN140 OVC200 23/22 A2995 RMK AO2 SLP129 T02330217 403170222=
201308140352 METAR KATL 140352Z 28005KT 10SM FEW080 BKN140 OVC200 24/21 A2995 RMK AO2 SLP130 T02390211=
201308140252 METAR KATL 140252Z 27007KT 10SM FEW080 BKN150 OVC250 24/21 A2995 RMK AO2 SLP131 T02390211 51008=
201308140152 METAR KATL 140152Z 26006KT 10SM FEW150 BKN200 BKN250 25/21 A2995 RMK AO2 SLP131 T02500211=
201308140052 METAR KATL 140052Z 27008KT 10SM FEW120 SCT200 BKN250 26/22 A2993 RMK AO2 SLP124 T02560222=
201308132352 METAR KATL 132352Z 26004KT 10SM FEW030 SCT120 BKN200 BKN250 27/22 A2993 RMK AO2 SLP123 CB DSNT N & SW 60000 T02670222 10317 20267 56002=
201308132252 METAR KATL 132252Z 29006KT 10SM FEW035 SCT100 BKN200 BKN250 28/22 A2993 RMK AO2 SLP124 CB DSNT SW T02780217=
201308132152 METAR KATL 132152Z 27008KT 10SM FEW035 SCT100 BKN250 29/22 A2993 RMK AO2 RAB24E33 SLP123 TCU DSNT S & NW-NE P0000 T02940222=
201308132052 METAR KATL 132052Z 28008KT 10SM FEW040CB SCT085 BKN250 29/21 A2993 RMK AO2 SLP125 CB W MOV E CB DSNT NE SHRA VC W T02940211 56020=
201308131952 METAR KATL 131952Z 33011KT 10SM FEW035TCU SCT085 BKN250 31/22 A2995 RMK AO2 SLP131 CB DSNT S & NW TCU E-SE-S T03060217=
201308131852 METAR KATL 131852Z 29011KT 10SM SCT040TCU SCT060 BKN250 31/21 A2997 RMK AO2 SLP138 TCU NE-E & S & NW T03060211=
201308131752 METAR KATL 131752Z 30010KT 10SM BKN035TCU BKN250 30/22 A2999 RMK AO2 SLP146 TCU NE & OHD-SW-W-NW T03000217 10300 20228 58007=
201308131652 METAR KATL 131652Z 32005KT 10SM SCT027 SCT035 BKN250 29/22 A3000 RMK AO2 SLP149 T02890217=
201308131552 METAR KATL 131552Z 31009KT 10SM BKN025 BKN030 BKN250 28/22 A3002 RMK AO2 SLP157 T02830222=
201308131538 SPECI KATL 131538Z 29009KT 10SM BKN025 BKN065 BKN250 28/22 A3002 RMK AO2=
201308131452 METAR KATL 131452Z 29011KT 10SM SCT020 SCT065 SCT250 27/22 A3002 RMK AO2 SLP154 T02720222 53002=
201308131352 METAR KATL 131352Z 26008KT 10SM BKN016 BKN065 BKN250 26/22 A3001 RMK AO2 SLP154 T02610222=
201308131252 METAR KATL 131252Z 26007KT 8SM FEW007 SCT065 BKN100 BKN250 24/22 A3001 RMK AO2 SLP152 T02440222 $=
201308131219 SPECI KATL 131219Z 27006KT 7SM SCT005 SCT065 BKN100 BKN250 23/22 A3001 RMK AO2=
201308131201 SPECI KATL 131201Z 27007KT 6SM BR BKN005 BKN065 BKN250 23/22 A3001 RMK AO2=
201308131152 METAR KATL 131152Z 27006KT 6SM BR SCT005 BKN060 BKN090 BKN250 23/22 A3001 RMK AO2 SLP153 70003 T02280222 10233 20222 53009=
201308131052 METAR KATL 131052Z 25006KT 6SM BR SCT004 SCT150 SCT250 23/22 A3000 RMK AO2 SLP149 T02280217=
201308130952 METAR KATL 130952Z 24004KT 9SM FEW005 SCT150 SCT250 23/22 A2999 RMK AO2 SLP143 T02280217=
201308130852 METAR KATL 130852Z 22004KT 8SM FEW005 SCT150 BKN250 22/22 A2998 RMK AO2 SLP141 T02220217 56018 $=
201308130752 METAR KATL 130752Z 24003KT 8SM FEW005 BKN250 23/22 A2998 RMK AO2 SLP142 T02280217 $=
201308130747 SPECI KATL 130747Z 25003KT 8SM FEW005 BKN250 23/22 A2998 RMK AO2 $=
201308130652 METAR KATL 130652Z 22004KT 9SM FEW055 BKN250 22/22 A3000 RMK AO2 SLP149 T02220217 $=
201308130552 METAR KATL 130552Z 21005KT 10SM FEW140 BKN250 22/21 A3004 RMK AO2 SLP160 60003 T02220211 10250 20222 58000 $=
201308130452 METAR KATL 130452Z 18003KT 10SM SCT140 BKN250 22/22 A3006 RMK AO2 SLP167 T02220217 403220222 $=
201308130352 METAR KATL 130352Z VRB03KT 10SM SCT200 BKN250 23/22 A3006 RMK AO2 SLP167 T02280217=
201308130252 METAR KATL 130252Z 00000KT 10SM FEW150 SCT200 BKN250 23/22 A3004 RMK AO2 SLP160 60003 T02330217 58002=
201308130152 METAR KATL 130152Z 00000KT 10SM FEW090 BKN150 BKN200 23/22 A3004 RMK AO2 RAE38 SLP162 P0003 T02330217=
201308130052 METAR KATL 130052Z 20004KT 10SM -RA FEW030 SCT100 BKN150 BKN200 23/22 A3005 RMK AO2 TSE52RAB32 SLP165 OCNL LTGICCGCA DSNT SE-S TS DSIPTD P0000 T02330217=
201308122352 METAR KATL 122352Z 22006KT 10SM TS FEW030CB SCT100 BKN150 BKN200 24/19 A3004 RMK AO2 RAE15 SLP164 FRQ LTGICCG VC SE-SW-W TS VC SE-SW-W MOV E P0000 60000 T02440194 10322 20239 58002=
201308122252 METAR KATL 122252Z 34017G23KT 5SM +TSRA BKN030CB BKN050 BKN100 OVC200 25/21 A3006 RMK AO2 PK WND 36029/2240 TSB10RAB40 SLP169 VIS LWR N-NE OCNL LTGIC N-NE TS N-NE MOV E P0000 T02500206=
201308122211 SPECI KATL 122211Z 00000KT 10SM TS FEW030CB SCT100 BKN200 BKN250 30/23 A3005 RMK AO2 TSB10 OCNL LTGICCG VC NW-N TS VC NW-N MOV E=
201308122152 METAR KATL 122152Z 00000KT 10SM FEW035 SCT200 BKN250 31/23 A3004 RMK AO2 RAB28E41 SLP161 CB DSNT W-N TCU DSNT N-NE P0000 T03060228=
201308122052 METAR KATL 122052Z 20004KT 10SM SCT030 SCT090 BKN200 30/23 A3005 RMK AO2 TSE17 SLP165 CB DSNT N & SE & W 60000 T03000233 56016=
201308122017 SPECI KATL 122017Z 19007KT 10SM FEW020CB SCT090 BKN200 29/24 A3006 RMK AO2 TSE17 TS MOV E SHRA E-SE CB E-SE MOV E CB DSNT NW-N=
201308121952 METAR KATL 121952Z 24006KT 10SM TS FEW030CB SCT090 BKN200 29/22 A3006 RMK AO2 TSB44RAB14E27 SLP169 FRQ LTGICCG S TS VC S MOV E SHRA VC SE-SW CB DSNT NW TCU DSNT NW P0000 T02940222=
201308121944 SPECI KATL 121944Z 29007KT 10SM TS SCT030CB SCT090 BKN200 29/22 A3007 RMK AO2 TSB44RAB14E27 FRQ LTGICCG SE-SW TS VC SE-SW MOV E SHRA VC SE-SE CB DSNT NW TCU DSNT NW P0000=
201308121852 METAR KATL 121852Z 31006KT 10SM FEW027CB SCT090 BKN250 31/23 A3008 RMK AO2 TSE50RAB08E38 SLP175 TS MOV E CB E-SE-S & W MOV E SHRA E-SE-S & W P0000 T03060228=
201308121811 SPECI KATL 121811Z 32009KT 10SM -TSRA BKN037CB BKN050 BKN250 31/23 A3009 RMK AO2 RAB08 OCNL LTGIC NE-S & W TS VC NE-S & W MOV E CB OHD & ALQDS MOV E P0000=
201308121752 METAR KATL 121752Z COR 30007G14KT 10SM TS FEW035CB BKN040TCU BKN250 32/22 A3010 RMK AO2 TSB52 SLP180 OCNL LTGIC N TS VC N MOV E CB SW-N MOV E TCU OHD-E SHRA VC SW-N T03220217 10322 20250 58015=
201308121652 METAR KATL 121652Z 28006KT 10SM FEW030CB BKN040TCU BKN250 31/23 A3012 RMK AO2 SLP189 VIS LWR E SHRA CB E MOV E TCU ALQDS T03110228=
201308121552 METAR KATL 121552Z VRB05KT 10SM SCT030TCU SCT250 29/22 A3014 RMK AO2 SLP195 TCU ALQDS T02890222=
201308121452 METAR KATL 121452Z 30008KT 10SM FEW025 SCT060 SCT250 29/23 A3014 RMK AO2 SLP196 TCU DSNT E T02940228 53001=
201308121352 METAR KATL 121352Z 29007KT 10SM FEW020 SCT060 28/23 A3014 RMK AO2 SLP195 T02780228=
201308121252 METAR KATL 121252Z 31007KT 10SM FEW040 SCT060 26/23 A3014 RMK AO2 SLP196 T02610228=
201308121152 METAR KATL 121152Z 27004KT 10SM SCT031 SCT070 SCT120 25/23 A3014 RMK AO2 SLP196 T02500228 10250 20239 53006=
201308121052 METAR KATL 121052Z 26003KT 10SM FEW070 SCT250 24/22 A3014 RMK AO2 SLP194 T02390222=
201308120952 METAR KATL 120952Z 26003KT 10SM FEW070 24/22 A3013 RMK AO2 SLP191 T02390222=
201308120852 METAR KATL 120852Z 28004KT 10SM FEW039 SCT070 24/22 A3012 RMK AO2 SLP189 T02440222 55004=
201308120752 METAR KATL 120752Z 27004KT 10SM FEW070 24/23 A3012 RMK AO2 SLP188 T02440228=
201308120652 METAR KATL 120652Z 28004KT 10SM BKN070 24/23 A3013 RMK AO2 SLP191 T02440228=
201308120552 METAR KATL 120552Z 29005KT 10SM FEW250 24/22 A3014 RMK AO2 SLP193 T02440222 10294 20244 56007=
201308120452 METAR KATL 120452Z 28005KT 10SM FEW250 25/22 A3014 RMK AO2 SLP195 T02500222 403220222=
201308120352 METAR KATL 120352Z 24003KT 10SM FEW200 26/23 A3015 RMK AO2 SLP198 T02560228=
201308120252 METAR KATL 120252Z 23004KT 10SM FEW110 SCT200 26/22 A3016 RMK AO2 SLP202 T02610222 51015=
201308120152 METAR KATL 120152Z 24004KT 10SM FEW110 SCT200 27/22 A3014 RMK AO2 SLP196 FRQ LTG DSNT NE & NW T02720222=
201308120052 METAR KATL 120052Z 27006KT 10SM FEW028TCU SCT100 SCT200 28/22 A3013 RMK AO2 SLP192 OCNL LTG DSNT NE & NW TCU VC E & SE T02780217=
201308112352 METAR KATL 112352Z 23004KT 10SM FEW038TCU SCT060 SCT200 29/22 A3011 RMK AO2 SLP186 CB DSNT NW-N TCU VC NE T02940217 10322 20294 55000=
201308112252 METAR KATL 112252Z 23005KT 10SM FEW044 SCT220 31/21 A3010 RMK AO2 SLP180 CB DSNT NW T03060211=
201308112152 METAR KATL 112152Z 23007KT 10SM FEW042 SCT250 31/22 A3010 RMK AO2 SLP181 CB DSNT NW TCU DSNT SW T03060217=
201308112052 METAR KATL 112052Z 24008KT 10SM SCT045 SCT075 BKN250 31/22 A3011 RMK AO2 SLP186 CB DSNT N T03110222 56017=
201308111952 METAR KATL 111952Z VRB06KT 10SM SCT045 SCT065 BKN250 32/22 A3013 RMK AO2 SLP190 TCU DSNT N T03220222=
201308111852 METAR KATL 111852Z 21005KT 10SM SCT040 SCT050 BKN065 31/21 A3015 RMK AO2 SLP198 T03110211=
201308111752 METAR KATL 111752Z 25006KT 10SM SCT037 31/21 A3016 RMK AO2 SLP204 T03110211 10311 20233 58010=
201308111652 METAR KATL 111652Z 28004KT 10SM SCT036 31/22 A3018 RMK AO2 SLP210 T03060217=
201308111552 METAR KATL 111552Z 27005KT 10SM FEW032 29/21 A3019 RMK AO2 SLP213 T02890211=
201308111452 METAR KATL 111452Z 22006KT 10SM FEW030 SCT250 28/21 A3020 RMK AO2 SLP214 T02830211 51007=
201308111352 METAR KATL 111352Z 26005KT 10SM FEW020 SCT250 28/22 A3019 RMK AO2 SLP214 T02780222=
201308111252 METAR KATL 111252Z 24005KT 10SM SCT250 25/22 A3019 RMK AO2 SLP213 T02500222=
201308111152 METAR KATL 111152Z 00000KT 10SM SCT150 23/22 A3017 RMK AO2 SLP208 T02330217 10239 20222 51008=
201308111052 METAR KATL 111052Z 30003KT 9SM FEW150 SCT250 23/21 A3017 RMK AO2 SLP206 T02280211=
201308110952 METAR KATL 110952Z 28003KT 10SM FEW110 SCT150 23/22 A3015 RMK AO2 SLP200 T02280217=
201308110852 METAR KATL 110852Z 20005KT 10SM BKN110 23/22 A3015 RMK AO2 SLP197 T02330217 55001=
201308110752 METAR KATL 110752Z 22003KT 10SM FEW050 BKN120 23/22 A3014 RMK AO2 SLP196 T02330217=
201308110652 METAR KATL 110652Z 00000KT 10SM FEW050 SCT150 SCT250 23/22 A3014 RMK AO2 SLP197 T02330217=
201308110552 METAR KATL 110552Z 00000KT 10SM FEW250 23/22 A3015 RMK AO2 SLP199 T02330217 10272 20233 53001=
201308110452 METAR KATL 110452Z 18003KT 10SM FEW250 23/22 A3015 RMK AO2 SLP197 T02330217 403220233=
201308110352 METAR KATL 110352Z 00000KT 10SM FEW250 24/22 A3014 RMK AO2 SLP196 T02390217=
201308110252 METAR KATL 110252Z 00000KT 10SM FEW130 BKN250 23/21 A3015 RMK AO2 SLP198 T02330211 53005=
201308110152 METAR KATL 110152Z 32004KT 10SM FEW110 BKN220 24/22 A3015 RMK AO2 SLP197 T02390217=
201308110052 METAR KATL 110052Z 00000KT 10SM FEW044 SCT130 BKN200 24/22 A3013 RMK AO2 TSE26 SLP193 CB DSNT N TCU DSNT SW T02390217=
201308110027 SPECI KATL 110027Z 32009KT 10SM SCT046 SCT100 BKN140 BKN200 24/22 A3015 RMK AO2 TSE26 TS DSPTD CB DSNT W-N TCU DSNT SW=
201308102352 METAR KATL 102352Z 07004KT 10SM TS FEW038CB SCT100 BKN150 BKN200 27/22 A3013 RMK AO2 RAB2259E10 SLP193 FRQ LTGCGIC VC NW TS VC NW MOV N CB DSNT W P0000 60000 T02670217 10322 20267 53013=
201308102332 SPECI KATL 102332Z 12005KT 9SM TS SCT036CB BKN100 BKN200 27/21 A3012 RMK AO2 RAB2259E10 OCNL LTGCG VC NW TS VC NW MOV NE CB DSNT W P0000=
201308102252 METAR KATL 102252Z 14007KT 9SM TS BKN037CB BKN110 BKN200 29/22 A3011 RMK AO2 TSB42 SLP185 OCNL LTGCG E TS E MOV NE CB OHD-W MOV NE T02940217=
201308102243 SPECI KATL 102243Z 03005KT 10SM TS BKN037CB BKN110 BKN200 29/21 A3010 RMK AO2 TSB42 OCNL LTGCG VC SE TS VC SE MOV NE CB DSNT NW TCU E-OHD-W=
201308102152 METAR KATL 102152Z 24003KT 10SM SCT042TCU SCT110 BKN220 31/22 A3009 RMK AO2 SLP180 CB DSNT SE-S & NW TCU VC ALQDS T03060217=
201308102052 METAR KATL 102052Z VRB03KT 10SM SCT045CB SCT070 BKN250 32/22 A3009 RMK AO2 SLP178 CB E MOV N CB DSNT N TCU DSNT S-W T03220222 56014=
201308101952 METAR KATL 101952Z 24007KT 10SM SCT040TCU BKN050 BKN250 32/23 A3010 RMK AO2 SLP181 TCU VC ALQDS CB DSNT W AND NE T03170228=
201308101852 METAR KATL 101852Z 24008KT 10SM SCT040TCU BKN050CB BKN080 31/22 A3012 RMK AO2 SLP187 CB OHD-E AND S MOV N TCU ALQDS T03060217=
201308101752 METAR KATL 101752Z 27008KT 10SM SCT038TCU SCT050 BKN250 31/23 A3013 RMK AO2 SLP192 TCU VC ALQDS T03060228 10317 20239 58007=
201308101652 METAR KATL 101652Z 20007KT 10SM SCT035TCU SCT080 BKN250 31/23 A3015 RMK AO2 SLP199 TCU VC ALQDS T03060228=
201308101552 METAR KATL 101552Z 29004KT 10SM SCT032 BKN065 BKN250 29/23 A3016 RMK AO2 SLP202 T02940228=
201308101452 METAR KATL 101452Z 25004KT 10SM FEW025 SCT150 BKN250 30/23 A3015 RMK AO2 SLP199 T03000233 51007=
201308101352 METAR KATL 101352Z 29003KT 10SM FEW020 SCT150 BKN250 28/23 A3015 RMK AO2 SLP198 T02830233=
201308101252 METAR KATL 101252Z 20004KT 10SM FEW150 BKN250 26/23 A3015 RMK AO2 SLP198 T02560228=
201308101152 METAR KATL 101152Z 00000KT 10SM FEW040 BKN250 24/22 A3013 RMK AO2 SLP193 T02390217 10250 20233 53009=
201308101052 METAR KATL 101052Z 15003KT 10SM FEW040 SCT250 23/22 A3013 RMK AO2 SLP191 T02330217=
201308100952 METAR KATL 100952Z 00000KT 10SM FEW040 SCT120 SCT250 24/22 A3011 RMK AO2 SLP184 T02390217=
201308100852 METAR KATL 100852Z 00000KT 10SM FEW040 SCT120 SCT250 24/22 A3011 RMK AO2 SLP183 T02440217 55002=
201308100752 METAR KATL 100752Z 00000KT 10SM FEW040 SCT120 SCT250 24/22 A3010 RMK AO2 SLP181 T02440217=
201308100652 METAR KATL 100652Z 17003KT 10SM SCT040TCU 24/22 A3010 RMK AO2 SLP182 TCU SE T02440217=
201308100552 METAR KATL 100552Z 00000KT 10SM FEW047 SCT060 SCT120 BKN250 25/22 A3011 RMK AO2 SLP185 T02500217 10294 20239 57003=
201308100452 METAR KATL 100452Z 00000KT 10SM FEW120 BKN250 25/22 A3012 RMK AO2 SLP187 T02500217 403170233=
201308100352 METAR KATL 100352Z 19004KT 10SM FEW120 SCT250 25/22 A3012 RMK AO2 SLP188 T02500217=
201308100252 METAR KATL 100252Z 21006KT 10SM BKN140 BKN200 26/22 A3012 RMK AO2 SLP189 T02560222 51020=
201308100152 METAR KATL 100152Z 21007KT 10SM FEW200 SCT250 26/22 A3010 RMK AO2 SLP182 OCNL LTG DSNT SE T02610222 $=
201308100052 METAR KATL 100052Z 19007KT 10SM FEW040 SCT250 27/22 A3009 RMK AO2 SLP177 T02720222=
201308092352 METAR KATL 092352Z 19003KT 10SM FEW040 BKN250 29/22 A3006 RMK AO2 SLP169 CB DSNT SE-S & SW T02940222 10317 20294 53003=
201308092252 METAR KATL 092252Z 18008KT 10SM FEW040 SCT250 31/22 A3005 RMK AO2 SLP164 CB DSNT SW TCU DSNT SE-S T03060217=
201308092152 METAR KATL 092152Z 24003KT 10SM FEW040 SCT250 31/22 A3005 RMK AO2 SLP164 CB DSNT S-SW TCU DSNT SE-S T03110217=
201308092052 METAR KATL 092052Z 22007KT 10SM FEW040TCU SCT060 BKN250 31/21 A3005 RMK AO2 SLP164 CB DSNT NW TCU ALQDS T03110211 56015=
201308091952 METAR KATL 091952Z 17006KT 10SM FEW040TCU SCT060 BKN250 31/22 A3006 RMK AO2 SLP168 CB DSNT NW & N TCU ALQDS T03110217=
201308091852 METAR KATL 091852Z 21009KT 10SM SCT034TCU SCT150 BKN250 31/21 A3008 RMK AO2 SLP175 CB DSNT NW TCU ALQDS T03060211=
201308091752 METAR KATL 091752Z 21008KT 10SM SCT032TCU BKN150 BKN250 30/22 A3010 RMK AO2 SLP181 CB DSNT NW TCU ALQDS T03000222 10300 20239 58006=
201308091652 METAR KATL 091652Z 22005KT 10SM FEW030TCU BKN150 BKN250 29/22 A3011 RMK AO2 SLP185 TCU E & S & NW TCU DSNT NE T02890222=
201308091552 METAR KATL 091552Z 21005KT 10SM SCT020 BKN150 BKN250 28/22 A3012 RMK AO2 SLP188 T02830222=
201308091452 METAR KATL 091452Z 20006KT 10SM BKN020 BKN150 BKN250 27/23 A3012 RMK AO2 SLP188 T02720228 51010=
201308091352 METAR KATL 091352Z 23005KT 10SM FEW012 SCT150 BKN250 27/23 A3011 RMK AO2 SLP186 T02670233=
201308091252 METAR KATL 091252Z 21005KT 7SM FEW009 SCT150 BKN250 24/23 A3010 RMK AO2 SLP184 T02440228=
201308091152 METAR KATL 091152Z 00000KT 6SM BR FEW005 SCT150 BKN250 24/23 A3009 RMK AO2 SLP179 70008 T02390228 10250 20233 53011=
201308091137 SPECI KATL 091137Z 00000KT 6SM BR FEW005 SCT150 BKN250 23/23 A3009 RMK AO2=
201308091052 METAR KATL 091052Z 00000KT 6SM BR FEW150 SCT250 23/23 A3007 RMK AO2 SLP171 T02330228=
201308090952 METAR KATL 090952Z 00000KT 7SM SCT150 SCT250 23/23 A3006 RMK AO2 SLP167 T02330228=
201308090852 METAR KATL 090852Z 00000KT 7SM FEW005 BKN150 BKN250 24/23 A3006 RMK AO2 SLP168 T02390228 51007=
201308090752 METAR KATL 090752Z 00000KT 8SM SCT180 BKN250 24/23 A3005 RMK AO2 SLP165 T02440228=
201308090652 METAR KATL 090652Z 00000KT 8SM SCT180 BKN250 24/23 A3005 RMK AO2 SLP165 T02440233=
201308090552 METAR KATL 090552Z 13003KT 8SM FEW035 SCT190 BKN250 24/23 A3003 RMK AO2 SLP161 T02440233 10272 20244 56013=
201308090452 METAR KATL 090452Z 14004KT 10SM SCT180 BKN250 25/23 A3003 RMK AO2 SLP160 T02500233 402830233=
201308090352 METAR KATL 090352Z 14007KT 9SM BKN180 BKN250 25/23 A3003 RMK AO2 SLP160 T02500233=
201308090252 METAR KATL 090252Z 07006KT 10SM BKN180 BKN250 26/23 A3007 RMK AO2 SLP173 T02610233 51012=
201308090152 METAR KATL 090152Z 09003KT 10SM SCT150 BKN200 BKN250 26/23 A3006 RMK AO2 SLP170 T02610233=
201308090052 METAR KATL 090052Z 00000KT 10SM BKN150 BKN200 BKN250 27/23 A3006 RMK AO2 SLP170 T02670233=
201308082352 METAR KATL 082352Z 09003KT 10SM BKN150 BKN200 BKN250 27/23 A3004 RMK AO2 SLP161 T02670233 10283 20239 55001=
201308082252 METAR KATL 082252Z 00000KT 10SM FEW150 SCT200 BKN250 27/23 A3003 RMK AO2 SLP160 T02720228 $=
201308082152 METAR KATL 082152Z 17004KT 10SM FEW120 SCT150 BKN200 28/22 A3004 RMK AO2 SLP162 T02780222 $=
201308082052 METAR KATL 082052Z 00000KT 10SM FEW110 SCT150 BKN200 27/22 A3004 RMK AO2 SLP162 CB DSNT S T02720222 56018=
201308081952 METAR KATL 081952Z 19003KT 10SM FEW015 SCT110 OVC150 26/22 A3005 RMK AO2 SLP168 T02560222=
201308081852 METAR KATL 081852Z 17005KT 8SM FEW015 SCT040 SCT110 OVC140 24/23 A3007 RMK AO2 TSE24 SLP174 CB DSNT NW SHRA VC NE-SE & SW-NW T02440228=
201308081825 SPECI KATL 081825Z 13004KT 10SM FEW010 SCT040 BKN100 OVC150 24/23 A3009 RMK AO2 TSE24 CB DSNT E-SE & DSNT NW SHRA NE-SE & SW-NW=
201308081752 METAR KATL 081752Z 16003KT 6SM TS BR FEW010CB SCT040 BKN060 BKN150 24/22 A3009 RMK AO2 TSB20RAB25E48 SLP181 OCNL LTGICCG SW-W TS VC SW-W MOV NE SHRA VC NE-SE & SW-W P0000 60008 T02440222 10267 20233 52006=
201308081720 SPECI KATL 081720Z 18006KT 6SM TS BR FEW005 SCT010CB BKN100 BKN150 24/22 A3009 RMK AO2 TSB20 OCNL LTGICCG SE & SW TS VC SE & SW MOV NE SHRA VC SE & SW=
201308081652 METAR KATL 081652Z 18004KT 8SM SCT010CB SCT040 BKN080 25/23 A3008 RMK AO2 RAE50 SLP178 CB NE-S & SW-NW MOV N SHRA NE-S & SW-NW P0002 T02500233=
201308081620 SPECI KATL 081620Z 18006KT 6SM -RA BR FEW010CB BKN040 BKN080 25/23 A3009 RMK AO2 VIS LWR NE-SE SHRA CB NE-SE MOV N P0002=
201308081552 METAR KATL 081552Z 19005KT 5SM -RA BR SCT012CB BKN027 BKN050 25/24 A3009 RMK AO2 RAB17 SLP179 CB OHD-N-NE & SE-S-SW-W MOV N P0006 T02500239=
201308081534 SPECI KATL 081534Z 00000KT 8SM R09R/4500VP6000FT -RA SCT012CB BKN027 OVC050 25/23 A3008 RMK AO2 RAB17 VIS LWR SW-NW SHRA CB SW-NW MOV N P0006=
201308081452 METAR KATL 081452Z 00000KT 7SM SCT010CB BKN040 BKN060 26/23 A3007 RMK AO2 SLP174 CB SW-NW MOV N SHRA SW-NW T02610233 53007=
201308081352 METAR KATL 081352Z 17004KT 6SM BR SCT008 BKN045 BKN065 25/23 A3007 RMK AO2 SLP171 T02500228=
201308081252 METAR KATL 081252Z 18005KT 4SM BR BKN006 BKN055 24/23 A3006 RMK AO2 SLP170 T02390228=
201308081233 SPECI KATL 081233Z 17006KT 1 1/2SM BR BKN005 BKN150 24/23 A3006 RMK AO2 SFC VIS 4=
201308081152 METAR KATL 081152Z 15005KT 1 1/2SM BR BKN004 BKN050 OVC220 23/22 A3005 RMK AO2 SFC VIS 3 SLP168 70266 T02330222 10233 20233 53008=
201308081052 METAR KATL 081052Z 13003KT 1 1/2SM BR BKN003 OVC006 23/22 A3004 RMK AO2 SFC VIS 3 SLP165 T02330222=
201308081035 SPECI KATL 081035Z 12004KT 1 1/2SM BR BKN003 OVC006 23/22 A3003 RMK AO2 SFC VIS 3=
201308080952 METAR KATL 080952Z VRB03KT 3SM BR OVC003 23/22 A3002 RMK AO2 SLP156 T02330222=
201308080923 SPECI KATL 080923Z 12004KT 4SM BR OVC004 23/22 A3003 RMK AO2=
201308080852 METAR KATL 080852Z 12005KT 5SM BR BKN005 OVC180 23/22 A3003 RMK AO2 SLP158 T02330222 55005=
201308080844 SPECI KATL 080844Z 11004KT 5SM BR BKN005 BKN036 OVC180 23/22 A3003 RMK AO2=
201308080814 SPECI KATL 080814Z 11005KT 5SM BR SCT005 BKN034 BKN170 23/22 A3003 RMK AO2=
201308080752 METAR KATL 080752Z 10005KT 5SM BR BKN005 OVC046 23/22 A3003 RMK AO2 SLP157 T02330222=
201308080736 SPECI KATL 080736Z 09005KT 5SM BR BKN007 BKN013 OVC037 23/22 A3003 RMK AO2=
201308080718 SPECI KATL 080718Z 09004KT 6SM BR BKN013 OVC037 23/22 A3003 RMK AO2=
201308080652 METAR KATL 080652Z 00000KT 7SM FEW033 BKN190 23/22 A3003 RMK AO2 SLP160 T02330222=
201308080552 METAR KATL 080552Z 00000KT 8SM FEW006 SCT028 BKN170 23/22 A3005 RMK AO2 SLP164 60000 T02330222 10244 20233 50000=
201308080452 METAR KATL 080452Z 13003KT 10SM SCT150 BKN180 OVC250 24/23 A3005 RMK AO2 SLP165 T02390228 403000228=
201308080352 METAR KATL 080352Z 11004KT 10SM FEW030 BKN180 OVC250 24/23 A3004 RMK AO2 SLP164 T02390228=
201308080252 METAR KATL 080252Z 12004KT 9SM FEW035 SCT200 BKN250 24/23 A3004 RMK AO2 SLP165 60000 T02440233 51009=
201308080152 METAR KATL 080152Z 13003KT 8SM FEW120 SCT150 BKN200 24/23 A3004 RMK AO2 SLP163 T02440233 $=
201308080052 METAR KATL 080052Z 16003KT 10SM FEW060 SCT120 BKN150 OVC200 24/23 A3003 RMK AO2 RAE2358 SLP159 P0000 T02440228=
201308072352 METAR KATL 072352Z COR 17007KT 9SM -RA FEW030 SCT060 BKN120 BKN150 BKN200 24/23 A3002 RMK AO2 TSE28 SLP155 CB DSNT SW P0032 60118 T02390228 10300 20233 50001=
201308072328 SPECI KATL 072328Z 17006KT 2 1/2SM RA BR SCT030 BKN050 BKN100 OVC150 24/23 A3002 RMK AO2 TSE28 TS DSIPTD P0021=
201308072312 SPECI KATL 072312Z 12008KT 1 1/2SM +TSRA BR BKN025CB BKN050 OVC110 24/22 A3003 RMK AO2 OCNL LTGIC OHD-NE TS OHD-NE MOV S P0019=
201308072252 METAR KATL 072252Z 11011KT 2SM +TSRA BR BKN025CB BKN040 OVC110 24/22 A3003 RMK AO2 SFC VIS 2 1/2 TSB48RAB21 SLP159 VIS S-W LWR OCNL LTGIC NE TS NE MOV S CB NE-OHD-SW MOV S P0086 T02390222=
201308072249 SPECI KATL 072249Z 11012KT 2SM +TSRA BR BKN025CB BKN040 OVC110 23/22 A3003 RMK AO2 SFC VIS 3 TSB48RAB21 OCNL LTGIC NE TS NE MOV S CB OHD-NE MOV S P0067=
201308072231 SPECI KATL 072231Z 10011KT 1SM R09R/5500VP6000FT +RA BKN028CB BKN050 BKN150 OVC200 26/23 A3002 RMK AO2 SFC VIS 1 1/2 RAB21 CB OHD-S MOV SW P0001=
201308072152 METAR KATL 072152Z 18004KT 10SM SCT030CB BKN050 BKN150 BKN250 30/22 A3001 RMK AO2 SLP151 CB VC SE & DSNT N-NE MOV STNRY VCSH SE T03000222=
201308072052 METAR KATL 072052Z 16005KT 10SM SCT029TCU SCT040 BKN150 BKN250 29/22 A3001 RMK AO2 SLP152 TCU SW-NW TCU DSNT NE & SE T02940222 56015=
201308071952 METAR KATL 071952Z 18005KT 10SM FEW024 SCT050 SCT150 BKN250 29/22 A3002 RMK AO2 SLP155 TCU DSNT NE & DSNT SW-NW T02890222=
201308071852 METAR KATL 071852Z 18006KT 10SM FEW016 SCT050 BKN100 BKN150 27/23 A3004 RMK AO2 SLP163 CB DSNT S TCU DSNT NE T02720233=
201308071752 METAR KATL 071752Z COR 19006KT 6SM HZ SCT013TCU BKN050 OVC100 27/23 A3006 RMK AO2 SLP168 TCU N-NE-E & SW & NW 60148 T02670233 10267 20228 56007=
201308071652 METAR KATL 071652Z 20006KT 6SM BR FEW008 BKN015TCU OVC050 26/23 A3008 RMK AO2 SLP174 TCU OHD & ALQDS T02560233=
201308071552 METAR KATL 071552Z 18006KT 6SM BR SCT005 BKN020 OVC050 24/24 A3008 RMK AO2 TSE1455RAE49 SLP176 P0010 T02440239=
201308071550 SPECI KATL 071550Z 17006KT 6SM BR SCT005 BKN020 OVC050 24/24 A3008 RMK AO2 TSE1455RAE49 P0010=
201308071532 SPECI KATL 071532Z 17005KT 3SM -RA BR FEW005 BKN050 OVC100 24/23 A3008 RMK AO2 SFC VIS 5 TSE1455 P0010=
201308071504 SPECI KATL 071504Z 21004KT 3SM -RA BR FEW010CB SCT030 BKN080 OVC150 23/23 A3008 RMK AO2 SFC VIS 4 TSE1455 VIS LWR NE-SE SHRA TS MOV NE CB NE-SE MOV NE P0001=
201308071455 SPECI KATL 071455Z 19004KT 1 1/2SM R09R/4500VP6000FT -RA BR SCT007CB BKN027 OVC070 23/23 A3008 RMK AO2 SFC VIS 2 TSE55 TS MOV NE CB NE-SE MOV NE P0000=
201308071452 METAR KATL 071452Z 21003KT 1 1/2SM R09R/4500VP6000FT TSRA BR FEW007 BKN010CB OVC027 23/23 A3008 RMK AO2 SFC VIS 2 SLP175 OCNL LTGIC NE-SE TS NE-SE MOV NE P0137 60138 T02330228 53011=
201308071441 SPECI KATL 071441Z 00000KT 1SM R09R/3500V5000FT TSRA BR SCT007 BKN010CB OVC020 23/23 A3008 RMK AO2 OCNL LTGIC NE-E TS NE-E MOV NE P0124=
201308071430 SPECI KATL 071430Z 29005KT 1 1/2SM R09R/3500VP6000FT TSRA BR FEW004 SCT010CB OVC017 23/23 A3007 RMK AO2 OCNL LTGIC NE-SE TS NE-SE MOV NE P0095=
201308071415 SPECI KATL 071415Z 26004KT 1/2SM R09R/2200V4000FT +TSRA FG BKN008CB OVC012 23/22 A3007 RMK AO2 TWR VIS 3/4 OCNL LTGIC OHD & ALQDS TS OHD & ALQDS MOV NE P0056=
201308071410 SPECI KATL 071410Z 24009G16KT 1SM R09R/2200VP6000FT +TSRA BR BKN008CB OVC012 23/22 A3007 RMK AO2 TWR VIS 1 1/2 OCNL LTGICCG SE-SW TS SE-SW MOV NE P0024=
201308071403 SPECI KATL 071403Z 24008KT 1 3/4SM R09R/4000VP6000FT TSRA BR BKN010CB OVC012 24/23 A3007 RMK AO2 VIS LWR SW-W SHRA OCNL LTGICCG SW-W TS SW-W MOV NE P0002=
201308071359 SPECI KATL 071359Z 20004KT 3SM -TSRA BR BKN010CB OVC012 24/23 A3007 RMK AO2 VIS LWR SW-W SHRA OCNL LTGICCG SW-W TS SW-W MOV NE P0001=
201308071352 METAR KATL 071352Z 18005KT 5SM -TSRA BR BKN008CB BKN010 OVC012 24/23 A3006 RMK AO2 SLP169 VIS LWR SW-W SHRA OCNL LTGICCG SW-W TS SW-W MOV NE P0001 T02440228=
201308071327 SPECI KATL 071327Z 17007KT 6SM BR BKN006CB OVC008 24/23 A3006 RMK AO2 VIS LWR SW-NW SHRA CB SW-NW MOV NE=
201308071252 METAR KATL 071252Z 15006KT 6SM BR OVC008 24/23 A3005 RMK AO2 SLP166 CIG 007V010 T02440228=
201308071152 METAR KATL 071152Z 17004KT 5SM BR OVC007 24/23 A3004 RMK AO2 SLP162 T02440228 10256 20239 53012 $=
201308071052 METAR KATL 071052Z 15005KT 6SM BR OVC006 24/23 A3003 RMK AO2 SLP158 T02390228=
201308070952 METAR KATL 070952Z 12006KT 6SM BR BKN008 OVC140 24/22 A3002 RMK AO2 SLP153 CIG 007V010 T02390222=
201308070908 SPECI KATL 070908Z 14004KT 7SM BKN008 OVC130 24/22 A3001 RMK AO2=
201308070852 METAR KATL 070852Z 15006KT 9SM FEW040 BKN130 BKN180 24/22 A3001 RMK AO2 SLP150 T02390222 56001=
201308070752 METAR KATL 070752Z 17004KT 8SM BKN130 24/22 A3001 RMK AO2 SLP151 T02390222=
201308070652 METAR KATL 070652Z 19006KT 8SM FEW047 SCT150 24/22 A3000 RMK AO2 SLP147 T02440222=
201308070552 METAR KATL 070552Z 15005KT 8SM FEW047 SCT150 BKN250 26/23 A3001 RMK AO2 SLP150 OCNL LTGIC NE CB DSNT NE T02560228 10283 20250 56004=
201308070452 METAR KATL 070452Z 14003KT 10SM FEW045 SCT150 BKN250 26/23 A3002 RMK AO2 SLP153 T02560228 403110233=
201308070352 METAR KATL 070352Z 18004KT 10SM BKN150 BKN250 26/23 A3002 RMK AO2 SLP153 T02560228=
201308070252 METAR KATL 070252Z 15004KT 10SM BKN140 OVC250 27/22 A3002 RMK AO2 SLP155 T02670222 51008=
201308070152 METAR KATL 070152Z 00000KT 10SM FEW025 BKN150 OVC250 27/22 A3002 RMK AO2 SLP155 T02720222=
201308070052 METAR KATL 070052Z 08003KT 10SM FEW025 SCT090 BKN150 OVC250 27/21 A3001 RMK AO2 SLP153 T02720211=
201308062352 METAR KATL 062352Z 25004KT 10SM FEW035TCU SCT090 BKN150 OVC200 28/22 A3000 RMK AO2 SLP147 TCU E-SE CB DSNT NE T02830222 10311 20278 53003=
201308062252 METAR KATL 062252Z 31005KT 10SM FEW035 SCT070 BKN150 OVC250 29/22 A2999 RMK AO2 SLP144 CB DSNT N & NE T02890217=
201308062152 METAR KATL 062152Z 25003KT 10SM FEW035 SCT070 BKN150 BKN250 30/21 A3000 RMK AO2 SLP146 T03000211=
201308062052 METAR KATL 062052Z 30003KT 10SM FEW035 SCT070 BKN150 BKN250 30/22 A2999 RMK AO2 SLP145 TCU DSNT NW-N T03000217 56014=
201308061952 METAR KATL 061952Z 30006KT 10SM SCT040 BKN150 BKN250 29/20 A2999 RMK AO2 SLP145 T02940200=
201308061852 METAR KATL 061852Z 33007KT 10SM SCT045 SCT150 BKN250 31/20 A3001 RMK AO2 SLP151 T03110200=
201308061752 METAR KATL 061752Z VRB04KT 10SM FEW040 SCT050 BKN200 30/20 A3003 RMK AO2 SLP159 T03000200 10306 20239 58003=
201308061652 METAR KATL 061652Z 00000KT 10SM FEW040 SCT110 BKN200 29/19 A3004 RMK AO2 SLP161 T02940189=
201308061552 METAR KATL 061552Z 28006KT 10SM FEW040 SCT110 BKN200 28/18 A3005 RMK AO2 SLP164 T02830183=
201308061452 METAR KATL 061452Z 31004KT 10SM FEW030 SCT110 BKN200 28/18 A3004 RMK AO2 SLP162 T02830178 51010=
201308061352 METAR KATL 061352Z 15003KT 6SM BR FEW007 BKN110 BKN200 25/23 A3003 RMK AO2 SLP160 T02500228=
201308061252 METAR KATL 061252Z 00000KT 5SM BR FEW006 BKN080 OVC120 24/22 A3003 RMK AO2 SLP160 T02390222=
201308061204 SPECI KATL 061204Z 00000KT 5SM BR SCT006 OVC095 24/23 A3002 RMK AO2 $=
201308061152 METAR KATL 061152Z 20003KT 5SM BR BKN006 OVC090 24/22 A3001 RMK AO2 SLP152 T02390222 10244 20233 53007 $=
201308061052 METAR KATL 061052Z 00000KT 5SM BR BKN005 OVC120 23/22 A2999 RMK AO2 SLP146 T02330222=
201308060952 METAR KATL 060952Z 00000KT 6SM BR OVC006 23/22 A2999 RMK AO2 SLP146 T02330222 $=
201308060852 METAR KATL 060852Z 18003KT 5SM BR BKN007 OVC100 23/22 A2999 RMK AO2 SLP144 T02330222 55005 $=
201308060842 SPECI KATL 060842Z 18003KT 5SM BR BKN007 BKN100 OVC130 23/22 A2999 RMK AO2 $=
201308060832 SPECI KATL 060832Z 19003KT 6SM BR SCT007 SCT100 OVC130 23/22 A2999 RMK AO2 $=
201308060752 METAR KATL 060752Z 16003KT 8SM SCT100 SCT130 OVC180 24/21 A2998 RMK AO2 SLP140 T02440211 $=
201308060652 METAR KATL 060652Z 15004KT 10SM BKN110 OVC150 24/21 A2999 RMK AO2 SLP143 T02390206 $=
201308060552 METAR KATL 060552Z 00000KT 10SM SCT110 BKN150 24/21 A3000 RMK AO2 SLP149 T02440206 10283 20244 58005 $=
201308060452 METAR KATL 060452Z 31006KT 10SM OVC100 25/20 A3002 RMK AO2 SLP154 T02500200 403110217 $=
201308060352 METAR KATL 060352Z 31004KT 10SM BKN100 BKN200 OVC250 26/19 A3001 RMK AO2 SLP151 T02560194 $=
201308060252 METAR KATL 060252Z 00000KT 10SM SCT110 BKN200 BKN250 25/19 A3002 RMK AO2 SLP155 T02500194 50004 $=
201308060152 METAR KATL 060152Z 00000KT 10SM SCT120 BKN200 BKN250 26/20 A3002 RMK AO2 SLP156 T02560200=
201308060052 METAR KATL 060052Z 33006KT 10SM FEW035TCU SCT140 BKN200 BKN250 27/20 A3002 RMK AO2 SLP156 TCU SE T02720200=
201308052352 METAR KATL 052352Z 30006KT 10SM SCT035TCU BKN140 BKN200 BKN250 28/21 A3001 RMK AO2 SLP151 TCU NE-OHD-S T02830206 10311 20278 55001=
201308052252 METAR KATL 052252Z 31005KT 10SM SCT035TCU BKN140 BKN250 30/21 A3000 RMK AO2 SLP149 TCU NE-SE-S T03000206=
201308052152 METAR KATL 052152Z 23003KT 10SM FEW035TCU BKN150 BKN250 29/20 A3000 RMK AO2 SLP148 TCU OHD-SE & NE T02940200=
201308052052 METAR KATL 052052Z 00000KT 10SM SCT034TCU BKN150 BKN250 29/21 A3001 RMK AO2 SLP151 TCU N & SW & NW T02940211 57013=
201308051952 METAR KATL 051952Z 16003KT 10SM SCT030 BKN150 BKN250 29/22 A3002 RMK AO2 SLP155 T02940217=
201308051852 METAR KATL 051852Z 00000KT 10SM SCT028 BKN150 BKN250 28/21 A3004 RMK AO2 SLP161 T02830211=
201308051752 METAR KATL 051752Z 08007KT 10SM SCT025TCU BKN150 BKN250 28/22 A3005 RMK AO2 SLP165 TCU NE & NW T02830222 10283 20217 58009=
201308051735 SPECI KATL 051735Z VRB05KT 10SM SCT025TCU BKN150 28/22 A3005 RMK AO2 TCU NW=
201308051652 METAR KATL 051652Z 09004KT 10SM BKN019 BKN028 27/22 A3006 RMK AO2 SLP168 T02720222=
201308051552 METAR KATL 051552Z 09006KT 9SM BKN017 BKN020 OVC150 26/22 A3007 RMK AO2 SLP171 T02610222=
201308051452 METAR KATL 051452Z 08005KT 9SM BKN015 BKN150 26/22 A3007 RMK AO2 SLP173 T02610217 51005=
201308051448 SPECI KATL 051448Z 07008KT 9SM BKN015 BKN150 26/22 A3007 RMK AO2=
201308051352 METAR KATL 051352Z VRB05KT 9SM BKN010 OVC012 24/21 A3006 RMK AO2 SLP170 T02440206=
201308051252 METAR KATL 051252Z 33005KT 8SM OVC010 23/19 A3006 RMK AO2 SLP168 T02280189=
201308051152 METAR KATL 051152Z 34005KT 8SM BKN011 BKN220 23/19 A3005 RMK AO2 SLP164 T02280189 10228 20217 53010=
201308051149 SPECI KATL 051149Z 36006KT 8SM BKN011 BKN220 23/19 A3005 RMK AO2=
201308051122 SPECI KATL 051122Z VRB04KT 8SM SCT009 BKN220 23/18 A3004 RMK AO2=
201308051052 METAR KATL 051052Z 01004KT 8SM BKN200 22/18 A3002 RMK AO2 SLP156 VIRGA W T02220183=
201308050952 METAR KATL 050952Z 36006KT 10SM SCT200 BKN250 22/18 A3002 RMK AO2 SLP153 T02220183=
201308050852 METAR KATL 050852Z 33007KT 10SM FEW150 BKN250 22/19 A3002 RMK AO2 SLP153 T02170189 56007=
201308050752 METAR KATL 050752Z 34008KT 10SM FEW250 22/19 A3002 RMK AO2 SLP154 T02170189=
201308050652 METAR KATL 050652Z 33008KT 10SM FEW250 22/19 A3002 RMK AO2 SLP154 T02220194=
201308050552 METAR KATL 050552Z 33005KT 10SM FEW250 23/19 A3004 RMK AO2 SLP160 T02280194 10289 20228 58002=
201308050452 METAR KATL 050452Z 33005KT 10SM FEW250 23/19 A3005 RMK AO2 SLP165 T02330194 403220228=
201308050352 METAR KATL 050352Z 33005KT 10SM FEW250 24/19 A3005 RMK AO2 SLP166 T02440194=
201308050252 METAR KATL 050252Z 33008KT 10SM SCT250 25/20 A3004 RMK AO2 SLP162 T02500200 53010=
201308050152 METAR KATL 050152Z 33007KT 10SM SCT220 26/20 A3003 RMK AO2 SLP157 T02610200=
201308050052 METAR KATL 050052Z 32007KT 10SM FEW090 SCT250 27/20 A3002 RMK AO2 SLP156 T02720200=
201308042352 METAR KATL 042352Z 34010KT 10SM FEW034 BKN250 29/20 A3001 RMK AO2 SLP151 TCU DSNT W T02890200 10322 20289 53005=
201308042252 METAR KATL 042252Z 32009KT 10SM FEW042 BKN220 30/21 A2999 RMK AO2 SLP145 T03000206=
201308042152 METAR KATL 042152Z 34011G17KT 10SM FEW046 BKN250 31/20 A2999 RMK AO2 SLP144 TCU DSNT E T03060200=
201308042052 METAR KATL 042052Z 33013KT 10SM FEW045TCU SCT250 32/19 A2999 RMK AO2 SLP145 TCU SW-W T03170194 58016=
201308041952 METAR KATL 041952Z 33012KT 10SM SCT040TCU BKN250 32/20 A3002 RMK AO2 SLP152 TCU S-SW-W T03170200=
201308041852 METAR KATL 041852Z 34011KT 10SM SCT036 BKN250 31/22 A3003 RMK AO2 SLP157 T03060217=
201308041752 METAR KATL 041752Z 30010KT 10SM SCT034 BKN250 30/21 A3004 RMK AO2 SLP162 T03000211 10300 20233 58004=
201308041652 METAR KATL 041652Z 32010G22KT 10SM SCT032 BKN150 BKN250 29/21 A3006 RMK AO2 SLP168 T02890206=
201308041552 METAR KATL 041552Z 28008KT 10SM FEW025 SCT120 BKN250 28/22 A3006 RMK AO2 SLP168 T02780217=
201308041531 SPECI KATL 041531Z 30008KT 10SM SCT022 BKN150 BKN250 28/22 A3006 RMK AO2=
201308041505 SPECI KATL 041505Z 32010KT 10SM BKN021 BKN150 BKN250 27/22 A3006 RMK AO2=
201308041452 METAR KATL 041452Z COR 29011KT 10SM SCT018 BKN150 BKN250 27/22 A3005 RMK AO2 SLP166 T02720217 51001=
201308041352 METAR KATL 041352Z 33009KT 10SM FEW013 BKN150 BKN250 26/22 A3005 RMK AO2 SLP166 T02560217=
201308041252 METAR KATL 041252Z 32009KT 8SM SCT009 SCT110 BKN150 24/22 A3006 RMK AO2 SLP170 T02440222=
201308041152 METAR KATL 041152Z 32008KT 8SM FEW007 BKN110 OVC150 23/22 A3005 RMK AO2 SLP166 BINOVC T02330217 10244 20228 53004=
201308041052 METAR KATL 041052Z 30006KT 8SM BKN120 23/22 A3004 RMK AO2 SLP160 T02330217=
201308040952 METAR KATL 040952Z 29006KT 9SM FEW110 OVC140 23/22 A3003 RMK AO2 SLP158 T02330217=
201308040852 METAR KATL 040852Z COR 28007KT 8SM FEW110 BKN140 23/22 A3004 RMK AO2 SLP160 T02330217 55002=
201308040752 METAR KATL 040752Z 28005KT 8SM FEW090 BKN150 23/22 A3003 RMK AO2 SLP159 T02330217 $=
201308040652 METAR KATL 040652Z 29008KT 9SM FEW095 BKN150 BKN250 24/22 A3004 RMK AO2 SLP162 T02390217=
201308040552 METAR KATL 040552Z 29006KT 8SM FEW095 SCT130 SCT180 BKN250 24/22 A3004 RMK AO2 SLP163 T02390217 10272 20239 58004=
201308040452 METAR KATL 040452Z 28005KT 8SM BKN140 BKN220 24/22 A3006 RMK AO2 SLP166 T02440222 403110211=
201308040352 METAR KATL 040352Z 00000KT 9SM SCT140 BKN220 25/22 A3006 RMK AO2 SLP169 T02500222 $=
201308040252 METAR KATL 040252Z VRB03KT 9SM FEW140 BKN220 26/22 A3006 RMK AO2 SLP167 T02610222 51007=
201308040152 METAR KATL 040152Z 00000KT 9SM BKN180 BKN250 26/22 A3005 RMK AO2 SLP165 T02610222=
201308040052 METAR KATL 040052Z 28003KT 9SM FEW140 BKN180 BKN250 26/22 A3004 RMK AO2 SLP163 T02610222=
201308032352 METAR KATL 032352Z 29007KT 9SM FEW130 BKN180 BKN250 27/21 A3004 RMK AO2 SLP161 T02720211 10311 20272 55003=
201308032252 METAR KATL 032252Z 30008KT 10SM FEW032 SCT110 BKN200 28/21 A3003 RMK AO2 SLP160 T02830206=
201308032152 METAR KATL 032152Z 32007KT 10SM FEW034 OVC200 29/21 A3004 RMK AO2 SLP163 TCU DSNT SW T02940211=
201308032052 METAR KATL 032052Z 30012KT 10SM FEW043 OVC250 30/20 A3004 RMK AO2 SLP162 T03000200 57015=
201308031952 METAR KATL 031952Z 28011KT 10SM SCT043 BKN095 OVC250 29/20 A3006 RMK AO2 SLP169 T02940200=
201308031852 METAR KATL 031852Z COR 30007G15KT 270V330 10SM SCT043 OVC250 31/20 A3007 RMK AO2 SLP171 T03060200=
201308031752 METAR KATL 031752Z 27009KT 10SM SCT038 OVC250 30/19 A3009 RMK AO2 SLP178 T03000194 10300 20239 51001=
201308031652 SPECI KATL 031652Z 30009KT 10SM SCT038 OVC250 30/20 A3009 RMK AO2 SLP178 T03000200=
201308031652 METAR KATL 031652Z 30009KT 10SM SCT038 OVC250 30/20 A3009 RMK AO2 SLP178 T03000200=
201308031552 METAR KATL 031552Z 31008KT 10SM FEW035 OVC250 29/20 A3009 RMK AO2 SLP180 T02940200=
201308031452 METAR KATL 031452Z 29007KT 10SM FEW030 OVC250 28/21 A3009 RMK AO2 SLP176 T02830206 53008=
201308031352 METAR KATL 031352Z 22003KT 10SM BKN250 28/19 A3008 RMK AO2 SLP174 T02780194=
201308031252 METAR KATL 031252Z 00000KT 10SM FEW250 26/21 A3006 RMK AO2 SLP169 T02560206=
201308031152 METAR KATL 031152Z COR 00000KT 10SM FEW150 24/20 A3006 RMK AO2 SLP168 T02390200 10239 20211 53009=
201308031052 METAR KATL 031052Z 00000KT 9SM FEW180 SCT250 22/20 A3004 RMK AO2 SLP160 T02170200=
201308030952 METAR KATL 030952Z 00000KT 10SM FEW250 22/20 A3004 RMK AO2 SLP160 T02220200 $=
201308030852 METAR KATL 030852Z 00000KT 10SM CLR 22/19 A3003 RMK AO2 SLP159 T02220194 58007 $=
201308030752 METAR KATL 030752Z 00000KT 10SM CLR 22/19 A3004 RMK AO2 SLP162 T02220194 $=
201308030652 METAR KATL 030652Z 00000KT 10SM FEW250 23/19 A3004 RMK AO2 SLP163 T02280194 $=
201308030552 METAR KATL 030552Z 00000KT 10SM SCT250 23/19 A3005 RMK AO2 SLP166 T02330194 10289 20233 51001 $=
201308030452 METAR KATL 030452Z 00000KT 10SM BKN250 24/19 A3005 RMK AO2 SLP166 T02440194 403170206 $=
201308030352 METAR KATL 030352Z 00000KT 10SM BKN250 25/19 A3006 RMK AO2 SLP167 T02500194 $=
201308030252 METAR KATL 030252Z 33003KT 10SM BKN250 27/18 A3005 RMK AO2 SLP165 T02670183 51010=
201308030152 METAR KATL 030152Z 34005KT 10SM SCT250 27/19 A3005 RMK AO2 SLP164 T02720189=
201308030052 METAR KATL 030052Z 31005KT 10SM FEW050 SCT250 27/19 A3003 RMK AO2 SLP160 T02720194=
201308022352 METAR KATL 022352Z 29007KT 10SM FEW050 SCT250 29/19 A3002 RMK AO2 SLP156 T02890189 10317 20289 55001=
201308022252 METAR KATL 022252Z 32006KT 10SM FEW050 BKN250 31/19 A3001 RMK AO2 SLP151 T03060189=
201308022152 METAR KATL 022152Z 27006KT 10SM FEW050 BKN250 31/18 A3001 RMK AO2 SLP152 T03110183=
201308022052 METAR KATL 022052Z 30008KT 10SM FEW050 SCT070 BKN220 31/18 A3002 RMK AO2 SLP155 T03060183 57006=
201308021952 METAR KATL 021952Z VRB03KT 10SM FEW050 SCT070 BKN220 31/18 A3003 RMK AO2 SLP157 T03060183=
201308021852 METAR KATL 021852Z VRB05KT 10SM SCT050 BKN220 31/18 A3004 RMK AO2 SLP160 T03110183=
201308021752 METAR KATL 021752Z VRB05KT 10SM SCT045 SCT070 BKN200 31/19 A3004 RMK AO2 SLP162 T03110189 10311 20217 58002=
201308021652 METAR KATL 021652Z 35007KT 10SM FEW040 SCT200 BKN250 30/18 A3005 RMK AO2 SLP164 T03000183=
201308021552 METAR KATL 021552Z 35005KT 10SM FEW035 SCT200 BKN250 29/19 A3005 RMK AO2 SLP165 T02890189=
201308021452 METAR KATL 021452Z 00000KT 10SM FEW150 SCT200 BKN250 27/21 A3005 RMK AO2 SLP164 T02720206 51010=
201308021352 METAR KATL 021352Z 00000KT 9SM FEW150 SCT200 BKN250 25/20 A3004 RMK AO2 SLP162 T02500200=
201308021252 METAR KATL 021252Z 31004KT 7SM BKN250 23/20 A3003 RMK AO2 SLP159 T02280200=
201308021152 METAR KATL 021152Z 33004KT 6SM BR SCT250 22/20 A3002 RMK AO2 SLP156 T02170200 10228 20206 51019=
201308021052 METAR KATL 021052Z 31004KT 7SM SCT250 21/19 A2999 RMK AO2 SLP148 T02060194=
201308020952 METAR KATL 020952Z 32005KT 8SM FEW250 21/20 A2998 RMK AO2 SLP143 T02110200=
201308020852 METAR KATL 020852Z 32005KT 9SM CLR 21/20 A2996 RMK AO2 SLP135 T02110200 55008=
201308020752 METAR KATL 020752Z 32005KT 9SM FEW250 22/20 A2996 RMK AO2 SLP133 T02170200=
201308020652 METAR KATL 020652Z 31004KT 9SM CLR 22/21 A2997 RMK AO2 SLP140 T02220206=
201308020552 METAR KATL 020552Z 31005KT 10SM FEW070 23/21 A2998 RMK AO2 SLP143 T02280206 10267 20228 56000=
201308020452 METAR KATL 020452Z 32003KT 10SM FEW070 24/21 A2998 RMK AO2 SLP143 T02390211 403060217=
201308020352 METAR KATL 020352Z 32007KT 10SM FEW070 24/22 A2998 RMK AO2 SLP140 T02390217=
201308020252 METAR KATL 020252Z 31006KT 10SM FEW070 24/22 A2999 RMK AO2 SLP144 T02440217 51009=
201308020152 METAR KATL 020152Z 32006KT 10SM SCT070 BKN090 26/22 A2998 RMK AO2 SLP142 T02560217=
201308020052 METAR KATL 020052Z 31005KT 10SM SCT065 BKN090 26/21 A2997 RMK AO2 SLP138 TCU DSNT SE-S T02610206=
201308012352 METAR KATL 012352Z 31006KT 10SM FEW035 BKN060 BKN080 BKN250 26/21 A2996 RMK AO2 RAE26 SLP135 TCU DSNT SE-S & W-NW P0000 60000 T02610211 10306 20256 53003=
201308012252 METAR KATL 012252Z 35017G22KT 7SM -RA SCT035CB BKN080 BKN150 BKN250 26/22 A2996 RMK AO2 RAB32 SLP135 VIS LWR NW-NE CB NW-NE MOV SE TCU ALQDS P0000 T02560222=
201308012152 METAR KATL 012152Z 31007KT 10SM SCT035 SCT250 30/21 A2994 RMK AO2 SLP128 CB DSNT NW TCU DSNT N-NE T03000206=
201308012052 METAR KATL 012052Z 32006KT 10SM SCT030TCU SCT250 30/21 A2995 RMK AO2 SLP130 TCU N-NE & DSNT W T03000211 56015=
201308011952 METAR KATL 011952Z 30008KT 10SM FEW030TCU SCT070 30/22 A2997 RMK AO2 SLP136 TCU S T03000217=
201308011852 METAR KATL 011852Z 29006KT 10SM FEW027 BKN070 29/22 A2998 RMK AO2 SLP140 T02890222=
201308011752 METAR KATL 011752Z 33009KT 10SM SCT020TCU BKN035 28/22 A3000 RMK AO2 SLP147 TCU NE & SE T02830222 10283 20222 57008=
201308011706 SPECI KATL 011706Z 30005KT 10SM SCT020 BKN025 BKN035 27/22 A3000 RMK AO2=
201308011652 METAR KATL 011652Z COR 00000KT 10SM SCT015 BKN035 27/22 A3000 RMK AO2 SLP149 T02720222=
201308011631 SPECI KATL 011631Z 00000KT 10SM SCT020 BKN030 BKN040 27/22 A3001 RMK AO2=
201308011552 METAR KATL 011552Z 27004KT 10SM SCT017 BKN020 BKN030 26/22 A3002 RMK AO2 SLP155 T02560217=
201308011520 SPECI KATL 011520Z 23004KT 10SM FEW013 SCT025 BKN030 26/22 A3002 RMK AO2=
201308011452 METAR KATL 011452Z 26005KT 10SM SCT015 BKN023 BKN030 25/22 A3002 RMK AO2 SLP157 T02500217 51007=
201308011352 METAR KATL 011352Z 29006KT 10SM BKN010 BKN015 BKN030 24/21 A3002 RMK AO2 SLP156 T02390211=
201308011339 SPECI KATL 011339Z 29006KT 9SM BKN010 BKN017 24/22 A3002 RMK AO2=
201308011252 METAR KATL 011252Z 23005KT 7SM BKN007 BKN011 23/22 A3000 RMK AO2 SLP151 T02330217=
