##########################################################
# Query made at 04/19/2024 23:34:49 UTC
# Time interval: from 09/01/2013 12:00  to 09/30/2013 12:59  UTC
##########################################################

##########################################################
# KATL, Atlanta, Hartsfield - Jackson Atlanta International Airport (United States)
# WMO index: 72219. WIGOS ID: 0-20000-0-72219
# Latitude 33-38-59N. Longitude 084-25-00W. Altitude 312 m.
##########################################################

201309301252 METAR KATL 301252Z 09005KT 10SM BKN120 BKN180 BKN250 16/13 A3009 RMK AO2 SLP186 T01560128=
201309301152 METAR KATL 301152Z 09005KT 10SM FEW120 SCT150 BKN250 14/12 A3008 RMK AO2 SLP182 T01440122 10161 20139 53011=
201309301052 METAR KATL 301052Z 07003KT 10SM SCT150 BKN200 BKN250 14/12 A3007 RMK AO2 SLP178 T01440122=
201309300952 METAR KATL 300952Z 07005KT 10SM FEW180 SCT250 14/12 A3005 RMK AO2 SLP172 T01390122=
201309300852 METAR KATL 300852Z 07005KT 10SM FEW180 16/12 A3005 RMK AO2 SLP169 T01560122 51001=
201309300752 METAR KATL 300752Z 08006KT 10SM FEW180 16/12 A3004 RMK AO2 SLP167 T01560122=
201309300652 METAR KATL 300652Z 07004KT 10SM FEW180 16/13 A3005 RMK AO2 SLP170 T01610128=
201309300552 METAR KATL 300552Z 08005KT 10SM SCT180 SCT250 17/13 A3004 RMK AO2 SLP167 T01670128 10200 20161 55008=
201309300452 METAR KATL 300452Z 11003KT 10SM FEW180 SCT250 17/13 A3004 RMK AO2 SLP167 T01720128 402440133=
201309300352 METAR KATL 300352Z 12004KT 10SM BKN200 BKN250 18/13 A3006 RMK AO2 SLP171 T01780128=
201309300252 METAR KATL 300252Z 10005KT 10SM BKN200 OVC250 18/13 A3007 RMK AO2 SLP176 T01830128 50002=
201309300152 METAR KATL 300152Z 00000KT 10SM BKN180 BKN250 18/13 A3008 RMK AO2 SLP179 T01830133=
201309300052 METAR KATL 300052Z 09005KT 10SM BKN180 BKN250 19/13 A3007 RMK AO2 SLP177 T01890128=
201309292352 METAR KATL 292352Z 08009KT 10SM FEW046 BKN180 BKN250 20/12 A3006 RMK AO2 SLP176 VIRGA DSNT NE AND SE-S T02000122 10244 20200 53005=
201309292252 METAR KATL 292252Z 08007KT 10SM FEW046 BKN180 BKN250 21/12 A3005 RMK AO2 SLP172 VIRGA DSNT ALQDS T02060117=
201309292152 METAR KATL 292152Z 12007KT 10SM FEW048 BKN180 BKN250 22/11 A3005 RMK AO2 SLP169 VIRGA DSNT E AND W-NW T02220111=
201309292052 METAR KATL 292052Z 08006KT 10SM FEW050 BKN200 BKN250 22/11 A3005 RMK AO2 SLP169 T02220111 56018=
201309291952 METAR KATL 291952Z VRB06KT 10SM SCT049 BKN250 23/11 A3006 RMK AO2 SLP173 T02280111=
201309291852 METAR KATL 291852Z 04005KT 10SM SCT046 BKN200 24/11 A3008 RMK AO2 SLP179 T02390111=
201309291752 METAR KATL 291752Z VRB03KT 10SM SCT043 BKN250 22/11 A3010 RMK AO2 SLP188 T02170106 10228 20144 58020=
201309291652 METAR KATL 291652Z 11005KT 10SM SCT039 SCT250 23/12 A3014 RMK AO2 SLP199 T02280117=
201309291552 METAR KATL 291552Z 06008KT 10SM FEW036 21/11 A3015 RMK AO2 SLP205 T02110111=
201309291452 METAR KATL 291452Z 08008KT 10SM FEW250 20/11 A3016 RMK AO2 SLP209 T02000111 53003=
201309291352 METAR KATL 291352Z 08012KT 10SM BKN250 18/11 A3015 RMK AO2 SLP205 T01780111=
201309291252 METAR KATL 291252Z 08009KT 10SM FEW047 SCT250 16/11 A3016 RMK AO2 SLP208 T01560111=
201309291152 METAR KATL 291152Z 07009KT 10SM SCT047 14/11 A3015 RMK AO2 SLP206 T01440111 10156 20133 53003=
201309291052 METAR KATL 291052Z 06007KT 10SM BKN047 14/11 A3015 RMK AO2 SLP204 T01440111=
201309290952 METAR KATL 290952Z 07007KT 10SM BKN045 14/11 A3014 RMK AO2 SLP200 T01440111=
201309290852 METAR KATL 290852Z 08005KT 10SM FEW043 14/11 A3014 RMK AO2 SLP202 T01390111 56007=
201309290752 METAR KATL 290752Z 09005KT 10SM CLR 14/11 A3015 RMK AO2 SLP202 T01390111=
201309290652 METAR KATL 290652Z 10005KT 10SM FEW250 15/12 A3015 RMK AO2 SLP202 T01500117=
201309290552 METAR KATL 290552Z 09005KT 10SM FEW250 16/12 A3016 RMK AO2 SLP208 T01560122 10200 20150 51004=
201309290452 METAR KATL 290452Z 07007KT 10SM FEW250 17/12 A3016 RMK AO2 SLP208 T01670122 402500144=
201309290352 METAR KATL 290352Z 08006KT 10SM FEW250 16/13 A3016 RMK AO2 SLP207 T01610128=
201309290252 METAR KATL 290252Z 10007KT 10SM FEW200 SCT250 17/12 A3015 RMK AO2 SLP205 T01720122 51005=
201309290152 METAR KATL 290152Z 10005KT 10SM SCT200 BKN250 18/12 A3015 RMK AO2 SLP205 T01780122=
201309290052 METAR KATL 290052Z 10006KT 10SM SCT200 BKN250 18/12 A3014 RMK AO2 SLP203 T01830122=
201309282352 METAR KATL 282352Z 11005KT 10SM SCT200 BKN250 20/12 A3014 RMK AO2 SLP201 T02000117 10250 20200 55004=
201309282252 METAR KATL 282252Z 09008KT 10SM FEW048 SCT200 BKN250 21/12 A3013 RMK AO2 SLP200 T02110117=
201309282152 METAR KATL 282152Z 08012KT 10SM FEW050 SCT200 BKN250 23/12 A3013 RMK AO2 SLP197 T02330117=
201309282052 METAR KATL 282052Z 06012G17KT 10SM FEW048 BKN250 24/11 A3015 RMK AO2 SLP202 T02390111 56017=
201309281952 METAR KATL 281952Z 05010G16KT 10SM FEW045 24/11 A3015 RMK AO2 SLP205 T02440111=
201309281852 METAR KATL 281852Z 06011G14KT 10SM FEW044 SCT250 25/12 A3017 RMK AO2 SLP212 T02500122=
201309281752 METAR KATL 281752Z 08007G14KT 10SM FEW043 BKN250 23/12 A3020 RMK AO2 SLP220 T02280117 10233 20150 58011=
201309281652 METAR KATL 281652Z 11010G16KT 10SM FEW040 SCT250 23/12 A3022 RMK AO2 SLP228 T02280117=
201309281552 METAR KATL 281552Z 08011KT 10SM FEW035 22/12 A3023 RMK AO2 SLP232 T02220122=
201309281452 METAR KATL 281452Z 10009KT 10SM FEW030 21/13 A3023 RMK AO2 SLP232 T02060128 51012=
201309281352 METAR KATL 281352Z 09008KT 10SM FEW250 18/13 A3023 RMK AO2 SLP231 T01830128=
201309281252 METAR KATL 281252Z 08009KT 10SM FEW250 16/13 A3021 RMK AO2 SLP227 T01610128=
201309281152 METAR KATL 281152Z 07007G16KT 10SM FEW250 15/13 A3020 RMK AO2 SLP221 T01500128 10172 20144 53017=
201309281052 METAR KATL 281052Z 07009KT 10SM CLR 14/13 A3017 RMK AO2 SLP211 T01440128=
201309280952 METAR KATL 280952Z 07009KT 10SM CLR 15/13 A3016 RMK AO2 SLP206 T01500128=
201309280852 METAR KATL 280852Z 08007KT 10SM CLR 15/13 A3015 RMK AO2 SLP202 T01500128 55001=
201309280752 METAR KATL 280752Z 09008KT 10SM CLR 16/13 A3014 RMK AO2 SLP201 T01560128=
201309280652 METAR KATL 280652Z 09007KT 10SM FEW250 16/13 A3014 RMK AO2 SLP202 T01610128=
201309280552 METAR KATL 280552Z 08009KT 10SM SCT250 17/13 A3015 RMK AO2 SLP204 T01670133 10222 20167 50003=
201309280452 METAR KATL 280452Z 08007KT 10SM SCT250 17/14 A3015 RMK AO2 SLP204 T01670139 402610167=
201309280352 METAR KATL 280352Z 08006KT 10SM SCT250 17/14 A3015 RMK AO2 SLP203 T01720139=
201309280252 METAR KATL 280252Z 10005KT 10SM SCT250 18/13 A3014 RMK AO2 SLP200 T01830133 51018=
201309280152 METAR KATL 280152Z 10005KT 10SM FEW250 19/13 A3013 RMK AO2 SLP195 T01940133=
201309280052 METAR KATL 280052Z 09007KT 10SM FEW250 20/13 A3010 RMK AO2 SLP187 T02000133=
201309272352 METAR KATL 272352Z 10007KT 10SM FEW250 22/13 A3008 RMK AO2 SLP181 T02170133 10261 20217 53003=
201309272252 METAR KATL 272252Z 09010KT 10SM FEW250 23/13 A3008 RMK AO2 SLP180 T02330128=
201309272152 METAR KATL 272152Z 08005G14KT 10SM CLR 25/12 A3007 RMK AO2 SLP177 T02500122=
201309272052 METAR KATL 272052Z 06009KT 10SM FEW046 26/12 A3007 RMK AO2 SLP176 T02560122 56015=
201309271952 METAR KATL 271952Z 10010G15KT 10SM FEW046 26/13 A3009 RMK AO2 SLP180 T02560128=
201309271852 METAR KATL 271852Z VRB05KT 10SM FEW044 25/13 A3010 RMK AO2 SLP184 T02500128=
201309271752 METAR KATL 271752Z 06008KT 10SM FEW042 24/13 A3012 RMK AO2 SLP192 T02440133 10250 20167 58012=
201309271652 METAR KATL 271652Z 04008KT 10SM FEW040 24/12 A3015 RMK AO2 SLP200 T02390122=
201309271552 METAR KATL 271552Z 09007KT 10SM FEW035 23/13 A3016 RMK AO2 SLP204 T02330133=
201309271452 METAR KATL 271452Z 09008KT 10SM CLR 22/12 A3016 RMK AO2 SLP205 T02170122 51018=
201309271352 METAR KATL 271352Z 07011KT 10SM CLR 20/12 A3014 RMK AO2 SLP201 T02000122=
201309271252 METAR KATL 271252Z 07009KT 10SM CLR 18/12 A3012 RMK AO2 SLP195 T01830122=
201309271152 METAR KATL 271152Z 06010KT 10SM FEW070 17/13 A3010 RMK AO2 SLP187 T01670128 10206 20167 53019=
201309271052 METAR KATL 271052Z 06008KT 10SM CLR 17/13 A3008 RMK AO2 SLP180 T01720133=
201309270952 METAR KATL 270952Z 06009KT 10SM FEW070 17/14 A3006 RMK AO2 SLP172 T01720139 $=
201309270852 METAR KATL 270852Z 07010KT 10SM FEW055 SCT070 18/14 A3004 RMK AO2 SLP167 T01830139 51003 $=
201309270752 METAR KATL 270752Z 07007KT 10SM FEW055 BKN070 19/16 A3004 RMK AO2 SLP166 T01890161 $=
201309270652 METAR KATL 270652Z 07006KT 10SM FEW055 BKN070 21/16 A3004 RMK AO2 SLP164 T02060161 $=
201309270552 METAR KATL 270552Z 08004KT 10SM BKN055 OVC070 21/16 A3004 RMK AO2 SLP163 T02060161 10217 20200 51003 $=
201309270452 METAR KATL 270452Z 00000KT 10SM BKN050 BKN070 21/17 A3003 RMK AO2 SLP162 T02060167 402560167 $=
201309270352 METAR KATL 270352Z 00000KT 10SM BKN038 OVC070 21/17 A3003 RMK AO2 SLP162 T02060167=
201309270252 METAR KATL 270252Z 15003KT 10SM FEW035 SCT045 BKN060 20/17 A3003 RMK AO2 SLP161 T02000167 52016=
201309270152 METAR KATL 270152Z 13003KT 10SM BKN037 21/17 A3001 RMK AO2 SLP156 T02060167=
201309270052 METAR KATL 270052Z 12003KT 10SM FEW035 21/17 A2999 RMK AO2 SLP150 T02110167=
201309262352 METAR KATL 262352Z 14004KT 10SM FEW035 22/17 A2998 RMK AO2 SLP144 T02170167 10256 20211 53006=
201309262252 METAR KATL 262252Z 16004KT 10SM FEW035 23/17 A2996 RMK AO2 SLP140 T02280167=
201309262152 METAR KATL 262152Z 00000KT 10SM SCT035 24/17 A2996 RMK AO2 SLP137 T02440167=
201309262052 METAR KATL 262052Z 10006KT 10SM FEW035TCU SCT050 23/16 A2996 RMK AO2 SLP138 TCU NW T02330161 56003=
201309261952 METAR KATL 261952Z 09007KT 050V110 10SM BKN040 24/16 A2996 RMK AO2 SLP139 T02390156=
201309261852 METAR KATL 261852Z VRB03KT 10SM BKN032 24/16 A2996 RMK AO2 SLP138 T02440156=
201309261752 METAR KATL 261752Z 08007KT 10SM BKN030 24/16 A2997 RMK AO2 SLP142 T02390161 10244 20172 56009=
201309261750 SPECI KATL 261750Z 08007KT 10SM BKN030 24/16 A2997 RMK AO2=
201309261710 SPECI KATL 261710Z 08007KT 10SM BKN028 23/16 A2998 RMK AO2=
201309261652 METAR KATL 261652Z 05005KT 10SM SCT027 24/16 A2998 RMK AO2 SLP147 T02390156=
201309261552 METAR KATL 261552Z 11003KT 10SM SCT018 22/16 A3000 RMK AO2 SLP151 T02220161=
201309261452 METAR KATL 261452Z 06003KT 9SM SCT012 20/16 A3000 RMK AO2 SLP153 T02000156 51009=
201309261352 METAR KATL 261352Z 06008KT 6SM HZ BKN010 18/15 A2999 RMK AO2 SLP150 T01830150=
201309261252 METAR KATL 261252Z 07007KT 6SM BR OVC008 17/15 A2997 RMK AO2 SLP145 CIG 007V010 T01720150=
201309261152 METAR KATL 261152Z 02004KT 6SM BR BKN009 BKN015 OVC033 17/16 A2994 RMK AO2 SLP134 CIG 007V011 BINOVC 70036 T01720156 10178 20167 53016=
201309261119 SPECI KATL 261119Z 02005KT 7SM BKN008 BKN014 BKN033 17/16 A2993 RMK AO2 CIG 006V010=
201309261052 METAR KATL 261052Z 02005KT 8SM FEW008 SCT014 BKN033 17/15 A2992 RMK AO2 SLP128 T01670150=
201309260952 METAR KATL 260952Z 05004KT 10SM FEW008 SCT014 BKN032 17/16 A2990 RMK AO2 SLP120 T01720156=
201309260948 SPECI KATL 260948Z 05005KT 10SM SCT008 SCT014 BKN032 17/16 A2990 RMK AO2=
201309260852 METAR KATL 260852Z 06006KT 10SM BKN008 OVC014 17/16 A2989 RMK AO2 SLP117 CIG 006V010 T01720156 50000=
201309260752 METAR KATL 260752Z 05006KT 10SM OVC006 17/16 A2989 RMK AO2 SLP116 CIG 004V009 T01720161=
201309260652 METAR KATL 260652Z 04007KT 10SM BKN006 OVC012 18/16 A2989 RMK AO2 SLP117 CIG 004V008 T01780161=
201309260552 METAR KATL 260552Z 08008KT 10SM BKN007 BKN012 OVC026 17/16 A2989 RMK AO2 RAE0459 SLP116 CIG 005V009 P0000 60000 T01720161 10189 20172 58003=
201309260545 SPECI KATL 260545Z 07009KT 10SM BKN007 BKN012 OVC026 17/16 A2989 RMK AO2 RAE0459 CIG 005V009 P0000=
201309260452 METAR KATL 260452Z 07009KT 10SM -RA SCT007 BKN012 OVC025 17/16 A2990 RMK AO2 RAB48 SLP120 PCPN VRY LGT P0000 T01720161 401940172=
201309260352 METAR KATL 260352Z 08009KT 10SM SCT007 BKN012 OVC020 18/16 A2990 RMK AO2 SLP121 T01780161=
201309260252 METAR KATL 260252Z 06008KT 10SM OVC007 18/16 A2990 RMK AO2 SLP120 T01780161 51010=
201309260152 METAR KATL 260152Z 07009KT 10SM BKN007 BKN012 OVC020 18/17 A2990 RMK AO2 SLP118 T01780167=
201309260052 METAR KATL 260052Z 07008KT 10SM BKN009 OVC022 18/17 A2988 RMK AO2 SLP114 CIG 007V012 T01830167=
201309252352 METAR KATL 252352Z 05011KT 10SM OVC009 18/17 A2987 RMK AO2 SLP110 CIG 007V012 60024 T01830167 10194 20183 51009=
201309252252 METAR KATL 252252Z 05008KT 10SM OVC009 19/17 A2986 RMK AO2 SLP107 CIG 007V013 T01890172=
201309252152 METAR KATL 252152Z 06009KT 9SM BKN009 OVC050 19/17 A2986 RMK AO2 SLP104 CIG 007V012 T01890172=
201309252102 SPECI KATL 252102Z 07009KT 7SM FEW008 BKN010 OVC048 19/17 A2985 RMK AO2=
201309252052 METAR KATL 252052Z 07010KT 7SM BKN008 BKN012 OVC050 19/18 A2984 RMK AO2 RAE03DZB05E09 SLP101 P0000 60024 T01940178 56007=
201309252010 SPECI KATL 252010Z 07009KT 7SM FEW006 BKN010 OVC025 19/18 A2985 RMK AO2 RAE03DZB05E09 P0000=
201309252006 SPECI KATL 252006Z 07008KT 3SM -DZ BR SCT006 BKN025 OVC032 19/18 A2985 RMK AO2 SFC VIS 6 RAE03DZB05 P0000=
201309251952 METAR KATL 251952Z 08009KT 3SM -RA BR BKN006 BKN015 OVC030 19/18 A2985 RMK AO2 SFC VIS 5 SLP101 P0018 T01890178=
201309251917 SPECI KATL 251917Z 05007KT 2SM -RA BR BKN008 BKN015 OVC030 18/17 A2985 RMK AO2 SFC VIS 3 P0009=
201309251854 SPECI KATL 251854Z 08008KT 1 1/2SM R09R/4000VP6000FT -RA BR BKN007 BKN012 OVC015 18/17 A2985 RMK AO2 SFC VIS 2 P0002=
201309251852 METAR KATL 251852Z 07007KT 2 1/2SM R09R/4000VP6000FT -RA BR BKN007 BKN012 OVC015 18/17 A2985 RMK AO2 SFC VIS 3 SLP104 P0006 T01830172=
201309251752 METAR KATL 251752Z 07009KT 4SM -RA BR BKN007 BKN010 OVC012 19/18 A2987 RMK AO2 RAB16 SLP108 P0000 60012 T01890178 10194 20183 58006=
201309251728 SPECI KATL 251728Z 10010KT 5SM -RA BR BKN007 BKN009 OVC012 19/18 A2987 RMK AO2 RAB16 P0000=
201309251652 METAR KATL 251652Z 10012KT 6SM BR BKN006 BKN008 OVC012 19/18 A2988 RMK AO2 DZE19 SLP112 P0000 T01890178=
201309251620 SPECI KATL 251620Z 10012KT 6SM BR FEW005 BKN007 OVC012 19/18 A2988 RMK AO2 DZE19 P0000=
201309251552 METAR KATL 251552Z 09011KT 2SM -DZ BR FEW005 BKN008 OVC010 19/18 A2988 RMK AO2 SFC VIS 4 RAE37DZB46 SLP113 P0004 T01940183=
201309251452 METAR KATL 251452Z 07008KT 1 1/2SM -RA BR BKN005 BKN008 OVC012 19/18 A2989 RMK AO2 SFC VIS 2 DZE34RAB34 SLP114 P0008 60008 T01940183 51006=
201309251435 SPECI KATL 251435Z 08009KT 1 1/2SM R09R/5000VP6000FT RA BR SCT004 BKN006 OVC012 19/18 A2988 RMK AO2 SFC VIS 2 DZE34RAB34 P0005=
201309251433 SPECI KATL 251433Z 08007KT 1 1/2SM R09R/5000VP6000FT -DZ BR SCT004 BKN006 OVC012 19/18 A2989 RMK AO2 SFC VIS 2 P0005=
201309251352 METAR KATL 251352Z 07010KT 1 1/2SM -DZ BR BKN006 BKN012 OVC020 19/18 A2988 RMK AO2 SFC VIS 3 SLP111 P0000 T01940183=
201309251330 SPECI KATL 251330Z 08008KT 1 1/2SM -DZ BR BKN006 BKN010 OVC020 19/18 A2988 RMK AO2 SFC VIS 4 P0000=
201309251252 METAR KATL 251252Z 08007KT 5SM -DZ BR BKN006 OVC018 19/18 A2988 RMK AO2 RAE12DZB12 SLP113 CIG 004V009 PCPN VRY LGT P0000 T01890178=
201309251152 METAR KATL 251152Z COR 09006KT 4SM -RA BR OVC006 18/18 A2987 RMK AO2 RAE22B49DZB22E49 SLP109 CIG 004V008 P0000 60007 70011 T01830178 10183 20183 53005=
201309251052 METAR KATL 251052Z 09007KT 6SM -RA BR OVC006 18/17 A2985 RMK AO2 RAE24B46DZB24E46 SLP102 CIG 004V008 PCPN VRY LGT P0000 T01830172=
201309250952 METAR KATL 250952Z 10004KT 3SM -RA BR BKN006 OVC015 18/18 A2986 RMK AO2 DZE12RAB12 SLP104 CIG 003V009 P0001 T01830178=
201309250852 METAR KATL 250852Z 11005KT 6SM -DZ BR BKN007 OVC017 18/18 A2985 RMK AO2 RAE0757DZB48 SLP103 CIG 005V009 PCPN VRY LGT P0000 60006 T01830178 56010=
201309250752 METAR KATL 250752Z 10007KT 8SM -RA BKN006 OVC019 18/17 A2986 RMK AO2 SLP104 CIG 004V008 PCPN VRY LGT P0002 T01830172=
201309250652 METAR KATL 250652Z 10006KT 8SM -RA BKN007 OVC020 18/17 A2987 RMK AO2 DZE05RAB05 SLP110 CIG 005V009 PCPN VRY LGT P0004 T01830172=
201309250552 METAR KATL 250552Z 10007KT 7SM -DZ BKN008 OVC017 18/17 A2989 RMK AO2 RAE35DZB48 SLP115 CIG 006V009 PCPN VRY LGT P0001 60001 T01830172 10189 20183 56014=
201309250452 METAR KATL 250452Z 10007KT 9SM -RA BKN008 BKN014 OVC020 19/17 A2990 RMK AO2 RAB50 SLP120 CIG 006V010 P0000 T01890172 402170183=
201309250352 METAR KATL 250352Z 09008KT 10SM SCT008 BKN014 OVC020 19/17 A2991 RMK AO2 RAB37E48 SLP122 P0000 T01890172=
201309250338 SPECI KATL 250338Z 08011KT 10SM -RA SCT008 OVC020 19/17 A2991 RMK AO2 RAB37 P0000=
201309250252 METAR KATL 250252Z 08010KT 10SM BKN008 BKN012 OVC025 19/17 A2993 RMK AO2 SLP129 T01890172 58001=
201309250242 SPECI KATL 250242Z 09008KT 10SM BKN008 BKN025 OVC045 19/17 A2993 RMK AO2=
201309250224 SPECI KATL 250224Z 10009KT 10SM FEW008 BKN030 BKN045 OVC200 19/17 A2992 RMK AO2=
201309250152 METAR KATL 250152Z 11011KT 10SM SCT008 BKN026 OVC035 19/17 A2993 RMK AO2 SLP129 T01890167=
201309250125 SPECI KATL 250125Z 10007KT 10SM FEW008 SCT013 OVC022 19/17 A2994 RMK AO2=
201309250052 METAR KATL 250052Z 11007KT 10SM FEW014 OVC024 19/17 A2994 RMK AO2 SLP133 T01890167=
201309242352 METAR KATL 242352Z 09010KT 10SM SCT013 OVC024 19/17 A2993 RMK AO2 SLP131 T01890167 10206 20189 58008=
201309242252 METAR KATL 242252Z 09007KT 10SM SCT013 BKN017 OVC025 20/17 A2996 RMK AO2 SLP138 T02000167=
201309242152 METAR KATL 242152Z 11008KT 10SM BKN015 OVC024 20/17 A2996 RMK AO2 SLP139 T02000167=
201309242052 METAR KATL 242052Z 10009KT 10SM FEW012 BKN016 OVC020 20/17 A2996 RMK AO2 SLP139 T02000167 58018=
201309241957 SPECI KATL 241957Z 12006KT 10SM FEW012 SCT016 OVC022 20/16 A2998 RMK AO2=
201309241952 METAR KATL 241952Z 12008KT 10SM BKN012 BKN016 OVC020 20/16 A2999 RMK AO2 SLP148 T02000161=
201309241852 METAR KATL 241852Z 12009KT 10SM BKN010 BKN014 OVC020 19/17 A2999 RMK AO2 SLP150 T01940167=
201309241752 METAR KATL 241752Z 11009KT 10SM BKN012 BKN015 OVC020 19/16 A3001 RMK AO2 SLP157 60003 T01940161 10200 20183 58009=
201309241652 METAR KATL 241652Z 11012G19KT 10SM BKN009 BKN014 OVC024 19/16 A3003 RMK AO2 SLP163 T01890161=
201309241625 SPECI KATL 241625Z 12010G15KT 10SM BKN009 BKN018 OVC020 19/17 A3004 RMK AO2=
201309241552 METAR KATL 241552Z 11014KT 8SM BKN011 BKN018 OVC020 19/17 A3004 RMK AO2 SLP166 T01890167=
201309241543 SPECI KATL 241543Z 11013KT 8SM BKN011 BKN018 OVC020 19/17 A3004 RMK AO2=
201309241452 METAR KATL 241452Z 09009KT 6SM BR BKN008 BKN011 OVC016 19/17 A3004 RMK AO2 RAE1353DZB1354E43 SLP167 P0000 60003 T01890172 50001 $=
201309241414 SPECI KATL 241414Z 11009KT 6SM -DZ BR BKN008 BKN014 OVC016 18/18 A3004 RMK AO2 RAE1353DZB1354 P0000 $=
201309241355 SPECI KATL 241355Z 11011KT 2 1/2SM -DZ BR SCT006 BKN014 OVC016 18/17 A3005 RMK AO2 SFC VIS 5 RAE53DZB54 P0000 $=
201309241352 METAR KATL 241352Z 11009KT 1 1/2SM -RA BR BKN006 BKN012 OVC016 18/17 A3005 RMK AO2 SFC VIS 3 DZE1259RAB1259 SLP169 P0002 T01830172 $=
201309241339 SPECI KATL 241339Z 11011G16KT 1 1/2SM -RA BR BKN006 BKN008 OVC014 18/17 A3005 RMK AO2 SFC VIS 3 DZE1259RAB1259 P0002 $=
201309241252 METAR KATL 241252Z 10010G15KT 5SM -DZ BR OVC006 18/17 A3005 RMK AO2 DZE13B47RAB13E47 SLP169 CIG 004V009 P0001 T01830172 $=
201309241250 SPECI KATL 241250Z 10010KT 5SM -DZ BR OVC006 18/17 A3005 RMK AO2 DZE13B47RAB13E47 CIG 004V009 P0001 $=
201309241232 SPECI KATL 241232Z 09011KT 2SM -RA BR OVC004 18/18 A3004 RMK AO2 DZE13RAB13 P0001=
201309241209 SPECI KATL 241209Z 11008KT 1 1/2SM -DZ BR OVC004 18/18 A3004 RMK AO2 TWR VIS 2 P0000=
201309241159 SPECI KATL 241159Z 10007KT 2SM -DZ BR OVC004 18/18 A3004 RMK AO2 P0000=
201309241152 METAR KATL 241152Z 10007KT 1SM -DZ BR OVC004 18/18 A3004 RMK AO2 SFC VIS 1 1/4 RAB07E51DZB51 SLP165 P0001 60003 70003 T01830178 10211 20183 52008=
201309241108 SPECI KATL 241108Z 11007KT 1SM -RA BR OVC004 18/18 A3003 RMK AO2 SFC VIS 1 1/2 RAB07 P0000=
201309241052 METAR KATL 241052Z 10008KT 5SM BR BKN005 OVC015 19/18 A3003 RMK AO2 RAE17DZB17E46 SLP161 P0000 T01890178=
201309241047 SPECI KATL 241047Z 11007KT 5SM BR BKN005 OVC015 19/18 A3003 RMK AO2 RAE17DZB17E46 P0000=
201309240952 METAR KATL 240952Z 10008KT 2 1/2SM -RA BR BKN005 BKN015 OVC025 19/18 A3002 RMK AO2 RAE0853B18 SLP159 P0001 T01890178=
201309240852 METAR KATL 240852Z 09008KT 2 1/2SM -RA BR BKN005 OVC011 18/18 A3001 RMK AO2 SLP155 P0001 60001 T01830178 58001=
201309240752 METAR KATL 240752Z 11006KT 2 1/2SM -RA BR BKN008 OVC015 19/18 A3002 RMK AO2 SFC VIS 3 RAB25 SLP156 P0000 T01890178=
201309240750 SPECI KATL 240750Z 11005KT 3SM -RA BR BKN008 OVC015 19/18 A3002 RMK AO2 RAB25 P0000=
201309240656 SPECI KATL 240656Z 11006KT 10SM SCT013 OVC029 21/17 A3002 RMK AO2=
201309240652 METAR KATL 240652Z 13003KT 10SM SCT013 SCT025 OVC032 21/17 A3002 RMK AO2 SLP156 T02060172=
201309240552 METAR KATL 240552Z 12006KT 10SM FEW020 OVC032 21/16 A3002 RMK AO2 SLP156 T02110156 10239 20211 58002=
201309240452 METAR KATL 240452Z 11006KT 10SM OVC038 22/16 A3002 RMK AO2 SLP157 T02170156 402780156=
201309240352 METAR KATL 240352Z 09007KT 10SM OVC042 22/15 A3003 RMK AO2 SLP160 T02170150=
201309240252 METAR KATL 240252Z 09008KT 10SM FEW025 OVC038 22/16 A3002 RMK AO2 SLP158 T02220156 51012=
201309240152 METAR KATL 240152Z 09007KT 10SM FEW030 BKN045 OVC060 23/16 A3002 RMK AO2 SLP157 T02280156=
201309240052 METAR KATL 240052Z 11005KT 10SM FEW030 OVC050 23/16 A3000 RMK AO2 SLP152 T02280156=
201309232352 METAR KATL 232352Z 10007KT 10SM BKN050 BKN065 24/16 A2999 RMK AO2 SLP148 T02390156 10278 20239 53006=
201309232252 METAR KATL 232252Z 09009KT 10SM BKN050 BKN065 24/16 A2998 RMK AO2 SLP145 T02440156=
201309232152 METAR KATL 232152Z 09008KT 10SM BKN050 26/15 A2997 RMK AO2 SLP140 T02560150=
201309232052 METAR KATL 232052Z 08011G14KT 10SM SCT050 27/16 A2997 RMK AO2 SLP139 T02720156 56013=
201309231952 METAR KATL 231952Z 13005KT 10SM SCT047 27/15 A2997 RMK AO2 SLP140 T02670150=
201309231852 METAR KATL 231852Z VRB06KT 10SM SCT044 26/15 A2998 RMK AO2 SLP145 T02610150=
201309231752 METAR KATL 231752Z 09007KT 10SM SCT040 27/16 A3000 RMK AO2 SLP152 T02670156 10267 20172 58002=
201309231652 METAR KATL 231652Z 15007G14KT 10SM SCT040 25/15 A3001 RMK AO2 SLP155 T02500150=
201309231552 METAR KATL 231552Z 12009G16KT 10SM FEW025 24/16 A3002 RMK AO2 SLP157 T02440161=
201309231452 METAR KATL 231452Z 10009KT 10SM FEW020 SCT200 22/16 A3001 RMK AO2 SLP155 T02220161 52006=
201309231352 METAR KATL 231352Z COR 08008KT 10SM FEW050 FEW200 20/15 A3001 RMK AO2 SLP154 T02000150=
201309231252 METAR KATL 231252Z 09007KT 10SM FEW050 18/14 A2999 RMK AO2 SLP150 T01830144=
201309231152 METAR KATL 231152Z 07007KT 10SM FEW049 17/14 A2999 RMK AO2 SLP149 T01670144 10189 20156 53025=
201309231052 METAR KATL 231052Z 08007KT 10SM FEW049 16/14 A2996 RMK AO2 SLP140 T01610139=
201309230952 METAR KATL 230952Z 09004KT 10SM FEW049 17/14 A2993 RMK AO2 SLP128 T01670144=
201309230852 METAR KATL 230852Z 09004KT 10SM SCT049 17/14 A2992 RMK AO2 SLP122 T01670144 53004=
201309230752 METAR KATL 230752Z 07005KT 10SM SCT049 18/15 A2991 RMK AO2 SLP119 T01830150=
201309230652 METAR KATL 230652Z 06005KT 10SM FEW050 18/14 A2991 RMK AO2 SLP118 T01830144=
201309230552 METAR KATL 230552Z 04005KT 10SM FEW050 19/14 A2990 RMK AO2 SLP118 T01890139 10233 20189 51007=
201309230452 METAR KATL 230452Z 02003KT 10SM FEW050 SCT250 19/13 A2990 RMK AO2 SLP117 T01940133 402780150=
201309230352 METAR KATL 230352Z 02005KT 10SM FEW050 SCT250 20/13 A2990 RMK AO2 SLP117 T02000133=
201309230252 METAR KATL 230252Z 01006KT 10SM FEW200 SCT250 21/14 A2988 RMK AO2 SLP111 T02060139 51012=
201309230152 METAR KATL 230152Z 36008KT 10SM FEW050 SCT200 SCT250 22/14 A2987 RMK AO2 SLP110 T02170144=
201309230052 METAR KATL 230052Z 34008KT 10SM SCT050 SCT200 SCT250 23/14 A2986 RMK AO2 SLP105 T02280144=
201309222352 METAR KATL 222352Z 33007KT 10SM SCT050 SCT200 SCT250 23/15 A2985 RMK AO2 SLP100 T02330150 10278 20233 53007=
201309222252 SPECI KATL 222252Z 34008KT 10SM SCT055 SCT200 SCT250 25/14 A2983 RMK AO2 SLP094 T02500144=
201309222252 METAR KATL 222252Z 34008KT 10SM SCT055 SCT200 SCT250 25/14 A2983 RMK AO2 SLP094 T02500144=
201309222152 METAR KATL 222152Z 34006KT 10SM SCT055 SCT200 BKN250 25/13 A2982 RMK AO2 SLP093 T02500133=
201309222052 METAR KATL 222052Z 26007KT 10SM SCT050 BKN250 27/14 A2983 RMK AO2 SLP092 T02720139 56008=
201309221952 METAR KATL 221952Z 27006KT 10SM SCT050 BKN250 27/15 A2983 RMK AO2 SLP093 T02720150=
201309221852 METAR KATL 221852Z VRB04KT 10SM SCT045 28/15 A2984 RMK AO2 SLP094 T02780150=
201309221752 METAR KATL 221752Z 00000KT 10SM SCT042 25/16 A2985 RMK AO2 SLP100 T02500156 10261 20150 58002=
201309221652 METAR KATL 221652Z VRB03KT 10SM SCT027 24/17 A2986 RMK AO2 SLP105 T02440167=
201309221552 METAR KATL 221552Z 00000KT 10SM SCT023 SCT250 23/17 A2986 RMK AO2 SLP104 T02330167=
201309221452 METAR KATL 221452Z 07007KT 10SM FEW022 SCT250 22/16 A2986 RMK AO2 SLP103 T02170161 51012=
201309221352 METAR KATL 221352Z 01005KT 10SM FEW004 SCT250 19/16 A2984 RMK AO2 SLP100 FEW004 NW T01940156=
201309221252 METAR KATL 221252Z 34004KT 10SM FEW004 SCT250 16/14 A2984 RMK AO2 SLP099 T01610144=
201309221214 SPECI KATL 221214Z 33005KT 10SM FEW004 BKN250 16/14 A2983 RMK AO2=
201309221152 METAR KATL 221152Z COR 33004KT 10SM BKN250 15/14 A2982 RMK AO2 SLP092 70172 T01500144 10178 20150 53011=
201309221052 METAR KATL 221052Z 34005KT 10SM SCT250 16/14 A2980 RMK AO2 SLP088 T01560144=
201309220952 METAR KATL 220952Z 33005KT 10SM FEW200 BKN250 16/14 A2979 RMK AO2 SLP083 T01560144=
201309220852 METAR KATL 220852Z 34006KT 10SM FEW200 BKN250 16/15 A2978 RMK AO2 SLP081 T01610150 55003=
201309220752 METAR KATL 220752Z 33007KT 10SM FEW200 BKN250 17/16 A2978 RMK AO2 SLP078 T01670156=
201309220652 METAR KATL 220652Z 33008KT 10SM FEW005 SCT200 OVC250 17/16 A2978 RMK AO2 SLP079 T01720161=
201309220552 METAR KATL 220552Z 32006KT 10SM FEW005 SCT220 OVC250 18/17 A2979 RMK AO2 SLP082 T01780167 10189 20178 51001=
201309220452 METAR KATL 220452Z 32007KT 10SM FEW006 BKN200 OVC250 18/17 A2979 RMK AO2 SLP082 T01830172 402280178=
201309220352 METAR KATL 220352Z 32007KT 10SM FEW006 SCT140 BKN200 OVC250 19/17 A2979 RMK AO2 SLP082 T01890172=
201309220252 METAR KATL 220252Z 31008KT 10SM FEW005 SCT120 BKN200 OVC250 19/18 A2979 RMK AO2 SLP080 T01890178 51005=
201309220152 METAR KATL 220152Z 30008KT 10SM FEW006 SCT110 BKN200 OVC250 19/18 A2979 RMK AO2 SLP080 T01890178=
201309220139 SPECI KATL 220139Z VRB06KT 10SM SCT006 SCT100 BKN200 BKN250 18/18 A2979 RMK AO2=
201309220058 SPECI KATL 220058Z 25004KT 10SM BKN006 BKN110 BKN200 BKN250 18/18 A2978 RMK AO2 CIG 004V008=
201309220052 METAR KATL 220052Z 27004KT 10SM SCT005 SCT110 BKN200 BKN250 18/18 A2978 RMK AO2 SLP078 T01830178=
201309212352 METAR KATL 212352Z 29005KT 10SM SCT006 SCT120 BKN200 OVC250 19/18 A2978 RMK AO2 SLP076 VIRGA NE-SE-SW 60155 T01890178 10222 20189 51004=
201309212252 METAR KATL 212252Z 29006KT 10SM SCT007 SCT024 BKN130 OVC200 19/18 A2977 RMK AO2 RAE2155 SLP075 VIRGA NE-OHD-SW P0000 T01890178=
201309212250 SPECI KATL 212250Z 29007KT 10SM SCT007 SCT024 BKN130 OVC200 19/18 A2977 RMK AO2 RAE2155 VIRGA NE-OHD-SW P0000=
201309212152 METAR KATL 212152Z 30006KT 3SM -RA BKN007 BKN024 BKN120 OVC200 19/18 A2976 RMK AO2 SFC VIS 8 SLP072 CIG 005V010 PCPN VRY LGT P0001 T01940183=
201309212143 SPECI KATL 212143Z 25003KT 3SM -RA SCT008 BKN024 BKN120 OVC200 19/18 A2976 RMK AO2 SFC VIS 10 P0001=
201309212052 METAR KATL 212052Z 30010KT 3SM -RA BR BKN008 BKN040 OVC090 19/19 A2976 RMK AO2 SFC VIS 6 SLP072 BKN008 V SCT P0014 60154 T01940189 56008=
201309212042 SPECI KATL 212042Z 31011KT 3SM -RA BR BKN008 BKN055 OVC090 20/19 A2977 RMK AO2 SFC VIS 8 P0013=
201309212029 SPECI KATL 212029Z 31009KT 3SM -RA FEW008 SCT055 OVC090 21/19 A2977 RMK AO2 SFC VIS 7 P0012=
201309212002 SPECI KATL 212002Z 30011KT 1SM RA BR SCT008 BKN048 OVC090 21/20 A2976 RMK AO2 SFC VIS 2 P0009=
201309211952 METAR KATL 211952Z 30009KT 1SM R09R/4500VP6000FT +RA BR BKN006 OVC009 22/21 A2977 RMK AO2 SLP073 P0025 T02170211=
201309211945 SPECI KATL 211945Z 26011G15KT 2 1/2SM RA BR BKN009 BKN012 OVC050 22/21 A2977 RMK AO2 TWR VIS 4 P0018=
201309211942 SPECI KATL 211942Z 25007KT 3SM RA BR SCT007 BKN012 OVC050 22/21 A2977 RMK AO2 TWR VIS 4 P0017=
201309211929 SPECI KATL 211929Z 26008KT 2 1/2SM RA BR FEW007 BKN010 OVC034 22/21 A2977 RMK AO2 TWR VIS 4 P0014=
201309211906 SPECI KATL 211906Z 25006KT 1 1/2SM R09R/5500VP6000FT +RA BR FEW004 BKN008 OVC015 22/22 A2978 RMK AO2 TWR VIS 4 P0002=
201309211852 METAR KATL 211852Z 25004KT 8SM -RA BKN008 OVC013 22/22 A2978 RMK AO2 SLP076 P0115 T02220217=
201309211850 SPECI KATL 211850Z 26004KT 10SM -RA BKN006 OVC013 22/22 A2978 RMK AO2 P0115=
201309211845 SPECI KATL 211845Z 22006KT 2SM -RA BKN008 OVC016 22/21 A2978 RMK AO2 SFC VIS 7 P0115=
201309211839 SPECI KATL 211839Z 24010KT 1 1/4SM R09R/3500VP6000FT -RA BR OVC010 22/21 A2978 RMK AO2 TWR VIS 1 3/4 VIS 1/4V5 P0115=
201309211827 SPECI KATL 211827Z 25009KT 1/4SM R09R/1800VP6000FT +RA FG SCT006 OVC010 22/21 A2979 RMK AO2 TWR VIS 1 3/4 P0069=
201309211811 SPECI KATL 211811Z 21008KT 1/2SM R09R/3000V5000FT +RA FG BKN006 OVC015 22/21 A2979 RMK AO2 TWR VIS 1 3/4 P0023=
201309211757 SPECI KATL 211757Z 21008KT 1 3/4SM R09R/6000VP6000FT +RA BR BKN008 OVC038 22/21 A2979 RMK AO2 P0002=
201309211752 METAR KATL 211752Z 19010KT 2 1/2SM RA BR SCT008 BKN014 OVC041 22/21 A2979 RMK AO2 VIS 2V4 SLP079 P0012 60017 T02170211 10228 20206 58025=
201309211654 SPECI KATL 211654Z 18009G16KT 6SM -RA BR BKN012 BKN046 OVC100 22/21 A2981 RMK AO2 P0000=
201309211652 METAR KATL 211652Z 19010G16KT 7SM -RA FEW015 BKN050 OVC100 22/21 A2981 RMK AO2 SLP087 P0002 T02220206=
201309211552 METAR KATL 211552Z 18007KT 4SM RA BR SCT023 BKN050 OVC065 22/20 A2984 RMK AO2 SLP097 P0003 T02170200=
201309211452 METAR KATL 211452Z 19008G15KT 10SM -RA FEW040 BKN110 OVC180 23/19 A2986 RMK AO2 RAB07 SLP103 P0000 60000 T02280194 55000=
201309211352 METAR KATL 211352Z 18007KT 10SM FEW040 BKN110 OVC180 22/19 A2986 RMK AO2 RAE28 SLP102 P0000 T02170194=
201309211252 METAR KATL 211252Z COR 19006KT 9SM -RA FEW047 SCT100 BKN120 OVC180 21/19 A2986 RMK AO2 RAE11B48 SLP103 PCPN VRY LGT P0000 T02110189=
201309211152 METAR KATL 211152Z 18005KT 10SM -RA FEW100 BKN130 OVC180 21/18 A2986 RMK AO2 RAB03E21B51 SLP103 PCPN VRY LGT P0000 60000 T02060183 10222 20206 58001=
201309211052 METAR KATL 211052Z 18005KT 10SM FEW035 BKN120 OVC180 21/18 A2987 RMK AO2 SLP104 T02060183=
201309210952 METAR KATL 210952Z 18005KT 10SM FEW035 BKN150 OVC180 21/18 A2987 RMK AO2 SLP103 T02060183=
201309210852 METAR KATL 210852Z 18007KT 10SM FEW035 SCT150 OVC180 21/18 A2987 RMK AO2 SLP103 T02060178 57019=
201309210752 METAR KATL 210752Z 19006KT 10SM BKN250 21/18 A2989 RMK AO2 SLP110 T02060178=
201309210652 METAR KATL 210652Z 19006KT 10SM FEW180 BKN250 21/18 A2991 RMK AO2 SLP117 T02110178=
201309210552 METAR KATL 210552Z 16005KT 10SM FEW120 BKN180 BKN250 22/18 A2993 RMK AO2 SLP123 T02220178 10261 20217 58012=
201309210452 METAR KATL 210452Z 20005KT 10SM SCT200 BKN250 22/18 A2995 RMK AO2 SLP132 T02220178 403000189=
201309210352 METAR KATL 210352Z 18006KT 10SM FEW150 SCT200 BKN250 22/18 A2996 RMK AO2 SLP136 T02220178=
201309210252 METAR KATL 210252Z 18008KT 10SM BKN150 OVC250 24/18 A2996 RMK AO2 SLP136 T02390178 51006=
201309210152 METAR KATL 210152Z 16009KT 10SM FEW150 BKN200 OVC250 25/18 A2996 RMK AO2 SLP136 T02500178=
201309210052 METAR KATL 210052Z 16007KT 10SM FEW150 BKN200 BKN250 26/18 A2995 RMK AO2 SLP133 T02560178=
201309202352 METAR KATL 202352Z 15005KT 10SM FEW150 SCT200 BKN250 26/17 A2994 RMK AO2 SLP131 T02610172 10300 20256 56004=
201309202252 METAR KATL 202252Z 18006KT 10SM FEW055 SCT200 BKN250 27/17 A2995 RMK AO2 SLP131 T02720172=
201309202152 METAR KATL 202152Z 18006KT 10SM SCT050 BKN250 29/17 A2995 RMK AO2 SLP131 T02940167=
201309202052 METAR KATL 202052Z 15008KT 10SM SCT049 BKN200 30/17 A2996 RMK AO2 SLP134 T03000172 56027=
201309201952 METAR KATL 201952Z 20008KT 10SM SCT047 BKN200 29/17 A2997 RMK AO2 SLP140 T02940167=
201309201852 METAR KATL 201852Z 12004KT 10SM SCT045 SCT200 29/17 A3001 RMK AO2 SLP151 T02940172=
201309201752 METAR KATL 201752Z 19007KT 10SM SCT043 SCT200 29/17 A3004 RMK AO2 SLP162 T02890172 10289 20194 58022=
201309201652 METAR KATL 201652Z 22004KT 10SM FEW030 SCT200 SCT250 28/17 A3007 RMK AO2 SLP174 T02780172=
201309201552 METAR KATL 201552Z 17007KT 130V210 10SM FEW030 SCT200 SCT250 26/18 A3009 RMK AO2 SLP181 T02610178=
201309201452 METAR KATL 201452Z 27006KT 10SM FEW020 SCT200 BKN250 25/18 A3011 RMK AO2 SLP185 T02500183 53001=
201309201352 METAR KATL 201352Z 24005KT 10SM BKN200 BKN250 22/18 A3010 RMK AO2 SLP185 T02220183=
201309201252 METAR KATL 201252Z 22005KT 10SM BKN200 BKN250 21/17 A3010 RMK AO2 SLP185 T02060167=
201309201152 METAR KATL 201152Z 19003KT 10SM BKN200 BKN250 19/15 A3010 RMK AO2 SLP186 T01940150 10211 20189 53004=
201309201052 METAR KATL 201052Z 00000KT 10SM BKN180 BKN250 19/15 A3009 RMK AO2 SLP179 T01940150=
201309200952 METAR KATL 200952Z 20003KT 10SM BKN180 BKN250 19/15 A3009 RMK AO2 SLP181 T01940150=
201309200852 METAR KATL 200852Z 20004KT 10SM SCT200 BKN250 19/16 A3009 RMK AO2 SLP180 T01940156 58004=
201309200752 METAR KATL 200752Z 00000KT 10SM FEW200 SCT250 21/16 A3010 RMK AO2 SLP183 T02060156=
201309200652 METAR KATL 200652Z 00000KT 10SM FEW250 21/16 A3010 RMK AO2 SLP184 T02060156=
201309200552 METAR KATL 200552Z 00000KT 10SM FEW250 21/16 A3010 RMK AO2 SLP185 T02110161 10256 20211 56002=
201309200452 METAR KATL 200452Z 00000KT 10SM FEW250 22/16 A3011 RMK AO2 SLP185 T02170161 402890167=
201309200352 METAR KATL 200352Z 16003KT 10SM CLR 22/17 A3010 RMK AO2 SLP184 T02220167=
201309200252 METAR KATL 200252Z 16005KT 10SM CLR 23/16 A3011 RMK AO2 SLP186 T02280161 51001=
201309200152 METAR KATL 200152Z 17005KT 10SM CLR 23/16 A3011 RMK AO2 SLP187 T02280161=
201309200052 METAR KATL 200052Z 15004KT 10SM FEW050 24/16 A3010 RMK AO2 SLP187 T02440161=
201309192352 METAR KATL 192352Z 19003KT 10SM FEW050 26/16 A3010 RMK AO2 SLP187 T02560161 10289 20256 55001=
201309192252 METAR KATL 192252Z 00000KT 10SM FEW045 27/15 A3010 RMK AO2 SLP185 T02720150=
201309192152 METAR KATL 192152Z 22004KT 10SM FEW045 28/15 A3010 RMK AO2 SLP186 T02780150=
201309192052 METAR KATL 192052Z 24005KT 10SM FEW045 28/16 A3011 RMK AO2 SLP187 T02830156 56020=
201309191952 METAR KATL 191952Z 00000KT 10SM FEW040 28/15 A3012 RMK AO2 SLP190 T02780150=
201309191852 METAR KATL 191852Z 15005KT 10SM FEW040 27/15 A3014 RMK AO2 SLP199 T02720150=
201309191752 METAR KATL 191752Z 00000KT 10SM FEW040 27/16 A3017 RMK AO2 SLP207 T02670156 10272 20172 58011=
201309191652 METAR KATL 191652Z 02004KT 10SM FEW040 SCT200 27/15 A3020 RMK AO2 SLP216 T02670150=
201309191552 METAR KATL 191552Z 11005KT 10SM FEW200 25/14 A3021 RMK AO2 SLP221 T02500144=
201309191452 METAR KATL 191452Z 00000KT 10SM FEW150 23/14 A3020 RMK AO2 SLP219 T02330144 50007=
201309191352 METAR KATL 191352Z 06003KT 10SM FEW150 22/15 A3020 RMK AO2 SLP221 T02170150=
201309191252 METAR KATL 191252Z 09004KT 10SM FEW100 19/15 A3020 RMK AO2 SLP220 T01890150=
201309191152 METAR KATL 191152Z 10003KT 10SM CLR 17/14 A3018 RMK AO2 SLP214 T01720144 10183 20167 53006=
201309191052 METAR KATL 191052Z 07004KT 10SM CLR 17/14 A3016 RMK AO2 SLP207 T01670144=
201309190952 METAR KATL 190952Z 10005KT 10SM CLR 17/15 A3016 RMK AO2 SLP207 T01670150=
201309190852 METAR KATL 190852Z 09005KT 10SM CLR 17/15 A3016 RMK AO2 SLP206 T01720150 58003=
201309190752 METAR KATL 190752Z 08005KT 10SM CLR 17/15 A3017 RMK AO2 SLP208 T01720150=
201309190652 METAR KATL 190652Z 09005KT 10SM CLR 18/16 A3017 RMK AO2 SLP208 T01830156=
201309190552 METAR KATL 190552Z 09006KT 10SM CLR 18/16 A3017 RMK AO2 SLP209 T01830156 10222 20183 58005=
201309190452 METAR KATL 190452Z 11004KT 10SM CLR 20/16 A3018 RMK AO2 SLP214 T02000156 402560183=
201309190352 METAR KATL 190352Z 09004KT 10SM FEW250 19/16 A3018 RMK AO2 SLP216 T01940156=
201309190252 METAR KATL 190252Z 13003KT 10SM FEW250 21/16 A3018 RMK AO2 SLP214 T02060161 51009=
201309190152 METAR KATL 190152Z 14003KT 10SM FEW250 21/16 A3018 RMK AO2 SLP214 T02110156=
201309190052 METAR KATL 190052Z 10006KT 10SM FEW250 22/16 A3017 RMK AO2 SLP210 T02170156=
201309182352 METAR KATL 182352Z 09006KT 10SM FEW035 SCT250 22/16 A3015 RMK AO2 SLP205 T02220161 10256 20222 55005=
201309182252 METAR KATL 182252Z 08009KT 10SM FEW032 SCT250 24/16 A3015 RMK AO2 SLP203 T02390156=
201309182152 METAR KATL 182152Z 09006KT 10SM FEW030 SCT250 24/16 A3016 RMK AO2 SLP205 T02440161=
201309182052 METAR KATL 182052Z COR 09011KT 10SM FEW030 BKN100 BKN200 25/16 A3017 RMK AO2 SLP209 T02500161 56018=
201309181952 METAR KATL 181952Z 09008KT 10SM FEW040 BKN100 BKN200 24/16 A3018 RMK AO2 SLP213 T02440161=
201309181852 METAR KATL 181852Z 09008KT 10SM FEW030 SCT070 BKN090 BKN200 24/16 A3020 RMK AO2 SLP220 T02440156=
201309181752 METAR KATL 181752Z 18004KT 10SM FEW030 SCT050 BKN080 23/15 A3023 RMK AO2 SLP229 T02330150 10239 20189 58011=
201309181652 METAR KATL 181652Z 09007KT 10SM FEW025 BKN050 BKN120 22/15 A3025 RMK AO2 SLP235 T02220150=
201309181552 METAR KATL 181552Z 08009KT 10SM FEW025 BKN048 OVC120 22/15 A3025 RMK AO2 SLP237 T02170150=
201309181452 METAR KATL 181452Z 09010KT 10SM FEW020 BKN050 OVC120 21/15 A3026 RMK AO2 SLP240 T02110150 51012=
201309181352 METAR KATL 181352Z 08013KT 10SM FEW050 SCT120 BKN200 20/14 A3025 RMK AO2 SLP238 T02000144=
201309181252 METAR KATL 181252Z 08011KT 10SM FEW040 BKN110 BKN250 19/14 A3023 RMK AO2 SLP231 T01940144=
201309181152 METAR KATL 181152Z 08011KT 10SM BKN040 OVC100 19/14 A3022 RMK AO2 SLP227 T01890144 10206 20183 53009=
201309181052 METAR KATL 181052Z 08009KT 10SM FEW041 BKN100 19/14 A3021 RMK AO2 SLP223 T01890144=
201309180952 METAR KATL 180952Z 09009KT 10SM BKN041 18/14 A3020 RMK AO2 SLP221 T01830144=
201309180852 METAR KATL 180852Z 08009KT 10SM BKN041 19/14 A3019 RMK AO2 SLP217 T01940144 58003=
201309180752 METAR KATL 180752Z 09010KT 10SM OVC037 20/14 A3020 RMK AO2 SLP218 T02000144=
201309180652 METAR KATL 180652Z 09009KT 10SM OVC035 20/14 A3021 RMK AO2 SLP221 T02000144=
201309180552 METAR KATL 180552Z 09012KT 10SM BKN035 OVC100 20/14 A3020 RMK AO2 SLP220 T02000144 10228 20200 56004=
201309180452 METAR KATL 180452Z 09009KT 10SM FEW035 SCT050 BKN100 20/14 A3021 RMK AO2 SLP222 T02000144 402610200=
201309180352 METAR KATL 180352Z 09011KT 10SM FEW042 SCT050 BKN100 21/15 A3021 RMK AO2 SLP223 T02060150=
201309180252 METAR KATL 180252Z 09011KT 10SM BKN038 OVC050 21/15 A3022 RMK AO2 SLP225 T02110150 53014=
201309180152 METAR KATL 180152Z 08013KT 10SM BKN036 BKN100 21/15 A3020 RMK AO2 SLP221 T02110150=
201309180052 METAR KATL 180052Z 08012KT 10SM OVC030 22/16 A3019 RMK AO2 SLP215 T02220156=
201309180039 SPECI KATL 180039Z 08014KT 10SM OVC030 22/16 A3018 RMK AO2=
201309172352 METAR KATL 172352Z 09011G17KT 10SM OVC028 23/16 A3017 RMK AO2 SLP211 T02280161 10261 20228 53002=
201309172252 METAR KATL 172252Z 09012KT 10SM OVC032 23/16 A3017 RMK AO2 SLP208 BINOVC T02330161=
201309172152 METAR KATL 172152Z 09009KT 10SM OVC030 24/17 A3016 RMK AO2 SLP206 BINOVC T02390167=
201309172052 METAR KATL 172052Z 09010KT 10SM BKN027 BKN030 BKN250 24/17 A3017 RMK AO2 SLP208 T02440167 56016=
201309171952 METAR KATL 171952Z 11009G16KT 10SM BKN027 BKN034 BKN250 24/17 A3018 RMK AO2 SLP210 T02440167=
201309171852 METAR KATL 171852Z 10010KT 10SM FEW027 SCT033 SCT250 25/17 A3019 RMK AO2 SLP215 T02500172=
201309171844 SPECI KATL 171844Z 08013G18KT 10SM FEW025 SCT035 SCT250 26/17 A3020 RMK AO2=
201309171752 METAR KATL 171752Z 08011KT 10SM BKN022 BKN025 25/17 A3022 RMK AO2 SLP223 T02500172 10250 20206 58007=
201309171652 METAR KATL 171652Z 08013KT 10SM BKN020 OVC030 23/17 A3023 RMK AO2 SLP228 BINOVC T02330167 $=
201309171552 METAR KATL 171552Z 08017G21KT 10SM BKN020 BKN030 OVC150 22/17 A3024 RMK AO2 SLP233 T02220167 $=
201309171459 SPECI KATL 171459Z 09014KT 10SM SCT020 BKN030 BKN150 22/17 A3024 RMK AO2 $=
201309171452 SPECI KATL 171452Z 09015KT 10SM BKN020 BKN030 BKN150 23/17 A3024 RMK AO2 SLP231 T02280172 51021 $=
201309171452 METAR KATL 171452Z 09015KT 10SM BKN020 BKN030 BKN150 23/17 A3024 RMK AO2 SLP231 T02280172 51021 $=
201309171352 METAR KATL 171352Z 09011KT 10SM FEW018 BKN028 BKN140 22/17 A3022 RMK AO2 SLP224 T02220167=
201309171342 SPECI KATL 171342Z 08014KT 10SM FEW018 BKN026 BKN140 22/17 A3022 RMK AO2=
201309171252 METAR KATL 171252Z 09014KT 10SM FEW041 BKN140 21/17 A3020 RMK AO2 SLP217 T02110167=
201309171152 METAR KATL 171152Z 08011KT 10SM FEW041 SCT140 SCT180 BKN250 21/17 A3018 RMK AO2 SLP210 T02060167 10228 20206 53015=
201309171052 METAR KATL 171052Z 07013KT 10SM SCT140 BKN250 21/17 A3015 RMK AO2 SLP201 T02110167=
201309170952 METAR KATL 170952Z 07013KT 10SM SCT130 BKN250 21/17 A3014 RMK AO2 SLP196 T02110167 $=
201309170852 METAR KATL 170852Z 06012KT 10SM SCT120 SCT250 21/17 A3013 RMK AO2 SLP193 T02110167 53002 $=
201309170752 METAR KATL 170752Z 04007KT 10SM BKN250 22/16 A3012 RMK AO2 SLP190 T02170156 $=
201309170652 METAR KATL 170652Z 04005KT 10SM BKN250 23/16 A3013 RMK AO2 SLP191 T02280156 $=
201309170552 METAR KATL 170552Z 04005KT 10SM BKN250 23/15 A3012 RMK AO2 SLP190 T02280150 10278 20211 50001 $=
201309170452 METAR KATL 170452Z 01003KT 10SM BKN250 23/14 A3013 RMK AO2 SLP191 T02330144 403170211 $=
201309170352 METAR KATL 170352Z 35003KT 10SM BKN250 23/14 A3013 RMK AO2 SLP191 T02330139 $=
201309170252 METAR KATL 170252Z 01005KT 10SM BKN250 25/14 A3012 RMK AO2 SLP189 T02500139 51012 $=
201309170152 METAR KATL 170152Z 36007KT 10SM FEW200 SCT250 26/13 A3012 RMK AO2 SLP189 T02610133 $=
201309170052 METAR KATL 170052Z 01009KT 10SM FEW200 SCT250 27/13 A3010 RMK AO2 SLP184 T02670133=
201309162352 METAR KATL 162352Z 35008KT 10SM FEW200 SCT250 27/16 A3009 RMK AO2 SLP178 T02720156 10317 20272 52002=
201309162252 METAR KATL 162252Z 31007KT 10SM FEW200 BKN250 28/16 A3008 RMK AO2 SLP177 T02830161=
201309162152 METAR KATL 162152Z 32007KT 10SM FEW200 BKN250 30/14 A3008 RMK AO2 SLP175 T03000139=
201309162052 METAR KATL 162052Z 33008KT 270V360 10SM FEW200 BKN250 32/14 A3008 RMK AO2 SLP174 CB DSNT SE-S-SW T03170144 56018=
201309161952 METAR KATL 161952Z 35010KT 10SM FEW060 SCT200 BKN250 31/13 A3009 RMK AO2 SLP178 CB DSNT S T03110133=
201309161852 METAR KATL 161852Z 35007KT 10SM FEW050 SCT200 BKN250 31/17 A3012 RMK AO2 SLP187 T03110167=
201309161752 METAR KATL 161752Z 35007KT 10SM FEW040 SCT200 BKN250 29/18 A3013 RMK AO2 SLP193 T02940178 10311 20222 58010=
201309161652 METAR KATL 161652Z 30003KT 10SM FEW034 SCT200 BKN250 29/18 A3015 RMK AO2 SLP199 T02890183 $=
201309161552 METAR KATL 161552Z 32005KT 10SM FEW024 SCT200 BKN250 28/21 A3017 RMK AO2 SLP204 T02830206=
201309161452 METAR KATL 161452Z 32005KT 10SM FEW025 SCT200 BKN250 27/21 A3017 RMK AO2 SLP205 T02670211 51007=
201309161352 METAR KATL 161352Z VRB03KT 9SM FEW025TCU SCT200 BKN250 26/20 A3016 RMK AO2 SLP204 TCU W T02610200=
201309161252 METAR KATL 161252Z 13003KT 9SM FEW035 SCT150 BKN250 23/19 A3016 RMK AO2 SLP203 T02280194=
201309161152 METAR KATL 161152Z 03007KT 8SM FEW035 BKN250 22/19 A3014 RMK AO2 SLP198 T02220194 10228 20211 53008=
201309161052 METAR KATL 161052Z 09004KT 10SM SCT060 SCT090 BKN250 21/19 A3013 RMK AO2 SLP194 T02110189=
201309160952 METAR KATL 160952Z 07005KT 10SM SCT035 SCT050 BKN250 22/19 A3012 RMK AO2 SLP191 T02170194=
201309160852 METAR KATL 160852Z 04005KT 10SM FEW033 SCT050 SCT080 SCT250 22/19 A3012 RMK AO2 SLP189 T02220194 58005=
201309160752 METAR KATL 160752Z 09003KT 10SM SCT050 SCT250 22/20 A3013 RMK AO2 SLP191 T02220200=
201309160652 METAR KATL 160652Z 07003KT 10SM FEW050 23/20 A3013 RMK AO2 SLP193 T02280200=
201309160552 METAR KATL 160552Z 07003KT 10SM FEW250 23/19 A3013 RMK AO2 SLP195 T02280194 10267 20228 58001=
201309160452 METAR KATL 160452Z 09003KT 10SM FEW250 23/19 A3014 RMK AO2 SLP196 T02280194 402890178=
201309160352 METAR KATL 160352Z 00000KT 10SM FEW065 SCT250 23/19 A3014 RMK AO2 SLP198 T02330194=
201309160252 METAR KATL 160252Z 00000KT 10SM FEW065 SCT200 SCT250 24/20 A3014 RMK AO2 SLP197 T02440200 50006=
201309160152 METAR KATL 160152Z 10005KT 10SM SCT065 SCT200 SCT250 25/19 A3015 RMK AO2 SLP200 T02500194=
201309160052 METAR KATL 160052Z 10005KT 10SM FEW038 SCT065 SCT200 SCT250 26/19 A3013 RMK AO2 SLP195 T02560194=
201309152352 METAR KATL 152352Z 32004KT 10SM FEW040 SCT060 SCT200 SCT250 27/19 A3012 RMK AO2 SLP192 T02670189 10289 20261 53003=
201309152252 METAR KATL 152252Z COR 00000KT 10SM FEW036 FEW065 SCT250 27/18 A3011 RMK AO2 SLP186 T02720183=
201309152152 METAR KATL 152152Z 00000KT 10SM FEW035 BKN065 BKN250 28/18 A3011 RMK AO2 SLP187 T02780183=
201309152052 METAR KATL 152052Z 20003KT 10SM SCT040 BKN065 27/19 A3011 RMK AO2 SLP188 T02720189 56013=
201309151952 METAR KATL 151952Z COR 18005KT 10SM BKN037 OVC052 27/18 A3012 RMK AO2 SLP190 T02720183=
201309151852 METAR KATL 151852Z 13007KT 10SM SCT036 BKN044 27/19 A3013 RMK AO2 SLP195 T02720189=
201309151807 SPECI KATL 151807Z 12007KT 10SM SCT025 BKN040 27/19 A3015 RMK AO2=
201309151752 METAR KATL 151752Z 12005KT 10SM BKN025 27/20 A3015 RMK AO2 SLP201 T02720200 10272 20183 58008=
201309151652 METAR KATL 151652Z 13008KT 10SM BKN021 25/19 A3017 RMK AO2 SLP207 T02500194=
201309151552 METAR KATL 151552Z 11007KT 10SM BKN017 24/19 A3018 RMK AO2 SLP212 T02390189=
201309151543 SPECI KATL 151543Z 10006KT 10SM BKN015 24/19 A3018 RMK AO2=
201309151506 SPECI KATL 151506Z 08007KT 040V100 10SM BKN012 23/18 A3018 RMK AO2=
201309151452 METAR KATL 151452Z 07008KT 10SM SCT012 BKN022 23/18 A3018 RMK AO2 SLP210 T02280183 51008=
201309151352 METAR KATL 151352Z 08007KT 10SM OVC010 21/17 A3017 RMK AO2 SLP210 T02060172=
201309151252 METAR KATL 151252Z 09007KT 8SM BKN008 BKN018 19/17 A3016 RMK AO2 SLP205 T01940167=
201309151152 METAR KATL 151152Z 10007KT 7SM OVC008 18/16 A3015 RMK AO2 SLP203 T01830161 10194 20178 53015=
201309151126 SPECI KATL 151126Z 08007KT 7SM OVC008 18/16 A3014 RMK AO2=
201309151052 METAR KATL 151052Z 08007KT 10SM BKN010 18/16 A3013 RMK AO2 SLP195 T01780156=
201309151030 SPECI KATL 151030Z 08007KT 10SM BKN012 18/16 A3012 RMK AO2=
201309150952 METAR KATL 150952Z 08007KT 10SM FEW015 18/16 A3011 RMK AO2 SLP188 T01780156=
201309150852 METAR KATL 150852Z 07008KT 10SM FEW048 18/15 A3011 RMK AO2 SLP187 T01780150 53004=
201309150752 METAR KATL 150752Z 08007KT 10SM FEW048 18/16 A3010 RMK AO2 SLP183 T01830156=
201309150652 METAR KATL 150652Z 09007KT 10SM SCT049 19/15 A3010 RMK AO2 SLP183 T01890150=
201309150552 METAR KATL 150552Z 10006KT 10SM SCT046 19/15 A3009 RMK AO2 SLP182 T01940150 10244 20189 51006=
201309150452 METAR KATL 150452Z 09007KT 10SM FEW046 SCT250 19/15 A3009 RMK AO2 SLP181 T01940150 402780144=
201309150352 METAR KATL 150352Z 09009KT 10SM FEW050 SCT250 21/15 A3008 RMK AO2 SLP179 T02060150=
201309150252 METAR KATL 150252Z 07010KT 10SM SCT050 SCT250 22/14 A3007 RMK AO2 SLP176 T02170144 51018=
201309150152 METAR KATL 150152Z 08009KT 10SM FEW055 SCT250 22/14 A3006 RMK AO2 SLP171 T02220144=
201309150052 METAR KATL 150052Z 07010KT 10SM FEW055 SCT200 SCT250 23/13 A3004 RMK AO2 SLP165 T02330133=
201309142352 METAR KATL 142352Z 08008KT 10SM FEW060 SCT200 SCT250 24/13 A3002 RMK AO2 SLP159 T02440128 10278 20244 53007=
201309142252 METAR KATL 142252Z COR 08009KT 10SM FEW065 FEW200 FEW250 26/12 A3001 RMK AO2 SLP156 T02610117=
201309142152 METAR KATL 142152Z COR 12006KT 10SM FEW065 FEW200 FEW250 27/11 A3000 RMK AO2 SLP152 T02670111=
201309142052 METAR KATL 142052Z 08004KT 10SM FEW060 SCT250 27/12 A3000 RMK AO2 SLP150 T02670117 55006=
201309141952 METAR KATL 141952Z 10007KT 070V150 10SM FEW060 SCT250 28/13 A2999 RMK AO2 SLP150 T02780128=
201309141852 METAR KATL 141852Z 02005KT 10SM FEW050 27/12 A3000 RMK AO2 SLP153 T02670122=
201309141752 METAR KATL 141752Z 06006KT 10SM CLR 26/12 A3001 RMK AO2 SLP157 T02560117 10256 20156 58005=
201309141652 METAR KATL 141652Z 08007G14KT 10SM CLR 24/11 A3003 RMK AO2 SLP161 T02390111=
201309141552 METAR KATL 141552Z 08010G15KT 10SM CLR 23/11 A3003 RMK AO2 SLP163 T02280106=
201309141452 METAR KATL 141452Z 08013KT 10SM CLR 22/11 A3003 RMK AO2 SLP161 T02220106 51015=
201309141352 METAR KATL 141352Z 08015G20KT 10SM CLR 19/10 A3001 RMK AO2 SLP156 T01940100=
201309141252 METAR KATL 141252Z 07008KT 10SM CLR 18/11 A3000 RMK AO2 SLP153 T01780111 $=
201309141152 METAR KATL 141152Z 36003KT 10SM CLR 16/12 A2999 RMK AO2 SLP148 T01560117 10178 20144 53017 $=
201309141052 METAR KATL 141052Z 33005KT 10SM CLR 14/11 A2996 RMK AO2 SLP139 T01440111 $=
201309140952 METAR KATL 140952Z 33006KT 10SM CLR 15/12 A2994 RMK AO2 SLP130 T01500117 $=
201309140852 METAR KATL 140852Z 33005KT 10SM CLR 15/12 A2993 RMK AO2 SLP128 T01500117 50004 $=
201309140752 METAR KATL 140752Z 32004KT 10SM CLR 16/12 A2994 RMK AO2 SLP129 T01560117 $=
201309140652 METAR KATL 140652Z 34006KT 10SM CLR 17/12 A2993 RMK AO2 SLP125 T01670117 $=
201309140552 METAR KATL 140552Z 34008KT 10SM CLR 18/12 A2992 RMK AO2 SLP123 T01780122 10256 20178 50001 $=
201309140452 METAR KATL 140452Z 34007KT 10SM CLR 19/12 A2992 RMK AO2 SLP124 T01890122 403060189 $=
201309140352 METAR KATL 140352Z 34006KT 10SM SCT250 20/12 A2992 RMK AO2 SLP123 T02000122 $=
201309140252 METAR KATL 140252Z 34007KT 10SM SCT250 21/13 A2992 RMK AO2 SLP122 T02110128 51017 $=
201309140152 METAR KATL 140152Z 34007KT 10SM FEW250 23/13 A2991 RMK AO2 SLP118 T02280133=
201309140052 METAR KATL 140052Z 35007KT 10SM FEW060 SCT250 24/14 A2989 RMK AO2 SLP112 T02390144=
201309132352 METAR KATL 132352Z 36011KT 10SM FEW060 SCT250 26/16 A2987 RMK AO2 SLP105 T02560156 10306 20256 53005=
201309132252 METAR KATL 132252Z 31015G19KT 10SM SCT055 BKN250 28/15 A2985 RMK AO2 SLP097 T02780150=
201309132152 METAR KATL 132152Z COR 28010KT 10SM SCT055 BKN250 29/16 A2984 RMK AO2 SLP095 T02940156=
201309132052 METAR KATL 132052Z 32011KT 10SM FEW055 SCT250 30/16 A2985 RMK AO2 SLP097 T03000156 56016=
201309131952 METAR KATL 131952Z 29010KT 10SM FEW050 SCT250 31/16 A2986 RMK AO2 SLP101 T03060156=
201309131852 METAR KATL 131852Z 35011G15KT 10SM FEW050 BKN250 31/15 A2988 RMK AO2 SLP108 T03060150=
201309131752 METAR KATL 131752Z 33008KT 10SM FEW050 SCT200 BKN250 30/16 A2990 RMK AO2 SLP114 T03000161 10300 20217 58009=
201309131652 METAR KATL 131652Z 31010KT 10SM FEW045 BKN200 BKN250 28/16 A2992 RMK AO2 SLP119 T02830161=
201309131552 METAR KATL 131552Z 33012KT 10SM FEW200 BKN250 29/17 A2993 RMK AO2 SLP124 T02890167=
201309131452 METAR KATL 131452Z 32009KT 10SM SCT200 BKN250 27/19 A2993 RMK AO2 SLP124 T02670189 53004=
201309131352 METAR KATL 131352Z 33012KT 10SM FEW150 SCT200 BKN250 25/19 A2992 RMK AO2 SLP122 T02500194=
201309131252 METAR KATL 131252Z 33010KT 10SM SCT200 BKN250 23/19 A2992 RMK AO2 SLP120 T02330194=
201309131152 METAR KATL 131152Z 32009KT 10SM FEW150 SCT200 SCT250 22/19 A2992 RMK AO2 SLP121 T02170194 10239 20211 53003=
201309131052 METAR KATL 131052Z 32008KT 10SM FEW250 22/19 A2991 RMK AO2 SLP118 T02170189=
201309130952 METAR KATL 130952Z 30006KT 10SM FEW250 21/19 A2991 RMK AO2 SLP116 T02110189=
201309130852 METAR KATL 130852Z 31008KT 10SM FEW075 SCT150 SCT250 22/19 A2991 RMK AO2 SLP116 T02170189 55008=
201309130752 METAR KATL 130752Z 28004KT 10SM FEW080 SCT150 SCT200 SCT250 22/18 A2990 RMK AO2 SLP114 T02220178=
201309130652 METAR KATL 130652Z 32008KT 10SM FEW075 SCT150 SCT200 BKN250 23/18 A2992 RMK AO2 SLP119 T02280183=
201309130552 METAR KATL 130552Z 32007KT 10SM FEW080 BKN150 BKN200 OVC250 24/19 A2993 RMK AO2 SLP123 T02390189 10278 20239 58014=
201309130452 METAR KATL 130452Z 31010KT 10SM OVC250 24/19 A2995 RMK AO2 SLP130 T02440194 403220206=
201309130352 METAR KATL 130352Z 30009KT 10SM FEW085 OVC250 25/19 A2996 RMK AO2 SLP136 T02500194=
201309130252 METAR KATL 130252Z 28007KT 10SM BKN085 26/19 A2997 RMK AO2 SLP139 T02560194 52008=
201309130152 METAR KATL 130152Z 28004KT 10SM BKN250 26/19 A2997 RMK AO2 SLP137 T02560194=
201309130052 METAR KATL 130052Z 27006KT 10SM BKN250 27/20 A2996 RMK AO2 SLP133 T02670200=
201309122352 METAR KATL 122352Z 27004KT 10SM FEW120 BKN250 27/19 A2995 RMK AO2 SLP132 CB DSNT E T02720194 10322 20272 56007=
201309122252 METAR KATL 122252Z 28006KT 10SM FEW120 BKN250 29/19 A2995 RMK AO2 SLP131 T02890189=
201309122152 METAR KATL 122152Z 26007KT 10SM FEW050 SCT100 BKN250 31/18 A2995 RMK AO2 SLP132 T03060183=
201309122052 METAR KATL 122052Z 27008KT 10SM FEW045CB SCT050TCU BKN250 31/19 A2997 RMK AO2 SLP137 CB E MOV SE TCU N & SE SHRA VC E T03110189 56028=
201309121952 METAR KATL 121952Z 31007KT 10SM FEW050TCU SCT200 BKN250 32/19 A3000 RMK AO2 SLP146 CB DSNT NE TCU SE TCU DSNT N-NE T03170189=
201309121852 METAR KATL 121852Z 34010KT 10SM SCT055TCU SCT250 32/18 A3002 RMK AO2 SLP153 TCU N-NE & SE-S T03170183=
201309121752 METAR KATL 121752Z 28008KT 10SM FEW045 SCT250 31/19 A3005 RMK AO2 SLP166 T03110189 10311 20217 58015=
201309121652 METAR KATL 121652Z 33008KT 10SM FEW045 SCT250 30/18 A3008 RMK AO2 SLP174 T03000178 $=
201309121552 METAR KATL 121552Z 30008KT 10SM FEW250 29/18 A3010 RMK AO2 SLP181 T02890183=
201309121452 METAR KATL 121452Z 27006KT 10SM FEW250 28/19 A3010 RMK AO2 SLP182 T02780194 58002=
201309121352 METAR KATL 121352Z 26008KT 10SM FEW250 25/20 A3011 RMK AO2 SLP186 T02500200=
201309121252 METAR KATL 121252Z COR 27007KT 10SM FEW150 FEW250 24/19 A3011 RMK AO2 SLP187 T02390194=
201309121152 METAR KATL 121152Z COR 25003KT 10SM FEW055 FEW150 FEW200 22/19 A3011 RMK AO2 SLP185 T02170189 10222 20206 53001=
201309121052 METAR KATL 121052Z 22005KT 10SM FEW050 SCT150 SCT200 21/18 A3010 RMK AO2 SLP183 T02110178=
201309120952 METAR KATL 120952Z 24003KT 10SM FEW050 SCT150 21/17 A3010 RMK AO2 SLP182 T02110167=
201309120852 METAR KATL 120852Z 24004KT 10SM FEW050 SCT150 22/17 A3010 RMK AO2 SLP183 T02170167 58003=
201309120752 METAR KATL 120752Z 00000KT 10SM FEW050 SCT150 SCT200 22/17 A3011 RMK AO2 SLP184 T02170172=
201309120652 METAR KATL 120652Z COR 00000KT 10SM FEW150 FEW200 22/18 A3011 RMK AO2 SLP186 T02170178=
201309120552 METAR KATL 120552Z 28003KT 10SM FEW200 22/18 A3011 RMK AO2 SLP186 T02220178 10278 20217 58009=
201309120452 METAR KATL 120452Z 30003KT 10SM CLR 23/18 A3013 RMK AO2 SLP190 T02330178 403170206=
201309120352 METAR KATL 120352Z 29003KT 10SM CLR 23/17 A3014 RMK AO2 SLP194 T02330167=
201309120252 METAR KATL 120252Z 00000KT 10SM CLR 24/17 A3014 RMK AO2 SLP196 T02390167 50003=
201309120152 METAR KATL 120152Z 00000KT 10SM CLR 26/16 A3014 RMK AO2 SLP197 T02560161 $=
201309120052 METAR KATL 120052Z 00000KT 10SM CLR 26/17 A3014 RMK AO2 SLP196 T02610167=
201309112352 METAR KATL 112352Z 16003KT 10SM FEW060 28/16 A3013 RMK AO2 SLP194 T02780161 10317 20278 55003=
201309112252 METAR KATL 112252Z 13005KT 10SM FEW060 30/14 A3013 RMK AO2 SLP191 T03000144=
201309112152 METAR KATL 112152Z 15007KT 10SM FEW060 31/16 A3014 RMK AO2 SLP194 T03060156=
201309112052 METAR KATL 112052Z 12006KT 10SM FEW065 31/16 A3014 RMK AO2 SLP196 T03060156 56022=
201309111952 METAR KATL 111952Z 08009KT 10SM SCT065 30/15 A3015 RMK AO2 SLP200 T03000150=
201309111852 METAR KATL 111852Z 11005KT 10SM FEW060 30/16 A3018 RMK AO2 SLP208 T03000156=
201309111752 METAR KATL 111752Z 08009KT 10SM SCT050 30/16 A3021 RMK AO2 SLP219 T03000156 10306 20217 58014=
201309111652 METAR KATL 111652Z 08009G14KT 10SM SCT040 29/17 A3022 RMK AO2 SLP224 T02940172=
201309111552 METAR KATL 111552Z 10007KT 10SM FEW040 29/19 A3024 RMK AO2 SLP230 T02890189=
201309111452 METAR KATL 111452Z 00000KT 10SM FEW035 28/19 A3025 RMK AO2 SLP233 T02780194 50006=
201309111352 METAR KATL 111352Z 09004KT 10SM FEW030 27/19 A3025 RMK AO2 SLP233 T02670194 $=
201309111252 METAR KATL 111252Z 09004KT 9SM CLR 24/19 A3024 RMK AO2 SLP231 T02390194=
201309111152 METAR KATL 111152Z 08003KT 9SM CLR 22/19 A3023 RMK AO2 SLP228 T02220194 10239 20206 53009=
201309111052 METAR KATL 111052Z 00000KT 9SM CLR 22/19 A3022 RMK AO2 SLP223 T02170189=
201309110952 METAR KATL 110952Z 00000KT 10SM CLR 21/19 A3020 RMK AO2 SLP216 T02110189=
201309110852 METAR KATL 110852Z 10004KT 10SM CLR 22/19 A3020 RMK AO2 SLP217 T02220189 55001=
201309110752 METAR KATL 110752Z 00000KT 10SM CLR 23/19 A3020 RMK AO2 SLP216 T02330189=
201309110652 METAR KATL 110652Z 11003KT 10SM CLR 23/19 A3020 RMK AO2 SLP217 T02330194=
201309110552 METAR KATL 110552Z 09003KT 9SM CLR 23/19 A3021 RMK AO2 SLP219 T02330194 10278 20233 58005=
201309110452 METAR KATL 110452Z 09003KT 10SM CLR 24/19 A3022 RMK AO2 SLP222 T02440189 403170211=
201309110352 METAR KATL 110352Z 00000KT 10SM CLR 24/19 A3023 RMK AO2 SLP225 T02440189=
201309110252 METAR KATL 110252Z 13003KT 10SM CLR 26/19 A3022 RMK AO2 SLP224 T02560189 51014=
201309110152 METAR KATL 110152Z 14003KT 10SM FEW250 26/19 A3022 RMK AO2 SLP222 T02610189=
201309110052 METAR KATL 110052Z 14003KT 10SM SCT250 27/18 A3020 RMK AO2 SLP216 T02670183 $=
201309102352 METAR KATL 102352Z 15004KT 10SM FEW050 SCT080 SCT250 28/18 A3018 RMK AO2 SLP210 T02830183 10317 20283 53004=
201309102252 METAR KATL 102252Z 12008KT 10SM FEW050 SCT080 SCT250 29/17 A3017 RMK AO2 SLP207 T02940172=
201309102152 METAR KATL 102152Z 11008KT 10SM FEW050 SCT080 SCT250 31/18 A3017 RMK AO2 SLP205 CB DSNT W TCU DSNT N T03060178=
201309102052 METAR KATL 102052Z 16008KT 10SM SCT050 31/17 A3017 RMK AO2 SLP205 TCU DSNT NW-N T03060172 56018=
201309101952 METAR KATL 101952Z 14007KT 10SM SCT045TCU 31/19 A3018 RMK AO2 SLP210 TCU ALQDS T03060189=
201309101852 METAR KATL 101852Z 09007KT 10SM SCT042TCU 29/19 A3020 RMK AO2 SLP217 TCU OHD-E & SW-W-NW T02940194=
201309101752 METAR KATL 101752Z 10009KT 10SM SCT035TCU 29/20 A3022 RMK AO2 SLP224 TCU E & S-SW-W T02890200 10300 20217 58005=
201309101652 METAR KATL 101652Z 12008KT 10SM SCT035TCU 29/20 A3023 RMK AO2 SLP226 TCU ALQDS T02890200=
201309101552 METAR KATL 101552Z 11007G18KT 10SM SCT028 28/20 A3024 RMK AO2 SLP230 T02830200=
201309101452 METAR KATL 101452Z 11006KT 10SM FEW030 27/21 A3024 RMK AO2 SLP230 T02670206 51011=
201309101352 METAR KATL 101352Z 14004KT 8SM CLR 25/21 A3023 RMK AO2 SLP228 T02500206=
201309101252 METAR KATL 101252Z VRB03KT 7SM CLR 23/21 A3022 RMK AO2 SLP223 T02330206=
201309101152 METAR KATL 101152Z 09005KT 7SM CLR 22/20 A3021 RMK AO2 SLP219 T02170200 10239 20211 53015=
201309101052 METAR KATL 101052Z 09005KT 7SM CLR 21/19 A3019 RMK AO2 SLP213 T02110194=
201309100952 METAR KATL 100952Z 10004KT 9SM CLR 23/20 A3018 RMK AO2 SLP207 T02280200=
201309100852 METAR KATL 100852Z 12003KT 9SM CLR 23/20 A3016 RMK AO2 SLP203 T02280200 51006=
201309100752 METAR KATL 100752Z 00000KT 9SM CLR 23/20 A3016 RMK AO2 SLP200 T02280200=
201309100652 METAR KATL 100652Z 11005KT 9SM FEW200 23/19 A3015 RMK AO2 SLP200 T02330194=
201309100552 METAR KATL 100552Z 10005KT 10SM FEW250 23/19 A3015 RMK AO2 SLP197 T02280194 10283 20228 53005=
201309100452 METAR KATL 100452Z 10004KT 10SM SCT250 24/19 A3014 RMK AO2 SLP194 T02440189 403220228=
201309100352 METAR KATL 100352Z 11005KT 10SM FEW080 BKN250 26/18 A3013 RMK AO2 SLP191 T02560183=
201309100252 METAR KATL 100252Z 10005KT 10SM BKN250 24/19 A3013 RMK AO2 SLP191 T02440189 53017=
201309100152 METAR KATL 100152Z 12007KT 10SM BKN250 26/18 A3011 RMK AO2 SLP187 T02560183 $=
201309100052 METAR KATL 100052Z 11004KT 10SM FEW100 BKN250 27/18 A3009 RMK AO2 SLP178 T02720183=
201309092352 METAR KATL 092352Z 11005KT 10SM FEW055 SCT100 BKN250 28/18 A3008 RMK AO2 SLP175 T02830183 10322 20283 53000=
201309092252 METAR KATL 092252Z 12007KT 10SM FEW055 SCT100 BKN250 30/17 A3007 RMK AO2 SLP170 T03000172=
201309092152 METAR KATL 092152Z 09007KT 10SM FEW055 SCT100 31/18 A3006 RMK AO2 SLP169 CB DSNT SW T03060183=
201309092052 METAR KATL 092052Z 09010KT 10SM FEW050 SCT100 31/19 A3008 RMK AO2 SLP172 TCU DSNT NE & SE T03110189 56009=
201309091952 METAR KATL 091952Z 09010KT 10SM SCT048TCU SCT100 32/19 A3008 RMK AO2 SLP173 TCU NE & SE & S & W T03170189=
201309091852 METAR KATL 091852Z 10008KT 10SM SCT045TCU SCT095 30/19 A3009 RMK AO2 SLP177 TCU NE-E-SE-S-SW-W T03000189=
201309091752 METAR KATL 091752Z 10005KT 10SM BKN045TCU 31/19 A3010 RMK AO2 SLP182 TCU OHD & ALQDS T03060189 10311 20228 58001=
201309091652 METAR KATL 091652Z 18005KT 10SM FEW045 SCT200 SCT250 30/19 A3011 RMK AO2 SLP185 T03000189=
201309091552 METAR KATL 091552Z 11007KT 10SM FEW045 SCT200 BKN250 29/19 A3011 RMK AO2 SLP186 T02940189=
201309091452 METAR KATL 091452Z 15006KT 10SM BKN250 27/19 A3010 RMK AO2 SLP183 T02720194 52014=
201309091352 METAR KATL 091352Z 12006KT 9SM BKN250 26/20 A3009 RMK AO2 SLP179 T02560200=
201309091252 METAR KATL 091252Z 06007KT 8SM FEW150 SCT250 24/20 A3008 RMK AO2 SLP175 T02390200=
201309091152 METAR KATL 091152Z 05006KT 7SM SCT250 23/20 A3006 RMK AO2 SLP170 T02280200 10244 20228 53011=
201309091052 METAR KATL 091052Z 04008KT 9SM FEW100 23/20 A3005 RMK AO2 SLP165 T02330200=
201309090952 METAR KATL 090952Z 00000KT 9SM CLR 23/20 A3004 RMK AO2 SLP161 T02330200 $=
201309090852 METAR KATL 090852Z VRB04KT 8SM CLR 24/21 A3003 RMK AO2 SLP157 T02440206 51002 $=
201309090752 METAR KATL 090752Z 35005KT 8SM FEW042 24/21 A3003 RMK AO2 SLP155 T02440206 $=
201309090652 METAR KATL 090652Z 32006KT 8SM FEW042 23/21 A3003 RMK AO2 SLP157 T02330206 $=
201309090552 METAR KATL 090552Z 30005KT 9SM FEW042 24/21 A3002 RMK AO2 SLP155 T02440206 10272 20244 51003 $=
201309090452 METAR KATL 090452Z 31004KT 9SM SCT042 24/21 A3002 RMK AO2 SLP155 T02440206 403280200 $=
201309090352 METAR KATL 090352Z 31005KT 9SM FEW041 SCT055 25/20 A3002 RMK AO2 SLP154 T02500200 $=
201309090252 METAR KATL 090252Z 32006KT 9SM FEW100 26/20 A3001 RMK AO2 SLP152 T02560200 53012 $=
201309090152 METAR KATL 090152Z 30006KT 9SM FEW110 26/20 A3000 RMK AO2 SLP148 T02560200 $=
201309090052 METAR KATL 090052Z 30004KT 9SM FEW140 26/19 A2998 RMK AO2 SLP141 T02610194 $=
201309082352 METAR KATL 082352Z 31006KT 9SM FEW140 SCT220 27/19 A2998 RMK AO2 SLP141 TCU DSNT W-NW T02720194 10328 20272 51001 $=
201309082252 METAR KATL 082252Z 31007KT 10SM FEW048 SCT120 SCT220 29/19 A2997 RMK AO2 SLP141 CB DSNT SE & W T02890194 $=
201309082152 METAR KATL 082152Z 32008KT 10SM SCT050 SCT250 31/19 A2998 RMK AO2 SLP141 TCU DSNT E & NW T03060189 $=
201309082052 METAR KATL 082052Z 30011G17KT 10SM SCT055 SCT250 32/19 A2997 RMK AO2 SLP138 CB DSNT NE T03170189 56020 $=
201309081952 METAR KATL 081952Z 31008G15KT 10SM FEW050 32/18 A2998 RMK AO2 SLP142 T03220178 $=
201309081852 METAR KATL 081852Z 29010KT 10SM FEW045 32/19 A3000 RMK AO2 SLP148 T03220194 $=
201309081752 METAR KATL 081752Z 31008G14KT 10SM FEW040 SCT055 31/19 A3003 RMK AO2 SLP159 T03110194 10311 20200 57002 $=
201309081652 METAR KATL 081652Z VRB04KT 10SM FEW045 SCT250 30/20 A3003 RMK AO2 SLP159 T03000200 $=
201309081552 METAR KATL 081552Z 34006KT 10SM FEW040 SCT250 29/19 A3004 RMK AO2 SLP160 T02940194 $=
201309081452 METAR KATL 081452Z 30006KT 10SM SCT250 28/19 A3004 RMK AO2 SLP161 T02780194 50000 $=
201309081352 METAR KATL 081352Z 32003KT 10SM BKN250 26/19 A3005 RMK AO2 SLP165 T02560189 $=
201309081252 METAR KATL 081252Z 00000KT 9SM BKN250 24/19 A3004 RMK AO2 SLP163 T02390189 $=
201309081152 METAR KATL 081152Z 00000KT 9SM SCT250 20/18 A3004 RMK AO2 SLP162 T02000178 10228 20200 53010 $=
201309081052 METAR KATL 081052Z 00000KT 10SM FEW250 20/18 A3002 RMK AO2 SLP156 T02000178 $=
201309080952 METAR KATL 080952Z 00000KT 10SM FEW250 21/18 A3001 RMK AO2 SLP152 T02060183 $=
201309080852 METAR KATL 080852Z 30004KT 10SM FEW250 21/19 A3001 RMK AO2 SLP150 T02110189 56011 $=
201309080752 METAR KATL 080752Z 31003KT 10SM FEW250 21/19 A3002 RMK AO2 SLP154 T02110189 $=
201309080652 METAR KATL 080652Z 32003KT 10SM FEW250 22/19 A3002 RMK AO2 SLP157 T02220189 $=
201309080552 METAR KATL 080552Z 31004KT 10SM FEW250 23/19 A3004 RMK AO2 SLP161 T02280189 10272 20211 58005 $=
201309080452 METAR KATL 080452Z COR 00000KT 10SM FEW250 23/19 A3005 RMK AO2 SLP166 T02280189 403110200 $=
201309080352 METAR KATL 080352Z 28003KT 10SM CLR 23/19 A3006 RMK AO2 SLP168 T02280189 $=
201309080252 METAR KATL 080252Z 27003KT 10SM CLR 24/19 A3006 RMK AO2 SLP168 T02390189 50007 $=
201309080152 METAR KATL 080152Z 32004KT 10SM CLR 25/19 A3006 RMK AO2 SLP169 T02500189 $=
201309080052 METAR KATL 080052Z 29003KT 10SM CLR 26/18 A3004 RMK AO2 SLP164 T02610178 $=
201309072352 METAR KATL 072352Z 31005KT 10SM FEW055 27/17 A3004 RMK AO2 SLP162 T02720172 10311 20272 55006 $=
201309072252 METAR KATL 072252Z VRB04KT 10SM SCT055 29/17 A3003 RMK AO2 SLP160 T02940167 $=
201309072152 METAR KATL 072152Z VRB04KT 10SM SCT055 31/17 A3004 RMK AO2 SLP162 T03060167 $=
201309072052 METAR KATL 072052Z VRB03KT 10SM SCT055 SCT250 31/17 A3005 RMK AO2 SLP166 T03110167 56021 $=
201309071952 METAR KATL 071952Z 00000KT 10SM SCT050 SCT070 29/18 A3008 RMK AO2 SLP174 T02940178 $=
201309071852 METAR KATL 071852Z 00000KT 10SM SCT050 BKN250 29/17 A3010 RMK AO2 SLP182 T02890172 $=
201309071752 METAR KATL 071752Z 13004KT 10SM SCT045 BKN250 29/18 A3012 RMK AO2 SLP188 T02890178 10294 20206 58010 $=
201309071652 SPECI KATL 071652Z VRB04KT 10SM FEW040 SCT250 28/17 A3013 RMK AO2 SLP194 T02830172 $=
201309071652 METAR KATL 071652Z VRB04KT 10SM FEW040 SCT250 28/17 A3013 RMK AO2 SLP194 T02830172 $=
201309071552 METAR KATL 071552Z VRB03KT 10SM FEW040 SCT250 27/18 A3015 RMK AO2 SLP198 T02720178 $=
201309071452 METAR KATL 071452Z 08006KT 10SM FEW250 27/18 A3015 RMK AO2 SLP200 T02670178 53008 $=
201309071352 METAR KATL 071352Z 11005KT 10SM FEW065 24/18 A3014 RMK AO2 SLP198 T02440178 $=
201309071252 METAR KATL 071252Z 08005KT 10SM CLR 22/18 A3013 RMK AO2 SLP194 T02220183 $=
201309071152 METAR KATL 071152Z 08004KT 10SM FEW035 SCT050 21/18 A3012 RMK AO2 SLP192 T02060178 10228 20200 53009 $=
201309071052 METAR KATL 071052Z 10004KT 10SM FEW050 20/17 A3011 RMK AO2 SLP188 T02000172 $=
201309070952 METAR KATL 070952Z 12004KT 10SM FEW050 21/18 A3010 RMK AO2 SLP184 T02110178 $=
201309070852 METAR KATL 070852Z 09005KT 10SM FEW050 21/18 A3010 RMK AO2 SLP181 T02060178 56004 $=
201309070752 METAR KATL 070752Z 09005KT 10SM FEW050 21/18 A3010 RMK AO2 SLP183 T02110183=
201309070652 METAR KATL 070652Z 09006KT 10SM CLR 21/18 A3010 RMK AO2 SLP182 T02110183=
201309070552 METAR KATL 070552Z 07006KT 10SM CLR 23/18 A3011 RMK AO2 SLP184 T02280183 10267 20217 57002=
201309070452 METAR KATL 070452Z 08006KT 10SM CLR 22/18 A3011 RMK AO2 SLP185 T02220183 403110217=
201309070352 METAR KATL 070352Z 09005KT 10SM CLR 23/18 A3011 RMK AO2 SLP188 T02280183=
201309070252 METAR KATL 070252Z COR 10005KT 10SM CLR 24/18 A3011 RMK AO2 SLP188 T02390183 51010=
201309070252 SPECI KATL 070252Z 10005KT 9SM CLR 24/18 A3011 RMK AO2 SLP188 T02390183 51010=
201309070152 METAR KATL 070152Z 10006KT 10SM CLR 24/19 A3012 RMK AO2 SLP189 T02440189=
201309070052 METAR KATL 070052Z 09007KT 10SM CLR 26/19 A3009 RMK AO2 SLP181 T02560189=
201309062352 METAR KATL 062352Z 10007KT 10SM FEW045 27/18 A3008 RMK AO2 SLP177 T02720183 10311 20272 55002=
201309062252 METAR KATL 062252Z 08006KT 10SM FEW045 29/17 A3008 RMK AO2 SLP174 T02890172=
201309062152 METAR KATL 062152Z 08008KT 10SM SCT045 29/17 A3008 RMK AO2 SLP176 T02890172=
201309062052 METAR KATL 062052Z 10005KT 10SM FEW045 30/17 A3009 RMK AO2 SLP178 T03000172 58018=
201309061952 METAR KATL 061952Z VRB05KT 10SM FEW045 30/18 A3011 RMK AO2 SLP185 T03000183=
201309061852 METAR KATL 061852Z VRB05KT 10SM SCT041 SCT250 31/19 A3013 RMK AO2 SLP191 T03060194=
201309061752 METAR KATL 061752Z 05005KT 10SM FEW040 SCT150 SCT250 30/19 A3014 RMK AO2 SLP197 T03000189 10300 20222 58010=
201309061652 METAR KATL 061652Z 12007KT 10SM FEW150 SCT250 29/19 A3016 RMK AO2 SLP203 T02890189=
201309061552 METAR KATL 061552Z 08007KT 10SM FEW150 SCT250 28/18 A3017 RMK AO2 SLP207 T02780183=
201309061452 METAR KATL 061452Z 09008KT 10SM FEW040 SCT150 BKN240 26/17 A3018 RMK AO2 SLP209 T02560172 51011=
201309061352 METAR KATL 061352Z 09011KT 10SM FEW040 SCT150 BKN250 24/18 A3016 RMK AO2 SLP205 T02440178=
201309061252 METAR KATL 061252Z 07010KT 10SM FEW038 BKN240 23/18 A3016 RMK AO2 SLP202 T02330183=
201309061152 METAR KATL 061152Z 06008KT 9SM SCT034 SCT250 22/20 A3014 RMK AO2 SLP197 T02220200 10233 20217 53013=
201309061052 METAR KATL 061052Z 02005KT 10SM FEW034 SCT250 23/19 A3012 RMK AO2 SLP190 T02280194=
201309060952 METAR KATL 060952Z 03004KT 10SM FEW060 SCT250 23/19 A3011 RMK AO2 SLP185 T02280194=
201309060852 METAR KATL 060852Z 35003KT 10SM FEW250 22/19 A3010 RMK AO2 SLP184 T02170194 56005=
201309060752 METAR KATL 060752Z 00000KT 10SM CLR 22/19 A3010 RMK AO2 SLP183 T02220194=
201309060652 METAR KATL 060652Z 00000KT 10SM CLR 22/20 A3011 RMK AO2 SLP186 T02220200=
201309060552 METAR KATL 060552Z 32003KT 10SM FEW250 22/20 A3012 RMK AO2 SLP188 T02220200 10272 20222 56006=
201309060452 METAR KATL 060452Z 33004KT 10SM FEW250 23/20 A3012 RMK AO2 SLP188 T02280200 403170206=
201309060352 METAR KATL 060352Z 31004KT 10SM FEW250 23/21 A3013 RMK AO2 SLP194 T02330206=
201309060252 METAR KATL 060252Z 35005KT 10SM FEW250 24/20 A3014 RMK AO2 SLP194 T02440200 51014=
201309060152 METAR KATL 060152Z 32005KT 10SM FEW200 SCT250 25/20 A3012 RMK AO2 SLP189 T02500200=
201309060052 METAR KATL 060052Z COR 32006KT 10SM SCT200 BKN250 26/19 A3011 RMK AO2 SLP187 T02610194=
201309052352 METAR KATL 052352Z 32007KT 10SM SCT200 BKN250 27/19 A3010 RMK AO2 SLP182 T02720189 10317 20272 53002=
201309052252 METAR KATL 052252Z 31007KT 10SM FEW045 BKN200 BKN250 28/18 A3009 RMK AO2 SLP178 T02830178=
201309052152 METAR KATL 052152Z 31009KT 10SM FEW045 BKN200 BKN250 29/18 A3009 RMK AO2 SLP179 T02940178=
201309052052 METAR KATL 052052Z 34005KT 10SM FEW047 BKN200 BKN250 29/18 A3009 RMK AO2 SLP179 T02940178 56015=
201309051952 METAR KATL 051952Z 23005KT 10SM FEW050 BKN200 BKN250 30/19 A3010 RMK AO2 SLP181 T03000189=
201309051852 METAR KATL 051852Z VRB04KT 10SM SCT048 BKN200 BKN250 31/18 A3012 RMK AO2 SLP186 T03060183=
201309051752 METAR KATL 051752Z 29007KT 10SM SCT048 SCT200 BKN250 29/18 A3013 RMK AO2 SLP194 T02940183 10306 20217 58006=
201309051652 METAR KATL 051652Z 32004KT 10SM SCT045 SCT200 BKN250 29/18 A3015 RMK AO2 SLP197 T02940183=
201309051552 METAR KATL 051552Z 31005KT 10SM SCT040 SCT200 BKN250 28/18 A3015 RMK AO2 SLP200 T02780183=
201309051452 METAR KATL 051452Z 34004KT 10SM FEW030 SCT050 BKN250 28/21 A3015 RMK AO2 SLP200 T02830206 51009=
201309051352 METAR KATL 051352Z 33003KT 10SM FEW050 SCT200 SCT250 27/21 A3015 RMK AO2 SLP197 T02670206=
201309051252 METAR KATL 051252Z 35003KT 9SM FEW050 SCT250 24/20 A3014 RMK AO2 SLP196 T02390200=
201309051152 METAR KATL 051152Z 01003KT 9SM FEW045 SCT250 22/19 A3013 RMK AO2 SLP191 T02170194 10250 20206 53013=
201309051052 METAR KATL 051052Z 33004KT 10SM FEW048 SCT250 21/19 A3011 RMK AO2 SLP188 T02110194=
201309050952 METAR KATL 050952Z 35004KT 10SM FEW042 SCT250 22/19 A3010 RMK AO2 SLP180 T02170194=
201309050852 METAR KATL 050852Z 32003KT 10SM FEW048 22/19 A3009 RMK AO2 SLP177 T02170194 55005=
201309050752 METAR KATL 050752Z 35003KT 10SM CLR 24/18 A3008 RMK AO2 SLP176 T02390183=
201309050652 METAR KATL 050652Z 36006KT 10SM FEW055 24/18 A3009 RMK AO2 SLP179 T02440183=
201309050552 METAR KATL 050552Z 35005KT 10SM FEW055 25/18 A3010 RMK AO2 SLP182 T02500183 10283 20233 58005=
201309050452 METAR KATL 050452Z 31005KT 10SM FEW060 SCT250 24/19 A3011 RMK AO2 SLP185 T02390189 403170211=
201309050352 METAR KATL 050352Z 04005KT 10SM FEW060 26/18 A3012 RMK AO2 SLP186 T02610183=
201309050252 METAR KATL 050252Z 33003KT 10SM BKN060 BKN250 26/18 A3012 RMK AO2 SLP187 T02560183 51020=
201309050152 METAR KATL 050152Z VRB05KT 10SM SCT055 BKN200 BKN250 27/18 A3011 RMK AO2 SLP186 T02670178=
201309050052 METAR KATL 050052Z 33005KT 10SM FEW150 SCT250 27/19 A3008 RMK AO2 SLP177 T02670189=
201309042352 METAR KATL 042352Z 33005KT 10SM FEW250 28/19 A3005 RMK AO2 SLP167 T02830189 10317 20283 55001=
201309042252 METAR KATL 042252Z 31005KT 10SM FEW050 30/19 A3005 RMK AO2 SLP163 T03000189=
201309042152 METAR KATL 042152Z VRB05KT 10SM FEW050 SCT250 30/19 A3004 RMK AO2 SLP162 T03000194=
201309042052 METAR KATL 042052Z 31006KT 10SM FEW050 SCT070 SCT250 31/19 A3006 RMK AO2 SLP168 T03110194 58010=
201309041952 METAR KATL 041952Z 30006KT 10SM FEW045 SCT065 SCT250 31/19 A3007 RMK AO2 SLP171 T03110189=
201309041852 METAR KATL 041852Z 29005KT 10SM FEW050 SCT070 SCT250 31/19 A3008 RMK AO2 SLP176 T03060189=
201309041752 METAR KATL 041752Z 30007KT 10SM FEW050 SCT060 BKN250 31/19 A3009 RMK AO2 SLP178 T03110189 10311 20217 58003=
201309041652 METAR KATL 041652Z 31006KT 10SM FEW045 SCT180 BKN250 30/19 A3010 RMK AO2 SLP180 T03000189=
201309041552 METAR KATL 041552Z 31005KT 10SM SCT040 SCT250 29/19 A3010 RMK AO2 SLP182 T02940189=
201309041452 METAR KATL 041452Z 13004KT 10SM FEW030 SCT050 SCT250 28/21 A3010 RMK AO2 SLP181 T02780206 51014 $=
201309041352 METAR KATL 041352Z 00000KT 10SM FEW050 SCT250 27/21 A3009 RMK AO2 SLP177 T02670206 $=
201309041252 METAR KATL 041252Z 32004KT 8SM FEW055 SCT250 24/21 A3007 RMK AO2 SLP173 T02390211=
201309041152 METAR KATL 041152Z 32004KT 8SM FEW055 SCT250 22/20 A3006 RMK AO2 SLP168 T02170200 10239 20211 53016=
201309041052 METAR KATL 041052Z 33004KT 9SM SCT055 22/20 A3003 RMK AO2 SLP157 T02170200=
201309040952 METAR KATL 040952Z 30003KT 10SM SCT055 22/20 A3002 RMK AO2 SLP154 T02170200 $=
201309040852 METAR KATL 040852Z 32003KT 10SM FEW050 22/21 A3001 RMK AO2 SLP150 T02220206 53003 $=
201309040752 METAR KATL 040752Z 31003KT 10SM CLR 22/21 A3000 RMK AO2 SLP147 T02220206 $=
201309040652 METAR KATL 040652Z 00000KT 9SM FEW250 22/21 A3000 RMK AO2 SLP147 T02220206 $=
201309040552 METAR KATL 040552Z 00000KT 9SM CLR 23/21 A3000 RMK AO2 SLP147 T02280206 10283 20228 58002 $=
201309040452 METAR KATL 040452Z 28003KT 10SM CLR 23/21 A3001 RMK AO2 SLP151 T02330211 403220217 $=
201309040352 METAR KATL 040352Z 32006KT 10SM FEW040 24/21 A3001 RMK AO2 SLP150 T02440211 $=
201309040252 METAR KATL 040252Z 29005KT 10SM FEW250 25/21 A3001 RMK AO2 SLP149 T02500211 51019=
201309040152 METAR KATL 040152Z 29003KT 10SM FEW250 26/21 A2999 RMK AO2 SLP143 T02610211=
201309040052 METAR KATL 040052Z 32005KT 10SM FEW250 27/21 A2997 RMK AO2 SLP138 T02720206=
201309032352 METAR KATL 032352Z 30007KT 10SM FEW040 28/21 A2995 RMK AO2 SLP131 TCU DSNT SE T02830206 10322 20283 53010=
201309032252 METAR KATL 032252Z 29008KT 10SM FEW042TCU SCT200 31/21 A2993 RMK AO2 SLP124 TCU OHD-SE & VC NE T03060206=
201309032152 METAR KATL 032152Z 28007KT 10SM SCT045TCU SCT200 31/19 A2992 RMK AO2 SLP121 TCU N-E T03110194=
201309032052 METAR KATL 032052Z 29008KT 10SM FEW045 SCT200 31/20 A2992 RMK AO2 SLP119 CB DSNT E-SE-S-SW TCU DSNT N-NE T03110200 56019=
201309031952 METAR KATL 031952Z 32009G18KT 10SM FEW040 SCT200 32/20 A2992 RMK AO2 SLP120 CB DSNT E-SE-S T03220200=
201309031852 METAR KATL 031852Z VRB06KT 10SM FEW040 SCT200 31/21 A2995 RMK AO2 SLP132 CB DSNT NE-E TCU DSNT NE-E-SE-S T03060211=
201309031752 METAR KATL 031752Z 29009KT 10SM SCT030TCU 31/22 A2997 RMK AO2 RAB28E37 SLP138 TCU ALQDS P0000 60000 T03060217 10306 20228 58004 $=
201309031652 METAR KATL 031652Z 32005KT 10SM SCT025TCU 28/22 A2998 RMK AO2 SLP142 TCU S-NW T02830222 $=
201309031552 METAR KATL 031552Z 32006KT 10SM BKN020 28/22 A2999 RMK AO2 SLP144 T02830222 $=
201309031452 METAR KATL 031452Z 32007KT 10SM FEW020 SCT200 27/22 A2998 RMK AO2 SLP142 T02720222 51005=
201309031352 METAR KATL 031352Z 31007KT 10SM FEW015 SCT200 26/22 A2998 RMK AO2 SLP143 T02560217=
201309031252 METAR KATL 031252Z 32006KT 8SM FEW009 SCT110 SCT150 BKN250 24/21 A2999 RMK AO2 SLP145 T02390211=
201309031249 SPECI KATL 031249Z 33006KT 8SM FEW009 SCT110 SCT150 BKN250 23/21 A2999 RMK AO2=
201309031152 METAR KATL 031152Z 00000KT 8SM FEW110 BKN150 BKN250 23/21 A2997 RMK AO2 SLP138 60000 70031 T02280211 10233 20217 53012=
201309031052 METAR KATL 031052Z 30008KT 10SM SCT026 SCT110 SCT150 BKN250 23/21 A2994 RMK AO2 SLP127 T02280211=
201309030952 METAR KATL 030952Z 27005KT 10SM FEW035 SCT150 BKN200 22/21 A2993 RMK AO2 SLP124 T02220206 $=
201309030852 METAR KATL 030852Z 25003KT 10SM FEW060 SCT250 22/21 A2993 RMK AO2 RAE0757 SLP125 P0000 60000 T02220206 58001 $=
201309030752 METAR KATL 030752Z 28003KT 10SM -RA FEW030 BKN036 BKN070 OVC130 23/21 A2994 RMK AO2 RAB48 SLP127 P0000 T02280206 $=
201309030652 METAR KATL 030652Z 22004KT 10SM SCT065 BKN120 BKN200 22/21 A2994 RMK AO2 SLP129 T02220206 $=
201309030552 METAR KATL 030552Z 28005KT 10SM FEW200 SCT250 23/21 A2993 RMK AO2 SLP127 T02280206 10261 20228 55003 $=
201309030452 METAR KATL 030452Z 24004KT 10SM FEW200 BKN250 23/21 A2993 RMK AO2 SLP125 T02330211 402890211 $=
201309030352 METAR KATL 030352Z 23003KT 10SM SCT200 BKN250 24/21 A2994 RMK AO2 SLP128 T02390211 $=
201309030252 METAR KATL 030252Z 25003KT 10SM FEW150 BKN250 24/21 A2994 RMK AO2 SLP132 T02440206 53006 $=
201309030152 METAR KATL 030152Z 00000KT 10SM FEW150 SCT200 BKN250 24/21 A2994 RMK AO2 SLP129 T02390206 $=
201309030052 METAR KATL 030052Z 00000KT 10SM FEW150 SCT200 BKN250 25/21 A2992 RMK AO2 SLP123 T02500211 $=
201309022352 METAR KATL 022352Z 00000KT 10SM FEW150 SCT200 BKN250 26/21 A2992 RMK AO2 SLP124 T02610206 10289 20244 55000 $=
201309022252 METAR KATL 022252Z 28004KT 10SM FEW150 SCT200 BKN250 28/21 A2992 RMK AO2 SLP122 T02780206 $=
201309022152 METAR KATL 022152Z VRB03KT 10SM FEW070 SCT200 BKN250 28/20 A2992 RMK AO2 SLP122 T02780200 $=
201309022052 METAR KATL 022052Z 26008KT 10SM SCT065 BKN200 28/20 A2993 RMK AO2 SLP123 T02830200 58020 $=
201309021952 METAR KATL 021952Z 33006KT 10SM FEW020 BKN150 BKN200 27/19 A2994 RMK AO2 SLP129 T02720189 $=
201309021852 METAR KATL 021852Z 30007KT 10SM SCT019 BKN140 BKN200 27/19 A2997 RMK AO2 SLP140 T02720194 $=
201309021752 METAR KATL 021752Z 30004KT 10SM SCT014 BKN140 OVC200 24/20 A2999 RMK AO2 SLP145 60031 T02440200 10250 20211 58002 $=
201309021652 METAR KATL 021652Z 32010KT 10SM SCT006 BKN090 OVC200 24/21 A3000 RMK AO2 SLP149 T02390206 $=
201309021642 SPECI KATL 021642Z 30009KT 10SM SCT006 BKN090 OVC200 23/21 A3000 RMK AO2 $=
201309021552 METAR KATL 021552Z 31009KT 10SM BKN006 BKN085 OVC200 22/21 A3001 RMK AO2 RAE05 SLP153 P0000 T02220206 $=
201309021502 SPECI KATL 021502Z 29009KT 10SM -RA BKN005 BKN085 OVC120 21/21 A3000 RMK AO2 P0000 $=
201309021452 METAR KATL 021452Z 31010KT 9SM -RA SCT037 BKN085 OVC110 21/21 A2999 RMK AO2 RAE02B26 SLP147 P0000 60031 T02110206 53003 $=
201309021352 METAR KATL 021352Z 32008KT 10SM -RA FEW037 SCT090 BKN110 OVC200 21/19 A2998 RMK AO2 SLP145 P0003 T02110194=
201309021252 METAR KATL 021252Z 30011KT 5SM RA BR FEW037 SCT090 BKN110 OVC200 21/20 A2998 RMK AO2 TSE14 SLP145 TS DSIPT BINOVC SE P0028 T02110200=
201309021214 SPECI KATL 021214Z 28012KT 4SM -RA BR FEW005 SCT037 BKN095 OVC200 21/20 A2999 RMK AO2 TSE14 TS DSIPT CB DSNT SW P0020=
201309021204 SPECI KATL 021204Z 30006KT 2 1/2SM +TSRA BR FEW005 SCT037CB BKN110 OVC200 21/20 A2998 RMK AO2 FRQ LTGICCACG S TS S MOV E VIS LWR S P0015=
201309021152 METAR KATL 021152Z 28010KT 5SM +TSRA BR FEW005 SCT037CB BKN110 OVC200 22/21 A2998 RMK AO2 SLP143 FRQ LTGICCACG S-SW TS S-SW MOV E VIS LWR S-SW P0017 60017 70021 T02170206 10228 20217 53024=
201309021052 METAR KATL 021052Z 28007KT 6SM -TSRA BR FEW005 SCT037CB BKN100 OVC200 23/21 A2994 RMK AO2 TSB12RAB33 SLP130 OCNL LTGIC W TS W MOV SE P0000 T02280211=
201309021012 SPECI KATL 021012Z 28010KT 7SM TS FEW005 BKN037CB BKN100 BKN200 23/22 A2993 RMK AO2 TSB12 OCNL LTGIC NW TS VC NW MOV SE=
201309020952 METAR KATL 020952Z 26005KT 8SM FEW040 SCT120 SCT200 22/21 A2992 RMK AO2 SLP121 OCNL LTGICCG DSNT NW CB DSNT NW T02220211=
201309020852 METAR KATL 020852Z 22003KT 8SM FEW060 SCT150 22/21 A2991 RMK AO2 SLP119 T02220211 58010=
201309020752 METAR KATL 020752Z 25003KT 8SM SCT150 22/21 A2992 RMK AO2 SLP123 T02220211=
201309020652 METAR KATL 020652Z 22003KT 8SM SCT150 22/21 A2994 RMK AO2 SLP128 T02170211=
201309020552 METAR KATL 020552Z 19004KT 8SM FEW150 22/21 A2994 RMK AO2 SLP126 T02220211 10244 20211 58002=
201309020452 METAR KATL 020452Z 00000KT 7SM BCFG FEW140 22/21 A2994 RMK AO2 SLP127 T02220211 403220217=
201309020352 METAR KATL 020352Z 00000KT 9SM FEW110 SCT250 23/21 A2995 RMK AO2 SLP129 T02280211=
201309020252 METAR KATL 020252Z 24003KT 10SM SCT250 23/21 A2994 RMK AO2 SLP128 T02280206 50012 $=
201309020152 METAR KATL 020152Z COR 21005KT 10SM BKN250 23/21 A2994 RMK AO2 SLP129 T02280211 $=
201309020052 METAR KATL 020052Z 21005KT 10SM FEW180 BKN250 23/22 A2992 RMK AO2 SLP123 T02330217 $=
201309012352 METAR KATL 012352Z 19004KT 10SM SCT180 BKN230 24/22 A2991 RMK AO2 SLP118 60004 T02440222 10322 20228 53000 $=
201309012252 METAR KATL 012252Z 17005KT 10SM FEW140 SCT180 OVC220 25/22 A2990 RMK AO2 SLP116 T02500222 $=
201309012152 METAR KATL 012152Z 24004KT 10SM FEW130 BKN180 OVC220 24/22 A2990 RMK AO2 RAE02 SLP115 P0000 T02440222 $=
201309012052 METAR KATL 012052Z 29007KT 8SM -RA FEW070 BKN100 OVC250 23/21 A2991 RMK AO2 TSE01 SLP118 TS MOV S P0003 60004 T02330211 58009 $=
201309012002 SPECI KATL 012002Z 28010KT 8SM -RA FEW035 BKN120 BKN250 23/21 A2993 RMK AO2 TSE01 TS MOV S P0001 $=
201309011952 METAR KATL 011952Z 31010KT 6SM TSRA FEW035CB BKN100 BKN250 24/21 A2993 RMK AO2 RAB06E20B46 SLP125 OCNL LTGICCG SW-W TS SW-W MOV SE P0001 T02390206 $=
201309011852 METAR KATL 011852Z 33014G20KT 10SM TS SCT037CB BKN055 BKN250 27/19 A2996 RMK AO2 TSB06 SLP133 OCNL LTGICCG NW-NE TS NW-NE MOV SE T02720194 $=
201309011809 SPECI KATL 011809Z 27006KT 9SM TS SCT032CB BKN070 BKN250 32/22 A2993 RMK AO2 TSB06 OCNL LTGICCG NW-NE TS NW-NE MOV SE $=
201309011752 METAR KATL 011752Z 25007KT 8SM SCT032CB BKN070 31/23 A2993 RMK AO2 SLP124 CB NW-N MOV SE T03110228 10311 20233 58012 $=
201309011714 SPECI KATL 011714Z 24009KT 8SM SCT028 BKN065 31/23 A2993 RMK AO2 CB DSNT N $=
201309011652 METAR KATL 011652Z 21008KT 8SM BKN028 BKN070 31/23 A2995 RMK AO2 SLP131 T03060228 $=
201309011611 SPECI KATL 011611Z 23005KT 8SM SCT026 30/23 A2997 RMK AO2 $=
201309011552 METAR KATL 011552Z 24009KT 8SM BKN026 29/23 A2997 RMK AO2 SLP139 T02940233 $=
201309011539 SPECI KATL 011539Z 28007KT 10SM BKN024 29/23 A2997 RMK AO2 $=
201309011452 METAR KATL 011452Z 24006G16KT 10SM SCT020 29/23 A2997 RMK AO2 SLP136 T02890228 53007 $=
201309011352 METAR KATL 011352Z 24008KT 8SM FEW100 SCT250 27/23 A2996 RMK AO2 SLP135 T02720228 $=
201309011252 METAR KATL 011252Z 24007KT 7SM FEW025 SCT250 25/23 A2995 RMK AO2 SLP131 T02500228 $=
