##########################################################
# Query made at 04/19/2024 23:31:38 UTC
# Time interval: from 02/01/2013 12:00  to 02/28/2013 12:59  UTC
##########################################################

##########################################################
# KATL, Atlanta, Hartsfield - Jackson Atlanta International Airport (United States)
# WMO index: 72219. WIGOS ID: 0-20000-0-72219
# Latitude 33-38-59N. Longitude 084-25-00W. Altitude 312 m.
##########################################################

201302281252 METAR KATL 281252Z 26008KT 10SM CLR 03/M01 A2989 RMK AO2 SLP126 T00331011=
201302281152 METAR KATL 281152Z 27006KT 10SM CLR 03/M01 A2987 RMK AO2 SLP119 T00281011 10078 20028 51004=
201302281052 METAR KATL 281052Z 27006KT 10SM CLR 03/M01 A2987 RMK AO2 SLP116 T00281011=
201302280952 METAR KATL 280952Z 29010KT 10SM CLR 04/M01 A2987 RMK AO2 SLP116 T00391006=
201302280852 METAR KATL 280852Z 30011KT 10SM CLR 05/M01 A2986 RMK AO2 SLP113 T00501006 57002=
201302280752 METAR KATL 280752Z 30012KT 10SM FEW050 06/M02 A2986 RMK AO2 SLP113 T00611022=
201302280652 METAR KATL 280652Z 29010KT 10SM FEW050 07/M01 A2987 RMK AO2 SLP114 T00671011=
201302280552 METAR KATL 280552Z 29012G17KT 10SM FEW050 08/01 A2987 RMK AO2 SLP115 T00780011 10128 20078 53003=
201302280452 METAR KATL 280452Z 27011G16KT 10SM SCT070 09/00 A2986 RMK AO2 SLP111 T00890000 401560050=
201302280352 METAR KATL 280352Z 26007KT 10SM FEW080 09/00 A2985 RMK AO2 SLP111 T00940000=
201302280252 METAR KATL 280252Z 26008KT 10SM BKN080 11/M01 A2986 RMK AO2 SLP114 T01061006 51009=
201302280152 METAR KATL 280152Z 27011KT 10SM BKN080 11/00 A2986 RMK AO2 SLP112 T01110000=
201302280052 METAR KATL 280052Z 26010KT 10SM FEW065 12/M01 A2985 RMK AO2 SLP109 T01221006=
201302272352 METAR KATL 272352Z 24008KT 10SM FEW200 13/M01 A2983 RMK AO2 SLP103 T01281006 10156 20122 53003=
201302272252 METAR KATL 272252Z 25012G19KT 10SM FEW065 14/M01 A2982 RMK AO2 SLP100 T01441011=
201302272152 METAR KATL 272152Z 26016G23KT 10SM FEW065 SCT200 15/00 A2981 RMK AO2 SLP094 T01500000=
201302272052 METAR KATL 272052Z 27015G27KT 10SM FEW065 SCT200 16/M01 A2982 RMK AO2 PK WND 24027/2046 SLP099 T01561006 56018=
201302271952 METAR KATL 271952Z 26012KT 10SM FEW060 SCT200 SCT250 15/00 A2983 RMK AO2 SLP102 T01500000=
201302271852 METAR KATL 271852Z 26011G19KT 10SM FEW055 SCT200 SCT250 14/01 A2986 RMK AO2 SLP111 T01390006=
201302271752 METAR KATL 271752Z 25009KT 10SM FEW200 BKN250 12/01 A2988 RMK AO2 SLP119 T01220011 10122 20050 58007=
201302271652 METAR KATL 271652Z 26009KT 10SM FEW150 BKN200 BKN250 10/01 A2989 RMK AO2 SLP125 T01000006=
201302271552 METAR KATL 271552Z VRB06KT 10SM FEW030 BKN200 BKN250 09/01 A2990 RMK AO2 SLP126 T00890006=
201302271452 METAR KATL 271452Z 29012KT 10SM FEW025 SCT200 BKN250 07/00 A2990 RMK AO2 SLP128 T00670000 51018=
201302271352 METAR KATL 271352Z 27009G18KT 10SM SCT026 BKN250 06/00 A2989 RMK AO2 SLP125 T00610000=
201302271324 SPECI KATL 271324Z 27010G16KT 10SM SCT026 BKN250 06/00 A2988 RMK AO2=
201302271252 METAR KATL 271252Z 28007KT 10SM BKN026 BKN250 05/00 A2985 RMK AO2 SLP113 T00500000=
201302271152 METAR KATL 271152Z 28012KT 10SM OVC028 06/00 A2984 RMK AO2 SLP109 70002 T00560000 10067 20056 51011=
201302271052 METAR KATL 271052Z 29011KT 10SM OVC028 06/00 A2984 RMK AO2 SLP106 T00560000=
201302270957 SPECI KATL 270957Z 28012G18KT 10SM OVC028 06/00 A2983 RMK AO2=
201302270952 METAR KATL 270952Z 28010G18KT 10SM OVC030 06/00 A2983 RMK AO2 SLP101 T00560000=
201302270852 METAR KATL 270852Z 28013KT 10SM OVC034 06/00 A2981 RMK AO2 SLP097 T00610000 51003=
201302270752 METAR KATL 270752Z 27010G16KT 10SM OVC034 06/M01 A2981 RMK AO2 SLP096 T00611006=
201302270652 METAR KATL 270652Z 26010KT 10SM OVC038 06/M01 A2981 RMK AO2 SLP099 T00611006=
201302270552 METAR KATL 270552Z 28017G23KT 10SM OVC032 07/01 A2980 RMK AO2 SLP096 T00670006 10094 20067 53011=
201302270452 METAR KATL 270452Z 26010KT 10SM OVC035 07/01 A2978 RMK AO2 SLP089 T00720011 401500033=
201302270352 METAR KATL 270352Z 27013G20KT 10SM OVC035 07/01 A2978 RMK AO2 SLP090 T00720006=
201302270252 METAR KATL 270252Z 23008KT 10SM BKN035 OVC042 08/01 A2977 RMK AO2 SLP084 T00780011 51029=
201302270152 METAR KATL 270152Z 25009KT 10SM SCT035 BKN042 08/01 A2975 RMK AO2 SLP078 T00780006=
201302270052 METAR KATL 270052Z 26015G21KT 10SM CLR 08/02 A2972 RMK AO2 SLP069 T00780017=
201302262352 METAR KATL 262352Z 26010G18KT 10SM FEW050 09/03 A2968 RMK AO2 SLP054 T00940028 10150 20067 53032=
201302262252 METAR KATL 262252Z 26012G18KT 10SM BKN050 12/03 A2963 RMK AO2 SLP038 T01220033=
201302262152 METAR KATL 262152Z 26012G20KT 10SM FEW030 SCT050 14/04 A2960 RMK AO2 SLP023 T01440044=
201302262052 METAR KATL 262052Z 00000KT 10SM FEW007 SCT012 SCT050 11/09 A2958 RMK AO2 SLP020 T01110089 56009=
201302262044 SPECI KATL 262044Z 00000KT 10SM FEW007 SCT012 BKN050 11/08 A2959 RMK AO2=
201302262004 SPECI KATL 262004Z 10005KT 8SM BKN007 BKN012 BKN019 09/08 A2958 RMK AO2=
201302261952 METAR KATL 261952Z 07005KT 6SM BR FEW005 BKN007 BKN012 09/07 A2959 RMK AO2 SLP024 T00940072=
201302261924 SPECI KATL 261924Z 00000KT 6SM BR BKN007 09/07 A2959 RMK AO2 $=
201302261901 SPECI KATL 261901Z 00000KT 3SM BR OVC006 08/07 A2960 RMK AO2 SFC VIS 6 $=
201302261852 METAR KATL 261852Z 11003KT 2SM BR OVC006 08/07 A2960 RMK AO2 SFC VIS 6 SLP027 T00830072=
201302261832 SPECI KATL 261832Z 12003KT 2SM BR OVC006 08/07 A2961 RMK AO2 SFC VIS 7=
201302261759 SPECI KATL 261759Z 11004KT 1SM BR OVC004 07/06 A2961 RMK AO2 SFC VIS 4=
201302261752 METAR KATL 261752Z 11004KT 1/2SM BR OVC004 07/06 A2961 RMK AO2 SFC VIS 4 DZE42 SLP030 P0000 60002 T00670061 10067 20033 56003=
201302261723 SPECI KATL 261723Z 11006KT 1/2SM -DZ BR OVC004 06/06 A2961 RMK AO2 SFC VIS 1 3/4 P0000=
201302261652 METAR KATL 261652Z 11006KT 1/2SM -DZ BR OVC004 06/05 A2962 RMK AO2 SFC VIS 3 SLP033 P0000 T00610050=
201302261552 METAR KATL 261552Z 10009KT 1/2SM -DZ BR OVC004 05/04 A2961 RMK AO2 SFC VIS 3 RAE04DZB49 SLP029 P0001 T00500039=
201302261452 METAR KATL 261452Z 09010KT 1/2SM -RA BR OVC004 04/03 A2962 RMK AO2 SFC VIS 3 RAB1357 SLP035 TWRINC P0001 60001 T00440033 55005=
201302261352 METAR KATL 261352Z 09012G15KT 1/2SM BR OVC004 04/03 A2961 RMK AO2 PK WND 09028/1318 SFC VIS 5 SLP031 CIG 003V005 TWRINC T00390033=
201302261328 SPECI KATL 261328Z 09018G23KT 1/2SM BR OVC004 04/03 A2956 RMK AO2 PK WND 09028/1318 SFC VIS 6 CIG 003V005 TWRINC=
201302261316 SPECI KATL 261316Z 09019G27KT 1 1/2SM BR OVC004 03/02 A2955 RMK AO2 PK WND 09027/1311 SFC VIS 6 PRESFR CIG 003V005=
201302261314 SPECI KATL 261314Z 10017G27KT 2SM BR OVC004 03/02 A2957 RMK AO2 PK WND 09027/1311 SFC VIS 6 TWRINC=
201302261252 METAR KATL 261252Z 09018G22KT 7SM OVC006 03/02 A2959 RMK AO2 PK WND 09027/1239 RAE1156 SLP024 P0000 T00330022=
201302261152 METAR KATL 261152Z 10011G23KT 6SM -RA BR BKN006 03/02 A2964 RMK AO2 SLP039 P0010 60132 70151 T00330022 10044 20033 58022=
201302261052 METAR KATL 261052Z 09014G20KT 4SM -RA BR BKN006 OVC017 03/02 A2968 RMK AO2 PK WND 08026/1005 SLP053 P0014 T00330022=
201302261038 SPECI KATL 261038Z 10016G23KT 4SM -RA BR OVC006 03/02 A2967 RMK AO2 PK WND 08026/1005 P0013=
201302261029 SPECI KATL 261029Z 11013G23KT 3SM RA BR OVC006 03/02 A2967 RMK AO2 PK WND 08026/1005 P0012=
201302261021 SPECI KATL 261021Z 09019G23KT 1 1/2SM +RA BR OVC006 03/02 A2968 RMK AO2 PK WND 08026/1005 P0007=
201302261014 SPECI KATL 261014Z 09016G26KT 2 1/2SM RA BR OVC006 03/02 A2968 RMK AO2 PK WND 08026/1005 P0004=
201302260952 METAR KATL 260952Z 08019G23KT 5SM -RA BR OVC006 03/02 A2969 RMK AO2 SLP057 P0013 T00330022=
201302260903 SPECI KATL 260903Z 10014G23KT 3SM RA BR OVC007 03/02 A2970 RMK AO2 P0003=
201302260852 METAR KATL 260852Z 10015G22KT 2 1/2SM RA BR OVC007 03/02 A2970 RMK AO2 PK WND 08027/0756 SLP062 P0033 60095 T00330022 56040=
201302260848 SPECI KATL 260848Z 09017G22KT 2 1/2SM RA BR OVC007 03/02 A2970 RMK AO2 PK WND 08027/0756 P0031=
201302260836 SPECI KATL 260836Z 09021G26KT 3SM RA BR OVC007 03/02 A2970 RMK AO2 PK WND 08027/0756 PRESFR P0027=
201302260752 METAR KATL 260752Z 08019G25KT 1 1/2SM +RA BR BKN007 OVC016 04/02 A2972 RMK AO2 PK WND 09027/0721 SLP068 P0032 T00390022=
201302260722 SPECI KATL 260722Z 09022G27KT 1 3/4SM +RA BR OVC007 04/02 A2976 RMK AO2 PK WND 09027/0721 P0013=
201302260656 SPECI KATL 260656Z 07018KT 3SM RA BR BKN007 OVC025 04/03 A2976 RMK AO2 PRESFR P0001=
201302260652 METAR KATL 260652Z 08021KT 2SM RA BR BKN007 OVC025 04/03 A2976 RMK AO2 PK WND 08031/0612 SLP082 P0030 T00390028=
201302260648 SPECI KATL 260648Z 09018KT 2SM +RA BR BKN007 OVC025 04/03 A2977 RMK AO2 PK WND 08031/0612 P0028=
201302260632 SPECI KATL 260632Z 08021G27KT 3SM RA BR BKN007 OVC025 04/03 A2978 RMK AO2 PK WND 08031/0612 P0022=
201302260617 SPECI KATL 260617Z 09017G31KT 2SM +RA BR BKN007 BKN012 OVC025 04/03 A2978 RMK AO2 PK WND 08031/0612 PRESFR P0013=
201302260552 METAR KATL 260552Z 09016G22KT 4SM RA BR BKN007 OVC011 04/03 A2982 RMK AO2 SLP102 CIG 005V010 P0017 60019 T00440033 10072 20044 58014=
201302260452 METAR KATL 260452Z 10015G24KT 4SM -RA BR OVC007 04/03 A2985 RMK AO2 PK WND 11027/0441 DZE00RAB00 SLP112 CIG 005V010 P0002 T00440033 401000044=
201302260425 SPECI KATL 260425Z 10018G24KT 4SM -RA BR OVC007 05/03 A2985 RMK AO2 PK WND 08027/0404 DZE00RAB00 CIG 005V010 P0001=
201302260352 METAR KATL 260352Z 09016G24KT 2 1/2SM -DZ BR OVC007 05/03 A2987 RMK AO2 SLP117 CIG 005V008 P0000 T00500033=
201302260328 SPECI KATL 260328Z 09018G23KT 2 1/2SM -DZ BR OVC007 05/04 A2987 RMK AO2 CIG 005V008 P0000=
201302260321 SPECI KATL 260321Z 09016G22KT 3SM -DZ BR OVC007 05/04 A2986 RMK AO2 CIG 005V008 P0000=
201302260252 METAR KATL 260252Z 09012G21KT 7SM -DZ OVC008 06/04 A2987 RMK AO2 PK WND 08026/0240 SLP116 P0000 60000 T00560039 58005=
201302260232 SPECI KATL 260232Z 09017G24KT 7SM -DZ OVC009 06/03 A2985 RMK AO2 PRESFR P0000=
201302260152 METAR KATL 260152Z 09016KT 10SM -DZ OVC012 06/03 A2988 RMK AO2 DZB51 SLP122 P0000 T00610033=
201302260137 SPECI KATL 260137Z 09013G22KT 10SM OVC013 07/03 A2989 RMK AO2=
201302260052 METAR KATL 260052Z 09016G19KT 10SM OVC017 07/03 A2990 RMK AO2 SLP127 T00720028=
201302252352 METAR KATL 252352Z 10014G22KT 10SM OVC018 07/02 A2988 RMK AO2 PK WND 10026/2258 SLP122 T00720022 10094 20072 57009=
201302252252 METAR KATL 252252Z 10011G23KT 10SM OVC022 08/02 A2989 RMK AO2 PK WND 10028/2224 SLP123 T00830017=
201302252152 METAR KATL 252152Z 09014KT 10SM BKN024 BKN050 OVC100 09/01 A2990 RMK AO2 SLP127 T00890006=
201302252052 METAR KATL 252052Z 08016G22KT 10SM BKN023 BKN050 OVC100 09/00 A2991 RMK AO2 SLP129 T00940000 56021=
201302251952 METAR KATL 251952Z 07019KT 10SM BKN023 BKN070 OVC100 09/M01 A2991 RMK AO2 SLP132 T00891006=
201302251852 METAR KATL 251852Z 07014KT 10SM BKN025 BKN070 OVC100 09/M01 A2994 RMK AO2 SLP140 T00941006=
201302251752 METAR KATL 251752Z 05013KT 10SM BKN030 BKN070 OVC100 09/M01 A2997 RMK AO2 SLP151 60000 T00941011 10094 20078 55018=
201302251717 SPECI KATL 251717Z 05008G16KT 10SM BKN025 BKN030 OVC100 09/M01 A2999 RMK AO2=
201302251652 METAR KATL 251652Z 11011G31KT 10SM FEW025 BKN040 OVC100 08/M01 A2987 RMK AO2 PK WND 12037/1639 RAB20E40 SLP116 VIRGA OHD & ALQDS P0000 T00831011=
201302251552 METAR KATL 251552Z 09014G20KT 10SM BKN040 BKN070 OVC100 09/M01 A3002 RMK AO2 RAE13 SLP167 P0000 T00891011=
201302251452 METAR KATL 251452Z 08010KT 10SM -RA BKN050 BKN070 OVC100 09/00 A3003 RMK AO2 RAB50 SLP170 P0000 60000 T00890000 51026=
201302251352 METAR KATL 251352Z 08011KT 10SM BKN055 OVC095 08/00 A3001 RMK AO2 SLP162 SHRA S-SW T00830000=
201302251252 METAR KATL 251252Z 08011KT 10SM BKN055 BKN090 OVC180 08/00 A2998 RMK AO2 SLP154 T00830000=
201302251152 METAR KATL 251152Z 08012KT 10SM BKN050 OVC180 08/00 A2995 RMK AO2 SLP142 T00830000 10100 20078 51012=
201302251052 METAR KATL 251052Z 07011KT 10SM BKN055 BKN150 OVC180 08/M01 A2993 RMK AO2 SLP135 T00831011=
201302250952 METAR KATL 250952Z 08008KT 10SM FEW150 OVC180 09/M02 A2993 RMK AO2 SLP135 T00891017=
201302250852 METAR KATL 250852Z 04011KT 10SM FEW150 OVC180 09/M02 A2991 RMK AO2 SLP128 T00941022 58014=
201302250752 METAR KATL 250752Z 05006KT 10SM OVC200 09/M01 A2994 RMK AO2 SLP136 T00891011=
201302250652 METAR KATL 250652Z 01004KT 10SM FEW180 OVC250 09/M02 A2994 RMK AO2 SLP137 T00941017=
201302250552 METAR KATL 250552Z 01005KT 10SM SCT180 OVC240 09/M02 A2996 RMK AO2 SLP144 T00941017 10139 20083 58013=
201302250452 METAR KATL 250452Z 01003KT 10SM SCT180 OVC240 10/M03 A2997 RMK AO2 SLP150 T01001028 401780050=
201302250352 METAR KATL 250352Z 00000KT 10SM SCT180 BKN250 09/M02 A3000 RMK AO2 SLP160 T00891022=
201302250252 METAR KATL 250252Z 34006KT 10SM BKN250 10/M03 A3000 RMK AO2 SLP159 T01001028 50002=
201302250152 METAR KATL 250152Z 32005KT 10SM SCT250 12/M02 A3001 RMK AO2 SLP164 T01171017=
201302250052 METAR KATL 250052Z 32005KT 10SM FEW250 12/M02 A3000 RMK AO2 SLP162 T01221022=
201302242352 METAR KATL 242352Z 33003KT 10SM FEW250 14/M03 A2999 RMK AO2 SLP157 T01391028 10178 20139 53006=
201302242252 METAR KATL 242252Z 34009KT 10SM FEW250 16/M03 A2998 RMK AO2 SLP153 T01611033=
201302242152 METAR KATL 242152Z 31010KT 10SM FEW250 17/M01 A2998 RMK AO2 SLP150 T01721011=
201302242052 METAR KATL 242052Z 32008KT 10SM FEW250 18/M01 A2997 RMK AO2 SLP148 T01781011 56014=
201302241952 METAR KATL 241952Z 35006KT 10SM CLR 17/M01 A2998 RMK AO2 SLP152 T01721006=
201302241852 METAR KATL 241852Z 32006KT 10SM CLR 16/01 A2999 RMK AO2 SLP155 T01610006=
201302241752 METAR KATL 241752Z VRB05KT 10SM CLR 16/02 A3001 RMK AO2 SLP162 T01560017 10156 20050 58004=
201302241652 METAR KATL 241652Z 31005KT 10SM CLR 13/01 A3003 RMK AO2 SLP170 T01330006=
201302241552 METAR KATL 241552Z 33008KT 10SM CLR 12/02 A3004 RMK AO2 SLP171 T01170017=
201302241452 METAR KATL 241452Z 32010KT 10SM CLR 10/03 A3002 RMK AO2 SLP169 T01000028 53018=
201302241352 METAR KATL 241352Z 32008KT 10SM CLR 08/04 A3000 RMK AO2 SLP163 T00780044=
201302241252 METAR KATL 241252Z 32006KT 10SM CLR 06/04 A2998 RMK AO2 SLP157 T00560044=
201302241152 METAR KATL 241152Z 31007KT 7SM CLR 06/04 A2997 RMK AO2 SLP152 70008 T00560044 10089 20050 51015=
201302241052 METAR KATL 241052Z 30005KT 7SM FEW006 06/05 A2996 RMK AO2 SLP147 T00610050=
201302241002 SPECI KATL 241002Z 29004KT 5SM BR FEW006 06/05 A2994 RMK AO2=
201302240952 METAR KATL 240952Z 30004KT 3SM BR BKN006 07/06 A2994 RMK AO2 SLP141 T00670056=
201302240852 METAR KATL 240852Z 33007KT 6SM BR OVC006 08/06 A2993 RMK AO2 SLP136 CIG 005V008 T00780061 50004=
201302240818 SPECI KATL 240818Z 31005KT 5SM BR OVC006 08/07 A2993 RMK AO2 CIG 005V008=
201302240752 METAR KATL 240752Z 32009KT 2SM BR OVC005 08/07 A2993 RMK AO2 SFC VIS 3 SLP137 T00780067=
201302240701 SPECI KATL 240701Z 31008KT 2SM BR BKN004 OVC085 08/07 A2992 RMK AO2 SFC VIS 4 TWRINC=
201302240652 METAR KATL 240652Z 31008KT 5SM BR BKN004 OVC085 08/07 A2993 RMK AO2 SLP136 T00780067=
201302240650 SPECI KATL 240650Z 31007KT 5SM BR BKN004 OVC085 08/07 A2993 RMK AO2=
201302240552 METAR KATL 240552Z 31006KT 5SM BR FEW008 SCT090 BKN250 09/08 A2991 RMK AO2 SLP132 T00890078 10106 20089 51004=
201302240542 SPECI KATL 240542Z 30004KT 6SM BR FEW008 BKN090 BKN250 09/08 A2991 RMK AO2=
201302240452 METAR KATL 240452Z 32005KT 7SM SCT080 SCT250 09/08 A2991 RMK AO2 SLP130 T00890078 401060050=
201302240352 METAR KATL 240352Z 32009KT 7SM FEW008 SCT075 BKN130 BKN250 10/09 A2991 RMK AO2 SLP132 T01000089=
201302240323 SPECI KATL 240323Z 31009KT 6SM BR SCT008 BKN080 BKN250 10/09 A2991 RMK AO2=
201302240252 METAR KATL 240252Z 31008KT 3SM BKN008 OVC026 10/08 A2990 RMK AO2 SFC VIS 7 SLP127 BINOVC T01000083 53006=
201302240222 SPECI KATL 240222Z 29007KT 3SM BR BKN008 OVC026 10/08 A2990 RMK AO2 SFC VIS 6 BINOVC=
201302240201 SPECI KATL 240201Z 32007KT 3SM BR SCT009 OVC026 10/08 A2989 RMK AO2 SFC VIS 6=
201302240152 METAR KATL 240152Z 31005KT 3SM BR OVC009 10/08 A2989 RMK AO2 SFC VIS 6 SLP123 T01000083=
201302240052 METAR KATL 240052Z 00000KT 3SM BR OVC008 10/08 A2988 RMK AO2 SFC VIS 6 SLP121 VIRGA NE-SE T01000083=
201302232352 METAR KATL 232352Z 00000KT 3SM OVC008 10/08 A2988 RMK AO2 SFC VIS 7 SLP121 VIRGA OHD-ALQDS T01000083 10106 20083 55003=
201302232252 METAR KATL 232252Z 35006KT 3SM BR OVC005 10/08 A2985 RMK AO2 SFC VIS 6 SLP112 VIRGA SW-NW T01000083=
201302232152 METAR KATL 232152Z 33009KT 3SM BR OVC008 11/08 A2987 RMK AO2 SFC VIS 5 SLP117 T01060083=
201302232052 METAR KATL 232052Z 00000KT 3SM BR OVC007 10/08 A2989 RMK AO2 SFC VIS 5 SLP125 T01000078 58013=
201302231952 METAR KATL 231952Z 30003KT 3SM BR OVC006 10/08 A2991 RMK AO2 SFC VIS 5 SLP132 T01000078=
201302231952 SPECI KATL 231952Z 30003KT 3SM BR OVC006 10/08 A2991 RMK AO2 SFC VIS 5 SLP132 T01000078=
201302231937 SPECI KATL 231937Z 00000KT 3SM BR OVC006 10/08 A2990 RMK AO2 SFC VIS 5=
201302231852 METAR KATL 231852Z 00000KT 1SM BR OVC005 09/07 A2991 RMK AO2 SFC VIS 3 SLP132 T00890072=
201302231808 SPECI KATL 231808Z 03004KT 1SM BR OVC005 09/07 A2992 RMK AO2 SFC VIS 4=
201302231752 METAR KATL 231752Z 11003KT 2SM BR OVC005 08/07 A2993 RMK AO2 SFC VIS 4 SLP139 60008 T00830072 10089 20061 58002=
201302231738 SPECI KATL 231738Z 00000KT 2SM BR OVC005 08/07 A2993 RMK AO2 SFC VIS 5=
201302231652 METAR KATL 231652Z 08006KT 3SM BR OVC005 08/07 A2992 RMK AO2 SFC VIS 6 SLP136 T00830067=
201302231552 METAR KATL 231552Z 07005KT 3SM BR OVC005 08/06 A2995 RMK AO2 SFC VIS 6 SLP145 T00780061=
201302231537 SPECI KATL 231537Z 04005KT 3SM BR OVC005 08/06 A2995 RMK AO2 SFC VIS 6=
201302231452 METAR KATL 231452Z 06005KT 2SM BR OVC007 07/06 A2994 RMK AO2 SFC VIS 4 SLP142 60008 T00720056 58003=
201302231434 SPECI KATL 231434Z 05006KT 2SM BR BKN007 OVC013 07/06 A2994 RMK AO2 SFC VIS 4=
201302231405 SPECI KATL 231405Z 04006KT 3SM OVC007 07/05 A2995 RMK AO2 SFC VIS 7=
201302231352 METAR KATL 231352Z 02005KT 2 1/2SM BR BKN007 OVC011 07/05 A2995 RMK AO2 SFC VIS 6 RAE32 SLP146 P0001 T00670050=
201302231331 SPECI KATL 231331Z 05006KT 2SM -RA BR BKN005 BKN019 OVC028 06/05 A2994 RMK AO2 SFC VIS 5 P0001=
201302231307 SPECI KATL 231307Z 04009KT 2SM -RA BR FEW005 SCT011 OVC019 06/05 A2993 RMK AO2 SFC VIS 4 P0000=
201302231303 SPECI KATL 231303Z 04007KT 3SM -RA BR SCT005 OVC019 06/05 A2993 RMK AO2 SFC VIS 4 P0000=
201302231252 METAR KATL 231252Z 05008KT 2 1/2SM -RA BR SCT005 BKN013 OVC023 06/05 A2994 RMK AO2 TWR VIS 3 RAB1156 SLP141 P0007 T00610050=
201302231152 METAR KATL 231152Z 02005KT 3SM BR OVC005 06/04 A2995 RMK AO2 SFC VIS 6 RAB08E29 SLP145 P0000 60094 70132 T00610044 10061 20050 55009=
201302231052 METAR KATL 231052Z 09004KT 3SM BR OVC005 06/04 A2992 RMK AO2 SFC VIS 6 RAE24 SLP138 P0000 T00560044=
201302230952 METAR KATL 230952Z 10009KT 3SM -RA BR BKN005 OVC042 06/04 A2991 RMK AO2 SFC VIS 5 SLP132 P0042 T00560044=
201302230941 SPECI KATL 230941Z 10007KT 3SM RA BR BKN005 OVC040 06/04 A2992 RMK AO2 SFC VIS 4 P0039=
201302230932 SPECI KATL 230932Z 08006KT 2 1/2SM RA BR FEW005 BKN040 OVC070 06/04 A2993 RMK AO2 TWR VIS 3 P0036=
201302230923 SPECI KATL 230923Z 33007KT 1 1/2SM +RA BR FEW005 BKN025 OVC036 06/05 A2995 RMK AO2 TWR VIS 3 P0030=
201302230911 SPECI KATL 230911Z 02005KT 2 1/2SM RA BR SCT005 BKN027 OVC036 06/04 A2994 RMK AO2 TWR VIS 3 PRESFR P0019=
201302230904 SPECI KATL 230904Z 03009G14KT 1 1/2SM +RA BR BKN005 BKN029 OVC036 06/04 A2995 RMK AO2 TWR VIS 3 P0013=
201302230852 METAR KATL 230852Z 32015KT 2SM +RA BR BKN005 OVC031 06/04 A2997 RMK AO2 TWR VIS 3 PRESRR SLP154 P0023 60052 T00560044 55014=
201302230843 SPECI KATL 230843Z 36007KT 2 1/2SM +RA BR BKN005 OVC035 06/04 A2996 RMK AO2 TWR VIS 3 PRESRR P0016=
201302230752 METAR KATL 230752Z 05011KT 3SM -RA BR OVC005 05/04 A2995 RMK AO2 SFC VIS 5 SLP146 P0008 T00500039=
201302230652 METAR KATL 230652Z 07011KT 3SM RA BR OVC005 05/04 A2997 RMK AO2 SLP153 CIG 003V006 P0021 T00500039=
201302230646 SPECI KATL 230646Z 07011KT 3SM -RA BR BKN005 OVC032 05/04 A2996 RMK AO2 PRESFR P0020=
201302230639 SPECI KATL 230639Z 07014KT 2 1/2SM RA BR BKN005 BKN032 OVC065 05/04 A2998 RMK AO2 TWR VIS 3 P0019=
201302230552 METAR KATL 230552Z 08010KT 3SM RA BR OVC005 05/04 A3001 RMK AO2 PRESFR SLP168 CIG 004V007 P0010 60037 T00500044 10061 20050 58019=
201302230452 METAR KATL 230452Z 07010KT 3SM RA BR OVC005 06/04 A3005 RMK AO2 SLP181 CIG 004V007 P0007 T00560044 401110056=
201302230352 METAR KATL 230352Z 06009KT 1SM +RA BR BKN004 OVC070 06/04 A3007 RMK AO2 SFC VIS 3 SLP187 CIG 003V005 P0017 T00560044=
201302230307 SPECI KATL 230307Z 08006KT 1 1/2SM RA BR OVC004 06/04 A3009 RMK AO2 SFC VIS 3 CIG 003V005 P0003=
201302230252 METAR KATL 230252Z 06007KT 1SM -RA BR OVC004 06/04 A3007 RMK AO2 SFC VIS 5 RAE11B50DZB11E50 PRESRR SLP188 CIG 003V005 P0000 60003 T00560044 55004=
201302230152 METAR KATL 230152Z 11012KT 1/2SM -RA BR OVC003 06/04 A3004 RMK AO2 SFC VIS 2 1/2 PRESFR SLP176 CIG 002V005 P0002 T00560044=
201302230052 METAR KATL 230052Z 10009KT 3/4SM -RA BR OVC004 06/04 A3009 RMK AO2 SFC VIS 1 1/2 DZE50RAB50 SLP193 CIG 003V006 P0001 T00560044=
201302230033 SPECI KATL 230033Z 07006KT 1 1/4SM -DZ BR OVC005 06/05 A3010 RMK AO2 CIG 003V008 P0001=
201302222352 METAR KATL 222352Z 07011KT 1/2SM -DZ BR OVC004 06/04 A3009 RMK AO2 SFC VIS 1 1/2 SLP192 CIG 003V005 P0000 60000 T00560044 10061 20056 53006=
201302222341 SPECI KATL 222341Z 07011KT 1/2SM -DZ BR OVC004 06/04 A3007 RMK AO2 SFC VIS 1 1/4 CIG 003V005 P0000=
201302222252 METAR KATL 222252Z 10008KT 1SM -DZ BR OVC004 06/04 A3006 RMK AO2 SFC VIS 1 1/2 SLP184 CIG 003V005 P0000 T00560044=
201302222152 METAR KATL 222152Z 09010KT 1 1/2SM -DZ BR FEW003 BKN004 OVC006 06/04 A3005 RMK AO2 SFC VIS 3 SLP180 P0000 T00560044=
201302222052 METAR KATL 222052Z 10010KT 1 1/2SM -DZ BR FEW003 BKN004 OVC006 06/04 A3007 RMK AO2 SFC VIS 3 SLP186 P0000 60000 T00560044 56021=
201302221952 METAR KATL 221952Z 09011KT 1 1/2SM -DZ BR SCT003 BKN004 OVC006 06/04 A3008 RMK AO2 SFC VIS 3 SLP190 P0000 T00560044=
201302221852 METAR KATL 221852Z 08013KT 1 1/2SM -DZ BR FEW003 BKN004 OVC006 06/04 A3009 RMK AO2 SFC VIS 3 SLP193 P0000 T00560044=
201302221752 METAR KATL 221752Z 08014KT 1 1/2SM -DZ BR BKN004 BKN006 OVC008 06/04 A3013 RMK AO2 SFC VIS 3 SLP206 P0000 60001 T00560044 10061 20056 56001=
201302221736 SPECI KATL 221736Z 08011KT 1 1/2SM -DZ BR BKN004 BKN006 OVC008 06/05 A3013 RMK AO2 SFC VIS 4 P0000=
201302221720 SPECI KATL 221720Z 09015KT 2SM -DZ BR FEW004 BKN006 OVC008 06/04 A3013 RMK AO2 SFC VIS 6 P0000=
201302221652 METAR KATL 221652Z 08014KT 1 1/2SM -DZ BR BKN005 OVC008 06/04 A3013 RMK AO2 SFC VIS 2 DZB08 SLP207 P0000 T00560044=
201302221619 SPECI KATL 221619Z 07012KT 1 1/2SM -DZ BR OVC006 06/04 A3013 RMK AO2 SFC VIS 2 DZB08 P0000=
201302221609 SPECI KATL 221609Z 08016G20KT 3SM -DZ BR OVC006 06/04 A3013 RMK AO2 SFC VIS 4 DZB08 P0000=
201302221552 METAR KATL 221552Z 08016KT 6SM BR BKN006 OVC008 06/04 A3013 RMK AO2 SLP204 T00560044=
201302221452 METAR KATL 221452Z 08012KT 7SM BKN006 OVC008 06/04 A3013 RMK AO2 SLP205 60001 T00610044 51013=
201302221352 METAR KATL 221352Z 08016G23KT 7SM OVC006 06/05 A3013 RMK AO2 RAE06 SLP202 P0000 T00610050=
201302221252 METAR KATL 221252Z 09014G23KT 6SM -RA BR OVC006 06/05 A3012 RMK AO2 SLP199 PCPN VRY LGT P0001 T00610050=
201302221152 METAR KATL 221152Z 07014KT 7SM -RA OVC006 06/05 A3009 RMK AO2 SLP191 P0002 60106 70127 T00610050 10089 20061 53010=
201302221052 METAR KATL 221052Z 09017KT 6SM -RA BR OVC006 07/05 A3005 RMK AO2 SLP177 P0012 T00670050=
201302221005 SPECI KATL 221005Z 10014G18KT 3SM RA BR BKN006 OVC044 07/06 A3004 RMK AO2 OCNL LTG DSNT SE P0004=
201302220952 METAR KATL 220952Z 10012KT 2 1/2SM +RA BR BKN006 OVC032 07/06 A3005 RMK AO2 TWR VIS 4 SLP176 OCNL LTG DSNT SE-S P0036 T00670056=
201302220937 SPECI KATL 220937Z 10011KT 2 1/2SM +RA BR BKN006 OVC027 07/06 A3006 RMK AO2 TWR VIS 4 OCNL LTG DSNT S P0025=
201302220852 METAR KATL 220852Z 08015KT 3SM +RA BR BKN006 OVC040 07/06 A3006 RMK AO2 SLP180 OCNL LTG DSNT SW P0021 60056 T00670056 56019=
201302220821 SPECI KATL 220821Z 06017G21KT 3SM RA BR BKN007 OVC036 07/06 A3007 RMK AO2 OCNL LTG DSNT S P0008=
201302220752 METAR KATL 220752Z 06015G20KT 3SM +RA BR SCT007 OVC037 07/06 A3010 RMK AO2 TSE22 SLP192 OCNL LTG DSNT S P0017 T00720056=
201302220722 SPECI KATL 220722Z 08019G24KT 4SM -RA BR FEW009 BKN037 OVC060 07/06 A3007 RMK AO2 TSE22 PRESFR TS DSPTD OCNL LTG DSNT S-SW P0011=
201302220652 METAR KATL 220652Z 07015KT 3SM TSRA BR BKN050CB OVC075 07/06 A3008 RMK AO2 PK WND 08026/0628 SLP187 OCNL LTGIC ALQDS TS ALQDS MOV NE P0018 T00720056=
201302220552 METAR KATL 220552Z 04016KT 3SM +TSRA SCT040CB BKN060 OVC090 09/06 A3012 RMK AO2 WSHFT 0519 SLP200 OCNL LTGIC ALQDS TS ALQDS MOV NE P0015 60021 T00890056 10161 20089 53022=
201302220537 SPECI KATL 220537Z 04013KT 5SM TSRA SCT040CB BKN055 OVC090 09/06 A3011 RMK AO2 WSHFT 0519 OCNL LTGIC NE-SE & SW-W TS NE-SE & SW-W MOV NE P0011=
201302220518 SPECI KATL 220518Z 36009KT 4SM TSRA BKN040CB OVC090 09/06 A3013 RMK AO2 WSHFT 0446 OCNL LTGICCG OHD-ALQDS TS OHD-ALQDS MOV NE P0005=
201302220503 SPECI KATL 220503Z 33013KT 8SM -TSRA BKN038CB BKN050 OVC090 11/06 A3011 RMK AO2 WSHFT 0446 PRESRR OCNL LTGIC SW-NW TS SW-NW MOV NE P0001=
201302220452 METAR KATL 220452Z 05014KT 7SM -TSRA SCT038CB BKN050 OVC090 11/05 A3005 RMK AO2 WSHFT 0434 TSB01RAB07 SLP176 OCNL LTGIC NE & W-NW TS NE & W-NW MOV NE P0006 T01110050 401780011=
201302220401 SPECI KATL 220401Z 08009KT 10SM TS BKN038CB OVC050 14/M01 A3003 RMK AO2 TSB01 OCNL LTGIC W-NW TS VC W-NW MOV NE=
201302220352 METAR KATL 220352Z 08012KT 10SM OVC040 14/00 A3003 RMK AO2 SLP167 T01440000=
201302220252 METAR KATL 220252Z 08006KT 10SM OVC045 15/00 A3005 RMK AO2 RAB38E47 SLP177 P0000 60000 T01500000 51027=
201302220152 METAR KATL 220152Z 16006KT 10SM OVC045 16/M01 A3003 RMK AO2 PRESRR SLP169 T01561006=
201302220052 METAR KATL 220052Z 15009KT 10SM BKN047 OVC110 16/M01 A3001 RMK AO2 SLP162 T01561011=
201302212352 METAR KATL 212352Z 12007KT 10SM SCT050 BKN110 OVC150 16/M03 A2997 RMK AO2 SLP151 VIRGA OHD-ALQDS T01611028 10178 20144 56016=
201302212252 METAR KATL 212252Z 13007KT 10SM BKN120 BKN150 OVC200 17/M04 A2998 RMK AO2 SLP153 VIRGA OHD-ALQDS T01671039=
201302212152 METAR KATL 212152Z 11008G15KT 10SM FEW100 BKN150 BKN180 OVC250 17/M05 A2999 RMK AO2 SLP156 VIRGA OHD & ALQDS BINOVC DSNT E T01671050=
201302212052 METAR KATL 212052Z 10008KT 10SM FEW150 BKN180 BKN250 17/M05 A3002 RMK AO2 SLP167 T01721050 56030=
201302211952 METAR KATL 211952Z 14003KT 10SM FEW150 BKN180 BKN250 17/M06 A3005 RMK AO2 SLP178 T01671056=
201302211852 METAR KATL 211852Z 14005KT 10SM BKN250 16/M08 A3007 RMK AO2 SLP184 T01611078=
201302211752 METAR KATL 211752Z 00000KT 10SM SCT250 14/M07 A3011 RMK AO2 SLP199 T01441072 10144 20011 58019=
201302211652 METAR KATL 211652Z VRB03KT 10SM FEW250 12/M07 A3014 RMK AO2 SLP210 T01221072=
201302211552 METAR KATL 211552Z 08007KT 10SM FEW250 10/M07 A3016 RMK AO2 SLP215 T01001072=
201302211452 METAR KATL 211452Z 06006KT 10SM FEW250 07/M08 A3017 RMK AO2 SLP221 T00721083 53009=
201302211352 METAR KATL 211352Z 06009KT 10SM FEW110 SCT250 05/M08 A3016 RMK AO2 SLP220 T00501083=
201302211252 METAR KATL 211252Z 02006KT 10SM FEW080 SCT250 03/M08 A3014 RMK AO2 SLP213 T00281078=
201302211152 METAR KATL 211152Z 35005KT 10SM FEW250 02/M08 A3014 RMK AO2 SLP213 T00171083 10033 20017 53013=
201302211052 METAR KATL 211052Z 35008KT 10SM SCT250 02/M08 A3011 RMK AO2 SLP203 T00171083=
201302210952 METAR KATL 210952Z 34004KT 10SM FEW090 SCT250 02/M08 A3009 RMK AO2 SLP194 T00221083=
201302210852 METAR KATL 210852Z 32005KT 10SM FEW100 02/M08 A3010 RMK AO2 SLP198 T00171083 55004=
201302210752 METAR KATL 210752Z 31005KT 10SM FEW100 02/M09 A3010 RMK AO2 SLP197 T00221089=
201302210652 METAR KATL 210652Z 31007KT 10SM FEW100 03/M09 A3011 RMK AO2 SLP202 T00281094=
201302210552 METAR KATL 210552Z 31006KT 10SM SCT100 03/M10 A3011 RMK AO2 SLP202 T00331100 10078 20033 58005=
201302210452 METAR KATL 210452Z 31008KT 10SM BKN100 BKN120 04/M10 A3013 RMK AO2 SLP206 T00441100 401061006=
201302210352 METAR KATL 210352Z 31009KT 10SM BKN120 BKN150 05/M11 A3013 RMK AO2 SLP208 T00501106=
201302210252 METAR KATL 210252Z 31007KT 10SM SCT120 BKN150 06/M10 A3013 RMK AO2 SLP207 T00561100 50017=
201302210152 METAR KATL 210152Z 30007KT 10SM BKN120 BKN150 06/M12 A3013 RMK AO2 SLP209 T00611117=
201302210052 METAR KATL 210052Z 33006KT 10SM FEW120 SCT150 06/M13 A3011 RMK AO2 SLP203 T00611128=
201302202352 METAR KATL 202352Z 02009KT 10SM FEW100 SCT150 BKN200 08/M14 A3008 RMK AO2 SLP191 VIRGA SW-W 60000 T00781144 10106 20078 58024=
201302202252 METAR KATL 202252Z 31008KT 10SM FEW050 BKN100 OVC150 08/M12 A3016 RMK AO2 RAB41E51 SLP217 VIRGA NW-NE & SE-SW P0000 T00781117=
201302202152 METAR KATL 202152Z 30015KT 10SM BKN110 BKN150 OVC180 08/M12 A3017 RMK AO2 SLP222 VIRGA OHD & ALQDS T00831117=
201302202052 METAR KATL 202052Z 31013KT 10SM BKN120 BKN150 OVC180 09/M11 A3015 RMK AO2 SLP214 VIRGA OHD & ALQDS T00941106 55004=
201302201952 METAR KATL 201952Z 30012KT 10SM FEW120 SCT150 BKN180 OVC250 10/M11 A3014 RMK AO2 SLP210 VIRGA DSNT W BINOVC DSNT S T01001111=
201302201852 METAR KATL 201852Z 33015G20KT 10SM BKN150 BKN180 BKN250 10/M13 A3013 RMK AO2 SLP209 T01001128=
201302201752 METAR KATL 201752Z 34010KT 10SM BKN150 BKN200 BKN250 10/M12 A3016 RMK AO2 SLP218 T01001122 10106 21006 56010=
201302201652 METAR KATL 201652Z 32012G17KT 10SM BKN150 BKN200 BKN250 09/M11 A3017 RMK AO2 SLP223 T00891106=
201302201552 METAR KATL 201552Z 34011KT 10SM BKN150 BKN200 BKN250 07/M11 A3017 RMK AO2 SLP220 T00671106=
201302201452 METAR KATL 201452Z 33017G22KT 10SM FEW150 SCT200 SCT250 05/M11 A3019 RMK AO2 SLP229 T00501106 51012=
201302201352 METAR KATL 201352Z 32008KT 10SM SCT250 02/M07 A3019 RMK AO2 SLP230 T00221072=
201302201252 METAR KATL 201252Z 29006KT 10SM FEW250 01/M08 A3018 RMK AO2 SLP227 T00061078=
201302201152 METAR KATL 201152Z 29005KT 10SM FEW250 00/M08 A3016 RMK AO2 SLP216 70006 T00001078 10039 20000 53005=
201302201052 METAR KATL 201052Z 29006KT 10SM SCT250 01/M08 A3014 RMK AO2 SLP211 T00061083 $=
201302200952 METAR KATL 200952Z 32005KT 10SM FEW250 01/M08 A3013 RMK AO2 SLP205 T00111078 $=
201302200852 METAR KATL 200852Z 32006KT 10SM FEW250 02/M08 A3014 RMK AO2 SLP209 T00171078 58004 $=
201302200752 METAR KATL 200752Z 32009KT 10SM CLR 02/M08 A3016 RMK AO2 SLP215 T00221078 $=
201302200652 METAR KATL 200652Z 32010KT 10SM CLR 03/M08 A3015 RMK AO2 SLP213 T00331078 $=
201302200552 METAR KATL 200552Z 31011KT 10SM CLR 04/M07 A3015 RMK AO2 SLP214 T00391072 10106 20039 51009 $=
201302200452 METAR KATL 200452Z 30006KT 10SM CLR 04/M08 A3015 RMK AO2 SLP214 T00441078 401500044 $=
201302200352 METAR KATL 200352Z 30011KT 10SM CLR 06/M07 A3014 RMK AO2 SLP212 T00561072 $=
201302200252 METAR KATL 200252Z 30013KT 10SM CLR 07/M07 A3012 RMK AO2 SLP204 T00671072 51013 $=
201302200152 METAR KATL 200152Z 30011KT 10SM CLR 08/M07 A3011 RMK AO2 SLP199 T00781067 $=
201302200052 METAR KATL 200052Z 31012G19KT 10SM CLR 09/M05 A3011 RMK AO2 SLP198 T00891050 $=
201302192352 METAR KATL 192352Z 30012G19KT 10SM CLR 11/M04 A3008 RMK AO2 SLP190 T01061044 10150 20100 53020 $=
201302192252 METAR KATL 192252Z 30014G18KT 10SM CLR 12/M03 A3005 RMK AO2 SLP180 T01221033 $=
201302192152 METAR KATL 192152Z 29013G22KT 10SM FEW060 SCT200 SCT250 14/M01 A3004 RMK AO2 SLP173 T01391011=
201302192052 METAR KATL 192052Z 29015G22KT 10SM FEW060 SCT200 SCT250 14/M01 A3002 RMK AO2 SLP167 T01441006 56009=
201302191952 METAR KATL 191952Z 30016G21KT 10SM FEW050 SCT200 BKN250 14/00 A3002 RMK AO2 SLP166 T01440000=
201302191852 METAR KATL 191852Z 30011G18KT 10SM FEW030 SCT200 SCT250 14/06 A3003 RMK AO2 SLP168 T01390061=
201302191811 SPECI KATL 191811Z 29011KT 10SM FEW013 SCT020 BKN200 12/07 A3004 RMK AO2=
201302191759 SPECI KATL 191759Z 29009KT 10SM BKN013 BKN020 BKN030 11/08 A3005 RMK AO2=
201302191753 METAR KATL 191753Z 29011KT 10SM BKN013 BKN020 OVC030 11/08 A3005 RMK AO2 SLP178 60006 T011100078 10111 20056 58002=
201302191752 METAR KATL 191752Z COR 29011KT 10SM BKN013 BKN020 OVC030 11/08 A3005 RMK AO2 SLP178 60006 T01110078 10111 20056 58002=
201302191736 SPECI KATL 191736Z 28012KT 10SM FEW009 BKN014 OVC020 11/08 A3005 RMK AO2=
201302191652 METAR KATL 191652Z COR 27006KT 8SM SCT010 BKN020 OVC030 09/07 A3006 RMK AO2 SLP180 T00940072=
201302191648 SPECI KATL 191648Z 27006KT 7SM SCT010 BKN020 OVC030 09/07 A3006 RMK AO2 PNO $=
201302191552 METAR KATL 191552Z COR 24005KT 6SM BR FEW006 BKN008 OVC020 08/06 A3006 RMK AO2 SLP181 T00780061=
201302191521 SPECI KATL 191521Z 21003KT 9SM BKN008 OVC020 07/06 A3006 RMK AO2=
201302191452 METAR KATL 191452Z 00000KT 6SM BR FEW006 BKN012 OVC020 07/06 A3004 RMK AO2 SLP176 60006 T00720056 55005=
201302191410 SPECI KATL 191410Z 00000KT 3SM BR SCT006 BKN016 OVC020 07/05 A3005 RMK AO2 SFC VIS 6=
201302191352 METAR KATL 191352Z 00000KT 3SM BR BKN004 OVC036 06/05 A3004 RMK AO2 SFC VIS 5 SLP177 P0001 T00610050=
201302191346 SPECI KATL 191346Z 00000KT 3SM BR BKN004 OVC036 06/05 A3004 RMK AO2 SFC VIS 5 P0001=
201302191307 SPECI KATL 191307Z 13007KT 3SM BR FEW004 BKN039 BKN080 06/04 A3002 RMK AO2 P0001=
201302191252 METAR KATL 191252Z 12004KT 2 1/2SM BR SCT004 BKN042 OVC075 06/04 A3004 RMK AO2 TWR VIS 3 RAE52 SLP174 P0005 T00560044=
201302191239 SPECI KATL 191239Z 08007KT 2SM -RA BR SCT006 SCT023 OVC042 06/04 A3005 RMK AO2 TWR VIS 3 P0005=
201302191235 SPECI KATL 191235Z 08005KT 2SM -RA BR SCT006 BKN023 OVC047 06/04 A3005 RMK AO2 TWR VIS 3 P0005=
201302191214 SPECI KATL 191214Z 36004KT 3SM -RA BR BKN006 BKN023 OVC035 06/04 A3006 RMK AO2 P0002=
201302191152 METAR KATL 191152Z 33005KT 3SM -RA BR SCT006 SCT012 OVC023 06/04 A3006 RMK AO2 SLP181 P0009 60030 70030 T00560044 10094 20056 53006=
201302191127 SPECI KATL 191127Z 34008KT 3SM RA BR BKN006 OVC014 06/04 A3006 RMK AO2 P0007=
201302191106 SPECI KATL 191106Z 31004KT 3SM -RA BR SCT007 OVC014 06/04 A3006 RMK AO2 P0003=
201302191052 METAR KATL 191052Z 31005KT 2SM RA BR FEW008 OVC018 06/04 A3005 RMK AO2 SLP180 P0016 T00560039=
201302191044 SPECI KATL 191044Z 33005KT 1 1/2SM RA BR FEW012 OVC018 06/04 A3005 RMK AO2 P0014=
201302191019 SPECI KATL 191019Z 28003KT 2 1/2SM RA BR BKN023 OVC038 06/03 A3004 RMK AO2 PRESRR P0006=
201302190952 METAR KATL 190952Z 16008KT 5SM RA FEW024 BKN042 OVC050 06/03 A3002 RMK AO2 SLP168 P0005 T00610033=
201302190852 METAR KATL 190852Z 19013G20KT 8SM -RA FEW031 OVC060 08/01 A3004 RMK AO2 RAB43 SLP174 P0000 60000 T00830011 56016=
201302190752 METAR KATL 190752Z 18012KT 10SM BKN033 OVC075 09/M01 A3005 RMK AO2 SLP177 T00941011=
201302190652 METAR KATL 190652Z 17012KT 10SM FEW035 SCT075 BKN095 BKN150 BKN200 08/M03 A3006 RMK AO2 RAB11E20 SLP180 P0000 T00831033=
201302190552 METAR KATL 190552Z 16010KT 10SM FEW035 BKN100 OVC200 08/M06 A3009 RMK AO2 SLP190 T00831056 10111 20078 58026=
201302190452 METAR KATL 190452Z 16007KT 10SM BKN032 BKN110 BKN200 08/M05 A3013 RMK AO2 SLP205 T00831050 401441011=
201302190352 METAR KATL 190352Z 17009KT 10SM FEW120 SCT200 BKN250 08/M04 A3015 RMK AO2 SLP214 T00831044=
201302190252 METAR KATL 190252Z 17010KT 10SM FEW090 BKN110 OVC200 09/M04 A3017 RMK AO2 SLP219 T00941039 58001=
201302190152 METAR KATL 190152Z 17010KT 10SM SCT120 BKN250 09/M03 A3018 RMK AO2 SLP224 T00941033=
201302190052 METAR KATL 190052Z 16007KT 10SM FEW120 SCT250 10/M03 A3018 RMK AO2 SLP226 T01001033=
201302182352 METAR KATL 182352Z 15011KT 10SM FEW120 11/M04 A3017 RMK AO2 SLP222 T01111039 10144 20111 56014=
201302182252 METAR KATL 182252Z 16011KT 10SM FEW120 12/M04 A3019 RMK AO2 SLP227 T01221039=
201302182152 METAR KATL 182152Z 18015KT 10SM SCT250 14/M04 A3020 RMK AO2 SLP231 T01391044=
201302182052 METAR KATL 182052Z 15015G20KT 10SM BKN250 14/M04 A3021 RMK AO2 SLP236 T01441044 56028=
201302181952 METAR KATL 181952Z 18010G17KT 10SM BKN250 14/M04 A3023 RMK AO2 SLP242 T01391044=
201302181852 METAR KATL 181852Z 19011G16KT 10SM BKN250 13/M05 A3026 RMK AO2 SLP250 T01331050=
201302181752 METAR KATL 181752Z 17009G14KT 10SM BKN250 12/M06 A3030 RMK AO2 SLP266 T01221056 10122 20000 58015=
201302181652 METAR KATL 181652Z 20006G16KT 10SM BKN250 11/M06 A3033 RMK AO2 SLP278 T01111061=
201302181552 METAR KATL 181552Z 23009KT 10SM BKN250 09/M06 A3034 RMK AO2 SLP281 T00941061=
201302181452 METAR KATL 181452Z 19004KT 10SM BKN250 07/M05 A3035 RMK AO2 SLP282 T00671050 53014=
201302181352 METAR KATL 181352Z 00000KT 10SM SCT250 03/M07 A3033 RMK AO2 SLP279 T00331072=
201302181252 METAR KATL 181252Z 00000KT 10SM FEW250 00/M07 A3031 RMK AO2 SLP274 T00001067=
201302181152 METAR KATL 181152Z 19003KT 10SM FEW250 00/M08 A3030 RMK AO2 SLP270 T00001078 10011 21011 51010=
201302181052 METAR KATL 181052Z 00000KT 10SM CLR M01/M06 A3029 RMK AO2 SLP266 T10061061=
201302180952 METAR KATL 180952Z 00000KT 10SM CLR M01/M06 A3028 RMK AO2 SLP262 T10061056=
201302180852 METAR KATL 180852Z 00000KT 10SM CLR M01/M06 A3027 RMK AO2 SLP259 T10061061 58002=
201302180752 METAR KATL 180752Z 00000KT 10SM CLR 01/M06 A3028 RMK AO2 SLP259 T00061061=
201302180652 METAR KATL 180652Z 00000KT 10SM CLR 01/M07 A3028 RMK AO2 SLP260 T00061067=
201302180552 METAR KATL 180552Z 23004KT 10SM CLR 01/M08 A3028 RMK AO2 SLP261 T00111078 10056 20006 53005=
201302180352 METAR KATL 180352Z 00000KT 10SM CLR 02/M08 A3027 RMK AO2 SLP259 T00221078=
201302180252 METAR KATL 180252Z 00000KT 10SM CLR 03/M08 A3026 RMK AO2 SLP257 T00281078 53010=
201302180152 METAR KATL 180152Z 00000KT 10SM CLR 03/M08 A3025 RMK AO2 SLP253 T00331078=
201302180052 METAR KATL 180052Z 33005KT 10SM CLR 06/M09 A3024 RMK AO2 SLP249 T00561094=
201302172352 METAR KATL 172352Z 33005KT 10SM CLR 05/M09 A3023 RMK AO2 SLP248 T00501094 10083 20050 53010=
201302172252 METAR KATL 172252Z 32010G17KT 10SM CLR 07/M10 A3022 RMK AO2 SLP241 T00721100 $=
201302172152 METAR KATL 172152Z 32011KT 10SM CLR 08/M11 A3021 RMK AO2 SLP236 T00781106 $=
201302172052 METAR KATL 172052Z 29010G19KT 10SM CLR 08/M11 A3020 RMK AO2 SLP236 T00781111 56018=
201302171952 METAR KATL 171952Z 30010G19KT 260V330 10SM CLR 08/M14 A3021 RMK AO2 SLP238 T00781139=
201302171852 METAR KATL 171852Z 31014G21KT 10SM CLR 07/M14 A3023 RMK AO2 SLP245 T00721139=
201302171752 METAR KATL 171752Z 31007G15KT 290V350 10SM CLR 05/M14 A3026 RMK AO2 SLP255 T00501139 10056 21039 58004=
201302171652 METAR KATL 171652Z 30012G19KT 10SM CLR 04/M13 A3028 RMK AO2 SLP262 T00441133=
201302171552 METAR KATL 171552Z 31014KT 10SM CLR 03/M13 A3028 RMK AO2 SLP262 T00281128=
201302171452 METAR KATL 171452Z 32011KT 10SM CLR 01/M12 A3027 RMK AO2 SLP260 T00061117 51017=
201302171352 METAR KATL 171352Z 29006KT 10SM CLR M02/M09 A3026 RMK AO2 SLP257 T10171094=
201302171252 METAR KATL 171252Z 29006KT 10SM CLR M04/M10 A3023 RMK AO2 SLP248 T10391100=
201302171152 METAR KATL 171152Z 28007KT 10SM CLR M04/M10 A3022 RMK AO2 SLP244 T10391100 11017 21039 53017=
201302171052 METAR KATL 171052Z 27005KT 10SM CLR M04/M10 A3019 RMK AO2 SLP233 T10391100=
201302170952 METAR KATL 170952Z 30007KT 260V320 10SM CLR M03/M10 A3017 RMK AO2 SLP227 T10331100=
201302170852 METAR KATL 170852Z 31006KT 10SM CLR M03/M09 A3017 RMK AO2 SLP224 T10281094 50007=
201302170752 METAR KATL 170752Z 30008KT 10SM CLR M02/M09 A3017 RMK AO2 SLP225 T10221089=
201302170652 METAR KATL 170652Z 30008KT 10SM CLR M02/M08 A3016 RMK AO2 SLP221 T10221083=
201302170552 METAR KATL 170552Z 30007KT 10SM CLR M02/M08 A3015 RMK AO2 SLP217 T10171083 10017 21017 53007=
201302170452 METAR KATL 170452Z 31009KT 10SM CLR M01/M08 A3014 RMK AO2 SLP212 T10111083 400671011=
201302170352 METAR KATL 170352Z 31009KT 10SM CLR M01/M09 A3013 RMK AO2 SLP211 T10061089=
201302170252 METAR KATL 170252Z 32015G20KT 10SM FEW080 00/M09 A3012 RMK AO2 SLP209 T00001094 52022=
201302170152 METAR KATL 170152Z 32013KT 10SM FEW080 01/M11 A3010 RMK AO2 SLP203 T00061111=
201302170052 METAR KATL 170052Z COR 31011KT 10SM FEW070 01/M12 A3008 RMK AO2 SLP192 T00111122=
201302162352 METAR KATL 162352Z 32009KT 10SM FEW070 02/M12 A3006 RMK AO2 SLP186 T00171117 10067 20017 51021=
201302162252 METAR KATL 162252Z 30019G25KT 10SM SCT075 03/M12 A3004 RMK AO2 PK WND 30030/2220 SLP178 VIRGA ALQDS T00281122=
201302162152 METAR KATL 162152Z 33019G26KT 10SM BKN070 04/M12 A3002 RMK AO2 PK WND 32030/2103 SLP170 VIRGA N-E AND S AND W-NW T00391122=
201302162052 METAR KATL 162052Z 32016G30KT 10SM BKN070 05/M11 A2999 RMK AO2 PK WND 33030/2048 SLP162 VIRGA N-NE AND S-SW T00501106 53002=
201302161952 METAR KATL 161952Z 32021G26KT 10SM BKN070 BKN085 06/M10 A2998 RMK AO2 PK WND 32030/1903 SLP155 VIRGA N AND S-SW T00561100=
201302161852 METAR KATL 161852Z 34020G27KT 10SM BKN070 07/M11 A2997 RMK AO2 PK WND 34027/1851 SLP153 T00671106=
201302161752 METAR KATL 161752Z 33016G26KT 10SM SCT065 SCT250 05/M11 A2999 RMK AO2 PK WND 32026/1748 SLP158 T00501106 10067 20028 58010=
201302161652 METAR KATL 161652Z 29018G24KT 10SM SCT045 SCT055 05/M08 A3000 RMK AO2 SLP163 T00501078=
201302161552 METAR KATL 161552Z 32012G19KT 10SM SCT032 SCT042 BKN250 05/M04 A3001 RMK AO2 SLP165 T00501039=
201302161452 METAR KATL 161452Z 32013G22KT 10SM FEW020 SCT120 BKN250 03/M03 A3002 RMK AO2 SLP169 T00331033 53010=
201302161352 METAR KATL 161352Z 31011KT 10SM FEW020 BKN110 OVC150 03/M02 A3001 RMK AO2 SLP168 T00281022=
201302161252 METAR KATL 161252Z 32008KT 10SM FEW080 BKN110 OVC150 03/M02 A2998 RMK AO2 SLP157 T00281022=
201302161152 METAR KATL 161152Z 32010KT 10SM FEW080 BKN100 OVC130 03/M02 A2999 RMK AO2 SLP156 VIRGA OHD-N T00331017 10061 20033 53007=
201302161052 METAR KATL 161052Z 31010KT 10SM FEW050 BKN080 OVC110 04/M02 A2998 RMK AO2 SLP152 VIRGA OHD-N-NE T00391022=
201302160952 METAR KATL 160952Z 32008KT 10SM OVC070 04/M02 A2996 RMK AO2 SLP147 VIRGA OHD-W-N T00441022=
201302160852 METAR KATL 160852Z 34008KT 10SM SCT070 OVC090 05/M01 A2996 RMK AO2 SLP147 T00501011 58014=
201302160752 METAR KATL 160752Z 33010KT 10SM BKN100 06/M01 A2998 RMK AO2 SLP152 T00561006=
201302160652 METAR KATL 160652Z 34009KT 10SM SCT110 06/M01 A2999 RMK AO2 SLP158 T00561011=
201302160552 METAR KATL 160552Z 32007KT 10SM FEW080 06/01 A3000 RMK AO2 SLP161 T00610006 10128 20061 58009=
201302160452 METAR KATL 160452Z 33010KT 10SM SCT085 07/01 A3001 RMK AO2 SLP164 T00670006 401720028=
201302160352 METAR KATL 160352Z 33014KT 10SM SCT075 BKN100 08/01 A3003 RMK AO2 SLP171 T00780006=
201302160252 METAR KATL 160252Z 34016G21KT 10SM BKN080 BKN100 09/01 A3003 RMK AO2 SLP171 T00890011 53014=
201302160152 METAR KATL 160152Z 34019G23KT 10SM FEW080 BKN100 11/03 A3001 RMK AO2 SLP164 T01060028=
201302160052 METAR KATL 160052Z 29005KT 10SM SCT100 11/M01 A2999 RMK AO2 SLP160 T01111006=
201302152352 METAR KATL 152352Z 28005KT 10SM FEW080 SCT100 13/M01 A2999 RMK AO2 SLP159 T01281011 10172 20128 51001=
201302152252 METAR KATL 152252Z 27009KT 10SM FEW075 BKN090 15/M02 A2999 RMK AO2 SLP157 T01501017=
201302152152 METAR KATL 152152Z 28010G16KT 10SM BKN070 BKN090 16/M01 A2999 RMK AO2 SLP158 T01561011=
201302152052 METAR KATL 152052Z 28007KT 10SM BKN075 BKN085 16/00 A2999 RMK AO2 SLP156 T01560000 56029=
201302151952 METAR KATL 151952Z 00000KT 10SM SCT065 16/00 A3000 RMK AO2 SLP160 T01610000=
201302151852 METAR KATL 151852Z 25006KT 10SM SCT065 16/00 A3004 RMK AO2 SLP172 T01610000=
201302151752 METAR KATL 151752Z 27007KT 10SM FEW050 16/02 A3008 RMK AO2 SLP185 T01560017 10156 20028 58014=
201302151652 METAR KATL 151652Z 26004KT 10SM FEW045 14/02 A3010 RMK AO2 SLP195 T01390022=
201302151552 METAR KATL 151552Z 33006KT 10SM CLR 13/03 A3012 RMK AO2 SLP200 T01280033=
201302151452 METAR KATL 151452Z 31008KT 10SM CLR 09/03 A3012 RMK AO2 SLP202 T00940028 53008=
201302151352 METAR KATL 151352Z 30005KT 10SM CLR 07/03 A3011 RMK AO2 SLP199 T00720028=
201302151252 METAR KATL 151252Z 29003KT 10SM CLR 04/01 A3010 RMK AO2 SLP197 T00440006=
201302151152 METAR KATL 151152Z 31006KT 10SM CLR 03/01 A3009 RMK AO2 SLP195 T00280006 10056 20028 53011 $=
201302151052 METAR KATL 151052Z 29004KT 10SM CLR 04/01 A3008 RMK AO2 SLP188 T00390006 $=
201302150952 METAR KATL 150952Z 31006KT 10SM CLR 03/01 A3006 RMK AO2 SLP182 T00330006 $=
201302150852 METAR KATL 150852Z 31006KT 10SM CLR 04/01 A3006 RMK AO2 SLP182 T00390006 58001 $=
201302150752 METAR KATL 150752Z 30003KT 10SM CLR 06/01 A3006 RMK AO2 SLP183 T00560011=
201302150652 METAR KATL 150652Z 00000KT 10SM CLR 05/01 A3007 RMK AO2 SLP184 T00500011=
201302150552 METAR KATL 150552Z 29004KT 10SM CLR 06/01 A3006 RMK AO2 SLP184 T00560011 10106 20050 50001=
201302150452 METAR KATL 150452Z 00000KT 10SM CLR 06/01 A3007 RMK AO2 SLP186 T00560011 401390033=
201302150352 METAR KATL 150352Z 00000KT 10SM CLR 07/01 A3007 RMK AO2 SLP186 T00720011=
201302150252 METAR KATL 150252Z 29003KT 10SM CLR 08/01 A3006 RMK AO2 SLP184 T00830006 51014=
201302150152 METAR KATL 150152Z 30006KT 10SM CLR 09/01 A3005 RMK AO2 SLP180 T00890006=
201302150052 METAR KATL 150052Z 30004KT 10SM CLR 09/00 A3003 RMK AO2 SLP174 T00940000=
201302142352 METAR KATL 142352Z 34006KT 10SM CLR 11/M01 A3002 RMK AO2 SLP168 T01061006 10139 20094 53002=
201302142252 METAR KATL 142252Z 32009KT 10SM FEW200 12/M02 A3001 RMK AO2 SLP166 T01221017=
201302142152 METAR KATL 142152Z 32007KT 10SM FEW200 13/M01 A3000 RMK AO2 SLP163 T01331011=
201302142052 METAR KATL 142052Z 00000KT 10SM FEW200 13/00 A3001 RMK AO2 SLP165 T01330000 56017=
201302141952 METAR KATL 141952Z 31003KT 10SM FEW180 BKN250 12/00 A3002 RMK AO2 SLP169 T01170000=
201302141852 METAR KATL 141852Z VRB03KT 10SM FEW180 BKN250 11/M01 A3004 RMK AO2 SLP176 T01111006=
201302141752 METAR KATL 141752Z VRB03KT 10SM FEW180 SCT250 10/00 A3006 RMK AO2 SLP185 T01000000 10100 20039 58001=
201302141652 METAR KATL 141652Z 26003KT 10SM FEW030 SCT180 SCT250 08/01 A3007 RMK AO2 SLP188 T00830006=
201302141552 METAR KATL 141552Z 00000KT 10SM FEW180 BKN250 06/00 A3008 RMK AO2 SLP191 T00610000=
201302141452 METAR KATL 141452Z 35008KT 10SM FEW020 BKN180 BKN250 05/00 A3006 RMK AO2 SLP186 T00500000 51011=
201302141352 METAR KATL 141352Z 34008KT 10SM FEW020 SCT180 BKN250 04/M01 A3005 RMK AO2 SLP180 T00441006=
201302141311 SPECI KATL 141311Z 33008KT 10SM SCT019 SCT180 BKN250 04/00 A3004 RMK AO2=
201302141252 METAR KATL 141252Z 33008KT 10SM BKN019 BKN250 04/00 A3005 RMK AO2 SLP180 T00390000=
201302141152 METAR KATL 141152Z 33008KT 10SM BKN018 BKN250 04/00 A3003 RMK AO2 SLP174 70002 T00390000 10044 20033 53019=
201302141052 METAR KATL 141052Z 35012G16KT 10SM BKN018 BKN250 04/00 A2998 RMK AO2 SLP157 T00390000=
201302140952 METAR KATL 140952Z 33011G17KT 10SM BKN018 04/00 A2997 RMK AO2 SLP154 T00390000=
201302140852 METAR KATL 140852Z 34009G16KT 10SM OVC018 04/00 A2997 RMK AO2 SLP154 BINOVC T00390000 53004=
201302140752 METAR KATL 140752Z 33010KT 10SM BKN019 04/00 A2997 RMK AO2 SLP151 T00390000=
201302140718 SPECI KATL 140718Z 33007KT 10SM BKN021 03/00 A2997 RMK AO2=
201302140652 METAR KATL 140652Z 32007G17KT 10SM FEW022 03/00 A2996 RMK AO2 SLP150 T00330000=
201302140552 METAR KATL 140552Z 33011KT 10SM FEW025 03/00 A2996 RMK AO2 SLP149 T00330000 10083 20033 51007=
201302140452 METAR KATL 140452Z 32010KT 10SM FEW025 04/00 A2996 RMK AO2 SLP148 T00390000 401220039=
201302140352 METAR KATL 140352Z 31008KT 10SM FEW250 04/01 A2995 RMK AO2 SLP146 T00440006=
201302140252 METAR KATL 140252Z 32008KT 10SM FEW022 05/01 A2994 RMK AO2 SLP142 T00500011 51020=
201302140218 SPECI KATL 140218Z 31007KT 10SM FEW022 SCT250 06/02 A2993 RMK AO2=
201302140152 METAR KATL 140152Z 31010KT 10SM BKN024 BKN250 06/02 A2993 RMK AO2 SLP139 T00610017=
201302140052 METAR KATL 140052Z 32013KT 10SM FEW025 SCT040 BKN250 07/02 A2991 RMK AO2 PK WND 30026/2353 SLP133 T00720022=
201302140028 SPECI KATL 140028Z 32014G22KT 10SM FEW023 SCT030 OVC040 07/02 A2990 RMK AO2 PK WND 30026/2353=
201302132352 METAR KATL 132352Z 31017G21KT 10SM SCT023 BKN028 OVC040 08/03 A2988 RMK AO2 SLP121 T00830033 10122 20083 51022=
201302132252 METAR KATL 132252Z 29012G19KT 10SM FEW022 SCT028 OVC040 08/04 A2986 RMK AO2 SLP115 T00830039=
201302132152 METAR KATL 132152Z 28012G21KT 10SM BKN020 BKN027 OVC037 09/04 A2984 RMK AO2 SLP108 T00890039=
201302132052 METAR KATL 132052Z 27009KT 10SM BKN025 BKN030 OVC200 09/04 A2981 RMK AO2 SLP097 T00940044 53005=
201302131952 METAR KATL 131952Z 27012KT 10SM BKN027 BKN034 OVC200 10/05 A2979 RMK AO2 SLP088 T01000050=
201302131852 METAR KATL 131852Z 26015G22KT 10SM BKN025 BKN030 OVC200 11/05 A2980 RMK AO2 PK WND 26027/1824 SLP091 T01110050=
201302131847 SPECI KATL 131847Z 27014G22KT 10SM BKN028 BKN035 OVC200 11/05 A2980 RMK AO2 PK WND 26027/1824=
201302131752 METAR KATL 131752Z 26014G22KT 10SM FEW020 BKN040 OVC200 12/06 A2980 RMK AO2 SLP091 60002 T01170061 10117 20072 58004=
201302131652 METAR KATL 131652Z 27011G17KT 10SM FEW015 SCT030 OVC200 11/08 A2981 RMK AO2 SLP094 T01060078=
201302131559 SPECI KATL 131559Z 26009KT 8SM FEW008 BKN012 BKN030 BKN200 09/08 A2980 RMK AO2=
201302131552 METAR KATL 131552Z 27010KT 6SM BR BKN007 BKN010 OVC020 09/08 A2981 RMK AO2 DZE21 SLP097 P0000 T00940083=
201302131542 SPECI KATL 131542Z 27010G14KT 6SM BR BKN007 BKN010 OVC020 09/08 A2982 RMK AO2 DZE21 P0000=
201302131521 SPECI KATL 131521Z VRB04KT 2 1/2SM BR BKN005 BKN007 OVC020 09/08 A2979 RMK AO2 SFC VIS 5 DZE21 P0000=
201302131503 SPECI KATL 131503Z VRB05KT 1SM -DZ BR BKN004 OVC006 08/08 A2980 RMK AO2 SFC VIS 4 P0000=
201302131452 METAR KATL 131452Z 23005KT 1/2SM -DZ BR BKN003 OVC005 08/07 A2979 RMK AO2 SFC VIS 2 SLP090 P0000 60002 T00830072 53003=
201302131430 SPECI KATL 131430Z 25003KT 1/2SM R09R/6000VP6000FT -DZ BR BKN003 OVC005 08/07 A2980 RMK AO2 SFC VIS 1 1/2 P0000=
201302131352 METAR KATL 131352Z 13004KT 1SM -DZ BR OVC003 07/07 A2975 RMK AO2 SFC VIS 1 1/2 SLP077 P0000 T00720067=
201302131252 METAR KATL 131252Z 14009KT 1SM -DZ BR OVC003 07/07 A2975 RMK AO2 SFC VIS 1 1/2 RAE30DZB30 SLP077 P0002 T00720067=
201302131233 SPECI KATL 131233Z 12004KT 1SM -DZ BR OVC003 07/06 A2978 RMK AO2 SFC VIS 1 1/2 RAE30DZB30 P0001=
201302131212 SPECI KATL 131212Z 11006KT 1/2SM R09R/P6000FT -RA BR OVC003 07/07 A2974 RMK AO2 SFC VIS 1 P0001=
201302131152 METAR KATL 131152Z 11007KT 1SM -RA BR OVC003 07/07 A2978 RMK AO2 SFC VIS 1 1/2 DZE00RAB00 SLP085 P0000 60002 70033 T00720067 10078 20067 55002=
201302131052 METAR KATL 131052Z COR 10007KT 1SM -DZ BR OVC004 07/06 A2975 RMK AO2 SFC VIS 1 1/2 SLP075 P0001 T00720061=
201302131049 SPECI KATL 131049Z 10008KT 1SM -DZ OVC004 07/06 A2974 RMK AO2 SFC VIS 1 1/2 P0001=
201302130952 METAR KATL 130952Z VRB03G14KT 2SM -DZ OVC004 07/06 A2976 RMK AO2 DZE03B22RAB03E22 SLP079 P0001 T00670061=
201302130852 METAR KATL 130852Z 08011KT 2SM -DZ BR OVC004 07/06 A2978 RMK AO2 SLP088 P0000 60000 T00670061 58013=
201302130752 METAR KATL 130752Z 09010KT 2SM -DZ BR BKN004 OVC010 07/06 A2980 RMK AO2 SLP092 P0000 T00720061=
201302130738 SPECI KATL 130738Z 10007KT 3SM -DZ BR BKN006 OVC011 07/06 A2980 RMK AO2 P0000=
201302130652 METAR KATL 130652Z 10008KT 7SM -DZ BKN008 OVC019 08/06 A2982 RMK AO2 DZB30 SLP098 P0000 T00780061=
201302130630 SPECI KATL 130630Z VRB05KT 7SM -DZ BKN008 OVC019 08/06 A2982 RMK AO2 DZB30 P0000=
201302130552 METAR KATL 130552Z 11009KT 10SM SCT008 BKN012 OVC025 08/06 A2982 RMK AO2 SLP101 60013 T00780061 10089 20072 56023=
201302130452 METAR KATL 130452Z 10008KT 10SM SCT009 BKN013 OVC025 08/06 A2985 RMK AO2 SLP110 T00780061 401170072=
201302130352 METAR KATL 130352Z 10011KT 10SM SCT008 BKN015 OVC060 08/06 A2986 RMK AO2 RAE07 SLP114 P0000 T00780056=
201302130252 METAR KATL 130252Z 09010KT 9SM -RA FEW005 BKN035 OVC060 07/06 A2989 RMK AO2 SLP125 P0001 60013 T00720061 58020=
201302130233 SPECI KATL 130233Z 08011KT 8SM -RA FEW005 BKN030 OVC045 08/06 A2992 RMK AO2 P0001=
201302130152 METAR KATL 130152Z 09007KT 6SM RA BR FEW025 BKN050 OVC080 08/06 A2991 RMK AO2 SLP130 P0006 T00780056=
201302130052 METAR KATL 130052Z 07011KT 4SM RA FEW030 BKN055 OVC070 08/06 A2994 RMK AO2 SLP142 P0006 T00830056=
201302122352 METAR KATL 122352Z 04009KT 6SM -RA BKN030 BKN060 OVC100 09/05 A2996 RMK AO2 PRESRR SLP146 P0003 60018 T00890050 10117 20083 53001=
201302122252 METAR KATL 122252Z 08010KT 7SM -RA FEW060 BKN075 OVC110 09/04 A2994 RMK AO2 SLP140 P0010 T00890039=
201302122152 METAR KATL 122152Z 07009KT 10SM -RA FEW065 BKN080 OVC110 10/04 A2992 RMK AO2 RAE2058B37 SLP133 P0000 T01000044=
201302122052 METAR KATL 122052Z 01009KT 10SM -RA FEW045 SCT075 OVC095 10/06 A2995 RMK AO2 SLP144 P0004 60005 T01000056 58035=
201302121952 METAR KATL 121952Z 00000KT 9SM -RA SCT045 BKN080 OVC100 11/06 A3000 RMK AO2 RAB12 PRESFR SLP161 P0001 T01060056=
201302121852 METAR KATL 121852Z 25004KT 10SM BKN048 BKN070 OVC100 11/04 A3003 RMK AO2 RAB36E45 SLP169 P0000 T01110039=
201302121752 METAR KATL 121752Z 25003KT 10SM BKN070 BKN100 OVC150 11/03 A3006 RMK AO2 SLP180 VIRGA ALQDS 60000 T01060033 10117 20072 56013=
201302121652 METAR KATL 121652Z 32003KT 10SM FEW060 SCT100 OVC150 11/03 A3007 RMK AO2 SLP184 VIRGA OHD & ALQDS T01110033=
201302121552 METAR KATL 121552Z 35005KT 10SM FEW060 BKN090 BKN120 BKN200 11/03 A3007 RMK AO2 SLP184 T01060028=
201302121452 METAR KATL 121452Z 32004KT 10SM FEW060 SCT090 SCT120 10/04 A3009 RMK AO2 SLP193 60000 T01000039 58003=
201302121352 METAR KATL 121352Z 34005KT 10SM SCT095 08/03 A3009 RMK AO2 RAE16 SLP192 P0000 T00830028=
201302121252 METAR KATL 121252Z 31007KT 10SM -RA SCT050 SCT065 OVC095 07/03 A3012 RMK AO2 RAB1155 SLP202 P0000 T00720033=
201302121152 METAR KATL 121152Z 32009KT 10SM FEW070 BKN100 OVC120 08/05 A3010 RMK AO2 RAE1059B15E26 SLP196 P0000 60002 70039 T00830050 10094 20083 53001=
201302121052 METAR KATL 121052Z 31008KT 10SM -RA FEW055 SCT075 OVC095 08/07 A3009 RMK AO2 RAB24 SLP190 P0000 T00830067=
201302120952 METAR KATL 120952Z 00000KT 10SM FEW055 BKN090 OVC110 09/07 A3006 RMK AO2 RAE40 SLP178 P0001 T00890072=
201302120852 METAR KATL 120852Z 31009KT 10SM -RA FEW075 OVC100 09/07 A3010 RMK AO2 RAB06E27B52 SLP194 P0000 60001 T00890072 56000=
201302120752 METAR KATL 120752Z 27005KT 10SM OVC100 09/08 A3010 RMK AO2 RAE0655 PRESRR SLP195 P0000 T00890078=
201302120652 METAR KATL 120652Z 26003KT 9SM -RA FEW055 SCT085 OVC100 09/08 A3010 RMK AO2 SLP192 P0001 T00940078=
201302120552 METAR KATL 120552Z 25004KT 10SM -RA FEW055 BKN090 OVC120 09/08 A3010 RMK AO2 RAB25 SLP193 P0000 60001 T00940078 10100 20094 51003=
201302120452 METAR KATL 120452Z 30003KT 10SM FEW065 BKN090 OVC110 09/08 A3010 RMK AO2 RAE0355 SLP193 P0000 T00940078 401610094=
201302120352 METAR KATL 120352Z 24004KT 10SM -RA FEW070 BKN090 OVC110 09/08 A3011 RMK AO2 RAB25 SLP195 P0000 T00940078=
201302120252 METAR KATL 120252Z 25004KT 10SM FEW070 BKN100 OVC150 09/08 A3009 RMK AO2 RAB09E47 SLP190 P0000 60001 T00940078 50000=
201302120152 METAR KATL 120152Z 00000KT 10SM SCT075 BKN090 OVC110 09/08 A3011 RMK AO2 RAE48 SLP196 P0001 T00940078=
201302120052 METAR KATL 120052Z 00000KT 10SM -RA FEW025 SCT070 BKN100 OVC150 10/07 A3009 RMK AO2 RAE09B50 SLP188 P0000 T01000072=
201302112352 METAR KATL 112352Z 31007KT 9SM -RA FEW008 SCT025 BKN080 OVC140 10/07 A3009 RMK AO2 WSHFT 2320 SLP190 P0013 60032 T01000067 10156 20100 55003=
201302112337 SPECI KATL 112337Z 34009KT 6SM RA FEW006 BKN020 OVC085 10/07 A3009 RMK AO2 WSHFT 2320 P0013=
201302112318 SPECI KATL 112318Z 27005KT 4SM RA BR SCT006 BKN015 OVC080 13/12 A3011 RMK AO2 P0007=
201302112252 METAR KATL 112252Z 26004KT 6SM -RA BR FEW005 BKN080 OVC110 13/12 A3008 RMK AO2 SLP185 P0005 T01280122=
201302112152 METAR KATL 112152Z 24005KT 6SM -RA BR FEW010 BKN075 OVC090 13/12 A3010 RMK AO2 SLP192 P0008 T01330122=
201302112056 SPECI KATL 112056Z 28003KT 5SM -RA BR FEW008 BKN070 OVC090 14/12 A3010 RMK AO2 P0000=
201302112052 METAR KATL 112052Z 28006KT 5SM -RA BR FEW010 BKN075 OVC090 14/12 A3010 RMK AO2 RAB1953 SLP193 P0005 60006 T01390122 55005=
201302112023 SPECI KATL 112023Z 31007KT 5SM -RA BR SCT010 BKN075 OVC090 14/13 A3011 RMK AO2 RAB1953 P0001=
201302111952 SPECI KATL 111952Z 28006KT 10SM FEW010 SCT040 OVC090 14/13 A3010 RMK AO2 RAB1856E48 SLP191 P0000 T01440128=
201302111952 METAR KATL 111952Z 28006KT 10SM FEW010 SCT040 OVC090 14/13 A3010 RMK AO2 RAB1856E48 SLP191 P0000 T01440128=
201302111921 SPECI KATL 111921Z 31004KT 10SM FEW010 BKN040 OVC090 14/13 A3010 RMK AO2 RAB1856E21 P0000=
201302111902 SPECI KATL 111902Z 33009KT 10SM -RA SCT010 BKN028 OVC095 15/13 A3011 RMK AO2 RAB1856 P0000=
201302111852 METAR KATL 111852Z 30008KT 10SM FEW010 BKN040 OVC090 15/13 A3012 RMK AO2 RAB01E46 SLP198 P0001 T01500133=
201302111812 SPECI KATL 111812Z 28008KT 6SM -RA BR BKN008 BKN070 OVC090 15/14 A3012 RMK AO2 RAB01 P0000=
201302111752 METAR KATL 111752Z 28008G14KT 10SM BKN010 BKN070 OVC090 16/14 A3012 RMK AO2 RAE18 SLP198 P0001 60004 T01560139 10161 20139 50007=
201302111705 SPECI KATL 111705Z 29006KT 6SM -RA BR SCT010 BKN070 OVC090 16/14 A3013 RMK AO2 P0000=
201302111652 METAR KATL 111652Z 28004KT 3SM -RA BR FEW005 SCT007 BKN090 OVC150 16/14 A3013 RMK AO2 SFC VIS 6 RAB09 SLP202 P0002 T01560144=
201302111642 SPECI KATL 111642Z 25003KT 3SM -RA BR FEW005 SCT007 OVC090 16/14 A3014 RMK AO2 SFC VIS 6 RAB09 P0002=
201302111552 METAR KATL 111552Z 28008KT 3SM BR OVC005 16/14 A3013 RMK AO2 SFC VIS 6 RAE48 SLP201 P0000 T01560144=
201302111452 METAR KATL 111452Z 22007KT 3SM -RA BR OVC005 16/15 A3010 RMK AO2 SFC VIS 5 RAB47 SLP191 P0000 60001 T01610150 53014=
201302111352 METAR KATL 111352Z 23006KT 7SM OVC005 16/14 A3006 RMK AO2 RAE01 SLP179 P0000 T01560144=
201302111313 SPECI KATL 111313Z 23004KT 7SM OVC006 16/14 A3006 RMK AO2 RAE01 P0000=
201302111252 METAR KATL 111252Z 20007KT 6SM -RA BR OVC004 15/14 A3006 RMK AO2 SLP176 P0001 T01500144=
201302111152 METAR KATL 111152Z 18006KT 6SM -RA BR OVC004 14/13 A3006 RMK AO2 SLP177 P0003 60050 70160 T01390133 10139 20111 55006=
201302111052 METAR KATL 111052Z 18006KT 6SM -RA BR OVC004 14/13 A3003 RMK AO2 RAE12B49 SLP168 P0001 T01390128=
201302111022 SPECI KATL 111022Z 17007KT 7SM BKN009 BKN100 BKN150 14/13 A3003 RMK AO2 RAE12 P0001=
201302110952 METAR KATL 110952Z 16008KT 5SM -RA BR FEW004 SCT047 OVC090 13/13 A3003 RMK AO2 PRESFR SLP167 P0017 T01330128=
201302110940 SPECI KATL 110940Z 16009KT 5SM -RA BR SCT004 BKN043 OVC100 13/13 A3005 RMK AO2 P0016=
201302110852 METAR KATL 110852Z 20007KT 170V240 1SM +RA BR BKN004 OVC055 13/12 A3008 RMK AO2 SFC VIS 1 1/2 SLP183 P0019 60029 T01280117 55006=
201302110752 METAR KATL 110752Z 15009KT 1SM -RA BR OVC003 12/11 A3007 RMK AO2 SFC VIS 3 SLP180 P0007 T01220111=
201302110652 METAR KATL 110652Z 14005KT 1SM -RA BR OVC003 11/11 A3008 RMK AO2 SFC VIS 4 SLP186 TWRINC P0003 T01110106=
201302110552 METAR KATL 110552Z 13005KT 1SM -RA BR OVC003 11/10 A3009 RMK AO2 SFC VIS 3 SLP190 TWRINC P0002 60084 T01110100 10128 20106 55023=
201302110458 SPECI KATL 110458Z 11008KT 1SM -RA BR OVC003 11/10 A3009 RMK AO2 SFC VIS 5 TWRINC P0000=
201302110452 METAR KATL 110452Z 11009KT 2SM -RA BR OVC003 11/10 A3009 RMK AO2 SFC VIS 5 SLP188 P0005 T01110100 401610061=
201302110402 SPECI KATL 110402Z 11014G18KT 2SM -RA BR OVC004 11/10 A3011 RMK AO2 SFC VIS 4 PRESFR P0001=
201302110352 METAR KATL 110352Z 12011KT 5SM -RA BR BKN004 OVC080 11/10 A3013 RMK AO2 SLP203 P0007 T01060100=
201302110252 METAR KATL 110252Z 09013KT 4SM -RA BR BKN004 OVC065 11/09 A3016 RMK AO2 SLP216 P0009 60070 T01060094 50016=
201302110229 SPECI KATL 110229Z 08012KT 4SM -RA BR BKN004 BKN055 OVC080 11/09 A3017 RMK AO2 P0006=
201302110152 METAR KATL 110152Z 05016KT 5SM -RA BR SCT006 BKN044 OVC075 11/09 A3018 RMK AO2 SLP222 P0011 T01060094=
201302110107 SPECI KATL 110107Z 02014KT 3SM RA BR SCT007 SCT022 OVC060 12/10 A3018 RMK AO2 P0004=
201302110052 METAR KATL 110052Z 36012KT 3SM RA BR SCT006 BKN021 OVC045 12/11 A3018 RMK AO2 WSHFT 2347 TSE36 SLP223 P0050 T01170106=
201302110037 SPECI KATL 110037Z 35011KT 3SM RA BR SCT006 OVC023 12/11 A3017 RMK AO2 WSHFT 2347 TSE36 TS DSPTD P0044=
201302110022 SPECI KATL 110022Z 34012KT 2 1/2SM +TSRA BR SCT006 BKN028CB OVC042 12/11 A3015 RMK AO2 WSHFT 2347 OCNL LTGIC VC NE-SE TS VC NE-SE MOV NE P0036=
201302110008 SPECI KATL 110008Z 02010G22KT 1 1/2SM R09R/4500VP6000FT +TSRA BR FEW006 OVC022CB 12/11 A3014 RMK AO2 WSHFT 2347 TWR VIS 2 OCNL LTGICCG NE-SE TS NE-SE MOV NE P0024=
201302110002 SPECI KATL 110002Z 31016G22KT 2 1/2SM +TSRA BR SCT006 OVC022CB 12/11 A3016 RMK AO2 WSHFT 2347 TWR VIS 3 PRESRR OCNL LTGICCG N-OHD-S TS N-OHD-S MOV NE P0008=
201302102352 METAR KATL 102352Z 02011KT 2SM +TSRA BR OVC027CB 13/11 A3011 RMK AO2 TWR VIS 3 TSB45 PRESRR SLP199 OCNL LTGCGIC N-OHD-S TS N-OHD-S MOV NE P0019 60026 T01280111 10161 20128 53001=
201302102346 SPECI KATL 102346Z 04011KT 2 1/2SM +TSRA BR OVC028CB 13/11 A3010 RMK AO2 TWR VIS 3 TSB45 PRESRR OCNL LTGCGIC OHD-SE TS OHD-SE MOV NE P0014=
201302102332 SPECI KATL 102332Z 04011KT 4SM RA OVC028CB 13/11 A3007 RMK AO2 CB VC SW-NW-N MOV NE P0006=
201302102252 METAR KATL 102252Z VRB04KT 5SM -RA OVC032CB 14/11 A3006 RMK AO2 RAE2158B18 SLP181 VIS NW 2 CB NW MOV NE P0001 T01440106=
201302102152 METAR KATL 102152Z 13010KT 8SM -RA OVC034 14/10 A3003 RMK AO2 PRESFR SLP169 P0004 T01440100=
201302102052 METAR KATL 102052Z 15009KT 3SM RA OVC034 15/09 A3011 RMK AO2 SFC VIS 4 RAB38 SLP197 P0002 60002 T01500094 56028=
201302101952 METAR KATL 101952Z 15014G18KT 10SM OVC034 16/07 A3013 RMK AO2 SLP202 T01560072=
201302101852 METAR KATL 101852Z 15015G19KT 10SM SCT038 SCT050 BKN090 OVC220 16/07 A3016 RMK AO2 SLP212 T01560067=
201302101752 METAR KATL 101752Z 13009G20KT 10SM BKN035 BKN043 OVC120 14/06 A3020 RMK AO2 SLP225 T01440061 10150 20067 58036=
201302101652 METAR KATL 101652Z 13015G23KT 10SM FEW040 SCT120 BKN250 13/05 A3023 RMK AO2 PRESFR SLP237 T01330050=
201302101552 METAR KATL 101552Z 12010G17KT 10SM SCT034 OVC048 11/03 A3029 RMK AO2 SLP259 T01060028=
201302101452 METAR KATL 101452Z 13009KT 10SM BKN040 OVC130 09/00 A3031 RMK AO2 SLP265 T00890000 53013=
201302101352 METAR KATL 101352Z 14009KT 10SM SCT038 BKN130 BKN250 08/00 A3029 RMK AO2 SLP261 T00780000=
201302101252 METAR KATL 101252Z 12008KT 10SM FEW150 SCT200 BKN250 07/M01 A3027 RMK AO2 SLP252 T00671011 $=
201302101152 METAR KATL 101152Z 12005KT 10SM FEW150 SCT180 BKN250 07/M02 A3027 RMK AO2 SLP251 T00671017 10094 20061 53004 $=
201302101052 METAR KATL 101052Z 13006KT 10SM SCT150 OVC250 07/M02 A3025 RMK AO2 SLP246 T00671017 $=
201302100952 METAR KATL 100952Z 13007KT 10SM OVC150 08/M02 A3025 RMK AO2 SLP245 T00781022 $=
201302100852 METAR KATL 100852Z 11005KT 10SM BKN150 BKN250 08/M01 A3026 RMK AO2 SLP246 T00781006 50001 $=
201302100752 METAR KATL 100752Z 13005KT 10SM BKN180 BKN250 08/M01 A3026 RMK AO2 SLP250 T00831006 $=
201302100652 METAR KATL 100652Z 12006KT 10SM BKN180 09/M01 A3026 RMK AO2 SLP246 T00891006 $=
201302100552 METAR KATL 100552Z 13006KT 10SM BKN170 BKN220 09/M01 A3025 RMK AO2 SLP245 VIRGA NE T00941006 10133 20078 53002 $=
201302100452 METAR KATL 100452Z 10004KT 10SM SCT180 BKN210 08/M01 A3024 RMK AO2 SLP243 VIRGA N T00781006 401670000 $=
201302100352 METAR KATL 100352Z 12004KT 10SM BKN170 BKN220 09/M01 A3025 RMK AO2 SLP246 T00941011 $=
201302100252 METAR KATL 100252Z 13003KT 10SM FEW170 SCT250 10/M01 A3024 RMK AO2 SLP246 T01001011 51004 $=
201302100152 METAR KATL 100152Z 12004KT 10SM FEW180 SCT250 11/M02 A3024 RMK AO2 SLP244 T01111017 $=
201302100052 METAR KATL 100052Z 12004KT 10SM FEW180 SCT250 12/M02 A3024 RMK AO2 SLP245 T01171017 $=
201302092352 METAR KATL 092352Z 13004KT 10SM FEW200 13/M02 A3023 RMK AO2 SLP242 T01331017 10167 20133 53009 $=
201302092252 METAR KATL 092252Z 13004KT 10SM FEW200 SCT250 15/M02 A3022 RMK AO2 SLP237 T01501022 $=
201302092152 METAR KATL 092152Z 13006KT 10SM FEW200 SCT250 16/M04 A3021 RMK AO2 SLP232 T01561039 $=
201302092052 METAR KATL 092052Z 15003KT 10SM FEW250 16/M04 A3020 RMK AO2 SLP231 T01561044 56021 $=
201302091952 METAR KATL 091952Z 15005KT 10SM FEW250 15/M03 A3022 RMK AO2 SLP236 T01501033 $=
201302091852 METAR KATL 091852Z 19005KT 10SM FEW250 15/M02 A3024 RMK AO2 SLP243 T01501022 $=
201302091752 METAR KATL 091752Z 09005KT 10SM FEW250 13/M03 A3027 RMK AO2 SLP253 T01331028 10133 20000 58003 $=
201302091652 METAR KATL 091652Z 14004KT 10SM FEW250 11/M01 A3028 RMK AO2 SLP259 T01111011 $=
201302091552 METAR KATL 091552Z 00000KT 10SM FEW250 08/M01 A3030 RMK AO2 SLP265 T00831011 $=
201302091452 METAR KATL 091452Z 33004KT 10SM FEW250 06/M01 A3028 RMK AO2 SLP258 T00561006 53020 $=
201302091352 METAR KATL 091352Z 34005KT 10SM FEW250 03/M01 A3025 RMK AO2 SLP250 T00281011 $=
201302091252 METAR KATL 091252Z 33006KT 10SM FEW250 01/M02 A3024 RMK AO2 SLP244 T00061017 $=
201302091152 METAR KATL 091152Z 30006KT 10SM FEW250 00/M02 A3022 RMK AO2 SLP238 T00001017 10022 20000 51009 $=
201302091052 METAR KATL 091052Z 33007KT 10SM FEW250 01/M02 A3021 RMK AO2 SLP234 T00061017=
201302090952 METAR KATL 090952Z 33008KT 10SM CLR 01/M02 A3020 RMK AO2 SLP231 T00111017=
201302090852 METAR KATL 090852Z 33011KT 10SM CLR 01/M01 A3019 RMK AO2 SLP227 T00111011 51012=
201302090752 METAR KATL 090752Z 32007KT 10SM CLR 01/M01 A3019 RMK AO2 SLP227 T00111011=
201302090652 METAR KATL 090652Z 30005KT 10SM CLR 02/M01 A3017 RMK AO2 SLP223 T00171011=
201302090552 METAR KATL 090552Z 33007KT 10SM CLR 02/M01 A3015 RMK AO2 SLP215 T00221011 10100 20022 58003=
201302090452 METAR KATL 090452Z 34008KT 10SM CLR 03/M01 A3015 RMK AO2 SLP214 T00331006 401280033=
201302090352 METAR KATL 090352Z 33011KT 10SM CLR 04/00 A3016 RMK AO2 SLP218 T00440000=
201302090252 METAR KATL 090252Z 33018G24KT 10SM CLR 06/01 A3016 RMK AO2 SLP216 T00610006 53028=
201302090152 METAR KATL 090152Z 33009KT 10SM CLR 08/02 A3011 RMK AO2 SLP198 T00830022=
201302090052 METAR KATL 090052Z 32008KT 10SM CLR 09/03 A3009 RMK AO2 SLP193 T00890028=
201302082352 METAR KATL 082352Z 33010KT 10SM FEW020 10/04 A3007 RMK AO2 SLP186 60000 T01000044 10128 20100 52018=
201302082252 METAR KATL 082252Z 31010KT 10SM FEW020 11/07 A3005 RMK AO2 SLP178 T01060067=
201302082204 SPECI KATL 082204Z 31011KT 10SM FEW018 SCT030 11/07 A3004 RMK AO2=
201302082152 METAR KATL 082152Z 33013KT 10SM BKN018 BKN028 11/07 A3004 RMK AO2 SLP174 T01110067=
201302082052 METAR KATL 082052Z 31010KT 10SM BKN016 BKN030 BKN080 12/08 A3002 RMK AO2 SLP167 60000 T01170078 51005=
201302082034 SPECI KATL 082034Z 30009KT 10SM BKN016 BKN030 BKN080 12/08 A3002 RMK AO2=
201302081952 METAR KATL 081952Z 32012KT 10SM BKN012 BKN015 OVC030 11/08 A3002 RMK AO2 RAB1859E11 SLP166 P0000 T01110083=
201302081852 METAR KATL 081852Z 30011KT 9SM BKN010 BKN030 OVC080 12/09 A3001 RMK AO2 RAE12 SLP165 P0000 T01170089=
201302081820 SPECI KATL 081820Z 29009KT 9SM FEW010 BKN015 OVC080 12/09 A3001 RMK AO2 RAE12 P0000=
201302081752 METAR KATL 081752Z 28008KT 8SM -RA FEW012 BKN080 BKN100 BKN200 11/09 A3000 RMK AO2 RAB03 SLP161 P0000 60000 T01110094 10117 20083 58012=
201302081705 SPECI KATL 081705Z 00000KT 8SM -RA FEW010 BKN070 OVC090 11/08 A3001 RMK AO2 RAB03 P0000=
201302081652 METAR KATL 081652Z 31005KT 8SM BKN010 BKN050 BKN070 11/08 A3001 RMK AO2 RAB30E41 SLP164 P0000 T01060078=
201302081633 SPECI KATL 081633Z 26007KT 8SM -RA BKN010 BKN050 OVC070 11/08 A3002 RMK AO2 RAB30 P0000=
201302081552 METAR KATL 081552Z 28005KT 9SM BKN008 BKN010 OVC100 09/08 A3004 RMK AO2 SLP174 T00940078=
201302081549 SPECI KATL 081549Z 29006KT 9SM BKN008 BKN010 OVC100 09/07 A3004 RMK AO2=
201302081532 SPECI KATL 081532Z 30010KT 8SM FEW008 BKN010 OVC100 09/07 A3004 RMK AO2=
201302081513 SPECI KATL 081513Z AUTO 26006KT 10SM BKN011 BKN100 11/07 A3003 RMK AO2 TSNO=
201302081452 METAR KATL 081452Z 25007KT 10SM FEW008 SCT030 SCT080 10/07 A3001 RMK AO2 SLP164 T01000072 53005=
201302081352 METAR KATL 081352Z VRB03KT 5SM BR FEW007 SCT030 SCT090 09/07 A2999 RMK AO2 SLP158 T00890072=
201302081312 SPECI KATL 081312Z 00000KT 4SM BR FEW008 BKN031 BKN100 08/07 A2999 RMK AO2=
201302081252 METAR KATL 081252Z 00000KT 4SM BR FEW007 OVC029 08/07 A3000 RMK AO2 SLP160 BINOVC T00830072=
201302081238 SPECI KATL 081238Z 00000KT 4SM BR FEW007 OVC027 08/07 A3000 RMK AO2=
201302081152 METAR KATL 081152Z 28003KT 6SM BR FEW008 OVC030 08/07 A2999 RMK AO2 SLP159 60000 70047 T00830067 10083 20078 53018=
201302081052 METAR KATL 081052Z 00000KT 7SM FEW008 OVC032 08/07 A2996 RMK AO2 SLP147 T00830067=
201302081011 SPECI KATL 081011Z 00000KT 7SM SCT008 OVC032 08/07 A2994 RMK AO2=
201302080952 METAR KATL 080952Z 06003KT 7SM FEW008 OVC029 08/07 A2993 RMK AO2 SLP139 BINOVC T00830067=
201302080924 SPECI KATL 080924Z 00000KT 7SM SCT008 OVC028 08/07 A2994 RMK AO2=
201302080852 METAR KATL 080852Z 00000KT 6SM BR BKN009 OVC028 08/07 A2994 RMK AO2 SLP141 60000 T00830067 58004=
201302080823 SPECI KATL 080823Z 11003KT 6SM BR SCT008 BKN027 OVC055 08/07 A2993 RMK AO2=
201302080752 METAR KATL 080752Z 05003KT 6SM BR BKN009 OVC050 08/07 A2994 RMK AO2 DZE47 SLP141 BKN V SCT P0000 T00830067=
201302080652 METAR KATL 080652Z 03004KT 5SM -DZ BR BKN008 OVC028 08/07 A2996 RMK AO2 DZB33 SLP147 P0000 T00830067=
201302080552 METAR KATL 080552Z 10003KT 8SM BKN008 OVC030 08/07 A2995 RMK AO2 DZE48 SLP146 CIG 006V011 P0000 60001 T00780067 10083 20078 55002=
201302080452 METAR KATL 080452Z 07009KT 7SM -DZ BKN007 OVC030 08/07 A2994 RMK AO2 RAE06DZB06 SLP143 CIG 005V010 P0000 T00780067 401170072=
201302080352 METAR KATL 080352Z 06007KT 4SM -RA BR OVC006 08/07 A2995 RMK AO2 SLP147 CIG 004V009 P0001 T00780067=
201302080252 METAR KATL 080252Z 05010KT 7SM -RA OVC009 08/06 A2996 RMK AO2 RAB41 SLP148 CIG 007V011 P0000 60000 T00830061 53005=
201302080152 METAR KATL 080152Z 07010KT 10SM OVC008 08/06 A2995 RMK AO2 SLP143 CIG 006V010 T00830061=
201302080052 METAR KATL 080052Z 08015KT 10SM OVC007 08/07 A2994 RMK AO2 RAE47 SLP139 CIG 005V009 P0000 T00830067=
201302072352 METAR KATL 072352Z 08013KT 9SM -RA OVC008 08/07 A2994 RMK AO2 RAB51 SLP140 CIG 006V010 PCPN VRY LGT P0000 60006 T00830067 10083 20072 51010=
201302072252 METAR KATL 072252Z 05011KT 8SM OVC009 08/07 A2994 RMK AO2 RAE20 SLP140 CIG 007V011 P0000 T00830067=
201302072203 SPECI KATL 072203Z 05010G16KT 6SM -RA BR FEW005 SCT007 OVC009 08/07 A2994 RMK AO2 P0000=
201302072152 METAR KATL 072152Z 02009G18KT 3SM -RA BR FEW005 BKN007 OVC010 08/07 A2994 RMK AO2 PK WND 08030/2111 SFC VIS 6 SLP141 P0001 T00830067=
201302072052 METAR KATL 072052Z 07019KT 3SM -RA BR SCT005 BKN007 OVC010 08/07 A2991 RMK AO2 SLP130 P0003 60005 T00780067 58042=
201302071952 METAR KATL 071952Z 08016KT 3SM -RA BR BKN007 BKN010 OVC020 08/06 A2996 RMK AO2 SFC VIS 4 SLP147 P0000 T00780061=
201302071852 METAR KATL 071852Z 08017KT 3SM -RA BR BKN007 BKN010 OVC030 07/06 A3000 RMK AO2 SFC VIS 4 SLP161 P0002 T00720056=
201302071813 SPECI KATL 071813Z 08017KT 4SM -RA BR BKN009 BKN012 OVC030 08/06 A3003 RMK AO2 P0000=
201302071752 METAR KATL 071752Z 08016KT 4SM -RA BR FEW008 BKN012 OVC030 07/06 A3004 RMK AO2 SLP175 P0006 60040 T00720056 10100 20072 58018=
201302071738 SPECI KATL 071738Z 08014KT 4SM -RA BR FEW008 BKN012 OVC070 07/06 A3005 RMK AO2 P0005=
201302071652 METAR KATL 071652Z 07011KT 4SM -RA BR BKN010 BKN070 OVC090 08/06 A3008 RMK AO2 SLP186 P0002 T00780056=
201302071552 METAR KATL 071552Z 08016KT 6SM -RA BR BKN012 BKN075 OVC090 07/06 A3007 RMK AO2 SLP183 P0003 T00720056=
201302071452 METAR KATL 071452Z 08012KT 5SM -RA BR FEW040 BKN070 OVC085 07/06 A3009 RMK AO2 SLP191 P0003 60029 T00720056 58003=
201302071352 METAR KATL 071352Z 06012KT 8SM -RA FEW045 OVC075 08/04 A3010 RMK AO2 SLP195 P0006 T00780044=
201302071252 METAR KATL 071252Z 04010KT 5SM -RA FEW026 SCT042 OVC055 08/04 A3012 RMK AO2 SLP202 P0020 T00780039=
201302071152 METAR KATL 071152Z 07008KT 9SM -RA SCT038 BKN055 OVC075 10/02 A3010 RMK AO2 RAB42 SLP192 P0000 60000 T01000017 10117 20094 56010=
201302071052 METAR KATL 071052Z 08006KT 10SM FEW065 OVC100 11/01 A3011 RMK AO2 SLP194 VIRGA OHD-ALQDS T01060006=
201302070952 METAR KATL 070952Z 07006KT 10SM BKN110 OVC150 11/00 A3010 RMK AO2 SLP190 VIRGA OHD-ALQDS T01110000=
201302070852 METAR KATL 070852Z 07007KT 10SM FEW050 OVC150 11/01 A3013 RMK AO2 SLP201 VIRGA OHD-ALQDS T01060006 51009=
201302070752 METAR KATL 070752Z 09003KT 10SM FEW050 BKN150 OVC250 11/00 A3013 RMK AO2 SLP201 T01060000=
201302070652 METAR KATL 070652Z 08006KT 10SM BKN160 BKN250 10/01 A3012 RMK AO2 SLP196 T01000006=
201302070552 METAR KATL 070552Z 07006KT 10SM BKN180 BKN250 11/01 A3010 RMK AO2 SLP193 T01060011 10167 20100 56011=
201302070452 METAR KATL 070452Z 08005KT 10SM SCT250 11/01 A3011 RMK AO2 SLP196 T01110006 402060061=
201302070352 METAR KATL 070352Z 09004KT 10SM BKN250 12/00 A3012 RMK AO2 SLP201 T01170000=
201302070252 METAR KATL 070252Z 00000KT 10SM BKN250 13/00 A3014 RMK AO2 SLP205 T01330000 51013=
201302070152 METAR KATL 070152Z 02008KT 10SM SCT250 15/M01 A3013 RMK AO2 SLP204 T01501006=
201302070052 METAR KATL 070052Z 01007KT 10SM FEW250 15/M01 A3013 RMK AO2 SLP202 T01501006=
201302062352 METAR KATL 062352Z 02007KT 10SM FEW250 17/M02 A3010 RMK AO2 SLP192 T01671017 10206 20167 58002=
201302062252 METAR KATL 062252Z 32003KT 10SM FEW250 18/M02 A3011 RMK AO2 SLP194 T01781017=
201302062152 METAR KATL 062152Z 32006KT 10SM BKN250 20/M01 A3011 RMK AO2 SLP195 T02001011=
201302062052 METAR KATL 062052Z 32007KT 10SM FEW250 21/M01 A3010 RMK AO2 SLP193 T02061011 56021=
201302061952 METAR KATL 061952Z 00000KT 10SM FEW250 19/M02 A3013 RMK AO2 SLP200 T01891017=
201302061852 METAR KATL 061852Z 36006KT 10SM CLR 19/M01 A3014 RMK AO2 SLP205 T01941011=
201302061752 METAR KATL 061752Z 00000KT 10SM CLR 17/M01 A3017 RMK AO2 SLP215 T01721006 10178 20061 58002=
201302061652 METAR KATL 061652Z VRB04KT 10SM CLR 16/01 A3018 RMK AO2 SLP218 T01610011=
201302061552 METAR KATL 061552Z 05005KT 10SM CLR 14/03 A3019 RMK AO2 SLP222 T01390033=
201302061452 METAR KATL 061452Z 33003KT 8SM FEW010 11/08 A3018 RMK AO2 SLP219 T01060078 51018=
201302061418 SPECI KATL 061418Z 36003KT 3SM BR BCFG FEW002 08/07 A3017 RMK AO2 SFC VIS 4=
201302061411 SPECI KATL 061411Z 01004KT 2SM BR BCFG FEW002 08/07 A3016 RMK AO2 SFC VIS 3=
201302061402 SPECI KATL 061402Z 01004KT 1SM BR FEW002 08/07 A3016 RMK AO2 SFC VIS 2 1/2=
201302061352 METAR KATL 061352Z 32003KT 3/4SM R09R/4500VP6000FT BR FEW002 07/07 A3016 RMK AO2 SLP215 T00720067=
201302061332 SPECI KATL 061332Z 32004KT 3/4SM R09R/P6000FT BR SCT002 07/06 A3015 RMK AO2 SFC VIS 1=
201302061326 SPECI KATL 061326Z 33004KT 4SM BR SCT002 07/06 A3015 RMK AO2 VIS N-E & NW-N 3/4=
201302061310 SPECI KATL 061310Z 32003KT 3/4SM R09R/1200VP6000FT BR SCT002 06/06 A3015 RMK AO2=
201302061300 SPECI KATL 061300Z 34003KT 3/4SM R09R/1000V2000FT BR SCT002 06/06 A3014 RMK AO2=
201302061252 METAR KATL 061252Z 30003KT 3/4SM R09R/1000V4000FT BR SCT002 06/06 A3014 RMK AO2 SLP208 T00610056=
201302061250 SPECI KATL 061250Z 30004KT 3/4SM R09R/1000V4000FT BR SCT002 06/06 A3014 RMK AO2=
201302061225 SPECI KATL 061225Z 33005KT 1/4SM R09R/1600V3500FT FG BKN002 07/06 A3013 RMK AO2=
201302061210 SPECI KATL 061210Z 32005KT 1/4SM R09R/1200V1800FT FG BKN002 07/07 A3013 RMK AO2=
201302061152 METAR KATL 061152Z 32004KT 1/8SM R09R/1000V1200FT FG VV001 07/07 A3012 RMK AO2 SLP201 T00720067 10106 20061 53019=
201302061141 SPECI KATL 061141Z 30005KT 1/16SM R09R/1000FT FG VV001 08/07 A3012 RMK AO2=
201302061052 METAR KATL 061052Z 30004KT 1/8SM R09R/0700V1600FT FG VV002 08/07 A3009 RMK AO2 SLP191 T00780067=
201302061049 SPECI KATL 061049Z 29004KT 1/8SM R09R/1200V1800FT FG VV002 08/07 A3009 RMK AO2=
201302061026 SPECI KATL 061026Z 27003KT 1/2SM R09R/0800V1200FT FG BKN003 07/07 A3008 RMK AO2 CIG 002V005=
201302061009 SPECI KATL 061009Z 30005KT 2SM R09R/1000V1400FT BR BCFG FEW003 07/06 A3008 RMK AO2 VIS S-W 3/4=
201302060952 METAR KATL 060952Z 00000KT 4SM R09R/2600VP6000FT BR BCFG FEW005 08/07 A3007 RMK AO2 SLP185 VIS S-W 1 T00780072=
201302060852 METAR KATL 060852Z 26003KT 5SM BR FEW005 07/06 A3006 RMK AO2 SLP181 VIS LWR S-W T00720061 51007=
201302060752 METAR KATL 060752Z 20003KT 8SM FEW040 08/07 A3006 RMK AO2 SLP178 T00830072=
201302060652 METAR KATL 060652Z 30004KT 10SM FEW040 11/09 A3005 RMK AO2 SLP176 T01060089=
201302060552 METAR KATL 060552Z 32005KT 10SM SCT032 BKN045 11/09 A3004 RMK AO2 SLP173 T01060089 10144 20106 51004=
201302060452 METAR KATL 060452Z 31006KT 10SM BKN040 11/09 A3004 RMK AO2 SLP172 T01110089 401670039=
201302060352 METAR KATL 060352Z 29005KT 10SM FEW045 12/09 A3003 RMK AO2 SLP171 T01170089=
201302060252 METAR KATL 060252Z 32004KT 10SM FEW050 SCT075 12/09 A3003 RMK AO2 SLP170 T01170089 51015=
201302060152 METAR KATL 060152Z 31005KT 10SM SCT050 BKN085 12/09 A3002 RMK AO2 SLP166 T01220089=
201302060052 METAR KATL 060052Z 00000KT 10SM BKN047 BKN060 14/09 A3000 RMK AO2 SLP159 T01390089=
201302052352 METAR KATL 052352Z 00000KT 10SM SCT045 BKN060 BKN075 14/09 A2998 RMK AO2 SLP154 T01440089 10167 20144 55000=
201302052252 METAR KATL 052252Z 24005KT 10SM BKN047 BKN060 16/08 A2997 RMK AO2 SLP151 T01560083=
201302052152 METAR KATL 052152Z 25005KT 10SM BKN047 BKN060 16/08 A2998 RMK AO2 SLP153 T01560083=
201302052052 METAR KATL 052052Z 26007KT 10SM FEW030 BKN060 BKN080 16/08 A2998 RMK AO2 SLP154 T01560083 56005=
201302051952 METAR KATL 051952Z 29008KT 10SM BKN030 BKN060 BKN090 16/08 A2999 RMK AO2 SLP157 T01560083=
201302051852 METAR KATL 051852Z 26006KT 10SM BKN027 BKN050 OVC085 15/08 A3000 RMK AO2 SLP161 T01500078=
201302051838 SPECI KATL 051838Z 29006KT 10SM BKN027 BKN050 BKN085 15/08 A3001 RMK AO2=
201302051752 METAR KATL 051752Z 32004KT 10SM FEW023 SCT060 BKN080 14/07 A3002 RMK AO2 SLP168 60000 T01440067 10144 20067 58002=
201302051652 METAR KATL 051652Z 28009KT 10SM FEW020 SCT060 BKN090 13/06 A3004 RMK AO2 SLP175 T01330056=
201302051552 METAR KATL 051552Z 27007KT 10SM BKN045 BKN060 BKN090 11/04 A3004 RMK AO2 SLP175 T01110044=
201302051452 METAR KATL 051452Z COR 25004KT 10SM FEW035 BKN060 OVC085 10/03 A3003 RMK AO2 SLP171 BINOVC E 60000 T01000033 51014=
201302051352 METAR KATL 051352Z 00000KT 9SM BKN040 OVC070 08/02 A3002 RMK AO2 SLP169 T00780017=
201302051252 METAR KATL 051252Z 24003KT 8SM BKN040 OVC070 07/01 A3001 RMK AO2 RAB29E41 SLP164 P0000 T00720006=
201302051152 METAR KATL 051152Z 22003KT 10SM SCT046 BKN060 OVC080 07/00 A2999 RMK AO2 SLP157 T00670000 10067 20039 53005=
201302051052 METAR KATL 051052Z 00000KT 10SM BKN080 06/M01 A2998 RMK AO2 SLP154 T00561006=
201302050952 METAR KATL 050952Z 19003KT 10SM FEW060 BKN090 05/M01 A2996 RMK AO2 SLP149 T00501011=
201302050852 METAR KATL 050852Z 00000KT 10SM SCT100 BKN200 05/M02 A2997 RMK AO2 SLP152 T00501017 58006=
201302050752 METAR KATL 050752Z 00000KT 10SM BKN100 OVC200 06/M02 A2998 RMK AO2 SLP154 T00561017=
201302050652 METAR KATL 050652Z 00000KT 10SM BKN100 BKN200 04/M01 A2999 RMK AO2 SLP159 T00441011=
201302050552 METAR KATL 050552Z 00000KT 10SM FEW110 SCT200 06/M01 A2999 RMK AO2 SLP159 T00561006 10094 20050 56016=
201302050452 METAR KATL 050452Z 00000KT 10SM BKN110 BKN250 07/M01 A3000 RMK AO2 SLP164 T00671011 401110006=
201302050352 METAR KATL 050352Z 00000KT 10SM BKN120 BKN150 OVC250 07/M01 A3002 RMK AO2 SLP171 T00671011=
201302050252 METAR KATL 050252Z 00000KT 10SM BKN140 BKN200 07/M02 A3004 RMK AO2 SLP177 T00721017 53003=
201302050152 METAR KATL 050152Z 00000KT 10SM BKN140 BKN200 08/M02 A3004 RMK AO2 SLP176 T00831022=
201302050052 METAR KATL 050052Z 16004KT 10SM BKN140 OVC200 09/M02 A3003 RMK AO2 SLP173 T00891022=
201302042352 METAR KATL 042352Z 00000KT 10SM BKN150 OVC200 09/M02 A3003 RMK AO2 SLP175 T00941017 10111 20083 53002=
201302042252 METAR KATL 042252Z 21004KT 10SM FEW150 SCT200 BKN250 10/M03 A3003 RMK AO2 SLP172 T01001033=
201302042152 METAR KATL 042152Z 17007KT 10SM FEW120 BKN150 BKN200 11/M03 A3001 RMK AO2 SLP166 VIRGA N-NE & SE-S & NW T01061033=
201302042052 METAR KATL 042052Z 19005KT 10SM FEW120 BKN150 OVC200 11/M03 A3003 RMK AO2 SLP172 VIRGA SE-NW T01111033 56020=
201302041952 METAR KATL 041952Z 16005KT 10SM BKN150 BKN180 OVC200 11/M03 A3003 RMK AO2 SLP175 VIRGA ALQDS T01061033=
201302041852 METAR KATL 041852Z 00000KT 10SM BKN150 BKN180 OVC200 09/M03 A3006 RMK AO2 SLP185 VIRGA ALQDS T00941033=
201302041752 METAR KATL 041752Z 00000KT 10SM BKN150 BKN180 OVC200 08/M04 A3009 RMK AO2 SLP193 VIRGA N-NE & SW-NW BINOVC DSNT S T00831044 10083 20006 58008=
201302041652 METAR KATL 041652Z 00000KT 10SM FEW120 BKN150 OVC200 07/M03 A3012 RMK AO2 SLP203 VIRGA DSNT NW T00721033=
201302041552 METAR KATL 041552Z 32003KT 10SM FEW120 BKN150 OVC200 06/M03 A3011 RMK AO2 SLP201 VIRGA N-NE-E & SW-W-NW BINOVC DSNT S T00561028=
201302041452 METAR KATL 041452Z 34004KT 10SM BKN150 BKN180 OVC200 04/M03 A3011 RMK AO2 SLP201 VIRGA ALQDS T00391033 51012=
201302041352 METAR KATL 041352Z 33004KT 10SM SCT150 BKN200 OVC250 03/M04 A3010 RMK AO2 SLP198 VIRGA W T00281039=
201302041252 METAR KATL 041252Z 32004KT 10SM SCT180 BKN250 01/M03 A3009 RMK AO2 SLP195 T00111033=
201302041152 METAR KATL 041152Z 31003KT 10SM FEW180 BKN220 01/M03 A3008 RMK AO2 SLP190 T00061033 10039 20006 55000=
201302041052 METAR KATL 041052Z 30005KT 10SM SCT180 BKN250 01/M03 A3007 RMK AO2 SLP189 T00061033=
201302040952 METAR KATL 040952Z 31004KT 10SM SCT250 01/M04 A3006 RMK AO2 SLP184 T00061039=
201302040852 METAR KATL 040852Z 29005KT 10SM CLR 01/M03 A3008 RMK AO2 SLP188 T00111033 56004=
201302040752 METAR KATL 040752Z 32006KT 10SM CLR 02/M03 A3008 RMK AO2 SLP189 T00171033=
201302040652 METAR KATL 040652Z 33008KT 10SM FEW250 03/M03 A3008 RMK AO2 SLP189 T00281028=
201302040552 METAR KATL 040552Z 33009KT 10SM SCT250 04/M03 A3009 RMK AO2 SLP191 T00391028 10094 20039 50004=
201302040452 METAR KATL 040452Z 33008KT 10SM SCT250 06/M03 A3009 RMK AO2 SLP193 T00561028 401440006=
201302040352 METAR KATL 040352Z 32004KT 10SM BKN250 06/M04 A3008 RMK AO2 SLP190 T00561039=
201302040252 METAR KATL 040252Z 30006KT 10SM SCT250 07/M04 A3008 RMK AO2 SLP189 T00671039 50008=
201302040152 METAR KATL 040152Z 30006KT 10SM FEW250 08/M04 A3008 RMK AO2 SLP190 T00781044=
201302040052 METAR KATL 040052Z 31011KT 10SM FEW250 09/M04 A3006 RMK AO2 SLP183 T00891039=
201302032352 METAR KATL 032352Z 31008KT 10SM CLR 09/M04 A3005 RMK AO2 SLP181 T00941039 10144 20094 53017=
201302032252 METAR KATL 032252Z 31014KT 10SM FEW003 12/M05 A3003 RMK AO2 SLP173 FU FEW003 T01171050=
201302032152 METAR KATL 032152Z 28016G23KT 10SM FEW004 13/M04 A3002 RMK AO2 PK WND 31028/2109 SLP168 FU FEW004 T01331039=
201302032052 METAR KATL 032052Z 31013G19KT 10SM CLR 14/M03 A3000 RMK AO2 SLP161 T01391033 55012=
201302031952 METAR KATL 031952Z 29017G29KT 10SM FEW060 14/M02 A3000 RMK AO2 PK WND 30030/1904 SLP161 T01391022=
201302031852 METAR KATL 031852Z 27015G28KT 10SM FEW060 14/M02 A3000 RMK AO2 PK WND 28028/1847 SLP160 T01391017=
201302031752 METAR KATL 031752Z 28017G26KT 10SM FEW045 13/01 A3003 RMK AO2 PK WND 27029/1736 SLP173 T01280011 10128 20011 58018=
201302031652 METAR KATL 031652Z 27014G24KT 10SM FEW035 11/02 A3006 RMK AO2 SLP183 T01110017=
201302031552 METAR KATL 031552Z 26014G21KT 10SM CLR 09/01 A3008 RMK AO2 SLP189 T00940011=
201302031452 METAR KATL 031452Z 27013G21KT 10SM FEW100 07/02 A3009 RMK AO2 SLP194 T00670017 56006=
201302031352 METAR KATL 031352Z 25007KT 10SM FEW040 04/01 A3009 RMK AO2 SLP196 T00440011=
201302031252 METAR KATL 031252Z 24005KT 8SM FEW040 02/01 A3010 RMK AO2 SLP200 T00170006=
201302031152 METAR KATL 031152Z 26005KT 8SM CLR 01/00 A3011 RMK AO2 SLP202 70014 T00110000 10033 20006 55000=
201302031052 METAR KATL 031052Z 28004KT 9SM CLR 01/00 A3010 RMK AO2 SLP198 T00110000=
201302030952 METAR KATL 030952Z 28005KT 10SM CLR 02/01 A3010 RMK AO2 SLP198 T00170006=
201302030852 METAR KATL 030852Z COR 29007KT 10SM CLR 02/01 A3011 RMK AO2 SLP202 58004 T00220006=
201302030805 SPECI KATL 030805Z 28003KT 10SM CLR 02/01 A3011 RMK AO2=
201302030752 METAR KATL 030752Z 30006KT 10SM CLR 02/01 A3012 RMK AO2 SLP209 T00220011=
201302030652 METAR KATL 030652Z 29007KT 10SM CLR 03/02 A3013 RMK AO2 SLP209 T00280017=
201302030552 METAR KATL 030552Z 30007KT 8SM CLR 03/03 A3012 RMK AO2 SLP204 58010 60012 T00330028 10067 20033=
201302030514 SPECI KATL 030514Z 30008KT 5SM BR BCFG SCT002 04/03 A3013 RMK AO2 VIS S 1=
201302030452 METAR KATL 030452Z 32009KT 1SM R09R/5500VP6000FT BR BCFG BKN002 BKN035 04/03 A3013 RMK AO2 SFC VIS 1 1/2 SLP212 T00390028 401220033=
201302030448 SPECI KATL 030448Z 32007KT 1SM R09R/5500VP6000FT BR BCFG SCT002 SCT035 03/03 A3013 RMK AO2 SFC VIS 2 VIS E 3 W 1 401220033=
201302030432 SPECI KATL 030432Z 32007KT 6SM BR BCFG FEW001 SCT035 03/03 A3013 RMK AO2 VIS LWR NW=
201302030352 METAR KATL 030352Z COR 30005KT 8SM FEW035 04/03 A3013 RMK AO2 SLP206 T00390033=
201302030252 METAR KATL 030252Z 00000KT 9SM FEW100 05/03 A3013 RMK AO2 SLP207 60012 T00500033=
201302030152 METAR KATL 030152Z 21004KT 10SM FEW060 BKN095 05/04 A3013 RMK AO2 RAE26 SLP211 P0001 T00500039=
201302030052 METAR KATL 030052Z 28004KT 7SM -RA FEW027 BKN034 OVC055 06/04 A3016 RMK AO2 SLP222 P0011 T00560039=
201302030020 SPECI KATL 030020Z 32008KT 3SM RA BKN025 OVC038 06/03 A3017 RMK AO2 P0004=
201302022352 METAR KATL 022352Z COR 31008KT 8SM -RA SCT032 OVC044 07/03 A3016 RMK AO2 SLP221 VIS LWR N-NE P0002 60002 T00670028=
201302022340 SPECI KATL 022340Z 31011KT 7SM -RA BKN027 OVC046 07/03 A3017 RMK AO2 VIS LWR NW P0002=
201302022252 METAR KATL 022252Z 25012G21KT 9SM -RA SCT034 BKN055 BKN085 11/M03 A3013 RMK AO2 RAB49 SLP206 P0000 T01061028=
201302022152 METAR KATL 022152Z 19004KT 10SM FEW060 BKN100 BKN250 12/M07 A3011 RMK AO2 SLP136 T01171072=
201302022052 METAR KATL 022052Z 23009KT 10SM BKN060 BKN250 13/M12 A3015 RMK AO2 SLP160 T01261123 57037=
201302021952 METAR KATL 021952Z 24007KT 10SM BKN060 BKN100 12/M13 A3017 RMK A02 SLP192 T011191134=
201302021852 METAR KATL 021852Z AUTO RMK AO2 SLPNO PWINO FZRANO TSNO RVRNO $=
201302021752 METAR KATL 021752Z 28003KT 10SM FEW080 07/M11 A3026 RMK A02 SLP283 T00721111 10112 21000 57017=
201302021653 METAR KATL 021653Z 21008KT 10SM FEW080 11/M17 A3028 RMK AO2 SLP282 T01121167=
201302021554 METAR KATL 021554Z 16005KT 10SM FEW080 08/M15 A3030 RMK A02 SLP270 T00751155=
201302021452 METAR KATL 021452Z 10004KT 10SM FEW100 04/M12 A3031 RMK A02 SLP276 T00401120 58002=
201302021352 METAR KATL 021352Z 10006KT 10SM FEW250 00/M14 A3032 RMK AO2 SLP280 T00140000=
201302021252 METAR KATL 021252Z 00000KT 10SM FEW250 01/M11 A3033 RMK AO2 SLP282 T00141114=
201302021152 METAR KATL 021152Z 00000KT 10SM CLR M01/M11 A3032 RMK A02 SLP278 T10111114 11011 21026 55000=
201302021052 METAR KATL 021052Z 00000KT 10SM CLR M02/M08 A3031 RMK AO2 SLP276 T10161079=
201302020952 METAR KATL 020952Z 00000KT 10SM CLR M03/M11 A3032 RMK AO2 SLP276 T10261111=
201302020852 METAR KATL 020852Z 00000KT 10SM CLR M02/M11 A3032 RMK AO2 SLP276 T10171111=
201302020752 METAR KATL 020752Z 00000KT 10SM CLR M02/M11 A3033 RMK AO2 SLP279 T10171111=
201302020652 METAR KATL 020652Z 00000KT 10SM CLR M01/M12 A3034 RMK AO2 SLP282 T10111117=
201302020552 METAR KATL 020552Z 00000KT 10SM FEW250 M01/M12 A3034 RMK AO2 SLP283 T10111117 10022 21011 58001=
201302020452 METAR KATL 020452Z 01004KT 10SM CLR 00/M12 A3034 RMK AO2 SLP283 T00001122 400670000=
201302020352 METAR KATL 020352Z 02005KT 10SM CLR 01/M12 A3035 RMK AO2 SLP286 T00061122=
201302020252 METAR KATL 020252Z 01007KT 10SM CLR 01/M12 A3035 RMK AO2 SLP285 T00061122 50003=
201302020152 METAR KATL 020152Z 33005KT 10SM CLR 01/M12 A3035 RMK AO2 SLP285 T00111122=
201302020052 METAR KATL 020052Z 33006KT 10SM CLR 02/M13 A3035 RMK AO2 SLP284 T00171128=
201302012352 METAR KATL 012352Z 33005KT 10SM CLR 02/M13 A3033 RMK AO2 SLP279 T00221128 10056 20022 53005=
201302012252 METAR KATL 012252Z 33008KT 10SM FEW250 04/M14 A3033 RMK AO2 SLP277 T00391139=
201302012152 METAR KATL 012152Z 30007KT 10SM FEW250 05/M13 A3032 RMK AO2 SLP273 T00501133=
201302012052 METAR KATL 012052Z 31010KT 10SM FEW250 06/M12 A3032 RMK AO2 SLP272 T00561117 56006=
201302011952 METAR KATL 011952Z 35013G21KT 10SM FEW250 05/M13 A3033 RMK AO2 SLP275 T00501128=
201302011852 METAR KATL 011852Z 30007KT 280V340 10SM FEW250 04/M13 A3032 RMK AO2 SLP273 T00441128=
201302011752 METAR KATL 011752Z 33018G22KT 10SM FEW250 04/M14 A3034 RMK AO2 SLP280 T00391139 10044 20017 50010=
201302011652 METAR KATL 011652Z 35014G20KT 10SM FEW250 04/M11 A3035 RMK AO2 PK WND 34026/1614 SLP282 T00391111=
201302011552 METAR KATL 011552Z 32012G18KT 10SM SCT250 03/M09 A3034 RMK AO2 SLP279 T00331089=
201302011452 METAR KATL 011452Z 34015G23KT 10SM SCT250 02/M09 A3031 RMK AO2 SLP270 T00221094 51040=
201302011352 METAR KATL 011352Z 33018G24KT 10SM FEW038 SCT250 02/M07 A3027 RMK AO2 SLP257 T00221067=
201302011252 METAR KATL 011252Z 31016G23KT 10SM FEW036 SCT250 03/M07 A3023 RMK AO2 PK WND 31030/1215 SLP243 T00281067=
