##########################################################
# Query made at 04/19/2024 23:33:01 UTC
# Time interval: from 05/01/2013 12:00  to 05/31/2013 12:59  UTC
##########################################################

##########################################################
# KATL, Atlanta, Hartsfield - Jackson Atlanta International Airport (United States)
# WMO index: 72219. WIGOS ID: 0-20000-0-72219
# Latitude 33-38-59N. Longitude 084-25-00W. Altitude 312 m.
##########################################################

201305311252 METAR KATL 311252Z 17011G14KT 10SM BKN013 BKN250 22/19 A3021 RMK AO2 SLP222 T02220189=
201305311152 METAR KATL 311152Z 15007KT 9SM BKN014 BKN250 22/19 A3019 RMK AO2 SLP215 T02170189 10228 20206 51015=
201305311052 METAR KATL 311052Z 14007KT 9SM BKN014 BKN250 21/18 A3018 RMK AO2 SLP210 T02110183=
201305310952 METAR KATL 310952Z 14007KT 10SM OVC010 21/18 A3016 RMK AO2 SLP204 BINOVC T02110183=
201305310852 METAR KATL 310852Z 13006KT 10SM OVC010 21/18 A3015 RMK AO2 SLP199 BINOVC T02060178 56011=
201305310842 SPECI KATL 310842Z 12005KT 10SM BKN011 21/18 A3014 RMK AO2=
201305310752 METAR KATL 310752Z 14006KT 10SM FEW250 21/18 A3015 RMK AO2 SLP201 T02110178=
201305310652 METAR KATL 310652Z 15008KT 10SM FEW250 22/18 A3017 RMK AO2 SLP207 T02170178=
201305310552 METAR KATL 310552Z 15008KT 10SM SCT250 23/18 A3018 RMK AO2 SLP211 T02280178 10272 20228 50009=
201305310452 METAR KATL 310452Z 15008KT 10SM SCT250 24/18 A3018 RMK AO2 SLP212 T02390178 403000200=
201305310352 METAR KATL 310352Z 12008KT 10SM FEW250 24/18 A3016 RMK AO2 SLP204 T02440183=
201305310252 METAR KATL 310252Z 10007KT 10SM SCT050 SCT250 24/18 A3016 RMK AO2 SLP203 T02440183 53007=
201305310152 METAR KATL 310152Z 09007KT 10SM FEW200 BKN250 25/18 A3014 RMK AO2 SLP198 T02500183=
201305310052 METAR KATL 310052Z 11006KT 10SM SCT200 BKN250 26/18 A3013 RMK AO2 SLP195 T02610178=
201305302352 METAR KATL 302352Z 12008KT 10SM BKN200 BKN250 27/18 A3013 RMK AO2 SLP195 T02720178 10300 20272 56003=
201305302252 METAR KATL 302252Z 12008KT 10SM FEW045 BKN200 BKN250 28/17 A3014 RMK AO2 SLP197 T02830172=
201305302152 METAR KATL 302152Z 10011KT 10SM SCT045 BKN200 BKN250 28/17 A3014 RMK AO2 SLP196 T02830172=
201305302052 METAR KATL 302052Z 14011G16KT 10SM FEW048 BKN200 BKN250 29/16 A3014 RMK AO2 SLP197 TCU DSNT E & DSNT W-NW T02940156 58019=
201305301952 METAR KATL 301952Z 13011G18KT 10SM FEW050TCU SCT200 BKN250 29/17 A3016 RMK AO2 SLP205 TCU S-SW-W T02890167=
201305301852 METAR KATL 301852Z 14010KT 10SM SCT040TCU SCT200 BKN250 28/18 A3018 RMK AO2 SLP211 TCU SE-S-SW-W-NW T02830178=
201305301752 METAR KATL 301752Z 10008KT 10SM SCT035TCU SCT200 BKN250 27/18 A3020 RMK AO2 SLP217 TCU S-NW T02720178 10283 20211 58012=
201305301652 METAR KATL 301652Z 13006G14KT 10SM SCT035 SCT200 BKN250 27/18 A3022 RMK AO2 SLP223 T02720183=
201305301552 METAR KATL 301552Z 12007KT 10SM BKN030TCU BKN250 25/18 A3024 RMK AO2 SLP230 TCU OHD-SE-S & ALQDS T02500183=
201305301520 SPECI KATL 301520Z 14004KT 10SM BKN030TCU BKN250 25/18 A3024 RMK AO2 TCU ALQDS=
201305301452 METAR KATL 301452Z 14006KT 10SM BKN020TCU BKN250 24/18 A3024 RMK AO2 SLP231 TCU ALQDS T02390183 50000=
201305301352 METAR KATL 301352Z 14006KT 10SM SCT017 BKN027 BKN250 23/19 A3025 RMK AO2 SLP235 T02280189=
201305301252 METAR KATL 301252Z 13008KT 9SM BKN013 BKN020 BKN250 22/19 A3025 RMK AO2 SLP234 T02220189=
201305301231 SPECI KATL 301231Z 14006KT 9SM BKN012 BKN022 BKN250 22/19 A3024 RMK AO2=
201305301152 METAR KATL 301152Z 12005KT 9SM FEW009 BKN019 BKN250 21/18 A3024 RMK AO2 SLP231 BINOVC T02110183 10222 20200 51016=
201305301116 SPECI KATL 301116Z 14006KT 9SM SCT009 OVC015 21/18 A3023 RMK AO2 BINOVC=
201305301052 METAR KATL 301052Z 16007KT 9SM OVC009 21/18 A3023 RMK AO2 SLP227 T02060183=
201305300952 METAR KATL 300952Z 14006KT 9SM BKN009 OVC060 21/18 A3021 RMK AO2 SLP220 BINOVC T02060183=
201305300944 SPECI KATL 300944Z 14006KT 9SM OVC009 21/18 A3020 RMK AO2=
201305300924 SPECI KATL 300924Z 14004KT 10SM BKN010 BKN060 BKN250 20/18 A3020 RMK AO2=
201305300859 SPECI KATL 300859Z 12007KT 10SM SCT010 BKN250 21/18 A3019 RMK AO2=
201305300852 METAR KATL 300852Z 13005KT 10SM BKN010 BKN250 21/18 A3019 RMK AO2 SLP214 T02060178 53009=
201305300845 SPECI KATL 300845Z 13005KT 10SM BKN010 BKN250 21/18 A3019 RMK AO2=
201305300752 METAR KATL 300752Z 14005KT 10SM SCT250 21/18 A3017 RMK AO2 SLP208 T02110178=
201305300652 METAR KATL 300652Z 16008G16KT 10SM SCT250 22/17 A3017 RMK AO2 SLP206 T02170172=
201305300552 METAR KATL 300552Z 15008G15KT 10SM BKN250 22/17 A3016 RMK AO2 SLP205 T02220167 10278 20222 53001=
201305300452 METAR KATL 300452Z 14007KT 10SM BKN250 23/17 A3016 RMK AO2 SLP203 T02280167 402890178=
201305300352 METAR KATL 300352Z 13006KT 10SM FEW250 23/17 A3016 RMK AO2 SLP204 T02330167=
201305300252 METAR KATL 300252Z 11007KT 10SM FEW250 24/17 A3016 RMK AO2 SLP204 T02440167 53007=
201305300152 METAR KATL 300152Z 12006KT 10SM FEW250 25/17 A3015 RMK AO2 SLP201 T02500172=
201305300052 METAR KATL 300052Z 12004KT 10SM FEW250 26/17 A3014 RMK AO2 SLP199 T02610167=
201305292352 METAR KATL 292352Z 12009KT 10SM FEW045 SCT250 28/17 A3014 RMK AO2 SLP197 T02780167 10289 20261 56008=
201305292252 METAR KATL 292252Z 14008KT 10SM FEW045 SCT250 28/16 A3014 RMK AO2 SLP197 T02830161=
201305292152 METAR KATL 292152Z 14009KT 10SM SCT045 SCT250 28/16 A3015 RMK AO2 SLP202 T02830161=
201305292052 METAR KATL 292052Z 16009KT 10SM SCT047TCU SCT250 28/16 A3016 RMK AO2 SLP205 TCU OHD-S & W & NW T02780161 56016=
201305291952 METAR KATL 291952Z 10006KT 10SM SCT050 SCT250 28/16 A3017 RMK AO2 SLP208 T02830161=
201305291852 METAR KATL 291852Z 12010KT 10SM FEW048 SCT250 28/15 A3019 RMK AO2 SLP214 T02780150=
201305291752 METAR KATL 291752Z 09010KT 10SM FEW045 SCT250 27/16 A3021 RMK AO2 SLP221 T02670156 10272 20194 58009=
201305291652 METAR KATL 291652Z 09007KT 10SM SCT030 26/17 A3024 RMK AO2 SLP230 T02560167=
201305291633 SPECI KATL 291633Z 15008KT 10SM SCT026 BKN031 24/16 A3024 RMK AO2=
201305291552 METAR KATL 291552Z 08006KT 10SM BKN020 24/18 A3024 RMK AO2 SLP233 T02390178=
201305291452 METAR KATL 291452Z VRB04KT 10SM BKN016 23/18 A3024 RMK AO2 SLP231 T02280178 51009=
201305291352 METAR KATL 291352Z VRB05KT 10SM OVC012 21/18 A3023 RMK AO2 SLP230 T02110178=
201305291300 SPECI KATL 291300Z 12005KT 8SM OVC010 21/17 A3023 RMK AO2=
201305291252 METAR KATL 291252Z VRB06KT 8SM OVC009 20/17 A3022 RMK AO2 SLP227 T02000172=
201305291202 SPECI KATL 291202Z 13006KT 8SM OVC008 19/17 A3021 RMK AO2=
201305291152 METAR KATL 291152Z 13005KT 9SM OVC010 19/17 A3021 RMK AO2 SLP221 T01940167 10217 20178 53010=
201305291120 SPECI KATL 291120Z 12005KT 9SM BKN011 18/16 A3020 RMK AO2=
201305291052 METAR KATL 291052Z COR 09007KT 10SM FEW011 18/16 A3020 RMK AO2 SLP218 T01780156=
201305290952 METAR KATL 290952Z 12004KT 10SM CLR 19/16 A3019 RMK AO2 SLP213 T01890156=
201305290852 METAR KATL 290852Z 13005KT 10SM CLR 19/16 A3018 RMK AO2 SLP211 T01890156 53010=
201305290752 METAR KATL 290752Z 15006KT 10SM CLR 20/16 A3017 RMK AO2 SLP208 T02000156=
201305290652 METAR KATL 290652Z 16007KT 10SM CLR 21/16 A3015 RMK AO2 SLP202 T02060156=
201305290552 METAR KATL 290552Z 16011KT 10SM CLR 22/16 A3015 RMK AO2 SLP199 T02170156 10267 20217 58006=
201305290452 METAR KATL 290452Z 14007KT 10SM CLR 22/16 A3016 RMK AO2 SLP204 T02220161 402940183=
201305290352 METAR KATL 290352Z 09005KT 10SM CLR 23/16 A3017 RMK AO2 SLP206 T02330156=
201305290252 METAR KATL 290252Z 00000KT 10SM CLR 23/16 A3017 RMK AO2 SLP206 T02330156 52004=
201305290152 METAR KATL 290152Z 14003KT 10SM CLR 24/14 A3016 RMK AO2 SLP204 T02440144=
201305290052 METAR KATL 290052Z 15005KT 10SM FEW065 26/14 A3016 RMK AO2 SLP203 T02560139=
201305282352 METAR KATL 282352Z 14007KT 10SM FEW065 27/13 A3015 RMK AO2 SLP201 T02670128 10294 20267 53000=
201305282252 METAR KATL 282252Z 19008KT 10SM FEW070 27/11 A3014 RMK AO2 SLP199 T02720106=
201305282152 METAR KATL 282152Z 15012G17KT 10SM FEW070 28/08 A3015 RMK AO2 SLP200 T02830083=
201305282052 METAR KATL 282052Z 12008KT 10SM FEW070 SCT150 SCT200 29/12 A3015 RMK AO2 SLP201 T02890117 58008=
201305281952 METAR KATL 281952Z 14011G15KT 10SM FEW060 SCT150 BKN200 29/13 A3016 RMK AO2 SLP203 T02890128=
201305281852 METAR KATL 281852Z COR 17010G14KT 10SM FEW060 SCT150 SCT200 28/13 A3017 RMK AO2 SLP206 T02830128 $=
201305281752 METAR KATL 281752Z COR 11005KT 10SM FEW055 SCT150 SCT200 28/14 A3018 RMK AO2 SLP209 T02780139 10289 20194 58013 $=
201305281652 METAR KATL 281652Z 18008KT 10SM FEW050 SCT150 SCT200 27/15 A3020 RMK AO2 SLP217 T02720150 $=
201305281552 METAR KATL 281552Z 12005KT 10SM FEW040 SCT150 SCT200 26/17 A3021 RMK AO2 SLP221 T02610167 $=
201305281452 METAR KATL 281452Z 00000KT 10SM FEW070 SCT150 SCT200 24/17 A3022 RMK AO2 SLP223 T02440167 53001=
201305281352 METAR KATL 281352Z 19005KT 10SM FEW070 SCT150 SCT200 23/16 A3021 RMK AO2 SLP222 T02280156=
201305281252 METAR KATL 281252Z 20006KT 10SM FEW070 SCT200 21/16 A3021 RMK AO2 SLP222 T02110156=
201305281152 METAR KATL 281152Z 16003KT 10SM FEW065 SCT220 19/15 A3021 RMK AO2 SLP222 T01940150 10228 20183 51018=
201305281052 METAR KATL 281052Z 00000KT 10SM SCT065 BKN150 BKN220 18/14 A3020 RMK AO2 SLP217 T01830144=
201305280952 METAR KATL 280952Z COR 18005KT 10SM FEW070 SCT180 BKN220 19/14 A3017 RMK AO2 SLP209 T01890144 $=
201305280852 METAR KATL 280852Z 18008KT 10SM FEW120 SCT180 BKN220 20/14 A3016 RMK AO2 SLP202 T02000144 55002 $=
201305280752 METAR KATL 280752Z 18009KT 10SM FEW070 BKN200 21/14 A3015 RMK AO2 SLP201 T02110139 $=
201305280652 METAR KATL 280652Z 17011G17KT 10SM FEW070 SCT200 22/14 A3015 RMK AO2 SLP201 T02170139 $=
201305280552 METAR KATL 280552Z 16007KT 10SM BKN070 BKN180 23/14 A3016 RMK AO2 SLP205 T02280144 10272 20228 50003 $=
201305280452 METAR KATL 280452Z 16006KT 10SM SCT065 BKN180 BKN250 23/16 A3017 RMK AO2 SLP207 T02280156 402940167 $=
201305280352 METAR KATL 280352Z 16005KT 10SM SCT065 BKN180 BKN250 24/15 A3017 RMK AO2 SLP206 T02390150 $=
201305280252 METAR KATL 280252Z 15005KT 10SM SCT060 BKN180 BKN250 24/15 A3015 RMK AO2 SLP201 T02440150 53006 $=
201305280152 METAR KATL 280152Z 15006KT 10SM FEW180 SCT250 25/14 A3014 RMK AO2 SLP196 T02500144 $=
201305280052 METAR KATL 280052Z 15006KT 10SM FEW060 SCT180 SCT250 26/14 A3013 RMK AO2 SLP194 T02610139 $=
201305272352 METAR KATL 272352Z 17006KT 10SM FEW065 SCT180 BKN250 27/13 A3014 RMK AO2 SLP196 T02720133 10294 20267 56003 $=
201305272252 METAR KATL 272252Z 21006KT 10SM FEW065 SCT250 28/13 A3014 RMK AO2 SLP196 T02830133 $=
201305272152 METAR KATL 272152Z 20005KT 10SM SCT070 BKN250 28/12 A3014 RMK AO2 SLP196 T02830122 $=
201305272052 METAR KATL 272052Z 18009G15KT 10SM SCT075 BKN250 29/13 A3014 RMK AO2 SLP197 T02940128 56015 $=
201305271952 METAR KATL 271952Z 15008KT 10SM SCT070 BKN250 29/13 A3016 RMK AO2 SLP203 T02940128 $=
201305271852 METAR KATL 271852Z 23006KT 10SM FEW065 SCT150 BKN250 29/12 A3017 RMK AO2 SLP209 T02890117 $=
201305271752 METAR KATL 271752Z VRB05KT 10SM FEW065 BKN250 28/13 A3019 RMK AO2 SLP214 T02830133 10283 20189 58013 $=
201305271652 METAR KATL 271652Z 22007KT 10SM FEW060 SCT150 BKN250 28/11 A3021 RMK AO2 SLP219 T02780111 $=
201305271552 METAR KATL 271552Z 21006KT 10SM FEW050 SCT150 BKN250 27/13 A3022 RMK AO2 SLP224 T02720133 $=
201305271452 METAR KATL 271452Z 00000KT 10SM FEW150 BKN250 26/14 A3023 RMK AO2 SLP227 T02610139 50001 $=
201305271352 METAR KATL 271352Z 00000KT 10SM FEW100 BKN250 24/13 A3024 RMK AO2 SLP233 T02390128 $=
201305271252 METAR KATL 271252Z 00000KT 10SM FEW180 SCT250 21/13 A3024 RMK AO2 SLP232 VIRGA NW-NE T02110128 $=
201305271152 METAR KATL 271152Z 00000KT 10SM FEW150 SCT220 19/13 A3023 RMK AO2 SLP228 T01890133 10211 20167 53016 $=
201305271052 METAR KATL 271052Z 00000KT 10SM FEW150 SCT200 BKN250 18/12 A3021 RMK AO2 SLP222 T01830122 $=
201305270952 METAR KATL 270952Z 11003KT 10SM FEW150 BKN250 19/13 A3019 RMK AO2 SLP215 T01890128 $=
201305270852 METAR KATL 270852Z 10003KT 10SM SCT250 21/12 A3018 RMK AO2 SLP211 T02060122 55002 $=
201305270752 METAR KATL 270752Z 00000KT 10SM CLR 19/12 A3018 RMK AO2 SLP210 T01940122 $=
201305270652 METAR KATL 270652Z 00000KT 10SM CLR 20/12 A3018 RMK AO2 SLP209 T02000122 $=
201305270552 METAR KATL 270552Z 00000KT 10SM CLR 19/13 A3019 RMK AO2 SLP213 T01940128 10267 20183 58005 $=
201305270452 METAR KATL 270452Z 00000KT 10SM CLR 22/13 A3019 RMK AO2 SLP215 T02170128 402830139 $=
201305270352 METAR KATL 270352Z 00000KT 10SM CLR 23/12 A3020 RMK AO2 SLP218 T02330117 $=
201305270252 METAR KATL 270252Z 33004KT 10SM FEW250 24/12 A3020 RMK AO2 SLP218 T02390122 53010=
201305270152 METAR KATL 270152Z 23003KT 10SM SCT250 23/12 A3018 RMK AO2 SLP212 T02330122=
201305270052 METAR KATL 270052Z 21003KT 10SM SCT250 24/12 A3017 RMK AO2 SLP210 T02440117=
201305262352 METAR KATL 262352Z 28003KT 10SM FEW250 27/10 A3017 RMK AO2 SLP210 T02670100 10283 20261 55005=
201305262252 METAR KATL 262252Z VRB05KT 10SM FEW250 28/09 A3017 RMK AO2 SLP209 T02780094=
201305262152 METAR KATL 262152Z 19004KT 10SM FEW250 28/09 A3018 RMK AO2 SLP213 T02780094=
201305262052 METAR KATL 262052Z VRB03KT 10SM SCT250 28/09 A3019 RMK AO2 SLP215 T02780089 58018=
201305261952 METAR KATL 261952Z 00000KT 10SM SCT250 27/09 A3021 RMK AO2 SLP221 T02720094=
201305261852 METAR KATL 261852Z 00000KT 10SM BKN250 27/07 A3023 RMK AO2 SLP228 T02670072=
201305261752 METAR KATL 261752Z 36004KT 10SM BKN250 27/09 A3024 RMK AO2 SLP233 T02670089 10272 20172 58010=
201305261652 METAR KATL 261652Z 25006KT 10SM FEW100 BKN250 26/10 A3026 RMK AO2 SLP240 T02610100=
201305261552 METAR KATL 261552Z 00000KT 10SM FEW150 BKN250 24/09 A3027 RMK AO2 SLP243 T02440094=
201305261452 METAR KATL 261452Z 17005KT 10SM FEW250 24/08 A3027 RMK AO2 SLP244 T02390083 50002=
201305261352 METAR KATL 261352Z 00000KT 10SM SCT250 23/08 A3028 RMK AO2 SLP246 T02280078=
201305261252 METAR KATL 261252Z 32003KT 10SM FEW150 SCT250 20/10 A3028 RMK AO2 SLP246 T02000100=
201305261152 METAR KATL 261152Z 00000KT 10SM FEW150 SCT250 17/11 A3027 RMK AO2 SLP243 T01670106 10178 20139 53024=
201305261052 METAR KATL 261052Z 00000KT 10SM FEW150 BKN250 15/08 A3024 RMK AO2 SLP234 T01500078=
201305260952 METAR KATL 260952Z 31004KT 10SM BKN250 15/08 A3021 RMK AO2 SLP225 T01500083=
201305260852 METAR KATL 260852Z 29003KT 10SM BKN250 14/09 A3019 RMK AO2 SLP219 T01440094 55001=
201305260752 METAR KATL 260752Z 00000KT 10SM SCT250 17/08 A3018 RMK AO2 SLP214 T01670083=
201305260652 METAR KATL 260652Z 00000KT 10SM FEW180 BKN250 16/09 A3018 RMK AO2 SLP215 T01560089=
201305260552 METAR KATL 260552Z 00000KT 10SM FEW180 BKN250 18/07 A3020 RMK AO2 SLP219 T01780072 10239 20161 56009=
201305260452 METAR KATL 260452Z 28003KT 10SM FEW180 BKN250 17/09 A3021 RMK AO2 SLP224 T01720089 402610128=
201305260352 METAR KATL 260352Z 23004KT 10SM CLR 17/08 A3020 RMK AO2 SLP223 T01720083=
201305260252 METAR KATL 260252Z 31003KT 10SM FEW180 BKN250 20/06 A3022 RMK AO2 SLP229 T02000061 53004=
201305260152 METAR KATL 260152Z 33005KT 10SM SCT250 21/06 A3022 RMK AO2 SLP226 T02060061=
201305260052 METAR KATL 260052Z 34007KT 10SM BKN250 23/06 A3020 RMK AO2 SLP222 T02280061=
201305252352 METAR KATL 252352Z 27004KT 10SM BKN250 23/07 A3021 RMK AO2 SLP224 T02330072 10261 20228 56007=
201305252252 METAR KATL 252252Z 25005KT 10SM BKN250 26/06 A3022 RMK AO2 SLP226 T02560061=
201305252152 METAR KATL 252152Z 28006KT 10SM SCT250 26/08 A3022 RMK AO2 SLP228 T02560078=
201305252052 METAR KATL 252052Z 34005KT 10SM BKN250 26/07 A3023 RMK AO2 SLP232 T02560072 56017=
201305251952 METAR KATL 251952Z 30006KT 10SM BKN250 25/08 A3025 RMK AO2 SLP237 T02500078=
201305251852 METAR KATL 251852Z VRB03KT 10SM BKN250 23/07 A3025 RMK AO2 SLP238 T02330067=
201305251752 METAR KATL 251752Z VRB04KT 10SM BKN250 23/06 A3028 RMK AO2 SLP249 T02280056 10233 20156 58012=
201305251652 METAR KATL 251652Z 00000KT 10SM BKN250 22/06 A3031 RMK AO2 SLP258 T02170061=
201305251552 METAR KATL 251552Z 13004KT 10SM BKN250 21/06 A3032 RMK AO2 SLP262 T02060056=
201305251452 METAR KATL 251452Z 15006KT 10SM BKN250 19/03 A3032 RMK AO2 SLP263 T01940033 50009=
201305251352 METAR KATL 251352Z 13007KT 10SM BKN250 19/03 A3033 RMK AO2 SLP265 T01890033=
201305251252 METAR KATL 251252Z 09005KT 10SM BKN250 17/04 A3032 RMK AO2 SLP264 T01720044=
201305251152 METAR KATL 251152Z 04005KT 10SM BKN250 16/05 A3029 RMK AO2 SLP253 T01560050 10161 20128 53017=
201305251052 METAR KATL 251052Z 05006KT 10SM BKN250 13/05 A3026 RMK AO2 SLP242 T01330050=
201305250952 METAR KATL 250952Z 05005KT 10SM SCT250 13/06 A3025 RMK AO2 SLP238 T01330061=
201305250852 METAR KATL 250852Z 02007KT 10SM SCT250 14/05 A3024 RMK AO2 SLP234 T01440050 53004=
201305250752 METAR KATL 250752Z 36008KT 10SM SCT250 15/06 A3023 RMK AO2 SLP231 T01500056=
201305250652 METAR KATL 250652Z 36008KT 10SM SCT250 16/05 A3022 RMK AO2 SLP226 T01610050=
201305250552 METAR KATL 250552Z 01008KT 10SM SCT250 16/06 A3023 RMK AO2 SLP229 T01610056 10211 20150 50002=
201305250452 METAR KATL 250452Z 32006KT 10SM SCT250 15/06 A3023 RMK AO2 SLP233 T01500056 402440150=
201305250352 METAR KATL 250352Z 33005KT 10SM SCT250 16/06 A3022 RMK AO2 SLP228 T01610056=
201305250252 METAR KATL 250252Z 35006KT 10SM FEW250 17/06 A3022 RMK AO2 SLP228 T01720056 53012=
201305250152 METAR KATL 250152Z 33009KT 10SM FEW250 18/06 A3020 RMK AO2 SLP221 T01830056=
201305250052 METAR KATL 250052Z 33009G15KT 10SM FEW250 19/06 A3019 RMK AO2 SLP216 T01940056=
201305242352 METAR KATL 242352Z 32014KT 10SM CLR 21/06 A3018 RMK AO2 SLP215 T02110056 10244 20211 53005=
201305242252 METAR KATL 242252Z 32014KT 10SM CLR 23/07 A3017 RMK AO2 SLP210 T02280067=
201305242152 METAR KATL 242152Z 33012G26KT 10SM CLR 23/07 A3017 RMK AO2 PK WND 32026/2143 SLP211 T02330072=
201305242052 METAR KATL 242052Z 35012G21KT 10SM CLR 24/06 A3017 RMK AO2 PK WND 35027/1954 SLP209 T02390061 51002=
201305241952 METAR KATL 241952Z 34010G22KT 10SM FEW250 23/07 A3016 RMK AO2 SLP206 T02330067=
201305241852 METAR KATL 241852Z 33016G21KT 10SM FEW250 23/07 A3017 RMK AO2 SLP209 T02330067=
201305241752 METAR KATL 241752Z 34017G23KT 10SM CLR 23/07 A3016 RMK AO2 SLP206 T02330067 10233 20172 50005=
201305241652 METAR KATL 241652Z 34013G24KT 10SM FEW045 SCT250 22/10 A3016 RMK AO2 SLP207 T02220100=
201305241552 METAR KATL 241552Z 34015G22KT 310V020 10SM FEW045 SCT250 22/11 A3016 RMK AO2 PK WND 33027/1522 SLP206 T02220111=
201305241452 METAR KATL 241452Z 33018G25KT 10SM FEW040 SCT250 21/11 A3014 RMK AO2 PK WND 33027/1427 SLP201 T02060106 51020=
201305241352 METAR KATL 241352Z 35018G23KT 10SM FEW035 SCT250 20/12 A3013 RMK AO2 PK WND 33029/1313 SLP194 T02000122=
201305241252 METAR KATL 241252Z 34013G25KT 10SM FEW028 SCT250 19/12 A3010 RMK AO2 SLP187 T01890122=
201305241152 METAR KATL 241152Z 32013KT 10SM FEW250 17/12 A3008 RMK AO2 SLP179 70001 T01720117 10200 20161 53013=
201305241052 METAR KATL 241052Z 32011G20KT 10SM FEW250 16/12 A3007 RMK AO2 SLP175 T01610117=
201305240952 METAR KATL 240952Z 32011KT 10SM CLR 17/12 A3005 RMK AO2 SLP169 T01670122=
201305240852 METAR KATL 240852Z 32011KT 10SM FEW250 17/12 A3004 RMK AO2 SLP165 T01720122 53006=
201305240752 METAR KATL 240752Z 33010KT 10SM FEW250 18/12 A3003 RMK AO2 SLP160 T01830122=
201305240652 METAR KATL 240652Z 34009KT 10SM FEW250 19/12 A3002 RMK AO2 SLP156 T01940122=
201305240552 METAR KATL 240552Z 33009KT 10SM CLR 20/13 A3003 RMK AO2 SLP158 T02000128 10267 20200 51010=
201305240452 METAR KATL 240452Z 33008KT 10SM FEW070 21/13 A3002 RMK AO2 SLP158 T02110133 402890194=
201305240352 METAR KATL 240352Z 29006KT 10SM FEW070 21/13 A3000 RMK AO2 SLP149 T02110133=
201305240252 METAR KATL 240252Z 29006KT 10SM FEW070 23/13 A2999 RMK AO2 SLP148 T02280128 53013=
201305240152 METAR KATL 240152Z 30005KT 10SM FEW070 24/13 A2998 RMK AO2 SLP144 T02390133=
201305240052 METAR KATL 240052Z 29008KT 10SM FEW060 24/14 A2997 RMK AO2 SLP138 T02440144=
201305232352 METAR KATL 232352Z 30011KT 10SM FEW055TCU SCT090 SCT250 27/14 A2996 RMK AO2 SLP135 TCU OHD-SE 60001 T02670139 10289 20267 55002=
201305232252 METAR KATL 232252Z 30012KT 10SM SCT055 SCT070 27/13 A2995 RMK AO2 SLP134 T02670133=
201305232152 METAR KATL 232152Z 29014G21KT 10SM SCT055TCU SCT250 27/14 A2996 RMK AO2 SLP135 TCU OHD-SE & W T02720139=
201305232052 METAR KATL 232052Z 27011G18KT 10SM FEW050 SCT060 28/16 A2996 RMK AO2 RAB30E39 SLP137 CB DSNT E SHRA DSNT E P0001 60001 T02830156 58009=
201305232036 SPECI KATL 232036Z 27012G20KT 10SM -RA FEW045CB SCT055TCU SCT075 28/16 A2997 RMK AO2 RAB30 VIS LWR E SHRA CB E MOV E TCU N P0001=
201305231952 METAR KATL 231952Z 31012G18KT 10SM SCT060 28/14 A2997 RMK AO2 SLP141 T02780144=
201305231852 METAR KATL 231852Z 31011G19KT 10SM SCT055 27/14 A2998 RMK AO2 SLP144 T02720144=
201305231752 METAR KATL 231752Z 30011G19KT 10SM FEW055 27/14 A2999 RMK AO2 SLP146 T02720144 10278 20206 58003=
201305231652 METAR KATL 231652Z 29011G18KT 260V330 10SM FEW050 27/14 A3000 RMK AO2 SLP147 T02670139=
201305231552 METAR KATL 231552Z 29011G17KT 10SM SCT045 26/14 A3001 RMK AO2 SLP150 T02560144=
201305231452 METAR KATL 231452Z 32008KT 280V350 10SM SCT035 25/16 A3000 RMK AO2 SLP149 T02500156 50002=
201305231352 METAR KATL 231352Z 33010KT 10SM FEW025 24/17 A3001 RMK AO2 SLP152 T02390167=
201305231252 METAR KATL 231252Z 31009KT 10SM FEW013 SCT070 22/18 A2999 RMK AO2 SLP148 T02220178=
201305231152 METAR KATL 231152Z 29008KT 9SM FEW010 SCT044 BKN070 21/18 A2999 RMK AO2 SLP148 ACC ALQDS 60000 T02060183 10217 20194 53013=
201305231052 METAR KATL 231052Z 28007KT 8SM FEW018 SCT036 19/18 A2998 RMK AO2 SLP143 TCU DSNT NE-E T01940178=
201305230952 METAR KATL 230952Z 26006KT 10SM FEW012 BKN030 BKN046 20/18 A2997 RMK AO2 SLP138 TCU DSNT N-NE T02000178=
201305230924 SPECI KATL 230924Z 26005KT 10SM BKN026 BKN038 21/18 A2996 RMK AO2 TCU DSNT N-NE=
201305230852 METAR KATL 230852Z 23003KT 10SM SCT022TCU BKN038 21/18 A2996 RMK AO2 SLP133 TCU NE-SE 60000 T02060178 53003=
201305230822 SPECI KATL 230822Z 25003KT 9SM SCT022TCU BKN046 21/18 A2995 RMK AO2 TCU NE=
201305230810 SPECI KATL 230810Z 22003KT 9SM BKN022TCU OVC038 21/18 A2995 RMK AO2 TCU OHD-NE=
201305230752 METAR KATL 230752Z 00000KT 9SM FEW022TCU BKN042 BKN100 21/18 A2995 RMK AO2 RAB06E17 SLP131 TCU VC NE & SE P0000 T02060178=
201305230737 SPECI KATL 230737Z 22003KT 9SM SCT022TCU BKN036 21/18 A2995 RMK AO2 RAB06E17 TCU N-E-SE P0000=
201305230652 METAR KATL 230652Z 23004KT 9SM BKN023TCU BKN042 BKN250 21/18 A2995 RMK AO2 SLP131 TCU S-W & DSNT NE T02110178=
201305230616 SPECI KATL 230616Z VRB06KT 9SM BKN028 BKN045 BKN250 21/18 A2995 RMK AO2 OCNL LTG DSNT E=
201305230552 METAR KATL 230552Z 21005KT 9SM SCT040 BKN250 21/18 A2995 RMK AO2 SLP130 CB DSNT E T02110178 10278 20211 53003=
201305230452 METAR KATL 230452Z 00000KT 10SM SCT045 BKN070 BKN250 23/18 A2994 RMK AO2 SLP129 OCNL LTG DSNT NE T02280183 403000189=
201305230352 METAR KATL 230352Z 26005KT 10SM FEW040 SCT070 BKN200 24/18 A2993 RMK AO2 TSB17E52 SLP126 TS MOV NE FRQ LTG DSNT NE CB DSNT NE TCU DSNT SW-W & NW-N T02390178=
201305230317 SPECI KATL 230317Z 22005KT 10SM TS FEW040CB SCT080 BKN200 23/18 A2994 RMK AO2 TSB17 FRQ LTGICCGCA NE TS VC NE MOV NE $=
201305230252 METAR KATL 230252Z 00000KT 10SM BKN045TCU BKN070 BKN250 24/18 A2994 RMK AO2 SLP127 TCU OHD-ALQDS T02440178 53013 $=
201305230152 METAR KATL 230152Z 26003KT 10SM FEW050 SCT150 BKN250 24/18 A2992 RMK AO2 SLP121 OCNL LTG DSNT NE T02440178=
201305230052 METAR KATL 230052Z 28006KT 10SM FEW050 SCT100 SCT250 25/18 A2991 RMK AO2 SLP119 CB DSNT SE T02500178=
201305222352 METAR KATL 222352Z 25006KT 10SM FEW050 SCT250 28/16 A2990 RMK AO2 SLP115 CB DSNT NE & E-SE T02780161 10300 20278 55001=
201305222252 METAR KATL 222252Z 20009KT 10SM FEW050 SCT250 28/17 A2989 RMK AO2 SLP113 TCU DSNT NE-SE T02830167=
201305222152 METAR KATL 222152Z 25009G18KT 10SM SCT050TCU BKN250 29/17 A2989 RMK AO2 SLP111 TCU NE-SE-S & DSNT NW-N T02890167=
201305222052 METAR KATL 222052Z 21009KT 10SM FEW050TCU SCT200 SCT250 29/17 A2990 RMK AO2 SLP116 TCU SW & NW TCU DSNT NE-SE T02890167 58024=
201305221952 METAR KATL 221952Z 23010KT 10SM SCT055TCU SCT200 29/17 A2993 RMK AO2 SLP124 CB DSNT NE TCU ALQDS T02890167=
201305221852 METAR KATL 221852Z 24009KT 10SM FEW055 SCT200 SCT250 29/17 A2995 RMK AO2 SLP132 CB DSNT NE TCU DSNT E T02940167=
201305221752 METAR KATL 221752Z 21009KT 10SM FEW050 SCT200 BKN250 29/17 A2997 RMK AO2 SLP140 TCU DSNT NE-E T02940167 10294 20200 58006=
201305221652 METAR KATL 221652Z 21009KT 10SM FEW045 SCT200 SCT250 28/17 A2999 RMK AO2 SLP145 T02830172=
201305221552 METAR KATL 221552Z 20007KT 10SM FEW040 SCT200 27/17 A2999 RMK AO2 SLP146 T02720167 $=
201305221452 METAR KATL 221452Z 19003KT 10SM FEW070 SCT200 26/18 A2999 RMK AO2 SLP146 T02610183 57001=
201305221352 METAR KATL 221352Z 00000KT 10SM FEW020 SCT040 SCT070 24/19 A2999 RMK AO2 SLP145 T02440189=
201305221252 METAR KATL 221252Z 00000KT 10SM SCT042 SCT070 21/18 A3000 RMK AO2 SLP150 T02110183=
201305221152 METAR KATL 221152Z 24004KT 10SM SCT050 SCT250 20/18 A3000 RMK AO2 SLP148 T02000178 10217 20189 53012=
201305221052 METAR KATL 221052Z 17003KT 8SM FEW050 BKN250 19/17 A2998 RMK AO2 SLP141 T01940172=
201305220952 METAR KATL 220952Z 13003KT 10SM SCT050 BKN080 19/17 A2997 RMK AO2 SLP140 T01940172=
201305220852 METAR KATL 220852Z 13004KT 10SM FEW049 SCT250 20/17 A2996 RMK AO2 SLP135 T02000172 56010=
201305220752 METAR KATL 220752Z 13003KT 10SM SCT049 SCT250 21/18 A2996 RMK AO2 SLP136 T02110178=
201305220652 METAR KATL 220652Z 13003KT 10SM FEW250 21/18 A2997 RMK AO2 SLP138 T02110178=
201305220552 METAR KATL 220552Z 14006KT 10SM FEW250 22/18 A2999 RMK AO2 SLP146 T02170178 10278 20217 58003=
201305220452 METAR KATL 220452Z 19005KT 10SM FEW150 SCT250 22/18 A2999 RMK AO2 SLP145 T02220178 403170206 $=
201305220352 METAR KATL 220352Z 18009G16KT 10SM FEW045 SCT250 23/18 A3000 RMK AO2 SLP148 T02330178=
201305220252 METAR KATL 220252Z 17012KT 10SM FEW045 SCT070 SCT250 25/18 A3000 RMK AO2 SLP148 OCNL LTG DSNT N-NE T02500178 53023=
201305220152 METAR KATL 220152Z 19004KT 10SM FEW045 SCT070 SCT250 26/19 A2997 RMK AO2 SLP140 T02560189=
201305220052 METAR KATL 220052Z 18006KT 10SM FEW045TCU SCT250 27/19 A2995 RMK AO2 TSB01E17 SLP131 CB DSNT N TCU NE T02670189=
201305220017 SPECI KATL 220017Z 19005KT 10SM SCT045CB SCT070 BKN250 27/19 A2994 RMK AO2 TSB01E17 TS DSIPTD CB VC NE MOV N TCU NE-SE & NW-N SHRA NE=
201305220001 SPECI KATL 220001Z 18006KT 10SM TS SCT045CB SCT070 BKN250 28/19 A2993 RMK AO2 TSB01 OCNL LTGICCG NE TS VC NE MOV N TCU NE-SE & NW-N SHRA NE=
201305212352 METAR KATL 212352Z 19007KT 10SM SCT045TCU BKN070 BKN250 28/19 A2993 RMK AO2 SLP124 CB DSNT N TCU ALQDS 60000 T02780194 10317 20278 56010=
201305212252 METAR KATL 212252Z 20005KT 10SM FEW045 SCT150 SCT250 30/18 A2993 RMK AO2 TSE00 SLP126 TCU DSNT NW-N T03000183=
201305212200 SPECI KATL 212200Z 23003KT 10SM FEW045CB SCT100 BKN250 30/18 A2994 RMK AO2 TSE00 TS DSIPTD CB NE-SE MOV N TCU N-NE SHRA NE-SE=
201305212152 METAR KATL 212152Z COR 25004KT 10SM TS FEW045CB SCT100 BKN250 29/18 A2995 RMK AO2 TSB45 SLP132 OCNL LTGCG E-SE TS E-SE MOV STNRY SHRA NE-SE T02940183=
201305212145 SPECI KATL 212145Z 23005KT 10SM TS FEW045CB SCT100 BKN250 29/19 A2995 RMK AO2 TSB45 OCNL LTGCG TS E-SE MOV STNRY=
201305212052 METAR KATL 212052Z 19004KT 10SM FEW048TCU SCT100 SCT250 29/18 A2996 RMK AO2 TSE07RAB07E12 SLP135 TCU SE-S-SW & DSNT NW P0000 60000 T02940183 58023=
201305212007 SPECI KATL 212007Z 21006KT 10SM -RA FEW050CB SCT100 BKN250 30/18 A2997 RMK AO2 TSE07RAB07 TS DSIPT CB E MOV E SHRA E TCU DSNT SW-W P0000=
201305211952 METAR KATL 211952Z 25005KT 10SM TS FEW045CB SCT055TCU BKN100 BKN250 31/18 A2998 RMK AO2 TSB25 SLP142 FRQ LTGICCG NE TS NE MOV SE TCU OHD-NE-SE SHRA NE T03060183=
201305211940 SPECI KATL 211940Z 25009KT 10SM TS BKN055CB BKN075 BKN250 31/18 A2999 RMK AO2 TSB25 OCNL LTGICCG N-NE TS N-NE MOV E TCU DSNT SE-S SHRA N-NE=
201305211927 SPECI KATL 211927Z 20006KT 10SM TS BKN050CB BKN250 31/18 A3000 RMK AO2 TSB25 OCNL LTGICCG NW-N TS NW-N MOV STNRY TCU DSNT SE-S SHRA NW-N=
201305211852 METAR KATL 211852Z 22005KT 10SM BKN048TCU 31/18 A3001 RMK AO2 SLP151 CB DSNT NW TCU OHD-E & SW-NW SHRA DSNT NW T03060178=
201305211752 METAR KATL 211752Z 00000KT 10SM BKN045TCU 29/18 A3003 RMK AO2 SLP158 TCU N-NE-E & S-SW-W-NW T02940178 10300 20222 58011=
201305211652 METAR KATL 211652Z 31003KT 10SM BKN040TCU 29/19 A3005 RMK AO2 SLP164 TCU OHD & ALQDS T02940189=
201305211552 METAR KATL 211552Z VRB05KT 10SM SCT040TCU 28/19 A3006 RMK AO2 SLP168 TCU S-NW T02830189=
201305211452 METAR KATL 211452Z 31006KT 10SM FEW040 SCT050 27/19 A3006 RMK AO2 SLP170 T02720194 50004=
201305211352 METAR KATL 211352Z 30007KT 10SM SCT050 26/20 A3007 RMK AO2 SLP173 T02560200=
201305211252 METAR KATL 211252Z 24003KT 8SM BKN038 23/20 A3007 RMK AO2 SLP172 T02330200=
201305211152 METAR KATL 211152Z 00000KT 8SM CLR 22/20 A3005 RMK AO2 SLP167 T02220200 10222 20206 53013=
201305211052 METAR KATL 211052Z 15003KT 8SM CLR 21/19 A3003 RMK AO2 SLP161 T02060189=
201305210952 METAR KATL 210952Z 00000KT 8SM FEW250 21/19 A3002 RMK AO2 SLP158 T02060189=
201305210852 METAR KATL 210852Z 00000KT 8SM FEW046 21/19 A3002 RMK AO2 SLP154 T02110194 57006=
201305210752 METAR KATL 210752Z 00000KT 8SM SCT046 22/20 A3002 RMK AO2 SLP155 T02170200=
201305210652 METAR KATL 210652Z 19004KT 8SM BKN038 22/20 A3003 RMK AO2 SLP158 T02170200=
201305210552 METAR KATL 210552Z 21003KT 10SM FEW250 22/20 A3003 RMK AO2 SLP160 T02220200 10272 20217 58003=
201305210452 METAR KATL 210452Z 16004KT 10SM FEW250 23/20 A3004 RMK AO2 SLP164 T02280200 402940167=
201305210352 METAR KATL 210352Z 15004KT 10SM FEW250 23/20 A3004 RMK AO2 SLP164 T02330200=
201305210252 METAR KATL 210252Z 15003KT 10SM FEW250 24/19 A3004 RMK AO2 SLP165 T02390194 53001=
201305210152 METAR KATL 210152Z 19005KT 10SM FEW250 24/19 A3003 RMK AO2 SLP161 T02390194=
201305210052 METAR KATL 210052Z 20005KT 10SM FEW250 26/19 A3004 RMK AO2 SLP162 T02560189=
201305202352 METAR KATL 202352Z 00000KT 10SM FEW040 SCT250 27/19 A3004 RMK AO2 SLP164 TCU DSNT NE & E T02720189 10294 20272 55003=
201305202252 METAR KATL 202252Z 22005KT 10SM FEW042 SCT250 28/18 A3003 RMK AO2 SLP160 TCU DSNT SE-S T02780183=
201305202152 METAR KATL 202152Z 19004KT 10SM SCT042 28/19 A3004 RMK AO2 SLP162 TCU DSNT NE T02830189=
201305202052 METAR KATL 202052Z 00000KT 10SM SCT043TCU 29/19 A3005 RMK AO2 SLP167 TCU NE-SE T02890189 56017=
201305201952 METAR KATL 201952Z 19004KT 10SM BKN038TCU 28/19 A3006 RMK AO2 SLP172 TCU OHD-NE-SW T02780189=
201305201852 METAR KATL 201852Z 25006KT 10SM BKN035TCU 29/19 A3009 RMK AO2 SLP179 TCU N & E & S-SW-W T02890189=
201305201752 METAR KATL 201752Z 00000KT 10SM BKN030TCU 27/19 A3010 RMK AO2 SLP186 TCU OHD-NE-E & S T02720194 10278 20194 58006=
201305201722 SPECI KATL 201722Z 16003KT 10SM BKN029 BKN036 26/19 A3011 RMK AO2=
201305201652 METAR KATL 201652Z 17004KT 9SM SCT030 26/19 A3012 RMK AO2 SLP191 T02610194=
201305201552 METAR KATL 201552Z 00000KT 9SM FEW020 SCT250 25/19 A3012 RMK AO2 SLP192 T02500194=
201305201452 METAR KATL 201452Z 00000KT 8SM FEW020 SCT250 23/19 A3012 RMK AO2 SLP193 T02330189 50008=
201305201352 METAR KATL 201352Z 00000KT 6SM HZ SCT010 SCT250 22/18 A3012 RMK AO2 SLP195 T02170183=
201305201333 SPECI KATL 201333Z VRB03KT 6SM HZ SCT010 SCT250 22/18 A3012 RMK AO2=
201305201252 METAR KATL 201252Z 09005KT 2SM BR BKN008 21/18 A3011 RMK AO2 SFC VIS 4 SLP190 T02060183=
201305201152 METAR KATL 201152Z 10004KT 2SM BR OVC008 19/18 A3010 RMK AO2 SFC VIS 3 SLP186 BINOVC 70029 T01940178 10194 20167 53014=
201305201052 METAR KATL 201052Z 09004KT 2SM BR OVC006 19/17 A3008 RMK AO2 SFC VIS 3 SLP179 T01890172=
201305200952 METAR KATL 200952Z 07004KT 2SM BR OVC005 19/18 A3005 RMK AO2 SFC VIS 4 SLP170 CIG 004V006 T01890178 $=
201305200932 SPECI KATL 200932Z 04003KT 2SM BR OVC004 19/17 A3006 RMK AO2 SFC VIS 3 CIG 003V006 $=
201305200852 METAR KATL 200852Z 07005KT 1/2SM BR OVC003 18/17 A3006 RMK AO2 SFC VIS 2 1/2 SLP172 TWRINC T01830172 53002 $=
201305200752 METAR KATL 200752Z 04006KT 1/2SM R09R/4500VP6000FT BR OVC004 18/17 A3005 RMK AO2 SFC VIS 3 SLP170 TWRINC T01780167 $=
201305200739 SPECI KATL 200739Z 04003KT 1/2SM BR OVC004 18/17 A3005 RMK AO2 SFC VIS 4 $=
201305200652 METAR KATL 200652Z 00000KT 5SM BR OVC004 18/17 A3005 RMK AO2 SLP170 T01780167 $=
201305200642 SPECI KATL 200642Z 00000KT 5SM BR BKN004 OVC150 18/17 A3005 RMK AO2 $=
201305200552 METAR KATL 200552Z 00000KT 8SM SCT180 BKN250 17/16 A3005 RMK AO2 SLP171 T01720161 10200 20172 50001 $=
201305200452 METAR KATL 200452Z 08004KT 9SM FEW180 BKN250 18/17 A3006 RMK AO2 SLP176 T01780167 402280178 $=
201305200352 METAR KATL 200352Z 08007KT 10SM FEW170 BKN230 18/17 A3007 RMK AO2 SLP176 T01830167 $=
201305200252 METAR KATL 200252Z 06009KT 10SM FEW120 OVC170 20/16 A3005 RMK AO2 SLP169 T02000161 53001 $=
201305200152 METAR KATL 200152Z 00000KT 10SM FEW120 OVC160 19/17 A3002 RMK AO2 SLP160 T01940172 $=
201305200052 METAR KATL 200052Z 23006KT 10SM BKN110 OVC170 20/17 A3003 RMK AO2 SLP161 T02000167 $=
201305192352 METAR KATL 192352Z 26004KT 10SM FEW060 BKN110 OVC160 20/17 A3005 RMK AO2 RAE47 SLP168 CB DSNT SW P0000 60002 T02000167 10228 20200 58008 $=
201305192252 METAR KATL 192252Z 32009KT 7SM -RA FEW060 BKN080 OVC200 21/18 A3009 RMK AO2 RAE14B52 SLP184 CB DSNT SW-W TCU DSNT SE-S P0000 T02110183 $=
201305192152 METAR KATL 192152Z 32007KT 7SM -RA FEW012TCU BKN075 OVC200 21/19 A3010 RMK AO2 RAB39 SLP186 CB DSNT NW TCU S-W P0001 T02110189 $=
201305192052 METAR KATL 192052Z 07008KT 10SM SCT012 OVC075 22/18 A3007 RMK AO2 RAB1959E13 SLP176 P0000 60001 T02220183 57005 $=
201305192033 SPECI KATL 192033Z 03012KT 10SM SCT012 BKN085 BKN110 22/19 A3008 RMK AO2 RAB1959E13 P0000 $=
201305192025 SPECI KATL 192025Z 03012KT 10SM SCT012 BKN015 BKN090 23/19 A3007 RMK AO2 RAB1959E13 P0000 $=
201305191959 SPECI KATL 191959Z 02013KT 10SM -RA BKN012 BKN028 OVC090 22/19 A3009 RMK AO2 RAB59 P0000 $=
201305191952 METAR KATL 191952Z 02010KT 10SM SCT013 BKN035 OVC090 22/19 A3008 RMK AO2 RAE04 SLP179 P0000 T02220194 $=
201305191946 SPECI KATL 191946Z 00000KT 10SM SCT013 BKN035 OVC090 22/19 A3008 RMK AO2 RAE04 P0000 $=
201305191937 SPECI KATL 191937Z 03005KT 10SM BKN013 OVC090 22/19 A3008 RMK AO2 RAE04 P0000 $=
201305191852 METAR KATL 191852Z 03006KT 8SM -RA SCT008 BKN015 OVC070 22/19 A3009 RMK AO2 SLP182 P0001 T02170189 $=
201305191845 SPECI KATL 191845Z 03005KT 8SM SCT008 BKN013 OVC100 22/19 A3009 RMK AO2 RAE43 P0001 $=
201305191842 SPECI KATL 191842Z 03006KT 8SM -RA BKN008 BKN070 OVC100 21/19 A3009 RMK AO2 CIG 006V013 P0001 $=
201305191834 SPECI KATL 191834Z 34010KT 8SM -RA SCT008 BKN046 OVC100 21/19 A3009 RMK AO2 P0001 $=
201305191752 METAR KATL 191752Z 11005KT 7SM -RA FEW010 SCT065 OVC110 20/19 A3007 RMK AO2 TSE26 SLP177 LGTICCC DSNT SE-S TS MOV SE P0008 60027 T02000189 10206 20194 58010 $=
201305191732 SPECI KATL 191732Z 13009KT 7SM -RA SCT010 OVC100 19/18 A3006 RMK AO2 TSE26 LGTICCG DSNT S TS MOV SE P0008 $=
201305191702 SPECI KATL 191702Z 15009KT 3SM -TSRA BR SCT008CB BKN075 OVC110 19/18 A3008 RMK AO2 SFC VIS 5 PRESFR OCNL LTGICCCCG SE-S MOV SE TS SE-S MOV SE P0005 $=
201305191657 SPECI KATL 191657Z 15007KT 2 1/2SM R09R/5500VP6000FT -TSRA BR SCT006 BKN011CB OVC085 19/18 A3010 RMK AO2 TWR VIS 3 PRESFR OCNL LTGICCCCG SE-S MOV SE TS SE-S MOV SE P0005=
201305191652 METAR KATL 191652Z 20011KT 1 3/4SM R09R/5500VP6000FT +TSRA BR OVC009CB 19/18 A3011 RMK AO2 TWR VIS 3 TSB16RAB09 SLP190 FRQ LGTICCCCG OHD-S MOV SE TS OHD-S MOV SE P0019 T01940183=
201305191618 SPECI KATL 191618Z 09006KT 3SM -TSRA BR BKN006 OVC009CB 20/19 A3010 RMK AO2 SFC VIS 6 TSB16RAB09 LGTICCC W-N MOV SE TS W-N MOV SE P0000=
201305191552 METAR KATL 191552Z 09006KT 3SM BR BKN006 OVC009 20/18 A3011 RMK AO2 SFC VIS 6 SLP191 T02000183=
201305191532 SPECI KATL 191532Z 10004KT 3SM BR BKN006 OVC009 20/18 A3012 RMK AO2 SFC VIS 6 CIG 003V009 PRESRR=
201305191523 SPECI KATL 191523Z 11007KT 2SM BR BKN004 OVC009 19/18 A3010 RMK AO2 SFC VIS 6=
201305191452 METAR KATL 191452Z 12004KT 2SM BR OVC009 19/18 A3010 RMK AO2 SFC VIS 2 1/2 CIG 005V011 SLP188 T01940178 50004=
201305191444 SPECI KATL 191444Z 12005KT 2 1/2SM BR SCT006 OVC011 19/18 A3010 RMK AO2 TWR VIS 3=
201305191352 METAR KATL 191352Z 09008KT 8SM FEW006 BKN011 OVC025 20/17 A3012 RMK AO2 TSB08E39 SLP192 TS MOV SE CB DSNT E-SE MOV SE T02000172=
201305191340 SPECI KATL 191340Z VRB06KT 8SM FEW006 BKN011 OVC025 20/18 A3011 RMK AO2 TSB08E39 TS MOV SE CB DSNT E-SE MOV SE=
201305191312 SPECI KATL 191312Z 10005KT 10SM TS BKN011 OVC025CB 19/17 A3011 RMK AO2 TSB08 OCNL LTGCG NE MOV SE TS NE MOV SE=
201305191252 METAR KATL 191252Z 09007KT 7SM OVC011CB 19/18 A3010 RMK AO2 SLP187 CB NW-N MOV SE SHRA NW-N T01940178=
201305191152 METAR KATL 191152Z 13004KT 7SM OVC011 20/18 A3009 RMK AO2 SLP183 60001 70001 T02000178 10200 20194 53016=
201305191103 SPECI KATL 191103Z 00000KT 7SM BKN013 OVC100 20/18 A3007 RMK AO2=
201305191052 METAR KATL 191052Z COR 20005KT 7SM FEW013 BKN100 BKN250 19/18 A3007 RMK AO2 SLP175 OCNL LTG DSNT NE-E CB DSNT NE-E T01940178=
201305190952 METAR KATL 190952Z 19008KT 7SM FEW005 SCT039 BKN085 20/18 A3005 RMK AO2 SLP167 OCNL LTG DSNT NE T02000183=
201305190921 SPECI KATL 190921Z 18008KT 7SM SCT005 BKN035 OVC080 20/19 A3005 RMK AO2 OCNL LTG DSNT NE=
201305190852 METAR KATL 190852Z 20006KT 7SM SCT005 BKN028 OVC085 20/18 A3004 RMK AO2 RAB38E51 SLP166 OCNL LTG DSNT NE P0001 60001 T02000183 55005=
201305190754 SPECI KATL 190754Z 19007KT 7SM SCT005 BKN026 BKN120 19/18 A3003 RMK AO2=
201305190752 METAR KATL 190752Z 19006KT 7SM SCT005 SCT026 BKN032 BKN130 19/18 A3003 RMK AO2 SLP163 T01940183=
201305190659 SPECI KATL 190659Z 18007KT 8SM SCT005 BKN038 BKN120 19/19 A3005 RMK AO2 OCNL LTG DSNT NE=
201305190652 METAR KATL 190652Z 18005KT 7SM BKN005 BKN038 BKN120 BKN200 19/19 A3005 RMK AO2 SLP170 OCNL LTG DSNT NE T01940189=
201305190607 SPECI KATL 190607Z 18005KT 7SM BKN005 BKN080 BKN200 20/19 A3006 RMK AO2=
201305190552 METAR KATL 190552Z 18005KT 7SM SCT005 BKN080 BKN200 20/19 A3006 RMK AO2 SLP171 T02000189 10217 20200 55006=
201305190523 SPECI KATL 190523Z 17004KT 9SM BKN005 BKN100 OVC200 20/19 A3006 RMK AO2=
201305190452 METAR KATL 190452Z 17005KT 9SM FEW007 SCT100 BKN200 20/19 A3005 RMK AO2 SLP170 OCNL LTG DSNT N T02000189 402330172=
201305190352 METAR KATL 190352Z 15004KT 9SM FEW041 SCT100 BKN200 21/19 A3007 RMK AO2 SLP177 OCNL LTG DSNT N & NW T02060189=
201305190252 METAR KATL 190252Z 17006KT 10SM BKN065 BKN200 21/19 A3007 RMK AO2 SLP178 OCNL LTG DSNT NW T02110189 50003=
201305190152 METAR KATL 190152Z 17005KT 10SM OVC050 21/19 A3008 RMK AO2 SLP179 CB DSNT NW T02110189 $=
201305190052 METAR KATL 190052Z 17006KT 10SM FEW021 OVC047 22/19 A3007 RMK AO2 SLP177 T02170189=
201305190025 SPECI KATL 190025Z 17005KT 10SM SCT021 OVC044 22/19 A3007 RMK AO2 BINOVC=
201305182352 METAR KATL 182352Z 20007KT 10SM FEW015 BKN020 BKN042 22/19 A3007 RMK AO2 SLP175 T02170189 10233 20217 55000=
201305182344 SPECI KATL 182344Z 19005KT 10SM FEW016 BKN021 BKN034 22/19 A3007 RMK AO2=
201305182329 SPECI KATL 182329Z 20006KT 10SM SCT017 OVC032 22/19 A3006 RMK AO2 BINOVC=
201305182252 METAR KATL 182252Z 19004KT 10SM BKN017 OVC026 22/18 A3006 RMK AO2 SLP174 T02220183=
201305182152 METAR KATL 182152Z 21008KT 10SM OVC017 22/18 A3006 RMK AO2 SLP173 T02220183=
201305182052 METAR KATL 182052Z 21008KT 10SM BKN021 OVC046 23/18 A3007 RMK AO2 SLP175 T02280183 58012=
201305182038 SPECI KATL 182038Z 19008KT 10SM BKN021 BKN026 OVC046 23/18 A3007 RMK AO2=
201305182005 SPECI KATL 182005Z 22005KT 10SM FEW019 SCT024 OVC046 23/18 A3008 RMK AO2=
201305181952 METAR KATL 181952Z 21007KT 10SM SCT019 BKN024 OVC046 22/18 A3008 RMK AO2 SLP179 T02220178=
201305181852 METAR KATL 181852Z 18005KT 10SM BKN019 OVC080 23/19 A3010 RMK AO2 SLP184 DSNT TCU SW T02330189=
201305181752 METAR KATL 181752Z 20009KT 10SM OVC019 22/18 A3010 RMK AO2 SLP186 60000 T02170178 10222 20178 58002=
201305181704 SPECI KATL 181704Z 20007KT 10SM BKN015 BKN020 BKN080 22/17 A3011 RMK AO2=
201305181652 METAR KATL 181652Z 23010G14KT 10SM BKN013 BKN080 22/17 A3011 RMK AO2 SLP190 T02170172=
201305181552 METAR KATL 181552Z 21007KT 10SM OVC010 20/17 A3011 RMK AO2 SLP191 T02000172=
201305181517 SPECI KATL 181517Z 21006KT 10SM BKN010 BKN100 OVC220 19/17 A3010 RMK AO2 CIG 008V012=
201305181459 SPECI KATL 181459Z 19006KT 10SM BKN008 BKN110 OVC220 19/17 A3011 RMK AO2=
201305181452 METAR KATL 181452Z 20006KT 10SM SCT008 SCT035 BKN110 OVC220 19/17 A3011 RMK AO2 SLP190 60000 T01890167 51007=
201305181436 SPECI KATL 181436Z 18006KT 10SM FEW008 SCT035 BKN110 OVC220 18/16 A3011 RMK AO2=
201305181352 METAR KATL 181352Z 19007KT 10SM FEW015 SCT035 OVC100 18/16 A3011 RMK AO2 RAE12B44E46 SLP188 DSTN SHRA S-W P0000 T01780161=
201305181252 METAR KATL 181252Z 21009KT 10SM -RA FEW055 BKN100 OVC250 18/16 A3010 RMK AO2 RAE1153B52 PRESRR SLP185 P0000 T01780156=
201305181152 METAR KATL 181152Z 20008G15KT 9SM -RA SCT080 BKN110 OVC150 18/15 A3009 RMK AO2 SLP181 P0002 60020 70049 T01780150 10200 20172 53008=
201305181052 METAR KATL 181052Z 20007KT 9SM -RA FEW060 BKN110 OVC150 17/14 A3008 RMK AO2 SLP179 P0000 T01720139=
201305180952 METAR KATL 180952Z 18016G26KT 10SM -RA FEW060 SCT090 BKN110 OVC150 18/15 A3006 RMK AO2 PK WND 20026/0952 RAE01B17 SLP171 OCNL LTG DSNT S-SW P0001 T01830150=
201305180852 METAR KATL 180852Z 19005KT 9SM -RA SCT035 BKN055 OVC120 19/18 A3006 RMK AO2 SLP172 P0009 60017 T01940178 53001=
201305180752 METAR KATL 180752Z 16007KT 6SM -RA BR FEW060 OVC100 19/18 A3004 RMK AO2 SLP166 P0007 T01940178=
201305180652 METAR KATL 180652Z 00000KT 8SM -RA SCT060 BKN095 OVC110 20/18 A3006 RMK AO2 SLP170 P0001 T02000178=
201305180552 METAR KATL 180552Z 00000KT 7SM -RA FEW055 SCT075 OVC110 20/18 A3006 RMK AO2 SLP171 P0004 60029 T02000178 10250 20200 58008=
201305180452 METAR KATL 180452Z 06005KT 8SM -RA SCT055 BKN075 OVC120 21/18 A3008 RMK AO2 SLP176 P0005 T02060178 402720183=
201305180352 METAR KATL 180352Z 07006KT 8SM -RA FEW050 BKN070 OVC090 21/18 A3008 RMK AO2 SLP179 P0007 T02110178=
201305180252 METAR KATL 180252Z 00000KT 8SM -RA FEW040 BKN055 OVC080 22/16 A3008 RMK AO2 RAB00 SLP179 P0013 60013 T02220161 53013=
201305180152 METAR KATL 180152Z 15004KT 10SM BKN075 BKN090 OVC150 24/15 A3006 RMK AO2 SLP169 SHRA SW-NW T02390150=
201305180052 METAR KATL 180052Z 16004KT 10SM SCT110 BKN150 OVC200 24/14 A3005 RMK AO2 SLP165 T02440144=
201305172352 METAR KATL 172352Z 18005KT 10SM FEW055 BKN110 BKN150 OVC200 25/14 A3004 RMK AO2 SLP165 VIRGA SE-OHD-NW T02500144 10272 20244 56005=
201305172252 METAR KATL 172252Z 19007KT 10SM FEW055 BKN150 BKN200 OVC250 26/14 A3005 RMK AO2 SLP167 VIRGA DSNT SW-NW T02560139=
201305172152 METAR KATL 172152Z 18012KT 10SM FEW055 SCT110 BKN250 26/14 A3005 RMK AO2 SLP168 T02610139=
201305172052 SPECI KATL 172052Z 21009KT 10SM FEW060 SCT110 BKN250 26/14 A3006 RMK AO2 SLP171 T02610139 58013=
201305172052 METAR KATL 172052Z 21009KT 10SM FEW060 SCT110 BKN250 26/14 A3006 RMK AO2 SLP171 T02610139 58013=
201305171952 METAR KATL 171952Z 20006KT 10SM FEW055 BKN110 BKN250 26/13 A3007 RMK AO2 SLP176 T02610133=
201305171852 METAR KATL 171852Z 21011G17KT 10SM FEW060 SCT150 BKN250 27/12 A3009 RMK AO2 SLP180 T02670117=
201305171752 METAR KATL 171752Z 17011KT 10SM FEW055 SCT150 SCT170 26/12 A3010 RMK AO2 SLP184 60000 T02560117 10267 20200 58007=
201305171652 METAR KATL 171652Z 19005KT 10SM FEW050 SCT150 BKN180 26/13 A3011 RMK AO2 SLP188 ACC DSNT W T02560128=
201305171552 METAR KATL 171552Z 17005KT 10SM FEW100 SCT120 BKN150 24/15 A3012 RMK AO2 RAB1453E04 SLP193 VIRGA DSNT E P0000 T02390150=
201305171452 METAR KATL 171452Z 22003KT 10SM FEW070 SCT100 BKN120 BKN250 22/15 A3012 RMK AO2 SLP192 SHRA N & W 60000 T02220150 51009=
201305171352 METAR KATL 171352Z 00000KT 10SM FEW060 BKN100 BKN150 21/16 A3012 RMK AO2 RAB39E51 SLP191 P0000 T02060161=
201305171252 METAR KATL 171252Z 27003KT 10SM SCT130 BKN180 22/16 A3010 RMK AO2 SLP185 VIRGA S-SW T02170161=
201305171152 METAR KATL 171152Z 00000KT 10SM FEW060 BKN150 BKN190 20/14 A3009 RMK AO2 SLP182 VIRGA VC NW T02000144 10200 20183 51014=
201305171052 METAR KATL 171052Z 00000KT 10SM FEW045 BKN120 BKN180 18/13 A3008 RMK AO2 SLP179 VIRGA S-W-NW T01830133=
201305170952 METAR KATL 170952Z 24004KT 10SM FEW041 BKN110 BKN250 19/12 A3007 RMK AO2 SLP176 VIRGA OHD-W T01890122=
201305170852 METAR KATL 170852Z 00000KT 10SM SCT110 SCT250 19/11 A3005 RMK AO2 SLP168 T01890111 53002=
201305170752 METAR KATL 170752Z 21003KT 10SM FEW130 SCT250 19/11 A3004 RMK AO2 SLP162 T01890111=
201305170652 METAR KATL 170652Z 00000KT 10SM FEW180 BKN250 19/12 A3004 RMK AO2 SLP162 T01940117=
201305170552 METAR KATL 170552Z 00000KT 10SM FEW180 BKN250 19/12 A3005 RMK AO2 SLP165 T01940117 10250 20194 56006=
201305170452 METAR KATL 170452Z 22003KT 10SM FEW150 SCT200 BKN250 20/12 A3005 RMK AO2 SLP167 T02000117 402720183=
201305170352 METAR KATL 170352Z 22005KT 10SM FEW150 SCT200 BKN250 21/12 A3006 RMK AO2 SLP172 T02060117=
201305170252 METAR KATL 170252Z 21006KT 10SM FEW150 SCT200 BKN250 21/12 A3006 RMK AO2 SLP172 T02110117 53017 $=
201305170152 METAR KATL 170152Z 20004KT 10SM FEW150 BKN250 22/13 A3004 RMK AO2 SLP166 T02170128 $=
201305170052 METAR KATL 170052Z 21003KT 10SM FEW150 SCT200 BKN250 23/12 A3002 RMK AO2 SLP159 T02330117=
201305162352 METAR KATL 162352Z 21005KT 10SM FEW055 SCT200 BKN250 24/12 A3001 RMK AO2 SLP156 T02440122 10272 20244 57004=
201305162252 METAR KATL 162252Z 18005KT 10SM FEW055 OVC250 26/14 A3002 RMK AO2 SLP156 T02610139=
201305162152 METAR KATL 162152Z 21009KT 10SM FEW055 SCT200 BKN250 27/14 A3002 RMK AO2 SLP157 T02670139=
201305162052 METAR KATL 162052Z 20010KT 10SM FEW055 BKN200 BKN250 27/13 A3002 RMK AO2 SLP158 T02670128 56013=
201305161952 METAR KATL 161952Z 23009KT 10SM FEW050 SCT200 BKN250 27/14 A3004 RMK AO2 SLP162 T02720144=
201305161852 SPECI KATL 161852Z 18004KT 10SM FEW050 BKN250 27/14 A3004 RMK AO2 SLP165 T02670139=
201305161852 METAR KATL 161852Z 18004KT 10SM FEW050 BKN250 27/14 A3004 RMK AO2 SLP165 T02670139=
201305161752 METAR KATL 161752Z 00000KT 10SM FEW050 SCT100 BKN250 27/14 A3006 RMK AO2 SLP171 T02670144 10267 20189 58015=
201305161652 METAR KATL 161652Z 11003KT 10SM FEW045 SCT100 BKN200 26/15 A3008 RMK AO2 SLP178 T02560150=
201305161552 METAR KATL 161552Z 29004KT 10SM BKN150 BKN200 BKN250 24/15 A3010 RMK AO2 SLP186 T02390150=
201305161452 METAR KATL 161452Z 26005KT 10SM FEW100 BKN150 BKN200 23/16 A3011 RMK AO2 SLP188 T02280156 53005=
201305161352 METAR KATL 161352Z 29004KT 10SM FEW090 SCT150 OVC200 21/16 A3010 RMK AO2 SLP185 VIRGA NE-SE T02110156=
201305161252 METAR KATL 161252Z 21005KT 10SM BKN150 OVC200 19/15 A3009 RMK AO2 SLP180 VIRGA OHD-ALQDS T01940150=
201305161152 METAR KATL 161152Z 23005KT 10SM BKN150 OVC200 19/14 A3009 RMK AO2 SLP182 VIRGA OHD-ALQDS T01890144 10211 20183 53019=
201305161052 METAR KATL 161052Z 21003KT 10SM BKN170 OVC220 18/14 A3006 RMK AO2 SLP171 VIRGA SW-W T01830139=
201305160952 METAR KATL 160952Z 27003KT 10SM BKN180 BKN220 19/14 A3005 RMK AO2 SLP167 VIRGA N-OHD-S T01940139=
201305160852 METAR KATL 160852Z 27004KT 10SM BKN190 BKN230 19/13 A3004 RMK AO2 SLP162 T01940133 55007=
201305160752 METAR KATL 160752Z 27007KT 10SM BKN190 BKN220 21/13 A3004 RMK AO2 SLP161 T02110133=
201305160652 METAR KATL 160652Z 27005KT 10SM FEW180 BKN210 21/13 A3004 RMK AO2 SLP163 T02060133=
201305160552 METAR KATL 160552Z 25003KT 10SM FEW180 BKN220 21/13 A3006 RMK AO2 SLP169 T02060133 10272 20200 58006=
201305160452 METAR KATL 160452Z 25003KT 10SM BKN250 21/13 A3007 RMK AO2 SLP172 T02060128 403000161=
201305160352 METAR KATL 160352Z 24005KT 10SM BKN250 22/13 A3007 RMK AO2 SLP174 T02170128=
201305160252 METAR KATL 160252Z 24004KT 10SM BKN250 22/12 A3008 RMK AO2 SLP175 T02220122 53010=
201305160152 METAR KATL 160152Z 00000KT 10SM BKN250 23/11 A3007 RMK AO2 SLP173 T02330111=
201305160052 METAR KATL 160052Z 26004KT 10SM BKN250 25/11 A3005 RMK AO2 SLP167 T02500106=
201305152352 METAR KATL 152352Z 24005KT 10SM BKN250 27/11 A3004 RMK AO2 SLP165 T02670111 10300 20267 56009=
201305152252 METAR KATL 152252Z 23005KT 10SM FEW250 28/13 A3005 RMK AO2 SLP168 T02830128=
201305152152 METAR KATL 152152Z 25006KT 10SM FEW250 29/12 A3005 RMK AO2 SLP168 T02890122=
201305152052 METAR KATL 152052Z VRB03KT 10SM FEW075 SCT250 29/12 A3007 RMK AO2 SLP174 T02890122 58023=
201305151952 METAR KATL 151952Z 31007KT 10SM FEW250 29/13 A3010 RMK AO2 SLP182 T02940128=
201305151852 METAR KATL 151852Z 30009G15KT 10SM FEW250 29/13 A3012 RMK AO2 SLP191 T02890128=
201305151752 METAR KATL 151752Z 31007KT 10SM FEW250 28/14 A3014 RMK AO2 SLP199 T02830139 10283 20183 58015=
201305151652 METAR KATL 151652Z 27010KT 10SM FEW250 27/13 A3017 RMK AO2 SLP207 T02720133=
201305151552 METAR KATL 151552Z 30010G16KT 10SM FEW250 26/14 A3018 RMK AO2 SLP213 T02610139=
201305151452 METAR KATL 151452Z 29009G16KT 10SM FEW250 24/13 A3019 RMK AO2 SLP214 T02440133 50005=
201305151352 METAR KATL 151352Z 28009KT 10SM FEW250 22/13 A3020 RMK AO2 SLP219 T02220128=
201305151252 METAR KATL 151252Z 27008KT 10SM CLR 21/12 A3019 RMK AO2 SLP216 T02060122=
201305151152 METAR KATL 151152Z 26009KT 10SM CLR 18/12 A3017 RMK AO2 SLP210 T01830117 10183 20161=
201305151052 METAR KATL 151052Z 26005KT 10SM CLR 17/12 A3017 RMK AO2 SLP209 T01720117=
201305150952 METAR KATL 150952Z 25005KT 10SM CLR 17/12 A3015 RMK AO2 SLP203 T01720117 $=
201305150852 METAR KATL 150852Z 25006KT 10SM CLR 17/12 A3015 RMK AO2 SLP202 T01720117 55001=
201305150752 METAR KATL 150752Z 23005KT 10SM CLR 17/12 A3014 RMK AO2 SLP200 T01670117=
201305150652 METAR KATL 150652Z 23005KT 10SM CLR 17/12 A3014 RMK AO2 SLP200 T01720117=
201305150552 METAR KATL 150552Z 22005KT 10SM CLR 17/12 A3015 RMK AO2 SLP204 T01720117 10239 20172 58003=
201305150452 METAR KATL 150452Z 22006KT 10SM CLR 18/12 A3016 RMK AO2 SLP207 T01780117 402560094=
201305150352 METAR KATL 150352Z 23005KT 10SM CLR 19/12 A3016 RMK AO2 SLP208 T01890117=
201305150252 METAR KATL 150252Z 22005KT 10SM CLR 20/12 A3016 RMK AO2 SLP208 T02000117 53009 $=
201305150152 METAR KATL 150152Z 22005KT 10SM CLR 21/12 A3015 RMK AO2 SLP204 T02060122=
201305150052 METAR KATL 150052Z 22005KT 10SM FEW250 22/12 A3014 RMK AO2 SLP200 T02170117=
201305142352 METAR KATL 142352Z 23008KT 10SM CLR 24/11 A3014 RMK AO2 SLP200 T02390111 10256 20233 56009=
201305142252 METAR KATL 142252Z 27009KT 10SM FEW060 25/11 A3014 RMK AO2 SLP202 T02500106=
201305142152 METAR KATL 142152Z 23010G14KT 10SM FEW060 26/11 A3015 RMK AO2 SLP206 T02560111=
201305142052 METAR KATL 142052Z 21009KT 10SM FEW060 25/11 A3016 RMK AO2 SLP211 T02500111 56025=
201305141952 METAR KATL 141952Z 24009KT 10SM SCT060 25/11 A3019 RMK AO2 SLP218 T02500106=
201305141852 METAR KATL 141852Z 30007G17KT 250V320 10SM FEW055 SCT250 24/11 A3021 RMK AO2 SLP225 T02440111=
201305141752 METAR KATL 141752Z 00000KT 10SM FEW070 SCT120 23/09 A3024 RMK AO2 SLP236 ACSL N-NE & W-NW T02330089 10233 20133 58010=
201305141652 METAR KATL 141652Z 17003KT 10SM FEW060 SCT120 SCT250 22/07 A3026 RMK AO2 SLP243 ACSL SW-NW T02170072=
201305141552 METAR KATL 141552Z 00000KT 10SM FEW250 21/07 A3027 RMK AO2 SLP247 T02110067=
201305141452 METAR KATL 141452Z 18006KT 10SM FEW250 19/04 A3027 RMK AO2 SLP248 T01940044 51007=
201305141352 METAR KATL 141352Z 12004KT 10SM FEW250 18/03 A3026 RMK AO2 SLP244 T01780033=
201305141252 METAR KATL 141252Z 15003KT 10SM CLR 17/02 A3026 RMK AO2 SLP244 T01670022 $=
201305141152 METAR KATL 141152Z 00000KT 10SM CLR 13/07 A3025 RMK AO2 SLP240 T01330072 10133 20094 53015=
201305141052 METAR KATL 141052Z 00000KT 10SM CLR 11/06 A3023 RMK AO2 SLP234 T01060056=
201305140952 METAR KATL 140952Z 00000KT 10SM CLR 10/05 A3021 RMK AO2 SLP228 T01000050=
201305140852 METAR KATL 140852Z 00000KT 10SM CLR 10/05 A3020 RMK AO2 SLP225 T01000050 55003=
201305140752 METAR KATL 140752Z 31005KT 10SM CLR 12/05 A3020 RMK AO2 SLP222 T01170050=
201305140652 METAR KATL 140652Z 33005KT 10SM CLR 13/04 A3020 RMK AO2 SLP223 T01330039=
201305140552 METAR KATL 140552Z 31004KT 10SM CLR 13/04 A3021 RMK AO2 SLP227 T01280039 10183 20128 50003=
201305140452 METAR KATL 140452Z 29004KT 10SM CLR 13/04 A3022 RMK AO2 SLP230 T01330039 402110072=
201305140352 METAR KATL 140352Z 28004KT 10SM CLR 14/03 A3021 RMK AO2 SLP228 T01440033=
201305140252 METAR KATL 140252Z 29005KT 10SM CLR 14/03 A3020 RMK AO2 SLP225 T01390033 53014=
201305140152 METAR KATL 140152Z 28006KT 10SM CLR 15/03 A3018 RMK AO2 SLP219 T01500028=
201305140052 METAR KATL 140052Z 28005KT 10SM CLR 16/02 A3017 RMK AO2 SLP213 T01610022=
201305132352 METAR KATL 132352Z 29011KT 10SM FEW250 18/01 A3016 RMK AO2 SLP210 T01830011 10211 20183 53000=
201305132252 METAR KATL 132252Z 28010G17KT 10SM FEW250 19/01 A3015 RMK AO2 SLP209 T01940011=
201305132152 METAR KATL 132152Z 31009G17KT 10SM CLR 20/01 A3015 RMK AO2 SLP207 T02000006=
201305132052 METAR KATL 132052Z 33012G20KT 10SM FEW085 20/M01 A3016 RMK AO2 SLP210 T02001006 58013=
201305131952 METAR KATL 131952Z 33010G18KT 10SM CLR 20/01 A3018 RMK AO2 WSHFT 1927 SLP217 T02000011=
201305131947 SPECI KATL 131947Z 33014KT 10SM CLR 21/01 A3018 RMK AO2 WSHFT 1927=
201305131852 METAR KATL 131852Z 32010G21KT 10SM CLR 19/01 A3020 RMK AO2 SLP223 T01940006=
201305131752 METAR KATL 131752Z 34013G20KT 10SM CLR 19/01 A3022 RMK AO2 SLP230 T01890011 10189 20100 58010=
201305131652 METAR KATL 131652Z 33009G18KT 300V360 10SM CLR 17/00 A3023 RMK AO2 SLP235 T01720000=
201305131552 METAR KATL 131552Z 34008G16KT 10SM CLR 17/M02 A3025 RMK AO2 SLP241 T01671017=
201305131452 METAR KATL 131452Z 35009G17KT 10SM CLR 16/M01 A3025 RMK AO2 SLP241 T01611006 51016=
201305131352 METAR KATL 131352Z 33008KT 300V010 10SM CLR 14/01 A3024 RMK AO2 SLP238 T01440011=
201305131252 METAR KATL 131252Z 34009KT 10SM CLR 13/02 A3023 RMK AO2 SLP235 T01280017=
201305131152 METAR KATL 131152Z 34007KT 10SM FEW250 10/02 A3020 RMK AO2 SLP226 T01000022 10111 20072 53020=
201305131052 METAR KATL 131052Z 32005KT 10SM FEW250 07/03 A3018 RMK AO2 SLP218 T00720028=
201305130952 METAR KATL 130952Z 31003KT 10SM SCT250 09/02 A3015 RMK AO2 SLP208 T00890017 $=
201305130852 METAR KATL 130852Z 33006KT 10SM FEW250 09/02 A3014 RMK AO2 SLP205 T00890022 53009 $=
201305130752 METAR KATL 130752Z 32005KT 10SM SCT250 11/01 A3013 RMK AO2 SLP199 T01060011 $=
201305130652 METAR KATL 130652Z 35007KT 10SM SCT250 11/01 A3012 RMK AO2 SLP196 T01110011 $=
201305130552 METAR KATL 130552Z 34006KT 10SM FEW250 11/02 A3011 RMK AO2 SLP195 T01110017 10178 20111 53003 $=
201305130452 METAR KATL 130452Z 33009KT 10SM FEW250 12/02 A3011 RMK AO2 SLP192 T01220017 402170122 $=
201305130352 METAR KATL 130352Z 33007KT 10SM SCT250 13/02 A3010 RMK AO2 SLP191 T01280022 $=
201305130252 METAR KATL 130252Z 31008KT 10SM FEW250 14/02 A3010 RMK AO2 SLP192 T01390022 53012 $=
201305130152 METAR KATL 130152Z 30006KT 10SM FEW250 14/01 A3009 RMK AO2 SLP187 T01440011 $=
201305130052 METAR KATL 130052Z 31009KT 10SM SCT250 17/01 A3006 RMK AO2 SLP178 T01670006 $=
201305122352 METAR KATL 122352Z 29010KT 10SM SCT250 18/01 A3007 RMK AO2 SLP180 T01780011 10217 20178 53008 $=
201305122252 METAR KATL 122252Z 29013G18KT 10SM SCT250 20/02 A3005 RMK AO2 SLP172 T02000017 $=
201305122152 METAR KATL 122152Z 29014KT 10SM FEW250 21/04 A3005 RMK AO2 SLP172 T02060039 $=
201305122052 METAR KATL 122052Z 30012G20KT 10SM FEW250 21/04 A3004 RMK AO2 SLP169 T02110039 55004 $=
201305121952 METAR KATL 121952Z 32015G20KT 10SM BKN250 21/04 A3003 RMK AO2 SLP164 T02110044 $=
201305121852 METAR KATL 121852Z 30014G22KT 10SM BKN250 21/04 A3004 RMK AO2 SLP169 T02110039 $=
201305121752 METAR KATL 121752Z 30011G17KT 270V330 10SM FEW050 BKN250 21/07 A3006 RMK AO2 SLP173 T02060072 10206 20133 58006 $=
201305121652 METAR KATL 121652Z 30010G16KT 10SM FEW040 BKN250 19/09 A3008 RMK AO2 SLP181 T01940089 $=
201305121552 METAR KATL 121552Z 32010G18KT 10SM FEW040 SCT250 19/08 A3008 RMK AO2 SLP182 T01890078 $=
201305121452 METAR KATL 121452Z 32011KT 10SM FEW026 17/10 A3008 RMK AO2 SLP180 T01720100 53014 $=
201305121352 METAR KATL 121352Z 33010KT 10SM FEW020 16/11 A3005 RMK AO2 SLP173 T01610106 $=
201305121252 METAR KATL 121252Z 33009KT 10SM CLR 14/11 A3004 RMK AO2 SLP169 T01440106 $=
201305121152 METAR KATL 121152Z 31009KT 10SM CLR 13/11 A3003 RMK AO2 SLP165 70003 T01330106 10167 20122 53019 $=
201305121052 METAR KATL 121052Z 31006KT 10SM CLR 12/10 A3001 RMK AO2 SLP159 T01220100 $=
201305120952 METAR KATL 120952Z 32010KT 10SM CLR 13/11 A2999 RMK AO2 SLP150 T01280106 $=
201305120852 METAR KATL 120852Z 32010KT 10SM CLR 14/11 A2997 RMK AO2 SLP143 T01390111 53003 $=
201305120752 METAR KATL 120752Z 33010KT 10SM CLR 15/12 A2996 RMK AO2 SLP140 T01500122 $=
201305120652 METAR KATL 120652Z 32006KT 10SM FEW015 16/14 A2996 RMK AO2 SLP140 T01610139 $=
201305120552 METAR KATL 120552Z 32008KT 10SM SCT012 SCT035 17/16 A2996 RMK AO2 SLP140 60003 T01670156 10206 20167 55001 $=
201305120452 METAR KATL 120452Z 30007KT 9SM SCT026 BKN140 17/16 A2996 RMK AO2 SLP140 T01720156 402500167 $=
201305120352 METAR KATL 120352Z 26005KT 9SM BKN130 BKN200 17/16 A2996 RMK AO2 RAE08 SLP140 P0001 T01670156 $=
201305120252 METAR KATL 120252Z 28008KT 9SM -RA OVC095 17/16 A2997 RMK AO2 SLP142 P0000 60002 T01720156 53016=
201305120152 METAR KATL 120152Z 29009KT 10SM -RA BKN090 OVC200 18/16 A2995 RMK AO2 RAE32B52 SLP136 CB DSNT SW TCU DSNT S P0001 T01780156=
201305120052 METAR KATL 120052Z 26008KT 9SM -RA FEW045TCU BKN060 BKN110 OVC200 19/16 A2993 RMK AO2 RAB36 SLP130 TCU S P0001 T01890156=
201305112352 METAR KATL 112352Z 26006KT 10SM SCT042TCU SCT110 OVC220 21/17 A2992 RMK AO2 SLP126 CB DSNT E & W TCU W-N 60000 T02060172 10250 20206 53001=
201305112252 METAR KATL 112252Z 27009KT 10SM FEW038TCU BKN110 OVC200 21/18 A2992 RMK AO2 RAE32 SLP127 CB DSNT NW-NE TCU VC SE-S P0000 T02110178=
201305112152 METAR KATL 112152Z 24012G18KT 10SM -RA SCT044TCU BKN110 OVC200 23/16 A2991 RMK AO2 RAB52 SLP122 CB DSNT W-N-NE TCU VC ALQDS P0000 T02330161=
201305112052 METAR KATL 112052Z 22010KT 10SM SCT038 BKN150 BKN250 24/16 A2992 RMK AO2 SLP124 CB DSNT ALQDS T02440161 58017=
201305111952 METAR KATL 111952Z 23008G15KT 10SM BKN035 BKN250 24/17 A2994 RMK AO2 SLP132 T02440167=
201305111852 METAR KATL 111852Z 24008G17KT 10SM BKN032 OVC095 24/17 A2996 RMK AO2 SLP139 T02390167=
201305111752 METAR KATL 111752Z 23007KT 10SM FEW028 BKN042 OVC100 23/17 A2997 RMK AO2 SLP142 T02330167 10233 20178 58005=
201305111711 SPECI KATL 111711Z 27009KT 10SM SCT026 BKN036 OVC250 23/17 A2998 RMK AO2=
201305111652 METAR KATL 111652Z 26007KT 10SM BKN026 OVC250 23/17 A2999 RMK AO2 SLP147 T02280167=
201305111552 METAR KATL 111552Z VRB06KT 10SM BKN020 BKN026 OVC250 23/17 A3000 RMK AO2 SLP150 T02280172=
201305111452 METAR KATL 111452Z COR 28009KT 10SM BKN018 OVC250 21/17 A2999 RMK AO2 SLP147 T02110167 51001=
201305111352 METAR KATL 111352Z 25007KT 10SM FEW016 OVC250 21/16 A2999 RMK AO2 SLP147 T02060161=
201305111252 METAR KATL 111252Z 26006KT 9SM FEW008 SCT180 BKN250 19/17 A2999 RMK AO2 SLP148 T01940167=
201305111233 SPECI KATL 111233Z 26007KT 7SM SCT007 BKN250 19/17 A2999 RMK AO2=
201305111152 METAR KATL 111152Z 24005KT 7SM BKN009 BKN130 18/16 A2998 RMK AO2 SLP147 T01780161 10194 20167 53005=
201305111150 SPECI KATL 111150Z 24006KT 7SM BKN009 BKN130 18/16 A2998 RMK AO2=
201305111052 METAR KATL 111052Z 22006KT 9SM FEW130 SCT250 17/16 A2996 RMK AO2 SLP138 T01670156=
201305110952 METAR KATL 110952Z 23004KT 10SM SCT130 17/15 A2996 RMK AO2 SLP139 T01720150=
201305110852 METAR KATL 110852Z 25004KT 10SM BKN130 BKN250 18/15 A2997 RMK AO2 SLP141 T01830150 56010=
201305110752 METAR KATL 110752Z 22003KT 10SM BKN130 OVC250 18/15 A2997 RMK AO2 SLP141 T01830150=
201305110652 METAR KATL 110652Z 00000KT 10SM FEW035 SCT150 BKN250 19/15 A2998 RMK AO2 SLP143 T01890150=
201305110552 METAR KATL 110552Z 22003KT 10SM BKN035 BKN065 OVC180 19/15 A3000 RMK AO2 SLP152 T01890150 10217 20189 58006=
201305110452 METAR KATL 110452Z 21004KT 10SM FEW050 BKN070 OVC250 20/15 A3001 RMK AO2 SLP154 T02000150 402500161=
201305110352 METAR KATL 110352Z 23003KT 10SM FEW050 BKN070 BKN250 20/14 A3001 RMK AO2 SLP156 T02000144=
201305110252 METAR KATL 110252Z 24004KT 10SM SCT048 OVC065 21/14 A3002 RMK AO2 SLP158 T02060144 51012=
201305110152 METAR KATL 110152Z 26004KT 10SM BKN050 OVC100 21/14 A3002 RMK AO2 SLP157 T02110144=
201305110052 METAR KATL 110052Z 23005KT 10SM BKN065 BKN110 21/14 A3000 RMK AO2 SLP152 T02110144=
201305102352 METAR KATL 102352Z 21005KT 10SM BKN075 BKN110 BKN150 22/14 A2998 RMK AO2 SLP147 T02170139 10250 20217 56012=
201305102252 METAR KATL 102252Z 19007KT 10SM FEW045 SCT095 BKN120 BKN150 22/13 A3000 RMK AO2 SLP151 T02220133=
201305102152 METAR KATL 102152Z 20004KT 10SM FEW045 SCT120 BKN150 OVC200 23/14 A3000 RMK AO2 SLP154 T02330139=
201305102052 METAR KATL 102052Z 21007KT 10SM FEW045 BKN150 OVC200 23/14 A3002 RMK AO2 SLP159 T02330139 56020=
201305101952 METAR KATL 101952Z 23009KT 10SM FEW050 BKN150 OVC200 24/13 A3003 RMK AO2 SLP162 T02390133=
201305101852 METAR KATL 101852Z 22009KT 10SM FEW050 SCT060 BKN150 OVC200 24/14 A3006 RMK AO2 SLP172 T02440139=
201305101752 METAR KATL 101752Z 21015G20KT 10SM FEW050 SCT150 OVC200 24/13 A3008 RMK AO2 SLP179 T02440133 10250 20178 58010=
201305101652 METAR KATL 101652Z 23010KT 10SM FEW045 SCT060 BKN150 BKN200 24/14 A3011 RMK AO2 SLP187 T02440139=
201305101552 METAR KATL 101552Z 25007KT 10SM FEW040 SCT060 BKN150 BKN200 23/13 A3012 RMK AO2 SLP192 T02330133=
201305101452 METAR KATL 101452Z 29007KT 10SM SCT055 BKN200 23/14 A3011 RMK AO2 SLP188 T02280144 51012=
201305101352 METAR KATL 101352Z 27010G14KT 10SM BKN200 21/16 A3010 RMK AO2 SLP187 T02110156=
201305101252 METAR KATL 101252Z 24005KT 10SM FEW160 BKN220 19/15 A3009 RMK AO2 SLP182 T01940150=
201305101152 METAR KATL 101152Z 22003KT 9SM SCT160 OVC220 17/14 A3007 RMK AO2 SLP177 T01720139 10189 20161 53010=
201305101052 METAR KATL 101052Z 20003KT 9SM SCT180 OVC220 16/13 A3006 RMK AO2 SLP171 T01610133=
201305100952 METAR KATL 100952Z 18003KT 10SM SCT180 BKN250 16/13 A3005 RMK AO2 SLP168 T01610133=
201305100852 METAR KATL 100852Z 00000KT 10SM FEW180 BKN250 16/14 A3004 RMK AO2 SLP166 T01610139 56020=
201305100752 METAR KATL 100752Z 00000KT 10SM FEW180 BKN250 17/14 A3006 RMK AO2 SLP172 T01720139=
201305100652 METAR KATL 100652Z 00000KT 10SM FEW130 BKN250 18/14 A3008 RMK AO2 SLP178 T01780139=
201305100552 METAR KATL 100552Z 00000KT 10SM FEW130 BKN250 19/13 A3010 RMK AO2 SLP186 T01890133 10250 20183 58001=
201305100452 METAR KATL 100452Z 20003KT 10SM FEW150 BKN250 19/13 A3011 RMK AO2 SLP187 T01940133 402780144=
201305100352 METAR KATL 100352Z 22003KT 10SM FEW150 SCT250 20/13 A3011 RMK AO2 SLP189 T02000133=
201305100252 METAR KATL 100252Z 00000KT 10SM SCT150 BKN250 21/13 A3011 RMK AO2 SLP187 T02110133 51013=
201305100152 METAR KATL 100152Z 21003KT 10SM SCT250 22/13 A3009 RMK AO2 SLP184 T02170133=
201305100052 METAR KATL 100052Z 22004KT 10SM FEW150 SCT250 22/12 A3008 RMK AO2 SLP180 T02220122=
201305092352 METAR KATL 092352Z 25006KT 10SM FEW055 BKN250 25/11 A3007 RMK AO2 SLP174 T02500111 10278 20250 56006=
201305092252 METAR KATL 092252Z 25007KT 10SM FEW055 BKN250 26/13 A3007 RMK AO2 SLP176 T02610128=
201305092152 METAR KATL 092152Z 27008KT 10SM FEW055 BKN250 27/13 A3007 RMK AO2 SLP175 T02670128=
201305092052 METAR KATL 092052Z 28008KT 10SM FEW060 SCT090 SCT250 27/12 A3009 RMK AO2 SLP181 T02720122 56017=
201305091952 METAR KATL 091952Z 24009KT 210V280 10SM BKN060 BKN080 BKN250 27/13 A3010 RMK AO2 SLP185 T02720128=
201305091852 METAR KATL 091852Z 24009KT 10SM SCT060TCU SCT250 27/13 A3012 RMK AO2 SLP191 TCU N & SE-S & NW T02670128=
201305091752 METAR KATL 091752Z 30006KT 10SM SCT050TCU SCT250 27/13 A3014 RMK AO2 SLP197 TCU ALQDS T02670128 10267 20167 50000=
201305091652 METAR KATL 091652Z VRB03KT 10SM SCT050TCU SCT250 26/13 A3014 RMK AO2 SLP199 TCU NE-E & S & W T02560133=
201305091552 METAR KATL 091552Z VRB05KT 10SM FEW040 SCT200 SCT250 25/14 A3014 RMK AO2 SLP200 T02500139=
201305091452 METAR KATL 091452Z 29008KT 10SM SCT250 23/14 A3014 RMK AO2 SLP198 T02330144 51011=
201305091352 METAR KATL 091352Z 31010KT 10SM BKN250 21/14 A3013 RMK AO2 SLP196 T02110139=
201305091252 METAR KATL 091252Z 30005KT 10SM BKN250 21/14 A3011 RMK AO2 SLP191 T02060139=
201305091152 METAR KATL 091152Z 00000KT 10SM FEW250 17/13 A3010 RMK AO2 SLP188 T01670133 10178 20144 53013=
201305091052 METAR KATL 091052Z 30003KT 10SM FEW250 14/12 A3009 RMK AO2 SLP183 T01440122=
201305090952 METAR KATL 090952Z 30006KT 10SM FEW070 15/13 A3008 RMK AO2 SLP180 T01500128=
201305090852 METAR KATL 090852Z 29005KT 10SM FEW070 SCT250 16/13 A3006 RMK AO2 SLP176 T01560128 55001=
201305090752 METAR KATL 090752Z 26003KT 10SM CLR 16/13 A3005 RMK AO2 SLP168 T01610128=
201305090652 METAR KATL 090652Z 27003KT 10SM FEW100 17/13 A3005 RMK AO2 SLP171 T01670128=
201305090552 METAR KATL 090552Z 28004KT 10SM FEW100 17/13 A3007 RMK AO2 SLP175 T01720128 10217 20167 58005=
201305090452 METAR KATL 090452Z 26004KT 10SM FEW060 SCT110 18/13 A3008 RMK AO2 SLP180 T01780128 402440111=
201305090352 METAR KATL 090352Z 00000KT 10SM FEW060 18/13 A3009 RMK AO2 SLP182 T01780133=
201305090252 METAR KATL 090252Z 27003KT 10SM FEW060 18/13 A3008 RMK AO2 SLP181 T01830133 53017=
201305090152 METAR KATL 090152Z 27003KT 10SM FEW060 19/13 A3007 RMK AO2 SLP176 T01940128=
201305090052 METAR KATL 090052Z 24003KT 10SM FEW045 21/13 A3005 RMK AO2 SLP169 T02060128=
201305082352 METAR KATL 082352Z 28005KT 10SM FEW045 22/13 A3003 RMK AO2 SLP165 TCU DSNT SW-W 60000 T02170128 10244 20211 55003=
201305082252 METAR KATL 082252Z 27008KT 10SM FEW045 BKN100 23/13 A3003 RMK AO2 SLP164 T02280128=
201305082152 METAR KATL 082152Z VRB03KT 10SM FEW050 BKN100 23/13 A3003 RMK AO2 RAE08 SLP165 P0000 T02330128=
201305082052 METAR KATL 082052Z 27006KT 10SM -RA BKN055 BKN065 BKN095 22/12 A3004 RMK AO2 RAB39 SLP169 VIS LWR SE-SW SHRA P0000 60000 T02170122 55006=
201305082015 SPECI KATL 082015Z 27009G15KT 10SM FEW045 BKN095 BKN250 23/12 A3003 RMK AO2 VIRGA NW-N CB DSNT NW=
201305081952 METAR KATL 081952Z 26008KT 10SM FEW047 SCT090 SCT250 24/13 A3004 RMK AO2 SLP167 TCU DSNT SW-NW T02390128=
201305081852 METAR KATL 081852Z 27008KT 10SM SCT050TCU SCT070 22/12 A3005 RMK AO2 SLP172 TCU SW-N T02220117=
201305081752 METAR KATL 081752Z 27006KT 10SM FEW050TCU SCT070 SCT250 22/11 A3006 RMK AO2 SLP174 TCU SW T02170111 10233 20133 58005=
201305081652 METAR KATL 081652Z 32010KT 10SM SCT042TCU SCT250 22/12 A3007 RMK AO2 SLP179 TCU NE & SE & NW T02220117=
201305081552 METAR KATL 081552Z 29010KT 10SM BKN036TCU BKN250 21/13 A3008 RMK AO2 SLP181 TCU NE-W T02110128=
201305081452 METAR KATL 081452Z 32008KT 10SM FEW030 SCT250 20/13 A3007 RMK AO2 SLP179 T02000128 51009=
201305081352 METAR KATL 081352Z 31009KT 10SM FEW250 18/12 A3007 RMK AO2 SLP179 T01780122=
201305081252 METAR KATL 081252Z 31009KT 10SM FEW250 16/11 A3006 RMK AO2 SLP177 T01560111=
201305081152 METAR KATL 081152Z 28005KT 10SM FEW080 13/10 A3004 RMK AO2 SLP172 T01330100 10133 20111 53018=
201305081052 METAR KATL 081052Z 28006KT 10SM FEW080 SCT200 12/09 A3002 RMK AO2 SLP162 T01170094=
201305080952 METAR KATL 080952Z 27005KT 10SM FEW070 11/09 A3000 RMK AO2 SLP157 T01110094=
201305080852 METAR KATL 080852Z 29007KT 10SM CLR 12/09 A2999 RMK AO2 SLP153 T01170094 55000=
201305080752 METAR KATL 080752Z 28007KT 10SM FEW200 12/09 A2998 RMK AO2 SLP150 T01220094=
201305080652 METAR KATL 080652Z 28006KT 10SM FEW060 12/09 A2998 RMK AO2 SLP149 T01220094=
201305080552 METAR KATL 080552Z 28006KT 10SM FEW060 13/09 A2999 RMK AO2 SLP153 T01280094 10178 20122 58004=
201305080452 METAR KATL 080452Z 27005KT 10SM FEW060 13/10 A3000 RMK AO2 SLP157 T01280100 402000094=
201305080352 METAR KATL 080352Z 24004KT 10SM FEW060 14/10 A3000 RMK AO2 SLP157 T01390100=
201305080252 METAR KATL 080252Z 26003KT 10SM FEW040 14/11 A3000 RMK AO2 SLP159 T01390106 53014=
201305080152 METAR KATL 080152Z 26006KT 10SM FEW040 15/11 A2999 RMK AO2 SLP154 T01500106=
201305080052 METAR KATL 080052Z 27007KT 10SM FEW040 16/11 A2997 RMK AO2 SLP148 T01610106=
201305072352 METAR KATL 072352Z 24007KT 10SM FEW040TCU SCT250 18/11 A2996 RMK AO2 SLP144 TCU S T01780106 10200 20161 51008=
201305072252 METAR KATL 072252Z 26011KT 10SM FEW040 SCT065 18/10 A2996 RMK AO2 SLP141 T01830100=
201305072152 METAR KATL 072152Z 24008G16KT 10SM FEW038 SCT055 BKN070 20/11 A2995 RMK AO2 SLP138 T02000111=
201305072052 METAR KATL 072052Z 22009KT 10SM FEW038TCU SCT050 SCT070 19/11 A2994 RMK AO2 SLP135 TCU NE T01890111 58012=
201305071952 METAR KATL 071952Z 25008KT 10SM FEW035 BKN045 BKN065 19/10 A2995 RMK AO2 SLP140 T01890100=
201305071852 METAR KATL 071852Z 22009KT 10SM FEW030 SCT040 SCT050 18/11 A2996 RMK AO2 SLP145 T01780106=
201305071804 SPECI KATL 071804Z 23004KT 10SM BKN030 BKN050 BKN250 16/09 A2997 RMK AO2=
201305071752 METAR KATL 071752Z 26003KT 10SM BKN029 BKN040 BKN250 17/09 A2997 RMK AO2 SLP147 60000 T01670094 10172 20100 55004=
201305071749 SPECI KATL 071749Z VRB03KT 10SM BKN029 BKN040 BKN250 17/09 A2997 RMK AO2=
201305071652 METAR KATL 071652Z 29003KT 10SM FEW020 SCT040 16/09 A2997 RMK AO2 SLP148 T01560094=
201305071559 SPECI KATL 071559Z 00000KT 10SM FEW020 BKN030 BKN037 14/09 A2998 RMK AO2=
201305071552 METAR KATL 071552Z 00000KT 10SM FEW017 BKN028 BKN034 14/09 A2998 RMK AO2 SLP153 T01440094=
201305071452 METAR KATL 071452Z 00000KT 10SM FEW014 SCT018 OVC024 13/09 A2997 RMK AO2 DZE19 SLP148 BINOVC DSNT S-SW P0000 60000 T01280089 51014=
201305071423 SPECI KATL 071423Z 00000KT 10SM FEW010 BKN016 BKN020 12/09 A2996 RMK AO2 DZE19 P0000=
201305071352 METAR KATL 071352Z 33006KT 8SM -DZ BKN010 BKN015 OVC020 11/09 A2996 RMK AO2 DZB50 SLP144 P0000 T01110089=
201305071316 SPECI KATL 071316Z 33006KT 6SM BR FEW005 BKN015 OVC020 11/09 A2995 RMK AO2=
201305071252 METAR KATL 071252Z 30006KT 6SM BR BKN007 OVC015 11/09 A2994 RMK AO2 SLP140 CIG 006V009 T01060089=
201305071152 METAR KATL 071152Z 31006KT 6SM BR BKN007 OVC012 10/09 A2993 RMK AO2 SLP135 70015 T01000089 10106 20094 53018=
201305071137 SPECI KATL 071137Z 30006KT 6SM BR BKN007 OVC012 10/08 A2993 RMK AO2=
201305071104 SPECI KATL 071104Z 29007KT 7SM SCT007 OVC012 09/08 A2990 RMK AO2=
201305071052 METAR KATL 071052Z 31008KT 7SM OVC009 10/08 A2990 RMK AO2 SLP126 T01000083=
201305070952 METAR KATL 070952Z 28004KT 6SM BR BKN007 BKN032 10/09 A2988 RMK AO2 SLP118 T01000089=
201305070915 SPECI KATL 070915Z 29005KT 6SM BR SCT007 BKN012 OVC026 11/09 A2988 RMK AO2=
201305070852 METAR KATL 070852Z 31008KT 7SM FEW007 BKN023 BKN040 11/09 A2988 RMK AO2 SLP116 T01060089 56004=
201305070837 SPECI KATL 070837Z 31008KT 7SM FEW007 SCT016 OVC023 10/09 A2988 RMK AO2 $=
201305070752 METAR KATL 070752Z 26005KT 6SM BR BKN006 OVC040 10/09 A2988 RMK AO2 SLP117 CIG 004V008 T01000089=
201305070745 SPECI KATL 070745Z 26004KT 6SM BR BKN006 OVC040 10/09 A2988 RMK AO2=
201305070701 SPECI KATL 070701Z 27004KT 7SM SCT006 BKN012 OVC032 10/09 A2988 RMK AO2=
201305070652 METAR KATL 070652Z 26004KT 7SM BKN008 BKN032 OVC075 10/09 A2988 RMK AO2 SLP117 T01000089=
201305070622 SPECI KATL 070622Z 26003KT 7SM BKN008 BKN028 OVC075 10/09 A2988 RMK AO2=
201305070552 METAR KATL 070552Z 00000KT 8SM FEW008 BKN026 BKN075 BKN220 10/09 A2989 RMK AO2 SLP120 60014 T01000089 10133 20094 57002=
201305070550 SPECI KATL 070550Z 00000KT 8SM FEW008 BKN026 BKN075 BKN220 10/08 A2989 RMK AO2=
201305070452 METAR KATL 070452Z 24004KT 10SM FEW008 SCT075 BKN150 BKN200 11/09 A2990 RMK AO2 SLP124 T01060089 401500067=
201305070352 METAR KATL 070352Z 19003KT 10SM FEW050 SCT120 BKN150 OVC200 11/10 A2988 RMK AO2 RAE32 SLP119 P0001 T01110100=
201305070305 SPECI KATL 070305Z 00000KT 10SM FEW045 SCT070 BKN120 OVC200 11/10 A2989 RMK AO2 RAE04 P0001=
201305070252 METAR KATL 070252Z 00000KT 4SM RA BR FEW030 BKN045 OVC070 12/10 A2989 RMK AO2 SLP123 P0011 60013 T01170100 51008=
201305070152 METAR KATL 070152Z 19006KT 7SM -RA FEW025 SCT040 BKN065 OVC150 13/11 A2989 RMK AO2 SLP122 P0002 T01280106=
201305070052 METAR KATL 070052Z 15005KT 10SM -RA SCT039 BKN070 BKN110 BKN200 13/10 A2987 RMK AO2 RAB52 SLP116 P0000 T01330100=
201305062352 METAR KATL 062352Z 13004KT 10SM SCT030 BKN036 BKN070 BKN200 13/09 A2987 RMK AO2 SLP114 60001 T01330094 10150 20128 56005=
201305062252 SPECI KATL 062252Z 16005KT 10SM SCT038 BKN045 BKN080 OVC150 13/09 A2987 RMK AO2 RAE25 SLP115 P0000 T01330094=
201305062252 METAR KATL 062252Z 16005KT 10SM SCT038 BKN045 BKN080 OVC150 13/09 A2987 RMK AO2 RAE25 SLP115 P0000 T01330094=
201305062152 METAR KATL 062152Z 18005KT 10SM -RA FEW025 BKN045 OVC080 13/09 A2987 RMK AO2 SLP116 P0001 T01330094=
201305062052 METAR KATL 062052Z 19004KT 10SM -RA FEW028 BKN040 OVC080 13/09 A2988 RMK AO2 RAB31 SLP119 P0000 60000 T01330094 58007=
201305062043 SPECI KATL 062043Z 20007KT 8SM -RA BKN028 BKN040 OVC080 13/09 A2988 RMK AO2 RAB31 P0000=
201305061952 METAR KATL 061952Z 22007KT 10SM FEW030 BKN040 OVC050 14/08 A2989 RMK AO2 SLP122 T01390078=
201305061852 METAR KATL 061852Z 22009G14KT 10SM FEW035 BKN050 BKN080 14/07 A2990 RMK AO2 SLP124 T01440072=
201305061752 METAR KATL 061752Z VRB04KT 10SM FEW025 BKN040 BKN080 14/08 A2990 RMK AO2 SLP126 T01390078 10139 20089 50002=
201305061704 SPECI KATL 061704Z 23007KT 10SM SCT025 BKN030 OVC040 13/07 A2991 RMK AO2=
201305061652 METAR KATL 061652Z 24004KT 10SM BKN025 BKN030 OVC035 12/07 A2991 RMK AO2 SLP129 T01220072=
201305061552 METAR KATL 061552Z 22008KT 10SM FEW020 BKN025 OVC030 12/07 A2991 RMK AO2 SLP129 T01170072=
201305061452 METAR KATL 061452Z 23007KT 10SM BKN015 BKN018 BKN150 11/07 A2990 RMK AO2 SLP124 T01060072 50009=
201305061440 SPECI KATL 061440Z 23005KT 10SM OVC015 11/07 A2989 RMK AO2=
201305061352 METAR KATL 061352Z 24006KT 10SM OVC013 10/08 A2990 RMK AO2 SLP125 T01000078=
201305061338 SPECI KATL 061338Z 23009KT 8SM OVC011 09/07 A2989 RMK AO2=
201305061252 METAR KATL 061252Z 23007KT 7SM OVC009 09/08 A2988 RMK AO2 SLP120 T00940078=
201305061152 METAR KATL 061152Z 22004KT 7SM BKN009 OVC017 09/08 A2987 RMK AO2 SLP114 CIG 008V012 70039 T00890078 10089 20067 53014=
201305061123 SPECI KATL 061123Z 22006KT 6SM BR BKN009 OVC024 08/07 A2986 RMK AO2 CIG 008V012=
201305061052 METAR KATL 061052Z 21006KT 2 1/2SM BR SCT005 BKN009 OVC020 08/07 A2984 RMK AO2 SFC VIS 6 SLP106 T00830072=
201305061046 SPECI KATL 061046Z 21007KT 2 1/2SM BR BKN005 OVC020 08/07 A2984 RMK AO2 SFC VIS 6=
201305060952 METAR KATL 060952Z 20006KT 1 1/2SM BR BKN004 08/07 A2983 RMK AO2 SFC VIS 4 SLP101 T00780067 $=
201305060943 SPECI KATL 060943Z 21006KT 1 1/2SM BR OVC004 08/07 A2983 RMK AO2 SFC VIS 4 $=
201305060917 SPECI KATL 060917Z 20007KT 1/2SM BR OVC003 07/06 A2983 RMK AO2 SFC VIS 3 $=
201305060852 METAR KATL 060852Z 20007KT 1SM BR OVC003 07/06 A2983 RMK AO2 SFC VIS 4 SLP099 T00720061 55003 $=
201305060801 SPECI KATL 060801Z 23005KT 7SM BKN003 07/06 A2983 RMK AO2 $=
201305060752 METAR KATL 060752Z 22006KT 9SM SCT003 07/06 A2982 RMK AO2 SLP098 T00720061 $=
201305060652 METAR KATL 060652Z 23004KT 8SM FEW008 07/06 A2982 RMK AO2 SLP097 T00720061 $=
201305060552 METAR KATL 060552Z 26005KT 7SM SCT008 08/07 A2984 RMK AO2 SLP101 60030 T00780067 10117 20078 56001 $=
201305060530 SPECI KATL 060530Z 25006KT 8SM FEW008 08/07 A2984 RMK AO2 $=
201305060452 METAR KATL 060452Z 25008KT 9SM FEW012 08/07 A2984 RMK AO2 SLP104 T00830067 401940083 $=
201305060352 METAR KATL 060352Z 24005KT 9SM FEW012 SCT045 SCT075 09/08 A2983 RMK AO2 SLP102 T00940078 $=
201305060252 METAR KATL 060252Z 26005KT 7SM FEW011 SCT065 SCT100 10/08 A2984 RMK AO2 RAE0157 SLP105 P0000 60030 T01000083 51018 $=
201305060152 METAR KATL 060152Z 29006KT 8SM -RA FEW024 BKN065 BKN100 11/09 A2984 RMK AO2 RAE25B41 SLP103 CB DSNT N-NE P0007 T01060094 $=
201305060052 METAR KATL 060052Z 26006KT 4SM RA BR FEW023 BKN044 OVC065 11/09 A2983 RMK AO2 SLP102 CB DSNT NE & SE TCU DSNT SW P0023 T01110094 $=
201305052352 METAR KATL 052352Z 28011KT 3SM RA BR FEW022CB BKN048 OVC065 12/10 A2979 RMK AO2 PK WND 26026/2335 RAB29 SLP086 CB VC NE-SE MOV NE TCU DSNT SW P0009 60009 T01170100 10194 20117 53008 $=
201305052345 SPECI KATL 052345Z 26011G23KT 3SM RA BR FEW022CB BKN048 OVC065 12/09 A2979 RMK AO2 PK WND 26026/2335 RAB29 CB OHD & SE-S MOV NE P0006 $=
201305052252 METAR KATL 052252Z 26007KT 10SM FEW050 BKN085 BKN200 14/11 A2976 RMK AO2 RAE23 SLP077 CB DSNT N & S & W TCU DSNT E P0000 T01440111 $=
201305052152 METAR KATL 052152Z 17009KT 7SM -RA SCT050TCU BKN100 BKN200 16/09 A2977 RMK AO2 PK WND 15027/2141 RAB36 SLP080 CB DSNT SW-W TCU ALQDS P0000 T01560089 $=
201305052052 METAR KATL 052052Z 16004KT 10SM FEW055 SCT070 BKN100 18/07 A2976 RMK AO2 SLP075 TCU DSNT N AND SW-W T01830072 58020 $=
201305051952 METAR KATL 051952Z 21006KT 10SM FEW050 BKN095 18/07 A2978 RMK AO2 SLP083 TCU DSNT W T01830067 $=
201305051852 METAR KATL 051852Z VRB05KT 10SM SCT045 BKN070 19/08 A2981 RMK AO2 SLP091 T01890078 $=
201305051752 METAR KATL 051752Z 00000KT 10SM FEW035 18/09 A2982 RMK AO2 SLP095 T01830089 10189 20100 58009 $=
201305051652 METAR KATL 051652Z 29004KT 10SM FEW015 SCT220 17/10 A2983 RMK AO2 SLP099 T01670100 $=
201305051552 METAR KATL 051552Z 00000KT 8SM SCT009 14/11 A2985 RMK AO2 SLP106 T01390111 $=
201305051546 SPECI KATL 051546Z 00000KT 8SM SCT009 14/11 A2985 RMK AO2 $=
201305051501 SPECI KATL 051501Z 30003KT 3SM BKN005 OVC009 12/10 A2985 RMK AO2 SFC VIS 10 $=
201305051452 METAR KATL 051452Z 33006KT 1 1/4SM BR BKN004 OVC007 12/10 A2985 RMK AO2 SFC VIS 6 SLP108 T01170100 50007 $=
201305051352 METAR KATL 051352Z 27007KT 1 1/4SM BR BKN003 OVC012 11/10 A2985 RMK AO2 SFC VIS 5 SLP110 T01060100 $=
201305051345 SPECI KATL 051345Z 28007KT 1 1/4SM BR OVC003 11/10 A2986 RMK AO2 SFC VIS 5 $=
201305051252 METAR KATL 051252Z 28011KT 1/2SM BR OVC003 11/09 A2985 RMK AO2 SFC VIS 5 SLP108 TWRINC T01060094 $=
201305051239 SPECI KATL 051239Z 30008KT 1/2SM BR OVC004 11/09 A2984 RMK AO2 SFC VIS 6 $=
201305051152 METAR KATL 051152Z 30007KT 1 3/4SM BR OVC004 11/09 A2983 RMK AO2 SFC VIS 4 DZE02RAB05E16 SLP102 VIS NW-NE 2 1/2 P0000 60023 70346 T01060094 10122 20100 53010 $=
201305051140 SPECI KATL 051140Z 30008KT 1 3/4SM BR BKN004 OVC025 11/09 A2983 RMK AO2 SFC VIS 5 DZE02RAB05E16 P0000 $=
201305051137 SPECI KATL 051137Z 30008KT 3SM BR BKN004 OVC025 11/09 A2983 RMK AO2 SFC VIS 5 DZE02RAB05E16 P0000 $=
201305051119 SPECI KATL 051119Z 32006KT 3SM BR FEW004 BKN023 11/09 A2983 RMK AO2 SFC VIS 5 DZE02RAB05E16 P0000 $=
201305051111 SPECI KATL 051111Z 32008KT 2 1/2SM -RA BR FEW004 BKN023 10/09 A2982 RMK AO2 SFC VIS 3 DZE02RAB05 P0000 $=
201305051052 METAR KATL 051052Z 32007KT 2 1/2SM -DZ BR BKN004 BKN022 OVC027 10/09 A2982 RMK AO2 SFC VIS 4 RAE0957DZB0957 SLP098 P0001 T01000094 $=
201305050959 SPECI KATL 050959Z 30007KT 2 1/2SM -DZ BR BKN004 OVC016 10/09 A2980 RMK AO2 RAE57DZB57 P0000 $=
201305050952 METAR KATL 050952Z 31008KT 2 1/2SM -RA BR SCT004 SCT008 OVC014 10/09 A2980 RMK AO2 SFC VIS 3 RAB44 SLP092 P0001 T01000089 $=
201305050950 SPECI KATL 050950Z 31009KT 2 1/2SM -RA BR SCT004 SCT008 OVC014 10/09 A2980 RMK AO2 SFC VIS 3 RAB44 P0001 $=
201305050944 SPECI KATL 050944Z 31008KT 2 1/2SM -RA BR SCT004 SCT008 OVC015 10/09 A2980 RMK AO2 SFC VIS 5 RAB44 P0000 $=
201305050852 METAR KATL 050852Z 29008KT 2 1/2SM BR BKN004 OVC008 10/09 A2979 RMK AO2 SFC VIS 6 RAE0754B29E45 SLP089 P0000 60021 T01000089 56009 $=
201305050752 METAR KATL 050752Z 29009KT 2 1/2SM -RA BR OVC004 10/09 A2980 RMK AO2 SFC VIS 6 SLP092 P0005 T01000094 $=
201305050720 SPECI KATL 050720Z 29006KT 2 1/2SM -RA BR BKN004 OVC042 11/09 A2980 RMK AO2 SFC VIS 4 VIS N-NE 2 P0004 $=
201305050656 SPECI KATL 050656Z 33008KT 2 1/2SM -RA BR SCT004 SCT020 OVC044 11/10 A2981 RMK AO2 SFC VIS 3 P0000 $=
201305050652 METAR KATL 050652Z 32008KT 2 1/2SM RA BR SCT004 BKN020 OVC044 11/09 A2981 RMK AO2 SLP093 P0016 T01060094 $=
201305050641 SPECI KATL 050641Z 31009KT 1 1/2SM RA BR SCT004 BKN020 OVC034 11/10 A2982 RMK AO2 TWR VIS 2 1/2 P0013 $=
201305050629 SPECI KATL 050629Z 28009KT 1 1/2SM RA BR FEW004 OVC014 11/11 A2982 RMK AO2 TWR VIS 2 1/2 P0008 $=
201305050610 SPECI KATL 050610Z 31008KT 2SM -RA BR SCT004 OVC014 12/11 A2982 RMK AO2 TWR VIS 2 1/2 P0002 $=
201305050552 METAR KATL 050552Z 30007KT 1 1/2SM -RA BR FEW008 OVC018 12/12 A2982 RMK AO2 TWR VIS 2 1/2 SLP098 P0025 60182 T01220117 10133 20122 58011 $=
201305050550 SPECI KATL 050550Z 29006KT 1 1/2SM RA BR FEW008 OVC018 12/12 A2982 RMK AO2 TWR VIS 2 1/2 P0024 $=
201305050522 SPECI KATL 050522Z 32006KT 2SM RA BR SCT008 BKN016 OVC028 12/12 A2983 RMK AO2 TWR VIS 2 1/2 P0015 $=
201305050452 METAR KATL 050452Z 32006KT 2 1/2SM RA BR SCT008 OVC012 12/12 A2984 RMK AO2 SLP104 P0025 T01220117 401500106 $=
201305050434 SPECI KATL 050434Z 32006KT 2 1/2SM -RA BR BKN008 OVC018 12/12 A2984 RMK AO2 P0021 $=
201305050414 SPECI KATL 050414Z 32006KT 2 1/2SM RA BR FEW008 BKN022 OVC035 12/12 A2984 RMK AO2 P0016 $=
201305050352 METAR KATL 050352Z 31006KT 2SM +RA BR SCT006 BKN012 OVC020 12/12 A2985 RMK AO2 TWR VIS 2 1/2 SLP108 P0040 T01220117 $=
201305050336 SPECI KATL 050336Z 31008KT 2SM +RA BR SCT006 BKN012 OVC024 12/12 A2985 RMK AO2 TWR VIS 2 1/2 P0032 $=
201305050302 SPECI KATL 050302Z 00000KT 2 1/2SM RA BR BKN005 OVC016 13/12 A2986 RMK AO2 P0004 $=
201305050252 METAR KATL 050252Z 06003KT 2SM RA BR SCT004 OVC018 13/12 A2986 RMK AO2 TWR VIS 2 1/2 SLP110 P0028 60092 T01280117 53003 $=
201305050210 SPECI KATL 050210Z 06006KT 2 1/2SM -RA BR BKN007 OVC026 13/12 A2987 RMK AO2 SFC VIS 3 P0009 $=
201305050152 METAR KATL 050152Z 07007KT 2 1/2SM +RA BR FEW005 BKN025 OVC040 13/12 A2985 RMK AO2 SLP110 VIS 2V3 P0033 T01280117 $=
201305050058 SPECI KATL 050058Z 07010KT 2 1/2SM RA BR SCT006 BKN028 OVC044 13/12 A2985 RMK AO2 SFC VIS 3 P0000=
201305050052 METAR KATL 050052Z 06008KT 2 1/2SM RA BR BKN006 OVC044 13/12 A2984 RMK AO2 SFC VIS 3 SLP106 P0031 T01280117=
201305050043 SPECI KATL 050043Z 07015KT 2 1/2SM +RA BR BKN006 OVC022 13/12 A2985 RMK AO2 P0023=
201305042352 METAR KATL 042352Z 07012KT 3SM RA BR BKN006 OVC025 13/12 A2985 RMK AO2 SLP106 P0014 60119 T01280117 10133 20117 58010=
201305042333 SPECI KATL 042333Z 05013KT 3SM -RA BR BKN006 OVC011 13/11 A2984 RMK AO2 SFC VIS 4 P0008=
201305042320 SPECI KATL 042320Z 05012KT 3SM -RA BR SCT007 BKN011 OVC034 13/11 A2985 RMK AO2 P0006=
201305042303 SPECI KATL 042303Z 06012KT 3SM RA BR FEW006 OVC028 13/11 A2986 RMK AO2 P0003=
201305042252 METAR KATL 042252Z 05010KT 3SM RA BR SCT006 BKN038 OVC070 13/11 A2986 RMK AO2 SFC VIS 4 SLP110 P0008 T01280111=
201305042152 METAR KATL 042152Z 05011KT 3SM -RA BR SCT005 BKN060 OVC085 13/11 A2987 RMK AO2 SFC VIS 4 SLP116 P0007 T01280111=
201305042052 METAR KATL 042052Z 01009KT 3SM RA BR SCT003 SCT049 OVC070 12/11 A2988 RMK AO2 SFC VIS 5 SLP117 P0024 60090 T01220111 50004=
201305042030 SPECI KATL 042030Z 33007KT 2SM RA BR FEW003 BKN030 OVC048 12/11 A2989 RMK AO2 SFC VIS 2 1/2 P0020=
201305042023 SPECI KATL 042023Z 33006KT 3SM RA BR FEW003 BKN024 OVC050 12/11 A2989 RMK AO2 P0018=
201305041952 METAR KATL 041952Z 30006KT 1 1/2SM R09R/6000VP6000FT RA BR FEW007 BKN022 OVC049 12/11 A2992 RMK AO2 SFC VIS 2 SLP129 P0025 T01220111=
201305041944 SPECI KATL 041944Z 28007KT 1 1/2SM R09R/6000VP6000FT -RA BR FEW007 BKN026 OVC048 12/11 A2989 RMK AO2 SFC VIS 2 1/2 P0024=
201305041929 SPECI KATL 041929Z 35006KT 1 1/2SM RA BR FEW010 BKN025 OVC034 12/11 A2989 RMK AO2 SFC VIS 2 1/2 PRESFR P0020=
201305041905 SPECI KATL 041905Z 28005KT 1SM R09R/5500VP6000FT RA BR FEW006 BKN013 OVC021 12/11 A2990 RMK AO2 SFC VIS 1 1/2 P0003=
201305041852 METAR KATL 041852Z 02005KT 1SM R09R/5500VP6000FT RA BR FEW006 SCT013 OVC021 12/11 A2989 RMK AO2 SFC VIS 2 SLP118 P0041 T01220111=
201305041833 SPECI KATL 041833Z 29005KT 1SM R09R/4500V6000FT +RA BR SCT008 BKN015 OVC021 12/11 A2991 RMK AO2 P0030=
201305041805 SPECI KATL 041805Z 10008KT 1 3/4SM R09R/4000VP6000FT -RA BR OVC007 12/11 A2988 RMK AO2 TWR VIS 3 P0002=
201305041752 METAR KATL 041752Z 08016G21KT 3SM -RA BR BKN007 OVC012 12/11 A2986 RMK AO2 SFC VIS 3 SLP111 P0004 60022 T01170106 10117 20106 58012=
201305041719 SPECI KATL 041719Z 09014G22KT 3SM -RA BR BKN007 OVC014 12/10 A2988 RMK AO2 SFC VIS 5 P0002=
201305041709 SPECI KATL 041709Z 09014G23KT 2 1/2SM R09R/6000VP6000FT RA BR OVC007 12/11 A2988 RMK AO2 TWR VIS 3 P0002=
201305041652 METAR KATL 041652Z 09016G23KT 3SM -RA BR OVC009 12/10 A2988 RMK AO2 SFC VIS 5 SLP117 P0002 T01170100=
201305041632 SPECI KATL 041632Z 09016G23KT 3SM -RA BR BKN007 OVC012 12/10 A2989 RMK AO2 SFC VIS 5 P0002=
201305041552 METAR KATL 041552Z 09016G27KT 1 1/2SM -RA BR BKN007 OVC013 11/10 A2990 RMK AO2 PK WND 08027/1547 SFC VIS 3 SLP123 P0010 T01110100=
201305041542 SPECI KATL 041542Z 09014G24KT 1 1/2SM -RA BR BKN007 BKN013 OVC019 11/10 A2990 RMK AO2 PK WND 10027/1502 SFC VIS 2 1/2 P0008=
201305041521 SPECI KATL 041521Z 09017G23KT 1 1/2SM R09R/5500VP6000FT -RA BR FEW006 BKN010 OVC019 11/09 A2990 RMK AO2 PK WND 10027/1502 SFC VIS 2 P0007=
201305041510 SPECI KATL 041510Z 10018G27KT 1 1/2SM R09R/5500VP6000FT +RA BR OVC010 11/09 A2991 RMK AO2 PK WND 10027/1502 SFC VIS 1 3/4 P0003=
201305041452 METAR KATL 041452Z 09017KT 5SM -RA BR BKN008 OVC012 11/09 A2990 RMK AO2 PK WND 09026/1434 SLP124 P0001 60006 T01110094 58010=
201305041352 METAR KATL 041352Z 10018G23KT 2 1/2SM -RA BR OVC008 11/09 A2992 RMK AO2 PK WND 08027/1332 SFC VIS 4 SLP129 P0001 T01060094=
201305041324 SPECI KATL 041324Z 09019G23KT 2 1/2SM -RA BR FEW006 BKN008 OVC011 11/09 A2992 RMK AO2 SFC VIS 4 P0001=
201305041310 SPECI KATL 041310Z 09017G25KT 2 1/2SM -RA BR OVC008 11/09 A2992 RMK AO2 SFC VIS 3 SCT008 V BKN P0001=
201305041307 SPECI KATL 041307Z 09015G22KT 3SM -RA BR SCT008 BKN011 OVC016 11/09 A2992 RMK AO2 SCT008 V BKN P0001=
201305041252 METAR KATL 041252Z 09016KT 2 1/2SM -RA BR BKN008 BKN013 OVC018 11/09 A2992 RMK AO2 SLP131 CIG 006V009 P0004 T01060094=
201305041152 METAR KATL 041152Z 09017G28KT 2SM -RA BR BKN007 BKN016 OVC040 11/09 A2993 RMK AO2 PK WND 08028/1146 SLP133 CIG 005V009 P0009 60039 70042 T01110094 10150 20111 53008=
201305041123 SPECI KATL 041123Z 08021G26KT 1 1/2SM -RA BR BKN006 OVC013 11/10 A2992 RMK AO2 PK WND 08028/1112 P0005=
201305041052 METAR KATL 041052Z 09013G26KT 4SM -RA BR BKN006 BKN011 OVC017 12/11 A2991 RMK AO2 PK WND 10026/1043 SLP127 P0013 T01220111=
201305041035 SPECI KATL 041035Z 10012G23KT 3SM -RA BR BKN006 BKN013 OVC021 13/11 A2991 RMK AO2 P0011 $=
201305041027 SPECI KATL 041027Z 09015KT 2SM RA BR SCT008 BKN013 OVC021 13/12 A2991 RMK AO2 P0010 $=
201305041012 SPECI KATL 041012Z 09012G20KT 1 1/2SM RA BR FEW008 BKN013 OVC019 13/12 A2991 RMK AO2 P0003=
201305040952 METAR KATL 040952Z 11010G17KT 3SM -RA BR BKN008 BKN013 OVC019 13/11 A2992 RMK AO2 SLP128 P0010 T01280111=
201305040950 SPECI KATL 040950Z 11011KT 3SM -RA BR BKN008 BKN013 OVC019 13/11 A2992 RMK AO2 P0010=
201305040940 SPECI KATL 040940Z 11014G20KT 1 1/2SM +RA BR SCT008 BKN013 OVC019 13/12 A2992 RMK AO2 P0007=
201305040904 SPECI KATL 040904Z 11012G20KT 4SM -RA BR BKN008 BKN013 OVC019 13/12 A2991 RMK AO2 P0001=
201305040852 METAR KATL 040852Z 11010G17KT 2 1/2SM -RA BR FEW008 BKN013 OVC019 13/12 A2991 RMK AO2 SLP125 P0005 60007 T01330117 56007=
201305040848 SPECI KATL 040848Z 11010G17KT 2 1/2SM RA BR FEW008 BKN013 OVC019 13/12 A2991 RMK AO2 P0004=
201305040838 SPECI KATL 040838Z 12008G18KT 4SM -RA BR FEW008 BKN013 OVC019 13/12 A2991 RMK AO2 P0002=
201305040812 SPECI KATL 040812Z 10016G21KT 7SM -RA BKN011 BKN019 OVC024 14/12 A2991 RMK AO2 P0000=
201305040752 METAR KATL 040752Z 12011G18KT 8SM -RA BKN018 OVC025 14/11 A2992 RMK AO2 PK WND 11026/0729 SLP128 P0002 T01390111=
201305040652 METAR KATL 040652Z COR 10013G19KT 10SM -RA BKN018 OVC031 14/11 A2991 RMK AO2 RAB38 SLP126 PCPN VRY LGT P0000 T01440111 $=
201305040638 SPECI KATL 040638Z 10013G23KT 10SM -RA BKN020 OVC031 14/11 A2992 RMK AO2 RAB38 P0000=
201305040552 METAR KATL 040552Z 10014G20KT 10SM FEW019 BKN036 OVC045 15/10 A2993 RMK AO2 RAE19 SLP131 P0000 60003 T01500100 10178 20144 58015=
201305040522 SPECI KATL 040522Z 10014G21KT 10SM FEW029 BKN036 OVC045 14/11 A2994 RMK AO2 RAE19 P0000=
201305040452 METAR KATL 040452Z COR 10014G22KT 7SM -RA FEW019 BKN028 OVC036 15/12 A2995 RMK AO2 SLP140 P0001 T01500117 401830150=
201305040352 METAR KATL 040352Z 09014G19KT 10SM -RA SCT016 BKN024 OVC035 16/13 A2996 RMK AO2 RAB52 SLP141 PCPN VRY LGT P0000 T01560128=
201305040252 METAR KATL 040252Z 10015G23KT 10SM SCT017 BKN025 OVC120 16/13 A2997 RMK AO2 RAE46 SLP146 SHRA NW-N P0002 60002 T01560133 51004=
201305040152 METAR KATL 040152Z 10014G22KT 6SM -RA BKN018 BKN025 OVC050 16/13 A2997 RMK AO2 PK WND 10026/0106 RAB33 SLP146 VIS LWR SE-SW P0000 T01610133=
201305040052 METAR KATL 040052Z 10018G24KT 10SM SCT020 BKN028 BKN065 BKN150 17/13 A2997 RMK AO2 SLP144 T01720128=
201305032352 METAR KATL 032352Z 09014G24KT 10SM SCT022 BKN028 BKN045 BKN150 18/13 A2996 RMK AO2 SLP142 60000 T01780133 10183 20161 56010=
201305032252 METAR KATL 032252Z 09013G21KT 10SM FEW020 BKN027 BKN045 OVC140 18/13 A2997 RMK AO2 SLP143 T01780128=
201305032212 SPECI KATL 032212Z 09013G20KT 10SM SCT018 BKN026 BKN050 BKN140 18/13 A2998 RMK AO2=
201305032152 METAR KATL 032152Z 09014G21KT 10SM FEW017 BKN035 BKN050 OVC140 17/13 A2998 RMK AO2 RAE2056 SLP149 P0000 T01720133=
201305032052 METAR KATL 032052Z 08013G18KT 9SM -RA BKN020 BKN030 OVC050 17/13 A2999 RMK AO2 RAB43 SLP152 P0000 60000 T01720128 58014=
201305032005 SPECI KATL 032005Z 10014G19KT 10SM FEW012 BKN018 OVC030 17/13 A3001 RMK AO2=
201305031952 METAR KATL 031952Z 09014G20KT 10SM BKN014 BKN020 OVC050 16/14 A3002 RMK AO2 RAB20E47 SLP161 P0000 T01610139=
201305031925 SPECI KATL 031925Z 09015G18KT 6SM -RA BKN014 BKN025 OVC050 17/13 A3003 RMK AO2 RAB20 P0000=
201305031852 METAR KATL 031852Z 09014KT 10SM SCT018 BKN025 OVC050 17/13 A3003 RMK AO2 PK WND 08027/1838 RAE1756 SLP166 P0000 T01720128=
201305031752 METAR KATL 031752Z 08015KT 10SM -RA BKN020 BKN030 OVC050 18/13 A3003 RMK AO2 RAB51 SLP166 P0000 60000 T01780128 10178 20156 58007=
201305031652 METAR KATL 031652Z 09015G23KT 10SM BKN020 BKN050 OVC100 17/13 A3004 RMK AO2 PK WND 07027/1630 SLP169 T01720128=
201305031628 SPECI KATL 031628Z 08020G25KT 10SM BKN020 OVC100 17/12 A3005 RMK AO2=
201305031552 METAR KATL 031552Z 07018G25KT 10SM FEW020 SCT050 BKN100 OVC150 17/12 A3005 RMK AO2 SLP174 T01670117=
201305031550 SPECI KATL 031550Z 07017G25KT 10SM FEW020 SCT050 BKN100 OVC150 17/12 A3005 RMK AO2=
201305031504 SPECI KATL 031504Z 08016G22KT 10SM BKN020 BKN050 OVC150 17/12 A3006 RMK AO2=
201305031452 METAR KATL 031452Z 08019G28KT 10SM FEW020 SCT030 BKN050 BKN150 17/12 A3006 RMK AO2 PK WND 08028/1449 SLP177 T01670117 52002=
201305031429 SPECI KATL 031429Z 08015G23KT 10SM FEW020 BKN030 BKN048 OVC150 17/12 A3006 RMK AO2 PK WND 08027/1400=
201305031352 METAR KATL 031352Z 08021G26KT 10SM FEW018 BKN020 BKN150 17/12 A3006 RMK AO2 PK WND 08028/1318 SLP174 T01670117=
201305031252 METAR KATL 031252Z 07019G25KT 10SM BKN013 BKN022 OVC150 16/12 A3006 RMK AO2 PK WND 09028/1236 SLP174 T01560122=
201305031152 METAR KATL 031152Z 09018G23KT 10SM OVC010 16/13 A3006 RMK AO2 SLP176 10161 20156 60000 T01560128 53006=
201305031052 METAR KATL 031052Z 08015KT 10SM BKN012 OVC023 16/13 A3005 RMK AO2 SLP170 T01610128=
201305030952 METAR KATL 030952Z 08015KT 10SM OVC012 16/13 A3004 RMK AO2 SLP169 T01610128 $=
201305030852 METAR KATL 030852Z 08012KT 10SM BKN014 OVC020 16/13 A3005 RMK AO2 SLP169 60000 T01610128 56018=
201305030752 METAR KATL 030752Z 09012KT 10SM BKN014 OVC024 16/13 A3006 RMK AO2 RAE09 SLP173 P0000 T01610133=
201305030652 METAR KATL 030652Z 09012G21KT 10SM -RA BKN014 OVC021 16/13 A3007 RMK AO2 RAB51 SLP178 PCPN VRY LGT P0000 T01610133=
201305030552 METAR KATL 030552Z 08013KT 10SM BKN013 OVC020 16/13 A3010 RMK AO2 SLP188 60000 T01610133 10189 20161 56014=
201305030516 SPECI KATL 030516Z 09013KT 10SM OVC013 16/13 A3011 RMK AO2=
201305030452 METAR KATL 030452Z 08016G21KT 10SM BKN015 OVC030 17/13 A3011 RMK AO2 SLP192 CIG 013V018 T01670128 402110150=
201305030418 SPECI KATL 030418Z 07013KT 10SM BKN015 OVC030 16/13 A3012 RMK AO2 CIG 013V018=
201305030352 METAR KATL 030352Z 08014G22KT 10SM BKN013 OVC020 16/13 A3013 RMK AO2 SLP199 T01610133=
201305030252 METAR KATL 030252Z 07014KT 10SM BKN015 OVC030 17/13 A3014 RMK AO2 SLP203 CIG 012V018 60000 T01670133 51008=
201305030152 METAR KATL 030152Z 07015KT 10SM BKN015 OVC030 17/14 A3013 RMK AO2 RAB0053E02 SLP201 CIG 012V018 P0000 T01720139=
201305030052 METAR KATL 030052Z 08015KT 10SM SCT015 BKN025 BKN050 BKN200 17/14 A3013 RMK AO2 PK WND 07027/0010 SLP199 T01720139=
201305030022 SPECI KATL 030022Z 08016KT 10SM FEW020 SCT030 BKN050 BKN200 18/14 A3012 RMK AO2 PK WND 07027/0010=
201305022352 METAR KATL 022352Z 08016G21KT 10SM SCT022 BKN028 OVC050 19/14 A3012 RMK AO2 SLP194 60000 T01890139 10211 20183 55000=
201305022252 METAR KATL 022252Z 07013KT 10SM FEW020 SCT032 BKN045 OVC150 19/14 A3011 RMK AO2 RAB10E19 SLP192 P0000 T01890139=
201305022239 SPECI KATL 022239Z 07012KT 10SM FEW020 SCT028 OVC045 18/14 A3011 RMK AO2 RAB10E19 P0000=
201305022152 METAR KATL 022152Z 08018KT 10SM SCT022 BKN028 OVC045 19/14 A3012 RMK AO2 PK WND 07026/2120 RAB20E29 SLP194 P0000 T01940139=
201305022121 SPECI KATL 022121Z 07021G26KT 10SM -RA SCT022 BKN028 OVC050 19/14 A3012 RMK AO2 PK WND 07026/2120 RAB20 P0000=
201305022052 SPECI KATL 022052Z 07018G25KT 10SM FEW022 SCT035 BKN050 BKN150 21/14 A3012 RMK AO2 SLP193 T02060144 58016=
201305022052 METAR KATL 022052Z 07018G25KT 10SM FEW022 SCT035 BKN050 BKN150 21/14 A3012 RMK AO2 SLP193 T02060144 58016=
201305021952 METAR KATL 021952Z 10014G24KT 10SM SCT023 BKN033 BKN045 20/14 A3013 RMK AO2 PK WND 07026/1930 SLP200 T02000144=
201305021852 METAR KATL 021852Z 08017G23KT 10SM BKN020 BKN028 OVC035 20/14 A3015 RMK AO2 SLP206 T02000144=
201305021752 METAR KATL 021752Z 07018KT 10SM BKN015 BKN025 OVC030 18/14 A3017 RMK AO2 PK WND 08026/1718 SLP211 60000 T01830139 10183 20150 58003=
201305021714 SPECI KATL 021714Z 08017KT 10SM FEW014 BKN016 OVC025 18/14 A3017 RMK AO2=
201305021652 METAR KATL 021652Z 08016G20KT 10SM FEW012 BKN014 OVC018 18/14 A3018 RMK AO2 SLP215 T01780144=
201305021552 METAR KATL 021552Z 10012KT 10SM FEW012 BKN014 OVC020 17/14 A3018 RMK AO2 DZE32 SLP218 P0000 T01720139=
201305021533 SPECI KATL 021533Z 08019G24KT 10SM FEW012 BKN016 OVC020 18/14 A3018 RMK AO2 DZE32 P0000=
201305021452 METAR KATL 021452Z 09016KT 9SM -DZ BKN012 OVC015 17/14 A3017 RMK AO2 SLP215 P0000 60000 T01670139 51008=
201305021359 SPECI KATL 021359Z 09015G20KT 9SM -DZ BKN010 OVC015 16/14 A3017 RMK AO2 P0000=
201305021352 METAR KATL 021352Z 09014KT 9SM -DZ OVC009 16/14 A3017 RMK AO2 DZB46 SLP214 P0000 T01610139=
201305021252 METAR KATL 021252Z 09015G21KT 9SM OVC007 16/14 A3015 RMK AO2 SLP208 T01560139 $=
201305021152 METAR KATL 021152Z 09016KT 7SM OVC006 15/14 A3015 RMK AO2 RAE19 SLP206 P0001 60001 70001 T01500139 10156 20150 53003=
201305021052 METAR KATL 021052Z 08016KT 8SM -RA OVC008 15/13 A3014 RMK AO2 SLP201 P0000 T01500133=
201305021021 SPECI KATL 021021Z 08015G20KT 10SM OVC009 16/13 A3013 RMK AO2 RAE21 VCSH S P0000=
201305020952 METAR KATL 020952Z 08013KT 10SM -RA OVC010 16/13 A3013 RMK AO2 RAB51 SLP200 PCPN VRY LGT P0000 T01560128=
201305020852 METAR KATL 020852Z 08012KT 10SM OVC012 16/12 A3014 RMK AO2 SLP202 T01560122 55008=
201305020837 SPECI KATL 020837Z 07012G19KT 10SM OVC013 16/12 A3014 RMK AO2=
201305020819 SPECI KATL 020819Z 07013KT 10SM BKN015 BKN030 OVC170 15/12 A3013 RMK AO2=
201305020752 METAR KATL 020752Z 07011KT 10SM FEW015 BKN032 BKN170 15/12 A3013 RMK AO2 SLP200 BKN032 V SCT T01500117=
201305020706 SPECI KATL 020706Z 08016G20KT 10SM SCT015 SCT042 OVC210 16/12 A3015 RMK AO2=
201305020652 METAR KATL 020652Z 08013G20KT 10SM BKN015 BKN038 OVC180 16/12 A3016 RMK AO2 SLP208 T01560122=
201305020644 SPECI KATL 020644Z 08014KT 10SM BKN016 BKN035 OVC180 16/12 A3016 RMK AO2=
201305020552 METAR KATL 020552Z 08016G21KT 10SM SCT016 BKN180 BKN250 16/12 A3016 RMK AO2 SLP211 T01560122 10183 20156 58008=
201305020526 SPECI KATL 020526Z 08014KT 10SM SCT016 OVC190 16/12 A3017 RMK AO2=
201305020509 SPECI KATL 020509Z 08015KT 10SM BKN016 OVC200 16/12 A3017 RMK AO2=
201305020452 METAR KATL 020452Z 08013KT 10SM SCT017 BKN180 OVC250 16/12 A3017 RMK AO2 SLP214 T01610122 402110161=
201305020352 METAR KATL 020352Z 08014G20KT 10SM FEW020 BKN180 OVC250 16/12 A3018 RMK AO2 SLP217 T01610122=
201305020252 METAR KATL 020252Z 08011KT 10SM FEW030 SCT150 OVC200 17/12 A3019 RMK AO2 SLP219 T01670122 51017=
201305020152 METAR KATL 020152Z 09010KT 10SM FEW030 SCT150 OVC200 17/12 A3019 RMK AO2 SLP218 T01720117=
201305020052 METAR KATL 020052Z 08012KT 10SM FEW030 BKN150 OVC200 18/12 A3016 RMK AO2 SLP208 T01780117=
201305012352 METAR KATL 012352Z 08012KT 10SM FEW032 BKN150 OVC200 18/12 A3014 RMK AO2 SLP201 T01830117 10211 20183 53002=
201305012252 METAR KATL 012252Z 08016KT 10SM FEW032 BKN150 OVC200 19/12 A3013 RMK AO2 SLP199 T01890117=
201305012152 METAR KATL 012152Z 08017KT 10SM SCT035 BKN150 OVC200 20/12 A3012 RMK AO2 SLP195 T02000122=
201305012052 METAR KATL 012052Z 08018G22KT 10SM FEW035 BKN150 OVC200 20/12 A3013 RMK AO2 SLP198 T02000122 56019=
201305011952 METAR KATL 011952Z 08012KT 10SM SCT032 BKN150 OVC200 21/13 A3014 RMK AO2 SLP203 T02060128=
201305011852 METAR KATL 011852Z 09013KT 10SM FEW027 SCT035 BKN150 OVC200 20/13 A3017 RMK AO2 SLP211 T02000128=
201305011836 SPECI KATL 011836Z 09014KT 10SM FEW027 BKN032 OVC200 19/13 A3018 RMK AO2=
201305011752 METAR KATL 011752Z 09011KT 10SM BKN025 BKN030 OVC200 19/13 A3019 RMK AO2 SLP218 T01890128 10194 20161 51001=
201305011652 METAR KATL 011652Z 06015KT 10SM FEW018 BKN020 OVC024 18/13 A3019 RMK AO2 SLP217 T01830128=
201305011552 METAR KATL 011552Z 09015KT 10SM BKN018 BKN020 OVC024 17/13 A3019 RMK AO2 SLP219 T01720128 $=
201305011452 METAR KATL 011452Z 08015KT 10SM BKN015 BKN018 OVC020 17/13 A3019 RMK AO2 SLP217 T01720128 51011=
201305011441 SPECI KATL 011441Z 09012KT 10SM BKN015 OVC020 17/13 A3019 RMK AO2=
201305011352 METAR KATL 011352Z 09017G21KT 10SM OVC013 17/13 A3019 RMK AO2 SLP217 T01670128=
201305011252 METAR KATL 011252Z 08015KT 8SM BKN011 OVC019 16/13 A3017 RMK AO2 SLP211 T01610133=
201305011201 SPECI KATL 011201Z 08017KT 7SM OVC010 17/14 A3016 RMK AO2=
