##########################################################
# Query made at 04/19/2024 23:31:11 UTC
# Time interval: from 01/01/2013 12:00  to 01/31/2013 12:59  UTC
##########################################################

##########################################################
# KATL, Atlanta, Hartsfield - Jackson Atlanta International Airport (United States)
# WMO index: 72219. WIGOS ID: 0-20000-0-72219
# Latitude 33-38-59N. Longitude 084-25-00W. Altitude 312 m.
##########################################################

201301311252 METAR KATL 311252Z 27007KT 10SM FEW040 01/M04 A3003 RMK AO2 SLP176 T00061044=
201301311152 METAR KATL 311152Z 28014G20KT 10SM FEW040 01/M05 A3002 RMK AO2 SLP169 70151 T00111050 10056 20011 53020=
201301311052 METAR KATL 311052Z 29014G20KT 10SM FEW040 01/M04 A3000 RMK AO2 SLP163 T00111044=
201301310952 METAR KATL 310952Z 28015G22KT 10SM SCT040 02/M04 A2996 RMK AO2 PK WND 29026/0855 SLP150 T00171044=
201301310852 METAR KATL 310852Z 28016G24KT 10SM FEW030 02/M04 A2995 RMK AO2 PK WND 28028/0817 SLP144 T00221044 51031=
201301310752 METAR KATL 310752Z 29018G29KT 10SM FEW030 SCT060 03/M04 A2993 RMK AO2 PK WND 29035/0730 SLP136 T00281039=
201301310652 METAR KATL 310652Z 27013G21KT 10SM BKN031 BKN045 OVC060 05/00 A2988 RMK AO2 SLP118 T00500000=
201301310552 METAR KATL 310552Z 28018G30KT 10SM FEW025 OVC055 06/M01 A2986 RMK AO2 PK WND 27030/0549 RAB23E30 SLP109 P0000 60006 T00561006 10100 20056 51050=
201301310452 METAR KATL 310452Z 27016G27KT 10SM SCT035 BKN050 06/00 A2982 RMK AO2 PK WND 26037/0428 SLP094 T00610000 402170061=
201301310434 SPECI KATL 310434Z 27015G37KT 10SM FEW015 SCT030 07/01 A2981 RMK AO2 PK WND 26037/0428=
201301310352 METAR KATL 310352Z 28017G32KT 10SM BKN022 BKN030 OVC055 08/04 A2978 RMK AO2 PK WND 28037/0327 RAB25E43 SLP081 P0000 T00780039=
201301310252 METAR KATL 310252Z 27012G23KT 10SM FEW009 SCT020 OVC050 09/07 A2971 RMK AO2 PK WND 24026/0226 RAE51 SLP056 P0000 60006 T00940067 53007=
201301310212 SPECI KATL 310212Z 24009KT 8SM -RA SCT009 BKN025 OVC040 09/07 A2969 RMK AO2 P0000=
201301310152 METAR KATL 310152Z 24009KT 8SM -RA SCT009 BKN040 OVC075 09/08 A2969 RMK AO2 RAB0054 SLP052 P0004 T00940078=
201301310052 METAR KATL 310052Z 25008KT 10SM FEW008 BKN075 OVC120 09/07 A2970 RMK AO2 RAE42 SLP054 P0002 T00940072=
201301302357 SPECI KATL 302357Z 23008KT 8SM -RA FEW006 OVC060 10/08 A2967 RMK AO2 P0002=
201301302352 METAR KATL 302352Z 22011KT 3SM +RA BR FEW006 BKN055 OVC070 10/08 A2969 RMK AO2 PRESRR SLP049 P0015 60137 T01000083 10211 20100 53028=
201301302324 SPECI KATL 302324Z 22005KT 7SM -RA FEW007 BKN025 OVC055 11/09 A2966 RMK AO2 P0013=
201301302303 SPECI KATL 302303Z 26009KT 4SM RA BR SCT007 BKN014 OVC050 11/09 A2965 RMK AO2 P0005=
201301302252 METAR KATL 302252Z 25010G21KT 2 1/2SM +RA BR SCT007 BKN014 OVC060 12/10 A2964 RMK AO2 PK WND 29029/2205 SLP035 P0012 T01170100=
201301302229 SPECI KATL 302229Z 27011KT 8SM -RA SCT009 BKN014 OVC060 12/11 A2965 RMK AO2 PK WND 29029/2205 P0006=
201301302215 SPECI KATL 302215Z 27012G22KT 5SM -RA BR SCT009 BKN028 OVC070 13/11 A2964 RMK AO2 PK WND 29029/2205 P0006=
201301302209 SPECI KATL 302209Z 28016G29KT 2SM +RA BR FEW010 BKN025 OVC070 13/11 A2962 RMK AO2 PK WND 29029/2205 P0004=
201301302152 METAR KATL 302152Z 27017G33KT 4SM -RA BR SCT010 BKN020 OVC030 14/12 A2962 RMK AO2 PK WND 29033/2143 SLP027 P0009 T01390122=
201301302055 SPECI KATL 302055Z 27012KT 4SM -RA BR FEW010 BKN018 OVC030 17/15 A2959 RMK AO2 P0002=
201301302052 METAR KATL 302052Z 27012G16KT 6SM -RA FEW010 BKN030 OVC040 17/15 A2960 RMK AO2 PK WND 24031/2001 WSHFT 1955 TSE30 SLP018 TS MOV NE CB DSNT NE-SE P0083 60101 T01670150 55001=
201301302050 SPECI KATL 302050Z 26011G16KT 6SM -RA FEW010 BKN030 OVC040 17/15 A2960 RMK AO2 PK WND 24031/2001 WSHFT 1955 TSE30 TS MOV NE CB DSNT NE-SE P0083=
201301302030 SPECI KATL 302030Z 28009G17KT 8SM -RA FEW010CB BKN020 OVC030 17/16 A2959 RMK AO2 PK WND 24031/2001 WSHFT 1955 TSE30 TS MOV NE CB NE-SE MOV NE SHRA NE-SE P0079=
201301302024 SPECI KATL 302024Z 26010G22KT 2SM R09R/5000VP6000FT -TSRA BR FEW010CB SCT020 OVC030 17/16 A2959 RMK AO2 PK WND 24031/2001 WSHFT 1955 SFC VIS 4 OCNL LTGIC NE-SE TS NE-SE MOV NE P0078=
201301302022 SPECI KATL 302022Z 26010G23KT 2SM R09R/4000VP6000FT +TSRA BR FEW010CB SCT015 OVC030 17/16 A2959 RMK AO2 PK WND 24031/2001 WSHFT 1955 OCNL LTGIC NE-SE TS NE-SE MOV NE P0077=
201301302009 SPECI KATL 302009Z 27015G31KT 1SM R09R/2200VP6000FT +TSRA BR FEW006 SCT009 OVC015CB 18/17 A2959 RMK AO2 PK WND 24031/2001 WSHFT 1955 VIS LWR NE-SE SHRA OCNL LTGIC OHD-NE-SE TS OHD-NE-SE MOV NE P0046=
201301302000 SPECI KATL 302000Z 23017G28KT 1/2SM R09R/2200VP6000FT +TSRA FG FEW006 BKN012CB OVC026 19/18 A2959 RMK AO2 PK WND 26028/2000 TWR VIS 1 PRESRR OCNL LTGIC OHD TS OHD MOV NE P0012=
201301301958 SPECI KATL 301958Z 25015G21KT 1 1/2SM R09R/4000VP6000FT +TSRA BR FEW010CB BKN017 OVC030 19/18 A2959 RMK AO2 TWR VIS 2 PRESRR OCNL LTGIC OHD TS OHD MOV NE P0005=
201301301952 METAR KATL 301952Z 21009G20KT 2SM R09R/4500VP6000FT +TSRA BR SCT017CB BKN030 OVC075 19/18 A2956 RMK AO2 PK WND 19033/1923 SFC VIS 3 TSB18RAB04 SLP004 VIS LWR SW-NW SHRA OCNL LTGIC OHD-SW-NW TS OHD-SW-NW MOV NE P0018 T01940183=
201301301937 SPECI KATL 301937Z 18015G25KT 2SM +TSRA BR FEW017CB BKN050 OVC090 19/18 A2956 RMK AO2 PK WND 19033/1923 TWR VIS 2 1/2 TSB18RAB04 OCNL LTGIC OHD-SW-NW TS OHD-SW-NW MOV NE P0003=
201301301929 SPECI KATL 301929Z 18017G33KT 5SM -TSRA FEW020CB BKN050 OVC080 21/18 A2957 RMK AO2 PK WND 19033/1923 TSB18RAB04 OCNL LTGIC SW-NW TS SW-NW MOV NE P0002=
201301301918 SPECI KATL 301918Z 18021G28KT 160V220 8SM -TSRA SCT019CB BKN026 OVC049 21/17 A2957 RMK AO2 PK WND 17028/1918 TSB18RAB04 PRESFR OCNL LTGIC VC E & SW-NW TS VC E & SW-NW MOV NE P0001=
201301301912 SPECI KATL 301912Z 18016G24KT 10SM -RA BKN019CB BKN028 OVC036 21/17 A2958 RMK AO2 PK WND 19026/1859 RAB04 PRESFR CB E-SE MOV NE CB DSNT SW-NW SHRA VC E-SE & DSNT SW-NW P0000=
201301301852 METAR KATL 301852Z 18017G23KT 10SM BKN017 BKN025 OVC030 21/18 A2960 RMK AO2 PK WND 17029/1828 SLP017 CB DSNT SW-NW SHRA DSNT SW-NW T02110178=
201301301752 METAR KATL 301752Z 18019G28KT 10SM BKN020 BKN030 OVC040 21/17 A2966 RMK AO2 PK WND 20029/1656 RAB41E51 SLP035 P0000 60008 T02110172 10217 20194 58030=
201301301652 METAR KATL 301652Z 18020G28KT 10SM FEW017 BKN020 OVC030 21/17 A2971 RMK AO2 PK WND 19031/1600 RAE1553 SLP052 T02110172=
201301301649 SPECI KATL 301649Z 19021G28KT 10SM FEW017 BKN020 OVC030 21/17 A2971 RMK AO2 PK WND 19031/1600 RAE1553=
201301301552 METAR KATL 301552Z 19018G29KT 10SM -RA BKN014 BKN020 OVC030 20/17 A2975 RMK AO2 PK WND 17035/1537 RAB43 SLP066 P0000 T02000172=
201301301532 SPECI KATL 301532Z 18014G31KT 10SM FEW012 BKN016 OVC030 20/17 A2975 RMK AO2 PK WND 17031/1529=
201301301452 METAR KATL 301452Z 18015G24KT 10SM BKN012 BKN020 OVC030 19/17 A2976 RMK AO2 PK WND 18031/1416 RAE35 SLP073 P0006 60008 T01940172 58015=
201301301421 SPECI KATL 301421Z 20017G31KT 8SM -RA FEW008 BKN012 OVC030 19/18 A2977 RMK AO2 PK WND 18031/1416 P0006=
201301301405 SPECI KATL 301405Z 17012G21KT 3SM R09R/5500VP6000FT RA BR BKN009 OVC016 19/18 A2976 RMK AO2 PRESFR P0004=
201301301352 METAR KATL 301352Z 18017G27KT 4SM RA BR BKN011 OVC017 19/18 A2978 RMK AO2 PK WND 18027/1350 RAB1254E20B39 SLP078 CB DSNT SW P0002 T01940178=
201301301333 SPECI KATL 301333Z 18015G22KT 10SM BKN013 OVC018 19/18 A2979 RMK AO2 RAB1254E20 P0000=
201301301322 SPECI KATL 301322Z 18015G22KT 10SM OVC015 19/18 A2980 RMK AO2 RAB1254E20 P0000=
201301301252 METAR KATL 301252Z 19017G22KT 10SM BKN014 OVC020 20/17 A2980 RMK AO2 RAE1156 SLP085 P0000 T02000172=
201301301152 METAR KATL 301152Z 18013G23KT 10SM -RA BKN010 OVC014 19/17 A2981 RMK AO2 RAB06E15B46 SLP088 P0000 60000 70001 T01940172 10194 20178 56023=
201301301052 METAR KATL 301052Z 19015G21KT 7SM OVC010 19/17 A2983 RMK AO2 RAE25 SLP096 P0000 T01890172=
201301300952 METAR KATL 300952Z 18014G23KT 3SM -RA BR OVC010 19/17 A2985 RMK AO2 SFC VIS 5 RAB43 SLP102 P0000 T01890172=
201301300852 METAR KATL 300852Z 18010G24KT 10SM OVC012 19/17 A2988 RMK AO2 SLP111 T01890167 56023=
201301300752 METAR KATL 300752Z 18009G21KT 10SM OVC014 18/16 A2989 RMK AO2 SLP116 T01830156=
201301300740 SPECI KATL 300740Z 18012KT 10SM BKN016 BKN030 18/16 A2990 RMK AO2=
201301300652 METAR KATL 300652Z 17011G21KT 10SM SCT031 BKN080 18/16 A2992 RMK AO2 SLP126 T01830156=
201301300627 SPECI KATL 300627Z 18012KT 10SM SCT027 BKN080 18/15 A2994 RMK AO2=
201301300619 SPECI KATL 300619Z 18010KT 10SM BKN027 BKN080 18/14 A2994 RMK AO2=
201301300552 METAR KATL 300552Z 17013G18KT 10SM BKN030 BKN080 OVC250 18/14 A2995 RMK AO2 SLP135 60001 T01780144 10206 20178 58020=
201301300452 METAR KATL 300452Z 18009KT 10SM FEW050 BKN085 BKN250 18/14 A2999 RMK AO2 SLP150 T01780139 402280078=
201301300352 METAR KATL 300352Z 17012KT 10SM FEW080 BKN250 18/15 A2999 RMK AO2 SLP152 T01830150=
201301300252 METAR KATL 300252Z 16006KT 8SM BKN040 OVC070 18/16 A3001 RMK AO2 SLP160 60001 T01830161 58003=
201301300152 METAR KATL 300152Z 15005KT 9SM FEW030 SCT050 BKN075 OVC250 18/17 A3001 RMK AO2 RAE29 SLP161 P0001 T01830167=
201301300052 METAR KATL 300052Z 18008KT 6SM -RA SCT026 BKN035 OVC050 19/16 A3003 RMK AO2 RAB34 SLP167 P0000 T01940161=
201301292352 METAR KATL 292352Z 15009KT 10SM SCT038 BKN085 OVC250 21/15 A3002 RMK AO2 SLP163 T02060150 10228 20206 56013=
201301292252 METAR KATL 292252Z 15007KT 10SM FEW030 BKN250 21/15 A3002 RMK AO2 SLP165 T02110150=
201301292152 METAR KATL 292152Z 15009KT 10SM FEW030 SCT050 BKN070 BKN250 22/14 A3004 RMK AO2 SLP171 T02220144=
201301292052 METAR KATL 292052Z 17008KT 10SM FEW035 BKN050 BKN065 22/14 A3006 RMK AO2 SLP176 T02220144 56026=
201301291952 METAR KATL 291952Z 17005KT 10SM BKN035 BKN045 BKN055 22/14 A3007 RMK AO2 SLP181 T02220139=
201301291852 METAR KATL 291852Z 17013G18KT 10SM FEW035 BKN045 BKN060 22/13 A3009 RMK AO2 SLP187 T02220133=
201301291752 METAR KATL 291752Z 18012KT 10SM FEW030 BKN050 BKN250 22/13 A3014 RMK AO2 SLP203 T02170133 10222 20094 58023=
201301291652 METAR KATL 291652Z 17008KT 8SM FEW035 BKN045 BKN065 19/13 A3018 RMK AO2 SLP218 T01890128=
201301291552 METAR KATL 291552Z 14005KT 7SM FEW020 SCT050 SCT250 17/12 A3020 RMK AO2 SLP227 T01670117=
201301291546 SPECI KATL 291546Z 00000KT 6SM HZ FEW020 SCT050 SCT250 16/11 A3020 RMK AO2=
201301291542 SPECI KATL 291542Z 00000KT 6SM HZ BKN020 BKN030 OVC050 15/11 A3021 RMK AO2=
201301291523 SPECI KATL 291523Z 13004KT 6SM HZ SCT020 BKN033 BKN050 14/11 A3020 RMK AO2=
201301291452 METAR KATL 291452Z 00000KT 4SM HZ FEW004 BKN020 BKN030 12/09 A3021 RMK AO2 SLP230 T01170089 58000 $=
201301291444 SPECI KATL 291444Z 00000KT 4SM HZ SCT004 BKN021 OVC027 12/09 A3021 RMK AO2 $=
201301291352 METAR KATL 291352Z 13005KT 5SM HZ OVC004 11/08 A3021 RMK AO2 SLP231 T01060078=
201301291252 METAR KATL 291252Z 09005KT 5SM HZ OVC004 10/07 A3021 RMK AO2 SLP230 T01000072=
201301291223 SPECI KATL 291223Z 10003KT 6SM BR BKN004 09/07 A3021 RMK AO2=
201301291152 METAR KATL 291152Z 00000KT 6SM HZ OVC006 09/07 A3021 RMK AO2 SLP230 T00940067 10094 20078 56011=
201301291117 SPECI KATL 291117Z 00000KT 6SM HZ BKN006 09/06 A3021 RMK AO2=
201301291105 SPECI KATL 291105Z 00000KT 6SM HZ FEW009 SCT055 08/06 A3022 RMK AO2=
201301291052 METAR KATL 291052Z 00000KT 6SM HZ FEW015 SCT055 08/06 A3022 RMK AO2 SLP233 T00830056=
201301290952 METAR KATL 290952Z 07005KT 7SM FEW013 SCT055 08/06 A3022 RMK AO2 SLP236 T00830061=
201301290929 SPECI KATL 290929Z 07005KT 7SM FEW013 BKN030 BKN055 09/06 A3023 RMK AO2=
201301290852 METAR KATL 290852Z 09003KT 7SM SCT015 BKN028 BKN055 09/07 A3024 RMK AO2 SLP240 T00890067 56009=
201301290838 SPECI KATL 290838Z 10003KT 7SM FEW017 SCT028 BKN055 09/06 A3024 RMK AO2=
201301290752 METAR KATL 290752Z 10004KT 7SM BKN028 09/06 A3025 RMK AO2 SLP244 BKN028 V SCT T00890061=
201301290716 SPECI KATL 290716Z 11003KT 7SM BKN027 BKN045 09/06 A3025 RMK AO2=
201301290652 METAR KATL 290652Z 10003KT 7SM FEW029 BKN046 09/06 A3025 RMK AO2 SLP244 T00890061=
201301290552 METAR KATL 290552Z 09005KT 6SM HZ FEW038 SCT050 09/06 A3027 RMK AO2 SLP252 T00890061 10128 20083 56004=
201301290452 METAR KATL 290452Z 09006KT 7SM BKN040 09/07 A3027 RMK AO2 SLP253 T00890067 401500061=
201301290352 METAR KATL 290352Z 10004KT 8SM FEW030 09/06 A3027 RMK AO2 SLP254 T00890061=
201301290252 METAR KATL 290252Z 10004KT 8SM CLR 09/06 A3028 RMK AO2 SLP257 T00940061 58003=
201301290152 METAR KATL 290152Z 08007KT 8SM FEW040 11/07 A3028 RMK AO2 SLP258 T01060067=
201301290052 METAR KATL 290052Z 09006KT 10SM BKN040 12/07 A3029 RMK AO2 SLP258 T01170072=
201301282352 METAR KATL 282352Z 08006KT 9SM SCT040 12/07 A3029 RMK AO2 SLP259 T01220072 10150 20106 53001=
201301282252 METAR KATL 282252Z 00000KT 9SM FEW020 14/08 A3028 RMK AO2 SLP256 T01440078=
201301282152 METAR KATL 282152Z 17004KT 9SM FEW020 15/08 A3028 RMK AO2 SLP254 T01500083=
201301282052 METAR KATL 282052Z 24005KT 9SM FEW018 SCT023 15/08 A3028 RMK AO2 SLP256 T01500078 56009=
201301282048 SPECI KATL 282048Z 22005KT 9SM FEW018 SCT023 15/08 A3029 RMK AO2=
201301281952 METAR KATL 281952Z 17004KT 9SM OVC016 13/07 A3029 RMK AO2 SLP260 T01280067=
201301281945 SPECI KATL 281945Z 11003KT 9SM OVC016 12/06 A3030 RMK AO2=
201301281852 METAR KATL 281852Z 00000KT 9SM OVC014 12/06 A3031 RMK AO2 SLP267 T01170056 $=
201301281752 METAR KATL 281752Z VRB04KT 9SM OVC014 11/04 A3035 RMK AO2 SLP281 T01060044 10106 20072 58016 $=
201301281652 METAR KATL 281652Z 09005KT 9SM OVC012 09/03 A3039 RMK AO2 SLP295 T00890033 $=
201301281552 METAR KATL 281552Z 00000KT 8SM OVC012 08/03 A3040 RMK AO2 SLP299 T00830028 $=
201301281452 METAR KATL 281452Z 11006KT 8SM OVC012 07/02 A3040 RMK AO2 SLP299 VIRGA SW-NW T00720022 50003 $=
201301281352 METAR KATL 281352Z 10007KT 8SM OVC012 07/01 A3041 RMK AO2 SLP301 T00720011 $=
201301281252 METAR KATL 281252Z 09007KT 8SM OVC012 07/01 A3040 RMK AO2 SLP299 T00720006=
201301281152 METAR KATL 281152Z 08007KT 10SM OVC014 07/00 A3039 RMK AO2 SLP296 T00720000 10072 20061 53002=
201301281052 METAR KATL 281052Z 08005KT 10SM OVC014 07/00 A3037 RMK AO2 SLP289 T00720000=
201301280952 METAR KATL 280952Z 09006KT 10SM OVC014 07/M01 A3036 RMK AO2 SLP286 T00671006=
201301280852 METAR KATL 280852Z 09007KT 10SM OVC014 07/M01 A3039 RMK AO2 SLP293 T00671011 50000=
201301280808 SPECI KATL 280808Z 08007KT 10SM OVC014 07/M01 A3040 RMK AO2=
201301280752 METAR KATL 280752Z 08006KT 10SM OVC016 07/M01 A3040 RMK AO2 SLP297 T00671011=
201301280725 SPECI KATL 280725Z 10006KT 10SM BKN020 OVC200 07/M01 A3040 RMK AO2=
201301280652 METAR KATL 280652Z 10007KT 10SM FEW060 BKN200 BKN250 07/M01 A3038 RMK AO2 SLP292 T00671011=
201301280552 METAR KATL 280552Z 10010KT 10SM FEW060 SCT200 BKN250 07/M01 A3039 RMK AO2 SLP293 T00721011 10089 20067 56007=
201301280452 METAR KATL 280452Z 09008KT 10SM SCT200 BKN250 07/M01 A3039 RMK AO2 SLP295 T00671011 401110044=
201301280352 METAR KATL 280352Z 09008KT 10SM BKN200 OVC250 08/M01 A3040 RMK AO2 SLP298 T00781011=
201301280252 METAR KATL 280252Z 09008KT 10SM FEW200 OVC250 08/M01 A3041 RMK AO2 SLP301 T00831011 51002=
201301280152 METAR KATL 280152Z 09009KT 10SM BKN200 OVC250 08/M01 A3040 RMK AO2 SLP301 T00831011=
201301280052 METAR KATL 280052Z 09008KT 10SM FEW065 SCT200 BKN250 08/M01 A3041 RMK AO2 SLP305 T00831006=
201301272352 METAR KATL 272352Z 09007KT 10SM FEW070 SCT090 BKN200 08/M01 A3040 RMK AO2 SLP299 T00831006 10111 20083 53008=
201301272252 METAR KATL 272252Z 10009KT 10SM FEW070 BKN090 BKN250 10/M01 A3039 RMK AO2 SLP293 T01001006=
201301272152 METAR KATL 272152Z 10009KT 10SM SCT060 BKN090 BKN250 10/00 A3039 RMK AO2 SLP294 T01000000=
201301272052 METAR KATL 272052Z 13008KT 10SM BKN060 11/01 A3038 RMK AO2 SLP288 T01110006 56006=
201301271952 METAR KATL 271952Z 10005KT 10SM OVC060 11/01 A3038 RMK AO2 SLP290 BINOVC T01060006=
201301271852 METAR KATL 271852Z 10009KT 10SM OVC055 09/00 A3038 RMK AO2 SLP291 BINOVC T00940000=
201301271752 METAR KATL 271752Z 09012KT 10SM OVC060 09/00 A3040 RMK AO2 SLP297 T00940000 10094 20044 58011=
201301271652 METAR KATL 271652Z 10007KT 10SM FEW020 OVC060 08/01 A3043 RMK AO2 SLP309 BINOVC T00830006=
201301271614 SPECI KATL 271614Z 09010KT 10SM OVC060 07/01 A3044 RMK AO2=
201301271552 METAR KATL 271552Z 10011KT 10SM BKN020 OVC060 07/01 A3045 RMK AO2 SLP315 T00720006=
201301271537 SPECI KATL 271537Z 07010KT 10SM BKN020 OVC060 07/01 A3044 RMK AO2=
201301271520 SPECI KATL 271520Z 08009KT 10SM SCT018 OVC060 06/01 A3043 RMK AO2=
201301271452 METAR KATL 271452Z 09013KT 10SM BKN016 OVC060 06/00 A3043 RMK AO2 SLP310 T00560000 51022=
201301271413 SPECI KATL 271413Z 08012KT 10SM BKN016 OVC065 05/00 A3042 RMK AO2=
201301271352 METAR KATL 271352Z 08012KT 10SM FEW016 BKN070 BKN110 05/00 A3042 RMK AO2 SLP306 T00500000=
201301271252 METAR KATL 271252Z 08011KT 10SM BKN110 04/00 A3038 RMK AO2 SLP294 T00440000=
201301271152 METAR KATL 271152Z 08011KT 10SM OVC100 06/00 A3036 RMK AO2 SLP286 T00560000 10072 20056 53021=
201301271052 METAR KATL 271052Z 09010KT 10SM OVC110 06/M01 A3033 RMK AO2 SLP275 T00611006=
201301270952 METAR KATL 270952Z 07008KT 10SM BKN110 07/M01 A3032 RMK AO2 SLP267 T00671011=
201301270852 METAR KATL 270852Z 05009KT 10SM BKN110 07/M02 A3030 RMK AO2 SLP261 T00721022 52005=
201301270752 METAR KATL 270752Z 01006KT 10SM BKN120 07/M03 A3029 RMK AO2 SLP260 T00721028=
201301270652 METAR KATL 270652Z 35004KT 10SM BKN120 07/M03 A3029 RMK AO2 SLP258 T00671028=
201301270552 METAR KATL 270552Z 32005KT 10SM BKN130 06/M02 A3028 RMK AO2 SLP258 T00611022 10094 20056 51005=
201301270452 METAR KATL 270452Z 30004KT 10SM BKN130 07/M03 A3028 RMK AO2 SLP256 T00671028 401560033=
201301270352 METAR KATL 270352Z 33007KT 10SM FEW120 SCT250 06/M03 A3028 RMK AO2 SLP258 T00611033=
201301270252 METAR KATL 270252Z 34007KT 10SM BKN250 07/M04 A3027 RMK AO2 SLP255 T00721039 51008=
201301270152 METAR KATL 270152Z 33007KT 10SM SCT250 08/M04 A3026 RMK AO2 SLP253 T00781039=
201301270052 METAR KATL 270052Z 32005KT 10SM FEW250 08/M05 A3025 RMK AO2 SLP249 T00831050=
201301262352 METAR KATL 262352Z 32007KT 10SM FEW250 10/M06 A3024 RMK AO2 SLP245 T01001056 10156 20100 53009=
201301262252 METAR KATL 262252Z 32007KT 10SM FEW250 11/M07 A3023 RMK AO2 SLP240 T01111067=
201301262152 METAR KATL 262152Z 32009KT 10SM FEW250 14/M06 A3022 RMK AO2 SLP234 T01391061=
201301262052 METAR KATL 262052Z 32005KT 10SM BKN250 15/M09 A3021 RMK AO2 SLP233 T01501089 55008=
201301261952 METAR KATL 261952Z 30006KT 10SM BKN200 14/M07 A3021 RMK AO2 SLP231 T01391067=
201301261852 METAR KATL 261852Z 34009KT 10SM BKN200 13/M05 A3022 RMK AO2 SLP234 T01331050=
201301261752 METAR KATL 261752Z 33010KT 10SM BKN200 12/M04 A3024 RMK AO2 SLP242 T01171044 10122 20033 58001=
201301261652 METAR KATL 261652Z 30008KT 10SM FEW180 BKN250 09/M02 A3026 RMK AO2 SLP250 T00941017=
201301261552 METAR KATL 261552Z 31010KT 10SM BKN180 BKN250 07/M01 A3025 RMK AO2 SLP248 T00721006=
201301261452 METAR KATL 261452Z 33010KT 10SM BKN150 OVC250 05/00 A3024 RMK AO2 SLP245 T00500000 51021=
201301261352 METAR KATL 261352Z 32008KT 8SM FEW009 SCT150 BKN250 04/01 A3022 RMK AO2 SLP240 T00390011=
201301261252 METAR KATL 261252Z 30006KT 6SM BR SCT009 BKN180 03/02 A3021 RMK AO2 SLP236 T00330017=
201301261152 METAR KATL 261152Z 32007KT 6SM BR SCT007 SCT180 04/02 A3018 RMK AO2 SLP224 60000 T00390017 10056 20039 53007=
201301261052 METAR KATL 261052Z 31009KT 5SM BR OVC005 04/02 A3017 RMK AO2 SLP220 BINOVC T00390022=
201301260952 METAR KATL 260952Z 30009KT 5SM BR OVC005 04/03 A3016 RMK AO2 SLP218 T00440028=
201301260852 METAR KATL 260852Z 33014KT 6SM BR BKN007 OVC026 04/03 A3015 RMK AO2 SLP216 60000 T00440028 53004=
201301260850 SPECI KATL 260850Z 32016KT 6SM BR BKN007 OVC026 04/03 A3015 RMK AO2=
201301260752 METAR KATL 260752Z 32008KT 6SM BR FEW009 OVC013 05/03 A3015 RMK AO2 RAB0653E02 SLP214 P0000 T00500028=
201301260742 SPECI KATL 260742Z 31007KT 6SM BR FEW009 BKN013 OVC022 05/03 A3015 RMK AO2 RAB0653E02 P0000=
201301260652 METAR KATL 260652Z 29005KT 7SM FEW010 OVC016 05/02 A3013 RMK AO2 RAE12 SLP209 P0000 T00500022=
201301260552 METAR KATL 260552Z 00000KT 8SM -RA BKN011 OVC018 05/00 A3014 RMK AO2 RAB24 SLP212 P0000 60000 T00500000 10072 20050 50002=
201301260533 SPECI KATL 260533Z 00000KT 8SM -RA BKN013 OVC019 06/M02 A3014 RMK AO2 RAB24 P0000=
201301260501 SPECI KATL 260501Z 33010KT 10SM BKN017 BKN028 OVC032 06/M02 A3015 RMK AO2=
201301260452 METAR KATL 260452Z 34010KT 10SM SCT017 OVC032 06/M02 A3015 RMK AO2 SLP216 T00611017 400780000=
201301260352 METAR KATL 260352Z 00000KT 10SM BKN041 OVC060 07/M01 A3014 RMK AO2 SLP212 T00721011=
201301260252 METAR KATL 260252Z 00000KT 10SM SCT036 BKN044 BKN055 07/M01 A3014 RMK AO2 RAB08E19 SLP211 P0000 60000 T00671011 55000=
201301260152 METAR KATL 260152Z 11003KT 10SM OVC038 07/M02 A3013 RMK AO2 SLP210 T00721022=
201301260052 METAR KATL 260052Z 12003KT 10SM OVC040 07/M02 A3013 RMK AO2 SLP210 T00671022=
201301252352 METAR KATL 252352Z 12004KT 10SM BKN042 OVC060 07/M03 A3013 RMK AO2 SLP211 T00721028 10078 20044 55005=
201301252252 METAR KATL 252252Z 13005KT 10SM BKN050 OVC100 07/M03 A3012 RMK AO2 SLP206 T00721028=
201301252152 METAR KATL 252152Z 13006KT 10SM BKN050 BKN110 BKN250 08/M03 A3014 RMK AO2 SLP210 T00781028=
201301252052 METAR KATL 252052Z 12005KT 10SM BKN060 BKN100 OVC150 07/M03 A3015 RMK AO2 SLP216 T00671033 56027=
201301251952 METAR KATL 251952Z 09005KT 10SM BKN065 BKN100 OVC150 07/M03 A3018 RMK AO2 SLP225 T00671033=
201301251852 METAR KATL 251852Z COR 14008KT 10SM FEW023 BKN070 BKN100 OVC150 06/M04 A3017 RMK AO2 PRESFR SLP221 T00561044=
201301251828 SPECI KATL 251828Z 14005KT 10SM FEW023 BKN065 OVC150 05/M05 A3021 RMK AO2=
201301251752 METAR KATL 251752Z 13006KT 10SM OVC023 04/M06 A3023 RMK AO2 SLP244 T00441061 10044 20000 58027=
201301251652 METAR KATL 251652Z VRB06KT 10SM OVC023 02/M08 A3028 RMK AO2 SLP259 T00221083=
201301251552 METAR KATL 251552Z 14007KT 10SM OVC028 01/M09 A3030 RMK AO2 SLP268 T00111089=
201301251543 SPECI KATL 251543Z 13009KT 10SM OVC028 01/M09 A3031 RMK AO2=
201301251452 METAR KATL 251452Z 11008KT 10SM OVC032 01/M10 A3032 RMK AO2 SLP274 T00111100 58006=
201301251352 METAR KATL 251352Z 11009KT 10SM OVC030 01/M11 A3032 RMK AO2 SLP277 T00061111=
201301251252 METAR KATL 251252Z 11011KT 10SM OVC032 01/M12 A3034 RMK AO2 SLP281 T00061117=
201301251152 METAR KATL 251152Z 11012G17KT 10SM OVC034 01/M12 A3034 RMK AO2 RAE1055 SLP280 P0000 60000 T00061117 10044 20006 56011=
201301251052 METAR KATL 251052Z 09012KT 10SM -RA OVC036 01/M11 A3034 RMK AO2 RAB13E23B44 SLP279 P0000 T00061106=
201301250952 METAR KATL 250952Z 10013G19KT 10SM OVC042 02/M11 A3034 RMK AO2 SLP278 T00171106=
201301250852 METAR KATL 250852Z 09013KT 10SM OVC048 02/M10 A3037 RMK AO2 SLP288 T00221100 53004=
201301250752 METAR KATL 250752Z 09013KT 10SM BKN085 03/M08 A3036 RMK AO2 SLP284 T00281083=
201301250652 METAR KATL 250652Z 09018KT 10SM BKN080 03/M07 A3035 RMK AO2 SLP282 T00331072=
201301250552 METAR KATL 250552Z 06011KT 10SM BKN075 04/M09 A3036 RMK AO2 SLP283 T00441094 10072 20028 51011=
201301250452 METAR KATL 250452Z 08008KT 10SM BKN065 04/M10 A3033 RMK AO2 SLP276 T00391100 401330028=
201301250352 METAR KATL 250352Z 04007KT 10SM SCT065 BKN200 04/M10 A3035 RMK AO2 SLP281 T00391100=
201301250252 METAR KATL 250252Z 34004KT 10SM BKN220 04/M11 A3032 RMK AO2 SLP273 T00391111 50005=
201301250152 METAR KATL 250152Z 35007KT 10SM SCT220 05/M11 A3032 RMK AO2 SLP273 T00501111=
201301250052 METAR KATL 250052Z 35010KT 10SM SCT220 06/M11 A3032 RMK AO2 SLP270 T00611106=
201301242352 METAR KATL 242352Z 36011KT 10SM FEW180 SCT250 07/M09 A3031 RMK AO2 SLP266 T00721094 10133 20072 53015=
201301242252 METAR KATL 242252Z 34008KT 10SM FEW180 BKN250 09/M09 A3028 RMK AO2 SLP257 T00891094=
201301242152 METAR KATL 242152Z 34011G16KT 10SM FEW200 BKN250 11/M08 A3027 RMK AO2 SLP254 T01111083=
201301242052 METAR KATL 242052Z 32009KT 10SM FEW200 BKN250 12/M07 A3026 RMK AO2 SLP249 T01221072 56001=
201301241952 METAR KATL 241952Z 32015G20KT 10SM BKN250 12/M07 A3026 RMK AO2 SLP249 T01221067=
201301241852 METAR KATL 241852Z 34014G21KT 10SM BKN250 13/M03 A3025 RMK AO2 SLP246 T01281033=
201301241752 METAR KATL 241752Z 32010G20KT 10SM BKN250 13/M02 A3026 RMK AO2 SLP250 T01281022 10133 20100 50006=
201301241652 METAR KATL 241652Z 29014G17KT 10SM BKN250 12/00 A3027 RMK AO2 SLP252 T01170000=
201301241552 METAR KATL 241552Z 33016G21KT 10SM FEW030 SCT250 11/02 A3026 RMK AO2 SLP249 T01110022=
201301241452 METAR KATL 241452Z 31017G22KT 10SM FEW025 SCT040 SCT250 11/03 A3025 RMK AO2 SLP243 T01060028 53027=
201301241352 METAR KATL 241352Z 31015G19KT 10SM FEW023 BKN042 10/04 A3021 RMK AO2 SLP230 T01000044=
201301241252 METAR KATL 241252Z 29009KT 8SM BKN038 BKN060 BKN250 10/04 A3018 RMK AO2 SLP222 T01000044=
201301241152 METAR KATL 241152Z 30009KT 10SM FEW028 BKN038 OVC048 10/05 A3016 RMK AO2 SLP214 T01000050 10100 20083 53002=
201301241052 METAR KATL 241052Z 29011KT 10SM SCT050 SCT250 10/05 A3014 RMK AO2 SLP207 T01000050 $=
201301240952 METAR KATL 240952Z 27004KT 10SM BKN041 BKN050 BKN065 09/04 A3015 RMK AO2 SLP211 T00890044 $=
201301240852 METAR KATL 240852Z 30005KT 10SM FEW038 SCT070 08/03 A3015 RMK AO2 SLP212 T00830033 56007 $=
201301240752 METAR KATL 240752Z 26006KT 10SM BKN044 BKN065 09/03 A3016 RMK AO2 SLP213 T00940033 $=
201301240652 METAR KATL 240652Z 25006KT 10SM OVC042 10/03 A3017 RMK AO2 SLP218 T01000028 $=
201301240552 METAR KATL 240552Z 25008KT 10SM OVC042 10/03 A3018 RMK AO2 SLP221 T01000028 10111 20100 58006 $=
201301240452 METAR KATL 240452Z 25008KT 10SM OVC040 11/03 A3019 RMK AO2 SLP226 T01060028 401331017=
201301240352 METAR KATL 240352Z 25009KT 10SM FEW030 OVC038 11/02 A3019 RMK AO2 SLP228 T01060022=
201301240252 METAR KATL 240252Z 25012KT 10SM FEW030 BKN038 BKN060 11/02 A3020 RMK AO2 SLP230 T01060017 55005=
201301240152 METAR KATL 240152Z 23007KT 10SM SCT030 BKN060 BKN250 11/01 A3018 RMK AO2 SLP226 T01060011=
201301240052 METAR KATL 240052Z 22006KT 10SM FEW040 SCT250 10/01 A3019 RMK AO2 SLP230 T01000011=
201301232352 METAR KATL 232352Z 26005KT 10SM BKN045 11/01 A3021 RMK AO2 SLP236 T01110011 10133 20089 55005=
201301232252 METAR KATL 232252Z 25008KT 10SM FEW055 SCT250 12/01 A3021 RMK AO2 SLP234 T01170011=
201301232152 METAR KATL 232152Z 26012G18KT 10SM SCT250 13/01 A3022 RMK AO2 SLP237 T01280006=
201301232052 METAR KATL 232052Z 26009KT 10SM FEW050 SCT250 13/00 A3023 RMK AO2 SLP240 T01330000 56029=
201301231952 METAR KATL 231952Z 28008KT 10SM FEW250 12/M02 A3024 RMK AO2 SLP246 T01171017=
201301231852 METAR KATL 231852Z 26009KT 10SM FEW250 11/M04 A3026 RMK AO2 SLP254 T01061039=
201301231752 METAR KATL 231752Z 26006KT 10SM FEW038 09/M05 A3032 RMK AO2 SLP272 T00891050 10094 21017 58021=
201301231652 METAR KATL 231652Z 30007KT 10SM BKN038 07/M07 A3036 RMK AO2 SLP289 T00721072=
201301231552 METAR KATL 231552Z 32003KT 10SM BKN040 BKN250 05/M08 A3038 RMK AO2 SLP294 T00501083=
201301231452 METAR KATL 231452Z 28005KT 10SM BKN040 BKN250 02/M09 A3038 RMK AO2 SLP295 T00221094 53015=
201301231352 METAR KATL 231352Z 32006KT 10SM FEW046 SCT250 01/M09 A3035 RMK AO2 SLP286 T00111094=
201301231252 METAR KATL 231252Z 30005KT 10SM SCT046 BKN250 M01/M09 A3034 RMK AO2 SLP284 T10111094=
201301231152 METAR KATL 231152Z 32006KT 10SM BKN046 M01/M09 A3033 RMK AO2 SLP281 T10111094 10000 21011 53008=
201301231052 METAR KATL 231052Z 34006KT 10SM OVC046 M01/M10 A3032 RMK AO2 SLP275 BINOVC T10061100=
201301230952 METAR KATL 230952Z 33006KT 10SM BKN050 M01/M09 A3031 RMK AO2 SLP271 T10061094=
201301230852 METAR KATL 230852Z 34004KT 10SM BKN050 M01/M09 A3031 RMK AO2 SLP270 T10061094 50003=
201301230752 METAR KATL 230752Z 33004KT 10SM BKN055 M01/M09 A3031 RMK AO2 SLP271 T10061089=
201301230652 METAR KATL 230652Z 33005KT 10SM CLR M01/M09 A3030 RMK AO2 SLP269 T10061089=
201301230552 METAR KATL 230552Z 32005KT 10SM CLR 00/M08 A3030 RMK AO2 SLP268 T00001083 10039 20000 51003=
201301230452 METAR KATL 230452Z 29005KT 10SM CLR 01/M08 A3030 RMK AO2 SLP268 T00061083 400721017=
201301230352 METAR KATL 230352Z 30005KT 10SM FEW060 01/M08 A3029 RMK AO2 SLP267 T00111083=
201301230252 METAR KATL 230252Z 29006KT 10SM SCT060 02/M08 A3029 RMK AO2 SLP265 T00171083 50003=
201301230152 METAR KATL 230152Z 31008KT 10SM FEW065 03/M09 A3030 RMK AO2 SLP268 T00281089=
201301230052 METAR KATL 230052Z 31010KT 10SM CLR 03/M08 A3028 RMK AO2 SLP264 T00331083=
201301222352 METAR KATL 222352Z 31005KT 10SM CLR 04/M09 A3028 RMK AO2 SLP262 T00391089 10072 20039 51008=
201301222252 METAR KATL 222252Z 33008KT 10SM CLR 06/M09 A3027 RMK AO2 SLP258 T00561089=
201301222152 METAR KATL 222152Z 31011KT 10SM FEW250 07/M09 A3027 RMK AO2 SLP257 T00671089=
201301222052 METAR KATL 222052Z 33010KT 10SM FEW250 07/M09 A3025 RMK AO2 SLP251 T00671094 55010=
201301221952 METAR KATL 221952Z 35009KT 10SM FEW250 07/M09 A3025 RMK AO2 SLP250 T00721094=
201301221852 METAR KATL 221852Z 34010KT 10SM FEW250 06/M11 A3027 RMK AO2 SLP255 T00611106=
201301221752 METAR KATL 221752Z 31011KT 10SM FEW250 05/M11 A3028 RMK AO2 SLP261 T00501106 10050 21017 58003=
201301221652 METAR KATL 221652Z 31012KT 10SM FEW250 03/M11 A3031 RMK AO2 SLP271 T00331106=
201301221552 METAR KATL 221552Z 31011KT 10SM FEW250 02/M11 A3031 RMK AO2 SLP271 T00221111=
201301221452 METAR KATL 221452Z 32016KT 10SM FEW250 01/M11 A3029 RMK AO2 SLP264 T00061111 53026=
201301221352 METAR KATL 221352Z 32014G19KT 10SM FEW250 M01/M11 A3026 RMK AO2 SLP253 T10061111=
201301221252 METAR KATL 221252Z 32012KT 10SM FEW250 M02/M12 A3024 RMK AO2 SLP247 T10171117=
201301221152 METAR KATL 221152Z 33010KT 10SM CLR M01/M11 A3021 RMK AO2 SLP237 T10111111 10033 21011 53016=
201301221052 METAR KATL 221052Z 33015G20KT 10SM CLR M01/M11 A3019 RMK AO2 SLP229 T10111111 $=
201301220952 METAR KATL 220952Z 33013KT 10SM CLR 00/M09 A3017 RMK AO2 SLP220 T00001094 $=
201301220852 METAR KATL 220852Z 33013KT 10SM CLR 01/M09 A3016 RMK AO2 SLP218 T00061089 53002 $=
201301220752 METAR KATL 220752Z 32011KT 10SM CLR 02/M08 A3015 RMK AO2 SLP214 T00171083 $=
201301220652 METAR KATL 220652Z 32012KT 10SM CLR 02/M08 A3015 RMK AO2 SLP212 T00221083 $=
201301220552 METAR KATL 220552Z 32013KT 10SM SCT250 03/M08 A3016 RMK AO2 SLP215 T00281083 10089 20028 50000 $=
201301220452 METAR KATL 220452Z 31008KT 10SM SCT250 04/M08 A3016 RMK AO2 SLP216 T00391078 401440022 $=
201301220352 METAR KATL 220352Z 31010KT 10SM BKN250 04/M07 A3017 RMK AO2 SLP219 T00441072 $=
201301220252 METAR KATL 220252Z 32012KT 10SM BKN250 06/M06 A3016 RMK AO2 SLP217 T00561056 53007 $=
201301220152 METAR KATL 220152Z 32009KT 10SM BKN250 07/M04 A3015 RMK AO2 SLP214 T00671044 $=
201301220052 METAR KATL 220052Z 31009KT 10SM BKN250 07/M04 A3014 RMK AO2 SLP210 T00721039 $=
201301212352 METAR KATL 212352Z 30011KT 10SM FEW200 BKN250 09/M03 A3013 RMK AO2 SLP209 T00891033 10144 20089 53015 $=
201301212252 METAR KATL 212252Z 28012KT 10SM FEW200 BKN250 10/M03 A3011 RMK AO2 SLP202 T01001028 $=
201301212152 METAR KATL 212152Z 32013KT 10SM FEW200 BKN250 13/M01 A3010 RMK AO2 SLP195 T01281011 $=
201301212052 METAR KATL 212052Z 33015G21KT 10SM FEW055 SCT200 BKN250 13/00 A3009 RMK AO2 SLP191 T01330000 55005 $=
201301211952 METAR KATL 211952Z 33014KT 10SM FEW060 SCT200 BKN250 14/00 A3009 RMK AO2 SLP190 T01390000 $=
201301211852 METAR KATL 211852Z 32010KT 10SM BKN250 14/00 A3009 RMK AO2 SLP190 T01390000 $=
201301211752 METAR KATL 211752Z 32016G22KT 10SM BKN250 13/00 A3010 RMK AO2 SLP195 50010 T01330000 10133 20022 $=
201301211652 METAR KATL 211652Z 33018G23KT 10SM BKN250 13/00 A3013 RMK AO2 SLP205 T01280000=
201301211552 METAR KATL 211552Z 31006KT 10SM SCT250 11/01 A3014 RMK AO2 SLP205 T01110006=
201301211452 METAR KATL 211452Z 32008KT 10SM SCT250 08/M01 A3013 RMK AO2 SLP205 T00781006 51013=
201301211352 METAR KATL 211352Z 31005KT 10SM FEW250 06/M01 A3012 RMK AO2 SLP202 T00611006=
201301211252 METAR KATL 211252Z 30005KT 10SM FEW250 03/M01 A3011 RMK AO2 SLP198 T00281011=
201301211152 METAR KATL 211152Z 32008KT 10SM CLR 03/M01 A3009 RMK AO2 SLP193 T00281006 10072 20028 53002=
201301211052 METAR KATL 211052Z 29005KT 10SM CLR 03/00 A3009 RMK AO2 SLP191 T00330000=
201301210952 METAR KATL 210952Z 31006KT 10SM CLR 03/01 A3008 RMK AO2 SLP189 T00330006=
201301210852 METAR KATL 210852Z 31007KT 10SM CLR 04/01 A3009 RMK AO2 SLP188 T00440011 58006=
201301210752 METAR KATL 210752Z 30004KT 10SM CLR 06/01 A3010 RMK AO2 SLP192 T00610011=
201301210652 METAR KATL 210652Z 32006KT 10SM CLR 06/01 A3010 RMK AO2 SLP193 T00610011=
201301210552 METAR KATL 210552Z 31005KT 10SM CLR 07/02 A3010 RMK AO2 SLP195 T00720017 10122 20072 58008=
201301210452 METAR KATL 210452Z 29003KT 10SM CLR 09/02 A3012 RMK AO2 SLP200 T00890017 401720033=
201301210352 METAR KATL 210352Z 30004KT 10SM CLR 09/02 A3012 RMK AO2 SLP202 T00940017=
201301210252 METAR KATL 210252Z 00000KT 10SM CLR 10/02 A3013 RMK AO2 SLP204 T01000017 53003=
201301210152 METAR KATL 210152Z 29003KT 10SM CLR 11/02 A3013 RMK AO2 SLP205 T01060022=
201301210052 METAR KATL 210052Z 32005KT 10SM CLR 12/02 A3012 RMK AO2 SLP202 T01170022=
201301202352 METAR KATL 202352Z 32005KT 10SM CLR 12/02 A3012 RMK AO2 SLP202 T01170022 10172 20117 53002=
201301202252 METAR KATL 202252Z 32007KT 10SM CLR 14/02 A3010 RMK AO2 SLP195 T01440017=
201301202152 METAR KATL 202152Z 29008KT 10SM CLR 16/02 A3010 RMK AO2 SLP196 T01610017=
201301202052 METAR KATL 202052Z 29009KT 10SM CLR 17/02 A3011 RMK AO2 SLP197 T01670017 56015=
201301201952 SPECI KATL 201952Z 31010KT 10SM CLR 17/02 A3012 RMK AO2 SLP202 T01670017=
201301201952 METAR KATL 201952Z 31010KT 10SM CLR 17/02 A3012 RMK AO2 SLP202 T01670017=
201301201852 METAR KATL 201852Z 33008KT 10SM CLR 16/01 A3013 RMK AO2 SLP204 T01610011=
201301201752 METAR KATL 201752Z 32009KT 10SM CLR 14/01 A3016 RMK AO2 SLP213 T01440011 10150 20039 58021=
201301201652 METAR KATL 201652Z 32012KT 10SM CLR 13/01 A3019 RMK AO2 SLP225 T01280006=
201301201552 METAR KATL 201552Z 31010KT 10SM CLR 11/02 A3022 RMK AO2 SLP236 T01060017=
201301201452 METAR KATL 201452Z 29009KT 10SM FEW250 09/01 A3022 RMK AO2 SLP238 T00890006 53005=
201301201352 METAR KATL 201352Z 28005KT 10SM FEW250 07/00 A3021 RMK AO2 SLP235 T00720000=
201301201252 METAR KATL 201252Z 24003KT 10SM FEW250 04/M02 A3021 RMK AO2 SLP234 T00391017=
201301201152 METAR KATL 201152Z 28005KT 10SM SCT250 05/M02 A3021 RMK AO2 SLP233 T00501017 10067 20033 51002=
201301201052 METAR KATL 201052Z 28004KT 10SM SCT250 04/M02 A3021 RMK AO2 SLP232 T00391017=
201301200952 METAR KATL 200952Z 29006KT 10SM SCT250 04/M02 A3021 RMK AO2 SLP232 T00391022=
201301200852 METAR KATL 200852Z 28006KT 10SM SCT250 04/M02 A3020 RMK AO2 SLP230 T00391017 56004=
201301200752 METAR KATL 200752Z 30005KT 10SM BKN250 03/M02 A3020 RMK AO2 SLP231 T00331017=
201301200652 METAR KATL 200652Z 00000KT 10SM BKN250 06/M02 A3020 RMK AO2 SLP230 T00561017=
201301200552 METAR KATL 200552Z 00000KT 10SM BKN250 06/M02 A3021 RMK AO2 SLP234 T00611017 10106 20056 58010=
201301200452 METAR KATL 200452Z 26003KT 10SM BKN250 07/M02 A3022 RMK AO2 SLP237 T00721017 401390006=
201301200352 METAR KATL 200352Z 23003KT 10SM BKN250 07/M01 A3024 RMK AO2 SLP243 T00671006=
201301200252 METAR KATL 200252Z 23003KT 10SM BKN250 07/M01 A3024 RMK AO2 SLP247 T00671006 58003=
201301200152 METAR KATL 200152Z 00000KT 10SM BKN250 08/M02 A3026 RMK AO2 SLP252 T00831017=
201301200052 METAR KATL 200052Z 00000KT 10SM BKN250 09/M02 A3026 RMK AO2 SLP252 T00941022=
201301192352 METAR KATL 192352Z 29003KT 10SM BKN250 11/M03 A3025 RMK AO2 SLP250 T01061033 10139 20106 55002=
201301192252 METAR KATL 192252Z 29004KT 10SM BKN250 11/M03 A3025 RMK AO2 SLP248 T01111028=
201301192152 METAR KATL 192152Z 22004KT 10SM BKN250 13/M03 A3025 RMK AO2 SLP249 T01281033=
201301192052 METAR KATL 192052Z 21005KT 10SM BKN250 13/M04 A3026 RMK AO2 SLP251 T01281044 56027=
201301191952 METAR KATL 191952Z 20004KT 10SM SCT250 13/M03 A3028 RMK AO2 SLP255 T01281033=
201301191852 METAR KATL 191852Z 18004KT 10SM SCT250 12/M03 A3031 RMK AO2 SLP265 T01221033=
201301191752 METAR KATL 191752Z VRB03KT 10SM FEW250 11/M03 A3034 RMK AO2 SLP279 T01061033 10106 20006 58032=
201301191652 METAR KATL 191652Z 14004KT 10SM FEW250 09/M04 A3040 RMK AO2 SLP298 T00941039=
201301191552 METAR KATL 191552Z VRB03KT 10SM FEW250 07/M03 A3044 RMK AO2 SLP312 T00721033=
201301191452 METAR KATL 191452Z 11005KT 10SM FEW250 05/M03 A3044 RMK AO2 SLP314 T00501028 53011=
201301191352 METAR KATL 191352Z 08004KT 10SM FEW250 03/M03 A3043 RMK AO2 SLP309 T00331033=
201301191252 METAR KATL 191252Z 00000KT 10SM FEW250 01/M03 A3041 RMK AO2 SLP305 T00061033=
201301191152 METAR KATL 191152Z 00000KT 10SM CLR 01/M04 A3041 RMK AO2 SLP303 T00111039 10044 20006 55003=
201301191052 METAR KATL 191052Z 10005KT 10SM CLR 01/M04 A3039 RMK AO2 SLP297 T00061039=
201301190952 METAR KATL 190952Z 09004KT 10SM CLR 02/M03 A3041 RMK AO2 SLP301 T00221033=
201301190852 METAR KATL 190852Z 10004KT 10SM CLR 03/M03 A3042 RMK AO2 SLP304 T00281033 56008=
201301190752 METAR KATL 190752Z 12005KT 10SM CLR 04/M03 A3042 RMK AO2 SLP304 T00391028=
201301190652 METAR KATL 190652Z 13004KT 10SM CLR 04/M02 A3043 RMK AO2 SLP309 T00391022=
201301190552 METAR KATL 190552Z 00000KT 10SM CLR 05/M03 A3044 RMK AO2 SLP313 T00501028 10100 20050 56005=
201301190452 METAR KATL 190452Z 14003KT 10SM CLR 06/M02 A3044 RMK AO2 SLP313 T00561022 401331006=
201301190352 METAR KATL 190352Z 13003KT 10SM CLR 06/M02 A3044 RMK AO2 SLP314 T00611022=
201301190252 METAR KATL 190252Z 00000KT 10SM CLR 07/M03 A3046 RMK AO2 SLP319 T00721033 53005=
201301190152 METAR KATL 190152Z 00000KT 10SM CLR 08/M03 A3044 RMK AO2 SLP316 T00781033=
201301190052 METAR KATL 190052Z 14003KT 10SM CLR 09/M03 A3045 RMK AO2 SLP317 T00891028=
201301182352 METAR KATL 182352Z 13003KT 10SM CLR 10/M04 A3044 RMK AO2 SLP315 T01001044 10133 20100 53003=
201301182252 METAR KATL 182252Z 15003KT 10SM CLR 11/M04 A3043 RMK AO2 SLP310 T01111039=
201301182152 METAR KATL 182152Z 00000KT 10SM CLR 12/M06 A3043 RMK AO2 SLP310 T01221061=
201301182052 METAR KATL 182052Z 00000KT 10SM CLR 12/M06 A3043 RMK AO2 SLP311 T01221056 56008=
201301181952 METAR KATL 181952Z 00000KT 10SM CLR 12/M05 A3044 RMK AO2 SLP312 T01221050=
201301181852 METAR KATL 181852Z VRB03KT 10SM CLR 11/M05 A3044 RMK AO2 SLP314 T01111050=
201301181752 METAR KATL 181752Z VRB04KT 10SM CLR 11/M02 A3046 RMK AO2 SLP319 T01061022 10106 21006 58004=
201301181652 METAR KATL 181652Z 03005KT 10SM CLR 09/M02 A3048 RMK AO2 SLP327 T00891022=
201301181552 METAR KATL 181552Z 01005KT 10SM CLR 07/M01 A3050 RMK AO2 SLP334 T00671011=
201301181452 METAR KATL 181452Z 34006KT 10SM CLR 04/M02 A3047 RMK AO2 SLP325 T00391017 53032=
201301181352 METAR KATL 181352Z 31006KT 10SM CLR 02/M02 A3043 RMK AO2 SLP314 T00171022=
201301181252 METAR KATL 181252Z 31003KT 10SM CLR M01/M03 A3040 RMK AO2 SLP302 T10061033=
201301181152 METAR KATL 181152Z 33005KT 10SM CLR 00/M03 A3037 RMK AO2 SLP294 70034 T00001028 10022 20000 53018=
201301181052 METAR KATL 181052Z 34008KT 10SM CLR 01/M03 A3035 RMK AO2 SLP285 T00061028=
201301180952 METAR KATL 180952Z 33008KT 10SM CLR 01/M02 A3033 RMK AO2 SLP279 T00111022=
201301180852 METAR KATL 180852Z 33013KT 10SM CLR 01/M02 A3031 RMK AO2 SLP274 T00111017 51017=
201301180752 METAR KATL 180752Z 34012KT 10SM CLR 02/M01 A3030 RMK AO2 SLP269 T00171011=
201301180652 METAR KATL 180652Z 33012KT 10SM CLR 02/M01 A3029 RMK AO2 SLP264 T00171011=
201301180552 METAR KATL 180552Z 34012KT 10SM CLR 02/M01 A3026 RMK AO2 SLP254 T00221006 10044 20022 51031=
201301180452 METAR KATL 180452Z 33015G21KT 10SM CLR 03/00 A3024 RMK AO2 SLP244 T00280000 401280028=
201301180352 METAR KATL 180352Z 34014KT 10SM CLR 03/00 A3020 RMK AO2 SLP231 T00330000=
201301180252 METAR KATL 180252Z 33014G21KT 10SM FEW014 04/01 A3017 RMK AO2 PK WND 33030/0206 SLP219 T00390011 51063=
201301180220 SPECI KATL 180220Z 33016G22KT 10SM SCT014 04/02 A3013 RMK AO2 PK WND 33030/0206=
201301180152 METAR KATL 180152Z 33019G26KT 10SM OVC010 04/02 A3011 RMK AO2 PK WND 32029/0140 PRESRR SLP200 BINOVC T00390022=
201301180101 SPECI KATL 180101Z 33018G23KT 10SM OVC010 04/02 A3004 RMK AO2=
201301180052 METAR KATL 180052Z 34016G26KT 10SM OVC008 04/02 A3004 RMK AO2 PK WND 33033/0013 SLP176 T00390017=
201301180002 SPECI KATL 180002Z 33024G30KT 8SM OVC008 03/02 A2998 RMK AO2 PK WND 33030/0002=
201301172352 METAR KATL 172352Z 32019G29KT 7SM OVC010 03/01 A2998 RMK AO2 PK WND 32029/2348 DZE43RAB23E35 SLP154 P0000 60003 T00280011 10061 20028 53054=
201301172252 METAR KATL 172252Z 28015G20KT 4SM -DZ BR OVC010 03/02 A2992 RMK AO2 RAE22DZB50 SLP134 P0001 T00330017=
201301172152 METAR KATL 172152Z 25011G18KT 5SM -RA BR BKN010 BKN015 OVC025 03/02 A2987 RMK AO2 SLP117 P0001 T00330022=
201301172052 METAR KATL 172052Z 25015G22KT 8SM -RA BKN010 BKN020 OVC030 04/02 A2981 RMK AO2 DZE09RAB09 SLP097 P0001 60001 T00440022 53006=
201301172010 SPECI KATL 172010Z 23016G21KT 3SM R09R/6000VP6000FT -RA BR BKN010 BKN015 OVC030 04/03 A2980 RMK AO2 SFC VIS 4 DZE09RAB09 P0000=
201301172002 SPECI KATL 172002Z 22011G19KT 3SM -DZ BR BKN010 BKN016 OVC030 04/03 A2980 RMK AO2 P0000=
201301171952 METAR KATL 171952Z 22012G25KT 4SM -DZ BR BKN012 BKN015 OVC020 04/03 A2980 RMK AO2 DZB45 SLP092 P0000 T00440028=
201301171945 SPECI KATL 171945Z 22013G24KT 4SM -DZ BR BKN012 BKN014 OVC020 04/03 A2979 RMK AO2 DZB45 P0000=
201301171901 SPECI KATL 171901Z 22015KT 10SM FEW012 BKN014 OVC020 06/03 A2978 RMK AO2=
201301171852 METAR KATL 171852Z 22014G24KT 8SM FEW007 BKN014 OVC020 05/03 A2980 RMK AO2 PK WND 22027/1757 RAE41 SLP092 P0000 T00500028=
201301171843 SPECI KATL 171843Z 22019G26KT 8SM BKN012 BKN018 OVC030 05/03 A2980 RMK AO2 PK WND 22027/1757 RAE41 P0000=
201301171826 SPECI KATL 171826Z 23019G24KT 4SM -RA BR BKN009 OVC015 06/04 A2980 RMK AO2 PK WND 22027/1757 P0000=
201301171814 SPECI KATL 171814Z 21016G24KT 6SM BR BKN009 BKN012 OVC020 06/04 A2979 RMK AO2 PK WND 22027/1757 RAE08 P0000=
201301171752 METAR KATL 171752Z 21019G27KT 2SM -RA BR BKN005 BKN010 OVC030 06/05 A2979 RMK AO2 PK WND 22027/1750 SFC VIS 3 RAE1657B13 SLP090 P0000 60031 T00610050 10122 20061 56016=
201301171727 SPECI KATL 171727Z 22015G24KT 2SM BR BKN005 BKN012 OVC030 08/06 A2978 RMK AO2 SFC VIS 6 RAE1657B13E27 P0000=
201301171652 METAR KATL 171652Z 22010G18KT 1SM -RA BR BKN007 BKN012 OVC030 09/08 A2980 RMK AO2 SFC VIS 3 DZB18E40RAB40 SLP091 P0000 T00940083=
201301171641 SPECI KATL 171641Z 22013G18KT 1SM R09R/5500VP6000FT -RA BR BKN005 BKN020 OVC050 10/09 A2981 RMK AO2 SFC VIS 2 DZB18E40RAB40 P0000=
201301171623 SPECI KATL 171623Z 23014G19KT 1SM -DZ BR BKN005 BKN020 OVC050 11/10 A2980 RMK AO2 SFC VIS 3 DZB18 P0000=
201301171618 SPECI KATL 171618Z 22010KT 2SM -DZ BR BKN005 BKN030 OVC050 11/10 A2980 RMK AO2 SFC VIS 4 DZB18 P0000=
201301171552 METAR KATL 171552Z 21004KT 3SM BR BKN006 BKN040 OVC050 11/09 A2981 RMK AO2 SFC VIS 6 RAE47 SLP095 P0009 T01060094=
201301171544 SPECI KATL 171544Z 00000KT 3SM -RA BR BKN008 BKN035 OVC050 10/09 A2982 RMK AO2 SFC VIS 6 P0009=
201301171454 SPECI KATL 171454Z 28007KT 2SM RA BR SCT004 BKN008 OVC016 10/09 A2984 RMK AO2 SFC VIS 3 P0000=
201301171452 METAR KATL 171452Z 28008KT 2SM RA BR FEW004 SCT008 OVC016 10/09 A2984 RMK AO2 SFC VIS 3 SLP105 P0010 60022 T01000089 53001=
201301171405 SPECI KATL 171405Z 28007KT 2SM RA BR SCT004 OVC013 11/10 A2983 RMK AO2 P0003=
201301171352 METAR KATL 171352Z 30007KT 1SM R09R/6000VP6000FT RA BR FEW004 SCT009 OVC013 11/10 A2982 RMK AO2 SFC VIS 1 1/2 RAB1254 SLP098 P0009 T01060100=
201301171341 SPECI KATL 171341Z 31007KT 1SM RA BR SCT004 OVC011 11/10 A2982 RMK AO2 SFC VIS 2 1/2 RAB1254 P0005=
201301171252 METAR KATL 171252Z 33005KT 1SM BR BKN004 OVC013 12/11 A2982 RMK AO2 SFC VIS 1 1/2 RAE52 SLP099 CIG 003V007 P0003 T01170106=
201301171152 METAR KATL 171152Z 04004KT 1SM -RA BR OVC003 12/11 A2984 RMK AO2 SFC VIS 1 1/2 RAE17B34 SLP103 TWRINC P0001 60023 70038 T01220111 10122 20117 56020=
201301171052 METAR KATL 171052Z 03006KT 1SM -RA BR OVC004 12/11 A2985 RMK AO2 SFC VIS 5 SLP107 TWRINC P0002 T01170106=
201301170952 METAR KATL 170952Z 36005KT 1SM -RA BR OVC004 12/11 A2988 RMK AO2 SFC VIS 4 SLP117 TWRINC P0003 T01170106=
201301170852 METAR KATL 170852Z 36005KT 1SM -RA BR OVC004 12/11 A2990 RMK AO2 SFC VIS 4 RAE06B25 SLP123 TWRINC P0002 60017 T01170106 58018=
201301170814 SPECI KATL 170814Z 34005KT 1SM BR OVC004 12/11 A2992 RMK AO2 SFC VIS 5 RAE06 TWRINC P0001=
201301170754 SPECI KATL 170754Z 34003KT 1SM -RA BR OVC005 12/11 A2992 RMK AO2 SFC VIS 2 1/2 P0000=
201301170752 METAR KATL 170752Z 34003KT 2SM -RA BR OVC005 12/12 A2992 RMK AO2 SFC VIS 3 SLP131 P0010 T01220117=
201301170719 SPECI KATL 170719Z 00000KT 2SM -RA BR OVC005 12/11 A2994 RMK AO2 SFC VIS 3 P0006=
201301170652 METAR KATL 170652Z 01003KT 3SM -RA BR BKN005 OVC013 12/11 A2994 RMK AO2 SLP138 P0005 T01220111=
201301170612 SPECI KATL 170612Z 00000KT 4SM RA BR SCT005 BKN013 OVC021 12/11 A2995 RMK AO2 P0002=
201301170606 SPECI KATL 170606Z 00000KT 4SM -RA BR BKN005 OVC013 12/11 A2995 RMK AO2 P0001=
201301170601 SPECI KATL 170601Z 01004KT 5SM -RA BR SCT005 BKN013 OVC050 12/12 A2995 RMK AO2 P0001=
201301170552 METAR KATL 170552Z 00000KT 6SM -RA BR SCT007 BKN015 OVC050 12/11 A2995 RMK AO2 SLP141 P0002 60003 T01220111 10133 20117 57009=
201301170500 SPECI KATL 170500Z 00000KT 8SM -RA SCT005 BKN017 OVC050 12/11 A2996 RMK AO2 P0000=
201301170452 METAR KATL 170452Z 00000KT 10SM -RA SCT005 BKN045 OVC100 12/11 A2996 RMK AO2 RAB19 SLP143 P0000 T01220111 401830117=
201301170352 METAR KATL 170352Z 31005KT 10SM BKN005 OVC020 12/11 A2998 RMK AO2 RAE05 SLP149 P0000 T01220111=
201301170252 METAR KATL 170252Z 34005KT 10SM -RA SCT006 BKN018 OVC030 12/11 A2998 RMK AO2 RAE20B48 SLP151 P0000 60001 T01220111 58002=
201301170152 METAR KATL 170152Z 34009KT 10SM -RA OVC005 13/12 A3000 RMK AO2 RAE23B48 SLP155 CIG 004V007 P0001 T01280117=
201301170111 SPECI KATL 170111Z 34005KT 8SM -RA BKN005 OVC022 13/12 A2999 RMK AO2 P0000=
201301170052 METAR KATL 170052Z 32005KT 10SM -RA SCT005 BKN022 OVC070 13/12 A2999 RMK AO2 RAB04 SLP154 P0000 T01280117=
201301170027 SPECI KATL 170027Z 33006KT 10SM -RA FEW005 BKN023 OVC070 13/12 A2999 RMK AO2 RAB04 P0000=
201301170021 SPECI KATL 170021Z 33005KT 10SM -RA FEW005 SCT023 OVC070 13/12 A2999 RMK AO2 RAB04 P0000=
201301162352 METAR KATL 162352Z 31005KT 10SM FEW006 BKN045 OVC070 13/12 A2999 RMK AO2 SLP152 60002 T01330122 10156 20133 53012=
201301162252 METAR KATL 162252Z 01004KT 10SM FEW006 SCT024 OVC030 14/12 A2997 RMK AO2 RAE13 SLP146 P0000 T01390117=
201301162210 SPECI KATL 162210Z 33006KT 10SM -RA FEW006 BKN023 OVC070 14/12 A2997 RMK AO2 P0000=
201301162152 METAR KATL 162152Z 36005KT 8SM -RA FEW009 BKN030 BKN050 14/12 A2996 RMK AO2 RAB25 SLP141 P0000 T01440122=
201301162052 METAR KATL 162052Z 01008KT 8SM BKN007 BKN030 BKN100 14/13 A2995 RMK AO2 RAE26 SLP139 P0000 60002 T01440128 58005=
201301161952 METAR KATL 161952Z 33008KT 3SM -RA BR BKN005 BKN010 OVC030 14/13 A2996 RMK AO2 SFC VIS 5 SLP143 P0000 T01440133=
201301161917 SPECI KATL 161917Z 30005KT 3SM -RA BR BKN005 BKN012 OVC030 15/14 A2996 RMK AO2 SFC VIS 4 P0000=
201301161852 METAR KATL 161852Z 32007KT 6SM -RA BR SCT005 BKN020 OVC035 15/14 A2996 RMK AO2 SLP143 P0002 T01500139=
201301161841 SPECI KATL 161841Z 31005KT 6SM BR SCT005 BKN020 OVC035 14/13 A2996 RMK AO2 RAE37 P0002=
201301161824 SPECI KATL 161824Z 34006KT 4SM -RA BR BKN007 BKN025 OVC035 15/14 A2996 RMK AO2 P0001=
201301161804 SPECI KATL 161804Z 32004KT 6SM -RA BR BKN007 BKN015 OVC030 16/14 A2997 RMK AO2 P0000=
201301161752 METAR KATL 161752Z 00000KT 9SM -RA BKN007 BKN010 OVC020 15/14 A2997 RMK AO2 RAB28 SLP145 P0000 60010 T01500139 10178 20150 58016=
201301161726 SPECI KATL 161726Z 34005KT 3SM BR FEW003 BKN005 OVC020 15/14 A2998 RMK AO2 SFC VIS 6=
201301161702 SPECI KATL 161702Z 32006KT 1SM BR BKN004 BKN006 OVC020 15/14 A2998 RMK AO2 SFC VIS 6=
201301161652 METAR KATL 161652Z 31005KT 3SM BR FEW003 BKN005 OVC020 15/14 A2999 RMK AO2 SFC VIS 6 SLP152 T01500139=
201301161615 SPECI KATL 161615Z 00000KT 1 1/2SM BR SCT003 BKN005 OVC020 15/14 A3000 RMK AO2 SFC VIS 4 $=
201301161552 METAR KATL 161552Z 33004KT 2 1/2SM BR BKN005 BKN020 OVC050 15/14 A3001 RMK AO2 SFC VIS 4 RAE20 SLP160 P0000 T01500139 $=
201301161549 SPECI KATL 161549Z 33003KT 2 1/2SM BR BKN005 BKN020 OVC050 15/14 A3002 RMK AO2 SFC VIS 4 RAE20 P0000 $=
201301161512 SPECI KATL 161512Z 34005KT 2 1/2SM -RA BR FEW006 BKN017 OVC030 15/14 A3001 RMK AO2 SFC VIS 4 P0000 $=
201301161501 SPECI KATL 161501Z 31003KT 2SM -RA BR SCT006 BKN017 OVC050 15/14 A3001 RMK AO2 SFC VIS 3 P0000 $=
201301161452 METAR KATL 161452Z 33005KT 6SM -RA BR SCT006 BKN017 OVC050 15/14 A3001 RMK AO2 SLP158 P0001 60010 T01500144 51022 $=
201301161414 SPECI KATL 161414Z 32008KT 6SM BR SCT006 BKN020 OVC050 16/14 A2999 RMK AO2 RAE12 P0000 $=
201301161403 SPECI KATL 161403Z 32007KT 6SM -RA BR FEW006 BKN044 OVC055 16/14 A2999 RMK AO2 P0000 $=
201301161352 METAR KATL 161352Z 31008KT 5SM -RA BR SCT006 BKN028 OVC060 16/14 A2999 RMK AO2 SLP151 P0003 T01560144 $=
201301161334 SPECI KATL 161334Z 33011G20KT 2SM RA BR BKN006 BKN012 OVC029 16/14 A2998 RMK AO2 SFC VIS 2 1/2 P0002 $=
201301161315 SPECI KATL 161315Z 00000KT 6SM -RA BR BKN006 BKN012 OVC065 18/17 A2997 RMK AO2 P0001 $=
201301161259 SPECI KATL 161259Z 28003KT 5SM -RA BR FEW006 BKN012 OVC070 18/17 A2997 RMK AO2 P0000 $=
201301161252 METAR KATL 161252Z 00000KT 6SM -RA BR FEW005 BKN015 OVC050 18/17 A2996 RMK AO2 SLP142 P0006 T01780172 $=
201301161219 SPECI KATL 161219Z 23003KT 3SM -RA BR FEW004 BKN020 OVC027 18/17 A2995 RMK AO2 SFC VIS 5 P0005=
201301161208 SPECI KATL 161208Z 22003KT 3SM RA BR SCT004 BKN014 OVC031 18/17 A2994 RMK AO2 SFC VIS 4 P0004=
201301161159 SPECI KATL 161159Z 19003KT 3SM RA BR BKN004 BKN008 OVC033 18/17 A2994 RMK AO2 P0002=
201301161152 METAR KATL 161152Z 30004KT 3SM RA BR OVC006 18/17 A2994 RMK AO2 SFC VIS 3 SLP133 P0012 60052 70085 T01780167 10183 20178 53004=
201301161125 SPECI KATL 161125Z 19005KT 3SM -RA BR OVC006 18/17 A2993 RMK AO2 SFC VIS 5 P0008=
201301161117 SPECI KATL 161117Z 00000KT 2 1/2SM RA BR OVC006 18/17 A2993 RMK AO2 TWR VIS 3 P0007=
201301161055 SPECI KATL 161055Z 21004KT 3SM -RA BR BKN006 OVC013 18/17 A2992 RMK AO2 P0001 $=
201301161052 METAR KATL 161052Z 00000KT 2 1/2SM RA BR BKN004 OVC015 18/17 A2993 RMK AO2 TWR VIS 3 SLP129 P0025 T01780172 $=
201301161044 SPECI KATL 161044Z 24003KT 3SM RA BR BKN006 BKN014 OVC022 18/17 A2993 RMK AO2 P0023 $=
201301161040 SPECI KATL 161040Z 22004KT 3SM -RA BR SCT006 BKN012 OVC018 18/17 A2993 RMK AO2 P0022 $=
201301161023 SPECI KATL 161023Z 22003KT 3SM -RA BR SCT008 BKN020 OVC038 18/17 A2992 RMK AO2 P0018 $=
201301161016 SPECI KATL 161016Z 23004KT 2SM +RA BR SCT007 BKN011 OVC030 18/17 A2993 RMK AO2 TWR VIS 3 P0015 $=
201301161006 SPECI KATL 161006Z 24005G14KT 2SM R09R/5500VP6000FT RA BR SCT005 BKN017 OVC030 18/17 A2993 RMK AO2 TWR VIS 3 P0010 $=
201301161004 SPECI KATL 161004Z 24007KT 2SM R09R/5500VP6000FT RA BR BKN005 BKN012 OVC027 18/17 A2993 RMK AO2 TWR VIS 3 VIS 1V4 P0009 $=
201301160952 METAR KATL 160952Z 19012G20KT 3SM -RA BR BKN005 OVC015 18/17 A2992 RMK AO2 SFC VIS 4 SLP125 P0008 T01780167 $=
201301160852 METAR KATL 160852Z 16008KT 3SM -RA BR BKN005 OVC011 18/17 A2993 RMK AO2 SFC VIS 5 SLP129 P0007 60007 T01830172 58012 $=
201301160752 METAR KATL 160752Z 18007KT 7SM -RA OVC005 18/17 A2995 RMK AO2 RAB48 SLP136 P0000 T01830172 $=
201301160652 METAR KATL 160652Z 19009KT 7SM BKN007 OVC014 18/17 A2995 RMK AO2 SLP140 T01830172 $=
201301160552 METAR KATL 160552Z 19007KT 10SM OVC007 18/17 A2996 RMK AO2 SLP144 CIG 005V011 60000 T01830172 10189 20156 58009 $=
201301160452 METAR KATL 160452Z 19011KT 10SM OVC005 18/17 A2997 RMK AO2 RAB10E19 SLP144 CIG 004V007 P0000 T01830172 401940094 $=
201301160352 METAR KATL 160352Z 18005KT 10SM OVC005 18/17 A2999 RMK AO2 SLP152 CIG 004V007 T01830172 $=
201301160317 SPECI KATL 160317Z 18007KT 10SM OVC008 18/17 A2998 RMK AO2 CIG 006V011 $=
201301160252 METAR KATL 160252Z 19006KT 9SM SCT009 BKN014 OVC030 18/17 A2999 RMK AO2 RAB24E32 SLP153 P0000 60000 T01780172 55003=
201301160152 METAR KATL 160152Z 18004KT 10SM SCT009 BKN014 OVC090 17/16 A2999 RMK AO2 RAE45 SLP152 P0000 T01720161=
201301160052 METAR KATL 160052Z 20004KT 5SM -RA BR FEW006 BKN018 OVC050 17/16 A3000 RMK AO2 RAB36 SLP157 P0000 T01720156=
201301160024 SPECI KATL 160024Z 31009KT 10SM FEW006 BKN020 OVC070 16/14 A3001 RMK AO2=
201301152352 METAR KATL 152352Z 15005KT 10SM FEW025 BKN055 BKN070 OVC250 18/17 A3000 RMK AO2 SLP156 60001 T01830167 10194 20122 50001=
201301152252 METAR KATL 152252Z 16004KT 8SM FEW025 SCT110 BKN250 18/17 A3001 RMK AO2 SLP159 T01830172=
201301152215 SPECI KATL 152215Z 16005KT 8SM SCT025 BKN110 BKN200 19/17 A3001 RMK AO2=
201301152159 SPECI KATL 152159Z 17006KT 8SM FEW006 BKN023 BKN110 BKN200 19/17 A3000 RMK AO2=
201301152152 METAR KATL 152152Z COR 17007KT 7SM FEW008 SCT023 BKN110 BKN200 19/17 A3000 RMK AO2 SLP157 T01890172=
201301152145 SPECI KATL 152145Z 16005KT 7SM FEW006 SCT040 SCT150 BKN200 19/18 A3000 RMK AO2=
201301152052 METAR KATL 152052Z 17005KT 3SM BR SCT004 BKN020 OVC040 18/17 A3000 RMK AO2 SFC VIS 4 DZE19 SLP155 P0000 60001 T01780172 53000=
201301152050 SPECI KATL 152050Z 17006KT 3SM BR SCT004 BKN020 OVC040 18/17 A3000 RMK AO2 SFC VIS 4 DZE19 P0000=
201301152020 SPECI KATL 152020Z 18003KT 3SM BR FEW002 BKN012 OVC020 17/16 A2999 RMK AO2 SFC VIS 4 DZE19 P0000=
201301152018 SPECI KATL 152018Z 18003KT 3SM -DZ BR BCFG FEW002 BKN012 OVC020 17/16 A2999 RMK AO2 P0000=
201301151952 METAR KATL 151952Z 15003KT 1/2SM -DZ BR BCFG FEW002 BKN004 OVC008 16/15 A2999 RMK AO2 SFC VIS 2 1/2 SLP154 TWRINC P0001 T01560150=
201301151852 METAR KATL 151852Z 00000KT 1/2SM -DZ BR BCFG BKN004 BKN008 OVC012 14/13 A3000 RMK AO2 SFC VIS 2 SLP158 P0000 T01390128=
201301151752 METAR KATL 151752Z 31005KT 1/2SM R09R/5500VP6000FT -DZ BR BCFG BKN004 BKN006 OVC008 12/12 A3002 RMK AO2 SFC VIS 1 1/2 RAE46DZB51 SLP168 P0003 60032 T01220117 10139 20106 58022=
201301151652 METAR KATL 151652Z 00000KT 1/2SM -RA BR BCFG BKN003 BKN006 OVC008 14/13 A3005 RMK AO2 SFC VIS 3 SLP176 P0001 T01390128=
201301151610 SPECI KATL 151610Z 00000KT 1/2SM -RA BR BCFG BKN003 BKN006 OVC008 13/12 A3007 RMK AO2 SFC VIS 3 P0000=
201301151552 METAR KATL 151552Z 00000KT 1/2SM -RA BR BKN004 BKN008 OVC012 13/12 A3008 RMK AO2 SFC VIS 3 SLP186 P0004 T01280122=
201301151544 SPECI KATL 151544Z 00000KT 1/2SM -RA BR BKN004 BKN008 OVC012 13/12 A3008 RMK AO2 SFC VIS 3 P0003=
201301151452 METAR KATL 151452Z 00000KT 1 1/2SM -RA BR BCFG BKN005 BKN008 OVC012 12/12 A3009 RMK AO2 SFC VIS 3 SLP190 P0016 60024 T01220117 51001=
201301151431 SPECI KATL 151431Z 00000KT 1 1/2SM R09R/6000VP6000FT -RA BR BKN006 BKN009 OVC016 12/11 A3009 RMK AO2 SFC VIS 1 3/4 P0012=
201301151421 SPECI KATL 151421Z 00000KT 1 1/2SM RA BR SCT006 BKN010 OVC016 12/11 A3010 RMK AO2 SFC VIS 1 3/4 P0011=
201301151352 METAR KATL 151352Z 00000KT 1 1/2SM -RA BR BKN006 OVC011 11/10 A3009 RMK AO2 SFC VIS 3 SLP190 P0008 T01110100=
201301151346 SPECI KATL 151346Z 00000KT 1 1/2SM -RA BR BKN006 OVC011 11/11 A3009 RMK AO2 SFC VIS 4 P0007=
201301151336 SPECI KATL 151336Z 00000KT 1 1/2SM -RA BR SCT004 OVC011 11/11 A3009 RMK AO2 SFC VIS 5 P0006=
201301151331 SPECI KATL 151331Z 00000KT 1 1/2SM -RA BR BKN004 OVC010 11/10 A3009 RMK AO2 SFC VIS 4 P0006=
201301151252 METAR KATL 151252Z 32008KT 1/2SM R09R/4000VP6000FT RA BR OVC002 11/10 A3009 RMK AO2 SFC VIS 1 1/4 RAB44 SLP190 P0000 T01060100=
201301151241 SPECI KATL 151241Z 31009KT 1/2SM R09R/5000VP6000FT BR OVC002 11/10 A3009 RMK AO2 SFC VIS 1 1/4=
201301151152 METAR KATL 151152Z 00000KT 1SM R09R/P6000FT BR VV003 12/11 A3007 RMK AO2 TWR VIS 1 1/4 SLP182 70052 T01220111 10122 20094 55000=
201301151052 METAR KATL 151052Z 08003KT 1 1/4SM BR OVC003 11/10 A3006 RMK AO2 SFC VIS 5 SLP178 T01110100=
201301150952 METAR KATL 150952Z 00000KT 1 1/4SM BR OVC003 10/09 A3006 RMK AO2 SFC VIS 5 SLP180 T01000094=
201301150944 SPECI KATL 150944Z 00000KT 1 1/4SM BR OVC003 10/09 A3007 RMK AO2 SFC VIS 5=
201301150929 SPECI KATL 150929Z 32003KT 7SM OVC003 11/09 A3007 RMK AO2=
201301150852 METAR KATL 150852Z 00000KT 8SM OVC005 11/09 A3007 RMK AO2 SLP182 T01060089 56016=
201301150824 SPECI KATL 150824Z 00000KT 8SM BKN007 OVC080 10/09 A3007 RMK AO2=
201301150812 SPECI KATL 150812Z 00000KT 10SM SCT004 BKN010 OVC080 10/09 A3008 RMK AO2=
201301150804 SPECI KATL 150804Z 00000KT 10SM SCT004 BKN015 OVC085 10/09 A3008 RMK AO2=
201301150752 METAR KATL 150752Z 00000KT 10SM FEW004 SCT015 OVC085 10/09 A3008 RMK AO2 SLP186 T01000089=
201301150715 SPECI KATL 150715Z 00000KT 10SM FEW003 OVC095 09/08 A3009 RMK AO2=
201301150659 SPECI KATL 150659Z 00000KT 10SM BKN005 BKN050 OVC090 09/08 A3009 RMK AO2=
201301150652 METAR KATL 150652Z 33004KT 8SM FEW003 BKN012 OVC050 09/08 A3010 RMK AO2 SLP194 T00940083=
201301150552 METAR KATL 150552Z 00000KT 10SM FEW005 SCT012 OVC050 09/08 A3012 RMK AO2 RAE04 SLP200 P0001 60016 T00940078 10133 20089 58008=
201301150545 SPECI KATL 150545Z 00000KT 10SM FEW005 SCT012 OVC055 09/08 A3012 RMK AO2 RAE04 P0001=
201301150452 METAR KATL 150452Z 00000KT 7SM -RA FEW005 BKN012 OVC020 09/08 A3013 RMK AO2 RAB50 SLP202 P0000 T00940078 401940089=
201301150436 SPECI KATL 150436Z 00000KT 7SM SCT005 OVC016 09/08 A3013 RMK AO2=
201301150352 METAR KATL 150352Z 34006KT 2SM BKN005 BKN015 OVC045 09/08 A3014 RMK AO2 SFC VIS 9 RAE42 SLP204 CIG 003V007 P0002 T00890078=
201301150252 METAR KATL 150252Z 32006KT 2SM -RA BR BKN005 OVC015 09/08 A3014 RMK AO2 SFC VIS 6 RAE28B49 SLP206 CIG 003V007 P0002 60013 T00890078 51007=
201301150152 METAR KATL 150152Z 33011KT 1SM RA BR OVC004 09/08 A3014 RMK AO2 SFC VIS 4 RAB09 SLP203 CIG 003V005 P0011 T00940083=
201301150052 METAR KATL 150052Z 34011KT 1SM OVC004 12/11 A3014 RMK AO2 SFC VIS 7 RAE03 SLP202 P0000 T01170106=
201301150029 SPECI KATL 150029Z 34007KT 1SM BR BKN004 OVC020 12/12 A3014 RMK AO2 SFC VIS 5 RAE03 CIG 002V005 P0000=
201301150016 SPECI KATL 150016Z 32006KT 2SM BR BKN004 OVC020 13/12 A3013 RMK AO2 SFC VIS 6 RAE03 P0000=
201301142356 SPECI KATL 142356Z 32008KT 7SM -RA BKN004 BKN018 OVC060 13/12 A3012 RMK AO2 P0000=
201301142352 METAR KATL 142352Z 34006KT 8SM -RA SCT004 BKN018 OVC060 13/12 A3012 RMK AO2 SLP197 P0003 60017 T01330122 10156 20122 51016=
201301142347 SPECI KATL 142347Z 32006KT 7SM -RA SCT004 BKN018 OVC060 13/12 A3012 RMK AO2 P0002=
201301142330 SPECI KATL 142330Z 30006KT 8SM -RA BKN005 BKN028 OVC080 13/12 A3012 RMK AO2 P0002=
201301142315 SPECI KATL 142315Z 33008KT 9SM -RA FEW004 BKN040 OVC080 13/12 A3011 RMK AO2 P0002=
201301142259 SPECI KATL 142259Z 31006KT 7SM -RA SCT025 BKN045 OVC090 14/13 A3011 RMK AO2 P0001=
201301142252 METAR KATL 142252Z 33005KT 4SM +RA BR FEW005 BKN025 OVC050 14/13 A3011 RMK AO2 RAB35 SLP193 VIS LWR NW-NE P0014 T01390128=
201301142247 SPECI KATL 142247Z 31008KT 4SM +RA BR FEW007 BKN028 OVC060 14/13 A3011 RMK AO2 RAB35 VIS LWR NW-NE P0009=
201301142242 SPECI KATL 142242Z 31006KT 2 1/2SM +RA BR FEW007 BKN028 OVC060 14/13 A3011 RMK AO2 RAB35 P0003=
201301142152 METAR KATL 142152Z 00000KT 10SM FEW035 SCT045 BKN060 OVC200 14/12 A3009 RMK AO2 SLP187 T01440122=
201301142052 METAR KATL 142052Z 33004KT 10SM FEW040 BKN090 OVC200 15/13 A3007 RMK AO2 SLP180 T01500128 55002=
201301141952 METAR KATL 141952Z 33006KT 8SM FEW030 SCT050 BKN100 OVC200 15/13 A3006 RMK AO2 SLP177 T01500128=
201301141852 METAR KATL 141852Z 32007KT 6SM BR FEW004 SCT030 OVC090 13/12 A3007 RMK AO2 SLP179 T01330117=
201301141759 SPECI KATL 141759Z 32006KT 6SM BR FEW004 BKN034 OVC085 13/12 A3007 RMK AO2=
201301141752 METAR KATL 141752Z 31005KT 6SM BR FEW004 BKN025 OVC055 12/12 A3008 RMK AO2 SLP183 60019 T01220117 10194 20122 58009=
201301141750 SPECI KATL 141750Z 31005KT 6SM BR FEW004 BKN025 OVC055 12/12 A3008 RMK AO2=
201301141652 METAR KATL 141652Z 32008KT 6SM BR FEW004 BKN010 OVC015 13/12 A3011 RMK AO2 SLP192 T01330122=
201301141647 SPECI KATL 141647Z 32008G15KT 6SM BR SCT004 BKN010 OVC015 14/13 A3011 RMK AO2=
201301141607 SPECI KATL 141607Z 19010KT 3SM BR SCT010 BKN025 OVC050 19/18 A3011 RMK AO2 SFC VIS 6=
201301141552 METAR KATL 141552Z 19011KT 3SM BR FEW008 BKN012 OVC020 19/18 A3012 RMK AO2 SFC VIS 6 RAE04 SLP192 P0000 T01890178=
201301141532 SPECI KATL 141532Z 19010KT 3SM BR FEW008 BKN012 OVC020 19/18 A3012 RMK AO2 SFC VIS 6 RAE04 P0000=
201301141455 SPECI KATL 141455Z 18010G16KT 2 1/2SM -RA BR FEW008 BKN019 OVC030 19/18 A3011 RMK AO2 SFC VIS 3 P0000=
201301141452 METAR KATL 141452Z 18010KT 2 1/2SM -RA BR FEW006 BKN030 OVC070 19/18 A3011 RMK AO2 SFC VIS 3 SLP190 P0011 60019 T01890178 51014=
201301141448 SPECI KATL 141448Z 18008KT 2 1/2SM -RA BR FEW006 BKN030 OVC070 19/18 A3011 RMK AO2 SFC VIS 3 P0011=
201301141432 SPECI KATL 141432Z 19010KT 1 1/2SM R09R/5500VP6000FT RA BR BKN006 BKN045 OVC090 19/18 A3011 RMK AO2 SFC VIS 2 P0007=
201301141402 SPECI KATL 141402Z 19014G19KT 2 1/2SM -RA BR BKN008 OVC045 19/17 A3010 RMK AO2 P0001=
201301141352 METAR KATL 141352Z 19011KT 3SM -RA BR BKN008 OVC013 19/17 A3011 RMK AO2 SLP188 P0003 T01890172=
201301141334 SPECI KATL 141334Z 20010KT 4SM -RA BR BKN008 BKN012 OVC021 19/17 A3010 RMK AO2 P0001=
201301141327 SPECI KATL 141327Z 20009KT 5SM BR SCT006 OVC011 19/17 A3010 RMK AO2 RAE18 P0000=
201301141313 SPECI KATL 141313Z 19007KT 5SM -RA BR BKN008 BKN042 OVC065 19/17 A3009 RMK AO2 P0000=
201301141302 SPECI KATL 141302Z 19009KT 5SM -RA BR SCT008 BKN047 OVC085 18/17 A3009 RMK AO2 P0000=
201301141252 METAR KATL 141252Z 19009KT 2 1/2SM -RA BR SCT008 BKN048 OVC075 18/17 A3008 RMK AO2 SLP181 P0005 T01830172=
201301141249 SPECI KATL 141249Z 19007KT 2 1/2SM RA BR SCT008 OVC048 18/17 A3008 RMK AO2 P0004=
201301141158 SPECI KATL 141158Z 20006KT 5SM -RA BR BKN008 BKN015 OVC075 18/17 A3007 RMK AO2 P0000=
201301141152 METAR KATL 141152Z 21007KT 4SM -RA BR FEW006 BKN012 OVC075 18/17 A3007 RMK AO2 SLP176 P0004 60011 70015 T01830172 10183 20178 53006=
201301141147 SPECI KATL 141147Z 19006KT 4SM -RA BR FEW006 BKN012 OVC075 18/17 A3006 RMK AO2 P0004=
201301141122 SPECI KATL 141122Z 20009KT 5SM -RA BR BKN006 OVC012 18/17 A3006 RMK AO2 P0000=
201301141052 METAR KATL 141052Z 20008KT 3SM -RA BR OVC004 18/17 A3005 RMK AO2 SLP169 P0003 T01830172=
201301140952 METAR KATL 140952Z 20008KT 5SM -RA BR OVC004 18/17 A3004 RMK AO2 RAE18B51 SLP166 P0000 T01780172=
201301140936 SPECI KATL 140936Z 18009KT 6SM BR OVC004 18/17 A3004 RMK AO2 RAE18 P0000=
201301140852 METAR KATL 140852Z 20009KT 6SM -RA BR OVC006 18/17 A3005 RMK AO2 RAB14 SLP170 P0000 60004 T01780167 58003=
201301140752 METAR KATL 140752Z 20007KT 6SM BR OVC006 18/17 A3006 RMK AO2 RAE26 SLP172 P0001 T01780167=
201301140652 METAR KATL 140652Z 18008KT 6SM -RA BR BKN008 OVC013 18/17 A3006 RMK AO2 SLP171 P0003 T01780167=
201301140639 SPECI KATL 140639Z 20006KT 5SM -RA BR BKN009 BKN013 OVC022 18/17 A3006 RMK AO2 P0002=
201301140629 SPECI KATL 140629Z 19008KT 5SM -RA BR FEW007 BKN011 OVC020 18/16 A3006 RMK AO2 P0001=
201301140610 SPECI KATL 140610Z 19011KT 6SM -RA BR BKN014 OVC022 18/16 A3006 RMK AO2 P0000=
201301140552 METAR KATL 140552Z 19007KT 6SM -RA BR SCT014 BKN022 OVC090 18/16 A3006 RMK AO2 SLP173 RAB0456 P0004 60004 T01780161 10206 20178 51006=
201301140536 SPECI KATL 140536Z 19008KT 7SM -RA SCT014 BKN025 OVC090 18/16 A3006 RMK AO2 RAB0456 P0002=
201301140452 METAR KATL 140452Z 19009KT 10SM SCT028 BKN040 OVC100 19/15 A3006 RMK AO2 RAB01E36 SLP172 P0000 T01940150 402220156=
201301140352 METAR KATL 140352Z 18012G18KT 10SM FEW038 BKN060 OVC090 19/15 A3005 RMK AO2 RAB19E28 SLP169 P0000 T01940150=
201301140252 METAR KATL 140252Z 18010KT 10SM BKN045 BKN060 OVC090 20/16 A3004 RMK AO2 SLP167 T02000156 50002=
201301140152 METAR KATL 140152Z 18009KT 10SM SCT050 BKN070 OVC200 20/16 A3004 RMK AO2 SLP168 T02000156=
201301140052 METAR KATL 140052Z 17007KT 10SM FEW085 OVC200 20/15 A3005 RMK AO2 SLP169 T02000150=
201301132352 METAR KATL 132352Z 15008KT 10SM SCT085 BKN200 OVC250 21/15 A3004 RMK AO2 SLP166 60000 T02060150 10222 20200 56006=
201301132252 METAR KATL 132252Z 17008KT 10SM FEW035 BKN080 OVC250 21/15 A3004 RMK AO2 SLP168 T02110150=
201301132152 METAR KATL 132152Z 17006KT 10SM FEW035 BKN080 OVC250 22/15 A3004 RMK AO2 RAB05E15 SLP168 P0000 T02170150=
201301132052 METAR KATL 132052Z 19009KT 10SM BKN035 BKN070 OVC250 22/14 A3005 RMK AO2 SLP171 T02220144 55006=
201301131952 METAR KATL 131952Z 21012KT 10SM SCT032 BKN065 OVC250 22/15 A3005 RMK AO2 SLP169 T02220150=
201301131852 METAR KATL 131852Z 18012G18KT 10SM SCT027 SCT070 OVC250 22/15 A3005 RMK AO2 SLP169 BINOVC T02170150=
201301131821 SPECI KATL 131821Z 19014G21KT 10SM SCT024 OVC065 21/15 A3006 RMK AO2 BINOVC=
201301131752 METAR KATL 131752Z 19011KT 10SM BKN022 BKN060 21/15 A3007 RMK AO2 SLP178 T02110150 10211 20167 58020=
201301131652 METAR KATL 131652Z 17007KT 140V200 10SM OVC018 19/15 A3009 RMK AO2 SLP186 T01940150=
201301131552 METAR KATL 131552Z 18007KT 10SM BKN016 BKN022 OVC065 18/15 A3012 RMK AO2 SLP195 T01830150=
201301131530 SPECI KATL 131530Z 17006KT 10SM SCT011 OVC018 18/15 A3013 RMK AO2=
201301131452 METAR KATL 131452Z 19008KT 10SM BKN011 OVC019 18/15 A3013 RMK AO2 SLP199 T01780150 51024 $=
201301131418 SPECI KATL 131418Z 19005KT 10SM OVC011 18/15 A3013 RMK AO2 $=
201301131352 METAR KATL 131352Z 18007KT 7SM BKN009 OVC015 17/16 A3011 RMK AO2 SLP191 BINOVC T01720156 $=
201301131252 METAR KATL 131252Z 17006KT 7SM OVC007 17/16 A3009 RMK AO2 SLP185 T01670156 $=
201301131152 METAR KATL 131152Z 15006KT 7SM BKN007 17/16 A3006 RMK AO2 SLP174 T01670156 10167 20156 53004 $=
201301131124 SPECI KATL 131124Z 16004KT 7SM BKN006 BKN016 17/16 A3006 RMK AO2 $=
201301131111 SPECI KATL 131111Z 14006KT 7SM FEW005 SCT014 17/16 A3005 RMK AO2 $=
201301131052 METAR KATL 131052Z 16007KT 7SM FEW005 BKN009 OVC017 17/16 A3004 RMK AO2 SLP168 T01670156 $=
201301130952 METAR KATL 130952Z 13004KT 7SM OVC007 16/15 A3003 RMK AO2 SLP164 T01610150 $=
201301130852 METAR KATL 130852Z 19005KT 7SM BKN008 OVC013 17/15 A3005 RMK AO2 SLP169 T01670150 58008 $=
201301130823 SPECI KATL 130823Z 18006KT 8SM OVC008 17/14 A3005 RMK AO2 $=
201301130806 SPECI KATL 130806Z 17006KT 10SM BKN010 BKN049 OVC250 17/14 A3006 RMK AO2 $=
201301130752 METAR KATL 130752Z 17006KT 10SM SCT049 BKN250 16/14 A3006 RMK AO2 SLP173 T01610144 $=
201301130652 METAR KATL 130652Z 15005KT 10SM FEW035 BKN250 16/13 A3007 RMK AO2 SLP175 T01610133 $=
201301130552 METAR KATL 130552Z 17005KT 10SM FEW035 BKN250 17/13 A3007 RMK AO2 SLP178 T01670133 10200 20167 50002 $=
201301130452 METAR KATL 130452Z 16006KT 10SM FEW035 BKN250 17/13 A3008 RMK AO2 SLP179 T01670133 402440161 $=
201301130352 METAR KATL 130352Z 17007KT 10SM BKN250 18/13 A3007 RMK AO2 SLP177 T01780133 $=
201301130252 METAR KATL 130252Z 17007KT 10SM FEW040 BKN250 18/13 A3007 RMK AO2 SLP177 T01830133 56008 $=
201301130152 METAR KATL 130152Z 15006KT 10SM BKN042 BKN250 18/13 A3008 RMK AO2 SLP183 T01830133 $=
201301130052 METAR KATL 130052Z 15004KT 10SM FEW045 SCT250 19/13 A3007 RMK AO2 SLP179 T01940133 $=
201301122352 METAR KATL 122352Z 19003KT 10SM BKN045 BKN250 20/13 A3009 RMK AO2 SLP186 T02000133 10244 20194 53001 $=
201301122252 METAR KATL 122252Z 19004KT 10SM FEW045 BKN250 21/13 A3008 RMK AO2 SLP181 T02060133 $=
201301122152 METAR KATL 122152Z 20010G14KT 10SM SCT045 OVC250 23/13 A3009 RMK AO2 SLP184 T02280133 $=
201301122052 METAR KATL 122052Z 21010KT 10SM FEW042 BKN250 23/13 A3009 RMK AO2 SLP183 T02330133 55012 $=
201301121952 METAR KATL 121952Z 19008KT 10SM SCT036 BKN250 23/14 A3009 RMK AO2 SLP183 T02330144 $=
201301121852 METAR KATL 121852Z 21008KT 10SM SCT030 BKN150 23/14 A3010 RMK AO2 SLP188 T02280144 $=
201301121752 METAR KATL 121752Z 21008KT 10SM SCT028 BKN150 22/16 A3013 RMK AO2 SLP196 T02220161 10222 20167 58017 $=
201301121652 METAR KATL 121652Z 22008KT 10SM SCT015 OVC150 21/16 A3015 RMK AO2 SLP203 T02060161 $=
201301121552 METAR KATL 121552Z 18007KT 8SM FEW011 OVC150 19/17 A3017 RMK AO2 SLP211 T01890167 $=
201301121531 SPECI KATL 121531Z 18004KT 7SM FEW006 SCT011 BKN150 19/17 A3017 RMK AO2 $=
201301121505 SPECI KATL 121505Z 17004KT 3SM BR OVC005 18/17 A3018 RMK AO2 SFC VIS 6 $=
201301121456 SPECI KATL 121456Z 15003KT 1/4SM BR OVC004 18/17 A3018 RMK AO2 SFC VIS 4 TWRINC $=
201301121452 METAR KATL 121452Z 15003KT 1SM BR BKN004 OVC100 18/17 A3018 RMK AO2 SFC VIS 4 SLP214 TWRINC T01780167 53012 $=
201301121441 SPECI KATL 121441Z 00000KT 1SM BR BKN004 BKN100 17/17 A3017 RMK AO2 SFC VIS 4 TWRINC $=
201301121438 SPECI KATL 121438Z 15003KT 2SM BR BKN004 BKN100 17/17 A3017 RMK AO2 SFC VIS 5 TWRINC $=
201301121429 SPECI KATL 121429Z 15004KT 5SM BR FEW004 BKN100 17/16 A3017 RMK AO2 $=
201301121352 METAR KATL 121352Z 16003KT 6SM BR BKN100 BKN140 17/16 A3016 RMK AO2 SLP208 T01720161 $=
201301121252 METAR KATL 121252Z 00000KT 6SM BR FEW007 BKN140 17/16 A3015 RMK AO2 SLP206 T01670156 $=
201301121242 SPECI KATL 121242Z 00000KT 6SM BR FEW007 BKN140 17/16 A3015 RMK AO2 $=
201301121152 METAR KATL 121152Z 22004KT 4SM BR BKN007 OVC120 17/16 A3014 RMK AO2 SLP202 CIG 005V008 T01670156 10172 20161 55002 $=
201301121052 METAR KATL 121052Z 20006KT 4SM BR BKN005 OVC120 17/16 A3013 RMK AO2 SLP199 T01670156 $=
201301120952 METAR KATL 120952Z 17005KT 8SM FEW009 OVC120 16/16 A3014 RMK AO2 SLP201 T01610156 $=
201301120857 SPECI KATL 120857Z 18003KT 8SM FEW009 BKN120 17/16 A3015 RMK AO2 $=
201301120852 METAR KATL 120852Z 18003KT 10SM FEW011 BKN120 17/16 A3015 RMK AO2 SLP205 T01670156 50001 $=
201301120849 SPECI KATL 120849Z 17003KT 10SM FEW011 BKN120 17/16 A3015 RMK AO2 $=
201301120815 SPECI KATL 120815Z 17004KT 10SM BKN011 BKN120 17/16 A3016 RMK AO2 $=
201301120752 METAR KATL 120752Z 19005KT 10SM BKN120 17/15 A3016 RMK AO2 SLP208 T01670150 $=
201301120652 METAR KATL 120652Z 20005KT 10SM BKN150 17/15 A3015 RMK AO2 SLP205 T01670150 $=
201301120552 METAR KATL 120552Z 19004KT 10SM BKN130 17/16 A3015 RMK AO2 SLP203 T01720156 10189 20172 58000 $=
201301120452 METAR KATL 120452Z 20005KT 10SM SCT110 18/16 A3015 RMK AO2 SLP204 T01780156 402060161 $=
201301120352 METAR KATL 120352Z 21006KT 10SM SCT100 18/16 A3016 RMK AO2 SLP207 T01830156 $=
201301120252 METAR KATL 120252Z 18006KT 10SM SCT095 18/16 A3015 RMK AO2 SLP203 T01830161 52003 $=
201301120152 METAR KATL 120152Z 18008KT 10SM SCT070 19/16 A3014 RMK AO2 SLP203 T01890161 $=
201301120052 METAR KATL 120052Z 17006KT 10SM OVC060 19/17 A3014 RMK AO2 SLP202 T01890167 $=
201301112352 METAR KATL 112352Z 15005KT 10SM OVC048 19/17 A3014 RMK AO2 SLP201 60000 T01890167 10206 20189 51001 $=
201301112252 METAR KATL 112252Z 18004KT 7SM BKN043 OVC065 19/17 A3014 RMK AO2 SLP201 T01890167 $=
201301112152 METAR KATL 112152Z 21004KT 10SM FEW015 SCT030 OVC050 19/17 A3014 RMK AO2 RAE2059 SLP201 P0000 T01940172 $=
201301112052 METAR KATL 112052Z 19005KT 7SM -RA FEW018 BKN034 OVC050 19/17 A3014 RMK AO2 SLP200 P0000 60000 T01890172 55009 $=
201301111952 METAR KATL 111952Z 20006KT 6SM -RA FEW015 BKN025 OVC050 20/17 A3013 RMK AO2 RAB1859E12B50 SLP198 P0000 T02000167=
201301111908 SPECI KATL 111908Z 19006KT 6SM -RA BKN017 BKN025 OVC040 20/17 A3014 RMK AO2 RAB1859 P0000=
201301111852 METAR KATL 111852Z 20008G16KT 10SM BKN017 BKN023 OVC040 20/16 A3014 RMK AO2 SLP202 T02000161=
201301111752 METAR KATL 111752Z 21011G15KT 10SM BKN020 BKN040 OVC050 20/16 A3016 RMK AO2 RAE00 SLP209 P0000 60000 T02000161 10200 20167 56010=
201301111749 SPECI KATL 111749Z 20009KT 10SM BKN020 BKN040 OVC050 20/16 A3017 RMK AO2 RAE00 P0000=
201301111652 METAR KATL 111652Z 19007KT 8SM -RA FEW014 BKN040 OVC080 19/17 A3019 RMK AO2 RAB35 SLP220 P0000 T01890167=
201301111649 SPECI KATL 111649Z 19006KT 8SM -RA FEW014 BKN040 OVC080 19/17 A3020 RMK AO2 RAB35 P0000=
201301111552 METAR KATL 111552Z 19006KT 6SM BR BKN014 BKN060 BKN080 18/17 A3021 RMK AO2 RAB12E43 SLP227 P0000 T01830167=
201301111550 SPECI KATL 111550Z 18006KT 6SM BR BKN014 BKN060 BKN080 18/17 A3021 RMK AO2 RAB12E43 P0000=
201301111454 SPECI KATL 111454Z 16007KT 6SM BR FEW009 BKN018 OVC080 18/17 A3021 RMK AO2=
201301111452 METAR KATL 111452Z 17007KT 6SM BR SCT007 BKN012 BKN075 18/17 A3021 RMK AO2 RAB37E46 SLP227 P0000 60000 T01780167 53014=
201301111434 SPECI KATL 111434Z 16007KT 2 1/2SM BR SCT005 BKN011 OVC020 18/17 A3022 RMK AO2 SFC VIS 5=
201301111352 METAR KATL 111352Z 15006KT 2 1/2SM BR BKN005 BKN012 OVC020 17/17 A3020 RMK AO2 SFC VIS 4 SLP223 T01720167=
201301111350 SPECI KATL 111350Z 15007KT 2 1/2SM BR BKN005 BKN012 OVC020 17/17 A3020 RMK AO2 SFC VIS 4=
201301111336 SPECI KATL 111336Z 15005KT 2 1/2SM BR SCT005 BKN012 OVC024 17/16 A3020 RMK AO2 SFC VIS 4=
201301111252 METAR KATL 111252Z 14004KT 2 1/2SM BR OVC004 17/16 A3018 RMK AO2 SFC VIS 3 SLP217 T01670161=
201301111219 SPECI KATL 111219Z 00000KT 2 1/2SM BR BKN004 BKN009 OVC032 17/16 A3019 RMK AO2 SFC VIS 3 CIG 003V006=
201301111207 SPECI KATL 111207Z 00000KT 2 1/2SM BR SCT003 BKN009 OVC032 17/16 A3018 RMK AO2 SFC VIS 4=
201301111203 SPECI KATL 111203Z 00000KT 2 1/2SM BR SCT005 BKN015 OVC035 17/16 A3018 RMK AO2 SFC VIS 4=
201301111152 METAR KATL 111152Z 13004KT 4SM BR FEW005 BKN038 OVC050 17/16 A3017 RMK AO2 SLP213 60002 70008 T01670161 10172 20161 55004=
201301111052 METAR KATL 111052Z 14006KT 4SM BR BKN041 OVC220 17/16 A3016 RMK AO2 SLP208 T01670161=
201301111012 SPECI KATL 111012Z 14005KT 5SM BR FEW005 BKN033 OVC041 17/16 A3016 RMK AO2=
201301110957 SPECI KATL 110957Z 14005KT 5SM BR FEW006 BKN015 OVC041 17/16 A3017 RMK AO2=
201301110952 METAR KATL 110952Z 14004KT 6SM BR SCT006 BKN013 OVC033 17/16 A3017 RMK AO2 RAE43 SLP212 P0000 T01670161=
201301110922 SPECI KATL 110922Z 15004KT 5SM -RA BR OVC006 17/16 A3018 RMK AO2 P0000=
201301110852 METAR KATL 110852Z 15008KT 4SM -RA BR OVC004 17/16 A3018 RMK AO2 DZE12RAB21 SLP216 P0002 60002 T01720161 56013=
201301110812 SPECI KATL 110812Z 15008G16KT 4SM BR OVC004 17/16 A3019 RMK AO2 DZE12 P0000=
201301110752 METAR KATL 110752Z 14010KT 1/2SM -DZ BR OVC004 17/16 A3018 RMK AO2 SFC VIS 3 SLP217 TWRINC P0000 T01670156=
201301110710 SPECI KATL 110710Z 13011G16KT 1/2SM -DZ BR OVC003 16/16 A3018 RMK AO2 SFC VIS 2 TWRINC P0000=
201301110652 METAR KATL 110652Z 13009G16KT 1SM -DZ BR OVC004 16/16 A3019 RMK AO2 SFC VIS 2 DZB14 SLP219 P0000 T01610156=
201301110614 SPECI KATL 110614Z 14009G18KT 1SM -DZ BR OVC004 16/16 A3021 RMK AO2 SFC VIS 2 DZB14 P0000=
201301110601 SPECI KATL 110601Z 14012KT 4SM BR OVC004 16/15 A3022 RMK AO2=
201301110552 METAR KATL 110552Z 15010G14KT 7SM OVC006 16/15 A3022 RMK AO2 RAB14E48 SLP232 P0000 60003 T01610150 10178 20161 56019=
201301110452 METAR KATL 110452Z 13009G15KT 8SM BKN008 OVC012 16/15 A3024 RMK AO2 SLP237 T01610150 402000144=
201301110352 METAR KATL 110352Z 14008G16KT 10SM BKN008 OVC015 17/15 A3026 RMK AO2 SLP245 T01670150=
201301110252 METAR KATL 110252Z 13008KT 10SM BKN008 OVC020 17/15 A3028 RMK AO2 SLP251 60003 T01670150 56009=
201301110238 SPECI KATL 110238Z 13007KT 10SM BKN008 OVC012 18/15 A3028 RMK AO2=
201301110201 SPECI KATL 110201Z 12010G17KT 10SM BKN010 OVC018 17/15 A3029 RMK AO2 BKN010 V SCT=
201301110152 METAR KATL 110152Z 12009KT 10SM BKN008 OVC015 17/15 A3029 RMK AO2 RAE19 SLP255 BKN008 V SCT P0001 T01720150=
201301110052 METAR KATL 110052Z 13008KT 6SM -RA BR BKN005 OVC008 17/16 A3029 RMK AO2 SLP255 P0002 T01720161=
201301102352 METAR KATL 102352Z 13007KT 4SM -RA BR BKN007 BKN015 OVC040 17/16 A3031 RMK AO2 RAB19 SLP261 P0003 60003 T01720161 10200 20172 55004=
201301102342 SPECI KATL 102342Z 12007KT 4SM -RA BR SCT007 BKN020 OVC040 17/16 A3031 RMK AO2 RAB19 P0002=
201301102334 SPECI KATL 102334Z 12007G15KT 2 1/2SM -RA BR FEW009 SCT012 OVC020 17/16 A3031 RMK AO2 RAB19 P0001=
201301102252 METAR KATL 102252Z 13004KT 10SM BKN024 OVC038 19/14 A3031 RMK AO2 SLP259 T01940144=
201301102241 SPECI KATL 102241Z 13007KT 10SM BKN026 BKN038 OVC090 19/14 A3030 RMK AO2=
201301102230 SPECI KATL 102230Z 12007KT 10SM SCT024 BKN038 OVC095 19/14 A3030 RMK AO2=
201301102152 METAR KATL 102152Z 12007KT 10SM BKN028 BKN040 BKN060 20/14 A3031 RMK AO2 SLP262 T02000139=
201301102108 SPECI KATL 102108Z 13008KT 10SM BKN028 BKN040 OVC060 20/14 A3032 RMK AO2=
201301102052 METAR KATL 102052Z 13007G15KT 10SM FEW020 BKN040 OVC060 20/14 A3032 RMK AO2 SLP265 T02000139 55008=
201301101952 METAR KATL 101952Z 11010KT 10SM FEW020 BKN040 BKN060 BKN200 19/13 A3032 RMK AO2 SLP264 T01890133=
201301101932 SPECI KATL 101932Z 11008KT 10SM FEW023 BKN040 BKN060 BKN200 18/13 A3032 RMK AO2=
201301101852 METAR KATL 101852Z 10010KT 10SM FEW015 BKN020 BKN060 18/13 A3033 RMK AO2 SLP269 T01780133=
201301101752 METAR KATL 101752Z 10011G16KT 10SM FEW010 BKN020 OVC060 17/13 A3035 RMK AO2 RAE45 SLP275 P0000 60000 T01720133 10172 20144 58018=
201301101652 METAR KATL 101652Z 10009KT 10SM -RA FEW014 BKN020 OVC060 17/13 A3039 RMK AO2 RAB41 SLP288 P0000 T01670133=
201301101618 SPECI KATL 101618Z 11010KT 10SM FEW012 BKN020 OVC060 17/13 A3040 RMK AO2=
201301101552 METAR KATL 101552Z 10010KT 8SM BKN014 BKN020 OVC060 16/13 A3041 RMK AO2 SLP296 T01610128=
201301101508 SPECI KATL 101508Z 10007KT 8SM FEW008 BKN011 OVC060 16/13 A3040 RMK AO2=
201301101452 METAR KATL 101452Z 09007KT 8SM BKN009 BKN012 OVC060 16/12 A3040 RMK AO2 SLP294 T01560122 51009=
201301101352 METAR KATL 101352Z 10009KT 3SM OVC006 15/12 A3040 RMK AO2 SFC VIS 7 SLP291 T01500122=
201301101252 METAR KATL 101252Z 09009KT 3SM BR OVC006 14/12 A3039 RMK AO2 SFC VIS 4 SLP288 T01440122=
201301101152 METAR KATL 101152Z 09009KT 6SM BR OVC006 14/13 A3038 RMK AO2 SLP283 T01440128 10150 20144 55006=
201301101052 METAR KATL 101052Z 09008KT 8SM OVC007 14/12 A3037 RMK AO2 SLP282 T01440117=
201301100952 METAR KATL 100952Z 08006KT 8SM OVC007 14/11 A3037 RMK AO2 SLP283 T01440111=
201301100852 METAR KATL 100852Z 07007KT 10SM OVC009 15/11 A3039 RMK AO2 SLP290 T01500106 50002=
201301100752 METAR KATL 100752Z 07005KT 10SM OVC009 14/10 A3040 RMK AO2 SLP291 T01440100=
201301100652 METAR KATL 100652Z 10004KT 10SM BKN009 OVC250 14/10 A3039 RMK AO2 SLP289 T01440100=
201301100607 SPECI KATL 100607Z 10003KT 10SM BKN012 OVC250 14/10 A3039 RMK AO2=
201301100552 METAR KATL 100552Z 10004KT 10SM FEW012 SCT055 OVC250 14/10 A3039 RMK AO2 SLP289 60000 T01440100 10172 20144 58002=
201301100452 METAR KATL 100452Z 09007KT 10SM FEW020 BKN065 BKN100 OVC250 14/10 A3041 RMK AO2 SLP295 T01440100 401830100=
201301100352 METAR KATL 100352Z 09006KT 10SM FEW065 BKN080 OVC100 15/10 A3040 RMK AO2 SLP292 T01500100=
201301100252 METAR KATL 100252Z 09005KT 10SM FEW020 BKN070 OVC090 16/11 A3040 RMK AO2 SLP291 60000 T01560106 51012=
201301100152 METAR KATL 100152Z 09006KT 10SM FEW020 BKN075 OVC110 17/11 A3039 RMK AO2 RAB0055E22 SLP290 P0000 T01670111=
201301100138 SPECI KATL 100138Z 08007KT 10SM SCT020 BKN075 OVC110 16/11 A3039 RMK AO2 RAB0055E22 P0000=
201301100124 SPECI KATL 100124Z 09008KT 10SM BKN020 OVC075 17/11 A3039 RMK AO2 RAB0055E22 P0000=
201301100101 SPECI KATL 100101Z 08008KT 10SM -RA SCT020 BKN070 OVC200 17/12 A3038 RMK AO2 RAB0055 P0000=
201301100052 METAR KATL 100052Z 08008KT 10SM BKN020 OVC070 17/12 A3038 RMK AO2 SLP286 T01670117=
201301092352 METAR KATL 092352Z 10004KT 10SM BKN020 BKN080 OVC250 17/13 A3036 RMK AO2 SLP280 T01720128 10183 20156 50002=
201301092324 SPECI KATL 092324Z 10005KT 10SM BKN020 BKN080 OVC250 18/13 A3036 RMK AO2=
201301092308 SPECI KATL 092308Z 10006KT 10SM SCT022 BKN075 BKN150 OVC250 17/13 A3036 RMK AO2=
201301092252 METAR KATL 092252Z 10005KT 10SM BKN022 OVC150 18/13 A3036 RMK AO2 SLP279 T01780133=
201301092152 METAR KATL 092152Z 13005KT 10SM BKN020 BKN070 BKN150 18/13 A3036 RMK AO2 SLP280 T01780133=
201301092052 METAR KATL 092052Z 11006KT 10SM FEW020 SCT050 BKN150 BKN200 18/13 A3035 RMK AO2 SLP277 T01830133 55006=
201301091952 METAR KATL 091952Z 09008KT 10SM FEW015 SCT050 BKN150 BKN200 18/13 A3034 RMK AO2 SLP274 T01830128=
201301091852 METAR KATL 091852Z 12009KT 10SM FEW015 BKN050 BKN150 17/12 A3035 RMK AO2 SLP277 T01720122=
201301091843 SPECI KATL 091843Z 11006KT 10SM FEW012 BKN047 BKN150 17/12 A3035 RMK AO2=
201301091752 METAR KATL 091752Z 13004KT 10SM BKN012 BKN040 BKN150 16/11 A3037 RMK AO2 SLP284 T01610111 10161 20106 58015=
201301091652 METAR KATL 091652Z 11006KT 10SM FEW012 SCT040 BKN150 OVC200 15/10 A3039 RMK AO2 SLP291 T01500100=
201301091618 SPECI KATL 091618Z 11004KT 10SM FEW009 SCT040 BKN150 OVC200 14/09 A3041 RMK AO2=
201301091615 SPECI KATL 091615Z 10005KT 10SM FEW009 BKN040 OVC200 14/09 A3041 RMK AO2=
201301091552 METAR KATL 091552Z 09006KT 10SM BKN009 BKN040 OVC200 14/08 A3042 RMK AO2 SLP300 T01390083=
201301091452 METAR KATL 091452Z 10008KT 10SM BKN009 BKN040 OVC200 13/07 A3042 RMK AO2 SLP302 T01280067 51017=
201301091352 METAR KATL 091352Z 08008KT 10SM BKN010 OVC040 12/06 A3041 RMK AO2 SLP298 T01220061=
201301091333 SPECI KATL 091333Z 08007KT 10SM SCT010 OVC039 12/06 A3041 RMK AO2=
201301091252 METAR KATL 091252Z 08008KT 10SM OVC010 11/06 A3039 RMK AO2 SLP291 T01060056=
201301091152 METAR KATL 091152Z 05008KT 10SM OVC012 11/05 A3036 RMK AO2 SLP284 T01060050 10111 20100 53006=
201301091052 METAR KATL 091052Z 05006KT 10SM OVC012 11/05 A3036 RMK AO2 SLP281 T01060050=
201301090952 METAR KATL 090952Z 07008KT 10SM OVC012 11/05 A3034 RMK AO2 SLP275 T01060050=
201301090852 METAR KATL 090852Z 07006KT 10SM OVC012 10/04 A3035 RMK AO2 SLP278 T01000044 53002=
201301090752 METAR KATL 090752Z 08008KT 10SM OVC014 10/04 A3034 RMK AO2 SLP274 T01000044=
201301090652 METAR KATL 090652Z 08007KT 10SM OVC012 10/04 A3034 RMK AO2 SLP276 T01000044=
201301090552 METAR KATL 090552Z 08008KT 10SM BKN011 OVC040 10/04 A3034 RMK AO2 SLP276 T01000044 10106 20094 55002=
201301090452 METAR KATL 090452Z 10006KT 10SM BKN013 OVC045 10/04 A3033 RMK AO2 SLP274 T01000039 401170033=
201301090435 SPECI KATL 090435Z 09007KT 10SM BKN015 OVC045 10/04 A3033 RMK AO2=
201301090352 METAR KATL 090352Z 09008KT 10SM FEW028 OVC045 10/04 A3034 RMK AO2 SLP275 T01000039=
201301090252 METAR KATL 090252Z 09008KT 10SM FEW028 OVC040 10/04 A3034 RMK AO2 SLP279 T01000039 53005=
201301090227 SPECI KATL 090227Z 09006KT 10SM SCT025 OVC036 10/04 A3034 RMK AO2=
201301090152 METAR KATL 090152Z 08009KT 10SM FEW015 OVC024 10/03 A3034 RMK AO2 SLP277 T01000033=
201301090112 SPECI KATL 090112Z 09010KT 10SM SCT013 OVC018 10/04 A3033 RMK AO2=
201301090052 METAR KATL 090052Z 08009KT 10SM OVC012 11/04 A3033 RMK AO2 SLP273 T01060039=
201301090015 SPECI KATL 090015Z 09008KT 10SM BKN013 OVC030 10/04 A3034 RMK AO2=
201301082352 METAR KATL 082352Z 09007KT 10SM BKN015 OVC030 11/04 A3033 RMK AO2 SLP274 T01060039 10117 20100 53008=
201301082252 METAR KATL 082252Z 09010KT 10SM BKN015 OVC035 11/04 A3031 RMK AO2 SLP266 T01060039=
201301082207 SPECI KATL 082207Z 08007KT 10SM BKN015 OVC035 11/04 A3031 RMK AO2=
201301082152 METAR KATL 082152Z 08008KT 10SM FEW014 BKN030 BKN080 11/04 A3031 RMK AO2 SLP267 T01110039=
201301082056 SPECI KATL 082056Z 09009KT 10SM BKN014 BKN030 BKN080 11/04 A3031 RMK AO2=
201301082052 METAR KATL 082052Z 08010KT 10SM BKN016 BKN025 BKN080 11/04 A3030 RMK AO2 SLP266 T01110039 56012=
201301081952 METAR KATL 081952Z 08007KT 10SM BKN016 BKN025 OVC080 11/04 A3031 RMK AO2 SLP269 T01110039=
201301081852 METAR KATL 081852Z 07009KT 10SM BKN017 BKN025 OVC080 11/03 A3031 RMK AO2 SLP270 T01060033=
201301081752 METAR KATL 081752Z 09009KT 10SM BKN015 BKN025 OVC080 10/03 A3034 RMK AO2 SLP279 T01000028 10100 20056 58016=
201301081652 METAR KATL 081652Z 08010KT 10SM BKN015 BKN025 OVC080 09/01 A3037 RMK AO2 SLP290 T00890011=
201301081552 METAR KATL 081552Z 10009KT 10SM BKN018 BKN024 OVC080 08/01 A3040 RMK AO2 SLP298 T00830006=
201301081452 METAR KATL 081452Z 08007KT 10SM BKN018 BKN025 OVC080 07/00 A3039 RMK AO2 SLP297 T00720000 53026=
201301081352 METAR KATL 081352Z 09007KT 10SM BKN022 OVC080 07/00 A3037 RMK AO2 SLP289 T00670000=
201301081252 METAR KATL 081252Z 09010KT 10SM OVC024 06/M01 A3033 RMK AO2 SLP274 T00561006=
201301081218 SPECI KATL 081218Z 09009KT 10SM BKN024 BKN030 OVC080 06/M01 A3033 RMK AO2=
201301081152 METAR KATL 081152Z 10008KT 10SM SCT026 SCT031 OVC080 06/M01 A3031 RMK AO2 SLP268 T00561006 10056 20033 53002=
201301081138 SPECI KATL 081138Z 09010KT 10SM BKN026 BKN034 OVC075 06/M01 A3031 RMK AO2=
201301081123 SPECI KATL 081123Z 09007KT 10SM FEW028 BKN033 OVC075 06/M01 A3031 RMK AO2=
201301081052 METAR KATL 081052Z 09009KT 10SM BKN029 BKN075 05/M01 A3030 RMK AO2 SLP265 T00501006=
201301081032 SPECI KATL 081032Z 09008KT 10SM BKN029 BKN075 05/M01 A3030 RMK AO2=
201301080952 METAR KATL 080952Z 09009KT 10SM FEW029 OVC075 04/M01 A3029 RMK AO2 SLP262 T00441006=
201301080938 SPECI KATL 080938Z 09008KT 10SM SCT029 OVC075 04/M01 A3029 RMK AO2=
201301080852 METAR KATL 080852Z 08007KT 10SM BKN028 BKN250 04/M01 A3030 RMK AO2 SLP265 T00441006 55005=
201301080801 SPECI KATL 080801Z 10006KT 10SM SCT028 04/M01 A3030 RMK AO2=
201301080752 METAR KATL 080752Z 08008KT 10SM BKN028 04/M01 A3030 RMK AO2 SLP263 T00391006=
201301080745 SPECI KATL 080745Z 09007KT 10SM BKN028 04/M01 A3030 RMK AO2=
201301080652 METAR KATL 080652Z 10008KT 10SM BKN250 05/M01 A3031 RMK AO2 SLP267 T00501006=
201301080552 METAR KATL 080552Z 11009KT 10SM BKN250 06/M01 A3032 RMK AO2 SLP271 T00561011 10094 20050 55003=
201301080452 METAR KATL 080452Z 10009KT 10SM SCT250 06/M01 A3032 RMK AO2 SLP271 T00611011 401280017=
201301080352 METAR KATL 080352Z 11006KT 10SM FEW250 06/M01 A3033 RMK AO2 SLP273 T00611011=
201301080252 METAR KATL 080252Z 10007KT 10SM FEW250 06/M01 A3033 RMK AO2 SLP276 T00561011 53003=
201301080152 METAR KATL 080152Z 10007KT 10SM FEW250 07/M02 A3032 RMK AO2 SLP272 T00721017=
201301080052 METAR KATL 080052Z 10005KT 10SM FEW250 08/M02 A3032 RMK AO2 SLP275 T00831017=
201301072352 METAR KATL 072352Z 00000KT 10SM FEW250 09/M02 A3032 RMK AO2 SLP272 T00941017 10128 20094 53006=
201301072252 METAR KATL 072252Z 12005KT 10SM FEW200 SCT250 11/M02 A3031 RMK AO2 SLP267 T01061022=
201301072152 METAR KATL 072152Z 13005KT 10SM FEW150 SCT200 SCT250 12/M01 A3030 RMK AO2 SLP266 T01221011=
201301072052 METAR KATL 072052Z 14007KT 10SM FEW150 SCT200 SCT250 13/M02 A3030 RMK AO2 SLP263 T01281022 55005=
201301071952 METAR KATL 071952Z 14008KT 10SM FEW200 13/M01 A3029 RMK AO2 SLP261 T01281011=
201301071852 METAR KATL 071852Z 16005KT 10SM FEW200 12/M02 A3030 RMK AO2 SLP263 T01171017=
201301071752 METAR KATL 071752Z 13005KT 10SM FEW200 10/M01 A3032 RMK AO2 SLP270 T01001011 10100 20017 58014=
201301071652 METAR KATL 071652Z 12005KT 10SM FEW150 SCT200 09/M01 A3035 RMK AO2 SLP281 T00941011=
201301071552 METAR KATL 071552Z 11005KT 10SM FEW200 08/M02 A3037 RMK AO2 SLP290 T00781017=
201301071452 METAR KATL 071452Z 01003KT 10SM FEW250 06/M02 A3036 RMK AO2 SLP286 T00611017 53024=
201301071352 METAR KATL 071352Z 36006KT 10SM FEW250 03/M02 A3033 RMK AO2 SLP276 T00331022=
201301071252 METAR KATL 071252Z 36008KT 10SM FEW250 02/M02 A3030 RMK AO2 SLP266 T00171022=
201301071152 METAR KATL 071152Z 03006KT 10SM FEW250 02/M02 A3028 RMK AO2 SLP262 T00171022 10044 20017 53014=
201301071052 METAR KATL 071052Z VRB03KT 10SM FEW250 03/M02 A3025 RMK AO2 SLP247 T00331022 $=
201301070952 METAR KATL 070952Z 00000KT 10SM BKN250 03/M02 A3025 RMK AO2 SLP248 T00331022 $=
201301070852 METAR KATL 070852Z 01011KT 10SM BKN250 04/M02 A3024 RMK AO2 SLP244 T00441017 57004 $=
201301070752 METAR KATL 070752Z 34011KT 10SM OVC250 04/M01 A3024 RMK AO2 SLP245 T00391011 $=
201301070652 METAR KATL 070652Z 34007KT 10SM BKN250 04/00 A3025 RMK AO2 SLP247 T00390000 $=
201301070552 METAR KATL 070552Z 32005KT 10SM BKN250 04/01 A3025 RMK AO2 SLP248 T00390006 10061 20039 50002 $=
201301070452 METAR KATL 070452Z 32006KT 10SM BKN250 04/01 A3026 RMK AO2 SLP251 T00440011 401110039 $=
201301070352 METAR KATL 070352Z 31008KT 10SM BKN250 04/01 A3025 RMK AO2 SLP249 T00440011 $=
201301070252 METAR KATL 070252Z 30006KT 10SM BKN250 04/01 A3024 RMK AO2 SLP247 T00390011 51020 $=
201301070152 METAR KATL 070152Z 30007KT 10SM BKN250 05/02 A3022 RMK AO2 SLP239 T00500017 $=
201301070052 METAR KATL 070052Z 30007KT 10SM BKN250 06/01 A3021 RMK AO2 SLP234 T00560011 $=
201301062352 METAR KATL 062352Z 30006KT 10SM BKN250 06/02 A3018 RMK AO2 SLP225 T00610017 10111 20061 51009 $=
201301062252 METAR KATL 062252Z 32007KT 10SM FEW030 BKN250 07/02 A3017 RMK AO2 SLP221 T00720017 $=
201301062152 METAR KATL 062152Z 31011KT 10SM FEW030 SCT100 BKN250 09/02 A3017 RMK AO2 SLP220 T00940022 $=
201301062052 METAR KATL 062052Z 29010KT 10SM FEW030 SCT100 BKN250 11/03 A3016 RMK AO2 SLP214 T01060028 55010 $=
201301061952 METAR KATL 061952Z 30010KT 10SM FEW025 SCT100 BKN250 11/03 A3015 RMK AO2 SLP211 T01060028 $=
201301061859 SPECI KATL 061859Z 30010KT 10SM SCT025 BKN100 10/04 A3017 RMK AO2 $=
201301061852 METAR KATL 061852Z 30011KT 10SM BKN025 BKN100 10/04 A3017 RMK AO2 SLP219 BKN025 V SCT T01000039 $=
201301061752 METAR KATL 061752Z 30009KT 10SM BKN020 OVC110 10/04 A3019 RMK AO2 SLP225 T01000044 10100 20056 58020 $=
201301061732 SPECI KATL 061732Z 29010KT 10SM BKN020 OVC110 09/04 A3019 RMK AO2 $=
201301061652 METAR KATL 061652Z 31007KT 10SM FEW015 BKN065 OVC120 08/04 A3022 RMK AO2 SLP238 T00830039 $=
201301061552 METAR KATL 061552Z 31006KT 10SM FEW015 SCT034 BKN055 07/03 A3024 RMK AO2 SLP244 T00720033 $=
201301061452 METAR KATL 061452Z 30008KT 10SM FEW015 BKN032 OVC060 07/03 A3025 RMK AO2 SLP246 T00670028 51012 $=
201301061352 METAR KATL 061352Z 30007KT 10SM FEW013 BKN034 OVC055 06/03 A3023 RMK AO2 SLP242 T00610028 $=
201301061252 METAR KATL 061252Z 30006KT 10SM FEW021 BKN034 OVC055 06/02 A3022 RMK AO2 SLP238 T00560017 $=
201301061245 SPECI KATL 061245Z 28005KT 10SM FEW021 SCT026 OVC032 06/02 A3023 RMK AO2 $=
201301061232 SPECI KATL 061232Z 29005KT 10SM BKN021 BKN032 OVC055 06/02 A3022 RMK AO2 $=
201301061152 METAR KATL 061152Z 31006KT 10SM BKN039 BKN055 OVC110 06/02 A3021 RMK AO2 SLP233 60000 70001 T00560022 10061 20056 55007 $=
201301061052 METAR KATL 061052Z 30003KT 10SM BKN049 OVC065 06/02 A3019 RMK AO2 SLP228 T00560017 $=
201301060952 METAR KATL 060952Z 27004KT 10SM BKN044 BKN055 OVC075 06/02 A3021 RMK AO2 RAE16 SLP234 P0000 T00560022 $=
201301060852 METAR KATL 060852Z 32004KT 10SM -RA FEW026 BKN055 OVC075 06/02 A3023 RMK AO2 RAB52 SLP240 P0000 60000 T00610017 56012 $=
201301060752 METAR KATL 060752Z 00000KT 10SM FEW026 BKN060 OVC080 06/02 A3023 RMK AO2 SLP242 T00610017 $=
201301060726 SPECI KATL 060726Z 31004KT 10SM SCT026 OVC060 06/02 A3025 RMK AO2 $=
201301060714 SPECI KATL 060714Z 31004KT 10SM BKN026 OVC070 06/02 A3025 RMK AO2 $=
201301060652 METAR KATL 060652Z 31003KT 10SM FEW026 OVC070 06/02 A3025 RMK AO2 SLP247 T00610017 $=
201301060645 SPECI KATL 060645Z 33003KT 10SM SCT026 OVC070 06/01 A3025 RMK AO2 $=
201301060552 METAR KATL 060552Z 31006KT 10SM OVC028 06/02 A3027 RMK AO2 SLP253 60001 T00610017 10089 20061 50002 $=
201301060452 METAR KATL 060452Z 29005KT 10SM BKN028 OVC080 06/02 A3029 RMK AO2 RAB17E48 SLP262 P0001 T00610017 401001011 $=
201301060429 SPECI KATL 060429Z 27004KT 10SM -RA BKN028 BKN050 OVC080 07/01 A3029 RMK AO2 RAB17 P0000 $=
201301060352 METAR KATL 060352Z 23003KT 10SM BKN080 OVC110 07/01 A3027 RMK AO2 RAE18 SLP255 P0000 T00720006 $=
201301060252 METAR KATL 060252Z 00000KT 10SM -RA SCT080 BKN095 OVC120 08/M03 A3026 RMK AO2 RAB01E11B49 SLP252 P0000 60000 T00831028 58019 $=
201301060152 METAR KATL 060152Z 00000KT 10SM SCT048 BKN060 OVC090 08/M03 A3030 RMK AO2 SLP267 T00781028 $=
201301060052 METAR KATL 060052Z 29004KT 10SM FEW050 BKN065 OVC090 08/M03 A3032 RMK AO2 SLP273 T00831028 $=
201301052352 METAR KATL 052352Z 25004KT 10SM BKN065 OVC090 09/M03 A3032 RMK AO2 SLP273 T00891033 10100 20078 53014 $=
201301052252 METAR KATL 052252Z 24003KT 10SM FEW090 SCT120 BKN150 OVC200 09/M04 A3028 RMK AO2 SLP261 T00891044 $=
201301052152 METAR KATL 052152Z 00000KT 10SM BKN120 OVC250 10/M06 A3028 RMK AO2 SLP259 T01001056 $=
201301052052 METAR KATL 052052Z 00000KT 10SM FEW050 BKN120 OVC250 10/M06 A3028 RMK AO2 SLP259 T01001056 56018 $=
201301051952 METAR KATL 051952Z 19003KT 10SM FEW050 BKN120 OVC250 09/M06 A3028 RMK AO2 SLP259 T00941056 $=
201301051852 METAR KATL 051852Z 00000KT 10SM FEW060 SCT120 OVC250 08/M06 A3029 RMK AO2 SLP263 T00831056 $=
201301051752 METAR KATL 051752Z 12003KT 10SM SCT120 BKN250 08/M05 A3033 RMK AO2 SLP277 T00781050 10083 21006 58015 $=
201301051652 METAR KATL 051652Z 03005KT 10SM BKN250 07/M05 A3036 RMK AO2 SLP287 T00721050 $=
201301051552 METAR KATL 051552Z 00000KT 10SM BKN250 05/M06 A3038 RMK AO2 SLP296 T00501056=
201301051452 METAR KATL 051452Z 00000KT 10SM BKN250 03/M04 A3037 RMK AO2 SLP293 T00331044 53012=
201301051352 METAR KATL 051352Z 34006KT 10SM BKN250 01/M05 A3036 RMK AO2 SLP288 T00111050=
201301051252 METAR KATL 051252Z 33005KT 10SM BKN250 00/M06 A3035 RMK AO2 SLP285 T00001056=
201301051152 METAR KATL 051152Z 33008KT 10SM BKN250 M01/M06 A3034 RMK AO2 SLP282 T10061056 10017 21011 51004=
201301051052 METAR KATL 051052Z 33003KT 10SM FEW250 M01/M06 A3034 RMK AO2 SLP281 T10061056=
201301050952 METAR KATL 050952Z 28005KT 10SM SCT250 M01/M06 A3033 RMK AO2 SLP277 T10061056=
201301050852 METAR KATL 050852Z 29008KT 10SM BKN250 M01/M06 A3033 RMK AO2 SLP276 T10061056 56007=
201301050752 METAR KATL 050752Z 29006KT 10SM BKN250 M01/M06 A3033 RMK AO2 SLP276 T10061056=
201301050652 METAR KATL 050652Z 30004KT 10SM SCT250 00/M06 A3034 RMK AO2 SLP280 T00001056=
201301050552 METAR KATL 050552Z 34005KT 10SM BKN250 02/M06 A3035 RMK AO2 SLP282 T00171061 10061 20011 58004=
201301050452 METAR KATL 050452Z 32007KT 10SM SCT250 01/M06 A3035 RMK AO2 SLP286 T00111056 401061011=
201301050352 METAR KATL 050352Z 28004KT 10SM FEW250 03/M06 A3036 RMK AO2 SLP287 T00281061=
201301050252 METAR KATL 050252Z 27003KT 10SM FEW250 03/M06 A3036 RMK AO2 SLP289 T00281056 50003=
201301050152 METAR KATL 050152Z 35006KT 10SM FEW250 06/M06 A3036 RMK AO2 SLP291 T00561061=
201301050052 METAR KATL 050052Z 36009KT 10SM FEW250 06/M07 A3036 RMK AO2 SLP288 T00561067=
201301042352 METAR KATL 042352Z 32006KT 10SM FEW250 06/M08 A3035 RMK AO2 SLP286 T00561078 10106 20056 53015=
201301042252 METAR KATL 042252Z 32009KT 10SM FEW250 07/M08 A3032 RMK AO2 SLP276 T00721083=
201301042152 METAR KATL 042152Z 33009KT 10SM FEW250 09/M08 A3032 RMK AO2 SLP274 T00941078=
201301042052 METAR KATL 042052Z 35012KT 10SM FEW250 10/M09 A3031 RMK AO2 SLP269 T01001089 55010=
201301041952 METAR KATL 041952Z 33009KT 10SM FEW250 11/M07 A3030 RMK AO2 SLP266 T01061072=
201301041852 METAR KATL 041852Z 31009KT 10SM FEW250 10/M07 A3031 RMK AO2 SLP270 T01001072=
201301041752 METAR KATL 041752Z COR 31007KT 280V350 10SM FEW250 09/M05 A3034 RMK AO2 SLP278 T00891050 10089 21011 58007=
201301041652 METAR KATL 041652Z 28007KT 10SM FEW250 07/M04 A3038 RMK AO2 SLP292 T00671044=
201301041552 METAR KATL 041552Z 31007KT 10SM FEW250 05/M04 A3038 RMK AO2 SLP296 T00501044=
201301041452 METAR KATL 041452Z COR 33005KT 10SM FEW010 SCT250 03/M04 A3036 RMK AO2 FEW010 FU N SLP289 T00281044 51014=
201301041352 METAR KATL 041352Z 32011KT 10SM FEW250 00/M04 A3035 RMK AO2 SLP287 T00001044=
201301041252 METAR KATL 041252Z 32008KT 10SM FEW250 M01/M04 A3034 RMK AO2 SLP283 T10111044=
201301041152 METAR KATL 041152Z 32006KT 10SM CLR M01/M04 A3032 RMK AO2 SLP276 T10111044 10017 21011 53003=
201301041052 METAR KATL 041052Z 31005KT 10SM CLR M01/M04 A3031 RMK AO2 SLP273 T10111044=
201301040952 METAR KATL 040952Z 32007KT 10SM CLR M01/M04 A3030 RMK AO2 SLP269 T10061044=
201301040852 METAR KATL 040852Z 31008KT 10SM CLR 00/M04 A3031 RMK AO2 SLP270 T00001039 53006=
201301040752 METAR KATL 040752Z 34005KT 10SM CLR 01/M04 A3029 RMK AO2 SLP263 T00061039=
201301040652 METAR KATL 040652Z 34009KT 10SM CLR 02/M04 A3029 RMK AO2 SLP263 T00171039=
201301040552 METAR KATL 040552Z 33009KT 10SM FEW250 02/M03 A3029 RMK AO2 SLP264 T00171033 10044 20017 50007=
201301040452 METAR KATL 040452Z 33012KT 10SM FEW250 02/M03 A3030 RMK AO2 SLP268 T00221033 400780022=
201301040352 METAR KATL 040352Z 33008KT 10SM FEW250 02/M03 A3030 RMK AO2 SLP268 T00221033=
201301040252 METAR KATL 040252Z 32009KT 10SM FEW250 03/M03 A3027 RMK AO2 SLP257 T00281028 50003=
201301040152 METAR KATL 040152Z 33009KT 10SM FEW250 03/M03 A3027 RMK AO2 SLP258 T00331028=
201301040052 METAR KATL 040052Z 33008KT 10SM FEW250 03/M02 A3027 RMK AO2 SLP258 T00331022=
201301032352 METAR KATL 032352Z 32011KT 10SM FEW250 04/M02 A3026 RMK AO2 SLP252 T00441017 10078 20039 52020=
201301032252 METAR KATL 032252Z 31011KT 10SM FEW250 05/M01 A3024 RMK AO2 SLP246 T00501011=
201301032152 SPECI KATL 032152Z 32013KT 10SM FEW150 BKN250 06/M02 A3022 RMK AO2 SLP238 T00611017=
201301032152 METAR KATL 032152Z 32013KT 10SM FEW150 BKN250 06/M02 A3022 RMK AO2 SLP238 T00611017=
201301032052 METAR KATL 032052Z 30011KT 10SM SCT150 BKN250 07/M01 A3020 RMK AO2 SLP231 T00721011 53003=
201301031952 METAR KATL 031952Z 32010KT 10SM SCT150 BKN250 07/M01 A3018 RMK AO2 SLP224 T00671006=
201301031852 METAR KATL 031852Z 33010KT 10SM SCT150 BKN250 06/00 A3018 RMK AO2 SLP225 T00610000=
201301031752 METAR KATL 031752Z 30008KT 10SM BKN150 OVC250 06/00 A3019 RMK AO2 SLP229 T00610000 10061 20033 58005=
201301031652 METAR KATL 031652Z 30008KT 10SM FEW050 OVC150 06/00 A3021 RMK AO2 SLP237 T00560000=
201301031552 METAR KATL 031552Z 33009KT 10SM FEW060 OVC150 04/00 A3021 RMK AO2 SLP237 T00440000=
201301031452 METAR KATL 031452Z 33007KT 10SM SCT050 OVC150 04/00 A3020 RMK AO2 SLP233 T00390000 53015=
201301031352 METAR KATL 031352Z 33013KT 7SM FEW012 SCT050 OVC150 03/01 A3018 RMK AO2 SLP228 VIRGA NE-SE T00330006=
201301031252 METAR KATL 031252Z 32010KT 7SM SCT055 OVC150 03/01 A3016 RMK AO2 SLP219 T00330006=
201301031152 METAR KATL 031152Z 32008KT 8SM FEW009 OVC060 04/01 A3016 RMK AO2 SLP218 60000 T00390011 10039 20039 51004=
201301031148 SPECI KATL 031148Z 31008KT 8SM FEW009 OVC060 04/01 A3016 RMK AO2=
201301031052 METAR KATL 031052Z 31008KT 8SM FEW009 OVC060 04/02 A3015 RMK AO2 SLP217 T00390017=
201301031020 SPECI KATL 031020Z 00000KT 8SM FEW009 OVC060 04/02 A3013 RMK AO2=
201301031003 SPECI KATL 031003Z 31010KT 8SM BKN009 OVC060 04/02 A3015 RMK AO2=
201301030952 METAR KATL 030952Z 32009KT 7SM FEW009 OVC055 04/02 A3015 RMK AO2 SLP214 T00390017=
201301030852 METAR KATL 030852Z 29006KT 7SM FEW009 BKN049 OVC090 04/02 A3014 RMK AO2 RAB07E21 SLP213 P0000 60000 T00390017 52005=
201301030752 METAR KATL 030752Z 29004KT 8SM FEW009 BKN075 OVC095 04/02 A3014 RMK AO2 SLP210 T00390017=
201301030652 METAR KATL 030652Z 32007KT 10SM FEW009 OVC095 04/02 A3014 RMK AO2 SLP211 T00390017=
201301030633 SPECI KATL 030633Z 32011KT 10SM FEW009 OVC095 04/02 A3014 RMK AO2=
201301030552 METAR KATL 030552Z 32008KT 10SM SCT080 BKN095 OVC110 04/02 A3013 RMK AO2 RAE03B28E51 SLP208 P0000 60000 T00390017 10056 20039 55006=
201301030452 METAR KATL 030452Z 31006KT 10SM -RA FEW065 BKN080 OVC110 04/02 A3012 RMK AO2 SLP204 P0000 T00440017 401060044=
201301030352 METAR KATL 030352Z 35004KT 10SM -RA SCT070 BKN090 OVC120 04/02 A3013 RMK AO2 RAB52 SLP208 P0000 T00440017=
201301030252 METAR KATL 030252Z 31006KT 10SM FEW012 BKN130 OVC200 04/02 A3015 RMK AO2 SLP214 T00440017 50015=
201301030152 METAR KATL 030152Z 31008KT 10SM FEW013 BKN140 OVC200 04/02 A3016 RMK AO2 SLP217 T00440017=
201301030052 METAR KATL 030052Z 31008KT 10SM FEW013 BKN140 OVC200 05/02 A3014 RMK AO2 SLP210 T00500022=
201301022352 METAR KATL 022352Z 33008KT 10SM FEW015 BKN140 OVC200 06/02 A3010 RMK AO2 SLP199 T00560022 10094 20056 53012=
201301022252 METAR KATL 022252Z 32006KT 10SM FEW020 BKN150 OVC200 06/02 A3008 RMK AO2 SLP191 T00610022=
201301022152 METAR KATL 022152Z 31010KT 10SM FEW020 BKN150 BKN250 07/03 A3009 RMK AO2 SLP192 T00670028=
201301022052 METAR KATL 022052Z 31011KT 10SM BKN150 BKN180 BKN250 07/03 A3007 RMK AO2 SLP185 VIRGA NW-N T00720028 55002=
201301021952 METAR KATL 021952Z 34009KT 10SM BKN150 BKN180 BKN250 08/03 A3005 RMK AO2 SLP179 T00780028=
201301021852 METAR KATL 021852Z 30009KT 10SM FEW020 BKN150 BKN250 08/03 A3005 RMK AO2 SLP179 T00780033=
201301021752 METAR KATL 021752Z 31010KT 10SM FEW020 SCT150 BKN250 08/03 A3007 RMK AO2 SLP186 T00830033 10094 20061 58007=
201301021652 METAR KATL 021652Z 30009KT 10SM FEW015 BKN150 BKN250 09/04 A3010 RMK AO2 SLP196 T00890039=
201301021552 METAR KATL 021552Z 31012KT 10SM FEW010 BKN150 BKN250 07/03 A3011 RMK AO2 SLP200 T00670033=
201301021459 SPECI KATL 021459Z 32012KT 9SM BKN010 OVC150 06/04 A3010 RMK AO2=
201301021452 METAR KATL 021452Z 32009KT 9SM BKN008 BKN010 OVC150 06/04 A3010 RMK AO2 SLP195 T00610039 51023=
201301021352 METAR KATL 021352Z 32010KT 9SM BKN008 OVC150 07/04 A3007 RMK AO2 SLP186 BINOVC T00670044=
201301021252 METAR KATL 021252Z 32013KT 7SM BKN008 OVC180 06/04 A3005 RMK AO2 SLP179 BINOVC T00610044=
201301021210 SPECI KATL 021210Z 32013KT 8SM BKN008 BKN180 07/06 A3003 RMK AO2=
201301021152 METAR KATL 021152Z 30009KT 10SM SCT008 SCT047 BKN180 08/06 A3003 RMK AO2 SLP169 60001 70105 T00780061 10106 20078 53010=
201301021144 SPECI KATL 021144Z 31009KT 10SM SCT008 SCT047 BKN180 08/06 A3002 RMK AO2=
201301021052 METAR KATL 021052Z 32007KT 10SM FEW024 SCT040 BKN180 08/06 A3001 RMK AO2 SLP162 T00830061 $=
201301021026 SPECI KATL 021026Z 33004KT 10SM FEW007 SCT024 BKN038 OVC180 08/07 A3000 RMK AO2 $=
201301020952 METAR KATL 020952Z 32008KT 10SM FEW006 BKN022 OVC180 08/07 A2999 RMK AO2 SLP158 T00830072 $=
201301020946 SPECI KATL 020946Z 32010KT 10SM SCT006 OVC022 09/07 A3000 RMK AO2 $=
201301020919 SPECI KATL 020919Z 33013G20KT 7SM BKN006 OVC011 09/08 A3001 RMK AO2 $=
201301020852 METAR KATL 020852Z 34013G20KT 8SM OVC011 09/07 A3000 RMK AO2 SLP158 CIG 009V014 60001 T00940072 53013 $=
201301020837 SPECI KATL 020837Z 33011G18KT 8SM BKN011 09/08 A2999 RMK AO2 $=
201301020752 METAR KATL 020752Z 33015G22KT 6SM BR OVC007 10/09 A2998 RMK AO2 RAB0655E30 SLP154 CIG 005V010 P0000 T01000089 $=
201301020731 SPECI KATL 020731Z 32009KT 6SM BR BKN005 BKN034 OVC045 10/09 A2997 RMK AO2 RAB0655E30 P0000 $=
201301020704 SPECI KATL 020704Z 30005KT 8SM -RA FEW005 OVC037 11/09 A2996 RMK AO2 RAB0655 P0000 $=
201301020652 METAR KATL 020652Z 31006KT 3SM BKN005 OVC037 11/09 A2996 RMK AO2 SFC VIS 8 RAE39 SLP146 CIG 004V007 P0001 T01060094 $=
201301020552 METAR KATL 020552Z 34007KT 3SM -RA BKN005 OVC040 11/10 A2995 RMK AO2 SFC VIS 8 SLP144 CIG 003V007 P0002 60022 T01060100 10117 20106 58002 $=
201301020452 METAR KATL 020452Z 32007KT 3SM -RA BKN006 OVC035 11/10 A2997 RMK AO2 SFC VIS 7 SLP150 CIG 003V008 P0001 T01060100 401170083 $=
201301020352 METAR KATL 020352Z 34004KT 2SM -RA BKN005 OVC015 11/10 A2996 RMK AO2 SFC VIS 9 SLP146 CIG 003V007 P0003 T01060100 $=
201301020303 SPECI KATL 020303Z 33009KT 2SM -RA BR BKN005 OVC015 11/10 A2996 RMK AO2 CIG 003V007 P0001 $=
201301020252 METAR KATL 020252Z 32009KT 1/2SM -RA BR OVC004 11/10 A2996 RMK AO2 SFC VIS 2 1/2 SLP146 CIG 002V005 P0003 60016 T01110100 53002 $=
201301020152 METAR KATL 020152Z 00000KT 1/2SM -RA OVC003 11/11 A2995 RMK AO2 SFC VIS 7 SLP141 CIG 002V005 P0003 T01110106 $=
201301020140 SPECI KATL 020140Z 08003KT 1/2SM -RA BR OVC003 11/11 A2995 RMK AO2 SFC VIS 5 CIG 002V005 P0003 $=
201301020115 SPECI KATL 020115Z 00000KT 1 1/2SM -RA BR BKN004 BKN025 OVC030 11/11 A2995 RMK AO2 SFC VIS 4 CIG 002V006 P0002 $=
201301020052 METAR KATL 020052Z 00000KT 2 1/2SM -RA BR BKN005 BKN015 OVC050 11/11 A2995 RMK AO2 SFC VIS 6 SLP144 CIG 003V006 P0010 T01110106 $=
201301020031 SPECI KATL 020031Z 10004KT 2 1/2SM -RA BR BKN004 BKN015 OVC050 11/11 A2995 RMK AO2 SFC VIS 4 CIG 002V007 P0010 $=
201301020007 SPECI KATL 020007Z 12003KT 3SM RA BR FEW004 BKN028 OVC070 11/11 A2996 RMK AO2 P0005 $=
201301012352 METAR KATL 012352Z 07005KT 1 1/2SM RA BR SCT004 BKN014 OVC050 11/11 A2995 RMK AO2 SFC VIS 3 SLP144 P0022 60067 T01110106 10117 20106 56009 $=
201301012344 SPECI KATL 012344Z 07005KT 1 1/2SM RA BR BKN004 OVC020 12/11 A2996 RMK AO2 SFC VIS 3 CIG 002V006 P0021 $=
201301012322 SPECI KATL 012322Z 05004KT 1SM +RA BR SCT004 BKN009 OVC030 12/11 A2996 RMK AO2 SFC VIS 1 1/2 P0010 $=
201301012303 SPECI KATL 012303Z 07005KT 1 1/2SM RA BR FEW004 BKN020 OVC035 12/11 A2995 RMK AO2 P0004 $=
201301012252 METAR KATL 012252Z 08003KT 1 1/2SM RA BR SCT004 BKN014 OVC035 11/11 A2996 RMK AO2 SLP146 P0023 T01110106 $=
201301012239 SPECI KATL 012239Z 00000KT 1 1/2SM RA BR SCT003 BKN009 OVC030 12/11 A2997 RMK AO2 P0016 $=
201301012159 SPECI KATL 012159Z 12003KT 1SM R09R/5500VP6000FT RA BR BKN004 OVC020 12/11 A2997 RMK AO2 SFC VIS 1 1/2 CIG 002V006 P0003 $=
201301012152 METAR KATL 012152Z 10003KT 1/2SM R09R/5500VP6000FT RA BR BKN003 OVC014 12/11 A2997 RMK AO2 SFC VIS 1 SLP149 TWRINC P0005 T01170106 $=
201301012052 METAR KATL 012052Z 00000KT 1SM R09R/5000VP6000FT -RA BR SCT003 BKN027 OVC035 11/11 A2998 RMK AO2 SLP153 P0012 60017 T01110106 56013 $=
201301012024 SPECI KATL 012024Z 00000KT 1SM R09R/4000VP6000FT RA BR FEW003 BKN024 OVC036 11/11 A2999 RMK AO2 P0007 $=
201301012006 SPECI KATL 012006Z 00000KT 1/2SM R09R/5500VP6000FT -RA BR SCT003 BKN022 OVC027 11/11 A2999 RMK AO2 SFC VIS 1 P0002 $=
201301011952 METAR KATL 011952Z 00000KT 1/2SM R09R/6000VP6000FT -RA BR BKN003 BKN019 OVC025 11/11 A2999 RMK AO2 SFC VIS 1 RAE1859B20 SLP155 TWRINC P0005 T01110106 $=
201301011852 METAR KATL 011852Z 18004KT 1/4SM R09R/P6000FT -RA BR OVC003 11/10 A2999 RMK AO2 SFC VIS 1 DZE05B33E37RAB23 SLP157 TWRINC P0000 T01110100 $=
201301011818 SPECI KATL 011818Z 18005KT 1/4SM BR BKN003 OVC026 11/10 A3001 RMK AO2 SFC VIS 1 1/2 DZE05 TWRINC P0000 $=
201301011752 METAR KATL 011752Z 18005KT 1SM -DZ BR SCT003 OVC028 11/10 A3002 RMK AO2 SFC VIS 1 1/2 RAE08B38E47DZB17 SLP167 P0001 60015 T01060100 10106 20100 58027 $=
201301011712 SPECI KATL 011712Z 15005KT 1 1/2SM R09R/4000VP6000FT BR FEW001 OVC028 10/09 A3005 RMK AO2 RAE08 P0000 $=
201301011652 METAR KATL 011652Z 14005KT 1 1/2SM R09R/4000VP6000FT -RA BR OVC030 10/09 A3007 RMK AO2 SLP185 P0001 T01000094 $=
201301011608 SPECI KATL 011608Z 00000KT 1SM R09R/6000VP6000FT -RA BR FEW013 OVC021 11/09 A3009 RMK AO2 P0001 $=
201301011552 METAR KATL 011552Z 00000KT 1SM -RA BR FEW006 BKN013 OVC018 11/09 A3010 RMK AO2 SFC VIS 1 1/2 SLP193 P0006 T01060094 $=
201301011530 SPECI KATL 011530Z 03005KT 1SM -RA BR SCT004 BKN011 OVC015 10/09 A3010 RMK AO2 SFC VIS 1 1/2 P0005 $=
201301011516 SPECI KATL 011516Z 36007KT 1SM -RA BR OVC004 10/09 A3010 RMK AO2 SFC VIS 1 1/2 P0004 $=
201301011452 METAR KATL 011452Z 32005KT 1SM RA BR OVC006 11/09 A3010 RMK AO2 SFC VIS 1 1/2 DZE1359RAB1359 SLP195 P0007 60007 T01060094 53009 $=
201301011436 SPECI KATL 011436Z 35005KT 1SM -RA BR BKN008 BKN013 OVC023 11/09 A3009 RMK AO2 SFC VIS 2 DZE1359RAB1359 P0004 $=
201301011431 SPECI KATL 011431Z 36004KT 1SM RA BR SCT008 BKN015 OVC029 11/09 A3009 RMK AO2 SFC VIS 2 DZE1359RAB1359 P0003 $=
201301011401 SPECI KATL 011401Z 00000KT 2SM -RA BR BKN022 OVC031 11/08 A3007 RMK AO2 DZE1359RAB1359 P0000 $=
201301011352 METAR KATL 011352Z 00000KT 6SM -DZ SCT022 OVC029 11/08 A3007 RMK AO2 DZB50 SLP184 P0000 T01060078=
201301011334 SPECI KATL 011334Z 00000KT 7SM FEW022 OVC031 11/08 A3006 RMK AO2=
201301011252 METAR KATL 011252Z 00000KT 9SM BKN018 OVC028 11/08 A3007 RMK AO2 SLP184 T01060078=
