##########################################################
# Query made at 04/19/2024 23:35:39 UTC
# Time interval: from 11/01/2013 12:00  to 11/30/2013 12:59  UTC
##########################################################

##########################################################
# KATL, Atlanta, Hartsfield - Jackson Atlanta International Airport (United States)
# WMO index: 72219. WIGOS ID: 0-20000-0-72219
# Latitude 33-38-59N. Longitude 084-25-00W. Altitude 312 m.
##########################################################

201311301252 METAR KATL 301252Z 09011KT 10SM SCT250 02/M04 A3052 RMK AO2 SLP340 T00171039=
201311301152 METAR KATL 301152Z 08011KT 10SM SCT250 02/M03 A3051 RMK AO2 SLP336 T00171033 10033 20011 53003=
201311301052 METAR KATL 301052Z 08011KT 10SM FEW250 02/M03 A3051 RMK AO2 SLP335 T00221028=
201311300952 METAR KATL 300952Z 08011KT 10SM CLR 02/M02 A3049 RMK AO2 SLP329 T00221022=
201311300852 METAR KATL 300852Z 08006KT 10SM CLR 01/M03 A3050 RMK AO2 SLP331 T00111028 53003=
201311300752 METAR KATL 300752Z 08008KT 10SM CLR 02/M03 A3050 RMK AO2 SLP330 T00221028=
201311300652 METAR KATL 300652Z 08008KT 10SM CLR 02/M03 A3049 RMK AO2 SLP327 T00221028=
201311300552 METAR KATL 300552Z 08007KT 10SM FEW250 03/M04 A3049 RMK AO2 SLP327 T00281039 10100 20028 53001=
201311300452 METAR KATL 300452Z 08006KT 10SM FEW250 04/M04 A3048 RMK AO2 SLP327 T00441044 401611028=
201311300352 METAR KATL 300352Z 08008KT 10SM FEW250 05/M04 A3048 RMK AO2 SLP328 T00501039=
201311300252 METAR KATL 300252Z 08004KT 10SM FEW250 08/M03 A3048 RMK AO2 SLP329 T00781028 51009=
201311300152 METAR KATL 300152Z 06005KT 10SM CLR 08/M03 A3048 RMK AO2 SLP328 T00831033=
201311300052 METAR KATL 300052Z 35004KT 10SM CLR 10/M04 A3047 RMK AO2 SLP324 T01001044=
201311292352 METAR KATL 292352Z 33004KT 10SM CLR 10/M07 A3046 RMK AO2 SLP321 T01001067 10161 20100 53010=
201311292252 METAR KATL 292252Z 33004KT 10SM CLR 12/M08 A3044 RMK AO2 SLP316 T01171083=
201311292152 METAR KATL 292152Z 31004KT 10SM CLR 14/M10 A3043 RMK AO2 SLP311 T01391100=
201311292052 METAR KATL 292052Z 33004KT 10SM CLR 16/M10 A3043 RMK AO2 SLP308 T01561100 56014=
201311291952 METAR KATL 291952Z 02003KT 10SM FEW200 16/M11 A3043 RMK AO2 SLP309 T01561106=
201311291852 METAR KATL 291852Z VRB03KT 10SM FEW200 15/M09 A3044 RMK AO2 SLP313 T01501094=
201311291752 METAR KATL 291752Z 31003KT 10SM FEW200 13/M10 A3047 RMK AO2 SLP324 T01331100 10133 21028 58013=
201311291652 METAR KATL 291652Z 00000KT 10SM FEW200 11/M07 A3050 RMK AO2 SLP333 T01061072=
201311291552 METAR KATL 291552Z 34004KT 10SM FEW200 08/M06 A3051 RMK AO2 SLP339 T00831056=
201311291452 METAR KATL 291452Z 34004KT 10SM FEW250 06/M05 A3051 RMK AO2 SLP339 T00561050 53013=
201311291352 METAR KATL 291352Z 32006KT 10SM FEW160 SCT200 01/M04 A3049 RMK AO2 SLP335 T00111044=
201311291252 METAR KATL 291252Z 31007KT 10SM FEW160 SCT200 M02/M06 A3048 RMK AO2 SLP331 T10171056=
201311291152 METAR KATL 291152Z 31008KT 10SM FEW180 SCT250 M02/M06 A3047 RMK AO2 SLP328 T10221056 10011 21028 51004=
201311291052 METAR KATL 291052Z 32006KT 10SM FEW180 SCT250 M02/M06 A3046 RMK AO2 SLP325 T10221056 $=
201311290952 METAR KATL 290952Z 32006KT 10SM FEW180 SCT250 M01/M06 A3047 RMK AO2 SLP324 T10111056=
201311290852 METAR KATL 290852Z 32003KT 10SM SCT180 BKN250 M01/M06 A3046 RMK AO2 SLP321 T10061056 50002=
201311290752 METAR KATL 290752Z 00000KT 10SM SCT180 BKN250 M01/M05 A3046 RMK AO2 SLP322 T10061050=
201311290652 METAR KATL 290652Z 00000KT 10SM SCT200 BKN250 M01/M06 A3045 RMK AO2 SLP319 T10111056=
201311290552 METAR KATL 290552Z 32003KT 10SM SCT200 SCT250 00/M05 A3045 RMK AO2 SLP320 T00001050 10061 21006 50003=
201311290452 METAR KATL 290452Z 00000KT 10SM FEW200 SCT250 00/M05 A3046 RMK AO2 SLP322 T00001050 401001056=
201311290352 METAR KATL 290352Z 00000KT 10SM FEW250 02/M05 A3045 RMK AO2 SLP321 T00171050=
201311290252 METAR KATL 290252Z 00000KT 10SM SCT250 02/M05 A3044 RMK AO2 SLP319 T00171050 53010=
201311290152 METAR KATL 290152Z 34003KT 10SM BKN250 03/M05 A3043 RMK AO2 SLP315 T00331050=
201311290052 METAR KATL 290052Z 00000KT 10SM FEW200 BKN250 03/M06 A3042 RMK AO2 SLP314 T00331056=
201311282352 METAR KATL 282352Z 25003KT 10SM FEW200 BKN250 06/M07 A3041 RMK AO2 SLP310 T00561067 10100 20044 53014=
201311282252 METAR KATL 282252Z 00000KT 10SM FEW200 BKN250 06/M07 A3039 RMK AO2 SLP300 T00611072=
201311282152 METAR KATL 282152Z 00000KT 10SM BKN230 08/M08 A3038 RMK AO2 SLP295 T00831083=
201311282052 METAR KATL 282052Z 00000KT 10SM BKN230 09/M09 A3037 RMK AO2 SLP293 T00891089 55002=
201311281952 METAR KATL 281952Z 31003KT 10SM BKN230 09/M08 A3036 RMK AO2 SLP290 T00891078=
201311281852 METAR KATL 281852Z VRB03KT 10SM BKN230 08/M08 A3036 RMK AO2 SLP291 T00781083=
201311281752 METAR KATL 281752Z 31003KT 10SM BKN230 06/M08 A3038 RMK AO2 SLP296 T00611083 10061 21056 58010=
201311281652 METAR KATL 281652Z 00000KT 10SM FEW230 04/M08 A3040 RMK AO2 SLP305 T00441083=
201311281552 METAR KATL 281552Z 00000KT 10SM FEW230 02/M07 A3042 RMK AO2 SLP310 T00221072=
201311281452 METAR KATL 281452Z COR 36004KT 10SM FEW230 00/M08 A3041 RMK AO2 SLP309 T00001078 51023=
201311281352 METAR KATL 281352Z 34004KT 10SM CLR M03/M08 A3039 RMK AO2 SLP305 T10281078=
201311281252 METAR KATL 281252Z 33007KT 10SM CLR M05/M08 A3036 RMK AO2 SLP293 T10501083=
201311281152 METAR KATL 281152Z 32006KT 10SM CLR M06/M09 A3034 RMK AO2 SLP287 T10561089 11028 21056 53016=
201311281052 METAR KATL 281052Z 33006KT 10SM CLR M05/M09 A3031 RMK AO2 SLP277 T10501089=
201311280952 METAR KATL 280952Z 33008KT 10SM CLR M04/M09 A3029 RMK AO2 SLP270 T10441089=
201311280852 METAR KATL 280852Z 33011KT 10SM CLR M04/M09 A3029 RMK AO2 SLP269 T10391089 50011=
201311280752 METAR KATL 280752Z 32012KT 10SM CLR M04/M09 A3030 RMK AO2 SLP271 T10391089=
201311280652 METAR KATL 280652Z 31010KT 10SM CLR M03/M09 A3027 RMK AO2 SLP263 T10331089=
201311280552 METAR KATL 280552Z 33007KT 10SM CLR M03/M09 A3026 RMK AO2 SLP256 T10281089 10000 21033 51014=
201311280452 METAR KATL 280452Z 33009KT 10SM CLR M03/M09 A3026 RMK AO2 SLP256 T10281089 400671028=
201311280352 METAR KATL 280352Z 34010G15KT 10SM CLR M02/M09 A3024 RMK AO2 SLP251 T10221089=
201311280252 METAR KATL 280252Z 34014G19KT 10SM CLR M02/M08 A3022 RMK AO2 SLP243 T10171083 51023=
201311280152 METAR KATL 280152Z 34013KT 10SM CLR M01/M08 A3020 RMK AO2 SLP235 T10111083=
201311280052 METAR KATL 280052Z 32014G22KT 10SM FEW040 M01/M08 A3018 RMK AO2 SLP229 T10111078=
201311272352 METAR KATL 272352Z 34014G20KT 10SM CLR 00/M08 A3015 RMK AO2 SLP219 T00001078 10033 20000 53031=
201311272252 METAR KATL 272252Z 34013G18KT 10SM FEW040 01/M07 A3012 RMK AO2 SLP207 T00061067=
201311272152 METAR KATL 272152Z 33015KT 10SM FEW040 02/M07 A3008 RMK AO2 PK WND 31026/2054 SLP194 T00221067=
201311272052 METAR KATL 272052Z 32015G23KT 10SM FEW040 02/M06 A3005 RMK AO2 PK WND 31028/1956 SLP185 T00221061 53026=
201311271952 METAR KATL 271952Z 33019G28KT 10SM SCT033 03/M05 A3003 RMK AO2 PK WND 33028/1952 SLP174 T00281050=
201311271903 SPECI KATL 271903Z 30017G24KT 10SM BKN030 02/M04 A3001 RMK AO2=
201311271852 METAR KATL 271852Z 30017G24KT 10SM BKN029 BKN034 02/M04 A3000 RMK AO2 PK WND 33033/1816 SLP165 T00221039=
201311271752 METAR KATL 271752Z 32019G24KT 10SM BKN032 02/M04 A2997 RMK AO2 PK WND 33035/1720 SLP156 T00221039 10022 20011 51024=
201311271652 METAR KATL 271652Z 32016G32KT 10SM OVC030 02/M03 A2995 RMK AO2 PK WND 33032/1643 SLP148 T00221033=
201311271559 SPECI KATL 271559Z 32018G31KT 10SM BKN028 BKN034 02/M03 A2994 RMK AO2 PK WND 33031/1555=
201311271552 METAR KATL 271552Z 32022G31KT 10SM BKN032 02/M03 A2993 RMK AO2 PK WND 32035/1500 SLP142 T00171033=
201311271452 METAR KATL 271452Z 33022G31KT 10SM OVC030 02/M03 A2990 RMK AO2 PK WND 33033/1441 SLP131 T00221028 52036=
201311271440 SPECI KATL 271440Z 32026G33KT 10SM SCT025 BKN031 02/M03 A2989 RMK AO2 PK WND 32033/1439=
201311271352 METAR KATL 271352Z 32021G33KT 10SM OVC021 02/M02 A2987 RMK AO2 PK WND 32036/1322 SLP120 T00171022=
201311271252 METAR KATL 271252Z 32020G29KT 9SM OVC023 02/M02 A2983 RMK AO2 PK WND 32036/1232 SLP104 T00171017=
201311271152 METAR KATL 271152Z 32019G26KT 10SM FEW012 BKN022 OVC055 01/M01 A2979 RMK AO2 PK WND 33032/1130 RAE05SNB20E39PLE29 SLP094 931004 P0005 60012 70087 T00111011 10061 20006 53035=
201311271135 SPECI KATL 271135Z 31019G32KT 8SM -SN FEW012 BKN019 OVC026 01/M01 A2979 RMK AO2 PK WND 33032/1130 RAE05SNB20PLE29 P0005=
201311271129 SPECI KATL 271129Z 32020G29KT 1 1/2SM -SN BR FEW009 SCT012 OVC017 01/M01 A2978 RMK AO2 PK WND 31032/1105 RAE05SNB20PLE29 P0005=
201311271125 SPECI KATL 271125Z 32019G28KT 1SM R09R/P6000FT -SNPL BR FEW009 BKN012 OVC017 01/M01 A2978 RMK AO2 PK WND 31032/1105 RAE05SNB20 P0004=
201311271120 SPECI KATL 271120Z 32018G28KT 4SM PLSN BR SCT009 OVC015 01/M01 A2978 RMK AO2 PK WND 31032/1105 RAE05SNB20 P0003=
201311271106 SPECI KATL 271106Z 31021G32KT 4SM PL BR FEW009 BKN014 OVC019 01/M01 A2977 RMK AO2 PK WND 31032/1105 RAE05 P0001=
201311271052 METAR KATL 271052Z 32019G30KT 7SM -RAPL FEW009 BKN014 OVC045 02/00 A2976 RMK AO2 PK WND 33037/1036 SLP082 PLB25 P0001 T00170000 $=
201311271026 SPECI KATL 271026Z 32021G28KT 8SM -RAPL FEW009 BKN012 OVC045 02/01 A2974 RMK AO2 PK WND 33034/0955 PLB25 P0000 $=
201311271008 SPECI KATL 271008Z 32022G32KT 8SM -RA FEW009 BKN015 OVC060 02/01 A2972 RMK AO2 PK WND 33034/0955 P0000 $=
201311270952 METAR KATL 270952Z 32022G29KT 8SM -RA FEW009 BKN012 OVC060 03/01 A2972 RMK AO2 PK WND 32030/0938 SLP066 CIG 010V016 PCPN VRY LGT P0003 T00280011 $=
201311270947 SPECI KATL 270947Z 32021G30KT 8SM -RA FEW009 BKN012 OVC060 03/01 A2972 RMK AO2 PK WND 32030/0938 P0003 $=
201311270852 METAR KATL 270852Z 32017G24KT 5SM -RA BR BKN009 OVC014 03/02 A2969 RMK AO2 PK WND 31030/0757 SLP057 P0002 60003 T00330022 53006 $=
201311270752 METAR KATL 270752Z 32017G21KT 7SM -RA OVC008 04/03 A2968 RMK AO2 RAE25B49 SLP056 CIG 007V010 P0000 T00390028 $=
201311270652 METAR KATL 270652Z 32019G29KT 6SM -RA BR BKN008 OVC012 05/03 A2967 RMK AO2 PK WND 32029/0645 RAE25B52 SLP052 CIG 007V009 P0001 T00500033 $=
201311270552 METAR KATL 270552Z 32017KT 6SM -RA BR BKN007 BKN012 OVC035 06/05 A2967 RMK AO2 SLP052 P0003 60009 T00610050 10089 20061 57013 $=
201311270452 METAR KATL 270452Z 33011KT 8SM -RA BKN007 BKN012 OVC040 07/06 A2967 RMK AO2 RAE11B51 SLP053 P0000 T00670056 402280011 $=
201311270352 METAR KATL 270352Z 32011KT 7SM -RA OVC007 07/06 A2971 RMK AO2 SLP064 CIG 005V009 P0001 T00720061 $=
201311270252 METAR KATL 270252Z 32012KT 5SM -RA BR BKN006 OVC020 07/06 A2971 RMK AO2 SLP065 CIG 004V008 P0000 60005 T00720061 50010 $=
201311270152 METAR KATL 270152Z 30014KT 2SM -RA BR OVC004 08/07 A2973 RMK AO2 SFC VIS 6 SLP071 CIG 003V006 P0004 T00780072 $=
201311270052 METAR KATL 270052Z 30008KT 2SM -RA BR OVC004 09/08 A2971 RMK AO2 SFC VIS 4 SLP064 CIG 003V006 P0001 T00890083 $=
201311270030 SPECI KATL 270030Z 31006KT 1SM -RA BR OVC004 09/08 A2970 RMK AO2 SFC VIS 6 CIG 003V006 P0001=
201311262352 METAR KATL 262352Z 36007KT 1 1/2SM -RA BR BKN006 BKN015 OVC035 09/08 A2968 RMK AO2 SFC VIS 4 PRESFR SLP053 CIG 004V007 P0005 60032 T00890078 10089 20039 56014=
201311262338 SPECI KATL 262338Z 36008KT 1 1/2SM -RA BR BKN006 OVC035 09/08 A2970 RMK AO2 SFC VIS 4 CIG 004V007 P0002=
201311262317 SPECI KATL 262317Z 08006KT 1 1/2SM -RA BR BKN004 BKN015 OVC035 08/08 A2969 RMK AO2 SFC VIS 5 P0001=
201311262252 METAR KATL 262252Z 09008KT 2SM -RA BR FEW004 SCT012 OVC035 08/08 A2968 RMK AO2 SFC VIS 4 RAE2158B21 SLP056 P0005 T00830078=
201311262223 SPECI KATL 262223Z 07010KT 2SM -RA BR SCT004 BKN012 OVC030 08/07 A2969 RMK AO2 SFC VIS 5 RAE2158B21 P0001=
201311262152 METAR KATL 262152Z 06010KT 1 3/4SM -RA BR BKN006 BKN010 OVC020 08/07 A2971 RMK AO2 SFC VIS 3 SLP064 P0002 T00830072=
201311262052 METAR KATL 262052Z 01010KT 1 3/4SM -RA BR BKN006 BKN017 OVC020 08/06 A2972 RMK AO2 SFC VIS 2 1/2 SLP069 P0003 60020 T00780061 56025=
201311262015 SPECI KATL 262015Z 01010KT 1 3/4SM -RA BR SCT006 BKN017 OVC020 06/06 A2973 RMK AO2 SFC VIS 2 1/2 P0001=
201311261952 METAR KATL 261952Z 34009KT 1 3/4SM -RA BR BKN006 BKN010 OVC020 06/04 A2975 RMK AO2 SFC VIS 2 1/2 SLP078 P0005 T00560044=
201311261852 METAR KATL 261852Z 36008KT 1 3/4SM R09R/6000VP6000FT -RA BR BKN006 BKN013 OVC018 04/03 A2976 RMK AO2 SFC VIS 3 SLP083 P0012 T00390033=
201311261833 SPECI KATL 261833Z 01008KT 1 1/2SM R09R/6000VP6000FT -RA BR BKN006 BKN013 OVC020 04/03 A2977 RMK AO2 SFC VIS 3 P0011=
201311261806 SPECI KATL 261806Z 02009KT 1SM R09R/5000VP6000FT -RA BR BKN006 BKN010 OVC015 04/03 A2978 RMK AO2 SFC VIS 3 P0006=
201311261802 SPECI KATL 261802Z 03012KT 1SM R09R/4000VP6000FT +RA BR SCT006 BKN010 OVC015 04/03 A2977 RMK AO2 SFC VIS 1 1/2 P0006=
201311261752 METAR KATL 261752Z COR 02010KT 1 3/4SM R09R/3000VP6000FT RA BR BKN006 BKN008 OVC012 04/03 A2980 RMK AO2 TWR VIS 2 SLP095 P0012 60043 T00390028 10039 20017 56055=
201311261733 SPECI KATL 261733Z 03010KT 2SM -RA BR BKN006 BKN008 OVC012 03/03 A2981 RMK AO2 SFC VIS 4 PNO $=
201311261652 METAR KATL 261652Z 06010KT 1/2SM -RA BR BKN004 BKN006 OVC008 03/03 A2984 RMK AO2 SFC VIS 2 SLP109 TWRINC P0004 T00330028 $=
201311261635 SPECI KATL 261635Z 04012KT 1/2SM -RA BR BKN004 BKN008 OVC010 03/02 A2985 RMK AO2 SFC VIS 3 PRESFR TWRINC P0003=
201311261624 SPECI KATL 261624Z 05012KT 2 1/2SM -RA BR BKN005 BKN008 OVC010 03/02 A2987 RMK AO2 SFC VIS 5 PRESFR P0003=
201311261552 METAR KATL 261552Z 05012G23KT 1 1/2SM RA BR BKN006 BKN008 OVC010 03/02 A2990 RMK AO2 SFC VIS 3 SLP128 P0009 T00280017=
201311261352 METAR KATL 261352Z 05008KT 1/2SM R09R/P6000FT -RA BR OVC004 03/02 A2998 RMK AO2 SFC VIS 1 SLP156 CIG 003V005 TWRINC P0007 T00280017=
201311261307 SPECI KATL 261307Z 06008KT 1/2SM -RA BR OVC004 02/02 A2999 RMK AO2 SFC VIS 1 1/2 CIG 003V005 TWRINC P0001=
201311261252 METAR KATL 261252Z 08006KT 1SM -RA BR OVC004 02/02 A2999 RMK AO2 SFC VIS 2 1/2 SLP159 CIG 003V005 TWRINC P0005 T00220017=
201311261231 SPECI KATL 261231Z 09009KT 1SM -RA BR OVC004 02/01 A2998 RMK AO2 SFC VIS 2 TWRINC P0005=
201311261152 METAR KATL 261152Z 10012KT 2SM -RA BR OVC004 02/01 A2999 RMK AO2 SFC VIS 2 1/2 SLP159 P0003 60014 70014 T00170011 10033 20011 56027=
201311261143 SPECI KATL 261143Z 09011KT 2 1/2SM -RA BR OVC004 02/01 A2998 RMK AO2 P0003=
201311261138 SPECI KATL 261138Z 10011KT 1 1/2SM RA BR OVC004 02/01 A2999 RMK AO2 P0002=
201311261127 SPECI KATL 261127Z 10010KT 2 1/2SM -RA BR OVC004 02/01 A3000 RMK AO2 P0001=
201311261052 METAR KATL 261052Z 09013G19KT 4SM -RA BR OVC005 02/01 A3001 RMK AO2 SLP167 CIG 004V006 P0002 T00170006 $=
201311261040 SPECI KATL 261040Z 10011G19KT 3SM -RA BR OVC005 01/01 A3001 RMK AO2 P0002 $=
201311261016 SPECI KATL 261016Z 08014KT 2SM -RA BR OVC005 01/01 A3003 RMK AO2 P0001 $=
201311260952 METAR KATL 260952Z 09012KT 3SM -RA BR OVC005 01/01 A3004 RMK AO2 SLP178 P0000 T00110006 $=
201311260852 METAR KATL 260852Z 09015KT 4SM -RA BR OVC006 01/00 A3007 RMK AO2 SLP188 P0002 60009 T00110000 58027=
201311260848 SPECI KATL 260848Z 09015KT 4SM -RA BR OVC006 01/01 A3007 RMK AO2 P0002=
201311260826 SPECI KATL 260826Z 08016KT 1 1/2SM -RA BR BKN006 OVC018 01/00 A3008 RMK AO2 P0001=
201311260811 SPECI KATL 260811Z 08016G21KT 2 1/2SM -RA BR BKN006 OVC018 02/01 A3009 RMK AO2 P0000=
201311260801 SPECI KATL 260801Z 08015KT 2SM -RA BR FEW006 OVC018 02/01 A3010 RMK AO2 PRESFR P0000=
201311260752 METAR KATL 260752Z 07015KT 2SM -RA BR OVC018 02/01 A3011 RMK AO2 SLP202 P0005 T00170006=
201311260652 METAR KATL 260652Z 09010G18KT 7SM -RA OVC020 03/00 A3013 RMK AO2 SLP209 P0002 T00280000=
201311260552 METAR KATL 260552Z 09013KT 9SM -RA OVC020 03/M01 A3015 RMK AO2 RAB10 SLP216 P0000 60000 T00331006 10072 20033 58028=
201311260452 METAR KATL 260452Z 09012G19KT 10SM OVC023 05/M04 A3019 RMK AO2 SLP229 T00501039 400781017=
201311260352 METAR KATL 260352Z 08012KT 10SM OVC025 06/M05 A3022 RMK AO2 RAB06E43 SLP238 P0000 T00611050=
201311260252 METAR KATL 260252Z 09010G17KT 10SM OVC024 06/M06 A3024 RMK AO2 SLP245 T00611061 58012=
201311260152 METAR KATL 260152Z 09014KT 10SM BKN023 OVC040 07/M06 A3025 RMK AO2 SLP251 T00671061=
201311260052 METAR KATL 260052Z 08013KT 10SM BKN025 OVC040 07/M07 A3026 RMK AO2 SLP255 T00671067=
201311260005 SPECI KATL 260005Z 08014G18KT 10SM BKN026 OVC040 07/M07 A3028 RMK AO2=
201311252352 METAR KATL 252352Z COR 09014KT 10SM FEW025 BKN040 OVC100 07/M08 A3027 RMK AO2 SLP260 T00671078 10078 20061 58008=
201311252252 METAR KATL 252252Z 09012KT 10SM BKN040 OVC100 07/M07 A3028 RMK AO2 SLP263 T00671072=
201311252152 METAR KATL 252152Z 10010KT 10SM SCT045 BKN100 OVC150 07/M07 A3029 RMK AO2 SLP265 T00721072=
201311252052 METAR KATL 252052Z 10010KT 10SM BKN045 BKN095 BKN150 07/M07 A3030 RMK AO2 SLP267 T00721072 56022=
201311251952 METAR KATL 251952Z 09012G15KT 10SM FEW030 SCT045 BKN140 BKN250 07/M07 A3030 RMK AO2 SLP269 T00721072=
201311251852 METAR KATL 251852Z 10010KT 050V120 10SM FEW027 BKN035 BKN150 BKN250 07/M09 A3033 RMK AO2 SLP278 T00671089=
201311251752 METAR KATL 251752Z 10009KT 10SM BKN027 BKN150 OVC250 06/M11 A3037 RMK AO2 SLP290 T00611111 10061 21017 58024=
201311251652 METAR KATL 251652Z 08013G17KT 10SM BKN027 BKN150 BKN250 06/M12 A3039 RMK AO2 SLP297 T00611122=
201311251622 SPECI KATL 251622Z 09013KT 10SM BKN030 BKN150 BKN250 05/M13 A3041 RMK AO2=
201311251552 METAR KATL 251552Z COR 10012KT 10SM FEW030 SCT120 BKN150 BKN250 04/M14 A3044 RMK AO2 SLP315 T00391139=
201311251452 METAR KATL 251452Z 08013KT 10SM FEW120 BKN150 BKN250 03/M13 A3044 RMK AO2 SLP316 T00281128 55001=
201311251352 METAR KATL 251352Z 09014G19KT 10SM FEW120 SCT150 BKN200 00/M13 A3043 RMK AO2 SLP315 T00001128=
201311251252 METAR KATL 251252Z 09009KT 10SM FEW120 SCT200 M01/M11 A3045 RMK AO2 SLP319 T10111111=
201311251152 METAR KATL 251152Z 09009KT 10SM SCT220 M01/M11 A3044 RMK AO2 SLP319 T10111111 10011 21017 53007=
201311251052 METAR KATL 251052Z 10009KT 10SM BKN220 M01/M11 A3043 RMK AO2 SLP313 T10111106=
201311250952 METAR KATL 250952Z 08010KT 10SM SCT250 M02/M09 A3042 RMK AO2 SLP309 T10171089=
201311250852 METAR KATL 250852Z 09008KT 10SM FEW250 M01/M09 A3042 RMK AO2 SLP309 T10061094 56003=
201311250752 METAR KATL 250752Z 10006KT 10SM FEW250 00/M09 A3043 RMK AO2 SLP310 T00001094=
201311250652 METAR KATL 250652Z 09008KT 10SM FEW180 SCT250 M01/M08 A3042 RMK AO2 SLP309 T10061083=
201311250552 METAR KATL 250552Z 10005KT 10SM FEW180 SCT250 01/M09 A3043 RMK AO2 SLP313 T00111089 10039 21006 53004=
201311250452 METAR KATL 250452Z 09006KT 10SM SCT180 BKN250 00/M08 A3043 RMK AO2 SLP312 T00001083 400891017=
201311250352 METAR KATL 250352Z 05006KT 10SM SCT180 BKN250 02/M09 A3043 RMK AO2 SLP312 T00221094=
201311250252 METAR KATL 250252Z 00000KT 10SM FEW180 SCT250 03/M11 A3042 RMK AO2 SLP310 T00281106 53009=
201311250152 METAR KATL 250152Z 02006KT 10SM SCT180 SCT250 03/M11 A3041 RMK AO2 SLP306 T00281106=
201311250052 METAR KATL 250052Z 35007KT 10SM FEW200 SCT250 03/M11 A3040 RMK AO2 SLP303 T00331106=
201311242352 METAR KATL 242352Z 34008KT 10SM FEW200 SCT250 04/M09 A3039 RMK AO2 SLP302 T00391094 10089 20039 53015=
201311242252 METAR KATL 242252Z 31007KT 10SM FEW200 SCT250 05/M09 A3037 RMK AO2 SLP294 T00501094=
201311242152 METAR KATL 242152Z 01007KT 10SM FEW250 08/M12 A3036 RMK AO2 SLP287 T00831117=
201311242052 METAR KATL 242052Z 35007KT 10SM FEW250 09/M11 A3035 RMK AO2 SLP283 T00891111 55011=
201311241952 METAR KATL 241952Z 36006KT 10SM FEW250 09/M11 A3034 RMK AO2 SLP280 T00891106=
201311241852 METAR KATL 241852Z 34007KT 10SM FEW250 08/M11 A3036 RMK AO2 SLP286 T00831106=
201311241752 METAR KATL 241752Z 01006KT 10SM FEW250 07/M11 A3038 RMK AO2 SLP293 T00671106 10067 21017 58020=
201311241652 METAR KATL 241652Z 02008KT 10SM FEW250 06/M11 A3041 RMK AO2 SLP306 T00561106=
201311241552 METAR KATL 241552Z 36010KT 10SM SCT250 03/M10 A3044 RMK AO2 SLP314 T00331100=
201311241452 METAR KATL 241452Z 34011KT 10SM BKN250 02/M09 A3044 RMK AO2 SLP315 T00171094 53030=
201311241352 METAR KATL 241352Z 34015G20KT 10SM FEW200 BKN250 00/M09 A3042 RMK AO2 SLP307 T00001089=
201311241252 METAR KATL 241252Z COR 33011KT 10SM FEW200 BKN250 M02/M08 A3037 RMK AO2 SLP291 T10171083=
201311241152 METAR KATL 241152Z 33015KT 10SM FEW200 SCT250 M01/M07 A3035 RMK AO2 SLP284 T10111072 10039 21011 53016=
201311241052 METAR KATL 241052Z 34013KT 10SM FEW200 SCT250 M01/M07 A3033 RMK AO2 SLP276 T10061067=
201311240952 METAR KATL 240952Z 33011KT 10SM SCT200 BKN250 00/M07 A3031 RMK AO2 SLP270 T00001067=
201311240852 METAR KATL 240852Z 33014G19KT 10SM BKN250 01/M07 A3030 RMK AO2 SLP267 T00111067 53017=
201311240752 METAR KATL 240752Z 33013G17KT 10SM FEW200 SCT250 02/M07 A3028 RMK AO2 SLP257 T00221067=
201311240652 METAR KATL 240652Z 34010KT 10SM FEW200 SCT250 03/M06 A3026 RMK AO2 SLP250 T00281056=
201311240552 METAR KATL 240552Z 33011KT 10SM FEW150 SCT200 BKN250 04/M04 A3025 RMK AO2 SLP247 T00391044 10094 20039 51002=
201311240452 METAR KATL 240452Z 34009KT 10SM SCT200 BKN250 04/M03 A3025 RMK AO2 SLP246 T00441033 401560044=
201311240352 METAR KATL 240352Z 34012KT 10SM FEW150 SCT200 SCT250 06/M02 A3025 RMK AO2 SLP247 T00561022=
201311240252 METAR KATL 240252Z 33015KT 10SM FEW150 BKN200 BKN250 07/M03 A3024 RMK AO2 SLP244 T00671028 51010=
201311240152 METAR KATL 240152Z 33016G25KT 10SM FEW200 SCT250 08/M02 A3023 RMK AO2 SLP240 T00781017=
201311240052 METAR KATL 240052Z 34016KT 10SM FEW100 SCT140 SCT200 BKN250 09/M01 A3023 RMK AO2 PK WND 33026/0023 SLP237 T00891006=
201311232352 METAR KATL 232352Z 33013G20KT 10SM FEW110 BKN140 BKN200 BKN250 09/00 A3021 RMK AO2 SLP232 T00940000 10150 20094 51015=
201311232252 METAR KATL 232252Z 33012G19KT 10SM BKN110 BKN150 BKN200 OVC250 10/02 A3020 RMK AO2 SLP229 VIRGA DSNT W-NW T01000022 $=
201311232152 METAR KATL 232152Z 33014G20KT 10SM SCT120 BKN160 11/03 A3019 RMK AO2 SLP222 T01060033 $=
201311232052 METAR KATL 232052Z 34015KT 10SM BKN100 BKN150 12/04 A3017 RMK AO2 SLP214 T01170044 55001 $=
201311231952 METAR KATL 231952Z 32011G20KT 10SM BKN080 BKN120 12/06 A3015 RMK AO2 SLP210 T01170056 $=
201311231852 METAR KATL 231852Z 32013KT 10SM SCT110 13/07 A3015 RMK AO2 SLP208 T01330067 $=
201311231752 METAR KATL 231752Z 34011G18KT 10SM FEW018 BKN100 13/08 A3017 RMK AO2 SLP214 T01330083 10144 20117 58015 $=
201311231652 METAR KATL 231652Z 33015G22KT 10SM SCT016 BKN120 13/08 A3019 RMK AO2 SLP222 T01330083 $=
201311231645 SPECI KATL 231645Z 33017G22KT 10SM SCT014 BKN120 14/09 A3019 RMK AO2 $=
201311231552 METAR KATL 231552Z 33012KT 10SM BKN014 OVC150 12/09 A3021 RMK AO2 SLP230 T01220089 $=
201311231542 SPECI KATL 231542Z 34013KT 10SM OVC012 12/09 A3021 RMK AO2 $=
201311231452 METAR KATL 231452Z 32010G18KT 10SM OVC008 12/11 A3021 RMK AO2 SLP231 T01220106 51020 $=
201311231352 METAR KATL 231352Z 31010G20KT 6SM BR OVC006 12/11 A3019 RMK AO2 SLP223 T01170106 $=
201311231344 SPECI KATL 231344Z 33011KT 6SM BR OVC006 12/11 A3020 RMK AO2 $=
201311231307 SPECI KATL 231307Z 31010KT 2SM BR OVC005 12/11 A3018 RMK AO2 SFC VIS 6 $=
201311231252 METAR KATL 231252Z 32013G20KT 2SM BR OVC004 12/11 A3018 RMK AO2 SFC VIS 5 SLP216 T01170106 $=
201311231152 METAR KATL 231152Z 33009KT 2SM BR OVC004 13/12 A3015 RMK AO2 SFC VIS 5 SLP209 70009 T01280117 10156 20128 55001 $=
201311231052 METAR KATL 231052Z 32010KT 2SM BR OVC004 13/12 A3015 RMK AO2 SFC VIS 4 SLP206 CIG 003V006 TWRINC T01330122 $=
201311231019 SPECI KATL 231019Z 33005KT 2SM BR OVC004 14/13 A3014 RMK AO2 SFC VIS 4 TWRINC $=
201311230952 METAR KATL 230952Z 32010KT 2SM BR OVC005 14/13 A3014 RMK AO2 SFC VIS 5 SLP204 CIG 004V006 TWRINC T01440133 $=
201311230852 METAR KATL 230852Z 33007KT 2SM BR BKN005 OVC012 15/14 A3016 RMK AO2 SFC VIS 4 SLP209 T01500139 58004 $=
201311230752 METAR KATL 230752Z 33006KT 2SM BR OVC006 16/14 A3017 RMK AO2 SFC VIS 5 SLP214 CIG 005V007 T01560144 $=
201311230735 SPECI KATL 230735Z 32006KT 2SM BR OVC005 16/15 A3016 RMK AO2 SFC VIS 4 CIG 004V007 $=
201311230652 METAR KATL 230652Z 32007KT 2SM BR OVC004 16/15 A3017 RMK AO2 SFC VIS 4 SLP213 CIG 003V006 T01560150 $=
201311230613 SPECI KATL 230613Z 31005KT 2SM BR OVC004 16/15 A3017 RMK AO2 SFC VIS 4 CIG 003V005 $=
201311230552 METAR KATL 230552Z 34003KT 2SM BR SCT003 BKN006 OVC050 16/15 A3017 RMK AO2 SFC VIS 4 RAB10E52 SLP214 P0000 60009 T01560150 10172 20156 58012 $=
201311230535 SPECI KATL 230535Z 32004KT 2SM -RA BR SCT002 BKN005 OVC050 16/15 A3017 RMK AO2 RAB10 P0000 $=
201311230510 SPECI KATL 230510Z 32007KT 2SM -RA BR SCT003 BKN015 OVC030 16/15 A3018 RMK AO2 SFC VIS 3 RAB10 P0000 $=
201311230452 METAR KATL 230452Z 31006KT 6SM BR FEW004 BKN016 OVC025 16/15 A3019 RMK AO2 RAE40 SLP222 P0001 T01560150 401780106 $=
201311230352 METAR KATL 230352Z 00000KT 3SM -RA BR FEW004 BKN020 OVC040 16/15 A3019 RMK AO2 SLP222 P0005 T01560150 $=
201311230327 SPECI KATL 230327Z 00000KT 3SM -RA BR FEW004 BKN020 OVC040 16/15 A3020 RMK AO2 P0004 $=
201311230252 METAR KATL 230252Z 32006KT 2 1/2SM RA BR OVC016 16/14 A3020 RMK AO2 RAB29 SLP227 P0003 60003 T01560144 55001 $=
201311230207 SPECI KATL 230207Z 00000KT 10SM BKN020 BKN038 OVC080 17/14 A3019 RMK AO2 $=
201311230152 METAR KATL 230152Z 00000KT 10SM FEW025 BKN038 OVC110 17/14 A3019 RMK AO2 SLP222 T01670139 $=
201311230116 SPECI KATL 230116Z 00000KT 10SM SCT027 BKN045 OVC080 17/14 A3019 RMK AO2 $=
201311230052 METAR KATL 230052Z 00000KT 10SM BKN026 OVC080 17/14 A3019 RMK AO2 SLP224 T01670139 $=
201311222352 METAR KATL 222352Z 00000KT 10SM FEW020 BKN025 OVC090 17/14 A3021 RMK AO2 SLP228 T01720139 10178 20150 56006=
201311222252 METAR KATL 222252Z 00000KT 10SM BKN026 BKN120 BKN250 17/14 A3021 RMK AO2 SLP227 T01720139=
201311222245 SPECI KATL 222245Z 00000KT 10SM BKN024 BKN120 BKN250 17/13 A3021 RMK AO2=
201311222152 METAR KATL 222152Z 16004KT 10SM FEW090 SCT120 BKN250 17/13 A3020 RMK AO2 SLP224 T01720133=
201311222052 METAR KATL 222052Z 18003KT 8SM FEW025 BKN030 BKN090 18/13 A3022 RMK AO2 SLP233 T01780133 56020=
201311222029 SPECI KATL 222029Z 15003KT 8SM FEW020 BKN030 BKN090 17/13 A3023 RMK AO2=
201311221952 METAR KATL 221952Z VRB03KT 8SM FEW014 BKN018 OVC024 17/13 A3024 RMK AO2 SLP238 T01720128=
201311221912 SPECI KATL 221912Z 00000KT 6SM HZ FEW012 BKN018 OVC020 17/13 A3025 RMK AO2=
201311221852 METAR KATL 221852Z 00000KT 6SM HZ BKN012 BKN018 OVC020 17/13 A3026 RMK AO2 SLP246 T01670128=
201311221752 METAR KATL 221752Z 00000KT 3SM HZ OVC010 15/12 A3029 RMK AO2 SFC VIS 6 SLP255 60000 T01500122 10156 20106 58011=
201311221739 SPECI KATL 221739Z 00000KT 3SM HZ OVC010 15/12 A3029 RMK AO2 SFC VIS 6=
201311221707 SPECI KATL 221707Z 00000KT 3SM HZ OVC008 15/12 A3031 RMK AO2 SFC VIS 6=
201311221652 METAR KATL 221652Z 00000KT 2SM HZ OVC006 14/12 A3031 RMK AO2 SFC VIS 5 SLP263 T01440117=
201311221627 SPECI KATL 221627Z 15004KT 2SM BR OVC006 14/12 A3031 RMK AO2 SFC VIS 5=
201311221552 METAR KATL 221552Z 12003KT 1 1/2SM BR OVC005 13/11 A3033 RMK AO2 SFC VIS 4 SLP271 T01280111=
201311221541 SPECI KATL 221541Z 11003KT 1 1/2SM BR OVC005 13/11 A3033 RMK AO2 SFC VIS 4=
201311221452 METAR KATL 221452Z 11004KT 1/2SM BR OVC004 12/11 A3032 RMK AO2 SFC VIS 3 SLP268 60000 T01220111 51001=
201311221352 METAR KATL 221352Z 11005KT 1/4SM BR OVC003 11/11 A3032 RMK AO2 SFC VIS 1 1/2 SLP267 CIG 002V004 TWRINC T01110106=
201311221252 METAR KATL 221252Z 09004KT 1/4SM R09R/2600V5500FT FG VV002 11/11 A3032 RMK AO2 SFC VIS 1/2 DZE38 SLP269 P0000 T01110106=
201311221152 METAR KATL 221152Z 10007KT 1/4SM R09R/3500V4500FT -DZ BR VV002 11/10 A3032 RMK AO2 SFC VIS 3/4 DZB49 SLP267 PCPN VRY LGT P0000 60000 T01060100 10111 20106 56005=
201311221052 METAR KATL 221052Z 02004KT 1/2SM BR OVC003 11/10 A3033 RMK AO2 SFC VIS 2 SLP269 CIG 002V004 TWRINC T01110100=
201311221029 SPECI KATL 221029Z 09005KT 1SM BR OVC004 11/09 A3031 RMK AO2 SFC VIS 3 CIG 003V005=
201311221018 SPECI KATL 221018Z 09007KT 2SM BR OVC005 11/09 A3031 RMK AO2 SFC VIS 4 CIG 004V006=
201311220952 METAR KATL 220952Z 08006KT 6SM BR OVC006 11/09 A3032 RMK AO2 SLP267 CIG 005V007 T01110094=
201311220852 METAR KATL 220852Z 07006KT 7SM OVC006 11/09 A3033 RMK AO2 SLP271 CIG 005V007 T01110094 56003=
201311220752 METAR KATL 220752Z 08007KT 10SM OVC009 11/09 A3034 RMK AO2 SLP273 CIG 008V010 T01110089=
201311220652 METAR KATL 220652Z 08007KT 10SM OVC010 11/09 A3033 RMK AO2 SLP271 CIG 008V012 T01110089=
201311220649 SPECI KATL 220649Z 08008KT 10SM OVC010 11/09 A3033 RMK AO2 CIG 008V012=
201311220615 SPECI KATL 220615Z 10007KT 10SM OVC008 11/09 A3033 RMK AO2 CIG 007V009=
201311220552 METAR KATL 220552Z 09010KT 10SM OVC010 11/08 A3034 RMK AO2 SLP274 60000 T01110083 10117 20111 58007=
201311220521 SPECI KATL 220521Z 09006KT 10SM OVC011 11/08 A3035 RMK AO2=
201311220452 METAR KATL 220452Z 09007KT 10SM OVC009 11/08 A3036 RMK AO2 SLP281 T01110083 401500094=
201311220410 SPECI KATL 220410Z 09007KT 10SM OVC012 11/08 A3037 RMK AO2=
201311220352 METAR KATL 220352Z 09008KT 10SM OVC009 11/09 A3037 RMK AO2 SLP284 T01110089=
201311220252 METAR KATL 220252Z 09008KT 9SM OVC009 11/09 A3036 RMK AO2 SLP282 60000 T01110089 53008=
201311220152 METAR KATL 220152Z 09007KT 10SM OVC011 11/08 A3035 RMK AO2 SLP279 T01110083=
201311220052 METAR KATL 220052Z 08010KT 10SM OVC013 12/08 A3034 RMK AO2 RAE05 SLP277 P0000 T01170083=
201311212352 METAR KATL 212352Z 09010KT 10SM -RA BKN013 OVC060 12/08 A3034 RMK AO2 RAB02E27B47 SLP274 PCPN VRY LGT P0000 60000 T01170083 10144 20117 53007=
201311212252 METAR KATL 212252Z 07011KT 10SM OVC017 13/08 A3033 RMK AO2 SLP272 T01280078=
201311212152 METAR KATL 212152Z 10008KT 10SM BKN015 BKN050 13/07 A3031 RMK AO2 SLP265 VIRGA DSNT SE-S-SW T01280072=
201311212052 METAR KATL 212052Z 09009KT 10SM OVC017 13/07 A3032 RMK AO2 SLP267 VIRGA SE-S-SW T01330072 55010=
201311211952 METAR KATL 211952Z 08007KT 10SM OVC015 13/07 A3031 RMK AO2 SLP266 VIRGA DSNT SE-S T01330072=
201311211852 METAR KATL 211852Z 08009KT 10SM BKN015 14/07 A3032 RMK AO2 SLP267 VIRGA DSNT SE-S-SW T01390072=
201311211752 METAR KATL 211752Z 07008KT 10SM BKN017 14/07 A3035 RMK AO2 SLP277 T01440067 10150 20094 58014=
201311211652 METAR KATL 211652Z 08011KT 10SM BKN017 13/06 A3037 RMK AO2 SLP285 T01330061=
201311211552 METAR KATL 211552Z 09009KT 10SM OVC015 12/06 A3039 RMK AO2 SLP293 T01170056=
201311211452 METAR KATL 211452Z 08013KT 10SM OVC015 11/05 A3039 RMK AO2 SLP292 T01060050 53015=
201311211352 METAR KATL 211352Z 09012KT 10SM OVC015 10/04 A3037 RMK AO2 SLP286 T01000039=
201311211252 METAR KATL 211252Z 08013KT 10SM OVC015 09/03 A3035 RMK AO2 SLP280 T00940033=
201311211152 METAR KATL 211152Z 09011KT 10SM OVC017 09/03 A3034 RMK AO2 SLP276 60000 T00940033 10100 20094 53004=
201311211052 METAR KATL 211052Z 07014KT 10SM OVC017 09/03 A3033 RMK AO2 SLP271 T00940033=
201311210952 METAR KATL 210952Z 09011KT 10SM OVC017 09/03 A3032 RMK AO2 SLP270 T00940033=
201311210852 METAR KATL 210852Z 09012KT 10SM OVC021 09/03 A3033 RMK AO2 RAB29E52 SLP271 P0000 60000 T00940033 53001=
201311210752 METAR KATL 210752Z 08013KT 10SM OVC021 10/02 A3033 RMK AO2 SLP272 T01000022=
201311210652 METAR KATL 210652Z 08013KT 10SM OVC021 10/02 A3032 RMK AO2 SLP268 T01000022=
201311210552 METAR KATL 210552Z 08011KT 10SM OVC023 09/03 A3032 RMK AO2 RAB22E40 SLP270 P0000 60000 T00940033 10111 20094 50004=
201311210452 METAR KATL 210452Z 09011KT 10SM OVC023 11/01 A3033 RMK AO2 SLP270 T01060006 401390050=
201311210352 METAR KATL 210352Z 09010G17KT 10SM OVC024 11/01 A3032 RMK AO2 SLP270 T01060006=
201311210252 METAR KATL 210252Z 10011KT 10SM OVC024 11/00 A3031 RMK AO2 SLP267 T01060000 51013=
201311210152 METAR KATL 210152Z 09015G19KT 10SM OVC025 11/M01 A3031 RMK AO2 SLP266 T01061006=
201311210052 METAR KATL 210052Z 09016G19KT 10SM BKN025 OVC035 11/M01 A3029 RMK AO2 SLP259 T01111006=
201311202352 METAR KATL 202352Z 10009KT 10SM BKN026 OVC035 11/M01 A3027 RMK AO2 SLP255 T01111006 10139 20111 53016=
201311202252 METAR KATL 202252Z 10010KT 10SM BKN028 BKN035 BKN060 12/00 A3026 RMK AO2 SLP249 T01170000=
201311202152 METAR KATL 202152Z 09014KT 10SM BKN040 BKN060 12/00 A3024 RMK AO2 SLP242 T01220000=
201311202052 METAR KATL 202052Z 08013KT 10SM SCT039 BKN055 13/01 A3022 RMK AO2 SLP237 T01280006 56012=
201311201952 METAR KATL 201952Z 09013KT 10SM BKN044 13/00 A3023 RMK AO2 SLP237 T01280000=
201311201852 METAR KATL 201852Z 08012KT 10SM BKN040 BKN050 BKN250 13/M01 A3024 RMK AO2 SLP243 T01281006=
201311201752 METAR KATL 201752Z 08013KT 10SM SCT046 13/M01 A3026 RMK AO2 SLP249 T01281011 10128 20050 58013=
201311201652 METAR KATL 201652Z 09015G22KT 10SM SCT046 11/M02 A3029 RMK AO2 SLP258 T01111017=
201311201552 METAR KATL 201552Z 08014G23KT 10SM BKN045 10/M01 A3030 RMK AO2 SLP263 T01001011=
201311201452 METAR KATL 201452Z 08016G24KT 10SM SCT045 09/M01 A3030 RMK AO2 SLP262 T00891011 51020=
201311201352 METAR KATL 201352Z 08014G20KT 10SM FEW050 07/M02 A3029 RMK AO2 SLP259 T00721017=
201311201252 METAR KATL 201252Z 08013KT 10SM FEW050 06/M02 A3026 RMK AO2 SLP251 T00561017=
201311201152 METAR KATL 201152Z 08015KT 10SM CLR 05/M02 A3024 RMK AO2 SLP243 T00501022 10067 20050 51017=
201311201052 METAR KATL 201052Z 07014KT 10SM CLR 06/M03 A3022 RMK AO2 SLP237 T00561028=
201311200952 METAR KATL 200952Z 08013KT 10SM CLR 06/M03 A3020 RMK AO2 SLP230 T00561028=
201311200852 METAR KATL 200852Z 08011KT 10SM CLR 06/M03 A3019 RMK AO2 SLP223 T00561028 53006=
201311200752 METAR KATL 200752Z 09011KT 10SM CLR 06/M03 A3018 RMK AO2 SLP221 T00611033=
201311200652 METAR KATL 200652Z 09008KT 10SM CLR 06/M03 A3017 RMK AO2 SLP218 T00561028=
201311200552 METAR KATL 200552Z 09008KT 10SM FEW200 06/M03 A3017 RMK AO2 SLP217 T00611028 10128 20061 53002=
201311200452 METAR KATL 200452Z 09008KT 10SM FEW200 08/M03 A3016 RMK AO2 SLP215 T00831028 401610050=
201311200352 METAR KATL 200352Z 10008KT 10SM BKN180 BKN250 09/M02 A3016 RMK AO2 SLP213 T00941022=
201311200252 METAR KATL 200252Z 08009KT 10SM BKN180 BKN250 10/M01 A3016 RMK AO2 SLP215 T01001011 53011=
201311200152 METAR KATL 200152Z 08011KT 10SM BKN200 BKN250 10/M01 A3013 RMK AO2 SLP206 T01001006=
201311200052 METAR KATL 200052Z 07009KT 10SM SCT200 BKN250 12/M01 A3014 RMK AO2 SLP209 T01221011=
201311192352 METAR KATL 192352Z 07007KT 10SM FEW150 SCT200 11/M01 A3013 RMK AO2 SLP205 T01061006 10161 20106 53017=
201311192252 METAR KATL 192252Z 10006KT 10SM FEW150 SCT200 12/M01 A3010 RMK AO2 SLP196 T01221006=
201311192152 METAR KATL 192152Z 10007KT 10SM FEW150 SCT180 SCT220 14/M01 A3008 RMK AO2 SLP188 T01441006=
201311192052 METAR KATL 192052Z 13004KT 10SM FEW150 SCT180 BKN220 15/M01 A3008 RMK AO2 SLP186 VIRGA NW-N-NE T01501006 56010=
201311191952 METAR KATL 191952Z 04004KT 10SM FEW150 BKN200 BKN230 15/M01 A3008 RMK AO2 SLP185 T01501006=
201311191852 METAR KATL 191852Z VRB03KT 10SM FEW150 SCT180 BKN220 16/M01 A3010 RMK AO2 SLP192 T01561006=
201311191752 METAR KATL 191752Z 11006KT 10SM FEW150 SCT250 14/M01 A3011 RMK AO2 SLP195 T01441006 10150 20050 58012=
201311191652 METAR KATL 191652Z 07003KT 10SM FEW150 SCT250 13/M01 A3014 RMK AO2 SLP206 T01331011=
201311191552 METAR KATL 191552Z 09006KT 10SM FEW150 SCT200 SCT250 12/M02 A3015 RMK AO2 SLP208 T01221017=
201311191452 METAR KATL 191452Z 05007KT 10SM FEW200 BKN250 11/M02 A3014 RMK AO2 SLP209 T01061017 52020=
201311191352 METAR KATL 191352Z 35006KT 10SM SCT250 08/M01 A3012 RMK AO2 SLP201 T00781011=
201311191252 METAR KATL 191252Z 33006KT 10SM SCT250 06/M01 A3011 RMK AO2 SLP197 T00561011=
201311191152 METAR KATL 191152Z 33008KT 10SM SCT250 06/M01 A3008 RMK AO2 SLP188 T00561011 10106 20056 51013=
201311191052 METAR KATL 191052Z 34007KT 10SM FEW250 07/M01 A3007 RMK AO2 SLP181 T00671011 $=
201311190952 METAR KATL 190952Z 33006KT 10SM FEW250 07/M01 A3006 RMK AO2 SLP181 T00671011 $=
201311190852 METAR KATL 190852Z 33010KT 10SM SCT250 08/M01 A3005 RMK AO2 SLP173 T00781011 55000 $=
201311190752 METAR KATL 190752Z 34010KT 10SM BKN250 09/M01 A3005 RMK AO2 SLP172 T00891011 $=
201311190652 METAR KATL 190652Z 34015G19KT 10SM BKN250 10/M02 A3003 RMK AO2 SLP167 T01001017 $=
201311190552 METAR KATL 190552Z 34011KT 10SM BKN250 11/M01 A3005 RMK AO2 SLP171 T01061006 10161 20106 56005 $=
201311190452 METAR KATL 190452Z 35014G21KT 10SM SCT250 11/01 A3005 RMK AO2 SLP172 T01110006 402220111=
201311190352 METAR KATL 190352Z 34019G23KT 10SM FEW250 12/01 A3005 RMK AO2 SLP172 T01170006=
201311190252 METAR KATL 190252Z 34013G18KT 10SM FEW250 13/01 A3006 RMK AO2 SLP177 T01280006 51010=
201311190152 METAR KATL 190152Z 34011KT 10SM FEW250 14/M01 A3006 RMK AO2 SLP174 T01391006=
201311190052 METAR KATL 190052Z 33009KT 10SM SCT250 14/00 A3005 RMK AO2 SLP172 T01440000=
201311182352 METAR KATL 182352Z 34007KT 10SM BKN250 16/M01 A3003 RMK AO2 SLP166 T01611006 10222 20156 53009=
201311182252 METAR KATL 182252Z 33009KT 10SM FEW200 BKN250 17/M01 A3002 RMK AO2 SLP162 T01721006=
201311182152 METAR KATL 182152Z 34012KT 10SM FEW200 BKN250 19/M01 A3001 RMK AO2 SLP156 T01891006=
201311182052 METAR KATL 182052Z 32015G19KT 10SM FEW070 SCT200 BKN250 20/01 A3000 RMK AO2 SLP153 T02000006 53002=
201311181952 METAR KATL 181952Z 32013G22KT 10SM FEW065 SCT200 BKN250 21/03 A2999 RMK AO2 SLP149 T02110028=
201311181852 METAR KATL 181852Z 31016G21KT 10SM BKN250 22/02 A3000 RMK AO2 SLP151 T02170022=
201311181752 METAR KATL 181752Z 31014G20KT 10SM SCT250 22/06 A3000 RMK AO2 SLP151 T02170061 10222 20156 55002=
201311181652 METAR KATL 181652Z 29007KT 10SM FEW250 22/08 A2999 RMK AO2 SLP148 T02170083=
201311181552 METAR KATL 181552Z 32004KT 10SM FEW200 21/08 A3001 RMK AO2 SLP154 T02060083=
201311181452 METAR KATL 181452Z 32006KT 10SM FEW070 SCT200 19/09 A3000 RMK AO2 SLP154 T01940094 51011=
201311181352 METAR KATL 181352Z 33006KT 10SM FEW095 18/12 A2999 RMK AO2 SLP152 T01780117=
201311181252 METAR KATL 181252Z 32007KT 10SM FEW050 SCT095 16/13 A2998 RMK AO2 SLP149 T01560128=
201311181152 METAR KATL 181152Z 33010KT 10SM SCT050 BKN070 17/13 A2997 RMK AO2 RAE02 SLP143 P0000 60000 70004 T01670133 10211 20161 51016=
201311181052 METAR KATL 181052Z 30006KT 10SM -RA SCT038 BKN047 OVC080 17/14 A2997 RMK AO2 WSHFT 0942 RAE0957B39 SLP143 P0000 T01720144 $=
201311180959 SPECI KATL 180959Z 34011G18KT 10SM FEW020 SCT035 BKN055 18/14 A2994 RMK AO2 WSHFT 0942 RAE57 P0000 $=
201311180952 METAR KATL 180952Z 34013G23KT 9SM -RA SCT020 BKN049 BKN075 19/14 A2994 RMK AO2 RAB44 SLP131 P0000 T01890144 $=
201311180903 SPECI KATL 180903Z 26008KT 6SM BR BKN008 BKN017 BKN034 21/20 A2992 RMK AO2 $=
201311180852 METAR KATL 180852Z 25007KT 7SM SCT008 BKN017 BKN034 21/20 A2992 RMK AO2 SLP126 T02110200 56012 $=
201311180846 SPECI KATL 180846Z 24007KT 7SM SCT008 BKN021 BKN034 21/20 A2992 RMK AO2 $=
201311180752 METAR KATL 180752Z 24006KT 7SM OVC008 21/20 A2992 RMK AO2 SLP127 CIG 006V010 T02110200 $=
201311180652 METAR KATL 180652Z 23007KT 7SM BKN006 OVC012 21/20 A2994 RMK AO2 SLP131 CIG 005V008 T02110200 $=
201311180552 METAR KATL 180552Z 24008KT 8SM OVC005 21/20 A2996 RMK AO2 RAE0458 SLP139 CIG 004V006 P0000 60001 T02060200 10206 20194 58005 $=
201311180452 METAR KATL 180452Z 23006KT 8SM -RA BKN006 BKN011 OVC032 21/19 A2997 RMK AO2 RAB14 SLP142 CIG 005V007 P0001 T02060194 402060150 $=
201311180352 METAR KATL 180352Z 23005KT 7SM OVC005 20/19 A2998 RMK AO2 SLP145 CIG 004V006 T02000194 $=
201311180252 METAR KATL 180252Z 22004KT 7SM BKN005 OVC012 20/19 A2997 RMK AO2 DZE48 SLP144 CIG 004V007 P0000 60000 T02000194 58000 $=
201311180152 METAR KATL 180152Z 21006KT 5SM -DZ BR OVC005 20/19 A2997 RMK AO2 RAE13DZB38 SLP146 CIG 004V007 PCPN VRY LGT P0000 T02000194 $=
201311180118 SPECI KATL 180118Z 21008KT 8SM OVC008 20/19 A2997 RMK AO2 RAE13 CIG 006V010 P0000 $=
201311180052 METAR KATL 180052Z 20006KT 2SM -RA OVC005 20/19 A2997 RMK AO2 SFC VIS 7 DZE50RAB50 SLP145 CIG 004V007 PCPN VRY LGT P0000 T02000189 $=
201311172352 METAR KATL 172352Z 21007KT 2SM -DZ BR OVC004 19/19 A2997 RMK AO2 SLP145 CIG 003V006 P0000 60000 T01940189 10194 20172 53007 $=
201311172349 SPECI KATL 172349Z 20007KT 2SM -DZ BR OVC004 19/19 A2997 RMK AO2 CIG 003V006 P0000 60000 $=
201311172252 METAR KATL 172252Z 20008KT 1/2SM -DZ BR OVC004 19/18 A2996 RMK AO2 SFC VIS 3 SLP140 CIG 003V005 TWRINC PCPN VRY LGT P0000 T01890183 $=
201311172152 METAR KATL 172152Z 18008KT 1/2SM -DZ BR OVC004 19/18 A2996 RMK AO2 SFC VIS 1 3/4 DZB42 SLP139 CIG 003V005 TWRINC P0000 T01890183 $=
201311172052 METAR KATL 172052Z COR 18009KT 3/4SM BR OVC003 19/18 A2995 RMK AO2 SFC VIS 4 SLP137 60000 T01890178 58022 $=
201311171952 METAR KATL 171952Z 18008KT 1/2SM BR OVC003 18/18 A2997 RMK AO2 SFC VIS 2 RAB20E42 SLP146 P0000 T01830178 $=
201311171852 METAR KATL 171852Z 16007KT 1/2SM R09R/P6000FT BR OVC002 18/17 A3001 RMK AO2 SFC VIS 1 RAE37 SLP158 P0000 T01780172 $=
201311171752 METAR KATL 171752Z 15008KT 1/2SM R09R/4500VP6000FT -RA BR OVC002 17/17 A3002 RMK AO2 SFC VIS 1 RAB1655E21B37 SLP162 P0003 60003 T01720167 10172 20156 58020 $=
201311171652 METAR KATL 171652Z 13006KT 1/2SM R09R/5000V6000FT BR OVC002 17/16 A3005 RMK AO2 SFC VIS 1 SLP174 T01670161 $=
201311171611 SPECI KATL 171611Z 13009KT 1/2SM R09R/5000VP6000FT BR OVC004 17/16 A3006 RMK AO2 SFC VIS 1 1/2 $=
201311171552 METAR KATL 171552Z 13006KT 1 1/4SM BR OVC004 17/16 A3007 RMK AO2 SFC VIS 4 SLP180 T01670156 $=
201311171503 SPECI KATL 171503Z 13008KT 1 1/4SM BR OVC004 16/15 A3006 RMK AO2 SFC VIS 2 PRESFR $=
201311171452 METAR KATL 171452Z 12007KT 2SM BR OVC006 16/15 A3008 RMK AO2 SFC VIS 6 SLP182 60000 T01610150 58000 $=
201311171357 SPECI KATL 171357Z 13006KT 2SM BR OVC006 16/14 A3008 RMK AO2 SFC VIS 4 $=
201311171352 METAR KATL 171352Z 13006KT 1 1/2SM BR OVC006 16/14 A3008 RMK AO2 SFC VIS 3 RAB38E48 SLP185 CIG 005V008 P0000 T01560144 $=
201311171342 SPECI KATL 171342Z 12007KT 1 1/2SM -RA BR OVC006 16/14 A3009 RMK AO2 SFC VIS 2 RAB38 P0000 $=
201311171252 METAR KATL 171252Z 12006KT 2SM BR OVC007 16/14 A3008 RMK AO2 SFC VIS 4 SLP182 DZB17E36RAE17 CIG 006V008 P0000 T01560144 $=
201311171212 SPECI KATL 171212Z 13004KT 2SM -RA BR BKN007 BKN028 OVC040 16/14 A3008 RMK AO2 SFC VIS 4 CIG 006V009 P0000 $=
201311171152 METAR KATL 171152Z COR 12005KT 6SM -RA BR BKN008 OVC033 16/14 A3008 RMK AO2 RAB47 SLP183 PCPN VRY LGT P0000 60000 T01560139 10156 20156 56008 $=
201311171112 SPECI KATL 171112Z 11005KT 8SM BKN009 OVC042 16/14 A3009 RMK AO2 $=
201311171052 METAR KATL 171052Z 10005KT 8SM FEW012 SCT023 OVC042 16/14 A3009 RMK AO2 SLP186 T01560139=
201311170952 METAR KATL 170952Z 10004KT 9SM FEW030 OVC044 16/14 A3009 RMK AO2 SLP187 T01560139=
201311170852 METAR KATL 170852Z 10003KT 9SM FEW034 OVC042 16/13 A3011 RMK AO2 SLP191 T01560133 56018=
201311170752 METAR KATL 170752Z 13005KT 10SM FEW034 OVC042 16/13 A3011 RMK AO2 SLP193 T01560133=
201311170652 METAR KATL 170652Z 12005KT 10SM FEW034 OVC042 16/13 A3013 RMK AO2 SLP199 T01560133=
201311170552 METAR KATL 170552Z 08007KT 10SM SCT034 OVC044 16/13 A3016 RMK AO2 SLP211 T01560133 10161 20150 56009=
201311170452 METAR KATL 170452Z 08006KT 10SM SCT032 OVC042 16/13 A3018 RMK AO2 SLP217 T01560133 401940083=
201311170352 METAR KATL 170352Z 11005KT 10SM SCT030 OVC042 16/13 A3017 RMK AO2 SLP216 T01560133=
201311170252 METAR KATL 170252Z 08007KT 10SM FEW017 SCT028 OVC042 16/13 A3019 RMK AO2 SLP222 T01560133 53008=
201311170152 METAR KATL 170152Z 09009KT 10SM FEW018 SCT024 OVC036 16/13 A3017 RMK AO2 SLP216 T01560133=
201311170119 SPECI KATL 170119Z 14004KT 10SM SCT021 OVC034 16/13 A3017 RMK AO2=
201311170052 METAR KATL 170052Z 13005KT 10SM BKN021 OVC034 16/13 A3017 RMK AO2 SLP216 CIG 018V024 T01610133=
201311162352 METAR KATL 162352Z 11006KT 10SM BKN020 BKN200 OVC250 16/13 A3016 RMK AO2 SLP214 T01610128 10194 20161 53008=
201311162252 METAR KATL 162252Z 10006KT 10SM BKN024 BKN200 BKN250 17/13 A3014 RMK AO2 SLP206 T01720128=
201311162159 SPECI KATL 162159Z 11006KT 10SM BKN025 BKN040 BKN250 18/13 A3014 RMK AO2=
201311162152 METAR KATL 162152Z 11009KT 10SM SCT025 BKN040 BKN250 18/13 A3014 RMK AO2 SLP206 T01780128=
201311162145 SPECI KATL 162145Z 11007KT 10SM SCT025 BKN040 BKN250 18/13 A3014 RMK AO2=
201311162115 SPECI KATL 162115Z 11008KT 10SM BKN025 BKN030 BKN250 18/13 A3014 RMK AO2=
201311162052 METAR KATL 162052Z 13007KT 10SM SCT025 SCT031 BKN250 18/13 A3014 RMK AO2 SLP205 T01830133 55006=
201311162048 SPECI KATL 162048Z 12007KT 10SM SCT025 BKN250 18/13 A3014 RMK AO2 SCT025 V BKN=
201311161959 SPECI KATL 161959Z 11006KT 10SM BKN025 BKN250 19/13 A3013 RMK AO2 BKN025 V SCT=
201311161952 METAR KATL 161952Z 11009KT 10SM SCT024 BKN250 19/13 A3013 RMK AO2 SLP202 SCT024 V BKN T01890128=
201311161938 SPECI KATL 161938Z 11006KT 10SM SCT024 18/13 A3013 RMK AO2=
201311161852 METAR KATL 161852Z 13007KT 10SM SCT019 BKN025 18/13 A3016 RMK AO2 SLP211 T01780128=
201311161752 METAR KATL 161752Z 13006KT 7SM SCT009 OVC023 16/13 A3018 RMK AO2 SLP221 T01610128 10161 20100 58018=
201311161744 SPECI KATL 161744Z 11007KT 7SM BKN009 OVC023 16/13 A3019 RMK AO2=
201311161722 SPECI KATL 161722Z 11005KT 2 1/2SM BR OVC007 15/13 A3020 RMK AO2 SFC VIS 5=
201311161652 METAR KATL 161652Z 09006KT 1 1/2SM BR OVC005 14/13 A3021 RMK AO2 SFC VIS 4 SLP232 T01440128=
201311161642 SPECI KATL 161642Z 10006KT 1 1/2SM BR OVC005 13/12 A3022 RMK AO2 SFC VIS 4=
201311161624 SPECI KATL 161624Z 11006KT 1 1/2SM BR OVC003 13/13 A3022 RMK AO2 SFC VIS 3=
201311161552 METAR KATL 161552Z 10006KT 1/4SM BR OVC003 12/12 A3023 RMK AO2 SFC VIS 3 SLP236 TWRINC T01220122=
201311161452 METAR KATL 161452Z 11005KT 1/4SM R09R/5500VP6000FT BR OVC002 12/12 A3024 RMK AO2 SFC VIS 1 SLP240 T01170117 53014=
201311161435 SPECI KATL 161435Z 11005KT 1/4SM R09R/2000V4000FT FG VV002 12/11 A3023 RMK AO2=
201311161428 SPECI KATL 161428Z 11005KT 1/4SM R09R/1600V2200FT FG VV002 12/11 A3023 RMK AO2 TWR VIS 1/4=
201311161415 SPECI KATL 161415Z 10006KT 1/8SM R09R/1200V1400FT FG VV002 11/11 A3023 RMK AO2 TWR VIS 1/4=
201311161400 SPECI KATL 161400Z 09007KT 1/4SM R09R/1200V1400FT FG VV002 11/11 A3023 RMK AO2 TWR VIS 1/4=
201311161352 METAR KATL 161352Z 08007KT 1/8SM R09R/1000V1200FT FG VV002 11/11 A3023 RMK AO2 TWR VIS 1/4 SLP236 T01110106=
201311161344 SPECI KATL 161344Z 08007KT 1/8SM R09R/1000V1200FT FG VV002 11/11 A3022 RMK AO2 TWR VIS 1/4=
201311161252 METAR KATL 161252Z 08007KT 1/4SM R09R/1200V1400FT FG VV002 11/10 A3020 RMK AO2 SLP229 T01060100=
201311161237 SPECI KATL 161237Z 09006KT 1/8SM R09R/1000V1200FT FG VV001 10/10 A3020 RMK AO2 TWR VIS 1/4=
201311161152 METAR KATL 161152Z 09004KT 1/4SM R09R/1200FT FG VV002 10/10 A3020 RMK AO2 TWR VIS 1/4 SLP226 70008 T01000100 10100 20083 53006=
201311161052 METAR KATL 161052Z 07006KT 1/4SM R09R/1200V1400FT FG VV002 10/09 A3017 RMK AO2 TWR VIS 1/4 SLP218 T01000094=
201311160952 METAR KATL 160952Z 06005KT 1/4SM R09R/1400V2000FT FG VV002 09/09 A3017 RMK AO2 SLP217 T00940094=
201311160852 METAR KATL 160852Z 10005KT 1/4SM BR OVC003 09/09 A3018 RMK AO2 SFC VIS 1 1/2 SLP219 T00940089 58005=
201311160752 METAR KATL 160752Z 09006KT 1/4SM R09R/P6000FT BR OVC002 09/08 A3018 RMK AO2 SFC VIS 1 SLP223 T00890083=
201311160652 METAR KATL 160652Z 07005KT 1/4SM R09R/2400V2600FT FG VV002 08/08 A3019 RMK AO2 SLP225 T00830083=
201311160650 SPECI KATL 160650Z 07005KT 1/4SM R09R/2400V2800FT FG VV002 08/08 A3019 RMK AO2=
201311160552 METAR KATL 160552Z 08006KT 1/2SM BR BKN002 BKN015 OVC090 08/08 A3019 RMK AO2 SFC VIS 2 SLP227 60003 T00830078 10106 20078 51003=
201311160537 SPECI KATL 160537Z 08007KT 1/2SM BR BKN003 BKN015 BKN090 08/08 A3020 RMK AO2 SFC VIS 3=
201311160524 SPECI KATL 160524Z 08007KT 4SM BR SCT003 BKN014 BKN090 08/08 A3020 RMK AO2=
201311160501 SPECI KATL 160501Z 08005KT 6SM BR SCT013 BKN090 08/07 A3019 RMK AO2=
201311160452 METAR KATL 160452Z 09005KT 6SM BR BKN013 BKN090 08/07 A3019 RMK AO2 SLP226 T00830072 401220056=
201311160444 SPECI KATL 160444Z 09006KT 6SM BR BKN014 BKN090 08/07 A3019 RMK AO2=
201311160352 METAR KATL 160352Z 10005KT 7SM SCT095 08/07 A3019 RMK AO2 SLP224 T00830072=
201311160252 METAR KATL 160252Z 08006KT 7SM BKN095 09/07 A3018 RMK AO2 SLP223 60003 T00890072 58002=
201311160152 METAR KATL 160152Z 11004KT 8SM FEW060 OVC100 09/08 A3019 RMK AO2 RAB00E38 SLP223 P0000 T00940078=
201311160052 METAR KATL 160052Z 06007KT 8SM FEW020 BKN035 OVC080 10/08 A3020 RMK AO2 RAE41 SLP227 P0003 T01000078=
201311160033 SPECI KATL 160033Z 06007KT 6SM -RA BR SCT022 BKN045 OVC080 10/08 A3019 RMK AO2 P0003=
201311152352 METAR KATL 152352Z 02006KT 6SM -RA BKN022 BKN035 OVC070 11/08 A3019 RMK AO2 RAB2257 SLP225 P0002 60002 T01060078 10122 20094 53004=
201311152252 METAR KATL 152252Z 03007KT 10SM BKN024 BKN035 OVC080 12/07 A3018 RMK AO2 SLP220 T01170072=
201311152238 SPECI KATL 152238Z 04007KT 10SM BKN025 BKN032 OVC080 12/07 A3017 RMK AO2=
201311152152 METAR KATL 152152Z 01006KT 10SM BKN031 OVC050 12/07 A3018 RMK AO2 SLP221 T01220072=
201311152127 SPECI KATL 152127Z 04003KT 10SM BKN029 OVC050 12/07 A3017 RMK AO2=
201311152052 METAR KATL 152052Z 07005KT 10SM FEW022 BKN048 OVC100 12/07 A3015 RMK AO2 SLP213 T01220072 56015=
201311151952 METAR KATL 151952Z 08003KT 10SM FEW022 BKN046 OVC160 11/07 A3017 RMK AO2 SLP219 T01110072=
201311151852 METAR KATL 151852Z 09006KT 9SM SCT048 BKN070 OVC160 11/08 A3018 RMK AO2 SLP221 T01060078=
201311151752 METAR KATL 151752Z 08008KT 9SM FEW030 BKN050 OVC070 09/07 A3020 RMK AO2 SLP230 60003 T00940072 10100 20078 58023=
201311151652 METAR KATL 151652Z 08009KT 8SM FEW028 SCT040 OVC060 09/07 A3025 RMK AO2 RAB05E42 SLP246 VIS LWR N-NE SHRA P0003 T00890067=
201311151628 SPECI KATL 151628Z 08007KT 3SM -RA BR SCT028 BKN036 OVC050 08/06 A3027 RMK AO2 SFC VIS 5 RAB05 P0002=
201311151613 SPECI KATL 151613Z 08009KT 1 1/2SM R09R/5000VP6000FT -RA SCT013 BKN030 OVC055 09/06 A3027 RMK AO2 SFC VIS 3 RAB05 VIS LWR SE-S-SW SHRA P0001=
201311151610 SPECI KATL 151610Z 09008KT 1 1/2SM R09R/5000VP6000FT -RA BKN013 BKN040 OVC060 09/06 A3028 RMK AO2 SFC VIS 5 RAB05 VIS LWR SE-S-SW SHRA P0001=
201311151552 METAR KATL 151552Z 12005KT 10SM BKN013 BKN020 OVC075 10/04 A3029 RMK AO2 DZE1458 SLP259 P0000 T01000044=
201311151452 METAR KATL 151452Z 10008KT 10SM -DZ BKN012 BKN015 OVC075 09/03 A3027 RMK AO2 SLP254 P0000 60000 T00890028 50000=
201311151352 METAR KATL 151352Z 09007KT 10SM -DZ OVC014 09/01 A3029 RMK AO2 RAE24DZB49 SLP259 PCPN VRY LGT P0000 T00890006=
201311151329 SPECI KATL 151329Z 09007KT 10SM BKN014 OVC047 09/00 A3029 RMK AO2 RAE24 VIRGA OHD-ALQDS P0000=
201311151252 METAR KATL 151252Z 10006KT 10SM -RA BKN016 BKN032 OVC050 08/M01 A3028 RMK AO2 RAB49 SLP254 PCPN VRY LGT P0000 T00831006=
201311151152 METAR KATL 151152Z 10006KT 10SM BKN017 BKN032 OVC055 08/M02 A3027 RMK AO2 SLP251 VIRGA OHD-ALQDS T00781017 10083 20061 50001=
201311151137 SPECI KATL 151137Z 09008KT 10SM BKN020 BKN034 OVC060 08/M02 A3027 RMK AO2 VIRGA OHD-ALQDS=
201311151052 METAR KATL 151052Z 07005KT 10SM FEW022 BKN034 BKN055 OVC130 08/M02 A3027 RMK AO2 SLP254 VIRGA OHD-ALQDS T00781022=
201311150952 METAR KATL 150952Z 08006KT 10SM FEW024 BKN042 OVC065 07/M04 A3026 RMK AO2 SLP248 VIRGA SE-SW-NW T00721039=
201311150939 SPECI KATL 150939Z 08005KT 10SM SCT024 BKN042 OVC065 07/M04 A3026 RMK AO2=
201311150921 SPECI KATL 150921Z 08007KT 10SM BKN024 BKN060 OVC140 07/M04 A3026 RMK AO2=
201311150852 METAR KATL 150852Z 07005KT 10SM SCT024 OVC055 07/M04 A3026 RMK AO2 SLP250 T00721044 58010=
201311150752 METAR KATL 150752Z 09004KT 10SM FEW032 BKN050 OVC150 07/M04 A3028 RMK AO2 SLP256 T00721044=
201311150652 METAR KATL 150652Z 08005KT 10SM SCT032 BKN050 BKN150 OVC200 06/M04 A3028 RMK AO2 SLP257 T00611044=
201311150552 METAR KATL 150552Z 08004KT 10SM FEW150 BKN200 BKN250 06/M06 A3029 RMK AO2 SLP261 T00611056 10106 20056 56007=
201311150452 METAR KATL 150452Z 11003KT 10SM BKN250 07/M06 A3030 RMK AO2 SLP264 T00671061 401501011=
201311150352 METAR KATL 150352Z 09004KT 10SM BKN250 06/M06 A3030 RMK AO2 SLP266 T00611061=
201311150252 METAR KATL 150252Z 00000KT 10SM FEW250 06/M07 A3032 RMK AO2 SLP271 T00611067 53003=
201311150152 METAR KATL 150152Z 12003KT 10SM BKN250 09/M08 A3032 RMK AO2 SLP271 T00891083=
201311150052 METAR KATL 150052Z 13003KT 10SM BKN250 10/M08 A3031 RMK AO2 SLP268 T01001083=
201311142352 METAR KATL 142352Z 13003KT 10SM SCT250 11/M08 A3031 RMK AO2 SLP270 T01061083 10150 20106 56007=
201311142252 METAR KATL 142252Z 13004KT 10SM FEW250 12/M09 A3031 RMK AO2 SLP269 T01221094=
201311142152 METAR KATL 142152Z 18004KT 10SM FEW250 14/M10 A3032 RMK AO2 SLP271 T01391100=
201311142052 METAR KATL 142052Z 14005KT 10SM FEW250 14/M11 A3033 RMK AO2 SLP275 T01441111 56024=
201311141952 METAR KATL 141952Z VRB03KT 10SM FEW250 14/M09 A3034 RMK AO2 SLP278 T01391089=
201311141852 METAR KATL 141852Z 00000KT 10SM FEW250 13/M09 A3037 RMK AO2 SLP287 T01281089=
201311141752 METAR KATL 141752Z 10005KT 10SM FEW250 12/M08 A3040 RMK AO2 SLP301 T01221078 10122 21006 58024=
201311141652 METAR KATL 141652Z 15004KT 10SM FEW250 11/M09 A3044 RMK AO2 SLP315 T01061089=
201311141552 METAR KATL 141552Z VRB05KT 10SM CLR 08/M09 A3047 RMK AO2 SLP323 T00831094=
201311141452 METAR KATL 141452Z 12004KT 10SM CLR 06/M07 A3048 RMK AO2 SLP326 T00611072 50008=
201311141352 METAR KATL 141352Z 00000KT 10SM FEW250 04/M07 A3048 RMK AO2 SLP329 T00391067=
201311141252 METAR KATL 141252Z 00000KT 10SM FEW200 01/M08 A3046 RMK AO2 SLP323 T00061078=
201311141152 METAR KATL 141152Z 00000KT 10SM FEW200 M01/M07 A3045 RMK AO2 SLP319 T10061072 10033 21011 53006=
201311141052 METAR KATL 141052Z 00000KT 10SM CLR M01/M07 A3044 RMK AO2 SLP316 T10111067 $=
201311140952 METAR KATL 140952Z 00000KT 10SM CLR M01/M07 A3044 RMK AO2 SLP314 T10061067 $=
201311140852 METAR KATL 140852Z 08003KT 10SM CLR 01/M07 A3043 RMK AO2 SLP311 T00111067 56009 $=
201311140752 METAR KATL 140752Z 06003KT 10SM CLR 01/M07 A3044 RMK AO2 SLP312 T00061072 $=
201311140652 METAR KATL 140652Z 00000KT 10SM CLR 03/M08 A3044 RMK AO2 SLP315 T00281078 $=
201311140552 METAR KATL 140552Z 00000KT 10SM CLR 01/M06 A3046 RMK AO2 SLP321 T00111061 10067 20000 56007=
201311140452 METAR KATL 140452Z 00000KT 10SM CLR 01/M07 A3046 RMK AO2 SLP322 T00111067 401061022=
201311140352 METAR KATL 140352Z 00000KT 10SM CLR 03/M08 A3047 RMK AO2 SLP326 T00281083=
201311140252 METAR KATL 140252Z 34003KT 10SM CLR 04/M09 A3048 RMK AO2 SLP329 T00441089 53006=
201311140152 METAR KATL 140152Z 32005KT 10SM CLR 04/M09 A3047 RMK AO2 SLP327 T00391089=
201311140052 METAR KATL 140052Z 34006KT 10SM CLR 06/M09 A3046 RMK AO2 SLP324 T00561094=
201311132352 METAR KATL 132352Z 34006KT 10SM CLR 07/M11 A3046 RMK AO2 SLP324 T00671106 10106 20067 55000=
201311132252 METAR KATL 132252Z 33005KT 10SM CLR 07/M11 A3045 RMK AO2 SLP320 T00721111=
201311132152 METAR KATL 132152Z VRB03KT 10SM CLR 09/M11 A3046 RMK AO2 SLP320 T00941111=
201311132052 METAR KATL 132052Z 02005KT 10SM CLR 10/M13 A3046 RMK AO2 SLP322 T01001128 56018=
201311131952 METAR KATL 131952Z 31005KT 10SM CLR 10/M12 A3047 RMK AO2 SLP323 T01001122=
201311131852 METAR KATL 131852Z 03005KT 10SM CLR 09/M14 A3049 RMK AO2 SLP331 T00891144=
201311131752 METAR KATL 131752Z 00000KT 10SM CLR 08/M13 A3052 RMK AO2 SLP341 T00781133 10078 21022 58016=
201311131652 METAR KATL 131652Z 04007KT 010V100 10SM CLR 07/M11 A3055 RMK AO2 SLP351 T00721111=
201311131552 METAR KATL 131552Z 02007KT 10SM CLR 05/M11 A3056 RMK AO2 SLP357 T00501111=
201311131452 METAR KATL 131452Z VRB04KT 10SM CLR 03/M08 A3057 RMK AO2 SLP359 T00281083 51024=
201311131352 METAR KATL 131352Z 33006KT 10SM CLR 01/M08 A3056 RMK AO2 SLP357 T00061078=
201311131252 METAR KATL 131252Z 34007KT 10SM CLR M02/M08 A3052 RMK AO2 SLP345 T10171078=
201311131152 METAR KATL 131152Z 36004KT 10SM CLR M02/M08 A3049 RMK AO2 SLP336 T10221083 10000 21022 53013=
201311131052 METAR KATL 131052Z 01007G15KT 10SM CLR M02/M09 A3048 RMK AO2 SLP331 T10171089=
201311130952 METAR KATL 130952Z 01007KT 10SM CLR M01/M09 A3046 RMK AO2 SLP323 T10111089=
201311130852 METAR KATL 130852Z 01010KT 10SM CLR M01/M09 A3046 RMK AO2 SLP320 T10111089 53005=
201311130752 METAR KATL 130752Z 35011KT 10SM CLR M01/M09 A3045 RMK AO2 SLP317 T10061089=
201311130652 METAR KATL 130652Z 36009KT 10SM CLR 00/M09 A3044 RMK AO2 SLP313 T00001089=
201311130552 METAR KATL 130552Z 35008KT 10SM CLR 00/M09 A3044 RMK AO2 SLP312 T00001089 10039 20000 51014=
201311130452 METAR KATL 130452Z 35010KT 10SM CLR 01/M08 A3043 RMK AO2 SLP309 T00061083 401720006=
201311130352 METAR KATL 130352Z 35011KT 10SM CLR 02/M08 A3041 RMK AO2 PK WND 36026/0312 SLP301 T00171083=
201311130252 METAR KATL 130252Z 36017G26KT 10SM CLR 02/M08 A3040 RMK AO2 PK WND 35030/0213 SLP298 T00221083 53022=
201311130152 METAR KATL 130152Z 35010G20KT 10SM CLR 02/M07 A3037 RMK AO2 SLP290 T00221072=
201311130052 METAR KATL 130052Z 35015G19KT 10SM CLR 03/M07 A3035 RMK AO2 SLP284 T00281067=
201311122352 METAR KATL 122352Z 33017G27KT 10SM FEW250 04/M06 A3033 RMK AO2 PK WND 33031/2316 SLP277 T00391056 10167 20039 52037=
201311122252 METAR KATL 122252Z 34017G22KT 10SM FEW250 06/M03 A3029 RMK AO2 PK WND 35034/2209 SLP263 T00561033=
201311122152 METAR KATL 122152Z 34021G30KT 10SM FEW045 SCT250 08/M03 A3026 RMK AO2 PK WND 34030/2148 SLP249 T00781028=
201311122052 METAR KATL 122052Z 34021G27KT 10SM FEW040 SCT250 11/00 A3022 RMK AO2 PK WND 34028/2018 SLP235 T01060000 51018=
201311121952 METAR KATL 121952Z 33014G24KT 10SM FEW030 SCT250 12/03 A3020 RMK AO2 PK WND 35030/1916 SLP228 T01170028=
201311121852 METAR KATL 121852Z 33020G29KT 10SM FEW025 BKN042 12/05 A3020 RMK AO2 PK WND 32029/1852 SLP226 T01170050=
201311121752 METAR KATL 121752Z 32019G32KT 10SM FEW045 16/04 A3016 RMK AO2 PK WND 32032/1748 SLP213 T01610044 10172 20078 58006=
201311121652 METAR KATL 121652Z 34013G22KT 10SM FEW050 SCT250 17/02 A3019 RMK AO2 PK WND 32026/1634 SLP221 T01670022=
201311121552 METAR KATL 121552Z 32017G22KT 10SM FEW250 16/01 A3019 RMK AO2 SLP223 T01560011=
201311121452 METAR KATL 121452Z 34011KT 10SM FEW250 15/01 A3018 RMK AO2 SLP220 T01500011 51011=
201311121352 METAR KATL 121352Z 30008KT 10SM FEW080 12/02 A3018 RMK AO2 SLP220 T01170022=
201311121252 METAR KATL 121252Z 29006KT 10SM FEW080 10/02 A3016 RMK AO2 SLP213 T01000022=
201311121152 METAR KATL 121152Z 28005KT 10SM FEW075 08/02 A3015 RMK AO2 SLP210 T00780022 10111 20078 56001=
201311121052 METAR KATL 121052Z 28003KT 10SM FEW075 08/03 A3015 RMK AO2 SLP209 T00830028=
201311120952 METAR KATL 120952Z 28004KT 10SM FEW075 08/03 A3015 RMK AO2 SLP208 T00830028=
201311120852 METAR KATL 120852Z 30003KT 10SM FEW075 08/03 A3015 RMK AO2 SLP209 T00830033 56010=
201311120752 METAR KATL 120752Z 30004KT 10SM BKN085 08/04 A3016 RMK AO2 SLP212 T00830039=
201311120652 METAR KATL 120652Z 27003KT 10SM SCT095 SCT150 SCT250 10/04 A3017 RMK AO2 SLP214 T01000039=
201311120552 METAR KATL 120552Z 00000KT 10SM BKN095 BKN250 10/03 A3018 RMK AO2 SLP220 T01000028 10144 20094 58004=
201311120452 METAR KATL 120452Z 00000KT 10SM BKN095 BKN250 10/03 A3019 RMK AO2 SLP223 T01000028 401890067=
201311120352 METAR KATL 120352Z 00000KT 10SM FEW100 BKN250 11/02 A3020 RMK AO2 SLP227 T01060022=
201311120252 METAR KATL 120252Z 00000KT 10SM FEW100 SCT250 11/02 A3020 RMK AO2 SLP225 T01110017 50000=
201311120152 METAR KATL 120152Z 00000KT 10SM FEW250 11/03 A3020 RMK AO2 SLP227 T01110028=
201311120052 METAR KATL 120052Z 11003KT 10SM FEW250 14/01 A3020 RMK AO2 SLP227 T01390011=
201311112352 METAR KATL 112352Z 00000KT 10SM FEW250 14/01 A3020 RMK AO2 SLP226 T01440011 10189 20144 53000=
201311112252 METAR KATL 112252Z 10003KT 10SM FEW250 16/00 A3019 RMK AO2 SLP222 T01610000=
201311112152 METAR KATL 112152Z 00000KT 10SM FEW250 18/M01 A3019 RMK AO2 SLP222 T01781006=
201311112052 METAR KATL 112052Z 06003KT 10SM FEW250 19/M01 A3019 RMK AO2 SLP224 T01891011 56018=
201311111952 METAR KATL 111952Z VRB05KT 10SM FEW250 19/M01 A3020 RMK AO2 SLP226 T01891006=
201311111852 METAR KATL 111852Z 08007KT 10SM FEW250 18/M01 A3022 RMK AO2 SLP232 T01831006=
201311111752 METAR KATL 111752Z 12007KT 10SM FEW250 17/M01 A3025 RMK AO2 SLP243 T01721011 10172 20072 58021=
201311111652 METAR KATL 111652Z 09009KT 10SM FEW250 16/M01 A3028 RMK AO2 SLP252 T01611011=
201311111552 METAR KATL 111552Z 08011KT 10SM FEW250 15/M02 A3030 RMK AO2 SLP261 T01501017=
201311111452 METAR KATL 111452Z 09012KT 10SM CLR 13/M02 A3031 RMK AO2 SLP265 T01331017 51015=
201311111352 METAR KATL 111352Z 09010KT 10SM CLR 11/01 A3031 RMK AO2 SLP265 T01110006=
201311111252 METAR KATL 111252Z COR 07008KT 10SM CLR 10/01 A3029 RMK AO2 SLP257 T01000006=
201311111152 METAR KATL 111152Z 02003KT 10SM FEW120 08/01 A3027 RMK AO2 SLP250 T00830006 10100 20067 53013=
201311111052 METAR KATL 111052Z 34003KT 10SM CLR 08/01 A3025 RMK AO2 SLP245 T00780006=
201311110952 METAR KATL 110952Z 33003KT 10SM CLR 07/01 A3024 RMK AO2 SLP239 T00720011=
201311110852 METAR KATL 110852Z 31006KT 10SM CLR 08/02 A3023 RMK AO2 SLP235 T00780017 53000=
201311110752 METAR KATL 110752Z 32006KT 10SM CLR 08/02 A3023 RMK AO2 SLP234 T00780022=
201311110652 METAR KATL 110652Z 31007KT 10SM CLR 09/02 A3022 RMK AO2 SLP233 T00890022=
201311110552 METAR KATL 110552Z 32008KT 10SM CLR 10/02 A3023 RMK AO2 SLP234 T01000022 10161 20100 56002=
201311110452 METAR KATL 110452Z 33007KT 10SM CLR 11/02 A3023 RMK AO2 SLP234 T01110022 402110094=
201311110352 METAR KATL 110352Z 31007KT 10SM CLR 12/03 A3023 RMK AO2 SLP238 T01170028=
201311110252 METAR KATL 110252Z 32005KT 10SM CLR 13/02 A3024 RMK AO2 SLP238 T01280022 50003=
201311110152 METAR KATL 110152Z 33007KT 10SM CLR 14/02 A3024 RMK AO2 SLP241 T01390022=
201311110052 METAR KATL 110052Z 32008KT 10SM CLR 15/02 A3024 RMK AO2 SLP239 T01500017=
201311102352 METAR KATL 102352Z 31010KT 10SM FEW120 16/02 A3023 RMK AO2 SLP235 T01610017 10211 20156 53009=
201311102252 METAR KATL 102252Z 32009KT 10SM FEW120 18/01 A3021 RMK AO2 SLP230 T01780011=
201311102152 METAR KATL 102152Z 33009KT 10SM FEW120 20/01 A3020 RMK AO2 SLP225 T02000011=
201311102052 METAR KATL 102052Z 33011KT 10SM FEW120 21/03 A3020 RMK AO2 SLP225 T02060033 56010=
201311101952 METAR KATL 101952Z 32008KT 10SM FEW120 21/04 A3020 RMK AO2 SLP225 T02110044=
201311101852 METAR KATL 101852Z 33012KT 10SM FEW150 SCT250 21/04 A3021 RMK AO2 SLP229 T02060039=
201311101752 METAR KATL 101752Z 32009KT 10SM BKN150 19/04 A3023 RMK AO2 SLP236 T01940044 10194 20094 58020=
201311101652 METAR KATL 101652Z 32008KT 10SM BKN150 BKN250 18/04 A3026 RMK AO2 SLP245 T01830039=
201311101552 METAR KATL 101552Z 34009KT 10SM FEW100 SCT200 16/04 A3028 RMK AO2 SLP253 T01610039=
201311101452 METAR KATL 101452Z 28007KT 10SM SCT100 BKN200 14/05 A3029 RMK AO2 SLP257 T01440050 51008=
201311101352 METAR KATL 101352Z 28005KT 10SM BKN080 BKN200 11/05 A3029 RMK AO2 SLP259 T01110050=
201311101252 METAR KATL 101252Z 28004KT 10SM BKN085 10/04 A3029 RMK AO2 SLP257 T01000044=
201311101152 METAR KATL 101152Z 29005KT 10SM BKN090 BKN200 10/04 A3027 RMK AO2 SLP251 T01000044 10111 20094 53010=
201311101052 METAR KATL 101052Z 30005KT 10SM BKN100 OVC200 10/05 A3026 RMK AO2 SLP247 T01000050=
201311100952 METAR KATL 100952Z 32005KT 10SM OVC100 10/05 A3024 RMK AO2 SLP241 VIRGA VC S-SW T01000050=
201311100852 METAR KATL 100852Z 00000KT 10SM FEW090 BKN110 BKN220 10/06 A3024 RMK AO2 SLP240 T01000056 56005=
201311100752 METAR KATL 100752Z 33005KT 10SM SCT100 OVC180 10/05 A3024 RMK AO2 SLP240 T01000050=
201311100652 METAR KATL 100652Z 32004KT 10SM OVC110 11/06 A3025 RMK AO2 SLP243 VIRGA OHD-SE-SW T01060056=
201311100552 METAR KATL 100552Z 00000KT 10SM BKN120 OVC200 11/05 A3025 RMK AO2 SLP245 VIRGA VC S-W T01110050 10133 20094 58004=
201311100452 METAR KATL 100452Z 00000KT 10SM BKN130 BKN200 OVC250 11/04 A3027 RMK AO2 SLP250 T01060044 401560044=
201311100352 METAR KATL 100352Z 00000KT 10SM SCT140 BKN200 OVC250 11/03 A3027 RMK AO2 SLP251 T01110033=
201311100252 METAR KATL 100252Z 01004KT 10SM SCT140 BKN200 OVC250 13/02 A3027 RMK AO2 SLP250 T01280022 50000=
201311100152 METAR KATL 100152Z 00000KT 10SM FEW110 BKN140 OVC200 12/02 A3027 RMK AO2 SLP253 VIRGA DSNT SE-SW T01220022=
201311100052 METAR KATL 100052Z 11003KT 10SM FEW120 BKN150 BKN200 OVC250 13/01 A3027 RMK AO2 SLP251 VIRGA DSNT SE-SW T01280011=
201311092352 METAR KATL 092352Z 00000KT 10SM FEW110 BKN150 OVC200 13/01 A3027 RMK AO2 SLP251 VIRGA NE-SE-SW-W T01330006 10156 20128 55000=
201311092252 METAR KATL 092252Z 11003KT 10SM SCT110 BKN150 OVC200 13/00 A3025 RMK AO2 SLP244 VIRGA OHD-ALQDS T01330000=
201311092152 METAR KATL 092152Z 11003KT 10SM SCT120 BKN150 OVC200 14/M01 A3026 RMK AO2 SLP248 VIRGA OHD-ALQDS T01391006=
201311092052 METAR KATL 092052Z 06006KT 10SM OVC150 15/00 A3027 RMK AO2 SLP250 T01500000 55014=
201311091952 METAR KATL 091952Z 08006KT 10SM OVC150 14/M01 A3026 RMK AO2 SLP249 T01441006=
201311091852 METAR KATL 091852Z 17003KT 10SM SCT150 BKN200 15/M01 A3029 RMK AO2 SLP259 T01501006=
201311091752 METAR KATL 091752Z 15003KT 10SM BKN200 BKN250 14/M01 A3031 RMK AO2 SLP265 T01391006 10144 20044 58014=
201311091652 METAR KATL 091652Z 13005KT 10SM SCT150 BKN200 12/01 A3033 RMK AO2 SLP271 T01220006=
201311091552 METAR KATL 091552Z 15005KT 10SM BKN200 11/00 A3034 RMK AO2 SLP277 T01110000=
201311091452 METAR KATL 091452Z 08004KT 10SM BKN150 09/01 A3035 RMK AO2 SLP281 T00890011 50010=
201311091352 METAR KATL 091352Z 07006KT 10SM FEW150 SCT200 BKN250 07/01 A3035 RMK AO2 SLP282 T00720006=
201311091252 METAR KATL 091252Z 10005KT 10SM FEW200 BKN250 06/01 A3032 RMK AO2 SLP272 T00560006=
201311091152 METAR KATL 091152Z 07007KT 10SM FEW200 SCT250 06/01 A3032 RMK AO2 SLP271 T00560006 10083 20050 53013=
201311091052 METAR KATL 091052Z 08005KT 10SM FEW200 05/00 A3030 RMK AO2 SLP263 T00500000=
201311090952 METAR KATL 090952Z 08006KT 10SM SCT200 SCT250 06/01 A3029 RMK AO2 SLP257 T00610006=
201311090852 METAR KATL 090852Z 08006KT 10SM SCT200 BKN250 06/01 A3028 RMK AO2 SLP256 T00610006 50006=
201311090752 METAR KATL 090752Z 10004KT 10SM FEW200 BKN250 07/00 A3028 RMK AO2 SLP255 T00720000=
201311090652 METAR KATL 090652Z 10003KT 10SM FEW200 OVC250 08/00 A3028 RMK AO2 SLP253 T00780000=
201311090552 METAR KATL 090552Z 11003KT 10SM BKN200 OVC250 08/M01 A3026 RMK AO2 SLP249 T00831011 10117 20072 50000=
201311090452 METAR KATL 090452Z 09003KT 10SM BKN200 OVC250 09/00 A3027 RMK AO2 SLP251 T00890000 401670033=
201311090352 METAR KATL 090352Z 00000KT 10SM BKN250 08/M02 A3027 RMK AO2 SLP253 T00781017=
201311090252 METAR KATL 090252Z 00000KT 10SM BKN250 09/M03 A3026 RMK AO2 SLP250 T00941033 53006=
201311090152 METAR KATL 090152Z 35008KT 10SM BKN250 11/M03 A3025 RMK AO2 SLP247 T01061033=
201311090052 METAR KATL 090052Z 34007KT 10SM BKN250 11/M02 A3025 RMK AO2 SLP246 T01111022=
201311082352 METAR KATL 082352Z 32007KT 10SM SCT250 12/M02 A3024 RMK AO2 SLP246 T01171017 10167 20111 53001=
201311082252 METAR KATL 082252Z 34004KT 10SM FEW250 13/M04 A3024 RMK AO2 SLP242 T01331039=
201311082152 METAR KATL 082152Z 34004KT 10SM SCT250 16/M04 A3024 RMK AO2 SLP242 T01561039=
201311082052 METAR KATL 082052Z 29006KT 10SM SCT250 16/M04 A3024 RMK AO2 SLP243 T01561044 56010=
201311081952 METAR KATL 081952Z 00000KT 10SM FEW250 17/M06 A3025 RMK AO2 SLP244 T01671061=
201311081852 METAR KATL 081852Z 00000KT 10SM FEW250 16/M07 A3026 RMK AO2 SLP249 T01561067=
201311081752 METAR KATL 081752Z 36006KT 10SM FEW250 15/M04 A3027 RMK AO2 SLP253 T01501044 10150 20033 58018=
201311081652 METAR KATL 081652Z 04005KT 10SM FEW250 14/M04 A3031 RMK AO2 SLP265 T01391039=
201311081552 METAR KATL 081552Z 02007KT 10SM FEW250 12/M02 A3033 RMK AO2 SLP274 T01221022=
201311081452 METAR KATL 081452Z 02009KT 10SM FEW250 10/M03 A3033 RMK AO2 SLP273 T01001028 51023=
201311081352 METAR KATL 081352Z 01010KT 10SM FEW200 SCT250 08/M01 A3032 RMK AO2 SLP270 T00781011=
201311081252 METAR KATL 081252Z 35009KT 10SM FEW250 05/M01 A3029 RMK AO2 SLP261 T00501011=
201311081152 METAR KATL 081152Z 33012KT 10SM CLR 03/M01 A3026 RMK AO2 SLP251 70004 T00331011 10061 20033 53010=
201311081052 METAR KATL 081052Z 33011KT 10SM CLR 03/M01 A3025 RMK AO2 SLP247 T00331006=
201311080952 METAR KATL 080952Z 31008KT 10SM CLR 04/M01 A3024 RMK AO2 SLP243 T00391006=
201311080852 METAR KATL 080852Z 33008KT 10SM CLR 04/M01 A3023 RMK AO2 SLP238 T00441006 51005=
201311080752 METAR KATL 080752Z 33008KT 10SM CLR 05/M01 A3023 RMK AO2 SLP236 T00501006=
201311080652 METAR KATL 080652Z 32009KT 10SM CLR 06/00 A3022 RMK AO2 SLP235 T00560000=
201311080552 METAR KATL 080552Z 32012KT 10SM CLR 06/00 A3021 RMK AO2 SLP233 T00610000 10106 20061 50003=
201311080452 METAR KATL 080452Z 33010KT 10SM CLR 07/00 A3022 RMK AO2 SLP234 T00720000 401830072=
201311080352 METAR KATL 080352Z 33009KT 10SM FEW250 08/M01 A3021 RMK AO2 SLP231 T00781006=
201311080252 METAR KATL 080252Z 33011KT 10SM FEW250 09/00 A3021 RMK AO2 SLP229 T00890000 53009=
201311080152 METAR KATL 080152Z 33007KT 10SM SCT250 08/02 A3019 RMK AO2 SLP224 T00830022=
201311080052 METAR KATL 080052Z 33008KT 10SM SCT250 09/02 A3018 RMK AO2 SLP221 T00940022=
201311072352 METAR KATL 072352Z COR 33012KT 10SM FEW250 11/02 A3018 RMK AO2 SLP218 T01060017 10167 20106 53021=
201311072252 METAR KATL 072252Z 33014KT 10SM FEW200 SCT250 12/02 A3016 RMK AO2 SLP212 T01170017=
201311072152 METAR KATL 072152Z 32017G24KT 10SM FEW200 SCT250 13/02 A3013 RMK AO2 SLP201 T01330017=
201311072052 METAR KATL 072052Z 32018KT 10SM SCT250 16/03 A3011 RMK AO2 SLP195 T01560033 55004=
201311071952 METAR KATL 071952Z 33017G23KT 10SM FEW250 16/03 A3011 RMK AO2 SLP194 T01610033=
201311071852 METAR KATL 071852Z 31017KT 10SM FEW030 SCT250 16/06 A3011 RMK AO2 SLP195 T01560061=
201311071815 SPECI KATL 071815Z 31017G22KT 10SM SCT020 SCT250 16/09 A3012 RMK AO2=
201311071752 METAR KATL 071752Z 32018KT 10SM BKN016 BKN020 BKN100 15/11 A3013 RMK AO2 SLP200 60004 T01500106 10183 20144 50007=
201311071718 SPECI KATL 071718Z 33014G21KT 10SM FEW009 BKN016 OVC100 15/12 A3013 RMK AO2=
201311071652 METAR KATL 071652Z 32016G21KT 10SM BKN010 BKN020 OVC100 15/12 A3013 RMK AO2 SLP200 T01500122=
201311071552 METAR KATL 071552Z 32014G19KT 10SM BKN014 BKN030 BKN100 18/15 A3011 RMK AO2 DZB05E14RAB14E23 SLP193 P0000 T01780150=
201311071516 SPECI KATL 071516Z 31009KT 10SM -RA FEW007 BKN012 BKN030 16/15 A3011 RMK AO2 DZB05E14RAB14 P0000=
201311071505 SPECI KATL 071505Z 31011G18KT 6SM -DZ BR BKN010 BKN015 BKN030 16/15 A3011 RMK AO2 DZB05 P0000=
201311071452 METAR KATL 071452Z 32013G20KT 10SM FEW008 BKN010 OVC030 17/15 A3011 RMK AO2 RAE18 SLP192 P0000 60004 T01670150 51008=
201311071400 SPECI KATL 071400Z 31008KT 6SM -RA BR BKN004 BKN015 OVC030 17/16 A3010 RMK AO2 CIG 003V005 P0000=
201311071352 METAR KATL 071352Z 30007KT 2 1/2SM -RA BR BKN004 BKN015 OVC040 17/16 A3010 RMK AO2 SFC VIS 6 RAE08B44 SLP188 CIG 003V005 P0001 T01670156=
201311071326 SPECI KATL 071326Z 29004KT 2SM BKN004 BKN030 OVC045 16/16 A3009 RMK AO2 SFC VIS 7 RAE08 CIG 003V005 TWRINC P0001=
201311071259 SPECI KATL 071259Z 27003KT 1 1/2SM -RA BR SCT004 BKN020 OVC045 16/16 A3008 RMK AO2 SFC VIS 2 1/2 P0000=
201311071252 METAR KATL 071252Z 29003KT 1 1/2SM -RA BR SCT004 BKN014 OVC030 16/16 A3008 RMK AO2 SFC VIS 3 SLP182 CIG 012V016 P0003 T01610156=
201311071242 SPECI KATL 071242Z 30003KT 1 1/2SM -RA BR BKN004 OVC014 16/15 A3008 RMK AO2 SFC VIS 2 1/2 CIG 003V005 P0003=
201311071202 SPECI KATL 071202Z 30007KT 2SM -RA BR BKN004 BKN013 OVC024 16/15 A3007 RMK AO2 SFC VIS 3 CIG 003V006 P0001=
201311071152 METAR KATL 071152Z 29007KT 2 1/2SM -RA BR BKN005 BKN016 OVC028 16/15 A3007 RMK AO2 RAB13 SLP179 CIG 003V007 P0007 60007 70007 T01560150 10161 20144 53002=
201311071135 SPECI KATL 071135Z 31012KT 2SM RA BR BKN006 OVC016 16/16 A3007 RMK AO2 TWR VIS 2 1/2 RAB13 CIG 004V008 P0004=
201311071130 SPECI KATL 071130Z 30009KT 2 1/2SM -RA BR FEW004 BKN016 OVC024 16/16 A3007 RMK AO2 RAB13 P0002=
201311071114 SPECI KATL 071114Z 25005KT 3SM -RA BR SCT015 BKN025 OVC050 16/16 A3005 RMK AO2 RAB13 P0000=
201311071052 METAR KATL 071052Z 24005KT 10SM FEW022 BKN032 OVC050 16/15 A3005 RMK AO2 DZB17E22RAB22E43 SLP171 P0000 T01610150=
201311070952 METAR KATL 070952Z 24005KT 10SM SCT027 BKN050 OVC080 16/14 A3006 RMK AO2 SLP174 RAB32E42 P0000 T01560139=
201311070852 METAR KATL 070852Z 22004KT 10SM SCT038 BKN080 BKN250 15/13 A3007 RMK AO2 SLP176 T01500133 56017=
201311070752 METAR KATL 070752Z 00000KT 10SM BKN080 BKN250 14/13 A3007 RMK AO2 SLP179 T01440133=
201311070652 METAR KATL 070652Z 00000KT 10SM FEW026 BKN075 BKN250 15/13 A3009 RMK AO2 SLP183 T01500133=
201311070552 METAR KATL 070552Z 00000KT 10SM SCT028 BKN060 16/13 A3012 RMK AO2 SLP194 T01610133 10183 20150 58010=
201311070452 METAR KATL 070452Z 00000KT 10SM FEW030 BKN065 16/13 A3013 RMK AO2 SLP198 T01610133 402220106=
201311070352 METAR KATL 070352Z 00000KT 10SM SCT030 BKN065 16/13 A3014 RMK AO2 SLP203 T01560128=
201311070252 METAR KATL 070252Z 00000KT 10SM FEW065 17/13 A3015 RMK AO2 SLP207 T01670133 55004=
201311070152 METAR KATL 070152Z 00000KT 10SM SCT060 17/13 A3015 RMK AO2 SLP207 T01720133=
201311070052 METAR KATL 070052Z 13004KT 10SM SCT060 18/13 A3016 RMK AO2 SLP210 T01830133=
201311062352 METAR KATL 062352Z 16004KT 10SM FEW060 18/13 A3016 RMK AO2 SLP211 T01830128 10222 20183 56004=
201311062252 METAR KATL 062252Z 17004KT 10SM FEW060 19/13 A3016 RMK AO2 SLP212 T01940128=
201311062152 METAR KATL 062152Z 14005KT 10SM FEW035 22/13 A3016 RMK AO2 SLP211 T02170128=
201311062052 METAR KATL 062052Z 14005KT 10SM FEW035 SCT045 SCT090 22/13 A3017 RMK AO2 SLP214 ACSL DSNT SW & NW T02170133 56020=
201311061952 METAR KATL 061952Z 15006KT 10SM FEW032 SCT090 22/13 A3019 RMK AO2 SLP219 ACSL DSNT SE-N T02170128=
201311061852 METAR KATL 061852Z 16007KT 10SM FEW030 SCT090 21/13 A3021 RMK AO2 SLP226 ACSL DSNT S-NW T02110133=
201311061752 METAR KATL 061752Z 09004KT 10SM FEW030 SCT090 20/13 A3023 RMK AO2 SLP236 T02000128 10200 20111 58023=
201311061652 METAR KATL 061652Z 09008KT 10SM FEW015 BKN090 18/12 A3027 RMK AO2 SLP250 T01780122=
201311061636 SPECI KATL 061636Z 11007KT 10SM SCT015 BKN090 17/12 A3028 RMK AO2=
201311061552 METAR KATL 061552Z 09009KT 10SM BKN015 BKN085 16/11 A3030 RMK AO2 SLP259 T01610111=
201311061452 METAR KATL 061452Z 09012KT 10SM OVC012 14/11 A3030 RMK AO2 SLP261 T01390106 50006=
201311061352 METAR KATL 061352Z 10010KT 8SM OVC010 12/10 A3031 RMK AO2 SLP263 T01220100=
201311061336 SPECI KATL 061336Z 10009KT 8SM OVC010 12/10 A3031 RMK AO2=
201311061252 METAR KATL 061252Z 09007KT 7SM OVC007 12/10 A3031 RMK AO2 SLP262 T01170100=
201311061152 METAR KATL 061152Z 09009KT 7SM OVC008 11/10 A3029 RMK AO2 SLP256 60001 70001 T01110100 10111 20106 55000=
201311061052 METAR KATL 061052Z 10007KT 7SM OVC008 11/10 A3028 RMK AO2 SLP254 T01110100=
201311060952 METAR KATL 060952Z 09010KT 7SM OVC008 11/10 A3028 RMK AO2 SLP252 CIG 007V010 T01110100=
201311060852 METAR KATL 060852Z 10010KT 7SM OVC006 11/10 A3029 RMK AO2 SLP254 CIG 005V008 60001 T01110100 56017=
201311060752 METAR KATL 060752Z 09008KT 7SM OVC005 11/10 A3030 RMK AO2 RAE0658 SLP258 CIG 004V006 P0000 T01060100=
201311060652 METAR KATL 060652Z 08009KT 3SM -RA BR BKN005 OVC032 11/09 A3032 RMK AO2 DZE47RAB47 SLP267 P0001 T01060094=
201311060650 SPECI KATL 060650Z 08010KT 3SM -RA BR BKN005 OVC010 11/09 A3032 RMK AO2 DZE47RAB47 P0001=
201311060616 SPECI KATL 060616Z 08009KT 2SM -DZ BR OVC007 11/09 A3033 RMK AO2 CIG 006V010 P0000=
201311060552 METAR KATL 060552Z 09010KT 5SM -DZ BR OVC011 11/09 A3034 RMK AO2 DZB24 SLP272 P0000 60000 T01110094 10133 20111 56005=
201311060525 SPECI KATL 060525Z 08011KT 7SM -DZ BKN013 OVC020 12/08 A3033 RMK AO2 DZB24 P0000=
201311060452 METAR KATL 060452Z 08011KT 10SM BKN020 BKN026 OVC055 12/07 A3034 RMK AO2 SLP273 T01220067 401830061=
201311060429 SPECI KATL 060429Z 08010KT 10SM BKN027 BKN060 12/07 A3034 RMK AO2=
201311060352 METAR KATL 060352Z 08012KT 10SM BKN060 12/06 A3034 RMK AO2 SLP276 T01220061=
201311060252 METAR KATL 060252Z 08011KT 10SM BKN050 13/06 A3035 RMK AO2 SLP279 T01330056 51003=
201311060152 METAR KATL 060152Z 07010KT 10SM BKN055 13/04 A3035 RMK AO2 SLP279 T01330039=
201311060052 METAR KATL 060052Z 08010KT 10SM SCT055 SCT250 13/03 A3035 RMK AO2 SLP278 T01330033=
201311052352 METAR KATL 052352Z 09010KT 10SM FEW060 SCT250 13/03 A3034 RMK AO2 SLP277 T01330033 10183 20133 53001=
201311052252 METAR KATL 052252Z 10007KT 10SM FEW150 SCT250 15/03 A3033 RMK AO2 SLP270 T01500028=
201311052152 METAR KATL 052152Z 08011KT 10SM FEW150 SCT180 BKN250 17/02 A3034 RMK AO2 SLP274 T01720017=
201311052052 METAR KATL 052052Z 07008KT 10SM FEW060 SCT150 BKN240 18/01 A3034 RMK AO2 SLP275 T01780011 56018=
201311051952 METAR KATL 051952Z 04009KT 10SM FEW060 BKN150 BKN240 17/01 A3035 RMK AO2 SLP279 T01720011=
201311051852 METAR KATL 051852Z 06007KT 10SM FEW050 SCT150 SCT240 17/00 A3037 RMK AO2 SLP285 T01720000=
201311051752 METAR KATL 051752Z 09008KT 10SM FEW050 SCT180 SCT250 16/00 A3040 RMK AO2 SLP294 T01610000 10161 20061 58020=
201311051652 METAR KATL 051652Z COR 07012KT 10SM SCT050 SCT240 14/00 A3043 RMK AO2 SLP305 T01440000=
201311051552 METAR KATL 051552Z 08013KT 10SM BKN050 BKN180 BKN240 12/00 A3045 RMK AO2 SLP313 T01170000=
201311051452 METAR KATL 051452Z 09013KT 10SM FEW050 SCT180 BKN240 11/00 A3046 RMK AO2 SLP316 T01060000 51006=
201311051352 METAR KATL 051352Z 08016G24KT 10SM FEW050 SCT180 BKN250 09/00 A3045 RMK AO2 SLP314 T00890000=
201311051252 METAR KATL 051252Z 09013KT 10SM SCT050 SCT180 BKN250 08/01 A3045 RMK AO2 SLP313 T00780006=
201311051152 METAR KATL 051152Z 09011KT 10SM FEW200 BKN250 07/01 A3044 RMK AO2 SLP310 T00670011 10083 20067 51008=
201311051052 METAR KATL 051052Z 08008KT 10SM BKN250 07/01 A3043 RMK AO2 SLP306 T00720011=
201311050952 METAR KATL 050952Z 09010KT 10SM BKN250 07/02 A3043 RMK AO2 SLP305 T00720017=
201311050852 METAR KATL 050852Z 08012KT 10SM BKN250 08/02 A3041 RMK AO2 SLP300 T00780022 55002=
201311050752 METAR KATL 050752Z 08012KT 10SM BKN250 08/02 A3041 RMK AO2 SLP297 T00780022=
201311050652 METAR KATL 050652Z 09010KT 10SM BKN250 08/02 A3042 RMK AO2 SLP300 T00780022=
201311050552 METAR KATL 050552Z 09010KT 10SM FEW200 BKN250 09/02 A3042 RMK AO2 SLP302 T00890022 10122 20089 53002=
201311050452 METAR KATL 050452Z 09009KT 10SM BKN250 09/02 A3041 RMK AO2 SLP300 T00890022 401720056=
201311050352 METAR KATL 050352Z 10011KT 10SM BKN250 10/02 A3042 RMK AO2 SLP300 T01000022=
201311050252 METAR KATL 050252Z 09010KT 10SM BKN250 10/03 A3041 RMK AO2 SLP301 T01000028 52013=
201311050152 METAR KATL 050152Z 08009KT 10SM BKN250 12/03 A3040 RMK AO2 SLP297 T01170028=
201311050052 METAR KATL 050052Z 09010KT 10SM SCT250 12/02 A3038 RMK AO2 SLP292 T01170022=
201311042352 METAR KATL 042352Z 09008KT 10SM FEW200 12/02 A3037 RMK AO2 SLP289 T01220017 10172 20122 53003=
201311042252 METAR KATL 042252Z 10008KT 10SM FEW200 14/01 A3036 RMK AO2 SLP284 T01390011=
201311042152 METAR KATL 042152Z 10010KT 10SM FEW150 SCT240 16/00 A3037 RMK AO2 SLP284 T01610000=
201311042052 METAR KATL 042052Z 09012G16KT 10SM FEW150 SCT240 17/02 A3037 RMK AO2 SLP283 T01670017 55011=
201311041952 METAR KATL 041952Z 09011KT 10SM FEW240 17/02 A3036 RMK AO2 SLP281 T01720017=
201311041852 METAR KATL 041852Z 10011G15KT 10SM SCT240 17/02 A3038 RMK AO2 SLP287 T01720017=
201311041752 METAR KATL 041752Z 12010KT 10SM FEW150 SCT180 SCT240 17/02 A3040 RMK AO2 SLP295 T01670022 10167 20056 56010=
201311041652 METAR KATL 041652Z 09015G22KT 10SM FEW150 SCT240 16/03 A3041 RMK AO2 SLP299 T01610028=
201311041552 METAR KATL 041552Z 12011G19KT 10SM FEW150 SCT180 SCT240 14/03 A3041 RMK AO2 SLP300 T01390033=
201311041452 METAR KATL 041452Z 10008KT 10SM FEW150 SCT180 SCT240 12/04 A3043 RMK AO2 SLP306 T01170039 53022=
201311041352 METAR KATL 041352Z 09010KT 10SM FEW150 BKN250 09/04 A3041 RMK AO2 SLP299 T00890039=
201311041252 METAR KATL 041252Z 09013KT 10SM FEW150 BKN250 07/03 A3037 RMK AO2 SLP287 T00720033=
201311041152 METAR KATL 041152Z 08008KT 10SM FEW150 SCT250 06/03 A3036 RMK AO2 SLP285 T00560028 10094 20056 53011=
201311041052 METAR KATL 041052Z 09006KT 10SM FEW250 06/03 A3034 RMK AO2 SLP275 T00610033=
201311040952 METAR KATL 040952Z 09008KT 10SM FEW250 06/03 A3033 RMK AO2 SLP273 T00610033=
201311040852 METAR KATL 040852Z 08006KT 10SM CLR 07/03 A3033 RMK AO2 SLP271 T00720033 53009=
201311040752 METAR KATL 040752Z 10005KT 10SM CLR 07/03 A3032 RMK AO2 SLP267 T00720033=
201311040652 METAR KATL 040652Z 09005KT 10SM CLR 08/04 A3031 RMK AO2 SLP266 T00780039=
201311040552 METAR KATL 040552Z 09003KT 10SM CLR 09/04 A3030 RMK AO2 SLP262 T00890039 10139 20089 51015=
201311040452 METAR KATL 040452Z 10003KT 10SM CLR 10/04 A3030 RMK AO2 SLP260 T01000039 401830056=
201311040352 METAR KATL 040352Z 00000KT 10SM CLR 11/04 A3028 RMK AO2 SLP255 T01110044=
201311040252 METAR KATL 040252Z 14003KT 10SM CLR 11/05 A3026 RMK AO2 SLP248 T01110050 51014=
201311040152 METAR KATL 040152Z 13003KT 10SM CLR 12/04 A3024 RMK AO2 SLP242 T01220044=
201311040052 METAR KATL 040052Z 12003KT 10SM CLR 13/03 A3024 RMK AO2 SLP240 T01330033=
201311032352 METAR KATL 032352Z 00000KT 10SM CLR 14/03 A3022 RMK AO2 SLP234 T01390033 10183 20139 53010=
201311032252 METAR KATL 032252Z 11004KT 10SM CLR 16/02 A3020 RMK AO2 SLP226 T01560017=
201311032152 METAR KATL 032152Z 06008KT 10SM CLR 17/01 A3019 RMK AO2 SLP222 T01720011=
201311032052 METAR KATL 032052Z 01005KT 10SM CLR 18/01 A3018 RMK AO2 SLP221 T01830006 55007=
201311031952 METAR KATL 031952Z 06006KT 10SM CLR 18/01 A3018 RMK AO2 SLP220 T01780006=
201311031852 METAR KATL 031852Z VRB05KT 10SM CLR 17/01 A3018 RMK AO2 SLP220 T01720011=
201311031752 METAR KATL 031752Z 35007KT 10SM CLR 17/01 A3021 RMK AO2 SLP228 T01670011 10172 20056 58008=
201311031652 METAR KATL 031652Z 01005KT 10SM CLR 16/02 A3024 RMK AO2 SLP238 T01610022=
201311031552 METAR KATL 031552Z 02007KT 10SM CLR 14/03 A3024 RMK AO2 SLP241 T01440033=
201311031452 METAR KATL 031452Z 28005KT 10SM CLR 12/06 A3023 RMK AO2 SLP239 T01170056 51019=
201311031352 METAR KATL 031352Z 33007KT 10SM CLR 09/06 A3022 RMK AO2 SLP234 T00940056=
201311031252 METAR KATL 031252Z 33006KT 10SM CLR 07/05 A3019 RMK AO2 SLP226 T00720050=
201311031152 METAR KATL 031152Z 32005KT 10SM CLR 06/04 A3017 RMK AO2 SLP220 T00560039 10094 20056 53023=
201311031052 METAR KATL 031052Z 32006KT 10SM CLR 06/04 A3014 RMK AO2 SLP208 T00610044=
201311030952 METAR KATL 030952Z 32008KT 10SM CLR 07/04 A3012 RMK AO2 SLP198 T00670044=
201311030852 METAR KATL 030852Z 30006KT 10SM CLR 07/04 A3010 RMK AO2 SLP193 T00720039 51009=
201311030752 METAR KATL 030752Z 32007KT 10SM CLR 08/04 A3009 RMK AO2 SLP188 T00830039=
201311030652 METAR KATL 030652Z 31005KT 10SM CLR 08/04 A3009 RMK AO2 SLP188 T00830039=
201311030552 METAR KATL 030552Z 34008KT 10SM CLR 10/04 A3008 RMK AO2 SLP182 T01000039 10144 20094 51006=
201311030452 METAR KATL 030452Z 34009KT 10SM CLR 11/03 A3007 RMK AO2 SLP179 T01060033 402110089=
201311030352 METAR KATL 030352Z 33006KT 10SM CLR 11/03 A3007 RMK AO2 SLP181 T01060033=
201311030252 METAR KATL 030252Z 33009KT 10SM FEW070 12/03 A3006 RMK AO2 SLP176 T01170033 51027=
201311030152 METAR KATL 030152Z COR 31007KT 10SM FEW065 SCT085 12/03 A3004 RMK AO2 SLP170 T01220033=
201311030052 METAR KATL 030052Z 30005KT 10SM FEW090 13/03 A3001 RMK AO2 SLP162 T01280033=
201311022352 METAR KATL 022352Z COR 30008KT 10SM FEW065 SCT090 14/02 A2998 RMK AO2 SLP151 T01440022 10211 20144 53027=
201311022252 METAR KATL 022252Z 31011G18KT 10SM FEW065 SCT075 16/02 A2994 RMK AO2 SLP137 T01610022=
201311022152 METAR KATL 022152Z 32013G20KT 10SM FEW065 SCT080 18/03 A2991 RMK AO2 SLP126 TCU DSNT NE AND NW T01830028=
201311022052 METAR KATL 022052Z 31010G21KT 10SM SCT075 19/03 A2989 RMK AO2 SLP119 T01890033 55007=
201311021952 METAR KATL 021952Z 29013G17KT 10SM SCT065 SCT250 21/03 A2988 RMK AO2 SLP116 T02060033=
201311021852 METAR KATL 021852Z 29012G16KT 10SM SCT065 20/06 A2989 RMK AO2 SLP118 T02000056=
201311021752 METAR KATL 021752Z 28011G17KT 10SM SCT060 BKN080 21/06 A2991 RMK AO2 SLP125 T02060061 10206 20089 58007=
201311021652 METAR KATL 021652Z 26009KT 10SM FEW050 BKN120 19/07 A2993 RMK AO2 SLP132 T01940067=
201311021552 METAR KATL 021552Z 29006KT 10SM FEW150 SCT220 19/07 A2993 RMK AO2 SLP133 T01890067=
201311021452 METAR KATL 021452Z 30005KT 10SM FEW150 SCT220 17/08 A2993 RMK AO2 SLP132 T01720078 51015=
201311021352 METAR KATL 021352Z 27004KT 10SM SCT150 SCT220 14/08 A2992 RMK AO2 SLP130 T01390083=
201311021252 METAR KATL 021252Z 28003KT 10SM BKN150 BKN200 12/08 A2991 RMK AO2 SLP126 T01170078=
201311021152 METAR KATL 021152Z 29005KT 10SM FEW250 09/07 A2989 RMK AO2 SLP119 70005 T00890067 10128 20089 53012=
201311021052 METAR KATL 021052Z 30005KT 10SM CLR 10/07 A2987 RMK AO2 SLP111 T01000067=
201311020952 METAR KATL 020952Z 30007KT 10SM CLR 11/07 A2986 RMK AO2 SLP106 T01110072=
201311020852 METAR KATL 020852Z 29005KT 10SM CLR 11/07 A2985 RMK AO2 SLP103 T01110067 53001=
201311020752 METAR KATL 020752Z 31005KT 10SM CLR 11/07 A2984 RMK AO2 SLP101 T01060072=
201311020652 METAR KATL 020652Z 31005KT 10SM CLR 12/07 A2985 RMK AO2 SLP104 T01170072=
201311020552 METAR KATL 020552Z 30007KT 10SM CLR 13/07 A2985 RMK AO2 SLP102 T01280072 10183 20128 53004=
201311020452 METAR KATL 020452Z 31007KT 10SM CLR 13/07 A2983 RMK AO2 SLP099 T01330072 402440133=
201311020352 METAR KATL 020352Z 30008KT 10SM CLR 14/09 A2984 RMK AO2 SLP100 T01440089=
201311020252 METAR KATL 020252Z 31008KT 10SM CLR 15/10 A2983 RMK AO2 SLP099 T01500100 51017=
201311020152 METAR KATL 020152Z 29005KT 10SM CLR 16/10 A2982 RMK AO2 SLP093 T01560100=
201311020052 METAR KATL 020052Z 29005KT 10SM CLR 17/10 A2981 RMK AO2 SLP088 T01720100=
201311012352 METAR KATL 012352Z 29007KT 10SM FEW040 18/09 A2978 RMK AO2 SLP081 T01780094 10244 20178 53014=
201311012252 METAR KATL 012252Z 27006KT 10SM FEW040 20/09 A2976 RMK AO2 SLP072 T02000089=
201311012152 METAR KATL 012152Z 26006KT 10SM FEW040 23/12 A2974 RMK AO2 SLP062 T02280122=
201311012052 METAR KATL 012052Z 24009KT 10SM FEW040 23/13 A2974 RMK AO2 SLP063 T02330128 56014=
201311011952 METAR KATL 011952Z 26009G18KT 10SM FEW039 SCT060 24/13 A2975 RMK AO2 SLP064 T02390128=
201311011852 METAR KATL 011852Z 26008KT 10SM FEW035 SCT060 23/14 A2976 RMK AO2 SLP071 T02330144=
201311011752 METAR KATL 011752Z 29004KT 10SM FEW020 SCT060 22/15 A2978 RMK AO2 SLP078 60005 T02220150 10222 20167 58023=
201311011652 METAR KATL 011652Z VRB04KT 10SM FEW015 BKN050 BKN075 20/16 A2983 RMK AO2 SLP095 T02000161=
201311011552 METAR KATL 011552Z 27004KT 10SM FEW009 SCT014 OVC046 18/16 A2985 RMK AO2 SLP101 T01830161=
201311011537 SPECI KATL 011537Z 25004KT 10SM FEW009 SCT014 OVC050 18/17 A2985 RMK AO2=
201311011452 METAR KATL 011452Z 28005KT 10SM FEW010 BKN045 OVC060 18/17 A2985 RMK AO2 SLP102 60005 T01830167 50002=
201311011352 METAR KATL 011352Z 22003KT 9SM FEW005 BKN045 OVC055 17/17 A2986 RMK AO2 RAE42 SLP104 P0000 T01720167=
201311011323 SPECI KATL 011323Z 00000KT 8SM -RA FEW005 SCT012 OVC050 17/16 A2986 RMK AO2 P0000=
201311011252 METAR KATL 011252Z 27003KT 3SM -RA BR FEW004 SCT012 OVC034 17/16 A2986 RMK AO2 SLP104 VIS 2V4 P0005 T01720161=
201311011219 SPECI KATL 011219Z 31007KT 3SM -RA BR FEW006 SCT011 OVC034 17/16 A2985 RMK AO2 SFC VIS 4 P0001=
