##########################################################
# Query made at 04/19/2024 23:33:53 UTC
# Time interval: from 07/01/2013 12:00  to 07/31/2013 12:59  UTC
##########################################################

##########################################################
# KATL, Atlanta, Hartsfield - Jackson Atlanta International Airport (United States)
# WMO index: 72219. WIGOS ID: 0-20000-0-72219
# Latitude 33-38-59N. Longitude 084-25-00W. Altitude 312 m.
##########################################################

201307311252 METAR KATL 311252Z 00000KT 9SM FEW038 SCT055 BKN085 BKN150 22/21 A3014 RMK AO2 RAE40 SLP195 SHRA E-S P0004 T02220206=
201307311158 SPECI KATL 311158Z 33009KT 4SM -RA BR SCT005 SCT075 OVC100 22/21 A3016 RMK AO2 P0001=
201307311152 METAR KATL 311152Z 32011KT 4SM RA BR BKN005 BKN075 OVC100 22/21 A3016 RMK AO2 SLP201 CIG 004V006 P0008 60026 70026 T02170211 10256 20217 53008=
201307311148 SPECI KATL 311148Z 32009KT 4SM -RA BR BKN005 BKN070 OVC095 22/21 A3015 RMK AO2 P0007=
201307311133 SPECI KATL 311133Z 31007KT 4SM RA BR FEW003 SCT075 OVC100 22/21 A3016 RMK AO2 P0005=
201307311052 METAR KATL 311052Z 02006KT 8SM -RA FEW005 SCT075 OVC110 22/21 A3013 RMK AO2 SLP192 P0001 T02220206=
201307310952 METAR KATL 310952Z 36006KT 5SM -RA BR FEW005 SCT070 OVC100 22/21 A3014 RMK AO2 TSE20 SLP196 TS DSIPT P0017 T02170206=
201307310938 SPECI KATL 310938Z 31007KT 4SM RA BR FEW005 BKN100 OVC120 22/21 A3015 RMK AO2 TSE20 TS DSIPT P0013=
201307310921 SPECI KATL 310921Z 31013KT 3SM RA BR SCT009 SCT025 OVC045 22/21 A3016 RMK AO2 TSE20 TS DSIPT P0009=
201307310910 SPECI KATL 310910Z 29013G20KT 2 1/2SM +TSRA BR FEW015 BKN025CB OVC100 22/20 A3016 RMK AO2 OCNL LTGIC OHD-NW-N TS OHD-NW-N MOV NE P0004=
201307310852 METAR KATL 310852Z 23004KT 10SM -TSRA BKN037CB BKN100 OVC200 24/17 A3013 RMK AO2 TSB44RAB52 SLP192 FRQ LTGIC SW-NW TS SW-NW MOV E P0000 60000 T02440172 55000=
201307310845 SPECI KATL 310845Z 00000KT 10SM TS BKN037CB BKN100 OVC200 25/17 A3012 RMK AO2 TSB44 FRQ LTGIC W & DSNT SW-NW TS VC W MOV E=
201307310752 METAR KATL 310752Z 00000KT 10SM SCT100 BKN150 OVC200 25/17 A3011 RMK AO2 SLP186 T02500172=
201307310652 METAR KATL 310652Z COR 00000KT 10SM FEW100 BKN150 OVC200 24/18 A3012 RMK AO2 SLP188 T02440183=
201307310552 METAR KATL 310552Z 15004KT 10SM FEW100 SCT140 BKN180 OVC250 24/18 A3013 RMK AO2 SLP192 VIRGA NW-N T02440183 10300 20244 58012=
201307310452 METAR KATL 310452Z 15004KT 10SM FEW150 BKN200 BKN250 26/18 A3014 RMK AO2 SLP196 T02560178 403220183=
201307310352 METAR KATL 310352Z 14005KT 10SM FEW150 BKN200 OVC250 26/18 A3016 RMK AO2 SLP201 T02610183=
201307310252 METAR KATL 310252Z 15005KT 10SM FEW150 BKN200 BKN250 26/19 A3017 RMK AO2 SLP204 T02610189 51010=
201307310152 METAR KATL 310152Z 15004KT 10SM FEW150 BKN200 BKN250 27/20 A3016 RMK AO2 SLP202 T02720200=
201307310052 METAR KATL 310052Z 15005KT 10SM FEW150 SCT200 BKN250 28/19 A3015 RMK AO2 SLP198 T02830194=
201307302352 METAR KATL 302352Z 14005KT 10SM FEW150 BKN250 30/18 A3013 RMK AO2 SLP194 T03000178 10322 20294 55003=
201307302252 METAR KATL 302252Z 00000KT 10SM FEW150 BKN250 31/18 A3013 RMK AO2 SLP193 T03060178=
201307302152 METAR KATL 302152Z 29004KT 10SM FEW200 BKN250 32/17 A3013 RMK AO2 SLP194 T03220172=
201307302052 METAR KATL 302052Z 20004KT 10SM FEW200 BKN250 32/18 A3015 RMK AO2 SLP198 CB DSNT S-SW T03170178 56017=
201307301952 METAR KATL 301952Z VRB03KT 10SM FEW180 SCT200 BKN250 32/17 A3016 RMK AO2 SLP203 CB DSNT S T03170167=
201307301852 METAR KATL 301852Z 25003KT 10SM FEW180 SCT200 BKN250 31/16 A3018 RMK AO2 SLP209 T03110156=
201307301752 METAR KATL 301752Z VRB05KT 10SM FEW180 SCT200 BKN240 31/16 A3020 RMK AO2 SLP216 T03060156 10306 20194 58004=
201307301652 METAR KATL 301652Z 00000KT 10SM FEW180 BKN240 29/17 A3021 RMK AO2 SLP219 T02890167=
201307301552 METAR KATL 301552Z 31004KT 10SM FEW200 SCT250 29/16 A3021 RMK AO2 SLP219 T02890161=
201307301452 METAR KATL 301452Z 24003KT 10SM FEW150 SCT200 SCT250 27/17 A3021 RMK AO2 SLP220 T02670167 50000=
201307301352 METAR KATL 301352Z 00000KT 10SM FEW180 SCT200 SCT250 25/16 A3022 RMK AO2 SLP225 T02500161=
201307301252 METAR KATL 301252Z 34005KT 10SM FEW180 BKN250 21/17 A3022 RMK AO2 SLP224 T02110167=
201307301152 METAR KATL 301152Z 31006KT 10SM BKN250 19/16 A3021 RMK AO2 SLP221 T01940156 10206 20183 51012=
201307301052 METAR KATL 301052Z 00000KT 10SM SCT180 BKN250 18/16 A3021 RMK AO2 SLP221 T01830156=
201307300952 METAR KATL 300952Z 32003KT 10SM SCT250 19/16 A3019 RMK AO2 SLP213 T01890156=
201307300852 METAR KATL 300852Z 32006KT 10SM FEW250 19/17 A3017 RMK AO2 SLP209 T01890167 53001=
201307300752 METAR KATL 300752Z 31003KT 10SM FEW250 19/16 A3016 RMK AO2 SLP205 T01940161=
201307300652 METAR KATL 300652Z 00000KT 10SM CLR 19/17 A3017 RMK AO2 SLP209 T01940167=
201307300552 METAR KATL 300552Z 32003KT 10SM FEW250 21/17 A3017 RMK AO2 SLP207 T02060167 10267 20206 58005=
201307300452 METAR KATL 300452Z 32004KT 10SM FEW250 21/17 A3018 RMK AO2 SLP212 T02110172 403000206=
201307300352 METAR KATL 300352Z 32003KT 10SM FEW250 22/17 A3019 RMK AO2 SLP213 T02220172=
201307300252 METAR KATL 300252Z VRB05KT 10SM FEW200 23/17 A3019 RMK AO2 SLP213 T02280172 52016=
201307300152 METAR KATL 300152Z 31006KT 10SM FEW200 24/17 A3017 RMK AO2 SLP208 T02390172 $=
201307300052 METAR KATL 300052Z 31006KT 10SM FEW180 SCT250 24/18 A3015 RMK AO2 SLP201 T02440178=
201307292352 METAR KATL 292352Z 31008KT 10SM SCT180 BKN250 27/17 A3014 RMK AO2 SLP196 T02670167 10300 20261 55000=
201307292252 METAR KATL 292252Z 31008KT 10SM SCT180 BKN250 27/14 A3013 RMK AO2 SLP195 T02720139=
201307292152 METAR KATL 292152Z 31007KT 10SM FEW150 SCT250 28/16 A3014 RMK AO2 SLP196 T02830156=
201307292052 METAR KATL 292052Z 34009KT 10SM FEW065 SCT150 SCT180 BKN250 28/12 A3014 RMK AO2 SLP196 CB DSNT SE-S T02830122 55004=
201307291952 METAR KATL 291952Z 31010KT 10SM BKN150 BKN180 BKN250 28/13 A3013 RMK AO2 SLP194 CB DSNT E-SE-S T02830133=
201307291852 METAR KATL 291852Z 33007KT 290V360 10SM FEW055 SCT150 SCT180 BKN250 29/14 A3014 RMK AO2 SLP195 CB DSNT SE T02940144=
201307291752 METAR KATL 291752Z 29006KT 10SM FEW050 SCT150 BKN180 BKN250 28/17 A3015 RMK AO2 SLP199 T02780167 10289 20217 58002=
201307291652 METAR KATL 291652Z 27007KT 10SM FEW040 BKN150 BKN200 28/18 A3015 RMK AO2 SLP200 T02780178=
201307291552 METAR KATL 291552Z 00000KT 10SM FEW040 BKN150 BKN250 27/18 A3016 RMK AO2 SLP202 T02720178=
201307291452 METAR KATL 291452Z 32005KT 10SM FEW040 BKN150 BKN250 25/17 A3016 RMK AO2 SLP202 T02500167 53017=
201307291352 METAR KATL 291352Z 30003KT 10SM BKN150 BKN250 25/18 A3014 RMK AO2 SLP195 T02500178=
201307291252 METAR KATL 291252Z 32003KT 10SM FEW120 SCT150 BKN250 23/18 A3012 RMK AO2 SLP189 T02330178=
201307291152 METAR KATL 291152Z 30004KT 10SM FEW150 BKN250 22/18 A3011 RMK AO2 SLP185 T02170178 10233 20206 53012=
201307291052 METAR KATL 291052Z 32004KT 10SM FEW100 SCT250 21/18 A3009 RMK AO2 SLP181 T02060178=
201307290952 METAR KATL 290952Z 31005KT 10SM FEW032 SCT250 21/18 A3008 RMK AO2 SLP176 T02110178=
201307290852 METAR KATL 290852Z 33004KT 9SM FEW032 22/18 A3007 RMK AO2 SLP173 T02170178 53005=
201307290752 METAR KATL 290752Z 32004KT 9SM FEW032 SCT250 22/20 A3006 RMK AO2 SLP167 T02220200=
201307290652 METAR KATL 290652Z 32004KT 9SM SCT032 SCT250 23/21 A3005 RMK AO2 SLP166 T02280211=
201307290552 METAR KATL 290552Z 32007KT 9SM SCT041 BKN250 24/22 A3005 RMK AO2 SLP166 T02390217 10272 20239 58001=
201307290452 METAR KATL 290452Z 00000KT 10SM SCT250 25/21 A3006 RMK AO2 SLP166 T02500206 403000206=
201307290352 METAR KATL 290352Z 32004KT 10SM FEW042 BKN250 25/21 A3006 RMK AO2 SLP169 T02500211=
201307290252 METAR KATL 290252Z 32004KT 10SM FEW030 SCT100 SCT250 26/21 A3006 RMK AO2 SLP167 T02610211 53015=
201307290152 METAR KATL 290152Z 34003KT 10SM FEW026 SCT110 SCT220 26/21 A3004 RMK AO2 SLP161 T02610211 $=
201307290052 METAR KATL 290052Z 27004KT 10SM FEW028TCU SCT100 BKN250 26/21 A3002 RMK AO2 SLP156 TCU VC NW T02610206=
201307282352 METAR KATL 282352Z COR 28006KT 10SM FEW032TCU SCT110 SCT220 27/21 A3001 RMK AO2 CB DSNT NE TCU VC W-N SLP154 T02720211 10300 20272 53009=
201307282252 METAR KATL 282252Z 29007KT 10SM FEW032TCU SCT110 BKN220 28/21 A2999 RMK AO2 SLP147 CB DSNT N-NE TCU VC E & NW T02830206=
201307282152 METAR KATL 282152Z 27007KT 9SM FEW034TCU SCT100 BKN220 29/21 A2999 RMK AO2 SLP144 CB DSNT N TCU VC ALQDS T02890211=
201307282052 METAR KATL 282052Z 26006KT 10SM SCT045 BKN060 OVC250 29/20 A2999 RMK AO2 SLP144 T02890200 56010=
201307281952 METAR KATL 281952Z VRB05KT 10SM SCT040 SCT050 SCT090 OVC250 29/20 A2999 RMK AO2 SLP146 T02940200=
201307281852 METAR KATL 281852Z 25005KT 10SM SCT040 SCT050 BKN250 29/20 A3000 RMK AO2 SLP150 T02890200=
201307281752 METAR KATL 281752Z 00000KT 10SM SCT040 SCT050 29/19 A3002 RMK AO2 SLP155 T02890189 10294 20211 58002=
201307281652 METAR KATL 281652Z VRB03KT 10SM SCT035 SCT045 BKN100 28/20 A3003 RMK AO2 SLP157 T02830200=
201307281552 METAR KATL 281552Z 00000KT 10SM SCT030 BKN065 BKN100 28/19 A3003 RMK AO2 SLP158 T02780194=
201307281452 METAR KATL 281452Z 32004KT 10SM SCT025 SCT080 27/21 A3003 RMK AO2 SLP157 T02720211 51007=
201307281352 METAR KATL 281352Z 28004KT 10SM FEW018 SCT085 SCT250 26/21 A3002 RMK AO2 SLP155 T02560211=
201307281252 METAR KATL 281252Z 20003KT 8SM SCT085 23/21 A3002 RMK AO2 SLP156 T02280206=
201307281152 METAR KATL 281152Z 00000KT 6SM BR FEW085 21/20 A3000 RMK AO2 SLP151 T02110200 10222 20206 53014=
201307281052 METAR KATL 281052Z 26003KT 7SM FEW085 21/19 A2999 RMK AO2 SLP145 T02060194=
201307280952 METAR KATL 280952Z 30005KT 8SM FEW085 21/19 A2998 RMK AO2 SLP142 T02060194=
201307280852 METAR KATL 280852Z 28004KT 10SM FEW085 21/19 A2996 RMK AO2 SLP137 T02110194 57001=
201307280752 METAR KATL 280752Z 28006KT 10SM FEW045 BKN090 22/19 A2996 RMK AO2 SLP136 T02170194=
201307280652 METAR KATL 280652Z 26005KT 10SM FEW045 BKN085 BKN250 22/19 A2997 RMK AO2 SLP138 T02170194=
201307280552 METAR KATL 280552Z 29003KT 10SM SCT080 BKN250 22/19 A2996 RMK AO2 SLP137 T02220194 10256 20217 58004=
201307280452 METAR KATL 280452Z 30005KT 10SM FEW250 22/19 A2997 RMK AO2 SLP140 T02220194 402780217=
201307280352 METAR KATL 280352Z 23004KT 10SM FEW110 SCT220 22/20 A2997 RMK AO2 SLP141 T02220200=
201307280252 METAR KATL 280252Z 26003KT 10SM SCT120 SCT220 23/20 A2998 RMK AO2 SLP142 T02330200 53008=
201307280152 METAR KATL 280152Z COR 23004KT 10SM FEW150 BKN220 23/20 A2997 RMK AO2 SLP141 T02330200=
201307280052 METAR KATL 280052Z 20004KT 9SM FEW026 SCT140 SCT250 24/21 A2995 RMK AO2 SLP134 TCU DSNT NW-N T02390206=
201307272352 METAR KATL 272352Z 20005KT 9SM FEW024TCU SCT140 BKN250 26/21 A2995 RMK AO2 SLP133 TCU NW & DSNT N & W 60000 T02560206 10267 20256 53001=
201307272252 METAR KATL 272252Z 20006KT 9SM SCT026 SCT090 BKN200 26/21 A2994 RMK AO2 SLP131 T02610206=
201307272152 METAR KATL 272152Z 23006KT 10SM FEW024 SCT140 BKN200 26/21 A2994 RMK AO2 SLP130 T02610206=
201307272052 METAR KATL 272052Z 22006KT 10SM FEW025 SCT035 OVC220 26/21 A2995 RMK AO2 SLP132 60000 T02560211 58015=
201307271952 METAR KATL 271952Z 27007KT 10SM FEW035 SCT100 OVC200 26/20 A2997 RMK AO2 RAE35 SLP138 P0000 T02610200=
201307271852 METAR KATL 271852Z 27006KT 10SM -RA FEW020 SCT035 OVC100 26/19 A2998 RMK AO2 RAB46 SLP143 P0000 T02610194=
201307271752 METAR KATL 271752Z 28010KT 10SM SCT030 SCT040 OVC200 27/20 A2999 RMK AO2 SLP146 T02670200 10278 20217 58005=
201307271652 METAR KATL 271652Z 23008KT 10SM FEW022 SCT028 OVC220 27/21 A3000 RMK AO2 SLP148 T02670206=
201307271552 METAR KATL 271552Z 20003KT 10SM SCT020 SCT120 OVC220 26/21 A3001 RMK AO2 SLP154 T02560211=
201307271452 METAR KATL 271452Z 21005KT 8SM FEW012 BKN100 BKN220 24/22 A3001 RMK AO2 SLP152 T02440217 50002 $=
201307271352 METAR KATL 271352Z 20003KT 7SM SCT006 BKN070 23/22 A3001 RMK AO2 SLP153 T02330217 $=
201307271335 SPECI KATL 271335Z 19005KT 3SM BR BKN006 OVC070 23/22 A3001 RMK AO2 SFC VIS 7 $=
201307271252 METAR KATL 271252Z 20004KT 2SM BR BKN004 OVC160 22/22 A3001 RMK AO2 SLP152 SFC VIS 5 T02220217 $=
201307271233 SPECI KATL 271233Z 25003KT 1SM R09R/P6000FT BR BKN004 OVC160 22/22 A3001 RMK AO2 SFC VIS 3 $=
201307271152 METAR KATL 271152Z 23003KT 1/4SM R09R/4000VP6000FT BR OVC002 22/21 A3000 RMK AO2 SLP150 SFC VIS 1 1/2SM 70106 T02170211 10228 20217 53007 $=
201307271056 SPECI KATL 271056Z 15003KT 1/4SM R09R/P6000FT FG BKN003 22/21 A2999 RMK AO2 SFC VIS 5 $=
201307271052 METAR KATL 271052Z 14003KT 5SM BR BKN005 BKN160 OVC230 22/21 A2999 RMK AO2 SLP146 T02170211 $=
201307271047 SPECI KATL 271047Z 00000KT 5SM BR BKN005 BKN160 OVC230 22/21 A2999 RMK AO2 $=
201307270952 METAR KATL 270952Z 00000KT 6SM BR FEW005 BKN180 22/21 A2998 RMK AO2 SLP143 T02220211 $=
201307270852 METAR KATL 270852Z 00000KT 6SM BR BKN180 22/21 A2998 RMK AO2 SLP143 T02220211 56012=
201307270752 METAR KATL 270752Z 18005KT 5SM BR FEW006 OVC180 23/22 A2998 RMK AO2 SLP144 T02280217=
201307270652 METAR KATL 270652Z 16003KT 5SM BR SCT006 BKN200 23/22 A2999 RMK AO2 SLP146 T02280217=
201307270552 METAR KATL 270552Z 14004KT 7SM BKN006 BKN040 OVC200 23/22 A3001 RMK AO2 SLP152 T02280217 10250 20228 58004=
201307270538 SPECI KATL 270538Z 11003KT 6SM BR BKN006 OVC200 23/22 A3002 RMK AO2 $=
201307270529 SPECI KATL 270529Z 09005KT 7SM SCT006 OVC200 23/22 A3002 RMK AO2 $=
201307270452 METAR KATL 270452Z 11004KT 8SM SCT200 BKN250 23/22 A3002 RMK AO2 SLP154 T02280217 403000222=
201307270352 METAR KATL 270352Z 10003KT 9SM FEW100 SCT200 BKN250 23/22 A3003 RMK AO2 SLP158 T02330217=
201307270252 METAR KATL 270252Z 10007KT 8SM SCT048 BKN090 BKN200 24/22 A3003 RMK AO2 SLP157 T02390222 53004=
201307270152 METAR KATL 270152Z 00000KT 9SM FEW120 SCT200 BKN250 24/23 A3001 RMK AO2 SLP152 T02440228=
201307270052 METAR KATL 270052Z 00000KT 9SM FEW090 SCT120 BKN200 BKN250 24/23 A3001 RMK AO2 SLP153 T02440228=
201307262352 METAR KATL 262352Z 00000KT 9SM BKN090 BKN150 BKN250 25/22 A3001 RMK AO2 SLP154 60106 T02500222 10300 20228 55008=
201307262252 METAR KATL 262252Z 00000KT 8SM SCT075 BKN090 BKN150 BKN250 25/23 A3000 RMK AO2 SLP151 T02500228=
201307262152 METAR KATL 262152Z 18004KT 10SM FEW035 SCT060 BKN090 BKN150 BKN250 24/22 A3001 RMK AO2 TSE36RAE36 SLP154 P0008 T02440217=
201307262137 SPECI KATL 262137Z 21006KT 10SM FEW040 SCT060 BKN090 BKN150 23/22 A3002 RMK AO2 TSE36RAE36 TS DSIPTD P0008=
201307262109 SPECI KATL 262109Z 18003KT 6SM -TSRA BR FEW020CB BKN040 BKN065 OVC150 23/22 A3004 RMK AO2 OCNL LTGICCG S-W TS S-W MOV STNRY P0008=
201307262103 SPECI KATL 262103Z 20006KT 2SM -TSRA BR SCT020CB BKN035 OVC065 23/22 A3004 RMK AO2 SFC VIS 3 OCNL LTGICCG SE-W TS SE-W MOV STNRY P0008=
201307262054 SPECI KATL 262054Z 00000KT 3/4SM R09R/3000VP6000FT +TSRA BR BKN026 OVC035 23/22 A3004 RMK AO2 TWR VIS 2 P0006=
201307262052 METAR KATL 262052Z 18003KT 5SM R09R/3000VP6000FT +TSRA BR SCT012CB BKN030 BKN060 23/22 A3004 RMK AO2 PK WND 17031/1954 SLP164 OCNL LTGICCG SE-W TS SE-W MOV STNRY P0089 60098 T02280217 56005=
201307262028 SPECI KATL 262028Z 17009KT 7SM -TSRA FEW010CB SCT015 OVC060 24/21 A3003 RMK AO2 PK WND 17031/1954 OCNL LTGICCG S TS VC S MOV NE P0061=
201307262022 SPECI KATL 262022Z 11008KT 2 1/2SM -TSRA BR FEW010CB SCT015 OVC060 24/22 A3003 RMK AO2 PK WND 17031/1954 SFC VIS 4 OCNL LTGICCG S TS VC S MOV NE P0061=
201307262016 SPECI KATL 262016Z 10009KT 1SM R09R/P6000FT TSRA BR BKN018CB BKN030 OVC055 23/22 A3004 RMK AO2 PK WND 17031/1954 TWR VIS 1 1/2 FRQ LTGICCG E-SW TS E-SW MOV NE P0060=
201307262009 SPECI KATL 262009Z 08011G14KT 1/2SM R09R/6000VP6000FT +TSRA FG BKN018CB BKN030 OVC055 23/21 A3004 RMK AO2 PK WND 17031/1954 FRQ LTGICCG OHD-NE-SW TS OHD-NE-SW MOV NE P0057=
201307262002 SPECI KATL 262002Z 15011G31KT 1/4SM R09R/1800VP6000FT +TSRA SQ BKN013CB BKN025 OVC030 24/20 A3004 RMK AO2 PK WND 17031/1954 TWR VIS 1/2 FRQ LTGICCG OHD-NE-SW TS OHD-NE-SW MOV NE P0046=
201307261957 SPECI KATL 261957Z 18020G31KT 1/2SM R09R/1800VP6000FT +TSRA SQ SCT018CB BKN025 BKN030 24/21 A3005 RMK AO2 PK WND 17031/1954 FRQ LTGICCG OHD-E-SE TS OHD-E-SE MOV N P0025=
201307261952 METAR KATL 261952Z COR 14005G20KT 1SM R09R/2600VP6000FT +TSRA FEW015 SCT025CB BKN035 26/22 A3005 RMK AO2 TSB50RAB11 SLP166 FRQ LTGCG OHD-E-S TS OHD-E-S MOV N P0009 T02610222=
201307261950 SPECI KATL 261950Z VRB06G20KT 2 1/2SM R09R/3000VP6000FT -TSRA FEW015 SCT025CB BKN035 27/22 A3004 RMK AO2 TSB50RAB11 CB SW AND E MOV N P0002=
201307261852 METAR KATL 261852Z 14008KT 9SM FEW030CB SCT040TCU BKN070 29/21 A3003 RMK AO2 SLP158 CB N AND SE MOV NE TCU NE AND S-W T02890211=
201307261752 METAR KATL 261752Z 13009KT 10SM FEW025CB BKN030TCU BKN060 29/21 A3005 RMK AO2 SLP166 CB E-SE MOV N TCU OHD AND ALQDS T02940211 10300 20228 58009=
201307261652 METAR KATL 261652Z 15007KT 10SM BKN025TCU 29/23 A3006 RMK AO2 SLP168 TCU OHD & ALQDS T02890228=
201307261552 METAR KATL 261552Z 16005KT 10SM BKN025TCU 28/22 A3007 RMK AO2 SLP173 TCU ALQDS T02780222=
201307261452 METAR KATL 261452Z 11005KT 8SM FEW014TCU SCT040 SCT060 27/23 A3008 RMK AO2 SLP175 TCU N-NE T02670228 51008=
201307261434 SPECI KATL 261434Z 14005KT 8SM FEW014TCU SCT040 26/22 A3008 RMK AO2 TCU S & NW=
201307261417 SPECI KATL 261417Z 14004KT 8SM SCT009 SCT029 BKN044 26/22 A3008 RMK AO2=
201307261352 METAR KATL 261352Z 11004KT 6SM HZ BKN009 BKN030 BKN050 25/22 A3008 RMK AO2 SLP175 T02500222=
201307261252 METAR KATL 261252Z 09006KT 7SM BKN007 BKN028 23/21 A3007 RMK AO2 SLP174 T02330211=
201307261233 SPECI KATL 261233Z 10005KT 7SM BKN006 BKN028 BKN250 23/21 A3007 RMK AO2=
201307261216 SPECI KATL 261216Z 07005KT 7SM SCT006 BKN026 BKN250 23/21 A3006 RMK AO2=
201307261152 METAR KATL 261152Z 06005KT 7SM FEW006 SCT028 SCT250 23/21 A3006 RMK AO2 SLP167 T02280206 10233 20222 51012=
201307261052 METAR KATL 261052Z 03007KT 9SM FEW008 SCT030 BKN250 22/20 A3005 RMK AO2 SLP164 T02220200=
201307261044 SPECI KATL 261044Z 05005KT 9SM FEW008 SCT030 BKN250 22/20 A3005 RMK AO2=
201307260952 METAR KATL 260952Z 06004KT 9SM SCT180 BKN250 22/20 A3003 RMK AO2 SLP159 T02220200=
201307260852 METAR KATL 260852Z 06006KT 10SM SCT180 BKN250 23/20 A3002 RMK AO2 SLP154 T02280200 53001=
201307260752 METAR KATL 260752Z 35003KT 10SM BKN180 BKN250 23/19 A3001 RMK AO2 SLP152 T02280194=
201307260652 METAR KATL 260652Z 01005KT 10SM BKN180 BKN250 23/19 A3001 RMK AO2 SLP151 T02330194=
201307260552 METAR KATL 260552Z 33004KT 10SM FEW180 BKN250 23/19 A3001 RMK AO2 SLP153 T02330194 10283 20233 58002=
201307260452 METAR KATL 260452Z 36003KT 10SM BKN250 24/19 A3002 RMK AO2 SLP154 T02440189 403170217=
201307260352 METAR KATL 260352Z 31004KT 10SM BKN250 24/19 A3002 RMK AO2 SLP155 T02390194=
201307260252 METAR KATL 260252Z 31007KT 10SM BKN250 26/19 A3002 RMK AO2 SLP155 T02560189 52012=
201307260152 METAR KATL 260152Z 32005KT 10SM SCT250 26/19 A3001 RMK AO2 SLP151 T02560189=
201307260052 METAR KATL 260052Z 32006KT 10SM FEW250 27/18 A3000 RMK AO2 SLP147 T02670183=
201307252352 METAR KATL 252352Z 32009KT 10SM FEW050 29/18 A2998 RMK AO2 SLP143 CB DSNT NE T02890183 10317 20289 53006=
201307252252 METAR KATL 252252Z 33009KT 10SM FEW050 30/18 A2997 RMK AO2 SLP138 CB DSNT NE & SE T03000183=
201307252152 METAR KATL 252152Z 28009KT 10SM FEW055 31/17 A2997 RMK AO2 SLP136 TCU DSNT NE-SE T03060167=
201307252052 METAR KATL 252052Z COR 28005KT 10SM FEW050 31/18 A2996 RMK AO2 SLP136 TCU DSNT NE-E T03060178 58000=
201307251952 METAR KATL 251952Z 29007KT 10SM FEW050 SCT250 31/18 A2997 RMK AO2 SLP136 T03060178=
201307251852 METAR KATL 251852Z VRB04KT 10SM SCT045 SCT250 31/19 A2996 RMK AO2 SLP136 T03060194=
201307251752 METAR KATL 251752Z VRB04KT 10SM SCT040 SCT250 30/20 A2997 RMK AO2 SLP136 T03000200 10300 20222 51005=
201307251652 METAR KATL 251652Z 33004KT 10SM SCT037 SCT250 29/19 A2996 RMK AO2 SLP135 T02890194=
201307251552 METAR KATL 251552Z 33005KT 10SM FEW040 SCT250 29/19 A2996 RMK AO2 SLP133 T02890194=
201307251452 METAR KATL 251452Z 32005KT 10SM FEW030 SCT250 28/20 A2995 RMK AO2 SLP131 T02780200 51009=
201307251352 METAR KATL 251352Z 30004KT 10SM SCT250 26/21 A2995 RMK AO2 SLP130 T02560206=
201307251252 METAR KATL 251252Z 31006KT 10SM SCT250 24/21 A2994 RMK AO2 SLP127 T02390206=
201307251152 METAR KATL 251152Z 34006KT 9SM SCT250 22/21 A2992 RMK AO2 SLP123 T02220206 10233 20217 51016=
201307250952 METAR KATL 250952Z 33005KT 8SM FEW250 22/21 A2989 RMK AO2 SLP112 T02220206=
201307250852 METAR KATL 250852Z 32006KT 8SM CLR 22/21 A2988 RMK AO2 SLP105 T02220211 55002=
201307250752 METAR KATL 250752Z 31007KT 8SM CLR 23/22 A2987 RMK AO2 SLP103 T02280217=
201307250652 METAR KATL 250652Z 32007KT 8SM CLR 23/22 A2987 RMK AO2 SLP104 T02330217=
201307250552 METAR KATL 250552Z 32009KT 8SM FEW250 23/22 A2988 RMK AO2 SLP107 T02330222 10267 20233 58002=
201307250452 METAR KATL 250452Z 31007KT 9SM FEW200 SCT250 24/22 A2989 RMK AO2 SLP113 T02390222 403000211=
201307250352 METAR KATL 250352Z 29006KT 9SM FEW150 SCT250 24/22 A2989 RMK AO2 SLP112 T02390222=
201307250252 METAR KATL 250252Z 28005KT 10SM FEW150 BKN200 BKN250 24/22 A2989 RMK AO2 SLP110 T02440222 53005=
201307250152 METAR KATL 250152Z 29008KT 10SM FEW150 SCT200 BKN250 26/22 A2988 RMK AO2 SLP108 T02560222=
201307250052 METAR KATL 250052Z 29007KT 10SM SCT150 BKN200 BKN250 26/22 A2987 RMK AO2 SLP105 T02610222=
201307242352 METAR KATL 242352Z 31008KT 10SM FEW025 BKN150 OVC200 27/22 A2987 RMK AO2 SLP107 T02670222 10300 20267 53012=
201307242252 METAR KATL 242252Z 31007KT 10SM FEW025 BKN150 OVC200 28/22 A2985 RMK AO2 SLP099 T02780222=
201307242152 METAR KATL 242152Z 34007KT 10SM FEW028 BKN150 BKN200 OVC250 28/21 A2985 RMK AO2 SLP096 T02830211=
201307242052 METAR KATL 242052Z 30008KT 10SM FEW035 SCT150 BKN180 BKN250 29/22 A2984 RMK AO2 SLP093 T02940217 58022=
201307241952 METAR KATL 241952Z 33011KT 10SM FEW030 SCT150 BKN180 BKN250 29/21 A2987 RMK AO2 SLP104 T02890211=
201307241852 METAR KATL 241852Z 33007KT 10SM SCT028 SCT150 BKN180 BKN250 29/21 A2989 RMK AO2 SLP113 T02890211=
201307241815 SPECI KATL 241815Z 33007KT 10SM FEW030 SCT150 BKN180 BKN250 28/22 A2990 RMK AO2=
201307241752 METAR KATL 241752Z 33008KT 10SM BKN025 BKN150 BKN250 29/22 A2990 RMK AO2 SLP116 T02890222 10289 20222 56007=
201307241750 SPECI KATL 241750Z VRB06KT 10SM BKN027 BKN150 BKN250 28/22 A2990 RMK AO2=
201307241652 METAR KATL 241652Z 28006KT 10SM FEW020 SCT150 BKN180 BKN250 27/22 A2992 RMK AO2 SLP123 T02720217=
201307241552 METAR KATL 241552Z 30007KT 10SM SCT017 BKN180 BKN250 26/22 A2993 RMK AO2 SLP124 T02610217=
201307241452 METAR KATL 241452Z 28008KT 10SM BKN015 BKN250 25/21 A2991 RMK AO2 SLP119 T02500211 50008=
201307241352 METAR KATL 241352Z 29008KT 10SM BKN010 BKN015 OVC250 23/21 A2991 RMK AO2 SLP121 T02330211=
201307241252 METAR KATL 241252Z 29006KT 8SM SCT009 BKN012 BKN250 23/21 A2989 RMK AO2 SLP113 T02330211=
201307241238 SPECI KATL 241238Z 28005KT 7SM SCT008 BKN012 23/21 A2989 RMK AO2=
201307241152 METAR KATL 241152Z 28008KT 7SM BKN012 22/21 A2989 RMK AO2 SLP111 T02220206 10222 20211 52003=
201307241059 SPECI KATL 241059Z 28008KT 6SM BR SCT006 BKN012 BKN180 22/21 A2989 RMK AO2=
201307241052 METAR KATL 241052Z 28008KT 6SM BR SCT006 SCT012 BKN250 22/21 A2989 RMK AO2 SLP113 T02170206=
201307241002 SPECI KATL 241002Z 29006KT 8SM FEW006 SCT013 22/21 A2987 RMK AO2=
201307240952 METAR KATL 240952Z 31007KT 6SM BR SCT006 BKN015 22/21 A2987 RMK AO2 SLP107 T02170206=
201307240852 METAR KATL 240852Z 31008KT 6SM BR OVC006 22/20 A2988 RMK AO2 SLP107 CIG 005V007 T02170200 55003=
201307240752 METAR KATL 240752Z 30007KT 7SM OVC005 21/20 A2987 RMK AO2 SLP106 T02110200=
201307240652 METAR KATL 240652Z 31012KT 7SM OVC005 21/20 A2987 RMK AO2 SLP105 T02110200=
201307240552 METAR KATL 240552Z 29010KT 7SM OVC005 21/20 A2989 RMK AO2 SLP110 CIG 003V007 BINOVC 60000 T02110200 10239 20211 58011=
201307240516 SPECI KATL 240516Z 29007KT 8SM BKN005 OVC180 21/20 A2989 RMK AO2 CIG 003V007=
201307240452 METAR KATL 240452Z 29007KT 10SM SCT005 BKN150 OVC200 21/21 A2991 RMK AO2 RAE01 SLP118 SCT005 V BKN P0000 T02110206 402890211=
201307240352 METAR KATL 240352Z 28005KT 10SM -RA FEW007 BKN120 OVC150 22/21 A2994 RMK AO2 RAE13B33 SLP128 P0000 T02170206=
201307240252 METAR KATL 240252Z 27005KT 10SM -RA BKN110 OVC150 22/21 A2992 RMK AO2 RAE11B52 SLP123 P0000 60000 T02170206 51009=
201307240152 METAR KATL 240152Z 27005KT 10SM -RA FEW006 BKN120 OVC150 22/21 A2990 RMK AO2 SLP118 P0000 T02220206=
201307240122 SPECI KATL 240122Z 26005KT 10SM -RA SCT008 BKN120 OVC150 23/22 A2991 RMK AO2 P0000 $=
201307240052 METAR KATL 240052Z 29006KT 9SM -RA FEW012 BKN120 OVC150 23/22 A2992 RMK AO2 RAB16 SLP123 P0000 T02330217=
201307232352 METAR KATL 232352Z 29008KT 10SM FEW100 BKN150 OVC200 24/21 A2989 RMK AO2 RAB02E23 SLP113 P0000 60000 T02390206 10289 20239 55004=
201307232252 METAR KATL 232252Z 27007KT 10SM FEW025 SCT120 BKN150 OVC200 26/20 A2988 RMK AO2 SLP108 T02560200=
201307232152 METAR KATL 232152Z 26007KT 10SM FEW030 SCT150 BKN200 BKN250 27/19 A2991 RMK AO2 SLP117 T02670194=
201307232052 METAR KATL 232052Z 31006KT 10SM FEW035 SCT070 BKN150 BKN250 28/19 A2990 RMK AO2 SLP117 T02780194 58016=
201307231952 METAR KATL 231952Z 29007KT 10SM FEW040 SCT070 SCT150 BKN250 28/19 A2992 RMK AO2 SLP122 T02830189=
201307231852 METAR KATL 231852Z 28010G16KT 10SM FEW030 SCT070 SCT150 BKN250 28/21 A2994 RMK AO2 SLP130 T02830206=
201307231752 METAR KATL 231752Z 29012KT 10SM FEW030 SCT070 SCT150 BKN250 28/21 A2995 RMK AO2 RAE19 SLP133 P0000 60000 T02830211 10283 20217 56017=
201307231750 SPECI KATL 231750Z 30010KT 10SM FEW030 SCT070 SCT150 BKN250 28/21 A2996 RMK AO2 RAE19 P0000=
201307231652 METAR KATL 231652Z 27008KT 10SM -RA BKN025CB BKN045 BKN070 26/23 A3000 RMK AO2 RAB38 SLP150 VIS LWR NW-N SHRA CB SE & OHD-NW-N MOV SE P0000 T02610228=
201307231644 SPECI KATL 231644Z 27009KT 10SM -RA FEW025CB BKN085 BKN150 BKN250 26/22 A3000 RMK AO2 RAB38 CB SE & NW MOV SE SHRA SE & NW P0000=
201307231552 METAR KATL 231552Z 27007KT 8SM FEW012 SCT025 BKN140 BKN250 26/22 A3001 RMK AO2 SLP151 T02610217=
201307231541 SPECI KATL 231541Z 26007G14KT 8SM FEW012 SCT023 BKN140 BKN250 26/22 A3001 RMK AO2=
201307231527 SPECI KATL 231527Z 26007G15KT 6SM HZ FEW009 BKN020 OVC150 25/22 A3002 RMK AO2=
201307231452 METAR KATL 231452Z 24008KT 5SM BR OVC007 23/21 A3001 RMK AO2 SLP152 T02330211 51007=
201307231352 METAR KATL 231352Z 27005KT 5SM BR OVC005 23/21 A3001 RMK AO2 SLP152 T02280211=
201307231330 SPECI KATL 231330Z 27007KT 6SM BR OVC005 22/21 A3000 RMK AO2=
201307231252 METAR KATL 231252Z 26009KT 8SM BKN007 22/21 A3000 RMK AO2 SLP149 T02220206=
201307231240 SPECI KATL 231240Z 26010KT 8SM BKN007 BKN250 22/21 A2999 RMK AO2=
201307231152 METAR KATL 231152Z 27004KT 8SM FEW009 SCT018 SCT250 22/20 A2999 RMK AO2 SLP144 70011 T02220200 10222 20211 50002=
201307231124 SPECI KATL 231124Z 25004KT 8SM FEW009 SCT018 SCT250 22/19 A2999 RMK AO2=
201307231052 METAR KATL 231052Z 26007KT 8SM FEW009 BKN016 BKN024 BKN250 22/20 A2999 RMK AO2 SLP145 T02170200 $=
201307231017 SPECI KATL 231017Z 27004KT 10SM FEW008 BKN016 BKN041 21/19 A2999 RMK AO2 $=
201307230952 METAR KATL 230952Z 29006KT 10SM FEW008 SCT029 SCT150 21/19 A2998 RMK AO2 SLP143 T02110194 $=
201307230924 SPECI KATL 230924Z 27006KT 10SM FEW008 SCT029 SCT250 21/19 A2998 RMK AO2 $=
201307230910 SPECI KATL 230910Z 27006KT 10SM FEW005 BKN029 BKN250 21/20 A2998 RMK AO2 $=
201307230852 METAR KATL 230852Z 27008KT 9SM FEW005 SCT028 21/20 A2998 RMK AO2 SLP141 T02110200 53007 $=
201307230839 SPECI KATL 230839Z 28007KT 9SM FEW005 SCT028 SCT250 21/20 A2998 RMK AO2 $=
201307230808 SPECI KATL 230808Z 28009KT 8SM FEW007 BKN025 22/20 A2997 RMK AO2 $=
201307230752 METAR KATL 230752Z 28010KT 10SM FEW007 SCT020 SCT250 22/20 A2997 RMK AO2 SLP139 T02170200 $=
201307230652 METAR KATL 230652Z 26007KT 10SM FEW007 SCT250 22/21 A2996 RMK AO2 SLP135 T02220206 $=
201307230552 METAR KATL 230552Z 27008KT 10SM FEW007 SCT250 22/21 A2996 RMK AO2 SLP134 T02220211 10272 20222 58003 $=
201307230533 SPECI KATL 230533Z 27007KT 10SM SCT007 SCT250 23/21 A2996 RMK AO2 $=
201307230452 METAR KATL 230452Z 27009KT 10SM FEW010 SCT017 BKN250 23/22 A2997 RMK AO2 SLP138 T02280217 402940217 $=
201307230402 SPECI KATL 230402Z 28008G15KT 10SM FEW012 BKN250 23/22 A2997 RMK AO2 $=
201307230352 METAR KATL 230352Z 27007KT 10SM SCT012 BKN017 BKN250 24/22 A2997 RMK AO2 SLP139 T02390222 $=
201307230312 SPECI KATL 230312Z 28008KT 10SM SCT013 SCT250 24/22 A2997 RMK AO2 SCT013 V BKN $=
201307230252 METAR KATL 230252Z 26009G15KT 10SM BKN013 OVC020 24/22 A2997 RMK AO2 SLP138 T02440222 51010 $=
201307230152 METAR KATL 230152Z 24011G16KT 10SM BKN016 BKN150 BKN250 25/22 A2996 RMK AO2 SLP133 T02500222=
201307230149 SPECI KATL 230149Z 24009G17KT 10SM BKN016 BKN150 BKN250 25/22 A2995 RMK AO2=
201307230052 METAR KATL 230052Z 22014G20KT 10SM FEW022 SCT150 BKN250 26/22 A2996 RMK AO2 SLP136 T02560222=
201307222352 METAR KATL 222352Z 21009G17KT 10SM FEW030TCU SCT045 SCT150 BKN250 27/22 A2994 RMK AO2 SLP127 TCU N-NE 60011 T02720222 10294 20256 55003=
201307222252 METAR KATL 222252Z 22010KT 10SM SCT030TCU BKN050 BKN150 BKN250 28/22 A2993 RMK AO2 SLP125 TCU OHD-W CB DSNT NW-N T02780222=
201307222152 METAR KATL 222152Z 22008KT 10SM SCT030 BKN200 29/23 A2992 RMK AO2 SLP123 T02890228=
201307222052 METAR KATL 222052Z 24010KT 10SM FEW030TCU BKN040 BKN200 28/22 A2995 RMK AO2 RAE1957 SLP130 TCU SE-S-SW P0000 60011 T02830217 56021=
201307221952 METAR KATL 221952Z 27007KT 9SM -RA FEW025CB SCT040TCU BKN060 28/23 A2997 RMK AO2 RAB35 SLP137 VIS LWR E SHRA CB E MOV E TCU NW-N P0006 T02780228=
201307221945 SPECI KATL 221945Z 25006KT 9SM R09R/4500VP6000FT -RA SCT025CB BKN040 BKN060 27/23 A2997 RMK AO2 RAB35 VIS LWR E SHRA CB E MOV E P0006=
201307221940 SPECI KATL 221940Z 25005KT 1 3/4SM R09R/4500VP6000FT +RA FEW025 BKN040 BKN060 26/23 A2997 RMK AO2 TWR VIS 4 RAB35 P0003=
201307221852 METAR KATL 221852Z 25007KT 10SM FEW023 BKN035 BKN200 28/23 A2999 RMK AO2 SLP145 CB DSNT N-NE-E SHRA DSNT N-NE-E P0005 T02830228=
201307221837 SPECI KATL 221837Z 23009G14KT 10SM FEW025CB SCT045 SCT200 28/24 A3000 RMK AO2 VIS LWR N & E SHRA CB N & E MOV E TCU DSNT S P0005=
201307221824 SPECI KATL 221824Z 24006G15KT 4SM R09R/4000VP6000FT -RA SCT025CB BKN035 BKN065 26/23 A3000 RMK AO2 VIS LWR N & E SHRA CB N & E MOV E P0005=
201307221814 SPECI KATL 221814Z 27006KT 9SM SCT025CB BKN035 BKN065 26/23 A3000 RMK AO2 RAB1754E14 VIS LWR E & W SHRA CB E & W MOV E P0001=
201307221801 SPECI KATL 221801Z 25008KT 4SM R09R/5500VP6000FT -RA BKN028CB BKN040 BKN060 26/22 A3001 RMK AO2 RAB1754 CB OHD MOV E P0001=
201307221752 METAR KATL 221752Z 23008KT 10SM FEW025CB BKN030 BKN080 27/22 A3001 RMK AO2 SLP152 VIS LWR W SHRA CB W MOV E CB DSNT SW-NW T02720217 10289 20228 58011=
201307221726 SPECI KATL 221726Z 24006KT 10SM SCT020 BKN029 BKN065 28/22 A3002 RMK AO2=
201307221652 METAR KATL 221652Z 27011G15KT 10SM FEW030 BKN045 BKN060 27/21 A3004 RMK AO2 SLP161 T02720211=
201307221552 METAR KATL 221552Z COR 25009KT 10SM FEW025 BKN050 27/22 A3005 RMK AO2 SLP164 T02670217=
201307221517 SPECI KATL 221517Z 25008KT 10SM SCT020 27/22 A3004 RMK AO2=
201307221452 METAR KATL 221452Z 26007KT 10SM BKN020 26/22 A3004 RMK AO2 SLP164 T02610217 50002=
201307221352 METAR KATL 221352Z 24005KT 10SM BKN013 BKN020 BKN025 24/22 A3005 RMK AO2 SLP165 T02440217=
201307221252 METAR KATL 221252Z 25004KT 8SM SCT007 BKN015 BKN024 23/22 A3004 RMK AO2 SLP166 T02330217=
201307221209 SPECI KATL 221209Z 26008KT 7SM FEW009 OVC017 23/21 A3004 RMK AO2=
201307221152 METAR KATL 221152Z 26007KT 4SM BR SCT009 OVC013 23/21 A3004 RMK AO2 DZE14 SLP163 P0000 60000 70059 T02280211 10228 20217 51010=
201307221148 SPECI KATL 221148Z 25006KT 4SM BR SCT009 OVC013 23/21 A3004 RMK AO2 DZE14 P0000=
201307221118 SPECI KATL 221118Z 25005KT 2SM BR BKN006 OVC013 22/22 A3002 RMK AO2 SFC VIS 3 DZE14 CIG 004V008 TWRINC P0000=
201307221115 SPECI KATL 221115Z 25005KT 1SM BR BKN005 OVC013 22/22 A3002 RMK AO2 SFC VIS 3 DZE14 CIG 004V007 P0000=
201307221052 METAR KATL 221052Z 26006KT 1SM -DZ BR BKN004 OVC007 22/22 A3002 RMK AO2 SFC VIS 3 DZE30B49 SLP156 CIG 003V005 TWRINC P0000 T02220217=
201307221031 SPECI KATL 221031Z 25005KT 1SM BR OVC004 22/22 A3001 RMK AO2 SFC VIS 2 1/2 DZE30 CIG 003V007 P0000=
201307220952 METAR KATL 220952Z 24008KT 1/2SM R09R/P6000FT -DZ BR OVC003 22/21 A3001 RMK AO2 SFC VIS 1 DZB45 SLP152 CIG 002V006 TWRINC P0000 T02170211 $=
201307220940 SPECI KATL 220940Z 24008KT 1/2SM BR OVC003 22/21 A3001 RMK AO2 SFC VIS 1 1/2 CIG 002V006 TWRINC $=
201307220852 METAR KATL 220852Z 25006KT 5SM BR BKN005 22/21 A3000 RMK AO2 SLP147 CIG 004V007 T02170211 56010 $=
201307220824 SPECI KATL 220824Z 25007KT 5SM BR BKN005 22/21 A3000 RMK AO2 CIG 004V007 $=
201307220748 METAR KATL 220748Z 27004KT 5SM BR BKN004 22/21 A3000=
201307220747 SPECI KATL 220747Z 26004KT 5SM BR BKN004 22/21 A3000 RMK AO2 $=
201307220719 SPECI KATL 220719Z 24003KT 7SM SCT007 22/21 A3000 RMK AO2 $=
201307220652 METAR KATL 220652Z 24003KT 6SM BR FEW004 OVC007 22/22 A3000 RMK AO2 SLP148 BINOVC T02220217 $=
201307220625 SPECI KATL 220625Z 23004KT 6SM BR FEW004 BKN007 BKN011 23/22 A3001 RMK AO2 $=
201307220552 METAR KATL 220552Z 23003KT 5SM BR OVC004 23/22 A3003 RMK AO2 SLP159 VIS S-SW 2 CIG 003V007 60001 T02280217 10228 20222 58007=
201307220525 SPECI KATL 220525Z 22004KT 6SM BR OVC004 22/22 A3004 RMK AO2 CIG 003V007=
201307220452 METAR KATL 220452Z 20004KT 7SM BCFG BKN005 BKN190 22/22 A3005 RMK AO2 SLP165 VIS LWR S T02220217 403060222=
201307220447 SPECI KATL 220447Z 20003KT 7SM BKN006 BKN190 22/22 A3005 RMK AO2 VIS LWR S 403060222=
201307220437 SPECI KATL 220437Z 21003KT 8SM FEW006 SCT130 BKN190 22/22 A3005 RMK AO2=
201307220352 METAR KATL 220352Z 17003KT 9SM BKN160 OVC200 23/22 A3005 RMK AO2 SLP166 T02280217=
201307220252 METAR KATL 220252Z 00000KT 10SM BKN160 OVC200 23/22 A3005 RMK AO2 SLP168 60001 T02280217 53014=
201307220152 METAR KATL 220152Z 28003KT 10SM FEW100 BKN140 OVC200 23/22 A3003 RMK AO2 RAE15 SLP161 P0000 T02280217 $=
201307220052 METAR KATL 220052Z 28003KT 10SM -RA FEW007 SCT075 BKN110 OVC180 22/21 A3002 RMK AO2 SLP156 P0001 T02220206=
201307212352 METAR KATL 212352Z 26006KT 6SM -RA BR FEW005 BKN110 OVC180 23/22 A3001 RMK AO2 TSE16 SLP153 CB DSNT N-E P0003 60058 T02280217 10306 20222 53016=
201307212317 SPECI KATL 212317Z 24006KT 6SM -RA BR FEW042CB SCT070 OVC140 23/22 A3002 RMK AO2 TSE16 TS MOV E CB VC W-NW & DSNT NE-SE MOV E P0000=
201307212252 METAR KATL 212252Z 23007KT 5SM TSRA FEW008 SCT055CB BKN100 OVC150 22/21 A3001 RMK AO2 SLP154 FRQ LTGICCGCC VC NE-SE TS VC NE-SE MOV E CB DSNT W-NW P0052 T02220211=
201307212224 SPECI KATL 212224Z 19010KT 5SM TSRA FEW008 BKN044CB OVC090 23/22 A3001 RMK AO2 VIS E-S 2 CONS LTGICCGCC OHD-NE-SE TS OHD-NE-SE MOV E P0018=
201307212152 METAR KATL 212152Z 29015G26KT 8SM -TSRA FEW012 BKN032CB OVC060 25/22 A2996 RMK AO2 PK WND 31026/2145 TSB23RAB41 SLP136 VIS S 2 FRQ LTGCGIC NE-OHD-S TS NE-OHD-S MOV E P0003 T02500222=
201307212124 SPECI KATL 212124Z 21005KT 10SM TS BKN034CB BKN060 BKN200 29/22 A2995 RMK AO2 TSB23 OCNL LTGCG VC SW-NW TS VC SW-NW MOV E TCU ALQDS=
201307212052 METAR KATL 212052Z VRB04KT 10SM BKN038TCU BKN060 BKN250 30/22 A2996 RMK AO2 SLP134 CB DSNT SW-NW TCU N-NE-SE-S T03000217 56021=
201307211952 METAR KATL 211952Z 24003KT 10SM BKN036TCU BKN250 30/21 A2997 RMK AO2 SLP138 TCU ALQDS T03000211=
201307211852 METAR KATL 211852Z 29004KT 10SM BKN032TCU BKN250 30/22 A3000 RMK AO2 SLP147 TCU ALQDS T03000222=
201307211752 METAR KATL 211752Z 00000KT 10SM SCT028TCU BKN250 28/21 A3003 RMK AO2 SLP156 TCU ALQDS 60000 T02830211 10289 20233 58014=
201307211652 METAR KATL 211652Z 29004KT 10SM FEW020TCU SCT028 BKN150 28/22 A3005 RMK AO2 SLP165 TCU ALQDS T02830222=
201307211643 SPECI KATL 211643Z VRB03KT 10SM FEW020TCU SCT028 BKN150 28/22 A3006 RMK AO2 TCU W-NW-N=
201307211552 METAR KATL 211552Z 26003KT 10SM BKN024 26/22 A3007 RMK AO2 SLP173 T02610222=
201307211512 SPECI KATL 211512Z 25004KT 10SM OVC018 26/22 A3007 RMK AO2=
201307211452 METAR KATL 211452Z 28007KT 10SM BKN014 26/22 A3007 RMK AO2 SLP173 60000 T02560222 51008=
201307211428 SPECI KATL 211428Z 27004KT 10SM R09R/4500VP6000FT BKN014 26/23 A3007 RMK AO2=
201307211352 METAR KATL 211352Z VRB03KT 8SM OVC009 24/22 A3007 RMK AO2 DZE06 SLP172 P0000 T02440222=
201307211252 METAR KATL 211252Z 26004KT 6SM -DZ BR OVC006 23/22 A3007 RMK AO2 DZB49 SLP172 CIG 005V009 P0000 T02330222=
201307211207 SPECI KATL 211207Z 25007KT 3SM BR OVC006 23/22 A3005 RMK AO2 SFC VIS 6 CIG 005V008=
201307211152 METAR KATL 211152Z COR 24007KT 2SM BR OVC004 23/22 A3004 RMK AO2 SFC VIS 6 SLP164 TWRINC 70145 T02330222 10233 20222 51010=
201307211052 METAR KATL 211052Z 25006KT 2SM BR OVC004 23/22 A3004 RMK AO2 SFC VIS 6 SLP162 CIG 003V005 TWRINC T02280222=
201307211015 SPECI KATL 211015Z 25004KT 1 1/4SM BR OVC003 23/22 A3003 RMK AO2 SFC VIS 3 TWRINC=
201307210952 METAR KATL 210952Z 25004KT 5SM BR OVC004 23/22 A3003 RMK AO2 SLP161 T02280217=
201307210852 METAR KATL 210852Z 24004KT 6SM BR OVC004 23/22 A3001 RMK AO2 SLP155 CIG 003V005 T02280217 56011=
201307210827 SPECI KATL 210827Z 22005KT 7SM BKN004 23/22 A3001 RMK AO2 CIG 003V005=
201307210812 SPECI KATL 210812Z 19003KT 8SM BKN005 OVC150 23/22 A3001 RMK AO2=
201307210752 METAR KATL 210752Z 22003KT 10SM FEW015 BKN140 23/22 A3001 RMK AO2 SLP155 T02280217=
201307210652 METAR KATL 210652Z 22006KT 10SM FEW110 BKN140 23/22 A3002 RMK AO2 SLP156 T02280217=
201307210552 METAR KATL 210552Z 00000KT 9SM BKN150 23/22 A3005 RMK AO2 SLP163 60000 T02330222 10239 20228 58002=
201307210452 METAR KATL 210452Z 00000KT 9SM FEW110 BKN140 BKN250 23/22 A3004 RMK AO2 RAE22 SLP162 P0000 T02330222 403000211=
201307210352 METAR KATL 210352Z 00000KT 9SM -RA BKN140 OVC220 24/22 A3005 RMK AO2 RAB32 SLP166 P0000 T02390217=
201307210252 METAR KATL 210252Z 00000KT 10SM BKN160 OVC220 23/22 A3005 RMK AO2 SLP166 T02330217 53020=
201307210152 METAR KATL 210152Z 22004KT 10SM BKN150 OVC220 23/21 A3003 RMK AO2 SLP159 T02330211=
201307210052 METAR KATL 210052Z 18004KT 10SM FEW110 BKN180 BKN250 23/21 A3000 RMK AO2 SLP150 T02330211=
201307202352 METAR KATL 202352Z 18004KT 10SM SCT100 BKN180 OVC250 24/22 A2999 RMK AO2 SLP146 60145 T02390217 10300 20211 55012=
201307202252 METAR KATL 202252Z 00000KT 9SM SCT130 BKN200 24/21 A2999 RMK AO2 SLP145 CB DSNT E & SW T02390211=
201307202152 METAR KATL 202152Z 33007KT 8SM FEW008 BKN120 OVC200 23/20 A3000 RMK AO2 TSE33RAE30 SLP151 CB DSNT NE-E & SW P0000 T02280200=
201307202134 SPECI KATL 202134Z 31009KT 7SM FEW006 BKN110 OVC200 22/20 A3001 RMK AO2 TSE33RAE30 TS DSPTD CB DSNT E & SW VIS LWR W-N P0000=
201307202052 METAR KATL 202052Z 31009KT 5SM -TSRA BR FEW007CB SCT032 OVC080 22/21 A3003 RMK AO2 SLP159 OCNL LTGICCG W-NW-N TS W-NW-N STNRY VIS LWR NW-N-NE P0117 60145 T02170211 53001=
201307202036 SPECI KATL 202036Z 00000KT 3SM TSRA BR SCT032CB OVC090 22/21 A3002 RMK AO2 OCNL LTGICCG NW TS NW STNRY VIS LWR NW-N-NE P0111=
201307202014 SPECI KATL 202014Z 35006KT 1SM R09R/4500VP6000FT TSRA BR SCT012CB OVC025 22/21 A3002 RMK AO2 OCNL LTGICCG W-OHD-SE TS W-OHD-SE STNRY P0108=
201307202006 SPECI KATL 202006Z 03008KT 1/2SM R09R/1600V5500FT +TSRA FG SCT006CB OVC025 21/21 A3001 RMK AO2 OCNL LTGICCG OHD-S TS OHD-S STNRY P0101=
201307201959 SPECI KATL 201959Z 01013KT 1/4SM R09R/1200V3000FT +TSRA FG BKN006CB OVC015 21/21 A3001 RMK AO2 OCNL LTGICCG OHD-S TS OHD-S STNRY P0077=
201307201952 METAR KATL 201952Z 02015G37KT 1/2SM R09R/1600VP6000FT +TSRA FG BKN008CB OVC015 21/20 A3003 RMK AO2 PK WND 03037/1949 TSB12RAB19 PRESRR SLP161 OCNL LTGICCG OHD-N TS OHD-N STNRY P0028 T02110200=
201307201929 SPECI KATL 201929Z 36027G37KT 1SM R09R/P6000FT +TSRA SQ BKN008CB OVC015 26/20 A3000 RMK AO2 PK WND 02037/1926 TSB12RAB19 OCNL LTGCG N TS N STNRY VSBY LWR N P0000=
201307201925 SPECI KATL 201925Z 03029G34KT 1SM R09R/P6000FT +TSRA BKN015CB OVC035 27/20 A2999 RMK AO2 PK WND 04034/1924 TSB12RAB19 OCNL LTGCG N TS N STNRY VSBY LWR N P0000=
201307201920 SPECI KATL 201920Z VRB05KT 2SM TSRA BKN035CB BKN050 BKN250 27/20 A2999 RMK AO2 TSB12RAB19 OCNL LTGCG N TS N STNRY VSBY LWR N P0000=
201307201913 SPECI KATL 201913Z 02013KT 10SM TS BKN035CB BKN050 BKN250 27/21 A2999 RMK AO2 TSB12 OCNL LTGCG N TS N STNRY TCU SE-S-SW VSBY LWR N=
201307201852 METAR KATL 201852Z 18007KT 10SM BKN035CB BKN080 BKN250 29/22 A3000 RMK AO2 SLP147 CB N MOV NE TCU SE-S-SW T02940222=
201307201752 METAR KATL 201752Z 18008KT 140V210 9SM SCT032 SCT100 BKN250 29/22 A3002 RMK AO2 SLP156 CB DSNT N T02940222 10294 20228 58016 $=
201307201652 METAR KATL 201652Z 18006KT 8SM SCT025 BKN090 BKN250 28/23 A3005 RMK AO2 SLP165 T02830228 $=
201307201552 METAR KATL 201552Z 18005KT 8SM SCT022 BKN100 28/23 A3007 RMK AO2 SLP173 T02780228 $=
201307201452 METAR KATL 201452Z VRB03KT 8SM SCT018 SCT150 BKN250 26/22 A3007 RMK AO2 SLP172 T02610222 51006 $=
201307201352 METAR KATL 201352Z 24003KT 7SM FEW011 SCT120 BKN250 26/22 A3007 RMK AO2 SLP171 T02560222 $=
201307201316 SPECI KATL 201316Z 00000KT 7SM SCT009 BKN100 24/22 A3007 RMK AO2 $=
201307201252 METAR KATL 201252Z 17003KT 6SM BR BKN006 23/22 A3006 RMK AO2 SLP170 CIG 005V008 T02330222 $=
201307201152 METAR KATL 201152Z 20004KT 5SM BR BKN005 BKN100 23/22 A3006 RMK AO2 SLP167 70002 T02280217 10239 20228 53005 $=
201307201052 METAR KATL 201052Z 00000KT 9SM BKN008 BKN095 BKN250 23/22 A3005 RMK AO2 SLP165 T02280217 $=
201307201033 SPECI KATL 201033Z 22004KT 9SM BKN008 OVC095 23/22 A3005 RMK AO2 $=
201307201016 SPECI KATL 201016Z 21006KT 10SM FEW009 SCT100 BKN150 BKN250 23/22 A3005 RMK AO2 $=
201307200952 METAR KATL 200952Z 22004KT 10SM FEW011 SCT042 BKN095 23/22 A3004 RMK AO2 SLP162 T02280217 $=
201307200947 SPECI KATL 200947Z 21004KT 10SM SCT011 SCT042 BKN090 23/22 A3004 RMK AO2 $=
201307200916 SPECI KATL 200916Z 00000KT 10SM BKN013 BKN042 BKN080 23/22 A3004 RMK AO2 $=
201307200852 METAR KATL 200852Z 00000KT 10SM SCT019 BKN085 23/22 A3004 RMK AO2 SLP161 T02280217 55008 $=
201307200752 METAR KATL 200752Z 21004KT 10SM FEW040 SCT100 23/21 A3004 RMK AO2 SLP161 T02280211 $=
201307200652 METAR KATL 200652Z 21004KT 10SM FEW040 SCT250 23/22 A3005 RMK AO2 SLP165 T02330217 $=
201307200552 METAR KATL 200552Z 18003KT 10SM FEW035 BKN250 24/22 A3006 RMK AO2 SLP169 60001 T02390217 10294 20239 58000 $=
201307200452 METAR KATL 200452Z 22003KT 10SM FEW035 BKN250 24/22 A3007 RMK AO2 SLP171 T02440222 403220228 $=
201307200352 METAR KATL 200352Z 19005KT 10SM FEW040 BKN250 25/22 A3007 RMK AO2 SLP172 T02500217 $=
201307200252 METAR KATL 200252Z VRB05KT 10SM FEW040 SCT070 BKN250 26/22 A3006 RMK AO2 TSE23 SLP170 OCNL LTG DSNT NW 60001 T02610222 53018 $=
201307200223 SPECI KATL 200223Z 34003KT 10SM SCT040 BKN070 BKN250 26/22 A3006 RMK AO2 TSE23 OCNL LTGIC DSNT NW TS MOV NW $=
201307200152 METAR KATL 200152Z 31006KT 10SM TS SCT045CB BKN080 BKN250 26/23 A3004 RMK AO2 TSB16RAE09 SLP161 OCNL LTGICCG VC NW-N TS VC NW-N MOV SLO NW P0001 T02610228 $=
201307200116 SPECI KATL 200116Z 17006KT 10SM TS SCT045CB BKN080 BKN250 27/22 A3003 RMK AO2 TSB16RAE09 OCNL LTGICCG VC NW-N TS VC NW-N MOV SLO N P0001=
201307200052 METAR KATL 200052Z 16006KT 10SM -RA SCT045TCU BKN070 BKN250 28/22 A3002 RMK AO2 RAB46 SLP156 TCU OHD-NW CB DSNT NW P0000 T02780222=
201307192352 METAR KATL 192352Z 19005KT 10SM SCT045TCU SCT250 29/21 A3001 RMK AO2 SLP151 TCU NW-NE & VC S & SW CB DSNT N 60001 T02940206 10322 20283 56008=
201307192252 METAR KATL 192252Z 18004KT 10SM SCT045CB SCT250 31/20 A3001 RMK AO2 SLP152 CB NW-N MOV STNRY TCU OHD-SE & W-NW SHRA NW-N T03110200=
201307192152 METAR KATL 192152Z 19006KT 10SM SCT045TCU BKN200 32/21 A3002 RMK AO2 SLP155 TCU OHD & DSNT W-NW T03170206=
201307192052 METAR KATL 192052Z 17004KT 10SM FEW040TCU SCT090 BKN250 31/21 A3003 RMK AO2 SLP158 TCU ALQDS 60001 T03110206 58023=
201307191952 METAR KATL 191952Z 34005KT 10SM SCT042TCU BKN090 BKN250 29/22 A3006 RMK AO2 RAB05E44 SLP168 TCU ALQDS P0001 T02890217=
201307191852 METAR KATL 191852Z 00000KT 10SM BKN040TCU BKN250 31/20 A3008 RMK AO2 RAB32E42 SLP176 TCU ALQDS P0000 T03060200=
201307191840 SPECI KATL 191840Z 19005KT 8SM -RA BKN035CB BKN070 BKN250 30/21 A3009 RMK AO2 RAB32 CB OHD-E MOV S P0000=
201307191832 SPECI KATL 191832Z 20008KT 6SM RA BKN035CB BKN070 BKN250 29/21 A3009 RMK AO2 RAB32 VIS LWR N-NE SHRA CB OHD-N-NE MOV NW P0000=
201307191752 METAR KATL 191752Z 27004KT 10SM SCT042TCU BKN250 30/21 A3010 RMK AO2 SLP182 TCU ALQDS T03000211 10311 20239 58016=
201307191652 METAR KATL 191652Z 00000KT 10SM SCT030TCU SCT250 30/21 A3013 RMK AO2 SLP189 TCU NE-E-SE-S-SW T03000211=
201307191552 METAR KATL 191552Z 29005KT 10SM SCT025TCU SCT250 29/23 A3015 RMK AO2 SLP196 TCU NE-E-SE & NW T02890228=
201307191452 METAR KATL 191452Z VRB05KT 10SM BKN023TCU BKN250 28/22 A3015 RMK AO2 SLP199 TCU OHD-N-NE-E-SE-S & DSNT ALQDS T02830222 51007=
201307191352 METAR KATL 191352Z 21004KT 10SM FEW020TCU SCT200 SCT250 27/22 A3015 RMK AO2 SLP199 TCU NE T02670222=
201307191252 METAR KATL 191252Z 00000KT 10SM FEW024 SCT250 26/22 A3015 RMK AO2 SLP197 T02610222=
201307191152 METAR KATL 191152Z 00000KT 8SM FEW012 SCT070 24/22 A3013 RMK AO2 SLP193 TCU DSNT NW-N ACC DSNT S 60000 T02390222 10250 20228 53010=
201307191052 METAR KATL 191052Z 00000KT 8SM FEW070 SCT250 23/22 A3012 RMK AO2 SLP188 ACC DSNT NW-N T02330217=
201307190952 METAR KATL 190952Z 14003KT 9SM CLR 24/22 A3010 RMK AO2 SLP180 T02390217=
201307190852 METAR KATL 190852Z 00000KT 9SM FEW034 SCT060 24/22 A3010 RMK AO2 SLP182 60000 T02390217 56010=
201307190752 METAR KATL 190752Z 00000KT 10SM BKN055 BKN250 24/22 A3011 RMK AO2 RAB39E49 SLP185 P0000 T02440217=
201307190652 METAR KATL 190652Z 20003KT 10SM FEW250 24/22 A3012 RMK AO2 SLP188 T02390217=
201307190552 METAR KATL 190552Z 00000KT 10SM FEW250 25/22 A3013 RMK AO2 SLP192 T02500222 10294 20244 58002=
201307190452 METAR KATL 190452Z 18004KT 10SM SCT250 25/22 A3014 RMK AO2 SLP194 T02500222 403060206=
201307190352 METAR KATL 190352Z 15003KT 10SM FEW250 26/22 A3014 RMK AO2 SLP194 T02610222=
201307190252 METAR KATL 190252Z 00000KT 10SM FEW250 27/22 A3014 RMK AO2 SLP195 T02670222 51012=
201307190152 METAR KATL 190152Z 18004KT 10SM FEW035 SCT250 27/22 A3013 RMK AO2 SLP190 T02670222=
201307190052 METAR KATL 190052Z 16003KT 10SM SCT035CB SCT250 28/22 A3012 RMK AO2 SLP187 CB VC W-NW MOV NW TCU VC SW-W VCSH W-NW T02780222=
201307182352 METAR KATL 182352Z 13004KT 10SM FEW035CB SCT250 29/22 A3010 RMK AO2 SLP183 CB VC NW MOV NW TCU W-NW VCSH NW T02890217 10306 20289 53001=
201307182252 METAR KATL 182252Z 13008KT 10SM SCT040TCU BKN250 31/22 A3008 RMK AO2 SLP177 TCU SW-NW & VC E-S T03060217=
201307182152 METAR KATL 182152Z 14003KT 10SM SCT040TCU BKN250 31/21 A3009 RMK AO2 SLP179 TCU SE & VC SW-NW T03060211=
201307182052 METAR KATL 182052Z 13005KT 10SM BKN040TCU BKN250 30/21 A3010 RMK AO2 SLP182 TCU NE-E-SE-S-SW-W T03000211 58026=
201307181952 METAR KATL 181952Z VRB04KT 10SM BKN040TCU BKN250 30/22 A3013 RMK AO2 SLP192 TCU ALQDS T03000217=
201307181852 METAR KATL 181852Z 00000KT 10SM BKN038 BKN250 30/21 A3015 RMK AO2 SLP200 T03000211=
201307181752 METAR KATL 181752Z 19005KT 10SM SCT030 SCT250 29/22 A3018 RMK AO2 SLP209 T02940217 10300 20222 58009=
201307181652 METAR KATL 181652Z 11005KT 10SM SCT030 SCT250 29/22 A3020 RMK AO2 SLP217 T02890217=
201307181552 METAR KATL 181552Z 11004KT 10SM SCT025 SCT250 28/21 A3021 RMK AO2 SLP219 T02780211=
201307181452 METAR KATL 181452Z 09006KT 10SM FEW023 SCT110 SCT250 27/21 A3021 RMK AO2 SLP220 T02670206 51004=
201307181352 METAR KATL 181352Z 01004KT 10SM FEW025 SCT110 SCT250 26/20 A3021 RMK AO2 SLP219 T02560200=
201307181252 METAR KATL 181252Z 36006KT 10SM FEW180 SCT250 24/20 A3021 RMK AO2 SLP221 T02390200=
201307181152 METAR KATL 181152Z 35007KT 9SM FEW180 BKN250 22/20 A3019 RMK AO2 SLP217 60000 70032 T02220200 10222 20206 53006=
201307181052 METAR KATL 181052Z 34005KT 9SM BKN180 BKN250 21/19 A3018 RMK AO2 SLP213 T02110194=
201307180952 METAR KATL 180952Z 30003KT 9SM SCT180 BKN220 21/19 A3018 RMK AO2 SLP211 T02060194=
201307180852 METAR KATL 180852Z 29007KT 7SM BCFG FEW004 BKN180 21/20 A3017 RMK AO2 SLP209 VIS NW 2 1/2 60000 T02110200 56009=
201307180752 METAR KATL 180752Z 30005KT 7SM BCFG FEW007 SCT130 BKN200 21/20 A3018 RMK AO2 SLP209 T02110200=
201307180652 METAR KATL 180652Z 08006KT 10SM FEW100 OVC140 22/20 A3015 RMK AO2 RAE08 SLP200 P0000 T02170200=
201307180552 METAR KATL 180552Z 28004KT 10SM -RA FEW100 OVC130 22/20 A3020 RMK AO2 RAB19 SLP216 P0000 60008 T02170200 10244 20211 55030=
201307180452 METAR KATL 180452Z 17007KT 10SM FEW060 BKN110 OVC150 22/19 A3018 RMK AO2 RAE41 SLP208 P0002 T02170194 403280211=
201307180405 SPECI KATL 180405Z 06014G20KT 7SM -RA FEW007 SCT050 BKN110 OVC150 22/21 A3020 RMK AO2 PRESFR P0002=
201307180352 METAR KATL 180352Z 09010G17KT 6SM -RA BR BKN007 BKN015 OVC110 22/21 A3022 RMK AO2 PRESFR SLP222 P0006 T02170206=
201307180319 SPECI KATL 180319Z 10010KT 8SM -RA FEW008 BKN014 BKN090 OVC150 22/21 A3028 RMK AO2 OCNL LTGIC DSNT N-NE P0000=
201307180252 METAR KATL 180252Z 11012G18KT 9SM -RA FEW008 BKN120 OVC150 22/21 A3029 RMK AO2 RAE04B33 SLP248 OCNL LTG DSNT NE P0000 60000 T02220206 53035=
201307180152 METAR KATL 180152Z 07007KT 10SM -RA FEW025 SCT120 BKN150 OVC200 24/19 A3023 RMK AO2 RAB18 SLP227 FRQ LTG DSNT E-SE P0000 T02390194=
201307180052 METAR KATL 180052Z 04010KT 10SM FEW050 SCT120 BKN150 BKN200 24/19 A3022 RMK AO2 SLP223 FRQ LTG DSNT NE & E-SE CBMAM OHD T02440189=
201307172352 METAR KATL 172352Z 29003KT 10SM FEW050 BKN110 BKN150 BKN200 23/20 A3019 RMK AO2 TSE19RAE40 SLP213 FRQ LTGICCG DSNT NE-SE CBMAM S-W-NW P0000 60024 T02280200 10328 20222 50000=
201307172319 SPECI KATL 172319Z 02005KT 10SM -RA FEW050 SCT080 BKN110 BKN200 23/19 A3017 RMK AO2 TSE19 OCNL LTGICCG DSNT NE-SE TS DSIPTD CBMAM OHD-W P0000=
201307172252 METAR KATL 172252Z 00000KT 9SM -TSRA FEW025CB SCT050 BKN110 BKN200 23/20 A3020 RMK AO2 RAE18B48 SLP218 FRQ LTGICCG N-NE & VC E TS N-NE & VC E MOV STNRY P0019 T02280200=
201307172152 METAR KATL 172152Z COR 33015G27KT 6SM TSRA FEW025CB BKN050 BKN100 BKN200 22/19 A3021 RMK AO2 PK WND 36027/2143 WSHFT 2133 RAB33 SLP221 VIS LWR SW-NW-N FRQ LTGICCG SW-NW-N TS SW-NW-N MOV SW P0005 T02220194=
201307172123 SPECI KATL 172123Z 23010G21KT 10SM TS FEW020CB SCT030TCU BKN060 OVC200 26/19 A3019 RMK AO2 PK WND 26026/2109 WSHFT 2103 FRQ LTGICCG N-NE & S-W-NW TS N-NE & S-W-NW MOV SW CB DSNT NW TCU ALQDS=
201307172107 SPECI KATL 172107Z 26014G22KT 10SM TS FEW020CB SCT030TCU BKN060 BKN250 27/20 A3018 RMK AO2 VIS LWR S-SW-W SHRA CONS LTGICCG S-SW-W TS VC S-SW-W MOV STNRY CB DSNT NW TCU ALQDS=
201307172052 METAR KATL 172052Z 28008KT 10SM TS FEW025CB SCT030TCU BKN080 BKN250 27/21 A3019 RMK AO2 SLP212 CONS LTGICCG SW-W TS VC SW-W MOV STNRY CB DSNT NW-N TCU ALQDS SHRA VC SW-W T02670206 56022=
201307172033 SPECI KATL 172033Z 24014G21KT 10SM TS FEW035CB SCT045TCU SCT250 28/22 A3018 RMK AO2 CONS LTGICCG SW TS VC SW MOV SW CB DSNT N TCU ALQDS SHRA VC SW=
201307172010 SPECI KATL 172010Z 13003KT 10SM TS FEW045CB SCT050TCU SCT250 31/21 A3018 RMK AO2 FRQ LTGICCG SW TS VC SW MOV SW CB DSNT N TCU NE-SE SHRA VC SW=
201307171952 METAR KATL 171952Z VRB05KT 10SM TS FEW048CB SCT060 BKN250 32/21 A3019 RMK AO2 TSB50 SLP212 OCNL LTGICCG SW TS VC SW MOV SW CB DSNT N & SW SHRA VC SW T03170211=
201307171932 SPECI KATL 171932Z 05005KT 10SM BKN048TCU BKN080 BKN250 32/21 A3020 RMK AO2 FRQ LTGICCG DSNT SW CB DSNT SW TCU ALQDS SHRA DSNT SW=
201307171920 SPECI KATL 171920Z 30007KT 10SM BKN048TCU BKN200 BKN250 32/21 A3021 RMK AO2 CB DSNT SW TCU OHD & ALQDS SHRA DSNT SW=
201307171852 METAR KATL 171852Z 01005KT 10SM SCT048TCU SCT200 BKN250 32/21 A3023 RMK AO2 SLP225 TCU NE-E-SE & S-SW-W T03170206=
201307171752 METAR KATL 171752Z 09006KT 10SM SCT044TCU SCT150 BKN250 32/22 A3025 RMK AO2 SLP233 TCU OHD-N-NE-E T03170217 10317 20233 58013=
201307171652 METAR KATL 171652Z VRB03KT 10SM FEW040 SCT200 BKN250 31/22 A3027 RMK AO2 SLP238 T03110222=
201307171552 METAR KATL 171552Z VRB04KT 10SM FEW035 SCT200 SCT250 30/22 A3029 RMK AO2 SLP245 T03000222=
201307171452 METAR KATL 171452Z 30005KT 10SM FEW030 SCT200 SCT250 29/22 A3029 RMK AO2 SLP246 T02890217 58000=
201307171352 METAR KATL 171352Z 32005KT 10SM FEW250 28/22 A3031 RMK AO2 SLP252 T02780217=
201307171252 METAR KATL 171252Z 32005KT 10SM FEW250 26/21 A3031 RMK AO2 SLP252 T02560211=
201307171152 METAR KATL 171152Z 29003KT 10SM FEW250 23/21 A3029 RMK AO2 SLP248 T02330211 10244 20217 53009=
201307171052 METAR KATL 171052Z 00000KT 10SM FEW250 22/20 A3029 RMK AO2 SLP246 T02220200=
201307170952 METAR KATL 170952Z 32004KT 10SM FEW250 22/20 A3027 RMK AO2 SLP241 T02220200=
201307170852 METAR KATL 170852Z 00000KT 10SM FEW250 23/20 A3027 RMK AO2 SLP239 T02280200 55005=
201307170752 METAR KATL 170752Z 33004KT 10SM FEW250 23/21 A3026 RMK AO2 SLP237 T02280206=
201307170652 METAR KATL 170652Z 00000KT 10SM FEW250 23/21 A3027 RMK AO2 SLP240 T02280206=
201307170552 METAR KATL 170552Z 00000KT 10SM FEW250 24/21 A3028 RMK AO2 SLP243 T02390206 10289 20233 58005=
201307170452 METAR KATL 170452Z 00000KT 10SM FEW250 25/21 A3029 RMK AO2 SLP245 T02500206 403060217=
201307170352 METAR KATL 170352Z 00000KT 10SM FEW250 26/21 A3030 RMK AO2 SLP248 T02560206=
201307170252 METAR KATL 170252Z 00000KT 10SM FEW250 26/21 A3030 RMK AO2 SLP249 T02610206 53010=
201307170152 METAR KATL 170152Z 11004KT 10SM FEW250 27/21 A3028 RMK AO2 SLP244 T02670206=
201307170052 METAR KATL 170052Z 10005KT 10SM FEW040 SCT250 27/20 A3027 RMK AO2 SLP239 T02720200=
201307162352 METAR KATL 162352Z 10006KT 10SM FEW045 29/20 A3027 RMK AO2 SLP239 T02890200 10306 20283 55003=
201307162252 METAR KATL 162252Z 08008KT 10SM FEW045TCU SCT250 29/19 A3026 RMK AO2 SLP237 TCU W T02890194=
201307162152 METAR KATL 162152Z 13006KT 10SM SCT045 BKN250 31/19 A3026 RMK AO2 SLP237 T03060194=
201307162052 METAR KATL 162052Z 14005KT 10SM FEW045 SCT200 BKN250 31/20 A3027 RMK AO2 SLP241 TCU DSNT S T03060200 56013=
201307161952 METAR KATL 161952Z 12005KT 10SM FEW040 SCT200 BKN250 29/20 A3029 RMK AO2 SLP246 T02940200=
201307161852 METAR KATL 161852Z 11008KT 10SM SCT040 SCT200 BKN250 30/20 A3030 RMK AO2 SLP249 T03000200=
201307161752 METAR KATL 161752Z 09008KT 10SM SCT035 SCT250 28/21 A3031 RMK AO2 SLP256 T02830206 10294 20222 58006=
201307161652 METAR KATL 161652Z 10008KT 070V130 10SM BKN030 BKN250 28/22 A3032 RMK AO2 SLP259 T02830217=
201307161552 METAR KATL 161552Z 07010KT 10SM SCT022 SCT250 27/21 A3033 RMK AO2 SLP262 T02670211=
201307161514 SPECI KATL 161514Z 06010G18KT 10SM BKN020 26/22 A3033 RMK AO2=
201307161506 SPECI KATL 161506Z 09011KT 10SM SCT018 27/22 A3033 RMK AO2=
201307161452 METAR KATL 161452Z 09010KT 10SM FEW010 SCT015 BKN018 26/22 A3033 RMK AO2 SLP262 T02610217 51007=
201307161425 SPECI KATL 161425Z 08011KT 10SM SCT010 BKN015 BKN020 24/22 A3033 RMK AO2=
201307161406 SPECI KATL 161406Z 08008KT 10SM BKN010 OVC013 24/22 A3033 RMK AO2=
201307161352 METAR KATL 161352Z 09007KT 8SM BKN008 OVC013 24/22 A3033 RMK AO2 SLP263 T02390217=
201307161316 SPECI KATL 161316Z 08007KT 4SM BR BKN005 23/22 A3033 RMK AO2=
201307161304 SPECI KATL 161304Z 08006KT 1SM BR OVC005 23/22 A3033 RMK AO2 SFC VIS 3=
201307161252 METAR KATL 161252Z 10005KT 1SM BR OVC003 23/22 A3032 RMK AO2 SFC VIS 2 1/2 SLP260 CIG 002V005 TWRINC T02280217=
201307161230 SPECI KATL 161230Z 09008KT 1SM BR OVC003 22/22 A3032 RMK AO2 SFC VIS 2 CIG 002V005 TWRINC=
201307161224 SPECI KATL 161224Z 09006KT 1/4SM BR OVC003 22/22 A3032 RMK AO2 SFC VIS 2 TWRINC=
201307161152 METAR KATL 161152Z 09005KT 1/4SM R09R/4500VP6000FT FG OVC002 22/22 A3031 RMK AO2 SLP255 70004 T02220217 10222 20217 53008=
201307161052 METAR KATL 161052Z 08005KT 1/4SM R09R/4000V5500FT BR OVC002 22/21 A3030 RMK AO2 SFC VIS 3/4 SLP250 TWRINC T02170211=
201307161046 SPECI KATL 161046Z 08006KT 1/4SM R09R/4500VP6000FT BR OVC002 22/21 A3029 RMK AO2 SFC VIS 3/4 TWRINC=
201307161009 SPECI KATL 161009Z 08007KT 1SM BR OVC003 22/21 A3029 RMK AO2 SFC VIS 4 TWRINC=
201307160952 METAR KATL 160952Z 08007KT 2SM BR OVC004 22/21 A3029 RMK AO2 SFC VIS 5 SLP248 TWRINC T02170211=
201307160948 SPECI KATL 160948Z 08008KT 2SM BR OVC004 22/21 A3029 RMK AO2 SFC VIS 5=
201307160941 SPECI KATL 160941Z 08007KT 6SM BR BKN004 22/21 A3029 RMK AO2=
201307160852 METAR KATL 160852Z 08008KT 8SM SCT004 22/21 A3028 RMK AO2 SLP246 T02170211 56004=
201307160752 METAR KATL 160752Z 07006KT 10SM FEW009 22/21 A3029 RMK AO2 SLP247 T02170211=
201307160703 SPECI KATL 160703Z 10006KT 10SM FEW009 SCT250 22/21 A3029 RMK AO2=
201307160652 METAR KATL 160652Z 10004KT 10SM FEW010 SCT250 22/21 A3029 RMK AO2 SLP246 T02220211=
201307160552 METAR KATL 160552Z 09006KT 10SM SCT250 22/21 A3030 RMK AO2 SLP249 T02220211 10250 20222 53002=
201307160452 METAR KATL 160452Z 09005KT 10SM BKN250 23/21 A3029 RMK AO2 SLP248 T02280211 403000222=
201307160352 METAR KATL 160352Z 08008KT 10SM FEW200 BKN250 23/21 A3029 RMK AO2 SLP248 T02280211=
201307160252 SPECI KATL 160252Z 08010KT 10SM FEW200 BKN250 23/21 A3029 RMK AO2 SLP247 T02330211 53015=
201307160252 METAR KATL 160252Z 08010KT 10SM FEW200 BKN250 23/21 A3029 RMK AO2 SLP247 T02330211 53015=
201307160152 METAR KATL 160152Z 09008KT 10SM BKN200 BKN250 24/21 A3026 RMK AO2 SLP239 T02390206=
201307160052 METAR KATL 160052Z 10006KT 10SM FEW030 SCT200 BKN250 24/21 A3025 RMK AO2 SLP235 T02440211=
201307152352 METAR KATL 152352Z 10008KT 10SM FEW025 BKN200 BKN250 25/22 A3024 RMK AO2 SLP232 60004 T02500217 10300 20244 53007=
201307152252 METAR KATL 152252Z 09010KT 10SM FEW025 SCT150 BKN200 BKN250 25/22 A3022 RMK AO2 RAE13 SLP226 CBMAM NW P0000 T02500222=
201307152152 METAR KATL 152152Z 12012KT 9SM -RA SCT030TCU BKN050 BKN150 OVC200 27/22 A3022 RMK AO2 PK WND 10026/2134 RAE2057B36 SLP225 TCU OHD-ALQDS P0004 T02720222=
201307152057 SPECI KATL 152057Z 07014G25KT 10SM FEW035CB SCT050 BKN080 BKN200 28/21 A3022 RMK AO2 RAE57 CB NW MOV E TCU ALQDS P0000=
201307152052 METAR KATL 152052Z 07018G25KT 6SM RA SCT035CB BKN050 BKN080 BKN200 28/21 A3022 RMK AO2 RAB48 SLP224 VIS NW 2 CB OHD-NW MOV E TCU ALQDS P0000 60000 T02780211 56016=
201307151952 METAR KATL 151952Z 09010KT 10SM FEW035 BKN080 BKN250 29/21 A3022 RMK AO2 SLP224 TCU DSNT E T02890206=
201307151852 METAR KATL 151852Z 05005KT 10SM BKN030TCU BKN080 BKN250 28/21 A3025 RMK AO2 RAB1754E03 SLP232 TCU OHD-N-NE-E & SW-W P0000 T02830211=
201307151752 METAR KATL 151752Z 10009KT 10SM BKN030TCU BKN080 28/20 A3027 RMK AO2 RAB28E38 SLP241 CB DSNT S TCU OHD-N-NE SHRA N-NE P0000 60000 T02780200 10283 20233 58009=
201307151652 METAR KATL 151652Z 10007G14KT 10SM FEW030 SCT050 SCT250 28/21 A3029 RMK AO2 SLP247 T02780211=
201307151552 METAR KATL 151552Z 10009KT 10SM SCT025 27/20 A3030 RMK AO2 SLP252 TCU DSNT E T02670200=
201307151452 METAR KATL 151452Z 09010G15KT 10SM BKN020 BKN030 26/21 A3030 RMK AO2 SLP250 60000 T02610211 51008=
201307151405 SPECI KATL 151405Z 10008KT 10SM SCT014 SCT020 26/21 A3029 RMK AO2=
201307151358 SPECI KATL 151358Z 10008KT 10SM SCT014 BKN020 25/21 A3028 RMK AO2=
201307151352 METAR KATL 151352Z 11011KT 10SM BKN014 BKN020 25/21 A3028 RMK AO2 SLP247 T02500211=
201307151252 METAR KATL 151252Z 08011KT 10SM BKN012 BKN026 BKN032 24/21 A3029 RMK AO2 RAB33E42 SLP247 P0000 T02390211 $=
201307151152 METAR KATL 151152Z 10010KT 8SM FEW009 BKN012 BKN034 23/21 A3027 RMK AO2 SLP242 70005 T02280211 10233 20222 51016=
201307151131 SPECI KATL 151131Z 10009KT 9SM SCT009 BKN014 OVC028 23/21 A3027 RMK AO2=
201307151052 METAR KATL 151052Z 09009KT 8SM BKN009 BKN034 22/21 A3026 RMK AO2 SLP238 CIG 007V011 T02220211=
201307150952 METAR KATL 150952Z 09011KT 8SM BKN009 BKN022 23/21 A3024 RMK AO2 SLP232 CIG 008V012 T02280211=
201307150852 METAR KATL 150852Z 11009G16KT 8SM BKN009 22/21 A3022 RMK AO2 SLP225 CIG 008V012 T02220206 50002=
201307150752 METAR KATL 150752Z 10010KT 10SM BKN009 BKN015 BKN055 23/21 A3023 RMK AO2 SLP226 CIG 008V012 T02280206=
201307150652 METAR KATL 150652Z 10011KT 10SM BKN008 BKN015 BKN049 23/21 A3022 RMK AO2 SLP225 T02280211=
201307150642 SPECI KATL 150642Z 11009KT 10SM BKN009 OVC046 23/21 A3023 RMK AO2=
201307150552 METAR KATL 150552Z 11010G17KT 10SM SCT009 SCT020 OVC031 23/22 A3022 RMK AO2 RAB12E47 SLP223 P0002 60002 T02280217 10261 20228 50006=
201307150512 SPECI KATL 150512Z 11010G17KT 10SM -RA SCT007 BKN018 OVC033 23/22 A3022 RMK AO2 RAB12 P0000=
201307150452 METAR KATL 150452Z 12009KT 10SM BKN007 OVC016 23/22 A3022 RMK AO2 SLP223 T02330217 402940222=
201307150352 METAR KATL 150352Z 12006KT 10SM BKN007 OVC022 23/22 A3021 RMK AO2 SLP221 T02330217=
201307150324 SPECI KATL 150324Z 12011G16KT 10SM BKN009 OVC055 23/22 A3021 RMK AO2 TCU DSNT N & W=
201307150252 METAR KATL 150252Z 11008KT 10SM SCT011TCU SCT043 BKN065 BKN220 23/22 A3020 RMK AO2 RAB33E42 SLP217 TCU VC W-NW P0000 60000 T02330222 51020=
201307150243 SPECI KATL 150243Z 11009KT 10SM SCT011TCU BKN041 BKN075 BKN200 24/22 A3020 RMK AO2 RAB33E42 TCU SW-NW-N P0000=
201307150152 METAR KATL 150152Z 09009KT 10SM SCT008 BKN014 OVC200 24/23 A3018 RMK AO2 SLP211 CB DSNT N & E & S T02390228=
201307150119 SPECI KATL 150119Z 09009KT 10SM BKN012 BKN140 BKN200 24/22 A3017 RMK AO2 CB DSNT S=
201307150052 METAR KATL 150052Z 10009KT 10SM FEW013 SCT060 SCT140 BKN210 24/22 A3016 RMK AO2 RAE02 SLP204 CB DSNT SE-S & W-NW P0000 T02390222=
201307150003 SPECI KATL 150003Z 10011KT 9SM SCT014CB SCT065 BKN110 BKN200 24/23 A3014 RMK AO2 RAE02 CB VC W-NW & DSNT SE MOV NW P0000=
201307142352 METAR KATL 142352Z 10010G16KT 7SM -RA BKN017CB BKN110 BKN200 26/22 A3014 RMK AO2 RAB50 SLP197 VIS NW 2 CB OHD-NW MOV NW P0000 60003 T02610222 10294 20250 50007=
201307142350 SPECI KATL 142350Z 11009KT 5SM +RA BKN017CB BKN110 BKN200 26/22 A3014 RMK AO2 RAB50 VIS N 1 CB OHD-N MOV NW P0000=
201307142252 METAR KATL 142252Z 08011KT 10SM SCT017TCU BKN140 BKN220 27/23 A3012 RMK AO2 RAE29 SLP191 TCU NW-NE-E CB DSNT SE & W P0001 T02670228=
201307142152 METAR KATL 142152Z 09018G24KT 9SM -RA SCT024TCU SCT060 BKN200 26/22 A3012 RMK AO2 RAB51 SLP190 TCU SW-W & DSNT SE P0000 T02610222=
201307142137 SPECI KATL 142137Z 11010KT 10SM BKN027TCU BKN060 BKN220 29/22 A3011 RMK AO2 TCU ALQDS VCSH E-SE=
201307142052 METAR KATL 142052Z 09012G15KT 10SM SCT025TCU SCT065 BKN250 28/22 A3011 RMK AO2 RAE1957 SLP187 TCU NE CB DSNT SW P0000 60002 T02830217 58013=
201307141952 METAR KATL 141952Z 10009KT 10SM -RA SCT035TCU SCT060 BKN080 27/22 A3013 RMK AO2 RAE09B47 SLP192 CB MOV NW TCU VC S-W AND NW P0002 T02720222=
201307141852 METAR KATL 141852Z 10014G21KT 10SM -RA BKN030CB BKN040 27/22 A3015 RMK AO2 RAB49 SLP201 CB OHD-E MOV NW P0000 T02720217=
201307141835 SPECI KATL 141835Z 10009KT 10SM SCT026 BKN040 BKN250 29/22 A3015 RMK AO2 CB DSNT E=
201307141817 SPECI KATL 141817Z 10011G16KT 10SM BKN026 BKN045 28/21 A3015 RMK AO2 MDT CU ALQDS=
201307141752 METAR KATL 141752Z 10009KT 10SM SCT026 BKN032 BKN043 28/22 A3015 RMK AO2 SLP200 60000 T02780217 10278 20228 50004=
201307141726 SPECI KATL 141726Z 12008G17KT 10SM SCT023 BKN040 BKN110 28/21 A3016 RMK AO2=
201307141708 SPECI KATL 141708Z 10010G20KT 10SM BKN023 BKN036 BKN110 27/21 A3016 RMK AO2=
201307141652 METAR KATL 141652Z 13010G22KT 10SM SCT023 BKN040 BKN110 27/21 A3016 RMK AO2 SLP203 T02720211=
201307141552 METAR KATL 141552Z 10010KT 10SM FEW020TCU SCT030 BKN120 26/21 A3015 RMK AO2 SLP201 TCU VC N-NE T02610206=
201307141532 SPECI KATL 141532Z 10010G16KT 10SM SCT019 SCT025 BKN044 26/21 A3015 RMK AO2=
201307141452 METAR KATL 141452Z 12009KT 10SM BKN017 BKN026 BKN033 26/21 A3014 RMK AO2 SLP197 60000 T02560211 51007=
201307141352 METAR KATL 141352Z 11011KT 10SM SCT013 BKN021 BKN110 24/21 A3013 RMK AO2 RAB06E19 SLP196 P0000 T02440206=
201307141345 SPECI KATL 141345Z 11009KT 10SM SCT013 BKN021 BKN110 24/21 A3013 RMK AO2 RAB06E19 P0000=
201307141312 SPECI KATL 141312Z 10008KT 8SM -RA BKN011 OVC017 23/21 A3013 RMK AO2 RAB06 P0000=
201307141252 METAR KATL 141252Z 11009KT 8SM BKN009 BKN014 OVC043 23/21 A3013 RMK AO2 RAB25E32 SLP193 P0000 T02280211=
201307141152 METAR KATL 141152Z 11008KT 7SM BKN009 OVC016 23/21 A3012 RMK AO2 SLP190 70001 T02280206 10228 20222 53014=
201307141052 METAR KATL 141052Z 09006KT 7SM BKN008 OVC018 22/21 A3011 RMK AO2 SLP186 T02220211=
201307141007 SPECI KATL 141007Z 10005KT 7SM BKN008 BKN014 OVC022 22/21 A3008 RMK AO2=
201307140952 METAR KATL 140952Z 10005KT 7SM SCT007 BKN013 OVC021 22/21 A3008 RMK AO2 SLP177 T02220206=
201307140852 METAR KATL 140852Z 10007KT 10SM BKN007 BKN013 OVC021 22/21 A3008 RMK AO2 SLP176 T02220206 55000=
201307140752 METAR KATL 140752Z 11009KT 10SM BKN007 BKN013 23/21 A3006 RMK AO2 SLP171 T02280211=
201307140652 METAR KATL 140652Z 10008KT 10SM BKN007 BKN011 OVC055 23/21 A3006 RMK AO2 SLP171 T02280211=
201307140552 METAR KATL 140552Z 09007KT 10SM BKN006 BKN016 OVC130 22/21 A3008 RMK AO2 SLP177 60000 T02220211 10244 20217 51003=
201307140517 SPECI KATL 140517Z 08009KT 10SM BKN006 OVC014 22/21 A3008 RMK AO2=
201307140503 SPECI KATL 140503Z 09006KT 10SM SCT006 BKN014 BKN150 22/21 A3008 RMK AO2=
201307140452 METAR KATL 140452Z 09006KT 8SM BKN006 OVC013 22/21 A3007 RMK AO2 SLP176 T02220211 402560206=
201307140352 METAR KATL 140352Z 08008KT 9SM BKN006 OVC110 22/21 A3008 RMK AO2 RAE03 SLP177 P0000 T02220206=
201307140322 SPECI KATL 140322Z 09007KT 10SM BKN008 OVC110 22/21 A3007 RMK AO2 RAE03 P0000=
201307140252 METAR KATL 140252Z 09009KT 10SM -RA FEW013 BKN100 BKN130 22/20 A3007 RMK AO2 RAB48 SLP174 P0000 60000 T02220200 51009=
201307140210 SPECI KATL 140210Z 08012G19KT 10SM SCT014 BKN130 23/21 A3006 RMK AO2=
201307140152 METAR KATL 140152Z 08015KT 10SM BKN014TCU OVC140 23/21 A3005 RMK AO2 SLP169 VCSH E-S TCU VC E-S T02330206=
201307140146 SPECI KATL 140146Z 08013G18KT 10SM BKN014 BKN140 23/21 A3005 RMK AO2=
201307140113 SPECI KATL 140113Z 08012KT 10SM SCT013TCU SCT032 OVC160 24/21 A3005 RMK AO2 TCU SW-W=
201307140052 METAR KATL 140052Z 07009KT 10SM SCT012TCU BKN023 OVC150 24/21 A3006 RMK AO2 SLP169 TCU N-NE & SW T02390211=
201307132352 METAR KATL 132352Z 12004KT 10SM SCT016TCU SCT090 BKN140 BKN200 24/21 A3004 RMK AO2 SLP164 VIRGA OHD-ALQDS TCU VC NW-NE-E & DSNT SW T02440211 10256 20233 51004=
201307132252 METAR KATL 132252Z 09008KT 10SM FEW020TCU SCT080 OVC150 24/21 A3003 RMK AO2 SLP162 VIRGA OHD-ALQDS TCU VC NE & DSNT NW-N T02440211=
201307132152 METAR KATL 132152Z 09005KT 10SM SCT021TCU SCT060 BKN150 OVC200 24/21 A3004 RMK AO2 SLP163 CB DSNT SW TCU VC SW & W & DSNT NE T02440211=
201307132104 SPECI KATL 132104Z 10008KT 10SM SCT023TCU SCT042 BKN070 OVC200 25/21 A3003 RMK AO2 CB DSNT SW TCU VC ALQDS=
201307132052 METAR KATL 132052Z 09010KT 10SM SCT023 BKN029 BKN039 25/21 A3003 RMK AO2 SLP159 CB DSNT SE MDT CU NE T02500206 58010=
201307132040 SPECI KATL 132040Z 08010KT 10SM FEW017 SCT023 BKN028 25/21 A3002 RMK AO2=
201307131952 METAR KATL 131952Z 09010KT 10SM SCT017 BKN037 OVC044 25/21 A3004 RMK AO2 SLP162 T02500206=
201307131859 SPECI KATL 131859Z 09012G16KT 10SM BKN017 BKN025 OVC220 25/21 A3005 RMK AO2=
201307131852 METAR KATL 131852Z 08011KT 10SM BKN014 BKN020 OVC220 25/21 A3005 RMK AO2 SLP166 T02500211=
201307131752 METAR KATL 131752Z 09011KT 7SM SCT008 BKN013 OVC025 23/21 A3006 RMK AO2 RAE42 SLP170 P0001 60001 T02330211 10244 20211 50002=
201307131744 SPECI KATL 131744Z 08012KT 7SM SCT008 BKN013 OVC048 23/21 A3006 RMK AO2 RAE42 P0001=
201307131735 SPECI KATL 131735Z 08010KT 7SM -RA BKN008 BKN013 OVC023 23/22 A3006 RMK AO2 P0001=
201307131724 SPECI KATL 131724Z 08011KT 6SM R09R/6000VP6000FT -RA BR BKN010 OVC013 23/21 A3007 RMK AO2 P0001=
201307131714 SPECI KATL 131714Z 07012KT 10SM -RA BKN008 OVC013 23/21 A3006 RMK AO2 P0000=
201307131706 SPECI KATL 131706Z 06013KT 10SM -RA SCT009 OVC014 23/21 A3006 RMK AO2 P0000=
201307131652 METAR KATL 131652Z 08010KT 7SM -RA BKN014 OVC021 23/21 A3006 RMK AO2 RAB40 SLP172 P0000 T02330211=
201307131552 METAR KATL 131552Z 10007KT 8SM BKN010 OVC018 24/21 A3006 RMK AO2 SLP168 T02390206=
201307131533 SPECI KATL 131533Z 09011KT 8SM OVC010 23/21 A3006 RMK AO2=
201307131452 METAR KATL 131452Z 10010KT 7SM OVC008 23/21 A3005 RMK AO2 SLP166 60000 T02280206 51012=
201307131352 METAR KATL 131352Z 08014KT 7SM BKN006 OVC010 22/21 A3004 RMK AO2 SLP164 T02220206=
201307131338 SPECI KATL 131338Z 08014KT 7SM OVC006 22/21 A3004 RMK AO2 TWRINC=
201307131316 SPECI KATL 131316Z 08011KT 1SM BR OVC004 22/21 A3003 RMK AO2 SFC VIS 4 TWRINC=
201307131252 METAR KATL 131252Z 07009KT 1/2SM R09R/P6000FT FG OVC003 21/21 A3003 RMK AO2 RAB28E39 SLP160 SFC VIS 3 P0000 T02110206=
201307131152 METAR KATL 131152Z 06010KT 1/2SM R09R/P6000FT FG OVC004 21/20 A3001 RMK AO2 SLP154 SFC VIS 5 70029 T02110200 10211 20206 53018=
201307131126 SPECI KATL 131126Z 07009KT 1/2SM R09R/P6000FT FG OVC004 21/20 A3000 RMK AO2 SFC VIS 3=
201307131059 SPECI KATL 131059Z 08007KT 1 1/2SM BR OVC004 21/20 A2999 RMK AO2 SFC VIS 10=
201307131052 METAR KATL 131052Z 08009KT 10SM OVC004 21/20 A2999 RMK AO2 SLP147 T02110200=
201307130952 METAR KATL 130952Z 08008KT 7SM OVC004 21/19 A2997 RMK AO2 SLP139 T02060194=
201307130924 SPECI KATL 130924Z 09007KT 7SM OVC004 21/19 A2997 RMK AO2=
201307130852 METAR KATL 130852Z 05008KT 10SM BKN005 21/19 A2996 RMK AO2 SLP134 T02060189 56008=
201307130752 METAR KATL 130752Z 05010KT 10SM BKN008 OVC036 21/19 A2996 RMK AO2 SLP137 T02110194=
201307130712 SPECI KATL 130712Z 07006KT 10SM BKN008 BKN036 21/19 A2996 RMK AO2=
201307130652 METAR KATL 130652Z 07007KT 10SM SCT008 BKN036 BKN250 21/19 A2997 RMK AO2 SLP139 T02110194=
201307130623 SPECI KATL 130623Z 15003KT 10SM FEW008 SCT030 BKN250 21/19 A2998 RMK AO2=
201307130552 METAR KATL 130552Z 08008KT 10SM SCT010 BKN029 BKN250 21/19 A2998 RMK AO2 SLP143 T02110194 10261 20211 51008=
201307130540 SPECI KATL 130540Z 09006KT 10SM FEW010 BKN026 BKN250 22/19 A2999 RMK AO2=
201307130452 METAR KATL 130452Z 07010KT 10SM SCT025 BKN040 BKN250 22/19 A2998 RMK AO2 SLP143 T02220194 403060222=
201307130352 METAR KATL 130352Z 05013KT 10SM SCT025 BKN032 BKN090 BKN250 23/20 A2996 RMK AO2 SLP135 T02330200=
201307130252 METAR KATL 130252Z 06004KT 10SM FEW030 SCT100 BKN250 24/19 A2996 RMK AO2 SLP135 T02440194 51012=
201307130152 METAR KATL 130152Z 06004KT 10SM SCT030 BKN065 BKN100 BKN200 24/19 A2995 RMK AO2 SLP132 T02390189=
201307130052 METAR KATL 130052Z 09005KT 10SM FEW025 SCT200 BKN250 24/21 A2995 RMK AO2 SLP133 CB DSNT E TCU DSNT NE T02440206=
201307122352 METAR KATL 122352Z 00000KT 10SM FEW025 SCT200 BKN250 26/19 A2992 RMK AO2 SLP122 CB DSNT NE & SE 60029 T02610189 10306 20222 51012=
201307122252 METAR KATL 122252Z 24006KT 10SM FEW025 SCT150 BKN200 23/19 A2989 RMK AO2 PK WND 07032/2204 WSHFT 2148 TSE38RAE22 PRESFR SLP114 OCNL LTG DSNT SW CBMAM E-S P0029 T02280194=
201307122238 SPECI KATL 122238Z 20006KT 10SM FEW025 SCT150 BKN200 22/20 A2991 RMK AO2 PK WND 07032/2204 WSHFT 2148 TSE38RAE22 OCNL LTG DSNT SE & S-SW TS MOV SW CBMAM OHD-SE P0029=
201307122210 SPECI KATL 122210Z 08019G32KT 7SM -TSRA FEW025CB BKN050 BKN110 OVC200 22/20 A2993 RMK AO2 PK WND 07032/2204 WSHFT 2148 VIS LWR SE-SW OCNL LTGICCG SE-SW TS SE-SW MOV SW P0018=
201307122205 SPECI KATL 122205Z 06024G32KT 1 1/2SM R09R/3500VP6000FT +TSRA SCT025CB BKN045 OVC150 24/20 A2995 RMK AO2 PK WND 07032/2204 WSHFT 2148 FRQ LTGICCG NE-OHD-S TS NE-OHD-S MOV SW P0000=
201307122201 SPECI KATL 122201Z 07026G32KT 1 1/2SM +TSRA SCT025CB BKN045 OVC150 25/19 A2995 RMK AO2 PK WND 07032/2200 FRQ LTGICCG NE-OHD-S TS NE-OHD-S MOV SW P0000=
201307122152 METAR KATL 122152Z 06019G26KT 9SM -TSRA SCT030CB BKN045 BKN150 BKN250 26/19 A2993 RMK AO2 PK WND 06026/2152 TSB38RAB50 SLP127 FRQ LTGICCG NE-SE TS NE-SE MOV SW P0000 T02610194=
201307122139 SPECI KATL 122139Z 18008KT 10SM TS SCT030CB BKN045 BKN150 BKN250 26/22 A2992 RMK AO2 TSB38 FRQ LTGICCG VC NE & E-SE TS VC NE & E-SE MOV SW TCU OHD-SW=
201307122052 METAR KATL 122052Z 20005KT 10SM FEW040TCU SCT080 BKN250 29/20 A2989 RMK AO2 TSE11 SLP109 TS DSPTD CB DSNT NE TCU W-NW 60000 T02940200 58010=
201307122016 SPECI KATL 122016Z 17005KT 10SM FEW040TCU SCT080 27/19 A2990 RMK AO2 TSE11 TS DSPTD TCU SW-NW=
201307121952 METAR KATL 121952Z 18006KT 10SM TS FEW020CB BKN040 BKN060 25/19 A2991 RMK AO2 RAB06E34 SLP119 VIS LWR SE-S SHRA OCNL LTGICCG SE-S TS VC SE-S MOV SW P0000 T02500189=
201307121852 METAR KATL 121852Z 35004KT 10SM TS SCT030CB SCT045 BKN055 30/22 A2991 RMK AO2 TSB11 SLP117 OCNL LTGCG E-S TS E-S MOV S TCU DSNT SW-NW T03000217=
201307121812 SPECI KATL 121812Z 34009KT 10SM TS SCT030CB SCT045 BKN055 31/22 A2991 RMK AO2 TSB11 OCNL LTGCG SE TS VC-SE MOV S=
201307121752 METAR KATL 121752Z 32007KT 10SM FEW030CB SCT045 BKN055 29/22 A2992 RMK AO2 SLP119 CB NE MOV S TCU DSNT SW-NW T02940222 10306 20233 58009=
201307121652 METAR KATL 121652Z VRB03KT 10SM BKN030TCU BKN040 29/22 A2992 RMK AO2 SLP122 TCU OHD & ALQDS T02890217=
201307121552 METAR KATL 121552Z 35004KT 10SM SCT025TCU BKN040 29/22 A2994 RMK AO2 SLP127 TCU N & SW-NW T02940222=
201307121452 METAR KATL 121452Z 24004KT 9SM SCT018TCU BKN035 27/23 A2994 RMK AO2 SLP129 TCU E & SW-NW T02670228 50005=
201307121452 SPECI KATL 121452Z 24004KT 9SM SCT018TCU BKN035 27/23 A2994 RMK AO2 SLP129 TCU E & SW-NW T02670228 50005=
201307121441 SPECI KATL 121441Z 00000KT 8SM SCT015TCU BKN030 BKN040 27/23 A2995 RMK AO2 TCU S & OHD-W-NW=
201307121352 METAR KATL 121352Z 15003KT 6SM HZ FEW008 25/22 A2994 RMK AO2 SLP130 T02500222=
201307121252 METAR KATL 121252Z 12004KT 5SM BR BKN007 BKN024 24/22 A2994 RMK AO2 SLP129 VIS LWR N-NE T02440222=
201307121232 SPECI KATL 121232Z 09005KT 6SM HZ BKN008 BKN220 25/22 A2994 RMK AO2=
201307121152 METAR KATL 121152Z 00000KT 6SM BR FEW010 SCT110 SCT220 23/22 A2993 RMK AO2 SLP124 70001 T02330222 10233 20222 53007=
201307121052 METAR KATL 121052Z 29003KT 8SM FEW032 SCT110 SCT220 23/22 A2992 RMK AO2 SLP120 T02280217=
201307120952 METAR KATL 120952Z 00000KT 8SM BKN032 BKN100 BKN250 23/22 A2991 RMK AO2 SLP118 T02280217=
201307120852 METAR KATL 120852Z 00000KT 7SM SCT032 BKN048 BKN220 23/22 A2991 RMK AO2 SLP118 T02280217 56003=
201307120752 METAR KATL 120752Z 00000KT 7SM BKN031 BKN220 22/21 A2991 RMK AO2 SLP118 T02220211=
201307120652 METAR KATL 120652Z 00000KT 7SM FEW110 SCT200 22/21 A2991 RMK AO2 SLP120 T02220211=
201307120552 METAR KATL 120552Z 22003KT 7SM FEW040 SCT220 22/21 A2992 RMK AO2 SLP121 T02220211 10261 20222 58004=
201307120452 METAR KATL 120452Z 28004KT 9SM SCT250 23/21 A2993 RMK AO2 SLP127 T02280211 402670228=
201307120352 METAR KATL 120352Z 00000KT 10SM BKN250 23/22 A2992 RMK AO2 SLP122 T02330217=
201307120252 METAR KATL 120252Z 16003KT 10SM FEW100 BKN250 24/22 A2993 RMK AO2 SLP125 T02390217 51006=
201307120152 METAR KATL 120152Z 00000KT 10SM FEW200 BKN250 24/21 A2992 RMK AO2 SLP124 T02440211=
201307120052 METAR KATL 120052Z 12003KT 10SM FEW150 SCT200 BKN250 26/21 A2992 RMK AO2 SLP121 T02560211=
201307112352 METAR KATL 112352Z 05006KT 10SM SCT150 BKN200 BKN250 26/21 A2991 RMK AO2 SLP119 60001 T02610206 10267 20244 58010=
201307112252 METAR KATL 112252Z 01007KT 10SM FEW020 SCT150 BKN200 BKN250 27/21 A2992 RMK AO2 SLP122 T02670211=
201307112152 METAR KATL 112152Z 32004KT 10SM FEW020 SCT150 BKN200 OVC250 27/22 A2993 RMK AO2 SLP125 T02670217=
201307112052 METAR KATL 112052Z 28003KT 10SM FEW019 SCT070 BKN140 BKN250 26/22 A2994 RMK AO2 RAE21 SLP129 P0001 60001 T02610217 58014=
201307111952 METAR KATL 111952Z 33004KT 9SM -RA FEW016 BKN070 BKN110 OVC140 25/22 A2995 RMK AO2 RAB16 SLP134 P0000 T02500217=
201307111917 SPECI KATL 111917Z 32006KT 9SM -RA FEW016 SCT030 BKN110 OVC140 25/21 A2997 RMK AO2 RAB16 P0000=
201307111852 SPECI KATL 111852Z 33005KT 10SM FEW012 BKN016 BKN120 BKN140 24/21 A2997 RMK AO2 RAB24E36 SLP141 P0000 T02440211=
201307111852 METAR KATL 111852Z 33005KT 10SM FEW012 BKN016 BKN120 BKN140 24/21 A2997 RMK AO2 RAB24E36 SLP141 P0000 T02440211=
201307111815 SPECI KATL 111815Z 00000KT 10SM BKN013 BKN018 OVC120 24/21 A2998 RMK AO2=
201307111752 METAR KATL 111752Z VRB04KT 10SM BKN016 BKN025 OVC120 25/21 A2998 RMK AO2 SLP144 BINOVC DSNT S-SW T02500211 10250 20228 56007=
201307111749 SPECI KATL 111749Z 00000KT 10SM FEW016 BKN025 BKN120 OVC140 25/21 A2998 RMK AO2 BINOVC DSNT S-SW=
201307111733 SPECI KATL 111733Z VRB03KT 10SM FEW014 SCT025 SCT120 BKN140 25/21 A2999 RMK AO2=
201307111652 METAR KATL 111652Z 33006KT 10SM FEW013 BKN027 BKN100 25/21 A2999 RMK AO2 SLP145 T02500211=
201307111552 METAR KATL 111552Z 25004KT 8SM FEW012 BKN020 OVC100 24/21 A3000 RMK AO2 SLP151 T02440211=
201307111543 SPECI KATL 111543Z 00000KT 8SM FEW012 BKN018 OVC100 24/21 A3000 RMK AO2=
201307111452 METAR KATL 111452Z 00000KT 8SM BKN012 BKN030 OVC100 24/21 A3000 RMK AO2 SLP151 T02390211 50002=
201307111352 METAR KATL 111352Z 22004KT 8SM BKN010 BKN030 OVC100 23/21 A3001 RMK AO2 SLP152 T02280206=
201307111252 METAR KATL 111252Z 28004KT 8SM BKN008 BKN028 OVC095 23/21 A3000 RMK AO2 SLP150 T02330211=
201307111152 METAR KATL 111152Z 27004KT 8SM BKN007 OVC028 23/21 A3000 RMK AO2 SLP148 T02280211 10233 20228 53010=
201307111052 METAR KATL 111052Z 21004KT 9SM OVC007 23/22 A2998 RMK AO2 SLP143 T02280217=
201307110952 METAR KATL 110952Z 26003KT 8SM OVC006 23/22 A2998 RMK AO2 SLP140 T02280217=
201307110927 SPECI KATL 110927Z 22004KT 7SM SCT005 OVC009 23/22 A2997 RMK AO2=
201307110852 METAR KATL 110852Z 00000KT 7SM SCT005 OVC013 23/22 A2997 RMK AO2 SLP137 T02280217 56012=
201307110804 SPECI KATL 110804Z 25004KT 6SM BR BKN006 OVC220 23/22 A2998 RMK AO2=
201307110752 METAR KATL 110752Z 22003KT 7SM FEW005 BKN220 23/22 A2997 RMK AO2 SLP139 T02280217=
201307110712 SPECI KATL 110712Z 25005KT 8SM SCT005 BKN220 23/22 A2998 RMK AO2=
201307110652 METAR KATL 110652Z 27006KT 7SM BKN005 BKN140 OVC200 23/22 A2998 RMK AO2 SLP142 BKN005 V SCT T02330222=
201307110559 SPECI KATL 110559Z 26004KT 7SM BKN005 OVC200 23/23 A3000 RMK AO2=
201307110552 METAR KATL 110552Z 29008KT 8SM SCT005 BKN200 23/22 A3000 RMK AO2 SLP151 CIG 005 W-N T02330222 10267 20233 50002=
201307110509 SPECI KATL 110509Z 20005KT 9SM SCT007 BKN200 24/23 A3000 RMK AO2=
201307110452 METAR KATL 110452Z 22005KT 10SM BKN007 BKN200 24/23 A3001 RMK AO2 SLP151 T02390228 403060222=
201307110352 METAR KATL 110352Z 23004KT 10SM OVC008 24/22 A3001 RMK AO2 SLP150 CIG 006V010 BINOVC T02390222=
201307110347 SPECI KATL 110347Z 21005KT 10SM BKN010 BKN200 24/22 A3001 RMK AO2=
201307110252 METAR KATL 110252Z 00000KT 10SM FEW150 BKN200 BKN250 24/22 A3000 RMK AO2 SLP147 T02390222 50000=
201307110152 METAR KATL 110152Z 18003KT 10SM FEW015 SCT200 BKN250 24/22 A3001 RMK AO2 SLP151 T02440217=
201307110052 METAR KATL 110052Z 15003KT 10SM FEW020 SCT070 BKN200 OVC250 25/21 A3002 RMK AO2 SLP156 T02500211=
201307102352 METAR KATL 102352Z 21007KT 10SM FEW025 SCT070 BKN180 OVC250 27/23 A3000 RMK AO2 SLP148 FRQ LTG DSNT NE-SE 60000 T02720228 10300 20244 56006=
201307102252 METAR KATL 102252Z 27004KT 10SM FEW025 SCT070 BKN150 OVC200 28/22 A3000 RMK AO2 RAB22E41 SLP149 OCNL LTG DSNT NE-SE & S P0000 T02780222=
201307102152 METAR KATL 102152Z 31007KT 10SM SCT028TCU BKN035 BKN070 BKN200 28/22 A3000 RMK AO2 SLP148 TCU NE-OHD-SW T02780217=
201307102052 METAR KATL 102052Z 26008KT 10SM FEW030TCU SCT060 BKN070 BKN240 29/23 A3002 RMK AO2 SLP153 CB DSNT NW TCU NW T02940228 58018=
201307101952 METAR KATL 101952Z 24007KT 10SM FEW020 SCT110 BKN240 29/23 A3004 RMK AO2 SLP160 CB DSNT NW T02890228=
201307101852 SPECI KATL 101852Z VRB03KT 10SM FEW015 SCT110 SCT180 BKN240 27/23 A3006 RMK AO2 SLP167 CB DSNT W-NW T02720228=
201307101852 METAR KATL 101852Z VRB03KT 10SM FEW015 SCT110 SCT180 BKN240 27/23 A3006 RMK AO2 SLP167 CB DSNT W-NW T02720228=
201307101752 METAR KATL 101752Z 16003KT 10SM FEW020CB SCT110 BKN180 BKN250 24/22 A3007 RMK AO2 TSE08RAE08 SLP174 CB SW MOV S CBMAM NE-SE TCU DSNT N & S & NW SHRA VC SW P0000 60000 T02440217 10306 20239 58011=
201307101708 SPECI KATL 101708Z 09006KT 10SM FEW020CB SCT030TCU BKN110 BKN250 24/22 A3009 RMK AO2 TSE08RAE08 TS MOV SE CB NE-SE MOV SE TCU SW-NW SHRA VC NE-SE P0000=
201307101652 METAR KATL 101652Z 09009KT 10SM -TSRA FEW020CB SCT030TCU BKN150 BKN250 25/22 A3010 RMK AO2 TSB18RAB11E27B48 SLP181 OCNL LTGICCG E TS VC E MOV SE TCU SW-NW SHRA VC E P0000 T02500217=
201307101618 SPECI KATL 101618Z 27003KT 10SM -TSRA BKN030CB BKN040 BKN060 28/22 A3011 RMK AO2 TSB18RAB11 OCNL LTGICCG E TS VC E MOV S P0000=
201307101552 METAR KATL 101552Z 26003KT 10SM BKN028TCU BKN040 BKN250 29/22 A3010 RMK AO2 TSB14E47 SLP183 OCNL LTGIC DSNT E-SE TS MOV SE CB DSNT N-SE TCU OHD & ALQDS SHRA DSNT N-SE T02940222=
201307101514 SPECI KATL 101514Z 31003KT 10SM TS FEW025CB SCT030TCU SCT250 30/23 A3011 RMK AO2 TSB14 OCNL LTGICCG SE TS VC SE MOV SE TCU ALQDS SHRA VC SE=
201307101452 METAR KATL 101452Z 34003KT 10SM SCT030TCU SCT250 29/23 A3011 RMK AO2 SLP183 TCU NE-S T02890228 55001=
201307101352 METAR KATL 101352Z 33004KT 10SM FEW025 SCT150 28/23 A3010 RMK AO2 SLP182 T02830228=
201307101252 METAR KATL 101252Z VRB03KT 8SM SCT100 SCT150 SCT200 27/23 A3010 RMK AO2 SLP183 T02670233=
201307101152 METAR KATL 101152Z 30003KT 8SM FEW034 SCT100 SCT150 BKN250 24/23 A3011 RMK AO2 SLP184 T02390228 10244 20222 53001=
201307101052 METAR KATL 101052Z 23003KT 7SM SCT032 SCT080 BKN150 BKN200 23/22 A3011 RMK AO2 SLP185 T02280222=
201307100952 METAR KATL 100952Z 18004KT 8SM FEW025 SCT080 BKN250 23/22 A3010 RMK AO2 SLP180 T02280217=
201307100852 METAR KATL 100852Z 00000KT 10SM FEW100 BKN250 23/22 A3010 RMK AO2 SLP183 T02330222 55007=
201307100752 METAR KATL 100752Z 31003KT 10SM FEW060 SCT250 24/22 A3010 RMK AO2 SLP182 T02390222=
201307100652 METAR KATL 100652Z 29005KT 10SM FEW060 SCT180 BKN250 24/22 A3009 RMK AO2 SLP179 T02440222=
201307100552 METAR KATL 100552Z 22003KT 10SM FEW060 SCT180 BKN250 24/23 A3012 RMK AO2 SLP190 T02440233 10283 20239 58001=
201307100452 METAR KATL 100452Z 22004KT 10SM SCT150 BKN250 25/23 A3013 RMK AO2 SLP191 T02500233 403110217=
201307100352 METAR KATL 100352Z 16003KT 10SM FEW150 BKN200 BKN250 25/24 A3014 RMK AO2 SLP195 T02500239=
201307100252 METAR KATL 100252Z 21003KT 10SM FEW150 SCT200 BKN250 26/24 A3013 RMK AO2 SLP191 T02560239 51006=
201307100152 METAR KATL 100152Z 22004KT 10SM FEW025 SCT120 BKN150 OVC250 26/23 A3013 RMK AO2 SLP191 T02610233=
201307100052 METAR KATL 100052Z 17006KT 10SM FEW025 SCT060 BKN110 BKN200 27/23 A3012 RMK AO2 SLP190 T02720228=
201307092352 METAR KATL 092352Z 24005KT 10SM FEW025TCU SCT070 BKN110 BKN200 28/23 A3011 RMK AO2 SLP186 TCU VC SE 60000 T02830228 10311 20261 55004=
201307092252 METAR KATL 092252Z 24007KT 10SM FEW030TCU SCT110 BKN200 29/21 A3009 RMK AO2 SLP181 TCU VC E-S VCSH E T02890211=
201307092152 METAR KATL 092152Z 24008KT 10SM FEW030 SCT110 BKN200 30/23 A3011 RMK AO2 SLP184 TCU DSNT NW-NE T03000228=
201307092052 METAR KATL 092052Z 23006KT 10SM FEW025 BKN080 BKN200 29/22 A3012 RMK AO2 RAE23 SLP190 FRQ LTGICCG DSNT NE-E & DSNT SW-W CB DSNT NE-E & DSNT SW-W SHRA DSNT NE-E & DSNT SW-W P0000 60000 T02890222 56018=
201307091952 METAR KATL 091952Z 24010KT 10SM -RA FEW035CB BKN045TCU BKN100 27/23 A3013 RMK AO2 RAB52 SLP192 CB S MOV SE CB DSNT SW TCU OHD & ALQDS SHRA VC S P0000 T02720228=
201307091941 SPECI KATL 091941Z 25011KT 10SM FEW037CB BKN044TCU BKN100 28/21 A3013 RMK AO2 CB SE-S-SW-W MOV SE TCU OHD-N-NE-E SHRA VC SE-S-SW-W=
201307091852 METAR KATL 091852Z 00000KT 10SM SCT035TCU BKN095 BKN200 31/22 A3015 RMK AO2 SLP198 CB DSNT SE-SW TCU OHD-N-NE-E SHRA DSNT SE-SW T03060222=
201307091752 METAR KATL 091752Z VRB04KT 10SM FEW028 SCT100 BKN150 30/23 A3018 RMK AO2 SLP208 CB DSNT SE TCU DSNT ALQDS T03000228 10306 20222 58009=
201307091652 METAR KATL 091652Z 30005KT 10SM FEW025 BKN100 BKN150 29/22 A3020 RMK AO2 SLP214 TCU DSNT NE-W T02890222=
201307091552 METAR KATL 091552Z 30007KT 10SM SCT020 SCT090 BKN150 29/23 A3020 RMK AO2 SLP215 T02890228=
201307091507 SPECI KATL 091507Z VRB05KT 10SM BKN019 BKN050 BKN150 27/22 A3020 RMK AO2=
201307091452 METAR KATL 091452Z 29003KT 10SM FEW017 SCT048 SCT150 27/22 A3020 RMK AO2 SLP217 T02720222 50004=
201307091352 METAR KATL 091352Z 32007KT 10SM FEW012 SCT150 SCT240 26/22 A3021 RMK AO2 SLP219 T02560222=
201307091252 METAR KATL 091252Z 31006KT 8SM FEW009 SCT120 BKN250 24/22 A3020 RMK AO2 SLP219 T02390217=
201307091223 SPECI KATL 091223Z 29003KT 7SM FEW005 SCT120 SCT250 23/21 A3019 RMK AO2=
201307091205 SPECI KATL 091205Z 29004KT 6SM BR BKN003 OVC014 22/22 A3020 RMK AO2=
201307091152 METAR KATL 091152Z 29004KT 1SM BR OVC003 22/22 A3019 RMK AO2 SFC VIS 6 SLP215 TWRINC T02220217 10233 20217 55000=
201307091119 SPECI KATL 091119Z 28005KT 1SM R09R/4500VP6000FT BR BKN002 BKN110 BKN250 22/21 A3018 RMK AO2 SFC VIS 1 1/2=
201307091111 SPECI KATL 091111Z 28005KT 1 1/2SM R09R/3000VP6000FT BR BKN002 BKN110 BKN150 BKN250 22/22 A3018 RMK AO2 VIS S 1=
201307091052 METAR KATL 091052Z 25003KT 9SM FEW003 SCT032 SCT110 BKN150 BKN250 22/21 A3018 RMK AO2 SLP211 CB DSNT NW VIS S 1 VIS LWR SE-SW T02170211=
201307090952 METAR KATL 090952Z 00000KT 10SM FEW005 SCT032 SCT110 BKN250 22/21 A3019 RMK AO2 SLP211 T02170211=
201307090852 METAR KATL 090852Z 20003KT 10SM FEW005 SCT150 BKN250 22/21 A3019 RMK AO2 SLP213 T02220211 53007=
201307090850 SPECI KATL 090850Z 00000KT 10SM FEW005 SCT150 BKN250 22/21 A3019 RMK AO2=
201307090752 METAR KATL 090752Z 17004KT 10SM FEW150 BKN250 22/22 A3017 RMK AO2 SLP206 T02220217=
201307090652 METAR KATL 090652Z 26004KT 10SM FEW060 SCT100 SCT150 BKN250 23/22 A3017 RMK AO2 SLP204 T02280217=
201307090552 METAR KATL 090552Z 27004KT 10SM FEW060 SCT150 BKN250 23/22 A3017 RMK AO2 SLP205 60000 T02280217 10267 20228 58009=
201307090452 METAR KATL 090452Z 27004KT 10SM FEW035 SCT100 BKN250 23/22 A3020 RMK AO2 SLP217 T02330217 403110211=
201307090352 METAR KATL 090352Z 27005KT 10SM FEW100 SCT200 BKN250 24/22 A3019 RMK AO2 SLP215 T02390217=
201307090252 METAR KATL 090252Z 00000KT 10SM FEW075 SCT100 BKN150 BKN200 24/22 A3020 RMK AO2 SLP216 60000 T02440222 53013=
201307090152 METAR KATL 090152Z 23003KT 10SM FEW030 SCT075 BKN100 BKN200 24/22 A3018 RMK AO2 SLP210 T02440217=
201307090052 METAR KATL 090052Z 23004KT 10SM FEW030 SCT150 BKN200 BKN250 24/22 A3014 RMK AO2 RAB04E31 SLP199 CBMAM E & NW P0000 T02440217=
201307082352 METAR KATL 082352Z 26012G19KT 10SM FEW030TCU BKN040 BKN200 BKN250 27/22 A3016 RMK AO2 SLP202 TCU SW CB DSNT NE T02670217 10311 20267 53006=
201307082252 METAR KATL 082252Z 22005KT 10SM FEW040 SCT200 BKN250 29/21 A3013 RMK AO2 SLP194 CB DSNT NE & SW-NW TCU DSNT SE-SW T02890206=
201307082152 METAR KATL 082152Z 24006KT 10SM SCT040 SCT200 BKN250 30/20 A3013 RMK AO2 SLP193 CB DSNT SW-NW TCU DSNT NE-SE-S T03000200=
201307082052 METAR KATL 082052Z 20007KT 180V260 10SM SCT045TCU SCT130 BKN250 31/21 A3014 RMK AO2 SLP195 CB DSNT NW TCU NE-SW T03110206 58019=
201307081952 METAR KATL 081952Z 22006KT 10SM BKN040TCU BKN250 31/21 A3016 RMK AO2 SLP202 TCU ALQDS T03060211=
201307081852 METAR KATL 081852Z 21008KT 180V250 10SM SCT035TCU 30/21 A3018 RMK AO2 SLP207 TCU NE-SW T03000211=
201307081752 METAR KATL 081752Z 14003KT 10SM SCT035 SCT130 29/21 A3019 RMK AO2 SLP214 TCU DSNT NE-SE T02890206 10294 20228 58008 $=
201307081652 METAR KATL 081652Z 14003KT 10SM SCT027 BKN030 BKN130 28/21 A3021 RMK AO2 SLP221 TCU DSNT E & S T02830211 $=
201307081552 METAR KATL 081552Z 23004KT 10SM SCT025 BKN130 27/21 A3022 RMK AO2 SLP225 T02720206 $=
201307081452 METAR KATL 081452Z 22003KT 10SM SCT015 SCT250 26/22 A3022 RMK AO2 SLP223 T02610217 51009 $=
201307081352 METAR KATL 081352Z 22003KT 10SM FEW013 SCT150 SCT250 26/22 A3022 RMK AO2 SLP222 T02560217 $=
201307081252 METAR KATL 081252Z 00000KT 8SM SCT007 SCT080 SCT180 24/21 A3020 RMK AO2 SLP219 T02390211=
201307081152 METAR KATL 081152Z 00000KT 8SM FEW004 SCT080 SCT150 23/21 A3019 RMK AO2 SLP215 VIS LWR W-N 70014 T02280211 10228 20211 51008=
201307081052 METAR KATL 081052Z 00000KT 8SM FEW003 SCT080 SCT150 21/21 A3019 RMK AO2 SLP213 VIS LWR W-NW T02110206=
201307080952 METAR KATL 080952Z 00000KT 10SM FEW003 SCT060 SCT080 BKN150 BKN250 21/21 A3018 RMK AO2 SLP211 T02110206 $=
201307080852 METAR KATL 080852Z 29003KT 10SM FEW075 BKN090 BKN150 22/21 A3017 RMK AO2 SLP207 T02170206 58003 $=
201307080752 METAR KATL 080752Z 00000KT 10SM FEW006 BKN120 OVC250 21/21 A3018 RMK AO2 SLP212 T02110206 $=
201307080729 SPECI KATL 080729Z 20004KT 10SM SCT006 BKN110 BKN250 22/21 A3019 RMK AO2 $=
201307080652 METAR KATL 080652Z 19005KT 7SM BKN006 BKN120 OVC220 22/21 A3018 RMK AO2 SLP213 T02170206 $=
201307080625 SPECI KATL 080625Z 16004KT 7SM BKN006 BKN120 BKN220 22/21 A3018 RMK AO2 $=
201307080552 METAR KATL 080552Z 00000KT 7SM BKN004 BKN120 BKN220 23/22 A3018 RMK AO2 SLP211 60000 T02280217 10250 20228 56002 $=
201307080547 SPECI KATL 080547Z 00000KT 7SM BKN004 BKN120 BKN220 23/22 A3018 RMK AO2 $=
201307080530 SPECI KATL 080530Z 20003KT 8SM SCT008 SCT080 BKN120 BKN220 23/22 A3018 RMK AO2 $=
201307080452 METAR KATL 080452Z 18004KT 10SM FEW080 BKN120 BKN220 23/22 A3018 RMK AO2 SLP212 T02280222 402610217 $=
201307080352 METAR KATL 080352Z 00000KT 10SM FEW009 SCT100 BKN140 BKN220 23/22 A3018 RMK AO2 SLP210 T02330222 $=
201307080316 SPECI KATL 080316Z 15003KT 10SM FEW007 BKN140 BKN220 23/22 A3018 RMK AO2 CB DSNT E $=
201307080252 METAR KATL 080252Z 16006KT 10SM FEW012 BKN140 BKN220 24/22 A3018 RMK AO2 RAB0153E05 SLP212 CB DSNT E P0000 60000 T02390222 51016 $=
201307080152 METAR KATL 080152Z 00000KT 10SM FEW090 BKN130 BKN220 24/22 A3017 RMK AO2 RAB0053E28 SLP207 OCNL LTG DSNT SE VCSH E-S P0000 T02390222=
201307080052 METAR KATL 080052Z 20003KT 10SM FEW080 BKN110 BKN220 24/22 A3016 RMK AO2 SLP205 VIRGA ALQDS T02440222=
201307072352 METAR KATL 072352Z 26004KT 10SM FEW014 BKN130 BKN220 25/22 A3013 RMK AO2 RAB30E44 SLP195 P0000 60010 T02500217 10261 20233 55003=
201307072252 METAR KATL 072252Z 22004KT 10SM FEW016 BKN140 OVC200 26/21 A3013 RMK AO2 SLP194 T02560211=
201307072152 METAR KATL 072152Z 19003KT 10SM FEW016 BKN160 BKN220 26/22 A3014 RMK AO2 SLP199 T02560217=
201307072052 METAR KATL 072052Z 00000KT 10SM FEW020 BKN150 BKN250 25/21 A3014 RMK AO2 RAE04 SLP198 P0000 60010 T02500211 56015=
201307071952 METAR KATL 071952Z 00000KT 9SM -RA FEW010 SCT050 OVC080 24/22 A3016 RMK AO2 SLP203 P0003 T02390217=
201307071852 METAR KATL 071852Z 00000KT 4SM RA BR SCT010 OVC080 24/22 A3017 RMK AO2 SLP208 P0007 T02390222=
201307071804 SPECI KATL 071804Z 28003KT 5SM -RA BR FEW006 OVC095 24/23 A3019 RMK AO2 P0001=
201307071752 METAR KATL 071752Z 28004KT 5SM -RA BR FEW024 OVC110 24/22 A3019 RMK AO2 SLP214 P0004 60004 T02390222 10256 20222 58001=
201307071652 METAR KATL 071652Z 20003KT 10SM -RA SCT022 BKN055 OVC120 25/21 A3020 RMK AO2 RAE00B45 SLP218 P0000 T02500206=
201307071552 METAR KATL 071552Z 00000KT 10SM -RA BKN022 OVC200 25/21 A3020 RMK AO2 RAB50 SLP218 P0000 T02500206=
201307071452 METAR KATL 071452Z 26004KT 10SM BKN016 OVC150 24/21 A3019 RMK AO2 SLP216 T02440211 51009=
201307071422 SPECI KATL 071422Z 21004KT 10SM BKN016 OVC200 23/21 A3019 RMK AO2=
201307071352 METAR KATL 071352Z 19004KT 10SM FEW009 SCT019 BKN200 23/21 A3019 RMK AO2 SLP214 T02330211=
201307071330 SPECI KATL 071330Z 16004KT 10SM FEW009 SCT020 BKN200 23/21 A3018 RMK AO2=
201307071252 METAR KATL 071252Z 18004KT 8SM FEW008 OVC021 23/21 A3018 RMK AO2 SLP211 T02280211=
201307071234 SPECI KATL 071234Z 20004KT 8SM SCT008 OVC023 22/21 A3018 RMK AO2=
201307071205 SPECI KATL 071205Z 20004KT 7SM SCT006 BKN012 OVC023 22/21 A3017 RMK AO2=
201307071152 METAR KATL 071152Z 18004KT 1 1/2SM BR BKN006 OVC018 22/21 A3017 RMK AO2 SFC VIS 6 SLP208 60000 70112 T02220211 10222 20217 53009=
201307071052 METAR KATL 071052Z 19005KT 1 1/2SM BR OVC005 22/21 A3015 RMK AO2 SFC VIS 6 SLP201 CIG 004V007 T02170211=
201307070952 METAR KATL 070952Z 17005KT 1 1/2SM BKN007 BKN023 OVC250 22/21 A3014 RMK AO2 SFC VIS 7 SLP197 T02170211=
201307070852 METAR KATL 070852Z 17005KT 1 1/2SM BR BKN005 BKN010 OVC025 22/21 A3014 RMK AO2 SFC VIS 4 RAB40E51 SLP196 P0000 60000 T02170211 55003=
201307070752 METAR KATL 070752Z 18004KT 1 1/2SM BR BKN005 OVC012 22/21 A3014 RMK AO2 SFC VIS 5 SLP195 CIG 004V008 TWRINC T02220211=
201307070652 METAR KATL 070652Z 14005KT 1 1/2SM BR BKN004 OVC010 22/21 A3014 RMK AO2 SFC VIS 5 SLP198 CIG 003V006 TWRINC T02220211=
201307070631 SPECI KATL 070631Z 13004KT 1 1/2SM BR BKN003 OVC010 22/22 A3015 RMK AO2 SFC VIS 6=
201307070552 METAR KATL 070552Z 12004KT 9SM FEW005 SCT011 SCT080 BKN200 22/21 A3015 RMK AO2 SLP201 T02220211 10228 20222 50004=
201307070524 SPECI KATL 070524Z 12004KT 10SM FEW003 SCT013 BKN080 BKN220 22/22 A3016 RMK AO2=
201307070452 METAR KATL 070452Z 12004KT 9SM OVC011 23/22 A3016 RMK AO2 SLP204 BINOVC T02280217 402830211=
201307070358 SPECI KATL 070358Z 12004KT 10SM BKN014 BKN220 22/21 A3016 RMK AO2 $=
201307070352 METAR KATL 070352Z 12004KT 10SM SCT015 SCT130 BKN220 22/22 A3016 RMK AO2 SLP203 T02220217 $=
201307070252 METAR KATL 070252Z 00000KT 10SM BKN130 BKN220 23/21 A3014 RMK AO2 SLP197 T02280211 53004 $=
201307070152 METAR KATL 070152Z 19003KT 10SM FEW009 BKN095 OVC210 22/22 A3013 RMK AO2 SLP194 FRQ LTG DSNT NE-E T02220217 $=
201307070052 METAR KATL 070052Z 20003KT 10SM FEW009 BKN120 OVC200 23/22 A3011 RMK AO2 SLP189 FRQ LTG DSNT NE-E T02280217=
201307062352 METAR KATL 062352Z 25004KT 9SM FEW008 SCT044 BKN120 OVC200 23/22 A3013 RMK AO2 TSE42RAB2255E40 SLP194 FRQ LTG DSNT N-NE P0053 60101 T02280217 10283 20222 53007=
201307062343 SPECI KATL 062343Z 23005KT 8SM SCT011 SCT065 BKN120 OVC200 23/22 A3013 RMK AO2 TSE42RAB2255E40 OCNL LTG DSNT N-NE TS MOV N P0053=
201307062330 SPECI KATL 062330Z 20007KT 5SM -TSRA BR FEW005 SCT021CB BKN065 OVC130 23/22 A3012 RMK AO2 RAB2255 OCNL LTGICCG NW-NE TS NW-NE MOV N P0053=
201307062307 SPECI KATL 062307Z 21010KT 2SM R09R/4500VP6000FT +TSRA BR BKN023CB OVC055 23/22 A3012 RMK AO2 RAB2255 OCNL LTGICCG E-OHD-W TS E-OHD-W MOV N P0015=
201307062252 METAR KATL 062252Z 00000KT 10SM TS SCT038CB BKN060 BKN110 OVC180 23/22 A3010 RMK AO2 TSE00B50 SLP186 FRQ LTGCGIC SE-SW TS SE-SW MOV N T02330222=
201307062202 SPECI KATL 062202Z 00000KT 9SM FEW014 SCT038 BKN110 OVC180 23/21 A3011 RMK AO2 TSE00 TS MOV NW CB DSNT S-W-NW=
201307062152 METAR KATL 062152Z VRB03KT 7SM R09R/4500VP6000FT TS FEW013CB SCT042 BKN110 OVC200 23/21 A3011 RMK AO2 PK WND 14032/2132 TSB38RAB25E52 SLP189 OCNL LTGCG VC NW TS VC NW MOV NW P0048 T02280211=
201307062147 SPECI KATL 062147Z 00000KT 5SM R09R/2200VP6000FT -TSRA BR SCT013CB BKN042 OVC100 22/21 A3012 RMK AO2 PK WND 14032/2132 TSB38RAB25 OCNL LTGCG NW-N TS NW-N MOV NW P0048=
201307062138 SPECI KATL 062138Z 17014G32KT 1SM R09R/2600VP6000FT +TSRA BR SCT015CB BKN027 OVC045 23/21 A3013 RMK AO2 PK WND 14032/2132 TSB38RAB25 OCNL LTGCG OHD-W TS OHD-W MOV NW P0012=
201307062133 SPECI KATL 062133Z 14023G32KT 1SM R09R/2800VP6000FT +RA BKN024CB OVC100 26/22 A3013 RMK AO2 PK WND 14032/2132 RAB25 PRESRR CB OHD-W MOV NW P0000=
201307062052 METAR KATL 062052Z 14007KT 10SM FEW030TCU BKN120 BKN200 28/21 A3011 RMK AO2 SLP185 TCU ALQDS 60000 T02780211 56012=
201307061952 METAR KATL 061952Z 14008KT 10SM FEW030TCU SCT055 BKN200 27/20 A3011 RMK AO2 RAB1855E05 SLP186 TCU ALQDS P0000 T02720200=
201307061852 METAR KATL 061852Z 14008G16KT 10SM FEW026TCU BKN036 BKN250 28/22 A3012 RMK AO2 SLP188 TCU SW-W-N T02780217=
201307061752 METAR KATL 061752Z 16005KT 10SM FEW019CB BKN033 BKN045 BKN200 26/23 A3014 RMK AO2 RAB09E51 SLP198 CB VC NW MOV NW TCU E-SE-SW P0004 60011 T02610228 10261 20222 58012=
201307061741 SPECI KATL 061741Z 17006KT 10SM -RA FEW019CB SCT033 BKN055 BKN250 26/23 A3015 RMK AO2 RAB09 CB NW MOV NW TCU E-SE-SW P0004=
201307061722 SPECI KATL 061722Z 17004KT 7SM -RA BKN024TCU BKN037 OVC085 25/23 A3015 RMK AO2 RAB09 TCU ALQDS VSBY LWR N P0000=
201307061652 METAR KATL 061652Z 20003KT 10SM SCT019TCU BKN032 OVC090 25/23 A3016 RMK AO2 RAE01B29E49 SLP204 TCU W-NW P0004 T02500228=
201307061636 SPECI KATL 061636Z 16006KT 7SM RA SCT022 BKN046 OVC070 25/22 A3016 RMK AO2 RAE01B29 VSBY LWR N SHRA P0001=
201307061552 METAR KATL 061552Z 21005KT 5SM RA BR SCT016 BKN026 BKN070 24/22 A3017 RMK AO2 RAB35 SLP209 P0003 T02390217=
201307061452 METAR KATL 061452Z 13005KT 7SM SCT012 OVC022 24/22 A3018 RMK AO2 SLP211 T02440217 50001=
201307061436 SPECI KATL 061436Z VRB06KT 7SM SCT010 BKN025 OVC200 25/22 A3018 RMK AO2=
201307061412 SPECI KATL 061412Z 15007KT 7SM OVC012 24/22 A3018 RMK AO2=
201307061352 METAR KATL 061352Z 15011G15KT 7SM BKN009 OVC012 23/22 A3018 RMK AO2 SLP212 T02330217=
201307061252 METAR KATL 061252Z 14006KT 6SM BR OVC006 23/22 A3018 RMK AO2 SLP211 T02280217=
201307061152 METAR KATL 061152Z 14006KT 3SM BR OVC006 22/21 A3017 RMK AO2 SFC VIS 6 SLP208 CIG 005V009 70031 T02220211 10222 20217 53008=
201307061135 SPECI KATL 061135Z 14005KT 3SM BR OVC006 22/21 A3017 RMK AO2 SFC VIS 6 CIG 004V009=
201307061052 METAR KATL 061052Z 12004KT 1SM BR OVC003 22/21 A3016 RMK AO2 SFC VIS 3 SLP204 TWRINC T02170211=
201307061022 SPECI KATL 061022Z 13004KT 1SM BR OVC004 22/21 A3016 RMK AO2 SFC VIS 5 CIG 003V006 TWRINC=
201307060952 METAR KATL 060952Z 12006KT 3SM BKN006 BKN011 BKN050 BKN150 22/21 A3015 RMK AO2 SFC VIS 8 SLP202 T02170206=
201307060852 METAR KATL 060852Z 13005KT 3SM BKN006 OVC013 22/21 A3015 RMK AO2 SFC VIS 8 SLP200 T02170211 55006=
201307060752 METAR KATL 060752Z 13005KT 3SM BKN008 OVC012 22/21 A3015 RMK AO2 SFC VIS 8 CIG 005V011 SLP198 T02170211=
201307060652 METAR KATL 060652Z 14007KT 3SM OVC006 22/21 A3015 RMK AO2 SFC VIS 8 CIG 004V009 SLP200 T02170206=
201307060552 METAR KATL 060552Z 14006KT 3SM FEW005 BKN008 OVC014 22/21 A3016 RMK AO2 SFC VIS 8 SLP205 60026 T02170206 10244 20211 56004 $=
201307060452 METAR KATL 060452Z 14007KT 3SM OVC005 21/21 A3016 RMK AO2 SFC VIS 10 SLP206 CIG 003V007 T02110206 402830211=
201307060352 METAR KATL 060352Z 13005KT 10SM BKN007 OVC150 22/21 A3017 RMK AO2 SLP209 CIG 005V010 T02170206=
201307060255 SPECI KATL 060255Z 12006KT 10SM BKN005 BKN017 OVC100 21/21 A3018 RMK AO2=
201307060252 METAR KATL 060252Z 12006KT 10SM BKN005 BKN017 OVC100 21/21 A3018 RMK AO2 RAE32 SLP210 P0001 60026 T02110206 56004=
201307060235 SPECI KATL 060235Z 11005KT 10SM SCT005 BKN022 BKN100 OVC150 21/21 A3017 RMK AO2 RAE32 P0001=
201307060152 METAR KATL 060152Z 13004KT 8SM -RA FEW005 SCT060 BKN110 OVC150 21/21 A3018 RMK AO2 SLP211 OCNL LTG DSNT NE P0009 T02110206=
201307060052 METAR KATL 060052Z 17008KT 9SM -RA SCT006 BKN060 BKN100 OVC150 21/20 A3017 RMK AO2 PK WND 12031/2354 TSE28RAB2354 SLP211 P0016 T02110200=
201307060028 SPECI KATL 060028Z 17009KT 7SM -RA FEW020 SCT060 BKN100 OVC150 22/20 A3017 RMK AO2 PK WND 12031/2354 TSE28RAB2354 TS MOV NW P0014=
201307060002 SPECI KATL 060002Z 13012G31KT 5SM TSRA BR FEW010 SCT020CB BKN060 OVC150 22/19 A3018 RMK AO2 PK WND 12031/2354 RAB2354 OCNL LTGIC S-W-N TS S-W-N MOV NW P0009=
201307052355 SPECI KATL 052355Z 12020G31KT 1SM R09R/4500VP6000FT +TSRA FEW010 BKN020CB OVC070 24/21 A3020 RMK AO2 PK WND 12031/2354 RAB54 PRESRR OCNL LTGIC NE-OHD-SW TS NE-OHD-SW MOV NW P0000=
201307052352 METAR KATL 052352Z 14009KT 10SM TS FEW010 BKN020CB OVC070 24/21 A3019 RMK AO2 TSB42 PRESRR SLP214 OCNL LTGIC NE-SE-S TS NE-SE-S MOV NW 60005 T02440211 10283 20239 53013=
201307052342 SPECI KATL 052342Z 10007KT 10SM TS FEW020CB BKN030 BKN070 OVC150 24/21 A3017 RMK AO2 TSB42 OCNL LTGIC NE-SE-S TS VC NE-SE-S MOV NW=
201307052252 METAR KATL 052252Z 02005KT 10SM FEW010 SCT100 BKN150 BKN250 25/22 A3015 RMK AO2 RAE01 SLP200 CB DSNT NE-SE P0000 T02500217=
201307052152 METAR KATL 052152Z 00000KT 10SM -RA FEW010 SCT050 BKN090 BKN150 OVC200 24/22 A3015 RMK AO2 RAB2053E29B51 SLP203 CB DSNT NE-SE & NW P0000 T02390217=
201307052052 METAR KATL 052052Z 12009G17KT 10SM FEW026CB BKN050 OVC100 25/21 A3015 RMK AO2 RAB10E43 SLP200 CB VC SW-NW MOV NW P0005 60005 T02500206 56018=
201307052026 SPECI KATL 052026Z 12006KT 5SM -RA SCT027CB BKN060 OVC120 26/22 A3014 RMK AO2 RAB10 CB SW-NW MOV NW VSBY LWR SW-NW SHRA P0004=
201307052011 SPECI KATL 052011Z 12010KT 6SM -RA BKN027TCU BKN055 BKN250 27/21 A3015 RMK AO2 RAB10 TCU SE-S VSBY LWR S P0000=
201307051952 METAR KATL 051952Z VRB04KT 10SM SCT032TCU BKN045 BKN250 28/21 A3015 RMK AO2 SLP201 TCU SE T02830211=
201307051852 METAR KATL 051852Z 17003KT 10SM FEW024 SCT042 BKN200 BKN250 27/21 A3018 RMK AO2 SLP212 T02670206=
201307051752 METAR KATL 051752Z COR 16005KT 10SM SCT022 BKN180 26/21 A3020 RMK AO2 SLP219 60000 T02560206 10256 20211 58003=
201307051652 METAR KATL 051652Z 13007KT 10SM SCT017 BKN070 OVC100 25/21 A3021 RMK AO2 RAB05E23 SLP222 P0000 T02500211=
201307051552 METAR KATL 051552Z 13006KT 10SM SCT012 BKN060 OVC100 24/21 A3022 RMK AO2 RAE08 SLP225 P0000 T02390211=
201307051458 SPECI KATL 051458Z 13006KT 8SM -RA BKN010 BKN060 OVC080 23/21 A3022 RMK AO2 P0000=
201307051452 METAR KATL 051452Z 13005KT 8SM -RA SCT010 BKN080 OVC100 23/21 A3021 RMK AO2 RAE1356B48 SLP223 P0000 60000 T02280211 51008=
201307051421 SPECI KATL 051421Z 13006KT 6SM BR FEW008 SCT012 OVC100 23/21 A3021 RMK AO2 RAE1356 P0000=
201307051352 METAR KATL 051352Z 13006KT 6SM -RA BR BKN009 BKN012 OVC110 22/21 A3020 RMK AO2 RAB44 SLP220 P0000 T02220206=
201307051252 METAR KATL 051252Z 13006KT 7SM BKN006 OVC120 22/21 A3020 RMK AO2 RAE52 SLP219 P0000 T02170206=
201307051152 METAR KATL 051152Z 11007KT 7SM -RA BKN006 BKN036 OVC100 21/20 A3019 RMK AO2 RAB38 SLP216 P0000 60000 70036 T02110200 10217 20211 53008=
201307051118 SPECI KATL 051118Z 12004KT 7SM BKN006 BKN035 OVC090 21/20 A3018 RMK AO2=
201307051052 METAR KATL 051052Z 12004KT 7SM FEW006 SCT038 SCT090 OVC180 21/20 A3017 RMK AO2 SLP211 T02110200=
201307051004 SPECI KATL 051004Z 13006KT 7SM SCT006 BKN036 OVC090 21/20 A3017 RMK AO2=
201307050952 METAR KATL 050952Z 14006KT 7SM BKN005 BKN032 OVC090 21/20 A3017 RMK AO2 SLP209 T02110200=
201307050942 SPECI KATL 050942Z 13007KT 7SM SCT006 BKN027 OVC090 21/20 A3017 RMK AO2=
201307050924 SPECI KATL 050924Z 14006KT 7SM SCT006 SCT035 OVC090 21/20 A3017 RMK AO2=
201307050852 METAR KATL 050852Z 15005KT 7SM BKN007 BKN090 OVC240 21/20 A3016 RMK AO2 SLP205 T02110200 51005=
201307050823 SPECI KATL 050823Z 14004KT 8SM BKN007 BKN031 OVC130 21/20 A3016 RMK AO2 BKN007 V SCT=
201307050802 SPECI KATL 050802Z 14004KT 8SM SCT007 SCT024 OVC140 21/20 A3015 RMK AO2=
201307050752 METAR KATL 050752Z 15005KT 8SM SCT008 OVC024 21/20 A3016 RMK AO2 SLP205 T02110200=
201307050652 METAR KATL 050652Z 16007KT 8SM SCT008 BKN022 OVC095 21/20 A3016 RMK AO2 SLP205 T02110200=
201307050614 SPECI KATL 050614Z 16007KT 7SM FEW005 BKN023 OVC110 21/21 A3015 RMK AO2=
201307050552 METAR KATL 050552Z 14006KT 7SM FEW005 OVC110 22/21 A3015 RMK AO2 RAE17 SLP201 P0000 60002 T02170206 10222 20217 58002=
201307050537 SPECI KATL 050537Z 14008KT 7SM SCT005 OVC110 22/21 A3015 RMK AO2 RAE17 P0000=
201307050452 METAR KATL 050452Z 14005KT 8SM -RA BKN007 BKN040 OVC100 22/21 A3017 RMK AO2 RAE08B50 SLP207 CIG 005V010 P0001 T02170211 402500206=
201307050352 METAR KATL 050352Z 15004KT 6SM -RA BR SCT007 BKN020 OVC080 22/21 A3017 RMK AO2 RAB41 SLP210 P0000 T02170211=
201307050252 METAR KATL 050252Z 14004KT 9SM SCT007 BKN040 BKN200 OVC250 22/21 A3016 RMK AO2 SLP204 60001 T02170206 53013 $=
201307050236 SPECI KATL 050236Z 15005KT 10SM SCT007 BKN045 BKN200 OVC250 22/21 A3014 RMK AO2 $=
201307050152 METAR KATL 050152Z 10007KT 060V150 10SM BKN007 BKN015 OVC150 22/21 A3014 RMK AO2 SLP198 T02220211=
201307050133 SPECI KATL 050133Z 13003KT 10SM BKN008 BKN015 OVC150 22/21 A3013 RMK AO2=
201307050111 SPECI KATL 050111Z 00000KT 10SM SCT008 BKN020 BKN050 OVC150 22/21 A3013 RMK AO2=
201307050052 METAR KATL 050052Z 15004KT 10SM FEW005 SCT080 BKN110 OVC150 22/21 A3012 RMK AO2 RAE32 SLP193 P0001 T02170206=
201307042352 METAR KATL 042352Z 14008KT 8SM -RA FEW080 OVC110 22/21 A3012 RMK AO2 SLP192 P0002 60011 T02170206 10250 20217 51006=
201307042252 METAR KATL 042252Z 13006KT 9SM -RA FEW020 SCT100 BKN120 OVC150 22/20 A3011 RMK AO2 SLP189 P0000 T02220200=
201307042152 METAR KATL 042152Z 16013G19KT 8SM -RA FEW008 SCT025CB BKN080 OVC150 23/20 A3011 RMK AO2 RAB32 SLP190 CB VC N-NE MOV N P0009 T02280200=
201307042146 SPECI KATL 042146Z 15011G21KT 5SM RA BR FEW008 SCT025CB BKN090 OVC150 23/21 A3012 RMK AO2 RAB32 VIS N-E 2 CB N-E MOV N P0009=
201307042139 SPECI KATL 042139Z 17013G21KT 1SM R09R/4000VP6000FT +RA BR FEW008 BKN025 OVC100 24/22 A3012 RMK AO2 RAB32 CB SE-OHD-NW MOV N P0005=
201307042136 SPECI KATL 042136Z 17014G20KT 2 1/2SM R09R/4000VP6000FT +RA FEW008 BKN025 OVC100 24/22 A3011 RMK AO2 RAB32 CB DSNT NE & DSNT SE-S-SW SHRA DSNT NE & DSNT SE-S-SW P0001=
201307042120 SPECI KATL 042120Z 15010KT 10SM FEW008 SCT020 OVC100 25/22 A3010 RMK AO2 CB DSNT NE & DSNT SE-S-SW SHRA DSNT NE & DSNT SE-S-SW=
201307042052 METAR KATL 042052Z 14011KT 10SM BKN020 BKN030 OVC110 25/22 A3010 RMK AO2 SLP183 CB DSNT SE 60000 T02500217 56010=
201307042050 SPECI KATL 042050Z 15010KT 10SM BKN020 BKN030 OVC110 25/22 A3010 RMK AO2 CB DSNT SE=
201307041952 METAR KATL 041952Z 18005KT 9SM FEW012 SCT110 OVC150 24/22 A3011 RMK AO2 SLP188 CB DSNT SE T02440222=
201307041912 SPECI KATL 041912Z 18006KT 10SM FEW010 SCT020 OVC150 24/22 A3012 RMK AO2=
201307041852 METAR KATL 041852Z 21006KT 10SM BKN012 BKN020 OVC150 24/22 A3013 RMK AO2 TSE1757RAE1758 SLP194 P0000 T02390222=
201307041757 SPECI KATL 041757Z VRB03KT 9SM -RA FEW005 BKN020 OVC110 23/21 A3014 RMK AO2 TSE57 TS MOV N CB DSNT N-NE-E-SE SHRA DSNT N-NE-E-SE P0000=
201307041752 METAR KATL 041752Z 17004KT 7SM -TSRA FEW005 BKN020CB OVC120 23/21 A3015 RMK AO2 TSB31RAB02E31B47 SLP202 VIS LWR N SHRA OCNL LTGICCG N TS VC N MOV N CB DSNT NE-E-SE SHRA DSNT NE-E-SE P0017 60023 T02280206 10233 20217 58003=
201307041739 SPECI KATL 041739Z 22004KT 7SM TS FEW005 BKN015CB OVC080 23/22 A3015 RMK AO2 TSB31RAB02E31 VIS LWR SW-NW SHRA OCNL LTGICCG SW-NW TS SW-NW MOV N CB DSNT NE-E-SE SHRA DSNT NE-E-SE P0016=
201307041731 SPECI KATL 041731Z 18009KT 7SM TS FEW015CB BKN075 OVC110 23/21 A3015 RMK AO2 TSB31RAB02E31 VIS LWR SW SHRA FRQ LTGICCG SW TS SW MOV N CB DSNT NE SHRA DSNT NE P0016=
201307041727 SPECI KATL 041727Z 18010KT 7SM -RA FEW015CB BKN075 OVC110 23/21 A3015 RMK AO2 RAB02 CB N-NE-E MOV N CB DSNT S-SW SHRA N-NE-E & DSNT S-SW P0016=
201307041704 SPECI KATL 041704Z 16006KT 2 1/2SM R09R/4500VP6000FT RA BR BKN010CB BKN025 OVC040 23/22 A3015 RMK AO2 SFC VIS 3 RAB02 VIS LWR E-SE-S-SW SHRA CB E-SE-S-SW MOV N P0003=
201307041652 METAR KATL 041652Z 16005KT 5SM BR FEW010CB BKN030 OVC080 23/22 A3016 RMK AO2 RAE34 SLP204 VIS LWR SHRA VC NE-SW CB NE-SW MOV N P0001 T02330222=
201307041634 SPECI KATL 041634Z 14005KT 6SM BR FEW010 BKN060 OVC080 23/22 A3015 RMK AO2 RAE34 P0001=
201307041552 METAR KATL 041552Z 13008KT 3SM -RA BR SCT008 BKN012 OVC065 23/22 A3016 RMK AO2 SFC VIS 5 RAB1455E06B41 SLP204 P0002 T02330217=
201307041452 METAR KATL 041452Z 13006KT 3SM BR BKN008 BKN016 OVC060 23/22 A3016 RMK AO2 SFC VIS 5 RAB28E52 SLP205 P0003 60003 T02280217 50006=
201307041352 METAR KATL 041352Z 14008KT 3SM BR OVC006 22/21 A3016 RMK AO2 SFC VIS 5 RAB30E52 SLP206 P0000 T02220211=
201307041252 METAR KATL 041252Z 12008KT 1 1/2SM BR BKN004 OVC008 22/21 A3015 RMK AO2 SFC VIS 3 SLP201 T02170211=
201307041152 METAR KATL 041152Z 10005KT 1 1/2SM BR OVC004 22/21 A3014 RMK AO2 SFC VIS 3 RAE06 SLP198 P0001 60012 70196 T02170211 10217 20206 52001=
201307041052 METAR KATL 041052Z 11007KT 1 1/2SM -RA BR OVC004 21/21 A3014 RMK AO2 SFC VIS 3 SLP199 P0003 T02110206=
201307040952 METAR KATL 040952Z 11006KT 1 1/2SM -RA BR OVC003 21/21 A3013 RMK AO2 SFC VIS 2 1/2 SLP197 P0004 T02110206=
201307040914 SPECI KATL 040914Z 10005KT 1 1/2SM -RA BR BKN004 OVC011 21/21 A3013 RMK AO2 SFC VIS 3 P0002=
201307040852 METAR KATL 040852Z 10007KT 1/2SM -RA BR OVC004 21/20 A3013 RMK AO2 SFC VIS 3 RAE20B49 SLP196 TWRINC P0002 60004 T02110200 50001=
201307040752 METAR KATL 040752Z 11007KT 1/2SM RA BR OVC003 21/20 A3014 RMK AO2 SFC VIS 2 1/2 RAB04E15B41 SLP199 CIG 002V005 P0002 T02060200=
201307040652 METAR KATL 040652Z 09008KT 1/2SM BR OVC003 21/20 A3013 RMK AO2 SFC VIS 2 1/2 RAE36 SLP197 TWRINC P0000 T02060200=
201307040614 SPECI KATL 040614Z 09009KT 1/2SM -RA BR OVC003 21/20 A3014 RMK AO2 SFC VIS 3 TWRINC P0000=
201307040552 METAR KATL 040552Z 07012KT 2SM -RA BR BKN003 OVC007 21/20 A3013 RMK AO2 SFC VIS 5 PRESFR SLP197 P0011 60048 T02060200 10222 20206 58014=
201307040515 SPECI KATL 040515Z 09011KT 2SM RA BR OVC004 21/20 A3017 RMK AO2 SFC VIS 4 P0005=
201307040452 METAR KATL 040452Z 09007KT 2SM RA BR OVC005 21/20 A3018 RMK AO2 SFC VIS 6 SLP211 CIG 003V008 P0018 T02110200 402440194=
201307040352 METAR KATL 040352Z 10008KT 2SM -RA OVC004 21/21 A3018 RMK AO2 SFC VIS 8 SLP212 CIG OO3V006 P0003 T02110206=
201307040252 METAR KATL 040252Z 10008KT 2SM -RA BKN004 OVC020 21/20 A3017 RMK AO2 SFC VIS 8 SLP210 P0003 60016 T02060200 51012=
201307040238 SPECI KATL 040238Z 10009KT 2SM -RA BKN004 OVC110 21/20 A3017 RMK AO2 SFC VIS 8 P0003=
201307040152 METAR KATL 040152Z 10007KT 9SM -RA BKN007 BKN025 OVC110 21/19 A3016 RMK AO2 SLP205 P0008 T02060194=
201307040136 SPECI KATL 040136Z 10010KT 6SM -RA BR BKN007 BKN025 OVC110 21/19 A3016 RMK AO2 P0007=
201307040052 METAR KATL 040052Z 09009KT 9SM -RA SCT007 BKN020 OVC110 21/20 A3016 RMK AO2 SLP206 P0005 T02110200=
201307040015 SPECI KATL 040015Z 09009KT 7SM -RA SCT007 BKN055 OVC110 21/21 A3015 RMK AO2 P0002=
201307032359 SPECI KATL 032359Z 10010KT 8SM -RA BKN007 BKN060 OVC110 22/21 A3014 RMK AO2 P0001=
201307032352 METAR KATL 032352Z 09010KT 8SM -RA SCT007 BKN060 OVC110 22/21 A3014 RMK AO2 RAB2258 SLP198 P0000 60089 T02170206 10228 20194 55001=
201307032252 METAR KATL 032252Z 09008KT 10SM FEW005 SCT080 BKN110 OVC150 22/20 A3013 RMK AO2 RAE16B34E47 SLP194 P0000 T02170200=
201307032152 METAR KATL 032152Z 10005KT 9SM -RA FEW005 BKN090 BKN120 OVC150 22/20 A3014 RMK AO2 RAB10 SLP198 P0000 T02220200=
201307032140 SPECI KATL 032140Z 11004KT 7SM -RA FEW005 SCT025 OVC090 22/20 A3014 RMK AO2 RAB10 P0000=
201307032052 METAR KATL 032052Z 06004KT 10SM FEW005 BKN025 OVC085 23/20 A3014 RMK AO2 RAE02 SLP198 P0000 60089 T02280200 58009=
201307032002 SPECI KATL 032002Z 33003KT 10SM FEW005 BKN040 OVC060 21/19 A3014 RMK AO2 RAE02 P0000=
201307031952 METAR KATL 031952Z 31005KT 3SM -RA BR FEW005 SCT030 OVC040 21/19 A3014 RMK AO2 SFC VIS 4 SLP200 P0016 T02060194=
201307031915 SPECI KATL 031915Z 00000KT 3SM -RA BR FEW005 SCT030 OVC060 20/19 A3016 RMK AO2 SFC VIS 5 P0008=
201307031852 METAR KATL 031852Z 24005KT 2SM -RA BR FEW005 BKN030 OVC050 20/19 A3017 RMK AO2 SFC VIS 5 TSE24 SLP210 P0073 T02000189=
201307031849 SPECI KATL 031849Z 25004KT 2SM -RA BR FEW005 BKN030 OVC050 20/19 A3017 RMK AO2 SFC VIS 5 TSE24 P0072=
201307031824 SPECI KATL 031824Z 00000KT 1SM R09R/3500VP6000FT +RA BR FEW005 BKN020CB OVC030 19/19 A3017 RMK AO2 SFC VIS 3 TSE24 TS MOV NE CB OHD-NE-SE MOV NE P0053=
201307031813 SPECI KATL 031813Z 25006KT 1SM R09R/3500VP6000FT TSRA BR FEW005 BKN020CB OVC043 20/19 A3018 RMK AO2 SFC VIS 3 OCNL LTGIC OHD-NE-SE TS OHD-NE-SE MOV NE P0040=
201307031759 SPECI KATL 031759Z 17004KT 1SM R09R/2800VP6000FT +TSRA BR FEW005 BKN020CB OVC040 20/19 A3018 RMK AO2 OCNL LTGIC OHD TS OHD MOV NE P0011 $=
201307031752 METAR KATL 031752Z 23008KT 2SM R09R/4000VP6000FT TSRA BR FEW005 SCT020CB OVC028 20/19 A3017 RMK AO2 SFC VIS 3 TSE09B45 SLP209 OCNL LTGIC SW-NW TS SW-NW MOV NE P0029 60047 T02000189 10244 20200 53008 $=
201307031746 SPECI KATL 031746Z 28010KT 3SM +TSRA FEW005 BKN020CB OVC030 20/19 A3017 RMK AO2 TSE09B45 OCNL LTGIC SW-NW TS SW-NW MOV NE P0020=
201307031743 SPECI KATL 031743Z 28009KT 3SM +RA BR FEW005 BKN020CB OVC030 21/19 A3016 RMK AO2 TSE09 CB OHD-SW-NW MOV NE P0015=
201307031730 SPECI KATL 031730Z 30008KT 6SM -RA BR FEW005 BKN015CB OVC030 21/19 A3016 RMK AO2 TSE09 CB OHD-SW-NW MOV NE P0005=
201307031710 SPECI KATL 031710Z 29013KT 8SM -RA BKN013CB BKN019 OVC035 23/21 A3016 RMK AO2 TSE09 VIS LWR SW-N SHRA CB SW-N MOV NE P0000=
201307031652 METAR KATL 031652Z 18006KT 10SM -TSRA SCT015CB BKN040 OVC100 24/22 A3014 RMK AO2 TSB45RAE1556B50 SLP199 OCNL LTGICCG SW-N TS VC SW-N MOV NE SHRA VC SW-N P0000 T02440217=
201307031619 SPECI KATL 031619Z 15013G18KT 10SM SCT014 BKN023 OVC030 24/21 A3015 RMK AO2 RAE1556 OCNL LTGICCG DSNT SW-N CB DSNT SW-N SHRA DSNT SW-N P0000=
201307031552 METAR KATL 031552Z COR 15011KT 10SM -RA SCT014CB BKN023 OVC030 24/22 A3014 RMK AO2 TSB08E34RAE1455B47 SLP198 VIS LWR VC NW SHRA CB NW MOV NE P0001 T02390217=
201307031534 SPECI KATL 031534Z 16006KT 10SM BKN014 BKN023 OVC030 24/22 A3015 RMK AO2 TSB08E34RAE1455 TS MOV N CB DSNT N P0001=
201307031524 SPECI KATL 031524Z 14005KT 10SM TS FEW012CB BKN023 OVC030 24/22 A3015 RMK AO2 TSB08RAE1455 VIS LWR VC NW SHRA OCNL LTGICCG NW TS VC NW MOV NE P0001=
201307031509 SPECI KATL 031509Z 15007KT 10SM TS SCT012CB BKN023 OVC030 24/22 A3014 RMK AO2 TSB08RAE1455 VIS LWR VC SW-W SHRA OCNL LTGICCG SW-W TS VC SW-W MOV NE P0001=
201307031506 SPECI KATL 031506Z 14007KT 10SM SCT012 OVC023 24/22 A3014 RMK AO2 RAE1455 OCNL LTGICCG DSNT SW-W CB DSNT SW-W P0001=
201307031504 SPECI KATL 031504Z 15006KT 10SM FEW008 BKN012 OVC023 24/22 A3014 RMK AO2 RAE1455 OCNL LTGICCG DSNT SW & NW CB DSNT SW & NW P0001=
201307031501 SPECI KATL 031501Z 14005KT 10SM SCT010 BKN016 OVC023 24/22 A3014 RMK AO2 RAE1455 OCNL LTGICCG DSNT SW & NW CB DSNT SW & NW P0001=
201307031452 METAR KATL 031452Z 16006KT 10SM -RA FEW008 BKN012 OVC025 24/22 A3014 RMK AO2 TSE40 SLP198 VIS LWR SW-N SHRA TS MOV N FRQ LTGICCG DSNT SW CB DSNT SW P0006 60017 T02390217 51011=
201307031441 SPECI KATL 031441Z 15006KT 8SM -RA BKN010 BKN015 OVC030 23/22 A3015 RMK AO2 TSE40 VIS LWR SW-NW SHRA TS MOV N FRQ LTGICCG DSNT SW CB DSNT SW P0004=
201307031414 SPECI KATL 031414Z 17006KT 6SM -TSRA BKN010CB BKN015 OVC030 23/22 A3014 RMK AO2 VIS LWR VC N SHRA OCNL LTGICCG N TS VC N MOV NE P0003=
201307031401 SPECI KATL 031401Z 15008KT 3SM +TSRA BR BKN008CB BKN014 OVC030 23/22 A3014 RMK AO2 VIS LWR VC NW SHRA OCNL LTGICCG NW TS VC NW MOV NE P0001=
201307031352 METAR KATL 031352Z 15009KT 8SM -TSRA BKN008CB BKN014 OVC030 23/22 A3013 RMK AO2 TSB15 SLP195 VIS LWR SW-NW SHRA OCNL LTGICCG SW-NW TS VC SW-NW MOV NE BINOVC DSNT E-SE P0010 T02330217=
201307031337 SPECI KATL 031337Z 14009KT 6SM -TSRA BR BKN008CB BKN014 OVC020 23/22 A3013 RMK AO2 TSB15 VIS LWR SW-NW SHRA OCNL LTGICCG SW-NW TS VC SW-NW MOV NE P0008=
201307031328 SPECI KATL 031328Z 14008KT 3SM R09R/4500VP6000FT TSRA BR BKN008CB BKN012 OVC020 23/22 A3013 RMK AO2 TSB15 OCNL LTGICCG W TS VC W MOV NE P0007=
201307031325 SPECI KATL 031325Z 14008KT 2SM R09R/4500VP6000FT +TSRA BR BKN008CB BKN012 OVC020 23/22 A3013 RMK AO2 TSB15 OCNL LTGICCG W TS VC W MOV NE P0005=
201307031315 SPECI KATL 031315Z 16009KT 10SM TS BKN008CB BKN016 OVC020 23/22 A3013 RMK AO2 TSB15RAE12 VIS LWR SW SHRA FRQ LTGICCG SW TS VC SW MOV NE P0001=
201307031252 METAR KATL 031252Z 15006KT 8SM -RA BKN008 BKN012 OVC018 23/22 A3013 RMK AO2 RAE13B52 SLP193 CB DSNT SW P0001 T02330217=
201307031152 METAR KATL 031152Z 15004KT 5SM R09R/5500VP6000FT -RA BR BKN008 BKN025 OVC031 23/22 A3011 RMK AO2 RAB39 SLP185 VIS SW-NW 2 P0007 60007 70007 T02280217 10233 20228 51006=
201307031149 SPECI KATL 031149Z 15005KT 5SM R09R/4500VP6000FT -RA BR BKN008 BKN025 OVC033 23/22 A3011 RMK AO2 RAB39 VIS SW-NW 1 1/4 P0005=
201307031125 SPECI KATL 031125Z 14005KT 7SM SCT008 BKN012 BKN035 OVC200 23/22 A3010 RMK AO2=
201307031058 SPECI KATL 031058Z 15005KT 7SM SCT008 BKN018 OVC025 23/22 A3010 RMK AO2=
201307031052 METAR KATL 031052Z 14004KT 8SM SCT010 BKN025 OVC033 23/22 A3010 RMK AO2 RAE0956B25E47 SLP182 P0000 T02280217=
201307031048 SPECI KATL 031048Z 14003KT 10SM SCT010 BKN017 OVC050 23/22 A3010 RMK AO2 RAE0956B25E47 P0000=
201307031007 SPECI KATL 031007Z 16004KT 10SM BKN014 BKN023 BKN042 BKN250 23/21 A3010 RMK AO2 RAE0956 P0000 $=
201307030952 METAR KATL 030952Z 15003KT 8SM -RA FEW012 BKN017 BKN029 OVC250 23/21 A3010 RMK AO2 RAB36 SLP184 P0000 T02280211 $=
201307030910 SPECI KATL 030910Z 17005KT 10SM FEW009 SCT012 OVC017 23/21 A3010 RMK AO2 $=
201307030852 METAR KATL 030852Z 15006KT 10SM FEW009 BKN012 OVC017 23/21 A3009 RMK AO2 SLP178 T02330211 55003 $=
201307030843 SPECI KATL 030843Z 15006KT 10SM FEW009 BKN012 OVC017 23/21 A3009 RMK AO2 $=
201307030752 METAR KATL 030752Z 16005KT 10SM FEW009 OVC015 23/21 A3008 RMK AO2 SLP175 T02330211 $=
201307030657 SPECI KATL 030657Z 17006KT 10SM SCT009 OVC015 23/21 A3008 RMK AO2 $=
201307030652 METAR KATL 030652Z 17007KT 10SM BKN009 OVC015 23/21 A3008 RMK AO2 SLP176 T02330211 $=
201307030552 METAR KATL 030552Z 15005KT 10SM BKN009 OVC021 23/21 A3010 RMK AO2 SLP182 T02330211 10278 20228 51002 $=
201307030548 SPECI KATL 030548Z 15005KT 10SM BKN009 OVC021 23/21 A3010 RMK AO2 $=
201307030538 SPECI KATL 030538Z 15006KT 10SM SCT009 BKN021 BKN250 23/21 A3010 RMK AO2 $=
201307030452 METAR KATL 030452Z COR 15008KT 10SM BKN009 OVC015 23/21 A3010 RMK AO2 SLP182 T02330211 402940206=
201307030434 SPECI KATL 030434Z 15006KT 10SM BKN009 OVC020 23/21 A3010 RMK AO2=
201307030410 SPECI KATL 030410Z 16006KT 10SM SCT010 BKN022 BKN250 23/21 A3010 RMK AO2=
201307030352 METAR KATL 030352Z 15006KT 10SM FEW010 SCT200 BKN250 23/21 A3010 RMK AO2 SLP184 T02330206=
201307030252 METAR KATL 030252Z COR 15007KT 10SM FEW090 BKN250 24/21 A3010 RMK AO2 SLP182 T02390206 51018=
201307030152 METAR KATL 030152Z 15008KT 10SM FEW035 SCT090 BKN250 25/21 A3008 RMK AO2 SLP178 T02500206=
201307030052 METAR KATL 030052Z 15008G17KT 10SM FEW040 SCT100 BKN250 26/21 A3006 RMK AO2 SLP171 TCU DSNT NE-SE T02610206=
201307022352 METAR KATL 022352Z 17007KT 10SM FEW040TCU SCT110 BKN250 28/19 A3004 RMK AO2 SLP163 TCU VC E-SE T02780194 10294 20272 53008=
201307022252 METAR KATL 022252Z 23007KT 10SM FEW040 SCT100 SCT250 29/19 A3002 RMK AO2 SLP156 TCU DSNT NE & E-S T02890189=
201307022152 METAR KATL 022152Z 18007KT 10SM SCT040TCU SCT100 BKN250 28/19 A3001 RMK AO2 SLP154 TCU N-E-S & SW-W T02780194=
201307022052 METAR KATL 022052Z 20005KT 10SM SCT040TCU SCT250 29/19 A3002 RMK AO2 SLP154 CB DSNT NE TCU N-NE-E & S-SW-W T02890189 55004=
201307021952 METAR KATL 021952Z 20007KT 10SM BKN045TCU BKN250 29/19 A3001 RMK AO2 SLP151 TCU NE-SE & SW-NW T02890189=
201307021852 METAR KATL 021852Z 18010KT 10SM BKN040TCU BKN250 28/18 A3002 RMK AO2 SLP154 TCU OHD-SW-NW SHRA NW T02780183=
201307021752 METAR KATL 021752Z 17011KT 10SM BKN035TCU BKN250 28/19 A3003 RMK AO2 SLP158 CB DSNT W TCU OHD-SW-NW T02830189 10283 20222 58004=
201307021652 METAR KATL 021652Z 17009KT 10SM BKN035TCU BKN250 28/19 A3004 RMK AO2 SLP161 TCU OHD-S-SW-W-NW T02780194=
201307021552 METAR KATL 021552Z 19006KT 10SM SCT025TCU SCT250 26/19 A3004 RMK AO2 SLP164 TCU E & SW-NW T02560194=
201307021550 SPECI KATL 021550Z 17009KT 10SM SCT025TCU SCT250 26/19 A3004 RMK AO2 TCU E & SW-NW=
201307021452 METAR KATL 021452Z COR 19009KT 10SM BKN025TCU BKN030 BKN250 25/19 A3003 RMK AO2 SLP160 TCU OHD & ALQDS T02500194 51008=
201307021328 SPECI KATL 021328Z 17007KT 10SM FEW014 SCT030 SCT250 24/20 A3003 RMK AO2 $=
201307021252 METAR KATL 021252Z 18009KT 8SM FEW008 OVC023 23/21 A3003 RMK AO2 SLP160 T02280206 $=
201307021215 SPECI KATL 021215Z COR 18008KT 7SM SCT006 BKN016 BKN030 22/21 A3002 RMK AO2=
201307021124 SPECI KATL 021124Z 17007KT 5SM BR OVC006 22/21 A3000 RMK AO2 DZE1059 CIG 004V009 P0000=
201307021100 SPECI KATL 021100Z 18008KT 2SM BR OVC004 22/21 A3000 RMK AO2 SFC VIS 3 DZE1059 CIG 003V005 P0000=
201307021052 METAR KATL 021052Z 18005KT 2SM -DZ BR OVC004 22/21 A3000 RMK AO2 DZB51 SLP149 CIG 003V005 P0000 T02170206=
201307021027 SPECI KATL 021027Z 17007KT 2SM BR OVC004 21/21 A2999 RMK AO2 SFC VIS 3=
201307021001 SPECI KATL 021001Z 18005KT 3SM BR OVC004 21/20 A2998 RMK AO2 SFC VIS 4=
201307020952 METAR KATL 020952Z 18008KT 6SM BR OVC005 21/20 A2998 RMK AO2 SLP141 T02110200=
201307020852 METAR KATL 020852Z 18005KT 10SM BKN009 BKN033 BKN100 BKN250 21/19 A2996 RMK AO2 SLP135 T02110194 53002 $=
201307020846 SPECI KATL 020846Z 17005KT 10SM BKN009 BKN033 BKN100 BKN250 21/19 A2996 RMK AO2 $=
201307020800 SPECI KATL 020800Z 20003KT 10SM BKN011 BKN040 BKN095 BKN250 21/20 A2995 RMK AO2 $=
201307020752 METAR KATL 020752Z 00000KT 10SM BKN009 BKN095 BKN250 21/20 A2995 RMK AO2 SLP133 T02110200 $=
201307020744 SPECI KATL 020744Z 20004KT 10SM BKN009 BKN095 BKN250 22/20 A2995 RMK AO2 $=
201307020738 SPECI KATL 020738Z 21003KT 10SM BKN010 BKN095 BKN250 22/20 A2995 RMK AO2 $=
201307020652 METAR KATL 020652Z 17009KT 10SM FEW013 BKN100 BKN250 22/20 A2995 RMK AO2 SLP131 T02220200 $=
201307020552 METAR KATL 020552Z 18005KT 10SM FEW013 SCT047 BKN100 BKN130 BKN250 22/21 A2995 RMK AO2 SLP132 T02220206 10261 20222 53004 $=
201307020452 METAR KATL 020452Z 19007KT 10SM FEW120 SCT150 BKN250 22/20 A2995 RMK AO2 SLP130 T02220200 402780200 $=
201307020352 METAR KATL 020352Z 22003KT 10SM FEW090 BKN120 BKN250 23/21 A2994 RMK AO2 SLP128 OCNL LTG DSNT E & NW T02330206 $=
201307020252 METAR KATL 020252Z 18008KT 10SM FEW025 OVC090 24/20 A2994 RMK AO2 SLP127 T02440200 51013 $=
201307020152 METAR KATL 020152Z 16006KT 10SM BKN095 OVC200 25/19 A2992 RMK AO2 SLP124 T02500189=
201307020052 METAR KATL 020052Z 15004KT 10SM FEW025 BKN100 BKN200 BKN250 26/19 A2991 RMK AO2 SLP120 T02560194=
201307012352 METAR KATL 012352Z 17003KT 10SM FEW025 SCT110 BKN200 OVC250 26/20 A2989 RMK AO2 SLP114 T02610200 10278 20256 53004=
201307012252 METAR KATL 012252Z 20004KT 10SM FEW025 SCT095 BKN120 OVC200 26/20 A2988 RMK AO2 SLP109 T02610200=
201307012152 METAR KATL 012152Z 21005KT 10SM FEW025 BKN100 OVC200 26/21 A2987 RMK AO2 SLP107 CB DSNT NE T02560206=
201307012052 METAR KATL 012052Z 20007KT 10SM FEW025 SCT060 BKN100 BKN250 26/21 A2988 RMK AO2 SLP109 TCU DSNT N-NE T02560206 53002=
201307011952 METAR KATL 011952Z 21006KT 10SM FEW025TCU SCT060 BKN110 OVC250 27/20 A2987 RMK AO2 SLP107 TCU N-NE-E & DSNT S SHRA DSNT N-NE & VC SW-NW T02670200=
201307011852 METAR KATL 011852Z 21010KT 10SM SCT030TCU BKN070 BKN250 27/19 A2986 RMK AO2 SLP102 CB DSNT N & SW & W TCU OHD-N-NE-E-SE T02670189=
201307011759 SPECI KATL 011759Z 19010KT 10SM BKN028TCU BKN070 BKN250 27/21 A2987 RMK AO2 CB DSNT N TCU OHD & ALQDS SHRA DSNT N=
201307011752 METAR KATL 011752Z 17010KT 10SM BKN030TCU BKN070 BKN250 27/21 A2987 RMK AO2 SLP107 CB DSNT N TCU OHD & ALQDS SHRA DSNT N T02670206 10278 20217 58005=
201307011652 METAR KATL 011652Z VRB06KT 10SM SCT025TCU SCT200 BKN250 27/21 A2988 RMK AO2 SLP109 CB DSNT NW-N TCU W-NW-N T02720206=
201307011552 METAR KATL 011552Z VRB03KT 10SM FEW020TCU SCT140 SCT250 26/20 A2989 RMK AO2 SLP112 TCU E T02560200=
201307011452 METAR KATL 011452Z VRB03KT 10SM BKN016 BKN100 BKN140 25/21 A2989 RMK AO2 SLP112 T02500206 51010=
201307011419 SPECI KATL 011419Z 14005KT 10SM FEW012 SCT100 BKN140 24/20 A2989 RMK AO2=
201307011352 METAR KATL 011352Z VRB06KT 10SM BKN010 BKN100 24/20 A2989 RMK AO2 SLP112 T02390200=
201307011321 SPECI KATL 011321Z 15003KT 8SM BKN010 BKN100 23/20 A2988 RMK AO2=
201307011252 METAR KATL 011252Z 15004KT 7SM BKN008 BKN100 22/20 A2988 RMK AO2 SLP107 T02220200=
