##########################################################
# Query made at 04/19/2024 23:35:14 UTC
# Time interval: from 10/01/2013 12:00  to 10/31/2013 12:59  UTC
##########################################################

##########################################################
# KATL, Atlanta, Hartsfield - Jackson Atlanta International Airport (United States)
# WMO index: 72219. WIGOS ID: 0-20000-0-72219
# Latitude 33-38-59N. Longitude 084-25-00W. Altitude 312 m.
##########################################################

201310311252 METAR KATL 311252Z 15004KT 10SM FEW021 SCT140 BKN180 BKN250 16/11 A3012 RMK AO2 SLP194 VIRGA VC NW T01610111=
201310311152 METAR KATL 311152Z 16006KT 10SM FEW140 BKN180 BKN250 16/11 A3013 RMK AO2 SLP196 T01560106 10167 20156 58003=
201310311052 METAR KATL 311052Z 16005KT 10SM SCT140 BKN180 OVC250 16/11 A3014 RMK AO2 SLP201 T01560111=
201310310952 METAR KATL 310952Z 17007KT 10SM FEW120 BKN150 OVC200 16/12 A3014 RMK AO2 SLP199 T01610117 $=
201310310852 METAR KATL 310852Z 18007KT 10SM BKN150 OVC200 16/12 A3014 RMK AO2 SLP199 T01610117 56012 $=
201310310752 METAR KATL 310752Z 17007KT 10SM BKN150 BKN200 OVC250 17/12 A3014 RMK AO2 SLP199 T01670117 $=
201310310652 METAR KATL 310652Z 17005KT 10SM FEW150 BKN200 BKN250 16/12 A3015 RMK AO2 SLP204 T01610122 $=
201310310552 METAR KATL 310552Z 16004KT 10SM SCT150 BKN200 BKN250 17/12 A3017 RMK AO2 SLP211 T01670122 10217 20167 58009=
201310310452 METAR KATL 310452Z COR 15004KT 10SM FEW150 BKN250 17/12 A3018 RMK AO2 SLP213 T01720122 402560139=
201310310352 METAR KATL 310352Z 16005KT 10SM FEW150 BKN250 18/13 A3019 RMK AO2 SLP219 T01780128=
201310310252 METAR KATL 310252Z 17004KT 10SM SCT200 BKN250 18/13 A3020 RMK AO2 SLP221 T01830133 52005=
201310310152 METAR KATL 310152Z 14003KT 10SM BKN200 OVC250 19/13 A3019 RMK AO2 SLP220 T01940133=
201310310052 METAR KATL 310052Z 15004KT 10SM FEW200 OVC250 20/13 A3019 RMK AO2 SLP218 T02000133=
201310302352 METAR KATL 302352Z 14004KT 10SM BKN200 OVC250 21/13 A3018 RMK AO2 SLP216 T02110133 10256 20206 55004=
201310302252 METAR KATL 302252Z 15004KT 10SM BKN200 OVC250 22/13 A3018 RMK AO2 SLP214 T02170133=
201310302152 METAR KATL 302152Z 18004KT 10SM BKN200 OVC250 23/13 A3018 RMK AO2 SLP215 T02280133=
201310302052 METAR KATL 302052Z 21005KT 10SM FEW050 BKN200 OVC250 23/13 A3020 RMK AO2 SLP220 T02330128 56018=
201310301952 METAR KATL 301952Z 23006KT 10SM FEW045 SCT200 BKN250 24/12 A3021 RMK AO2 SLP223 T02440122=
201310301852 METAR KATL 301852Z VRB05KT 10SM FEW040 SCT200 BKN250 25/12 A3022 RMK AO2 SLP228 T02500122=
201310301752 METAR KATL 301752Z 26003KT 10SM FEW040 SCT200 SCT250 24/13 A3025 RMK AO2 SLP238 T02440128 10244 20144 58021=
201310301652 METAR KATL 301652Z 20008KT 10SM FEW150 SCT200 SCT250 23/13 A3028 RMK AO2 SLP250 T02330128=
201310301552 METAR KATL 301552Z 26004KT 10SM FEW150 SCT200 SCT250 22/13 A3030 RMK AO2 SLP256 T02220128=
201310301452 METAR KATL 301452Z 22006KT 10SM BKN150 BKN220 BKN250 19/13 A3031 RMK AO2 SLP261 T01940133 53004=
201310301352 METAR KATL 301352Z 21005KT 10SM FEW150 SCT200 SCT250 18/13 A3031 RMK AO2 SLP259 T01780128=
201310301252 METAR KATL 301252Z 19003KT 10SM SCT150 BKN200 BKN250 14/12 A3030 RMK AO2 SLP258 T01440122=
201310301152 METAR KATL 301152Z 00000KT 10SM SCT150 BKN200 BKN250 15/12 A3030 RMK AO2 SLP257 VIRGA VC W-NW AND DSNT E T01500122 10161 20139 53016=
201310301052 METAR KATL 301052Z 00000KT 10SM SCT150 BKN200 BKN250 15/12 A3028 RMK AO2 SLP250 T01500122=
201310300952 METAR KATL 300952Z 00000KT 10SM FEW150 SCT200 BKN250 14/12 A3027 RMK AO2 SLP246 T01440122=
201310300852 METAR KATL 300852Z 19003KT 10SM SCT200 BKN250 14/12 A3025 RMK AO2 SLP240 T01440122 58005=
201310300752 METAR KATL 300752Z 00000KT 10SM SCT200 BKN250 15/13 A3026 RMK AO2 SLP241 T01500128=
201310300652 METAR KATL 300652Z 00000KT 10SM BKN200 BKN250 16/13 A3028 RMK AO2 SLP248 T01560128=
201310300552 METAR KATL 300552Z 00000KT 10SM BKN200 BKN250 16/13 A3027 RMK AO2 SLP244 T01610133 10211 20161 56005=
201310300452 METAR KATL 300452Z 00000KT 10SM BKN250 17/13 A3027 RMK AO2 SLP246 T01670133 402390133=
201310300352 METAR KATL 300352Z 14003KT 10SM BKN250 17/13 A3028 RMK AO2 SLP248 T01720133=
201310300252 METAR KATL 300252Z 14003KT 10SM FEW200 BKN250 17/13 A3028 RMK AO2 SLP251 T01720133 51005=
201310300152 METAR KATL 300152Z 13004KT 10SM FEW080 BKN250 18/13 A3028 RMK AO2 SLP251 T01830133=
201310300052 METAR KATL 300052Z 12004KT 10SM FEW055 SCT080 BKN250 20/13 A3028 RMK AO2 SLP248 T02000133=
201310292352 METAR KATL 292352Z 12003KT 10SM BKN080 BKN250 21/13 A3027 RMK AO2 SLP246 T02110128 10239 20206 53007=
201310292252 METAR KATL 292252Z 00000KT 10SM BKN080 BKN250 22/12 A3026 RMK AO2 SLP240 T02170122=
201310292152 METAR KATL 292152Z 00000KT 10SM SCT075 BKN250 23/12 A3025 RMK AO2 SLP240 T02280117=
201310292052 METAR KATL 292052Z 00000KT 10SM FEW040 BKN075 BKN250 23/12 A3025 RMK AO2 SLP237 T02330117 56014=
201310291952 METAR KATL 291952Z VRB03KT 10SM FEW045 SCT070 SCT250 24/12 A3026 RMK AO2 SLP240 T02390122=
201310291852 METAR KATL 291852Z 22005KT 10SM FEW050 BKN070 BKN250 22/13 A3026 RMK AO2 SLP244 T02170128=
201310291752 METAR KATL 291752Z 00000KT 10SM FEW040 SCT070 SCT250 23/13 A3029 RMK AO2 SLP252 T02280128 10233 20133 58014=
201310291652 METAR KATL 291652Z 20004KT 10SM FEW065 SCT250 21/13 A3031 RMK AO2 SLP261 T02110133=
201310291552 METAR KATL 291552Z 15004KT 10SM FEW050 BKN065 BKN250 19/13 A3034 RMK AO2 SLP269 T01940128=
201310291452 METAR KATL 291452Z 13005KT 10SM FEW050 BKN070 18/12 A3033 RMK AO2 SLP268 T01830122 50009=
201310291352 METAR KATL 291352Z 00000KT 10SM FEW050 BKN070 BKN250 17/12 A3033 RMK AO2 SLP270 T01670117=
201310291252 METAR KATL 291252Z 10004KT 9SM SCT048 BKN070 15/12 A3032 RMK AO2 SLP264 T01500117=
201310291152 METAR KATL 291152Z 08003KT 9SM FEW040 SCT070 14/11 A3031 RMK AO2 SLP260 70003 T01390111 10150 20133 51010=
201310291052 METAR KATL 291052Z 00000KT 10SM SCT055 BKN070 14/12 A3030 RMK AO2 SLP258 T01440117=
201310290952 METAR KATL 290952Z 00000KT 10SM BKN050 BKN070 15/12 A3029 RMK AO2 SLP254 T01500122=
201310290852 METAR KATL 290852Z 09003KT 10SM BKN049 BKN075 15/12 A3027 RMK AO2 SLP249 T01500122 53001=
201310290752 METAR KATL 290752Z 00000KT 10SM BKN049 BKN060 BKN075 15/13 A3027 RMK AO2 SLP248 T01500128=
201310290652 METAR KATL 290652Z 00000KT 10SM SCT065 14/12 A3027 RMK AO2 SLP247 T01390122=
201310290552 METAR KATL 290552Z 00000KT 10SM BKN065 15/13 A3027 RMK AO2 SLP248 T01500128 10172 20144 56003=
201310290452 METAR KATL 290452Z 00000KT 10SM BKN060 15/13 A3028 RMK AO2 SLP249 T01500128 401780133=
201310290352 METAR KATL 290352Z 08004KT 10SM FEW042 SCT055 15/13 A3027 RMK AO2 SLP249 T01500128=
201310290252 METAR KATL 290252Z 10003KT 10SM SCT045 BKN065 BKN250 16/13 A3028 RMK AO2 SLP251 T01610128 51009=
201310290152 METAR KATL 290152Z 09004KT 10SM SCT045 BKN080 16/12 A3028 RMK AO2 SLP251 T01610122=
201310290052 METAR KATL 290052Z 00000KT 10SM FEW048 OVC065 17/12 A3026 RMK AO2 SLP246 T01670122 $=
201310282352 METAR KATL 282352Z 00000KT 10SM BKN050 BKN065 17/12 A3025 RMK AO2 SLP242 60001 T01720117 10178 20161 53010=
201310282252 METAR KATL 282252Z 00000KT 10SM BKN050 BKN065 17/12 A3024 RMK AO2 SLP239 T01670122=
201310282152 METAR KATL 282152Z 00000KT 10SM SCT048 BKN060 BKN080 17/13 A3023 RMK AO2 SLP235 T01720128=
201310282052 METAR KATL 282052Z 15004KT 10SM FEW050 BKN060 BKN080 18/13 A3022 RMK AO2 SLP232 60001 T01780128 56011=
201310281952 METAR KATL 281952Z 00000KT 10SM FEW015 BKN043 OVC060 17/13 A3022 RMK AO2 RAB1855E39 SLP233 P0001 T01670128=
201310281852 METAR KATL 281852Z 00000KT 10SM FEW050 BKN060 OVC080 18/12 A3024 RMK AO2 RAE32 SLP237 BINOVC DSNT NE P0000 T01780122=
201310281752 METAR KATL 281752Z 00000KT 10SM -RA BKN048 BKN060 OVC080 18/12 A3026 RMK AO2 RAB26 SLP243 P0000 60002 T01780117 10178 20133 58005=
201310281652 METAR KATL 281652Z 00000KT 10SM BKN065 BKN080 OVC100 18/09 A3026 RMK AO2 SLP245 T01780094=
201310281552 METAR KATL 281552Z 00000KT 9SM FEW060 BKN070 BKN090 17/13 A3027 RMK AO2 SLP248 T01670128 $=
201310281452 METAR KATL 281452Z 00000KT 9SM BKN065 BKN080 OVC100 16/12 A3027 RMK AO2 RAE02 SLP248 P0000 60002 T01610117 53016=
201310281352 METAR KATL 281352Z 00000KT 8SM -RA FEW060 BKN075 BKN100 15/13 A3026 RMK AO2 RAB1253 SLP244 P0000 T01500133=
201310281252 METAR KATL 281252Z 00000KT 8SM BKN075 OVC095 14/13 A3023 RMK AO2 RAE15 SLP236 P0002 T01440128=
201310281152 METAR KATL 281152Z 00000KT 6SM -RA BR FEW055 BKN080 OVC110 13/12 A3022 RMK AO2 RAB04 SLP232 P0002 60002 70002 T01330122 10144 20133 53020=
201310281052 METAR KATL 281052Z 29004KT 10SM FEW070 BKN090 BKN110 OVC150 14/12 A3020 RMK AO2 SLP223 VIRGA OHD-ALQDS T01390122=
201310280952 METAR KATL 280952Z 32005KT 10SM SCT075 BKN110 OVC140 14/12 A3017 RMK AO2 SLP215 VIRGA OHD-W-N T01390122=
201310280852 METAR KATL 280852Z 31004KT 9SM BKN100 OVC150 13/13 A3016 RMK AO2 SLP210 T01330128 51005=
201310280752 METAR KATL 280752Z 00000KT 10SM BKN100 OVC150 14/13 A3015 RMK AO2 SLP208 T01390128=
201310280652 METAR KATL 280652Z 24003KT 10SM OVC100 14/13 A3015 RMK AO2 SLP206 T01440128=
201310280552 METAR KATL 280552Z 20003KT 10SM OVC100 14/13 A3014 RMK AO2 RAE22 SLP204 P0000 60000 T01440128 10172 20139 58008=
201310280452 METAR KATL 280452Z 00000KT 10SM -RA FEW065 BKN085 BKN110 OVC200 16/13 A3015 RMK AO2 RAB0356 SLP208 P0000 T01560128 402060061 $=
201310280352 METAR KATL 280352Z 00000KT 10SM SCT080 BKN110 BKN200 BKN250 16/12 A3017 RMK AO2 SLP212 VIRGA SE-SW-W T01560122=
201310280252 METAR KATL 280252Z 00000KT 10SM FEW075 BKN100 BKN200 BKN250 14/12 A3017 RMK AO2 SLP214 T01440122 53013=
201310280152 METAR KATL 280152Z 00000KT 10SM BKN110 BKN200 BKN250 15/12 A3015 RMK AO2 SLP208 T01500122=
201310280052 METAR KATL 280052Z 00000KT 10SM FEW080 SCT110 OVC200 16/12 A3014 RMK AO2 SLP205 T01610122=
201310272352 METAR KATL 272352Z 00000KT 10SM FEW040 SCT075 BKN110 OVC200 17/12 A3013 RMK AO2 SLP203 T01670117 10206 20167 53002=
201310272252 METAR KATL 272252Z 00000KT 10SM SCT040 BKN070 BKN110 OVC200 18/12 A3012 RMK AO2 SLP200 VIRGA DSNT W FU PLUME DSNT S T01830117=
201310272152 METAR KATL 272152Z COR 00000KT 10SM SCT034 BKN048 BKN110 BKN200 BKN250 18/12 A3012 RMK AO2 SLP199 T01830117=
201310272052 METAR KATL 272052Z 00000KT 10SM FEW032 SCT050 SCT110 BKN250 20/12 A3012 RMK AO2 SLP199 T02000117 55007=
201310271952 METAR KATL 271952Z 31007KT 10SM FEW050 SCT110 BKN250 19/11 A3012 RMK AO2 SLP198 T01940111=
201310271852 METAR KATL 271852Z 29007KT 10SM OVC050 18/11 A3013 RMK AO2 SLP201 T01830106=
201310271752 METAR KATL 271752Z 26007KT 10SM FEW026 OVC055 18/09 A3014 RMK AO2 SLP206 T01830094 10183 20067 58007=
201310271652 METAR KATL 271652Z 29006KT 10SM OVC055 18/09 A3017 RMK AO2 SLP214 T01780094=
201310271552 METAR KATL 271552Z 33003KT 10SM FEW044 SCT100 BKN250 18/07 A3016 RMK AO2 SLP214 T01780072=
201310271452 METAR KATL 271452Z 31004KT 10SM BKN032 15/05 A3017 RMK AO2 SLP215 T01500050 50010=
201310271352 METAR KATL 271352Z 00000KT 10SM BKN032 11/04 A3017 RMK AO2 SLP217 T01110044=
201310271252 METAR KATL 271252Z 00000KT 10SM BKN032 BKN043 BKN250 09/05 A3015 RMK AO2 SLP211 T00890050=
201310271152 METAR KATL 271152Z 00000KT 10SM FEW060 SCT250 07/03 A3013 RMK AO2 SLP206 T00670033 10083 20061 53008=
201310271052 METAR KATL 271052Z 00000KT 10SM FEW060 07/03 A3012 RMK AO2 SLP201 T00670033=
201310270952 METAR KATL 270952Z 30004KT 10SM FEW060 07/03 A3012 RMK AO2 SLP199 T00720028=
201310270852 METAR KATL 270852Z 26003KT 10SM FEW090 08/03 A3011 RMK AO2 SLP196 T00780028 56013=
201310270752 METAR KATL 270752Z 00000KT 10SM FEW090 08/03 A3012 RMK AO2 SLP200 T00780028=
201310270652 METAR KATL 270652Z 24004KT 10SM CLR 08/03 A3012 RMK AO2 SLP201 T00780028=
201310270552 METAR KATL 270552Z 26003KT 10SM CLR 08/03 A3015 RMK AO2 SLP210 T00780033 10122 20078 58010=
201310270452 METAR KATL 270452Z 27003KT 10SM FEW250 09/02 A3016 RMK AO2 SLP213 T00940022 401610017=
201310270352 METAR KATL 270352Z 28006KT 10SM FEW250 09/03 A3017 RMK AO2 SLP219 T00890028=
201310270252 METAR KATL 270252Z 28003KT 10SM FEW150 SCT200 SCT250 10/03 A3018 RMK AO2 SLP221 T01000028 53001=
201310270152 METAR KATL 270152Z 26004KT 10SM FEW150 SCT200 BKN250 10/03 A3018 RMK AO2 SLP223 T01000033=
201310270052 METAR KATL 270052Z 00000KT 10SM SCT150 BKN200 BKN250 11/03 A3017 RMK AO2 SLP220 T01060033=
201310262352 METAR KATL 262352Z 00000KT 10SM FEW150 SCT200 BKN250 12/02 A3018 RMK AO2 SLP222 VIRGA DSNT NE-SE T01220022 10161 20122 55011=
201310262252 METAR KATL 262252Z 00000KT 10SM SCT150 BKN200 BKN250 13/02 A3017 RMK AO2 SLP222 VIRGA OHD-ALQDS T01330017=
201310262152 METAR KATL 262152Z 21004KT 10SM SCT150 BKN200 BKN250 14/M01 A3018 RMK AO2 SLP222 VIRGA ALQDS T01441006=
201310262052 METAR KATL 262052Z 29008KT 10SM BKN200 15/00 A3021 RMK AO2 SLP232 T01500000 56014=
201310261952 METAR KATL 261952Z 27009KT 10SM FEW150 BKN250 16/00 A3022 RMK AO2 SLP233 T01560000=
201310261852 METAR KATL 261852Z 22007KT 10SM BKN250 14/00 A3022 RMK AO2 SLP234 T01440000=
201310261752 METAR KATL 261752Z 21007KT 180V250 10SM SCT250 14/01 A3025 RMK AO2 SLP246 T01390006 10144 20022 58023=
201310261652 METAR KATL 261652Z 18005KT 10SM FEW250 12/01 A3029 RMK AO2 SLP259 T01220011=
201310261552 METAR KATL 261552Z VRB04KT 10SM FEW250 11/01 A3032 RMK AO2 SLP271 T01060011=
201310261452 METAR KATL 261452Z 13003KT 10SM CLR 09/01 A3032 RMK AO2 SLP272 T00890006 50006=
201310261352 METAR KATL 261352Z 09005KT 10SM CLR 06/01 A3033 RMK AO2 SLP276 T00560006=
201310261252 METAR KATL 261252Z 09007KT 10SM CLR 03/00 A3032 RMK AO2 SLP272 T00330000=
201310261152 METAR KATL 261152Z 09006KT 10SM CLR 02/M01 A3030 RMK AO2 SLP266 T00221011 10056 20017 51005=
201310261052 METAR KATL 261052Z 08008KT 10SM CLR 02/M01 A3030 RMK AO2 SLP265 T00221011=
201310260952 METAR KATL 260952Z 08006KT 10SM CLR 03/M01 A3030 RMK AO2 SLP263 T00281006=
201310260852 METAR KATL 260852Z 08004KT 10SM CLR 03/M01 A3029 RMK AO2 SLP259 T00331011 56008=
201310260752 METAR KATL 260752Z 06004KT 10SM CLR 05/M01 A3029 RMK AO2 SLP258 T00501011=
201310260652 METAR KATL 260652Z 03003KT 10SM CLR 06/M02 A3030 RMK AO2 SLP261 T00561017=
201310260552 METAR KATL 260552Z 34003KT 10SM CLR 04/M02 A3031 RMK AO2 SLP268 T00441017 10083 20033 58008=
201310260452 METAR KATL 260452Z 31003KT 10SM CLR 04/M01 A3032 RMK AO2 SLP271 T00391011 401330028=
201310260352 METAR KATL 260352Z 34005KT 10SM CLR 05/M01 A3034 RMK AO2 SLP278 T00501011=
201310260252 METAR KATL 260252Z 33005KT 10SM CLR 06/M01 A3034 RMK AO2 SLP277 T00561011 53007=
201310260152 METAR KATL 260152Z 33005KT 10SM CLR 06/M02 A3033 RMK AO2 SLP274 T00611017=
201310260052 METAR KATL 260052Z 32006KT 10SM CLR 07/M01 A3032 RMK AO2 SLP274 T00721011=
201310252352 METAR KATL 252352Z 32007KT 10SM CLR 08/M02 A3032 RMK AO2 SLP271 T00831017 10133 20083 53003=
201310252252 METAR KATL 252252Z 31007KT 10SM CLR 10/M02 A3030 RMK AO2 SLP265 T01001022=
201310252152 METAR KATL 252152Z 32012KT 10SM CLR 12/M03 A3030 RMK AO2 SLP265 T01171028=
201310252052 METAR KATL 252052Z 35010G15KT 10SM CLR 13/M04 A3031 RMK AO2 SLP265 T01281039 56012=
201310251952 METAR KATL 251952Z 34010KT 10SM CLR 13/M04 A3031 RMK AO2 SLP264 T01331039=
201310251852 METAR KATL 251852Z 33011KT 10SM CLR 13/M04 A3032 RMK AO2 SLP268 T01281044=
201310251752 METAR KATL 251752Z 01009KT 10SM CLR 12/M05 A3034 RMK AO2 SLP275 T01221050 10122 20028 58010=
201310251652 METAR KATL 251652Z 35011KT 10SM CLR 11/M05 A3036 RMK AO2 SLP281 T01111050=
201310251552 METAR KATL 251552Z 34011KT 10SM CLR 10/M04 A3037 RMK AO2 SLP286 T01001044=
201310251452 METAR KATL 251452Z 34007KT 10SM CLR 08/M03 A3037 RMK AO2 SLP287 T00831033 51013=
201310251352 METAR KATL 251352Z 34010KT 10SM CLR 06/M03 A3037 RMK AO2 SLP287 T00561028=
201310251252 METAR KATL 251252Z 33010KT 10SM CLR 03/M03 A3035 RMK AO2 SLP281 T00331028=
201310251152 METAR KATL 251152Z 33008KT 10SM CLR 03/M03 A3033 RMK AO2 SLP275 T00281028 10089 20028 51023=
201310251052 METAR KATL 251052Z 34009KT 10SM CLR 04/M03 A3031 RMK AO2 SLP268 T00391033=
201310250952 METAR KATL 250952Z 33007KT 10SM CLR 04/M03 A3029 RMK AO2 SLP257 T00441028=
201310250852 METAR KATL 250852Z 33015KT 10SM CLR 06/M01 A3026 RMK AO2 SLP248 T00611006 51015=
201310250752 METAR KATL 250752Z 33015KT 10SM FEW050 07/01 A3025 RMK AO2 SLP244 T00720011=
201310250652 METAR KATL 250652Z 33012G20KT 10SM BKN048 09/04 A3024 RMK AO2 SLP239 T00890039=
201310250552 METAR KATL 250552Z 33010KT 10SM FEW050 09/04 A3022 RMK AO2 SLP233 T00890044 10139 20089 53009=
201310250452 METAR KATL 250452Z 33011KT 10SM FEW050 09/05 A3021 RMK AO2 SLP229 T00940050 401890039=
201310250352 METAR KATL 250352Z 33006KT 10SM FEW050 10/05 A3020 RMK AO2 SLP226 T01000050=
201310250252 METAR KATL 250252Z 33006KT 10SM CLR 11/05 A3019 RMK AO2 SLP225 T01110050 51011=
201310250152 METAR KATL 250152Z 32006KT 10SM FEW050 12/05 A3019 RMK AO2 SLP223 T01170050=
201310250052 METAR KATL 250052Z 30006KT 10SM FEW050 13/04 A3018 RMK AO2 SLP222 T01280044=
201310242352 METAR KATL 242352Z 30005KT 10SM FEW050 14/04 A3016 RMK AO2 SLP214 T01390044 10189 20139 53015=
201310242252 METAR KATL 242252Z 28005KT 10SM BKN050 15/04 A3014 RMK AO2 SLP208 T01500044=
201310242152 METAR KATL 242152Z 31006KT 10SM BKN055 17/04 A3012 RMK AO2 SLP201 T01720039=
201310242052 METAR KATL 242052Z 27006KT 10SM FEW065 18/04 A3011 RMK AO2 SLP198 T01830039 56014=
201310241952 METAR KATL 241952Z 31007KT 10SM FEW065 18/03 A3012 RMK AO2 SLP201 T01780033=
201310241852 METAR KATL 241852Z 30007KT 10SM FEW050 BKN065 BKN080 18/02 A3014 RMK AO2 SLP207 T01780022=
201310241752 METAR KATL 241752Z 31007KT 10SM FEW070 SCT080 17/02 A3016 RMK AO2 SLP213 T01670022 10172 20044 58014=
201310241652 METAR KATL 241652Z 34005KT 10SM BKN070 BKN080 16/02 A3019 RMK AO2 SLP223 T01560017=
201310241552 METAR KATL 241552Z VRB03KT 10SM FEW080 14/02 A3020 RMK AO2 SLP226 T01390022=
201310241452 METAR KATL 241452Z 01003KT 10SM FEW080 12/02 A3020 RMK AO2 SLP227 T01220022 51008=
201310241352 METAR KATL 241352Z 31003KT 10SM FEW080 09/02 A3020 RMK AO2 SLP227 T00940017=
201310241252 METAR KATL 241252Z 31006KT 10SM SCT080 07/02 A3019 RMK AO2 SLP227 T00670017=
201310241152 METAR KATL 241152Z 30004KT 10SM FEW100 04/01 A3017 RMK AO2 SLP222 T00440011 10056 20039 52012=
201310241052 METAR KATL 241052Z 32005KT 10SM CLR 04/01 A3016 RMK AO2 SLP217 T00440011=
201310240952 METAR KATL 240952Z 30003KT 10SM CLR 04/02 A3015 RMK AO2 SLP211 T00390017 $=
201310240852 METAR KATL 240852Z 29004KT 10SM CLR 04/02 A3014 RMK AO2 SLP206 T00440017 53009 $=
201310240752 METAR KATL 240752Z 28003KT 10SM CLR 05/02 A3013 RMK AO2 SLP203 T00500017 $=
201310240652 METAR KATL 240652Z 27004KT 10SM CLR 06/02 A3012 RMK AO2 SLP199 T00560017 $=
201310240552 METAR KATL 240552Z 00000KT 10SM CLR 06/02 A3011 RMK AO2 SLP197 T00560022 10111 20056 51008 $=
201310240452 METAR KATL 240452Z 28005KT 10SM CLR 07/02 A3010 RMK AO2 SLP194 T00670017 401720067 $=
201310240352 METAR KATL 240352Z 31005KT 10SM CLR 07/02 A3010 RMK AO2 SLP194 T00720022 $=
201310240252 METAR KATL 240252Z VRB04KT 10SM CLR 09/02 A3009 RMK AO2 SLP189 T00890017 51018=
201310240152 METAR KATL 240152Z 32005KT 10SM CLR 09/02 A3007 RMK AO2 SLP183 T00890017=
201310240052 METAR KATL 240052Z 33007KT 10SM CLR 10/02 A3006 RMK AO2 SLP179 T01000017=
201310232352 METAR KATL 232352Z 32008KT 10SM CLR 11/02 A3003 RMK AO2 SLP170 T01110017 10172 20111 53018=
201310232252 METAR KATL 232252Z 31011KT 10SM CLR 13/01 A3001 RMK AO2 SLP161 T01280011=
201310232152 METAR KATL 232152Z 31014KT 10SM CLR 15/01 A2999 RMK AO2 SLP154 T01500006=
201310232052 METAR KATL 232052Z 31014G20KT 10SM CLR 16/01 A2998 RMK AO2 PK WND 33026/2011 SLP150 T01610011 53006=
201310231952 METAR KATL 231952Z 32019G22KT 10SM CLR 17/02 A2997 RMK AO2 SLP145 T01670022=
201310231852 METAR KATL 231852Z 32016G23KT 10SM FEW050 17/02 A2996 RMK AO2 PK WND 32026/1820 SLP142 T01670022=
201310231752 METAR KATL 231752Z 31016G25KT 10SM FEW050 17/03 A2996 RMK AO2 SLP142 T01670033 10167 20094 50005=
201310231652 METAR KATL 231652Z 32018G26KT 10SM FEW040 16/04 A2996 RMK AO2 PK WND 30027/1635 SLP144 T01610044=
201310231552 METAR KATL 231552Z 31015G24KT 10SM FEW040 16/05 A2996 RMK AO2 PK WND 30030/1505 SLP143 T01560050=
201310231452 METAR KATL 231452Z 31019G25KT 10SM FEW030 14/06 A2994 RMK AO2 SLP137 T01390056 51017=
201310231352 METAR KATL 231352Z 30011KT 10SM FEW015 13/08 A2993 RMK AO2 SLP131 T01280078=
201310231252 METAR KATL 231252Z 29009KT 10SM CLR 11/08 A2991 RMK AO2 SLP127 T01060078=
201310231152 METAR KATL 231152Z 28007KT 10SM CLR 09/08 A2989 RMK AO2 SLP120 T00940078 10122 20094 53008=
201310231052 METAR KATL 231052Z 27006KT 10SM CLR 10/08 A2988 RMK AO2 SLP115 T01000083=
201310230952 METAR KATL 230952Z 27006KT 10SM CLR 11/09 A2987 RMK AO2 SLP111 T01060089 $=
201310230852 METAR KATL 230852Z 28005KT 10SM CLR 11/09 A2987 RMK AO2 SLP110 T01060089 58004 $=
201310230752 METAR KATL 230752Z 29008KT 10SM CLR 12/10 A2987 RMK AO2 SLP112 T01170100 $=
201310230652 METAR KATL 230652Z 28006KT 10SM CLR 12/10 A2988 RMK AO2 SLP114 T01170100 $=
201310230552 METAR KATL 230552Z 29006KT 10SM CLR 12/10 A2988 RMK AO2 SLP114 T01220100 10172 20122 56005 $=
201310230452 METAR KATL 230452Z 31007KT 10SM FEW070 13/10 A2988 RMK AO2 SLP116 T01330100 402060133 $=
201310230352 METAR KATL 230352Z 30006KT 10SM FEW070 14/10 A2989 RMK AO2 SLP118 T01390100 $=
201310230252 METAR KATL 230252Z 31005KT 10SM FEW070 14/11 A2989 RMK AO2 SLP120 T01440106 53006 $=
201310230152 METAR KATL 230152Z 31005KT 10SM FEW070 16/11 A2989 RMK AO2 SLP117 T01560111 $=
201310230052 METAR KATL 230052Z 26004KT 10SM FEW250 16/12 A2987 RMK AO2 SLP112 T01560122 $=
201310222352 METAR KATL 222352Z 00000KT 10SM FEW120 SCT250 17/13 A2988 RMK AO2 SLP113 T01720128 10206 20167 56003 $=
201310222252 METAR KATL 222252Z 22003KT 10SM FEW110 SCT250 18/13 A2988 RMK AO2 SLP112 T01830128 $=
201310222152 METAR KATL 222152Z 22006KT 10SM FEW090 SCT110 21/12 A2988 RMK AO2 SLP112 T02060117 $=
201310222052 METAR KATL 222052Z 22005KT 10SM FEW090 BKN110 21/12 A2988 RMK AO2 SLP114 T02060117 56017=
201310221952 METAR KATL 221952Z VRB03KT 10SM FEW065 SCT090 BKN110 21/12 A2989 RMK AO2 SLP116 T02060117=
201310221852 METAR KATL 221852Z 22004KT 10SM FEW065 BKN090 BKN120 20/11 A2991 RMK AO2 SLP122 T02000111=
201310221752 METAR KATL 221752Z 26004KT 10SM FEW025 BKN090 BKN110 19/12 A2993 RMK AO2 SLP131 60000 T01940122 10194 20156 58018=
201310221652 METAR KATL 221652Z 23003KT 10SM FEW025 BKN080 BKN100 18/12 A2996 RMK AO2 SLP142 T01780117=
201310221552 METAR KATL 221552Z 00000KT 10SM FEW020 BKN080 BKN100 17/13 A2998 RMK AO2 SLP147 T01720128=
201310221452 METAR KATL 221452Z 00000KT 10SM BKN080 BKN100 BKN120 17/13 A2999 RMK AO2 SLP152 60000 T01670128 58002=
201310221352 METAR KATL 221352Z 32004KT 10SM BKN080 BKN100 OVC120 17/13 A3000 RMK AO2 SLP154 T01670133=
201310221252 METAR KATL 221252Z 32003KT 9SM BKN075 OVC095 16/14 A2999 RMK AO2 RAE1156 SLP153 P0000 T01610139=
201310221152 METAR KATL 221152Z 00000KT 9SM -RA FEW080 OVC095 16/14 A3000 RMK AO2 RAB01 SLP153 P0001 60001 70001 T01610139 10172 20156 58004=
201310221106 SPECI KATL 221106Z 00000KT 9SM -RA SCT026 SCT055 OVC095 16/13 A3001 RMK AO2 RAB01 P0000=
201310221052 METAR KATL 221052Z 00000KT 10SM BKN024 OVC095 16/13 A3001 RMK AO2 SLP159 T01560133=
201310221017 SPECI KATL 221017Z 32003KT 10SM BKN024 OVC100 16/13 A3000 RMK AO2 $=
201310220952 METAR KATL 220952Z 32005KT 10SM FEW025 OVC120 16/13 A3001 RMK AO2 SLP157 VIRGA N-E T01610133 $=
201310220919 SPECI KATL 220919Z 00000KT 10SM SCT025 OVC100 16/13 A3001 RMK AO2 $=
201310220858 SPECI KATL 220858Z 00000KT 10SM BKN025 OVC090 16/13 A3001 RMK AO2 $=
201310220852 METAR KATL 220852Z 00000KT 10SM SCT025 OVC085 16/13 A3001 RMK AO2 SLP156 VIRGA N-E T01610128 58002 $=
201310220752 METAR KATL 220752Z 34003KT 10SM SCT027 OVC100 16/13 A3001 RMK AO2 SLP158 T01610128 $=
201310220652 METAR KATL 220652Z 02003KT 10SM BKN025 OVC100 17/12 A3002 RMK AO2 SLP159 T01720122=
201310220647 SPECI KATL 220647Z 03003KT 10SM BKN025 OVC100 17/13 A3001 RMK AO2=
201310220552 METAR KATL 220552Z 00000KT 10SM SCT026 SCT034 BKN100 OVC150 17/13 A3003 RMK AO2 SLP164 T01670133 10178 20161 58002=
201310220452 METAR KATL 220452Z 00000KT 10SM FEW100 BKN120 OVC150 16/13 A3004 RMK AO2 SLP168 VIRGA S-W-N T01610133 402220089=
201310220352 METAR KATL 220352Z 00000KT 10SM FEW110 BKN140 OVC200 17/13 A3004 RMK AO2 SLP168 T01670133=
201310220252 METAR KATL 220252Z 19003KT 10SM FEW110 BKN150 OVC200 17/13 A3004 RMK AO2 SLP169 T01670133 51004=
201310220152 METAR KATL 220152Z 00000KT 10SM FEW110 BKN200 OVC250 17/13 A3003 RMK AO2 SLP168 T01670133=
201310220052 METAR KATL 220052Z 00000KT 10SM SCT120 BKN200 OVC250 17/13 A3003 RMK AO2 SLP167 T01720128=
201310212352 METAR KATL 212352Z 15003KT 10SM FEW120 BKN200 OVC250 18/13 A3003 RMK AO2 SLP165 T01780128 10222 20178 58004=
201310212252 METAR KATL 212252Z 00000KT 10SM FEW120 BKN200 OVC250 19/13 A3004 RMK AO2 SLP169 T01890128=
201310212152 METAR KATL 212152Z 18005KT 10SM BKN200 OVC250 19/12 A3003 RMK AO2 SLP167 T01940122=
201310212052 METAR KATL 212052Z 19007KT 10SM FEW040 BKN200 OVC250 20/11 A3004 RMK AO2 SLP169 T02000111 56012=
201310211952 METAR KATL 211952Z 24007KT 10SM FEW045 SCT180 BKN250 21/11 A3004 RMK AO2 SLP171 T02110106=
201310211852 METAR KATL 211852Z VRB05KT 10SM FEW040 BKN180 BKN250 21/11 A3005 RMK AO2 SLP174 T02060106=
201310211752 METAR KATL 211752Z 19004KT 10SM FEW038 BKN200 BKN250 21/12 A3008 RMK AO2 SLP181 T02060117 10211 20106 58018=
201310211652 METAR KATL 211652Z 00000KT 10SM FEW030 SCT040 SCT250 20/12 A3010 RMK AO2 SLP191 T02000117=
201310211552 METAR KATL 211552Z 14003KT 10SM SCT040 SCT250 17/11 A3012 RMK AO2 SLP198 T01720111=
201310211452 METAR KATL 211452Z VRB03KT 10SM FEW040 SCT200 SCT250 15/11 A3013 RMK AO2 SLP200 T01500106 50012=
201310211352 METAR KATL 211352Z 09005KT 10SM FEW040 SCT200 BKN250 13/09 A3013 RMK AO2 SLP202 T01280094=
201310211252 METAR KATL 211252Z 07006KT 10SM SCT038 BKN250 11/08 A3011 RMK AO2 SLP195 T01110083=
201310211152 METAR KATL 211152Z 06006KT 10SM SCT250 11/07 A3009 RMK AO2 SLP190 T01060072 10122 20089 53007=
201310211052 METAR KATL 211052Z 07004KT 10SM SCT250 10/07 A3009 RMK AO2 SLP187 T01000067=
201310210952 METAR KATL 210952Z 07006KT 10SM FEW250 11/05 A3008 RMK AO2 SLP183 T01060050=
201310210852 METAR KATL 210852Z 06003KT 10SM FEW250 12/05 A3007 RMK AO2 SLP179 T01170050 53004=
201310210752 METAR KATL 210752Z 00000KT 10SM CLR 10/05 A3006 RMK AO2 SLP178 T01000050=
201310210652 METAR KATL 210652Z 00000KT 10SM CLR 12/05 A3006 RMK AO2 SLP176 T01170050=
201310210552 METAR KATL 210552Z 08003KT 10SM CLR 12/05 A3006 RMK AO2 SLP176 T01170050 10167 20106 56002=
201310210452 METAR KATL 210452Z 06005KT 10SM CLR 13/04 A3006 RMK AO2 SLP177 T01280044 402110072=
201310210352 METAR KATL 210352Z 00000KT 10SM FEW200 13/05 A3006 RMK AO2 SLP177 T01280050=
201310210252 METAR KATL 210252Z 03004KT 10SM CLR 15/04 A3006 RMK AO2 SLP179 T01500039 51010=
201310210152 METAR KATL 210152Z 01005KT 10SM FEW250 16/04 A3006 RMK AO2 SLP177 T01560039=
201310210052 METAR KATL 210052Z 33004KT 10SM FEW250 16/04 A3005 RMK AO2 SLP176 T01610039=
201310202352 METAR KATL 202352Z 29003KT 10SM FEW200 SCT250 14/07 A3003 RMK AO2 SLP171 T01440067 10211 20144 53007=
201310202252 METAR KATL 202252Z 32004KT 10SM FEW200 SCT250 18/03 A3002 RMK AO2 SLP166 T01780033=
201310202152 METAR KATL 202152Z 32005KT 10SM FEW200 SCT250 20/03 A3002 RMK AO2 SLP162 T02000028=
201310202052 METAR KATL 202052Z 33004KT 10SM FEW250 21/03 A3001 RMK AO2 SLP160 T02060028 56010=
201310201952 METAR KATL 201952Z 26005KT 10SM FEW250 21/03 A3001 RMK AO2 SLP161 T02060033=
201310201852 METAR KATL 201852Z 27005KT 10SM FEW250 20/01 A3002 RMK AO2 SLP164 T02000011=
201310201752 METAR KATL 201752Z 00000KT 10SM FEW250 19/02 A3004 RMK AO2 SLP171 T01890017 10189 20072 58008=
201310201652 METAR KATL 201652Z VRB03KT 10SM FEW250 18/04 A3006 RMK AO2 SLP176 T01780039=
201310201552 METAR KATL 201552Z VRB05KT 10SM FEW250 16/04 A3007 RMK AO2 SLP182 T01560039=
201310201452 METAR KATL 201452Z 32003KT 10SM FEW250 13/07 A3007 RMK AO2 SLP180 T01280067 51013=
201310201352 METAR KATL 201352Z 32003KT 10SM FEW250 10/07 A3006 RMK AO2 SLP180 T01000072=
201310201252 METAR KATL 201252Z 32009KT 10SM FEW004 SCT250 08/06 A3004 RMK AO2 SLP173 T00830061=
201310201250 SPECI KATL 201250Z 32009KT 10SM FEW004 SCT250 08/06 A3004 RMK AO2=
201310201152 METAR KATL 201152Z 32008KT 10SM BCFG SCT250 07/06 A3003 RMK AO2 SLP169 70003 T00720061 10122 20072 51007=
201310201052 METAR KATL 201052Z 31005KT 10SM SCT250 08/07 A3003 RMK AO2 SLP169 T00780067=
201310200952 METAR KATL 200952Z 31007KT 10SM SCT250 09/07 A3002 RMK AO2 SLP164 T00890072=
201310200852 METAR KATL 200852Z COR 31006KT 10SM FEW250 09/08 A3001 RMK AO2 SLP160 T00940083 51002=
201310200752 METAR KATL 200752Z 32009KT 10SM CLR 11/09 A3000 RMK AO2 SLP159 T01060089=
201310200652 METAR KATL 200652Z 33008KT 10SM FEW250 11/09 A3001 RMK AO2 SLP160 T01110094=
201310200552 METAR KATL 200552Z 33010KT 10SM FEW250 12/10 A3000 RMK AO2 SLP158 T01220100 10150 20122 51008=
201310200452 METAR KATL 200452Z 32007KT 10SM FEW075 SCT250 13/11 A3000 RMK AO2 SLP157 T01280111 401720128=
201310200352 METAR KATL 200352Z 30007KT 10SM FEW026 SCT180 SCT250 14/12 A2999 RMK AO2 SLP153 T01390122=
201310200252 METAR KATL 200252Z 27003KT 10SM BKN180 BKN250 14/13 A2998 RMK AO2 SLP148 T01390128 53004=
201310200152 METAR KATL 200152Z 00000KT 10SM BKN180 BKN250 14/13 A2997 RMK AO2 SLP147 T01390128=
201310200052 METAR KATL 200052Z 22003KT 10SM FEW100 BKN200 14/13 A2997 RMK AO2 SLP146 T01390128=
201310192352 METAR KATL 192352Z 00000KT 10SM FEW085 BKN180 15/13 A2996 RMK AO2 SLP144 60000 T01500133 10172 20150 51003=
201310192252 METAR KATL 192252Z 00000KT 10SM FEW016 SCT085 BKN180 16/13 A2996 RMK AO2 SLP143 T01560133=
201310192152 METAR KATL 192152Z 27004KT 10SM FEW014 SCT085 BKN180 16/13 A2996 RMK AO2 SLP142 VIRGA DSNT SE-SW T01610133=
201310192052 METAR KATL 192052Z 31008KT 10SM SCT012 BKN090 OVC180 17/14 A2996 RMK AO2 SLP141 60000 T01670139 55010=
201310191952 METAR KATL 191952Z 29007KT 10SM FEW030 SCT090 OVC150 16/13 A2995 RMK AO2 RAE19 SLP138 P0000 T01610128=
201310191852 METAR KATL 191852Z 28008KT 7SM -RA FEW020 BKN080 OVC100 16/13 A2996 RMK AO2 SLP143 P0000 T01560133=
201310191752 METAR KATL 191752Z 28007KT 10SM -RA FEW025 SCT075 OVC100 16/13 A2999 RMK AO2 RAE12B35 SLP152 P0001 60003 T01560128 10161 20133 51002=
201310191652 METAR KATL 191652Z 26007KT 7SM -RA SCT050 BKN075 OVC090 15/11 A2998 RMK AO2 RAB1553 SLP151 P0000 T01500111=
201310191552 METAR KATL 191552Z 26007KT 10SM SCT060 OVC100 16/12 A2999 RMK AO2 RAB40E51 SLP153 P0000 T01610117=
201310191452 METAR KATL 191452Z 29005KT 10SM FEW050 BKN080 OVC110 15/12 A2998 RMK AO2 SLP150 60002 T01500122 51002=
201310191352 METAR KATL 191352Z 00000KT 10SM FEW050 SCT080 BKN110 14/13 A2998 RMK AO2 RAE43 SLP149 P0000 T01390128=
201310191252 METAR KATL 191252Z 00000KT 9SM -RA FEW050 BKN095 OVC120 13/13 A2998 RMK AO2 SLP149 P0002 T01330128=
201310191152 METAR KATL 191152Z 23004KT 10SM -RA BKN080 BKN110 OVC150 14/12 A2997 RMK AO2 RAB51 SLP146 P0000 60000 T01390122 10156 20133 53004=
201310191052 METAR KATL 191052Z 00000KT 10SM FEW080 SCT110 OVC150 14/13 A2995 RMK AO2 RAE33 SLP138 P0000 T01390128=
201310190952 METAR KATL 190952Z 31005KT 10SM -RA FEW080 OVC110 14/12 A2996 RMK AO2 SLP142 P0000 T01390117=
201310190852 METAR KATL 190852Z 00000KT 10SM -RA OVC110 14/12 A2996 RMK AO2 RAE0758B24 SLP141 P0000 60000 T01440117 55008=
201310190752 METAR KATL 190752Z 32003KT 10SM -RA OVC110 14/12 A2996 RMK AO2 RAB0658 SLP139 P0000 T01440117=
201310190652 METAR KATL 190652Z 31006KT 10SM FEW090 BKN110 OVC150 14/12 A2998 RMK AO2 RAB24E48 SLP147 VIRGA OHD-ALQDS P0000 T01440122=
201310190552 METAR KATL 190552Z 31005KT 10SM BKN120 OVC150 15/11 A2999 RMK AO2 SLP150 VIRGA OHD-ALQDS T01500111 10178 20150 55003=
201310190452 METAR KATL 190452Z 31004KT 10SM BKN110 OVC150 15/12 A2998 RMK AO2 SLP147 VIRGA OHD-ALQDS T01500117 402280117=
201310190352 METAR KATL 190352Z 31005KT 10SM SCT150 BKN200 BKN250 15/12 A2999 RMK AO2 SLP152 T01500117=
201310190252 METAR KATL 190252Z 33007KT 10SM SCT150 BKN180 OVC250 16/12 A2999 RMK AO2 SLP154 T01560117 53008=
201310190152 METAR KATL 190152Z 34004KT 10SM FEW150 BKN180 OVC250 17/10 A2997 RMK AO2 SLP146 T01720100=
201310190052 METAR KATL 190052Z 32004KT 10SM FEW150 BKN200 OVC250 17/12 A2998 RMK AO2 SLP149 T01720117=
201310182352 METAR KATL 182352Z 33003KT 10SM FEW150 BKN200 BKN250 18/11 A2997 RMK AO2 SLP145 T01780111 10228 20172 53004=
201310182252 METAR KATL 182252Z 31004KT 10SM SCT150 BKN200 BKN250 19/11 A2996 RMK AO2 SLP143 T01890106=
201310182152 METAR KATL 182152Z 31006KT 10SM FEW150 BKN200 BKN250 20/11 A2996 RMK AO2 SLP141 T02000106=
201310182052 METAR KATL 182052Z 27004KT 10SM SCT150 BKN250 22/09 A2996 RMK AO2 SLP139 T02170089 56013=
201310181952 METAR KATL 181952Z 35004KT 10SM SCT180 BKN240 22/10 A2996 RMK AO2 SLP142 T02220100=
201310181852 METAR KATL 181852Z 26006KT 10SM SCT180 SCT220 21/10 A2998 RMK AO2 SLP147 T02110100=
201310181752 METAR KATL 181752Z 30007KT 10SM FEW180 SCT220 20/09 A2999 RMK AO2 SLP152 T02000094 10206 20117 58015=
201310181652 METAR KATL 181652Z 34006KT 10SM FEW150 SCT200 SCT250 19/11 A3001 RMK AO2 SLP159 T01890106=
201310181552 METAR KATL 181552Z VRB04KT 10SM FEW020 SCT200 SCT250 18/11 A3004 RMK AO2 SLP167 T01780111=
201310181452 METAR KATL 181452Z 33006KT 10SM FEW015 SCT200 BKN250 16/12 A3004 RMK AO2 SLP168 T01560117 51014=
201310181352 METAR KATL 181352Z 30006KT 10SM FEW010 SCT200 SCT250 14/11 A3003 RMK AO2 SLP166 T01390111=
201310181252 METAR KATL 181252Z COR 30008KT 10SM FEW014 FEW150 FEW200 SCT250 12/11 A3002 RMK AO2 SLP161 T01220106=
201310181152 METAR KATL 181152Z 31009KT 10SM FEW014 SCT150 SCT200 BKN250 12/10 A2999 RMK AO2 SLP154 70019 T01170100 10156 20117 52011=
201310181052 METAR KATL 181052Z 31005KT 10SM SCT150 SCT200 SCT250 12/11 A2998 RMK AO2 SLP150 T01220106=
201310180952 METAR KATL 180952Z 31006KT 10SM FEW015 SCT150 SCT250 13/11 A2997 RMK AO2 SLP146 T01280111=
201310180937 SPECI KATL 180937Z 30007KT 10SM SCT015 SCT150 SCT250 13/12 A2997 RMK AO2=
201310180926 SPECI KATL 180926Z 30004KT 10SM BKN015 BKN150 BKN250 13/12 A2997 RMK AO2=
201310180852 METAR KATL 180852Z 30003KT 10SM FEW012 SCT150 BKN250 13/11 A2996 RMK AO2 SLP142 T01280111 50002=
201310180752 METAR KATL 180752Z 31005KT 10SM FEW150 SCT250 13/12 A2997 RMK AO2 SLP144 T01330117=
201310180652 METAR KATL 180652Z 31005KT 10SM FEW009 SCT150 BKN250 14/13 A2996 RMK AO2 SLP142 T01390128=
201310180614 SPECI KATL 180614Z 33008KT 10SM FEW007 SCT012 SCT150 BKN250 15/13 A2996 RMK AO2=
201310180552 METAR KATL 180552Z 32007KT 10SM BKN008 BKN040 BKN150 BKN250 16/13 A2995 RMK AO2 SLP138 CIG 006V010 T01560133 10200 20156 58004=
201310180541 SPECI KATL 180541Z 34010KT 10SM OVC008 16/14 A2995 RMK AO2 CIG 006V010=
201310180510 SPECI KATL 180510Z 33008KT 10SM BKN010 BKN040 BKN250 16/15 A2996 RMK AO2=
201310180452 METAR KATL 180452Z 32005KT 10SM FEW010 SCT040 SCT250 16/14 A2996 RMK AO2 SLP141 T01560144 402220156=
201310180352 METAR KATL 180352Z 32005KT 10SM FEW010 SCT035 BKN250 17/15 A2996 RMK AO2 SLP140 T01670150 $=
201310180252 METAR KATL 180252Z 32007KT 10SM SCT015 BKN045 17/16 A2997 RMK AO2 SLP142 SCT015 V BKN T01720161 52011=
201310180152 METAR KATL 180152Z 31008KT 10SM SCT010 BKN045 BKN080 18/17 A2996 RMK AO2 SLP138 T01830167=
201310180052 METAR KATL 180052Z 32007KT 10SM FEW008 SCT035 BKN110 19/18 A2994 RMK AO2 SLP134 T01940178=
201310172352 METAR KATL 172352Z 30004KT 10SM FEW008 OVC035 20/18 A2993 RMK AO2 SLP130 60014 T02000183 10217 20200 53006=
201310172322 SPECI KATL 172322Z 32004KT 10SM FEW005 BKN030 20/18 A2993 RMK AO2=
201310172252 METAR KATL 172252Z 31008KT 10SM FEW005 BKN022 20/18 A2992 RMK AO2 RAE51 SLP127 P0004 T02000183=
201310172240 SPECI KATL 172240Z 32009G16KT 6SM -RA BR FEW005 SCT012 OVC025 20/19 A2992 RMK AO2 VIS LWR SE-S P0003=
201310172226 SPECI KATL 172226Z 26004KT 4SM -RA BR SCT006 BKN012 OVC040 21/20 A2992 RMK AO2 P0000=
201310172152 METAR KATL 172152Z 26004KT 4SM -RA BR SCT006 BKN015 OVC030 21/19 A2991 RMK AO2 DZB15E26RAB26 SLP123 P0003 T02060194=
201310172150 SPECI KATL 172150Z 25004KT 3SM -RA BR BKN006 BKN015 OVC030 21/19 A2991 RMK AO2 DZB15E26RAB26 P0003=
201310172134 SPECI KATL 172134Z 24003KT 1 1/2SM R09R/6000VP6000FT -RA BR BKN007 OVC030 20/19 A2991 RMK AO2 DZB15E26RAB26 CIG 005V009 P0001=
201310172126 SPECI KATL 172126Z 22004KT 2 1/2SM -RA BR BKN007 OVC030 21/19 A2991 RMK AO2 DZB15E26RAB26 CIG 005V009 P0000=
201310172052 METAR KATL 172052Z 22006KT 8SM BKN008 BKN015 OVC030 21/19 A2991 RMK AO2 SLP121 60007 T02060189 58006=
201310172033 SPECI KATL 172033Z 21006KT 9SM BKN010 BKN015 OVC030 21/19 A2991 RMK AO2=
201310171952 METAR KATL 171952Z 20011G15KT 8SM SCT007 BKN015 OVC030 21/19 A2991 RMK AO2 RAE51 SLP123 P0001 T02060194=
201310171904 SPECI KATL 171904Z 22010G20KT 6SM -RA BR FEW007 BKN020 OVC030 21/19 A2992 RMK AO2 P0001=
201310171900 SPECI KATL 171900Z 24008G20KT 3SM -RA BR SCT009 BKN015 OVC030 21/19 A2992 RMK AO2 SFC VIS 4 P0001=
201310171855 SPECI KATL 171855Z 23011G17KT 2SM -RA BR FEW007 BKN013 OVC023 21/19 A2992 RMK AO2 TWR VIS 3 P0001=
201310171852 METAR KATL 171852Z 23011G17KT 3SM -RA BR SCT010 BKN015 OVC030 21/20 A2992 RMK AO2 SFC VIS 4 SLP126 P0006 T02110200=
201310171847 SPECI KATL 171847Z 24006KT 3SM -RA BR SCT010 BKN015 OVC030 21/20 A2993 RMK AO2 SFC VIS 4 P0005=
201310171823 SPECI KATL 171823Z 26004KT 2SM RA BR BKN018 BKN025 OVC050 21/19 A2993 RMK AO2 SFC VIS 3 P0002=
201310171815 SPECI KATL 171815Z 26003KT 3SM -RA BR BKN018 BKN025 OVC050 22/19 A2993 RMK AO2 SFC VIS 4 P0000=
201310171752 METAR KATL 171752Z 26007KT 9SM -RA BKN015 BKN040 OVC060 22/19 A2994 RMK AO2 SLP131 P0001 60005 T02170194 10222 20178 58014=
201310171652 METAR KATL 171652Z 23006KT 8SM -RA FEW006 SCT012 OVC050 21/19 A2996 RMK AO2 DZE50RAB50 SLP140 P0000 T02110194=
201310171552 METAR KATL 171552Z 20004KT 5SM -DZ BR BKN006 BKN015 OVC050 20/19 A2997 RMK AO2 RAE21DZB49 SLP143 P0000 T02000189=
201310171452 METAR KATL 171452Z 22007KT 6SM -RA BR BKN008 BKN015 OVC050 19/18 A2998 RMK AO2 SLP146 P0000 60004 T01940183 51007=
201310171450 SPECI KATL 171450Z 22005KT 6SM -RA BR BKN008 BKN015 OVC050 19/18 A2998 RMK AO2 P0000=
201310171352 METAR KATL 171352Z 22005KT 5SM -RA BR BKN014 BKN060 OVC100 19/17 A2997 RMK AO2 RAE13B34 SLP144 P0001 T01890172=
201310171252 METAR KATL 171252Z 20005KT 7SM -RA FEW036 BKN060 BKN110 OVC200 18/17 A2996 RMK AO2 RAB25 SLP138 P0003 T01830167=
201310171152 METAR KATL 171152Z 17003KT 10SM SCT040 BKN060 OVC095 18/16 A2995 RMK AO2 RAE07 SLP136 P0000 60001 70001 T01830161 10194 20183 58000=
201310171052 METAR KATL 171052Z 19003KT 7SM -RA FEW038 BKN065 OVC100 18/16 A2996 RMK AO2 RAE28B49 SLP137 P0001 T01830161=
201310170952 METAR KATL 170952Z 00000KT 9SM -RA SCT038 OVC060 19/16 A2995 RMK AO2 RAB46 SLP137 PCPN VRY LGT P0000 T01890156 $=
201310170852 METAR KATL 170852Z 19003KT 10SM BKN044 OVC075 19/16 A2995 RMK AO2 RAE0757 SLP136 P0000 60000 T01890156 55005 $=
201310170752 METAR KATL 170752Z 18003KT 10SM -RA BKN050 OVC085 19/16 A2995 RMK AO2 RAB46 SLP135 PCPN VRY LGT P0000 T01890156 $=
201310170652 METAR KATL 170652Z 00000KT 10SM BKN060 OVC095 19/15 A2996 RMK AO2 SLP139 T01940150 $=
201310170552 METAR KATL 170552Z 15005KT 10SM BKN065 OVC110 19/15 A2997 RMK AO2 SLP141 T01940150 10217 20194 56013 $=
201310170452 METAR KATL 170452Z 14003KT 10SM BKN065 BKN110 OVC150 20/16 A2997 RMK AO2 SLP142 T02000156 402330144 $=
201310170352 METAR KATL 170352Z 00000KT 10SM FEW065 SCT110 OVC150 20/16 A2999 RMK AO2 SLP149 T02000161 $=
201310170252 METAR KATL 170252Z 14003KT 10SM SCT065 BKN110 OVC150 20/16 A3001 RMK AO2 SLP156 T02000161 51004 $=
201310170152 METAR KATL 170152Z 13003KT 10SM FEW070 BKN120 OVC150 21/16 A3001 RMK AO2 SLP155 T02060156 $=
201310170052 METAR KATL 170052Z 00000KT 10SM SCT070 BKN120 BKN150 BKN250 21/16 A3000 RMK AO2 SLP154 T02060156 $=
201310162352 METAR KATL 162352Z 00000KT 10SM BKN075 BKN150 BKN250 21/15 A3000 RMK AO2 SLP153 T02110150 10233 20211 53003 $=
201310162252 METAR KATL 162252Z 00000KT 10SM FEW080 BKN150 BKN250 22/14 A2999 RMK AO2 SLP149 T02170144=
201310162152 METAR KATL 162152Z 29003KT 10SM FEW035 BKN150 BKN250 22/15 A2999 RMK AO2 SLP149 T02220150=
201310162052 METAR KATL 162052Z 23004KT 10SM FEW035 BKN040 BKN110 BKN250 23/14 A2999 RMK AO2 SLP149 T02280144 56013=
201310161952 METAR KATL 161952Z 00000KT 10SM FEW040 SCT110 BKN150 BKN250 23/13 A2999 RMK AO2 SLP149 T02280133=
201310161852 METAR KATL 161852Z VRB04KT 10SM BKN040 BKN110 BKN250 23/14 A3000 RMK AO2 SLP153 T02280139=
201310161752 METAR KATL 161752Z 19004KT 10SM BKN036 BKN110 BKN250 23/13 A3003 RMK AO2 SLP162 T02280133 10233 20156 58015=
201310161652 METAR KATL 161652Z 19005KT 10SM BKN035 BKN110 BKN250 22/13 A3005 RMK AO2 SLP171 T02220133=
201310161552 METAR KATL 161552Z 19005KT 10SM FEW040 SCT110 BKN250 22/14 A3007 RMK AO2 SLP176 T02170139=
201310161452 METAR KATL 161452Z 00000KT 10SM FEW025 BKN040 BKN250 20/14 A3007 RMK AO2 SLP179 T02000139 50008=
201310161352 METAR KATL 161352Z 09004KT 10SM BKN040 BKN150 BKN250 18/14 A3008 RMK AO2 SLP182 T01830144=
201310161252 METAR KATL 161252Z 10005KT 10SM FEW035 SCT250 17/14 A3006 RMK AO2 SLP175 T01720139=
201310161152 METAR KATL 161152Z 10005KT 10SM SCT035 SCT250 16/13 A3005 RMK AO2 SLP172 T01560133 10161 20144 53005=
201310161052 METAR KATL 161052Z 09005KT 10SM BKN032 16/14 A3004 RMK AO2 SLP167 T01560139=
201310161028 SPECI KATL 161028Z 08004KT 10SM OVC030 16/14 A3004 RMK AO2=
201310161000 SPECI KATL 161000Z 07003KT 10SM BKN028 BKN250 15/13 A3004 RMK AO2 $=
201310160952 METAR KATL 160952Z 00000KT 10SM FEW028 SCT050 SCT150 BKN250 15/13 A3003 RMK AO2 SLP165 T01500133 $=
201310160852 METAR KATL 160852Z 08003KT 10SM FEW030 SCT250 15/13 A3004 RMK AO2 SLP167 T01500133 56009 $=
201310160752 METAR KATL 160752Z 11003KT 10SM FEW050 SCT250 16/14 A3004 RMK AO2 SLP169 T01560139 $=
201310160652 METAR KATL 160652Z 08004KT 10SM FEW150 SCT250 16/14 A3005 RMK AO2 SLP173 T01560139 $=
201310160552 METAR KATL 160552Z 10004KT 10SM FEW150 BKN250 16/14 A3006 RMK AO2 SLP175 T01610139 10189 20156 56008 $=
201310160452 METAR KATL 160452Z 09005KT 10SM FEW150 SCT250 16/14 A3007 RMK AO2 SLP176 T01610139 402000156 $=
201310160352 METAR KATL 160352Z 09006KT 10SM FEW150 SCT250 17/14 A3008 RMK AO2 SLP180 T01670144 $=
201310160252 METAR KATL 160252Z 08008KT 10SM FEW030 SCT250 17/14 A3009 RMK AO2 SLP184 T01720144 50007 $=
201310160152 METAR KATL 160152Z 07007KT 10SM OVC030 18/14 A3010 RMK AO2 SLP186 T01830144 $=
201310160052 METAR KATL 160052Z COR 09007KT 10SM FEW018 OVC030 18/14 A3009 RMK AO2 SLP184 T01830144=
201310152352 METAR KATL 152352Z 09007KT 10SM FEW018 OVC030 18/14 A3007 RMK AO2 SLP178 T01830144 10200 20183 53002=
201310152252 METAR KATL 152252Z 07007KT 10SM FEW022 OVC030 19/14 A3007 RMK AO2 SLP176 T01890139=
201310152152 METAR KATL 152152Z 10005KT 10SM FEW022 OVC030 19/14 A3006 RMK AO2 SLP175 T01940144=
201310152149 SPECI KATL 152149Z 09005KT 10SM FEW022 OVC030 19/14 A3006 RMK AO2=
201310152052 METAR KATL 152052Z 10005KT 10SM FEW024 BKN026 OVC030 19/14 A3008 RMK AO2 SLP181 T01940139 55007=
201310152023 SPECI KATL 152023Z 09006KT 10SM FEW024 BKN028 OVC030 19/14 A3008 RMK AO2=
201310151952 METAR KATL 151952Z 08008KT 10SM FEW024 SCT027 OVC030 20/14 A3008 RMK AO2 SLP180 T02000139=
201310151852 METAR KATL 151852Z 09007KT 10SM FEW024 BKN027 OVC030 20/14 A3008 RMK AO2 SLP182 T02000139=
201310151752 METAR KATL 151752Z 07009KT 10SM FEW020 BKN024 OVC030 20/13 A3010 RMK AO2 SLP187 T02000133 10200 20172 58018=
201310151741 SPECI KATL 151741Z 09007KT 10SM FEW020 SCT024 OVC030 20/14 A3011 RMK AO2=
201310151652 METAR KATL 151652Z 11006KT 10SM FEW020 BKN025 OVC030 20/13 A3013 RMK AO2 SLP197 T02000133=
201310151552 METAR KATL 151552Z 09008KT 10SM BKN018 BKN023 BKN030 20/14 A3014 RMK AO2 SLP201 T02000144=
201310151526 SPECI KATL 151526Z 08009KT 10SM FEW015 BKN018 OVC030 19/14 A3014 RMK AO2=
201310151452 METAR KATL 151452Z 09008KT 10SM FEW015 SCT020 OVC030 19/15 A3016 RMK AO2 SLP206 T01890150 51002=
201310151448 SPECI KATL 151448Z 09007KT 10SM FEW015 SCT020 OVC030 19/15 A3016 RMK AO2=
201310151359 SPECI KATL 151359Z 09008KT 10SM FEW012 BKN027 OVC030 18/15 A3016 RMK AO2=
201310151352 METAR KATL 151352Z 08009KT 10SM BKN012 BKN027 OVC030 18/14 A3016 RMK AO2 SLP208 T01780144=
201310151315 SPECI KATL 151315Z 10007KT 10SM BKN011 OVC027 17/15 A3016 RMK AO2=
201310151252 METAR KATL 151252Z 08008KT 9SM BKN009 OVC029 17/15 A3015 RMK AO2 SLP205 T01720150=
201310151244 SPECI KATL 151244Z 08009KT 9SM BKN009 OVC029 17/15 A3015 RMK AO2=
201310151224 SPECI KATL 151224Z 10007KT 10SM SCT009 OVC029 17/15 A3015 RMK AO2=
201310151152 METAR KATL 151152Z 10006KT 10SM SCT010 OVC033 17/15 A3014 RMK AO2 SLP203 T01720150 10183 20172 53000=
201310151150 SPECI KATL 151150Z 09007KT 10SM SCT010 OVC033 17/15 A3014 RMK AO2=
201310151052 METAR KATL 151052Z 08009KT 10SM BKN010 OVC033 17/15 A3014 RMK AO2 SLP201 T01720150=
201310150952 METAR KATL 150952Z 09010KT 10SM SCT010 BKN035 17/15 A3013 RMK AO2 SLP195 T01720150=
201310150926 SPECI KATL 150926Z 08009KT 10SM FEW012 BKN033 17/15 A3013 RMK AO2=
201310150852 METAR KATL 150852Z 09009KT 10SM BKN012 OVC031 18/15 A3014 RMK AO2 SLP201 T01780150 55006=
201310150806 SPECI KATL 150806Z 07009KT 10SM BKN012 OVC031 18/16 A3014 RMK AO2=
201310150752 METAR KATL 150752Z 09008KT 10SM SCT011 OVC031 18/16 A3014 RMK AO2 SLP201 T01780156=
201310150652 METAR KATL 150652Z 09008KT 10SM FEW015 OVC033 18/16 A3015 RMK AO2 SLP202 T01780156=
201310150552 METAR KATL 150552Z 08007KT 10SM FEW015 SCT031 OVC046 18/16 A3016 RMK AO2 SLP207 BINOVC T01830156 10211 20183 58003=
201310150516 SPECI KATL 150516Z 09008KT 10SM SCT015 OVC046 18/16 A3017 RMK AO2=
201310150459 SPECI KATL 150459Z 09008KT 10SM BKN015 OVC048 19/16 A3017 RMK AO2=
201310150452 METAR KATL 150452Z 10008KT 10SM SCT015 OVC048 19/16 A3017 RMK AO2 SLP210 T01890156 402500178=
201310150352 METAR KATL 150352Z 11007KT 10SM FEW015 BKN045 BKN250 19/16 A3016 RMK AO2 SLP207 T01890156=
201310150252 METAR KATL 150252Z 10008KT 10SM FEW020 BKN045 BKN250 19/16 A3017 RMK AO2 SLP210 T01940156 53007=
201310150152 METAR KATL 150152Z 10007KT 10SM FEW020 BKN045 BKN250 20/16 A3016 RMK AO2 SLP207 T02000161=
201310150052 METAR KATL 150052Z 10009KT 10SM FEW020 BKN050 20/16 A3015 RMK AO2 SLP205 T02000156=
201310142352 METAR KATL 142352Z 09008KT 10SM BKN050 21/16 A3015 RMK AO2 SLP202 T02060156 10250 20206 50003=
201310142252 METAR KATL 142252Z 08009KT 10SM FEW030 BKN048 BKN250 21/15 A3015 RMK AO2 SLP203 T02110150 $=
201310142152 METAR KATL 142152Z 09008KT 10SM FEW030 BKN045 BKN250 22/15 A3014 RMK AO2 SLP199 T02170150 $=
201310142052 METAR KATL 142052Z 06010KT 10SM FEW028 BKN040 BKN250 22/16 A3014 RMK AO2 SLP199 T02170156 55009 $=
201310142033 SPECI KATL 142033Z 07011KT 10SM BKN028 BKN045 BKN250 22/16 A3014 RMK AO2 $=
201310141952 METAR KATL 141952Z 06008KT 10SM BKN030 BKN040 BKN250 22/15 A3014 RMK AO2 SLP199 T02220150 $=
201310141852 METAR KATL 141852Z 08014KT 10SM BKN035 BKN045 BKN250 23/14 A3015 RMK AO2 SLP201 T02330144 $=
201310141752 METAR KATL 141752Z 06011KT 10SM FEW035 BKN048 BKN250 23/15 A3016 RMK AO2 SLP207 T02280150 10244 20178 58016 $=
201310141652 METAR KATL 141652Z 06011KT 10SM FEW035 BKN050 BKN250 24/15 A3019 RMK AO2 SLP217 T02390150 $=
201310141623 SPECI KATL 141623Z 06014KT 10SM BKN030 BKN050 BKN085 22/14 A3020 RMK AO2 $=
201310141552 METAR KATL 141552Z 06012KT 10SM SCT025 SCT085 22/15 A3021 RMK AO2 SLP223 T02220150 $=
201310141452 METAR KATL 141452Z 07010KT 10SM SCT020 SCT250 20/16 A3021 RMK AO2 SLP225 T02000156 50003 $=
201310141420 SPECI KATL 141420Z 07012KT 10SM SCT015 19/16 A3022 RMK AO2 $=
201310141352 METAR KATL 141352Z 08008KT 10SM BKN013 19/16 A3022 RMK AO2 SLP227 T01940156 $=
201310141252 METAR KATL 141252Z 07009KT 10SM BKN013 BKN085 18/16 A3021 RMK AO2 SLP224 T01830156 $=
201310141152 METAR KATL 141152Z 08007KT 10SM BKN012 OVC085 18/16 A3020 RMK AO2 SLP221 CIG 010V016 T01780161 10194 20178 53010 $=
201310141106 SPECI KATL 141106Z 07006KT 10SM BKN014 BKN065 OVC085 18/16 A3020 RMK AO2 $=
201310141052 METAR KATL 141052Z 07008KT 10SM SCT014 BKN080 18/16 A3019 RMK AO2 SLP217 T01830161 $=
201310141020 SPECI KATL 141020Z 05006KT 10SM BKN014 BKN080 19/17 A3019 RMK AO2 $=
201310140952 METAR KATL 140952Z 04005KT 10SM FEW010 BKN075 18/16 A3018 RMK AO2 SLP213 T01830161 $=
201310140852 METAR KATL 140852Z VRB06KT 10SM FEW045 SCT070 18/16 A3017 RMK AO2 SLP210 T01830156 55001 $=
201310140752 METAR KATL 140752Z 09005KT 10SM BKN075 18/16 A3017 RMK AO2 SLP208 T01830161 $=
201310140652 METAR KATL 140652Z 09007KT 10SM BKN045 BKN070 19/16 A3018 RMK AO2 SLP210 T01890161 $=
201310140552 METAR KATL 140552Z 09005KT 10SM BKN040 BKN070 19/17 A3018 RMK AO2 SLP211 T01890167 10250 20189 58003 $=
201310140452 METAR KATL 140452Z 09004KT 10SM FEW040 BKN070 BKN250 19/17 A3018 RMK AO2 SLP212 T01940167 402780156 $=
201310140352 METAR KATL 140352Z 09006KT 10SM FEW050 SCT080 SCT250 20/16 A3018 RMK AO2 SLP212 T02000161 $=
201310140252 METAR KATL 140252Z 09004KT 10SM FEW050 SCT080 SCT250 21/16 A3019 RMK AO2 SLP214 T02110161 51011 $=
201310140152 METAR KATL 140152Z 00000KT 10SM FEW050 SCT075 SCT250 23/16 A3018 RMK AO2 SLP212 T02280156 $=
201310140052 METAR KATL 140052Z 08005KT 10SM SCT050 BKN070 BKN250 23/16 A3016 RMK AO2 SLP207 T02330156 $=
201310132352 METAR KATL 132352Z 33004KT 10SM SCT055 BKN075 BKN250 25/14 A3015 RMK AO2 SLP203 T02500139 10278 20244 53008 $=
201310132252 METAR KATL 132252Z 04005KT 10SM SCT050 BKN075 BKN250 25/14 A3014 RMK AO2 SLP200 T02500144=
201310132152 METAR KATL 132152Z 36008KT 10SM FEW050 BKN075 BKN200 26/13 A3013 RMK AO2 SLP196 TCU DSNT NW T02610133=
201310132052 METAR KATL 132052Z 06004KT 10SM FEW050 BKN070 BKN200 27/13 A3013 RMK AO2 SLP195 T02720133 56014=
201310131952 METAR KATL 131952Z 04005KT 10SM SCT050 BKN070 BKN200 27/13 A3013 RMK AO2 SLP197 T02670133=
201310131852 METAR KATL 131852Z 36006KT 10SM SCT048 BKN200 26/14 A3015 RMK AO2 SLP201 T02560139=
201310131752 METAR KATL 131752Z 04005KT 10SM BKN042 26/14 A3017 RMK AO2 SLP210 T02610139 10272 20172 58011=
201310131652 METAR KATL 131652Z 11004KT 10SM FEW050 SCT180 26/16 A3019 RMK AO2 SLP216 T02560156=
201310131552 METAR KATL 131552Z VRB03KT 10SM FEW050 SCT180 25/15 A3020 RMK AO2 SLP221 T02500150=
201310131452 METAR KATL 131452Z 07004KT 10SM FEW180 23/16 A3020 RMK AO2 SLP221 T02280156 51017=
201310131352 METAR KATL 131352Z 07007KT 10SM FEW050 SCT210 21/16 A3020 RMK AO2 SLP219 T02110156=
201310131252 METAR KATL 131252Z 04008KT 10SM FEW050 19/15 A3017 RMK AO2 SLP212 T01940150=
201310131152 METAR KATL 131152Z 04004KT 10SM FEW050 17/14 A3015 RMK AO2 SLP205 T01720144 10172 20156 51010=
201310131052 METAR KATL 131052Z 03007KT 10SM FEW050 17/14 A3014 RMK AO2 SLP201 T01720139=
201310130952 METAR KATL 130952Z 34006KT 10SM FEW050 SCT250 16/13 A3014 RMK AO2 SLP199 T01610133=
201310130852 METAR KATL 130852Z 34006KT 10SM BKN250 16/14 A3012 RMK AO2 SLP193 T01560139 53005=
201310130752 METAR KATL 130752Z 34007KT 10SM BKN250 17/14 A3011 RMK AO2 SLP188 T01670139=
201310130652 METAR KATL 130652Z 31007KT 10SM BKN250 16/14 A3011 RMK AO2 SLP190 T01610139=
201310130552 METAR KATL 130552Z 32005KT 10SM BKN250 17/14 A3010 RMK AO2 SLP186 T01720144 10222 20172 58000=
201310130452 METAR KATL 130452Z 32003KT 10SM BKN250 18/14 A3011 RMK AO2 SLP187 T01780144 402720139=
201310130352 METAR KATL 130352Z 32006KT 10SM BKN250 18/15 A3011 RMK AO2 SLP190 T01780150=
201310130252 METAR KATL 130252Z 30005KT 10SM FEW250 19/14 A3010 RMK AO2 SLP188 T01940144 53012=
201310130152 METAR KATL 130152Z 33004KT 10SM FEW250 19/14 A3008 RMK AO2 SLP181 T01940144=
201310130052 METAR KATL 130052Z 34006KT 10SM FEW200 SCT250 22/14 A3007 RMK AO2 SLP178 T02170139=
201310122352 METAR KATL 122352Z 34005KT 10SM FEW200 SCT250 22/14 A3007 RMK AO2 SLP177 T02220139 10272 20222 51004=
201310122252 METAR KATL 122252Z 33006KT 10SM SCT200 BKN250 24/14 A3007 RMK AO2 SLP177 T02390139=
201310122152 METAR KATL 122152Z 33009KT 10SM FEW055 BKN250 25/13 A3006 RMK AO2 SLP174 T02500133=
201310122052 METAR KATL 122052Z 34009KT 10SM FEW055 SCT250 27/13 A3006 RMK AO2 SLP171 T02670128 56003=
201310121952 METAR KATL 121952Z 33010KT 10SM FEW055 SCT250 27/13 A3006 RMK AO2 SLP171 T02670133=
201310121852 METAR KATL 121852Z 33012KT 10SM FEW050 SCT250 27/12 A3006 RMK AO2 SLP172 T02670122=
201310121752 METAR KATL 121752Z 31011KT 10SM FEW050 SCT250 27/13 A3006 RMK AO2 SLP173 T02670128 10267 20139 58007=
201310121652 METAR KATL 121652Z 34007KT 10SM FEW046 SCT250 26/13 A3008 RMK AO2 SLP178 T02560128=
201310121552 METAR KATL 121552Z 32008KT 10SM FEW250 24/14 A3008 RMK AO2 SLP181 T02390139=
201310121452 METAR KATL 121452Z 32005KT 10SM SCT250 22/14 A3009 RMK AO2 SLP182 T02170144 50012=
201310121352 METAR KATL 121352Z 32007KT 10SM FEW250 18/13 A3009 RMK AO2 SLP183 T01830133=
201310121252 METAR KATL 121252Z 32007KT 10SM FEW250 16/13 A3007 RMK AO2 SLP177 T01610128=
201310121152 METAR KATL 121152Z 31006KT 10SM CLR 14/12 A3005 RMK AO2 SLP171 T01390117 10161 20139 53010=
201310121052 METAR KATL 121052Z 32006KT 10SM CLR 14/12 A3004 RMK AO2 SLP167 T01390122=
201310120952 METAR KATL 120952Z 32007KT 10SM CLR 14/12 A3002 RMK AO2 SLP160 T01440122=
201310120852 METAR KATL 120852Z 32007KT 10SM CLR 14/12 A3002 RMK AO2 SLP159 T01440122 53001=
201310120752 METAR KATL 120752Z 31008KT 10SM CLR 15/13 A3001 RMK AO2 SLP158 T01500128=
201310120652 METAR KATL 120652Z 31007KT 10SM CLR 16/13 A3002 RMK AO2 SLP158 T01560128=
201310120552 METAR KATL 120552Z 30005KT 10SM CLR 16/13 A3002 RMK AO2 SLP158 T01560128 10211 20156 55003=
201310120452 METAR KATL 120452Z 31007KT 10SM CLR 16/13 A3001 RMK AO2 SLP156 T01610133 402610133=
201310120352 METAR KATL 120352Z 31005KT 10SM CLR 17/13 A3002 RMK AO2 SLP158 T01670133=
201310120252 METAR KATL 120252Z 29005KT 10SM CLR 17/13 A3002 RMK AO2 SLP161 T01720128 51007=
201310120152 METAR KATL 120152Z 29003KT 10SM CLR 18/12 A3002 RMK AO2 SLP159 T01830122=
201310120052 METAR KATL 120052Z 31005KT 10SM CLR 20/12 A3001 RMK AO2 SLP157 T02000122=
201310112352 METAR KATL 112352Z 31005KT 10SM CLR 21/11 A3000 RMK AO2 SLP155 T02110111 10261 20211 55000=
201310112252 METAR KATL 112252Z 32007KT 10SM CLR 23/11 A3000 RMK AO2 SLP153 T02330111=
201310112152 METAR KATL 112152Z 32011KT 10SM FEW250 25/11 A3000 RMK AO2 SLP152 T02500111=
201310112052 METAR KATL 112052Z 30012KT 10SM FEW055 26/11 A3000 RMK AO2 SLP153 T02560111 56014=
201310111952 METAR KATL 111952Z 31012G17KT 10SM FEW055 26/11 A3001 RMK AO2 SLP154 T02560106=
201310111852 METAR KATL 111852Z 31013KT 10SM FEW050 26/12 A3001 RMK AO2 SLP157 T02560117=
201310111752 METAR KATL 111752Z 32016G21KT 10SM FEW050 25/11 A3004 RMK AO2 SLP167 T02500111 10256 20144 58012=
201310111652 METAR KATL 111652Z 32013G20KT 10SM FEW040 24/12 A3006 RMK AO2 SLP174 T02440117=
201310111552 METAR KATL 111552Z 33012G17KT 10SM CLR 23/12 A3008 RMK AO2 SLP178 T02330122=
201310111452 METAR KATL 111452Z 32008KT 10SM CLR 21/14 A3008 RMK AO2 SLP179 T02110139 50008=
201310111352 METAR KATL 111352Z 32006KT 10SM CLR 18/14 A3008 RMK AO2 SLP181 T01830139=
201310111252 METAR KATL 111252Z 31008KT 10SM CLR 16/13 A3007 RMK AO2 SLP177 T01560133=
201310111152 METAR KATL 111152Z 31008KT 10SM FEW200 14/13 A3005 RMK AO2 SLP172 T01440128 10167 20133 53011=
201310111052 METAR KATL 111052Z 32007KT 10SM FEW250 14/12 A3004 RMK AO2 SLP167 T01390122=
201310110952 METAR KATL 110952Z 32006KT 10SM FEW250 14/12 A3003 RMK AO2 SLP162 T01390122=
201310110852 METAR KATL 110852Z 33004KT 10SM FEW250 14/13 A3002 RMK AO2 SLP159 T01390128 55001=
201310110752 METAR KATL 110752Z 31006KT 10SM FEW200 SCT250 15/13 A3002 RMK AO2 SLP157 T01500133=
201310110652 METAR KATL 110652Z 31005KT 10SM SCT200 BKN250 16/13 A3002 RMK AO2 SLP160 T01560133=
201310110552 METAR KATL 110552Z 31006KT 10SM FEW200 SCT250 16/13 A3002 RMK AO2 SLP160 T01610133 10217 20161 56006=
201310110452 METAR KATL 110452Z 30005KT 10SM FEW250 17/14 A3003 RMK AO2 SLP162 T01670139 402670144=
201310110352 METAR KATL 110352Z 30003KT 10SM FEW250 17/14 A3004 RMK AO2 SLP165 T01720144=
201310110252 METAR KATL 110252Z 32004KT 10SM FEW250 19/15 A3004 RMK AO2 SLP167 T01890150 51003=
201310110152 METAR KATL 110152Z 31004KT 10SM FEW250 19/15 A3004 RMK AO2 SLP168 T01940150=
201310110052 METAR KATL 110052Z 33004KT 10SM FEW250 21/14 A3004 RMK AO2 SLP166 T02060144=
201310102352 METAR KATL 102352Z 33005KT 10SM FEW250 22/14 A3003 RMK AO2 SLP165 T02220144 10267 20217 56005=
201310102252 METAR KATL 102252Z 32007KT 10SM FEW050 23/14 A3004 RMK AO2 SLP165 T02330139=
201310102152 METAR KATL 102152Z 31007KT 10SM FEW050 25/13 A3004 RMK AO2 SLP167 T02500133=
201310102052 METAR KATL 102052Z 35010KT 10SM FEW050 26/13 A3005 RMK AO2 SLP168 T02610133 58016=
201310101952 METAR KATL 101952Z 33009KT 10SM FEW045 SCT055 27/14 A3007 RMK AO2 SLP175 T02670139=
201310101852 METAR KATL 101852Z 35011G19KT 10SM SCT045 SCT055 25/13 A3008 RMK AO2 SLP180 T02500133=
201310101752 METAR KATL 101752Z 31010KT 10SM FEW043 SCT070 25/14 A3010 RMK AO2 SLP186 ACSL DSNT S-SW T02500139 10256 20150 58018=
201310101652 METAR KATL 101652Z 30008KT 10SM FEW045 SCT070 24/13 A3012 RMK AO2 SLP195 T02390133=
201310101552 METAR KATL 101552Z 28005KT 10SM FEW070 23/12 A3014 RMK AO2 SLP201 T02280122=
201310101452 METAR KATL 101452Z 30004KT 10SM BKN070 20/11 A3015 RMK AO2 SLP205 T02000111 50003=
201310101352 METAR KATL 101352Z 00000KT 10SM BKN070 18/12 A3016 RMK AO2 SLP207 T01780122=
201310101252 METAR KATL 101252Z 00000KT 10SM BKN070 17/12 A3015 RMK AO2 SLP205 T01670122=
201310101152 METAR KATL 101152Z 00000KT 10SM BKN070 15/10 A3014 RMK AO2 SLP204 T01500100 10167 20144 51008=
201310101052 METAR KATL 101052Z 07003KT 10SM FEW070 15/10 A3014 RMK AO2 SLP201 T01500100=
201310100952 METAR KATL 100952Z 06004KT 10SM FEW070 16/10 A3013 RMK AO2 SLP197 T01610100=
201310100852 METAR KATL 100852Z 06003KT 10SM FEW070 16/12 A3012 RMK AO2 SLP194 T01560122 51001=
201310100752 METAR KATL 100752Z 00000KT 10SM FEW075 15/12 A3012 RMK AO2 SLP193 T01500117=
201310100652 METAR KATL 100652Z 00000KT 10SM CLR 16/12 A3012 RMK AO2 SLP194 T01610122=
201310100552 METAR KATL 100552Z 00000KT 10SM CLR 16/12 A3012 RMK AO2 SLP193 T01610122 10206 20161 58009=
201310100452 METAR KATL 100452Z 00000KT 10SM CLR 17/13 A3013 RMK AO2 SLP198 T01670128 402440133=
201310100352 METAR KATL 100352Z 00000KT 10SM CLR 17/12 A3014 RMK AO2 SLP201 T01720122=
201310100252 METAR KATL 100252Z 00000KT 10SM CLR 19/12 A3015 RMK AO2 SLP203 T01890122 53008=
201310100152 METAR KATL 100152Z 00000KT 10SM CLR 19/12 A3013 RMK AO2 SLP199 T01890122=
201310100052 METAR KATL 100052Z 00000KT 10SM CLR 20/12 A3013 RMK AO2 SLP197 T02000117=
201310092352 METAR KATL 092352Z 00000KT 10SM CLR 20/12 A3012 RMK AO2 SLP196 T02000117 10244 20200 55002=
201310092252 METAR KATL 092252Z 00000KT 10SM CLR 23/11 A3012 RMK AO2 SLP193 T02280106=
201310092152 METAR KATL 092152Z 35007KT 10SM CLR 24/11 A3012 RMK AO2 SLP194 T02390106=
201310092052 METAR KATL 092052Z 11005KT 10SM CLR 24/10 A3013 RMK AO2 SLP195 T02390100 56015=
201310091952 METAR KATL 091952Z VRB03KT 10SM CLR 24/10 A3013 RMK AO2 SLP198 T02390100=
201310091852 METAR KATL 091852Z 08005KT 10SM CLR 23/10 A3015 RMK AO2 SLP203 T02280100=
201310091752 METAR KATL 091752Z 06008KT 10SM CLR 22/10 A3017 RMK AO2 SLP212 T02220100 10222 20133 58012=
201310091652 METAR KATL 091652Z 05007KT 10SM CLR 21/11 A3019 RMK AO2 SLP219 T02110106=
201310091552 METAR KATL 091552Z 06011KT 10SM CLR 19/11 A3021 RMK AO2 SLP224 T01940106=
201310091452 METAR KATL 091452Z 08012KT 10SM FEW020 18/10 A3021 RMK AO2 SLP224 T01830100 51009=
201310091352 METAR KATL 091352Z 07016KT 10SM FEW018 16/08 A3020 RMK AO2 SLP224 T01610078=
201310091252 METAR KATL 091252Z 07011KT 10SM FEW024 15/07 A3020 RMK AO2 SLP222 T01500072=
201310091152 METAR KATL 091152Z 08010KT 10SM FEW024 13/07 A3018 RMK AO2 SLP217 T01330067 10161 20133 53008=
201310091052 METAR KATL 091052Z 07011G17KT 10SM FEW024 14/08 A3017 RMK AO2 SLP211 T01440083=
201310091014 SPECI KATL 091014Z 08012KT 10SM FEW024 14/09 A3017 RMK AO2=
201310090952 METAR KATL 090952Z 08011KT 10SM BKN024 15/10 A3016 RMK AO2 SLP209 T01500100=
201310090852 METAR KATL 090852Z 08010KT 10SM OVC024 16/10 A3016 RMK AO2 SLP206 T01560100 51004=
201310090752 METAR KATL 090752Z 09008KT 10SM OVC024 16/11 A3015 RMK AO2 SLP204 T01560106=
201310090657 SPECI KATL 090657Z 09009KT 10SM BKN027 16/11 A3015 RMK AO2=
201310090652 METAR KATL 090652Z 09009KT 10SM BKN030 16/11 A3015 RMK AO2 SLP206 T01560111=
201310090552 METAR KATL 090552Z 09006KT 10SM BKN030 16/12 A3014 RMK AO2 SLP203 T01560122 10189 20150 58003=
201310090514 SPECI KATL 090514Z 10004KT 10SM FEW028 SCT035 15/12 A3014 RMK AO2=
201310090452 METAR KATL 090452Z 11008KT 10SM BKN028 BKN035 16/13 A3015 RMK AO2 SLP204 T01560128 402220133=
201310090352 METAR KATL 090352Z 11013G17KT 10SM SCT028 BKN035 17/12 A3015 RMK AO2 SLP206 T01670122=
201310090252 METAR KATL 090252Z 09014G20KT 10SM FEW028 BKN035 18/12 A3015 RMK AO2 SLP206 T01780122 51010=
201310090152 METAR KATL 090152Z 08013KT 10SM SCT027 BKN032 OVC040 18/12 A3015 RMK AO2 SLP205 T01830122=
201310090052 METAR KATL 090052Z 08013G18KT 10SM SCT027 BKN032 OVC040 18/13 A3014 RMK AO2 SLP201 BINOVC T01830128=
201310082352 METAR KATL 082352Z 10010KT 10SM BKN025 BKN040 19/13 A3012 RMK AO2 SLP195 T01890133 10222 20189 53018=
201310082252 METAR KATL 082252Z 10009KT 10SM FEW030 BKN048 20/14 A3009 RMK AO2 SLP186 T02000139=
201310082152 METAR KATL 082152Z 09015G20KT 10SM BKN030 BKN048 22/14 A3008 RMK AO2 SLP178 T02170139=
201310082052 METAR KATL 082052Z 09012KT 10SM SCT028 BKN048 22/14 A3007 RMK AO2 SLP177 T02170139 55004=
201310081952 METAR KATL 081952Z 10007KT 10SM SCT030 SCT040 21/14 A3007 RMK AO2 SLP177 T02110139=
201310081943 SPECI KATL 081943Z 09010KT 10SM BKN030 BKN040 21/13 A3007 RMK AO2=
201310081852 METAR KATL 081852Z 09009KT 10SM BKN027 BKN040 21/13 A3007 RMK AO2 SLP177 T02110133=
201310081752 METAR KATL 081752Z 09011KT 10SM BKN023 BKN030 BKN040 20/13 A3008 RMK AO2 SLP182 T02000128 10206 20172 50000=
201310081652 METAR KATL 081652Z 07013KT 10SM BKN025 BKN030 BKN040 19/12 A3009 RMK AO2 SLP188 T01940122=
201310081559 SPECI KATL 081559Z 06014KT 10SM BKN025 BKN030 BKN045 19/12 A3010 RMK AO2=
201310081552 METAR KATL 081552Z 08014KT 10SM FEW025 BKN030 BKN045 19/11 A3010 RMK AO2 SLP188 T01890111=
201310081452 METAR KATL 081452Z 08014KT 10SM FEW040 BKN055 19/11 A3008 RMK AO2 SLP182 T01940111 51016=
201310081352 METAR KATL 081352Z 08011G20KT 10SM BKN040 18/09 A3007 RMK AO2 SLP179 T01780094=
201310081252 METAR KATL 081252Z 07014KT 10SM BKN038 17/09 A3005 RMK AO2 SLP172 T01720089=
201310081152 METAR KATL 081152Z 06013KT 10SM OVC034 17/10 A3003 RMK AO2 SLP166 T01720100 10172 20133 53020=
201310081052 METAR KATL 081052Z 06011KT 10SM OVC030 17/11 A3001 RMK AO2 SLP157 T01720111=
201310081045 SPECI KATL 081045Z 07010KT 10SM OVC030 17/12 A3001 RMK AO2=
201310080952 METAR KATL 080952Z 05007KT 10SM OVC026 17/12 A2999 RMK AO2 SLP151 T01720122=
201310080925 SPECI KATL 080925Z VRB05KT 10SM BKN024 OVC033 16/12 A2998 RMK AO2=
201310080852 METAR KATL 080852Z 34005KT 10SM FEW022 BKN033 16/12 A2997 RMK AO2 SLP145 T01560122 55001=
201310080840 SPECI KATL 080840Z 36005KT 10SM SCT022 BKN033 16/12 A2996 RMK AO2=
201310080752 METAR KATL 080752Z 34006KT 10SM BKN024 14/11 A2997 RMK AO2 SLP142 T01390111=
201310080710 SPECI KATL 080710Z 33004KT 10SM BKN020 13/11 A2997 RMK AO2=
201310080652 METAR KATL 080652Z 32005KT 10SM SCT023 SCT031 13/11 A2997 RMK AO2 SLP145 T01330106=
201310080552 METAR KATL 080552Z 00000KT 10SM BKN034 BKN250 14/11 A2998 RMK AO2 SLP146 T01390106 10183 20133 53004=
201310080452 METAR KATL 080452Z 34005KT 10SM SCT032 SCT200 SCT250 14/10 A2997 RMK AO2 SLP145 T01390100 402330139=
201310080352 METAR KATL 080352Z 34007KT 10SM FEW030 SCT200 SCT250 14/10 A2997 RMK AO2 SLP143 T01440100=
201310080252 METAR KATL 080252Z 34006KT 10SM FEW200 SCT250 15/10 A2996 RMK AO2 SLP143 T01500100 51010=
201310080152 METAR KATL 080152Z 33008KT 10SM FEW150 SCT200 SCT250 16/10 A2995 RMK AO2 SLP140 T01560100=
201310080052 METAR KATL 080052Z 31007KT 10SM FEW150 SCT200 SCT250 17/11 A2995 RMK AO2 SLP139 T01670106=
201310072352 METAR KATL 072352Z COR 32006KT 10SM FEW150 FEW200 SCT250 18/11 A2993 RMK AO2 SLP133 T01830111 10233 20183 53014=
201310072252 METAR KATL 072252Z COR 34011KT 10SM FEW065 FEW150 FEW200 SCT250 20/11 A2992 RMK AO2 SLP126 T02000111=
201310072152 METAR KATL 072152Z COR 33011KT 10SM FEW040 FEW065 FEW200 SCT250 20/11 A2990 RMK AO2 SLP119 T02000111=
201310072052 METAR KATL 072052Z 34015KT 10SM FEW060 SCT150 SCT250 22/12 A2989 RMK AO2 SLP116 T02220117 55004=
201310071952 METAR KATL 071952Z 35007KT 10SM FEW060 SCT150 BKN250 22/12 A2989 RMK AO2 SLP115 T02220122=
201310071852 METAR KATL 071852Z 32010KT 10SM FEW060 SCT150 SCT200 22/12 A2989 RMK AO2 SLP115 T02220122=
201310071752 METAR KATL 071752Z 33010KT 10SM FEW060 BKN200 BKN250 21/12 A2991 RMK AO2 SLP121 T02110122 10217 20139 58005=
201310071652 METAR KATL 071652Z 35012KT 10SM FEW025 BKN055 BKN250 21/14 A2992 RMK AO2 SLP126 T02060144=
201310071552 METAR KATL 071552Z 31012KT 10SM FEW020 SCT050 SCT150 BKN250 19/14 A2993 RMK AO2 SLP128 T01940144=
201310071452 METAR KATL 071452Z 33008KT 10SM FEW015 SCT050 SCT250 18/14 A2992 RMK AO2 SLP127 T01780139 53011=
201310071352 METAR KATL 071352Z 32010KT 10SM FEW010 SCT050 SCT150 SCT250 16/14 A2991 RMK AO2 SLP123 T01610139=
201310071252 METAR KATL 071252Z 32009KT 10SM FEW006 SCT030 SCT050 BKN200 14/13 A2990 RMK AO2 SLP121 T01440133=
201310071152 METAR KATL 071152Z 32008KT 10SM SCT022 SCT035 BKN046 14/13 A2989 RMK AO2 RAE26 SLP117 P0002 60013 70228 T01390128 10200 20139 50009=
201310071052 METAR KATL 071052Z 33007KT 6SM -RA BR FEW006 BKN035 OVC060 14/13 A2990 RMK AO2 RAB0958 SLP121 P0002 T01390133=
201310071032 SPECI KATL 071032Z 32007KT 7SM -RA SCT006 OVC027 14/13 A2990 RMK AO2 RAB0958 P0000=
201310070952 METAR KATL 070952Z 33014G20KT 6SM BR BKN006 OVC027 14/14 A2989 RMK AO2 RAE41 SLP114 P0004 T01440139 $=
201310070912 SPECI KATL 070912Z 32015KT 3SM -RA BR BKN005 BKN016 OVC023 17/16 A2987 RMK AO2 CIG 004V007 P0004 $=
201310070852 METAR KATL 070852Z 33012G22KT 1SM R09R/6000VP6000FT -RA BR SCT005 BKN016 OVC050 18/17 A2986 RMK AO2 SFC VIS 2 1/2 RAB29 SLP104 P0004 60005 T01780172 55002 $=
201310070850 SPECI KATL 070850Z 33009G22KT 1SM R09R/6000VP6000FT -RA BR SCT005 BKN016 OVC030 18/17 A2986 RMK AO2 SFC VIS 1 1/2 RAB29 P0004 $=
201310070752 METAR KATL 070752Z COR 00000KT 1SM BR OVC002 19/19 A2985 RMK AO2 SFC VIS 3 SLP098 TWRINC T01940194 $=
201310070652 METAR KATL 070652Z 13003KT 1SM BR OVC003 19/19 A2986 RMK AO2 SFC VIS 6 RAE41 SLP101 CIG 002V004 TWRINC P0001 T01940189 $=
201310070552 METAR KATL 070552Z 13004KT 1SM -RA BR BKN003 OVC015 19/18 A2987 RMK AO2 SFC VIS 5 SLP105 SFC VIS SW-W 2 CIG 002V005 TWRINC P0002 60106 T01890183 10211 20189 56015 $=
201310070452 METAR KATL 070452Z 12005KT 1SM -RA BKN004 BKN050 BKN090 OVC130 19/18 A2988 RMK AO2 SFC VIS 10 SLP108 CIG 003V005 TWRINC P0002 T01890183 402890183 $=
201310070427 SPECI KATL 070427Z 10006KT 1SM -RA BKN004 BKN055 BKN085 OVC130 19/18 A2988 RMK AO2 SFC VIS 10 CIG 003V005 TWRINC P0002 $=
201310070352 METAR KATL 070352Z 09006KT 6SM -RA BR FEW005 BKN050 BKN080 OVC130 19/18 A2990 RMK AO2 SLP115 P0003 T01940183 $=
201310070344 SPECI KATL 070344Z 07008KT 6SM RA BR SCT005 BKN042 BKN075 OVC130 19/18 A2990 RMK AO2 P0002 $=
201310070252 METAR KATL 070252Z 08008KT 2SM -RA BKN005 BKN012 OVC050 19/19 A2991 RMK AO2 SFC VIS 8 SLP121 CIG 004V007 P0002 60099 T01940189 58002 $=
201310070242 SPECI KATL 070242Z 07009KT 10SM -RA BKN007 BKN055 BKN110 OVC200 19/19 A2991 RMK AO2 CIG 005V009 P0002 $=
201310070220 SPECI KATL 070220Z 06011KT 10SM -RA SCT006 SCT018 OVC055 19/19 A2991 RMK AO2 P0001 $=
201310070157 SPECI KATL 070157Z 04010KT 1SM -RA BR BKN005 BKN012 OVC040 20/19 A2992 RMK AO2 SFC VIS 4 CIG 004V007 P0001 $=
201310070152 METAR KATL 070152Z 03011KT 3SM -RA BR SCT007 BKN014 OVC040 20/19 A2993 RMK AO2 SFC VIS 6 SLP126 CIG 012V016 P0015 T02000189 $=
201310070131 SPECI KATL 070131Z 03009KT 3SM RA BR SCT005 BKN014 OVC040 20/19 A2993 RMK AO2 SFC VIS 4 P0013 $=
201310070108 SPECI KATL 070108Z 35004KT 1 1/2SM RA BR SCT005 BKN014 OVC038 21/20 A2993 RMK AO2 SFC VIS 2 VIS 1V3 CIG 012V016 P0005 $=
201310070052 METAR KATL 070052Z 36006KT 1 1/2SM RA BR FEW004 BKN020 OVC040 21/20 A2993 RMK AO2 SLP127 VIS 1V3 CIG 017V023 P0082 T02060200 $=
201310070039 SPECI KATL 070039Z 31009KT 1 1/2SM R09R/5500VP6000FT +RA BR SCT004 BKN018 OVC038 21/20 A2993 RMK AO2 VIS 1V3 P0060 $=
201310070023 SPECI KATL 070023Z 31003KT 2SM RA BR SCT006 BKN018 OVC040 21/20 A2992 RMK AO2 VIS 1V3 P0046 $=
201310070021 SPECI KATL 070021Z 00000KT 2SM +RA BR SCT006 BKN018 OVC040 21/20 A2992 RMK AO2 VIS 1V3 P0045 $=
201310070009 SPECI KATL 070009Z 33006KT 1 1/2SM R09R/5000VP6000FT +RA BR BKN006 BKN018 OVC042 21/20 A2992 RMK AO2 TWR VIS 2 VIS 1V3 CIG 004V008 P0026 $=
201310070005 SPECI KATL 070005Z 27003KT 1SM R09R/5000VP6000FT +RA BR SCT008 BKN020 OVC044 21/20 A2992 RMK AO2 P0014 $=
201310070001 SPECI KATL 070001Z 28008KT 2SM +RA BR SCT008 BKN028 OVC046 21/20 A2993 RMK AO2 P0009 $=
201310062352 METAR KATL 062352Z 31013KT 3SM +RA BR FEW006 SCT012 OVC032 21/21 A2992 RMK AO2 TSE26 SLP125 TS MOVD NE P0072 60109 T02110206 10289 20211 51013 $=
201310062350 SPECI KATL 062350Z 30009KT 4SM RA BR FEW006 SCT012 OVC032 21/21 A2992 RMK AO2 TSE26 TS MOVD NE P0070 $=
201310062327 SPECI KATL 062327Z 32008KT 7SM -RA SCT014 BKN034 OVC070 21/21 A2991 RMK AO2 TSE26 TS MOVD NE OCNL LTGIC DSNT NE-SE CB DSNT NE-SE P0064 $=
201310062319 SPECI KATL 062319Z 31009KT 6SM -TSRA BR SCT014 BKN032CB OVC065 21/21 A2992 RMK AO2 OCNL LTGIC VC NE-SE TS VC NE-SE MOV NE P0063 $=
201310062314 SPECI KATL 062314Z 31010KT 2SM R09R/6000VP6000FT TSRA BR SCT010 BKN026CB OVC050 21/21 A2992 RMK AO2 OCNL LTGIC NE-SE TS NE-SE MOV NE P0063 $=
201310062252 METAR KATL 062252Z 27008G23KT 3/4SM R09R/3500VP6000FT +TSRA BR BKN014 BKN031CB OVC065 21/21 A2991 RMK AO2 PK WND 28026/2241 TWR VIS 1 1/2 TSB46RAB2155 SLP121 OCNL LTGICCA OHD-ALQDS TS OHD-ALQDS MOV NE P0037 T02110206 $=
201310062250 SPECI KATL 062250Z 26012G26KT 3/4SM R09R/3500VP6000FT +TSRA BR BKN014 BKN031CB OVC065 21/21 A2991 RMK AO2 PK WND 28026/2241 TWR VIS 1 1/2 TSB46RAB2155 OCNL LTGICCA OHD-ALQDS TS OHD-ALQDS MOV NE P0025 $=
201310062247 SPECI KATL 062247Z 26014G26KT 2SM R09R/4000VP6000FT +TSRA BR BKN014 BKN031CB BKN065 OVC200 22/21 A2991 RMK AO2 PK WND 28026/2241 TWR VIS 3 TSB46RAB2155 VIS SW-NW 1 OCNL LTGICCA SW-NW TS SW-NW MOV NE P0013 $=
201310062152 METAR KATL 062152Z 14005KT 10SM FEW036CB BKN070 BKN095 OVC200 26/18 A2988 RMK AO2 SLP110 CB VC SW-W MOV NE VCSH SW-W T02610183 $=
201310062052 METAR KATL 062052Z 16006KT 10SM SCT045 BKN100 OVC220 27/17 A2989 RMK AO2 SLP113 T02670172 56022 $=
201310061952 METAR KATL 061952Z 11009KT 10SM SCT045 BKN070 BKN120 BKN250 28/18 A2990 RMK AO2 SLP116 T02830178 $=
201310061852 METAR KATL 061852Z 16007KT 10SM BKN045 BKN070 BKN250 28/18 A2993 RMK AO2 SLP126 T02830178 $=
201310061752 METAR KATL 061752Z 14008KT 10SM BKN045 BKN055 BKN250 27/17 A2996 RMK AO2 SLP136 T02720172 10278 20189 58019 $=
201310061652 METAR KATL 061652Z 13009KT 10SM SCT040 SCT055 BKN250 27/17 A2998 RMK AO2 SLP144 T02720172 $=
201310061552 METAR KATL 061552Z 19007KT 10SM FEW040 SCT120 SCT250 26/17 A3001 RMK AO2 SLP153 T02610172 $=
201310061452 METAR KATL 061452Z 18007KT 10SM FEW045 SCT250 24/17 A3002 RMK AO2 SLP156 T02440172 58004 $=
201310061352 METAR KATL 061352Z 14003KT 10SM FEW042 SCT220 22/18 A3003 RMK AO2 SLP160 T02220178 $=
201310061252 METAR KATL 061252Z VRB03KT 10SM SCT050 21/18 A3003 RMK AO2 SLP161 T02060178 $=
201310061152 METAR KATL 061152Z 00000KT 10SM BKN050 19/17 A3003 RMK AO2 SLP161 T01890172 10206 20183 53010 $=
201310061052 METAR KATL 061052Z 00000KT 10SM BKN050 18/17 A3002 RMK AO2 SLP158 T01830167 $=
201310060952 METAR KATL 060952Z 18003KT 10SM CLR 18/17 A3001 RMK AO2 SLP152 T01830167 $=
201310060852 METAR KATL 060852Z 15004KT 10SM CLR 19/17 A3000 RMK AO2 SLP149 T01940172 56009 $=
201310060752 METAR KATL 060752Z 16003KT 10SM CLR 19/17 A3001 RMK AO2 SLP153 T01940172 $=
201310060652 METAR KATL 060652Z 00000KT 10SM CLR 19/17 A3002 RMK AO2 SLP156 T01940172 $=
201310060552 METAR KATL 060552Z 18003KT 10SM CLR 20/17 A3003 RMK AO2 SLP159 T02000172 10256 20200 58014 $=
201310060452 METAR KATL 060452Z 15004KT 10SM CLR 22/17 A3004 RMK AO2 SLP163 T02170172 402890178 $=
201310060352 METAR KATL 060352Z 14004KT 10SM CLR 22/17 A3006 RMK AO2 SLP170 T02220172 $=
201310060252 METAR KATL 060252Z 16004KT 10SM CLR 22/18 A3007 RMK AO2 SLP174 T02220178 50007 $=
201310060152 METAR KATL 060152Z 14003KT 10SM CLR 23/18 A3007 RMK AO2 SLP175 T02330178 $=
201310060052 METAR KATL 060052Z 15003KT 10SM CLR 24/18 A3006 RMK AO2 SLP170 T02390178 $=
201310052352 METAR KATL 052352Z 14003KT 10SM CLR 26/17 A3005 RMK AO2 SLP167 T02560172 10289 20256 55003 $=
201310052252 METAR KATL 052252Z 15005KT 10SM FEW048 27/17 A3004 RMK AO2 SLP165 T02670167 $=
201310052152 METAR KATL 052152Z 14005KT 10SM FEW050 28/17 A3004 RMK AO2 SLP165 T02830167 $=
201310052052 METAR KATL 052052Z 14006KT 10SM FEW050 28/16 A3006 RMK AO2 SLP169 T02830161 56018 $=
201310051952 METAR KATL 051952Z 16005KT 10SM SCT050 29/17 A3007 RMK AO2 SLP174 T02890167=
201310051852 METAR KATL 051852Z 15004KT 10SM FEW050 28/16 A3008 RMK AO2 SLP178 T02830161=
201310051752 METAR KATL 051752Z 16006KT 10SM FEW040 28/17 A3011 RMK AO2 SLP187 T02830167 10283 20183 58014=
201310051652 METAR KATL 051652Z VRB06KT 10SM FEW040 28/17 A3014 RMK AO2 SLP196 T02780172=
201310051552 METAR KATL 051552Z 10005KT 10SM CLR 27/17 A3015 RMK AO2 SLP201 T02670172=
201310051452 METAR KATL 051452Z 14006KT 10SM CLR 25/17 A3015 RMK AO2 SLP202 T02500167 51003=
201310051352 METAR KATL 051352Z 11004KT 10SM CLR 24/17 A3015 RMK AO2 SLP202 T02390167=
201310051252 METAR KATL 051252Z 07003KT 10SM FEW060 22/17 A3015 RMK AO2 SLP200 T02220172=
201310051152 METAR KATL 051152Z 00000KT 10SM FEW050 19/16 A3014 RMK AO2 SLP200 T01890161 10217 20178 53009=
201310051052 METAR KATL 051052Z 00000KT 10SM CLR 19/16 A3013 RMK AO2 SLP195 T01940161=
201310050952 METAR KATL 050952Z 00000KT 8SM CLR 18/16 A3012 RMK AO2 SLP191 T01830161=
201310050852 METAR KATL 050852Z 00000KT 10SM CLR 21/16 A3012 RMK AO2 SLP189 T02110161 55005=
201310050752 METAR KATL 050752Z 00000KT 8SM CLR 19/16 A3011 RMK AO2 SLP187 T01940161=
201310050652 METAR KATL 050652Z 00000KT 10SM CLR 21/16 A3012 RMK AO2 SLP191 T02060161=
201310050552 METAR KATL 050552Z 00000KT 10SM CLR 22/16 A3013 RMK AO2 SLP193 T02170161 10256 20206 57004=
201310050452 METAR KATL 050452Z 00000KT 10SM CLR 21/17 A3013 RMK AO2 SLP195 T02110167 402940178=
201310050352 METAR KATL 050352Z 00000KT 10SM CLR 22/17 A3014 RMK AO2 SLP198 T02170167=
201310050252 METAR KATL 050252Z 14003KT 10SM CLR 23/17 A3014 RMK AO2 SLP198 T02280172 51008=
201310050152 METAR KATL 050152Z 00000KT 10SM CLR 24/17 A3014 RMK AO2 SLP196 T02390172=
201310050052 METAR KATL 050052Z 00000KT 10SM CLR 24/17 A3013 RMK AO2 SLP194 T02440167=
201310042352 METAR KATL 042352Z 15003KT 10SM CLR 26/16 A3012 RMK AO2 SLP190 T02560161 10294 20250 53003=
201310042252 METAR KATL 042252Z 11005KT 10SM CLR 27/16 A3011 RMK AO2 SLP187 T02720156=
201310042152 METAR KATL 042152Z VRB04KT 10SM FEW050 28/16 A3010 RMK AO2 SLP185 T02830161=
201310042052 METAR KATL 042052Z 00000KT 10SM SCT050 27/16 A3011 RMK AO2 SLP186 T02720156 56013=
201310041952 METAR KATL 041952Z 17003KT 10SM BKN055 29/17 A3012 RMK AO2 SLP189 T02890167=
201310041852 METAR KATL 041852Z 00000KT 10SM BKN050 28/16 A3013 RMK AO2 SLP193 T02830161=
201310041752 METAR KATL 041752Z 00000KT 10SM SCT048 SCT250 28/16 A3015 RMK AO2 SLP200 T02780156 10283 20183 58012=
201310041652 METAR KATL 041652Z 00000KT 10SM FEW050 27/16 A3017 RMK AO2 SLP207 T02720156=
201310041552 METAR KATL 041552Z 14003KT 10SM CLR 27/16 A3018 RMK AO2 SLP210 T02670161=
201310041452 METAR KATL 041452Z 00000KT 10SM FEW065 25/16 A3018 RMK AO2 SLP213 T02500161 51012=
201310041352 METAR KATL 041352Z 00000KT 10SM CLR 23/17 A3018 RMK AO2 SLP212 T02280167=
201310041252 METAR KATL 041252Z 10004KT 10SM FEW065 21/16 A3017 RMK AO2 SLP207 T02060161=
201310041152 METAR KATL 041152Z 09005KT 10SM FEW060 18/16 A3015 RMK AO2 SLP202 T01830156 10211 20178 53014=
201310041052 METAR KATL 041052Z 00000KT 10SM SCT060 19/16 A3014 RMK AO2 SLP197 T01890156=
201310040952 METAR KATL 040952Z 00000KT 10SM FEW060 18/16 A3012 RMK AO2 SLP190 T01830156=
201310040852 METAR KATL 040852Z 00000KT 10SM CLR 20/15 A3011 RMK AO2 SLP186 T02000150 58006=
201310040752 METAR KATL 040752Z 00000KT 10SM CLR 19/16 A3011 RMK AO2 SLP188 T01890156=
201310040652 METAR KATL 040652Z 00000KT 10SM CLR 21/16 A3012 RMK AO2 SLP191 T02060156=
201310040552 METAR KATL 040552Z 00000KT 10SM CLR 21/16 A3013 RMK AO2 SLP192 T02060156 10239 20200 58001=
201310040452 METAR KATL 040452Z 00000KT 10SM CLR 21/16 A3013 RMK AO2 SLP192 T02060156 402780183=
201310040352 METAR KATL 040352Z 00000KT 10SM CLR 21/16 A3013 RMK AO2 SLP195 T02110161=
201310040252 METAR KATL 040252Z 15004KT 10SM CLR 22/16 A3013 RMK AO2 SLP193 T02170161 53009=
201310040152 METAR KATL 040152Z 00000KT 10SM CLR 22/16 A3012 RMK AO2 SLP192 T02220161=
201310040052 METAR KATL 040052Z 00000KT 10SM FEW150 23/16 A3011 RMK AO2 SLP187 T02330156=
201310032352 METAR KATL 032352Z 00000KT 10SM FEW150 24/15 A3010 RMK AO2 SLP186 T02390150 10278 20239 53002=
201310032252 METAR KATL 032252Z 17005KT 10SM FEW150 25/15 A3009 RMK AO2 SLP181 T02500150=
201310032152 METAR KATL 032152Z 19005KT 10SM FEW050 BKN140 26/16 A3009 RMK AO2 SLP182 T02610156=
201310032052 METAR KATL 032052Z 21005KT 10SM FEW050 SCT140 BKN250 26/14 A3010 RMK AO2 SLP182 T02610139 56014=
201310031952 METAR KATL 031952Z 15010KT 10SM FEW055 SCT180 SCT250 27/15 A3010 RMK AO2 SLP183 T02720150=
201310031852 METAR KATL 031852Z 15008KT 10SM SCT055 SCT180 27/14 A3011 RMK AO2 SLP189 T02670139=
201310031752 METAR KATL 031752Z 14005KT 10SM SCT050 SCT180 27/15 A3014 RMK AO2 SLP196 T02670150 10278 20189 58010=
201310031652 METAR KATL 031652Z 14008KT 110V170 10SM SCT048 SCT180 26/14 A3016 RMK AO2 SLP203 T02610144=
201310031552 METAR KATL 031552Z 12004KT 10SM FEW045 SCT180 SCT250 26/16 A3017 RMK AO2 SLP206 T02560156 $=
201310031452 METAR KATL 031452Z VRB03KT 10SM FEW040 SCT150 SCT180 25/15 A3017 RMK AO2 SLP207 T02500150 51013=
201310031352 METAR KATL 031352Z 27003KT 10SM FEW150 SCT180 23/14 A3016 RMK AO2 SLP204 ACC NW-N T02330144=
201310031252 METAR KATL 031252Z 00000KT 10SM FEW150 SCT200 SCT250 21/15 A3014 RMK AO2 SLP201 T02060150=
201310031152 METAR KATL 031152Z 00000KT 10SM FEW150 SCT200 SCT250 19/15 A3013 RMK AO2 SLP195 VIRGA DSNT NE T01890150 10211 20183 51007=
201310031052 METAR KATL 031052Z 00000KT 10SM SCT150 BKN200 BKN250 19/15 A3012 RMK AO2 SLP193 T01890150=
201310030952 METAR KATL 030952Z 15003KT 10SM SCT180 BKN250 18/16 A3011 RMK AO2 SLP189 T01830161=
201310030852 METAR KATL 030852Z 00000KT 10SM BKN180 BKN250 20/16 A3011 RMK AO2 SLP186 T02000161 56008=
201310030752 METAR KATL 030752Z 00000KT 10SM BKN180 BKN250 19/16 A3011 RMK AO2 SLP186 T01940161=
201310030652 METAR KATL 030652Z COR 00000KT 10SM BKN180 OVC250 21/16 A3012 RMK AO2 SLP192 T02060161=
201310030552 METAR KATL 030552Z 00000KT 10SM BKN180 BKN250 21/16 A3013 RMK AO2 SLP194 T02060156 10239 20206 58002=
201310030452 METAR KATL 030452Z 00000KT 10SM BKN150 OVC250 21/16 A3014 RMK AO2 SLP197 T02110156 402780167=
201310030352 METAR KATL 030352Z 00000KT 10SM BKN150 BKN250 21/16 A3015 RMK AO2 SLP201 T02060156=
201310030252 METAR KATL 030252Z 00000KT 10SM BKN150 BKN250 22/16 A3014 RMK AO2 SLP196 T02170156 53011=
201310030152 METAR KATL 030152Z 00000KT 10SM SCT150 BKN200 BKN250 23/15 A3012 RMK AO2 SLP192 T02280150=
201310030052 METAR KATL 030052Z 00000KT 10SM FEW150 BKN200 BKN250 23/16 A3011 RMK AO2 SLP188 T02280156=
201310022352 METAR KATL 022352Z 15003KT 10SM FEW150 BKN200 BKN250 24/15 A3010 RMK AO2 SLP188 T02390150 10278 20239 53005=
201310022252 METAR KATL 022252Z 16004KT 10SM FEW050 SCT150 BKN200 BKN250 25/14 A3009 RMK AO2 SLP184 T02500144=
201310022152 METAR KATL 022152Z VRB03KT 10SM FEW050 BKN200 BKN250 27/13 A3009 RMK AO2 SLP181 T02670133=
201310022052 METAR KATL 022052Z 00000KT 10SM FEW050 SCT070 BKN200 27/14 A3009 RMK AO2 SLP181 T02720144 56015=
201310021952 METAR KATL 021952Z 00000KT 10SM FEW050 SCT070 BKN200 27/13 A3010 RMK AO2 SLP184 T02670133=
201310021852 METAR KATL 021852Z 00000KT 10SM FEW050 BKN070 BKN200 27/14 A3012 RMK AO2 SLP190 T02670139=
201310021752 METAR KATL 021752Z 10006KT 10SM SCT050 BKN200 BKN250 28/15 A3013 RMK AO2 SLP195 MDT CU ALQDS T02780150 10278 20172 58018=
201310021652 METAR KATL 021652Z 11005KT 10SM FEW040 SCT200 SCT250 26/15 A3016 RMK AO2 SLP204 T02610150=
201310021552 METAR KATL 021552Z 00000KT 10SM FEW040 SCT150 SCT250 25/15 A3017 RMK AO2 SLP209 T02500150=
201310021452 METAR KATL 021452Z 00000KT 10SM FEW200 SCT250 24/15 A3019 RMK AO2 SLP214 T02440150 51010=
201310021352 METAR KATL 021352Z 32003KT 10SM FEW200 SCT250 23/16 A3018 RMK AO2 SLP213 T02280156=
201310021252 METAR KATL 021252Z 00000KT 10SM FEW085 SCT200 SCT250 20/16 A3017 RMK AO2 SLP210 T02000161=
201310021152 METAR KATL 021152Z 32004KT 10SM FEW095 SCT200 SCT250 17/14 A3016 RMK AO2 SLP206 T01720144 10194 20167 53009=
201310021052 METAR KATL 021052Z 29004KT 10SM FEW150 SCT250 18/14 A3014 RMK AO2 SLP201 T01780144=
201310020952 METAR KATL 020952Z 00000KT 10SM FEW250 18/14 A3013 RMK AO2 SLP197 T01780144=
201310020852 METAR KATL 020852Z 00000KT 10SM FEW250 18/14 A3013 RMK AO2 SLP194 T01830144 55001=
201310020752 METAR KATL 020752Z 00000KT 10SM FEW250 18/14 A3013 RMK AO2 SLP194 T01780144=
201310020652 METAR KATL 020652Z 00000KT 10SM FEW250 18/15 A3013 RMK AO2 SLP195 T01830150=
201310020552 METAR KATL 020552Z 00000KT 10SM FEW250 19/14 A3013 RMK AO2 SLP196 T01940144 10233 20183 58000=
201310020452 METAR KATL 020452Z 00000KT 10SM FEW250 19/16 A3014 RMK AO2 SLP199 T01890156 402780150=
201310020352 METAR KATL 020352Z 00000KT 10SM CLR 19/16 A3014 RMK AO2 SLP199 T01940156=
201310020252 METAR KATL 020252Z 00000KT 10SM CLR 21/16 A3013 RMK AO2 SLP197 T02060156 51012=
201310020152 METAR KATL 020152Z 00000KT 10SM CLR 21/16 A3013 RMK AO2 SLP195 T02110156=
201310020052 METAR KATL 020052Z 00000KT 10SM CLR 22/16 A3011 RMK AO2 SLP191 T02220156=
201310012352 METAR KATL 012352Z 18004KT 10SM FEW050 23/16 A3010 RMK AO2 SLP186 T02330156 10278 20233 53007=
201310012252 METAR KATL 012252Z 00000KT 10SM BKN050 26/15 A3009 RMK AO2 SLP181 T02560150=
201310012152 METAR KATL 012152Z 00000KT 10SM BKN050 26/14 A3008 RMK AO2 SLP179 T02560144=
201310012052 METAR KATL 012052Z 00000KT 10SM FEW048 26/14 A3008 RMK AO2 SLP177 T02560144 56017=
201310011952 METAR KATL 011952Z 33004KT 10SM BKN048 26/14 A3009 RMK AO2 SLP181 T02610139=
201310011852 METAR KATL 011852Z 00000KT 10SM SCT046 27/14 A3010 RMK AO2 SLP187 T02670144=
201310011752 METAR KATL 011752Z 16004KT 10SM FEW040 25/15 A3013 RMK AO2 SLP195 T02500150 10261 20161 58018=
201310011652 METAR KATL 011652Z 11004KT 10SM FEW040 24/15 A3015 RMK AO2 SLP204 T02440150=
201310011552 METAR KATL 011552Z 00000KT 10SM FEW030 23/14 A3017 RMK AO2 SLP212 T02330144=
201310011452 METAR KATL 011452Z VRB05KT 10SM FEW065 SCT150 22/14 A3018 RMK AO2 SLP214 T02220144 51011=
201310011352 METAR KATL 011352Z 00000KT 10SM FEW060 SCT150 20/15 A3018 RMK AO2 SLP212 T02000150=
201310011252 METAR KATL 011252Z 00000KT 10SM BKN055 18/15 A3016 RMK AO2 SLP206 T01830150=
