##########################################################
# Query made at 04/19/2024 23:32:09 UTC
# Time interval: from 03/01/2013 12:00  to 03/31/2013 12:59  UTC
##########################################################

##########################################################
# KATL, Atlanta, Hartsfield - Jackson Atlanta International Airport (United States)
# WMO index: 72219. WIGOS ID: 0-20000-0-72219
# Latitude 33-38-59N. Longitude 084-25-00W. Altitude 312 m.
##########################################################

201303311252 METAR KATL 311252Z 24010KT 7SM BKN012 BKN016 BKN030 15/13 A2999 RMK AO2 SLP153 T01500128=
201303311222 SPECI KATL 311222Z 25008KT 7SM BKN012 BKN018 OVC029 15/13 A2998 RMK AO2=
201303311152 METAR KATL 311152Z 24007KT 7SM SCT009 BKN021 BKN042 14/13 A2998 RMK AO2 SLP148 60000 70027 T01440128 10150 20139 53003=
201303311052 METAR KATL 311052Z 24009KT 8SM FEW009 BKN013 OVC020 15/13 A2996 RMK AO2 SLP142 T01500128=
201303311049 SPECI KATL 311049Z 25008KT 8SM FEW009 BKN013 OVC020 15/13 A2996 RMK AO2=
201303311017 SPECI KATL 311017Z 24010G16KT 8SM FEW009 BKN021 OVC027 15/13 A2996 RMK AO2=
201303310952 METAR KATL 310952Z 24010KT 6SM BR SCT007 BKN014 OVC024 14/13 A2996 RMK AO2 RAB13E48 SLP140 P0000 T01440128=
201303310939 SPECI KATL 310939Z 22010KT 6SM -RA BR FEW007 BKN014 OVC030 14/13 A2996 RMK AO2 RAB13 P0000=
201303310916 SPECI KATL 310916Z 22008KT 8SM -RA FEW009 BKN028 OVC043 14/13 A2996 RMK AO2 RAB13 P0000=
201303310852 METAR KATL 310852Z 22010KT 10SM FEW029 BKN050 OVC080 14/13 A2997 RMK AO2 SLP142 60000 T01440128 58016=
201303310752 METAR KATL 310752Z 21007KT 7SM FEW003 SCT032 OVC070 14/13 A2999 RMK AO2 RAE08 SLP150 P0000 T01390128=
201303310701 SPECI KATL 310701Z 20005KT 2 1/2SM -RA BR SCT003 SCT055 OVC080 14/13 A3000 RMK AO2 P0000=
201303310652 METAR KATL 310652Z 18005KT 2SM -RA BR BKN003 OVC075 14/13 A3000 RMK AO2 TWR VIS 2 1/2 RAB13E30B52 SLP156 CIG 002V004 P0000 T01390128=
201303310552 METAR KATL 310552Z 16003KT 2SM BR BKN003 BKN060 OVC090 14/13 A3001 RMK AO2 TWR VIS 2 1/2 RAB0457E35 SLP159 CIG 002V004 P0001 60023 T01390128 10156 20139 58013=
201303310452 METAR KATL 310452Z 13004KT 2 1/2SM BR BKN004 BKN055 OVC080 14/13 A3003 RMK AO2 RAB0358E40 SLP165 P0001 T01390128 402280111=
201303310352 METAR KATL 310352Z 06004KT 3SM BR SCT006 SCT044 OVC075 14/13 A3004 RMK AO2 SFC VIS 4 RAE17 SLP171 P0001 T01440128=
201303310252 METAR KATL 310252Z 07006KT 3SM -RA BR SCT005 BKN034 OVC065 14/13 A3005 RMK AO2 SLP174 P0005 60020 T01440128 58001=
201303310240 SPECI KATL 310240Z 05006KT 3SM -RA BR SCT005 OVC041 14/13 A3005 RMK AO2 SFC VIS 4 P0004=
201303310152 METAR KATL 310152Z 35006KT 3SM RA BR FEW011 SCT036 OVC055 14/13 A3006 RMK AO2 SLP178 P0008 T01440128=
201303310052 METAR KATL 310052Z 34007KT 4SM -RA BR SCT037 OVC065 15/13 A3005 RMK AO2 SLP176 P0007 T01500128=
201303302352 METAR KATL 302352Z 28005KT 7SM -RA FEW048 BKN065 OVC085 15/13 A3006 RMK AO2 SLP177 P0004 60004 T01500128 10228 20150 53003=
201303302252 METAR KATL 302252Z 29007KT 10SM -RA FEW055 OVC080 19/08 A3004 RMK AO2 RAE2159B52 SLP170 P0000 T01940083=
201303302152 METAR KATL 302152Z 25005KT 10SM -RA SCT060 BKN090 OVC180 21/07 A3004 RMK AO2 RAB37 SLP170 P0000 T02110072=
201303302052 METAR KATL 302052Z 23009KT 10SM SCT065 BKN090 BKN250 22/06 A3005 RMK AO2 SLP170 T02170061 56026=
201303301952 METAR KATL 301952Z 20006KT 10SM FEW050 SCT070 BKN250 22/06 A3007 RMK AO2 SLP177 T02170061=
201303301852 METAR KATL 301852Z 25005KT 10SM SCT060 BKN250 21/07 A3010 RMK AO2 SLP188 T02110072=
201303301752 METAR KATL 301752Z 26007G14KT 10SM SCT055 BKN250 20/07 A3013 RMK AO2 SLP199 T02000067 10206 20111 58020=
201303301652 METAR KATL 301652Z 24005KT 10SM SCT055 BKN250 18/06 A3016 RMK AO2 SLP209 T01830056=
201303301552 METAR KATL 301552Z 11003KT 10SM SCT050 BKN250 17/04 A3018 RMK AO2 SLP218 T01670039=
201303301452 METAR KATL 301452Z 00000KT 10SM BKN060 14/03 A3019 RMK AO2 SLP220 T01440033 50005=
201303301352 METAR KATL 301352Z 09004KT 10SM SCT044 BKN055 BKN250 12/02 A3019 RMK AO2 SLP222 T01220022=
201303301252 METAR KATL 301252Z 12004KT 10SM BKN048 BKN250 12/02 A3018 RMK AO2 SLP219 T01170017=
201303301152 METAR KATL 301152Z 05005KT 10SM SCT050 BKN065 BKN090 12/01 A3017 RMK AO2 SLP214 60000 T01170011 10139 20111 53008=
201303301052 METAR KATL 301052Z 05007KT 10SM BKN065 BKN090 12/01 A3015 RMK AO2 SLP208 T01170006=
201303300952 METAR KATL 300952Z 05005KT 10SM BKN070 BKN090 12/01 A3015 RMK AO2 SLP206 T01170006=
201303300852 METAR KATL 300852Z 05007KT 10SM BKN070 12/01 A3015 RMK AO2 RAE0753 SLP205 60000 T01220006 56006=
201303300752 METAR KATL 300752Z 02003KT 10SM -RA OVC070 13/02 A3015 RMK AO2 RAB42 SLP206 P0000 T01330017=
201303300652 METAR KATL 300652Z 32005KT 10SM OVC070 13/01 A3016 RMK AO2 SLP209 T01330011=
201303300552 METAR KATL 300552Z 09007KT 10SM OVC080 13/01 A3016 RMK AO2 SLP212 T01330011 10183 20133 58010=
201303300452 METAR KATL 300452Z 09007KT 10SM FEW080 OVC100 14/01 A3018 RMK AO2 SLP216 T01390011 402060050=
201303300352 METAR KATL 300352Z 09006KT 10SM FEW085 OVC100 14/01 A3019 RMK AO2 SLP220 T01440011=
201303300252 METAR KATL 300252Z 07009KT 10SM BKN085 BKN100 OVC150 16/00 A3019 RMK AO2 SLP223 T01560000 51009=
201303300152 METAR KATL 300152Z 05011KT 10SM SCT090 BKN140 BKN250 17/00 A3019 RMK AO2 SLP223 T01670000=
201303300052 METAR KATL 300052Z 00000KT 10SM BKN085 BKN150 BKN250 17/02 A3018 RMK AO2 SLP219 T01670017=
201303292352 METAR KATL 292352Z 21003KT 10SM SCT090 BKN120 OVC250 18/01 A3017 RMK AO2 SLP215 T01830011 10206 20178 56006=
201303292252 METAR KATL 292252Z 20004KT 10SM SCT085 BKN110 BKN250 19/01 A3017 RMK AO2 SLP215 T01890006=
201303292152 METAR KATL 292152Z 23006KT 10SM SCT080 BKN110 BKN250 19/01 A3017 RMK AO2 SLP217 T01890011=
201303292052 METAR KATL 292052Z 24003KT 10SM BKN080 BKN100 BKN250 19/01 A3019 RMK AO2 SLP221 ACSL DSNT NE-S T01940006 56027=
201303291952 METAR KATL 291952Z VRB03KT 10SM FEW080 SCT090 SCT250 20/01 A3020 RMK AO2 SLP225 ACSL ALQDS T02000006=
201303291852 METAR KATL 291852Z VRB05KT 10SM FEW090 SCT180 SCT250 19/00 A3024 RMK AO2 SLP239 ACSL NW-N T01890000=
201303291752 METAR KATL 291752Z 26007KT 220V280 10SM FEW080 18/M01 A3027 RMK AO2 SLP250 T01781006 10178 20056 58020=
201303291652 METAR KATL 291652Z 00000KT 10SM FEW075 16/M02 A3030 RMK AO2 SLP261 T01611017=
201303291552 METAR KATL 291552Z VRB03KT 10SM FEW075 15/M02 A3032 RMK AO2 SLP269 T01501017=
201303291452 METAR KATL 291452Z 17005KT 10SM FEW090 SCT250 13/M03 A3033 RMK AO2 SLP272 T01281033 50006=
201303291352 METAR KATL 291352Z 13005KT 10SM FEW100 SCT250 11/M02 A3034 RMK AO2 SLP274 T01061017=
201303291252 METAR KATL 291252Z 10003KT 10SM FEW090 SCT250 09/M01 A3032 RMK AO2 SLP270 T00891011=
201303291152 METAR KATL 291152Z 10003KT 10SM FEW090 06/M01 A3031 RMK AO2 SLP267 T00611006 10094 20050 53008=
201303291052 METAR KATL 291052Z 00000KT 10SM FEW090 08/M02 A3030 RMK AO2 SLP262 T00831022=
201303290952 METAR KATL 290952Z 04004KT 10SM FEW090 09/M02 A3029 RMK AO2 SLP256 T00891017=
201303290852 METAR KATL 290852Z 00000KT 10SM FEW090 07/M01 A3029 RMK AO2 SLP258 T00671011 58005=
201303290752 METAR KATL 290752Z 00000KT 10SM FEW090 08/M02 A3030 RMK AO2 SLP260 T00831017=
201303290652 METAR KATL 290652Z 00000KT 10SM CLR 07/M01 A3030 RMK AO2 SLP261 T00721011=
201303290552 METAR KATL 290552Z 34005KT 10SM CLR 09/M02 A3031 RMK AO2 SLP263 T00891017 10139 20089 51002=
201303290452 METAR KATL 290452Z 33004KT 10SM CLR 09/M02 A3030 RMK AO2 SLP263 T00941017 401670022=
201303290352 METAR KATL 290352Z 31004KT 10SM CLR 11/M02 A3030 RMK AO2 SLP263 T01061022=
201303290252 METAR KATL 290252Z 30004KT 10SM CLR 12/M02 A3030 RMK AO2 SLP261 T01171022 53016=
201303290152 METAR KATL 290152Z 31003KT 10SM CLR 12/M03 A3028 RMK AO2 SLP255 T01171028=
201303290052 METAR KATL 290052Z 34003KT 10SM CLR 13/M03 A3026 RMK AO2 SLP252 T01331033=
201303282352 METAR KATL 282352Z 33006KT 10SM CLR 14/M03 A3025 RMK AO2 SLP246 T01391033 10167 20139 53004=
201303282252 METAR KATL 282252Z 31012G16KT 10SM CLR 15/M04 A3024 RMK AO2 SLP244 T01501039=
201303282152 METAR KATL 282152Z 32014G18KT 10SM CLR 16/M04 A3024 RMK AO2 SLP242 T01611039=
201303282052 METAR KATL 282052Z 32011G21KT 10SM FEW080 16/M04 A3024 RMK AO2 SLP242 T01611039 56024=
201303281952 METAR KATL 281952Z 31012G21KT 10SM FEW150 16/M04 A3026 RMK AO2 SLP248 T01561039=
201303281852 METAR KATL 281852Z 33004G16KT 10SM CLR 14/M05 A3028 RMK AO2 SLP257 T01441050=
201303281752 METAR KATL 281752Z 35007G16KT 290V020 10SM CLR 14/M07 A3031 RMK AO2 SLP266 T01391072 10139 20028 58011=
201303281652 METAR KATL 281652Z 31010G19KT 10SM CLR 13/M06 A3033 RMK AO2 SLP275 T01281061=
201303281552 METAR KATL 281552Z 32012G17KT 10SM FEW150 11/M06 A3034 RMK AO2 SLP278 T01111056=
201303281452 METAR KATL 281452Z 32007KT 10SM FEW150 10/M03 A3034 RMK AO2 SLP279 T01001033 51011=
201303281352 METAR KATL 281352Z 32004KT 10SM FEW150 07/M03 A3034 RMK AO2 SLP277 T00721028=
201303281252 METAR KATL 281252Z 31006KT 10SM SCT130 04/M03 A3033 RMK AO2 SLP275 T00441028=
201303281152 METAR KATL 281152Z 31005KT 10SM BKN130 03/M03 A3031 RMK AO2 SLP270 T00281028 10050 20022 53016=
201303281052 METAR KATL 281052Z 32006KT 10SM FEW110 SCT250 02/M03 A3030 RMK AO2 SLP263 T00221033=
201303280952 METAR KATL 280952Z 32005KT 10SM CLR 02/M03 A3028 RMK AO2 SLP257 T00221033=
201303280852 METAR KATL 280852Z 28003KT 10SM CLR 03/M03 A3026 RMK AO2 SLP252 T00331033 57003=
201303280752 METAR KATL 280752Z 29004KT 10SM CLR 04/M03 A3027 RMK AO2 SLP253 T00391033=
201303280652 METAR KATL 280652Z 31003KT 10SM CLR 04/M03 A3027 RMK AO2 SLP253 T00391033=
201303280552 METAR KATL 280552Z 28004KT 10SM FEW250 04/M03 A3027 RMK AO2 SLP255 T00441033 10094 20044 55003=
201303280452 METAR KATL 280452Z 28004KT 10SM FEW250 05/M04 A3027 RMK AO2 SLP255 T00501039 401281011=
201303280352 METAR KATL 280352Z 30005KT 10SM FEW250 06/M03 A3028 RMK AO2 SLP257 T00611033=
201303280252 METAR KATL 280252Z 30003KT 10SM FEW250 07/M04 A3028 RMK AO2 SLP259 T00671039 51013=
201303280152 METAR KATL 280152Z 30008KT 10SM FEW250 08/M04 A3027 RMK AO2 SLP256 T00781039=
201303280052 METAR KATL 280052Z 28006KT 10SM FEW250 08/M04 A3026 RMK AO2 SLP252 T00781039=
201303272352 METAR KATL 272352Z 28008KT 10SM FEW200 10/M04 A3024 RMK AO2 SLP246 T01001044 10128 20094 55001=
201303272252 METAR KATL 272252Z 28008KT 10SM CLR 12/M04 A3024 RMK AO2 SLP244 T01171039=
201303272152 METAR KATL 272152Z 33010G17KT 10SM CLR 12/M06 A3024 RMK AO2 SLP245 T01221056=
201303272052 METAR KATL 272052Z 32006KT 9SM CLR 12/M05 A3024 RMK AO2 SLP246 T01171050 56020=
201303271952 METAR KATL 271952Z 31014G17KT 9SM CLR 11/M05 A3026 RMK AO2 SLP252 T01111050=
201303271852 METAR KATL 271852Z 32009G18KT 290V350 10SM CLR 11/M04 A3028 RMK AO2 SLP260 T01061044=
201303271752 METAR KATL 271752Z 32007G17KT 10SM CLR 09/M04 A3030 RMK AO2 SLP267 T00941044 10094 21006 58010=
201303271652 METAR KATL 271652Z 33010G15KT 10SM CLR 08/M05 A3032 RMK AO2 SLP274 T00831050=
201303271552 METAR KATL 271552Z 01008KT 10SM CLR 07/M05 A3033 RMK AO2 SLP276 T00671050=
201303271452 METAR KATL 271452Z 35014G20KT 10SM FEW040 06/M06 A3033 RMK AO2 SLP278 T00561056 50014=
201303271352 METAR KATL 271352Z 35011G17KT 10SM CLR 03/M05 A3033 RMK AO2 SLP279 T00331050=
201303271252 METAR KATL 271252Z 32010KT 10SM CLR 01/M04 A3032 RMK AO2 SLP275 T00111044=
201303271152 METAR KATL 271152Z 33008KT 10SM CLR M01/M05 A3029 RMK AO2 SLP267 T10061050 10006 21011 53011=
201303271052 METAR KATL 271052Z 32009KT 10SM CLR M01/M05 A3028 RMK AO2 SLP262 T10061050=
201303270952 METAR KATL 270952Z 32009KT 10SM CLR M01/M05 A3026 RMK AO2 SLP258 T10111050=
201303270852 METAR KATL 270852Z 32009KT 10SM CLR M01/M05 A3026 RMK AO2 SLP254 T10111050 55005=
201303270752 METAR KATL 270752Z 32006KT 10SM CLR M01/M06 A3026 RMK AO2 SLP254 T10061056=
201303270652 METAR KATL 270652Z 32006KT 10SM CLR 00/M06 A3027 RMK AO2 SLP258 T00001056=
201303270552 METAR KATL 270552Z 32007KT 10SM CLR 01/M06 A3027 RMK AO2 SLP259 T00061061 10039 20006 50002=
201303270452 METAR KATL 270452Z 32008KT 10SM CLR 01/M07 A3028 RMK AO2 SLP261 T00111067 400561006=
201303270352 METAR KATL 270352Z 33011KT 10SM FEW040 02/M07 A3028 RMK AO2 SLP261 T00171067=
201303270252 METAR KATL 270252Z 33018G23KT 10SM BKN040 03/M07 A3027 RMK AO2 PK WND 36028/0209 SLP257 T00281067 51014=
201303270152 METAR KATL 270152Z 33016G23KT 10SM OVC040 03/M06 A3026 RMK AO2 SLP254 T00331056=
201303270052 METAR KATL 270052Z 33011G19KT 10SM BKN040 OVC048 03/M05 A3024 RMK AO2 SLP248 T00331050=
201303262352 METAR KATL 262352Z 31013G20KT 10SM BKN043 OVC050 04/M05 A3022 RMK AO2 SLP243 60000 T00391050 10056 20039 53014=
201303262252 METAR KATL 262252Z 32014KT 10SM BKN047 OVC055 04/M05 A3020 RMK AO2 SLP236 BINOVC T00441050=
201303262152 METAR KATL 262152Z 32012G20KT 10SM BKN047 OVC055 04/M05 A3019 RMK AO2 SLP230 BINOVC T00441050=
201303262052 METAR KATL 262052Z 30014G21KT 10SM BKN045 BKN055 05/M05 A3018 RMK AO2 SLP228 60000 T00501050 52003=
201303261952 METAR KATL 261952Z 32012G22KT 10SM BKN045 BKN050 OVC060 04/M05 A3017 RMK AO2 SLP225 T00441050=
201303261852 METAR KATL 261852Z 31014KT 10SM BKN042 BKN049 OVC055 04/M05 A3018 RMK AO2 SNB32E51 SLP227 SHSN S P0000 T00441050=
201303261752 METAR KATL 261752Z 32017G23KT 10SM FEW035 SCT040 OVC050 04/M04 A3017 RMK AO2 PK WND 32026/1738 SLP224 SHSN DSNT N BINOVC N 60000 T00391044 10044 20006 50008=
201303261652 METAR KATL 261652Z 29014KT 10SM BKN037 BKN040 OVC050 03/M04 A3018 RMK AO2 SLP226 T00281044=
201303261552 METAR KATL 261552Z 33014G21KT 10SM BKN030 BKN040 BKN050 03/M04 A3017 RMK AO2 SLP224 T00331044=
201303261452 METAR KATL 261452Z 32013KT 10SM FEW030 BKN040 OVC050 03/M04 A3014 RMK AO2 PK WND 30026/1357 SLP216 60000 T00281044 51022=
201303261352 METAR KATL 261352Z 30015G20KT 10SM FEW030 SCT045 03/M04 A3012 RMK AO2 SNB1258E14 SLP207 P0000 T00331039=
201303261252 METAR KATL 261252Z 31013KT 10SM FEW027 BKN048 02/M04 A3010 RMK AO2 SLP201 T00171044=
201303261152 METAR KATL 261152Z 30011KT 10SM FEW030 BKN046 01/M04 A3008 RMK AO2 SLP193 T00061039 10006 21006 53010=
201303261052 METAR KATL 261052Z 29009KT 10SM FEW018 SCT041 00/M04 A3006 RMK AO2 SLP186 T00001044=
201303260952 METAR KATL 260952Z 29011KT 10SM FEW030 SCT044 00/M04 A3005 RMK AO2 SLP181 T00001044=
201303260852 METAR KATL 260852Z 28007KT 10SM BKN044 00/M05 A3005 RMK AO2 SLP182 T00001050 58007=
201303260752 METAR KATL 260752Z 29009KT 10SM BKN044 00/M05 A3006 RMK AO2 SLP185 T00001050=
201303260652 METAR KATL 260652Z 29011KT 10SM FEW055 00/M05 A3007 RMK AO2 SLP188 T00001050=
201303260552 METAR KATL 260552Z 29012KT 10SM FEW055 01/M06 A3007 RMK AO2 SLP189 60000 T00061056 10039 20006 51004=
201303260452 METAR KATL 260452Z 30015G19KT 10SM FEW055 01/M06 A3007 RMK AO2 SLP188 T00111061 400780011=
201303260352 METAR KATL 260352Z 29011KT 10SM BKN055 01/M06 A3008 RMK AO2 SLP192 T00111061=
201303260252 METAR KATL 260252Z 30018G25KT 10SM FEW048 SCT060 02/M06 A3006 RMK AO2 PK WND 30027/0233 SNB07E21 SLP185 P0000 60000 T00221056 51020=
201303260152 METAR KATL 260152Z 29012G21KT 10SM FEW040 SCT048 BKN065 03/M05 A3004 RMK AO2 SNB01E46 SLP181 SHSN W-NW P0000 T00281050=
201303260052 METAR KATL 260052Z 31015G20KT 10SM FEW045 OVC060 03/M06 A3002 RMK AO2 SLP174 VIRGA SE-OHD-NW T00331061=
201303252352 METAR KATL 252352Z 32014G22KT 10SM FEW045 BKN060 04/M06 A3000 RMK AO2 SLP165 VIRGA NW-NE T00391061 10078 20039 53030=
201303252252 METAR KATL 252252Z 32018G29KT 10SM BKN055 05/M07 A2996 RMK AO2 PK WND 32029/2250 SLP153 T00501067=
201303252152 METAR KATL 252152Z 31024G29KT 10SM SCT060 07/M06 A2993 RMK AO2 PK WND 31030/2058 SLP141 T00671061=
201303252052 METAR KATL 252052Z 31019KT 10SM FEW055 07/M06 A2991 RMK AO2 PK WND 30033/1953 SLP132 T00671061 53001=
201303251952 METAR KATL 251952Z 30021G29KT 10SM FEW050 08/M05 A2990 RMK AO2 PK WND 31032/1928 SLP129 T00781050=
201303251852 METAR KATL 251852Z 32018G25KT 10SM SCT050 07/M04 A2990 RMK AO2 PK WND 31027/1825 SLP130 T00671044=
201303251752 METAR KATL 251752Z 30019G28KT 10SM SCT048 07/M04 A2991 RMK AO2 PK WND 30028/1743 SLP131 T00671039 10067 20022 50008=
201303251652 METAR KATL 251652Z 28020G28KT 10SM BKN045 06/M04 A2991 RMK AO2 PK WND 29028/1650 SLP134 T00561044=
201303251552 METAR KATL 251552Z 29021G27KT 10SM BKN042 04/M04 A2991 RMK AO2 PK WND 31032/1519 SLP131 T00441044=
201303251452 METAR KATL 251452Z 27018G27KT 10SM BKN040 04/M04 A2988 RMK AO2 PK WND 28031/1358 SLP123 T00441044 51026=
201303251352 METAR KATL 251352Z 29021G28KT 10SM BKN040 03/M06 A2986 RMK AO2 PK WND 30035/1315 SLP116 T00281056=
201303251252 METAR KATL 251252Z 30018G28KT 10SM BKN041 03/M06 A2983 RMK AO2 PK WND 31028/1244 SLP103 T00281056=
201303251152 METAR KATL 251152Z 30014G27KT 10SM BKN043 03/M06 A2980 RMK AO2 PK WND 29029/1111 SLP095 70004 T00281061 10050 20028 53014=
201303251052 METAR KATL 251052Z 29015G22KT 10SM OVC041 03/M04 A2979 RMK AO2 PK WND 29026/1005 SLP089 T00281044=
201303250952 METAR KATL 250952Z 30017G28KT 10SM OVC045 03/M05 A2977 RMK AO2 PK WND 30035/0918 SLP084 T00331050=
201303250852 METAR KATL 250852Z 29012G21KT 10SM BKN034 04/M03 A2976 RMK AO2 PK WND 29033/0808 SLP080 T00391033 51010=
201303250752 METAR KATL 250752Z 29018G25KT 10SM BKN038 04/M03 A2975 RMK AO2 PK WND 31030/0730 SLP076 T00391033=
201303250652 METAR KATL 250652Z 29015G28KT 10SM BKN042 05/M04 A2974 RMK AO2 PK WND 30031/0610 SLP075 T00501039=
201303250552 METAR KATL 250552Z 28013KT 10SM BKN042 05/M02 A2973 RMK AO2 PK WND 32030/0506 SLP069 T00501022 10133 20050 51017=
201303250452 METAR KATL 250452Z 29018G28KT 10SM BKN038 06/M02 A2972 RMK AO2 PK WND 28029/0407 SLP067 T00561017 401330056=
201303250352 METAR KATL 250352Z 30018G26KT 10SM BKN039 06/M02 A2971 RMK AO2 PK WND 31032/0337 SLP062 T00611017=
201303250252 METAR KATL 250252Z 27020G30KT 10SM BKN037 BKN050 09/02 A2968 RMK AO2 PK WND 28030/0252 PRESRR SLP050 T00890017 52036=
201303250152 METAR KATL 250152Z 27011G18KT 10SM FEW035 SCT055 10/04 A2963 RMK AO2 SLP034 T01000044=
201303250052 METAR KATL 250052Z 27014G28KT 10SM FEW032 SCT060 11/06 A2961 RMK AO2 PK WND 28030/0022 SLP028 T01110056=
201303250007 SPECI KATL 250007Z 28014G26KT 10SM SCT024 BKN040 BKN060 13/09 A2958 RMK AO2 PK WND 28026/0002 TCU DSNT NE-SE=
201303242352 METAR KATL 242352Z 28012G18KT 10SM FEW012 BKN022TCU BKN060 13/11 A2957 RMK AO2 RAB17E44 SLP012 TCU VC NE-SE P0003 60003 T01280106 10128 20106 53002=
201303242340 SPECI KATL 242340Z 31013G19KT 9SM -RA FEW008 BKN023TCU BKN075 12/11 A2956 RMK AO2 RAB17 PRESRR TCU NE-SE P0003=
201303242252 METAR KATL 242252Z 14004KT 9SM FEW009 BKN033TCU BKN075 12/10 A2953 RMK AO2 SLP998 TCU NE-SE & VC SW-NW ACC ALQDS T01220100=
201303242242 SPECI KATL 242242Z 14004KT 9SM SCT007 BKN044 BKN080 12/10 A2953 RMK AO2 TCU DSNT SW-NW ACC N-OHD-S=
201303242152 METAR KATL 242152Z 14006KT 7SM BKN007 OVC025 12/09 A2954 RMK AO2 SLP004 TCU DSNT SW-W T01170094=
201303242052 METAR KATL 242052Z 13004KT 7SM OVC007 11/09 A2956 RMK AO2 SLP011 T01110089 58017=
201303241952 METAR KATL 241952Z 14005KT 10SM OVC009 11/08 A2958 RMK AO2 SLP019 T01060083=
201303241852 METAR KATL 241852Z 18003KT 10SM OVC011 11/08 A2960 RMK AO2 SLP024 T01060083=
201303241836 SPECI KATL 241836Z 00000KT 10SM OVC011 11/08 A2961 RMK AO2=
201303241752 METAR KATL 241752Z 09005KT 10SM OVC009 11/08 A2961 RMK AO2 SLP027 60001 T01060078 10106 20089 55008=
201303241652 METAR KATL 241652Z 07012KT 10SM OVC009 11/08 A2960 RMK AO2 SLP022 T01060083=
201303241552 METAR KATL 241552Z 06011KT 7SM BKN009 OVC013 10/08 A2964 RMK AO2 DZE49 SLP037 P0000 T01000083=
201303241514 SPECI KATL 241514Z 03009KT 2 1/2SM -DZ BR BKN007 OVC014 10/08 A2966 RMK AO2 SFC VIS 3 P0000=
201303241452 METAR KATL 241452Z 06008KT 1 1/2SM -DZ BR OVC007 09/08 A2964 RMK AO2 SLP037 P0001 60001 T00940083 53018=
201303241414 SPECI KATL 241414Z 08009KT 1 1/2SM -DZ BR OVC005 09/08 A2962 RMK AO2 SFC VIS 2 P0001=
201303241352 METAR KATL 241352Z 06008KT 3/4SM -DZ BR OVC005 09/08 A2963 RMK AO2 SFC VIS 1 1/2 SLP032 P0000 T00940083=
201303241322 SPECI KATL 241322Z 06009KT 3/4SM -DZ BR OVC005 09/08 A2962 RMK AO2 SFC VIS 1 1/2 P0000=
201303241318 SPECI KATL 241318Z 07008KT 1 1/2SM -DZ BR OVC005 09/08 A2962 RMK AO2 SFC VIS 2 P0000=
201303241301 SPECI KATL 241301Z 06009KT 2SM -DZ BR OVC004 09/08 A2960 RMK AO2 SFC VIS 3 P0000=
201303241252 METAR KATL 241252Z 07012KT 3SM -DZ BR OVC006 09/08 A2959 RMK AO2 SFC VIS 4 DZB51 SLP020 P0000 T00890078=
201303241152 METAR KATL 241152Z 06010KT 6SM BR OVC006 09/08 A2958 RMK AO2 RAE44 SLP017 P0002 60059 70171 T00940078 10100 20089 56018=
201303241052 METAR KATL 241052Z 09007KT 6SM -RA BR OVC006 09/08 A2960 RMK AO2 RAE05B38 SLP024 P0000 T00890078=
201303240952 METAR KATL 240952Z 09015G20KT 5SM -RA BR OVC006 09/08 A2958 RMK AO2 TSB0857E17 PRESFR SLP016 TS MOV NE P0014 T00890078=
201303240917 SPECI KATL 240917Z 10013G21KT 6SM -RA BR OVC008 09/08 A2962 RMK AO2 TSB0857E17 TS MOV NE P0014=
201303240905 SPECI KATL 240905Z 09012KT 4SM -TSRA BR OVC008CB 09/08 A2963 RMK AO2 TSB0857 OCNL LTGIC NE TS NE MOV NE P0013=
201303240857 SPECI KATL 240857Z 08013G22KT 2 1/2SM +TSRA BR OVC008CB 09/08 A2963 RMK AO2 TSB57 OCNL LTGIC OHD-W TS OHD-W MOV NE P0004=
201303240852 METAR KATL 240852Z 09013G22KT 6SM RA BR OVC008 09/08 A2964 RMK AO2 TSB21E46RAE27B44 SLP036 TS DSPTD P0002 60043 T00890078 58022=
201303240846 SPECI KATL 240846Z 08016KT 6SM -RA BR OVC008CB 09/08 A2963 RMK AO2 TSB21E46RAE27B44 PRESFR TS DSIPTD P0002=
201303240821 SPECI KATL 240821Z 07011KT 6SM -TSRA BR OVC006CB 09/08 A2967 RMK AO2 TSB21 OCNL LTGICCG NW TS NW MOV NE P0002=
201303240752 METAR KATL 240752Z 04013KT 5SM -RA BR BKN006 OVC017 09/08 A2968 RMK AO2 PRESFR SLP049 P0016 T00940083=
201303240652 METAR KATL 240652Z 05011KT 3SM -RA BR BKN006 BKN022 OVC039 09/08 A2969 RMK AO2 TSE20 SLP054 TS DSIPTD P0025 T00940083=
201303240621 SPECI KATL 240621Z 09016G20KT 3SM +RA BR BKN007 OVC012 09/08 A2968 RMK AO2 SFC VIS 5 TSE20 TS DSIPTD P0010=
201303240552 METAR KATL 240552Z 08015KT 3SM TSRA BR OVC006CB 10/09 A2971 RMK AO2 SFC VIS 5 SLP059 FRQ LTGICCG OHD-ALQDS TS OHD-ALQDS MOV NE P0021 60047 T01000089 10122 20100 58040=
201303240452 METAR KATL 240452Z 13008KT 3SM TSRA BR OVC004CB 10/09 A2978 RMK AO2 SFC VIS 4 TSB46 SLP086 OCNL LTGICCG OHD-SE-SW TS OHD-SE-SW MOV NE P0013 T01000089 401330067=
201303240446 SPECI KATL 240446Z 13007KT 3SM TSRA BR BKN004CB OVC007 10/09 A2979 RMK AO2 SFC VIS 4 TSB46 OCNL LTGICCG S-W TS S-W MOV NE P0012 401330067=
201303240352 METAR KATL 240352Z 10008KT 3SM RA BR OVC004 10/09 A2979 RMK AO2 PK WND 07026/0335 SFC VIS 4 PRESRR SLP088 CB DSNT SW P0013 T01000089=
201303240346 SPECI KATL 240346Z 09010KT 3SM -RA BR OVC004 10/09 A2978 RMK AO2 PK WND 07026/0335 CB DSNT SW P0012=
201303240252 METAR KATL 240252Z 12008G15KT 6SM -RA BR OVC007 11/09 A2983 RMK AO2 RAB31 SLP103 CB DSNT S-SW P0000 60000 T01060089 56007=
201303240152 METAR KATL 240152Z 11008KT 7SM OVC008 12/09 A2984 RMK AO2 SLP105 T01170094=
201303240052 METAR KATL 240052Z 09010KT 8SM OVC009 12/09 A2983 RMK AO2 SLP101 T01170094=
201303240047 SPECI KATL 240047Z 09010KT 9SM BKN009 OVC037 12/09 A2983 RMK AO2=
201303240031 SPECI KATL 240031Z 10010KT 9SM BKN010 OVC038 12/09 A2983 RMK AO2=
201303240004 SPECI KATL 240004Z 09010KT 10SM SCT011 OVC036 12/09 A2984 RMK AO2=
201303232352 METAR KATL 232352Z 08010KT 10SM BKN011 BKN021 OVC036 12/09 A2985 RMK AO2 SLP109 T01220094 10133 20117 58004=
201303232252 METAR KATL 232252Z 07012KT 9SM BKN012 BKN035 13/09 A2985 RMK AO2 SLP108 T01280094=
201303232152 METAR KATL 232152Z 09005KT 9SM BKN012 OVC035 13/10 A2986 RMK AO2 SLP113 BINOVC T01330100=
201303232052 SPECI KATL 232052Z 08006KT 9SM OVC014 13/09 A2986 RMK AO2 SLP112 T01330094 56021=
201303232052 METAR KATL 232052Z 08006KT 9SM OVC014 13/09 A2986 RMK AO2 SLP112 T01330094 56021=
201303231952 METAR KATL 231952Z 06006KT 10SM OVC014 13/09 A2987 RMK AO2 SLP116 T01280094=
201303231852 METAR KATL 231852Z 06006KT 8SM OVC012 13/09 A2989 RMK AO2 SLP120 T01280094=
201303231813 SPECI KATL 231813Z 09004KT 8SM OVC010 12/09 A2991 RMK AO2=
201303231752 METAR KATL 231752Z 16003KT 7SM OVC009 12/09 A2992 RMK AO2 SLP134 60065 T01220094 10122 20067 58010=
201303231652 METAR KATL 231652Z 13003KT 7SM OVC008 11/08 A2993 RMK AO2 SLP137 T01060083=
201303231552 METAR KATL 231552Z 15004KT 6SM BR OVC006 09/07 A2995 RMK AO2 RAE1458 SLP145 P0000 T00890072=
201303231514 SPECI KATL 231514Z 14008KT 3SM BR OVC004 08/07 A2994 RMK AO2 SFC VIS 5 RAE1458 P0000=
201303231452 METAR KATL 231452Z 14008G16KT 2 1/2SM -RA BR BKN004 OVC044 07/06 A2995 RMK AO2 SFC VIS 4 TSE04 SLP146 TS DSPTD P0025 60065 T00720061 58008=
201303231434 SPECI KATL 231434Z 12009KT 1 1/2SM RA BR BKN004 OVC050 07/06 A2996 RMK AO2 TWR VIS 2 1/2 TSE04 PRESFR TS DSPTD P0020=
201303231407 SPECI KATL 231407Z 14004KT 2SM RA BR BKN004 OVC032 07/06 A3000 RMK AO2 TWR VIS 2 1/2 TSE04 TS DSPTD P0006=
201303231352 METAR KATL 231352Z 11004KT 2SM TSRA BR SCT004 BKN034CB OVC080 07/06 A3000 RMK AO2 TWR VIS 2 1/2 TSB11 SLP162 OCNL LTGICCG W TS W MOV E P0016 T00670056=
201303231329 SPECI KATL 231329Z 08008KT 2SM TSRA BR SCT006 BKN030CB OVC080 07/06 A2998 RMK AO2 TWR VIS 2 1/2 TSB11 OCNL LTGICCG W TS W MOV E P0009=
201303231317 SPECI KATL 231317Z VRB05KT 2 1/2SM TSRA BR BKN006CB OVC030 07/06 A3001 RMK AO2 TSB11 OCNL LTGICCG W TS W MOV SE P0006=
201303231252 METAR KATL 231252Z 08012KT 2 1/2SM -RA BR FEW006 BKN038 OVC090 07/06 A2996 RMK AO2 TSB04E28 SLP147 TS MOV SE P0024 T00670056=
201303231228 SPECI KATL 231228Z 09010KT 2SM RA BR FEW006 SCT036 OVC042 07/05 A3000 RMK AO2 TWR VIS 2 1/2 TSB04E28 TS MOV SE CB DSNT SE-SW P0017=
201303231204 SPECI KATL 231204Z 05009KT 2 1/2SM TSRA BR FEW036CB OVC044 07/05 A2999 RMK AO2 TSB04 OCNL LTGICCG OHD-SE-SW TS OHD-SE-SW MOV SE P0007=
201303231152 METAR KATL 231152Z 04011KT 2 1/2SM +RA BR SCT038 OVC046 07/05 A2998 RMK AO2 TSB25E44RAB08 SLP154 TS DSIPTD P0022 60022 70022 T00720050 10089 20072 53013=
201303231144 SPECI KATL 231144Z 05012KT 2 1/2SM +RA BR OVC039 07/05 A2997 RMK AO2 TSB25E44RAB08 TS DSIPTD P0017=
201303231137 SPECI KATL 231137Z 02009KT 4SM TSRA BR BKN031CB OVC042 07/05 A2999 RMK AO2 TSB25RAB08 OCNL LTGICCG W-N-NE TS W-N-NE MOV E P0010=
201303231125 SPECI KATL 231125Z 01009KT 1 1/2SM +TSRA BKN031CB OVC042 08/04 A2999 RMK AO2 TSB25RAB08 OCNL LTGICCG OHD-W-NW TS OHD-W-NW MOV E P0003=
201303231052 METAR KATL 231052Z 07008KT 10SM OVC035 08/03 A2994 RMK AO2 SLP141 T00830028=
201303230952 METAR KATL 230952Z 08007KT 10SM OVC033 08/03 A2992 RMK AO2 SLP131 T00830028=
201303230852 METAR KATL 230852Z 13005KT 10SM OVC034 09/02 A2994 RMK AO2 SLP139 T00890022 58014=
201303230752 METAR KATL 230752Z 13006KT 10SM BKN038 OVC055 08/02 A2995 RMK AO2 SLP142 T00830022=
201303230652 METAR KATL 230652Z 09005KT 10SM OVC044 08/03 A2998 RMK AO2 SLP153 T00830028=
201303230552 METAR KATL 230552Z 11005KT 10SM FEW022 OVC038 08/03 A2998 RMK AO2 RAB04E18 SLP154 P0000 60000 T00830028 10094 20083 58012=
201303230541 SPECI KATL 230541Z 11005KT 10SM SCT022 OVC038 08/03 A2998 RMK AO2 RAB04E18 P0000=
201303230509 SPECI KATL 230509Z 14004KT 10SM -RA BKN022 OVC045 08/03 A3000 RMK AO2 RAB04 P0000=
201303230452 METAR KATL 230452Z 12003KT 10SM SCT022 BKN030 OVC045 09/02 A3000 RMK AO2 SLP163 T00890022 401060039=
201303230416 SPECI KATL 230416Z 14004KT 10SM SCT026 BKN035 OVC050 09/02 A3001 RMK AO2=
201303230352 METAR KATL 230352Z 14003KT 10SM OVC028 09/02 A3002 RMK AO2 SLP168 T00890017=
201303230252 METAR KATL 230252Z 15006KT 10SM OVC038 09/01 A3002 RMK AO2 SLP168 T00940006 52005=
201303230152 METAR KATL 230152Z 15005KT 10SM BKN045 OVC070 09/01 A3002 RMK AO2 SLP169 T00940006=
201303230052 METAR KATL 230052Z 13004KT 10SM SCT055 BKN070 BKN150 09/00 A3000 RMK AO2 SLP164 T00940000=
201303222352 METAR KATL 222352Z 15005KT 10SM BKN060 BKN075 OVC150 09/M01 A3000 RMK AO2 SLP164 T00941006 10106 20078 51009=
201303222252 METAR KATL 222252Z 16005KT 10SM BKN060 BKN075 OVC150 10/M01 A2999 RMK AO2 SLP160 T01001006=
201303222152 METAR KATL 222152Z 18005KT 10SM BKN070 OVC150 10/M01 A2998 RMK AO2 SLP157 T01001006=
201303222052 METAR KATL 222052Z VRB06KT 10SM BKN055 BKN080 BKN150 11/M01 A2998 RMK AO2 SLP154 T01061011 56023=
201303221952 METAR KATL 221952Z VRB05KT 10SM FEW050 SCT100 BKN150 10/M02 A2999 RMK AO2 SLP157 T01001022=
201303221852 METAR KATL 221852Z 17004KT 10SM FEW050 BKN080 OVC100 08/M03 A3002 RMK AO2 SLP171 T00831028=
201303221752 METAR KATL 221752Z 22003KT 10SM FEW060 SCT100 OVC150 08/M04 A3005 RMK AO2 SLP179 T00781039 10078 20039 58001=
201303221652 METAR KATL 221652Z 00000KT 10SM FEW065 BKN100 OVC150 07/M03 A3005 RMK AO2 SLP181 T00721033=
201303221552 METAR KATL 221552Z 23003KT 10SM BKN085 BKN100 OVC150 07/M04 A3007 RMK AO2 SLP186 T00671039=
201303221452 METAR KATL 221452Z 00000KT 10SM FEW070 BKN080 OVC100 05/M04 A3005 RMK AO2 SLP181 T00501044 51014=
201303221352 METAR KATL 221352Z 08007KT 10SM FEW060 BKN070 OVC100 04/M06 A3004 RMK AO2 SLP178 T00391056=
201303221252 METAR KATL 221252Z 11006KT 10SM OVC080 04/M07 A3003 RMK AO2 SLP176 BINOVC T00391072=
201303221152 METAR KATL 221152Z 07007KT 10SM BKN075 OVC100 04/M06 A3001 RMK AO2 RAB1054E12 SLP166 VIRGA N-E P0000 60000 T00391061 10050 20039 51009=
201303221052 METAR KATL 221052Z 05008KT 10SM BKN055 OVC080 04/M08 A3000 RMK AO2 RAE0958 SLP162 VIRGA OHD-ALQDS P0000 T00441083=
201303220952 METAR KATL 220952Z 09006KT 10SM -RA BKN060 OVC090 04/M07 A2999 RMK AO2 RAB09E25B44PLB14E29 SLP160 PCPN VRY LGT P0000 T00441072=
201303220931 SPECI KATL 220931Z 11003KT 10SM SCT065 OVC090 04/M08 A2999 RMK AO2 RAB09E25PLB14E29 VCSH SE-SW P0000=
201303220914 SPECI KATL 220914Z 10003KT 10SM -PLRA BKN065 OVC085 04/M08 A2999 RMK AO2 RAB09PLB14 PCPN VRY LGT P0000=
201303220852 METAR KATL 220852Z 04004KT 10SM FEW060 OVC085 05/M09 A2998 RMK AO2 SLP157 VIRGA S-SW T00501094 50005=
201303220752 METAR KATL 220752Z 31003KT 10SM BKN060 OVC090 04/M10 A3000 RMK AO2 SLP162 VIRGA OHD-NE-SE-S T00441100=
201303220652 METAR KATL 220652Z 31007KT 10SM BKN070 OVC100 05/M09 A3000 RMK AO2 SLP163 VIRGA OHD-ALQDS T00501094=
201303220552 METAR KATL 220552Z 34006KT 10SM FEW100 BKN140 OVC200 05/M08 A2996 RMK AO2 SLP151 VIRGA OHD-S-W T00501083 10072 20044 53002=
201303220452 METAR KATL 220452Z 33006KT 10SM FEW120 BKN150 OVC200 05/M08 A2996 RMK AO2 SLP149 T00501083 401000000=
201303220352 METAR KATL 220352Z 29005KT 10SM BKN150 BKN200 05/M09 A2996 RMK AO2 SLP152 T00501089=
201303220252 METAR KATL 220252Z 32006KT 10SM BKN180 BKN250 06/M09 A2996 RMK AO2 SLP151 T00561094 51016=
201303220152 METAR KATL 220152Z 31005KT 10SM FEW200 SCT250 05/M09 A2994 RMK AO2 SLP146 T00501094=
201303220052 METAR KATL 220052Z 27006KT 10SM SCT200 BKN250 06/M09 A2994 RMK AO2 SLP145 T00561094=
201303212352 METAR KATL 212352Z 32008KT 10SM FEW200 BKN250 07/M11 A2991 RMK AO2 SLP135 T00721111 10100 20072 53001=
201303212252 METAR KATL 212252Z 28009KT 10SM BKN250 09/M11 A2991 RMK AO2 SLP133 T00891111=
201303212152 METAR KATL 212152Z 30009G21KT 10SM FEW200 BKN250 09/M12 A2990 RMK AO2 SLP128 T00941117=
201303212052 METAR KATL 212052Z 29005KT 10SM FEW180 SCT200 BKN250 08/M11 A2991 RMK AO2 SLP132 T00831111 56016=
201303211952 METAR KATL 211952Z 29011G19KT 10SM FEW200 BKN250 09/M11 A2992 RMK AO2 SLP137 T00891111=
201303211852 METAR KATL 211852Z 29014G20KT 10SM FEW200 BKN250 08/M11 A2994 RMK AO2 SLP142 T00831111=
201303211752 METAR KATL 211752Z 28009G21KT 260V330 10SM FEW180 SCT200 BKN250 08/M09 A2996 RMK AO2 WSHFT 1639 SLP149 T00781094 10078 20000 58008=
201303211659 SPECI KATL 211659Z 31014G19KT 10SM FEW200 BKN250 06/M11 A2997 RMK AO2 WSHFT 1639=
201303211652 METAR KATL 211652Z 30012KT 10SM FEW200 BKN250 06/M10 A2997 RMK AO2 WSHFT 1637 SLP152 T00611100=
201303211552 METAR KATL 211552Z 33016G20KT 10SM FEW200 BKN250 04/M11 A2998 RMK AO2 SLP157 T00441106=
201303211452 METAR KATL 211452Z 32015KT 10SM FEW180 SCT200 BKN250 02/M10 A2998 RMK AO2 SLP157 T00221100 51017=
201303211352 METAR KATL 211352Z 32019G23KT 10SM FEW180 SCT200 BKN250 01/M09 A2997 RMK AO2 SLP153 T00111094=
201303211252 METAR KATL 211252Z 33010KT 10SM FEW180 SCT250 00/M08 A2996 RMK AO2 SLP150 T00001078=
201303211152 METAR KATL 211152Z 33010KT 10SM FEW180 BKN250 01/M05 A2993 RMK AO2 SLP140 T00061050 10056 20006 51007=
201303211052 METAR KATL 211052Z 33008KT 10SM SCT250 01/M03 A2993 RMK AO2 SLP138 T00111033=
201303210952 METAR KATL 210952Z 31005KT 10SM FEW250 02/M03 A2992 RMK AO2 SLP135 T00171028=
201303210852 METAR KATL 210852Z 34009KT 10SM CLR 03/M03 A2991 RMK AO2 SLP130 T00281028 56007=
201303210752 METAR KATL 210752Z 33007KT 10SM CLR 03/M02 A2992 RMK AO2 SLP133 T00331022=
201303210652 METAR KATL 210652Z 33009KT 10SM CLR 04/M02 A2992 RMK AO2 SLP133 T00441022=
201303210552 METAR KATL 210552Z 32010KT 10SM FEW070 06/M02 A2993 RMK AO2 SLP138 T00561022 10117 20056 50003=
201303210452 METAR KATL 210452Z 35016KT 10SM FEW075 07/M03 A2993 RMK AO2 SLP138 T00671028 401440061=
201303210352 METAR KATL 210352Z 30014G22KT 10SM FEW080 08/M04 A2992 RMK AO2 SLP134 T00831044=
201303210252 METAR KATL 210252Z 29010KT 10SM FEW085 09/M04 A2992 RMK AO2 SLP134 T00891044 55000=
201303210152 METAR KATL 210152Z 29009KT 10SM CLR 09/M05 A2992 RMK AO2 SLP133 T00941050=
201303210052 METAR KATL 210052Z 30009KT 10SM FEW085 10/M06 A2992 RMK AO2 SLP133 T01001056=
201303202352 METAR KATL 202352Z 32012KT 10SM FEW085 12/M07 A2992 RMK AO2 SLP135 T01171067 10144 20117 56008=
201303202252 METAR KATL 202252Z 31015G23KT 10SM FEW085 13/M07 A2993 RMK AO2 SLP137 T01331072=
201303202152 METAR KATL 202152Z 30013G18KT 10SM FEW085 SCT200 14/M06 A2993 RMK AO2 PK WND 31026/2058 SLP135 T01441061=
201303202052 METAR KATL 202052Z 31014G24KT 10SM FEW085 BKN200 BKN250 14/M07 A2995 RMK AO2 SLP142 T01391067 56038=
201303201952 METAR KATL 201952Z 27010KT 10SM FEW150 BKN200 BKN250 13/M08 A2998 RMK AO2 SLP152 T01331078=
201303201852 METAR KATL 201852Z 29007KT 10SM FEW150 BKN200 BKN250 13/M08 A3001 RMK AO2 SLP164 T01281083=
201303201752 METAR KATL 201752Z 31007KT 10SM FEW100 BKN150 BKN200 12/M07 A3006 RMK AO2 SLP182 T01171067 10117 20061 58023=
201303201652 METAR KATL 201652Z 34008KT 10SM FEW100 BKN150 BKN200 11/M08 A3009 RMK AO2 SLP190 VIRGA DSNT NE-SE T01111083=
201303201552 METAR KATL 201552Z 31006KT 10SM FEW100 BKN150 OVC200 10/M05 A3011 RMK AO2 SLP196 VIRGA ALQDS T01001050=
201303201452 METAR KATL 201452Z 32005KT 10SM FEW100 BKN150 OVC200 08/M06 A3013 RMK AO2 SLP204 VIRGA OHD & ALQDS T00831061 51011=
201303201352 METAR KATL 201352Z 31004KT 10SM FEW100 BKN150 OVC200 08/M06 A3012 RMK AO2 SLP202 VIRGA OHD & ALQDS T00781061=
201303201252 METAR KATL 201252Z COR 00000KT 10SM FEW080 BKN110 OVC200 07/M06 A3012 RMK AO2 SLP200 T00671061=
201303201152 METAR KATL 201152Z 33005KT 10SM FEW100 BKN130 06/M06 A3010 RMK AO2 SLP192 VIRGA W-N-NE T00611061 10083 20061 53015=
201303201052 METAR KATL 201052Z 34005KT 10SM FEW070 BKN100 OVC140 07/M07 A3007 RMK AO2 SLP185 T00671072=
201303200952 METAR KATL 200952Z 34008KT 10SM BKN100 07/M07 A3006 RMK AO2 SLP178 T00721072=
201303200852 METAR KATL 200852Z 35011KT 10SM FEW090 BKN150 07/M07 A3005 RMK AO2 SLP176 T00721072 58006=
201303200752 METAR KATL 200752Z 33007KT 10SM FEW090 BKN150 07/M06 A3007 RMK AO2 SLP184 T00671056=
201303200652 METAR KATL 200652Z 33006KT 10SM FEW200 SCT250 08/M06 A3008 RMK AO2 SLP186 T00781056=
201303200552 METAR KATL 200552Z 31004KT 10SM FEW200 08/M05 A3007 RMK AO2 SLP183 T00831050 10150 20083 51003=
201303200452 METAR KATL 200452Z 35008KT 10SM SCT200 10/M05 A3007 RMK AO2 SLP182 T01001050 401720078=
201303200352 METAR KATL 200352Z 01009KT 10SM BKN200 12/M05 A3007 RMK AO2 SLP182 T01171050=
201303200252 METAR KATL 200252Z 01010KT 10SM BKN250 13/M05 A3006 RMK AO2 SLP180 T01281050 53003=
201303200152 METAR KATL 200152Z 36009KT 10SM SCT250 13/M03 A3006 RMK AO2 SLP179 T01331033=
201303200052 METAR KATL 200052Z 36008KT 10SM FEW250 14/M02 A3004 RMK AO2 SLP174 T01441022=
201303192352 METAR KATL 192352Z 35008KT 10SM FEW250 14/M03 A3005 RMK AO2 SLP177 T01441028 10172 20144 57002=
201303192252 METAR KATL 192252Z 35010KT 10SM FEW250 16/M03 A3006 RMK AO2 SLP177 T01611028=
201303192152 METAR KATL 192152Z 36016KT 10SM FEW250 17/M04 A3005 RMK AO2 SLP176 T01671039=
201303192052 METAR KATL 192052Z 31013G18KT 10SM FEW250 17/M02 A3006 RMK AO2 SLP178 T01671017 53001=
201303191952 METAR KATL 191952Z 32013G18KT 10SM FEW250 17/M02 A3005 RMK AO2 SLP175 T01671022=
201303191852 METAR KATL 191852Z 33009KT 10SM FEW250 17/M04 A3005 RMK AO2 SLP174 T01671039=
201303191752 METAR KATL 191752Z 35012G16KT 10SM FEW250 16/M04 A3005 RMK AO2 SLP177 T01611044 10161 20078 50003=
201303191652 METAR KATL 191652Z 31011KT 10SM FEW250 15/M01 A3007 RMK AO2 SLP181 T01501011=
201303191552 METAR KATL 191552Z 34010G14KT 10SM CLR 13/M01 A3006 RMK AO2 SLP180 T01331011=
201303191452 METAR KATL 191452Z 34010KT 10SM CLR 12/M01 A3004 RMK AO2 SLP175 T01171011 51009 $=
201303191352 METAR KATL 191352Z 35006KT 10SM FEW250 10/01 A3003 RMK AO2 SLP170 T01000006=
201303191252 METAR KATL 191252Z 33009KT 10SM FEW250 08/01 A3004 RMK AO2 SLP173 T00830011=
201303191152 METAR KATL 191152Z 33014G23KT 10SM FEW011 SCT150 SCT250 08/04 A3002 RMK AO2 SLP166 60005 70086 T00830039 10100 20083 53030=
201303191119 SPECI KATL 191119Z 34017G22KT 10SM SCT011 SCT200 BKN250 09/07 A3000 RMK AO2=
201303191107 SPECI KATL 191107Z 33017KT 8SM BKN011 09/07 A2999 RMK AO2=
201303191052 METAR KATL 191052Z 32017G21KT 8SM BKN009 OVC013 10/08 A2998 RMK AO2 PK WND 34029/1022 SLP154 T01000078=
201303191023 SPECI KATL 191023Z 33022G29KT 4SM BR OVC006 10/08 A2996 RMK AO2 PK WND 34029/1022 CIG 004V008 $=
201303191020 SPECI KATL 191020Z 33014KT 2 1/2SM BR OVC006 10/08 A2996 RMK AO2 SFC VIS 4 CIG 004V008 $=
201303190952 METAR KATL 190952Z 32012KT 2 1/2SM BR OVC004 09/08 A2993 RMK AO2 SLP137 CIG 003V006 T00940083 $=
201303190932 SPECI KATL 190932Z 32008KT 3SM BR OVC004 09/08 A2992 RMK AO2 CIG 003V005 $=
201303190907 SPECI KATL 190907Z 33008KT 5SM BR FEW003 OVC009 09/08 A2992 RMK AO2 $=
201303190852 METAR KATL 190852Z 32009KT 3SM BR BKN004 OVC015 09/08 A2993 RMK AO2 SLP134 CIG 002V005 60005 T00890078 51017 $=
201303190752 METAR KATL 190752Z 33005KT 4SM BR BKN004 BKN018 OVC070 09/08 A2992 RMK AO2 RAB27E44 SLP130 CIG 003V005 P0005 T00940083 $=
201303190744 SPECI KATL 190744Z 35004KT 4SM BR BKN004 BKN018 OVC070 09/08 A2992 RMK AO2 RAB27E44 CIG 003V005 P0005 $=
201303190737 SPECI KATL 190737Z 34003KT 1 1/2SM +RA BR BKN004 OVC022 09/08 A2992 RMK AO2 RAB27 CIG 003V005 P0004 $=
201303190733 SPECI KATL 190733Z 00000KT 2 1/2SM RA BR OVC004 09/08 A2993 RMK AO2 RAB27 CIG 003V005 P0001 $=
201303190707 SPECI KATL 190707Z 18005KT 7SM BKN009 OVC085 09/08 A2992 RMK AO2 PRESRR $=
201303190652 METAR KATL 190652Z 07004KT 8SM FEW003 SCT005 OVC090 09/08 A2989 RMK AO2 SLP120 VIS LWR NE-SE T00940078=
201303190633 SPECI KATL 190633Z 06004KT 3SM BR BKN004 OVC085 09/08 A2989 RMK AO2 SFC VIS 5 CIG 003V006=
201303190552 METAR KATL 190552Z 04007KT 1/4SM R09R/4500VP6000FT FG OVC003 09/08 A2987 RMK AO2 SFC VIS 1/2 SLP115 TWRINC 60000 T00940083 10117 20094 58004=
201303190512 SPECI KATL 190512Z 06007KT 1/4SM R09R/P6000FT BR BKN003 OVC007 09/08 A2988 RMK AO2 SFC VIS 1 TWRINC=
201303190452 METAR KATL 190452Z 07005KT 1 1/2SM BKN004 BKN100 OVC250 09/08 A2989 RMK AO2 SFC VIS 8 SLP121 T00940083 401940094=
201303190419 SPECI KATL 190419Z 00000KT 10SM FEW006 SCT014 BKN100 OVC250 10/08 A2990 RMK AO2=
201303190352 METAR KATL 190352Z 07003KT 10SM SCT006 BKN014 OVC250 10/09 A2990 RMK AO2 SLP124 T01000089=
201303190347 SPECI KATL 190347Z 10003KT 10SM SCT006 BKN014 OVC250 10/09 A2990 RMK AO2=
201303190252 METAR KATL 190252Z 13004KT 10SM FEW006 BKN200 OVC250 11/09 A2989 RMK AO2 SLP119 60000 T01060094 51024=
201303190152 METAR KATL 190152Z 16003KT 10SM FEW100 BKN200 OVC250 11/09 A2987 RMK AO2 SLP114 T01110094=
201303190052 METAR KATL 190052Z 10004KT 10SM FEW150 OVC200 11/09 A2985 RMK AO2 RAE04 SLP108 P0000 T01110094=
201303182352 METAR KATL 182352Z VRB05KT 9SM -RA FEW060 BKN090 OVC200 11/09 A2981 RMK AO2 TSE52 PRESFR SLP095 TS MOV E P0010 60073 T01110094 10194 20111 58007=
201303182252 METAR KATL 182252Z 35014G23KT 5SM TSRA BR FEW005 SCT025CB OVC070 12/10 A2992 RMK AO2 PK WND 30044/2225 WSHFT 2142 GSB2157E2158GRB2158E06 SLP129 OCNL LTGICCA NE-SE-S TS NE-SE-S MOV E P0062 T01220100=
201303182242 SPECI KATL 182242Z 33020G31KT 4SM TSRA BR FEW005 SCT025CB OVC070 12/09 A2992 RMK AO2 PK WND 30044/2225 WSHFT 2142 GSB2157E2158GRB2158E06 OCNL LTGICCA NE-SE-SW TS NE-SE-SW MOV E P0059=
201303182231 SPECI KATL 182231Z 33022G44KT 2SM +TSRA BR SQ FEW005 BKN025CB OVC090 12/10 A2993 RMK AO2 PK WND 30044/2225 WSHFT 2142 GSB2157E2158GRB2158E06 FRQ LTGICCGCA OHD-ALQDS TS OHD-ALQDS MOV E P0051=
201303182226 SPECI KATL 182226Z 30029G44KT 270V330 3/4SM R09R/P6000FT +TSRA BR SQ FEW005 OVC025CB 13/11 A2993 RMK AO2 PK WND 30044/2225 WSHFT 2142 GSB2157E2158GRB2158E06 PRESRR FRQ LTGICCGCA OHD-ALQDS TS OHD-ALQDS MOV E P0044=
201303182224 SPECI KATL 182224Z 29024G35KT 1 1/2SM +TSRA BR SQ FEW005 BKN028CB OVC090 12/11 A2993 RMK AO2 PK WND 27035/2224 WSHFT 2142 GSB2157E2158GRB2158E06 PRESRR FRQ LTGICCGCA OHD-ALQDS TS OHD-ALQDS MOV E P0042=
201303182210 SPECI KATL 182210Z 33007KT 250V360 6SM -TSRA BR FEW005 BKN025CB OVC075 12/11 A2982 RMK AO2 PK WND 02030/2153 WSHFT 2142 GSB2157E2158GRB2158E06 CONS LTGICCG NE-SE-SW TS NE-SE-SW MOV E P0039=
201303182206 SPECI KATL 182206Z 36008G27KT 2SM +TSRA BR SCT005 BKN020CB OVC075 12/11 A2980 RMK AO2 PK WND 02030/2153 WSHFT 2142 GSB2157E2158GRB2158E06 CONS LTGICCG OHD-ALQDS TS OHD-ALQDS MOV E P0037=
201303182203 SPECI KATL 182203Z 02015G29KT 1/2SM R09R/2400VP6000FT +TSRAGR FG BKN005 OVC025CB 11/10 A2981 RMK AO2 PK WND 02030/2153 WSHFT 2142 GSB2157E2158GRB2158 CONS LTGICCG OHD-ALQDS TS OHD-ALQDS MOV E GR 1 1/4 P0021=
201303182158 SPECI KATL 182158Z 01019G33KT 1/2SM R09R/2600VP6000FT +TSRAGR FG BKN005 OVC025CB 13/12 A2986 RMK AO2 PK WND 02030/2153 WSHFT 2142 GSB57E58GRB58 PRESRR CONS LTGICCG OHD-ALQDS TS OHD-ALQDS MOV E GR 3/4 P0000=
201303182157 SPECI KATL 182157Z 35022G33KT 1/2SM R09R/2600VP6000FT +TSRAGS FG BKN005 OVC025CB 13/12 A2986 RMK AO2 PK WND 02030/2153 WSHFT 2142 GSB57 PRESRR CONS LTGICCG OHD-ALQDS TS OHD-ALQDS MOV E P0000=
201303182152 METAR KATL 182152Z 02028G33KT 3SM TSRA BR BKN005 BKN030CB OVC100 13/12 A2982 RMK AO2 PK WND 02033/2151 TSB35RAB2057E16B52 SLP096 CONS LTGICCG NE-OHD-SW TS NE-OHD-SW MOV E P0001 T01330117=
201303182136 SPECI KATL 182136Z 07014KT 4SM TS BR BKN005 BKN030CB OVC100 13/12 A2982 RMK AO2 TSB35RAB2057E16 FRQ LTGICCG W-NW TS VC W-NW MOV E P0001=
201303182122 SPECI KATL 182122Z 06011KT 4SM BR SCT005 BKN035 OVC100 14/13 A2982 RMK AO2 RAB2057E16 FRQ LTG DSNT NW P0001=
201303182052 METAR KATL 182052Z 08010KT 5SM BR FEW010 BKN030TCU OVC050 14/12 A2983 RMK AO2 RAB10E20 SLP100 TCU OHD & ALQDS P0000 60000 T01390122 56020=
201303181952 METAR KATL 181952Z 06010KT 6SM BR FEW010 BKN030 OVC060 14/13 A2985 RMK AO2 RAB32E51 SLP105 P0000 T01440128=
201303181902 SPECI KATL 181902Z 06010KT 8SM BKN030 BKN040 OVC060 16/13 A2986 RMK AO2=
201303181852 METAR KATL 181852Z VRB05KT 7SM BKN029 BKN035 OVC060 19/14 A2986 RMK AO2 SLP108 T01940139=
201303181831 SPECI KATL 181831Z 15007KT 6SM HZ BKN029 BKN035 OVC060 19/14 A2987 RMK AO2=
201303181752 METAR KATL 181752Z 16007KT 10SM BKN030 BKN040 OVC060 18/14 A2990 RMK AO2 TSB14E32RAB00E41 SLP120 TS MOV NE CB DSNT NE P0008 60008 T01780144 10183 20144 58023=
201303181732 SPECI KATL 181732Z 13004KT 9SM R09R/5500VP6000FT -RA BKN025 BKN040 BKN050 17/14 A2991 RMK AO2 TSB14E32RAB00 TS MOV NE CB DSNT NE-E P0008=
201303181724 SPECI KATL 181724Z 19005KT 8SM -TSRA SCT025CB BKN040 BKN050 17/14 A2992 RMK AO2 TSB14RAB00 VIS LWR E SHRA OCNL LTGICCG E TS E MOV NE P0004=
201303181718 SPECI KATL 181718Z 16009KT 6SM TSRA SCT025CB BKN040 BKN050 17/13 A2992 RMK AO2 TSB14RAB00 VIS LWR SE-S SHRA OCNL LTGICCG SE-S TS SE-S MOV NE P0002=
201303181714 SPECI KATL 181714Z 16007KT 7SM -TSRA SCT025CB BKN040 OVC055 17/13 A2992 RMK AO2 TSB14RAB00 VIS LWR S SHRA OCNL LTGIC S TS S MOV NE P0000=
201303181652 METAR KATL 181652Z 16009KT 10SM BKN020 BKN040 BKN060 18/13 A2993 RMK AO2 SLP130 CB DSNT SW-W SHRA DSNT SW-W T01780128=
201303181552 METAR KATL 181552Z 16013G16KT 10SM SCT020 BKN090 BKN110 17/12 A2996 RMK AO2 SLP141 T01720122=
201303181452 METAR KATL 181452Z 18009KT 10SM SCT013 BKN015 OVC020 16/12 A2997 RMK AO2 SLP144 T01610122 58011=
201303181352 METAR KATL 181352Z 16008KT 10SM BKN013 BKN015 OVC020 15/12 A2998 RMK AO2 SLP149 T01500122=
201303181343 SPECI KATL 181343Z 15007G14KT 10SM OVC015 16/12 A2998 RMK AO2=
201303181332 SPECI KATL 181332Z 15008KT 10SM OVC013 15/12 A2998 RMK AO2=
201303181323 SPECI KATL 181323Z 15007KT 10SM OVC015 15/12 A2998 RMK AO2=
201303181252 METAR KATL 181252Z 15007KT 7SM OVC011 14/12 A3000 RMK AO2 SLP154 T01440122=
201303181244 SPECI KATL 181244Z 17005KT 7SM OVC011 14/12 A3000 RMK AO2=
201303181152 METAR KATL 181152Z 20007KT 8SM OVC009 14/12 A3000 RMK AO2 SLP156 T01440122 10150 20144 53016=
201303181052 METAR KATL 181052Z 19006KT 9SM OVC009 14/12 A2998 RMK AO2 SLP147 T01440122=
201303180952 METAR KATL 180952Z 19008KT 8SM OVC009 14/12 A2996 RMK AO2 SLP140 T01440122=
201303180852 METAR KATL 180852Z 17008KT 8SM BKN009 OVC100 14/13 A2995 RMK AO2 SLP138 T01440128 56005=
201303180819 SPECI KATL 180819Z 18006KT 10SM BKN009 OVC095 15/13 A2996 RMK AO2=
201303180752 METAR KATL 180752Z 17006KT 10SM FEW010 BKN095 15/13 A2995 RMK AO2 SLP138 T01500128=
201303180710 SPECI KATL 180710Z 18007KT 10SM SCT018 BKN090 14/13 A2996 RMK AO2=
201303180652 METAR KATL 180652Z 18006KT 10SM BKN018 BKN090 15/13 A2996 RMK AO2 SLP142 T01500128=
201303180552 METAR KATL 180552Z 18006KT 10SM FEW015 BKN021 BKN070 15/13 A2997 RMK AO2 SLP144 T01500128 10183 20150 51002=
201303180510 SPECI KATL 180510Z 18006KT 10SM BKN015 BKN070 16/12 A2997 RMK AO2=
201303180452 METAR KATL 180452Z 18005KT 10SM BKN013 BKN070 BKN250 15/12 A2997 RMK AO2 SLP144 T01500122 402170122=
201303180439 SPECI KATL 180439Z 19006KT 10SM BKN013 BKN250 16/12 A2997 RMK AO2=
201303180352 METAR KATL 180352Z 17006KT 10SM SCT020 BKN220 16/12 A2996 RMK AO2 SLP142 T01560117=
201303180252 METAR KATL 180252Z 18005KT 10SM FEW170 BKN210 16/11 A2996 RMK AO2 SLP142 T01610111 53005=
201303180152 METAR KATL 180152Z 19004KT 10SM FEW034 BKN170 BKN250 16/11 A2996 RMK AO2 SLP142 T01610106=
201303180052 METAR KATL 180052Z 19004KT 10SM BKN180 BKN250 17/10 A2995 RMK AO2 SLP139 VIRGA E-SE T01720100=
201303172352 METAR KATL 172352Z 20005KT 10SM FEW040 SCT180 OVC220 18/09 A2995 RMK AO2 SLP139 VIRGA OHD-ALQDS T01830094 10217 20183 53005=
201303172252 METAR KATL 172252Z 21008KT 10SM FEW042 SCT140 BKN210 19/09 A2993 RMK AO2 SLP133 VIRGA SW-W T01940094=
201303172152 METAR KATL 172152Z 22010G18KT 10SM FEW045 SCT150 BKN220 19/09 A2993 RMK AO2 SLP132 VIRGA S-SW T01940089=
201303172052 METAR KATL 172052Z 21009KT 10SM FEW048 OVC250 20/08 A2993 RMK AO2 SLP132 T02000083 56018=
201303171952 METAR KATL 171952Z 21009G15KT 10SM SCT047 OVC250 20/09 A2994 RMK AO2 SLP135 T02000089=
201303171852 METAR KATL 171852Z 23014G20KT 10SM BKN042 BKN050 OVC250 21/09 A2997 RMK AO2 SLP143 T02060089=
201303171752 METAR KATL 171752Z 26010KT 10SM BKN040 OVC250 20/10 A2999 RMK AO2 SLP150 T02000100 10206 20122 58013=
201303171652 METAR KATL 171652Z 27009KT 10SM BKN034 OVC250 19/11 A3001 RMK AO2 SLP157 T01890111=
201303171552 METAR KATL 171552Z 25013G16KT 10SM FEW043 OVC250 19/11 A3002 RMK AO2 SLP162 BINOVC T01890111=
201303171452 METAR KATL 171452Z 27011G18KT 10SM SCT150 BKN250 18/11 A3003 RMK AO2 SLP164 T01780111 51007=
201303171352 METAR KATL 171352Z 23007KT 10SM SCT150 BKN250 14/10 A3002 RMK AO2 SLP163 T01440100=
201303171252 METAR KATL 171252Z 23007KT 10SM FEW150 SCT250 13/09 A3002 RMK AO2 SLP162 T01280094=
201303171152 METAR KATL 171152Z 24007KT 10SM FEW150 SCT250 12/09 A3001 RMK AO2 SLP158 T01220089 10156 20122 53010=
201303171052 METAR KATL 171052Z 23004KT 10SM CLR 13/08 A2999 RMK AO2 SLP149 T01280083=
201303170952 METAR KATL 170952Z 24009KT 10SM CLR 14/08 A2998 RMK AO2 SLP148 T01390083=
201303170852 METAR KATL 170852Z 24010KT 10SM CLR 14/08 A2998 RMK AO2 SLP144 T01440083 58002=
201303170752 METAR KATL 170752Z 24008KT 10SM CLR 15/08 A2998 RMK AO2 SLP146 T01500078=
201303170652 METAR KATL 170652Z 23009KT 10SM CLR 15/07 A2999 RMK AO2 SLP148 T01500067=
201303170552 METAR KATL 170552Z 23008KT 10SM CLR 16/06 A2998 RMK AO2 SLP146 T01560056 10211 20150 50003=
201303170452 METAR KATL 170452Z 23005KT 10SM CLR 16/04 A2998 RMK AO2 SLP148 T01610044 402440111=
201303170352 METAR KATL 170352Z 23007KT 10SM CLR 17/04 A2998 RMK AO2 SLP145 T01720044=
201303170252 METAR KATL 170252Z 23004KT 10SM FEW250 17/04 A2997 RMK AO2 SLP145 T01720039 51014=
201303170152 METAR KATL 170152Z 22008KT 10SM FEW250 19/03 A2996 RMK AO2 SLP142 T01890033=
201303170052 METAR KATL 170052Z 23007KT 10SM FEW250 19/03 A2995 RMK AO2 SLP137 T01940028=
201303162352 METAR KATL 162352Z 22008KT 10SM BKN250 21/03 A2993 RMK AO2 SLP132 T02110028 10244 20211 53006=
201303162252 METAR KATL 162252Z 22014G18KT 10SM SCT250 23/03 A2992 RMK AO2 SLP126 T02280033=
201303162152 METAR KATL 162152Z 22015G21KT 10SM FEW250 24/04 A2991 RMK AO2 SLP121 T02390039=
201303162052 METAR KATL 162052Z 24011G20KT 10SM BKN250 24/02 A2991 RMK AO2 SLP124 T02390017 56018=
201303161952 METAR KATL 161952Z 27015G23KT 10SM BKN250 24/01 A2992 RMK AO2 SLP125 T02440011=
201303161852 METAR KATL 161852Z 23015G25KT 10SM SCT250 23/01 A2994 RMK AO2 PK WND 21026/1828 SLP131 T02330011=
201303161752 METAR KATL 161752Z 24013G21KT 10SM SCT250 23/01 A2997 RMK AO2 SLP141 T02280011 10228 20111 58017=
201303161652 METAR KATL 161652Z 25013G22KT 10SM SCT250 22/02 A2999 RMK AO2 SLP149 T02170017=
201303161552 METAR KATL 161552Z 28013G18KT 10SM BKN250 20/03 A3000 RMK AO2 SLP155 T02000033=
201303161452 METAR KATL 161452Z COR 26015G20KT 10SM BKN250 17/03 A3002 RMK AO2 SLP161 T01720033 58003=
201303161352 METAR KATL 161352Z 26012G17KT 10SM BKN250 14/05 A3003 RMK AO2 SLP165 T01440050=
201303161252 METAR KATL 161252Z 24009KT 10SM SCT250 12/04 A3003 RMK AO2 SLP167 T01220044=
201303161152 METAR KATL 161152Z 25007KT 10SM FEW150 SCT250 11/04 A3003 RMK AO2 SLP165 T01110044 10167 20111 53011=
201303161052 METAR KATL 161052Z 24009KT 10SM BKN250 12/04 A3001 RMK AO2 SLP157 T01170044=
201303160952 METAR KATL 160952Z 24009KT 10SM BKN250 13/04 A3000 RMK AO2 SLP154 T01280044=
201303160852 METAR KATL 160852Z 24010G17KT 10SM SCT250 14/04 A2999 RMK AO2 SLP151 T01390044 58003=
201303160752 METAR KATL 160752Z 24010G17KT 10SM BKN250 14/04 A3000 RMK AO2 SLP152 T01440044=
201303160652 METAR KATL 160652Z 24010G22KT 10SM BKN250 16/04 A3000 RMK AO2 SLP155 T01560044=
201303160552 METAR KATL 160552Z 24015G19KT 10SM BKN250 16/04 A3000 RMK AO2 SLP154 T01610039 10211 20161 55010=
201303160452 METAR KATL 160452Z 23009KT 10SM SCT250 16/04 A3000 RMK AO2 SLP154 T01610039 402330022=
201303160352 METAR KATL 160352Z 23007KT 10SM SCT250 17/04 A3002 RMK AO2 SLP161 T01720039=
201303160252 METAR KATL 160252Z 23007KT 10SM FEW250 17/04 A3003 RMK AO2 SLP167 T01720044 51004=
201303160152 METAR KATL 160152Z 23008KT 10SM FEW250 18/04 A3003 RMK AO2 SLP167 T01780044=
201303160052 METAR KATL 160052Z 23007KT 10SM FEW250 19/04 A3002 RMK AO2 SLP168 T01890044=
201303152352 METAR KATL 152352Z 25010KT 10SM FEW200 SCT250 21/04 A3002 RMK AO2 SLP165 T02110039 10233 20206 55001=
201303152252 METAR KATL 152252Z 25010G19KT 10SM FEW200 SCT250 22/03 A3001 RMK AO2 SLP161 T02220033=
201303152152 METAR KATL 152152Z 23010G22KT 10SM SCT250 23/04 A3001 RMK AO2 SLP162 T02280039=
201303152052 METAR KATL 152052Z 24011G23KT 210V270 10SM FEW080 SCT200 SCT250 23/04 A3002 RMK AO2 SLP165 T02280039 56034=
201303152052 SPECI KATL 152052Z 24011G23KT 210V270 10SM FEW080 SCT200 SCT250 23/04 A3002 RMK AO2 SLP165 T02280039 56034=
201303151952 METAR KATL 151952Z 23013G20KT 10SM FEW080 SCT200 SCT250 23/03 A3005 RMK AO2 SLP176 T02280033=
201303151852 METAR KATL 151852Z 26009G19KT 10SM FEW080 SCT200 SCT250 22/03 A3009 RMK AO2 SLP188 T02170028=
201303151752 METAR KATL 151752Z 25013G21KT 10SM FEW250 20/02 A3013 RMK AO2 SLP201 T02000017 10200 20028 58024=
201303151652 METAR KATL 151652Z 27013G19KT 10SM FEW250 19/02 A3016 RMK AO2 SLP211 T01890017=
201303151552 METAR KATL 151552Z 25012G18KT 10SM CLR 16/M01 A3018 RMK AO2 SLP219 T01611006=
201303151452 METAR KATL 151452Z 25008KT 10SM CLR 13/M02 A3020 RMK AO2 SLP227 T01331022 58004=
201303151352 METAR KATL 151352Z 23007KT 10SM CLR 09/M03 A3021 RMK AO2 SLP233 T00891033=
201303151252 METAR KATL 151252Z 20003KT 10SM CLR 04/M01 A3022 RMK AO2 SLP237 T00441006=
201303151152 METAR KATL 151152Z 20003KT 10SM CLR 03/M01 A3021 RMK AO2 SLP236 T00281011 10061 20022 53003=
201303151052 METAR KATL 151052Z 00000KT 10SM CLR 03/M01 A3021 RMK AO2 SLP234 T00331011=
201303150952 METAR KATL 150952Z 28003KT 10SM CLR 04/M01 A3021 RMK AO2 SLP231 T00391011=
201303150852 METAR KATL 150852Z 29003KT 10SM CLR 04/M01 A3020 RMK AO2 SLP231 T00441011 58007=
201303150752 METAR KATL 150752Z 00000KT 10SM FEW070 05/M02 A3021 RMK AO2 SLP233 T00501017=
201303150652 METAR KATL 150652Z 29007KT 10SM FEW070 06/M02 A3022 RMK AO2 SLP238 T00561017=
201303150552 METAR KATL 150552Z 31007KT 10SM FEW070 SCT120 06/M03 A3023 RMK AO2 SLP239 60000 T00611028 10100 20056 56009=
201303150452 METAR KATL 150452Z 28005KT 10SM FEW070 SCT120 07/M03 A3023 RMK AO2 SLP240 T00671033 401281017=
201303150352 METAR KATL 150352Z 32008KT 10SM FEW070 SCT120 08/M05 A3024 RMK AO2 RAB0257E05 SLP243 P0000 T00831050=
201303150252 METAR KATL 150252Z 31010KT 10SM SCT065 BKN110 09/M08 A3025 RMK AO2 SLP250 T00941083 53008=
201303150152 METAR KATL 150152Z 31007KT 10SM FEW070 SCT150 08/M08 A3025 RMK AO2 SLP249 T00831083=
201303150052 METAR KATL 150052Z 28008KT 10SM FEW100 09/M08 A3023 RMK AO2 SLP241 T00891083=
201303142352 METAR KATL 142352Z 33006KT 10SM FEW120 10/M10 A3023 RMK AO2 SLP242 T01001100 10128 20094 56006=
201303142252 METAR KATL 142252Z 32011KT 10SM FEW200 12/M10 A3023 RMK AO2 SLP242 T01171100=
201303142152 METAR KATL 142152Z 33009KT 10SM FEW250 13/M09 A3023 RMK AO2 SLP243 T01281094=
201303142052 METAR KATL 142052Z 32010G19KT 10SM FEW250 13/M10 A3025 RMK AO2 SLP247 T01281100 57024=
201303141952 METAR KATL 141952Z 33009KT 10SM FEW250 12/M09 A3027 RMK AO2 SLP254 T01221094=
201303141852 METAR KATL 141852Z 29013G17KT 10SM FEW250 11/M08 A3030 RMK AO2 SLP265 T01111078=
201303141752 METAR KATL 141752Z 35009G16KT 10SM FEW250 09/M08 A3032 RMK AO2 SLP272 T00941078 10094 21017 58015=
201303141652 SPECI KATL 141652Z 29010KT 10SM FEW250 08/M08 A3035 RMK AO2 SLP282 T00781078=
201303141652 METAR KATL 141652Z 29010KT 10SM FEW250 08/M08 A3035 RMK AO2 SLP282 T00781078=
201303141552 METAR KATL 141552Z 33004KT 10SM FEW250 06/M07 A3036 RMK AO2 SLP286 T00561072=
201303141452 METAR KATL 141452Z 33009KT 10SM CLR 03/M07 A3037 RMK AO2 SLP289 T00331072 53018=
201303141352 METAR KATL 141352Z 33009KT 10SM CLR 01/M08 A3035 RMK AO2 SLP284 T00111078=
201303141252 METAR KATL 141252Z 34008KT 10SM CLR M01/M08 A3031 RMK AO2 SLP272 T10061078=
201303141152 METAR KATL 141152Z 32007KT 10SM CLR M02/M08 A3031 RMK AO2 SLP272 T10171078 10017 21017 53014=
201303141052 METAR KATL 141052Z 33009KT 10SM CLR M01/M08 A3028 RMK AO2 SLP260 T10111083=
201303140952 METAR KATL 140952Z 33014G17KT 10SM CLR M01/M08 A3026 RMK AO2 SLP252 T10061083=
201303140852 METAR KATL 140852Z 34011G16KT 10SM CLR 00/M08 A3027 RMK AO2 SLP255 T00001083 58001=
201303140752 METAR KATL 140752Z 34016G22KT 10SM CLR 01/M08 A3027 RMK AO2 PK WND 34026/0658 SLP257 T00061078=
201303140652 METAR KATL 140652Z 34016G22KT 10SM CLR 01/M08 A3028 RMK AO2 PK WND 33028/0626 SLP257 T00111078=
201303140552 METAR KATL 140552Z 34013KT 10SM CLR 02/M07 A3027 RMK AO2 SLP255 T00171072 10083 20017 51014=
201303140452 METAR KATL 140452Z 34018G27KT 10SM CLR 03/M07 A3026 RMK AO2 PK WND 34027/0447 SLP252 T00281067 401330028=
201303140352 METAR KATL 140352Z 34014G20KT 10SM CLR 04/M07 A3025 RMK AO2 SLP248 T00441067=
201303140252 METAR KATL 140252Z 33010KT 10SM CLR 06/M07 A3023 RMK AO2 SLP241 T00561067 51012=
201303140152 METAR KATL 140152Z 32009KT 10SM CLR 07/M07 A3022 RMK AO2 SLP238 T00671067=
201303140052 METAR KATL 140052Z 31012G20KT 10SM CLR 08/M07 A3021 RMK AO2 SLP234 T00781067=
201303132352 METAR KATL 132352Z 31012G23KT 10SM CLR 08/M07 A3019 RMK AO2 PK WND 30027/2314 SLP229 T00831067 10133 20083 53017=
201303132252 METAR KATL 132252Z 30015G23KT 10SM FEW075 10/M06 A3017 RMK AO2 PK WND 29028/2200 SLP220 T01001061=
201303132152 METAR KATL 132152Z 30018G29KT 10SM FEW075 12/M07 A3015 RMK AO2 PK WND 28030/2131 SLP214 T01171067=
201303132052 METAR KATL 132052Z 32018G26KT 10SM FEW075 13/M06 A3014 RMK AO2 PK WND 32028/2007 SLP210 T01281056 56009=
201303131952 METAR KATL 131952Z 32021G30KT 10SM FEW080 12/M07 A3014 RMK AO2 PK WND 31031/1856 SLP210 T01221067=
201303131852 METAR KATL 131852Z 30021G28KT 10SM FEW070 13/M06 A3015 RMK AO2 PK WND 33030/1814 SLP210 T01281056=
201303131752 METAR KATL 131752Z 29015G26KT 10SM FEW070 13/M05 A3017 RMK AO2 PK WND 28026/1752 SLP218 T01281050 10128 20028 58004=
201303131652 METAR KATL 131652Z 27016G22KT 10SM FEW060 12/M04 A3019 RMK AO2 PK WND 30027/1609 SLP225 T01171039=
201303131552 METAR KATL 131552Z 29014G22KT 10SM FEW050 11/M02 A3019 RMK AO2 PK WND 33029/1503 SLP224 T01061022=
201303131452 METAR KATL 131452Z 31018G22KT 10SM FEW050 10/M03 A3018 RMK AO2 SLP222 T01001028 50009=
201303131352 METAR KATL 131352Z 29011KT 10SM CLR 08/M02 A3018 RMK AO2 SLP224 T00781017=
201303131252 METAR KATL 131252Z 27005KT 10SM CLR 06/M01 A3016 RMK AO2 SLP217 T00561011=
201303131152 METAR KATL 131152Z 28006KT 10SM CLR 03/M02 A3015 RMK AO2 SLP215 T00281017 10067 20028 53018=
201303131052 METAR KATL 131052Z 27005KT 10SM CLR 04/M01 A3013 RMK AO2 SLP207 T00391011=
201303130952 METAR KATL 130952Z 30005KT 10SM CLR 04/M01 A3011 RMK AO2 SLP198 T00391006=
201303130852 METAR KATL 130852Z 30004KT 10SM CLR 04/M01 A3010 RMK AO2 SLP194 T00441006 58004=
201303130752 METAR KATL 130752Z 30006KT 10SM CLR 05/00 A3012 RMK AO2 SLP200 T00500000=
201303130652 METAR KATL 130652Z 27006KT 10SM CLR 06/00 A3012 RMK AO2 SLP200 T00610000=
201303130552 METAR KATL 130552Z 30007KT 10SM CLR 07/00 A3011 RMK AO2 SLP199 T00670000 10122 20067 51007=
201303130452 METAR KATL 130452Z 29007KT 10SM CLR 07/00 A3011 RMK AO2 SLP198 T00720000 401500039=
201303130352 METAR KATL 130352Z 29007KT 10SM CLR 08/01 A3010 RMK AO2 SLP197 T00830006=
201303130252 METAR KATL 130252Z 30008KT 10SM CLR 09/01 A3009 RMK AO2 SLP192 T00890006 53018=
201303130152 METAR KATL 130152Z 29008KT 10SM CLR 09/01 A3007 RMK AO2 SLP185 T00940006=
201303130052 METAR KATL 130052Z 28006KT 10SM CLR 11/01 A3005 RMK AO2 SLP180 T01060006=
201303122352 METAR KATL 122352Z 31011KT 10SM CLR 12/M01 A3003 RMK AO2 SLP173 T01221011 10150 20117 53013=
201303122252 METAR KATL 122252Z 31011G19KT 10SM FEW250 14/M01 A3000 RMK AO2 SLP162 T01391006=
201303122152 METAR KATL 122152Z 31013G20KT 10SM FEW250 14/M01 A3000 RMK AO2 SLP160 T01441006=
201303122052 METAR KATL 122052Z 30017G20KT 10SM FEW250 14/00 A3000 RMK AO2 SLP159 T01390000 55004=
201303121952 METAR KATL 121952Z 33014KT 10SM FEW250 14/01 A2999 RMK AO2 SLP155 T01390006=
201303121852 METAR KATL 121852Z 33016G20KT 10SM FEW250 13/00 A3000 RMK AO2 SLP161 T01280000=
201303121752 METAR KATL 121752Z 31012KT 10SM FEW250 12/01 A3001 RMK AO2 SLP164 T01170011 10122 20039 51009=
201303121652 METAR KATL 121652Z 31016KT 10SM FEW250 10/01 A3000 RMK AO2 SLP162 T01000011=
201303121552 METAR KATL 121552Z 32013G22KT 10SM FEW250 09/02 A3000 RMK AO2 SLP160 T00890017=
201303121452 METAR KATL 121452Z 32017G22KT 10SM FEW025 SCT250 07/01 A2998 RMK AO2 SLP155 T00720011 53014=
201303121352 METAR KATL 121352Z 33013G20KT 10SM FEW020 SCT250 06/00 A2996 RMK AO2 SLP147 T00560000=
201303121252 METAR KATL 121252Z 33014KT 10SM FEW020 SCT250 04/00 A2994 RMK AO2 SLP142 T00440000=
201303121211 SPECI KATL 121211Z 33015G21KT 10SM FEW018 SCT030 BKN250 04/00 A2994 RMK AO2=
201303121152 METAR KATL 121152Z 34013KT 10SM BKN017 OVC050 04/01 A2994 RMK AO2 PK WND 32026/1058 SLP141 70109 T00440006 10072 20044 53022=
201303121052 METAR KATL 121052Z 32015G20KT 10SM BKN017 04/01 A2991 RMK AO2 SLP130 T00440011=
201303120952 METAR KATL 120952Z 32013KT 10SM BKN017 04/02 A2988 RMK AO2 SLP121 T00440017=
201303120852 METAR KATL 120852Z 31011KT 10SM FEW014 05/02 A2987 RMK AO2 SLP117 T00500022 51004=
201303120826 SPECI KATL 120826Z 32013KT 10SM SCT014 05/03 A2987 RMK AO2=
201303120752 METAR KATL 120752Z 31013G19KT 10SM BKN014 06/03 A2987 RMK AO2 SLP115 T00560033=
201303120652 METAR KATL 120652Z 31010KT 7SM OVC010 07/04 A2987 RMK AO2 SLP115 T00670044=
201303120634 SPECI KATL 120634Z 31011KT 7SM BKN012 BKN030 07/04 A2986 RMK AO2=
201303120612 SPECI KATL 120612Z 31012KT 10SM SCT023 BKN030 BKN065 07/04 A2986 RMK AO2=
201303120552 METAR KATL 120552Z 30012KT 10SM BKN023 OVC038 07/05 A2986 RMK AO2 RAE00DZB01E23 SLP111 P0001 60031 T00720050 10139 20072 50008=
201303120525 SPECI KATL 120525Z 30013G21KT 6SM BR FEW008 BKN025 OVC034 08/06 A2986 RMK AO2 RAE00DZB01E23 P0001=
201303120515 SPECI KATL 120515Z 31014KT 2SM -DZ BR SCT007 SCT012 OVC034 08/06 A2986 RMK AO2 SFC VIS 5 RAE00DZB01 P0001=
201303120452 METAR KATL 120452Z 32013KT 2SM -RA BR BKN007 BKN012 OVC030 08/07 A2986 RMK AO2 SFC VIS 3 SLP110 P0002 T00780067 401940078=
201303120352 METAR KATL 120352Z 31011KT 2SM -RA BR BKN007 BKN014 OVC025 10/09 A2985 RMK AO2 SFC VIS 3 SLP107 P0004 T01000089=
201303120252 METAR KATL 120252Z 32009KT 2SM -RA BR BKN005 OVC018 12/11 A2984 RMK AO2 SFC VIS 2 1/2 SLP102 P0001 60024 T01220111 53006=
201303120152 METAR KATL 120152Z 34007KT 2SM -RA BR OVC006 13/12 A2982 RMK AO2 SFC VIS 2 1/2 SLP097 CIG 004V009 P0009 T01280122=
201303120101 SPECI KATL 120101Z 00000KT 2SM -RA BR BKN004 BKN014 OVC040 13/13 A2982 RMK AO2 SFC VIS 6 CIG 003V006 P0001=
201303120052 METAR KATL 120052Z 00000KT 2SM -RA BR SCT004 BKN014 OVC040 13/13 A2981 RMK AO2 SFC VIS 4 SLP094 P0014 T01330128=
201303120042 SPECI KATL 120042Z 13003KT 2SM RA BR BKN004 BKN015 OVC030 13/13 A2982 RMK AO2 SFC VIS 3 P0010=
201303112352 METAR KATL 112352Z 10007KT 1SM RA BR SCT004 BKN012 OVC070 13/12 A2982 RMK AO2 SFC VIS 3 SLP096 P0016 60078 T01330122 10189 20128 58005=
201303112338 SPECI KATL 112338Z 08010KT 2SM RA BR BKN005 BKN020 OVC035 13/12 A2983 RMK AO2 SFC VIS 3 CIG 003V007 P0012=
201303112315 SPECI KATL 112315Z 08008KT 2SM RA BR SCT005 BKN022 OVC035 13/12 A2983 RMK AO2 SFC VIS 3 P0007=
201303112252 METAR KATL 112252Z 04005KT 2SM +RA BR FEW005 BKN034 OVC060 13/12 A2984 RMK AO2 SLP103 P0016 T01330122=
201303112200 SPECI KATL 112200Z 33006KT 2SM RA BR FEW006 BKN032 OVC050 13/12 A2986 RMK AO2 SFC VIS 3 P0003=
201303112152 METAR KATL 112152Z 33008KT 2SM +RA BR FEW006 BKN025 OVC040 13/12 A2985 RMK AO2 SLP107 P0031 T01330117=
201303112138 SPECI KATL 112138Z 32014KT 2SM RA BR SCT007 BKN020 OVC050 13/12 A2986 RMK AO2 PRESRR P0022=
201303112100 SPECI KATL 112100Z 26008KT 2SM R09R/6000VP6000FT RA BR FEW012CB BKN030 OVC060 16/13 A2983 RMK AO2 SFC VIS 4 CB NE-SE MOV NE P0005=
201303112052 METAR KATL 112052Z 26009KT 2SM R09R/5000VP6000FT RA BR SCT010CB BKN030 OVC080 15/14 A2984 RMK AO2 SFC VIS 3 SLP100 CB OHD-NE-SE MOV NE P0013 60015 T01500139 56014=
201303111952 METAR KATL 111952Z 16013KT 2 1/2SM R09R/5500VP6000FT RA SCT030 BKN040 OVC070 17/13 A2984 RMK AO2 SFC VIS 3 RAB29 SLP100 P0002 T01670128=
201303111852 METAR KATL 111852Z 15015KT 10SM BKN038 BKN045 OVC150 18/11 A2984 RMK AO2 SLP099 T01830106=
201303111752 METAR KATL 111752Z 16016G26KT 10SM BKN036 BKN050 OVC150 18/10 A2988 RMK AO2 PK WND 16030/1703 SLP113 T01830100 10194 20128 58033=
201303111652 METAR KATL 111652Z 19017G26KT 10SM BKN037 BKN050 OVC150 19/10 A2992 RMK AO2 PK WND 18027/1636 SLP126 T01940100=
201303111552 METAR KATL 111552Z 15012G20KT 10SM FEW020 SCT050 BKN150 OVC200 17/11 A2996 RMK AO2 SLP141 T01720111=
201303111452 METAR KATL 111452Z 15011G19KT 10SM FEW015 SCT050 BKN150 BKN200 15/11 A2998 RMK AO2 SLP148 T01500106 58015=
201303111431 SPECI KATL 111431Z 15012G17KT 10SM FEW015 SCT050 BKN150 BKN200 14/11 A2998 RMK AO2=
201303111359 SPECI KATL 111359Z 15010G16KT 10SM BKN015 14/11 A3000 RMK AO2=
201303111352 METAR KATL 111352Z 15011G18KT 10SM SCT015 SCT050 BKN150 BKN200 14/11 A3000 RMK AO2 SLP156 T01390106=
201303111326 SPECI KATL 111326Z 15013G18KT 10SM BKN017 BKN050 OVC150 14/10 A3000 RMK AO2=
201303111252 METAR KATL 111252Z 13009G14KT 9SM FEW013 SCT050 BKN150 BKN200 13/10 A3000 RMK AO2 SLP157 T01280100=
201303111228 SPECI KATL 111228Z 13009KT 9SM SCT025 BKN150 BKN250 13/10 A3000 RMK AO2=
201303111152 METAR KATL 111152Z 14007KT 10SM BKN019 OVC025 13/10 A3002 RMK AO2 SLP162 T01280100 10144 20128 50002=
201303111052 METAR KATL 111052Z COR 16010G15KT 10SM OVC019 13/10 A3003 RMK AO2 SLP165 T01280100 $=
201303110952 METAR KATL 110952Z 14007KT 10SM BKN016 OVC050 13/10 A3002 RMK AO2 SLP163 T01330100=
201303110852 METAR KATL 110852Z 15011G16KT 10SM OVC016 13/10 A3002 RMK AO2 SLP160 T01330100 58016=
201303110837 SPECI KATL 110837Z 15009G19KT 10SM BKN016 OVC250 13/10 A3002 RMK AO2=
201303110752 METAR KATL 110752Z 14011G20KT 10SM FEW016 BKN250 13/09 A3002 RMK AO2 SLP163 T01330094=
201303110652 METAR KATL 110652Z 15011G15KT 10SM FEW150 BKN250 14/09 A3006 RMK AO2 SLP174 T01390094=
201303110552 METAR KATL 110552Z 15011G16KT 10SM FEW220 14/08 A3006 RMK AO2 SLP177 T01440083 10189 20144 58005=
201303110452 METAR KATL 110452Z 15010KT 10SM SCT220 15/08 A3008 RMK AO2 SLP181 T01500078 402170100=
201303110352 METAR KATL 110352Z 13006KT 10SM SCT250 16/06 A3008 RMK AO2 SLP182 T01560061=
201303110252 METAR KATL 110252Z 14006KT 10SM FEW250 16/06 A3008 RMK AO2 SLP184 T01610056 53003=
201303110152 METAR KATL 110152Z 14006KT 10SM FEW250 17/04 A3007 RMK AO2 SLP181 T01670044=
201303110052 METAR KATL 110052Z 14008KT 10SM FEW250 18/04 A3007 RMK AO2 SLP182 T01780039=
201303102352 METAR KATL 102352Z 14010KT 10SM FEW150 SCT250 19/04 A3007 RMK AO2 SLP181 T01890039 10217 20189 56009=
201303102252 METAR KATL 102252Z 16014G18KT 10SM FEW150 BKN220 21/03 A3008 RMK AO2 SLP183 T02060033=
201303102152 METAR KATL 102152Z 15008KT 10SM SCT150 BKN220 21/02 A3009 RMK AO2 SLP187 T02060017=
201303102052 METAR KATL 102052Z 17011G17KT 10SM SCT120 BKN220 21/02 A3010 RMK AO2 SLP190 T02060022 56018=
201303101952 METAR KATL 101952Z 15011KT 10SM FEW060 SCT100 BKN250 21/01 A3012 RMK AO2 SLP197 T02060006=
201303101852 METAR KATL 101852Z 13009G20KT 10SM FEW055 SCT100 BKN250 20/00 A3013 RMK AO2 SLP200 T02000000=
201303101752 METAR KATL 101752Z 16010G19KT 10SM FEW100 BKN250 19/00 A3015 RMK AO2 SLP209 T01890000 10189 20100 58019=
201303101652 METAR KATL 101652Z 14011G16KT 10SM FEW100 SCT250 18/M01 A3019 RMK AO2 SLP220 T01781006=
201303101552 METAR KATL 101552Z 13009KT 10SM FEW120 SCT250 16/01 A3020 RMK AO2 SLP225 T01610011=
201303101452 METAR KATL 101452Z 15008G17KT 10SM FEW130 SCT250 14/01 A3021 RMK AO2 SLP230 T01390011 55000=
201303101352 METAR KATL 101352Z 13007KT 10SM FEW140 BKN250 12/01 A3019 RMK AO2 SLP223 VIRGA W T01170006=
201303101252 METAR KATL 101252Z 12008KT 10SM FEW120 BKN150 BKN250 11/01 A3019 RMK AO2 SLP224 VIRGA OHD-W-NW T01060006=
201303101152 METAR KATL 101152Z 13003KT 9SM SCT150 BKN200 10/01 A3021 RMK AO2 SLP231 T01000011 10128 20100 53018=
201303101052 METAR KATL 101052Z 13006KT 10SM SCT150 OVC200 11/01 A3018 RMK AO2 SLP220 T01060011=
201303100952 METAR KATL 100952Z 14006KT 10SM FEW120 BKN150 OVC180 12/00 A3017 RMK AO2 SLP216 T01170000=
201303100852 METAR KATL 100852Z 13005KT 10SM FEW110 BKN150 12/M01 A3016 RMK AO2 SLP211 VIRGA NE-SE T01171006 55010=
201303100752 METAR KATL 100752Z 14006KT 10SM BKN110 OVC150 12/M01 A3016 RMK AO2 SLP210 VIRGA ALQDS T01221011=
201303100652 METAR KATL 100652Z 12010G15KT 10SM BKN150 OVC250 13/M01 A3017 RMK AO2 SLP213 T01281011=
201303100552 METAR KATL 100552Z 12006KT 10SM SCT170 BKN240 12/M01 A3019 RMK AO2 SLP221 VIRGA NE & SW T01221006 10150 20122 58008=
201303100452 METAR KATL 100452Z 12005KT 10SM BKN160 BKN220 13/M01 A3021 RMK AO2 SLP229 T01281006 401610039=
201303100352 METAR KATL 100352Z 12006KT 10SM BKN150 BKN220 13/M01 A3021 RMK AO2 SLP231 T01331011=
201303100252 METAR KATL 100252Z 13005KT 10SM BKN160 BKN220 14/M01 A3021 RMK AO2 SLP231 T01391011 55004=
201303100152 METAR KATL 100152Z 13005KT 10SM OVC150 14/M01 A3021 RMK AO2 SLP231 T01441011=
201303100052 METAR KATL 100052Z 10005KT 10SM OVC150 15/M01 A3022 RMK AO2 SLP235 T01501006=
201303092352 METAR KATL 092352Z 09005KT 10SM OVC140 14/00 A3022 RMK AO2 SLP237 T01440000 10161 20139 53002=
201303092252 METAR KATL 092252Z 11004KT 10SM BKN140 BKN250 16/M01 A3021 RMK AO2 SLP233 T01561011=
201303092152 METAR KATL 092152Z 12006KT 10SM BKN140 BKN220 16/M02 A3021 RMK AO2 SLP232 T01611017=
201303092052 METAR KATL 092052Z 15007KT 10SM BKN150 OVC220 16/M03 A3022 RMK AO2 SLP234 T01561028 56022=
201303091952 METAR KATL 091952Z 16010KT 10SM CLR 15/M03 A3023 RMK AO2 SLP237 T01501028=
201303091852 METAR KATL 091852Z 16009KT 10SM CLR 16/M02 A3025 RMK AO2 SLP246 T01561022=
201303091752 METAR KATL 091752Z 15006KT 10SM BKN180 BKN250 14/M03 A3029 RMK AO2 SLP258 T01391028 10139 20039 58010=
201303091652 METAR KATL 091652Z 16008KT 10SM SCT180 BKN250 13/M04 A3031 RMK AO2 SLP264 T01281039=
201303091552 METAR KATL 091552Z 14010KT 10SM FEW200 BKN250 11/M03 A3031 RMK AO2 SLP266 T01111033=
201303091452 METAR KATL 091452Z 14008KT 10SM FEW200 BKN250 10/M04 A3032 RMK AO2 SLP270 T01001039 51014=
201303091352 METAR KATL 091352Z 11008KT 10SM SCT200 BKN250 08/M04 A3032 RMK AO2 SLP270 T00831044=
201303091252 METAR KATL 091252Z 09008G15KT 10SM BKN250 06/M03 A3031 RMK AO2 SLP265 T00611033=
201303091152 METAR KATL 091152Z 08009KT 10SM SCT250 05/M03 A3028 RMK AO2 SLP255 T00501033 10089 20039 53019=
201303091052 METAR KATL 091052Z 08008KT 10SM FEW250 04/M03 A3025 RMK AO2 SLP245 T00391028=
201303090952 METAR KATL 090952Z 08008KT 10SM FEW250 04/M03 A3023 RMK AO2 SLP237 T00441033=
201303090852 METAR KATL 090852Z 05003KT 10SM FEW250 06/M05 A3022 RMK AO2 SLP234 T00611050 58003=
201303090752 METAR KATL 090752Z 06003KT 10SM FEW250 07/M06 A3022 RMK AO2 SLP236 T00671056=
201303090652 METAR KATL 090652Z 11003KT 10SM FEW250 07/M05 A3024 RMK AO2 SLP241 T00671050=
201303090552 METAR KATL 090552Z 33003KT 10SM SCT250 08/M06 A3023 RMK AO2 SLP238 T00781061 10139 20061 58003=
201303090452 METAR KATL 090452Z 00000KT 10SM SCT250 08/M07 A3023 RMK AO2 SLP240 T00831067 401830000=
201303090352 METAR KATL 090352Z 00000KT 10SM SCT250 10/M08 A3024 RMK AO2 SLP243 T01001078=
201303090252 METAR KATL 090252Z 31005KT 10SM FEW250 10/M07 A3024 RMK AO2 SLP243 T01001067 51006=
201303090152 METAR KATL 090152Z 33005KT 10SM FEW250 11/M07 A3023 RMK AO2 SLP239 T01111067=
201303090052 METAR KATL 090052Z 33007KT 10SM FEW250 13/M07 A3024 RMK AO2 SLP243 T01281067=
201303082352 METAR KATL 082352Z 30006KT 10SM FEW250 14/M06 A3022 RMK AO2 SLP238 T01391056 10183 20139 51004=
201303082252 METAR KATL 082252Z 32006KT 10SM FEW250 16/M04 A3022 RMK AO2 SLP236 T01611044=
201303082152 METAR KATL 082152Z 33008KT 10SM FEW250 17/M05 A3022 RMK AO2 SLP235 T01721050=
201303082052 METAR KATL 082052Z 32008KT 10SM FEW250 18/M04 A3021 RMK AO2 SLP232 T01781044 56024=
201303081952 METAR KATL 081952Z 01003KT 10SM CLR 17/M04 A3022 RMK AO2 SLP235 T01671039=
201303081852 METAR KATL 081852Z VRB04KT 10SM CLR 16/M04 A3024 RMK AO2 SLP241 T01561044=
201303081752 METAR KATL 081752Z 35005KT 10SM CLR 14/M02 A3028 RMK AO2 SLP257 T01441022 10144 20000 58009=
201303081652 METAR KATL 081652Z 00000KT 10SM CLR 12/M03 A3031 RMK AO2 SLP267 T01171028=
201303081552 METAR KATL 081552Z 00000KT 10SM CLR 09/M03 A3031 RMK AO2 SLP269 T00891033=
201303081452 METAR KATL 081452Z 08004KT 10SM CLR 07/M04 A3031 RMK AO2 SLP269 T00671039 52009=
201303081352 METAR KATL 081352Z 08007KT 10SM CLR 05/M04 A3030 RMK AO2 SLP266 T00501039=
201303081252 METAR KATL 081252Z 02006KT 9SM CLR 02/M03 A3029 RMK AO2 SLP263 T00221028=
201303081152 METAR KATL 081152Z 36004KT 9SM CLR 01/M03 A3028 RMK AO2 SLP259 T00061033 10039 20000 53017=
201303081052 METAR KATL 081052Z 35004KT 10SM CLR 00/M03 A3026 RMK AO2 SLP251 T00001033=
201303080952 METAR KATL 080952Z 34005KT 10SM CLR 01/M03 A3024 RMK AO2 SLP244 T00061033=
201303080852 METAR KATL 080852Z 34009KT 10SM CLR 01/M03 A3023 RMK AO2 SLP240 T00111033 50008=
201303080752 METAR KATL 080752Z 33007KT 10SM CLR 02/M03 A3023 RMK AO2 SLP241 T00221028=
201303080652 METAR KATL 080652Z 33009KT 10SM CLR 03/M03 A3022 RMK AO2 SLP238 T00331028=
201303080552 METAR KATL 080552Z 32007KT 10SM CLR 04/M02 A3021 RMK AO2 SLP233 T00391022 10111 20039 58006=
201303080452 METAR KATL 080452Z 34008KT 10SM CLR 04/M02 A3021 RMK AO2 SLP235 T00441017 401501006=
201303080352 METAR KATL 080352Z 33009KT 10SM CLR 06/M02 A3022 RMK AO2 SLP238 T00561017=
201303080252 METAR KATL 080252Z 33007KT 10SM CLR 07/M02 A3022 RMK AO2 SLP240 T00671017 50005=
201303080152 METAR KATL 080152Z 34006KT 10SM CLR 08/M02 A3023 RMK AO2 SLP241 T00831017=
201303080052 METAR KATL 080052Z 32007KT 10SM CLR 09/M02 A3022 RMK AO2 SLP239 T00941017=
201303072352 METAR KATL 072352Z 32009KT 10SM FEW200 11/M03 A3021 RMK AO2 SLP234 T01111028 10150 20111 53012=
201303072252 METAR KATL 072252Z 32013G17KT 10SM FEW200 13/M03 A3019 RMK AO2 SLP227 T01331028=
201303072152 METAR KATL 072152Z 31007KT 10SM FEW200 14/M04 A3017 RMK AO2 SLP221 T01441039=
201303072052 METAR KATL 072052Z 32008KT 10SM FEW200 15/M03 A3017 RMK AO2 SLP221 T01501028 56017=
201303071952 METAR KATL 071952Z 33010KT 10SM FEW200 15/M02 A3018 RMK AO2 SLP224 T01501022=
201303071852 METAR KATL 071852Z VRB06KT 10SM FEW200 13/M02 A3020 RMK AO2 SLP230 T01331017=
201303071752 METAR KATL 071752Z 34006KT 10SM FEW200 SCT250 12/M02 A3022 RMK AO2 SLP239 T01171022 10117 20000 58009=
201303071652 METAR KATL 071652Z VRB04KT 10SM FEW200 SCT250 09/M02 A3025 RMK AO2 SLP247 T00941022=
201303071552 METAR KATL 071552Z 32007KT 10SM BKN250 07/M02 A3025 RMK AO2 SLP249 T00721022=
201303071452 METAR KATL 071452Z VRB06KT 10SM BKN250 05/M02 A3025 RMK AO2 SLP251 T00501022 52014=
201303071352 METAR KATL 071352Z 35008KT 10SM SCT250 03/M03 A3023 RMK AO2 SLP245 T00281028=
201303071252 METAR KATL 071252Z 33009KT 9SM FEW190 BKN240 01/M03 A3022 RMK AO2 SLP242 T00061033=
201303071152 METAR KATL 071152Z 34007KT 9SM FEW180 BKN230 00/M04 A3021 RMK AO2 SLP237 T00001039 10011 21006 53010=
201303071052 METAR KATL 071052Z 34007KT 10SM BKN220 M01/M04 A3019 RMK AO2 SLP231 T10061039=
201303070952 METAR KATL 070952Z COR 33008KT 10SM FEW250 00/M04 A3018 RMK AO2 SLP228 T00001039=
201303070852 METAR KATL 070852Z 33007KT 10SM FEW250 00/M04 A3018 RMK AO2 SLP225 T00001039 53005=
201303070752 METAR KATL 070752Z 32012KT 10SM CLR 01/M03 A3016 RMK AO2 SLP221 T00061033=
201303070652 METAR KATL 070652Z 34004KT 10SM FEW250 01/M04 A3016 RMK AO2 SLP221 T00061039=
201303070552 METAR KATL 070552Z 33008KT 10SM FEW035 01/M03 A3016 RMK AO2 SLP221 T00111033 10050 20011 55004=
201303070452 METAR KATL 070452Z 34008KT 10SM FEW035 02/M04 A3016 RMK AO2 SLP220 T00171039 400720000=
201303070352 METAR KATL 070352Z 34011KT 10SM FEW035 02/M04 A3016 RMK AO2 SLP222 T00221039=
201303070252 METAR KATL 070252Z 34012G19KT 10SM FEW040 03/M04 A3017 RMK AO2 SLP225 T00281039 53009=
201303070152 METAR KATL 070152Z 34008KT 10SM FEW040 03/M04 A3016 RMK AO2 SLP221 T00331039=
201303070052 METAR KATL 070052Z 34011KT 10SM FEW040 04/M04 A3015 RMK AO2 SLP218 T00441044=
201303062352 METAR KATL 062352Z 32013G19KT 10SM FEW040 05/M04 A3014 RMK AO2 PK WND 31027/2254 SLP216 T00501044 10072 20039 53013=
201303062252 METAR KATL 062252Z 31015KT 10SM FEW040 07/M04 A3012 RMK AO2 SLP206 T00671039=
201303062152 METAR KATL 062152Z 33015KT 10SM FEW038 07/M03 A3010 RMK AO2 SLP200 T00671033=
201303062052 METAR KATL 062052Z 32015G20KT 10SM BKN038 07/M03 A3011 RMK AO2 PK WND 31026/2012 SLP200 T00721033 53001=
201303061952 METAR KATL 061952Z 31014G21KT 10SM BKN038 05/M04 A3010 RMK AO2 SLP198 T00501039=
201303061852 METAR KATL 061852Z 31014G20KT 10SM OVC038 04/M04 A3009 RMK AO2 SLP197 T00441044=
201303061752 METAR KATL 061752Z 31016G23KT 10SM BKN035 OVC038 04/M04 A3010 RMK AO2 SLP201 T00391044 10039 20006 51017=
201303061652 METAR KATL 061652Z 31015G22KT 10SM BKN035 OVC040 03/M05 A3009 RMK AO2 PK WND 32032/1622 SLP197 T00331050=
201303061552 METAR KATL 061552Z 32018G32KT 10SM BKN038 03/M06 A3007 RMK AO2 PK WND 32036/1524 SLP188 T00331056=
201303061452 METAR KATL 061452Z 31022G32KT 10SM BKN035 BKN040 02/M06 A3005 RMK AO2 PK WND 30033/1408 SLP183 T00221061 53019=
201303061352 METAR KATL 061352Z 30020G24KT 10SM BKN037 BKN045 02/M06 A3003 RMK AO2 PK WND 31029/1310 SLP174 T00171061=
201303061252 METAR KATL 061252Z 31022G31KT 10SM OVC037 01/M07 A3001 RMK AO2 PK WND 29031/1250 SLP167 T00111072=
201303061152 METAR KATL 061152Z 30020G30KT 10SM BKN041 01/M08 A2999 RMK AO2 PK WND 31030/1149 SLP160 931000 60000 70013 T00061083 10039 20000 53017=
201303061052 METAR KATL 061052Z 30021G30KT 10SM FEW060 00/M08 A2997 RMK AO2 PK WND 30032/1008 SLP153 T00001083=
201303060952 METAR KATL 060952Z 29016G24KT 10SM CLR 01/M08 A2995 RMK AO2 PK WND 32030/0912 SLP145 T00061083=
201303060852 METAR KATL 060852Z 31021G28KT 10SM FEW024 SCT060 01/M07 A2994 RMK AO2 PK WND 31038/0758 SNB0759E18 SLP141 P0000 60000 T00111067 53006=
201303060752 METAR KATL 060752Z 28017G27KT 10SM SCT038 BKN055 03/M04 A2991 RMK AO2 PK WND 28029/0730 SLP127 T00331039=
201303060652 METAR KATL 060652Z 28018G24KT 10SM FEW060 03/M03 A2991 RMK AO2 PK WND 30026/0615 SLP129 T00331033=
201303060552 METAR KATL 060552Z 30014G23KT 10SM FEW038 SCT050 04/M03 A2992 RMK AO2 SLP133 T00391028 10133 20039 58008=
201303060452 METAR KATL 060452Z 28016G22KT 10SM OVC045 04/M04 A2994 RMK AO2 PK WND 29030/0414 SLP137 T00441039 401830044=
201303060352 METAR KATL 060352Z 31025G36KT 10SM OVC042 04/M04 A2995 RMK AO2 PK WND 29039/0257 SLP143 BINOVC T00441039=
201303060252 METAR KATL 060252Z 30027G43KT 10SM OVC032 05/M03 A2995 RMK AO2 PK WND 30043/0249 SLP143 BINOVC T00501028 51042=
201303060205 SPECI KATL 060205Z 29026G37KT 10SM SCT027 BKN035 06/M02 A2992 RMK AO2 PK WND 28037/0158=
201303060152 METAR KATL 060152Z 29023G34KT 10SM BKN027 BKN035 07/01 A2992 RMK AO2 PK WND 28034/0145 SLP132 T00670006=
201303060052 METAR KATL 060052Z 29022G31KT 10SM SCT028 BKN035 09/03 A2988 RMK AO2 PK WND 30035/0002 SLP117 T00940028=
201303052352 METAR KATL 052352Z 31024G34KT 10SM SCT028 BKN035 13/07 A2982 RMK AO2 PK WND 29034/2352 SLP097 60013 T01330072 10183 20133 53025=
201303052252 METAR KATL 052252Z 28020G36KT 10SM FEW030 SCT050 SCT090 16/10 A2977 RMK AO2 PK WND 27036/2249 WSHFT 2156 TSE11RAE11 SLP079 P0004 T01560100=
201303052211 SPECI KATL 052211Z 25013G23KT 10SM FEW015CB SCT030 BKN050 16/13 A2975 RMK AO2 WSHFT 2156 TSE11RAE11 TS MOV NE CB NE-SE MOV NE SHRA NE-SE P0004=
201303052201 SPECI KATL 052201Z 26011G18KT 6SM -TSRA FEW020CB BKN030 OVC060 16/13 A2974 RMK AO2 OCNL LTGIC OHD-NE-SE TS OHD-NE-SE MOV NE P0000=
201303052152 METAR KATL 052152Z 23009KT 6SM -TSRA BKN033CB BKN050 OVC080 16/13 A2973 RMK AO2 TSB36 SLP064 OCNL LTGIC OHD TS OHD MOV NE P0009 T01610128=
201303052136 SPECI KATL 052136Z 22009KT 8SM -TSRA SCT033CB BKN065 OVC080 16/13 A2973 RMK AO2 TSB36 OCNL LTGIC SW-NW TS SW-NW MOV NE P0006=
201303052132 SPECI KATL 052132Z 22011G16KT 10SM -RA FEW030 BKN040 OVC085 17/12 A2972 RMK AO2 CB DSNT SW-NW P0006=
201303052128 SPECI KATL 052128Z 21012G16KT 6SM -RA FEW025 BKN035 OVC050 16/12 A2972 RMK AO2 CB DSNT SW-NW P0006=
201303052055 SPECI KATL 052055Z 21013G20KT 6SM R09R/5500VP6000FT RA FEW025CB BKN035 OVC043 17/12 A2974 RMK AO2 CB OHD-SW MOV NE P0003=
201303052052 METAR KATL 052052Z 20013G20KT 9SM R09R/5500VP6000FT -RA FEW025CB BKN035 OVC045 17/12 A2974 RMK AO2 RAB18E28B48 SLP070 VIS LWR SW SHRA CB NE & SW MOV NE P0000 60000 T01720117 56050=
201303051952 METAR KATL 051952Z 20015G20KT 10SM BKN030 BKN040 OVC065 18/11 A2978 RMK AO2 SLP083 T01780106=
201303051852 METAR KATL 051852Z 21014G22KT 10SM BKN030 BKN040 OVC060 17/10 A2982 RMK AO2 PRESFR SLP096 T01720100=
201303051752 METAR KATL 051752Z 22012G24KT 10SM BKN030 BKN060 OVC080 17/10 A2990 RMK AO2 PK WND 22027/1653 SLP122 T01720100 10178 20111 56026=
201303051652 METAR KATL 051652Z 22017G27KT 10SM BKN030 BKN045 BKN060 17/10 A2992 RMK AO2 PK WND 23028/1638 SLP129 T01720100=
201303051552 METAR KATL 051552Z 22020G25KT 10SM FEW030 SCT070 SCT250 18/09 A2994 RMK AO2 SLP135 T01780094=
201303051452 METAR KATL 051452Z 22009G18KT 10SM FEW020 SCT070 SCT250 15/09 A2997 RMK AO2 SLP149 T01500089 58007=
201303051352 METAR KATL 051352Z 21013KT 10SM FEW015 SCT070 BKN200 BKN250 12/08 A2999 RMK AO2 SLP155 T01220083=
201303051252 METAR KATL 051252Z 21007KT 9SM FEW019 BKN041 OVC050 12/08 A3000 RMK AO2 SLP160 BINOVC T01170078=
201303051152 METAR KATL 051152Z 20008KT 9SM SCT039 BKN048 11/07 A3000 RMK AO2 SLP157 T01110072 10111 20100 53000=
201303051052 METAR KATL 051052Z 20008KT 10SM SCT039 BKN075 OVC150 11/06 A2999 RMK AO2 SLP156 T01110061=
201303050952 METAR KATL 050952Z 22009KT 10SM FEW048 OVC080 11/05 A2999 RMK AO2 SLP156 BINOVC T01060050=
201303050852 METAR KATL 050852Z 21011G16KT 10SM SCT048 OVC065 11/03 A2999 RMK AO2 SLP157 T01060033 58020=
201303050752 METAR KATL 050752Z 20008KT 10SM OVC048 11/01 A3002 RMK AO2 SLP164 T01060006=
201303050552 METAR KATL 050552Z 22003KT 10SM BKN150 OVC200 10/M01 A3006 RMK AO2 SLP178 T01001011 10133 20100 53002=
201303050452 METAR KATL 050452Z 18006KT 10SM BKN150 OVC250 10/M02 A3004 RMK AO2 SLP176 T01001017 401501022=
201303050352 METAR KATL 050352Z 18007KT 10SM BKN150 OVC250 11/M02 A3004 RMK AO2 SLP174 T01111017=
201303050252 METAR KATL 050252Z 17004KT 10SM FEW120 BKN150 OVC200 11/M02 A3005 RMK AO2 SLP178 T01111022 53004=
201303050152 METAR KATL 050152Z 18012KT 10SM BKN120 OVC150 12/M02 A2999 RMK AO2 SLP159 T01221017=
201303050052 METAR KATL 050052Z 17008KT 10SM SCT120 OVC150 12/M02 A3003 RMK AO2 SLP175 T01221017=
201303042352 METAR KATL 042352Z 14005KT 10SM BKN150 OVC200 13/M02 A3004 RMK AO2 SLP176 T01331022 10150 20111 56006=
201303042252 METAR KATL 042252Z COR 20008KT 10SM BKN150 14/M03 A3005 RMK AO2 SLP179 T01391028=
201303042152 METAR KATL 042152Z 21007KT 10SM FEW150 SCT180 BKN250 14/M04 A3004 RMK AO2 SLP178 VIRGA DSNT NW-N T01441039=
201303042052 METAR KATL 042052Z 23007KT 200V270 10SM FEW150 SCT200 BKN250 15/M03 A3006 RMK AO2 SLP183 T01501033 56023=
201303041952 METAR KATL 041952Z VRB05KT 10SM FEW150 SCT200 BKN250 13/M06 A3007 RMK AO2 SLP189 T01331056=
201303041852 METAR KATL 041852Z 23004KT 10SM FEW150 BKN200 BKN250 12/M06 A3010 RMK AO2 SLP197 T01221061=
201303041752 METAR KATL 041752Z 32003KT 10SM FEW150 BKN200 BKN250 12/M07 A3013 RMK AO2 SLP207 T01171072 10117 21022 58016=
201303041652 METAR KATL 041652Z 32005KT 10SM FEW150 BKN250 10/M08 A3015 RMK AO2 SLP215 T01001083=
201303041552 METAR KATL 041552Z VRB03KT 10SM FEW150 SCT250 08/M08 A3017 RMK AO2 SLP221 T00831078=
201303041452 METAR KATL 041452Z 33003KT 10SM FEW150 SCT250 05/M08 A3018 RMK AO2 SLP226 T00501078 51008=
201303041352 METAR KATL 041352Z 31003KT 10SM FEW250 03/M08 A3017 RMK AO2 SLP227 T00281078=
201303041252 METAR KATL 041252Z 00000KT 10SM FEW090 SCT250 00/M07 A3016 RMK AO2 SLP221 T00001072=
201303041152 METAR KATL 041152Z 30004KT 10SM FEW250 M02/M08 A3015 RMK AO2 SLP220 T10171078 11006 21022 53014=
201303041052 METAR KATL 041052Z 29005KT 10SM CLR M02/M08 A3013 RMK AO2 SLP211 T10171078=
201303040952 METAR KATL 040952Z 30003KT 10SM FEW250 M02/M08 A3012 RMK AO2 SLP207 T10171083=
201303040852 METAR KATL 040852Z 31004KT 10SM FEW250 M02/M08 A3011 RMK AO2 SLP204 T10171083 51011=
201303040752 METAR KATL 040752Z 32004KT 10SM FEW250 M01/M08 A3010 RMK AO2 SLP201 T10061083=
201303040652 METAR KATL 040652Z 30004KT 10SM FEW250 M01/M08 A3009 RMK AO2 SLP199 T10111078=
201303040552 METAR KATL 040552Z 31005KT 10SM FEW250 M01/M08 A3008 RMK AO2 SLP195 T10111078 10028 21011 55001=
201303040452 METAR KATL 040452Z 28004KT 10SM FEW250 M01/M08 A3007 RMK AO2 SLP193 T10061078 400561011=
201303040352 METAR KATL 040352Z 29005KT 10SM CLR 00/M08 A3008 RMK AO2 SLP195 T00001078=
201303040252 METAR KATL 040252Z 29005KT 10SM CLR 01/M08 A3008 RMK AO2 SLP195 T00061078 53011=
201303040152 METAR KATL 040152Z 29005KT 10SM CLR 01/M08 A3007 RMK AO2 SLP191 T00061078=
201303040052 METAR KATL 040052Z 28004KT 10SM CLR 02/M08 A3005 RMK AO2 SLP186 T00171083=
201303032352 METAR KATL 032352Z 31007KT 10SM CLR 03/M08 A3005 RMK AO2 SLP183 T00281083 10056 20011 53011=
201303032252 METAR KATL 032252Z 31011G21KT 10SM CLR 04/M08 A3003 RMK AO2 SLP179 T00391083=
201303032152 METAR KATL 032152Z 31014G18KT 10SM CLR 05/M08 A3002 RMK AO2 PK WND 30026/2121 SLP174 T00501078=
201303032052 METAR KATL 032052Z 30016G22KT 10SM FEW045 06/M08 A3001 RMK AO2 PK WND 32027/2018 SLP171 T00561078 55013=
201303031952 METAR KATL 031952Z 33013G19KT 10SM FEW045 05/M08 A3001 RMK AO2 SLP170 T00501078=
201303031852 METAR KATL 031852Z 34017G22KT 10SM SCT040 04/M07 A3003 RMK AO2 SLP175 T00391067=
201303031752 METAR KATL 031752Z 33015KT 10SM BKN030 01/M06 A3005 RMK AO2 SLP185 931000 60000 T00111061 10011 21006 50002=
201303031709 SPECI KATL 031709Z 30014G21KT 10SM BKN028 OVC036 01/M07 A3006 RMK AO2=
201303031652 METAR KATL 031652Z 29012KT 10SM OVC037 01/M07 A3005 RMK AO2 SLP186 BINOVC T00061067=
201303031643 SPECI KATL 031643Z 31016G19KT 10SM OVC030 00/M07 A3006 RMK AO2=
201303031627 SPECI KATL 031627Z 31010KT 10SM BKN028 OVC038 00/M07 A3006 RMK AO2=
201303031552 METAR KATL 031552Z 34012KT 10SM BKN031 OVC040 01/M07 A3005 RMK AO2 SNE29 SLP184 BINOVC P0000 T00061067=
201303031530 SPECI KATL 031530Z 33008G17KT 7SM BKN040 01/M07 A3005 RMK AO2 SNE29 P0000=
201303031452 METAR KATL 031452Z 31016G19KT 9SM -SN BKN033 OVC040 00/M07 A3004 RMK AO2 SLP182 PCPN VRY LGT P0000 60000 T00001072 51011=
201303031352 METAR KATL 031352Z 33011G19KT 9SM -SN OVC033 M01/M07 A3004 RMK AO2 SLP179 PCPN VRY LGT P0000 T10061072=
201303031252 METAR KATL 031252Z 32013G21KT 9SM -SN BKN033 M01/M07 A3003 RMK AO2 SNB34 SLP176 PCPN VRY LGT P0000 T10061072=
201303031152 METAR KATL 031152Z 31008KT 10SM BKN035 BKN042 M01/M07 A3001 RMK AO2 SLP171 931000 60000 T10061072 10011 21011 53004=
201303031052 METAR KATL 031052Z 31009KT 10SM FEW028 BKN046 M01/M07 A3001 RMK AO2 SNE09 SLP170 P0000 T10061067=
201303031020 SPECI KATL 031020Z 32014G18KT 10SM FEW028 SCT044 M01/M07 A3000 RMK AO2 SNE09 P0000=
201303030952 METAR KATL 030952Z 32012KT 9SM -SN FEW023 SCT029 OVC036 00/M06 A3000 RMK AO2 SLP168 PCPN VRY LGT P0000 T00001056=
201303030942 SPECI KATL 030942Z 32014G19KT 9SM -SN FEW023 SCT029 OVC036 00/M06 A3000 RMK AO2 PCPN VRY LGT P0000=
201303030852 METAR KATL 030852Z 32015KT 9SM -SN BKN021 OVC045 00/M04 A3000 RMK AO2 SLP167 PCPN VRY LGT P0000 60000 T00001044 55003=
201303030845 SPECI KATL 030845Z 32014KT 9SM -SN BKN019 OVC045 00/M04 A3000 RMK AO2 PCPN VRY LGT P0000=
201303030752 METAR KATL 030752Z 33013KT 9SM -SN FEW029 BKN041 01/M05 A3000 RMK AO2 SLP165 PCPN VRY LGT P0000 T00061050=
201303030652 METAR KATL 030652Z COR 34012G19KT 10SM -SN SCT029 OVC041 01/M06 A3001 RMK AO2 SNB52 SLP170 PCPN VRY LGT P0000 T00111056=
201303030552 METAR KATL 030552Z 33011G19KT 10SM FEW027 BKN042 01/M05 A3001 RMK AO2 SLP170 931000 60000 T00111050 10028 20011 55004=
201303030452 METAR KATL 030452Z 32015G20KT 10SM SCT027 BKN048 02/M04 A3001 RMK AO2 SLP170 T00171044 400390011=
201303030403 SPECI KATL 030403Z 32013G17KT 10SM SCT027 OVC048 02/M04 A3002 RMK AO2 VCSH W=
201303030352 METAR KATL 030352Z 31009KT 10SM BKN028 OVC047 02/M04 A3002 RMK AO2 SNE29 SLP174 VCSH W-N P0000 T00171039=
201303030342 SPECI KATL 030342Z 32010G17KT 10SM BKN028 OVC055 02/M04 A3002 RMK AO2 SNE29 P0000=
201303030252 METAR KATL 030252Z 31010KT 10SM -SN SCT028 OVC055 02/M03 A3002 RMK AO2 SNB50 SLP174 PCPN VRY LGT BINOVC P0000 60000 T00221033 51011=
201303030236 SPECI KATL 030236Z 32011KT 10SM SCT028 OVC055 02/M04 A3002 RMK AO2 VCSH W-NW=
201303030206 SPECI KATL 030206Z 30011KT 10SM BKN027 OVC055 02/M04 A3002 RMK AO2 VCSH W-NW=
201303030152 METAR KATL 030152Z 30010G16KT 10SM BKN030 OVC055 02/M04 A3002 RMK AO2 SNE16 SLP171 VCSH W-NW P0000 T00221039=
201303030052 METAR KATL 030052Z 30009KT 10SM -SN BKN030 OVC047 02/M04 A3001 RMK AO2 SNB10 SLP169 PCPN VRY LGT P0000 T00221039=
201303022352 METAR KATL 022352Z 32013G18KT 10SM BKN036 OVC046 03/M05 A2999 RMK AO2 SLP162 VIRGA OHD-ALQDS T00281050 10039 20028 51008=
201303022252 METAR KATL 022252Z 30015KT 10SM SCT034 OVC050 03/M05 A2998 RMK AO2 SLP160 VCSH N BINOVC T00281050=
201303022152 METAR KATL 022152Z 32012G17KT 10SM BKN032 OVC044 03/M04 A2997 RMK AO2 SLP157 T00281039=
201303022052 METAR KATL 022052Z 30011KT 10SM OVC034 03/M04 A2996 RMK AO2 SLP154 T00281044 55006=
201303021952 SPECI KATL 021952Z 31013G19KT 10SM OVC042 04/M04 A2996 RMK AO2 SLP153 T00391044=
201303021952 METAR KATL 021952Z 31013G19KT 10SM OVC042 04/M04 A2996 RMK AO2 SLP153 T00391044=
201303021852 METAR KATL 021852Z 33010KT 10SM OVC037 04/M04 A2997 RMK AO2 SLP153 T00391044=
201303021752 METAR KATL 021752Z 31014G19KT 10SM OVC033 03/M04 A2998 RMK AO2 SLP159 T00331039 10039 20011 58001=
201303021652 METAR KATL 021652Z 32014KT 10SM FEW023 SCT030 OVC036 04/M03 A2998 RMK AO2 SLP159 T00391033=
201303021552 METAR KATL 021552Z 32009KT 10SM BKN025 OVC031 03/M02 A2998 RMK AO2 SLP160 T00331022=
201303021452 METAR KATL 021452Z 31013KT 10SM BKN020 OVC027 02/M02 A2998 RMK AO2 SLP160 T00221022 51013=
201303021352 METAR KATL 021352Z 30012KT 9SM BKN018 OVC030 02/M02 A2998 RMK AO2 SLP158 T00171022=
201303021252 METAR KATL 021252Z 30011KT 9SM BKN020 OVC030 02/M02 A2996 RMK AO2 SLP153 T00171022=
201303021152 METAR KATL 021152Z 30007KT 10SM BKN025 OVC032 01/M03 A2995 RMK AO2 SLP148 931000 60000 T00111028 10028 20011 53001=
201303021052 METAR KATL 021052Z 30012KT 10SM FEW014 BKN028 01/M02 A2994 RMK AO2 SLP147 T00111022=
201303020952 METAR KATL 020952Z 29012KT 10SM BKN018 BKN027 01/M02 A2994 RMK AO2 SLP145 T00111022=
201303020910 SPECI KATL 020910Z 30009KT 10SM FEW017 BKN023 BKN065 01/M02 A2994 RMK AO2=
201303020852 METAR KATL 020852Z 30011KT 10SM FEW021 SCT065 01/M02 A2994 RMK AO2 SNE50 SLP146 P0000 60000 T00111022 58011=
201303020752 METAR KATL 020752Z 30012G18KT 9SM -SN SCT019 SCT038 OVC055 02/M02 A2996 RMK AO2 SLP150 PCPN VRY LGT P0000 T00221022=
201303020717 SPECI KATL 020717Z 31013KT 9SM -SN SCT019 OVC038 02/M02 A2997 RMK AO2 PCPN VRY LGT P0000=
201303020652 METAR KATL 020652Z 29010KT 9SM -SN BKN021 OVC028 02/M01 A2998 RMK AO2 SNB47 SLP158 PCPN VRY LGT P0000 T00221011=
201303020552 METAR KATL 020552Z 28008KT 10SM BKN024 OVC055 03/M02 A2998 RMK AO2 SLP157 T00281017 10044 20028 58009=
201303020535 SPECI KATL 020535Z 30009KT 10SM BKN023 BKN037 OVC055 03/M02 A2997 RMK AO2=
201303020452 METAR KATL 020452Z 31012KT 10SM SCT023 OVC055 03/M02 A2998 RMK AO2 SLP160 T00281017 400670017=
201303020408 SPECI KATL 020408Z 30008KT 10SM BKN023 OVC048 03/M02 A2999 RMK AO2=
201303020352 METAR KATL 020352Z 31010KT 10SM FEW025 SCT038 OVC050 03/M02 A3000 RMK AO2 SLP164 T00331022=
201303020252 METAR KATL 020252Z 30009KT 10SM FEW030 OVC048 04/M02 A3000 RMK AO2 SLP166 T00391022 53009=
201303020152 METAR KATL 020152Z 30008KT 10SM OVC044 04/M03 A2999 RMK AO2 SLP163 T00391028=
201303020052 METAR KATL 020052Z 29009KT 10SM OVC040 04/M03 A2998 RMK AO2 SLP159 T00391028=
201303012352 METAR KATL 012352Z 29007KT 10SM OVC040 04/M03 A2998 RMK AO2 SLP157 T00441028 10067 20044 53007=
201303012252 METAR KATL 012252Z 30009KT 10SM OVC036 04/M03 A2996 RMK AO2 SLP152 T00441028=
201303012152 METAR KATL 012152Z 32012KT 10SM OVC036 05/M03 A2996 RMK AO2 SLP151 T00501028=
201303012052 METAR KATL 012052Z 31012KT 10SM OVC038 06/M03 A2995 RMK AO2 SLP150 T00561033 55010=
201303011952 METAR KATL 011952Z 31008KT 10SM OVC038 06/M03 A2995 RMK AO2 SLP148 T00611028=
201303011852 METAR KATL 011852Z 29013KT 10SM OVC034 06/M03 A2996 RMK AO2 SLP153 T00561028=
201303011752 METAR KATL 011752Z 31012KT 10SM OVC032 05/M03 A2998 RMK AO2 SLP160 T00501028 10050 20017 58004=
201303011652 METAR KATL 011652Z 30011G18KT 10SM OVC032 05/M03 A3000 RMK AO2 SLP165 T00501033=
201303011552 METAR KATL 011552Z 33012KT 10SM OVC032 04/M03 A3000 RMK AO2 SLP166 T00441033=
201303011452 METAR KATL 011452Z 33013G19KT 10SM BKN030 BKN200 04/M03 A3000 RMK AO2 SLP164 T00441033 50009=
201303011352 METAR KATL 011352Z 30009KT 10SM BKN030 BKN220 03/M04 A3000 RMK AO2 SLP166 T00281039=
201303011252 METAR KATL 011252Z 30010KT 10SM BKN030 BKN220 02/M04 A2998 RMK AO2 SLP157 T00221039=
