##########################################################
# Query made at 04/19/2024 23:38:15 UTC
# Time interval: from 05/01/2014 12:00  to 05/31/2014 12:59  UTC
##########################################################

##########################################################
# KATL, Atlanta, Hartsfield - Jackson Atlanta International Airport (United States)
# WMO index: 72219. WIGOS ID: 0-20000-0-72219
# Latitude 33-38-59N. Longitude 084-25-00W. Altitude 312 m.
##########################################################

201405311252 METAR KATL 311252Z 08006KT 10SM FEW250 23/18 A3012 RMK AO2 SLP191 T02330183=
201405311152 METAR KATL 311152Z 06007KT 10SM FEW250 22/18 A3011 RMK AO2 SLP186 T02220183 10222 20194 53006=
201405311052 METAR KATL 311052Z 04004KT 10SM FEW250 21/18 A3010 RMK AO2 SLP183 T02110183=
201405310952 METAR KATL 310952Z 00000KT 10SM FEW250 21/18 A3009 RMK AO2 SLP181 T02060183=
201405310852 METAR KATL 310852Z COR 00000KT 10SM SCT250 20/18 A3009 RMK AO2 SLP181 T02000183 58002=
201405310752 METAR KATL 310752Z 00000KT 10SM BKN250 21/18 A3009 RMK AO2 SLP180 T02060183=
201405310652 METAR KATL 310652Z 32004KT 10SM FEW035 BKN250 21/18 A3010 RMK AO2 SLP182 T02060183=
201405310552 METAR KATL 310552Z 30004KT 10SM FEW035 OVC250 21/18 A3010 RMK AO2 SLP181 T02110183 10250 20211 50002=
201405310452 METAR KATL 310452Z 00000KT 10SM FEW035 BKN200 OVC250 22/18 A3011 RMK AO2 SLP187 T02170178 403000200=
201405310352 METAR KATL 310352Z 00000KT 10SM FEW035 BKN200 OVC250 22/18 A3011 RMK AO2 SLP185 T02170183=
201405310252 METAR KATL 310252Z 00000KT 10SM FEW120 BKN200 OVC250 22/18 A3009 RMK AO2 SLP180 T02220183 53008=
201405310152 METAR KATL 310152Z 09005KT 10SM FEW120 BKN200 BKN250 22/18 A3007 RMK AO2 SLP174 FRQ LTG DSNT S T02220183=
201405310052 METAR KATL 310052Z 08007KT 10SM FEW120 BKN200 BKN250 23/19 A3007 RMK AO2 SLP176 FRQ LTG DSNT S-SW T02330189=
201405302352 METAR KATL 302352Z 09006KT 10SM SCT120 BKN200 BKN250 24/16 A3007 RMK AO2 SLP173 CB DSNT SW-W T02440161 10300 20244 51010=
201405302252 METAR KATL 302252Z 04009KT 10SM FEW110 BKN200 BKN250 26/17 A3005 RMK AO2 SLP166 CB DSNT SW T02560167=
201405302152 METAR KATL 302152Z 07008KT 10SM FEW080 SCT110 BKN200 BKN250 24/18 A3006 RMK AO2 TSE03 SLP170 CB DSNT S-SW & NW T02440178=
201405302103 SPECI KATL 302103Z 11009KT 10SM FEW040TCU SCT080 BKN110 BKN250 25/17 A3004 RMK AO2 TSE03 FRQ LTG DSNT NW TS MOV NW TCU VC SW-W=
201405302052 METAR KATL 302052Z 09011G18KT 10SM TS SCT040CB BKN090 BKN200 BKN250 26/17 A3003 RMK AO2 TSB24 SLP161 OCNL LTGICCG VC NW TS VC NW MOV NW T02560172 56015=
201405302024 SPECI KATL 302024Z 14006KT 10SM TS SCT040CB BKN110 BKN200 BKN250 29/18 A3004 RMK AO2 TSB24 OCNL LTGICCG VC SE & NW-N TS VC SE & NW-N MOV NW=
201405301952 METAR KATL 301952Z 21008KT 10SM SCT040TCU BKN070 BKN250 29/19 A3003 RMK AO2 SLP160 CB DSNT NE-SE & NW TCU E-OHD-W VCSH NW T02890189=
201405301852 METAR KATL 301852Z 00000KT 10SM SCT040TCU SCT065 BKN250 29/19 A3005 RMK AO2 SLP166 CB DSNT N & E TCU ALQDS T02890189=
201405301752 METAR KATL 301752Z VRB04KT 10SM FEW030TCU SCT150 BKN250 28/19 A3008 RMK AO2 SLP175 TCU N-NE-E & NW T02830189 10283 20206 58003=
201405301652 METAR KATL 301652Z 15003KT 10SM FEW030 SCT150 BKN200 26/18 A3009 RMK AO2 SLP180 T02610183=
201405301552 METAR KATL 301552Z 00000KT 10SM FEW025 BKN200 BKN250 24/19 A3010 RMK AO2 SLP182 T02440189=
201405301452 METAR KATL 301452Z 11003KT 10SM FEW014 BKN200 OVC250 24/19 A3009 RMK AO2 SLP180 T02390194 50005=
201405301352 METAR KATL 301352Z 00000KT 8SM BKN012 BKN150 BKN250 23/19 A3009 RMK AO2 SLP181 T02280194=
201405301327 SPECI KATL 301327Z 16004KT 8SM BKN010 22/19 A3009 RMK AO2=
201405301252 METAR KATL 301252Z 08006KT 8SM OVC006 22/19 A3008 RMK AO2 SLP177 T02220194=
201405301152 METAR KATL 301152Z 08010KT 8SM OVC006 21/19 A3007 RMK AO2 SLP174 T02060189 10222 20200 53011=
201405301052 METAR KATL 301052Z 08007KT 10SM BKN008 BKN150 BKN200 BKN250 20/18 A3006 RMK AO2 SLP170 T02000183=
201405301046 SPECI KATL 301046Z 08007KT 10SM BKN008 BKN150 BKN200 BKN250 21/18 A3006 RMK AO2=
201405301030 SPECI KATL 301030Z 09009KT 10SM FEW009 SCT060 SCT150 BKN200 20/18 A3005 RMK AO2=
201405300952 METAR KATL 300952Z 09007KT 10SM SCT060 SCT150 BKN200 BKN250 20/18 A3004 RMK AO2 SLP164 T02000183=
201405300852 METAR KATL 300852Z 08009KT 10SM SCT110 BKN150 OVC200 21/19 A3004 RMK AO2 SLP162 T02110189 56005=
201405300752 METAR KATL 300752Z 07010KT 10SM SCT100 BKN150 BKN200 BKN250 22/19 A3004 RMK AO2 SLP162 T02170189=
201405300652 METAR KATL 300652Z 08005KT 10SM BKN150 BKN200 BKN250 22/20 A3004 RMK AO2 SLP163 T02170200=
201405300552 METAR KATL 300552Z 08006KT 10SM FEW150 BKN200 BKN250 22/20 A3005 RMK AO2 SLP167 T02220200 10272 20222 56003=
201405300452 METAR KATL 300452Z 06007KT 10SM SCT200 BKN250 23/20 A3005 RMK AO2 SLP166 T02330200 403000200=
201405300352 METAR KATL 300352Z 05007KT 10SM FEW110 SCT200 BKN250 24/19 A3006 RMK AO2 SLP168 T02440194=
201405300252 METAR KATL 300252Z 01006KT 10SM FEW045 BKN250 24/18 A3006 RMK AO2 SLP169 T02440183 53017=
201405300152 METAR KATL 300152Z 33006KT 10SM FEW100 SCT200 BKN250 25/19 A3004 RMK AO2 SLP162 T02500194=
201405300052 METAR KATL 300052Z 30006KT 10SM FEW045 SCT200 BKN250 26/18 A3003 RMK AO2 SLP158 TCU DSNT N T02560183=
201405292352 METAR KATL 292352Z 23003KT 10SM FEW045 SCT200 BKN250 27/18 A3001 RMK AO2 SLP153 TCU DSNT NW-N T02720178 10300 20272 53004=
201405292252 METAR KATL 292252Z 20006KT 10SM FEW050 SCT200 BKN250 28/17 A3000 RMK AO2 SLP148 CB DSNT NE TCU DSNT N T02780172=
201405292152 METAR KATL 292152Z 22006KT 10SM FEW050 SCT100 BKN250 28/17 A3001 RMK AO2 SLP152 TCU DSNT SE AND SW-NW-NE T02780172=
201405292052 METAR KATL 292052Z 21008KT 10SM FEW055 BKN200 BKN250 29/15 A3000 RMK AO2 SLP149 TCU DSNT ALQDS T02940150 56016=
201405291952 METAR KATL 291952Z 21008KT 10SM FEW050TCU SCT200 BKN250 28/16 A3001 RMK AO2 SLP155 TCU N & SE & NW T02830161=
201405291852 METAR KATL 291852Z 16008KT 10SM FEW047TCU SCT200 BKN250 29/17 A3003 RMK AO2 SLP160 CB DSNT N TCU SE-S-SW TCU DSNT ALQDS SHRA DSNT N T02940167=
201405291752 METAR KATL 291752Z 17008G15KT 10SM SCT043TCU SCT200 BKN250 28/17 A3005 RMK AO2 SLP165 TCU E-SE-S & W T02830172 10294 20211 58008=
201405291652 METAR KATL 291652Z 20006KT 10SM SCT045TCU SCT200 BKN250 28/18 A3007 RMK AO2 SLP174 TCU ALQDS T02830178=
201405291552 METAR KATL 291552Z 15006KT 10SM SCT039TCU BKN250 28/17 A3008 RMK AO2 SLP174 TCU ALQDS T02780167=
201405291452 METAR KATL 291452Z 00000KT 10SM FEW035 BKN200 BKN250 27/19 A3007 RMK AO2 SLP173 T02720194 53009=
201405291352 METAR KATL 291352Z 15003KT 10SM FEW150 BKN200 BKN250 25/19 A3007 RMK AO2 SLP171 T02500194=
201405291252 METAR KATL 291252Z 00000KT 10SM FEW150 BKN200 BKN250 24/19 A3005 RMK AO2 SLP167 T02390189=
201405291152 METAR KATL 291152Z 17003KT 10SM FEW150 BKN250 BKN300 21/19 A3005 RMK AO2 SLP165 T02110189 10228 20200 53012=
201405291052 METAR KATL 291052Z 00000KT 10SM FEW180 SCT250 BKN300 20/18 A3003 RMK AO2 SLP161 T02000183=
201405290952 METAR KATL 290952Z 00000KT 10SM FEW200 SCT250 21/18 A3002 RMK AO2 SLP155 T02060183=
201405290852 METAR KATL 290852Z 00000KT 9SM FEW250 20/18 A3001 RMK AO2 SLP152 T02000178 56007=
201405290752 METAR KATL 290752Z 00000KT 10SM FEW250 21/18 A3001 RMK AO2 SLP152 T02060183=
201405290652 METAR KATL 290652Z 23003KT 10SM FEW120 SCT250 22/18 A3001 RMK AO2 SLP154 T02170178=
201405290552 METAR KATL 290552Z 00000KT 10SM FEW050 SCT120 BKN250 23/18 A3003 RMK AO2 SLP160 T02280183 10272 20228 58005=
201405290452 METAR KATL 290452Z 00000KT 10SM FEW055 SCT200 BKN250 23/19 A3005 RMK AO2 SLP165 T02280189 403060189=
201405290352 METAR KATL 290352Z 21003KT 10SM FEW055 SCT200 BKN250 24/18 A3005 RMK AO2 SLP166 T02390178=
201405290252 METAR KATL 290252Z 15003KT 10SM FEW050 SCT200 BKN250 24/18 A3005 RMK AO2 SLP166 OCNL LTG DSNT E T02440183 53011=
201405290152 METAR KATL 290152Z 00000KT 10SM FEW050 SCT200 BKN250 26/17 A3003 RMK AO2 SLP158 T02560172=
201405290052 METAR KATL 290052Z 00000KT 10SM FEW050 BKN180 BKN250 27/17 A3002 RMK AO2 SLP155 TCU DSNT SE T02670172=
201405282352 METAR KATL 282352Z 00000KT 10SM FEW050 SCT200 BKN250 27/16 A3002 RMK AO2 SLP155 CB DSNT NE 60000 T02720161 10306 20267 53002=
201405282252 METAR KATL 282252Z 23006KT 10SM SCT055TCU SCT200 BKN250 29/16 A2999 RMK AO2 SLP148 TCU OHD-SE AND VC NE T02890161=
201405282152 METAR KATL 282152Z 18005KT 10SM FEW055 SCT200 BKN250 29/16 A3000 RMK AO2 SLP151 TCU DSNT N-NE T02940161=
201405282052 METAR KATL 282052Z 21006KT 10SM FEW060 SCT200 BKN250 30/16 A3001 RMK AO2 SLP152 CB DSNT NE TCU DSNT SW-NW SHRA DSNT NE 60000 T03000156 56019=
201405281952 METAR KATL 281952Z 24005KT 10SM SCT050TCU BKN110 BKN250 30/17 A3003 RMK AO2 RAE1858 SLP157 CB DSNT N-NE TCU NE-S SHRA DSNT N-NE P0000 T03000172=
201405281852 METAR KATL 281852Z 27004KT 10SM -RA FEW030CB BKN040TCU BKN110 BKN250 27/19 A3005 RMK AO2 RAB41 SLP167 CB SE MOV NE CB DSNT NE & NW TCU OHD & ALQDS SHRA SE P0000 T02720194=
201405281752 METAR KATL 281752Z VRB04KT 10SM BKN042TCU BKN250 28/18 A3007 RMK AO2 SLP171 TCU OHD & ALQDS T02830178 10289 20211 58008=
201405281652 METAR KATL 281652Z 16008KT 10SM SCT045TCU SCT200 BKN250 28/18 A3008 RMK AO2 SLP176 TCU ALQDS T02830178=
201405281552 METAR KATL 281552Z VRB05KT 10SM SCT033 SCT200 BKN250 27/18 A3009 RMK AO2 SLP180 TCU DSNT N-NE T02720183=
201405281452 METAR KATL 281452Z VRB03KT 10SM FEW030 SCT200 BKN250 26/18 A3009 RMK AO2 SLP179 T02560183 50003=
201405281352 METAR KATL 281352Z 00000KT 10SM SCT250 25/18 A3010 RMK AO2 SLP183 T02500183=
201405281252 METAR KATL 281252Z 23005KT 10SM SCT200 SCT250 23/17 A3009 RMK AO2 SLP180 T02280172=
201405281152 METAR KATL 281152Z 22003KT 10SM FEW150 SCT200 SCT250 21/17 A3008 RMK AO2 SLP178 T02110172 10222 20189 53012=
201405281052 METAR KATL 281052Z 00000KT 10SM FEW150 SCT200 SCT250 19/17 A3007 RMK AO2 SLP172 T01940172=
201405280952 METAR KATL 280952Z 00000KT 10SM FEW150 SCT200 BKN250 19/17 A3005 RMK AO2 SLP168 T01940172=
201405280852 METAR KATL 280852Z 00000KT 9SM FEW180 SCT250 19/18 A3005 RMK AO2 SLP165 T01940178 56008=
201405280752 METAR KATL 280752Z 00000KT 9SM FEW180 SCT250 20/18 A3005 RMK AO2 SLP165 T02000183=
201405280652 METAR KATL 280652Z 00000KT 9SM SCT180 BKN250 21/19 A3006 RMK AO2 SLP170 T02110189=
201405280552 METAR KATL 280552Z 00000KT 8SM FEW180 BKN250 22/19 A3007 RMK AO2 SLP172 T02220194 10267 20217 58011=
201405280452 METAR KATL 280452Z COR 21005KT 8SM SCT180 BKN250 23/20 A3009 RMK AO2 SLP179 T02280200 402830194=
201405280352 METAR KATL 280352Z 20005KT 8SM SCT180 BKN250 23/20 A3011 RMK AO2 SLP185 T02280200=
201405280252 METAR KATL 280252Z 20005KT 9SM BKN180 OVC250 24/21 A3010 RMK AO2 SLP184 T02390206 53013=
201405280152 METAR KATL 280152Z 19005KT 10SM BKN200 BKN250 24/20 A3009 RMK AO2 SLP179 T02390200=
201405280052 METAR KATL 280052Z 20003KT 10SM BKN200 BKN250 26/19 A3008 RMK AO2 SLP176 T02560194=
201405272352 METAR KATL 272352Z 20005KT 10SM FEW035 SCT200 BKN250 27/19 A3006 RMK AO2 SLP171 TCU DSNT SW T02670194 10283 20267 55007=
201405272252 METAR KATL 272252Z 21006KT 10SM SCT035TCU SCT200 BKN250 27/19 A3006 RMK AO2 SLP170 TCU N-NE AND DSNT SE T02720194=
201405272152 METAR KATL 272152Z 21006KT 10SM FEW035 SCT050 BKN250 28/19 A3006 RMK AO2 SLP171 TCU DSNT NE-SE-S T02780194=
201405272052 METAR KATL 272052Z 22007KT 10SM FEW030 SCT040 BKN250 27/19 A3008 RMK AO2 SLP178 TCU DSNT S T02720194 56017=
201405271952 METAR KATL 271952Z VRB05KT 10SM FEW030TCU SCT100 SCT180 OVC250 28/19 A3010 RMK AO2 SLP182 TCU E T02780194=
201405271852 METAR KATL 271852Z 24007KT 10SM FEW030TCU SCT100 BKN160 OVC250 27/20 A3012 RMK AO2 SLP190 TCU W-NW T02720200=
201405271752 METAR KATL 271752Z 24004KT 10SM FEW028TCU SCT100 OVC250 28/20 A3013 RMK AO2 SLP195 TCU S T02780200 10278 20211 58013 $=
201405271652 METAR KATL 271652Z 27005KT 10SM FEW030TCU SCT100 OVC250 27/20 A3015 RMK AO2 SLP202 TCU NE-E & S T02720200 $=
201405271638 SPECI KATL 271638Z VRB05KT 9SM FEW025 SCT040 OVC250 26/20 A3016 RMK AO2=
201405271552 METAR KATL 271552Z COR 24005KT 10SM SCT023 SCT100 OVC250 27/20 A3017 RMK AO2 SLP207 T02670200 $=
201405271452 METAR KATL 271452Z 23005KT 10SM FEW020 SCT150 BKN250 25/19 A3017 RMK AO2 SLP208 T02500194 50003 $=
201405271352 METAR KATL 271352Z 24008KT 10SM FEW025 BKN150 BKN250 25/18 A3018 RMK AO2 SLP210 T02500183=
201405271252 METAR KATL 271252Z 23007KT 10SM FEW160 OVC250 23/18 A3018 RMK AO2 SLP210 T02280178=
201405271152 METAR KATL 271152Z 23003KT 9SM FEW160 OVC250 21/18 A3016 RMK AO2 SLP206 70001 T02110183 10211 20194 53006=
201405271052 METAR KATL 271052Z 21003KT 8SM SCT090 BKN250 19/18 A3016 RMK AO2 SLP205 T01940178=
201405270952 METAR KATL 270952Z 00000KT 10SM SCT200 OVC250 20/18 A3015 RMK AO2 SLP203 T02000178=
201405270852 METAR KATL 270852Z 25004KT 10SM BKN200 21/18 A3015 RMK AO2 SLP201 T02060178 55004=
201405270752 METAR KATL 270752Z 22004KT 10SM SCT200 OVC250 20/17 A3014 RMK AO2 SLP199 T02000172=
201405270652 METAR KATL 270652Z 20003KT 10SM BKN200 OVC250 21/17 A3014 RMK AO2 SLP199 T02060172=
201405270552 METAR KATL 270552Z 00000KT 10SM FEW048 OVC200 21/17 A3016 RMK AO2 SLP203 T02110172 10239 20211 58006=
201405270452 METAR KATL 270452Z 21003KT 10SM FEW120 SCT200 BKN250 21/17 A3017 RMK AO2 SLP207 T02110172 402940189=
201405270352 METAR KATL 270352Z 19007KT 10SM FEW120 SCT200 BKN250 21/18 A3018 RMK AO2 SLP212 T02110178=
201405270252 METAR KATL 270252Z 18006KT 10SM FEW120 BKN200 BKN250 22/18 A3018 RMK AO2 SLP210 T02220178 53008=
201405270152 METAR KATL 270152Z 20008KT 10SM FEW050 SCT120 BKN200 BKN250 22/17 A3016 RMK AO2 SLP205 OCNL LTG DSNT SE-S T02220172=
201405270052 METAR KATL 270052Z 15004KT 10SM BKN120 BKN200 BKN250 24/17 A3015 RMK AO2 SLP201 T02390172=
201405262352 METAR KATL 262352Z 23003KT 10SM FEW040 SCT110 BKN150 OVC250 23/18 A3015 RMK AO2 SLP204 60001 T02330178 10294 20222 52004=
201405262252 METAR KATL 262252Z 10005KT 10SM FEW040 SCT150 BKN200 BKN250 23/17 A3014 RMK AO2 SLP200 CB DSNT SW T02330167=
201405262152 METAR KATL 262152Z 12008G15KT 10SM FEW040 SCT150 BKN200 BKN250 23/17 A3015 RMK AO2 SLP203 CB DSNT SE AND SW T02330172=
201405262052 METAR KATL 262052Z 05010KT 10SM FEW041TCU BKN080 OVC250 23/19 A3014 RMK AO2 WSHFT 1940 TSE29RAE43 SLP199 TS MOV E CB DSNT E TCU S P0000 60001 T02280189 56020=
201405262031 SPECI KATL 262031Z 04013KT 8SM -RA FEW050CB BKN080 BKN120 22/19 A3016 RMK AO2 WSHFT 1940 TSE29 TS MOV E CB DSNT E P0000=
201405261958 SPECI KATL 261958Z 02013KT 3SM -TSRA BKN040CB OVC100 24/18 A3016 RMK AO2 WSHFT 1940 OCNL LTG ICCG N TS N MOV E CB DSNT NE P0000=
201405261952 METAR KATL 261952Z 35013G23KT 4SM -TSRA BKN035CB OVC100 24/18 A3016 RMK AO2 TSB33RAB43 SLP205 OCNL LTG N TS N MOV E CB DSNT NE VSBY LWR N P0001 T02390178=
201405261934 SPECI KATL 261934Z 28008KT 240V310 10SM TS BKN045CB BKN100 BKN250 28/18 A3016 RMK AO2 TSB33 OCNL LTG NW-N TS NW-N MOV E CB DSNT NE=
201405261852 METAR KATL 261852Z VRB05KT 10SM BKN045 BKN250 28/18 A3017 RMK AO2 SLP206 CB DSNT NW AND NE T02830178=
201405261752 METAR KATL 261752Z 24005KT 10SM BKN040 BKN075 BKN200 29/19 A3020 RMK AO2 SLP218 T02890189 10289 20200 58009=
201405261652 METAR KATL 261652Z VRB04KT 10SM FEW040 BKN200 28/18 A3022 RMK AO2 SLP223 T02830183=
201405261552 METAR KATL 261552Z 34006KT 10SM FEW035 SCT080 BKN250 27/18 A3023 RMK AO2 SLP229 T02670178=
201405261452 METAR KATL 261452Z 27005KT 10SM FEW035 SCT100 26/18 A3023 RMK AO2 SLP226 T02610178 51006=
201405261352 METAR KATL 261352Z 24006KT 10SM FEW250 24/17 A3022 RMK AO2 SLP226 T02390167=
201405261252 METAR KATL 261252Z 22003KT 10SM CLR 22/17 A3022 RMK AO2 SLP224 T02170167=
201405261152 METAR KATL 261152Z 00000KT 10SM FEW060 20/17 A3021 RMK AO2 SLP221 T02000167 10206 20189 52013=
201405261052 METAR KATL 261052Z 00000KT 10SM FEW060 19/16 A3020 RMK AO2 SLP217 T01940161=
201405260952 METAR KATL 260952Z 00000KT 10SM FEW060 19/17 A3018 RMK AO2 SLP210 T01940167=
201405260852 METAR KATL 260852Z 20003KT 10SM SCT065 19/17 A3017 RMK AO2 SLP206 T01940167 53000=
201405260752 METAR KATL 260752Z 17007KT 10SM FEW250 20/17 A3016 RMK AO2 SLP204 T02000167=
201405260652 METAR KATL 260652Z 15009G15KT 10SM FEW250 21/17 A3016 RMK AO2 SLP203 T02060167=
201405260552 METAR KATL 260552Z 14006KT 10SM FEW150 SCT250 20/15 A3017 RMK AO2 SLP206 T02000150 10283 20200 50004=
201405260452 METAR KATL 260452Z 13005KT 10SM BKN250 21/15 A3017 RMK AO2 SLP206 T02060150 403220194=
201405260352 METAR KATL 260352Z 09010KT 10SM SCT160 BKN250 21/15 A3017 RMK AO2 SLP205 T02110150=
201405260252 METAR KATL 260252Z 11007KT 10SM FEW170 BKN250 23/15 A3015 RMK AO2 SLP201 T02330150 53019=
201405260152 METAR KATL 260152Z 07011KT 10SM SCT070 BKN250 24/14 A3013 RMK AO2 SLP194 T02440139=
201405260052 METAR KATL 260052Z 10006KT 10SM FEW065 SCT170 BKN250 27/17 A3012 RMK AO2 SLP188 TCU DSNT NE AND E T02670172=
201405252352 METAR KATL 252352Z 08004KT 10SM FEW065 SCT100 SCT250 28/16 A3010 RMK AO2 SLP181 TCU DSNT NE-E AND W T02830161 10322 20278 53003=
201405252252 METAR KATL 252252Z 00000KT 10SM FEW065 SCT100 SCT250 29/16 A3007 RMK AO2 SLP174 T02940161=
201405252152 METAR KATL 252152Z 02004KT 10SM SCT065TCU SCT100 BKN250 29/16 A3008 RMK AO2 SLP176 TCU SE CB DSNT N-NE T02890156=
201405252052 METAR KATL 252052Z 23003KT 10SM SCT065TCU BKN250 31/16 A3009 RMK AO2 SLP178 TCU E CB DSNT N T03060156 57015=
201405251952 METAR KATL 251952Z 27005KT 10SM BKN065TCU BKN100 30/15 A3010 RMK AO2 SLP183 TCU ALQDS CB DSNT NW T03000150=
201405251852 METAR KATL 251852Z 21006KT 10SM BKN065 30/15 A3012 RMK AO2 SLP188 T03000150=
201405251752 METAR KATL 251752Z 00000KT 10SM SCT060 30/14 A3013 RMK AO2 SLP193 T03000144 10300 20233 58009=
201405251652 METAR KATL 251652Z 00000KT 10SM SCT050 BKN250 29/16 A3015 RMK AO2 SLP198 T02940156=
201405251552 METAR KATL 251552Z 36005KT 10SM SCT045 BKN250 29/17 A3016 RMK AO2 SLP202 T02890167=
201405251452 METAR KATL 251452Z 00000KT 10SM BKN250 28/17 A3016 RMK AO2 SLP203 T02780172 51010=
201405251352 METAR KATL 251352Z 11003KT 10SM BKN250 26/17 A3016 RMK AO2 SLP204 T02560167=
201405251252 METAR KATL 251252Z 10004KT 10SM FEW150 SCT250 24/16 A3015 RMK AO2 SLP199 T02440161=
201405251152 METAR KATL 251152Z 05006KT 10SM FEW250 23/17 A3013 RMK AO2 SLP194 T02330167 10233 20194 53011=
201405251052 METAR KATL 251052Z 00000KT 9SM FEW120 SCT250 21/17 A3012 RMK AO2 SLP189 T02060172=
201405250952 METAR KATL 250952Z 00000KT 10SM FEW250 20/17 A3010 RMK AO2 SLP183 T02000172=
201405250852 METAR KATL 250852Z 33003KT 10SM SCT250 22/18 A3010 RMK AO2 SLP181 T02220178 56001=
201405250752 METAR KATL 250752Z 00000KT 10SM SCT250 22/18 A3010 RMK AO2 SLP182 T02170178=
201405250652 METAR KATL 250652Z 00000KT 10SM FEW200 BKN250 22/18 A3010 RMK AO2 SLP181 T02170178=
201405250552 METAR KATL 250552Z 00000KT 10SM FEW200 BKN250 23/18 A3010 RMK AO2 SLP182 T02280178 10272 20228 50001=
201405250452 METAR KATL 250452Z 30004KT 10SM OVC220 23/17 A3010 RMK AO2 SLP183 T02330172 403110200=
201405250352 METAR KATL 250352Z 31003KT 10SM SCT180 OVC250 24/17 A3011 RMK AO2 SLP184 T02440167=
201405250252 METAR KATL 250252Z 31003KT 10SM SCT180 OVC250 25/16 A3010 RMK AO2 SLP181 T02500161 53009=
201405250152 METAR KATL 250152Z 28003KT 10SM SCT180 OVC250 25/16 A3008 RMK AO2 SLP177 T02500161=
201405250052 METAR KATL 250052Z 29005KT 10SM FEW060 SCT180 OVC250 26/16 A3008 RMK AO2 SLP176 T02610156=
201405242352 METAR KATL 242352Z 31007KT 10SM FEW180 OVC250 27/15 A3007 RMK AO2 SLP174 T02720150 10311 20267 55002=
201405242252 METAR KATL 242252Z 29007KT 10SM FEW060 SCT180 OVC250 28/16 A3006 RMK AO2 SLP172 T02780156=
201405242152 METAR KATL 242152Z 33011KT 10SM FEW060 OVC250 29/16 A3007 RMK AO2 SLP172 T02890156=
201405242052 METAR KATL 242052Z 31010G15KT 10SM FEW065 BKN250 29/14 A3008 RMK AO2 SLP175 T02940139 56009=
201405241952 METAR KATL 241952Z 29010KT 10SM FEW065 BKN250 30/14 A3008 RMK AO2 SLP176 T03000139=
201405241852 METAR KATL 241852Z 28006KT 10SM FEW060 BKN150 BKN250 30/14 A3009 RMK AO2 SLP179 T03000139=
201405241752 METAR KATL 241752Z 31007KT 10SM SCT050 BKN200 BKN250 29/15 A3010 RMK AO2 SLP184 T02890150 10300 20217 58009=
201405241652 METAR KATL 241652Z 31007KT 280V350 10SM SCT046 BKN250 29/17 A3012 RMK AO2 SLP189 T02890172=
201405241552 METAR KATL 241552Z 33006KT 10SM SCT045 BKN250 28/17 A3013 RMK AO2 SLP192 T02830172=
201405241452 METAR KATL 241452Z 29006KT 10SM FEW034 BKN250 27/18 A3013 RMK AO2 SLP193 T02720183 50005=
201405241352 METAR KATL 241352Z 30005KT 10SM BKN250 26/18 A3014 RMK AO2 SLP195 T02560178=
201405241252 METAR KATL 241252Z 32008KT 10SM BKN250 23/17 A3012 RMK AO2 SLP190 T02280172=
201405241152 METAR KATL 241152Z 32007KT 10SM BKN250 22/17 A3012 RMK AO2 SLP188 T02170172 10228 20200 53017=
201405241052 METAR KATL 241052Z 31007KT 10SM BKN250 21/16 A3010 RMK AO2 SLP181 T02060161=
201405240952 METAR KATL 240952Z 31008KT 10SM BKN250 21/16 A3007 RMK AO2 SLP174 T02060161=
201405240852 METAR KATL 240852Z 31006KT 10SM FEW055 BKN250 21/17 A3006 RMK AO2 SLP170 T02110167 53003=
201405240752 METAR KATL 240752Z 31006KT 10SM FEW055 BKN250 21/17 A3006 RMK AO2 SLP167 T02110167=
201405240652 METAR KATL 240652Z 30005KT 10SM SCT050 SCT250 22/17 A3006 RMK AO2 SLP167 T02220167=
201405240552 METAR KATL 240552Z 29006KT 10SM FEW050 BKN250 22/17 A3006 RMK AO2 SLP167 T02220172 10289 20222 58003=
201405240452 METAR KATL 240452Z 29005KT 10SM SCT250 23/17 A3007 RMK AO2 SLP170 T02280172 403110206=
201405240352 METAR KATL 240352Z 28006KT 10SM SCT250 24/17 A3007 RMK AO2 SLP171 T02390172=
201405240252 METAR KATL 240252Z 27006KT 10SM SCT250 24/17 A3007 RMK AO2 SLP170 T02440172 52008=
201405240152 METAR KATL 240152Z 27005KT 10SM FEW250 26/17 A3006 RMK AO2 SLP167 T02560172=
201405240052 METAR KATL 240052Z 29005KT 10SM SCT250 27/17 A3005 RMK AO2 SLP166 T02670172=
201405232352 METAR KATL 232352Z 31007KT 10SM BKN250 29/17 A3004 RMK AO2 SLP163 T02890167 10311 20289 56003=
201405232252 METAR KATL 232252Z 32009KT 10SM FEW055 SCT250 30/17 A3004 RMK AO2 SLP163 T03000167=
201405232152 METAR KATL 232152Z 30007KT 10SM FEW055 SCT250 31/17 A3005 RMK AO2 SLP163 T03060172=
201405232052 METAR KATL 232052Z 31010G17KT 10SM FEW055 BKN250 31/18 A3005 RMK AO2 SLP165 T03110178 57012=
201405231952 METAR KATL 231952Z 29009G18KT 10SM FEW055 SCT250 31/17 A3006 RMK AO2 SLP169 T03060172=
201405231852 METAR KATL 231852Z 28009KT 10SM FEW050 BKN250 31/18 A3007 RMK AO2 SLP173 T03060178=
201405231752 METAR KATL 231752Z 30010KT 10SM FEW046 SCT250 30/18 A3009 RMK AO2 SLP177 T03000183 10300 20217 58005=
201405231652 METAR KATL 231652Z 33014G17KT 10SM FEW045 SCT200 SCT250 29/18 A3010 RMK AO2 SLP182 T02940183=
201405231552 METAR KATL 231552Z 34008KT 10SM FEW040 SCT200 BKN250 29/18 A3010 RMK AO2 SLP183 T02890183=
201405231452 METAR KATL 231452Z 33007KT 10SM FEW035 SCT200 BKN250 27/19 A3010 RMK AO2 SLP184 T02720189 58000=
201405231352 METAR KATL 231352Z 30005KT 10SM FEW200 BKN250 26/19 A3011 RMK AO2 SLP186 T02610194=
201405231252 METAR KATL 231252Z 31008KT 10SM FEW200 SCT250 BKN300 24/18 A3011 RMK AO2 SLP187 T02390183=
201405231152 METAR KATL 231152Z 31009KT 10SM SCT200 BKN250 22/18 A3010 RMK AO2 SLP184 T02170178 10222 20206 53013=
201405231052 METAR KATL 231052Z 30007KT 10SM FEW200 SCT250 21/18 A3008 RMK AO2 SLP178 T02110178=
201405230952 METAR KATL 230952Z 32008KT 10SM FEW250 21/18 A3008 RMK AO2 SLP175 T02110178=
201405230852 METAR KATL 230852Z 31007KT 10SM FEW250 21/18 A3007 RMK AO2 SLP171 T02110178 53000=
201405230752 METAR KATL 230752Z 31006KT 10SM CLR 22/18 A3006 RMK AO2 SLP169 T02170178=
201405230652 METAR KATL 230652Z 30005KT 10SM FEW250 22/18 A3006 RMK AO2 SLP169 T02170178=
201405230552 METAR KATL 230552Z 30005KT 10SM FEW250 22/18 A3006 RMK AO2 SLP170 T02220178 10278 20222 56008=
201405230452 METAR KATL 230452Z 28006KT 10SM FEW250 23/18 A3007 RMK AO2 SLP173 T02280178 403060183=
201405230352 METAR KATL 230352Z 28007KT 10SM SCT250 23/18 A3007 RMK AO2 SLP173 T02330178=
201405230252 METAR KATL 230252Z 28004KT 10SM BKN250 23/18 A3009 RMK AO2 SLP179 T02330178 51007=
201405230152 METAR KATL 230152Z 27004KT 10SM BKN250 26/18 A3008 RMK AO2 SLP177 T02560178=
201405230052 METAR KATL 230052Z 31008KT 10SM BKN250 27/18 A3008 RMK AO2 SLP177 T02670178=
201405222352 METAR KATL 222352Z 30009KT 10SM FEW050 BKN250 28/17 A3007 RMK AO2 SLP172 T02780172 10306 20278 53003=
201405222252 METAR KATL 222252Z 28012G21KT 10SM FEW050 SCT250 29/17 A3005 RMK AO2 SLP166 T02890167=
201405222152 METAR KATL 222152Z 30014G19KT 10SM FEW055 30/17 A3005 RMK AO2 SLP167 T03000172=
201405222052 METAR KATL 222052Z 32014KT 10SM FEW055 30/17 A3006 RMK AO2 SLP169 T03000172 56012=
201405221952 METAR KATL 221952Z 28011G20KT 10SM FEW050 30/17 A3007 RMK AO2 SLP172 T03000172=
201405221852 METAR KATL 221852Z 27014G19KT 10SM FEW050 SCT250 29/18 A3008 RMK AO2 SLP176 T02940178=
201405221752 METAR KATL 221752Z 29016G21KT 10SM FEW045 SCT250 29/17 A3009 RMK AO2 SLP180 T02940172 10294 20200 56019=
201405221652 METAR KATL 221652Z 27011G19KT 10SM FEW040 SCT250 28/18 A3011 RMK AO2 SLP187 T02780178=
201405221552 METAR KATL 221552Z 30012KT 10SM FEW040 SCT250 27/18 A3013 RMK AO2 SLP193 T02720178=
201405221452 METAR KATL 221452Z 31015KT 10SM FEW035 SCT250 26/17 A3015 RMK AO2 SLP201 T02610172 50002=
201405221352 METAR KATL 221352Z 29012KT 10SM FEW250 24/17 A3016 RMK AO2 SLP203 T02440172=
201405221252 METAR KATL 221252Z 30009KT 10SM FEW150 SCT250 22/17 A3016 RMK AO2 SLP203 T02170167=
201405221152 METAR KATL 221152Z 30010KT 10SM FEW150 SCT250 20/16 A3014 RMK AO2 SLP198 T02000161 10211 20183 53015=
201405221052 METAR KATL 221052Z 30009KT 10SM FEW200 SCT250 19/16 A3012 RMK AO2 SLP192 T01890156=
201405220952 METAR KATL 220952Z 29008KT 10SM FEW250 19/16 A3011 RMK AO2 SLP186 T01940156=
201405220852 METAR KATL 220852Z 29005KT 10SM CLR 18/15 A3010 RMK AO2 SLP183 T01830150 55006=
201405220752 METAR KATL 220752Z 28007KT 10SM CLR 21/16 A3009 RMK AO2 SLP182 T02060156=
201405220652 METAR KATL 220652Z 26005KT 10SM CLR 21/15 A3010 RMK AO2 SLP182 T02060150=
201405220552 METAR KATL 220552Z 26006KT 10SM CLR 21/14 A3011 RMK AO2 SLP188 T02060144 10272 20206 58006=
201405220452 METAR KATL 220452Z 28007KT 10SM FEW250 21/14 A3014 RMK AO2 SLP196 T02110144 402940172=
201405220352 METAR KATL 220352Z 26006KT 10SM FEW250 22/14 A3013 RMK AO2 SLP192 T02170144=
201405220252 METAR KATL 220252Z 28006KT 10SM FEW250 22/14 A3013 RMK AO2 SLP195 T02220144 53016=
201405220152 METAR KATL 220152Z 26005KT 10SM FEW250 24/14 A3011 RMK AO2 SLP186 T02440139=
201405220052 METAR KATL 220052Z 26007KT 10SM FEW250 25/13 A3009 RMK AO2 SLP181 T02500133=
201405212352 METAR KATL 212352Z 25006KT 10SM FEW250 27/12 A3009 RMK AO2 SLP179 T02720122 10294 20272 58012=
201405212252 METAR KATL 212252Z 25007KT 10SM FEW150 28/12 A3011 RMK AO2 SLP186 T02830122=
201405212152 METAR KATL 212152Z 27010G19KT 10SM FEW150 SCT200 29/12 A3011 RMK AO2 SLP187 T02940117=
201405212052 METAR KATL 212052Z 25012KT 210V270 10SM FEW150 BKN180 BKN250 29/11 A3012 RMK AO2 SLP192 T02890111 56017=
201405211952 METAR KATL 211952Z 26012G21KT 10SM FEW150 BKN200 BKN250 28/11 A3014 RMK AO2 SLP196 T02830111=
201405211852 METAR KATL 211852Z 28008G18KT 240V310 10SM FEW150 SCT250 29/12 A3016 RMK AO2 SLP204 T02890122=
201405211752 METAR KATL 211752Z 27009G20KT 10SM FEW070 SCT200 SCT250 29/12 A3018 RMK AO2 SLP210 T02890117 10289 20200 58010=
201405211652 METAR KATL 211652Z 26008G20KT 10SM FEW060 SCT200 SCT250 28/13 A3019 RMK AO2 SLP215 T02830128=
201405211552 METAR KATL 211552Z 29011KT 10SM FEW050 SCT200 SCT250 27/14 A3020 RMK AO2 SLP219 T02670144=
201405211452 METAR KATL 211452Z 28010KT 10SM SCT250 25/15 A3021 RMK AO2 SLP220 T02500150 50002=
201405211352 METAR KATL 211352Z 28013G17KT 10SM FEW150 SCT250 24/15 A3021 RMK AO2 SLP223 T02390150=
201405211252 METAR KATL 211252Z 28009KT 10SM SCT250 22/16 A3021 RMK AO2 SLP221 T02220161=
201405211152 METAR KATL 211152Z 27004KT 10SM FEW200 20/16 A3020 RMK AO2 SLP219 T02000156 10200 20172 51019=
201405211052 METAR KATL 211052Z 00000KT 10SM FEW200 18/14 A3018 RMK AO2 SLP213 T01780144=
201405210952 METAR KATL 210952Z 25003KT 10SM FEW250 18/14 A3016 RMK AO2 SLP204 T01830144=
201405210852 METAR KATL 210852Z 23004KT 10SM FEW250 18/14 A3014 RMK AO2 SLP198 T01830144 53002=
201405210752 METAR KATL 210752Z 23004KT 10SM FEW250 19/14 A3013 RMK AO2 SLP194 T01890139=
201405210652 METAR KATL 210652Z 24006KT 10SM FEW250 19/14 A3013 RMK AO2 SLP195 T01940139=
201405210552 METAR KATL 210552Z 23005KT 10SM FEW250 19/14 A3014 RMK AO2 SLP197 T01940144 10256 20189 58010=
201405210452 METAR KATL 210452Z 23004KT 10SM FEW250 19/15 A3015 RMK AO2 SLP202 T01890150 402830139=
201405210352 METAR KATL 210352Z 24003KT 10SM FEW250 21/14 A3016 RMK AO2 SLP206 T02060144=
201405210252 METAR KATL 210252Z 24003KT 10SM SCT250 21/15 A3017 RMK AO2 SLP209 T02110150 53001=
201405210152 METAR KATL 210152Z 23004KT 10SM SCT250 23/15 A3016 RMK AO2 SLP208 T02280150=
201405210052 METAR KATL 210052Z 22003KT 10SM SCT250 24/15 A3016 RMK AO2 SLP207 T02440150=
201405202352 METAR KATL 202352Z 23007KT 10SM FEW055 SCT250 26/14 A3016 RMK AO2 SLP208 T02560139 10283 20250 56007=
201405202252 METAR KATL 202252Z 26007KT 10SM FEW055 SCT250 27/14 A3017 RMK AO2 SLP208 T02720139=
201405202152 METAR KATL 202152Z 27008KT 10SM FEW055 SCT250 28/13 A3017 RMK AO2 SLP210 T02780133=
201405202052 METAR KATL 202052Z 25010KT 10SM FEW055 SCT250 28/12 A3018 RMK AO2 SLP215 T02780122 56019=
201405201952 METAR KATL 201952Z 22009KT 10SM FEW050 SCT250 28/14 A3020 RMK AO2 SLP220 T02780144=
201405201852 METAR KATL 201852Z 20008KT 10SM SCT045 SCT250 26/16 A3022 RMK AO2 SLP227 T02610161=
201405201752 METAR KATL 201752Z 19007KT 10SM SCT038 25/17 A3024 RMK AO2 SLP234 T02500167 10256 20156 58016=
201405201652 METAR KATL 201652Z 22005KT 10SM SCT028 24/17 A3026 RMK AO2 SLP242 T02440172=
201405201552 METAR KATL 201552Z 18006KT 8SM FEW020 22/17 A3028 RMK AO2 SLP248 T02220167=
201405201452 SPECI KATL 201452Z 00000KT 6SM HZ SCT012 20/17 A3029 RMK AO2 SLP253 T02000167 50007=
201405201452 METAR KATL 201452Z 00000KT 6SM HZ SCT012 20/17 A3029 RMK AO2 SLP253 T02000167 50007=
201405201436 SPECI KATL 201436Z VRB03KT 6SM HZ FEW010 19/16 A3029 RMK AO2=
201405201357 SPECI KATL 201357Z 13005KT 2 1/2SM BR BKN006 BKN008 18/16 A3029 RMK AO2 SFC VIS 5=
201405201352 METAR KATL 201352Z 14005KT 1 1/2SM BR BKN006 BKN008 18/16 A3029 RMK AO2 SFC VIS 5 SLP253 T01780156=
201405201252 METAR KATL 201252Z 13004KT 1 1/2SM BR OVC005 17/15 A3028 RMK AO2 SFC VIS 6 SLP250 CIG 004V007 TWRINC T01670150=
201405201233 SPECI KATL 201233Z 15004KT 1 1/2SM BR OVC004 17/15 A3028 RMK AO2 SFC VIS 6 CIG 003V005 TWRINC=
201405201152 METAR KATL 201152Z 13003KT 7SM OVC007 16/14 A3027 RMK AO2 SLP246 BINOVC T01560139 10167 20139 53015=
201405201129 SPECI KATL 201129Z 11004KT 10SM BKN009 15/13 A3027 RMK AO2=
201405201052 METAR KATL 201052Z 11004KT 10SM FEW015 14/12 A3025 RMK AO2 SLP240 T01440117=
201405200952 METAR KATL 200952Z 00000KT 10SM FEW015 14/12 A3023 RMK AO2 SLP233 T01440117=
201405200852 METAR KATL 200852Z 00000KT 10SM FEW012 15/12 A3022 RMK AO2 SLP230 T01500122 53004=
201405200752 METAR KATL 200752Z 11003KT 10SM FEW250 15/12 A3021 RMK AO2 SLP226 T01500122=
201405200652 METAR KATL 200652Z 11003KT 10SM CLR 16/13 A3021 RMK AO2 SLP224 T01610128=
201405200552 METAR KATL 200552Z 12004KT 10SM FEW250 17/13 A3021 RMK AO2 SLP225 T01670128 10206 20161 57006=
201405200452 METAR KATL 200452Z 12003KT 10SM SCT250 17/13 A3022 RMK AO2 SLP229 T01670128 402280133=
201405200352 METAR KATL 200352Z 13003KT 10SM SCT250 17/13 A3022 RMK AO2 SLP232 T01720128=
201405200252 METAR KATL 200252Z 12004KT 10SM SCT250 18/13 A3023 RMK AO2 SLP234 T01780128 51005=
201405200152 METAR KATL 200152Z 10005KT 10SM BKN250 18/13 A3022 RMK AO2 SLP232 T01830128=
201405200052 METAR KATL 200052Z 12004KT 10SM SCT250 19/13 A3022 RMK AO2 SLP231 T01940128=
201405192352 METAR KATL 192352Z 08006KT 10SM SCT250 21/12 A3022 RMK AO2 SLP228 T02060122 10228 20189 55005=
201405192252 METAR KATL 192252Z 02005KT 10SM FEW250 22/13 A3021 RMK AO2 SLP226 T02220128=
201405192152 METAR KATL 192152Z 00000KT 10SM FEW040 SCT250 22/13 A3022 RMK AO2 SLP229 T02220128=
201405192052 METAR KATL 192052Z VRB05KT 10SM FEW035 SCT045 SCT250 22/13 A3023 RMK AO2 SLP233 T02170128 58013=
201405191952 METAR KATL 191952Z 08006KT 10SM BKN030 BKN040 BKN250 21/13 A3025 RMK AO2 SLP241 T02060133=
201405191852 METAR KATL 191852Z VRB03KT 10SM BKN028 BKN250 20/13 A3026 RMK AO2 SLP243 T02000133=
201405191752 METAR KATL 191752Z 10004KT 10SM FEW020 BKN023 BKN250 19/14 A3027 RMK AO2 SLP247 T01940139 10194 20139 58009=
201405191652 METAR KATL 191652Z 09004KT 10SM FEW016 BKN020 BKN250 18/13 A3028 RMK AO2 SLP251 T01830133=
201405191635 SPECI KATL 191635Z VRB04KT 10SM FEW012 BKN016 BKN250 17/13 A3029 RMK AO2=
201405191552 METAR KATL 191552Z 07005KT 10SM FEW010 BKN012 BKN015 16/13 A3030 RMK AO2 SLP258 T01610128=
201405191459 SPECI KATL 191459Z 09006KT 7SM FEW008 BKN010 OVC012 16/13 A3030 RMK AO2=
201405191452 METAR KATL 191452Z VRB05KT 6SM HZ FEW006 BKN008 OVC010 16/13 A3030 RMK AO2 SLP258 T01560128 51013=
201405191434 SPECI KATL 191434Z 10005KT 6SM BR BKN008 OVC012 16/13 A3029 RMK AO2=
201405191352 METAR KATL 191352Z VRB03KT 2 1/2SM BR OVC006 14/13 A3029 RMK AO2 SFC VIS 5 SLP254 T01440133=
201405191320 SPECI KATL 191320Z 10003KT 1/2SM BR OVC005 14/13 A3028 RMK AO2 SFC VIS 5=
201405191252 METAR KATL 191252Z 10004KT 1/2SM BR OVC003 14/13 A3027 RMK AO2 SFC VIS 1 1/2 SLP249 CIG 002V006 TWRINC T01390128=
201405191152 METAR KATL 191152Z 10004KT 1/2SM BR OVC003 14/13 A3026 RMK AO2 SFC VIS 1 1/4 SLP245 CIG 003V005 TWRINC 70009 T01390128 10139 20133 53013=
201405191109 SPECI KATL 191109Z 08004KT 3/4SM BR OVC004 14/13 A3025 RMK AO2 SFC VIS 2 1/2 CIG 003V005 TWRINC=
201405191052 METAR KATL 191052Z 03005KT 1/2SM BR OVC004 14/13 A3024 RMK AO2 SFC VIS 3 SLP238 CIG 003V005 TWRINC T01390128=
201405190952 METAR KATL 190952Z 04005KT 1/2SM BR OVC003 14/13 A3022 RMK AO2 SFC VIS 1 1/4 SLP233 CIG 002V004 TWRINC T01390128=
201405190933 SPECI KATL 190933Z 03004KT 1/2SM BR OVC004 14/13 A3022 RMK AO2 SFC VIS 1 1/2 CIG 003V005 TWRINC=
201405190852 METAR KATL 190852Z 09004KT 1 1/2SM BR OVC005 14/13 A3022 RMK AO2 SFC VIS 5 SLP231 CIG 004V006 TWRINC T01390128 53003=
201405190752 METAR KATL 190752Z 00000KT 1 1/2SM BR OVC005 14/13 A3021 RMK AO2 SFC VIS 4 SLP227 CIG 004V007 BINOVC TWRINC T01390128=
201405190747 SPECI KATL 190747Z 00000KT 1 1/2SM BR OVC005 14/13 A3021 RMK AO2 SFC VIS 4 CIG 004V007 BINOVC TWRINC=
201405190652 METAR KATL 190652Z 00000KT 1 1/2SM BR OVC003 14/13 A3021 RMK AO2 SFC VIS 4 SLP227 TWRINC T01390133=
201405190552 METAR KATL 190552Z 15004KT 1 1/2SM BR BKN003 OVC046 14/13 A3021 RMK AO2 SFC VIS 4 SLP227 CIG 002V005 TWRINC T01390133 10167 20139 58004=
201405190550 SPECI KATL 190550Z 15004KT 1 1/2SM BR BKN003 OVC046 14/13 A3021 RMK AO2 SFC VIS 4 CIG 002V005=
201405190452 METAR KATL 190452Z 15004KT 1/2SM BR OVC002 14/14 A3022 RMK AO2 SFC VIS 2 SLP233 TWRINC T01390139 401670133=
201405190426 SPECI KATL 190426Z 14003KT 1/4SM R09R/1800V3500FT FG VV002 14/14 A3022 RMK AO2=
201405190410 SPECI KATL 190410Z 13005KT 1/4SM R09R/1200V1800FT FG VV001 14/13 A3022 RMK AO2 TWR VIS 1/4=
201405190402 SPECI KATL 190402Z 12005KT 1/4SM R09R/1400V1800FT FG VV002 14/13 A3022 RMK AO2=
201405190352 METAR KATL 190352Z 14004KT 1/4SM R09R/2000VP6000FT FG VV002 14/13 A3022 RMK AO2 SLP231 T01390133=
201405190345 SPECI KATL 190345Z 13003KT 1/2SM BR BKN003 BKN010 BKN044 14/13 A3022 RMK AO2 SFC VIS 2 TWRINC=
201405190252 METAR KATL 190252Z 00000KT 6SM BR FEW008 SCT044 SCT100 14/13 A3022 RMK AO2 SLP232 T01440133 53009=
201405190152 METAR KATL 190152Z 13003KT 8SM FEW010 SCT110 SCT200 15/14 A3021 RMK AO2 SLP227 T01500139=
201405190052 METAR KATL 190052Z 01004KT 10SM FEW012 SCT070 SCT110 SCT200 16/13 A3020 RMK AO2 SLP226 T01610133=
201405182352 METAR KATL 182352Z 04004KT 10SM SCT010 SCT070 BKN110 BKN200 17/14 A3019 RMK AO2 SLP221 60009 T01670139 10167 20150 58003=
201405182347 SPECI KATL 182347Z 05004KT 10SM SCT010 SCT065 BKN110 BKN200 17/14 A3019 RMK AO2=
201405182252 METAR KATL 182252Z 00000KT 10SM BKN010 BKN065 BKN110 BKN200 16/14 A3020 RMK AO2 RAE45 SLP225 CIG 008V012 P0000 T01610139=
201405182246 SPECI KATL 182246Z 00000KT 10SM BKN010 BKN065 BKN110 OVC200 16/14 A3020 RMK AO2 RAE45 P0000=
201405182152 METAR KATL 182152Z 00000KT 10SM -RA SCT004 BKN090 BKN130 OVC200 16/14 A3020 RMK AO2 RAE16B38 SLP226 P0001 T01610144=
201405182148 SPECI KATL 182148Z 00000KT 10SM -RA SCT004 BKN090 BKN130 OVC200 16/14 A3020 RMK AO2 RAE16B38 P0001=
201405182116 SPECI KATL 182116Z 17003KT 10SM BKN004 BKN080 BKN120 OVC200 16/14 A3020 RMK AO2 RAE16 P0001=
201405182107 SPECI KATL 182107Z 16005KT 10SM -RA SCT004 BKN080 BKN120 OVC200 16/14 A3019 RMK AO2 P0001=
201405182052 METAR KATL 182052Z 17005KT 9SM -RA SCT006 BKN075 BKN120 OVC200 16/14 A3020 RMK AO2 RAB10 SLP225 P0000 60008 T01560139 58013=
201405182021 SPECI KATL 182021Z 14004KT 10SM -RA SCT008 BKN060 BKN100 OVC200 16/14 A3021 RMK AO2 RAB10 P0000=
201405181952 METAR KATL 181952Z 13004KT 10SM BKN010 BKN060 BKN120 OVC200 16/14 A3022 RMK AO2 RAE48 SLP231 P0002 T01560139=
201405181904 SPECI KATL 181904Z 07003KT 8SM -RA BKN012 BKN035 OVC044 16/13 A3023 RMK AO2 BKN012 V SCT P0001=
201405181852 METAR KATL 181852Z 00000KT 3SM R09R/5500VP6000FT -RA BR SCT012 BKN030 OVC044 16/13 A3024 RMK AO2 RAB23 SLP238 P0006 T01560133=
201405181802 SPECI KATL 181802Z 00000KT 10SM BKN014 OVC046 16/12 A3025 RMK AO2=
201405181752 METAR KATL 181752Z 08005KT 10SM SCT012 BKN017 OVC046 16/13 A3024 RMK AO2 SLP238 60000 T01560128 10161 20144 58002=
201405181652 METAR KATL 181652Z 10004KT 8SM OVC012 15/13 A3025 RMK AO2 SLP241 T01500128=
201405181638 SPECI KATL 181638Z 09006KT 10SM BKN012 BKN036 OVC048 15/12 A3025 RMK AO2=
201405181552 METAR KATL 181552Z 07007KT 8SM FEW011 BKN040 OVC055 15/13 A3025 RMK AO2 RAB1454E47 SLP241 P0000 T01500128=
201405181529 SPECI KATL 181529Z 11004KT 8SM -RA SCT013 BKN037 OVC044 15/12 A3023 RMK AO2 RAB1454 P0000=
201405181508 SPECI KATL 181508Z 08007KT 7SM -RA BKN015 OVC036 16/12 A3024 RMK AO2 RAB1454 P0000=
201405181452 METAR KATL 181452Z 02004KT 10SM SCT010 BKN038 OVC055 16/12 A3025 RMK AO2 PRESRR SLP240 T01560122 53012=
201405181433 SPECI KATL 181433Z 10005KT 10SM FEW006 SCT010 OVC044 16/12 A3023 RMK AO2=
201405181352 METAR KATL 181352Z 07008KT 10SM FEW005 BKN010 OVC040 15/12 A3023 RMK AO2 TSE13 SLP234 TS MOV E T01500122=
201405181324 SPECI KATL 181324Z 09008KT 8SM FEW005 BKN012 OVC040 14/12 A3023 RMK AO2 TSE13 TS MOV E BKN012 V SCT=
201405181316 SPECI KATL 181316Z 08007KT 10SM FEW005 SCT012 OVC030 15/12 A3023 RMK AO2 TSE13 TS MOV E=
201405181252 METAR KATL 181252Z 06007KT 10SM TS SCT012 BKN033CB OVC047 15/12 A3023 RMK AO2 TSB47 SLP232 OCNL LTGIC NW-N TS VC NW-N MOV E VIS LWR NW-NE T01500117=
201405181247 SPECI KATL 181247Z 05008KT 10SM TS SCT012 BKN033CB OVC047 15/12 A3023 RMK AO2 TSB47 OCNL LTGIC NW-N TS VC NW-N MOV E VIS LWR NW-NE=
201405181152 METAR KATL 181152Z 07006KT 10SM FEW017 BKN043 OVC090 15/11 A3021 RMK AO2 SLP226 SHRA DSNT NW-NE T01500111 10150 20133 53012=
201405181052 METAR KATL 181052Z 05005KT 10SM FEW044 BKN060 OVC090 14/10 A3020 RMK AO2 SLP222 SHRA DSNT NW-N T01440100=
201405180952 METAR KATL 180952Z 08007KT 10SM FEW055 BKN070 OVC150 14/10 A3018 RMK AO2 SLP216 T01390100=
201405180852 METAR KATL 180852Z 09005KT 10SM SCT070 BKN150 OVC200 14/10 A3018 RMK AO2 SLP214 T01390100 53003=
201405180752 METAR KATL 180752Z COR 07006KT 10SM BKN075 OVC150 14/10 A3017 RMK AO2 SLP213 T01440100=
201405180652 METAR KATL 180652Z 07007KT 10SM FEW075 BKN150 OVC200 14/10 A3016 RMK AO2 SLP211 T01440100=
201405180552 METAR KATL 180552Z 07004KT 10SM FEW070 SCT150 BKN200 OVC250 14/10 A3017 RMK AO2 SLP213 T01440100 10206 20144 58006=
201405180452 METAR KATL 180452Z 09005KT 10SM SCT140 BKN200 OVC250 14/10 A3017 RMK AO2 SLP215 T01440100 402220089=
201405180352 METAR KATL 180352Z 06006KT 10SM SCT150 BKN200 BKN250 16/09 A3018 RMK AO2 SLP217 T01560094=
201405180252 METAR KATL 180252Z 06008KT 10SM FEW150 SCT200 BKN250 17/10 A3018 RMK AO2 SLP217 T01720100 51015=
201405180152 METAR KATL 180152Z 05009KT 10SM FEW150 BKN200 BKN250 17/10 A3017 RMK AO2 SLP213 T01720100=
201405180052 METAR KATL 180052Z 36006KT 10SM FEW070 SCT150 BKN200 BKN250 19/09 A3016 RMK AO2 SLP208 T01940089=
201405172352 METAR KATL 172352Z 00000KT 10SM FEW070 SCT200 BKN250 21/08 A3014 RMK AO2 SLP202 T02060083 10222 20167 57002=
201405172252 METAR KATL 172252Z 31005KT 10SM FEW044 SCT065 BKN250 21/09 A3014 RMK AO2 SLP204 T02110089=
201405172152 METAR KATL 172152Z 29007KT 10SM FEW045 SCT065 BKN250 22/09 A3014 RMK AO2 SLP205 T02220094=
201405172052 METAR KATL 172052Z VRB05KT 10SM FEW040 SCT060 SCT220 21/08 A3015 RMK AO2 SLP206 T02060083 56023=
201405171952 METAR KATL 171952Z 18007KT 10SM SCT040 SCT060 BKN200 20/08 A3016 RMK AO2 SLP212 T02000078=
201405171852 METAR KATL 171852Z 08004KT 10SM BKN040 BKN065 18/07 A3018 RMK AO2 SLP218 T01830067=
201405171752 METAR KATL 171752Z 34003KT 10SM BKN050 OVC070 17/07 A3022 RMK AO2 SLP231 BINOVC 60000 T01670067 10183 20111 50004=
201405171652 METAR KATL 171652Z 31007KT 10SM OVC055 16/08 A3024 RMK AO2 RAB1558E21B44E45 SLP238 P0000 T01560083=
201405171552 METAR KATL 171552Z 27006KT 10SM FEW025 OVC055 17/06 A3023 RMK AO2 PRESRR SLP236 T01720056=
201405171452 METAR KATL 171452Z 23006KT 10SM BKN070 BKN085 17/05 A3020 RMK AO2 SLP226 T01720050 53007=
201405171352 METAR KATL 171352Z 25010G15KT 10SM SCT075 BKN110 BKN220 18/06 A3019 RMK AO2 SLP219 T01830056=
201405171252 METAR KATL 171252Z VRB03KT 10SM SCT150 SCT230 14/06 A3019 RMK AO2 SLP220 T01440056 $=
201405171152 METAR KATL 171152Z 19003KT 10SM FEW150 SCT230 11/06 A3018 RMK AO2 SLP218 T01110056 10111 20089 53005 $=
201405171052 METAR KATL 171052Z 00000KT 10SM FEW200 09/04 A3018 RMK AO2 SLP218 T00890044 $=
201405170952 METAR KATL 170952Z 00000KT 10SM FEW200 09/04 A3017 RMK AO2 SLP213 T00940044 $=
201405170852 METAR KATL 170852Z 22003KT 10SM FEW200 09/04 A3017 RMK AO2 SLP213 T00940039 53006=
201405170752 METAR KATL 170752Z 22005KT 10SM FEW200 09/04 A3014 RMK AO2 SLP205 T00940039=
201405170652 METAR KATL 170652Z 23003KT 10SM CLR 10/04 A3014 RMK AO2 SLP205 T01000039=
201405170552 METAR KATL 170552Z 00000KT 10SM CLR 10/05 A3015 RMK AO2 SLP206 T01000050 10172 20100 55000=
201405170452 METAR KATL 170452Z 00000KT 10SM CLR 12/03 A3014 RMK AO2 SLP203 T01170028 402110078=
201405170352 METAR KATL 170352Z 00000KT 10SM CLR 13/02 A3015 RMK AO2 SLP207 T01280022=
201405170252 METAR KATL 170252Z 00000KT 10SM CLR 13/02 A3015 RMK AO2 SLP207 T01280017 53017=
201405170152 METAR KATL 170152Z 27003KT 10SM CLR 14/01 A3012 RMK AO2 SLP199 T01390006=
201405170052 METAR KATL 170052Z 31007KT 10SM CLR 16/M01 A3012 RMK AO2 SLP196 T01561006=
201405162352 METAR KATL 162352Z 31010G18KT 10SM CLR 17/01 A3010 RMK AO2 SLP190 T01720006 10211 20172 53018=
201405162252 METAR KATL 162252Z 30015G22KT 10SM FEW070 18/02 A3007 RMK AO2 SLP181 T01830022=
201405162152 METAR KATL 162152Z 30015G22KT 10SM FEW070 20/02 A3005 RMK AO2 SLP173 T02000022=
201405162052 METAR KATL 162052Z 27010G23KT 10SM FEW065 SCT080 20/03 A3004 RMK AO2 SLP171 T02000028 58007=
201405161952 METAR KATL 161952Z 26015G24KT 10SM SCT065 SCT075 21/04 A3005 RMK AO2 PK WND 28026/1912 SLP175 T02060039=
201405161852 METAR KATL 161852Z 28014G23KT 10SM SCT060 SCT080 19/05 A3005 RMK AO2 SLP175 T01890050=
201405161752 METAR KATL 161752Z 27014G23KT 10SM SCT055 SCT070 20/06 A3006 RMK AO2 SLP178 CB DSNT N T02000056 10200 20100 58008=
201405161652 METAR KATL 161652Z 28012G19KT 10SM BKN050 19/08 A3008 RMK AO2 SLP184 T01890078=
201405161552 METAR KATL 161552Z 26012G18KT 10SM SCT045 18/07 A3008 RMK AO2 SLP185 T01830072=
201405161452 METAR KATL 161452Z 27009KT 10SM FEW035 17/08 A3009 RMK AO2 SLP187 T01670083 50008=
201405161352 METAR KATL 161352Z 29009G15KT 10SM FEW050 15/07 A3009 RMK AO2 SLP189 T01500072=
201405161252 METAR KATL 161252Z 29006KT 10SM CLR 13/07 A3008 RMK AO2 SLP186 T01280067=
201405161152 METAR KATL 161152Z 30007KT 10SM CLR 10/07 A3006 RMK AO2 SLP180 T01000067 10106 20078 53003=
201405161052 METAR KATL 161052Z 29008KT 10SM CLR 08/06 A3006 RMK AO2 SLP178 T00830061=
201405160952 METAR KATL 160952Z 27003KT 10SM CLR 08/06 A3005 RMK AO2 SLP173 T00830061=
201405160852 METAR KATL 160852Z 29007KT 10SM CLR 09/06 A3005 RMK AO2 SLP176 T00890061 55000=
201405160752 METAR KATL 160752Z 31008KT 10SM CLR 09/06 A3004 RMK AO2 SLP173 T00940061=
201405160652 METAR KATL 160652Z 32009KT 10SM CLR 10/07 A3005 RMK AO2 SLP174 T01000067=
201405160552 METAR KATL 160552Z 31008KT 10SM CLR 11/07 A3005 RMK AO2 SLP177 T01060072 10150 20106 58002=
201405160452 METAR KATL 160452Z 31009KT 10SM CLR 11/08 A3007 RMK AO2 SLP181 T01110078 401890111=
201405160352 METAR KATL 160352Z 31007KT 10SM SCT040 12/08 A3008 RMK AO2 SLP184 T01170083=
201405160252 METAR KATL 160252Z 29007KT 10SM CLR 12/08 A3006 RMK AO2 SLP178 T01170083 51019=
201405160152 METAR KATL 160152Z 28007KT 10SM CLR 12/08 A3004 RMK AO2 SLP172 T01220078=
201405160052 METAR KATL 160052Z 31011KT 10SM FEW040 14/07 A3002 RMK AO2 SLP164 T01390072=
201405152352 METAR KATL 152352Z 31012G18KT 10SM BKN040 16/08 A3000 RMK AO2 SLP156 T01560078 10183 20139 53006=
201405152252 METAR KATL 152252Z 31014G22KT 10SM SCT040 16/08 A2999 RMK AO2 SLP152 T01610083=
201405152152 METAR KATL 152152Z 33014G20KT 10SM SCT040 18/08 A2999 RMK AO2 SLP150 T01780083=
201405152052 METAR KATL 152052Z 31015G23KT 10SM SCT040 18/09 A2999 RMK AO2 SLP149 T01780089 58009=
201405151952 METAR KATL 151952Z 33016G21KT 10SM BKN030 BKN040 18/10 A3000 RMK AO2 SLP154 T01830100=
201405151900 SPECI KATL 151900Z 30013KT 10SM FEW012 BKN020 BKN030 16/11 A3001 RMK AO2=
201405151852 METAR KATL 151852Z 31013KT 10SM BKN012 BKN014 OVC020 14/11 A3002 RMK AO2 SLP161 BINOVC DSNT NW T01440106=
201405151752 METAR KATL 151752Z 29012G21KT 10SM BKN010 BKN014 OVC020 15/12 A3002 RMK AO2 SLP160 60000 T01500117 10189 20133 50003=
201405151652 METAR KATL 151652Z 32011KT 10SM BKN010 BKN014 OVC024 14/12 A3002 RMK AO2 SLP161 T01440117=
201405151629 SPECI KATL 151629Z 31012G18KT 10SM BKN010 BKN014 OVC024 14/12 A3002 RMK AO2=
201405151552 METAR KATL 151552Z 32011KT 10SM BKN008 BKN012 OVC024 14/12 A3002 RMK AO2 DZE00 SLP161 P0000 T01390122=
201405151500 SPECI KATL 151500Z 31011KT 9SM FEW008 BKN012 OVC030 15/13 A3001 RMK AO2 DZE00 P0000=
201405151452 SPECI KATL 151452Z 30010KT 4SM -DZ BR SCT008 BKN012 OVC030 15/13 A3001 RMK AO2 SLP157 VIS LWR NW-N-NE P0000 60000 T01500128 53017=
201405151452 METAR KATL 151452Z 30010KT 4SM -DZ BR SCT008 BKN012 OVC030 15/13 A3001 RMK AO2 SLP157 VIS LWR NW-N-NE P0000 60000 T01500128 53017=
201405151436 SPECI KATL 151436Z 29009KT 10SM BR FEW008 BKN012 OVC030 15/13 A3001 RMK AO2 DZE36 P0000=
201405151352 METAR KATL 151352Z 28011KT 2 1/2SM -DZ BR BKN005 BKN008 OVC010 15/14 A2998 RMK AO2 SFC VIS 4 RAE47DZB47 SLP149 P0000 T01500139=
201405151252 METAR KATL 151252Z COR 31012KT 2 1/2SM -RA BR BKN005 BKN012 OVC030 16/15 A2997 RMK AO2 WSHFT 1224 FROPA SFC VIS 6 RAB25 SLP143 CIG 004V006 P0000 T01610150=
201405151240 SPECI KATL 151240Z 31012KT 2 1/2SM -RA BR BKN005 BKN011 OVC028 16/15 A2997 RMK AO2 WSHFT 1224 SFC VIS 3 RAB25 CIG 004V007 P0000=
201405151233 SPECI KATL 151233Z 31015KT 2 1/2SM -RA BR BKN005 BKN011 OVC028 17/16 A2996 RMK AO2 SFC VIS 3 RAB25 CIG 004V007 P0000=
201405151152 METAR KATL 151152Z 20004KT 10SM BKN006 BKN012 OVC032 19/18 A2995 RMK AO2 SLP137 CIG 005V008 60010 70133 T01890178 10189 20183 53010=
201405151052 METAR KATL 151052Z 20005KT 10SM BKN006 BKN013 OVC030 18/18 A2994 RMK AO2 SLP132 CIG 004V008 T01830178=
201405150952 METAR KATL 150952Z 18004KT 10SM BKN006 BKN028 BKN055 OVC200 18/18 A2992 RMK AO2 SLP126 CIG 005V007 T01830178 $=
201405150949 SPECI KATL 150949Z 18004KT 10SM BKN006 BKN028 BKN055 OVC200 18/18 A2992 RMK AO2 $=
201405150859 SPECI KATL 150859Z 00000KT 10SM SCT005 SCT028 BKN055 OVC200 18/18 A2992 RMK AO2 $=
201405150852 METAR KATL 150852Z 20003KT 10SM BKN005 BKN026 OVC050 18/18 A2992 RMK AO2 RAE08 SLP122 CIG 004V007 P0001 60010 T01830178 58015 $=
201405150808 SPECI KATL 150808Z 00000KT 10SM BKN006 BKN012 OVC050 18/17 A2992 RMK AO2 RAE08 P0001 $=
201405150752 METAR KATL 150752Z 15005KT 8SM -RA SCT005 BKN012 OVC048 18/17 A2993 RMK AO2 SLP128 P0005 T01830172 $=
201405150707 SPECI KATL 150707Z 17008KT 7SM -RA BKN005 BKN026 OVC100 19/18 A2995 RMK AO2 P0002 $=
201405150652 METAR KATL 150652Z 17007KT 8SM -RA BKN004 BKN028 OVC100 19/18 A2996 RMK AO2 SLP135 P0004 T01890178 $=
201405150552 METAR KATL 150552Z 16003KT 10SM -RA BKN004 OVC100 19/18 A2996 RMK AO2 RAB44 SLP137 PCPN VRY LGT P0000 60092 T01890178 10211 20183 56010=
201405150452 METAR KATL 150452Z 16005KT 10SM FEW005 SCT120 BKN150 OVC200 19/18 A2997 RMK AO2 RAE16 SLP139 P0000 T01890178 402780189=
201405150352 METAR KATL 150352Z 25005KT 10SM -RA SCT007 BKN030 BKN080 OVC150 19/18 A2997 RMK AO2 SLP141 P0008 T01890183=
201405150323 SPECI KATL 150323Z 22006KT 9SM -RA BKN008 BKN035 OVC100 19/18 A3000 RMK AO2 P0008=
201405150252 METAR KATL 150252Z 22011G20KT 4SM RA BR FEW008 SCT015CB OVC035 19/18 A2999 RMK AO2 SLP148 CB NW-N MOV N P0040 60084 T01940183 53012=
201405150238 SPECI KATL 150238Z 21014G20KT 1 1/2SM R09R/4000VP6000FT +RA BR SCT008 BKN015CB OVC050 19/18 A2999 RMK AO2 CB OHD-SW MOV N P0019=
201405150226 SPECI KATL 150226Z 19013G18KT 3SM RA BR SCT008 BKN015 OVC090 20/19 A3000 RMK AO2 OCNL LTG DSNT E-SE P0012=
201405150152 METAR KATL 150152Z 18010KT 7SM -RA SCT008 BKN050 BKN090 OVC130 20/19 A2998 RMK AO2 SLP143 OCNL LTG DSNT SE AND W-NW SCT008 V BKN P0020 T02000189=
201405150052 METAR KATL 150052Z 15014G25KT 9SM -RA SCT008 BKN015 OVC060 21/19 A2997 RMK AO2 PK WND 11031/0031 SLP142 OCNL LTGIC DSNT SW-NW P0024 T02060189=
201405150022 SPECI KATL 150022Z 16011G22KT 4SM RA BR SCT008 BKN015CB OVC050 20/19 A2996 RMK AO2 PK WND 16028/0010 CB NW-NE AND SE-SW MOV N P0019=
201405150011 SPECI KATL 150011Z 16021G28KT 1 1/2SM +RA BR SCT009 BKN015CB OVC050 21/19 A2997 RMK AO2 PK WND 16028/0010 CB NE-OHD-SW MOV N P0001=
201405150003 SPECI KATL 150003Z 15015G22KT 9SM -RA SCT009 BKN015CB OVC040 21/19 A2996 RMK AO2 CB VC SE-SW MOV N P0001=
201405142352 METAR KATL 142352Z 13014G23KT 9SM -RA SCT015CB BKN025 OVC040 21/19 A2996 RMK AO2 SLP138 CB VC NW-N AND DSNT SE-SW MOV N P0024 60031 T02110189 10278 20211 56008=
201405142347 SPECI KATL 142347Z 13015G20KT 7SM -RA FEW015 BKN022CB OVC040 21/19 A2996 RMK AO2 CB NW MOV N P0024=
201405142341 SPECI KATL 142341Z 14009G17KT 2SM R09R/5000VP6000FT +RA BR BKN022CB BKN035 OVC070 22/20 A2997 RMK AO2 CB OHD-SW MOV N P0004=
201405142252 METAR KATL 142252Z 23004KT 9SM -RA SCT045 BKN060 BKN100 OVC150 23/20 A2996 RMK AO2 SLP139 CB DSNT NE-SE-S P0007 T02280200=
201405142152 METAR KATL 142152Z 13004KT 9SM -RA SCT070 BKN090 OVC150 25/18 A2996 RMK AO2 RAB12 SLP136 P0000 T02500178=
201405142052 SPECI KATL 142052Z 15008KT 10SM FEW045 BKN150 OVC180 26/16 A2998 RMK AO2 SLP143 VIRGA ALQDS SHRA DSNT SW-NW T02610156 56024=
201405142052 METAR KATL 142052Z 15008KT 10SM FEW045 BKN150 OVC180 26/16 A2998 RMK AO2 SLP143 VIRGA ALQDS SHRA DSNT SW-NW T02610156 56024=
201405141952 METAR KATL 141952Z 15014G19KT 10SM FEW050 BKN150 BKN180 OVC250 27/15 A3000 RMK AO2 SLP148 ACC SE-S-SW-W-NW T02670150=
201405141852 METAR KATL 141852Z 15009G17KT 10SM FEW045 BKN150 BKN250 28/16 A3002 RMK AO2 SLP158 T02780161=
201405141752 METAR KATL 141752Z 14010G18KT 10SM FEW050 SCT150 BKN250 27/16 A3006 RMK AO2 SLP168 T02720156 10272 20200 58018=
201405141652 METAR KATL 141652Z 14010G18KT 10SM FEW036 SCT150 BKN250 26/16 A3009 RMK AO2 SLP180 T02610156=
201405141552 METAR KATL 141552Z 13010KT 10SM FEW027 BKN150 BKN250 26/17 A3010 RMK AO2 SLP184 T02560167=
201405141452 METAR KATL 141452Z 19007KT 10SM FEW025 SCT150 SCT250 24/17 A3011 RMK AO2 SLP187 T02440172 56004=
201405141352 METAR KATL 141352Z 17008KT 10SM FEW020 SCT160 SCT250 23/18 A3011 RMK AO2 SLP189 T02330178=
201405141252 METAR KATL 141252Z 18005KT 10SM FEW013 SCT150 22/18 A3012 RMK AO2 SLP189 T02170183=
201405141152 METAR KATL 141152Z COR 15004KT 8SM FEW150 20/18 A3012 RMK AO2 SLP192 T02000178 10217 20194 53005=
201405141052 METAR KATL 141052Z 14004KT 8SM FEW055 SCT200 19/17 A3011 RMK AO2 SLP187 T01940172=
201405140952 METAR KATL 140952Z 16005KT 10SM FEW180 20/17 A3011 RMK AO2 SLP185 T02000172=
201405140852 METAR KATL 140852Z 17007KT 10SM FEW050 SCT180 20/17 A3011 RMK AO2 SLP186 T02000172 55003=
201405140752 METAR KATL 140752Z 19004KT 10SM SCT180 20/17 A3011 RMK AO2 SLP186 T02000167=
201405140652 METAR KATL 140652Z 16007KT 10SM FEW055 SCT180 BKN250 21/16 A3011 RMK AO2 SLP185 T02110161=
201405140552 METAR KATL 140552Z 14003KT 10SM FEW150 SCT180 SCT250 22/16 A3012 RMK AO2 SLP189 T02170156 10278 20217 56006=
201405140452 METAR KATL 140452Z 15003KT 10SM FEW150 SCT250 23/16 A3012 RMK AO2 SLP190 T02280156 403000194=
201405140352 METAR KATL 140352Z 14004KT 10SM SCT250 24/15 A3013 RMK AO2 SLP193 T02390150=
201405140252 METAR KATL 140252Z 17005KT 10SM FEW200 24/15 A3014 RMK AO2 SLP195 T02390150 53016=
201405140152 METAR KATL 140152Z 15005KT 10SM FEW200 25/15 A3011 RMK AO2 SLP187 T02500150=
201405140052 METAR KATL 140052Z 15005KT 10SM FEW150 26/14 A3010 RMK AO2 SLP183 T02610144=
201405132352 METAR KATL 132352Z 16006KT 10SM CLR 28/14 A3009 RMK AO2 SLP180 T02780139 10300 20278 55004=
201405132252 METAR KATL 132252Z 17008KT 10SM FEW065 29/14 A3009 RMK AO2 SLP179 T02890144=
201405132152 METAR KATL 132152Z 19004KT 10SM FEW065 SCT250 29/13 A3009 RMK AO2 SLP179 T02940133=
201405132052 METAR KATL 132052Z 12006KT 10SM FEW065 SCT170 29/14 A3010 RMK AO2 SLP183 ACSL DSNT S-SW-W & DSNT NW-N T02940144 56019=
201405131952 METAR KATL 131952Z 15007KT 10SM FEW060 SCT170 SCT200 29/15 A3012 RMK AO2 SLP190 T02890150=
201405131852 METAR KATL 131852Z 13008KT 10SM FEW060 BKN170 BKN190 29/16 A3014 RMK AO2 SLP195 T02890156=
201405131752 METAR KATL 131752Z 12005KT 10SM FEW045 SCT170 SCT250 29/17 A3016 RMK AO2 SLP202 T02940167 10294 20206 58006=
201405131652 METAR KATL 131652Z 13004KT 10SM FEW040 BKN170 BKN250 28/17 A3018 RMK AO2 SLP209 MDT CU ALQDS T02780172=
201405131552 METAR KATL 131552Z 24005KT 10SM FEW035TCU SCT150 SCT250 27/18 A3018 RMK AO2 SLP210 TCU S T02720178=
201405131452 METAR KATL 131452Z 18006KT 10SM FEW040 SCT150 SCT250 26/18 A3018 RMK AO2 SLP209 T02560183 53004=
201405131352 METAR KATL 131352Z 19004KT 10SM FEW045 24/18 A3017 RMK AO2 SLP209 T02440183=
201405131252 METAR KATL 131252Z 19006KT 10SM FEW045 22/18 A3017 RMK AO2 SLP206 T02220178=
201405131152 METAR KATL 131152Z 00000KT 10SM FEW045 21/18 A3016 RMK AO2 SLP206 T02060183 10228 20194 53012=
201405131052 METAR KATL 131052Z 00000KT 9SM FEW047 SCT250 20/18 A3014 RMK AO2 SLP198 T02000183=
201405130952 METAR KATL 130952Z 15004KT 10SM FEW047 21/18 A3013 RMK AO2 SLP194 T02060183 $=
201405130852 METAR KATL 130852Z 00000KT 10SM SCT047 21/19 A3013 RMK AO2 SLP193 T02110189 53001 $=
201405130752 METAR KATL 130752Z 08004KT 10SM FEW250 22/19 A3012 RMK AO2 SLP190 T02170189 $=
201405130652 METAR KATL 130652Z 00000KT 10SM FEW250 22/19 A3012 RMK AO2 SLP189 T02170189 $=
201405130552 METAR KATL 130552Z 00000KT 10SM FEW250 22/19 A3012 RMK AO2 SLP190 T02220189 10267 20217 58004 $=
201405130452 METAR KATL 130452Z 00000KT 10SM FEW200 BKN250 23/18 A3013 RMK AO2 SLP193 T02280183 403000194 $=
201405130352 METAR KATL 130352Z 00000KT 10SM FEW200 BKN250 23/18 A3013 RMK AO2 SLP194 T02330183 $=
201405130252 METAR KATL 130252Z COR 00000KT 10SM SCT200 BKN250 25/18 A3014 RMK AO2 SLP196 T02440183 51004=
201405130152 METAR KATL 130152Z 00000KT 10SM BKN200 OVC250 24/18 A3014 RMK AO2 SLP196 T02390183=
201405130052 METAR KATL 130052Z 24004KT 10SM FEW040 SCT060 BKN200 BKN250 24/18 A3014 RMK AO2 SLP196 T02440183=
201405122352 METAR KATL 122352Z 19004KT 10SM FEW040 SCT200 BKN250 27/18 A3013 RMK AO2 SLP192 CB DSNT SW-W TCU DSNT SE-S T02670183 10300 20267 55004=
201405122252 METAR KATL 122252Z 21004KT 10SM FEW045 SCT070 BKN250 27/18 A3012 RMK AO2 SLP190 CB DSNT N-NE AND SW T02720183=
201405122152 METAR KATL 122152Z 19008KT 10SM SCT045CB SCT080 BKN250 28/18 A3013 RMK AO2 SLP193 CB VC SE MOV STNRY TCU VC N-E AND DSNT S-SW T02830183=
201405122052 METAR KATL 122052Z 17005KT 10SM FEW050TCU SCT080 BKN250 29/18 A3014 RMK AO2 SLP196 CB DSNT N & W TCU N-NE-E-SE SHRA DSNT N T02890183 58017=
201405121952 METAR KATL 121952Z 23007KT 10SM SCT048TCU SCT250 30/18 A3016 RMK AO2 SLP203 CB DSNT W TCU N-NE-E & S & W T03000178=
201405121852 METAR KATL 121852Z 23006KT 10SM BKN050TCU BKN250 29/18 A3018 RMK AO2 SLP209 TCU SE-S-SW-W-NW T02890178=
201405121752 METAR KATL 121752Z 19007KT 10SM FEW048TCU SCT200 BKN250 29/17 A3019 RMK AO2 SLP214 TCU NE-SE & W T02940167 10294 20206 58008=
201405121652 METAR KATL 121652Z VRB05KT 10SM BKN045TCU BKN250 28/18 A3021 RMK AO2 SLP221 TCU ALQDS T02780178=
201405121552 METAR KATL 121552Z 19004KT 10SM SCT027TCU SCT250 27/19 A3022 RMK AO2 SLP224 TCU E & S-NW T02670189=
201405121452 METAR KATL 121452Z 21004KT 10SM FEW025 SCT150 SCT250 26/19 A3021 RMK AO2 SLP222 T02560194 51013=
201405121352 METAR KATL 121352Z 17005KT 10SM FEW150 SCT250 24/19 A3021 RMK AO2 SLP221 T02440194=
201405121252 METAR KATL 121252Z 00000KT 10SM FEW140 SCT250 23/18 A3020 RMK AO2 SLP217 T02280183=
201405121152 METAR KATL 121152Z 00000KT 10SM FEW140 SCT250 21/18 A3018 RMK AO2 SLP210 T02060183 10217 20194 53014=
201405121052 METAR KATL 121052Z 00000KT 10SM SCT140 BKN250 20/18 A3016 RMK AO2 SLP205 T02000183=
201405120952 METAR KATL 120952Z 00000KT 10SM SCT130 BKN250 20/18 A3014 RMK AO2 SLP198 T02000183 $=
201405120852 METAR KATL 120852Z 00000KT 10SM FEW045 BKN130 BKN250 21/18 A3013 RMK AO2 SLP195 T02060183 53003 $=
201405120752 METAR KATL 120752Z COR 00000KT 10SM BKN250 20/18 A3012 RMK AO2 SLP190 T02000183 $=
201405120652 METAR KATL 120652Z 00000KT 10SM FEW015 SCT250 21/19 A3012 RMK AO2 SLP189 T02110189 $=
201405120552 METAR KATL 120552Z 00000KT 10SM FEW020 SCT140 BKN250 21/18 A3012 RMK AO2 SLP192 T02110183 10256 20211 58013 $=
201405120452 METAR KATL 120452Z 00000KT 10SM FEW055 SCT120 SCT250 21/18 A3014 RMK AO2 SLP198 T02110183 402890172 $=
201405120352 METAR KATL 120352Z 19004KT 10SM FEW050 SCT110 SCT250 22/18 A3017 RMK AO2 SLP207 T02170183 $=
201405120252 METAR KATL 120252Z 18007KT 10SM FEW032 SCT100 SCT200 SCT250 23/19 A3016 RMK AO2 SLP207 T02280189 53020 $=
201405120152 METAR KATL 120152Z 16006KT 10SM FEW040 SCT110 SCT200 SCT250 24/19 A3014 RMK AO2 SLP197 T02440194 $=
201405120052 METAR KATL 120052Z 00000KT 10SM FEW044 SCT110 SCT200 SCT250 26/19 A3012 RMK AO2 SLP190 OCNL LTGIC DSNT SE-S CB DSNT SE-S & W TCU DSNT SW T02560189 $=
201405112352 METAR KATL 112352Z 12009KT 10SM FEW045CB SCT110 SCT200 SCT250 26/18 A3010 RMK AO2 SLP185 CB E-SE MOV N CB DSNT S & SW TCU DSNT SE-SW SHRA E-SE T02560183 10289 20256 53002 $=
201405112252 METAR KATL 112252Z 07006KT 10SM FEW046TCU SCT100 SCT250 27/18 A3009 RMK AO2 SLP180 TCU VC SE-S & W T02720183 $=
201405112152 METAR KATL 112152Z 10004KT 10SM SCT046TCU SCT100 SCT250 29/18 A3009 RMK AO2 SLP179 TCU VC S-SW T02890183 $=
201405112052 METAR KATL 112052Z 00000KT 10SM FEW001 SCT048 SCT250 28/17 A3010 RMK AO2 SLP182 FU FEW001 FU PLUME VC SW CB DSNT SW & NW TCU DSNT SE-S T02780172 58024 $=
201405111952 METAR KATL 111952Z 00000KT 10SM SCT037 SCT048 28/18 A3012 RMK AO2 SLP191 T02780178 $=
201405111852 METAR KATL 111852Z 00000KT 10SM SCT031 SCT040 27/19 A3015 RMK AO2 SLP200 T02720194 $=
201405111752 METAR KATL 111752Z 00000KT 10SM BKN033 26/19 A3017 RMK AO2 SLP208 T02610189 10261 20189 58005 $=
201405111718 SPECI KATL 111718Z 32003KT 10SM FEW019 SCT026 BKN033 26/19 A3018 RMK AO2 $=
201405111652 METAR KATL 111652Z VRB03KT 10SM FEW019 SCT023 BKN029 25/19 A3018 RMK AO2 SLP213 T02500194 $=
201405111622 SPECI KATL 111622Z 00000KT 10SM SCT016 BKN022 24/19 A3018 RMK AO2 $=
201405111605 SPECI KATL 111605Z VRB03KT 10SM FEW016 SCT024 24/19 A3019 RMK AO2 $=
201405111552 METAR KATL 111552Z 30005KT 9SM SCT016 BKN024 24/19 A3019 RMK AO2 SLP215 T02390194 $=
201405111536 SPECI KATL 111536Z 00000KT 8SM SCT011 BKN018 BKN120 23/19 A3019 RMK AO2 $=
201405111512 SPECI KATL 111512Z 00000KT 3SM SCT005 OVC011 22/19 A3019 RMK AO2 SFC VIS 7 $=
201405111452 METAR KATL 111452Z 00000KT 2 1/2SM BR OVC006 21/19 A3019 RMK AO2 SFC VIS 5 SLP216 T02060194 51013 $=
201405111352 METAR KATL 111352Z 00000KT 1 1/2SM BR OVC004 19/19 A3018 RMK AO2 SFC VIS 2 1/2 SLP213 T01940189 $=
201405111315 SPECI KATL 111315Z 00000KT 1/2SM R09R/5000VP6000FT BR OVC003 19/19 A3017 RMK AO2 SFC VIS 1 3/4 $=
201405111252 METAR KATL 111252Z 19004KT 1/8SM R09R/4000VP6000FT BR OVC003 19/19 A3016 RMK AO2 SFC VIS 1 SLP207 T01940189 $=
201405111206 SPECI KATL 111206Z 21004KT 1/8SM R09R/1600V4000FT FG VV002 19/18 A3015 RMK AO2 SFC VIS 1/2 $=
201405111156 SPECI KATL 111156Z 21004KT 1/8SM R09R/1600V1800FT FG VV002 19/18 A3015 RMK AO2 SFC VIS 1/4 $=
201405111152 METAR KATL 111152Z 22003KT 1/8SM R09R/1600V2400FT FG VV002 19/18 A3015 RMK AO2 SFC VIS 1/4 SLP203 70003 T01890183 10194 20172 51013 $=
201405111052 METAR KATL 111052Z 00000KT 1/8SM R09R/1600V1800FT FG VV002 18/18 A3012 RMK AO2 SFC VIS 1/2 SLP193 T01830183=
201405110952 METAR KATL 110952Z 00000KT 1/8SM R09R/1400V1600FT FG FEW001 OVC003 18/18 A3011 RMK AO2 SFC VIS 1/2 SLP188 T01830178=
201405110938 SPECI KATL 110938Z 00000KT 1/8SM R09R/1200V1400FT BR SCT002 BKN004 18/18 A3011 RMK AO2 SFC VIS 3/4=
201405110932 SPECI KATL 110932Z 00000KT 6SM R09R/1200V3000FT BR FEW002 BKN005 18/17 A3010 RMK AO2 VIS SE-SW 1=
201405110852 METAR KATL 110852Z 00000KT 7SM FEW008 18/17 A3010 RMK AO2 SLP184 T01830172 55004=
201405110847 SPECI KATL 110847Z 00000KT 7SM FEW008 18/17 A3009 RMK AO2=
201405110752 METAR KATL 110752Z 22003KT 9SM BKN008 BKN014 BKN030 19/18 A3009 RMK AO2 SLP183 T01890178=
201405110718 SPECI KATL 110718Z 00000KT 8SM BKN008 18/18 A3009 RMK AO2=
201405110658 SPECI KATL 110658Z 00000KT 8SM SCT008 19/18 A3010 RMK AO2=
201405110652 METAR KATL 110652Z 00000KT 8SM BKN010 19/18 A3010 RMK AO2 SLP185 T01940178=
201405110552 METAR KATL 110552Z 30003KT 9SM OVC010 19/18 A3011 RMK AO2 SLP188 60001 T01890178 10200 20178 52002=
201405110505 SPECI KATL 110505Z 00000KT 8SM BKN012 18/17 A3011 RMK AO2=
201405110452 METAR KATL 110452Z 00000KT 10SM FEW010 SCT250 18/17 A3011 RMK AO2 SLP189 T01830172 402440178=
201405110352 METAR KATL 110352Z 00000KT 10SM FEW012 SCT100 SCT250 19/18 A3010 RMK AO2 SLP187 T01890178=
201405110252 METAR KATL 110252Z 00000KT 10SM FEW110 SCT250 19/18 A3010 RMK AO2 SLP188 60001 T01940183 51015=
201405110152 METAR KATL 110152Z 00000KT 10SM FEW050 SCT110 SCT200 19/18 A3009 RMK AO2 SLP184 T01940183 $=
201405110052 METAR KATL 110052Z 00000KT 10SM FEW010 SCT030 BKN055 BKN200 20/18 A3008 RMK AO2 TSE04RAE14 SLP179 TS MOVD NE P0001 T02000183 $=
201405110005 SPECI KATL 110005Z 25008KT 8SM -RA FEW008 SCT028 BKN065 OVC200 20/19 A3006 RMK AO2 TSE04 TS MOVD NE OCNL LTGIC DSNT NE CB DSNT NE P0001 $=
201405102352 METAR KATL 102352Z 26011KT 6SM -TSRA BR FEW008 SCT032CB BKN075 OVC200 20/18 A3006 RMK AO2 TSB37RAB37 SLP172 VIS NW 2 1/2 OCNL LTGIC NW-N TS NW-N MOV NE P0002 60002 T02000183 10244 20200 53004 $=
201405102338 SPECI KATL 102338Z 25013G24KT 6SM -TSRA FEW014 BKN032CB BKN075 OVC200 22/18 A3005 RMK AO2 TSB37RAB37 OCNL LTGICCA W-N TS W-N MOV NE P0000 $=
201405102252 METAR KATL 102252Z 20007KT 10SM SCT032TCU BKN085 BKN200 OVC250 24/18 A3004 RMK AO2 SLP164 CB DSNT SE TCU VC N T02390178 $=
201405102152 METAR KATL 102152Z 20005KT 10SM FEW038TCU SCT065 OVC100 24/18 A3004 RMK AO2 SLP166 TCU VC S & W & DSNT NE-SE VCSH NW-N T02440178 $=
201405102052 METAR KATL 102052Z 21005KT 10SM SCT030 OVC100 24/18 A3005 RMK AO2 SLP167 T02440178 56021 $=
201405101952 METAR KATL 101952Z 20006KT 10SM SCT030 OVC100 24/17 A3007 RMK AO2 SLP175 T02390172 $=
201405101852 METAR KATL 101852Z 20007KT 10SM SCT026 SCT045 OVC120 24/18 A3009 RMK AO2 SLP182 T02390183 $=
201405101752 METAR KATL 101752Z 20007KT 10SM SCT030 BKN065 OVC120 23/18 A3011 RMK AO2 SLP189 T02330183 10233 20189 58004 $=
201405101652 METAR KATL 101652Z 21009KT 10SM SCT022 OVC120 23/18 A3013 RMK AO2 SLP196 T02280183 $=
201405101631 SPECI KATL 101631Z 21006KT 10SM SCT018 BKN024 BKN120 OVC200 23/18 A3012 RMK AO2 $=
201405101613 SPECI KATL 101613Z 23007KT 10SM SCT018 SCT024 OVC150 23/19 A3012 RMK AO2 $=
201405101552 METAR KATL 101552Z 21008KT 10SM BKN016 BKN055 OVC150 23/19 A3012 RMK AO2 SLP195 T02280189 $=
201405101528 SPECI KATL 101528Z 19010KT 10SM BKN013 BKN018 22/19 A3013 RMK AO2 $=
201405101452 METAR KATL 101452Z 22008KT 10SM FEW013 SCT045 BKN070 OVC140 22/19 A3012 RMK AO2 SLP194 T02170189 53007 $=
201405101414 SPECI KATL 101414Z 21007KT 10SM FEW009 SCT045 SCT070 OVC150 21/19 A3013 RMK AO2 $=
201405101352 METAR KATL 101352Z 19006KT 9SM SCT045 SCT070 OVC180 21/19 A3012 RMK AO2 SLP194 T02060189 $=
201405101252 METAR KATL 101252Z 13004KT 9SM FEW045 SCT070 BKN180 OVC250 19/17 A3010 RMK AO2 SLP187 T01940172=
201405101152 METAR KATL 101152Z 11005KT 10SM BKN047 BKN065 BKN180 BKN220 19/17 A3010 RMK AO2 SLP187 70035 T01890172 10189 20183 51012=
201405101052 METAR KATL 101052Z 09005KT 10SM FEW012 SCT055 BKN180 BKN250 18/17 A3009 RMK AO2 SLP185 T01830167=
201405100952 METAR KATL 100952Z 00000KT 10SM FEW055 SCT180 OVC250 18/17 A3008 RMK AO2 SLP181 T01830167=
201405100852 METAR KATL 100852Z 17004KT 10SM FEW035 BKN150 OVC200 18/17 A3007 RMK AO2 SLP174 T01830167 55004=
201405100752 METAR KATL 100752Z 16004KT 10SM FEW110 BKN150 OVC200 18/17 A3006 RMK AO2 SLP173 T01830167=
201405100652 METAR KATL 100652Z 17005KT 10SM FEW110 BKN150 OVC200 18/17 A3006 RMK AO2 SLP172 T01830167=
201405100552 METAR KATL 100552Z 17009KT 10SM BKN110 OVC200 18/17 A3008 RMK AO2 SLP177 T01830172 10194 20183 56017=
201405100452 METAR KATL 100452Z 17011KT 10SM BKN140 BKN200 OVC250 18/17 A3010 RMK AO2 SLP184 T01830172 402560178=
201405100352 METAR KATL 100352Z 15006KT 10SM FEW002 SCT140 BKN200 OVC250 18/18 A3011 RMK AO2 SLP188 T01830178=
201405100252 METAR KATL 100252Z 15004KT 10SM BKN140 OVC200 19/18 A3013 RMK AO2 SLP196 T01890178 51003=
201405100152 METAR KATL 100152Z 00000KT 10SM FEW005 BKN150 OVC200 19/18 A3013 RMK AO2 SLP195 T01890178=
201405100052 METAR KATL 100052Z 03005KT 10SM FEW004 SCT120 BKN150 OVC200 19/17 A3013 RMK AO2 SLP197 T01940172=
201405092352 METAR KATL 092352Z 35005KT 10SM FEW070 BKN130 OVC200 19/17 A3012 RMK AO2 RAE33 SLP193 P0001 60035 T01940167 10256 20178 50005=
201405092252 METAR KATL 092252Z 33004KT 6SM -RA BR FEW040 SCT070 BKN090 OVC150 18/17 A3014 RMK AO2 TSE50 SLP200 P0034 T01830167=
201405092250 SPECI KATL 092250Z 31006KT 6SM -RA BR FEW040 SCT070 BKN090 OVC150 18/17 A3014 RMK AO2 TSE50 TS MOV NE P0033=
201405092218 SPECI KATL 092218Z 32011KT 5SM -TSRA BR FEW025CB BKN040 BKN070 OVC200 18/17 A3013 RMK AO2 VIS LWR NE-E OCNL LTGIC NE-SE-S TS NE-SE-S MOV NE P0027=
201405092213 SPECI KATL 092213Z 31010KT 1 1/2SM +TSRA BR FEW010 SCT025CB BKN040 OVC200 18/17 A3014 RMK AO2 OCNL LTGIC NE-SE-SW TS NE-SE-SW MOV NE P0024=
201405092205 SPECI KATL 092205Z 31012KT 5SM -TSRA BR FEW010 SCT025CB BKN040 OVC200 18/17 A3013 RMK AO2 OCNL LTGIC NE-SE-S TS NE-SE-S MOV NE P0014=
201405092156 SPECI KATL 092156Z 31010G18KT 2SM R09R/5000VP6000FT +TSRA BR FEW010 BKN025CB BKN070 OVC200 18/17 A3015 RMK AO2 PRESRR VIS LWR W-NW OCNL LTGICCG NE-OHD-SW TS NE-OHD-SW MOV NE P0008=
201405092152 METAR KATL 092152Z 29013KT 3SM R09R/6000VP6000FT +TSRA FEW010 SCT025CB BKN035 OVC200 19/16 A3014 RMK AO2 WSHFT 2120 TSB31RAB47 SLP199 OCNL LTGICCG SW-NW-NE TS SW-NW-NE MOV NE P0000 T01940161=
201405092138 SPECI KATL 092138Z 32013KT 10SM TS SCT025CB BKN035 BKN080 OVC200 21/16 A3012 RMK AO2 WSHFT 2120 TSB31 OCNL LTGICCG SW-NW TS SW-NW MOV NE=
201405092131 SPECI KATL 092131Z 31019G22KT 10SM TS SCT025CB BKN035 BKN080 OVC200 21/16 A3012 RMK AO2 TSB31 OCNL LTGIC SW-NW TS VC SW-NW MOV NE=
201405092052 METAR KATL 092052Z 21007KT 10SM SCT032 BKN085 OVC150 25/18 A3010 RMK AO2 SLP186 T02500183 57011=
201405091952 METAR KATL 091952Z 21009G16KT 10SM FEW032 SCT055 BKN095 OVC150 25/18 A3012 RMK AO2 SLP190 T02500178=
201405091852 METAR KATL 091852Z 21009G17KT 10SM FEW032 SCT055 BKN110 OVC150 25/18 A3013 RMK AO2 SLP193 T02500178=
201405091752 METAR KATL 091752Z 20013KT 10SM SCT032 SCT050 BKN100 OVC150 25/18 A3014 RMK AO2 SLP197 60000 T02500178 10250 20206 58010=
201405091652 METAR KATL 091652Z 19010G19KT 10SM FEW027 SCT050 BKN120 OVC150 24/18 A3015 RMK AO2 RAE02 SLP201 P0000 T02440183=
201405091552 METAR KATL 091552Z 19006KT 10SM -RA SCT050 BKN110 OVC150 23/18 A3017 RMK AO2 RAB40 SLP207 VIRGA OHD-NE-E-SE-S-SW P0000 T02330183=
201405091452 METAR KATL 091452Z 20008KT 10SM FEW060 SCT110 BKN140 OVC200 22/18 A3017 RMK AO2 SLP208 SHRA DSNT N-NE & DSNT W T02220183 50007=
201405091352 METAR KATL 091352Z 20008KT 10SM FEW055 SCT120 BKN150 OVC200 22/18 A3018 RMK AO2 SLP210 SHRA DSNT NE & DSNT SW-NW T02220183=
201405091252 METAR KATL 091252Z 19006KT 10SM FEW055 SCT075 SCT150 OVC200 21/17 A3016 RMK AO2 SLP205 VIRGA VC SW-NW T02110167=
201405091152 METAR KATL 091152Z 15005KT 10SM FEW075 SCT150 BKN200 OVC250 21/16 A3015 RMK AO2 SLP200 ACC VC E T02060156 10217 20194 53010=
201405091052 METAR KATL 091052Z 16005KT 10SM FEW075 SCT150 BKN200 BKN250 20/15 A3014 RMK AO2 SLP196 T02000150=
201405090952 METAR KATL 090952Z 16004KT 10SM FEW070 BKN180 OVC250 20/16 A3012 RMK AO2 SLP188 ACC VC NE T02000156=
201405090852 METAR KATL 090852Z 19003KT 10SM FEW070 BKN180 OVC250 20/14 A3012 RMK AO2 SLP188 ACC VC N-E T02000144 56007=
201405090752 METAR KATL 090752Z 21004KT 10SM FEW070 BKN180 OVC250 21/14 A3013 RMK AO2 SLP192 T02060144=
201405090652 METAR KATL 090652Z 19005KT 10SM BKN180 OVC250 21/14 A3012 RMK AO2 SLP190 T02110139=
201405090552 METAR KATL 090552Z 20005KT 10SM BKN200 OVC250 22/14 A3014 RMK AO2 SLP196 T02170139 10272 20211 58006=
201405090452 METAR KATL 090452Z 20006KT 10SM OVC250 22/13 A3015 RMK AO2 SLP199 T02220133 403000172=
201405090352 METAR KATL 090352Z 19007KT 10SM OVC250 23/13 A3015 RMK AO2 SLP201 T02330133=
201405090252 METAR KATL 090252Z 17007KT 10SM OVC250 24/13 A3016 RMK AO2 SLP202 T02440128 52007=
201405090152 METAR KATL 090152Z 18005KT 10SM OVC250 25/13 A3015 RMK AO2 SLP201 T02500128=
201405090052 METAR KATL 090052Z 17005KT 10SM FEW065 BKN250 26/13 A3014 RMK AO2 SLP198 T02560133=
201405082352 METAR KATL 082352Z 18004KT 10SM FEW070 BKN250 27/13 A3014 RMK AO2 SLP196 T02720133 10300 20272 53001=
201405082252 METAR KATL 082252Z 21007KT 10SM FEW070 BKN250 29/13 A3013 RMK AO2 SLP192 T02890128=
201405082152 METAR KATL 082152Z 18009G16KT 10SM SCT070 BKN250 29/12 A3013 RMK AO2 SLP194 T02940122=
201405082052 METAR KATL 082052Z 18008KT 10SM FEW065 SCT250 29/14 A3013 RMK AO2 SLP195 MDT CU N-NE-E-SE T02940139 56021=
201405081952 METAR KATL 081952Z 21007G16KT 10SM SCT060TCU SCT250 29/14 A3015 RMK AO2 SLP201 TCU S & W MDT CU ALQDS T02940144=
201405081852 METAR KATL 081852Z 19008KT 10SM SCT055 SCT250 29/14 A3018 RMK AO2 SLP209 MDT CU ALQDS T02890144=
201405081752 METAR KATL 081752Z 17010G18KT 10SM SCT055 SCT250 29/14 A3020 RMK AO2 SLP218 T02940144 10294 20200 58004=
201405081652 METAR KATL 081652Z 17008KT 10SM SCT050 SCT250 28/16 A3022 RMK AO2 SLP225 T02830161=
201405081552 METAR KATL 081552Z 18007KT 10SM BKN250 28/16 A3023 RMK AO2 SLP227 T02780156=
201405081452 METAR KATL 081452Z 17005KT 10SM FEW200 BKN250 26/15 A3021 RMK AO2 SLP222 T02560150 50006=
201405081352 METAR KATL 081352Z 15005KT 10SM SCT060 SCT200 BKN250 23/14 A3023 RMK AO2 SLP228 T02330144=
201405081252 METAR KATL 081252Z 00000KT 10SM FEW075 SCT200 SCT250 23/15 A3021 RMK AO2 SLP222 T02280150=
201405081152 METAR KATL 081152Z 00000KT 10SM FEW250 21/14 A3019 RMK AO2 SLP216 T02060144 10206 20172 53017=
201405081052 METAR KATL 081052Z 00000KT 10SM FEW200 SCT250 18/13 A3017 RMK AO2 SLP207 T01780133=
201405080952 METAR KATL 080952Z 00000KT 10SM FEW200 BKN250 18/13 A3015 RMK AO2 SLP200 T01780133=
201405080852 METAR KATL 080852Z 00000KT 10SM FEW200 BKN250 18/13 A3014 RMK AO2 SLP198 T01780133 53004=
201405080752 METAR KATL 080752Z 00000KT 10SM FEW200 BKN250 18/13 A3013 RMK AO2 SLP195 T01830133=
201405080652 METAR KATL 080652Z 20003KT 10SM SCT200 BKN250 19/13 A3012 RMK AO2 SLP190 T01940133=
201405080552 METAR KATL 080552Z 00000KT 10SM SCT200 BKN250 19/14 A3013 RMK AO2 SLP194 T01940139 10267 20194 58003=
201405080452 METAR KATL 080452Z 00000KT 10SM SCT250 21/13 A3014 RMK AO2 SLP198 T02060133 402890156=
201405080352 METAR KATL 080352Z 22004KT 10SM SCT250 21/13 A3013 RMK AO2 SLP195 T02110133=
201405080252 METAR KATL 080252Z 23005KT 10SM FEW250 22/13 A3014 RMK AO2 SLP197 T02220128 53011=
201405080152 METAR KATL 080152Z 19004KT 10SM FEW250 23/12 A3012 RMK AO2 SLP191 T02330117=
201405080052 SPECI KATL 080052Z 19004KT 10SM FEW250 24/12 A3011 RMK AO2 SLP189 T02440117=
201405080052 METAR KATL 080052Z 19004KT 10SM FEW250 24/12 A3011 RMK AO2 SLP189 T02440117=
201405072352 METAR KATL 072352Z 20004KT 10SM CLR 27/11 A3010 RMK AO2 SLP186 T02670106 10289 20267 51002 $=
201405072252 METAR KATL 072252Z 23006KT 10SM CLR 28/09 A3010 RMK AO2 SLP186 T02780094=
201405072152 METAR KATL 072152Z 19009KT 10SM FEW250 28/08 A3010 RMK AO2 SLP185 T02830078=
201405072052 METAR KATL 072052Z 25005KT 10SM FEW250 29/09 A3010 RMK AO2 SLP184 T02890089 58010=
201405071952 METAR KATL 071952Z 20012G15KT 10SM FEW250 29/08 A3011 RMK AO2 SLP186 T02890083=
201405071852 METAR KATL 071852Z 19009G14KT 10SM FEW250 28/06 A3012 RMK AO2 SLP190 T02830056=
201405071752 METAR KATL 071752Z 20009G18KT 10SM SCT200 SCT250 28/06 A3013 RMK AO2 SLP193 T02780056 10283 20178 50001=
201405071652 METAR KATL 071652Z 20010KT 10SM FEW200 SCT250 SCT300 28/07 A3014 RMK AO2 SLP196 T02780067=
201405071552 METAR KATL 071552Z 22010KT 10SM FEW200 SCT250 BKN300 27/09 A3013 RMK AO2 SLP195 T02670094=
201405071452 METAR KATL 071452Z 20005KT 10SM FEW200 BKN250 BKN300 25/13 A3013 RMK AO2 SLP193 T02500133 51006=
201405071352 METAR KATL 071352Z 00000KT 10SM SCT250 24/14 A3013 RMK AO2 SLP193 T02390144=
201405071252 METAR KATL 071252Z 21003KT 10SM FEW200 SCT250 20/14 A3012 RMK AO2 SLP191 T02000144=
201405071152 METAR KATL 071152Z 00000KT 10SM FEW250 18/13 A3011 RMK AO2 SLP187 T01780133 10200 20156 53023=
201405071052 METAR KATL 071052Z 22003KT 10SM FEW250 16/12 A3007 RMK AO2 SLP175 T01560122=
201405070952 METAR KATL 070952Z COR 24003KT 10SM FEW250 17/12 A3005 RMK AO2 SLP165 T01720122=
201405070852 METAR KATL 070852Z 22005KT 10SM FEW250 16/12 A3004 RMK AO2 SLP163 T01610117 53005=
201405070752 METAR KATL 070752Z 22004KT 10SM CLR 18/12 A3003 RMK AO2 SLP160 T01780117=
201405070652 METAR KATL 070652Z 20003KT 10SM CLR 18/12 A3002 RMK AO2 SLP157 T01780122=
201405070552 METAR KATL 070552Z 00000KT 10SM CLR 19/12 A3002 RMK AO2 SLP157 T01940117 10272 20194 50007=
201405070452 METAR KATL 070452Z 26003KT 10SM CLR 20/12 A3002 RMK AO2 SLP158 T02000117 402940161=
201405070352 METAR KATL 070352Z 24003KT 10SM CLR 21/12 A3001 RMK AO2 SLP154 T02060117=
201405070252 METAR KATL 070252Z 22004KT 10SM CLR 22/12 A3000 RMK AO2 SLP150 T02170117 53012=
201405070152 METAR KATL 070152Z 23003KT 10SM CLR 23/12 A2999 RMK AO2 SLP147 T02280117=
201405070052 METAR KATL 070052Z 22004KT 10SM CLR 25/11 A2997 RMK AO2 SLP141 T02500111=
201405062352 METAR KATL 062352Z 23006KT 10SM CLR 27/11 A2997 RMK AO2 SLP138 T02720106 10294 20272 53005=
201405062252 METAR KATL 062252Z 24008KT 10SM CLR 28/10 A2995 RMK AO2 SLP134 T02830100=
201405062152 METAR KATL 062152Z 24009KT 10SM CLR 29/09 A2995 RMK AO2 SLP133 T02890094=
201405062052 METAR KATL 062052Z 23010KT 10SM CLR 29/12 A2995 RMK AO2 SLP133 T02940117 56018=
201405061952 METAR KATL 061952Z 20003G15KT 10SM CLR 29/12 A2997 RMK AO2 SLP138 T02890117=
201405061852 METAR KATL 061852Z 20007G14KT 10SM CLR 29/11 A2998 RMK AO2 SLP144 T02890106=
201405061752 METAR KATL 061752Z VRB04KT 10SM CLR 28/11 A3000 RMK AO2 SLP151 T02780111 10289 20189 58009=
201405061652 METAR KATL 061652Z 20009KT 10SM CLR 28/12 A3002 RMK AO2 SLP155 T02780122=
201405061552 METAR KATL 061552Z VRB06KT 10SM FEW250 27/13 A3004 RMK AO2 SLP161 T02720133=
201405061452 METAR KATL 061452Z 33006KT 10SM FEW250 26/13 A3003 RMK AO2 SLP160 T02560133 51007=
201405061352 METAR KATL 061352Z 33007KT 10SM FEW250 23/13 A3003 RMK AO2 SLP160 T02330133=
201405061252 METAR KATL 061252Z 28006KT 10SM FEW250 22/13 A3002 RMK AO2 SLP156 T02170133=
201405061152 METAR KATL 061152Z 27004KT 10SM FEW250 19/13 A3001 RMK AO2 SLP154 T01890133 10211 20161 53017=
201405061052 METAR KATL 061052Z 27004KT 10SM FEW250 17/12 A2999 RMK AO2 SLP146 T01720122=
201405060952 METAR KATL 060952Z 26003KT 10SM CLR 18/12 A2998 RMK AO2 SLP141 T01780122=
201405060852 METAR KATL 060852Z 25003KT 10SM CLR 18/13 A2996 RMK AO2 SLP135 T01830128 55002=
201405060752 METAR KATL 060752Z 24003KT 10SM CLR 19/12 A2995 RMK AO2 SLP131 T01940122=
201405060652 METAR KATL 060652Z 26004KT 10SM CLR 20/12 A2995 RMK AO2 SLP133 T02000122=
201405060552 METAR KATL 060552Z 25004KT 10SM CLR 21/12 A2997 RMK AO2 SLP137 T02110122 10272 20211 58001=
201405060452 METAR KATL 060452Z 24005KT 10SM FEW250 22/12 A2997 RMK AO2 SLP139 T02220122 403060172=
201405060352 METAR KATL 060352Z 24006KT 10SM FEW250 23/12 A2997 RMK AO2 SLP138 T02280122=
201405060252 METAR KATL 060252Z 23006KT 10SM FEW250 23/12 A2997 RMK AO2 SLP138 T02330117 51009=
201405060152 METAR KATL 060152Z 24004KT 10SM FEW250 24/12 A2996 RMK AO2 SLP137 T02390117=
201405060052 METAR KATL 060052Z 25004KT 10SM FEW250 26/12 A2995 RMK AO2 SLP132 T02610117=
201405052352 METAR KATL 052352Z 27006KT 10SM SCT250 27/12 A2994 RMK AO2 SLP129 T02670117 10306 20267 56004=
201405052252 METAR KATL 052252Z COR 25009KT 10SM FEW250 29/11 A2994 RMK AO2 SLP129 T02890106=
201405052152 METAR KATL 052152Z 28010KT 10SM FEW250 30/11 A2994 RMK AO2 SLP131 T03000111=
201405052052 METAR KATL 052052Z 25011KT 10SM FEW250 31/11 A2995 RMK AO2 SLP134 T03060106 58021=
201405051952 METAR KATL 051952Z 30008KT 10SM FEW250 30/12 A2998 RMK AO2 SLP141 T03000117=
201405051852 METAR KATL 051852Z VRB05G14KT 10SM FEW250 30/12 A3000 RMK AO2 SLP150 T03000122=
201405051752 METAR KATL 051752Z 26008KT 10SM FEW250 29/12 A3002 RMK AO2 SLP155 T02940117 10300 20194 58014=
201405051652 METAR KATL 051652Z VRB05KT 10SM SCT250 28/14 A3004 RMK AO2 SLP162 T02830139=
201405051552 METAR KATL 051552Z 29008KT 10SM FEW250 27/14 A3006 RMK AO2 SLP169 T02720139=
201405051452 METAR KATL 051452Z 31007KT 10SM FEW250 26/14 A3006 RMK AO2 SLP170 T02610139 58001=
201405051352 METAR KATL 051352Z 29009KT 10SM FEW250 23/12 A3007 RMK AO2 SLP172 T02330122=
201405051252 METAR KATL 051252Z 28009KT 10SM CLR 22/12 A3006 RMK AO2 SLP171 T02170117=
201405051152 METAR KATL 051152Z 27006KT 10SM CLR 19/11 A3006 RMK AO2 SLP172 T01940106 10206 20172 53006=
201405051052 METAR KATL 051052Z 27006KT 10SM CLR 19/10 A3005 RMK AO2 SLP167 T01890100=
201405050952 METAR KATL 050952Z 28007KT 10SM CLR 18/10 A3004 RMK AO2 SLP164 T01830100=
201405050852 METAR KATL 050852Z 29004KT 10SM CLR 18/10 A3004 RMK AO2 SLP164 T01780100 53001=
201405050752 METAR KATL 050752Z 29005KT 10SM CLR 18/09 A3004 RMK AO2 SLP162 T01780094=
201405050652 METAR KATL 050652Z 00000KT 10SM CLR 19/09 A3003 RMK AO2 SLP161 T01890094=
201405050552 METAR KATL 050552Z 26005KT 10SM CLR 21/09 A3004 RMK AO2 SLP163 T02060094 10261 20206 58002=
201405050452 METAR KATL 050452Z 25006KT 10SM CLR 21/09 A3005 RMK AO2 SLP165 T02110094 402940133=
201405050352 METAR KATL 050352Z 26005KT 10SM CLR 22/09 A3005 RMK AO2 SLP167 T02170089=
201405050252 METAR KATL 050252Z 26006KT 10SM CLR 23/09 A3005 RMK AO2 SLP165 T02280089 51008=
201405050152 METAR KATL 050152Z 26006KT 10SM CLR 23/09 A3004 RMK AO2 SLP164 T02330094=
201405050052 METAR KATL 050052Z 26005KT 10SM CLR 24/09 A3003 RMK AO2 SLP162 T02440089=
201405042352 METAR KATL 042352Z 27005KT 10SM CLR 26/08 A3002 RMK AO2 SLP158 T02610083 10294 20261 55002=
201405042252 METAR KATL 042252Z 28009KT 10SM CLR 28/07 A3001 RMK AO2 SLP157 T02780072=
201405042152 METAR KATL 042152Z 28008KT 10SM CLR 29/08 A3002 RMK AO2 SLP158 T02890083=
201405042052 METAR KATL 042052Z 30010G16KT 10SM CLR 29/08 A3003 RMK AO2 SLP161 T02890078 56018=
201405041952 METAR KATL 041952Z 31007G15KT 10SM CLR 29/09 A3004 RMK AO2 SLP163 T02890089=
201405041852 METAR KATL 041852Z 30011KT 250V330 10SM CLR 28/08 A3006 RMK AO2 SLP172 T02830083=
201405041752 METAR KATL 041752Z VRB05KT 10SM CLR 28/09 A3008 RMK AO2 SLP179 T02780089 10278 20161 58015=
201405041652 METAR KATL 041652Z 29008KT 10SM CLR 27/09 A3011 RMK AO2 SLP188 T02670089=
201405041552 METAR KATL 041552Z 31009KT 10SM CLR 25/09 A3012 RMK AO2 SLP193 T02500089=
201405041452 METAR KATL 041452Z 28007KT 10SM CLR 23/11 A3013 RMK AO2 SLP197 T02330106 51006=
201405041352 METAR KATL 041352Z 31008KT 10SM FEW250 21/09 A3013 RMK AO2 SLP197 T02060089=
201405041252 METAR KATL 041252Z 30007KT 10SM FEW250 18/09 A3012 RMK AO2 SLP193 T01830094=
201405041152 METAR KATL 041152Z 29005KT 10SM FEW250 16/08 A3011 RMK AO2 SLP190 T01610083 10161 20133 53018=
201405041052 METAR KATL 041052Z 28004KT 10SM CLR 13/08 A3009 RMK AO2 SLP184 T01330078=
201405040952 METAR KATL 040952Z 29005KT 10SM CLR 14/08 A3007 RMK AO2 SLP177 T01390078=
201405040852 METAR KATL 040852Z 29006KT 10SM CLR 14/07 A3006 RMK AO2 SLP172 T01440072 55002=
201405040752 METAR KATL 040752Z 27004KT 10SM CLR 15/07 A3005 RMK AO2 SLP171 T01500072=
201405040652 METAR KATL 040652Z 28005KT 10SM CLR 16/07 A3006 RMK AO2 SLP173 T01560072=
201405040552 METAR KATL 040552Z 28005KT 10SM CLR 16/07 A3006 RMK AO2 SLP174 T01610072 10222 20161 50006=
201405040452 METAR KATL 040452Z 28006KT 10SM CLR 17/07 A3007 RMK AO2 SLP176 T01670072 402440094=
201405040352 METAR KATL 040352Z 28006KT 10SM CLR 17/07 A3005 RMK AO2 SLP171 T01720072=
201405040252 METAR KATL 040252Z 27005KT 10SM CLR 17/07 A3005 RMK AO2 SLP169 T01720072 51015=
201405040152 METAR KATL 040152Z 29005KT 10SM CLR 18/07 A3003 RMK AO2 SLP166 T01830072 $=
201405040052 METAR KATL 040052Z 27004KT 10SM CLR 20/07 A3002 RMK AO2 SLP160 T02000067 $=
201405032352 METAR KATL 032352Z 31007KT 10SM CLR 22/06 A3000 RMK AO2 SLP155 T02220056 10244 20217 53007 $=
201405032252 METAR KATL 032252Z 32008KT 10SM CLR 23/05 A2998 RMK AO2 SLP150 T02330050 $=
201405032152 METAR KATL 032152Z 27009KT 10SM CLR 24/07 A2998 RMK AO2 SLP148 T02390067 $=
201405032052 METAR KATL 032052Z 30009KT 10SM FEW075 24/07 A2998 RMK AO2 SLP147 T02440067 56014 $=
201405031952 METAR KATL 031952Z 29011G16KT 260V340 10SM FEW070 23/05 A2999 RMK AO2 SLP150 T02330050 $=
201405031852 METAR KATL 031852Z 33009G17KT 290V350 10SM FEW070 23/04 A3001 RMK AO2 WSHFT 1811 SLP157 T02330044 $=
201405031831 SPECI KATL 031831Z 31013G18KT 280V340 10SM CLR 23/06 A3001 RMK AO2 WSHFT 1811 $=
201405031752 METAR KATL 031752Z 33013G19KT 10SM FEW060 22/05 A3002 RMK AO2 SLP161 T02220050 10228 20117 58003 $=
201405031652 METAR KATL 031652Z 32013G19KT 10SM FEW060 22/05 A3003 RMK AO2 SLP165 T02170050 $=
201405031552 METAR KATL 031552Z 33015G20KT 10SM FEW060 21/05 A3004 RMK AO2 SLP167 T02060050 $=
201405031452 METAR KATL 031452Z 32011G20KT 10SM CLR 19/04 A3003 RMK AO2 SLP165 T01890044 53009 $=
201405031352 METAR KATL 031352Z 34008KT 10SM CLR 17/05 A3002 RMK AO2 SLP162 T01720050 $=
201405031252 METAR KATL 031252Z 31006KT 10SM CLR 14/06 A3001 RMK AO2 SLP160 T01390056 $=
201405031152 METAR KATL 031152Z 27003KT 10SM CLR 12/06 A3001 RMK AO2 SLP158 T01170061 10144 20094 53010 $=
201405031052 METAR KATL 031052Z 30005KT 10SM FEW070 09/06 A2999 RMK AO2 SLP153 T00940056 $=
201405030952 METAR KATL 030952Z 32007KT 10SM CLR 11/06 A2998 RMK AO2 SLP148 T01060056 $=
201405030852 METAR KATL 030852Z 31006KT 10SM CLR 11/06 A2997 RMK AO2 SLP147 T01110056 53004 $=
201405030752 METAR KATL 030752Z 31006KT 10SM CLR 12/06 A2996 RMK AO2 SLP142 T01220061 $=
201405030652 METAR KATL 030652Z 32005KT 10SM FEW070 SCT220 13/06 A2995 RMK AO2 SLP139 T01330061 $=
201405030552 METAR KATL 030552Z 31008KT 10SM SCT070 SCT220 14/06 A2996 RMK AO2 SLP141 T01440061 10200 20144 51006 $=
201405030452 METAR KATL 030452Z 29006KT 10SM BKN070 BKN250 15/07 A2996 RMK AO2 SLP141 T01500067 402280111 $=
201405030352 METAR KATL 030352Z 31007KT 10SM BKN070 BKN250 16/06 A2995 RMK AO2 SLP137 T01610061 $=
201405030252 METAR KATL 030252Z 30005KT 10SM BKN070 BKN140 BKN250 17/06 A2994 RMK AO2 SLP135 T01670056 51016=
201405030152 METAR KATL 030152Z 30004KT 10SM BKN140 BKN250 18/05 A2993 RMK AO2 SLP132 T01780050=
201405030052 METAR KATL 030052Z 31007KT 10SM FEW070 BKN140 19/04 A2991 RMK AO2 SLP125 T01890044=
201405022352 METAR KATL 022352Z 31007KT 270V350 10SM FEW120 BKN150 19/06 A2990 RMK AO2 SLP120 T01940056 10228 20194 57002=
201405022252 METAR KATL 022252Z 32007KT 10SM FEW120 BKN150 BKN250 21/05 A2989 RMK AO2 SLP120 T02060050=
201405022152 METAR KATL 022152Z 32010KT 10SM FEW060 SCT120 BKN180 BKN250 21/04 A2990 RMK AO2 SLP123 T02060039=
201405022052 METAR KATL 022052Z 34009KT 10SM FEW060 BKN120 BKN250 22/04 A2990 RMK AO2 SLP122 T02220044 56018=
201405021952 METAR KATL 021952Z 32008KT 270V360 10SM FEW060 SCT110 SCT250 22/04 A2991 RMK AO2 SLP125 T02170044=
201405021852 METAR KATL 021852Z 33008G17KT 10SM FEW060 SCT110 SCT250 21/04 A2994 RMK AO2 SLP136 T02110044=
201405021752 METAR KATL 021752Z 28007KT 10SM FEW060 SCT250 21/04 A2996 RMK AO2 SLP141 T02060044 10206 20122 58009=
201405021652 METAR KATL 021652Z 32007KT 10SM FEW060 SCT250 19/05 A2997 RMK AO2 SLP145 T01940050=
201405021552 METAR KATL 021552Z 32007KT 10SM FEW250 18/04 A2998 RMK AO2 SLP150 T01830044=
201405021452 METAR KATL 021452Z 01006KT 10SM FEW120 SCT250 18/04 A2998 RMK AO2 SLP150 T01780039 56005=
201405021352 METAR KATL 021352Z 31005KT 10SM FEW120 SCT150 BKN250 16/06 A2999 RMK AO2 SLP152 VIRGA DSNT NE-SE T01560061=
201405021252 METAR KATL 021252Z 01005KT 10SM FEW100 SCT140 BKN200 BKN250 14/06 A2998 RMK AO2 SLP150 VIRGA DSNT W-NW ACC DSNT NW T01440056=
201405021152 METAR KATL 021152Z 00000KT 10SM FEW110 SCT140 BKN200 BKN250 12/07 A3000 RMK AO2 SLP156 VIRGA DSNT SE-SW T01220067 10128 20111 50005=
201405021052 METAR KATL 021052Z 29005KT 10SM FEW110 BKN140 OVC200 12/06 A3001 RMK AO2 SLP159 VIRGA NE-SE-SW T01170061=
201405020952 METAR KATL 020952Z 27003KT 10SM BKN140 OVC200 12/06 A2998 RMK AO2 SLP151 T01170061=
201405020852 METAR KATL 020852Z 24003KT 10SM SCT150 BKN200 OVC250 12/07 A2998 RMK AO2 SLP151 T01170067 53001=
201405020752 METAR KATL 020752Z 26003KT 10SM OVC200 12/06 A2996 RMK AO2 SLP144 T01170061=
201405020652 METAR KATL 020652Z 27004KT 10SM BKN200 OVC250 12/07 A2996 RMK AO2 SLP142 T01170067=
201405020552 METAR KATL 020552Z 30004KT 10SM BKN200 OVC250 12/07 A2998 RMK AO2 SLP150 T01220067 10178 20122 55000=
201405020452 METAR KATL 020452Z 31005KT 10SM BKN200 BKN250 13/07 A2997 RMK AO2 SLP148 T01280067 402000117=
201405020352 METAR KATL 020352Z 32007KT 10SM BKN200 BKN250 14/07 A2998 RMK AO2 SLP148 T01390067=
201405020252 METAR KATL 020252Z 28004KT 10SM BKN250 14/06 A2998 RMK AO2 SLP150 T01390056 51013=
201405020152 METAR KATL 020152Z 31006KT 10SM FEW200 BKN250 15/06 A2997 RMK AO2 SLP148 T01500056=
201405020052 METAR KATL 020052Z 32006KT 10SM FEW200 BKN250 16/06 A2996 RMK AO2 SLP142 T01610061=
201405012352 METAR KATL 012352Z 27006KT 10SM FEW200 BKN250 17/06 A2994 RMK AO2 SLP136 T01720061 10200 20172 55004=
201405012252 METAR KATL 012252Z 26008KT 10SM FEW200 BKN250 19/06 A2993 RMK AO2 SLP134 T01890061=
201405012152 METAR KATL 012152Z 28009KT 10SM FEW200 BKN250 19/06 A2994 RMK AO2 SLP136 T01940061=
201405012052 METAR KATL 012052Z 28010KT 10SM FEW180 SCT230 BKN250 19/06 A2995 RMK AO2 SLP139 T01890061 58019=
201405011952 METAR KATL 011952Z 32007KT 10SM FEW180 BKN230 18/06 A2997 RMK AO2 SLP146 T01830056=
201405011852 METAR KATL 011852Z 28010G15KT 10SM FEW150 SCT180 BKN250 18/06 A2999 RMK AO2 SLP153 T01780061=
201405011752 METAR KATL 011752Z VRB06KT 10SM FEW150 BKN200 BKN250 18/07 A3001 RMK AO2 SLP157 T01780067 10183 20117 58003=
201405011652 METAR KATL 011652Z 30010KT 10SM FEW035 BKN200 BKN250 17/07 A3002 RMK AO2 SLP162 T01670072=
201405011552 METAR KATL 011552Z 28009G17KT 10SM FEW035 SCT180 BKN250 16/07 A3003 RMK AO2 SLP164 T01560067=
201405011452 METAR KATL 011452Z 28011KT 10SM FEW027 SCT180 SCT250 15/08 A3002 RMK AO2 SLP162 T01500078 50006=
201405011352 METAR KATL 011352Z 29009KT 10SM FEW025 SCT180 SCT250 14/08 A3002 RMK AO2 SLP163 T01440083=
201405011252 METAR KATL 011252Z 29008KT 10SM FEW014 SCT090 BKN200 BKN250 13/09 A3001 RMK AO2 SLP161 ACC DSNT S T01280089=
