##########################################################
# Query made at 04/19/2024 23:36:57 UTC
# Time interval: from 02/01/2014 12:00  to 02/28/2014 12:59  UTC
##########################################################

##########################################################
# KATL, Atlanta, Hartsfield - Jackson Atlanta International Airport (United States)
# WMO index: 72219. WIGOS ID: 0-20000-0-72219
# Latitude 33-38-59N. Longitude 084-25-00W. Altitude 312 m.
##########################################################

201402281252 METAR KATL 281252Z 36006KT 10SM FEW150 SCT250 01/M11 A3010 RMK AO2 SLP201 T00111111=
201402281152 METAR KATL 281152Z 36005KT 10SM FEW250 M01/M11 A3008 RMK AO2 SLP192 T10111106 10006 21022 51027=
201402281052 METAR KATL 281052Z 34004KT 10SM CLR M02/M10 A3005 RMK AO2 SLP182 T10221100=
201402280952 METAR KATL 280952Z 33004KT 10SM CLR M02/M10 A3003 RMK AO2 SLP174 T10171100=
201402280852 METAR KATL 280852Z 31008KT 10SM CLR M02/M09 A3000 RMK AO2 SLP163 T10171094 58001=
201402280752 METAR KATL 280752Z 31005KT 10SM CLR M01/M09 A3000 RMK AO2 SLP165 T10111094=
201402280652 METAR KATL 280652Z 32007KT 10SM CLR M01/M09 A3000 RMK AO2 SLP166 T10061094=
201402280552 METAR KATL 280552Z 31008KT 10SM CLR 01/M09 A3000 RMK AO2 SLP164 T00061094 10056 20006 51006=
201402280452 METAR KATL 280452Z 31005KT 10SM CLR 01/M09 A3000 RMK AO2 SLP165 T00111094 401001039=
201402280352 METAR KATL 280352Z 30005KT 10SM CLR 02/M10 A2999 RMK AO2 SLP163 T00221100=
201402280252 METAR KATL 280252Z 31006KT 10SM CLR 03/M11 A2998 RMK AO2 SLP160 T00331106 53007=
201402280152 METAR KATL 280152Z 31008KT 10SM CLR 04/M11 A2997 RMK AO2 SLP156 T00441111=
201402280052 METAR KATL 280052Z 29006KT 10SM CLR 04/M11 A2996 RMK AO2 SLP154 T00441111=
201402272352 METAR KATL 272352Z 28007KT 10SM FEW200 06/M11 A2996 RMK AO2 SLP153 T00561111 10100 20056 53009=
201402272252 METAR KATL 272252Z 31010KT 10SM FEW200 08/M12 A2993 RMK AO2 SLP141 T00831122=
201402272152 METAR KATL 272152Z 33013KT 10SM FEW200 09/M13 A2992 RMK AO2 SLP139 T00941133=
201402272052 METAR KATL 272052Z 33011G17KT 10SM FEW200 10/M13 A2993 RMK AO2 SLP141 T01001128 56013=
201402271952 METAR KATL 271952Z 30010G17KT 10SM FEW200 09/M13 A2993 RMK AO2 SLP141 T00891133=
201402271852 METAR KATL 271852Z 32010G17KT 10SM FEW200 08/M14 A2994 RMK AO2 SLP145 T00781139=
201402271752 METAR KATL 271752Z 30011G17KT 10SM CLR 06/M14 A2997 RMK AO2 SLP154 T00611139 10061 21039 58006=
201402271652 METAR KATL 271652Z 30011G17KT 10SM CLR 04/M16 A2999 RMK AO2 SLP164 T00391161=
201402271552 METAR KATL 271552Z 30012KT 10SM CLR 02/M14 A2999 RMK AO2 SLP163 T00221144=
201402271452 METAR KATL 271452Z 32015G23KT 10SM CLR 00/M16 A2999 RMK AO2 SLP163 T00001156 51012=
201402271352 METAR KATL 271352Z 33014KT 10SM FEW200 M02/M15 A2998 RMK AO2 SLP160 T10171150=
201402271252 METAR KATL 271252Z 32009G17KT 10SM FEW200 M03/M14 A2996 RMK AO2 SLP156 T10331144=
201402271152 METAR KATL 271152Z 33011KT 10SM FEW200 M04/M14 A2995 RMK AO2 SLP151 70004 T10391144 10000 21039 53012=
201402271052 METAR KATL 271052Z 32011KT 10SM CLR M03/M14 A2993 RMK AO2 SLP144 T10331139=
201402270952 METAR KATL 270952Z 31010KT 10SM CLR M03/M14 A2992 RMK AO2 SLP140 T10281139=
201402270852 METAR KATL 270852Z 31011KT 10SM FEW250 M02/M13 A2992 RMK AO2 SLP137 T10221133 53003=
201402270752 METAR KATL 270752Z 32009KT 10SM FEW250 M02/M12 A2991 RMK AO2 SLP136 T10221122=
201402270652 METAR KATL 270652Z 32012KT 10SM FEW250 M01/M12 A2991 RMK AO2 SLP138 T10111117=
201402270552 METAR KATL 270552Z 32014KT 10SM FEW250 00/M11 A2991 RMK AO2 SLP135 T00001111 10050 21006 55001=
201402270452 METAR KATL 270452Z 32014G19KT 10SM FEW200 SCT250 01/M11 A2990 RMK AO2 SLP132 T00061111 400940006=
201402270352 METAR KATL 270352Z 33010KT 10SM FEW200 BKN250 02/M08 A2991 RMK AO2 SLP135 T00171078=
201402270252 METAR KATL 270252Z 33012KT 10SM SCT200 BKN250 03/M08 A2991 RMK AO2 SLP135 T00281078 51020=
201402270152 METAR KATL 270152Z 33008KT 10SM SCT200 BKN250 03/M07 A2989 RMK AO2 SLP129 T00331067=
201402270052 METAR KATL 270052Z 34011KT 10SM SCT200 BKN250 04/M06 A2988 RMK AO2 SLP124 T00441061=
201402262352 METAR KATL 262352Z 31009KT 10SM SCT200 BKN250 05/M05 A2985 RMK AO2 SLP115 T00501050 10078 20039 53006=
201402262252 METAR KATL 262252Z 31011KT 10SM FEW070 SCT200 BKN250 06/M05 A2984 RMK AO2 SLP109 T00561050=
201402262152 METAR KATL 262152Z 32015G22KT 10SM FEW070 SCT180 BKN230 07/M04 A2983 RMK AO2 SLP107 T00671044=
201402262052 METAR KATL 262052Z 31013KT 10SM FEW070 SCT100 BKN240 07/M04 A2983 RMK AO2 SLP106 T00721044 56020=
201402261952 METAR KATL 261952Z 32009KT 10SM FEW070 SCT100 BKN250 06/M04 A2985 RMK AO2 SLP113 T00561044=
201402261852 METAR KATL 261852Z 32014KT 10SM FEW100 BKN220 04/M04 A2986 RMK AO2 SLP116 T00441039=
201402261752 METAR KATL 261752Z 32015G21KT 10SM FEW060 SCT100 BKN250 04/M04 A2989 RMK AO2 SLP127 60004 T00441039 10044 20022 58017=
201402261652 METAR KATL 261652Z 32012KT 10SM FEW070 SCT090 BKN150 BKN200 04/M03 A2992 RMK AO2 SLP134 T00391028=
201402261552 METAR KATL 261552Z 33008KT 10SM BKN050 BKN070 OVC100 03/M03 A2993 RMK AO2 SLP140 T00331028=
201402261452 METAR KATL 261452Z 33006KT 10SM OVC050 03/M02 A2995 RMK AO2 SLP144 60004 T00331022 50008=
201402261352 METAR KATL 261352Z 33009KT 10SM OVC044 03/M01 A2995 RMK AO2 RAE44 SLP146 P0000 T00281011=
201402261252 METAR KATL 261252Z 31010KT 9SM -RA FEW044 BKN070 OVC085 02/M01 A2994 RMK AO2 SLP143 P0004 T00221006=
201402261152 METAR KATL 261152Z 33011KT 10SM -RA SCT045 OVC080 03/00 A2992 RMK AO2 SLP135 P0005 60013 70016 T00280000 10089 20028 51014=
201402261052 METAR KATL 261052Z 32008KT 8SM -RA FEW032 OVC065 03/01 A2991 RMK AO2 SLP130 P0007 T00330011=
201402260952 METAR KATL 260952Z 32004KT 10SM -RA SCT034 BKN055 OVC075 05/M01 A2990 RMK AO2 RAE00B24 SLP126 P0000 T00501006=
201402260852 METAR KATL 260852Z 34007KT 10SM -RA FEW033 BKN075 OVC095 06/M01 A2988 RMK AO2 RAB21 SLP118 P0001 60001 T00561006 58015=
201402260752 METAR KATL 260752Z 32006KT 10SM FEW080 BKN150 BKN250 07/M03 A2990 RMK AO2 SLP125 T00721028=
201402260652 METAR KATL 260652Z 32008KT 10SM FEW060 SCT250 08/M01 A2992 RMK AO2 SLP133 T00781006=
201402260552 METAR KATL 260552Z 32006KT 10SM FEW060 BKN250 09/06 A2992 RMK AO2 SLP133 T00890056 10117 20089 58020=
201402260452 METAR KATL 260452Z 27005KT 10SM FEW065 SCT250 10/06 A2994 RMK AO2 SLP138 T01000061 401610050=
201402260352 METAR KATL 260352Z 27006KT 10SM FEW045 BKN065 BKN250 11/07 A2997 RMK AO2 SLP151 T01060067=
201402260252 METAR KATL 260252Z 27005KT 10SM SCT035 BKN048 OVC070 11/07 A2998 RMK AO2 SLP155 T01110067 53005=
201402260152 METAR KATL 260152Z 28007KT 10SM BKN030 OVC080 12/06 A2998 RMK AO2 SLP154 T01170061=
201402260052 METAR KATL 260052Z 27005KT 10SM BKN030 OVC080 12/07 A2997 RMK AO2 SLP151 T01170067=
201402252352 METAR KATL 252352Z 23005KT 10SM SCT065 BKN090 12/07 A2997 RMK AO2 SLP150 60000 T01170072 10161 20117 55006=
201402252252 METAR KATL 252252Z 22007KT 10SM BKN065 BKN090 13/06 A2996 RMK AO2 SLP148 ACSL SW-NW T01280061=
201402252152 METAR KATL 252152Z 26010KT 10SM FEW050 SCT075 BKN095 15/06 A2997 RMK AO2 SLP151 ACSL DSNT NE SHRA DSNT SE-SW T01500056=
201402252052 METAR KATL 252052Z 28008KT 10SM FEW050 BKN075 BKN095 16/06 A2999 RMK AO2 RAE00 SLP155 ACSL DSNT NE-SE P0000 60000 T01610061 58013=
201402251952 METAR KATL 251952Z 25007KT 10SM -RA FEW035 SCT085 BKN100 15/06 A3000 RMK AO2 RAB51 SLP158 P0000 T01500056=
201402251852 METAR KATL 251852Z VRB05KT 10SM FEW030 SCT040 BKN100 14/05 A3002 RMK AO2 SLP167 T01440050=
201402251848 SPECI KATL 251848Z 33007KT 10SM FEW030 SCT040 BKN100 14/05 A3003 RMK AO2 PRESFR=
201402251752 METAR KATL 251752Z 32010KT 10SM BKN028 BKN040 BKN100 13/04 A3007 RMK AO2 SLP185 60003 T01280044 10128 20056 56012=
201402251652 METAR KATL 251652Z 31013KT 10SM BKN037 BKN070 BKN200 11/06 A3010 RMK AO2 RAB13E26 SLP195 P0000 T01110056=
201402251552 METAR KATL 251552Z 31013KT 10SM FEW045 SCT065 BKN095 10/06 A3011 RMK AO2 SLP198 T01000056=
201402251452 METAR KATL 251452Z 33007KT 10SM FEW040 BKN065 BKN100 07/04 A3011 RMK AO2 RAE28 SLP200 P0002 60003 T00720039 50024=
201402251352 METAR KATL 251352Z 34011KT 9SM -RA BKN041 OVC060 06/01 A3012 RMK AO2 RAB13 SLP204 P0001 T00610011=
201402251252 METAR KATL 251252Z 33006KT 10SM BKN040 OVC100 07/M03 A3008 RMK AO2 SLP189 SHRA NW-NE T00671033=
201402251152 METAR KATL 251152Z 00000KT 10SM FEW060 BKN110 BKN150 06/M03 A3004 RMK AO2 SLP174 T00611028 10078 20050 55002=
201402251052 METAR KATL 251052Z 00000KT 10SM FEW060 SCT110 SCT150 SCT220 06/M03 A3003 RMK AO2 SLP170 T00561033=
201402250952 METAR KATL 250952Z 32006KT 10SM SCT060 SCT150 BKN220 05/M03 A3005 RMK AO2 SLP177 T00501033=
201402250852 METAR KATL 250852Z 31006KT 10SM FEW070 SCT150 BKN220 06/M04 A3005 RMK AO2 SLP176 T00611044 55006=
201402250752 METAR KATL 250752Z 33006KT 10SM FEW070 BKN220 07/M06 A3005 RMK AO2 SLP174 T00721056=
201402250652 METAR KATL 250652Z 00000KT 10SM FEW070 SCT200 BKN250 08/M05 A3005 RMK AO2 SLP176 T00781050=
201402250552 METAR KATL 250552Z 32005KT 10SM SCT200 BKN250 07/M03 A3007 RMK AO2 SLP181 T00721033 10122 20072 58015=
201402250452 METAR KATL 250452Z 31006KT 10SM BKN200 BKN250 08/M04 A3009 RMK AO2 SLP190 T00831039 401780067=
201402250352 METAR KATL 250352Z 32005KT 10SM SCT200 BKN250 09/M03 A3011 RMK AO2 SLP198 T00941033=
201402250252 METAR KATL 250252Z 29004KT 10SM SCT150 BKN180 OVC250 11/M03 A3011 RMK AO2 SLP198 T01061033 50001=
201402250152 METAR KATL 250152Z 29004KT 10SM FEW150 BKN180 OVC250 11/M04 A3012 RMK AO2 SLP200 T01111039=
201402250052 METAR KATL 250052Z 31006KT 10SM FEW150 SCT200 BKN250 12/M04 A3012 RMK AO2 SLP200 T01171039=
201402242352 METAR KATL 242352Z 31008KT 10SM FEW150 BKN200 BKN250 12/M04 A3011 RMK AO2 SLP198 T01221039 10178 20122 53009=
201402242252 METAR KATL 242252Z 33011KT 10SM SCT200 BKN250 14/M03 A3009 RMK AO2 SLP191 T01391033=
201402242152 METAR KATL 242152Z 32014KT 10SM FEW180 SCT200 BKN250 16/M04 A3009 RMK AO2 SLP188 T01561039=
201402242052 METAR KATL 242052Z 34013G17KT 10SM BKN250 17/M02 A3008 RMK AO2 SLP185 T01721017 55006=
201402241952 METAR KATL 241952Z 29012KT 10SM FEW250 17/M01 A3007 RMK AO2 SLP182 T01721011=
201402241852 METAR KATL 241852Z 32015G18KT 10SM FEW250 17/M02 A3008 RMK AO2 SLP183 T01671017=
201402241752 METAR KATL 241752Z 33013G21KT 10SM FEW250 17/M02 A3010 RMK AO2 SLP191 T01671017 10167 20067 58012=
201402241652 METAR KATL 241652Z 34006KT 10SM FEW250 14/02 A3012 RMK AO2 SLP199 T01440017=
201402241552 METAR KATL 241552Z 35006KT 10SM FEW250 13/02 A3012 RMK AO2 SLP199 T01280022=
201402241452 METAR KATL 241452Z 34008KT 10SM FEW250 11/02 A3013 RMK AO2 SLP204 T01060022 51018=
201402241352 METAR KATL 241352Z 32009KT 10SM FEW250 09/03 A3012 RMK AO2 SLP202 T00890028=
201402241252 METAR KATL 241252Z 32010KT 10SM FEW250 07/02 A3010 RMK AO2 SLP194 T00720017=
201402241152 METAR KATL 241152Z 32011KT 10SM FEW250 07/02 A3008 RMK AO2 SLP186 T00720017 10122 20072 51025=
201402241052 METAR KATL 241052Z 32013KT 10SM FEW250 08/02 A3006 RMK AO2 SLP178 T00780022=
201402240952 METAR KATL 240952Z 32011KT 10SM CLR 08/03 A3003 RMK AO2 SLP167 T00830028=
201402240852 METAR KATL 240852Z 31008KT 10SM CLR 09/04 A3001 RMK AO2 SLP158 T00890039 53007=
201402240752 METAR KATL 240752Z 31011KT 10SM CLR 11/09 A2999 RMK AO2 SLP154 T01060089=
201402240652 METAR KATL 240652Z 26006KT 10SM CLR 12/11 A2999 RMK AO2 SLP153 T01170106=
201402240552 METAR KATL 240552Z 25006KT 10SM FEW250 12/10 A2998 RMK AO2 SLP151 T01220100 10167 20122 50002=
201402240452 METAR KATL 240452Z 26004KT 10SM FEW200 SCT250 12/09 A2999 RMK AO2 SLP152 T01220094 402060067=
201402240352 METAR KATL 240352Z 24005KT 10SM FEW150 BKN200 BKN250 13/09 A2999 RMK AO2 SLP153 T01330094=
201402240252 METAR KATL 240252Z 23004KT 10SM SCT150 BKN200 BKN250 13/08 A2998 RMK AO2 SLP151 T01330078 53003=
201402240152 METAR KATL 240152Z 00000KT 10SM FEW150 SCT200 SCT250 14/08 A2997 RMK AO2 SLP149 T01390078=
201402240052 METAR KATL 240052Z 19004KT 10SM FEW045 SCT200 BKN250 15/08 A2996 RMK AO2 SLP146 T01500078=
201402232352 METAR KATL 232352Z 23005KT 10SM FEW045 BKN200 BKN250 17/08 A2997 RMK AO2 SLP148 T01670078 10206 20167 53001=
201402232252 METAR KATL 232252Z 22008KT 10SM FEW050 BKN200 BKN250 18/06 A2996 RMK AO2 SLP144 T01830061=
201402232152 METAR KATL 232152Z 22009G17KT 10SM FEW070 SCT200 BKN250 19/04 A2995 RMK AO2 SLP141 T01940039=
201402232052 METAR KATL 232052Z 20006KT 10SM FEW100 SCT200 BKN250 20/02 A2997 RMK AO2 SLP146 T02000022 56024=
201402231952 METAR KATL 231952Z 21008KT 10SM FEW090 SCT200 BKN250 19/02 A2999 RMK AO2 SLP151 T01940017=
201402231852 METAR KATL 231852Z 20007KT 10SM FEW070 SCT100 BKN250 19/02 A3001 RMK AO2 SLP158 T01940017=
201402231752 METAR KATL 231752Z COR 21005KT 10SM FEW070 SCT100 BKN250 18/00 A3004 RMK AO2 SLP170 ACC E T01830000 10189 20067 58017=
201402231652 METAR KATL 231652Z 19005KT 10SM FEW060 SCT095 BKN250 17/00 A3007 RMK AO2 SLP181 T01670000=
201402231552 METAR KATL 231552Z 11003KT 10SM FEW095 SCT180 BKN250 15/M01 A3008 RMK AO2 SLP185 T01501006=
201402231452 METAR KATL 231452Z 00000KT 10SM FEW100 SCT180 BKN250 12/01 A3009 RMK AO2 SLP190 T01220006 53009=
201402231352 METAR KATL 231352Z 00000KT 10SM FEW100 SCT150 BKN200 BKN250 08/01 A3009 RMK AO2 SLP189 T00830011=
201402231252 METAR KATL 231252Z 07004KT 10SM BKN150 BKN250 07/01 A3006 RMK AO2 SLP181 VIRGA SE T00720006=
201402231152 METAR KATL 231152Z 04003KT 10SM FEW110 SCT150 SCT250 08/M01 A3007 RMK AO2 SLP181 T00831011 10117 20067 53004=
201402231052 METAR KATL 231052Z 08003KT 10SM SCT110 BKN150 07/00 A3006 RMK AO2 SLP179 T00720000=
201402230952 METAR KATL 230952Z 00000KT 10SM SCT100 BKN150 08/M01 A3006 RMK AO2 SLP178 T00781006=
201402230852 METAR KATL 230852Z 00000KT 10SM FEW095 SCT150 08/M01 A3005 RMK AO2 SLP176 T00781011 58008=
201402230752 METAR KATL 230752Z 00000KT 10SM FEW050 SCT150 11/M02 A3007 RMK AO2 SLP181 T01061022=
201402230652 METAR KATL 230652Z 00000KT 10SM FEW050 SCT150 SCT200 10/M03 A3007 RMK AO2 SLP181 T01001028=
201402230552 METAR KATL 230552Z 00000KT 10SM FEW050 SCT150 SCT250 11/M02 A3008 RMK AO2 SLP184 T01061022 10156 20106 56004=
201402230452 METAR KATL 230452Z 15005KT 10SM FEW050 SCT150 SCT250 12/M03 A3008 RMK AO2 SLP184 T01171028 401830039=
201402230352 METAR KATL 230352Z 16005KT 10SM FEW050 SCT150 SCT200 SCT250 12/M02 A3009 RMK AO2 SLP188 T01171022=
201402230252 METAR KATL 230252Z 14003KT 10SM FEW150 SCT200 SCT250 12/M02 A3009 RMK AO2 SLP191 T01221017 53006=
201402230152 METAR KATL 230152Z 13004KT 10SM SCT150 BKN200 BKN250 14/M03 A3008 RMK AO2 SLP186 T01391028=
201402230052 METAR KATL 230052Z 14004KT 10SM SCT150 BKN200 BKN250 14/M02 A3008 RMK AO2 SLP187 T01441022=
201402222352 METAR KATL 222352Z 13003KT 10SM SCT150 BKN200 BKN250 16/M03 A3007 RMK AO2 SLP185 T01561033 10183 20156 55002=
201402222252 METAR KATL 222252Z 11004KT 10SM FEW120 BKN150 BKN200 17/M05 A3007 RMK AO2 SLP183 T01671050=
201402222152 METAR KATL 222152Z 11008KT 10SM SCT150 BKN250 18/M07 A3007 RMK AO2 SLP184 T01781067=
201402222052 METAR KATL 222052Z 10007KT 10SM SCT150 BKN250 17/M05 A3008 RMK AO2 SLP186 T01721050 56022=
201402221952 METAR KATL 221952Z VRB05KT 10SM FEW180 BKN250 17/M05 A3009 RMK AO2 SLP191 T01671050=
201402221852 METAR KATL 221852Z 11005KT 10SM BKN250 16/M06 A3011 RMK AO2 SLP197 T01611061=
201402221752 METAR KATL 221752Z 10006KT 10SM BKN250 16/M06 A3014 RMK AO2 SLP208 CLR NW-N T01561061 10156 20039 58013=
201402221652 METAR KATL 221652Z 05009KT 10SM BKN250 14/M06 A3017 RMK AO2 SLP218 T01441061=
201402221552 METAR KATL 221552Z 36007KT 10SM BKN250 13/M04 A3019 RMK AO2 SLP224 T01281044=
201402221452 METAR KATL 221452Z 34008KT 10SM FEW150 BKN200 BKN250 11/M04 A3018 RMK AO2 SLP223 VIRGA N-E T01111039 51018=
201402221352 METAR KATL 221352Z 32006KT 10SM SCT150 BKN200 BKN250 07/M02 A3018 RMK AO2 SLP222 VIRGA ALQDS T00721017=
201402221252 METAR KATL 221252Z 32004KT 10SM SCT150 BKN200 06/M02 A3016 RMK AO2 SLP215 VIRGA W-N T00561022=
201402221152 METAR KATL 221152Z 31005KT 10SM SCT180 BKN250 04/M02 A3013 RMK AO2 SLP207 T00391022 10067 20039 51011=
201402221052 METAR KATL 221052Z 30004KT 10SM BKN200 BKN250 04/M04 A3012 RMK AO2 SLP201 T00441039=
201402220952 METAR KATL 220952Z 29004KT 10SM BKN200 BKN250 06/M05 A3011 RMK AO2 SLP197 T00561050=
201402220852 METAR KATL 220852Z 30004KT 10SM BKN200 BKN250 06/M04 A3010 RMK AO2 SLP192 T00561044 53002=
201402220752 METAR KATL 220752Z 00000KT 10SM SCT180 BKN220 04/M04 A3009 RMK AO2 SLP193 T00441039=
201402220652 METAR KATL 220652Z 00000KT 10SM FEW200 BKN250 06/M04 A3009 RMK AO2 SLP190 T00561044=
201402220552 METAR KATL 220552Z 30003KT 10SM FEW200 BKN250 07/M05 A3009 RMK AO2 SLP191 T00671050 10122 20061 51005=
201402220452 METAR KATL 220452Z 31006KT 10SM SCT250 06/M04 A3008 RMK AO2 SLP189 T00611044 401890061=
201402220352 METAR KATL 220352Z 32006KT 10SM SCT250 07/M04 A3008 RMK AO2 SLP189 T00721044=
201402220252 METAR KATL 220252Z 28003KT 10SM SCT250 08/M05 A3007 RMK AO2 SLP186 T00831050 53008=
201402220152 METAR KATL 220152Z 32006KT 10SM SCT250 09/M05 A3006 RMK AO2 SLP181 T00941050=
201402220052 METAR KATL 220052Z 32008KT 10SM FEW250 11/M05 A3006 RMK AO2 SLP180 T01061050=
201402212352 METAR KATL 212352Z 33007KT 10SM FEW250 12/M06 A3005 RMK AO2 SLP176 T01171056 10161 20117 50007=
201402212252 METAR KATL 212252Z 31008KT 10SM FEW250 14/M05 A3005 RMK AO2 SLP173 T01391050=
201402212152 METAR KATL 212152Z 31011KT 10SM FEW250 15/M05 A3004 RMK AO2 SLP167 T01501050=
201402212052 METAR KATL 212052Z 31010KT 10SM FEW250 16/M02 A3003 RMK AO2 SLP164 T01561022 53000=
201402211952 METAR KATL 211952Z 30011KT 10SM FEW250 15/M01 A3002 RMK AO2 SLP161 T01501006=
201402211852 METAR KATL 211852Z 31011G20KT 10SM FEW250 14/M02 A3001 RMK AO2 SLP160 T01391017=
201402211752 METAR KATL 211752Z 30011KT 10SM FEW200 SCT250 13/M01 A3002 RMK AO2 SLP165 60000 T01281006 10133 20094 50002=
201402211652 METAR KATL 211652Z 33014G23KT 10SM FEW200 BKN250 12/M03 A3003 RMK AO2 SLP166 T01221033=
201402211552 METAR KATL 211552Z 34012G21KT 10SM FEW050 SCT200 SCT250 11/M01 A3002 RMK AO2 SLP165 T01061006=
201402211452 METAR KATL 211452Z 33013G25KT 10SM BKN050 BKN200 09/01 A3002 RMK AO2 PK WND 33027/1442 SLP163 60000 T00940006 51029=
201402211352 METAR KATL 211352Z 32015G20KT 10SM FEW018 BKN044 BKN200 09/06 A3000 RMK AO2 SLP158 T00940061=
201402211252 METAR KATL 211252Z 31017G22KT 10SM FEW016 OVC036 09/07 A2997 RMK AO2 PK WND 32026/1155 RAE04 SLP145 P0000 T00940072=
201402211152 METAR KATL 211152Z 31016G25KT 10SM -RA SCT010 BKN036 OVC100 11/08 A2993 RMK AO2 PK WND 32034/1128 WSHFT 1116 TSE32 SLP133 TS MOVD NE P0009 60065 70065 T01060078 10183 20106 53031=
201402211150 SPECI KATL 211150Z 31015G25KT 10SM -RA SCT010 BKN036 OVC100 11/08 A2993 RMK AO2 PK WND 32034/1128 WSHFT 1116 TSE32 TS MOVD NE P0009=
201402211132 SPECI KATL 211132Z 31019G34KT 3SM RA BR BKN008 BKN020 OVC085 12/11 A2994 RMK AO2 PK WND 32034/1128 WSHFT 1116 SFC VIS 6 TSE32 PRESRR TS MOVD NE P0008=
201402211052 METAR KATL 211052Z 26014G20KT 3SM -TSRA FEW012 BKN040CB OVC085 16/14 A2987 RMK AO2 PK WND 28032/1017 SFC VIS 8 SLP108 OCNL LTGIC NE-SE-SW TS NE-SE-SW MOV NE P0026 T01610139 $=
201402211033 SPECI KATL 211033Z 25015G31KT 3SM TSRA BR FEW012 BKN037CB OVC080 17/14 A2987 RMK AO2 PK WND 28032/1017 SFC VIS 4 OCNL LTGIC OHD-ALQDS TS OHD-ALQDS MOV NE P0022 $=
201402211018 SPECI KATL 211018Z 26020G32KT 2SM +TSRA BR FEW014 BKN035CB OVC085 17/16 A2986 RMK AO2 PK WND 28032/1017 TWR VIS 3 OCNL LTGICCA OHD-ALQDS TS OHD-ALQDS MOV NE P0008 $=
201402210952 METAR KATL 210952Z 23017G29KT 3SM -TSRA SCT012 BKN030CB OVC065 18/16 A2985 RMK AO2 PK WND 23035/0938 SFC VIS 7 SLP101 OCNL LTGICCA OHD-ALQDS TS OHD-ALQDS MOV NE P0026 T01780156 $=
201402210930 SPECI KATL 210930Z 22013G19KT 3SM -TSRA BR BKN010 BKN025CB OVC050 18/17 A2983 RMK AO2 OCNL LTGICCA OHD-ALQDS TS OHD-ALQDS MOV NE P0016 $=
201402210926 SPECI KATL 210926Z 20010KT 2SM +TSRA BR BKN010 BKN025CB OVC045 18/17 A2982 RMK AO2 TWR VIS 3 OCNL LTGICCA OHD-ALQDS TS OHD-ALQDS MOV NE P0014 $=
201402210852 METAR KATL 210852Z 20012KT 3SM -TSRA BR BKN010 OVC020CB 18/17 A2984 RMK AO2 TSB15RAB11 SLP095 OCNL LTGICCA OHD-ALQDS TS OHD-ALQDS MOV NE P0004 60004 T01780167 58023=
201402210816 SPECI KATL 210816Z 18011G16KT 7SM -TSRA OVC012CB 18/16 A2983 RMK AO2 TSB15RAB11 OCNL LTGICCA VC SE-SW TS VC SE-SW MOV NE P0000=
201402210752 METAR KATL 210752Z 18011G15KT 10SM OVC014 18/16 A2986 RMK AO2 PRESFR SLP104 CIG 012V016 T01830156=
201402210745 SPECI KATL 210745Z 18008KT 10SM OVC014 18/16 A2987 RMK AO2 PRESFR CIG 012V016=
201402210652 METAR KATL 210652Z 19009G16KT 10SM BKN018 BKN025 OVC150 18/15 A2989 RMK AO2 SLP116 CIG 015V021 T01830150=
201402210613 SPECI KATL 210613Z 19013G18KT 10SM OVC018 18/15 A2991 RMK AO2=
201402210552 METAR KATL 210552Z 18011G17KT 10SM SCT018 OVC200 18/14 A2990 RMK AO2 SLP120 SCT018 V BKN T01830144 10206 20178 55015=
201402210452 METAR KATL 210452Z 18015G22KT 10SM FEW035 BKN250 19/14 A2989 RMK AO2 SLP117 T01890139 402440139=
201402210352 METAR KATL 210352Z 18013G18KT 10SM BKN050 BKN070 BKN250 19/13 A2993 RMK AO2 SLP128 T01940133=
201402210252 METAR KATL 210252Z 18010KT 10SM FEW070 SCT085 BKN250 19/13 A2995 RMK AO2 SLP137 T01940128 58015=
201402210152 METAR KATL 210152Z 15006KT 10SM FEW060 BKN250 18/12 A2997 RMK AO2 SLP147 T01780122=
201402210052 METAR KATL 210052Z 16006KT 10SM SCT060 SCT250 19/12 A3000 RMK AO2 SLP154 T01940122=
201402202352 METAR KATL 202352Z 18008KT 10SM FEW080 SCT250 21/12 A3000 RMK AO2 SLP153 T02060117 10244 20200 51002=
201402202252 METAR KATL 202252Z 19017G23KT 10SM FEW050 SCT085 SCT250 22/11 A2999 RMK AO2 SLP152 T02170111=
201402202152 METAR KATL 202152Z 20014G24KT 10SM FEW050 BKN090 BKN250 23/11 A2999 RMK AO2 SLP151 T02280111=
201402202052 METAR KATL 202052Z 20011G18KT 10SM FEW040 SCT085 SCT250 24/12 A2999 RMK AO2 SLP148 ACC E-SE-S-SW T02390117 56026=
201402201952 METAR KATL 201952Z 19012G20KT 10SM FEW035 BKN045 BKN080 23/13 A3000 RMK AO2 SLP155 T02280133=
201402201852 METAR KATL 201852Z 17010G17KT 10SM FEW030 SCT050 BKN070 22/13 A3003 RMK AO2 SLP164 T02170133=
201402201752 METAR KATL 201752Z 17009KT 10SM FEW025 BKN065 BKN250 20/14 A3007 RMK AO2 SLP177 T02000139 10206 20150 58013=
201402201652 METAR KATL 201652Z COR 17009KT 10SM FEW020 BKN050 BKN070 OVC250 19/14 A3010 RMK AO2 SLP188 T01890139=
201402201633 SPECI KATL 201633Z VRB05KT 10SM BKN016 BKN060 BKN250 18/14 A3011 RMK AO2=
201402201552 METAR KATL 201552Z 18010KT 10SM BKN012 BKN060 BKN250 18/14 A3011 RMK AO2 SLP192 T01780139=
201402201452 METAR KATL 201452Z 19007KT 8SM OVC010 16/14 A3011 RMK AO2 SLP192 T01610139 53013=
201402201433 SPECI KATL 201433Z 18010KT 8SM OVC010 16/14 A3010 RMK AO2=
201402201352 METAR KATL 201352Z 20008KT 3SM OVC008 16/14 A3009 RMK AO2 SFC VIS 8 SLP187 CIG 006V010 BINOVC T01560139=
201402201318 SPECI KATL 201318Z 19008KT 3SM BR OVC008 16/14 A3008 RMK AO2 SFC VIS 6 CIG 006V009=
201402201252 METAR KATL 201252Z 18006KT 3SM BR FEW004 OVC012 15/14 A3007 RMK AO2 SFC VIS 6 SLP180 CIG 010V014 T01500144=
201402201223 SPECI KATL 201223Z 18005KT 3SM BR SCT004 OVC010 15/14 A3007 RMK AO2 SFC VIS 6=
201402201152 METAR KATL 201152Z 18005KT 1SM BR OVC004 15/14 A3007 RMK AO2 SFC VIS 4 SLP179 CIG 003V005 TWRINC T01500139 10156 20139 53005=
201402201059 SPECI KATL 201059Z 19005KT 1 1/2SM BR OVC004 15/14 A3006 RMK AO2 SFC VIS 6 CIG 003V005 TWRINC=
201402201052 METAR KATL 201052Z 19006KT 3SM OVC005 15/14 A3006 RMK AO2 SFC VIS 8 SLP173 CIG 004V006 T01500139=
201402201016 SPECI KATL 201016Z 20005KT 10SM BKN008 BKN034 OVC150 14/13 A3006 RMK AO2 CIG 006V010=
201402201011 SPECI KATL 201011Z 19003KT 10SM BKN010 BKN034 BKN150 OVC200 14/13 A3006 RMK AO2=
201402200952 METAR KATL 200952Z 15004KT 10SM FEW014 SCT036 BKN150 OVC200 14/13 A3005 RMK AO2 SLP174 T01390128=
201402200852 METAR KATL 200852Z 15004KT 10SM FEW036 SCT150 OVC200 14/13 A3005 RMK AO2 SLP173 T01440128 53001=
201402200752 METAR KATL 200752Z 16005KT 10SM FEW038 BKN150 BKN200 OVC250 15/13 A3005 RMK AO2 SLP170 T01500128=
201402200652 METAR KATL 200652Z 17006KT 10SM FEW018 BKN040 BKN150 OVC250 16/13 A3005 RMK AO2 SLP173 T01560128=
201402200552 METAR KATL 200552Z 14004KT 10SM FEW018 SCT042 BKN150 BKN250 15/13 A3005 RMK AO2 SLP172 T01500128 10183 20150 56007=
201402200452 METAR KATL 200452Z 00000KT 10SM SCT045 BKN150 BKN250 16/13 A3005 RMK AO2 SLP173 T01560128 401940150=
201402200352 METAR KATL 200352Z 13003KT 10SM SCT042 BKN055 BKN250 16/13 A3007 RMK AO2 SLP179 T01560128=
201402200252 METAR KATL 200252Z 13004KT 10SM FEW045 BKN250 16/13 A3007 RMK AO2 SLP180 T01610128 50005=
201402200152 METAR KATL 200152Z 00000KT 10SM SCT048 BKN250 16/13 A3008 RMK AO2 SLP181 T01610128=
201402200052 METAR KATL 200052Z 00000KT 10SM FEW050 SCT200 BKN250 17/13 A3006 RMK AO2 SLP177 T01720128=
201402192352 METAR KATL 192352Z 00000KT 10SM SCT048 BKN200 BKN250 18/13 A3006 RMK AO2 SLP174 T01830128 10194 20183 53004=
201402192252 METAR KATL 192252Z 26004KT 10SM BKN042 OVC200 19/13 A3005 RMK AO2 SLP172 T01890128=
201402192152 METAR KATL 192152Z 22004KT 10SM FEW025 OVC043 19/13 A3005 RMK AO2 SLP170 T01940133=
201402192052 METAR KATL 192052Z 22005KT 10SM FEW028 OVC040 19/13 A3004 RMK AO2 SLP169 T01940133 56009=
201402192022 SPECI KATL 192022Z 25006KT 10SM SCT026 OVC034 19/13 A3005 RMK AO2=
201402191952 SPECI KATL 191952Z 24006KT 10SM BKN025 OVC032 19/13 A3004 RMK AO2 SLP170 T01890128=
201402191952 METAR KATL 191952Z 24006KT 10SM BKN025 OVC032 19/13 A3004 RMK AO2 SLP170 T01890128=
201402191852 METAR KATL 191852Z 26009KT 10SM BKN025 OVC032 19/13 A3005 RMK AO2 SLP172 T01890128=
201402191752 METAR KATL 191752Z 24009KT 10SM BKN025 BKN030 OVC250 19/13 A3007 RMK AO2 SLP179 T01890128 10189 20156 58002=
201402191652 METAR KATL 191652Z 25009KT 10SM OVC025 18/13 A3009 RMK AO2 SLP185 T01830128=
201402191552 METAR KATL 191552Z 26009KT 10SM BKN022 BKN250 18/13 A3009 RMK AO2 SLP187 T01780128=
201402191452 METAR KATL 191452Z 26011G19KT 10SM BKN020 BKN250 17/13 A3008 RMK AO2 SLP182 T01720128 51015=
201402191430 SPECI KATL 191430Z 26010G16KT 10SM BKN020 BKN250 17/13 A3007 RMK AO2=
201402191352 METAR KATL 191352Z 24012G22KT 10SM FEW015 SCT050 SCT250 17/13 A3007 RMK AO2 SLP178 T01670128=
201402191252 METAR KATL 191252Z 23010G21KT 10SM FEW015 16/13 A3005 RMK AO2 SLP174 T01560128=
201402191152 METAR KATL 191152Z 22012G19KT 10SM FEW017 16/13 A3003 RMK AO2 SLP166 70008 T01560133 10167 20156 58001=
201402191118 SPECI KATL 191118Z 23010G17KT 10SM SCT017 SCT024 16/13 A3003 RMK AO2=
201402191052 METAR KATL 191052Z 23010G17KT 10SM BKN015 BKN024 BKN031 16/14 A3004 RMK AO2 SLP167 T01610139=
201402191022 SPECI KATL 191022Z 24010G17KT 10SM BKN017 BKN031 16/14 A3005 RMK AO2=
201402190952 METAR KATL 190952Z 23011G19KT 10SM BKN014 BKN032 16/14 A3004 RMK AO2 SLP166 T01610144=
201402190949 SPECI KATL 190949Z 23013G19KT 10SM BKN014 BKN022 BKN032 16/14 A3004 RMK AO2=
201402190932 SPECI KATL 190932Z 23009KT 10SM FEW014 BKN022 BKN032 16/14 A3004 RMK AO2=
201402190908 SPECI KATL 190908Z 24011G17KT 10SM SCT012 BKN037 16/14 A3004 RMK AO2=
201402190852 METAR KATL 190852Z COR 23008KT 8SM BKN012 BKN041 16/14 A3004 RMK AO2 SLP166 T01610144 58009=
201402190752 METAR KATL 190752Z 22010G16KT 8SM BKN012 OVC035 16/14 A3006 RMK AO2 SLP173 CIG 010V014 T01610144=
201402190652 METAR KATL 190652Z 24007KT 8SM OVC011 16/14 A3006 RMK AO2 SLP175 CIG 009V013 T01610144=
201402190616 SPECI KATL 190616Z 23007KT 8SM OVC011 16/14 A3007 RMK AO2 CIG 009V013=
201402190552 METAR KATL 190552Z 22007KT 8SM SCT009 BKN015 BKN150 16/14 A3006 RMK AO2 SLP177 60008 T01560144 10183 20150 56006=
201402190524 SPECI KATL 190524Z 22008KT 8SM SCT010 BKN015 BKN150 16/14 A3007 RMK AO2=
201402190508 SPECI KATL 190508Z 21009KT 8SM SCT012 BKN150 16/14 A3007 RMK AO2=
201402190452 METAR KATL 190452Z 20009KT 8SM SCT010 BKN015 BKN150 16/14 A3007 RMK AO2 SLP179 T01560144 402170061=
201402190415 SPECI KATL 190415Z 20007KT 7SM SCT010 BKN025 BKN150 16/14 A3007 RMK AO2=
201402190352 METAR KATL 190352Z 20005KT 7SM BKN011 BKN025 OVC150 16/14 A3007 RMK AO2 SLP182 T01560144=
201402190252 METAR KATL 190252Z 20007KT 7SM SCT017 BKN025 BKN050 OVC150 16/14 A3008 RMK AO2 SLP184 60008 T01560139 58007=
201402190152 METAR KATL 190152Z 18004KT 8SM FEW020 BKN040 BKN075 OVC150 16/14 A3010 RMK AO2 RAE02 SLP192 P0000 T01560144=
201402190130 SPECI KATL 190130Z 20005KT 7SM SCT018 BKN026 BKN040 OVC200 16/14 A3010 RMK AO2 RAE02 P0000=
201402190052 METAR KATL 190052Z 19006KT 6SM -RA BR SCT025 BKN040 OVC075 16/14 A3011 RMK AO2 RAB14 SLP197 P0008 T01560144=
201402182352 METAR KATL 182352Z 19008KT 10SM SCT045 BKN090 BKN250 18/12 A3010 RMK AO2 SLP194 T01830117 10217 20183 56007=
201402182252 METAR KATL 182252Z 19005KT 10SM SCT040 BKN055 BKN090 BKN250 19/11 A3010 RMK AO2 SLP193 T01940106=
201402182152 METAR KATL 182152Z 20007KT 10SM BKN050 BKN070 BKN250 20/10 A3011 RMK AO2 SLP196 SHRA DSNT SW T02000100=
201402182052 METAR KATL 182052Z 22005KT 10SM FEW060 BKN070 BKN250 21/08 A3013 RMK AO2 SLP199 T02060078 56023=
201402181952 METAR KATL 181952Z 21009KT 10SM FEW060 SCT200 SCT250 21/07 A3014 RMK AO2 SLP203 T02110072=
201402181852 METAR KATL 181852Z 24007KT 210V270 10SM FEW150 SCT250 21/06 A3016 RMK AO2 SLP212 T02060061=
201402181752 METAR KATL 181752Z 00000KT 10SM FEW250 19/06 A3019 RMK AO2 SLP222 T01890056 10189 20061 58014=
201402181652 METAR KATL 181652Z 09004KT 10SM FEW250 17/04 A3022 RMK AO2 SLP231 T01670044=
201402181552 METAR KATL 181552Z 18003KT 10SM FEW250 15/04 A3023 RMK AO2 SLP235 T01500044=
201402181452 METAR KATL 181452Z 00000KT 10SM FEW250 13/04 A3024 RMK AO2 SLP238 T01280044 53015=
201402181352 METAR KATL 181352Z 33003KT 10SM FEW200 10/06 A3022 RMK AO2 SLP233 T01000056=
201402181252 METAR KATL 181252Z 00000KT 10SM FEW012 07/04 A3019 RMK AO2 SLP226 T00670044=
201402181152 METAR KATL 181152Z 32006KT 10SM SCT012 SCT250 07/04 A3019 RMK AO2 SLP225 T00670044 10139 20067 53012=
201402181124 SPECI KATL 181124Z 00000KT 9SM SCT012 08/05 A3018 RMK AO2=
201402181052 METAR KATL 181052Z 03004KT 10SM OVC010 08/04 A3017 RMK AO2 SLP216 T00780044=
201402180952 METAR KATL 180952Z 01005KT 10SM BKN011 BKN046 08/06 A3016 RMK AO2 SLP211 T00830056=
201402180946 SPECI KATL 180946Z 34006KT 10SM BKN011 BKN046 08/05 A3016 RMK AO2=
201402180852 METAR KATL 180852Z 05004KT 10SM FEW014 08/05 A3014 RMK AO2 SLP206 T00780050 53003=
201402180826 SPECI KATL 180826Z 06005KT 10SM SCT018 08/06 A3014 RMK AO2=
201402180752 METAR KATL 180752Z 05008KT 10SM BKN018 09/06 A3014 RMK AO2 SLP204 T00940061=
201402180739 SPECI KATL 180739Z 08005KT 10SM BKN018 09/07 A3014 RMK AO2=
201402180708 SPECI KATL 180708Z 04007KT 10SM SCT021 SCT034 11/08 A3014 RMK AO2=
201402180652 METAR KATL 180652Z 04008KT 10SM BKN023 BKN032 12/09 A3013 RMK AO2 SLP202 T01170089=
201402180629 SPECI KATL 180629Z 04007KT 10SM BKN024 BKN034 13/10 A3013 RMK AO2=
201402180552 METAR KATL 180552Z 01005KT 10SM SCT028 BKN040 BKN250 14/10 A3013 RMK AO2 SLP202 60000 T01390100 10167 20133 51005=
201402180452 METAR KATL 180452Z 00000KT 10SM SCT032 BKN040 BKN250 14/10 A3013 RMK AO2 SLP201 T01390100 401890033=
201402180352 METAR KATL 180352Z 23006KT 10SM SCT026 BKN035 OVC050 14/09 A3013 RMK AO2 RAB15E48 SLP201 P0000 T01440089=
201402180252 METAR KATL 180252Z 20006KT 10SM BKN036 BKN045 OVC075 15/08 A3012 RMK AO2 SLP197 60000 T01500078 55006=
201402180152 METAR KATL 180152Z 19007KT 10SM BKN040 OVC055 16/06 A3011 RMK AO2 RAB26E35 SLP197 P0000 T01560061=
201402180052 METAR KATL 180052Z 18007KT 10SM FEW040 BKN055 OVC075 16/05 A3012 RMK AO2 SLP200 T01560050=
201402172352 METAR KATL 172352Z 24004KT 10SM FEW038 BKN055 OVC250 17/03 A3014 RMK AO2 SLP206 T01670033 10189 20161 53015=
201402172252 METAR KATL 172252Z 21007KT 10SM BKN043 BKN060 OVC250 17/00 A3010 RMK AO2 SLP192 T01720000=
201402172152 METAR KATL 172152Z 21010KT 10SM BKN050 BKN070 OVC250 18/01 A3010 RMK AO2 SLP192 VIRGA DSNT SW-NW T01780006=
201402172052 METAR KATL 172052Z 18011G17KT 10SM FEW060 BKN070 BKN250 18/02 A3009 RMK AO2 SLP189 T01830017 56030=
201402171952 METAR KATL 171952Z 20013G16KT 10SM BKN070 BKN200 BKN250 18/01 A3010 RMK AO2 SLP194 T01830011=
201402171852 METAR KATL 171852Z 18005KT 10SM FEW070 SCT200 BKN250 17/01 A3015 RMK AO2 SLP209 T01720006=
201402171752 METAR KATL 171752Z 13007KT 10SM FEW200 BKN250 16/00 A3018 RMK AO2 SLP220 T01610000 10167 20033 58013=
201402171652 METAR KATL 171652Z 15007KT 10SM FEW200 BKN250 15/M01 A3021 RMK AO2 SLP232 T01501006=
201402171552 METAR KATL 171552Z 11009KT 10SM FEW200 BKN250 13/M01 A3022 RMK AO2 SLP234 T01331011=
201402171452 METAR KATL 171452Z 10008KT 10SM FEW150 SCT200 BKN250 12/M01 A3022 RMK AO2 SLP234 T01221011 51010=
201402171352 METAR KATL 171352Z 09006KT 10SM FEW150 SCT200 BKN250 08/00 A3022 RMK AO2 SLP235 T00830000=
201402171252 METAR KATL 171252Z 12003KT 10SM FEW150 BKN200 05/M01 A3020 RMK AO2 SLP231 T00501011=
201402171152 METAR KATL 171152Z 08003KT 10SM FEW150 SCT250 05/M01 A3019 RMK AO2 SLP225 T00501011 10094 20033 53012=
201402171052 METAR KATL 171052Z 06003KT 10SM BKN250 06/M02 A3017 RMK AO2 SLP219 T00611017=
201402170952 METAR KATL 170952Z 00000KT 10SM SCT250 04/M01 A3016 RMK AO2 SLP214 T00391011=
201402170852 METAR KATL 170852Z 00000KT 10SM FEW250 06/M02 A3015 RMK AO2 SLP211 T00561022 53002=
201402170752 METAR KATL 170752Z 00000KT 10SM FEW250 06/M02 A3015 RMK AO2 SLP210 T00561022=
201402170652 METAR KATL 170652Z 20004KT 10SM SCT250 05/M01 A3015 RMK AO2 SLP210 T00501011=
201402170552 METAR KATL 170552Z 31004KT 10SM SCT250 09/M03 A3015 RMK AO2 SLP209 T00891028 10139 20061 55001=
201402170452 METAR KATL 170452Z 00000KT 10SM SCT250 09/M03 A3013 RMK AO2 SLP205 T00891028 401721006=
201402170352 METAR KATL 170352Z 27003KT 10SM FEW250 08/M02 A3014 RMK AO2 SLP207 T00781022=
201402170252 METAR KATL 170252Z 27003KT 10SM FEW250 09/M03 A3015 RMK AO2 SLP212 T00891028 53008=
201402170152 METAR KATL 170152Z 31004KT 10SM FEW200 SCT250 11/M03 A3014 RMK AO2 SLP209 T01111033=
201402170052 METAR KATL 170052Z 33004KT 10SM SCT200 BKN250 12/M04 A3013 RMK AO2 SLP208 T01221039=
201402162352 METAR KATL 162352Z 31006KT 10SM SCT200 BKN250 13/M04 A3012 RMK AO2 SLP205 T01281039 10172 20128 53016=
201402162252 METAR KATL 162252Z 30009KT 10SM SCT200 BKN250 15/M03 A3010 RMK AO2 SLP196 T01501028=
201402162152 METAR KATL 162152Z 29006KT 10SM BKN250 17/M02 A3008 RMK AO2 SLP190 T01671022=
201402162052 METAR KATL 162052Z 26008KT 10SM FEW250 17/M01 A3007 RMK AO2 SLP187 T01721011 56013=
201402161952 METAR KATL 161952Z 31009KT 10SM FEW250 16/M01 A3008 RMK AO2 SLP190 T01611006=
201402161852 METAR KATL 161852Z 27008KT 10SM FEW250 17/M01 A3010 RMK AO2 SLP196 T01671006=
201402161752 METAR KATL 161752Z 29007KT 230V330 10SM CLR 14/M01 A3012 RMK AO2 SLP202 T01441011 10144 20000 58003=
201402161652 METAR KATL 161652Z 27008KT 10SM CLR 13/M01 A3013 RMK AO2 SLP207 T01281006=
201402161552 METAR KATL 161552Z 28010G16KT 10SM CLR 11/M01 A3013 RMK AO2 SLP206 T01061011=
201402161452 METAR KATL 161452Z 26008KT 10SM CLR 09/M03 A3012 RMK AO2 SLP206 T00891028 51010=
201402161352 METAR KATL 161352Z 24005KT 10SM CLR 04/M04 A3012 RMK AO2 SLP207 T00391044=
201402161252 METAR KATL 161252Z 24004KT 10SM CLR 01/M05 A3011 RMK AO2 SLP203 T00111050=
201402161152 METAR KATL 161152Z 23003KT 10SM FEW075 SCT120 00/M05 A3009 RMK AO2 SLP198 T00001050 10011 21006 55002=
201402161052 METAR KATL 161052Z 22003KT 10SM SCT075 BKN120 01/M05 A3009 RMK AO2 SLP196 T00061050=
201402160952 METAR KATL 160952Z 22003KT 10SM BKN120 01/M05 A3009 RMK AO2 SLP195 T00111050=
201402160852 METAR KATL 160852Z 33004KT 10SM BKN120 01/M05 A3010 RMK AO2 SLP199 T00061050 51012=
201402160752 METAR KATL 160752Z 31003KT 10SM BKN130 00/M05 A3009 RMK AO2 SLP195 T00001050=
201402160652 METAR KATL 160652Z 31004KT 10SM BKN130 BKN250 00/M05 A3009 RMK AO2 SLP196 T00001050=
201402160552 METAR KATL 160552Z 31004KT 10SM FEW120 SCT250 01/M06 A3007 RMK AO2 SLP188 T00111056 10050 20006 56017=
201402160452 METAR KATL 160452Z 00000KT 10SM FEW130 SCT250 02/M06 A3007 RMK AO2 SLP189 T00171056 400890011=
201402160352 METAR KATL 160352Z 00000KT 10SM FEW150 SCT200 SCT250 02/M06 A3009 RMK AO2 SLP198 T00171056=
201402160252 METAR KATL 160252Z 33003KT 10SM FEW150 SCT200 SCT250 03/M06 A3012 RMK AO2 SLP206 T00281061 50004=
201402160152 METAR KATL 160152Z 31006KT 10SM FEW150 BKN200 BKN250 04/M06 A3012 RMK AO2 SLP208 T00391061=
201402160052 METAR KATL 160052Z 30006KT 10SM FEW150 SCT200 SCT250 04/M06 A3013 RMK AO2 SLP209 T00391061=
201402152352 METAR KATL 152352Z 29008KT 10SM FEW150 SCT200 SCT250 05/M07 A3010 RMK AO2 SLP201 T00501067 10089 20050 53011=
201402152252 METAR KATL 152252Z 33009KT 10SM FEW200 SCT250 07/M07 A3007 RMK AO2 SLP188 T00721067=
201402152152 METAR KATL 152152Z 30012KT 10SM FEW250 08/M07 A3007 RMK AO2 SLP187 T00781072=
201402152052 METAR KATL 152052Z 29015G20KT 10SM FEW250 08/M06 A3007 RMK AO2 SLP188 T00831061 52012=
201402151952 METAR KATL 151952Z 29010G21KT 10SM SCT250 08/M05 A3006 RMK AO2 SLP184 T00831050=
201402151852 METAR KATL 151852Z 30013G21KT 10SM FEW250 07/M04 A3005 RMK AO2 SLP179 T00721044=
201402151752 METAR KATL 151752Z 30013G21KT 10SM FEW250 06/M04 A3004 RMK AO2 SLP176 T00561039 10056 20011 51009=
201402151652 METAR KATL 151652Z 33011G22KT 10SM CLR 04/M04 A3003 RMK AO2 SLP173 T00441044=
201402151552 METAR KATL 151552Z 32015G24KT 10SM FEW026 03/M03 A3003 RMK AO2 PK WND 30027/1514 SLP172 T00331033=
201402151452 METAR KATL 151452Z 32018G25KT 10SM SCT023 02/M03 A3001 RMK AO2 PK WND 31027/1402 SLP166 T00171033 51035=
201402151434 SPECI KATL 151434Z 31015G26KT 10SM SCT022 02/M03 A3000 RMK AO2 PK WND 31027/1402=
201402151352 METAR KATL 151352Z 33015G23KT 10SM BKN020 01/M03 A2999 RMK AO2 SLP159 T00111028=
201402151252 METAR KATL 151252Z 31015G24KT 10SM OVC018 01/M02 A2994 RMK AO2 SLP141 T00111022=
201402151152 METAR KATL 151152Z 32015G25KT 10SM BKN018 02/M01 A2990 RMK AO2 PK WND 33027/1055 SLP129 60001 70023 T00221011 10067 20022 51052=
201402151052 METAR KATL 151052Z 30020G28KT 10SM BKN018 OVC029 03/00 A2985 RMK AO2 PK WND 32028/1049 SLP112 T00330000=
201402150952 METAR KATL 150952Z 30016G21KT 10SM BKN016 BKN022 OVC035 04/02 A2979 RMK AO2 PK WND 31031/0933 RAB12E52 SLP091 P0000 T00440022=
201402150852 METAR KATL 150852Z 30022G32KT 10SM BKN015 BKN037 OVC050 05/03 A2974 RMK AO2 PK WND 30032/0852 RAB15E51 SLP072 P0001 60001 T00500033 53019=
201402150804 SPECI KATL 150804Z 29011G19KT 10SM BKN015 OVC034 07/04 A2971 RMK AO2=
201402150752 METAR KATL 150752Z 28011G20KT 10SM SCT016 BKN034 OVC046 07/04 A2971 RMK AO2 SLP060 T00670044=
201402150745 SPECI KATL 150745Z 27011G19KT 10SM SCT016 BKN034 OVC046 06/04 A2970 RMK AO2=
201402150726 SPECI KATL 150726Z 28014G22KT 10SM BKN016 BKN046 06/04 A2970 RMK AO2=
201402150701 SPECI KATL 150701Z 28012KT 10SM FEW016 SCT028 OVC044 06/04 A2969 RMK AO2=
201402150652 METAR KATL 150652Z 27011KT 10SM FEW016 BKN028 OVC034 06/04 A2969 RMK AO2 RAB41E50 SLP056 P0000 T00610044=
201402150630 SPECI KATL 150630Z 28009KT 10SM BKN028 OVC039 06/05 A2969 RMK AO2=
201402150552 METAR KATL 150552Z 29006KT 10SM SCT035 BKN070 OVC100 07/05 A2968 RMK AO2 RAE49 SLP053 P0004 60022 T00670050 10117 20067 58002=
201402150535 SPECI KATL 150535Z 31007KT 9SM -RA FEW007 BKN035 OVC070 07/06 A2968 RMK AO2 P0004=
201402150511 SPECI KATL 150511Z 31008KT 5SM -RA BR FEW006 BKN029 OVC034 07/06 A2970 RMK AO2 P0003=
201402150452 METAR KATL 150452Z 30009KT 6SM -RA BR FEW020 BKN030 OVC045 07/06 A2970 RMK AO2 SLP061 P0007 T00720056 401391011=
201402150352 METAR KATL 150352Z 24009G16KT 4SM RA BR SCT024 BKN032 OVC050 08/06 A2972 RMK AO2 PK WND 25029/0332 SLP067 P0011 T00780056=
201402150252 METAR KATL 150252Z 17005KT 10SM -RA BKN065 BKN080 OVC100 10/01 A2969 RMK AO2 RAB51 PRESFR SLP055 P0000 60000 T01000011 58015=
201402150152 METAR KATL 150152Z 21005KT 10SM BKN095 OVC120 11/M01 A2976 RMK AO2 SLP079 VIRGA OHD-ALQDS T01061006=
201402150052 METAR KATL 150052Z 22006KT 10SM BKN130 OVC200 11/M01 A2975 RMK AO2 SLP077 T01111011=
201402142352 METAR KATL 142352Z 18008KT 10SM BKN140 BKN200 OVC250 12/M02 A2974 RMK AO2 SLP073 T01171017 10139 20111 58023=
201402142252 METAR KATL 142252Z 19007KT 10SM FEW140 SCT200 BKN250 12/M02 A2976 RMK AO2 SLP082 T01221017=
201402142152 METAR KATL 142152Z 20005KT 10SM BKN130 OVC250 13/M02 A2978 RMK AO2 PRESFR SLP088 BINOVC T01331022=
201402142052 METAR KATL 142052Z 21008KT 10SM BKN160 OVC250 13/M03 A2981 RMK AO2 SLP096 T01331028 56029=
201402141952 METAR KATL 141952Z 23009KT 10SM OVC200 14/M01 A2983 RMK AO2 SLP103 BINOVC T01391011=
201402141852 METAR KATL 141852Z 22007G16KT 190V250 10SM SCT150 BKN250 13/M01 A2985 RMK AO2 SLP111 T01331006=
201402141752 METAR KATL 141752Z 26007KT 230V290 10SM BKN250 13/01 A2989 RMK AO2 SLP126 T01280011 10128 21006 58007=
201402141652 METAR KATL 141652Z 25007KT 10SM BKN250 11/01 A2992 RMK AO2 SLP136 T01060006=
201402141552 METAR KATL 141552Z 25006KT 10SM BKN250 08/01 A2991 RMK AO2 SLP134 T00830006=
201402141452 METAR KATL 141452Z 24007KT 10SM BKN200 BKN250 06/00 A2992 RMK AO2 SLP135 T00610000 50001=
201402141352 METAR KATL 141352Z 25003KT 10SM SCT200 BKN250 03/M01 A2992 RMK AO2 SLP137 T00331011=
201402141252 METAR KATL 141252Z 26003KT 10SM FEW200 SCT250 01/M02 A2992 RMK AO2 SLP138 T00111022=
201402141152 METAR KATL 141152Z 24005KT 10SM FEW200 SCT250 M01/M03 A2991 RMK AO2 SLP136 70002 T10061028 10028 21011 53008=
201402141052 METAR KATL 141052Z 23003KT 10SM FEW200 M01/M03 A2990 RMK AO2 SLP131 T10061028=
201402140952 METAR KATL 140952Z 24003KT 10SM FEW200 01/M03 A2989 RMK AO2 SLP129 T00061028=
201402140852 METAR KATL 140852Z 26006KT 10SM CLR 02/M03 A2989 RMK AO2 SLP126 T00171028 50002=
201402140752 METAR KATL 140752Z 25005KT 10SM CLR 01/M03 A2989 RMK AO2 SLP128 T00111033=
201402140652 METAR KATL 140652Z 26005KT 10SM CLR 02/M03 A2989 RMK AO2 SLP128 T00221033=
201402140552 METAR KATL 140552Z 25004KT 10SM CLR 02/M04 A2988 RMK AO2 SLP125 T00221044 10044 20022 50001=
201402140452 METAR KATL 140452Z 26004KT 10SM CLR 02/M04 A2988 RMK AO2 SLP127 T00221044 400721017=
201402140352 METAR KATL 140352Z 27007KT 10SM CLR 03/M04 A2988 RMK AO2 SLP126 T00281039=
201402140252 METAR KATL 140252Z 26007KT 10SM CLR 03/M04 A2988 RMK AO2 SLP125 T00281039 53012=
201402140152 METAR KATL 140152Z 27004KT 10SM CLR 03/M03 A2986 RMK AO2 SLP118 T00281033=
201402140052 METAR KATL 140052Z 28010KT 10SM CLR 04/M03 A2986 RMK AO2 SLP120 T00391033=
201402132352 METAR KATL 132352Z 29008KT 10SM CLR 04/M03 A2984 RMK AO2 SLP113 T00441033 10072 20039 51014=
201402132252 METAR KATL 132252Z 29009KT 10SM CLR 06/M05 A2983 RMK AO2 SLP109 T00611050=
201402132152 METAR KATL 132152Z 31010G20KT 10SM CLR 07/M04 A2982 RMK AO2 SLP103 T00721039=
201402132052 METAR KATL 132052Z 31016KT 10SM FEW030 07/M01 A2980 RMK AO2 SLP097 T00721011 53004=
201402131952 METAR KATL 131952Z 30017G23KT 10SM SCT022 06/00 A2978 RMK AO2 SLP092 T00610000=
201402131932 SPECI KATL 131932Z 31017G25KT 10SM FEW022 06/00 A2979 RMK AO2=
201402131852 METAR KATL 131852Z 30017G26KT 10SM BKN022 05/01 A2979 RMK AO2 PK WND 32026/1845 SLP095 T00500006=
201402131847 SPECI KATL 131847Z 31018G26KT 10SM BKN022 05/01 A2979 RMK AO2 PK WND 32026/1845=
201402131752 METAR KATL 131752Z 31019G27KT 10SM SCT020 04/01 A2979 RMK AO2 PK WND 32027/1752 SLP095 60003 4/001 931003 T00390006 10039 21006 51006=
201402131652 METAR KATL 131652Z 30014G27KT 10SM FEW015 SCT250 03/00 A2979 RMK AO2 PK WND 30027/1647 SLP095 T00280000=
201402131634 SPECI KATL 131634Z 30017G22KT 10SM SCT014 02/M01 A2979 RMK AO2=
201402131552 METAR KATL 131552Z 31015G22KT 10SM BKN012 02/M01 A2978 RMK AO2 SLP092 T00171006=
201402131534 SPECI KATL 131534Z 30016KT 9SM BKN012 01/M01 A2977 RMK AO2=
201402131452 METAR KATL 131452Z 31013KT 8SM BKN009 OVC012 01/M01 A2977 RMK AO2 SNE09 SLP089 P0000 60003 T00111006 51010=
201402131352 METAR KATL 131352Z 30013KT 5SM -SN BR OVC006 01/M01 A2976 RMK AO2 SLP087 CIG 004V008 P0001 T00061006=
201402131345 SPECI KATL 131345Z 30010KT 5SM -SN BR OVC006 01/M01 A2976 RMK AO2 CIG 004V008 P0001=
201402131318 SPECI KATL 131318Z 30008KT 2SM -SN BR OVC006 01/M01 A2976 RMK AO2 SFC VIS 2 1/2 CIG 004V008 P0001=
201402131252 METAR KATL 131252Z 29010KT 1 1/2SM -SN BR BKN006 OVC015 00/M01 A2975 RMK AO2 SLP083 CIG 005V008 P0002 T00001011=
201402131244 SPECI KATL 131244Z 29010KT 1 1/4SM -SN BR BKN006 BKN010 OVC015 00/M01 A2975 RMK AO2 TWR VIS 1 1/2 P0001=
201402131152 METAR KATL 131152Z COR 28008KT 1 1/2SM -SN BR BKN006 BKN012 OVC023 M01/M01 A2974 RMK AO2 SLP079 CIG 005V008 P0002 60003 70053 931003 4/001 T10061011 11006 21017 55003=
201402131119 SPECI KATL 131119Z 30009KT 1 1/2SM -SN BR BKN006 OVC014 M01/M02 A2973 RMK AO2 CIG 005V008 P0000=
201402131052 METAR KATL 131052Z 29008KT 2SM -SN BR OVC006 M01/M02 A2973 RMK AO2 SFC VIS 5 SLP076 CIG 005V007 P0000 T10061017=
201402130952 METAR KATL 130952Z 29008KT 2SM -SN BR BKN006 BKN026 OVC070 M01/M02 A2973 RMK AO2 SFC VIS 4 SLP076 P0000 T10061017=
201402130930 SPECI KATL 130930Z 30008KT 2SM -SN BR BKN006 BKN028 OVC065 M01/M02 A2973 RMK AO2 SFC VIS 3 P0000=
201402130852 METAR KATL 130852Z 31008KT 2SM -SN BR FEW006 BKN026 OVC050 M01/M02 A2974 RMK AO2 SFC VIS 2 1/2 SLP082 P0000 60001 T10111022 56009=
201402130752 METAR KATL 130752Z 31006KT 2SM -SN BR FEW004 BKN028 OVC055 M02/M02 A2976 RMK AO2 SFC VIS 2 1/2 SLP087 P0000 T10171022=
201402130652 METAR KATL 130652Z 36004KT 2SM -SN BR SCT006 BKN017 OVC033 M02/M03 A2975 RMK AO2 SLP086 P0001 T10171028=
201402130604 SPECI KATL 130604Z 04006KT 2SM -SN BR OVC008 M02/M03 A2977 RMK AO2 P0000=
201402130552 METAR KATL 130552Z 04007KT 3SM -SN BR OVC008 M02/M03 A2977 RMK AO2 TWR VIS 4 SNB39 SLP093 P0000 60001 931000 4/001 T10171028 11011 21017 56019=
201402130519 SPECI KATL 130519Z 05011KT 8SM OVC008 M02/M03 A2977 RMK AO2 PRESFR=
201402130452 METAR KATL 130452Z 05010KT 8SM BKN010 BKN012 OVC020 M02/M03 A2980 RMK AO2 FZDZE09 SLP099 P0000 T10171033 400171017=
201402130409 SPECI KATL 130409Z 06011KT 8SM BKN010 BKN015 OVC020 M02/M03 A2980 RMK AO2 FZDZE09 P0000=
201402130352 METAR KATL 130352Z 05012G19KT 7SM -FZDZ BKN008 BKN012 OVC020 M02/M03 A2980 RMK AO2 FZRAE05FZDZB05 SLP102 P0000 T10171033=
201402130305 SPECI KATL 130305Z 07013KT 6SM -FZDZ BR FEW008 BKN012 OVC020 M02/M03 A2984 RMK AO2 FZRAE05FZDZB05 P0000=
201402130252 METAR KATL 130252Z 07014KT 6SM -FZRA BR BKN008 BKN012 OVC020 M01/M03 A2983 RMK AO2 SLP112 P0000 60001 T10111028 58014=
201402130159 SPECI KATL 130159Z 05010KT 5SM -FZRA BR BKN008 BKN012 OVC015 M01/M03 A2985 RMK AO2 P0000=
201402130152 METAR KATL 130152Z 05009KT 5SM -FZRA BR BKN010 BKN015 OVC018 M02/M03 A2986 RMK AO2 FZRAE16B50FZDZB16E50 SLP120 P0000 T10171028=
201402130117 SPECI KATL 130117Z 05012KT 7SM -FZDZ BKN010 BKN015 OVC018 M01/M03 A2986 RMK AO2 FZRAE16FZDZB16 P0000=
201402130059 SPECI KATL 130059Z 05011KT 3SM -FZRA BR BKN010 BKN015 OVC020 M01/M03 A2987 RMK AO2 SFC VIS 6 P0000=
201402130052 METAR KATL 130052Z 06010KT 3SM -FZRA BR BKN008 BKN013 OVC020 M01/M03 A2988 RMK AO2 SFC VIS 6 PLE15 SLP128 P0001 T10111028=
201402130022 SPECI KATL 130022Z 07016G19KT 3SM -FZRA BR BKN008 BKN013 OVC020 M01/M03 A2987 RMK AO2 SFC VIS 4 PLE15 P0001=
201402130015 SPECI KATL 130015Z 07015KT 3SM -FZRA BR SCT008 BKN013 OVC020 M01/M03 A2987 RMK AO2 SFC VIS 4 PLE15 P0001=
201402130003 SPECI KATL 130003Z 06009KT 3SM -FZRAPL BR BKN009 OVC018 M01/M02 A2987 RMK AO2 SFC VIS 3 P0000=
201402122352 METAR KATL 122352Z 07011KT 3SM -FZRAPL BR FEW009 BKN016 OVC020 M01/M03 A2987 RMK AO2 SFC VIS 4 FZRAB14SNE14 SLP126 4/001 931010 P0003 60032 T10111028 11011 21017 55010=
201402122343 SPECI KATL 122343Z 07013KT 3SM -FZRAPL BR SCT009 OVC016 M01/M03 A2987 RMK AO2 FZRAB14SNE14 P0003=
201402122335 SPECI KATL 122335Z 07015KT 2SM -FZRAPL BR BKN009 OVC016 M01/M03 A2987 RMK AO2 TWR VIS 3 FZRAB14SNE14 P0003=
201402122324 SPECI KATL 122324Z 06011G16KT 3SM -FZRAPL BR BKN007 OVC014 M01/M03 A2987 RMK AO2 FZRAB14SNE14 P0002=
201402122314 SPECI KATL 122314Z 07009KT 3SM -FZRAPL BR SCT007 BKN015 OVC020 M01/M03 A2987 RMK AO2 FZRAB14SNE14 P0001=
201402122259 SPECI KATL 122259Z 06012KT 1SM -PLSN BR FEW005 BKN015 OVC020 M02/M03 A2987 RMK AO2 SFC VIS 3 P0000=
201402122252 METAR KATL 122252Z 06010KT 1/2SM R09R/6000VP6000FT -PLSN BR BKN005 OVC015 M02/M03 A2987 RMK AO2 SFC VIS 2 FZRAE09SNB09 SLP124 P0006 T10171028=
201402122240 SPECI KATL 122240Z 05009KT 1/2SM R09R/2800V5500FT -PLSN BR SCT005 BKN009 OVC021 M01/M02 A2987 RMK AO2 SFC VIS 1 FZRAE09SNB09 P0005=
201402122224 SPECI KATL 122224Z 08013KT 1/2SM R09R/5000V6000FT -PLSN BR SCT007 BKN015 OVC020 M01/M03 A2988 RMK AO2 SFC VIS 1 FZRAE09SNB09 P0002=
201402122215 SPECI KATL 122215Z 08014G20KT 1/2SM R09R/5500VP6000FT -PLSN BR FEW007 BKN012 OVC020 M01/M03 A2988 RMK AO2 SFC VIS 1 FZRAE09SNB09 P0001=
201402122212 SPECI KATL 122212Z 08015G20KT 1SM R09R/6000VP6000FT -PLSN BR FEW007 BKN012 OVC020 M01/M03 A2988 RMK AO2 FZRAE09SNB09 P0001=
201402122209 SPECI KATL 122209Z 08012KT 1SM R09R/P6000FT -PLSN BR BKN012 OVC020 M01/M02 A2988 RMK AO2 FZRAE09SNB09 P0000=
201402122152 METAR KATL 122152Z 08013KT 1SM -FZRAPL BR BKN009 BKN016 OVC020 M01/M03 A2988 RMK AO2 SFC VIS 5 SLP130 P0003 T10111028=
201402122052 METAR KATL 122052Z 09013KT 1SM -FZRAPL BR FEW005 BKN009 OVC015 M01/M03 A2990 RMK AO2 SFC VIS 3 FZRAB28SNE28 SLP136 P0003 60020 T10111028 56046=
201402122029 SPECI KATL 122029Z 08014KT 1SM R09R/6000VP6000FT -FZRAPL BR FEW005 BKN009 OVC015 M01/M03 A2990 RMK AO2 SFC VIS 2 FZRAB28SNE28 P0002=
201402122007 SPECI KATL 122007Z 08015G21KT 1SM R09R/P6000FT -PLSN BR FEW005 BKN009 OVC020 M02/M03 A2991 RMK AO2 P0000=
201402121952 METAR KATL 121952Z 08014KT 1SM R09R/4500VP6000FT -PLSN BR FEW005 BKN010 OVC017 M02/M03 A2991 RMK AO2 SLP140 P0013 T10171028=
201402121928 SPECI KATL 121928Z 07013KT 1/2SM R09R/2600V3500FT PLSN FZFG BKN008 BKN012 OVC017 M02/M03 A2994 RMK AO2 TWR VIS 1 PRESFR P0009=
201402121904 SPECI KATL 121904Z 08014G23KT 3/4SM R09R/4000V5500FT -PLSN BR SCT008 BKN012 OVC017 M02/M03 A2996 RMK AO2 TWR VIS 1 PRESFR P0003=
201402121855 SPECI KATL 121855Z 07018G25KT 1SM R09R/5000VP6000FT -PLSN BR BKN010 BKN014 OVC019 M02/M03 A2997 RMK AO2 TWR VIS 2 PRESFR P0002=
201402121852 METAR KATL 121852Z 07021G27KT 2SM R09R/5000VP6000FT -PLSN BR BKN010 BKN017 OVC020 M02/M03 A2997 RMK AO2 PK WND 08030/1757 FZRAE30SNB47 PRESFR SLP160 P0004 T10171033=
201402121826 SPECI KATL 121826Z 07019G26KT 2SM -PL BR BKN008 BKN010 OVC012 M02/M03 A3000 RMK AO2 PK WND 08030/1757 FZRAE26 PRESFR P0002=
201402121803 SPECI KATL 121803Z 08022G30KT 2SM -FZRAPL BR FEW008 BKN010 OVC012 M02/M03 A3003 RMK AO2 PK WND 08030/1757 P0000=
201402121758 SPECI KATL 121758Z 08022G30KT 1 3/4SM -FZRAPL BR BKN008 OVC012 M02/M03 A3004 RMK AO2 PK WND 08030/1757 TWR VIS 2 P0000=
201402121752 METAR KATL 121752Z 08022G29KT 2SM -FZRAPL BR OVC010 M02/M03 A3005 RMK AO2 PK WND 08029/1749 PLB50 SLP184 I1002 I6006 931002 P0002 60017 T10171028 10000 21017 58021=
201402121652 METAR KATL 121652Z COR 08021G25KT 2SM -FZRA BR OVC008 M01/M03 A3010 RMK AO2 PK WND 08026/1611 SLP202 CIG 006V010 P0000 I1000 T10111028=
201402121641 SPECI KATL 121641Z 08017G24KT 2SM R09R/6000VP6000FT -FZRA BR OVC008 M01/M02 A3011 RMK AO2 PK WND 08026/1611 CIG 006V010 P0000=
201402121608 SPECI KATL 121608Z 09016G24KT 3SM -FZRA BR OVC008 M01/M03 A3013 RMK AO2 SFC VIS 4 CIG 007V010 P0000=
201402121552 METAR KATL 121552Z COR 09012G22KT 3SM -FZRA BR OVC010 M01/M03 A3013 RMK AO2 PK WND 06032/1501 SFC VIS 4 PLE46 SLP211 CIG 008V012 P0000 I1000 T10111028=
201402121546 SPECI KATL 121546Z 08018G26KT 3SM -FZRA BR OVC010 M01/M03 A3012 RMK AO2 PK WND 06032/1501 SFC VIS 4 PLE46 CIG 008V012 P0000=
201402121452 METAR KATL 121452Z COR 08019G29KT 3SM -FZRAPL BR OVC012 M01/M03 A3011 RMK AO2 PK WND 07032/1411 SFC VIS 5 SLP206 CIG 010V015 P0001 I1001 I3004 60015 T10111028 58020=
201402121416 SPECI KATL 121416Z 07021G32KT 3SM -FZRAPL BR BKN010 OVC022 M01/M03 A3014 RMK AO2 PK WND 07032/1411 SFC VIS 5 CIG 008V012 P0001=
201402121352 METAR KATL 121352Z COR 07023G29KT 2SM -FZRAPL BR BKN007 BKN015 OVC050 M01/M03 A3012 RMK AO2 PK WND 07029/1343 SFC VIS 4 SNE10B29E48 SLP210 CIG 005V009 P0003 I1001 T10111028=
201402121252 METAR KATL 121252Z 07016KT 2SM -FZRAPLSN BR BKN007 OVC014 M01/M02 A3017 RMK AO2 FZRAE02B40SNB10 SLP227 CIG 005V009 P0011 T10061017=
201402121241 SPECI KATL 121241Z 09017G24KT 2SM -FZRAPLSN BR BKN007 OVC014 M01/M02 A3017 RMK AO2 SFC VIS 3 FZRAE02B40SNB10 CIG 005V009 P0009=
201402121226 SPECI KATL 121226Z 08012KT 1 1/2SM PLSN BR BKN008 OVC020 M01/M02 A3018 RMK AO2 FZRAE02SNB10 CIG 006V010 P0007=
201402121219 SPECI KATL 121219Z 09013KT 1SM R09R/P6000FT PLSN BR BKN010 OVC028 M01/M01 A3018 RMK AO2 TWR VIS 1 1/2 FZRAE02SNB10 CIG 008V012 P0005=
201402121210 SPECI KATL 121210Z 08010KT 1 1/2SM +PLSN BR BKN010 OVC028 M01/M02 A3018 RMK AO2 FZRAE02SNB10 CIG 008V012 P0003=
201402121203 SPECI KATL 121203Z 09013KT 2SM PL BR BKN010 OVC028 M01/M02 A3017 RMK AO2 FZRAE02 CIG 008V012 P0002=
201402121152 METAR KATL 121152Z 10015G23KT 4SM FZRAPL BR BKN010 BKN022 OVC050 00/M02 A3017 RMK AO2 PK WND 08032/1106 SLP225 CIG 008V012 P0015 60055 70072 T00001022 10011 20000 53004=
201402121052 METAR KATL 121052Z COR 08019G25KT 3SM FZRAPL BR BKN011 BKN020 OVC050 00/M02 A3016 RMK AO2 PK WND 08030/1015 SLP223 CIG 009V013 P0020 I1011 T00001017=
201402120952 METAR KATL 120952Z COR 08021G27KT 3SM FZRAPL BR BKN011 BKN022 OVC050 00/M02 A3014 RMK AO2 PK WND 08027/0952 PLB40 SLP217 CIG 009V013 P0012 I1006 T00001017=
201402120940 SPECI KATL 120940Z 07018G24KT 3SM FZRAPL BR BKN011 BKN022 OVC050 00/M01 A3015 RMK AO2 PK WND 07026/0923 PLB40 CIG 009V013 P0008=
201402120912 SPECI KATL 120912Z 08019G24KT 3SM FZRA BR BKN010 OVC018 00/M01 A3016 RMK AO2 CIG 008V012 P0003=
201402120852 METAR KATL 120852Z COR 08018G25KT 4SM -FZRA BR BKN010 OVC024 00/M02 A3016 RMK AO2 RAE39FZRAB39 SLP221 CIG 008V012 P0003 I1001 I3001 60008 T00001017 56011=
201402120840 SPECI KATL 120840Z 09017KT 5SM -FZRA BR OVC010 00/M02 A3016 RMK AO2 RAE39FZRAB39 CIG 008V012 P0001=
201402120752 METAR KATL 120752Z 09014G24KT 10SM -RA BKN011 OVC026 01/M01 A3016 RMK AO2 PK WND 08029/0719 SLP222 CIG 009V013 PCPN VRY LGT P0001 T00061011=
201402120735 SPECI KATL 120735Z 08020G26KT 8SM -RA SCT007 BKN012 OVC026 01/M01 A3016 RMK AO2 PK WND 08029/0719 P0001=
201402120652 METAR KATL 120652Z 08016KT 5SM -RA BR BKN007 BKN014 OVC038 01/M01 A3018 RMK AO2 SLP229 CIG 005V008 P0004 T00111006=
201402120555 SPECI KATL 120555Z 08014KT 5SM -RA BR BKN008 BKN022 OVC040 01/00 A3019 RMK AO2 P0000=
201402120552 METAR KATL 120552Z 08014KT 5SM -RA BR BKN010 OVC025 01/00 A3019 RMK AO2 SLP232 P0004 60005 T00110000 10022 20011 56019=
201402120452 METAR KATL 120452Z 08011KT 7SM -RA BKN010 OVC020 02/00 A3021 RMK AO2 SLP237 RAB30PLB30E52 P0001 T00170000 400440017=
201402120431 SPECI KATL 120431Z 07014KT 10SM -RAPL BKN010 BKN016 OVC025 02/M01 A3022 RMK AO2 RAB30PLB30 P0000=
201402120352 METAR KATL 120352Z 08013KT 10SM BKN010 BKN015 OVC024 02/00 A3022 RMK AO2 SLP242 T00170000=
201402120252 METAR KATL 120252Z 07012KT 10SM OVC012 02/00 A3025 RMK AO2 SLP252 CIG 010V015 T00220000 53010=
201402120152 METAR KATL 120152Z 08010KT 10SM BKN012 BKN022 OVC030 02/00 A3022 RMK AO2 SLP241 T00220000=
201402120052 METAR KATL 120052Z 08011KT 10SM SCT011 BKN028 OVC035 02/00 A3022 RMK AO2 SLP241 T00220000=
201402120044 SPECI KATL 120044Z 08012KT 10SM SCT011 BKN028 OVC035 02/00 A3022 RMK AO2=
201402112352 METAR KATL 112352Z 07013KT 9SM BKN011 BKN015 OVC022 02/00 A3022 RMK AO2 SLP241 60000 T00220000 10028 20022 52012=
201402112308 SPECI KATL 112308Z 07014KT 8SM SCT007 BKN010 OVC015 02/01 A3022 RMK AO2=
201402112252 METAR KATL 112252Z 07013KT 7SM BKN007 OVC014 02/01 A3021 RMK AO2 DZE07 SLP238 P0000 T00220011=
201402112152 METAR KATL 112152Z COR 08011KT 5SM -DZ BR FEW006 BKN008 OVC012 02/01 A3019 RMK AO2 RAB19E36DZB36 SLP230 P0000 T00220011=
201402112052 METAR KATL 112052Z 06013KT 8SM OVC008 03/01 A3018 RMK AO2 SLP228 60000 T00280011 55009=
201402111952 METAR KATL 111952Z 07012KT 8SM OVC008 03/01 A3018 RMK AO2 DZE09 SLP226 P0000 T00280011=
201402111852 METAR KATL 111852Z 08010G18KT 3SM -DZ BR BKN006 BKN008 OVC010 03/01 A3020 RMK AO2 SFC VIS 5 SLP232 P0000 T00280011=
201402111807 SPECI KATL 111807Z 06011KT 3SM -DZ BR OVC008 03/01 A3021 RMK AO2 SFC VIS 4 P0000=
201402111752 METAR KATL 111752Z 08011KT 6SM -DZ BR OVC008 03/01 A3021 RMK AO2 SLP238 P0000 60012 T00280011 10039 20022 58002=
201402111652 METAR KATL 111652Z COR 06012KT 6SM -DZ BR BKN008 BKN010 OVC020 03/01 A3022 RMK AO2 RAE45DZB45 SLP242 P0001 T00280011=
201402111552 METAR KATL 111552Z 07011KT 8SM -RA BKN006 BKN010 OVC020 03/01 A3023 RMK AO2 SLP245 P0001 T00280011=
201402111506 SPECI KATL 111506Z 09013KT 6SM -RA BR FEW008 BKN010 OVC020 03/01 A3022 RMK AO2 P0000=
201402111452 METAR KATL 111452Z 07013KT 5SM -RA BR BKN008 BKN010 OVC020 03/01 A3022 RMK AO2 SLP240 P0003 60010 T00280011 51022=
201402111352 METAR KATL 111352Z 08013KT 5SM -RA BR BKN006 BKN015 OVC021 03/02 A3020 RMK AO2 SLP232 P0004 T00330017=
201402111252 METAR KATL 111252Z 06010G18KT 4SM -RA BR OVC007 03/02 A3018 RMK AO2 SLP227 P0003 T00330022=
201402111152 METAR KATL 111152Z 07012KT 7SM -RA BKN008 BKN021 OVC060 04/02 A3015 RMK AO2 SLP216 P0006 60029 70030 T00390022 10044 20033 51017=
201402111052 METAR KATL 111052Z 05012KT 7SM -RA FEW005 BKN008 OVC013 04/03 A3015 RMK AO2 SLP213 P0007 T00440028=
201402110952 METAR KATL 110952Z 04006KT 4SM -RA BR BKN005 OVC020 04/03 A3013 RMK AO2 SLP208 P0004 T00440033=
201402110852 METAR KATL 110852Z 03007KT 5SM -RA BR OVC006 03/02 A3010 RMK AO2 SLP198 P0002 60012 T00330022 58009=
201402110752 METAR KATL 110752Z 01007KT 5SM -RA BR OVC009 03/02 A3012 RMK AO2 SLP206 P0003 T00330017=
201402110741 SPECI KATL 110741Z 36006KT 6SM -RA BR OVC009 03/02 A3013 RMK AO2 P0003=
201402110652 METAR KATL 110652Z 35005KT 5SM -RA BR OVC010 03/02 A3013 RMK AO2 SLP206 P0007 T00330017=
201402110552 METAR KATL 110552Z 33005KT 8SM -RA BKN013 OVC070 04/01 A3013 RMK AO2 RAB06 SLP207 P0001 60001 T00390006 10061 20039 58003=
201402110452 METAR KATL 110452Z 01005KT 10SM FEW030 OVC070 04/00 A3013 RMK AO2 RAE29 SLP209 P0000 T00440000 401000039=
201402110352 METAR KATL 110352Z 35006KT 10SM -RA FEW030 OVC075 04/00 A3014 RMK AO2 RAB0259 SLP209 P0000 T00440000=
201402110252 METAR KATL 110252Z 34007KT 10SM FEW030 BKN085 OVC120 04/M01 A3014 RMK AO2 SLP210 60000 T00441006 51007=
201402110152 METAR KATL 110152Z 35011KT 10SM FEW030 OVC095 04/M01 A3013 RMK AO2 RAB0059E40 SLP209 P0000 T00441006=
201402110130 SPECI KATL 110130Z 34009KT 10SM -RA SCT022 BKN032 OVC095 04/00 A3014 RMK AO2 RAB0059 P0000=
201402110052 METAR KATL 110052Z 32011KT 10SM BKN024 OVC030 04/00 A3015 RMK AO2 SLP215 T00440000=
201402102352 METAR KATL 102352Z 31008KT 10SM FEW027 BKN032 OVC140 06/02 A3012 RMK AO2 SLP203 T00610017 10100 20061 53018=
201402102252 METAR KATL 102252Z 31009KT 10SM BKN030 BKN040 OVC130 08/03 A3010 RMK AO2 SLP197 T00780028=
201402102214 SPECI KATL 102214Z 29007KT 10SM SCT027 BKN040 OVC130 09/03 A3008 RMK AO2=
201402102152 METAR KATL 102152Z 29008KT 10SM FEW015 BKN027 OVC040 09/03 A3008 RMK AO2 SLP188 T00890033=
201402102052 METAR KATL 102052Z 29005KT 10SM BKN024 BKN030 OVC050 09/03 A3006 RMK AO2 SLP183 T00940033 56013=
201402101952 METAR KATL 101952Z 35008KT 10SM BKN022 BKN030 OVC050 09/03 A3007 RMK AO2 SLP185 T00940033=
201402101852 METAR KATL 101852Z 31009KT 10SM BKN018 BKN030 OVC050 08/03 A3008 RMK AO2 SLP190 T00830033=
201402101752 METAR KATL 101752Z 35009KT 10SM BKN022 BKN030 OVC050 08/03 A3010 RMK AO2 SLP196 VIRGA N & SE-SW T00780033 10083 20056 58001=
201402101652 METAR KATL 101652Z 32009KT 10SM BKN023 BKN030 OVC050 08/03 A3013 RMK AO2 SLP206 VIRGA SE-S-SW-W-NW T00780033=
201402101552 METAR KATL 101552Z 31006KT 9SM BKN023 BKN030 OVC055 08/03 A3012 RMK AO2 SLP201 VIRGA OHD & ALQDS T00780033=
201402101452 METAR KATL 101452Z 31004KT 9SM BKN023 BKN030 OVC050 08/04 A3010 RMK AO2 SLP197 T00780039 53010=
201402101412 SPECI KATL 101412Z 31003KT 9SM BKN025 OVC055 07/03 A3010 RMK AO2=
201402101352 METAR KATL 101352Z 31003KT 7SM FEW027 OVC050 07/03 A3009 RMK AO2 SLP193 T00670033=
201402101317 SPECI KATL 101317Z 00000KT 8SM SCT027 BKN050 06/03 A3007 RMK AO2=
201402101252 METAR KATL 101252Z 32004KT 8SM BKN027 OVC050 06/03 A3008 RMK AO2 SLP190 T00610028=
201402101225 SPECI KATL 101225Z 28003KT 9SM BKN029 BKN050 OVC100 06/03 A3009 RMK AO2=
201402101152 METAR KATL 101152Z 28003KT 10SM SCT031 OVC100 06/03 A3007 RMK AO2 SLP185 T00560028 10067 20044 53001=
201402101052 METAR KATL 101052Z 00000KT 10SM FEW050 SCT120 BKN150 BKN180 06/03 A3007 RMK AO2 SLP183 T00560028=
201402100952 METAR KATL 100952Z 33003KT 10SM FEW031 BKN044 06/03 A3007 RMK AO2 SLP184 T00560028=
201402100852 METAR KATL 100852Z 32005KT 10SM SCT035 BKN250 04/02 A3007 RMK AO2 SLP184 T00440022 53004=
201402100752 METAR KATL 100752Z 33007KT 10SM BKN250 06/03 A3006 RMK AO2 SLP181 T00560028=
201402100652 METAR KATL 100652Z 30005KT 10SM FEW200 BKN250 06/03 A3006 RMK AO2 SLP179 T00560028=
201402100552 METAR KATL 100552Z 00000KT 10SM FEW200 SCT250 07/03 A3006 RMK AO2 SLP179 T00670033 10133 20056 58012=
201402100452 METAR KATL 100452Z 30004KT 10SM FEW200 SCT250 07/03 A3008 RMK AO2 SLP189 T00720033 401670039=
201402100352 METAR KATL 100352Z 00000KT 10SM FEW250 10/03 A3008 RMK AO2 SLP186 T01000033=
201402100252 METAR KATL 100252Z 31003KT 10SM FEW200 SCT250 10/03 A3009 RMK AO2 SLP193 T01000033 50005=
201402100152 METAR KATL 100152Z 32005KT 10SM FEW150 SCT200 BKN250 10/04 A3010 RMK AO2 SLP195 T01000039=
201402100052 METAR KATL 100052Z 34009KT 10SM SCT150 BKN200 BKN250 12/04 A3009 RMK AO2 SLP191 T01170039=
201402092352 METAR KATL 092352Z 28003KT 10SM FEW050 SCT150 BKN200 BKN250 13/04 A3008 RMK AO2 SLP188 T01330039 10167 20128 53017=
201402092252 METAR KATL 092252Z 26008KT 10SM FEW050 BKN200 BKN250 15/03 A3005 RMK AO2 SLP176 T01500033=
201402092152 METAR KATL 092152Z 25009KT 10SM FEW050 BKN250 16/04 A3003 RMK AO2 SLP172 T01560039=
201402092052 METAR KATL 092052Z 23010KT 10SM FEW050 BKN250 16/03 A3003 RMK AO2 SLP169 T01560028 56026=
201402091952 METAR KATL 091952Z 22011G15KT 10SM FEW040 BKN250 16/03 A3004 RMK AO2 SLP172 T01610033=
201402091852 METAR KATL 091852Z 28008KT 10SM FEW040 BKN250 16/03 A3006 RMK AO2 SLP180 T01560033=
201402091752 METAR KATL 091752Z 32004KT 10SM FEW040 SCT250 14/04 A3011 RMK AO2 SLP197 T01390039 10139 20039 58024=
201402091652 METAR KATL 091652Z 31008G18KT 10SM SCT035 13/03 A3015 RMK AO2 SLP213 T01280033=
201402091552 METAR KATL 091552Z 29007KT 10SM BKN035 11/03 A3017 RMK AO2 SLP220 BKN035 V SCT T01110028=
201402091452 METAR KATL 091452Z 25008KT 10SM BKN033 09/02 A3018 RMK AO2 SLP224 T00890017 53017=
201402091352 METAR KATL 091352Z 00000KT 10SM FEW033 07/02 A3015 RMK AO2 SLP213 T00670017=
201402091252 METAR KATL 091252Z 28003KT 10SM SCT035 SCT150 04/01 A3014 RMK AO2 SLP209 T00440006=
201402091152 METAR KATL 091152Z 30004KT 10SM BKN037 OVC150 04/01 A3013 RMK AO2 SLP206 T00440006 10056 20039 53010=
201402091052 METAR KATL 091052Z 27003KT 10SM BKN039 OVC150 04/01 A3011 RMK AO2 SLP200 T00440006=
201402090952 METAR KATL 090952Z 29003KT 10SM BKN039 04/01 A3011 RMK AO2 SLP197 T00440006=
201402090852 METAR KATL 090852Z 00000KT 10SM BKN040 06/02 A3010 RMK AO2 SLP194 T00560017 56013=
201402090752 METAR KATL 090752Z 25003KT 10SM FEW046 SCT180 SCT250 04/01 A3011 RMK AO2 SLP198 T00440006=
201402090652 METAR KATL 090652Z 00000KT 10SM BKN048 BKN200 05/01 A3012 RMK AO2 SLP200 T00500006=
201402090552 METAR KATL 090552Z 00000KT 10SM FEW120 SCT200 SCT250 05/00 A3014 RMK AO2 SLP208 T00500000 10106 20050 58008=
201402090452 METAR KATL 090452Z 00000KT 10SM FEW120 SCT200 SCT250 06/00 A3016 RMK AO2 SLP215 T00560000 401500028=
201402090352 METAR KATL 090352Z 34004KT 10SM FEW200 06/00 A3015 RMK AO2 SLP214 T00610000=
201402090252 METAR KATL 090252Z 32007KT 10SM FEW250 06/01 A3016 RMK AO2 SLP219 T00610006 53015=
201402090152 METAR KATL 090152Z 34005KT 10SM FEW250 08/00 A3013 RMK AO2 SLP206 T00780000=
201402090052 METAR KATL 090052Z 34006KT 10SM FEW050 SCT200 SCT250 09/00 A3012 RMK AO2 SLP206 T00940000=
201402082352 METAR KATL 082352Z 35005KT 10SM FEW055 SCT200 SCT250 11/01 A3012 RMK AO2 SLP203 T01060006 10150 20106 51002=
201402082252 METAR KATL 082252Z 33005KT 10SM FEW055 SCT200 SCT250 12/01 A3012 RMK AO2 SLP202 T01220006=
201402082152 METAR KATL 082152Z 30008KT 10SM SCT050 SCT200 BKN250 13/01 A3011 RMK AO2 SLP200 T01330011=
201402082052 METAR KATL 082052Z 31011KT 10SM BKN050 14/01 A3011 RMK AO2 SLP199 T01390011 56019=
201402081952 METAR KATL 081952Z 29009KT 10SM BKN050 BKN070 14/00 A3012 RMK AO2 SLP201 T01440000=
201402081852 METAR KATL 081852Z COR 27007KT 10SM SCT080 14/M01 A3014 RMK AO2 SLP209 ACSL NW-NE AND SW-W T01441006=
201402081752 METAR KATL 081752Z 33004KT 10SM FEW065 SCT080 13/M01 A3017 RMK AO2 SLP218 T01281006 10128 20028 58023=
201402081652 METAR KATL 081652Z 00000KT 10SM FEW065 SCT080 11/M02 A3021 RMK AO2 SLP234 T01111017=
201402081552 METAR KATL 081552Z 00000KT 10SM SCT065 BKN080 09/M02 A3023 RMK AO2 SLP242 T00941022=
201402081452 METAR KATL 081452Z 32004KT 10SM OVC065 06/M02 A3024 RMK AO2 SLP244 T00561017 51013=
201402081352 METAR KATL 081352Z 00000KT 10SM BKN070 OVC110 04/M03 A3023 RMK AO2 SLP244 BINOVC T00391028=
201402081252 METAR KATL 081252Z 00000KT 10SM BKN075 BKN120 03/M03 A3020 RMK AO2 SLP234 T00281028=
201402081152 METAR KATL 081152Z 31003KT 10SM BKN080 BKN150 BKN200 03/M03 A3020 RMK AO2 SLP231 T00331028 10044 20028 53002=
201402081052 METAR KATL 081052Z 34006KT 10SM FEW060 SCT085 BKN150 OVC200 03/M03 A3017 RMK AO2 SLP221 T00281028=
201402080952 METAR KATL 080952Z 00000KT 10SM FEW080 SCT120 BKN150 OVC180 03/M03 A3018 RMK AO2 SLP226 VIRGA OHD-SE-SW T00331028=
201402080852 METAR KATL 080852Z 32005KT 10SM SCT120 OVC150 03/M03 A3019 RMK AO2 SLP229 T00331028 56016=
201402080752 METAR KATL 080752Z 02004KT 10SM BKN120 OVC150 04/M03 A3019 RMK AO2 SLP229 T00441033=
201402080652 METAR KATL 080652Z 00000KT 10SM BKN110 BKN150 OVC250 04/M04 A3022 RMK AO2 SLP237 T00391039=
201402080552 METAR KATL 080552Z 00000KT 10SM SCT120 BKN150 BKN250 04/M04 A3024 RMK AO2 SLP245 T00441039 10072 20039 53003=
201402080452 METAR KATL 080452Z 32004KT 10SM BKN150 BKN250 04/M04 A3023 RMK AO2 SLP244 T00391039 401061022=
201402080352 METAR KATL 080352Z VRB05KT 10SM BKN160 BKN250 05/M04 A3023 RMK AO2 SLP244 T00501044=
201402080252 METAR KATL 080252Z 35004KT 10SM BKN170 BKN250 06/M04 A3023 RMK AO2 SLP244 T00611039 58004=
201402080152 METAR KATL 080152Z 34006KT 10SM BKN180 BKN250 06/M04 A3024 RMK AO2 SLP248 T00611039=
201402080052 METAR KATL 080052Z 34005KT 10SM BKN180 OVC250 07/M03 A3025 RMK AO2 SLP250 T00671033=
201402072352 METAR KATL 072352Z 33005KT 10SM BKN180 OVC250 07/M03 A3024 RMK AO2 SLP250 T00721033 10106 20072 53004=
201402072252 METAR KATL 072252Z 33007KT 10SM FEW150 BKN250 08/M04 A3024 RMK AO2 SLP247 T00831039=
201402072152 METAR KATL 072152Z 32005KT 10SM FEW150 BKN250 09/M03 A3023 RMK AO2 SLP245 T00941033=
201402072052 METAR KATL 072052Z 33007KT 10SM FEW150 BKN250 10/M03 A3023 RMK AO2 SLP244 T01001033 56021=
201402071952 METAR KATL 071952Z 32007KT 10SM FEW150 SCT200 BKN250 10/M04 A3025 RMK AO2 SLP250 T01001044=
201402071852 METAR KATL 071852Z 00000KT 10SM BKN250 09/M05 A3026 RMK AO2 SLP253 T00891050=
201402071752 METAR KATL 071752Z VRB04KT 10SM FEW150 SCT200 BKN250 07/M04 A3030 RMK AO2 SLP266 T00721044 10078 21022 58010=
201402071652 METAR KATL 071652Z 34003KT 10SM FEW150 SCT200 BKN250 06/M04 A3032 RMK AO2 SLP276 T00561039=
201402071552 METAR KATL 071552Z 31005KT 10SM BKN250 04/M03 A3033 RMK AO2 SLP278 T00391033=
201402071452 METAR KATL 071452Z 31003KT 9SM SCT250 01/M04 A3033 RMK AO2 SLP279 T00111039 53013=
201402071352 METAR KATL 071352Z 33007KT 10SM FEW022 SCT150 SCT200 SCT250 M01/M04 A3031 RMK AO2 SLP274 T10111044=
201402071252 METAR KATL 071252Z 33008KT 9SM SCT200 M02/M04 A3028 RMK AO2 SLP265 T10221044=
201402071152 METAR KATL 071152Z 31007KT 9SM FEW200 M02/M04 A3029 RMK AO2 SLP266 T10221044 10000 21022 53004=
201402071052 METAR KATL 071052Z 33005KT 9SM FEW200 M02/M04 A3026 RMK AO2 SLP256 T10221044=
201402070952 METAR KATL 070952Z 32005KT 9SM SCT200 M02/M04 A3027 RMK AO2 SLP259 T10171044=
201402070852 METAR KATL 070852Z 32006KT 10SM SCT200 M02/M04 A3027 RMK AO2 SLP260 T10171044 53006=
201402070752 METAR KATL 070752Z 31007KT 10SM CLR M01/M04 A3026 RMK AO2 SLP254 T10111044=
201402070652 METAR KATL 070652Z 32007KT 10SM CLR M01/M04 A3026 RMK AO2 SLP254 T10061039=
201402070552 METAR KATL 070552Z 32006KT 10SM FEW070 00/M05 A3025 RMK AO2 SLP253 60000 T00001050 10022 20000 58013=
201402070452 METAR KATL 070452Z 32004KT 10SM FEW050 BKN070 01/M05 A3026 RMK AO2 SLP256 T00111050 400561022=
201402070352 METAR KATL 070352Z 32004KT 10SM BKN050 OVC070 01/M05 A3029 RMK AO2 SLP265 T00111050=
201402070252 METAR KATL 070252Z 33004KT 10SM FEW050 OVC070 01/M04 A3029 RMK AO2 SLP268 60000 T00111044 53001=
201402070152 METAR KATL 070152Z 34006KT 10SM FEW050 OVC070 01/M04 A3028 RMK AO2 SNB0053E03 SLP264 P0000 T00111044=
201402070052 METAR KATL 070052Z 35005KT 10SM BKN040 OVC055 01/M04 A3028 RMK AO2 SLP265 SHSN SW-NW T00111044=
201402062352 METAR KATL 062352Z 34014KT 10SM FEW060 BKN075 OVC100 02/M05 A3029 RMK AO2 SLP266 VIRGA OHD-ALQDS T00221050 10056 20022 50016=
201402062252 METAR KATL 062252Z 34006KT 10SM SCT100 BKN120 OVC150 02/M05 A3029 RMK AO2 SLP268 VIRGA OHD-ALQDS T00221050=
201402062152 METAR KATL 062152Z 31014KT 10SM BKN120 BKN150 OVC180 03/M04 A3028 RMK AO2 SLP264 VIRGA OHD & ALQDS T00281044=
201402062052 METAR KATL 062052Z 31009KT 10SM BKN120 BKN150 OVC200 04/M04 A3024 RMK AO2 SLP249 T00391039 55008=
201402061952 METAR KATL 061952Z 34009KT 10SM BKN120 BKN200 BKN250 05/M04 A3020 RMK AO2 SLP235 T00501039=
201402061857 SPECI KATL 061857Z 00000KT 10SM BKN140 BKN200 BKN240 06/M03 A3023 RMK AO2=
201402061852 METAR KATL 061852Z COR 33008KT 10SM BKN014 BKN200 BKN240 06/M03 A3023 RMK AO2 SLP245 T00561033=
201402061752 METAR KATL 061752Z 00000KT 10SM BKN140 BKN200 BKN250 05/M04 A3026 RMK AO2 SLP256 T00501044 10050 21017 58012=
201402061652 METAR KATL 061652Z VRB06KT 10SM SCT140 SCT200 BKN250 04/M04 A3029 RMK AO2 SLP266 T00391039=
201402061552 METAR KATL 061552Z VRB05KT 10SM BKN140 BKN200 BKN250 01/M06 A3031 RMK AO2 SLP275 T00061056=
201402061452 METAR KATL 061452Z 33011KT 10SM BKN140 BKN200 BKN250 M01/M06 A3030 RMK AO2 SLP269 T10061061 51018=
201402061352 METAR KATL 061352Z 34011G17KT 10SM SCT130 BKN200 BKN250 M01/M06 A3029 RMK AO2 SLP266 T10111061=
201402061252 METAR KATL 061252Z 32010KT 10SM BKN130 BKN200 OVC250 M02/M06 A3028 RMK AO2 SLP264 VIRGA DSNT SE-SW T10171061=
201402061152 METAR KATL 061152Z 34011KT 10SM SCT150 BKN200 OVC250 M02/M06 A3024 RMK AO2 SLP250 T10171061 11006 21022 53008=
201402061052 METAR KATL 061052Z 33011KT 10SM FEW020 SCT150 BKN200 OVC250 M02/M07 A3024 RMK AO2 SLP248 T10221067=
201402060952 METAR KATL 060952Z 32009KT 10SM FEW020 SCT150 BKN200 BKN250 M02/M06 A3022 RMK AO2 SLP241 T10171061=
201402060852 METAR KATL 060852Z 33015KT 10SM FEW018 SCT200 BKN250 M02/M06 A3022 RMK AO2 SLP241 T10221061 53002=
201402060752 METAR KATL 060752Z 33010KT 10SM FEW018 SCT200 BKN250 M02/M06 A3021 RMK AO2 SLP238 T10171061=
201402060652 METAR KATL 060652Z 33010KT 10SM FEW018 SCT200 BKN250 M02/M06 A3021 RMK AO2 SLP237 T10171056=
201402060619 SPECI KATL 060619Z 35012G17KT 10SM SCT018 BKN250 M01/M06 A3021 RMK AO2=
201402060552 METAR KATL 060552Z 34015G23KT 10SM BKN020 BKN250 M01/M05 A3021 RMK AO2 PK WND 33027/0502 SLP237 T10061050 10033 21006 51011=
201402060452 METAR KATL 060452Z 35013KT 10SM BKN020 BKN250 01/M03 A3020 RMK AO2 SLP232 BKN020 V SCT T00061033 401170006=
201402060352 METAR KATL 060352Z 33020G25KT 10SM BKN025 BKN250 02/M03 A3019 RMK AO2 SLP229 T00171033=
201402060252 METAR KATL 060252Z 32013G21KT 10SM SCT027 BKN250 02/M03 A3018 RMK AO2 PK WND 32028/0156 SLP224 SCT V BKN T00221028 53013=
201402060152 METAR KATL 060152Z 33017G26KT 10SM OVC025 03/M02 A3015 RMK AO2 PK WND 32028/0118 SLP216 BINOVC T00281022=
201402060052 METAR KATL 060052Z 33017G27KT 10SM OVC026 03/M02 A3015 RMK AO2 PK WND 31027/0050 SLP215 T00281022=
201402052352 METAR KATL 052352Z 30015G23KT 10SM OVC023 03/M02 A3014 RMK AO2 PK WND 35027/2326 SLP211 T00331017 10083 20033 51019=
201402052252 METAR KATL 052252Z 30015G26KT 10SM OVC025 04/M01 A3012 RMK AO2 PK WND 33029/2235 SLP204 T00391011=
201402052152 METAR KATL 052152Z 31017G23KT 10SM BKN025 BKN028 BKN250 06/M01 A3011 RMK AO2 PK WND 32026/2104 SLP199 T00561006=
201402052052 METAR KATL 052052Z 29016G22KT 10SM BKN024 BKN028 BKN250 07/01 A3008 RMK AO2 SLP191 T00670011 53011=
201402051952 METAR KATL 051952Z 29017G23KT 10SM BKN024 BKN028 BKN250 07/02 A3006 RMK AO2 SLP183 T00670017=
201402051852 METAR KATL 051852Z 30015G22KT 10SM BKN017 BKN020 OVC026 07/03 A3005 RMK AO2 SLP181 T00720028=
201402051752 METAR KATL 051752Z 32019G24KT 10SM BKN022 BKN026 09/04 A3005 RMK AO2 SLP179 60000 T00890044 10117 20078 51018=
201402051652 METAR KATL 051652Z 29017G24KT 10SM SCT018 BKN020 BKN028 09/05 A3004 RMK AO2 SLP176 T00940050=
201402051552 METAR KATL 051552Z 31017G20KT 10SM BKN020 BKN025 11/07 A3002 RMK AO2 SLP169 T01060067=
201402051452 METAR KATL 051452Z 29012KT 10SM FEW010 BKN016 BKN024 11/09 A3000 RMK AO2 SLP160 60000 T01110094 51025=
201402051409 SPECI KATL 051409Z 31010KT 8SM FEW002 SCT030 SCT110 10/09 A2998 RMK AO2=
201402051352 METAR KATL 051352Z 31011KT 2SM BR BCFG SCT002 SCT110 09/09 A2997 RMK AO2 SLP153 T00940089=
201402051340 SPECI KATL 051340Z 31010KT 2SM R09R/1600V6000FT BR SCT002 SCT110 08/08 A2997 RMK AO2=
201402051335 SPECI KATL 051335Z 31010KT 1/2SM R09R/1600V1800FT FG BKN002 08/08 A2996 RMK AO2 TWR VIS 1=
201402051333 SPECI KATL 051333Z 32009KT 1/2SM R09R/1600V2400FT FG BKN002 08/08 A2996 RMK AO2 TWR VIS 1=
201402051316 SPECI KATL 051316Z 31005KT 1 1/2SM BR OVC003 08/07 A2996 RMK AO2 SFC VIS 4 CIG 002V004 BINOVC TWRINC=
201402051252 METAR KATL 051252Z 00000KT 1 1/2SM BR OVC004 08/08 A2995 RMK AO2 SFC VIS 6 DZE04 SLP145 CIG 003V005 TWRINC P0000 T00830078=
201402051236 SPECI KATL 051236Z 00000KT 1 1/2SM BR OVC003 08/07 A2994 RMK AO2 SFC VIS 6 DZE04 P0000=
201402051215 SPECI KATL 051215Z 33003KT 2SM BR OVC004 08/07 A2993 RMK AO2 SFC VIS 6 DZE04 CIG 003V005 P0000=
201402051152 METAR KATL 051152Z 31003KT 3SM -DZ BR OVC004 08/07 A2992 RMK AO2 RAB1058E17DZB51 SLP135 P0000 60048 70063 T00830072 10083 20056 51022=
201402051052 METAR KATL 051052Z 08003KT 7SM BKN006 BKN019 OVC065 08/07 A2989 RMK AO2 RAE42 SLP124 CIG 005V008 P0012 T00780072 $=
201402051042 SPECI KATL 051042Z 09003KT 5SM BR BKN008 OVC016 08/07 A2989 RMK AO2 RAE42 CIG 006V010 P0012 $=
201402051026 SPECI KATL 051026Z 09004KT 4SM RA BR SCT010 BKN024 OVC065 07/07 A2988 RMK AO2 P0005 $=
201402051010 SPECI KATL 051010Z 09004KT 8SM -RA BKN013 BKN022 OVC060 08/07 A2989 RMK AO2 P0003 $=
201402050958 SPECI KATL 050958Z 00000KT 2SM -RA BR FEW008 BKN013 OVC022 07/06 A2990 RMK AO2 SFC VIS 4 CIG 011V016 P0001 $=
201402050952 METAR KATL 050952Z 00000KT 2SM RA BR FEW004 SCT026 OVC050 07/07 A2991 RMK AO2 SFC VIS 2 1/2 SLP130 P0027 T00720067 $=
201402050942 SPECI KATL 050942Z VRB03KT 2SM +RA BR SCT004 OVC009 07/07 A2991 RMK AO2 P0022 $=
201402050929 SPECI KATL 050929Z 32006G25KT 1SM -RA BR BKN004 BKN011 OVC029 07/06 A2991 RMK AO2 SFC VIS 2 CIG 003V006 P0014 $=
201402050918 SPECI KATL 050918Z VRB04G14KT 1SM -RA BR BKN004 BKN016 OVC029 07/06 A2985 RMK AO2 SFC VIS 5 TWRINC P0011=
201402050852 METAR KATL 050852Z 11011G16KT 1/2SM -RA BR OVC004 06/06 A2985 RMK AO2 SFC VIS 5 PRESFR SLP112 CIG 003V005 TWRINC P0006 60009 T00610056 58040=
201402050752 METAR KATL 050752Z 13006KT 1/2SM -RA BR BKN003 OVC009 06/06 A2991 RMK AO2 SFC VIS 3 SLP131 P0002 T00560056=
201402050652 METAR KATL 050652Z 09009KT 1/2SM -RA BR OVC002 06/06 A2994 RMK AO2 SFC VIS 1 1/2 DZE36RAB36 PRESFR SLP143 P0001 T00560056=
201402050552 METAR KATL 050552Z 11007KT 1/2SM R09R/5000V6000FT -DZ BR OVC002 06/06 A2997 RMK AO2 SFC VIS 1 SLP154 P0000 60000 T00560056 10061 20056 58022=
201402050452 METAR KATL 050452Z 13009KT 1/2SM -DZ BR OVC003 06/05 A3002 RMK AO2 SFC VIS 1 1/2 SLP169 P0000 T00560050 400830033=
201402050352 METAR KATL 050352Z 12008KT 1/2SM -DZ BR OVC003 06/05 A3002 RMK AO2 SFC VIS 1 1/2 SLP170 P0000 T00560050=
201402050252 METAR KATL 050252Z 10011KT 1/2SM -DZ BR OVC003 06/05 A3004 RMK AO2 SFC VIS 1 3/4 SLP176 P0000 60000 T00560050 58003=
201402050152 METAR KATL 050152Z 11012G17KT 1/2SM -DZ BR OVC003 06/05 A3005 RMK AO2 SFC VIS 1 1/2 SLP179 CIG 002V004 P0000 T00560050=
201402050052 METAR KATL 050052Z 09012G16KT 1/2SM R09R/6000VP6000FT -DZ BR OVC002 06/05 A3006 RMK AO2 SFC VIS 1 SLP184 CIG 001V003 P0000 T00560050=
201402042352 METAR KATL 042352Z 11010KT 1/2SM R09R/2800V3500FT -DZ BR VV002 06/06 A3005 RMK AO2 SLP180 P0000 60015 T00610056 10078 20061 58006=
201402042252 METAR KATL 042252Z 10009G17KT 1/2SM -DZ BR OVC003 06/06 A3006 RMK AO2 SFC VIS 3 RAE10DZB47 SLP184 TWRINC P0000 T00610056=
201402042225 SPECI KATL 042225Z 11011G15KT 1SM OVC004 07/06 A3007 RMK AO2 SFC VIS 7 RAE10 CIG 003V006 P0000=
201402042152 METAR KATL 042152Z 10009KT 1 1/4SM -RA BR OVC004 07/06 A3007 RMK AO2 SFC VIS 4 RAE2058B21DZB01E21 SLP187 P0010 T00670056=
201402042149 SPECI KATL 042149Z 10010KT 1 1/4SM -RA BR OVC004 07/06 A3007 RMK AO2 SFC VIS 3 RAE2058B21DZB01E21 P0010=
201402042123 SPECI KATL 042123Z 09012KT 1/2SM R09R/4500VP6000FT -RA BR OVC004 07/06 A3007 RMK AO2 SFC VIS 1 1/2 RAE2058B21DZB01E21 P0001=
201402042101 SPECI KATL 042101Z 08014KT 1/2SM -DZ BR OVC006 07/06 A3007 RMK AO2 SFC VIS 4 RAE2058DZB01 P0000=
201402042052 METAR KATL 042052Z 08010KT 1 1/2SM -RA BR OVC006 07/06 A3007 RMK AO2 SFC VIS 5 DZE42RAB42 SLP187 P0005 60005 T00720061 56022=
201402042037 SPECI KATL 042037Z 08014KT 3/4SM R09R/5500VP6000FT -DZ BR OVC005 07/07 A3007 RMK AO2 SFC VIS 2 P0004=
201402041952 METAR KATL 041952Z 12011G20KT 1SM -DZ BR OVC005 07/07 A3007 RMK AO2 SFC VIS 4 SLP188 P0000 T00720067=
201402041852 METAR KATL 041852Z 10016KT 1 1/2SM -DZ BR OVC005 08/07 A3010 RMK AO2 SFC VIS 2 1/2 SLP197 P0000 T00780067=
201402041752 METAR KATL 041752Z 10013G18KT 1 1/2SM -DZ BR OVC006 08/07 A3014 RMK AO2 SFC VIS 4 SLP210 P0000 60000 T00780067 10083 20078 58021=
201402041652 METAR KATL 041652Z 10013G19KT 1 1/2SM -DZ BR OVC006 08/07 A3017 RMK AO2 SFC VIS 4 SLP223 P0000 T00780067=
201402041552 METAR KATL 041552Z 09013KT 1 1/2SM -DZ BR OVC006 08/07 A3020 RMK AO2 SFC VIS 3 SLP230 P0000 T00780067=
201402041500 SPECI KATL 041500Z 07012G17KT 1 1/2SM -DZ BR OVC006 08/07 A3020 RMK AO2 SFC VIS 3 P0000=
201402041452 METAR KATL 041452Z 08014KT 2SM -DZ BR OVC006 08/07 A3020 RMK AO2 SFC VIS 4 DZE18B44 SLP232 P0000 60000 T00830067 51013=
201402041418 SPECI KATL 041418Z 07011KT 2 1/2SM BR OVC008 08/06 A3020 RMK AO2 SFC VIS 4 DZE18 P0000=
201402041352 METAR KATL 041352Z 07011KT 7SM -DZ OVC009 08/06 A3019 RMK AO2 DZE23B42 SLP229 P0000 T00780061=
201402041252 METAR KATL 041252Z 09011KT 8SM -DZ BKN009 OVC018 08/06 A3017 RMK AO2 DZB51 SLP222 PCPN VRY LGT P0000 T00780056=
201402041245 SPECI KATL 041245Z 09011KT 10SM BKN009 OVC018 08/06 A3017 RMK AO2=
201402041152 METAR KATL 041152Z 08011KT 10SM FEW007 OVC020 08/06 A3016 RMK AO2 SLP218 70002 T00780061 10078 20033 53012=
201402041149 SPECI KATL 041149Z 08009KT 10SM FEW007 OVC019 08/06 A3016 RMK AO2=
201402041052 METAR KATL 041052Z 08009KT 10SM OVC027 07/05 A3014 RMK AO2 SLP212 T00670050=
201402041010 SPECI KATL 041010Z 07008KT 10SM FEW008 BKN029 OVC250 06/04 A3014 RMK AO2=
201402040952 METAR KATL 040952Z 07008KT 10SM FEW040 SCT055 BKN250 06/03 A3013 RMK AO2 SLP209 T00560033=
201402040852 METAR KATL 040852Z 01005KT 10SM FEW050 BKN250 04/02 A3013 RMK AO2 SLP206 T00390022 58003=
201402040752 METAR KATL 040752Z 01004KT 9SM FEW008 SCT250 03/02 A3013 RMK AO2 SLP209 T00330017=
201402040652 METAR KATL 040652Z 01005KT 9SM FEW008 SCT250 03/02 A3013 RMK AO2 SLP208 T00330017=
201402040552 METAR KATL 040552Z 34005KT 10SM SCT250 03/02 A3014 RMK AO2 SLP209 T00330017 10061 20033 58003=
201402040452 METAR KATL 040452Z 33006KT 10SM SCT250 03/02 A3015 RMK AO2 SLP212 T00330022 401830033=
201402040352 METAR KATL 040352Z 32005KT 10SM SCT250 04/02 A3015 RMK AO2 SLP212 T00390022=
201402040252 METAR KATL 040252Z 32006KT 10SM FEW250 04/03 A3015 RMK AO2 SLP212 T00440028 51007=
201402040152 METAR KATL 040152Z 31008KT 10SM FEW250 05/03 A3014 RMK AO2 SLP209 T00500028=
201402040052 METAR KATL 040052Z 31010KT 10SM SCT250 06/03 A3014 RMK AO2 SLP206 T00560033=
201402032352 METAR KATL 032352Z 30005KT 10SM FEW010 BKN250 06/04 A3012 RMK AO2 SLP202 T00610039 10100 20061 53008=
201402032252 METAR KATL 032252Z 31009KT 10SM FEW010 BKN250 07/04 A3011 RMK AO2 SLP195 T00670039=
201402032152 METAR KATL 032152Z 33011KT 8SM FEW010 SCT200 BKN250 07/04 A3010 RMK AO2 SLP192 T00720044=
201402032150 SPECI KATL 032150Z 32010G18KT 8SM FEW010 SCT200 BKN250 07/05 A3010 RMK AO2=
201402032052 METAR KATL 032052Z 30011KT 8SM BKN010 08/06 A3009 RMK AO2 SLP189 T00830056 55000=
201402031952 METAR KATL 031952Z 31010KT 8SM BKN010 09/06 A3008 RMK AO2 SLP183 T00940061=
201402031930 SPECI KATL 031930Z 33011KT 9SM OVC010 09/06 A3008 RMK AO2=
201402031852 METAR KATL 031852Z 31008KT 9SM OVC008 09/07 A3008 RMK AO2 SLP185 T00890067=
201402031752 METAR KATL 031752Z 32013KT 10SM BKN008 BKN010 OVC020 09/08 A3009 RMK AO2 SLP189 60002 T00940078 10150 20094 50003=
201402031730 SPECI KATL 031730Z 33009KT 9SM BKN008 BKN010 OVC020 10/08 A3010 RMK AO2=
201402031652 METAR KATL 031652Z 30011G16KT 9SM BKN010 BKN015 OVC020 11/08 A3010 RMK AO2 SLP190 T01060083=
201402031650 SPECI KATL 031650Z 31009G16KT 9SM BKN008 BKN010 OVC020 11/08 A3010 RMK AO2=
201402031552 METAR KATL 031552Z 32009KT 8SM SCT008 BKN014 BKN020 11/09 A3009 RMK AO2 SLP186 T01060089=
201402031542 SPECI KATL 031542Z 32010KT 8SM FEW008 BKN014 BKN020 11/08 A3008 RMK AO2=
201402031452 METAR KATL 031452Z 32012KT 6SM BR BKN006 BKN008 OVC012 10/09 A3006 RMK AO2 SLP179 60002 T01000089 53028=
201402031443 SPECI KATL 031443Z 32015KT 5SM BR SCT005 BKN008 OVC010 10/09 A3006 RMK AO2=
201402031433 SPECI KATL 031433Z 33014KT 2 1/2SM BR BKN005 BKN008 OVC010 10/09 A3006 RMK AO2 SFC VIS 5=
201402031418 SPECI KATL 031418Z 33016G23KT 1 1/2SM BR FEW005 BKN010 OVC020 13/12 A3003 RMK AO2 SFC VIS 5=
201402031352 METAR KATL 031352Z 27006KT 10SM FEW005 BKN012 OVC019 14/14 A3002 RMK AO2 RAB29E38 SLP162 P0000 T01440139=
201402031350 SPECI KATL 031350Z 27005KT 10SM FEW005 BKN014 OVC080 14/14 A3002 RMK AO2 RAB29E38 P0000=
201402031320 SPECI KATL 031320Z 23004KT 10SM FEW005 BKN021 OVC065 14/14 A3001 RMK AO2=
201402031252 METAR KATL 031252Z 22004KT 10SM FEW005 SCT045 OVC065 14/14 A2998 RMK AO2 RAE12B29E40 SLP150 P0002 T01440139=
201402031152 METAR KATL 031152Z 21006KT 6SM -RA BR SCT005 OVC055 15/14 A2998 RMK AO2 SLP148 P0012 60041 70041 T01500139 10178 20150 53029=
201402031052 METAR KATL 031052Z 27008KT 4SM RA BR FEW005 BKN038 OVC050 16/14 A2997 RMK AO2 WSHFT 1002 SLP142 CB DSPTD P0029 T01560144=
201402031024 SPECI KATL 031024Z 29013G23KT 8SM -RA FEW007 SCT017CB OVC050 17/15 A2994 RMK AO2 WSHFT 1002 CB VC NE-E MOV NE P0027=
201402031017 SPECI KATL 031017Z 29013G23KT 2 1/2SM RA BR FEW007 BKN013CB OVC035 17/16 A2995 RMK AO2 WSHFT 1002 PRESRR CB NE-OHD-S MOV NE P0025=
201402031005 SPECI KATL 031005Z 24014G24KT 1 1/4SM R09R/4500VP6000FT +RA BR FEW009 OVC014CB 17/15 A2991 RMK AO2 PRESRR CB SW-OHD-N MOV NE P0008=
201402030952 METAR KATL 030952Z 23013G22KT 8SM -RA OVC017 18/15 A2990 RMK AO2 RAB23 SLP117 P0000 T01780150=
201402030917 SPECI KATL 030917Z 21013G21KT 10SM BKN020 BKN034 BKN100 OVC250 18/14 A2989 RMK AO2=
201402030852 METAR KATL 030852Z 20012KT 10SM FEW013 SCT050 BKN100 OVC250 18/14 A2989 RMK AO2 SLP115 T01780144 56010=
201402030752 METAR KATL 030752Z 20009KT 10SM FEW013 SCT100 SCT250 17/14 A2989 RMK AO2 SLP115 T01720144=
201402030652 METAR KATL 030652Z 19010KT 10SM FEW015 SCT047 SCT080 BKN250 17/15 A2991 RMK AO2 SLP122 T01720150=
201402030612 SPECI KATL 030612Z 19010G19KT 10SM FEW013 SCT050 BKN080 BKN250 18/15 A2992 RMK AO2=
201402030552 METAR KATL 030552Z 20009G21KT 10SM BKN017 BKN080 18/15 A2992 RMK AO2 SLP128 60000 T01780150 10194 20178 58015=
201402030538 SPECI KATL 030538Z 19013G19KT 10SM BKN017 BKN080 18/15 A2993 RMK AO2=
201402030452 METAR KATL 030452Z 19012G19KT 10SM FEW025 SCT050 OVC090 18/14 A2994 RMK AO2 SLP136 T01830144 402330078=
201402030352 METAR KATL 030352Z 18009G16KT 10SM FEW025 BKN050 OVC080 19/14 A2995 RMK AO2 SLP141 T01890139=
201402030324 SPECI KATL 030324Z 18011KT 10SM SCT024 BKN034 OVC060 19/14 A2997 RMK AO2=
201402030252 METAR KATL 030252Z 19010KT 10SM BKN024 OVC033 19/13 A2997 RMK AO2 SLP145 60000 T01940128 56010=
201402030234 SPECI KATL 030234Z 18009KT 10SM BKN024 OVC043 19/12 A2997 RMK AO2=
201402030152 METAR KATL 030152Z 18011KT 10SM SCT032 BKN100 OVC250 19/12 A2998 RMK AO2 SLP148 T01940122=
201402030052 METAR KATL 030052Z 16008KT 10SM SCT040 BKN065 BKN250 19/13 A2998 RMK AO2 RAE12 SLP151 P0000 T01890133=
201402022352 METAR KATL 022352Z 17007KT 10SM -RA SCT039 BKN055 OVC070 19/14 A3000 RMK AO2 RAB37 SLP157 P0000 60000 T01890139 10233 20156 55001=
201402022252 METAR KATL 022252Z 16008KT 10SM BKN045 BKN060 OVC250 21/13 A3000 RMK AO2 SLP156 T02110128=
201402022152 METAR KATL 022152Z 17007KT 10SM BKN046 BKN250 23/12 A2999 RMK AO2 SLP152 T02280122=
201402022052 METAR KATL 022052Z 16004KT 10SM FEW040 22/12 A3000 RMK AO2 SLP156 T02220122 57032=
201402021952 METAR KATL 021952Z VRB05KT 10SM FEW090 BKN250 22/12 A3004 RMK AO2 SLP169 T02170122=
201402021852 METAR KATL 021852Z VRB03KT 10SM SCT075 BKN090 BKN250 19/12 A3006 RMK AO2 SLP179 T01890117=
201402021752 METAR KATL 021752Z VRB03KT 10SM FEW014 SCT080 BKN250 16/11 A3010 RMK AO2 SLP192 T01610111 10167 20089 58012=
201402021721 SPECI KATL 021721Z VRB04KT 8SM SCT009 BKN250 14/11 A3012 RMK AO2=
201402021652 METAR KATL 021652Z 00000KT 7SM OVC007 12/11 A3012 RMK AO2 SLP203 BINOVC T01170106=
201402021637 SPECI KATL 021637Z 16003KT 6SM BR OVC006 12/11 A3013 RMK AO2=
201402021622 SPECI KATL 021622Z 16004KT 1 1/2SM BR OVC005 12/11 A3013 RMK AO2 SFC VIS 6 TWRINC=
201402021603 SPECI KATL 021603Z 16005KT 3/4SM BR OVC002 11/11 A3014 RMK AO2 SFC VIS 4 TWRINC=
201402021552 METAR KATL 021552Z 18006KT 1/4SM BR OVC002 11/11 A3014 RMK AO2 SFC VIS 2 1/2 SLP206 T01110106=
201402021452 METAR KATL 021452Z 17004KT 1/4SM R09R/2000V2400FT FG VV002 10/10 A3013 RMK AO2 SFC VIS 1/2 SLP205 T01000100 50007=
201402021438 SPECI KATL 021438Z 18005KT 1/4SM R09R/1800V2400FT FG VV002 10/10 A3014 RMK AO2 SFC VIS 1/2=
201402021352 METAR KATL 021352Z 22005KT 1/4SM R09R/1200V1400FT FG VV002 09/09 A3014 RMK AO2 SLP206 T00940094=
201402021252 METAR KATL 021252Z 22003KT 1/4SM R09R/1600V2200FT FG VV002 09/09 A3014 RMK AO2 SLP207 T00940089=
201402021231 SPECI KATL 021231Z 20004KT 1/4SM R09R/1800V2200FT FG VV002 09/09 A3012 RMK AO2=
201402021216 SPECI KATL 021216Z 18005KT 1/4SM R09R/2200V2600FT FG VV002 09/09 A3012 RMK AO2=
201402021206 SPECI KATL 021206Z 19005KT 1/4SM R09R/2200FT FG VV002 09/09 A3012 RMK AO2=
201402021152 METAR KATL 021152Z 19004KT 1/4SM R09R/2200V2400FT FG VV002 09/09 A3011 RMK AO2 DZB08E47 SLP198 P0000 60000 T00890089 10094 20089 53000=
201402021057 SPECI KATL 021057Z 19005KT 1/4SM R09R/2200V3500FT FG OVC002 09/09 A3010 RMK AO2 SFC VIS 1/2=
201402021052 METAR KATL 021052Z 19006KT 1/2SM R09R/2200V2400FT FG OVC002 09/09 A3009 RMK AO2 SLP191 T00890089=
201402021019 SPECI KATL 021019Z 20005KT 1/4SM R09R/1800V2800FT FG OVC002 09/09 A3009 RMK AO2 TWR VIS 1/2=
201402021011 SPECI KATL 021011Z 19005KT 1/4SM R09R/1800V2000FT FG OVC002 09/09 A3010 RMK AO2 TWR VIS 1/2=
201402020958 SPECI KATL 020958Z 20007KT 1/2SM R09R/1800V2800FT FG OVC002 09/09 A3009 RMK AO2=
201402020952 METAR KATL 020952Z 19005KT 1/4SM R09R/1800V2000FT FG OVC002 09/09 A3009 RMK AO2 TWR VIS 1/2 SLP191 T00890089=
201402020935 SPECI KATL 020935Z 00000KT 1/4SM R09R/1800V2200FT FG VV002 09/09 A3010 RMK AO2 TWR VIS 1/2=
201402020852 METAR KATL 020852Z 22007KT 1/2SM R09R/2000V3000FT FG OVC002 09/09 A3011 RMK AO2 SLP197 T00940089 53001=
201402020846 SPECI KATL 020846Z 21007KT 1/2SM R09R/2000V3000FT FG OVC002 09/09 A3011 RMK AO2=
201402020843 SPECI KATL 020843Z 21006KT 1/2SM R09R/2000V2200FT FG OVC002 09/09 A3011 RMK AO2=
201402020821 SPECI KATL 020821Z 20007KT 1/2SM R09R/2000V2400FT FG OVC002 09/09 A3011 RMK AO2=
201402020752 METAR KATL 020752Z 20007KT 1/4SM R09R/1800V2200FT FG OVC002 09/09 A3010 RMK AO2 TWR VIS 1/2 SLP193 T00940089=
201402020728 SPECI KATL 020728Z 19006KT 1/4SM R09R/1800V2000FT FG OVC002 09/09 A3010 RMK AO2 TWR VIS 1/2=
201402020716 SPECI KATL 020716Z 18006KT 1/2SM R09R/2000V2800FT FG OVC002 09/09 A3010 RMK AO2=
201402020652 METAR KATL 020652Z 18007KT 1/4SM R09R/2000FT FG OVC002 09/09 A3011 RMK AO2 TWR VIS 1/2 SLP196 T00890089=
201402020552 METAR KATL 020552Z 17006KT 1/4SM R09R/1400V1600FT FG OVC002 09/08 A3012 RMK AO2 TWR VIS 1/2 SLP199 T00890083 10128 20078 56007=
201402020546 SPECI KATL 020546Z 17005KT 1/4SM R09R/1600V2400FT FG OVC002 09/09 A3012 RMK AO2 TWR VIS 1/2=
201402020539 SPECI KATL 020539Z 18006KT 1/2SM R09R/2200V5000FT FG OVC002 09/08 A3012 RMK AO2=
201402020518 SPECI KATL 020518Z 17005KT 1SM BR BKN004 08/07 A3012 RMK AO2 SFC VIS 6=
201402020514 SPECI KATL 020514Z 16005KT 8SM BKN004 08/07 A3012 RMK AO2=
201402020452 METAR KATL 020452Z 16006KT 10SM SCT030 08/06 A3013 RMK AO2 SLP204 T00830061 401440000=
201402020352 METAR KATL 020352Z 16003KT 10SM FEW030 SCT200 09/06 A3014 RMK AO2 SLP209 T00940056=
201402020252 METAR KATL 020252Z 00000KT 10SM FEW030 SCT200 11/06 A3014 RMK AO2 SLP209 T01060061 51009=
201402020229 SPECI KATL 020229Z 15004KT 10SM SCT030 SCT200 11/06 A3014 RMK AO2=
201402020152 METAR KATL 020152Z 16003KT 10SM OVC027 12/06 A3014 RMK AO2 SLP208 T01220061=
201402020052 METAR KATL 020052Z 00000KT 10SM OVC027 12/06 A3013 RMK AO2 SLP206 T01220061=
201402012352 METAR KATL 012352Z 16003KT 10SM OVC027 12/07 A3011 RMK AO2 SLP201 T01220067 10144 20117 53003=
201402012252 METAR KATL 012252Z 14003KT 10SM OVC023 13/06 A3011 RMK AO2 SLP200 BINOVC T01330061=
201402012152 METAR KATL 012152Z 16003KT 10SM OVC023 14/05 A3010 RMK AO2 SLP197 T01390050=
201402012052 METAR KATL 012052Z 00000KT 10SM OVC024 14/03 A3010 RMK AO2 SLP197 T01390033 55012=
201402011952 METAR KATL 011952Z 00000KT 10SM SCT019 BKN025 BKN200 14/05 A3010 RMK AO2 SLP195 T01440050=
201402011852 METAR KATL 011852Z 16005KT 10SM OVC017 12/02 A3011 RMK AO2 SLP200 T01220017=
201402011752 METAR KATL 011752Z 13004KT 10SM SCT017 OVC024 12/M01 A3014 RMK AO2 SLP209 T01171006 10117 20017 58014=
201402011652 METAR KATL 011652Z 15006KT 10SM OVC023 10/M03 A3017 RMK AO2 SLP221 T01001033=
201402011552 METAR KATL 011552Z 10005KT 10SM OVC020 08/M05 A3019 RMK AO2 SLP227 T00831050=
201402011452 METAR KATL 011452Z 08004KT 10SM BKN024 BKN035 07/M04 A3018 RMK AO2 SLP225 T00721044 52010=
201402011352 METAR KATL 011352Z 06003KT 10SM OVC035 06/M04 A3018 RMK AO2 SLP223 BINOVC T00561039=
201402011252 METAR KATL 011252Z 05004KT 10SM BKN041 04/M03 A3016 RMK AO2 SLP217 T00391033=
