##########################################################
# Query made at 04/19/2024 23:40:29 UTC
# Time interval: from 10/01/2014 12:00  to 10/31/2014 12:59  UTC
##########################################################

##########################################################
# KATL, Atlanta, Hartsfield - Jackson Atlanta International Airport (United States)
# WMO index: 72219. WIGOS ID: 0-20000-0-72219
# Latitude 33-38-59N. Longitude 084-25-00W. Altitude 312 m.
##########################################################

201410311252 METAR KATL 311252Z 02006KT 10SM FEW080 SCT130 SCT200 BKN250 09/04 A2993 RMK AO2 SLP135 VIRGA DSNT N & E-SE & NW ACC DSNT N & E & SE & NW T00940044=
201410311152 METAR KATL 311152Z 30005KT 10SM FEW075 SCT130 BKN200 BKN250 07/04 A2993 RMK AO2 SLP136 VIRGA DSNT ALQDS ACC DSNT E & SE-S & NW T00720044 10089 20067 56000=
201410311052 METAR KATL 311052Z 31008KT 10SM SCT140 BKN200 BKN250 07/04 A2993 RMK AO2 SLP136 T00720044=
201410310952 METAR KATL 310952Z 30008KT 10SM FEW150 SCT200 SCT250 07/04 A2993 RMK AO2 SLP133 T00720044=
201410310852 METAR KATL 310852Z 31003KT 10SM FEW200 SCT250 07/04 A2993 RMK AO2 SLP134 T00670039 58012=
201410310752 METAR KATL 310752Z 29007KT 10SM SCT250 08/04 A2995 RMK AO2 SLP140 T00780044=
201410310652 METAR KATL 310652Z 30006KT 10SM FEW250 08/05 A2996 RMK AO2 SLP142 T00830050=
201410310552 METAR KATL 310552Z 31006KT 10SM FEW250 09/05 A2997 RMK AO2 SLP147 T00890050 10139 20089 56005=
201410310452 METAR KATL 310452Z 30004KT 10SM FEW250 10/04 A2997 RMK AO2 SLP147 T01000044 402000072=
201410310352 METAR KATL 310352Z 28003KT 10SM CLR 11/04 A2998 RMK AO2 SLP149 T01060044=
201410310252 METAR KATL 310252Z 00000KT 10SM CLR 12/04 A2998 RMK AO2 SLP152 T01170044 55001=
201410310152 METAR KATL 310152Z 31005KT 10SM CLR 12/04 A2998 RMK AO2 SLP151 T01170044=
201410310052 METAR KATL 310052Z 32005KT 10SM CLR 13/04 A2999 RMK AO2 SLP155 T01280039=
201410302352 METAR KATL 302352Z 31006KT 10SM CLR 14/03 A2999 RMK AO2 SLP155 T01390033 10200 20139 50002=
201410302252 METAR KATL 302252Z 31006KT 10SM CLR 16/02 A2999 RMK AO2 SLP155 T01610022=
201410302152 METAR KATL 302152Z 31008KT 10SM CLR 18/01 A2998 RMK AO2 SLP152 T01830006=
201410302052 METAR KATL 302052Z 33004KT 10SM CLR 19/02 A2998 RMK AO2 SLP149 T01940017 56018=
201410301952 METAR KATL 301952Z 31007KT 10SM CLR 19/03 A2998 RMK AO2 SLP151 T01940033=
201410301852 METAR KATL 301852Z 31006KT 10SM CLR 19/03 A3000 RMK AO2 SLP157 T01890033=
201410301752 METAR KATL 301752Z 20004KT 10SM CLR 17/04 A3003 RMK AO2 SLP169 T01720039 10183 20072 58020=
201410301652 METAR KATL 301652Z 36003KT 10SM FEW055 18/04 A3006 RMK AO2 SLP179 T01780044=
201410301552 METAR KATL 301552Z 02005KT 10SM FEW050 17/04 A3009 RMK AO2 SLP187 T01670039=
201410301452 METAR KATL 301452Z 02007KT 10SM FEW050 15/04 A3009 RMK AO2 SLP189 T01500044 50008=
201410301352 METAR KATL 301352Z 35006KT 10SM FEW050 12/06 A3009 RMK AO2 SLP190 T01220056=
201410301252 METAR KATL 301252Z 34006KT 10SM CLR 09/06 A3008 RMK AO2 SLP188 T00890061=
201410301152 METAR KATL 301152Z 32006KT 10SM CLR 07/06 A3007 RMK AO2 SLP183 70015 T00720056 10100 20072 53009=
201410301052 METAR KATL 301052Z 33008KT 10SM CLR 08/06 A3005 RMK AO2 SLP178 T00780061=
201410300952 METAR KATL 300952Z 33006KT 10SM CLR 08/06 A3005 RMK AO2 SLP174 T00780061=
201410300852 METAR KATL 300852Z 33009KT 10SM CLR 09/07 A3004 RMK AO2 SLP172 T00890067 55004=
201410300752 METAR KATL 300752Z 32009KT 10SM CLR 09/07 A3003 RMK AO2 SLP168 T00890072=
201410300652 METAR KATL 300652Z 31005KT 10SM CLR 09/07 A3004 RMK AO2 SLP171 T00940072=
201410300552 METAR KATL 300552Z 31006KT 10SM CLR 10/08 A3005 RMK AO2 SLP174 T01000078 10139 20100 58003=
201410300452 METAR KATL 300452Z 31007KT 10SM CLR 10/08 A3006 RMK AO2 SLP176 T01000078 402280100=
201410300352 METAR KATL 300352Z 31005KT 10SM CLR 11/08 A3006 RMK AO2 SLP178 T01110083=
201410300252 METAR KATL 300252Z 32006KT 10SM CLR 12/09 A3006 RMK AO2 SLP177 T01170089 51002=
201410300152 METAR KATL 300152Z 31007KT 10SM FEW200 12/09 A3006 RMK AO2 SLP177 T01220089=
201410300052 METAR KATL 300052Z 32009KT 10SM SCT200 13/09 A3006 RMK AO2 SLP177 T01330094=
201410292352 METAR KATL 292352Z 32007KT 10SM BKN200 14/10 A3005 RMK AO2 SLP175 60000 T01390100 10228 20139 53009=
201410292252 METAR KATL 292252Z 31010KT 10SM FEW030 SCT150 15/11 A3004 RMK AO2 SLP171 T01500111=
201410292152 METAR KATL 292152Z 32011KT 10SM FEW030 SCT120 SCT250 16/12 A3003 RMK AO2 SLP165 T01610122=
201410292104 SPECI KATL 292104Z 32011KT 10SM FEW012 SCT028 BKN050 BKN250 16/13 A3003 RMK AO2=
201410292052 METAR KATL 292052Z 32012KT 10SM FEW012 BKN025 BKN030 16/13 A3003 RMK AO2 WSHFT 1953 RAB08E20 SLP166 P0000 60000 T01610128 53001=
201410292007 SPECI KATL 292007Z 34014KT 10SM FEW009 BKN015 BKN035 18/16 A3002 RMK AO2 WSHFT 1953=
201410291952 METAR KATL 291952Z 28010KT 10SM FEW015 BKN020 BKN035 21/17 A3001 RMK AO2 SLP156 T02060167=
201410291910 SPECI KATL 291910Z 27007KT 10SM SCT018 BKN030 BKN050 22/17 A3002 RMK AO2=
201410291852 METAR KATL 291852Z 29009KT 10SM BKN018 BKN027 BKN050 21/17 A3002 RMK AO2 SLP162 T02110167=
201410291849 SPECI KATL 291849Z 29010KT 10SM BKN018 BKN025 BKN050 22/17 A3003 RMK AO2=
201410291752 METAR KATL 291752Z 28009KT 10SM FEW015 SCT070 SCT110 22/18 A3004 RMK AO2 SLP167 60015 T02170178 10222 20150 58016=
201410291705 SPECI KATL 291705Z 23007KT 10SM FEW008 SCT040 BKN110 BKN150 19/17 A3005 RMK AO2=
201410291652 METAR KATL 291652Z 22007KT 10SM FEW014 SCT040 BKN095 18/17 A3006 RMK AO2 RAE39 SLP176 P0002 T01830167=
201410291552 METAR KATL 291552Z 24004KT 8SM -RA FEW040 SCT050 OVC100 17/16 A3009 RMK AO2 SLP187 P0002 T01720161=
201410291452 METAR KATL 291452Z 26003KT 6SM -RA BR FEW040 BKN050 OVC070 17/16 A3009 RMK AO2 SLP185 P0006 60011 T01720156 50005=
201410291352 METAR KATL 291352Z 27007KT 3SM -RA BR FEW040 SCT050 OVC060 16/15 A3011 RMK AO2 SFC VIS 5 RAB25 SLP190 SHRA W-N P0005 T01610150=
201410291335 SPECI KATL 291335Z 28011KT 2SM RA BR FEW030 BKN050 OVC070 17/15 A3011 RMK AO2 SFC VIS 3 RAB25 SHRA W-N P0001=
201410291328 SPECI KATL 291328Z 29011KT 6SM -RA BR FEW028 BKN049 OVC065 17/15 A3011 RMK AO2 RAB25 SHRA W-N P0000=
201410291303 SPECI KATL 291303Z 26005KT 7SM BKN020 BKN080 BKN250 17/15 A3010 RMK AO2 SHRA W-N=
201410291252 METAR KATL 291252Z 26006KT 7SM FEW015 BKN080 BKN250 17/14 A3009 RMK AO2 SLP186 TCU DSNT W-N SHRA W-N T01670144=
201410291152 METAR KATL 291152Z 23003KT 8SM FEW015 SCT065 SCT250 15/14 A3007 RMK AO2 SLP179 T01500139 10167 20144 58000=
201410291052 METAR KATL 291052Z 22003KT 10SM FEW065 SCT250 14/13 A3008 RMK AO2 SLP181 T01440128=
201410290952 METAR KATL 290952Z 21004KT 10SM FEW250 14/13 A3008 RMK AO2 SLP181 T01440133=
201410290852 METAR KATL 290852Z 22003KT 10SM SCT220 14/13 A3007 RMK AO2 SLP178 T01440128 56007=
201410290752 METAR KATL 290752Z 00000KT 10SM BKN250 16/13 A3008 RMK AO2 SLP179 T01560133=
201410290652 METAR KATL 290652Z 00000KT 10SM BKN250 16/13 A3009 RMK AO2 SLP183 T01560133=
201410290552 METAR KATL 290552Z 27005KT 10SM BKN250 16/14 A3010 RMK AO2 SLP186 T01610139 10194 20161 53002=
201410290452 METAR KATL 290452Z 23003KT 10SM BKN250 16/14 A3009 RMK AO2 SLP183 T01610139 402500150=
201410290352 METAR KATL 290352Z 00000KT 10SM BKN250 16/14 A3009 RMK AO2 SLP185 T01610139=
201410290252 METAR KATL 290252Z 20003KT 10SM BKN250 17/13 A3009 RMK AO2 SLP185 T01720133 56004=
201410290152 METAR KATL 290152Z 22003KT 10SM FEW200 BKN250 18/13 A3009 RMK AO2 SLP185 T01780128=
201410290052 METAR KATL 290052Z 00000KT 10SM FEW200 BKN250 19/13 A3010 RMK AO2 SLP189 T01890128=
201410282352 METAR KATL 282352Z 20003KT 10SM FEW200 BKN250 19/13 A3011 RMK AO2 SLP190 T01940128 10250 20194 58002=
201410282252 METAR KATL 282252Z 20005KT 10SM SCT200 BKN250 21/13 A3011 RMK AO2 SLP191 T02060128=
201410282152 METAR KATL 282152Z 20006KT 10SM SCT200 BKN250 23/13 A3011 RMK AO2 SLP190 T02280133=
201410282052 METAR KATL 282052Z 22003KT 10SM FEW045 SCT200 BKN250 24/13 A3011 RMK AO2 SLP191 T02390128 56014=
201410281952 METAR KATL 281952Z 26007KT 10SM FEW038 BKN200 BKN250 25/14 A3012 RMK AO2 SLP194 T02500139=
201410281852 METAR KATL 281852Z 31007KT 10SM FEW040 BKN200 BKN250 24/15 A3013 RMK AO2 SLP197 T02390150=
201410281752 METAR KATL 281752Z 27006KT 10SM FEW040 SCT200 BKN250 24/13 A3015 RMK AO2 SLP204 T02440133 10244 20150 58006=
201410281704 SPECI KATL 281704Z 28007KT 9SM FEW020 BKN034 BKN250 23/16 A3018 RMK AO2=
201410281652 METAR KATL 281652Z 27006KT 8SM FEW018 BKN025 BKN250 23/16 A3018 RMK AO2 SLP212 T02280161=
201410281554 SPECI KATL 281554Z 23005KT 6SM HZ FEW005 SCT011 BKN250 20/16 A3018 RMK AO2=
201410281552 METAR KATL 281552Z 25005KT 5SM HZ SCT005 SCT200 BKN250 19/16 A3018 RMK AO2 SLP215 T01940161=
201410281547 SPECI KATL 281547Z 26007KT 5SM HZ SCT005 SCT200 BKN250 19/16 A3018 RMK AO2=
201410281525 SPECI KATL 281525Z 23006KT 5SM HZ BKN005 BKN200 OVC250 19/16 A3018 RMK AO2=
201410281503 SPECI KATL 281503Z 27006KT 5SM HZ BKN007 BKN200 BKN250 19/17 A3017 RMK AO2=
201410281452 METAR KATL 281452Z 26006KT 6SM HZ FEW007 SCT200 SCT250 20/16 A3017 RMK AO2 SLP211 T02000161 51014=
201410281352 METAR KATL 281352Z 21003KT 7SM FEW250 19/16 A3016 RMK AO2 SLP207 T01940161=
201410281252 METAR KATL 281252Z 00000KT 8SM FEW250 17/15 A3014 RMK AO2 SLP202 T01670150=
201410281152 METAR KATL 281152Z 00000KT 8SM FEW250 15/13 A3013 RMK AO2 SLP197 T01500133 10194 20150 51009=
201410281052 METAR KATL 281052Z 19003KT 10SM CLR 16/14 A3012 RMK AO2 SLP194 T01560139=
201410280952 METAR KATL 280952Z 20003KT 10SM CLR 16/14 A3012 RMK AO2 SLP191 T01610139=
201410280852 METAR KATL 280852Z 00000KT 10SM CLR 17/14 A3010 RMK AO2 SLP185 T01720139 50001=
201410280752 METAR KATL 280752Z 24004KT 10SM CLR 17/14 A3011 RMK AO2 SLP185 T01720139=
201410280652 METAR KATL 280652Z 24003KT 10SM CLR 18/14 A3010 RMK AO2 SLP183 T01830144=
201410280552 METAR KATL 280552Z 23003KT 10SM CLR 19/14 A3010 RMK AO2 SLP183 T01890144 10239 20189 55002=
201410280452 METAR KATL 280452Z 00000KT 10SM CLR 20/15 A3009 RMK AO2 SLP180 T02000150 402890150=
201410280352 METAR KATL 280352Z 00000KT 10SM CLR 19/16 A3010 RMK AO2 SLP183 T01940156=
201410280252 METAR KATL 280252Z 16003KT 10SM CLR 21/16 A3010 RMK AO2 SLP186 T02110161 51010=
201410280152 METAR KATL 280152Z 15003KT 10SM CLR 22/16 A3009 RMK AO2 SLP183 T02220161=
201410280052 METAR KATL 280052Z COR 15005KT 10SM CLR 23/15 A3008 RMK AO2 SLP181 T02330150=
201410272352 METAR KATL 272352Z 17004KT 10SM FEW250 24/14 A3007 RMK AO2 SLP177 T02390144 10289 20239 53009=
201410272252 METAR KATL 272252Z 17005KT 10SM FEW250 24/14 A3006 RMK AO2 SLP172 T02440144=
201410272152 METAR KATL 272152Z 17006KT 10SM FEW250 27/15 A3005 RMK AO2 SLP167 T02720150=
201410272052 METAR KATL 272052Z 21006KT 10SM FEW250 28/13 A3004 RMK AO2 SLP165 T02830133 56009=
201410271952 METAR KATL 271952Z 20007KT 10SM FEW250 29/14 A3005 RMK AO2 SLP166 T02890144=
201410271852 METAR KATL 271852Z VRB03KT 10SM FEW250 29/16 A3005 RMK AO2 SLP166 T02890156=
201410271752 METAR KATL 271752Z VRB04KT 10SM FEW250 28/17 A3007 RMK AO2 SLP173 T02780167 10283 20156 58016=
201410271652 METAR KATL 271652Z 25003KT 10SM FEW250 26/16 A3010 RMK AO2 SLP185 T02610161=
201410271552 METAR KATL 271552Z 35005KT 9SM FEW250 26/17 A3012 RMK AO2 SLP191 T02610172=
201410271452 METAR KATL 271452Z 30003KT 8SM CLR 24/17 A3012 RMK AO2 SLP191 T02390172 51014=
201410271352 METAR KATL 271352Z 00000KT 8SM CLR 21/16 A3011 RMK AO2 SLP189 T02110161=
201410271252 METAR KATL 271252Z COR 31004KT 9SM FEW010 17/15 A3009 RMK AO2 SLP185 T01720150=
201410271152 METAR KATL 271152Z 32006KT 8SM CLR 16/14 A3008 RMK AO2 SLP178 T01610139 10183 20150 51014=
201410271052 METAR KATL 271052Z 31005KT 10SM CLR 16/13 A3006 RMK AO2 SLP175 T01560128=
201410270952 METAR KATL 270952Z 30004KT 10SM CLR 16/13 A3005 RMK AO2 SLP167 T01560128=
201410270852 METAR KATL 270852Z 32004KT 10SM CLR 16/13 A3003 RMK AO2 SLP162 T01610128 53005=
201410270752 METAR KATL 270752Z 30003KT 10SM CLR 17/13 A3003 RMK AO2 SLP159 T01670133=
201410270652 METAR KATL 270652Z 30004KT 10SM CLR 17/13 A3002 RMK AO2 SLP159 T01720128=
201410270552 METAR KATL 270552Z 32004KT 10SM CLR 18/13 A3002 RMK AO2 SLP156 T01830133 10239 20167 58004=
201410270452 METAR KATL 270452Z 00000KT 10SM CLR 18/13 A3002 RMK AO2 SLP159 T01780128 402890139=
201410270352 METAR KATL 270352Z 00000KT 10SM CLR 18/13 A3003 RMK AO2 SLP163 T01830133=
201410270252 METAR KATL 270252Z 29003KT 10SM CLR 19/13 A3003 RMK AO2 SLP163 T01940133 51008=
201410270152 METAR KATL 270152Z 00000KT 10SM CLR 19/14 A3003 RMK AO2 SLP162 T01940139=
201410270052 METAR KATL 270052Z 30003KT 10SM CLR 21/13 A3002 RMK AO2 SLP159 T02110133=
201410262352 METAR KATL 262352Z 34005KT 10SM CLR 23/13 A3001 RMK AO2 SLP156 T02330133 10289 20233 53007=
201410262252 METAR KATL 262252Z 32005KT 10SM CLR 25/13 A2999 RMK AO2 SLP150 T02500128=
201410262152 METAR KATL 262152Z 32007KT 10SM CLR 27/12 A2999 RMK AO2 SLP147 T02720117=
201410262052 METAR KATL 262052Z 31007KT 10SM CLR 28/12 A2998 RMK AO2 SLP146 T02780117 55004=
201410261952 METAR KATL 261952Z 34008KT 10SM CLR 28/12 A2998 RMK AO2 SLP145 T02830122=
201410261852 METAR KATL 261852Z 32007KT 10SM CLR 28/12 A2998 RMK AO2 SLP145 T02830122=
201410261752 METAR KATL 261752Z 31010KT 10SM CLR 28/13 A3000 RMK AO2 SLP151 T02780128 10278 20144 58012=
201410261652 METAR KATL 261652Z 28007KT 10SM CLR 26/14 A3003 RMK AO2 SLP160 T02610144=
201410261552 METAR KATL 261552Z 31009KT 10SM CLR 24/15 A3003 RMK AO2 SLP164 T02390150=
201410261452 METAR KATL 261452Z 34009KT 10SM CLR 22/16 A3004 RMK AO2 SLP164 T02170156 51010=
201410261352 METAR KATL 261352Z 32007KT 10SM CLR 18/15 A3003 RMK AO2 SLP166 T01830150=
201410261252 METAR KATL 261252Z 31007KT 8SM CLR 16/14 A3002 RMK AO2 SLP161 T01610144=
201410261152 METAR KATL 261152Z 32004KT 8SM CLR 14/13 A3000 RMK AO2 SLP156 T01440128 10167 20139 53005=
201410261052 METAR KATL 261052Z 31007KT 10SM CLR 14/13 A3000 RMK AO2 SLP153 T01440128=
201410260952 METAR KATL 260952Z 32005KT 10SM CLR 14/13 A2999 RMK AO2 SLP149 T01440128=
201410260852 METAR KATL 260852Z 32008KT 10SM CLR 15/13 A2999 RMK AO2 SLP148 T01500128 56008=
201410260752 METAR KATL 260752Z 31007KT 10SM CLR 15/12 A2999 RMK AO2 SLP149 T01500122=
201410260652 METAR KATL 260652Z 31009KT 10SM CLR 16/12 A3000 RMK AO2 SLP154 T01560117=
201410260552 METAR KATL 260552Z 29003KT 10SM CLR 16/11 A3001 RMK AO2 SLP157 T01560111 10194 20156 56011=
201410260452 METAR KATL 260452Z 29007KT 10SM CLR 17/11 A3002 RMK AO2 SLP159 T01670111 402500083=
201410260352 METAR KATL 260352Z 29007KT 10SM CLR 17/11 A3004 RMK AO2 SLP166 T01670106=
201410260252 METAR KATL 260252Z 30005KT 10SM CLR 17/10 A3005 RMK AO2 SLP170 T01720100 51007=
201410260152 METAR KATL 260152Z 30006KT 10SM CLR 17/10 A3004 RMK AO2 SLP171 T01720100=
201410260052 METAR KATL 260052Z 27004KT 10SM CLR 18/09 A3003 RMK AO2 SLP168 T01830089=
201410252352 METAR KATL 252352Z 28004KT 10SM CLR 19/08 A3002 RMK AO2 SLP164 T01940083 10250 20194 50004=
201410252252 METAR KATL 252252Z 32007KT 10SM FEW150 21/07 A3002 RMK AO2 SLP165 T02060072=
201410252152 METAR KATL 252152Z 31008KT 10SM FEW150 23/07 A3001 RMK AO2 SLP160 T02280072=
201410252052 METAR KATL 252052Z 30010KT 10SM CLR 24/08 A3001 RMK AO2 SLP158 T02390078 56012=
201410251952 METAR KATL 251952Z 31008KT 10SM CLR 24/07 A3001 RMK AO2 SLP158 T02440067=
201410251852 METAR KATL 251852Z 35008KT 10SM CLR 24/04 A3003 RMK AO2 SLP165 T02390044=
201410251752 METAR KATL 251752Z 36004KT 10SM CLR 23/04 A3005 RMK AO2 SLP171 T02280039 10228 20089 58010=
201410251652 METAR KATL 251652Z 35005KT 10SM CLR 22/03 A3007 RMK AO2 SLP179 T02170028=
201410251552 METAR KATL 251552Z 34005KT 10SM CLR 20/07 A3008 RMK AO2 SLP183 T02000067 $=
201410251452 METAR KATL 251452Z 33005KT 10SM CLR 17/06 A3008 RMK AO2 SLP183 T01720061 51009 $=
201410251352 METAR KATL 251352Z 31006KT 10SM CLR 13/07 A3008 RMK AO2 SLP183 T01330067 $=
201410251252 METAR KATL 251252Z 33009KT 10SM CLR 11/06 A3007 RMK AO2 SLP180 T01110061 $=
201410251152 METAR KATL 251152Z 33007KT 10SM FEW250 09/06 A3005 RMK AO2 SLP176 T00940056 10117 20089 52011 $=
201410251052 METAR KATL 251052Z 33006KT 10SM CLR 09/06 A3004 RMK AO2 SLP171 T00940056 $=
201410250952 METAR KATL 250952Z 32007KT 10SM CLR 09/06 A3003 RMK AO2 SLP166 T00940061 $=
201410250852 METAR KATL 250852Z 32010KT 10SM CLR 11/06 A3002 RMK AO2 SLP161 T01060061 55003=
201410250752 METAR KATL 250752Z 32007KT 10SM CLR 10/06 A3002 RMK AO2 SLP162 T01000061=
201410250652 METAR KATL 250652Z 31006KT 10SM CLR 11/07 A3002 RMK AO2 SLP164 T01060067=
201410250552 METAR KATL 250552Z 32008KT 10SM CLR 12/07 A3003 RMK AO2 SLP166 T01170067 10183 20117 56003=
201410250452 METAR KATL 250452Z 30007KT 10SM FEW250 12/07 A3003 RMK AO2 SLP166 T01220067 402330100=
201410250352 METAR KATL 250352Z 31007KT 10SM FEW250 13/07 A3003 RMK AO2 SLP167 T01330067=
201410250252 METAR KATL 250252Z 31005KT 10SM FEW250 14/06 A3004 RMK AO2 SLP170 T01440061 51005=
201410250152 METAR KATL 250152Z 30004KT 10SM FEW250 16/06 A3004 RMK AO2 SLP169 T01560061=
201410250052 METAR KATL 250052Z 33006KT 10SM FEW250 17/06 A3003 RMK AO2 SLP167 T01670056 $=
201410242352 METAR KATL 242352Z 33007KT 10SM CLR 18/06 A3002 RMK AO2 SLP165 T01780056 10233 20178 53005=
201410242252 METAR KATL 242252Z 32006KT 10SM CLR 19/06 A3000 RMK AO2 SLP158 T01940056=
201410242152 METAR KATL 242152Z 32004KT 10SM CLR 22/04 A3001 RMK AO2 SLP157 T02220044=
201410242052 METAR KATL 242052Z 34005KT 10SM FEW150 23/05 A3001 RMK AO2 SLP159 T02330050 56009=
201410241952 METAR KATL 241952Z VRB04KT 10SM FEW150 23/06 A3001 RMK AO2 SLP160 T02280056=
201410241852 METAR KATL 241852Z 00000KT 10SM FEW150 22/07 A3002 RMK AO2 SLP162 T02170072=
201410241752 METAR KATL 241752Z 00000KT 10SM FEW150 21/07 A3004 RMK AO2 SLP168 T02110072 10211 20106 58013=
201410241652 METAR KATL 241652Z 27007KT 10SM FEW150 SCT180 BKN250 20/08 A3007 RMK AO2 SLP178 T02000083=
201410241552 METAR KATL 241552Z 00000KT 10SM FEW150 SCT180 SCT250 19/09 A3007 RMK AO2 SLP178 T01890089=
201410241452 METAR KATL 241452Z VRB04KT 10SM FEW150 SCT200 SCT250 16/09 A3008 RMK AO2 SLP183 T01610089 50007=
201410241352 METAR KATL 241352Z 30005KT 10SM FEW120 SCT180 SCT250 14/08 A3008 RMK AO2 SLP186 VIRGA DSNT S T01390083=
201410241252 METAR KATL 241252Z 00000KT 10SM FEW130 SCT180 BKN250 12/08 A3007 RMK AO2 SLP181 VIRGA DSNT N-NE & SW & W ACC DSNT NE & SW & W T01220078=
201410241152 METAR KATL 241152Z 05004KT 10SM FEW140 BKN180 BKN250 11/07 A3006 RMK AO2 SLP177 VIRGA NW-N & DSNT SW & NW T01110067 10111 20100 51007=
201410241052 METAR KATL 241052Z 03004KT 10SM FEW140 BKN180 OVC250 11/07 A3005 RMK AO2 SLP173 T01060067=
201410240952 METAR KATL 240952Z 34005KT 10SM BKN180 OVC250 10/07 A3005 RMK AO2 SLP174 T01000067=
201410240852 METAR KATL 240852Z 33005KT 10SM BKN180 OVC250 10/07 A3004 RMK AO2 SLP169 T01000072 53001=
201410240752 METAR KATL 240752Z 31004KT 10SM FEW150 BKN200 BKN250 10/07 A3003 RMK AO2 SLP166 T01000067=
201410240652 METAR KATL 240652Z 33006KT 10SM FEW150 BKN200 OVC250 11/07 A3003 RMK AO2 SLP167 T01060072=
201410240552 METAR KATL 240552Z 32005KT 10SM FEW150 BKN200 BKN250 11/07 A3003 RMK AO2 SLP167 T01110072 10167 20106 58006=
201410240452 METAR KATL 240452Z 32004KT 10SM BKN200 OVC250 13/07 A3003 RMK AO2 SLP167 T01280067 402220061=
201410240352 METAR KATL 240352Z 00000KT 10SM BKN200 BKN250 13/07 A3005 RMK AO2 SLP174 T01330067=
201410240252 METAR KATL 240252Z 32006KT 10SM BKN200 BKN250 13/07 A3005 RMK AO2 SLP175 T01330072 55002=
201410240152 METAR KATL 240152Z 32005KT 10SM BKN200 BKN250 14/07 A3005 RMK AO2 SLP175 T01390072=
201410240052 METAR KATL 240052Z 32005KT 10SM SCT200 BKN250 14/07 A3006 RMK AO2 SLP178 T01440072=
201410232352 METAR KATL 232352Z 34005KT 10SM FEW200 BKN250 16/07 A3006 RMK AO2 SLP179 T01610067 10222 20161 53010=
201410232252 METAR KATL 232252Z 32004KT 10SM FEW200 BKN250 17/06 A3004 RMK AO2 SLP171 T01720056=
201410232152 METAR KATL 232152Z 32009KT 10SM FEW200 BKN250 19/04 A3003 RMK AO2 SLP167 T01940039=
201410232052 METAR KATL 232052Z 31007KT 10SM FEW200 BKN250 21/03 A3003 RMK AO2 SLP165 T02110033 56018=
201410231952 METAR KATL 231952Z 34008KT 10SM FEW200 22/03 A3003 RMK AO2 SLP167 T02170028=
201410231852 METAR KATL 231852Z 27007KT 10SM FEW200 SCT250 21/05 A3005 RMK AO2 SLP173 T02110050=
201410231752 METAR KATL 231752Z 28007KT 10SM FEW250 19/06 A3008 RMK AO2 SLP184 T01940061 10200 20061 58020=
201410231652 METAR KATL 231652Z 27007KT 10SM FEW250 18/06 A3011 RMK AO2 SLP196 T01780061=
201410231552 METAR KATL 231552Z 24006KT 10SM FEW250 15/06 A3013 RMK AO2 SLP201 T01500056=
201410231452 METAR KATL 231452Z 29004KT 10SM FEW250 13/06 A3014 RMK AO2 SLP206 T01330056 50003=
201410231352 METAR KATL 231352Z 27003KT 10SM FEW250 10/06 A3015 RMK AO2 SLP210 T01000061=
201410231252 METAR KATL 231252Z 31006KT 10SM FEW250 07/05 A3015 RMK AO2 SLP210 T00720050=
201410231152 METAR KATL 231152Z 32008KT 10SM CLR 07/04 A3013 RMK AO2 SLP204 T00670044 10100 20067 53010=
201410231052 METAR KATL 231052Z 32004KT 10SM CLR 07/04 A3011 RMK AO2 SLP196 T00670044 $=
201410230952 METAR KATL 230952Z 34005KT 10SM CLR 08/05 A3010 RMK AO2 SLP192 T00780050 $=
201410230852 METAR KATL 230852Z 01004KT 10SM CLR 09/05 A3010 RMK AO2 SLP190 T00890050 51000 $=
201410230752 METAR KATL 230752Z 31005KT 10SM CLR 08/05 A3010 RMK AO2 SLP190 T00830050=
201410230652 METAR KATL 230652Z 34007KT 10SM CLR 09/05 A3010 RMK AO2 SLP192 T00890050=
201410230552 METAR KATL 230552Z 35004KT 10SM CLR 09/05 A3010 RMK AO2 SLP191 T00940050 10161 20094 58005=
201410230452 METAR KATL 230452Z 34005KT 10SM CLR 10/06 A3010 RMK AO2 SLP193 T01000056 402110083=
201410230352 METAR KATL 230352Z 34007KT 10SM CLR 11/06 A3011 RMK AO2 SLP196 T01110056=
201410230252 METAR KATL 230252Z 33006KT 10SM CLR 12/06 A3011 RMK AO2 SLP197 T01170056 53008=
201410230152 METAR KATL 230152Z 32009KT 10SM CLR 13/06 A3010 RMK AO2 SLP194 T01280056=
201410230052 METAR KATL 230052Z 33010KT 10SM CLR 14/06 A3010 RMK AO2 SLP193 T01390056=
201410222352 METAR KATL 222352Z 33010KT 10SM CLR 16/06 A3009 RMK AO2 SLP189 T01610056 10211 20156 53012=
201410222252 METAR KATL 222252Z 33008KT 10SM CLR 17/06 A3007 RMK AO2 SLP183 T01720056=
201410222152 METAR KATL 222152Z 31011KT 10SM CLR 20/06 A3006 RMK AO2 SLP176 T02000056=
201410222052 METAR KATL 222052Z 36005KT 10SM CLR 21/03 A3005 RMK AO2 SLP175 T02110028 56013=
201410221952 METAR KATL 221952Z 02007KT 320V040 10SM CLR 21/03 A3007 RMK AO2 SLP179 T02060033=
201410221852 METAR KATL 221852Z 34007KT 310V010 10SM CLR 20/04 A3007 RMK AO2 SLP181 T02000044=
201410221752 METAR KATL 221752Z VRB05KT 10SM CLR 18/04 A3009 RMK AO2 SLP188 T01830044 10183 20083 58008=
201410221652 METAR KATL 221652Z 35007KT 10SM CLR 18/04 A3012 RMK AO2 SLP197 T01780039=
201410221552 METAR KATL 221552Z 01006KT 10SM CLR 16/04 A3012 RMK AO2 SLP198 T01610039=
201410221452 METAR KATL 221452Z 01010KT 10SM CLR 14/03 A3012 RMK AO2 SLP197 T01390033 51016=
201410221352 METAR KATL 221352Z 34007KT 10SM CLR 12/05 A3011 RMK AO2 SLP193 T01170050=
201410221252 METAR KATL 221252Z 33007KT 10SM CLR 09/05 A3010 RMK AO2 SLP191 T00940050=
201410221152 METAR KATL 221152Z 32009KT 10SM CLR 08/05 A3007 RMK AO2 SLP182 T00830050 10122 20083 53012=
201410221052 METAR KATL 221052Z 32007KT 10SM CLR 08/06 A3005 RMK AO2 SLP175 T00830061=
201410220952 METAR KATL 220952Z 33006KT 10SM CLR 09/06 A3004 RMK AO2 SLP169 T00940061=
201410220852 METAR KATL 220852Z 34006KT 10SM CLR 10/07 A3003 RMK AO2 SLP166 T01000067 51004=
201410220752 METAR KATL 220752Z 31005KT 10SM CLR 11/07 A3003 RMK AO2 SLP166 T01060072=
201410220652 METAR KATL 220652Z 25004KT 10SM CLR 12/08 A3003 RMK AO2 SLP164 T01170078=
201410220552 METAR KATL 220552Z 00000KT 10SM CLR 12/08 A3002 RMK AO2 SLP162 T01170078 10189 20117 52000=
201410220452 METAR KATL 220452Z 33007KT 10SM CLR 14/08 A3002 RMK AO2 SLP159 T01390083 402500111=
201410220352 METAR KATL 220352Z 32004KT 10SM CLR 14/08 A3002 RMK AO2 SLP162 T01390083=
201410220252 METAR KATL 220252Z 33007KT 10SM CLR 16/08 A3002 RMK AO2 SLP161 T01560083 51012=
201410220152 METAR KATL 220152Z 34007KT 10SM CLR 17/08 A3001 RMK AO2 SLP159 T01670083=
201410220052 METAR KATL 220052Z 33007KT 10SM CLR 18/08 A3000 RMK AO2 SLP156 T01780083=
201410212352 METAR KATL 212352Z 31006KT 10SM CLR 19/08 A2998 RMK AO2 SLP151 T01890078 10250 20189 53009=
201410212252 METAR KATL 212252Z 31009KT 10SM CLR 21/09 A2996 RMK AO2 SLP143 T02110089=
201410212152 METAR KATL 212152Z 30011KT 10SM CLR 23/09 A2995 RMK AO2 SLP139 T02280094=
201410212052 METAR KATL 212052Z 30012KT 10SM FEW060 24/09 A2996 RMK AO2 SLP139 T02390094 55010=
201410211952 METAR KATL 211952Z 30015G20KT 10SM FEW050 24/11 A2995 RMK AO2 SLP138 T02440106=
201410211852 METAR KATL 211852Z 31011KT 10SM FEW048 24/11 A2996 RMK AO2 SLP140 T02390106=
201410211752 METAR KATL 211752Z 29013KT 10SM SCT045 24/11 A2999 RMK AO2 SLP149 T02390111 10239 20111 58018=
201410211652 METAR KATL 211652Z 29009KT 10SM FEW040 22/12 A3002 RMK AO2 SLP159 T02220117=
201410211552 METAR KATL 211552Z 33007KT 10SM CLR 21/11 A3004 RMK AO2 SLP166 T02060111=
201410211452 METAR KATL 211452Z 31007KT 10SM CLR 18/11 A3004 RMK AO2 SLP168 T01830111 51008=
201410211352 METAR KATL 211352Z 31006KT 10SM CLR 16/10 A3004 RMK AO2 SLP168 T01560100=
201410211252 METAR KATL 211252Z 31005KT 10SM CLR 13/09 A3003 RMK AO2 SLP166 T01330094=
201410211152 METAR KATL 211152Z 00000KT 10SM CLR 11/09 A3002 RMK AO2 SLP162 T01110089 10144 20111 53007=
201410211052 METAR KATL 211052Z 32004KT 10SM CLR 12/09 A3001 RMK AO2 SLP158 T01170094=
201410210952 METAR KATL 210952Z 29003KT 10SM CLR 12/09 A3000 RMK AO2 SLP155 T01220094=
201410210852 METAR KATL 210852Z 30004KT 10SM CLR 12/10 A2999 RMK AO2 SLP153 T01220100 56005=
201410210752 METAR KATL 210752Z 31006KT 10SM CLR 13/10 A3000 RMK AO2 SLP154 T01280100=
201410210652 METAR KATL 210652Z 31005KT 10SM CLR 14/10 A3000 RMK AO2 SLP156 T01390100=
201410210552 METAR KATL 210552Z 27003KT 10SM CLR 14/10 A3001 RMK AO2 SLP158 T01390100 10183 20139 58005=
201410210452 METAR KATL 210452Z 30004KT 10SM CLR 16/10 A3002 RMK AO2 SLP159 T01610100 402280100=
201410210352 METAR KATL 210352Z 29004KT 10SM CLR 16/11 A3003 RMK AO2 SLP163 T01560111=
201410210252 METAR KATL 210252Z 30004KT 10SM FEW150 17/11 A3002 RMK AO2 SLP163 T01670106 53004=
201410210152 METAR KATL 210152Z 25003KT 10SM FEW120 BKN150 17/11 A3001 RMK AO2 SLP161 T01720106=
201410210052 METAR KATL 210052Z 25003KT 10SM BKN120 BKN250 18/11 A3001 RMK AO2 SLP161 T01780106=
201410202352 METAR KATL 202352Z 00000KT 10SM FEW120 SCT150 BKN250 18/11 A3001 RMK AO2 SLP161 T01780106 10228 20178 53003=
201410202252 METAR KATL 202252Z 00000KT 10SM FEW120 SCT250 19/09 A3000 RMK AO2 SLP158 T01940094=
201410202152 METAR KATL 202152Z 27006KT 10SM FEW048 SCT250 22/09 A3000 RMK AO2 SLP155 T02170094=
201410202052 METAR KATL 202052Z 25004KT 10SM FEW047 SCT200 SCT250 22/10 A3000 RMK AO2 SLP156 T02220100 56017=
201410201952 METAR KATL 201952Z 18007KT 10SM FEW048 SCT200 SCT250 22/10 A3001 RMK AO2 SLP160 T02220100=
201410201852 METAR KATL 201852Z 24006KT 10SM FEW045 SCT200 SCT250 21/09 A3003 RMK AO2 SLP163 T02110094=
201410201752 METAR KATL 201752Z 23009KT 10SM FEW040 SCT250 21/09 A3005 RMK AO2 SLP174 T02110094 10217 20106 58025=
201410201652 METAR KATL 201652Z 21007KT 10SM SCT036 SCT250 21/10 A3008 RMK AO2 SLP183 T02060100=
201410201552 METAR KATL 201552Z 22007KT 10SM FEW030 SCT250 19/11 A3012 RMK AO2 SLP196 T01890106=
201410201452 METAR KATL 201452Z 21007KT 10SM FEW250 17/11 A3013 RMK AO2 SLP201 T01720111 50009=
201410201352 METAR KATL 201352Z 00000KT 10SM FEW250 15/10 A3013 RMK AO2 SLP201 T01500100=
201410201252 METAR KATL 201252Z 00000KT 10SM FEW250 13/10 A3011 RMK AO2 SLP195 T01330100=
201410201152 METAR KATL 201152Z 00000KT 10SM FEW250 10/08 A3010 RMK AO2 SLP193 T01000078 10139 20100 51002=
201410201052 METAR KATL 201052Z 00000KT 10SM CLR 11/08 A3010 RMK AO2 SLP190 T01110083=
201410200952 METAR KATL 200952Z 00000KT 10SM CLR 11/08 A3011 RMK AO2 SLP193 T01060078=
201410200852 METAR KATL 200852Z 00000KT 10SM CLR 11/08 A3010 RMK AO2 SLP189 T01110078 55001 $=
201410200752 METAR KATL 200752Z 00000KT 10SM CLR 11/08 A3010 RMK AO2 SLP189 T01060078 $=
201410200652 METAR KATL 200652Z 00000KT 10SM CLR 13/09 A3010 RMK AO2 SLP188 T01330089 $=
201410200552 METAR KATL 200552Z 00000KT 10SM CLR 12/09 A3010 RMK AO2 SLP191 T01220089 10178 20117 55002 $=
201410200452 METAR KATL 200452Z 00000KT 10SM FEW250 14/09 A3010 RMK AO2 SLP188 T01390089 402280083 $=
201410200352 METAR KATL 200352Z 00000KT 10SM FEW250 13/09 A3011 RMK AO2 SLP195 T01330089 $=
201410200252 METAR KATL 200252Z 00000KT 10SM FEW250 14/09 A3011 RMK AO2 SLP193 T01390094 53005 $=
201410200152 METAR KATL 200152Z 00000KT 10SM FEW200 SCT250 15/09 A3010 RMK AO2 SLP193 T01500094=
201410200052 METAR KATL 200052Z 00000KT 10SM SCT200 SCT250 17/09 A3010 RMK AO2 SLP190 T01670089=
201410192352 METAR KATL 192352Z 00000KT 10SM SCT200 BKN250 18/09 A3009 RMK AO2 SLP189 T01780089 10228 20172 53007=
201410192252 METAR KATL 192252Z 32004KT 10SM SCT200 SCT250 19/08 A3008 RMK AO2 SLP184 T01940083=
201410192152 METAR KATL 192152Z 27004KT 10SM FEW200 SCT250 20/08 A3008 RMK AO2 SLP182 T02000078=
201410192052 METAR KATL 192052Z 00000KT 10SM SCT250 21/07 A3007 RMK AO2 SLP181 T02110067 56017=
201410191952 METAR KATL 191952Z 00000KT 10SM FEW060 SCT250 21/06 A3008 RMK AO2 SLP184 T02060056=
201410191852 METAR KATL 191852Z 02004KT 10SM BKN250 21/06 A3010 RMK AO2 SLP189 T02060061=
201410191752 METAR KATL 191752Z 00000KT 10SM SCT250 19/06 A3012 RMK AO2 SLP198 T01890061 10194 20083 58013=
201410191652 METAR KATL 191652Z 00000KT 10SM SCT250 18/06 A3014 RMK AO2 SLP204 T01830061=
201410191552 METAR KATL 191552Z 06004KT 10SM BKN250 17/06 A3015 RMK AO2 SLP209 T01670061=
201410191452 METAR KATL 191452Z 10005KT 10SM BKN250 15/06 A3016 RMK AO2 SLP211 T01500056 51012=
201410191352 METAR KATL 191352Z 02006KT 10SM BKN250 13/06 A3016 RMK AO2 SLP210 T01280061=
201410191252 METAR KATL 191252Z 34007KT 10SM BKN250 11/07 A3014 RMK AO2 SLP205 T01060067=
201410191152 METAR KATL 191152Z 32004KT 10SM SCT250 08/06 A3013 RMK AO2 SLP200 T00830061 10122 20083 53019=
201410191052 METAR KATL 191052Z 33008KT 10SM FEW250 09/07 A3011 RMK AO2 SLP192 T00940067=
201410190952 METAR KATL 190952Z 34008KT 10SM SCT250 10/07 A3009 RMK AO2 SLP184 T01000067=
201410190852 METAR KATL 190852Z 33006KT 10SM SCT250 10/07 A3007 RMK AO2 SLP178 T01000072 51005=
201410190752 METAR KATL 190752Z 32004KT 10SM SCT250 11/07 A3006 RMK AO2 SLP176 T01060067=
201410190652 METAR KATL 190652Z 33007KT 10SM SCT250 12/07 A3006 RMK AO2 SLP174 T01170072=
201410190552 METAR KATL 190552Z 33007KT 10SM SCT250 12/07 A3005 RMK AO2 SLP172 T01220072 10189 20122 53001=
201410190452 METAR KATL 190452Z 33007KT 10SM SCT250 13/07 A3004 RMK AO2 SLP169 T01330072 402440128=
201410190352 METAR KATL 190352Z 34008KT 10SM FEW250 14/07 A3005 RMK AO2 SLP170 T01390067=
201410190252 METAR KATL 190252Z 35011G19KT 10SM FEW200 SCT250 15/07 A3005 RMK AO2 PK WND 35027/0210 SLP170 T01500067 51026=
201410190152 METAR KATL 190152Z 35020G27KT 10SM FEW200 SCT250 17/07 A3003 RMK AO2 PK WND 34027/0149 SLP166 T01670067=
201410190052 METAR KATL 190052Z 33009KT 10SM FEW075 SCT200 SCT250 17/09 A2999 RMK AO2 SLP152 T01720089=
201410182352 METAR KATL 182352Z 31008KT 10SM FEW250 19/09 A2997 RMK AO2 SLP143 T01890089 10244 20189 53017=
201410182252 METAR KATL 182252Z COR 30012KT 10SM FEW200 SCT250 20/09 A2994 RMK AO2 SLP135 T02000089=
201410182152 METAR KATL 182152Z 30011KT 10SM FEW200 SCT250 22/09 A2992 RMK AO2 SLP126 T02220094=
201410182052 METAR KATL 182052Z 31010KT 10SM SCT250 23/11 A2991 RMK AO2 SLP123 T02330106 56007=
201410181952 METAR KATL 181952Z 34011KT 10SM FEW150 BKN250 23/09 A2991 RMK AO2 SLP123 T02330094=
201410181852 METAR KATL 181852Z 29009G19KT 10SM FEW055 SCT150 SCT250 24/09 A2992 RMK AO2 SLP126 T02440094=
201410181752 METAR KATL 181752Z 32012G16KT 10SM FEW050 SCT150 SCT250 23/11 A2994 RMK AO2 SLP131 T02330106 10239 20156 58006=
201410181652 METAR KATL 181652Z 31013KT 10SM FEW150 SCT250 22/11 A2995 RMK AO2 SLP136 T02170106=
201410181552 METAR KATL 181552Z 30008KT 10SM FEW150 SCT250 22/12 A2995 RMK AO2 SLP137 T02170122=
201410181452 METAR KATL 181452Z 29007KT 10SM FEW120 SCT250 19/13 A2996 RMK AO2 SLP139 T01940128 51011=
201410181352 METAR KATL 181352Z 30007KT 10SM FEW250 18/14 A2995 RMK AO2 SLP138 T01780139=
201410181252 METAR KATL 181252Z 29007KT 10SM FEW250 17/13 A2994 RMK AO2 SLP134 T01670133=
201410181152 METAR KATL 181152Z 29005KT 10SM FEW250 15/13 A2992 RMK AO2 SLP127 T01500128 10183 20150 51012=
201410181052 METAR KATL 181052Z 28007KT 10SM FEW250 16/13 A2992 RMK AO2 SLP124 T01610128=
201410180952 METAR KATL 180952Z 27005KT 10SM CLR 16/12 A2990 RMK AO2 SLP119 T01610122=
201410180852 METAR KATL 180852Z 27007KT 10SM CLR 17/12 A2989 RMK AO2 SLP113 T01670122 56008=
201410180752 METAR KATL 180752Z 27007KT 10SM CLR 18/12 A2989 RMK AO2 SLP113 T01780122=
201410180652 METAR KATL 180652Z 26008KT 10SM CLR 18/12 A2990 RMK AO2 SLP118 T01780122=
201410180552 METAR KATL 180552Z 27008KT 10SM CLR 18/12 A2991 RMK AO2 SLP122 T01780122 10217 20178 58005=
201410180452 METAR KATL 180452Z 28009KT 10SM CLR 18/13 A2992 RMK AO2 SLP126 T01830128 402670100=
201410180352 METAR KATL 180352Z 24004KT 10SM CLR 18/13 A2993 RMK AO2 SLP127 T01780128=
201410180252 METAR KATL 180252Z 23006KT 10SM CLR 18/13 A2993 RMK AO2 SLP128 T01830133 50002=
201410180152 METAR KATL 180152Z 23005KT 10SM CLR 19/13 A2993 RMK AO2 SLP130 T01940128=
201410180052 METAR KATL 180052Z 23005KT 10SM CLR 20/12 A2993 RMK AO2 SLP131 T02000122=
201410172352 METAR KATL 172352Z 24005KT 10SM CLR 22/12 A2992 RMK AO2 SLP129 T02170122 10267 20217 53004=
201410172252 METAR KATL 172252Z 24007KT 10SM CLR 24/12 A2991 RMK AO2 SLP124 T02390117=
201410172152 METAR KATL 172152Z 25009KT 10SM CLR 25/11 A2991 RMK AO2 SLP123 T02500111=
201410172052 METAR KATL 172052Z 24008KT 10SM FEW250 26/11 A2991 RMK AO2 SLP122 T02560106 56015=
201410171952 METAR KATL 171952Z 27007KT 10SM FEW055 SCT250 27/11 A2992 RMK AO2 SLP127 T02670111=
201410171852 SPECI KATL 171852Z 25007KT 10SM FEW050 SCT250 25/11 A2993 RMK AO2 SLP131 T02500111=
201410171852 METAR KATL 171852Z 25007KT 10SM FEW050 SCT250 25/11 A2993 RMK AO2 SLP131 T02500111=
201410171752 METAR KATL 171752Z 27007KT 210V290 10SM FEW250 25/12 A2995 RMK AO2 SLP138 T02500117 10250 20100 58014=
201410171652 METAR KATL 171652Z 23007KT 10SM FEW250 23/09 A2997 RMK AO2 SLP144 T02280089=
201410171552 METAR KATL 171552Z 24007KT 10SM FEW250 22/09 A2999 RMK AO2 SLP149 T02170089=
201410171452 METAR KATL 171452Z 25006KT 10SM FEW250 19/09 A3000 RMK AO2 SLP153 T01940094 50004=
201410171352 METAR KATL 171352Z 26003KT 10SM FEW250 16/11 A3000 RMK AO2 SLP157 T01610111=
201410171252 METAR KATL 171252Z 22003KT 9SM FEW150 SCT250 13/11 A2999 RMK AO2 SLP153 T01280106=
201410171152 METAR KATL 171152Z 00000KT 9SM FEW150 SCT250 11/08 A2999 RMK AO2 SLP152 T01060083 10111 20100 51010=
201410171052 METAR KATL 171052Z 00000KT 9SM FEW250 11/09 A2998 RMK AO2 SLP150 T01060094=
201410170952 METAR KATL 170952Z 00000KT 10SM FEW250 11/09 A2997 RMK AO2 SLP145 T01060089=
201410170852 METAR KATL 170852Z 00000KT 10SM FEW250 11/09 A2995 RMK AO2 SLP141 T01060089 53001=
201410170852 METAR KATL 170852Z 00000KT 10SM FEW250 11/09 A2995=
201410170752 METAR KATL 170752Z 00000KT 9SM FEW250 11/09 A2995=
201410170652 METAR KATL 170652Z 00000KT 10SM FEW250 11/09 A2995 RMK AO2 SLP139 T01060089=
201410170552 METAR KATL 170552Z 00000KT 10SM FEW250 11/09 A2995 RMK AO2 SLP140 T01110089 10167 20111 55002=
201410170452 METAR KATL 170452Z 00000KT 10SM FEW250 12/09 A2995=
201410170352 METAR KATL 170352Z 03003KT 10SM FEW250 14/09 A2996 RMK AO2 SLP142 T01440089=
201410170252 METAR KATL 170252Z 03004KT 10SM CLR 14/09 A2996 RMK AO2 SLP142 T01440094 53006=
201410170152 METAR KATL 170152Z 02006KT 10SM CLR 15/10 A2995 RMK AO2 SLP139 T01500100=
201410170052 METAR KATL 170052Z VRB06KT 10SM CLR 16/10 A2994 RMK AO2 SLP137 T01610100=
201410162352 METAR KATL 162352Z 35007KT 10SM CLR 17/11 A2994 RMK AO2 SLP135 T01670106 10211 20167 51008=
201410162252 METAR KATL 162252Z 33006KT 10SM FEW200 18/10 A2993 RMK AO2 SLP131 T01780100=
201410162152 METAR KATL 162152Z 35010KT 10SM FEW038 SCT045 19/10 A2993 RMK AO2 SLP131 T01940100=
201410162052 METAR KATL 162052Z 31006KT 10SM SCT042 21/10 A2991 RMK AO2 SLP125 T02060100 55003=
201410161952 METAR KATL 161952Z 30009KT 10SM FEW040 SCT050 20/09 A2991 RMK AO2 SLP124 T02000094=
201410161852 METAR KATL 161852Z 33009KT 10SM SCT040 BKN050 19/09 A2992 RMK AO2 SLP126 T01890094=
201410161752 METAR KATL 161752Z 29009KT 10SM FEW040 BKN050 18/09 A2992 RMK AO2 SLP128 T01830089 10194 20122 58003=
201410161652 METAR KATL 161652Z 30010G16KT 10SM FEW030 BKN040 OVC050 17/09 A2994 RMK AO2 SLP134 BINOVC DSNT N T01720089=
201410161552 METAR KATL 161552Z 30010G17KT 10SM FEW030 BKN040 BKN050 17/09 A2994 RMK AO2 SLP135 T01670094=
201410161452 METAR KATL 161452Z 30009KT 10SM FEW020 SCT055 17/11 A2993 RMK AO2 SLP132 T01670106 51018=
201410161352 METAR KATL 161352Z 29007KT 10SM FEW015 BKN055 14/11 A2993 RMK AO2 SLP132 T01440106=
201410161252 METAR KATL 161252Z 28006KT 10SM FEW012 SCT024 13/11 A2990 RMK AO2 SLP124 T01330106=
201410161152 METAR KATL 161152Z 27006KT 10SM FEW012 SCT022 12/10 A2988 RMK AO2 SLP115 T01220100 10156 20122 53004=
201410161142 SPECI KATL 161142Z 27006KT 10SM FEW012 SCT022 12/10 A2988 RMK AO2=
201410161052 METAR KATL 161052Z 28007KT 10SM BKN022 13/10 A2988 RMK AO2 SLP114 T01330100=
201410161040 SPECI KATL 161040Z 27007KT 10SM BKN022 13/10 A2987 RMK AO2=
201410160952 METAR KATL 160952Z 27006KT 10SM FEW040 SCT060 13/10 A2986 RMK AO2 SLP109 T01330100=
201410160852 METAR KATL 160852Z 27007KT 10SM BKN040 OVC060 14/10 A2987 RMK AO2 SLP109 T01440100 56005=
201410160752 METAR KATL 160752Z 27008KT 10SM FEW050 OVC065 15/10 A2987 RMK AO2 SLP111 T01500100=
201410160652 METAR KATL 160652Z 26006KT 10SM FEW045 BKN060 OVC080 15/09 A2987 RMK AO2 SLP112 T01500094=
201410160552 METAR KATL 160552Z 26008KT 10SM FEW045 BKN055 OVC080 16/09 A2988 RMK AO2 SLP114 T01560089 10172 20156 56006=
201410160452 METAR KATL 160452Z 28005KT 10SM BKN055 BKN080 16/09 A2989 RMK AO2 SLP115 T01560089 402060122=
201410160352 METAR KATL 160352Z 28006KT 10SM BKN055 BKN080 16/08 A2989 RMK AO2 SLP117 T01610083=
201410160252 METAR KATL 160252Z 27007KT 10SM BKN055 BKN080 16/08 A2990 RMK AO2 SLP122 T01610083 50004=
201410160152 METAR KATL 160152Z 25003KT 10SM BKN060 17/09 A2991 RMK AO2 SLP123 T01670089=
201410160052 METAR KATL 160052Z 27005KT 10SM BKN065 OVC080 17/09 A2990 RMK AO2 SLP121 T01670089=
201410152352 METAR KATL 152352Z 27006KT 10SM OVC065 17/08 A2989 RMK AO2 SLP119 T01720083 10206 20172 50005=
201410152252 METAR KATL 152252Z 26004KT 10SM BKN065 OVC250 18/08 A2989 RMK AO2 SLP119 T01780083=
201410152152 METAR KATL 152152Z 27006KT 10SM BKN060 OVC080 18/08 A2988 RMK AO2 SLP117 T01830078=
201410152052 SPECI KATL 152052Z 26007KT 10SM FEW045 BKN065 BKN080 19/07 A2988 RMK AO2 SLP113 T01940072 55003=
201410152052 METAR KATL 152052Z 26007KT 10SM FEW045 BKN065 BKN080 19/07 A2988 RMK AO2 SLP113 T01940072 55003=
201410151952 METAR KATL 151952Z 24010KT 10SM FEW050 BKN070 BKN250 19/07 A2986 RMK AO2 SLP108 T01940067=
201410151852 METAR KATL 151852Z 25011KT 10SM FEW045 BKN065 BKN250 21/09 A2987 RMK AO2 SLP111 T02060089=
201410151752 METAR KATL 151752Z 23010KT 10SM FEW050 BKN070 BKN250 19/09 A2988 RMK AO2 SLP116 T01940094 10206 20128 58015=
201410151552 METAR KATL 151552Z 25007KT 10SM FEW030 BKN070 BKN250 18/10 A2993 RMK AO2 SLP130 T01780100=
201410151452 METAR KATL 151452Z 21006KT 10SM FEW020 SCT075 SCT250 17/11 A2993 RMK AO2 SLP132 T01720111 50002=
201410151352 METAR KATL 151352Z 23005KT 10SM FEW015 BKN075 BKN250 16/12 A2993 RMK AO2 SLP132 T01560117=
201410151252 METAR KATL 151252Z 25006KT 10SM SCT070 14/12 A2992 RMK AO2 SLP130 T01390117=
201410151152 METAR KATL 151152Z 23004KT 10SM BKN055 13/11 A2992 RMK AO2 SLP130 70136 T01280111 10133 20122 53008=
201410151052 METAR KATL 151052Z 23004KT 10SM FEW050 12/11 A2991 RMK AO2 SLP126 T01220106=
201410150952 METAR KATL 150952Z 24004KT 10SM FEW030 12/11 A2990 RMK AO2 SLP121 T01220111=
201410150852 METAR KATL 150852Z 24005KT 10SM CLR 13/11 A2990 RMK AO2 SLP121 T01330111 58005=
201410150752 METAR KATL 150752Z 00000KT 10SM CLR 13/11 A2991 RMK AO2 SLP122 T01280111=
201410150652 METAR KATL 150652Z 25004KT 10SM CLR 13/11 A2992 RMK AO2 SLP126 T01330111=
201410150552 METAR KATL 150552Z 22003KT 10SM FEW055 13/11 A2992 RMK AO2 SLP126 T01330111 10189 20133 58002=
201410150452 METAR KATL 150452Z 20003KT 10SM FEW050 14/12 A2992 RMK AO2 SLP128 T01390117 402390133=
201410150352 METAR KATL 150352Z 20003KT 10SM FEW050 14/12 A2994 RMK AO2 SLP132 T01390122=
201410150252 METAR KATL 150252Z 28004KT 10SM FEW050 15/12 A2992 RMK AO2 SLP128 T01500122 51020=
201410150152 METAR KATL 150152Z 28005KT 10SM FEW045 SCT250 16/12 A2992 RMK AO2 SLP126 T01610122=
201410150052 METAR KATL 150052Z 26007KT 10SM FEW040 BKN250 18/12 A2990 RMK AO2 SLP121 T01780122=
201410142352 METAR KATL 142352Z 27008KT 10SM SCT040 BKN250 19/13 A2986 RMK AO2 SLP106 60005 T01890133 10228 20189 53023=
201410142252 METAR KATL 142252Z 26008KT 10SM FEW030 BKN250 20/14 A2983 RMK AO2 SLP093 T02000139=
201410142152 METAR KATL 142152Z 24008KT 10SM FEW030 BKN250 22/14 A2980 RMK AO2 SLP084 T02170144=
201410142052 METAR KATL 142052Z 27009KT 10SM FEW025 SCT050 BKN250 22/14 A2979 RMK AO2 SLP080 TCU DSNT E 60005 T02170144 51009=
201410141952 METAR KATL 141952Z 22010G19KT 10SM FEW020 SCT050 SCT250 22/16 A2979 RMK AO2 RAE1853 SLP078 T02170161=
201410141902 SPECI KATL 141902Z 25013G20KT 10SM FEW008 BKN020 OVC050 21/18 A2978 RMK AO2 RAE1853 BINOVC DSNT NW=
201410141852 METAR KATL 141852Z 25010KT 10SM -RA FEW010 BKN020 OVC030 22/19 A2978 RMK AO2 RAE21B50 SLP074 BINOVC DSNT NW P0005 T02170194=
201410141825 SPECI KATL 141825Z 22009G17KT 10SM FEW009 BKN020CB OVC040 22/21 A2978 RMK AO2 RAE21 VIS LWR NE-SE SHRA CB NE-SE MOV NE P0005=
201410141817 SPECI KATL 141817Z 23009KT 7SM -RA SCT007 BKN017CB OVC055 22/21 A2978 RMK AO2 VIS LWR NE-SE SHRA CB NE-SE MOV NE P0005=
201410141810 SPECI KATL 141810Z 22011G19KT 2SM R09R/3500VP6000FT -RA BR FEW005 BKN020CB OVC050 22/21 A2977 RMK AO2 SFC VIS 4 VIS LWR NE-SE SHRA CB NE-SE MOV NE P0005=
201410141758 SPECI KATL 141758Z 20009G19KT 2SM -RA BR BCFG FEW005 BKN030 OVC050 22/21 A2976 RMK AO2 SFC VIS 4 P0000=
201410141752 METAR KATL 141752Z 17015G19KT 2SM R09R/4000VP6000FT RA BR BKN020 BKN030 OVC050 22/21 A2976 RMK AO2 SFC VIS 3 SLP070 P0057 60131 T02170206 10217 20194 56029=
201410141726 SPECI KATL 141726Z 17012G21KT 1SM R09R/3500VP6000FT +RA BR SCT007 BKN015 OVC023 22/21 A2979 RMK AO2 TWR VIS 2 P0020=
201410141702 SPECI KATL 141702Z 18012G19KT 2SM R09R/4000VP6000FT +RA BR FEW007 BKN012 OVC020 22/20 A2979 RMK AO2 P0004=
201410141700 SPECI KATL 141700Z 17012G19KT 4SM R09R/4000VP6000FT RA BR BKN012 BKN020 OVC030 22/20 A2979 RMK AO2 P0002=
201410141652 METAR KATL 141652Z 17011G19KT 8SM -RA BKN010 BKN014 OVC030 22/20 A2980 RMK AO2 RAE07B31 SLP081 VIS LWR SW-NW SHRA P0000 T02170200=
201410141643 SPECI KATL 141643Z 17014G21KT 9SM BKN010 BKN016 OVC030 22/20 A2980 RMK AO2 RAE07B31E43 VIS LWR NE-SE & SW-NW SHRA P0000=
201410141603 SPECI KATL 141603Z 16016G22KT 9SM -RA BKN008 BKN013 OVC030 21/20 A2982 RMK AO2 P0000=
201410141552 METAR KATL 141552Z 15011KT 4SM -RA BR BKN010 BKN015 OVC030 21/19 A2982 RMK AO2 PK WND 18029/1507 RAE24B48 SLP089 P0005 T02110194=
201410141528 SPECI KATL 141528Z 16014KT 10SM SCT008 BKN012 OVC040 21/19 A2983 RMK AO2 PK WND 18029/1507 RAE24 P0005=
201410141515 SPECI KATL 141515Z 16016G29KT 7SM -RA BKN008 BKN014 OVC030 21/19 A2983 RMK AO2 PK WND 18029/1507 P0005=
201410141452 METAR KATL 141452Z 15019G24KT 3SM RA BR BKN008 BKN016 OVC030 21/19 A2985 RMK AO2 PK WND 15027/1423 TWR VIS 4 SLP101 P0013 60069 T02060189 58007=
201410141427 SPECI KATL 141427Z 16016G27KT 5SM R09R/6000VP6000FT -RA BR SCT005 BKN008 OVC030 20/19 A2985 RMK AO2 PK WND 15027/1423 P0011=
201410141423 SPECI KATL 141423Z 15016G27KT 3SM R09R/6000VP6000FT +RA BR BKN008 BKN011 OVC030 20/19 A2984 RMK AO2 PK WND 15027/1423 TWR VIS 4 P0011=
201410141403 SPECI KATL 141403Z 15014G20KT 5SM -RA BR BKN008 BKN020 OVC030 20/19 A2985 RMK AO2 P0004=
201410141352 METAR KATL 141352Z 14008KT 2 1/2SM +RA BR BKN006 BKN010 OVC030 20/18 A2986 RMK AO2 SFC VIS 3 TSE20 SLP104 P0023 T02000183=
201410141321 SPECI KATL 141321Z 15010KT 2 1/2SM RA BR BKN006 BKN020 OVC030 19/18 A2988 RMK AO2 SFC VIS 4 TSE20 P0010=
201410141259 SPECI KATL 141259Z 15011G17KT 2SM TSRA BR BKN006 BKN013 OVC044CB 19/18 A2987 RMK AO2 SFC VIS 3 OCNL LTGIC ALQDS TS ALQDS MOV NE P0003=
201410141252 METAR KATL 141252Z COR 15010G15KT 2SM TSRA BR SCT006 BKN029CB OVC042 19/18 A2988 RMK AO2 SFC VIS 4 TSB23 SLP109 OCNL LTGIC ALQDS TS ALQDS MOV NE P0033 T01940183=
201410141224 SPECI KATL 141224Z 15010KT 2SM +TSRA BR BKN006 OVC014CB 19/18 A2989 RMK AO2 TSB23 OCNL LTGIC OHD-SW TS OHD-SW MOV NE P0017=
201410141214 SPECI KATL 141214Z 16009G17KT 2SM +RA BR BKN006 OVC012 19/18 A2988 RMK AO2 P0007=
201410141152 METAR KATL 141152Z 14010G15KT 7SM -RA BKN008 BKN050 OVC110 19/18 A2987 RMK AO2 SLP108 P0010 60116 70118 T01940183 10233 20189 58001=
201410141052 METAR KATL 141052Z 16009KT 9SM RA FEW005 BKN100 OVC120 19/18 A2988 RMK AO2 TSE35 SLP110 OCNL LTGICCA DSNT NE-SE TS MOV E CB DSNT NE-SE P0019 T01890178=
201410141036 SPECI KATL 141036Z 17008KT 7SM RA FEW005 SCT075 OVC100 19/18 A2989 RMK AO2 TSE35 OCNL LTGICCA DSNT NE-SE TS MOV E CB DSNT NE-SE P0015=
201410140952 METAR KATL 140952Z 16013G22KT 6SM -TSRA BR FEW005 BKN043CB OVC090 19/18 A2991 RMK AO2 PK WND 23026/0918 SLP118 OCNL LTGIC ALQDS TS ALQDS MOV NE P0059 T01890178=
201410140948 SPECI KATL 140948Z 17013G24KT 4SM TSRA BR FEW005 BKN043CB OVC090 19/18 A2991 RMK AO2 PK WND 23026/0918 OCNL LTGIC ALQDS TS ALQDS MOV NE P0058=
201410140934 SPECI KATL 140934Z 17014G24KT 2SM +TSRA BR FEW008 SCT024CB OVC055 19/18 A2990 RMK AO2 PK WND 23026/0918 OCNL LTGIC ALQDS TS ALQDS MOV NE P0052=
201410140921 SPECI KATL 140921Z 20017G26KT 3/4SM R09R/3000VP6000FT +TSRA BR BKN008 OVC016CB 20/19 A2992 RMK AO2 PK WND 23026/0918 PRESRR OCNL LTGIC ALQDS TS ALQDS MOV NE P0018=
201410140900 SPECI KATL 140900Z 17010G17KT 4SM TSRA BR BKN008 OVC014CB 22/21 A2988 RMK AO2 OCNL LTGIC ALQDS TS ALQDS MOV NE P0004=
201410140852 METAR KATL 140852Z 16010G20KT 2 1/2SM +TSRA BR BKN008 BKN012CB OVC017 22/21 A2988 RMK AO2 TSB50 SLP107 OCNL LTGIC ALQDS TS ALQDS MOV NE P0022 60028 T02220206 58016=
201410140850 SPECI KATL 140850Z 16012G20KT 4SM +TSRA BR BKN008 BKN012CB OVC017 22/21 A2988 RMK AO2 TSB50 OCNL LTGIC ALQDS TS ALQDS MOV NE P0021=
201410140837 SPECI KATL 140837Z 15013G18KT 4SM RA BR FEW005 BKN008 OVC014 22/21 A2988 RMK AO2 P0015=
201410140825 SPECI KATL 140825Z 15008G17KT 1 3/4SM +RA BR FEW005 BKN008 OVC016 22/21 A2989 RMK AO2 P0011=
201410140810 SPECI KATL 140810Z 14011KT 7SM -RA BKN011 BKN020 OVC055 22/21 A2989 RMK AO2 P0002=
201410140752 METAR KATL 140752Z 14012G18KT 6SM -RA BR SCT015 BKN024 OVC045 22/21 A2990 RMK AO2 SLP113 P0005 T02220206=
201410140652 METAR KATL 140652Z 16012G17KT 8SM -RA BKN020 BKN065 OVC110 23/21 A2993 RMK AO2 RAE0557B23 SLP126 P0001 T02280206=
201410140610 SPECI KATL 140610Z 16014G22KT 10SM SCT018TCU BKN034 OVC070 23/20 A2993 RMK AO2 RAE0557 TCU NE & NW P0000=
201410140552 METAR KATL 140552Z 15011G23KT 10SM -RA BKN018TCU BKN070 OVC120 23/20 A2993 RMK AO2 RAB29 SLP124 TCU E & NW P0002 60002 T02330200 10256 20233 56020=
201410140452 METAR KATL 140452Z 15014G19KT 10SM BKN020 BKN120 OVC150 24/19 A2995 RMK AO2 SLP134 T02390194 402940172=
201410140437 SPECI KATL 140437Z 15012G20KT 10SM BKN020 BKN120 OVC150 24/19 A2996 RMK AO2=
201410140352 METAR KATL 140352Z 15009G17KT 10SM FEW023 BKN110 BKN150 24/19 A2996 RMK AO2 SLP136 T02440189=
201410140252 METAR KATL 140252Z 15010KT 10SM BKN042 BKN090 OVC150 25/18 A2999 RMK AO2 SLP145 CB DSNT NE-E T02500183 56005=
201410140152 METAR KATL 140152Z 14009KT 10SM FEW050 BKN100 OVC150 25/18 A2999 RMK AO2 SLP148 T02500178=
201410140052 METAR KATL 140052Z 14006KT 10SM FEW050 BKN110 BKN200 25/17 A3000 RMK AO2 SLP149 T02500172=
201410132352 METAR KATL 132352Z 14006KT 10SM FEW050 SCT110 BKN150 BKN200 26/17 A3000 RMK AO2 SLP152 T02560167 10294 20256 53001=
201410132252 METAR KATL 132252Z 14007KT 10SM FEW050 BKN130 BKN200 BKN250 27/17 A2999 RMK AO2 SLP148 T02670167=
201410132152 METAR KATL 132152Z 14012G17KT 10SM FEW050 SCT150 BKN220 27/16 A2998 RMK AO2 SLP144 T02720156=
201410132052 METAR KATL 132052Z 15008G20KT 10SM SCT049 BKN080 BKN230 28/16 A3000 RMK AO2 SLP150 T02830156 56025=
201410131952 METAR KATL 131952Z 14012G17KT 10SM BKN049 BKN065 BKN230 29/17 A3002 RMK AO2 SLP156 T02890167=
201410131852 METAR KATL 131852Z 15011G22KT 10SM SCT038 BKN050 BKN230 28/18 A3004 RMK AO2 SLP165 T02780178=
201410131819 SPECI KATL 131819Z 14008G18KT 10SM BKN032 BKN050 28/18 A3006 RMK AO2=
201410131752 METAR KATL 131752Z 13009G14KT 10SM BKN025 BKN039 26/18 A3008 RMK AO2 SLP177 60000 T02610183 10267 20189 58020=
201410131652 METAR KATL 131652Z 13008G17KT 7SM BKN018 BKN031 25/19 A3010 RMK AO2 SLP186 T02500194=
201410131625 SPECI KATL 131625Z 13007G15KT 7SM FEW013 BKN016 BKN031 24/19 A3012 RMK AO2=
201410131552 METAR KATL 131552Z 13009KT 7SM BKN011 OVC029 23/19 A3013 RMK AO2 SLP195 T02280194=
201410131538 SPECI KATL 131538Z 13009G15KT 7SM BKN011 OVC029 23/19 A3013 RMK AO2=
201410131535 SPECI KATL 131535Z 13010G15KT 2 1/2SM BKN011 OVC029 23/19 A3013 RMK AO2 SFC VIS 7=
201410131452 METAR KATL 131452Z 12007KT 2 1/2SM BR OVC006 21/19 A3014 RMK AO2 SFC VIS 6 SLP200 60000 T02110189 50004=
201410131404 SPECI KATL 131404Z 11007KT 2SM BR OVC006 21/19 A3015 RMK AO2 SFC VIS 5=
201410131352 METAR KATL 131352Z 11006KT 2SM BR OVC004 21/19 A3014 RMK AO2 SFC VIS 5 DZE34 SLP201 P0000 T02060189=
201410131336 SPECI KATL 131336Z 12008KT 2SM BR OVC004 21/19 A3014 RMK AO2 SFC VIS 5 DZE34 P0000=
201410131252 METAR KATL 131252Z 12006KT 1SM -DZ BR OVC004 19/18 A3013 RMK AO2 SFC VIS 2 1/2 DZB08 SLP198 CIG 003V005 TWRINC PCPN VRY LGT P0000 T01940183=
201410131222 SPECI KATL 131222Z 12007KT 1SM -DZ BR OVC004 19/18 A3013 RMK AO2 SFC VIS 1 1/2 DZB08 CIG 003V005 TWRINC P0000=
201410131208 SPECI KATL 131208Z 11007KT 1SM -DZ BR OVC005 19/18 A3013 RMK AO2 SFC VIS 1 1/2 DZB08 CIG 004V006 TWRINC P0000=
201410131152 METAR KATL 131152Z 11006KT 2SM BR OVC005 19/18 A3013 RMK AO2 SFC VIS 2 1/2 SLP194 CIG 004V006 TWRINC 60000 70005 T01890178 10189 20172 53002=
201410131052 METAR KATL 131052Z 11006KT 2SM BR OVC004 18/17 A3012 RMK AO2 SFC VIS 5 SLP192 TWRINC T01830172=
201410130952 METAR KATL 130952Z 10007KT 2SM BR OVC003 18/17 A3012 RMK AO2 SFC VIS 3 DZE25 SLP191 CIG 002V004 TWRINC P0000 T01780172=
201410130931 SPECI KATL 130931Z 10006KT 2SM BR OVC003 18/17 A3012 RMK AO2 SFC VIS 3 DZE25 VIS NW-NE 1 1/2 P0000=
201410130852 METAR KATL 130852Z 09010KT 1 3/4SM -DZ BR OVC002 18/17 A3012 RMK AO2 TWR VIS 2 RAB0757E21DZB21 SLP191 P0000 60000 T01780172 58005=
201410130752 METAR KATL 130752Z 11008KT 1SM R09R/5000VP6000FT BR OVC002 17/17 A3013 RMK AO2 TWR VIS 2 DZE33 SLP194 P0000 T01720167=
201410130748 SPECI KATL 130748Z 10009KT 1SM R09R/6000VP6000FT BR OVC002 17/17 A3013 RMK AO2 TWR VIS 2 DZE33 P0000=
201410130652 METAR KATL 130652Z 09009KT 1 1/2SM -DZ BR OVC002 17/17 A3014 RMK AO2 TWR VIS 2 SLP197 P0000 T01720167=
201410130646 SPECI KATL 130646Z 10009KT 1 1/2SM -DZ BR OVC003 17/17 A3014 RMK AO2 TWR VIS 2 P0000=
201410130607 SPECI KATL 130607Z 10009KT 2SM -DZ BR OVC003 18/17 A3014 RMK AO2 P0000=
201410130552 METAR KATL 130552Z 10012KT 1 3/4SM -DZ BR OVC003 18/17 A3014 RMK AO2 TWR VIS 2 DZB42 SLP197 P0000 60000 T01780167 10256 20178 50002=
201410130514 SPECI KATL 130514Z 09012KT 2SM BR OVC004 18/17 A3015 RMK AO2 SFC VIS 5 TWRINC=
201410130452 METAR KATL 130452Z 09011KT 6SM BR OVC005 18/17 A3015 RMK AO2 SLP200 T01830167 402940183=
201410130352 METAR KATL 130352Z 08013KT 10SM OVC007 19/17 A3014 RMK AO2 SLP200 T01890167=
201410130252 METAR KATL 130252Z 08014KT 10SM OVC009 19/17 A3013 RMK AO2 SLP197 T01940172 52025=
201410130226 SPECI KATL 130226Z 08014KT 10SM OVC009 20/17 A3013 RMK AO2=
201410130152 METAR KATL 130152Z 07013KT 10SM OVC011 21/18 A3011 RMK AO2 SLP190 T02060178=
201410130131 SPECI KATL 130131Z 08013KT 10SM BKN011 21/18 A3010 RMK AO2=
201410130052 METAR KATL 130052Z 08014G19KT 10SM SCT060 BKN090 22/18 A3008 RMK AO2 SLP177 T02170183=
201410122352 METAR KATL 122352Z 08008G17KT 10SM SCT050 SCT065 SCT250 25/19 A3005 RMK AO2 SLP169 T02500189 10294 20250 53012=
201410122252 METAR KATL 122252Z 16006KT 10SM SCT050TCU SCT060 SCT100 SCT250 27/16 A3004 RMK AO2 SLP162 TCU E T02720156=
201410122152 METAR KATL 122152Z COR 19010KT 10SM SCT050TCU SCT060 SCT200 28/16 A3003 RMK AO2 SLP160 TCU N CB DSNT NE T02830156=
201410122052 METAR KATL 122052Z 17011G15KT 10SM SCT055 SCT070 SCT200 29/16 A3002 RMK AO2 SLP155 T02940161 56015=
201410121952 METAR KATL 121952Z 18010KT 10SM SCT050 SCT080 BKN200 BKN250 29/16 A3002 RMK AO2 SLP156 TCU DSNT NE & W T02940161=
201410121852 METAR KATL 121852Z 19007KT 10SM SCT044 BKN110 BKN200 29/17 A3003 RMK AO2 SLP160 MDT CU ALQDS T02890167=
201410121752 METAR KATL 121752Z VRB04KT 10SM FEW038 SCT110 BKN250 28/18 A3006 RMK AO2 SLP171 60005 T02780178 10289 20206 58016=
201410121652 METAR KATL 121652Z VRB03KT 10SM FEW030 SCT075 SCT110 SCT200 28/19 A3010 RMK AO2 SLP181 TCU DSNT N T02780189=
201410121552 METAR KATL 121552Z 00000KT 10SM FEW016 SCT075 BKN110 BKN200 24/20 A3011 RMK AO2 RAE03 SLP188 P0000 T02390200=
201410121452 METAR KATL 121452Z 28004KT 10SM -RA FEW070 BKN100 BKN200 21/19 A3011 RMK AO2 SLP189 P0003 60005 T02110189 51016=
201410121352 METAR KATL 121352Z 27006KT 6SM -RA BR FEW008 SCT055 BKN100 BKN200 21/19 A3010 RMK AO2 RAB01 SLP186 P0002 T02060189=
201410121252 METAR KATL 121252Z 25005KT 7SM FEW010 BKN055 BKN100 BKN150 BKN250 21/18 A3008 RMK AO2 RAB27E43 SLP179 P0000 T02110183=
201410121152 METAR KATL 121152Z 17003KT 10SM FEW050 SCT085 BKN150 BKN250 21/18 A3006 RMK AO2 SLP171 TCU DSNT W-N 70002 T02060183 10222 20200 53013=
201410121052 METAR KATL 121052Z 00000KT 10SM FEW050 SCT095 20/18 A3005 RMK AO2 SLP165 T02000183=
201410120952 METAR KATL 120952Z 00000KT 10SM SCT050 21/19 A3004 RMK AO2 SLP162 T02060189=
201410120852 METAR KATL 120852Z 00000KT 10SM FEW046 SCT075 SCT250 22/19 A3002 RMK AO2 SLP157 T02170189 58002=
201410120752 METAR KATL 120752Z COR 00000KT 10SM SCT046TCU 22/19 A3003 RMK AO2 SLP158 TCU E T02170189=
201410120652 METAR KATL 120652Z 00000KT 10SM BKN047 22/19 A3003 RMK AO2 SLP158 T02220189=
201410120552 METAR KATL 120552Z 00000KT 10SM FEW060 SCT150 SCT250 22/19 A3003 RMK AO2 SLP159 60002 T02220194 10261 20217 55007=
201410120452 METAR KATL 120452Z 14003KT 10SM CLR 23/19 A3003 RMK AO2 SLP157 T02280194 403000211=
201410120352 METAR KATL 120352Z 14004KT 10SM FEW075 23/19 A3004 RMK AO2 SLP163 T02280194=
201410120252 METAR KATL 120252Z 00000KT 10SM FEW032 SCT045 BKN075 24/19 A3005 RMK AO2 RAB00E26 SLP168 P0002 60002 T02440194 53012=
201410120152 METAR KATL 120152Z 00000KT 10SM SCT037 BKN050 BKN100 25/19 A3004 RMK AO2 SLP164 T02500194=
201410120052 METAR KATL 120052Z 00000KT 10SM SCT033 BKN050 BKN230 26/19 A3003 RMK AO2 SLP159 T02560189=
201410112352 METAR KATL 112352Z 00000KT 10SM FEW040 SCT070 SCT230 26/19 A3002 RMK AO2 SLP155 T02560189 10300 20256 53002=
201410112252 METAR KATL 112252Z 00000KT 10SM FEW037 SCT070 BKN230 27/19 A3000 RMK AO2 SLP151 T02670189=
201410112152 METAR KATL 112152Z VRB03KT 10SM SCT046 SCT070 BKN230 27/19 A3001 RMK AO2 SLP153 T02720189=
201410112052 METAR KATL 112052Z 28006KT 10SM FEW040TCU SCT070 BKN180 BKN250 28/19 A3001 RMK AO2 SLP152 TCU N & S T02830189 58007=
201410111952 METAR KATL 111952Z 33008KT 10SM SCT034TCU BKN070 BKN200 28/19 A3002 RMK AO2 TSE1859 SLP156 TS DSIPTD TCU SE-SW T02780189=
201410111900 SPECI KATL 111900Z 32012G15KT 10SM BKN034TCU BKN075 BKN200 27/18 A3003 RMK AO2 TSE1859 TS DSIPTD TCU NE-OHD-SW VCSH NE=
201410111852 METAR KATL 111852Z 27008KT 230V320 10SM TS SCT034CB SCT044TCU BKN075 BKN200 29/19 A3003 RMK AO2 TSB44 SLP159 OCNL LTGICCG N-NE TS VC N-NE MOV E TCU NE-OHD-SW VCSH N-NE T02940189=
201410111846 SPECI KATL 111846Z 23007KT 10SM TS SCT034CB SCT044TCU BKN075 BKN200 29/19 A3003 RMK AO2 TSB44 OCNL LTGICCG NW-NE TS VC NW-NE MOV E TCU W-NW VCSH NW-NE=
201410111752 METAR KATL 111752Z 21009KT 10SM SCT032TCU BKN080 BKN200 28/19 A3006 RMK AO2 SLP168 CB DSNT NE & W-NW TCU NE & SE & DSNT W-N T02780194 10283 20217 58013=
201410111652 METAR KATL 111652Z 24009KT 10SM FEW030 SCT100 SCT200 SCT250 27/19 A3008 RMK AO2 SLP175 CB DSNT NW TCU DSNT N & W-NW T02720194=
201410111552 METAR KATL 111552Z 22012KT 10SM SCT015 SCT120 BKN250 25/20 A3008 RMK AO2 SLP179 T02500200=
201410111543 SPECI KATL 111543Z 23009KT 10SM SCT015 SCT120 BKN250 25/20 A3009 RMK AO2=
201410111520 SPECI KATL 111520Z 24008KT 8SM BKN010 BKN120 BKN250 24/20 A3009 RMK AO2=
201410111452 METAR KATL 111452Z 26007KT 7SM OVC008 23/20 A3009 RMK AO2 SLP182 CIG 007V010 T02280200 53017=
201410111417 SPECI KATL 111417Z 27009KT 9SM OVC008 22/19 A3009 RMK AO2=
201410111352 METAR KATL 111352Z 24009G17KT 10SM OVC010 23/19 A3008 RMK AO2 SLP177 BINOVC T02280194=
201410111315 SPECI KATL 111315Z 22008KT 10SM BKN010 BKN110 BKN200 BKN250 22/19 A3007 RMK AO2 CB DSNT NW=
201410111252 METAR KATL 111252Z 22009KT 10SM FEW012 SCT120 BKN250 22/19 A3005 RMK AO2 SLP168 CB DSNT NW T02220194=
201410111152 METAR KATL 111152Z 24008KT 10SM FEW012 SCT070 SCT120 SCT250 22/19 A3004 RMK AO2 SLP165 T02170189 10228 20211 53008=
201410111052 METAR KATL 111052Z 23006KT 10SM SCT075 BKN120 21/18 A3003 RMK AO2 SLP161 T02110183=
201410110952 METAR KATL 110952Z 23005KT 10SM FEW043 SCT070 SCT120 21/18 A3002 RMK AO2 SLP156 T02110178=
201410110852 METAR KATL 110852Z COR 24005KT 10SM FEW070 21/17 A3002 RMK AO2 SLP155 T02110172 53001=
201410110752 METAR KATL 110752Z 23006KT 10SM FEW090 SCT220 22/17 A3001 RMK AO2 SLP152 T02170172=
201410110652 METAR KATL 110652Z 24004KT 10SM SCT100 BKN220 22/17 A3002 RMK AO2 SLP154 T02220172=
201410110552 METAR KATL 110552Z 23005KT 10SM FEW090 BKN220 22/17 A3001 RMK AO2 SLP153 T02220172 10256 20222 55005=
201410110452 METAR KATL 110452Z 22006KT 10SM FEW090 SCT200 BKN250 22/17 A3001 RMK AO2 SLP152 T02220172 403000189=
201410110352 METAR KATL 110352Z 22005KT 10SM FEW090 BKN200 OVC250 23/17 A3003 RMK AO2 SLP157 T02280172=
201410110252 METAR KATL 110252Z 00000KT 10SM FEW100 BKN200 OVC250 24/17 A3003 RMK AO2 SLP159 T02390172 50000=
201410110152 METAR KATL 110152Z 17008KT 10SM FEW100 BKN250 24/17 A3003 RMK AO2 SLP159 T02390172=
201410110052 METAR KATL 110052Z 23005KT 10SM FEW080 BKN110 BKN250 25/17 A3004 RMK AO2 SLP165 T02500167=
201410102352 METAR KATL 102352Z 22003KT 10SM FEW050 BKN150 BKN250 26/16 A3003 RMK AO2 SLP161 T02560161 10300 20256 53001=
201410102252 METAR KATL 102252Z 23007KT 10SM FEW050 SCT250 27/16 A3003 RMK AO2 SLP160 T02720156=
201410102152 METAR KATL 102152Z 24008KT 10SM FEW050 SCT250 29/16 A3003 RMK AO2 SLP158 T02890161=
201410102052 METAR KATL 102052Z 24010G17KT 10SM BKN050 BKN250 29/16 A3003 RMK AO2 SLP159 T02890161 56011=
201410101952 METAR KATL 101952Z 25010G16KT 10SM FEW045 BKN250 29/15 A3003 RMK AO2 SLP158 T02940150=
201410101852 METAR KATL 101852Z 21011G17KT 170V230 10SM FEW045 SCT250 29/15 A3004 RMK AO2 SLP161 T02940150=
201410101752 METAR KATL 101752Z 22011KT 10SM FEW045 BKN250 29/16 A3006 RMK AO2 SLP170 T02940161 10300 20189 58018=
201410101652 METAR KATL 101652Z 21014G20KT 10SM SCT040 SCT250 28/17 A3009 RMK AO2 SLP178 T02830167=
201410101552 METAR KATL 101552Z 21010KT 10SM FEW030 SCT250 27/18 A3010 RMK AO2 SLP184 T02720183=
201410101452 METAR KATL 101452Z 24007KT 10SM FEW250 26/18 A3012 RMK AO2 SLP189 T02560183 51007=
201410101352 METAR KATL 101352Z 24003KT 10SM FEW150 SCT250 23/19 A3012 RMK AO2 SLP190 T02330189=
201410101252 METAR KATL 101252Z 22004KT 10SM SCT180 SCT250 21/18 A3011 RMK AO2 SLP188 T02060178=
201410101152 METAR KATL 101152Z 18004KT 10SM SCT180 SCT250 19/17 A3010 RMK AO2 SLP183 T01890172 10206 20189 53005=
201410101052 METAR KATL 101052Z 16004KT 10SM FEW180 SCT250 19/18 A3009 RMK AO2 SLP180 T01890178=
201410100952 METAR KATL 100952Z 12003KT 10SM SCT180 BKN250 19/18 A3009 RMK AO2 SLP179 T01940178=
201410100852 METAR KATL 100852Z 00000KT 10SM FEW180 SCT250 20/18 A3008 RMK AO2 SLP177 T02000178 55003=
201410100752 METAR KATL 100752Z 12003KT 10SM FEW250 20/18 A3008 RMK AO2 SLP176 T02000178=
201410100652 METAR KATL 100652Z 10005KT 10SM FEW120 SCT200 SCT250 20/17 A3009 RMK AO2 SLP179 T02000172=
201410100552 METAR KATL 100552Z 08006KT 10SM FEW050 SCT120 SCT200 BKN250 21/18 A3009 RMK AO2 SLP179 T02060178 10261 20206 58006=
201410100452 METAR KATL 100452Z 09006KT 10SM FEW055 SCT120 BKN250 21/18 A3009 RMK AO2 SLP181 T02110183 403000206=
201410100352 METAR KATL 100352Z 10003KT 10SM FEW040 SCT250 22/18 A3010 RMK AO2 SLP184 T02220183=
201410100252 METAR KATL 100252Z 10003KT 10SM FEW040 SCT250 24/18 A3011 RMK AO2 SLP185 T02440183 51009=
201410100152 METAR KATL 100152Z 09003KT 10SM BKN250 25/18 A3010 RMK AO2 SLP183 T02500178=
201410100052 METAR KATL 100052Z 09003KT 10SM BKN250 25/18 A3009 RMK AO2 SLP179 T02500178=
201410092352 METAR KATL 092352Z 09004KT 10SM SCT250 26/17 A3008 RMK AO2 SLP176 FRQ LTG DSNT NE 60000 T02560172 10300 20256 53002=
201410092252 METAR KATL 092252Z 04005KT 10SM FEW045 SCT250 27/18 A3007 RMK AO2 SLP174 CB DSNT N & NE T02720183=
201410092152 METAR KATL 092152Z 04006KT 10SM FEW045TCU SCT100 SCT250 28/19 A3007 RMK AO2 TSE11RAE00 SLP172 TCU VC NE-SE P0000 T02780189=
201410092111 SPECI KATL 092111Z VRB04KT 10SM SCT045TCU BKN090 BKN250 29/18 A3007 RMK AO2 TSE11RAE00 OCNL LTGCGIC DSNT NE TS MOV NE TCU N-OHD-SW P0000=
201410092052 METAR KATL 092052Z 22004KT 10SM -TSRA FEW040CB BKN050TCU BKN100 BKN250 28/19 A3007 RMK AO2 TSB39RAB41 SLP172 FRQ LTGICCG NE TS VC NE MOV NE TCU OHD & ALQDS SHRA VC NE & SE P0000 60000 T02780189 56020=
201410092039 SPECI KATL 092039Z 19004KT 10SM TS FEW045CB BKN050TCU BKN100 BKN250 28/18 A3007 RMK AO2 TSB39 FRQ LTGICCG NE TS VC NE MOV E TCU OHD & ALQDS SHRA VC NE & SE=
201410091952 METAR KATL 091952Z 23003KT 10SM BKN050TCU BKN080 BKN250 29/18 A3009 RMK AO2 SLP177 CB DSNT NW TCU OHD & S-SW-W-NW SHRA DSNT NW T02890178=
201410091852 METAR KATL 091852Z VRB04KT 10SM SCT044 SCT200 BKN250 29/17 A3010 RMK AO2 SLP184 CB DSNT NW TCU DSNT NE & SE-S-SW-W SHRA DSNT NW T02940172=
201410091752 METAR KATL 091752Z 25003KT 10SM SCT050TCU SCT250 29/17 A3013 RMK AO2 SLP194 CB DSNT SW TCU E-SE-S-SW-W T02890172 10300 20206 58012=
201410091652 METAR KATL 091652Z VRB03KT 10SM FEW050 SCT200 SCT250 29/17 A3016 RMK AO2 SLP202 T02940172=
201410091552 METAR KATL 091552Z 32005KT 10SM SCT050 SCT150 BKN250 28/17 A3017 RMK AO2 SLP205 T02830172=
201410091452 METAR KATL 091452Z 00000KT 10SM FEW040 SCT150 BKN250 26/19 A3017 RMK AO2 SLP206 T02610189 51012=
201410091352 METAR KATL 091352Z 00000KT 9SM FEW150 BKN250 OVC300 24/19 A3016 RMK AO2 SLP204 T02390194=
201410091252 METAR KATL 091252Z 00000KT 10SM FEW150 BKN200 BKN250 22/19 A3015 RMK AO2 SLP201 T02220194=
201410091152 METAR KATL 091152Z 00000KT 10SM FEW160 BKN200 BKN250 22/18 A3013 RMK AO2 SLP195 T02170183 10228 20206 51006=
201410091052 METAR KATL 091052Z 32004KT 10SM BKN180 BKN250 21/19 A3013 RMK AO2 SLP194 T02060189=
201410090952 METAR KATL 090952Z 00000KT 10SM BKN180 BKN250 21/19 A3012 RMK AO2 SLP191 T02110189=
201410090852 METAR KATL 090852Z 00000KT 10SM OVC180 22/19 A3011 RMK AO2 SLP188 T02170189 53002=
201410090752 METAR KATL 090752Z 00000KT 10SM BKN170 BKN250 23/19 A3011 RMK AO2 SLP186 T02280189=
201410090652 METAR KATL 090652Z 00000KT 10SM BKN180 BKN250 21/19 A3011 RMK AO2 SLP187 T02060189=
201410090552 METAR KATL 090552Z 18003KT 10SM SCT180 BKN250 21/19 A3011 RMK AO2 SLP187 T02110189 10267 20211 58007=
201410090452 METAR KATL 090452Z 00000KT 10SM FEW180 SCT250 22/19 A3012 RMK AO2 SLP192 T02170189 403000189=
201410090352 METAR KATL 090352Z 00000KT 10SM SCT180 BKN250 23/19 A3013 RMK AO2 SLP193 T02330194=
201410090252 METAR KATL 090252Z 29003KT 10SM BKN180 BKN250 23/19 A3013 RMK AO2 SLP194 T02330194 51013=
201410090152 METAR KATL 090152Z 30003KT 10SM SCT150 BKN200 BKN250 24/19 A3012 RMK AO2 SLP190 T02440189=
201410090052 METAR KATL 090052Z 32005KT 10SM FEW100 BKN200 BKN250 26/19 A3011 RMK AO2 SLP188 T02560189=
201410082352 METAR KATL 082352Z 31005KT 10SM FEW200 BKN250 27/18 A3009 RMK AO2 SLP180 T02670183 10300 20261 53002=
201410082252 METAR KATL 082252Z 31007KT 10SM FEW040 BKN250 27/18 A3008 RMK AO2 SLP178 T02720183=
201410082152 METAR KATL 082152Z 29009KT 10SM FEW040 SCT250 29/18 A3007 RMK AO2 SLP175 TCU DSNT E T02890183=
201410082052 METAR KATL 082052Z 29007KT 10SM FEW038 SCT047 BKN250 29/19 A3008 RMK AO2 SLP178 TCU DSNT N T02940189 56016=
201410081952 METAR KATL 081952Z 28010KT 10SM FEW040 SCT200 BKN250 28/19 A3009 RMK AO2 SLP181 TCU DSNT NW T02830194=
201410081852 METAR KATL 081852Z VRB04KT 10SM SCT032 SCT250 28/19 A3011 RMK AO2 SLP186 T02780189=
201410081752 METAR KATL 081752Z 27007KT 10SM FEW028 BKN035 BKN250 27/19 A3013 RMK AO2 SLP194 T02720189 10278 20200 58008=
201410081652 METAR KATL 081652Z 25006KT 10SM BKN030 BKN250 27/18 A3014 RMK AO2 SLP199 T02670183=
201410081552 METAR KATL 081552Z 24006KT 10SM FEW027 SCT060 SCT250 26/18 A3015 RMK AO2 SLP202 T02610183=
201410081452 METAR KATL 081452Z VRB05KT 10SM FEW030 SCT060 SCT250 23/17 A3015 RMK AO2 SLP203 T02330167 50010=
201410081352 METAR KATL 081352Z 00000KT 10SM FEW030 SCT060 SCT150 BKN250 22/17 A3017 RMK AO2 SLP211 T02170172=
201410081322 SPECI KATL 081322Z 34006KT 10SM FEW010 BKN028 BKN038 21/18 A3019 RMK AO2=
201410081252 METAR KATL 081252Z 31007KT 10SM BKN038 BKN060 BKN200 BKN250 21/18 A3017 RMK AO2 SLP210 T02060183=
201410081152 METAR KATL 081152Z 26006KT 10SM FEW050 BKN200 BKN250 21/18 A3012 RMK AO2 SLP193 T02060178 10206 20189 53019=
201410081052 METAR KATL 081052Z 26007KT 10SM SCT200 SCT250 20/18 A3010 RMK AO2 SLP183 T02000178=
201410080952 METAR KATL 080952Z 25007KT 10SM FEW250 20/18 A3009 RMK AO2 SLP180 T02000178=
201410080852 METAR KATL 080852Z 24003KT 10SM FEW250 19/17 A3007 RMK AO2 SLP173 T01890167 55000=
201410080752 METAR KATL 080752Z 24008KT 10SM CLR 20/17 A3005 RMK AO2 SLP168 T02000167=
201410080652 METAR KATL 080652Z 24006KT 10SM CLR 20/16 A3007 RMK AO2 SLP174 T02000156=
201410080552 METAR KATL 080552Z 23006KT 10SM CLR 20/15 A3007 RMK AO2 SLP173 T02000150 10228 20194 58004=
201410080452 METAR KATL 080452Z 22005KT 10SM CLR 19/15 A3007 RMK AO2 SLP175 T01940150 402780144=
201410080352 METAR KATL 080352Z 22006KT 10SM FEW100 20/15 A3008 RMK AO2 SLP179 T02000150=
201410080252 METAR KATL 080252Z 22005KT 10SM SCT100 21/15 A3008 RMK AO2 SLP178 T02110150 51014=
201410080152 METAR KATL 080152Z 20006KT 10SM FEW120 21/14 A3006 RMK AO2 SLP173 T02110144=
201410080052 METAR KATL 080052Z 19006KT 10SM FEW120 21/14 A3005 RMK AO2 SLP171 T02110144=
201410072352 METAR KATL 072352Z 19003KT 10SM FEW150 SCT250 23/14 A3003 RMK AO2 SLP164 T02280144 10278 20228 53002=
201410072252 METAR KATL 072252Z 21006KT 10SM FEW150 BKN250 25/14 A3002 RMK AO2 SLP159 T02500144=
201410072152 METAR KATL 072152Z 21008KT 10SM FEW050 SCT150 BKN250 26/14 A3002 RMK AO2 SLP159 T02610144=
201410072052 SPECI KATL 072052Z 22011G15KT 10SM FEW050 SCT150 SCT250 27/14 A3003 RMK AO2 SLP161 T02670144 56013=
201410072052 METAR KATL 072052Z 22011G15KT 10SM FEW050 SCT150 SCT250 27/14 A3003 RMK AO2 SLP161 T02670144 56013=
201410071952 METAR KATL 071952Z 26011G17KT 10SM SCT050 SCT250 27/14 A3003 RMK AO2 SLP163 T02720139=
201410071852 METAR KATL 071852Z 25008KT 10SM SCT046 SCT200 BKN250 26/14 A3005 RMK AO2 SLP166 T02610144=
201410071752 METAR KATL 071752Z 22007G17KT 10SM FEW040 SCT200 SCT250 26/15 A3007 RMK AO2 SLP176 T02560150 10261 20156 58014=
201410071652 METAR KATL 071652Z 22011G16KT 10SM FEW040 SCT060 SCT250 25/16 A3008 RMK AO2 SLP181 T02500156=
201410071552 METAR KATL 071552Z 22006G14KT 10SM FEW030 SCT060 SCT250 23/16 A3010 RMK AO2 SLP187 T02330156=
201410071452 METAR KATL 071452Z 21007KT 10SM FEW025 SCT060 SCT250 22/15 A3011 RMK AO2 SLP190 T02170150 50005=
201410071352 METAR KATL 071352Z VRB04KT 10SM FEW060 SCT200 BKN250 19/14 A3011 RMK AO2 SLP192 T01940139=
201410071252 METAR KATL 071252Z 18003KT 10SM FEW050 SCT150 BKN250 16/12 A3011 RMK AO2 SLP193 ACC DSNT NE & NW T01610122=
201410071152 METAR KATL 071152Z 00000KT 10SM FEW050 SCT150 BKN250 16/12 A3009 RMK AO2 SLP185 T01560117 10178 20144 53017=
201410071052 METAR KATL 071052Z 00000KT 10SM BKN150 16/11 A3007 RMK AO2 SLP178 T01560111=
201410070952 METAR KATL 070952Z 19004KT 10SM BKN200 14/11 A3005 RMK AO2 SLP170 T01440106=
201410070852 METAR KATL 070852Z 17006KT 10SM FEW250 15/09 A3004 RMK AO2 SLP167 T01500094 58008=
201410070752 METAR KATL 070752Z 00000KT 10SM FEW050 SCT250 16/09 A3007 RMK AO2 SLP174 T01610094=
201410070652 METAR KATL 070652Z 35003KT 10SM OVC050 18/09 A3009 RMK AO2 SLP182 T01780089=
201410070552 METAR KATL 070552Z 22005KT 10SM FEW140 BKN250 16/09 A3007 RMK AO2 SLP175 T01560089 10206 20150 51006=
201410070452 METAR KATL 070452Z 19006KT 10SM SCT140 BKN250 16/09 A3006 RMK AO2 SLP171 T01560089 402560106=
201410070352 METAR KATL 070352Z 18006KT 10SM BKN140 BKN250 17/09 A3006 RMK AO2 SLP175 T01670089=
201410070252 METAR KATL 070252Z 20005KT 10SM FEW140 BKN250 18/08 A3005 RMK AO2 SLP170 T01780083 53017=
201410070152 METAR KATL 070152Z 19008KT 10SM BKN140 BKN250 18/08 A3003 RMK AO2 SLP164 T01830083=
201410070052 METAR KATL 070052Z 19007KT 10SM FEW150 SCT250 19/09 A3000 RMK AO2 SLP156 T01890094=
201410062352 METAR KATL 062352Z 18008KT 10SM FEW150 SCT250 21/10 A3000 RMK AO2 SLP156 T02060100 10256 20206 56004=
201410062252 METAR KATL 062252Z 18008KT 10SM FEW120 BKN150 BKN250 23/10 A3001 RMK AO2 SLP158 T02280100=
201410062152 METAR KATL 062152Z 20005KT 10SM FEW120 BKN150 BKN250 23/09 A3000 RMK AO2 SLP154 T02330094=
201410062052 METAR KATL 062052Z 23014G21KT 180V250 10SM FEW070 SCT110 BKN250 24/08 A3001 RMK AO2 SLP157 T02440083 56012=
201410061952 METAR KATL 061952Z 23014G23KT 10SM FEW070 BKN110 BKN250 26/08 A3001 RMK AO2 SLP158 T02560078=
201410061852 METAR KATL 061852Z 22017KT 10SM FEW060 SCT080 SCT250 24/08 A3001 RMK AO2 SLP158 T02440078=
201410061752 METAR KATL 061752Z 21011G17KT 10SM FEW050 SCT080 SCT250 24/10 A3004 RMK AO2 SLP169 T02390100 10244 20106 58014=
201410061652 METAR KATL 061652Z 23011G19KT 10SM FEW040 SCT080 SCT250 23/11 A3007 RMK AO2 SLP177 T02280106=
201410061552 METAR KATL 061552Z 21011KT 10SM FEW040 SCT080 SCT250 21/11 A3009 RMK AO2 SLP185 T02060106=
201410061452 METAR KATL 061452Z 23010G17KT 10SM FEW060 SCT250 19/11 A3009 RMK AO2 SLP185 T01890106 51012=
201410061352 METAR KATL 061352Z 22009KT 10SM FEW060 SCT200 SCT250 16/09 A3009 RMK AO2 SLP185 T01610089=
201410061252 METAR KATL 061252Z 21006KT 10SM FEW200 BKN250 13/08 A3007 RMK AO2 SLP182 T01280078=
201410061152 METAR KATL 061152Z 22003KT 10SM FEW200 SCT250 11/07 A3005 RMK AO2 SLP174 T01060067 10128 20106 53009=
201410061052 METAR KATL 061052Z 21006KT 10SM SCT220 SCT250 11/07 A3003 RMK AO2 SLP166 T01060067=
201410060952 METAR KATL 060952Z 19005KT 10SM BKN220 11/07 A3002 RMK AO2 SLP164 T01060067=
201410060852 METAR KATL 060852Z 20005KT 10SM BKN220 11/07 A3002 RMK AO2 SLP163 T01110067 58002=
201410060752 METAR KATL 060752Z 17004KT 10SM SCT250 12/07 A3002 RMK AO2 SLP164 T01170067=
201410060652 METAR KATL 060652Z 00000KT 10SM FEW200 SCT250 12/06 A3003 RMK AO2 SLP166 T01220061=
201410060552 METAR KATL 060552Z 00000KT 10SM FEW200 SCT250 13/07 A3003 RMK AO2 SLP165 T01280067 10161 20128 50001=
201410060452 METAR KATL 060452Z COR 19004KT 10SM FEW200 SCT250 13/06 A3003 RMK AO2 SLP168 T01280061 402170072=
201410060352 METAR KATL 060352Z 20005KT 10SM FEW200 SCT250 13/06 A3004 RMK AO2 SLP169 T01330061=
201410060252 METAR KATL 060252Z 21005KT 10SM FEW075 SCT250 14/06 A3003 RMK AO2 SLP165 T01390061 53015=
201410060152 METAR KATL 060152Z 20004KT 10SM FEW100 SCT200 14/06 A3001 RMK AO2 SLP161 T01390061=
201410060052 METAR KATL 060052Z 20006KT 10SM FEW110 SCT200 15/06 A2999 RMK AO2 SLP156 T01500061=
201410052352 METAR KATL 052352Z 20005KT 10SM FEW110 SCT200 16/06 A2998 RMK AO2 SLP152 T01610056 10217 20161 55001=
201410052252 METAR KATL 052252Z 20006KT 10SM FEW110 SCT250 19/04 A2997 RMK AO2 SLP148 T01890044=
201410052152 METAR KATL 052152Z 20008KT 10SM FEW120 SCT250 21/03 A2997 RMK AO2 SLP147 T02060033=
201410052052 METAR KATL 052052Z VRB03KT 10SM FEW250 21/02 A2998 RMK AO2 SLP152 T02060017 56018=
201410051952 METAR KATL 051952Z 31009KT 10SM FEW250 21/02 A2999 RMK AO2 SLP155 T02110017=
201410051852 METAR KATL 051852Z 26009KT 10SM FEW250 20/01 A3001 RMK AO2 SLP160 T02000011=
201410051752 METAR KATL 051752Z VRB06G14KT 10SM CLR 19/02 A3004 RMK AO2 SLP170 T01890017 10194 20078 58010=
201410051652 METAR KATL 051652Z VRB03KT 10SM CLR 18/01 A3005 RMK AO2 SLP175 T01830006=
201410051552 METAR KATL 051552Z 00000KT 10SM CLR 17/00 A3007 RMK AO2 SLP181 T01720000=
201410051452 METAR KATL 051452Z 00000KT 10SM CLR 15/01 A3007 RMK AO2 SLP182 T01500006 51013=
201410051352 METAR KATL 051352Z 00000KT 10SM CLR 12/02 A3006 RMK AO2 SLP181 T01220017 $=
201410051252 METAR KATL 051252Z 27003KT 10SM CLR 08/02 A3005 RMK AO2 SLP177 T00830022 $=
201410051152 METAR KATL 051152Z 28004KT 10SM CLR 08/02 A3003 RMK AO2 SLP169 T00780022 10094 20072 53014 $=
201410051052 METAR KATL 051052Z 00000KT 10SM CLR 08/02 A3001 RMK AO2 SLP163 T00780022 $=
201410050952 METAR KATL 050952Z 31005KT 10SM CLR 08/02 A3000 RMK AO2 SLP158 T00780022 $=
201410050852 METAR KATL 050852Z 30005KT 10SM CLR 07/03 A2999 RMK AO2 SLP154 T00720028 58003 $=
201410050752 METAR KATL 050752Z 30005KT 10SM CLR 08/03 A2999 RMK AO2 SLP156 T00780028 $=
201410050652 METAR KATL 050652Z 30007KT 10SM SCT250 08/02 A3000 RMK AO2 SLP157 T00830022 $=
201410050552 METAR KATL 050552Z 30006KT 10SM BKN250 09/03 A3000 RMK AO2 SLP157 T00890028 10133 20089 52008 $=
201410050452 METAR KATL 050452Z 27006KT 10SM BKN250 09/03 A2999 RMK AO2 SLP155 T00940028 401830094 $=
201410050352 METAR KATL 050352Z 28005KT 10SM BKN250 10/03 A2998 RMK AO2 SLP151 T01000028=
201410050252 METAR KATL 050252Z 27005KT 10SM SCT200 BKN250 10/03 A2997 RMK AO2 SLP150 T01000028 51012=
201410050152 METAR KATL 050152Z 28005KT 10SM SCT200 BKN250 11/02 A2997 RMK AO2 SLP148 T01110022=
201410050052 METAR KATL 050052Z 28005KT 10SM SCT200 BKN250 12/02 A2995 RMK AO2 SLP142 T01220022=
201410042352 METAR KATL 042352Z 28006KT 10SM SCT200 BKN250 13/02 A2994 RMK AO2 SLP138 T01280022 10178 20128 53005=
201410042252 METAR KATL 042252Z 30009KT 10SM FEW065 SCT200 SCT250 16/01 A2993 RMK AO2 SLP131 T01560006=
201410042152 METAR KATL 042152Z 30013KT 10SM FEW070 SCT200 SCT250 17/00 A2992 RMK AO2 SLP129 T01670000=
201410042052 METAR KATL 042052Z 30015G21KT 10SM BKN250 17/M01 A2992 RMK AO2 SLP128 T01721011 55012=
201410041952 METAR KATL 041952Z 30012G32KT 10SM BKN250 18/M01 A2992 RMK AO2 PK WND 31032/1947 SLP127 T01781006=
201410041852 METAR KATL 041852Z 29016G22KT 10SM SCT250 17/M01 A2993 RMK AO2 SLP131 T01721011=
201410041752 METAR KATL 041752Z 31012G22KT 10SM FEW250 17/M01 A2996 RMK AO2 SLP139 T01671011 10167 20100 58013=
201410041652 METAR KATL 041652Z 33019G24KT 10SM FEW060 15/M02 A2997 RMK AO2 SLP145 T01501022=
201410041552 METAR KATL 041552Z 31014KT 10SM FEW050 14/M01 A2998 RMK AO2 SLP149 T01391006=
201410041452 METAR KATL 041452Z 33017G22KT 10SM CLR 12/M01 A3000 RMK AO2 PK WND 33028/1410 SLP154 T01221006 51014=
201410041352 METAR KATL 041352Z 35016G23KT 10SM FEW030 11/01 A2999 RMK AO2 SLP153 T01110006=
201410041252 METAR KATL 041252Z 33016G23KT 10SM FEW025 10/03 A2998 RMK AO2 PK WND 33027/1237 SLP148 T01000028=
201410041152 METAR KATL 041152Z 33017KT 10SM FEW022 11/04 A2995 RMK AO2 PK WND 33026/1134 SLP140 70077 T01060039 10172 20106 53014=
201410041052 METAR KATL 041052Z 32013KT 10SM SCT019 13/09 A2993 RMK AO2 SLP130 T01330094=
201410040952 METAR KATL 040952Z 31012KT 10SM FEW020 14/09 A2992 RMK AO2 SLP124 T01440094=
201410040852 METAR KATL 040852Z 31011KT 10SM CLR 15/12 A2991 RMK AO2 SLP123 T01500117 58001=
201410040752 METAR KATL 040752Z 29011KT 10SM CLR 16/12 A2992 RMK AO2 SLP124 T01560122=
201410040652 METAR KATL 040652Z 29008KT 10SM CLR 16/13 A2993 RMK AO2 SLP127 T01610133=
201410040552 METAR KATL 040552Z 29008KT 10SM CLR 17/14 A2992 RMK AO2 SLP123 T01720139 10217 20172 58001=
201410040452 METAR KATL 040452Z 30011KT 10SM FEW250 18/16 A2991 RMK AO2 SLP122 T01830161 402560183=
201410040352 METAR KATL 040352Z 28010KT 10SM SCT250 19/17 A2993 RMK AO2 SLP127 T01940172=
201410040252 METAR KATL 040252Z 26006KT 10SM BKN250 20/17 A2992 RMK AO2 SLP124 T02000172 51011=
201410040152 METAR KATL 040152Z 27005KT 10SM SCT065 BKN250 20/17 A2991 RMK AO2 SLP123 T02000172=
201410040052 METAR KATL 040052Z 27007KT 10SM SCT200 BKN250 21/17 A2989 RMK AO2 SLP115 T02110172=
201410032352 METAR KATL 032352Z 27005KT 10SM FEW025 BKN200 BKN250 22/18 A2988 RMK AO2 SLP112 TCU DSNT E-SE T02170178 10256 20217 51000=
201410032252 METAR KATL 032252Z 28007KT 10SM FEW030 SCT060 BKN200 OVC250 23/18 A2988 RMK AO2 SLP110 T02330178=
201410032152 METAR KATL 032152Z 27006KT 10SM FEW030 SCT090 BKN200 OVC250 24/18 A2989 RMK AO2 SLP114 TCU DSNT NW T02440183=
201410032052 METAR KATL 032052Z 24008KT 10SM FEW028 SCT045 BKN090 OVC250 24/18 A2988 RMK AO2 SLP110 T02440178 55015=
201410032043 SPECI KATL 032043Z 28009KT 10SM FEW029 BKN045 BKN090 OVC250 25/18 A2988 RMK AO2=
201410031952 METAR KATL 031952Z 25010KT 10SM BKN027 BKN120 OVC250 25/18 A2988 RMK AO2 SLP109 T02500183=
201410031945 SPECI KATL 031945Z 24007KT 10SM BKN027 BKN120 OVC250 25/18 A2988 RMK AO2=
201410031923 SPECI KATL 031923Z 22006KT 10SM SCT025 BKN120 OVC250 25/18 A2988 RMK AO2=
201410031852 METAR KATL 031852Z VRB04KT 10SM BKN023 BKN100 OVC250 24/18 A2989 RMK AO2 SLP114 T02440183=
201410031836 SPECI KATL 031836Z 25008KT 10SM BKN023 BKN100 OVC250 24/19 A2991 RMK AO2=
201410031752 METAR KATL 031752Z 26005KT 10SM SCT016 BKN120 OVC250 24/19 A2993 RMK AO2 SLP126 60077 T02440194 10244 20206 58009=
201410031745 SPECI KATL 031745Z 21007KT 10SM SCT016 BKN120 OVC250 24/19 A2994 RMK AO2=
201410031720 SPECI KATL 031720Z 26006KT 10SM FEW007 BKN012 BKN120 OVC250 23/20 A2995 RMK AO2=
201410031652 METAR KATL 031652Z 24005KT 10SM FEW007 BKN100 BKN150 BKN250 22/20 A2996 RMK AO2 RAB25E45 SLP136 P0000 T02220200=
201410031630 SPECI KATL 031630Z 20004KT 10SM -RA SCT007 BKN090 BKN150 BKN250 22/20 A2996 RMK AO2 RAB25 P0000=
201410031552 METAR KATL 031552Z 17009KT 8SM BKN005 BKN085 BKN120 BKN150 21/19 A2996 RMK AO2 RAB25E43 SLP138 P0000 T02110194=
201410031544 SPECI KATL 031544Z 16008KT 8SM BKN005 BKN010 BKN080 BKN150 21/20 A2996 RMK AO2 RAB25E43 P0000=
201410031457 SPECI KATL 031457Z 16006KT 3SM BR BKN005 BKN025 BKN120 BKN150 21/20 A2996 RMK AO2 SFC VIS 6=
201410031454 SPECI KATL 031454Z 16006KT 8SM BKN005 BKN025 BKN120 BKN150 21/20 A2996 RMK AO2=
201410031452 METAR KATL 031452Z 15006KT 10SM SCT005 SCT030 BKN120 BKN150 21/20 A2996 RMK AO2 RAE45 SLP136 P0011 60077 T02110200 58002=
201410031411 SPECI KATL 031411Z 17004KT 6SM -RA BR FEW005 BKN070 OVC100 21/19 A2998 RMK AO2 P0006=
201410031401 SPECI KATL 031401Z 20005KT 2SM -RA BR FEW005 BKN040 OVC070 21/19 A2998 RMK AO2 SFC VIS 4 P0002=
201410031352 METAR KATL 031352Z 00000KT 2SM -RA BR FEW010 SCT030 OVC040 21/19 A2998 RMK AO2 SFC VIS 4 TSE45 SLP142 TS MOV E P0066 T02060194=
201410031345 SPECI KATL 031345Z 00000KT 2SM -RA BR FEW010CB SCT030 OVC040 21/20 A2997 RMK AO2 SFC VIS 4 TSE45 TS MOV E P0063=
201410031326 SPECI KATL 031326Z 21006KT 1 1/2SM R09R/5500VP6000FT TSRA BR SCT010CB BKN027 OVC040 21/20 A2998 RMK AO2 SFC VIS 3 OCNL LTGICCG NE-SE TS NE-SE MOV E P0048=
201410031321 SPECI KATL 031321Z 24005KT 1 1/2SM R09R/2800VP6000FT TSRA BR BKN010CB BKN035 OVC050 21/20 A2998 RMK AO2 SFC VIS 2 VIS 1/2SM NE-SE SHRA OCNL LTGICCG OHD-NE-SE TS OHD-NE-SE MOV E P0040=
201410031317 SPECI KATL 031317Z 28006G25KT 1/2SM R09R/2600VP6000FT +TSRA BR BKN010CB BKN035 OVC050 21/20 A2997 RMK AO2 SFC VIS 3/4 OCNL LTGICCG OHD TS OHD MOV E P0028=
201410031313 SPECI KATL 031313Z 29014G25KT 1/2SM R09R/2600VP6000FT +TSRA FG BKN010CB BKN030 OVC050 21/20 A2999 RMK AO2 PRESRR OCNL LTGICCG OHD-SW-NW TS OHD-SW-NW MOV E P0000=
201410031302 SPECI KATL 031302Z 17009KT 8SM TS SCT010 BKN038CB BKN075 OVC200 22/20 A2995 RMK AO2 RAE02 OCNL LTGICCG SW-NW TS SW-NW MOV E P0000=
201410031252 METAR KATL 031252Z 17008KT 5SM -TSRA BR BKN010 BKN042CB BKN085 OVC200 22/20 A2995 RMK AO2 TSB50RAB43 SLP132 OCNL LTGICCG SW-NW TS VC SW-NW MOV E P0000 T02170200=
201410031237 SPECI KATL 031237Z 17009KT 10SM BKN010 BKN042CB BKN100 OVC200 22/19 A2996 RMK AO2 CB SW MOV NE CB DSNT SW-NW VCSH SW=
201410031208 SPECI KATL 031208Z 17009KT 10SM SCT010 BKN050 BKN100 BKN200 22/19 A2995 RMK AO2 CB DSNT SW-NW=
201410031152 METAR KATL 031152Z 18009KT 10SM BKN008 BKN040CB OVC100 22/19 A2996 RMK AO2 SLP137 CB NW MOV NE CB DSNT SW-NW 60000 T02170194 10228 20211 53001=
201410031052 METAR KATL 031052Z 18009KT 10SM BKN008 BKN030 OVC100 21/19 A2996 RMK AO2 RAB30E40 SLP136 P0000 T02110194=
201410031050 SPECI KATL 031050Z 17008KT 10SM BKN008 BKN030 OVC100 21/19 A2996 RMK AO2 RAB30E40 P0000=
201410030952 METAR KATL 030952Z 18009KT 10SM FEW008 SCT050 OVC090 21/19 A2996 RMK AO2 SLP134 T02110189=
201410030852 METAR KATL 030852Z 16009KT 10SM FEW010 SCT050 BKN090 BKN200 22/18 A2996 RMK AO2 SLP135 T02170183 58023=
201410030752 METAR KATL 030752Z 17009G16KT 10SM SCT050 BKN100 BKN200 22/17 A2998 RMK AO2 SLP141 T02220172=
201410030652 METAR KATL 030652Z 17008KT 10SM OVC055 23/16 A3002 RMK AO2 SLP154 T02280161=
201410030552 METAR KATL 030552Z 18006KT 10SM BKN055 OVC200 22/17 A3003 RMK AO2 SLP159 T02170167 10256 20217 55007=
201410030452 METAR KATL 030452Z 16007KT 10SM BKN250 23/16 A3001 RMK AO2 SLP153 T02280161 402940172=
201410030352 METAR KATL 030352Z 16010KT 10SM FEW060 BKN250 23/16 A3003 RMK AO2 SLP158 T02330161=
201410030252 METAR KATL 030252Z COR 18008KT 10SM FEW060 BKN250 23/16 A3005 RMK AO2 SLP167 T02330161 51008=
201410030152 METAR KATL 030152Z 16006KT 10SM FEW200 BKN250 23/17 A3005 RMK AO2 SLP165 T02330172=
201410030052 METAR KATL 030052Z 15006KT 10SM FEW200 BKN250 24/17 A3004 RMK AO2 SLP163 T02440172=
201410022352 METAR KATL 022352Z 14005KT 10SM FEW200 SCT250 26/17 A3003 RMK AO2 SLP159 T02560167 10294 20256 50000=
201410022252 METAR KATL 022252Z 17008KT 10SM FEW050 SCT250 27/16 A3004 RMK AO2 SLP162 T02720161=
201410022152 METAR KATL 022152Z 17007G14KT 10SM FEW050 SCT250 28/16 A3002 RMK AO2 SLP157 T02830156=
201410022052 METAR KATL 022052Z 14006KT 10SM FEW048 SCT070 29/16 A3003 RMK AO2 SLP158 T02890161 58021=
201410021952 METAR KATL 021952Z 18010KT 10SM SCT048 SCT070 29/16 A3005 RMK AO2 SLP165 T02890161=
201410021852 METAR KATL 021852Z 14007KT 10SM FEW045 SCT065 28/16 A3007 RMK AO2 SLP174 T02830161=
201410021752 METAR KATL 021752Z 22008KT 10SM SCT040 SCT070 28/16 A3009 RMK AO2 SLP180 TCU DSNT S-SW T02830161 10283 20189 58014=
201410021652 METAR KATL 021652Z 15007KT 10SM BKN040TCU 27/17 A3011 RMK AO2 SLP188 TCU NE & E-SE-S-SW-W-NW T02720172=
201410021552 METAR KATL 021552Z 18006KT 10SM BKN030TCU 26/18 A3012 RMK AO2 SLP191 TCU NE-SE & SW-NW T02610183=
201410021452 METAR KATL 021452Z 20006KT 10SM FEW020 SCT060 24/18 A3013 RMK AO2 SLP195 T02440178 50011=
201410021352 METAR KATL 021352Z 19004KT 10SM FEW060 23/18 A3013 RMK AO2 SLP196 T02280183=
201410021252 METAR KATL 021252Z 00000KT 10SM FEW060 SCT250 21/18 A3011 RMK AO2 SLP189 T02110178=
201410021152 METAR KATL 021152Z 00000KT 10SM FEW250 18/16 A3010 RMK AO2 SLP184 T01830161 10206 20172 53014=
201410021052 METAR KATL 021052Z 00000KT 10SM FEW250 19/17 A3008 RMK AO2 SLP175 T01890167=
201410020952 METAR KATL 020952Z 00000KT 10SM CLR 18/17 A3006 RMK AO2 SLP170 T01830167=
201410020852 METAR KATL 020852Z 00000KT 10SM CLR 19/17 A3005 RMK AO2 SLP168 T01890167 53004=
201410020752 METAR KATL 020752Z 00000KT 10SM CLR 19/17 A3005 RMK AO2 SLP165 T01940167=
201410020652 METAR KATL 020652Z 00000KT 10SM CLR 19/17 A3004 RMK AO2 SLP164 T01940167=
201410020552 METAR KATL 020552Z 23003KT 10SM FEW250 21/17 A3004 RMK AO2 SLP164 T02060167 10261 20206 50003=
201410020452 METAR KATL 020452Z 00000KT 10SM FEW250 21/16 A3004 RMK AO2 SLP165 T02110161 403000178=
201410020352 METAR KATL 020352Z 00000KT 10SM FEW250 21/16 A3004 RMK AO2 SLP164 T02110161=
201410020252 METAR KATL 020252Z 00000KT 10SM SCT250 22/16 A3003 RMK AO2 SLP161 T02220156 51016=
201410020152 METAR KATL 020152Z 00000KT 10SM FEW200 SCT250 23/15 A3002 RMK AO2 SLP159 T02280150=
201410020052 METAR KATL 020052Z 16004KT 10SM FEW200 SCT250 23/15 A3001 RMK AO2 SLP154 T02330150=
201410012352 METAR KATL 012352Z 14004KT 10SM FEW200 SCT250 26/14 A2999 RMK AO2 SLP146 T02610144 10300 20261 51005=
201410012252 METAR KATL 012252Z 13004KT 10SM FEW060 SCT250 28/13 A2998 RMK AO2 SLP144 T02780133=
201410012152 METAR KATL 012152Z 14003KT 10SM SCT065 BKN250 28/14 A2998 RMK AO2 SLP141 T02780144=
201410012052 METAR KATL 012052Z 19004KT 10SM FEW060 SCT070 SCT250 28/14 A2997 RMK AO2 SLP139 T02830139 56012=
201410011952 METAR KATL 011952Z 11006KT 10SM SCT065 SCT250 29/14 A2998 RMK AO2 SLP142 T02940139=
201410011852 METAR KATL 011852Z 00000KT 10SM SCT060 SCT250 28/14 A2999 RMK AO2 SLP146 T02780144=
201410011752 METAR KATL 011752Z 00000KT 10SM SCT050 SCT250 28/14 A3001 RMK AO2 SLP152 T02780144 10283 20178 58007=
201410011652 METAR KATL 011652Z 00000KT 10SM BKN045 BKN250 27/15 A3002 RMK AO2 SLP155 MDT CU ALQDS T02720150=
201410011552 METAR KATL 011552Z 00000KT 10SM FEW040 SCT200 SCT250 27/17 A3003 RMK AO2 SLP158 TCU DSNT S & NW T02720167=
201410011452 METAR KATL 011452Z 00000KT 10SM FEW150 SCT250 24/16 A3003 RMK AO2 SLP161 T02440161 51015=
201410011352 METAR KATL 011352Z 28003KT 10SM FEW150 SCT250 22/17 A3002 RMK AO2 SLP158 T02220167=
201410011252 METAR KATL 011252Z 30007KT 10SM FEW150 SCT200 SCT250 20/18 A3001 RMK AO2 SLP155 T02000178=
