##########################################################
# Query made at 04/19/2024 23:36:31 UTC
# Time interval: from 01/01/2014 12:00  to 01/31/2014 12:59  UTC
##########################################################

##########################################################
# KATL, Atlanta, Hartsfield - Jackson Atlanta International Airport (United States)
# WMO index: 72219. WIGOS ID: 0-20000-0-72219
# Latitude 33-38-59N. Longitude 084-25-00W. Altitude 312 m.
##########################################################

201401311252 METAR KATL 311252Z 32003KT 10SM FEW250 M04/M09 A3020 RMK AO2 SLP239 T10441089=
201401311152 METAR KATL 311152Z 34003KT 10SM CLR M04/M08 A3019 RMK AO2 SLP235 T10441083 11017 21050 53004=
201401311052 METAR KATL 311052Z 00000KT 10SM CLR M04/M09 A3017 RMK AO2 SLP226 T10391089=
201401310952 METAR KATL 310952Z 08003KT 10SM CLR M04/M09 A3017 RMK AO2 SLP226 T10391089=
201401310852 METAR KATL 310852Z 00000KT 10SM CLR M03/M09 A3018 RMK AO2 SLP229 T10331094 58004=
201401310752 METAR KATL 310752Z 00000KT 10SM CLR M03/M09 A3019 RMK AO2 SLP233 T10281089=
201401310652 METAR KATL 310652Z 00000KT 10SM CLR M04/M09 A3018 RMK AO2 SLP230 T10391089=
201401310552 METAR KATL 310552Z 06003KT 10SM FEW250 M02/M09 A3019 RMK AO2 SLP234 T10171089 10022 21028 56006=
201401310452 METAR KATL 310452Z 12003KT 10SM FEW250 M01/M09 A3020 RMK AO2 SLP237 T10111089 400441106=
201401310352 METAR KATL 310352Z 00000KT 10SM FEW250 M01/M09 A3019 RMK AO2 SLP236 T10111094=
201401310252 METAR KATL 310252Z 11004KT 10SM FEW250 00/M10 A3021 RMK AO2 SLP241 T00001100 51013=
201401310152 METAR KATL 310152Z 09003KT 10SM FEW250 01/M10 A3020 RMK AO2 SLP241 T00061100=
201401310052 METAR KATL 310052Z 09003KT 10SM FEW250 02/M10 A3019 RMK AO2 SLP237 T00171100=
201401302352 METAR KATL 302352Z 00000KT 10SM FEW250 02/M11 A3017 RMK AO2 SLP230 T00221106 10044 20006 58006=
201401302252 METAR KATL 302252Z 13004KT 10SM FEW250 03/M11 A3017 RMK AO2 PRESFR SLP230 T00331111=
201401302152 METAR KATL 302152Z 12004KT 10SM FEW200 04/M11 A3018 RMK AO2 SLP233 T00441111=
201401302052 METAR KATL 302052Z 11003KT 10SM FEW200 03/M11 A3019 RMK AO2 SLP234 T00331111 56028=
201401301952 METAR KATL 301952Z VRB03KT 10SM FEW200 03/M11 A3021 RMK AO2 SLP243 T00281111=
201401301852 METAR KATL 301852Z 14003KT 10SM FEW200 02/M11 A3024 RMK AO2 SLP254 T00221111=
201401301752 METAR KATL 301752Z 09006KT 10SM FEW200 01/M12 A3027 RMK AO2 SLP264 4/001 T00061117 10011 21106 58021=
201401301652 METAR KATL 301652Z 12005KT 10SM FEW250 00/M11 A3032 RMK AO2 SLP281 T00001111=
201401301552 METAR KATL 301552Z 08007KT 10SM CLR M02/M09 A3033 RMK AO2 SLP283 T10171094=
201401301452 METAR KATL 301452Z 11006KT 10SM FEW250 M04/M10 A3034 RMK AO2 SLP289 T10391100 53012=
201401301352 METAR KATL 301352Z 08005KT 10SM FEW250 M07/M14 A3031 RMK AO2 SLP280 T10721144=
201401301252 METAR KATL 301252Z 10003KT 10SM FEW250 M09/M16 A3030 RMK AO2 SLP278 T10891161=
201401301152 METAR KATL 301152Z 00000KT 10SM FEW250 M10/M17 A3030 RMK AO2 SLP277 4/002 T11001167 11072 21106 53006=
201401301052 METAR KATL 301052Z 00000KT 10SM CLR M10/M17 A3029 RMK AO2 SLP272 T11001172=
201401300952 METAR KATL 300952Z 05003KT 10SM CLR M09/M17 A3029 RMK AO2 SLP271 T10891167=
201401300852 METAR KATL 300852Z 00000KT 10SM CLR M08/M17 A3028 RMK AO2 SLP270 T10831172 58008=
201401300752 METAR KATL 300752Z 33004KT 10SM CLR M09/M18 A3029 RMK AO2 SLP274 T10941178=
201401300652 METAR KATL 300652Z 34003KT 10SM CLR M08/M18 A3030 RMK AO2 SLP277 T10781183=
201401300552 METAR KATL 300552Z COR 00000KT 10SM CLR M08/M18 A3031 RMK AO2 SLP278 4/002 T10781183 11039 21083 50002=
201401300452 METAR KATL 300452Z 32005KT 10SM CLR M08/M17 A3031 RMK AO2 SLP280 T10781172 410221111=
201401300352 METAR KATL 300352Z 32005KT 10SM FEW250 M07/M17 A3030 RMK AO2 SLP277 T10721172=
201401300252 METAR KATL 300252Z 31003KT 10SM FEW250 M06/M18 A3030 RMK AO2 SLP278 T10611183 53006=
201401300152 METAR KATL 300152Z 32006KT 10SM SCT250 M06/M17 A3029 RMK AO2 SLP275 T10611172=
201401300052 METAR KATL 300052Z 34006KT 10SM BKN250 M05/M17 A3029 RMK AO2 SLP275 4/002 T10501172=
201401292352 METAR KATL 292352Z 33007KT 10SM BKN250 M04/M17 A3028 RMK AO2 SLP271 T10391167 11022 21039 50004=
201401292252 METAR KATL 292252Z 33004KT 10SM FEW150 BKN250 M02/M17 A3029 RMK AO2 SLP271 T10221167=
201401292152 METAR KATL 292152Z 34005KT 10SM FEW150 SCT200 BKN250 M02/M17 A3028 RMK AO2 SLP268 T10221172=
201401292052 METAR KATL 292052Z 36007KT 10SM BKN200 M02/M17 A3027 RMK AO2 SLP266 T10221167 56009=
201401291952 METAR KATL 291952Z 32009KT 10SM BKN200 M03/M16 A3028 RMK AO2 SLP269 T10331156=
201401291852 METAR KATL 291852Z 31007KT 10SM BKN200 M03/M16 A3028 RMK AO2 SLP269 T10331161=
201401291752 METAR KATL 291752Z 32003KT 10SM BKN250 M04/M18 A3030 RMK AO2 SLP275 4/002 933002 T10391178 11039 21111 58001=
201401291652 METAR KATL 291652Z 36009KT 10SM BKN250 M06/M17 A3031 RMK AO2 SLP280 T10561167=
201401291552 METAR KATL 291552Z 34011KT 10SM BKN250 M07/M17 A3032 RMK AO2 SLP282 T10671172=
201401291452 METAR KATL 291452Z 33006KT 10SM FEW200 BKN250 M09/M17 A3030 RMK AO2 SLP278 T10891172 53020=
201401291352 METAR KATL 291352Z 32010KT 10SM BKN200 M11/M17 A3028 RMK AO2 SLP271 T11061172=
201401291252 METAR KATL 291252Z 33011KT 10SM SCT200 BKN250 M11/M18 A3026 RMK AO2 SLP264 T11111178=
201401291152 METAR KATL 291152Z 32011KT 10SM BKN200 BKN250 M10/M17 A3024 RMK AO2 SLP257 4/002 70023 T11001167 11067 21100 53012=
201401291052 METAR KATL 291052Z 32012KT 10SM SCT150 BKN200 M09/M15 A3021 RMK AO2 SLP248 T10941150=
201401290952 METAR KATL 290952Z 32012KT 10SM BKN150 OVC200 M09/M14 A3020 RMK AO2 SLP244 T10891139=
201401290852 METAR KATL 290852Z 32012G16KT 10SM BKN150 OVC200 M08/M12 A3020 RMK AO2 SLP243 T10781122 51003=
201401290752 METAR KATL 290752Z 32009KT 10SM FEW015 SCT030 OVC200 M07/M11 A3020 RMK AO2 SLP242 T10721111=
201401290652 METAR KATL 290652Z 32013KT 10SM FEW015 BKN032 OVC200 M07/M11 A3020 RMK AO2 SLP240 T10671106=
201401290609 SPECI KATL 290609Z 33011KT 10SM SCT025 OVC033 M07/M11 A3019 RMK AO2=
201401290552 METAR KATL 290552Z 32016KT 10SM BKN026 OVC035 M07/M11 A3019 RMK AO2 SLP239 4/002 931003 60002 T10671106 11061 21067 50003=
201401290452 METAR KATL 290452Z 33014KT 10SM BKN024 OVC030 M06/M10 A3020 RMK AO2 SLP239 T10611100 410111067=
201401290418 SPECI KATL 290418Z 31010KT 10SM BKN024 OVC030 M06/M09 A3021 RMK AO2=
201401290352 METAR KATL 290352Z 32010KT 10SM BKN030 OVC040 M06/M09 A3020 RMK AO2 SLP240 T10611094=
201401290252 METAR KATL 290252Z 32008KT 10SM BKN032 OVC040 M06/M09 A3018 RMK AO2 SLP235 60002 T10611094 51013=
201401290152 METAR KATL 290152Z 33007KT 10SM FEW032 OVC045 M06/M09 A3017 RMK AO2 SNE50 SLP231 P0001 T10611089=
201401290119 SPECI KATL 290119Z 34008KT 4SM -SN BR SCT030 OVC045 M07/M09 A3016 RMK AO2 P0001=
201401290052 METAR KATL 290052Z 34011KT 2SM -SN BR FEW008 BKN025 OVC030 M06/M08 A3017 RMK AO2 SFC VIS 3 SLP230 P0001 T10611083=
201401290017 SPECI KATL 290017Z 33010KT 1SM R09R/3500VP6000FT -SN BR FEW006 BKN019 OVC031 M06/M08 A3016 RMK AO2 SFC VIS 1 3/4 P0000=
201401282352 METAR KATL 282352Z 33010KT 1SM R09R/5000VP6000FT -SN BR OVC021 M06/M08 A3014 RMK AO2 SFC VIS 1 1/2 SLP222 4/002 931018 P0002 60018 T10611083 11039 21061 53005=
201401282252 METAR KATL 282252Z 34009KT 1SM R09R/4000VP6000FT -SN BR OVC025 M06/M08 A3014 RMK AO2 SFC VIS 1 1/4 PLE47 SLP220 P0001 T10611083=
201401282152 METAR KATL 282152Z 33010KT 1SM -SNPL BR BKN027 OVC037 M06/M08 A3013 RMK AO2 SFC VIS 3 PLB48 SLP215 P0002 T10561078=
201401282052 METAR KATL 282052Z 34008KT 1SM R09R/5000VP6000FT -SN BR FEW008 BKN023 OVC032 M04/M07 A3013 RMK AO2 SFC VIS 1 1/4 PLB00E51 SLP216 P0004 60013 T10441067 56018=
201401282001 SPECI KATL 282001Z 32010KT 1SM R09R/4500V5500FT -SNPL BR FEW008 BKN023 OVC030 M04/M06 A3014 RMK AO2 PLB00 P0001=
201401281952 METAR KATL 281952Z 33011KT 1SM R09R/5000VP6000FT -SN BR FEW017 BKN023 OVC030 M04/M07 A3014 RMK AO2 SFC VIS 1 1/2 SLP217 P0004 T10441067=
201401281941 SPECI KATL 281941Z 33012KT 1SM R09R/5000V6000FT -SN BR FEW017 BKN023 OVC030 M04/M06 A3014 RMK AO2 P0003=
201401281914 SPECI KATL 281914Z 34008KT 3/4SM R09R/4000FT -SN BR FEW008 BKN017 OVC030 M04/M07 A3013 RMK AO2 TWR VIS 1 P0001=
201401281852 METAR KATL 281852Z 33008KT 1SM R09R/4500V6000FT -SN BR FEW008 BKN015 OVC030 M04/M07 A3015 RMK AO2 SLP221 P0005 T10441067=
201401281832 SPECI KATL 281832Z 33007KT 3/4SM R09R/3500V4000FT -SN BR VV012 M04/M06 A3016 RMK AO2 TWR VIS 1 P0003=
201401281814 SPECI KATL 281814Z 32008KT 1SM R09R/4000V4500FT -SN BR FEW009 OVC014 M04/M07 A3017 RMK AO2 P0001=
201401281752 METAR KATL 281752Z 32008KT 1SM R09R/4500V5500FT -SN BR VV017 M04/M07 A3018 RMK AO2 SLP233 931005 P0003 60003 T10441067 11022 21044 58002=
201401281737 SPECI KATL 281737Z 34007KT 3/4SM R09R/4000V5000FT -SN BR BKN020 OVC030 M04/M07 A3020 RMK AO2 TWR VIS 1 P0002=
201401281725 SPECI KATL 281725Z 32011KT 1SM R09R/4500V5000FT -SN BKN020 OVC030 M04/M07 A3020 RMK AO2 TWR VIS 1 1/2 P0001=
201401281714 SPECI KATL 281714Z 30008KT 1SM R09R/5000VP6000FT -SN SCT025 BKN030 OVC040 M04/M08 A3020 RMK AO2 TWR VIS 1 1/2 P0000=
201401281702 SPECI KATL 281702Z 32007KT 2SM -SN BKN030 OVC036 M04/M08 A3019 RMK AO2 P0000=
201401281652 METAR KATL 281652Z 31008KT 3SM -SN BKN028 OVC036 M03/M09 A3019 RMK AO2 PLB37E47 SLP236 P0000 T10331089=
201401281638 SPECI KATL 281638Z 32006KT 2SM -SNPL BKN028 OVC036 M03/M11 A3019 RMK AO2 PLB37 P0000=
201401281635 SPECI KATL 281635Z 32007KT 3SM -SN BKN028 OVC040 M03/M11 A3019 RMK AO2 P0000=
201401281624 SPECI KATL 281624Z 33008KT 5SM -SN BKN028 BKN036 OVC043 M03/M13 A3019 RMK AO2 P0000=
201401281612 SPECI KATL 281612Z 33010KT 9SM -SN BKN028 BKN036 OVC050 M03/M15 A3019 RMK AO2 P0000=
201401281552 METAR KATL 281552Z 33009KT 10SM -SN BKN030 BKN050 OVC080 M03/M16 A3019 RMK AO2 SNB29 SLP233 VIRGA OHD & ALQDS P0000 T10281156=
201401281452 METAR KATL 281452Z 32011KT 10SM OVC050 M03/M16 A3019 RMK AO2 SLP235 VIRGA OHD & ALQDS T10331161 53015=
201401281352 METAR KATL 281352Z 32009KT 10SM OVC070 M03/M16 A3017 RMK AO2 SLP226 VIRGA OHD-ALQDS T10331161=
201401281252 METAR KATL 281252Z 34007KT 10SM BKN065 OVC120 M04/M17 A3016 RMK AO2 SLP222 VIRGA W-N T10391167=
201401281152 METAR KATL 281152Z 33014KT 10SM BKN070 OVC120 M04/M17 A3015 RMK AO2 SLP216 T10391167 11017 21039 53017=
201401281052 METAR KATL 281052Z 34012KT 10SM BKN075 OVC120 M03/M17 A3010 RMK AO2 SLP199 T10331167=
201401280952 METAR KATL 280952Z 34010G18KT 10SM BKN075 OVC150 M03/M17 A3008 RMK AO2 SLP193 T10331172=
201401280852 METAR KATL 280852Z 33014G20KT 10SM FEW075 BKN150 OVC200 M03/M17 A3010 RMK AO2 SLP197 T10331172 51002=
201401280752 METAR KATL 280752Z 34013KT 10SM OVC180 M03/M18 A3009 RMK AO2 SLP196 T10281178=
201401280652 METAR KATL 280652Z 33014G19KT 10SM BKN180 OVC250 M02/M17 A3010 RMK AO2 SLP198 T10221172=
201401280552 METAR KATL 280552Z 33013G19KT 10SM BKN180 BKN250 M02/M17 A3009 RMK AO2 SLP192 T10171167 10078 21017 53005=
201401280452 METAR KATL 280452Z 33015G20KT 10SM FEW150 BKN200 OVC250 M01/M16 A3008 RMK AO2 SLP190 T10111156 401611011=
201401280352 METAR KATL 280352Z 34015G21KT 10SM SCT200 BKN250 01/M16 A3008 RMK AO2 SLP191 T00061156=
201401280252 METAR KATL 280252Z 33011G17KT 10SM FEW200 BKN250 02/M15 A3007 RMK AO2 SLP189 T00221150 51023=
201401280152 METAR KATL 280152Z 34013G19KT 10SM SCT250 04/M13 A3006 RMK AO2 SLP183 T00391133=
201401280052 METAR KATL 280052Z 33013KT 10SM FEW050 06/M08 A3004 RMK AO2 SLP176 T00561078=
201401272352 METAR KATL 272352Z 36014G20KT 10SM FEW050 08/M07 A3001 RMK AO2 SLP164 T00781067 10161 20078 53024=
201401272252 METAR KATL 272252Z 33012KT 10SM FEW050 11/M01 A2997 RMK AO2 SLP149 T01061011=
201401272152 METAR KATL 272152Z 32011KT 10SM SCT050 13/00 A2995 RMK AO2 SLP142 T01280000=
201401272052 METAR KATL 272052Z 33012KT 10SM SCT050 13/01 A2993 RMK AO2 SLP136 T01280006 53000=
201401271952 METAR KATL 271952Z 33011KT 10SM SCT045 SCT090 13/01 A2992 RMK AO2 SLP132 T01280011=
201401271852 METAR KATL 271852Z 33013KT 10SM SCT047 BKN090 14/02 A2992 RMK AO2 SLP131 T01440017=
201401271752 METAR KATL 271752Z 29012G17KT 10SM FEW050 SCT060 BKN090 16/02 A2993 RMK AO2 SLP135 T01560022 10156 20072 58001=
201401271652 METAR KATL 271652Z 33011KT 10SM FEW038 SCT060 SCT110 14/04 A2994 RMK AO2 SLP139 T01440039=
201401271552 METAR KATL 271552Z 29009KT 10SM FEW030 BKN060 BKN110 12/04 A2995 RMK AO2 SLP143 T01220044=
201401271452 METAR KATL 271452Z 28006KT 10SM FEW110 SCT250 11/04 A2993 RMK AO2 SLP137 T01110044 52005=
201401271352 METAR KATL 271352Z 25005KT 10SM FEW050 SCT110 08/04 A2994 RMK AO2 SLP140 T00830044=
201401271252 METAR KATL 271252Z COR 00000KT 10SM FEW020 SCT050 SCT150 SCT250 07/03 A2992 RMK AO2 SLP132 T00720028=
201401271152 METAR KATL 271152Z 26004KT 10SM FEW110 BKN150 08/03 A2992 RMK AO2 SLP133 T00780028 10094 20078 53009=
201401271052 METAR KATL 271052Z 26005KT 10SM SCT015 OVC110 09/02 A2991 RMK AO2 SLP127 T00890022=
201401271044 SPECI KATL 271044Z 26005KT 10SM BKN015 OVC110 09/02 A2991 RMK AO2=
201401270952 METAR KATL 270952Z 24004KT 10SM FEW060 BKN110 OVC200 08/01 A2989 RMK AO2 SLP123 T00830006=
201401270852 METAR KATL 270852Z 27004KT 10SM FEW055 OVC100 09/00 A2989 RMK AO2 SLP123 T00940000 55008=
201401270752 METAR KATL 270752Z 20005KT 10SM FEW055 OVC100 09/M02 A2988 RMK AO2 SLP119 VIRGA NW-NE T00891017=
201401270652 METAR KATL 270652Z 22003KT 10SM FEW070 OVC100 09/M02 A2990 RMK AO2 SLP125 VIRGA OHD-NE T00891022=
201401270552 METAR KATL 270552Z 23005KT 10SM SCT075 OVC100 09/M02 A2992 RMK AO2 SLP133 VIRGA OHD-ALQDS T00941022 10106 20094 58001=
201401270452 METAR KATL 270452Z 22008KT 10SM SCT070 OVC100 10/M02 A2993 RMK AO2 SLP136 VIRGA OHD-ALQDS T01001022 401501022=
201401270352 METAR KATL 270352Z 21009KT 10SM BKN110 OVC200 10/M02 A2993 RMK AO2 SLP138 VIRGA NW-NE-SE T01001022=
201401270252 METAR KATL 270252Z 20007KT 10SM SCT120 BKN150 OVC200 10/M03 A2992 RMK AO2 SLP135 T01001028 51003=
201401270152 METAR KATL 270152Z 20005KT 10SM BKN150 OVC200 10/M03 A2992 RMK AO2 SLP135 T01001028=
201401270052 METAR KATL 270052Z 20004KT 10SM BKN150 BKN200 OVC250 10/M03 A2992 RMK AO2 SLP136 T01001028=
201401262352 METAR KATL 262352Z 19006KT 10SM BKN150 BKN200 BKN250 11/M03 A2991 RMK AO2 SLP133 T01061028 10150 20106 53003=
201401262252 METAR KATL 262252Z 20006KT 10SM BKN150 BKN200 BKN250 12/M03 A2990 RMK AO2 SLP130 T01221028=
201401262152 METAR KATL 262152Z 22008KT 10SM SCT150 BKN200 BKN250 13/M03 A2990 RMK AO2 SLP128 T01331028=
201401262052 METAR KATL 262052Z 25009G18KT 10SM SCT150 BKN250 14/M03 A2990 RMK AO2 SLP129 T01391028 56022=
201401261952 METAR KATL 261952Z 23010G20KT 10SM FEW150 BKN250 13/M03 A2991 RMK AO2 SLP131 T01331033=
201401261852 METAR KATL 261852Z 24011G21KT 10SM FEW150 BKN250 12/M04 A2994 RMK AO2 SLP141 VIRGA S T01221039=
201401261752 METAR KATL 261752Z 23018G23KT 10SM FEW150 OVC250 11/M04 A2997 RMK AO2 SLP152 VIRGA SE BINOVC T01061044 10106 21022 58014=
201401261652 METAR KATL 261652Z 23009KT 10SM FEW180 BKN250 09/M04 A3000 RMK AO2 SLP164 VIRGA E-S T00941039=
201401261552 METAR KATL 261552Z 22008KT 10SM FEW180 BKN250 08/M05 A3002 RMK AO2 SLP170 T00781050=
201401261452 METAR KATL 261452Z 22004KT 10SM FEW180 BKN250 05/M05 A3001 RMK AO2 SLP167 T00501050 51014=
201401261352 METAR KATL 261352Z 00000KT 10SM FEW200 BKN250 01/M06 A3000 RMK AO2 SLP165 T00111056=
201401261252 METAR KATL 261252Z 23003KT 10SM BKN250 M01/M07 A2999 RMK AO2 SLP163 T10111067=
201401261152 METAR KATL 261152Z 00000KT 10SM SCT250 00/M07 A2997 RMK AO2 SLP155 T00001067 10028 21006 53003=
201401261052 METAR KATL 261052Z 00000KT 10SM SCT250 01/M07 A2997 RMK AO2 SLP154 T00061067=
201401260952 METAR KATL 260952Z 30003KT 10SM FEW250 01/M07 A2996 RMK AO2 SLP149 T00061072=
201401260852 METAR KATL 260852Z 27006KT 10SM FEW250 02/M07 A2996 RMK AO2 SLP149 T00171067 56003=
201401260752 METAR KATL 260752Z 27006KT 10SM FEW250 02/M07 A2996 RMK AO2 SLP149 T00221072=
201401260652 METAR KATL 260652Z 25007KT 10SM CLR 02/M07 A2996 RMK AO2 SLP151 T00221072=
201401260552 METAR KATL 260552Z 26007KT 10SM CLR 03/M08 A2997 RMK AO2 SLP153 T00281078 10056 20028 58001=
201401260452 METAR KATL 260452Z 25007KT 10SM FEW250 03/M08 A2997 RMK AO2 SLP156 T00281083 400941083=
201401260352 METAR KATL 260352Z 26007KT 10SM FEW250 03/M08 A2997 RMK AO2 SLP158 T00331083=
201401260252 METAR KATL 260252Z 26008KT 10SM FEW200 SCT250 03/M08 A2997 RMK AO2 SLP157 T00331083 51010=
201401260152 METAR KATL 260152Z 26007KT 10SM FEW110 SCT200 SCT250 04/M08 A2997 RMK AO2 SLP157 T00391083=
201401260052 METAR KATL 260052Z 28007KT 10SM SCT046 SCT100 BKN250 04/M09 A2997 RMK AO2 SLP157 T00391089=
201401252352 METAR KATL 252352Z 29009KT 10SM BKN046 BKN100 BKN250 06/M09 A2994 RMK AO2 SLP148 T00561094 10094 20056 53026=
201401252252 METAR KATL 252252Z 29011KT 10SM BKN046 BKN075 BKN110 BKN250 07/M09 A2990 RMK AO2 SLP136 T00671094=
201401252152 METAR KATL 252152Z 26009G21KT 10SM SCT070 SCT100 BKN250 08/M11 A2987 RMK AO2 SLP125 T00781106=
201401252052 METAR KATL 252052Z 28017G23KT 10SM FEW070 SCT095 SCT250 09/M11 A2986 RMK AO2 PK WND 27027/2020 SLP120 T00891106 55012=
201401251952 METAR KATL 251952Z 26014G26KT 10SM SCT070 BKN090 08/M11 A2986 RMK AO2 PK WND 25028/1919 SLP119 T00831111=
201401251852 METAR KATL 251852Z 25011G25KT 10SM SCT080 OVC100 07/M12 A2987 RMK AO2 SLP124 T00721117=
201401251752 METAR KATL 251752Z 24011G26KT 10SM BKN070 06/M12 A2989 RMK AO2 PK WND 25026/1747 SLP132 T00611122 10061 21056 58034=
201401251652 METAR KATL 251652Z 22014G21KT 10SM FEW070 SCT100 SCT250 04/M13 A2993 RMK AO2 SLP144 T00441128=
201401251552 METAR KATL 251552Z 24011KT 10SM FEW100 BKN250 01/M12 A2998 RMK AO2 SLP164 T00111122=
201401251452 METAR KATL 251452Z 25010KT 10SM BKN100 M01/M09 A3000 RMK AO2 SLP171 T10111094 58023=
201401251352 METAR KATL 251352Z 24010KT 10SM FEW110 SCT200 BKN250 M03/M11 A3003 RMK AO2 SLP180 T10281111=
201401251252 METAR KATL 251252Z 24012G17KT 10SM BKN200 M04/M14 A3006 RMK AO2 SLP192 T10391144=
201401251152 METAR KATL 251152Z COR 24007KT 10SM BKN220 M06/M15 A3007 RMK AO2 SLP195 T10561150 11056 21083 56023=
201401251052 METAR KATL 251052Z 21007KT 10SM FEW250 M08/M16 A3008 RMK AO2 SLP198 T10831156=
201401250952 METAR KATL 250952Z 00000KT 10SM FEW250 M08/M17 A3011 RMK AO2 SLP210 T10831167=
201401250852 METAR KATL 250852Z 23003KT 10SM CLR M08/M17 A3014 RMK AO2 SLP219 T10781172 56030=
201401250752 METAR KATL 250752Z 22003KT 10SM CLR M07/M18 A3016 RMK AO2 SLP225 T10721183=
201401250652 METAR KATL 250652Z 00000KT 10SM CLR M07/M16 A3018 RMK AO2 PRESFR SLP233 T10671161=
201401250552 METAR KATL 250552Z 00000KT 10SM CLR M06/M18 A3023 RMK AO2 SLP252 T10611178 11006 21061 58020=
201401250452 METAR KATL 250452Z 00000KT 10SM CLR M05/M19 A3026 RMK AO2 SLP261 T10501194 400221117=
201401250352 METAR KATL 250352Z 19003KT 10SM CLR M05/M19 A3027 RMK AO2 SLP265 T10501194=
201401250252 METAR KATL 250252Z 00000KT 10SM CLR M04/M19 A3029 RMK AO2 SLP274 T10441194 58019=
201401250152 METAR KATL 250152Z 20005KT 10SM CLR M04/M20 A3032 RMK AO2 SLP283 T10441200=
201401250052 METAR KATL 250052Z 18005KT 10SM FEW250 M03/M22 A3033 RMK AO2 SLP289 T10281217=
201401242352 METAR KATL 242352Z 00000KT 10SM FEW200 M01/M23 A3035 RMK AO2 SLP292 T10061233 10022 21017 56012=
201401242252 METAR KATL 242252Z 21004KT 10SM FEW200 M01/M24 A3036 RMK AO2 SLP296 T10061244=
201401242152 METAR KATL 242152Z 18003KT 10SM FEW180 SCT250 01/M24 A3037 RMK AO2 SLP299 T00111244=
201401242052 METAR KATL 242052Z VRB04KT 10SM FEW180 SCT250 01/M24 A3039 RMK AO2 SLP304 T00111239 56037=
201401241952 METAR KATL 241952Z VRB03KT 10SM FEW180 SCT250 01/M24 A3041 RMK AO2 SLP312 T00111239=
201401241852 METAR KATL 241852Z VRB03KT 10SM FEW180 SCT250 01/M22 A3044 RMK AO2 SLP323 T00061222=
201401241752 METAR KATL 241752Z 36003KT 10SM FEW200 M02/M24 A3050 RMK AO2 SLP343 T10171239 11011 21117 58027=
201401241652 METAR KATL 241652Z 02007KT 10SM FEW200 M03/M21 A3055 RMK AO2 SLP358 T10281206=
201401241552 METAR KATL 241552Z 01008KT 10SM FEW200 M06/M20 A3058 RMK AO2 SLP370 T10561200=
201401241452 METAR KATL 241452Z 36008KT 10SM FEW200 M08/M18 A3058 RMK AO2 SLP372 T10781178 55000=
201401241352 METAR KATL 241352Z 34010KT 10SM FEW200 M10/M17 A3057 RMK AO2 SLP369 T11001172=
201401241252 METAR KATL 241252Z 33007KT 10SM FEW120 SCT200 M12/M18 A3059 RMK AO2 SLP375 T11171178=
201401241152 METAR KATL 241152Z 33007KT 10SM FEW120 SCT200 M11/M18 A3058 RMK AO2 SLP372 T11111183 11067 21111 53004=
201401241052 METAR KATL 241052Z 35011KT 10SM FEW200 M11/M18 A3057 RMK AO2 SLP366 T11061183=
201401240952 METAR KATL 240952Z 33012KT 10SM FEW120 SCT200 M10/M18 A3057 RMK AO2 SLP367 T11001183=
201401240852 METAR KATL 240852Z 34010KT 10SM FEW120 SCT200 M09/M19 A3057 RMK AO2 SLP366 T10941189 51016=
201401240752 METAR KATL 240752Z 33015G21KT 10SM FEW120 SCT200 M09/M18 A3056 RMK AO2 PK WND 34028/0724 SLP363 T10891183=
201401240652 METAR KATL 240652Z 34015G19KT 10SM BKN120 BKN200 M07/M19 A3054 RMK AO2 SLP356 T10721189=
201401240552 METAR KATL 240552Z 33015KT 10SM BKN120 BKN250 M07/M19 A3052 RMK AO2 SLP348 T10671194 11006 21067 51023=
201401240452 METAR KATL 240452Z 33018G22KT 10SM SCT120 BKN250 M06/M19 A3050 RMK AO2 PK WND 31027/0417 SLP341 T10611189 400441061=
201401240352 METAR KATL 240352Z 34018G23KT 10SM BKN250 M05/M18 A3048 RMK AO2 SLP333 T10501183=
201401240252 METAR KATL 240252Z 34014G21KT 10SM BKN250 M04/M19 A3045 RMK AO2 SLP325 T10391189 53018=
201401240152 METAR KATL 240152Z 32012KT 10SM BKN250 M03/M16 A3043 RMK AO2 SLP316 T10281156=
201401240052 METAR KATL 240052Z 33014G19KT 10SM FEW110 SCT250 M02/M14 A3041 RMK AO2 SLP311 T10221144=
201401232352 METAR KATL 232352Z 33012G18KT 10SM FEW110 SCT200 M01/M14 A3040 RMK AO2 SLP306 T10061139 10044 21006 53022=
201401232252 METAR KATL 232252Z 33013KT 10SM FEW150 SCT200 01/M13 A3037 RMK AO2 SLP296 T00111133=
201401232152 METAR KATL 232152Z 32012G17KT 10SM FEW150 03/M12 A3035 RMK AO2 SLP290 T00331122=
201401232052 METAR KATL 232052Z 33014G21KT 10SM FEW150 SCT250 04/M12 A3033 RMK AO2 SLP281 T00391122 55003=
201401231952 METAR KATL 231952Z 32010G19KT 10SM FEW150 SCT200 SCT250 04/M13 A3032 RMK AO2 SLP277 T00441128=
201401231852 METAR KATL 231852Z 31011G17KT 10SM FEW150 SCT200 SCT250 04/M12 A3033 RMK AO2 SLP280 T00391122=
201401231752 METAR KATL 231752Z 33010G17KT 10SM FEW150 SCT200 BKN250 03/M11 A3034 RMK AO2 SLP284 T00281111 10028 21050 50005=
201401231652 METAR KATL 231652Z 33011G19KT 10SM FEW180 BKN220 BKN250 03/M12 A3035 RMK AO2 SLP288 T00281117=
201401231552 METAR KATL 231552Z 32009G16KT 10SM FEW180 SCT250 BKN300 01/M12 A3035 RMK AO2 SLP289 T00111122=
201401231452 METAR KATL 231452Z 32005KT 10SM FEW180 SCT250 BKN300 00/M12 A3032 RMK AO2 SLP280 T00001117 51020=
201401231352 METAR KATL 231352Z 30005KT 10SM FEW150 SCT200 BKN250 M02/M12 A3031 RMK AO2 SLP278 T10221122=
201401231252 METAR KATL 231252Z 29003KT 10SM FEW150 SCT200 BKN250 M05/M13 A3028 RMK AO2 SLP267 T10501128=
201401231152 METAR KATL 231152Z 28005KT 10SM FEW150 SCT200 BKN250 M04/M13 A3026 RMK AO2 SLP260 T10441133 11028 21044 53025=
201401231052 METAR KATL 231052Z 32007KT 10SM SCT200 SCT250 M04/M13 A3021 RMK AO2 SLP242 T10391133=
201401230952 METAR KATL 230952Z 31006KT 10SM FEW200 SCT250 M04/M14 A3020 RMK AO2 SLP238 T10441139=
201401230852 METAR KATL 230852Z 32007KT 10SM FEW200 SCT250 M04/M14 A3019 RMK AO2 SLP233 T10391144 53012=
201401230752 METAR KATL 230752Z 30006KT 10SM SCT250 M03/M14 A3018 RMK AO2 SLP229 T10331144=
201401230652 METAR KATL 230652Z 30006KT 10SM BKN250 M03/M15 A3016 RMK AO2 SLP223 T10281150=
201401230552 METAR KATL 230552Z 28005KT 10SM BKN250 M03/M15 A3015 RMK AO2 SLP221 T10331150 10000 21033 50006=
201401230452 METAR KATL 230452Z 30004KT 10SM SCT250 M03/M16 A3015 RMK AO2 SLP223 T10281156 400331089=
201401230352 METAR KATL 230352Z 29006KT 10SM FEW250 M03/M16 A3014 RMK AO2 SLP220 T10281156=
201401230252 METAR KATL 230252Z 28005KT 10SM FEW250 M02/M17 A3013 RMK AO2 SLP217 T10221167 51017=
201401230152 METAR KATL 230152Z 29006KT 10SM FEW250 M02/M17 A3012 RMK AO2 SLP214 T10171167=
201401230052 METAR KATL 230052Z 30009KT 10SM CLR 00/M17 A3010 RMK AO2 SLP206 T00001172=
201401222352 METAR KATL 222352Z 27005KT 10SM CLR 00/M18 A3008 RMK AO2 SLP199 T00001178 10033 21017 53013=
201401222252 METAR KATL 222252Z 27005KT 10SM FEW060 02/M19 A3005 RMK AO2 SLP190 T00171194=
201401222152 METAR KATL 222152Z 29007KT 10SM FEW060 03/M18 A3006 RMK AO2 SLP190 T00281178=
201401222052 METAR KATL 222052Z 31010KT 10SM FEW250 03/M19 A3004 RMK AO2 SLP183 T00281194 56016=
201401221952 METAR KATL 221952Z 25008KT 10SM CLR 02/M22 A3005 RMK AO2 SLP186 T00171217=
201401221852 METAR KATL 221852Z 31008KT 10SM CLR 01/M21 A3006 RMK AO2 SLP190 T00061211=
201401221752 METAR KATL 221752Z 28008KT 10SM CLR M02/M21 A3009 RMK AO2 SLP201 T10171211 11011 21089 58015=
201401221652 METAR KATL 221652Z 30008KT 10SM CLR M03/M21 A3012 RMK AO2 SLP211 T10281206=
201401221552 METAR KATL 221552Z 31008KT 10SM CLR M04/M21 A3014 RMK AO2 SLP219 T10441206=
201401221452 METAR KATL 221452Z 31010KT 10SM CLR M06/M19 A3013 RMK AO2 SLP217 T10611194 53015=
201401221352 METAR KATL 221352Z 32011KT 10SM CLR M08/M19 A3011 RMK AO2 SLP211 T10781189=
201401221252 METAR KATL 221252Z 31012KT 10SM CLR M09/M18 A3010 RMK AO2 SLP206 T10891178=
201401221152 METAR KATL 221152Z 32015G21KT 10SM CLR M08/M18 A3009 RMK AO2 SLP202 931000 60000 T10831178 11044 21083 53019=
201401221052 METAR KATL 221052Z 33013G19KT 10SM FEW030 M08/M16 A3007 RMK AO2 SLP195 T10781156=
201401220952 METAR KATL 220952Z 34014G19KT 10SM FEW030 M07/M14 A3003 RMK AO2 SLP182 T10721144=
201401220852 METAR KATL 220852Z 32010KT 10SM FEW030 M07/M13 A3003 RMK AO2 SLP179 60000 T10671133 51003=
201401220752 METAR KATL 220752Z 35015G24KT 10SM OVC030 M06/M13 A3003 RMK AO2 SNB23E46 SLP178 SHSN N-E P0000 T10561128=
201401220748 SPECI KATL 220748Z 34018G24KT 10SM OVC030 M06/M12 A3003 RMK AO2 SNB23E46 SHSN N-NE P0000=
201401220652 METAR KATL 220652Z COR 33012KT 10SM OVC029 M05/M11 A3002 RMK AO2 SNB0556E52 SLP175 SHSN W-N-NE P0000 T10501111=
201401220552 METAR KATL 220552Z 34016G24KT 10SM BKN027 M04/M11 A3002 RMK AO2 SNB39E51 SLP173 931000 SHSN W-N-NE P0000 60000 T10441111 10000 21044 51005=
201401220452 METAR KATL 220452Z 34016G25KT 10SM BKN028 M04/M11 A3002 RMK AO2 SLP173 SHSN NW-N T10441111 401061044=
201401220352 METAR KATL 220352Z 34015G23KT 10SM BKN030 M04/M11 A3001 RMK AO2 PK WND 35028/0327 SNB0253E40 SLP168 SHSN N-E P0000 T10391106=
201401220252 METAR KATL 220252Z 32019G26KT 10SM OVC032 M03/M10 A3000 RMK AO2 PK WND 33030/0236 SNB32E51 SLP166 P0000 60000 T10281100 51017=
201401220152 METAR KATL 220152Z 34016G23KT 10SM OVC030 M02/M09 A2999 RMK AO2 PK WND 32028/0137 SLP160 SHSN W-N T10221094=
201401220052 METAR KATL 220052Z 31016KT 10SM BKN030 BKN038 M01/M08 A2998 RMK AO2 PK WND 32027/0028 SLP157 SHSN NW T10111083=
201401212352 METAR KATL 212352Z 31021G28KT 10SM BKN030 BKN038 00/M07 A2995 RMK AO2 PK WND 31028/2347 SLP150 60000 T00001072 10089 20000 51037=
201401212252 METAR KATL 212252Z 32019G26KT 10SM BKN032 OVC040 02/M06 A2992 RMK AO2 PK WND 31028/2211 SLP138 BINOVC T00171056=
201401212152 METAR KATL 212152Z 30018G28KT 10SM SCT038 BKN048 04/M05 A2988 RMK AO2 PK WND 32031/2139 SLP123 T00391050=
201401212052 METAR KATL 212052Z 29023G30KT 10SM FEW040 SCT050 BKN060 05/M04 A2984 RMK AO2 PK WND 31033/2008 SLP109 60000 T00501044 53014=
201401211952 METAR KATL 211952Z 33018G29KT 10SM BKN050 BKN070 07/M03 A2981 RMK AO2 PK WND 32034/1939 RAE1855 SLP099 VIRGA NE-E-SE P0000 T00671028=
201401211852 METAR KATL 211852Z 32021G32KT 10SM -RA BKN050 BKN060 07/M04 A2981 RMK AO2 PK WND 30032/1849 RAB51 SLP096 VIRGA N-NE & S-SW P0000 T00671044=
201401211752 METAR KATL 211752Z 32017G24KT 10SM BKN055 09/M04 A2980 RMK AO2 PK WND 29033/1719 SLP091 VIRGA DSNT NW T00891044 10100 20056 50005=
201401211652 METAR KATL 211652Z 32018G26KT 10SM SCT045 09/M03 A2981 RMK AO2 PK WND 33032/1602 SLP095 T00941028=
201401211552 METAR KATL 211552Z 32018G26KT 10SM FEW045 09/M02 A2980 RMK AO2 PK WND 30030/1525 SLP092 T00941022=
201401211452 METAR KATL 211452Z 32015G27KT 10SM FEW040 09/M01 A2978 RMK AO2 PK WND 31027/1448 SLP085 T00891011 53010=
201401211352 METAR KATL 211352Z 28013KT 10SM CLR 08/00 A2976 RMK AO2 SLP077 T00830000=
201401211252 METAR KATL 211252Z 25007KT 10SM FEW070 07/M01 A2975 RMK AO2 SLP076 T00721011=
201401211152 METAR KATL 211152Z 24004KT 10SM FEW050 SCT070 06/M02 A2975 RMK AO2 SLP075 T00561022 10094 20056 56019=
201401211052 METAR KATL 211052Z 22007KT 10SM FEW050 SCT250 06/M02 A2975 RMK AO2 SLP075 T00611022 $=
201401210952 METAR KATL 210952Z 22007KT 10SM FEW050 SCT250 06/M03 A2978 RMK AO2 SLP084 T00611028 $=
201401210852 METAR KATL 210852Z 23004KT 10SM CLR 06/M03 A2981 RMK AO2 SLP092 T00611033 58019 $=
201401210752 METAR KATL 210752Z 22004KT 10SM CLR 06/M03 A2983 RMK AO2 SLP100 T00611033 $=
201401210652 METAR KATL 210652Z 24006KT 10SM CLR 08/M03 A2985 RMK AO2 SLP106 T00781033 $=
201401210552 METAR KATL 210552Z 25006KT 10SM CLR 09/M03 A2987 RMK AO2 SLP113 T00941033 10133 20094 58016 $=
201401210452 METAR KATL 210452Z 25008KT 10SM CLR 10/M04 A2989 RMK AO2 SLP122 T01001039 402060006 $=
201401210352 METAR KATL 210352Z 25011KT 10SM CLR 11/M04 A2991 RMK AO2 SLP127 T01111039 $=
201401210252 METAR KATL 210252Z 25010KT 10SM CLR 12/M04 A2991 RMK AO2 SLP131 T01171039 53001 $=
201401210152 METAR KATL 210152Z 24007KT 10SM CLR 12/M04 A2991 RMK AO2 SLP132 T01221039 $=
201401210052 METAR KATL 210052Z 23008KT 10SM CLR 13/M06 A2991 RMK AO2 SLP132 T01281056 $=
201401202352 METAR KATL 202352Z 23005KT 10SM CLR 13/M09 A2991 RMK AO2 SLP132 T01331089 10206 20133 55001 $=
201401202252 METAR KATL 202252Z 25008KT 10SM CLR 17/M09 A2991 RMK AO2 SLP129 T01671094 $=
201401202152 METAR KATL 202152Z 25009KT 10SM FEW250 19/M11 A2991 RMK AO2 SLP129 T01891111 $=
201401202052 METAR KATL 202052Z 25008KT 10SM FEW250 20/M11 A2991 RMK AO2 SLP129 T02001111 56021 $=
201401201952 METAR KATL 201952Z 28012G19KT 10SM FEW250 20/M11 A2992 RMK AO2 SLP134 T02001111 $=
201401201852 METAR KATL 201852Z 27007KT 10SM FEW250 18/M05 A2994 RMK AO2 SLP139 T01781050 $=
201401201752 METAR KATL 201752Z 28008KT 10SM FEW250 16/M04 A2998 RMK AO2 SLP153 T01611044 10161 20006 58021 $=
201401201652 METAR KATL 201652Z 29008KT 10SM FEW250 13/M04 A3003 RMK AO2 SLP170 T01281044 $=
201401201552 METAR KATL 201552Z 27009KT 10SM FEW250 12/M03 A3005 RMK AO2 SLP179 T01171033 $=
201401201452 METAR KATL 201452Z 24007KT 10SM FEW250 08/M03 A3004 RMK AO2 SLP178 T00781033 53000 $=
201401201352 METAR KATL 201352Z 22005KT 10SM CLR 03/M03 A3004 RMK AO2 SLP177 T00331033 $=
201401201252 METAR KATL 201252Z 22005KT 10SM CLR 01/M04 A3003 RMK AO2 SLP175 T00111039 $=
201401201152 METAR KATL 201152Z 27005KT 10SM CLR 02/M04 A3004 RMK AO2 SLP179 T00171044 10044 20017 53003 $=
201401201052 METAR KATL 201052Z 24004KT 10SM CLR 02/M04 A3002 RMK AO2 SLP169 T00171044 $=
201401200952 METAR KATL 200952Z 26005KT 10SM CLR 03/M04 A3002 RMK AO2 SLP170 T00281044 $=
201401200852 METAR KATL 200852Z 26004KT 10SM CLR 04/M04 A3003 RMK AO2 SLP173 T00391044 56009 $=
201401200752 METAR KATL 200752Z 26005KT 10SM CLR 03/M04 A3004 RMK AO2 SLP174 T00281044 $=
201401200652 METAR KATL 200652Z 00000KT 10SM CLR 04/M04 A3004 RMK AO2 SLP174 T00391044 $=
201401200552 METAR KATL 200552Z 24003KT 10SM CLR 03/M04 A3006 RMK AO2 SLP183 T00331044 10083 20028 55004 $=
201401200452 METAR KATL 200452Z 25003KT 10SM CLR 04/M04 A3005 RMK AO2 SLP181 T00391044 401220033 $=
201401200352 METAR KATL 200352Z 25003KT 10SM CLR 05/M04 A3007 RMK AO2 SLP188 T00501044 $=
201401200252 METAR KATL 200252Z 26003KT 10SM CLR 05/M04 A3007 RMK AO2 SLP188 T00501044 58003 $=
201401200152 METAR KATL 200152Z 27004KT 10SM CLR 06/M04 A3008 RMK AO2 SLP189 T00611044 $=
201401200052 METAR KATL 200052Z 30006KT 10SM CLR 08/M05 A3008 RMK AO2 SLP191 T00781050 $=
201401192352 METAR KATL 192352Z 27004KT 10SM CLR 08/M04 A3008 RMK AO2 SLP191 T00781044 10122 20078 53007 $=
201401192252 METAR KATL 192252Z 31004KT 10SM CLR 10/M05 A3006 RMK AO2 SLP184 T01001050 $=
201401192152 METAR KATL 192152Z 31010KT 10SM CLR 12/M04 A3006 RMK AO2 SLP182 T01171039 $=
201401192052 METAR KATL 192052Z 28009G18KT 10SM CLR 12/M04 A3006 RMK AO2 SLP180 T01221039 53001 $=
201401191952 METAR KATL 191952Z 31013KT 10SM CLR 12/M03 A3005 RMK AO2 SLP177 T01221033 $=
201401191852 METAR KATL 191852Z 28012G18KT 10SM CLR 12/M03 A3004 RMK AO2 SLP176 T01171033 $=
201401191752 METAR KATL 191752Z 32012G18KT 10SM CLR 11/M03 A3005 RMK AO2 SLP181 T01061028 10106 20039 58001 $=
201401191652 METAR KATL 191652Z 30011G17KT 10SM CLR 10/M03 A3007 RMK AO2 SLP188 T01001028 $=
201401191552 METAR KATL 191552Z 27009KT 10SM CLR 09/M02 A3008 RMK AO2 SLP190 T00941022 $=
201401191452 METAR KATL 191452Z 28009G20KT 10SM CLR 07/M02 A3006 RMK AO2 SLP183 T00721022 53023 $=
201401191352 METAR KATL 191352Z 26010KT 10SM CLR 06/M02 A3003 RMK AO2 SLP174 T00561022 $=
201401191252 METAR KATL 191252Z 25006KT 10SM CLR 04/M03 A3001 RMK AO2 SLP168 T00391028=
201401191152 METAR KATL 191152Z 24007KT 10SM CLR 04/M03 A2999 RMK AO2 SLP160 T00391033 10061 20039 53007=
201401191052 METAR KATL 191052Z 23008KT 10SM FEW110 04/M04 A2997 RMK AO2 SLP154 T00441044=
201401190952 METAR KATL 190952Z 24009KT 10SM FEW080 OVC110 06/M05 A2996 RMK AO2 SLP151 T00561050=
201401190852 METAR KATL 190852Z 24010G18KT 10SM FEW080 OVC095 06/M06 A2997 RMK AO2 SLP151 VIRGA NE-E T00611061 55002=
201401190752 METAR KATL 190752Z 24013G20KT 10SM BKN080 OVC100 06/M07 A2996 RMK AO2 SLP150 VIRGA NW-NE T00611072=
201401190652 METAR KATL 190652Z 24011G18KT 10SM FEW085 BKN100 OVC130 06/M08 A2996 RMK AO2 SLP149 VIRGA NE-E T00561083=
201401190552 METAR KATL 190552Z 22012G19KT 10SM BKN130 OVC200 04/M11 A2997 RMK AO2 SLP155 T00441106 10044 20033 58012=
201401190452 METAR KATL 190452Z 22007KT 10SM BKN120 BKN200 03/M11 A2999 RMK AO2 SLP163 T00331111 400721044=
201401190352 METAR KATL 190352Z 22008KT 10SM SCT110 BKN200 03/M12 A3001 RMK AO2 SLP169 T00331117=
201401190252 METAR KATL 190252Z 22006KT 10SM FEW110 SCT200 03/M12 A3001 RMK AO2 SLP169 T00331122 56011=
201401190152 METAR KATL 190152Z 21008KT 10SM FEW110 SCT200 04/M13 A3001 RMK AO2 SLP170 T00391128=
201401190052 METAR KATL 190052Z 20009KT 10SM FEW110 SCT200 04/M13 A3002 RMK AO2 SLP176 T00391128=
201401182352 METAR KATL 182352Z 20006KT 10SM SCT110 SCT200 04/M13 A3004 RMK AO2 SLP182 T00391128 10072 20033 55009=
201401182252 METAR KATL 182252Z 19006KT 10SM FEW110 SCT200 05/M14 A3004 RMK AO2 SLP180 T00501139=
201401182152 METAR KATL 182152Z 19008KT 10SM FEW110 07/M14 A3005 RMK AO2 SLP184 T00671144=
201401182052 METAR KATL 182052Z 23011G18KT 10SM CLR 07/M15 A3007 RMK AO2 SLP190 T00671150 56026=
201401181952 METAR KATL 181952Z 22007G15KT 10SM CLR 06/M13 A3008 RMK AO2 SLP195 T00561133=
201401181852 METAR KATL 181852Z 29006G15KT 10SM CLR 05/M12 A3011 RMK AO2 SLP203 T00501122=
201401181752 METAR KATL 181752Z 26010G15KT 10SM CLR 03/M12 A3015 RMK AO2 SLP217 T00331117 10039 21044 58016=
201401181652 METAR KATL 181652Z 26008G15KT 10SM CLR 03/M11 A3019 RMK AO2 SLP232 T00281111 $=
201401181552 METAR KATL 181552Z 31010KT 10SM CLR 01/M11 A3021 RMK AO2 SLP241 T00061106=
201401181452 METAR KATL 181452Z 29010KT 10SM CLR M01/M11 A3020 RMK AO2 SLP235 T10111111 53023=
201401181352 METAR KATL 181352Z 28008KT 10SM CLR M03/M10 A3017 RMK AO2 SLP226 T10281100=
201401181252 METAR KATL 181252Z 28005KT 10SM CLR M04/M11 A3013 RMK AO2 SLP214 T10441106=
201401181152 METAR KATL 181152Z 29008KT 10SM CLR M04/M11 A3013 RMK AO2 SLP210 T10391106 11011 21039 53010=
201401181052 METAR KATL 181052Z 29011G16KT 10SM CLR M03/M11 A3012 RMK AO2 SLP207 T10331106=
201401180952 METAR KATL 180952Z 29009KT 10SM CLR M03/M10 A3010 RMK AO2 SLP201 T10281100=
201401180852 METAR KATL 180852Z 28010KT 10SM CLR M02/M10 A3010 RMK AO2 SLP197 T10221100 51008=
201401180752 METAR KATL 180752Z 28007KT 10SM CLR M02/M09 A3009 RMK AO2 SLP196 T10221094=
201401180652 METAR KATL 180652Z 29011KT 10SM CLR M02/M10 A3008 RMK AO2 SLP192 T10171100=
201401180552 METAR KATL 180552Z 29009KT 10SM CLR M01/M09 A3007 RMK AO2 SLP189 T10111094 10056 21011 50001=
201401180452 METAR KATL 180452Z 29008KT 10SM FEW065 M01/M09 A3009 RMK AO2 SLP194 T10061094 401171006=
201401180352 METAR KATL 180352Z 31011KT 10SM CLR 00/M09 A3009 RMK AO2 PK WND 33028/0255 SLP194 T00001089=
201401180252 METAR KATL 180252Z 33018G25KT 10SM FEW070 02/M07 A3007 RMK AO2 SLP189 T00171072 53026=
201401180152 METAR KATL 180152Z 31011KT 10SM FEW070 03/M08 A3004 RMK AO2 SLP178 T00331078=
201401180052 METAR KATL 180052Z 29012G18KT 10SM FEW070 04/M08 A3001 RMK AO2 SLP170 T00441078=
201401172352 METAR KATL 172352Z 29009KT 10SM FEW070 06/M08 A2999 RMK AO2 SLP162 T00561078 10117 20056 52026=
201401172252 METAR KATL 172252Z 28013G17KT 10SM FEW065 07/M09 A2996 RMK AO2 SLP153 VIRGA DSNT N T00671094=
201401172152 METAR KATL 172152Z 27016G25KT 10SM FEW060 09/M10 A2994 RMK AO2 PK WND 30028/2132 SLP143 T00891100=
201401172052 METAR KATL 172052Z 25014G23KT 10SM FEW050 11/M11 A2991 RMK AO2 PK WND 26035/2025 SLP133 T01061106 55013=
201401171952 METAR KATL 171952Z 26017G27KT 10SM FEW050 BKN250 11/M11 A2991 RMK AO2 PK WND 24032/1925 SLP132 T01111111=
201401171852 METAR KATL 171852Z 26017G27KT 10SM FEW050 SCT150 BKN250 11/M09 A2992 RMK AO2 PK WND 26029/1828 SLP136 T01061089=
201401171752 METAR KATL 171752Z 24013G22KT 10SM FEW050 SCT150 BKN250 11/M03 A2995 RMK AO2 SLP147 T01111033 10111 20006 58021=
201401171652 METAR KATL 171652Z 27013G23KT 10SM FEW150 BKN180 BKN250 10/M03 A2998 RMK AO2 SLP156 T01001028=
201401171552 METAR KATL 171552Z 24011G17KT 10SM FEW070 SCT200 SCT250 09/M01 A3001 RMK AO2 SLP167 T00891006=
201401171452 METAR KATL 171452Z 22007KT 10SM FEW070 SCT180 SCT250 06/M01 A3001 RMK AO2 SLP169 T00561006 53011=
201401171352 METAR KATL 171352Z 23009KT 10SM FEW075 SCT200 SCT250 03/M02 A3000 RMK AO2 SLP166 T00281017=
201401171252 METAR KATL 171252Z 24005KT 10SM FEW070 SCT200 SCT250 01/M03 A2999 RMK AO2 SLP163 T00111028=
201401171152 METAR KATL 171152Z 22005KT 10SM FEW250 01/M04 A2998 RMK AO2 SLP160 T00111039 10017 20006 51006=
201401171052 METAR KATL 171052Z 23004KT 10SM CLR 01/M05 A2997 RMK AO2 SLP157 T00061050=
201401170952 METAR KATL 170952Z 23005KT 10SM CLR 01/M06 A2998 RMK AO2 SLP156 T00111061=
201401170852 METAR KATL 170852Z 22006KT 10SM CLR 01/M07 A2996 RMK AO2 SLP153 T00061072 58008=
201401170752 METAR KATL 170752Z 21006KT 10SM FEW250 01/M08 A2998 RMK AO2 SLP158 T00061083=
201401170652 METAR KATL 170652Z 21008KT 10SM FEW250 01/M09 A2998 RMK AO2 SLP158 T00111089=
201401170552 METAR KATL 170552Z 21008KT 10SM FEW250 02/M10 A2999 RMK AO2 SLP161 T00171100 10039 20017 58015=
201401170452 METAR KATL 170452Z 22008KT 10SM FEW250 02/M10 A3001 RMK AO2 SLP170 T00221100 400781044=
201401170352 METAR KATL 170352Z 21006KT 10SM FEW250 02/M11 A3003 RMK AO2 SLP177 T00171106=
201401170252 METAR KATL 170252Z 23004KT 10SM FEW250 03/M11 A3003 RMK AO2 SLP178 T00281106 53017=
201401170152 METAR KATL 170152Z 22005KT 10SM CLR 03/M11 A3002 RMK AO2 SLP177 T00331111=
201401170052 METAR KATL 170052Z 20008KT 10SM CLR 04/M11 A2999 RMK AO2 SLP164 T00391111=
201401162352 METAR KATL 162352Z 18006KT 10SM CLR 04/M11 A2998 RMK AO2 SLP162 T00391106 10078 20039 58002=
201401162252 METAR KATL 162252Z 19005KT 10SM CLR 06/M11 A2999 RMK AO2 SLP162 T00561106=
201401162152 METAR KATL 162152Z 21006KT 10SM FEW250 07/M12 A2999 RMK AO2 SLP162 T00721122=
201401162052 METAR KATL 162052Z 19008KT 10SM CLR 07/M13 A2999 RMK AO2 SLP162 T00721128 56014=
201401161952 METAR KATL 161952Z 22009G14KT 10SM CLR 07/M11 A2999 RMK AO2 SLP164 T00671111=
201401161852 METAR KATL 161852Z 28010KT 10SM CLR 06/M09 A3001 RMK AO2 SLP168 T00611094=
201401161752 METAR KATL 161752Z 29009KT 10SM CLR 05/M09 A3003 RMK AO2 SLP177 T00501094 10050 21044 58026=
201401161652 METAR KATL 161652Z 32008KT 10SM CLR 03/M09 A3007 RMK AO2 SLP190 T00281094=
201401161552 METAR KATL 161552Z 33007KT 10SM CLR 01/M09 A3010 RMK AO2 SLP200 T00111094=
201401161452 METAR KATL 161452Z 29007KT 10SM CLR M01/M08 A3011 RMK AO2 SLP205 T10111083 51017=
201401161352 METAR KATL 161352Z 30008KT 10SM FEW120 M03/M08 A3010 RMK AO2 SLP201 T10281078=
201401161252 METAR KATL 161252Z 28006KT 10SM FEW120 M04/M08 A3008 RMK AO2 SLP196 T10441083=
201401161152 METAR KATL 161152Z 30006KT 10SM CLR M04/M09 A3006 RMK AO2 SLP188 T10391089 11011 21044 53007=
201401161052 METAR KATL 161052Z 32006KT 10SM CLR M04/M09 A3005 RMK AO2 SLP184 T10391089 $=
201401160952 METAR KATL 160952Z 31007KT 10SM CLR M03/M09 A3004 RMK AO2 SLP180 T10331089 $=
201401160852 METAR KATL 160852Z 31009KT 10SM CLR M03/M08 A3004 RMK AO2 SLP179 T10281083 50003 $=
201401160752 METAR KATL 160752Z 31007KT 10SM CLR M02/M08 A3004 RMK AO2 SLP180 T10221083 $=
201401160652 METAR KATL 160652Z 32009KT 10SM CLR M02/M08 A3004 RMK AO2 SLP179 T10171078 $=
201401160552 METAR KATL 160552Z 32007KT 10SM CLR M01/M08 A3003 RMK AO2 SLP176 T10111078 10039 21011 58006 $=
201401160452 METAR KATL 160452Z 33010KT 10SM CLR M01/M07 A3004 RMK AO2 SLP178 T10061072 400781006 $=
201401160352 METAR KATL 160352Z 33010KT 10SM CLR 01/M07 A3004 RMK AO2 SLP180 T00061072 $=
201401160152 METAR KATL 160152Z 31013KT 10SM FEW065 02/M09 A3002 RMK AO2 SLP173 T00221094 $=
201401160052 METAR KATL 160052Z 32018G26KT 10SM FEW065 03/M10 A3001 RMK AO2 PK WND 32026/0048 SLP169 T00331100 $=
201401152352 METAR KATL 152352Z COR 30006KT 10SM FEW065 04/M08 A2999 RMK AO2 SLP162 60000 T00391078 10078 20039 53010 $=
201401152252 METAR KATL 152252Z 28007KT 10SM FEW060 06/M08 A2998 RMK AO2 SLP158 T00561083 $=
201401152152 METAR KATL 152152Z 30010G18KT 10SM FEW060 07/M07 A2996 RMK AO2 SLP150 T00721072=
201401152052 METAR KATL 152052Z 34012KT 10SM FEW050 SCT120 08/M06 A2996 RMK AO2 SLP148 60000 T00781056 56009=
201401151952 METAR KATL 151952Z 31011G17KT 10SM FEW030 SCT040 BKN120 07/M01 A2996 RMK AO2 RAE02 SLP149 SHRA DSNT NE-SE P0000 T00721011=
201401151852 METAR KATL 151852Z 29012G19KT 10SM -RA SCT030 BKN040 OVC070 06/M01 A2996 RMK AO2 RAB46 SLP151 VIRGA OHD & ALQDS P0000 T00561006=
201401151752 METAR KATL 151752Z 30009KT 10SM BKN030 BKN070 OVC100 07/00 A2999 RMK AO2 SLP157 T00670000 10078 20028 58014=
201401151720 SPECI KATL 151720Z 30013KT 10SM BKN030 BKN060 BKN100 07/00 A3000 RMK AO2=
201401151652 METAR KATL 151652Z 31011G17KT 10SM FEW050 SCT070 SCT100 07/00 A3002 RMK AO2 SLP168 T00720000=
201401151552 METAR KATL 151552Z 31012KT 10SM FEW030 SCT100 SCT120 07/00 A3004 RMK AO2 SLP174 T00720000=
201401151452 METAR KATL 151452Z 32011KT 10SM FEW030 BKN100 BKN120 06/M01 A3003 RMK AO2 SLP173 T00611006 53015=
201401151352 METAR KATL 151352Z 32007KT 10SM SCT100 05/00 A3001 RMK AO2 SLP165 T00500000=
201401151252 METAR KATL 151252Z 32008KT 10SM SCT100 03/00 A2999 RMK AO2 SLP158 T00280000=
201401151152 METAR KATL 151152Z 32006KT 10SM FEW100 03/M01 A2998 RMK AO2 SLP156 T00281006 10078 20028 53006=
201401151052 METAR KATL 151052Z 30009KT 10SM FEW120 04/M01 A2997 RMK AO2 SLP152 T00391011=
201401150952 METAR KATL 150952Z 29007KT 10SM FEW120 06/M01 A2996 RMK AO2 SLP145 T00561011=
201401150852 METAR KATL 150852Z 26007KT 10SM FEW120 06/M02 A2996 RMK AO2 SLP147 T00611017 56005=
201401150752 METAR KATL 150752Z 25004KT 10SM FEW120 06/M02 A2996 RMK AO2 SLP147 T00561017=
201401150652 METAR KATL 150652Z 18003KT 10SM CLR 06/M02 A2997 RMK AO2 SLP150 T00561017=
201401150552 METAR KATL 150552Z 26006KT 10SM CLR 08/M02 A2998 RMK AO2 SLP152 T00781017 10111 20067 58012=
201401150452 METAR KATL 150452Z 29006KT 10SM CLR 07/M01 A3000 RMK AO2 SLP161 T00721011 401500072=
201401150352 METAR KATL 150352Z 27006KT 10SM CLR 08/M02 A3001 RMK AO2 SLP164 T00831017=
201401150252 METAR KATL 150252Z 27005KT 10SM CLR 07/M01 A3002 RMK AO2 SLP167 T00721006 51007=
201401150152 METAR KATL 150152Z 27003KT 10SM CLR 09/M01 A3002 RMK AO2 SLP166 T00891011=
201401150052 METAR KATL 150052Z 26003KT 10SM CLR 09/M02 A3000 RMK AO2 SLP161 T00941017=
201401142352 METAR KATL 142352Z 27003KT 10SM CLR 11/M02 A2999 RMK AO2 SLP157 T01111022 10150 20106 51014=
201401142252 METAR KATL 142252Z 30009KT 10SM CLR 12/M01 A2998 RMK AO2 SLP152 T01171011=
201401142152 METAR KATL 142152Z 29009KT 10SM CLR 14/00 A2997 RMK AO2 SLP150 T01390000=
201401142052 METAR KATL 142052Z 27010KT 10SM CLR 14/01 A2995 RMK AO2 SLP142 T01440006 53001=
201401141952 METAR KATL 141952Z VRB06G14KT 10SM FEW050 15/01 A2993 RMK AO2 SLP136 T01500011=
201401141852 METAR KATL 141852Z 29009KT 10SM FEW050 14/02 A2994 RMK AO2 SLP138 T01390017=
201401141752 METAR KATL 141752Z 32009KT 10SM FEW040 13/02 A2995 RMK AO2 SLP141 T01330017 10133 20094 58003=
201401141652 METAR KATL 141652Z 30013KT 10SM FEW030 13/03 A2997 RMK AO2 SLP149 T01280028=
201401141552 METAR KATL 141552Z 32013G18KT 10SM FEW020 12/04 A2998 RMK AO2 SLP152 T01170044=
201401141452 METAR KATL 141452Z 32016KT 10SM FEW015 11/06 A2996 RMK AO2 SLP145 T01060056 51027=
201401141401 SPECI KATL 141401Z 32013KT 10SM SCT013 SCT023 10/07 A2993 RMK AO2=
201401141352 METAR KATL 141352Z 32015G22KT 10SM FEW008 SCT013 BKN025 10/07 A2992 RMK AO2 SLP134 T01000072=
201401141349 SPECI KATL 141349Z 32017G22KT 10SM FEW008 SCT013 BKN025 09/07 A2992 RMK AO2=
201401141326 SPECI KATL 141326Z 32016KT 1 1/2SM SCT015 BKN027 10/08 A2990 RMK AO2 SFC VIS 10=
201401141306 SPECI KATL 141306Z 31014G20KT 1 1/2SM FEW014 SCT025 SCT029 10/08 A2989 RMK AO2 SFC VIS 10=
201401141252 METAR KATL 141252Z COR 30005KT 7SM BKN007 OVC012 11/09 A2985=
201401141233 SPECI KATL 141233Z 31012KT 1 1/2SM FEW009 BKN015 OVC023 10/09 A2986 RMK AO2 SFC VIS 10=
201401141224 SPECI KATL 141224Z 30009KT 1 1/2SM BKN010 OVC016 10/09 A2986 RMK AO2 SFC VIS 10=
201401141152 METAR KATL 141152Z COR 30005KT 7SM BKN007 OVC012 11/09 A2985 RMK A02 SLP108 60002 70014 T01060094 10106 20089 53009=
201401141113 SPECI KATL 141113Z 28007G15KT 1 1/2SM BKN005 OVC014 11/10 A2984 RMK AO2 SFC VIS 10=
201401141052 METAR KATL 141052Z 27010KT 1 1/2SM OVC003 11/10 A2983 RMK AO2 SFC VIS 7 SLP100 T01060100=
201401140952 METAR KATL 140952Z 25003KT 1 1/2SM BR OVC003 09/09 A2981 RMK AO2 RAE04 SLP096 CIG 002V004 P0000 T00940089=
201401140852 METAR KATL 140852Z COR 00000KT 1 1/2SM -RA BR BKN003 OVC007 09/08 A2982 RMK AO2 RAB0753 SLP097 P0002 60002 T00940083 56014=
201401140825 SPECI KATL 140825Z 00000KT 1 1/2SM -RA BR OVC004 09/09 A2982 RMK AO2 SFC VIS 3 RAB0753 P0000=
201401140752 METAR KATL 140752Z 00000KT 3SM BR OVC004 09/08 A2983 RMK AO2 SFC VIS 6 SLP101 TWRINC T00940083=
201401140715 SPECI KATL 140715Z 16003KT 3SM BR OVC004 09/08 A2983 RMK AO2 SFC VIS 6 TWRINC=
201401140652 METAR KATL 140652Z 18003KT 8SM BKN006 OVC012 09/08 A2984 RMK AO2 DZB37E48 SLP106 P0000 T00940083=
201401140627 SPECI KATL 140627Z 17004KT 10SM BKN007 OVC012 09/08 A2985 RMK AO2=
201401140552 METAR KATL 140552Z 00000KT 10SM BKN014 OVC020 09/08 A2986 RMK AO2 SLP112 60003 T00940083 10094 20089 58016=
201401140452 METAR KATL 140452Z 00000KT 10SM FEW008 BKN020 OVC040 09/08 A2988 RMK AO2 SLP120 T00890083 401440033=
201401140352 METAR KATL 140352Z 17006KT 10SM FEW008 BKN020 OVC045 09/08 A2991 RMK AO2 RAE0255 SLP129 P0000 T00890078=
201401140350 SPECI KATL 140350Z 18006KT 10SM FEW008 BKN020 OVC045 09/08 A2991 RMK AO2 RAE0255 P0000=
201401140252 METAR KATL 140252Z 16008KT 9SM -RA FEW008 SCT020 OVC050 09/08 A2992 RMK AO2 SLP134 P0001 60003 T00890078 58009=
201401140227 SPECI KATL 140227Z 18009KT 10SM -RA SCT009 BKN018 OVC030 09/08 A2993 RMK AO2 P0000=
201401140152 METAR KATL 140152Z 17010KT 10SM -RA BKN009 OVC025 09/08 A2994 RMK AO2 RAB43 SLP140 CIG 007V011 P0000 T00940078=
201401140143 SPECI KATL 140143Z 17009G16KT 10SM -RA BKN009 OVC025 09/08 A2994 RMK AO2 RAB43 P0000=
201401140118 SPECI KATL 140118Z 16007KT 10SM BKN012 OVC026 09/08 A2995 RMK AO2=
201401140052 METAR KATL 140052Z 16008KT 10SM SCT014 BKN026 OVC040 09/08 A2995 RMK AO2 RAE34 SLP144 P0002 T00940078=
201401132352 METAR KATL 132352Z 16007KT 7SM -RA BKN029 OVC040 09/08 A2995 RMK AO2 SLP146 P0003 60009 T00940078 10144 20094 55002=
201401132252 METAR KATL 132252Z 16006KT 8SM -RA BKN032 BKN040 OVC080 10/07 A2995 RMK AO2 SLP144 P0005 T01000067=
201401132200 SPECI KATL 132200Z 18004KT 5SM -RA SCT045 BKN070 OVC085 11/07 A2996 RMK AO2 P0001=
201401132152 METAR KATL 132152Z 19006KT 10SM -RA FEW060 BKN080 OVC100 12/06 A2996 RMK AO2 SLP146 P0000 T01170061=
201401132052 METAR KATL 132052Z 15005KT 10SM -RA FEW070 BKN100 OVC150 13/04 A2996 RMK AO2 RAB36 SLP145 P0001 60001 T01330039 56026=
201401131952 METAR KATL 131952Z 17006KT 10SM BKN120 BKN150 BKN250 14/02 A2998 RMK AO2 SLP155 VIRGA DSNT SW-N T01390022=
201401131852 METAR KATL 131852Z 21009KT 10SM FEW050 SCT120 BKN150 OVC200 13/03 A3001 RMK AO2 SLP163 VIRGA OHD & ALQDS VIRGA DSNT W-NW T01330028=
201401131752 METAR KATL 131752Z 20009G17KT 10SM FEW085 BKN150 OVC200 13/02 A3004 RMK AO2 SLP173 T01330022 10133 20039 58032=
201401131652 METAR KATL 131652Z 19010G16KT 10SM FEW085 BKN150 BKN180 BKN230 13/01 A3008 RMK AO2 SLP188 T01280011=
201401131552 METAR KATL 131552Z 19006KT 10SM FEW085 BKN180 BKN250 11/01 A3012 RMK AO2 SLP201 T01110011=
201401131452 METAR KATL 131452Z 00000KT 10SM FEW085 SCT150 BKN250 09/02 A3013 RMK AO2 SLP207 VIRGA DSNT SE-S T00890022 50016=
201401131352 METAR KATL 131352Z 00000KT 10SM FEW150 SCT200 BKN250 07/03 A3015 RMK AO2 SLP212 T00720028=
201401131252 METAR KATL 131252Z 22003KT 10SM SCT120 BKN180 BKN220 06/01 A3012 RMK AO2 SLP204 VIRGA SE-SW T00560011=
201401131152 METAR KATL 131152Z 15005KT 10SM BKN200 BKN250 04/01 A3009 RMK AO2 SLP192 T00390006 10067 20033 58023=
201401131052 METAR KATL 131052Z 00000KT 10SM BKN180 BKN250 04/01 A3012 RMK AO2 SLP203 T00440006=
201401130952 METAR KATL 130952Z 18003KT 10SM FEW150 SCT200 BKN250 05/01 A3015 RMK AO2 SLP213 T00500006=
201401130852 METAR KATL 130852Z 20004KT 10SM FEW150 SCT250 05/01 A3016 RMK AO2 SLP212 T00500006 50003=
201401130752 METAR KATL 130752Z 00000KT 10SM FEW150 SCT250 05/01 A3016 RMK AO2 SLP214 T00500011=
201401130652 METAR KATL 130652Z 00000KT 10SM FEW150 05/01 A3015 RMK AO2 SLP212 T00500011=
201401130552 METAR KATL 130552Z 00000KT 10SM FEW150 07/01 A3015 RMK AO2 SLP210 T00670011 10117 20061 58005=
201401130452 METAR KATL 130452Z 00000KT 10SM CLR 07/01 A3015 RMK AO2 SLP211 T00720006 401560028=
201401130352 METAR KATL 130352Z 20005KT 10SM CLR 07/01 A3017 RMK AO2 SLP219 T00670006=
201401130252 METAR KATL 130252Z 16003KT 10SM CLR 08/01 A3016 RMK AO2 SLP216 T00830011 51006=
201401130152 METAR KATL 130152Z 17003KT 10SM CLR 09/01 A3015 RMK AO2 SLP215 T00890011=
201401130052 METAR KATL 130052Z 20003KT 10SM CLR 09/01 A3016 RMK AO2 SLP217 T00940011=
201401122352 METAR KATL 122352Z 16004KT 10SM CLR 12/01 A3014 RMK AO2 SLP211 T01170011 10156 20117 53006=
201401122252 METAR KATL 122252Z 19004KT 10SM CLR 12/01 A3014 RMK AO2 SLP208 T01220006=
201401122152 METAR KATL 122152Z 23005KT 10SM CLR 14/00 A3013 RMK AO2 SLP203 T01440000=
201401122052 METAR KATL 122052Z 23005KT 10SM CLR 16/00 A3012 RMK AO2 SLP201 T01560000 55009=
201401121952 METAR KATL 121952Z VRB04KT 10SM CLR 15/01 A3012 RMK AO2 SLP199 T01500006=
201401121852 METAR KATL 121852Z 22007KT 10SM CLR 14/01 A3013 RMK AO2 SLP203 T01390006=
201401121752 METAR KATL 121752Z 29006KT 10SM CLR 13/02 A3015 RMK AO2 SLP210 T01330017 10133 20028 58008=
201401121652 METAR KATL 121652Z 24005KT 10SM CLR 12/03 A3018 RMK AO2 SLP219 T01220028=
201401121552 METAR KATL 121552Z 30005KT 10SM CLR 10/04 A3019 RMK AO2 SLP225 T01000039=
201401121452 METAR KATL 121452Z 29006KT 10SM CLR 08/03 A3017 RMK AO2 SLP220 T00780028 51035=
201401121352 METAR KATL 121352Z 00000KT 10SM CLR 05/03 A3013 RMK AO2 SLP207 T00500028=
201401121252 METAR KATL 121252Z 25003KT 10SM CLR 03/01 A3011 RMK AO2 SLP200 T00280011=
201401121152 METAR KATL 121152Z 24003KT 10SM CLR 03/01 A3007 RMK AO2 SLP184 70150 T00280011 10078 20028 53013=
201401121052 METAR KATL 121052Z 27004KT 10SM CLR 04/02 A3004 RMK AO2 SLP173 T00440017=
201401120952 METAR KATL 120952Z 27004KT 10SM CLR 05/02 A3004 RMK AO2 SLP172 T00500017=
201401120852 METAR KATL 120852Z 29009KT 10SM CLR 06/02 A3003 RMK AO2 SLP167 T00610022 53018=
201401120752 METAR KATL 120752Z 31012KT 10SM CLR 07/02 A3001 RMK AO2 SLP160 T00720022=
201401120652 METAR KATL 120652Z 30008KT 10SM CLR 07/02 A2999 RMK AO2 SLP156 T00720022=
201401120552 METAR KATL 120552Z 29010KT 10SM CLR 08/02 A2997 RMK AO2 SLP149 T00830022 10139 20078 51026=
201401120452 METAR KATL 120452Z 30010G18KT 10SM CLR 09/03 A2996 RMK AO2 SLP144 T00890028 401830083=
201401120352 METAR KATL 120352Z 30016G24KT 10SM CLR 10/02 A2993 RMK AO2 SLP134 T01000022=
201401120252 METAR KATL 120252Z 29012KT 10SM FEW100 11/01 A2989 RMK AO2 SLP122 T01060011 51035=
201401120152 METAR KATL 120152Z 28011G17KT 10SM FEW100 11/00 A2986 RMK AO2 SLP109 T01110000=
201401120052 METAR KATL 120052Z 29012G19KT 10SM FEW110 12/01 A2983 RMK AO2 SLP097 T01220006=
201401112352 METAR KATL 112352Z 27010KT 10SM FEW040 SCT110 13/03 A2979 RMK AO2 SLP084 T01330028 10183 20133 53019=
201401112252 METAR KATL 112252Z 25007KT 10SM FEW045 SCT110 SCT250 15/03 A2974 RMK AO2 SLP068 T01500033=
201401112152 METAR KATL 112152Z 27008KT 10SM FEW020 BKN100 BKN250 17/06 A2973 RMK AO2 SLP064 T01670061=
201401112052 METAR KATL 112052Z 25010G17KT 10SM FEW020 SCT080 SCT250 18/08 A2973 RMK AO2 SLP065 T01780078 56019=
201401111952 METAR KATL 111952Z 27008KT 10SM FEW020 SCT095 SCT250 17/11 A2974 RMK AO2 SLP069 T01720111=
201401111852 METAR KATL 111852Z 24007KT 10SM FEW015 BKN085 16/12 A2977 RMK AO2 SLP080 T01610117=
201401111752 METAR KATL 111752Z 24008KT 10SM FEW010 BKN070 OVC090 15/13 A2979 RMK AO2 RAE00 SLP086 P0000 60150 T01500133 10183 20139 56018=
201401111652 METAR KATL 111652Z 23005KT 7SM -RA FEW007 SCT065 OVC085 14/12 A2981 RMK AO2 TSE02 SLP095 TS DSPTD P0020 T01390122=
201401111604 SPECI KATL 111604Z 24008KT 3SM RA BR FEW008 BKN070 OVC095 14/14 A2982 RMK AO2 SFC VIS 4 TSE02 TS DSPTD P0005=
201401111552 METAR KATL 111552Z 23006KT 3SM -TSRA BR SCT006 BKN050CB OVC090 14/14 A2981 RMK AO2 SFC VIS 4 TSB28 SLP095 OCNL LTGIC W-N TS W-N MOV NE P0017 T01440139=
201401111528 SPECI KATL 111528Z 24005KT 3SM TSRA BR SCT006 BKN041 OVC075 14/14 A2983 RMK AO2 TSB28 OCNL LTGIC OHD TS SW MOV NE P0008=
201401111501 SPECI KATL 111501Z 22007KT 3SM RA BR BKN006 BKN010 OVC020 14/14 A2985 RMK AO2 P0001=
201401111452 METAR KATL 111452Z COR 22008KT 3SM -RA BR SCT006 BKN009 OVC027 14/14 A2984 RMK AO2 TSE48 MOV NE PRESRR SLP106 P0098 60113 T01440139 53016=
201401111437 SPECI KATL 111437Z 21005KT 2SM TSRA BR FEW006 OVC028CB 14/14 A2982 RMK AO2 SFC VIS 3 OCNL LTGIC E-SW TS E-SW MOV NE P0091=
201401111426 SPECI KATL 111426Z 21005KT 1SM R09R/5500VP6000FT TSRA BR FEW006 OVC019CB 15/14 A2982 RMK AO2 TWR VIS 2 OCNL LTGIC NE-SW TS NE-SW MOV NE P0086=
201401111412 SPECI KATL 111412Z 23008KT 1 1/4SM +TSRA BR SCT013 OVC019CB 15/14 A2983 RMK AO2 TWR VIS 2 OCNL LTGIC SW-OHD-NE TS SW-OHD-NE MOV NE P0067=
201401111402 SPECI KATL 111402Z 25011G22KT 1/2SM R09R/2800VP6000FT +TSRA FG FEW008 OVC013CB 15/14 A2981 RMK AO2 OCNL LTGIC W-OHD-NE TS W-OHD-NE MOV NE P0051=
201401111352 METAR KATL 111352Z 26015G28KT 3/4SM R09R/3000VP6000FT +TSRA BR BKN008 BKN013CB OVC038 16/14 A2984 RMK AO2 PK WND 26028/1349 TSB25RAB15 PRESRR SLP103 OCNL LTGIC W-OHD-NE TS W-OHD-NE MOV NE P0015 T01560144=
201401111350 SPECI KATL 111350Z 26019G28KT 3/4SM R09R/3500VP6000FT TSRA BR BKN008 BKN013CB OVC023 16/14 A2983 RMK AO2 PK WND 26028/1349 TSB25RAB15 OCNL LTGIC W-OHD-NE TS W-OHD-NE MOV NE P0004=
201401111330 SPECI KATL 111330Z 21011G24KT 5SM -TSRA BR BKN008 OVC013CB 18/17 A2980 RMK AO2 TSB25RAB15 PRESRR OCNL LTGIC W-NW TS VC W-NW MOV NE P0002=
201401111252 METAR KATL 111252Z 19014G20KT 7SM OVC007 17/17 A2977 RMK AO2 SLP080 T01720167=
201401111203 SPECI KATL 111203Z 19016G22KT 7SM OVC005 17/16 A2979 RMK AO2 CIG 004V008=
201401111201 SPECI KATL 111201Z 19015G21KT 1/2SM OVC005 17/16 A2979 RMK AO2 SFC VIS 7 CIG 004V008=
201401111152 METAR KATL 111152Z 18017G23KT 1/2SM OVC004 17/16 A2979 RMK AO2 SFC VIS 7 DZE35 SLP088 CIG 003V006 TWRINC P0001 60074 70092 T01670161 10167 20089 56046=
201401111052 METAR KATL 111052Z 18010KT 1/2SM R09R/6000VP6000FT -DZ BR OVC003 15/15 A2983 RMK AO2 SFC VIS 1 DZB05 SLP101 TWRINC P0000 T01500150=
201401111005 SPECI KATL 111005Z 17012KT 1/2SM -DZ BR BKN004 BKN009 OVC018 14/13 A2985 RMK AO2 SFC VIS 3 DZB05 P0000=
201401110952 METAR KATL 110952Z 17007KT 7SM FEW003 BKN014 OVC029 13/13 A2986 RMK AO2 TSE18RAE35 SLP112 TS MOV NE P0057 T01330128=
201401110925 SPECI KATL 110925Z 18005KT 6SM -RA BR FEW003 BKN021 OVC032 12/12 A2987 RMK AO2 TSE18 TS MOV NE P0057=
201401110918 SPECI KATL 110918Z 22005KT 1/4SM -RA BR FEW003 BKN017 OVC030 13/12 A2987 RMK AO2 SFC VIS 4 TSE18 TS MOV NE P0056=
201401110907 SPECI KATL 110907Z VRB04KT 1/4SM R09R/4500VP6000FT +TSRA BR SCT003 BKN014CB OVC037 11/11 A2988 RMK AO2 SFC VIS 1 1/4 OCNL LTGIC OHD-NE TS OHD-NE MOV NE P0035=
201401110857 SPECI KATL 110857Z 36005G16KT 1/4SM R09R/4500VP6000FT -TSRA BR SCT003 OVC006CB 10/09 A2990 RMK AO2 SFC VIS 3/4 OCNL LTGIC OHD-NE-SE TS OHD-NE-SE MOV NE TWRINC P0015=
201401110852 METAR KATL 110852Z 29012G16KT 1/4SM -TSRA BR BKN003 BKN020CB OVC050 10/09 A2994 RMK AO2 SFC VIS 3 PRESRR SLP139 TSB24RAB07 OCNL LTGIC OHD-SW-NW TS OHD-SW-NW MOV NE TWRINC P0004 60016 T01000094 55012=
201401110824 SPECI KATL 110824Z 13005KT 1/4SM R09R/2600V6000FT -RA BR OVC002CB 09/09 A2990 RMK AO2 SFC VIS 1 RAB07 OCNL LTGIC OHD-E TS OHD-E MOV NE TWRINC P0002=
201401110752 METAR KATL 110752Z 14005KT 1/4SM BR OVC003 09/09 A2992 RMK AO2 SFC VIS 4 TSE15RAB0655E26 SLP132 TS DSPTD TWRINC P0012 T00940089=
201401110715 SPECI KATL 110715Z 11006KT 1/4SM R09R/5500VP6000FT -RA BR OVC003 09/09 A2994 RMK AO2 SFC VIS 4 TSE15RAB0655 TS DSPTD P0012=
201401110652 METAR KATL 110652Z 13005KT 1/4SM R09R/1800V2800FT TS FG BKN002CB OVC008 09/09 A2994 RMK AO2 TSB32DZE15 SLP141 OCNL LTGIC S-W TS VC S-W MOV NE P0000 T00890089=
201401110632 SPECI KATL 110632Z 12005KT 1/4SM R09R/2000FT TS FG OVC002CB 09/09 A2995 RMK AO2 TSB32DZE15 OCNL LTGIC S-W TS VC S-W MOV NE P0000=
201401110606 SPECI KATL 110606Z 12005KT 1/4SM R09R/1800V2000FT -DZ FG VV002 09/08 A2996 RMK AO2 P0000=
201401110552 METAR KATL 110552Z 12006KT 1/4SM R09R/2200V2800FT -DZ FG VV002 09/08 A2997 RMK AO2 SFC VIS 1/2 RAB22E32 SLP152 P0001 60014 T00890083 10089 20083 58031=
201401110452 METAR KATL 110452Z 13003KT 1/4SM -DZ BR OVC003 08/08 A3002 RMK AO2 SFC VIS 1 1/2 RAB11E22 SLP167 TWRINC P0002 T00830083 400940039=
201401110352 METAR KATL 110352Z 11004KT 1/4SM -DZ BR OVC003 08/08 A3005 RMK AO2 SFC VIS 1 3/4 RAE50DZB50 SLP178 CIG 002V005 TWRINC P0003 T00830083=
201401110252 METAR KATL 110252Z 15003KT 1/4SM -RA BR OVC003 08/08 A3007 RMK AO2 SFC VIS 2 DZE25RAB25 SLP186 TWRINC P0007 60008 T00830083 55007=
201401110152 METAR KATL 110152Z 11005KT 1/4SM R09R/3000V4000FT -DZ FG VV002 08/08 A3006 RMK AO2 SFC VIS 1/2 DZE22B45RAB22E45 SLP185 P0001 T00830083=
201401110052 METAR KATL 110052Z 11007KT 1/4SM R09R/4500V5500FT -DZ BR OVC002 09/08 A3008 RMK AO2 SFC VIS 3/4 SLP190 TWRINC P0000 T00890083=
201401102352 METAR KATL 102352Z 10006KT 1/4SM R09R/5500FT -DZ BR OVC002 09/08 A3009 RMK AO2 SFC VIS 3/4 SLP194 TWRINC P0001 60002 T00890083 10094 20083 55004=
201401102252 METAR KATL 102252Z COR 09007KT 1/4SM R09R/P6000FT -DZ BR OVC002 09/08 A3008 RMK AO2 SFC VIS 1 SLP191 TWRINC P0000 T00890083=
201401102152 METAR KATL 102152Z 09007KT 1/4SM -DZ BR OVC003 09/08 A3010 RMK AO2 SFC VIS 1 1/4 DZB45 SLP198 TWRINC P0000 T00890083=
201401102052 METAR KATL 102052Z 10008KT 1/4SM R09R/5500VP6000FT BR OVC002 09/08 A3010 RMK AO2 SFC VIS 1 1/4 DZE42 SLP198 P0001 60001 T00890083 56021=
201401101952 METAR KATL 101952Z 09009KT 1/4SM -DZ BR OVC002 09/08 A3011 RMK AO2 SFC VIS 1 1/4 SLP199 P0000 T00890083=
201401101852 METAR KATL 101852Z VRB05KT 1/4SM R09R/4500VP6000FT -DZ BR OVC002 09/08 A3013 RMK AO2 SFC VIS 3/4 SLP208 P0000 T00890083=
201401101816 SPECI KATL 101816Z 09006KT 1/4SM -DZ BR OVC003 08/08 A3015 RMK AO2 SFC VIS 1 3/4 TWRINC P0000=
201401101752 METAR KATL 101752Z 08008KT 1/2SM -DZ BR OVC004 08/08 A3017 RMK AO2 SFC VIS 5 SLP220 TWRINC P0001 60002 T00830078 10089 20044 58033=
201401101652 METAR KATL 101652Z 08008KT 1/2SM R09R/4500VP6000FT -DZ BR OVC004 08/07 A3022 RMK AO2 SFC VIS 1 SLP238 TWRINC P0000 T00780067=
201401101552 METAR KATL 101552Z 09008KT 1/2SM -DZ BR OVC004 07/06 A3025 RMK AO2 SFC VIS 2 SLP250 TWRINC P0000 T00670061=
201401101526 SPECI KATL 101526Z 09008KT 1/2SM -DZ BR OVC004 07/06 A3026 RMK AO2 SFC VIS 2 1/2 P0000=
201401101452 METAR KATL 101452Z 08008KT 3/4SM R09R/6000VP6000FT -DZ BR OVC004 06/05 A3027 RMK AO2 SFC VIS 1 1/4 SLP254 P0001 60001 T00610050 53001=
201401101352 METAR KATL 101352Z 08008KT 3/4SM -DZ BR OVC004 05/04 A3026 RMK AO2 SFC VIS 1 1/2 DZE20B46RAB20E46 SLP253 CIG 003V005 P0000 T00500044=
201401101252 METAR KATL 101252Z 08009KT 3/4SM -DZ BR OVC004 04/04 A3026 RMK AO2 SFC VIS 1 3/4 SLP252 CIG 003V005 P0000 T00440039=
201401101247 SPECI KATL 101247Z 08008KT 3/4SM -DZ BR OVC004 04/04 A3026 RMK AO2 SFC VIS 2 CIG 003V005 P0000=
201401101152 METAR KATL 101152Z 08007KT 1SM -DZ BR OVC004 04/03 A3025 RMK AO2 SFC VIS 2 DZE17B42RAB17E42 SLP249 CIG 003V005 P0001 60018 70020 T00440033 10050 20039 56012=
201401101052 METAR KATL 101052Z 05008KT 1SM -DZ BR OVC004 04/03 A3026 RMK AO2 SFC VIS 2 DZE05B38RAB05E37 SLP252 CIG 003V005 P0001 T00440033=
201401100952 METAR KATL 100952Z 07006KT 1SM -DZ BR OVC004 04/03 A3027 RMK AO2 SFC VIS 3 RAE16DZB16 SLP255 CIG 003V005 P0000 T00390033=
201401100852 METAR KATL 100852Z 07009KT 1SM -RA BR OVC004 04/03 A3029 RMK AO2 SFC VIS 2 1/2 SLP261 CIG 003V005 P0008 60016 T00440033 56015=
201401100829 SPECI KATL 100829Z 08007KT 1SM -RA BR OVC004 04/03 A3029 RMK AO2 SFC VIS 2 1/2 CIG 003V005 P0007=
201401100818 SPECI KATL 100818Z 09007KT 3SM -RA BR OVC004 04/03 A3029 RMK AO2 CIG 003V005 P0006=
201401100752 METAR KATL 100752Z 07011KT 3SM R09R/5000VP6000FT RA BR OVC008 04/03 A3029 RMK AO2 RAB17 SLP262 CIG 006V010 P0001 T00440033=
201401100742 SPECI KATL 100742Z 07009KT 3SM -RA BR OVC009 04/03 A3029 RMK AO2 RAB17 CIG 008V012 P0000=
201401100652 METAR KATL 100652Z 08009KT 10SM OVC013 04/03 A3030 RMK AO2 RAB09E34 SLP267 CIG 011V015 P0007 T00440028=
201401100616 SPECI KATL 100616Z 09009KT 3SM RA OVC013 05/02 A3032 RMK AO2 RAB09 P0001=
201401100552 METAR KATL 100552Z 08011KT 10SM OVC015 05/01 A3033 RMK AO2 RAB17E46 SLP276 P0002 60002 T00500011 10061 20050 58022=
201401100452 METAR KATL 100452Z 08008KT 10SM OVC016 06/00 A3036 RMK AO2 SLP286 T00560000 400941017=
201401100352 METAR KATL 100352Z 07008KT 10SM BKN018 OVC030 06/01 A3038 RMK AO2 RAE0259 SLP295 P0000 T00560006=
201401100252 METAR KATL 100252Z 09009KT 9SM -RA BKN020 OVC030 05/02 A3040 RMK AO2 RAB34 SLP301 P0000 60000 T00500017 53004=
201401100152 METAR KATL 100152Z 08010KT 10SM BKN019 OVC030 06/01 A3040 RMK AO2 RAB34E43 SLP301 P0000 T00610011=
201401100144 SPECI KATL 100144Z 09011KT 10SM BKN019 BKN030 OVC050 06/01 A3040 RMK AO2 RAB34E43 P0000=
201401100052 METAR KATL 100052Z 08011G17KT 10SM FEW025 BKN038 OVC050 06/02 A3039 RMK AO2 RAE24 SLP298 P0000 T00610022=
201401092352 METAR KATL 092352Z 10009KT 10SM -RA FEW022 BKN045 OVC070 06/03 A3039 RMK AO2 DZE23RAB23 SLP298 P0000 60000 T00610028 10094 20061 51003=
201401092333 SPECI KATL 092333Z 09012KT 9SM -RA SCT022 BKN035 OVC060 06/03 A3038 RMK AO2 DZE23RAB23 P0000=
201401092252 METAR KATL 092252Z 08010KT 9SM -DZ BKN019 OVC030 07/03 A3039 RMK AO2 SLP298 P0000 T00670033=
201401092152 METAR KATL 092152Z 09008KT 8SM -DZ BKN018 BKN030 OVC050 07/04 A3039 RMK AO2 DZB25 SLP297 P0000 T00720039=
201401092125 SPECI KATL 092125Z 10009KT 6SM -DZ BKN018 BKN024 OVC030 07/03 A3038 RMK AO2 DZB25 P0000=
201401092052 METAR KATL 092052Z 09007KT 10SM FEW018 BKN030 OVC050 09/02 A3038 RMK AO2 SLP295 VIRGA OHD & ALQDS T00890017 51004=
201401092050 SPECI KATL 092050Z 10006KT 10SM FEW018 BKN030 OVC050 09/02 A3038 RMK AO2 VIRGA OHD & ALQDS=
201401091952 METAR KATL 091952Z 06007KT 10SM BKN022 BKN050 OVC250 09/M03 A3038 RMK AO2 SLP294 VIRGA E-SE-S-SW-W-NW T00891028=
201401091852 METAR KATL 091852Z 09008KT 10SM FEW020 SCT030 BKN045 OVC250 09/M03 A3037 RMK AO2 SLP291 T00891033=
201401091752 METAR KATL 091752Z COR 09006KT 10SM SCT017 BKN027 BKN048 BKN250 07/M06 A3041 RMK AO2 SLP304 T00721061 10072 20000 56028=
201401091747 SPECI KATL 091747Z 09008KT 10SM BKN027 BKN048 BKN250 07/M06 A3041 RMK AO2=
201401091652 METAR KATL 091652Z 10009KT 10SM FEW015 SCT030 BKN050 BKN250 06/M07 A3045 RMK AO2 PRESFR SLP319 T00561072=
201401091552 METAR KATL 091552Z 10008KT 10SM OVC014 04/M10 A3049 RMK AO2 SLP335 VIRGA OHD & ALQDS T00391100=
201401091542 SPECI KATL 091542Z 09006KT 10SM OVC013 04/M10 A3049 RMK AO2=
201401091452 METAR KATL 091452Z 07009KT 10SM OVC015 03/M12 A3050 RMK AO2 SLP335 T00281117 53017=
201401091352 METAR KATL 091352Z 08009KT 10SM OVC015 02/M12 A3047 RMK AO2 SLP327 BINOVC T00171117=
201401091342 SPECI KATL 091342Z 09007KT 10SM BKN015 BKN032 BKN110 BKN200 01/M11 A3047 RMK AO2=
201401091305 SPECI KATL 091305Z 08007KT 10SM SCT015 SCT032 BKN110 BKN200 00/M12 A3046 RMK AO2=
201401091252 METAR KATL 091252Z 08008KT 10SM BKN015 BKN032 BKN100 BKN200 01/M12 A3046 RMK AO2 SLP322 T00111117=
201401091152 METAR KATL 091152Z 05008KT 10SM BKN013 OVC032 01/M12 A3044 RMK AO2 SLP317 T00061117 10011 21017 53001=
201401091132 SPECI KATL 091132Z 07005KT 10SM BKN013 BKN032 BKN100 BKN250 00/M11 A3044 RMK AO2=
201401091052 METAR KATL 091052Z 08007KT 10SM FEW014 SCT032 SCT100 BKN250 M01/M11 A3043 RMK AO2 SLP312 T10111111=
201401090952 METAR KATL 090952Z 08006KT 10SM FEW016 SCT032 SCT100 BKN250 M01/M12 A3043 RMK AO2 SLP312 T10111122=
201401090852 METAR KATL 090852Z 09005KT 10SM FEW016 SCT032 SCT100 BKN250 M01/M13 A3044 RMK AO2 SLP315 T10111128 56005=
201401090752 METAR KATL 090752Z 06006KT 10SM FEW015 SCT032 SCT100 BKN250 M01/M13 A3044 RMK AO2 SLP315 T10111128=
201401090738 SPECI KATL 090738Z 07005KT 10SM SCT015 BKN032 BKN100 BKN250 M01/M13 A3044 RMK AO2=
201401090726 SPECI KATL 090726Z 09005KT 10SM BKN017 BKN032 BKN100 BKN250 M01/M12 A3043 RMK AO2=
201401090652 METAR KATL 090652Z 08007KT 10SM SCT032 BKN250 M01/M12 A3044 RMK AO2 SLP315 T10111122=
201401090552 METAR KATL 090552Z 06004KT 10SM BKN032 BKN250 01/M14 A3045 RMK AO2 SLP321 T00061144 10044 21011 55003=
201401090452 METAR KATL 090452Z 10004KT 10SM BKN250 M01/M13 A3044 RMK AO2 SLP318 T10111128 400831089=
201401090352 METAR KATL 090352Z 00000KT 10SM BKN250 01/M15 A3046 RMK AO2 SLP326 T00111150=
201401090252 METAR KATL 090252Z 11003KT 10SM BKN250 02/M15 A3046 RMK AO2 SLP326 T00171150 53007=
201401090152 METAR KATL 090152Z 12004KT 10SM SCT250 02/M15 A3045 RMK AO2 SLP324 T00171150=
201401090052 METAR KATL 090052Z 12004KT 10SM SCT250 04/M16 A3044 RMK AO2 SLP321 T00391161=
201401082352 METAR KATL 082352Z 00000KT 10SM FEW200 SCT250 04/M17 A3044 RMK AO2 SLP321 T00441167 10083 20044 53005=
201401082252 METAR KATL 082252Z 15005KT 10SM FEW200 SCT250 05/M17 A3043 RMK AO2 SLP317 T00501172=
201401082152 METAR KATL 082152Z 15005KT 10SM FEW250 07/M17 A3042 RMK AO2 SLP313 T00721172=
201401082052 METAR KATL 082052Z 00000KT 10SM SCT250 08/M19 A3042 RMK AO2 SLP313 T00781194 56010=
201401081952 METAR KATL 081952Z 07003KT 10SM FEW250 07/M20 A3042 RMK AO2 SLP313 T00721200=
201401081852 METAR KATL 081852Z 00000KT 10SM FEW250 06/M22 A3044 RMK AO2 SLP319 T00611217=
201401081752 METAR KATL 081752Z 00000KT 10SM FEW250 05/M21 A3046 RMK AO2 SLP325 T00501206 10050 21083 58020=
201401081652 METAR KATL 081652Z 06003KT 10SM FEW250 04/M24 A3051 RMK AO2 SLP344 T00391239=
201401081552 METAR KATL 081552Z 00000KT 10SM FEW250 01/M16 A3053 RMK AO2 SLP352 T00111161=
201401081452 METAR KATL 081452Z 00000KT 10SM FEW250 M02/M15 A3051 RMK AO2 SLP348 T10171150 52015=
201401081352 METAR KATL 081352Z 32004KT 10SM FEW250 M06/M14 A3051 RMK AO2 SLP347 T10561144=
201401081252 METAR KATL 081252Z 33004KT 10SM CLR M08/M14 A3048 RMK AO2 SLP337 T10781144=
201401081152 METAR KATL 081152Z 33005KT 10SM CLR M08/M14 A3047 RMK AO2 SLP335 T10831144 11078 21089 53004=
201401081052 METAR KATL 081052Z 34005KT 10SM CLR M08/M15 A3046 RMK AO2 SLP332 T10831150=
201401080952 METAR KATL 080952Z 00000KT 10SM CLR M08/M16 A3046 RMK AO2 SLP332 T10831156=
201401080852 METAR KATL 080852Z 34006KT 10SM CLR M08/M16 A3046 RMK AO2 SLP330 T10781156 53001=
201401080752 METAR KATL 080752Z 34007KT 10SM CLR M08/M16 A3046 RMK AO2 SLP330 T10781156=
201401080652 METAR KATL 080652Z 33005KT 10SM CLR M08/M15 A3045 RMK AO2 SLP329 T10831150=
201401080552 METAR KATL 080552Z 32003KT 10SM CLR M08/M15 A3046 RMK AO2 SLP331 T10781150 11056 21078 58006=
201401080452 METAR KATL 080452Z 32004KT 10SM CLR M08/M16 A3047 RMK AO2 SLP335 T10781156 410331144=
201401080352 METAR KATL 080352Z 30003KT 10SM CLR M08/M16 A3047 RMK AO2 SLP335 T10781161=
201401080252 METAR KATL 080252Z 32005KT 10SM FEW250 M07/M17 A3047 RMK AO2 SLP339 T10721167 50003=
201401080152 METAR KATL 080152Z 32005KT 10SM FEW250 M07/M17 A3048 RMK AO2 SLP341 T10721167=
201401080052 METAR KATL 080052Z 32007KT 10SM FEW200 SCT250 M06/M17 A3048 RMK AO2 SLP339 T10611172=
201401072352 METAR KATL 072352Z 32005KT 10SM FEW200 SCT250 M06/M18 A3046 RMK AO2 SLP335 T10561178 11033 21067 51009=
201401072252 METAR KATL 072252Z 31006KT 10SM FEW150 SCT200 BKN250 M05/M18 A3046 RMK AO2 SLP334 T10501178=
201401072152 METAR KATL 072152Z 32006KT 10SM FEW150 SCT180 BKN250 M04/M19 A3045 RMK AO2 SLP329 T10391189=
201401072052 METAR KATL 072052Z 29007KT 10SM FEW150 SCT180 BKN250 M04/M19 A3044 RMK AO2 SLP325 T10391189 55001=
201401071952 METAR KATL 071952Z 31005KT 10SM FEW150 SCT180 BKN250 M04/M19 A3043 RMK AO2 SLP321 T10441189=
201401071852 METAR KATL 071852Z 29009KT 10SM SCT180 BKN250 BKN300 M06/M19 A3043 RMK AO2 SLP324 T10611189=
201401071752 METAR KATL 071752Z 30009G16KT 10SM FEW180 BKN250 BKN300 M07/M19 A3044 RMK AO2 SLP327 T10671189 11067 21144 58019=
201401071652 METAR KATL 071652Z 29009KT 10SM SCT250 M08/M20 A3048 RMK AO2 SLP341 T10831200=
201401071552 METAR KATL 071552Z 32007KT 10SM SCT250 M10/M21 A3048 RMK AO2 SLP341 T11001206=
201401071452 METAR KATL 071452Z 33014KT 10SM FEW250 M12/M21 A3050 RMK AO2 SLP348 T11171206 51021=
201401071352 METAR KATL 071352Z 33013KT 10SM FEW250 M13/M20 A3047 RMK AO2 SLP340 T11331200=
201401071252 METAR KATL 071252Z 31009KT 10SM FEW250 M14/M21 A3048 RMK AO2 SLP342 T11441206=
201401071152 METAR KATL 071152Z 31009KT 10SM CLR M14/M21 A3043 RMK AO2 SLP327 T11441206 11117 21144 53008=
201401071052 METAR KATL 071052Z 31009KT 10SM CLR M14/M20 A3040 RMK AO2 SLP316 T11391200=
201401070952 METAR KATL 070952Z 33012G17KT 10SM CLR M13/M19 A3041 RMK AO2 SLP316 T11331194=
201401070852 METAR KATL 070852Z 34012KT 10SM FEW035 M13/M19 A3041 RMK AO2 SLP317 T11281189 53003=
201401070752 METAR KATL 070752Z COR 31014KT 10SM FEW035 M12/M19 A3040 RMK AO2 SLP312 T11221189=
201401070652 METAR KATL 070652Z 32017G22KT 10SM FEW035 M12/M19 A3040 RMK AO2 SLP312 T11171189=
201401070552 METAR KATL 070552Z 31012G20KT 10SM CLR M12/M19 A3040 RMK AO2 SLP312 T11171189 11083 21117 51008=
201401070452 METAR KATL 070452Z 31013KT 10SM FEW035 M11/M18 A3039 RMK AO2 SLP308 T11111183 401171111=
201401070352 METAR KATL 070352Z 31016G20KT 10SM FEW035 M11/M18 A3039 RMK AO2 SLP306 T11061183=
201401070252 METAR KATL 070252Z 31014G22KT 10SM FEW250 M10/M18 A3038 RMK AO2 SLP303 T11001178 51020=
201401070152 METAR KATL 070152Z 31013G21KT 10SM FEW250 M09/M18 A3036 RMK AO2 SLP298 T10941183=
201401070052 METAR KATL 070052Z 30011KT 10SM FEW250 M09/M18 A3035 RMK AO2 PK WND 30028/0005 SLP292 T10891178=
201401062352 METAR KATL 062352Z 31013G21KT 10SM FEW250 M08/M18 A3031 RMK AO2 PK WND 33026/2259 SLP280 T10831178 11022 21083 53029=
201401062252 METAR KATL 062252Z 31020G28KT 10SM FEW250 M08/M18 A3027 RMK AO2 PK WND 31028/2249 SLP265 T10781183=
201401062152 METAR KATL 062152Z 30019G26KT 10SM FEW050 SCT250 M07/M17 A3025 RMK AO2 PK WND 32030/2129 SLP256 T10671172=
201401062052 METAR KATL 062052Z 30020G28KT 10SM FEW040 SCT250 M06/M16 A3022 RMK AO2 PK WND 32036/2033 SLP248 T10611156 53020=
201401061952 METAR KATL 061952Z 31019G27KT 10SM FEW045 SCT250 M03/M13 A3019 RMK AO2 PK WND 29032/1938 SLP233 T10331128=
201401061852 METAR KATL 061852Z 31021G29KT 10SM FEW040 SCT250 M02/M13 A3015 RMK AO2 PK WND 30029/1843 SLP220 T10221128=
201401061752 METAR KATL 061752Z 29020G26KT 10SM FEW030 SCT250 SCT300 M03/M11 A3016 RMK AO2 PK WND 30028/1742 SLP222 60000 T10331111 11017 21044 51003=
201401061725 SPECI KATL 061725Z 32017KT 10SM SCT024 M03/M09 A3016 RMK AO2 PK WND 30026/1706=
201401061652 METAR KATL 061652Z 29016G23KT 10SM BKN026 M03/M09 A3016 RMK AO2 PK WND 31026/1613 SLP220 T10281089=
201401061552 METAR KATL 061552Z 30017G24KT 10SM SCT024 M03/M09 A3017 RMK AO2 SNB22E28 SLP223 P0000 T10331094=
201401061452 METAR KATL 061452Z 31022G29KT 10SM BKN024 M04/M09 A3015 RMK AO2 PK WND 31030/1413 SNB46E50 SLP218 SHSN DSNT NW-N P0000 60000 T10441094 51041=
201401061352 METAR KATL 061352Z 32015KT 10SM BKN024 BKN080 M04/M09 A3011 RMK AO2 PK WND 32033/1312 SLP204 T10391089=
201401061252 METAR KATL 061252Z 31021G28KT 10SM OVC020 M03/M08 A3007 RMK AO2 PK WND 32028/1243 SLP191 T10331078=
201401061152 METAR KATL 061152Z 30019G34KT 10SM FEW014 OVC020 M03/M07 A3003 RMK AO2 PK WND 32034/1145 SLP176 60001 70008 T10281067 10072 21028 53036=
201401061056 SPECI KATL 061056Z 31017G30KT 10SM FEW009 OVC015 M02/M05 A2999 RMK AO2=
201401061052 METAR KATL 061052Z 31023G30KT 10SM OVC009 M02/M05 A2998 RMK AO2 PK WND 32032/1029 SLP159 T10171050=
201401060952 METAR KATL 060952Z 30021G28KT 10SM OVC009 M01/M03 A2995 RMK AO2 PK WND 32030/0941 SLP149 T10111028=
201401060852 METAR KATL 060852Z 30017G27KT 10SM OVC008 00/M02 A2992 RMK AO2 PK WND 31028/0754 RAE0756 SLP137 P0000 60001 T00001017 51038=
201401060820 SPECI KATL 060820Z 31019G25KT 10SM FEW008 BKN013 OVC048 02/M01 A2991 RMK AO2 PK WND 31028/0754 RAE0756 P0000=
201401060752 METAR KATL 060752Z 31024G29KT 10SM -RA FEW008 BKN017 OVC046 02/M01 A2989 RMK AO2 PK WND 33031/0741 RAB43 SLP128 P0000 T00221006=
201401060657 SPECI KATL 060657Z 29013G21KT 10SM SCT008 BKN013 OVC035 04/02 A2986 RMK AO2=
201401060652 METAR KATL 060652Z 29018G22KT 10SM FEW008 SCT013 OVC035 04/02 A2986 RMK AO2 PK WND 29031/0635 RAE37 SLP115 P0001 T00390022=
201401060644 SPECI KATL 060644Z 28016G31KT 8SM FEW008 SCT024 OVC033 04/02 A2985 RMK AO2 PK WND 29031/0635 RAE37 P0001=
201401060629 SPECI KATL 060629Z 29020G31KT 7SM -RA SCT008 BKN013 OVC029 05/03 A2984 RMK AO2 PK WND 31031/0624 P0001=
201401060620 SPECI KATL 060620Z 30020G28KT 3SM -RA BR BKN008 BKN013 OVC025 06/05 A2983 RMK AO2 PK WND 31028/0617 P0001=
201401060552 METAR KATL 060552Z COR 31017G28KT 10SM -RA FEW008 BKN020 OVC040 07/06 A2980 RMK AO2 PK WND 33034/0534 WSHFT 0528 FROPA SLP096 P0004 60007 T00720056 10117 20072 55005=
201401060543 SPECI KATL 060543Z 31022G34KT 10SM -RA SCT005 BKN010 OVC019 08/06 A2980 RMK AO2 PK WND 33034/0534 WSHFT 0528 FROPA P0004=
201401060536 SPECI KATL 060536Z 32026G34KT 6SM -RA BR BKN008 OVC018 08/07 A2980 RMK AO2 PK WND 33034/0534 FROPA P0004=
201401060452 METAR KATL 060452Z COR 20009KT 1SM -RA BR OVC003 11/10 A2976 RMK AO2 SFC VIS 2 SLP079 CIG 002V004 P0002 T01060100 401110011=
201401060414 SPECI KATL 060414Z 18007KT 2SM -RA BR OVC004 10/09 A2978 RMK AO2 CIG 003V005 P0001=
201401060352 METAR KATL 060352Z 17007KT 2SM -RA BR OVC005 10/09 A2979 RMK AO2 SFC VIS 3 RAB42 SLP090 CIG 004V007 P0000 T01000089=
201401060333 SPECI KATL 060333Z 18010KT 2SM BR BKN006 OVC012 09/09 A2980 RMK AO2 SFC VIS 4 CIG 004V008=
201401060252 METAR KATL 060252Z 17008KT 1SM BR BKN005 OVC012 09/08 A2982 RMK AO2 SFC VIS 3 SLP101 CIG 004V007 60001 T00890083 58024=
201401060205 SPECI KATL 060205Z 16008KT 1SM BR OVC004 08/07 A2984 RMK AO2 SFC VIS 3 CIG 003V006=
201401060152 METAR KATL 060152Z 16007KT 2SM BR BKN004 OVC018 08/07 A2985 RMK AO2 SFC VIS 4 DZE00B31E47RAB00E31 SLP112 CIG 003V005 P0000 T00780072=
201401060135 SPECI KATL 060135Z 15010KT 2SM -DZ BR BKN004 BKN018 OVC050 08/07 A2985 RMK AO2 SFC VIS 4 DZE00B31RAB00E31 CIG 003V005 P0000=
201401060127 SPECI KATL 060127Z 15012KT 4SM -RA BR BKN004 BKN018 OVC045 08/07 A2985 RMK AO2 DZE00RAB00 CIG 003V005 P0000=
201401060119 SPECI KATL 060119Z 15012KT 3SM -RA BR BKN006 BKN018 OVC045 08/07 A2985 RMK AO2 DZE00RAB00 P0000=
201401060052 METAR KATL 060052Z 14008KT 3SM -DZ BR FEW006 BKN018 OVC040 08/07 A2987 RMK AO2 SLP120 P0001 T00780067=
201401052352 METAR KATL 052352Z 13006KT 4SM -DZ BR FEW006 BKN032 OVC055 07/06 A2989 RMK AO2 RAE26DZB26 SLP126 P0000 60000 T00720061 10078 20056 58013=
201401052327 SPECI KATL 052327Z 10006KT 8SM -DZ SCT020 BKN036 OVC046 07/06 A2990 RMK AO2 RAE26DZB26 P0000=
201401052252 METAR KATL 052252Z 00000KT 3SM -RA BR OVC018 08/06 A2993 RMK AO2 DZB2158E36RAB36 SLP140 P0000 T00780061=
201401052230 SPECI KATL 052230Z 11005KT 3SM -DZ BR BKN021 OVC055 08/06 A2992 RMK AO2 DZB2158 P0000=
201401052152 METAR KATL 052152Z 12005KT 7SM FEW036 BKN050 OVC060 08/05 A2993 RMK AO2 SLP140 T00780050=
201401052052 METAR KATL 052052Z 13006KT 3SM HZ FEW033 BKN060 08/05 A2993 RMK AO2 SFC VIS 6 SLP140 T00780050 56016=
201401051952 METAR KATL 051952Z 12006KT 3SM HZ FEW008 OVC055 07/04 A2994 RMK AO2 SFC VIS 6 SLP143 T00720044=
201401051924 SPECI KATL 051924Z 14004KT 2 1/2SM BR SCT007 OVC050 07/04 A2994 RMK AO2 SFC VIS 5=
201401051852 METAR KATL 051852Z 13005KT 3/4SM BR BKN006 OVC050 06/04 A2995 RMK AO2 SFC VIS 3 SLP149 T00610044=
201401051829 SPECI KATL 051829Z 13005KT 3/4SM BR BKN005 OVC050 06/04 A2996 RMK AO2 SFC VIS 3=
201401051752 METAR KATL 051752Z 10005KT 3/4SM BR BKN004 OVC050 06/04 A2998 RMK AO2 SFC VIS 2 1/2 SLP158 T00560044 10056 20011 58045=
201401051652 METAR KATL 051652Z 11005KT 3/4SM BR OVC003 04/04 A3005 RMK AO2 SFC VIS 1 1/2 SLP182 T00440039=
201401051552 METAR KATL 051552Z 16003KT 3/4SM R09R/4500VP6000FT BR OVC003 03/03 A3010 RMK AO2 SFC VIS 1 SLP200 T00330028=
201401051452 METAR KATL 051452Z 11005KT 1/2SM R09R/2600V3000FT FG OVC003 02/02 A3011 RMK AO2 TWR VIS 3/4 SLP205 T00220022 58002=
201401051352 METAR KATL 051352Z 11005KT 3/4SM R09R/5500VP6000FT BR OVC003 02/01 A3012 RMK AO2 SLP208 CIG 002V004 T00170011=
201401051252 METAR KATL 051252Z 09004KT 3/4SM BR OVC003 02/01 A3011 RMK AO2 SFC VIS 1 1/4 SLP206 CIG 002V004 TWRINC T00170011=
201401051152 METAR KATL 051152Z 09005KT 3/4SM BR OVC003 02/01 A3012 RMK AO2 SFC VIS 2 SLP208 TWRINC 60002 70002 T00170006 10017 20011 58008=
201401051052 METAR KATL 051052Z 05005KT 1/2SM BR OVC003 01/01 A3013 RMK AO2 SFC VIS 1 1/2 RAE07 SLP212 TWRINC P0001 T00110006=
201401050952 METAR KATL 050952Z 05007KT 1/2SM -RA BR OVC003 01/01 A3013 RMK AO2 SFC VIS 1 1/2 DZB32E45RAB45 SLP212 TWRINC P0001 T00110006=
201401050905 SPECI KATL 050905Z 03005KT 1/2SM BR OVC003 01/00 A3014 RMK AO2 SFC VIS 2 1/2 TWRINC=
201401050852 METAR KATL 050852Z 06006KT 3SM BR OVC005 01/00 A3014 RMK AO2 SLP216 T00110000 56013=
201401050752 METAR KATL 050752Z 04006KT 5SM BR OVC005 01/M01 A3016 RMK AO2 SLP221 T00111006=
201401050652 METAR KATL 050652Z 07007KT 7SM OVC007 01/M01 A3016 RMK AO2 SLP223 CIG 006V008 T00111006=
201401050552 METAR KATL 050552Z 08006KT 8SM OVC007 01/M01 A3018 RMK AO2 SLP230 CIG 006V008 T00111006 10017 20011 55016=
201401050452 METAR KATL 050452Z 11006KT 10SM OVC008 01/M01 A3018 RMK AO2 SLP229 CIG 007V010 T00111011 400221044=
201401050436 SPECI KATL 050436Z 10009KT 10SM OVC009 01/M01 A3018 RMK AO2 CIG 008V010=
201401050352 METAR KATL 050352Z 11006KT 10SM OVC010 02/M02 A3021 RMK AO2 SLP237 T00171017=
201401050252 METAR KATL 050252Z 11006KT 10SM OVC012 02/M03 A3023 RMK AO2 SLP247 T00171028 58002=
201401050152 METAR KATL 050152Z 09009KT 10SM OVC012 02/M03 A3023 RMK AO2 SLP248 T00171033=
201401050052 METAR KATL 050052Z 11008KT 10SM OVC012 02/M04 A3025 RMK AO2 SLP255 T00171039=
201401042352 METAR KATL 042352Z 09008KT 10SM OVC013 02/M05 A3024 RMK AO2 SLP251 T00171050 10022 20011 58010=
201401042252 METAR KATL 042252Z 09006KT 10SM OVC015 02/M06 A3026 RMK AO2 SLP260 T00171061=
201401042152 METAR KATL 042152Z 08008KT 10SM OVC017 02/M06 A3027 RMK AO2 SLP261 T00221061=
201401042052 METAR KATL 042052Z 07006KT 10SM OVC017 02/M07 A3027 RMK AO2 SLP260 T00171067 56018=
201401041952 METAR KATL 041952Z 07009KT 10SM OVC015 02/M07 A3027 RMK AO2 SLP260 T00171067=
201401041938 SPECI KATL 041938Z 08007KT 10SM OVC015 02/M07 A3028 RMK AO2=
201401041852 METAR KATL 041852Z 10005KT 10SM OVC014 02/M07 A3029 RMK AO2 SLP267 T00171072=
201401041832 SPECI KATL 041832Z 08007KT 10SM OVC014 02/M08 A3029 RMK AO2=
201401041752 METAR KATL 041752Z 10008KT 10SM OVC015 01/M08 A3033 RMK AO2 SLP280 T00111083 10017 21044 58022=
201401041706 SPECI KATL 041706Z 09008KT 10SM OVC014 01/M09 A3036 RMK AO2=
201401041652 METAR KATL 041652Z 09008KT 10SM OVC016 01/M10 A3036 RMK AO2 SLP293 T00061100=
201401041552 METAR KATL 041552Z 08008KT 10SM OVC018 00/M11 A3038 RMK AO2 SLP299 T00001106=
201401041452 METAR KATL 041452Z 10009KT 10SM OVC018 M01/M11 A3039 RMK AO2 SLP303 T10111106 51013=
201401041352 METAR KATL 041352Z 11010KT 10SM BKN023 M02/M12 A3039 RMK AO2 SLP303 T10221117=
201401041252 METAR KATL 041252Z 09006KT 10SM BKN025 M04/M11 A3037 RMK AO2 SLP295 T10391106=
201401041244 SPECI KATL 041244Z 08007KT 10SM BKN025 M04/M10 A3036 RMK AO2=
201401041152 METAR KATL 041152Z 09007KT 10SM FEW030 SCT250 M04/M11 A3035 RMK AO2 SLP291 T10441106 11022 21044 55004=
201401041052 METAR KATL 041052Z 09009KT 10SM CLR M04/M11 A3035 RMK AO2 SLP289 T10391106=
201401040952 METAR KATL 040952Z 10008KT 10SM CLR M03/M12 A3035 RMK AO2 SLP290 T10281117=
201401040852 METAR KATL 040852Z 11009KT 10SM CLR M02/M12 A3037 RMK AO2 SLP293 T10221117 50003=
201401040752 METAR KATL 040752Z 11009KT 10SM CLR M02/M12 A3037 RMK AO2 SLP295 T10221117=
201401040652 METAR KATL 040652Z 12007KT 10SM CLR M02/M12 A3036 RMK AO2 SLP292 T10221117=
201401040552 METAR KATL 040552Z 12006KT 10SM FEW250 M02/M11 A3036 RMK AO2 SLP291 T10221111 10000 21033 50000=
201401040452 METAR KATL 040452Z 10005KT 10SM FEW250 M03/M10 A3036 RMK AO2 SLP293 T10281100 400221061=
201401040352 METAR KATL 040352Z 08007KT 10SM FEW250 M02/M10 A3036 RMK AO2 SLP295 T10171100=
201401040252 METAR KATL 040252Z 07006KT 10SM CLR M01/M11 A3036 RMK AO2 SLP291 T10061111 53003=
201401040152 METAR KATL 040152Z 03003KT 10SM CLR M01/M11 A3035 RMK AO2 SLP291 T10111111=
201401040052 METAR KATL 040052Z 36004KT 10SM CLR 00/M12 A3035 RMK AO2 SLP289 T00001117=
201401032352 METAR KATL 032352Z 33005KT 10SM FEW250 M01/M12 A3035 RMK AO2 SLP289 T10061117 10022 21011 51007=
201401032252 METAR KATL 032252Z 32005KT 10SM FEW250 00/M12 A3034 RMK AO2 SLP287 T00001117=
201401032152 METAR KATL 032152Z 08003KT 10SM FEW250 01/M13 A3033 RMK AO2 SLP284 T00111128=
201401032052 METAR KATL 032052Z 01006KT 10SM FEW250 02/M12 A3033 RMK AO2 SLP281 T00171117 55012=
201401031952 METAR KATL 031952Z 01006KT 10SM SCT250 01/M12 A3032 RMK AO2 SLP281 T00111122=
201401031852 METAR KATL 031852Z 02007KT 10SM SCT250 00/M12 A3035 RMK AO2 SLP289 T00001122=
201401031752 METAR KATL 031752Z 35007KT 10SM FEW250 M01/M12 A3036 RMK AO2 SLP293 T10111122 11011 21061 50002=
201401031652 METAR KATL 031652Z 32008KT 10SM SCT250 M02/M12 A3037 RMK AO2 SLP298 T10221122=
201401031552 METAR KATL 031552Z 30010KT 10SM SCT250 M04/M12 A3039 RMK AO2 SLP304 T10391122=
201401031452 METAR KATL 031452Z 31013KT 10SM FEW250 M04/M13 A3035 RMK AO2 SLP292 T10441128 51031=
201401031352 METAR KATL 031352Z 34013G17KT 10SM FEW028 SCT200 M06/M12 A3033 RMK AO2 SLP283 T10561122=
201401031252 METAR KATL 031252Z 34012G20KT 10SM FEW026 SCT200 M06/M12 A3029 RMK AO2 SLP268 T10611122=
201401031152 METAR KATL 031152Z 33012G19KT 10SM FEW028 SCT200 M06/M11 A3026 RMK AO2 SLP258 60000 70018 931000 T10561111 11039 21056 53015=
201401031052 METAR KATL 031052Z 32013G18KT 10SM SCT030 M06/M12 A3024 RMK AO2 SLP250 T10561117=
201401030952 METAR KATL 030952Z 32014G22KT 10SM SCT032 M06/M12 A3022 RMK AO2 SLP243 T10561117=
201401030852 METAR KATL 030852Z 33016G24KT 10SM SCT027 BKN034 M05/M12 A3021 RMK AO2 PK WND 33029/0813 SLP239 60000 T10501117 51025=
201401030752 METAR KATL 030752Z 33015G28KT 10SM BKN034 M05/M12 A3020 RMK AO2 PK WND 34032/0719 SNB0656E45 SLP234 P0000 T10501122=
201401030652 METAR KATL 030652Z 33020G30KT 10SM OVC034 M04/M11 A3017 RMK AO2 PK WND 31031/0606 SNE30 SLP224 BINOVC P0000 T10391111=
201401030631 SPECI KATL 030631Z 31015G23KT 10SM BKN034 M04/M11 A3016 RMK AO2 PK WND 31031/0606 SNE30 P0000=
201401030552 METAR KATL 030552Z 32019G31KT 10SM -SN BKN034 BKN040 M04/M11 A3014 RMK AO2 PK WND 32031/0547 SNB09 SLP212 PCPN VRY LGT 931000 P0000 60000 T10391111 10033 21039 51033=
201401030452 METAR KATL 030452Z 32018G34KT 10SM SCT032 BKN038 M03/M11 A3011 RMK AO2 PK WND 33042/0430 SNE16 SLP204 SHSN N-NE P0000 T10331111 401111033=
201401030417 SPECI KATL 030417Z 32027G40KT 10SM SCT034 M03/M10 A3008 RMK AO2 PK WND 34040/0415 SNE16 P0000=
201401030352 METAR KATL 030352Z 33022G36KT 10SM -SN BKN032 BKN038 M02/M09 A3007 RMK AO2 PK WND 34040/0319 SNB39 SLP190 PCPN VRY LGT P0000 T10221089=
201401030252 METAR KATL 030252Z 31025G37KT 10SM BKN030 M02/M08 A3004 RMK AO2 PK WND 31037/0251 SLP178 T10171078 51029=
201401030152 METAR KATL 030152Z 31021G31KT 10SM FEW022 00/M05 A3001 RMK AO2 PK WND 31031/0148 SLP169 T00001050=
201401030052 METAR KATL 030052Z 31021KT 10SM FEW025 02/M03 A2998 RMK AO2 PK WND 32032/0004 SLP158 T00171028=
201401022352 METAR KATL 022352Z 31024G36KT 10SM FEW025 SCT250 03/M02 A2995 RMK AO2 PK WND 32036/2350 PRESRR SLP147 60008 T00331022 10111 20033 53033=
201401022341 SPECI KATL 022341Z 31022G32KT 10SM FEW025 SCT250 04/M02 A2993 RMK AO2 PK WND 31032/2339=
201401022252 METAR KATL 022252Z 30018G31KT 10SM FEW015 BKN028 BKN040 BKN200 06/02 A2990 RMK AO2 PK WND 31033/2231 SLP128 T00560017=
201401022237 SPECI KATL 022237Z 32022G33KT 10SM SCT015 BKN025 BKN040 OVC200 06/03 A2989 RMK AO2 PK WND 31033/2231=
201401022152 METAR KATL 022152Z 31019G26KT 10SM BKN013 BKN020 OVC060 07/05 A2985 RMK AO2 PK WND 30030/2115 SLP112 T00720050=
201401022148 SPECI KATL 022148Z 30019G26KT 10SM BKN013 BKN020 OVC060 07/05 A2985 RMK AO2 PK WND 30030/2115=
201401022054 SPECI KATL 022054Z 29017G30KT 10SM SCT015 BKN020 OVC060 10/07 A2981 RMK AO2=
201401022052 METAR KATL 022052Z 30024G30KT 10SM SCT015 BKN037 OVC060 10/07 A2981 RMK AO2 PK WND 31030/2047 RAE22 SLP095 P0000 60008 T01000067 55002=
201401022023 SPECI KATL 022023Z 30014KT 10SM SCT012 BKN017 OVC028 11/09 A2979 RMK AO2 RAE22 P0000=
201401022008 SPECI KATL 022008Z 30016G25KT 3SM -RA BR FEW006 BKN010 OVC020 11/09 A2979 RMK AO2 SFC VIS 6 P0000=
201401021952 METAR KATL 021952Z 30018G24KT 2 1/2SM -RA BR BKN006 BKN012 OVC020 11/09 A2979 RMK AO2 SFC VIS 3 DZB04E42RAB42 SLP089 P0001 T01060094=
201401021904 SPECI KATL 021904Z 25008KT 3SM -DZ BR BKN007 BKN010 OVC020 11/09 A2978 RMK AO2 SFC VIS 4 DZB04 P0000=
201401021852 METAR KATL 021852Z 25011KT 8SM BKN007 BKN010 OVC020 11/09 A2979 RMK AO2 RAE30 SLP089 P0007 T01060094=
201401021825 SPECI KATL 021825Z 24009G16KT 6SM -RA BR FEW005 BKN008 OVC019 11/10 A2979 RMK AO2 P0007=
201401021752 METAR KATL 021752Z 25007KT 2 1/2SM -RA BR FEW003 BKN005 OVC010 11/10 A2981 RMK AO2 SLP097 P0004 60010 T01060100 10106 20067 58029=
201401021652 METAR KATL 021652Z 23006KT 2 1/2SM -RA BR OVC005 10/09 A2985 RMK AO2 SFC VIS 3 RAE04B30 SLP110 P0002 T01000094=
201401021618 SPECI KATL 021618Z 22005KT 1 1/2SM BR OVC005 09/08 A2987 RMK AO2 SFC VIS 5 RAE04 P0001=
201401021552 METAR KATL 021552Z 21006KT 1/2SM R09R/4000V5500FT -RA BR OVC003 08/08 A2989 RMK AO2 SFC VIS 2 RAE1453B37 SLP123 TWRINC P0002 T00830083=
201401021452 METAR KATL 021452Z 19005KT 1/2SM -RA BR OVC003 08/07 A2990 RMK AO2 SFC VIS 2 DZE52RAB52 SLP129 P0002 60002 T00780072 56021=
201401021352 METAR KATL 021352Z 16004KT 1/2SM R09R/5000VP6000FT -DZ BR OVC003 07/07 A2992 RMK AO2 SFC VIS 1 SLP135 VIS 1/2V1 1/2 CIG 002V004 P0000 T00670067=
201401021309 SPECI KATL 021309Z 13004KT 1/2SM -DZ BR OVC003 07/06 A2993 RMK AO2 SFC VIS 2 CIG 002V004 TWRINC P0000=
201401021252 METAR KATL 021252Z 13003KT 1SM -DZ BR OVC003 07/06 A2994 RMK AO2 SFC VIS 2 RAE39DZB39 SLP141 CIG 002V005 P0000 T00670061=
201401021152 METAR KATL 021152Z 12003KT 1SM -RA BR OVC003 07/06 A2997 RMK AO2 SFC VIS 2 1/2 SLP150 CIG 002V004 P0001 60006 70008 T00670061 10067 20061 56022=
201401021052 METAR KATL 021052Z 13003KT 1SM -RA BR OVC003 07/06 A2998 RMK AO2 SFC VIS 3 DZE09RAB09 SLP157 CIG 002V004 PCPN VRY LGT P0001 T00670056=
201401021018 SPECI KATL 021018Z 00000KT 1SM -RA BR BKN003 OVC022 06/06 A3000 RMK AO2 SFC VIS 3 DZE09RAB09 CIG 002V004 P0001=
201401020952 METAR KATL 020952Z 14005KT 1 1/2SM -DZ BR BKN004 BKN018 OVC045 06/06 A3001 RMK AO2 SFC VIS 4 RAE52DZB52 SLP166 CIG 003V005 PCPN VRY LGT P0000 T00610056=
201401020905 SPECI KATL 020905Z 12004KT 1 1/2SM -RA BR OVC004 06/06 A3003 RMK AO2 SFC VIS 4 CIG 003V006 PCPN VRY LGT P0000=
201401020852 METAR KATL 020852Z 13003KT 5SM -RA BR BKN004 OVC026 06/06 A3003 RMK AO2 SLP173 CIG 003V005 PCPN VRY LGT P0000 60004 T00610056 56032=
201401020826 SPECI KATL 020826Z 13004KT 6SM -RA BR SCT004 OVC028 06/06 A3005 RMK AO2 PCPN VRY LGT P0000=
201401020755 SPECI KATL 020755Z 14003KT 6SM -RA BR BKN004 OVC026 06/06 A3006 RMK AO2 PCPN VRY LGT P0000=
201401020752 METAR KATL 020752Z 12003KT 6SM -RA BR SCT004 BKN026 OVC075 06/06 A3006 RMK AO2 SLP184 PCPN VRY LGT P0002 T00610056=
201401020652 METAR KATL 020652Z 13005KT 6SM -RA BR FEW006 SCT028 OVC080 06/05 A3009 RMK AO2 SLP194 P0002 T00610050=
201401020552 METAR KATL 020552Z 15003KT 7SM -RA FEW030 BKN075 OVC090 06/05 A3013 RMK AO2 SLP208 P0002 60002 T00610050 10078 20061 56012=
201401020452 METAR KATL 020452Z 14005KT 8SM -RA BKN075 OVC090 07/04 A3014 RMK AO2 RAB40 SLP211 P0000 T00670039 400830017=
201401020352 METAR KATL 020352Z 10003KT 10SM FEW035 BKN090 OVC120 07/03 A3015 RMK AO2 RAB30E52 SLP214 P0000 T00670033=
201401020252 METAR KATL 020252Z 11004KT 10SM BKN034 OVC090 07/03 A3017 RMK AO2 SLP220 T00720028 58009=
201401020152 METAR KATL 020152Z 00000KT 10SM BKN032 OVC150 07/03 A3018 RMK AO2 SLP224 T00720028=
201401020052 METAR KATL 020052Z 14005KT 10SM OVC034 07/02 A3019 RMK AO2 SLP228 T00720022=
201401012352 METAR KATL 012352Z 14003KT 10SM BKN032 OVC110 08/01 A3019 RMK AO2 SLP231 T00780011 10083 20072 56006=
201401012252 METAR KATL 012252Z 14003KT 10SM BKN035 OVC200 08/01 A3020 RMK AO2 SLP232 T00780011=
201401012152 METAR KATL 012152Z 12003KT 10SM BKN039 OVC200 08/01 A3020 RMK AO2 SLP231 T00830006=
201401012052 METAR KATL 012052Z 14004KT 10SM BKN050 BKN080 OVC230 08/00 A3021 RMK AO2 SLP236 T00830000 56021=
201401011952 METAR KATL 011952Z 13003KT 10SM BKN085 OVC230 08/M01 A3023 RMK AO2 SLP242 T00781011=
201401011852 METAR KATL 011852Z 14003KT 10SM BKN090 BKN230 07/M02 A3025 RMK AO2 SLP249 T00721017=
201401011752 METAR KATL 011752Z 11003KT 10SM SCT110 BKN230 07/M02 A3027 RMK AO2 SLP258 T00721017 10072 20017 58021=
201401011652 METAR KATL 011652Z COR 15004KT 10SM BKN120 BKN230 06/M02 A3032 RMK AO2 SLP273 T00611017=
201401011552 METAR KATL 011552Z 09003KT 10SM SCT120 BKN180 BKN250 05/M02 A3034 RMK AO2 SLP283 T00501017=
201401011452 METAR KATL 011452Z 07005KT 10SM FEW120 BKN180 OVC250 04/M02 A3034 RMK AO2 SLP281 T00391017 53006=
201401011352 METAR KATL 011352Z 09004KT 10SM FEW120 BKN200 BKN250 03/M01 A3033 RMK AO2 SLP277 VIRGA DSNT SE-SW T00281011=
201401011252 METAR KATL 011252Z 11003KT 10SM FEW140 BKN200 OVC250 02/M02 A3033 RMK AO2 SLP276 T00221022=
