##########################################################
# Query made at 04/19/2024 23:38:40 UTC
# Time interval: from 06/01/2014 12:00  to 06/30/2014 12:59  UTC
##########################################################

##########################################################
# KATL, Atlanta, Hartsfield - Jackson Atlanta International Airport (United States)
# WMO index: 72219. WIGOS ID: 0-20000-0-72219
# Latitude 33-38-59N. Longitude 084-25-00W. Altitude 312 m.
##########################################################

201406301252 METAR KATL 301252Z 13004KT 10SM SCT043 BKN095 BKN200 24/21 A3013 RMK AO2 SLP194 T02390211=
201406301152 METAR KATL 301152Z 15004KT 10SM FEW050 BKN095 BKN200 23/21 A3012 RMK AO2 SLP189 70008 T02280206 10228 20222 51008=
201406301052 METAR KATL 301052Z 07003KT 10SM FEW055 SCT150 BKN250 22/21 A3011 RMK AO2 SLP187 T02220206=
201406300952 METAR KATL 300952Z 00000KT 10SM FEW035 SCT055 BKN250 23/21 A3010 RMK AO2 SLP183 T02280206=
201406300852 METAR KATL 300852Z 35006KT 10SM FEW035 BKN250 23/21 A3010 RMK AO2 SLP181 T02280206 55008=
201406300752 METAR KATL 300752Z 00000KT 10SM FEW007 SCT032 SCT055 BKN250 22/21 A3009 RMK AO2 SLP179 T02220206=
201406300652 METAR KATL 300652Z 00000KT 10SM FEW007 SCT035 SCT100 BKN250 23/21 A3011 RMK AO2 SLP185 FRQ LGTIC DSNT NW CB DSNT NW T02280211=
201406300552 METAR KATL 300552Z 12004KT 10SM FEW009 SCT050 SCT100 BKN250 23/21 A3012 RMK AO2 SLP189 CONS LTGIC DSNT NW CB DSNT NW T02280211 10278 20222 58008=
201406300548 SPECI KATL 300548Z 13003KT 10SM FEW009 SCT050 SCT100 BKN250 23/21 A3013 RMK AO2 CONS LTGIC DSNT NW CB DSNT NW=
201406300452 METAR KATL 300452Z 10005KT 10SM FEW012 SCT048 SCT100 BKN200 23/21 A3015 RMK AO2 SLP199 CONS LTGIC DSNT NW CB DSNT NW T02280211 403220228=
201406300352 METAR KATL 300352Z 10006KT 10SM FEW014 SCT050 SCT100 BKN200 23/21 A3016 RMK AO2 SLP201 T02330211=
201406300252 METAR KATL 300252Z 08010KT 10SM FEW048 SCT100 BKN200 BKN250 24/21 A3014 RMK AO2 SLP197 T02440211 53006=
201406300152 METAR KATL 300152Z 36004KT 10SM FEW075 SCT110 BKN200 BKN250 27/22 A3013 RMK AO2 SLP191 OCNL LTGIC DSNT SE CB DSNT SE T02670217=
201406300052 METAR KATL 300052Z 28004KT 10SM FEW036 SCT090 BKN200 BKN250 26/22 A3013 RMK AO2 SLP191 FRQ LTGIC DSNT SE CB DSNT SE & NW CBMAM DSNT SE TCU DSNT S T02610217=
201406292352 METAR KATL 292352Z 00000KT 10SM FEW038 SCT095 BKN200 BKN250 27/22 A3013 RMK AO2 SLP191 CB DSNT E & SE & SW TCU DSNT SE & SW SHRA DSNT SW 60008 T02720217 10322 20244 56009=
201406292252 METAR KATL 292252Z 34007KT 10SM FEW045 SCT100 BKN200 BKN250 28/21 A3014 RMK AO2 SLP195 CB DSNT NE-SE & SW & NW TCU DSNT SE-S & SW ACC N-NE T02830206=
201406292152 METAR KATL 292152Z 29006KT 10SM FEW050 SCT085 BKN200 BKN250 28/21 A3014 RMK AO2 SLP196 CB DSNT NE-SE & S & W-NW TCU DSNT N-E & S & NW T02780206=
201406292052 METAR KATL 292052Z 31006KT 10SM SCT050TCU BKN080 BKN250 27/22 A3015 RMK AO2 RAE24 SLP201 CB DSNT N-E & SW TCU NW P0001 60008 T02670217 56013=
201406291959 SPECI KATL 291959Z 27010KT 7SM -RA SCT037CB BKN050TCU OVC110 24/21 A3016 RMK AO2 CB E & S-SW MOV E TCU NW P0001=
201406291952 METAR KATL 291952Z 26011KT 2 1/2SM R09R/5500VP6000FT RA SCT040CB BKN055TCU BKN110 OVC250 24/21 A3016 RMK AO2 RAB30 SLP205 CB VC S-SW & E MOV E TCU W P0007 T02440211=
201406291852 METAR KATL 291852Z 00000KT 10SM SCT050 SCT060 BKN120 BKN250 32/19 A3017 RMK AO2 SLP205 CB DSNT SW-NW T03170189=
201406291752 METAR KATL 291752Z 17005KT 10SM SCT048 SCT060 BKN100 31/19 A3019 RMK AO2 SLP213 CB DSNT W-NW T03110189 10317 20239 58014=
201406291652 METAR KATL 291652Z 00000KT 10SM SCT045 BKN055 BKN100 30/19 A3022 RMK AO2 SLP221 T03000189=
201406291552 METAR KATL 291552Z 28003KT 10SM SCT040 SCT100 29/20 A3023 RMK AO2 SLP225 T02940200=
201406291452 METAR KATL 291452Z 00000KT 10SM FEW030 SCT100 SCT250 28/21 A3024 RMK AO2 SLP227 T02830206 50007=
201406291352 METAR KATL 291352Z 09003KT 10SM FEW025 SCT120 SCT250 27/21 A3024 RMK AO2 SLP231 T02720211=
201406291252 METAR KATL 291252Z 00000KT 10SM FEW250 25/21 A3024 RMK AO2 SLP230 T02500206=
201406291152 METAR KATL 291152Z 00000KT 10SM SCT250 24/21 A3021 RMK AO2 SLP220 T02390206 10256 20228 53015=
201406291052 METAR KATL 291052Z 12003KT 10SM SCT250 23/21 A3019 RMK AO2 SLP214 T02330206=
201406290952 METAR KATL 290952Z COR 00000KT 10SM FEW250 23/21 A3018 RMK AO2 SLP211 T02280206=
201406290852 METAR KATL 290852Z 00000KT 10SM FEW250 23/21 A3017 RMK AO2 SLP206 T02330206 56014=
201406290752 METAR KATL 290752Z 10004KT 10SM FEW070 SCT150 24/21 A3017 RMK AO2 SLP207 T02390206=
201406290652 METAR KATL 290652Z 00000KT 10SM FEW070 BKN150 25/21 A3019 RMK AO2 SLP214 T02500206=
201406290552 METAR KATL 290552Z 00000KT 10SM FEW070 BKN140 26/20 A3021 RMK AO2 SLP218 T02560200 10283 20256 58002=
201406290452 METAR KATL 290452Z 00000KT 10SM FEW075 BKN130 BKN250 26/19 A3023 RMK AO2 SLP224 T02610194 403000217=
201406290352 METAR KATL 290352Z 00000KT 10SM FEW050 BKN130 BKN200 BKN250 26/21 A3023 RMK AO2 SLP225 T02610206=
201406290252 METAR KATL 290252Z 00000KT 10SM BKN130 BKN200 BKN250 27/20 A3021 RMK AO2 SLP220 T02670200 53020=
201406290152 METAR KATL 290152Z 00000KT 10SM FEW045 BKN120 BKN200 BKN250 26/19 A3019 RMK AO2 SLP212 OCNL LTGIC DSNT NE CB DSNT NE T02560194=
201406290052 METAR KATL 290052Z 30003KT 10SM FEW050 SCT120 SCT200 SCT250 27/18 A3016 RMK AO2 SLP203 TCU DSNT NE & NW T02670183=
201406282352 METAR KATL 282352Z VRB03KT 10SM FEW055 SCT110 SCT200 SCT250 28/18 A3015 RMK AO2 SLP201 CB DSNT NE TCU DSNT N & NE T02830178 10300 20267 56006=
201406282252 METAR KATL 282252Z 27004KT 10SM FEW050 SCT110 BKN200 BKN250 28/18 A3016 RMK AO2 SLP203 CB DSNT NE & NW TCU DSNT NE & NW ACC DSNT E T02830183=
201406282152 METAR KATL 282152Z 32007KT 10SM FEW045 BKN100 BKN200 BKN250 28/18 A3016 RMK AO2 SLP203 CB DSNT N-E & NW TCU DSNT NW-NE T02830183=
201406282052 METAR KATL 282052Z 32007KT 10SM FEW045 BKN095 BKN200 BKN250 28/19 A3017 RMK AO2 SLP207 CB DSNT NE & NW TCU DSNT NW-N T02780189 58007=
201406281952 METAR KATL 281952Z 30014KT 10SM SCT035CB BKN100 27/21 A3019 RMK AO2 SLP213 CB NE-E MOV E VCSH E T02720206=
201406281852 SPECI KATL 281852Z 28012KT 10SM SCT035CB SCT045TCU BKN090 27/21 A3019 RMK AO2 SLP213 CB E & S & W MOV E TCU NW-N & SE-SW VCSH E T02720206=
201406281852 METAR KATL 281852Z 28012KT 10SM SCT035CB SCT045TCU BKN090 27/21 A3019 RMK AO2 SLP213 CB E & S & W MOV E TCU NW-N & SE-SW VCSH E T02720206=
201406281752 METAR KATL 281752Z 31006KT 10SM SCT030CB SCT040TCU BKN055 29/21 A3019 RMK AO2 SLP213 CB N-NE-E-SE & SW-W MOV E TCU NW T02940206 10300 20228 58003=
201406281652 METAR KATL 281652Z VRB04KT 10SM SCT032TCU BKN100 BKN250 29/21 A3021 RMK AO2 SLP219 TCU VC N & S T02890211=
201406281552 METAR KATL 281552Z 28008KT 10SM FEW030 SCT090 BKN130 BKN250 29/21 A3021 RMK AO2 SLP219 T02890206=
201406281452 METAR KATL 281452Z 34005KT 10SM FEW020 SCT080 BKN140 BKN250 28/20 A3020 RMK AO2 SLP217 T02830200 51014=
201406281352 METAR KATL 281352Z 36004KT 10SM FEW018 SCT080 BKN140 BKN250 27/21 A3020 RMK AO2 SLP215 T02670206=
201406281252 METAR KATL 281252Z 36004KT 10SM FEW015 BKN130 BKN170 OVC250 24/20 A3018 RMK AO2 SLP211 T02390200=
201406281152 METAR KATL 281152Z 31004KT 10SM BKN130 BKN170 OVC250 23/20 A3016 RMK AO2 SLP203 60000 T02280200 10244 20217 53011=
201406281052 METAR KATL 281052Z 30003KT 10SM SCT130 BKN170 OVC250 22/19 A3014 RMK AO2 SLP196 T02220194=
201406280952 METAR KATL 280952Z 30006KT 10SM SCT130 BKN250 22/19 A3013 RMK AO2 SLP194 T02170189=
201406280852 METAR KATL 280852Z 27006KT 10SM BKN120 BKN250 22/19 A3013 RMK AO2 SLP191 60000 T02220189 58005=
201406280752 METAR KATL 280752Z 27006KT 10SM BKN100 BKN250 23/19 A3013 RMK AO2 RAB16E26 SLP193 P0000 T02280194=
201406280652 METAR KATL 280652Z 23005KT 10SM FEW070 OVC100 24/21 A3014 RMK AO2 SLP196 T02440211=
201406280552 METAR KATL 280552Z 23003KT 10SM BKN110 24/21 A3014 RMK AO2 SLP197 T02440211 10283 20244 50006=
201406280452 METAR KATL 280452Z 00000KT 10SM BKN100 BKN250 25/21 A3015 RMK AO2 SLP198 T02500206 403110211=
201406280352 METAR KATL 280352Z 00000KT 10SM FEW100 BKN200 BKN250 26/20 A3014 RMK AO2 SLP195 T02610200=
201406280252 METAR KATL 280252Z 33005KT 10SM FEW035 BKN200 BKN250 26/21 A3013 RMK AO2 SLP191 T02610206 53022=
201406280152 METAR KATL 280152Z 32007KT 10SM FEW035 SCT200 BKN250 27/21 A3009 RMK AO2 SLP180 T02670211=
201406280052 METAR KATL 280052Z 27004KT 10SM FEW035TCU SCT070 SCT150 BKN250 27/21 A3007 RMK AO2 SLP173 TCU S-W T02720211=
201406272352 METAR KATL 272352Z 29003KT 10SM FEW035 BKN150 BKN250 28/21 A3006 RMK AO2 SLP169 CB DSNT N & NE 60000 T02830206 10311 20283 55001=
201406272252 METAR KATL 272252Z 28008KT 10SM FEW040 BKN150 BKN250 29/21 A3005 RMK AO2 SLP167 CB DSNT N TCU DSNT N-NE T02890206=
201406272152 METAR KATL 272152Z 26009KT 10SM FEW040 BKN150 BKN250 29/19 A3006 RMK AO2 SLP169 CB DSNT NE-E TCU DSNT N-NE T02890194=
201406272052 METAR KATL 272052Z 26009KT 10SM FEW045 SCT070 BKN140 BKN250 29/20 A3006 RMK AO2 SLP170 CB DSNT E 60000 T02940200 56012=
201406271952 METAR KATL 271952Z 26009KT 10SM SCT042 BKN120 BKN250 29/20 A3007 RMK AO2 SLP174 T02890200=
201406271852 METAR KATL 271852Z 27008KT 10SM FEW035CB SCT045TCU SCT080 BKN250 29/21 A3008 RMK AO2 RAB09E18 SLP176 CB VC S MOV E TCU SW-W P0000 T02890206=
201406271752 METAR KATL 271752Z 31007KT 10SM FEW035CB SCT045TCU SCT075 BKN250 30/21 A3010 RMK AO2 SLP183 CB SE MOV NE TCU NE-E & SW-W T03000206 10306 20217 58002=
201406271652 METAR KATL 271652Z 29012G15KT 10SM SCT030TCU SCT080 BKN250 29/21 A3011 RMK AO2 SLP186 TCU E-SE-S-SW-W T02890211=
201406271552 METAR KATL 271552Z 29008KT 10SM FEW025 BKN080 BKN250 28/22 A3011 RMK AO2 SLP187 T02830217=
201406271452 METAR KATL 271452Z 30010KT 10SM FEW017 SCT075 SCT250 27/22 A3011 RMK AO2 SLP186 T02670217 53013=
201406271352 METAR KATL 271352Z 28010KT 10SM SCT012 BKN130 BKN200 BKN250 24/21 A3009 RMK AO2 SLP182 T02440211=
201406271252 METAR KATL 271252Z 31009KT 10SM FEW008 SCT130 BKN200 BKN250 23/21 A3008 RMK AO2 SLP176 T02330206=
201406271152 METAR KATL 271152Z 30006KT 10SM FEW005 BKN140 BKN200 BKN250 22/20 A3007 RMK AO2 SLP172 70060 T02170200 10217 20211 53011=
201406271052 METAR KATL 271052Z 28007KT 10SM FEW004 SCT075 BKN140 BKN200 21/20 A3005 RMK AO2 SLP166 ACC DSNT W T02110200 $=
201406270952 METAR KATL 270952Z 28007KT 8SM SCT004 BKN075 BKN200 BKN250 21/20 A3004 RMK AO2 SLP162 T02110200 $=
201406270926 SPECI KATL 270926Z 28006KT 8SM SCT004 BKN075 BKN200 BKN250 21/21 A3003 RMK AO2 $=
201406270852 METAR KATL 270852Z 26007KT 6SM BR BKN004 OVC085 21/21 A3003 RMK AO2 SLP161 CIG 003V005 T02110206 56003 $=
201406270803 SPECI KATL 270803Z 27005KT 10SM BKN004 OVC085 21/21 A3003 RMK AO2 CIG 003V005 $=
201406270752 METAR KATL 270752Z 27006KT 10SM SCT004 BKN080 BKN200 BKN250 21/20 A3003 RMK AO2 SLP161 T02110200 $=
201406270652 METAR KATL 270652Z 28004KT 10SM FEW006 SCT075 SCT200 BKN250 22/20 A3004 RMK AO2 SLP162 T02170200 $=
201406270552 METAR KATL 270552Z 28004KT 10SM FEW007 SCT085 SCT200 BKN250 21/20 A3004 RMK AO2 SLP162 T02110200 10244 20211 58006=
201406270452 METAR KATL 270452Z 26003KT 10SM FEW010 SCT090 BKN200 22/21 A3006 RMK AO2 SLP170 T02170206 403000217=
201406270352 METAR KATL 270352Z 27005KT 10SM BKN080 BKN150 OVC200 22/20 A3006 RMK AO2 SLP170 T02220200=
201406270252 METAR KATL 270252Z 26005KT 10SM FEW010 BKN070 BKN090 OVC200 22/20 A3006 RMK AO2 SLP168 T02220200 53019=
201406270152 METAR KATL 270152Z 24006KT 10SM FEW010 BKN090 BKN120 BKN200 22/19 A3003 RMK AO2 SLP161 T02220194=
201406270052 METAR KATL 270052Z 25005KT 10SM FEW020 BKN090 BKN150 BKN200 23/21 A3001 RMK AO2 SLP152 T02280206=
201406262352 METAR KATL 262352Z 23007KT 10SM FEW020TCU SCT090 BKN150 BKN200 24/20 A3000 RMK AO2 SLP149 TCU S-SW 60060 T02440200 10283 20222 55009=
201406262252 METAR KATL 262252Z 24005KT 10SM FEW020 SCT090 BKN150 BKN200 25/19 A3000 RMK AO2 SLP149 CB DSNT SW T02500194=
201406262152 METAR KATL 262152Z 24004KT 10SM FEW040 BKN090 BKN150 BKN200 25/21 A3002 RMK AO2 TSE19RAE27 SLP155 CB DSNT SE & NW P0000 T02500206=
201406262119 SPECI KATL 262119Z 24008G17KT 10SM -RA FEW015 SCT050 BKN100 BKN200 24/20 A3003 RMK AO2 TSE19 TS MOV E P0000=
201406262056 SPECI KATL 262056Z 27007G16KT 5SM R09R/1600VP6000FT -TSRA SCT013CB BKN030 OVC040 23/20 A3003 RMK AO2 VIS NE-E-SE 1/2SM SHRA OCNL LTGICCG N-NE-SE-S TS N-NE-SE-S MOV E P0000=
201406262052 METAR KATL 262052Z 22007G25KT 1/2SM R09R/1600VP6000FT +TSRA FEW009 BKN027CB OVC040 23/20 A3003 RMK AO2 TSB48RAB42 SLP160 OCNL LTGICCG SE & NW TS VC SE & NW MOV E P0042 60060 T02280200 55008=
201406262048 SPECI KATL 262048Z 19009G25KT 4SM R09R/1600VP6000FT -TSRA BR FEW025CB BKN065 BKN140 BKN200 22/20 A3002 RMK AO2 TSB48RAB42 OCNL LTGICCG S & NW TS VC S & NW MOV E P0015=
201406262044 SPECI KATL 262044Z 24019G25KT 1 1/4SM R09R/3500VP6000FT +RA FEW025CB SCT065 BKN140 BKN200 24/21 A3002 RMK AO2 RAB42 CB SW-NW MOV E SHRA VC SW-NW P0000=
201406262027 SPECI KATL 262027Z 00000KT 10SM FEW025CB SCT065 BKN140 BKN200 27/21 A3002 RMK AO2 CB SW-NW MOV E SHRA VC SW-NW=
201406261952 METAR KATL 261952Z 11004KT 10SM FEW015 SCT080 BKN150 BKN200 26/22 A3004 RMK AO2 SLP162 CB DSNT E TCU DSNT SW-W-NW SHRA DSNT E T02610217=
201406261852 METAR KATL 261852Z 33005KT 10SM SCT020CB BKN060 BKN110 BKN200 26/22 A3005 RMK AO2 PK WND 28027/1804 TSE41RAB01E41 SLP168 TS MOV E CB NE-E-SE-S-SW MOV E SHRA NE-E-SE-S-SW P0018 T02560217=
201406261841 SPECI KATL 261841Z 01006KT 10SM FEW020CB BKN075 BKN110 BKN200 24/21 A3006 RMK AO2 PK WND 28027/1804 TSE41RAB01E41 VIS LWR NE-SE SHRA TS MOV E CB NE-SE MOV E P0018=
201406261825 SPECI KATL 261825Z 33007KT 4SM R09R/5000VP6000FT -TSRA BR BKN020CB BKN050 OVC100 22/21 A3007 RMK AO2 PK WND 28027/1804 RAB01 VIS LWR NE-SE SHRA OCNL LTGICCG OHD-NE-SE TS OHD-NE-SE MOV E P0013=
201406261813 SPECI KATL 261813Z 29019G27KT 2SM R09R/6000VP6000FT TSRA BR BKN025CB BKN040 OVC100 23/21 A3008 RMK AO2 PK WND 28027/1804 RAB01 PRESRR OCNL LTGICCG OHD-SW-NW TS OHD-SW-NW MOV E P0001=
201406261808 SPECI KATL 261808Z 29020G27KT 4SM TSRA BKN028CB BKN050 OVC100 24/21 A3006 RMK AO2 PK WND 28027/1804 RAB01 OCNL LTGICCG OHD-SW-NW TS OHD-SW-NW MOV E P0001=
201406261752 METAR KATL 261752Z 28006KT 10SM TS FEW040CB SCT048TCU BKN100 OVC200 28/19 A3006 RMK AO2 TSB51 SLP166 OCNL LTGICCG W TS VC W MOV NE CB SW-NW MOV NE TCU NE-SE-SW SHRA SW-NW T02830189 10300 20222 58013=
201406261652 METAR KATL 261652Z 27004KT 10SM FEW040 BKN120 BKN150 BKN200 29/21 A3008 RMK AO2 SLP176 CB DSNT W SHRA DSNT W T02940211=
201406261552 METAR KATL 261552Z 25005KT 10SM FEW030 SCT120 BKN150 BKN200 27/19 A3010 RMK AO2 SLP182 T02720194=
201406261452 METAR KATL 261452Z 00000KT 10SM FEW080 BKN120 BKN150 BKN200 28/19 A3010 RMK AO2 SLP180 T02780194 58000=
201406261352 METAR KATL 261352Z 32005KT 10SM FEW075 SCT110 BKN200 BKN250 26/20 A3010 RMK AO2 SLP181 ACC DSNT SW-NW T02610200=
201406261252 METAR KATL 261252Z 32005KT 10SM SCT070 SCT100 BKN200 BKN250 24/20 A3010 RMK AO2 SLP184 ACC NW-N & DSNT S & NW VCSH NW-N T02440200=
201406261152 METAR KATL 261152Z 28007KT 10SM FEW042 SCT075 BKN200 BKN250 23/20 A3010 RMK AO2 SLP181 CB DSNT SW & NW TCU DSNT NW ACC DSNT S & NW T02280200 10233 20217 53012=
201406261052 METAR KATL 261052Z 30005KT 10SM FEW070 SCT120 BKN200 BKN250 22/19 A3008 RMK AO2 SLP177 CB DSNT NW TCU DSNT W-NW ACC DSNT SE & SW & NW T02170194=
201406260952 METAR KATL 260952Z 29005KT 10SM FEW075 SCT130 BKN200 BKN250 22/19 A3007 RMK AO2 SLP172 ACC NW T02170194=
201406260852 METAR KATL 260852Z 28005KT 10SM FEW140 BKN200 BKN250 22/19 A3006 RMK AO2 SLP168 T02170194 56007=
201406260752 METAR KATL 260752Z 28005KT 10SM SCT200 BKN250 22/19 A3006 RMK AO2 SLP169 T02220189=
201406260652 METAR KATL 260652Z 00000KT 10SM FEW140 SCT200 SCT250 23/18 A3007 RMK AO2 SLP171 T02280183=
201406260552 METAR KATL 260552Z 00000KT 10SM FEW120 SCT200 BKN250 23/18 A3008 RMK AO2 SLP175 T02330183 10283 20228 50003=
201406260452 METAR KATL 260452Z 00000KT 10SM FEW110 BKN250 24/18 A3009 RMK AO2 SLP177 T02390183 403110211=
201406260352 METAR KATL 260352Z 27003KT 10SM BKN110 BKN250 25/18 A3008 RMK AO2 SLP175 T02500178=
201406260252 METAR KATL 260252Z 30005KT 10SM SCT100 BKN120 BKN250 26/17 A3007 RMK AO2 SLP172 T02560172 51020=
201406260152 METAR KATL 260152Z 30006KT 10SM FEW090 BKN110 BKN250 26/18 A3006 RMK AO2 SLP169 T02560183=
201406260052 METAR KATL 260052Z 29008KT 10SM FEW045 BKN110 BKN250 27/19 A3004 RMK AO2 SLP164 CB DSNT S T02670194=
201406252352 METAR KATL 252352Z 27011G17KT 10SM FEW050TCU SCT100 BKN250 28/19 A3001 RMK AO2 SLP153 TCU W-NW & DSNT S-SW T02830189 10311 20283 55005=
201406252252 METAR KATL 252252Z 28007KT 10SM FEW050 BKN250 29/18 A3000 RMK AO2 SLP148 T02940183=
201406252152 METAR KATL 252152Z 27008KT 10SM FEW045 BKN250 31/19 A3001 RMK AO2 SLP152 TCU DSNT N-NE T03060189=
201406252052 METAR KATL 252052Z 28008KT 10SM FEW045TCU SCT200 SCT250 31/19 A3003 RMK AO2 SLP157 CB DSNT N TCU N & SE T03060189 56019=
201406251952 METAR KATL 251952Z 31009KT 10SM FEW043TCU SCT200 SCT250 31/19 A3004 RMK AO2 SLP162 CB DSNT N TCU W T03060194=
201406251852 METAR KATL 251852Z 32009KT 10SM SCT040TCU SCT250 29/20 A3006 RMK AO2 SLP170 TCU S-SW & NW T02940200=
201406251752 METAR KATL 251752Z 31009KT 10SM SCT032 29/20 A3009 RMK AO2 SLP177 TCU DSNT E & S & W T02890200 10294 20217 58009=
201406251652 METAR KATL 251652Z 30009KT 10SM SCT030 28/21 A3010 RMK AO2 SLP182 TCU DSNT S T02830206=
201406251552 METAR KATL 251552Z 31009KT 10SM SCT025 SCT250 27/21 A3011 RMK AO2 SLP187 MDT CU ALQDS T02720206=
201406251452 METAR KATL 251452Z 29007KT 10SM BKN017 BKN024 BKN050 26/21 A3011 RMK AO2 SLP187 T02610211 51008=
201406251352 METAR KATL 251352Z 26008KT 10SM FEW010 SCT050 SCT250 24/21 A3011 RMK AO2 SLP185 T02440211=
201406251252 METAR KATL 251252Z 27008KT 9SM FEW009 SCT050 SCT250 23/21 A3010 RMK AO2 SLP183 T02330211=
201406251221 SPECI KATL 251221Z 27007KT 8SM SCT007 BKN250 23/21 A3009 RMK AO2=
201406251152 METAR KATL 251152Z 26007KT 7SM BKN005 BKN050 BKN250 22/21 A3009 RMK AO2 SLP180 CIG 004V007 60013 70014 T02170206 10228 20211 53009=
201406251125 SPECI KATL 251125Z 25006KT 7SM BKN005 BKN050 22/20 A3008 RMK AO2=
201406251052 METAR KATL 251052Z 25004KT 9SM FEW006 SCT050 SCT250 21/20 A3008 RMK AO2 SLP176 T02110200=
201406250952 METAR KATL 250952Z 24006KT 10SM FEW007 SCT050 SCT250 22/20 A3007 RMK AO2 SLP172 T02170200=
201406250852 METAR KATL 250852Z 26006KT 10SM FEW026 SCT040 SCT250 22/20 A3006 RMK AO2 SLP169 60013 T02170200 55001=
201406250752 METAR KATL 250752Z 24010G19KT 10SM FEW017 SCT033 BKN065 BKN200 22/20 A3006 RMK AO2 RAB18E50 SLP167 P0013 T02220200=
201406250750 SPECI KATL 250750Z 24010G19KT 10SM FEW017 SCT033 BKN065 BKN200 22/20 A3005 RMK AO2 RAB18E50 P0013=
201406250739 SPECI KATL 250739Z 23008KT 2SM R09R/5500VP6000FT +RA BR FEW017 BKN033 OVC065 22/20 A3006 RMK AO2 RAB18 P0007=
201406250652 METAR KATL 250652Z 23007KT 10SM FEW034 SCT200 BKN250 23/19 A3006 RMK AO2 SLP170 T02280194=
201406250552 METAR KATL 250552Z 22008KT 10SM FEW038 SCT200 BKN250 23/21 A3008 RMK AO2 SLP176 T02280206 10261 20228 51004=
201406250452 METAR KATL 250452Z 21009KT 9SM FEW200 BKN250 23/21 A3008 RMK AO2 SLP174 T02330211 402940211=
201406250352 METAR KATL 250352Z 21008KT 10SM FEW200 BKN250 24/21 A3008 RMK AO2 SLP174 T02390206=
201406250252 METAR KATL 250252Z 22004KT 10SM FEW200 BKN250 24/19 A3007 RMK AO2 SLP173 T02440194 51008=
201406250152 METAR KATL 250152Z 23004KT 10SM FEW200 BKN250 26/20 A3006 RMK AO2 SLP170 T02560200=
201406250052 METAR KATL 250052Z 21003KT 10SM FEW030 SCT200 BKN250 26/21 A3005 RMK AO2 SLP168 T02560206=
201406242352 METAR KATL 242352Z 00000KT 10SM FEW110 SCT150 BKN250 25/21 A3004 RMK AO2 WSHFT 2245 TSE15RAE27 SLP165 P0001 60001 T02500211 10294 20233 56001=
201406242315 SPECI KATL 242315Z 33006KT 9SM -RA FEW030 BKN100 BKN150 BKN200 23/21 A3004 RMK AO2 WSHFT 2245 TSE15 OCNL LTG DSNT NE TS MOV NE P0001=
201406242305 SPECI KATL 242305Z 32010KT 10SM -TSRA FEW030CB SCT100 BKN150 BKN200 24/20 A3004 RMK AO2 WSHFT 2245 OCNL LTGICCG NE TS VC NE MOV NE P0000=
201406242252 METAR KATL 242252Z 29016G23KT 10SM -TSRA SCT030CB BKN100 BKN150 BKN200 26/19 A3005 RMK AO2 TSB32RAB51 SLP167 OCNL LTGICCG N-NE TS N-NE MOV NE P0000 T02560194=
201406242232 SPECI KATL 242232Z 25011G20KT 10SM TS FEW035CB SCT150 BKN200 28/19 A3004 RMK AO2 TSB32 OCNL LTGICCG SW-NW TS VC SW-NW MOV E=
201406242152 METAR KATL 242152Z 22009G17KT 10SM FEW035 SCT150 BKN200 29/20 A3004 RMK AO2 SLP162 CB DSNT W-NW T02890200=
201406242052 METAR KATL 242052Z 23008KT 10SM FEW030 SCT050 BKN150 BKN180 28/20 A3005 RMK AO2 SLP165 T02830200 56016=
201406241952 METAR KATL 241952Z 23006KT 10SM FEW040 SCT150 BKN180 29/20 A3006 RMK AO2 SLP169 T02890200=
201406241852 METAR KATL 241852Z 26006KT 10SM SCT032TCU BKN150 BKN250 28/20 A3007 RMK AO2 SLP173 TCU S & W T02830200=
201406241752 METAR KATL 241752Z VRB04KT 10SM FEW030 SCT150 SCT250 28/21 A3010 RMK AO2 SLP181 60000 T02830206 10283 20217 58010=
201406241709 SPECI KATL 241709Z 23007KT 10SM BKN026 BKN030 BKN150 27/20 A3011 RMK AO2=
201406241652 METAR KATL 241652Z VRB05KT 10SM FEW023 BKN030 BKN150 26/20 A3011 RMK AO2 SLP186 T02610200=
201406241552 METAR KATL 241552Z 28005KT 10SM BKN017 BKN023 BKN060 26/21 A3012 RMK AO2 SLP191 T02560206=
201406241452 METAR KATL 241452Z 21003KT 8SM BKN012 BKN050 OVC070 23/21 A3013 RMK AO2 RAB12E45 SLP192 BINOVC DSNT W P0000 60000 T02330211 50006=
201406241418 SPECI KATL 241418Z 22003KT 6SM -RA BR BKN010 BKN020 OVC060 23/21 A3012 RMK AO2 RAB12 P0000=
201406241405 SPECI KATL 241405Z 23005KT 9SM FEW007 BKN017 OVC020 23/21 A3013 RMK AO2=
201406241352 METAR KATL 241352Z 21003KT 9SM BKN007 BKN012 OVC020 23/21 A3013 RMK AO2 SLP194 T02280206=
201406241252 METAR KATL 241252Z 21004KT 7SM OVC005 22/21 A3012 RMK AO2 SLP190 T02170206=
201406241152 METAR KATL 241152Z 21003KT 7SM OVC009 22/20 A3011 RMK AO2 SLP186 70026 T02170200 10228 20211 53012=
201406241102 SPECI KATL 241102Z 21003KT 9SM OVC009 22/20 A3008 RMK AO2=
201406241052 METAR KATL 241052Z 21003KT 9SM BKN010 OVC110 22/19 A3008 RMK AO2 SLP176 T02170194=
201406241047 SPECI KATL 241047Z 20003KT 9SM BKN010 OVC110 21/19 A3008 RMK AO2=
201406240952 METAR KATL 240952Z 15003KT 10SM FEW026 SCT100 BKN250 22/19 A3007 RMK AO2 SLP174 T02170194=
201406240852 METAR KATL 240852Z 00000KT 10SM FEW026 SCT055 BKN250 22/19 A3006 RMK AO2 SLP171 T02220194 55003=
201406240752 METAR KATL 240752Z 15003KT 10SM FEW032 SCT055 BKN250 22/19 A3006 RMK AO2 SLP170 T02220194=
201406240652 METAR KATL 240652Z 16004KT 10SM FEW037 SCT055 BKN250 22/19 A3007 RMK AO2 SLP173 T02220194=
201406240552 METAR KATL 240552Z 15003KT 10SM SCT024 SCT037 SCT140 BKN250 23/20 A3007 RMK AO2 SLP174 T02280200 10261 20222 55005=
201406240452 METAR KATL 240452Z 00000KT 10SM FEW035 BKN140 BKN250 23/20 A3007 RMK AO2 SLP171 T02280200 403060222=
201406240352 METAR KATL 240352Z 20003KT 10SM FEW012 SCT150 BKN250 23/19 A3007 RMK AO2 SLP172 T02330194=
201406240252 METAR KATL 240252Z 16007KT 10SM FEW013 SCT050 BKN140 BKN250 24/21 A3009 RMK AO2 SLP177 T02390206 53024=
201406240152 METAR KATL 240152Z 17005KT 10SM SCT015 BKN150 BKN250 24/22 A3007 RMK AO2 SLP171 T02390217=
201406240052 METAR KATL 240052Z 19003KT 10SM FEW150 SCT200 BKN250 24/21 A3003 RMK AO2 SLP159 T02440211=
201406232352 METAR KATL 232352Z 20003KT 10SM SCT150 BKN200 BKN250 26/21 A3001 RMK AO2 SLP153 60026 T02610211 10283 20250 55003=
201406232252 METAR KATL 232252Z 16008KT 10SM FEW030 SCT150 BKN200 BKN250 27/20 A3001 RMK AO2 SLP151 CB DSNT NE T02670200=
201406232152 METAR KATL 232152Z 23004KT 10SM FEW025TCU SCT120 BKN200 BKN250 27/21 A3001 RMK AO2 RAB02E14 SLP154 TCU VC NE P0000 T02670206=
201406232052 METAR KATL 232052Z 23004KT 10SM FEW020 SCT110 BKN180 BKN250 26/21 A3002 RMK AO2 SLP157 TCU DSNT N & E 60026 T02560211 55006=
201406231952 METAR KATL 231952Z 21005KT 10SM FEW020 SCT110 BKN140 BKN200 26/21 A3001 RMK AO2 TSB24E45 SLP153 TS DSIPT CB DSNT SW-W & NW-N SHRA DSNT SW-W & NW-N T02610206=
201406231945 SPECI KATL 231945Z 22007KT 10SM FEW020 SCT110 BKN140 BKN200 27/21 A3000 RMK AO2 TSB24E45 TS DSIPT CB DSNT SW-W & NW-N SHRA DSNT SW-W & NW-N=
201406231924 SPECI KATL 231924Z 18009KT 10SM TS FEW020CB SCT030TCU BKN140 BKN200 26/21 A3001 RMK AO2 TSB24 OCNL LTGICCG E TS E MOV N SHRA E CB DSNT NW-N CB E MOV N TCU NE-E-SE=
201406231852 METAR KATL 231852Z 23004KT 10SM FEW020 SCT080 BKN140 BKN200 26/22 A3003 RMK AO2 RAE18 SLP158 CB DSNT SE-S-SW-W-NW SHRA DSNT SE-S-SW-W-NW P0026 T02560217=
201406231835 SPECI KATL 231835Z 20005KT 10SM FEW025TCU SCT040 BKN110 BKN200 26/23 A3003 RMK AO2 RAE18 CB DSNT SE-S-SW-W-NW TCU E SHRA DSNT SE-S-SW-W-NW P0026=
201406231802 SPECI KATL 231802Z 00000KT 9SM R09R/3500VP6000FT -RA FEW025CB BKN080 BKN100 BKN200 26/18 A3003 RMK AO2 VIS LWR S-SW SHRA CB S-SW MOV STNRY P0018=
201406231752 METAR KATL 231752Z 19007KT 9SM -RA FEW030CB BKN040TCU BKN080 BKN200 26/19 A3004 RMK AO2 TSE52RAB45 SLP162 TS DSIPT SHRA VC SW-W CB SW-W MOV STNRY CB DSNT N TCU OHD-E-SE-S-SW P0000 60000 T02610194 10306 20233 55002=
201406231736 SPECI KATL 231736Z 24008KT 10SM TS BKN040CB BKN065 BKN250 26/21 A3004 RMK AO2 FRQ LTGICCG SW TS VC SW MOV STNRY SHRA VC S-SW-W CB S-SW-W MOV STNRY=
201406231722 SPECI KATL 231722Z VRB05KT 10SM TS BKN040CB BKN050 BKN250 25/19 A3004 RMK AO2 FRQ LTGICCG S-SW-W TS VC S-SW-W MOV STNRY SHRA VC S-SW-W CB S-SW-W MOV STNRY=
201406231704 SPECI KATL 231704Z VRB04KT 10SM TS SCT040CB BKN050 BKN250 29/19 A3004 RMK AO2 FRQ LTGICCG SW-W TS VC SW-W MOV STNRY SHRA SW-W CB DSNT N & S=
201406231652 METAR KATL 231652Z 09008KT 10SM TS FEW035CB SCT040 SCT250 30/20 A3003 RMK AO2 TSB47 SLP158 OCNL LTGICCG W TS W MOV NW SHRA W CB DSNT N & S T03000200=
201406231648 SPECI KATL 231648Z 06010KT 10SM TS FEW035CB SCT040TCU SCT250 31/20 A3004 RMK AO2 TSB47 OCNL LTGICCG W TS W MOV NW SHRA W TCU S-SW=
201406231552 METAR KATL 231552Z 00000KT 10SM SCT027 SCT250 29/21 A3005 RMK AO2 SLP163 T02890206=
201406231452 METAR KATL 231452Z VRB04KT 10SM FEW024 SCT065 SCT250 28/22 A3004 RMK AO2 SLP160 ACC DSNT S-SW-W T02780217 51013=
201406231352 METAR KATL 231352Z 00000KT 10SM BKN065 BKN250 27/21 A3003 RMK AO2 SLP158 CB DSNT SW ACC OHD-N-NE-E-SE T02670211=
201406231252 METAR KATL 231252Z 02006KT 10SM FEW080 SCT250 25/21 A3001 RMK AO2 SLP152 ACC DSNT SW T02500206 $=
201406231152 METAR KATL 231152Z 33007KT 10SM FEW095 SCT200 SCT250 23/21 A3000 RMK AO2 SLP147 CB DSNT SW T02330206 10244 20222 53016=
201406231052 METAR KATL 231052Z COR 32006KT 10SM FEW015 SCT090 SCT200 BKN250 23/21 A2998 RMK AO2 SLP141 T02280206=
201406230952 METAR KATL 230952Z 32003KT 10SM FEW200 SCT250 23/21 A2996 RMK AO2 SLP135 T02280206=
201406230852 METAR KATL 230852Z 30003KT 10SM FEW200 BKN250 22/21 A2995 RMK AO2 SLP130 T02220206 53007=
201406230752 METAR KATL 230752Z 30007KT 10SM SCT200 SCT250 23/21 A2994 RMK AO2 SLP127 T02280211=
201406230652 METAR KATL 230652Z 29004KT 10SM FEW130 BKN200 BKN250 24/21 A2993 RMK AO2 SLP124 T02390211=
201406230552 METAR KATL 230552Z 00000KT 10SM FEW130 SCT200 BKN250 24/21 A2993 RMK AO2 SLP123 T02390211 10289 20239 58004=
201406230452 METAR KATL 230452Z 31006KT 10SM FEW130 BKN200 BKN250 25/21 A2993 RMK AO2 SLP124 T02500211 403170206=
201406230352 METAR KATL 230352Z 00000KT 10SM BKN200 BKN250 26/21 A2995 RMK AO2 SLP130 T02560206=
201406230252 METAR KATL 230252Z 28005KT 10SM BKN200 BKN250 26/21 A2994 RMK AO2 SLP128 T02560206 53014=
201406230152 METAR KATL 230152Z 31006KT 10SM FEW075 BKN200 BKN250 27/20 A2993 RMK AO2 SLP122 T02720200=
201406230052 METAR KATL 230052Z 29004KT 10SM FEW045 SCT070 BKN200 BKN250 27/19 A2991 RMK AO2 SLP119 CB DSNT NE TCU DSNT NW T02720194=
201406222352 METAR KATL 222352Z 28007KT 10SM FEW050 BKN200 BKN250 29/20 A2990 RMK AO2 SLP114 CB DSNT NW TCU DSNT NE & E T02890200 10317 20289 53004=
201406222252 METAR KATL 222252Z 28006KT 10SM FEW050TCU BKN200 BKN250 31/18 A2988 RMK AO2 SLP108 CB DSNT SE & W-NW TCU NE & DSNT SW T03060183=
201406222152 METAR KATL 222152Z 01008KT 10SM FEW050 BKN200 BKN250 31/18 A2987 RMK AO2 SLP104 CB DSNT SE T03110178=
201406222052 METAR KATL 222052Z 32009KT 10SM FEW045TCU BKN200 31/19 A2989 RMK AO2 SLP109 TCU SE T03110194 56018=
201406221952 METAR KATL 221952Z 32005KT 10SM SCT045 BKN250 31/21 A2989 RMK AO2 SLP110 T03110206=
201406221852 METAR KATL 221852Z 28006KT 10SM FEW038 BKN250 31/21 A2992 RMK AO2 SLP119 T03110206=
201406221752 METAR KATL 221752Z 34009KT 10SM FEW036 BKN250 30/20 A2994 RMK AO2 SLP128 T03000200 10306 20222 58014=
201406221652 METAR KATL 221652Z 31007KT 270V350 10SM FEW032 BKN250 30/22 A2997 RMK AO2 SLP136 T03000217=
201406221552 METAR KATL 221552Z 34007KT 10SM FEW030 BKN200 28/21 A2998 RMK AO2 SLP142 T02830211=
201406221452 METAR KATL 221452Z 33007KT 10SM FEW120 BKN250 27/21 A2998 RMK AO2 SLP143 T02720211 50009=
201406221352 METAR KATL 221352Z 31004KT 10SM FEW120 SCT250 25/20 A2999 RMK AO2 SLP145 T02500200=
201406221252 METAR KATL 221252Z 33008KT 10SM BKN130 BKN200 BKN250 23/19 A2997 RMK AO2 SLP141 T02330194=
201406221152 METAR KATL 221152Z 32009KT 10SM FEW012 SCT200 BKN250 22/19 A2996 RMK AO2 SLP135 70033 T02220189 10222 20206 53017=
201406221052 METAR KATL 221052Z 27006KT 10SM FEW130 SCT200 BKN250 21/18 A2994 RMK AO2 SLP129 T02060183=
201406220952 METAR KATL 220952Z 29005KT 10SM FEW130 SCT200 SCT250 21/18 A2992 RMK AO2 SLP122 T02060183=
201406220852 METAR KATL 220852Z 25003KT 10SM SCT130 BKN200 BKN250 21/18 A2991 RMK AO2 SLP119 T02060183 55007=
201406220752 METAR KATL 220752Z 31006KT 10SM SCT150 BKN200 BKN250 22/19 A2989 RMK AO2 SLP115 T02170189=
201406220652 METAR KATL 220652Z 31007KT 10SM FEW110 SCT150 BKN250 22/19 A2991 RMK AO2 SLP119 T02170189=
201406220552 METAR KATL 220552Z 31008KT 10SM FEW060 SCT110 BKN200 BKN250 22/20 A2993 RMK AO2 SLP124 T02220200 10239 20222 58006=
201406220452 METAR KATL 220452Z 31010KT 10SM BKN140 BKN200 BKN250 22/21 A2994 RMK AO2 SLP129 T02220211 403110211=
201406220352 METAR KATL 220352Z 30005KT 10SM BKN140 BKN200 BKN250 23/21 A2995 RMK AO2 SLP130 T02280211=
201406220252 METAR KATL 220252Z 31005KT 10SM SCT140 BKN200 BKN250 23/21 A2995 RMK AO2 SLP130 T02280211 51007=
201406220152 METAR KATL 220152Z 32007KT 10SM FEW140 BKN200 BKN250 23/21 A2994 RMK AO2 SLP130 T02330211=
201406220052 METAR KATL 220052Z 32005KT 10SM FEW075 SCT130 BKN200 BKN250 23/21 A2994 RMK AO2 SLP128 CB DSNT NW T02330206=
201406212352 METAR KATL 212352Z 32004KT 10SM FEW070 SCT110 BKN200 BKN250 24/21 A2993 RMK AO2 SLP125 CB DSNT W & NW TCU DSNT NW ACC DSNT N & NW 60033 T02390206 10300 20211 56015=
201406212252 METAR KATL 212252Z 32009KT 10SM FEW065 SCT120 BKN200 BKN250 23/21 A2994 RMK AO2 SLP129 CB DSNT S & NW T02330211=
201406212152 METAR KATL 212152Z 00000KT 10SM FEW070 SCT110 BKN200 BKN250 23/21 A2993 RMK AO2 TSE10RAE39 SLP125 TS MOVD SE CB DSNT NE & S & NW P0001 T02330211=
201406212112 SPECI KATL 212112Z 23003KT 10SM -RA FEW075 SCT120 BKN200 BKN250 22/20 A2996 RMK AO2 TSE10 TS MOVD SE OCNL LTGICCA DSNT E-S CB DSNT NE-SE-S CB AND NW ACC NW P0001=
201406212052 METAR KATL 212052Z 26003KT 9SM -TSRA FEW044CB SCT070 BKN120 BKN200 22/20 A2997 RMK AO2 TSE10B33 SLP142 OCNL LTGICCA OHD-SE-SW TS OHD-SE-SW MOV SE CB DSNT N-NE AND NW P0002 60032 T02220200 50002=
201406212034 SPECI KATL 212034Z 25005KT 10SM -TSRA FEW042CB SCT065 BKN110 BKN200 22/19 A2998 RMK AO2 TSE10B33 OCNL LTGICCA OHD-SE-SW TS OHD-SE-SW MOV SE CB DSNT NW-NE P0001=
201406212011 SPECI KATL 212011Z 28006KT 8SM -RA FEW042 BKN110 BKN250 22/19 A2998 RMK AO2 TSE10 TS MOV SE CB DSNT SW P0001=
201406211952 METAR KATL 211952Z 31010KT 5SM -TSRA BR SCT028CB BKN050 OVC080 22/19 A2999 RMK AO2 PK WND 32042/1914 TSB15 SLP149 OCNL LTGCG OHD-SW CB OHD-SW MOV SE VSBY LWR W-N TCU DSNT N P0030 T02170194=
201406211949 SPECI KATL 211949Z 31010KT 5SM -TSRA BR SCT028CB BKN050 OVC080 22/19 A3000 RMK AO2 PK WND 32042/1914 TSB15 OCNL LTGCG OHD-SW CB OHD-SW MOV SE VSBY LWR W-N P0030=
201406211919 SPECI KATL 211919Z 31026G42KT 2 1/2SM +TSRA BR SCT030CB BKN100 BKN250 22/20 A2999 RMK AO2 PK WND 32042/1914 TSB15 OCNL LTGCG W-NW CB W-NW MOV SE VSBY LWR W P0007=
201406211916 SPECI KATL 211916Z 32032G42KT 4SM +TSRA SCT030CB BKN100 BKN250 23/20 A2998 RMK AO2 PK WND 32042/1914 TSB15 OCNL LTGCG W-NW CB W-NW MOV SE VSBY LWR W P0005=
201406211852 METAR KATL 211852Z 30016G22KT 10SM -RA FEW030CB BKN100 BKN250 27/19 A2997 RMK AO2 RAB03E15B52 SLP138 CB W-NW MOV SE VSBY LWR NW P0000 T02720194=
201406211752 METAR KATL 211752Z 23009KT 10SM BKN040CB BKN065 BKN250 27/20 A2997 RMK AO2 RAB00E11 SLP138 CB S MOV SE P0000 60000 T02720200 10311 20239 58017=
201406211652 METAR KATL 211652Z VRB05KT 10SM BKN036TCU BKN050 BKN250 31/22 A2999 RMK AO2 SLP145 TCU ALQDS T03110217=
201406211552 METAR KATL 211552Z 32009KT 10SM SCT034 30/22 A3001 RMK AO2 SLP151 T03000217=
201406211452 METAR KATL 211452Z 32009G15KT 10SM SCT028 SCT250 29/22 A3002 RMK AO2 SLP154 T02940217 50003=
201406211352 METAR KATL 211352Z 30007KT 10SM FEW080 28/22 A3003 RMK AO2 SLP158 T02780222=
201406211252 METAR KATL 211252Z 31006KT 10SM FEW250 26/21 A3002 RMK AO2 SLP156 T02610206=
201406211152 METAR KATL 211152Z 31005KT 10SM FEW250 24/20 A3001 RMK AO2 SLP152 T02390200 10244 20228 53014=
201406211052 METAR KATL 211052Z 31006KT 10SM FEW250 23/20 A2999 RMK AO2 SLP144 T02280200=
201406210952 METAR KATL 210952Z 31006KT 10SM FEW250 23/21 A2997 RMK AO2 SLP138 T02280206=
201406210852 METAR KATL 210852Z 31008KT 10SM FEW250 23/21 A2997 RMK AO2 SLP137 T02330206 56010=
201406210752 METAR KATL 210752Z 29005KT 10SM CLR 23/21 A2997 RMK AO2 SLP137 T02330211=
201406210652 METAR KATL 210652Z 30006KT 10SM FEW250 24/22 A2998 RMK AO2 SLP140 T02390217=
201406210552 METAR KATL 210552Z 31008KT 10SM FEW250 24/22 A3000 RMK AO2 SLP148 T02440217 10289 20244 58007=
201406210452 METAR KATL 210452Z 29008KT 10SM FEW250 25/22 A3001 RMK AO2 SLP151 T02500217 403330222=
201406210352 METAR KATL 210352Z 30006KT 10SM FEW200 SCT250 25/21 A3002 RMK AO2 SLP153 T02500211=
201406210252 METAR KATL 210252Z 00000KT 10SM FEW200 SCT250 26/21 A3002 RMK AO2 SLP155 T02560206 50006=
201406210152 METAR KATL 210152Z 26004KT 10SM FEW200 BKN250 27/20 A3003 RMK AO2 SLP157 T02670200=
201406210052 METAR KATL 210052Z 29008KT 10SM FEW150 SCT200 BKN250 28/19 A3003 RMK AO2 SLP157 T02780194=
201406202352 METAR KATL 202352Z 28008KT 10SM FEW120 SCT200 BKN250 29/19 A3001 RMK AO2 SLP150 T02890189 10333 20289 56008=
201406202252 METAR KATL 202252Z 26008KT 10SM FEW150 SCT200 BKN250 31/19 A3001 RMK AO2 SLP152 T03110194=
201406202152 METAR KATL 202152Z 34008KT 300V360 10SM FEW040TCU SCT080 BKN200 BKN250 31/21 A3001 RMK AO2 SLP152 CB DSNT SE-S TCU S T03110206=
201406202052 METAR KATL 202052Z 34013KT 10SM BKN050CB BKN075 BKN250 32/21 A3003 RMK AO2 SLP157 CB NE-SE MOV S T03220206 56014=
201406202052 SPECI KATL 202052Z 34013KT 10SM BKN050CB BKN075 BKN250 32/21 A3003 RMK AO2 SLP157 CB NE-SE MOV S T03220206 56014=
201406201952 METAR KATL 201952Z COR 34009KT 10SM SCT050TCU SCT250 32/19 A3003 RMK AO2 SLP157 TCU ALQDS CB DSNT NE & SW-W T03220194=
201406201852 METAR KATL 201852Z VRB03KT 10SM SCT045TCU SCT250 32/20 A3005 RMK AO2 SLP165 TCU ALQDS CB DSNT NW T03220200=
201406201752 METAR KATL 201752Z 31008KT 10SM BKN045TCU BKN075 32/20 A3007 RMK AO2 SLP171 TCU ALQDS T03170200 10322 20239 58011=
201406201652 METAR KATL 201652Z 32007KT 10SM BKN040TCU 31/20 A3009 RMK AO2 SLP177 TCU ALQDS T03110200=
201406201552 METAR KATL 201552Z 34010KT 10SM FEW035 SCT250 31/21 A3010 RMK AO2 SLP181 T03060211=
201406201452 METAR KATL 201452Z 32009G14KT 10SM FEW250 29/21 A3010 RMK AO2 SLP182 T02940211 50002=
201406201352 METAR KATL 201352Z 31008KT 10SM SCT250 28/21 A3011 RMK AO2 SLP184 T02830211=
201406201252 METAR KATL 201252Z 32006KT 10SM FEW200 SCT250 26/21 A3011 RMK AO2 SLP184 T02560206=
201406201152 METAR KATL 201152Z 31007KT 10SM FEW200 SCT250 24/21 A3010 RMK AO2 SLP181 T02390211 10256 20222 53014=
201406201052 METAR KATL 201052Z 29004KT 10SM FEW200 SCT250 22/21 A3009 RMK AO2 SLP177 T02220206=
201406200952 METAR KATL 200952Z 00000KT 10SM FEW250 23/19 A3006 RMK AO2 SLP170 T02280194=
201406200852 METAR KATL 200852Z 30004KT 10SM FEW250 23/20 A3005 RMK AO2 SLP165 T02330200 56012=
201406200752 METAR KATL 200752Z 29003KT 10SM FEW250 24/20 A3006 RMK AO2 SLP166 T02440200=
201406200652 METAR KATL 200652Z 32003KT 10SM FEW050 SCT250 25/20 A3007 RMK AO2 SLP171 T02500200=
201406200552 METAR KATL 200552Z 00000KT 10SM FEW250 26/18 A3009 RMK AO2 SLP177 T02560183 10306 20250 58008=
201406200452 METAR KATL 200452Z 00000KT 10SM FEW200 SCT250 27/18 A3011 RMK AO2 SLP182 T02720178 403390228=
201406200352 METAR KATL 200352Z 04005KT 10SM FEW200 BKN250 27/18 A3011 RMK AO2 SLP185 T02720183=
201406200252 METAR KATL 200252Z 10006KT 10SM FEW200 BKN250 27/19 A3012 RMK AO2 SLP186 T02720189 51014=
201406200152 METAR KATL 200152Z 03009KT 10SM SCT200 BKN250 29/20 A3010 RMK AO2 SLP181 T02940200=
201406200052 SPECI KATL 200052Z 33008KT 10SM FEW055 SCT200 BKN250 29/19 A3009 RMK AO2 SLP177 FRQ LTGICCG DSNT E-SE T02940189=
201406200052 METAR KATL 200052Z 33008KT 10SM FEW055 SCT200 BKN250 29/19 A3009 RMK AO2 SLP177 FRQ LTGICCG DSNT E-SE T02940189=
201406192352 METAR KATL 192352Z 32007KT 10SM FEW060 SCT200 BKN250 31/18 A3007 RMK AO2 SLP171 CB DSNT E & SE & S T03060183 10339 20306 57004=
201406192252 METAR KATL 192252Z 32007KT 10SM FEW065 SCT200 BKN250 32/18 A3008 RMK AO2 SLP176 TCU DSNT NE & E-S T03170178=
201406192152 METAR KATL 192152Z 30006KT 10SM FEW065 SCT250 32/18 A3008 RMK AO2 SLP173 T03170178 $=
201406192052 METAR KATL 192052Z VRB06KT 10SM FEW065 SCT250 33/17 A3009 RMK AO2 SLP176 TCU DSNT E & S T03330167 56019=
201406191952 METAR KATL 191952Z COR 27005KT 10SM R09R/P6000FT FEW070 SCT250 34/16 A3010 RMK AO2 SLP182 TCU DSNT NE & SE T03390156=
201406191852 METAR KATL 191852Z 30005KT 10SM FEW060TCU SCT150 33/18 A3011 RMK AO2 SLP184 TCU N T03280183=
201406191752 METAR KATL 191752Z VRB03KT 10SM SCT055 32/19 A3014 RMK AO2 SLP194 MDT CU ALQDS T03220189 10328 20244 58011=
201406191652 METAR KATL 191652Z 30007KT 10SM SCT050TCU 32/19 A3017 RMK AO2 SLP203 TCU NE-E-SE-S-SW T03170194=
201406191552 METAR KATL 191552Z 00000KT 10SM FEW050TCU SCT250 31/19 A3018 RMK AO2 SLP208 TCU NE & SE & SW T03060194=
201406191452 METAR KATL 191452Z 00000KT 10SM FEW250 30/19 A3018 RMK AO2 SLP207 T03000189 50005=
201406191352 METAR KATL 191352Z 00000KT 10SM FEW250 28/19 A3018 RMK AO2 SLP210 T02830194=
201406191252 METAR KATL 191252Z 00000KT 10SM FEW250 26/19 A3018 RMK AO2 SLP207 T02560189=
201406191152 METAR KATL 191152Z 15003KT 10SM FEW180 SCT250 24/19 A3016 RMK AO2 SLP203 T02440189 10261 20228 53017=
201406191052 METAR KATL 191052Z 00000KT 10SM FEW250 23/19 A3014 RMK AO2 SLP195 T02280189=
201406190952 METAR KATL 190952Z 00000KT 10SM FEW200 24/18 A3013 RMK AO2 SLP190 T02390183 $=
201406190852 METAR KATL 190852Z 00000KT 10SM CLR 23/18 A3011 RMK AO2 SLP185 T02330183 56008 $=
201406190752 METAR KATL 190752Z 00000KT 10SM CLR 24/19 A3011 RMK AO2 SLP185 T02390189 $=
201406190652 METAR KATL 190652Z 00000KT 10SM FEW250 25/19 A3012 RMK AO2 SLP189 T02500189 $=
201406190552 METAR KATL 190552Z 14003KT 10SM FEW200 SCT250 26/19 A3014 RMK AO2 SLP193 T02610189 10306 20261 58003 $=
201406190452 METAR KATL 190452Z 05006KT 10SM FEW200 BKN250 27/19 A3015 RMK AO2 SLP197 T02720189 403330228=
201406190352 METAR KATL 190352Z 00000KT 10SM FEW200 BKN250 27/19 A3015 RMK AO2 SLP199 T02720194=
201406190252 METAR KATL 190252Z 00000KT 10SM FEW150 BKN250 27/19 A3015 RMK AO2 SLP196 T02720194 53010=
201406190152 METAR KATL 190152Z 34009KT 10SM FEW055 SCT150 BKN250 28/20 A3013 RMK AO2 SLP190 CB DSNT NW T02780200=
201406190052 METAR KATL 190052Z 05006KT 10SM FEW060 SCT080 BKN200 BKN250 29/19 A3012 RMK AO2 SLP187 CB DSNT W-NW T02940194=
201406182352 METAR KATL 182352Z 05004KT 10SM FEW065TCU SCT090 BKN200 OVC250 30/19 A3012 RMK AO2 RAB28E43 SLP187 TCU SW-NW P0000 60000 T03000194 10333 20289 53001=
201406182252 METAR KATL 182252Z 00000KT 10SM SCT065TCU SCT090 BKN200 BKN250 31/18 A3010 RMK AO2 SLP181 TCU N-OHD-SW T03110178=
201406182152 METAR KATL 182152Z 19003KT 10SM FEW065TCU SCT090 BKN200 BKN250 32/17 A3010 RMK AO2 SLP180 TCU OHD-N T03170167=
201406182052 METAR KATL 182052Z 28003KT 10SM FEW065TCU SCT200 BKN250 33/18 A3011 RMK AO2 SLP185 CB DSNT N TCU N T03330178 56013=
201406181952 METAR KATL 181952Z 26007KT 240V300 10SM SCT065 SCT200 BKN250 32/17 A3012 RMK AO2 SLP189 CB DSNT N TCU DSNT S & NW T03170172=
201406181852 METAR KATL 181852Z 28004KT 10SM FEW060 BKN200 BKN250 32/18 A3013 RMK AO2 SLP191 TCU DSNT NW-N T03220178=
201406181752 METAR KATL 181752Z 23006KT 10SM SCT055TCU SCT200 32/18 A3015 RMK AO2 SLP198 CB DSNT NW TCU NE-E & SW T03170183 10322 20239 58009=
201406181652 METAR KATL 181652Z VRB03KT 10SM SCT045TCU SCT200 31/21 A3017 RMK AO2 SLP205 CB DSNT NW TCU NE-E-SE T03110206=
201406181552 METAR KATL 181552Z 26004KT 10SM FEW038 30/20 A3018 RMK AO2 SLP210 T03000200=
201406181452 METAR KATL 181452Z 22005KT 10SM CLR 28/21 A3018 RMK AO2 SLP208 T02830206 51008=
201406181352 METAR KATL 181352Z 21003KT 10SM CLR 27/21 A3018 RMK AO2 SLP209 T02720206=
201406181252 METAR KATL 181252Z 20003KT 10SM CLR 26/20 A3017 RMK AO2 SLP206 T02560200=
201406181152 METAR KATL 181152Z 14003KT 10SM CLR 24/19 A3016 RMK AO2 SLP201 70003 T02390189 10244 20228 53010=
201406181052 METAR KATL 181052Z 00000KT 9SM CLR 23/19 A3014 RMK AO2 SLP195 T02330194=
201406180952 METAR KATL 180952Z 00000KT 10SM CLR 23/19 A3013 RMK AO2 SLP192 T02330194=
201406180852 METAR KATL 180852Z 00000KT 10SM CLR 24/19 A3013 RMK AO2 SLP191 T02390194 56009=
201406180752 METAR KATL 180752Z 20003KT 10SM CLR 24/19 A3013 RMK AO2 SLP192 T02390194=
201406180652 METAR KATL 180652Z 19004KT 10SM CLR 24/20 A3013 RMK AO2 SLP192 T02390200=
201406180552 METAR KATL 180552Z 19004KT 10SM FEW250 24/21 A3015 RMK AO2 SLP200 T02390206 10300 20239 58004=
201406180452 METAR KATL 180452Z 00000KT 10SM FEW250 26/21 A3017 RMK AO2 SLP204 T02560211 403280222=
201406180352 METAR KATL 180352Z 00000KT 10SM FEW250 26/21 A3017 RMK AO2 SLP205 T02610211=
201406180252 METAR KATL 180252Z 00000KT 10SM FEW250 27/21 A3017 RMK AO2 SLP204 T02670211 53016=
201406180152 METAR KATL 180152Z 00000KT 10SM FEW070 SCT250 27/21 A3015 RMK AO2 SLP199 T02670211=
201406180052 METAR KATL 180052Z 18006KT 10SM FEW070 SCT250 28/20 A3013 RMK AO2 SLP191 T02780200=
201406172352 METAR KATL 172352Z 13005KT 10SM FEW070 SCT200 30/21 A3012 RMK AO2 SLP189 CB DSNT SW 60003 T03000206 10328 20272 55005=
201406172252 METAR KATL 172252Z 11005KT 10SM FEW030TCU SCT070 BKN200 BKN250 30/19 A3011 RMK AO2 SLP187 CB DSNT SW TCU S-SW T03000194=
201406172152 METAR KATL 172152Z 09007KT 9SM FEW030 SCT200 BKN250 31/21 A3012 RMK AO2 TSE11RAE22 SLP188 TCU DSNT SW P0001 T03060211=
201406172111 SPECI KATL 172111Z 08009KT 8SM -RA FEW030TCU SCT070 BKN200 BKN250 28/21 A3012 RMK AO2 TSE11 TS DSIPTD CB DSNT NE TCU VC SW & DSNT NW P0001=
201406172058 SPECI KATL 172058Z 07005KT 8SM -TSRA FEW030CB SCT050 BKN070 BKN200 28/21 A3013 RMK AO2 OCNL LTGICCG SE TS VC SE MOV E SHRA VC SE P0001=
201406172052 METAR KATL 172052Z 04012G24KT 8SM -TSRA BKN040CB BKN070 BKN085 BKN200 27/20 A3013 RMK AO2 TSE14B35RAB33 SLP194 VIS LWR NE-SE SHRA OCNL LTGICCG OHD-NE-SE TS OHD-NE-SE MOV NE P0002 60002 T02720200 56019=
201406172043 SPECI KATL 172043Z 04015G21KT 1SM R09R/P6000FT +TSRA BKN040CB BKN075 OVC100 29/21 A3014 RMK AO2 TWR VIS 1 1/2 TSE14B35RAB33 VIS 1/2 E-SE SHRA FRQ LTGICCG OHD-E-SE-S TS OHD-E-SE-S MOV NE P0001=
201406172042 SPECI KATL 172042Z 05012KT 1 1/2SM +TSRA BKN040CB BKN100 BKN200 29/21 A3014 RMK AO2 SFC VIS 3 TSE14B35RAB33 VIS 1/2 E-SE SHRA FRQ LTGICCG OHD-E-SE-S TS OHD-E-SE-S MOV NE P0001=
201406172041 SPECI KATL 172041Z 05011KT 4SM +TSRA BKN040CB BKN100 BKN200 29/21 A3014 RMK AO2 TSE14B35RAB33 VIS 1/2 E-SE SHRA FRQ LTGICCG OHD-E-SE-S TS OHD-E-SE-S MOV NE P0001=
201406172040 SPECI KATL 172040Z 04011KT 4SM +TSRA BKN050CB BKN100 BKN200 29/21 A3014 RMK AO2 TSE14B35RAB33 VIS 1/2 E-SE SHRA FRQ LTGICCG OHD-E-SE-S TS OHD-E-SE-S MOV NE P0001=
201406172035 SPECI KATL 172035Z 05012G17KT 9SM -TSRA BKN050CB BKN100 BKN200 30/20 A3014 RMK AO2 TSE14B35RAB33 FRQ LTGICCG OHD TS OHD MOV S P0000=
201406172015 SPECI KATL 172015Z 23003KT 10SM FEW050CB BKN060TCU BKN200 31/19 A3014 RMK AO2 TSE14 TS DSIPT CB N & E MOV S TCU OHD-SW-NW SHRA VC N & E=
201406172004 SPECI KATL 172004Z 22004KT 10SM TS BKN055CB BKN070 BKN200 32/19 A3014 RMK AO2 OCNL LTGICCG N-NE-E TS VC N-NE-E SHRA VC N-NE-E=
201406171952 METAR KATL 171952Z 28005KT 10SM TS FEW050CB SCT060TCU BKN070 BKN200 32/19 A3014 RMK AO2 TSB48 SLP194 OCNL LTGICCG NE TS VC NE MOV S SHRA VC N-NE-E CB N-NE-E MOV S TCU SW & NW T03170189=
201406171852 METAR KATL 171852Z VRB04KT 10SM FEW050CB SCT060TCU SCT200 32/18 A3017 RMK AO2 SLP203 CB SE MOV S CB DSNT NE TCU NE & SW SHRA VC SE SHRA DSNT NE T03170183=
201406171752 METAR KATL 171752Z 05005KT 10SM BKN050TCU BKN100 BKN200 30/19 A3019 RMK AO2 TSB09E26 SLP212 TCU ALQDS T03000189 10311 20239 58009=
201406171727 SPECI KATL 171727Z 00000KT 10SM FEW040 BKN050TCU BKN200 29/19 A3020 RMK AO2 TSB09E26 TS DSIPT TCU OHD & ALQDS SHRA VC NE & SE=
201406171710 SPECI KATL 171710Z 00000KT 10SM TS FEW040CB BKN045TCU BKN200 30/18 A3020 RMK AO2 TSB09 OCNL LTGICCG NE TS VC NE MOV S TCU ALQDS SHRA VC NE=
201406171652 METAR KATL 171652Z 00000KT 10SM FEW040CB BKN045TCU BKN200 30/19 A3020 RMK AO2 SLP216 CB NE MOV E TCU OHD & ALQDS SHRA NE T03000189=
201406171552 METAR KATL 171552Z 00000KT 10SM FEW045TCU 31/20 A3022 RMK AO2 SLP221 TCU N-NE T03060200=
201406171452 METAR KATL 171452Z 00000KT 9SM FEW035 29/21 A3022 RMK AO2 SLP222 T02940211 51008=
201406171352 METAR KATL 171352Z VRB03KT 8SM CLR 27/21 A3022 RMK AO2 SLP222 T02670211=
201406171252 METAR KATL 171252Z 00000KT 7SM CLR 25/21 A3022 RMK AO2 SLP222 T02500206=
201406171152 METAR KATL 171152Z 00000KT 8SM CLR 24/21 A3019 RMK AO2 SLP214 T02390211 10256 20222 53017=
201406171052 METAR KATL 171052Z 15003KT 8SM CLR 23/21 A3018 RMK AO2 SLP209 T02280206=
201406170952 METAR KATL 170952Z 18003KT 10SM CLR 23/20 A3016 RMK AO2 SLP201 T02280200=
201406170852 METAR KATL 170852Z 15004KT 10SM CLR 23/20 A3014 RMK AO2 SLP196 T02330200 55006=
201406170752 METAR KATL 170752Z 00000KT 10SM CLR 24/20 A3014 RMK AO2 SLP195 T02390200=
201406170652 METAR KATL 170652Z 10003KT 9SM CLR 24/20 A3015 RMK AO2 SLP200 T02390200=
201406170552 METAR KATL 170552Z 10003KT 10SM CLR 26/19 A3016 RMK AO2 SLP202 T02610194 10300 20256 56004=
201406170452 METAR KATL 170452Z 00000KT 10SM CLR 26/19 A3016 RMK AO2 SLP202 T02610194 403220217=
201406170352 METAR KATL 170352Z 16003KT 10SM FEW200 27/20 A3017 RMK AO2 SLP203 T02670200=
201406170252 METAR KATL 170252Z 00000KT 10SM FEW060 SCT080 BKN200 28/19 A3017 RMK AO2 SLP206 SHRA E-SE T02780189 51015=
201406170152 METAR KATL 170152Z 00000KT 10SM SCT060 BKN080 28/19 A3017 RMK AO2 SLP203 T02830189=
201406170052 METAR KATL 170052Z 30004KT 10SM FEW060 29/18 A3014 RMK AO2 SLP195 CB DSNT NE T02940178=
201406162352 METAR KATL 162352Z 30007KT 10SM FEW055 30/18 A3013 RMK AO2 SLP191 T03000178 10322 20300 55005=
201406162252 METAR KATL 162252Z 28006KT 10SM FEW055 31/18 A3012 RMK AO2 SLP188 T03060183=
201406162152 METAR KATL 162152Z 28006KT 10SM FEW060 32/18 A3012 RMK AO2 SLP190 T03170178=
201406162052 METAR KATL 162052Z 26006KT 10SM FEW060 SCT200 32/18 A3014 RMK AO2 SLP196 CB DSNT E T03170178 58017=
201406161952 METAR KATL 161952Z 28005KT 10SM FEW055TCU 32/18 A3016 RMK AO2 SLP202 TCU E T03170178=
201406161852 METAR KATL 161852Z VRB05KT 10SM SCT055TCU 31/17 A3018 RMK AO2 SLP208 TCU N-NE-E T03060172=
201406161752 METAR KATL 161752Z 32005KT 10SM SCT050 31/19 A3019 RMK AO2 SLP213 T03060194 10311 20244 58006=
201406161652 METAR KATL 161652Z 29005KT 10SM SCT040 30/19 A3021 RMK AO2 SLP219 T03000194=
201406161552 METAR KATL 161552Z 33007KT 10SM FEW035 SCT140 29/20 A3022 RMK AO2 SLP221 T02890200=
201406161452 METAR KATL 161452Z 30007KT 10SM FEW030 SCT140 27/21 A3021 RMK AO2 SLP220 T02720206 50005=
201406161352 METAR KATL 161352Z 30008KT 10SM SCT150 27/20 A3022 RMK AO2 SLP225 T02670200=
201406161252 METAR KATL 161252Z 31007KT 9SM FEW095 SCT140 25/20 A3022 RMK AO2 SLP225 T02500200=
201406161152 METAR KATL 161152Z 28004KT 9SM FEW095 SCT140 SCT200 24/21 A3020 RMK AO2 SLP217 70093 T02440206 10244 20217 51013=
201406161052 METAR KATL 161052Z 00000KT 9SM FEW140 22/21 A3019 RMK AO2 SLP213 T02170206=
201406160952 METAR KATL 160952Z 36003KT 10SM FEW140 22/21 A3017 RMK AO2 SLP207 T02220206=
201406160852 METAR KATL 160852Z 00000KT 10SM BKN120 22/21 A3016 RMK AO2 SLP201 T02170206 53005=
201406160752 METAR KATL 160752Z 00000KT 10SM BKN140 BKN200 22/21 A3015 RMK AO2 SLP198 T02220206=
201406160652 METAR KATL 160652Z 29004KT 10SM BKN130 BKN200 23/21 A3015 RMK AO2 SLP200 T02280206=
201406160552 METAR KATL 160552Z 16003KT 10SM SCT140 BKN200 BKN250 23/21 A3014 RMK AO2 SLP196 60002 T02330211 10261 20228 50000=
201406160452 METAR KATL 160452Z 00000KT 10SM BKN140 BKN200 BKN250 24/21 A3015 RMK AO2 SLP200 T02390211 403170211=
201406160352 METAR KATL 160352Z 00000KT 10SM FEW075 BKN120 OVC200 24/22 A3015 RMK AO2 SLP197 T02390217=
201406160252 METAR KATL 160252Z 00000KT 10SM SCT080 BKN110 OVC200 24/22 A3014 RMK AO2 SLP196 60002 T02440217 53014=
201406160152 METAR KATL 160152Z 22003KT 10SM FEW046TCU BKN085 BKN200 BKN250 23/21 A3012 RMK AO2 SLP189 TCU E T02330206=
201406160052 METAR KATL 160052Z 00000KT 10SM FEW012 SCT050TCU BKN100 BKN250 24/21 A3011 RMK AO2 TSE08RAE25 SLP185 TS MOVD NW CB DSNT N AND SE-SW-NW TCU SE-S AND DSNT NE-E AND W P0002 T02390211=
201406160010 SPECI KATL 160010Z 26005KT 10SM -RA SCT044TCU BKN095 BKN200 BKN250 23/21 A3010 RMK AO2 TSE08 TS MOVD NW OCNL LTGICCA DSNT SW AND NW CB DSNT ALQDS TCU NW-NE AND SE P0002=
201406152352 METAR KATL 152352Z 27005KT 7SM -TSRA SCT042CB SCT050TCU BKN100 BKN200 23/21 A3010 RMK AO2 SLP183 OCNL LTGICCG SW-NW TS VC SW-NW MOV NW CB DSNT ALQDS TCU N-NE AND SE P0066 60091 T02330211 10317 20228 50005=
201406152324 SPECI KATL 152324Z 27011KT 6SM -TSRA FEW018 BKN048CB BKN095 OVC200 23/19 A3009 RMK AO2 OCNL LTGICCG SW-NW TS SW-NW MOV NW CB DSNT ALQDS P0066=
201406152252 METAR KATL 152252Z 06011KT 3SM R09R/3500VP6000FT +TSRA BKN050CB BKN100 BKN200 25/21 A3010 RMK AO2 TSB50RAB32 SLP184 VIS SW-W 3/4 OCNL LTGICCG OHD-SE-SW TS OHD-SE-SW MOV NW CB DSNT ALQDS P0025 T02500206=
201406152238 SPECI KATL 152238Z 09008KT 8SM -RA BKN050CB BKN100 BKN200 29/19 A3009 RMK AO2 RAB32 CB OHD-SE-SW MOV NW CB DSNT ALQDS P0000=
201406152152 METAR KATL 152152Z 31004KT 10SM SCT050TCU BKN085 BKN250 32/19 A3008 RMK AO2 SLP176 TCU N-E-S AND DSNT NE-SE AND SW AND NW SHRA NE T03170194=
201406152052 METAR KATL 152052Z 23007KT 10SM SCT050TCU SCT080 BKN220 31/18 A3008 RMK AO2 SLP176 TCU E-S-SW AND W CB DSNT NE 60000 T03060183 56018=
201406151952 METAR KATL 151952Z VRB04KT 10SM SCT050TCU BKN080 BKN220 31/18 A3010 RMK AO2 SLP182 TCU VC ALQDS T03110178=
201406151852 METAR KATL 151852Z 23004KT 10SM SCT050TCU SCT090 BKN250 31/20 A3012 RMK AO2 RAB09E18 SLP188 TCU VC E-OHD AND NW CB DSNT N P0000 T03060200=
201406151752 METAR KATL 151752Z 00000KT 10SM FEW040TCU BKN055 BKN075 30/19 A3014 RMK AO2 SLP194 TCU VC SE-SW-W CB DSNT N T03000189 10300 20228 58005=
201406151652 METAR KATL 151652Z 00000KT 10SM BKN040TCU BKN070 BKN250 28/19 A3015 RMK AO2 SLP199 TCU OHD-SW-NW T02830189=
201406151552 METAR KATL 151552Z VRB04KT 10SM FEW039CB SCT048 SCT070 29/19 A3016 RMK AO2 SLP201 CB VC N MOV N T02890189=
201406151452 METAR KATL 151452Z 00000KT 10SM FEW035 SCT085 BKN250 28/19 A3015 RMK AO2 SLP200 T02830189 51019=
201406151352 METAR KATL 151352Z 00000KT 10SM BKN090 BKN200 27/19 A3015 RMK AO2 SLP198 ACC SW-W T02720194=
201406151252 METAR KATL 151252Z 00000KT 10SM BKN090 BKN200 26/19 A3013 RMK AO2 SLP190 T02560194=
201406151152 METAR KATL 151152Z 00000KT 10SM FEW090 SCT200 23/21 A3010 RMK AO2 SLP182 T02280206 10250 20211 53017=
201406151052 METAR KATL 151052Z 00000KT 9SM FEW050 SCT090 SCT200 22/20 A3008 RMK AO2 SLP175 T02170200=
201406150952 METAR KATL 150952Z 00000KT 10SM FEW090 22/20 A3006 RMK AO2 SLP168 T02220200=
201406150852 METAR KATL 150852Z 00000KT 10SM FEW090 23/19 A3005 RMK AO2 SLP163 T02280194 55003=
201406150752 METAR KATL 150752Z 00000KT 10SM FEW050 SCT090 23/19 A3004 RMK AO2 SLP160 T02280194=
201406150652 METAR KATL 150652Z 00000KT 10SM FEW050 SCT090 SCT200 SCT250 23/19 A3005 RMK AO2 SLP163 T02330194=
201406150552 METAR KATL 150552Z 00000KT 10SM FEW050 SCT200 SCT250 25/19 A3005 RMK AO2 SLP166 T02500189 10283 20244 50003=
201406150452 METAR KATL 150452Z 20003KT 10SM FEW050 SCT080 SCT200 BKN250 24/19 A3006 RMK AO2 SLP168 T02440189 403060183=
201406150352 METAR KATL 150352Z 00000KT 10SM FEW050 SCT140 BKN200 BKN250 26/19 A3005 RMK AO2 SLP165 T02610189=
201406150252 METAR KATL 150252Z 00000KT 10SM BKN055 BKN140 BKN200 BKN250 26/19 A3005 RMK AO2 SLP164 T02610189 51016=
201406150152 METAR KATL 150152Z 33003KT 10SM SCT050 BKN140 BKN200 BKN250 27/18 A3003 RMK AO2 SLP160 T02670183=
201406150052 METAR KATL 150052Z 27003KT 10SM FEW048 SCT200 BKN250 27/18 A3002 RMK AO2 SLP156 T02720178=
201406142352 METAR KATL 142352Z 26004KT 10SM FEW050 BKN200 BKN250 28/18 A3000 RMK AO2 SLP149 CB DSNT S T02830183 10306 20278 53000=
201406142252 METAR KATL 142252Z COR 32006KT 10SM FEW050 SCT200 BKN250 30/17 A2999 RMK AO2 SLP146 TCU DSNT E-SE T03000172=
201406142152 METAR KATL 142152Z 32008KT 10SM FEW050TCU SCT200 SCT250 30/18 A2999 RMK AO2 SLP147 CB DSNT N AND NE TCU E-S AND DSNT NE-SE-SW T03000178=
201406142052 METAR KATL 142052Z 36005KT 10SM FEW045TCU SCT080 SCT250 30/18 A3000 RMK AO2 SLP149 TCU E T03000178 56014=
201406141952 METAR KATL 141952Z 33006KT 10SM FEW045 SCT070 29/18 A3001 RMK AO2 SLP153 T02890178=
201406141852 METAR KATL 141852Z 00000KT 10SM SCT040 29/17 A3002 RMK AO2 SLP155 T02940167=
201406141752 METAR KATL 141752Z VRB04KT 10SM SCT038 28/17 A3004 RMK AO2 SLP164 T02830172 10283 20189 58000=
201406141652 METAR KATL 141652Z 27004KT 10SM FEW035 28/19 A3005 RMK AO2 SLP166 T02780189=
201406141552 METAR KATL 141552Z 32003KT 10SM FEW022 26/19 A3005 RMK AO2 SLP168 T02610189=
201406141452 METAR KATL 141452Z 00000KT 10SM FEW008 SCT018 25/19 A3004 RMK AO2 SLP165 T02500194 51009=
201406141352 METAR KATL 141352Z 31004KT 8SM FEW005 SCT015 22/19 A3004 RMK AO2 SLP164 VSBY LWR W-N FOG BANK T02170194=
201406141252 METAR KATL 141252Z 31003KT 7SM SCT002 20/19 A3002 RMK AO2 SLP158 T02000189=
201406141235 SPECI KATL 141235Z 30003KT 3SM BR SCT002 19/19 A3002 RMK AO2=
201406141204 SPECI KATL 141204Z 32003KT 2SM R09R/2400V5000FT BR BKN002 19/18 A3001 RMK AO2=
201406141152 METAR KATL 141152Z 31003KT 3/4SM R09R/2000V5000FT BR VV002 19/18 A3001 RMK AO2 SLP156 70005 T01890183 10200 20183 53015=
201406141144 SPECI KATL 141144Z 31003KT 3/4SM R09R/1800V3000FT BR VV002 19/18 A3001 RMK AO2=
201406141128 SPECI KATL 141128Z 33004KT 1/4SM R09R/1800V3000FT FG VV001 18/18 A3001 RMK AO2=
201406141104 SPECI KATL 141104Z 32004KT 1/8SM R09R/0800V1400FT FG VV001 18/18 A3000 RMK AO2=
201406141056 SPECI KATL 141056Z 31005KT 1/8SM R09R/1000V3500FT FG VV001 19/18 A3000 RMK AO2=
201406141052 METAR KATL 141052Z 30004KT 1/4SM R09R/1400VP6000FT FG BKN002 19/18 A2999 RMK AO2 SLP150 T01890183=
201406141046 SPECI KATL 141046Z 31006KT 3SM BR BKN002 19/18 A2999 RMK AO2 VIS S-W-N 1/2=
201406140952 METAR KATL 140952Z 00000KT 5SM BR FEW015 SCT230 19/18 A2998 RMK AO2 SLP146 T01890178=
201406140852 METAR KATL 140852Z 28003KT 6SM BR FEW015 SCT230 19/18 A2997 RMK AO2 SLP142 T01890183 56005=
201406140752 METAR KATL 140752Z 28003KT 6SM BR FEW015 SCT230 19/18 A2997 RMK AO2 SLP143 T01940183=
201406140652 METAR KATL 140652Z 30005KT 10SM FEW015 SCT230 20/18 A2997 RMK AO2 SLP142 T02000183=
201406140552 METAR KATL 140552Z 28004KT 10SM FEW180 SCT250 20/18 A2998 RMK AO2 SLP144 T02000183 10228 20200 51009=
201406140452 METAR KATL 140452Z 28005KT 10SM FEW200 SCT250 20/18 A2998 RMK AO2 SLP142 T02000183 402780194=
201406140352 METAR KATL 140352Z 00000KT 10SM FEW200 SCT250 21/19 A2997 RMK AO2 SLP139 T02060189=
201406140252 METAR KATL 140252Z 00000KT 10SM FEW150 SCT200 BKN250 21/19 A2996 RMK AO2 SLP134 T02060189 53013=
201406140152 METAR KATL 140152Z 00000KT 10SM FEW150 SCT200 BKN250 21/19 A2994 RMK AO2 SLP128 T02110194=
201406140052 METAR KATL 140052Z 00000KT 10SM FEW150 SCT200 BKN250 22/19 A2993 RMK AO2 SLP124 T02220194=
201406132352 METAR KATL 132352Z 23004KT 10SM FEW110 SCT150 BKN200 BKN250 23/19 A2992 RMK AO2 SLP122 60005 T02280194 10278 20211 58002=
201406132252 METAR KATL 132252Z 33006KT 10SM SCT110 BKN150 BKN200 OVC250 23/19 A2993 RMK AO2 SLP128 T02280189=
201406132152 METAR KATL 132152Z 28007KT 10SM FEW110 BKN150 OVC200 22/19 A2992 RMK AO2 SLP124 CBMAM OHD-SE T02220194 $=
201406132052 METAR KATL 132052Z 23007KT 10SM FEW015 SCT050 BKN120 OVC230 22/19 A2992 RMK AO2 TSE13RAE32 SLP125 P0003 60005 T02170194 58002=
201406132015 SPECI KATL 132015Z 26005KT 6SM -RA BR SCT060 BKN100 OVC230 21/19 A2994 RMK AO2 TSE13 P0003=
201406131952 METAR KATL 131952Z 27006KT 8SM -TSRA FEW015CB SCT047 BKN110 OVC230 21/19 A2993 RMK AO2 WSHFT 1902 RAB1854 SLP130 OCNL LTGIC NE-E TS VC NE-E MOV NE P0002 T02110189=
201406131922 SPECI KATL 131922Z 29011KT 8SM -TSRA FEW015CB SCT050 BKN100 OVC230 22/19 A2993 RMK AO2 WSHFT 1902 RAB1854 OCNL LTGIC N & E TS VC N & E MOV NE P0001=
201406131852 METAR KATL 131852Z 22011KT 10SM TS BKN038CB BKN140 OVC230 26/18 A2993 RMK AO2 TSB45 SLP125 FRQ LTGIC W TS VC W MOV NE TCU N-E SHRA VC N T02560183=
201406131846 SPECI KATL 131846Z 22008KT 10SM TS BKN038CB BKN140 OVC230 26/18 A2993 RMK AO2 TSB45 FRQ LTGIC SW-NW TS SW-NW MOV NE TCU N-E SHRA VC N=
201406131752 METAR KATL 131752Z 28006KT 10SM SCT038TCU BKN140 OVC230 28/18 A2993 RMK AO2 SLP125 TCU W-NW T02780183 10278 20222 58005=
201406131652 METAR KATL 131652Z 00000KT 10SM SCT036TCU SCT120 BKN150 BKN250 28/19 A2994 RMK AO2 SLP130 TCU ALQDS T02780189=
201406131552 METAR KATL 131552Z 28007KT 10SM SCT037TCU SCT120 BKN250 27/18 A2994 RMK AO2 SLP131 TCU ALQDS T02670183=
201406131452 METAR KATL 131452Z 24005KT 10SM FEW030 SCT120 BKN250 26/19 A2994 RMK AO2 SLP130 TCU DSNT N-NE-E-SE T02610189 50001=
201406131352 METAR KATL 131352Z 27005KT 10SM FEW120 SCT200 BKN250 25/19 A2995 RMK AO2 SLP134 ACC DSNT S-SW & DSNT NW-N T02500194=
201406131252 METAR KATL 131252Z 26004KT 10SM FEW120 SCT200 BKN250 24/19 A2995 RMK AO2 SLP134 ACC DSNT NW T02390194=
201406131152 METAR KATL 131152Z 28005KT 10SM FEW140 SCT200 BKN250 22/19 A2994 RMK AO2 SLP129 T02170189 10217 20194 53014=
201406131052 METAR KATL 131052Z 27005KT 10SM FEW150 SCT200 BKN250 21/19 A2993 RMK AO2 SLP126 T02060189=
201406130952 METAR KATL 130952Z 27004KT 10SM FEW150 BKN200 BKN250 20/18 A2990 RMK AO2 SLP116 T02000183=
201406130852 METAR KATL 130852Z 27004KT 10SM SCT200 BKN250 20/19 A2990 RMK AO2 SLP114 T02000189 55003=
201406130752 METAR KATL 130752Z 23003KT 10SM FEW075 SCT250 20/18 A2989 RMK AO2 SLP113 T02000183=
201406130652 METAR KATL 130652Z 00000KT 10SM FEW080 SCT250 21/18 A2990 RMK AO2 SLP115 T02060178=
201406130552 METAR KATL 130552Z 25005KT 10SM FEW080 SCT250 21/18 A2991 RMK AO2 SLP117 T02060183 10244 20200 58004=
201406130452 METAR KATL 130452Z 27004KT 10SM FEW090 SCT250 20/18 A2992 RMK AO2 SLP126 T02000178 402830189=
201406130352 METAR KATL 130352Z 00000KT 10SM FEW090 SCT200 21/17 A2992 RMK AO2 SLP123 T02110172=
201406130252 METAR KATL 130252Z 00000KT 10SM FEW110 SCT250 22/17 A2992 RMK AO2 SLP123 T02220172 51011=
201406130152 METAR KATL 130152Z 28006KT 10SM FEW110 SCT150 SCT200 22/18 A2991 RMK AO2 SLP121 T02220178=
201406130052 METAR KATL 130052Z 27006KT 10SM FEW035TCU BKN110 BKN200 24/19 A2991 RMK AO2 SLP119 CB DSNT S-SW TCU W-NW T02390194=
201406122352 METAR KATL 122352Z 32007KT 10SM FEW030 SCT120 BKN200 24/19 A2989 RMK AO2 RAE04 SLP112 OCNL LTG DSNT SE & S TCU DSNT SW P0000 60000 T02440189 10283 20244 53001=
201406122252 METAR KATL 122252Z 32013KT 10SM -RA SCT035CB BKN070 BKN110 BKN200 25/18 A2989 RMK AO2 RAB52 SLP112 CB VC SE-S MOV SE TCU OHD-NE-SE P0000 T02500183=
201406122152 METAR KATL 122152Z 28009KT 10SM SCT040TCU SCT070 BKN110 27/18 A2988 RMK AO2 RAB2057E11 SLP109 TCU SE-SW-NW P0000 T02720178=
201406122103 SPECI KATL 122103Z 28008KT 270V340 6SM RA SCT035CB BKN060 BKN110 BKN200 27/19 A2988 RMK AO2 RAB2057 VIS LWR NE-E CB OHD-E MOV SE P0000=
201406122052 METAR KATL 122052Z 30007KT 10SM SCT035TCU SCT060 BKN110 27/18 A2988 RMK AO2 SLP109 CB DSNT NE TCU SE-S-SW-W-NW T02670183 58016=
201406121952 METAR KATL 121952Z 26010KT 10SM SCT035TCU SCT070 27/18 A2990 RMK AO2 SLP114 TCU NE-SE & SW-NW T02720183=
201406121852 METAR KATL 121852Z 27008KT 10SM SCT030TCU SCT050 BKN070 26/18 A2992 RMK AO2 SLP123 TCU SW-NW T02560178=
201406121752 METAR KATL 121752Z 28007KT 240V310 10SM BKN028 BKN070 26/18 A2993 RMK AO2 SLP127 CB DSNT NE T02560183 10256 20194 58009=
201406121652 METAR KATL 121652Z 30008KT 10SM FEW020 BKN070 BKN080 23/18 A2995 RMK AO2 SLP133 CB DSNT E T02330178=
201406121552 METAR KATL 121552Z 28007KT 10SM FEW020TCU BKN030 BKN075 22/18 A2996 RMK AO2 SLP138 TCU SE-S & NW-N T02220178=
201406121452 METAR KATL 121452Z 27009KT 10SM BKN017 BKN020 BKN075 22/18 A2996 RMK AO2 SLP138 T02220178 51014=
201406121352 METAR KATL 121352Z 27008KT 10SM BKN015 BKN020 BKN075 21/18 A2995 RMK AO2 SLP134 T02110178=
201406121320 SPECI KATL 121320Z 29008KT 10SM BKN015 BKN075 BKN120 21/18 A2994 RMK AO2=
201406121252 METAR KATL 121252Z 25007KT 10SM BKN011 BKN075 BKN120 BKN250 21/17 A2993 RMK AO2 SLP128 CIG 009V013 T02060172=
201406121241 SPECI KATL 121241Z 27005KT 10SM OVC011 20/18 A2992 RMK AO2 CIG 009V013 BINOVC=
201406121152 METAR KATL 121152Z 26007KT 10SM OVC008 19/17 A2992 RMK AO2 SLP123 CIG 007V009 BINOVC 70017 T01940172 10200 20189 51019=
201406121052 METAR KATL 121052Z 27009KT 7SM OVC006 19/17 A2991 RMK AO2 SLP121 CIG 005V007 T01890172=
201406121024 SPECI KATL 121024Z 26005KT 10SM BKN008 BKN070 BKN120 BKN250 19/17 A2990 RMK AO2 ACC DSNT E=
201406120952 METAR KATL 120952Z 24007KT 10SM SCT008 SCT070 BKN120 BKN250 19/18 A2988 RMK AO2 SLP112 T01890178=
201406120939 SPECI KATL 120939Z 24004KT 10SM FEW008 SCT075 BKN110 BKN250 19/18 A2988 RMK AO2=
201406120852 METAR KATL 120852Z 26004KT 10SM BKN090 BKN120 BKN250 19/18 A2986 RMK AO2 SLP102 T01940178 55005=
201406120752 METAR KATL 120752Z 00000KT 10SM SCT085 BKN120 BKN250 19/18 A2986 RMK AO2 SLP102 T01940178=
201406120652 METAR KATL 120652Z 18003KT 10SM SCT038TCU BKN095 BKN250 19/18 A2987 RMK AO2 SLP108 TCU N-E-SE T01940178=
201406120552 METAR KATL 120552Z 00000KT 10SM FEW012 SCT030 SCT110 SCT250 19/17 A2988 RMK AO2 SLP108 T01940172 10239 20194 50001=
201406120452 METAR KATL 120452Z 22005KT 10SM FEW007 SCT028 BKN110 BKN250 21/20 A2988 RMK AO2 SLP110 T02110200 402670206=
201406120352 METAR KATL 120352Z 20003KT 10SM FEW100 SCT200 BKN250 21/19 A2988 RMK AO2 SLP111 OCNL LTG DSNT SW-W T02060194=
201406120252 METAR KATL 120252Z 20003KT 10SM FEW100 SCT200 BKN250 21/19 A2987 RMK AO2 SLP107 FRQ LTG DSNT SW-NW T02110194 51008=
201406120152 METAR KATL 120152Z 22003KT 10SM FEW070 SCT200 BKN250 22/19 A2987 RMK AO2 SLP107 FRQ LTG DSNT NE-SE & SW-NW T02170194=
201406120052 METAR KATL 120052Z 19005KT 10SM FEW060 SCT200 BKN250 22/19 A2986 RMK AO2 SLP104 CB DSNT NE T02220189=
201406112352 METAR KATL 112352Z 22005KT 10SM FEW060 SCT110 BKN250 24/19 A2985 RMK AO2 SLP099 CB DSNT NE-SE 60017 T02390189 10267 20222 55003=
201406112252 METAR KATL 112252Z 23007KT 10SM FEW020 SCT080 BKN110 BKN200 24/19 A2984 RMK AO2 SLP096 CB DSNT SE T02390189=
201406112152 METAR KATL 112152Z 24007G16KT 10SM FEW020 SCT050 SCT150 BKN200 24/19 A2986 RMK AO2 SLP102 TCU DSNT SE-SW T02440194=
201406112052 METAR KATL 112052Z 23008G17KT 10SM FEW015 SCT050 SCT110 SCT250 24/20 A2986 RMK AO2 RAB1958E29 SLP102 CB DSNT NE & SW P0000 60017 T02440200 56017=
201406111952 METAR KATL 111952Z 24009KT 10SM FEW030CB BKN040 BKN050 BKN150 24/19 A2987 RMK AO2 SLP105 CB S-SW-W MOV NE SHRA S-SW-W T02440189=
201406111852 METAR KATL 111852Z 23006KT 10SM FEW015CB BKN040 BKN150 BKN250 24/21 A2989 RMK AO2 RAB27E49 SLP112 VIS LWR N-NE-E SHRA CB N-NE-E MOV NE P0017 T02390206=
201406111838 SPECI KATL 111838Z 26009G20KT 5SM R09R/3000VP6000FT -RA BKN023CB BKN043 OVC070 22/19 A2990 RMK AO2 RAB27 VIS LWR N-NE-E SHRA CB N-NE-E MOV NE P0015=
201406111834 SPECI KATL 111834Z 25011G22KT 3SM R09R/3000VP6000FT +RA BKN025CB BKN040 OVC050 23/19 A2990 RMK AO2 RAB27 CB OHD MOV NE P0011=
201406111830 SPECI KATL 111830Z 21013G22KT 4SM R09R/3000VP6000FT +RA BKN027CB BKN037 OVC050 23/19 A2990 RMK AO2 RAB27 CB OHD-S-SW-W MOV NE P0002=
201406111752 METAR KATL 111752Z 19010G17KT 10SM BKN035 BKN050 BKN150 26/18 A2991 RMK AO2 SLP119 60000 T02610183 10261 20211 58009=
201406111652 METAR KATL 111652Z 19007KT 10SM SCT030 BKN050 BKN180 BKN250 26/19 A2993 RMK AO2 SLP125 T02560189=
201406111552 METAR KATL 111552Z 20012G17KT 10SM FEW025 SCT120 BKN150 BKN250 24/18 A2994 RMK AO2 SLP130 T02440178=
201406111452 METAR KATL 111452Z 20010KT 10SM FEW020 SCT120 BKN180 BKN250 24/18 A2994 RMK AO2 SLP130 60000 T02390183 53000 $=
201406111352 METAR KATL 111352Z 21006KT 10SM FEW010 SCT120 BKN150 BKN200 23/19 A2994 RMK AO2 RAB24E33 SLP129 P0000 T02280194 $=
201406111322 SPECI KATL 111322Z 20004KT 10SM FEW009 BKN013 BKN110 OVC200 22/20 A2994 RMK AO2=
201406111307 SPECI KATL 111307Z 19004KT 10SM BKN009 BKN013 BKN110 OVC200 22/20 A2994 RMK AO2=
201406111258 SPECI KATL 111258Z 20005KT 10SM BKN010 BKN042 BKN110 OVC200 22/20 A2994 RMK AO2=
201406111252 METAR KATL 111252Z 20004KT 10SM SCT010 SCT042 BKN110 OVC200 22/20 A2994 RMK AO2 RAE22 SLP131 VIRGA SE-SW P0000 T02220200=
201406111230 SPECI KATL 111230Z 18005KT 10SM SCT008 SCT042 BKN100 OVC200 22/20 A2994 RMK AO2 RAE22 P0000=
201406111152 METAR KATL 111152Z 22004KT 10SM -RA OVC006 21/20 A2994 RMK AO2 RAB13E25B45 SLP131 CIG 005V008 P0000 60000 70030 T02110200 10211 20206 53020=
201406111117 SPECI KATL 111117Z 20006KT 10SM -RA BKN008 BKN100 BKN150 BKN200 21/19 A2992 RMK AO2 RAB13 P0000=
201406111052 METAR KATL 111052Z 22004KT 10SM FEW022 SCT100 BKN180 BKN250 21/19 A2991 RMK AO2 RAB10E36 SLP121 VIRGA SW-NW ACC DSNT E-SE AND NW P0000 T02060194=
201406110952 METAR KATL 110952Z 20006KT 10SM FEW024 SCT110 BKN150 BKN200 21/19 A2990 RMK AO2 SLP117 ACC DSNT NE T02060189=
201406110852 METAR KATL 110852Z 16007KT 10SM FEW085 SCT150 OVC200 21/19 A2988 RMK AO2 SLP107 T02060189 58021=
201406110752 METAR KATL 110752Z 17010KT 10SM FEW024 BKN090 BKN200 BKN250 21/19 A2991 RMK AO2 SLP119 T02060189=
201406110738 SPECI KATL 110738Z 16009KT 10SM SCT026TCU BKN090 BKN200 BKN250 21/19 A2992 RMK AO2 TCU E=
201406110652 METAR KATL 110652Z 16009G17KT 10SM FEW006 BKN028 BKN090 BKN250 21/19 A2994 RMK AO2 SLP127 T02110189=
201406110633 SPECI KATL 110633Z 15008KT 10SM SCT006 BKN028 BKN085 BKN250 21/19 A2994 RMK AO2=
201406110552 METAR KATL 110552Z 15006KT 10SM FEW006 BKN090 BKN150 BKN250 21/19 A2994 RMK AO2 SLP130 T02060189 10217 20206 57006=
201406110452 METAR KATL 110452Z 16006KT 10SM FEW150 BKN250 21/19 A2995 RMK AO2 SLP132 T02060189 403060200=
201406110352 METAR KATL 110352Z 16006KT 10SM FEW150 SCT200 BKN250 21/19 A2996 RMK AO2 SLP136 T02060189=
201406110252 SPECI KATL 110252Z 14005KT 10SM FEW008 SCT150 BKN200 BKN250 21/19 A2996 RMK AO2 SLP137 T02110189 53003=
201406110252 METAR KATL 110252Z 14005KT 10SM FEW008 SCT150 BKN200 BKN250 21/19 A2996 RMK AO2 SLP137 T02110189 53003=
201406110152 METAR KATL 110152Z 14004KT 10SM FEW150 BKN200 OVC250 22/19 A2995 RMK AO2 SLP135 T02170189=
201406110052 METAR KATL 110052Z 00000KT 10SM FEW060 SCT120 BKN150 BKN200 22/18 A2995 RMK AO2 SLP133 T02170183=
201406102352 METAR KATL 102352Z 00000KT 10SM FEW060 SCT110 BKN150 BKN200 22/19 A2995 RMK AO2 RAE01 SLP135 P0000 60030 T02170189 10306 20206 58004=
201406102252 METAR KATL 102252Z 29009KT 10SM -RA FEW030 SCT060 BKN100 OVC200 21/19 A2996 RMK AO2 PK WND 28026/2156 TSE34RAB02 SLP138 CB DSNT NE & SE P0030 T02110189=
201406102234 SPECI KATL 102234Z 25006KT 10SM FEW030 SCT060 BKN100 BKN200 21/19 A2997 RMK AO2 PK WND 28026/2156 TSE34RAB02E34 OCNL LTGIC DSNT NE TS MOV NE P0028=
201406102227 SPECI KATL 102227Z 28009KT 7SM -TSRA FEW015 SCT030CB BKN060 BKN200 21/19 A2996 RMK AO2 PK WND 28026/2156 RAB02 OCNL LTGIC N-NE TS N-NE MOV NE P0028=
201406102222 SPECI KATL 102222Z 28009KT 1 1/2SM R09R/3500VP6000FT +TSRA BR SCT015 BKN030CB BKN050 OVC200 21/19 A2997 RMK AO2 PK WND 28026/2156 RAB02 OCNL LTGIC OHD-S TS OHD-S MOV NE P0017=
201406102212 SPECI KATL 102212Z 26009KT 6SM -TSRA BR FEW015 SCT030CB BKN050 OVC200 21/19 A2997 RMK AO2 PK WND 28026/2156 RAB02 OCNL LTGIC N-NE & SW TS N-NE & VC SW MOV NE P0015=
201406102204 SPECI KATL 102204Z 27010G26KT 1 1/2SM R09R/2800VP6000FT TSRA SCT018 BKN030CB BKN050 OVC200 21/18 A2998 RMK AO2 PK WND 28026/2156 RAB02 OCNL LTGICCG SW-NW-NE TS SW-NW-NE MOV NE P0000=
201406102152 METAR KATL 102152Z 27021G31KT 10SM TS SCT030CB BKN050 BKN110 BKN250 23/18 A2997 RMK AO2 PK WND 28031/2150 WSHFT 2127 TSB46RAB33E50 SLP142 OCNL LTGICCG N-NE & W-NW TS N-NE & VC W-NW MOV NE P0000 T02280178=
201406102146 SPECI KATL 102146Z 26015G29KT 10SM -TSRA SCT030CB BKN060 BKN110 BKN250 23/18 A2996 RMK AO2 PK WND 28029/2142 WSHFT 2127 TSB46RAB33 PRESRR OCNL LTGICCG N-NE & W-NW TS N-NE & VC W-NW MOV NE P0000=
201406102052 METAR KATL 102052Z 20011KT 10SM BKN050 BKN150 BKN250 30/19 A2993 RMK AO2 SLP124 CB DSNT SW-NW T03000189 56011=
201406101952 METAR KATL 101952Z 20011G19KT 10SM FEW050 SCT200 SCT250 31/18 A2993 RMK AO2 SLP125 T03060183=
201406101852 METAR KATL 101852Z 20013G18KT 10SM SCT040 SCT250 30/19 A2994 RMK AO2 SLP128 T03000194=
201406101752 METAR KATL 101752Z 21008KT 10SM FEW035TCU SCT050 SCT250 29/21 A2996 RMK AO2 SLP135 TCU E & SW MDT CU ALQDS T02890206 10289 20211 58008=
201406101652 METAR KATL 101652Z 22008KT 10SM SCT035 BKN055 28/20 A2998 RMK AO2 SLP141 T02780200=
201406101648 SPECI KATL 101648Z 23010KT 10SM SCT030 BKN050 28/21 A2998 RMK AO2=
201406101552 METAR KATL 101552Z 22007KT 10SM BKN020 BKN040 27/21 A2999 RMK AO2 SLP143 T02670211=
201406101504 SPECI KATL 101504Z 22007KT 10SM BKN016 BKN023 BKN040 25/21 A2999 RMK AO2=
201406101452 METAR KATL 101452Z 21005KT 10SM BKN014 BKN018 BKN040 25/21 A2998 RMK AO2 SLP143 T02500211 56002=
201406101450 SPECI KATL 101450Z 22006KT 10SM BKN014 BKN018 BKN040 25/21 A2998 RMK AO2=
201406101352 METAR KATL 101352Z 22005KT 10SM BKN018 BKN020 BKN040 24/21 A2998 RMK AO2 SLP143 T02390206=
201406101252 METAR KATL 101252Z 00000KT 10SM BKN018 BKN040 BKN250 23/19 A2999 RMK AO2 SLP145 T02280194=
201406101152 METAR KATL 101152Z 15003KT 10SM FEW035 SCT250 21/19 A2998 RMK AO2 SLP141 60017 70017 T02110189 10239 20200 51007=
201406101052 METAR KATL 101052Z 18003KT 10SM FEW003 SCT019 BKN035 BKN250 20/19 A2998 RMK AO2 SLP140 T02000194=
201406100952 METAR KATL 100952Z 00000KT 10SM SCT033 SCT250 21/19 A2996 RMK AO2 SLP135 T02060189=
201406100852 METAR KATL 100852Z COR 09003KT 10SM FEW055 SCT150 BKN250 20/19 A2996 RMK AO2 SLP133 60017 T02000189 58006=
201406100752 METAR KATL 100752Z 07003KT 10SM FEW075 SCT150 BKN250 21/18 A2995 RMK AO2 PK WND 31026/0653 TSE23RAE13 SLP131 TS MOV E P0017 T02060183=
201406100723 SPECI KATL 100723Z 02006KT 10SM FEW029 SCT075 BKN150 OVC220 21/19 A2996 RMK AO2 PK WND 31026/0653 TSE23RAE13 FRQ LTGICCA DSNT E TS MOV E CB DSNT E P0017=
201406100709 SPECI KATL 100709Z 02006KT 9SM -TSRA FEW029 SCT035CB BKN075 OVC150 20/19 A2998 RMK AO2 PK WND 31026/0653 PRESFR FRQ LTGICCA NE-E TS NE-E MOV NE P0017=
201406100700 SPECI KATL 100700Z 33011G26KT 3SM R09R/5000VP6000FT -TSRA BR BKN027 BKN035CB OVC050 20/19 A3000 RMK AO2 PK WND 31026/0653 FRQ LTGICCG N-OHD-S TS N-OHD-S MOV NE P0017=
201406100656 SPECI KATL 100656Z 31015G31KT 3/4SM R09R/5000VP6000FT +TSRA BR FEW018 BKN035CB OVC070 20/19 A3000 RMK AO2 PK WND 31026/0653 FRQ LTGICCG OHD-W-NW TS OHD-W-NW MOV NE P0011=
201406100652 METAR KATL 100652Z 31021G32KT 3SM R09R/5500VP6000FT -TSRA FEW018 BKN035CB OVC070 21/18 A2999 RMK AO2 PK WND 31032/0645 WSHFT 0629 TSB48RAB51 SLP146 FRQ LTGICCG W-NW TS W-NW MOV NE P0000 T02110183=
201406100648 SPECI KATL 100648Z 31026G32KT 10SM TS FEW018 BKN035CB OVC070 22/18 A3000 RMK AO2 PK WND 31032/0645 WSHFT 0629 TSB48 FRQ LTGICCG W-NW TS W-NW MOV NE=
201406100643 SPECI KATL 100643Z 31025G32KT 10SM BKN028 BKN035 OVC090 22/18 A3001 RMK AO2 PK WND 32032/0641 WSHFT 0629=
201406100552 METAR KATL 100552Z 23003KT 10SM SCT085 SCT150 BKN250 24/20 A2997 RMK AO2 SLP138 OCNL LTGIC DSNT SW-NW CB DSNT SW-NW T02390200 10283 20239 53008=
201406100452 METAR KATL 100452Z 20003KT 10SM SCT250 24/20 A2996 RMK AO2 SLP134 T02390200 403110211=
201406100352 METAR KATL 100352Z 17003KT 10SM FEW250 25/20 A2995 RMK AO2 SLP131 T02500200=
201406100252 METAR KATL 100252Z 22003KT 10SM FEW250 25/20 A2995 RMK AO2 SLP130 T02500200 51014=
201406100152 METAR KATL 100152Z 22004KT 10SM SCT250 26/20 A2994 RMK AO2 SLP127 T02560200=
201406100052 METAR KATL 100052Z 21005KT 10SM FEW045 SCT250 27/20 A2992 RMK AO2 SLP122 T02670200=
201406092352 METAR KATL 092352Z 20007KT 10SM FEW045 SCT250 28/20 A2991 RMK AO2 SLP117 T02830200 10311 20283 53002=
201406092252 METAR KATL 092252Z 23007KT 10SM FEW045 BKN250 29/19 A2989 RMK AO2 SLP112 TCU DSNT SW T02940189 $=
201406092152 METAR KATL 092152Z 24008KT 10SM SCT045 BKN200 BKN250 30/19 A2990 RMK AO2 SLP113 TCU DSNT SW T03000189=
201406092052 METAR KATL 092052Z 24009KT 10SM SCT045 SCT150 BKN250 30/19 A2990 RMK AO2 SLP114 T03000194 56016=
201406091952 METAR KATL 091952Z 28009KT 10SM FEW050 SCT070 BKN250 31/19 A2991 RMK AO2 SLP116 T03060189=
201406091852 METAR KATL 091852Z VRB06KT 10SM FEW045TCU SCT070 BKN250 31/19 A2993 RMK AO2 SLP123 TCU S & NW T03060194=
201406091752 METAR KATL 091752Z 28008KT 10SM SCT045 SCT060 BKN250 30/19 A2995 RMK AO2 SLP130 T03000189 10300 20222 58005=
201406091652 METAR KATL 091652Z 28008KT 10SM FEW040 SCT050 SCT150 BKN250 29/19 A2996 RMK AO2 SLP134 T02940194=
201406091552 METAR KATL 091552Z VRB03KT 10SM FEW027 SCT150 SCT250 28/21 A2997 RMK AO2 SLP136 T02780206=
201406091452 METAR KATL 091452Z 27006KT 10SM FEW025 SCT150 BKN250 27/21 A2996 RMK AO2 SLP135 T02720211 50010=
201406091352 METAR KATL 091352Z 24006KT 10SM FEW020 SCT150 BKN250 26/21 A2997 RMK AO2 SLP138 T02560206=
201406091252 METAR KATL 091252Z 23004KT 10SM FEW200 BKN250 24/20 A2996 RMK AO2 SLP133 T02440200=
201406091152 METAR KATL 091152Z 00000KT 10SM FEW200 BKN250 22/19 A2993 RMK AO2 SLP125 T02220194 10239 20211 50006=
201406091052 METAR KATL 091052Z 32005KT 10SM FEW200 BKN250 22/19 A2994 RMK AO2 SLP127 T02170194=
201406090952 METAR KATL 090952Z 29004KT 10SM FEW250 22/21 A2992 RMK AO2 SLP121 T02170206=
201406090852 METAR KATL 090852Z 28006KT 9SM FEW030 SCT250 22/21 A2991 RMK AO2 SLP119 T02220211 55001=
201406090752 METAR KATL 090752Z 26003KT 10SM SCT200 BKN250 23/21 A2990 RMK AO2 SLP113 T02280211=
201406090652 METAR KATL 090652Z 28004KT 10SM FEW027 BKN200 BKN250 23/21 A2991 RMK AO2 SLP116 T02280206=
201406090614 SPECI KATL 090614Z 26004KT 10SM SCT027 BKN038 BKN200 24/21 A2992 RMK AO2=
201406090552 METAR KATL 090552Z 26003KT 10SM BKN027 BKN034 BKN200 OVC250 24/21 A2992 RMK AO2 SLP119 T02390211 10283 20239 58013=
201406090534 SPECI KATL 090534Z 00000KT 10SM BKN027 BKN200 BKN250 24/21 A2992 RMK AO2=
201406090452 METAR KATL 090452Z 27003KT 10SM SCT200 BKN250 24/21 A2994 RMK AO2 SLP126 T02440211 403060189=
201406090352 METAR KATL 090352Z 00000KT 10SM FEW140 BKN200 OVC250 25/21 A2995 RMK AO2 SLP131 T02500211=
201406090252 METAR KATL 090252Z 27003KT 10SM FEW032 BKN200 OVC250 25/21 A2996 RMK AO2 SLP134 T02500206 51015=
201406090152 METAR KATL 090152Z 29006KT 10SM FEW033 SCT140 BKN200 OVC250 26/21 A2995 RMK AO2 SLP131 T02560206=
201406090052 METAR KATL 090052Z 31006KT 10SM FEW042 SCT120 BKN200 BKN250 27/20 A2992 RMK AO2 SLP123 T02720200=
201406082352 METAR KATL 082352Z 31006KT 10SM FEW046 SCT080 SCT200 BKN250 28/20 A2991 RMK AO2 SLP119 60000 T02830200 10306 20283 55006=
201406082252 METAR KATL 082252Z COR 30009KT 10SM FEW048TCU SCT075 SCT200 BKN250 29/20 A2991 RMK AO2 SLP118 CB DSNT SE TCU SE-S AND DSNT NE T02890200=
201406082152 METAR KATL 082152Z 31012KT 10SM FEW048 SCT075 SCT200 SCT250 29/20 A2991 RMK AO2 RAE03 SLP120 CB DSNT SE-S TCU DSNT E AND S-SW P0000 T02940200=
201406082052 METAR KATL 082052Z 31012KT 10SM -RA BKN042TCU BKN070 BKN250 29/21 A2993 RMK AO2 RAB47 SLP126 TCU E P0000 60000 T02890211 56020=
201406081952 METAR KATL 081952Z 28010KT 10SM BKN040 BKN090 BKN250 31/21 A2994 RMK AO2 SLP129 T03060206=
201406081852 METAR KATL 081852Z 28010KT 10SM BKN037 BKN250 29/21 A2997 RMK AO2 SLP137 T02940211=
201406081752 METAR KATL 081752Z 28011G19KT 10SM BKN034 BKN100 29/21 A2999 RMK AO2 SLP145 T02890206 10294 20194 50000=
201406081652 METAR KATL 081652Z 27015G22KT 10SM BKN035 BKN090 BKN250 29/20 A3000 RMK AO2 SLP147 T02890200=
201406081552 METAR KATL 081552Z 32009KT 10SM SCT028 BKN250 28/21 A3000 RMK AO2 SLP146 T02780206=
201406081452 METAR KATL 081452Z 29008KT 10SM FEW025 SCT200 26/19 A2999 RMK AO2 SLP146 T02560194 50011=
201406081352 METAR KATL 081352Z 29006KT 10SM FEW020 BKN250 23/19 A3000 RMK AO2 SLP148 T02330189 $=
201406081252 METAR KATL 081252Z 25005KT 10SM SCT007 SCT120 SCT180 BKN250 21/19 A2999 RMK AO2 SLP144 T02110189 $=
201406081152 METAR KATL 081152Z 26005KT 10SM SCT004 SCT120 SCT180 BKN250 19/18 A2996 RMK AO2 SLP135 60024 70024 T01940183 10250 20189 51021 $=
201406081052 METAR KATL 081052Z 27004KT 10SM FEW005 SCT100 SCT140 BKN180 19/18 A2994 RMK AO2 SLP129 T01890183 $=
201406080952 METAR KATL 080952Z 29003KT 10SM SCT100 BKN120 19/18 A2991 RMK AO2 RAE02 SLP119 P0000 T01940183 $=
201406080852 METAR KATL 080852Z 21007KT 10SM -RA FEW100 OVC140 19/18 A2989 RMK AO2 PRESRR SLP112 P0005 60024 T01890178 58027 $=
201406080752 METAR KATL 080752Z 25004KT 10SM -RA FEW070 BKN110 OVC250 19/18 A2996 RMK AO2 PRESFR SLP136 P0005 T01940178 $=
201406080652 METAR KATL 080652Z 32014KT 9SM -RA FEW035 SCT070 OVC120 20/18 A3000 RMK AO2 PK WND 32041/0610 WSHFT 0554 TSE51RAB12 SLP150 TS MOV E P0014 T02000183 $=
201406080627 SPECI KATL 080627Z 32017G25KT 6SM TSRA BR FEW021 BKN030CB OVC060 20/18 A3000 RMK AO2 PK WND 32041/0610 WSHFT 0554 RAB12 OCNL LTGICCG NE-OHD-SE TS NE-OHD-SE MOV E P0008 $=
201406080619 SPECI KATL 080619Z 33017G41KT 1 1/2SM +TSRA BR SCT018 BKN034CB OVC055 21/18 A3000 RMK AO2 PK WND 32041/0610 WSHFT 0554 RAB12 FRQ LTGICCCCG OHD-SW-NW TS OHD-SW-NW MOV E P0006=
201406080610 SPECI KATL 080610Z 32029G41KT 10SM TS SCT018 BKN037CB OVC090 23/17 A3000 RMK AO2 PK WND 32041/0610 WSHFT 0554 FRQ LTGICCCCG OHD-SW-NW TS OHD-SW-NW MOV E=
201406080558 SPECI KATL 080558Z 30018G27KT 10SM TS FEW015 SCT030CB BKN090 OVC200 24/21 A2999 RMK AO2 PK WND 28027/0555 FRQ LTGICCCCG SW-NW TS VC SW-NW MOV E=
201406080552 METAR KATL 080552Z 25006KT 10SM TS FEW012 SCT035CB BKN100 OVC200 25/21 A2997 RMK AO2 TSB47 SLP139 FRQ LTGICCCCG SW-NW TS VC SW-NW MOV E T02500211 10289 20244 53002=
201406080547 SPECI KATL 080547Z 24006KT 10SM TS FEW012 SCT035CB BKN110 OVC200 25/21 A2997 RMK AO2 TSB47 FRQ LTGICCCCG SW-NW TS VC SW-NW MOV E=
201406080452 METAR KATL 080452Z 23003KT 10SM FEW075 SCT110 OVC200 24/21 A2997 RMK AO2 SLP138 CONS LTGICCA DSNT W-NW CB DSNT W-NW T02440211 403110200=
201406080352 METAR KATL 080352Z 23003KT 10SM BKN200 OVC250 25/21 A2997 RMK AO2 SLP137 T02500211=
201406080252 METAR KATL 080252Z 23003KT 10SM SCT200 BKN250 25/21 A2997 RMK AO2 SLP138 T02500206 53009=
201406080152 METAR KATL 080152Z 00000KT 10SM BKN200 OVC250 27/19 A2995 RMK AO2 SLP130 T02670194=
201406080052 METAR KATL 080052Z 31003KT 10SM FEW048 BKN200 OVC250 28/18 A2994 RMK AO2 SLP129 TCU DSNT SE AND S T02830183=
201406072352 METAR KATL 072352Z 32006KT 10SM FEW050 BKN200 BKN250 29/18 A2994 RMK AO2 SLP129 CB DSNT SE TCU DSNT S-SW T02890183 10311 20283 55001=
201406072252 METAR KATL 072252Z 32005KT 10SM FEW050 BKN200 BKN250 30/18 A2993 RMK AO2 SLP126 TCU DSNT N AND NE-SE-SW T03000178=
201406072152 METAR KATL 072152Z 31004KT 10SM FEW048TCU BKN200 OVC250 31/18 A2994 RMK AO2 SLP127 TCU SW AND DSNT N-E-S T03060183=
201406072052 METAR KATL 072052Z 33005KT 10SM SCT047TCU BKN250 31/19 A2995 RMK AO2 SLP130 TCU N-E-S T03060189 56014=
201406071952 METAR KATL 071952Z VRB06KT 10SM SCT045TCU BKN250 31/19 A2995 RMK AO2 SLP132 TCU ALQDS T03060189=
201406071852 METAR KATL 071852Z 34005KT 10SM SCT040 BKN250 29/20 A2997 RMK AO2 SLP137 T02940200=
201406071752 METAR KATL 071752Z 30005KT 10SM SCT034 BKN250 28/21 A2999 RMK AO2 SLP145 T02830206 10294 20211 58009=
201406071652 METAR KATL 071652Z VRB03KT 10SM SCT028 BKN250 28/21 A3001 RMK AO2 SLP151 T02830206=
201406071552 METAR KATL 071552Z 31006KT 10SM FEW020 SCT100 BKN250 27/21 A3002 RMK AO2 SLP156 T02670206=
201406071452 METAR KATL 071452Z VRB04KT 10SM FEW020 BKN250 25/21 A3002 RMK AO2 SLP155 T02500206 50010=
201406071352 METAR KATL 071352Z 28005KT 10SM SCT010 BKN250 23/21 A3002 RMK AO2 SLP157 T02330206=
201406071252 METAR KATL 071252Z 29006KT 7SM OVC005 22/21 A3001 RMK AO2 SLP152 T02170206=
201406071202 SPECI KATL 071202Z 29005KT 7SM BKN005 BKN070 BKN110 OVC180 21/21 A2999 RMK AO2=
201406071152 METAR KATL 071152Z 28005KT 7SM FEW005 SCT070 BKN110 BKN180 21/20 A2999 RMK AO2 RAE44 SLP146 P0000 60002 70006 T02110200 10217 20200 51002=
201406071150 SPECI KATL 071150Z 28005KT 7SM FEW005 SCT070 BKN110 BKN180 21/20 A2998 RMK AO2 RAE44 P0000=
201406071052 METAR KATL 071052Z COR 34007KT 8SM -RA FEW005 SCT095 BKN110 BKN130 21/20 A2999 RMK AO2 RAE33B52 SLP146 P0001 T02110200=
201406070952 METAR KATL 070952Z 31007KT 7SM -RA FEW005 SCT065 OVC090 21/19 A2998 RMK AO2 RAB32 SLP142 P0001 T02060194=
201406070852 METAR KATL 070852Z COR 30006KT 10SM FEW005 SCT110 OVC140 20/19 A2995 RMK AO2 SLP133 T02000189 53008=
201406070752 METAR KATL 070752Z 30007KT 10SM FEW005 BKN150 OVC250 20/19 A2994 RMK AO2 SLP128 T02000189=
201406070652 METAR KATL 070652Z 31007KT 10SM FEW004 SCT200 BKN250 21/19 A2993 RMK AO2 SLP125 T02060189=
201406070552 METAR KATL 070552Z 31006KT 8SM FEW003 BKN200 OVC250 21/19 A2992 RMK AO2 SLP122 T02060194 10228 20206 51012=
201406070542 SPECI KATL 070542Z 31007KT 7SM SCT003 BKN200 OVC250 21/19 A2993 RMK AO2=
201406070518 SPECI KATL 070518Z 29008KT 7SM BKN003 BKN200 BKN250 21/20 A2992 RMK AO2=
201406070452 METAR KATL 070452Z 27005KT 9SM FEW004 SCT200 BKN250 21/20 A2992 RMK AO2 SLP120 T02110200 403000189=
201406070446 SPECI KATL 070446Z 26005KT 10SM FEW004 SCT200 BKN250 21/20 A2992 RMK AO2 403000189=
201406070352 METAR KATL 070352Z 08005KT 10SM FEW100 SCT200 BKN250 22/20 A2989 RMK AO2 SLP110 T02170200=
201406070252 METAR KATL 070252Z 26005KT 10SM FEW100 BKN200 OVC250 22/21 A2997 RMK AO2 SLP140 T02170206 58000=
201406070212 SPECI KATL 070212Z 26008KT 10SM SCT006 BKN100 BKN200 OVC250 22/21 A2998 RMK AO2=
201406070152 METAR KATL 070152Z 28008KT 10SM FEW010 BKN200 OVC250 22/21 A2997 RMK AO2 SLP140 T02170206=
201406070052 METAR KATL 070052Z 29007KT 10SM FEW060 SCT110 BKN200 OVC250 23/21 A2997 RMK AO2 SLP141 T02280206=
201406062352 METAR KATL 062352Z 20005KT 10SM FEW025 SCT060 BKN200 OVC250 23/21 A2997 RMK AO2 TSE27RAE16 SLP141 CB DSNT SE P0004 60004 T02280211 10300 20228 53013=
201406062328 SPECI KATL 062328Z 22007KT 10SM FEW010 SCT025TCU BKN060 OVC200 23/21 A2997 RMK AO2 TSE27RAE16 OCNL LTG DSNT SE TS MOV SE TCU NE-E & SW-NW P0004=
201406062252 METAR KATL 062252Z 23007G16KT 9SM -TSRA FEW010 BKN025CB BKN080 BKN200 25/22 A2996 RMK AO2 TSB52RAB40 SLP136 OCNL LTGICCG E-SE & VC W TS E-SE & VC W MOV SE P0000 T02500217=
201406062152 METAR KATL 062152Z 21005KT 10SM FEW025 BKN200 BKN250 26/19 A2992 RMK AO2 SLP124 CB DSNT E-SE & S-SW T02560189=
201406062122 SPECI KATL 062122Z 26004KT 10SM FEW030CB SCT070 BKN200 BKN250 27/19 A2993 RMK AO2 CB VC SE MOV SE TCU DSNT NE-E=
201406062052 METAR KATL 062052Z 00000KT 10SM FEW010 BKN028TCU BKN070 BKN230 26/18 A2993 RMK AO2 TSE48 SLP128 TS MOV SE TCU NE-E CB DSNT S MOV SE 60000 T02560183 55005=
201406062050 SPECI KATL 062050Z 00000KT 10SM FEW010 BKN028TCU BKN070 BKN230 26/18 A2993 RMK AO2 TSE48 TS MOV SE TCU NE-E CB DSNT S MOV SE=
201406062023 SPECI KATL 062023Z 21008KT 10SM TS BKN028CB BKN065 BKN230 25/19 A2993 RMK AO2 FRQ LTGIC S TS S MOV SE=
201406061952 METAR KATL 061952Z VRB04KT 10SM TS FEW018 SCT030CB SCT055 BKN230 29/22 A2993 RMK AO2 RAE47 SLP125 FRQ LTGICCG S-SW-W TS VC S-SW-W MOV SE P0000 T02890217=
201406061917 SPECI KATL 061917Z 36007KT 10SM -TSRA FEW018 SCT030CB SCT050 BKN230 27/22 A2995 RMK AO2 OCNL LTGIC E-S-SW TS VC E-S-SW MOV SE P0000=
201406061852 METAR KATL 061852Z 35016G22KT 9SM -TSRA FEW018 BKN030CB BKN050 BKN230 28/22 A2995 RMK AO2 WSHFT 1817 TSB47RAB14 SLP133 VIS LWR NE-E SHRA FRQ LTGICCG NE-E TS NE-E MOV SE P0000 T02780217=
201406061847 SPECI KATL 061847Z 36014G22KT 10SM -TSRA FEW015 BKN030CB BKN050 BKN230 29/22 A2996 RMK AO2 WSHFT 1817 TSB47RAB14 FRQ LTGICCG N-NE TS N-NE MOV SE P0000=
201406061837 SPECI KATL 061837Z 35011KT 10SM -RA FEW015 SCT034TCU BKN050 BKN230 29/22 A2995 RMK AO2 WSHFT 1817 RAB14 TCU N-E AND S-SW P0000=
201406061752 METAR KATL 061752Z 25011KT 10SM BKN034TCU BKN044 29/21 A2994 RMK AO2 SLP129 TCU N-E AND W-N T02940206 10300 20211 58006=
201406061652 METAR KATL 061652Z 26008KT 10SM SCT030TCU BKN040 BKN250 29/21 A2996 RMK AO2 SLP133 TCU N-NE-E T02890211=
201406061552 METAR KATL 061552Z 26006KT 10SM FEW028 SCT200 SCT250 28/21 A2996 RMK AO2 SLP134 T02830211=
201406061452 METAR KATL 061452Z 30007KT 10SM FEW030 SCT150 SCT250 27/21 A2996 RMK AO2 SLP136 T02720206 58004=
201406061352 METAR KATL 061352Z 25006KT 10SM FEW150 SCT200 SCT250 25/19 A2997 RMK AO2 SLP141 T02500189=
201406061252 METAR KATL 061252Z 23003KT 10SM FEW070 SCT110 SCT200 SCT250 23/19 A2996 RMK AO2 SLP139 T02330194=
201406061152 METAR KATL 061152Z 00000KT 10SM FEW070 SCT200 SCT250 21/18 A2997 RMK AO2 SLP141 70079 T02110183 10211 20189 51014=
201406061052 METAR KATL 061052Z 27004KT 10SM FEW075 SCT200 SCT250 19/18 A2997 RMK AO2 SLP138 ACC DSNT S-SW T01940178=
201406060952 METAR KATL 060952Z 27005KT 10SM SCT070 BKN120 BKN200 BKN250 19/18 A2995 RMK AO2 SLP133 T01940178=
201406060852 METAR KATL 060852Z 25003KT 10SM FEW120 SCT200 SCT250 19/18 A2993 RMK AO2 SLP127 T01890178 55001=
201406060752 METAR KATL 060752Z 29006KT 10SM FEW110 SCT200 BKN250 19/18 A2993 RMK AO2 SLP124 T01940183=
201406060652 METAR KATL 060652Z 30008KT 10SM FEW100 BKN200 OVC250 20/18 A2993 RMK AO2 SLP125 T02000183=
201406060552 METAR KATL 060552Z 33008KT 10SM FEW110 BKN200 OVC250 21/19 A2993 RMK AO2 SLP127 60079 T02060189 10272 20194 51011=
201406060452 METAR KATL 060452Z 29007KT 10SM FEW030 BKN200 OVC250 22/19 A2993 RMK AO2 SLP126 T02170189 403000194=
201406060352 METAR KATL 060352Z 27004KT 10SM FEW035 SCT050 BKN150 OVC200 21/19 A2993 RMK AO2 SLP124 OCNL LTG DSNT SE T02110194=
201406060252 METAR KATL 060252Z 21004KT 10SM FEW035 BKN060 BKN150 OVC200 21/20 A2990 RMK AO2 RAB21E30 SLP116 CONS LTGICCG DSNT SE-S P0000 60079 T02110200 55000=
201406060152 METAR KATL 060152Z 21003KT 10SM FEW060 SCT110 BKN150 OVC200 21/19 A2985 RMK AO2 TSE44RAE27 SLP100 P0001 T02110194=
201406060144 SPECI KATL 060144Z 14003KT 10SM FEW070 BKN150 OVC200 21/19 A2983 RMK AO2 TSE44RAE27 TS DSIPTD P0001 $=
201406060052 METAR KATL 060052Z 31005KT 6SM -TSRA BR FEW010 SCT030CB BKN070 OVC150 20/19 A2991 RMK AO2 PK WND 33046/0023 WSHFT 0010 RAB10 SLP120 FRQ LTGICCGCA NE-OHD-SW TS NE-OHD-SW MOV SE P0078 T02000189 $=
201406060043 SPECI KATL 060043Z 29010KT 4SM TSRA BR FEW010 BKN030CB OVC070 20/19 A2994 RMK AO2 PK WND 33046/0023 WSHFT 0010 RAB10 FRQ LTGICCG OHD-ALQDS TS OHD-ALQDS MOV SE P0068 $=
201406060031 SPECI KATL 060031Z 33018G46KT 1 3/4SM +TSRA BR FEW010 BKN030CB OVC070 19/19 A2996 RMK AO2 PK WND 33046/0023 WSHFT 0010 RAB10 CONS LTGICCG OHD-ALQDS TS OHD-ALQDS MOV SE P0048 $=
201406060024 SPECI KATL 060024Z 33036G46KT 1/2SM R09R/1800VP6000FT +TSRA FG SCT010 BKN025CB OVC070 20/19 A2994 RMK AO2 PK WND 33046/0023 WSHFT 0010 RAB10 CONS LTGICCG OHD-ALQDS TS OHD-ALQDS MOV SE P0023 $=
201406060018 SPECI KATL 060018Z 32026G43KT 3/4SM R09R/3500VP6000FT +TSRA FEW010 BKN030CB OVC070 22/19 A2997 RMK AO2 PK WND 32043/0013 RAB10 PRESRR CONS LTGICCG OHD-ALQDS TS OHD-ALQDS MOV SE P0000 PNO=
201406060014 SPECI KATL 060014Z 31032G43KT 1 1/2SM +TSRA FEW010 BKN030CB BKN070 OVC150 26/19 A2995 RMK AO2 PK WND 32043/0013 RAB10 PRESRR FRQ LTGICCG NE-OHD-SW TS NE-OHD-SW MOV SE P0000=
201406052352 METAR KATL 052352Z 28005KT 10SM TS FEW040CB SCT070 BKN200 BKN250 27/21 A2990 RMK AO2 TSB46 SLP116 FRQ LTGICCG VC NW TS VC NW MOV SE T02720206 10300 20272 51001=
201406052346 SPECI KATL 052346Z 26005KT 10SM TS FEW040CB SCT070 BKN200 BKN250 27/20 A2991 RMK AO2 TSB46 OCNL LTGICCG VC NW TS VC NW MOV SE=
201406052252 METAR KATL 052252Z VRB06KT 10SM FEW040 SCT120 BKN250 29/20 A2990 RMK AO2 SLP114 CB DSNT SE-S & NW T02890200=
201406052152 METAR KATL 052152Z VRB05KT 10SM FEW040 SCT200 BKN250 29/19 A2992 RMK AO2 SLP119 CB DSNT S TCU DSNT SE & SW T02940194=
201406052052 METAR KATL 052052Z 30008KT 10SM SCT045 SCT150 BKN200 29/19 A2990 RMK AO2 SLP114 CB DSNT S TCU DSNT NE T02890189 56005=
201406051952 METAR KATL 051952Z 31010KT 10SM FEW040 SCT050 SCT150 BKN200 29/18 A2990 RMK AO2 SLP114 CB DSNT SE & W T02890183=
201406051852 METAR KATL 051852Z 30005KT 10SM FEW050 SCT150 BKN200 29/17 A2990 RMK AO2 SLP115 CB DSNT E-SE T02890167=
201406051752 METAR KATL 051752Z 01013G18KT 10SM FEW050 SCT150 BKN200 BKN250 28/16 A2992 RMK AO2 WSHFT 1639 SLP119 T02830161 10283 20233 53022=
201406051652 METAR KATL 051652Z 33015G20KT 10SM BKN035 BKN150 BKN180 28/20 A2989 RMK AO2 WSHFT 1634 SLP112 VIRGA DSNT SE-S-SW T02830200=
201406051552 METAR KATL 051552Z 25017G23KT 10SM FEW030 SCT150 SCT180 BKN250 28/19 A2981 RMK AO2 SLP084 VIRGA DSNT W-NW-N T02830194=
201406051452 METAR KATL 051452Z 26013G21KT 10SM FEW090 BKN150CB BKN180 BKN250 26/20 A2985 RMK AO2 SLP097 VIRGA NE-E-SE-S-SW-W-NW CBMAM OHD-NE-E-SE-S & NW T02560200 58024=
201406051352 METAR KATL 051352Z 27015G20KT 10SM FEW150 BKN180 BKN250 25/20 A2990 RMK AO2 SLP115 VIRGA OHD & ALQDS T02500200=
201406051252 METAR KATL 051252Z 28014KT 10SM FEW085 BKN180 BKN250 24/20 A2991 RMK AO2 SLP119 VIRGA DSNT NW-NE ACC DSNT SE AND SW T02390200=
201406051152 METAR KATL 051152Z 27010KT 10SM FEW055 SCT085 BKN180 BKN250 23/20 A2992 RMK AO2 SLP121 VIRGA NW-NE ACC NW-N SHRA DSNT NE T02330200 10244 20222 58002=
201406051052 METAR KATL 051052Z 27007KT 10SM FEW055 SCT085 BKN180 OVC250 23/20 A2994 RMK AO2 SLP127 T02280200=
201406050952 METAR KATL 050952Z 28008KT 10SM FEW055 SCT080 BKN180 BKN250 23/20 A2993 RMK AO2 SLP122 T02280200=
201406050852 METAR KATL 050852Z 29006KT 10SM SCT055 SCT085 BKN180 BKN250 23/20 A2993 RMK AO2 SLP123 T02280200 55004=
201406050752 METAR KATL 050752Z 26004KT 10SM FEW085 BKN180 BKN250 23/20 A2991 RMK AO2 SLP117 T02280200=
201406050652 METAR KATL 050652Z 27006KT 10SM FEW085 SCT200 BKN250 23/20 A2994 RMK AO2 SLP126 T02330200=
201406050552 METAR KATL 050552Z 27007KT 10SM FEW180 SCT250 BKN300 24/20 A2994 RMK AO2 SLP126 T02440200 10283 20244 53004=
201406050452 METAR KATL 050452Z 23005KT 10SM BKN250 24/21 A2992 RMK AO2 SLP122 T02440206 403110206=
201406050352 METAR KATL 050352Z 25006KT 10SM SCT250 25/21 A2993 RMK AO2 SLP124 T02500206=
201406050252 METAR KATL 050252Z 24005KT 10SM FEW090 SCT250 26/21 A2993 RMK AO2 SLP122 T02560206 53008=
201406050152 METAR KATL 050152Z 24005KT 10SM FEW035 SCT090 SCT250 27/21 A2991 RMK AO2 SLP118 T02670206=
201406050052 METAR KATL 050052Z COR 25006KT 10SM FEW035TCU SCT250 27/21 A2990 RMK AO2 SLP116 TCU SW-W T02720206=
201406042352 METAR KATL 042352Z 24009KT 10SM FEW035 BKN250 28/20 A2990 RMK AO2 SLP115 TCU DSNT NE T02830200 10311 20283 51003=
201406042252 METAR KATL 042252Z 22008KT 10SM FEW040 SCT200 BKN250 29/20 A2990 RMK AO2 SLP114 TCU DSNT N-NE & SW T02890200=
201406042152 METAR KATL 042152Z 23009G15KT 10SM SCT040TCU BKN200 BKN250 29/20 A2989 RMK AO2 SLP112 TCU W-N-NE T02890200=
201406042052 METAR KATL 042052Z 21007KT 10SM FEW045TCU SCT100 BKN250 30/19 A2989 RMK AO2 SLP111 TCU N MDT CU NE-SE T03000189 56032=
201406041952 METAR KATL 041952Z 29004KT 10SM FEW040 SCT200 BKN250 31/19 A2992 RMK AO2 SLP120 TCU DSNT SE-SW T03060194=
201406041852 METAR KATL 041852Z 25007KT 10SM FEW040TCU SCT100 BKN250 29/19 A2995 RMK AO2 SLP132 TCU NW-N T02940194=
201406041752 METAR KATL 041752Z 35006KT 10SM FEW035TCU SCT100 BKN250 29/21 A2999 RMK AO2 RAB24E37 SLP143 TCU NE-SE P0000 60000 T02940206 10294 20222 58012=
201406041652 METAR KATL 041652Z 33007KT 10SM FEW030CB BKN035TCU BKN250 28/20 A3002 RMK AO2 SLP154 CB NE MOV SE TCU OHD & ALQDS SHRA NE T02830200=
201406041552 METAR KATL 041552Z 29009KT 250V320 10SM BKN025TCU BKN250 28/21 A3003 RMK AO2 SLP157 TCU ALQDS T02830206=
201406041452 METAR KATL 041452Z 29009KT 10SM SCT017 SCT250 27/21 A3002 RMK AO2 SLP157 TCU DSNT NE-E T02720211 53001=
201406041352 METAR KATL 041352Z 32008KT 10SM FEW015 SCT250 26/21 A3002 RMK AO2 SLP155 T02560206=
201406041252 METAR KATL 041252Z 28006KT 10SM FEW010 24/21 A3002 RMK AO2 SLP154 T02390206=
201406041223 SPECI KATL 041223Z 29007KT 10SM FEW008 SCT030 SCT250 23/21 A3002 RMK AO2=
201406041152 METAR KATL 041152Z 28006KT 10SM FEW029 22/21 A3002 RMK AO2 SLP155 T02220206 10228 20206 53004=
201406041052 METAR KATL 041052Z 27005KT 10SM FEW035 21/19 A3002 RMK AO2 SLP155 T02110194=
201406040952 METAR KATL 040952Z 25004KT 10SM FEW035 21/19 A3000 RMK AO2 SLP150 T02110194=
201406040852 METAR KATL 040852Z 23003KT 10SM FEW035 21/19 A3001 RMK AO2 SLP151 T02110194 56004=
201406040752 METAR KATL 040752Z 00000KT 10SM FEW035 22/19 A3001 RMK AO2 SLP153 T02170194=
201406040652 METAR KATL 040652Z 26004KT 10SM FEW035 22/20 A3001 RMK AO2 SLP153 T02220200=
201406040552 METAR KATL 040552Z 26005KT 10SM FEW035 23/20 A3002 RMK AO2 SLP155 T02280200 10278 20228 58007=
201406040452 METAR KATL 040452Z 27004KT 10SM FEW035 23/19 A3003 RMK AO2 SLP159 T02280194 403000206=
201406040352 METAR KATL 040352Z 24004KT 10SM FEW035 23/20 A3004 RMK AO2 SLP163 T02330200=
201406040252 METAR KATL 040252Z 21005KT 10SM FEW035 SCT050 24/20 A3004 RMK AO2 SLP163 T02390200 53008=
201406040152 METAR KATL 040152Z 22004KT 10SM FEW035 SCT150 24/19 A3003 RMK AO2 SLP160 T02440194=
201406040052 METAR KATL 040052Z 21004KT 10SM FEW040 SCT120 BKN150 BKN250 26/19 A3002 RMK AO2 SLP157 T02610189=
201406032352 METAR KATL 032352Z 25004KT 10SM FEW040TCU SCT110 BKN250 28/18 A3002 RMK AO2 SLP155 TCU OHD-SE T02780178 10300 20267 56010=
201406032252 METAR KATL 032252Z 24004KT 10SM SCT040TCU BKN250 29/18 A3002 RMK AO2 SLP155 TCU OHD-E-S & VC NE T02890178=
201406032152 METAR KATL 032152Z VRB03KT 10SM SCT040TCU BKN250 30/18 A3003 RMK AO2 SLP159 TCU VC SE-S T03000183=
201406032052 METAR KATL 032052Z 33003KT 10SM FEW037 SCT200 BKN250 28/18 A3005 RMK AO2 SLP164 TCU DSNT SE-S T02830178 56021=
201406031952 METAR KATL 031952Z 34007KT 10SM FEW035TCU BKN070 BKN250 29/19 A3007 RMK AO2 SLP171 TCU S-SW T02890189=
201406031852 METAR KATL 031852Z 00000KT 10SM BKN030TCU BKN070 BKN250 28/18 A3008 RMK AO2 SLP177 TCU NE-SE & SW-NW T02830183=
201406031752 METAR KATL 031752Z 32006KT 10SM FEW030TCU BKN070 BKN250 27/19 A3011 RMK AO2 SLP187 TCU W T02720194 10272 20211 58008=
201406031652 METAR KATL 031652Z 33007KT 10SM FEW030TCU BKN070 OVC250 26/18 A3013 RMK AO2 SLP193 TCU N-NE T02560183=
201406031552 METAR KATL 031552Z 30006KT 10SM FEW025TCU BKN050 BKN250 26/19 A3014 RMK AO2 SLP197 TCU E T02560189=
201406031452 METAR KATL 031452Z 20005KT 10SM SCT025 SCT250 25/19 A3013 RMK AO2 SLP195 T02500189 58007=
201406031352 METAR KATL 031352Z 22006KT 10SM FEW020 BKN040 BKN250 23/18 A3015 RMK AO2 SLP201 T02280178=
201406031252 METAR KATL 031252Z 19004KT 10SM BKN033 BKN065 22/18 A3016 RMK AO2 SLP204 T02220178=
201406031152 METAR KATL 031152Z 00000KT 10SM OVC036 21/18 A3015 RMK AO2 SLP203 60000 T02110178 10217 20206 53008=
201406031052 METAR KATL 031052Z COR 19004KT 10SM BKN036 BKN044 OVC060 21/18 A3014 RMK AO2 RAB49E52 SLP200 BINOVC P0000 T02060178=
201406030952 METAR KATL 030952Z 00000KT 10SM SCT042 BKN050 OVC060 21/18 A3013 RMK AO2 SLP195 T02110178=
201406030852 METAR KATL 030852Z 00000KT 10SM BKN042 BKN055 21/18 A3013 RMK AO2 SLP194 T02110178 56006=
201406030752 METAR KATL 030752Z 19004KT 10SM SCT047 BKN055 21/18 A3013 RMK AO2 SLP194 T02110178=
201406030652 METAR KATL 030652Z 19003KT 10SM BKN055 21/18 A3014 RMK AO2 SLP198 T02110178=
201406030552 METAR KATL 030552Z 16004KT 10SM BKN060 22/17 A3015 RMK AO2 SLP201 T02170172 10239 20217 58010=
201406030452 METAR KATL 030452Z 15004KT 10SM SCT055 22/17 A3016 RMK AO2 SLP204 T02220172 402610183=
201406030352 METAR KATL 030352Z 16005KT 10SM SCT047 BKN055 22/17 A3018 RMK AO2 SLP209 T02220172=
201406030252 METAR KATL 030252Z 15003KT 10SM FEW047 BKN055 23/17 A3018 RMK AO2 SLP212 T02280167 53010=
201406030152 METAR KATL 030152Z 16004KT 10SM BKN047 23/17 A3017 RMK AO2 SLP207 T02280167=
201406030052 METAR KATL 030052Z 16003KT 10SM FEW050 23/17 A3015 RMK AO2 SLP203 T02280167=
201406022352 METAR KATL 022352Z 19006KT 10SM FEW035 SCT048 BKN070 24/16 A3015 RMK AO2 SLP202 T02390161 10261 20239 55008=
201406022252 METAR KATL 022252Z 18005KT 10SM FEW035 BKN048 BKN200 24/16 A3015 RMK AO2 SLP201 T02440161=
201406022152 METAR KATL 022152Z 17007KT 10SM FEW035 BKN048 BKN250 25/16 A3016 RMK AO2 SLP203 T02500161=
201406022052 METAR KATL 022052Z 14004KT 10SM BKN040 BKN090 BKN250 25/16 A3017 RMK AO2 SLP210 T02500156 56016=
201406021952 METAR KATL 021952Z 15006KT 10SM BKN048 BKN090 BKN250 25/16 A3019 RMK AO2 SLP214 T02500161=
201406021852 METAR KATL 021852Z 13006KT 10SM BKN050 BKN090 BKN250 26/14 A3020 RMK AO2 SLP220 T02560139=
201406021752 METAR KATL 021752Z 09007KT 10SM FEW055 SCT150 BKN250 26/13 A3022 RMK AO2 SLP226 T02560128 10256 20183 58006=
201406021652 METAR KATL 021652Z 15008KT 10SM FEW050 SCT150 BKN250 24/12 A3023 RMK AO2 SLP230 T02440117=
201406021552 METAR KATL 021552Z 10009KT 10SM FEW050 SCT060 SCT150 BKN250 24/12 A3025 RMK AO2 SLP236 T02390117=
201406021452 METAR KATL 021452Z 10009KT 10SM FEW040 SCT055 SCT150 BKN250 23/12 A3024 RMK AO2 SLP233 T02280117 50001=
201406021352 METAR KATL 021352Z 14006KT 10SM FEW055 SCT150 BKN250 21/13 A3024 RMK AO2 SLP234 T02110128=
201406021252 METAR KATL 021252Z 12006KT 10SM SCT055 BKN150 BKN250 19/13 A3025 RMK AO2 SLP238 T01940128=
201406021152 METAR KATL 021152Z 11006KT 10SM FEW065 SCT150 BKN250 18/12 A3024 RMK AO2 SLP234 T01830122 10206 20183 53007=
201406021052 METAR KATL 021052Z 11004KT 10SM SCT065 BKN200 BKN250 18/11 A3023 RMK AO2 SLP228 T01830106=
201406020952 METAR KATL 020952Z 12005KT 10SM BKN060 OVC250 19/11 A3023 RMK AO2 SLP228 T01890106=
201406020852 METAR KATL 020852Z 12006KT 10SM BKN060 OVC250 19/13 A3022 RMK AO2 SLP225 T01890128 55001=
201406020752 METAR KATL 020752Z 14006KT 10SM BKN060 BKN250 19/14 A3022 RMK AO2 SLP224 T01940139=
201406020652 METAR KATL 020652Z 13006KT 10SM FEW065 BKN150 BKN250 20/15 A3021 RMK AO2 SLP222 T02000150=
201406020552 METAR KATL 020552Z 15006KT 10SM FEW150 BKN250 21/16 A3022 RMK AO2 SLP226 T02060161 10244 20206 56003=
201406020452 METAR KATL 020452Z 14005KT 10SM FEW200 SCT250 21/17 A3023 RMK AO2 SLP226 T02110167 402670211=
201406020352 METAR KATL 020352Z 13004KT 10SM FEW070 SCT200 BKN250 22/17 A3022 RMK AO2 SLP226 T02170167=
201406020252 METAR KATL 020252Z 12005KT 10SM FEW040 SCT070 BKN200 BKN250 22/16 A3023 RMK AO2 SLP228 T02220161 53018=
201406020152 METAR KATL 020152Z 11008KT 10SM FEW040 OVC070 23/16 A3020 RMK AO2 SLP219 T02330156=
201406020052 METAR KATL 020052Z 11009KT 10SM FEW038 BKN070 BKN200 OVC250 24/16 A3019 RMK AO2 SLP216 T02390156=
201406012352 METAR KATL 012352Z 11010G17KT 10SM FEW038 SCT070 BKN200 BKN250 24/16 A3017 RMK AO2 SLP209 T02440161 10267 20244 55001=
201406012252 METAR KATL 012252Z 12010G20KT 10SM FEW034 BKN070 BKN200 BKN250 24/17 A3017 RMK AO2 SLP206 T02440167=
201406012152 METAR KATL 012152Z 10014G19KT 10SM FEW032 BKN070 OVC200 25/17 A3017 RMK AO2 SLP209 T02500167=
201406012052 METAR KATL 012052Z 11014G20KT 10SM SCT040 BKN065 BKN250 26/16 A3018 RMK AO2 SLP210 T02560156 56019=
201406011952 METAR KATL 011952Z 09016G21KT 10SM FEW035 SCT045 BKN060 BKN250 25/17 A3019 RMK AO2 SLP215 T02500167=
201406011852 METAR KATL 011852Z 11010KT 10SM FEW035 OVC060 25/17 A3021 RMK AO2 SLP221 BINOVC T02500167=
201406011752 METAR KATL 011752Z 11012KT 10SM SCT028 OVC055 24/16 A3023 RMK AO2 SLP229 BINOVC 60000 T02440161 10250 20211 50001=
201406011652 METAR KATL 011652Z 10011G17KT 10SM SCT027 OVC050 25/17 A3024 RMK AO2 SLP231 BINOVC T02500172=
201406011552 METAR KATL 011552Z 10011G19KT 10SM SCT020 BKN035 OVC050 23/18 A3024 RMK AO2 SLP231 T02330183=
201406011541 SPECI KATL 011541Z 10009G15KT 070V140 10SM SCT017 BKN032 BKN100 24/19 A3024 RMK AO2=
201406011452 METAR KATL 011452Z 13011G21KT 10SM OVC015 22/18 A3023 RMK AO2 SLP230 60000 T02170178 51010 $=
201406011417 SPECI KATL 011417Z 12010G19KT 10SM BKN015 OVC025 22/18 A3023 RMK AO2 $=
201406011352 METAR KATL 011352Z 10011G17KT 10SM BKN010 OVC015 22/18 A3022 RMK AO2 SLP226 CIG 009V011 T02170183 $=
201406011334 SPECI KATL 011334Z 11010G17KT 10SM BKN010 OVC015 22/19 A3022 RMK AO2 CIG 008V012 $=
201406011252 METAR KATL 011252Z 09014G19KT 7SM BKN008 OVC012 21/19 A3021 RMK AO2 RAB15E24 SLP224 CIG 007V010 P0000 T02110194 $=
