##########################################################
# Query made at 04/19/2024 23:37:23 UTC
# Time interval: from 03/01/2014 12:00  to 03/31/2014 12:59  UTC
##########################################################

##########################################################
# KATL, Atlanta, Hartsfield - Jackson Atlanta International Airport (United States)
# WMO index: 72219. WIGOS ID: 0-20000-0-72219
# Latitude 33-38-59N. Longitude 084-25-00W. Altitude 312 m.
##########################################################

201403311252 METAR KATL 311252Z 32006KT 10SM SCT250 08/00 A3015 RMK AO2 SLP210 T00780000=
201403311152 METAR KATL 311152Z 32008KT 10SM SCT250 06/00 A3013 RMK AO2 SLP205 T00560000 10089 20056 53008=
201403311052 METAR KATL 311052Z 31010KT 10SM FEW250 06/00 A3011 RMK AO2 SLP198 T00560000=
201403310952 METAR KATL 310952Z 32008KT 10SM CLR 06/00 A3010 RMK AO2 SLP193 T00610000=
201403310852 METAR KATL 310852Z 33005KT 10SM FEW250 07/00 A3011 RMK AO2 SLP195 T00670000 58005=
201403310752 METAR KATL 310752Z 32006KT 10SM FEW250 07/00 A3011 RMK AO2 SLP197 T00720000=
201403310652 METAR KATL 310652Z 31007KT 10SM FEW250 08/00 A3012 RMK AO2 SLP200 T00780000=
201403310552 METAR KATL 310552Z 30006KT 10SM FEW250 09/M01 A3012 RMK AO2 SLP200 T00891006 10156 20089 50000=
201403310452 METAR KATL 310452Z 33004KT 10SM FEW250 10/M01 A3013 RMK AO2 SLP204 T01001011 401830056=
201403310352 METAR KATL 310352Z 32006KT 10SM FEW250 11/M01 A3013 RMK AO2 SLP203 T01061006=
201403310252 METAR KATL 310252Z 31005KT 10SM FEW250 11/M01 A3012 RMK AO2 SLP201 T01111006 51017=
201403310152 METAR KATL 310152Z 32006KT 10SM FEW250 13/M01 A3011 RMK AO2 SLP198 T01281011=
201403310052 METAR KATL 310052Z 32007KT 10SM FEW250 14/M02 A3009 RMK AO2 SLP191 T01391017=
201403302352 METAR KATL 302352Z 32009KT 10SM FEW250 16/M02 A3007 RMK AO2 SLP184 T01561022 10183 20150 51003=
201403302252 METAR KATL 302252Z 31013G19KT 10SM FEW250 17/M02 A3007 RMK AO2 SLP182 T01721017=
201403302152 METAR KATL 302152Z 31013G22KT 10SM CLR 18/M03 A3007 RMK AO2 SLP183 T01781033=
201403302052 METAR KATL 302052Z 31014G21KT 10SM CLR 18/M02 A3006 RMK AO2 SLP179 T01781022 56011=
201403301952 METAR KATL 301952Z 33015G25KT 10SM CLR 17/M03 A3007 RMK AO2 PK WND 34029/1913 SLP182 T01721028=
201403301852 METAR KATL 301852Z 34019G24KT 10SM CLR 16/M02 A3009 RMK AO2 PK WND 35027/1817 SLP187 T01611022=
201403301752 METAR KATL 301752Z 32017G22KT 10SM CLR 15/M02 A3010 RMK AO2 SLP192 T01501017 10150 20056 58008=
201403301652 METAR KATL 301652Z 33017G28KT 10SM CLR 13/M02 A3010 RMK AO2 PK WND 33028/1649 SLP195 T01331017=
201403301552 METAR KATL 301552Z 34018G25KT 10SM CLR 12/M01 A3012 RMK AO2 PK WND 32028/1536 SLP201 T01171006=
201403301452 METAR KATL 301452Z 32013KT 10SM CLR 09/00 A3012 RMK AO2 SLP202 T00940000 53012=
201403301352 METAR KATL 301352Z 31017G22KT 10SM FEW030 08/01 A3011 RMK AO2 PK WND 33026/1256 SLP198 T00780006=
201403301252 METAR KATL 301252Z 33012G21KT 10SM FEW023 07/01 A3009 RMK AO2 PK WND 33028/1236 SLP194 T00670006=
201403301152 METAR KATL 301152Z 32013G22KT 10SM SCT025 06/01 A3009 RMK AO2 PK WND 33026/1123 SLP190 70001 T00560006 10078 20056 53026=
201403301052 METAR KATL 301052Z 33015G22KT 10SM SCT023 SCT031 06/02 A3005 RMK AO2 SLP177 T00610017=
201403301038 SPECI KATL 301038Z 33013G21KT 10SM SCT023 BKN031 06/01 A3004 RMK AO2=
201403300952 METAR KATL 300952Z 32014G22KT 10SM BKN023 07/02 A3002 RMK AO2 SLP166 T00670017=
201403300852 METAR KATL 300852Z 32015G29KT 10SM OVC025 07/02 A3001 RMK AO2 PK WND 32029/0845 SLP161 BINOVC T00720017 58003=
201403300752 METAR KATL 300752Z 31020G28KT 10SM BKN027 07/02 A3002 RMK AO2 PK WND 31029/0715 SLP164 T00720017=
201403300652 METAR KATL 300652Z 31018G26KT 10SM OVC027 08/02 A3001 RMK AO2 PK WND 33031/0555 SLP162 T00780022=
201403300552 METAR KATL 300552Z 31017G34KT 10SM BKN027 08/03 A3002 RMK AO2 PK WND 32034/0545 SLP163 T00780028 10122 20078 51004=
201403300452 METAR KATL 300452Z 31020G25KT 10SM OVC027 08/03 A3001 RMK AO2 PK WND 31031/0417 SLP161 BINOVC T00830028 402000083=
201403300352 METAR KATL 300352Z 32020G28KT 10SM OVC027 08/03 A3001 RMK AO2 PK WND 32034/0333 SLP162 T00830033=
201403300252 METAR KATL 300252Z 32012G27KT 10SM BKN025 OVC032 09/04 A3000 RMK AO2 PK WND 32031/0201 SLP158 T00940039 51026=
201403300152 METAR KATL 300152Z 30019G25KT 10SM BKN024 OVC030 10/05 A2998 RMK AO2 PK WND 32028/0116 SLP149 T01000050=
201403300052 METAR KATL 300052Z 31017G24KT 10SM BKN028 OVC035 11/06 A2996 RMK AO2 PK WND 31034/2356 SLP144 BINOVC T01060056=
201403300011 SPECI KATL 300011Z 31015G25KT 10SM BKN026 OVC034 12/06 A2994 RMK AO2 PK WND 31034/2356=
201403292352 METAR KATL 292352Z 30019G32KT 10SM BKN036 OVC045 12/06 A2992 RMK AO2 PK WND 32034/2306 SLP131 BINOVC 60001 T01220061 10194 20122 53036=
201403292252 METAR KATL 292252Z 31023G32KT 10SM BKN037 OVC048 14/07 A2988 RMK AO2 PK WND 30032/2251 SLP117 BINOVC T01440072=
201403292152 METAR KATL 292152Z 31018G28KT 10SM BKN036 BKN065 BKN090 16/08 A2984 RMK AO2 PK WND 32031/2136 SLP102 T01610083=
201403292052 METAR KATL 292052Z 29014G27KT 10SM SCT018 SCT032 BKN050 16/12 A2981 RMK AO2 PK WND 31037/2024 RAB24E37 SLP093 TCU DSNT N-E P0000 60001 T01610117 53006=
201403292035 SPECI KATL 292035Z 31023G34KT 8SM -RA FEW022 BKN032 BKN048 16/12 A2981 RMK AO2 PK WND 31037/2024 RAB24 VSBY LWR E-SE-S P0000=
201403292030 SPECI KATL 292030Z 30021G37KT 3SM -RA BKN028 OVC044 15/12 A2981 RMK AO2 PK WND 31037/2024 RAB24 VSBY LWR S P0000=
201403291952 METAR KATL 291952Z 30013G23KT 10SM FEW028 SCT038 BKN070 18/13 A2979 RMK AO2 PK WND 30028/1939 RAE1853B32E42 SLP083 P0000 T01830128=
201403291946 SPECI KATL 291946Z 29018G28KT 10SM SCT023 BKN040 BKN060 17/13 A2979 RMK AO2 PK WND 30028/1939 RAE1853B32E42 P0000=
201403291926 SPECI KATL 291926Z 30009G18KT 10SM BKN023 BKN032 BKN070 18/13 A2978 RMK AO2 RAE1853=
201403291852 METAR KATL 291852Z 27011KT 10SM -RA SCT016 OVC040 17/14 A2979 RMK AO2 RAB29 SLP086 P0001 T01670144=
201403291837 SPECI KATL 291837Z 26011G21KT 3SM R09R/6000VP6000FT -RA BKN025 OVC032 17/14 A2979 RMK AO2 SFC VIS 4 RAB29 P0000=
201403291752 METAR KATL 291752Z 25011G25KT 10SM SCT024 BKN038 19/13 A2979 RMK AO2 SLP085 60000 T01890128 10200 20150 58009=
201403291706 SPECI KATL 291706Z 25014G24KT 10SM SCT022 BKN042 19/13 A2979 RMK AO2=
201403291652 METAR KATL 291652Z 25013G20KT 10SM BKN022 BKN035 BKN060 18/14 A2980 RMK AO2 RAB08E18 SLP087 P0000 T01830139=
201403291642 SPECI KATL 291642Z 24009G18KT 10SM BKN020 BKN035 BKN060 18/14 A2980 RMK AO2 RAB08E18 P0000=
201403291614 SPECI KATL 291614Z 24011G19KT 10SM -RA SCT019 BKN030 OVC055 17/14 A2981 RMK AO2 RAB08 P0000=
201403291552 METAR KATL 291552Z 24008G16KT 10SM FEW016 BKN021 OVC032 17/13 A2982 RMK AO2 RAB38E49 SLP093 P0000 T01670133=
201403291514 SPECI KATL 291514Z 24008G19KT 10SM OVC016 17/14 A2982 RMK AO2=
201403291452 METAR KATL 291452Z 23011KT 10SM BKN014 OVC020 17/14 A2982 RMK AO2 SLP094 60000 T01670139 55025=
201403291416 SPECI KATL 291416Z 20010KT 10SM SCT012 BKN018 OVC025 17/14 A2982 RMK AO2=
201403291400 SPECI KATL 291400Z 20011G15KT 10SM FEW008 BKN012 BKN250 16/14 A2981 RMK AO2=
201403291352 METAR KATL 291352Z 19007KT 10SM BKN008 BKN250 16/15 A2980 RMK AO2 SLP089 T01610150=
201403291252 METAR KATL 291252Z 15010KT 7SM FEW004 BKN007 OVC012 16/14 A2982 RMK AO2 DZE05RAB35E39 SLP094 CIG 005V009 P0000 T01560144=
201403291215 SPECI KATL 291215Z 17008KT 7SM FEW003 BKN007 OVC013 16/14 A2988 RMK AO2 DZE05 P0000=
201403291155 SPECI KATL 291155Z 19008KT 1 1/2SM -DZ BR BKN003 OVC013 15/14 A2990 RMK AO2 SFC VIS 6 CIG 002V005 TWRINC P0000=
201403291152 METAR KATL 291152Z 18009KT 1/2SM -DZ BR BKN003 OVC013 15/14 A2990 RMK AO2 SFC VIS 2 1/2 RAB01E10B42E49 SLP121 CIG 002V005 TWRINC P0001 60005 70040 T01500144 10150 20144 51009=
201403291052 METAR KATL 291052Z 15005KT 1/2SM -DZ BR OVC003 15/14 A2989 RMK AO2 SFC VIS 4 RAE48DZB04E12B48 SLP118 CIG 002V004 TWRINC P0001 T01500144=
201403291038 SPECI KATL 291038Z 16007KT 1/2SM -RA BR OVC003 14/14 A2990 RMK AO2 SFC VIS 4 DZB04E12 TWRINC P0001=
201403290952 METAR KATL 290952Z 14006KT 2SM -RA BR OVC003 14/14 A2989 RMK AO2 TWR VIS 2 1/2 DZE48RAB48 SLP118 P0001 T01440139=
201403290852 METAR KATL 290852Z 11005KT 2 1/2SM -DZ BR OVC003 14/14 A2987 RMK AO2 SFC VIS 4 RAE07DZB07 SLP112 TWRINC P0001 60002 T01440139 58034=
201403290752 METAR KATL 290752Z 09008KT 2 1/2SM -RA BR OVC003 14/14 A2990 RMK AO2 DZE50RAB50 PRESFR SLP122 CIG 002V005 P0000 T01440139=
201403290652 METAR KATL 290652Z 10006KT 2 1/2SM -DZ BR OVC004 14/14 A2995 RMK AO2 SFC VIS 3 RAE10DZB10 SLP141 CIG 003V005 P0001 T01440139=
201403290552 METAR KATL 290552Z 09007KT 2 1/2SM -RA BR BKN004 OVC010 14/14 A2997 RMK AO2 RAE10B44DZB10E44 SLP148 CIG 003V005 P0001 60003 T01440139 10150 20144 58019=
201403290550 SPECI KATL 290550Z 09008KT 2 1/2SM -RA BR BKN004 OVC010 14/14 A2998 RMK AO2 RAE10B44DZB10E44 CIG 003V005 P0001=
201403290547 SPECI KATL 290547Z 10007KT 3SM -RA BR BKN004 OVC010 14/14 A2998 RMK AO2 RAE10B44DZB10E44 CIG 003V005 P0001=
201403290452 METAR KATL 290452Z 08010KT 6SM -RA BR BKN005 OVC015 14/14 A3001 RMK AO2 SLP158 CIG 003V007 P0002 T01440139 401610117=
201403290352 METAR KATL 290352Z 10007KT 6SM -RA BR BKN006 OVC014 15/14 A3004 RMK AO2 DZB32E39RAB39 SLP169 P0000 T01500139=
201403290333 SPECI KATL 290333Z 11005KT 8SM -DZ BKN006 OVC014 15/13 A3004 RMK AO2 DZB32 P0000=
201403290252 METAR KATL 290252Z 11005KT 10SM FEW006 BKN013 OVC020 15/14 A3003 RMK AO2 SLP168 T01500139 53000=
201403290152 METAR KATL 290152Z 08009KT 10SM FEW008 BKN013 OVC020 15/13 A3003 RMK AO2 SLP166 T01500133=
201403290052 METAR KATL 290052Z 07009KT 10SM FEW008 BKN016 OVC025 15/13 A3003 RMK AO2 SLP167 T01500133=
201403290018 SPECI KATL 290018Z 07010KT 10SM BKN017 OVC025 15/13 A3002 RMK AO2=
201403282352 METAR KATL 282352Z 08009KT 10SM BKN014 OVC020 15/13 A3003 RMK AO2 SLP168 60001 T01500133 10161 20139 51004=
201403282252 METAR KATL 282252Z 08008KT 10SM OVC012 16/13 A3003 RMK AO2 SLP166 CIG 010V015 T01560133=
201403282152 METAR KATL 282152Z 00000KT 10SM BKN012 BKN020 OVC200 16/13 A3003 RMK AO2 SLP166 T01560133=
201403282119 SPECI KATL 282119Z 00000KT 10SM BKN010 OVC020 16/13 A3003 RMK AO2 CIG 008V012=
201403282052 METAR KATL 282052Z VRB04KT 10SM OVC007 15/13 A3002 RMK AO2 PRESRR SLP163 60001 T01500133 55029=
201403282017 SPECI KATL 282017Z 16010G17KT 8SM OVC006 14/13 A3000 RMK AO2=
201403281952 METAR KATL 281952Z 16010G18KT 3SM BR OVC005 14/13 A3000 RMK AO2 SFC VIS 6 RAE00B23E45 SLP158 P0000 T01440133=
201403281934 SPECI KATL 281934Z 16012KT 3SM -RA BR OVC005 14/13 A3003 RMK AO2 SFC VIS 6 RAE00B23 P0000=
201403281852 METAR KATL 281852Z 19008KT 7SM -RA OVC005 14/13 A3010 RMK AO2 SLP191 P0001 T01440133=
201403281752 METAR KATL 281752Z 17011G17KT 6SM -RA BR OVC007 14/13 A3011 RMK AO2 RAE07B24 SLP193 P0001 60031 T01440133 10144 20122 58012=
201403281652 METAR KATL 281652Z 18011KT 5SM -RA BR BKN005 BKN012 OVC070 14/13 A3013 RMK AO2 SLP201 P0002 T01390133=
201403281611 SPECI KATL 281611Z 19012G18KT 5SM -RA BR BKN005 BKN070 OVC090 14/13 A3014 RMK AO2 P0001=
201403281552 METAR KATL 281552Z 18016G21KT 4SM -RA BR FEW005 SCT020 OVC080 13/13 A3013 RMK AO2 SLP201 P0005 T01330128=
201403281514 SPECI KATL 281514Z 16014KT 5SM -RA BR SCT005 BKN070 OVC090 13/12 A3013 RMK AO2 P0002=
201403281452 METAR KATL 281452Z 16011G18KT 3SM -RA BR FEW005 BKN070 OVC090 13/12 A3014 RMK AO2 SLP207 P0007 60023 T01280122 58003=
201403281352 METAR KATL 281352Z 18011G19KT 5SM -RA BR FEW005 SCT030 OVC085 13/12 A3015 RMK AO2 SLP208 P0006 T01280117=
201403281252 METAR KATL 281252Z 16015G19KT 3SM -RA BR SCT006 BKN028 OVC075 12/11 A3015 RMK AO2 SLP207 P0010 T01220111=
201403281235 SPECI KATL 281235Z 17013KT 3SM -RA BR FEW006 BKN026 OVC070 12/11 A3015 RMK AO2 P0007=
201403281152 METAR KATL 281152Z 15008KT 3SM RA BR FEW006 BKN040 OVC080 12/11 A3015 RMK AO2 TSE29 SLP209 TS MOVD NE P0011 60015 70015 T01170111 10144 20117 51006=
201403281129 SPECI KATL 281129Z 00000KT 5SM -RA BR FEW006 BKN036 OVC075 12/11 A3016 RMK AO2 TSE29 TS MOVD NE P0007=
201403281052 METAR KATL 281052Z 11004KT 7SM -TSRA BKN033CB OVC050 12/11 A3015 RMK AO2 TSB50RAB04 SLP209 OCNL LTGICCA NW TS NW MOV NE P0004 T01220106=
201403281050 SPECI KATL 281050Z 11006KT 6SM -TSRA BR BKN033CB OVC050 12/11 A3015 RMK AO2 TSB50RAB04 OCNL LTGICCA W TS W MOV NE P0004=
201403280952 METAR KATL 280952Z 08004KT 10SM OVC030 14/09 A3015 RMK AO2 SLP208 T01390094=
201403280852 METAR KATL 280852Z 11006KT 10SM OVC037 14/09 A3013 RMK AO2 SLP201 T01390089 58012=
201403280752 METAR KATL 280752Z 00000KT 10SM BKN034 OVC045 14/09 A3016 RMK AO2 SLP211 T01440089=
201403280747 SPECI KATL 280747Z 13003KT 10SM BKN032 OVC045 14/09 A3016 RMK AO2=
201403280652 METAR KATL 280652Z 18006KT 10SM BKN027 OVC038 14/09 A3017 RMK AO2 SLP214 T01440089=
201403280605 SPECI KATL 280605Z 17010G17KT 10SM BKN026 BKN032 OVC090 14/09 A3014 RMK AO2=
201403280552 METAR KATL 280552Z 16011G16KT 10SM BKN030 BKN095 OVC200 14/09 A3015 RMK AO2 SLP207 T01440089 10167 20144 58005=
201403280452 METAR KATL 280452Z 16010KT 10SM FEW030 SCT100 BKN200 OVC250 14/08 A3017 RMK AO2 SLP213 T01440083 401890033=
201403280352 METAR KATL 280352Z 17008KT 10SM FEW045 SCT100 BKN250 14/07 A3018 RMK AO2 SLP217 T01440072=
201403280252 METAR KATL 280252Z 15010KT 10SM FEW050 BKN250 15/07 A3016 RMK AO2 SLP214 T01500067 58004=
201403280152 METAR KATL 280152Z 16009G16KT 10SM FEW150 BKN250 16/06 A3017 RMK AO2 SLP217 T01560056=
201403280052 METAR KATL 280052Z 14008KT 10SM FEW150 BKN250 16/02 A3017 RMK AO2 SLP216 T01610017=
201403272352 METAR KATL 272352Z 16009KT 10SM FEW150 SCT250 17/00 A3017 RMK AO2 SLP219 T01670000 10189 20156 55006=
201403272252 METAR KATL 272252Z 16010G21KT 10SM FEW250 18/M02 A3016 RMK AO2 SLP212 T01781022=
201403272152 METAR KATL 272152Z 15013G20KT 10SM FEW250 18/M03 A3017 RMK AO2 SLP217 T01831028=
201403272052 METAR KATL 272052Z 16014G18KT 10SM CLR 18/M03 A3019 RMK AO2 SLP225 T01831033 56025=
201403271952 METAR KATL 271952Z 17012G25KT 10SM CLR 18/M05 A3021 RMK AO2 SLP232 T01781050=
201403271852 METAR KATL 271852Z 14013G20KT 10SM FEW140 17/M06 A3024 RMK AO2 SLP242 T01721056=
201403271752 METAR KATL 271752Z 15011G21KT 10SM FEW100 SCT140 16/M05 A3027 RMK AO2 SLP251 T01561050 10161 20039 58022=
201403271652 METAR KATL 271652Z 16010G19KT 10SM FEW100 14/M06 A3029 RMK AO2 SLP261 T01441056=
201403271552 METAR KATL 271552Z 14010G19KT 10SM FEW140 13/M06 A3032 RMK AO2 SLP270 T01331061=
201403271452 METAR KATL 271452Z 15011KT 10SM FEW140 11/M07 A3033 RMK AO2 SLP275 T01061072 50012=
201403271352 METAR KATL 271352Z 09003KT 10SM BKN140 BKN250 08/M06 A3034 RMK AO2 SLP278 T00831056=
201403271252 METAR KATL 271252Z 11005KT 10SM BKN150 BKN200 BKN250 06/M08 A3031 RMK AO2 SLP270 T00561078=
201403271152 METAR KATL 271152Z 08006KT 10SM FEW120 BKN150 BKN200 BKN250 04/M07 A3030 RMK AO2 SLP264 VIRGA W-N & DSNT E T00441072 10056 20033 51017=
201403271052 METAR KATL 271052Z 11003KT 10SM FEW120 BKN150 OVC200 05/M08 A3028 RMK AO2 SLP258 T00501083=
201403270952 METAR KATL 270952Z 13004KT 10SM BKN150 BKN200 BKN250 04/M09 A3027 RMK AO2 SLP255 T00441089=
201403270852 METAR KATL 270852Z 14003KT 10SM FEW150 BKN180 BKN250 04/M07 A3024 RMK AO2 SLP246 T00441072 58006=
201403270752 METAR KATL 270752Z 08005KT 10SM BKN180 OVC250 04/M07 A3025 RMK AO2 SLP248 T00391067=
201403270652 METAR KATL 270652Z 00000KT 10SM BKN200 OVC250 05/M08 A3026 RMK AO2 SLP252 T00501083=
201403270552 METAR KATL 270552Z 09004KT 10SM SCT200 OVC250 06/M07 A3026 RMK AO2 SLP252 T00561072 10094 20039 51005=
201403270452 METAR KATL 270452Z 00000KT 10SM BKN250 04/M06 A3026 RMK AO2 SLP251 T00391056 401171017=
201403270352 METAR KATL 270352Z 00000KT 10SM BKN250 05/M07 A3026 RMK AO2 SLP252 T00501072=
201403270252 METAR KATL 270252Z 00000KT 10SM BKN250 06/M08 A3025 RMK AO2 SLP249 T00561078 50004=
201403270152 METAR KATL 270152Z 00000KT 10SM FEW250 07/M08 A3026 RMK AO2 SLP253 T00671083=
201403270052 METAR KATL 270052Z 35004KT 10SM FEW250 09/M13 A3023 RMK AO2 SLP243 T00891128=
201403262352 METAR KATL 262352Z 34006KT 10SM FEW250 09/M13 A3024 RMK AO2 SLP245 T00941133 10117 20083 55004=
201403262252 METAR KATL 262252Z 36007KT 10SM FEW250 11/M14 A3023 RMK AO2 SLP244 T01111139=
201403262152 METAR KATL 262152Z 30006KT 10SM FEW250 11/M13 A3024 RMK AO2 SLP247 T01111128=
201403262052 METAR KATL 262052Z VRB05KT 10SM FEW250 11/M14 A3025 RMK AO2 SLP248 T01111139 57020=
201403261952 METAR KATL 261952Z 30008KT 250V310 10SM FEW250 11/M14 A3027 RMK AO2 SLP256 T01061139=
201403261852 METAR KATL 261852Z 33008G18KT 10SM FEW250 09/M14 A3029 RMK AO2 SLP262 T00941139=
201403261752 METAR KATL 261752Z COR 30005G14KT 10SM FEW250 08/M13 A3031 RMK AO2 SLP269 T00831133 10083 21011 58005=
201403261652 METAR KATL 261652Z 34012G17KT 10SM CLR 07/M14 A3031 RMK AO2 SLP272 T00671144=
201403261552 METAR KATL 261552Z 35008G16KT 10SM CLR 05/M13 A3033 RMK AO2 SLP277 T00501133=
201403261452 METAR KATL 261452Z 35012G19KT 10SM CLR 03/M12 A3032 RMK AO2 SLP277 T00331122 51020=
201403261352 METAR KATL 261352Z 33013G20KT 10SM CLR 02/M11 A3031 RMK AO2 SLP272 T00171106=
201403261252 METAR KATL 261252Z 34013KT 10SM CLR 00/M11 A3028 RMK AO2 SLP263 T00001106=
201403261152 METAR KATL 261152Z 31007KT 10SM CLR M01/M11 A3026 RMK AO2 SLP257 T10111106 10011 21017 53021=
201403261052 METAR KATL 261052Z 33010KT 10SM CLR M01/M11 A3023 RMK AO2 SLP245 T10111106=
201403260952 METAR KATL 260952Z 34008KT 10SM CLR M01/M11 A3021 RMK AO2 SLP237 T10111106=
201403260852 METAR KATL 260852Z 32005KT 10SM CLR M01/M11 A3020 RMK AO2 SLP234 T10061106 51005=
201403260752 METAR KATL 260752Z 31008KT 10SM CLR 00/M11 A3020 RMK AO2 SLP232 T00001106=
201403260652 METAR KATL 260652Z 32010KT 10SM CLR 01/M11 A3019 RMK AO2 SLP229 T00061106=
201403260552 METAR KATL 260552Z 34011KT 10SM CLR 01/M10 A3018 RMK AO2 SLP226 T00111100 10044 20011 51009=
201403260452 METAR KATL 260452Z 33012G22KT 10SM CLR 02/M09 A3018 RMK AO2 SLP224 T00171089 401110017=
201403260352 METAR KATL 260352Z 33011KT 10SM CLR 02/M08 A3017 RMK AO2 SLP221 T00221078=
201403260252 METAR KATL 260252Z 32010KT 10SM CLR 02/M07 A3016 RMK AO2 SLP217 T00221072 53022=
201403260152 METAR KATL 260152Z 33014G19KT 10SM FEW050 03/M08 A3013 RMK AO2 PK WND 31026/0054 SLP209 T00281078=
201403260052 METAR KATL 260052Z 32014G21KT 10SM FEW050 04/M07 A3011 RMK AO2 PK WND 31027/0034 SLP200 T00391067=
201403252352 METAR KATL 252352Z 32020G27KT 10SM FEW055 04/M07 A3009 RMK AO2 PK WND 34032/2308 SLP194 T00441067 10111 20044 53020=
201403252252 METAR KATL 252252Z 32018G27KT 10SM SCT055 BKN070 06/M07 A3006 RMK AO2 PK WND 31034/2206 SLP182 T00611067=
201403252152 METAR KATL 252152Z 31017G27KT 10SM SCT060 BKN070 07/M07 A3003 RMK AO2 PK WND 33032/2128 SLP174 T00671067=
201403252052 METAR KATL 252052Z 33024G32KT 10SM BKN060 BKN070 07/M07 A3003 RMK AO2 PK WND 33034/2015 SLP171 VIRGA NW-N-NE T00721067 53017=
201403251952 METAR KATL 251952Z 31019G31KT 10SM BKN060 BKN070 08/M06 A3000 RMK AO2 PK WND 29035/1929 SLP162 VIRGA N-NE-E & W-NW T00781061=
201403251852 METAR KATL 251852Z 30022G33KT 10SM BKN060 08/M06 A2999 RMK AO2 PK WND 29035/1814 SLP158 T00831061=
201403251752 METAR KATL 251752Z 31020G32KT 10SM SCT065 11/M04 A2998 RMK AO2 PK WND 32032/1748 SLP152 T01061044 10111 20067 50009=
201403251652 METAR KATL 251652Z 33022G33KT 10SM SCT065 10/M06 A2998 RMK AO2 PK WND 32035/1607 SLP152 T01001056=
201403251552 METAR KATL 251552Z 33020G30KT 10SM FEW065 11/M06 A2997 RMK AO2 PK WND 32030/1545 SLP150 T01061056=
201403251452 METAR KATL 251452Z 31018G22KT 10SM CLR 10/M05 A2995 RMK AO2 SLP143 T01001050 51014=
201403251352 METAR KATL 251352Z 33014G21KT 10SM CLR 09/M06 A2995 RMK AO2 SLP143 T00891056=
201403251252 METAR KATL 251252Z 32011KT 10SM CLR 08/M04 A2993 RMK AO2 SLP135 T00781039=
201403251152 METAR KATL 251152Z 31013KT 10SM CLR 07/M02 A2991 RMK AO2 SLP128 60000 T00671022 10100 20067 53006=
201403251052 METAR KATL 251052Z 30010KT 10SM FEW060 08/03 A2989 RMK AO2 SLP122 T00780028=
201403250952 METAR KATL 250952Z 00000KT 10SM FEW022 BKN065 BKN080 09/03 A2988 RMK AO2 SLP117 T00890028=
201403250902 SPECI KATL 250902Z 21003KT 10SM SCT022 BKN065 OVC095 09/03 A2988 RMK AO2=
201403250855 SPECI KATL 250855Z 00000KT 10SM BKN022 OVC095 09/03 A2989 RMK AO2=
201403250852 METAR KATL 250852Z 25003KT 10SM SCT022 BKN080 OVC095 09/03 A2989 RMK AO2 SLP120 60000 T00940028 56019=
201403250752 METAR KATL 250752Z 20005KT 10SM SCT049 BKN060 BKN090 09/03 A2991 RMK AO2 RAE03 SLP127 P0000 T00940028=
201403250652 METAR KATL 250652Z 15005KT 10SM -RA FEW029 SCT050 OVC060 09/02 A2992 RMK AO2 RAB48 SLP134 P0000 T00940017=
201403250552 METAR KATL 250552Z 14005KT 10SM BKN075 BKN250 10/01 A2995 RMK AO2 SLP141 T01000011 10144 20100 58013=
201403250452 METAR KATL 250452Z 12006KT 10SM BKN070 BKN250 11/01 A2997 RMK AO2 SLP149 T01060011 401560044=
201403250352 METAR KATL 250352Z 11006KT 10SM FEW070 BKN250 11/02 A2998 RMK AO2 SLP152 T01060017=
201403250252 METAR KATL 250252Z 10006KT 10SM FEW120 SCT250 11/02 A2998 RMK AO2 SLP155 T01060017 58001=
201403250152 METAR KATL 250152Z 09007KT 10SM FEW120 SCT250 11/02 A3000 RMK AO2 SLP159 T01110022=
201403250052 METAR KATL 250052Z 11004KT 10SM SCT120 BKN250 13/02 A2999 RMK AO2 SLP157 T01280017=
201403242352 METAR KATL 242352Z 12004KT 10SM SCT120 BKN250 14/01 A2999 RMK AO2 SLP155 T01440006 10156 20128 56016=
201403242252 METAR KATL 242252Z 10005KT 10SM BKN120 BKN250 15/00 A3000 RMK AO2 SLP159 T01500000=
201403242152 METAR KATL 242152Z VRB03KT 10SM BKN120 BKN200 BKN250 16/01 A3001 RMK AO2 SLP163 T01560011=
201403242052 METAR KATL 242052Z 09006KT 10SM BKN110 BKN200 BKN250 15/02 A3003 RMK AO2 SLP172 T01500017 58033=
201403241952 METAR KATL 241952Z 19006KT 10SM FEW200 BKN250 15/01 A3007 RMK AO2 SLP184 T01500006=
201403241852 METAR KATL 241852Z VRB05KT 10SM FEW200 BKN250 13/01 A3010 RMK AO2 SLP195 T01330011=
201403241752 METAR KATL 241752Z VRB04KT 10SM FEW040 SCT200 BKN250 13/02 A3013 RMK AO2 SLP205 T01280017 10128 20050 58025=
201403241652 METAR KATL 241652Z 13007KT 060V220 10SM FEW037 SCT200 BKN250 12/02 A3017 RMK AO2 SLP218 T01170017=
201403241552 METAR KATL 241552Z VRB06KT 10SM SCT034 SCT250 11/01 A3020 RMK AO2 SLP228 T01060011=
201403241452 METAR KATL 241452Z 12009KT 10SM FEW020 SCT250 09/01 A3021 RMK AO2 SLP231 T00940011 51010=
201403241352 METAR KATL 241352Z 10010KT 10SM SCT018 SCT250 08/01 A3020 RMK AO2 SLP230 T00780011=
201403241252 METAR KATL 241252Z 05008KT 10SM FEW027 07/M02 A3020 RMK AO2 SLP227 T00671022=
201403241152 METAR KATL 241152Z 02007KT 10SM FEW120 05/M03 A3018 RMK AO2 SLP222 T00501028 10078 20044 53013=
201403241052 METAR KATL 241052Z 02003KT 10SM CLR 04/M03 A3016 RMK AO2 SLP216 T00441028=
201403240952 METAR KATL 240952Z 02005KT 10SM CLR 05/M03 A3015 RMK AO2 SLP211 T00501028=
201403240852 METAR KATL 240852Z 35008KT 10SM CLR 05/M02 A3014 RMK AO2 SLP208 T00501022 58002=
201403240752 METAR KATL 240752Z 34007KT 10SM CLR 06/M02 A3015 RMK AO2 SLP209 T00611022=
201403240652 METAR KATL 240652Z 34010KT 10SM CLR 07/M02 A3014 RMK AO2 SLP207 T00671022=
201403240552 METAR KATL 240552Z 34010KT 10SM FEW250 08/M02 A3015 RMK AO2 SLP208 T00781017 10128 20078 50002=
201403240452 METAR KATL 240452Z 34009KT 10SM FEW200 SCT250 09/M02 A3015 RMK AO2 SLP209 T00891017 401830089=
201403240352 METAR KATL 240352Z 34010KT 10SM BKN200 BKN250 10/M02 A3015 RMK AO2 SLP209 T01001017=
201403240252 METAR KATL 240252Z 34011KT 10SM BKN200 BKN250 11/M02 A3014 RMK AO2 SLP207 T01111017 53023=
201403240152 METAR KATL 240152Z 34009KT 10SM FEW120 BKN200 BKN250 12/01 A3011 RMK AO2 SLP198 T01170011=
201403240052 METAR KATL 240052Z 34009KT 10SM FEW120 SCT200 SCT250 12/02 A3008 RMK AO2 SLP187 T01220017=
201403232352 METAR KATL 232352Z 33010KT 10SM FEW120 SCT250 13/02 A3007 RMK AO2 SLP182 T01280022 10183 20128 53017=
201403232252 METAR KATL 232252Z 33012KT 10SM FEW110 14/03 A3004 RMK AO2 SLP172 T01390028=
201403232152 METAR KATL 232152Z 33016KT 10SM FEW040 14/04 A3003 RMK AO2 SLP169 T01390044=
201403232052 METAR KATL 232052Z 34015G23KT 10SM FEW031 15/06 A3002 RMK AO2 PK WND 35027/2004 SLP163 T01500061 55001=
201403231952 METAR KATL 231952Z 30018G24KT 10SM FEW035 SCT250 17/08 A3000 RMK AO2 SLP155 T01670078=
201403231852 METAR KATL 231852Z 30016G21KT 10SM FEW035 SCT130 SCT250 18/08 A3000 RMK AO2 SLP155 T01780083=
201403231752 METAR KATL 231752Z 33012KT 10SM FEW030 SCT120 BKN250 17/08 A3002 RMK AO2 SLP164 60000 T01670083 10167 20106 58007=
201403231652 METAR KATL 231652Z 31011KT 10SM SCT110 OVC150 14/08 A3004 RMK AO2 RAB1554E05 SLP168 P0000 T01440083=
201403231552 METAR KATL 231552Z 31013KT 10SM FEW031 OVC095 11/08 A3006 RMK AO2 RAE06 SLP177 P0000 T01110078=
201403231452 METAR KATL 231452Z 31010KT 10SM -RA FEW035 BKN060 OVC100 11/07 A3004 RMK AO2 RAE35B52 SLP172 P0000 60000 T01060072 51025=
201403231352 METAR KATL 231352Z 30006KT 10SM -RA OVC075 11/06 A3004 RMK AO2 RAB26 SLP170 P0000 T01110061=
201403231252 METAR KATL 231252Z 32018G25KT 10SM FEW050 BKN085 OVC120 12/05 A3002 RMK AO2 RAB1156E12 SLP165 P0000 T01170050=
201403231152 METAR KATL 231152Z 32008KT 8SM FEW070 BKN095 OVC150 12/09 A2997 RMK AO2 SLP143 T01220089 10150 20122 53005=
201403231052 METAR KATL 231052Z 22005KT 9SM FEW080 SCT150 OVC250 13/09 A2995 RMK AO2 SLP136 T01330089=
201403230952 METAR KATL 230952Z 00000KT 10SM OVC200 13/09 A2996 RMK AO2 SLP139 T01280089=
201403230852 METAR KATL 230852Z 28003KT 10SM BKN250 14/09 A2995 RMK AO2 SLP136 T01440089 56017=
201403230752 METAR KATL 230752Z 00000KT 10SM BKN250 15/09 A2996 RMK AO2 SLP139 T01500089=
201403230652 METAR KATL 230652Z 24004KT 10SM BKN250 14/09 A2999 RMK AO2 SLP151 T01390089=
201403230552 METAR KATL 230552Z 00000KT 10SM FEW250 14/09 A3000 RMK AO2 SLP155 T01440089 10217 20139 58009=
201403230452 METAR KATL 230452Z 00000KT 10SM FEW250 18/08 A3001 RMK AO2 SLP157 T01780083 402390117=
201403230352 METAR KATL 230352Z 00000KT 10SM FEW090 SCT250 18/08 A3003 RMK AO2 SLP163 T01780083=
201403230252 METAR KATL 230252Z 33003KT 10SM FEW090 SCT250 19/08 A3003 RMK AO2 SLP164 T01940083 51010=
201403230152 METAR KATL 230152Z 32003KT 10SM FEW085 SCT200 SCT250 19/08 A3003 RMK AO2 SLP163 T01940078=
201403230052 METAR KATL 230052Z 00000KT 10SM SCT080 SCT250 19/07 A3002 RMK AO2 SLP161 T01940072=
201403222352 METAR KATL 222352Z 32004KT 10SM FEW065 SCT080 SCT250 22/07 A3000 RMK AO2 SLP156 T02170067 10239 20211 53007=
201403222252 METAR KATL 222252Z 30006KT 10SM FEW065 SCT250 23/07 A2999 RMK AO2 SLP152 T02280072=
201403222152 METAR KATL 222152Z 31003KT 10SM FEW070 SCT250 23/07 A2998 RMK AO2 SLP148 T02330072=
201403222052 METAR KATL 222052Z 35008KT 10SM FEW070 BKN250 24/06 A2998 RMK AO2 SLP147 T02390061 56013=
201403221952 METAR KATL 221952Z 35008KT 10SM SCT075 BKN250 23/07 A2999 RMK AO2 SLP151 T02330067=
201403221852 METAR KATL 221852Z 29011G15KT 10SM FEW070 BKN200 23/06 A3000 RMK AO2 SLP155 T02280061=
201403221752 METAR KATL 221752Z 25008KT 10SM SCT200 BKN250 23/06 A3002 RMK AO2 SLP160 T02280056 10233 20122 58017=
201403221652 METAR KATL 221652Z 25006KT 10SM BKN150 OVC250 22/06 A3004 RMK AO2 SLP169 T02220056=
201403221552 METAR KATL 221552Z 29007KT 10SM BKN200 OVC250 21/07 A3006 RMK AO2 SLP175 T02110067=
201403221452 METAR KATL 221452Z 30006KT 10SM SCT200 BKN250 19/07 A3007 RMK AO2 SLP179 T01940067 51010=
201403221352 METAR KATL 221352Z 28006KT 10SM FEW200 BKN250 17/06 A3007 RMK AO2 SLP179 T01720061=
201403221252 METAR KATL 221252Z 27005KT 10SM FEW200 BKN250 14/06 A3006 RMK AO2 SLP176 T01390061=
201403221152 METAR KATL 221152Z 27003KT 10SM SCT200 BKN250 12/04 A3004 RMK AO2 SLP170 T01220039 10139 20117 53005=
201403221052 METAR KATL 221052Z 00000KT 10SM BKN200 12/03 A3003 RMK AO2 SLP166 T01220033=
201403220952 METAR KATL 220952Z 23005KT 10SM BKN180 BKN220 12/03 A3003 RMK AO2 SLP166 T01220028=
201403220852 METAR KATL 220852Z 22005KT 10SM SCT180 BKN220 12/01 A3003 RMK AO2 SLP165 T01220011 58006=
201403220752 METAR KATL 220752Z 22004KT 10SM BKN200 BKN250 12/02 A3004 RMK AO2 SLP170 T01220017=
201403220652 METAR KATL 220652Z 00000KT 10SM SCT200 OVC250 13/01 A3004 RMK AO2 SLP170 T01330011=
201403220552 METAR KATL 220552Z 21003KT 10SM OVC220 13/01 A3005 RMK AO2 SLP171 T01330006 10178 20133 58004=
201403220452 METAR KATL 220452Z 18004KT 10SM BKN200 OVC250 14/01 A3005 RMK AO2 SLP173 T01390011 402060044=
201403220352 METAR KATL 220352Z 18004KT 10SM BKN200 OVC250 14/00 A3006 RMK AO2 SLP177 T01440000=
201403220252 METAR KATL 220252Z 15003KT 9SM BKN200 OVC250 15/00 A3006 RMK AO2 SLP177 T01500000 50008=
201403220152 METAR KATL 220152Z 00000KT 9SM BKN250 16/M01 A3006 RMK AO2 SLP178 T01561011=
201403220052 METAR KATL 220052Z 17004KT 8SM BKN250 16/M01 A3004 RMK AO2 SLP172 T01611006=
201403212352 METAR KATL 212352Z 17005KT 6SM HZ FU FEW002 BKN250 18/M01 A3003 RMK AO2 SLP171 FU FEW002 T01781006 10206 20178 56004=
201403212319 SPECI KATL 212319Z 16007KT 6SM HZ FU FEW002 BKN250 19/M02 A3003 RMK AO2 FU FEW002=
201403212252 METAR KATL 212252Z 17009KT 10SM FEW200 BKN250 19/M02 A3004 RMK AO2 SLP171 T01941022=
201403212152 METAR KATL 212152Z 17008KT 10SM FEW200 BKN250 20/M03 A3004 RMK AO2 SLP172 T02001028=
201403212052 METAR KATL 212052Z 18004KT 10SM FEW200 OVC250 19/M04 A3005 RMK AO2 SLP173 T01941039 56026=
201403211952 METAR KATL 211952Z 13005KT 10SM FEW200 OVC250 19/M04 A3006 RMK AO2 SLP178 T01941044=
201403211852 METAR KATL 211852Z 18008KT 10SM BKN250 19/M04 A3010 RMK AO2 SLP191 T01891044=
201403211752 METAR KATL 211752Z VRB04KT 10SM BKN250 18/M03 A3013 RMK AO2 SLP200 T01831028 10189 20050 58013=
201403211652 SPECI KATL 211652Z 14004KT 10SM BKN250 17/M03 A3016 RMK AO2 SLP211 T01721033=
201403211652 METAR KATL 211652Z 14004KT 10SM BKN250 17/M03 A3016 RMK AO2 SLP211 T01721033=
201403211552 METAR KATL 211552Z VRB03KT 10SM BKN250 16/M04 A3017 RMK AO2 SLP217 T01611039=
201403211452 METAR KATL 211452Z VRB05KT 10SM BKN250 14/M01 A3016 RMK AO2 SLP213 T01441006 51015=
201403211352 METAR KATL 211352Z 11003KT 10SM BKN250 13/M01 A3015 RMK AO2 SLP210 T01281011=
201403211252 METAR KATL 211252Z 00000KT 10SM FEW250 08/01 A3015 RMK AO2 SLP210 T00830011=
201403211152 METAR KATL 211152Z 00000KT 10SM FEW250 06/M02 A3012 RMK AO2 SLP200 T00561017 10094 20044 53010=
201403211052 METAR KATL 211052Z 00000KT 10SM CLR 04/M01 A3010 RMK AO2 SLP192 T00441011=
201403210952 METAR KATL 210952Z 33006KT 10SM CLR 07/M02 A3010 RMK AO2 SLP193 T00671017=
201403210852 METAR KATL 210852Z 32004KT 10SM CLR 07/M02 A3009 RMK AO2 SLP189 T00671017 57002=
201403210752 METAR KATL 210752Z 31003KT 10SM CLR 08/M02 A3008 RMK AO2 SLP186 T00781017=
201403210652 METAR KATL 210652Z 32005KT 10SM CLR 08/M02 A3010 RMK AO2 SLP192 T00831017 $=
201403210552 METAR KATL 210552Z 31005KT 10SM CLR 09/M02 A3010 RMK AO2 SLP190 T00891022 10156 20089 50000=
201403210452 METAR KATL 210452Z 29004KT 10SM CLR 10/M02 A3010 RMK AO2 SLP192 T01001017 401890094=
201403210352 METAR KATL 210352Z 31003KT 10SM CLR 11/M02 A3010 RMK AO2 SLP193 T01061017=
201403210252 METAR KATL 210252Z 30004KT 10SM CLR 12/M02 A3010 RMK AO2 SLP191 T01221022 53010=
201403210152 METAR KATL 210152Z 29003KT 10SM CLR 12/M01 A3008 RMK AO2 SLP187 T01171011=
201403210052 METAR KATL 210052Z 32004KT 10SM CLR 14/M03 A3007 RMK AO2 SLP184 T01441033=
201403202352 METAR KATL 202352Z 34006KT 10SM CLR 16/M03 A3006 RMK AO2 SLP180 T01561033 10189 20156 53005=
201403202252 METAR KATL 202252Z 33012KT 10SM CLR 17/M03 A3006 RMK AO2 SLP177 T01721033=
201403202152 METAR KATL 202152Z 32014KT 10SM CLR 18/M04 A3005 RMK AO2 SLP174 T01781039=
201403202052 METAR KATL 202052Z 32013KT 10SM CLR 19/M03 A3005 RMK AO2 SLP174 T01891033 56017=
201403201952 METAR KATL 201952Z 34007KT 10SM FEW250 18/M03 A3007 RMK AO2 SLP180 T01831028=
201403201852 METAR KATL 201852Z 33013G18KT 10SM FEW180 18/M03 A3008 RMK AO2 SLP185 T01781028=
201403201752 METAR KATL 201752Z 31011KT 280V360 10SM FEW180 17/M01 A3010 RMK AO2 SLP191 T01721006 10172 20094 58007=
201403201652 METAR KATL 201652Z 31009G17KT 10SM FEW180 SCT250 15/01 A3012 RMK AO2 SLP198 T01500006=
201403201552 METAR KATL 201552Z 32007KT 10SM FEW150 SCT180 BKN250 13/03 A3013 RMK AO2 SLP203 ACC NE-E-SE-S-SW T01330033=
201403201452 METAR KATL 201452Z 32012KT 10SM BKN180 BKN250 13/05 A3012 RMK AO2 SLP199 T01280050 53013=
201403201352 METAR KATL 201352Z 33010KT 9SM SCT180 SCT250 12/06 A3010 RMK AO2 SLP194 T01170061=
201403201252 METAR KATL 201252Z 33008KT 8SM FEW200 SCT250 10/07 A3009 RMK AO2 SLP189 T01000067=
201403201152 METAR KATL 201152Z 32007KT 7SM BKN200 BKN250 09/08 A3008 RMK AO2 SLP187 T00940078 10117 20094 53014=
201403201052 METAR KATL 201052Z 32006KT 6SM BR FEW020 BKN200 OVC250 10/09 A3006 RMK AO2 SLP178 T01000089=
201403200952 METAR KATL 200952Z 32007KT 7SM FEW030 SCT200 BKN250 10/09 A3004 RMK AO2 SLP172 T01000089=
201403200852 METAR KATL 200852Z 32006KT 8SM FEW035 SCT250 10/09 A3004 RMK AO2 SLP172 T01000089 55009=
201403200752 METAR KATL 200752Z 31004KT 9SM SCT035 SCT250 10/09 A3004 RMK AO2 SLP171 T01000089=
201403200652 METAR KATL 200652Z 31004KT 10SM FEW250 11/09 A3006 RMK AO2 SLP180 T01110089=
201403200552 METAR KATL 200552Z 31005KT 10SM FEW250 11/09 A3007 RMK AO2 SLP182 T01110089 10156 20111 58000=
201403200452 METAR KATL 200452Z 31005KT 10SM FEW030 SCT250 11/09 A3008 RMK AO2 SLP186 T01110089 401670061=
201403200352 METAR KATL 200352Z 30006KT 10SM FEW030 BKN250 12/09 A3008 RMK AO2 SLP186 T01220094=
201403200252 METAR KATL 200252Z 29007KT 10SM FEW028 BKN035 BKN250 13/10 A3007 RMK AO2 SLP184 T01330100 51011=
201403200152 METAR KATL 200152Z 27005KT 10SM SCT040 BKN250 14/10 A3006 RMK AO2 SLP179 T01390100=
201403200052 METAR KATL 200052Z 00000KT 10SM BKN040 BKN250 14/10 A3005 RMK AO2 SLP175 T01440100=
201403192352 METAR KATL 192352Z 00000KT 10SM BKN040 BKN250 16/09 A3004 RMK AO2 SLP171 T01560094 10167 20106 56002=
201403192252 METAR KATL 192252Z 22003KT 10SM BKN040 17/09 A3003 RMK AO2 SLP171 T01670089=
201403192152 METAR KATL 192152Z 21005KT 10SM OVC038 17/09 A3004 RMK AO2 SLP172 BINOVC T01670089=
201403192052 METAR KATL 192052Z 21004KT 10SM BKN032 15/08 A3004 RMK AO2 SLP174 T01500083 56022=
201403191952 METAR KATL 191952Z 21008KT 10SM FEW025 BKN030 15/08 A3005 RMK AO2 SLP176 T01500078=
201403191852 METAR KATL 191852Z 00000KT 10SM BKN015 OVC020 12/08 A3009 RMK AO2 SLP190 T01220078=
201403191806 SPECI KATL 191806Z 22007KT 10SM FEW010 BKN015 OVC020 11/07 A3010 RMK AO2=
201403191752 METAR KATL 191752Z 21006KT 10SM OVC012 11/07 A3011 RMK AO2 SLP199 60000 T01060072 10106 20061 56010=
201403191731 SPECI KATL 191731Z 11003KT 10SM OVC010 09/07 A3011 RMK AO2=
201403191652 METAR KATL 191652Z 00000KT 10SM OVC008 09/07 A3012 RMK AO2 SLP202 T00890067=
201403191552 METAR KATL 191552Z 12007KT 8SM OVC006 07/06 A3013 RMK AO2 SLP207 T00720061=
201403191452 METAR KATL 191452Z 11006KT 2SM BR OVC005 07/06 A3014 RMK AO2 SFC VIS 6 SLP211 60000 T00670056 51009=
201403191352 METAR KATL 191352Z 10006KT 1 1/2SM BR BKN004 OVC006 07/06 A3014 RMK AO2 SFC VIS 6 SLP208 T00670056=
201403191252 METAR KATL 191252Z 10008KT 1 1/2SM BR OVC004 06/06 A3014 RMK AO2 SFC VIS 6 DZE25 SLP210 P0000 T00610056=
201403191152 METAR KATL 191152Z 11008KT 1 1/2SM -DZ BR OVC004 06/05 A3012 RMK AO2 SFC VIS 5 SLP201 PCPN VRY LGT P0000 60001 70001 T00610050 10067 20061 53007=
201403191052 METAR KATL 191052Z 12006KT 1 1/2SM -DZ BR OVC004 06/05 A3010 RMK AO2 SFC VIS 4 SLP197 CIG 003V005 P0000 T00610050=
201403190952 METAR KATL 190952Z 11008KT 1 1/2SM -DZ BR OVC004 06/05 A3009 RMK AO2 SFC VIS 4 SLP194 CIG 003V007 P0000 T00610050=
201403190852 METAR KATL 190852Z 10007KT 1 1/2SM -DZ BR OVC004 06/06 A3010 RMK AO2 SFC VIS 2 1/2 SLP194 CIG 003V006 P0001 60001 T00610056 58002=
201403190752 METAR KATL 190752Z 10007KT 1 1/2SM -DZ BR OVC004 06/06 A3011 RMK AO2 SFC VIS 3 SLP199 CIG 003V006 P0000 T00610056=
201403190724 SPECI KATL 190724Z 10008KT 1 1/2SM -DZ BR OVC004 06/06 A3011 RMK AO2 SFC VIS 2 1/2 CIG 003V005 P0000=
201403190652 METAR KATL 190652Z 10008KT 4SM -DZ BR OVC005 06/05 A3012 RMK AO2 SLP204 DZB38 P0000 T00610050=
201403190552 METAR KATL 190552Z 11009KT 10SM OVC007 07/05 A3010 RMK AO2 SLP197 T00670050 10100 20067 51013=
201403190505 SPECI KATL 190505Z 12007KT 10SM BKN009 OVC021 08/05 A3011 RMK AO2=
201403190452 METAR KATL 190452Z 12008KT 10SM FEW015 OVC021 08/05 A3010 RMK AO2 SLP197 T00780050 401000022=
201403190352 METAR KATL 190352Z 12010G17KT 10SM OVC015 09/06 A3008 RMK AO2 SLP189 T00890056=
201403190252 METAR KATL 190252Z 12007KT 10SM OVC019 09/06 A3006 RMK AO2 SLP184 T00890056 51018=
201403190152 METAR KATL 190152Z 13008KT 10SM OVC017 09/06 A3005 RMK AO2 SLP182 T00940056=
201403190052 METAR KATL 190052Z 12005KT 10SM OVC017 09/06 A3003 RMK AO2 SLP173 T00940056=
201403182352 METAR KATL 182352Z 13004KT 10SM OVC018 10/05 A3001 RMK AO2 SLP166 T01000050 10100 20078 53008=
201403182252 METAR KATL 182252Z 10006KT 10SM OVC020 10/06 A2999 RMK AO2 SLP160 T01000056=
201403182152 METAR KATL 182152Z 08009KT 10SM OVC020 10/06 A2997 RMK AO2 SLP154 T01000056=
201403182052 METAR KATL 182052Z 08009KT 10SM OVC020 10/05 A2998 RMK AO2 SLP157 T01000050 58015=
201403181952 METAR KATL 181952Z 04008KT 10SM OVC018 09/04 A3000 RMK AO2 SLP165 T00890044=
201403181852 METAR KATL 181852Z 08006KT 10SM OVC016 09/04 A3001 RMK AO2 SLP166 T00890044=
201403181813 SPECI KATL 181813Z VRB06KT 10SM OVC016 08/04 A3003 RMK AO2=
201403181752 METAR KATL 181752Z 12005KT 10SM OVC014 08/04 A3003 RMK AO2 SLP172 T00780039 10083 20028 51012=
201403181652 METAR KATL 181652Z 07009KT 10SM OVC012 07/04 A3001 RMK AO2 SLP168 T00720039=
201403181552 METAR KATL 181552Z 10005KT 8SM OVC010 05/03 A3003 RMK AO2 SLP173 T00500028=
201403181530 SPECI KATL 181530Z 13005KT 8SM OVC010 05/02 A3002 RMK AO2=
201403181452 METAR KATL 181452Z 10007KT 7SM OVC008 04/03 A2999 RMK AO2 SLP161 T00440028 51038=
201403181352 METAR KATL 181352Z 10009KT 7SM OVC006 03/02 A2995 RMK AO2 PRESRR SLP150 T00330017=
201403181252 METAR KATL 181252Z 09008KT 6SM BR OVC006 03/02 A2991 RMK AO2 SLP135 T00280017=
201403181152 METAR KATL 181152Z 05009KT 7SM OVC006 03/02 A2988 RMK AO2 SLP123 CIG 005V007 60000 70030 T00280017 10033 20022 53007=
201403181052 METAR KATL 181052Z 04009KT 7SM BKN005 OVC029 02/01 A2986 RMK AO2 DZE30 SLP116 P0000 T00220011=
201403181046 SPECI KATL 181046Z 05008KT 7SM BKN005 OVC029 02/01 A2985 RMK AO2 DZE30 P0000=
201403180952 METAR KATL 180952Z 06007KT 4SM -DZ BR OVC004 02/02 A2986 RMK AO2 SLP118 CIG 003V007 P0000 T00220017=
201403180930 SPECI KATL 180930Z 06007KT 3SM -DZ BR OVC004 02/02 A2986 RMK AO2 CIG 003V007 P0000=
201403180852 METAR KATL 180852Z 08011KT 2 1/2SM -DZ BR OVC005 02/01 A2985 RMK AO2 SLP114 CIG 004V007 P0000 60000 T00220011 53000=
201403180826 SPECI KATL 180826Z 10008KT 4SM -DZ BR OVC005 03/02 A2984 RMK AO2 P0000=
201403180805 SPECI KATL 180805Z 07012KT 3SM -DZ BR OVC004 03/02 A2983 RMK AO2 P0000=
201403180752 METAR KATL 180752Z 07012KT 5SM -DZ BR OVC005 03/02 A2983 RMK AO2 DZE28B52 SLP107 P0000 T00280017=
201403180728 SPECI KATL 180728Z 07014KT 8SM OVC005 03/02 A2983 RMK AO2 DZE28 P0000=
201403180652 METAR KATL 180652Z 05012KT 4SM -DZ BR OVC004 03/02 A2984 RMK AO2 DZB27 SLP108 P0000 T00330022=
201403180644 SPECI KATL 180644Z 05010KT 4SM -DZ BR OVC004 03/02 A2983 RMK AO2 DZB27 P0000=
201403180552 METAR KATL 180552Z 09009KT 10SM BKN007 OVC016 03/02 A2985 RMK AO2 SLP113 60000 T00330017 10050 20033 50001=
201403180452 METAR KATL 180452Z 10008KT 10SM BKN007 OVC016 03/02 A2986 RMK AO2 SLP114 T00330017 401560033=
201403180352 METAR KATL 180352Z 09009KT 10SM BKN007 BKN012 OVC020 04/03 A2986 RMK AO2 SLP115 T00390028=
201403180252 METAR KATL 180252Z 07014KT 10SM SCT008 BKN012 OVC020 04/02 A2985 RMK AO2 SLP112 60000 T00390022 53024=
201403180152 METAR KATL 180152Z 08014KT 10SM SCT006 BKN010 OVC020 04/03 A2982 RMK AO2 RAE0058 SLP103 P0000 T00440028=
201403180052 METAR KATL 180052Z 07013KT 7SM -RA BKN007 OVC015 04/03 A2979 RMK AO2 RAB19 SLP090 P0000 T00440028=
201403172352 METAR KATL 172352Z 06013KT 10SM OVC007 05/03 A2978 RMK AO2 RAE10 SLP084 P0000 60005 T00500033 10067 20050 53020=
201403172252 SPECI KATL 172252Z 08011KT 7SM -RA BKN006 OVC030 05/04 A2975 RMK AO2 RAB00 SLP073 CIG 004V007 P0001 T00500039=
201403172252 METAR KATL 172252Z 08011KT 7SM -RA BKN006 OVC030 05/04 A2975 RMK AO2 RAB00 SLP073 CIG 004V007 P0001 T00500039=
201403172204 SPECI KATL 172204Z 07013KT 6SM -RA BR BKN005 OVC030 06/04 A2973 RMK AO2 RAB00 P0000=
201403172152 METAR KATL 172152Z 08010KT 1 1/2SM BR BKN005 OVC030 06/04 A2974 RMK AO2 SFC VIS 6 SLP070 T00560039=
201403172109 SPECI KATL 172109Z 07010KT 1 1/2SM BR BKN005 OVC030 06/05 A2972 RMK AO2 SFC VIS 6 CIG 003V007=
201403172052 METAR KATL 172052Z 07012KT 6SM BR BKN005 BKN030 OVC080 06/04 A2971 RMK AO2 SLP062 60004 T00610044 56012=
201403171952 METAR KATL 171952Z 09011KT 10SM BKN007 BKN020 OVC080 06/05 A2972 RMK AO2 RAE1857 SLP062 P0000 T00610050=
201403171852 METAR KATL 171852Z 08011KT 8SM -RA BKN007 BKN010 OVC030 06/05 A2972 RMK AO2 SLP065 P0004 T00610050=
201403171752 METAR KATL 171752Z 06012KT 7SM -RA BKN005 BKN010 OVC030 07/05 A2975 RMK AO2 SLP075 P0003 60025 T00670050 10139 20067 50004=
201403171652 METAR KATL 171652Z 07013KT 6SM -RA BR BKN007 BKN010 OVC030 07/06 A2977 RMK AO2 SLP081 P0002 T00720056=
201403171552 METAR KATL 171552Z 09013KT 6SM -RA BR BKN007 BKN020 OVC050 08/07 A2973 RMK AO2 SLP068 P0004 T00780067=
201403171452 METAR KATL 171452Z 06011KT 6SM -RA BR BKN005 BKN020 OVC030 08/07 A2974 RMK AO2 SLP070 P0009 60016 T00830072 51016=
201403171415 SPECI KATL 171415Z 05013KT 2SM -RA BR FEW003 BKN005 OVC009 08/07 A2973 RMK AO2 SFC VIS 3 P0004=
201403171352 METAR KATL 171352Z 05010KT 1SM -RA BR FEW003 BKN005 OVC009 09/08 A2972 RMK AO2 WSHFT 1257 SFC VIS 3 DZE14RAB14 SLP063 P0006 T00890078=
201403171348 SPECI KATL 171348Z 06013G19KT 1SM -RA BR FEW003 BKN005 OVC009 09/08 A2971 RMK AO2 WSHFT 1257 SFC VIS 3 DZE14RAB14 P0006=
201403171317 SPECI KATL 171317Z 05012KT 1/2SM -RA BR OVC003 10/09 A2969 RMK AO2 WSHFT 1257 SFC VIS 1 3/4 DZE14RAB14 P0001=
201403171252 METAR KATL 171252Z 12003KT 1/2SM -DZ BR OVC003 14/13 A2969 RMK AO2 SFC VIS 1 1/2 SLP051 RAE1153B10E19DZB1153E10B19 CIG 002V004 P0001 T01390133=
201403171152 METAR KATL 171152Z 16006KT 1/2SM -RA BR OVC003 13/13 A2964 RMK AO2 SFC VIS 1 1/2 DZE45RAB45 SLP033 CIG 002V004 TWRINC P0001 60002 70078 T01330128 10156 20133 55000=
201403171133 SPECI KATL 171133Z 14006KT 1/2SM -DZ BR OVC004 13/13 A2963 RMK AO2 SFC VIS 2 P0000=
201403171052 METAR KATL 171052Z 18007KT 5SM -DZ BR OVC004 14/13 A2964 RMK AO2 DZE17B44RAB17E24 SLP033 CIG 003V005 P0001 T01390128=
201403170952 METAR KATL 170952Z 19005KT 5SM -DZ BR OVC007 14/13 A2963 RMK AO2 DZB50 PRESFR SLP032 CIG 005V009 P0000 T01390133 $=
201403170852 METAR KATL 170852Z 19007KT 8SM BKN009 OVC015 14/13 A2964 RMK AO2 SLP034 60000 T01440128 58017 $=
201403170842 SPECI KATL 170842Z 18007KT 10SM FEW009 OVC014 14/13 A2964 RMK AO2 $=
201403170807 SPECI KATL 170807Z 20006KT 10SM FEW013 OVC022 15/13 A2966 RMK AO2 $=
201403170752 METAR KATL 170752Z 21007KT 10SM FEW009 BKN013 OVC085 15/13 A2967 RMK AO2 SLP045 T01500133 $=
201403170746 SPECI KATL 170746Z 21006KT 10SM FEW009 BKN013 OVC085 14/13 A2967 RMK AO2 $=
201403170652 METAR KATL 170652Z 18006KT 8SM BKN009 OVC017 15/14 A2967 RMK AO2 RAB25E38 SLP045 P0000 T01500139 $=
201403170552 METAR KATL 170552Z 20006KT 8SM BKN009 OVC014 16/14 A2969 RMK AO2 SLP051 60000 T01560139 10156 20144 55002 $=
201403170523 SPECI KATL 170523Z 20008KT 8SM BKN008 BKN015 OVC090 16/14 A2969 RMK AO2 $=
201403170452 METAR KATL 170452Z 20008KT 10SM SCT008 BKN018 OVC095 15/14 A2969 RMK AO2 SLP050 T01500144 401500117 $=
201403170432 SPECI KATL 170432Z 19008KT 10SM SCT008 BKN012 BKN100 OVC200 15/14 A2968 RMK AO2 $=
201403170352 METAR KATL 170352Z 19010KT 10SM BKN008 BKN120 OVC200 15/14 A2970 RMK AO2 SLP054 CIG 006V010 T01500144 $=
201403170313 SPECI KATL 170313Z 19006KT 1 1/2SM BR OVC004 15/14 A2970 RMK AO2 SFC VIS 5 CIG 002V006 $=
201403170252 METAR KATL 170252Z 16006KT 1/4SM R09R/4000VP6000FT BR OVC002 15/14 A2970 RMK AO2 SFC VIS 1 1/2 SLP055 CIG 001V003 TWRINC 60000 T01500144 58002 $=
201403170152 METAR KATL 170152Z 14005KT 1/2SM R09R/3500V5500FT BR OVC002 15/14 A2972 RMK AO2 SFC VIS 3/4 SLP060 T01500144 $=
201403170052 METAR KATL 170052Z 17006KT 1/2SM BR OVC003 15/14 A2971 RMK AO2 SFC VIS 4 DZE45 SLP058 CIG 002V004 TWRINC P0000 T01500144 $=
201403170012 SPECI KATL 170012Z 18006KT 1SM -DZ BR OVC003 15/14 A2970 RMK AO2 SFC VIS 5 CIG 002V005 P0000 $=
201403170001 SPECI KATL 170001Z 16004KT 2SM -DZ BR OVC004 15/14 A2970 RMK AO2 SFC VIS 6 CIG 003V005 P0000 $=
201403162352 METAR KATL 162352Z 19003KT 3SM -DZ BR OVC004 15/14 A2970 RMK AO2 SFC VIS 6 DZB49 SLP057 CIG 003V006 P0000 60000 T01500139 10150 20133 53012 $=
201403162252 METAR KATL 162252Z 16005KT 8SM OVC006 15/13 A2965 RMK AO2 SLP039 T01500133 $=
201403162152 METAR KATL 162152Z 15006KT 9SM OVC008 15/13 A2966 RMK AO2 SLP040 T01500133 $=
201403162052 METAR KATL 162052Z 17005KT 10SM OVC008 15/13 A2967 RMK AO2 SLP044 T01500128 57011 $=
201403161952 METAR KATL 161952Z 14005KT 10SM BKN008 OVC012 14/13 A2967 RMK AO2 SLP045 T01390128 $=
201403161852 METAR KATL 161852Z 15008KT 10SM OVC008 14/12 A2970 RMK AO2 SLP054 T01390122 $=
201403161752 METAR KATL 161752Z 13005KT 10SM OVC006 13/12 A2970 RMK AO2 SLP056 60076 T01330117 10133 20122 58026 $=
201403161652 METAR KATL 161652Z 13008KT 10SM OVC006 13/12 A2973 RMK AO2 SLP064 T01330117 $=
201403161552 METAR KATL 161552Z 14011G19KT 10SM OVC008 12/11 A2977 RMK AO2 RAE21B42E51 SLP079 P0000 T01220111 $=
201403161452 METAR KATL 161452Z 13012G24KT 4SM -RA BR BKN005 BKN010 OVC015 12/11 A2978 RMK AO2 SLP083 P0030 60076 T01220111 58014 $=
201403161449 SPECI KATL 161449Z 14012G24KT 4SM -RA BR BKN005 BKN010 OVC015 12/11 A2978 RMK AO2 P0030 $=
201403161443 SPECI KATL 161443Z 13015G20KT 2SM -RA BR BKN004 BKN010 OVC014 12/11 A2978 RMK AO2 P0029 $=
201403161435 SPECI KATL 161435Z 14012G23KT 1 3/4SM RA BR BKN004 BKN012 OVC039 12/12 A2979 RMK AO2 PRESFR P0026 $=
201403161352 METAR KATL 161352Z 09013G17KT 2SM +RA BR BKN006 BKN017 OVC037 12/11 A2982 RMK AO2 SLP096 P0031 T01220111 $=
201403161335 SPECI KATL 161335Z 10012G18KT 2 1/2SM RA BR BKN006 OVC046 12/11 A2982 RMK AO2 PRESFR P0021 $=
201403161313 SPECI KATL 161313Z 15009KT 3SM RA BR BKN005 BKN010 OVC038 12/11 A2985 RMK AO2 BKN005 V SCT P0009 $=
201403161304 SPECI KATL 161304Z 13010G16KT 3SM RA BR SCT005 BKN010 OVC039 12/11 A2984 RMK AO2 P0005 $=
201403161252 METAR KATL 161252Z 12008KT 2 1/2SM RA BR BKN005 OVC010 12/12 A2985 RMK AO2 SLP105 CIG 004V008 P0015 T01220117 $=
201403161247 SPECI KATL 161247Z 14009KT 2 1/2SM RA BR BKN005 OVC010 12/12 A2986 RMK AO2 CIG 004V008 P0013 $=
201403161242 SPECI KATL 161242Z 15009KT 4SM RA BR OVC005 12/12 A2986 RMK AO2 CIG 004V008 P0011 $=
201403161152 METAR KATL 161152Z 11012KT 4SM -RA BR BKN004 BKN015 OVC075 12/11 A2982 RMK AO2 SLP096 P0018 60054 70054 T01220111 10144 20117 56028 $=
201403161118 SPECI KATL 161118Z 11008KT 3SM RA BR BKN004 BKN043 OVC060 12/11 A2986 RMK AO2 P0012 $=
201403161052 METAR KATL 161052Z 11008KT 3SM +RA BR BKN005 BKN048 OVC070 12/11 A2985 RMK AO2 SLP106 P0019 T01170111 $=
201403161019 SPECI KATL 161019Z 11006KT 3SM RA BR FEW005 BKN041 OVC065 12/11 A2987 RMK AO2 P0008 $=
201403160952 METAR KATL 160952Z 12006KT 3SM -RA BR FEW039 BKN050 OVC070 12/11 A2988 RMK AO2 SLP113 P0010 T01220111 $=
201403160937 SPECI KATL 160937Z 11007KT 4SM RA BR FEW021 BKN050 OVC070 12/11 A2988 RMK AO2 P0008 $=
201403160905 SPECI KATL 160905Z 12005KT 5SM -RA BR BKN021 OVC070 12/11 A2990 RMK AO2 P0001 $=
201403160852 METAR KATL 160852Z 14004KT 6SM -RA BR SCT028 SCT046 OVC075 12/10 A2991 RMK AO2 SLP125 P0005 60007 T01220100 58025 $=
201403160752 METAR KATL 160752Z 14003KT 7SM -RA SCT028 BKN040 OVC055 13/10 A2994 RMK AO2 RAB02 SLP134 P0002 T01280100 $=
201403160652 METAR KATL 160652Z 11003KT 10SM BKN034 OVC049 14/09 A2997 RMK AO2 SLP145 T01390089 $=
201403160552 METAR KATL 160552Z 08003KT 10SM FEW065 OVC100 14/09 A2999 RMK AO2 RAE33 SLP151 P0000 60000 T01390089 10172 20133 58009 $=
201403160452 METAR KATL 160452Z 21004KT 7SM -RA SCT065 BKN080 OVC120 14/08 A3002 RMK AO2 RAB41 SLP161 P0000 T01390078 402000100 $=
201403160352 METAR KATL 160352Z 00000KT 10SM FEW080 BKN120 OVC200 14/07 A3000 RMK AO2 SLP157 T01440072 $=
201403160252 METAR KATL 160252Z 00000KT 10SM FEW085 SCT150 OVC200 15/07 A3001 RMK AO2 SLP161 T01500067 58004 $=
201403160152 METAR KATL 160152Z 26003KT 10SM FEW085 OVC200 16/06 A3003 RMK AO2 SLP167 T01610061 $=
201403160052 METAR KATL 160052Z 00000KT 10SM FEW085 BKN200 OVC250 15/06 A3002 RMK AO2 SLP164 T01500056 $=
201403152352 METAR KATL 152352Z 00000KT 10SM FEW060 SCT090 BKN200 OVC250 17/05 A3003 RMK AO2 SLP166 T01720050 10200 20172 56004 $=
201403152252 METAR KATL 152252Z 22005KT 10SM FEW060 SCT100 BKN200 OVC250 18/05 A3003 RMK AO2 SLP166 T01780050 $=
201403152152 METAR KATL 152152Z 23009KT 10SM FEW065 SCT100 BKN200 OVC250 19/05 A3002 RMK AO2 SLP164 T01940050=
201403152052 METAR KATL 152052Z 22009KT 10SM FEW060 BKN100 OVC200 19/05 A3004 RMK AO2 SLP170 T01890050 56021=
201403151952 METAR KATL 151952Z 28008KT 10SM SCT055 BKN110 OVC250 19/05 A3005 RMK AO2 SLP174 T01940050=
201403151852 METAR KATL 151852Z 22007KT 10SM SCT050 BKN110 OVC250 19/06 A3007 RMK AO2 SLP181 T01940056=
201403151752 METAR KATL 151752Z VRB05KT 10SM FEW050 BKN100 BKN250 19/06 A3010 RMK AO2 SLP190 T01890061 10200 20111 58011=
201403151652 METAR KATL 151652Z 26006KT 10SM FEW050 SCT100 BKN250 18/06 A3012 RMK AO2 SLP198 T01830061=
201403151552 METAR KATL 151552Z 33007KT 10SM SCT055 SCT100 BKN250 17/06 A3013 RMK AO2 SLP201 T01720061=
201403151452 METAR KATL 151452Z 28006KT 10SM SCT055 BKN100 OVC250 15/07 A3014 RMK AO2 SLP203 T01500072 51008=
201403151352 METAR KATL 151352Z 27006KT 10SM SCT050 BKN100 OVC250 14/08 A3014 RMK AO2 SLP203 T01390078=
201403151252 METAR KATL 151252Z 24005KT 10SM SCT055 SCT080 BKN110 BKN250 12/07 A3013 RMK AO2 SLP200 T01170067=
201403151152 METAR KATL 151152Z COR 27004KT 10SM FEW080 BKN120 OVC250 11/06 A3011 RMK AO2 SLP196 60002 70002 T01110056 10128 20100 51007=
201403151052 METAR KATL 151052Z 25004KT 10SM FEW060 BKN080 OVC110 12/04 A3011 RMK AO2 SLP194 T01170044=
201403150952 METAR KATL 150952Z 26004KT 10SM FEW055 BKN080 OVC110 12/04 A3010 RMK AO2 SLP191 T01170039=
201403150852 METAR KATL 150852Z 26005KT 10SM BKN090 BKN110 OVC250 11/03 A3009 RMK AO2 SLP187 VIRGA NE-E 60002 T01110028 56008=
201403150752 METAR KATL 150752Z 00000KT 10SM BKN090 BKN110 BKN150 BKN250 10/06 A3009 RMK AO2 SLP189 T01000061=
201403150652 METAR KATL 150652Z 00000KT 10SM FEW085 OVC110 12/03 A3011 RMK AO2 RAB02E28 SLP194 P0002 T01170033=
201403150552 METAR KATL 150552Z 00000KT 10SM BKN090 OVC150 13/M01 A3011 RMK AO2 SLP196 VIRGA OHD-NW-NE T01281011 10161 20128 58012=
201403150452 METAR KATL 150452Z 24003KT 10SM SCT110 BKN150 BKN250 13/M02 A3013 RMK AO2 SLP202 T01281017 401830011=
201403150352 METAR KATL 150352Z 23004KT 10SM SCT110 BKN150 BKN250 13/M02 A3014 RMK AO2 SLP207 T01331017=
201403150252 METAR KATL 150252Z COR 23003KT 10SM BKN110 BKN250 14/M02 A3015 RMK AO2 SLP210 T01391022 51007=
201403150152 METAR KATL 150152Z 23004KT 10SM SCT120 BKN150 BKN250 14/M03 A3015 RMK AO2 SLP210 VIRGA E-S T01441033=
201403150052 METAR KATL 150052Z 22005KT 10SM SCT110 BKN140 BKN250 16/M04 A3014 RMK AO2 SLP207 VIRGA OHD-ALQDS T01561039=
201403142352 METAR KATL 142352Z 23006KT 10SM SCT120 BKN150 BKN250 16/M04 A3013 RMK AO2 SLP205 VIRGA SW-NW ACC SW-W T01611039 10183 20156 55001=
201403142252 METAR KATL 142252Z 24009KT 10SM SCT150 18/M05 A3012 RMK AO2 SLP201 T01781050=
201403142152 METAR KATL 142152Z 20012G16KT 10SM FEW250 18/M06 A3012 RMK AO2 SLP200 T01831056=
201403142052 METAR KATL 142052Z 20008G17KT 10SM FEW070 SCT250 18/M06 A3013 RMK AO2 SLP204 T01781061 56034=
201403141952 METAR KATL 141952Z 21008G19KT 170V240 10SM FEW070 SCT250 17/M07 A3016 RMK AO2 SLP215 T01721067=
201403141852 METAR KATL 141852Z 17004KT 10SM FEW100 SCT230 16/M07 A3020 RMK AO2 SLP226 T01611072=
201403141752 METAR KATL 141752Z 17009KT 10SM FEW250 16/M06 A3023 RMK AO2 SLP240 T01561061 10156 20011 58022=
201403141652 METAR KATL 141652Z 18007KT 10SM FEW250 14/M06 A3027 RMK AO2 SLP255 T01391061=
201403141552 METAR KATL 141552Z 16009KT 10SM CLR 12/M06 A3029 RMK AO2 SLP261 T01171056=
201403141452 METAR KATL 141452Z 19007KT 10SM FEW250 10/M08 A3030 RMK AO2 SLP264 T01001078 53015=
201403141352 METAR KATL 141352Z 14007KT 10SM CLR 07/M06 A3029 RMK AO2 SLP261 T00721056=
201403141252 METAR KATL 141252Z 14004KT 10SM FEW200 03/M04 A3026 RMK AO2 SLP253 T00331044=
201403141152 METAR KATL 141152Z 00000KT 10SM FEW200 01/M03 A3026 RMK AO2 SLP250 T00111028 10050 20011 52010=
201403141052 METAR KATL 141052Z 00000KT 10SM CLR 02/M04 A3024 RMK AO2 SLP246 T00221039=
201403140952 METAR KATL 140952Z 00000KT 10SM CLR 03/M04 A3024 RMK AO2 SLP243 T00281044=
201403140852 METAR KATL 140852Z 00000KT 10SM CLR 03/M04 A3022 RMK AO2 SLP239 T00281044 58006=
201403140752 METAR KATL 140752Z 00000KT 10SM CLR 03/M04 A3023 RMK AO2 SLP242 T00281044=
201403140652 METAR KATL 140652Z 33004KT 10SM CLR 04/M05 A3024 RMK AO2 SLP243 T00441050=
201403140552 METAR KATL 140552Z 28003KT 10SM CLR 04/M06 A3024 RMK AO2 SLP246 T00391056 10094 20033 53002=
201403140452 METAR KATL 140452Z 00000KT 10SM CLR 03/M04 A3024 RMK AO2 SLP244 T00331044 401170011=
201403140352 METAR KATL 140352Z 35003KT 10SM CLR 08/M08 A3024 RMK AO2 SLP244 T00781083=
201403140252 METAR KATL 140252Z 33005KT 10SM CLR 08/M08 A3024 RMK AO2 SLP244 T00781078 52014=
201403140152 METAR KATL 140152Z 00000KT 10SM CLR 07/M07 A3023 RMK AO2 SLP241 T00721067=
201403140052 METAR KATL 140052Z 36005KT 10SM CLR 09/M09 A3020 RMK AO2 SLP233 T00891089=
201403132352 METAR KATL 132352Z 34006KT 10SM CLR 09/M08 A3019 RMK AO2 SLP229 T00941083 10117 20089 53015=
201403132252 METAR KATL 132252Z 32009G15KT 10SM CLR 11/M09 A3017 RMK AO2 SLP223 T01111089=
201403132152 METAR KATL 132152Z 33011KT 10SM CLR 12/M09 A3016 RMK AO2 SLP217 T01171089=
201403132052 METAR KATL 132052Z 32013KT 10SM CLR 11/M08 A3015 RMK AO2 SLP213 T01111083 55007=
201403131952 METAR KATL 131952Z 33008KT 290V360 10SM CLR 11/M07 A3014 RMK AO2 PK WND 30027/1932 SLP212 T01061072=
201403131852 METAR KATL 131852Z 35013G23KT 10SM CLR 10/M07 A3015 RMK AO2 SLP214 T01001072=
201403131752 METAR KATL 131752Z 32010G16KT 10SM CLR 09/M07 A3017 RMK AO2 SLP221 T00891072 10094 20011 50006=
201403131652 METAR KATL 131652Z 35016G22KT 10SM CLR 08/M08 A3017 RMK AO2 PK WND 34029/1641 SLP221 T00781083=
201403131552 METAR KATL 131552Z 33014G23KT 10SM CLR 06/M07 A3016 RMK AO2 PK WND 31028/1529 SLP218 T00611072=
201403131452 METAR KATL 131452Z 33019G26KT 10SM CLR 05/M07 A3015 RMK AO2 PK WND 31027/1422 SLP215 T00501072 51027=
201403131352 METAR KATL 131352Z 31016G26KT 10SM CLR 03/M07 A3013 RMK AO2 PK WND 31026/1348 SLP209 T00281072=
201403131252 METAR KATL 131252Z 33017G23KT 10SM CLR 02/M07 A3010 RMK AO2 SLP200 T00171072=
201403131152 METAR KATL 131152Z 31014G22KT 10SM CLR 01/M06 A3007 RMK AO2 SLP187 T00111061 10039 20011 53021=
201403131052 METAR KATL 131052Z 32016G22KT 10SM CLR 02/M06 A3004 RMK AO2 SLP177 T00171056=
201403130952 METAR KATL 130952Z 32013KT 10SM CLR 02/M06 A3002 RMK AO2 SLP169 T00221056=
201403130852 METAR KATL 130852Z 31017G23KT 10SM FEW046 03/M06 A3000 RMK AO2 SLP162 T00281056 53005=
201403130752 METAR KATL 130752Z 32013G21KT 10SM CLR 03/M06 A2999 RMK AO2 PK WND 32026/0711 SLP157 T00281056=
201403130652 METAR KATL 130652Z 31018G25KT 10SM FEW048 03/M06 A2999 RMK AO2 PK WND 32031/0601 SLP153 T00331056=
201403130552 METAR KATL 130552Z 32013G24KT 10SM FEW048 04/M05 A2999 RMK AO2 PK WND 32028/0509 SLP154 T00391050 10083 20039 51018=
201403130452 METAR KATL 130452Z 34018G24KT 10SM FEW050 05/M04 A2997 RMK AO2 PK WND 32031/0356 SLP148 T00501044 402220050=
201403130352 METAR KATL 130352Z 33022G31KT 10SM FEW042 BKN055 06/M04 A2995 RMK AO2 PK WND 32031/0349 SLP143 T00611044=
201403130252 METAR KATL 130252Z 33018G28KT 10SM FEW042 SCT055 06/M04 A2993 RMK AO2 PK WND 31031/0232 SLP136 T00611039 51034=
201403130152 METAR KATL 130152Z 32018G25KT 10SM BKN042 BKN050 07/M02 A2991 RMK AO2 PK WND 33033/0053 SLP127 T00671022=
201403130052 METAR KATL 130052Z 33024G34KT 10SM FEW035 SCT042 OVC050 07/M02 A2987 RMK AO2 PK WND 31038/2355 SLP115 T00721017=
201403122352 METAR KATL 122352Z 31029G39KT 10SM FEW035 OVC045 08/M01 A2983 RMK AO2 PK WND 30039/2343 SLP099 BINOVC T00831006 10222 20083 51057=
201403122252 METAR KATL 122252Z 31024G35KT 10SM BKN034 OVC045 09/01 A2978 RMK AO2 PK WND 33036/2240 SLP085 BINOVC T00890011=
201403122152 METAR KATL 122152Z 29027G34KT 10SM BKN032 BKN040 11/03 A2973 RMK AO2 PK WND 30039/2138 PRESRR SLP065 T01060028=
201403122052 METAR KATL 122052Z 31023G37KT 10SM FEW038 SCT070 15/06 A2965 RMK AO2 PK WND 31040/2042 SLP038 T01500061 53015=
201403121952 METAR KATL 121952Z 29021G34KT 10SM FEW030 SCT040 BKN070 17/10 A2961 RMK AO2 PK WND 30036/1940 WSHFT 1924 PRESRR SLP021 FROPA T01720100=
201403121941 SPECI KATL 121941Z 29029G36KT 10SM FEW035 SCT045 BKN075 18/11 A2959 RMK AO2 PK WND 30036/1940 WSHFT 1924 PRESRR FROPA=
201403121852 METAR KATL 121852Z 26018G25KT 10SM FEW030 SCT070 21/13 A2957 RMK AO2 PK WND 26026/1812 SLP006 T02110128=
201403121806 SPECI KATL 121806Z 25014G24KT 10SM SCT025 BKN033 BKN042 20/14 A2960 RMK AO2=
201403121752 METAR KATL 121752Z 26017G26KT 10SM BKN025 BKN030 BKN045 20/14 A2961 RMK AO2 PK WND 24027/1739 SLP021 60000 T02000139 10206 20156 56006=
201403121750 SPECI KATL 121750Z 25017G26KT 10SM BKN025 BKN030 BKN045 20/14 A2961 RMK AO2 PK WND 24027/1739=
201403121727 SPECI KATL 121727Z 26015G20KT 10SM SCT025 BKN030 BKN040 19/14 A2961 RMK AO2=
201403121652 METAR KATL 121652Z 25014KT 10SM BKN025 BKN032 OVC043 19/14 A2962 RMK AO2 PK WND 24026/1632 SLP024 BINOVC T01890139=
201403121552 METAR KATL 121552Z 25014G20KT 10SM BKN015 BKN020 BKN030 18/14 A2963 RMK AO2 SLP026 T01830144=
201403121521 SPECI KATL 121521Z 26010G19KT 10SM BKN015 BKN023 BKN030 17/15 A2963 RMK AO2=
201403121452 METAR KATL 121452Z 26010KT 10SM BKN010 BKN015 BKN020 17/15 A2963 RMK AO2 DZE17 SLP026 P0000 60000 T01720150 58000=
201403121417 SPECI KATL 121417Z 26008KT 10SM BKN010 BKN016 OVC022 16/14 A2963 RMK AO2 DZE17 P0000=
201403121352 METAR KATL 121352Z 25009G18KT 6SM -DZ BR BKN010 BKN013 OVC020 16/14 A2963 RMK AO2 RAB44E49DZB49 SLP027 P0000 T01610144=
201403121347 SPECI KATL 121347Z 25013G18KT 6SM -RA BR BKN010 BKN015 OVC020 16/14 A2963 RMK AO2 RAB44 P0000=
201403121252 METAR KATL 121252Z 25008KT 10SM BKN008 BKN013 OVC022 16/14 A2963 RMK AO2 RAB1155E11 SLP026 P0000 T01610144=
201403121152 METAR KATL 121152Z 23007G14KT 7SM SCT005 OVC009 16/14 A2962 RMK AO2 RAE49 SLP024 P0003 60017 70026 T01560144 10156 20156 58001=
201403121052 METAR KATL 121052Z 21010G15KT 4SM -RA BR OVC005 16/14 A2962 RMK AO2 RAE26B49 SLP023 CIG 004V006 P0001 T01560144=
201403120952 METAR KATL 120952Z 21010KT 6SM -RA BR BKN006 OVC014 16/14 A2963 RMK AO2 RAB51 SLP025 CIG 005V009 PCPN VRY LGT P0000 T01560144=
201403120852 METAR KATL 120852Z 18007KT 6SM BR BKN006 BKN013 OVC026 16/14 A2962 RMK AO2 RAE08 SLP024 P0000 60013 T01560144 58035=
201403120752 METAR KATL 120752Z 19007KT 4SM -RA BR OVC005 16/15 A2967 RMK AO2 SLP039 CIG 004V008 P0003 T01560150=
201403120652 METAR KATL 120652Z 21007KT 4SM -RA BR BKN005 BKN024 OVC080 16/14 A2970 RMK AO2 SLP052 CIG 004V007 P0010 T01560144=
201403120606 SPECI KATL 120606Z 22005KT 4SM -RA BR BKN005 OVC065 16/15 A2972 RMK AO2 P0003=
201403120552 METAR KATL 120552Z 23008KT 4SM -RA BR FEW005 SCT050 OVC080 16/14 A2973 RMK AO2 SLP060 P0008 60009 T01560144 10217 20156 58008=
201403120452 METAR KATL 120452Z 22011KT 6SM -RA BR SCT075 BKN090 OVC110 16/14 A2975 RMK AO2 RAB19 SLP068 P0001 T01610139 402560100=
201403120352 METAR KATL 120352Z 21007KT 7SM BKN065 OVC080 19/12 A2974 RMK AO2 RAE0259 SLP065 P0000 T01940117=
201403120252 METAR KATL 120252Z 25003KT 7SM -RA BKN070 OVC100 19/12 A2975 RMK AO2 RAB0158 SLP070 P0000 60000 T01940122 58001=
201403120152 METAR KATL 120152Z 20008KT 9SM BKN080 OVC095 22/11 A2976 RMK AO2 SLP072 T02170106=
201403120052 METAR KATL 120052Z 19005KT 10SM BKN085 OVC250 21/10 A2976 RMK AO2 SLP073 T02110100=
201403112352 METAR KATL 112352Z 20006KT 10SM FEW150 BKN250 22/09 A2976 RMK AO2 SLP072 T02220094 10256 20217 55003=
201403112252 METAR KATL 112252Z 21007KT 10SM FEW150 BKN250 24/09 A2975 RMK AO2 SLP071 T02390094=
201403112152 METAR KATL 112152Z 22006KT 10SM FEW060 BKN250 25/10 A2976 RMK AO2 SLP070 T02500100=
201403112052 METAR KATL 112052Z VRB05KT 10SM FEW060 BKN230 26/10 A2977 RMK AO2 SLP074 T02560100 56027=
201403111952 METAR KATL 111952Z 25005G19KT 10SM FEW055 BKN230 25/10 A2979 RMK AO2 SLP083 T02500100=
201403111852 METAR KATL 111852Z VRB04G17KT 10SM FEW055 SCT230 24/10 A2982 RMK AO2 SLP092 T02390100=
201403111752 METAR KATL 111752Z 26003KT 10SM SCT230 23/09 A2985 RMK AO2 SLP102 T02280094 10233 20100 58017=
201403111652 METAR KATL 111652Z 27008KT 250V330 10SM FEW230 22/10 A2988 RMK AO2 SLP111 T02220100=
201403111552 METAR KATL 111552Z 29008KT 10SM FEW180 SCT250 19/09 A2988 RMK AO2 SLP115 T01940089=
201403111452 METAR KATL 111452Z 30010KT 10SM FEW180 SCT250 17/09 A2990 RMK AO2 SLP121 T01720094 51005=
201403111352 METAR KATL 111352Z 29006KT 10SM FEW250 16/09 A2990 RMK AO2 SLP121 T01560094=
201403111252 METAR KATL 111252Z 27004KT 10SM FEW250 13/09 A2989 RMK AO2 SLP120 T01280089=
201403111152 METAR KATL 111152Z 30006KT 9SM FEW250 11/07 A2988 RMK AO2 SLP117 T01060072 10133 20100 56001=
201403111052 METAR KATL 111052Z 30004KT 10SM CLR 10/07 A2988 RMK AO2 SLP117 T01000067=
201403110952 METAR KATL 110952Z 29004KT 10SM CLR 11/07 A2988 RMK AO2 SLP114 T01110067=
201403110852 METAR KATL 110852Z 28003KT 10SM CLR 12/07 A2989 RMK AO2 SLP116 T01220072 58010=
201403110752 METAR KATL 110752Z 28003KT 10SM CLR 12/07 A2990 RMK AO2 SLP122 T01170067=
201403110652 METAR KATL 110652Z 27004KT 10SM CLR 13/07 A2991 RMK AO2 SLP125 T01330067=
201403110552 METAR KATL 110552Z 28004KT 10SM CLR 13/06 A2992 RMK AO2 SLP127 T01330061 10189 20128 58015=
201403110452 METAR KATL 110452Z 28004KT 10SM CLR 14/06 A2994 RMK AO2 SLP135 T01390056 402220089=
201403110352 METAR KATL 110352Z 26003KT 10SM CLR 14/06 A2996 RMK AO2 SLP142 T01440056=
201403110252 METAR KATL 110252Z 26005KT 10SM CLR 16/06 A2996 RMK AO2 SLP144 T01560056 53008=
201403110152 METAR KATL 110152Z 27006KT 10SM CLR 16/06 A2996 RMK AO2 SLP142 T01610061=
201403110052 METAR KATL 110052Z 24004KT 10SM CLR 17/06 A2994 RMK AO2 SLP138 T01720061=
201403102352 METAR KATL 102352Z 27006KT 10SM CLR 19/07 A2994 RMK AO2 SLP137 T01890067 10222 20189 55003=
201403102252 METAR KATL 102252Z 26012G17KT 10SM CLR 21/06 A2994 RMK AO2 SLP135 T02060056=
201403102152 METAR KATL 102152Z 26014G19KT 10SM CLR 22/07 A2993 RMK AO2 SLP134 T02170067=
201403102052 METAR KATL 102052Z COR 27014KT 10SM FEW055 22/06 A2995 RMK AO2 SLP138 T02220061 56030=
201403101952 METAR KATL 101952Z 26010G17KT 10SM FEW050 22/07 A2997 RMK AO2 SLP147 T02220072=
201403101852 METAR KATL 101852Z 31014G17KT 10SM FEW040 21/08 A3000 RMK AO2 SLP155 T02110078=
201403101752 METAR KATL 101752Z 31013G17KT 10SM FEW031 20/08 A3004 RMK AO2 SLP170 T02000078 10200 20089 58017=
201403101652 METAR KATL 101652Z 27013G17KT 10SM FEW031 19/08 A3007 RMK AO2 SLP178 T01890083=
201403101552 METAR KATL 101552Z 28015G20KT 10SM SCT031 17/08 A3009 RMK AO2 SLP187 T01720083=
201403101452 METAR KATL 101452Z 31011G15KT 10SM FEW035 15/07 A3009 RMK AO2 SLP188 T01500072 51002=
201403101352 METAR KATL 101352Z 35008G14KT 9SM FEW035 13/06 A3009 RMK AO2 SLP188 T01280061=
201403101252 METAR KATL 101252Z 32008KT 8SM FEW035 11/06 A3009 RMK AO2 SLP189 T01060061=
201403101152 METAR KATL 101152Z 31006KT 8SM CLR 09/05 A3009 RMK AO2 SLP186 T00890050 10117 20089 53005=
201403101052 METAR KATL 101052Z 31005KT 10SM CLR 09/05 A3007 RMK AO2 SLP182 T00890050=
201403100952 METAR KATL 100952Z 27003KT 10SM CLR 09/05 A3007 RMK AO2 SLP180 T00940050 $=
201403100852 METAR KATL 100852Z 30005KT 10SM CLR 10/05 A3007 RMK AO2 SLP179 T01000050 56014 $=
201403100752 METAR KATL 100752Z 30005KT 10SM CLR 10/05 A3007 RMK AO2 SLP182 T01000050 $=
201403100652 METAR KATL 100652Z 32006KT 10SM CLR 11/05 A3010 RMK AO2 SLP191 T01060050 $=
201403100552 METAR KATL 100552Z 31005KT 10SM CLR 12/05 A3011 RMK AO2 SLP194 T01170050 10172 20117 56009 $=
201403100452 METAR KATL 100452Z 31006KT 10SM FEW250 13/05 A3012 RMK AO2 SLP197 T01280050 402170094 $=
201403100352 METAR KATL 100352Z 29007KT 10SM FEW200 SCT250 13/05 A3013 RMK AO2 SLP200 T01330050 $=
201403100252 METAR KATL 100252Z 30005KT 10SM SCT200 BKN250 14/06 A3014 RMK AO2 SLP204 T01440056 53013 $=
201403100152 METAR KATL 100152Z 30007KT 10SM BKN200 BKN250 16/06 A3012 RMK AO2 SLP197 T01560056 $=
201403100052 METAR KATL 100052Z 31006KT 10SM SCT200 BKN250 16/05 A3011 RMK AO2 SLP194 T01610050 $=
201403092352 METAR KATL 092352Z 30008KT 10SM FEW120 SCT200 BKN250 17/05 A3010 RMK AO2 SLP192 T01720050 10217 20172 53000 $=
201403092252 METAR KATL 092252Z 29011KT 10SM FEW120 SCT200 SCT250 19/05 A3009 RMK AO2 SLP187 T01940050 $=
201403092152 METAR KATL 092152Z 27007KT 10SM FEW070 SCT200 SCT250 21/06 A3009 RMK AO2 SLP187 T02110056 $=
201403092052 METAR KATL 092052Z 28009KT 10SM FEW070 SCT120 SCT250 22/06 A3010 RMK AO2 SLP189 T02170061 56020 $=
201403091952 METAR KATL 091952Z 27007G17KT 10SM SCT120 21/06 A3011 RMK AO2 SLP193 T02060056 $=
201403091852 METAR KATL 091852Z 29011KT 10SM FEW150 20/06 A3013 RMK AO2 SLP200 T02000056 $=
201403091752 METAR KATL 091752Z 31012G19KT 10SM FEW150 19/04 A3016 RMK AO2 SLP211 T01890039 10189 20094 58007 $=
201403091652 METAR KATL 091652Z 31006KT 10SM FEW150 SCT250 17/04 A3017 RMK AO2 SLP215 T01720039 $=
201403091552 METAR KATL 091552Z 31010KT 10SM FEW150 SCT250 16/05 A3018 RMK AO2 SLP218 T01610050 $=
201403091452 METAR KATL 091452Z 32010KT 10SM FEW150 SCT250 14/06 A3018 RMK AO2 SLP219 T01440061 51009 $=
201403091352 METAR KATL 091352Z 31008KT 10SM FEW150 SCT250 12/06 A3018 RMK AO2 SLP218 T01220056 $=
201403091252 METAR KATL 091252Z 28005KT 10SM FEW150 11/06 A3017 RMK AO2 SLP216 T01060056 $=
201403091152 METAR KATL 091152Z 29005KT 10SM FEW120 SCT200 09/05 A3015 RMK AO2 SLP211 T00940050 10122 20094 51015 $=
201403091052 METAR KATL 091052Z 29006KT 10SM FEW180 09/05 A3015 RMK AO2 SLP207 T00940050 $=
201403090952 METAR KATL 090952Z 28005KT 10SM FEW180 10/05 A3012 RMK AO2 SLP196 T01000050 $=
201403090852 METAR KATL 090852Z 28005KT 10SM FEW130 SCT180 11/06 A3011 RMK AO2 SLP193 T01060056 56008 $=
201403090752 METAR KATL 090752Z COR 28007KT 10SM SCT130 BKN180 11/06 A3011 RMK AO2 SLP195 T01110056 $=
201403090652 METAR KATL 090652Z 26005KT 10SM FEW070 SCT130 SCT200 BKN250 12/06 A3012 RMK AO2 SLP198 T01170056 $=
201403090552 METAR KATL 090552Z 27007KT 10SM SCT200 BKN250 12/06 A3013 RMK AO2 SLP201 T01220056 10167 20117 51003 $=
201403090452 METAR KATL 090452Z 28007KT 10SM SCT200 BKN250 12/06 A3013 RMK AO2 SLP200 T01220056 402110056 $=
201403090352 METAR KATL 090352Z 28007KT 10SM FEW200 SCT250 13/06 A3013 RMK AO2 SLP202 T01280056 $=
201403090252 METAR KATL 090252Z 28007KT 10SM FEW200 SCT250 13/06 A3012 RMK AO2 SLP200 T01330056 52013 $=
201403090152 METAR KATL 090152Z 27005KT 10SM FEW200 SCT250 15/05 A3011 RMK AO2 SLP196 T01500050 $=
201403090052 METAR KATL 090052Z 27005KT 10SM SCT200 SCT250 16/05 A3010 RMK AO2 SLP193 T01560050 $=
201403082352 METAR KATL 082352Z 27005KT 10SM FEW200 SCT250 16/05 A3008 RMK AO2 SLP188 T01610050 10211 20161 53004 $=
201403082252 METAR KATL 082252Z 28010KT 10SM SCT250 19/05 A3007 RMK AO2 SLP181 T01890050 $=
201403082152 METAR KATL 082152Z 29008KT 10SM FEW050 SCT250 21/04 A3007 RMK AO2 SLP179 T02060044 $=
201403082052 METAR KATL 082052Z 25011KT 10SM FEW055 SCT250 21/04 A3007 RMK AO2 SLP182 T02060039 56018 $=
201403081952 METAR KATL 081952Z 25011G16KT 10SM FEW055 SCT250 20/04 A3009 RMK AO2 SLP187 T02000039 $=
201403081852 METAR KATL 081852Z 29007G15KT 250V340 10SM FEW050 SCT250 19/05 A3010 RMK AO2 SLP191 T01940050 $=
201403081752 METAR KATL 081752Z 28010G15KT 10SM FEW050 SCT250 18/04 A3013 RMK AO2 SLP202 T01830044 10189 20056 58009 $=
201403081652 METAR KATL 081652Z 27011G15KT 10SM SCT250 17/05 A3015 RMK AO2 SLP210 T01720050 $=
201403081552 METAR KATL 081552Z 29005KT 10SM FEW180 BKN250 14/04 A3016 RMK AO2 SLP214 T01440044 $=
201403081452 METAR KATL 081452Z 31007KT 10SM FEW180 BKN250 12/05 A3015 RMK AO2 SLP212 T01220050 51019 $=
201403081352 METAR KATL 081352Z 30007KT 10SM BKN250 09/06 A3014 RMK AO2 SLP208 T00940056 $=
201403081252 METAR KATL 081252Z 30004KT 10SM SCT250 07/05 A3012 RMK AO2 SLP202 T00720050 $=
201403081152 METAR KATL 081152Z 28005KT 10SM FEW250 06/04 A3010 RMK AO2 SLP193 70004 T00560039 10078 20056 53019 $=
201403081052 METAR KATL 081052Z 30005KT 10SM FEW250 06/04 A3007 RMK AO2 SLP184 T00610039 $=
201403080952 METAR KATL 080952Z 28004KT 10SM FEW250 08/05 A3005 RMK AO2 SLP175 T00780050 $=
201403080852 METAR KATL 080852Z 24004KT 10SM SCT250 07/04 A3004 RMK AO2 SLP173 T00670044 53002 $=
201403080752 METAR KATL 080752Z 25005KT 10SM BKN250 07/05 A3004 RMK AO2 SLP171 T00720050 $=
201403080652 METAR KATL 080652Z 19003KT 10SM BKN250 07/05 A3003 RMK AO2 SLP171 T00720050 $=
201403080552 METAR KATL 080552Z 00000KT 10SM BKN250 07/04 A3003 RMK AO2 SLP172 T00720044 10128 20072 50003 $=
201403080452 METAR KATL 080452Z 00000KT 10SM BKN250 08/05 A3004 RMK AO2 SLP173 T00830050 401500028 $=
201403080352 METAR KATL 080352Z 27003KT 10SM SCT250 09/05 A3004 RMK AO2 SLP175 T00890050 $=
201403080252 METAR KATL 080252Z 26003KT 10SM FEW250 09/05 A3003 RMK AO2 SLP170 T00890050 51014 $=
201403080152 METAR KATL 080152Z 28003KT 10SM FEW250 11/06 A3002 RMK AO2 SLP168 T01060061 $=
201403080052 METAR KATL 080052Z 27003KT 10SM FEW045 11/06 A3000 RMK AO2 SLP162 T01110056 $=
201403072352 METAR KATL 072352Z 32005KT 10SM FEW045 13/06 A2999 RMK AO2 SLP155 T01280056 10150 20117 51014 $=
201403072252 METAR KATL 072252Z 33005KT 10SM FEW040 BKN048 14/06 A2997 RMK AO2 SLP151 T01390056 $=
201403072152 METAR KATL 072152Z 31006KT 10SM OVC038 14/06 A2996 RMK AO2 SLP147 T01440061 $=
201403072052 METAR KATL 072052Z 34007KT 10SM BKN033 14/06 A2994 RMK AO2 SLP141 T01440056 55015=
201403071952 METAR KATL 071952Z 03008G14KT 10SM BKN030 14/06 A2994 RMK AO2 SLP140 T01440061=
201403071852 METAR KATL 071852Z 35007KT 320V020 10SM SCT024 BKN030 13/06 A2996 RMK AO2 SLP148 T01330061=
201403071752 METAR KATL 071752Z 35008KT 10SM BKN020 BKN030 BKN250 12/07 A2999 RMK AO2 SLP158 60004 T01220067 10122 20056 58012=
201403071652 METAR KATL 071652Z 03011KT 10SM BKN019 BKN070 BKN250 11/06 A3001 RMK AO2 SLP168 T01060061=
201403071618 SPECI KATL 071618Z 04011KT 10SM BKN016 BKN050 OVC070 10/07 A3002 RMK AO2=
201403071552 METAR KATL 071552Z 03009G17KT 10SM SCT012 BKN030 OVC050 09/06 A3002 RMK AO2 RAE42 SLP171 P0000 T00890056=
201403071452 METAR KATL 071452Z 02010KT 7SM -RA SCT006 BKN010 OVC020 07/06 A3002 RMK AO2 SLP172 P0001 60004 T00720056 51019=
201403071355 SPECI KATL 071355Z 34009KT 6SM -RA BR FEW004 BKN023 OVC033 06/05 A3001 RMK AO2 P0000=
201403071352 METAR KATL 071352Z 34010KT 2SM -RA BR FEW004 SCT015 OVC033 06/05 A3001 RMK AO2 SFC VIS 5 SLP167 P0001 T00610050=
201403071347 SPECI KATL 071347Z 34009KT 2SM -RA BR FEW004 SCT014 OVC033 06/05 A3001 RMK AO2 SFC VIS 5 CIG 012V016 P0001=
201403071330 SPECI KATL 071330Z 33010KT 2SM -RA BR FEW004 BKN012 OVC020 06/04 A3001 RMK AO2 CIG 010V014 P0001=
201403071252 METAR KATL 071252Z 32008KT 2SM -RA BR BKN010 OVC018 06/04 A2999 RMK AO2 SFC VIS 2 1/2 SLP161 CIG 008V012 P0002 T00560044=
201403071219 SPECI KATL 071219Z 33006KT 2SM -RA BR BKN010 OVC018 06/04 A2998 RMK AO2 SFC VIS 3 CIG 008V012 P0001=
201403071152 METAR KATL 071152Z 34004KT 3SM -RA BR OVC008 06/04 A2996 RMK AO2 DZE31RAB31 SLP152 CIG 006V010 P0002 60016 70039 T00560044 10056 20028 53016=
201403071100 SPECI KATL 071100Z 35007KT 4SM -DZ BR OVC008 05/04 A2994 RMK AO2 CIG 006V010 P0000 $=
201403071052 METAR KATL 071052Z 33005KT 4SM -DZ BR FEW006 OVC010 05/04 A2994 RMK AO2 SLP143 CIG 008V012 P0000 T00500039 $=
201403070952 METAR KATL 070952Z 36006KT 4SM -DZ BR SCT006 BKN014 OVC022 05/04 A2993 RMK AO2 RAE35DZB35 SLP139 CIG 012V017 P0003 T00500039 $=
201403070936 SPECI KATL 070936Z 02005KT 3SM -DZ BR SCT006 BKN014 OVC022 04/04 A2992 RMK AO2 RAE35DZB35 P0002 $=
201403070852 METAR KATL 070852Z 02007KT 2SM -RA BR BKN005 BKN018 OVC040 04/03 A2992 RMK AO2 RAE11B27DZB12E27 SLP136 CIG 004V007 P0002 60011 T00440033 56014 $=
201403070827 SPECI KATL 070827Z 03008KT 2SM -RA BR OVC006 04/03 A2992 RMK AO2 RAE11B27DZB12E27 CIG 004V007 P0001 $=
201403070812 SPECI KATL 070812Z 03008KT 3SM -DZ BR OVC005 04/03 A2992 RMK AO2 RAE11DZB12 CIG 004V007 P0000 $=
201403070752 METAR KATL 070752Z 03007KT 2 1/2SM -RA BR OVC005 03/03 A2992 RMK AO2 SLP138 CIG 004V007 P0004 T00330028 $=
201403070652 METAR KATL 070652Z 04007KT 2SM -RA BR BKN005 OVC011 03/02 A2994 RMK AO2 SLP144 CIG 003V007 P0005 T00330022 $=
201403070552 METAR KATL 070552Z 06009KT 2 1/2SM -RA BR BKN007 OVC015 03/02 A2996 RMK AO2 SLP150 CIG 005V009 P0003 60018 T00280017 10033 20022 58009 $=
201403070521 SPECI KATL 070521Z 08007KT 2 1/2SM -RA BR BKN006 OVC015 03/02 A2997 RMK AO2 CIG 004V008 P0002 $=
201403070452 METAR KATL 070452Z 07009KT 4SM -RA BR BKN007 OVC015 03/02 A2997 RMK AO2 SLP156 CIG 005V009 P0002 T00280017 400830022 $=
201403070352 METAR KATL 070352Z 06010G18KT 5SM -RA BR BKN009 OVC015 03/02 A2998 RMK AO2 SLP159 P0001 T00280017 $=
201403070252 METAR KATL 070252Z 07012KT 4SM -RA BR BKN007 OVC015 03/02 A2999 RMK AO2 SLP161 CIG 005V009 P0007 60012 T00280017 50002 $=
201403070152 METAR KATL 070152Z 07013KT 2 1/2SM -RA BR BKN007 OVC015 02/01 A2999 RMK AO2 SLP162 CIG 005V009 P0002 T00220011 $=
201403070115 SPECI KATL 070115Z 07011KT 3SM -RA BR BKN007 BKN015 OVC030 03/01 A2999 RMK AO2 P0001 $=
201403070052 METAR KATL 070052Z 07014KT 2 1/2SM -RA BR SCT005 BKN010 OVC030 03/01 A2999 RMK AO2 RAB2355 SLP161 P0003 T00280011 $=
201403070027 SPECI KATL 070027Z 06013KT 2 1/2SM -RA BR SCT008 BKN011 OVC035 03/01 A3000 RMK AO2 RAB2355 P0000 $=
201403070020 SPECI KATL 070020Z 08013KT 3SM -RA BR FEW009 BKN012 OVC035 03/01 A3000 RMK AO2 RAB2355 P0000 $=
201403062352 METAR KATL 062352Z 06014G21KT 9SM SCT012 BKN016 OVC040 03/01 A2998 RMK AO2 PK WND 06026/2337 RAE50 SLP159 P0000 60005 T00280006 10061 20028 58014 $=
201403062328 SPECI KATL 062328Z 05014KT 8SM -RA SCT014 BKN028 OVC050 03/00 A3000 RMK AO2 P0000 $=
201403062257 SPECI KATL 062257Z 05016G22KT 9SM -RA FEW010 SCT025 OVC065 03/M01 A3001 RMK AO2 P0000 $=
201403062252 METAR KATL 062252Z 05015G23KT 9SM -RA FEW010 BKN025 OVC065 03/M01 A3001 RMK AO2 SLP168 P0000 T00331006 $=
201403062152 METAR KATL 062152Z 06016G21KT 8SM -RA FEW028 BKN035 OVC080 03/M01 A3002 RMK AO2 SLP172 P0001 T00331006 $=
201403062132 SPECI KATL 062132Z 05014KT 8SM -RA BKN028 BKN040 OVC065 03/M01 A3003 RMK AO2 P0001 $=
201403062052 METAR KATL 062052Z 05011KT 6SM -RA BKN030 OVC045 04/M02 A3005 RMK AO2 SLP183 P0004 60004 T00391017 55002 $=
201403061952 METAR KATL 061952Z 07010G21KT 9SM -RA BKN030 OVC050 05/M03 A3004 RMK AO2 PK WND 06027/1911 RAB1859E06B22 SLP176 P0000 T00501033 $=
201403061852 METAR KATL 061852Z 08018G25KT 10SM BKN030 BKN040 OVC050 06/M08 A3004 RMK AO2 PK WND 06029/1801 SLP176 T00611078 $=
201403061752 METAR KATL 061752Z 07020G26KT 10SM BKN030 BKN040 OVC050 06/M09 A3006 RMK AO2 PK WND 09030/1658 SLP184 T00561089 10056 20044 58019 $=
201403061652 METAR KATL 061652Z 08024G29KT 10SM BKN028 BKN040 OVC050 05/M09 A3009 RMK AO2 PK WND 08029/1652 SLP195 T00501089 $=
201403061647 SPECI KATL 061647Z 09019G24KT 10SM BKN029 BKN040 OVC050 05/M09 A3010 RMK AO2 PK WND 07028/1622 $=
201403061552 METAR KATL 061552Z 09019G26KT 10SM SCT030 BKN040 OVC050 05/M08 A3012 RMK AO2 PK WND 08030/1540 SLP203 BINOVC DSNT NW-N-NE T00501083 $=
201403061452 METAR KATL 061452Z 08019G26KT 10SM FEW030 BKN035 OVC040 04/M07 A3015 RMK AO2 PK WND 08029/1438 SLP214 T00441067 52005 $=
201403061352 METAR KATL 061352Z 07018G26KT 10SM OVC032 04/M05 A3016 RMK AO2 PK WND 08028/1304 PRESRR SLP218 T00441050=
201403061341 SPECI KATL 061341Z 07019G25KT 10SM OVC030 04/M04 A3015 RMK AO2 PK WND 08028/1304=
201403061252 METAR KATL 061252Z 08023G28KT 10SM OVC027 04/M04 A3012 RMK AO2 PK WND 07029/1238 SLP203 CIG 025V033 T00441044=
201403061152 METAR KATL 061152Z 08015KT 10SM BKN028 BKN150 OVC200 05/M02 A3014 RMK AO2 SLP208 T00501022 10078 20050 53013=
201403061052 METAR KATL 061052Z 09017G23KT 10SM BKN026 BKN150 OVC200 05/M01 A3012 RMK AO2 SLP200 T00501011 $=
201403060959 SPECI KATL 060959Z 08014KT 10SM BKN028 BKN150 OVC200 06/00 A3010 RMK AO2 $=
201403060952 METAR KATL 060952Z 08013KT 10SM SCT028 BKN150 OVC200 06/00 A3010 RMK AO2 SLP196 T00560000 $=
201403060852 METAR KATL 060852Z 08012KT 10SM BKN200 OVC250 06/03 A3010 RMK AO2 SLP193 T00560033 58010 $=
201403060752 METAR KATL 060752Z 08009KT 10SM BKN200 BKN250 06/04 A3011 RMK AO2 SLP197 T00560039 $=
201403060652 METAR KATL 060652Z 08007KT 10SM SCT200 BKN250 06/04 A3013 RMK AO2 SLP206 T00610039 $=
201403060552 METAR KATL 060552Z 12007KT 10SM FEW200 BKN250 08/04 A3013 RMK AO2 SLP205 T00780039 10128 20078 53001 $=
201403060452 METAR KATL 060452Z 11005KT 10SM SCT200 BKN250 08/04 A3012 RMK AO2 SLP203 T00830044 401500011 $=
201403060352 METAR KATL 060352Z 10007KT 10SM BKN200 BKN250 09/04 A3011 RMK AO2 SLP201 T00940044 $=
201403060252 METAR KATL 060252Z 13004KT 10SM BKN200 OVC250 10/05 A3012 RMK AO2 SLP205 T01000050 53010 $=
201403060152 METAR KATL 060152Z 13006KT 10SM BKN200 OVC250 11/04 A3011 RMK AO2 SLP201 T01110039 $=
201403060052 METAR KATL 060052Z 11005KT 10SM BKN200 BKN250 12/03 A3009 RMK AO2 SLP195 T01220033 $=
201403052352 METAR KATL 052352Z 14004KT 10SM BKN200 BKN250 13/03 A3010 RMK AO2 SLP195 T01280033 10150 20089 53012 $=
201403052252 METAR KATL 052252Z VRB03KT 10SM SCT200 BKN250 13/03 A3007 RMK AO2 SLP186 T01330028 $=
201403052152 METAR KATL 052152Z 08005KT 10SM FEW040 SCT200 BKN250 14/03 A3006 RMK AO2 SLP182 T01440033 $=
201403052052 METAR KATL 052052Z 13003KT 10SM SCT250 14/03 A3006 RMK AO2 SLP183 T01390033 56020=
201403051952 METAR KATL 051952Z 00000KT 10SM FEW250 13/03 A3007 RMK AO2 SLP186 T01280028=
201403051852 METAR KATL 051852Z 07004KT 10SM FEW250 11/03 A3008 RMK AO2 SLP190 T01110028=
201403051752 METAR KATL 051752Z 00000KT 10SM FEW030 SCT150 SCT250 09/02 A3012 RMK AO2 SLP205 T00940017 10094 20011 58015=
201403051652 METAR KATL 051652Z 13008KT 10SM FEW020 SCT050 BKN250 08/01 A3015 RMK AO2 SLP217 T00780006=
201403051552 METAR KATL 051552Z 10005KT 10SM FEW017 SCT050 BKN150 BKN250 06/M01 A3017 RMK AO2 SLP222 T00561011=
201403051525 SPECI KATL 051525Z 08005KT 10SM BKN015 BKN050 BKN250 06/M01 A3017 RMK AO2=
201403051500 SPECI KATL 051500Z 08007KT 040V110 10SM BKN015 04/M02 A3017 RMK AO2=
201403051452 METAR KATL 051452Z 08008KT 10SM FEW015 SCT050 SCT250 04/M02 A3017 RMK AO2 SLP223 T00441017 50005=
201403051352 METAR KATL 051352Z 08007KT 10SM FEW016 SCT047 BKN180 BKN250 02/M03 A3018 RMK AO2 SLP227 T00171028=
201403051252 METAR KATL 051252Z 09007KT 10SM FEW016 SCT047 BKN220 01/M03 A3015 RMK AO2 SLP219 T00111028=
201403051221 SPECI KATL 051221Z 08009KT 10SM SCT016 BKN047 BKN220 01/M02 A3014 RMK AO2=
201403051152 METAR KATL 051152Z 09006KT 10SM OVC016 01/M03 A3015 RMK AO2 SLP218 60000 70008 T00111028 10011 20011 53007=
201403051129 SPECI KATL 051129Z 07005KT 10SM BKN017 BKN095 OVC150 01/M03 A3015 RMK AO2=
201403051052 METAR KATL 051052Z 05008KT 10SM SCT043 BKN095 BKN150 OVC250 01/M02 A3014 RMK AO2 SLP213 T00111022=
201403050952 METAR KATL 050952Z 07008KT 10SM SCT095 BKN150 OVC250 01/M02 A3012 RMK AO2 SLP206 T00111022=
201403050852 METAR KATL 050852Z 07007KT 10SM FEW036 BKN100 OVC250 01/M02 A3013 RMK AO2 SLP210 60000 T00111022 58005=
201403050752 METAR KATL 050752Z 02006KT 10SM FEW009 BKN034 OVC100 01/M02 A3016 RMK AO2 SLP218 T00111017=
201403050652 METAR KATL 050652Z 10008KT 10SM FEW009 OVC032 01/M01 A3014 RMK AO2 RAE51 SLP212 P0000 T00111011=
201403050619 SPECI KATL 050619Z 10008KT 10SM -RA BKN030 OVC050 01/M02 A3014 RMK AO2 P0000=
201403050552 METAR KATL 050552Z 11006KT 10SM -RA BKN025 OVC050 01/M01 A3015 RMK AO2 SLP216 P0001 60008 T00111011 10050 20011 50007=
201403050452 METAR KATL 050452Z 17005KT 9SM -RA BKN022 OVC060 02/M01 A3017 RMK AO2 SLP226 P0002 T00171011 400670006=
201403050352 METAR KATL 050352Z 10008KT 8SM -RA FEW025 BKN060 OVC085 02/M01 A3014 RMK AO2 SLP213 P0005 T00221011=
201403050252 METAR KATL 050252Z 09008KT 10SM -RA FEW045 OVC060 03/M03 A3013 RMK AO2 SLP208 P0000 60000 T00331028 56004=
201403050152 METAR KATL 050152Z 09005KT 10SM -RA SCT028 BKN045 OVC075 04/M04 A3014 RMK AO2 SLP212 P0000 T00441044=
201403050052 METAR KATL 050052Z 10008KT 10SM -RA SCT028 BKN050 OVC080 04/M04 A3012 RMK AO2 RAE05B49 SLP206 P0000 T00441044=
201403042352 METAR KATL 042352Z 10007KT 10SM -RA BKN028 OVC080 05/M04 A3014 RMK AO2 RAB51 SLP212 PCPN VRY LGT P0000 60000 T00501044 10067 20044 50001=
201403042252 METAR KATL 042252Z 13004KT 10SM BKN030 OVC150 06/M05 A3015 RMK AO2 SLP216 T00561050=
201403042152 METAR KATL 042152Z 11003KT 10SM OVC030 06/M06 A3016 RMK AO2 SLP218 T00561056=
201403042052 METAR KATL 042052Z 06003KT 10SM OVC030 06/M04 A3013 RMK AO2 SLP210 T00561044 55014=
201403041952 METAR KATL 041952Z 08007KT 10SM OVC030 06/M05 A3013 RMK AO2 SLP209 T00561050=
201403041852 METAR KATL 041852Z 09009KT 10SM OVC030 06/M04 A3014 RMK AO2 SLP213 T00561044=
201403041752 METAR KATL 041752Z 06009KT 10SM OVC030 05/M04 A3018 RMK AO2 SLP225 T00501044 10050 20022 58005=
201403041714 SPECI KATL 041714Z 06008KT 10SM FEW026 OVC030 04/M05 A3019 RMK AO2=
201403041652 METAR KATL 041652Z 05010KT 10SM BKN026 OVC030 04/M05 A3019 RMK AO2 SLP232 T00391050=
201403041552 METAR KATL 041552Z 09009KT 10SM BKN024 OVC030 04/M04 A3019 RMK AO2 SLP233 T00391039=
201403041452 METAR KATL 041452Z 08011KT 10SM BKN022 OVC030 03/M04 A3019 RMK AO2 SLP231 T00281044 53008=
201403041352 METAR KATL 041352Z 08016KT 10SM OVC024 02/M06 A3017 RMK AO2 SLP225 T00221056=
201403041252 METAR KATL 041252Z 07018G21KT 10SM FEW018 OVC028 02/M04 A3017 RMK AO2 SLP225 T00221044=
201403041152 METAR KATL 041152Z 07009KT 10SM FEW019 OVC032 03/M02 A3017 RMK AO2 SLP222 70010 T00281017 10033 20011 53019=
201403041117 SPECI KATL 041117Z 07015G19KT 10SM SCT019 OVC030 03/M02 A3016 RMK AO2 PRESRR=
201403041052 METAR KATL 041052Z 09013KT 10SM BKN019 OVC030 03/M01 A3014 RMK AO2 SLP214 T00281011=
201403041026 SPECI KATL 041026Z 08010KT 10SM BKN019 OVC030 03/M01 A3012 RMK AO2=
201403040952 METAR KATL 040952Z 09012KT 10SM SCT017 OVC030 03/M01 A3011 RMK AO2 SLP203 T00281011=
201403040920 SPECI KATL 040920Z 08009KT 10SM SCT017 OVC032 03/M01 A3010 RMK AO2=
201403040852 METAR KATL 040852Z 07010KT 10SM OVC016 03/M01 A3011 RMK AO2 SLP201 T00331006 58007=
201403040752 METAR KATL 040752Z 04006KT 10SM FEW009 OVC016 03/00 A3013 RMK AO2 SLP209 T00280000=
201403040652 METAR KATL 040652Z 35006KT 9SM FEW009 BKN025 OVC032 01/M01 A3013 RMK AO2 SLP209 T00111006=
201403040641 SPECI KATL 040641Z 33006KT 9SM SCT009 OVC028 01/M01 A3014 RMK AO2=
201403040552 METAR KATL 040552Z 32006KT 9SM SCT008 BKN013 OVC030 01/M01 A3013 RMK AO2 SLP208 T00111011 10033 20006 50005=
201403040452 METAR KATL 040452Z 34010KT 8SM BKN009 BKN013 OVC020 01/M01 A3014 RMK AO2 SLP209 T00061011 401560006=
201403040352 METAR KATL 040352Z 35009KT 10SM BKN013 OVC020 01/M02 A3014 RMK AO2 SLP209 T00111017=
201403040304 SPECI KATL 040304Z 34011KT 10SM SCT014 OVC022 01/M02 A3011 RMK AO2=
201403040252 METAR KATL 040252Z 35014G17KT 10SM BKN014 OVC025 01/M02 A3012 RMK AO2 SLP201 T00111017 53017=
201403040152 METAR KATL 040152Z 34014KT 10SM OVC013 02/M02 A3009 RMK AO2 SLP192 T00171017=
201403040052 METAR KATL 040052Z 33012G18KT 10SM BKN013 OVC020 02/M01 A3007 RMK AO2 SLP186 T00221011=
201403032352 METAR KATL 032352Z 32017G23KT 10SM BKN012 OVC020 03/01 A3006 RMK AO2 SLP183 T00330006 10106 20033 52029=
201403032252 METAR KATL 032252Z 30014G23KT 10SM BKN012 OVC020 04/01 A3003 RMK AO2 SLP172 T00390006=
201403032243 SPECI KATL 032243Z 31016G21KT 10SM BKN011 OVC020 04/01 A3003 RMK AO2=
201403032152 METAR KATL 032152Z 32014G19KT 10SM BKN008 BKN012 OVC020 04/02 A3000 RMK AO2 SLP161 T00440022=
201403032054 SPECI KATL 032054Z 30012KT 10SM BKN008 BKN010 OVC020 06/03 A2998 RMK AO2=
201403032052 METAR KATL 032052Z 30011KT 10SM SCT008 BKN010 OVC020 06/03 A2997 RMK AO2 PK WND 30026/2013 SLP152 T00560033 53018=
201403031952 METAR KATL 031952Z 29016G21KT 10SM BKN010 BKN015 OVC018 08/05 A2995 RMK AO2 SLP142 T00780050=
201403031903 SPECI KATL 031903Z 31015G20KT 10SM BKN010 BKN015 OVC020 09/07 A2992 RMK AO2=
201403031852 METAR KATL 031852Z 32016KT 9SM BKN008 BKN014 BKN020 09/07 A2992 RMK AO2 SLP133 T00890067=
201403031841 SPECI KATL 031841Z 32015KT 9SM BKN008 BKN014 BKN020 09/07 A2992 RMK AO2=
201403031757 SPECI KATL 031757Z 29014G19KT 9SM BKN011 BKN017 OVC020 11/09 A2992 RMK AO2=
201403031752 METAR KATL 031752Z 29014KT 8SM FEW009 BKN017 OVC020 11/09 A2992 RMK AO2 PK WND 31027/1658 RAE1655 SLP131 P0000 60010 T01060089 10156 20106 53018=
201403031740 SPECI KATL 031740Z 29016G26KT 8SM FEW009 BKN017 OVC020 11/09 A2992 RMK AO2 PK WND 31027/1658 RAE1655 P0000=
201403031652 METAR KATL 031652Z 30014G25KT 6SM -RA BR BKN009 OVC013 14/12 A2989 RMK AO2 WSHFT 1633 DZE30RAB30 SLP119 FROPA P0001 T01390122=
201403031552 METAR KATL 031552Z 23009G18KT 6SM -DZ BR OVC007 15/14 A2987 RMK AO2 RAE49DZB49 SLP112 P0001 T01500139=
201403031452 METAR KATL 031452Z 23013G18KT 6SM -RA BR OVC007 15/13 A2986 RMK AO2 RAB35 SLP109 CIG 006V010 P0000 60008 T01500133 55004=
201403031354 SPECI KATL 031354Z 23011G16KT 8SM OVC007 14/13 A2985 RMK AO2 CIG 006V010=
201403031352 METAR KATL 031352Z 23011G16KT 2 1/2SM OVC007 14/13 A2985 RMK AO2 SFC VIS 8 RAE19 SLP105 P0001 T01440133=
201403031252 METAR KATL 031252Z 20012KT 2 1/2SM -RA BR BKN006 BKN034 OVC090 13/12 A2985 RMK AO2 SFC VIS 4 SLP106 CIG 005V008 P0007 T01280122=
201403031222 SPECI KATL 031222Z 22008KT 1 1/2SM -RA BR BKN008 BKN038 OVC055 13/12 A2988 RMK AO2 SFC VIS 2 P0004=
201403031209 SPECI KATL 031209Z 22009KT 4SM -RA BR BKN008 BKN036 OVC050 13/12 A2987 RMK AO2 CIG 006V009 P0003=
201403031152 METAR KATL 031152Z 23008KT 3SM -RA BR FEW008 BKN012 OVC040 13/12 A2988 RMK AO2 SLP113 P0004 60004 70004 T01280117 10150 20128 53004=
201403031052 METAR KATL 031052Z COR 23012G17KT 10SM -RA BKN014 OVC080 14/11 A2984 RMK AO2 RAB52 SLP100 P0000 T01440106=
201403031038 SPECI KATL 031038Z 23012KT 10SM BKN014 BKN080 OVC250 14/11 A2984 RMK AO2=
201403030952 METAR KATL 030952Z 21008KT 10SM FEW018 SCT047 SCT120 BKN250 14/10 A2983 RMK AO2 SLP094 T01440100=
201403030852 METAR KATL 030852Z 21011KT 10SM FEW047 SCT060 BKN250 14/09 A2986 RMK AO2 SLP107 T01440089 58024=
201403030752 METAR KATL 030752Z 22012G17KT 10SM FEW015 SCT085 SCT200 BKN250 14/07 A2990 RMK AO2 SLP119 T01440067=
201403030652 METAR KATL 030652Z 22011KT 10SM SCT200 BKN250 14/06 A2993 RMK AO2 SLP129 T01440061=
201403030552 METAR KATL 030552Z 21008KT 10SM BKN200 BKN250 15/06 A2994 RMK AO2 SLP132 T01500061 10194 20144 56018=
201403030452 METAR KATL 030452Z 19006KT 10SM BKN200 BKN250 14/07 A2994 RMK AO2 SLP133 T01440067 402330072=
201403030352 METAR KATL 030352Z 20006KT 10SM SCT200 BKN250 15/07 A2997 RMK AO2 SLP146 T01500072=
201403030252 METAR KATL 030252Z 21008KT 10SM FEW200 SCT250 17/07 A2999 RMK AO2 SLP152 T01720072 55009=
201403030152 METAR KATL 030152Z 19006KT 10SM SCT200 BKN250 16/08 A2999 RMK AO2 SLP152 T01610078=
201403030052 METAR KATL 030052Z 20005KT 10SM SCT200 BKN250 18/08 A3001 RMK AO2 SLP161 T01780078=
201403022352 METAR KATL 022352Z 21005KT 10SM FEW200 SCT250 19/08 A3002 RMK AO2 SLP163 T01940078 10233 20194 56013=
201403022252 METAR KATL 022252Z 22008KT 10SM FEW055 SCT250 22/07 A3003 RMK AO2 SLP165 T02170072=
201403022152 METAR KATL 022152Z 21009KT 10SM FEW055 22/07 A3004 RMK AO2 SLP170 T02220072=
201403022052 METAR KATL 022052Z 26009G14KT 10SM FEW055 23/08 A3006 RMK AO2 SLP176 T02280083 56031=
201403021952 METAR KATL 021952Z 24012KT 10SM BKN055 23/08 A3009 RMK AO2 SLP186 T02280078=
201403021852 METAR KATL 021852Z 22010G15KT 10SM BKN050 22/07 A3012 RMK AO2 SLP196 T02170072=
201403021752 METAR KATL 021752Z 21008KT 10SM FEW048 BKN250 21/07 A3016 RMK AO2 SLP209 T02110067 10217 20072 58021=
201403021652 METAR KATL 021652Z 21012G18KT 10SM BKN046 BKN200 20/06 A3018 RMK AO2 SLP219 T02000056=
201403021552 METAR KATL 021552Z 24010KT 10SM BKN048 BKN150 18/03 A3021 RMK AO2 SLP227 T01780028=
201403021452 METAR KATL 021452Z 23011KT 10SM SCT050 BKN250 15/02 A3022 RMK AO2 SLP232 T01500022 51008=
201403021352 METAR KATL 021352Z 22007KT 10SM SCT050 SCT250 12/03 A3022 RMK AO2 SLP232 T01220033=
201403021252 METAR KATL 021252Z 00000KT 9SM BKN048 08/04 A3022 RMK AO2 SLP233 T00830044=
201403021152 METAR KATL 021152Z 11003KT 10SM BKN048 09/03 A3020 RMK AO2 SLP226 T00890033 10106 20072 50006=
201403021052 METAR KATL 021052Z 00000KT 10SM SCT048 BKN250 09/03 A3021 RMK AO2 SLP229 T00890033=
201403020952 METAR KATL 020952Z 00000KT 10SM FEW047 09/03 A3018 RMK AO2 SLP219 T00890028=
201403020852 METAR KATL 020852Z 00000KT 10SM CLR 09/03 A3018 RMK AO2 SLP219 T00940033 58011=
201403020752 METAR KATL 020752Z 00000KT 10SM SCT050 10/03 A3019 RMK AO2 SLP223 T01000033=
201403020652 METAR KATL 020652Z 00000KT 10SM FEW055 10/04 A3020 RMK AO2 SLP227 T01000039=
201403020552 METAR KATL 020552Z 13003KT 10SM FEW055 11/04 A3021 RMK AO2 SLP231 T01060039 10150 20100 56012=
201403020452 METAR KATL 020452Z 14003KT 10SM FEW055 11/04 A3022 RMK AO2 SLP233 T01060039 401610050=
201403020352 METAR KATL 020352Z 00000KT 10SM SCT055 11/04 A3023 RMK AO2 SLP239 T01110039=
201403020252 METAR KATL 020252Z 12003KT 10SM BKN050 12/04 A3025 RMK AO2 SLP244 T01220044 53015=
201403020152 METAR KATL 020152Z 09005KT 10SM SCT050 12/04 A3023 RMK AO2 SLP238 T01220039=
201403020052 METAR KATL 020052Z 00000KT 10SM BKN050 14/04 A3022 RMK AO2 SLP235 T01440039=
201403012352 METAR KATL 012352Z 00000KT 10SM SCT040 14/04 A3020 RMK AO2 SLP229 T01440039 10161 20122 53005=
201403012252 METAR KATL 012252Z 00000KT 10SM FEW040 16/04 A3019 RMK AO2 SLP223 T01610039=
201403012152 METAR KATL 012152Z 16005KT 10SM BKN038 16/03 A3019 RMK AO2 SLP223 T01560033=
201403012052 METAR KATL 012052Z VRB03KT 10SM OVC038 16/03 A3019 RMK AO2 SLP223 T01560033 56023=
201403011952 METAR KATL 011952Z 11003KT 10SM BKN038 BKN060 15/03 A3019 RMK AO2 SLP225 T01500028=
201403011852 METAR KATL 011852Z 12006KT 10SM FEW070 SCT200 14/02 A3021 RMK AO2 SLP232 T01440017=
201403011752 METAR KATL 011752Z 11006KT 10SM BKN035 13/02 A3025 RMK AO2 SLP247 T01280022 10128 20050 58011=
201403011652 METAR KATL 011652Z 15005KT 10SM OVC037 10/03 A3028 RMK AO2 SLP256 T01000028=
201403011552 METAR KATL 011552Z 12005KT 10SM OVC048 09/02 A3029 RMK AO2 SLP260 T00940022=
201403011452 METAR KATL 011452Z 10007KT 10SM BKN075 08/02 A3029 RMK AO2 SLP259 T00780022 51021=
201403011408 SPECI KATL 011408Z 10007KT 10SM SCT012 BKN075 07/01 A3027 RMK AO2=
201403011352 METAR KATL 011352Z 09007KT 10SM BKN011 OVC070 07/01 A3027 RMK AO2 SLP253 BINOVC T00670006=
201403011252 METAR KATL 011252Z 09005KT 10SM BKN011 OVC080 06/M01 A3024 RMK AO2 SLP245 BINOVC T00561006=
201403011243 SPECI KATL 011243Z 09008KT 10SM SCT011 BKN080 BKN250 05/M01 A3024 RMK AO2=
