##########################################################
# Query made at 04/19/2024 23:39:05 UTC
# Time interval: from 07/01/2014 12:00  to 07/31/2014 12:59  UTC
##########################################################

##########################################################
# KATL, Atlanta, Hartsfield - Jackson Atlanta International Airport (United States)
# WMO index: 72219. WIGOS ID: 0-20000-0-72219
# Latitude 33-38-59N. Longitude 084-25-00W. Altitude 312 m.
##########################################################

201407311252 METAR KATL 311252Z 07009KT 10SM FEW013 SCT065 BKN180 BKN250 22/18 A3007 RMK AO2 SLP172 VIRGA DSNT E T02170178=
201407311244 SPECI KATL 311244Z 08007KT 10SM SCT013 SCT065 BKN180 BKN250 22/18 A3007 RMK AO2 VIRGA DSNT E=
201407311220 SPECI KATL 311220Z 05009KT 10SM BKN013 BKN070 OVC180 22/18 A3006 RMK AO2=
201407311152 METAR KATL 311152Z 07007KT 10SM FEW030 SCT070 BKN150 OVC200 22/17 A3005 RMK AO2 SLP168 VIRGA NW-NE T02170172 10228 20206 51006=
201407311052 METAR KATL 311052Z 08007KT 10SM BKN065 BKN150 OVC200 21/16 A3005 RMK AO2 SLP167 VIRGA NW-NE T02110161=
201407310952 METAR KATL 310952Z 05008KT 10SM FEW065 SCT150 BKN200 OVC250 22/16 A3005 RMK AO2 SLP164 T02170161=
201407310852 METAR KATL 310852Z 04007KT 10SM FEW070 SCT150 BKN200 BKN250 22/16 A3004 RMK AO2 SLP161 T02220156 56005=
201407310752 METAR KATL 310752Z 02004KT 10SM FEW075 BKN200 OVC250 22/16 A3004 RMK AO2 SLP163 T02220156=
201407310652 METAR KATL 310652Z 34003KT 10SM BKN075 BKN200 BKN250 21/16 A3005 RMK AO2 SLP165 T02110156=
201407310552 METAR KATL 310552Z 35004KT 10SM BKN070 BKN200 BKN250 22/15 A3005 RMK AO2 SLP167 T02220150 10278 20222 58000=
201407310452 METAR KATL 310452Z 02004KT 10SM FEW150 BKN250 23/14 A3006 RMK AO2 SLP170 T02330144 402890150=
201407310352 METAR KATL 310352Z 02007KT 10SM FEW200 BKN250 24/14 A3005 RMK AO2 SLP167 T02390139=
201407310252 METAR KATL 310252Z 07006KT 10SM SCT200 BKN250 25/13 A3005 RMK AO2 SLP168 T02500133 53008=
201407310152 METAR KATL 310152Z 02007KT 10SM FEW060 SCT200 BKN250 27/13 A3004 RMK AO2 SLP164 T02670133=
201407310052 METAR KATL 310052Z VRB05KT 10SM FEW065 SCT200 BKN250 27/13 A3003 RMK AO2 SLP161 T02670133=
201407302352 METAR KATL 302352Z 07006KT 10SM FEW065 SCT200 BKN250 27/13 A3003 RMK AO2 SLP161 T02720128 10289 20261 53001=
201407302252 METAR KATL 302252Z VRB05KT 10SM FEW065 SCT250 28/13 A3002 RMK AO2 SLP160 T02780133=
201407302152 METAR KATL 302152Z 35006KT 10SM FEW065 SCT250 29/12 A3003 RMK AO2 SLP160 T02890122=
201407302052 METAR KATL 302052Z 11006KT 10SM FEW060 SCT250 28/12 A3003 RMK AO2 SLP160 T02830117 58007=
201407301952 METAR KATL 301952Z 09006KT 10SM SCT060 SCT250 27/13 A3004 RMK AO2 SLP164 T02670133=
201407301852 METAR KATL 301852Z VRB06KT 10SM SCT060 SCT250 27/14 A3004 RMK AO2 SLP166 T02720139=
201407301752 METAR KATL 301752Z 03007KT 10SM FEW050 SCT200 SCT250 27/14 A3005 RMK AO2 SLP167 T02670144 10272 20172 58008=
201407301652 METAR KATL 301652Z 00000KT 10SM FEW045 SCT200 BKN250 26/14 A3006 RMK AO2 SLP172 T02560144=
201407301552 METAR KATL 301552Z 00000KT 10SM SCT250 24/14 A3008 RMK AO2 SLP177 T02440139=
201407301452 METAR KATL 301452Z 09006KT 10SM SCT250 23/14 A3007 RMK AO2 SLP176 T02330139 51007=
201407301352 METAR KATL 301352Z 05009KT 10SM SCT250 22/12 A3007 RMK AO2 SLP174 T02170122=
201407301252 METAR KATL 301252Z 04007KT 10SM FEW250 21/12 A3006 RMK AO2 SLP172 T02060117=
201407301152 METAR KATL 301152Z 35004KT 10SM FEW250 17/12 A3005 RMK AO2 SLP169 T01720122 10183 20150 53008=
201407301052 METAR KATL 301052Z COR 34005KT 10SM FEW250 16/12 A3004 RMK AO2 SLP166 T01560117=
201407300952 METAR KATL 300952Z 32003KT 10SM CLR 16/12 A3003 RMK AO2 SLP162 T01560117=
201407300852 METAR KATL 300852Z 32005KT 10SM CLR 16/12 A3003 RMK AO2 SLP161 T01560117 55001=
201407300752 METAR KATL 300752Z 32006KT 10SM CLR 17/12 A3003 RMK AO2 SLP160 T01670117=
201407300652 METAR KATL 300652Z 33006KT 10SM CLR 17/12 A3003 RMK AO2 SLP162 T01720117=
201407300552 METAR KATL 300552Z 33006KT 10SM CLR 18/12 A3003 RMK AO2 SLP162 T01830117 10250 20183 50001=
201407300452 METAR KATL 300452Z 34009KT 10SM CLR 19/11 A3003 RMK AO2 SLP162 T01940111 402780189=
201407300352 METAR KATL 300352Z 34008KT 10SM CLR 21/11 A3004 RMK AO2 SLP163 T02060111=
201407300252 METAR KATL 300252Z 34009KT 10SM CLR 22/12 A3003 RMK AO2 SLP160 T02170122 51010=
201407300152 METAR KATL 300152Z 33008KT 10SM CLR 23/12 A3002 RMK AO2 SLP156 T02280122=
201407300052 METAR KATL 300052Z 32008KT 10SM CLR 24/13 A3001 RMK AO2 SLP153 T02390128=
201407292352 METAR KATL 292352Z 31012KT 10SM FEW050 26/13 A3000 RMK AO2 SLP150 T02560133 10278 20256 53004=
201407292252 METAR KATL 292252Z COR 30012G16KT 10SM FEW055 26/14 A2999 RMK AO2 SLP148 T02610139=
201407292152 METAR KATL 292152Z 34009KT 10SM SCT055 27/14 A2999 RMK AO2 SLP145 T02720139=
201407292052 METAR KATL 292052Z 32012G17KT 10SM FEW050 28/14 A2998 RMK AO2 SLP144 T02780144 56008=
201407291952 METAR KATL 291952Z 33008G16KT 10SM SCT050 27/15 A2999 RMK AO2 SLP145 T02720150=
201407291852 METAR KATL 291852Z 33010G14KT 10SM SCT050 26/14 A3000 RMK AO2 SLP150 T02610144=
201407291752 METAR KATL 291752Z VRB06KT 10SM SCT050 27/14 A3001 RMK AO2 SLP153 T02670144 10272 20200 58006=
201407291652 METAR KATL 291652Z 31010G14KT 10SM SCT050 26/16 A3002 RMK AO2 SLP157 T02560156=
201407291552 METAR KATL 291552Z VRB05KT 10SM BKN040 26/15 A3003 RMK AO2 SLP161 T02560150=
201407291452 METAR KATL 291452Z 01008KT 290V070 10SM FEW035 SCT250 25/16 A3003 RMK AO2 SLP159 T02500156 51011 $=
201407291352 METAR KATL 291352Z 32009KT 10SM FEW025 SCT250 23/17 A3002 RMK AO2 SLP157 T02330167 $=
201407291252 METAR KATL 291252Z 31008KT 10SM CLR 22/17 A3001 RMK AO2 SLP153 T02170167 $=
201407291152 METAR KATL 291152Z 33006KT 10SM CLR 20/16 A2999 RMK AO2 SLP147 T02000161 10222 20189 51010 $=
201407291052 METAR KATL 291052Z 31007KT 10SM CLR 19/16 A2999 RMK AO2 SLP146 T01940161 $=
201407290952 METAR KATL 290952Z 32007KT 10SM CLR 19/16 A2997 RMK AO2 SLP139 T01940161 $=
201407290852 METAR KATL 290852Z 32007KT 10SM CLR 20/16 A2996 RMK AO2 SLP136 T02000161 55004 $=
201407290752 METAR KATL 290752Z 33009KT 10SM CLR 21/16 A2996 RMK AO2 SLP134 T02060156 $=
201407290652 METAR KATL 290652Z 32007KT 10SM CLR 21/16 A2997 RMK AO2 SLP136 T02110156=
201407290552 METAR KATL 290552Z 33009KT 10SM CLR 22/16 A2998 RMK AO2 SLP139 T02220156 10283 20222 58002=
201407290452 METAR KATL 290452Z 33008KT 10SM CLR 22/16 A2998 RMK AO2 SLP142 T02220156 403220222=
201407290352 METAR KATL 290352Z 33006KT 10SM CLR 23/16 A2998 RMK AO2 SLP142 T02330156=
201407290252 METAR KATL 290252Z 32006KT 10SM CLR 24/16 A2998 RMK AO2 SLP141 T02390156 51015=
201407290152 METAR KATL 290152Z 34006KT 10SM CLR 26/15 A2997 RMK AO2 SLP137 T02560150=
201407290052 METAR KATL 290052Z 32008KT 10SM FEW060 27/15 A2995 RMK AO2 SLP131 T02670150=
201407282352 METAR KATL 282352Z 30014G19KT 10SM FEW060 28/15 A2993 RMK AO2 SLP125 T02830150 10322 20283 53008=
201407282252 METAR KATL 282252Z 28010G20KT 10SM FEW065 29/16 A2992 RMK AO2 SLP119 T02940161=
201407282152 METAR KATL 282152Z 31015G23KT 10SM FEW065 31/16 A2991 RMK AO2 SLP118 T03060161=
201407282052 METAR KATL 282052Z 30018G25KT 10SM FEW070 SCT200 31/16 A2991 RMK AO2 SLP116 CB DSNT E-SE-S-SW T03110156 57009=
201407281952 METAR KATL 281952Z 32012G21KT 10SM FEW065 SCT200 32/17 A2992 RMK AO2 SLP117 CB DSNT E-SE-S-SW T03220167=
201407281852 METAR KATL 281852Z 32016G23KT 10SM FEW060 32/18 A2993 RMK AO2 SLP122 T03170178=
201407281752 METAR KATL 281752Z 28015G21KT 10SM FEW050 SCT180 32/21 A2994 RMK AO2 SLP124 T03170206 10317 20256 58006=
201407281652 METAR KATL 281652Z 30014G22KT 10SM FEW040 SCT180 31/21 A2995 RMK AO2 SLP128 T03110211=
201407281552 METAR KATL 281552Z 30010G18KT 10SM FEW030 SCT180 30/23 A2996 RMK AO2 SLP131 T03000228=
201407281452 METAR KATL 281452Z 29008KT 10SM SCT025 SCT180 29/24 A2996 RMK AO2 SLP132 T02940239 51004=
201407281352 METAR KATL 281352Z 28008KT 10SM FEW014 SCT180 28/24 A2995 RMK AO2 SLP131 T02830239=
201407281252 METAR KATL 281252Z 27009KT 9SM FEW018 SCT080 SCT150 BKN180 27/23 A2995 RMK AO2 SLP130 T02670233=
201407281152 METAR KATL 281152Z 27010KT 8SM SCT022 SCT050 BKN150 BKN200 26/23 A2994 RMK AO2 SLP127 60000 T02610228 10267 20250 53001=
201407281052 METAR KATL 281052Z 25007KT 10SM FEW024 SCT045 SCT070 BKN200 26/23 A2993 RMK AO2 RAE0953 SLP123 T02560228=
201407280952 METAR KATL 280952Z 24006KT 10SM -RA FEW024 SCT045 SCT070 BKN200 BKN250 25/23 A2993 RMK AO2 RAB17 SLP124 P0000 T02500228 $=
201407280852 METAR KATL 280852Z 25006KT 10SM SCT045 BKN150 OVC200 26/22 A2994 RMK AO2 SLP125 T02610222 55004 $=
201407280752 METAR KATL 280752Z 24006KT 10SM FEW060 OVC150 26/22 A2994 RMK AO2 SLP124 T02610222 $=
201407280652 METAR KATL 280652Z 25005KT 10SM FEW060 SCT150 BKN200 OVC250 26/22 A2994 RMK AO2 SLP127 T02610222 $=
201407280552 METAR KATL 280552Z 25007KT 10SM FEW055 SCT150 BKN200 OVC250 27/22 A2995 RMK AO2 SLP129 T02670222 10306 20267 58005 $=
201407280452 METAR KATL 280452Z 27008KT 10SM SCT150 BKN200 BKN250 27/22 A2997 RMK AO2 SLP134 T02720222 403330222 $=
201407280352 METAR KATL 280352Z 25009KT 10SM FEW150 SCT200 SCT250 28/22 A2996 RMK AO2 SLP131 T02830222 $=
201407280252 METAR KATL 280252Z 24010KT 10SM FEW200 SCT250 28/22 A2997 RMK AO2 SLP136 T02830222 50003 $=
201407280152 METAR KATL 280152Z 24007KT 10SM SCT200 BKN250 28/22 A2997 RMK AO2 SLP137 T02830222 $=
201407280052 METAR KATL 280052Z 24006KT 10SM FEW150 SCT200 SCT250 29/22 A2996 RMK AO2 SLP134 T02940217=
201407272352 METAR KATL 272352Z 23007KT 10SM FEW150 SCT200 SCT250 31/22 A2996 RMK AO2 SLP133 T03110217 10333 20306 55008=
201407272252 METAR KATL 272252Z 23010KT 10SM FEW048 SCT150 BKN250 31/22 A2995 RMK AO2 SLP132 T03110217=
201407272152 METAR KATL 272152Z 25011KT 10SM FEW050 SCT140 SCT250 32/21 A2996 RMK AO2 SLP134 T03220211=
201407272052 METAR KATL 272052Z 24011G17KT 10SM SCT050 SCT250 33/21 A2998 RMK AO2 SLP140 T03280211 56021=
201407271952 METAR KATL 271952Z 27012KT 10SM SCT045 33/22 A2999 RMK AO2 SLP143 T03280217=
201407271852 METAR KATL 271852Z 23010G15KT 10SM SCT045 SCT250 32/22 A3001 RMK AO2 SLP150 T03220217=
201407271752 METAR KATL 271752Z 27010G18KT 10SM SCT040 SCT250 32/22 A3004 RMK AO2 SLP162 T03170217 10317 20233 58004=
201407271652 METAR KATL 271652Z 30011G15KT 10SM SCT035 SCT250 31/22 A3005 RMK AO2 SLP164 T03110222=
201407271552 METAR KATL 271552Z 28010KT 10SM SCT030 BKN035 BKN250 30/23 A3006 RMK AO2 SLP168 T03000228=
201407271452 METAR KATL 271452Z 25010KT 10SM FEW030 SCT250 29/23 A3006 RMK AO2 SLP166 T02940228 50004=
201407271352 METAR KATL 271352Z 27005KT 10SM FEW150 SCT250 28/22 A3006 RMK AO2 SLP167 T02830222=
201407271252 METAR KATL 271252Z 27007KT 10SM FEW150 SCT250 26/21 A3005 RMK AO2 SLP166 T02560206=
201407271152 METAR KATL 271152Z 27006KT 10SM FEW040 SCT150 SCT250 23/19 A3004 RMK AO2 SLP162 T02330194 10250 20222 53008=
201407271052 METAR KATL 271052Z 28005KT 10SM FEW150 BKN250 22/19 A3002 RMK AO2 SLP153 T02220194=
201407270952 METAR KATL 270952Z 26004KT 10SM FEW150 BKN250 23/19 A3001 RMK AO2 SLP150 T02280194=
201407270852 METAR KATL 270852Z 29005KT 10SM FEW150 SCT250 23/20 A3002 RMK AO2 SLP153 T02330200 56008=
201407270752 METAR KATL 270752Z 28005KT 10SM FEW150 BKN250 23/20 A3002 RMK AO2 SLP154 T02330200=
201407270652 METAR KATL 270652Z 28006KT 10SM FEW150 SCT250 24/20 A3002 RMK AO2 SLP154 T02390200=
201407270552 METAR KATL 270552Z 27005KT 10SM FEW140 SCT250 25/19 A3004 RMK AO2 SLP161 T02500194 10300 20244 56005=
201407270452 METAR KATL 270452Z 24004KT 10SM FEW140 SCT250 26/20 A3004 RMK AO2 SLP162 T02560200 403170211=
201407270352 METAR KATL 270352Z 25003KT 10SM FEW140 SCT250 26/20 A3006 RMK AO2 SLP165 T02610200=
201407270252 METAR KATL 270252Z 26004KT 10SM FEW200 27/19 A3006 RMK AO2 SLP166 T02720194 51015=
201407270152 METAR KATL 270152Z 23005KT 10SM FEW150 SCT200 SCT250 27/19 A3005 RMK AO2 SLP163 T02720194=
201407270052 METAR KATL 270052Z 24005KT 10SM FEW150 SCT200 SCT250 28/19 A3003 RMK AO2 SLP159 T02830194=
201407262352 METAR KATL 262352Z 27007KT 10SM FEW250 30/19 A3001 RMK AO2 SLP153 T03000194 10317 20300 55002=
201407262252 METAR KATL 262252Z 27009KT 10SM FEW250 31/18 A3001 RMK AO2 SLP150 T03110183=
201407262152 METAR KATL 262152Z 24006KT 10SM FEW200 SCT250 31/17 A3002 RMK AO2 SLP153 T03110172=
201407262052 METAR KATL 262052Z 27008KT 10SM FEW055 SCT250 32/18 A3002 RMK AO2 SLP155 T03170178 58014=
201407261952 METAR KATL 261952Z VRB04KT 10SM FEW055 SCT250 32/17 A3004 RMK AO2 SLP162 T03170172=
201407261852 METAR KATL 261852Z 28009KT 10SM FEW050 SCT250 31/18 A3005 RMK AO2 SLP166 T03110178=
201407261752 METAR KATL 261752Z VRB05KT 10SM FEW045 SCT250 30/19 A3006 RMK AO2 SLP169 T03000189 10306 20228 58007=
201407261652 METAR KATL 261652Z 30011KT 10SM FEW045 SCT250 30/19 A3008 RMK AO2 SLP175 T03000189=
201407261552 METAR KATL 261552Z 27012G17KT 10SM FEW040 SCT250 29/19 A3008 RMK AO2 SLP174 T02890194=
201407261452 METAR KATL 261452Z 29009G16KT 10SM FEW045 SCT250 28/19 A3008 RMK AO2 SLP175 T02830189 51008=
201407261352 METAR KATL 261352Z 28007KT 10SM FEW040 SCT250 27/19 A3008 RMK AO2 SLP174 T02720189=
201407261252 METAR KATL 261252Z 30003KT 10SM FEW250 24/19 A3007 RMK AO2 SLP171 T02440194 $=
201407261152 METAR KATL 261152Z 31003KT 10SM FEW045 SCT250 23/20 A3006 RMK AO2 SLP168 T02280200 10244 20211 53013 $=
201407261052 METAR KATL 261052Z 00000KT 9SM FEW045 SCT250 22/19 A3004 RMK AO2 SLP160 T02170189 $=
201407260952 METAR KATL 260952Z 26003KT 9SM FEW045 21/19 A3003 RMK AO2 SLP157 T02110194 $=
201407260852 METAR KATL 260852Z 00000KT 10SM FEW045 22/19 A3002 RMK AO2 SLP155 T02170189 55007 $=
201407260752 METAR KATL 260752Z 00000KT 10SM FEW045 23/19 A3002 RMK AO2 SLP154 T02280194 $=
201407260652 METAR KATL 260652Z 32003KT 10SM FEW047 SCT250 23/19 A3002 RMK AO2 SLP156 T02330194 PNO $=
201407260552 METAR KATL 260552Z 32003KT 10SM SCT047 SCT250 24/19 A3004 RMK AO2 SLP162 T02440189 10294 20233 50007=
201407260452 METAR KATL 260452Z 00000KT 10SM FEW045 SCT250 24/19 A3005 RMK AO2 SLP164 T02440194 403110206=
201407260352 METAR KATL 260352Z 22003KT 10SM FEW045 SCT250 24/19 A3004 RMK AO2 SLP162 T02390194=
201407260252 METAR KATL 260252Z 33004KT 10SM FEW250 27/18 A3002 RMK AO2 SLP155 T02670178 53006=
201407260152 METAR KATL 260152Z 33004KT 10SM SCT250 27/18 A3001 RMK AO2 SLP150 T02720183=
201407260052 METAR KATL 260052Z 32004KT 10SM FEW050 BKN250 28/18 A3000 RMK AO2 SLP149 T02830178=
201407252352 METAR KATL 252352Z 32005KT 10SM FEW050 BKN250 29/18 A3000 RMK AO2 SLP150 T02940178 10311 20289 50005=
201407252252 METAR KATL 252252Z 34007KT 10SM FEW050 SCT250 31/18 A3000 RMK AO2 SLP149 T03060183=
201407252152 METAR KATL 252152Z VRB04KT 10SM FEW050 SCT250 31/19 A3000 RMK AO2 SLP147 T03060189=
201407252052 METAR KATL 252052Z 27009KT 10SM FEW050 SCT080 BKN250 31/19 A2999 RMK AO2 SLP144 T03060189 56014=
201407251952 METAR KATL 251952Z VRB05KT 10SM FEW050 SCT065 BKN250 31/18 A3000 RMK AO2 SLP146 T03110178=
201407251852 METAR KATL 251852Z 29006KT 10SM SCT045 SCT065 BKN120 BKN250 30/19 A3002 RMK AO2 SLP154 MDT CU ALQDS T03000189=
201407251752 METAR KATL 251752Z VRB03KT 10SM SCT040 BKN150 BKN250 29/18 A3003 RMK AO2 SLP159 MDT CU ALQDS T02940183 10300 20222 56013=
201407251652 METAR KATL 251652Z 26004KT 10SM BKN035 BKN250 28/21 A3005 RMK AO2 SLP165 MDT CU ALQDS T02830206=
201407251552 METAR KATL 251552Z 30004KT 10SM SCT027 SCT250 28/21 A3005 RMK AO2 SLP167 T02780206=
201407251452 METAR KATL 251452Z 00000KT 10SM FEW025 SCT250 27/21 A3007 RMK AO2 SLP173 T02670211 50009=
201407251352 METAR KATL 251352Z 31004KT 8SM FEW250 25/22 A3007 RMK AO2 SLP175 T02500217=
201407251252 METAR KATL 251252Z 31005KT 8SM FEW010 SCT100 SCT250 23/21 A3006 RMK AO2 SLP171 T02280206=
201407251152 METAR KATL 251152Z 00000KT 8SM FEW100 SCT200 SCT250 22/21 A3004 RMK AO2 SLP166 70068 T02170206 10228 20206 53020=
201407251052 METAR KATL 251052Z 00000KT 10SM FEW100 SCT200 SCT250 21/20 A3002 RMK AO2 SLP157 T02110200=
201407250952 METAR KATL 250952Z 29003KT 10SM FEW200 21/20 A3000 RMK AO2 SLP149 T02110200=
201407250852 METAR KATL 250852Z 00000KT 9SM CLR 22/21 A2999 RMK AO2 SLP144 T02170206 58004 $=
201407250752 METAR KATL 250752Z 27003KT 10SM FEW085 22/21 A2999 RMK AO2 SLP145 T02170206 $=
201407250652 METAR KATL 250652Z 29005KT 10SM FEW065 SCT080 SCT250 22/21 A3000 RMK AO2 SLP149 T02220211 $=
201407250552 METAR KATL 250552Z 29005KT 10SM BKN080 BKN250 23/21 A3000 RMK AO2 SLP146 T02280211 10239 20222 50003 $=
201407250452 METAR KATL 250452Z 30007KT 10SM SCT075 BKN250 23/21 A3000 RMK AO2 SLP148 T02280211 403060217 $=
201407250352 METAR KATL 250352Z 28005KT 10SM FEW200 SCT250 23/21 A2999 RMK AO2 SLP147 T02280211 $=
201407250252 METAR KATL 250252Z 27005KT 10SM FEW150 SCT200 BKN250 23/21 A2999 RMK AO2 SLP144 T02280211 53006 $=
201407250152 METAR KATL 250152Z 24003KT 10SM FEW100 SCT200 BKN250 23/21 A2998 RMK AO2 SLP141 T02280211 $=
201407250052 METAR KATL 250052Z 23004KT 10SM FEW110 SCT150CB BKN200 23/21 A2997 RMK AO2 SLP138 CBMAM SE-SW CB DSNT SW T02330211 $=
201407242352 METAR KATL 242352Z 19003KT 10SM FEW100 SCT150 BKN250 24/22 A2997 RMK AO2 TSE09 SLP138 CB DSNT SE & S-SW 60068 T02390217 10306 20217 53005 $=
201407242309 SPECI KATL 242309Z 23008G15KT 10SM FEW030 SCT100 BKN150 BKN250 23/22 A2996 RMK AO2 TSE09 OCNL LTGICCG DSNT SE-SW TS MOV SE $=
201407242252 METAR KATL 242252Z 24005KT 10SM TS FEW030CB SCT100 BKN150 BKN250 23/21 A2996 RMK AO2 PK WND 32029/2156 WSHFT 2152 RAB03E48 SLP137 FRQ LTGICCG SE-SW TS VC SE-SW MOV SE P0020 T02330211 $=
201407242222 SPECI KATL 242222Z 25004KT 5SM TSRA BR FEW005 SCT030CB BKN100 OVC150 22/20 A2996 RMK AO2 PK WND 32029/2156 WSHFT 2152 RAB03 VIS LWR SE-SW FRQ LTGICCG NE-SE-SW TS NE-SE-SW MOV SE P0017 $=
201407242216 SPECI KATL 242216Z 26007G25KT 210V300 2 1/2SM +TSRA BR FEW005 BKN030CB BKN050 OVC200 22/21 A2997 RMK AO2 PK WND 32029/2156 WSHFT 2152 RAB03 FRQ LTGICCG NE-OHD-SW TS NE-OHD-SW MOV SE P0003 $=
201407242212 SPECI KATL 242212Z 30012G26KT 240V330 6SM -TSRA BR FEW005 BKN030CB BKN050 OVC200 23/21 A2996 RMK AO2 PK WND 32029/2156 WSHFT 2152 RAB03 VIS LWR SW-NW FRQ LTGICCG NE-OHD-SW TS NE-OHD-SW MOV SE P0000 $=
201407242152 METAR KATL 242152Z 31010G16KT 290V350 10SM TS FEW005 SCT030CB BKN200 BKN250 28/22 A2994 RMK AO2 TSB30 SLP129 FRQ LTGICCG SW-NW-N TS SW-NW-N MOV SE T02830217=
201407242130 SPECI KATL 242130Z 24006KT 10SM TS FEW030CB SCT200 BKN250 29/22 A2994 RMK AO2 TSB30 OCNL LTGICCG NW TS VC NW MOV E=
201407242052 METAR KATL 242052Z 23008KT 10SM FEW100 SCT150 BKN250 29/22 A2995 RMK AO2 SLP132 CB DSNT NW-N SHRA VC NW-N 60048 T02890217 58007=
201407241952 METAR KATL 241952Z 25004KT 10SM FEW050 SCT100 BKN150 BKN250 26/22 A2997 RMK AO2 TSE37RAE37 SLP140 CB DSNT N & E & NW TCU DSNT NE P0020 T02610222=
201407241938 SPECI KATL 241938Z 21006KT 9SM FEW015 SCT050 BKN150 BKN250 26/22 A2997 RMK AO2 TSE37RAE37 TS MOV E CB DSNT N & E TCU DSNT NE P0020=
201407241916 SPECI KATL 241916Z 23005KT 9SM -TSRA FEW010CB BKN070 BKN090 BKN250 23/21 A2998 RMK AO2 FRQ LTGICCG E-SE-S TS VC E-SE-S MOV E CB E-SE-S MOV E P0020=
201407241905 SPECI KATL 241905Z 24011G17KT 9SM -TSRA FEW020CB BKN050 BKN150 BKN250 24/22 A2999 RMK AO2 VIS LWR E-SE-S-SW SHRA OCNL LTGICCG E-SE-S-SW TS VC E-SE-S-SW MOV E P0020=
201407241845 SPECI KATL 241845Z 30008KT 9SM -TSRA FEW020CB SCT030TCU BKN040 BKN150 BKN250 26/23 A2998 RMK AO2 TSB09RAB19 OCNL LTGICCG E & SW TS VC E & SW MOV E CB E & SW MOV E TCU S SHRA VC E & SW P0019=
201407241833 SPECI KATL 241833Z VRB03KT 6SM R09R/2800VP6000FT -TSRA BKN020CB BKN030 OVC040 25/22 A2998 RMK AO2 TSB09RAB19 FRQ LTGICCG OHD-E-SE-S TS OHD-E-SE-S MOV E CB OHD-E-SE-S MOV E P0019=
201407241829 SPECI KATL 241829Z 30004G19KT 5SM R09R/2800VP6000FT -TSRA FEW020CB BKN030 OVC040 25/22 A2999 RMK AO2 TSB09RAB19 VIS LWR E-SE-S SHRA OCNL LTGIC E-SE-S TS E-SE-S MOV E CB E-SE-S MOV E P0013=
201407241825 SPECI KATL 241825Z 29013G19KT 6SM R09R/4000VP6000FT -TSRA BKN020CB BKN040 OVC070 26/22 A2998 RMK AO2 TSB09RAB19 VIS LWR NE-S SHRA OCNL LTGIC OHD-ALQDS TS OHD-ALQDS MOV E CB OHD-ALQDS MOV E P0000=
201407241823 SPECI KATL 241823Z 29015G19KT 2SM +TSRA BKN020CB BKN040 OVC070 27/23 A2997 RMK AO2 TSB09RAB19 OCNL LTGIC OHD-ALQDS TS OHD-ALQDS MOV E CB OHD-ALQDS MOV E P0000=
201407241809 SPECI KATL 241809Z 27011G16KT 10SM TS FEW035CB BKN045TCU BKN070 30/21 A2997 RMK AO2 TSB09 OCNL LTGIC SW-NW TS VC SW-NW MOV E CB NE MOV E TCU OHD & ALQDS SHRA VC NE & VC SW-NW=
201407241752 METAR KATL 241752Z 27010KT 10SM FEW035CB BKN040TCU BKN070 BKN250 30/21 A2997 RMK AO2 SLP139 CB N-NE & W-NW MOV E SHRA VC N-NE & W-NW TCU OHD-NE-S T03000211 10300 20228 58016=
201407241734 SPECI KATL 241734Z 25008KT 220V280 10SM FEW035CB SCT045TCU SCT250 29/21 A2998 RMK AO2 CB NW-N MOV E SHRA VC NW-N CB DSNT NE TCU W=
201407241652 METAR KATL 241652Z 23013KT 10SM SCT030TCU SCT150 SCT250 29/21 A3000 RMK AO2 SLP148 TCU N-NE-E & S & NW T02890211=
201407241552 METAR KATL 241552Z 26010KT 10SM SCT025 SCT150 28/22 A3001 RMK AO2 SLP151 TCU DSNT E-SE-S-SW T02830217=
201407241452 METAR KATL 241452Z 26008KT 10SM FEW020 SCT150 SCT250 28/22 A3002 RMK AO2 SLP155 T02780217 51007=
201407241352 METAR KATL 241352Z 27006KT 10SM FEW150 SCT180 BKN250 26/22 A3002 RMK AO2 SLP153 T02610217=
201407241252 METAR KATL 241252Z 25003KT 10SM FEW110 SCT180 BKN250 25/22 A3001 RMK AO2 SLP152 ACC DSNT NW T02500217=
201407241152 METAR KATL 241152Z 24005KT 10SM FEW110 SCT180 SCT250 23/21 A3000 RMK AO2 SLP148 T02280206 10239 20222 51009=
201407241052 METAR KATL 241052Z 24005KT 10SM FEW040 SCT100 SCT200 SCT250 22/21 A2999 RMK AO2 SLP145 T02220206=
201407240952 METAR KATL 240952Z 28003KT 10SM FEW039 SCT100 SCT250 22/21 A2999 RMK AO2 SLP144 T02220206=
201407240852 METAR KATL 240852Z 27003KT 10SM FEW100 SCT250 22/21 A2997 RMK AO2 SLP139 T02220206 56010=
201407240752 METAR KATL 240752Z 00000KT 10SM FEW250 23/21 A2998 RMK AO2 SLP140 T02280211=
201407240652 METAR KATL 240652Z 26003KT 10SM FEW250 24/22 A2999 RMK AO2 SLP144 T02390217=
201407240552 METAR KATL 240552Z 29004KT 10SM FEW150 SCT250 24/22 A3001 RMK AO2 SLP149 T02390217 10294 20239 58000=
201407240452 METAR KATL 240452Z 26003KT 10SM FEW250 24/22 A3002 RMK AO2 SLP154 T02440217 403110217=
201407240352 METAR KATL 240352Z 27005KT 10SM FEW035 SCT250 26/22 A3002 RMK AO2 SLP154 T02560217=
201407240252 METAR KATL 240252Z 28004KT 10SM FEW100 SCT250 25/21 A3001 RMK AO2 SLP150 T02500211 53003=
201407240152 METAR KATL 240152Z COR 00000KT 10SM FEW200 26/22 A3000 RMK AO2 SLP149 T02610222=
201407240052 METAR KATL 240052Z 00000KT 10SM FEW035 SCT200 27/21 A2999 RMK AO2 PK WND 19026/2356 RAB2357E06 SLP145 CB DSNT E-SE P0000 T02670206=
201407232352 METAR KATL 232352Z 25007KT 10SM FEW040CB SCT070 SCT200 29/21 A3000 RMK AO2 SLP147 CB NE & S-SW MOV NE TCU E-SE SHRA NE & S-SW T02940211 10311 20289 55005=
201407232252 METAR KATL 232252Z 28008KT 10SM SCT040TCU SCT110 31/21 A2998 RMK AO2 SLP142 TCU OHD & NE-SE-S T03060206=
201407232152 METAR KATL 232152Z 22005KT 10SM FEW040TCU SCT065 SCT110 31/20 A3000 RMK AO2 SLP146 TCU VC NE-SE-SW & DSNT NW-N T03060200=
201407232052 METAR KATL 232052Z 22006KT 10SM SCT040TCU SCT110 31/21 A3001 RMK AO2 SLP152 TCU N-NE & S & NW T03060206 56021=
201407231952 METAR KATL 231952Z 22008KT 10SM BKN040TCU BKN100 30/21 A3003 RMK AO2 SLP159 TCU ALQDS T03000206=
201407231852 METAR KATL 231852Z 00000KT 10SM SCT040TCU SCT090 30/20 A3005 RMK AO2 SLP166 TCU N & SE-NW T03000200=
201407231752 METAR KATL 231752Z 00000KT 10SM SCT040TCU SCT100 30/21 A3008 RMK AO2 SLP174 TCU SE-SW & NW T03000206 10300 20233 58011=
201407231652 METAR KATL 231652Z 00000KT 10SM BKN035TCU BKN095 28/20 A3009 RMK AO2 SLP180 TCU N-NE-E-SE-S-SW T02780200=
201407231559 SPECI KATL 231559Z 00000KT 10SM BKN030TCU BKN038 28/20 A3011 RMK AO2 TCU NE-E & SW-NW=
201407231552 METAR KATL 231552Z 00000KT 10SM BKN028TCU BKN038 28/20 A3011 RMK AO2 SLP184 TCU NE-E & SW-NW T02780200=
201407231452 METAR KATL 231452Z 00000KT 10SM BKN025TCU 27/21 A3011 RMK AO2 SLP186 TCU OHD & ALQDS T02720211 58001=
201407231423 SPECI KATL 231423Z VRB03KT 10SM BKN023TCU 26/21 A3012 RMK AO2 TCU ALQDS=
201407231352 METAR KATL 231352Z 00000KT 10SM SCT020TCU 27/21 A3013 RMK AO2 SLP191 TCU N-NE & SW-NW T02670211=
201407231252 METAR KATL 231252Z 00000KT 10SM FEW018TCU SCT100 SCT250 25/22 A3012 RMK AO2 SLP188 TCU N T02500217=
201407231152 METAR KATL 231152Z 00000KT 10SM FEW030 BKN100 BKN250 23/21 A3012 RMK AO2 SLP188 T02330206 10239 20217 53010=
201407231052 METAR KATL 231052Z 00000KT 10SM FEW030 SCT060 SCT095 SCT250 22/21 A3010 RMK AO2 SLP183 T02220206=
201407230952 METAR KATL 230952Z 00000KT 10SM FEW030 BKN100 BKN250 23/21 A3009 RMK AO2 SLP180 T02280206=
201407230852 METAR KATL 230852Z 14003KT 10SM FEW030 SCT120 SCT250 23/20 A3008 RMK AO2 SLP177 T02280200 56004=
201407230752 METAR KATL 230752Z 00000KT 10SM FEW032 SCT120 SCT250 23/21 A3008 RMK AO2 SLP177 T02280211=
201407230652 METAR KATL 230652Z 10006KT 10SM SCT030 SCT140 SCT250 23/21 A3009 RMK AO2 SLP179 T02280211=
201407230552 METAR KATL 230552Z 00000KT 10SM FEW140 SCT250 24/22 A3010 RMK AO2 SLP182 T02390217 10267 20233 58008=
201407230452 METAR KATL 230452Z 09003KT 10SM FEW028 SCT100 SCT140 24/22 A3011 RMK AO2 SLP188 T02390217 402830217=
201407230352 METAR KATL 230352Z 00000KT 10SM FEW030 SCT100 BKN140 25/22 A3012 RMK AO2 SLP189 T02500217=
201407230252 METAR KATL 230252Z 11003KT 10SM BKN140 BKN250 27/22 A3012 RMK AO2 SLP191 T02670217 50013=
201407230152 METAR KATL 230152Z 00000KT 10SM FEW025 SCT100 SCT250 26/21 A3012 RMK AO2 SLP192 T02560211=
201407230052 METAR KATL 230052Z 00000KT 10SM FEW030 SCT100 SCT250 26/21 A3009 RMK AO2 SLP181 TCU DSNT SW T02610206=
201407222352 METAR KATL 222352Z 15003KT 10SM FEW030 SCT100 SCT250 26/21 A3008 RMK AO2 SLP178 TCU DSNT SW & NW T02610211 10283 20261 55003=
201407222252 METAR KATL 222252Z 09008KT 10SM FEW030 BKN100 BKN250 27/21 A3007 RMK AO2 SLP172 TCU DSNT N & SW T02720211=
201407222152 METAR KATL 222152Z 08007KT 10SM FEW030 BKN100 BKN250 28/21 A3007 RMK AO2 SLP174 TCU DSNT N-NE & SW T02780211=
201407222052 METAR KATL 222052Z 12006KT 10SM FEW030 SCT050 BKN090 27/20 A3009 RMK AO2 SLP180 VIRGA DSNT W CB DSNT SE & S TCU DSNT E & NW T02720200 56012=
201407221952 METAR KATL 221952Z 11007KT 10SM FEW035TCU SCT050 BKN080 27/21 A3010 RMK AO2 SLP183 CB DSNT E TCU W-NW SHRA DSNT E T02720206=
201407221852 METAR KATL 221852Z 10007KT 10SM BKN030TCU BKN050 BKN080 27/20 A3012 RMK AO2 SLP188 TCU ALQDS T02720200=
201407221752 METAR KATL 221752Z 05003KT 10SM FEW025 BKN050 BKN080 26/21 A3013 RMK AO2 SLP194 60000 T02610206 10261 20228 58010=
201407221652 METAR KATL 221652Z VRB03KT 10SM BKN020 BKN040 OVC080 25/21 A3014 RMK AO2 RAB35E48 SLP198 P0000 T02500206=
201407221554 SPECI KATL 221554Z 00000KT 10SM BKN017 BKN032 OVC080 25/21 A3016 RMK AO2=
201407221552 METAR KATL 221552Z 00000KT 10SM SCT017 BKN030 OVC080 25/21 A3016 RMK AO2 SLP202 T02500206=
201407221452 METAR KATL 221452Z 13005KT 10SM FEW014 SCT060 BKN080 BKN250 24/21 A3016 RMK AO2 SLP203 T02440206 50005=
201407221436 SPECI KATL 221436Z 10008KT 10SM FEW012 BKN060 BKN080 24/21 A3016 RMK AO2=
201407221352 METAR KATL 221352Z 10006KT 10SM FEW009 BKN017 OVC050 23/21 A3017 RMK AO2 SLP206 T02330206=
201407221252 METAR KATL 221252Z 09004KT 9SM SCT009 BKN019 OVC036 23/21 A3016 RMK AO2 SLP204 T02280211=
201407221208 SPECI KATL 221208Z 11004KT 9SM FEW007 BKN016 OVC036 23/21 A3015 RMK AO2=
201407221152 METAR KATL 221152Z 10003KT 10SM FEW009 BKN038 BKN100 OVC180 23/21 A3014 RMK AO2 SLP198 T02280206 10228 20217 53018=
201407221052 METAR KATL 221052Z 00000KT 10SM SCT007 SCT019 BKN034 BKN180 BKN250 22/21 A3012 RMK AO2 SLP191 T02220206=
201407221026 SPECI KATL 221026Z 00000KT 10SM SCT009 BKN030 BKN180 BKN250 22/21 A3011 RMK AO2=
201407221016 SPECI KATL 221016Z 09003KT 10SM BKN009 BKN029 BKN250 22/21 A3011 RMK AO2=
201407220952 METAR KATL 220952Z 16003KT 10SM FEW009 SCT019 SCT030 BKN250 22/20 A3010 RMK AO2 SLP184 T02170200=
201407220946 SPECI KATL 220946Z 00000KT 10SM FEW009 SCT019 BKN030 BKN250 22/20 A3009 RMK AO2=
201407220904 SPECI KATL 220904Z 00000KT 8SM SCT009 BKN017 OVC250 22/21 A3009 RMK AO2=
201407220852 METAR KATL 220852Z 09004KT 7SM BKN009 BKN150 22/21 A3009 RMK AO2 SLP179 T02220206 55006=
201407220752 METAR KATL 220752Z 10004KT 7SM BKN008 BKN110 BKN150 BKN200 22/21 A3009 RMK AO2 SLP178 T02220206=
201407220652 METAR KATL 220652Z 09006KT 9SM BKN008 BKN110 BKN150 22/21 A3010 RMK AO2 SLP181 T02220206=
201407220552 METAR KATL 220552Z 12005KT 10SM BKN008 OVC100 23/21 A3011 RMK AO2 SLP185 60000 T02280211 10267 20228 50003=
201407220515 SPECI KATL 220515Z 12007KT 10SM BKN008 BKN100 23/21 A3011 RMK AO2=
201407220508 SPECI KATL 220508Z 11006KT 10SM SCT008 BKN100 23/21 A3011 RMK AO2=
201407220452 METAR KATL 220452Z 10008KT 10SM FEW012 SCT110 BKN150 OVC200 23/21 A3011 RMK AO2 RAB07E19 SLP186 P0000 T02280206 402780228=
201407220429 SPECI KATL 220429Z 13006KT 10SM FEW012 SCT070 BKN120 OVC200 23/21 A3011 RMK AO2 RAB07E19 P0000=
201407220352 METAR KATL 220352Z 11007KT 10SM SCT017 BKN025 OVC200 25/23 A3011 RMK AO2 SLP185 OCNL LTG DSNT SE T02500228=
201407220252 METAR KATL 220252Z COR 12005KT 10SM FEW025 BKN200 OVC250 26/22 A3010 RMK AO2 SLP181 OCNL LTG DSNT E-SE T02560222 51012=
201407220152 METAR KATL 220152Z 11003KT 10SM FEW150 BKN200 OVC250 26/22 A3009 RMK AO2 SLP180 T02560222=
201407220052 METAR KATL 220052Z 00000KT 10SM FEW110 SCT150 BKN200 OVC250 26/22 A3007 RMK AO2 SLP173 T02560217=
201407212352 METAR KATL 212352Z 17003KT 10SM FEW025 SCT110 BKN200 OVC250 26/22 A3006 RMK AO2 SLP171 T02610217 10278 20261 55001=
201407212252 METAR KATL 212252Z 18003KT 10SM FEW025 BKN200 OVC250 27/21 A3006 RMK AO2 SLP170 T02670211=
201407212152 METAR KATL 212152Z 00000KT 10SM FEW025 BKN200 OVC250 27/22 A3004 RMK AO2 SLP163 T02670217=
201407212052 METAR KATL 212052Z 16008KT 10SM FEW025TCU BKN180 OVC250 27/22 A3007 RMK AO2 SLP171 TCU NW T02720217 56009=
201407211952 METAR KATL 211952Z 19004KT 10SM FEW026TCU BKN180 BKN250 27/21 A3007 RMK AO2 SLP174 TCU S-SW & NW T02720211=
201407211852 METAR KATL 211852Z 20004KT 10SM FEW030 BKN180 OVC250 27/21 A3008 RMK AO2 SLP175 T02720206=
201407211752 METAR KATL 211752Z 19006KT 10SM FEW030 BKN180 BKN250 27/21 A3009 RMK AO2 SLP181 60000 T02720206 10278 20228 56003=
201407211652 METAR KATL 211652Z 19003KT 10SM FEW030 BKN200 BKN250 27/21 A3010 RMK AO2 SLP182 TCU DSNT N & SE T02720206=
201407211622 SPECI KATL 211622Z 17005KT 10SM SCT030TCU SCT100 BKN200 27/21 A3009 RMK AO2 TCU OHD-SW-NW=
201407211552 METAR KATL 211552Z 00000KT 10SM FEW020 SCT100 SCT200 27/21 A3009 RMK AO2 SLP179 TCU DSNT NE-SE & DSNT NW T02670206=
201407211452 METAR KATL 211452Z 17008KT 10SM BKN015 BKN030 BKN100 26/22 A3010 RMK AO2 RAE34 SLP184 SHRA VC SW-NW P0000 60000 T02610222 50010=
201407211352 METAR KATL 211352Z 19004KT 7SM -RA BKN010 BKN080 BKN100 24/22 A3012 RMK AO2 RAB49 SLP191 P0000 T02440222=
201407211339 SPECI KATL 211339Z 16005KT 3SM BR FEW006 SCT027 BKN100 BKN200 24/22 A3012 RMK AO2 SFC VIS 6=
201407211252 METAR KATL 211252Z 18004KT 2 1/2SM BR BKN006 BKN011 OVC100 23/22 A3010 RMK AO2 SFC VIS 6 DZE01RAB01E08 SLP184 CIG 004V009 P0000 T02330222=
201407211152 METAR KATL 211152Z 16007KT 2 1/2SM -DZ BR OVC006 23/22 A3007 RMK AO2 SFC VIS 6 SLP175 CIG 004V008 P0000 60006 70022 T02280217 10228 20228 53022=
201407211052 METAR KATL 211052Z 17007KT 2 1/2SM -DZ BR BKN005 OVC011 23/22 A3005 RMK AO2 SFC VIS 6 RAB14E52DZB52 SLP166 P0001 T02280217=
201407211004 SPECI KATL 211004Z 16008KT 2 1/2SM BR BKN005 BKN010 OVC024 23/22 A3003 RMK AO2 SFC VIS 6=
201407210952 METAR KATL 210952Z 16009KT 1SM BR BKN004 BKN008 OVC019 23/22 A3003 RMK AO2 SFC VIS 6 RAE10DZB10E48 SLP159 P0001 T02280217=
201407210950 SPECI KATL 210950Z 16008KT 1SM SCT004 BKN011 OVC025 23/22 A3003 RMK AO2 SFC VIS 8 RAE10DZB10E48 P0001=
201407210852 METAR KATL 210852Z 13008KT 1SM -RA BR BKN004 OVC012 23/22 A3001 RMK AO2 SFC VIS 2 DZB06E21RAB21 SLP152 CIG 003V007 TWRINC P0002 60004 T02280217 55003=
201407210752 METAR KATL 210752Z 13005KT 1SM BKN004 OVC010 23/22 A3000 RMK AO2 SFC VIS 9 DZB19E31RAB31E49 SLP151 CIG 003V007 TWRINC P0001 T02280217=
201407210744 SPECI KATL 210744Z 12006KT 1SM -RA BR BKN004 OVC010 23/22 A3000 RMK AO2 SFC VIS 3 DZB19E31RAB31 CIG 003V007 TWRINC P0001=
201407210652 METAR KATL 210652Z 12005KT 1SM BR OVC005 23/22 A3001 RMK AO2 SFC VIS 6 DZE14RAB14E27 SLP155 CIG 003V008 TWRINC P0001 T02280217=
201407210647 SPECI KATL 210647Z 12006KT 1SM BR OVC005 23/22 A3002 RMK AO2 SFC VIS 6 DZE14RAB14E27 CIG 003V008 TWRINC P0001=
201407210552 METAR KATL 210552Z 10005KT 1SM -DZ BR BKN004 OVC017 23/22 A3002 RMK AO2 SFC VIS 2 1/2 RAE51DZB51 SLP158 CIG 003V005 TWRINC P0004 60005 T02280217 10244 20228 56009=
201407210452 METAR KATL 210452Z 11007KT 1SM -RA BR BKN004 OVC010 23/22 A3002 RMK AO2 SFC VIS 2 RAB06 SLP159 CIG 002V006 P0000 T02280217 402440194=
201407210411 SPECI KATL 210411Z 09009KT 1SM -RA BR BKN002 OVC006 23/22 A3004 RMK AO2 SFC VIS 1 1/2 RAB06 P0000=
201407210404 SPECI KATL 210404Z 09010KT 2SM BR BKN003 OVC007 23/22 A3003 RMK AO2 SFC VIS 4=
201407210357 SPECI KATL 210357Z 09009KT 2SM OVC005 23/22 A3004 RMK AO2 SFC VIS 8 CIG 003V007=
201407210352 METAR KATL 210352Z 10008KT 10SM OVC006 23/22 A3004 RMK AO2 RAE46 CIG 004V009 SLP166 P0001 T02280217=
201407210326 SPECI KATL 210326Z 09005KT 8SM -RA BKN006 OVC018 23/22 A3005 RMK AO2 P0001=
201407210252 METAR KATL 210252Z 10006KT 9SM -RA SCT007 BKN013 OVC040 23/22 A3005 RMK AO2 RAB49 SLP167 OCNL LTGIC DSNT SW CB DSNT SW P0000 60000 T02330222 53007=
201407210222 SPECI KATL 210222Z 09006KT 10SM SCT005 BKN008 OVC040 23/22 A3004 RMK AO2 OCNL LTGIC DSNT SW CB DSNT SW=
201407210152 METAR KATL 210152Z 08008KT 10SM FEW008 BKN040 BKN075 BKN200 23/22 A3002 RMK AO2 SLP157 FRQ LTGIC DSNT SW CB DSNT SW T02330222=
201407210052 METAR KATL 210052Z 07009KT 10SM SCT007 BKN035 BKN110 BKN250 24/22 A3001 RMK AO2 SLP155 T02390222=
201407210022 SPECI KATL 210022Z 08007KT 10SM FEW008 SCT018 BKN110 BKN200 24/22 A3002 RMK AO2=
201407202352 METAR KATL 202352Z 10005KT 10SM BKN011 OVC020 24/22 A3003 RMK AO2 SLP160 CIG 009V013 BINOVC 60010 T02440222 10244 20222 55003=
201407202315 SPECI KATL 202315Z 09007KT 10SM BKN013 BKN030 BKN110 BKN250 24/22 A3002 RMK AO2=
201407202306 SPECI KATL 202306Z 10006KT 10SM SCT013 SCT026 BKN120 BKN250 24/22 A3002 RMK AO2=
201407202252 METAR KATL 202252Z 09008KT 10SM BKN013 BKN024 BKN110 BKN250 24/22 A3002 RMK AO2 SLP157 CIG 011V015 T02440217=
201407202224 SPECI KATL 202224Z 12005KT 10SM OVC011 24/22 A3002 RMK AO2 CIG 009V013=
201407202152 METAR KATL 202152Z 12006KT 10SM BKN008 OVC022 24/22 A3003 RMK AO2 RAB27E43 SLP160 CIG 007V010 P0000 T02440217=
201407202052 METAR KATL 202052Z 10006KT 10SM BKN006 OVC012 24/22 A3004 RMK AO2 SLP163 CIG 005V009 60010 T02390217 58013=
201407201952 METAR KATL 201952Z 09006KT 7SM OVC006 23/22 A3005 RMK AO2 RAE42 CIG 004V009 SLP170 P0005 T02280217=
201407201924 SPECI KATL 201924Z 10008KT 5SM -RA BR OVC006 23/22 A3005 RMK AO2 P0005=
201407201905 SPECI KATL 201905Z 08007KT 2SM R09R/4000VP6000FT RA BR OVC007 22/21 A3006 RMK AO2 P0004=
201407201902 SPECI KATL 201902Z 10005KT 1 3/4SM R09R/4000VP6000FT RA BR OVC007 22/21 A3006 RMK AO2 P0000=
201407201852 METAR KATL 201852Z 09008KT 4SM -RA BR OVC007 22/21 A3007 RMK AO2 SLP174 P0005 T02220206=
201407201752 METAR KATL 201752Z 10007KT 6SM -RA BR OVC007 22/21 A3008 RMK AO2 SLP177 P0001 60001 T02220206 10222 20194 58007=
201407201652 METAR KATL 201652Z 07007KT 6SM -RA BR OVC007 22/20 A3009 RMK AO2 RAB40 SLP182 P0000 T02170200=
201407201552 METAR KATL 201552Z 08008KT 10SM OVC007 22/19 A3009 RMK AO2 SLP182 T02170194=
201407201452 METAR KATL 201452Z 09007KT 3SM BR OVC006 21/19 A3010 RMK AO2 SFC VIS 6 SLP184 T02110194 51008 $=
201407201425 SPECI KATL 201425Z 08006KT 3SM BR OVC005 21/19 A3009 RMK AO2 SFC VIS 6 $=
201407201410 SPECI KATL 201410Z 09006KT 1SM BR OVC005 21/19 A3009 RMK AO2 SFC VIS 5 $=
201407201357 SPECI KATL 201357Z 06008G18KT 3/4SM BR OVC004 21/19 A3008 RMK AO2 SFC VIS 4 TWRINC $=
201407201352 METAR KATL 201352Z 03010KT 1/4SM BR OVC004 21/19 A3009 RMK AO2 SFC VIS 4 SLP181 TWRINC T02060189 $=
201407201252 METAR KATL 201252Z 09007KT 1/4SM BR OVC004 20/19 A3009 RMK AO2 SFC VIS 4 SLP182 TWRINC T02000189=
201407201152 METAR KATL 201152Z 09009KT 1/4SM BR OVC003 19/19 A3007 RMK AO2 SFC VIS 2 1/2 SLP175 VIS W-N 1 1/4SM TWRINC 60000 70023 T01940189 10211 20194 51010=
201407201052 METAR KATL 201052Z 07009KT 1/4SM BR OVC003 19/19 A3006 RMK AO2 SFC VIS 1 1/4 SLP172 TWRINC T01940189=
201407200952 METAR KATL 200952Z 07009KT 1/4SM BR OVC003 19/19 A3005 RMK AO2 SFC VIS 1 1/2 SLP167 TWRINC T01940189=
201407200852 METAR KATL 200852Z 06008KT 1/4SM BR OVC003 20/19 A3004 RMK AO2 SFC VIS 1 1/4 RAE14DZB14E50 SLP163 TWRINC P0000 60000 T02000194 55002=
201407200752 METAR KATL 200752Z 08006KT 1/4SM -RA BR OVC003 21/20 A3004 RMK AO2 SFC VIS 2 RAB13E33B49 SLP162 TWRINC P0000 T02060200=
201407200726 SPECI KATL 200726Z 08006KT 1/4SM -RA BR OVC003 21/20 A3004 RMK AO2 SFC VIS 2 RAB13 TWRINC P0000=
201407200652 METAR KATL 200652Z 07005KT 1 1/2SM BR OVC002 21/20 A3004 RMK AO2 SFC VIS 2 1/2 SLP164 TWRINC T02060200=
201407200552 METAR KATL 200552Z 11004KT 1 1/2SM BR OVC004 21/20 A3005 RMK AO2 SFC VIS 6 SLP165 60000 T02110200 10244 20211 58001=
201407200452 METAR KATL 200452Z 08008KT 1 1/2SM BR OVC004 21/20 A3005 RMK AO2 SFC VIS 6 SLP169 T02110200 402940206=
201407200352 METAR KATL 200352Z 08008KT 1 1/2SM BR OVC004 22/21 A3005 RMK AO2 SFC VIS 4 SLP169 CIG 003V005 T02170206=
201407200344 SPECI KATL 200344Z 09007KT 1 1/2SM BR OVC004 22/21 A3006 RMK AO2 SFC VIS 5 CIG 003V005=
201407200252 METAR KATL 200252Z COR 07009KT 3SM BR OVC005 22/21 A3005 RMK AO2 SFC VIS 6 SLP167 CIG 004V006 60000 T02220211 51005=
201407200235 SPECI KATL 200235Z 08012KT 3SM BKN005 OVC012 22/21 A3005 RMK AO2 SFC VIS 8 CIG 004V007=
201407200152 METAR KATL 200152Z 07009KT 10SM BKN006 OVC017 23/21 A3005 RMK AO2 SLP166 T02280211=
201407200126 SPECI KATL 200126Z 09012KT 10SM BKN008 BKN016 OVC065 23/21 A3004 RMK AO2=
201407200052 METAR KATL 200052Z 05011KT 10SM FEW008 BKN020TCU BKN065 BKN200 23/22 A3005 RMK AO2 RAB20E31 SLP166 TCU OHD-ALQDS P0000 T02330217=
201407192352 METAR KATL 192352Z 08011KT 10SM SCT013 BKN020TCU BKN085 BKN200 24/22 A3003 RMK AO2 RAB2254E45 SLP162 CB DSNT E TCU E-S-SW P0000 60000 T02440217 10294 20244 53005=
201407192304 SPECI KATL 192304Z 09011KT 10SM -RA SCT014 BKN024CB BKN085 BKN200 26/22 A3002 RMK AO2 RAB2254 CB VC SE-SW MOV STNRY VCSH SE-SW P0000=
201407192252 METAR KATL 192252Z 08013KT 10SM SCT017 BKN030CB BKN085 BKN200 26/22 A3002 RMK AO2 SLP156 CB VC E-S MOV S VCSH E-S T02560217=
201407192152 METAR KATL 192152Z 08011KT 10SM FEW022 BKN032TCU BKN085 BKN250 27/22 A3002 RMK AO2 SLP157 CB DSNT E & W TCU OHD-ALQDS T02670222=
201407192052 METAR KATL 192052Z 00000KT 10SM SCT032TCU BKN060 29/20 A3002 RMK AO2 SLP155 TCU S-W T02890200 56010=
201407191952 METAR KATL 191952Z VRB03KT 10SM FEW024 BKN035 BKN095 28/22 A3003 RMK AO2 SLP157 T02780217=
201407191852 METAR KATL 191852Z VRB03KT 10SM SCT017 BKN030 BKN070 27/22 A3003 RMK AO2 SLP161 T02670217=
201407191806 SPECI KATL 191806Z 00000KT 10SM SCT015 BKN026 BKN070 26/22 A3005 RMK AO2=
201407191752 METAR KATL 191752Z 33003KT 10SM SCT015 BKN032 26/22 A3005 RMK AO2 RAB1655E12 SLP166 P0001 60023 T02560222 10256 20206 58006=
201407191742 SPECI KATL 191742Z 32006KT 8SM BKN015 BKN025 OVC029 26/22 A3005 RMK AO2 RAB1655E12 P0001=
201407191652 METAR KATL 191652Z 23004KT 10SM BKN010 OVC017 24/22 A3006 RMK AO2 RAB1557E14 SLP171 P0000 T02390217=
201407191641 SPECI KATL 191641Z 19005KT 7SM SCT008 BKN015 OVC027 24/22 A3006 RMK AO2 RAB1557E14 P0000=
201407191552 METAR KATL 191552Z 18004KT 5SM BR OVC006 22/21 A3006 RMK AO2 SLP172 T02220211=
201407191452 METAR KATL 191452Z 19004KT 6SM BR OVC006 22/21 A3007 RMK AO2 CIG 004V008 SLP173 60022 T02220211 53003=
201407191426 SPECI KATL 191426Z 21006KT 3SM BR BKN006 OVC013 22/21 A3006 RMK AO2 SFC VIS 6=
201407191401 SPECI KATL 191401Z 18007KT 3SM BR FEW006 OVC014 22/21 A3006 RMK AO2 SFC VIS 6=
201407191352 METAR KATL 191352Z 17010KT 3SM BR FEW006 OVC016 22/21 A3006 RMK AO2 SFC VIS 5 RAE40 SLP171 P0003 T02220211=
201407191328 SPECI KATL 191328Z 17009KT 3SM -RA BR FEW006 OVC019 22/21 A3006 RMK AO2 SFC VIS 4 P0003=
201407191317 SPECI KATL 191317Z 18010KT 1 1/2SM -RA BR SCT007 BKN011 OVC019 22/21 A3006 RMK AO2 SFC VIS 3 P0003=
201407191259 SPECI KATL 191259Z 16008KT 1 1/2SM -RA BR SCT004 BKN007 OVC017 22/21 A3006 RMK AO2 SFC VIS 2 1/2 P0001=
201407191252 METAR KATL 191252Z 13004KT 1 1/2SM -RA BR BKN004 BKN010 OVC017 21/21 A3006 RMK AO2 SLP172 CIG 003V006 TWRINC P0019 T02110206=
201407191243 SPECI KATL 191243Z 09007KT 1/2SM R09R/5000VP6000FT +RA BR BKN004 BKN017 OVC034 21/20 A3006 RMK AO2 SFC VIS 1 1/2 CIG 003V006 TWRINC P0016=
201407191233 SPECI KATL 191233Z 13005KT 1 1/2SM R09R/5000VP6000FT +RA BR SCT006 BKN022 OVC036 21/21 A3006 RMK AO2 P0007=
201407191221 SPECI KATL 191221Z 12004KT 2SM -RA BR BKN006 BKN022 OVC036 21/21 A3006 RMK AO2 CIG 003V009 P0003=
201407191213 SPECI KATL 191213Z 12004KT 7SM -RA SCT005 BKN022 OVC040 21/20 A3006 RMK AO2 P0001=
201407191152 METAR KATL 191152Z 09005KT 2SM -RA BR BKN005 OVC013 21/19 A3006 RMK AO2 SFC VIS 2 1/2 RAE17B33 SLP171 CIG 004V008 TWRINC P0011 60194 70212 T02060194 10222 20206 53005=
201407191135 SPECI KATL 191135Z 10005KT 2SM -RA BR BKN005 OVC009 21/19 A3006 RMK AO2 SFC VIS 6 RAE17B33 CIG 004V008 TWRINC P0005=
201407191127 SPECI KATL 191127Z 08006KT 2SM BR BKN004 OVC009 21/19 A3006 RMK AO2 SFC VIS 6 RAE17 CIG 003V006 TWRINC P0005=
201407191058 SPECI KATL 191058Z 06009KT 3/4SM +RA BR BKN004 BKN011 OVC031 21/20 A3005 RMK AO2 SFC VIS 1 1/2 CIG 003V006 TWRINC P0004=
201407191052 METAR KATL 191052Z COR 05006KT 2SM RA BR SCT004 BKN011 OVC031 21/20 A3005 RMK AO2 SFC VIS 2 1/2 SLP167 TWRINC P0087 T02060200=
201407191038 SPECI KATL 191038Z 05010KT 2SM +RA BR BKN004 BKN011 OVC021 21/20 A3005 RMK AO2 SFC VIS 2 1/2 P0083=
201407191006 SPECI KATL 191006Z 05009KT 1SM R09R/4500VP6000FT +RA BR BKN004 BKN008 OVC018 21/21 A3005 RMK AO2 P0027=
201407191000 SPECI KATL 191000Z 10004KT 1 1/4SM R09R/4500VP6000FT +RA BR OVC006 22/22 A3005 RMK AO2 P0006=
201407190952 METAR KATL 190952Z 08004KT 4SM RA BR BKN006 OVC012 22/21 A3005 RMK AO2 SLP165 P0011 T02220211=
201407190920 SPECI KATL 190920Z 00000KT 4SM -RA BR BKN006 BKN016 OVC050 22/21 A3004 RMK AO2 P0007=
201407190913 SPECI KATL 190913Z 00000KT 2 1/2SM RA BR BKN006 BKN025 OVC050 22/21 A3004 RMK AO2 P0006=
201407190852 METAR KATL 190852Z 21003KT 5SM -RA BR BKN006 OVC013 22/21 A3004 RMK AO2 SLP164 P0032 60085 T02220211 56009=
201407190834 SPECI KATL 190834Z 20006KT 4SM RA BR BKN006 BKN020 OVC029 22/21 A3005 RMK AO2 P0030=
201407190830 SPECI KATL 190830Z 21004KT 2SM +RA BR SCT006 BKN017 OVC036 22/21 A3005 RMK AO2 P0028=
201407190818 SPECI KATL 190818Z 00000KT 1 1/2SM R09R/5000VP6000FT +RA BR FEW006 BKN017 OVC031 22/21 A3004 RMK AO2 P0018=
201407190812 SPECI KATL 190812Z 21005KT 4SM -RA BR SCT006 BKN022 OVC065 22/21 A3005 RMK AO2 P0012=
201407190757 SPECI KATL 190757Z 18006KT 1 1/4SM R09R/6000VP6000FT +RA BR SCT004 BKN011 OVC022 22/21 A3006 RMK AO2 P0009=
201407190755 SPECI KATL 190755Z VRB06KT 1SM R09R/6000VP6000FT +RA BR FEW004 BKN009 OVC022 22/21 A3005 RMK AO2 P0006=
201407190752 METAR KATL 190752Z 20005KT 1 1/2SM R09R/6000VP6000FT +RA BR SCT004 BKN020 OVC029 22/21 A3005 RMK AO2 SLP167 P0052 T02220211=
201407190735 SPECI KATL 190735Z 16005KT 1 1/2SM R09R/5500VP6000FT +RA BR FEW004 BKN020 OVC029 22/21 A3004 RMK AO2 P0031=
201407190729 SPECI KATL 190729Z 14003KT 2SM +RA BR SCT004 BKN016 OVC033 22/21 A3005 RMK AO2 P0023=
201407190719 SPECI KATL 190719Z 17005KT 2 1/2SM RA BR SCT004 BKN013 OVC033 22/21 A3005 RMK AO2 P0016=
201407190702 SPECI KATL 190702Z 16008KT 2 1/2SM +RA BR BKN006 BKN014 OVC027 22/21 A3006 RMK AO2 P0009=
201407190652 METAR KATL 190652Z 16011KT 4SM -RA BR BKN008 OVC012 22/21 A3006 RMK AO2 RAB16 SLP170 P0001 T02220211=
201407190552 METAR KATL 190552Z 12007KT 7SM OVC006 22/21 A3007 RMK AO2 RAE49 CIG 004V012 SLP173 P0002 60017 T02220211 10244 20211 58012=
201407190508 SPECI KATL 190508Z 10008KT 6SM -RA BR BKN006 BKN065 OVC120 22/21 A3008 RMK AO2 P0001=
201407190452 METAR KATL 190452Z 11008KT 6SM -RA BR SCT006 BKN040 OVC110 22/21 A3008 RMK AO2 SLP177 P0005 T02170206 402780200=
201407190352 METAR KATL 190352Z 00000KT 3SM +RA BR SCT006 BKN010 OVC040 22/21 A3012 RMK AO2 SLP189 P0009 T02170206=
201407190350 SPECI KATL 190350Z 00000KT 4SM +RA BR SCT006 BKN010 OVC040 22/21 A3012 RMK AO2 P0007=
201407190252 METAR KATL 190252Z 09008KT 9SM -RA FEW035 SCT060 OVC095 22/20 A3011 RMK AO2 SLP186 P0001 60001 T02170200 50000=
201407190152 METAR KATL 190152Z 09007KT 10SM -RA FEW080 BKN110 OVC150 22/20 A3011 RMK AO2 SLP186 P0000 T02220200=
201407190052 METAR KATL 190052Z 10006KT 10SM -RA FEW080 BKN120 OVC150 23/19 A3011 RMK AO2 SLP186 P0000 T02330194=
201407182352 METAR KATL 182352Z 10005KT 10SM -RA BKN120 OVC150 24/20 A3010 RMK AO2 SLP186 P0001 60001 T02390200 10272 20239 53003=
201407182252 METAR KATL 182252Z 10007KT 10SM -RA FEW080 BKN120 OVC150 26/18 A3010 RMK AO2 RAB39 SLP183 P0000 T02560178=
201407182152 METAR KATL 182152Z 09006KT 10SM FEW100 BKN140 OVC200 26/17 A3010 RMK AO2 SLP182 T02610167=
201407182052 METAR KATL 182052Z 15004KT 10SM FEW075 BKN100 OVC150 27/14 A3010 RMK AO2 RAE26 SLP182 P0000 60000 T02670144 58012=
201407181952 METAR KATL 181952Z 21003KT 10SM -RA FEW050 OVC100 27/16 A3012 RMK AO2 RAB52 SLP190 P0000 T02670156=
201407181852 METAR KATL 181852Z 19003KT 10SM FEW050 SCT110 OVC150 27/15 A3012 RMK AO2 SLP192 T02670150=
201407181752 METAR KATL 181752Z 19006KT 10SM FEW050 SCT130 OVC160 27/14 A3013 RMK AO2 SLP194 T02720144 10278 20217 53001=
201407181652 METAR KATL 181652Z 18004KT 10SM FEW050 SCT120 BKN150 OVC180 27/14 A3013 RMK AO2 SLP194 T02720144=
201407181552 METAR KATL 181552Z 15004KT 10SM FEW080 BKN120 BKN150 OVC200 26/16 A3013 RMK AO2 SLP192 VIRGA NE-E & W-NW T02610156=
201407181452 METAR KATL 181452Z 13004KT 10SM FEW080 BKN140 BKN200 25/16 A3013 RMK AO2 SLP193 T02500156 51005=
201407181352 METAR KATL 181352Z 12005KT 10SM FEW080 BKN140 OVC200 24/16 A3013 RMK AO2 SLP192 BINOVC DSNT E T02440161=
201407181252 METAR KATL 181252Z 09006KT 10SM FEW075 BKN130 OVC200 23/16 A3012 RMK AO2 SLP190 T02330156=
201407181152 METAR KATL 181152Z 00000KT 10SM FEW075 BKN130 OVC200 22/16 A3011 RMK AO2 SLP187 T02170156 10228 20200 51017=
201407181052 METAR KATL 181052Z 00000KT 10SM BKN150 BKN200 21/16 A3010 RMK AO2 SLP185 T02060156=
201407180952 METAR KATL 180952Z 12006KT 10SM BKN200 OVC250 21/15 A3008 RMK AO2 SLP176 T02060150=
201407180852 METAR KATL 180852Z 00000KT 10SM BKN200 OVC250 21/15 A3006 RMK AO2 SLP170 T02060150 53003=
201407180752 METAR KATL 180752Z 10003KT 10SM BKN200 BKN250 21/14 A3005 RMK AO2 SLP166 T02060144=
201407180652 METAR KATL 180652Z 00000KT 10SM SCT200 BKN250 21/14 A3005 RMK AO2 SLP167 T02060139=
201407180552 METAR KATL 180552Z 00000KT 10SM SCT200 BKN250 23/12 A3005 RMK AO2 SLP167 T02280122 10278 20217 53001=
201407180452 METAR KATL 180452Z 00000KT 10SM SCT200 BKN250 22/13 A3005 RMK AO2 SLP167 T02170133 403000161=
201407180352 METAR KATL 180352Z 00000KT 10SM FEW100 BKN250 22/13 A3005 RMK AO2 SLP168 T02220128=
201407180252 METAR KATL 180252Z 15003KT 10SM FEW200 BKN250 24/13 A3005 RMK AO2 SLP167 T02390128 53007=
201407180152 METAR KATL 180152Z 00000KT 10SM SCT200 BKN250 26/12 A3004 RMK AO2 SLP164 T02610117=
201407180052 METAR KATL 180052Z 00000KT 10SM FEW150 BKN200 BKN250 26/11 A3003 RMK AO2 SLP161 T02610111=
201407172352 METAR KATL 172352Z 17005KT 10SM SCT200 BKN250 28/10 A3003 RMK AO2 SLP160 T02780100 10300 20278 53005=
201407172252 METAR KATL 172252Z 16005KT 10SM FEW065 SCT200 BKN250 28/09 A3002 RMK AO2 SLP156 T02830089=
201407172152 METAR KATL 172152Z 16006KT 10SM FEW070 SCT200 BKN250 29/11 A3001 RMK AO2 SLP155 T02940106=
201407172052 METAR KATL 172052Z 12005KT 10SM FEW070 BKN200 29/10 A3001 RMK AO2 SLP155 T02890100 56002=
201407171952 METAR KATL 171952Z 15007KT 10SM SCT060 BKN250 29/12 A3002 RMK AO2 SLP155 T02890117=
201407171852 METAR KATL 171852Z 13008KT 10SM FEW060 BKN250 29/12 A3001 RMK AO2 SLP154 T02890122=
201407171752 METAR KATL 171752Z 00000KT 10SM FEW050 BKN200 28/15 A3002 RMK AO2 SLP157 T02830150 10283 20172 58003=
201407171652 METAR KATL 171652Z 35003KT 10SM FEW048 BKN250 27/13 A3003 RMK AO2 SLP160 T02670133=
201407171552 METAR KATL 171552Z 00000KT 10SM SCT250 25/14 A3004 RMK AO2 SLP162 T02500139=
201407171452 METAR KATL 171452Z 12005KT 10SM BKN200 24/15 A3003 RMK AO2 SLP160 T02390150 50007=
201407171352 METAR KATL 171352Z 09003KT 10SM BKN200 21/13 A3004 RMK AO2 SLP163 T02110133=
201407171252 METAR KATL 171252Z 00000KT 10SM FEW120 BKN190 20/13 A3003 RMK AO2 SLP159 T02000128=
201407171152 METAR KATL 171152Z 32005KT 10SM FEW120 BKN200 17/13 A3001 RMK AO2 SLP154 T01720128 10189 20161 53014=
201407171052 METAR KATL 171052Z 31006KT 10SM FEW120 BKN200 BKN250 16/13 A2998 RMK AO2 SLP146 T01610128=
201407170952 METAR KATL 170952Z 31007KT 10SM BKN250 16/13 A2998 RMK AO2 SLP145 T01610128=
201407170852 METAR KATL 170852Z 32005KT 10SM SCT250 17/12 A2997 RMK AO2 SLP139 T01670122 52003=
201407170752 METAR KATL 170752Z 33005KT 10SM FEW250 17/12 A2996 RMK AO2 SLP138 T01720122=
201407170652 METAR KATL 170652Z 33006KT 10SM FEW250 18/12 A2996 RMK AO2 SLP138 T01780122=
201407170552 METAR KATL 170552Z 32007KT 10SM FEW250 19/12 A2996 RMK AO2 SLP136 T01890122 10261 20189 58002=
201407170452 METAR KATL 170452Z 33006KT 10SM FEW250 20/12 A2996 RMK AO2 SLP136 T02000117 402830178=
201407170352 METAR KATL 170352Z 33006KT 10SM SCT250 21/12 A2997 RMK AO2 SLP138 T02110117=
201407170252 METAR KATL 170252Z 34006KT 10SM BKN250 22/11 A2996 RMK AO2 SLP137 T02220111 51016=
201407170152 METAR KATL 170152Z 33006KT 10SM SCT250 23/11 A2995 RMK AO2 SLP135 T02330111=
201407170052 METAR KATL 170052Z 32010KT 10SM FEW250 24/11 A2994 RMK AO2 SLP128 T02440111=
201407162352 METAR KATL 162352Z 32010KT 10SM FEW250 26/12 A2992 RMK AO2 SLP122 T02610122 10283 20261 53002=
201407162252 METAR KATL 162252Z 30010G17KT 10SM CLR 27/12 A2991 RMK AO2 SLP119 T02720122=
201407162152 METAR KATL 162152Z 32011KT 10SM FEW060 28/11 A2991 RMK AO2 SLP117 T02780111=
201407162052 METAR KATL 162052Z 34009KT 10SM FEW060 SCT250 28/12 A2991 RMK AO2 SLP119 T02780117 57009=
201407161952 METAR KATL 161952Z 33011G17KT 10SM FEW060 SCT250 28/13 A2992 RMK AO2 SLP122 T02830128=
201407161852 METAR KATL 161852Z 33009G18KT 10SM FEW060 SCT250 27/12 A2993 RMK AO2 SLP125 T02720117=
201407161752 METAR KATL 161752Z 32010G15KT 10SM FEW055 SCT250 27/13 A2994 RMK AO2 SLP129 T02670128 10267 20183 58004=
201407161652 METAR KATL 161652Z 29009KT 10SM FEW050 SCT180 SCT250 26/13 A2995 RMK AO2 SLP133 T02560133=
201407161552 METAR KATL 161552Z 01010KT 10SM FEW045 SCT180 SCT250 25/12 A2996 RMK AO2 SLP137 T02500117=
201407161452 METAR KATL 161452Z 30004KT 10SM SCT180 SCT250 24/15 A2995 RMK AO2 SLP133 T02390150 51008=
201407161352 METAR KATL 161352Z 31007KT 10SM SCT180 BKN250 21/14 A2994 RMK AO2 SLP131 T02060144=
201407161252 METAR KATL 161252Z 32009KT 10SM FEW200 BKN250 21/14 A2994 RMK AO2 SLP131 T02060144=
201407161152 METAR KATL 161152Z 32009KT 10SM FEW120 BKN250 18/14 A2993 RMK AO2 SLP125 T01830144 10217 20178 53010=
201407161052 METAR KATL 161052Z 31005KT 10SM FEW070 SCT150 BKN200 BKN250 18/16 A2992 RMK AO2 SLP122 T01780156=
201407160952 METAR KATL 160952Z 31008KT 10SM FEW200 SCT250 19/16 A2990 RMK AO2 SLP117 T01890161=
201407160852 METAR KATL 160852Z 32009KT 10SM FEW250 20/17 A2990 RMK AO2 SLP115 T02000167 53001=
201407160752 METAR KATL 160752Z 31006KT 10SM FEW200 SCT250 21/18 A2989 RMK AO2 SLP113 T02060178=
201407160652 METAR KATL 160652Z 32008KT 10SM FEW120 SCT200 BKN250 21/18 A2989 RMK AO2 SLP111 T02110183=
201407160552 METAR KATL 160552Z 32006KT 10SM FEW120 SCT200 BKN250 22/19 A2989 RMK AO2 SLP113 T02170189 10278 20217 58003=
201407160452 METAR KATL 160452Z 31007KT 10SM SCT200 BKN250 22/19 A2990 RMK AO2 SLP115 T02220189 403000222=
201407160352 METAR KATL 160352Z 32006KT 10SM FEW120 SCT200 BKN250 23/19 A2990 RMK AO2 SLP114 T02280189=
201407160252 METAR KATL 160252Z 31010KT 10SM FEW150 SCT200 BKN250 23/18 A2990 RMK AO2 SLP116 T02330183 51016=
201407160152 METAR KATL 160152Z 32007KT 10SM FEW075 SCT150 BKN200 BKN250 24/18 A2989 RMK AO2 SLP113 T02390178=
201407160052 METAR KATL 160052Z 31009KT 10SM FEW030 SCT080 BKN150 BKN250 24/18 A2987 RMK AO2 SLP105 CB DSNT NE & SE T02440183=
201407152352 METAR KATL 152352Z 30007KT 10SM SCT035TCU BKN090 BKN150 BKN250 28/21 A2986 RMK AO2 SLP098 CB DSNT SW TCU OHD-N T02780206 10300 20278 55004=
201407152252 METAR KATL 152252Z 29011KT 10SM FEW035TCU SCT090 BKN150 BKN250 28/20 A2985 RMK AO2 SLP097 CB DSNT SE TCU VC W-NW T02830200=
201407152152 METAR KATL 152152Z 29011G15KT 10SM FEW035 SCT110 BKN150 BKN250 29/20 A2985 RMK AO2 SLP098 T02890200=
201407152052 METAR KATL 152052Z 31009KT 10SM SCT038 SCT060 BKN140 29/21 A2987 RMK AO2 SLP102 T02890206 56013=
201407151952 METAR KATL 151952Z 30010KT 10SM SCT038 SCT060 BKN140 28/20 A2987 RMK AO2 SLP105 T02830200=
201407151852 METAR KATL 151852Z 32010G15KT 10SM SCT035 SCT055 BKN120 BKN250 30/20 A2989 RMK AO2 SLP110 T03000200=
201407151752 METAR KATL 151752Z 33012KT 10SM SCT035 BKN050 BKN120 29/21 A2990 RMK AO2 SLP115 T02890206 10294 20239 58016=
201407151652 METAR KATL 151652Z 29008G16KT 10SM SCT030 BKN080 BKN250 28/21 A2992 RMK AO2 SLP121 T02830206=
201407151552 METAR KATL 151552Z 29008G15KT 10SM SCT022 BKN065 BKN120 28/22 A2994 RMK AO2 SLP127 T02780217=
201407151452 METAR KATL 151452Z 31009KT 10SM SCT020 BKN055 BKN110 26/21 A2995 RMK AO2 SLP131 T02560211 53005=
201407151352 METAR KATL 151352Z 28009KT 10SM SCT015 SCT050 BKN110 26/21 A2995 RMK AO2 SLP129 T02560211=
201407151340 SPECI KATL 151340Z 29009KT 9SM SCT015 BKN120 26/22 A2995 RMK AO2=
201407151313 SPECI KATL 151313Z 25006KT 7SM BKN011 BKN100 BKN150 25/22 A2994 RMK AO2 BKN011 V SCT=
201407151301 SPECI KATL 151301Z 26007KT 7SM SCT009 BKN100 BKN150 25/22 A2994 RMK AO2 SCT009 V BKN=
201407151252 METAR KATL 151252Z 26006KT 7SM BKN009 BKN100 BKN150 25/22 A2994 RMK AO2 SLP128 T02500222=
201407151226 SPECI KATL 151226Z 28008KT 7SM BKN009 BKN150 24/22 A2994 RMK AO2=
201407151152 METAR KATL 151152Z 27005KT 8SM FEW009 SCT100 SCT150 SCT200 24/22 A2994 RMK AO2 SLP126 70008 T02440217 10250 20228 53001=
201407151150 SPECI KATL 151150Z 27005KT 8SM FEW009 SCT100 SCT150 SCT200 24/22 A2994 RMK AO2=
201407151052 METAR KATL 151052Z 23003KT 9SM FEW029 SCT100 SCT140 SCT250 23/21 A2993 RMK AO2 SLP124 T02280211=
201407150952 METAR KATL 150952Z 19003KT 10SM FEW029 SCT100 SCT140 SCT250 23/21 A2993 RMK AO2 SLP124 T02280211=
201407150852 METAR KATL 150852Z 25004KT 10SM FEW029 SCT120 BKN250 23/21 A2993 RMK AO2 SLP124 T02330206 57012=
201407150752 METAR KATL 150752Z 24004KT 10SM FEW045 SCT120 SCT250 24/21 A2994 RMK AO2 SLP128 T02390206=
201407150652 METAR KATL 150652Z 25006KT 10SM FEW045 SCT120 24/21 A2996 RMK AO2 SLP134 T02440206=
201407150552 METAR KATL 150552Z 00000KT 10SM FEW045 SCT120 25/20 A2997 RMK AO2 SLP136 T02500200 10294 20250 58001=
201407150452 METAR KATL 150452Z 26006KT 10SM SCT045 BKN120 26/20 A2998 RMK AO2 SLP139 T02560200 403220222=
201407150352 METAR KATL 150352Z 00000KT 10SM FEW120 27/21 A2998 RMK AO2 SLP140 T02670206=
201407150252 METAR KATL 150252Z 19003KT 10SM FEW120 SCT150 27/22 A2997 RMK AO2 SLP138 T02670222 51004=
201407150152 METAR KATL 150152Z 00000KT 10SM SCT120 BKN150 BKN250 27/22 A2997 RMK AO2 SLP135 T02670222=
201407150052 METAR KATL 150052Z 00000KT 10SM FEW050 SCT110 BKN150 BKN250 28/22 A2997 RMK AO2 SLP137 T02780222=
201407142352 METAR KATL 142352Z 00000KT 10SM FEW050 BKN110 BKN250 29/22 A2996 RMK AO2 SLP134 TCU DSNT E-SE 60008 T02890217 10322 20267 55003=
201407142252 METAR KATL 142252Z 33005KT 10SM SCT050CB BKN070 BKN100 BKN250 29/21 A2995 RMK AO2 SLP131 CB VC N & NE-E MOV E TCU N-OHD-S T02890211=
201407142152 METAR KATL 142152Z 21003KT 10SM SCT050TCU SCT100 BKN250 32/23 A2995 RMK AO2 SLP130 CB DSNT W-NW TCU E-OHD-SW T03170233=
201407142052 METAR KATL 142052Z 19005KT 10SM SCT045TCU SCT100 BKN200 32/21 A2997 RMK AO2 SLP136 TCU W CB DSNT N 60008 T03170211 58019=
201407141952 METAR KATL 141952Z 00000KT 10SM SCT045TCU SCT100 BKN200 29/23 A3000 RMK AO2 SLP147 TCU E-SE & SW-NW T02890233=
201407141852 METAR KATL 141852Z 09008KT 10SM FEW030 BKN045TCU BKN090 BKN200 27/22 A3002 RMK AO2 RAB13E44 SLP157 TCU SW-NW SHRA E-SE P0008 T02720222=
201407141752 METAR KATL 141752Z 23009G16KT 10SM BKN045TCU BKN075 32/22 A3003 RMK AO2 SLP156 TCU E & S VCSH SW-NW-NE T03170217 10322 20239 58015=
201407141652 METAR KATL 141652Z 22011G16KT 10SM BKN039CB 30/21 A3005 RMK AO2 SLP163 CB NW-NE MOV E TCU E & SW-W VCSH NW-NE T03000206=
201407141552 METAR KATL 141552Z 25008KT 230V290 10SM SCT032 BKN110 BKN250 31/22 A3007 RMK AO2 SLP169 T03060217=
201407141452 METAR KATL 141452Z 27006KT 10SM FEW025 SCT110 BKN250 29/22 A3007 RMK AO2 SLP171 T02940222 58003=
201407141352 METAR KATL 141352Z 27008KT 10SM FEW100 SCT250 28/23 A3008 RMK AO2 SLP174 T02830228=
201407141252 METAR KATL 141252Z 22004KT 10SM FEW045 SCT100 SCT250 26/22 A3009 RMK AO2 SLP177 T02560217=
201407141152 METAR KATL 141152Z 24004KT 10SM FEW045 SCT100 SCT200 SCT250 24/22 A3008 RMK AO2 SLP176 70048 T02390217 10244 20222=
201407141052 METAR KATL 141052Z 00000KT 10SM FEW100 BKN250 23/21 A3007 RMK AO2 SLP173 ACC DSNT W-N T02280206=
201407140952 METAR KATL 140952Z COR 22004KT 10SM FEW100 SCT250 22/21 A3006 RMK AO2 SLP170 T02220211 $=
201407140852 METAR KATL 140852Z 00000KT 10SM FEW080 SCT110 23/21 A3005 RMK AO2 SLP166 T02330211 55006=
201407140752 METAR KATL 140752Z 00000KT 10SM FEW090 24/21 A3004 RMK AO2 SLP162 T02390211=
201407140652 METAR KATL 140652Z 22003KT 10SM FEW090 24/21 A3006 RMK AO2 SLP167 T02390211=
201407140552 METAR KATL 140552Z 22004KT 10SM FEW090 SCT250 24/21 A3007 RMK AO2 SLP172 60000 T02440211 10300 20244 58004=
201407140452 METAR KATL 140452Z 22004KT 10SM SCT090 BKN250 25/21 A3008 RMK AO2 SLP174 T02500211 403170222=
201407140352 METAR KATL 140352Z 20003KT 10SM SCT120 BKN250 26/21 A3008 RMK AO2 SLP175 T02560211 $=
201407140252 METAR KATL 140252Z 20003KT 10SM BKN090 BKN250 26/21 A3008 RMK AO2 SLP176 60000 T02610211 53010=
201407140152 METAR KATL 140152Z 19003KT 10SM FEW050 BKN090 BKN250 27/22 A3007 RMK AO2 RAB24E26 SLP172 P0000 T02670217=
201407140052 METAR KATL 140052Z 19003KT 10SM FEW050 BKN090 BKN250 28/21 A3006 RMK AO2 SLP169 CB DSNT NW-N TCU DSNT W T02780211=
201407132352 METAR KATL 132352Z 23003KT 10SM FEW055 SCT110 BKN250 30/21 A3005 RMK AO2 SLP165 TCU DSNT W-N-NE 60048 T03000211 10317 20256 55010=
201407132252 METAR KATL 132252Z 17003KT 10SM SCT050TCU SCT100 BKN250 30/21 A3004 RMK AO2 RAE2158 SLP163 TCU N-NE P0000 T03000211=
201407132152 METAR KATL 132152Z 00000KT 8SM -RA SCT040TCU BKN085 BKN250 29/19 A3006 RMK AO2 PK WND 08026/2105 WSHFT 2059 SLP169 CB DSPTD TCU E & SW-W P0047 T02890189=
201407132116 SPECI KATL 132116Z 11013G21KT 3SM R09R/5500VP6000FT +RA SCT040CB BKN050TCU OVC070 26/20 A3008 RMK AO2 PK WND 08026/2105 WSHFT 2059 CB OHD-SW MOV SW TCU NW-N VSBY LWR SW P0014=
201407132052 METAR KATL 132052Z 00000KT 10SM -RA BKN050CB BKN060TCU BKN250 30/21 A3008 RMK AO2 RAB46 SLP175 CB OHD-SW MOV W TCU NW-NE P0001 60001 T03000206 56015=
201407131952 METAR KATL 131952Z 31003KT 10SM SCT055TCU BKN070 BKN250 32/20 A3009 RMK AO2 SLP176 TCU SW T03170200=
201407131852 METAR KATL 131852Z 00000KT 10SM SCT048TCU SCT100 BKN200 BKN250 31/19 A3011 RMK AO2 SLP184 TCU SW-W T03060194=
201407131752 METAR KATL 131752Z 00000KT 10SM SCT042TCU SCT075 BKN200 BKN250 30/19 A3013 RMK AO2 SLP191 TCU SW-W & DSNT NE-E T03000189 10311 20228 58017=
201407131652 METAR KATL 131652Z 17004KT 10SM SCT038TCU SCT060 SCT200 BKN250 29/19 A3015 RMK AO2 SLP200 TCU SW-W T02940194=
201407131552 METAR KATL 131552Z 00000KT 10SM SCT028TCU SCT055 SCT200 BKN250 29/21 A3017 RMK AO2 SLP206 TCU W T02940211=
201407131452 METAR KATL 131452Z 00000KT 10SM FEW022 SCT200 SCT250 28/22 A3018 RMK AO2 SLP207 T02830217 50005 $=
201407131352 METAR KATL 131352Z 00000KT 10SM FEW200 SCT250 27/22 A3019 RMK AO2 SLP210 T02670217 $=
201407131252 METAR KATL 131252Z 19003KT 10SM FEW120 SCT250 24/21 A3018 RMK AO2 SLP208 T02440211 $=
201407131152 METAR KATL 131152Z 19006KT 9SM FEW250 23/21 A3016 RMK AO2 SLP203 T02280206 10239 20222 53012 $=
201407131052 METAR KATL 131052Z 14004KT 10SM FEW250 22/21 A3014 RMK AO2 SLP196 T02220206 $=
201407130952 METAR KATL 130952Z 00000KT 10SM FEW250 22/20 A3012 RMK AO2 SLP190 T02220200 $=
201407130852 METAR KATL 130852Z 00000KT 10SM CLR 23/20 A3013 RMK AO2 SLP191 T02330200 56005 $=
201407130752 METAR KATL 130752Z 00000KT 10SM FEW250 23/20 A3013 RMK AO2 SLP191 T02330200 $=
201407130652 METAR KATL 130652Z 00000KT 10SM FEW250 24/20 A3013 RMK AO2 SLP193 T02390200 $=
201407130552 METAR KATL 130552Z 00000KT 10SM FEW250 24/20 A3014 RMK AO2 SLP196 T02390200 10306 20239 58002 $=
201407130452 METAR KATL 130452Z 17004KT 10SM FEW060 24/21 A3015 RMK AO2 SLP200 T02440206 403220217 $=
201407130352 METAR KATL 130352Z 14003KT 10SM FEW060 26/20 A3015 RMK AO2 SLP200 T02560200 $=
201407130252 METAR KATL 130252Z 00000KT 10SM FEW080 SCT250 28/19 A3015 RMK AO2 SLP198 T02780194 52005 $=
201407130152 METAR KATL 130152Z 00000KT 10SM FEW060 SCT100 SCT250 28/19 A3014 RMK AO2 SLP196 T02830194 $=
201407130052 METAR KATL 130052Z 16004KT 10SM FEW060TCU SCT100 SCT250 29/19 A3014 RMK AO2 SLP195 TCU N CB DSNT NW T02890194 $=
201407122352 METAR KATL 122352Z 16006KT 10SM FEW060TCU SCT090 SCT250 31/18 A3013 RMK AO2 SLP193 TCU N-NE CB DSNT NW T03060183 10322 20283 55005 $=
201407122252 METAR KATL 122252Z VRB04KT 10SM FEW055 SCT090 SCT250 31/18 A3013 RMK AO2 SLP191 TCU DSNT NE & S T03110183 $=
201407122152 METAR KATL 122152Z 12003KT 10SM FEW055 SCT090 SCT250 32/17 A3014 RMK AO2 SLP194 T03170172 $=
201407122052 METAR KATL 122052Z 12005KT 10SM FEW050 SCT090 SCT200 SCT250 31/18 A3015 RMK AO2 SLP198 CB DSNT N TCU DSNT NW-NE T03060183 58021 $=
201407122052 SPECI KATL 122052Z 12005KT 10SM FEW050 SCT090 SCT200 SCT250 31/18 A3015 RMK AO2 SLP198 CB DSNT N TCU DSNT NW-NE T03060183 58021 $=
201407121952 METAR KATL 121952Z 00000KT 10SM SCT042TCU SCT085 SCT250 30/19 A3018 RMK AO2 SLP208 TCU OHD-W-NW & DSNT NW-NE T03000194 $=
201407121852 METAR KATL 121852Z VRB03KT 10SM SCT040TCU SCT070 SCT250 30/20 A3019 RMK AO2 SLP213 TCU SE-SW-NW T03000200 $=
201407121752 METAR KATL 121752Z 18006KT 10SM SCT036TCU BKN060 BKN250 29/20 A3021 RMK AO2 SLP220 TCU ALQDS T02890200 10300 20222 58009 $=
201407121652 METAR KATL 121652Z 12004KT 10SM BKN032 BKN050 BKN250 28/21 A3023 RMK AO2 SLP226 T02830206 $=
201407121652 SPECI KATL 121652Z 12004KT 10SM BKN032 BKN050 BKN250 28/21 A3023 RMK AO2 SLP226 T02830206 $=
201407121628 SPECI KATL 121628Z 07005KT 10SM BKN030 BKN040 BKN250 28/21 A3023 RMK AO2 $=
201407121552 METAR KATL 121552Z 00000KT 9SM BKN020 BKN030 BKN250 27/21 A3024 RMK AO2 SLP229 CIG 018V022 T02670211 $=
201407121525 SPECI KATL 121525Z 14007KT 8SM BKN018 BKN250 26/21 A3024 RMK AO2 CIG 016V020 $=
201407121452 METAR KATL 121452Z 15008KT 8SM BKN014 OVC022 24/22 A3024 RMK AO2 SLP231 CIG 012V016 BINOVC T02440217 51012 $=
201407121441 SPECI KATL 121441Z 12008KT 7SM BKN012 OVC018 25/22 A3024 RMK AO2 CIG 010V014 BINOVC $=
201407121352 METAR KATL 121352Z 10005KT 2SM BR BKN005 OVC012 23/22 A3024 RMK AO2 SFC VIS 5 SLP230 CIG 004V006 T02330217 $=
201407121252 METAR KATL 121252Z 11008KT 2SM BR OVC005 23/21 A3022 RMK AO2 SFC VIS 6 SLP225 T02280211 $=
201407121247 SPECI KATL 121247Z 12008KT 2SM BR OVC005 23/21 A3022 RMK AO2 SFC VIS 6 $=
201407121158 SPECI KATL 121158Z 10006KT 2SM BR BKN004 22/21 A3020 RMK AO2 SFC VIS 5 TWRINC $=
201407121152 METAR KATL 121152Z 09008KT 5SM BR BKN005 22/21 A3020 RMK AO2 SLP217 70065 T02220211 10228 20217 51009 $=
201407121140 SPECI KATL 121140Z 09007KT 6SM BR BKN005 22/21 A3020 RMK AO2 $=
201407121052 METAR KATL 121052Z 09005KT 8SM FEW250 22/21 A3020 RMK AO2 SLP217 T02170206 $=
201407120952 METAR KATL 120952Z 09005KT 7SM FEW250 22/21 A3018 RMK AO2 SLP213 T02170206 $=
201407120852 METAR KATL 120852Z 07008KT 9SM FEW036 SCT250 23/21 A3017 RMK AO2 SLP209 T02280211 55005 $=
201407120752 METAR KATL 120752Z 08006KT 9SM FEW036 SCT250 23/21 A3017 RMK AO2 SLP206 T02280211 $=
201407120652 METAR KATL 120652Z 10003KT 9SM FEW036 SCT250 22/21 A3017 RMK AO2 SLP207 T02220206 $=
201407120552 METAR KATL 120552Z 09008KT 10SM FEW150 SCT250 23/19 A3019 RMK AO2 SLP213 T02280189 10278 20228 55008 $=
201407120452 METAR KATL 120452Z 00000KT 10SM FEW100 SCT150 BKN250 23/18 A3018 RMK AO2 SLP207 T02330183 402940217 $=
201407120352 METAR KATL 120352Z 08003KT 10SM FEW100 SCT150 BKN250 24/17 A3020 RMK AO2 SLP215 T02390172=
201407120252 SPECI KATL 120252Z 15009G15KT 10SM FEW025 SCT040 BKN100 BKN250 24/18 A3022 RMK AO2 SLP221 OCNL LTG DSNT NE T02440183 53025=
201407120252 METAR KATL 120252Z 15009G15KT 10SM FEW025 SCT040 BKN100 BKN250 24/18 A3022 RMK AO2 SLP221 OCNL LTG DSNT NE T02440183 53025=
201407120152 METAR KATL 120152Z 09005KT 10SM FEW028 SCT120 BKN250 26/22 A3017 RMK AO2 SLP205 FRQ LTG DSNT NE & SE T02560217=
201407120052 METAR KATL 120052Z 00000KT 10SM FEW150 SCT200 BKN250 26/22 A3015 RMK AO2 SLP199 CB DSNT NE & SE T02610217=
201407112352 METAR KATL 112352Z 00000KT 10SM FEW150 SCT200 BKN250 28/21 A3014 RMK AO2 SLP197 60007 T02780211 10294 20250 53003=
201407112252 METAR KATL 112252Z VRB03KT 10SM FEW150 SCT200 BKN250 28/21 A3013 RMK AO2 SLP194 T02830211=
201407112152 METAR KATL 112152Z 32004KT 10SM FEW030 BKN180CB BKN250 26/21 A3013 RMK AO2 SLP192 CBMAM OHD-NE MOV SE CB DSNT NW-NE T02560211=
201407112052 METAR KATL 112052Z 30005KT 10SM BKN030TCU BKN090 OVC200 26/21 A3013 RMK AO2 SLP195 OCNL LTGCGIC DSNT SW-W TCU E-SE CB DSNT SW-W MOV S 60007 T02610211 56005=
201407111952 METAR KATL 111952Z 18007KT 10SM BKN032TCU BKN080 27/22 A3013 RMK AO2 TSE44RAB18E52 SLP195 TCU ALQDS CB DSNT NE-SE-S P0007 T02670222=
201407111945 SPECI KATL 111945Z 18004KT 9SM -RA BKN032TCU BKN080 27/23 A3013 RMK AO2 TSE44RAB18 PRESFR TCU ALQDS CB DSNT NE-SE-S P0007=
201407111852 METAR KATL 111852Z 18007KT 10SM TS FEW019 BKN031CB BKN085 28/20 A3015 RMK AO2 TSB27RAE1757 SLP198 OCNL LTGCGIC NW-NE TS NW-NE MOV SE SHRA NW-NE P0000 T02780200=
201407111828 SPECI KATL 111828Z 18010KT 10SM TS FEW019 BKN031CB 26/21 A3015 RMK AO2 TSB27RAE1757 OCNL LTGIC SE-SW TS SE-SW MOV SW TCU N-NE SHRA N-NE P0000=
201407111752 METAR KATL 111752Z 07004KT 10SM -RA FEW019 BKN031TCU BKN230 29/22 A3015 RMK AO2 PK WND 28026/1703 WSHFT 1707 RAB1654 SLP199 TCU N-NE & E-S P0058 60058 T02890222 10294 20233 58011=
201407111727 SPECI KATL 111727Z 05009KT 5SM -RA SCT022CB BKN031 BKN230 26/20 A3017 RMK AO2 PK WND 28026/1703 WSHFT 1707 RAB1654 CB S MOV SE TCU E & W P0058=
201407111713 SPECI KATL 111713Z 05014G24KT 5SM R09R/1800V2800FT +RA SCT022CB BKN031 BKN230 25/19 A3017 RMK AO2 PK WND 28026/1703 RAB1654 VIS S 1/2 CB S MOV SE P0046=
201407111702 SPECI KATL 111702Z 28012G23KT 4SM R09R/4500VP6000FT +RA BKN031 BKN250 27/22 A3017 RMK AO2 RAB1654 P0008=
201407111658 SPECI KATL 111658Z VRB04KT 1 3/4SM RA SCT036 BKN050 OVC070 28/21 A3017 RMK AO2 RAB54 P0000=
201407111652 METAR KATL 111652Z 00000KT 10SM BKN031 BKN230 29/21 A3017 RMK AO2 SLP206 T02890211=
201407111552 METAR KATL 111552Z 00000KT 10SM SCT023 BKN150 BKN230 29/22 A3018 RMK AO2 SLP209 T02890217=
201407111452 METAR KATL 111452Z 00000KT 10SM FEW023 SCT130 BKN180 BKN250 28/22 A3018 RMK AO2 SLP210 T02780217 51016=
201407111352 METAR KATL 111352Z 08003KT 10SM FEW023 SCT130 BKN180 BKN250 26/22 A3018 RMK AO2 SLP208 T02610217=
201407111252 METAR KATL 111252Z 00000KT 10SM FEW130 BKN180 BKN250 25/22 A3016 RMK AO2 SLP203 T02500217=
201407111152 METAR KATL 111152Z 27003KT 10SM FEW120 BKN180 BKN250 23/22 A3014 RMK AO2 SLP194 T02330217 10233 20217 53012=
201407111052 METAR KATL 111052Z 00000KT 10SM FEW120 BKN180 OVC250 22/21 A3012 RMK AO2 SLP187 T02220206=
201407110952 METAR KATL 110952Z 21003KT 10SM FEW050 SCT120 BKN200 OVC250 22/21 A3011 RMK AO2 SLP187 T02220206=
201407110852 METAR KATL 110852Z 00000KT 10SM FEW055 SCT120 BKN200 BKN250 23/21 A3010 RMK AO2 SLP182 T02280206 57001=
201407110752 METAR KATL 110752Z 00000KT 10SM SCT050 SCT120 BKN200 BKN250 22/21 A3010 RMK AO2 SLP183 T02220206=
201407110652 METAR KATL 110652Z 00000KT 10SM FEW048 SCT200 BKN250 23/21 A3010 RMK AO2 SLP182 T02330206=
201407110552 METAR KATL 110552Z 24003KT 10SM FEW045 SCT110 SCT200 BKN250 23/21 A3010 RMK AO2 SLP183 T02280211 10283 20228 50000=
201407110452 METAR KATL 110452Z 00000KT 10SM FEW040 SCT100 BKN200 BKN250 24/21 A3011 RMK AO2 SLP185 T02390206 403060211=
201407110352 METAR KATL 110352Z 17003KT 10SM FEW100 BKN250 24/21 A3011 RMK AO2 SLP187 T02440206=
201407110252 METAR KATL 110252Z 23004KT 10SM FEW100 SCT200 BKN250 25/20 A3010 RMK AO2 SLP183 T02500200 51015=
201407110152 METAR KATL 110152Z 20003KT 10SM FEW040 SCT200 BKN250 26/20 A3009 RMK AO2 SLP177 FRQ LTG DSNT SW T02560200=
201407110052 METAR KATL 110052Z 21004KT 10SM SCT040CB BKN200 BKN250 27/22 A3008 RMK AO2 SLP176 CB NE-SE MOV SE TCU OHD-W T02670217=
201407102352 METAR KATL 102352Z 21007KT 10SM SCT040TCU BKN200 BKN250 28/21 A3006 RMK AO2 SLP169 CB DSNT NW-N TCU OHD-NE T02830206 10306 20278 53004=
201407102252 METAR KATL 102252Z 23007KT 10SM FEW040 SCT200 BKN250 29/20 A3002 RMK AO2 SLP157 CB DSNT W & NW-N T02940200=
201407102152 METAR KATL 102152Z 23008KT 10SM FEW040 SCT100 BKN250 29/21 A3003 RMK AO2 SLP160 TCU DSNT NW-NE T02890206=
201407102052 SPECI KATL 102052Z 24007KT 10SM SCT040TCU SCT085 BKN250 29/21 A3005 RMK AO2 SLP165 TCU N & NE CB DSNT SE-S T02890206 56013=
201407102052 METAR KATL 102052Z 24007KT 10SM SCT040TCU SCT085 BKN250 29/21 A3005 RMK AO2 SLP165 TCU N & NE CB DSNT SE-S T02890206 56013=
201407101952 METAR KATL 101952Z 32008KT 10SM SCT040TCU SCT085 BKN250 31/18 A3006 RMK AO2 SLP167 TCU NE & SE-S CB DSNT NE-SE-S T03060183=
201407101852 METAR KATL 101852Z 29011KT 10SM BKN040CB BKN080 OVC250 29/20 A3006 RMK AO2 SLP169 CB SE-S & SW-W MOV E TCU N-E T02940200=
201407101752 METAR KATL 101752Z 29008KT 10SM BKN041CB OVC250 29/20 A3009 RMK AO2 SLP177 CB S MOV E TCU N-E & W T02940200 10306 20222 58009=
201407101652 METAR KATL 101652Z 22004KT 10SM BKN039TCU BKN250 28/20 A3011 RMK AO2 SLP185 TCU SE & W T02830200=
201407101552 METAR KATL 101552Z 28005KT 10SM BKN031 OVC250 28/21 A3012 RMK AO2 SLP187 TCU DSNT S T02830206=
201407101452 METAR KATL 101452Z 27005KT 10SM FEW025 SCT180 BKN250 28/21 A3011 RMK AO2 SLP186 T02830206 53008=
201407101352 METAR KATL 101352Z 00000KT 10SM FEW025 SCT180 BKN250 26/21 A3010 RMK AO2 SLP182 T02610206=
201407101252 METAR KATL 101252Z 28004KT 10SM FEW010 SCT065 BKN180 BKN250 23/21 A3010 RMK AO2 SLP182 T02330206=
201407101152 METAR KATL 101152Z 29007KT 9SM FEW005 SCT060 BKN180 BKN250 22/21 A3009 RMK AO2 SLP179 60000 70001 T02220206 10228 20211 51014=
201407101052 METAR KATL 101052Z 26004KT 10SM SCT007 SCT060 BKN180 BKN250 21/20 A3008 RMK AO2 RAB13E25 SLP175 P0000 T02110200=
201407101042 SPECI KATL 101042Z 28005KT 10SM FEW007 SCT038 SCT060 BKN200 22/20 A3007 RMK AO2 RAB13E25 P0000=
201407100952 METAR KATL 100952Z 27005KT 10SM FEW036 SCT060 BKN150 BKN200 22/19 A3006 RMK AO2 SLP170 T02220194=
201407100852 METAR KATL 100852Z 23005KT 10SM FEW038 SCT060 BKN150 BKN200 22/19 A3005 RMK AO2 SLP164 T02170194 56003=
201407100752 METAR KATL 100752Z 22006KT 10SM FEW055 BKN150 BKN200 BKN250 22/19 A3005 RMK AO2 SLP164 T02220194=
201407100652 METAR KATL 100652Z 22004KT 10SM SCT150 BKN200 BKN250 22/19 A3005 RMK AO2 SLP163 T02220194=
201407100552 METAR KATL 100552Z 26005KT 10SM FEW042TCU SCT150 SCT200 BKN250 23/19 A3006 RMK AO2 SLP167 TCU NW T02280194 10283 20222 58002=
201407100452 METAR KATL 100452Z 19004KT 10SM FEW045 SCT150 BKN200 BKN250 23/20 A3007 RMK AO2 SLP171 OCNL LTG DSNT NE T02280200 403220228=
201407100352 METAR KATL 100352Z 19006KT 10SM SCT045 BKN140 OVC200 24/21 A3008 RMK AO2 SLP175 T02440206=
201407100252 METAR KATL 100252Z 22004KT 10SM SCT140 BKN200 BKN250 25/21 A3006 RMK AO2 SLP170 T02500206 53015=
201407100152 METAR KATL 100152Z 20006KT 10SM FEW045 SCT150 BKN180 BKN250 26/19 A3004 RMK AO2 SLP162 T02610194=
201407100052 METAR KATL 100052Z 26004KT 10SM FEW045 SCT150 BKN200 BKN250 28/19 A3002 RMK AO2 SLP155 CB DSNT SE T02780189=
201407092352 METAR KATL 092352Z 28007KT 10SM FEW045 BKN150 BKN250 28/18 A3002 RMK AO2 SLP154 CB DSNT SE-S TCU DSNT W 60001 T02830183 10322 20283 53007=
201407092252 METAR KATL 092252Z 32011KT 10SM FEW045 SCT120 BKN200 29/17 A3000 RMK AO2 SLP149 TCU DSNT E & SW T02940172=
201407092152 METAR KATL 092152Z 28005KT 10SM SCT045TCU BKN110 BKN200 31/20 A3000 RMK AO2 SLP148 TCU E & VC SW T03060200=
201407092052 METAR KATL 092052Z 26005KT 10SM FEW050 SCT150 BKN230 31/18 A3000 RMK AO2 SLP146 CB DSNT E TCU DSNT NE & SE & NW 60001 T03060183 58014=
201407091952 METAR KATL 091952Z 28010G17KT 10SM FEW045 SCT075 BKN150 BKN230 32/18 A3002 RMK AO2 SLP153 CB DSNT E-S TCU DSNT S-SW T03170178=
201407091852 METAR KATL 091852Z 27006KT 10SM SCT043CB SCT075 BKN150 30/21 A3003 RMK AO2 RAB00E18 SLP159 CB E-SE MOV E SHRA VC E-SE P0001 T03000211=
201407091752 METAR KATL 091752Z 26009G15KT 10SM SCT043TCU BKN150 31/20 A3004 RMK AO2 SLP160 TCU NE-E & SW CB DSNT NE T03110200 10311 20244 58008=
201407091652 METAR KATL 091652Z 24008KT 10SM SCT044TCU SCT150 31/20 A3005 RMK AO2 SLP165 TCU NE-E-SE-S & W-NW T03060200=
201407091552 METAR KATL 091552Z 26008G14KT 10SM FEW040 SCT150 SCT250 30/20 A3007 RMK AO2 SLP169 T03000200=
201407091452 METAR KATL 091452Z 22009KT 10SM FEW150 SCT200 BKN250 28/20 A3007 RMK AO2 SLP170 T02830200 53000=
201407091352 METAR KATL 091352Z 24007KT 200V270 10SM FEW150 BKN200 BKN250 26/21 A3007 RMK AO2 SLP170 T02610206=
201407091252 METAR KATL 091252Z 27005KT 10SM FEW150 BKN200 BKN250 26/21 A3006 RMK AO2 SLP170 T02610206=
201407091152 METAR KATL 091152Z 23004KT 10SM SCT150 BKN200 BKN250 24/19 A3006 RMK AO2 SLP170 T02440194 10261 20233 53009=
201407091052 METAR KATL 091052Z 25006KT 10SM FEW110 BKN150 BKN200 OVC250 24/19 A3005 RMK AO2 SLP166 T02390189=
201407090952 METAR KATL 090952Z 23006KT 10SM FEW085 SCT110 OVC200 24/18 A3004 RMK AO2 SLP161 T02390183 $=
201407090852 METAR KATL 090852Z 23006KT 10SM BKN080 BKN110 OVC200 24/18 A3004 RMK AO2 SLP159 T02440178 55005 $=
201407090752 METAR KATL 090752Z 22005KT 10SM BKN080 BKN110 OVC200 24/18 A3003 RMK AO2 SLP158 T02440178 $=
201407090652 METAR KATL 090652Z 21006KT 10SM SCT085 BKN110 OVC200 24/18 A3003 RMK AO2 SLP158 T02440178 $=
201407090552 METAR KATL 090552Z 23004KT 10SM BKN120 BKN180 BKN250 25/18 A3005 RMK AO2 SLP164 T02500178 10294 20250 50002 $=
201407090452 METAR KATL 090452Z 24005KT 10SM FEW120 BKN150 BKN250 26/17 A3007 RMK AO2 SLP169 T02610172 403220211 $=
201407090352 METAR KATL 090352Z 24004KT 10SM BKN130 BKN250 27/18 A3006 RMK AO2 SLP169 T02670178 $=
201407090252 METAR KATL 090252Z 21004KT 10SM BKN140 BKN250 26/18 A3005 RMK AO2 SLP163 T02610178 53001 $=
201407090152 METAR KATL 090152Z 21004KT 10SM FEW200 BKN250 26/18 A3003 RMK AO2 SLP159 T02610183 $=
201407090052 METAR KATL 090052Z 24006KT 10SM FEW200 BKN250 28/18 A3004 RMK AO2 SLP161 T02830183 $=
201407082352 METAR KATL 082352Z 25008KT 10SM FEW055 BKN250 29/18 A3004 RMK AO2 SLP162 T02890183 10322 20289 53008 $=
201407082252 METAR KATL 082252Z 27012KT 10SM FEW060 BKN250 29/18 A3002 RMK AO2 SLP156 TCU DSNT E T02940183 PNO $=
201407082152 METAR KATL 082152Z 26010G19KT 10SM FEW060 BKN250 32/17 A3001 RMK AO2 SLP152 T03170172=
201407082052 METAR KATL 082052Z 26009G15KT 10SM FEW055 SCT200 SCT250 32/18 A3002 RMK AO2 SLP153 TCU DSNT SE T03220183 58018=
201407081952 METAR KATL 081952Z 28011KT 10SM FEW055TCU SCT100 SCT250 32/19 A3005 RMK AO2 SLP163 TCU N & SE & SW T03170189=
201407081852 METAR KATL 081852Z 23008KT 10SM FEW055TCU SCT090 SCT250 31/18 A3006 RMK AO2 SLP168 TCU E-SE-S T03110183=
201407081752 METAR KATL 081752Z 28010G19KT 10SM FEW045CB SCT085 SCT250 31/18 A3007 RMK AO2 SLP172 CB NE-SE MOV E SHRA VC NE-SE T03110183 10311 20233 58011=
201407081652 METAR KATL 081652Z 26010G17KT 230V290 10SM FEW040CB SCT050TCU SCT250 31/19 A3009 RMK AO2 SLP180 CB NE MOV E TCU E-SE & SW-N SHRA VC NE T03060194=
201407081552 METAR KATL 081552Z 29009KT 10SM FEW040 SCT200 BKN250 29/21 A3011 RMK AO2 SLP184 TCU DSNT N-NE & E-SE-S & DSNT NW T02940206=
201407081452 METAR KATL 081452Z 24008KT 220V280 10SM FEW200 SCT250 28/20 A3011 RMK AO2 SLP184 T02830200 50000=
201407081352 METAR KATL 081352Z 27008KT 10SM FEW080 SCT100 SCT250 27/19 A3012 RMK AO2 SLP188 T02720189=
201407081252 METAR KATL 081252Z 26008KT 10SM FEW080 SCT250 26/17 A3011 RMK AO2 SLP184 T02560172=
201407081152 METAR KATL 081152Z 26004KT 10SM BKN075 23/17 A3011 RMK AO2 SLP184 T02330172 10233 20211 51028=
201407081052 METAR KATL 081052Z 24006KT 10SM SCT080 BKN250 23/17 A3009 RMK AO2 SLP177 ACC DSNT NW-N T02280167=
201407080952 METAR KATL 080952Z 23005KT 10SM FEW250 22/17 A3005 RMK AO2 SLP164 T02170167=
201407080852 METAR KATL 080852Z 23005KT 10SM CLR 22/17 A3002 RMK AO2 SLP155 T02170167 55008=
201407080752 METAR KATL 080752Z 23004KT 10SM FEW250 22/16 A3002 RMK AO2 SLP153 T02220161=
201407080652 METAR KATL 080652Z 00000KT 10SM FEW250 22/17 A3004 RMK AO2 SLP160 T02220167=
201407080552 METAR KATL 080552Z 25003KT 10SM CLR 23/17 A3005 RMK AO2 SLP163 T02280167 10294 20228 55005=
201407080452 METAR KATL 080452Z 00000KT 10SM CLR 23/17 A3005 RMK AO2 SLP163 T02330167 403170222=
201407080352 METAR KATL 080352Z 22003KT 10SM CLR 24/17 A3005 RMK AO2 SLP166 T02440167=
201407080252 METAR KATL 080252Z 27004KT 10SM FEW060 26/17 A3006 RMK AO2 SLP168 T02560167 51017=
201407080152 METAR KATL 080152Z 29007KT 10SM CLR 27/17 A3005 RMK AO2 SLP165 T02670172=
201407080052 METAR KATL 080052Z 27006KT 10SM CLR 28/17 A3003 RMK AO2 SLP156 T02780167=
201407072352 METAR KATL 072352Z 27007KT 10SM FEW060 29/16 A3001 RMK AO2 SLP151 T02940161 10317 20294 55003=
201407072252 METAR KATL 072252Z 27009KT 10SM FEW060 31/17 A3000 RMK AO2 SLP149 T03060167=
201407072152 METAR KATL 072152Z 27008KT 10SM FEW060 32/18 A3001 RMK AO2 SLP152 T03170183=
201407072052 METAR KATL 072052Z 28005G14KT 10SM FEW060 SCT200 31/17 A3002 RMK AO2 SLP154 CB DSNT E & S T03110167 56014=
201407071952 METAR KATL 071952Z 32008G14KT 10SM FEW050 SCT075 SCT200 32/19 A3003 RMK AO2 SLP157 CB DSNT S TCU DSNT NE-SE T03170189=
201407071852 METAR KATL 071852Z 30009KT 10SM FEW050CB SCT060 SCT090 31/19 A3004 RMK AO2 SLP161 CB E MOV NE SHRA VC E T03110194=
201407071752 METAR KATL 071752Z VRB05KT 10SM BKN046TCU BKN060 BKN090 29/19 A3006 RMK AO2 SLP168 TCU OHD & ALQDS T02940194 10300 20228 58012=
201407071652 METAR KATL 071652Z 00000KT 10SM FEW030CB SCT040TCU SCT250 29/20 A3008 RMK AO2 SLP173 CB E & S MOV NE TCU NE-E-SE-S-SW SHRA VC E & VC S T02890200=
201407071552 METAR KATL 071552Z VRB03KT 10SM FEW035TCU SCT075 SCT090 29/21 A3009 RMK AO2 SLP180 CB DSNT N TCU E & SW T02890206=
201407071452 METAR KATL 071452Z 27004KT 10SM FEW025 SCT075 SCT090 27/21 A3009 RMK AO2 SLP180 T02720211 51011=
201407071352 METAR KATL 071352Z VRB03KT 10SM SCT085 26/20 A3009 RMK AO2 SLP179 T02560200=
201407071252 METAR KATL 071252Z 20004KT 10SM FEW070 BKN095 24/21 A3007 RMK AO2 SLP173 T02440206=
201407071152 METAR KATL 071152Z 00000KT 10SM SCT070 BKN100 BKN150 BKN250 23/20 A3006 RMK AO2 SLP169 T02280200 10244 20222 53007=
201407071052 METAR KATL 071052Z 00000KT 10SM FEW070 SCT120 SCT250 22/20 A3005 RMK AO2 SLP165 T02220200=
201407070952 METAR KATL 070952Z 00000KT 10SM FEW070 SCT250 23/20 A3004 RMK AO2 SLP162 T02280200 $=
201407070852 METAR KATL 070852Z 16003KT 10SM FEW070 SCT250 22/20 A3004 RMK AO2 SLP162 T02220200 55007 $=
201407070752 METAR KATL 070752Z 00000KT 10SM FEW070 23/19 A3004 RMK AO2 SLP160 T02280194 $=
201407070652 METAR KATL 070652Z 00000KT 10SM FEW070 SCT250 23/19 A3005 RMK AO2 SLP164 T02330194=
201407070552 METAR KATL 070552Z 13003KT 10SM SCT070 SCT250 24/19 A3006 RMK AO2 SLP169 T02440194 10289 20244 58005=
201407070452 METAR KATL 070452Z 12004KT 10SM SCT065 25/19 A3007 RMK AO2 SLP173 T02500189 403060200=
201407070352 METAR KATL 070352Z 12004KT 10SM CLR 26/19 A3007 RMK AO2 SLP174 T02560189=
201407070252 METAR KATL 070252Z 13004KT 10SM CLR 26/19 A3008 RMK AO2 SLP176 T02610189 51009=
201407070152 METAR KATL 070152Z 12005KT 10SM FEW250 27/19 A3007 RMK AO2 SLP175 T02670189=
201407070052 METAR KATL 070052Z 12006KT 10SM FEW055 28/18 A3007 RMK AO2 SLP172 T02780183=
201407062352 METAR KATL 062352Z 11006KT 10SM FEW055 29/17 A3005 RMK AO2 SLP166 T02890167 10306 20278 55007=
201407062252 METAR KATL 062252Z 14004KT 10SM FEW055 29/17 A3005 RMK AO2 SLP164 T02940167=
201407062152 METAR KATL 062152Z 00000KT 10SM FEW055 30/17 A3006 RMK AO2 SLP170 T03000172=
201407062052 METAR KATL 062052Z 08004KT 10SM FEW050TCU SCT095 SCT250 30/18 A3007 RMK AO2 SLP174 TCU N-NE & DSNT ALQDS T03000178 56022=
201407061952 METAR KATL 061952Z VRB04KT 10SM FEW045TCU BKN090 BKN250 29/18 A3009 RMK AO2 SLP180 TCU NW-NE & DSNT ALQDS T02940178=
201407061852 METAR KATL 061852Z 00000KT 10SM SCT036TCU BKN085 BKN250 28/18 A3012 RMK AO2 SLP189 TCU ALQDS & DSNT ALQDS T02780178=
201407061752 METAR KATL 061752Z 14005KT 10SM SCT036TCU BKN080 BKN250 28/19 A3014 RMK AO2 SLP197 TCU ALQDS T02830189 10283 20217 58009=
201407061652 METAR KATL 061652Z 13006KT 10SM BKN030 BKN250 27/19 A3015 RMK AO2 SLP201 T02670189=
201407061641 SPECI KATL 061641Z 14004KT 10SM BKN030 BKN250 27/19 A3016 RMK AO2=
201407061552 METAR KATL 061552Z 08005KT 10SM BKN020 25/19 A3016 RMK AO2 SLP203 T02500194=
201407061452 METAR KATL 061452Z 10007KT 10SM BKN018 24/19 A3017 RMK AO2 SLP207 T02390194 58001=
201407061446 SPECI KATL 061446Z 10008KT 10SM BKN016 23/19 A3017 RMK AO2=
201407061352 METAR KATL 061352Z 09008KT 8SM OVC012 22/19 A3018 RMK AO2 SLP212 T02220194=
201407061252 METAR KATL 061252Z 10006KT 7SM OVC014 22/19 A3017 RMK AO2 SLP209 BINOVC T02220189=
201407061202 SPECI KATL 061202Z 09007KT 8SM OVC010 22/19 A3017 RMK AO2=
201407061152 METAR KATL 061152Z 09007KT 8SM OVC009 22/19 A3016 RMK AO2 SLP205 T02170189 10228 20200 53008=
201407061052 METAR KATL 061052Z 12006KT 7SM OVC009 22/19 A3015 RMK AO2 SLP201 T02220194=
201407060952 METAR KATL 060952Z 11006KT 10SM BKN009 21/18 A3015 RMK AO2 SLP198 T02060183=
201407060950 SPECI KATL 060950Z 10005KT 10SM BKN012 21/18 A3015 RMK AO2=
201407060852 METAR KATL 060852Z 09006KT 10SM SCT014 SCT050 21/17 A3014 RMK AO2 SLP196 T02110172 58007=
201407060839 SPECI KATL 060839Z 11005KT 10SM SCT014 SCT050 22/17 A3014 RMK AO2=
201407060813 SPECI KATL 060813Z 10005KT 10SM BKN014 21/16 A3015 RMK AO2=
201407060752 METAR KATL 060752Z 09005KT 10SM FEW055 SCT250 21/16 A3015 RMK AO2 SLP199 T02060161=
201407060652 METAR KATL 060652Z 08004KT 10SM FEW055 SCT250 22/16 A3015 RMK AO2 SLP201 T02170156=
201407060552 METAR KATL 060552Z 09006KT 10SM FEW055 22/14 A3016 RMK AO2 SLP203 T02220144 10278 20222 56004=
201407060452 METAR KATL 060452Z 09007KT 10SM CLR 23/14 A3016 RMK AO2 SLP204 T02280139 403000200=
201407060352 METAR KATL 060352Z 08010KT 10SM FEW250 24/13 A3016 RMK AO2 SLP205 T02390133=
201407060252 METAR KATL 060252Z 07009KT 10SM FEW250 25/13 A3017 RMK AO2 SLP208 T02500128 51003=
201407060152 METAR KATL 060152Z 08009KT 10SM CLR 26/13 A3017 RMK AO2 SLP207 T02610128=
201407060052 METAR KATL 060052Z 09008KT 10SM FEW250 26/13 A3017 RMK AO2 SLP207 T02610128=
201407052352 METAR KATL 052352Z 09009KT 10SM FEW250 28/12 A3016 RMK AO2 SLP205 T02780122 10300 20278 56007=
201407052252 METAR KATL 052252Z 08008KT 10SM FEW075 SCT250 29/12 A3017 RMK AO2 SLP206 T02890122=
201407052152 METAR KATL 052152Z 09009KT 10SM SCT080 SCT250 29/13 A3018 RMK AO2 SLP209 T02940128=
201407052052 METAR KATL 052052Z 09008KT 10SM SCT070 SCT250 29/13 A3018 RMK AO2 SLP211 T02940133 58008=
201407051952 METAR KATL 051952Z 06008G15KT 10SM SCT065 SCT250 29/13 A3020 RMK AO2 SLP215 T02890133=
201407051852 METAR KATL 051852Z 04008G15KT 10SM SCT060 SCT200 SCT250 29/13 A3021 RMK AO2 SLP219 T02940128=
201407051752 METAR KATL 051752Z 11010G17KT 10SM FEW055 SCT200 SCT250 28/14 A3021 RMK AO2 SLP220 T02830144 10289 20206 58013=
201407051652 METAR KATL 051652Z COR 10008KT 10SM FEW200 SCT250 28/14 A3022 RMK AO2 SLP225 T02780139=
201407051552 METAR KATL 051552Z 08009G18KT 10SM FEW200 SCT250 26/13 A3024 RMK AO2 SLP231 T02610133=
201407051452 METAR KATL 051452Z 07010G19KT 10SM FEW060 SCT250 25/13 A3025 RMK AO2 SLP235 T02500128 50005=
201407051352 METAR KATL 051352Z 07015G19KT 10SM FEW055 SCT200 SCT250 23/12 A3025 RMK AO2 SLP236 T02330117=
201407051252 METAR KATL 051252Z 09015G20KT 10SM FEW050 SCT250 22/11 A3025 RMK AO2 SLP235 T02220111=
201407051152 METAR KATL 051152Z 08011KT 10SM FEW050 SCT250 21/11 A3023 RMK AO2 SLP229 T02060111 10222 20200 51018=
201407051052 METAR KATL 051052Z 09010KT 10SM FEW050 SCT250 21/12 A3022 RMK AO2 SLP223 T02060117=
201407050952 METAR KATL 050952Z 06012KT 10SM FEW050 SCT250 22/12 A3020 RMK AO2 SLP216 T02170122=
201407050852 METAR KATL 050852Z 08011KT 10SM FEW050 SCT250 22/13 A3018 RMK AO2 SLP209 T02170133 53004=
201407050752 METAR KATL 050752Z 07009KT 10SM BKN050 BKN070 BKN250 22/14 A3017 RMK AO2 SLP206 T02220144=
201407050652 METAR KATL 050652Z 01006KT 10SM SCT065 SCT250 22/14 A3017 RMK AO2 SLP205 T02170139=
201407050552 METAR KATL 050552Z 33005KT 10SM SCT045 SCT250 21/14 A3017 RMK AO2 SLP206 T02110139 10267 20211 51004=
201407050452 METAR KATL 050452Z 34005KT 10SM SCT250 22/14 A3016 RMK AO2 SLP206 T02220139 402890178=
201407050352 METAR KATL 050352Z 34006KT 10SM FEW250 23/14 A3016 RMK AO2 SLP204 T02280144=
201407050252 METAR KATL 050252Z 34008KT 10SM SCT250 24/14 A3015 RMK AO2 SLP202 T02390144 52008=
201407050152 METAR KATL 050152Z 33008KT 10SM FEW045 SCT250 24/16 A3015 RMK AO2 SLP200 T02440156=
201407050052 METAR KATL 050052Z 32008KT 10SM FEW045 SCT250 26/16 A3013 RMK AO2 SLP196 T02560161=
201407042352 METAR KATL 042352Z 32012KT 10SM FEW045 SCT250 27/16 A3013 RMK AO2 SLP194 T02670161 10289 20267 53002=
201407042252 METAR KATL 042252Z 31009KT 10SM FEW045 SCT250 28/17 A3012 RMK AO2 SLP191 T02780167=
201407042152 METAR KATL 042152Z 29010KT 10SM SCT045 BKN250 28/17 A3012 RMK AO2 SLP190 T02830172=
201407042052 METAR KATL 042052Z 29011KT 10SM SCT047 BKN120 BKN250 29/17 A3012 RMK AO2 SLP191 T02890172 56005=
201407041952 METAR KATL 041952Z 28009KT 10SM BKN048 BKN250 28/18 A3012 RMK AO2 SLP192 T02780178=
201407041852 METAR KATL 041852Z 34010KT 10SM BKN043 BKN250 28/18 A3013 RMK AO2 SLP194 T02830178=
201407041752 METAR KATL 041752Z 30004KT 10SM SCT035 SCT120 BKN250 27/17 A3014 RMK AO2 SLP196 T02670172 10272 20183 50000 $=
201407041652 METAR KATL 041652Z 02005KT 10SM FEW030 SCT120 BKN250 27/17 A3014 RMK AO2 SLP198 T02670167 $=
201407041552 METAR KATL 041552Z 33009KT 10SM FEW030 SCT040 SCT120 BKN250 25/16 A3014 RMK AO2 SLP196 T02500161 $=
201407041517 SPECI KATL 041517Z 33008KT 10SM SCT027 BKN040 BKN250 23/16 A3014 RMK AO2 $=
201407041452 METAR KATL 041452Z 34007KT 10SM SCT040 SCT120 BKN250 23/16 A3014 RMK AO2 SLP197 T02280156 51013 $=
201407041415 SPECI KATL 041415Z 33009KT 10SM SCT038 BKN200 BKN250 22/16 A3013 RMK AO2 $=
201407041352 METAR KATL 041352Z 33010KT 10SM FEW120 BKN200 BKN250 22/16 A3013 RMK AO2 SLP193 T02170156 $=
201407041252 METAR KATL 041252Z 34010KT 10SM FEW085 SCT150 BKN200 BKN250 19/14 A3012 RMK AO2 SLP190 ACC DSNT E T01940144 $=
201407041152 METAR KATL 041152Z 32010KT 10SM FEW150 SCT200 SCT250 19/14 A3010 RMK AO2 SLP183 T01890144 10206 20178 53009=
201407041052 METAR KATL 041052Z 31009KT 10SM FEW150 SCT200 SCT250 18/14 A3009 RMK AO2 SLP181 T01780139=
201407040952 METAR KATL 040952Z 31008KT 10SM FEW250 18/14 A3008 RMK AO2 SLP176 T01780139=
201407040852 METAR KATL 040852Z 31010KT 10SM FEW250 18/14 A3007 RMK AO2 SLP174 T01830139 53002=
201407040752 METAR KATL 040752Z 30008KT 10SM FEW250 19/14 A3006 RMK AO2 SLP168 T01890144=
201407040652 METAR KATL 040652Z 31008KT 10SM FEW250 20/14 A3006 RMK AO2 SLP168 T02000139=
201407040552 METAR KATL 040552Z 30008KT 10SM FEW250 21/14 A3006 RMK AO2 SLP170 T02060144 10272 20206 50002=
201407040452 METAR KATL 040452Z COR 31008KT 10SM FEW250 22/14 A3006 RMK AO2 SLP170 T02170144 403060211=
201407040352 METAR KATL 040352Z 33011KT 10SM FEW200 SCT250 23/14 A3007 RMK AO2 SLP171 T02280139=
201407040252 METAR KATL 040252Z 33010KT 10SM FEW200 BKN250 24/13 A3006 RMK AO2 SLP167 T02390133 53013=
201407040152 METAR KATL 040152Z 34010KT 10SM SCT200 BKN250 24/14 A3004 RMK AO2 SLP162 T02440144=
201407040052 METAR KATL 040052Z 32011KT 10SM FEW050 SCT200 SCT250 26/14 A3003 RMK AO2 SLP159 T02610144=
201407032352 METAR KATL 032352Z 33012KT 10SM FEW200 SCT250 27/14 A3002 RMK AO2 SLP154 T02720144 10306 20267 53008=
201407032252 METAR KATL 032252Z 32011KT 10SM FEW050 SCT250 28/16 A2999 RMK AO2 SLP147 T02780156=
201407032152 METAR KATL 032152Z 30014KT 10SM SCT250 29/14 A3000 RMK AO2 SLP147 T02890144=
201407032052 METAR KATL 032052Z 34013KT 10SM FEW050 SCT200 SCT250 29/17 A3000 RMK AO2 SLP146 T02940167 58010=
201407031952 METAR KATL 031952Z 31016G20KT 10SM FEW050 SCT200 SCT250 30/18 A3000 RMK AO2 SLP149 T03000178=
201407031852 METAR KATL 031852Z 32012G16KT 10SM SCT045 SCT250 30/19 A3002 RMK AO2 SLP155 T03000189=
201407031752 METAR KATL 031752Z 34010G18KT 10SM SCT043 SCT250 29/19 A3003 RMK AO2 SLP156 T02940189 10300 20244 58001=
201407031652 METAR KATL 031652Z 31013KT 10SM FEW040 SCT200 SCT250 29/19 A3003 RMK AO2 SLP156 T02940189=
201407031552 METAR KATL 031552Z 32011G20KT 10SM FEW040 SCT150 SCT250 29/19 A3003 RMK AO2 SLP158 T02940194=
201407031452 METAR KATL 031452Z 32012G16KT 10SM FEW030 SCT150 SCT250 28/20 A3003 RMK AO2 SLP157 T02830200 51008=
201407031352 METAR KATL 031352Z 33010KT 10SM FEW150 SCT200 BKN250 27/21 A3003 RMK AO2 SLP156 T02670206=
201407031252 METAR KATL 031252Z 33010KT 10SM R09R/4500VP6000FT FEW150 SCT200 BKN250 26/21 A3001 RMK AO2 SLP152 T02610211=
201407031152 METAR KATL 031152Z 31008KT 10SM FEW150 BKN200 BKN250 24/21 A3000 RMK AO2 SLP148 T02440211 10261 20228 53012=
201407031052 METAR KATL 031052Z 31005KT 10SM FEW150 SCT200 BKN250 23/21 A2999 RMK AO2 SLP142 T02330206=
201407030952 METAR KATL 030952Z 31007KT 10SM FEW150 SCT200 SCT250 23/21 A2998 RMK AO2 SLP138 T02330206=
201407030852 METAR KATL 030852Z 32005KT 10SM SCT250 24/21 A2997 RMK AO2 SLP136 T02390206 56012=
201407030752 METAR KATL 030752Z 30006KT 10SM FEW200 SCT250 24/21 A2997 RMK AO2 SLP136 T02440206=
201407030652 METAR KATL 030652Z 31008KT 10SM SCT200 BKN250 26/21 A2999 RMK AO2 SLP142 T02560206=
201407030552 METAR KATL 030552Z 31008KT 10SM BKN200 BKN250 26/21 A3000 RMK AO2 SLP147 T02610206 10311 20261 50000=
201407030452 METAR KATL 030452Z 31008KT 10SM BKN200 OVC250 27/21 A3002 RMK AO2 SLP153 T02670206 403390228=
201407030352 METAR KATL 030352Z 31010KT 10SM BKN250 27/21 A3002 RMK AO2 SLP151 T02720211=
201407030252 METAR KATL 030252Z 31009KT 10SM FEW200 BKN250 28/21 A3000 RMK AO2 SLP147 T02830211 53011=
201407030152 METAR KATL 030152Z 32008KT 10SM FEW200 BKN250 28/21 A2998 RMK AO2 SLP141 T02830211=
201407030052 METAR KATL 030052Z 32009KT 10SM FEW150 BKN250 30/21 A2998 RMK AO2 SLP138 T03000211=
201407022352 METAR KATL 022352Z 32008KT 10SM FEW050 BKN250 31/20 A2997 RMK AO2 SLP137 T03110200 10339 20311 55006=
201407022252 METAR KATL 022252Z 29008KT 10SM FEW150 BKN250 32/21 A2997 RMK AO2 SLP136 T03220206=
201407022152 METAR KATL 022152Z 29008KT 10SM FEW050 BKN250 32/20 A2998 RMK AO2 SLP139 TCU DSNT E & SE-S T03170200=
201407022052 METAR KATL 022052Z 29009KT 10SM FEW055 SCT200 BKN250 33/19 A2999 RMK AO2 SLP143 TCU DSNT E T03280194 56006=
201407021952 METAR KATL 021952Z 29008G14KT 10SM FEW050 SCT200 BKN250 33/21 A2999 RMK AO2 SLP145 T03280206=
201407021852 METAR KATL 021852Z 32005KT 10SM FEW060 SCT200 BKN250 33/19 A3000 RMK AO2 SLP146 T03330189=
201407021752 METAR KATL 021752Z VRB03KT 10SM FEW055 SCT200 BKN250 33/20 A3001 RMK AO2 SLP148 T03280200 10328 20239 53001=
201407021652 METAR KATL 021652Z 33004KT 10SM FEW050 SCT200 BKN250 32/20 A3001 RMK AO2 SLP149 T03220200=
201407021552 METAR KATL 021552Z 35004KT 10SM FEW040 SCT200 SCT250 31/21 A3000 RMK AO2 SLP148 T03110211=
201407021452 METAR KATL 021452Z 31007KT 10SM FEW030 SCT200 SCT250 30/22 A3001 RMK AO2 SLP149 T03000222 52002=
201407021352 METAR KATL 021352Z 31005KT 8SM FEW250 28/22 A3000 RMK AO2 SLP148 T02830222=
201407021252 METAR KATL 021252Z 31005KT 10SM FEW200 SCT250 26/22 A3000 RMK AO2 SLP147 T02610217=
201407021152 METAR KATL 021152Z 27003KT 10SM FEW250 24/22 A3000 RMK AO2 SLP147 T02390217 10256 20228 53004=
201407021052 METAR KATL 021052Z 18004KT 10SM FEW055 SCT250 23/21 A2997 RMK AO2 SLP139 T02280211=
201407020952 METAR KATL 020952Z 00000KT 10SM FEW045 SCT250 24/22 A2997 RMK AO2 SLP137 T02390217=
201407020852 METAR KATL 020852Z 00000KT 10SM FEW250 24/22 A2999 RMK AO2 SLP142 T02390217 56002=
201407020752 METAR KATL 020752Z 32007KT 9SM FEW250 24/22 A2999 RMK AO2 SLP143 T02440217=
201407020652 METAR KATL 020652Z 29005KT 8SM FEW040 SCT250 25/22 A2998 RMK AO2 SLP140 T02500217=
201407020552 METAR KATL 020552Z 00000KT 9SM FEW250 26/22 A2999 RMK AO2 SLP144 T02560217 10306 20256 50001=
201407020452 METAR KATL 020452Z 28004KT 10SM FEW250 26/22 A3001 RMK AO2 SLP149 T02610217 403220217=
201407020352 METAR KATL 020352Z 28004KT 10SM FEW250 27/22 A3000 RMK AO2 SLP147 T02670217=
201407020252 METAR KATL 020252Z 29006KT 10SM FEW250 27/22 A2999 RMK AO2 SLP143 T02720217 53015=
201407020152 METAR KATL 020152Z 27004KT 10SM FEW250 28/21 A2995 RMK AO2 SLP131 T02780211=
201407020052 METAR KATL 020052Z 24005KT 9SM FEW250 29/21 A2993 RMK AO2 SLP124 T02940206=
201407012352 METAR KATL 012352Z 27006KT 10SM SCT250 31/20 A2994 RMK AO2 SLP129 T03060200 10322 20306 56010=
201407012252 METAR KATL 012252Z 27006KT 10SM FEW045 SCT250 32/21 A2995 RMK AO2 SLP130 T03170206=
201407012152 METAR KATL 012152Z 00000KT 9SM FEW045 32/21 A2996 RMK AO2 SLP134 T03170211=
201407012052 METAR KATL 012052Z 23005KT 10SM FEW045 32/21 A2997 RMK AO2 SLP139 T03170211 56007=
201407011952 METAR KATL 011952Z VRB03KT 10SM FEW040 32/21 A2998 RMK AO2 SLP140 T03170206=
201407011852 METAR KATL 011852Z 31007KT 10SM FEW040 32/21 A2998 RMK AO2 SLP141 T03170211=
201407011752 METAR KATL 011752Z VRB04KT 10SM FEW040 31/22 A3000 RMK AO2 SLP146 T03110217 10311 20233 58014=
201407011652 METAR KATL 011652Z 35005KT 10SM FEW035 31/22 A3002 RMK AO2 SLP154 T03060217=
201407011552 METAR KATL 011552Z 31009KT 10SM FEW030 SCT150 SCT250 29/22 A3004 RMK AO2 SLP160 T02940217=
201407011452 METAR KATL 011452Z 31010KT 10SM FEW025 SCT150 SCT250 28/22 A3004 RMK AO2 SLP160 T02780217 58001=
201407011352 METAR KATL 011352Z 33005KT 10SM FEW150 SCT250 26/22 A3006 RMK AO2 SLP168 T02610217=
201407011252 METAR KATL 011252Z 31007KT 10SM SCT032 SCT250 24/21 A3006 RMK AO2 SLP170 T02440206=
