##########################################################
# Query made at 04/19/2024 23:37:49 UTC
# Time interval: from 04/01/2014 12:00  to 04/30/2014 12:59  UTC
##########################################################

##########################################################
# KATL, Atlanta, Hartsfield - Jackson Atlanta International Airport (United States)
# WMO index: 72219. WIGOS ID: 0-20000-0-72219
# Latitude 33-38-59N. Longitude 084-25-00W. Altitude 312 m.
##########################################################

201404301252 METAR KATL 301252Z 22005KT 10SM FEW100 BKN180 OVC220 21/13 A2987 RMK AO2 SLP109 BINOVC W T02060128=
201404301152 METAR KATL 301152Z 20008G19KT 10SM FEW110 OVC150 22/12 A2988 RMK AO2 SLP109 60000 T02170122 10217 20189 53028=
201404301052 METAR KATL 301052Z 21013G18KT 10SM FEW030 SCT110 OVC180 21/13 A2983 RMK AO2 SLP094 PK WND 21029/1005 WSHFT 1001 T02110128=
201404301022 SPECI KATL 301022Z 27010G26KT 10SM FEW030 SCT110 OVC140 22/13 A2983 RMK AO2 PK WND 21029/1005 WSHFT 1001=
201404300957 SPECI KATL 300957Z 16013G23KT 10SM FEW090 OVC140 21/14 A2979 RMK AO2 WSHFT 0939 VIRGA ALQDS=
201404300952 METAR KATL 300952Z 14015G23KT 10SM FEW100 OVC140 21/14 A2978 RMK AO2 PK WND 19028/0855 WSHFT 0936 SLP077 VIRGA ALQDS T02110139=
201404300852 METAR KATL 300852Z 19018G33KT 10SM FEW110 OVC140 21/15 A2979 RMK AO2 PK WND 17044/0832 WSHFT 0755 RAE06 SLP079 P0000 60000 T02110150 55028=
201404300836 SPECI KATL 300836Z 17031G44KT 10SM FEW110 OVC140 21/14 A2972 RMK AO2 PK WND 17044/0832 WSHFT 0755 RAE06 P0000=
201404300815 SPECI KATL 300815Z 18019G29KT 10SM FEW080 SCT100 OVC150 21/15 A2978 RMK AO2 PK WND 19029/0812 WSHFT 0755 RAE06 P0000=
201404300752 METAR KATL 300752Z 17016G22KT 10SM -RA FEW023 SCT075 BKN090 OVC130 19/16 A2977 RMK AO2 RAB02 PRESFR SLP073 P0000 T01940161=
201404300741 SPECI KATL 300741Z 17014G18KT 10SM -RA SCT023 SCT070 BKN100 OVC130 19/17 A2980 RMK AO2 RAB02 PRESFR P0000=
201404300705 SPECI KATL 300705Z 16010G14KT 10SM -RA BKN025 BKN031 OVC150 19/17 A2983 RMK AO2 RAB02 P0000=
201404300652 METAR KATL 300652Z 11006KT 10SM SCT025 BKN033 OVC150 19/17 A2984 RMK AO2 RAE0554 SLP097 P0000 T01890167=
201404300602 SPECI KATL 300602Z 15005KT 10SM SCT024 BKN070 OVC150 19/17 A2988 RMK AO2 RAE0554 P0000=
201404300552 METAR KATL 300552Z 11009KT 10SM -RA BKN027 BKN033 OVC070 19/17 A2988 RMK AO2 RAE01B18 PRESFR SLP109 P0000 60000 T01890172 10217 20189 58007=
201404300550 SPECI KATL 300550Z 10009KT 10SM -RA BKN027 BKN033 OVC070 19/17 A2988 RMK AO2 RAE01B18 PRESFR P0000=
201404300452 METAR KATL 300452Z 10006KT 10SM -RA BKN032 BKN085 OVC120 20/17 A2992 RMK AO2 RAB39 SLP124 OCNL LTG DSNT W-NW P0000 T02000167 402440194=
201404300352 METAR KATL 300352Z 14003KT 10SM SCT027 BKN032 BKN110 OVC150 20/17 A2992 RMK AO2 SLP125 T02000167=
201404300252 METAR KATL 300252Z 12004KT 10SM BKN035 BKN110 OVC150 21/17 A2990 RMK AO2 RAE05 SLP118 P0000 60000 T02060167 50018=
201404300152 METAR KATL 300152Z 15004KT 10SM -RA FEW035 SCT110 BKN140 OVC200 21/16 A2991 RMK AO2 RAB48 SLP121 PCPN VRY LGT P0000 T02060161=
201404300052 METAR KATL 300052Z 16006KT 10SM FEW035 SCT110 BKN150 OVC200 21/16 A2987 RMK AO2 SLP109 T02060161=
201404292352 METAR KATL 292352Z 16007KT 10SM FEW110 BKN200 OVC250 22/16 A2984 RMK AO2 SLP099 T02170161 10244 20217 51007=
201404292252 METAR KATL 292252Z 17008KT 10SM FEW035 BKN200 OVC250 22/16 A2983 RMK AO2 SLP095 T02220156=
201404292152 METAR KATL 292152Z 19010G16KT 10SM FEW035 BKN200 OVC250 23/16 A2984 RMK AO2 SLP098 T02330156=
201404292052 METAR KATL 292052Z 18012G18KT 10SM FEW040 SCT150 OVC250 24/16 A2982 RMK AO2 SLP090 T02440156 58007=
201404291952 METAR KATL 291952Z 20010G20KT 10SM FEW035 SCT150 BKN250 24/16 A2983 RMK AO2 SLP091 T02440156=
201404291852 METAR KATL 291852Z 21014G23KT 10SM FEW035 SCT150 OVC250 24/16 A2985 RMK AO2 SLP098 T02390156=
201404291752 METAR KATL 291752Z 20011G19KT 10SM FEW025 BKN150 BKN250 23/16 A2984 RMK AO2 SLP096 VIRGA DSNT NE-E T02330161 10233 20194 53006=
201404291652 METAR KATL 291652Z 20015G21KT 170V230 10SM FEW025 BKN160 OVC240 22/16 A2984 RMK AO2 SLP094 VIRGA DSNT NE-SE T02220161=
201404291552 METAR KATL 291552Z 19013G21KT 10SM FEW020 SCT080 BKN150 OVC240 21/16 A2983 RMK AO2 SLP092 VIRGA OHD-NE-E-SE-S-SW T02110161=
201404291452 METAR KATL 291452Z 21009G18KT 10SM FEW080 BKN150 OVC240 21/17 A2982 RMK AO2 SLP091 VIRGA OHD & ALQDS T02060167 53012=
201404291352 METAR KATL 291352Z 20008KT 10SM FEW010 SCT080 BKN150 OVC240 19/17 A2980 RMK AO2 SLP082 VIRGA OHD & ALQDS T01940172=
201404291252 METAR KATL 291252Z 21010G18KT 10SM FEW012 BKN070 OVC200 19/17 A2981 RMK AO2 SLP087 T01940172=
201404291152 METAR KATL 291152Z 25005G14KT 10SM FEW012 SCT030 BKN150 OVC200 19/17 A2979 RMK AO2 PK WND 16029/1058 WSHFT 1108 SLP078 60045 70045 T01940172 10228 20194 55005=
201404291127 SPECI KATL 291127Z 23007G16KT 10SM FEW011 SCT020 OVC180 19/17 A2975 RMK AO2 PK WND 16029/1058 WSHFT 1108=
201404291052 METAR KATL 291052Z 16021G34KT 10SM SCT040 OVC150 19/17 A2969 RMK AO2 PK WND 15040/1023 TSE35RAE41 SLP043 TS MOV E P0014 T01940167=
201404291035 SPECI KATL 291035Z 17024G36KT 9SM -RA FEW007 SCT040 OVC150 19/17 A2970 RMK AO2 PK WND 15040/1023 TSE35 TS MOV E P0014=
201404290952 METAR KATL 290952Z 18024G37KT 4SM TSRA BR FEW035CB BKN050 OVC075 21/19 A2979 RMK AO2 PK WND 18037/0948 SLP078 FRQ LTGICCACG NE-SE-SW TS NE-SE-SW MOV NE P0021 T02110189=
201404290919 SPECI KATL 290919Z 18012G18KT 4SM TSRA BR SCT007 SCT033CB OVC080 21/20 A2981 RMK AO2 FRQ LTGICCA NE TS NE MOV NE P0007=
201404290852 METAR KATL 290852Z COR 18011G16KT 5SM -TSRA BR SCT006 SCT026CB OVC090 21/20 A2980 RMK AO2 TSB20 SLP083 OCNL LTGIC NW-NE TS NW-NE MOV NE P0010 60010 T02110200 50009=
201404290850 SPECI KATL 290850Z 19010KT 5SM -TSRA BR FEW006 SCT026CB OVC090 21/20 A2981 RMK AO2 TSB20 OCNL LTGIC W-NW TS NW-NE MOV NE P0010=
201404290820 SPECI KATL 290820Z 20009KT 6SM -TSRA BR SCT014 SCT030CB OVC100 22/20 A2981 RMK AO2 TSB20 OCNL LTGIC W-NW TS VC W-NW MOV NE P0003=
201404290811 SPECI KATL 290811Z 19012KT 6SM -RA BR SCT014 BKN055 OVC100 22/20 A2980 RMK AO2 P0002=
201404290752 METAR KATL 290752Z 20013G19KT 8SM -RA BKN014 OVC047 22/20 A2980 RMK AO2 RAB18 SLP081 P0000 T02170200=
201404290730 SPECI KATL 290730Z 19011G20KT 9SM -RA BKN014 BKN044 OVC110 22/20 A2980 RMK AO2 RAB18 P0000=
201404290652 METAR KATL 290652Z 18010G16KT 9SM SCT014 OVC140 22/19 A2978 RMK AO2 SLP073 T02220194=
201404290650 SPECI KATL 290650Z 17011G16KT 9SM BKN014 OVC140 22/19 A2978 RMK AO2=
201404290556 SPECI KATL 290556Z 18010KT 9SM BKN014 BKN050 OVC150 23/19 A2981 RMK AO2=
201404290552 METAR KATL 290552Z 18010KT 8SM BKN017 BKN050 OVC150 23/19 A2981 RMK AO2 SLP084 60000 T02280194 10244 20222 50001=
201404290548 SPECI KATL 290548Z 18009KT 8SM BKN017 BKN050 OVC150 23/19 A2981 RMK AO2=
201404290452 METAR KATL 290452Z 18007KT 10SM FEW018 SCT030 BKN050 OVC150 23/19 A2983 RMK AO2 SLP091 T02280194 402610167=
201404290352 METAR KATL 290352Z 17008KT 10SM FEW030 BKN150 OVC200 23/19 A2980 RMK AO2 SLP083 T02330194=
201404290252 METAR KATL 290252Z 15009G15KT 10SM FEW030 SCT150 BKN200 OVC250 23/19 A2980 RMK AO2 SLP084 60000 T02330194 50008=
201404290152 METAR KATL 290152Z 15009KT 10SM FEW030 SCT150 BKN200 OVC250 24/19 A2981 RMK AO2 SLP085 T02390194=
201404290052 METAR KATL 290052Z 15009KT 10SM FEW035 SCT050 BKN150 OVC200 24/20 A2979 RMK AO2 RAB19E30 SLP081 P0000 T02390200=
201404282352 METAR KATL 282352Z 14008KT 10SM FEW035 BKN150 OVC200 24/19 A2978 RMK AO2 SLP077 CB DSNT SW AND W-NW T02440194 10261 20239 56019=
201404282252 METAR KATL 282252Z 14008KT 10SM FEW035 SCT055 BKN200 BKN250 26/19 A2979 RMK AO2 PRESFR SLP079 T02560189=
201404282152 METAR KATL 282152Z 19010KT 10SM FEW032 SCT060 BKN150 BKN200 26/18 A2983 RMK AO2 SLP092 TCU DSNT E-SE T02560183=
201404282052 METAR KATL 282052Z 18007KT 10SM BKN035TCU BKN065 BKN150 26/18 A2984 RMK AO2 SLP096 TCU OHD & ALQDS T02560183 58021=
201404281952 METAR KATL 281952Z 21008G16KT 10SM BKN040 BKN150 BKN200 25/18 A2987 RMK AO2 SLP106 T02500178=
201404281852 METAR KATL 281852Z 22007G16KT 10SM FEW027 BKN160 BKN200 26/18 A2990 RMK AO2 SLP116 T02560183=
201404281752 METAR KATL 281752Z 23009G19KT 10SM FEW025 BKN140 BKN250 25/18 A2990 RMK AO2 SLP118 T02500178 10250 20178 58008=
201404281652 METAR KATL 281652Z 20006KT 10SM FEW020 BKN150 BKN250 23/19 A2991 RMK AO2 SLP120 T02330189=
201404281552 METAR KATL 281552Z 20003KT 9SM BKN015 BKN140 BKN250 22/18 A2993 RMK AO2 SLP128 T02170183=
201404281546 SPECI KATL 281546Z VRB04KT 9SM BKN013 BKN018 OVC150 22/18 A2993 RMK AO2=
201404281541 SPECI KATL 281541Z 20005KT 10SM SCT011 BKN018 OVC150 22/18 A2993 RMK AO2=
201404281452 METAR KATL 281452Z 20008KT 9SM BKN009 BKN020 OVC150 21/18 A2992 RMK AO2 SLP127 T02110183 50005=
201404281442 SPECI KATL 281442Z 20008KT 9SM BKN010 BKN020 OVC150 21/18 A2992 RMK AO2=
201404281352 METAR KATL 281352Z 21007KT 10SM FEW010 SCT020 BKN150 BKN250 20/18 A2993 RMK AO2 SLP129 T02000178=
201404281317 SPECI KATL 281317Z 18005KT 10SM SCT023 BKN150 BKN250 19/17 A2993 RMK AO2 VIRGA SW-NW=
201404281252 METAR KATL 281252Z 19006KT 9SM FEW100 SCT150 BKN180 19/16 A2993 RMK AO2 SLP128 VIRGA W-N T01940161=
201404281152 METAR KATL 281152Z 00000KT 9SM SCT100 BKN180 18/16 A2991 RMK AO2 SLP122 70008 T01780161 10194 20167 53010=
201404281052 METAR KATL 281052Z 15005KT 9SM FEW150 SCT250 18/16 A2988 RMK AO2 SLP111 T01780156=
201404280952 METAR KATL 280952Z 17003KT 10SM FEW180 BKN250 18/16 A2988 RMK AO2 SLP112 T01780161=
201404280852 METAR KATL 280852Z 16004KT 10SM FEW150 BKN180 BKN250 18/17 A2988 RMK AO2 SLP109 T01830167 56016=
201404280752 METAR KATL 280752Z 00000KT 9SM FEW150 BKN180 BKN250 19/17 A2989 RMK AO2 SLP114 T01890167=
201404280652 METAR KATL 280652Z 00000KT 9SM SCT150 BKN180 BKN250 19/17 A2991 RMK AO2 SLP119 T01940172=
201404280552 METAR KATL 280552Z 00000KT 9SM SCT140 SCT180 BKN250 19/17 A2993 RMK AO2 SLP125 T01890172 10206 20183 58005=
201404280452 METAR KATL 280452Z 09004KT 8SM SCT140 SCT180 BKN250 19/18 A2994 RMK AO2 SLP129 T01890178 402890144=
201404280352 METAR KATL 280352Z 10003KT 8SM SCT140 BKN180 BKN250 19/18 A2996 RMK AO2 SLP136 T01940178=
201404280252 METAR KATL 280252Z 07008KT 10SM BKN140 BKN200 BKN250 20/17 A2994 RMK AO2 SLP131 T02000172 51012=
201404280152 METAR KATL 280152Z 12004KT 10SM FEW130 BKN200 BKN250 20/18 A2992 RMK AO2 SLP125 T02000178=
201404280052 METAR KATL 280052Z 00000KT 10SM SCT130 BKN200 BKN250 20/18 A2994 RMK AO2 SLP131 T02000178=
201404272352 METAR KATL 272352Z 05006KT 10SM FEW120 BKN200 OVC250 21/18 A2991 RMK AO2 RAE48 SLP122 P0002 60008 T02060183 10289 20200 58016=
201404272332 SPECI KATL 272332Z 11007KT 10SM -RA SCT046 BKN120 OVC200 21/17 A2988 RMK AO2 PRESFR P0002=
201404272252 METAR KATL 272252Z 30010KT 7SM -RA SCT048 BKN065 BKN090 OVC200 22/19 A2997 RMK AO2 RAB27 SLP143 PCPN VRY LGT P0000 T02170189=
201404272152 METAR KATL 272152Z 29005KT 10SM BKN050 BKN075 BKN150 OVC200 23/18 A2995 RMK AO2 TSE48RAB09E48 SLP137 TS MOVD NE OCNL LTGIC DSNT NE CB DSNT NE P0006 T02280183=
201404272150 SPECI KATL 272150Z 28005KT 10SM BKN050 BKN075 BKN150 OVC200 22/18 A2995 RMK AO2 TSE48RAB09E48 TS MOVD NE OCNL LTGIC DSNT NE CB DSNT NE P0006=
201404272052 METAR KATL 272052Z 21009G20KT 10SM TS BKN050CB BKN080 OVC250 26/15 A2993 RMK AO2 TSB36 SLP128 OCNL LTGICCG W-NW TS W-NW MOV NE T02560150 56013=
201404272037 SPECI KATL 272037Z 20011G16KT 10SM TS BKN055CB OVC250 26/15 A2993 RMK AO2 TSB36 OCNL LTGCG W TS W MOV NE=
201404271952 METAR KATL 271952Z 19010G16KT 10SM SCT060TCU BKN250 28/13 A2993 RMK AO2 SLP128 TCU SW-W T02830133=
201404271852 METAR KATL 271852Z 19010G15KT 10SM SCT060 BKN250 28/13 A2995 RMK AO2 SLP134 T02830133=
201404271752 METAR KATL 271752Z 19010G17KT 10SM SCT055 BKN250 28/13 A2997 RMK AO2 SLP139 T02780133 10278 20167 58012=
201404271652 METAR KATL 271652Z 12009KT 10SM FEW050 BKN250 27/13 A2998 RMK AO2 SLP145 T02670133=
201404271552 METAR KATL 271552Z 18009KT 10SM FEW040 BKN250 26/15 A3000 RMK AO2 SLP151 T02560150=
201404271452 METAR KATL 271452Z VRB05KT 10SM BKN250 24/17 A3001 RMK AO2 SLP153 T02390172 58000=
201404271352 METAR KATL 271352Z 16003KT 10SM BKN250 22/16 A3001 RMK AO2 SLP154 T02170156=
201404271252 METAR KATL 271252Z 00000KT 9SM BKN250 18/14 A3002 RMK AO2 SLP157 T01830139=
201404271152 METAR KATL 271152Z 00000KT 9SM FEW150 OVC250 17/12 A3001 RMK AO2 SLP154 T01670122 10183 20144 53013=
201404271052 METAR KATL 271052Z 00000KT 10SM BKN250 17/12 A2999 RMK AO2 SLP147 T01670117=
201404270952 METAR KATL 270952Z 00000KT 10SM SCT250 16/12 A2997 RMK AO2 SLP142 T01560117=
201404270852 METAR KATL 270852Z 00000KT 10SM SCT250 16/11 A2997 RMK AO2 SLP141 T01610111 56002=
201404270752 METAR KATL 270752Z 00000KT 10SM SCT250 17/11 A2997 RMK AO2 SLP142 T01670111=
201404270652 METAR KATL 270652Z 00000KT 10SM SCT250 18/11 A2997 RMK AO2 SLP141 T01780111=
201404270552 METAR KATL 270552Z 20005KT 10SM SCT250 18/11 A2998 RMK AO2 SLP144 T01830106 10250 20178 58008=
201404270452 METAR KATL 270452Z 00000KT 10SM FEW250 18/11 A2999 RMK AO2 SLP149 T01830106 402670111=
201404270352 METAR KATL 270352Z 16003KT 10SM CLR 19/10 A3000 RMK AO2 SLP152 T01940100=
201404270252 METAR KATL 270252Z 22003KT 10SM CLR 19/09 A3000 RMK AO2 SLP153 T01940089 51008=
201404270152 METAR KATL 270152Z 15004KT 10SM FEW250 22/09 A3000 RMK AO2 SLP152 T02220089=
201404270052 METAR KATL 270052Z 16003KT 10SM FEW250 24/08 A2999 RMK AO2 SLP148 T02390078=
201404262352 METAR KATL 262352Z 15004KT 10SM FEW250 25/07 A2998 RMK AO2 SLP145 T02500067 10267 20239 58003=
201404262252 METAR KATL 262252Z 17008KT 10SM FEW250 26/06 A2998 RMK AO2 SLP147 T02610056=
201404262152 METAR KATL 262152Z 14006KT 10SM FEW250 27/06 A2998 RMK AO2 SLP147 T02670056=
201404262052 METAR KATL 262052Z 16007G14KT 10SM FEW250 27/05 A2998 RMK AO2 SLP147 T02670050 58013=
201404261952 METAR KATL 261952Z 18010KT 10SM FEW250 26/06 A3000 RMK AO2 SLP152 T02610056=
201404261852 METAR KATL 261852Z 06006KT 10SM CLR 25/07 A3002 RMK AO2 SLP159 T02500067=
201404261752 METAR KATL 261752Z 16007KT 10SM FEW250 24/08 A3002 RMK AO2 SLP161 T02440078 10244 20128 58013=
201404261652 METAR KATL 261652Z 16007G14KT 10SM FEW250 23/08 A3004 RMK AO2 SLP166 T02330083=
201404261552 METAR KATL 261552Z 10007KT 10SM FEW250 22/09 A3006 RMK AO2 SLP173 T02170089=
201404261452 METAR KATL 261452Z 11009KT 10SM FEW250 21/08 A3006 RMK AO2 SLP174 T02060083 51015=
201404261352 METAR KATL 261352Z 10005KT 10SM FEW250 19/08 A3005 RMK AO2 SLP171 T01890083=
201404261252 METAR KATL 261252Z 31005KT 10SM FEW250 16/11 A3005 RMK AO2 SLP170 T01560106=
201404261152 METAR KATL 261152Z 00000KT 10SM FEW250 13/11 A3002 RMK AO2 SLP160 T01280106 10167 20111 53015=
201404261052 METAR KATL 261052Z 24003KT 10SM FEW250 11/09 A2999 RMK AO2 SLP152 T01110094=
201404260952 METAR KATL 260952Z 34005KT 10SM FEW250 13/10 A2998 RMK AO2 SLP145 T01330100=
201404260852 METAR KATL 260852Z 31003KT 10SM FEW250 14/11 A2997 RMK AO2 SLP142 T01390106 53001=
201404260752 METAR KATL 260752Z 31004KT 10SM FEW250 14/11 A2996 RMK AO2 SLP138 T01440106=
201404260652 METAR KATL 260652Z 29003KT 10SM FEW250 16/11 A2995 RMK AO2 SLP137 T01560106=
201404260552 METAR KATL 260552Z 32007KT 10SM CLR 17/11 A2997 RMK AO2 SLP140 T01670111 10228 20167 50000=
201404260452 METAR KATL 260452Z 31007KT 10SM CLR 17/11 A2997 RMK AO2 SLP143 T01720111 402610172=
201404260352 METAR KATL 260352Z 29007KT 10SM CLR 18/11 A2997 RMK AO2 SLP142 T01780106=
201404260252 METAR KATL 260252Z 31008KT 10SM CLR 19/11 A2997 RMK AO2 SLP141 T01890106 51022=
201404260152 METAR KATL 260152Z 30008KT 10SM CLR 20/11 A2994 RMK AO2 SLP133 T02000106=
201404260052 METAR KATL 260052Z 30008KT 10SM CLR 21/10 A2992 RMK AO2 SLP126 T02110100=
201404252352 METAR KATL 252352Z 31007KT 10SM CLR 23/10 A2990 RMK AO2 SLP118 T02280100 10261 20228 53003=
201404252252 METAR KATL 252252Z 32012KT 10SM CLR 24/10 A2990 RMK AO2 SLP117 T02440100=
201404252152 METAR KATL 252152Z 31012KT 10SM FEW055 25/11 A2989 RMK AO2 SLP114 T02500106=
201404252052 METAR KATL 252052Z 31010G17KT 10SM FEW055 26/12 A2989 RMK AO2 SLP113 T02610122 58001=
201404251952 METAR KATL 251952Z 30016G20KT 10SM FEW050 26/12 A2989 RMK AO2 SLP115 T02610117=
201404251852 METAR KATL 251852Z 31014G21KT 10SM SCT050 25/12 A2990 RMK AO2 SLP118 T02500117=
201404251752 METAR KATL 251752Z 30016G23KT 10SM SCT050 25/12 A2989 RMK AO2 SLP114 T02500117 10256 20178 55004=
201404251652 METAR KATL 251652Z 28015G23KT 10SM SCT050 SCT250 25/12 A2989 RMK AO2 SLP114 T02500117=
201404251552 METAR KATL 251552Z 25013G18KT 10SM FEW025 SCT030 SCT250 23/16 A2990 RMK AO2 SLP118 T02330161=
201404251539 SPECI KATL 251539Z 24016G21KT 10SM FEW019 SCT024 BKN030 22/16 A2990 RMK AO2=
201404251452 METAR KATL 251452Z 24012G20KT 10SM BKN016 BKN023 BKN030 21/16 A2991 RMK AO2 SLP120 T02060161 50002=
201404251450 SPECI KATL 251450Z 24013G20KT 10SM BKN016 BKN023 BKN028 21/16 A2991 RMK AO2=
201404251352 METAR KATL 251352Z 24012G17KT 9SM OVC012 19/16 A2990 RMK AO2 SLP119 T01940161=
201404251252 METAR KATL 251252Z 23007KT 8SM OVC010 18/16 A2990 RMK AO2 SLP118 T01830161=
201404251152 METAR KATL 251152Z 24007G16KT 10SM OVC011 18/15 A2989 RMK AO2 SLP112 BINOVC T01780150 10189 20172 51021=
201404251139 SPECI KATL 251139Z 22009KT 10SM BKN012 BKN100 BKN200 BKN250 17/15 A2988 RMK AO2 ACC DSNT N-NE=
201404251052 METAR KATL 251052Z 23009G16KT 10SM SCT100 BKN200 BKN250 18/14 A2987 RMK AO2 SLP107 T01780144=
201404250952 METAR KATL 250952Z 21006KT 10SM FEW100 BKN200 BKN250 17/14 A2985 RMK AO2 SLP101 T01720139=
201404250852 METAR KATL 250852Z 19008KT 10SM FEW085 BKN180 OVC250 18/13 A2982 RMK AO2 SLP091 T01780133 58030=
201404250752 METAR KATL 250752Z 20008KT 10SM FEW085 SCT150 OVC200 18/13 A2989 RMK AO2 SLP114 T01830128=
201404250652 METAR KATL 250652Z 22006KT 10SM FEW055 SCT080 OVC200 18/12 A2992 RMK AO2 SLP125 ACC E-OHD-W T01830117=
201404250552 METAR KATL 250552Z 21006KT 10SM SCT065 BKN200 OVC250 19/11 A2991 RMK AO2 SLP122 T01890111 10239 20189 55003=
201404250452 METAR KATL 250452Z 20006KT 10SM SCT070 BKN250 19/11 A2991 RMK AO2 SLP122 T01940111 402670100=
201404250352 METAR KATL 250352Z 19006KT 10SM SCT070 BKN200 BKN250 19/11 A2992 RMK AO2 SLP126 T01940111=
201404250252 METAR KATL 250252Z 16006KT 10SM FEW200 BKN250 21/11 A2992 RMK AO2 SLP126 T02060106 53005=
201404250152 METAR KATL 250152Z 16005KT 10SM FEW200 BKN250 21/11 A2992 RMK AO2 SLP126 T02110106=
201404250052 METAR KATL 250052Z 17005KT 10SM FEW200 BKN250 22/09 A2991 RMK AO2 SLP122 T02220094=
201404242352 METAR KATL 242352Z 18005KT 10SM FEW075 BKN250 24/09 A2991 RMK AO2 SLP122 T02390089 10267 20239 56013=
201404242252 METAR KATL 242252Z 17007KT 10SM FEW075 BKN250 26/09 A2991 RMK AO2 SLP123 T02610089=
201404242152 METAR KATL 242152Z 21006KT 10SM BKN075 BKN250 26/09 A2993 RMK AO2 SLP131 T02560089=
201404242052 METAR KATL 242052Z 23007KT 10SM SCT075 SCT250 26/09 A2994 RMK AO2 SLP135 T02560089 56018=
201404241952 METAR KATL 241952Z 19005KT 10SM BKN070 BKN250 26/09 A2996 RMK AO2 SLP141 T02610089=
201404241852 METAR KATL 241852Z 00000KT 10SM FEW070 SCT250 25/09 A2998 RMK AO2 SLP147 T02500089=
201404241752 METAR KATL 241752Z VRB04KT 10SM FEW070 SCT250 24/07 A3000 RMK AO2 SLP154 T02440072 10244 20122 58020=
201404241652 METAR KATL 241652Z 11006KT 10SM SCT250 23/06 A3003 RMK AO2 SLP164 T02280061=
201404241552 METAR KATL 241552Z 06006KT 10SM FEW250 20/06 A3006 RMK AO2 SLP174 T02000061=
201404241452 METAR KATL 241452Z 10007KT 10SM FEW250 18/05 A3006 RMK AO2 SLP175 T01830050 51008=
201404241352 METAR KATL 241352Z 10010G16KT 10SM FEW250 16/04 A3006 RMK AO2 SLP175 T01560044=
201404241252 METAR KATL 241252Z 08010KT 10SM FEW250 14/03 A3004 RMK AO2 SLP171 T01390033=
201404241152 METAR KATL 241152Z 07010KT 10SM FEW250 12/03 A3004 RMK AO2 SLP167 T01220028 10122 20100 53021=
201404241052 METAR KATL 241052Z 06008KT 10SM CLR 12/03 A3002 RMK AO2 SLP160 T01220033=
201404240952 METAR KATL 240952Z 01006KT 10SM CLR 12/03 A2999 RMK AO2 SLP149 T01220028=
201404240852 METAR KATL 240852Z 33004KT 10SM CLR 11/03 A2997 RMK AO2 SLP145 T01060033 53007=
201404240752 METAR KATL 240752Z 30003KT 10SM CLR 11/04 A2996 RMK AO2 SLP140 T01060039=
201404240652 METAR KATL 240652Z 00000KT 10SM CLR 12/04 A2994 RMK AO2 SLP135 T01170039=
201404240552 METAR KATL 240552Z 27004KT 10SM CLR 12/03 A2995 RMK AO2 SLP138 T01220033 10217 20122 58000=
201404240452 METAR KATL 240452Z 27004KT 10SM CLR 14/03 A2995 RMK AO2 SLP138 T01440028 402440133=
201404240352 METAR KATL 240352Z 33006KT 10SM CLR 15/03 A2995 RMK AO2 SLP138 T01500028=
201404240252 METAR KATL 240252Z 30004KT 10SM CLR 16/03 A2995 RMK AO2 SLP138 T01610028 51013=
201404240152 METAR KATL 240152Z 33007KT 10SM CLR 18/02 A2994 RMK AO2 SLP134 T01780022=
201404240052 METAR KATL 240052Z 33007KT 10SM CLR 19/01 A2993 RMK AO2 SLP131 T01940011=
201404232352 METAR KATL 232352Z 32009KT 10SM CLR 22/01 A2991 RMK AO2 SLP125 T02170006 10244 20217 53003=
201404232252 METAR KATL 232252Z 30009KT 10SM CLR 23/M01 A2991 RMK AO2 SLP121 T02331011=
201404232152 METAR KATL 232152Z 32008KT 10SM CLR 24/M01 A2990 RMK AO2 SLP118 T02391006=
201404232052 METAR KATL 232052Z 33012G17KT 10SM CLR 24/01 A2990 RMK AO2 SLP120 T02440011 58015=
201404231952 METAR KATL 231952Z 33009G17KT 10SM CLR 24/02 A2992 RMK AO2 SLP125 T02390017=
201404231852 METAR KATL 231852Z 35011KT 10SM CLR 23/02 A2994 RMK AO2 SLP130 T02330022=
201404231752 METAR KATL 231752Z 29012KT 10SM CLR 22/03 A2995 RMK AO2 SLP135 T02220033 10228 20139 58008=
201404231652 METAR KATL 231652Z 34010KT 10SM CLR 21/03 A2997 RMK AO2 SLP142 T02110033=
201404231552 METAR KATL 231552Z 33009G18KT 10SM CLR 21/04 A2997 RMK AO2 SLP144 T02060044=
201404231452 METAR KATL 231452Z 33009KT 10SM FEW250 19/07 A2997 RMK AO2 SLP145 T01890067 53013=
201404231352 METAR KATL 231352Z 32009KT 10SM FEW250 17/08 A2996 RMK AO2 SLP141 T01670078=
201404231252 METAR KATL 231252Z 32009KT 10SM CLR 15/08 A2995 RMK AO2 SLP137 T01500083=
201404231152 METAR KATL 231152Z 33010KT 10SM CLR 14/09 A2993 RMK AO2 SLP133 70004 T01390089 10161 20133 53024=
201404231052 METAR KATL 231052Z 32008KT 10SM CLR 13/10 A2990 RMK AO2 SLP121 T01330100=
201404230952 METAR KATL 230952Z 31009KT 10SM CLR 14/12 A2988 RMK AO2 SLP113 T01440122=
201404230852 METAR KATL 230852Z 32009KT 9SM CLR 15/13 A2986 RMK AO2 SLP107 T01500133 55004=
201404230752 METAR KATL 230752Z 30008KT 8SM CLR 15/14 A2985 RMK AO2 SLP106 T01500144=
201404230652 METAR KATL 230652Z 31008KT 8SM CLR 16/14 A2986 RMK AO2 SLP108 T01560144=
201404230552 METAR KATL 230552Z 30006KT 8SM CLR 16/15 A2987 RMK AO2 SLP111 T01610150 10183 20156 58004=
201404230452 METAR KATL 230452Z 28006KT 8SM FEW250 16/15 A2988 RMK AO2 SLP113 T01610150 402220150=
201404230352 METAR KATL 230352Z 28007KT 10SM FEW090 17/15 A2988 RMK AO2 SLP113 T01670150=
201404230252 METAR KATL 230252Z 29008KT 10SM FEW090 17/15 A2989 RMK AO2 SLP114 T01670150 53012=
201404230152 METAR KATL 230152Z 27003KT 10SM FEW090 17/15 A2987 RMK AO2 SLP110 T01670150=
201404230052 METAR KATL 230052Z 27003KT 10SM FEW100 SCT250 18/15 A2986 RMK AO2 SLP107 T01780150=
201404222352 METAR KATL 222352Z 29006KT 10SM FEW020 SCT250 18/15 A2985 RMK AO2 SLP104 60002 T01830150 10200 20178 55002=
201404222313 SPECI KATL 222313Z 28012KT 10SM FEW020 SCT026 BKN200 BKN250 19/16 A2984 RMK AO2=
201404222252 METAR KATL 222252Z 27009KT 10SM SCT020 BKN026 BKN200 19/16 A2985 RMK AO2 SLP102 T01940156=
201404222225 SPECI KATL 222225Z 31012KT 10SM SCT020 BKN100 BKN200 20/16 A2985 RMK AO2=
201404222208 SPECI KATL 222208Z 29007KT 10SM SCT015 BKN025 BKN100 BKN200 19/16 A2985 RMK AO2=
201404222152 METAR KATL 222152Z 29010KT 10SM FEW015 SCT030 BKN100 BKN200 19/16 A2985 RMK AO2 RAB24E40 SLP105 SHRA SW-W P0000 T01940161=
201404222131 SPECI KATL 222131Z 29008KT 10SM -RA SCT015 BKN030 BKN100 BKN200 19/16 A2985 RMK AO2 RAB24 P0000=
201404222052 METAR KATL 222052Z 25007KT 10SM BKN015 BKN030 OVC050 19/17 A2986 RMK AO2 RAE42 SLP105 P0000 60002 T01940167 58017=
201404222028 SPECI KATL 222028Z 30009KT 8SM -RA SCT015 BKN050 OVC090 19/16 A2986 RMK AO2 P0000=
201404221952 METAR KATL 221952Z 29009KT 8SM -RA BKN015 BKN030 OVC110 18/16 A2988 RMK AO2 SLP114 P0001 T01830161=
201404221925 SPECI KATL 221925Z 28006KT 8SM -RA SCT010 BKN020 OVC090 18/17 A2989 RMK AO2 P0000=
201404221852 METAR KATL 221852Z 28006KT 6SM -RA BR FEW009 SCT060 OVC080 18/16 A2990 RMK AO2 SLP119 P0001 T01830161=
201404221806 SPECI KATL 221806Z 31005KT 6SM -RA BR FEW009 SCT030 OVC070 18/17 A2990 RMK AO2 P0001=
201404221752 METAR KATL 221752Z 29007KT 6SM -RA BR FEW012 SCT030 OVC070 18/16 A2991 RMK AO2 SLP124 P0001 60002 T01830161 10222 20172 58005=
201404221652 METAR KATL 221652Z 28007KT 6SM -RA FEW030 BKN050 OVC070 18/16 A2992 RMK AO2 RAE1556B30 SLP125 P0001 T01830156=
201404221636 SPECI KATL 221636Z 31011KT 6SM -RA BKN030 BKN040 OVC070 19/16 A2992 RMK AO2 RAE1556B30 P0000=
201404221552 METAR KATL 221552Z 30010G16KT 10SM -RA SCT030 BKN047 BKN090 BKN250 21/14 A2992 RMK AO2 RAB49 SLP127 P0000 T02110139=
201404221452 METAR KATL 221452Z 33009KT 10SM FEW030 SCT110 BKN250 22/14 A2992 RMK AO2 SLP127 T02170139 53001=
201404221352 METAR KATL 221352Z 29007KT 10SM FEW050 SCT120 BKN250 21/13 A2992 RMK AO2 SLP126 T02060133=
201404221252 METAR KATL 221252Z 28011KT 10SM SCT047 BKN120 BKN250 18/13 A2992 RMK AO2 SLP126 T01830128=
201404221152 METAR KATL 221152Z 27007KT 10SM FEW120 SCT250 17/12 A2992 RMK AO2 SLP126 T01720122 10172 20150 53003=
201404221052 METAR KATL 221052Z 28006KT 10SM FEW120 SCT250 16/11 A2991 RMK AO2 SLP122 T01560111=
201404220952 METAR KATL 220952Z 27004KT 10SM BKN120 16/11 A2991 RMK AO2 SLP121 T01560111=
201404220852 METAR KATL 220852Z 27004KT 10SM BKN110 17/11 A2991 RMK AO2 SLP122 T01670106 56013=
201404220752 METAR KATL 220752Z 27005KT 10SM FEW070 SCT110 16/10 A2993 RMK AO2 SLP128 T01560100=
201404220652 METAR KATL 220652Z 00000KT 10SM FEW070 SCT130 16/09 A2994 RMK AO2 SLP131 T01610094=
201404220552 METAR KATL 220552Z 27004KT 10SM FEW130 17/09 A2995 RMK AO2 SLP137 T01670089 10228 20167 58013=
201404220452 METAR KATL 220452Z 25004KT 10SM FEW130 18/08 A2997 RMK AO2 SLP142 T01780083 402560100=
201404220352 METAR KATL 220352Z 28005KT 10SM BKN140 BKN250 18/09 A2998 RMK AO2 SLP148 T01830089=
201404220252 METAR KATL 220252Z 26004KT 10SM SCT140 SCT250 19/08 A2999 RMK AO2 SLP151 T01940083 52001=
201404220152 METAR KATL 220152Z 24003KT 10SM BKN140 BKN250 21/08 A2999 RMK AO2 SLP151 T02060078=
201404220052 METAR KATL 220052Z 24003KT 10SM BKN150 BKN250 21/08 A2999 RMK AO2 SLP151 ACC NE AND SW-NW T02110078=
201404212352 METAR KATL 212352Z 24004KT 10SM SCT150 SCT250 23/07 A2999 RMK AO2 SLP151 ACC S-W-N T02280067 10256 20222 58009=
201404212252 METAR KATL 212252Z 30006KT 10SM FEW075 SCT250 24/08 A3000 RMK AO2 SLP155 T02440078=
201404212152 METAR KATL 212152Z 27007KT 10SM FEW075 BKN250 26/07 A3001 RMK AO2 SLP157 T02560072=
201404212052 METAR KATL 212052Z 30006KT 10SM FEW075 SCT250 25/07 A3002 RMK AO2 SLP160 T02500067 58029=
201404211952 METAR KATL 211952Z 00000KT 10SM SCT250 24/07 A3004 RMK AO2 SLP169 T02390067=
201404211852 METAR KATL 211852Z VRB06KT 10SM BKN250 24/07 A3008 RMK AO2 SLP181 T02390067=
201404211752 METAR KATL 211752Z 00000KT 10SM SCT250 22/06 A3011 RMK AO2 SLP191 T02220061 10228 20117 58027=
201404211652 METAR KATL 211652Z 00000KT 10SM SCT250 21/05 A3014 RMK AO2 SLP201 T02060050=
201404211552 METAR KATL 211552Z 16004KT 10SM BKN250 19/05 A3017 RMK AO2 SLP212 T01890050=
201404211452 METAR KATL 211452Z 10007KT 080V180 10SM BKN250 18/06 A3019 RMK AO2 SLP219 T01830056 51001=
201404211352 METAR KATL 211352Z 11006KT 10SM BKN250 17/06 A3019 RMK AO2 SLP219 T01670056=
201404211252 METAR KATL 211252Z 10005KT 10SM FEW180 SCT250 14/05 A3019 RMK AO2 SLP222 T01440050=
201404211152 METAR KATL 211152Z 00000KT 10SM FEW180 SCT250 12/04 A3019 RMK AO2 SLP219 T01220044 10139 20100 53012=
201404211052 METAR KATL 211052Z 00000KT 10SM FEW250 11/04 A3017 RMK AO2 SLP211 T01110039=
201404210952 METAR KATL 210952Z 03004KT 10SM FEW250 13/04 A3015 RMK AO2 SLP207 T01280039 $=
201404210852 METAR KATL 210852Z COR 00000KT 10SM FEW250 13/04 A3015 RMK AO2 SLP205 T01280044 55009 $=
201404210752 METAR KATL 210752Z 09003KT 10SM FEW250 13/04 A3015 RMK AO2 SLP205 T01280044 $=
201404210652 METAR KATL 210652Z 09003KT 10SM FEW250 14/04 A3016 RMK AO2 SLP208 T01390044 $=
201404210552 METAR KATL 210552Z 08005KT 10SM FEW250 13/06 A3018 RMK AO2 SLP215 T01330056 10211 20133 50002 $=
201404210452 METAR KATL 210452Z 09005KT 10SM FEW250 15/05 A3018 RMK AO2 SLP216 T01500050 402330106 $=
201404210352 METAR KATL 210352Z 09004KT 10SM FEW200 SCT250 16/05 A3019 RMK AO2 SLP218 T01610050 $=
201404210252 METAR KATL 210252Z 10005KT 10SM FEW200 SCT250 16/06 A3017 RMK AO2 SLP214 T01610056 53013 $=
201404210152 METAR KATL 210152Z 09005KT 10SM FEW200 SCT250 17/05 A3016 RMK AO2 SLP209 T01720050 $=
201404210052 METAR KATL 210052Z 10005KT 10SM SCT200 SCT250 19/04 A3015 RMK AO2 SLP205 T01890044 $=
201404202352 METAR KATL 202352Z 10006KT 10SM FEW200 SCT250 21/05 A3013 RMK AO2 SLP201 T02060050 10233 20206 56004 $=
201404202252 METAR KATL 202252Z 08008KT 10SM FEW200 SCT250 23/06 A3014 RMK AO2 SLP202 T02280056 $=
201404202152 METAR KATL 202152Z 05007KT 10SM FEW200 SCT250 23/05 A3014 RMK AO2 SLP203 T02280050 $=
201404202052 METAR KATL 202052Z 04010KT 10SM SCT250 23/06 A3015 RMK AO2 SLP204 T02330061 58019 $=
201404201952 METAR KATL 201952Z 03007KT 10SM FEW250 22/06 A3017 RMK AO2 SLP212 T02220061 $=
201404201852 METAR KATL 201852Z 08008G15KT 10SM FEW040 SCT250 21/06 A3018 RMK AO2 SLP218 T02110061 $=
201404201752 METAR KATL 201752Z 07011G17KT 10SM FEW045 SCT250 21/06 A3020 RMK AO2 SLP225 T02060056 10206 20117 58013 $=
201404201652 METAR KATL 201652Z 05010G18KT 10SM FEW040 SCT250 19/05 A3022 RMK AO2 SLP231 T01890050 $=
201404201552 METAR KATL 201552Z 06011G21KT 10SM FEW040 SCT250 18/06 A3023 RMK AO2 SLP235 T01830056 $=
201404201452 METAR KATL 201452Z 07016G26KT 10SM FEW045 SCT250 17/04 A3024 RMK AO2 PK WND 06026/1444 SLP239 T01720039 51012 $=
201404201352 METAR KATL 201352Z 06016G21KT 10SM FEW045 SCT250 16/05 A3023 RMK AO2 SLP235 T01560050 $=
201404201252 METAR KATL 201252Z 04010KT 10SM BKN043 14/06 A3024 RMK AO2 SLP238 T01390061 $=
201404201152 METAR KATL 201152Z 02007KT 10SM SCT039 12/06 A3021 RMK AO2 SLP228 70004 T01170061 10122 20106 53016 $=
201404201052 METAR KATL 201052Z 04011KT 10SM FEW038 11/06 A3018 RMK AO2 SLP219 T01060061 $=
201404200952 METAR KATL 200952Z 04008KT 10SM FEW038 11/06 A3018 RMK AO2 SLP218 T01060061 $=
201404200852 METAR KATL 200852Z 06013KT 10SM FEW038 11/06 A3016 RMK AO2 SLP212 T01110061 55005 $=
201404200752 METAR KATL 200752Z 06013KT 10SM FEW025 SCT100 12/06 A3016 RMK AO2 SLP210 T01170056 $=
201404200652 METAR KATL 200652Z 07016G22KT 10SM FEW040 BKN100 12/06 A3015 RMK AO2 SLP209 T01170061 $=
201404200552 METAR KATL 200552Z 07013KT 10SM FEW040 BKN100 12/06 A3018 RMK AO2 SLP216 T01220061 10144 20117 56003 $=
201404200452 METAR KATL 200452Z 06011KT 10SM SCT038 BKN090 BKN250 12/06 A3018 RMK AO2 SLP219 T01220061 401720106 $=
201404200352 METAR KATL 200352Z 05014KT 10SM SCT034 BKN080 BKN250 12/06 A3018 RMK AO2 PK WND 06029/0301 SLP219 T01220056 $=
201404200252 METAR KATL 200252Z 06017KT 10SM SCT032 BKN080 BKN250 13/04 A3019 RMK AO2 PK WND 06027/0236 SLP221 T01330044 51017 $=
201404200152 METAR KATL 200152Z 06013KT 10SM BKN038 OVC070 14/06 A3018 RMK AO2 PK WND 04028/0101 SLP219 T01440056 $=
201404200052 METAR KATL 200052Z 05019KT 10SM FEW023 SCT042 OVC060 14/09 A3016 RMK AO2 SLP212 VIRGA OHD-ALQDS T01390094 $=
201404192352 METAR KATL 192352Z 06016G25KT 10SM FEW024 BKN040 OVC065 14/10 A3014 RMK AO2 PK WND 03031/2324 RAB27E45 SLP203 VIRGA OHD-NW-NE VCSH S-W P0000 60000 T01440100 10172 20144 51014 $=
201404192252 METAR KATL 192252Z 04011KT 10SM FEW016 SCT026 OVC039 16/12 A3012 RMK AO2 RAE2157 SLP198 SHRA NW-NE AND VC S-SW P0000 T01560122 $=
201404192158 SPECI KATL 192158Z 07011KT 10SM FEW013 SCT028 OVC044 15/12 A3011 RMK AO2 RAE57 P0000 $=
201404192152 METAR KATL 192152Z 06011KT 10SM -RA SCT015 BKN026 OVC042 14/12 A3011 RMK AO2 PK WND 02029/2126 RAB14 SLP197 PCPN VRY LGT P0000 T01440122 $=
201404192052 METAR KATL 192052Z COR 03019G22KT 6SM HZ SCT019 BKN027 OVC035 16/12 A3009 RMK AO2 PK WND 03028/2009 RAE26B37E49 SLP189 P0000 60000 T01560122 53000 $=
201404192026 SPECI KATL 192026Z 04019G25KT 10SM SCT014 BKN020 OVC034 16/12 A3009 RMK AO2 PK WND 03028/2009 RAE26 P0000 $=
201404192000 SPECI KATL 192000Z 04017G21KT 5SM -RA BR SCT009 BKN013 OVC034 16/13 A3009 RMK AO2 P0000 $=
201404191952 METAR KATL 191952Z 04016KT 2SM -RA BR BKN009 BKN015 OVC034 16/14 A3009 RMK AO2 RAB44 SLP187 P0000 T01560139 $=
201404191946 SPECI KATL 191946Z 03012KT 3SM -RA BR FEW009 BKN014 OVC036 16/13 A3009 RMK AO2 RAB44 P0000 $=
201404191859 SPECI KATL 191859Z 03015G25KT 8SM BKN020 BKN027 OVC035 16/12 A3009 RMK AO2 $=
201404191852 METAR KATL 191852Z 02019G25KT 8SM SCT021 BKN030 OVC037 16/12 A3009 RMK AO2 PK WND 03026/1814 SLP188 SCT021 V BKN SHRA DSNT NE AND SE T01610117 $=
201404191845 SPECI KATL 191845Z 06017G23KT 8SM SCT021 BKN030 OVC037 17/12 A3009 RMK AO2 PK WND 03026/1814 SHRA DSNT NE AND SE $=
201404191752 METAR KATL 191752Z 05022G28KT 10SM BKN024 OVC029 17/12 A3008 RMK AO2 PK WND 05028/1751 SLP186 60004 T01720117 10172 20122 50000 $=
201404191652 METAR KATL 191652Z 04015G23KT 10SM OVC017 16/12 A3009 RMK AO2 SLP188 T01560122 $=
201404191632 SPECI KATL 191632Z 04015G22KT 10SM OVC016 15/12 A3009 RMK AO2 $=
201404191552 METAR KATL 191552Z 04016KT 10SM OVC014 14/12 A3009 RMK AO2 DZB1454E05 SLP188 P0000 T01440122 $=
201404191504 SPECI KATL 191504Z 04013G21KT 5SM -DZ BR BKN011 OVC017 14/12 A3009 RMK AO2 DZB1454 P0000 $=
201404191452 METAR KATL 191452Z 04013KT 2SM BR BKN009 OVC015 14/12 A3008 RMK AO2 SFC VIS 4 RAE41 SLP187 P0002 60004 T01390122 53001 $=
201404191352 METAR KATL 191352Z 02015G21KT 2SM -RA BR BKN009 OVC014 13/12 A3008 RMK AO2 RAE1259B33DZB07E33 SLP186 P0001 T01280117 $=
201404191308 SPECI KATL 191308Z 01015G21KT 2SM -DZ BR SCT005 BKN009 OVC016 12/11 A3008 RMK AO2 SFC VIS 2 1/2 RAE1259DZB07 P0000 $=
201404191252 METAR KATL 191252Z 36010KT 1 1/2SM -RA BR BKN005 OVC022 12/11 A3008 RMK AO2 SFC VIS 2 1/2 SLP186 CIG 004V007 TWRINC P0001 T01220111 $=
201404191152 METAR KATL 191152Z 02010KT 1 1/2SM -RA BR BKN005 BKN016 OVC024 12/11 A3008 RMK AO2 SFC VIS 2 1/2 SLP187 CIG 004V007 TWRINC P0005 60016 70122 T01220111 10122 20106 53007 $=
201404191128 SPECI KATL 191128Z 01009KT 1 1/2SM -RA BR BKN005 BKN009 OVC014 12/11 A3008 RMK AO2 SFC VIS 2 P0003 $=
201404191126 SPECI KATL 191126Z 01008KT 2 1/2SM -RA BR BKN005 BKN009 OVC014 12/11 A3008 RMK AO2 P0003 $=
201404191109 SPECI KATL 191109Z 01007KT 3SM -RA BR BKN005 BKN012 OVC018 12/11 A3008 RMK AO2 P0001 $=
201404191052 METAR KATL 191052Z 01010KT 4SM -RA BR FEW005 BKN009 OVC016 12/11 A3007 RMK AO2 SLP183 P0006 T01170106 $=
201404191014 SPECI KATL 191014Z 01012KT 3SM -RA BR BKN005 BKN011 OVC016 12/10 A3006 RMK AO2 CIG 004V007 P0003=
201404191000 SPECI KATL 191000Z 36012KT 2 1/2SM -RA BR SCT009 BKN014 OVC022 11/10 A3006 RMK AO2 P0001=
201404190952 METAR KATL 190952Z 36012G17KT 3SM -RA BR SCT009 BKN016 OVC025 11/10 A3006 RMK AO2 SLP180 P0004 T01110100=
201404190948 SPECI KATL 190948Z 36009KT 3SM -RA BR SCT009 BKN016 OVC025 11/10 A3006 RMK AO2 P0004=
201404190936 SPECI KATL 190936Z 36010KT 2 1/2SM -RA BR FEW009 BKN016 OVC027 11/10 A3006 RMK AO2 P0002=
201404190852 METAR KATL 190852Z 02012KT 10SM -RA FEW009 BKN013 OVC028 12/09 A3006 RMK AO2 RAE04B22 SLP180 P0000 60001 T01170094 55008=
201404190752 METAR KATL 190752Z 03011KT 10SM -RA FEW009 BKN013 OVC028 11/09 A3005 RMK AO2 RAB50 SLP177 P0000 T01110094=
201404190652 METAR KATL 190652Z 03013KT 9SM FEW009 BKN013 OVC060 11/09 A3006 RMK AO2 RAE0559B19E51 SLP181 P0001 T01110094=
201404190621 SPECI KATL 190621Z 04013KT 9SM -RA FEW009 BKN013 OVC060 11/09 A3008 RMK AO2 RAE0559B19 P0000=
201404190552 METAR KATL 190552Z 04012KT 10SM -RA FEW009 BKN065 OVC090 11/09 A3009 RMK AO2 SLP189 P0001 60045 T01060094 10106 20100 56018=
201404190525 SPECI KATL 190525Z 04013KT 9SM -RA FEW007 SCT025 OVC080 11/09 A3009 RMK AO2 P0001=
201404190452 METAR KATL 190452Z 03015KT 9SM -RA SCT009 BKN025 OVC100 11/09 A3010 RMK AO2 SLP195 P0000 T01060089 401440100=
201404190352 METAR KATL 190352Z 04015KT 10SM -RA SCT009 BKN013 OVC075 10/09 A3012 RMK AO2 SLP199 P0004 T01000089=
201404190326 SPECI KATL 190326Z 04015KT 7SM -RA SCT009 BKN015 OVC075 10/09 A3012 RMK AO2 P0002=
201404190252 METAR KATL 190252Z 04013KT 5SM -RA BR FEW009 BKN055 OVC070 10/08 A3014 RMK AO2 SLP208 P0008 60040 T01000083 58006=
201404190152 METAR KATL 190152Z 02016KT 6SM -RA BR FEW009 BKN040 OVC070 10/08 A3016 RMK AO2 SLP213 P0014 T01000083=
201404190052 METAR KATL 190052Z 02009KT 5SM RA BR FEW009 SCT015 OVC075 10/08 A3016 RMK AO2 SLP213 SCT015 V BKN P0018 T01000083=
201404190019 SPECI KATL 190019Z 03008KT 5SM RA BR SCT009 BKN025 OVC070 10/09 A3016 RMK AO2 P0008=
201404182352 METAR KATL 182352Z 04008KT 5SM RA BR FEW008 SCT015 OVC070 10/09 A3016 RMK AO2 SLP214 SCT015 V BKN P0017 60053 T01000089 10122 20100 53003=
201404182332 SPECI KATL 182332Z 03009KT 5SM -RA BR FEW008 BKN015 OVC080 10/09 A3015 RMK AO2 P0012=
201404182252 METAR KATL 182252Z 03011KT 4SM RA BR FEW015 BKN070 OVC090 10/09 A3014 RMK AO2 SLP207 P0013 T01000089=
201404182152 METAR KATL 182152Z 04011KT 5SM -RA BR FEW015 BKN075 OVC090 11/09 A3013 RMK AO2 SLP204 P0007 T01060089=
201404182052 METAR KATL 182052Z 05013KT 6SM -RA BR SCT020 BKN070 OVC090 11/09 A3015 RMK AO2 SLP210 P0007 60016 T01110089 56026=
201404181952 METAR KATL 181952Z 03017KT 6SM -RA BR BKN070 OVC090 11/09 A3017 RMK AO2 SLP216 P0005 T01110089=
201404181852 METAR KATL 181852Z 04013KT 6SM -RA BR FEW020 SCT060 OVC080 11/09 A3020 RMK AO2 SLP228 P0004 T01110089=
201404181752 METAR KATL 181752Z 06013KT 8SM -RA FEW020 OVC085 12/09 A3023 RMK AO2 SLP235 P0001 60008 T01220094 10122 20111 58023=
201404181652 METAR KATL 181652Z 06016KT 6SM -RA BR BKN065 BKN075 OVC110 12/09 A3026 RMK AO2 SLP247 P0003 T01170094=
201404181552 METAR KATL 181552Z 08010KT 6SM -RA BR BKN070 BKN090 OVC110 11/09 A3030 RMK AO2 SLP261 P0004 T01110089=
201404181517 SPECI KATL 181517Z 08012G20KT 6SM -RA FEW030 BKN080 OVC110 12/08 A3030 RMK AO2 P0001=
201404181452 METAR KATL 181452Z 08013KT 040V100 10SM -RA FEW035 BKN085 OVC110 12/07 A3030 RMK AO2 RAB06E20B44 SLP259 P0000 60000 T01220067 53002=
201404181352 METAR KATL 181352Z 08011KT 10SM FEW040 BKN090 OVC120 12/06 A3030 RMK AO2 SLP259 SHRA VC E-S T01220056=
201404181252 METAR KATL 181252Z 08011KT 10SM FEW055 BKN080 OVC130 12/04 A3029 RMK AO2 SLP257 VIRGA OHD-ALQDS ACC VC NW-NE T01170044=
201404181152 METAR KATL 181152Z 09010KT 10SM SCT055 BKN080 OVC130 12/04 A3029 RMK AO2 SLP256 VIRGA E-S T01220039 10139 20122 53007=
201404181052 METAR KATL 181052Z 09012KT 10SM SCT050 BKN075 OVC140 12/04 A3028 RMK AO2 SLP251 VIRGA VC SE-SW T01220039=
201404180952 METAR KATL 180952Z 09010KT 10SM BKN055 BKN080 OVC140 13/03 A3028 RMK AO2 SLP253 VIRGA OHD-ALQDS T01280033=
201404180852 METAR KATL 180852Z 07009KT 10SM BKN050 BKN075 OVC150 13/03 A3027 RMK AO2 SLP249 VIRGA OHD-ALQDS T01280028 56014=
201404180752 METAR KATL 180752Z 06011KT 10SM BKN050 BKN065 OVC160 13/02 A3028 RMK AO2 SLP250 VIRGA OHD-SE-SW T01330022=
201404180652 METAR KATL 180652Z 08011KT 10SM SCT048 SCT065 OVC180 13/02 A3029 RMK AO2 SLP256 T01330022=
201404180552 METAR KATL 180552Z 09010KT 10SM FEW050 SCT065 OVC180 14/03 A3032 RMK AO2 SLP264 T01390028 10167 20139 51003=
201404180452 METAR KATL 180452Z 09009KT 10SM BKN050 OVC200 14/03 A3031 RMK AO2 SLP263 T01440033 401890044=
201404180352 METAR KATL 180352Z 10010KT 10SM BKN050 OVC200 14/04 A3031 RMK AO2 SLP263 T01440039=
201404180252 METAR KATL 180252Z 09010KT 10SM FEW045 BKN200 OVC250 14/04 A3030 RMK AO2 SLP261 T01440044 58002=
201404180152 METAR KATL 180152Z 10010KT 10SM SCT045 BKN200 OVC250 16/04 A3032 RMK AO2 SLP268 T01560039=
201404180052 METAR KATL 180052Z 10007KT 10SM BKN042 BKN055 OVC250 16/04 A3032 RMK AO2 SLP268 T01610044=
201404172352 METAR KATL 172352Z 10007KT 10SM SCT055 OVC250 17/05 A3031 RMK AO2 SLP265 T01670050 10189 20150 53001=
201404172152 METAR KATL 172152Z 14008KT 10SM SCT045 BKN055 BKN250 18/05 A3030 RMK AO2 SLP262 T01780050=
201404172052 METAR KATL 172052Z 09011KT 10SM FEW040 BKN050 BKN250 18/05 A3031 RMK AO2 SLP264 T01780050 56026=
201404171952 METAR KATL 171952Z 09007KT 10SM FEW040 BKN050 BKN250 18/04 A3032 RMK AO2 SLP266 T01780039=
201404171852 METAR KATL 171852Z 09009KT 10SM FEW035 SCT050 SCT250 17/03 A3035 RMK AO2 SLP279 T01720033=
201404171752 METAR KATL 171752Z 09010KT 10SM BKN040 BKN050 BKN250 15/01 A3039 RMK AO2 SLP292 T01500011 10150 20056 58011=
201404171652 METAR KATL 171652Z 07010KT 10SM BKN048 BKN250 14/01 A3042 RMK AO2 SLP300 T01440011=
201404171552 METAR KATL 171552Z 10011KT 060V130 10SM FEW040 SCT250 13/01 A3042 RMK AO2 SLP303 T01280006=
201404171452 METAR KATL 171452Z 09014G20KT 10SM FEW040 SCT250 12/01 A3042 RMK AO2 SLP303 T01170011 51009=
201404171352 METAR KATL 171352Z 10016G21KT 10SM BKN040 BKN200 BKN250 09/01 A3041 RMK AO2 PK WND 08027/1319 SLP301 T00940011=
201404171252 METAR KATL 171252Z 09010KT 10SM BKN038 BKN200 BKN250 08/02 A3041 RMK AO2 SLP299 T00780022=
201404171152 METAR KATL 171152Z 10008KT 10SM FEW038 SCT200 SCT250 05/01 A3039 RMK AO2 SLP295 T00500011 10078 20044 53019=
201404171052 METAR KATL 171052Z 09010KT 10SM SCT200 SCT250 04/01 A3037 RMK AO2 SLP286 T00440006=
201404170952 METAR KATL 170952Z 08008KT 10SM FEW200 SCT250 05/01 A3035 RMK AO2 SLP280 T00500006=
201404170852 METAR KATL 170852Z 09009KT 10SM BKN200 BKN250 06/00 A3034 RMK AO2 SLP274 T00610000 53003=
201404170752 METAR KATL 170752Z 10010KT 10SM SCT200 BKN250 06/M01 A3033 RMK AO2 SLP272 T00611006=
201404170652 METAR KATL 170652Z 09008KT 10SM FEW200 SCT250 07/M01 A3033 RMK AO2 SLP273 T00671006=
201404170552 METAR KATL 170552Z 09009KT 10SM SCT200 BKN250 08/M01 A3033 RMK AO2 SLP272 T00781011 10139 20078 53012=
201404170452 METAR KATL 170452Z 10010KT 10SM BKN250 09/M02 A3032 RMK AO2 SLP267 T00941017 401610011=
201404170352 METAR KATL 170352Z 10009KT 10SM FEW250 09/M01 A3030 RMK AO2 SLP264 T00941011=
201404170252 METAR KATL 170252Z 10009KT 10SM FEW250 10/M01 A3029 RMK AO2 SLP261 T01001011 53018=
201404170152 METAR KATL 170152Z 10009KT 10SM FEW250 11/M02 A3027 RMK AO2 SLP253 T01111017=
201404170052 METAR KATL 170052Z 10007KT 10SM FEW250 12/M02 A3025 RMK AO2 SLP245 T01221017=
201404162352 METAR KATL 162352Z 10011KT 10SM FEW250 14/M03 A3024 RMK AO2 SLP242 T01391028 10161 20133 53006=
201404162252 METAR KATL 162252Z 12009KT 10SM FEW250 16/M03 A3022 RMK AO2 SLP237 T01561033=
201404162152 METAR KATL 162152Z 08006KT 10SM CLR 16/M02 A3021 RMK AO2 SLP234 T01561017=
201404162052 METAR KATL 162052Z 10008KT 10SM CLR 16/M03 A3022 RMK AO2 SLP236 T01561028 58014=
201404161952 METAR KATL 161952Z VRB05KT 10SM CLR 15/M03 A3023 RMK AO2 SLP241 T01501028=
201404161852 METAR KATL 161852Z 09007KT 10SM CLR 14/M03 A3025 RMK AO2 SLP246 T01441028=
201404161752 METAR KATL 161752Z 12008KT 10SM FEW250 13/M04 A3026 RMK AO2 SLP250 T01331039 10133 20028 58010=
201404161652 METAR KATL 161652Z 08009G16KT 10SM CLR 12/M03 A3028 RMK AO2 SLP258 T01171033=
201404161552 METAR KATL 161552Z 09009KT 10SM CLR 10/M03 A3030 RMK AO2 SLP263 T01001028=
201404161452 METAR KATL 161452Z 10012KT 10SM CLR 08/M03 A3029 RMK AO2 SLP262 T00781028 51020=
201404161352 METAR KATL 161352Z 09012KT 10SM CLR 06/M03 A3027 RMK AO2 SLP254 T00611028=
201404161252 METAR KATL 161252Z 09010KT 10SM CLR 04/M02 A3025 RMK AO2 SLP250 T00441022=
201404161152 METAR KATL 161152Z 05009KT 10SM CLR 03/M03 A3023 RMK AO2 SLP242 70009 T00281033 10028 20011 53022=
201404161052 METAR KATL 161052Z 36007KT 10SM CLR 02/M03 A3020 RMK AO2 SLP234 T00171033=
201404160952 METAR KATL 160952Z 34005KT 10SM CLR 01/M03 A3017 RMK AO2 SLP224 T00111033=
201404160852 METAR KATL 160852Z 34005KT 10SM CLR 02/M03 A3016 RMK AO2 SLP220 T00171033 53014=
201404160752 METAR KATL 160752Z 33007KT 10SM CLR 02/M03 A3014 RMK AO2 SLP213 T00171028=
201404160652 METAR KATL 160652Z 34006KT 10SM CLR 02/M03 A3013 RMK AO2 SLP209 T00221028=
201404160552 METAR KATL 160552Z 34007KT 10SM CLR 03/M03 A3012 RMK AO2 SLP205 T00281033 10067 20028 51012=
201404160452 METAR KATL 160452Z 33008KT 10SM FEW250 03/M03 A3011 RMK AO2 SLP201 T00331033 401780033=
201404160352 METAR KATL 160352Z 33010KT 10SM FEW250 04/M03 A3010 RMK AO2 SLP199 T00391033=
201404160252 METAR KATL 160252Z 33008G19KT 10SM FEW250 04/M04 A3008 RMK AO2 SLP192 T00441039 53028=
201404160152 METAR KATL 160152Z 34012G22KT 10SM FEW250 05/M04 A3004 RMK AO2 PK WND 35029/0138 SLP175 T00501039=
201404160052 METAR KATL 160052Z 35014G23KT 10SM CLR 06/M03 A2999 RMK AO2 PK WND 36031/0029 SLP156 T00611033=
201404152352 METAR KATL 152352Z 33012G23KT 10SM FEW038 07/M02 A3000 RMK AO2 PK WND 36032/2300 SLP159 T00671017 10094 20067 51024=
201404152252 METAR KATL 152252Z 33019G30KT 10SM SCT038 08/M01 A2999 RMK AO2 PK WND 31031/2206 SLP157 T00831006=
201404152152 METAR KATL 152152Z 33018G26KT 10SM BKN035 08/01 A2996 RMK AO2 PK WND 32032/2130 SLP145 T00830006=
201404152052 METAR KATL 152052Z 34020G35KT 10SM BKN030 08/01 A2993 RMK AO2 PK WND 35035/2044 SLP133 T00830011 53014=
201404151952 METAR KATL 151952Z 32021G34KT 10SM BKN027 08/02 A2990 RMK AO2 PK WND 33034/1946 SLP126 T00830017=
201404151852 METAR KATL 151852Z 31020G30KT 10SM BKN025 09/02 A2989 RMK AO2 PK WND 33036/1833 SLP122 T00890022=
201404151752 METAR KATL 151752Z 31022G28KT 10SM BKN016 BKN020 BKN030 07/04 A2988 RMK AO2 PK WND 33031/1738 SLP119 60009 T00720039 10167 20072 51021=
201404151715 SPECI KATL 151715Z 32019G27KT 10SM BKN013 BKN020 BKN030 08/04 A2987 RMK AO2 PK WND 33028/1701=
201404151652 METAR KATL 151652Z 32018G24KT 10SM BKN015 BKN020 OVC040 08/06 A2986 RMK AO2 PK WND 32030/1612 RAE17B37E51 SLP110 P0000 T00830056=
201404151623 SPECI KATL 151623Z 33021G28KT 10SM BKN015 BKN020 OVC030 08/06 A2986 RMK AO2 PK WND 32030/1612 RAE17 P0000=
201404151552 METAR KATL 151552Z 33015G24KT 10SM -RA BKN013 BKN020 OVC030 08/06 A2985 RMK AO2 PK WND 33030/1532 PRESRR SLP107 P0000 T00830061=
201404151526 SPECI KATL 151526Z 32018G27KT 10SM -RA BKN013 BKN020 OVC040 08/07 A2983 RMK AO2 PK WND 33029/1504 P0000=
201404151501 SPECI KATL 151501Z 32016G28KT 6SM -RA BR BKN010 BKN013 OVC020 09/07 A2982 RMK AO2 PK WND 32028/1456 P0000=
201404151454 SPECI KATL 151454Z 32021G26KT 6SM -RA BR BKN008 BKN015 OVC030 08/07 A2982 RMK AO2 PK WND 32026/1454 P0000=
201404151452 METAR KATL 151452Z 33016G23KT 6SM -RA BR BKN012 BKN020 OVC030 08/07 A2982 RMK AO2 PK WND 32028/1427 SLP096 P0000 60009 T00830072 53038=
201404151402 SPECI KATL 151402Z 32018G24KT 7SM BKN008 BKN010 OVC020 10/09 A2979 RMK AO2 RAE1356 PRESRR P0000=
201404151352 METAR KATL 151352Z COR 31018G24KT 6SM -RA BR BKN010 BKN013 OVC020 10/09 A2977 RMK AO2 PK WND 29031/1257 SLP078 P0007 T01000089=
201404151324 SPECI KATL 151324Z 31022G29KT 6SM BR BKN007 BKN010 OVC020 11/09 A2975 RMK AO2 PK WND 29031/1257 RAE23 P0007=
201404151306 SPECI KATL 151306Z 30021G31KT 2SM -RA BR FEW004 BKN009 OVC018 12/11 A2974 RMK AO2 PK WND 29031/1257 SFC VIS 3 P0007=
201404151257 SPECI KATL 151257Z 30026G31KT 1SM R09R/4000VP6000FT RA BR BKN004 OVC009 16/15 A2973 RMK AO2 PK WND 29031/1257 TWR VIS 2 PRESRR P0004=
201404151252 METAR KATL 151252Z 26007KT 1 1/2SM R09R/5000VP6000FT RA BR BKN006 OVC012 17/16 A2971 RMK AO2 TWR VIS 2 RAB37 SLP057 CIG 005V008 P0002 T01670161=
201404151250 SPECI KATL 151250Z 25006KT 1 1/2SM R09R/5000VP6000FT RA BR BKN006 OVC012 17/16 A2971 RMK AO2 TWR VIS 2 RAB37 CIG 005V008 P0002=
201404151243 SPECI KATL 151243Z 23005KT 2SM R09R/6000VP6000FT -RA BR BKN006 OVC012 17/16 A2970 RMK AO2 SFC VIS 2 1/2 RAB37 CIG 005V008 P0000=
201404151157 SPECI KATL 151157Z 21006KT 10SM SCT008 BKN014 OVC021 17/16 A2970 RMK AO2 $=
201404151152 METAR KATL 151152Z 21005KT 10SM BKN008 OVC015 17/16 A2970 RMK AO2 SLP054 60010 70105 T01670156 10178 20161 50000=
201404151052 METAR KATL 151052Z 00000KT 7SM BKN006 OVC015 17/16 A2972 RMK AO2 SLP057 CIG 005V008 T01670156=
201404151016 SPECI KATL 151016Z 19004KT 6SM BR BKN006 BKN015 OVC090 16/16 A2971 RMK AO2 CIG 005V008=
201404151009 SPECI KATL 151009Z 19003KT 7SM SCT004 BKN015 OVC090 16/16 A2971 RMK AO2=
201404150952 METAR KATL 150952Z 17004KT 10SM FEW004 SCT024 BKN090 OVC140 16/16 A2971 RMK AO2 SLP057 T01610156=
201404150852 METAR KATL 150852Z 17005KT 10SM FEW006 SCT100 OVC120 16/15 A2970 RMK AO2 RAE27 SLP054 P0001 60010 T01610150 58036=
201404150752 METAR KATL 150752Z 32006KT 7SM -RA FEW006 SCT055 OVC075 16/16 A2979 RMK AO2 SLP082 P0002 T01610156=
201404150703 SPECI KATL 150703Z 31005KT 6SM -RA BR SCT006 OVC095 17/16 A2980 RMK AO2 P0001=
201404150652 METAR KATL 150652Z 28003KT 6SM -RA BR BKN006 OVC095 17/16 A2981 RMK AO2 SLP087 P0007 T01670161=
201404150552 METAR KATL 150552Z 27014G23KT 7SM RA FEW008 BKN075 OVC100 18/16 A2981 RMK AO2 SLP090 P0014 60072 T01780161 10189 20178 58003=
201404150549 SPECI KATL 150549Z 27015G23KT 7SM -RA FEW008 BKN085 OVC100 18/16 A2981 RMK AO2 P0013=
201404150452 METAR KATL 150452Z 18007KT 3SM +RA BR FEW015 BKN028 OVC080 18/17 A2983 RMK AO2 TSB22E42 SLP095 P0045 T01780167 402170172=
201404150442 SPECI KATL 150442Z 18006KT 5SM RA BR FEW007 SCT015 OVC080 18/17 A2984 RMK AO2 TSB22E42 TS DSIPTD P0039=
201404150434 SPECI KATL 150434Z 20013KT 1 3/4SM R09R/4000VP6000FT +TSRA BR SCT007 BKN015CB OVC080 18/17 A2986 RMK AO2 TSB22 OCNL LTGIC SE-OHD-NW TS SE-OHD-NW MOV NE P0025=
201404150422 SPECI KATL 150422Z 21011KT 4SM TSRA BR SCT007 BKN015CB OVC090 18/17 A2984 RMK AO2 TSB22 OCNL LTGIC S-W TS VC S-W MOV NE P0011=
201404150352 METAR KATL 150352Z 21007KT 5SM RA BR SCT008 BKN015 OVC100 18/17 A2983 RMK AO2 SLP096 OCNL LTG DSNT SW-W P0013 T01780167=
201404150252 METAR KATL 150252Z 20006KT 7SM -RA SCT009 BKN015 OVC110 18/17 A2982 RMK AO2 RAB21 SLP092 P0000 60000 T01830167 53000=
201404150152 METAR KATL 150152Z 18004KT 10SM SCT008 BKN015 BKN110 OVC200 18/17 A2982 RMK AO2 SLP091 T01830167=
201404150122 SPECI KATL 150122Z 17004KT 10SM SCT008 BKN013 BKN110 OVC200 18/17 A2982 RMK AO2=
201404150052 METAR KATL 150052Z 19006KT 10SM SCT010 BKN015 BKN110 OVC200 18/17 A2982 RMK AO2 SLP091 T01830167=
201404150041 SPECI KATL 150041Z 18005KT 10SM SCT010 BKN015 BKN110 OVC200 18/17 A2982 RMK AO2=
201404142352 METAR KATL 142352Z 18004KT 10SM SCT012 BKN100 BKN150 BKN200 19/17 A2982 RMK AO2 SLP092 SCT012 V BKN 60009 T01890167 10200 20189 56008=
201404142252 METAR KATL 142252Z 19007KT 10SM SCT013 BKN110 BKN150 BKN200 19/17 A2982 RMK AO2 SLP093 T01940167=
201404142152 METAR KATL 142152Z 20012KT 10SM FEW015 SCT120 BKN150 OVC200 19/17 A2984 RMK AO2 SLP098 T01940167=
201404142052 METAR KATL 142052Z 18013G18KT 10SM FEW015 SCT090 BKN120 OVC140 19/17 A2985 RMK AO2 RAE10 SLP101 BINOVC DSNT E P0001 60009 T01940167 58030=
201404141952 METAR KATL 141952Z 22006KT 10SM -RA FEW015 BKN065 OVC095 19/17 A2990 RMK AO2 PRESFR SLP119 P0005 T01890167=
201404141949 SPECI KATL 141949Z 22007KT 10SM -RA FEW015 BKN060 OVC100 19/17 A2990 RMK AO2 PRESFR P0005=
201404141909 SPECI KATL 141909Z 26007KT 6SM -RA BR FEW006 BKN028 OVC040 19/17 A2994 RMK AO2 P0005=
201404141901 SPECI KATL 141901Z 28006KT 2SM RA BR SCT009 BKN032 OVC041 19/18 A2994 RMK AO2 SFC VIS 3 P0004=
201404141858 SPECI KATL 141858Z 27006KT 2SM RA BR SCT006 BKN014 OVC039 19/18 A2994 RMK AO2 SFC VIS 3 P0002=
201404141852 METAR KATL 141852Z 27005KT 4SM -RA BR SCT008 BKN030 OVC080 19/18 A2994 RMK AO2 SLP132 P0003 T01940178=
201404141752 METAR KATL 141752Z 00000KT 5SM R09R/6000VP6000FT -RA BR FEW020TCU SCT040 OVC075 19/18 A2995 RMK AO2 SLP136 TCU NW P0014 60014 T01940178 10217 20172 58009=
201404141724 SPECI KATL 141724Z 00000KT 4SM -RA BR BKN025 BKN045 OVC070 19/18 A2996 RMK AO2 P0008=
201404141701 SPECI KATL 141701Z 23004KT 6SM -RA FEW025 SCT050 OVC090 21/17 A2997 RMK AO2 P0002=
201404141652 METAR KATL 141652Z 21008KT 10SM -RA SCT020 BKN040 OVC090 21/16 A2997 RMK AO2 RAB45 SLP141 VIS LWR S-SW-W SHRA P0000 T02110161=
201404141631 SPECI KATL 141631Z 21008KT 10SM SCT024 BKN040 OVC110 21/16 A2997 RMK AO2=
201404141552 METAR KATL 141552Z 20006KT 10SM BKN020 BKN040 OVC060 21/16 A2998 RMK AO2 SLP146 T02110161=
201404141452 METAR KATL 141452Z 17011G16KT 10SM BKN015 BKN050 OVC070 20/16 A2998 RMK AO2 SLP146 T02000161 50006=
201404141358 SPECI KATL 141358Z 18009G18KT 10SM BKN015 BKN040 OVC070 19/16 A2998 RMK AO2 SHRA DSNT NW=
201404141352 METAR KATL 141352Z 17013G18KT 10SM SCT015 BKN045 OVC150 19/16 A2999 RMK AO2 SLP149 SHRA DSNT NW T01890156=
201404141252 METAR KATL 141252Z 17006KT 10SM FEW015 BKN050 BKN065 OVC180 18/14 A2997 RMK AO2 SLP143 VIRGA W-N T01780144=
201404141152 METAR KATL 141152Z 16007KT 10SM BKN060 OVC180 17/13 A2996 RMK AO2 SLP140 T01720133 10200 20172 53002 $=
201404141052 METAR KATL 141052Z 16008KT 10SM BKN060 OVC150 17/13 A2995 RMK AO2 SLP134 T01720133 $=
201404140952 METAR KATL 140952Z 14007KT 10SM SCT055 OVC180 18/13 A2993 RMK AO2 SLP129 T01780133 $=
201404140852 METAR KATL 140852Z 14006KT 10SM SCT065 OVC180 18/13 A2996 RMK AO2 SLP137 T01780133 56016 $=
201404140752 METAR KATL 140752Z 17007KT 10SM OVC180 18/13 A2998 RMK AO2 SLP142 T01830133 $=
201404140652 METAR KATL 140652Z 15008G14KT 10SM OVC180 19/13 A2998 RMK AO2 SLP145 T01890128 $=
201404140552 METAR KATL 140552Z 15010KT 10SM FEW140 OVC180 20/12 A3001 RMK AO2 SLP152 T02000117 10239 20200 55008 $=
201404140452 METAR KATL 140452Z 17010G18KT 10SM SCT140 OVC180 21/12 A3000 RMK AO2 SLP150 VIRGA NE-OHD-SW T02060117 402670139 $=
201404140352 METAR KATL 140352Z 17009KT 10SM FEW150 OVC200 21/12 A3001 RMK AO2 SLP155 T02110117 $=
201404140252 METAR KATL 140252Z 16009KT 10SM FEW060 SCT150 OVC200 21/12 A3003 RMK AO2 SLP162 T02110122 50003 $=
201404140152 METAR KATL 140152Z 15006KT 10SM FEW065 BKN200 BKN250 21/12 A3004 RMK AO2 SLP167 T02110122 $=
201404140052 METAR KATL 140052Z 15005KT 10SM BKN200 OVC250 22/12 A3003 RMK AO2 SLP162 T02220117 $=
201404132352 METAR KATL 132352Z 16008KT 10SM FEW060 BKN200 BKN250 24/11 A3002 RMK AO2 SLP160 T02390111 10267 20239 58010 $=
201404132252 METAR KATL 132252Z 15013KT 10SM FEW065 BKN200 BKN250 25/12 A3003 RMK AO2 SLP164 T02500117 $=
201404132152 METAR KATL 132152Z 18009KT 10SM SCT065 BKN200 BKN250 26/12 A3004 RMK AO2 SLP166 T02560122 $=
201404132052 METAR KATL 132052Z 17010KT 10SM SCT060 BKN200 OVC250 26/12 A3005 RMK AO2 SLP170 T02560122 58022 $=
201404131952 METAR KATL 131952Z 18011KT 10SM SCT060 BKN200 26/12 A3008 RMK AO2 SLP179 T02560122 $=
201404131852 METAR KATL 131852Z 20011G17KT 160V220 10SM BKN060 BKN250 26/13 A3010 RMK AO2 SLP183 T02610128 $=
201404131752 METAR KATL 131752Z 19012KT 10SM BKN055 BKN250 25/12 A3012 RMK AO2 SLP192 T02500122 10250 20144 58019 $=
201404131652 METAR KATL 131652Z 18008G17KT 10SM BKN050 BKN250 25/12 A3014 RMK AO2 SLP200 T02500122 $=
201404131552 METAR KATL 131552Z 18009KT 10SM FEW045 SCT250 24/13 A3017 RMK AO2 SLP210 T02390128 $=
201404131452 METAR KATL 131452Z 17008KT 10SM FEW050 SCT250 22/13 A3018 RMK AO2 SLP212 T02220133 51005 $=
201404131352 METAR KATL 131352Z 19008KT 10SM FEW050 BKN250 19/13 A3017 RMK AO2 SLP212 T01940133 $=
201404131252 METAR KATL 131252Z 18005KT 10SM SCT050 SCT250 16/13 A3017 RMK AO2 SLP211 T01610128 $=
201404131152 METAR KATL 131152Z 15004KT 10SM SCT050 SCT250 14/12 A3016 RMK AO2 SLP208 T01440117 10178 20139 53016 $=
201404131052 METAR KATL 131052Z 11005KT 10SM FEW050 SCT250 15/12 A3013 RMK AO2 SLP197 T01500117 $=
201404130952 METAR KATL 130952Z 00000KT 10SM FEW050 SCT250 16/12 A3012 RMK AO2 SLP191 T01610117 $=
201404130852 METAR KATL 130852Z 19005KT 10SM SCT050 BKN250 16/12 A3011 RMK AO2 SLP190 T01610117 56004 $=
201404130752 METAR KATL 130752Z 19005KT 10SM SCT250 17/11 A3011 RMK AO2 SLP190 T01670111 $=
201404130652 METAR KATL 130652Z 16005KT 10SM FEW200 BKN250 18/11 A3012 RMK AO2 SLP191 T01780111 $=
201404130552 METAR KATL 130552Z 18006KT 10SM FEW200 BKN250 18/11 A3013 RMK AO2 SLP194 T01780111 10239 20178 58004 $=
201404130452 METAR KATL 130452Z 18006KT 10SM FEW150 SCT200 BKN250 18/11 A3014 RMK AO2 SLP198 T01830111 402670111 $=
201404130352 METAR KATL 130352Z 19005KT 10SM SCT200 BKN250 19/11 A3013 RMK AO2 SLP197 T01890111 $=
201404130252 METAR KATL 130252Z 17007KT 10SM SCT200 BKN250 20/11 A3014 RMK AO2 SLP198 T02000111 51009 $=
201404130152 METAR KATL 130152Z 16005KT 10SM BKN200 BKN250 21/11 A3013 RMK AO2 SLP198 T02060111 $=
201404130052 METAR KATL 130052Z 18004KT 10SM BKN200 BKN250 22/11 A3012 RMK AO2 SLP193 T02220106 $=
201404122352 METAR KATL 122352Z 20006KT 10SM FEW065 BKN200 BKN250 24/09 A3011 RMK AO2 SLP191 T02390094 10267 20239 53001 $=
201404122252 METAR KATL 122252Z 17009KT 10SM FEW065 BKN200 BKN250 26/11 A3010 RMK AO2 SLP188 T02560106 $=
201404122152 METAR KATL 122152Z 19009KT 10SM FEW065 SCT200 BKN250 26/09 A3010 RMK AO2 SLP188 T02610094 $=
201404122052 METAR KATL 122052Z 17013KT 10SM FEW060 BKN250 26/09 A3011 RMK AO2 SLP189 T02610094 56024 $=
201404121952 METAR KATL 121952Z 15007G17KT 120V190 10SM FEW060 SCT250 26/08 A3013 RMK AO2 SLP196 T02610083 $=
201404121852 METAR KATL 121852Z 16009G15KT 10SM FEW060 SCT250 26/08 A3016 RMK AO2 SLP207 T02560083 $=
201404121752 METAR KATL 121752Z VRB05KT 10SM FEW060 24/09 A3018 RMK AO2 SLP215 T02440089 10250 20122 58016 $=
201404121652 METAR KATL 121652Z 15007KT 10SM FEW055 24/10 A3021 RMK AO2 SLP224 T02390100 $=
201404121552 METAR KATL 121552Z 00000KT 10SM FEW050 23/11 A3023 RMK AO2 SLP230 T02330106 $=
201404121452 METAR KATL 121452Z VRB03KT 10SM CLR 22/11 A3023 RMK AO2 SLP230 T02170111 53007 $=
201404121352 METAR KATL 121352Z VRB03KT 10SM CLR 21/11 A3022 RMK AO2 SLP228 T02060111 $=
201404121252 METAR KATL 121252Z 25004KT 10SM CLR 17/11 A3021 RMK AO2 SLP227 T01670106 $=
201404121152 METAR KATL 121152Z 00000KT 10SM CLR 12/08 A3021 RMK AO2 SLP226 T01220083 10139 20111 53017 $=
201404121052 METAR KATL 121052Z 00000KT 10SM FEW200 11/08 A3019 RMK AO2 SLP220 T01110078 $=
201404120952 METAR KATL 120952Z 00000KT 10SM FEW200 12/08 A3017 RMK AO2 SLP213 T01220078 $=
201404120852 METAR KATL 120852Z 23003KT 10SM FEW200 13/08 A3016 RMK AO2 SLP208 T01280078 56008 $=
201404120752 METAR KATL 120752Z 22004KT 10SM FEW200 14/08 A3016 RMK AO2 SLP210 T01390078 $=
201404120652 METAR KATL 120652Z 20008KT 10SM FEW200 13/07 A3016 RMK AO2 SLP210 T01330072 $=
201404120552 METAR KATL 120552Z 00000KT 10SM FEW200 13/07 A3018 RMK AO2 SLP217 T01330072 10206 20133 58001 $=
201404120452 METAR KATL 120452Z 00000KT 10SM FEW080 SCT200 14/07 A3020 RMK AO2 SLP222 T01390072 402280094 $=
201404120352 METAR KATL 120352Z 23003KT 10SM FEW080 SCT200 16/07 A3020 RMK AO2 SLP224 T01560067 $=
201404120252 METAR KATL 120252Z 24004KT 10SM FEW200 17/07 A3019 RMK AO2 SLP218 T01720067 53016 $=
201404120152 METAR KATL 120152Z 24003KT 10SM FEW200 18/06 A3017 RMK AO2 SLP213 T01780061 $=
201404120052 METAR KATL 120052Z 00000KT 10SM FEW080 SCT200 19/06 A3015 RMK AO2 SLP207 T01890061 $=
201404112352 METAR KATL 112352Z 23004KT 10SM SCT200 21/06 A3014 RMK AO2 SLP203 T02060056 10228 20206 56003 $=
201404112252 METAR KATL 112252Z 24008KT 10SM BKN200 22/05 A3014 RMK AO2 SLP203 T02220050 $=
201404112152 METAR KATL 112152Z 21008KT 10SM BKN200 22/06 A3014 RMK AO2 SLP203 T02220056 $=
201404112052 METAR KATL 112052Z 21008KT 10SM BKN200 22/06 A3015 RMK AO2 SLP205 T02220056 58023 $=
201404111952 METAR KATL 111952Z 23006G15KT 10SM BKN250 22/06 A3017 RMK AO2 SLP212 T02170056 $=
201404111852 METAR KATL 111852Z 27008KT 10SM BKN250 21/06 A3020 RMK AO2 SLP223 T02110056=
201404111752 METAR KATL 111752Z 22013G19KT 10SM BKN250 21/05 A3022 RMK AO2 SLP229 T02060050 10206 20106 58017=
201404111652 METAR KATL 111652Z 26008G15KT 10SM FEW050 SCT200 BKN240 20/06 A3025 RMK AO2 SLP238 T02000061=
201404111552 METAR KATL 111552Z 21011KT 10SM BKN250 18/08 A3026 RMK AO2 SLP245 T01830083=
201404111452 METAR KATL 111452Z 25009KT 10SM FEW030 SCT200 BKN250 17/09 A3027 RMK AO2 SLP248 T01720089 51011=
201404111352 METAR KATL 111352Z 24007KT 10SM BKN250 15/08 A3027 RMK AO2 SLP247 T01500083=
201404111252 METAR KATL 111252Z 23004KT 10SM SCT200 BKN250 13/06 A3026 RMK AO2 SLP244 T01330061=
201404111152 METAR KATL 111152Z 00000KT 10SM FEW200 SCT250 10/06 A3024 RMK AO2 SLP237 T01000056 10133 20094 53009=
201404111052 METAR KATL 111052Z 00000KT 10SM FEW200 SCT250 10/05 A3022 RMK AO2 SLP230 T01000050=
201404110952 METAR KATL 110952Z 00000KT 10SM FEW250 11/04 A3020 RMK AO2 SLP223 T01060044 $=
201404110852 METAR KATL 110852Z 23003KT 10SM FEW250 11/04 A3021 RMK AO2 SLP226 T01110044 58002 $=
201404110752 METAR KATL 110752Z 22006KT 10SM CLR 12/04 A3021 RMK AO2 SLP227 T01170039=
201404110652 METAR KATL 110652Z 23005KT 10SM CLR 13/04 A3021 RMK AO2 SLP227 T01280039=
201404110552 METAR KATL 110552Z 21007KT 10SM CLR 13/03 A3022 RMK AO2 SLP228 T01330033 10206 20128 53003=
201404110452 METAR KATL 110452Z 19007KT 10SM FEW250 14/02 A3021 RMK AO2 SLP225 T01390022 402390061=
201404110352 METAR KATL 110352Z 19006KT 10SM FEW250 15/02 A3021 RMK AO2 SLP227 T01500017=
201404110252 METAR KATL 110252Z 22004KT 10SM FEW250 16/01 A3021 RMK AO2 SLP225 T01610011 53012=
201404110152 METAR KATL 110152Z 20007KT 10SM FEW250 17/01 A3019 RMK AO2 SLP220 T01720011=
201404110052 METAR KATL 110052Z 18007KT 10SM FEW250 18/02 A3017 RMK AO2 SLP216 T01830022=
201404102352 METAR KATL 102352Z 19006KT 10SM FEW250 21/02 A3017 RMK AO2 SLP215 T02060017 10239 20206 53001=
201404102252 METAR KATL 102252Z 20008KT 10SM FEW250 23/01 A3016 RMK AO2 SLP211 T02280006=
201404102152 METAR KATL 102152Z 20010KT 10SM CLR 23/01 A3016 RMK AO2 SLP210 T02330011=
201404102052 METAR KATL 102052Z 23006G14KT 10SM CLR 23/01 A3017 RMK AO2 SLP213 T02330006 56022=
201404101952 METAR KATL 101952Z 19006G14KT 10SM CLR 23/02 A3019 RMK AO2 SLP219 T02280017=
201404101852 METAR KATL 101852Z 24006KT 10SM FEW250 22/02 A3021 RMK AO2 SLP227 T02170017=
201404101752 METAR KATL 101752Z 20007G16KT 10SM FEW250 21/02 A3024 RMK AO2 SLP237 T02110017 10211 20083 58017=
201404101652 METAR KATL 101652Z 19009KT 10SM FEW250 20/01 A3026 RMK AO2 SLP243 T02000011=
201404101552 METAR KATL 101552Z 22007KT 180V250 10SM FEW250 19/02 A3028 RMK AO2 SLP250 T01940022=
201404101452 METAR KATL 101452Z 21008KT 10SM FEW250 18/02 A3029 RMK AO2 SLP254 T01780017 51013=
201404101352 METAR KATL 101352Z 23003KT 10SM CLR 16/02 A3027 RMK AO2 SLP249 T01560022=
201404101252 METAR KATL 101252Z 00000KT 10SM CLR 12/05 A3027 RMK AO2 SLP248 T01220050=
201404101152 METAR KATL 101152Z 00000KT 10SM CLR 08/03 A3025 RMK AO2 SLP242 T00830028 10106 20061 51020=
201404101052 METAR KATL 101052Z 00000KT 10SM CLR 07/03 A3023 RMK AO2 SLP237 T00720028=
201404100952 METAR KATL 100952Z 00000KT 10SM CLR 08/03 A3021 RMK AO2 SLP227 T00830028=
201404100852 METAR KATL 100852Z 00000KT 10SM CLR 08/02 A3019 RMK AO2 SLP221 T00830022 53005=
201404100752 METAR KATL 100752Z 00000KT 10SM CLR 09/02 A3018 RMK AO2 SLP217 T00890022=
201404100652 METAR KATL 100652Z 00000KT 10SM CLR 10/02 A3017 RMK AO2 SLP213 T01000022=
201404100552 METAR KATL 100552Z 00000KT 10SM CLR 10/02 A3017 RMK AO2 SLP215 T01000017 10167 20100 51005=
201404100452 METAR KATL 100452Z 28004KT 10SM CLR 12/01 A3017 RMK AO2 SLP214 T01220011 401940089=
201404100352 METAR KATL 100352Z 30006KT 10SM CLR 13/01 A3017 RMK AO2 SLP213 T01280011=
201404100252 METAR KATL 100252Z 28005KT 10SM CLR 13/01 A3016 RMK AO2 SLP210 T01330011 51023=
201404100152 METAR KATL 100152Z 28005KT 10SM CLR 13/02 A3014 RMK AO2 SLP206 T01330017=
201404100052 METAR KATL 100052Z 28005KT 10SM CLR 15/02 A3011 RMK AO2 SLP197 T01500017=
201404092352 METAR KATL 092352Z 31007KT 10SM CLR 17/02 A3009 RMK AO2 SLP187 T01670017 10194 20167 53007=
201404092252 METAR KATL 092252Z 33012KT 10SM CLR 18/00 A3007 RMK AO2 SLP182 T01830000=
201404092152 METAR KATL 092152Z 35012KT 10SM FEW070 19/00 A3006 RMK AO2 SLP178 T01890000=
201404092052 METAR KATL 092052Z 35014G19KT 10SM FEW070 19/01 A3007 RMK AO2 SLP179 T01940011 55005=
201404091952 METAR KATL 091952Z 34015G23KT 10SM FEW065 19/02 A3006 RMK AO2 SLP178 T01940022=
201404091852 METAR KATL 091852Z 31012G27KT 10SM FEW060 18/04 A3008 RMK AO2 PK WND 33027/1849 SLP183 T01830039=
201404091752 METAR KATL 091752Z 34013G21KT 10SM FEW055 17/03 A3008 RMK AO2 SLP185 T01720033 10172 20094 51008=
201404091652 METAR KATL 091652Z 33013G20KT 10SM FEW048 17/04 A3008 RMK AO2 SLP184 T01670044=
201404091552 METAR KATL 091552Z 32015G21KT 10SM FEW040 16/06 A3007 RMK AO2 SLP182 T01610056=
201404091452 METAR KATL 091452Z 33011G21KT 10SM FEW030 14/06 A3006 RMK AO2 SLP177 T01390061 53029=
201404091352 METAR KATL 091352Z 35016G23KT 10SM FEW023 12/06 A3002 RMK AO2 SLP167 T01220061=
201404091252 METAR KATL 091252Z 32011KT 10SM FEW050 11/07 A2999 RMK AO2 SLP154 T01060067=
201404091152 METAR KATL 091152Z 32009KT 10SM FEW220 09/06 A2997 RMK AO2 SLP147 T00940061 10106 20089 53029=
201404091052 METAR KATL 091052Z 31008KT 10SM FEW110 SCT220 09/06 A2993 RMK AO2 SLP134 T00940061=
201404090952 METAR KATL 090952Z 32009KT 10SM FEW075 SCT110 BKN220 10/06 A2990 RMK AO2 SLP123 T01000056=
201404090852 METAR KATL 090852Z 32006KT 10SM BKN075 BKN110 10/06 A2988 RMK AO2 SLP116 T01000056 53012=
201404090752 METAR KATL 090752Z 31009KT 10SM FEW080 BKN110 11/06 A2986 RMK AO2 SLP111 T01060056=
201404090652 METAR KATL 090652Z 31008KT 10SM FEW080 SCT100 SCT200 10/05 A2985 RMK AO2 SLP109 T01000050=
201404090552 METAR KATL 090552Z 32009KT 10SM SCT080 11/05 A2984 RMK AO2 SLP104 T01060050 10144 20106 53015=
201404090452 METAR KATL 090452Z 30007KT 10SM SCT110 11/05 A2983 RMK AO2 SLP100 T01060050 401780078=
201404090352 METAR KATL 090352Z 30005KT 10SM FEW085 BKN110 11/05 A2981 RMK AO2 SLP093 T01110050=
201404090252 METAR KATL 090252Z 32004KT 10SM FEW090 12/04 A2980 RMK AO2 SLP091 T01170044 51015=
201404090152 METAR KATL 090152Z 28004KT 10SM FEW095 13/04 A2979 RMK AO2 SLP089 T01280039=
201404090052 METAR KATL 090052Z 28003KT 10SM FEW090 13/04 A2977 RMK AO2 SLP081 T01330039=
201404082352 METAR KATL 082352Z 31006KT 10SM BKN080 14/04 A2975 RMK AO2 SLP075 T01440039 10178 20144 53012=
201404082252 METAR KATL 082252Z 32009KT 10SM FEW050 BKN075 16/03 A2974 RMK AO2 SLP070 T01560033=
201404082152 METAR KATL 082152Z 32008KT 10SM BKN065 17/04 A2973 RMK AO2 SLP066 T01720039=
201404082052 METAR KATL 082052Z 33012G21KT 10SM BKN060 16/03 A2972 RMK AO2 SLP062 T01610028 55011=
201404081952 METAR KATL 081952Z 31016G23KT 10SM BKN060 17/04 A2971 RMK AO2 SLP060 T01720039=
201404081852 METAR KATL 081852Z 36015G19KT 10SM SCT050 SCT250 16/03 A2973 RMK AO2 PK WND 31029/1825 SLP064 T01560033=
201404081752 METAR KATL 081752Z 34015G22KT 10SM FEW047 SCT250 16/04 A2975 RMK AO2 PK WND 34026/1720 SLP073 T01560039 10161 20078 58012=
201404081652 METAR KATL 081652Z 32017G25KT 10SM FEW040 SCT250 15/04 A2976 RMK AO2 PK WND 32030/1610 SLP077 T01500044=
201404081552 METAR KATL 081552Z 31014G23KT 10SM FEW030 SCT250 14/06 A2978 RMK AO2 SLP084 T01390056=
201404081516 SPECI KATL 081516Z 32015G21KT 10SM SCT026 SCT250 12/06 A2979 RMK AO2=
201404081452 METAR KATL 081452Z 32015KT 10SM BKN024 BKN250 11/06 A2979 RMK AO2 SLP086 T01110056 50004=
201404081352 METAR KATL 081352Z 31011KT 10SM FEW013 SCT028 SCT250 09/06 A2978 RMK AO2 SLP081 T00940061=
201404081335 SPECI KATL 081335Z 29009KT 10SM FEW013 BKN028 09/06 A2978 RMK AO2=
201404081252 METAR KATL 081252Z 29008KT 9SM SCT027 SCT200 BKN250 08/06 A2977 RMK AO2 SLP080 T00830061=
201404081152 METAR KATL 081152Z 27005KT 10SM FEW025 BKN250 08/06 A2976 RMK AO2 SLP077 70095 T00780061 10111 20078 53004=
201404081052 METAR KATL 081052Z 29007KT 10SM FEW025 BKN250 08/06 A2974 RMK AO2 SLP069 T00830056=
201404080952 METAR KATL 080952Z 30006KT 10SM FEW025 BKN250 08/06 A2975 RMK AO2 SLP072 T00830056=
201404080852 METAR KATL 080852Z 30009KT 10SM FEW025 SCT250 09/06 A2975 RMK AO2 SLP073 T00890056 56007=
201404080752 METAR KATL 080752Z 32014G21KT 10SM SCT024 BKN220 11/06 A2976 RMK AO2 SLP074 T01060061=
201404080706 SPECI KATL 080706Z 30011KT 10SM SCT027 OVC220 11/07 A2975 RMK AO2=
201404080652 METAR KATL 080652Z 31012G18KT 10SM OVC025 11/07 A2976 RMK AO2 SLP076 T01110067=
201404080638 SPECI KATL 080638Z 31010KT 10SM BKN025 OVC200 11/07 A2977 RMK AO2=
201404080606 SPECI KATL 080606Z 30010KT 10SM SCT025 OVC200 11/07 A2977 RMK AO2=
201404080552 METAR KATL 080552Z 29009KT 10SM BKN025 OVC200 11/07 A2977 RMK AO2 SLP081 T01110067 10189 20111 50002=
201404080550 SPECI KATL 080550Z 30009KT 10SM BKN025 OVC200 11/07 A2978 RMK AO2=
201404080452 METAR KATL 080452Z 29008KT 10SM FEW025 OVC200 12/07 A2979 RMK AO2 SLP086 T01170072 401890100=
201404080352 METAR KATL 080352Z 31015G25KT 10SM FEW018 SCT025 OVC200 12/08 A2979 RMK AO2 SLP088 T01220078=
201404080252 METAR KATL 080252Z 32012G21KT 10SM SCT016 BKN022 OVC200 14/12 A2977 RMK AO2 SLP079 T01440117 53032=
201404080152 METAR KATL 080152Z 28009KT 10SM FEW008 BKN020 BKN070 OVC200 18/17 A2972 RMK AO2 SLP062 T01830172=
201404080139 SPECI KATL 080139Z 24007KT 10SM SCT008 BKN040 OVC200 18/17 A2971 RMK AO2=
201404080052 METAR KATL 080052Z 21011KT 10SM BKN010 BKN045 OVC200 19/17 A2968 RMK AO2 SLP048 CIG 008V012 CB DSNT N-NE T01890172=
201404080001 SPECI KATL 080001Z 19012G18KT 10SM FEW009 SCT015 BKN200 19/17 A2967 RMK AO2 SCT015 V BKN=
201404072352 METAR KATL 072352Z 20012G16KT 10SM SCT009 BKN015 BKN150 BKN200 18/17 A2967 RMK AO2 SLP044 60005 T01830172 10189 20133 53003=
201404072347 SPECI KATL 072347Z 19010G16KT 10SM SCT009 BKN150 OVC200 18/17 A2967 RMK AO2=
201404072333 SPECI KATL 072333Z 19010KT 10SM SCT007 BKN010 BKN140 OVC200 18/17 A2966 RMK AO2=
201404072252 METAR KATL 072252Z 18009KT 9SM BKN007 BKN010 OVC015 18/17 A2967 RMK AO2 SLP043 T01830172=
201404072152 METAR KATL 072152Z 18010KT 8SM SCT005 BKN008 OVC012 18/17 A2966 RMK AO2 RAE51 SLP039 P0002 T01780172=
201404072137 SPECI KATL 072137Z 18008KT 7SM -RA BKN005 OVC010 18/17 A2966 RMK AO2 P0002=
201404072052 METAR KATL 072052Z 18006KT 2SM -RA BR BKN005 BKN008 OVC010 17/16 A2966 RMK AO2 SFC VIS 4 RAE27B46 SLP040 P0003 60003 T01720161 56029=
201404072003 SPECI KATL 072003Z 18003KT 2SM -RA BR FEW004 BKN006 OVC010 16/16 A2967 RMK AO2 SFC VIS 3 P0001=
201404071953 SPECI KATL 071953Z 15006KT 3SM -RA BR OVC006 16/16 A2968 RMK AO2 TWR VIS 4 P0000=
201404071952 METAR KATL 071952Z 15008KT 6SM -RA BR OVC006 16/16 A2968 RMK AO2 RAB40 SLP050 P0000 T01610156=
201404071939 SPECI KATL 071939Z 16007KT 6SM BR OVC006 16/15 A2968 RMK AO2=
201404071926 SPECI KATL 071926Z 15007KT 1 1/2SM BR OVC005 16/15 A2969 RMK AO2 SFC VIS 6=
201404071852 METAR KATL 071852Z 14008KT 1/2SM BR BCFG OVC004 14/14 A2970 RMK AO2 SFC VIS 3 SLP055 TWRINC T01440139=
201404071752 METAR KATL 071752Z 13008KT 1/2SM BR BCFG OVC003 13/12 A2975 RMK AO2 SFC VIS 3 RAE22 SLP073 TWRINC P0001 60090 T01330122 10133 20100 56024=
201404071703 SPECI KATL 071703Z 12008KT 1/2SM -RA BR OVC003 12/11 A2977 RMK AO2 SFC VIS 4 TWRINC P0000=
201404071652 METAR KATL 071652Z 14008G15KT 1SM -RA BR OVC004 12/11 A2978 RMK AO2 SFC VIS 5 RAE16B46 SLP084 P0000 T01170111=
201404071649 SPECI KATL 071649Z 13010KT 1SM -RA BR OVC004 12/11 A2978 RMK AO2 SFC VIS 5 RAE16B46 P0000=
201404071552 METAR KATL 071552Z 12006KT 2SM -RA BR BKN005 BKN050 OVC070 11/10 A2979 RMK AO2 SFC VIS 6 SLP087 P0019 T01110100=
201404071452 METAR KATL 071452Z 11006KT 2SM RA BR BKN005 BKN050 OVC070 11/10 A2982 RMK AO2 SFC VIS 3 RAB1356 SLP099 P0017 60070 T01060100 55024=
201404071352 METAR KATL 071352Z 09011G17KT 2SM BR BKN005 BKN050 OVC070 11/09 A2980 RMK AO2 WSHFT 1242 SFC VIS 6 TSB03E44RAE50 SLP091 TS MOV NE P0021 T01060094 $=
201404071345 SPECI KATL 071345Z 10011KT 2SM -RA BR BKN005 BKN050 OVC070 10/09 A2979 RMK AO2 WSHFT 1242 SFC VIS 6 TSB03E44 TS MOV NE P0021 $=
201404071319 SPECI KATL 071319Z 09014G19KT 1 3/4SM TSRA BR BKN005 BKN048CB OVC070 10/09 A2981 RMK AO2 WSHFT 1242 SFC VIS 4 TSB03 PRESFR OCNL LTGICCG NE-SE TS NE-SE MOV NE P0014 $=
201404071303 SPECI KATL 071303Z 09018G21KT 1 3/4SM TSRA BR SCT005 BKN050CB OVC070 10/09 A2983 RMK AO2 WSHFT 1242 SFC VIS 4 TSB03 PRESFR OCNL LTGICCG ALQDS TS ALQDS MOV NE P0005 $=
201404071259 SPECI KATL 071259Z 09016G21KT 1 3/4SM RA BR BKN005 BKN055CB OVC065 10/09 A2984 RMK AO2 WSHFT 1242 SFC VIS 4 PRESFR CB OHD-W-N-NE & DSNT SE-S P0003 $=
201404071252 METAR KATL 071252Z 10014G19KT 1 3/4SM RA BR BKN005 BKN055CB OVC070 10/09 A2985 RMK AO2 WSHFT 1139 SFC VIS 5 PRESFR SLP110 CB OHD-W-N-NE MOV NE P0032 T01000094 $=
201404071231 SPECI KATL 071231Z 05016KT 1 3/4SM RA BR BKN005 BKN048CB OVC070 10/09 A2988 RMK AO2 WSHFT 1139 SFC VIS 4 CB W-N & VC SE MOV NE P0022 $=
201404071155 SPECI KATL 071155Z 04016KT 1 3/4SM +RA BR FEW006 BKN030CB OVC046 11/09 A2990 RMK AO2 WSHFT 1139 SFC VIS 3 CB NE-OHD-SW MOV NE P0003 $=
201404071152 METAR KATL 071152Z 05016KT 1 3/4SM RA BR SCT006 SCT030CB OVC046 11/09 A2990 RMK AO2 PK WND 32030/1139 WSHFT 1052 SFC VIS 2 1/2 SLP124 CB NE-OHD-SW MOV NE P0049 60140 70197 T01060094 10133 20100 53042 $=
201404071129 SPECI KATL 071129Z 01016G23KT 1 3/4SM +RA BR BKN006 BKN017 OVC037 11/09 A2987 RMK AO2 WSHFT 1052 SFC VIS 2 P0023=
201404071125 SPECI KATL 071125Z 03013G23KT 2 1/2SM +RA BR BKN006 BKN013 OVC037 11/09 A2987 RMK AO2 WSHFT 1052 TWR VIS 3 P0019=
201404071108 SPECI KATL 071108Z 35019G24KT 3SM -RA BKN005 OVC012 11/10 A2984 RMK AO2 WSHFT 1052 SFC VIS 7 PRESRR P0000=
201404071052 METAR KATL 071052Z 06018KT 3SM -RA BR BKN005 OVC012 11/10 A2977 RMK AO2 SFC VIS 6 TSE15 SLP083 TS DSPTD P0027 T01060100=
201404071050 SPECI KATL 071050Z 06016KT 3SM -RA BR BKN005 OVC013 11/10 A2977 RMK AO2 SFC VIS 6 TSE15 TS DSPTD P0027=
201404071038 SPECI KATL 071038Z 05015KT 3SM RA BR SCT005 OVC013 11/10 A2979 RMK AO2 SFC VIS 5 TSE15 TS DSPTD P0023=
201404071015 SPECI KATL 071015Z 05016KT 3SM RA BR BKN005 OVC020 11/10 A2979 RMK AO2 SFC VIS 6 TSE15 TS DSPTD P0018=
201404071006 SPECI KATL 071006Z 01010KT 1/2SM -TSRA FEW005 SCT009 OVC020CB 11/10 A2981 RMK AO2 SFC VIS 7 OCNL LTGIC NE TS VC NE MOV NE P0014=
201404070952 METAR KATL 070952Z 35014G25KT 1/2SM R09R/5000VP6000FT +TSRA BR SCT005 OVC009CB 11/11 A2982 RMK AO2 WSHFT 0917 SFC VIS 1 1/2 PRESRR SLP098 OCNL LTGIC OHD-W-NW TS OHD-W-NW MOV NE P0039 T01110106=
201404070931 SPECI KATL 070931Z 04012G19KT 1/2SM +TSRA BR SCT003 OVC008CB 12/11 A2978 RMK AO2 WSHFT 0917 SFC VIS 2 1/2 OCNL LTGIC OHD-W-NW TS OHD-W-NW MOV NE TWRINC P0015=
201404070852 METAR KATL 070852Z 13008KT 1/2SM -TSRA BR OVC003CB 13/12 A2977 RMK AO2 SFC VIS 1 1/2 TSB45 SLP079 OCNL LTGIC W-NW TS W-NW MOV NE TWRINC P0007 60025 T01280122 56026=
201404070845 SPECI KATL 070845Z 12009G15KT 1/2SM -TSRA BR OVC003CB 13/12 A2977 RMK AO2 SFC VIS 2 1/2 TSB45 OCNL LTGIC SW-NW TS VC SW-NW MOV NE P0006=
201404070752 METAR KATL 070752Z 11010KT 1/2SM -RA BR OVC003 12/11 A2979 RMK AO2 SFC VIS 2 1/2 RAB0653 SLP087 CIG 002V004 TWRINC P0007 T01170111=
201404070750 SPECI KATL 070750Z 11008KT 1/2SM -RA BR OVC003 12/11 A2979 RMK AO2 SFC VIS 2 1/2 RAB0653 CIG 002V004 TWRINC P0007=
201404070743 SPECI KATL 070743Z 11007KT 2 1/2SM -RA BR OVC004 11/11 A2979 RMK AO2 RAB0653 CIG 003V005 P0006=
201404070718 SPECI KATL 070718Z 10010KT 3SM -RA BR OVC004 11/11 A2980 RMK AO2 RAB0653 CIG 003V005 P0005=
201404070703 SPECI KATL 070703Z 10009KT 2 1/2SM BR OVC003 11/11 A2980 RMK AO2 RAB0653E03 P0000=
201404070652 METAR KATL 070652Z 10012KT 6SM BR OVC005 11/11 A2982 RMK AO2 RAE51 SLP096 CIG 004V007 P0011 T01110106=
201404070552 METAR KATL 070552Z 10012G19KT 6SM -RA BR BKN005CB OVC012 11/10 A2985 RMK AO2 SLP106 CIG 004V007 CB VC NW MOV NE P0012 60047 T01060100 10111 20106 58028=
201404070452 METAR KATL 070452Z 10011KT 3SM RA BR BKN006 OVC012 11/10 A2991 RMK AO2 SLP126 VIS 2V4 CIG 005V008 P0027 T01060100 401500106=
201404070438 SPECI KATL 070438Z 10009KT 3SM R09R/6000VP6000FT RA BR OVC006 11/10 A2993 RMK AO2 VIS 2V4 P0021=
201404070434 SPECI KATL 070434Z 10010KT 2SM R09R/6000VP6000FT +RA BR OVC006 11/10 A2992 RMK AO2 P0017=
201404070413 SPECI KATL 070413Z 10009G17KT 3SM RA BR OVC008 11/10 A2993 RMK AO2 CIG 007V010 P0003=
201404070352 METAR KATL 070352Z 10010KT 4SM RA BR OVC012 11/09 A2992 RMK AO2 PRESFR SLP131 CIG 010V014 P0007 T01060094=
201404070252 METAR KATL 070252Z 09015KT 10SM -RA OVC014 11/09 A2993 RMK AO2 RAB0154 SLP137 CIG 012V016 P0000 60001 T01110089 58016=
201404070152 METAR KATL 070152Z 10009KT 10SM OVC015 11/09 A2996 RMK AO2 RAE03 SLP145 P0000 T01110089=
201404070052 METAR KATL 070052Z 08014KT 7SM -RA OVC015 11/09 A2996 RMK AO2 SLP146 P0001 T01110094=
201404062352 METAR KATL 062352Z 08009KT 9SM -RA OVC015 11/09 A2998 RMK AO2 SLP153 PCPN VRY LGT P0002 60009 T01110094 10150 20111 56002=
201404062252 METAR KATL 062252Z 10007KT 8SM -RA OVC015 12/09 A2998 RMK AO2 SLP152 P0000 T01170094=
201404062152 METAR KATL 062152Z 10008KT 4SM RA BR OVC015 12/09 A2998 RMK AO2 SLP152 P0004 T01170094=
201404062124 SPECI KATL 062124Z 10006KT 9SM -RA BKN016 BKN060 OVC095 12/09 A2999 RMK AO2 P0001=
201404062052 METAR KATL 062052Z 13009KT 6SM -RA SCT023 BKN060 OVC095 12/09 A2999 RMK AO2 SLP154 P0003 60003 T01220094 58012=
201404061959 SPECI KATL 061959Z 11003KT 10SM -RA BKN022 OVC085 14/06 A3003 RMK AO2 PRESRR P0000=
201404061952 METAR KATL 061952Z 13006KT 10SM -RA SCT022 BKN060 BKN085 14/07 A3001 RMK AO2 RAB47 SLP162 P0000 T01440067=
201404061852 METAR KATL 061852Z 11010KT 10SM FEW030 BKN095 OVC180 15/06 A3003 RMK AO2 SLP168 T01500056=
201404061752 METAR KATL 061752Z 09012KT 10SM SCT035 BKN120 OVC250 14/06 A3002 RMK AO2 SLP166 60001 T01440061 10144 20111 56018=
201404061652 METAR KATL 061652Z 10010KT 10SM SCT035 BKN100 OVC250 13/07 A3005 RMK AO2 RAE02 SLP176 THN SPOTS INOVC P0000 T01330072=
201404061552 METAR KATL 061552Z 13012G17KT 10SM -RA FEW040 SCT080 OVC100 11/07 A3003 RMK AO2 RAE15B40 SLP170 P0001 T01110072=
201404061452 METAR KATL 061452Z 13006KT 7SM -RA FEW070 OVC090 11/07 A3008 RMK AO2 SLP185 P0000 60000 T01110072 50019=
201404061352 METAR KATL 061352Z 14005KT 10SM -RA FEW060 SCT080 OVC095 12/06 A3010 RMK AO2 RAE1257B32 SLP191 P0000 T01220061=
201404061252 METAR KATL 061252Z 11003KT 10SM -RA FEW060 SCT080 OVC100 12/06 A3008 RMK AO2 RAB35 SLP185 P0000 T01220061=
201404061152 METAR KATL 061152Z 07010KT 10SM BKN090 OVC150 12/04 A3002 RMK AO2 SLP164 60000 T01220039 10128 20117 53004=
201404061052 METAR KATL 061052Z 05003KT 10SM FEW050 BKN110 OVC150 12/04 A3001 RMK AO2 RAE23 SLP160 P0000 T01220039=
201404060952 METAR KATL 060952Z 08006KT 10SM -RA SCT080 OVC095 12/03 A3000 RMK AO2 RAE06B50 SLP156 P0000 T01220033=
201404060852 METAR KATL 060852Z 04007KT 10SM -RA FEW070 OVC095 13/03 A3001 RMK AO2 RAB51 SLP159 P0000 60000 T01280028 50002=
201404060752 METAR KATL 060752Z 04003KT 10SM BKN110 13/02 A3001 RMK AO2 SLP159 T01280017=
201404060652 METAR KATL 060652Z COR 32003KT 10SM SCT120 OVC150 12/02 A3001 RMK AO2 SLP161 T01220022=
201404060552 METAR KATL 060552Z 35004KT 10SM BKN120 BKN150 OVC200 12/02 A3000 RMK AO2 SLP157 T01220017 10167 20117 58013=
201404060452 METAR KATL 060452Z 00000KT 10SM BKN110 BKN150 OVC200 12/02 A3003 RMK AO2 SLP168 T01220022 402060100=
201404060352 METAR KATL 060352Z 33006KT 10SM FEW110 SCT160 OVC250 13/02 A3004 RMK AO2 SLP171 T01280017=
201404060252 METAR KATL 060252Z 33006KT 10SM FEW110 BKN160 OVC250 13/02 A3004 RMK AO2 SLP171 T01330017 51010=
201404060152 METAR KATL 060152Z 34008KT 10SM FEW110 BKN180 OVC250 14/02 A3004 RMK AO2 SLP170 T01440017=
201404060052 METAR KATL 060052Z 34008KT 10SM FEW120 OVC200 16/01 A3002 RMK AO2 SLP163 T01560006=
201404052352 METAR KATL 052352Z 34011KT 10SM FEW120 OVC200 17/01 A3001 RMK AO2 SLP161 VIRGA DSNT SW-NW T01670011 10206 20167 53005=
201404052252 METAR KATL 052252Z 34009KT 10SM FEW120 BKN200 OVC250 18/01 A3000 RMK AO2 SLP157 VIRGA W-NW T01830011=
201404052152 METAR KATL 052152Z 32008KT 10SM FEW120 BKN200 BKN250 19/02 A2999 RMK AO2 SLP154 T01940017=
201404052052 METAR KATL 052052Z 29007KT 10SM FEW120 BKN250 20/02 A2999 RMK AO2 SLP154 T02000017 56018=
201404051952 METAR KATL 051952Z VRB04G15KT 10SM FEW120 BKN250 20/02 A3000 RMK AO2 SLP156 T02000017=
201404051852 METAR KATL 051852Z 34008KT 10SM FEW100 BKN250 19/02 A3003 RMK AO2 SLP166 T01890017=
201404051752 METAR KATL 051752Z 30008G17KT 250V330 10SM FEW120 BKN250 17/03 A3005 RMK AO2 SLP172 T01720028 10183 20100 58007=
201404051652 METAR KATL 051652Z 27007KT 10SM FEW150 BKN250 16/03 A3006 RMK AO2 SLP177 T01560033=
201404051552 METAR KATL 051552Z 28010KT 10SM FEW150 SCT250 15/04 A3007 RMK AO2 SLP182 T01500039=
201404051452 METAR KATL 051452Z 29008KT 10SM FEW150 SCT250 13/05 A3007 RMK AO2 SLP180 T01330050 53016=
201404051352 METAR KATL 051352Z 33008KT 10SM FEW150 BKN250 12/05 A3005 RMK AO2 SLP172 T01220050=
201404051252 METAR KATL 051252Z 32007KT 10SM FEW150 BKN250 11/04 A3004 RMK AO2 SLP170 T01060044=
201404051152 METAR KATL 051152Z 31006KT 10SM FEW070 BKN250 10/04 A3002 RMK AO2 SLP164 T01000044 10150 20100 53014=
201404051052 METAR KATL 051052Z 33006KT 10SM FEW070 BKN250 11/04 A3001 RMK AO2 SLP159 T01060044=
201404050952 METAR KATL 050952Z 33012KT 10SM FEW014 BKN250 12/07 A2999 RMK AO2 SLP151 T01170072=
201404050852 METAR KATL 050852Z 32008KT 10SM FEW012 13/10 A2998 RMK AO2 SLP147 T01280100 50003=
201404050752 METAR KATL 050752Z 30008KT 10SM FEW012 14/12 A2998 RMK AO2 SLP145 T01390117=
201404050652 METAR KATL 050652Z 29008KT 10SM FEW018 SCT029 14/13 A2998 RMK AO2 SLP146 T01440128=
201404050632 SPECI KATL 050632Z 28006KT 10SM FEW018 SCT029 14/13 A2998 RMK AO2=
201404050616 SPECI KATL 050616Z 28007KT 10SM FEW018 BKN029 15/13 A2998 RMK AO2=
201404050552 METAR KATL 050552Z 27008KT 10SM FEW045 15/13 A2997 RMK AO2 SLP142 T01500133 10189 20150 56001=
201404050452 METAR KATL 050452Z 28007KT 10SM SCT045 BKN250 16/13 A2997 RMK AO2 SLP143 T01560133 402500156=
201404050352 METAR KATL 050352Z 27007KT 10SM SCT050 BKN250 16/13 A2997 RMK AO2 SLP142 T01610133=
201404050252 METAR KATL 050252Z 27007KT 10SM FEW080 SCT250 17/13 A2997 RMK AO2 SLP143 T01670133 51011=
201404050152 METAR KATL 050152Z 26008KT 10SM FEW030 17/13 A2997 RMK AO2 SLP143 T01720128=
201404050052 METAR KATL 050052Z 27010G18KT 10SM FEW030 SCT200 18/13 A2995 RMK AO2 SLP137 T01780133=
201404042352 METAR KATL 042352Z 28010G18KT 10SM FEW035 SCT200 19/13 A2994 RMK AO2 SLP133 60000 T01890133 10250 20189 53001=
201404042252 METAR KATL 042252Z 31014G18KT 10SM FEW040 SCT110 BKN200 21/13 A2992 RMK AO2 RAE07B39E51 SLP124 SHRA NE-SE P0000 T02060128=
201404042152 METAR KATL 042152Z 24012G24KT 10SM -RA FEW050 BKN100 OVC200 22/12 A2990 RMK AO2 RAB02E11B50 SLP120 P0000 T02170117=
201404042052 METAR KATL 042052Z 24011G19KT 10SM FEW055 BKN100 OVC200 23/10 A2994 RMK AO2 SLP131 VIRGA SW T02280100 55014=
201404041952 METAR KATL 041952Z 23012G23KT 10SM FEW055 BKN100 OVC200 24/11 A2991 RMK AO2 SLP120 VIRGA W-N T02440106=
201404041852 METAR KATL 041852Z 22013KT 10SM FEW055 BKN100 OVC200 24/10 A2993 RMK AO2 SLP129 VIRGA W T02390100=
201404041752 METAR KATL 041752Z 24012KT 10SM BKN090 BKN200 OVC250 24/11 A2998 RMK AO2 SLP145 60000 T02390106 10239 20178 55005=
201404041652 METAR KATL 041652Z 23010KT 10SM BKN100 BKN200 BKN250 23/10 A2997 RMK AO2 SLP139 SHRA DSNT NW T02330100=
201404041552 METAR KATL 041552Z 27015G21KT 10SM FEW040 SCT095 BKN250 24/12 A2999 RMK AO2 SLP149 T02390117=
201404041452 METAR KATL 041452Z 28013G19KT 10SM FEW025 BKN085 BKN250 22/16 A2999 RMK AO2 RAB17E30 SLP149 P0000 60000 T02170156 53023=
201404041419 SPECI KATL 041419Z 26012G19KT 9SM -RA BKN020 BKN025 OVC050 19/15 A3000 RMK AO2 RAB17 P0000=
201404041401 SPECI KATL 041401Z 24009G22KT 10SM FEW020 BKN025 OVC050 19/15 A2998 RMK AO2=
201404041352 METAR KATL 041352Z 24010G25KT 10SM FEW018 BKN040 BKN050 19/15 A2998 RMK AO2 SLP144 SHRA DSNT SW-NW T01890150=
201404041252 METAR KATL 041252Z 22010G23KT 10SM BKN016 BKN028 BKN140 OVC200 19/15 A2993 RMK AO2 SLP127 CIG 013V018 T01890150=
201404041152 METAR KATL 041152Z 22010G16KT 10SM OVC012 18/16 A2992 RMK AO2 SLP126 CIG 010V015 T01780156 10194 20172 51004=
201404041052 METAR KATL 041052Z 23009G18KT 10SM BKN014 OVC026 18/15 A2992 RMK AO2 SLP124 CIG 012V016 T01780150=
201404040952 METAR KATL 040952Z 23007KT 10SM BKN012 OVC024 18/15 A2992 RMK AO2 SLP124 CIG 010V015 T01780150=
201404040852 METAR KATL 040852Z 22008KT 10SM BKN014 OVC200 18/14 A2991 RMK AO2 SLP121 T01780144 58007=
201404040825 SPECI KATL 040825Z 22006KT 10SM BKN014 BKN200 OVC250 17/14 A2993 RMK AO2=
201404040752 METAR KATL 040752Z 22005KT 10SM BKN200 OVC250 17/14 A2993 RMK AO2 SLP127 T01720139=
201404040652 METAR KATL 040652Z 23008KT 10SM BKN200 BKN250 18/13 A2993 RMK AO2 SLP128 T01830133=
201404040552 METAR KATL 040552Z 22011G18KT 10SM SCT200 BKN250 19/13 A2993 RMK AO2 SLP128 T01940128 10250 20194 58013=
201404040452 METAR KATL 040452Z 21014G20KT 10SM BKN250 21/13 A2995 RMK AO2 SLP135 T02060128 402780139=
201404040352 METAR KATL 040352Z 21008KT 10SM BKN250 21/12 A2998 RMK AO2 SLP144 T02060122=
201404040252 METAR KATL 040252Z 21010KT 10SM FEW150 BKN250 22/12 A2997 RMK AO2 SLP144 T02170122 50005=
201404040152 METAR KATL 040152Z 20009KT 10SM FEW150 BKN250 23/11 A2998 RMK AO2 SLP145 T02280111=
201404040052 METAR KATL 040052Z 19008KT 10SM FEW150 BKN250 23/11 A2997 RMK AO2 SLP144 T02330111=
201404032352 METAR KATL 032352Z 20005KT 10SM FEW120 BKN250 25/11 A2996 RMK AO2 SLP139 T02500106 10278 20239 56003=
201404032252 METAR KATL 032252Z 22014G18KT 10SM FEW200 BKN250 27/10 A2996 RMK AO2 SLP140 T02670100=
201404032152 METAR KATL 032152Z 25010KT 10SM FEW120 SCT200 BKN250 28/12 A2996 RMK AO2 SLP139 T02780117=
201404032052 METAR KATL 032052Z 22009KT 10SM FEW110 BKN150 BKN250 27/11 A2997 RMK AO2 SLP141 T02670111 56024=
201404031952 METAR KATL 031952Z 19010G19KT 10SM FEW050 SCT110 SCT250 27/13 A2998 RMK AO2 SLP146 T02670128=
201404031852 METAR KATL 031852Z 24007G18KT 200V280 10SM FEW045 SCT110 BKN250 26/13 A3001 RMK AO2 SLP153 T02610133=
201404031752 METAR KATL 031752Z 24011G14KT 10SM FEW040 BKN200 BKN250 24/15 A3004 RMK AO2 SLP166 T02440150 10250 20150 58014=
201404031711 SPECI KATL 031711Z 22010G17KT 10SM FEW029 SCT039 SCT250 24/15 A3005 RMK AO2=
201404031652 METAR KATL 031652Z 24007KT 10SM BKN027 BKN035 BKN250 23/16 A3006 RMK AO2 SLP174 T02280156=
201404031600 SPECI KATL 031600Z 20009G14KT 10SM BKN023 BKN030 BKN250 21/16 A3008 RMK AO2=
201404031552 METAR KATL 031552Z VRB05KT 10SM FEW020 BKN030 BKN250 21/16 A3008 RMK AO2 SLP180 T02110156=
201404031452 METAR KATL 031452Z COR 23012KT 9SM BKN016 BKN150 BKN250 19/15 A3009 RMK AO2 SLP182 T01940150 57003=
201404031430 SPECI KATL 031430Z 22009KT 9SM BKN012 BKN150 BKN250 18/15 A3009 RMK AO2=
201404031352 METAR KATL 031352Z 24008KT 10SM BKN009 BKN150 BKN250 17/14 A3009 RMK AO2 SLP183 T01720144=
201404031252 METAR KATL 031252Z 20003KT 10SM FEW100 SCT150 BKN200 BKN250 16/13 A3009 RMK AO2 SLP184 ACC DSNT NW T01560133=
201404031152 METAR KATL 031152Z 00000KT 10SM FEW038 SCT150 BKN200 BKN250 15/12 A3009 RMK AO2 SLP184 T01500122 10189 20139 53013=
201404031052 METAR KATL 031052Z 00000KT 10SM FEW150 SCT200 BKN250 14/12 A3007 RMK AO2 SLP178 T01440117=
201404030952 METAR KATL 030952Z 00000KT 10SM FEW150 SCT200 SCT250 16/12 A3006 RMK AO2 SLP172 T01560122=
201404030852 METAR KATL 030852Z 00000KT 10SM FEW150 SCT200 BKN250 16/12 A3005 RMK AO2 SLP171 T01560117 55009=
201404030752 METAR KATL 030752Z 22005KT 10SM FEW150 SCT200 BKN250 17/12 A3005 RMK AO2 SLP169 T01670117=
201404030652 METAR KATL 030652Z 21007KT 10SM FEW150 SCT200 BKN250 18/12 A3006 RMK AO2 SLP172 T01830122=
201404030552 METAR KATL 030552Z 22004KT 10SM SCT160 BKN200 OVC250 19/12 A3008 RMK AO2 SLP178 T01890122 10233 20183 58004=
201404030452 METAR KATL 030452Z 20007KT 10SM BKN200 OVC250 19/12 A3008 RMK AO2 SLP180 T01940122 402670122=
201404030352 METAR KATL 030352Z 22003KT 10SM SCT200 BKN250 19/12 A3010 RMK AO2 SLP185 T01940122=
201404030252 METAR KATL 030252Z 00000KT 10SM FEW200 BKN250 20/12 A3009 RMK AO2 SLP185 T02000117 50003=
201404030152 METAR KATL 030152Z 23003KT 10SM FEW200 BKN250 21/12 A3009 RMK AO2 SLP185 T02110117=
201404030052 METAR KATL 030052Z 23005KT 10SM FEW200 BKN250 22/11 A3009 RMK AO2 SLP184 T02220111=
201404022352 METAR KATL 022352Z 23004KT 10SM FEW200 BKN250 23/11 A3009 RMK AO2 SLP182 T02330106 10267 20233 53003=
201404022252 METAR KATL 022252Z 24007KT 10SM FEW120 BKN250 25/10 A3008 RMK AO2 SLP180 T02500100=
201404022152 METAR KATL 022152Z 23008KT 10SM BKN250 26/09 A3007 RMK AO2 SLP178 T02610094=
201404022052 METAR KATL 022052Z 20008KT 10SM FEW110 BKN250 BKN300 26/09 A3007 RMK AO2 SLP178 T02560089 56019=
201404021952 METAR KATL 021952Z 20009KT 10SM FEW110 SCT250 BKN300 26/07 A3008 RMK AO2 SLP179 T02560067=
201404021852 METAR KATL 021852Z 23008G16KT 200V260 10SM FEW110 BKN250 BKN300 26/05 A3011 RMK AO2 SLP188 T02560050=
201404021752 METAR KATL 021752Z 24012G17KT 10SM FEW110 BKN240 BKN300 25/03 A3013 RMK AO2 SLP197 T02500033 10250 20133 58009=
201404021652 METAR KATL 021652Z VRB04KT 10SM FEW110 SCT250 BKN300 24/02 A3014 RMK AO2 SLP201 ACC DSNT SE T02390022=
201404021552 METAR KATL 021552Z 26005KT 10SM FEW110 SCT250 BKN300 23/02 A3016 RMK AO2 SLP206 ACC DSNT NE-SE T02280022=
201404021452 METAR KATL 021452Z 25003KT 10SM SCT110 SCT250 BKN300 19/04 A3016 RMK AO2 SLP207 ACC ALQDS T01940044 53009=
201404021352 METAR KATL 021352Z 00000KT 10SM FEW110 SCT250 BKN300 17/05 A3014 RMK AO2 SLP203 ACC NE & SW-NW T01720050=
201404021252 METAR KATL 021252Z 00000KT 10SM SCT100 BKN200 BKN250 14/04 A3015 RMK AO2 SLP204 ACC VC NE-SE-SW-W T01440044=
201404021152 METAR KATL 021152Z 00000KT 10SM SCT100 SCT200 BKN250 13/03 A3013 RMK AO2 SLP199 T01330033 10161 20122 53011=
201404021052 METAR KATL 021052Z 00000KT 10SM SCT100 SCT200 SCT250 13/03 A3012 RMK AO2 SLP193 T01280028=
201404020952 METAR KATL 020952Z 22003KT 10SM SCT100 13/02 A3011 RMK AO2 SLP189 T01330022=
201404020852 METAR KATL 020852Z 22004KT 10SM SCT100 14/01 A3010 RMK AO2 SLP186 T01390011 56003=
201404020752 METAR KATL 020752Z 23005KT 10SM FEW100 14/01 A3010 RMK AO2 SLP186 T01440006=
201404020652 METAR KATL 020652Z 22004KT 10SM SCT100 16/M01 A3010 RMK AO2 SLP186 T01611006=
201404020552 METAR KATL 020552Z 00000KT 10SM CLR 16/00 A3011 RMK AO2 SLP188 T01560000 10239 20156 58000=
201404020452 METAR KATL 020452Z 00000KT 10SM CLR 17/M02 A3012 RMK AO2 SLP191 T01721017 402780111=
201404020352 METAR KATL 020352Z 24003KT 10SM CLR 18/M02 A3011 RMK AO2 SLP190 T01781017=
201404020252 METAR KATL 020252Z 23003KT 10SM CLR 19/M02 A3011 RMK AO2 SLP190 T01891017 51012=
201404020152 METAR KATL 020152Z 22004KT 10SM FEW110 20/M02 A3010 RMK AO2 SLP188 T02001017=
201404020052 METAR KATL 020052Z 22005KT 10SM FEW110 21/M02 A3008 RMK AO2 SLP183 T02111017=
201404012352 METAR KATL 012352Z 22005KT 10SM FEW110 24/M03 A3007 RMK AO2 SLP178 T02391033 10278 20239 53001=
201404012252 METAR KATL 012252Z 22011KT 10SM SCT110 26/M04 A3007 RMK AO2 SLP177 T02611039=
201404012152 METAR KATL 012152Z 22006KT 10SM SCT110 27/M02 A3007 RMK AO2 SLP175 T02721017=
201404012052 METAR KATL 012052Z 22005KT 10SM FEW120 27/M01 A3007 RMK AO2 SLP176 T02721011 56021=
201404011952 METAR KATL 011952Z 21011KT 10SM FEW120 27/M03 A3008 RMK AO2 SLP180 T02671033=
201404011852 METAR KATL 011852Z 21006G14KT 10SM FEW120 27/M02 A3011 RMK AO2 SLP189 T02671022=
201404011752 METAR KATL 011752Z 25006KT 10SM FEW120 26/M04 A3013 RMK AO2 SLP197 T02611039 10261 20117 58014=
201404011652 METAR KATL 011652Z 34005KT 10SM FEW120 24/M01 A3015 RMK AO2 SLP205 T02441006=
201404011552 METAR KATL 011552Z 27007KT 10SM FEW120 23/02 A3017 RMK AO2 SLP209 T02330017=
201404011452 METAR KATL 011452Z 29004KT 10SM FEW120 21/04 A3017 RMK AO2 SLP212 T02060039 51018=
201404011352 METAR KATL 011352Z 32006KT 10SM SCT120 SCT250 18/03 A3017 RMK AO2 SLP213 T01780028=
201404011252 METAR KATL 011252Z 30004KT 10SM FEW100 SCT150 SCT250 13/02 A3018 RMK AO2 SLP216 T01330022=
