##########################################################
# Query made at 04/19/2024 23:40:57 UTC
# Time interval: from 11/01/2014 12:00  to 11/30/2014 12:59  UTC
##########################################################

##########################################################
# KATL, Atlanta, Hartsfield - Jackson Atlanta International Airport (United States)
# WMO index: 72219. WIGOS ID: 0-20000-0-72219
# Latitude 33-38-59N. Longitude 084-25-00W. Altitude 312 m.
##########################################################

201411301252 METAR KATL 301252Z 00000KT 10SM FEW011 SCT021 07/02 A3031 RMK AO2 SLP267 T00670022=
201411301225 SPECI KATL 301225Z 00000KT 10SM SCT013 SCT021 06/02 A3030 RMK AO2=
201411301152 METAR KATL 301152Z 00000KT 10SM BKN013 BKN022 07/02 A3029 RMK AO2 SLP260 T00670022 10083 20067 53015=
201411301143 SPECI KATL 301143Z 00000KT 10SM SCT013 BKN022 07/02 A3029 RMK AO2=
201411301052 METAR KATL 301052Z 00000KT 10SM FEW013 SCT021 SCT040 07/02 A3027 RMK AO2 SLP251 T00670017=
201411300952 METAR KATL 300952Z 00000KT 10SM SCT040 07/02 A3025 RMK AO2 SLP244 T00720017=
201411300852 METAR KATL 300852Z 00000KT 10SM FEW040 08/02 A3025 RMK AO2 SLP244 T00780017 51004=
201411300752 METAR KATL 300752Z 20005KT 10SM CLR 07/02 A3024 RMK AO2 SLP243 T00720017=
201411300652 METAR KATL 300652Z 19004KT 10SM FEW045 08/02 A3024 RMK AO2 SLP240 T00830017=
201411300552 METAR KATL 300552Z 18005KT 10SM CLR 08/01 A3023 RMK AO2 SLP239 T00830011 10117 20078 53001=
201411300452 METAR KATL 300452Z 19006KT 10SM CLR 08/01 A3023 RMK AO2 SLP240 T00780006 401610006=
201411300352 METAR KATL 300352Z 18007KT 10SM FEW250 08/00 A3023 RMK AO2 SLP239 T00830000=
201411300252 METAR KATL 300252Z 18007KT 10SM FEW050 SCT250 09/M01 A3023 RMK AO2 SLP240 T00941006 51004=
201411300152 METAR KATL 300152Z 18007KT 10SM FEW050 SCT250 09/M01 A3023 RMK AO2 SLP240 T00941006=
201411300052 METAR KATL 300052Z 18007KT 10SM FEW050 SCT250 11/M01 A3023 RMK AO2 SLP240 T01061006=
201411292352 METAR KATL 292352Z 18005KT 10SM BKN050 BKN250 12/00 A3022 RMK AO2 SLP238 T01170000 10161 20117 53004=
201411292252 METAR KATL 292252Z 20004KT 10SM BKN050 BKN250 13/M01 A3021 RMK AO2 SLP235 T01331011=
201411292152 METAR KATL 292152Z 19006KT 10SM SCT050 BKN250 15/M02 A3021 RMK AO2 SLP233 T01501017=
201411292052 METAR KATL 292052Z 21006KT 10SM SCT050 SCT250 16/M02 A3021 RMK AO2 SLP232 T01561022 56019=
201411291952 METAR KATL 291952Z 22010KT 10SM BKN050 BKN250 16/M03 A3022 RMK AO2 SLP235 T01611028=
201411291852 METAR KATL 291852Z 21007KT 180V250 10SM BKN050 BKN250 16/M03 A3024 RMK AO2 SLP242 T01561028=
201411291752 METAR KATL 291752Z 21006KT 10SM SCT050 BKN250 14/M03 A3026 RMK AO2 SLP251 T01441028 10144 20011 58017=
201411291652 METAR KATL 291652Z 23009KT 10SM BKN050 BKN250 12/M03 A3030 RMK AO2 SLP264 T01221033=
201411291552 METAR KATL 291552Z 23008KT 10SM FEW050 SCT250 10/M04 A3032 RMK AO2 SLP272 T01001039=
201411291452 METAR KATL 291452Z 22008KT 10SM SCT250 07/M04 A3032 RMK AO2 SLP272 T00721039 51014 $=
201411291352 METAR KATL 291352Z 22004KT 10SM SCT250 04/M04 A3031 RMK AO2 SLP269 T00441039=
201411291252 METAR KATL 291252Z 20003KT 10SM FEW250 02/M05 A3029 RMK AO2 SLP263 T00171050=
201411291152 METAR KATL 291152Z 00000KT 10SM CLR 01/M06 A3028 RMK AO2 SLP259 T00111056 10028 20006 53009=
201411291052 METAR KATL 291052Z 20003KT 10SM CLR 02/M06 A3027 RMK AO2 SLP255 T00171061=
201411290952 METAR KATL 290952Z 00000KT 10SM CLR 01/M05 A3025 RMK AO2 SLP249 T00111050=
201411290852 METAR KATL 290852Z 00000KT 10SM CLR 02/M06 A3025 RMK AO2 SLP247 T00221056 58002=
201411290752 METAR KATL 290752Z 00000KT 10SM FEW250 03/M07 A3025 RMK AO2 SLP250 T00281067=
201411290652 METAR KATL 290652Z 00000KT 10SM FEW250 02/M06 A3026 RMK AO2 SLP251 T00221061=
201411290552 METAR KATL 290552Z 00000KT 10SM FEW250 03/M06 A3025 RMK AO2 SLP250 T00281056 10067 20017 58007=
201411290452 METAR KATL 290452Z 18003KT 10SM CLR 03/M07 A3026 RMK AO2 SLP254 T00331067 401061022=
201411290352 METAR KATL 290352Z 00000KT 10SM CLR 04/M07 A3027 RMK AO2 SLP256 T00391067=
201411290252 METAR KATL 290252Z 16003KT 10SM CLR 03/M04 A3027 RMK AO2 SLP260 T00281044 58003=
201411290152 METAR KATL 290152Z 00000KT 10SM CLR 05/M08 A3029 RMK AO2 SLP264 T00501078=
201411290052 METAR KATL 290052Z 19003KT 10SM CLR 04/M07 A3028 RMK AO2 SLP263 T00441072=
201411282352 METAR KATL 282352Z 00000KT 10SM CLR 07/M09 A3028 RMK AO2 SLP263 T00671089 10106 20067 55003=
201411282252 METAR KATL 282252Z 29003KT 10SM CLR 08/M11 A3028 RMK AO2 SLP261 T00831106=
201411282152 METAR KATL 282152Z 28003KT 10SM CLR 09/M11 A3028 RMK AO2 SLP262 T00941111=
201411282052 METAR KATL 282052Z 31004KT 10SM CLR 10/M12 A3029 RMK AO2 SLP264 T01001117 56018=
201411281952 METAR KATL 281952Z 00000KT 10SM CLR 09/M09 A3030 RMK AO2 SLP267 T00941094=
201411281852 METAR KATL 281852Z 35006KT 10SM CLR 09/M09 A3031 RMK AO2 SLP271 T00891089=
201411281752 METAR KATL 281752Z 33008KT 10SM CLR 08/M07 A3035 RMK AO2 SLP283 T00781072 10078 21022 58015=
201411281652 METAR KATL 281652Z VRB03KT 10SM CLR 06/M07 A3037 RMK AO2 SLP292 T00561072=
201411281552 METAR KATL 281552Z 34004KT 10SM CLR 04/M07 A3040 RMK AO2 SLP300 T00441067=
201411281452 METAR KATL 281452Z 31007KT 10SM CLR 02/M06 A3039 RMK AO2 SLP300 T00221056 53006=
201411281352 METAR KATL 281352Z 36008KT 340V050 10SM CLR 01/M06 A3039 RMK AO2 SLP298 T00061056=
201411281252 METAR KATL 281252Z 32007KT 10SM CLR M02/M06 A3037 RMK AO2 SLP295 T10171061=
201411281152 METAR KATL 281152Z 32007KT 10SM CLR M02/M06 A3037 RMK AO2 SLP295 T10171061 10011 21022 53005=
201411281052 METAR KATL 281052Z 32006KT 10SM CLR M02/M06 A3035 RMK AO2 SLP287 T10171061=
201411280952 METAR KATL 280952Z 33005KT 10SM CLR M02/M06 A3036 RMK AO2 SLP289 T10171061=
201411280852 METAR KATL 280852Z 33007KT 10SM CLR M01/M06 A3036 RMK AO2 SLP289 T10111061 55000=
201411280752 METAR KATL 280752Z 33008KT 10SM CLR M01/M06 A3036 RMK AO2 SLP289 T10061056=
201411280652 METAR KATL 280652Z 35010G14KT 10SM CLR 01/M06 A3036 RMK AO2 SLP287 T00061056=
201411280552 METAR KATL 280552Z 34009G19KT 10SM CLR 01/M06 A3036 RMK AO2 SLP287 T00111056 10050 20011 50000=
201411280452 METAR KATL 280452Z 34006KT 10SM CLR 02/M05 A3038 RMK AO2 SLP292 T00171050 400940017=
201411280352 METAR KATL 280352Z 36012KT 10SM FEW036 03/M04 A3037 RMK AO2 SLP290 T00281044=
201411280252 METAR KATL 280252Z 32006KT 10SM BKN034 04/M03 A3036 RMK AO2 SLP286 T00391033 53007=
201411280152 METAR KATL 280152Z 34009KT 10SM FEW032 SCT038 04/M04 A3034 RMK AO2 SLP282 T00391039=
201411280052 METAR KATL 280052Z 32007KT 10SM BKN040 04/M04 A3035 RMK AO2 SLP284 T00441039=
201411272352 METAR KATL 272352Z 31009G18KT 10SM BKN040 05/M03 A3034 RMK AO2 SLP280 T00501028 10078 20050 51015=
201411272252 METAR KATL 272252Z 32009KT 10SM BKN040 06/M03 A3033 RMK AO2 SLP277 T00561033=
201411272152 METAR KATL 272152Z 33013G21KT 10SM BKN040 06/M03 A3032 RMK AO2 SLP271 T00561033=
201411272052 METAR KATL 272052Z 32015KT 10SM OVC042 07/M04 A3029 RMK AO2 SLP264 T00671039 53008=
201411271952 METAR KATL 271952Z 34013G20KT 10SM BKN044 07/M03 A3028 RMK AO2 SLP257 T00721033=
201411271852 METAR KATL 271852Z 32014KT 10SM BKN040 BKN049 07/M03 A3027 RMK AO2 SLP256 T00721028=
201411271752 METAR KATL 271752Z 31012G18KT 10SM BKN037 07/M02 A3027 RMK AO2 SLP253 T00721017 10078 20044 50008=
201411271652 METAR KATL 271652Z 32015KT 10SM BKN043 BKN050 07/M02 A3028 RMK AO2 SLP257 T00721017=
201411271552 METAR KATL 271552Z 31015G22KT 10SM BKN036 BKN045 07/M02 A3028 RMK AO2 SLP256 T00671017=
201411271452 METAR KATL 271452Z 29015G22KT 10SM SCT034 BKN045 07/M01 A3025 RMK AO2 SLP245 T00671011 52021=
201411271352 METAR KATL 271352Z 29011G18KT 10SM FEW028 BKN042 06/M01 A3023 RMK AO2 SLP240 T00561011=
201411271252 METAR KATL 271252Z 27008KT 10SM SCT033 BKN060 04/M01 A3020 RMK AO2 SLP231 T00441011=
201411271152 METAR KATL 271152Z 27010KT 10SM SCT033 04/M02 A3018 RMK AO2 SLP225 T00441017 10094 20044 53020=
201411271052 METAR KATL 271052Z 26008KT 10SM FEW036 05/M02 A3015 RMK AO2 SLP215 T00501017=
201411270952 METAR KATL 270952Z 28009KT 10SM FEW038 06/M02 A3013 RMK AO2 SLP206 T00561022=
201411270852 METAR KATL 270852Z 29011G20KT 10SM FEW065 07/M04 A3012 RMK AO2 SLP202 T00671044 53018=
201411270752 METAR KATL 270752Z 27011KT 10SM SCT065 08/M06 A3010 RMK AO2 SLP194 T00781056=
201411270652 METAR KATL 270652Z 28014G20KT 10SM FEW085 08/M04 A3009 RMK AO2 SLP189 T00831039=
201411270552 METAR KATL 270552Z 27011G18KT 10SM FEW055 SCT085 09/M02 A3007 RMK AO2 SLP183 T00941017 10094 20072 53005=
201411270452 METAR KATL 270452Z 27005KT 10SM BKN065 BKN080 09/M02 A3006 RMK AO2 SLP180 T00941022 401390056=
201411270352 METAR KATL 270352Z 21003KT 10SM BKN070 OVC085 09/M03 A3006 RMK AO2 SLP180 VIRGA NW-NE T00941028=
201411270252 METAR KATL 270252Z 22007KT 10SM BKN075 BKN090 09/M03 A3005 RMK AO2 SLP180 VIRGA N-NE T00941028 56009=
201411270152 METAR KATL 270152Z 20006KT 10SM SCT090 BKN110 08/M03 A3007 RMK AO2 SLP186 VIRGA N-NE T00831033=
201411270052 METAR KATL 270052Z 00000KT 10SM FEW120 08/M04 A3007 RMK AO2 SLP185 T00831039=
201411262352 METAR KATL 262352Z 23003KT 10SM FEW110 SCT150 09/M04 A3008 RMK AO2 SLP191 T00891044 10139 20089 53006=
201411262252 METAR KATL 262252Z 27004KT 10SM FEW120 10/M06 A3007 RMK AO2 SLP186 T01001056=
201411262152 METAR KATL 262152Z 28010KT 10SM FEW150 12/M06 A3007 RMK AO2 SLP184 T01221061=
201411262052 METAR KATL 262052Z 30011KT 10SM FEW150 13/M08 A3006 RMK AO2 SLP181 T01281078 56006=
201411261952 METAR KATL 261952Z 29013G18KT 10SM FEW200 13/M07 A3007 RMK AO2 SLP184 T01331067=
201411261852 METAR KATL 261852Z 30012G18KT 10SM FEW200 13/M07 A3007 RMK AO2 SLP184 T01331072=
201411261752 METAR KATL 261752Z 31013KT 10SM FEW200 12/M08 A3008 RMK AO2 SLP188 T01221078 10128 20056 58001=
201411261652 METAR KATL 261652Z 31013KT 10SM FEW250 12/M06 A3011 RMK AO2 SLP196 T01171061=
201411261552 METAR KATL 261552Z 31013KT 10SM CLR 11/M03 A3010 RMK AO2 SLP194 T01061028=
201411261452 METAR KATL 261452Z 32009KT 10SM CLR 08/M01 A3009 RMK AO2 SLP190 T00831006 53023=
201411261352 METAR KATL 261352Z 31014KT 10SM FEW100 07/00 A3006 RMK AO2 SLP181 T00670000=
201411261252 METAR KATL 261252Z 30010KT 10SM FEW100 06/00 A3004 RMK AO2 SLP173 T00610000=
201411261152 METAR KATL 261152Z 30010KT 10SM FEW100 SCT250 07/00 A3002 RMK AO2 SLP166 60000 T00670000 10100 20067 51016=
201411261052 METAR KATL 261052Z 32006KT 10SM FEW100 BKN180 BKN250 08/00 A3000 RMK AO2 SLP160 T00780000=
201411260952 METAR KATL 260952Z 31009G19KT 10SM FEW100 BKN150 OVC250 08/00 A2999 RMK AO2 PRESRR SLP157 T00830000=
201411260852 METAR KATL 260852Z 31011KT 10SM FEW075 BKN100 OVC200 08/01 A2997 RMK AO2 RAB33E46 SLP147 P0000 60000 T00830006 56010=
201411260752 METAR KATL 260752Z 29006KT 10SM FEW060 SCT080 BKN100 OVC130 09/02 A2997 RMK AO2 RAE0656 SLP148 P0000 T00890017=
201411260652 METAR KATL 260652Z 34003KT 10SM -RA FEW055 OVC075 09/02 A2997 RMK AO2 RAE00B25 PRESFR SLP150 P0000 T00890017=
201411260552 METAR KATL 260552Z 32006KT 10SM -RA BKN060 OVC080 10/01 A3000 RMK AO2 RAB25 SLP158 P0000 60000 T01000011 10128 20100 58016=
201411260452 METAR KATL 260452Z 29008KT 10SM BKN085 OVC110 11/01 A3003 RMK AO2 SLP168 VIRGA OHD-ALQDS T01060011 401670089=
201411260352 METAR KATL 260352Z 21003KT 10SM BKN085 OVC110 11/01 A3005 RMK AO2 SLP177 VIRGA OHD-ALQDS T01110006=
201411260252 METAR KATL 260252Z 26003KT 10SM SCT095 BKN110 OVC150 12/00 A3005 RMK AO2 SLP176 VIRGA OHD-ALQDS T01170000 55005=
201411260152 METAR KATL 260152Z 32006KT 10SM SCT120 BKN150 OVC200 12/M01 A3004 RMK AO2 SLP172 VIRGA NE-OHD-SW T01221006=
201411260052 METAR KATL 260052Z 31009KT 10SM BKN120 OVC200 12/M01 A3004 RMK AO2 SLP174 VIRGA NE-SE-SW T01221006=
201411252352 METAR KATL 252352Z 28004KT 10SM BKN130 OVC200 12/M01 A3006 RMK AO2 SLP181 T01221011 10167 20122 53023=
201411252252 METAR KATL 252252Z 31006KT 10SM BKN140 BKN200 BKN250 13/M02 A3002 RMK AO2 SLP165 T01331017=
201411252152 METAR KATL 252152Z 33008KT 10SM FEW120 BKN140 BKN180 BKN250 15/M03 A3000 RMK AO2 SLP160 T01501028=
201411252052 METAR KATL 252052Z 34009KT 10SM FEW150 SCT180 SCT250 16/M04 A2999 RMK AO2 SLP155 T01561039 56018=
201411251952 METAR KATL 251952Z 36006KT 10SM FEW130 BKN150 BKN250 16/M03 A3000 RMK AO2 SLP157 T01561033=
201411251852 METAR KATL 251852Z 30005KT 10SM FEW100 SCT130 BKN150 BKN250 14/M02 A3003 RMK AO2 SLP166 T01441022=
201411251752 METAR KATL 251752Z 33006KT 10SM FEW100 BKN130 BKN250 14/M02 A3005 RMK AO2 SLP173 T01391017 10139 20089 58014=
201411251652 METAR KATL 251652Z 32007KT 10SM FEW100 BKN130 BKN250 13/M02 A3010 RMK AO2 SLP191 T01331017=
201411251552 METAR KATL 251552Z 34007KT 10SM FEW100 SCT140 BKN250 12/M01 A3009 RMK AO2 SLP189 T01221006=
201411251452 METAR KATL 251452Z 33007KT 10SM FEW100 SCT140 BKN250 11/M01 A3009 RMK AO2 SLP189 T01061006 50006=
201411251352 METAR KATL 251352Z 33010KT 10SM FEW100 BKN140 BKN250 09/M01 A3009 RMK AO2 SLP190 T00941006=
201411251252 METAR KATL 251252Z 33009KT 10SM FEW050 BKN140 OVC250 09/M01 A3009 RMK AO2 SLP187 T00891006=
201411251152 METAR KATL 251152Z 32006KT 10SM FEW100 BKN140 BKN250 09/00 A3007 RMK AO2 SLP181 T00890000 10122 20089 53015=
201411251052 METAR KATL 251052Z 33008KT 10SM FEW110 BKN250 09/01 A3005 RMK AO2 SLP173 T00940006=
201411250952 METAR KATL 250952Z 34009KT 10SM FEW110 BKN250 10/02 A3003 RMK AO2 SLP165 T01000022=
201411250852 METAR KATL 250852Z 33012KT 10SM FEW110 BKN250 11/03 A3002 RMK AO2 SLP163 T01060033 50007=
201411250752 METAR KATL 250752Z 32009KT 10SM SCT250 11/04 A3003 RMK AO2 SLP165 T01060039=
201411250652 METAR KATL 250652Z 32010G18KT 10SM FEW100 BKN250 12/04 A3001 RMK AO2 SLP158 T01170039=
201411250552 METAR KATL 250552Z 32008KT 10SM FEW050 BKN250 12/04 A3000 RMK AO2 SLP156 T01220044 10178 20122 53013=
201411250452 METAR KATL 250452Z 32014G18KT 10SM FEW050 BKN250 13/06 A2998 RMK AO2 SLP148 T01280056 402440128=
201411250352 METAR KATL 250352Z 32010KT 10SM FEW050 BKN250 14/07 A2996 RMK AO2 SLP143 T01390072=
201411250252 METAR KATL 250252Z 31009KT 10SM BKN250 14/07 A2996 RMK AO2 SLP143 T01440072 51028=
201411250152 METAR KATL 250152Z 29006G15KT 10SM BKN250 16/08 A2995 RMK AO2 SLP139 T01610083=
201411250052 METAR KATL 250052Z 27005KT 10SM FEW250 18/08 A2992 RMK AO2 SLP127 T01780083=
201411242352 METAR KATL 242352Z 00000KT 10SM FEW250 18/10 A2988 RMK AO2 SLP114 T01780100 10244 20178 53023=
201411242252 METAR KATL 242252Z 27006KT 10SM FEW250 19/09 A2985 RMK AO2 SLP103 T01940094=
201411242152 METAR KATL 242152Z 25006KT 10SM FEW050 SCT250 23/10 A2983 RMK AO2 SLP094 T02280100=
201411242052 METAR KATL 242052Z 27010KT 10SM FEW055 SCT250 24/11 A2981 RMK AO2 SLP087 CB DSNT E-SE T02390106 53001=
201411241952 METAR KATL 241952Z 25011G19KT 10SM FEW055 SCT200 BKN250 24/10 A2980 RMK AO2 SLP084 CB DSNT E-SE T02390100=
201411241852 METAR KATL 241852Z 26009KT 10SM FEW045 SCT150 BKN250 24/12 A2979 RMK AO2 SLP081 T02390122=
201411241752 METAR KATL 241752Z 23014G18KT 10SM FEW040 SCT150 SCT250 23/12 A2980 RMK AO2 SLP086 T02280122 10233 20161 58004=
201411241652 METAR KATL 241652Z 23010G17KT 10SM SCT027 SCT250 22/14 A2982 RMK AO2 SLP092 T02170139=
201411241618 SPECI KATL 241618Z 24013G20KT 10SM SCT022 SCT250 20/14 A2982 RMK AO2=
201411241611 SPECI KATL 241611Z 25012G18KT 10SM BKN022 21/14 A2982 RMK AO2=
201411241552 METAR KATL 241552Z 23009G16KT 10SM FEW020 SCT250 19/14 A2982 RMK AO2 SLP092 T01940144=
201411241517 SPECI KATL 241517Z 23013G19KT 10SM SCT017 SCT250 19/15 A2982 RMK AO2=
201411241452 METAR KATL 241452Z 22008KT 10SM BKN015 BKN250 19/15 A2982 RMK AO2 SLP092 T01890150 53015=
201411241425 SPECI KATL 241425Z 22008KT 10SM SCT012 18/15 A2981 RMK AO2=
201411241352 METAR KATL 241352Z 21008KT 10SM BKN010 18/15 A2980 RMK AO2 SLP085 T01780150=
201411241350 SPECI KATL 241350Z 22009KT 10SM BKN010 18/15 A2980 RMK AO2=
201411241259 SPECI KATL 241259Z 21007KT 10SM FEW008 17/15 A2979 RMK AO2=
201411241252 METAR KATL 241252Z 22008KT 10SM FEW018 17/14 A2979 RMK AO2 SLP083 T01670144=
201411241211 SPECI KATL 241211Z 21008KT 10SM SCT018 16/14 A2978 RMK AO2=
201411241152 METAR KATL 241152Z 21006KT 10SM BKN018 BKN024 17/14 A2977 RMK AO2 SLP078 70166 T01670144 10167 20161 53006=
201411241142 SPECI KATL 241142Z 21008KT 10SM BKN020 17/14 A2977 RMK AO2=
201411241052 METAR KATL 241052Z 21007KT 10SM FEW016 17/14 A2976 RMK AO2 SLP074 T01670144 $=
201411241025 SPECI KATL 241025Z 20010KT 10SM SCT016 SCT035 17/14 A2976 RMK AO2 $=
201411240952 METAR KATL 240952Z 22010KT 10SM BKN018 BKN024 17/14 A2975 RMK AO2 SLP073 T01670144 $=
201411240852 METAR KATL 240852Z 21008KT 10SM OVC018 17/14 A2975 RMK AO2 SLP072 T01670139 58003 $=
201411240752 METAR KATL 240752Z 21007KT 10SM FEW009 BKN018 OVC025 16/14 A2977 RMK AO2 SLP077 T01610139 $=
201411240652 METAR KATL 240652Z 20008KT 10SM FEW009 BKN017 OVC024 16/14 A2975 RMK AO2 SLP073 T01610139 $=
201411240647 SPECI KATL 240647Z 20010KT 10SM FEW009 BKN017 OVC024 16/14 A2975 RMK AO2 $=
201411240552 METAR KATL 240552Z 21010KT 10SM OVC021 16/13 A2976 RMK AO2 SLP076 CIG 018V024 T01610133 10167 20156 53005 $=
201411240452 METAR KATL 240452Z 21007KT 10SM OVC018 16/13 A2976 RMK AO2 SLP075 CIG 015V021 BINOVC T01610133 401670078 $=
201411240352 METAR KATL 240352Z 20011KT 10SM OVC020 16/13 A2974 RMK AO2 SLP070 CIG 018V023 BINOVC T01560133 $=
201411240252 METAR KATL 240252Z 22008KT 10SM SCT018 BKN025 BKN140 BKN200 16/13 A2975 RMK AO2 SLP071 T01560133 53015 $=
201411240152 METAR KATL 240152Z 20012G18KT 10SM SCT015 BKN025 BKN200 16/14 A2972 RMK AO2 SLP063 T01610139 $=
201411240052 METAR KATL 240052Z 19009KT 10SM SCT017 BKN027 BKN120 BKN200 17/14 A2970 RMK AO2 SLP057 T01670144 $=
201411232352 METAR KATL 232352Z 18011G16KT 10SM FEW011 BKN016 OVC032 16/15 A2970 RMK AO2 SLP056 60077 T01610150 10161 20111 55007 $=
201411232337 SPECI KATL 232337Z 17008KT 10SM BKN022 BKN034 BKN110 BKN200 15/14 A2970 RMK AO2 $=
201411232252 METAR KATL 232252Z 14009KT 10SM FEW022 SCT080 BKN120 BKN200 14/13 A2969 RMK AO2 PK WND 15026/2200 RAE43 SLP055 CBMAM DSNT NW-NE-SE P0015 T01440133 $=
201411232227 SPECI KATL 232227Z 13009KT 4SM RA BR SCT038 BKN075 OVC100 14/13 A2969 RMK AO2 PK WND 15026/2200 P0013 $=
201411232218 SPECI KATL 232218Z 13009KT 1 1/2SM RA BR SCT008 BKN036 OVC075 15/13 A2970 RMK AO2 PK WND 15026/2200 SFC VIS 3 PRESFR P0010 $=
201411232206 SPECI KATL 232206Z 15011G26KT 1 1/2SM RA BR BKN008 BKN022 OVC075 14/13 A2971 RMK AO2 PK WND 15026/2200 SFC VIS 4 P0006 $=
201411232152 METAR KATL 232152Z 14012G24KT 1 1/2SM R09R/5000VP6000FT +RA BR BKN004 BKN012 OVC022 13/12 A2971 RMK AO2 SLP059 VIS 1V3 P0032 T01330122 $=
201411232052 METAR KATL 232052Z 09011KT 1 1/2SM RA BR OVC004 12/11 A2972 RMK AO2 SFC VIS 2 1/2 SLP065 TWRINC P0006 60030 T01220111 56042 $=
201411231952 METAR KATL 231952Z 09013KT 1 1/2SM -RA BR OVC004 12/11 A2976 RMK AO2 SFC VIS 2 1/2 SLP078 TWRINC P0009 T01170106 $=
201411231934 SPECI KATL 231934Z 10010KT 1 1/2SM -RA BR OVC004 12/11 A2977 RMK AO2 SFC VIS 2 1/2 TWRINC P0008 $=
201411231852 METAR KATL 231852Z 08012KT 1 1/2SM RA BR OVC006 12/10 A2980 RMK AO2 SFC VIS 3 SLP091 P0015 T01170100 $=
201411231839 SPECI KATL 231839Z 08015KT 1 1/2SM R09R/6000VP6000FT +RA BR BKN006 OVC017 12/11 A2982 RMK AO2 SFC VIS 4 P0009 $=
201411231812 SPECI KATL 231812Z 09014KT 1 1/2SM -RA BR BKN004 OVC035 12/11 A2983 RMK AO2 SFC VIS 4 P0004 $=
201411231752 METAR KATL 231752Z 08016KT 3/4SM +RA BR SCT004 BKN012 OVC035 11/10 A2985 RMK AO2 PK WND 04034/1654 SFC VIS 1 1/2 RAB01 PRESFR SLP108 P0055 60089 T01110100 10111 20094 58049 $=
201411231737 SPECI KATL 231737Z 09016KT 3/4SM R09R/5000VP6000FT +RA BR SCT004 OVC020 11/11 A2989 RMK AO2 PK WND 04034/1654 SFC VIS 1 RAB01 P0036 $=
201411231652 METAR KATL 231652Z 09016KT 3/4SM BR OVC004 11/10 A2992 RMK AO2 SFC VIS 4 RAE44 SLP133 TWRINC P0000 T01110100 $=
201411231639 SPECI KATL 231639Z 09012G22KT 3/4SM -RA BR OVC004 11/10 A2993 RMK AO2 SFC VIS 4 TWRINC P0000 $=
201411231552 METAR KATL 231552Z 09014KT 1 1/4SM -RA BR OVC004 11/10 A2998 RMK AO2 SFC VIS 3 SLP150 TWRINC P0005 T01110100 $=
201411231452 METAR KATL 231452Z 10010KT 1 1/4SM -RA BR OVC004 11/09 A3000 RMK AO2 SFC VIS 3 SLP159 TWRINC P0011 60029 T01060094 58006 $=
201411231414 SPECI KATL 231414Z 10011KT 1 1/4SM -RA BR OVC004 10/09 A3001 RMK AO2 SFC VIS 3 TWRINC P0002 $=
201411231352 METAR KATL 231352Z 08016KT 1/4SM RA BR BKN004 OVC008 10/09 A3001 RMK AO2 SFC VIS 3 SLP161 CIG 003V005 TWRINC P0011 T01000089 $=
201411231252 METAR KATL 231252Z 08010KT 1/4SM RA BR OVC004 09/08 A3003 RMK AO2 SFC VIS 2 1/2 SLP168 CIG 003V005 TWRINC P0007 T00940083 $=
201411231152 METAR KATL 231152Z 09012G19KT 1/4SM -RA BR OVC003 09/08 A3002 RMK AO2 SFC VIS 4 SLP165 TWRINC P0012 60052 70052 T00940083 10117 20078 58029 $=
201411231109 SPECI KATL 231109Z 10010KT 1/4SM -RA BR OVC003 09/08 A3004 RMK AO2 SFC VIS 4 TWRINC P0001 $=
201411231052 METAR KATL 231052Z 09016KT 4SM -RA BR OVC004 08/08 A3005 RMK AO2 SLP175 CIG 003V005 P0004 T00830078 $=
201411231021 SPECI KATL 231021Z 09012KT 6SM -RA BR OVC004 08/07 A3006 RMK AO2 CIG 003V005 P0002 $=
201411230952 METAR KATL 230952Z 08013KT 7SM -RA OVC005 08/07 A3008 RMK AO2 SLP186 P0009 T00780067 $=
201411230852 METAR KATL 230852Z 08011KT 5SM RA BR BKN009 OVC043 08/06 A3011 RMK AO2 SLP195 P0020 60027 T00780061 58025 $=
201411230809 SPECI KATL 230809Z 10012KT 5SM RA BR OVC009 08/06 A3013 RMK AO2 P0004 $=
201411230752 METAR KATL 230752Z 09010KT 7SM RA OVC012 08/06 A3014 RMK AO2 SLP205 P0007 T00830056 $=
201411230737 SPECI KATL 230737Z 10012KT 8SM -RA OVC014 09/05 A3014 RMK AO2 P0004 $=
201411230652 METAR KATL 230652Z 09010KT 10SM -RA OVC017 11/02 A3015 RMK AO2 RAB27 SLP209 P0000 T01110022 $=
201411230552 METAR KATL 230552Z 10011KT 10SM BKN017 OVC050 12/M01 A3018 RMK AO2 SLP219 T01171006 10139 20117 58018 $=
201411230452 METAR KATL 230452Z 09009KT 10SM BKN017 OVC050 12/M01 A3020 RMK AO2 SLP228 T01221011 401670033 $=
201411230352 METAR KATL 230352Z 10009KT 10SM OVC018 13/M02 A3023 RMK AO2 SLP239 T01281017 $=
201411230252 METAR KATL 230252Z 10009KT 10SM BKN024 OVC110 13/M02 A3024 RMK AO2 SLP240 T01281022 58008 $=
201411230228 SPECI KATL 230228Z 10008KT 10SM BKN027 OVC110 13/M02 A3025 RMK AO2 $=
201411230152 METAR KATL 230152Z 10008KT 10SM BKN035 BKN110 OVC250 13/M02 A3025 RMK AO2 SLP245 T01281022 $=
201411230052 METAR KATL 230052Z 10011KT 10SM BKN032 BKN060 OVC250 13/M02 A3026 RMK AO2 SLP249 T01331017 $=
201411222352 METAR KATL 222352Z 10007G16KT 10SM SCT032 BKN045 BKN070 OVC250 13/M01 A3026 RMK AO2 SLP250 T01331011 10167 20133 58002 $=
201411222252 METAR KATL 222252Z 10009KT 10SM SCT035 BKN070 OVC250 14/M01 A3026 RMK AO2 SLP252 T01391011 $=
201411222152 METAR KATL 222152Z 10007KT 10SM SCT060 BKN250 15/M01 A3027 RMK AO2 SLP253 T01501011=
201411222052 METAR KATL 222052Z 11008KT 10SM FEW150 BKN250 16/M01 A3027 RMK AO2 SLP252 T01561006 56030=
201411221952 METAR KATL 221952Z 11006KT 10SM BKN250 16/M02 A3029 RMK AO2 SLP259 T01611017=
201411221852 METAR KATL 221852Z 12006KT 10SM SCT250 16/M04 A3032 RMK AO2 SLP269 T01561039=
201411221752 METAR KATL 221752Z 12008KT 10SM FEW250 14/M04 A3036 RMK AO2 SLP282 T01441044 10144 20033 58031=
201411221652 METAR KATL 221652Z 12011KT 10SM FEW250 12/M06 A3041 RMK AO2 PRESFR SLP298 T01221061=
201411221552 METAR KATL 221552Z 09008KT 10SM FEW250 10/M04 A3045 RMK AO2 PK WND 16029/1501 SLP314 T01001039=
201411221452 METAR KATL 221452Z 11008KT 10SM FEW250 08/M03 A3046 RMK AO2 SLP316 T00781033 50004=
201411221352 METAR KATL 221352Z 09010KT 10SM FEW250 06/M03 A3047 RMK AO2 SLP319 T00561028=
201411221252 METAR KATL 221252Z 08009KT 10SM FEW250 04/M02 A3046 RMK AO2 SLP318 T00391022=
201411221152 METAR KATL 221152Z 08010KT 10SM CLR 04/M02 A3044 RMK AO2 SLP313 T00391017 10072 20039 53005=
201411221052 METAR KATL 221052Z 08010KT 10SM CLR 04/M01 A3044 RMK AO2 SLP309 T00391011=
201411220952 METAR KATL 220952Z 08008KT 10SM CLR 04/00 A3043 RMK AO2 SLP305 T00440000=
201411220852 METAR KATL 220852Z 07007KT 10SM CLR 04/M01 A3043 RMK AO2 SLP306 T00441006 53007=
201411220752 METAR KATL 220752Z 09007KT 10SM CLR 06/M01 A3042 RMK AO2 SLP303 T00561011=
201411220652 METAR KATL 220652Z 08007KT 10SM CLR 07/M01 A3040 RMK AO2 SLP296 T00671011=
201411220552 METAR KATL 220552Z 10005KT 10SM CLR 07/M01 A3041 RMK AO2 SLP298 T00721006 10139 20067 50001=
201411220452 METAR KATL 220452Z 08006KT 10SM CLR 08/M01 A3041 RMK AO2 SLP299 T00831006 401830028=
201411220352 METAR KATL 220352Z 05006KT 10SM CLR 11/00 A3041 RMK AO2 SLP298 T01060000=
201411220252 METAR KATL 220252Z 00000KT 10SM CLR 11/00 A3040 RMK AO2 SLP297 T01110000 52012=
201411220152 METAR KATL 220152Z 36006KT 10SM CLR 13/00 A3040 RMK AO2 SLP294 T01330000=
201411220052 METAR KATL 220052Z 36005KT 10SM CLR 13/01 A3038 RMK AO2 SLP290 T01330006=
201411212352 METAR KATL 212352Z 36006KT 10SM CLR 14/01 A3037 RMK AO2 SLP287 T01390011 10183 20139 53008=
201411212252 METAR KATL 212252Z 35004KT 10SM CLR 15/01 A3036 RMK AO2 SLP282 T01500006=
201411212152 METAR KATL 212152Z 35007KT 10SM CLR 17/01 A3035 RMK AO2 SLP278 T01670006=
201411212052 METAR KATL 212052Z VRB05KT 10SM CLR 17/02 A3034 RMK AO2 SLP277 T01720017 56011=
201411211952 METAR KATL 211952Z 30009KT 10SM CLR 17/02 A3035 RMK AO2 SLP278 T01720017=
201411211852 METAR KATL 211852Z VRB05KT 10SM CLR 17/01 A3036 RMK AO2 SLP280 T01720011=
201411211752 METAR KATL 211752Z 00000KT 10SM CLR 16/M01 A3038 RMK AO2 SLP288 T01611006 10167 20028 58006=
201411211652 METAR KATL 211652Z VRB05KT 10SM FEW070 15/M02 A3040 RMK AO2 SLP296 ACSL DSNT S-SW T01501022=
201411211552 METAR KATL 211552Z VRB04KT 10SM CLR 13/M02 A3041 RMK AO2 SLP299 T01331022=
201411211452 METAR KATL 211452Z VRB04KT 10SM CLR 11/M02 A3040 RMK AO2 SLP294 T01111022 51023=
201411211352 METAR KATL 211352Z 33005KT 10SM FEW200 07/M02 A3038 RMK AO2 SLP292 T00721017=
201411211252 METAR KATL 211252Z 34006KT 10SM FEW200 04/M01 A3036 RMK AO2 SLP285 T00441011=
201411211152 METAR KATL 211152Z COR 32005KT 10SM FEW200 03/M01 A3033 RMK AO2 SLP274 T00281006 10072 20028 53012=
201411211052 METAR KATL 211052Z 30004KT 10SM FEW200 04/M01 A3030 RMK AO2 SLP265 T00391006=
201411210952 METAR KATL 210952Z 33005KT 10SM FEW200 SCT250 05/M01 A3029 RMK AO2 SLP257 T00501006=
201411210852 METAR KATL 210852Z 33004KT 10SM FEW200 SCT250 04/01 A3029 RMK AO2 SLP258 T00440006 51011=
201411210752 METAR KATL 210752Z 32005KT 10SM SCT250 05/01 A3028 RMK AO2 SLP255 T00500006=
201411210652 METAR KATL 210652Z 30005KT 10SM BKN250 07/01 A3027 RMK AO2 SLP251 T00670006=
201411210552 METAR KATL 210552Z 30003KT 10SM BKN250 06/01 A3026 RMK AO2 SLP246 T00610011 10117 20061 50006=
201411210452 METAR KATL 210452Z 32004KT 10SM BKN250 08/01 A3026 RMK AO2 SLP250 T00780011 401720006=
201411210352 METAR KATL 210352Z 31004KT 10SM BKN250 08/01 A3025 RMK AO2 SLP246 T00830011=
201411210252 METAR KATL 210252Z 30006KT 10SM BKN250 09/02 A3024 RMK AO2 SLP242 T00940017 51013=
201411210152 METAR KATL 210152Z 32006KT 10SM BKN250 09/02 A3023 RMK AO2 SLP241 T00940017=
201411210052 METAR KATL 210052Z 24005KT 10SM FEW250 11/01 A3022 RMK AO2 SLP237 T01060011=
201411202352 METAR KATL 202352Z 25005KT 10SM FEW250 12/00 A3020 RMK AO2 SLP231 T01170000 10172 20111 53014=
201411202252 METAR KATL 202252Z 25003KT 10SM FEW250 13/M02 A3018 RMK AO2 SLP223 T01281022=
201411202152 METAR KATL 202152Z 30007KT 10SM FEW250 16/M02 A3017 RMK AO2 SLP218 T01561022=
201411202052 METAR KATL 202052Z 27007KT 10SM SCT250 17/M01 A3016 RMK AO2 SLP214 T01671006 56014=
201411201952 METAR KATL 201952Z 28008G15KT 10SM BKN250 17/01 A3016 RMK AO2 SLP217 T01670011=
201411201852 METAR KATL 201852Z VRB06KT 10SM BKN250 16/02 A3017 RMK AO2 SLP219 T01560017=
201411201752 METAR KATL 201752Z 27008G15KT 10SM SCT250 14/03 A3020 RMK AO2 SLP229 T01440028 10144 20006 58018=
201411201652 METAR KATL 201652Z 26010KT 10SM FEW250 12/02 A3024 RMK AO2 SLP243 T01220022=
201411201552 METAR KATL 201552Z 29011KT 10SM FEW250 11/01 A3025 RMK AO2 SLP248 T01060011=
201411201452 METAR KATL 201452Z 27010G18KT 10SM FEW250 09/00 A3025 RMK AO2 SLP250 T00890000 51011=
201411201352 METAR KATL 201352Z 25009KT 10SM FEW250 06/M03 A3025 RMK AO2 SLP248 T00611028=
201411201252 METAR KATL 201252Z 24004KT 10SM FEW200 02/M05 A3023 RMK AO2 SLP244 T00171050=
201411201152 METAR KATL 201152Z 25004KT 10SM FEW050 02/M06 A3022 RMK AO2 SLP240 T00171056 10017 20006 55000=
201411201052 METAR KATL 201052Z 23005KT 10SM CLR 01/M06 A3021 RMK AO2 SLP237 T00111061=
201411200952 METAR KATL 200952Z 23003KT 10SM CLR 01/M07 A3020 RMK AO2 SLP234 T00061067=
201411200852 METAR KATL 200852Z 23007KT 10SM CLR 02/M07 A3022 RMK AO2 SLP239 T00171072 58015=
201411200752 METAR KATL 200752Z 22006KT 10SM CLR 01/M07 A3024 RMK AO2 SLP247 T00061072=
201411200652 METAR KATL 200652Z 22003KT 10SM CLR 01/M08 A3026 RMK AO2 SLP251 T00061078=
201411200552 METAR KATL 200552Z 24004KT 10SM CLR 02/M08 A3027 RMK AO2 SLP255 T00171078 10050 20011 57003=
201411200452 METAR KATL 200452Z 23005KT 10SM CLR 02/M08 A3027 RMK AO2 SLP259 T00221078 401001061=
201411200352 METAR KATL 200352Z 22004KT 10SM FEW250 02/M08 A3027 RMK AO2 SLP257 T00221083=
201411200252 METAR KATL 200252Z 22004KT 10SM FEW250 03/M08 A3027 RMK AO2 SLP261 T00281083 51008=
201411200152 METAR KATL 200152Z 22007KT 10SM FEW250 04/M08 A3027 RMK AO2 SLP259 T00391083=
201411200052 METAR KATL 200052Z 22005KT 10SM FEW250 04/M08 A3026 RMK AO2 SLP256 T00391083=
201411192352 METAR KATL 192352Z 21005KT 10SM FEW250 05/M09 A3025 RMK AO2 SLP253 T00501089 10100 20050 55004=
201411192252 METAR KATL 192252Z 21005KT 10SM FEW250 07/M09 A3024 RMK AO2 SLP251 T00671094=
201411192152 METAR KATL 192152Z 22007KT 10SM FEW250 09/M10 A3025 RMK AO2 SLP254 T00891100=
201411192052 METAR KATL 192052Z 18009KT 10SM FEW250 09/M10 A3026 RMK AO2 SLP256 T00941100 56025=
201411191952 METAR KATL 191952Z 23008KT 10SM SCT250 09/M09 A3028 RMK AO2 SLP262 T00891094=
201411191852 METAR KATL 191852Z 24010G15KT 10SM FEW250 09/M10 A3030 RMK AO2 SLP269 T00891100=
201411191752 METAR KATL 191752Z VRB06KT 10SM FEW250 07/M09 A3034 RMK AO2 SLP282 T00721094 10072 21056 58020=
201411191652 METAR KATL 191652Z 23004KT 10SM FEW250 05/M09 A3037 RMK AO2 SLP294 T00501094=
201411191552 METAR KATL 191552Z 32005KT 10SM FEW250 03/M09 A3040 RMK AO2 SLP305 T00331094=
201411191452 METAR KATL 191452Z 32003KT 10SM CLR 01/M10 A3040 RMK AO2 SLP305 T00061100 51011=
201411191352 METAR KATL 191352Z 00000KT 10SM CLR M01/M11 A3039 RMK AO2 SLP303 T10111111=
201411191252 METAR KATL 191252Z 00000KT 10SM CLR M04/M11 A3037 RMK AO2 SLP298 T10441106=
201411191152 METAR KATL 191152Z 31004KT 10SM CLR M06/M11 A3036 RMK AO2 SLP295 T10561111 11050 21061 55001=
201411191052 METAR KATL 191052Z 32006KT 10SM CLR M06/M11 A3035 RMK AO2 SLP290 T10611106=
201411190952 METAR KATL 190952Z 31005KT 10SM CLR M06/M11 A3035 RMK AO2 SLP290 T10611106=
201411190852 METAR KATL 190852Z 32005KT 10SM CLR M06/M11 A3037 RMK AO2 SLP295 T10611106 50001=
201411190752 METAR KATL 190752Z 30006KT 10SM CLR M06/M11 A3037 RMK AO2 SLP297 T10561111=
201411190652 METAR KATL 190652Z 29005KT 10SM CLR M05/M12 A3038 RMK AO2 SLP298 T10501117=
201411190552 METAR KATL 190552Z 29005KT 10SM CLR M05/M12 A3037 RMK AO2 SLP295 T10501117 11011 21050 53003=
201411190452 METAR KATL 190452Z 29005KT 10SM CLR M04/M12 A3036 RMK AO2 SLP294 T10441122 400281044=
201411190352 METAR KATL 190352Z 30006KT 10SM CLR M04/M12 A3036 RMK AO2 SLP292 T10391122=
201411190252 METAR KATL 190252Z 31005KT 10SM CLR M03/M13 A3036 RMK AO2 SLP292 T10281128 53010=
201411190152 METAR KATL 190152Z 31007KT 10SM CLR M02/M13 A3034 RMK AO2 SLP288 T10221128=
201411190052 METAR KATL 190052Z 31006KT 10SM CLR M02/M13 A3034 RMK AO2 SLP287 T10171128=
201411182352 METAR KATL 182352Z 32007KT 10SM CLR M01/M12 A3033 RMK AO2 SLP282 T10111122 10028 21011 52012=
201411182252 METAR KATL 182252Z 31009KT 10SM CLR 00/M13 A3031 RMK AO2 SLP276 T00001128=
201411182152 METAR KATL 182152Z 31012KT 10SM FEW180 01/M13 A3031 RMK AO2 SLP274 T00111128=
201411182052 METAR KATL 182052Z 29011KT 10SM FEW180 SCT250 02/M12 A3029 RMK AO2 SLP267 T00221117 53002=
201411181952 METAR KATL 181952Z 31012G19KT 10SM FEW180 SCT250 02/M12 A3027 RMK AO2 SLP261 T00221117=
201411181852 METAR KATL 181852Z 31010G16KT 10SM FEW180 BKN250 02/M10 A3028 RMK AO2 SLP263 T00221100=
201411181752 METAR KATL 181752Z 29016KT 10SM FEW050 SCT180 SCT250 01/M10 A3029 RMK AO2 SLP266 T00111100 10011 21044 58007=
201411181652 METAR KATL 181652Z 30013G18KT 10SM FEW045 SCT180 BKN240 M01/M10 A3032 RMK AO2 SLP278 T10061100=
201411181552 METAR KATL 181552Z 31012KT 10SM FEW040 SCT150 BKN180 BKN250 M01/M10 A3032 RMK AO2 SLP278 VIRGA NE-E-SE-S T10111100=
201411181452 METAR KATL 181452Z 33017G24KT 10SM FEW032 BKN200 BKN250 M02/M10 A3031 RMK AO2 SLP274 T10171100 53026=
201411181352 METAR KATL 181352Z 31013G18KT 10SM FEW033 BKN250 M02/M09 A3027 RMK AO2 SLP262 T10221094=
201411181252 METAR KATL 181252Z 31010KT 10SM BKN250 M04/M10 A3024 RMK AO2 SLP251 T10391100=
201411181152 METAR KATL 181152Z 31008KT 10SM SCT250 M04/M11 A3023 RMK AO2 SLP246 70068 T10441106 11017 21044 51020=
201411181052 METAR KATL 181052Z 31007KT 10SM FEW250 M04/M11 A3021 RMK AO2 SLP241 T10391111=
201411180952 METAR KATL 180952Z 32015KT 10SM FEW250 M03/M12 A3019 RMK AO2 SLP231 T10331117=
201411180852 METAR KATL 180852Z 33017G22KT 10SM CLR M03/M12 A3016 RMK AO2 SLP223 T10281117 53010=
201411180752 METAR KATL 180752Z 31013KT 10SM FEW033 M03/M09 A3015 RMK AO2 SLP217 T10281089=
201411180652 METAR KATL 180652Z 30012KT 10SM FEW034 M02/M08 A3014 RMK AO2 SLP213 T10171083=
201411180552 METAR KATL 180552Z 31013G20KT 10SM FEW035 M02/M08 A3013 RMK AO2 SLP212 T10171083 10022 21017 51020=
201411180452 METAR KATL 180452Z 31018G24KT 10SM FEW035 M01/M08 A3012 RMK AO2 SLP205 T10111078 401561011=
201411180352 METAR KATL 180352Z 32018G24KT 10SM FEW035 00/M06 A3010 RMK AO2 SLP198 T00001061=
201411180252 METAR KATL 180252Z 31015G19KT 10SM FEW030 01/M06 A3007 RMK AO2 SLP187 T00061056 53019=
201411180152 METAR KATL 180152Z 31012G21KT 10SM CLR 01/M05 A3005 RMK AO2 SLP180 T00061050=
201411180052 METAR KATL 180052Z 31013G18KT 10SM FEW030 02/M03 A3003 RMK AO2 SLP172 T00171033=
201411172352 METAR KATL 172352Z 31010KT 10SM FEW030 02/M03 A3001 RMK AO2 SLP167 T00221033 10067 20022 51028=
201411172324 SPECI KATL 172324Z 31011KT 10SM SCT028 02/M03 A3000 RMK AO2=
201411172252 METAR KATL 172252Z 30012G18KT 10SM BKN028 03/M03 A2999 RMK AO2 SLP161 T00331028=
201411172152 METAR KATL 172152Z 31014G25KT 10SM BKN022 BKN026 04/M01 A2996 RMK AO2 PK WND 31027/2136 SLP150 T00391011=
201411172052 METAR KATL 172052Z 31015G23KT 10SM BKN018 BKN020 OVC025 04/01 A2993 RMK AO2 SLP138 T00440006 53024=
201411171952 METAR KATL 171952Z 31017G23KT 10SM BKN016 BKN020 OVC030 06/01 A2990 RMK AO2 PK WND 31027/1939 SLP129 T00560011=
201411171854 SPECI KATL 171854Z 31017G27KT 10SM SCT008 OVC016 06/02 A2987 RMK AO2=
201411171852 METAR KATL 171852Z 31018G27KT 10SM BKN010 BKN014 OVC030 06/02 A2987 RMK AO2 PK WND 30027/1846 SLP119 T00610022=
201411171754 SPECI KATL 171754Z 30016G22KT 9SM FEW007 BKN010 OVC030 07/04 A2986 RMK AO2=
201411171752 METAR KATL 171752Z 29016G22KT 9SM BKN007 BKN010 OVC030 07/04 A2985 RMK AO2 SLP113 60068 T00670044 10156 20067 50034=
201411171652 METAR KATL 171652Z 30017G25KT 8SM BKN007 BKN015 OVC040 07/06 A2986 RMK AO2 PK WND 29030/1634 SLP113 T00720056=
201411171606 SPECI KATL 171606Z 29016KT 8SM BKN005 BKN015 OVC040 11/09 A2981 RMK AO2 PRESRR=
201411171552 METAR KATL 171552Z 30018G24KT 3SM BR BKN005 BKN015 OVC040 12/10 A2979 RMK AO2 PK WND 30026/1535 SFC VIS 6 SLP088 T01170100=
201411171533 SPECI KATL 171533Z 31018G21KT 1 1/2SM BR BKN005 BKN014 OVC040 13/12 A2978 RMK AO2 SFC VIS 5=
201411171504 SPECI KATL 171504Z 28014G19KT 10SM FEW007 SCT014 OVC040 14/13 A2976 RMK AO2=
201411171452 METAR KATL 171452Z 28011KT 9SM FEW007 BKN014 OVC040 14/13 A2975 RMK AO2 RAE28 SLP075 P0001 60068 T01440133 53008=
201411171359 SPECI KATL 171359Z 25004KT 9SM -RA FEW007 SCT060 OVC100 14/13 A2975 RMK AO2 P0000=
201411171352 METAR KATL 171352Z 26004KT 1 1/2SM -RA BR FEW005 BKN045 OVC100 14/13 A2974 RMK AO2 SFC VIS 2 1/2 TSE49 SLP071 TS MOV E P0057 T01390128 $=
201411171350 SPECI KATL 171350Z 28003KT 1 1/2SM -RA BR FEW005 BKN045 OVC100 14/13 A2974 RMK AO2 SFC VIS 2 1/2 TSE49 TS MOV E P0057 $=
201411171340 SPECI KATL 171340Z 29006KT 1 1/2SM R09R/6000VP6000FT TSRA BR FEW009 BKN028CB OVC047 13/13 A2974 RMK AO2 OCNL LTGIC NE-SE-S TS VC NE-SE-S MOV NE P0054 $=
201411171332 SPECI KATL 171332Z 32005KT 1 1/2SM R09R/5000VP6000FT TS BR FEW004 BKN009CB OVC021 13/12 A2975 RMK AO2 SFC VIS 2 1/2 RAEMM OCNL LTGIC NE-SE-S TS NE-SE-S MOV NE P0046=
201411171314 SPECI KATL 171314Z 34015G18KT 1SM +TSRA BR BKN006 BKN013CB OVC030 13/12 A2974 RMK AO2 SFC VIS 2 1/2 OCNL LTGIC SW-NW-N TS SW-NW-N MOV NE P0018=
201411171252 METAR KATL 171252Z 00000KT 1/2SM TSRA BR BKN004 OVC010CB 16/15 A2973 RMK AO2 SFC VIS 1 1/4 TSB38 SLP067 OCNL LTGIC OHD-W-N TS OHD-W-N MOV NE TWRINC P0010 T01560150=
201411171243 SPECI KATL 171243Z 20003KT 1/2SM TSRA BR OVC003CB 16/14 A2974 RMK AO2 SFC VIS 1 1/4 TSB38 OCNL LTGIC SW-NW TS VC SW-NW MOV NE TWRINC P0006=
201411171238 SPECI KATL 171238Z 21004KT 1 1/2SM TSRA BR OVC003 15/14 A2974 RMK AO2 TSB38 OCNL LTGIC SW-NW TS VC SW-NW MOV NE P0004=
201411171152 METAR KATL 171152Z 15005KT 1SM R09R/2800V4000FT -RA BR OVC003 13/12 A2973 RMK AO2 RAB02 SLP067 P0004 60008 70096 T01280122 10128 20083 56031=
201411171139 SPECI KATL 171139Z 15005KT 1SM R09R/3000V5500FT -RA BR OVC003 12/12 A2974 RMK AO2 RAB02 P0003=
201411171052 METAR KATL 171052Z 14005KT 1/2SM R09R/2400VP6000FT FG OVC003 10/09 A2976 RMK AO2 RAE32 SLP079 CIG 002V004 P0003 T01000094=
201411171046 SPECI KATL 171046Z 14004KT 3/4SM R09R/2800V4500FT BR OVC003 10/09 A2976 RMK AO2 RAE32 CIG 002V004 P0003=
201411171037 SPECI KATL 171037Z 12006KT 1SM R09R/4000VP6000FT BR OVC003 09/08 A2976 RMK AO2 RAE32 CIG 002V005 P0003=
201411171000 SPECI KATL 171000Z 12003KT 1 1/2SM -RA BR OVC004 09/08 A2979 RMK AO2 CIG 002V005 P0001=
201411170952 METAR KATL 170952Z 12006KT 2SM -RA BR OVC004 09/07 A2979 RMK AO2 RAB0859 SLP089 CIG 002V005 P0000 T00890072=
201411170942 SPECI KATL 170942Z 14003KT 1 1/2SM -RA BR OVC004 08/08 A2980 RMK AO2 RAB0859 CIG 002V005 P0000=
201411170915 SPECI KATL 170915Z 13004KT 2 1/2SM -RA BR OVC004 08/07 A2981 RMK AO2 RAB0859 P0000=
201411170907 SPECI KATL 170907Z 13005KT 3SM BR OVC004 08/07 A2981 RMK AO2 RAB0859E07 P0000=
201411170900 SPECI KATL 170900Z 14007KT 2SM -RA BR OVC005 08/07 A2982 RMK AO2 RAB0859 CIG 004V007 P0000=
201411170852 METAR KATL 170852Z 15008KT 4SM BR OVC007 08/07 A2982 RMK AO2 RAE10B31E47 SLP101 P0001 60001 T00830072 56038=
201411170839 SPECI KATL 170839Z 13006KT 5SM -RA BR OVC007 08/07 A2983 RMK AO2 RAE10B31 P0000=
201411170752 METAR KATL 170752Z 12007KT 6SM -RA BR FEW007 OVC014 08/07 A2985 RMK AO2 RAE18B39 SLP110 P0000 T00830067=
201411170728 SPECI KATL 170728Z 11009KT 7SM FEW007 OVC014 08/07 A2987 RMK AO2 RAE18 P0000=
201411170652 METAR KATL 170652Z 09009KT 6SM -RA BR FEW007 OVC019 08/07 A2990 RMK AO2 RAE0554B36 SLP127 P0000 T00830067=
201411170552 METAR KATL 170552Z 08011KT 6SM -RA BR SCT004 OVC021 08/07 A2994 RMK AO2 SLP141 P0003 60088 T00830067 10100 20078 58027=
201411170452 METAR KATL 170452Z 04009KT 4SM -RA BR SCT006 OVC021 08/07 A2998 RMK AO2 SLP153 P0029 T00830067 401000028=
201411170431 SPECI KATL 170431Z 08013KT 3SM -RA BR FEW006 OVC021 08/07 A2997 RMK AO2 PRESFR P0025=
201411170419 SPECI KATL 170419Z 07013KT 1 3/4SM +RA BR FEW006 OVC021 08/07 A2999 RMK AO2 P0020=
201411170352 METAR KATL 170352Z 07008KT 2 1/2SM RA BR FEW006 BKN021 OVC037 08/07 A3000 RMK AO2 SLP160 P0023 T00780067=
201411170335 SPECI KATL 170335Z 09009KT 2 1/2SM +RA BR FEW006 BKN021 OVC039 08/07 A3000 RMK AO2 P0013=
201411170252 METAR KATL 170252Z 10008KT 3SM +RA BR FEW029 BKN043 OVC060 08/07 A3002 RMK AO2 SLP170 P0022 60033 T00780067 58018=
201411170152 METAR KATL 170152Z 12006KT 4SM -RA BR FEW018 BKN042 OVC070 08/06 A3004 RMK AO2 RAB0059 SLP177 P0011 T00830061=
201411170128 SPECI KATL 170128Z 11007KT 4SM -RA SCT018 BKN055 OVC070 09/05 A3005 RMK AO2 RAB0059 P0006=
201411170052 METAR KATL 170052Z 12009KT 10SM BKN021 OVC039 10/03 A3006 RMK AO2 SLP184 T01000033=
201411162352 METAR KATL 162352Z 09009KT 10SM OVC023 10/03 A3008 RMK AO2 SLP188 60000 T01000033 10100 20083 57010=
201411162252 METAR KATL 162252Z 09007KT 7SM OVC017 09/04 A3009 RMK AO2 DZE47 SLP192 P0000 T00940044=
201411162152 METAR KATL 162152Z 12007KT 7SM -DZ OVC018 09/04 A3010 RMK AO2 DZB49 SLP195 P0000 T00940044=
201411162052 METAR KATL 162052Z 11005KT 7SM OVC014 09/05 A3011 RMK AO2 SLP199 T00940050 55015=
201411162024 SPECI KATL 162024Z 07008KT 8SM OVC014 09/04 A3009 RMK AO2=
201411161952 METAR KATL 161952Z 05007KT 8SM OVC016 09/04 A3010 RMK AO2 SLP196 T00940039=
201411161921 SPECI KATL 161921Z 01005KT 10SM OVC016 10/04 A3011 RMK AO2=
201411161852 METAR KATL 161852Z 00000KT 10SM OVC014 09/04 A3012 RMK AO2 SLP205 T00940039=
201411161752 METAR KATL 161752Z 00000KT 10SM OVC014 09/03 A3015 RMK AO2 SLP215 T00890028 10089 20028 56026=
201411161652 METAR KATL 161652Z 13007KT 10SM OVC014 08/01 A3018 RMK AO2 SLP226 T00830006=
201411161552 METAR KATL 161552Z 13007KT 10SM OVC012 08/M02 A3019 RMK AO2 SLP230 T00831022=
201411161452 METAR KATL 161452Z 10009KT 10SM OVC014 07/M04 A3023 RMK AO2 SLP242 T00671044 50001=
201411161416 SPECI KATL 161416Z 11008KT 10SM BKN014 06/M05 A3023 RMK AO2=
201411161352 METAR KATL 161352Z 10008KT 10SM OVC016 05/M05 A3024 RMK AO2 SLP245 BINOVC T00501050=
201411161258 SPECI KATL 161258Z 08007KT 10SM BKN018 04/M05 A3025 RMK AO2=
201411161252 METAR KATL 161252Z 06007KT 10SM SCT018 SCT080 04/M05 A3025 RMK AO2 SLP250 T00391050=
201411161152 METAR KATL 161152Z 12008KT 10SM SCT080 04/M06 A3023 RMK AO2 SLP242 T00391056 10050 20033 58013=
201411161052 METAR KATL 161052Z 09008KT 10SM BKN085 03/M05 A3025 RMK AO2 SLP249 T00331050=
201411160952 METAR KATL 160952Z 09007KT 10SM FEW070 OVC085 04/M05 A3026 RMK AO2 SLP252 T00441050=
201411160852 METAR KATL 160852Z 11006KT 10SM FEW070 OVC090 04/M06 A3027 RMK AO2 SLP254 T00441056 50003=
201411160752 METAR KATL 160752Z 10008KT 10SM FEW070 OVC085 04/M06 A3028 RMK AO2 SLP258 T00441056=
201411160652 METAR KATL 160652Z 08005KT 10SM SCT050 BKN075 BKN090 04/M06 A3029 RMK AO2 SLP263 T00441056=
201411160552 METAR KATL 160552Z 11008KT 10SM BKN095 04/M06 A3026 RMK AO2 PRESFR SLP251 T00441061 10067 20039 58013=
201411160452 METAR KATL 160452Z 11006KT 10SM FEW075 BKN100 05/M06 A3029 RMK AO2 SLP264 T00501056 401001022=
201411160352 METAR KATL 160352Z 09007KT 10SM BKN100 04/M05 A3031 RMK AO2 SLP268 T00391050=
201411160252 METAR KATL 160252Z 11004KT 10SM SCT100 05/M06 A3030 RMK AO2 SLP267 T00501056 53010=
201411160152 METAR KATL 160152Z 11007KT 10SM CLR 06/M06 A3028 RMK AO2 SLP262 T00561056=
201411160052 METAR KATL 160052Z 11007KT 10SM CLR 06/M06 A3027 RMK AO2 SLP259 T00611056=
201411152352 METAR KATL 152352Z 11006KT 10SM CLR 07/M06 A3027 RMK AO2 SLP257 T00671056 10100 20067 50001=
201411152252 METAR KATL 152252Z 12006KT 10SM FEW230 08/M06 A3027 RMK AO2 SLP257 T00781061=
201411152152 METAR KATL 152152Z 11006KT 10SM CLR 09/M07 A3027 RMK AO2 SLP255 T00891067=
201411152052 METAR KATL 152052Z 15006KT 10SM CLR 09/M07 A3026 RMK AO2 SLP254 T00941067 56020=
201411151952 METAR KATL 151952Z 12005KT 10SM CLR 10/M07 A3027 RMK AO2 SLP258 T01001067=
201411151852 METAR KATL 151852Z 10005KT 10SM CLR 09/M07 A3029 RMK AO2 SLP265 T00891072=
201411151752 METAR KATL 151752Z 07009KT 10SM CLR 08/M08 A3033 RMK AO2 SLP276 T00781078 10078 21011 58025=
201411151652 METAR KATL 151652Z 08007KT 10SM CLR 06/M09 A3037 RMK AO2 SLP292 T00611089=
201411151552 METAR KATL 151552Z 10009KT 10SM CLR 04/M09 A3039 RMK AO2 SLP300 T00441094=
201411151452 METAR KATL 151452Z 09011KT 10SM FEW250 02/M10 A3040 RMK AO2 SLP304 T00221100 51020=
201411151352 METAR KATL 151352Z 10011KT 10SM CLR 01/M09 A3040 RMK AO2 SLP302 T00061089=
201411151252 METAR KATL 151252Z 10012KT 10SM FEW025 M01/M08 A3036 RMK AO2 SLP292 T10111083=
201411151152 METAR KATL 151152Z 09009KT 10SM FEW025 M01/M08 A3034 RMK AO2 SLP283 T10111078 10006 21022 51015=
201411151149 SPECI KATL 151149Z 10009KT 10SM FEW025 M01/M08 A3034 RMK AO2=
201411151052 METAR KATL 151052Z 09010G17KT 10SM BKN025 M01/M07 A3032 RMK AO2 SLP277 T10061072=
201411150952 METAR KATL 150952Z 10010G16KT 10SM OVC018 01/M07 A3029 RMK AO2 SLP265 BINOVC T00061067=
201411150943 SPECI KATL 150943Z 10010KT 10SM OVC017 00/M06 A3029 RMK AO2=
201411150903 SPECI KATL 150903Z 08010KT 10SM BKN014 M01/M07 A3028 RMK AO2=
201411150852 METAR KATL 150852Z 08010KT 10SM FEW016 M01/M07 A3028 RMK AO2 SLP260 T10061067 51009=
201411150752 METAR KATL 150752Z 36005KT 10SM CLR M02/M08 A3027 RMK AO2 SLP259 T10171083=
201411150652 METAR KATL 150652Z 34005KT 10SM CLR M02/M09 A3026 RMK AO2 SLP256 T10171089=
201411150552 METAR KATL 150552Z 33005KT 10SM CLR M01/M09 A3025 RMK AO2 SLP252 T10111089 10028 21017 50004=
201411150452 METAR KATL 150452Z 33005KT 10SM CLR M01/M09 A3025 RMK AO2 SLP252 T10061094 400721033=
201411150352 METAR KATL 150352Z 34004KT 10SM CLR 00/M09 A3025 RMK AO2 SLP251 T00001094=
201411150252 METAR KATL 150252Z 35005KT 10SM CLR 01/M10 A3024 RMK AO2 SLP250 T00061100 50002=
201411150152 METAR KATL 150152Z 34008KT 10SM CLR 01/M10 A3024 RMK AO2 SLP251 T00111100=
201411150052 METAR KATL 150052Z 34009KT 10SM CLR 02/M10 A3024 RMK AO2 SLP251 T00221100=
201411142352 METAR KATL 142352Z 34013KT 10SM CLR 03/M11 A3023 RMK AO2 SLP247 T00281106 10072 20028 53016=
201411142252 METAR KATL 142252Z 32009KT 10SM FEW150 03/M11 A3021 RMK AO2 SLP241 T00331106=
201411142152 METAR KATL 142152Z 33010KT 10SM FEW150 SCT250 06/M12 A3020 RMK AO2 SLP234 T00561117=
201411142052 METAR KATL 142052Z 32011G17KT 10SM FEW150 SCT250 07/M12 A3018 RMK AO2 SLP229 T00671117 55003=
201411141952 METAR KATL 141952Z 35009G17KT 10SM FEW030 SCT150 SCT250 07/M10 A3018 RMK AO2 SLP228 T00671100=
201411141852 METAR KATL 141852Z 36008KT 10SM FEW030 SCT250 07/M10 A3018 RMK AO2 SLP225 T00671100=
201411141752 METAR KATL 141752Z 32009G14KT 10SM FEW030 SCT250 06/M10 A3019 RMK AO2 SLP230 T00561100 10061 21033 58004=
201411141652 METAR KATL 141652Z 34009KT 10SM FEW030 04/M09 A3022 RMK AO2 SLP241 T00441094=
201411141552 METAR KATL 141552Z 33008G18KT 10SM SCT028 02/M09 A3023 RMK AO2 SLP245 T00221094=
201411141452 METAR KATL 141452Z 33014G20KT 10SM FEW030 SCT250 01/M10 A3020 RMK AO2 SLP237 T00061100 51019=
201411141352 METAR KATL 141352Z 33012G17KT 10SM FEW028 SCT200 M01/M10 A3019 RMK AO2 SLP234 T10111100=
201411141252 METAR KATL 141252Z 32013KT 10SM FEW200 M03/M09 A3017 RMK AO2 SLP227 T10281094=
201411141152 METAR KATL 141152Z 33014G23KT 10SM FEW250 M03/M09 A3015 RMK AO2 SLP218 T10331094 10006 21033 51008=
201411141052 METAR KATL 141052Z 33014G21KT 10SM CLR M03/M09 A3014 RMK AO2 SLP216 T10281094=
201411140952 METAR KATL 140952Z 32015G21KT 10SM CLR M02/M08 A3013 RMK AO2 SLP210 T10221083=
201411140852 METAR KATL 140852Z 32013KT 9SM CLR M02/M08 A3012 RMK AO2 SLP208 T10171083 56003=
201411140752 METAR KATL 140752Z 33016G21KT 10SM CLR M01/M08 A3012 RMK AO2 PK WND 34027/0701 SLP208 T10111083=
201411140652 METAR KATL 140652Z 33010G19KT 10SM CLR M01/M08 A3012 RMK AO2 SLP206 T10061083=
201411140552 METAR KATL 140552Z 32018G22KT 10SM CLR 01/M08 A3013 RMK AO2 PK WND 33026/0537 SLP209 T00061083 10033 20006 58005=
201411140452 METAR KATL 140452Z 33015KT 10SM FEW055 01/M07 A3014 RMK AO2 PK WND 32027/0426 SLP211 T00111072 400830011=
201411140352 METAR KATL 140352Z 33016G30KT 10SM OVC055 02/M07 A3014 RMK AO2 PK WND 33030/0344 SLP213 BINOVC T00171072=
201411140252 METAR KATL 140252Z 32012G25KT 10SM OVC055 02/M06 A3015 RMK AO2 PK WND 32026/0233 SLP215 T00221061 51007=
201411140152 METAR KATL 140152Z 32015G25KT 10SM BKN060 02/M04 A3014 RMK AO2 PK WND 34027/0126 SLP213 T00221044=
201411140052 METAR KATL 140052Z 32013G21KT 10SM FEW070 SCT250 03/M03 A3014 RMK AO2 PK WND 33026/0028 SLP213 T00281033=
201411132352 METAR KATL 132352Z 32011KT 9SM SCT075 BKN120 BKN250 03/M02 A3012 RMK AO2 PK WND 32028/2304 SLP208 T00331022 10078 20033 53013=
201411132252 METAR KATL 132252Z 33013KT 10SM FEW080 BKN100 BKN250 05/M02 A3009 RMK AO2 SLP197 T00501022=
201411132152 METAR KATL 132152Z 31018G24KT 10SM FEW080 SCT100 BKN140 BKN200 06/M02 A3009 RMK AO2 SLP195 T00611017=
201411132052 METAR KATL 132052Z 31014G20KT 10SM FEW090 BKN110 BKN150 OVC200 06/M02 A3009 RMK AO2 SLP192 T00611017 55004=
201411131952 METAR KATL 131952Z 30012KT 10SM BKN090 BKN130 OVC150 06/M01 A3008 RMK AO2 SLP191 VIRGA DSNT SW T00611011=
201411131852 METAR KATL 131852Z 31015G23KT 10SM FEW095 SCT120 BKN150 OVC200 07/M01 A3008 RMK AO2 SLP190 VIRGA DSNT SE-S-SW & NW T00671011=
201411131752 METAR KATL 131752Z 32015KT 10SM FEW110 BKN150 BKN200 OVC250 08/M01 A3010 RMK AO2 SLP196 T00781006 10083 20039 56017=
201411131652 METAR KATL 131652Z 31013KT 10SM FEW120 BKN150 BKN250 07/00 A3012 RMK AO2 SLP202 T00720000=
201411131552 METAR KATL 131552Z 31012KT 10SM FEW140 BKN180 BKN250 08/01 A3013 RMK AO2 SLP206 T00780006=
201411131452 METAR KATL 131452Z 30012G17KT 10SM FEW015 SCT140 BKN200 05/00 A3015 RMK AO2 SLP213 T00500000 51014=
201411131443 SPECI KATL 131443Z 31010KT 10SM FEW015 BKN140 BKN200 05/00 A3014 RMK AO2=
201411131352 METAR KATL 131352Z 33015G21KT 10SM BKN014 BKN140 BKN200 04/00 A3014 RMK AO2 SLP210 T00440000=
201411131252 METAR KATL 131252Z 31011KT 10SM OVC012 04/01 A3013 RMK AO2 SLP206 BINOVC T00440006=
201411131152 METAR KATL 131152Z 32009G17KT 10SM OVC012 04/01 A3011 RMK AO2 SLP198 BINOVC T00440011 10067 20044 51007=
201411131052 METAR KATL 131052Z 31013G16KT 10SM OVC010 05/02 A3010 RMK AO2 SLP195 BINOVC T00500017=
201411130952 METAR KATL 130952Z 29011KT 10SM OVC010 05/02 A3010 RMK AO2 SLP193 BINOVC T00500022=
201411130920 SPECI KATL 130920Z 31011KT 10SM OVC010 05/02 A3009 RMK AO2 BINOVC=
201411130852 METAR KATL 130852Z 30008KT 10SM OVC009 06/03 A3009 RMK AO2 SLP189 BINOVC T00560028 55001=
201411130752 METAR KATL 130752Z 31013G19KT 270V330 10SM OVC009 06/03 A3007 RMK AO2 SLP182 T00560028=
201411130652 METAR KATL 130652Z 32014KT 10SM OVC009 06/03 A3009 RMK AO2 SLP187 T00610033=
201411130552 METAR KATL 130552Z 33013KT 10SM OVC009 07/04 A3009 RMK AO2 SLP189 T00670039 10122 20067 55005=
201411130452 METAR KATL 130452Z 33011KT 10SM OVC009 07/04 A3009 RMK AO2 SLP188 T00720044 401890072=
201411130352 METAR KATL 130352Z 33014KT 10SM OVC010 08/06 A3009 RMK AO2 SLP191 BINOVC SE-S T00830056=
201411130252 METAR KATL 130252Z 31009G18KT 10SM BKN012 09/06 A3010 RMK AO2 SLP194 T00890056 53009=
201411130218 SPECI KATL 130218Z 31012KT 10SM BKN015 09/06 A3010 RMK AO2=
201411130152 METAR KATL 130152Z 31012KT 10SM FEW020 09/06 A3009 RMK AO2 SLP190 T00940056=
201411130052 METAR KATL 130052Z 30007KT 10SM CLR 11/07 A3008 RMK AO2 SLP186 T01060067=
201411122352 METAR KATL 122352Z 32011KT 10SM FEW018 12/08 A3008 RMK AO2 SLP184 T01220083 10189 20122 53010=
201411122322 SPECI KATL 122322Z 33009KT 10SM SCT018 13/08 A3007 RMK AO2=
201411122252 METAR KATL 122252Z 31009KT 10SM OVC018 14/09 A3006 RMK AO2 SLP179 T01390089=
201411122152 METAR KATL 122152Z 32010KT 10SM BKN020 BKN050 BKN250 16/10 A3006 RMK AO2 SLP176 T01560100=
201411122117 SPECI KATL 122117Z 30011KT 10SM BKN023 BKN050 BKN250 17/11 A3005 RMK AO2=
201411122052 METAR KATL 122052Z 32009KT 10SM FEW030 SCT050 SCT250 18/11 A3005 RMK AO2 SLP171 T01780106 55006=
201411121952 METAR KATL 121952Z 33008KT 10SM FEW025 SCT060 SCT250 18/12 A3004 RMK AO2 SLP171 T01830122=
201411121852 METAR KATL 121852Z 31010KT 9SM BKN018 BKN060 BKN250 18/12 A3005 RMK AO2 SLP174 T01780122=
201411121845 SPECI KATL 121845Z 30010KT 9SM BKN018 BKN050 BKN250 18/12 A3005 RMK AO2=
201411121752 METAR KATL 121752Z 29008KT 9SM FEW016 BKN040 BKN060 BKN250 17/12 A3006 RMK AO2 SLP178 T01720122 10183 20133 58003=
201411121738 SPECI KATL 121738Z 31007KT 9SM FEW013 BKN037 BKN060 BKN250 17/12 A3006 RMK AO2=
201411121652 METAR KATL 121652Z 28006KT 8SM BKN013 BKN080 BKN250 17/13 A3008 RMK AO2 SLP183 T01720128=
201411121552 METAR KATL 121552Z 29006KT 6SM HZ BKN012 BKN080 BKN250 17/12 A3008 RMK AO2 SLP183 T01720122=
201411121543 SPECI KATL 121543Z 28007KT 6SM HZ BKN012 BKN080 BKN250 17/12 A3008 RMK AO2=
201411121452 METAR KATL 121452Z 30010KT 6SM HZ FEW080 BKN200 BKN250 16/12 A3007 RMK AO2 SLP181 T01610122 51015=
201411121352 METAR KATL 121352Z 27005KT 10SM SCT044 SCT080 BKN200 BKN250 15/12 A3006 RMK AO2 SLP176 T01500117=
201411121252 METAR KATL 121252Z 29004KT 10SM FEW080 BKN200 BKN250 13/11 A3004 RMK AO2 SLP171 T01330111=
201411121152 METAR KATL 121152Z 00000KT 10SM FEW080 SCT200 BKN250 13/11 A3002 RMK AO2 SLP165 T01330111 10150 20122 53007=
201411121052 METAR KATL 121052Z 00000KT 10SM FEW080 BKN250 14/11 A3001 RMK AO2 SLP159 T01390111=
201411120952 METAR KATL 120952Z 27005KT 10SM FEW075 SCT250 14/11 A3000 RMK AO2 SLP155 T01440111 $=
201411120852 METAR KATL 120852Z 27006KT 10SM FEW044 BKN075 BKN250 15/11 A3000 RMK AO2 SLP154 T01500111 55000 $=
201411120752 METAR KATL 120752Z 29006KT 10SM FEW042 SCT065 SCT250 14/11 A3000 RMK AO2 SLP153 T01390106 $=
201411120652 METAR KATL 120652Z 27004KT 10SM SCT070 SCT250 13/10 A3000 RMK AO2 SLP153 T01330100 $=
201411120552 METAR KATL 120552Z 00000KT 10SM FEW060 SCT250 14/10 A3000 RMK AO2 SLP156 T01390100 10172 20133 53004 $=
201411120452 METAR KATL 120452Z 00000KT 10SM BKN250 14/10 A2999 RMK AO2 SLP153 T01390100 402220067 $=
201411120352 METAR KATL 120352Z 26003KT 10SM BKN250 14/09 A3000 RMK AO2 SLP155 T01440094 $=
201411120252 METAR KATL 120252Z 25004KT 10SM BKN250 14/08 A2999 RMK AO2 SLP153 T01440078 51001 $=
201411120152 METAR KATL 120152Z 22005KT 10SM BKN250 14/07 A2999 RMK AO2 SLP153 T01440067=
201411120052 METAR KATL 120052Z 25003KT 10SM BKN250 16/06 A2999 RMK AO2 SLP155 T01610056=
201411112352 METAR KATL 112352Z 00000KT 10SM BKN250 17/06 A2999 RMK AO2 SLP154 T01670056 10222 20161 53005=
201411112252 METAR KATL 112252Z 00000KT 10SM SCT250 18/04 A2997 RMK AO2 SLP149 T01830044=
201411112152 METAR KATL 112152Z 00000KT 10SM SCT250 21/04 A2997 RMK AO2 SLP145 T02060044=
201411112052 METAR KATL 112052Z 31008KT 10SM FEW250 22/05 A2997 RMK AO2 SLP146 T02220050 55011=
201411111952 METAR KATL 111952Z 29007KT 10SM FEW250 22/04 A2997 RMK AO2 SLP145 T02220044=
201411111852 METAR KATL 111852Z VRB06KT 10SM FEW250 22/06 A2998 RMK AO2 SLP149 T02170056=
201411111752 METAR KATL 111752Z 00000KT 10SM FEW250 20/06 A3001 RMK AO2 SLP157 T02000056 10206 20072 58021=
201411111652 METAR KATL 111652Z VRB05KT 10SM FEW250 19/06 A3004 RMK AO2 SLP169 T01890061=
201411111552 METAR KATL 111552Z 00000KT 10SM FEW200 17/06 A3007 RMK AO2 SLP181 T01720061=
201411111452 METAR KATL 111452Z 12003KT 10SM FEW200 16/07 A3007 RMK AO2 SLP180 T01560067 50007=
201411111352 METAR KATL 111352Z 08005KT 10SM FEW250 13/07 A3007 RMK AO2 SLP182 T01330067=
201411111252 METAR KATL 111252Z 05005KT 10SM FEW250 11/06 A3006 RMK AO2 SLP179 T01110056=
201411111152 METAR KATL 111152Z 00000KT 10SM FEW250 07/04 A3005 RMK AO2 SLP175 T00720039 10122 20067 50007=
201411111052 METAR KATL 111052Z 07004KT 10SM SCT250 09/05 A3005 RMK AO2 SLP174 T00940050=
201411110952 METAR KATL 110952Z 07003KT 10SM SCT250 10/06 A3004 RMK AO2 SLP170 T01000056=
201411110852 METAR KATL 110852Z 07005KT 10SM SCT250 09/05 A3003 RMK AO2 SLP165 T00940050 53002=
201411110752 METAR KATL 110752Z 07004KT 10SM FEW250 09/05 A3002 RMK AO2 SLP163 T00940050=
201411110652 METAR KATL 110652Z 09004KT 10SM FEW250 10/06 A3001 RMK AO2 SLP161 T01000056=
201411110552 METAR KATL 110552Z 05004KT 10SM FEW250 12/06 A3002 RMK AO2 SLP163 T01170056 10172 20111 58002=
201411110452 METAR KATL 110452Z 08005KT 10SM FEW250 12/05 A3002 RMK AO2 SLP164 T01220050 402170061=
201411110352 METAR KATL 110352Z 09003KT 10SM FEW250 12/05 A3002 RMK AO2 SLP164 T01220050=
201411110252 METAR KATL 110252Z 00000KT 10SM FEW250 14/05 A3002 RMK AO2 SLP165 T01390050 51003=
201411110152 METAR KATL 110152Z 12003KT 10SM FEW250 15/05 A3002 RMK AO2 SLP164 T01500050=
201411110052 METAR KATL 110052Z 12005KT 10SM FEW250 16/06 A3003 RMK AO2 SLP168 T01610056=
201411102352 METAR KATL 102352Z 12003KT 10SM FEW250 17/05 A3001 RMK AO2 SLP164 T01670050 10217 20167 55000=
201411102252 METAR KATL 102252Z 13004KT 10SM FEW250 19/05 A3001 RMK AO2 SLP160 T01890050=
201411102152 SPECI KATL 102152Z 15005KT 10SM FEW250 21/04 A3001 RMK AO2 SLP162 T02060044=
201411102152 METAR KATL 102152Z 15005KT 10SM FEW250 21/04 A3001 RMK AO2 SLP162 T02060044=
201411102052 METAR KATL 102052Z 13004KT 10SM FEW250 21/04 A3001 RMK AO2 SLP161 T02110044 56010=
201411101952 METAR KATL 101952Z 19006KT 10SM FEW250 21/04 A3002 RMK AO2 SLP164 T02110044=
201411101852 METAR KATL 101852Z 17004KT 10SM FEW250 21/06 A3003 RMK AO2 SLP167 T02060056=
201411101752 METAR KATL 101752Z 00000KT 10SM FEW250 19/05 A3005 RMK AO2 SLP172 T01940050 10200 20061 58011=
201411101652 METAR KATL 101652Z VRB04KT 10SM FEW250 18/04 A3007 RMK AO2 SLP180 T01830044=
201411101552 METAR KATL 101552Z 00000KT 10SM FEW250 17/06 A3008 RMK AO2 SLP185 T01720056=
201411101452 METAR KATL 101452Z VRB03KT 10SM FEW250 15/06 A3008 RMK AO2 SLP185 T01500056 51013=
201411101352 METAR KATL 101352Z 11003KT 10SM CLR 13/06 A3008 RMK AO2 SLP184 T01330061=
201411101252 METAR KATL 101252Z 00000KT 10SM CLR 08/05 A3006 RMK AO2 SLP179 T00780050=
201411101152 METAR KATL 101152Z 00000KT 10SM CLR 07/03 A3004 RMK AO2 SLP173 T00670033 10089 20061 51013=
201411101052 METAR KATL 101052Z 00000KT 10SM CLR 07/04 A3003 RMK AO2 SLP170 T00720039=
201411100952 METAR KATL 100952Z 00000KT 10SM CLR 07/03 A3002 RMK AO2 SLP165 T00720033=
201411100852 METAR KATL 100852Z 00000KT 10SM CLR 07/04 A3000 RMK AO2 SLP158 T00720039 57005=
201411100752 METAR KATL 100752Z 33004KT 10SM CLR 08/04 A3000 RMK AO2 SLP158 T00830039=
201411100652 METAR KATL 100652Z 34004KT 10SM CLR 09/04 A3001 RMK AO2 SLP161 T00890044=
201411100552 METAR KATL 100552Z 33005KT 10SM CLR 09/04 A3002 RMK AO2 SLP163 T00890044 10150 20083 51004=
201411100452 METAR KATL 100452Z 32005KT 10SM CLR 09/05 A3001 RMK AO2 SLP161 T00890050 402000056=
201411100352 METAR KATL 100352Z 32005KT 10SM CLR 11/05 A3001 RMK AO2 SLP163 T01060050=
201411100252 METAR KATL 100252Z 31006KT 10SM CLR 11/05 A3001 RMK AO2 SLP161 T01060050 53013=
201411100152 METAR KATL 100152Z 32004KT 10SM CLR 13/04 A2999 RMK AO2 SLP157 T01330044=
201411100052 METAR KATL 100052Z 34004KT 10SM CLR 14/04 A2998 RMK AO2 SLP151 T01440044=
201411092352 METAR KATL 092352Z 33003KT 10SM CLR 15/04 A2997 RMK AO2 SLP147 T01500039 10200 20150 51011=
201411092252 METAR KATL 092252Z 34006KT 10SM CLR 16/04 A2995 RMK AO2 SLP144 T01610044=
201411092152 METAR KATL 092152Z 34009KT 10SM FEW250 18/03 A2994 RMK AO2 SLP139 T01830033=
201411092052 METAR KATL 092052Z 27005KT 10SM FEW250 19/03 A2993 RMK AO2 SLP134 T01940028 55011=
201411091952 METAR KATL 091952Z 32007KT 10SM FEW250 20/03 A2993 RMK AO2 SLP133 T02000028=
201411091852 METAR KATL 091852Z 00000KT 10SM FEW250 20/03 A2994 RMK AO2 SLP135 T02000033=
201411091752 METAR KATL 091752Z 00000KT 10SM FEW250 18/04 A2996 RMK AO2 SLP145 T01830039 10183 20056 58022=
201411091652 METAR KATL 091652Z 33005KT 10SM FEW250 17/04 A3001 RMK AO2 SLP162 T01720039=
201411091552 METAR KATL 091552Z 33003KT 10SM FEW250 15/04 A3003 RMK AO2 SLP168 T01500039=
201411091452 METAR KATL 091452Z 33006KT 10SM FEW250 12/04 A3003 RMK AO2 SLP170 T01170044 51019=
201411091352 METAR KATL 091352Z 32009KT 10SM FEW250 08/04 A3002 RMK AO2 SLP167 T00830039=
201411091252 METAR KATL 091252Z 31006KT 10SM FEW250 07/03 A3000 RMK AO2 SLP160 T00670033=
201411091152 METAR KATL 091152Z 31004KT 10SM SCT250 06/03 A2997 RMK AO2 SLP152 T00610028 10089 20056 51004=
201411091052 METAR KATL 091052Z 31006KT 10SM SCT250 06/03 A2997 RMK AO2 SLP150 T00610028=
201411090952 METAR KATL 090952Z 31006KT 10SM FEW200 BKN250 07/03 A2997 RMK AO2 SLP149 T00670033=
201411090852 METAR KATL 090852Z 31007KT 10SM FEW200 BKN250 07/04 A2996 RMK AO2 SLP146 T00670039 55003=
201411090752 METAR KATL 090752Z 00000KT 10SM FEW200 BKN250 07/04 A2996 RMK AO2 SLP144 T00720039=
201411090652 METAR KATL 090652Z 31003KT 10SM FEW200 BKN250 08/04 A2996 RMK AO2 SLP146 T00830039=
201411090552 METAR KATL 090552Z 29003KT 10SM SCT150 SCT200 BKN250 09/04 A2997 RMK AO2 SLP148 T00890039 10117 20083 58005=
201411090452 METAR KATL 090452Z 31005KT 10SM FEW150 SCT200 BKN250 09/04 A2998 RMK AO2 SLP152 T00940039 401720033=
201411090352 METAR KATL 090352Z 31004KT 10SM FEW150 SCT200 SCT250 09/04 A2998 RMK AO2 SLP154 T00940039=
201411090252 METAR KATL 090252Z 30003KT 10SM FEW150 SCT200 BKN250 11/03 A2998 RMK AO2 SLP155 T01060033 51005=
201411090152 METAR KATL 090152Z 28004KT 10SM SCT200 BKN250 11/04 A2998 RMK AO2 SLP155 T01060044=
201411090052 METAR KATL 090052Z 00000KT 10SM FEW110 SCT200 BKN250 11/04 A2998 RMK AO2 SLP155 T01060044=
201411082352 METAR KATL 082352Z 00000KT 10SM FEW100 BKN200 BKN250 12/04 A2997 RMK AO2 SLP151 T01170039 10172 20117 53005=
201411082252 METAR KATL 082252Z 19003KT 10SM FEW110 BKN200 BKN250 13/03 A2996 RMK AO2 SLP147 T01280033=
201411082152 METAR KATL 082152Z 19004KT 10SM FEW100 BKN250 14/03 A2996 RMK AO2 SLP146 T01440028=
201411082052 METAR KATL 082052Z 18005KT 10SM FEW100 OVC250 16/02 A2995 RMK AO2 SLP144 BINOVC T01560017 55009=
201411081952 METAR KATL 081952Z 20005KT 10SM FEW100 OVC250 16/01 A2995 RMK AO2 SLP142 BINOVC T01610006=
201411081852 METAR KATL 081852Z 24007KT 10SM FEW120 BKN250 17/02 A2996 RMK AO2 SLP146 T01670017=
201411081752 METAR KATL 081752Z 32004KT 10SM FEW150 BKN250 16/01 A2998 RMK AO2 SLP153 T01610011 10167 20050 58023=
201411081652 METAR KATL 081652Z 00000KT 10SM FEW200 BKN250 14/02 A3002 RMK AO2 SLP165 T01390017=
201411081552 METAR KATL 081552Z 00000KT 10SM FEW200 SCT250 12/03 A3004 RMK AO2 SLP175 T01170033=
201411081452 METAR KATL 081452Z 00000KT 10SM FEW200 SCT250 08/03 A3005 RMK AO2 SLP180 T00830033 53009=
201411081352 METAR KATL 081352Z 09006KT 10SM SCT200 BKN250 06/03 A3003 RMK AO2 SLP175 T00560028=
201411081252 METAR KATL 081252Z 06005KT 10SM FEW200 BKN250 06/02 A3002 RMK AO2 SLP168 VIRGA NE-SE T00560022=
201411081152 METAR KATL 081152Z 00000KT 10SM FEW200 BKN250 05/02 A3003 RMK AO2 SLP171 VIRGA N-E T00500017 10056 20033 53006=
201411081052 METAR KATL 081052Z COR 01003KT 10SM BKN250 04/02 A3002 RMK AO2 SLP167 T00440017=
201411080952 METAR KATL 080952Z 31003KT 10SM FEW250 04/01 A3001 RMK AO2 SLP163 T00390011=
201411080852 METAR KATL 080852Z 31005KT 10SM FEW250 04/01 A3001 RMK AO2 SLP163 T00390011 58000=
201411080752 METAR KATL 080752Z 00000KT 10SM CLR 05/02 A3001 RMK AO2 SLP165 T00500017=
201411080652 METAR KATL 080652Z 00000KT 10SM CLR 04/02 A3002 RMK AO2 SLP166 T00440017=
201411080552 METAR KATL 080552Z 00000KT 10SM FEW250 05/02 A3001 RMK AO2 SLP163 T00500017 10106 20044 58008=
201411080452 METAR KATL 080452Z 33004KT 10SM FEW250 07/02 A3002 RMK AO2 SLP169 T00670017 401560050=
201411080352 METAR KATL 080352Z 29003KT 10SM FEW250 07/02 A3003 RMK AO2 SLP170 T00720017=
201411080252 METAR KATL 080252Z 26003KT 10SM FEW250 07/02 A3003 RMK AO2 SLP172 T00720022 53003=
201411080152 METAR KATL 080152Z 30003KT 10SM FEW250 08/02 A3003 RMK AO2 SLP171 T00780022=
201411080052 METAR KATL 080052Z 31004KT 10SM FEW250 09/02 A3003 RMK AO2 SLP171 T00940022=
201411072352 METAR KATL 072352Z 30005KT 10SM FEW250 11/02 A3002 RMK AO2 SLP170 T01060022 10156 20106 53002=
201411072252 METAR KATL 072252Z 32004KT 10SM FEW250 12/01 A3001 RMK AO2 SLP163 T01220011=
201411072152 METAR KATL 072152Z 31011KT 10SM FEW230 14/01 A3001 RMK AO2 SLP164 T01390011=
201411072052 METAR KATL 072052Z 33008KT 10SM FEW230 15/01 A3002 RMK AO2 SLP165 T01500011 56017=
201411071952 METAR KATL 071952Z 31003KT 10SM FEW230 15/01 A3002 RMK AO2 SLP166 T01500006=
201411071852 METAR KATL 071852Z VRB05KT 10SM FEW230 15/01 A3004 RMK AO2 SLP172 T01500006=
201411071752 METAR KATL 071752Z 31004KT 10SM CLR 13/01 A3007 RMK AO2 SLP183 T01330006 10139 20050 58008=
201411071652 METAR KATL 071652Z 26007KT 10SM CLR 13/01 A3010 RMK AO2 SLP193 T01280011=
201411071552 METAR KATL 071552Z 34005KT 10SM FEW250 12/01 A3010 RMK AO2 SLP193 T01170011=
201411071452 METAR KATL 071452Z 33009G16KT 10SM FEW250 10/00 A3009 RMK AO2 SLP191 T01000000 52008=
201411071352 METAR KATL 071352Z 32011KT 10SM CLR 08/01 A3009 RMK AO2 SLP189 T00780006=
201411071252 METAR KATL 071252Z 35007KT 10SM CLR 06/01 A3007 RMK AO2 SLP184 T00610006=
201411071152 METAR KATL 071152Z 31006KT 10SM CLR 05/01 A3007 RMK AO2 SLP182 70003 T00500006 10094 20050 53010=
201411071052 METAR KATL 071052Z 33010KT 10SM CLR 06/01 A3004 RMK AO2 SLP173 T00610006=
201411070952 METAR KATL 070952Z 32009KT 10SM CLR 07/01 A3004 RMK AO2 SLP170 T00670006=
201411070852 METAR KATL 070852Z 34009KT 10SM FEW036 08/01 A3004 RMK AO2 SLP169 T00780006 56002=
201411070752 METAR KATL 070752Z 34010KT 10SM FEW036 08/01 A3004 RMK AO2 SLP170 T00830011=
201411070652 METAR KATL 070652Z 34012KT 10SM SCT038 09/01 A3004 RMK AO2 SLP170 T00890011=
201411070552 METAR KATL 070552Z 33008KT 10SM SCT042 SCT250 09/01 A3005 RMK AO2 SLP172 T00940006 10167 20094 50003=
201411070452 METAR KATL 070452Z 33010KT 10SM FEW050 SCT250 10/01 A3005 RMK AO2 SLP173 T01000006 402220100=
201411070352 METAR KATL 070352Z 35013G20KT 10SM SCT250 11/01 A3005 RMK AO2 SLP173 T01110006=
201411070252 METAR KATL 070252Z 35018G26KT 10SM FEW250 12/01 A3003 RMK AO2 PK WND 34026/0248 SLP168 T01220011 53017=
201411070152 METAR KATL 070152Z 33019G24KT 10SM FEW250 14/02 A3001 RMK AO2 PK WND 32026/0126 SLP160 T01390017=
201411070052 METAR KATL 070052Z 29011KT 10SM FEW250 15/03 A2999 RMK AO2 SLP152 T01500028=
201411062352 METAR KATL 062352Z 30018G31KT 10SM FEW250 17/01 A2998 RMK AO2 PK WND 31031/2344 SLP150 T01670011 10222 20167 53009=
201411062252 METAR KATL 062252Z 29013G19KT 10SM FEW250 18/05 A2996 RMK AO2 PK WND 30028/2217 SLP140 T01830050=
201411062052 METAR KATL 062052Z 30012G19KT 10SM FEW060 SCT250 22/06 A2995 RMK AO2 SLP138 T02170061 56021=
201411061952 METAR KATL 061952Z 27010G19KT 10SM FEW050 SCT250 22/08 A2997 RMK AO2 SLP142 T02220083=
201411061852 METAR KATL 061852Z 26010G18KT 10SM FEW040 SCT250 22/10 A3000 RMK AO2 SLP153 T02170100=
201411061752 METAR KATL 061752Z 28012G18KT 10SM SCT015 SCT050 19/16 A3002 RMK AO2 SLP161 60003 T01940156 10200 20167 55018=
201411061750 SPECI KATL 061750Z 29011G15KT 10SM SCT015 SCT050 20/16 A3002 RMK AO2=
201411061702 SPECI KATL 061702Z 28009KT 9SM BKN010 BKN015 OVC040 18/16 A3005 RMK AO2=
201411061652 METAR KATL 061652Z 27007KT 9SM BKN008 BKN012 OVC040 18/16 A3005 RMK AO2 RAE11 SLP172 P0000 T01780161=
201411061618 SPECI KATL 061618Z 24009G16KT 7SM BKN006 BKN012 OVC030 17/16 A3006 RMK AO2 RAE11 P0000=
201411061552 METAR KATL 061552Z 26007G16KT 3SM -RA BR SCT008 BKN026 OVC040 17/16 A3008 RMK AO2 SLP181 P0003 T01720156=
201411061510 SPECI KATL 061510Z 26010G15KT 3SM -RA BR BKN012 BKN030 OVC040 17/16 A3008 RMK AO2 P0000=
201411061459 SPECI KATL 061459Z 27010G17KT 4SM -RA BR SCT012 BKN027 OVC040 17/16 A3008 RMK AO2 P0000=
201411061452 METAR KATL 061452Z 26011G17KT 5SM -RA BR SCT012 BKN045 OVC055 17/15 A3008 RMK AO2 RAB38 SLP183 P0000 60000 T01720150 50001=
201411061443 SPECI KATL 061443Z 26011G19KT 4SM -RA SCT010 BKN045 OVC055 18/15 A3008 RMK AO2 RAB38 P0000=
201411061352 METAR KATL 061352Z 27011KT 10SM BKN040 BKN070 OVC120 18/14 A3009 RMK AO2 SLP186 SHRA SW-NW-NE T01830139=
201411061252 METAR KATL 061252Z 24009KT 10SM SCT047 BKN075 BKN120 OVC200 17/13 A3008 RMK AO2 RAB33E43 SLP182 P0000 T01720133=
201411061152 METAR KATL 061152Z 22006KT 10SM FEW070 SCT100 BKN140 OVC200 17/13 A3008 RMK AO2 RAB00E17 SLP182 P0000 60000 T01670133 10167 20150 58007=
201411061052 METAR KATL 061052Z 22006KT 10SM FEW065 BKN100 OVC140 17/13 A3009 RMK AO2 SLP186 VIRGA OHD-NE T01670133=
201411060952 METAR KATL 060952Z 22008KT 10SM SCT110 BKN140 OVC200 16/13 A3010 RMK AO2 SLP190 VIRGA NE T01610133=
201411060852 METAR KATL 060852Z 21007KT 10SM FEW100 OVC140 16/13 A3010 RMK AO2 SLP188 VIRGA OHD-ALQDS T01610133 56025=
201411060752 METAR KATL 060752Z 20004KT 10SM FEW110 OVC150 16/13 A3012 RMK AO2 SLP195 VIRGA NW-NE T01560133=
201411060652 METAR KATL 060652Z 00000KT 10SM FEW110 BKN150 OVC200 16/13 A3015 RMK AO2 SLP205 T01560128=
201411060552 METAR KATL 060552Z 24003KT 10SM FEW120 BKN150 OVC200 16/13 A3017 RMK AO2 SLP213 T01610133 10178 20156 56015=
201411060452 METAR KATL 060452Z 19003KT 10SM FEW040 SCT120 OVC150 16/13 A3018 RMK AO2 SLP215 T01610133 402060106=
201411060352 METAR KATL 060352Z 00000KT 10SM FEW040 BKN120 OVC150 16/13 A3020 RMK AO2 SLP222 VIRGA OHD-ALQDS T01610128=
201411060252 METAR KATL 060252Z 22004KT 10SM SCT038 BKN110 OVC150 17/13 A3022 RMK AO2 SLP231 VIRGA NE-OHD-SW T01670128 53000=
201411060152 METAR KATL 060152Z 18003KT 10SM FEW050 BKN110 OVC150 17/13 A3021 RMK AO2 SLP229 VIRGA OHD-SW T01670128=
201411060052 METAR KATL 060052Z 18003KT 10SM BKN150 OVC200 17/13 A3022 RMK AO2 SLP230 T01720128=
201411052352 METAR KATL 052352Z 00000KT 10SM BKN150 OVC200 18/13 A3022 RMK AO2 SLP231 T01780128 10206 20178 53001=
201411052252 METAR KATL 052252Z 28003KT 10SM BKN150 OVC200 18/13 A3021 RMK AO2 SLP229 VIRGA DSNT NW-N T01830128=
201411052152 METAR KATL 052152Z 27003KT 10SM FEW030 BKN160 OVC200 19/13 A3022 RMK AO2 SLP230 VIRGA OHD & ALQDS T01940128=
201411052052 METAR KATL 052052Z 24004KT 10SM FEW038 BKN150 OVC180 20/12 A3022 RMK AO2 SLP230 VIRGA E-SE-S-SW T02000122 55009=
201411051952 METAR KATL 051952Z 19006KT 10SM FEW034 BKN150 OVC180 20/12 A3020 RMK AO2 SLP224 VIRGA OHD & ALQDS T02000122=
201411051852 METAR KATL 051852Z 23009KT 10SM FEW040 BKN150 OVC180 21/12 A3022 RMK AO2 SLP230 VIRGA DSNT S-SW T02060117=
201411051752 METAR KATL 051752Z 19008KT 10SM FEW040 BKN150 OVC200 21/12 A3024 RMK AO2 SLP239 T02060117 10206 20111 58020=
201411051652 METAR KATL 051652Z 19006KT 10SM FEW100 SCT150 BKN200 OVC250 20/11 A3028 RMK AO2 SLP250 VIRGA DSNT NW-N T02000111=
201411051552 METAR KATL 051552Z VRB06KT 10SM FEW150 BKN200 OVC250 18/11 A3029 RMK AO2 SLP256 VIRGA DSNT NW-N T01830106=
201411051452 METAR KATL 051452Z 21005KT 10SM FEW100 SCT150 BKN200 OVC250 16/09 A3030 RMK AO2 SLP260 VIRGA DSNT NW T01560094 51012=
201411051352 METAR KATL 051352Z 00000KT 10SM FEW110 SCT150 OVC200 13/08 A3030 RMK AO2 SLP258 VIRGA W-N-NE T01330083=
201411051252 METAR KATL 051252Z 00000KT 10SM FEW150 BKN200 OVC250 12/08 A3028 RMK AO2 SLP252 VIRGA W-N T01220078=
201411051152 METAR KATL 051152Z 00000KT 10SM FEW150 BKN200 OVC250 12/07 A3027 RMK AO2 SLP248 T01170072 10133 20106 53001=
201411051052 METAR KATL 051052Z 00000KT 10SM FEW150 SCT200 OVC250 11/07 A3026 RMK AO2 SLP246 T01110067=
201411050952 METAR KATL 050952Z 00000KT 10SM FEW150 BKN200 OVC250 12/06 A3026 RMK AO2 SLP246 T01170061=
201411050852 METAR KATL 050852Z 00000KT 10SM OVC200 11/06 A3027 RMK AO2 SLP247 T01110061 56005=
201411050752 METAR KATL 050752Z 00000KT 10SM BKN200 OVC250 11/06 A3027 RMK AO2 SLP247 T01110056=
201411050652 METAR KATL 050652Z 00000KT 10SM SCT200 OVC250 12/06 A3027 RMK AO2 SLP246 T01220056=
201411050552 METAR KATL 050552Z 00000KT 10SM OVC250 13/05 A3028 RMK AO2 SLP251 T01280050 10161 20122 53001=
201411050452 METAR KATL 050452Z 00000KT 10SM OVC250 13/04 A3027 RMK AO2 SLP249 T01280044 402110067=
201411050352 METAR KATL 050352Z 00000KT 10SM BKN250 13/04 A3028 RMK AO2 SLP251 T01280044=
201411050252 METAR KATL 050252Z 00000KT 10SM OVC250 13/04 A3028 RMK AO2 SLP252 T01280044 51006=
201411050152 METAR KATL 050152Z 00000KT 10SM OVC250 14/03 A3028 RMK AO2 SLP252 T01440033=
201411050052 METAR KATL 050052Z 20003KT 10SM FEW200 BKN250 14/03 A3027 RMK AO2 SLP251 T01390033=
201411042352 METAR KATL 042352Z 16003KT 10SM FEW200 BKN250 16/03 A3026 RMK AO2 SLP248 T01560028 10211 20156 55001=
201411042252 METAR KATL 042252Z 16004KT 10SM FEW200 BKN250 18/02 A3025 RMK AO2 SLP244 T01780022=
201411042152 SPECI KATL 042152Z 18004KT 10SM FEW200 BKN250 BKN300 19/02 A3025 RMK AO2 SLP244 T01890017=
201411042152 METAR KATL 042152Z 18004KT 10SM FEW200 BKN250 BKN300 19/02 A3025 RMK AO2 SLP244 T01890017=
201411042052 METAR KATL 042052Z 19008KT 10SM FEW180 BKN250 BKN300 20/00 A3026 RMK AO2 SLP246 T02000000 56016=
201411041952 METAR KATL 041952Z 16008KT 10SM FEW200 BKN250 BKN300 21/M02 A3027 RMK AO2 SLP250 T02061017=
201411041852 METAR KATL 041852Z VRB04KT 10SM FEW200 BKN250 BKN300 20/M02 A3029 RMK AO2 SLP255 T02001017=
201411041752 METAR KATL 041752Z VRB03KT 10SM FEW200 SCT250 BKN300 19/M01 A3031 RMK AO2 SLP262 T01941011 10194 20072 58024=
201411041652 METAR KATL 041652Z VRB05KT 10SM FEW200 SCT250 18/M01 A3035 RMK AO2 SLP276 T01831011=
201411041552 METAR KATL 041552Z 22009KT 10SM FEW200 SCT250 16/M02 A3038 RMK AO2 SLP286 T01611022=
201411041452 METAR KATL 041452Z 22007KT 10SM FEW200 BKN250 14/M02 A3038 RMK AO2 SLP289 T01391017 50008=
201411041352 METAR KATL 041352Z 21004KT 10SM BKN230 11/M01 A3039 RMK AO2 SLP290 T01111011=
201411041252 METAR KATL 041252Z 00000KT 10SM BKN230 08/02 A3036 RMK AO2 SLP282 T00830017=
201411041152 METAR KATL 041152Z 00000KT 10SM BKN230 07/01 A3036 RMK AO2 SLP282 T00720006 10106 20067 51008=
201411041052 METAR KATL 041052Z 00000KT 10SM OVC230 08/01 A3036 RMK AO2 SLP280 T00780006=
201411040952 METAR KATL 040952Z 00000KT 10SM OVC230 08/01 A3034 RMK AO2 SLP275 T00830006=
201411040852 METAR KATL 040852Z 00000KT 10SM OVC230 08/M02 A3034 RMK AO2 SLP272 T00831017 58009=
201411040752 METAR KATL 040752Z 23003KT 10SM OVC250 09/M02 A3036 RMK AO2 SLP278 T00891022=
201411040652 METAR KATL 040652Z 22004KT 10SM OVC250 09/M01 A3036 RMK AO2 SLP281 T00941011=
201411040552 METAR KATL 040552Z 00000KT 10SM BKN250 10/M02 A3036 RMK AO2 SLP282 T01001022 10139 20100 58002=
201411040452 METAR KATL 040452Z 20003KT 10SM BKN250 11/M02 A3038 RMK AO2 SLP290 T01061017 401940028=
201411040352 METAR KATL 040352Z 24003KT 10SM BKN250 10/M01 A3039 RMK AO2 SLP290 T01001011=
201411040252 METAR KATL 040252Z 14003KT 10SM BKN250 11/M01 A3037 RMK AO2 SLP286 T01111006 58003=
201411040152 METAR KATL 040152Z 16003KT 10SM SCT250 13/M02 A3038 RMK AO2 SLP290 T01281017=
201411040052 METAR KATL 040052Z 16003KT 10SM FEW250 13/M02 A3038 RMK AO2 SLP290 T01331022=
201411032352 METAR KATL 032352Z 19003KT 10SM FEW250 14/M01 A3038 RMK AO2 SLP290 T01391011 10194 20133 53003=
201411032252 METAR KATL 032252Z 15003KT 10SM FEW250 17/M03 A3037 RMK AO2 SLP286 T01671028=
201411032152 METAR KATL 032152Z 00000KT 10SM FEW250 18/M05 A3036 RMK AO2 SLP284 T01831050=
201411032052 METAR KATL 032052Z 00000KT 10SM FEW250 19/M06 A3037 RMK AO2 SLP285 T01891061 56015=
201411031952 METAR KATL 031952Z 15003KT 10SM CLR 18/M06 A3037 RMK AO2 SLP287 T01831061=
201411031852 METAR KATL 031852Z 14005KT 10SM FEW250 18/M04 A3039 RMK AO2 SLP292 T01781039=
201411031752 METAR KATL 031752Z VRB03KT 10SM CLR 17/M03 A3041 RMK AO2 SLP301 T01671033 10167 20039 58017=
201411031652 METAR KATL 031652Z 14004KT 10SM CLR 15/M03 A3045 RMK AO2 SLP314 T01501033=
201411031552 METAR KATL 031552Z 11005KT 10SM FEW250 14/M04 A3046 RMK AO2 SLP319 T01391044=
201411031452 METAR KATL 031452Z 12008KT 10SM FEW250 11/M03 A3047 RMK AO2 SLP321 T01111033 51019 $=
201411031352 METAR KATL 031352Z 15003KT 10SM FEW250 09/M03 A3046 RMK AO2 SLP321 T00891028=
201411031252 METAR KATL 031252Z 10004KT 10SM FEW100 06/M02 A3043 RMK AO2 SLP311 T00561017=
201411031152 METAR KATL 031152Z COR 08004KT 10SM FEW100 04/M03 A3041 RMK AO2 SLP303 T00441028 10056 20028 53017=
201411031052 METAR KATL 031052Z 00000KT 10SM CLR 03/M02 A3039 RMK AO2 SLP297 T00281022 $=
201411030952 METAR KATL 030952Z 05004KT 10SM CLR 05/M03 A3037 RMK AO2 SLP288 T00501028 $=
201411030852 METAR KATL 030852Z 05003KT 10SM CLR 03/M02 A3036 RMK AO2 SLP283 T00281022 53002 $=
201411030752 METAR KATL 030752Z 35004KT 10SM CLR 03/M03 A3036 RMK AO2 SLP283 T00281028 $=
201411030652 METAR KATL 030652Z 35003KT 10SM CLR 05/M04 A3035 RMK AO2 SLP279 T00501039 $=
201411030552 METAR KATL 030552Z 34004KT 10SM CLR 04/M03 A3035 RMK AO2 SLP281 T00391033 10089 20039 58000 $=
201411030452 METAR KATL 030452Z 00000KT 10SM CLR 05/M03 A3036 RMK AO2 SLP284 T00501028 401440011 $=
201411030352 METAR KATL 030352Z 31005KT 10SM CLR 05/M03 A3036 RMK AO2 SLP284 T00501028 $=
201411030252 METAR KATL 030252Z 33006KT 10SM CLR 06/M03 A3035 RMK AO2 SLP283 T00611033 52005 $=
201411030152 METAR KATL 030152Z 32006KT 10SM FEW250 07/M03 A3035 RMK AO2 SLP281 T00671033 $=
201411030052 METAR KATL 030052Z 32006KT 10SM FEW250 08/M03 A3034 RMK AO2 SLP281 T00781033 $=
201411022352 METAR KATL 022352Z 32007KT 10SM FEW250 09/M03 A3034 RMK AO2 SLP279 T00891033 10144 20089 53007 $=
201411022252 METAR KATL 022252Z 32006KT 10SM FEW250 11/M03 A3033 RMK AO2 SLP275 T01061033 $=
201411022152 METAR KATL 022152Z 31008KT 10SM FEW250 13/M04 A3032 RMK AO2 SLP273 T01281044 $=
201411022052 METAR KATL 022052Z 32009KT 10SM FEW250 13/M04 A3032 RMK AO2 SLP270 T01331039 55006 $=
201411021952 METAR KATL 021952Z 31007KT 10SM CLR 14/M04 A3031 RMK AO2 SLP268 T01391039 $=
201411021852 METAR KATL 021852Z 33009KT 10SM CLR 14/M04 A3031 RMK AO2 SLP268 T01391044 $=
201411021752 METAR KATL 021752Z 02007G17KT 10SM CLR 13/M06 A3033 RMK AO2 SLP277 T01281061 10128 20011 58006 $=
201411021652 METAR KATL 021652Z 36006KT 10SM CLR 11/M04 A3036 RMK AO2 SLP283 T01111044 $=
201411021552 METAR KATL 021552Z 36010KT 10SM CLR 09/M05 A3036 RMK AO2 SLP284 T00941050 $=
201411021452 METAR KATL 021452Z 34016G22KT 10SM CLR 07/M04 A3035 RMK AO2 SLP284 T00671039 51022 $=
201411021352 METAR KATL 021352Z 34014G20KT 10SM CLR 04/M03 A3034 RMK AO2 SLP281 T00391033 $=
201411021252 METAR KATL 021252Z 34015G21KT 10SM CLR 02/M03 A3031 RMK AO2 SLP273 T00171033 $=
201411021152 METAR KATL 021152Z 33013G21KT 10SM CLR 01/M03 A3028 RMK AO2 SLP262 T00111033 10033 20011 53014 $=
201411021052 METAR KATL 021052Z 32017KT 10SM CLR 01/M03 A3027 RMK AO2 SLP257 T00111028 $=
201411020952 METAR KATL 020952Z 33014KT 10SM CLR 02/M02 A3026 RMK AO2 SLP251 T00171022 $=
201411020852 METAR KATL 020852Z 32016KT 10SM CLR 02/M02 A3024 RMK AO2 SLP247 T00221017 53001 $=
201411020752 METAR KATL 020752Z 32014KT 10SM CLR 03/M01 A3024 RMK AO2 SLP244 T00281011 $=
201411020652 METAR KATL 020652Z 32011KT 10SM CLR 03/M02 A3023 RMK AO2 SLP242 T00281017 $=
201411020552 METAR KATL 020552Z 32009KT 10SM CLR 03/M01 A3024 RMK AO2 SLP246 T00281011 10056 20028 51001 $=
201411020452 METAR KATL 020452Z 33015KT 10SM FEW022 04/M01 A3024 RMK AO2 SLP244 T00391011 400830033 $=
201411020421 SPECI KATL 020421Z 34011KT 10SM SCT022 04/M01 A3024 RMK AO2 $=
201411020352 METAR KATL 020352Z 34013G18KT 10SM BKN022 04/M01 A3025 RMK AO2 SLP248 T00441006 $=
201411020328 SPECI KATL 020328Z 33015G23KT 10SM SCT024 04/M01 A3024 RMK AO2 $=
201411020252 METAR KATL 020252Z 34013G22KT 10SM BKN024 05/M01 A3024 RMK AO2 PK WND 35027/0218 SLP244 T00501006 51015 $=
201411020152 METAR KATL 020152Z 34010G17KT 10SM BKN026 06/M01 A3023 RMK AO2 SLP240 T00561006 $=
201411020052 METAR KATL 020052Z 34014G21KT 10SM BKN028 06/M01 A3021 RMK AO2 SLP234 T00561006 $=
201411020016 SPECI KATL 020016Z 34013KT 10SM BKN028 06/M01 A3020 RMK AO2 $=
201411012352 METAR KATL 012352Z 35011G23KT 10SM BKN030 06/M01 A3019 RMK AO2 SLP229 T00561006 10083 20056 51021 $=
201411012252 METAR KATL 012252Z 34014G20KT 10SM BKN030 06/M01 A3017 RMK AO2 SLP222 T00611006 $=
201411012152 METAR KATL 012152Z 33014G22KT 10SM BKN030 07/M01 A3016 RMK AO2 PK WND 34030/2055 SLP216 T00671006 $=
201411012052 METAR KATL 012052Z 34018G27KT 10SM BKN032 07/M01 A3013 RMK AO2 PK WND 34030/2034 SLP206 T00721006 53018 $=
201411011952 METAR KATL 011952Z 34021KT 10SM OVC032 08/M01 A3010 RMK AO2 PK WND 32030/1936 SLP197 T00781006 $=
201411011852 METAR KATL 011852Z 33019G31KT 10SM BKN032 07/M01 A3008 RMK AO2 PK WND 32036/1815 SLP191 T00721011 $=
201411011752 METAR KATL 011752Z 33018G33KT 10SM BKN030 OVC034 07/M01 A3007 RMK AO2 PK WND 32038/1655 SLP188 T00721011 10072 20044 51016 $=
201411011730 SPECI KATL 011730Z 32024G29KT 10SM BKN028 OVC034 07/M01 A3007 RMK AO2 PK WND 32038/1655 $=
201411011652 METAR KATL 011652Z 34023G33KT 10SM OVC032 07/M01 A3007 RMK AO2 PK WND 32039/1602 SLP187 BINOVC T00671011 $=
201411011552 METAR KATL 011552Z 33024G33KT 10SM BKN032 07/M02 A3005 RMK AO2 PK WND 32037/1456 SLP180 T00671017 $=
201411011514 SPECI KATL 011514Z 33020G36KT 10SM OVC030 06/M02 A3003 RMK AO2 PK WND 32037/1456 $=
201411011459 SPECI KATL 011459Z 34020G37KT 10SM OVC028 06/M02 A3003 RMK AO2 PK WND 32037/1456 $=
201411011452 METAR KATL 011452Z COR 33025G35KT 10SM OVC030 06/M02 A3003 RMK AO2 PK WND 33035/1452 SLP172 BINOVC T00561022 51026 $=
201411011352 METAR KATL 011352Z 34021G35KT 10SM OVC030 05/M02 A3001 RMK AO2 PK WND 34039/1303 SLP164 BINOVC T00501022 $=
201411011252 METAR KATL 011252Z 33021G32KT 10SM OVC030 04/M03 A2997 RMK AO2 PK WND 31039/1203 SLP152 BINOVC T00441028 $=
