##########################################################
# Query made at 04/19/2024 23:40:03 UTC
# Time interval: from 09/01/2014 12:00  to 09/30/2014 12:59  UTC
##########################################################

##########################################################
# KATL, Atlanta, Hartsfield - Jackson Atlanta International Airport (United States)
# WMO index: 72219. WIGOS ID: 0-20000-0-72219
# Latitude 33-38-59N. Longitude 084-25-00W. Altitude 312 m.
##########################################################

201409301259 SPECI KATL 301259Z 08007KT 10SM FEW009 SCT022 20/17 A2998 RMK AO2=
201409301252 METAR KATL 301252Z 07006KT 10SM FEW009 BKN022 20/17 A2999 RMK AO2 SLP147 T02000172=
201409301152 METAR KATL 301152Z 07004KT 8SM FEW007 BKN022 19/17 A2997 RMK AO2 SLP143 60000 70008 T01890172 10200 20189 53009=
201409301052 METAR KATL 301052Z 08005KT 9SM FEW008 OVC020 19/17 A2996 RMK AO2 SLP138 BINOVC T01890172=
201409301000 SPECI KATL 301000Z 07004KT 8SM SCT008 BKN018 OVC023 19/17 A2995 RMK AO2 BINOVC=
201409300952 METAR KATL 300952Z 06005KT 6SM BR BKN008 BKN018 OVC032 19/17 A2995 RMK AO2 SLP135 CIG 006V010 T01890172=
201409300856 SPECI KATL 300856Z 07005KT 6SM BR BKN008 BKN013 OVC032 19/18 A2994 RMK AO2 CIG 006V010=
201409300852 METAR KATL 300852Z 07005KT 6SM BR SCT006 BKN010 OVC032 19/18 A2994 RMK AO2 SLP133 60000 T01890178 55004=
201409300752 METAR KATL 300752Z 07006KT 8SM SCT006 OVC012 19/18 A2994 RMK AO2 DZE36 SLP133 P0000 T01940178=
201409300736 SPECI KATL 300736Z 06008KT 8SM SCT006 BKN010 OVC014 19/18 A2994 RMK AO2 DZE36 P0000=
201409300652 METAR KATL 300652Z 05008KT 5SM -DZ BR BKN006 BKN012 OVC034 19/18 A2995 RMK AO2 DZB51 SLP136 CIG 005V008 P0000 T01940183=
201409300552 METAR KATL 300552Z 06006KT 7SM BKN006 OVC034 20/18 A2995 RMK AO2 DZE12 SLP137 P0000 60000 T02000183 10200 20194 56009=
201409300512 SPECI KATL 300512Z 05006KT 10SM BKN006 OVC034 20/18 A2996 RMK AO2 DZE12 P0000=
201409300452 METAR KATL 300452Z 06006KT 10SM -DZ SCT006 BKN024 OVC035 20/18 A2996 RMK AO2 DZB51 SLP140 P0000 T02000183 402170194=
201409300352 METAR KATL 300352Z 07006KT 10SM FEW006 BKN015 OVC030 20/18 A2997 RMK AO2 SLP143 T02000178=
201409300252 METAR KATL 300252Z 07006KT 10SM FEW005 BKN008 OVC018 20/18 A2998 RMK AO2 SLP146 T02000183 50007=
201409300209 SPECI KATL 300209Z 08009KT 10SM SCT006 OVC012 20/18 A2999 RMK AO2=
201409300152 METAR KATL 300152Z 08010KT 10SM BKN006 OVC012 19/18 A2999 RMK AO2 SLP148 BINOVC T01940183=
201409300103 SPECI KATL 300103Z 09006KT 10SM BKN006 OVC010 19/18 A2997 RMK AO2 BINOVC=
201409300052 METAR KATL 300052Z 10003KT 10SM SCT006 BKN010 BKN070 19/18 A2997 RMK AO2 SLP142 T01940178=
201409292352 METAR KATL 292352Z 11008KT 10SM FEW006 SCT025 BKN070 20/18 A2996 RMK AO2 SLP139 60000 T02000183 10217 20200 56003=
201409292314 SPECI KATL 292314Z 08007KT 10SM SCT007 BKN025 BKN060 20/18 A2996 RMK AO2=
201409292252 METAR KATL 292252Z 09006KT 10SM FEW006 BKN050 BKN065 20/18 A2996 RMK AO2 RAE33 SLP140 P0000 T02000183=
201409292152 METAR KATL 292152Z 04010KT 9SM -RA SCT008 BKN032 OVC045 21/18 A2996 RMK AO2 SLP140 P0000 T02060183=
201409292117 SPECI KATL 292117Z 03009KT 7SM -RA SCT008 BKN028 OVC040 21/18 A2997 RMK AO2 P0000=
201409292059 SPECI KATL 292059Z 04008KT 4SM -RA BR SCT008 BKN014 OVC019 21/19 A2997 RMK AO2 P0000=
201409292052 METAR KATL 292052Z 04008G16KT 4SM -RA BR SCT010 BKN017 OVC028 21/19 A2997 RMK AO2 RAB15DZB40E52 SLP142 P0000 60000 T02110189 56010=
201409292037 SPECI KATL 292037Z 01008KT 4SM -RA BR BKN010 BKN017 OVC020 21/19 A2997 RMK AO2 RAB15 P0000=
201409291952 METAR KATL 291952Z 03009KT 6SM HZ FEW008 BKN010 OVC020 21/18 A2997 RMK AO2 DZE37 SLP143 P0000 T02110183=
201409291938 SPECI KATL 291938Z 36008KT 6SM BR BKN010 BKN015 OVC020 21/19 A2997 RMK AO2 DZE37 P0000=
201409291852 METAR KATL 291852Z 36009KT 3SM -DZ BR BKN008 BKN015 OVC020 21/19 A2998 RMK AO2 SFC VIS 4 SLP146 P0000 T02060189=
201409291755 SPECI KATL 291755Z 03005KT 2SM -DZ BR BKN008 BKN013 OVC020 21/19 A3000 RMK AO2 SFC VIS 4 P0000=
201409291752 METAR KATL 291752Z 06005KT 2SM -DZ BR BKN010 BKN013 OVC020 21/19 A3000 RMK AO2 SFC VIS 3 SLP153 P0000 60008 T02060189 10211 20200 58011=
201409291708 SPECI KATL 291708Z 04007KT 2SM -DZ BR BKN010 BKN013 OVC020 21/19 A3002 RMK AO2 SFC VIS 3 P0000=
201409291652 METAR KATL 291652Z 04007KT 6SM -DZ BR BKN010 BKN012 OVC020 21/18 A3002 RMK AO2 RAB03E39DZB50 SLP159 P0008 T02060183=
201409291603 SPECI KATL 291603Z 08005KT 4SM -RA BR BKN010 BKN015 OVC020 21/18 A3003 RMK AO2 RAB03 P0000=
201409291552 METAR KATL 291552Z 06005KT 8SM BKN010 BKN015 OVC020 21/18 A3003 RMK AO2 SLP161 T02110183=
201409291452 METAR KATL 291452Z 06007KT 8SM BKN012 BKN015 OVC020 21/18 A3004 RMK AO2 RAB19E30 SLP165 VIS LWR N-NE SHRA P0000 60000 T02060178 51003=
201409291423 SPECI KATL 291423Z 08008KT 7SM -RA BKN012 BKN015 OVC020 21/18 A3003 RMK AO2 RAB19 P0000=
201409291400 SPECI KATL 291400Z VRB06KT 10SM FEW010 BKN013 OVC020 21/18 A3004 RMK AO2=
201409291352 METAR KATL 291352Z 05007KT 10SM FEW010 BKN015 OVC020 21/18 A3004 RMK AO2 DZE49 SLP165 P0000 T02060178=
201409291252 METAR KATL 291252Z 08008KT 3SM -DZ BR FEW009 OVC015 20/18 A3003 RMK AO2 SFC VIS 6 RAB31E52DZB52 SLP162 P0000 T02000178=
201409291231 SPECI KATL 291231Z 08007KT 3SM -RA OVC015 20/17 A3004 RMK AO2 SFC VIS 6 RAB31 P0000=
201409291152 METAR KATL 291152Z 08007KT 9SM BKN014 OVC023 20/17 A3003 RMK AO2 SLP161 60000 70001 T02000172 10200 20200 53001=
201409291052 METAR KATL 291052Z 08009KT 10SM BKN013 OVC024 20/17 A3002 RMK AO2 SLP158 T02000172=
201409290952 METAR KATL 290952Z 06007KT 10SM BKN013 OVC024 20/17 A3002 RMK AO2 SLP158 T02000172 $=
201409290926 SPECI KATL 290926Z 07008KT 10SM BKN013 BKN028 OVC075 20/17 A3002 RMK AO2 $=
201409290852 METAR KATL 290852Z 07008KT 10SM FEW013 OVC024 20/18 A3002 RMK AO2 RAB32E51 SLP160 P0000 60000 T02000178 56009 $=
201409290752 METAR KATL 290752Z 07007KT 10SM BKN024 OVC075 20/18 A3003 RMK AO2 SLP161 T02000178 $=
201409290716 SPECI KATL 290716Z 07007KT 10SM BKN024 OVC080 20/18 A3004 RMK AO2 $=
201409290704 SPECI KATL 290704Z 06008KT 10SM SCT024 SCT029 OVC080 20/18 A3004 RMK AO2 $=
201409290652 METAR KATL 290652Z 06009KT 10SM BKN024 OVC080 20/18 A3004 RMK AO2 SLP165 T02000178 $=
201409290632 SPECI KATL 290632Z 06006KT 10SM BKN024 OVC070 20/18 A3005 RMK AO2 $=
201409290552 METAR KATL 290552Z 06007KT 10SM SCT025 BKN065 OVC080 20/18 A3005 RMK AO2 SLP169 60001 T02000183 10228 20200 58010 $=
201409290550 SPECI KATL 290550Z 06007KT 10SM SCT025 BKN065 OVC085 20/18 A3005 RMK AO2 $=
201409290540 SPECI KATL 290540Z 07006KT 10SM BKN025 BKN065 OVC120 20/18 A3006 RMK AO2 $=
201409290452 METAR KATL 290452Z 09006KT 10SM FEW028 BKN060 OVC120 20/18 A3007 RMK AO2 SLP176 T02000183 402330189 $=
201409290425 SPECI KATL 290425Z 08006KT 10SM SCT028 OVC065 20/18 A3008 RMK AO2 $=
201409290352 METAR KATL 290352Z 10006KT 10SM BKN025 BKN070 OVC120 21/18 A3008 RMK AO2 RAB20E48 SLP180 P0000 T02060183 $=
201409290252 METAR KATL 290252Z 09007KT 10SM SCT026 BKN075 BKN120 OVC200 21/19 A3008 RMK AO2 RAE33 SLP180 P0000 60001 T02060189 50001 $=
201409290224 SPECI KATL 290224Z 09006KT 10SM -RA BKN026 BKN070 BKN120 OVC200 21/19 A3008 RMK AO2 P0000 $=
201409290152 METAR KATL 290152Z 08008KT 9SM -RA FEW026 BKN075 OVC120 21/19 A3009 RMK AO2 SLP182 P0001 T02060189 $=
201409290127 SPECI KATL 290127Z 10004KT 9SM -RA SCT026 BKN070 OVC110 21/19 A3009 RMK AO2 P0000 $=
201409290052 METAR KATL 290052Z 09008KT 10SM -RA OVC024 22/19 A3008 RMK AO2 RAB19 SLP181 P0000 T02170189 $=
201409282352 METAR KATL 282352Z 06006KT 10SM OVC022 23/18 A3008 RMK AO2 SLP178 60000 T02280183 10233 20217 55002 $=
201409282252 METAR KATL 282252Z 06007KT 10SM BKN022 BKN065 OVC140 23/18 A3007 RMK AO2 SLP177 VIRGA OHD-ALQDS T02280183 $=
201409282204 SPECI KATL 282204Z 05008KT 10SM BKN022 BKN070 OVC150 23/18 A3008 RMK AO2 VIRGA OHD-ALQDS $=
201409282152 METAR KATL 282152Z 05007KT 10SM SCT022 BKN070 OVC150 23/18 A3008 RMK AO2 SLP178 VIRGA OHD-ALQDS T02330183 $=
201409282052 METAR KATL 282052Z 05008KT 10SM SCT018 OVC080 23/18 A3009 RMK AO2 SLP181 60000 T02280183 56018 $=
201409281952 METAR KATL 281952Z 08007KT 10SM OVC019 23/18 A3010 RMK AO2 SLP187 T02280183 $=
201409281933 SPECI KATL 281933Z 08007KT 10SM OVC016 22/18 A3011 RMK AO2 $=
201409281852 METAR KATL 281852Z 06008KT 10SM OVC014 22/18 A3012 RMK AO2 DZE1758 SLP192 P0000 T02220183 $=
201409281807 SPECI KATL 281807Z 10007KT 7SM BKN010 OVC015 22/18 A3014 RMK AO2 DZE1758 P0000 $=
201409281752 METAR KATL 281752Z 10007KT 2 1/2SM -DZ OVC013 22/19 A3014 RMK AO2 SFC VIS 5 DZE08B32 SLP201 P0000 60000 T02170189 10217 20189 58007 $=
201409281741 SPECI KATL 281741Z 08008KT 020V100 2 1/2SM -DZ OVC011 21/19 A3015 RMK AO2 SFC VIS 4 DZE08B32 P0000 $=
201409281652 METAR KATL 281652Z 08007KT 040V100 4SM -DZ OVC011 21/18 A3016 RMK AO2 DZB25 SLP208 P0000 T02110178 $=
201409281552 METAR KATL 281552Z 09007KT 10SM BKN013 OVC018 21/17 A3016 RMK AO2 DZE11 SLP209 P0000 T02110172 $=
201409281518 SPECI KATL 281518Z 08010KT 7SM SCT008 OVC017 21/17 A3016 RMK AO2 DZE11 P0000 $=
201409281500 SPECI KATL 281500Z 09010KT 7SM -DZ BKN008 OVC017 20/17 A3017 RMK AO2 P0000 $=
201409281452 METAR KATL 281452Z 09011KT 2SM -DZ BR BKN007 OVC018 19/18 A3017 RMK AO2 SFC VIS 5 SLP209 P0000 60000 T01940178 50003 $=
201409281428 SPECI KATL 281428Z 07011KT 2SM -DZ BR OVC007 19/17 A3017 RMK AO2 SFC VIS 3 P0000 $=
201409281352 METAR KATL 281352Z 08010KT 3SM -DZ BR OVC007 19/17 A3017 RMK AO2 SFC VIS 5 DZB44 SLP211 P0000 T01890167 $=
201409281252 METAR KATL 281252Z 06012KT 7SM BKN007 OVC012 19/17 A3017 RMK AO2 SLP208 T01890167 $=
201409281214 SPECI KATL 281214Z 07011KT 10SM BKN009 OVC013 19/17 A3016 RMK AO2 $=
201409281152 METAR KATL 281152Z 07010KT 10SM OVC013 19/16 A3016 RMK AO2 SLP205 T01890161 10200 20189 53006 $=
201409281114 SPECI KATL 281114Z 09009KT 10SM OVC015 19/16 A3015 RMK AO2 $=
201409281052 METAR KATL 281052Z 09009KT 10SM OVC013 19/16 A3014 RMK AO2 SLP200 T01940161 $=
201409281046 SPECI KATL 281046Z 08010KT 10SM OVC013 19/16 A3014 RMK AO2 $=
201409280952 METAR KATL 280952Z 08011KT 10SM BKN017 OVC030 19/16 A3013 RMK AO2 SLP196 T01940156 $=
201409280940 SPECI KATL 280940Z 09010KT 10SM BKN017 OVC030 19/16 A3013 RMK AO2 $=
201409280852 METAR KATL 280852Z 08008KT 10SM FEW028 SCT038 BKN075 OVC250 19/16 A3014 RMK AO2 SLP198 T01940156 58002 $=
201409280752 METAR KATL 280752Z 09007KT 10SM BKN045 BKN075 OVC250 19/16 A3014 RMK AO2 SLP199 T01940156 $=
201409280652 METAR KATL 280652Z 08009KT 10SM FEW038 BKN070 OVC250 20/16 A3015 RMK AO2 SLP201 T02000156 $=
201409280552 METAR KATL 280552Z 08006KT 10SM FEW038 SCT200 BKN250 19/16 A3015 RMK AO2 SLP201 T01940161 10228 20194 58004 $=
201409280452 METAR KATL 280452Z 09006KT 10SM FEW038 BKN200 OVC250 19/16 A3015 RMK AO2 SLP204 T01940161 402560183 $=
201409280352 METAR KATL 280352Z 08006KT 10SM FEW040 SCT065 OVC200 20/16 A3016 RMK AO2 SLP206 T02000161 $=
201409280252 METAR KATL 280252Z 08009KT 10SM FEW042 BKN200 OVC250 21/16 A3016 RMK AO2 SLP206 T02110161 53012 $=
201409280152 METAR KATL 280152Z 08008KT 10SM BKN040 BKN200 BKN250 22/16 A3014 RMK AO2 SLP201 T02170161 $=
201409280052 METAR KATL 280052Z 07010KT 10SM BKN036 BKN200 BKN250 23/16 A3013 RMK AO2 SLP197 T02280161=
201409272352 METAR KATL 272352Z 10006KT 10SM SCT034 BKN200 BKN250 23/17 A3012 RMK AO2 SLP193 T02280167 10256 20228 55001=
201409272252 METAR KATL 272252Z 11004KT 10SM FEW034 SCT055 BKN200 BKN250 24/16 A3011 RMK AO2 SLP190 T02390156=
201409272152 METAR KATL 272152Z 11006KT 10SM FEW036 SCT060 BKN200 26/16 A3012 RMK AO2 SLP191 T02560161=
201409272052 METAR KATL 272052Z VRB04KT 10SM SCT038 SCT060 BKN200 24/16 A3012 RMK AO2 SLP194 T02440161 56015=
201409271952 METAR KATL 271952Z 00000KT 10SM SCT034 BKN060 BKN200 25/16 A3014 RMK AO2 SLP198 T02500161=
201409271852 METAR KATL 271852Z 07007KT 10SM FEW030 BKN040 BKN055 BKN250 24/16 A3015 RMK AO2 SLP203 T02390156=
201409271752 METAR KATL 271752Z 08010KT 10SM SCT028 BKN045 BKN250 23/16 A3017 RMK AO2 SLP210 T02280156 10244 20189 58007=
201409271652 METAR KATL 271652Z 07010KT 10SM SCT023 BKN033 BKN050 23/16 A3019 RMK AO2 SLP215 T02280156=
201409271642 SPECI KATL 271642Z VRB05KT 10SM SCT022 BKN042 BKN050 23/16 A3019 RMK AO2=
201409271627 SPECI KATL 271627Z 10007KT 10SM BKN022 BKN032 BKN050 22/16 A3019 RMK AO2=
201409271604 SPECI KATL 271604Z 10006KT 10SM SCT020 BKN036 BKN045 22/16 A3019 RMK AO2=
201409271552 METAR KATL 271552Z 09011G16KT 10SM SCT018 BKN026 BKN045 22/16 A3019 RMK AO2 SLP216 T02170156=
201409271452 METAR KATL 271452Z 09012KT 10SM SCT016 BKN021 OVC037 21/16 A3019 RMK AO2 SLP218 T02060161 50005=
201409271352 METAR KATL 271352Z 09011KT 10SM FEW015 BKN024 OVC050 21/17 A3019 RMK AO2 SLP219 BINOVC T02060167=
201409271313 SPECI KATL 271313Z 08011KT 10SM SCT013 BKN025 OVC035 19/17 A3019 RMK AO2=
201409271252 METAR KATL 271252Z 08010KT 10SM BKN013 BKN025 OVC055 19/17 A3019 RMK AO2 SLP216 T01940167=
201409271152 METAR KATL 271152Z 08010KT 10SM FEW012 BKN017 OVC025 19/17 A3017 RMK AO2 SLP212 60000 T01890167 10194 20183 53005=
201409271052 METAR KATL 271052Z 08008KT 10SM OVC017 19/17 A3017 RMK AO2 SLP210 CIG 014V020 T01890167=
201409270955 SPECI KATL 270955Z 10004KT 10SM SCT013 BKN023 OVC030 18/17 A3016 RMK AO2=
201409270952 METAR KATL 270952Z 09004KT 10SM FEW009 SCT016 OVC030 18/17 A3016 RMK AO2 RAB19E30 SLP206 P0000 T01830172=
201409270936 SPECI KATL 270936Z 11005KT 10SM FEW009 SCT014 OVC031 18/17 A3016 RMK AO2 RAB19E30 P0000=
201409270852 METAR KATL 270852Z 10005KT 10SM BKN012 OVC031 19/17 A3016 RMK AO2 SLP207 T01890167 55004=
201409270752 METAR KATL 270752Z 09008KT 10SM FEW009 BKN014 OVC037 19/17 A3015 RMK AO2 SLP204 CIG 012V017 T01890167=
201409270711 SPECI KATL 270711Z 09007KT 10SM FEW009 BKN014 OVC037 19/17 A3016 RMK AO2 CIG 012V017=
201409270652 METAR KATL 270652Z 10005KT 10SM FEW009 BKN015 OVC037 19/17 A3016 RMK AO2 SLP209 T01890167=
201409270648 SPECI KATL 270648Z 10006KT 10SM FEW009 BKN015 OVC037 19/17 A3016 RMK AO2=
201409270552 METAR KATL 270552Z 09007KT 10SM FEW012 BKN025 OVC036 19/17 A3017 RMK AO2 DZE21 SLP210 P0000 60000 T01940167 10217 20189 56005=
201409270452 METAR KATL 270452Z 09008KT 10SM -DZ FEW012 BKN022 OVC030 19/17 A3017 RMK AO2 DZE18B47 SLP211 P0000 T01940167 402330183=
201409270352 METAR KATL 270352Z 10008KT 9SM -DZ SCT014 BKN022 OVC030 19/17 A3018 RMK AO2 DZB51 SLP215 P0000 T01940167=
201409270252 METAR KATL 270252Z 09011KT 10SM FEW015 BKN027 OVC035 20/16 A3019 RMK AO2 SLP215 T02000161 53011=
201409270152 METAR KATL 270152Z 10008KT 10SM FEW018 BKN027 OVC035 21/16 A3018 RMK AO2 SLP213 T02060161=
201409270052 METAR KATL 270052Z 08010KT 10SM FEW020 BKN028 OVC035 22/16 A3016 RMK AO2 SLP206 BINOVC T02170161=
201409262352 METAR KATL 262352Z 09010KT 10SM FEW018 BKN026 OVC035 21/17 A3015 RMK AO2 SLP205 T02110167 10228 20211 50003=
201409262252 METAR KATL 262252Z 08009KT 10SM FEW018 BKN024 OVC030 21/17 A3016 RMK AO2 SLP206 T02110167=
201409262152 METAR KATL 262152Z 08010KT 10SM FEW020 BKN026 OVC035 22/16 A3015 RMK AO2 SLP203 BINOVC T02170161=
201409262052 METAR KATL 262052Z 08007KT 040V110 10SM BKN025 BKN035 22/17 A3015 RMK AO2 SLP202 T02220167 56013=
201409262042 SPECI KATL 262042Z 08009KT 10SM SCT022 OVC029 22/17 A3015 RMK AO2 BINOVC=
201409261952 METAR KATL 261952Z 10007KT 10SM FEW021 BKN030 BKN038 23/17 A3016 RMK AO2 SLP205 BINOVC T02280167=
201409261944 SPECI KATL 261944Z 10007KT 10SM SCT021 BKN030 OVC037 23/17 A3016 RMK AO2 BINOVC=
201409261852 METAR KATL 261852Z 09011KT 10SM OVC024 22/16 A3016 RMK AO2 SLP208 T02220161=
201409261752 METAR KATL 261752Z 09011KT 10SM OVC022 22/16 A3018 RMK AO2 SLP215 60000 T02220161 10233 20189 58005=
201409261652 METAR KATL 261652Z 07012KT 10SM BKN020 BKN050 BKN250 22/16 A3019 RMK AO2 SLP217 T02170161=
201409261552 METAR KATL 261552Z 06014G19KT 10SM BKN018 OVC050 22/16 A3019 RMK AO2 SLP218 T02170161=
201409261452 METAR KATL 261452Z 09010G20KT 10SM BKN020 BKN050 BKN250 22/16 A3020 RMK AO2 SLP219 60000 T02170161 51008=
201409261400 SPECI KATL 261400Z 06018G23KT 10SM BKN015 BKN050 BKN250 21/16 A3019 RMK AO2=
201409261352 METAR KATL 261352Z 07015G19KT 10SM BKN013 BKN050 BKN250 21/16 A3020 RMK AO2 SLP218 T02060161=
201409261252 METAR KATL 261252Z 06011KT 10SM BKN011 BKN028 BKN250 19/17 A3019 RMK AO2 DZE14 SLP216 CIG 009V013 P0000 T01940167=
201409261152 METAR KATL 261152Z 08010KT 8SM -DZ BKN011 OVC022 19/17 A3017 RMK AO2 SLP211 CIG 009V013 PCPN VRY LGT P0000 60000 T01890167 10194 20183 53010=
201409261052 METAR KATL 261052Z 06011KT 8SM -DZ BKN007 OVC014 18/17 A3016 RMK AO2 DZB18 SLP207 CIG 005V009 P0000 T01830172=
201409260952 METAR KATL 260952Z 07011KT 10SM OVC008 19/17 A3014 RMK AO2 SLP201 CIG 007V009 T01890167=
201409260852 METAR KATL 260852Z 06009KT 10SM OVC008 19/17 A3014 RMK AO2 SLP199 CIG 006V009 T01890172 56009=
201409260752 METAR KATL 260752Z 06009KT 10SM BKN008 OVC024 19/17 A3015 RMK AO2 SLP201 CIG 007V009 T01890172=
201409260655 SPECI KATL 260655Z 07009KT 10SM BKN008 BKN026 BKN050 BKN250 19/17 A3016 RMK AO2=
201409260652 METAR KATL 260652Z 06008KT 010V090 10SM BKN010 BKN038 BKN070 BKN250 19/17 A3016 RMK AO2 SLP206 T01890167=
201409260616 SPECI KATL 260616Z 07009KT 10SM BKN011 BKN045 BKN075 BKN250 19/17 A3017 RMK AO2=
201409260552 METAR KATL 260552Z 05007KT 10SM FEW018 SCT045 SCT070 BKN250 19/17 A3017 RMK AO2 SLP208 T01890167 10217 20189 58009=
201409260541 SPECI KATL 260541Z 05007KT 10SM SCT018 BKN045 BKN070 BKN250 19/17 A3017 RMK AO2=
201409260452 METAR KATL 260452Z 05007KT 10SM BKN022 BKN035 BKN250 20/17 A3018 RMK AO2 SLP212 T02000167 402500178=
201409260352 METAR KATL 260352Z 06005KT 10SM BKN035 BKN050 BKN250 21/17 A3019 RMK AO2 SLP217 T02060167=
201409260252 METAR KATL 260252Z 09007KT 10SM BKN032 BKN045 BKN250 21/16 A3019 RMK AO2 SLP219 T02060161 53011=
201409260152 METAR KATL 260152Z 06006KT 10SM FEW040 SCT065 BKN250 21/16 A3018 RMK AO2 SLP214 T02110156=
201409260052 METAR KATL 260052Z 06009KT 10SM FEW040 SCT250 21/16 A3017 RMK AO2 SLP211 T02110156=
201409252352 METAR KATL 252352Z 08007KT 10SM FEW030 SCT055 SCT250 21/16 A3016 RMK AO2 SLP207 T02110156 10250 20211 51003=
201409252252 METAR KATL 252252Z 10008KT 10SM FEW030 SCT055 BKN250 22/16 A3016 RMK AO2 SLP207 T02170156=
201409252152 METAR KATL 252152Z 08009KT 10SM SCT028 BKN035 BKN050 23/16 A3016 RMK AO2 SLP206 T02330161=
201409252052 METAR KATL 252052Z 12008KT 10SM FEW030 BKN040 BKN050 23/16 A3015 RMK AO2 SLP203 T02330161 56019=
201409251952 METAR KATL 251952Z 09007KT 040V110 10SM SCT030 BKN040 BKN060 24/16 A3016 RMK AO2 SLP205 T02390161=
201409251852 METAR KATL 251852Z 05007KT 10SM BKN030 BKN050 BKN070 23/16 A3018 RMK AO2 SLP214 T02330161=
201409251755 SPECI KATL 251755Z 06007KT 10SM BKN030 BKN040 OVC070 23/16 A3021 RMK AO2=
201409251752 METAR KATL 251752Z 05009KT 10SM BKN025 BKN030 OVC040 23/16 A3021 RMK AO2 SLP224 T02280156 10228 20178 56010=
201409251749 SPECI KATL 251749Z 07007KT 10SM BKN025 BKN032 OVC040 22/16 A3021 RMK AO2=
201409251709 SPECI KATL 251709Z 09007KT 10SM SCT025 BKN030 BKN040 22/16 A3023 RMK AO2=
201409251652 METAR KATL 251652Z 07006KT 10SM BKN025 BKN030 BKN040 22/16 A3024 RMK AO2 SLP233 T02220156=
201409251552 METAR KATL 251552Z 04009KT 10SM BKN020 BKN035 BKN250 22/16 A3024 RMK AO2 SLP234 T02170156=
201409251524 SPECI KATL 251524Z 05007KT 10SM BKN016 OVC030 21/16 A3025 RMK AO2=
201409251452 METAR KATL 251452Z 05010KT 10SM OVC012 19/16 A3025 RMK AO2 SLP239 T01940156 51005=
201409251352 METAR KATL 251352Z 05008KT 10SM OVC012 19/15 A3025 RMK AO2 SLP239 T01890150=
201409251252 METAR KATL 251252Z 05009KT 10SM OVC012 19/15 A3025 RMK AO2 SLP239 T01890150=
201409251152 METAR KATL 251152Z 04008KT 10SM OVC012 18/15 A3024 RMK AO2 SLP234 CIG 010V014 T01780150 10183 20178 53002=
201409251052 METAR KATL 251052Z 05009KT 10SM OVC014 18/15 A3024 RMK AO2 SLP232 CIG 011V017 T01780150=
201409250952 METAR KATL 250952Z 04008KT 10SM OVC014 18/14 A3023 RMK AO2 SLP230 T01780144=
201409250949 SPECI KATL 250949Z 04008KT 10SM OVC014 18/14 A3023 RMK AO2=
201409250852 METAR KATL 250852Z 06007KT 10SM OVC018 18/14 A3023 RMK AO2 SLP228 T01830139 56003=
201409250752 METAR KATL 250752Z 07007KT 10SM OVC018 18/14 A3023 RMK AO2 SLP228 T01830139=
201409250652 METAR KATL 250652Z 08008KT 10SM OVC020 18/13 A3023 RMK AO2 SLP230 T01830133=
201409250552 METAR KATL 250552Z 06010KT 10SM OVC022 18/13 A3024 RMK AO2 SLP233 BINOVC T01830128 10222 20183 57001=
201409250538 SPECI KATL 250538Z 07011KT 10SM BKN022 BKN065 18/13 A3024 RMK AO2=
201409250452 METAR KATL 250452Z 05009KT 10SM FEW025 BKN065 19/12 A3024 RMK AO2 SLP233 T01890117 402560133=
201409250352 METAR KATL 250352Z 07012KT 10SM FEW030 SCT065 19/12 A3024 RMK AO2 SLP234 T01940122=
201409250252 METAR KATL 250252Z 06008KT 10SM BKN065 20/12 A3024 RMK AO2 SLP234 T02000122 51004=
201409250152 METAR KATL 250152Z 07007KT 10SM BKN060 21/13 A3024 RMK AO2 SLP235 T02060128=
201409250052 METAR KATL 250052Z 11008KT 10SM FEW032 BKN040 OVC055 21/13 A3024 RMK AO2 SLP235 T02110133=
201409242352 METAR KATL 242352Z 09009KT 10SM BKN043 BKN060 22/14 A3023 RMK AO2 SLP231 VIRGA DSNT NE & NW T02220139 10256 20222 53005=
201409242252 METAR KATL 242252Z 08009KT 10SM BKN048 BKN065 24/12 A3022 RMK AO2 SLP228 T02390117=
201409242152 METAR KATL 242152Z 05009KT 10SM FEW070 24/11 A3021 RMK AO2 SLP226 T02440106=
201409242052 METAR KATL 242052Z 05009KT 10SM FEW070 SCT250 25/11 A3021 RMK AO2 SLP224 T02500106 56023=
201409241952 METAR KATL 241952Z 04005KT 10SM FEW070 24/09 A3023 RMK AO2 SLP232 ACSL DSNT S-SW T02440094=
201409241852 METAR KATL 241852Z 07006KT 10SM SCT070 24/09 A3025 RMK AO2 SLP238 T02390089=
201409241752 METAR KATL 241752Z 03005KT 10SM FEW070 23/08 A3028 RMK AO2 SLP249 T02280078 10233 20139 58009=
201409241652 METAR KATL 241652Z 06011KT 10SM FEW070 22/08 A3030 RMK AO2 SLP255 T02220078=
201409241552 METAR KATL 241552Z 08008KT 10SM FEW080 21/07 A3031 RMK AO2 SLP258 T02060072=
201409241452 METAR KATL 241452Z 08011KT 10SM FEW085 19/08 A3031 RMK AO2 SLP258 T01940078 51008=
201409241352 METAR KATL 241352Z 08016G22KT 10SM FEW080 17/08 A3030 RMK AO2 SLP256 T01720083 $=
201409241252 METAR KATL 241252Z 07015KT 10SM FEW085 15/09 A3029 RMK AO2 SLP253 T01500089=
201409241152 METAR KATL 241152Z 07013KT 10SM FEW085 14/09 A3028 RMK AO2 SLP250 T01390089 10150 20133 53010 $=
201409241052 METAR KATL 241052Z 08011KT 10SM FEW085 13/09 A3027 RMK AO2 SLP247 T01330089=
201409240952 METAR KATL 240952Z 07008KT 10SM CLR 13/10 A3026 RMK AO2 SLP241 T01330100=
201409240852 METAR KATL 240852Z 07007KT 10SM CLR 13/09 A3025 RMK AO2 SLP239 T01330094 58007=
201409240752 METAR KATL 240752Z 07010KT 10SM CLR 14/10 A3026 RMK AO2 SLP240 T01390100=
201409240652 METAR KATL 240652Z 07009KT 10SM FEW014 14/11 A3027 RMK AO2 SLP245 T01440111=
201409240552 METAR KATL 240552Z 08012KT 10SM FEW014 14/12 A3027 RMK AO2 SLP245 T01440117 10206 20144 52008=
201409240452 METAR KATL 240452Z 08008KT 10SM CLR 16/12 A3026 RMK AO2 SLP242 T01560122 402500156=
201409240352 METAR KATL 240352Z 07010KT 10SM CLR 16/13 A3026 RMK AO2 SLP241 T01610128=
201409240252 METAR KATL 240252Z 08013KT 10SM FEW020 17/13 A3025 RMK AO2 SLP237 T01720128 53017=
201409240152 METAR KATL 240152Z 08011KT 10SM CLR 18/13 A3023 RMK AO2 SLP229 T01830133=
201409240052 SPECI KATL 240052Z 07013KT 10SM CLR 19/14 A3021 RMK AO2 SLP225 T01940139=
201409240052 METAR KATL 240052Z 07013KT 10SM CLR 19/14 A3021 RMK AO2 SLP225 T01940139=
201409232352 METAR KATL 232352Z 06012KT 10SM FEW035 21/13 A3020 RMK AO2 SLP220 T02060133 10250 20206 53006=
201409232252 METAR KATL 232252Z 07014KT 10SM FEW035 22/13 A3019 RMK AO2 SLP216 T02220133=
201409232152 METAR KATL 232152Z 07014KT 10SM SCT040 SCT055 23/13 A3018 RMK AO2 SLP214 T02280128=
201409232052 METAR KATL 232052Z 07013KT 10SM FEW040 SCT055 23/13 A3018 RMK AO2 SLP212 T02280128 56012=
201409231952 METAR KATL 231952Z 08015G20KT 10SM FEW040 SCT050 24/13 A3018 RMK AO2 SLP214 T02440128=
201409231852 METAR KATL 231852Z 06012G19KT 10SM BKN040 BKN050 23/13 A3020 RMK AO2 SLP220 T02330128=
201409231752 METAR KATL 231752Z 06013G16KT 10SM BKN037 BKN044 24/13 A3021 RMK AO2 SLP224 T02390133 10239 20167 58004=
201409231652 METAR KATL 231652Z 08010KT 040V110 10SM FEW035 BKN040 23/13 A3022 RMK AO2 SLP228 T02280133=
201409231552 METAR KATL 231552Z 09010KT 10SM BKN035 21/13 A3023 RMK AO2 SLP231 T02110128=
201409231452 METAR KATL 231452Z 07013G19KT 10SM FEW030 SCT070 21/12 A3022 RMK AO2 SLP229 T02110122 53013=
201409231352 METAR KATL 231352Z 07015KT 10SM FEW070 20/12 A3021 RMK AO2 SLP224 T02000117=
201409231252 METAR KATL 231252Z 06012KT 10SM FEW040 18/11 A3019 RMK AO2 SLP217 T01830111=
201409231152 METAR KATL 231152Z 06010KT 10SM FEW020 17/12 A3018 RMK AO2 SLP215 70002 T01670117 10178 20167 53018=
201409231052 METAR KATL 231052Z 05007KT 10SM FEW020 17/12 A3017 RMK AO2 SLP209 T01670122=
201409230952 METAR KATL 230952Z 06007KT 10SM CLR 17/13 A3014 RMK AO2 SLP199 T01670133=
201409230852 METAR KATL 230852Z 05008KT 10SM CLR 17/13 A3013 RMK AO2 SLP194 T01720133 51000=
201409230752 METAR KATL 230752Z 04008KT 10SM CLR 17/13 A3013 RMK AO2 SLP194 T01720133=
201409230652 METAR KATL 230652Z 05008KT 10SM FEW050 18/13 A3013 RMK AO2 SLP194 T01780133=
201409230552 METAR KATL 230552Z 05006KT 10SM FEW050 18/14 A3013 RMK AO2 SLP195 T01780144 10217 20178 53001=
201409230452 METAR KATL 230452Z 08007KT 10SM SCT050 18/14 A3012 RMK AO2 SLP192 T01830139 402780178=
201409230352 METAR KATL 230352Z 05007KT 10SM FEW050 19/11 A3012 RMK AO2 SLP194 T01890111=
201409230252 METAR KATL 230252Z 01008KT 10SM FEW050 19/11 A3012 RMK AO2 SLP195 T01940106 51023=
201409230152 METAR KATL 230152Z 34006KT 10SM CLR 19/10 A3011 RMK AO2 SLP190 T01940100=
201409230052 METAR KATL 230052Z 34007KT 10SM CLR 21/10 A3008 RMK AO2 SLP181 T02060100=
201409222352 METAR KATL 222352Z 34007KT 10SM FEW050 22/10 A3006 RMK AO2 SLP172 T02170100 10278 20217 53008=
201409222252 METAR KATL 222252Z 34012KT 10SM FEW055 24/11 A3005 RMK AO2 SLP167 TCU DSNT E & SE T02390106=
201409222152 METAR KATL 222152Z 36015G19KT 10SM FEW060 25/11 A3004 RMK AO2 SLP163 T02500111=
201409222052 METAR KATL 222052Z 30014G18KT 10SM FEW060 SCT150 SCT250 27/12 A3003 RMK AO2 SLP160 T02670117 56010=
201409221952 METAR KATL 221952Z 33008G14KT 10SM FEW065 SCT150 SCT250 27/11 A3003 RMK AO2 SLP160 T02670106=
201409221852 METAR KATL 221852Z 33008G17KT 300V360 10SM FEW065 SCT150 SCT250 27/09 A3005 RMK AO2 SLP165 T02670089 $=
201409221752 METAR KATL 221752Z VRB03KT 10SM FEW065 SCT150 SCT250 26/11 A3006 RMK AO2 SLP171 60002 T02560106 10261 20178 58004=
201409221652 METAR KATL 221652Z 33010KT 10SM FEW150 SCT200 BKN250 25/11 A3007 RMK AO2 SLP173 T02500111=
201409221552 METAR KATL 221552Z 34007KT 10SM FEW120 SCT150 BKN250 23/13 A3008 RMK AO2 SLP175 VIRGA DSNT NE-SE T02280128=
201409221452 METAR KATL 221452Z 33009KT 10SM FEW120 SCT150 SCT250 21/15 A3008 RMK AO2 SLP177 60002 T02110150 51011=
201409221352 METAR KATL 221352Z 32006KT 10SM FEW080 BKN120 BKN150 19/15 A3006 RMK AO2 SLP172 VIRGA DSNT S T01940150=
201409221252 METAR KATL 221252Z 27004KT 10SM FEW075 SCT110 BKN140 BKN250 18/16 A3006 RMK AO2 RAE19 SLP171 P0002 T01780156=
201409221152 METAR KATL 221152Z 32004KT 10SM -RA FEW037 SCT055 BKN110 18/16 A3004 RMK AO2 RAB1054 SLP165 OCNL LTG DSNT SE CB DSNT SE P0004 60004 70004 T01830156 10233 20183 53017=
201409221052 METAR KATL 221052Z 31009KT 10SM SCT075 BKN090 BKN120 20/15 A3003 RMK AO2 SLP161 T02000150=
201409220952 METAR KATL 220952Z 31006KT 10SM FEW050 BKN095 BKN200 21/16 A3000 RMK AO2 SLP149 OCNL LTG DSNT SE-SW CB DSNT SE-SW T02060156=
201409220852 METAR KATL 220852Z 32008KT 10SM BKN050 OVC070 21/18 A2999 RMK AO2 RAE11 SLP145 P0000 60000 T02110183 53003=
201409220752 METAR KATL 220752Z 31008KT 10SM -RA FEW029 BKN050 OVC080 22/19 A2998 RMK AO2 RAB42 SLP142 P0000 T02170189=
201409220652 METAR KATL 220652Z 28006KT 10SM SCT055 BKN075 OVC200 22/18 A2997 RMK AO2 RAB08E42 SLP139 P0000 T02220178=
201409220552 METAR KATL 220552Z 29007KT 10SM SCT048 BKN065 BKN100 BKN200 23/17 A2998 RMK AO2 SLP142 T02330167 10267 20233 57002=
201409220452 METAR KATL 220452Z 30006KT 10SM SCT055TCU SCT075 BKN100 BKN200 24/17 A2998 RMK AO2 SLP142 TCU NW-N T02440167 403060167=
201409220352 METAR KATL 220352Z 23006KT 10SM SCT075 BKN100 BKN200 BKN250 24/17 A2999 RMK AO2 SLP144 T02440167=
201409220252 METAR KATL 220252Z 23006KT 10SM FEW100 SCT200 SCT250 24/17 A2999 RMK AO2 SLP145 T02390167 51012=
201409220152 METAR KATL 220152Z 24005KT 10SM FEW100 SCT200 SCT250 24/17 A2998 RMK AO2 SLP144 T02440167=
201409220052 METAR KATL 220052Z 25005KT 10SM FEW110 SCT200 SCT250 26/16 A2998 RMK AO2 SLP142 OCNL LTGIC DSNT NW CB DSNT NW T02610161=
201409212352 METAR KATL 212352Z 23005KT 10SM FEW120 SCT200 SCT250 27/16 A2995 RMK AO2 SLP135 CB DSNT NW-N T02670156 10306 20267 55001=
201409212252 METAR KATL 212252Z 27006KT 10SM FEW055 SCT200 SCT250 29/15 A2995 RMK AO2 SLP133 CB DSNT N & NW T02890150=
201409212152 METAR KATL 212152Z 29008KT 10SM FEW060 SCT200 SCT250 30/15 A2995 RMK AO2 SLP133 T03000150=
201409212052 METAR KATL 212052Z 28009KT 10SM FEW060 SCT250 31/15 A2996 RMK AO2 SLP134 T03060150 56021=
201409211952 METAR KATL 211952Z 34012G16KT 10SM SCT060 SCT250 31/16 A2997 RMK AO2 SLP140 T03060156=
201409211852 METAR KATL 211852Z 31010KT 10SM SCT055 SCT065 SCT250 29/14 A2998 RMK AO2 SLP144 T02940139=
201409211752 METAR KATL 211752Z 30007KT 10SM SCT050 SCT060 SCT100 30/17 A3002 RMK AO2 SLP155 T03000167 10300 20178 58017=
201409211652 METAR KATL 211652Z 28010KT 240V300 10SM SCT045 SCT100 28/17 A3005 RMK AO2 SLP164 T02830167=
201409211552 METAR KATL 211552Z 25008KT 10SM FEW040 SCT250 28/17 A3006 RMK AO2 SLP170 T02780167=
201409211452 METAR KATL 211452Z 27010KT 10SM FEW250 26/17 A3007 RMK AO2 SLP173 T02610167 51007=
201409211352 METAR KATL 211352Z 27005KT 10SM FEW250 24/17 A3007 RMK AO2 SLP173 T02440167=
201409211252 METAR KATL 211252Z 28005KT 10SM FEW250 21/16 A3006 RMK AO2 SLP171 T02110156=
201409211152 METAR KATL 211152Z 28004KT 10SM FEW250 18/15 A3005 RMK AO2 SLP168 T01780150 10206 20167 53012=
201409211052 METAR KATL 211052Z 30004KT 10SM CLR 17/15 A3003 RMK AO2 SLP162 T01720150=
201409210952 METAR KATL 210952Z 32003KT 10SM CLR 18/16 A3002 RMK AO2 SLP158 T01780156=
201409210852 METAR KATL 210852Z 32004KT 10SM CLR 18/16 A3001 RMK AO2 SLP154 T01830156 56011=
201409210752 METAR KATL 210752Z 00000KT 10SM CLR 18/16 A3002 RMK AO2 SLP157 T01830156=
201409210652 METAR KATL 210652Z 33003KT 10SM CLR 19/16 A3003 RMK AO2 SLP160 T01940156=
201409210552 METAR KATL 210552Z 00000KT 10SM CLR 20/15 A3004 RMK AO2 SLP165 T02000150 10250 20194 58003=
201409210452 METAR KATL 210452Z 35003KT 10SM CLR 21/16 A3006 RMK AO2 SLP171 T02110156 402830189=
201409210352 METAR KATL 210352Z 08004KT 10SM CLR 22/15 A3006 RMK AO2 SLP171 T02170150=
201409210252 METAR KATL 210252Z 15003KT 10SM CLR 22/16 A3005 RMK AO2 SLP169 T02170161 53004=
201409210152 METAR KATL 210152Z 09004KT 10SM CLR 23/16 A3005 RMK AO2 SLP167 T02330156=
201409210052 METAR KATL 210052Z 10004KT 10SM FEW200 24/16 A3004 RMK AO2 SLP165 T02440156=
201409202352 METAR KATL 202352Z 10004KT 10SM FEW075 SCT200 25/15 A3004 RMK AO2 SLP165 T02500150 10283 20250 55001=
201409202252 METAR KATL 202252Z 08009KT 10SM FEW055 SCT075 SCT200 26/15 A3004 RMK AO2 SLP163 T02610150=
201409202152 METAR KATL 202152Z 07006KT 10SM FEW050 SCT070 SCT200 28/15 A3004 RMK AO2 SLP163 T02780150=
201409202052 METAR KATL 202052Z 06007KT 10SM SCT048 27/15 A3004 RMK AO2 SLP164 T02670150 56025=
201409201952 METAR KATL 201952Z 08008KT 10SM SCT042 SCT080 28/16 A3007 RMK AO2 SLP172 T02780156=
201409201852 METAR KATL 201852Z 07010KT 10SM SCT040 28/16 A3008 RMK AO2 SLP178 T02780161=
201409201752 METAR KATL 201752Z 07010G15KT 10SM SCT035 27/17 A3012 RMK AO2 SLP190 T02720167 10272 20194 58015=
201409201652 METAR KATL 201652Z 08011KT 10SM SCT028 SCT032 26/17 A3014 RMK AO2 SLP197 T02610172=
201409201632 SPECI KATL 201632Z 08012KT 10SM SCT025 BKN032 25/17 A3015 RMK AO2=
201409201552 METAR KATL 201552Z 07011KT 10SM BKN022 23/17 A3016 RMK AO2 SLP206 T02330172=
201409201452 METAR KATL 201452Z 07010KT 10SM BKN018 OVC025 22/17 A3017 RMK AO2 SLP207 BINOVC T02220167 50008=
201409201359 SPECI KATL 201359Z 07011KT 10SM BKN015 BKN020 BKN035 21/17 A3017 RMK AO2=
201409201352 METAR KATL 201352Z 06011KT 10SM BKN014 BKN020 BKN035 21/17 A3017 RMK AO2 SLP208 T02060167=
201409201252 METAR KATL 201252Z 07010KT 10SM BKN012 OVC033 20/17 A3016 RMK AO2 SLP204 T02000167=
201409201237 SPECI KATL 201237Z 07011KT 10SM BKN011 BKN034 20/17 A3015 RMK AO2=
201409201225 SPECI KATL 201225Z 07008KT 10SM SCT010 BKN032 19/17 A3015 RMK AO2=
201409201152 METAR KATL 201152Z 07011KT 10SM BKN010 19/17 A3014 RMK AO2 SLP199 T01940167 10206 20189 51008=
201409201052 METAR KATL 201052Z 07011KT 10SM BKN010 19/17 A3013 RMK AO2 SLP196 T01940172=
201409201026 SPECI KATL 201026Z 07010KT 10SM BKN010 19/17 A3013 RMK AO2=
201409200952 METAR KATL 200952Z 07009KT 10SM FEW010 19/17 A3013 RMK AO2 SLP193 T01940172=
201409200852 METAR KATL 200852Z 07010KT 10SM SCT011 19/17 A3012 RMK AO2 SLP189 T01940172 56008=
201409200752 METAR KATL 200752Z 07012KT 10SM FEW012 20/17 A3012 RMK AO2 SLP189 T02000172=
201409200652 METAR KATL 200652Z 08009KT 10SM FEW021 SCT060 20/17 A3013 RMK AO2 SLP195 T02000172=
201409200552 METAR KATL 200552Z 08012KT 10SM FEW038 SCT060 21/18 A3014 RMK AO2 SLP197 T02060178 10250 20206 50001=
201409200452 METAR KATL 200452Z 08010KT 10SM FEW030 21/18 A3014 RMK AO2 SLP199 T02110183 402890206=
201409200352 METAR KATL 200352Z 09010KT 10SM FEW022 22/18 A3015 RMK AO2 SLP200 T02170183=
201409200252 METAR KATL 200252Z 09012KT 10SM FEW022 SCT030 22/18 A3014 RMK AO2 SLP196 T02220183 51016=
201409200152 METAR KATL 200152Z 09009KT 10SM SCT030 SCT250 23/18 A3012 RMK AO2 SLP192 T02280178=
201409200052 METAR KATL 200052Z 10010KT 10SM FEW250 24/18 A3010 RMK AO2 SLP185 T02390178=
201409192352 METAR KATL 192352Z 09011KT 10SM FEW040 SCT250 25/17 A3009 RMK AO2 SLP181 T02500172 10289 20250 53012=
201409192252 METAR KATL 192252Z 09012KT 10SM FEW045 SCT250 26/17 A3007 RMK AO2 SLP172 T02610167=
201409192152 METAR KATL 192152Z 10010KT 10SM FEW045 BKN250 28/16 A3006 RMK AO2 SLP169 T02780161=
201409192052 METAR KATL 192052Z 09008KT 10SM FEW045 SCT100 BKN250 28/17 A3005 RMK AO2 SLP167 TCU DSNT N T02830167 56012=
201409191952 METAR KATL 191952Z 09010G16KT 10SM FEW038TCU SCT080 SCT250 28/17 A3006 RMK AO2 SLP168 TCU SE & W & NW T02780167=
201409191852 METAR KATL 191852Z VRB05KT 10SM FEW033TCU SCT100 SCT250 27/18 A3007 RMK AO2 SLP173 TCU SE & S & W T02720178=
201409191752 METAR KATL 191752Z 08013KT 10SM SCT030TCU SCT100 27/18 A3009 RMK AO2 SLP179 TCU SE-SW & NW T02720183 10278 20206 58003=
201409191652 METAR KATL 191652Z 11009G16KT 10SM BKN032TCU BKN150 27/18 A3010 RMK AO2 SLP183 TCU NE-SE & SW-NW T02670178=
201409191552 METAR KATL 191552Z 09010KT 10SM SCT028 SCT150 27/18 A3010 RMK AO2 SLP184 MDT CU NE T02670183=
201409191452 METAR KATL 191452Z 06008KT 10SM FEW030 SCT150 SCT200 25/18 A3010 RMK AO2 SLP184 T02500183 51014=
201409191352 METAR KATL 191352Z 07009KT 10SM FEW030 SCT200 23/19 A3009 RMK AO2 SLP179 T02330189=
201409191252 METAR KATL 191252Z 09007KT 10SM FEW080 SCT150 SCT200 SCT250 22/18 A3008 RMK AO2 SLP175 T02170183=
201409191152 METAR KATL 191152Z 08007KT 9SM FEW030 SCT080 BKN200 BKN250 21/18 A3006 RMK AO2 SLP169 ACC DSNT E T02060183 10228 20206 53013=
201409191052 METAR KATL 191052Z 10005KT 10SM FEW075 SCT150 BKN200 BKN250 21/19 A3004 RMK AO2 SLP163 ACC DSNT NE T02110189=
201409190952 METAR KATL 190952Z 08006KT 9SM FEW075 SCT150 BKN200 OVC250 21/19 A3003 RMK AO2 SLP158 T02110189=
201409190852 METAR KATL 190852Z 00000KT 10SM FEW150 BKN200 OVC250 21/19 A3002 RMK AO2 SLP155 T02110189 58001=
201409190752 METAR KATL 190752Z 00000KT 10SM BKN200 OVC250 23/19 A3001 RMK AO2 SLP153 T02280189=
201409190652 METAR KATL 190652Z 00000KT 10SM FEW150 BKN200 OVC250 22/19 A3003 RMK AO2 SLP158 T02170189=
201409190552 METAR KATL 190552Z 00000KT 10SM FEW150 BKN200 OVC250 22/19 A3002 RMK AO2 SLP156 T02220194 10261 20222 53001=
201409190452 METAR KATL 190452Z 17003KT 10SM BKN200 22/19 A3002 RMK AO2 SLP156 T02220194 402940172=
201409190352 METAR KATL 190352Z 00000KT 10SM BKN200 23/19 A3001 RMK AO2 SLP154 T02280189=
201409190252 METAR KATL 190252Z 00000KT 10SM FEW070 BKN200 23/19 A3002 RMK AO2 SLP156 T02330194 53020=
201409190152 METAR KATL 190152Z 17004KT 10SM FEW040 BKN250 23/19 A2999 RMK AO2 SLP149 T02330189=
201409190052 METAR KATL 190052Z 18007KT 10SM SCT043 SCT250 25/18 A2998 RMK AO2 SLP144 T02500178=
201409182352 METAR KATL 182352Z 00000KT 10SM FEW045 26/16 A2996 RMK AO2 SLP136 T02610156 10294 20261 53001=
201409182252 METAR KATL 182252Z 00000KT 10SM FEW045 SCT250 27/16 A2995 RMK AO2 SLP133 T02720161=
201409182152 METAR KATL 182152Z 00000KT 10SM SCT045 BKN250 28/17 A2995 RMK AO2 SLP134 T02780167=
201409182052 METAR KATL 182052Z 00000KT 10SM BKN050 BKN100 BKN250 28/16 A2996 RMK AO2 SLP134 T02830161 56012=
201409181952 METAR KATL 181952Z 28005KT 10SM SCT050 BKN070 BKN100 BKN250 28/16 A2996 RMK AO2 SLP135 T02830161=
201409181852 METAR KATL 181852Z 06007KT 10SM FEW045 SCT060 BKN075 BKN250 28/16 A2997 RMK AO2 SLP140 T02780161=
201409181752 METAR KATL 181752Z 12004KT 10SM FEW045 SCT075 SCT250 28/17 A2999 RMK AO2 SLP147 T02830167 10283 20189 58008=
201409181652 METAR KATL 181652Z 07006KT 10SM FEW040 SCT070 SCT250 27/16 A3000 RMK AO2 SLP150 T02670161=
201409181552 METAR KATL 181552Z 08004KT 10SM FEW035 BKN075 BKN250 26/17 A3002 RMK AO2 SLP156 T02560167=
201409181452 METAR KATL 181452Z 08004KT 10SM FEW018 SCT150 SCT250 24/18 A3002 RMK AO2 SLP155 T02390178 51015=
201409181407 SPECI KATL 181407Z 09008KT 8SM FEW007 SCT150 SCT250 21/18 A3001 RMK AO2=
201409181352 METAR KATL 181352Z 07008KT 7SM BKN007 BKN150 BKN250 21/18 A3001 RMK AO2 SLP154 T02060183=
201409181334 SPECI KATL 181334Z 07007KT 6SM BR BCFG SCT005 SCT150 20/18 A3000 RMK AO2 VIS LWR NE-SE BCFG=
201409181323 SPECI KATL 181323Z 06006KT 1 1/2SM BR BKN005 BKN250 20/18 A3000 RMK AO2 SFC VIS 5=
201409181258 SPECI KATL 181258Z 06007KT 1/2SM R09R/6000VP6000FT BR OVC004 19/18 A2999 RMK AO2 SFC VIS 5=
201409181252 METAR KATL 181252Z 05007KT 1/2SM BR OVC002 19/17 A2999 RMK AO2 SFC VIS 2 SLP147 CIG 001V003 TWRINC T01940172=
201409181240 SPECI KATL 181240Z 05008KT 1/2SM R09R/P6000FT BR BKN001 BKN200 BKN250 19/17 A2998 RMK AO2 SFC VIS 1=
201409181237 SPECI KATL 181237Z 05008KT 1 1/2SM HZ BKN002 BKN200 BKN250 19/17 A2998 RMK AO2=
201409181234 SPECI KATL 181234Z 05007KT 3SM HZ BKN002 BKN200 BKN250 19/17 A2998 RMK AO2=
201409181152 METAR KATL 181152Z 05004KT 7SM FEW008 SCT150 BKN200 BKN250 19/16 A2997 RMK AO2 SLP141 T01890161 10200 20172 51013=
201409181101 SPECI KATL 181101Z 00000KT 10SM SCT008 SCT150 BKN250 17/15 A2997 RMK AO2=
201409181052 METAR KATL 181052Z 35003KT 10SM SCT010 SCT150 BKN250 17/15 A2996 RMK AO2 SLP138 T01720150=
201409180952 METAR KATL 180952Z 34005KT 10SM FEW012 SCT150 SCT250 17/14 A2995 RMK AO2 SLP134 T01720144=
201409180852 METAR KATL 180852Z 34004KT 10SM FEW014 SCT160 BKN250 18/14 A2993 RMK AO2 SLP127 T01830144 56008=
201409180752 METAR KATL 180752Z 32006KT 10SM FEW014 BKN160 BKN250 18/14 A2994 RMK AO2 SLP130 T01780144=
201409180652 METAR KATL 180652Z 00000KT 10SM SCT150 BKN250 19/14 A2994 RMK AO2 SLP131 T01890139=
201409180552 METAR KATL 180552Z 33004KT 10SM BKN150 BKN250 20/14 A2996 RMK AO2 SLP135 T02000139 10250 20194 50001=
201409180452 METAR KATL 180452Z 34003KT 10SM FEW150 SCT250 20/14 A2996 RMK AO2 SLP137 T02000139 403000194=
201409180352 METAR KATL 180352Z 35005KT 10SM SCT250 22/13 A2996 RMK AO2 SLP137 T02170133=
201409180252 METAR KATL 180252Z 02004KT 10SM BKN250 22/13 A2995 RMK AO2 SLP134 T02220128 51011=
201409180152 METAR KATL 180152Z 02008KT 10SM BKN250 23/14 A2995 RMK AO2 SLP134 T02280144=
201409180052 METAR KATL 180052Z 33008KT 10SM FEW200 BKN250 24/14 A2994 RMK AO2 SLP129 T02390139=
201409172352 METAR KATL 172352Z 32010KT 10SM FEW200 SCT250 25/13 A2992 RMK AO2 SLP124 T02500133 10300 20250 53006=
201409172252 METAR KATL 172252Z 34011KT 10SM FEW055 BKN250 27/15 A2991 RMK AO2 SLP119 T02670150=
201409172152 METAR KATL 172152Z 33012KT 10SM FEW055 BKN250 29/15 A2990 RMK AO2 SLP115 T02890150=
201409172052 METAR KATL 172052Z 32008KT 10SM FEW050 SCT200 BKN250 29/16 A2990 RMK AO2 SLP116 T02940156 56016=
201409171952 METAR KATL 171952Z 31011G14KT 10SM SCT050 SCT250 30/16 A2991 RMK AO2 SLP119 T03000161=
201409171852 METAR KATL 171852Z 30011G15KT 10SM SCT045 SCT250 28/17 A2993 RMK AO2 SLP125 T02830167=
201409171752 METAR KATL 171752Z 29005KT 10SM SCT040 SCT250 28/17 A2995 RMK AO2 SLP132 T02830172 10283 20194 56012=
201409171652 METAR KATL 171652Z 29009KT 10SM FEW040 28/17 A2997 RMK AO2 SLP137 T02780172=
201409171552 METAR KATL 171552Z 29008KT 10SM FEW030 26/17 A2997 RMK AO2 SLP138 T02610167=
201409171452 METAR KATL 171452Z 01006KT 10SM CLR 25/17 A2999 RMK AO2 SLP145 T02500167 58000=
201409171352 METAR KATL 171352Z 36008KT 10SM FEW150 23/17 A3000 RMK AO2 SLP148 T02330167=
201409171252 METAR KATL 171252Z 34009KT 10SM CLR 21/17 A3000 RMK AO2 SLP149 T02060172=
201409171152 METAR KATL 171152Z 33006KT 9SM CLR 19/18 A2999 RMK AO2 SLP146 T01940178 10222 20194 53007=
201409171052 METAR KATL 171052Z 33009KT 10SM FEW040 20/18 A2998 RMK AO2 SLP143 T02000178=
201409170952 METAR KATL 170952Z 33006KT 10SM FEW040 20/18 A2997 RMK AO2 SLP139 T02000183=
201409170852 METAR KATL 170852Z 34008KT 10SM CLR 21/19 A2997 RMK AO2 SLP138 T02060189 56010=
201409170752 METAR KATL 170752Z 33007KT 10SM CLR 21/19 A2997 RMK AO2 SLP139 T02110194=
201409170652 METAR KATL 170652Z 32006KT 10SM FEW037 22/19 A2999 RMK AO2 SLP144 T02170194=
201409170552 METAR KATL 170552Z 31006KT 10SM FEW037 22/20 A3000 RMK AO2 SLP147 T02220200 10267 20217 58002=
201409170452 METAR KATL 170452Z 31004KT 10SM FEW250 23/19 A3000 RMK AO2 SLP149 T02280194 403000217=
201409170352 METAR KATL 170352Z 33004KT 10SM FEW250 24/19 A3001 RMK AO2 SLP152 T02390194=
201409170252 METAR KATL 170252Z 31004KT 10SM FEW250 23/20 A3000 RMK AO2 SLP151 T02330200 51006=
201409170152 METAR KATL 170152Z 32005KT 10SM FEW250 25/19 A3000 RMK AO2 SLP150 T02500194=
201409170052 METAR KATL 170052Z 32006KT 10SM FEW250 26/19 A2999 RMK AO2 SLP147 T02610194=
201409162352 METAR KATL 162352Z 32007KT 10SM FEW110 27/19 A2998 RMK AO2 SLP144 T02670189 10300 20267 56003=
201409162252 METAR KATL 162252Z 33007KT 10SM FEW040 28/19 A2999 RMK AO2 SLP144 T02830189=
201409162152 METAR KATL 162152Z 31007KT 10SM FEW040 SCT110 SCT250 29/19 A2998 RMK AO2 SLP143 TCU DSNT SE T02890189=
201409162052 METAR KATL 162052Z VRB05KT 10SM FEW040 SCT110 SCT250 29/19 A2999 RMK AO2 SLP145 CB DSNT E TCU DSNT SE-S T02940194 58022=
201409161952 METAR KATL 161952Z 33009KT 10SM FEW037 SCT110 BKN150 BKN180 29/19 A3002 RMK AO2 SLP155 VIRGA DSNT NW TCU DSNT N-NE-E T02890194=
201409161852 METAR KATL 161852Z 31006KT 10SM FEW040 BKN150 BKN250 29/19 A3004 RMK AO2 SLP161 T02940194=
201409161752 METAR KATL 161752Z VRB04KT 10SM SCT030 SCT160 SCT250 29/21 A3006 RMK AO2 SLP168 T02940206 10294 20222 56016=
201409161652 METAR KATL 161652Z 35005KT 10SM FEW025 BKN160 BKN250 28/21 A3007 RMK AO2 SLP173 T02780206=
201409161602 SPECI KATL 161602Z 33008KT 10SM FEW018 BKN023 BKN150 BKN250 27/21 A3009 RMK AO2=
201409161552 METAR KATL 161552Z 30004KT 10SM SCT020 BKN150 BKN250 27/21 A3009 RMK AO2 SLP180 T02670211=
201409161452 METAR KATL 161452Z 32008KT 10SM FEW015 BKN130 BKN250 26/22 A3011 RMK AO2 SLP186 T02560217 53000=
201409161352 METAR KATL 161352Z 33006KT 6SM BR FEW007 BKN150 BKN250 24/22 A3010 RMK AO2 SLP185 T02390217 $=
201409161336 SPECI KATL 161336Z 31006KT 3SM BR FEW005 BKN140 BKN250 23/22 A3010 RMK AO2 SFC VIS 5 $=
201409161333 SPECI KATL 161333Z 32005KT 1 1/2SM BR FEW005 BKN140 BKN250 23/22 A3010 RMK AO2 SFC VIS 5=
201409161301 SPECI KATL 161301Z 32007KT 1SM BR OVC005 23/22 A3010 RMK AO2 SFC VIS 3=
201409161252 METAR KATL 161252Z 32007KT 1/2SM BR OVC003 23/22 A3010 RMK AO2 SFC VIS 2 1/2 SLP185 CIG 002V004 TWRINC T02280217=
201409161152 METAR KATL 161152Z 31004KT 1/2SM R09R/6000VP6000FT BR OVC002 22/22 A3011 RMK AO2 SFC VIS 1 SLP185 VIS SW-NW-N 1/2 TWRINC 60000 70002 T02220217 10222 20217 51004=
201409161132 SPECI KATL 161132Z 32003KT 1/2SM R09R/5500VP6000FT BR OVC003 22/21 A3011 RMK AO2 SFC VIS 2 1/2 CIG 002V004 TWRINC=
201409161052 METAR KATL 161052Z 00000KT 2SM BR OVC003 22/21 A3010 RMK AO2 SFC VIS 2 1/2 RAE01 SLP184 P0000 T02220211=
201409161043 SPECI KATL 161043Z 00000KT 2SM BR OVC003 22/21 A3010 RMK AO2 SFC VIS 2 1/2 RAE01 P0000=
201409160952 METAR KATL 160952Z 00000KT 3SM -RA BR OVC004 22/21 A3011 RMK AO2 RAB51 SLP185 P0000 T02220211=
201409160852 METAR KATL 160852Z 00000KT 4SM BR OVC004 22/21 A3009 RMK AO2 RAB22E42 SLP181 P0000 60000 T02220211 56010=
201409160836 SPECI KATL 160836Z 00000KT 4SM -RA BR OVC004 22/21 A3010 RMK AO2 RAB22 P0000=
201409160752 METAR KATL 160752Z 00000KT 4SM BR OVC006 22/21 A3010 RMK AO2 SLP185 T02220211=
201409160745 SPECI KATL 160745Z 00000KT 4SM BR BKN006 BKN150 BKN200 OVC250 22/21 A3010 RMK AO2=
201409160652 METAR KATL 160652Z 00000KT 6SM BR FEW005 SCT150 BKN200 OVC250 22/21 A3010 RMK AO2 RAE0554 SLP185 P0000 T02220211=
201409160552 METAR KATL 160552Z 00000KT 7SM -RA FEW005 SCT039 BKN150 OVC250 22/21 A3012 RMK AO2 RAB40 SLP191 OCNL LTG DSNT E CB DSNT E P0000 60002 T02220211 10244 20222 58009=
201409160452 METAR KATL 160452Z 00000KT 9SM FEW006 SCT150 BKN200 OVC250 22/21 A3014 RMK AO2 SLP198 T02220211 402670183=
201409160352 METAR KATL 160352Z 16003KT 9SM FEW015 SCT150 BKN200 BKN250 23/21 A3016 RMK AO2 SLP205 T02280211=
201409160252 METAR KATL 160252Z 12003KT 9SM FEW012 SCT100 BKN200 BKN250 23/22 A3015 RMK AO2 SLP202 60002 T02280217 53005=
201409160152 METAR KATL 160152Z 11004KT 9SM FEW015 SCT055 BKN100 BKN200 23/22 A3014 RMK AO2 RAE0057 SLP198 P0000 T02330217=
201409160148 SPECI KATL 160148Z 09006KT 9SM FEW015 SCT055 BKN100 BKN200 23/22 A3014 RMK AO2 RAE0057 P0000=
201409160105 SPECI KATL 160105Z 00000KT 9SM BKN017 BKN055 OVC090 24/21 A3014 RMK AO2 RAE0057 P0000=
201409160052 METAR KATL 160052Z 00000KT 9SM -RA FEW013 SCT055 BKN090 OVC150 23/21 A3013 RMK AO2 SLP197 P0002 T02330211=
201409152352 METAR KATL 152352Z 15005KT 8SM -RA FEW015 BKN080 OVC200 24/21 A3014 RMK AO2 RAB46 SLP198 P0000 60000 T02440211 10267 20244 50003=
201409152343 SPECI KATL 152343Z 16005KT 9SM FEW015 SCT025 BKN080 OVC200 24/21 A3014 RMK AO2=
201409152252 METAR KATL 152252Z 10004KT 9SM FEW015 BKN024 OVC035 25/21 A3014 RMK AO2 SLP197 T02500211=
201409152152 METAR KATL 152152Z 12005KT 9SM FEW012 OVC020 26/21 A3012 RMK AO2 SLP193 T02560211=
201409152052 METAR KATL 152052Z 06005KT 10SM OVC022 26/21 A3012 RMK AO2 SLP193 T02560206 56017=
201409151952 METAR KATL 151952Z 18004KT 10SM BKN024 BKN100 BKN250 26/21 A3013 RMK AO2 SLP195 T02610206=
201409151852 METAR KATL 151852Z 00000KT 10SM BKN020 BKN100 BKN250 26/20 A3016 RMK AO2 SLP204 T02560200=
201409151752 METAR KATL 151752Z VRB03KT 10SM BKN018 BKN100 BKN250 25/20 A3018 RMK AO2 SLP211 60000 T02500200 10250 20189 57006=
201409151749 SPECI KATL 151749Z 14004KT 10SM BKN018 BKN100 BKN250 25/20 A3018 RMK AO2=
201409151652 METAR KATL 151652Z 00000KT 8SM OVC012 24/19 A3020 RMK AO2 SLP218 T02390194=
201409151647 SPECI KATL 151647Z 00000KT 8SM OVC012 23/19 A3020 RMK AO2=
201409151552 METAR KATL 151552Z 06004KT 5SM HZ OVC007 22/19 A3021 RMK AO2 SLP224 T02170189=
201409151525 SPECI KATL 151525Z 06003KT 2 1/2SM BR OVC006 21/18 A3022 RMK AO2 SFC VIS 5=
201409151452 METAR KATL 151452Z 00000KT 1SM BR OVC006 20/18 A3023 RMK AO2 SFC VIS 4 DZE33 SLP230 P0000 60000 T02000183 51006=
201409151434 SPECI KATL 151434Z 10003KT 3/4SM BR OVC005 20/18 A3022 RMK AO2 SFC VIS 4 DZE33 P0000=
201409151352 METAR KATL 151352Z 10005KT 1/2SM -DZ BR OVC004 19/18 A3022 RMK AO2 SFC VIS 2 DZB50 SLP227 P0000 T01940183=
201409151252 METAR KATL 151252Z 08004KT 1/2SM R09R/5500VP6000FT BR OVC004 19/18 A3022 RMK AO2 SFC VIS 1 SLP227 CIG 003V005 TWRINC T01890178=
201409151152 METAR KATL 151152Z 08006KT 1/2SM BR OVC004 19/18 A3021 RMK AO2 SFC VIS 1 1/2 SLP223 CIG 003V005 T01890178 10189 20183 53004=
201409151052 METAR KATL 151052Z 07005KT 1/2SM BR OVC004 19/18 A3021 RMK AO2 SFC VIS 2 1/2 SLP223 TWRINC T01890178=
201409150952 METAR KATL 150952Z 07006KT 1/2SM R09R/P6000FT BR OVC002 18/18 A3019 RMK AO2 SFC VIS 1 SLP218 T01830178=
201409150852 METAR KATL 150852Z 09007KT 1/2SM R09R/6000VP6000FT BR OVC002 18/18 A3019 RMK AO2 SFC VIS 1 SLP218 T01830178 56006=
201409150843 SPECI KATL 150843Z 09005KT 1/2SM R09R/P6000FT BR OVC002 18/18 A3019 RMK AO2 SFC VIS 1=
201409150752 METAR KATL 150752Z 09008KT 1 1/2SM BR OVC003 18/18 A3019 RMK AO2 SFC VIS 2 SLP219 T01830178=
201409150652 METAR KATL 150652Z 09007KT 1 1/2SM BR OVC003 19/18 A3020 RMK AO2 SFC VIS 2 SLP221 T01890178=
201409150552 METAR KATL 150552Z 07008KT 1 1/2SM BR OVC003 19/18 A3021 RMK AO2 SFC VIS 2 1/2 SLP224 T01890178 10206 20189 58003=
201409150452 METAR KATL 150452Z 09007KT 1 1/2SM BR OVC004 19/18 A3022 RMK AO2 SFC VIS 3 SLP225 TWRINC T01890178 402560189=
201409150352 METAR KATL 150352Z 08007KT 1 1/2SM BR OVC004 19/18 A3022 RMK AO2 SFC VIS 3 SLP225 TWRINC T01890178=
201409150252 METAR KATL 150252Z 09006KT 1 1/2SM BR OVC004 19/18 A3022 RMK AO2 SFC VIS 6 SLP226 TWRINC T01940178 51013=
201409150242 SPECI KATL 150242Z 09009KT 1 1/2SM BR OVC004 19/18 A3022 RMK AO2 SFC VIS 6 TWRINC=
201409150221 SPECI KATL 150221Z 09009KT 7SM OVC004 19/18 A3022 RMK AO2=
201409150152 METAR KATL 150152Z 11006KT 8SM OVC006 19/18 A3022 RMK AO2 SLP226 T01940183=
201409150052 METAR KATL 150052Z 08009KT 8SM OVC006 20/18 A3020 RMK AO2 SLP220 T02000183=
201409142352 METAR KATL 142352Z 06007KT 8SM OVC008 21/18 A3018 RMK AO2 SLP214 T02060183 10239 20200 51006=
201409142312 SPECI KATL 142312Z 08010KT 9SM OVC009 21/18 A3017 RMK AO2=
201409142252 METAR KATL 142252Z 07009KT 9SM OVC011 21/18 A3017 RMK AO2 SLP210 T02110183=
201409142152 METAR KATL 142152Z 09009KT 9SM OVC012 22/19 A3018 RMK AO2 SLP212 T02220189=
201409142052 METAR KATL 142052Z 06010KT 9SM OVC012 23/19 A3017 RMK AO2 SLP208 T02330189 56012=
201409141952 METAR KATL 141952Z 07012KT 10SM OVC012 23/19 A3017 RMK AO2 SLP211 T02280189=
201409141852 METAR KATL 141852Z 05009KT 10SM OVC010 23/19 A3019 RMK AO2 SLP216 CIG 009V012 T02330194=
201409141811 SPECI KATL 141811Z 06012KT 10SM OVC010 23/19 A3019 RMK AO2 CIG 009V011=
201409141752 METAR KATL 141752Z 06011KT 10SM OVC008 23/20 A3020 RMK AO2 SLP219 CIG 007V009 T02330200 10256 20211 56002=
201409141652 METAR KATL 141652Z 06011KT 10SM OVC007 23/21 A3020 RMK AO2 SLP219 CIG 006V008 T02330206=
201409141642 SPECI KATL 141642Z 06012KT 10SM BKN007 OVC015 23/21 A3020 RMK AO2=
201409141552 METAR KATL 141552Z 12004KT 7SM BKN015 OVC050 25/21 A3020 RMK AO2 SLP218 CIG 013V018 T02500211=
201409141547 SPECI KATL 141547Z 13004KT 7SM BKN015 OVC050 25/21 A3020 RMK AO2=
201409141452 METAR KATL 141452Z 13006KT 7SM BKN011 OVC050 24/21 A3021 RMK AO2 SLP220 T02440211 51004=
201409141438 SPECI KATL 141438Z 11004KT 7SM SCT009 BKN013 OVC050 24/21 A3021 RMK AO2=
201409141352 METAR KATL 141352Z 09004KT 7SM BKN006 OVC011 23/21 A3020 RMK AO2 SLP219 CIG 005V008 T02280211=
201409141350 SPECI KATL 141350Z 11005KT 7SM BKN006 OVC011 23/21 A3020 RMK AO2 CIG 004V008 TWRINC=
201409141331 SPECI KATL 141331Z 10004KT 3SM BR BKN004 OVC010 23/21 A3020 RMK AO2 SFC VIS 6 TWRINC=
201409141321 SPECI KATL 141321Z 10005KT 1 1/2SM BR BKN004 OVC010 22/21 A3020 RMK AO2 SFC VIS 4 TWRINC=
201409141252 METAR KATL 141252Z 09004KT 3/4SM R09R/6000VP6000FT BR OVC003 22/21 A3019 RMK AO2 SFC VIS 1 SLP215 CIG 002V004 T02170211=
201409141218 SPECI KATL 141218Z 09005KT 3/4SM R09R/3000V5500FT BR OVC003 22/21 A3019 RMK AO2 CIG 002V004=
201409141152 METAR KATL 141152Z 07003KT 1 1/4SM BR OVC004 21/21 A3018 RMK AO2 SFC VIS 2 1/2 SLP212 CIG 003V005 TWRINC T02110206 10217 20194 51019=
201409141124 SPECI KATL 141124Z 00000KT 1 1/4SM BR OVC004 21/20 A3017 RMK AO2 SFC VIS 3 TWRINC=
201409141107 SPECI KATL 141107Z 08004KT 2SM BR OVC004 21/20 A3017 RMK AO2 SFC VIS 4=
201409141052 METAR KATL 141052Z 03003KT 4SM BR OVC005 21/19 A3017 RMK AO2 SLP205 T02110194=
201409140952 METAR KATL 140952Z 06005KT 6SM BR OVC005 21/19 A3015 RMK AO2 SLP198 CIG 004V007 T02060189=
201409140950 SPECI KATL 140950Z 06005KT 6SM BR OVC005 21/19 A3014 RMK AO2=
201409140921 SPECI KATL 140921Z VRB03KT 6SM BR OVC004 20/18 A3013 RMK AO2=
201409140852 METAR KATL 140852Z 01005KT 7SM OVC007 20/18 A3013 RMK AO2 SLP193 CIG 006V009 T02000178 55006=
201409140829 SPECI KATL 140829Z 33008KT 7SM BKN009 19/17 A3013 RMK AO2=
201409140802 SPECI KATL 140802Z 33005KT 8SM FEW009 SCT095 19/17 A3012 RMK AO2=
201409140752 METAR KATL 140752Z 33004KT 10SM FEW095 19/17 A3012 RMK AO2 SLP191 T01940172=
201409140652 METAR KATL 140652Z 33004KT 10SM FEW095 BKN150 20/18 A3013 RMK AO2 SLP193 T02000178=
201409140552 METAR KATL 140552Z 34005KT 10SM SCT095 21/18 A3014 RMK AO2 SLP198 T02060178 10267 20206 53002=
201409140452 METAR KATL 140452Z 33008KT 10SM FEW100 21/18 A3014 RMK AO2 SLP198 T02110178 403000211=
201409140352 METAR KATL 140352Z 33008KT 10SM FEW080 SCT250 21/18 A3014 RMK AO2 SLP196 T02110178=
201409140252 METAR KATL 140252Z 32007KT 10SM FEW075 SCT250 22/18 A3014 RMK AO2 SLP197 T02220178 53010=
201409140152 METAR KATL 140152Z 33012KT 10SM FEW075 SCT250 23/18 A3013 RMK AO2 SLP192 T02280178=
201409140052 SPECI KATL 140052Z 32011KT 10SM SCT120 BKN250 25/19 A3011 RMK AO2 SLP188 CB DSNT NE T02500194=
201409140052 METAR KATL 140052Z 32011KT 10SM SCT120 BKN250 25/19 A3011 RMK AO2 SLP188 CB DSNT NE T02500194=
201409132352 METAR KATL 132352Z 34005KT 10SM FEW032 BKN110 BKN250 27/20 A3011 RMK AO2 SLP185 CB DSNT NE T02670200 10300 20267 53007=
201409132252 METAR KATL 132252Z 31007KT 10SM FEW050 BKN200 BKN250 28/21 A3008 RMK AO2 SLP174 TCU DSNT S T02830206=
201409132152 METAR KATL 132152Z 32009KT 10SM FEW032 SCT100 BKN250 29/21 A3007 RMK AO2 SLP171 TCU DSNT NE-E T02890211=
201409132052 METAR KATL 132052Z 00000KT 10SM FEW030 SCT100 SCT200 BKN250 29/21 A3008 RMK AO2 SLP176 CB DSNT NE & SE TCU DSNT NE-E T02890206 55006=
201409131952 METAR KATL 131952Z 32009KT 10SM FEW030 SCT100 SCT200 BKN250 29/21 A3008 RMK AO2 SLP176 CB DSNT NE-SE-SW TCU DSNT NE-SE T02940211=
201409131852 METAR KATL 131852Z 33010KT 10SM FEW024 SCT095 BKN200 BKN250 28/22 A3008 RMK AO2 SLP174 CB DSNT NE-SE-SW TCU DSNT NE-SE T02830217=
201409131752 METAR KATL 131752Z 32014KT 10SM FEW016 SCT095 SCT180 BKN250 28/22 A3010 RMK AO2 SLP183 CB DSNT E-S ACC DSNT NW-N T02780222 10278 20228 58005=
201409131652 METAR KATL 131652Z 32012KT 10SM SCT014 BKN100 BKN180 BKN250 26/22 A3013 RMK AO2 SLP191 T02610222=
201409131552 METAR KATL 131552Z 31009KT 10SM SCT015 BKN100 BKN180 BKN250 27/23 A3012 RMK AO2 SLP190 T02720228=
201409131527 SPECI KATL 131527Z 34005KT 10SM SCT013TCU BKN120 BKN180 BKN250 27/23 A3012 RMK AO2 TCU NW=
201409131523 SPECI KATL 131523Z 31006KT 10SM BKN011 BKN120 BKN200 BKN250 27/23 A3012 RMK AO2 CIG 009V013=
201409131452 METAR KATL 131452Z VRB05KT 8SM OVC006 25/23 A3012 RMK AO2 SLP189 CIG 004V007 BINOVC T02500228 53014=
201409131444 SPECI KATL 131444Z 33005KT 7SM OVC005 25/22 A3012 RMK AO2 CIG 004V007 BINOVC=
201409131404 SPECI KATL 131404Z 33006KT 5SM BR OVC004 24/23 A3011 RMK AO2 BINOVC=
201409131352 METAR KATL 131352Z 36007KT 2SM BR OVC004 24/22 A3010 RMK AO2 SFC VIS 5 SLP185 BINOVC T02390222=
201409131340 SPECI KATL 131340Z 34004KT 2SM BR OVC003 24/22 A3010 RMK AO2 SFC VIS 4 BINOVC=
201409131316 SPECI KATL 131316Z 33005KT 1SM R09R/4500VP6000FT BR BKN003 BKN120 BKN250 23/22 A3009 RMK AO2 SFC VIS 1 3/4 VIS 1V4=
201409131252 METAR KATL 131252Z 34005KT 1/4SM BR OVC003 23/22 A3009 RMK AO2 SFC VIS 5 SLP179 VIS SW-NW-N 3/4 CIG 002V004 TWRINC T02280222=
201409131233 SPECI KATL 131233Z 35004KT 1/4SM R09R/2800VP6000FT BR OVC003 23/22 A3009 RMK AO2 SFC VIS 1 TWRINC=
201409131152 METAR KATL 131152Z 34006KT 2SM BR BKN003 BKN250 23/22 A3008 RMK AO2 SFC VIS 4 SLP175 VIS SW-NW 1 TWRINC 60000 70005 T02280217 10239 20228 53011=
201409131150 SPECI KATL 131150Z 33006KT 2SM BR BKN003 BKN250 23/22 A3008 RMK AO2 SFC VIS 4 VIS SW-NW 1=
201409131139 SPECI KATL 131139Z 34005KT 2SM BR SCT003 SCT140 BKN250 23/22 A3007 RMK AO2 SFC VIS 6 VIS SW-NW 1 1/2=
201409131052 METAR KATL 131052Z 31006KT 10SM FEW005 SCT140 SCT250 23/22 A3006 RMK AO2 SLP169 VIS LWR W-N T02280217=
201409131030 SPECI KATL 131030Z 31006KT 10SM FEW005 SCT140 23/22 A3005 RMK AO2=
201409130952 METAR KATL 130952Z 32007KT 10SM BKN140 BKN200 23/22 A3005 RMK AO2 SLP165 T02280217=
201409130852 METAR KATL 130852Z 00000KT 10SM FEW140 SCT200 OVC250 23/22 A3004 RMK AO2 SLP163 60000 T02330217 55007=
201409130752 METAR KATL 130752Z 32004KT 10SM SCT140 SCT200 OVC250 24/22 A3004 RMK AO2 RAB0658E14 SLP161 P0000 T02390217=
201409130652 METAR KATL 130652Z 00000KT 10SM SCT140 SCT200 OVC250 23/22 A3004 RMK AO2 SLP161 T02330217=
201409130552 METAR KATL 130552Z 22003KT 10SM SCT140 SCT200 BKN250 23/21 A3006 RMK AO2 SLP169 T02280211 10261 20228 53004=
201409130452 METAR KATL 130452Z 31003KT 10SM SCT140 BKN200 OVC250 24/22 A3005 RMK AO2 SLP165 T02390217 403330233=
201409130352 METAR KATL 130352Z 00000KT 10SM SCT150 BKN200 OVC250 26/21 A3005 RMK AO2 SLP164 T02560211=
201409130252 METAR KATL 130252Z 00000KT 10SM FEW150 BKN200 OVC250 24/22 A3005 RMK AO2 SLP165 T02440217 51006=
201409130252 SPECI KATL 130252Z 00000KT 10SM FEW150 BKN200 OVC250 24/22 A3005 RMK AO2 SLP165 T02440217 51006=
201409130152 METAR KATL 130152Z 34003KT 10SM FEW120 BKN200 OVC250 24/22 A3005 RMK AO2 SLP164 T02440217=
201409130052 METAR KATL 130052Z 00000KT 10SM SCT120 BKN150 BKN200 26/20 A3004 RMK AO2 TSE15 SLP162 T02610200=
201409130016 SPECI KATL 130016Z 00000KT 10SM FEW050 BKN110 BKN150 BKN200 24/21 A3003 RMK AO2 TSE15 OCNL LTGICCG DSNT E-SE TS MOV E=
201409122352 METAR KATL 122352Z 05009KT 10SM TS FEW025CB SCT070 BKN100 BKN200 24/21 A3003 RMK AO2 RAB2257E52 SLP161 OCNL LTGICCGCA NE-SE TS VC NE-SE MOV E P0000 60005 T02440211 10333 20239 53014=
201409122252 METAR KATL 122252Z 29013KT 10SM TS FEW025CB SCT045 BKN100 BKN200 26/21 A3001 RMK AO2 TSB29RAB38E51 SLP153 OCNL LTGIC NW-N TS VC NW-N MOV NE P0000 T02560211=
201409122230 SPECI KATL 122230Z 25007KT 10SM TS FEW025CB SCT050 BKN100 BKN200 27/23 A2999 RMK AO2 TSB29 OCNL LTGIC SW-NW TS VC SW-NW MOV NE=
201409122152 METAR KATL 122152Z 00000KT 10SM FEW030 SCT050 BKN150 BKN250 28/22 A2999 RMK AO2 RAB28E44 SLP143 OCNL LTG DSNT N-NE CB DSNT N-NE & SW & W P0004 T02780222=
201409122052 METAR KATL 122052Z 20006G14KT 10SM BKN042TCU BKN055 BKN250 28/22 A2999 RMK AO2 RAB07E18 SLP145 TCU ALQDS CB DSNT NW P0001 60001 T02780222 56017=
201409121952 METAR KATL 121952Z 13005KT 10SM BKN045TCU BKN060 BKN180 BKN250 31/21 A3000 RMK AO2 SLP145 TCU ALQDS T03110211=
201409121852 METAR KATL 121852Z 12004KT 10SM SCT046TCU BKN180 BKN250 33/21 A3002 RMK AO2 SLP153 TCU ALQDS T03280206=
201409121752 METAR KATL 121752Z 00000KT 10SM SCT043TCU BKN180 BKN250 31/19 A3004 RMK AO2 SLP162 TCU SE-SW CB DSNT W T03110194 10322 20244 58013=
201409121652 METAR KATL 121652Z 31004KT 10SM FEW040 SCT150 SCT250 31/21 A3006 RMK AO2 SLP168 CB DSNT W TCU DSNT SE-SW T03110211=
201409121552 METAR KATL 121552Z VRB03KT 10SM FEW030 SCT100 SCT250 29/22 A3008 RMK AO2 SLP173 TCU DSNT S T02940217=
201409121452 METAR KATL 121452Z 28006KT 10SM FEW020 SCT100 SCT150 BKN250 28/22 A3008 RMK AO2 SLP175 T02830217 53003=
201409121352 METAR KATL 121352Z 32003KT 10SM FEW070 SCT100 BKN150 BKN250 26/22 A3008 RMK AO2 SLP174 T02560217=
201409121252 METAR KATL 121252Z 00000KT 10SM FEW075 SCT110 BKN200 BKN250 24/21 A3007 RMK AO2 SLP172 ACC DSNT SW & W-NW T02440211=
201409121152 METAR KATL 121152Z 06004KT 10SM FEW012 SCT070 SCT110 BKN200 24/22 A3008 RMK AO2 SLP174 SHRA DSNT N & NE 60000 T02440222 10256 20233 51010=
201409121052 METAR KATL 121052Z 30005KT 10SM FEW030 SCT065 BKN100 BKN200 23/22 A3007 RMK AO2 RAB15E40 SLP173 OCNL LTGIC DSNT NE CB DSNT NE P0000 T02330222=
201409120952 METAR KATL 120952Z 00000KT 10SM FEW044TCU BKN090 BKN150 BKN200 26/22 A3006 RMK AO2 SLP166 TCU SW-W VCSH W T02560217=
201409120852 METAR KATL 120852Z 03003KT 10SM SCT045TCU BKN075 BKN150 BKN200 25/22 A3005 RMK AO2 SLP162 TCU N VCSH N T02500217 55001=
201409120752 METAR KATL 120752Z 29004KT 10SM FEW044TCU SCT075 SCT150 BKN200 24/22 A3004 RMK AO2 SLP160 TCU NW T02440222=
201409120652 METAR KATL 120652Z 00000KT 10SM FEW070 SCT100 SCT150 BKN250 24/22 A3004 RMK AO2 SLP161 T02440217=
201409120552 METAR KATL 120552Z 00000KT 10SM FEW046 SCT070 BKN150 BKN250 26/22 A3005 RMK AO2 SLP163 T02560222 10289 20250 53001=
201409120452 METAR KATL 120452Z 25003KT 10SM SCT150 BKN250 26/22 A3004 RMK AO2 SLP161 CB DSNT NW T02610217 403220222=
201409120352 METAR KATL 120352Z 00000KT 10SM SCT150 BKN250 28/21 A3005 RMK AO2 SLP163 CB DSNT NW-N T02780211=
201409120252 METAR KATL 120252Z 00000KT 10SM BKN150 BKN250 27/22 A3005 RMK AO2 SLP162 CB DSNT NW-N T02670217 53015=
201409120152 METAR KATL 120152Z 23004KT 10SM FEW040 SCT150 BKN250 27/22 A3003 RMK AO2 SLP158 T02720217=
201409120052 METAR KATL 120052Z 00000KT 10SM FEW040 BKN250 28/22 A3001 RMK AO2 SLP152 CB DSNT N-NE & NW T02780217=
201409112352 METAR KATL 112352Z 22004KT 10SM FEW040 BKN250 29/21 A3000 RMK AO2 SLP149 CB DSNT NW-N T02890211 10322 20289 53000=
201409112252 METAR KATL 112252Z 26004KT 10SM FEW045 BKN250 31/21 A2999 RMK AO2 SLP145 T03060211=
201409112152 METAR KATL 112152Z VRB04KT 10SM FEW045 BKN250 31/21 A2999 RMK AO2 SLP145 CB DSNT NE T03110206=
201409112052 METAR KATL 112052Z 26006KT 10SM BKN045TCU BKN060 BKN250 32/21 A3000 RMK AO2 SLP147 CB DSNT N TCU N-NE & SW-NW T03220206 56020=
201409111952 METAR KATL 111952Z 21009KT 10SM FEW046 SCT060 BKN250 32/21 A3000 RMK AO2 SLP149 TCU DSNT NW-N T03170206=
201409111852 METAR KATL 111852Z VRB06KT 10SM FEW042 SCT060 BKN250 32/21 A3003 RMK AO2 SLP157 TCU DSNT W-NW-N T03170206=
201409111752 METAR KATL 111752Z 25009KT 10SM FEW040 SCT070 BKN250 31/21 A3006 RMK AO2 SLP168 TCU DSNT E & SW T03060206 10311 20222 58011=
201409111652 METAR KATL 111652Z 22009KT 10SM FEW033 SCT060 BKN250 30/21 A3007 RMK AO2 SLP171 TCU DSNT NE-E-SE T03000206=
201409111552 METAR KATL 111552Z 21008KT 10SM SCT030TCU SCT050 BKN250 30/21 A3009 RMK AO2 SLP177 TCU NE T03000211=
201409111534 SPECI KATL 111534Z 27008KT 10SM BKN027 BKN060 BKN250 29/22 A3009 RMK AO2=
201409111452 METAR KATL 111452Z 25004KT 10SM FEW020 SCT100 BKN250 28/22 A3009 RMK AO2 SLP179 T02830217 53004=
201409111352 METAR KATL 111352Z 22004KT 10SM FEW015 SCT070 BKN250 26/22 A3009 RMK AO2 SLP177 T02610222=
201409111252 METAR KATL 111252Z 17004KT 10SM FEW030 SCT075 SCT200 BKN250 24/22 A3007 RMK AO2 SLP174 ACC N T02440217=
201409111152 METAR KATL 111152Z 15003KT 10SM FEW032 SCT070 SCT200 BKN250 22/21 A3008 RMK AO2 SLP175 ACC DSNT SW & NW-N T02220211 10233 20222 53010=
201409111052 METAR KATL 111052Z 00000KT 10SM FEW030 SCT200 SCT250 22/21 A3007 RMK AO2 SLP172 TCU DSNT E T02220206=
201409110952 METAR KATL 110952Z 00000KT 10SM SCT028 SCT250 23/21 A3006 RMK AO2 SLP168 T02280206=
201409110852 METAR KATL 110852Z 00000KT 10SM FEW037 SCT250 23/21 A3005 RMK AO2 SLP165 T02280206 50001=
201409110752 METAR KATL 110752Z 00000KT 10SM FEW250 23/21 A3006 RMK AO2 SLP167 T02280211=
201409110652 METAR KATL 110652Z 00000KT 10SM FEW250 23/21 A3006 RMK AO2 SLP168 T02280206=
201409110552 METAR KATL 110552Z 15003KT 10SM SCT200 23/21 A3005 RMK AO2 SLP164 T02330211 10278 20233 53003=
201409110452 METAR KATL 110452Z 15005KT 10SM SCT250 24/21 A3004 RMK AO2 SLP163 T02390211 403000222=
201409110352 METAR KATL 110352Z 16006KT 10SM SCT250 24/21 A3004 RMK AO2 SLP164 T02390211=
201409110252 METAR KATL 110252Z 15005KT 10SM SCT250 24/21 A3004 RMK AO2 SLP163 T02440211 50006=
201409110152 METAR KATL 110152Z 14004KT 10SM SCT250 26/21 A3004 RMK AO2 SLP163 T02560211=
201409110052 METAR KATL 110052Z 14004KT 10SM BKN250 26/21 A3003 RMK AO2 SLP159 T02610211=
201409102352 METAR KATL 102352Z 13005KT 10SM FEW035 BKN250 28/21 A3002 RMK AO2 SLP156 T02780206 10300 20261 56003=
201409102252 METAR KATL 102252Z 15005KT 10SM FEW035 BKN250 28/20 A3002 RMK AO2 SLP156 T02830200=
201409102152 METAR KATL 102152Z 19007KT 10SM SCT035TCU SCT060 BKN250 28/19 A3002 RMK AO2 SLP156 TCU OHD-NW T02830194=
201409102052 METAR KATL 102052Z 18008KT 10SM SCT034TCU SCT060 BKN250 28/19 A3003 RMK AO2 SLP159 TCU SW-NW T02830194 56020=
201409101952 METAR KATL 101952Z 19007KT 10SM SCT032TCU SCT060 BKN250 29/21 A3005 RMK AO2 SLP164 TCU E & S-SW-W-NW T02890206=
201409101852 METAR KATL 101852Z 16004KT 10SM BKN030TCU BKN060 28/21 A3007 RMK AO2 SLP173 TCU OHD & ALQDS T02830206=
201409101752 METAR KATL 101752Z 16007KT 10SM BKN020TCU BKN060 26/21 A3009 RMK AO2 SLP181 TCU N-NE-E-SE-S T02610211 10272 20222 58010=
201409101652 METAR KATL 101652Z 17007KT 10SM BKN020 BKN030 BKN070 27/21 A3011 RMK AO2 SLP186 MDT CU ALQDS T02670211=
201409101601 SPECI KATL 101601Z 14006KT 10SM BKN016 BKN020 BKN070 26/21 A3012 RMK AO2=
201409101552 METAR KATL 101552Z 15009KT 10SM BKN014 BKN020 BKN070 25/21 A3012 RMK AO2 SLP190 T02500206=
201409101452 METAR KATL 101452Z 14006KT 9SM BKN012 BKN070 24/21 A3012 RMK AO2 SLP192 T02440206 51006=
201409101441 SPECI KATL 101441Z 14008KT 10SM R09R/4000VP6000FT BKN012 BKN070 24/21 A3012 RMK AO2=
201409101352 METAR KATL 101352Z 13008KT 10SM OVC009 23/21 A3012 RMK AO2 SLP191 BINOVC NW T02330206=
201409101252 METAR KATL 101252Z 12006KT 10SM OVC009 22/20 A3011 RMK AO2 SLP188 CIG 008V011 T02220200=
201409101152 METAR KATL 101152Z 11006KT 10SM OVC010 22/20 A3011 RMK AO2 SLP186 CIG 008V012 T02220200 10228 20222 53015=
201409101052 METAR KATL 101052Z 10007KT 10SM OVC012 22/20 A3009 RMK AO2 SLP178 CIG 010V014 T02220200=
201409100952 METAR KATL 100952Z 09006KT 10SM FEW010 BKN014 OVC032 22/19 A3007 RMK AO2 SLP173 CIG 012V016 T02220194=
201409100852 METAR KATL 100852Z 11007KT 10SM FEW012 BKN022 OVC036 22/19 A3006 RMK AO2 SLP170 T02220194 56008=
201409100752 METAR KATL 100752Z 10005KT 10SM FEW024 OVC034 22/19 A3006 RMK AO2 SLP170 T02220194=
201409100720 SPECI KATL 100720Z 09008KT 10SM SCT024 OVC032 22/19 A3007 RMK AO2 BINOVC=
201409100652 METAR KATL 100652Z 09006KT 10SM FEW018 OVC028 22/19 A3007 RMK AO2 SLP174 BINOVC T02220194=
201409100552 METAR KATL 100552Z 10007KT 10SM FEW018 OVC024 23/19 A3009 RMK AO2 SLP179 T02280194 10267 20222 50002=
201409100452 METAR KATL 100452Z 11005KT 10SM BKN020 BKN250 22/20 A3009 RMK AO2 SLP179 T02220200 402890206=
201409100352 METAR KATL 100352Z 10005KT 10SM FEW250 23/20 A3008 RMK AO2 SLP178 T02330200=
201409100252 METAR KATL 100252Z 12008KT 10SM CLR 24/20 A3008 RMK AO2 SLP177 T02390200 51007=
201409100152 METAR KATL 100152Z 11006KT 10SM CLR 25/20 A3008 RMK AO2 SLP177 T02500200=
201409100052 METAR KATL 100052Z 12005KT 10SM FEW250 26/20 A3006 RMK AO2 SLP171 T02610200=
201409092352 METAR KATL 092352Z 12004KT 10SM FEW035 27/19 A3006 RMK AO2 SLP169 T02670194 10289 20256 56001=
201409092252 METAR KATL 092252Z 09007KT 10SM FEW035 27/19 A3006 RMK AO2 SLP170 T02720194=
201409092152 METAR KATL 092152Z 17005KT 10SM FEW035 28/19 A3005 RMK AO2 SLP166 T02780194=
201409092052 METAR KATL 092052Z 08004KT 10SM FEW032 SCT250 29/21 A3006 RMK AO2 SLP169 T02890206 56016=
201409091952 METAR KATL 091952Z 07004KT 10SM SCT030 28/21 A3008 RMK AO2 SLP176 T02830206=
201409091950 SPECI KATL 091950Z 08003KT 10SM SCT030 28/20 A3008 RMK AO2=
201409091852 METAR KATL 091852Z 15005KT 10SM BKN027 27/20 A3011 RMK AO2 SLP186 T02720200=
201409091752 METAR KATL 091752Z VRB03KT 10SM BKN024 BKN250 26/19 A3013 RMK AO2 SLP195 T02560194 10256 20206 58008=
201409091652 METAR KATL 091652Z 14004KT 10SM BKN020 BKN025 BKN250 25/19 A3015 RMK AO2 SLP199 T02500194=
201409091552 METAR KATL 091552Z VRB03KT 10SM BKN020 BKN250 24/19 A3015 RMK AO2 SLP202 T02440194=
201409091452 METAR KATL 091452Z 11005KT 10SM BKN016 BKN020 BKN250 24/19 A3016 RMK AO2 SLP203 T02390189 53001=
201409091352 METAR KATL 091352Z 09008KT 10SM BKN015 BKN020 BKN250 23/18 A3015 RMK AO2 SLP201 T02280183=
201409091314 SPECI KATL 091314Z 08004KT 10SM BKN014 BKN018 BKN020 22/18 A3016 RMK AO2=
201409091252 METAR KATL 091252Z 10006KT 10SM SCT012 BKN020 22/18 A3015 RMK AO2 SLP202 T02170183=
201409091249 SPECI KATL 091249Z 09004KT 10SM SCT012 BKN020 22/18 A3015 RMK AO2=
201409091152 METAR KATL 091152Z 12005KT 10SM FEW010 SCT032 21/18 A3014 RMK AO2 SLP198 T02060183 10222 20206 53007=
201409091052 METAR KATL 091052Z 12008KT 10SM FEW011 BKN032 21/18 A3013 RMK AO2 SLP192 T02110183=
201409091045 SPECI KATL 091045Z 11007KT 10SM FEW011 BKN032 21/18 A3013 RMK AO2=
201409090952 METAR KATL 090952Z 08009KT 10SM BKN011 BKN017 OVC032 21/18 A3012 RMK AO2 SLP191 CIG 009V013 T02110183=
201409090940 SPECI KATL 090940Z 08008KT 10SM BKN011 BKN017 OVC032 21/18 A3012 RMK AO2 CIG 009V013=
201409090852 METAR KATL 090852Z 10007KT 10SM OVC009 21/19 A3012 RMK AO2 SLP189 T02110189 51005=
201409090752 METAR KATL 090752Z 09010KT 8SM BKN009 OVC019 22/19 A3011 RMK AO2 SLP188 T02170194=
201409090750 SPECI KATL 090750Z 09010KT 8SM BKN009 OVC019 22/19 A3011 RMK AO2=
201409090716 SPECI KATL 090716Z 10005KT 10SM BKN011 OVC019 22/19 A3011 RMK AO2=
201409090652 METAR KATL 090652Z 09007KT 10SM FEW009 BKN019 BKN030 22/19 A3012 RMK AO2 SLP188 T02220194=
201409090552 METAR KATL 090552Z 08010KT 10SM FEW009 BKN017 OVC030 22/19 A3011 RMK AO2 SLP184 T02220194 10261 20222 55001=
201409090452 METAR KATL 090452Z 09005KT 10SM FEW009 OVC016 23/20 A3010 RMK AO2 SLP185 T02280200 402890222=
201409090352 METAR KATL 090352Z 09007KT 10SM FEW012 BKN020 BKN250 23/21 A3011 RMK AO2 SLP186 T02280206=
201409090252 METAR KATL 090252Z 09008KT 10SM FEW012 BKN250 23/21 A3011 RMK AO2 SLP186 T02330206 51023=
201409090152 METAR KATL 090152Z 09009KT 10SM FEW065 BKN250 24/21 A3009 RMK AO2 SLP179 T02390211=
201409090052 METAR KATL 090052Z 09009KT 10SM FEW030 BKN065 BKN250 25/21 A3007 RMK AO2 SLP175 T02500211=
201409082352 METAR KATL 082352Z 09008KT 10SM FEW025 SCT032 BKN250 26/21 A3004 RMK AO2 SLP162 CB DSNT SW T02610211 10289 20261 53003=
201409082252 METAR KATL 082252Z 09007KT 10SM FEW025 SCT250 27/21 A3003 RMK AO2 SLP157 T02720206=
201409082152 METAR KATL 082152Z 09007KT 10SM SCT028TCU BKN250 29/21 A3003 RMK AO2 SLP159 TCU W-NW T02890211=
201409082052 METAR KATL 082052Z 12006KT 10SM FEW025 SCT060 SCT250 28/22 A3003 RMK AO2 SLP158 CB DSNT SE-S TCU DSNT N-NE-E & SW T02830217 58007=
201409081952 METAR KATL 081952Z 11007KT 10SM SCT026CB SCT030TCU BKN060 BKN250 27/22 A3004 RMK AO2 SLP162 CB S MOV S TCU N & SW-W SHRA VC S T02670217=
201409081950 SPECI KATL 081950Z 11007KT 10SM SCT026CB SCT030TCU BKN060 BKN250 27/22 A3004 RMK AO2 CB S MOV S TCU N & SW-W SHRA VC S=
201409081852 METAR KATL 081852Z 02007KT 10SM BKN026TCU BKN070 BKN250 28/21 A3005 RMK AO2 SLP165 CB DSNT E TCU OHD & ALQDS SHRA DSNT E T02780211=
201409081752 METAR KATL 081752Z 00000KT 10SM BKN023TCU BKN030 BKN250 27/22 A3007 RMK AO2 SLP173 TCU N-NE-E & S & W T02720217 10278 20222 58008=
201409081652 METAR KATL 081652Z 16004KT 10SM SCT015 BKN030 BKN040 26/21 A3009 RMK AO2 SLP179 T02560211=
201409081619 SPECI KATL 081619Z 00000KT 10SM FEW015 SCT025 BKN030 26/22 A3009 RMK AO2=
201409081552 METAR KATL 081552Z 13004KT 10SM FEW010 SCT015 BKN025 26/21 A3009 RMK AO2 SLP181 T02560211=
201409081455 SPECI KATL 081455Z 09005KT 10SM FEW010 BKN014 OVC020 24/22 A3010 RMK AO2=
201409081452 METAR KATL 081452Z 11005KT 9SM SCT010 BKN017 OVC020 24/22 A3010 RMK AO2 SLP183 T02390217 51016=
201409081354 SPECI KATL 081354Z 08007KT 9SM SCT006 BKN015 OVC020 24/22 A3008 RMK AO2=
201409081352 METAR KATL 081352Z 09006KT 8SM BKN006 BKN010 OVC015 24/22 A3008 RMK AO2 SLP178 T02390217=
201409081329 SPECI KATL 081329Z 08006KT 6SM BR BKN006 BKN010 OVC015 23/21 A3008 RMK AO2=
201409081308 SPECI KATL 081308Z 06005KT 3SM BR OVC005 23/21 A3008 RMK AO2 SFC VIS 6=
201409081252 METAR KATL 081252Z 07007KT 7SM OVC005 23/21 A3007 RMK AO2 SLP175 T02280211=
201409081152 METAR KATL 081152Z 07005KT 7SM OVC005 22/21 A3005 RMK AO2 SLP167 60000 70010 T02220211 10239 20222 53011=
201409081103 SPECI KATL 081103Z 08008KT 7SM OVC005 22/21 A3003 RMK AO2=
201409081052 METAR KATL 081052Z 08008KT 7SM OVC004 22/21 A3003 RMK AO2 SLP160 T02220211=
201409081016 SPECI KATL 081016Z 07007KT 7SM OVC004 22/21 A3003 RMK AO2=
201409080952 METAR KATL 080952Z 06007KT 8SM OVC006 22/21 A3002 RMK AO2 SLP157 T02220211=
201409080852 METAR KATL 080852Z COR 08006KT 8SM BKN006 OVC150 22/21 A3002 RMK AO2 SLP153 60000 T02220206 58006 $=
201409080752 METAR KATL 080752Z 05011KT 10SM BKN008 BKN013 OVC018 23/21 A3003 RMK AO2 SLP159 T02280206=
201409080750 SPECI KATL 080750Z 05011KT 10SM BKN008 BKN013 OVC018 23/21 A3003 RMK AO2=
201409080742 SPECI KATL 080742Z 05010KT 10SM FEW008 BKN013 BKN026 23/21 A3003 RMK AO2=
201409080652 METAR KATL 080652Z 02005KT 10SM FEW009 BKN019 OVC035 24/21 A3003 RMK AO2 TSE34RAE42 SLP158 TS DSIPTD P0000 T02390211=
201409080634 SPECI KATL 080634Z 35004KT 10SM -RA FEW009 BKN019 OVC033 23/21 A3003 RMK AO2 TSE34 TS DSIPTD P0000=
201409080552 METAR KATL 080552Z COR 34003KT 10SM -TSRA BKN023CB OVC110 23/21 A3004 RMK AO2 TSB33RAB44 SLP159 OCNL LTGIC NE-E TS VC NE-E MOV STNRY P0000 60000 T02330211 10250 20233 51002=
201409080533 SPECI KATL 080533Z 00000KT 10SM TS BKN023CB BKN030 OVC110 24/21 A3003 RMK AO2 TSB33 OCNL LTGIC NE TS VC NE STNRY=
201409080505 SPECI KATL 080505Z 00000KT 10SM SCT022 BKN050 BKN110 OVC200 23/21 A3003 RMK AO2=
201409080452 METAR KATL 080452Z 00000KT 10SM BKN022 BKN055 BKN100 OVC200 24/21 A3004 RMK AO2 SLP159 OCNL LTGIC DSNT NW CB DSNT NW T02390206 403220228=
201409080352 METAR KATL 080352Z 29003KT 10SM FEW020 BKN030 BKN060 OVC140 23/21 A3005 RMK AO2 SLP163 T02330211=
201409080345 SPECI KATL 080345Z 29003KT 10SM FEW020 BKN030 BKN060 OVC140 23/21 A3004 RMK AO2=
201409080252 METAR KATL 080252Z 29003KT 10SM BKN018 BKN055 BKN120 OVC200 23/21 A3003 RMK AO2 SLP158 T02330206 51014=
201409080252 SPECI KATL 080252Z 29003KT 10SM BKN018 BKN055 BKN120 OVC200 23/21 A3003 RMK AO2 SLP158 T02330206 51014=
201409080247 SPECI KATL 080247Z 28004KT 10SM BKN018 BKN050 BKN120 OVC200 23/21 A3003 RMK AO2=
201409080152 METAR KATL 080152Z 30003KT 10SM FEW046 SCT120 BKN200 OVC250 24/21 A3002 RMK AO2 SLP153 T02440206=
201409080052 METAR KATL 080052Z 00000KT 10SM FEW026TCU SCT044 SCT120 BKN200 24/20 A3001 RMK AO2 SLP152 TCU NW-NE T02390200=
201409072352 METAR KATL 072352Z COR 21005KT 10SM SCT026 SCT050 BKN120 BKN180CB 25/21 A2999 RMK AO2 SLP145 OCNL LTGICCA DSNT SW CBMAM NE-OHD-SW MOV SW CB DSNT SW TCU DSNT NE 60010 T02500206 10317 20244 53007=
201409072252 METAR KATL 072252Z 00000KT 10SM FEW048 SCT120 BKN200 BKN250 25/20 A2997 RMK AO2 TSE12 SLP140 TS DSIPTD CONS LTGICCG DSNT S-SW CB DSNT N & NE & S-SW TCU DSNT N & NE T02500200=
201409072215 SPECI KATL 072215Z 06006KT 10SM FEW040 SCT110 BKN200 BKN250 26/20 A2996 RMK AO2 TSE12 TS DSIPTD OCNL LTGICCA DSNT SW-NW CB DSNT SE-SW-NW TCU DSNT N & E=
201409072152 METAR KATL 072152Z COR 11008KT 10SM TS SCT038CB SCT048TCU SCT100 BKN200 26/20 A2996 RMK AO2 WSHFT 2047 SLP136 OCNL LTGICCG NE & SE-S TS NE & VC SE-S MOV SW CB NW MOV SW CB DSNT NW-NE TCU S-SW & W-NW SHRA NE & VC SE-S & NW T0256020=
201409072105 SPECI KATL 072105Z 09015G23KT 10SM TS FEW015 SCT036CB SCT048TCU BKN200 26/21 A2997 RMK AO2 WSHFT 2047 OCNL LTGICCG NE-SE TS NE-SE MOV S TCU W-NW=
201409072052 METAR KATL 072052Z COR 07020G23KT 10SM TS FEW015 SCT040CB SCT050TCU BKN250 29/22 A2997 RMK AO2 TSB27 SLP136 OCNL LTGCG NE-SE TS NE-SE MOV SE TCU S & W-NW CB DSNT NW VSBY LWR NE 60010 T02940217 55011=
201409072029 SPECI KATL 072029Z 36008KT 10SM TS SCT040CB SCT050TCU BKN080 31/22 A2995 RMK AO2 TSB27 OCNL LTGCG E TS NE-SE MOV S CB NE-SE MOV S=
201409071952 METAR KATL 071952Z VRB03KT 10SM SCT045TCU BKN080 29/23 A2996 RMK AO2 TSE42RAB02E44 SLP133 TS MOV SE CB DSNT NE AND SE AND NW TCU S-W P0010 T02890233=
201409071944 SPECI KATL 071944Z VRB03KT 10SM SCT045TCU BKN080 29/23 A2996 RMK AO2 TSE42RAB02E44 TS MOV SE CB DSNT NE AND SE TCU S-W P0010=
201409071852 METAR KATL 071852Z 00000KT 10SM TS SCT040CB BKN045TCU BKN100 31/21 A2997 RMK AO2 TSB49RAB23E32 SLP138 OCNL LGTCG NW TS SW-NW MOV S TCU N & SE P0000 T03060206=
201409071752 METAR KATL 071752Z 00000KT 10SM SCT035CB SCT045TCU BKN095 32/22 A3000 RMK AO2 SLP147 CB SW MOV S TCU W CB DSNT NE & NW T03170217 10322 20244 58012=
201409071652 METAR KATL 071652Z 00000KT 10SM SCT032TCU SCT045 BKN100 31/22 A3003 RMK AO2 SLP156 TCU ALQDS T03110222=
201409071552 METAR KATL 071552Z 09004KT 10SM FEW030 BKN095 BKN250 29/23 A3004 RMK AO2 SLP163 T02940228=
201409071452 METAR KATL 071452Z 11003KT 10SM FEW025 SCT100 SCT250 28/23 A3004 RMK AO2 SLP160 T02830228 51008=
201409071352 METAR KATL 071352Z VRB03KT 10SM SCT150 SCT250 27/22 A3003 RMK AO2 SLP156 T02720217=
201409071252 METAR KATL 071252Z 04005KT 10SM FEW150 SCT250 26/21 A3002 RMK AO2 SLP156 T02560211=
201409071152 METAR KATL 071152Z 04003KT 9SM FEW150 SCT250 24/21 A3001 RMK AO2 SLP152 T02440211 10244 20228 53010 $=
201409071052 METAR KATL 071052Z 34003KT 10SM FEW150 SCT250 23/21 A3000 RMK AO2 SLP147 T02280211=
201409070952 METAR KATL 070952Z 33003KT 10SM FEW150 SCT250 23/21 A2999 RMK AO2 SLP144 T02280211=
201409070852 METAR KATL 070852Z 00000KT 10SM FEW150 SCT250 23/21 A2998 RMK AO2 SLP141 T02280211 56007=
201409070752 METAR KATL 070752Z 24003KT 10SM FEW040 SCT100 BKN250 23/21 A2999 RMK AO2 SLP144 T02330211=
201409070652 METAR KATL 070652Z 18003KT 10SM SCT040 SCT075 SCT250 23/22 A2999 RMK AO2 SLP143 OCNL LTG DSNT SE T02330217=
201409070552 METAR KATL 070552Z 30005KT 10SM SCT040 SCT090 SCT150 BKN250 24/21 A3000 RMK AO2 SLP147 T02390211 10283 20239 58008=
201409070452 METAR KATL 070452Z 25003KT 10SM FEW046TCU SCT090 SCT150 BKN250 24/22 A3001 RMK AO2 SLP151 TCU NE T02390217 403280228=
201409070352 METAR KATL 070352Z 00000KT 10SM FEW048TCU SCT110 SCT150 SCT250 24/22 A3002 RMK AO2 SLP154 TCU E T02390217=
201409070252 METAR KATL 070252Z 00000KT 10SM FEW050TCU SCT100 BKN150 BKN200 24/22 A3003 RMK AO2 SLP157 TCU SE SHRA SE T02440217 51015=
201409070152 METAR KATL 070152Z 19004KT 10SM BKN055 BKN110 BKN150 BKN200 25/22 A3002 RMK AO2 SLP154 FRQ LTGICCG DSNT E-SE CB DSNT E-SE T02500217=
201409070052 METAR KATL 070052Z 05006KT 10SM FEW110 BKN150 BKN200 BKN250 28/20 A3000 RMK AO2 SLP146 FRQ LTGIC DSNT SE-S CB DSNT SE-S T02780200=
201409062352 METAR KATL 062352Z 36007KT 10SM FEW040 SCT110 BKN200 BKN250 28/20 A2998 RMK AO2 TSE03 SLP142 TS MOVD S OCNL LTGICCG DSNT S CB DSNT S TCU DSNT NE & E & SE & SW 60000 T02830200 10328 20283 53007=
201409062305 SPECI KATL 062305Z 34007KT 10SM FEW044TCU SCT110 BKN200 BKN250 31/21 A2997 RMK AO2 TSE03 TS MOVD S FRQ LTGICCG DSNT SE-S CB DSNT NE & SE-S & NW TCU SE-S=
201409062252 METAR KATL 062252Z 33007KT 10SM TS FEW042CB SCT050TCU SCT110 BKN200 30/22 A2997 RMK AO2 TSB09RAE12 SLP138 FRQ LTGICCG S-SW TS VC S-SW MOV S CB VC E MOV S CB DSNT NE & NW TCU SE & SW & NW VCSH E & S-SW P0000 T03000217=
201409062210 SPECI KATL 062210Z 31006KT 10SM -TSRA SCT042CB SCT050TCU BKN095 BKN200 31/21 A2997 RMK AO2 TSB09 OCNL LTGICCG SW TS VC SW MOV S CB DSNT ALQDS TCU SE-S P0000=
201409062152 METAR KATL 062152Z 31008KT 10SM -RA FEW048CB SCT055TCU SCT100 BKN200 31/22 A2997 RMK AO2 RAB50 SLP137 CB VC NW MOV S CB DSNT ALQDS TCU S-SW & W P0000 T03060217=
201409062052 METAR KATL 062052Z 33007KT 10SM FEW050CB SCT055TCU BKN250 32/21 A2996 RMK AO2 SLP134 CB N MOV S TCU SE-SW-W T03170206 56025=
201409061952 METAR KATL 061952Z 05005KT 10SM SCT050TCU SCT120 BKN250 33/20 A2998 RMK AO2 SLP140 TCU SW-W-NW T03280200 $=
201409061852 METAR KATL 061852Z 07007KT 10SM SCT055TCU BKN250 32/19 A3001 RMK AO2 SLP151 TCU ALQDS T03170189 $=
201409061752 METAR KATL 061752Z VRB03KT 10SM SCT048TCU SCT250 32/19 A3004 RMK AO2 SLP160 TCU ALQDS T03220194 10322 20239 58016 $=
201409061652 METAR KATL 061652Z VRB03KT 10SM SCT045 SCT150 SCT250 31/20 A3006 RMK AO2 SLP167 CB DSNT W MDT CU ALQDS T03110200 $=
201409061552 METAR KATL 061552Z 11004KT 10SM SCT040 SCT150 BKN250 30/20 A3008 RMK AO2 SLP173 CB DSNT W-NW T03000200 $=
201409061452 METAR KATL 061452Z VRB03KT 10SM SCT030 SCT150 SCT250 29/21 A3009 RMK AO2 SLP176 CB DSNT W-NW TCU DSNT N T02940206 50003 $=
201409061352 METAR KATL 061352Z 10004KT 10SM FEW025 SCT150 SCT250 28/22 A3009 RMK AO2 SLP179 CB DSNT W-NW TCU DSNT N T02780217=
201409061252 METAR KATL 061252Z 06003KT 10SM FEW020 SCT200 27/21 A3009 RMK AO2 SLP177 T02670211=
201409061152 METAR KATL 061152Z 00000KT 10SM CLR 24/21 A3008 RMK AO2 SLP174 T02440211 10256 20228 53006=
201409061052 METAR KATL 061052Z 00000KT 10SM FEW045 SCT200 23/21 A3006 RMK AO2 SLP168 T02330211=
201409060952 METAR KATL 060952Z 00000KT 10SM FEW045 24/21 A3006 RMK AO2 SLP167 T02390211=
201409060852 METAR KATL 060852Z 01003KT 10SM FEW045 24/22 A3006 RMK AO2 SLP167 T02440217 56003=
201409060752 METAR KATL 060752Z COR 00000KT 10SM BKN045 BKN200 24/22 A3006 RMK AO2 SLP168 T02390217=
201409060652 METAR KATL 060652Z 32003KT 10SM FEW200 BKN250 24/22 A3005 RMK AO2 SLP165 T02390217=
201409060552 METAR KATL 060552Z 00000KT 10SM FEW200 BKN250 25/22 A3007 RMK AO2 SLP171 T02500217 10294 20244 58012=
201409060452 METAR KATL 060452Z 33004KT 10SM FEW200 BKN250 25/22 A3008 RMK AO2 SLP176 T02500222 403170222=
201409060352 METAR KATL 060352Z 34004KT 10SM FEW200 SCT250 26/22 A3010 RMK AO2 SLP182 T02560222=
201409060252 METAR KATL 060252Z 33005KT 10SM FEW200 SCT250 26/22 A3010 RMK AO2 SLP183 T02610217 51010=
201409060152 METAR KATL 060152Z 00000KT 10SM FEW200 27/21 A3010 RMK AO2 SLP183 T02670211=
201409060052 METAR KATL 060052Z 00000KT 10SM FEW200 28/20 A3009 RMK AO2 SLP177 CB DSNT SW T02830200=
201409052352 METAR KATL 052352Z 12003KT 10SM FEW045 SCT250 29/19 A3007 RMK AO2 SLP173 CB DSNT SW T02940194 10317 20289 55000=
201409052252 METAR KATL 052252Z 07006KT 10SM FEW045 SCT250 29/19 A3007 RMK AO2 SLP172 TCU DSNT NW-N T02940194=
201409052152 METAR KATL 052152Z 10008KT 10SM FEW045 SCT250 31/20 A3007 RMK AO2 SLP172 T03110200=
201409052052 METAR KATL 052052Z 11003KT 10SM SCT040 SCT230 31/20 A3007 RMK AO2 SLP173 T03060200 56027=
201409051952 METAR KATL 051952Z 13003KT 10SM BKN040 30/19 A3009 RMK AO2 SLP178 CB DSNT SW-NW T03000194=
201409051852 METAR KATL 051852Z 14006KT 10SM BKN036TCU 31/21 A3012 RMK AO2 SLP189 TCU SW T03060206=
201409051752 METAR KATL 051752Z VRB05KT 10SM BKN032 29/21 A3016 RMK AO2 SLP201 T02940211 10300 20222 58017 $=
201409051652 METAR KATL 051652Z 14007KT 10SM SCT030 29/21 A3018 RMK AO2 SLP209 MDT CU ALQDS T02940211=
201409051552 METAR KATL 051552Z 05006KT 10SM SCT020 SCT100 28/22 A3020 RMK AO2 SLP217 MDT CU NE-SE T02780222=
201409051452 METAR KATL 051452Z 09004KT 10SM FEW015 SCT100 SCT250 27/23 A3021 RMK AO2 SLP219 T02670228 51007=
201409051352 METAR KATL 051352Z VRB03KT 10SM FEW010 SCT100 SCT250 25/22 A3021 RMK AO2 SLP220 T02500217=
201409051252 METAR KATL 051252Z 10005KT 10SM FEW006 SCT095 SCT140 SCT200 23/22 A3019 RMK AO2 SLP215 T02330217=
201409051152 METAR KATL 051152Z 08006KT 10SM FEW004 SCT100 SCT140 SCT200 22/21 A3018 RMK AO2 SLP214 ACC DSNT NW 70011 T02220211 10228 20222 53015=
201409051052 METAR KATL 051052Z 08007KT 10SM FEW110 SCT200 SCT250 22/21 A3016 RMK AO2 SLP205 ACC DSNT E T02220211=
201409050952 METAR KATL 050952Z 03004KT 10SM FEW002 SCT140 SCT250 23/21 A3015 RMK AO2 SLP201 T02280211=
201409050852 METAR KATL 050852Z 00000KT 8SM FEW002 SCT140 SCT250 23/21 A3014 RMK AO2 SLP197 T02280211 55002=
201409050752 METAR KATL 050752Z 00000KT 9SM FEW003 SCT140 SCT250 23/22 A3013 RMK AO2 SLP195 T02280217=
201409050652 METAR KATL 050652Z 00000KT 8SM FEW004 SCT140 SCT250 23/21 A3013 RMK AO2 SLP195 T02280211=
201409050552 METAR KATL 050552Z 08003KT 10SM FEW110 SCT140 SCT200 SCT250 23/22 A3014 RMK AO2 SLP198 T02280217 10239 20228 58007=
201409050452 METAR KATL 050452Z 10003KT 10SM BKN140 BKN200 23/21 A3015 RMK AO2 SLP200 T02330211 402780222=
201409050352 METAR KATL 050352Z 11003KT 10SM BKN120 BKN200 23/21 A3017 RMK AO2 SLP206 T02330211=
201409050252 METAR KATL 050252Z 00000KT 10SM BKN100 BKN150 OVC200 23/21 A3016 RMK AO2 SLP206 T02330206 51010=
201409050152 METAR KATL 050152Z 09005KT 10SM FEW100 BKN150 BKN200 23/21 A3016 RMK AO2 SLP205 T02330206=
201409050052 METAR KATL 050052Z 07005KT 10SM SCT095 24/20 A3014 RMK AO2 SLP199 T02390200=
201409042352 METAR KATL 042352Z 10003KT 10SM SCT090 BKN120 BKN200 BKN250 23/20 A3013 RMK AO2 SLP195 60008 T02280200 10261 20228 52009=
201409042252 METAR KATL 042252Z 09009KT 10SM FEW005 SCT030 BKN150 BKN250 24/22 A3012 RMK AO2 RAE2156 SLP190 CB DSNT NE P0000 T02440222=
201409042227 SPECI KATL 042227Z 14005KT 10SM FEW008 BKN030 BKN150 BKN200 24/23 A3013 RMK AO2 RAE2156 OCNL LTG DSNT NE-SE P0000=
201409042152 METAR KATL 042152Z 00000KT 9SM -RA FEW035 SCT120 BKN150 BKN200 26/22 A3012 RMK AO2 RAB37 SLP190 CB DSNT SE P0000 T02610222=
201409042052 METAR KATL 042052Z 00000KT 10SM FEW060 SCT120 BKN200 BKN250 26/22 A3011 RMK AO2 RAE12 SLP185 CB DSNT NE & SE-S P0000 60008 T02560217 58019=
201409041952 METAR KATL 041952Z 20003KT 10SM -RA FEW020 BKN065 BKN110 BKN200 26/22 A3013 RMK AO2 RAE09B50 SLP193 CB DSNT S-SW & NW-N TCU DSNT NE-E SHRA DSNT S-SW & NW-N P0001 T02560222 $=
201409041847 METAR KATL 041847Z 11005KT 6SM -RA BR FEW005 SCT015CB BKN070 BKN150 24/23 A3015=
201409041846 SPECI KATL 041846Z VRB06KT 6SM -RA BR FEW005 SCT015CB BKN070 BKN150 24/22 A3015 RMK AO2 TSB10E46 CB NE-SE MOV N TCU DSNT SW-NW VIS LWR NE-SE SHRA P0007=
201409041811 SPECI KATL 041811Z 03010KT 6SM -TSRA BKN020CB BKN040 OVC150 25/21 A3016 RMK AO2 TSB10 OCNL LTGICCG NE-SE TS NE-SE MOV N VIS LWR NE-SE SHRA P0000=
201409041752 METAR KATL 041752Z 04010KT 4SM R09R/5000VP6000FT +RA BKN017CB BKN040 OVC150 24/21 A3016 RMK AO2 RAB35 SLP205 CB OHD-NE-SE MOV NE VIS LWR NE-SE SHRA P0003 60003 T02440211 10278 20228 58005=
201409041735 SPECI KATL 041735Z 09007KT 3SM +RA BKN025CB BKN040 BKN150 27/21 A3017 RMK AO2 RAB35 CB OHD-E MOV NE VIS LWR E SHRA P0000=
201409041719 SPECI KATL 041719Z 00000KT 10SM SCT025 SCT090 BKN150 27/22 A3016 RMK AO2=
201409041652 METAR KATL 041652Z 00000KT 10SM BKN020 BKN030 BKN150 27/22 A3017 RMK AO2 SLP205 T02670217=
201409041552 METAR KATL 041552Z VRB03KT 10SM SCT014 SCT120 BKN150 26/21 A3018 RMK AO2 SLP209 T02610211=
201409041513 SPECI KATL 041513Z 15005KT 10SM FEW014 SCT120 BKN150 25/21 A3018 RMK AO2=
201409041452 METAR KATL 041452Z 14003KT 10SM BKN012 BKN015 BKN120 25/21 A3018 RMK AO2 SLP209 T02500211 53007=
201409041352 METAR KATL 041352Z 12005KT 10SM FEW010 SCT015 BKN120 24/21 A3016 RMK AO2 SLP205 T02390211=
201409041347 SPECI KATL 041347Z 00000KT 10SM BKN010 23/21 A3016 RMK AO2 CIG 007V013=
201409041252 METAR KATL 041252Z 12005KT 10SM BKN008 BKN018 OVC120 23/21 A3016 RMK AO2 SLP203 CIG 006V011 T02330211=
201409041222 SPECI KATL 041222Z 13004KT 8SM OVC006 23/21 A3015 RMK AO2 CIG 004V009=
201409041152 METAR KATL 041152Z 09004KT 6SM BR OVC004 23/22 A3014 RMK AO2 SLP197 CIG 003V005 BINOVC 60000 70006 T02280217 10239 20222 53012=
201409041137 SPECI KATL 041137Z 09004KT 6SM BR OVC004 23/22 A3013 RMK AO2 CIG 003V005=
201409041052 METAR KATL 041052Z 07005KT 1SM BR OVC004 23/22 A3012 RMK AO2 SFC VIS 6 SLP192 CIG 003V005 TWRINC T02280217=
201409040952 METAR KATL 040952Z 07008KT 1SM OVC004 23/22 A3011 RMK AO2 SFC VIS 7 SLP186 CIG 003V005 TWRINC BINOVC T02280217=
201409040903 SPECI KATL 040903Z 07007KT 1/2SM BR OVC003 23/22 A3010 RMK AO2 SFC VIS 6 CIG 002V004 TWRINC $=
201409040852 METAR KATL 040852Z 07007KT 1SM BR BKN003 OVC016 23/22 A3010 RMK AO2 SFC VIS 5 SLP184 CIG 002V004 TWRINC 60000 T02280217 56004 $=
201409040845 SPECI KATL 040845Z 07007KT 1SM BKN003 BKN016 OVC120 23/22 A3010 RMK AO2 SFC VIS 7 CIG 002V005 TWRINC $=
201409040752 METAR KATL 040752Z 07007KT 2SM BKN004 BKN016 OVC100 23/22 A3010 RMK AO2 SFC VIS 8 RAE12 SLP183 CIG 002V007 P0000 T02280222 $=
201409040716 SPECI KATL 040716Z 13004KT 2SM BKN004 OVC012 23/22 A3011 RMK AO2 SFC VIS 7 RAE12 CIG 003V007 P0000 $=
201409040652 METAR KATL 040652Z 14004KT 8SM -RA OVC006 23/22 A3011 RMK AO2 SLP185 CIG 004V009 PCPN VRY LGT P0000 T02330222 $=
201409040552 METAR KATL 040552Z 00000KT 10SM -RA BKN007 BKN100 BKN150 OVC200 24/22 A3011 RMK AO2 RAB34 SLP186 P0000 60000 T02390222 10250 20233 53001 $=
201409040452 METAR KATL 040452Z 16003KT 10SM FEW005 BKN150 OVC200 24/22 A3011 RMK AO2 SLP184 T02390222 403330222 $=
201409040352 METAR KATL 040352Z 00000KT 10SM FEW004 BKN110 OVC150 24/22 A3011 RMK AO2 SLP184 T02390217 $=
201409040252 METAR KATL 040252Z 14003KT 10SM FEW040 BKN110 OVC150 24/22 A3011 RMK AO2 TSB07E39RAB07E30 SLP186 P0000 60000 T02440222 51020 $=
201409040239 SPECI KATL 040239Z 07004KT 10SM FEW040 BKN110 OVC150 24/22 A3011 RMK AO2 TSB07E39RAB07E30 TS DSIPTD P0000 $=
201409040207 SPECI KATL 040207Z 08008KT 10SM -TSRA FEW005 SCT015CB BKN040 OVC150 24/22 A3012 RMK AO2 TSB07RAB07 FRQ LTGICCG E TS VC E MOV NW P0000 $=
201409040152 METAR KATL 040152Z 05005KT 10SM FEW005 BKN035 OVC070 25/22 A3011 RMK AO2 RAB0055E51 SLP187 OCNL LTG DSNT NE-SE & NW P0000 T02500217 $=
201409040052 METAR KATL 040052Z 02004KT 10SM FEW025TCU BKN045 BKN070 OVC200 25/22 A3009 RMK AO2 SLP178 OCNL LTG DSNT E-SE TCU VC NE-E T02500217 $=
201409032352 METAR KATL 032352Z 25005KT 10SM FEW025 SCT070 BKN120 BKN200 25/21 A3005 RMK AO2 RAE2258 SLP167 CB DSNT NW P0000 60003 T02500211 10333 20250 $=
201409032252 METAR KATL 032252Z 28004KT 10SM -RA FEW025TCU SCT070 BKN100 OVC200 26/23 A3003 RMK AO2 TSB07E31 SLP160 CB DSNT NE-SE & SW TCU VC S-SW P0000 T02610228 $=
201409032231 SPECI KATL 032231Z 27003KT 10SM -RA FEW025 SCT060 BKN090 OVC200 27/23 A3003 RMK AO2 TSB07E31 TS DSIPTD CB DSNT NE-SE & SW P0000 $=
201409032207 SPECI KATL 032207Z 21004KT 10SM -TSRA FEW025CB SCT050 BKN080 BKN200 26/22 A3004 RMK AO2 TSB07 OCNL LTGICCG NW TS NW MOV NE P0000 $=
201409032152 METAR KATL 032152Z 22006KT 10SM -RA FEW025CB BKN050 BKN100 BKN200 26/22 A3003 RMK AO2 TSB2048E52RAB2048E30B52 SLP159 TS DSIPTD CB VC S-SW & DSNT NE MOV NE P0003 T02610222 $=
201409032121 SPECI KATL 032121Z 33006KT 9SM -TSRA SCT020CB BKN060 BKN100 BKN200 27/22 A3001 RMK AO2 TSB2048RAB2048 FRQ LTGICCG VC NW-NE TS VC NW-NE MOV NE P0003 $=
201409032054 METAR KATL 032054Z COR 36010KT 6SM -TSRA BKN020CB BKN070 BKN100 BKN200 27/22 A3002 RMK AO2 TSB48RAB48 VIS NE 1/2 SHRA CONS LTGICCG NE TS NE MOV NE 55010 T02720222 P0003 $=
201409032054 SPECI KATL 032054Z 36010KT 6SM -TSRA BKN020CB BKN070 BKN100 BKN200 27/22 A3002 RMK AO2 TSB48RAB48 VIS NE 1/2 SHRA CONS LTGICCG NE TS NE MOV NE P0003 $=
201409032041 SPECI KATL 032041Z 07010G17KT 1/2SM R09R/P6000FT +TSRA BKN020CB BKN050 OVC100 28/23 A3002 RMK AO2 SFC VIS 1 TSB28RAB28 CONS LTGICCG OHD-N TS OHD-N MOV NE P0003=
201409032036 SPECI KATL 032036Z 16004KT 1/2SM R09R/P6000FT +TSRA BKN025CB BKN050 BKN100 BKN250 28/22 A3003 RMK AO2 TSB28RAB28 PRESRR CONS LTGICCG OHD-N TS OHD-N MOV STNRY P0002=
201409032035 SPECI KATL 032035Z 17004KT 1SM R09R/P6000FT +TSRA BKN025CB BKN050 BKN100 BKN250 28/22 A3003 RMK AO2 TSB28RAB28 PRESRR CONS LTGICCG OHD-N TS OHD-N MOV STNRY P0002=
201409032032 SPECI KATL 032032Z 20009KT 4SM +TSRA BKN030CB BKN060 BKN250 28/22 A3002 RMK AO2 TSB28RAB28 PRESRR FRQ LTGICCG OHD-N TS OHD-N MOV STNRY P0001=
201409032029 SPECI KATL 032029Z 24008KT 8SM -TSRA BKN040CB BKN060 BKN250 29/21 A3001 RMK AO2 TSB28RAB28 OCNL LTGICCG OHD-N TS OHD-N MOV STNRY VIS LWR N SHRA P0000=
201409031952 METAR KATL 031952Z 29005KT 10SM BKN055TCU BKN070 BKN250 32/21 A3000 RMK AO2 SLP146 CB DSNT N & E & S & W TCU OHD & E-SE & SW-NW SHRA VC SW T03170211=
201409031852 METAR KATL 031852Z COR 29003KT 10SM SCT050TCU SCT250 32/21 A3002 RMK AO2 SLP155 CB DSNT N & E & S & W TCU E-SE-S & W-NW T03220206 $=
201409031752 METAR KATL 031752Z 16003KT 10SM SCT047TCU SCT250 32/21 A3005 RMK AO2 SLP165 CB DSNT NW TCU ALQDS T03170206 10322 20228 58006=
201409031652 METAR KATL 031652Z 00000KT 10SM FEW040 SCT150 SCT250 31/21 A3006 RMK AO2 SLP169 CB DSNT NW TCU DSNT NE & S T03060211=
201409031552 METAR KATL 031552Z 25003KT 10SM FEW030 SCT150 SCT250 29/21 A3008 RMK AO2 SLP173 T02940211=
201409031452 METAR KATL 031452Z 19004KT 10SM FEW020 SCT150 BKN250 27/22 A3007 RMK AO2 SLP171 T02720222 53001=
201409031352 METAR KATL 031352Z 21003KT 10SM FEW150 SCT200 BKN250 26/22 A3006 RMK AO2 SLP170 T02560222=
201409031252 METAR KATL 031252Z 00000KT 10SM FEW150 SCT200 BKN250 25/22 A3006 RMK AO2 SLP169 T02500217=
201409031152 METAR KATL 031152Z 31003KT 10SM FEW120 SCT140 BKN200 BKN250 23/21 A3007 RMK AO2 SLP171 70017 T02280211 10228 20222 53002=
201409031052 METAR KATL 031052Z 32004KT 10SM FEW050 SCT140 SCT180 BKN250 22/21 A3006 RMK AO2 SLP167 T02220211=
201409030952 METAR KATL 030952Z 29007KT 10SM FEW050 SCT140 BKN250 23/21 A3005 RMK AO2 SLP165 T02280211=
201409030852 METAR KATL 030852Z 26006KT 10SM SCT050 BKN140 BKN250 23/21 A3006 RMK AO2 SLP170 T02280211 53002=
201409030752 METAR KATL 030752Z 24006KT 10SM SCT047 BKN250 23/21 A3005 RMK AO2 SLP166 T02280211=
201409030652 METAR KATL 030652Z 22005KT 10SM FEW050 SCT250 23/21 A3004 RMK AO2 SLP162 T02280211=
201409030552 METAR KATL 030552Z 22006KT 10SM FEW050 SCT250 23/21 A3005 RMK AO2 SLP165 OCNL LTGIC DSNT N CB DSNT N T02280206 10278 20228 56007=
201409030452 METAR KATL 030452Z 24004KT 10SM FEW045 SCT250 23/21 A3007 RMK AO2 SLP171 T02330206 403220222=
201409030352 METAR KATL 030352Z 18012G17KT 10SM FEW040 SCT250 24/20 A3005 RMK AO2 SLP165 T02440200=
201409030252 METAR KATL 030252Z 16010KT 10SM FEW050 SCT100 SCT250 26/22 A3007 RMK AO2 SLP172 T02560217 53020=
201409030152 METAR KATL 030152Z 00000KT 10SM FEW100 SCT250 26/22 A3004 RMK AO2 SLP160 FRQ LTG DSNT SE-S T02610217=
201409030052 METAR KATL 030052Z 00000KT 10SM FEW100 SCT250 27/21 A3003 RMK AO2 SLP158 FRQ LTG DSNT SE-S T02670211=
201409022352 METAR KATL 022352Z 17003KT 10SM FEW100 SCT250 28/22 A3001 RMK AO2 SLP153 60017 T02780217 10322 20233 55003=
201409022252 METAR KATL 022252Z 00000KT 10SM FEW100 BKN250 29/21 A3000 RMK AO2 SLP147 T02940206=
201409022152 METAR KATL 022152Z 06003KT 10SM FEW100 SCT200 BKN250 27/21 A3002 RMK AO2 RAE08 SLP155 P0000 T02720211=
201409022052 METAR KATL 022052Z 29003KT 10SM -RA FEW050 SCT080 BKN100 BKN200 24/22 A3002 RMK AO2 RAE18B47 SLP158 CB DSNT SE-S-SW TCU DSNT NE P0000 60017 T02440222 58022=
201409021952 METAR KATL 021952Z 34007KT 10SM -RA FEW015CB SCT020TCU BKN080 BKN200 23/21 A3007 RMK AO2 WSHFT 1839 TSE47 SLP173 TS MOV NE CB NE & NW MOV NE TCU NE-SE SHRA NE & NW P0017 T02330211=
201409021948 SPECI KATL 021948Z 33008KT 10SM -RA FEW015CB SCT020TCU BKN080 BKN200 23/21 A3007 RMK AO2 WSHFT 1839 TSE47 TS MOV NE CB NE & NW MOV NE TCU NE-SE SHRA NE & NW P0017=
201409021936 SPECI KATL 021936Z 32013G17KT 6SM -TSRA FEW015CB BKN080 OVC120 24/22 A3009 RMK AO2 WSHFT 1839 OCNL LTGICCG NE TS NE MOV NE VIS LWR NE SHRA P0017=
201409021927 SPECI KATL 021927Z 33012G20KT 1SM R09R/P6000FT +TSRA FEW010CB BKN070 OVC080 24/22 A3009 RMK AO2 WSHFT 1839 TWR VIS 1 1/2 OCNL LTGICCG OHD TS OHD MOV E P0016=
201409021920 SPECI KATL 021920Z 33016G20KT 3SM +TSRA FEW010CB BKN070 OVC080 24/21 A3010 RMK AO2 WSHFT 1839 FRQ LTGICCG OHD TS OHD MOV E P0010=
201409021917 SPECI KATL 021917Z 33016G20KT 4SM +TSRA FEW010CB BKN060 BKN100 BKN200 24/21 A3009 RMK AO2 WSHFT 1839 FRQ LTGICCG NE & W TS NE & W MOV E VIS LWR NE & W SHRA P0009=
201409021906 SPECI KATL 021906Z 33021KT 6SM R09R/5500VP6000FT -TSRA FEW010 BKN020CB BKN080 BKN200 26/22 A3009 RMK AO2 WSHFT 1839 FRQ LTGICCG NE-OHD-SW TS NE-OHD-SW MOV E VIS LWR N-NE & SW SHRA P0009=
201409021856 SPECI KATL 021856Z 32017G22KT 7SM -TSRA BKN025CB BKN060 BKN200 26/21 A3009 RMK AO2 WSHFT 1839 FRQ LTGICCG OHD-N-NE & SW-W TS OHD-N-NE & SW-W P0000=
201409021852 METAR KATL 021852Z 33015G23KT 8SM -TSRA BKN030CB BKN060 BKN200 27/21 A3009 RMK AO2 WSHFT 1837 TSB25RAB47 SLP180 FRQ LTGICCG SW-N TS SW-N MOV NE VIS LWR SW-N SHRA P0000 T02720211=
201409021842 SPECI KATL 021842Z 31014G17KT 10SM TS BKN040CB BKN060 BKN200 29/21 A3009 RMK AO2 TSB25 OCNL LTGICCG SW-NW-N TS VC SW-NW-N MOV NE SHRA VC SW-NW-N=
201409021825 SPECI KATL 021825Z 20004KT 10SM TS FEW045CB SCT100 SCT200 31/21 A3008 RMK AO2 TSB25 OCNL LTGICCG W-NW-N TS VC W-NW-N MOV NE SHRA VC W-NW-N=
201409021752 METAR KATL 021752Z 22005KT 10SM FEW040 SCT100 SCT200 31/21 A3009 RMK AO2 SLP179 CB DSNT NW-N TCU DSNT NE-S & SW-NW SHRA DSNT NW-N T03110211 10317 20228 58013=
201409021652 METAR KATL 021652Z 00000KT 10SM SCT034TCU 31/22 A3012 RMK AO2 SLP186 TCU ALQDS T03110217=
201409021552 METAR KATL 021552Z VRB05KT 10SM FEW035 SCT150 31/23 A3013 RMK AO2 SLP191 T03110228=
201409021452 METAR KATL 021452Z 33004KT 10SM FEW100 SCT150 SCT250 29/22 A3013 RMK AO2 SLP193 T02890222 50004=
201409021352 METAR KATL 021352Z VRB04KT 10SM FEW150 SCT250 27/22 A3013 RMK AO2 SLP193 T02720222=
201409021252 METAR KATL 021252Z 28003KT 10SM FEW150 SCT250 24/22 A3013 RMK AO2 SLP194 T02440217=
201409021152 METAR KATL 021152Z 31005KT 10SM SCT150 BKN250 23/21 A3012 RMK AO2 SLP189 70012 T02280211 10233 20222 53009=
201409021052 METAR KATL 021052Z 32003KT 10SM SCT150 SCT250 22/21 A3011 RMK AO2 SLP186 T02220206=
201409020952 METAR KATL 020952Z 29007KT 10SM FEW150 22/21 A3009 RMK AO2 SLP181 T02220206=
201409020852 METAR KATL 020852Z 22003KT 10SM FEW150 22/21 A3009 RMK AO2 SLP179 T02220206 57002=
201409020752 METAR KATL 020752Z 29005KT 10SM FEW250 23/21 A3010 RMK AO2 SLP179 T02280206=
201409020652 METAR KATL 020652Z 00000KT 10SM FEW150 SCT250 23/21 A3009 RMK AO2 SLP179 T02280211=
201409020552 METAR KATL 020552Z 17003KT 10SM FEW150 SCT200 SCT250 23/21 A3010 RMK AO2 SLP180 60000 T02330211 10267 20233 56012=
201409020452 METAR KATL 020452Z 00000KT 10SM FEW080 SCT150 SCT180 BKN250 24/22 A3011 RMK AO2 SLP184 T02390217 403220233=
201409020352 METAR KATL 020352Z 18003KT 10SM FEW150 SCT180 BKN250 24/22 A3012 RMK AO2 SLP187 T02390222=
201409020252 METAR KATL 020252Z 00000KT 10SM FEW150 SCT200 BKN250 25/22 A3013 RMK AO2 SLP193 T02500217 53013=
201409020152 METAR KATL 020152Z 21004KT 10SM FEW080 SCT150 BKN200 BKN250 24/22 A3012 RMK AO2 SLP188 T02440222=
201409020052 METAR KATL 020052Z 18004KT 10SM FEW080 SCT150 BKN200 BKN250 25/22 A3009 RMK AO2 SLP179 T02500222=
201409012352 METAR KATL 012352Z 00000KT 10SM FEW055 SCT080 BKN200 BKN250 27/21 A3010 RMK AO2 SLP181 60001 T02720206 10322 20267 53003=
201409012252 METAR KATL 012252Z 24005KT 10SM SCT150 BKN200 OVC250 27/21 A3007 RMK AO2 SLP173 CB DSNT N-NE & SE T02720211=
201409012152 METAR KATL 012152Z 00000KT 10SM FEW035 BKN180 OVC250 27/23 A3008 RMK AO2 RAB06E27 SLP175 CB DSNT N-NE & SE-SW P0001 T02720233=
201409012052 METAR KATL 012052Z 19006KT 10SM SCT040TCU BKN070 BKN180 BKN250 29/22 A3009 RMK AO2 SLP177 TCU NW-NE CB DSNT SW T02890222 55016=
201409011952 METAR KATL 011952Z 00000KT 10SM FEW040TCU BKN160 BKN250 32/21 A3009 RMK AO2 SLP176 TCU ALQDS CB DSNT NE & S-SW T03220211=
201409011852 METAR KATL 011852Z 28004KT 10SM SCT035TCU BKN120 BKN200 28/22 A3012 RMK AO2 SLP187 TCU ALQDS CB DSNT SW T02830222=
201409011752 METAR KATL 011752Z 30005KT 10SM SCT030TCU BKN050 BKN080 BKN250 28/23 A3014 RMK AO2 RAB21E52 SLP194 TCU SE-S & W CB DSNT SW P0011 60011 T02830233 10317 20233 58005 $=
201409011652 METAR KATL 011652Z 32007KT 10SM BKN040 BKN150 BKN250 31/22 A3014 RMK AO2 SLP195 T03060217 $=
201409011552 METAR KATL 011552Z VRB03KT 10SM FEW035 SCT180 BKN250 31/22 A3016 RMK AO2 SLP200 T03110217=
201409011452 METAR KATL 011452Z 27003KT 10SM BKN180 BKN250 29/22 A3015 RMK AO2 SLP198 T02940217 51005 $=
201409011352 METAR KATL 011352Z 00000KT 10SM BKN180 BKN250 27/22 A3015 RMK AO2 SLP199 T02720222 $=
201409011252 METAR KATL 011252Z 00000KT 10SM SCT150 BKN200 BKN250 24/22 A3015 RMK AO2 SLP199 T02440217 $=
