##########################################################
# Query made at 04/19/2024 23:41:21 UTC
# Time interval: from 12/01/2014 12:00  to 12/31/2014 12:59  UTC
##########################################################

##########################################################
# KATL, Atlanta, Hartsfield - Jackson Atlanta International Airport (United States)
# WMO index: 72219. WIGOS ID: 0-20000-0-72219
# Latitude 33-38-59N. Longitude 084-25-00W. Altitude 312 m.
##########################################################

201412311252 METAR KATL 311252Z 08003KT 8SM BKN012 05/02 A3042 RMK AO2 SLP308 T00500017=
201412311152 METAR KATL 311152Z 12006KT 10SM OVC012 05/02 A3040 RMK AO2 SLP301 BINOVC T00500017 10056 20033 55004=
201412311052 METAR KATL 311052Z 08009KT 10SM OVC011 05/02 A3038 RMK AO2 SLP293 T00500022=
201412310952 METAR KATL 310952Z 07010KT 10SM OVC011 05/02 A3039 RMK AO2 SLP296 T00500022=
201412310852 METAR KATL 310852Z 04008KT 10SM OVC011 06/02 A3041 RMK AO2 SLP302 T00560022 50004=
201412310752 METAR KATL 310752Z 32005KT 10SM OVC012 04/02 A3042 RMK AO2 SLP307 T00440017=
201412310705 SPECI KATL 310705Z 00000KT 10SM FEW009 BKN012 OVC024 04/01 A3040 RMK AO2=
201412310652 METAR KATL 310652Z 00000KT 10SM SCT009 OVC024 04/01 A3040 RMK AO2 SLP298 T00440011=
201412310641 SPECI KATL 310641Z 00000KT 10SM SCT009 OVC024 04/01 A3039 RMK AO2=
201412310614 SPECI KATL 310614Z 36005KT 10SM BKN009 OVC020 04/01 A3039 RMK AO2=
201412310552 METAR KATL 310552Z 34005KT 10SM BKN010 OVC020 03/01 A3040 RMK AO2 SLP299 T00330006 10050 20028 51007=
201412310452 METAR KATL 310452Z 34004KT 10SM BKN012 OVC020 03/01 A3040 RMK AO2 SLP298 BINOVC T00330006 401220028=
201412310420 SPECI KATL 310420Z 33005KT 10SM BKN020 03/00 A3040 RMK AO2=
201412310352 METAR KATL 310352Z 33004KT 10SM FEW020 03/00 A3039 RMK AO2 SLP295 T00280000=
201412310252 METAR KATL 310252Z 34004KT 10SM FEW020 03/00 A3038 RMK AO2 SLP291 T00330000 51008=
201412310152 METAR KATL 310152Z 34009KT 10SM FEW020 SCT250 04/00 A3037 RMK AO2 SLP290 T00390000=
201412310052 METAR KATL 310052Z 34012KT 10SM FEW020 BKN250 04/01 A3037 RMK AO2 SLP289 T00440006=
201412302352 METAR KATL 302352Z 33012KT 10SM FEW020 SCT250 05/01 A3035 RMK AO2 SLP282 T00500006 10111 20050 51018=
201412302252 METAR KATL 302252Z 33012KT 10SM FEW030 BKN250 06/01 A3034 RMK AO2 SLP276 T00610011=
201412302152 METAR KATL 302152Z 33013G18KT 10SM FEW030 SCT250 08/02 A3032 RMK AO2 SLP271 T00830017=
201412302052 METAR KATL 302052Z 33011KT 10SM FEW030 SCT250 10/03 A3030 RMK AO2 SLP260 T01000028 53001=
201412301952 METAR KATL 301952Z 30009KT 10SM FEW030 SCT250 11/03 A3026 RMK AO2 SLP248 T01060028=
201412301852 METAR KATL 301852Z 30012G20KT 10SM FEW020 SCT250 10/04 A3028 RMK AO2 SLP254 T01000039=
201412301752 METAR KATL 301752Z 34012G16KT 10SM FEW017 SCT250 10/05 A3029 RMK AO2 SLP259 T01000050 10111 20083 50002=
201412301652 METAR KATL 301652Z 32011KT 10SM BKN015 BKN250 10/06 A3030 RMK AO2 SLP263 T01000056=
201412301552 METAR KATL 301552Z 31008KT 10SM FEW015 SCT250 10/06 A3030 RMK AO2 SLP261 T01000056=
201412301452 METAR KATL 301452Z 32012KT 10SM FEW010 BKN015 BKN250 09/06 A3029 RMK AO2 SLP257 T00890056 51028=
201412301447 SPECI KATL 301447Z 33010KT 10SM FEW010 BKN015 BKN250 09/06 A3029 RMK AO2=
201412301352 METAR KATL 301352Z 33011KT 7SM OVC009 08/06 A3027 RMK AO2 SLP251 T00830061=
201412301252 METAR KATL 301252Z 31011KT 7SM OVC007 09/07 A3023 RMK AO2 SLP239 T00890067=
201412301152 METAR KATL 301152Z 32007KT 7SM OVC007 09/08 A3020 RMK AO2 SLP228 T00940078 10117 20094 53013=
201412301052 METAR KATL 301052Z 32008KT 7SM BKN009 OVC060 10/08 A3018 RMK AO2 SLP221 T01000078=
201412300952 METAR KATL 300952Z 32007KT 7SM BKN007 OVC030 11/09 A3017 RMK AO2 SLP215 T01060089=
201412300852 METAR KATL 300852Z 31009KT 8SM BKN007 OVC013 11/09 A3016 RMK AO2 SLP213 T01110094 53017=
201412300752 METAR KATL 300752Z 30004KT 10SM BKN009 OVC050 12/09 A3014 RMK AO2 SLP205 T01170094=
201412300652 METAR KATL 300652Z 31005KT 10SM BKN009 BKN050 OVC200 12/09 A3012 RMK AO2 SLP199 CIG 008V012 T01170094=
201412300552 METAR KATL 300552Z 33007KT 10SM OVC006 12/10 A3011 RMK AO2 SLP195 T01170100 10139 20117 55000=
201412300514 SPECI KATL 300514Z 31006KT 10SM BKN007 OVC050 12/10 A3011 RMK AO2=
201412300457 SPECI KATL 300457Z 30004KT 10SM FEW008 SCT030 BKN050 OVC250 12/10 A3011 RMK AO2=
201412300452 METAR KATL 300452Z 30003KT 10SM FEW028 BKN050 OVC250 12/10 A3011 RMK AO2 SLP193 T01220100 401670117=
201412300352 METAR KATL 300352Z 32007KT 10SM BKN030 BKN055 BKN250 13/11 A3011 RMK AO2 SLP197 T01280106=
201412300252 METAR KATL 300252Z 33004KT 10SM BKN030 BKN050 13/11 A3011 RMK AO2 SLP197 T01280106 53008=
201412300152 METAR KATL 300152Z 33005KT 10SM FEW020 BKN050 13/11 A3010 RMK AO2 SLP193 T01330106=
201412300052 METAR KATL 300052Z 31005KT 10SM FEW020 BKN050 13/11 A3009 RMK AO2 SLP189 T01330106=
201412292352 METAR KATL 292352Z 32004KT 10SM BKN045 13/10 A3009 RMK AO2 SLP188 T01330100 10167 20133 53013=
201412292252 METAR KATL 292252Z 33006KT 10SM FEW025 BKN045 14/11 A3007 RMK AO2 SLP181 T01440106=
201412292152 METAR KATL 292152Z 33007KT 10SM FEW020 SCT030 BKN045 16/11 A3006 RMK AO2 SLP177 T01560111=
201412292052 METAR KATL 292052Z 33006KT 10SM FEW025 BKN045 BKN075 17/11 A3005 RMK AO2 SLP172 T01670106 55013=
201412292005 SPECI KATL 292005Z 33004KT 10SM BKN024 BKN040 BKN070 16/11 A3004 RMK AO2=
201412291952 METAR KATL 291952Z 26005KT 10SM FEW020 BKN040 BKN070 17/10 A3005 RMK AO2 SLP172 T01670100=
201412291852 METAR KATL 291852Z 30005KT 10SM SCT024 SCT070 16/11 A3006 RMK AO2 SLP176 T01610106=
201412291752 METAR KATL 291752Z 00000KT 10SM FEW015 SCT020 SCT070 16/11 A3008 RMK AO2 SLP185 60000 T01560111 10167 20117 58012=
201412291652 METAR KATL 291652Z 35004KT 10SM FEW012 BKN075 16/12 A3012 RMK AO2 SLP196 T01610122=
201412291632 SPECI KATL 291632Z 00000KT 10SM FEW008 SCT012 BKN075 16/12 A3012 RMK AO2=
201412291552 METAR KATL 291552Z 31003KT 6SM BR FEW005 BKN008 BKN100 13/12 A3013 RMK AO2 SLP202 T01330117=
201412291545 SPECI KATL 291545Z 33003KT 6SM BR BKN008 BKN100 14/12 A3014 RMK AO2=
201412291454 SPECI KATL 291454Z 31007KT 2 1/2SM BR BKN005 13/12 A3012 RMK AO2 SFC VIS 6=
201412291452 METAR KATL 291452Z 31006KT 1 1/2SM BR BKN005 13/12 A3012 RMK AO2 SFC VIS 6 SLP197 60000 T01280117 51029=
201412291415 SPECI KATL 291415Z 32007KT 1 1/2SM BR BKN004 12/11 A3010 RMK AO2 SFC VIS 4=
201412291410 SPECI KATL 291410Z 32007KT 1/2SM BR BKN003 12/11 A3011 RMK AO2 SFC VIS 4=
201412291352 METAR KATL 291352Z 30004KT 1/2SM R09R/3500VP6000FT BR OVC003 12/11 A3010 RMK AO2 SFC VIS 1 SLP191 VIS S-W 3/4 TWRINC T01170111=
201412291338 SPECI KATL 291338Z 31004KT 1/2SM R09R/1800V5500FT BR BKN002 BKN100 12/11 A3009 RMK AO2 SFC VIS 3/4=
201412291333 SPECI KATL 291333Z 30007KT 1/2SM R09R/1800VP6000FT BR SCT002 BKN100 12/11 A3009 RMK AO2 SFC VIS 1 1/2 PRESRR VIS SW-NW 1/2 TWRINC=
201412291329 SPECI KATL 291329Z 30008KT 1 3/4SM R09R/2600VP6000FT BR FEW004 SCT100 BKN120 12/11 A3008 RMK AO2=
201412291320 SPECI KATL 291320Z 32006KT 10SM FEW004 SCT100 BKN120 12/11 A3007 RMK AO2=
201412291252 METAR KATL 291252Z 24005KT 10SM SCT055 SCT080 BKN130 12/11 A3006 RMK AO2 RAB21E36 PRESRR SLP179 P0000 T01220111=
201412291152 METAR KATL 291152Z 00000KT 10SM FEW005 BKN080 BKN140 12/12 A3003 RMK AO2 SLP168 60014 70026 T01220117 10144 20122 55013=
201412291141 SPECI KATL 291141Z 12004KT 10SM FEW005 BKN080 BKN140 12/11 A3002 RMK AO2=
201412291052 METAR KATL 291052Z 11003KT 10SM OVC065 13/11 A3003 RMK AO2 RAE32 SLP166 P0000 T01280111=
201412290952 METAR KATL 290952Z 00000KT 8SM -RA OVC065 12/11 A3004 RMK AO2 RAE0856B23 SLP169 P0000 T01220111 $=
201412290852 METAR KATL 290852Z 36005KT 8SM -RA FEW005 SCT040 OVC060 12/11 A3007 RMK AO2 PRESFR SLP180 P0003 60014 T01220111 50008 $=
201412290752 METAR KATL 290752Z 30006KT 3SM RA BR FEW005 OVC040 13/11 A3009 RMK AO2 SLP186 P0008 T01280111 $=
201412290749 SPECI KATL 290749Z 31006KT 3SM RA BR FEW005 OVC040 13/11 A3008 RMK AO2 P0007 $=
201412290744 SPECI KATL 290744Z 33008KT 2SM +RA BR FEW007 OVC038 13/12 A3008 RMK AO2 P0004 $=
201412290725 SPECI KATL 290725Z 34012KT 9SM -RA FEW007 BKN038 OVC049 13/12 A3006 RMK AO2 P0001 $=
201412290652 METAR KATL 290652Z 34014G18KT 4SM -RA BR BKN007 BKN039 OVC055 14/13 A3004 RMK AO2 RAB35 SLP171 BKN007 V SCT P0003 T01390128 $=
201412290649 SPECI KATL 290649Z 31010G18KT 4SM -RA BR SCT007 BKN039 OVC055 14/13 A3005 RMK AO2 RAB35 P0002 $=
201412290614 SPECI KATL 290614Z 32005KT 6SM BR BKN006 OVC032 14/13 A3003 RMK AO2 CIG 005V008 $=
201412290552 METAR KATL 290552Z 33003KT 8SM FEW005 BKN036 OVC100 14/13 A3003 RMK AO2 RAE20 SLP165 P0000 60003 T01440133 10156 20144 58012 $=
201412290507 SPECI KATL 290507Z 04004KT 3SM -RA FEW005 SCT028 BKN048 OVC140 14/13 A3003 RMK AO2 SFC VIS 10 P0000 $=
201412290452 METAR KATL 290452Z 01004KT 3SM -RA BR BKN024 OVC045 14/13 A3005 RMK AO2 SFC VIS 5 RAB20 SLP173 P0003 T01440133 401610117 $=
201412290444 SPECI KATL 290444Z 34003KT 3SM RA BR OVC024 14/13 A3006 RMK AO2 RAB20 P0002 $=
201412290352 METAR KATL 290352Z 34004KT 10SM FEW010 BKN020 OVC030 15/13 A3006 RMK AO2 SLP176 T01500133 $=
201412290340 SPECI KATL 290340Z 35005KT 10SM SCT012 OVC022 16/13 A3005 RMK AO2 $=
201412290259 SPECI KATL 290259Z 35005KT 10SM FEW006 BKN012 OVC028 16/14 A3006 RMK AO2 CIG 010V014 $=
201412290252 METAR KATL 290252Z 35005KT 10SM FEW006 BKN017 OVC030 16/14 A3006 RMK AO2 DZE51 SLP177 CIG 015V019 P0000 60000 T01560139 58004 $=
201412290209 SPECI KATL 290209Z 33006KT 7SM -DZ FEW004 OVC016 16/14 A3006 RMK AO2 CIG 014V018 P0000 $=
201412290158 SPECI KATL 290158Z 33006KT 5SM -DZ BR FEW004 OVC014 16/14 A3006 RMK AO2 P0000 $=
201412290152 METAR KATL 290152Z 33006KT 7SM -DZ OVC014 16/14 A3006 RMK AO2 SLP177 P0000 T01560144 $=
201412290052 METAR KATL 290052Z 00000KT 4SM -DZ BR FEW005 OVC012 16/14 A3008 RMK AO2 DZB07 SLP183 CIG 010V014 P0000 T01560144 $=
201412290046 SPECI KATL 290046Z 00000KT 4SM -DZ BR SCT005 OVC012 16/14 A3008 RMK AO2 DZB07 CIG 010V014 P0000 $=
201412290044 SPECI KATL 290044Z 00000KT 2SM -DZ BR SCT005 OVC012 16/14 A3008 RMK AO2 SFC VIS 4 DZB07 CIG 010V014 P0000 $=
201412290008 SPECI KATL 290008Z 00000KT 2SM -DZ BR OVC005 16/14 A3008 RMK AO2 SFC VIS 3 DZB07 CIG 004V007 P0000 $=
201412282352 METAR KATL 282352Z 24003KT 2SM BR BKN004 OVC008 16/14 A3007 RMK AO2 SFC VIS 4 SLP181 TWRINC T01560144 10161 20156 53009 $=
201412282328 SPECI KATL 282328Z 20004KT 3/4SM BR OVC002 16/14 A3007 RMK AO2 SFC VIS 2 $=
201412282311 SPECI KATL 282311Z 21003KT 2SM BR OVC004 16/14 A3006 RMK AO2 SFC VIS 4 $=
201412282252 METAR KATL 282252Z 22003KT 7SM OVC004 16/14 A3006 RMK AO2 SLP176 T01560144 $=
201412282152 METAR KATL 282152Z 19003KT 7SM OVC007 16/14 A3005 RMK AO2 SLP174 T01610144 $=
201412282052 METAR KATL 282052Z 28003KT 7SM BKN007 OVC011 16/14 A3005 RMK AO2 SLP172 T01610144 58000 $=
201412281952 METAR KATL 281952Z 27004KT 8SM BKN007 OVC011 16/14 A3005 RMK AO2 SLP174 T01610144 $=
201412281852 METAR KATL 281852Z 28005KT 7SM BKN006 OVC010 16/14 A3005 RMK AO2 SLP175 T01560144 $=
201412281752 METAR KATL 281752Z 26005KT 6SM BR OVC005 16/14 A3005 RMK AO2 SLP174 60009 T01560144 10161 20128 58018 $=
201412281652 METAR KATL 281652Z 25006KT 6SM BR BKN005 OVC009 14/13 A3009 RMK AO2 SLP188 T01440133 $=
201412281617 SPECI KATL 281617Z 22005KT 6SM BR BKN005 OVC009 14/13 A3010 RMK AO2 $=
201412281556 SPECI KATL 281556Z 22003KT 3SM BR BKN003 OVC008 14/13 A3011 RMK AO2 SFC VIS 6 $=
201412281552 METAR KATL 281552Z 23006KT 2 1/2SM BR BKN003 OVC008 14/13 A3011 RMK AO2 SFC VIS 6 RAB1455E35 SLP195 P0003 T01390128 $=
201412281524 SPECI KATL 281524Z 18006KT 2 1/2SM -RA BR BKN003 OVC009 14/13 A3010 RMK AO2 SFC VIS 3 RAB1455 P0003 $=
201412281513 SPECI KATL 281513Z 19008KT 1 3/4SM R09R/6000VP6000FT -RA BR BKN003 OVC009 14/13 A3010 RMK AO2 TWR VIS 2 1/2 RAB1455 P0001 $=
201412281452 METAR KATL 281452Z 18005KT 2 1/2SM BR BKN005 OVC012 14/13 A3010 RMK AO2 SFC VIS 5 RAB13E32 SLP193 P0001 60006 T01390128 50011 $=
201412281437 SPECI KATL 281437Z 18005KT 2 1/2SM BR OVC005 14/13 A3010 RMK AO2 SFC VIS 5 RAB13E32 P0001 $=
201412281352 METAR KATL 281352Z 00000KT 6SM BR OVC005 14/12 A3011 RMK AO2 RAE19 SLP194 CIG 004V007 P0000 T01390122 $=
201412281335 SPECI KATL 281335Z VRB03KT 6SM BR BKN005 BKN025 OVC065 13/12 A3011 RMK AO2 RAE19 CIG 004V008 P0000 $=
201412281252 METAR KATL 281252Z 18010KT 2SM -RA BR BKN004 OVC027 13/12 A3009 RMK AO2 SFC VIS 5 SLP187 CIG 003V006 TWRINC P0005 T01330122 $=
201412281241 SPECI KATL 281241Z 18008KT 2SM -RA BR BKN004 BKN027 OVC033 13/12 A3008 RMK AO2 SFC VIS 4 CIG 003V006 TWRINC P0005 $=
201412281226 SPECI KATL 281226Z 18004KT 2SM -RA BR FEW025 BKN035 OVC050 13/12 A3008 RMK AO2 SFC VIS 2 1/2 P0004 $=
201412281152 METAR KATL 281152Z 16004KT 7SM -RA FEW005 BKN060 OVC090 13/12 A3007 RMK AO2 SLP182 P0009 60185 70191 T01280117 10133 20117 57017 $=
201412281052 METAR KATL 281052Z 17007KT 10SM -RA FEW005 BKN042 OVC080 13/12 A3008 RMK AO2 SLP185 P0003 T01280117 $=
201412281006 SPECI KATL 281006Z 19008KT 6SM -RA BR FEW004 BKN075 OVC090 13/12 A3010 RMK AO2 P0001 $=
201412280952 METAR KATL 280952Z 20010KT 1SM -RA BR BKN003 BKN050 OVC075 13/12 A3011 RMK AO2 SFC VIS 4 SLP194 BKN003 V SCT TWRINC P0011 T01330122 $=
201412280921 SPECI KATL 280921Z 19008KT 1SM RA BR BKN003 OVC050 12/12 A3012 RMK AO2 SFC VIS 2 1/2 TWRINC P0006 $=
201412280852 METAR KATL 280852Z 15006KT 3SM RA BR BKN004 OVC047 12/11 A3012 RMK AO2 PRESFR SLP198 P0033 60162 T01220111 58015 $=
201412280849 SPECI KATL 280849Z 16007KT 3SM RA BR BKN004 OVC047 12/11 A3013 RMK AO2 P0032 $=
201412280820 SPECI KATL 280820Z 17005KT 2 1/2SM RA BR SCT004 BKN013 OVC041 12/11 A3014 RMK AO2 P0021 $=
201412280752 METAR KATL 280752Z 16006KT 1 1/4SM +RA BR SCT005 OVC028 12/11 A3015 RMK AO2 SLP207 P0078 T01170106 $=
201412280652 METAR KATL 280652Z 00000KT 1 1/2SM R09R/5500VP6000FT +RA BR FEW005 SCT018 OVC028 12/11 A3015 RMK AO2 SLP207 P0051 T01170106 $=
201412280641 SPECI KATL 280641Z 10003KT 1 1/2SM +RA BR FEW005 OVC033 12/11 A3013 RMK AO2 P0042=
201412280624 SPECI KATL 280624Z 09004KT 2SM +RA BR FEW005 OVC033 12/11 A3013 RMK AO2 P0028=
201412280618 SPECI KATL 280618Z 00000KT 3SM +RA BR FEW005 OVC033 12/11 A3015 RMK AO2 P0024=
201412280602 SPECI KATL 280602Z 00000KT 2SM +RA BR FEW008 SCT013 OVC032 12/11 A3016 RMK AO2 P0007=
201412280552 METAR KATL 280552Z 00000KT 2 1/2SM RA BR SCT008 BKN013 OVC035 12/11 A3017 RMK AO2 RAB42 SLP215 P0004 60006 T01220106 10133 20122 55012=
201412280549 SPECI KATL 280549Z 00000KT 2 1/2SM +RA BR FEW008 BKN013 OVC035 12/11 A3017 RMK AO2 RAB42 P0003=
201412280452 METAR KATL 280452Z 15004KT 10SM OVC013 12/11 A3015 RMK AO2 RAE29 SLP211 P0000 T01220106 401610033=
201412280426 SPECI KATL 280426Z 16004KT 10SM -RA BKN013 BKN065 OVC100 12/10 A3018 RMK AO2 P0000=
201412280352 METAR KATL 280352Z 17004KT 8SM -RA BKN016 BKN022 OVC048 12/11 A3020 RMK AO2 RAB08 PRESFR SLP228 P0002 T01220106=
201412280315 SPECI KATL 280315Z 25005KT 10SM -RA BKN028 OVC100 13/10 A3024 RMK AO2 RAB08 P0000=
201412280252 METAR KATL 280252Z 20004KT 10SM FEW075 BKN110 OVC150 13/09 A3020 RMK AO2 RAE35 SLP229 P0000 60000 T01280094 55008=
201412280152 METAR KATL 280152Z 15008KT 10SM -RA FEW080 OVC110 13/09 A3019 RMK AO2 RAB34 SLP223 P0000 T01330089=
201412280052 METAR KATL 280052Z 16003KT 10SM FEW075 BKN110 OVC150 13/08 A3021 RMK AO2 RAE2358 SLP234 P0000 T01330078=
201412272352 METAR KATL 272352Z 18006KT 10SM -RA SCT085 OVC120 13/08 A3023 RMK AO2 RAB12 SLP238 P0000 60000 T01280083 10161 20122 51009=
201412272252 METAR KATL 272252Z 16005KT 10SM SCT065 BKN090 BKN110 OVC250 14/07 A3022 RMK AO2 SLP238 VIRGA N T01390067=
201412272152 METAR KATL 272152Z 00000KT 10SM BKN070 BKN250 15/06 A3023 RMK AO2 PRESRR SLP239 T01500056=
201412272052 METAR KATL 272052Z 17003KT 10SM SCT080 BKN100 BKN250 16/06 A3020 RMK AO2 SLP228 T01560056 56017=
201412271952 METAR KATL 271952Z 18004KT 10SM BKN080 OVC250 15/06 A3022 RMK AO2 SLP234 BINOVC T01500061=
201412271852 METAR KATL 271852Z VRB03KT 10SM FEW080 SCT110 BKN250 15/06 A3021 RMK AO2 SLP231 T01500056=
201412271752 METAR KATL 271752Z VRB04KT 10SM FEW080 SCT120 BKN220 13/04 A3025 RMK AO2 RAB1658E07 SLP246 P0000 60000 T01330044 10133 20039 58039=
201412271652 METAR KATL 271652Z 10007KT 10SM SCT080 BKN100 OVC200 11/04 A3030 RMK AO2 SLP262 ACC DSNT E T01110039=
201412271552 METAR KATL 271552Z 11004KT 10SM SCT085 BKN110 OVC200 09/03 A3035 RMK AO2 PRESFR SLP279 BINOVC E-S VCSH W T00940033=
201412271452 METAR KATL 271452Z 00000KT 10SM BKN140 OVC220 09/03 A3037 RMK AO2 SLP287 VIRGA N ACC DSNT NW BINOVC T00890033 53031=
201412271352 METAR KATL 271352Z VRB03KT 10SM FEW100 BKN140 BKN200 08/02 A3033 RMK AO2 PRESRR SLP275 ACC DSNT N-NE T00780022=
201412271252 METAR KATL 271252Z 09005KT 10SM SCT130 SCT250 04/01 A3029 RMK AO2 SLP262 ACC DSNT SW-W-N T00390011=
201412271152 METAR KATL 271152Z 03003KT 10SM FEW150 SCT250 06/02 A3027 RMK AO2 SLP254 T00560017 10072 20033 55000=
201412271052 METAR KATL 271052Z 08005KT 10SM FEW150 04/01 A3026 RMK AO2 SLP252 T00390011=
201412270952 METAR KATL 270952Z 00000KT 10SM FEW150 03/01 A3027 RMK AO2 SLP254 T00330006=
201412270852 METAR KATL 270852Z 05004KT 10SM CLR 05/01 A3027 RMK AO2 SLP254 T00500011 50000=
201412270752 METAR KATL 270752Z 12003KT 10SM CLR 07/01 A3028 RMK AO2 SLP254 T00670011=
201412270652 METAR KATL 270652Z 00000KT 10SM FEW150 07/02 A3027 RMK AO2 SLP251 T00670017=
201412270552 METAR KATL 270552Z 00000KT 10SM FEW250 06/02 A3027 RMK AO2 SLP254 T00610017 10106 20061 56008=
201412270452 METAR KATL 270452Z 00000KT 10SM FEW150 07/02 A3028 RMK AO2 SLP256 T00720017 401500017=
201412270352 METAR KATL 270352Z 13004KT 10SM FEW150 08/02 A3029 RMK AO2 SLP258 T00830017=
201412270252 METAR KATL 270252Z 16004KT 10SM SCT150 08/02 A3030 RMK AO2 SLP264 T00830022 50007=
201412270152 METAR KATL 270152Z 00000KT 10SM BKN150 08/02 A3030 RMK AO2 SLP265 T00830017=
201412270052 METAR KATL 270052Z 00000KT 10SM FEW180 09/01 A3029 RMK AO2 SLP262 T00940011=
201412262352 METAR KATL 262352Z 00000KT 10SM FEW180 11/01 A3028 RMK AO2 SLP257 T01060006 10150 20106 53001=
201412262252 METAR KATL 262252Z 16003KT 10SM BKN180 12/01 A3026 RMK AO2 SLP253 T01170006=
201412262152 METAR KATL 262152Z 10003KT 10SM BKN190 13/00 A3026 RMK AO2 SLP252 T01330000=
201412262052 METAR KATL 262052Z 27003KT 10SM SCT150 BKN220 14/M01 A3027 RMK AO2 SLP256 T01391006 55007=
201412261952 METAR KATL 261952Z 00000KT 10SM SCT150 14/00 A3026 RMK AO2 SLP249 T01390000=
201412261852 METAR KATL 261852Z 00000KT 10SM SCT150 SCT220 14/02 A3028 RMK AO2 SLP256 T01390017=
201412261752 METAR KATL 261752Z VRB03KT 10SM SCT150 SCT220 12/02 A3029 RMK AO2 SLP262 T01220017 10128 20017 58016=
201412261652 METAR KATL 261652Z 32003KT 10SM FEW150 SCT250 11/02 A3035 RMK AO2 SLP280 T01110022=
201412261552 METAR KATL 261552Z 00000KT 10SM FEW150 SCT250 11/02 A3035 RMK AO2 SLP282 T01060022=
201412261452 METAR KATL 261452Z 07004KT 10SM FEW150 SCT250 07/02 A3034 RMK AO2 SLP280 T00720022 52020=
201412261352 METAR KATL 261352Z 00000KT 10SM FEW150 SCT200 SCT250 07/02 A3032 RMK AO2 SLP273 T00670017=
201412261252 METAR KATL 261252Z 04004KT 10SM FEW150 SCT200 SCT250 04/01 A3030 RMK AO2 SLP265 T00390006=
201412261152 METAR KATL 261152Z 00000KT 10SM FEW150 BKN200 BKN250 02/00 A3028 RMK AO2 SLP260 T00220000 10050 20017 51016=
201412261052 METAR KATL 261052Z 00000KT 10SM FEW150 SCT200 BKN250 02/01 A3027 RMK AO2 SLP256 T00220006=
201412260952 METAR KATL 260952Z 00000KT 10SM SCT200 BKN250 02/01 A3025 RMK AO2 SLP247 T00220006=
201412260852 METAR KATL 260852Z 00000KT 10SM SCT200 BKN250 02/M01 A3023 RMK AO2 SLP242 T00171006 50001=
201412260752 METAR KATL 260752Z 00000KT 10SM FEW200 SCT250 03/00 A3025 RMK AO2 SLP248 T00280000=
201412260652 METAR KATL 260652Z 00000KT 10SM FEW150 SCT200 SCT250 03/01 A3024 RMK AO2 SLP246 T00280006=
201412260552 METAR KATL 260552Z 00000KT 10SM BKN250 05/01 A3023 RMK AO2 SLP240 T00500011 10083 20028 58007=
201412260452 METAR KATL 260452Z 00000KT 10SM BKN250 04/01 A3024 RMK AO2 SLP244 T00390011 401110028=
201412260352 METAR KATL 260352Z 00000KT 10SM BKN250 06/01 A3024 RMK AO2 SLP246 T00560011=
201412260252 METAR KATL 260252Z 00000KT 10SM FEW250 04/01 A3025 RMK AO2 SLP248 T00440011 52006=
201412260152 METAR KATL 260152Z 32004KT 10SM FEW250 07/01 A3025 RMK AO2 SLP248 T00670011=
201412260052 METAR KATL 260052Z 00000KT 10SM FEW250 07/01 A3023 RMK AO2 SLP243 T00670011=
201412252352 METAR KATL 252352Z 33003KT 10SM FEW250 08/01 A3023 RMK AO2 SLP242 T00780011 10111 20078 53013=
201412252252 METAR KATL 252252Z 32006KT 10SM FEW250 09/01 A3021 RMK AO2 SLP236 T00890006=
201412252152 METAR KATL 252152Z 32006KT 10SM FEW250 11/01 A3020 RMK AO2 SLP231 T01060011=
201412252052 METAR KATL 252052Z 29006KT 10SM CLR 11/01 A3019 RMK AO2 SLP227 T01110011 53000=
201412251952 METAR KATL 251952Z 29007KT 10SM CLR 11/01 A3016 RMK AO2 SLP216 T01060011=
201412251852 METAR KATL 251852Z 28007KT 10SM CLR 10/02 A3018 RMK AO2 SLP222 T01000017=
201412251752 METAR KATL 251752Z 26009G15KT 10SM FEW023 09/02 A3019 RMK AO2 SLP227 T00940017 10094 20033 58003=
201412251652 METAR KATL 251652Z 31008KT 10SM FEW023 08/02 A3022 RMK AO2 SLP236 T00830017=
201412251610 SPECI KATL 251610Z 34008KT 10SM SCT023 07/01 A3022 RMK AO2=
201412251552 METAR KATL 251552Z 32011KT 10SM BKN019 07/01 A3022 RMK AO2 SLP238 T00720011=
201412251506 SPECI KATL 251506Z 31013G17KT 10SM BKN015 06/02 A3020 RMK AO2=
201412251452 METAR KATL 251452Z 30010KT 10SM SCT015 06/02 A3020 RMK AO2 SLP231 T00610022 51036=
201412251352 METAR KATL 251352Z 28006KT 10SM FEW110 05/02 A3016 RMK AO2 SLP218 T00500017=
201412251252 METAR KATL 251252Z 28003KT 10SM FEW040 SCT200 03/01 A3013 RMK AO2 SLP209 T00330006=
201412251152 METAR KATL 251152Z 28006KT 10SM FEW040 SCT200 04/01 A3009 RMK AO2 SLP194 70019 T00390011 10078 20039 53026=
201412251052 METAR KATL 251052Z 29008KT 10SM FEW038 SCT250 05/01 A3006 RMK AO2 SLP181 T00500011=
201412250952 METAR KATL 250952Z 27006KT 10SM FEW026 SCT038 BKN200 06/02 A3003 RMK AO2 SLP170 T00560017=
201412250852 METAR KATL 250852Z 28007KT 10SM FEW028 BKN038 06/02 A3001 RMK AO2 SLP164 T00610022 53027=
201412250752 METAR KATL 250752Z 28010KT 10SM SCT028 BKN040 BKN200 06/02 A2998 RMK AO2 SLP154 T00610017=
201412250652 METAR KATL 250652Z 29012G16KT 10SM FEW025 SCT046 SCT200 07/02 A2995 RMK AO2 SLP143 T00670017=
201412250552 METAR KATL 250552Z 29014G19KT 10SM FEW023 BKN039 OVC160 08/03 A2993 RMK AO2 SLP135 T00830033 10106 20083 53016=
201412250539 SPECI KATL 250539Z 27012G21KT 10SM FEW021 BKN036 OVC160 08/04 A2993 RMK AO2=
201412250516 SPECI KATL 250516Z 27015G19KT 10SM BKN019 OVC034 08/05 A2992 RMK AO2=
201412250452 METAR KATL 250452Z 25007KT 10SM BKN030 BKN043 OVC160 08/06 A2991 RMK AO2 SLP129 T00830056 401670083=
201412250352 METAR KATL 250352Z 28008KT 10SM FEW039 OVC160 08/05 A2989 RMK AO2 SLP122 T00830050=
201412250252 METAR KATL 250252Z 28008KT 10SM FEW011 BKN039 OVC150 09/05 A2988 RMK AO2 SLP119 T00890050 53025=
201412250211 SPECI KATL 250211Z 30012G16KT 10SM FEW011 BKN032 OVC120 09/05 A2986 RMK AO2=
201412250152 METAR KATL 250152Z 29010G18KT 10SM FEW011 BKN018 OVC032 09/06 A2987 RMK AO2 SLP115 T00940056=
201412250120 SPECI KATL 250120Z 28013G20KT 10SM FEW013 BKN018 OVC026 10/06 A2983 RMK AO2=
201412250052 METAR KATL 250052Z 29011KT 10SM FEW016 SCT028 OVC120 10/06 A2981 RMK AO2 SLP096 T01000056=
201412250043 SPECI KATL 250043Z 28014G18KT 10SM FEW016 SCT028 OVC120 10/06 A2981 RMK AO2=
201412242352 METAR KATL 242352Z 28010G18KT 10SM BKN016 OVC028 11/07 A2980 RMK AO2 SLP092 60000 T01060072 10167 20106 51046=
201412242252 METAR KATL 242252Z 28014G21KT 10SM BKN017 OVC030 12/08 A2976 RMK AO2 PRESRR SLP078 T01170083=
201412242152 METAR KATL 242152Z 27016G21KT 10SM BKN015 BKN023 OVC040 13/09 A2972 RMK AO2 PK WND 29027/2133 SLP062 T01280094=
201412242112 SPECI KATL 242112Z 25008G18KT 10SM FEW018 BKN030 BKN040 17/13 A2968 RMK AO2=
201412242052 METAR KATL 242052Z 24009G16KT 10SM FEW015 BKN025 BKN040 17/14 A2966 RMK AO2 SLP043 60000 T01670139 55000=
201412242007 SPECI KATL 242007Z 23006KT 7SM FEW008 BKN017 BKN040 16/15 A2966 RMK AO2=
201412241952 METAR KATL 241952Z 21004KT 3SM BR BKN005 OVC013 16/15 A2966 RMK AO2 SFC VIS 6 SLP040 T01560150=
201412241933 SPECI KATL 241933Z 21007KT 2SM BR OVC005 15/14 A2966 RMK AO2 SFC VIS 4=
201412241917 SPECI KATL 241917Z 20005KT 3/4SM BR OVC005 14/14 A2966 RMK AO2 SFC VIS 4 TWRINC=
201412241905 SPECI KATL 241905Z 20004KT 1/4SM BR OVC004 14/14 A2965 RMK AO2 SFC VIS 4 TWRINC=
201412241852 METAR KATL 241852Z 19006KT 1/4SM R09R/5000VP6000FT BR BCFG VV004 14/14 A2965 RMK AO2 SFC VIS 1 DZE47 SLP040 TWRINC P0000 T01390139=
201412241801 SPECI KATL 241801Z VRB03KT 1/4SM R09R/2000V3000FT -DZ BR VV003 13/13 A2966 RMK AO2 SFC VIS 3/4 P0000=
201412241752 SPECI KATL 241752Z 00000KT 1/4SM R09R/1600V2200FT -DZ BR VV003 13/12 A2966 RMK AO2 SFC VIS 3/4 DZB50 SLP044 TWRINC P0000 60019 T01280122 10128 20100 58002=
201412241752 METAR KATL 241752Z 00000KT 1/4SM R09R/1600V2200FT -DZ BR VV003 13/12 A2966 RMK AO2 SFC VIS 3/4 DZB50 SLP044 TWRINC P0000 60019 T01280122 10128 20100 58002=
201412241733 SPECI KATL 241733Z 14003KT 1/4SM R09R/1800V2200FT FG VV003 12/12 A2968 RMK AO2 SFC VIS 1/2=
201412241704 SPECI KATL 241704Z 13005KT 1/4SM R09R/2000V3000FT FG VV003 12/12 A2969 RMK AO2 SFC VIS 1/2=
201412241657 SPECI KATL 241657Z 16004KT 1/4SM R09R/2000V2200FT FG VV003 12/12 A2971 RMK AO2 SFC VIS 1/2=
201412241652 METAR KATL 241652Z 14004KT 1/4SM R09R/2000V2400FT FG VV003 12/12 A2970 RMK AO2 SFC VIS 1/2 SLP056 TWRINC T01220122=
201412241629 SPECI KATL 241629Z 13007KT 1/4SM R09R/2600V4500FT FG OVC003 12/12 A2969 RMK AO2 SFC VIS 1/2=
201412241552 METAR KATL 241552Z 12006KT 1/4SM BR BCFG OVC003 12/12 A2969 RMK AO2 SFC VIS 4 SLP051 TWRINC T01220117=
201412241452 METAR KATL 241452Z 11008KT 1/4SM BR OVC003 11/11 A2967 RMK AO2 SFC VIS 5 RAE02 SLP047 TWRINC P0000 60019 T01110106 58009=
201412241352 METAR KATL 241352Z 10008KT 1/4SM -RA BR OVC003 11/10 A2968 RMK AO2 SFC VIS 5 SLP051 TWRINC P0005 T01060100=
201412241347 SPECI KATL 241347Z 11006KT 1/4SM -RA BR OVC003 11/10 A2968 RMK AO2 SFC VIS 5 TWRINC P0005=
201412241252 METAR KATL 241252Z 10008KT 2SM RA BR BKN004 BKN042 OVC070 10/09 A2972 RMK AO2 SFC VIS 5 SLP065 CIG 003V005 TWRINC P0014 T01000094=
201412241243 SPECI KATL 241243Z 10010KT 2SM RA BR BKN004 OVC042 11/09 A2973 RMK AO2 SFC VIS 3 TWRINC P0011=
201412241152 METAR KATL 241152Z 09008KT 3SM RA BR BKN004 BKN075 OVC100 11/10 A2970 RMK AO2 SFC VIS 5 SLP057 TWRINC P0009 60064 70194 T01060100 10117 20106 55012=
201412241052 METAR KATL 241052Z 08012KT 6SM -RA BR BKN004 BKN080 OVC100 11/09 A2968 RMK AO2 RAB0955 SLP052 BKN004 V SCT P0005 T01060094=
201412241050 SPECI KATL 241050Z 08013KT 6SM -RA BR BKN004 BKN080 OVC100 11/09 A2968 RMK AO2 RAB0955 BKN004 V SCT P0004=
201412241015 SPECI KATL 241015Z 07010KT 5SM RA BR SCT004 BKN040 OVC090 11/10 A2971 RMK AO2 RAB0955 TWRINC P0002=
201412240952 METAR KATL 240952Z 06007KT 2SM BKN004 BKN040 OVC090 11/11 A2974 RMK AO2 SFC VIS 7 RAE50 SLP071 TWRINC P0027 T01110106=
201412240950 SPECI KATL 240950Z 07006KT 2SM BKN004 BKN040 OVC090 11/11 A2974 RMK AO2 SFC VIS 7 RAE50 TWRINC P0027=
201412240921 SPECI KATL 240921Z 33004KT 2SM +RA BR SCT004 SCT021 OVC048 11/11 A2977 RMK AO2 P0022=
201412240852 METAR KATL 240852Z COR 34005KT 2SM RA BR OVC004 11/11 A2974 RMK AO2 SFC VIS 3 PRESRR SLP072 TWRINC P0008 60023 T01110106 53001=
201412240752 METAR KATL 240752Z 08009KT 2SM -RA BR BKN004 OVC030 11/11 A2973 RMK AO2 SFC VIS 6 PRESFR SLP068 P0011 T01110106=
201412240652 METAR KATL 240652Z 08007KT 2SM -RA BR BKN004 BKN060 OVC090 11/11 A2973 RMK AO2 SFC VIS 6 SLP069 CIG 003V006 TWRINC P0004 T01110106=
201412240638 SPECI KATL 240638Z 09010KT 2SM -RA BR BKN004 OVC090 11/11 A2974 RMK AO2 SFC VIS 6 CIG 003V006 TWRINC P0002=
201412240620 SPECI KATL 240620Z 09008KT 6SM -RA BR BKN004 BKN070 OVC100 11/11 A2975 RMK AO2 CIG 003V006 P0001=
201412240552 METAR KATL 240552Z 07010KT 7SM -RA BKN005 BKN020 OVC090 12/11 A2974 RMK AO2 TSE13 PRESFR SLP071 CIG 003V007 P0013 60126 T01170111 10133 20100 50007=
201412240514 SPECI KATL 240514Z 08008KT 7SM -RA SCT008 BKN025 OVC100 12/12 A2977 RMK AO2 TSE13 TS DSIPTD SCT008 V BKN P0006=
201412240510 SPECI KATL 240510Z 08008KT 7SM -TSRA SCT008 BKN025 OVC100 12/12 A2977 RMK AO2 TS DSIPTD SCT008 V BKN P0006=
201412240452 METAR KATL 240452Z 06005KT 5SM TSRA BR FEW004 BKN010CB OVC070 12/12 A2979 RMK AO2 TSB05 SLP087 OCNL LTGIC NW-NE TS NW-NE MOV NE P0028 T01220117 401330056=
201412240405 SPECI KATL 240405Z 01007KT 4SM +TSRA BR FEW010CB BKN060 OVC100 13/12 A2978 RMK AO2 TSB05 OCNL LTGIC NW-NE TS NW-NE MOV NE P0006=
201412240352 METAR KATL 240352Z 36007KT 5SM RA BR FEW004 BKN060 OVC100 13/12 A2978 RMK AO2 TSB05E47 SLP085 OCNL LTGIC DSNT NE-SE P0064 T01280122=
201412240347 SPECI KATL 240347Z 35008KT 5SM RA BR FEW004 BKN055 OVC100 13/12 A2977 RMK AO2 TSB05E47 OCNL LTGIC DSNT NE-SE TS MOV NE P0063=
201412240336 SPECI KATL 240336Z 33008KT 3SM +TSRA BR FEW004 SCT015CB OVC045 13/13 A2979 RMK AO2 TSB05 OCNL LTGIC NE-SE TS VC NE-SE MOV NE P0059=
201412240328 SPECI KATL 240328Z 32006KT 3SM +TSRA BR SCT006CB BKN012 OVC030 13/13 A2979 RMK AO2 TSB05 VIS LWR NE-SE OCNL LTGIC NE-SE TS NE-SE MOV NE P0051=
201412240320 SPECI KATL 240320Z 31009G23KT 1 1/4SM R09R/3500VP6000FT +TSRA BR BKN005CB OVC025 13/13 A2980 RMK AO2 TSB05 PRESRR OCNL LTGIC N-OHD-S TS N-OHD-S MOV NE CIG 002V007 P0017=
201412240307 SPECI KATL 240307Z 13009KT 1SM TSRA BR OVC004 13/12 A2971 RMK AO2 SFC VIS 3 TSB05 OCNL LTGIC SW-NW TS SW-NW MOV NE CIG 002V006 P0009=
201412240304 SPECI KATL 240304Z 13009KT 1/4SM +RA BR OVC004 13/12 A2972 RMK AO2 SFC VIS 3 OCNL LTGIC SW-NW TS SW-NW MOV NE CIG 002V006 P0008=
201412240252 METAR KATL 240252Z 11012G17KT 1/4SM R09R/4000VP6000FT RA BR OVC002 12/12 A2972 RMK AO2 SFC VIS 1 1/4 RAB34 SLP064 CB DSNT SW-NW P0004 60021 T01220122 58019=
201412240152 METAR KATL 240152Z 11010KT 1/4SM R09R/5500VP6000FT BR OVC002 12/12 A2974 RMK AO2 SFC VIS 1 1/2 RAE52 SLP072 P0016 T01170117=
201412240104 SPECI KATL 240104Z 11010G15KT 1/4SM R09R/3500VP6000FT RA BR OVC003 11/11 A2976 RMK AO2 SFC VIS 1 1/2 P0004=
201412240052 METAR KATL 240052Z 12009KT 1/4SM R09R/1600V2600FT -RA FG VV002 11/11 A2977 RMK AO2 DZE33RAB33 SLP083 SFC VIS 1/4 P0001 T01110106=
201412232352 METAR KATL 232352Z 11010KT 1/4SM R09R/1800V2400FT -DZ FG VV002 10/10 A2978 RMK AO2 RAB22E43DZB50 PRESFR SLP086 P0001 60004 T01000100 10100 20072 56025=
201412232324 SPECI KATL 232324Z 11007KT 1/4SM R09R/2000V4500FT -RA FG VV002 09/09 A2981 RMK AO2 SFC VIS 1/2 RAB22 P0000=
201412232252 METAR KATL 232252Z 11011KT 1/4SM R09R/3500VP6000FT BR BCFG OVC002 09/09 A2979 RMK AO2 SFC VIS 3/4 SLP090 TWRINC T00940089=
201412232152 METAR KATL 232152Z 10010KT 1/4SM BR BCFG OVC003 09/08 A2982 RMK AO2 SFC VIS 4 RAE39 PRESFR SLP102 TWRINC P0003 T00890083=
201412232133 SPECI KATL 232133Z 10008KT 1/4SM -RA BR OVC003 08/08 A2985 RMK AO2 SFC VIS 5 TWRINC P0003=
201412232052 METAR KATL 232052Z 14008G19KT 1/4SM R09R/4000VP6000FT -RA BR OVC003 08/07 A2985 RMK AO2 SFC VIS 3/4 RAE06B28 SLP113 P0000 60000 T00780072 55008=
201412231952 METAR KATL 231952Z 10008KT 1/4SM R09R/2600V3500FT -RA FG VV003 07/07 A2985 RMK AO2 SFC VIS 1/2 DZE50RAB50 SLP112 P0000 T00720067=
201412231852 METAR KATL 231852Z 09010KT 1/4SM R09R/4500V5500FT -DZ BR OVC003 07/07 A2986 RMK AO2 SFC VIS 3/4 SLP115 P0000 T00720067=
201412231752 METAR KATL 231752Z 10009KT 1/4SM -DZ BR OVC003 07/07 A2988 RMK AO2 SFC VIS 1 1/2 SLP122 P0000 60000 T00720067 10072 20056 58026=
201412231652 METAR KATL 231652Z 10009KT 1/4SM R09R/3000V5500FT -DZ BR VV003 07/06 A2990 RMK AO2 SFC VIS 3/4 SLP128 P0000 T00670061=
201412231552 METAR KATL 231552Z 09011KT 1/4SM R09R/2600V4000FT -DZ FG VV003 07/06 A2995 RMK AO2 SFC VIS 1/2 SLP145 P0000 T00670056=
201412231452 METAR KATL 231452Z 10009KT 1/4SM R09R/2400V3500FT -DZ FG VV003 06/06 A2996 RMK AO2 DZB47 SLP149 TWRINC P0000 60000 T00610056 53008=
201412231352 METAR KATL 231352Z 08010KT 1/4SM R09R/4500V5500FT BR OVC002 06/05 A2994 RMK AO2 SFC VIS 3/4 DZE52 SLP143 P0000 T00610050=
201412231252 METAR KATL 231252Z 08010KT 1/4SM R09R/3000V3500FT DZ FG VV002 06/05 A2993 RMK AO2 SFC VIS 1/2 SLP139 P0000 T00560050=
201412231152 METAR KATL 231152Z 08009KT 1/4SM R09R/3500V4000FT DZ FG VV002 06/05 A2993 RMK AO2 SFC VIS 1/2 SLP140 P0000 60001 70048 T00560050 10061 20056 53006=
201412231052 METAR KATL 231052Z 09009KT 1/4SM R09R/4500V5000FT -DZ BR OVC003 06/05 A2991 RMK AO2 SFC VIS 3/4 SLP134 P0001 T00560050=
201412231044 SPECI KATL 231044Z 09008KT 1/4SM R09R/4500V5500FT -DZ BR OVC003 06/05 A2992 RMK AO2 SFC VIS 3/4 P0001=
201412230952 METAR KATL 230952Z 09008KT 1SM R09R/5500V6000FT -DZ BR OVC003 06/05 A2992 RMK AO2 SLP135 P0000 T00560050=
201412230852 METAR KATL 230852Z 10009KT 1SM -DZ BR OVC003 06/05 A2992 RMK AO2 SFC VIS 1 1/2 SLP134 P0000 60000 T00560050 56001=
201412230752 METAR KATL 230752Z 08009KT 1SM -DZ BR OVC003 06/05 A2992 RMK AO2 SFC VIS 2 SLP134 TWRINC P0000 T00610050=
201412230652 METAR KATL 230652Z 09011KT 1SM -DZ BR OVC003 06/05 A2991 RMK AO2 SFC VIS 1 3/4 SLP131 P0000 T00610050=
201412230552 METAR KATL 230552Z 09009KT 1SM -DZ BR OVC003 06/05 A2992 RMK AO2 SFC VIS 2 1/2 DZE0455B33RAB0455E33 SLP134 P0003 60015 T00610050 10072 20061 58002=
201412230452 METAR KATL 230452Z 11008KT 1SM -DZ BR OVC003 06/06 A2993 RMK AO2 SFC VIS 1 1/2 DZB47 SLP138 P0000 T00610056 400890061=
201412230352 METAR KATL 230352Z 09011KT 1SM BR OVC003 06/06 A2992 RMK AO2 SFC VIS 1 3/4 SLP138 CIG 002V004 T00610056=
201412230313 SPECI KATL 230313Z 09010KT 1SM OVC003 07/06 A2992 RMK AO2 SFC VIS 8 CIG 002V005=
201412230252 METAR KATL 230252Z 10009KT 3SM OVC004 07/06 A2992 RMK AO2 SFC VIS 10 RAB04E17 SLP136 P0000 60012 T00670056 55000=
201412230152 METAR KATL 230152Z 10010G17KT 10SM OVC005 07/06 A2992 RMK AO2 RAE15 SLP133 CIG 003V006 P0001 T00670056=
201412230052 METAR KATL 230052Z 10011KT 8SM -RA OVC006 07/06 A2992 RMK AO2 SLP135 CIG 004V008 PCPN VRY LGT P0011 T00720056=
201412222352 METAR KATL 222352Z 10008KT 2SM +RA BR BKN005 OVC013 07/06 A2992 RMK AO2 SFC VIS 3 SLP137 CIG 003V006 P0021 60032 T00720061 10078 20072 55002=
201412222252 METAR KATL 222252Z 11008KT 2SM -RA OVC005 07/06 A2991 RMK AO2 SFC VIS 9 RAB2156 SLP133 CIG 003V006 P0003 T00720061=
201412222231 SPECI KATL 222231Z 08011KT 2SM -RA OVC005 07/06 A2991 RMK AO2 SFC VIS 9 RAB2156 CIG 003V006 P0002=
201412222152 METAR KATL 222152Z 09011KT 1SM BR OVC005 08/06 A2991 RMK AO2 SFC VIS 6 RAE44 SLP131 VIS LWR S-SW VCSH P0008 T00780061=
201412222052 METAR KATL 222052Z 10007KT 1SM -RA BR OVC004 08/07 A2993 RMK AO2 SFC VIS 3 DZE48RAB48 SLP138 P0000 60000 T00780067 55005=
201412221952 METAR KATL 221952Z 09009KT 1/2SM -DZ BR OVC003 08/07 A2991 RMK AO2 SFC VIS 2 SLP130 P0000 T00780067=
201412221852 METAR KATL 221852Z 10009KT 1/2SM -DZ BR OVC003 08/07 A2993 RMK AO2 SFC VIS 1 1/2 SLP139 P0000 T00780067=
201412221752 METAR KATL 221752Z 10010KT 1/2SM R09R/4000V4500FT -DZ FG OVC003 08/07 A2995 RMK AO2 PRESFR SLP143 P0000 60000 T00780067 10078 20072 58024=
201412221652 METAR KATL 221652Z 10009KT 1/2SM R09R/6000VP6000FT -DZ BR OVC003 08/07 A3000 RMK AO2 SFC VIS 1 SLP161 P0000 T00780067=
201412221552 METAR KATL 221552Z 10009KT 1/2SM R09R/5000VP6000FT -DZ BR OVC003 07/07 A3002 RMK AO2 SFC VIS 3/4 SLP168 P0000 T00720067=
201412221452 METAR KATL 221452Z 09011KT 1/2SM R09R/4000V5000FT -DZ BR OVC003 07/06 A3002 RMK AO2 SFC VIS 3/4 DZB46 SLP167 P0000 60000 T00720061 58004=
201412221352 METAR KATL 221352Z 09009KT 1/2SM R09R/4500VP6000FT BR OVC003 07/06 A3002 RMK AO2 SFC VIS 1 SLP170 T00720061=
201412221252 METAR KATL 221252Z 09010KT 1/2SM R09R/P6000FT BR OVC003 07/06 A3003 RMK AO2 SFC VIS 1 DZE14 SLP172 P0000 T00720061=
201412221152 METAR KATL 221152Z 08008KT 1/2SM -DZ BR OVC003 07/06 A3003 RMK AO2 SFC VIS 1 1/2 SLP172 TWRINC P0000 60000 T00720061 10083 20072 55001=
201412221141 SPECI KATL 221141Z 09010KT 1/2SM -DZ BR OVC003 07/06 A3004 RMK AO2 SFC VIS 1 1/2 TWRINC P0000=
201412221052 METAR KATL 221052Z 09013KT 1SM -DZ BR OVC004 08/06 A3002 RMK AO2 SFC VIS 2 1/2 SLP168 CIG 003V005 TWRINC P0000 T00780061=
201412220952 METAR KATL 220952Z 08009KT 1SM -DZ BR OVC004 08/07 A3003 RMK AO2 SFC VIS 3 SLP171 CIG 003V007 TWRINC P0000 T00780067=
201412220857 SPECI KATL 220857Z 09012KT 3SM -DZ BR OVC005 08/07 A3003 RMK AO2 CIG 004V008 P0000=
201412220852 METAR KATL 220852Z 10009KT 2 1/2SM -DZ BR OVC004 08/07 A3004 RMK AO2 SLP173 CIG 003V006 P0000 60000 T00830067 56011=
201412220752 METAR KATL 220752Z 10008KT 2 1/2SM -DZ BR OVC004 08/07 A3005 RMK AO2 SLP178 CIG 003V007 P0000 T00830072=
201412220749 SPECI KATL 220749Z 10008KT 1 1/2SM -DZ BR OVC004 08/07 A3005 RMK AO2 CIG 003V007 P0000=
201412220652 METAR KATL 220652Z 08011KT 2 1/2SM -DZ BR OVC005 08/07 A3006 RMK AO2 SLP180 CIG 003V007 P0000 T00830067=
201412220648 SPECI KATL 220648Z 09012KT 2 1/2SM -DZ BR OVC005 08/07 A3006 RMK AO2 CIG 003V007 P0000=
201412220629 SPECI KATL 220629Z 08009KT 1 1/2SM -DZ BR OVC005 08/07 A3006 RMK AO2 CIG 004V007 P0000=
201412220610 SPECI KATL 220610Z 08009KT 2SM -DZ BR OVC005 08/07 A3006 RMK AO2 CIG 004V007 P0000=
201412220552 METAR KATL 220552Z 09010KT 3SM -DZ BR OVC007 08/07 A3007 RMK AO2 SLP185 CIG 006V009 P0000 60000 T00830067 10100 20083 58006=
201412220505 SPECI KATL 220505Z 09012KT 7SM -DZ OVC008 09/07 A3007 RMK AO2 CIG 007V010 P0000=
201412220452 METAR KATL 220452Z 10008G17KT 9SM -DZ OVC011 09/07 A3008 RMK AO2 SLP190 CIG 009V013 PCPN VRY LGT P0000 T00890067 401000078=
201412220436 SPECI KATL 220436Z 10012G18KT 9SM -DZ OVC011 09/07 A3009 RMK AO2 CIG 008V013 P0000=
201412220402 SPECI KATL 220402Z 09008KT 7SM -DZ OVC009 09/07 A3009 RMK AO2 CIG 008V011 P0000=
201412220352 METAR KATL 220352Z 10008KT 9SM -DZ OVC011 09/07 A3009 RMK AO2 RAE39DZB39 SLP193 CIG 009V012 PCPN VRY LGT P0000 T00940067=
201412220318 SPECI KATL 220318Z 10005KT 9SM -RA OVC013 09/07 A3009 RMK AO2 CIG 010V015 PCPN VRY LGT P0000=
201412220252 METAR KATL 220252Z 09011KT 10SM -RA OVC016 09/07 A3009 RMK AO2 RAB11E20B38 SLP191 CIG 013V019 PCPN VRY LGT P0000 60000 T00940067 56007=
201412220152 METAR KATL 220152Z 09008KT 10SM OVC021 10/07 A3010 RMK AO2 SLP196 T01000067=
201412220052 METAR KATL 220052Z 09010KT 10SM FEW014 BKN021 OVC037 09/07 A3009 RMK AO2 RAB31E41 SLP192 P0000 T00940067=
201412212352 METAR KATL 212352Z 07008KT 10SM OVC015 09/07 A3011 RMK AO2 SLP198 CIG 013V017 T00940067 10100 20089 51003=
201412212339 SPECI KATL 212339Z 08009KT 10SM OVC015 09/07 A3010 RMK AO2 CIG 013V017=
201412212252 METAR KATL 212252Z 09008KT 8SM OVC011 09/07 A3010 RMK AO2 SLP197 T00940067=
201412212152 METAR KATL 212152Z 07009KT 7SM OVC011 09/07 A3010 RMK AO2 SLP196 T00940067=
201412212052 METAR KATL 212052Z 09010KT 8SM OVC011 09/07 A3010 RMK AO2 SLP194 T00940067 56018=
201412211952 METAR KATL 211952Z 10006KT 8SM OVC010 09/07 A3011 RMK AO2 SLP199 T00940067=
201412211928 SPECI KATL 211928Z 11007KT 7SM OVC010 09/07 A3011 RMK AO2=
201412211852 METAR KATL 211852Z 10007KT 3SM HZ OVC008 09/07 A3013 RMK AO2 SFC VIS 6 SLP203 T00940067=
201412211752 METAR KATL 211752Z 10007KT 2 1/2SM BR OVC007 09/07 A3015 RMK AO2 SFC VIS 5 SLP213 60000 T00890067 10094 20078 58017=
201412211652 METAR KATL 211652Z 08009KT 2 1/2SM BR OVC007 09/07 A3018 RMK AO2 SFC VIS 6 SLP223 T00890067=
201412211552 METAR KATL 211552Z 08007KT 2 1/2SM BR OVC007 09/07 A3020 RMK AO2 SFC VIS 5 SLP231 T00890067=
201412211457 SPECI KATL 211457Z 09006KT 2 1/2SM BR OVC005 08/07 A3020 RMK AO2 SFC VIS 4=
201412211452 METAR KATL 211452Z 10006KT 1 1/2SM BR OVC005 08/07 A3020 RMK AO2 SFC VIS 3 SLP231 60000 T00830067 53004=
201412211413 SPECI KATL 211413Z 09009KT 1 1/2SM BR OVC005 08/07 A3019 RMK AO2 SFC VIS 3=
201412211352 METAR KATL 211352Z 08009KT 3/4SM BR OVC004 08/07 A3019 RMK AO2 SFC VIS 1 1/2 DZE24 SLP227 TWRINC P0000 T00780067=
201412211347 SPECI KATL 211347Z 08009KT 3/4SM BR OVC004 08/07 A3019 RMK AO2 SFC VIS 1 1/2 DZE24 TWRINC P0000=
201412211330 SPECI KATL 211330Z 09007KT 1/4SM BR OVC004 08/07 A3019 RMK AO2 SFC VIS 1 1/2 DZE24 CIG 003V005 TWRINC P0000=
201412211252 METAR KATL 211252Z 07009KT 3/4SM -DZ BR OVC004 08/07 A3019 RMK AO2 SFC VIS 1 1/2 SLP224 TWRINC P0000 T00780067=
201412211243 SPECI KATL 211243Z 07009KT 3/4SM -DZ BR OVC004 08/07 A3019 RMK AO2 SFC VIS 1 1/2 P0000=
201412211231 SPECI KATL 211231Z 07007KT 3/4SM -DZ BR OVC005 08/07 A3019 RMK AO2 SFC VIS 2 P0000=
201412211152 METAR KATL 211152Z 05006KT 2SM -DZ BR OVC005 08/07 A3019 RMK AO2 SFC VIS 3 DZB31 SLP226 P0000 60000 70001 T00830067 10089 20078 53001=
201412211131 SPECI KATL 211131Z 05007KT 2SM -DZ BR OVC005 08/07 A3019 RMK AO2 SFC VIS 2 1/2 DZB31 P0000=
201412211052 METAR KATL 211052Z 06006KT 4SM BR OVC006 08/06 A3019 RMK AO2 SLP224 CIG 005V008 T00830061=
201412210952 METAR KATL 210952Z 08006KT 4SM BR BKN006 OVC013 08/06 A3019 RMK AO2 SLP225 T00830061=
201412210916 SPECI KATL 210916Z 07007KT 5SM BR BKN008 BKN013 OVC030 08/06 A3019 RMK AO2=
201412210900 SPECI KATL 210900Z 08006KT 5SM BR SCT008 BKN013 OVC030 08/06 A3019 RMK AO2=
201412210852 METAR KATL 210852Z 08006KT 5SM BR BKN008 BKN013 OVC030 08/06 A3019 RMK AO2 SLP225 T00830061 55001=
201412210752 METAR KATL 210752Z 08005KT 4SM BR OVC006 08/07 A3019 RMK AO2 SLP225 T00830067=
201412210652 METAR KATL 210652Z 09005KT 5SM BR BKN008 OVC016 09/07 A3019 RMK AO2 SLP224 T00890067=
201412210627 SPECI KATL 210627Z 07005KT 6SM BR OVC008 09/07 A3019 RMK AO2=
201412210552 METAR KATL 210552Z 08006KT 7SM OVC011 09/07 A3019 RMK AO2 SLP226 CIG 009V013 T00890067 10106 20089 58001=
201412210452 METAR KATL 210452Z 10006KT 7SM FEW010 OVC014 09/07 A3020 RMK AO2 SLP228 CIG 012V015 T00890067 401110056=
201412210352 METAR KATL 210352Z 10005KT 5SM BR OVC011 09/07 A3020 RMK AO2 SLP230 CIG 009V012 T00890067=
201412210252 METAR KATL 210252Z 09008KT 5SM BR OVC011 09/07 A3020 RMK AO2 SLP228 CIG 009V013 T00940072 51006=
201412210152 METAR KATL 210152Z 10006KT 5SM HZ OVC012 10/07 A3019 RMK AO2 SLP227 CIG 010V014 T01000072=
201412210052 METAR KATL 210052Z 08007KT 6SM HZ OVC012 11/07 A3019 RMK AO2 SLP225 CIG 010V015 T01060072=
201412202352 METAR KATL 202352Z 06007KT 5SM HZ OVC011 11/07 A3018 RMK AO2 SLP222 CIG 009V013 T01060072 10111 20100 53010=
201412202252 METAR KATL 202252Z 05006KT 6SM HZ OVC013 11/07 A3016 RMK AO2 SLP217 CIG 011V015 T01060072=
201412202152 METAR KATL 202152Z 34005KT 6SM HZ OVC011 11/07 A3016 RMK AO2 SLP214 T01060072=
201412202052 METAR KATL 202052Z 33003KT 6SM HZ OVC011 11/08 A3015 RMK AO2 SLP211 T01060078 55008=
201412201952 METAR KATL 201952Z 33005KT 6SM HZ OVC011 11/07 A3014 RMK AO2 SLP210 T01060072=
201412201852 METAR KATL 201852Z 34006KT 6SM HZ OVC011 10/07 A3015 RMK AO2 SLP214 T01000072=
201412201752 METAR KATL 201752Z 00000KT 8SM OVC013 11/08 A3017 RMK AO2 SLP219 60001 T01060078 10111 20061 58011=
201412201705 SPECI KATL 201705Z 00000KT 8SM OVC011 10/07 A3019 RMK AO2=
201412201652 METAR KATL 201652Z 14003KT 8SM SCT009 OVC019 10/07 A3019 RMK AO2 SLP227 T01000072=
201412201633 SPECI KATL 201633Z 00000KT 7SM FEW008 OVC032 10/07 A3019 RMK AO2=
201412201552 METAR KATL 201552Z 10005KT 7SM SCT019 BKN032 BKN050 09/07 A3020 RMK AO2 SLP229 T00940067=
201412201542 SPECI KATL 201542Z 07004KT 7SM SCT021 BKN032 10/07 A3020 RMK AO2=
201412201452 METAR KATL 201452Z 09004KT 6SM BR BKN027 BKN038 08/06 A3020 RMK AO2 RAE1359DZB1359E18 SLP232 P0000 60001 T00830061 51016=
201412201421 SPECI KATL 201421Z 04006KT 6SM BR FEW020 BKN027 OVC050 08/06 A3019 RMK AO2 RAE1359DZB1359E18 BINOVC P0000=
201412201402 SPECI KATL 201402Z 02004KT 4SM -DZ BR FEW009 BKN034 OVC050 08/06 A3019 RMK AO2 RAE1359DZB1359 BINOVC P0000=
201412201352 METAR KATL 201352Z 00000KT 5SM -RA BR FEW024 OVC034 08/06 A3019 RMK AO2 RAB05 SLP228 P0000 T00780056=
201412201335 SPECI KATL 201335Z 36004KT 3SM -RA BR FEW018 SCT024 OVC030 07/06 A3018 RMK AO2 RAB05 P0000=
201412201252 METAR KATL 201252Z 33005KT 5SM BR BKN018 OVC027 07/05 A3018 RMK AO2 RAE29 SLP224 P0001 T00670050=
201412201205 SPECI KATL 201205Z 01004KT 6SM -RA BR BKN018 OVC036 07/05 A3016 RMK AO2 P0000=
201412201152 METAR KATL 201152Z 00000KT 7SM -RA BKN036 OVC050 07/05 A3016 RMK AO2 RAB21 SLP215 P0003 60017 70020 T00670050 10067 20056 53009=
201412201052 METAR KATL 201052Z 05006KT 7SM FEW038 SCT070 BKN090 OVC150 06/04 A3013 RMK AO2 RAE39 SLP205 P0003 T00610044=
201412200952 METAR KATL 200952Z 00000KT 6SM -RA BR FEW041 OVC055 06/04 A3013 RMK AO2 SLP206 P0005 T00610039=
201412200852 METAR KATL 200852Z 00000KT 5SM -RA BR BKN050 OVC060 06/04 A3013 RMK AO2 SLP205 P0003 60006 T00560039 56003=
201412200752 METAR KATL 200752Z 00000KT 6SM -RA BR OVC060 06/04 A3013 RMK AO2 SLP207 P0002 T00560039=
201412200652 METAR KATL 200652Z 02005KT 10SM -RA OVC065 06/03 A3012 RMK AO2 SLP202 P0001 T00560028=
201412200552 METAR KATL 200552Z 35005KT 10SM -RA BKN070 OVC090 06/02 A3014 RMK AO2 SLP208 P0002 60003 T00560022 10089 20056 58006=
201412200452 METAR KATL 200452Z 33004KT 10SM -RA BKN070 OVC090 06/02 A3015 RMK AO2 SLP212 P0001 T00610017 401280033=
201412200352 METAR KATL 200352Z 33005KT 10SM -RA BKN065 OVC080 07/01 A3017 RMK AO2 SLP219 P0000 T00670006=
201412200252 METAR KATL 200252Z 31006KT 10SM -RA FEW055 BKN070 OVC100 07/00 A3016 RMK AO2 RAB48 SLP216 P0000 60000 T00720000 53008=
201412200152 METAR KATL 200152Z 31007KT 10SM BKN100 OVC150 08/00 A3015 RMK AO2 SLP214 VIRGA OHD-ALQDS T00780000=
201412200052 METAR KATL 200052Z 33007KT 10SM FEW110 BKN140 OVC200 08/01 A3013 RMK AO2 SLP208 T00830006=
201412192352 METAR KATL 192352Z 33008KT 10SM BKN120 OVC150 09/01 A3013 RMK AO2 SLP208 VIRGA NW-NE T00890011 10128 20089 53013=
201412192252 METAR KATL 192252Z 34008KT 10SM BKN140 OVC200 09/01 A3010 RMK AO2 SLP198 VIRGA E-OHD-W T00940011=
201412192152 METAR KATL 192152Z 33008KT 10SM OVC150 11/01 A3010 RMK AO2 SLP195 T01060011=
201412192052 METAR KATL 192052Z 33004KT 10SM BKN150 BKN200 12/02 A3009 RMK AO2 SLP193 T01170017 56015=
201412191952 METAR KATL 191952Z 32004KT 10SM BKN200 12/02 A3010 RMK AO2 SLP194 T01220017=
201412191852 METAR KATL 191852Z 00000KT 10SM SCT170 OVC250 12/01 A3011 RMK AO2 SLP200 T01170011=
201412191752 METAR KATL 191752Z 29004KT 10SM BKN230 11/01 A3014 RMK AO2 SLP208 T01110011 10111 20033 58008=
201412191652 METAR KATL 191652Z 33005KT 10SM BKN220 11/01 A3015 RMK AO2 SLP213 T01060011=
201412191552 METAR KATL 191552Z 33005KT 10SM BKN250 09/01 A3016 RMK AO2 SLP219 T00940011=
201412191452 METAR KATL 191452Z 32007KT 10SM SCT250 06/01 A3016 RMK AO2 SLP218 T00610006 52005=
201412191352 METAR KATL 191352Z 30006KT 10SM CLR 04/00 A3015 RMK AO2 SLP215 T00390000=
201412191252 METAR KATL 191252Z 30005KT 10SM BKN200 BKN250 03/00 A3015 RMK AO2 SLP215 T00330000=
201412191152 METAR KATL 191152Z 30004KT 10SM FEW150 BKN200 BKN250 03/00 A3014 RMK AO2 SLP213 T00330000 10050 20033 53009=
201412191052 METAR KATL 191052Z 32008KT 10SM FEW150 SCT200 BKN250 03/00 A3013 RMK AO2 SLP205 T00330000=
201412190952 METAR KATL 190952Z 31007KT 10SM FEW200 SCT250 03/00 A3011 RMK AO2 SLP200 T00330000=
201412190852 METAR KATL 190852Z 31006KT 10SM FEW200 BKN250 04/00 A3012 RMK AO2 SLP201 T00390000 58005=
201412190752 METAR KATL 190752Z 31005KT 10SM FEW200 BKN250 04/01 A3012 RMK AO2 SLP203 T00390006=
201412190652 METAR KATL 190652Z 33008KT 10SM FEW200 BKN250 05/01 A3013 RMK AO2 SLP206 T00500006=
201412190552 METAR KATL 190552Z 32008KT 10SM BKN250 05/01 A3013 RMK AO2 SLP208 T00500006 10094 20050 58004=
201412190452 METAR KATL 190452Z 32005KT 10SM FEW200 BKN250 05/01 A3015 RMK AO2 SLP214 T00500006 401280022=
201412190352 METAR KATL 190352Z 31005KT 10SM FEW200 BKN250 06/01 A3015 RMK AO2 SLP215 T00560006=
201412190252 METAR KATL 190252Z 31006KT 10SM FEW200 BKN250 06/01 A3015 RMK AO2 SLP213 T00610006 53006=
201412190152 METAR KATL 190152Z 32008KT 10SM BKN250 07/01 A3014 RMK AO2 SLP211 T00720006=
201412190052 METAR KATL 190052Z 32008KT 10SM FEW100 BKN250 08/01 A3013 RMK AO2 SLP209 T00830006=
201412182352 METAR KATL 182352Z 31006KT 10SM FEW045 SCT100 BKN250 09/00 A3013 RMK AO2 RAB00E10 SLP207 P0000 60000 T00940000 10128 20094 53006=
201412182252 METAR KATL 182252Z 33007KT 10SM BKN047 BKN110 BKN250 11/00 A3011 RMK AO2 SLP200 T01110000=
201412182152 METAR KATL 182152Z 26003KT 10SM BKN047 BKN070 BKN250 12/M01 A3010 RMK AO2 SLP196 T01171011=
201412182052 METAR KATL 182052Z 32005KT 10SM BKN045 BKN070 BKN250 13/M03 A3011 RMK AO2 SLP198 T01281028 55010=
201412181952 METAR KATL 181952Z 29003KT 10SM FEW070 BKN110 BKN250 12/M01 A3010 RMK AO2 SLP195 T01221011=
201412181852 METAR KATL 181852Z 29004KT 10SM FEW060 BKN100 BKN250 12/M01 A3011 RMK AO2 SLP201 T01171006=
201412181752 METAR KATL 181752Z 32003KT 10SM BKN060 BKN100 BKN250 09/00 A3014 RMK AO2 SLP210 T00940000 10094 20022 58013=
201412181652 METAR KATL 181652Z 34003KT 10SM BKN060 BKN080 BKN100 08/00 A3016 RMK AO2 SLP218 T00780000=
201412181552 METAR KATL 181552Z 32004KT 10SM BKN075 BKN100 BKN250 07/M01 A3018 RMK AO2 SLP226 T00671006=
201412181452 METAR KATL 181452Z 30003KT 10SM FEW075 BKN110 BKN250 06/M01 A3018 RMK AO2 SLP225 T00611006 51010=
201412181352 METAR KATL 181352Z 31007KT 10SM FEW110 SCT150 BKN200 BKN250 04/M01 A3017 RMK AO2 SLP221 ACC DSNT N T00391006=
201412181252 METAR KATL 181252Z 31008KT 10SM FEW150 BKN200 BKN250 02/M01 A3017 RMK AO2 SLP224 T00221011=
201412181152 METAR KATL 181152Z 31008KT 10SM SCT200 BKN250 02/M01 A3015 RMK AO2 SLP215 T00221011 10044 20022 53009=
201412181052 METAR KATL 181052Z 31009KT 10SM BKN200 BKN250 03/M01 A3012 RMK AO2 SLP205 T00281006=
201412180952 METAR KATL 180952Z 31010KT 10SM FEW150 BKN200 BKN250 03/00 A3011 RMK AO2 SLP202 T00330000=
201412180852 METAR KATL 180852Z 32007KT 10SM FEW150 BKN200 OVC250 04/00 A3012 RMK AO2 SLP204 T00390000 56002=
201412180752 METAR KATL 180752Z 31007KT 10SM BKN200 OVC250 04/00 A3013 RMK AO2 SLP206 T00390000=
201412180652 METAR KATL 180652Z 33009KT 10SM BKN200 BKN250 04/01 A3011 RMK AO2 SLP201 T00390006=
201412180552 METAR KATL 180552Z 32009KT 10SM SCT200 BKN250 04/01 A3013 RMK AO2 SLP206 T00390006 10056 20039 56010=
201412180452 METAR KATL 180452Z 32007KT 10SM FEW200 BKN250 04/01 A3014 RMK AO2 SLP210 T00390011 401000028=
201412180352 METAR KATL 180352Z 32006KT 10SM FEW200 BKN250 04/01 A3014 RMK AO2 SLP212 T00390011=
201412180252 METAR KATL 180252Z 31006KT 10SM FEW200 BKN250 04/02 A3016 RMK AO2 SLP217 T00390017 58003=
201412180152 METAR KATL 180152Z 29006KT 10SM FEW200 BKN250 04/02 A3017 RMK AO2 SLP223 T00440017=
201412180052 METAR KATL 180052Z 29007KT 10SM FEW200 BKN250 05/02 A3018 RMK AO2 SLP225 T00500022=
201412172352 METAR KATL 172352Z 31010KT 10SM SCT200 BKN250 06/02 A3017 RMK AO2 SLP221 T00560022 10094 20056 53008=
201412172252 METAR KATL 172252Z 32009KT 10SM SCT200 BKN250 06/02 A3015 RMK AO2 SLP214 T00610022=
201412172152 METAR KATL 172152Z 32010KT 10SM FEW020 SCT200 BKN250 08/03 A3015 RMK AO2 SLP214 T00780028=
201412172052 METAR KATL 172052Z 29010KT 10SM FEW020 SCT200 BKN250 08/03 A3014 RMK AO2 SLP211 T00830028 56011=
201412171952 METAR KATL 171952Z 32010KT 10SM FEW020 SCT200 BKN250 09/03 A3014 RMK AO2 SLP211 T00890028=
201412171852 METAR KATL 171852Z 31010KT 10SM FEW020 SCT200 BKN250 08/03 A3016 RMK AO2 SLP218 T00830028=
201412171752 METAR KATL 171752Z 30010KT 10SM FEW025 SCT200 BKN250 09/03 A3017 RMK AO2 SLP222 T00940028 10100 20028 58016=
201412171652 METAR KATL 171652Z 31008KT 10SM FEW020 SCT200 BKN250 09/03 A3020 RMK AO2 SLP230 T00890028=
201412171552 METAR KATL 171552Z 33010KT 10SM FEW015 SCT200 BKN250 08/03 A3022 RMK AO2 SLP239 T00780028=
201412171452 METAR KATL 171452Z 32012G17KT 10SM FEW012 SCT200 BKN250 07/03 A3022 RMK AO2 SLP239 T00720028 53016=
201412171352 METAR KATL 171352Z 33009KT 10SM FEW010 BKN250 05/02 A3019 RMK AO2 SLP227 T00500022=
201412171252 METAR KATL 171252Z 31006KT 10SM SCT250 03/02 A3018 RMK AO2 SLP226 T00330017=
201412171152 METAR KATL 171152Z 30006KT 10SM CLR 03/01 A3017 RMK AO2 SLP223 T00330011 10061 20033 53007=
201412171052 METAR KATL 171052Z 30006KT 10SM CLR 03/01 A3017 RMK AO2 SLP219 T00330011=
201412170952 METAR KATL 170952Z 29005KT 10SM CLR 04/02 A3016 RMK AO2 SLP215 T00390017=
201412170852 METAR KATL 170852Z 32007KT 10SM CLR 05/02 A3015 RMK AO2 SLP212 T00500017 58001=
201412170752 METAR KATL 170752Z 34008KT 10SM CLR 05/02 A3016 RMK AO2 SLP214 T00500017=
201412170652 METAR KATL 170652Z 32009KT 10SM CLR 06/02 A3016 RMK AO2 SLP212 T00560022=
201412170552 METAR KATL 170552Z 32008KT 10SM CLR 06/02 A3016 RMK AO2 SLP212 T00610022 10106 20056 50001=
201412170452 METAR KATL 170452Z 32008KT 10SM FEW030 07/02 A3016 RMK AO2 SLP215 T00670022 401610061=
201412170352 METAR KATL 170352Z 29007KT 10SM FEW035 06/02 A3016 RMK AO2 SLP215 T00610022=
201412170252 METAR KATL 170252Z 31007KT 10SM CLR 08/02 A3015 RMK AO2 SLP211 T00780022 51011=
201412170152 METAR KATL 170152Z 31006KT 10SM CLR 09/02 A3015 RMK AO2 SLP208 T00890022=
201412170052 METAR KATL 170052Z 32009KT 10SM FEW040 09/02 A3014 RMK AO2 SLP205 T00940022=
201412162352 METAR KATL 162352Z 31007KT 10SM FEW040 10/03 A3012 RMK AO2 SLP198 T01000028 10156 20100 51028=
201412162252 METAR KATL 162252Z 31012KT 10SM FEW040 12/03 A3009 RMK AO2 SLP189 T01170028=
201412162152 METAR KATL 162152Z 30014G18KT 10SM FEW043 SCT250 13/03 A3006 RMK AO2 SLP178 T01330028=
201412162052 METAR KATL 162052Z 29013KT 10SM FEW045 14/03 A3003 RMK AO2 SLP167 T01440033 53005=
201412161952 SPECI KATL 161952Z 28014G21KT 10SM FEW045 15/03 A3001 RMK AO2 SLP160 T01500033=
201412161952 METAR KATL 161952Z 28014G21KT 10SM FEW045 15/03 A3001 RMK AO2 SLP160 T01500033=
201412161852 METAR KATL 161852Z 28015G22KT 10SM FEW043 SCT250 15/04 A3001 RMK AO2 SLP159 T01500039=
201412161752 METAR KATL 161752Z 29013KT 10SM FEW037 SCT250 14/05 A3002 RMK AO2 SLP162 60000 T01440050 10156 20133 58001=
201412161652 METAR KATL 161652Z 30010KT 10SM SCT032 14/06 A3002 RMK AO2 SLP166 T01390056=
201412161552 METAR KATL 161552Z 27014KT 10SM FEW030 15/07 A3003 RMK AO2 SLP167 T01500072=
201412161452 METAR KATL 161452Z 27016G21KT 10SM SCT023 SCT060 15/09 A3002 RMK AO2 SLP163 60000 T01500094 53022=
201412161352 METAR KATL 161352Z 27009KT 10SM FEW009 SCT029 SCT060 15/12 A2999 RMK AO2 RAB06E20 SLP154 P0000 T01500122=
201412161337 SPECI KATL 161337Z 28010KT 10SM FEW009 SCT027 SCT060 15/13 A2999 RMK AO2 RAB06E20 P0000=
201412161312 SPECI KATL 161312Z 28012G15KT 8SM -RA SCT006 BKN025 BKN075 15/13 A2998 RMK AO2 RAB06 P0000=
201412161252 METAR KATL 161252Z 25007KT 7SM BKN006 OVC013 16/14 A2997 RMK AO2 RAE1156 SLP148 CIG 005V008 P0000 T01560144=
201412161152 METAR KATL 161152Z 21009KT 6SM -RA BR BKN008 BKN016 OVC070 16/14 A2995 RMK AO2 SLP140 CIG 006V010 P0006 60017 70017 T01560144 10161 20128 56004=
201412161052 METAR KATL 161052Z 22008KT 5SM -RA BR BKN009 OVC018 16/14 A2995 RMK AO2 RAB01 SLP140 CIG 006V012 P0009 T01560139=
201412161038 SPECI KATL 161038Z 23009G16KT 3SM RA BR BKN009 OVC013 16/14 A2995 RMK AO2 RAB01 P0004=
201412160952 METAR KATL 160952Z 22011G22KT 10SM OVC011 16/14 A2995 RMK AO2 SLP138 T01610139=
201412160852 METAR KATL 160852Z 20009KT 10SM BKN013 OVC030 14/12 A2996 RMK AO2 SLP144 60002 T01390117 58013=
201412160849 SPECI KATL 160849Z 19009KT 10SM BKN013 OVC030 14/11 A2997 RMK AO2=
201412160752 METAR KATL 160752Z 20008KT 10SM BKN018 BKN040 13/10 A2998 RMK AO2 RAB11E29 SLP151 P0002 T01280100=
201412160700 SPECI KATL 160700Z 20010G16KT 10SM BKN018 BKN028 BKN065 BKN200 14/08 A3000 RMK AO2=
201412160652 METAR KATL 160652Z 20011KT 10SM SCT018 BKN031 BKN065 BKN200 14/08 A2999 RMK AO2 SLP154 T01440078=
201412160649 SPECI KATL 160649Z 20011KT 10SM SCT018 BKN031 BKN065 BKN200 14/07 A2999 RMK AO2=
201412160618 SPECI KATL 160618Z 21010KT 10SM BKN022 BKN040 OVC065 14/07 A3000 RMK AO2=
201412160552 METAR KATL 160552Z 20010KT 10SM SCT048 BKN065 OVC100 14/06 A3000 RMK AO2 SLP158 T01440061 10150 20128 58013=
201412160452 METAR KATL 160452Z 16004KT 10SM FEW040 BKN065 OVC090 13/06 A3003 RMK AO2 SLP168 T01280056 401891011=
201412160352 METAR KATL 160352Z 14004KT 10SM SCT035 BKN050 BKN090 13/05 A3004 RMK AO2 SLP175 T01330050=
201412160252 METAR KATL 160252Z 14003KT 10SM SCT038 BKN055 14/05 A3004 RMK AO2 SLP176 T01390050 58001=
201412160152 METAR KATL 160152Z 16003KT 10SM BKN035 BKN050 14/04 A3005 RMK AO2 SLP180 T01440044=
201412160052 METAR KATL 160052Z 14004KT 10SM SCT034 BKN065 14/04 A3004 RMK AO2 SLP176 T01440039=
201412152352 METAR KATL 152352Z 15004KT 10SM SCT060 BKN200 15/03 A3005 RMK AO2 SLP178 T01500033 10189 20133 52004=
201412152252 METAR KATL 152252Z 18003KT 10SM FEW080 SCT200 BKN250 15/03 A3004 RMK AO2 SLP177 T01500033=
201412152152 METAR KATL 152152Z 00000KT 10SM FEW150 SCT200 SCT250 17/02 A3004 RMK AO2 SLP174 T01720022=
201412152052 METAR KATL 152052Z 26004KT 10SM FEW150 SCT200 BKN250 17/02 A3003 RMK AO2 SLP173 T01720017 55007=
201412151952 METAR KATL 151952Z 27004KT 10SM SCT250 18/01 A3003 RMK AO2 SLP169 T01780011=
201412151852 METAR KATL 151852Z 36004KT 10SM FEW250 16/01 A3003 RMK AO2 SLP172 T01610006=
201412151752 METAR KATL 151752Z 28004KT 10SM FEW250 13/01 A3006 RMK AO2 SLP182 T01330006 10133 21011 58012=
201412151652 METAR KATL 151652Z 31003KT 10SM FEW250 11/01 A3007 RMK AO2 SLP188 T01060006=
201412151552 METAR KATL 151552Z 30005KT 8SM BKN250 07/01 A3010 RMK AO2 SLP198 T00670006=
201412151452 METAR KATL 151452Z 29007KT 8SM BKN250 03/00 A3009 RMK AO2 SLP196 T00330000 53008=
201412151352 METAR KATL 151352Z 31006KT 7SM FEW150 SCT200 BKN250 00/M02 A3007 RMK AO2 SLP190 T00001017=
201412151252 METAR KATL 151252Z 32007KT 5SM BR FEW150 SCT200 BKN250 M01/M02 A3007 RMK AO2 SLP190 T10061022=
201412151152 METAR KATL 151152Z 28006KT 7SM SCT250 M01/M02 A3006 RMK AO2 SLP187 T10061022 10011 21006 51011=
201412151052 METAR KATL 151052Z 29006KT 7SM SCT250 M01/M02 A3006 RMK AO2 SLP185 T10061022=
201412150952 METAR KATL 150952Z 31007KT 7SM SCT250 00/M02 A3004 RMK AO2 SLP178 T00001022=
201412150852 METAR KATL 150852Z 32006KT 7SM SCT250 00/M02 A3003 RMK AO2 SLP174 T00001017 58001=
201412150752 METAR KATL 150752Z 34005KT 8SM FEW250 01/M02 A3004 RMK AO2 SLP174 T00061017=
201412150652 METAR KATL 150652Z 32006KT 8SM FEW250 01/M01 A3004 RMK AO2 SLP175 T00061011=
201412150552 METAR KATL 150552Z 33004KT 9SM FEW250 01/M02 A3004 RMK AO2 SLP175 T00111017 10072 20011 58008=
201412150452 METAR KATL 150452Z 32007KT 10SM FEW250 02/M01 A3005 RMK AO2 SLP179 T00221011 401390011=
201412150352 METAR KATL 150352Z 32006KT 10SM FEW250 03/M01 A3006 RMK AO2 SLP184 T00281011=
201412150252 METAR KATL 150252Z 29008KT 10SM FEW250 03/M01 A3006 RMK AO2 SLP184 T00331006 55000=
201412150152 METAR KATL 150152Z 32009KT 10SM CLR 04/00 A3005 RMK AO2 SLP182 T00440000=
201412150052 METAR KATL 150052Z 31009KT 10SM CLR 06/00 A3005 RMK AO2 SLP183 T00610000=
201412142352 METAR KATL 142352Z 32008KT 10SM CLR 07/00 A3006 RMK AO2 SLP184 T00720000 10139 20072 51002=
201412142252 METAR KATL 142252Z 33010KT 10SM CLR 09/00 A3005 RMK AO2 SLP182 T00890000=
201412142152 METAR KATL 142152Z 30010KT 10SM CLR 12/01 A3006 RMK AO2 SLP182 T01170006=
201412142052 METAR KATL 142052Z 30007KT 10SM CLR 13/01 A3005 RMK AO2 SLP179 T01330011 55008=
201412141952 METAR KATL 141952Z 33009KT 10SM CLR 13/00 A3005 RMK AO2 SLP178 T01330000=
201412141852 METAR KATL 141852Z 31007KT 10SM CLR 13/00 A3006 RMK AO2 SLP182 T01330000=
201412141752 METAR KATL 141752Z 32011KT 10SM CLR 12/M01 A3008 RMK AO2 SLP189 T01171006 10117 20011 58013=
201412141652 METAR KATL 141652Z 30009KT 10SM CLR 09/00 A3010 RMK AO2 SLP197 T00940000=
201412141552 METAR KATL 141552Z 30011KT 10SM CLR 07/M01 A3012 RMK AO2 SLP205 T00721006=
201412141452 METAR KATL 141452Z 31010KT 8SM CLR 05/M01 A3012 RMK AO2 SLP203 T00501006 53013=
201412141352 METAR KATL 141352Z 31010KT 10SM CLR 02/M01 A3010 RMK AO2 SLP198 T00221011=
201412141252 METAR KATL 141252Z 31011KT 10SM CLR 01/M02 A3009 RMK AO2 SLP193 T00111017=
201412141152 METAR KATL 141152Z 31009KT 10SM CLR 01/M01 A3008 RMK AO2 SLP190 T00111011 10039 20011 55002=
201412141052 METAR KATL 141052Z 31010KT 10SM CLR 02/M01 A3008 RMK AO2 SLP189 T00171011=
201412140952 METAR KATL 140952Z 31012KT 10SM CLR 02/M01 A3007 RMK AO2 SLP186 T00221011=
201412140852 METAR KATL 140852Z 32008KT 10SM CLR 03/M01 A3009 RMK AO2 SLP189 T00281006 56012=
201412140752 METAR KATL 140752Z 31008KT 10SM CLR 03/M01 A3010 RMK AO2 SLP194 T00281006=
201412140652 METAR KATL 140652Z 31008KT 10SM CLR 03/M01 A3010 RMK AO2 SLP196 T00331006=
201412140552 METAR KATL 140552Z 31009KT 10SM CLR 04/00 A3012 RMK AO2 SLP201 T00390000 10106 20039 58004=
201412140452 METAR KATL 140452Z 31008KT 10SM CLR 04/00 A3013 RMK AO2 SLP206 T00440000 401720028=
201412140352 METAR KATL 140352Z 32011KT 10SM CLR 06/01 A3013 RMK AO2 SLP207 T00560006=
201412140252 METAR KATL 140252Z 31009KT 10SM CLR 07/01 A3013 RMK AO2 SLP208 T00670006 57003=
201412140152 METAR KATL 140152Z 31007KT 10SM CLR 08/00 A3014 RMK AO2 SLP209 T00780000=
201412140052 METAR KATL 140052Z 32008KT 10SM FEW200 09/00 A3014 RMK AO2 SLP212 T00940000=
201412132352 METAR KATL 132352Z 32008KT 10SM FEW200 11/00 A3014 RMK AO2 SLP211 T01060000 10172 20106 53005=
201412132252 METAR KATL 132252Z 31009KT 10SM FEW200 12/M01 A3013 RMK AO2 SLP208 T01221006=
201412132152 METAR KATL 132152Z 31010KT 10SM FEW200 14/M01 A3013 RMK AO2 SLP205 T01441011=
201412132052 METAR KATL 132052Z 31009KT 10SM FEW160 17/M03 A3013 RMK AO2 SLP203 T01671028 56016=
201412131952 METAR KATL 131952Z 30012KT 10SM FEW130 17/M03 A3013 RMK AO2 SLP204 T01671033=
201412131852 METAR KATL 131852Z 33007KT 10SM FEW130 16/M03 A3015 RMK AO2 SLP211 T01611028=
201412131752 METAR KATL 131752Z 33010KT 10SM CLR 15/M03 A3018 RMK AO2 SLP219 T01501033 10150 20028 58016=
201412131652 METAR KATL 131652Z 31010KT 10SM CLR 13/M06 A3021 RMK AO2 SLP230 T01281061=
201412131552 METAR KATL 131552Z 31009KT 10SM FEW250 11/M06 A3022 RMK AO2 SLP236 T01111061=
201412131452 METAR KATL 131452Z 32010KT 10SM FEW250 08/M06 A3023 RMK AO2 SLP239 T00781056 53012=
201412131352 METAR KATL 131352Z 32012KT 10SM FEW250 05/M05 A3021 RMK AO2 SLP237 T00501050=
201412131252 METAR KATL 131252Z 31007KT 10SM FEW250 03/M06 A3020 RMK AO2 SLP231 T00331056=
201412131152 METAR KATL 131152Z 32009KT 10SM CLR 03/M06 A3019 RMK AO2 SLP228 T00331056 10061 20033 53002=
201412131052 METAR KATL 131052Z 32008KT 10SM CLR 03/M06 A3017 RMK AO2 SLP221 T00331056=
201412130952 METAR KATL 130952Z 32006KT 10SM CLR 03/M06 A3018 RMK AO2 SLP221 T00331061=
201412130852 METAR KATL 130852Z 32010KT 10SM CLR 04/M06 A3018 RMK AO2 SLP223 T00441061 58010=
201412130752 METAR KATL 130752Z 32008KT 10SM CLR 04/M07 A3020 RMK AO2 SLP226 T00441067=
201412130652 METAR KATL 130652Z 31008KT 10SM CLR 05/M07 A3020 RMK AO2 SLP230 T00501072=
201412130552 METAR KATL 130552Z 31010KT 10SM CLR 06/M07 A3022 RMK AO2 SLP234 T00611072 10100 20061 58009=
201412130452 METAR KATL 130452Z 31012KT 10SM CLR 06/M07 A3023 RMK AO2 SLP239 T00611072 401610000=
201412130352 METAR KATL 130352Z 31010KT 10SM CLR 06/M07 A3024 RMK AO2 SLP244 T00611072=
201412130252 METAR KATL 130252Z 31010KT 10SM CLR 07/M07 A3025 RMK AO2 SLP247 T00671072 50004=
201412130152 METAR KATL 130152Z 30007KT 10SM CLR 07/M07 A3025 RMK AO2 SLP249 T00721067=
201412130052 METAR KATL 130052Z 31009KT 10SM CLR 08/M07 A3025 RMK AO2 SLP248 T00831067=
201412122352 METAR KATL 122352Z 30010KT 10SM CLR 10/M07 A3023 RMK AO2 SLP243 T01001072 10161 20094 53006=
201412122252 METAR KATL 122252Z 31009KT 10SM CLR 11/M09 A3022 RMK AO2 SLP239 T01061094=
201412122152 METAR KATL 122152Z 31009KT 10SM CLR 14/M11 A3022 RMK AO2 SLP238 T01391106=
201412122052 METAR KATL 122052Z 31009KT 10SM CLR 16/M10 A3021 RMK AO2 SLP234 T01561100 56015=
201412121952 METAR KATL 121952Z 30009KT 10SM CLR 16/M11 A3022 RMK AO2 SLP235 T01611111=
201412121852 METAR KATL 121852Z 33009KT 10SM CLR 15/M14 A3023 RMK AO2 SLP240 T01501139=
201412121752 METAR KATL 121752Z 30010KT 10SM CLR 14/M10 A3026 RMK AO2 SLP250 T01391100 10139 20000 58020=
201412121652 METAR KATL 121652Z 30005KT 10SM CLR 11/M07 A3029 RMK AO2 SLP263 T01061067=
201412121552 METAR KATL 121552Z 33008KT 10SM CLR 08/M06 A3032 RMK AO2 SLP271 T00831061=
201412121452 METAR KATL 121452Z 32008KT 10SM CLR 05/M05 A3032 RMK AO2 SLP274 T00501050 51020=
201412121352 METAR KATL 121352Z 32009KT 10SM CLR 02/M04 A3030 RMK AO2 SLP268 T00221044=
201412121252 METAR KATL 121252Z 32007KT 10SM CLR 00/M05 A3028 RMK AO2 SLP261 T00001050=
201412121152 METAR KATL 121152Z 32008KT 10SM CLR 00/M05 A3026 RMK AO2 SLP254 T00001050 10028 20000 51012=
201412121052 METAR KATL 121052Z 32008KT 10SM CLR 01/M05 A3025 RMK AO2 SLP248 T00061050=
201412120952 METAR KATL 120952Z 32006KT 10SM CLR 01/M05 A3024 RMK AO2 SLP246 T00061050=
201412120852 METAR KATL 120852Z 32009KT 10SM CLR 01/M05 A3022 RMK AO2 SLP240 T00111050 53006=
201412120752 METAR KATL 120752Z 32009KT 10SM CLR 02/M05 A3022 RMK AO2 SLP237 T00171050=
201412120652 METAR KATL 120652Z 33010KT 10SM CLR 02/M05 A3021 RMK AO2 SLP234 T00221050=
201412120552 METAR KATL 120552Z 32008KT 10SM CLR 02/M04 A3021 RMK AO2 SLP233 T00221044 10067 20022 51007=
201412120452 METAR KATL 120452Z 32010KT 10SM CLR 03/M04 A3020 RMK AO2 SLP233 T00281044 401110006=
201412120352 METAR KATL 120352Z 32008KT 10SM CLR 03/M04 A3020 RMK AO2 SLP231 T00331039=
201412120252 METAR KATL 120252Z 31008KT 10SM CLR 04/M04 A3018 RMK AO2 SLP227 T00391039 53006=
201412120152 METAR KATL 120152Z 33008KT 10SM CLR 05/M04 A3017 RMK AO2 SLP224 T00501044=
201412120052 METAR KATL 120052Z 33008KT 10SM CLR 06/M04 A3017 RMK AO2 SLP223 T00611044=
201412112352 METAR KATL 112352Z 33009KT 10SM CLR 07/M04 A3017 RMK AO2 SLP222 T00671039 10111 20067 53015=
201412112252 METAR KATL 112252Z 32008KT 10SM CLR 08/M04 A3015 RMK AO2 SLP217 T00781044=
201412112152 METAR KATL 112152Z 31011KT 10SM FEW250 09/M05 A3013 RMK AO2 SLP209 T00941050=
201412112052 METAR KATL 112052Z 28012KT 10SM FEW250 11/M04 A3012 RMK AO2 SLP204 T01111044 55004=
201412111952 METAR KATL 111952Z 33012KT 10SM FEW250 11/M05 A3012 RMK AO2 SLP203 T01111050=
201412111852 METAR KATL 111852Z 31012KT 10SM FEW250 11/M05 A3013 RMK AO2 SLP206 T01061050=
201412111752 METAR KATL 111752Z 32009G16KT 10SM FEW250 09/M06 A3013 RMK AO2 SLP209 T00941056 10100 20006 58006=
201412111652 METAR KATL 111652Z 30012KT 10SM FEW250 08/M04 A3015 RMK AO2 SLP217 T00781044=
201412111552 METAR KATL 111552Z 30010KT 10SM FEW250 06/M03 A3016 RMK AO2 SLP219 T00611033=
201412111452 METAR KATL 111452Z 33012G19KT 10SM FEW250 04/M04 A3015 RMK AO2 SLP217 T00391039 52021=
201412111352 METAR KATL 111352Z 31010KT 10SM FEW250 02/M04 A3013 RMK AO2 SLP211 T00221039=
201412111252 METAR KATL 111252Z 32008KT 10SM FEW140 SCT250 01/M04 A3011 RMK AO2 SLP203 T00061039=
201412111152 METAR KATL 111152Z 32008KT 10SM FEW150 SCT200 01/M04 A3009 RMK AO2 SLP196 T00061044 10017 20006 53004=
201412111052 METAR KATL 111052Z 32013KT 10SM FEW200 01/M04 A3008 RMK AO2 SLP193 T00061039=
201412110952 METAR KATL 110952Z 32011KT 10SM FEW200 01/M04 A3008 RMK AO2 SLP191 T00061039=
201412110852 METAR KATL 110852Z 32015KT 10SM FEW200 01/M04 A3008 RMK AO2 SLP190 T00111039 50002=
201412110752 METAR KATL 110752Z 33012KT 10SM FEW250 01/M03 A3008 RMK AO2 SLP190 T00111033=
201412110652 METAR KATL 110652Z 32010KT 10SM FEW250 01/M03 A3008 RMK AO2 SLP189 T00111033=
201412110552 METAR KATL 110552Z 33010KT 10SM FEW250 02/M03 A3007 RMK AO2 SLP187 T00171033 10050 20011 58008=
201412110452 METAR KATL 110452Z 33010KT 10SM FEW250 02/M03 A3008 RMK AO2 SLP193 T00221033 401000017=
201412110352 METAR KATL 110352Z 32010G18KT 10SM FEW250 02/M03 A3010 RMK AO2 SLP199 T00221033=
201412110252 METAR KATL 110252Z 32011G20KT 10SM FEW250 03/M03 A3009 RMK AO2 SLP196 T00281028 56003=
201412110152 METAR KATL 110152Z 32012KT 10SM CLR 03/M02 A3010 RMK AO2 SLP199 T00331022=
201412110052 METAR KATL 110052Z 32012KT 10SM FEW250 04/M02 A3010 RMK AO2 SLP198 T00441022=
201412102352 METAR KATL 102352Z 33010KT 10SM FEW250 05/M02 A3010 RMK AO2 SLP200 T00501022 10100 20050 51001=
201412102252 METAR KATL 102252Z 34010KT 10SM FEW250 06/M02 A3010 RMK AO2 SLP198 T00611022=
201412102152 METAR KATL 102152Z 33012KT 10SM FEW250 08/M02 A3010 RMK AO2 SLP200 T00781017=
201412102052 METAR KATL 102052Z 32014G20KT 10SM FEW040 SCT250 08/M02 A3010 RMK AO2 SLP197 T00831017 55009=
201412101952 METAR KATL 101952Z 33018G21KT 10SM FEW040 SCT250 09/M02 A3010 RMK AO2 SLP196 T00941017=
201412101852 METAR KATL 101852Z 32012G20KT 10SM FEW035 SCT250 09/M01 A3011 RMK AO2 SLP202 T00941011=
201412101752 METAR KATL 101752Z 33013G21KT 10SM FEW033 SCT250 09/M01 A3013 RMK AO2 SLP206 T00891011 10089 20022 58012=
201412101652 METAR KATL 101652Z 33007KT 10SM FEW028 SCT250 08/M01 A3015 RMK AO2 SLP213 T00781006=
201412101552 METAR KATL 101552Z 35014G21KT 10SM FEW030 SCT250 07/M01 A3016 RMK AO2 SLP218 T00721006=
201412101452 METAR KATL 101452Z 34012KT 10SM FEW025 SCT250 06/M01 A3016 RMK AO2 SLP219 T00561006 53007=
201412101352 METAR KATL 101352Z 32011KT 10SM FEW025 04/M01 A3016 RMK AO2 SLP217 T00391006=
201412101252 METAR KATL 101252Z 31006KT 10SM CLR 02/M01 A3014 RMK AO2 SLP211 T00221011=
201412101152 METAR KATL 101152Z 32007KT 10SM FEW023 03/M02 A3014 RMK AO2 SLP211 T00281017 10033 20022 53003=
201412101052 METAR KATL 101052Z 33007KT 10SM FEW023 03/M01 A3012 RMK AO2 SLP205 T00281011=
201412100952 METAR KATL 100952Z 31008KT 10SM SCT024 02/M01 A3013 RMK AO2 SLP206 T00221011=
201412100852 METAR KATL 100852Z 33007KT 10SM FEW030 02/M01 A3013 RMK AO2 SLP207 T00221011 51005=
201412100752 METAR KATL 100752Z 32008G17KT 270V340 10SM FEW030 03/M01 A3013 RMK AO2 SLP206 T00281011=
201412100652 METAR KATL 100652Z 33009KT 10SM FEW030 03/M01 A3012 RMK AO2 SLP203 T00281011=
201412100552 METAR KATL 100552Z 34012KT 10SM FEW030 03/M01 A3011 RMK AO2 SLP201 T00281011 10094 20028 58004=
201412100452 METAR KATL 100452Z 33010KT 10SM FEW030 03/M01 A3013 RMK AO2 SLP206 T00331011 401280017=
201412100352 METAR KATL 100352Z 34011KT 10SM FEW030 04/M01 A3013 RMK AO2 SLP207 T00391011=
201412100252 METAR KATL 100252Z 32013KT 10SM FEW040 04/M02 A3012 RMK AO2 SLP205 T00441017 51015=
201412100152 METAR KATL 100152Z 33011KT 10SM FEW035 BKN042 06/M02 A3012 RMK AO2 SLP204 T00611017=
201412100052 METAR KATL 100052Z 34015G24KT 10SM SCT030 BKN038 BKN055 07/00 A3011 RMK AO2 SLP200 T00720000=
201412092352 METAR KATL 092352Z 34017G23KT 10SM FEW035 BKN045 OVC070 09/01 A3008 RMK AO2 SLP190 60000 T00940011 10128 20094 53008=
201412092252 METAR KATL 092252Z 34010KT 10SM BKN040 OVC060 10/01 A3007 RMK AO2 RAB28E51 SLP188 P0000 T01000006=
201412092152 METAR KATL 092152Z 33010KT 10SM FEW055 BKN065 OVC075 11/00 A3006 RMK AO2 SLP183 T01060000=
201412092052 METAR KATL 092052Z 34010KT 10SM FEW050 BKN060 BKN070 11/00 A3005 RMK AO2 SLP181 T01110000 56007=
201412091952 METAR KATL 091952Z 33013G19KT 10SM FEW050 SCT055 BKN070 12/00 A3005 RMK AO2 SLP180 T01170000=
201412091852 METAR KATL 091852Z 31019G23KT 10SM FEW050 BKN070 12/M01 A3005 RMK AO2 SLP180 T01221006=
201412091752 METAR KATL 091752Z 32015G21KT 10SM FEW050 BKN070 13/M01 A3007 RMK AO2 SLP186 T01281011 10128 20028 58015=
201412091652 METAR KATL 091652Z 33011G22KT 10SM FEW040 SCT070 12/00 A3009 RMK AO2 SLP193 T01170000=
201412091552 METAR KATL 091552Z 31011G16KT 10SM FEW035 10/02 A3011 RMK AO2 SLP201 T01000017=
201412091452 METAR KATL 091452Z 32009KT 10SM CLR 08/02 A3012 RMK AO2 SLP204 T00780017 53004=
201412091352 METAR KATL 091352Z 30012KT 10SM FEW040 05/01 A3011 RMK AO2 SLP201 T00500011=
201412091252 METAR KATL 091252Z 29007KT 10SM BKN043 03/01 A3011 RMK AO2 SLP201 T00330006=
201412091152 METAR KATL 091152Z 29006KT 10SM BKN041 03/01 A3011 RMK AO2 SLP201 T00280006 10033 20017 56010=
201412091052 METAR KATL 091052Z 29003KT 10SM FEW028 BKN041 03/01 A3011 RMK AO2 SLP203 T00280006=
201412090952 METAR KATL 090952Z 28004KT 10SM SCT035 02/00 A3012 RMK AO2 SLP206 T00220000=
201412090852 METAR KATL 090852Z 00000KT 10SM BKN035 02/01 A3014 RMK AO2 SLP212 T00220006 56009=
201412090752 METAR KATL 090752Z 32004KT 10SM FEW025 02/00 A3016 RMK AO2 SLP218 T00220000=
201412090652 METAR KATL 090652Z 31003KT 10SM FEW025 03/00 A3015 RMK AO2 SLP215 T00330000=
201412090552 METAR KATL 090552Z 00000KT 10SM FEW025 03/00 A3017 RMK AO2 SLP221 T00330000 10072 20028 58017=
201412090452 METAR KATL 090452Z 00000KT 10SM FEW025 05/01 A3020 RMK AO2 SLP231 T00500006 400830039=
201412090352 METAR KATL 090352Z 04005KT 10SM FEW025 06/01 A3021 RMK AO2 SLP236 T00560006=
201412090252 METAR KATL 090252Z 05006KT 10SM FEW025 06/01 A3022 RMK AO2 SLP239 T00560006 51001=
201412090152 METAR KATL 090152Z 06007KT 10SM SCT026 06/01 A3022 RMK AO2 SLP238 T00610006=
201412090116 SPECI KATL 090116Z 06008KT 10SM SCT028 06/00 A3021 RMK AO2=
201412090052 METAR KATL 090052Z 05007KT 10SM OVC028 07/01 A3022 RMK AO2 SLP239 BINOVC T00670006=
201412082352 METAR KATL 082352Z 10005KT 10SM OVC028 07/00 A3022 RMK AO2 SLP238 T00720000 10083 20067 56005=
201412082252 METAR KATL 082252Z 12004KT 10SM OVC030 07/00 A3022 RMK AO2 SLP239 T00720000=
201412082152 METAR KATL 082152Z 00000KT 10SM BKN032 08/00 A3023 RMK AO2 SLP240 T00780000=
201412082052 METAR KATL 082052Z VRB03KT 10SM BKN033 08/M01 A3023 RMK AO2 SLP242 T00781006 56011=
201412081952 METAR KATL 081952Z 09005KT 10SM BKN035 08/M01 A3024 RMK AO2 SLP243 T00781006=
201412081852 METAR KATL 081852Z VRB04KT 10SM OVC030 07/M01 A3026 RMK AO2 SLP251 T00721011=
201412081838 SPECI KATL 081838Z 10005KT 10SM OVC030 07/M01 A3026 RMK AO2=
201412081752 METAR KATL 081752Z 10010KT 10SM OVC026 07/M01 A3027 RMK AO2 SLP253 T00721011 10072 20039 58022=
201412081652 METAR KATL 081652Z 09009KT 10SM OVC026 06/M02 A3031 RMK AO2 SLP267 T00611022=
201412081552 METAR KATL 081552Z 08013KT 10SM OVC024 06/M03 A3033 RMK AO2 SLP275 T00611028=
201412081452 METAR KATL 081452Z 08014KT 10SM OVC022 06/M03 A3033 RMK AO2 SLP276 T00561033 58000=
201412081352 METAR KATL 081352Z 09009KT 10SM OVC022 05/M04 A3035 RMK AO2 SLP281 T00501039=
201412081322 SPECI KATL 081322Z 09008G19KT 10SM BKN021 OVC200 04/M04 A3032 RMK AO2=
201412081252 METAR KATL 081252Z 08011KT 10SM FEW030 SCT180 BKN220 04/M06 A3033 RMK AO2 SLP276 T00391056=
201412081152 METAR KATL 081152Z 09009KT 10SM SCT030 BKN150 BKN200 04/M06 A3033 RMK AO2 SLP275 T00441061 10072 20044 53006=
201412081052 METAR KATL 081052Z 09012KT 10SM SCT031 OVC200 05/M06 A3032 RMK AO2 SLP270 T00501056=
201412080952 METAR KATL 080952Z 08017G21KT 10SM BKN031 OVC220 05/M06 A3032 RMK AO2 PK WND 07026/0910 SLP268 T00501056=
201412080852 METAR KATL 080852Z 10018G23KT 10SM BKN031 OVC220 06/M06 A3032 RMK AO2 SLP267 T00611061 51007=
201412080752 METAR KATL 080752Z 09016G22KT 10SM FEW025 BKN200 BKN250 07/M06 A3031 RMK AO2 SLP266 T00671061=
201412080652 METAR KATL 080652Z 09018KT 10SM FEW140 SCT200 BKN250 07/M06 A3031 RMK AO2 SLP265 T00721061=
201412080552 METAR KATL 080552Z 09012KT 10SM FEW140 BKN200 BKN250 07/M04 A3029 RMK AO2 SLP259 T00721044 10122 20072 58001=
201412080452 METAR KATL 080452Z 09012KT 10SM FEW140 BKN200 OVC250 08/M03 A3030 RMK AO2 SLP260 T00831028 401670050=
201412080352 METAR KATL 080352Z 10012G18KT 10SM BKN200 BKN250 09/M01 A3029 RMK AO2 SLP261 T00891011=
201412080252 METAR KATL 080252Z 09009KT 10SM FEW150 SCT200 BKN250 09/00 A3030 RMK AO2 SLP262 T00890000 53007=
201412080152 METAR KATL 080152Z 09009KT 10SM FEW150 BKN200 BKN250 10/01 A3029 RMK AO2 SLP260 T01000006=
201412080052 METAR KATL 080052Z 08009KT 10SM FEW150 SCT200 BKN250 11/00 A3027 RMK AO2 SLP252 T01110000=
201412072352 METAR KATL 072352Z 07010KT 10SM FEW150 SCT200 SCT250 12/00 A3027 RMK AO2 SLP255 T01220000 10167 20117 53010=
201412072252 METAR KATL 072252Z 07008KT 030V090 10SM FEW150 SCT200 SCT250 13/01 A3027 RMK AO2 SLP252 T01280006=
201412072152 METAR KATL 072152Z 06012G16KT 10SM FEW150 SCT250 14/01 A3025 RMK AO2 SLP243 T01440006=
201412072052 METAR KATL 072052Z 07012KT 10SM SCT250 16/02 A3024 RMK AO2 SLP242 T01560017 55010=
201412071952 METAR KATL 071952Z 05011KT 10SM BKN250 16/02 A3024 RMK AO2 SLP240 T01610017=
201412071852 METAR KATL 071852Z 05014G17KT 10SM SCT250 16/02 A3024 RMK AO2 SLP241 T01610022=
201412071752 METAR KATL 071752Z 05014KT 10SM BKN250 15/03 A3027 RMK AO2 SLP253 T01500028 10150 20050 58018=
201412071652 METAR KATL 071652Z 03008KT 10SM SCT250 13/03 A3031 RMK AO2 SLP265 T01330028=
201412071552 METAR KATL 071552Z 34009KT 10SM BKN250 11/03 A3033 RMK AO2 SLP273 T01060033=
201412071452 METAR KATL 071452Z 34007KT 10SM BKN250 09/03 A3033 RMK AO2 SLP273 T00890033 53020=
201412071352 METAR KATL 071352Z 34009KT 10SM SCT250 07/03 A3031 RMK AO2 SLP265 T00720033=
201412071252 METAR KATL 071252Z 33009KT 10SM FEW250 06/03 A3029 RMK AO2 SLP260 T00560028=
201412071152 METAR KATL 071152Z 32008KT 10SM CLR 06/03 A3027 RMK AO2 SLP252 70026 T00560033 10083 20056 53012=
201412071052 METAR KATL 071052Z 34011KT 10SM CLR 06/03 A3025 RMK AO2 SLP243 T00610033=
201412070952 METAR KATL 070952Z 34011KT 10SM CLR 07/04 A3024 RMK AO2 SLP239 T00670039=
201412070852 METAR KATL 070852Z 34010KT 10SM FEW016 07/04 A3023 RMK AO2 SLP237 T00720039 53006=
201412070752 METAR KATL 070752Z 34011KT 10SM FEW016 08/04 A3022 RMK AO2 SLP233 T00780044=
201412070652 METAR KATL 070652Z 34016G20KT 10SM FEW016 08/04 A3020 RMK AO2 SLP227 T00780044=
201412070552 METAR KATL 070552Z 33016G24KT 10SM FEW016 08/05 A3021 RMK AO2 SLP231 T00830050 10122 20083 56002=
201412070452 METAR KATL 070452Z 33013KT 10SM FEW016 09/06 A3021 RMK AO2 SLP231 T00890056 401940089=
201412070352 METAR KATL 070352Z 34013KT 10SM FEW018 SCT028 10/06 A3022 RMK AO2 SLP233 T01000061=
201412070252 METAR KATL 070252Z 33013KT 10SM FEW020 SCT032 11/07 A3022 RMK AO2 SLP233 T01060067 51012=
201412070239 SPECI KATL 070239Z 33011KT 10SM SCT024 11/07 A3021 RMK AO2=
201412070152 METAR KATL 070152Z 32015G20KT 10SM BKN024 11/07 A3021 RMK AO2 SLP229 T01110072=
201412070052 METAR KATL 070052Z 32017G23KT 10SM BKN022 BKN032 12/07 A3020 RMK AO2 PK WND 31026/2355 SLP225 T01170072=
201412062352 METAR KATL 062352Z 33019G24KT 10SM OVC017 13/08 A3018 RMK AO2 PK WND 34028/2336 SLP220 60000 T01280083 10194 20128 53022=
201412062252 METAR KATL 062252Z 33023G30KT 10SM BKN020 OVC032 16/12 A3014 RMK AO2 PK WND 32030/2252 SLP204 CIG 018V022 T01610122=
201412062152 METAR KATL 062152Z 33015G28KT 10SM BKN020 BKN026 18/13 A3012 RMK AO2 PK WND 33028/2145 SLP197 T01780133=
201412062147 SPECI KATL 062147Z 33019G28KT 10SM SCT018 OVC024 18/14 A3012 RMK AO2 PK WND 33028/2145=
201412062128 SPECI KATL 062128Z 30013KT 10SM FEW018 SCT025 BKN065 19/14 A3010 RMK AO2=
201412062104 SPECI KATL 062104Z 27008KT 10SM FEW018 BKN023 BKN060 19/16 A3009 RMK AO2=
201412062052 METAR KATL 062052Z 26009KT 10SM FEW016 SCT022 BKN031 19/15 A3009 RMK AO2 SLP187 60000 T01890150 55010=
201412062023 SPECI KATL 062023Z 24008KT 10SM SCT014 BKN040 19/16 A3009 RMK AO2=
201412062012 SPECI KATL 062012Z 25007KT 10SM SCT012 BKN025 BKN050 18/16 A3009 RMK AO2=
201412061952 METAR KATL 061952Z 24007KT 10SM BKN012 BKN025 BKN045 18/16 A3009 RMK AO2 SLP186 T01830161=
201412061924 SPECI KATL 061924Z 24006KT 10SM BKN010 OVC018 18/16 A3009 RMK AO2=
201412061852 METAR KATL 061852Z 25008KT 10SM BKN008 OVC015 18/16 A3010 RMK AO2 RAB12E52 SLP190 P0000 T01780161=
201412061752 METAR KATL 061752Z 24008KT 10SM OVC008 17/16 A3012 RMK AO2 RAB05E49 SLP199 P0000 60026 T01720156 10172 20139 56027=
201412061652 METAR KATL 061652Z 22006KT 7SM OVC006 17/16 A3015 RMK AO2 RAE03 SLP207 P0000 T01670156=
201412061552 METAR KATL 061552Z 19004KT 3SM -RA BR OVC006 16/14 A3018 RMK AO2 SFC VIS 5 SLP217 P0003 T01560144=
201412061545 SPECI KATL 061545Z 18004KT 3SM RA BR BKN006 BKN010 OVC014 16/14 A3018 RMK AO2 SFC VIS 5 P0002=
201412061504 SPECI KATL 061504Z 16005KT 3SM -RA BR FEW009 BKN014 BKN020 16/14 A3019 RMK AO2 SFC VIS 5 P0001=
201412061452 METAR KATL 061452Z 20004KT 3SM RA BR FEW009 OVC018 15/14 A3021 RMK AO2 SFC VIS 4 SLP227 P0016 60023 T01500139 53007=
201412061435 SPECI KATL 061435Z 33004KT 2SM RA BR SCT004 OVC018 15/14 A3021 RMK AO2 TWR VIS 3 P0011=
201412061428 SPECI KATL 061428Z 32005KT 2SM +RA BR SCT004 BKN014 OVC018 15/14 A3021 RMK AO2 TWR VIS 3 P0008=
201412061421 SPECI KATL 061421Z 34007KT 3SM RA BR BKN004 OVC012 15/14 A3021 RMK AO2 P0003=
201412061352 METAR KATL 061352Z 18009KT 1/2SM -RA BR OVC004 14/14 A3018 RMK AO2 SFC VIS 4 DZE33RAB33 SLP218 CIG 002V005 P0004 T01440139=
201412061252 METAR KATL 061252Z 17008KT 1/2SM -DZ BR OVC003 14/13 A3018 RMK AO2 SFC VIS 4 SLP219 RAE29DZB29 CIG 002V004 P0003 T01440133=
201412061250 SPECI KATL 061250Z 17008KT 1/2SM -DZ BR OVC003 14/13 A3019 RMK AO2 SFC VIS 4 RAE29DZB29 CIG 002V004 P0003=
201412061152 METAR KATL 061152Z 16008KT 1SM RA BR OVC003 14/13 A3019 RMK AO2 SFC VIS 2 1/2 SLP221 P0005 60008 70008 T01390128 10139 20133 56018=
201412061052 METAR KATL 061052Z 16011KT 1SM -RA BR OVC003 14/13 A3019 RMK AO2 SFC VIS 1 1/2 SLP222 CIG 002V004 P0000 T01390128=
201412060952 METAR KATL 060952Z 13008KT 1SM -RA BR OVC003 13/13 A3020 RMK AO2 SFC VIS 1 1/4 SLP226 CIG 002V004 P0002 T01330128=
201412060852 METAR KATL 060852Z 13006KT 1SM R09R/6000VP6000FT -RA BR OVC003 14/13 A3024 RMK AO2 SLP240 CIG 002V005 P0000 60001 T01390128 58009=
201412060752 METAR KATL 060752Z 13004KT 1SM -RA BR OVC003 14/13 A3028 RMK AO2 SFC VIS 2 DZE46RAB46 SLP250 P0001 T01390128=
201412060652 METAR KATL 060652Z 14005KT 1SM -DZ BR OVC003 13/13 A3027 RMK AO2 SFC VIS 1 1/2 SLP250 CIG 002V004 P0000 T01330128=
201412060552 METAR KATL 060552Z 15008KT 1SM -DZ BR OVC003 13/12 A3027 RMK AO2 SFC VIS 1 1/2 SLP250 CIG 002V005 P0000 60000 T01330122 10144 20133 58008=
201412060452 METAR KATL 060452Z 14009KT 1SM -DZ BR OVC004 13/12 A3028 RMK AO2 SFC VIS 2 SLP254 P0000 T01330122 401610128=
201412060352 METAR KATL 060352Z 12007KT 1SM -DZ BR OVC004 13/12 A3029 RMK AO2 SFC VIS 1 3/4 SLP255 CIG 002V005 P0000 T01330122=
201412060259 SPECI KATL 060259Z 13010KT 1SM -DZ BR OVC004 14/13 A3030 RMK AO2 SFC VIS 1 3/4 CIG 003V005 P0000=
201412060252 METAR KATL 060252Z 13009KT 2SM -DZ BR OVC004 14/13 A3030 RMK AO2 SLP258 CIG 003V005 P0000 60000 T01390128 58001=
201412060152 METAR KATL 060152Z 12008KT 2SM -DZ BR OVC005 14/13 A3030 RMK AO2 DZB31 SLP260 CIG 004V006 P0000 T01390128=
201412060150 SPECI KATL 060150Z 12008KT 2SM -DZ BR OVC005 14/13 A3030 RMK AO2 DZB31 CIG 004V006 P0000=
201412060132 SPECI KATL 060132Z 11010KT 3SM -DZ BR BKN006 OVC010 14/12 A3030 RMK AO2 DZB31 P0000=
201412060052 METAR KATL 060052Z 12008G14KT 8SM BKN008 OVC015 14/12 A3030 RMK AO2 SLP258 T01440117=
201412060007 SPECI KATL 060007Z 11008KT 9SM SCT008 BKN012 OVC020 14/12 A3030 RMK AO2=
201412052352 METAR KATL 052352Z 10008KT 10SM FEW013 OVC020 14/12 A3030 RMK AO2 SLP259 T01440117 10161 20144 50001=
201412052252 METAR KATL 052252Z 11008KT 10SM FEW015 BKN022 15/12 A3031 RMK AO2 SLP261 T01500117=
201412052152 METAR KATL 052152Z 10007KT 10SM OVC013 16/12 A3030 RMK AO2 SLP260 T01560117=
201412052052 METAR KATL 052052Z 12007KT 10SM BKN013 OVC180 16/12 A3030 RMK AO2 SLP257 T01560117 55013=
201412051952 METAR KATL 051952Z 11006KT 7SM BKN013 BKN180 OVC230 16/12 A3029 RMK AO2 SLP256 T01560117=
201412051908 SPECI KATL 051908Z 10007KT 5SM HZ BKN010 OVC013 16/12 A3030 RMK AO2=
201412051852 METAR KATL 051852Z 11006KT 5SM HZ BKN009 OVC012 16/12 A3031 RMK AO2 SLP262 T01560117=
201412051752 METAR KATL 051752Z 11007KT 5SM HZ FEW005 BKN009 OVC012 14/12 A3034 RMK AO2 SLP272 60000 T01440117 10150 20133 58018=
201412051652 METAR KATL 051652Z 10006KT 3SM BR FEW005 BKN007 OVC012 14/12 A3038 RMK AO2 SFC VIS 4 DZE46 SLP287 P0000 T01440122=
201412051620 SPECI KATL 051620Z 11008KT 1 1/4SM -DZ BR FEW004 BKN007 OVC012 14/12 A3039 RMK AO2 SFC VIS 3 P0000=
201412051552 METAR KATL 051552Z 09007KT 2SM -DZ BR OVC005 14/12 A3040 RMK AO2 SFC VIS 3 SLP293 VIS LWR NE BCFG P0000 T01440122=
201412051536 SPECI KATL 051536Z 11005KT 2SM BR OVC005 14/13 A3040 RMK AO2 SFC VIS 4 DZE36 P0000=
201412051452 METAR KATL 051452Z 11008KT 1SM -DZ BR OVC005 14/12 A3039 RMK AO2 SFC VIS 3 DZB46 SLP289 P0000 60000 T01390122 53011=
201412051446 SPECI KATL 051446Z 11007KT 1SM -DZ BR OVC005 14/12 A3038 RMK AO2 SFC VIS 3 DZB46 P0000=
201412051352 METAR KATL 051352Z 10006KT 1/2SM BR OVC003 14/12 A3038 RMK AO2 SFC VIS 3 SLP285 CIG 002V004 TWRINC T01390122=
201412051252 METAR KATL 051252Z 09006KT 1/4SM R09R/P6000FT BR OVC002 14/13 A3036 RMK AO2 SFC VIS 1 SLP279 CIG 001V003 TWRINC T01390128=
201412051204 SPECI KATL 051204Z 10007KT 1/2SM BR OVC003 14/13 A3035 RMK AO2 SFC VIS 2 CIG 002V004 TWRINC=
201412051152 METAR KATL 051152Z 10005KT 1SM BR OVC003 14/13 A3035 RMK AO2 SFC VIS 1 1/2 SLP277 CIG 002V004 T01440128 10144 20128 53012=
201412051052 METAR KATL 051052Z 10007KT 2SM BR OVC004 14/13 A3033 RMK AO2 SFC VIS 3 SLP267 CIG 003V006 T01390128=
201412051047 SPECI KATL 051047Z 10007KT 2SM BR OVC004 14/13 A3033 RMK AO2 SFC VIS 3 CIG 003V006=
201412051015 SPECI KATL 051015Z 09007KT 5SM BR OVC005 14/12 A3032 RMK AO2 CIG 004V007=
201412050954 SPECI KATL 050954Z 09009KT 4SM BR OVC004 14/12 A3032 RMK AO2 CIG 003V005=
201412050952 METAR KATL 050952Z 09008KT 1 1/2SM BR OVC004 14/12 A3032 RMK AO2 SFC VIS 4 SLP264 CIG 003V005 TWRINC T01390122=
201412050912 SPECI KATL 050912Z 09006KT 1 1/2SM BR OVC003 13/12 A3032 RMK AO2 SFC VIS 4 TWRINC=
201412050852 METAR KATL 050852Z 09006KT 5SM BR OVC004 13/12 A3032 RMK AO2 SLP263 T01330117 53009=
201412050752 METAR KATL 050752Z 09008KT 7SM OVC006 13/12 A3031 RMK AO2 SLP260 CIG 005V008 T01330117=
201412050730 SPECI KATL 050730Z 09008KT 9SM BKN008 BKN090 BKN150 OVC250 13/11 A3030 RMK AO2=
201412050724 SPECI KATL 050724Z 08009KT 10SM FEW008 SCT044 SCT090 BKN150 13/11 A3030 RMK AO2=
201412050652 METAR KATL 050652Z 08007KT 10SM FEW044 SCT090 BKN150 BKN250 13/11 A3030 RMK AO2 SLP256 T01280111=
201412050552 METAR KATL 050552Z 09007KT 10SM SCT045 BKN150 BKN250 13/11 A3029 RMK AO2 SLP254 T01330111 10167 20133 50003=
201412050452 METAR KATL 050452Z 09008KT 10SM FEW040 SCT250 13/11 A3030 RMK AO2 SLP255 T01330111 402220122=
201412050352 METAR KATL 050352Z 09008KT 10SM FEW040 SCT250 14/12 A3029 RMK AO2 SLP255 T01390117=
201412050252 METAR KATL 050252Z 08008KT 10SM SCT040 SCT250 14/12 A3028 RMK AO2 SLP252 T01440117 51006=
201412050152 METAR KATL 050152Z 10006KT 10SM SCT045 BKN100 BKN250 16/12 A3028 RMK AO2 SLP251 T01560122=
201412050052 METAR KATL 050052Z 10006KT 10SM FEW100 BKN250 16/12 A3027 RMK AO2 SLP250 T01560122=
201412042352 METAR KATL 042352Z 10006KT 10SM FEW035 SCT100 BKN250 17/12 A3027 RMK AO2 SLP247 60000 T01670122 10222 20167 51013=
201412042252 METAR KATL 042252Z 07008KT 10SM SCT035TCU SCT050 BKN100 BKN250 18/12 A3026 RMK AO2 SLP243 TCU E-S T01830122=
201412042152 METAR KATL 042152Z 06009KT 10SM FEW030TCU SCT050 BKN100 BKN250 19/13 A3024 RMK AO2 SLP238 TCU E-SE-S & W SHRA E T01940128=
201412042052 METAR KATL 042052Z 00000KT 10SM FEW035TCU SCT050 BKN100 BKN250 22/13 A3023 RMK AO2 RAE1953 SLP231 TCU E & S SHRA VC E 60000 T02220133 56012=
201412041952 METAR KATL 041952Z 31004KT 10SM -RA BKN030TCU BKN070 BKN100 21/14 A3023 RMK AO2 RAB43 SLP234 TCU NE & OHD-SW-NW P0000 T02110139=
201412041852 METAR KATL 041852Z 26003KT 10SM SCT035 BKN095 BKN250 22/14 A3024 RMK AO2 SLP234 TCU DSNT SW-NW T02170139=
201412041752 METAR KATL 041752Z 16004KT 10SM SCT030 BKN100 BKN250 21/13 A3026 RMK AO2 SLP244 T02110133 10217 20128 58020=
201412041652 METAR KATL 041652Z 16007KT 10SM SCT025 BKN050 BKN100 BKN250 21/13 A3029 RMK AO2 SLP253 T02060133=
201412041634 SPECI KATL 041634Z 18007KT 10SM SCT023 SCT050 BKN100 BKN250 21/13 A3030 RMK AO2=
201412041552 METAR KATL 041552Z 12004KT 10SM BKN020 BKN050 BKN100 19/11 A3032 RMK AO2 SLP264 SHRA DSNT N-NE T01940106=
201412041525 SPECI KATL 041525Z 14006KT 10SM FEW020 SCT050 BKN100 BKN250 18/10 A3033 RMK AO2 SHRA DSNT N-NE=
201412041452 METAR KATL 041452Z 14003KT 10SM BKN020 BKN050 OVC090 17/11 A3032 RMK AO2 SLP266 SHRA DSNT N-NE-E T01720106 53013=
201412041352 METAR KATL 041352Z 15003KT 10SM SCT028 BKN055 BKN090 BKN200 16/11 A3030 RMK AO2 SLP258 VCSH NW-N T01560106=
201412041342 SPECI KATL 041342Z 00000KT 10SM BKN027 BKN055 BKN090 BKN200 15/11 A3030 RMK AO2 VCSH NW-N=
201412041252 METAR KATL 041252Z 00000KT 10SM FEW026 SCT060 BKN090 BKN250 14/11 A3029 RMK AO2 SLP255 ACC DSNT E T01390106=
201412041240 SPECI KATL 041240Z 15003KT 10SM SCT026 BKN060 BKN090 BKN250 13/11 A3028 RMK AO2=
201412041209 SPECI KATL 041209Z 00000KT 10SM BKN028 BKN055 BKN090 BKN200 13/10 A3028 RMK AO2=
201412041152 METAR KATL 041152Z 00000KT 9SM FEW028 SCT055 BKN095 BKN200 13/10 A3028 RMK AO2 SLP253 T01330100 10150 20122 53002=
201412041052 METAR KATL 041052Z 00000KT 10SM FEW060 SCT090 BKN150 OVC200 14/10 A3028 RMK AO2 SLP249 T01390100=
201412040952 METAR KATL 040952Z 00000KT 10SM FEW065 BKN150 BKN200 OVC250 12/10 A3027 RMK AO2 SLP249 T01220100=
201412040852 METAR KATL 040852Z 00000KT 10SM BKN065 BKN150 OVC200 13/11 A3028 RMK AO2 SLP250 T01330106 53007=
201412040752 METAR KATL 040752Z 00000KT 10SM SCT150 OVC200 13/11 A3025 RMK AO2 SLP240 T01330106=
201412040652 METAR KATL 040652Z 00000KT 10SM SCT150 BKN200 OVC250 14/11 A3026 RMK AO2 SLP243 T01440111=
201412040552 METAR KATL 040552Z 00000KT 10SM FEW150 BKN200 OVC250 14/11 A3025 RMK AO2 SLP241 T01440111 10178 20144 58005=
201412040452 METAR KATL 040452Z 00000KT 10SM SCT150 BKN200 OVC250 15/12 A3026 RMK AO2 SLP245 T01500117 402110106=
201412040352 METAR KATL 040352Z 00000KT 10SM FEW150 SCT200 BKN250 15/11 A3027 RMK AO2 SLP246 T01500111=
201412040252 METAR KATL 040252Z 00000KT 10SM SCT150 OVC200 16/12 A3027 RMK AO2 SLP249 T01560117 51004=
201412040152 METAR KATL 040152Z 30003KT 10SM BKN200 OVC250 16/12 A3027 RMK AO2 SLP248 T01610117=
201412040052 METAR KATL 040052Z 31003KT 10SM BKN200 OVC250 17/12 A3026 RMK AO2 SLP247 T01670117=
201412032352 METAR KATL 032352Z 36007KT 10SM FEW100 BKN200 OVC250 18/12 A3026 RMK AO2 SLP244 T01780117 10211 20178 53008=
201412032252 METAR KATL 032252Z 36007KT 10SM FEW100 BKN200 BKN250 19/12 A3024 RMK AO2 SLP239 T01890117=
201412032152 METAR KATL 032152Z 35005KT 10SM FEW030 SCT100 BKN150 OVC230 19/12 A3024 RMK AO2 SLP237 T01940122=
201412032052 METAR KATL 032052Z 33005KT 10SM FEW035 SCT100 OVC230 20/12 A3023 RMK AO2 SLP235 VIRGA DSNT SE T02000122 56012=
201412031952 METAR KATL 031952Z 34007KT 10SM FEW030 SCT080 BKN240 21/13 A3023 RMK AO2 SLP235 T02060128=
201412031852 METAR KATL 031852Z 28006KT 10SM FEW030 SCT080 BKN250 21/13 A3025 RMK AO2 SLP239 T02060133=
201412031752 METAR KATL 031752Z 30009KT 10SM FEW030 SCT100 BKN250 21/13 A3027 RMK AO2 SLP246 TCU DSNT S-SW T02060133 10206 20106 58010=
201412031652 METAR KATL 031652Z 33004KT 9SM FEW020 SCT040 BKN250 19/13 A3029 RMK AO2 SLP255 T01940133=
201412031619 SPECI KATL 031619Z 24004KT 9SM FEW013 SCT040 BKN200 18/13 A3031 RMK AO2=
201412031552 METAR KATL 031552Z VRB04KT 8SM BKN013 BKN200 BKN250 17/13 A3031 RMK AO2 SLP261 T01720128=
201412031533 SPECI KATL 031533Z 00000KT 8SM BKN012 BKN200 BKN250 17/12 A3031 RMK AO2=
201412031452 METAR KATL 031452Z 09004KT 7SM FEW030 SCT080 SCT200 BKN250 15/11 A3030 RMK AO2 SLP259 ACC DSNT NW-N T01500111 51010=
201412031352 METAR KATL 031352Z VRB03KT 7SM FEW034 SCT075 SCT200 BKN250 12/10 A3029 RMK AO2 SLP256 ACC DSNT E & S & NW T01220100=
201412031252 METAR KATL 031252Z 08004KT 8SM FEW036 SCT075 BKN200 BKN250 11/09 A3028 RMK AO2 SLP253 ACC DSNT E-S T01060089=
201412031152 METAR KATL 031152Z 13003KT 10SM FEW016 SCT045 BKN075 BKN250 11/09 A3027 RMK AO2 SLP248 ACC S & DSNT E-SE 60001 70001 T01110094 10144 20111 51005=
201412031052 METAR KATL 031052Z 12003KT 10SM SCT038 BKN075 BKN250 12/09 A3026 RMK AO2 RAB08E32 SLP246 P0001 T01170094=
201412030952 METAR KATL 030952Z 09007KT 10SM BKN040 BKN080 BKN250 11/09 A3026 RMK AO2 SLP245 T01110094=
201412030852 METAR KATL 030852Z 08008KT 10SM SCT042 BKN080 12/09 A3025 RMK AO2 SLP241 T01170094 58000=
201412030752 METAR KATL 030752Z 08008KT 10SM BKN042 BKN070 12/09 A3026 RMK AO2 SLP242 T01220094=
201412030652 METAR KATL 030652Z 08007KT 10SM BKN048 BKN075 12/09 A3026 RMK AO2 SLP242 T01220094=
201412030552 METAR KATL 030552Z 00000KT 10SM FEW055 SCT070 14/09 A3026 RMK AO2 SLP242 T01440094 10178 20133 58005=
201412030452 METAR KATL 030452Z 00000KT 10SM SCT065 14/09 A3027 RMK AO2 SLP245 T01440089 402280094=
201412030352 METAR KATL 030352Z 00000KT 10SM BKN060 14/09 A3027 RMK AO2 SLP248 T01390089=
201412030252 METAR KATL 030252Z 00000KT 10SM FEW055 14/09 A3027 RMK AO2 SLP249 T01440089 51005=
201412030152 METAR KATL 030152Z 00000KT 10SM FEW055 16/09 A3027 RMK AO2 SLP249 T01560089=
201412030052 METAR KATL 030052Z 00000KT 10SM FEW055 17/08 A3026 RMK AO2 SLP248 T01720083=
201412022352 METAR KATL 022352Z 00000KT 10SM SCT055 SCT150 17/08 A3026 RMK AO2 SLP245 T01720083 10228 20172 53008=
201412022252 METAR KATL 022252Z 00000KT 10SM SCT055 SCT150 19/08 A3024 RMK AO2 SLP240 T01890083=
201412022152 METAR KATL 022152Z 21004KT 10SM FEW055 SCT150 22/08 A3024 RMK AO2 SLP237 T02170078=
201412022052 METAR KATL 022052Z 20005KT 10SM FEW055 SCT150 22/08 A3023 RMK AO2 SLP234 T02220078 56018=
201412021952 METAR KATL 021952Z 20007KT 10SM FEW050 SCT150 22/08 A3024 RMK AO2 SLP236 T02220083=
201412021852 METAR KATL 021852Z 23007KT 10SM FEW048 SCT150 22/08 A3026 RMK AO2 SLP243 T02220083=
201412021752 METAR KATL 021752Z VRB04KT 10SM FEW045 SCT200 21/09 A3029 RMK AO2 SLP252 T02110089 10217 20094 58021=
201412021652 METAR KATL 021652Z 22007KT 10SM FEW050 SCT200 21/09 A3032 RMK AO2 SLP264 T02060094=
201412021552 METAR KATL 021552Z 18006KT 10SM FEW200 19/09 A3034 RMK AO2 SLP272 T01890094=
201412021452 METAR KATL 021452Z 00000KT 10SM FEW050 SCT250 17/10 A3035 RMK AO2 SLP276 T01670100 53012=
201412021352 METAR KATL 021352Z 00000KT 10SM FEW060 SCT250 12/09 A3034 RMK AO2 SLP273 T01220094=
201412021252 METAR KATL 021252Z 00000KT 10SM FEW060 SCT200 SCT250 10/08 A3032 RMK AO2 SLP267 T01000083=
201412021152 METAR KATL 021152Z 00000KT 10SM FEW200 09/08 A3031 RMK AO2 SLP264 T00940078 10139 20094 53005=
201412021052 METAR KATL 021052Z 00000KT 10SM FEW250 10/08 A3031 RMK AO2 SLP261 T01000078=
201412020952 METAR KATL 020952Z 00000KT 10SM FEW250 11/09 A3030 RMK AO2 SLP256 T01110089=
201412020852 METAR KATL 020852Z 00000KT 10SM FEW250 11/08 A3030 RMK AO2 SLP257 T01060083 56006=
201412020752 METAR KATL 020752Z 00000KT 10SM FEW200 SCT250 10/08 A3030 RMK AO2 SLP258 T01000078=
201412020652 METAR KATL 020652Z 00000KT 10SM FEW200 SCT250 12/09 A3031 RMK AO2 SLP259 T01220089=
201412020552 METAR KATL 020552Z 21003KT 10SM FEW200 BKN250 13/09 A3032 RMK AO2 SLP262 T01330094 10172 20133 58006=
201412020452 METAR KATL 020452Z 24003KT 10SM FEW200 BKN250 14/09 A3033 RMK AO2 SLP268 T01390094 402330078=
201412020352 METAR KATL 020352Z 23003KT 10SM FEW200 BKN250 14/09 A3033 RMK AO2 SLP269 T01440094=
201412020252 METAR KATL 020252Z 20004KT 10SM FEW055 SCT200 BKN250 14/09 A3033 RMK AO2 SLP269 T01440094 51004=
201412020152 METAR KATL 020152Z 23003KT 10SM FEW200 BKN250 14/09 A3033 RMK AO2 SLP269 T01440094=
201412020052 METAR KATL 020052Z 22003KT 10SM FEW200 BKN250 16/09 A3033 RMK AO2 SLP270 T01610094=
201412012352 METAR KATL 012352Z 23003KT 10SM SCT200 BKN250 17/09 A3032 RMK AO2 SLP267 T01720094 10233 20172 53004=
201412012252 METAR KATL 012252Z 19004KT 10SM FEW060 SCT200 BKN250 19/09 A3031 RMK AO2 SLP262 T01890094=
201412012152 METAR KATL 012152Z 21006KT 10SM FEW060 SCT200 BKN250 21/09 A3031 RMK AO2 SLP260 T02110094=
201412012052 METAR KATL 012052Z 20005KT 10SM FEW050 SCT200 SCT250 22/09 A3031 RMK AO2 SLP262 T02170094 55015=
201412011952 METAR KATL 011952Z 21005KT 10SM FEW047 SCT250 22/10 A3031 RMK AO2 SLP260 T02220100=
201412011852 METAR KATL 011852Z 29004KT 10SM SCT045 SCT250 23/11 A3032 RMK AO2 SLP265 T02280111=
201412011752 METAR KATL 011752Z 30008KT 10SM SCT035 SCT042 SCT250 22/12 A3035 RMK AO2 SLP276 T02220122 10222 20083 58020=
201412011652 METAR KATL 011652Z 26005KT 10SM FEW040 SCT055 SCT250 21/12 A3039 RMK AO2 SLP287 T02110117=
201412011552 METAR KATL 011552Z VRB06KT 10SM FEW050 SCT250 20/12 A3041 RMK AO2 SLP296 T02000117=
201412011452 METAR KATL 011452Z 23005KT 10SM FEW050 SCT250 17/12 A3041 RMK AO2 SLP298 T01720117 51010=
201412011352 METAR KATL 011352Z 00000KT 10SM FEW049 14/10 A3041 RMK AO2 SLP297 T01390100=
201412011252 METAR KATL 011252Z 00000KT 10SM SCT049 09/07 A3040 RMK AO2 SLP297 T00940072=
