##########################################################
# Query made at 04/19/2024 23:42:48 UTC
# Time interval: from 03/01/2015 12:00  to 03/31/2015 12:59  UTC
##########################################################

##########################################################
# KATL, Atlanta, Hartsfield - Jackson Atlanta International Airport (United States)
# WMO index: 72219. WIGOS ID: 0-20000-0-72219
# Latitude 33-38-59N. Longitude 084-25-00W. Altitude 312 m.
##########################################################

201503311252 METAR KATL 311252Z 00000KT 10SM FEW040 13/06 A3009 RMK AO2 SLP187 T01330061=
201503311152 METAR KATL 311152Z 22003KT 10SM FEW250 09/04 A3007 RMK AO2 SLP183 70028 T00940044 10122 20083 53004=
201503311052 METAR KATL 311052Z 23003KT 10SM CLR 09/04 A3006 RMK AO2 SLP178 T00890044=
201503310952 METAR KATL 310952Z 00000KT 10SM CLR 09/05 A3006 RMK AO2 SLP176 T00940050=
201503310852 METAR KATL 310852Z 00000KT 10SM CLR 09/05 A3006 RMK AO2 SLP178 T00940050 56012=
201503310752 METAR KATL 310752Z 29003KT 10SM CLR 10/06 A3007 RMK AO2 SLP181 T01000056=
201503310652 METAR KATL 310652Z 00000KT 10SM CLR 10/06 A3008 RMK AO2 SLP185 T01000056=
201503310552 METAR KATL 310552Z 29003KT 10SM CLR 11/06 A3010 RMK AO2 SLP191 T01110056 10183 20111 58009=
201503310452 METAR KATL 310452Z 32005KT 10SM CLR 13/05 A3011 RMK AO2 SLP195 T01330050 402170100=
201503310352 METAR KATL 310352Z 32005KT 10SM CLR 13/06 A3013 RMK AO2 SLP201 T01330056=
201503310252 METAR KATL 310252Z 31005KT 10SM CLR 15/05 A3013 RMK AO2 SLP200 T01500050 50015=
201503310152 METAR KATL 310152Z 32007KT 10SM CLR 15/05 A3013 RMK AO2 SLP203 T01500050=
201503310052 METAR KATL 310052Z 31005KT 10SM CLR 17/04 A3010 RMK AO2 SLP191 T01670044=
201503302352 METAR KATL 302352Z 31006KT 10SM FEW250 18/04 A3008 RMK AO2 SLP184 T01830044 10217 20172 56008=
201503302252 METAR KATL 302252Z 31006KT 10SM SCT250 21/07 A3009 RMK AO2 SLP187 T02060067=
201503302152 METAR KATL 302152Z 28007G15KT 10SM BKN250 21/07 A3009 RMK AO2 SLP185 T02110067=
201503302052 METAR KATL 302052Z 31008G19KT 10SM FEW055 SCT250 21/07 A3011 RMK AO2 SLP192 T02110067 56017=
201503301952 METAR KATL 301952Z 34010KT 10SM FEW050 21/08 A3012 RMK AO2 SLP197 T02060083=
201503301852 METAR KATL 301852Z 31010G15KT 10SM SCT038 20/09 A3014 RMK AO2 SLP204 T02000094=
201503301752 METAR KATL 301752Z 33011KT 10SM SCT022 BKN033 18/12 A3016 RMK AO2 SLP210 T01830117 10183 20117 50001=
201503301721 SPECI KATL 301721Z 30011KT 10SM BKN016 BKN028 17/13 A3017 RMK AO2=
201503301652 METAR KATL 301652Z 30009KT 10SM OVC013 16/13 A3017 RMK AO2 SLP216 T01560128=
201503301613 SPECI KATL 301613Z 28011KT 10SM OVC013 16/12 A3017 RMK AO2=
201503301552 METAR KATL 301552Z 27009KT 10SM OVC015 16/12 A3017 RMK AO2 SLP215 T01560122=
201503301542 SPECI KATL 301542Z 28009KT 10SM OVC015 16/12 A3017 RMK AO2=
201503301521 SPECI KATL 301521Z 28010KT 10SM FEW008 OVC013 15/12 A3016 RMK AO2=
201503301452 METAR KATL 301452Z 26010KT 10SM FEW007 BKN026 OVC045 14/12 A3016 RMK AO2 SLP210 60028 T01440122 55008=
201503301445 SPECI KATL 301445Z 25008KT 10SM FEW007 BKN029 OVC047 14/12 A3015 RMK AO2=
201503301430 SPECI KATL 301430Z 27005KT 10SM FEW005 BKN045 13/12 A3015 RMK AO2=
201503301352 METAR KATL 301352Z 24008KT 10SM FEW015 BKN060 BKN150 13/11 A3014 RMK AO2 RAE01 SLP204 P0000 T01280111=
201503301252 METAR KATL 301252Z COR VRB03KT 8SM -RA BR FEW002 SCT055 OVC075 12/11 A3011 RMK AO2 SLP194 P0028 T01170106=
201503301245 SPECI KATL 301245Z 17011KT 3SM RA BR FEW002 BKN060 OVC075 12/11 A3010 RMK AO2 PRESFR P0025=
201503301152 METAR KATL 301152Z COR 29005KT 3SM +RA BR BKN055 OVC070 11/10 A3018 RMK AO2 PK WND 33026/1056 WSHFT 1043 SLP219 P0019 60020 70020 T01110100 10133 20100 53023=
201503301148 SPECI KATL 301148Z 30005KT 2 1/2SM +RA BR BKN055 OVC065 11/10 A3018 RMK AO2 PK WND 33026/1056 WSHFT 1043 P0017=
201503301117 SPECI KATL 301117Z 30007KT 4SM -RA BR FEW018 BKN041 OVC060 11/09 A3016 RMK AO2 PK WND 33026/1056 WSHFT 1043 P0012=
201503301113 SPECI KATL 301113Z 31007KT 2SM +RA BR FEW015 BKN032 OVC050 11/09 A3016 RMK AO2 PK WND 33026/1056 WSHFT 1043 P0009=
201503301110 SPECI KATL 301110Z 32010KT 3SM RA BR FEW015 BKN032 OVC050 11/09 A3016 RMK AO2 PK WND 33026/1056 WSHFT 1043 P0008 $=
201503301100 SPECI KATL 301100Z 32013G26KT 3SM RA SCT015 BKN021 OVC027 12/09 A3016 RMK AO2 PK WND 33026/1056 WSHFT 1043 P0004 $=
201503301052 METAR KATL 301052Z 31015G25KT 2 1/2SM -RA BKN015 OVC027 12/09 A3016 RMK AO2 RAB42 SLP211 CB VC E P0001 T01220089=
201503301024 SPECI KATL 301024Z 25013G21KT 10SM OVC015 13/09 A3011 RMK AO2 CB DSNT W-N=
201503300952 METAR KATL 300952Z 23013G22KT 10SM OVC014 13/08 A3009 RMK AO2 SLP188 T01280078=
201503300938 SPECI KATL 300938Z 22013G21KT 10SM OVC014 12/07 A3010 RMK AO2=
201503300905 SPECI KATL 300905Z 22010KT 10SM BKN014 OVC022 12/04 A3010 RMK AO2=
201503300852 METAR KATL 300852Z 22008KT 10SM FEW017 BKN022 OVC028 11/03 A3011 RMK AO2 SLP195 T01110028 56031=
201503300824 SPECI KATL 300824Z 21009KT 10SM BKN028 OVC035 11/01 A3011 RMK AO2=
201503300801 SPECI KATL 300801Z 21007KT 10SM BKN030 BKN045 11/M01 A3013 RMK AO2=
201503300752 METAR KATL 300752Z 21008KT 10SM FEW045 SCT250 11/M01 A3013 RMK AO2 SLP204 T01061006=
201503300652 METAR KATL 300652Z 19009KT 10SM FEW040 SCT150 10/M02 A3017 RMK AO2 SLP215 T01001017=
201503300552 METAR KATL 300552Z 20005KT 10SM FEW150 10/M03 A3021 RMK AO2 SLP229 T01001028 10150 20100 56014=
201503300452 METAR KATL 300452Z 19006KT 10SM FEW042 SCT150 11/M03 A3022 RMK AO2 SLP233 T01111033 401671006=
201503300352 METAR KATL 300352Z 18008KT 10SM FEW041 12/M04 A3023 RMK AO2 SLP238 T01171039=
201503300252 METAR KATL 300252Z 18010KT 10SM BKN043 13/M04 A3025 RMK AO2 SLP244 T01331039 50004=
201503300152 METAR KATL 300152Z 18008KT 10SM OVC046 14/M03 A3026 RMK AO2 SLP248 T01441033=
201503300052 METAR KATL 300052Z 18008KT 10SM OVC050 15/M03 A3024 RMK AO2 SLP242 BINOVC T01501033=
201503292352 METAR KATL 292352Z 17006KT 10SM BKN050 15/M04 A3023 RMK AO2 SLP242 T01501044 10167 20122 56011=
201503292252 METAR KATL 292252Z 18006KT 10SM BKN060 16/M04 A3024 RMK AO2 SLP242 T01561044=
201503292152 METAR KATL 292152Z 18008KT 10SM SCT060 16/M06 A3025 RMK AO2 SLP247 T01611061=
201503292052 METAR KATL 292052Z 18007KT 10SM FEW050 16/M07 A3027 RMK AO2 SLP253 T01561072 58026=
201503291952 METAR KATL 291952Z 15006KT 10SM FEW250 14/M08 A3029 RMK AO2 SLP261 T01441083=
201503291852 METAR KATL 291852Z 20009KT 10SM FEW250 14/M09 A3033 RMK AO2 SLP273 T01391089=
201503291752 METAR KATL 291752Z 13005KT 10SM CLR 12/M09 A3035 RMK AO2 SLP280 T01221089 10122 21006 58021=
201503291652 METAR KATL 291652Z 12004KT 10SM CLR 10/M11 A3038 RMK AO2 SLP291 T01001111=
201503291552 METAR KATL 291552Z COR VRB06KT 10SM CLR 09/M10 A3040 RMK AO2 SLP301 T00941100=
201503291452 METAR KATL 291452Z 16006KT 10SM FEW250 08/M09 A3041 RMK AO2 SLP303 T00781094 51019=
201503291352 METAR KATL 291352Z 15010KT 10SM FEW250 06/M09 A3040 RMK AO2 SLP300 T00561089=
201503291252 METAR KATL 291252Z 09006KT 10SM FEW250 03/M08 A3038 RMK AO2 SLP293 T00331083=
201503291152 METAR KATL 291152Z 00000KT 10SM FEW250 M01/M08 A3035 RMK AO2 SLP285 T10061078 10028 21006 53017=
201503291052 METAR KATL 291052Z 02005KT 10SM CLR 02/M10 A3033 RMK AO2 SLP277 T00171100=
201503290952 METAR KATL 290952Z 33004KT 10SM CLR 01/M09 A3032 RMK AO2 SLP271 T00111089=
201503290852 METAR KATL 290852Z 34004KT 10SM CLR 02/M09 A3030 RMK AO2 SLP265 T00171094 51007=
201503290752 METAR KATL 290752Z 33006KT 10SM CLR 02/M08 A3029 RMK AO2 SLP263 T00171083=
201503290652 METAR KATL 290652Z 33007KT 10SM CLR 02/M07 A3029 RMK AO2 SLP261 T00171072=
201503290552 METAR KATL 290552Z 31007KT 10SM CLR 02/M07 A3028 RMK AO2 SLP258 T00221072 10089 20022 51013=
201503290452 METAR KATL 290452Z 29006KT 10SM CLR 03/M07 A3027 RMK AO2 SLP256 T00331072 401170022=
201503290352 METAR KATL 290352Z 29006KT 10SM CLR 04/M07 A3026 RMK AO2 SLP252 T00391072=
201503290252 METAR KATL 290252Z 31006KT 10SM CLR 06/M08 A3024 RMK AO2 SLP246 T00561078 53024=
201503290152 METAR KATL 290152Z 31007KT 10SM FEW120 06/M09 A3021 RMK AO2 SLP237 T00611089=
201503290052 METAR KATL 290052Z 28006KT 10SM FEW120 07/M09 A3019 RMK AO2 SLP229 T00671094=
201503282352 METAR KATL 282352Z 28008KT 10SM FEW120 SCT250 08/M09 A3017 RMK AO2 SLP220 T00831094 10117 20083 53013=
201503282252 METAR KATL 282252Z 29012KT 10SM FEW130 SCT250 11/M10 A3015 RMK AO2 SLP214 T01061100 $=
201503282152 METAR KATL 282152Z 33013G18KT 10SM FEW150 SCT250 11/M09 A3013 RMK AO2 SLP205 T01111094=
201503282052 METAR KATL 282052Z 31012G18KT 10SM FEW180 SCT250 11/M10 A3013 RMK AO2 SLP206 T01111100 56010=
201503281952 METAR KATL 281952Z 35014G19KT 10SM SCT200 BKN250 11/M11 A3013 RMK AO2 SLP208 T01111106=
201503281852 METAR KATL 281852Z 30011G20KT 10SM FEW250 10/M10 A3013 RMK AO2 SLP208 T01001100=
201503281752 METAR KATL 281752Z 31011G19KT 10SM CLR 09/M09 A3016 RMK AO2 SLP216 60002 T00941094 10094 20022 51002=
201503281652 METAR KATL 281652Z 34007G16KT 10SM CLR 08/M08 A3015 RMK AO2 SLP215 P0001 T00781083=
201503281552 METAR KATL 281552Z 28010KT 250V330 10SM CLR 06/M07 A3016 RMK AO2 SLP218 P0001 T00611072=
201503281452 METAR KATL 281452Z 31009KT 10SM FEW040 04/M07 A3015 RMK AO2 SLP215 T00441072 51022=
201503281352 METAR KATL 281352Z 33014G19KT 10SM FEW030 04/M06 A3013 RMK AO2 SLP209 T00391056=
201503281252 METAR KATL 281252Z 32010G15KT 10SM SCT027 03/M03 A3011 RMK AO2 SLP201 T00281033=
201503281152 METAR KATL 281152Z 32011KT 10SM SCT030 03/M04 A3008 RMK AO2 SLP191 T00281039 10056 20028 53020=
201503281052 METAR KATL 281052Z 33009KT 10SM SCT028 BKN038 03/M02 A3006 RMK AO2 SLP182 T00281022=
201503280952 METAR KATL 280952Z 31008KT 10SM SCT037 SCT250 03/M02 A3004 RMK AO2 SLP174 T00281017=
201503280852 METAR KATL 280852Z 31007KT 10SM FEW044 03/M02 A3002 RMK AO2 SLP169 T00331017 53002=
201503280752 METAR KATL 280752Z 33009G15KT 10SM FEW044 04/M01 A3001 RMK AO2 SLP163 T00391011=
201503280652 METAR KATL 280652Z 31008KT 10SM FEW044 04/M01 A3001 RMK AO2 SLP166 T00441011=
201503280552 METAR KATL 280552Z 31011KT 10SM SCT044 06/M01 A3002 RMK AO2 SLP166 T00561006 10111 20056 51012=
201503280452 METAR KATL 280452Z 32012KT 10SM SCT050 06/M01 A3001 RMK AO2 SLP164 T00611011 401780061=
201503280352 METAR KATL 280352Z 31008KT 10SM FEW060 07/M02 A3000 RMK AO2 SLP163 T00671017=
201503280252 METAR KATL 280252Z 31010KT 10SM FEW060 07/M02 A2998 RMK AO2 SLP156 T00721017 51033=
201503280152 METAR KATL 280152Z 32013G20KT 10SM SCT065 08/M02 A2995 RMK AO2 PK WND 34026/0118 SLP146 T00831017=
201503280052 METAR KATL 280052Z 32019G25KT 10SM FEW065 BKN095 10/M03 A2992 RMK AO2 SLP132 T01001033=
201503272352 METAR KATL 272352Z 31017G27KT 10SM FEW070 BKN085 BKN100 11/M03 A2988 RMK AO2 PK WND 29027/2347 SLP120 VIRGA E-OHD-W T01111033 10150 20111 53023=
201503272252 METAR KATL 272252Z 30019G24KT 10SM SCT075 BKN100 13/M04 A2985 RMK AO2 SLP107 VIRGA NW-NE T01281044=
201503272152 METAR KATL 272152Z 30013G19KT 10SM SCT070 BKN085 BKN200 13/M03 A2982 RMK AO2 SLP099 VIRGA NW T01331033=
201503272052 SPECI KATL 272052Z 33010G20KT 10SM SCT065 BKN180 14/M03 A2981 RMK AO2 PK WND 33026/2010 SLP094 T01391033 58013=
201503272052 METAR KATL 272052Z 33010G20KT 10SM SCT065 BKN180 14/M03 A2981 RMK AO2 PK WND 33026/2010 SLP094 T01391033 58013=
201503271952 METAR KATL 271952Z 30019G23KT 10SM FEW034 SCT200 14/M02 A2983 RMK AO2 PK WND 30027/1901 SLP099 T01441017=
201503271852 METAR KATL 271852Z 32019G28KT 10SM FEW034 SCT200 13/01 A2985 RMK AO2 PK WND 32028/1850 SLP106 T01330006=
201503271752 METAR KATL 271752Z 32020G23KT 10SM SCT034 SCT200 13/02 A2985 RMK AO2 PK WND 33026/1718 SLP106 T01280022 10128 20078 51002=
201503271652 METAR KATL 271652Z 33015G25KT 10SM SCT030 11/03 A2984 RMK AO2 PRESFR SLP103 T01110028=
201503271552 METAR KATL 271552Z 32009G20KT 10SM OVC020 09/03 A2987 RMK AO2 PK WND 31027/1519 SLP112 T00890033=
201503271452 METAR KATL 271452Z 32016G22KT 10SM OVC017 08/03 A2984 RMK AO2 SLP105 T00830033 53011=
201503271352 METAR KATL 271352Z 31016G25KT 10SM OVC015 08/04 A2982 RMK AO2 SLP097 T00780039=
201503271349 SPECI KATL 271349Z 31019G25KT 10SM OVC015 08/04 A2982 RMK AO2=
201503271252 METAR KATL 271252Z 31014KT 10SM OVC011 08/05 A2981 RMK AO2 SLP093 CIG 009V013 T00830050=
201503271152 METAR KATL 271152Z 31016G22KT 10SM OVC012 08/05 A2979 RMK AO2 PK WND 33026/1120 SLP084 CIG 010V014 60003 70003 T00830050 10133 20083 53014=
201503271131 SPECI KATL 271131Z 31017G24KT 10SM BKN010 OVC015 08/06 A2978 RMK AO2 PK WND 33026/1120 CIG 009V012=
201503271052 METAR KATL 271052Z 31009G16KT 10SM OVC008 09/07 A2976 RMK AO2 SLP076 CIG 007V009 T00890067=
201503270952 METAR KATL 270952Z 31009KT 10SM OVC008 09/07 A2974 RMK AO2 RAE16 SLP068 CIG 007V009 P0003 T00940072=
201503270852 METAR KATL 270852Z 32011KT 10SM -RA BKN008 OVC032 11/08 A2974 RMK AO2 RAB27 SLP068 CIG 007V010 P0000 60000 T01060083 55007=
201503270823 SPECI KATL 270823Z 33012KT 10SM BKN010 OVC032 11/08 A2974 RMK AO2 CIG 009V012=
201503270752 METAR KATL 270752Z 32012KT 10SM BKN008 OVC030 11/08 A2974 RMK AO2 RAB28E44 SLP066 CIG 007V010 P0000 T01110083=
201503270741 SPECI KATL 270741Z 32011KT 10SM -RA BKN008 OVC032 11/09 A2974 RMK AO2 RAB28 CIG 007V010 P0000=
201503270737 SPECI KATL 270737Z 32011KT 8SM -RA BKN010 OVC034 11/09 A2975 RMK AO2 RAB28 CIG 008V012 P0000=
201503270710 SPECI KATL 270710Z 31011KT 10SM FEW016 BKN027 OVC100 12/09 A2975 RMK AO2=
201503270652 METAR KATL 270652Z 33008KT 10SM FEW018 BKN030 BKN100 BKN200 12/09 A2975 RMK AO2 RAB03E26 SLP071 P0000 T01220094=
201503270552 METAR KATL 270552Z 34015KT 10SM FEW018 SCT030 BKN110 OVC200 13/10 A2977 RMK AO2 WSHFT 0501 SLP074 FROPA 60000 T01330100 10206 20133 58009=
201503270516 SPECI KATL 270516Z 32014G23KT 10SM BKN016 BKN028 OVC040 16/12 A2978 RMK AO2 WSHFT 0501 FROPA=
201503270452 METAR KATL 270452Z 27010KT 10SM SCT020 BKN040 OVC150 18/14 A2978 RMK AO2 SLP076 T01780139 402330167=
201503270352 METAR KATL 270352Z 25006KT 10SM SCT022 BKN030 BKN050 OVC150 18/14 A2979 RMK AO2 RAB10E29 SLP082 P0000 T01830139=
201503270252 METAR KATL 270252Z 21008KT 10SM SCT045 BKN150 OVC200 19/12 A2979 RMK AO2 SLP082 SHRA SW-NW T01890122 53001=
201503270152 METAR KATL 270152Z 21005KT 10SM BKN150 OVC200 19/11 A2978 RMK AO2 SLP079 VIRGA N T01940111=
201503270052 METAR KATL 270052Z 20003KT 10SM BKN200 OVC250 19/11 A2978 RMK AO2 SLP079 T01890111=
201503262352 METAR KATL 262352Z 20004KT 10SM FEW050 BKN200 BKN250 21/11 A2979 RMK AO2 SLP082 T02060106 10233 20206 56011=
201503262252 METAR KATL 262252Z 23006KT 10SM BKN200 OVC250 22/10 A2980 RMK AO2 SLP086 T02170100=
201503262152 METAR KATL 262152Z 21009KT 10SM FEW150 BKN200 OVC250 22/10 A2981 RMK AO2 SLP086 VIRGA SW T02220100=
201503262052 METAR KATL 262052Z 21008KT 10SM FEW050 SCT150 BKN200 OVC250 22/10 A2982 RMK AO2 SLP093 VIRGA NE-SE T02220100 56028=
201503261952 METAR KATL 261952Z COR 22006KT 10SM FEW050 BKN200 OVC240 23/10 A2985 RMK AO2 SLP100 T02280100=
201503261852 METAR KATL 261852Z 22007KT 10SM FEW050 BKN180 OVC240 23/11 A2988 RMK AO2 SLP110 T02280106=
201503261752 METAR KATL 261752Z 23009G14KT 10SM FEW040 SCT060 OVC240 23/12 A2991 RMK AO2 SLP122 T02280117 10228 20172 58021=
201503261652 METAR KATL 261652Z 25011G18KT 10SM FEW040 SCT060 OVC250 21/12 A2993 RMK AO2 SLP130 TCU DSNT SW T02110117=
201503261552 METAR KATL 261552Z 26009KT 10SM FEW028 SCT050 BKN250 21/13 A2995 RMK AO2 SLP137 T02060128=
201503261452 METAR KATL 261452Z 23007KT 10SM FEW030 SCT050 BKN250 19/13 A2997 RMK AO2 SLP144 T01940128 58004=
201503261354 SPECI KATL 261354Z VRB05KT 10SM SCT015 BKN020 BKN035 BKN250 19/14 A3000 RMK AO2=
201503261352 METAR KATL 261352Z 25006KT 10SM SCT015 SCT035 BKN250 18/14 A3000 RMK AO2 SLP152 T01830144=
201503261320 SPECI KATL 261320Z 23008KT 10SM FEW015 SCT024 BKN065 BKN250 18/14 A3000 RMK AO2=
201503261252 METAR KATL 261252Z 23006KT 10SM SCT010 BKN022 BKN065 BKN250 18/14 A3000 RMK AO2 SLP155 T01780139=
201503261235 SPECI KATL 261235Z 24008KT 10SM SCT008 BKN015 OVC065 17/14 A3000 RMK AO2 BINOVC=
201503261152 METAR KATL 261152Z 21007KT 9SM BKN008 OVC015 17/15 A2999 RMK AO2 SLP149 CIG 007V009 70001 T01720150 10172 20167 55007=
201503261134 SPECI KATL 261134Z 20005KT 9SM SCT008 BKN015 OVC065 17/15 A2999 RMK AO2=
201503261118 SPECI KATL 261118Z 20005KT 8SM OVC008 17/15 A2999 RMK AO2 CIG 007V010=
201503261052 METAR KATL 261052Z 20003KT 9SM FEW007 OVC012 17/15 A2998 RMK AO2 SLP148 CIG 010V014 T01670150=
201503260952 METAR KATL 260952Z 18004KT 10SM FEW006 BKN010 OVC065 17/16 A2999 RMK AO2 SLP150 CIG 008V012 T01670156=
201503260938 SPECI KATL 260938Z 19003KT 10SM SCT008 BKN014 BKN065 OVC250 17/15 A2999 RMK AO2=
201503260922 SPECI KATL 260922Z 17005KT 10SM FEW007 SCT024 BKN065 OVC250 17/16 A2999 RMK AO2=
201503260902 SPECI KATL 260902Z 16005KT 10SM SCT008 BKN022 BKN065 BKN250 17/16 A3000 RMK AO2=
201503260852 METAR KATL 260852Z 17007KT 10SM BKN008 BKN018 OVC065 17/16 A3001 RMK AO2 SLP155 CIG 006V010 T01720156 58013=
201503260752 METAR KATL 260752Z 15005KT 10SM BKN006 OVC012 17/16 A3002 RMK AO2 SLP160 CIG 005V007 T01720156=
201503260652 METAR KATL 260652Z 13004KT 10SM BKN006 OVC012 17/16 A3003 RMK AO2 SLP164 CIG 005V007 T01720156=
201503260552 METAR KATL 260552Z 14005KT 10SM OVC006 17/16 A3005 RMK AO2 SLP168 CIG 004V008 60001 T01720156 10194 20172 55008=
201503260525 SPECI KATL 260525Z 13006KT 10SM BKN006 BKN024 BKN060 BKN250 17/16 A3004 RMK AO2 CIG 005V008=
201503260502 SPECI KATL 260502Z 12006KT 10SM SCT006 SCT020 BKN055 OVC250 17/16 A3004 RMK AO2=
201503260455 SPECI KATL 260455Z 12004KT 10SM BKN008 BKN018 BKN050 OVC250 17/16 A3004 RMK AO2 CIG 006V010=
201503260452 METAR KATL 260452Z 12005KT 10SM FEW007 BKN014 BKN055 OVC250 17/16 A3005 RMK AO2 SLP169 T01720156 402280144=
201503260352 METAR KATL 260352Z 12006KT 10SM SCT007 BKN014 OVC040 18/16 A3006 RMK AO2 RAE12 SLP175 P0000 T01780161=
201503260252 METAR KATL 260252Z 13006KT 4SM -RA BR SCT008 BKN012 OVC040 18/16 A3007 RMK AO2 RAB21 SLP178 P0001 60001 T01780161 58005=
201503260152 METAR KATL 260152Z 11006KT 10SM SCT010 BKN017 OVC025 18/16 A3008 RMK AO2 SLP180 T01830156=
201503260052 METAR KATL 260052Z 13004KT 10SM FEW013 BKN020 OVC040 19/16 A3008 RMK AO2 SLP183 BINOVC T01890156=
201503252352 METAR KATL 252352Z 11008KT 10SM SCT020 BKN040 OVC055 19/15 A3009 RMK AO2 SLP184 T01940150 10228 20194 58004=
201503252252 METAR KATL 252252Z 13006KT 10SM SCT024 BKN030 OVC050 21/15 A3009 RMK AO2 SLP183 BINOVC T02110150=
201503252152 METAR KATL 252152Z 13007KT 10SM SCT025 BKN032 OVC050 21/14 A3010 RMK AO2 SLP187 T02110144=
201503252052 METAR KATL 252052Z 14006KT 10SM FEW035 BKN045 OVC050 22/14 A3010 RMK AO2 SLP187 T02170144 56018=
201503251952 METAR KATL 251952Z VRB03KT 10SM FEW030 SCT040 BKN050 22/14 A3010 RMK AO2 SLP187 T02220139=
201503251852 METAR KATL 251852Z 09004KT 10SM BKN030 BKN040 OVC050 22/14 A3013 RMK AO2 SLP197 T02170139=
201503251842 SPECI KATL 251842Z 10006KT 10SM BKN028 BKN040 BKN050 21/14 A3013 RMK AO2=
201503251752 METAR KATL 251752Z VRB04KT 10SM FEW023 BKN030 BKN050 21/14 A3015 RMK AO2 SLP205 T02110144 10211 20156 58012=
201503251652 METAR KATL 251652Z VRB05KT 10SM FEW020 BKN030 OVC050 20/14 A3017 RMK AO2 SLP214 T02000139=
201503251552 METAR KATL 251552Z 00000KT 10SM SCT017 SCT030 BKN045 19/14 A3019 RMK AO2 SLP219 T01940139=
201503251549 SPECI KATL 251549Z 14003KT 10SM SCT017 SCT030 BKN045 19/14 A3019 RMK AO2=
201503251452 METAR KATL 251452Z 00000KT 10SM BKN023 BKN040 BKN050 18/14 A3020 RMK AO2 SLP221 T01830139 51005=
201503251414 SPECI KATL 251414Z 00000KT 10SM FEW023 BKN040 BKN050 18/14 A3020 RMK AO2=
201503251352 METAR KATL 251352Z 00000KT 10SM BKN020 BKN050 BKN250 17/14 A3019 RMK AO2 SLP221 T01720139=
201503251252 METAR KATL 251252Z 11003KT 10SM SCT016 BKN050 BKN250 16/13 A3019 RMK AO2 SLP221 MDT CU NW T01610133=
201503251202 SPECI KATL 251202Z 00000KT 10SM FEW012 SCT026 OVC048 16/13 A3018 RMK AO2 BINOVC=
201503251152 METAR KATL 251152Z 00000KT 10SM FEW010 SCT018 OVC026 15/13 A3018 RMK AO2 SLP216 BINOVC T01500128 10156 20144 53020=
201503251052 METAR KATL 251052Z 00000KT 10SM BKN018 OVC034 15/13 A3016 RMK AO2 SLP209 T01500128=
201503250952 METAR KATL 250952Z 13005KT 10SM SCT019 BKN028 OVC048 15/13 A3012 RMK AO2 SLP195 T01500128=
201503250852 METAR KATL 250852Z 15004KT 10SM BKN028 BKN048 BKN250 14/12 A3012 RMK AO2 SLP194 T01440122 58010=
201503250752 METAR KATL 250752Z 15005KT 10SM BKN026 BKN036 BKN055 BKN250 14/12 A3013 RMK AO2 SLP196 T01440122=
201503250727 SPECI KATL 250727Z 14004KT 10SM BKN026 BKN050 BKN250 15/12 A3013 RMK AO2=
201503250652 METAR KATL 250652Z 19003KT 10SM FEW031 BKN050 BKN250 15/12 A3015 RMK AO2 SLP203 T01500117=
201503250552 METAR KATL 250552Z 00000KT 10SM BKN050 BKN250 15/12 A3015 RMK AO2 SLP204 T01500117 10200 20144 53009=
201503250452 METAR KATL 250452Z 16004KT 10SM FEW040 SCT250 15/12 A3012 RMK AO2 SLP195 T01500117 402220089=
201503250352 METAR KATL 250352Z 15004KT 10SM FEW040 16/11 A3011 RMK AO2 SLP193 T01610111=
201503250252 METAR KATL 250252Z 16003KT 10SM FEW040 17/11 A3012 RMK AO2 SLP196 T01670111 53003=
201503250152 METAR KATL 250152Z 00000KT 10SM FEW250 18/11 A3012 RMK AO2 SLP196 T01830111=
201503250052 METAR KATL 250052Z 15003KT 10SM FEW250 19/11 A3011 RMK AO2 SLP194 T01890111=
201503242352 METAR KATL 242352Z 00000KT 10SM FEW040 20/11 A3011 RMK AO2 SLP194 T02000111 10222 20200 53000=
201503242252 METAR KATL 242252Z 13004KT 10SM FEW040 SCT250 21/11 A3011 RMK AO2 SLP194 T02060106=
201503242152 METAR KATL 242152Z 14008KT 10SM FEW040 SCT055 BKN250 22/11 A3010 RMK AO2 SLP191 T02170106=
201503242052 METAR KATL 242052Z 12006KT 10SM FEW040 BKN050 BKN250 22/10 A3011 RMK AO2 SLP193 T02170100 56013=
201503241952 METAR KATL 241952Z 14009KT 10SM BKN050 BKN250 22/11 A3012 RMK AO2 SLP196 T02220106=
201503241852 METAR KATL 241852Z 19007KT 10SM SCT043 SCT250 21/10 A3014 RMK AO2 SLP202 T02110100=
201503241752 METAR KATL 241752Z VRB04KT 10SM FEW045 SCT250 21/10 A3015 RMK AO2 SLP206 T02110100 10211 20100 58010=
201503241652 METAR KATL 241652Z 13006KT 10SM FEW040 SCT250 19/09 A3016 RMK AO2 SLP211 T01940089=
201503241552 METAR KATL 241552Z 12008KT 10SM FEW035 SCT250 18/09 A3017 RMK AO2 SLP214 T01830089=
201503241452 METAR KATL 241452Z 14007KT 10SM FEW030 SCT250 17/09 A3018 RMK AO2 SLP217 T01670094 51013=
201503241352 METAR KATL 241352Z 14004KT 10SM FEW250 15/10 A3017 RMK AO2 SLP215 T01500100=
201503241252 METAR KATL 241252Z 10005KT 9SM FEW250 12/10 A3016 RMK AO2 SLP212 T01220100=
201503241152 METAR KATL 241152Z 00000KT 9SM FEW250 10/08 A3014 RMK AO2 SLP205 T01000083 10117 20089 53012=
201503241052 METAR KATL 241052Z 00000KT 10SM CLR 11/09 A3012 RMK AO2 SLP199 T01060089=
201503240952 METAR KATL 240952Z 00000KT 10SM CLR 11/09 A3011 RMK AO2 SLP195 T01060089=
201503240852 METAR KATL 240852Z 00000KT 10SM CLR 11/09 A3010 RMK AO2 SLP191 T01110094 58003=
201503240752 METAR KATL 240752Z 00000KT 10SM CLR 11/09 A3011 RMK AO2 SLP193 T01110094=
201503240652 METAR KATL 240652Z 00000KT 10SM CLR 11/09 A3012 RMK AO2 SLP197 T01110089=
201503240552 METAR KATL 240552Z 00000KT 10SM CLR 12/09 A3011 RMK AO2 SLP195 T01170089 10178 20117 51007=
201503240452 METAR KATL 240452Z 25003KT 10SM CLR 12/09 A3011 RMK AO2 SLP193 T01170089 402000117=
201503240352 METAR KATL 240352Z 14003KT 10SM CLR 13/09 A3011 RMK AO2 SLP193 T01330089=
201503240252 METAR KATL 240252Z 12003KT 10SM CLR 15/09 A3009 RMK AO2 SLP188 T01500089 53017=
201503240152 METAR KATL 240152Z 00000KT 10SM FEW060 16/09 A3007 RMK AO2 SLP182 T01560089=
201503240052 METAR KATL 240052Z 12005KT 10SM FEW060 17/08 A3005 RMK AO2 SLP175 T01720083=
201503232352 METAR KATL 232352Z 13004KT 10SM BKN060 18/08 A3004 RMK AO2 SLP170 T01780083 10200 20167 51009=
201503232252 METAR KATL 232252Z 07007KT 10SM FEW030 SCT055 18/08 A3003 RMK AO2 SLP168 T01780083=
201503232152 METAR KATL 232152Z 08007KT 10SM FEW035 BKN050 BKN070 19/08 A3002 RMK AO2 SLP163 T01890078=
201503232052 METAR KATL 232052Z 12008KT 10SM SCT045 SCT070 19/08 A3001 RMK AO2 SLP160 T01890083 56010=
201503231952 METAR KATL 231952Z 11008KT 10SM BKN047 BKN070 19/09 A3002 RMK AO2 SLP162 T01940089=
201503231852 METAR KATL 231852Z 07012KT 10SM BKN040 BKN050 BKN070 18/09 A3003 RMK AO2 SLP167 T01830089=
201503231752 METAR KATL 231752Z 07015KT 10SM BKN035 BKN045 BKN070 17/09 A3004 RMK AO2 SLP171 T01720089 10178 20128 50000=
201503231652 METAR KATL 231652Z 09014G18KT 10SM BKN030 BKN050 BKN070 17/09 A3005 RMK AO2 SLP172 T01670089=
201503231552 METAR KATL 231552Z 05013KT 10SM FEW025 SCT030 BKN070 16/10 A3006 RMK AO2 SLP175 T01610100=
201503231452 METAR KATL 231452Z 08013G18KT 10SM FEW015 SCT050 BKN065 16/10 A3004 RMK AO2 SLP170 T01560100 51019=
201503231352 METAR KATL 231352Z 05009KT 10SM FEW015 BKN045 OVC080 13/10 A3003 RMK AO2 SLP167 T01330100=
201503231252 METAR KATL 231252Z 06007KT 10SM FEW012 OVC041 13/11 A3000 RMK AO2 SLP159 VIRGA SW T01330106=
201503231152 METAR KATL 231152Z 06009KT 10SM FEW009 BKN043 OVC070 13/11 A2998 RMK AO2 SLP152 BINOVC 60000 70098 T01280106 10133 20128 53014=
201503231127 SPECI KATL 231127Z 05008KT 10SM FEW009 SCT014 OVC041 13/11 A2997 RMK AO2 VIRGA SW-NW BINOVC=
201503231105 SPECI KATL 231105Z 05008KT 10SM FEW009 BKN014 OVC041 13/11 A2997 RMK AO2 BINOVC=
201503231052 METAR KATL 231052Z 05008KT 10SM FEW009 SCT012 BKN041 13/11 A2997 RMK AO2 RAE23 SLP146 P0000 T01280106=
201503231024 SPECI KATL 231024Z 05008KT 10SM SCT009 SCT014 OVC039 13/11 A2996 RMK AO2 RAE23 P0000=
201503230952 METAR KATL 230952Z 05008KT 7SM -RA BKN009 OVC015 13/11 A2995 RMK AO2 SLP141 CIG 007V011 PCPN VRY LGT P0000 T01280111=
201503230926 SPECI KATL 230926Z 06007KT 7SM -RA BKN009 BKN017 OVC032 13/11 A2995 RMK AO2 CIG 007V011 PCPN VRY LGT P0000=
201503230852 METAR KATL 230852Z 06008KT 7SM -RA SCT008 BKN013 OVC032 13/11 A2994 RMK AO2 RAE29B52 SLP138 PCPN VRY LGT P0000 60000 T01280111 58005 $=
201503230752 METAR KATL 230752Z 07008KT 10SM -RA BKN008 OVC032 13/11 A2995 RMK AO2 RAE0656B49 SLP140 PCPN VRY LGT P0000 T01280111 $=
201503230749 SPECI KATL 230749Z 07009KT 10SM -RA BKN008 OVC035 13/11 A2995 RMK AO2 RAE0656B49 PCPN VRY LGT P0000 $=
201503230652 METAR KATL 230652Z 05007KT 10SM -RA FEW009 OVC038 13/11 A2996 RMK AO2 RAB39 SLP144 P0000 T01280111 $=
201503230552 METAR KATL 230552Z 08010KT 10SM FEW009 BKN038 OVC046 13/11 A2996 RMK AO2 SLP143 60008 T01280111 10139 20128 58006 $=
201503230452 METAR KATL 230452Z 10009KT 10SM FEW009 OVC038 13/11 A2997 RMK AO2 RAE28 SLP147 P0001 T01280111 401440122 $=
201503230448 SPECI KATL 230448Z 10009KT 10SM FEW009 OVC036 13/11 A2997 RMK AO2 RAE28 P0001 401440122 $=
201503230352 METAR KATL 230352Z 09011KT 10SM -RA BKN010 BKN032 OVC044 13/12 A2997 RMK AO2 RAB47 SLP148 CIG 008V012 PCPN VRY LGT P0000 T01330117 $=
201503230252 METAR KATL 230252Z 07012KT 10SM BKN008 BKN044 OVC085 13/12 A2998 RMK AO2 RAE26 SLP150 CIG 006V010 P0000 60007 T01330117 51003=
201503230226 SPECI KATL 230226Z 08010KT 10SM BKN007 BKN037 OVC060 13/12 A2997 RMK AO2 RAE26 CIG 006V009 P0000=
201503230152 METAR KATL 230152Z 09012KT 10SM -RA SCT006 BKN055 OVC080 13/12 A2996 RMK AO2 SLP145 PCPN VRY LGT P0002 T01330117=
201503230122 SPECI KATL 230122Z 09011KT 8SM -RA FEW007 SCT014 OVC055 13/12 A2996 RMK AO2 P0001=
201503230117 SPECI KATL 230117Z 09012KT 6SM -RA BR SCT007 BKN014 OVC046 13/12 A2997 RMK AO2 P0001=
201503230052 METAR KATL 230052Z 07011KT 4SM -RA BR BKN007 BKN014 OVC035 14/12 A2999 RMK AO2 SLP153 CIG 006V009 P0005 T01390117=
201503230050 SPECI KATL 230050Z 06011KT 4SM -RA BR BKN007 BKN014 OVC035 14/12 A2999 RMK AO2 CIG 006V009 P0005=
201503230008 SPECI KATL 230008Z 10006KT 2SM -RA FEW006 SCT014 OVC055 13/12 A2997 RMK AO2 SFC VIS 8 P0004=
201503222352 METAR KATL 222352Z 10009KT 2SM +RA BR SCT006 BKN012 OVC020 13/12 A2997 RMK AO2 SLP147 CIG 010V014 P0027 60077 T01330122 10139 20133 55002=
201503222331 SPECI KATL 222331Z 08007KT 2SM +RA BR BKN006 OVC012 13/12 A2996 RMK AO2 CIG 005V008 P0004=
201503222252 METAR KATL 222252Z 09009KT 3SM -RA BR BKN007 OVC012 14/12 A2995 RMK AO2 SFC VIS 6 SLP139 CIG 005V009 P0000 T01390122=
201503222152 METAR KATL 222152Z 09011KT 3SM -RA BKN006 BKN016 OVC055 14/13 A2996 RMK AO2 SFC VIS 8 SLP143 CIG 004V007 P0011 T01390128=
201503222147 SPECI KATL 222147Z 10010KT 3SM -RA BKN006 BKN014 OVC055 14/12 A2996 RMK AO2 SFC VIS 8 VIS 2V4 CIG 005V008 P0011=
201503222129 SPECI KATL 222129Z 09006KT 3SM -RA BR BKN006 OVC012 14/13 A2997 RMK AO2 SFC VIS 4 VIS 2V4 CIG 005V008 P0010=
201503222105 SPECI KATL 222105Z 08006KT 2SM RA BR BKN008 BKN014 OVC040 14/12 A2998 RMK AO2 TWR VIS 3 VIS 1V3 CIG 006V010 P0005=
201503222058 SPECI KATL 222058Z 09009KT 1 1/2SM R09R/6000VP6000FT RA BR BKN008 OVC016 14/12 A2997 RMK AO2 TWR VIS 3 P0003=
201503222052 METAR KATL 222052Z 08007KT 2SM R09R/6000VP6000FT +RA BR BKN006 BKN012 OVC019 14/12 A2997 RMK AO2 TWR VIS 3 SLP148 P0011 60039 T01390122 56015=
201503222043 SPECI KATL 222043Z 09006KT 2 1/2SM -RA BR BKN006 BKN012 OVC045 14/12 A2998 RMK AO2 TWR VIS 3 P0009=
201503222022 SPECI KATL 222022Z 11008KT 3SM -RA BR BKN008 BKN043 OVC055 14/12 A2997 RMK AO2 SFC VIS 5 P0006=
201503222000 SPECI KATL 222000Z 11006KT 3SM R09R/6000VP6000FT -RA BR SCT006 BKN010 OVC035 14/12 A2998 RMK AO2 P0004=
201503221952 METAR KATL 221952Z 10008KT 2SM R09R/6000VP6000FT +RA BR BKN006 BKN011 OVC037 14/12 A2998 RMK AO2 TWR VIS 3 SLP152 P0022 T01390122=
201503221945 SPECI KATL 221945Z 10009KT 2SM +RA BR BKN006 BKN013 OVC041 13/12 A2998 RMK AO2 TWR VIS 3 P0019=
201503221931 SPECI KATL 221931Z 11005KT 3SM RA BR BKN006 BKN011 OVC037 13/12 A2999 RMK AO2 SFC VIS 4 P0013=
201503221922 SPECI KATL 221922Z 12006KT 2SM RA BR BKN006 BKN010 OVC027 13/12 A2999 RMK AO2 TWR VIS 3 P0011=
201503221907 SPECI KATL 221907Z 09010KT 1 1/4SM R09R/5000VP6000FT +RA BR BKN004 BKN008 OVC022 14/12 A3000 RMK AO2 TWR VIS 3 P0004=
201503221852 METAR KATL 221852Z 10004KT 2SM -RA BR BKN004 BKN010 OVC026 14/12 A3000 RMK AO2 TWR VIS 3 SLP158 P0006 T01390122=
201503221850 SPECI KATL 221850Z 10006KT 1 3/4SM RA BR BKN004 BKN010 OVC036 14/12 A3000 RMK AO2 TWR VIS 3 P0006=
201503221844 SPECI KATL 221844Z 10007KT 1 3/4SM RA BR SCT006 BKN010 OVC038 13/12 A3000 RMK AO2 TWR VIS 3 P0004=
201503221820 SPECI KATL 221820Z 12008KT 2SM R09R/6000VP6000FT -RA BR BKN008 BKN040 OVC049 14/12 A3002 RMK AO2 TWR VIS 3 P0001=
201503221815 SPECI KATL 221815Z 12010KT 3SM R09R/6000VP6000FT -RA BR BKN008 BKN040 OVC049 14/12 A3002 RMK AO2 P0001=
201503221802 SPECI KATL 221802Z 13008KT 6SM -RA BR SCT008 OVC044 14/12 A3002 RMK AO2 P0000=
201503221752 METAR KATL 221752Z 12009KT 6SM -RA BR FEW012 OVC044 14/12 A3002 RMK AO2 RAB1653 SLP164 P0000 60013 T01390117 10144 20128 58015=
201503221652 METAR KATL 221652Z 11008KT 10SM FEW010 OVC046 14/12 A3004 RMK AO2 RAB1557E31 SLP171 P0000 T01390117=
201503221552 METAR KATL 221552Z 10005KT 9SM FEW015 OVC050 13/11 A3007 RMK AO2 RAE51 SLP182 P0002 T01330111=
201503221452 METAR KATL 221452Z 08009KT 7SM -RA OVC050 13/11 A3007 RMK AO2 SLP179 P0006 60011 T01330111 50006=
201503221352 METAR KATL 221352Z 05008KT 5SM -RA BR OVC050 13/10 A3008 RMK AO2 SLP182 P0004 T01280100=
201503221252 METAR KATL 221252Z 06006KT 8SM -RA OVC055 13/10 A3006 RMK AO2 SLP175 P0001 T01330100=
201503221152 METAR KATL 221152Z 04006KT 9SM -RA SCT060 SCT080 OVC100 14/10 A3005 RMK AO2 SLP172 PCPN VRY LGT P0000 60001 70003 T01390100 10139 20122 55003=
201503221052 METAR KATL 221052Z 03005KT 10SM -RA FEW070 OVC095 13/10 A3005 RMK AO2 RAE19B36 SLP172 PCPN VRY LGT P0000 T01330100=
201503220952 METAR KATL 220952Z 02004KT 10SM -RA FEW080 OVC100 13/10 A3005 RMK AO2 SLP172 PCPN VRY LGT P0000 T01330100=
201503220852 METAR KATL 220852Z 00000KT 10SM -RA SCT080 OVC100 12/10 A3006 RMK AO2 RAB28 SLP176 P0001 60001 T01220100 56010=
201503220752 METAR KATL 220752Z 26004KT 10SM BKN070 OVC085 13/09 A3007 RMK AO2 RAE20 SLP178 P0000 T01280089=
201503220652 METAR KATL 220652Z 29003KT 10SM -RA FEW065 OVC095 13/09 A3008 RMK AO2 SLP181 P0000 T01280094=
201503220552 METAR KATL 220552Z 30005KT 10SM -RA FEW060 OVC080 13/09 A3009 RMK AO2 SLP185 P0002 60002 T01330094 10189 20128 58001=
201503220452 METAR KATL 220452Z 31006KT 10SM -RA FEW065 OVC085 14/09 A3011 RMK AO2 SLP192 PCPN VRY LGT P0000 T01440089 402220122=
201503220352 METAR KATL 220352Z 32004KT 10SM -RA FEW070 OVC100 14/10 A3009 RMK AO2 RAE13B42 SLP186 PCPN VRY LGT P0000 T01440100=
201503220252 METAR KATL 220252Z 27003KT 10SM -RA FEW075 BKN095 OVC110 15/10 A3009 RMK AO2 RAB0157 SLP187 PCPN VRY LGT P0000 60000 T01500100 53003=
201503220152 METAR KATL 220152Z 31007KT 10SM FEW070 OVC100 16/09 A3008 RMK AO2 RAE45 SLP184 VIRGA OHD-ALQDS P0000 T01610094=
201503220052 METAR KATL 220052Z 32005KT 10SM -RA FEW065 OVC095 17/08 A3009 RMK AO2 RAB2356 SLP187 PCPN VRY LGT P0000 T01720083=
201503212352 METAR KATL 212352Z 32009KT 10SM SCT070 OVC100 19/06 A3008 RMK AO2 SLP183 VIRGA OHD-ALQDS T01890056 10222 20189 53005=
201503212252 METAR KATL 212252Z 31008KT 10SM FEW070 OVC100 20/06 A3007 RMK AO2 SLP178 VIRGA OHD-ALQDS T02000056=
201503212152 METAR KATL 212152Z 28006KT 10SM FEW075 BKN100 OVC200 20/07 A3006 RMK AO2 SLP174 VIRGA OHD-ALQDS T02000072=
201503212052 METAR KATL 212052Z 29005KT 10SM FEW020 BKN130 BKN180 21/07 A3006 RMK AO2 SLP176 T02110067 55017=
201503211952 METAR KATL 211952Z 30003KT 10SM FEW150 BKN180 22/06 A3006 RMK AO2 SLP174 T02170061=
201503211852 METAR KATL 211852Z VRB03KT 10SM FEW150 BKN170 BKN210 21/07 A3009 RMK AO2 SLP184 T02110067=
201503211752 METAR KATL 211752Z 29005KT 10SM FEW150 BKN180 21/09 A3012 RMK AO2 SLP194 T02060089 10206 20122 58015=
201503211652 METAR KATL 211652Z 35005KT 10SM FEW150 BKN200 18/09 A3014 RMK AO2 SLP203 T01830089=
201503211552 METAR KATL 211552Z 34006KT 10SM FEW150 BKN220 16/09 A3016 RMK AO2 SLP210 T01610089=
201503211452 METAR KATL 211452Z 31005KT 10SM FEW014 BKN210 14/09 A3016 RMK AO2 SLP211 T01390089 51016=
201503211439 SPECI KATL 211439Z 32006KT 10SM SCT014 BKN210 13/09 A3016 RMK AO2=
201503211352 METAR KATL 211352Z 35009KT 10SM BKN013 OVC030 12/08 A3015 RMK AO2 SLP208 T01220083=
201503211252 METAR KATL 211252Z 35009KT 10SM OVC013 13/09 A3014 RMK AO2 SLP205 BINOVC DSNT NE-SE T01280094=
201503211152 METAR KATL 211152Z 35010KT 9SM OVC013 13/10 A3011 RMK AO2 SLP195 70001 T01330100 10144 20133 53007=
201503211052 METAR KATL 211052Z 35010KT 10SM OVC012 14/11 A3009 RMK AO2 SLP185 CIG 011V015 T01390106=
201503211046 SPECI KATL 211046Z 34007KT 10SM OVC013 14/11 A3009 RMK AO2 CIG 011V015=
201503210952 METAR KATL 210952Z 34006KT 9SM FEW008 BKN016 14/12 A3009 RMK AO2 SLP186 T01390117=
201503210946 SPECI KATL 210946Z 34007KT 7SM SCT008 OVC016 14/12 A3009 RMK AO2=
201503210852 METAR KATL 210852Z 32003KT 7SM BKN008 OVC016 14/12 A3009 RMK AO2 SLP185 CIG 007V011 T01440122 58005=
201503210752 METAR KATL 210752Z 29004KT 7SM BKN008 OVC016 14/13 A3009 RMK AO2 SLP186 CIG 007V010 T01440128=
201503210725 SPECI KATL 210725Z 30003KT 7SM BKN009 OVC018 14/13 A3010 RMK AO2 CIG 007V012=
201503210652 METAR KATL 210652Z 27003KT 7SM FEW007 BKN018 14/13 A3010 RMK AO2 SLP191 T01390128=
201503210552 METAR KATL 210552Z 31005KT 7SM FEW007 BKN020 14/12 A3010 RMK AO2 SLP192 T01390122 10172 20139 55003=
201503210531 SPECI KATL 210531Z 31004KT 8SM FEW007 BKN020 14/12 A3010 RMK AO2=
201503210452 METAR KATL 210452Z 34005KT 10SM FEW020 BKN250 14/12 A3010 RMK AO2 SLP191 T01440122 402060089=
201503210419 SPECI KATL 210419Z 30005KT 10SM FEW020 SCT200 BKN250 14/12 A3010 RMK AO2=
201503210352 METAR KATL 210352Z 33006KT 10SM BKN022 BKN250 14/13 A3010 RMK AO2 SLP192 T01440128=
201503210343 SPECI KATL 210343Z 33006KT 10SM BKN022 BKN250 14/13 A3010 RMK AO2=
201503210252 METAR KATL 210252Z 31006KT 10SM FEW025 SCT200 BKN250 15/13 A3011 RMK AO2 SLP197 T01500128 53012=
201503210152 METAR KATL 210152Z 34006KT 10SM FEW070 OVC095 16/13 A3010 RMK AO2 SLP192 T01610133=
201503210052 METAR KATL 210052Z 33007KT 10SM FEW025 BKN070 OVC110 17/13 A3009 RMK AO2 SLP188 T01670133=
201503210048 SPECI KATL 210048Z 33007KT 10SM FEW025 BKN070 OVC110 17/13 A3009 RMK AO2=
201503202352 METAR KATL 202352Z 33006KT 10SM SCT020 BKN028 OVC100 17/14 A3007 RMK AO2 RAE05 SLP183 P0000 60001 T01720144 10206 20167 53004=
201503202350 SPECI KATL 202350Z 33007KT 10SM SCT020 BKN028 OVC100 17/14 A3008 RMK AO2 RAE05 P0000=
201503202252 METAR KATL 202252Z 27003KT 10SM -RA FEW040 BKN085 OVC110 18/15 A3005 RMK AO2 RAE23B44 SLP176 P0000 T01780150=
201503202152 METAR KATL 202152Z 32006KT 8SM -RA FEW030 BKN080 OVC100 18/14 A3006 RMK AO2 RAB29 SLP179 P0001 T01830144=
201503202052 METAR KATL 202052Z 29006KT 10SM BKN031 BKN075 OVC100 19/13 A3007 RMK AO2 SLP182 T01940133 56012=
201503202027 SPECI KATL 202027Z 30007KT 10SM SCT028 BKN110 BKN240 21/13 A3007 RMK AO2=
201503201952 METAR KATL 201952Z 29008KT 10SM BKN028 BKN110 OVC240 20/13 A3007 RMK AO2 SLP182 T02000133=
201503201938 SPECI KATL 201938Z 31007KT 10SM BKN028 BKN110 OVC240 19/13 A3007 RMK AO2=
201503201852 METAR KATL 201852Z 32004KT 10SM FEW030 BKN180 BKN240 19/14 A3008 RMK AO2 SLP184 T01940139=
201503201752 METAR KATL 201752Z 00000KT 6SM HZ FEW008 SCT020 BKN080 BKN240 17/12 A3011 RMK AO2 SLP196 60000 T01670122 10167 20089 58010=
201503201652 METAR KATL 201652Z VRB03KT 5SM HZ FEW008 SCT012 OVC030 14/11 A3014 RMK AO2 RAB12E21 SLP206 P0000 T01390106=
201503201613 SPECI KATL 201613Z 00000KT 2SM -RA SCT006 BKN030 OVC040 13/10 A3014 RMK AO2 SFC VIS 4 RAB12 P0000=
201503201552 METAR KATL 201552Z 00000KT 1 1/4SM BR FEW004 BKN006 OVC008 12/10 A3014 RMK AO2 SFC VIS 4 RAB43E51 SLP208 P0000 T01220100=
201503201531 SPECI KATL 201531Z 00000KT 1 1/4SM BR FEW003 BKN006 OVC008 11/09 A3015 RMK AO2 SFC VIS 3=
201503201521 SPECI KATL 201521Z 15003KT 3/4SM BR FEW003 BKN006 OVC008 11/09 A3015 RMK AO2 SFC VIS 3=
201503201511 SPECI KATL 201511Z 00000KT 1/8SM BR BKN003 OVC006 11/09 A3015 RMK AO2 SFC VIS 3 TWRINC=
201503201452 METAR KATL 201452Z 00000KT 1/8SM R09R/P6000FT BR BCFG OVC003 11/09 A3014 RMK AO2 SFC VIS 1 SLP208 TWRINC 60000 T01060094 53004=
201503201423 SPECI KATL 201423Z 00000KT 1/8SM R09R/5000VP6000FT BR BCFG VV003 10/09 A3014 RMK AO2 SFC VIS 1 TWRINC=
201503201352 METAR KATL 201352Z 20003KT 1/8SM R09R/2000V2600FT FG VV003 09/09 A3013 RMK AO2 SFC VIS 1/2 DZE46 SLP206 P0000 T00940089=
201503201348 SPECI KATL 201348Z 17004KT 1/8SM R09R/1600V3000FT FG VV003 09/09 A3013 RMK AO2 SFC VIS 1/2 DZE46 P0000=
201503201307 SPECI KATL 201307Z 15005KT 1/8SM R09R/1600V1800FT -DZ FG VV002 09/09 A3012 RMK AO2 SFC VIS 1/4 PCPN VRY LGT P0000=
201503201252 METAR KATL 201252Z 12004KT 1/8SM R09R/2000V2800FT -DZ FG VV002 09/08 A3013 RMK AO2 SFC VIS 1/4 SLP204 PCPN VRY LGT P0000 T00890083=
201503201208 SPECI KATL 201208Z 07004KT 1/8SM R09R/3500V5000FT -DZ BR OVC002 09/08 A3013 RMK AO2 SFC VIS 3/4 CIG 001V003 TWRINC PCPN VRY LGT P0000=
201503201152 METAR KATL 201152Z 08004KT 1/4SM R09R/6000VP6000FT -DZ BR OVC002 09/08 A3013 RMK AO2 SFC VIS 1 SLP204 CIG 001V003 TWRINC PCPN VRY LGT P0000 60000 70018 T00890083 10094 20089 53005=
201503201137 SPECI KATL 201137Z 07005KT 1/4SM R09R/P6000FT -DZ BR OVC002 09/08 A3012 RMK AO2 SFC VIS 1 CIG 001V003 TWRINC P0000=
201503201052 METAR KATL 201052Z 07005KT 1/2SM -DZ BR OVC002 09/08 A3011 RMK AO2 SFC VIS 1 1/2 SLP198 CIG 001V003 TWRINC P0000 T00890083=
201503200952 METAR KATL 200952Z 05006KT 1SM -DZ BR OVC003 09/08 A3012 RMK AO2 SFC VIS 2 SLP201 CIG 002V004 P0000 T00890083=
201503200852 METAR KATL 200852Z 07006KT 1SM -DZ BR OVC003 09/08 A3011 RMK AO2 SFC VIS 1 1/2 SLP198 CIG 002V004 P0000 60000 T00890078 56005=
201503200752 METAR KATL 200752Z 08004KT 1SM R09R/P6000FT -DZ BR OVC003 09/08 A3012 RMK AO2 SLP200 CIG 002V004 P0000 T00890083=
201503200652 METAR KATL 200652Z 09008KT 1SM -DZ BR OVC003 09/08 A3012 RMK AO2 SFC VIS 1 1/2 SLP199 CIG 002V004 P0000 T00890078=
201503200552 METAR KATL 200552Z 08009KT 1 1/2SM -DZ BR OVC003 09/08 A3013 RMK AO2 SFC VIS 2 1/2 SLP202 CIG 002V004 P0000 60000 T00890078 10094 20089 58005=
201503200452 METAR KATL 200452Z 09010KT 1 1/2SM -DZ BR OVC003 09/08 A3013 RMK AO2 SFC VIS 3 SLP205 P0000 T00890078 401830089=
201503200352 METAR KATL 200352Z 09010KT 1 1/2SM -DZ BR OVC004 09/08 A3014 RMK AO2 SFC VIS 3 SLP206 CIG 003V005 P0000 T00890078=
201503200252 METAR KATL 200252Z 08009KT 1 1/2SM -DZ BR OVC004 09/08 A3014 RMK AO2 SFC VIS 5 SLP207 CIG 003V005 P0000 60000 T00890078 51012=
201503200152 METAR KATL 200152Z 07011KT 1 1/2SM -DZ BR OVC005 09/08 A3013 RMK AO2 SFC VIS 5 SLP205 CIG 003V006 P0000 T00890078=
201503200116 SPECI KATL 200116Z 07011KT 1 1/2SM -DZ BR OVC005 09/08 A3012 RMK AO2 SFC VIS 5 CIG 003V006 P0000=
201503200052 METAR KATL 200052Z 07010KT 2SM -DZ BR OVC005 09/08 A3011 RMK AO2 SFC VIS 6 DZB39 SLP198 CIG 003V006 P0000 T00940083=
201503192352 METAR KATL 192352Z 08012KT 2SM OVC005 09/08 A3010 RMK AO2 SFC VIS 9 DZE00 SLP195 CIG 003V006 P0000 60000 T00940078 10133 20094 53009=
201503192252 METAR KATL 192252Z 08014KT 2SM -DZ OVC005 09/08 A3009 RMK AO2 SFC VIS 7 SLP189 CIG 003V007 P0000 T00940078=
201503192238 SPECI KATL 192238Z 08015KT 2SM -DZ BR OVC005 09/08 A3008 RMK AO2 SFC VIS 6 CIG 003V007 P0000=
201503192213 SPECI KATL 192213Z 07013KT 1SM -DZ BR OVC005 10/09 A3007 RMK AO2 SFC VIS 2 1/2 CIG 003V007 P0000=
201503192152 METAR KATL 192152Z 09015KT 2SM -DZ BR OVC006 11/09 A3007 RMK AO2 SFC VIS 5 SLP184 CIG 004V008 P0000 T01060089=
201503192052 METAR KATL 192052Z 08011KT 2SM -DZ BR OVC006 11/09 A3008 RMK AO2 SFC VIS 5 DZE25B47RAB27E46 SLP184 P0000 60000 T01110094 55006=
201503192030 SPECI KATL 192030Z 08014KT 2SM -RA BR OVC006 11/10 A3007 RMK AO2 SFC VIS 4 DZE25RAB27 P0000=
201503191952 METAR KATL 191952Z 09013KT 1 1/2SM -DZ BR BKN005 OVC008 11/10 A3007 RMK AO2 SFC VIS 3 SLP183 P0000 T01110100=
201503191909 SPECI KATL 191909Z 08015KT 1 1/4SM -DZ BR OVC005 12/11 A3008 RMK AO2 SFC VIS 2 P0000=
201503191852 METAR KATL 191852Z 07015KT 3/4SM R09R/6000VP6000FT -DZ BR OVC005 12/11 A3008 RMK AO2 SFC VIS 2 RAE1755DZB1756 SLP183 P0000 T01170106=
201503191752 METAR KATL 191752Z COR 10010KT 1 1/4SM R09R/5000V6000FT -RA BR FEW003 BKN006 OVC008 13/12 A3010 RMK AO2 SFC VIS 2 DZE49RAB49 SLP189 P0001 60018 T01330122 10144 20133 58002=
201503191652 METAR KATL 191652Z 10008KT 1/4SM R09R/5500VP6000FT -DZ BR OVC003 14/13 A3010 RMK AO2 SFC VIS 2 SLP191 TWRINC P0001 T01440133=
201503191552 METAR KATL 191552Z 12007KT 1/4SM R09R/4500V5000FT -DZ BR OVC003 14/13 A3011 RMK AO2 SFC VIS 1 DZB17 SLP192 TWRINC P0000 T01390133=
201503191533 SPECI KATL 191533Z 11006KT 1/2SM R09R/4500V5500FT -DZ BR OVC003 14/13 A3011 RMK AO2 SFC VIS 1 1/2 DZB17 TWRINC P0000=
201503191518 SPECI KATL 191518Z 11007KT 1/2SM -DZ BR OVC003 14/13 A3010 RMK AO2 SFC VIS 2 1/2 DZB17 TWRINC P0000=
201503191452 METAR KATL 191452Z 13007KT 1/2SM BR OVC004 14/13 A3010 RMK AO2 SFC VIS 5 RAE19 SLP189 TWRINC P0002 60016 T01440133 53012=
201503191432 SPECI KATL 191432Z 13008KT 1/2SM BR OVC004 14/13 A3009 RMK AO2 SFC VIS 6 RAE19 TWRINC P0002=
201503191352 METAR KATL 191352Z 13008KT 1/2SM R09R/5000VP6000FT RA BR OVC004 14/13 A3009 RMK AO2 SFC VIS 3 RAB14 SLP184 P0007 T01390128=
201503191252 METAR KATL 191252Z 12007KT 1/2SM BR OVC003 14/13 A3007 RMK AO2 SFC VIS 4 RAB02E48 SLP179 CIG 002V004 TWRINC P0007 T01390128=
201503191152 METAR KATL 191152Z 13006KT 1/2SM BR OVC003 14/13 A3006 RMK AO2 SFC VIS 5 RAE03 SLP176 CIG 002V004 TWRINC P0000 60027 70027 T01390128 10178 20128 53001=
201503191130 SPECI KATL 191130Z 13008KT 3/4SM BR OVC003 14/13 A3006 RMK AO2 SFC VIS 5 RAE03 CIG 002V004 TWRINC P0000=
201503191052 METAR KATL 191052Z 11006KT 1 1/2SM -RA BR BKN004 BKN012 OVC042 13/12 A3006 RMK AO2 SFC VIS 4 SLP174 CIG 003V006 TWRINC P0009 T01330122=
201503191041 SPECI KATL 191041Z 09009G16KT 040V100 1 1/2SM RA BR OVC003 13/12 A3006 RMK AO2 SFC VIS 3 CIG 002V004 TWRINC P0007=
201503191028 SPECI KATL 191028Z 09007KT 2SM -RA BR BKN004 OVC011 13/12 A3006 RMK AO2 SFC VIS 4 CIG 003V006 TWRINC P0005=
201503191014 SPECI KATL 191014Z 11004KT 5SM -RA BR BKN007 BKN020 OVC038 13/12 A3006 RMK AO2 CIG 005V008 P0004=
201503190959 SPECI KATL 190959Z 10007KT 4SM RA BR FEW008 SCT022 OVC038 13/12 A3006 RMK AO2 P0002=
201503190952 METAR KATL 190952Z 09006KT 5SM RA BR FEW012 SCT024 OVC043 13/12 A3006 RMK AO2 SLP175 P0006 T01280117=
201503190948 SPECI KATL 190948Z 09007KT 5SM RA BR SCT012 SCT024 OVC043 13/12 A3006 RMK AO2 P0006=
201503190926 SPECI KATL 190926Z 08006KT 6SM -RA BR BKN014 OVC047 13/11 A3007 RMK AO2 P0003=
201503190852 METAR KATL 190852Z 12006KT 5SM -RA BR SCT025 OVC047 13/11 A3006 RMK AO2 SLP175 P0005 60012 T01330111 58001=
201503190752 METAR KATL 190752Z 09004KT 5SM RA FEW020 OVC047 14/09 A3008 RMK AO2 RAB0656 SLP181 P0007 T01390094=
201503190652 METAR KATL 190652Z COR 12006KT 10SM OVC055 17/05 A3006 RMK AO2 SLP172 VIRGA OHD-ALQDS T01720050=
201503190552 METAR KATL 190552Z 13007KT 10SM BKN055 BKN075 OVC200 18/03 A3006 RMK AO2 SLP174 T01780028 10211 20178 57004=
201503190452 METAR KATL 190452Z 11006KT 10SM BKN055 OVC200 18/02 A3007 RMK AO2 SLP176 T01830022 402280133=
201503190352 METAR KATL 190352Z 11006KT 10SM BKN060 OVC200 19/02 A3007 RMK AO2 SLP177 T01890017=
201503190252 METAR KATL 190252Z 13006KT 10SM BKN060 BKN150 OVC200 19/02 A3007 RMK AO2 SLP179 T01940022 53006=
201503190152 METAR KATL 190152Z 12006KT 9SM BKN060 BKN150 OVC200 20/03 A3007 RMK AO2 SLP176 T02000028=
201503190052 METAR KATL 190052Z 11007KT 8SM BKN065 BKN150 OVC200 21/03 A3006 RMK AO2 SLP176 T02060028=
201503182352 METAR KATL 182352Z 12006KT 10SM BKN150 OVC200 21/02 A3006 RMK AO2 SLP174 T02110022 10228 20206 53004=
201503182252 METAR KATL 182252Z 13005KT 10SM BKN150 OVC250 22/01 A3004 RMK AO2 SLP167 T02170011=
201503182152 METAR KATL 182152Z 15004KT 10SM SCT150 BKN200 BKN250 22/01 A3004 RMK AO2 SLP168 T02220011=
201503182052 METAR KATL 182052Z 00000KT 10SM FEW120 SCT150 BKN250 22/03 A3004 RMK AO2 SLP168 T02220028 56020=
201503181952 METAR KATL 181952Z 07004KT 10SM FEW120 SCT150 BKN250 22/04 A3006 RMK AO2 SLP173 ACC DSNT S T02220039=
201503181852 METAR KATL 181852Z VRB04KT 10SM FEW120 SCT150 BKN250 22/03 A3007 RMK AO2 SLP178 T02170033=
201503181752 METAR KATL 181752Z 17010KT 10SM FEW120 BKN130 BKN250 21/04 A3010 RMK AO2 SLP188 VIRGA SE-S T02110039 10217 20133 58006=
201503181652 METAR KATL 181652Z 14005KT 10SM BKN130 BKN180 BKN250 21/04 A3012 RMK AO2 SLP192 VIRGA W T02060039=
201503181552 METAR KATL 181552Z 13009KT 10SM BKN140 BKN180 BKN250 19/06 A3013 RMK AO2 SLP196 T01940056=
201503181452 METAR KATL 181452Z 09011G15KT 10SM FEW150 SCT200 BKN250 18/06 A3012 RMK AO2 SLP194 ACC DSNT S-SW T01830056 51013=
201503181352 METAR KATL 181352Z COR 07007KT 10SM FEW150 SCT200 SCT250 17/08 A3011 RMK AO2 SLP191 ACC DSNT E-SE-S & SW-NW T01720078=
201503181252 METAR KATL 181252Z 35005KT 10SM SCT150 BKN250 14/07 A3010 RMK AO2 SLP190 ACC VC SE-SW T01390072=
201503181152 METAR KATL 181152Z 33005KT 10SM SCT140 SCT200 BKN250 13/08 A3008 RMK AO2 SLP182 T01330078 10172 20133 53016=
201503181052 METAR KATL 181052Z 34005KT 10SM BKN200 14/08 A3007 RMK AO2 SLP175 T01390078=
201503180952 METAR KATL 180952Z 34006KT 10SM BKN220 14/08 A3005 RMK AO2 SLP168 T01440083=
201503180852 METAR KATL 180852Z COR 35007KT 10SM BKN250 15/09 A3004 RMK AO2 SLP165 T01500094 51003=
201503180752 METAR KATL 180752Z 33006KT 10SM BKN250 15/10 A3003 RMK AO2 SLP164 T01500100=
201503180652 METAR KATL 180652Z 32005KT 10SM FEW200 SCT250 16/10 A3004 RMK AO2 SLP165 T01560100=
201503180552 METAR KATL 180552Z 33004KT 10SM FEW180 SCT250 17/09 A3003 RMK AO2 SLP161 T01720094 10239 20172 51002=
201503180452 METAR KATL 180452Z 34007KT 10SM SCT250 18/11 A3002 RMK AO2 SLP159 T01830106 402670150=
201503180352 METAR KATL 180352Z 34008KT 10SM BKN250 19/11 A3003 RMK AO2 SLP163 T01940111=
201503180252 METAR KATL 180252Z 34010KT 10SM SCT250 21/11 A3002 RMK AO2 SLP159 T02060111 53016=
201503180152 METAR KATL 180152Z 32008KT 10SM FEW200 BKN250 21/11 A3000 RMK AO2 SLP153 T02110111=
201503180052 METAR KATL 180052Z 30007KT 10SM FEW200 BKN250 22/11 A2998 RMK AO2 SLP147 T02170111=
201503172352 METAR KATL 172352Z 31011KT 10SM FEW200 BKN250 24/11 A2997 RMK AO2 SLP143 T02390111 10267 20233 53012=
201503172252 METAR KATL 172252Z 32011KT 10SM FEW060 BKN250 25/10 A2995 RMK AO2 SLP136 T02500100=
201503172152 METAR KATL 172152Z 30014G18KT 10SM FEW060 BKN250 25/11 A2994 RMK AO2 SLP131 T02500111=
201503172052 METAR KATL 172052Z 33015G21KT 10SM FEW055 SCT200 SCT250 26/11 A2994 RMK AO2 SLP130 T02610111 56015=
201503171952 METAR KATL 171952Z 30015G21KT 10SM FEW050 SCT200 BKN250 26/12 A2995 RMK AO2 SLP134 T02560122=
201503171852 METAR KATL 171852Z 31017G21KT 10SM FEW050 SCT200 SCT250 25/11 A2996 RMK AO2 SLP137 T02500111=
201503171752 METAR KATL 171752Z 31013G21KT 10SM FEW043 SCT200 SCT250 23/12 A2998 RMK AO2 SLP146 T02330117 10239 20150 58007=
201503171652 METAR KATL 171652Z 32015G21KT 10SM SCT040 SCT250 23/12 A2999 RMK AO2 SLP151 T02330117=
201503171552 METAR KATL 171552Z 31016G22KT 10SM SCT034 SCT250 22/12 A2999 RMK AO2 SLP151 T02170122=
201503171452 METAR KATL 171452Z 29012G17KT 10SM FEW030 SCT200 SCT250 21/13 A3000 RMK AO2 SLP153 T02060128 58002=
201503171352 METAR KATL 171352Z 29011G17KT 10SM FEW250 19/11 A3001 RMK AO2 SLP157 T01890111=
201503171252 METAR KATL 171252Z 29008KT 10SM FEW150 SCT250 17/10 A3001 RMK AO2 SLP155 T01670100=
201503171152 METAR KATL 171152Z 28006KT 10SM FEW150 BKN250 16/09 A3001 RMK AO2 SLP156 T01560089 10178 20150 53000=
201503171052 METAR KATL 171052Z 29009KT 10SM SCT250 15/08 A3001 RMK AO2 SLP154 T01500078=
201503170952 METAR KATL 170952Z 28007KT 10SM FEW250 16/07 A3001 RMK AO2 SLP154 T01560072=
201503170852 METAR KATL 170852Z 28006KT 10SM CLR 16/06 A3001 RMK AO2 SLP155 T01560056 58013=
201503170752 METAR KATL 170752Z 26003KT 10SM CLR 16/04 A3003 RMK AO2 SLP161 T01610039=
201503170652 METAR KATL 170652Z 28004KT 10SM CLR 17/03 A3004 RMK AO2 SLP163 T01720028=
201503170552 METAR KATL 170552Z 28005KT 10SM FEW250 17/02 A3005 RMK AO2 SLP167 T01720017 10244 20167 58011=
201503170452 METAR KATL 170452Z 28005KT 10SM FEW250 18/01 A3006 RMK AO2 SLP173 T01780011 402830089=
201503170352 METAR KATL 170352Z 26003KT 10SM FEW250 18/00 A3007 RMK AO2 SLP177 T01830000=
201503170252 METAR KATL 170252Z 29006KT 10SM FEW250 20/M02 A3008 RMK AO2 SLP180 T02001022 51005=
201503170152 METAR KATL 170152Z 28006KT 10SM SCT250 22/M03 A3008 RMK AO2 SLP181 T02171033=
201503170052 METAR KATL 170052Z 27005KT 10SM SCT250 22/M03 A3007 RMK AO2 SLP179 T02221033=
201503162352 METAR KATL 162352Z 27005KT 10SM BKN250 24/M05 A3006 RMK AO2 SLP177 T02391050 10283 20233 56011=
201503162252 METAR KATL 162252Z 24004KT 10SM BKN250 27/M04 A3006 RMK AO2 SLP175 T02671044=
201503162152 METAR KATL 162152Z 29007KT 10SM BKN250 28/M03 A3008 RMK AO2 SLP181 T02781033=
201503162052 METAR KATL 162052Z VRB06KT 10SM FEW250 28/M03 A3010 RMK AO2 SLP187 T02781033 56024=
201503161952 METAR KATL 161952Z 32007KT 10SM SCT250 27/M04 A3011 RMK AO2 SLP191 T02721039=
201503161852 METAR KATL 161852Z VRB04KT 10SM BKN250 27/M02 A3014 RMK AO2 SLP201 T02671022=
201503161752 METAR KATL 161752Z 32006KT 10SM FEW250 26/M01 A3017 RMK AO2 SLP212 T02611011 10261 20089 58010=
201503161652 METAR KATL 161652Z 34005KT 10SM FEW250 24/M01 A3019 RMK AO2 SLP218 T02441006=
201503161552 METAR KATL 161552Z 29004KT 10SM FEW250 22/04 A3020 RMK AO2 SLP220 T02220044=
201503161452 METAR KATL 161452Z 30006KT 10SM FEW250 19/04 A3020 RMK AO2 SLP224 T01890044 56003=
201503161352 METAR KATL 161352Z 32007KT 10SM FEW250 14/05 A3021 RMK AO2 SLP228 T01390050=
201503161252 METAR KATL 161252Z 30006KT 10SM SCT250 11/04 A3020 RMK AO2 SLP224 T01060044=
201503161152 METAR KATL 161152Z 32005KT 10SM FEW250 09/03 A3021 RMK AO2 SLP228 T00940028 10133 20089 53004=
201503161052 METAR KATL 161052Z 33005KT 10SM CLR 09/03 A3021 RMK AO2 SLP227 T00940028=
201503160952 METAR KATL 160952Z 34008KT 10SM CLR 10/03 A3020 RMK AO2 SLP221 T01000028=
201503160852 METAR KATL 160852Z 32008KT 10SM CLR 09/03 A3020 RMK AO2 SLP223 T00890028 53000=
201503160752 METAR KATL 160752Z 29004KT 10SM CLR 11/02 A3019 RMK AO2 SLP221 T01060022=
201503160652 METAR KATL 160652Z 29005KT 10SM CLR 12/02 A3019 RMK AO2 SLP220 T01220017=
201503160552 METAR KATL 160552Z 00000KT 10SM CLR 11/02 A3020 RMK AO2 SLP222 T01110022 10217 20106 56007=
201503160452 METAR KATL 160452Z 29006KT 10SM CLR 14/01 A3020 RMK AO2 SLP223 T01390011 402500133=
201503160352 METAR KATL 160352Z 32004KT 10SM FEW250 16/00 A3021 RMK AO2 SLP226 T01610000=
201503160252 METAR KATL 160252Z 34008KT 10SM FEW250 17/01 A3022 RMK AO2 SLP229 T01670006 51014=
201503160152 METAR KATL 160152Z 34009KT 10SM FEW250 18/00 A3022 RMK AO2 SLP229 T01830000=
201503160052 METAR KATL 160052Z 34008KT 10SM FEW200 SCT250 19/M01 A3020 RMK AO2 SLP224 T01941006=
201503152352 METAR KATL 152352Z 32007KT 10SM FEW200 SCT250 21/00 A3018 RMK AO2 SLP214 T02110000 10250 20211 53004=
201503152252 METAR KATL 152252Z 34006KT 10SM SCT200 SCT250 24/02 A3016 RMK AO2 SLP207 T02390017=
201503152152 METAR KATL 152152Z 32009G16KT 10SM FEW200 SCT250 25/02 A3015 RMK AO2 SLP203 T02500022=
201503152052 METAR KATL 152052Z 31006KT 10SM SCT250 24/04 A3016 RMK AO2 SLP208 T02440039 58016=
201503151952 METAR KATL 151952Z 33009KT 10SM BKN250 23/04 A3018 RMK AO2 SLP214 T02330044=
201503151852 METAR KATL 151852Z 33009KT 10SM BKN250 22/05 A3020 RMK AO2 SLP222 T02220050=
201503151752 METAR KATL 151752Z 35010KT 10SM BKN250 22/06 A3021 RMK AO2 SLP226 T02220061 10222 20133 58009=
201503151652 METAR KATL 151652Z 35009KT 10SM BKN250 21/06 A3022 RMK AO2 SLP231 T02060061=
201503151552 METAR KATL 151552Z 32008KT 10SM BKN250 18/08 A3023 RMK AO2 SLP233 T01830083=
201503151452 METAR KATL 151452Z 30007KT 10SM FEW120 BKN250 17/10 A3024 RMK AO2 SLP237 T01670100 51020=
201503151352 METAR KATL 151352Z 31007KT 10SM FEW035 BKN250 14/11 A3023 RMK AO2 SLP233 T01440111=
201503151252 METAR KATL 151252Z 32009KT 10SM FEW035 BKN250 13/11 A3021 RMK AO2 SLP228 T01330111=
201503151152 METAR KATL 151152Z 31007KT 10SM BKN035 BKN250 13/12 A3018 RMK AO2 SLP216 70001 T01330117 10156 20133 51019=
201503151052 METAR KATL 151052Z 30006KT 10SM SCT250 14/12 A3016 RMK AO2 SLP210 T01390117=
201503150952 METAR KATL 150952Z 33008KT 10SM FEW009 SCT032 SCT250 14/13 A3014 RMK AO2 SLP202 T01440128=
201503150852 METAR KATL 150852Z 32008KT 10SM FEW008 BKN032 16/14 A3012 RMK AO2 SLP195 T01560139 53008=
201503150752 METAR KATL 150752Z 33006KT 7SM SCT007 BKN024 15/14 A3011 RMK AO2 SLP193 T01500139=
201503150703 SPECI KATL 150703Z 31011KT 8SM BKN008 14/13 A3011 RMK AO2=
201503150652 METAR KATL 150652Z 31007KT 10SM SCT013 14/13 A3010 RMK AO2 SLP190 T01390128=
201503150552 METAR KATL 150552Z 27003KT 10SM FEW013 SCT250 15/13 A3010 RMK AO2 SLP189 T01500133 10189 20150 58003=
201503150505 SPECI KATL 150505Z 30005KT 10SM SCT013 SCT120 SCT250 15/13 A3009 RMK AO2=
201503150452 METAR KATL 150452Z 30005KT 10SM BKN013 BKN120 BKN250 15/13 A3010 RMK AO2 SLP191 CIG 011V015 T01500133 402110083=
201503150352 METAR KATL 150352Z 30005KT 10SM FEW120 SCT150 SCT250 16/13 A3011 RMK AO2 SLP194 T01560128=
201503150252 METAR KATL 150252Z 31005KT 10SM FEW042 BKN120 BKN250 16/13 A3010 RMK AO2 SLP193 T01610133 51016=
201503150152 METAR KATL 150152Z 26003KT 10SM FEW044 SCT250 17/14 A3009 RMK AO2 SLP188 T01720139=
201503150052 METAR KATL 150052Z 27005KT 10SM BKN044 BKN200 BKN250 18/14 A3008 RMK AO2 SLP183 T01780139=
201503142352 METAR KATL 142352Z 27005KT 10SM SCT033 BKN044 BKN200 BKN250 18/13 A3006 RMK AO2 SLP176 T01830133 10211 20156 53008=
201503142252 METAR KATL 142252Z 25008KT 10SM FEW028 SCT044 BKN200 BKN250 21/13 A3004 RMK AO2 SLP171 T02060128=
201503142152 METAR KATL 142152Z 26008KT 10SM SCT022 BKN038 BKN200 21/14 A3003 RMK AO2 SLP168 T02060144=
201503142052 METAR KATL 142052Z 24008KT 10SM SCT020 BKN034 20/14 A3003 RMK AO2 SLP167 T02000144 56015=
201503142030 SPECI KATL 142030Z 23007KT 10SM SCT019 BKN034 BKN250 19/14 A3003 RMK AO2=
201503141952 METAR KATL 141952Z 24008KT 9SM BKN015 18/14 A3004 RMK AO2 SLP170 T01830144=
201503141945 SPECI KATL 141945Z 26009KT 8SM OVC015 18/14 A3004 RMK AO2=
201503141852 METAR KATL 141852Z 24007KT 8SM OVC010 18/14 A3005 RMK AO2 SLP174 T01780144=
201503141801 SPECI KATL 141801Z 23006KT 7SM OVC007 16/14 A3007 RMK AO2=
201503141752 METAR KATL 141752Z 24007KT 2SM OVC006 15/13 A3008 RMK AO2 SFC VIS 7 SLP186 60001 T01500133 10156 20083 56009=
201503141708 SPECI KATL 141708Z 22003KT 2SM BR OVC005 14/13 A3009 RMK AO2 SFC VIS 5=
201503141652 METAR KATL 141652Z 00000KT 1SM BR OVC002 13/12 A3009 RMK AO2 SFC VIS 2 SLP190 TWRINC T01280122=
201503141552 METAR KATL 141552Z 17004KT 1/4SM R09R/4000VP6000FT BR OVC002 12/11 A3009 RMK AO2 SFC VIS 1 DZE51 SLP191 P0000 T01170111=
201503141452 METAR KATL 141452Z 00000KT 1/4SM R09R/3000V4000FT -DZ BR OVC002 10/09 A3011 RMK AO2 SFC VIS 3/4 SLP196 P0000 60001 T01000094 50003=
201503141352 METAR KATL 141352Z 11003KT 1/4SM R09R/3500V5000FT -DZ FG OVC002 09/09 A3011 RMK AO2 SFC VIS 1/2 SLP198 P0000 T00940089=
201503141252 METAR KATL 141252Z 00000KT 1/4SM R09R/2800V4500FT -DZ FG VV002 09/08 A3010 RMK AO2 SFC VIS 1/2 SLP195 PCPN VRY LGT P0001 T00890083=
201503141152 METAR KATL 141152Z 14005KT 1/4SM R09R/4000V5000FT -DZ FG VV002 08/08 A3010 RMK AO2 SFC VIS 1/2 RAE44DZB44 SLP195 P0001 60005 70019 T00830078 10083 20083 53003=
201503141145 SPECI KATL 141145Z 11005KT 1/4SM R09R/4000VP6000FT -DZ FG VV002 08/08 A3009 RMK AO2 SFC VIS 1/2 RAE44DZB44 P0001=
201503141052 METAR KATL 141052Z VRB03KT 3/4SM -RA BR OVC003 08/08 A3009 RMK AO2 SFC VIS 1 1/2 SLP191 P0003 T00830078=
201503140952 METAR KATL 140952Z 09008KT 3/4SM -RA BR OVC003 08/07 A3008 RMK AO2 SFC VIS 3 RAE28B52 SLP189 TWRINC P0000 T00830072=
201503140852 METAR KATL 140852Z 09009KT 3/4SM -RA BR OVC003 08/07 A3009 RMK AO2 SFC VIS 4 RAB17 SLP192 TWRINC P0000 60001 T00830072 57023=
201503140752 METAR KATL 140752Z 08011KT 3/4SM BR OVC003 08/07 A3010 RMK AO2 SFC VIS 2 1/2 RAE24B42E46DZB24E42 SLP197 TWRINC P0001 T00830072=
201503140652 METAR KATL 140652Z 09009KT 3/4SM -RA BR OVC003 08/07 A3014 RMK AO2 SFC VIS 1 1/2 DZB23E33RAB33 SLP210 CIG 002V004 P0000 T00830072=
201503140552 METAR KATL 140552Z 09010KT 3/4SM BR OVC004 08/07 A3016 RMK AO2 SFC VIS 6 DZE42 SLP215 CIG 003V005 P0000 60000 T00830072 10083 20078 58015=
201503140452 METAR KATL 140452Z 08012KT 3/4SM R09R/5000V5500FT -DZ BR OVC002 08/07 A3018 RMK AO2 SFC VIS 1 SLP221 P0000 T00830072 401440078=
201503140352 METAR KATL 140352Z 09010KT 3/4SM -DZ BR OVC003 08/07 A3020 RMK AO2 SFC VIS 1 3/4 SLP228 P0000 T00830072=
201503140252 METAR KATL 140252Z 09012KT 3/4SM R09R/5000VP6000FT -DZ BR OVC002 08/07 A3021 RMK AO2 SFC VIS 1 SLP231 P0000 60000 T00830072 58014=
201503140152 METAR KATL 140152Z 09012KT 3/4SM -DZ BR OVC003 08/07 A3023 RMK AO2 SFC VIS 2 1/2 RAB42E51 SLP240 CIG 002V004 P0000 T00780067=
201503140052 METAR KATL 140052Z 09011KT 3/4SM -DZ BR OVC004 08/07 A3025 RMK AO2 SFC VIS 2 SLP247 CIG 002V005 P0000 T00780067=
201503140000 SPECI KATL 140000Z 10011KT 050V110 3/4SM -DZ BR OVC004 08/07 A3025 RMK AO2 SFC VIS 2 1/2 P0000=
201503132352 METAR KATL 132352Z 09012KT 1 1/4SM -DZ BR OVC004 08/07 A3025 RMK AO2 SFC VIS 3 DZB05 SLP246 P0000 60000 T00780067 10089 20078 55002=
201503132315 SPECI KATL 132315Z 09014G18KT 2SM -DZ BR OVC005 08/07 A3024 RMK AO2 SFC VIS 4 DZB05 CIG 004V006 P0000=
201503132252 METAR KATL 132252Z 10011G18KT 3SM OVC005 08/06 A3024 RMK AO2 SFC VIS 8 DZE28 SLP242 CIG 004V006 P0000 T00780061=
201503132152 METAR KATL 132152Z 09012KT 2SM -DZ BR OVC005 08/07 A3024 RMK AO2 SFC VIS 5 SLP241 CIG 004V007 P0000 T00780067=
201503132134 SPECI KATL 132134Z 08015KT 2SM -DZ BR OVC005 08/06 A3024 RMK AO2 SFC VIS 5 CIG 004V007 P0000=
201503132052 METAR KATL 132052Z 09012G18KT 3SM -DZ BR OVC007 08/07 A3026 RMK AO2 SFC VIS 4 DZB02 SLP247 P0000 60000 T00830067 56026=
201503132038 SPECI KATL 132038Z 10011KT 3SM -DZ BR OVC007 09/07 A3027 RMK AO2 SFC VIS 5 DZB02 P0000=
201503131952 METAR KATL 131952Z 09014KT 8SM OVC007 08/07 A3027 RMK AO2 SLP250 T00830067=
201503131852 METAR KATL 131852Z 09013G19KT 6SM BR OVC006 09/07 A3030 RMK AO2 DZE33 SLP260 P0000 T00890067=
201503131752 METAR KATL 131752Z 10013G20KT 2SM -DZ BR OVC005 08/07 A3034 RMK AO2 SFC VIS 5 SLP274 P0000 60014 T00830067 10100 20078 58011=
201503131652 METAR KATL 131652Z 08018G26KT 2SM -DZ BR BKN005 BKN010 OVC020 08/06 A3036 RMK AO2 PK WND 08026/1647 SFC VIS 5 SLP282 P0000 T00780061=
201503131608 SPECI KATL 131608Z 09015G23KT 2SM -DZ BR BKN005 BKN010 OVC020 08/07 A3036 RMK AO2 SFC VIS 3 P0000=
201503131552 METAR KATL 131552Z 08014KT 6SM -DZ BR BKN005 BKN010 OVC020 08/07 A3037 RMK AO2 RAB03E12DZB49 SLP285 P0000 T00830067=
201503131454 SPECI KATL 131454Z 09015KT 7SM FEW005 BKN010 OVC020 08/06 A3037 RMK AO2=
201503131452 METAR KATL 131452Z 09017KT 3SM BR FEW007 BKN010 OVC020 08/06 A3037 RMK AO2 SFC VIS 6 RAE43 SLP286 P0002 60014 T00830061 50005=
201503131403 SPECI KATL 131403Z 09019G22KT 3SM -RA BR FEW007 BKN010 OVC020 08/06 A3038 RMK AO2 SFC VIS 5 P0000=
201503131352 METAR KATL 131352Z 08016KT 3SM -RA BR OVC010 08/07 A3038 RMK AO2 SFC VIS 5 SLP288 P0011 T00830067=
201503131259 SPECI KATL 131259Z 09015G20KT 3SM RA BR FEW008 BKN012 OVC022 09/07 A3037 RMK AO2 P0002=
201503131252 METAR KATL 131252Z 09013KT 6SM -RA BR FEW010 SCT014 OVC024 09/07 A3037 RMK AO2 SLP284 P0001 T00890067=
201503131152 METAR KATL 131152Z 09020G24KT 10SM -RA FEW016 OVC024 10/06 A3035 RMK AO2 RAB01E15B49 SLP278 PCPN VRY LGT P0000 60001 70007 T01000061 10139 20100 53009=
201503131052 METAR KATL 131052Z 10012KT 10SM OVC026 11/07 A3034 RMK AO2 RAB21E51 SLP273 P0000 T01110067=
201503130952 METAR KATL 130952Z 09015KT 10SM OVC028 12/07 A3033 RMK AO2 RAE06 SLP269 P0000 T01170072=
201503130920 SPECI KATL 130920Z 09013KT 10SM OVC028 12/08 A3032 RMK AO2 RAE06 P0000=
201503130852 METAR KATL 130852Z 08014KT 10SM -RA OVC030 12/09 A3033 RMK AO2 RAB39 SLP268 P0000 60001 T01220089 56004=
201503130752 METAR KATL 130752Z 08015KT 10SM FEW012 OVC026 13/11 A3033 RMK AO2 RAE33 SLP269 P0000 T01280106=
201503130652 METAR KATL 130652Z 08015KT 7SM -RA SCT007 OVC016 14/12 A3033 RMK AO2 DZE20B36E48RAB20 SLP269 CIG 014V018 P0001 T01390117=
201503130552 METAR KATL 130552Z 09012KT 3SM -DZ BR OVC007 14/13 A3034 RMK AO2 SLP271 RAE30DZB30 CIG 005V009 P0000 60002 T01390128 10172 20139 55002=
201503130458 SPECI KATL 130458Z 09016KT 6SM -RA BR BKN008 OVC013 14/13 A3033 RMK AO2 CIG 007V010 P0000=
201503130452 METAR KATL 130452Z 09013KT 9SM -RA OVC010 14/13 A3034 RMK AO2 SLP270 CIG 007V013 P0000 T01440128 402000144=
201503130422 SPECI KATL 130422Z 08014KT 9SM -RA BKN013 OVC020 14/12 A3034 RMK AO2 P0000=
201503130352 METAR KATL 130352Z 08017KT 10SM -RA BKN018 OVC025 14/12 A3034 RMK AO2 RAE0258B28 SLP272 P0000 T01440122=
201503130252 METAR KATL 130252Z 08014KT 10SM -RA BKN020 OVC050 14/12 A3035 RMK AO2 SLP273 P0001 60002 T01440117 53010=
201503130211 SPECI KATL 130211Z 08013KT 10SM -RA BKN023 BKN060 OVC110 14/12 A3035 RMK AO2 P0001=
201503130152 METAR KATL 130152Z 08011KT 9SM -RA FEW030 BKN085 OVC120 14/12 A3034 RMK AO2 SLP271 P0000 T01440117=
201503130052 METAR KATL 130052Z 07013KT 10SM -RA FEW030 SCT070 BKN120 OVC150 15/11 A3032 RMK AO2 SLP265 P0001 T01500111=
201503122352 METAR KATL 122352Z 07011G18KT 10SM -RA SCT035 BKN080 OVC150 17/11 A3031 RMK AO2 RAB39 SLP263 P0000 60004 T01670106 10200 20167 53009=
201503122252 METAR KATL 122252Z 06011KT 10SM FEW030 SCT080 BKN120 OVC200 17/11 A3030 RMK AO2 RAB2153E04 SLP258 P0000 T01670111=
201503122152 METAR KATL 122152Z 06013KT 10SM FEW030 BKN085 BKN120 OVC200 17/12 A3028 RMK AO2 RAE44 SLP250 P0003 T01720122=
201503122122 SPECI KATL 122122Z 08014KT 10SM -RA SCT028 BKN085 OVC120 17/12 A3028 RMK AO2 P0003=
201503122052 METAR KATL 122052Z 07012KT 8SM -RA OVC027 18/12 A3029 RMK AO2 RAB40 SLP252 P0001 60001 T01830122 55007=
201503121952 METAR KATL 121952Z 08011KT 10SM BKN020 OVC025 19/13 A3028 RMK AO2 SLP251 T01940128=
201503121852 METAR KATL 121852Z 08013KT 10SM OVC020 19/13 A3029 RMK AO2 SLP252 T01890133=
201503121752 METAR KATL 121752Z 07012KT 10SM OVC018 19/14 A3031 RMK AO2 SLP260 T01890139 10194 20150 56007=
201503121652 METAR KATL 121652Z 09014KT 10SM BKN018 OVC025 19/14 A3032 RMK AO2 SLP263 T01890139=
201503121552 METAR KATL 121552Z 10012KT 10SM BKN018 BKN027 OVC060 19/14 A3032 RMK AO2 SLP262 T01890139=
201503121452 METAR KATL 121452Z 08014KT 10SM SCT012 BKN025 OVC030 18/14 A3033 RMK AO2 SLP266 T01830144 53014=
201503121410 SPECI KATL 121410Z 10007KT 10SM BKN010 BKN020 OVC030 17/15 A3032 RMK AO2=
201503121352 METAR KATL 121352Z COR 10012KT 9SM FEW005 BKN010 BKN020 17/15 A3031 RMK AO2 SLP260 T01720150=
201503121318 SPECI KATL 121318Z 08012KT 3SM BR OVC006 17/15 A3030 RMK AO2 SFC VIS 5=
201503121252 METAR KATL 121252Z 07010G18KT 1 1/2SM BR OVC005 16/14 A3029 RMK AO2 SFC VIS 5 SLP254 CIG 004V007 T01610144=
201503121246 SPECI KATL 121246Z 09010KT 1 1/2SM BR OVC005 16/14 A3029 RMK AO2 SFC VIS 5 CIG 004V007=
201503121214 SPECI KATL 121214Z 09009KT 1 1/2SM BR BKN003 BKN150 BKN200 BKN250 15/14 A3027 RMK AO2 SFC VIS 2 1/2 CIG 002V004=
201503121152 METAR KATL 121152Z 08010KT 1/4SM BR OVC003 16/14 A3026 RMK AO2 SFC VIS 3 SLP243 CIG 002V004 BINOVC TWRINC 70003 T01560144 10161 20150 51009=
201503121128 SPECI KATL 121128Z 08009KT 1/4SM BR OVC003 16/14 A3026 RMK AO2 SFC VIS 4 CIG 002V004 TWRINC=
201503121111 SPECI KATL 121111Z 07008KT 1SM BKN004 BKN150 BKN200 BKN250 16/14 A3026 RMK AO2 SFC VIS 7 CIG 003V005 TWRINC=
201503121103 SPECI KATL 121103Z 06009KT 1SM BKN005 BKN150 BKN200 BKN250 16/14 A3025 RMK AO2 SFC VIS 8 CIG 004V006 TWRINC=
201503121052 METAR KATL 121052Z 06010KT 9SM BKN008 BKN150 BKN200 BKN250 16/14 A3026 RMK AO2 SLP241 T01560139=
201503120952 METAR KATL 120952Z 05007KT 10SM FEW008 SCT150 SCT200 SCT250 16/14 A3024 RMK AO2 SLP234 T01610144=
201503120852 METAR KATL 120852Z 01005KT 10SM FEW004 SCT150 SCT250 16/14 A3023 RMK AO2 SLP232 T01560144 50001=
201503120752 METAR KATL 120752Z 35005KT 9SM MIFG FEW002 SCT150 SCT200 SCT250 15/14 A3024 RMK AO2 SLP235 T01500139=
201503120652 METAR KATL 120652Z 35003KT 10SM FEW002 SCT150 SCT200 SCT250 16/15 A3022 RMK AO2 SLP230 T01560150=
201503120607 SPECI KATL 120607Z 00000KT 9SM R09R/2800VP6000FT MIFG FEW002 SCT150 SCT200 SCT250 15/14 A3023 RMK AO2=
201503120552 METAR KATL 120552Z 00000KT 10SM SCT150 BKN200 BKN250 16/15 A3023 RMK AO2 SLP231 T01610150 10194 20156 50002=
201503120452 METAR KATL 120452Z 22003KT 10SM FEW200 BKN250 17/15 A3023 RMK AO2 SLP232 T01670150 402220144=
201503120352 METAR KATL 120352Z 00000KT 10SM FEW200 BKN250 17/16 A3023 RMK AO2 SLP232 T01720156=
201503120252 METAR KATL 120252Z 35005KT 10SM FEW015 BKN200 BKN250 18/16 A3022 RMK AO2 SLP229 T01830156 51014=
201503120152 METAR KATL 120152Z 32004KT 10SM FEW015 BKN200 BKN250 19/17 A3022 RMK AO2 SLP228 T01890167=
201503120052 METAR KATL 120052Z 28003KT 10SM FEW090 SCT200 BKN250 19/17 A3020 RMK AO2 SLP223 T01940167=
201503112352 METAR KATL 112352Z 00000KT 10SM FEW090 BKN200 BKN250 19/17 A3018 RMK AO2 SLP216 60002 T01940167 10217 20194 53007=
201503112252 METAR KATL 112252Z 29004KT 10SM BKN090 BKN150 BKN250 21/17 A3017 RMK AO2 SLP213 T02060167=
201503112152 METAR KATL 112152Z 26006KT 10SM FEW015 BKN080 BKN150 OVC250 21/17 A3016 RMK AO2 RAB31E40 SLP208 P0000 T02060167=
201503112052 METAR KATL 112052Z 27008KT 10SM FEW017 SCT060 BKN080 OVC250 21/17 A3016 RMK AO2 RAE34 SLP207 SHRA DSNT NE-E-SE P0000 60002 T02060172 55004=
201503111952 METAR KATL 111952Z 26006KT 10SM -RA FEW020 BKN060 OVC070 21/18 A3015 RMK AO2 RAB10 SLP206 P0000 T02060178=
201503111852 SPECI KATL 111852Z 26008KT 10SM FEW017CB BKN020TCU OVC080 21/18 A3016 RMK AO2 RAE46 SLP208 CB NE MOV NE TCU S-SW & NW SHRA NE & S-SW P0002 T02060183=
201503111852 METAR KATL 111852Z 26008KT 10SM FEW017CB BKN020TCU OVC080 21/18 A3016 RMK AO2 RAE46 SLP208 CB NE MOV NE TCU S-SW & NW SHRA NE & S-SW P0002 T02060183=
201503111834 SPECI KATL 111834Z 22007KT 4SM R09R/5500VP6000FT RA BKN017CB BKN030 OVC080 21/18 A3016 RMK AO2 CB OHD-N MOV NE P0001=
201503111752 METAR KATL 111752Z 20006KT 10SM -RA FEW020CB BKN030 OVC080 21/17 A3017 RMK AO2 RAB12 SLP210 CB SW MOV NE P0001 60001 T02110172 10222 20144 58001=
201503111729 SPECI KATL 111729Z 21008KT 8SM -RA SCT020CB BKN030 OVC080 22/17 A3017 RMK AO2 RAB12 CB NE & SW & NW MOV NE P0000=
201503111710 SPECI KATL 111710Z 22008KT 10SM SCT020CB BKN030 OVC040 22/17 A3018 RMK AO2 CB SW-NW MOV NE SHRA SW-NW=
201503111652 METAR KATL 111652Z 22013G18KT 10SM BKN020CB BKN040 OVC150 22/17 A3018 RMK AO2 SLP214 CB SW-NW MOV NE SHRA VC SW-NW T02170167=
201503111552 METAR KATL 111552Z 22010KT 10SM BKN020 BKN030 OVC150 22/16 A3018 RMK AO2 SLP212 T02170161=
201503111525 SPECI KATL 111525Z 22008KT 10SM BKN018 BKN150 BKN250 22/16 A3017 RMK AO2=
201503111452 METAR KATL 111452Z 21010KT 10SM FEW020 SCT090 BKN140 BKN250 21/16 A3017 RMK AO2 SLP212 T02060156 53012=
201503111352 METAR KATL 111352Z 22006KT 10SM FEW100 SCT150 BKN200 18/16 A3016 RMK AO2 SLP206 T01830156=
201503111252 METAR KATL 111252Z 20005KT 8SM FEW100 SCT150 BKN200 BKN250 16/15 A3014 RMK AO2 SLP201 T01610150=
201503111152 METAR KATL 111152Z 00000KT 9SM FEW100 SCT170 BKN250 14/13 A3014 RMK AO2 SLP199 T01440133 10183 20144 53004=
201503111052 METAR KATL 111052Z COR 00000KT 10SM FEW100 SCT150 BKN250 15/13 A3013 RMK AO2 SLP198 T01500133=
201503110952 METAR KATL 110952Z 20004KT 10SM FEW015 SCT100 16/13 A3012 RMK AO2 SLP192 T01560133=
201503110852 METAR KATL 110852Z 22004KT 10SM FEW015 SCT100 SCT250 16/13 A3012 RMK AO2 SLP195 T01610128 58003=
201503110752 METAR KATL 110752Z 22003KT 10SM FEW055 SCT120 BKN250 16/13 A3013 RMK AO2 SLP197 T01610128=
201503110652 METAR KATL 110652Z 00000KT 10SM FEW055 SCT080 BKN250 17/12 A3014 RMK AO2 SLP199 T01670122=
201503110552 METAR KATL 110552Z 26004KT 10SM FEW020 SCT055 BKN250 18/12 A3013 RMK AO2 SLP198 T01830122 10239 20178 51007=
201503110452 METAR KATL 110452Z 23005KT 10SM SCT060 BKN250 19/12 A3013 RMK AO2 SLP197 T01940122 402610139=
201503110352 METAR KATL 110352Z 20009KT 10SM SCT060 BKN080 BKN250 21/12 A3012 RMK AO2 SLP194 T02110122=
201503110252 METAR KATL 110252Z 18005KT 10SM BKN060 BKN250 20/12 A3011 RMK AO2 SLP192 T02000122 51010=
201503110152 METAR KATL 110152Z 19004KT 10SM BKN065 BKN250 22/12 A3011 RMK AO2 SLP190 T02170122=
201503110052 METAR KATL 110052Z 17005KT 10SM BKN075 BKN250 22/12 A3009 RMK AO2 SLP184 T02220117=
201503102352 METAR KATL 102352Z 19005KT 10SM BKN070 BKN090 24/11 A3008 RMK AO2 SLP180 T02390111 10261 20228 53005=
201503102252 METAR KATL 102252Z 21008KT 10SM BKN065 BKN080 BKN110 26/11 A3006 RMK AO2 SLP173 T02560106=
201503102152 METAR KATL 102152Z 23008KT 10SM SCT070 BKN110 BKN250 26/12 A3005 RMK AO2 SLP171 T02610122=
201503102052 METAR KATL 102052Z 24007KT 10SM FEW050 BKN080 BKN110 25/12 A3007 RMK AO2 SLP175 T02500122 56020=
201503101952 METAR KATL 101952Z 23007KT 10SM FEW040 BKN080 BKN110 25/13 A3007 RMK AO2 SLP177 T02500133=
201503101852 METAR KATL 101852Z VRB03KT 10SM FEW030 BKN080 OVC110 23/15 A3010 RMK AO2 SLP186 T02330150=
201503101752 METAR KATL 101752Z 22009KT 180V240 10SM FEW030 BKN080 OVC120 23/14 A3013 RMK AO2 SLP197 BINOVC DSNT SE 60000 T02280144 10228 20144 58009=
201503101652 METAR KATL 101652Z 20011KT 10SM FEW030 SCT070 BKN090 22/15 A3014 RMK AO2 SLP202 T02170150=
201503101552 METAR KATL 101552Z 18007KT 10SM BKN090 BKN110 OVC150 19/14 A3015 RMK AO2 SLP207 T01890139=
201503101452 METAR KATL 101452Z 13005KT 10SM FEW030 SCT090 BKN110 OVC250 16/12 A3015 RMK AO2 RAB40E49 SLP209 SHRA N-NE-E P0000 60000 T01610122 50000=
201503101352 METAR KATL 101352Z 13005KT 10SM BKN100 BKN150 OVC250 15/11 A3016 RMK AO2 SLP212 BINOVC DSNT S T01500106=
201503101252 METAR KATL 101252Z 12006KT 10SM FEW045 OVC110 14/10 A3016 RMK AO2 SLP210 T01440100=
201503101152 METAR KATL 101152Z 13004KT 10SM BKN049 BKN150 14/09 A3015 RMK AO2 SLP209 SHRA NW-N 60000 T01440089 10150 20139 53009=
201503101052 METAR KATL 101052Z 12005KT 10SM FEW046 OVC130 14/08 A3014 RMK AO2 SLP205 T01440083=
201503100952 METAR KATL 100952Z 12006KT 10SM BKN046 BKN060 OVC110 14/08 A3012 RMK AO2 RAB25E40 SLP197 VIRGA ALQDS P0000 T01440083=
201503100852 METAR KATL 100852Z 13005KT 10SM FEW039 BKN050 BKN065 OVC150 14/07 A3013 RMK AO2 SLP199 T01440072 58014=
201503100752 METAR KATL 100752Z 09010KT 10SM BKN039 OVC085 15/07 A3015 RMK AO2 SLP207 T01500072=
201503100652 METAR KATL 100652Z 10008KT 10SM SCT039 BKN048 OVC095 15/07 A3016 RMK AO2 SLP208 T01500072=
201503100552 METAR KATL 100552Z 10007KT 10SM OVC042 15/07 A3017 RMK AO2 SLP214 60000 T01500067 10167 20144 58008=
201503100452 METAR KATL 100452Z 09008KT 10SM BKN045 OVC060 15/07 A3018 RMK AO2 SLP217 T01500067 401890122=
201503100352 METAR KATL 100352Z 09008KT 10SM BKN045 OVC060 15/07 A3019 RMK AO2 SLP221 T01500072=
201503100252 METAR KATL 100252Z 09007KT 10SM BKN055 BKN080 OVC150 15/07 A3019 RMK AO2 SLP223 60000 T01500072 51005=
201503100152 METAR KATL 100152Z 08010KT 10SM SCT040 BKN055 OVC070 15/08 A3018 RMK AO2 RAE18 SLP219 P0000 T01500078=
201503100052 METAR KATL 100052Z 09007KT 10SM -RA BKN040 OVC055 16/08 A3019 RMK AO2 SLP222 P0000 T01560078=
201503092352 METAR KATL 092352Z 06006KT 10SM -RA BKN040 OVC055 16/08 A3018 RMK AO2 SLP217 P0000 60000 T01610083 10189 20156 51004=
201503092252 METAR KATL 092252Z 00000KT 10SM -RA SCT040 BKN055 OVC070 17/07 A3018 RMK AO2 SLP217 P0000 T01670067=
201503092152 METAR KATL 092152Z 21006KT 10SM -RA BKN050 OVC080 17/06 A3018 RMK AO2 RAB06 SLP219 P0000 T01720056=
201503092052 METAR KATL 092052Z 00000KT 10SM BKN060 BKN080 OVC100 19/03 A3017 RMK AO2 SLP212 T01890033 56016=
201503091952 METAR KATL 091952Z 06006KT 10SM FEW050 BKN070 OVC100 18/03 A3017 RMK AO2 SLP214 T01830033=
201503091852 METAR KATL 091852Z 00000KT 10SM FEW050 BKN080 OVC100 18/03 A3019 RMK AO2 SLP220 T01830028=
201503091752 METAR KATL 091752Z VRB05KT 10SM FEW050 BKN100 BKN120 18/03 A3022 RMK AO2 SLP229 T01830033 10183 20128 58009=
201503091652 METAR KATL 091652Z 06010KT 10SM FEW050 BKN080 BKN120 17/03 A3023 RMK AO2 SLP235 T01670028=
201503091552 METAR KATL 091552Z 04008KT 10SM BKN055 BKN075 OVC120 16/03 A3024 RMK AO2 SLP239 T01560028=
201503091452 METAR KATL 091452Z 05009KT 10SM FEW050 BKN090 OVC120 15/03 A3024 RMK AO2 SLP239 T01500028 53011=
201503091352 METAR KATL 091352Z 07008KT 10SM FEW060 BKN100 OVC150 14/02 A3023 RMK AO2 SLP235 T01390022=
201503091252 METAR KATL 091252Z 06007KT 10SM FEW090 BKN120 OVC150 14/02 A3021 RMK AO2 SLP228 T01390022=
201503091152 METAR KATL 091152Z 02004KT 10SM FEW085 OVC100 14/02 A3021 RMK AO2 RAB04E23 SLP227 P0000 60000 T01390017 10144 20122 53012=
201503091052 METAR KATL 091052Z 33004KT 10SM OVC095 12/03 A3020 RMK AO2 SLP223 T01220028=
201503090952 METAR KATL 090952Z 00000KT 10SM OVC100 13/02 A3018 RMK AO2 SLP216 T01330017=
201503090852 METAR KATL 090852Z 07004KT 10SM OVC095 13/02 A3017 RMK AO2 SLP214 60000 T01330017 58015=
201503090752 METAR KATL 090752Z 34003KT 10SM OVC095 14/02 A3021 RMK AO2 RAB11E38 SLP225 P0000 T01390022=
201503090652 METAR KATL 090652Z 02003KT 10SM OVC090 14/01 A3021 RMK AO2 SLP225 T01440006=
201503090552 METAR KATL 090552Z 34009KT 10SM FEW085 BKN100 OVC150 14/00 A3022 RMK AO2 RAB28E46 SLP230 P0000 60000 T01440000 10183 20139 55001=
201503090452 METAR KATL 090452Z 33006KT 10SM FEW080 OVC095 15/M02 A3021 RMK AO2 SLP229 T01501022 402170028=
201503090352 METAR KATL 090352Z 30003KT 10SM FEW075 OVC100 16/M03 A3022 RMK AO2 SLP232 T01611033=
201503090252 METAR KATL 090252Z 32008KT 10SM FEW085 SCT110 OVC150 16/M03 A3022 RMK AO2 SLP232 T01611033 51009=
201503090152 METAR KATL 090152Z 27004KT 10SM SCT090 BKN110 OVC150 17/M06 A3021 RMK AO2 SLP230 T01721056=
201503090052 METAR KATL 090052Z 27005KT 10SM SCT100 BKN150 OVC200 18/M05 A3021 RMK AO2 SLP231 T01781050=
201503082352 METAR KATL 082352Z 22003KT 10SM FEW100 SCT150 BKN200 OVC250 18/M06 A3019 RMK AO2 SLP225 T01831056 10217 20183 55003=
201503082252 METAR KATL 082252Z 24005KT 10SM SCT110 BKN150 BKN200 BKN250 20/M07 A3019 RMK AO2 SLP222 ACC SW-NW T02001072=
201503082152 METAR KATL 082152Z 21005KT 10SM SCT150 BKN200 BKN250 21/M08 A3018 RMK AO2 SLP220 T02111083=
201503082052 METAR KATL 082052Z 23007KT 10SM SCT150 BKN250 22/M07 A3020 RMK AO2 SLP227 T02171067 56023=
201503081952 METAR KATL 081952Z 29004KT 10SM FEW150 SCT250 21/M07 A3021 RMK AO2 SLP229 T02111072=
201503081852 METAR KATL 081852Z VRB04KT 10SM FEW180 SCT250 20/M08 A3025 RMK AO2 SLP241 T02001078=
201503081752 METAR KATL 081752Z VRB03KT 10SM SCT250 18/M08 A3027 RMK AO2 SLP251 T01831083 10189 20028 58021=
201503081652 METAR KATL 081652Z VRB03KT 10SM FEW250 17/M07 A3031 RMK AO2 SLP265 T01721072=
201503081552 METAR KATL 081552Z 30006KT 10SM SCT250 16/M05 A3033 RMK AO2 SLP272 T01561050=
201503081452 METAR KATL 081452Z 30004KT 10SM FEW250 13/M04 A3034 RMK AO2 SLP274 T01331039 53007=
201503081352 METAR KATL 081352Z 00000KT 10SM FEW250 09/M03 A3033 RMK AO2 SLP274 T00941033=
201503081252 METAR KATL 081252Z 30003KT 10SM FEW250 06/M03 A3031 RMK AO2 SLP268 T00611033=
201503081152 METAR KATL 081152Z 00000KT 10SM FEW250 04/M04 A3031 RMK AO2 SLP268 T00391044 10072 20028 53006=
201503081052 METAR KATL 081052Z 30003KT 10SM SCT250 04/M04 A3030 RMK AO2 SLP264 T00391039=
201503080952 METAR KATL 080952Z 32005KT 10SM FEW250 05/M04 A3030 RMK AO2 SLP260 T00501039=
201503080852 METAR KATL 080852Z 00000KT 10SM FEW250 04/M03 A3030 RMK AO2 SLP261 T00391033 56005=
201503080752 METAR KATL 080752Z 00000KT 10SM FEW250 05/M03 A3030 RMK AO2 SLP261 T00501033=
201503080652 METAR KATL 080652Z 00000KT 10SM FEW250 06/M04 A3031 RMK AO2 SLP265 T00611039=
201503080552 METAR KATL 080552Z 00000KT 10SM CLR 06/M03 A3031 RMK AO2 SLP266 T00611033 10144 20061 58009=
201503080452 METAR KATL 080452Z 00000KT 10SM FEW250 08/M04 A3033 RMK AO2 SLP272 T00781044 401721011=
201503080352 METAR KATL 080352Z 32005KT 10SM FEW250 10/M04 A3034 RMK AO2 SLP276 T01001044=
201503080252 METAR KATL 080252Z 30004KT 10SM FEW250 10/M05 A3034 RMK AO2 SLP277 T01001050 53006=
201503080152 METAR KATL 080152Z 27003KT 10SM FEW250 10/M04 A3033 RMK AO2 SLP276 T01001044=
201503080052 METAR KATL 080052Z 00000KT 10SM FEW250 13/M06 A3033 RMK AO2 SLP274 T01281061=
201503072352 METAR KATL 072352Z 27004KT 10SM FEW250 14/M07 A3032 RMK AO2 SLP273 T01441072 10172 20139 55005=
201503072252 METAR KATL 072252Z 29005KT 10SM FEW250 16/M06 A3032 RMK AO2 SLP271 T01611056=
201503072152 METAR KATL 072152Z 28006KT 10SM FEW250 17/M07 A3033 RMK AO2 SLP272 T01721067=
201503072052 METAR KATL 072052Z 25007KT 10SM CLR 17/M07 A3033 RMK AO2 SLP275 T01671072 56030=
201503071952 METAR KATL 071952Z 27005KT 10SM FEW250 16/M07 A3035 RMK AO2 SLP282 T01611072=
201503071852 METAR KATL 071852Z 26007KT 230V290 10SM CLR 15/M08 A3039 RMK AO2 SLP296 T01501078=
201503071752 METAR KATL 071752Z VRB04KT 10SM CLR 14/M08 A3043 RMK AO2 SLP306 T01441078 10144 21011 58010=
201503071652 METAR KATL 071652Z 00000KT 10SM FEW002 12/M09 A3045 RMK AO2 SLP316 FU FEW002 NW T01221089=
201503071552 METAR KATL 071552Z VRB03KT 10SM CLR 10/M08 A3046 RMK AO2 SLP320 T01001083=
201503071452 METAR KATL 071452Z 30004KT 10SM FEW250 07/M07 A3046 RMK AO2 SLP319 T00721067 53013=
201503071352 METAR KATL 071352Z 32005KT 10SM CLR 03/M05 A3044 RMK AO2 SLP313 T00331050=
201503071252 METAR KATL 071252Z 31004KT 10SM CLR 01/M05 A3043 RMK AO2 SLP313 T00061050=
201503071152 METAR KATL 071152Z 31005KT 10SM CLR M01/M06 A3042 RMK AO2 SLP308 T10111056 10017 21011 51009=
201503071052 METAR KATL 071052Z 31003KT 10SM CLR M01/M06 A3041 RMK AO2 SLP304 T10061061=
201503070952 METAR KATL 070952Z 31003KT 10SM CLR M01/M06 A3040 RMK AO2 SLP301 T10061056=
201503070852 METAR KATL 070852Z 30004KT 10SM CLR 00/M06 A3039 RMK AO2 SLP298 T00001056 56003=
201503070752 METAR KATL 070752Z 31004KT 10SM CLR 01/M05 A3039 RMK AO2 SLP299 T00061050=
201503070652 METAR KATL 070652Z 34004KT 10SM CLR 01/M04 A3039 RMK AO2 SLP297 T00111044=
201503070552 METAR KATL 070552Z 32005KT 10SM FEW250 02/M04 A3040 RMK AO2 SLP300 T00171039 10072 20017 58007=
201503070452 METAR KATL 070452Z 31005KT 10SM FEW250 02/M03 A3041 RMK AO2 SLP306 T00221033 401001028=
201503070352 METAR KATL 070352Z 31004KT 10SM FEW250 03/M03 A3042 RMK AO2 SLP310 T00331033=
201503070252 METAR KATL 070252Z 34007KT 10SM FEW200 SCT250 04/M03 A3042 RMK AO2 SLP310 T00441028 51013=
201503070152 METAR KATL 070152Z 32007KT 10SM FEW200 SCT250 05/M02 A3042 RMK AO2 SLP308 T00501022=
201503070052 METAR KATL 070052Z 33008KT 10SM FEW200 SCT250 06/M02 A3040 RMK AO2 SLP303 T00611022=
201503062352 METAR KATL 062352Z 33008KT 10SM FEW200 BKN250 07/M02 A3038 RMK AO2 SLP296 T00721022 10100 20072 53003=
201503062252 METAR KATL 062252Z 32008G16KT 10SM FEW200 BKN250 09/M02 A3037 RMK AO2 SLP290 T00891022=
201503062152 METAR KATL 062152Z 33009KT 10SM FEW040 BKN230 10/M02 A3036 RMK AO2 SLP290 T01001017=
201503062052 METAR KATL 062052Z 31007KT 280V010 10SM FEW040 SCT230 10/M01 A3037 RMK AO2 SLP292 T01001011 56016=
201503061952 METAR KATL 061952Z 33008KT 10SM BKN038 BKN230 09/M01 A3038 RMK AO2 SLP294 T00941006=
201503061852 METAR KATL 061852Z 00000KT 10SM FEW030 BKN042 09/01 A3039 RMK AO2 SLP300 T00890006=
201503061752 METAR KATL 061752Z 31006KT 10SM FEW025 BKN042 07/00 A3042 RMK AO2 SLP310 60000 T00720000 10078 21028 50001=
201503061652 METAR KATL 061652Z VRB05KT 10SM FEW025 BKN040 06/M01 A3042 RMK AO2 SLP311 T00561006=
201503061552 METAR KATL 061552Z 36006KT 10SM FEW020 BKN036 04/M01 A3042 RMK AO2 SLP312 T00391011=
201503061452 METAR KATL 061452Z 34003KT 10SM BKN036 01/M03 A3042 RMK AO2 SNB12E20 SLP311 P0000 60000 T00111028 51016=
201503061356 SPECI KATL 061356Z 35006KT 10SM FEW008 SCT012 OVC036 M01/M03 A3041 RMK AO2=
201503061352 METAR KATL 061352Z 35005KT 8SM FEW008 BKN012 OVC036 M01/M03 A3040 RMK AO2 SLP306 T10061033=
201503061344 SPECI KATL 061344Z 35005KT 7SM BKN012 OVC036 M01/M04 A3040 RMK AO2=
201503061252 METAR KATL 061252Z 34006KT 2 1/2SM BR OVC010 M02/M04 A3039 RMK AO2 SFC VIS 5 SLP302 T10221044=
201503061202 SPECI KATL 061202Z 35007KT 2 1/2SM HZ OVC012 M02/M05 A3037 RMK AO2 SFC VIS 5=
201503061152 METAR KATL 061152Z 34008KT 7SM OVC012 M02/M05 A3037 RMK AO2 SLP295 70006 T10221050 11017 21022 53016=
201503061052 METAR KATL 061052Z 34008KT 10SM OVC014 M02/M06 A3035 RMK AO2 SLP288 T10221056=
201503060952 METAR KATL 060952Z 35010KT 10SM OVC014 M02/M06 A3032 RMK AO2 SLP277 T10221061=
201503060929 SPECI KATL 060929Z 33008KT 10SM OVC014 M02/M06 A3032 RMK AO2=
201503060852 METAR KATL 060852Z 34008KT 10SM OVC016 M02/M06 A3032 RMK AO2 SLP277 T10221061 51006=
201503060752 METAR KATL 060752Z 34013KT 10SM OVC018 M02/M06 A3032 RMK AO2 SLP275 T10221061=
201503060652 METAR KATL 060652Z 33013KT 10SM OVC022 M02/M06 A3031 RMK AO2 SLP273 T10221056=
201503060552 METAR KATL 060552Z 34011G17KT 10SM BKN024 BKN200 M02/M06 A3030 RMK AO2 SLP269 T10171056 10017 21017 51004=
201503060452 METAR KATL 060452Z 32019G25KT 10SM FEW015 BKN200 M02/M05 A3029 RMK AO2 SLP266 T10171050 401941017=
201503060352 METAR KATL 060352Z 33012KT 10SM FEW015 SCT200 BKN250 M01/M04 A3031 RMK AO2 SLP270 T10061044=
201503060252 METAR KATL 060252Z 33013KT 10SM SCT017 BKN200 BKN250 00/M04 A3029 RMK AO2 PK WND 33027/0241 SLP264 SCT017 V BKN T00001039 51029=
201503060152 METAR KATL 060152Z 33013G21KT 10SM SCT017 OVC200 01/M03 A3027 RMK AO2 SLP255 SCT017 V BKN T00061033=
201503060052 METAR KATL 060052Z 33017G23KT 10SM SCT015 BKN150 OVC200 01/M03 A3024 RMK AO2 SLP244 SCT015 V BKN T00111028=
201503052352 METAR KATL 052352Z 32013G23KT 10SM BKN012 BKN120 OVC150 01/M01 A3020 RMK AO2 PK WND 34027/2257 RAE10 SLP228 BKN012 V SCT P0000 60000 T00111011 10067 20011 51030=
201503052252 METAR KATL 052252Z 34021G29KT 10SM -RA BKN014 OVC100 02/M01 A3017 RMK AO2 PK WND 33032/2214 RAB16 SLP217 CIG 010V018 P0000 T00171006=
201503052152 METAR KATL 052152Z 31017G30KT 10SM BKN012 OVC017 04/01 A3015 RMK AO2 PK WND 32030/2143 PRESRR SLP208 T00440011=
201503052054 SPECI KATL 052054Z 33020G34KT 10SM BKN010 BKN015 OVC080 05/02 A3011 RMK AO2 PK WND 32026/2053=
201503052052 METAR KATL 052052Z 33026G34KT 10SM BKN008 BKN013 OVC080 05/02 A3011 RMK AO2 PK WND 33034/2051 RAB02E37 SLP195 P0000 60000 T00500022 53016=
201503051952 METAR KATL 051952Z 32019G30KT 10SM BKN008 BKN010 OVC080 06/04 A3009 RMK AO2 PK WND 32030/1945 RAB1858E29 SLP188 P0000 T00610039=
201503051852 METAR KATL 051852Z 31013KT 9SM BKN006 BKN010 OVC080 07/05 A3005 RMK AO2 SLP173 T00670050=
201503051752 METAR KATL 051752Z 31007KT 9SM BKN008 BKN020 OVC070 06/04 A3006 RMK AO2 RAE49 SLP178 P0000 60006 T00610044 10172 20056 50017=
201503051736 SPECI KATL 051736Z 32004KT 6SM -RA BR SCT006 BKN055 OVC070 06/04 A3004 RMK AO2 PRESFR P0000=
201503051730 SPECI KATL 051730Z 32004KT 6SM -RA BR FEW006 BKN010 OVC060 06/04 A3005 RMK AO2 PRESFR P0000=
201503051729 SPECI KATL 051729Z 31003KT 10SM -RA BR SCT006 BKN055 OVC070 06/04 A3005 RMK AO2 PRESFR P0000=
201503051652 METAR KATL 051652Z 31016KT 5SM -RA BR BKN008 BKN020 OVC040 06/04 A3008 RMK AO2 PK WND 32028/1612 SLP187 P0002 T00560039=
201503051619 SPECI KATL 051619Z 31019G28KT 4SM -RA BR FEW008 SCT012 OVC030 06/04 A3006 RMK AO2 PK WND 32028/1612 P0000=
201503051552 METAR KATL 051552Z 31016G21KT 6SM -RA BR FEW005 BKN008 OVC023 06/04 A3005 RMK AO2 PK WND 32030/1453 DZE07RAB07 SLP176 P0000 T00610044=
201503051543 SPECI KATL 051543Z 31012G24KT 4SM -RA BR FEW005 BKN008 OVC020 07/05 A3004 RMK AO2 PK WND 32030/1453 DZE07RAB07 P0000=
201503051519 SPECI KATL 051519Z 32020G24KT 10SM -RA FEW005 BKN008 OVC020 07/05 A3002 RMK AO2 PK WND 32030/1453 DZE07RAB07 P0000=
201503051507 SPECI KATL 051507Z 32015G23KT 5SM -RA BR BKN005 BKN008 OVC010 07/06 A3001 RMK AO2 PK WND 32030/1453 DZE07RAB07 P0000=
201503051459 SPECI KATL 051459Z 31019G30KT 2SM -DZ BR BKN005 OVC008 07/06 A3001 RMK AO2 PK WND 32030/1453 SFC VIS 4 PRESRR P0000=
201503051452 METAR KATL 051452Z 31023G29KT 1/2SM -DZ BR BKN004 OVC008 07/06 A3001 RMK AO2 PK WND 31029/1447 SFC VIS 1 3/4 RAE17DZB48 PRESRR SLP160 P0003 60004 T00720061 53040=
201503051424 SPECI KATL 051424Z 31013KT 1SM BR FEW003 BKN005 OVC008 09/08 A2997 RMK AO2 SFC VIS 4 RAE17 P0003=
201503051419 SPECI KATL 051419Z 31012KT 6SM BR BKN005 OVC008 09/08 A2996 RMK AO2 RAE17 P0003=
201503051359 SPECI KATL 051359Z 31009KT 1 1/2SM -RA BR OVC005 10/09 A2994 RMK AO2 SFC VIS 2 P0001=
201503051352 METAR KATL 051352Z 33010KT 1/2SM RA BR OVC003 10/09 A2994 RMK AO2 SFC VIS 1 3/4 SLP135 P0001 T01000094=
201503051252 METAR KATL 051252Z 33011KT 1/2SM -RA BR OVC003 12/11 A2990 RMK AO2 WSHFT 1218 SFC VIS 6 RAB49 SLP122 P0000 T01170106=
201503051244 SPECI KATL 051244Z 34012KT 1/2SM OVC003 12/11 A2991 RMK AO2 WSHFT 1218 SFC VIS 7=
201503051238 SPECI KATL 051238Z 33011KT 1SM BKN003 OVC007 12/11 A2990 RMK AO2 WSHFT 1218 SFC VIS 7=
201503051235 SPECI KATL 051235Z 33014KT 10SM BKN003 OVC007 12/11 A2990 RMK AO2 WSHFT 1218=
201503051152 METAR KATL 051152Z 30006KT 10SM BKN007 OVC016 18/17 A2989 RMK AO2 SLP114 60010 70011 T01780167 10194 20178 53007=
201503051056 SPECI KATL 051056Z 20011G19KT 10SM BKN009 OVC016 19/17 A2987 RMK AO2=
201503051052 METAR KATL 051052Z 20012G19KT 10SM SCT009 OVC016 19/17 A2987 RMK AO2 RAE18B40E51 SLP109 P0001 T01890172=
201503050952 METAR KATL 050952Z 21009G15KT 10SM -RA OVC009 19/18 A2988 RMK AO2 SLP109 P0006 T01940178=
201503050852 METAR KATL 050852Z 20014G19KT 4SM -RA BR BKN007 OVC013 19/18 A2987 RMK AO2 RAB07 SLP105 P0003 60003 T01940178 58020=
201503050842 SPECI KATL 050842Z 20013G22KT 5SM -RA BR BKN007 OVC013 19/18 A2987 RMK AO2 RAB07 P0002=
201503050752 METAR KATL 050752Z 20012KT 10SM OVC011 19/17 A2988 RMK AO2 SLP111 T01940172=
201503050652 METAR KATL 050652Z 21010KT 10SM BKN011 OVC018 19/17 A2992 RMK AO2 SLP124 T01940172=
201503050552 METAR KATL 050552Z 22010KT 10SM BKN014 BKN035 OVC080 19/16 A2993 RMK AO2 SLP127 60000 T01940161 10217 20194 58000=
201503050452 METAR KATL 050452Z 22011G16KT 10SM FEW015 OVC080 19/17 A2994 RMK AO2 RAE10B41E50 SLP131 P0000 T01940167 402560100=
201503050410 SPECI KATL 050410Z 21009G19KT 10SM SCT020 BKN035 OVC070 19/17 A2994 RMK AO2 RAE10 P0000=
201503050352 METAR KATL 050352Z 22012G17KT 6SM -RA BKN020 BKN030 OVC080 20/16 A2994 RMK AO2 RAB46 SLP133 P0000 T02000161=
201503050346 SPECI KATL 050346Z 22009G20KT 10SM -RA BKN022 BKN030 OVC080 21/16 A2994 RMK AO2 RAB46 P0000=
201503050252 METAR KATL 050252Z 20010KT 10SM SCT065 BKN080 BKN250 20/16 A2993 RMK AO2 SLP129 T02000161 58000=
201503050152 SPECI KATL 050152Z 20008KT 10SM SCT070 BKN250 20/16 A2993 RMK AO2 SLP131 T02000156=
201503050152 METAR KATL 050152Z 20008KT 10SM SCT070 BKN250 20/16 A2993 RMK AO2 SLP131 T02000156=
201503050052 METAR KATL 050052Z 20007KT 10SM SCT200 BKN250 20/15 A2993 RMK AO2 SLP132 T02000150=
201503042352 METAR KATL 042352Z 19011KT 10SM FEW040 BKN250 22/15 A2993 RMK AO2 SLP131 T02170150 10256 20217 53001=
201503042252 METAR KATL 042252Z 21012G19KT 10SM FEW040 BKN250 23/15 A2992 RMK AO2 SLP127 T02280150=
201503042152 METAR KATL 042152Z 19011G20KT 10SM FEW040 SCT060 BKN250 24/15 A2992 RMK AO2 SLP127 T02390150=
201503042052 METAR KATL 042052Z 21016G22KT 10SM FEW050 SCT070 BKN250 25/13 A2993 RMK AO2 SLP130 T02500133 56031=
201503041952 METAR KATL 041952Z 19014G18KT 10SM BKN040 BKN060 BKN250 24/14 A2995 RMK AO2 SLP139 T02440144=
201503041852 METAR KATL 041852Z 25014G17KT 10SM SCT034 SCT060 BKN250 23/14 A2998 RMK AO2 SLP149 T02330144=
201503041752 METAR KATL 041752Z 25014G19KT 10SM FEW020 SCT060 BKN250 22/15 A3002 RMK AO2 SLP163 60001 T02220150 10222 20133 56020=
201503041730 SPECI KATL 041730Z 21017G23KT 10SM SCT018 BKN250 21/16 A3003 RMK AO2=
201503041655 SPECI KATL 041655Z 23013G21KT 10SM BKN016 BKN020 BKN250 19/16 A3004 RMK AO2=
201503041652 METAR KATL 041652Z 23013G21KT 10SM BKN014 BKN019 BKN250 19/16 A3004 RMK AO2 SLP171 T01940156=
201503041552 METAR KATL 041552Z 21011KT 10SM FEW008 BKN010 OVC016 18/16 A3005 RMK AO2 SLP176 T01780161=
201503041526 SPECI KATL 041526Z 20011KT 6SM BR FEW005 SCT008 BKN013 17/16 A3007 RMK AO2=
201503041452 METAR KATL 041452Z 24005KT 1 1/2SM BR OVC005 16/16 A3008 RMK AO2 SFC VIS 6 DZB17E49 SLP186 P0000 60001 T01610156 52013=
201503041449 SPECI KATL 041449Z 23004KT 1 1/2SM BR OVC005 16/16 A3008 RMK AO2 SFC VIS 5 DZB17E49 P0000=
201503041352 METAR KATL 041352Z COR 20005KT 1/8SM R09R/5500VP6000FT -DZ BR OVC003 15/14 A3007 RMK AO2 SFC VIS 1 1/4 SLP182 CIG 002V005 TWRINC P0001 T01500139=
201503041252 METAR KATL 041252Z 21006KT 1/8SM R09R/4500V6000FT BR OVC003 14/14 A3006 RMK AO2 SFC VIS 1 SLP177 TWRINC T01440139=
201503041153 SPECI KATL 041153Z 24007KT 1/8SM BR OVC002 13/13 A3004 RMK AO2 SFC VIS 1 1/2 TWRINC=
201503041152 METAR KATL 041152Z 24007KT 0SM R09R/6000VP6000FT BR OVC002 13/13 A3004 RMK AO2 SFC VIS 1 SLP173 TWRINC 70028 T01330128 10133 20100 53002=
201503041127 SPECI KATL 041127Z 21009KT 0SM R09R/1400V2800FT FG VV002 13/12 A3003 RMK AO2 SFC VIS 1/4=
201503041123 SPECI KATL 041123Z 21010KT 0SM R09R/1400V1800FT FG VV002 12/12 A3003 RMK AO2 SFC VIS 1/4=
201503041052 METAR KATL 041052Z 19007KT 0SM R09R/1000V1200FT FG VV001 12/11 A3003 RMK AO2 SFC VIS 1/8 SLP170 T01170111=
201503041049 SPECI KATL 041049Z 20005KT 0SM R09R/1000V1400FT FG VV001 12/11 A3004 RMK AO2 SFC VIS 1/8=
201503041046 SPECI KATL 041046Z 20006KT 1/4SM R09R/1000V1400FT FG VV001 12/11 A3004 RMK AO2=
201503040952 METAR KATL 040952Z 00000KT 1/4SM R09R/3500V4500FT FG VV002 11/10 A3003 RMK AO2 SFC VIS 1/2 SLP170 T01060100=
201503040852 METAR KATL 040852Z 13003KT 1/2SM BR BKN003 OVC007 11/09 A3004 RMK AO2 SFC VIS 2 1/2 SLP174 T01060094 58014=
201503040843 SPECI KATL 040843Z 00000KT 1/2SM R09R/4500VP6000FT BR BKN003 OVC007 11/10 A3005 RMK AO2 SFC VIS 1 1/2=
201503040806 SPECI KATL 040806Z 13003KT 1/16SM R09R/2200V4000FT FG VV002 10/09 A3006 RMK AO2 SFC VIS 1/2=
201503040752 METAR KATL 040752Z 15004KT 1/16SM R09R/1800V2000FT FG VV002 10/09 A3006 RMK AO2 SFC VIS 1/4 SLP180 T01000094=
201503040738 SPECI KATL 040738Z 00000KT 1/16SM R09R/1800V2600FT FG VV002 10/09 A3006 RMK AO2 SFC VIS 1/4=
201503040652 METAR KATL 040652Z 14003KT 1/16SM R09R/1600FT FG VV002 10/09 A3007 RMK AO2 SFC VIS 1/4 SLP183 T01000094=
201503040552 METAR KATL 040552Z 12003KT M1/4SM R09R/1600V1800FT FG VV002 10/09 A3008 RMK AO2 SFC VIS 1/4 SLP188 T01000094 10106 20100 58011=
201503040536 SPECI KATL 040536Z 13004KT M1/4SM R09R/1800V2000FT FG VV002 10/09 A3009 RMK AO2 SFC VIS 1/4=
201503040503 SPECI KATL 040503Z 12005KT 1/4SM R09R/1400FT FG VV002 10/09 A3010 RMK AO2=
201503040452 METAR KATL 040452Z 11006KT M1/4SM R09R/1400FT FG VV002 10/09 A3010 RMK AO2 SFC VIS 1/4 SLP193 T01000094 401220100=
201503040404 SPECI KATL 040404Z 13004KT M1/4SM R09R/1400V1800FT FG VV002 10/09 A3010 RMK AO2 SFC VIS 1/4=
201503040352 METAR KATL 040352Z 12005KT M1/4SM R09R/1800V2400FT FG VV002 10/09 A3011 RMK AO2 SFC VIS 1/4 SLP195 T01000094=
201503040252 METAR KATL 040252Z 10005KT M1/4SM R09R/4000VP6000FT BR OVC002 10/09 A3012 RMK AO2 SFC VIS 1 SLP200 T01000094 53002=
201503040152 METAR KATL 040152Z 10005KT M1/4SM R09R/2600V4000FT BR OVC002 10/09 A3011 RMK AO2 SFC VIS 3/4 SLP196 T01000094=
201503040052 METAR KATL 040052Z 10004KT M1/4SM R09R/2800V5500FT FG VV002 11/10 A3011 RMK AO2 SFC VIS 1/2 SLP198 T01060100=
201503032352 METAR KATL 032352Z 09006KT M1/4SM R09R/4000VP6000FT FG VV002 11/10 A3011 RMK AO2 SFC VIS 1/2 SLP198 60006 T01060100 10122 20106 55004=
201503032252 METAR KATL 032252Z 08008KT M1/4SM R09R/3000V3500FT FG VV002 11/11 A3011 RMK AO2 SFC VIS 1/2 SLP197 T01110106=
201503032152 METAR KATL 032152Z 08007KT M1/4SM R09R/2200V3500FT FG VV002 12/11 A3012 RMK AO2 SFC VIS 1/2 SLP200 TWRINC T01170111=
201503032052 METAR KATL 032052Z 10005KT M1/4SM R09R/2400V4000FT FG VV002 12/11 A3013 RMK AO2 SFC VIS 1/2 DZB31E46 SLP203 P0000 60006 T01170111 55012=
201503032046 SPECI KATL 032046Z 10007KT M1/4SM R09R/2600V4500FT FG VV002 12/11 A3012 RMK AO2 SFC VIS 1/2 DZB31E46 P0000=
201503032031 SPECI KATL 032031Z 11007KT 1/2SM R09R/2800VP6000FT -DZ BR BKN003 OVC006 12/11 A3013 RMK AO2 SFC VIS 3/4 DZB31 P0000=
201503031952 METAR KATL 031952Z 10007KT 1/2SM BR BKN004 OVC008 12/11 A3014 RMK AO2 SFC VIS 5 RAE00DZB06E48 SLP206 TWRINC P0000 T01170106=
201503031936 SPECI KATL 031936Z 10007KT 1/2SM -DZ BR BKN004 OVC008 12/11 A3014 RMK AO2 SFC VIS 5 RAE00DZB06 TWRINC P0000=
201503031906 SPECI KATL 031906Z 10005KT 1 1/2SM -DZ BR BKN005 OVC008 12/11 A3016 RMK AO2 SFC VIS 6 RAE00DZB06 P0000=
201503031852 METAR KATL 031852Z 07008KT 1/2SM -RA BR BKN004 OVC006 12/11 A3016 RMK AO2 SFC VIS 2 SLP215 P0006 T01170106=
201503031814 SPECI KATL 031814Z 08008KT 1/2SM -RA BR BKN004 OVC007 12/11 A3019 RMK AO2 SFC VIS 3 P0005=
201503031757 SPECI KATL 031757Z 09008KT 1/2SM R09R/5000VP6000FT RA BR BKN004 OVC007 12/11 A3020 RMK AO2 SFC VIS 1 1/4 P0001=
201503031752 METAR KATL 031752Z 10007KT 1/2SM R09R/5000VP6000FT -RA BR BKN004 OVC007 12/11 A3020 RMK AO2 SFC VIS 3 DZE38RAB40 SLP228 P0000 60022 T01170106 10122 20106 58013=
201503031652 METAR KATL 031652Z 08009KT 1/2SM -DZ BR BKN004 BKN007 OVC017 12/11 A3023 RMK AO2 SFC VIS 4 DZE28B48RAB28E48 SLP237 P0002 T01170106=
201503031552 METAR KATL 031552Z 08008KT 1/2SM -DZ BR OVC004 12/11 A3024 RMK AO2 SFC VIS 2 RAE32DZB49 SLP242 P0001 T01170106=
201503031452 METAR KATL 031452Z VRB06KT 1/2SM R09R/5000VP6000FT -RA BR OVC004 12/11 A3024 RMK AO2 SFC VIS 1 1/2 SLP241 P0002 60019 T01170106 51011=
201503031404 SPECI KATL 031404Z 09008KT 1/2SM R09R/6000VP6000FT -RA BR OVC004 11/10 A3024 RMK AO2 SFC VIS 1 1/4 P0001=
201503031352 METAR KATL 031352Z 09008KT 1 1/2SM -RA BR OVC004 11/10 A3024 RMK AO2 SFC VIS 2 SLP240 P0004 T01110100=
201503031349 SPECI KATL 031349Z 09008KT 040V110 1 1/2SM -RA BR OVC004 11/10 A3024 RMK AO2 SFC VIS 2 P0004=
201503031317 SPECI KATL 031317Z 08009KT 1 1/2SM -RA BR BKN005 OVC012 11/10 A3024 RMK AO2 CIG 003V007 P0004=
201503031310 SPECI KATL 031310Z 08007KT 1 1/2SM R09R/5500VP6000FT RA BR SCT004 OVC012 11/10 A3023 RMK AO2 P0003=
201503031256 SPECI KATL 031256Z 09007KT 1 1/2SM -RA BR SCT004 BKN008 OVC017 11/10 A3023 RMK AO2 SFC VIS 2 1/2 P0001=
201503031252 METAR KATL 031252Z 07006KT 3SM -RA BR FEW004 SCT008 OVC017 11/10 A3024 RMK AO2 RAB1159 SLP240 P0013 T01060100=
201503031239 SPECI KATL 031239Z 08007KT 2 1/2SM -RA BR SCT008 BKN017 OVC031 11/09 A3023 RMK AO2 RAB1159 P0013=
201503031226 SPECI KATL 031226Z 07006KT 1 1/2SM R09R/5000VP6000FT +RA BR BKN008 OVC013 11/09 A3023 RMK AO2 RAB1159 P0004=
201503031211 SPECI KATL 031211Z 06004KT 2SM -RA BR OVC008 11/09 A3022 RMK AO2 RAB1159 P0000=
201503031152 METAR KATL 031152Z 09006KT 7SM OVC008 11/09 A3021 RMK AO2 DZE08RAB08E39 SLP230 CIG 006V009 P0002 60002 70006 T01060089 10122 20106 51007=
201503031052 METAR KATL 031052Z 10003KT 7SM -DZ OVC006 12/08 A3021 RMK AO2 RAB13E32DZB32 SLP228 P0000 T01170083=
201503031033 SPECI KATL 031033Z 10004KT 7SM -DZ OVC005 12/08 A3020 RMK AO2 RAB13E32DZB32 CIG 004V006 P0000=
201503030952 METAR KATL 030952Z 00000KT 7SM OVC004 12/08 A3020 RMK AO2 SLP226 T01220078=
201503030948 SPECI KATL 030948Z 00000KT 7SM OVC004 12/08 A3021 RMK AO2=
201503030852 METAR KATL 030852Z 00000KT 8SM OVC007 12/08 A3019 RMK AO2 SLP222 CIG 006V008 T01170078 58016=
201503030829 SPECI KATL 030829Z 00000KT 8SM OVC008 12/07 A3020 RMK AO2=
201503030752 METAR KATL 030752Z 00000KT 10SM OVC010 11/08 A3021 RMK AO2 SLP229 T01110078=
201503030652 METAR KATL 030652Z 00000KT 10SM OVC012 11/07 A3022 RMK AO2 SLP234 T01110072=
201503030607 SPECI KATL 030607Z 35004KT 10SM OVC014 11/07 A3022 RMK AO2=
201503030552 METAR KATL 030552Z 31005KT 10SM BKN015 BKN120 OVC200 11/07 A3024 RMK AO2 SLP238 60004 T01110072 10139 20106 56010=
201503030526 SPECI KATL 030526Z 00000KT 10SM SCT013 BKN020 BKN200 12/07 A3023 RMK AO2=
201503030452 METAR KATL 030452Z 33004KT 10SM BKN013 BKN060 BKN250 11/07 A3025 RMK AO2 SLP243 T01110072 401720072=
201503030401 SPECI KATL 030401Z 35003KT 10SM BKN018 BKN060 BKN250 12/08 A3025 RMK AO2=
201503030352 METAR KATL 030352Z VRB03KT 10SM SCT020 BKN060 BKN250 12/07 A3026 RMK AO2 SLP246 T01170072=
201503030252 METAR KATL 030252Z 34007KT 10SM FEW017 SCT065 BKN110 BKN250 12/08 A3027 RMK AO2 SLP251 60004 T01220078 53003=
201503030234 SPECI KATL 030234Z 34007KT 10SM SCT017 BKN110 BKN250 13/08 A3027 RMK AO2=
201503030152 METAR KATL 030152Z 31003KT 10SM BKN017 OVC070 12/10 A3027 RMK AO2 SLP250 T01220100=
201503030127 SPECI KATL 030127Z 30003KT 10SM BKN018 BKN070 OVC120 12/10 A3027 RMK AO2=
201503030052 METAR KATL 030052Z 00000KT 10SM FEW050 BKN070 OVC110 12/10 A3026 RMK AO2 RAB2357E42 SLP248 P0004 T01220100=
201503022352 METAR KATL 022352Z 32006KT 10SM FEW045 BKN110 OVC150 14/09 A3026 RMK AO2 RAB14E32 SLP248 SHRA S-W P0000 60000 T01390089 10172 20139 53005=
201503022252 METAR KATL 022252Z 33009KT 10SM BKN110 BKN250 14/09 A3024 RMK AO2 SLP242 VIRGA VC SW-NW T01440089=
201503022152 METAR KATL 022152Z 32009KT 10SM FEW030 SCT100 BKN120 15/10 A3025 RMK AO2 RAE11B31E49 SLP244 SHRA VC E & S P0000 T01500100=
201503022052 METAR KATL 022052Z 28004KT 10SM -RA FEW030 SCT050 BKN120 BKN150 16/10 A3024 RMK AO2 RAB47 SLP242 P0000 60000 T01610100 56020=
201503021952 METAR KATL 021952Z 31003KT 10SM FEW025 BKN110 BKN150 16/10 A3026 RMK AO2 SLP247 SHRA DSNT W T01610100=
201503021852 METAR KATL 021852Z 30007KT 10SM FEW020 BKN030 BKN150 17/11 A3027 RMK AO2 SLP251 T01670106=
201503021752 METAR KATL 021752Z 28008KT 10SM FEW018 SCT040 BKN140 16/11 A3030 RMK AO2 SLP262 60000 T01610106 10167 20083 58006=
201503021719 SPECI KATL 021719Z 27009KT 10SM FEW013 SCT040 BKN160 16/10 A3032 RMK AO2=
201503021652 METAR KATL 021652Z 29009KT 10SM BKN013 BKN040 BKN160 14/10 A3033 RMK AO2 RAB26E35 SLP272 P0000 T01440100=
201503021622 SPECI KATL 021622Z 29006KT 10SM SCT011 BKN039 13/10 A3033 RMK AO2=
201503021552 METAR KATL 021552Z 32006KT 8SM BKN009 BKN012 13/10 A3033 RMK AO2 SLP272 T01280100=
201503021550 SPECI KATL 021550Z 32007KT 8SM BKN009 BKN012 13/10 A3032 RMK AO2=
201503021452 METAR KATL 021452Z 31008KT 2SM BR OVC005 11/09 A3034 RMK AO2 SFC VIS 4 SLP278 CIG 004V006 60000 T01060094 53014=
201503021433 SPECI KATL 021433Z 29008KT 2SM BR OVC005 10/09 A3033 RMK AO2 SFC VIS 4 CIG 004V006=
201503021429 SPECI KATL 021429Z 28005KT 2SM BR OVC004 10/09 A3033 RMK AO2 SFC VIS 4 CIG 003V005=
201503021404 SPECI KATL 021404Z 29006KT 1 3/4SM BR OVC004 09/08 A3032 RMK AO2 SFC VIS 3 CIG 003V005=
201503021352 METAR KATL 021352Z 28003KT 1SM BR BKN004 OVC008 09/08 A3031 RMK AO2 SFC VIS 2 1/2 SLP268 CIG 003V005 T00940083=
201503021315 SPECI KATL 021315Z 30003KT 1SM BR BKN004 OVC009 09/08 A3031 RMK AO2 SFC VIS 2=
201503021252 METAR KATL 021252Z 30004KT 1SM BR FEW004 OVC009 08/07 A3031 RMK AO2 SFC VIS 1 1/2 DZE00 SLP268 P0000 T00830072=
201503021208 SPECI KATL 021208Z 30006KT 1SM BR OVC004 08/07 A3030 RMK AO2 SFC VIS 2 DZE00 CIG 002V007 P0000=
201503021152 METAR KATL 021152Z 31007KT 3/4SM -DZ BR BKN004 OVC021 08/07 A3030 RMK AO2 SFC VIS 2 1/2 SLP265 RAB13E25 CIG 003V007 TWRINC P0001 60001 70014 T00780072 10083 20072 53006=
201503021052 METAR KATL 021052Z 26005KT 3/4SM -DZ BR BKN004 OVC020 08/07 A3029 RMK AO2 SFC VIS 2 1/2 DZB36 SLP260 CIG 002V005 TWRINC P0000 T00780072=
201503021043 SPECI KATL 021043Z 28005KT 3/4SM -DZ BR BKN004 OVC023 08/07 A3029 RMK AO2 SFC VIS 2 DZB36 CIG 002V005 TWRINC P0000=
201503021027 SPECI KATL 021027Z 29005KT 1/4SM BR OVC003 08/07 A3029 RMK AO2 SFC VIS 1 1/2 TWRINC=
201503020955 SPECI KATL 020955Z 00000KT 1/4SM R09R/1600V2600FT FG VV002 08/07 A3028 RMK AO2=
201503020952 METAR KATL 020952Z 25003KT 1/4SM R09R/1400V2200FT FG VV002 08/07 A3028 RMK AO2 SLP257 T00780067=
201503020852 METAR KATL 020852Z 00000KT 1/4SM R09R/1400FT FG VV002 07/07 A3028 RMK AO2 SLP259 T00720067 58017=
201503020842 SPECI KATL 020842Z 00000KT 1/4SM R09R/1400V1800FT FG VV002 07/07 A3029 RMK AO2=
201503020832 SPECI KATL 020832Z 00000KT 1/2SM R09R/1800V4500FT FG VV002 07/06 A3029 RMK AO2=
201503020805 SPECI KATL 020805Z 00000KT 1/2SM R09R/5000VP6000FT BR OVC003 07/06 A3030 RMK AO2 SFC VIS 1 CIG 002V004 TWRINC=
201503020752 METAR KATL 020752Z 00000KT 1 1/2SM BR OVC004 08/06 A3031 RMK AO2 SFC VIS 1 3/4 SLP268 CIG 003V005 T00780061=
201503020741 SPECI KATL 020741Z 00000KT 1 1/2SM BR OVC004 08/06 A3032 RMK AO2 SFC VIS 2 CIG 003V005=
201503020652 METAR KATL 020652Z 00000KT 1 1/2SM BR OVC005 08/06 A3034 RMK AO2 SFC VIS 3 SLP278 CIG 004V006 T00780061=
201503020552 METAR KATL 020552Z 00000KT 1 1/2SM BR OVC005 08/06 A3033 RMK AO2 SFC VIS 3 SLP277 CIG 004V006 T00780061 10078 20072 58011=
201503020452 METAR KATL 020452Z 33003KT 1 1/2SM BR BKN005 OVC014 08/06 A3036 RMK AO2 SFC VIS 3 SLP286 CIG 004V007 T00780061 400780022=
201503020352 METAR KATL 020352Z 00000KT 1 1/2SM BR OVC004 07/06 A3036 RMK AO2 SFC VIS 3 SLP286 CIG 003V006 T00720056=
201503020314 SPECI KATL 020314Z 20003KT 1 1/2SM BR OVC004 07/06 A3037 RMK AO2 SFC VIS 3 CIG 003V006=
201503020252 METAR KATL 020252Z 18004KT 3/4SM BR OVC004 07/06 A3037 RMK AO2 SFC VIS 2 1/2 SLP288 CIG 003V006 TWRINC T00720061 55001=
201503020152 METAR KATL 020152Z 18004KT 3/4SM BR BKN003 OVC012 07/06 A3036 RMK AO2 SFC VIS 3 SLP288 CIG 002V004 TWRINC T00720061=
201503020052 METAR KATL 020052Z 16006KT 3/4SM BR OVC004 07/06 A3037 RMK AO2 SFC VIS 3 SLP289 CIG 003V005 TWRINC T00720061=
201503020042 SPECI KATL 020042Z 17004KT 3/4SM BR OVC004 07/06 A3038 RMK AO2 SFC VIS 3 CIG 003V005=
201503012352 METAR KATL 012352Z 12004KT 1 1/2SM BR OVC005 07/06 A3037 RMK AO2 SFC VIS 3 DZB15E50 SLP290 CIG 004V006 P0000 60000 T00720061 10078 20050 58005=
201503012252 METAR KATL 012252Z 11004KT 1 1/2SM BR OVC006 08/06 A3039 RMK AO2 SFC VIS 5 SLP296 CIG 005V007 T00780056=
201503012152 METAR KATL 012152Z 05003KT 1 1/2SM BR OVC005 08/06 A3039 RMK AO2 SFC VIS 5 DZE2059 SLP296 P0000 T00780056=
201503012052 METAR KATL 012052Z VRB04KT 1SM -DZ BR OVC005 07/06 A3039 RMK AO2 SFC VIS 2 1/2 DZB07 SLP295 P0000 60000 T00720056 56019=
201503011952 METAR KATL 011952Z 00000KT 1SM BR OVC005 07/05 A3040 RMK AO2 SFC VIS 3 SLP299 T00670050=
201503011852 METAR KATL 011852Z 07006KT 1SM BR OVC005 06/04 A3041 RMK AO2 SFC VIS 4 DZE27 SLP303 P0000 T00560044=
201503011752 METAR KATL 011752Z 10005KT 1 1/2SM -DZ BR OVC005 06/04 A3044 RMK AO2 SFC VIS 4 DZB49 SLP314 P0000 60013 T00560039 10056 20022 58017=
201503011730 SPECI KATL 011730Z 07005KT 1 1/2SM BR OVC005 05/03 A3045 RMK AO2 SFC VIS 5=
201503011652 METAR KATL 011652Z 09007KT 2 1/2SM OVC005 04/03 A3046 RMK AO2 SFC VIS 7 SLP322 T00440033=
201503011552 METAR KATL 011552Z 09009KT 2 1/2SM BR OVC005 04/02 A3049 RMK AO2 SFC VIS 6 DZB03E28 SLP330 P0000 T00390022=
201503011531 SPECI KATL 011531Z 10006KT 2 1/2SM BR OVC005 04/02 A3049 RMK AO2 SFC VIS 5 DZB03E28 P0000=
201503011452 METAR KATL 011452Z 11005KT 1 1/2SM BR OVC005 03/02 A3049 RMK AO2 SFC VIS 4 RAE34DZB38E50 SLP331 P0007 60013 T00330017 50004=
201503011352 METAR KATL 011352Z 09009KT 1 1/2SM R09R/6000VP6000FT -RA BR OVC005 03/01 A3049 RMK AO2 SLP332 CIG 004V007 P0003 T00280011=
201503011252 METAR KATL 011252Z 09011KT 1 1/2SM -RA BR OVC005 02/01 A3049 RMK AO2 SLP329 CIG 004V007 P0003 T00220011=
201503011219 SPECI KATL 011219Z 09010KT 1 1/2SM -RA BR OVC006 03/01 A3048 RMK AO2 SFC VIS 2 P0000=
201503011214 SPECI KATL 011214Z 08012KT 2 1/2SM -RA BR OVC006 03/01 A3048 RMK AO2 TWR VIS 3 P0000=
