##########################################################
# Query made at 04/19/2024 23:44:34 UTC
# Time interval: from 07/01/2015 12:00  to 07/31/2015 12:59  UTC
##########################################################

##########################################################
# KATL, Atlanta, Hartsfield - Jackson Atlanta International Airport (United States)
# WMO index: 72219. WIGOS ID: 0-20000-0-72219
# Latitude 33-38-59N. Longitude 084-25-00W. Altitude 312 m.
##########################################################

201507311252 METAR KATL 311252Z 01005KT 10SM FEW250 26/20 A3000 RMK AO2 SLP147 T02610200=
201507311152 METAR KATL 311152Z 34006KT 10SM FEW250 23/18 A2998 RMK AO2 SLP143 70001 T02330183 10250 20222 53010=
201507311052 METAR KATL 311052Z 33008KT 10SM FEW250 23/18 A2996 RMK AO2 SLP137 T02280183=
201507310952 METAR KATL 310952Z 34006KT 10SM CLR 23/19 A2995 RMK AO2 SLP132 T02280189=
201507310852 METAR KATL 310852Z 33005KT 10SM CLR 23/19 A2995 RMK AO2 SLP131 T02330189 55001=
201507310752 METAR KATL 310752Z 32005KT 10SM CLR 23/19 A2995 RMK AO2 SLP129 T02330194=
201507310652 METAR KATL 310652Z 33007KT 10SM CLR 24/20 A2995 RMK AO2 SLP129 T02440200=
201507310552 METAR KATL 310552Z 32007KT 10SM FEW250 25/21 A2995 RMK AO2 SLP131 T02500211 10272 20250 58009=
201507310452 METAR KATL 310452Z 32007KT 10SM FEW250 26/22 A2996 RMK AO2 SLP133 T02560222 403440244=
201507310352 METAR KATL 310352Z 31005KT 10SM FEW250 26/22 A2998 RMK AO2 SLP140 T02610222=
201507310252 METAR KATL 310252Z 31006KT 10SM FEW250 27/22 A2998 RMK AO2 SLP140 T02670222 53016=
201507310152 METAR KATL 310152Z 32005KT 10SM FEW200 SCT250 26/23 A2996 RMK AO2 SLP133 T02610228=
201507310052 METAR KATL 310052Z 31005KT 10SM FEW040 SCT060 BKN200 BKN250 27/22 A2994 RMK AO2 SLP125 T02670217 $=
201507302352 METAR KATL 302352Z 30009KT 10SM SCT040 BKN150 BKN250 27/22 A2993 RMK AO2 WSHFT 2252 TSE28RAB04E11 SLP125 P0000 60001 T02720217 10344 20250 53000=
201507302328 SPECI KATL 302328Z 29010KT 10SM FEW030CB SCT060 BKN100 BKN200 26/22 A2993 RMK AO2 WSHFT 2252 TSE28RAB04E11 TS DSIPTD CB VC SW-W MOV SW P0000=
201507302312 SPECI KATL 302312Z 31011KT 10SM TS FEW030CB SCT060 BKN150 BKN200 26/22 A2993 RMK AO2 WSHFT 2252 RAB04E11 OCNL LTGICCG VC SW-NW TS VC SW-NW MOV SW P0000=
201507302252 METAR KATL 302252Z 30010KT 10SM TS FEW030CB SCT060 BKN150 BKN200 25/22 A2993 RMK AO2 SLP124 FRQ LTGICCG VC SW-NW TS VC SW-NW MOV SW T02500217=
201507302152 METAR KATL 302152Z 25004KT 10SM TS FEW030CB BKN100 BKN200 BKN250 28/24 A2992 RMK AO2 TSB49RAB19E48 SLP121 OCNL LTGICCG VC SW-NW TS VC SW-NW MOV SW TCU VC NW-NE P0001 T02780239=
201507302150 SPECI KATL 302150Z 23004KT 10SM TS FEW030CB BKN100 BKN200 BKN250 27/24 A2992 RMK AO2 TSB49RAB19E48 OCNL LTGICCG VC SW-NW TS VC SW-NW MOV SW TCU VC NW-NE P0001=
201507302052 METAR KATL 302052Z 15008KT 10SM SCT040CB BKN055TCU BKN080 29/22 A2993 RMK AO2 TSB10E34 SLP123 TS MOV S CB E & SW MOV S TCU N-NE CB DSNT N T02940217 56022=
201507302035 SPECI KATL 302035Z 22006KT 10SM SCT040CB BKN060TCU BKN080 29/22 A2994 RMK AO2 TSB10E34 TS MOV S CB S-SW MOV S TCU N-NE-E=
201507302013 SPECI KATL 302013Z 18006KT 10SM TS SCT040CB BKN060TCU BKN080 32/23 A2994 RMK AO2 TSB10 OCNL LTGCG S TS S MOV S TCU ALQDS SHRA VC S=
201507301952 METAR KATL 301952Z 12006KT 10SM BKN050CB BKN060TCU BKN075 BKN250 33/22 A2995 RMK AO2 SLP128 CB SE-S MOV S TCU NE-E T03280217=
201507301852 METAR KATL 301852Z 32008KT 10SM SCT045TCU BKN055 BKN150 BKN250 33/22 A2996 RMK AO2 SLP134 TCU OHD-SW-NW-N CB DSNT E-SE T03280222=
201507301752 METAR KATL 301752Z 06008KT 10SM FEW040 SCT050 SCT150 SCT250 33/23 A3000 RMK AO2 SLP145 CB DSNT E-SE TCU DSNT W-NW T03280233 10339 20261 58006=
201507301652 METAR KATL 301652Z 00000KT 10SM FEW036 SCT170 SCT250 33/23 A3002 RMK AO2 SLP153 TCU DSNT NE & NW T03280228=
201507301552 METAR KATL 301552Z 08005KT 10SM FEW030 SCT110 BKN170 BKN250 31/23 A3002 RMK AO2 SLP153 T03110233=
201507301452 METAR KATL 301452Z 00000KT 10SM FEW110 BKN160 BKN250 30/23 A3002 RMK AO2 SLP151 T03000233 51006=
201507301352 METAR KATL 301352Z 00000KT 10SM FEW110 BKN150 BKN250 28/23 A3001 RMK AO2 SLP151 T02830228=
201507301252 METAR KATL 301252Z COR 03005KT 10SM FEW110 SCT250 28/23 A3001 RMK AO2 SLP150 ACC NW T02830228=
201507301152 METAR KATL 301152Z 10004KT 10SM FEW250 26/23 A3000 RMK AO2 SLP146 70003 T02610228 10272 20244 51012=
201507301052 METAR KATL 301052Z 07003KT 10SM FEW012 SCT250 SCT300 26/22 A2999 RMK AO2 SLP144 T02560222=
201507300952 METAR KATL 300952Z 00000KT 10SM BKN200 BKN300 26/23 A2998 RMK AO2 SLP139 T02560228=
201507300852 METAR KATL 300852Z 13004KT 10SM SCT200 BKN300 26/23 A2996 RMK AO2 SLP133 T02560228 55014=
201507300752 METAR KATL 300752Z 33004KT 10SM FEW150 BKN200 OVC300 27/23 A2996 RMK AO2 SLP133 T02670228=
201507300652 METAR KATL 300652Z 32004KT 10SM SCT200 BKN250 27/23 A2998 RMK AO2 SLP139 T02670233=
201507300552 METAR KATL 300552Z 33003KT 10SM SCT200 BKN250 27/23 A3000 RMK AO2 SLP147 T02670233 10311 20267 58000=
201507300452 METAR KATL 300452Z 00000KT 10SM FEW200 BKN250 27/23 A3002 RMK AO2 SLP151 T02670228 403390239=
201507300352 METAR KATL 300352Z 00000KT 10SM FEW040 SCT200 BKN250 28/22 A3001 RMK AO2 SLP149 T02780222=
201507300252 METAR KATL 300252Z 00000KT 10SM FEW040TCU SCT200 BKN250 28/22 A3000 RMK AO2 SLP148 TCU VC SW T02830222 51015=
201507300152 METAR KATL 300152Z 12006KT 10SM FEW120 SCT200 BKN250 29/23 A2999 RMK AO2 SLP144 T02890233=
201507300052 METAR KATL 300052Z 00000KT 10SM FEW030 SCT120 BKN200 BKN250 31/22 A2997 RMK AO2 SLP137 T03060222=
201507292352 METAR KATL 292352Z 09005KT 10SM FEW030 SCT120 BKN200 BKN250 31/23 A2996 RMK AO2 SLP132 60003 T03110233 10339 20289 53001=
201507292252 METAR KATL 292252Z 09004KT 10SM FEW030 SCT150 BKN200 BKN250 31/23 A2995 RMK AO2 RAB2154E17 SLP130 TCU DSNT N-NE & SW & NW P0001 T03060228=
201507292152 METAR KATL 292152Z 00000KT 10SM FEW030TCU SCT050 BKN120 BKN200 31/22 A2995 RMK AO2 SLP131 SHRA N TCU OHD-N & SE T03110222=
201507292052 METAR KATL 292052Z 15010KT 10SM FEW025 SCT060 SCT100 BKN150 31/23 A2996 RMK AO2 RAB05E33 SLP131 CB DSNT E-SE-S SHRA DSNT E-SE-S P0002 60002 T03060228 56015=
201507292019 SPECI KATL 292019Z 00000KT 10SM -RA FEW040CB SCT070 BKN100 29/21 A2996 RMK AO2 RAB05 VIS LWR E-SE-S SHRA CB E-SE-S MOV S P0002=
201507292007 SPECI KATL 292007Z 31013KT 3SM RA BKN040CB BKN075 BKN100 30/21 A2997 RMK AO2 RAB05 CB OHD-NE-E MOV S P0000=
201507292005 SPECI KATL 292005Z 31013G22KT 8SM -RA FEW040CB BKN075 BKN100 30/21 A2997 RMK AO2 RAB05 VIS LWR NE & W SHRA CB NE & W MOV S P0000=
201507291952 METAR KATL 291952Z 30015G21KT 10SM FEW040CB BKN050TCU BKN110 31/21 A2996 RMK AO2 SLP133 CB E & S & W-NW MOV S TCU OHD & ALQDS SHRA VC E & S & W-NW T03060211=
201507291852 METAR KATL 291852Z VRB06KT 10SM FEW040CB SCT050TCU SCT080 33/23 A2997 RMK AO2 SLP136 CB W MOV S TCU N & S-NW SHRA VC W T03330228=
201507291752 METAR KATL 291752Z 29006KT 10SM FEW040 SCT150 SCT250 33/23 A3000 RMK AO2 SLP146 CB DSNT SE & NW T03330233 10333 20250 58010=
201507291652 METAR KATL 291652Z 00000KT 10SM FEW040 BKN150 BKN250 32/23 A3002 RMK AO2 SLP155 T03170228=
201507291552 METAR KATL 291552Z 31006KT 10SM FEW035 SCT160 SCT250 31/24 A3004 RMK AO2 SLP159 T03110239=
201507291452 METAR KATL 291452Z 30005KT 10SM FEW160 SCT250 29/23 A3003 RMK AO2 SLP157 T02940228 50007=
201507291352 METAR KATL 291352Z 31005KT 10SM BKN160 BKN250 28/22 A3004 RMK AO2 SLP160 T02830222=
201507291252 METAR KATL 291252Z 35007KT 10SM FEW100 SCT150 SCT200 SCT250 28/22 A3003 RMK AO2 SLP157 T02780217=
201507291152 METAR KATL 291152Z COR 32008KT 10SM FEW050 SCT100 SCT150 SCT200 BKN250 25/21 A3001 RMK AO2 SLP150 T02500211 10261 20239 53016=
201507291052 METAR KATL 291052Z 31003KT 10SM FEW120 SCT200 SCT250 24/22 A2999 RMK AO2 SLP144 T02440217=
201507290952 METAR KATL 290952Z 32008KT 10SM FEW120 SCT200 25/22 A2997 RMK AO2 SLP134 T02500217=
201507290852 METAR KATL 290852Z 31005KT 10SM FEW120 BKN200 24/22 A2996 RMK AO2 SLP134 T02440217 56014=
201507290752 METAR KATL 290752Z 30004KT 10SM FEW120 SCT200 25/22 A2996 RMK AO2 SLP133 T02500217=
201507290652 METAR KATL 290652Z 31005KT 10SM FEW150 SCT200 26/22 A2997 RMK AO2 SLP137 T02560217=
201507290552 METAR KATL 290552Z 31006KT 10SM FEW150 SCT200 SCT250 26/22 A3001 RMK AO2 SLP148 T02610222 10306 20256 58002=
201507290452 METAR KATL 290452Z 27004KT 10SM FEW150 SCT200 BKN250 26/22 A3002 RMK AO2 SLP151 T02610222 403440244=
201507290352 METAR KATL 290352Z 32006KT 10SM SCT200 BKN250 27/23 A3002 RMK AO2 SLP152 T02670228=
201507290252 METAR KATL 290252Z 35006KT 10SM FEW150 BKN250 28/22 A3001 RMK AO2 SLP150 T02780222 53012=
201507290152 METAR KATL 290152Z 33004KT 10SM FEW150 SCT200 BKN250 28/21 A2999 RMK AO2 SLP142 T02830211=
201507290052 METAR KATL 290052Z 01009KT 10SM FEW045 SCT150 BKN200 BKN250 30/21 A2999 RMK AO2 SLP142 CB DSNT NE T03000206=
201507282352 METAR KATL 282352Z 31008KT 10SM FEW045 SCT150 BKN200 BKN250 31/22 A2998 RMK AO2 SLP139 CB DSNT NE T03060217 10344 20306 53003=
201507282252 METAR KATL 282252Z 32011KT 10SM FEW045 SCT150 BKN250 32/21 A2996 RMK AO2 SLP132 OCNL LTG DSNT NE TCU DSNT SE T03170211=
201507282152 METAR KATL 282152Z 29006KT 10SM FEW045 SCT100 BKN250 34/22 A2996 RMK AO2 SLP133 TCU DSNT NE T03440222=
201507282052 METAR KATL 282052Z 15005KT 10SM FEW045 SCT100 SCT250 33/22 A2997 RMK AO2 WSHFT 1952 SLP134 CB DSNT N & SE TCU DSNT NE T03330217 58016=
201507282007 SPECI KATL 282007Z 08012G19KT 10SM FEW045CB SCT050TCU BKN060 BKN250 32/21 A2999 RMK AO2 WSHFT 1952 CB E-SE MOV S TCU N-NE-E SHRA VC E-SE=
201507281952 METAR KATL 281952Z 04012G16KT 350V070 10SM FEW040CB BKN050TCU BKN250 34/22 A2999 RMK AO2 SLP143 CB NE-E MOV S TCU OHD-N-NE-E-SE SHRA VC NE-E T03440217=
201507281852 METAR KATL 281852Z 27005KT 10SM FEW040CB SCT050TCU SCT250 34/22 A2999 RMK AO2 SLP144 CB NE MOV S TCU N-NE-E SHRA VC NE T03390217=
201507281752 METAR KATL 281752Z 28004KT 10SM FEW045TCU SCT100 SCT250 33/22 A3001 RMK AO2 SLP152 TCU N-NE-E T03330217 10333 20256 58008=
201507281652 METAR KATL 281652Z 29003KT 10SM FEW040 SCT250 33/23 A3003 RMK AO2 SLP157 TCU DSNT N-NE & DSNT W T03280228=
201507281552 METAR KATL 281552Z 29006KT 10SM FEW040 SCT250 32/22 A3003 RMK AO2 SLP158 T03170222=
201507281452 METAR KATL 281452Z 00000KT 10SM FEW035 SCT250 31/23 A3004 RMK AO2 SLP159 T03060228 50006=
201507281352 METAR KATL 281352Z 00000KT 9SM FEW200 BKN250 29/22 A3005 RMK AO2 SLP163 T02940222=
201507281252 METAR KATL 281252Z 00000KT 9SM FEW120 SCT250 28/22 A3004 RMK AO2 SLP161 T02830222=
201507281152 METAR KATL 281152Z 31004KT 9SM FEW120 BKN250 26/22 A3002 RMK AO2 SLP155 T02610217 10267 20244 53014=
201507281052 METAR KATL 281052Z 33003KT 9SM FEW120 SCT250 26/21 A3000 RMK AO2 SLP149 T02560211=
201507280952 METAR KATL 280952Z 00000KT 10SM FEW120 SCT250 25/22 A2998 RMK AO2 SLP141 T02500217=
201507280852 METAR KATL 280852Z 00000KT 10SM SCT250 26/22 A2998 RMK AO2 SLP138 T02560217 56009=
201507280752 METAR KATL 280752Z 00000KT 10SM SCT250 26/22 A2998 RMK AO2 SLP141 T02560217=
201507280652 METAR KATL 280652Z 29003KT 10SM FEW150 SCT250 25/21 A2999 RMK AO2 SLP145 T02500211=
201507280552 METAR KATL 280552Z 18003KT 10SM FEW150 SCT250 24/21 A3001 RMK AO2 SLP149 T02440211 10289 20244 50006=
201507280452 METAR KATL 280452Z 34003KT 10SM FEW150 SCT250 27/21 A3001 RMK AO2 SLP149 T02670211 403330244=
201507280352 METAR KATL 280352Z 03005KT 10SM SCT150 BKN250 29/21 A3000 RMK AO2 SLP147 T02890211=
201507280252 METAR KATL 280252Z 02006KT 10SM FEW150 BKN250 29/21 A2999 RMK AO2 SLP142 T02890211 53006=
201507280152 METAR KATL 280152Z 34005KT 10SM FEW150 BKN250 28/20 A2998 RMK AO2 SLP140 T02830200=
201507280052 METAR KATL 280052Z 31004KT 10SM FEW110 SCT150 BKN250 27/20 A2997 RMK AO2 SLP137 T02720200=
201507272352 METAR KATL 272352Z 31007KT 10SM SCT110 BKN150 OVC250 28/20 A2997 RMK AO2 SLP136 60000 T02780200 10333 20272 51002=
201507272252 METAR KATL 272252Z 31011KT 10SM FEW045 BKN110 BKN150 OVC250 28/22 A2997 RMK AO2 RAB21E43 SLP136 CB DSNT W-NW P0000 T02830217=
201507272152 METAR KATL 272152Z 05011KT 10SM FEW045CB SCT100 BKN150 BKN250 29/21 A2998 RMK AO2 WSHFT 2125 SLP139 CB VC NW MOV SW VCSH NE-SE & NW-N T02940211=
201507272143 SPECI KATL 272143Z 07012KT 10SM FEW045CB SCT100 BKN150 BKN250 29/21 A2998 RMK AO2 WSHFT 2125 CB VC NW-N MOV SW VCSH S-SE & NW-N=
201507272052 METAR KATL 272052Z VRB03KT 10SM FEW050 BKN070 BKN250 33/21 A2996 RMK AO2 SLP134 CB DSNT N-NE-E TCU DSNT NW SHRA DSNT N-NE-E T03330206 56015=
201507271952 METAR KATL 271952Z 22004KT 10SM FEW045 BKN080 BKN250 32/21 A2998 RMK AO2 SLP139 CB DSNT NE CBMAM DSNT N T03220206=
201507271852 METAR KATL 271852Z 27004KT 10SM FEW055CB BKN070 BKN250 32/21 A2999 RMK AO2 SLP145 CB DSNT N & S MOV S SHRA DSNT N & VC S TCU DSNT SE & NW T03220211=
201507271831 SPECI KATL 271831Z 33010KT 10SM FEW050CB BKN070 BKN250 31/21 A3000 RMK AO2 CB OHD-SE MOV S TCU DSNT NE & NW=
201507271822 SPECI KATL 271822Z 30004KT 10SM BKN050CB BKN070 BKN250 31/20 A3000 RMK AO2 CB OHD-SW-NW MOV S SHRA SW-NW=
201507271752 METAR KATL 271752Z 32004KT 10SM BKN050TCU BKN250 33/21 A3001 RMK AO2 SLP149 TCU OHD-N-NE-E-SE T03280211 10328 20261 58008=
201507271652 METAR KATL 271652Z 00000KT 10SM FEW045 SCT250 32/20 A3003 RMK AO2 SLP155 TCU DSNT NE-SE & DSNT W T03170200 $=
201507271552 METAR KATL 271552Z 00000KT 10SM SCT040TCU SCT250 31/21 A3004 RMK AO2 SLP160 TCU NE-E & SE-S T03060211 $=
201507271452 METAR KATL 271452Z 00000KT 10SM FEW040 SCT250 30/21 A3004 RMK AO2 SLP159 TCU DSNT N-NE T03000211 50004 $=
201507271352 METAR KATL 271352Z 00000KT 10SM SCT250 29/22 A3004 RMK AO2 SLP160 T02940222 $=
201507271252 METAR KATL 271252Z 00000KT 10SM SCT250 27/22 A3003 RMK AO2 SLP158 T02720222 $=
201507271152 METAR KATL 271152Z 03003KT 10SM FEW120 SCT250 28/21 A3002 RMK AO2 SLP154 T02780211 10278 20244 53017 $=
201507271052 METAR KATL 271052Z 00000KT 9SM FEW200 SCT250 26/21 A3000 RMK AO2 SLP148 T02610206 $=
201507270952 METAR KATL 270952Z 33004KT 10SM FEW080 24/21 A2999 RMK AO2 SLP142 T02440211 $=
201507270852 METAR KATL 270852Z 32005KT 10SM CLR 24/21 A2997 RMK AO2 SLP137 T02440211 55005 $=
201507270752 METAR KATL 270752Z 00000KT 10SM CLR 26/21 A2996 RMK AO2 SLP134 T02560211 $=
201507270652 METAR KATL 270652Z 00000KT 10SM FEW055 SCT080 SCT250 26/22 A2998 RMK AO2 SLP138 T02560217 $=
201507270552 METAR KATL 270552Z 00000KT 10SM FEW080 SCT250 28/21 A2999 RMK AO2 SLP141 T02780206 10306 20261 58005 $=
201507270452 METAR KATL 270452Z 03004KT 10SM FEW090 SCT250 28/21 A3000 RMK AO2 SLP145 T02830211 403280233 $=
201507270352 METAR KATL 270352Z 02003KT 10SM FEW085 SCT200 SCT250 29/21 A3000 RMK AO2 SLP146 T02890206 $=
201507270252 METAR KATL 270252Z 31003KT 10SM SCT200 BKN250 28/21 A3000 RMK AO2 SLP147 T02780206 53010 $=
201507270152 METAR KATL 270152Z 00000KT 10SM FEW080 BKN200 BKN250 29/20 A2998 RMK AO2 SLP141 T02940200 $=
201507270052 METAR KATL 270052Z 30004KT 10SM FEW055 SCT085 BKN200 BKN250 29/21 A2998 RMK AO2 SLP141 ACC NW T02940206 $=
201507262352 METAR KATL 262352Z 18003KT 10SM FEW050 SCT085 BKN200 BKN250 31/19 A2997 RMK AO2 SLP138 CB DSNT NW TCU DSNT E T03110194 10328 20306 55007 $=
201507262252 METAR KATL 262252Z 00000KT 10SM FEW055 SCT090 SCT200 BKN250 32/20 A2997 RMK AO2 SLP135 TCU DSNT E-SE T03170200 $=
201507262152 METAR KATL 262152Z 00000KT 10SM FEW055 SCT090 SCT250 33/20 A2998 RMK AO2 SLP139 T03280200 $=
201507262052 METAR KATL 262052Z VRB03KT 10SM FEW055 SCT075 BKN100 BKN250 32/21 A2999 RMK AO2 SLP144 TCU DSNT SW T03220206 56011 $=
201507261952 METAR KATL 261952Z 00000KT 10SM BKN055 BKN085 BKN250 32/20 A3000 RMK AO2 SLP147 T03170200 $=
201507261852 METAR KATL 261852Z 16004KT 10SM SCT055 BKN075 BKN250 31/19 A3001 RMK AO2 SLP151 T03060189 $=
201507261752 METAR KATL 261752Z 22003KT 10SM FEW048 SCT120 SCT250 31/21 A3002 RMK AO2 SLP155 T03110206 10317 20233 58003 $=
201507261652 METAR KATL 261652Z 00000KT 10SM FEW045 SCT120 BKN250 31/20 A3004 RMK AO2 SLP161 T03110200 $=
201507261552 METAR KATL 261552Z VRB03KT 10SM FEW040 SCT110 SCT250 29/19 A3003 RMK AO2 SLP158 T02940189 $=
201507261452 METAR KATL 261452Z 19005KT 10SM FEW100 SCT250 28/19 A3003 RMK AO2 SLP158 T02830194 50010 $=
201507261352 METAR KATL 261352Z 19003KT 10SM SCT100 SCT250 27/20 A3003 RMK AO2 SLP158 T02720200 $=
201507261252 METAR KATL 261252Z 00000KT 10SM FEW110 SCT250 26/19 A3002 RMK AO2 SLP153 T02560194 $=
201507261152 METAR KATL 261152Z 17003KT 9SM FEW060 BKN110 23/21 A3000 RMK AO2 SLP149 T02330206 10256 20233 51014 $=
201507261052 METAR KATL 261052Z 00000KT 10SM FEW060 SCT120 SCT250 24/18 A2999 RMK AO2 SLP145 T02390183 $=
201507260952 METAR KATL 260952Z 00000KT 10SM FEW060 BKN120 BKN200 25/18 A2998 RMK AO2 SLP140 T02500183 $=
201507260852 METAR KATL 260852Z 16003KT 10SM BKN120 BKN200 24/20 A2996 RMK AO2 SLP133 T02390200 58009 $=
201507260752 METAR KATL 260752Z 00000KT 10SM FEW060 SCT150 SCT200 BKN250 24/19 A2997 RMK AO2 SLP137 T02440194 $=
201507260652 METAR KATL 260652Z 00000KT 10SM SCT055 SCT150 BKN250 25/20 A2998 RMK AO2 SLP141 T02500200 $=
201507260552 METAR KATL 260552Z 21003KT 10SM FEW150 SCT200 BKN250 24/20 A2999 RMK AO2 SLP144 T02440200 10311 20244 58002 $=
201507260452 METAR KATL 260452Z 17004KT 10SM FEW200 BKN250 26/20 A2999 RMK AO2 SLP145 T02610200 403220239 $=
201507260352 METAR KATL 260352Z 00000KT 10SM BKN250 26/19 A3000 RMK AO2 SLP147 T02610194 $=
201507260252 METAR KATL 260252Z 00000KT 10SM FEW200 BKN250 27/19 A2999 RMK AO2 SLP146 T02720194 53015=
201507260152 METAR KATL 260152Z 17003KT 10SM FEW120 SCT200 SCT250 28/19 A2998 RMK AO2 SLP139 T02780194=
201507260052 METAR KATL 260052Z 00000KT 10SM FEW110 SCT200 SCT250 30/19 A2996 RMK AO2 SLP132 T03000189=
201507252352 METAR KATL 252352Z 15004KT 10SM FEW050 SCT200 SCT250 31/18 A2995 RMK AO2 SLP129 T03110183 10322 20289 55005=
201507252252 METAR KATL 252252Z 15004KT 10SM FEW048 SCT200 SCT250 32/19 A2994 RMK AO2 SLP127 T03170189=
201507252152 METAR KATL 252152Z COR 15006KT 10SM FEW050 SCT250 32/19 A2995 RMK AO2 SLP130 TCU DSNT SE-SW & NW T03170194=
201507252052 METAR KATL 252052Z 16008KT 10SM SCT050TCU SCT070 BKN250 31/20 A2996 RMK AO2 SLP134 TCU NW-N T03110200 57011=
201507251952 METAR KATL 251952Z VRB06KT 10SM BKN046TCU BKN060 31/19 A2998 RMK AO2 SLP138 TCU VC-E CB DSNT NW T03060194=
201507251852 METAR KATL 251852Z 14007KT 10SM SCT035 BKN050 BKN250 31/21 A2999 RMK AO2 SLP142 T03060211=
201507251752 METAR KATL 251752Z 15006KT 10SM SCT035 BKN045 BKN250 30/22 A3000 RMK AO2 SLP145 T03000217 10306 20244 58008=
201507251652 METAR KATL 251652Z 12006KT 10SM SCT032 SCT075 BKN250 29/21 A3001 RMK AO2 SLP149 T02940211=
201507251552 METAR KATL 251552Z 14006KT 10SM SCT025 BKN075 28/22 A3002 RMK AO2 SLP153 SCT025 V BKN T02830217=
201507251452 METAR KATL 251452Z 12008KT 10SM SCT020 BKN060 27/22 A3002 RMK AO2 SLP153 T02720217 51009=
201507251443 SPECI KATL 251443Z 12005KT 10SM SCT020 BKN060 BKN075 27/22 A3002 RMK AO2 SCT020 V BKN=
201507251428 SPECI KATL 251428Z 11005KT 10SM BKN017 BKN055 27/22 A3002 RMK AO2 BKN017 V SCT=
201507251413 SPECI KATL 251413Z 14005KT 10SM SCT015 SCT020 BKN060 27/22 A3002 RMK AO2=
201507251352 METAR KATL 251352Z 13007KT 10SM BKN015 BKN020 OVC055 27/22 A3002 RMK AO2 SLP152 T02670222=
201507251343 SPECI KATL 251343Z VRB06KT 10SM BKN015 BKN020 OVC055 27/22 A3002 RMK AO2=
201507251319 SPECI KATL 251319Z VRB05KT 10SM BKN013 BKN050 26/22 A3002 RMK AO2=
201507251252 METAR KATL 251252Z VRB06KT 8SM SCT009 SCT035 SCT200 26/22 A3000 RMK AO2 SLP149 T02560222=
201507251226 SPECI KATL 251226Z 11005KT 8SM SCT009 SCT200 26/22 A3000 RMK AO2=
201507251152 METAR KATL 251152Z 09007KT 8SM FEW035 24/22 A2999 RMK AO2 SLP144 T02440222 10256 20239 53013=
201507251052 METAR KATL 251052Z 08008KT 9SM FEW035 SCT055 SCT150 SCT250 24/22 A2998 RMK AO2 SLP140 T02390217=
201507250952 METAR KATL 250952Z 05005KT 10SM FEW055 24/22 A2996 RMK AO2 SLP134 T02440217=
201507250852 METAR KATL 250852Z 05005KT 10SM FEW055 24/21 A2995 RMK AO2 SLP130 T02440211 56007=
201507250752 METAR KATL 250752Z 07007KT 10SM FEW050 24/21 A2996 RMK AO2 SLP133 T02440211=
201507250652 METAR KATL 250652Z 10004KT 10SM FEW050 24/21 A2995 RMK AO2 SLP130 T02440206=
201507250552 METAR KATL 250552Z 10003KT 10SM FEW050 25/21 A2997 RMK AO2 SLP137 T02500206 10311 20250 50001=
201507250452 METAR KATL 250452Z 12004KT 10SM FEW050 SCT250 26/21 A2998 RMK AO2 SLP140 T02560211 403280233=
201507250352 METAR KATL 250352Z 09005KT 10SM FEW200 SCT250 26/21 A2997 RMK AO2 SLP137 T02560206=
201507250252 METAR KATL 250252Z COR 35006KT 10SM FEW250 28/19 A2997 RMK AO2 SLP136 CB DSNT SE T02830189 51016=
201507250152 METAR KATL 250152Z 36008KT 10SM FEW050 30/18 A2996 RMK AO2 SLP133 CONS LTG DSNT NE-SE T03000183=
201507250052 METAR KATL 250052Z 31006KT 10SM FEW050 29/18 A2994 RMK AO2 SLP128 CB DSNT NE T02890183=
201507242352 METAR KATL 242352Z 33008KT 10SM FEW050 31/18 A2992 RMK AO2 SLP119 CB DSNT NE T03110183 10328 20306 55002=
201507242252 METAR KATL 242252Z 33008KT 10SM FEW050 32/19 A2991 RMK AO2 SLP118 T03220189=
201507242152 METAR KATL 242152Z 32009KT 10SM FEW050 32/19 A2992 RMK AO2 SLP118 CB DSNT SW T03220189=
201507242052 SPECI KATL 242052Z 34010KT 10SM FEW050 SCT200 SCT250 32/20 A2992 RMK AO2 SLP121 CB DSNT SW-W T03220200 56021=
201507242052 METAR KATL 242052Z 34010KT 10SM FEW050 SCT200 SCT250 32/20 A2992 RMK AO2 SLP121 CB DSNT SW-W T03220200 56021=
201507241952 METAR KATL 241952Z 34010G15KT 10SM SCT047 SCT250 32/20 A2994 RMK AO2 SLP127 T03220200=
201507241852 METAR KATL 241852Z 34008KT 10SM SCT045 SCT250 32/21 A2997 RMK AO2 SLP136 T03170206=
201507241752 METAR KATL 241752Z 34012KT 10SM FEW040TCU SCT250 31/21 A2999 RMK AO2 SLP144 TCU E-SE T03110211 10311 20239 58008=
201507241652 METAR KATL 241652Z 35012KT 10SM SCT035TCU SCT250 30/21 A3000 RMK AO2 SLP148 TCU E-SE & W-NW T03000211=
201507241652 SPECI KATL 241652Z 35012KT 10SM SCT035TCU SCT250 30/21 A3000 RMK AO2 SLP148 TCU E-SE & W-NW T03000211=
201507241552 METAR KATL 241552Z 34009KT 10SM SCT030 SCT250 29/21 A3001 RMK AO2 SLP150 TCU DSNT E T02940211=
201507241452 METAR KATL 241452Z 32011KT 10SM FEW025 SCT250 28/22 A3001 RMK AO2 SLP152 T02830222 50007=
201507241425 SPECI KATL 241425Z 32011KT 10SM SCT020 SCT250 28/22 A3001 RMK AO2=
201507241352 METAR KATL 241352Z COR 30008KT 10SM FEW017 SCT250 27/22 A3001 RMK AO2 SLP152 T02720222=
201507241252 METAR KATL 241252Z 31011KT 10SM SCT008 SCT250 26/22 A3000 RMK AO2 SLP150 T02560222=
201507241246 SPECI KATL 241246Z 31009KT 10SM SCT008 SCT250 25/22 A3000 RMK AO2=
201507241152 METAR KATL 241152Z 31007KT 9SM BKN007 BKN250 24/22 A2999 RMK AO2 SLP146 CIG 006V009 70027 T02390222 10239 20233 53010=
201507241052 METAR KATL 241052Z 29008KT 10SM BKN009 BKN250 24/22 A2998 RMK AO2 SLP142 CIG 007V011 T02390217=
201507240952 METAR KATL 240952Z 29007KT 10SM BKN008 OVC013 24/22 A2997 RMK AO2 SLP138 CIG 006V010 T02390217=
201507240924 SPECI KATL 240924Z 30007KT 10SM OVC008 24/22 A2997 RMK AO2 CIG 006V010=
201507240852 METAR KATL 240852Z 30008KT 9SM SCT005 OVC010 23/22 A2996 RMK AO2 SLP135 CIG 008V012 BINOVC T02330217 55004=
201507240812 SPECI KATL 240812Z 28006KT 10SM SCT005 BKN012 BKN032 BKN250 23/22 A2996 RMK AO2=
201507240752 METAR KATL 240752Z 27006KT 10SM BKN005 BKN014 OVC032 23/22 A2996 RMK AO2 SLP135 BINOVC T02330217=
201507240740 SPECI KATL 240740Z 27007KT 10SM FEW005 SCT014 BKN032 BKN250 23/22 A2996 RMK AO2=
201507240652 METAR KATL 240652Z 27006KT 10SM FEW007 BKN012 BKN250 23/22 A2996 RMK AO2 SLP135 T02330222=
201507240642 SPECI KATL 240642Z 27006KT 10SM SCT007 BKN012 BKN250 23/22 A2996 RMK AO2=
201507240605 SPECI KATL 240605Z 29007KT 10SM BKN006 BKN250 23/22 A2997 RMK AO2=
201507240552 METAR KATL 240552Z 28006KT 10SM SCT006 SCT250 23/22 A2997 RMK AO2 SLP138 T02330217 10250 20233 51001=
201507240522 SPECI KATL 240522Z 27006KT 10SM SCT006 BKN250 24/22 A2997 RMK AO2=
201507240452 METAR KATL 240452Z 27008KT 10SM BKN006 BKN250 24/22 A2997 RMK AO2 SLP137 T02390222 403110228=
201507240352 METAR KATL 240352Z 27008KT 10SM BKN006 BKN250 24/22 A2997 RMK AO2 SLP138 T02390222=
201507240301 SPECI KATL 240301Z 24007KT 10SM BKN006 BKN200 BKN250 24/22 A2996 RMK AO2=
201507240252 METAR KATL 240252Z 24008KT 10SM SCT006 BKN200 BKN250 24/22 A2997 RMK AO2 SLP137 T02390222 51005=
201507240207 SPECI KATL 240207Z 27007KT 10SM SCT007 BKN200 BKN250 24/22 A2997 RMK AO2=
201507240152 METAR KATL 240152Z 25005KT 10SM BKN007 BKN200 BKN250 24/22 A2997 RMK AO2 SLP137 T02440222=
201507240137 SPECI KATL 240137Z 26008KT 10SM BKN007 BKN200 BKN250 24/22 A2997 RMK AO2=
201507240119 SPECI KATL 240119Z 25006KT 10SM SCT008 BKN150 BKN200 BKN250 24/22 A2997 RMK AO2 SCT008 V BKN=
201507240052 METAR KATL 240052Z 26008KT 10SM FEW010 SCT150 BKN200 BKN250 24/22 A2996 RMK AO2 SLP137 T02440222=
201507232352 METAR KATL 232352Z 24007KT 10SM SCT150 BKN200 OVC250 25/22 A2995 RMK AO2 SLP133 60027 T02500217 10311 20233 50000=
201507232252 METAR KATL 232252Z 25008KT 10SM FEW110 SCT150 BKN200 BKN250 26/22 A2996 RMK AO2 SLP136 T02560222=
201507232152 METAR KATL 232152Z 23007KT 10SM FEW010 SCT150 BKN200 OVC250 25/23 A2995 RMK AO2 SLP131 T02500228=
201507232052 METAR KATL 232052Z 26005KT 10SM FEW010 SCT100 BKN160 BKN250 26/23 A2995 RMK AO2 SLP133 60027 T02610228 58016=
201507231952 METAR KATL 231952Z 23003KT 10SM FEW010 SCT100 BKN150 BKN250 24/22 A2996 RMK AO2 TSE1856RAE44 SLP137 CB DSNT NE-SE P0014 T02440222=
201507231905 SPECI KATL 231905Z 32004KT 10SM -RA SCT030CB BKN070 BKN100 BKN250 24/22 A2999 RMK AO2 TSE1856 PRESFR VIS LWR NE-SE SHRA TS DSIPT CB NE-SE MOV E P0012 $=
201507231856 SPECI KATL 231856Z 34009KT 4SM R09R/4500VP6000FT RA BR FEW010CB BKN030 OVC050 23/22 A3000 RMK AO2 TSE56 VIS LWR NE-SE SHRA TS DSIPT CB NE-SE MOV E P0009 $=
201507231852 METAR KATL 231852Z 34011KT 3SM R09R/2800V6000FT TSRA BR FEW010CB BKN030 OVC050 24/22 A3000 RMK AO2 PK WND 32032/1832 TSB17RAB36 SLP151 VIS LWR NE-SE SHRA OCNL LTGICCG OHD-NE-SE TS OHD-NE-SE MOV E P0013 T02390217 $=
201507231850 SPECI KATL 231850Z 34013G28KT 3SM R09R/2600V5500FT TSRA BR BKN020CB BKN030 OVC050 24/22 A3001 RMK AO2 PK WND 32032/1832 TSB17RAB36 VIS LWR NE-SE SHRA OCNL LTGICCG OHD-NE-SE TS OHD-NE-SE MOV E P0010 $=
201507231844 SPECI KATL 231844Z 34019G28KT 1/2SM R09R/2600VP6000FT +TSRA FG BKN020CB BKN030 OVC060 24/22 A3001 RMK AO2 PK WND 32032/1832 TSB17RAB36 OCNL LTGICCG OHD TS OHD MOV E P0000 $=
201507231840 SPECI KATL 231840Z 32023G32KT 1SM R09R/P6000FT +TSRA BKN020CB BKN030 OVC060 26/22 A3001 RMK AO2 PK WND 32032/1832 TSB17RAB36 OCNL LTGICCG OHD TS OHD MOV E P0000=
201507231838 SPECI KATL 231838Z 32018G32KT 1SM R09R/P6000FT TSRA BKN020CB BKN030 OVC060 26/21 A3001 RMK AO2 PK WND 32032/1832 TSB17RAB36 OCNL LTGICCG OHD TS OHD MOV E P0000=
201507231836 SPECI KATL 231836Z 33019G32KT 4SM TSRA BKN030CB BKN060 OVC150 27/21 A3001 RMK AO2 PK WND 32032/1832 TSB17RAB36 VIS LWR SW-NW-NE SHRA OCNL LTGICCG SW-NW-NE TS SW-NW-NE MOV E P0000=
201507231817 SPECI KATL 231817Z 26010KT 10SM TS SCT030CB BKN050 BKN150 BKN250 30/23 A2999 RMK AO2 TSB17 OCNL LTGICCG W-NW-N TS VC W-NW-N MOV E SHRA VC W-NW-N=
201507231752 METAR KATL 231752Z 28008KT 10SM FEW035TCU SCT050 BKN160 BKN250 31/23 A3000 RMK AO2 SLP147 CB DSNT SW-NW TCU SE-S & W 60000 T03060228 10311 20239 58008=
201507231652 METAR KATL 231652Z 26006KT 10SM SCT030 SCT050 BKN160 BKN250 29/23 A3002 RMK AO2 SLP154 T02940228=
201507231552 METAR KATL 231552Z 27006KT 10SM FEW030 SCT130 BKN160 28/23 A3003 RMK AO2 SLP157 ACC DSNT W T02830228=
201507231452 METAR KATL 231452Z 29005KT 10SM FEW025 SCT120 BKN160 27/22 A3003 RMK AO2 SLP157 60000 T02670217 51007=
201507231352 METAR KATL 231352Z 27003KT 10SM FEW120 BKN150 BKN250 26/21 A3002 RMK AO2 RAB06E16 SLP155 P0000 T02610211 $=
201507231252 METAR KATL 231252Z 25003KT 10SM FEW080 SCT110 BKN150 BKN200 24/21 A3001 RMK AO2 SLP153 ACC NE & NW T02440211=
201507231152 METAR KATL 231152Z 27003KT 10SM FEW075 BKN150 BKN200 BKN250 24/21 A3000 RMK AO2 SLP151 ACC NW 70071 T02390211 10239 20228 53012=
201507231052 METAR KATL 231052Z 26003KT 10SM FEW075 BKN160 BKN200 BKN250 23/21 A2999 RMK AO2 SLP144 ACC VC W & DSNT NW T02280206=
201507230952 METAR KATL 230952Z 28004KT 10SM SCT160 BKN200 BKN250 23/21 A2998 RMK AO2 SLP139 T02280206=
201507230852 METAR KATL 230852Z 28005KT 10SM FEW150 BKN200 BKN250 23/20 A2997 RMK AO2 SLP136 T02280200 56006=
201507230752 METAR KATL 230752Z 29006KT 10SM FEW150 BKN200 OVC250 23/20 A2997 RMK AO2 SLP136 T02330200=
201507230652 METAR KATL 230652Z 25003KT 10SM FEW150 BKN200 BKN250 23/20 A2997 RMK AO2 SLP136 T02330200=
201507230552 METAR KATL 230552Z 27004KT 10SM SCT150 BKN200 OVC250 23/21 A2999 RMK AO2 SLP142 60012 T02330206 10261 20222 50001=
201507230452 METAR KATL 230452Z 24004KT 10SM FEW200 BKN250 23/22 A3000 RMK AO2 SLP147 T02330217 403330217=
201507230352 METAR KATL 230352Z 00000KT 10SM FEW200 BKN250 24/22 A2998 RMK AO2 SLP141 T02390222=
201507230252 METAR KATL 230252Z 00000KT 10SM FEW020 SCT200 BKN250 24/22 A2998 RMK AO2 SLP142 60012 T02440222 53003=
201507230152 METAR KATL 230152Z 00000KT 10SM FEW150 SCT200 BKN250 24/22 A2997 RMK AO2 SLP137 T02390217=
201507230052 METAR KATL 230052Z 01006KT 10SM FEW025 SCT120 BKN200 BKN250 26/21 A2995 RMK AO2 TSE11RAE11 SLP131 VIRGA NE-SE P0012 T02610211=
201507230011 SPECI KATL 230011Z 11004KT 10SM FEW025CB SCT100 BKN200 BKN250 24/18 A2995 RMK AO2 TSE11RAE11 TS DSIPTD CB VC SE MOV SE P0012=
201507222342 SPECI KATL 222342Z 32031G43KT 1SM R09R/2000VP6000FT +TSRA BR FEW010 BKN030CB BKN070 BKN200 23/21 A2996 RMK AO2 PK WND 33043/2342 WSHFT 2323 TSB09RAB35 OCNL LTGICCG OHD-SW TS OHD-SW MOV SE P0004=
201507222341 SPECI KATL 222341Z 30029G39KT 2SM R09R/2600VP6000FT +TSRA BR FEW010 BKN030CB BKN070 BKN200 23/21 A2996 RMK AO2 PK WND 33039/2341 WSHFT 2323 TSB09RAB35 VIS LWR SW-NW OCNL LTGICCG OHD-SW TS OHD-SW MOV SE P0001=
201507222309 SPECI KATL 222309Z 35006KT 10SM TS FEW040CB SCT070 BKN200 BKN250 31/21 A2993 RMK AO2 TSB09 FRQ LTGICCG VC SW-NW TS VC SW-NW MOV SE=
201507222252 METAR KATL 222252Z 33005KT 10SM FEW040 SCT150 BKN250 31/22 A2993 RMK AO2 WSHFT 2156 SLP122 OCNL LTGICCG DSNT W-NW T03060217=
201507222213 SPECI KATL 222213Z 35007KT 10SM FEW045TCU SCT150 BKN250 31/21 A2992 RMK AO2 WSHFT 2156 CB DSNT NE-E & NW TCU SE-S=
201507222152 METAR KATL 222152Z 29004KT 10SM SCT045CB SCT150 BKN250 33/22 A2992 RMK AO2 SLP118 CB N-NE & DSNT NW MOV SE SHRA N-NE T03330222=
201507222052 METAR KATL 222052Z 27006KT 10SM FEW045TCU SCT150 SCT250 33/22 A2992 RMK AO2 SLP118 CB DSNT N TCU NE-E & DSNT S & NW T03280222 58014=
201507221952 METAR KATL 221952Z 31007KT 10SM FEW045TCU SCT150 SCT250 33/22 A2993 RMK AO2 SLP123 CB DSNT W TCU NW T03280217=
201507221852 METAR KATL 221852Z 28008KT 10SM FEW040TCU SCT150 SCT250 32/22 A2995 RMK AO2 SLP130 TCU NW T03220222=
201507221752 METAR KATL 221752Z 33008KT 10SM FEW040 SCT150 SCT250 32/22 A2996 RMK AO2 SLP133 T03170222 10322 20244 58008=
201507221652 METAR KATL 221652Z VRB04KT 10SM FEW033 SCT120 SCT150 31/22 A2997 RMK AO2 SLP138 T03110222=
201507221552 METAR KATL 221552Z 00000KT 10SM FEW030 SCT150 SCT230 29/23 A2999 RMK AO2 SLP144 T02940228=
201507221452 METAR KATL 221452Z 29005KT 10SM FEW020 SCT150 SCT230 28/23 A2998 RMK AO2 SLP142 T02780228 51009=
201507221352 METAR KATL 221352Z 29004KT 10SM BKN150 BKN180 BKN250 26/22 A2997 RMK AO2 SLP140 T02610217=
201507221252 METAR KATL 221252Z 30007KT 10SM FEW040 BKN150 BKN200 BKN250 26/21 A2997 RMK AO2 SLP138 T02560211=
201507221152 METAR KATL 221152Z 25003KT 10SM FEW038 SCT050 SCT120 BKN150 BKN250 24/21 A2996 RMK AO2 SLP133 70009 T02440211 10244 20228 53014=
201507221052 METAR KATL 221052Z 28004KT 10SM FEW040 SCT110 SCT150 BKN250 23/21 A2994 RMK AO2 SLP127 T02330206=
201507220952 METAR KATL 220952Z 26005KT 10SM FEW200 SCT250 23/21 A2992 RMK AO2 SLP121 T02330206=
201507220852 METAR KATL 220852Z 29005KT 10SM FEW200 SCT250 23/21 A2991 RMK AO2 SLP118 T02330211 53002=
201507220752 METAR KATL 220752Z 32005KT 10SM FEW200 SCT250 24/21 A2990 RMK AO2 SLP112 T02390211=
201507220652 METAR KATL 220652Z 27004KT 10SM FEW200 SCT250 24/21 A2990 RMK AO2 SLP112 T02390211=
201507220552 METAR KATL 220552Z 28003KT 10SM FEW200 BKN250 24/22 A2991 RMK AO2 SLP115 60009 T02390217 10300 20239 50000=
201507220452 METAR KATL 220452Z 28004KT 10SM SCT200 BKN250 24/22 A2992 RMK AO2 SLP119 T02440217 403390239=
201507220352 METAR KATL 220352Z 24005KT 10SM FEW150 SCT200 BKN250 24/22 A2991 RMK AO2 SLP115 T02440217=
201507220252 METAR KATL 220252Z 00000KT 10SM FEW080 BKN200 OVC250 26/22 A2991 RMK AO2 SLP114 OCNL LTG DSNT SE-S 60009 T02560217 51014=
201507220152 METAR KATL 220152Z 00000KT 10SM FEW080 BKN200 BKN250 24/22 A2990 RMK AO2 TSE18 SLP114 FRQ LTG DSNT SW T02440217=
201507220118 SPECI KATL 220118Z 22004KT 10SM FEW030 SCT110 BKN200 BKN250 24/22 A2990 RMK AO2 TSE18 FRQ LTGICCG DSNT SE TS MOV SE=
201507220052 METAR KATL 220052Z 20006KT 10SM TS FEW030CB SCT060 BKN110 BKN200 25/22 A2989 RMK AO2 PK WND 29026/0018 WSHFT 0006 TSB2358RAB14E51 SLP110 FRQ LTGICCG VC SE-S TS VC SE-S MOV SE P0009 T02500217=
201507220025 SPECI KATL 220025Z 26008G26KT 9SM -TSRA FEW030CB BKN060 BKN100 BKN250 24/22 A2989 RMK AO2 PK WND 29026/0018 WSHFT 0006 TSB2358RAB14 VIS LWR S-W-NW OCNL LTGICCG S-W-NW TS S-W-NW MOV SE P0005=
201507212358 SPECI KATL 212358Z 36011KT 10SM TS FEW035CB SCT080 BKN200 OVC250 30/21 A2987 RMK AO2 TSB58 OCNL LTGICCG VC SW-NW TS VC SW-NW MOV SE=
201507212352 METAR KATL 212352Z 01011KT 10SM FEW035CB SCT100 BKN200 OVC250 30/21 A2986 RMK AO2 SLP100 OCNL LTG DSNT W-NW CB VC NW-N & DSNT W-NW MOV SE T03000211 10339 20294 53003=
201507212252 METAR KATL 212252Z 28008KT 10SM FEW040TCU SCT100 BKN200 BKN250 31/22 A2986 RMK AO2 SLP098 CB DSNT NW-N TCU OHD-W & N-NE T03110222=
201507212152 METAR KATL 212152Z 27005KT 10SM FEW150 SCT200 BKN250 32/22 A2985 RMK AO2 SLP094 CB DSNT NW-NE T03220217=
201507212052 METAR KATL 212052Z 27004KT 10SM FEW045 SCT150 BKN220 30/19 A2985 RMK AO2 PK WND 30026/1953 WSHFT 1954 TSB1958E14 SLP097 VIRGA DSNT E CB DSNT N & SE TCU DSNT NE & SW T03000194 56015=
201507212014 SPECI KATL 212014Z 34011KT 10SM FEW043CB SCT050TCU BKN150 BKN250 32/19 A2987 RMK AO2 PK WND 30026/1953 WSHFT 1954 TSB1958E14 VIRGA DSNT N OCNL LTGICCG DSNT E TS MOV E SHRA VC E & DSNT S CB E & DSNT S MOV SE TCU NE-SE=
201507211958 SPECI KATL 211958Z 31016G26KT 10SM TS FEW043CB BKN060 BKN250 32/22 A2987 RMK AO2 PK WND 30026/1953 TSB58 OCNL LTGICCG NE TS VC NE MOV SE SHRA VC NE=
201507211952 METAR KATL 211952Z COR 28016G22KT 10SM FEW040CB BKN050TCU BKN250 32/22 A2986 RMK AO2 SLP099 CB N & E MOV SE TCU E & S & SW-NW SHRA VC N & E T03220222=
201507211936 SPECI KATL 211936Z 27012G19KT 10SM SCT045TCU SCT150 BKN250 33/23 A2987 RMK AO2 CB DSNT NE & NW TCU NE & SW & NW SHRA DSNT NE & NW=
201507211852 METAR KATL 211852Z 29014G17KT 10SM FEW040 SCT150 BKN230 33/23 A2988 RMK AO2 SLP106 CB DSNT NE & SE & NW T03330233=
201507211752 METAR KATL 211752Z 26010G18KT 10SM FEW040 BKN150 BKN250 33/23 A2990 RMK AO2 SLP111 CB DSNT N & E T03330228 10333 20267 58006=
201507211652 METAR KATL 211652Z 28012G19KT 250V310 10SM FEW036TCU BKN150 BKN250 32/23 A2991 RMK AO2 SLP116 TCU E-SE-S SHRA VC E-SE-S T03220228=
201507211552 METAR KATL 211552Z 26012KT 10SM SCT035TCU SCT250 31/23 A2992 RMK AO2 SLP119 TCU NW-N-NE T03110233=
201507211452 METAR KATL 211452Z 28011G16KT 10SM FEW030 SCT150 SCT250 31/23 A2992 RMK AO2 SLP118 T03060228 51009=
201507211352 METAR KATL 211352Z 29010KT 10SM FEW150 SCT250 30/24 A2992 RMK AO2 SLP117 T03000239=
201507211252 METAR KATL 211252Z 26007KT 10SM R09R/6000FT FEW250 28/23 A2991 RMK AO2 SLP115 T02780228=
201507211152 METAR KATL 211152Z 27006KT 10SM FEW055 SCT250 27/22 A2989 RMK AO2 SLP109 T02670222 10267 20250 53007=
201507211052 METAR KATL 211052Z 23004KT 9SM FEW055 SCT250 25/22 A2988 RMK AO2 SLP106 T02500222=
201507210952 METAR KATL 210952Z 27005KT 10SM FEW055 26/22 A2987 RMK AO2 SLP100 T02560222=
201507210852 METAR KATL 210852Z 28006KT 10SM FEW250 26/22 A2987 RMK AO2 SLP101 T02560222 55012=
201507210752 METAR KATL 210752Z 28008KT 10SM FEW150 26/22 A2987 RMK AO2 SLP101 T02610222=
201507210652 METAR KATL 210652Z 28006KT 10SM FEW150 27/22 A2989 RMK AO2 SLP107 T02670217=
201507210552 METAR KATL 210552Z 00000KT 10SM FEW150 27/22 A2990 RMK AO2 SLP113 60000 T02670222 10317 20267 56002=
201507210452 METAR KATL 210452Z 00000KT 10SM FEW070 BKN150 27/22 A2991 RMK AO2 SLP115 T02720222 403390233=
201507210352 METAR KATL 210352Z 00000KT 10SM FEW070 27/22 A2990 RMK AO2 SLP112 T02720222=
201507210252 METAR KATL 210252Z 00000KT 10SM FEW080 SCT150 BKN250 28/22 A2991 RMK AO2 RAE0158 SLP116 P0000 60000 T02780222 53004=
201507210152 METAR KATL 210152Z 03005KT 10SM -RA FEW035 BKN080 BKN120 OVC200 28/22 A2989 RMK AO2 TSB10E38RAB33 SLP110 FRQ LTG DSNT SE P0000 T02830222=
201507210138 SPECI KATL 210138Z 33009KT 10SM -RA FEW040 BKN080 OVC150 29/22 A2991 RMK AO2 TSB10E38RAB33 OCNL LTG DSNT SE TS DSIPTD P0000=
201507210110 SPECI KATL 210110Z 30009KT 10SM TS FEW040CB BKN090 BKN150 OVC250 31/22 A2991 RMK AO2 TSB10 FRQ LTGICCG VC NW-N & DSNT N-NE TS VC NW-N & DSNT N-NE MOV SE=
201507210052 METAR KATL 210052Z COR 27006KT 10SM FEW045 SCT110 BKN150 BKN250 31/22 A2990 RMK AO2 SLP113 FRQ LTG DSNT NW-N T03060217=
201507202352 METAR KATL 202352Z 26005KT 10SM FEW045 BKN150 BKN250 32/22 A2990 RMK AO2 SLP112 CB DSNT NE & NW T03170222 10339 20317 53004=
201507202252 METAR KATL 202252Z 28008KT 10SM FEW045 SCT150 BKN250 33/22 A2989 RMK AO2 SLP109 CB DSNT N-NE & NW T03280222=
201507202152 METAR KATL 202152Z 25007KT 10SM FEW050 SCT150 SCT250 33/21 A2988 RMK AO2 SLP106 T03330211=
201507202052 METAR KATL 202052Z 26010KT 10SM FEW050 SCT250 34/22 A2989 RMK AO2 SLP108 CB DSNT N T03390217 58018=
201507201952 METAR KATL 201952Z 27004KT 10SM FEW050 SCT150 SCT250 33/22 A2991 RMK AO2 SLP117 T03330217=
201507201852 METAR KATL 201852Z 29008KT 10SM SCT047 SCT250 33/22 A2992 RMK AO2 SLP120 T03330222=
201507201752 METAR KATL 201752Z 00000KT 10SM SCT045 SCT250 33/22 A2994 RMK AO2 SLP126 T03280222 10328 20250 58010=
201507201652 METAR KATL 201652Z 36004KT 10SM FEW036TCU 32/22 A2996 RMK AO2 SLP131 TCU W T03220222=
201507201552 METAR KATL 201552Z 27006KT 10SM SCT035TCU 32/24 A2996 RMK AO2 SLP134 TCU E-SE-S & W T03170239=
201507201452 METAR KATL 201452Z 30006KT 10SM FEW025 SCT250 30/24 A2997 RMK AO2 SLP137 T03000244 50002=
201507201352 METAR KATL 201352Z COR 31005KT 9SM FEW015 SCT250 28/23 A2999 RMK AO2 SLP143 T02830233=
201507201252 METAR KATL 201252Z 31008KT 8SM FEW009 SCT250 27/23 A2998 RMK AO2 SLP140 T02670233=
201507201152 METAR KATL 201152Z 29006KT 8SM FEW007 SCT250 25/23 A2997 RMK AO2 SLP136 T02500228 10250 20233 53012=
201507201149 SPECI KATL 201149Z 29007KT 8SM FEW007 SCT250 25/23 A2997 RMK AO2=
201507201052 METAR KATL 201052Z 25003KT 8SM FEW150 SCT250 24/22 A2995 RMK AO2 SLP129 T02390222=
201507200952 METAR KATL 200952Z 30006KT 10SM FEW250 24/22 A2994 RMK AO2 SLP126 T02390222=
201507200852 METAR KATL 200852Z 28005KT 10SM FEW250 24/22 A2993 RMK AO2 SLP124 T02390222 56013 $=
201507200752 METAR KATL 200752Z 30005KT 10SM FEW250 24/22 A2993 RMK AO2 SLP125 T02440222 $=
201507200652 METAR KATL 200652Z 28005KT 10SM FEW250 24/22 A2995 RMK AO2 SLP129 T02440222 $=
201507200552 METAR KATL 200552Z 27005KT 10SM SCT250 24/22 A2997 RMK AO2 SLP138 T02440222 10283 20244 58008 $=
201507200452 METAR KATL 200452Z 27004KT 10SM BKN250 25/22 A2998 RMK AO2 SLP141 T02500217 403280233 $=
201507200352 METAR KATL 200352Z 27007KT 10SM SCT250 25/22 A3000 RMK AO2 SLP145 T02500217 $=
201507200252 METAR KATL 200252Z 26004KT 10SM SCT250 26/22 A3000 RMK AO2 SLP146 T02560222 53000 $=
201507200152 METAR KATL 200152Z 27005KT 10SM BKN250 26/22 A2998 RMK AO2 SLP141 T02610222 $=
201507200052 METAR KATL 200052Z 29004KT 10SM FEW030 BKN250 27/22 A2998 RMK AO2 SLP140 TCU DSNT W T02720222 $=
201507192352 METAR KATL 192352Z 33005KT 10SM SCT085 BKN250 28/23 A3000 RMK AO2 SLP146 60000 T02830228 10328 20278 53004 $=
201507192252 METAR KATL 192252Z VRB05KT 10SM FEW030 SCT120 BKN250 29/23 A2998 RMK AO2 SLP142 T02890228 $=
201507192152 METAR KATL 192152Z 28008KT 10SM FEW030TCU BKN250 29/22 A2998 RMK AO2 SLP140 TCU N T02890217 $=
201507192052 METAR KATL 192052Z 27010KT 10SM FEW032 SCT100 BKN200 BKN250 28/22 A2999 RMK AO2 RAB15E26 SLP143 CB DSNT N & E & NW P0000 60000 T02830217 58019 $=
201507191952 METAR KATL 191952Z 30012G24KT 10SM FEW030TCU SCT080 BKN200 BKN250 29/20 A3001 RMK AO2 TSB36E51 SLP151 TS DSIPTD CB DSNT NE & E & SE & SW & NW TCU NE-SE T02940200 $=
201507191938 SPECI KATL 191938Z 26010G16KT 10SM TS FEW024 SCT038CB SCT100 BKN200 32/25 A3001 RMK AO2 TSB36 OCNL LTGICCGCA NW-N TS VC NW-N MOV SE CB DSNT NE & E & SE $=
201507191852 METAR KATL 191852Z 22008KT 10SM FEW040 SCT100 SCT200 BKN250 29/24 A3002 RMK AO2 SLP155 CB DSNT NE & SE & W-NW TCU DSNT N-NE T02940239 $=
201507191752 METAR KATL 191752Z 24005KT 10SM FEW038 SCT085 SCT200 BKN250 28/23 A3004 RMK AO2 PK WND 32026/1711 TSB1653E51RAB20E44 SLP162 TS MOVD SE OCNL LTGICCGCA DSNT E-S CB DSNT E-S-SW & NW TCU DSNT NE P0000 60000 T02780228 10328 20 $=
201507191704 SPECI KATL 191704Z 33006KT 10SM TS FEW038CB SCT095 SCT160 BKN200 32/23 A3004 RMK AO2 TSB1653 OCNL LTGICCG NW TS VC NW MOV SE CB DSNT E & SW TCU N & E & S $=
201507191656 SPECI KATL 191656Z 29008KT 10SM TS FEW038CB SCT095 SCT160 BKN200 33/23 A3005 RMK AO2 TSB53 OCNL LTGICCG NW TS VC NW MOV SE CB DSNT E & SW TCU N & E & S $=
201507191652 METAR KATL 191652Z COR 30006KT 10SM FEW038CB SCT095 SCT160 BKN200 33/23 A3005 RMK AO2 CB VC NW MOV SE CB DSNT E & SW TCU N & E & S T03280239 $=
201507191552 METAR KATL 191552Z 31008KT 10SM FEW032TCU BKN150 BKN200 BKN250 31/23 A3006 RMK AO2 SLP167 TCU N & DSNT NE & SE & W T03110233 $=
201507191452 METAR KATL 191452Z 31007KT 10SM FEW030 SCT120 SCT200 BKN250 31/23 A3005 RMK AO2 SLP165 T03060233 50007 $=
201507191352 METAR KATL 191352Z 32007KT 10SM SCT250 28/23 A3005 RMK AO2 SLP165 T02830228 $=
201507191252 METAR KATL 191252Z 31004KT 10SM FEW200 SCT250 27/21 A3004 RMK AO2 SLP160 T02670211=
201507191152 METAR KATL 191152Z 00000KT 10SM FEW200 SCT250 25/22 A3003 RMK AO2 SLP159 70002 T02500217 10250 20233 52010=
201507191052 METAR KATL 191052Z 00000KT 10SM FEW200 BKN250 23/21 A3002 RMK AO2 SLP155 CIGNO T02330211=
201507190952 METAR KATL 190952Z 28003KT 10SM FEW200 BKN250 23/21 A3001 RMK AO2 SLP152 T02330211=
201507190852 METAR KATL 190852Z 31005KT 10SM FEW200 SCT250 24/21 A3000 RMK AO2 SLP149 T02390211 56011=
201507190752 METAR KATL 190752Z 00000KT 10SM FEW180 24/22 A3001 RMK AO2 SLP150 T02440217=
201507190652 METAR KATL 190652Z 28003KT 10SM FEW180 24/21 A3003 RMK AO2 SLP156 T02440211=
201507190552 METAR KATL 190552Z 00000KT 10SM BKN180 24/22 A3004 RMK AO2 SLP159 T02440217 10294 20244 58003=
201507190452 METAR KATL 190452Z 00000KT 10SM FEW250 25/21 A3004 RMK AO2 SLP162 T02500211 403330244=
201507190352 METAR KATL 190352Z 31003KT 10SM SCT250 27/21 A3005 RMK AO2 SLP165 T02670206=
201507190252 METAR KATL 190252Z 35003KT 10SM BKN150 27/21 A3004 RMK AO2 TSE0157 SLP162 TS DSPTD T02670211 53004=
201507190159 SPECI KATL 190159Z 31005KT 10SM BKN200 27/22 A3004 RMK AO2 TSE57 TS DSPTD=
201507190152 METAR KATL 190152Z 32009KT 10SM TS FEW030CB BKN200 27/22 A3004 RMK AO2 TSB29 SLP160 OCNL LTGCG NW TS NW MOV SE T02720217=
201507190130 SPECI KATL 190130Z 32015G23KT 10SM TS FEW030CB BKN070 OVC250 28/22 A3005 RMK AO2 TSB29 OCNL LTGICCG NW TS NW MOV SE=
201507190052 METAR KATL 190052Z 00000KT 10SM FEW150 BKN250 28/23 A3004 RMK AO2 SLP159 CB DSNT NW T02830228=
201507182352 METAR KATL 182352Z 18003KT 10SM FEW150 BKN250 29/22 A3003 RMK AO2 SLP157 60002 T02940217 10333 20261 55011=
201507182252 METAR KATL 182252Z 10003KT 10SM FEW150 BKN250 30/21 A3003 RMK AO2 SLP157 T03000211=
201507182152 METAR KATL 182152Z 08012G17KT 10SM FEW030 BKN150 BKN250 30/22 A3005 RMK AO2 WSHFT 2039 TSE31RAE20 SLP162 TS MOV SE CB DSNT E P0001 T03000217=
201507182133 SPECI KATL 182133Z 07005KT 10SM FEW030 BKN150 BKN250 28/22 A3004 RMK AO2 WSHFT 2039 TSE31RAE20 TS MOV SE CB DSNT E P0001=
201507182106 SPECI KATL 182106Z 07009G20KT 7SM -TSRA SCT050CB BKN110 BKN250 27/21 A3004 RMK AO2 WSHFT 2039 PRESFR OCNL LTGICCG NE-SE TS NE-SE MOV SE VSBY LWR NE-SE P0001=
201507182052 METAR KATL 182052Z 06023G27KT 6SM -TSRA BKN050CB BKN090 BKN250 27/21 A3006 RMK AO2 PK WND 07027/2052 WSHFT 2031 TSB19RAB44 SLP169 CONS LTGICCG OHD-NE-E TS OHD-NE-E MOV SE VSBY LWR N-E P0001 60001 T02670206 53001=
201507182041 SPECI KATL 182041Z 02017G23KT 10SM TS BKN050CB BKN090 BKN250 29/21 A3007 RMK AO2 TSB19 PRESRR FRQ LTGICCG NE-E TS NE-E MOV SE VSBY LWR E=
201507182020 SPECI KATL 182020Z 22005KT 10SM TS SCT055CB BKN070 32/22 A3003 RMK AO2 TSB19 OCNL LTGICCG NW TS NW MOV SE=
201507181952 METAR KATL 181952Z 21009KT 10SM SCT050TCU SCT090 SCT200 BKN250 33/22 A3004 RMK AO2 SLP158 CB DSNT NW TCU NW-NE-E T03330217 $=
201507181852 METAR KATL 181852Z 25005KT 10SM FEW050TCU SCT080 SCT200 SCT250 32/22 A3006 RMK AO2 SLP166 CB DSNT NW TCU NW-NE T03220217 $=
201507181752 METAR KATL 181752Z 23004KT 10SM SCT050TCU SCT250 33/22 A3007 RMK AO2 SLP169 TCU NE T03280217 10333 20256 58005 $=
201507181652 METAR KATL 181652Z 28006KT 10SM SCT045 SCT250 33/22 A3008 RMK AO2 SLP174 MDT CU ALQDS T03280217 $=
201507181552 METAR KATL 181552Z 32004KT 10SM FEW036 SCT250 31/23 A3009 RMK AO2 SLP176 T03110228 $=
201507181452 METAR KATL 181452Z 00000KT 10SM FEW250 31/23 A3008 RMK AO2 SLP174 T03060233 51008 $=
201507181352 METAR KATL 181352Z 22004KT 10SM FEW250 29/23 A3009 RMK AO2 SLP175 T02890228 $=
201507181252 METAR KATL 181252Z 00000KT 10SM FEW250 28/22 A3008 RMK AO2 SLP172 T02780222 $=
201507181152 METAR KATL 181152Z 00000KT 10SM CLR 26/22 A3006 RMK AO2 SLP167 T02560222 10272 20244 51010 $=
201507181052 METAR KATL 181052Z 00000KT 10SM CLR 24/21 A3006 RMK AO2 SLP165 T02440211 $=
201507180952 METAR KATL 180952Z 00000KT 10SM CLR 25/21 A3004 RMK AO2 SLP159 T02500211 $=
201507180852 METAR KATL 180852Z 00000KT 10SM CLR 26/22 A3003 RMK AO2 SLP156 T02560217 53003 $=
201507180752 METAR KATL 180752Z 00000KT 10SM CLR 26/22 A3003 RMK AO2 SLP156 T02560217 $=
201507180652 METAR KATL 180652Z 00000KT 10SM CLR 26/22 A3001 RMK AO2 SLP151 T02610217 $=
201507180552 METAR KATL 180552Z 00000KT 10SM CLR 27/22 A3002 RMK AO2 SLP153 T02720222 10322 20272 58008 $=
201507180452 METAR KATL 180452Z 00000KT 10SM CLR 27/23 A3003 RMK AO2 SLP157 T02720228 403390244 $=
201507180352 METAR KATL 180352Z 15003KT 10SM FEW055 28/22 A3005 RMK AO2 SLP161 T02780222 $=
201507180252 METAR KATL 180252Z 16005KT 10SM FEW055 28/22 A3005 RMK AO2 SLP161 T02830217 53015 $=
201507180152 METAR KATL 180152Z 14003KT 10SM BKN055 31/21 A3003 RMK AO2 SLP155 T03060206 $=
201507180052 METAR KATL 180052Z 00000KT 10SM SCT055 31/21 A3002 RMK AO2 SLP152 T03060206 $=
201507172352 METAR KATL 172352Z 24004KT 10SM SCT055 32/21 A3000 RMK AO2 SLP146 T03220206 10339 20311 55001=
201507172252 METAR KATL 172252Z 31008KT 10SM FEW055 33/20 A2999 RMK AO2 SLP142 T03330200=
201507172152 METAR KATL 172152Z 30009KT 10SM FEW055 33/21 A2999 RMK AO2 SLP143 CB DSNT SE T03330206=
201507172052 METAR KATL 172052Z 30004KT 10SM FEW055 34/21 A3000 RMK AO2 SLP147 CB DSNT SE T03390211 56016=
201507171952 METAR KATL 171952Z 00000KT 10SM SCT055 32/19 A3002 RMK AO2 SLP153 T03170194=
201507171852 METAR KATL 171852Z 00000KT 10SM SCT050 SCT065 32/20 A3003 RMK AO2 SLP158 T03170200=
201507171752 METAR KATL 171752Z 00000KT 10SM SCT050TCU 33/21 A3005 RMK AO2 SLP163 TCU N T03280206 10328 20250 58003=
201507171652 METAR KATL 171652Z VRB03KT 10SM SCT045TCU 32/21 A3006 RMK AO2 SLP167 TCU NE-SE & SW-NW T03220211=
201507171552 METAR KATL 171552Z VRB03KT 10SM FEW050 32/21 A3007 RMK AO2 SLP168 TCU DSNT E T03170206=
201507171452 METAR KATL 171452Z 01005KT 10SM FEW055 31/21 A3006 RMK AO2 SLP167 T03060206 51010=
201507171352 METAR KATL 171352Z 03005KT 10SM FEW050 27/21 A3006 RMK AO2 SLP168 T02720211=
201507171252 METAR KATL 171252Z 05006KT 10SM SCT065 SCT250 26/21 A3005 RMK AO2 SLP165 ACC E-S-SW T02610206=
201507171152 METAR KATL 171152Z 04007KT 10SM FEW065 SCT250 25/20 A3003 RMK AO2 SLP158 T02500200 10267 20244 53010=
201507171052 METAR KATL 171052Z 04007KT 10SM FEW060 SCT110 SCT250 25/19 A3001 RMK AO2 SLP152 T02500194=
201507170952 METAR KATL 170952Z 03007KT 10SM FEW200 SCT250 25/19 A3001 RMK AO2 SLP150 T02500194=
201507170852 METAR KATL 170852Z 00000KT 10SM FEW120 SCT200 SCT250 26/19 A3000 RMK AO2 SLP146 T02560194 55002=
201507170752 METAR KATL 170752Z 00000KT 10SM FEW200 SCT250 25/19 A2999 RMK AO2 SLP145 T02500194=
201507170652 METAR KATL 170652Z 04005KT 10SM SCT200 BKN250 26/19 A3000 RMK AO2 SLP146 T02610194=
201507170552 METAR KATL 170552Z 03003KT 10SM SCT200 BKN250 27/19 A3001 RMK AO2 SLP149 T02670194 10294 20261 58001=
201507170452 METAR KATL 170452Z 04007KT 10SM BKN250 27/19 A3001 RMK AO2 SLP150 T02720194 403110228=
201507170352 METAR KATL 170352Z 02008KT 10SM SCT250 28/19 A3001 RMK AO2 SLP151 T02780194=
201507170252 METAR KATL 170252Z 02005KT 10SM BKN250 28/19 A3001 RMK AO2 SLP150 T02830194 53013=
201507170152 METAR KATL 170152Z 31006KT 10SM BKN250 27/21 A2999 RMK AO2 SLP144 T02720206=
201507170052 METAR KATL 170052Z 31006KT 10SM FEW055 BKN250 28/20 A2998 RMK AO2 SLP140 T02830200=
201507162352 METAR KATL 162352Z 26003KT 10SM FEW055 BKN250 29/20 A2997 RMK AO2 SLP138 T02890200 10311 20289 55002=
201507162252 METAR KATL 162252Z 28003KT 10SM FEW055 BKN250 29/19 A2997 RMK AO2 SLP137 T02940194 $=
201507162152 METAR KATL 162152Z 26006KT 10SM SCT055 BKN250 29/21 A2997 RMK AO2 SLP136 T02940206 $=
201507162052 METAR KATL 162052Z VRB04KT 10SM FEW055 SCT065 BKN250 31/19 A2998 RMK AO2 SLP139 T03060189 58008 $=
201507161952 METAR KATL 161952Z 28005KT 10SM FEW060 SCT070 BKN250 31/20 A2999 RMK AO2 SLP145 T03060200 $=
201507161852 METAR KATL 161852Z 00000KT 10SM SCT055 SCT200 BKN250 31/19 A3000 RMK AO2 SLP146 T03060189=
201507161752 METAR KATL 161752Z 02006KT 10SM FEW050 SCT200 BKN250 31/19 A3000 RMK AO2 SLP147 T03110194 10311 20250 58003=
201507161652 METAR KATL 161652Z COR 00000KT 10SM FEW045 SCT200 BKN250 29/19 A3001 RMK AO2 SLP151 T02890194=
201507161552 METAR KATL 161552Z 08005KT 10SM FEW035 SCT200 BKN250 28/21 A3001 RMK AO2 SLP152 T02830206=
201507161452 METAR KATL 161452Z 14004KT 10SM FEW030 SCT200 BKN250 28/19 A3001 RMK AO2 SLP151 T02780194 50006=
201507161352 METAR KATL 161352Z 11004KT 10SM FEW060 SCT200 BKN250 27/19 A3002 RMK AO2 SLP154 T02670194=
201507161252 METAR KATL 161252Z 09007KT 10SM FEW200 SCT250 26/19 A3001 RMK AO2 SLP153 T02560189=
201507161152 METAR KATL 161152Z 07005KT 10SM FEW200 SCT250 25/19 A2999 RMK AO2 SLP144 70007 T02500189 10250 20228 53026=
201507161052 METAR KATL 161052Z 06005KT 10SM SCT200 SCT250 24/19 A2996 RMK AO2 SLP134 T02390189=
201507160952 METAR KATL 160952Z 02005KT 10SM FEW200 BKN250 24/19 A2994 RMK AO2 SLP126 T02390194=
201507160852 METAR KATL 160852Z 36004KT 10SM BKN250 24/20 A2991 RMK AO2 SLP118 T02390200 55008=
201507160752 METAR KATL 160752Z COR 34005KT 10SM BKN250 23/21 A2991 RMK AO2 SLP115 T02330206=
201507160652 METAR KATL 160652Z 31004KT 10SM FEW250 24/21 A2992 RMK AO2 SLP119 T02390206=
201507160552 METAR KATL 160552Z 34005KT 10SM FEW250 24/21 A2994 RMK AO2 SLP125 T02440211 10306 20244 58003=
201507160452 METAR KATL 160452Z 31006KT 10SM FEW250 24/21 A2996 RMK AO2 SLP135 T02440211 403170206=
201507160352 METAR KATL 160352Z 31005KT 10SM FEW250 25/21 A2996 RMK AO2 SLP134 T02500211=
201507160252 METAR KATL 160252Z 32006KT 10SM FEW250 26/21 A2995 RMK AO2 SLP129 T02560211 51030=
201507160152 METAR KATL 160152Z 32006KT 10SM FEW250 27/21 A2992 RMK AO2 SLP121 T02670211=
201507160052 METAR KATL 160052Z 31004KT 10SM FEW050 28/20 A2989 RMK AO2 SLP110 T02830200=
201507152352 METAR KATL 152352Z 01012KT 10SM FEW045 31/19 A2986 RMK AO2 SLP098 CB DSNT S 60007 T03060194 10317 20256 55007=
201507152252 METAR KATL 152252Z 35009KT 10SM FEW035 31/20 A2985 RMK AO2 SLP096 CB DSNT S & SW T03110200=
201507152152 METAR KATL 152152Z VRB03KT 10SM FEW030 SCT200 31/23 A2986 RMK AO2 SLP100 CB DSNT SE-S & SW T03110228=
201507152052 METAR KATL 152052Z 27006KT 10SM FEW030 SCT100 SCT200 26/23 A2988 RMK AO2 TSB18E51RAB06E51 SLP108 TS MOV SE CB DSNT SE-SW SHRA DSNT SE-SW P0007 60007 T02560228 56005=
201507152034 SPECI KATL 152034Z 26014G20KT 9SM -TSRA FEW015CB BKN075 BKN090 26/22 A2988 RMK AO2 TSB18RAB06 OCNL LTGICCG SE-SW TS VC SE-SW MOV SE SHRA VC SE-SW P0005=
201507152026 SPECI KATL 152026Z 31006KT 9SM -TSRA FEW037CB BKN045 BKN070 28/22 A2988 RMK AO2 TSB18RAB06 FRQ LTGICCG SW TS SW MOV SE SHRA VC E & S-SW-W P0005=
201507152018 SPECI KATL 152018Z 32005KT 9SM R09R/3000VP6000FT -TSRA FEW037CB BKN045 BKN060 27/22 A2988 RMK AO2 TSB18RAB06 FRQ LTGICCG S-SW TS S-SW MOV SE SHRA VC S-SW P0005=
201507152016 SPECI KATL 152016Z 30006G17KT 9SM R09R/3000VP6000FT -RA FEW037CB BKN045 BKN060 27/22 A2988 RMK AO2 RAB06 VIS LWR S-SW-W-NW SHRA CB S-SW-W-NW MOV SE P0003=
201507151952 METAR KATL 151952Z 32008G15KT 10SM FEW040CB SCT050TCU SCT110 32/22 A2988 RMK AO2 RAB30E34 SLP107 CB SE & NW MOV SE TCU E SHRA VC SE & NW P0000 T03170222 $=
201507151930 SPECI KATL 151930Z 31008KT 10SM -RA SCT040CB BKN050TCU BKN110 31/22 A2988 RMK AO2 RAB30 CB NE & S & W MOV SE TCU OHD P0000=
201507151852 METAR KATL 151852Z 28011KT 10SM FEW040TCU 31/23 A2988 RMK AO2 SLP108 TCU NW SHRA NW T03110228=
201507151752 METAR KATL 151752Z 30009KT 10SM FEW035 31/22 A2989 RMK AO2 SLP111 T03060222 10306 20217 56007=
201507151652 METAR KATL 151652Z 32011G19KT 10SM FEW028 30/22 A2990 RMK AO2 SLP113 T03000222=
201507151552 METAR KATL 151552Z 30007KT 10SM FEW025 SCT120 28/23 A2990 RMK AO2 SLP116 T02830233=
201507151452 SPECI KATL 151452Z 28009KT 10SM FEW020 SCT120 27/22 A2991 RMK AO2 SLP121 T02670222 51008=
201507151452 METAR KATL 151452Z 28009KT 10SM FEW020 SCT120 27/22 A2991 RMK AO2 SLP121 T02670222 51008=
201507151352 METAR KATL 151352Z 28012KT 10SM FEW015 BKN120 24/21 A2991 RMK AO2 SLP119 T02440206=
201507151252 METAR KATL 151252Z 28010KT 10SM FEW110 SCT250 24/20 A2990 RMK AO2 SLP113 T02390200=
201507151152 METAR KATL 151152Z 26005KT 10SM FEW036 SCT250 22/19 A2989 RMK AO2 SLP111 70092 T02170194 10217 20206 51014=
201507151052 METAR KATL 151052Z 29007KT 10SM FEW036 SCT050 BKN250 21/19 A2988 RMK AO2 SLP108 T02110189=
201507150952 METAR KATL 150952Z 30005KT 10SM FEW007 SCT041 BKN250 21/19 A2988 RMK AO2 SLP106 T02110194=
201507150941 SPECI KATL 150941Z 29004KT 10SM FEW007 SCT034 BKN250 21/19 A2987 RMK AO2=
201507150852 METAR KATL 150852Z 27006KT 10SM FEW055 SCT250 21/19 A2985 RMK AO2 SLP096 T02110194 58005=
201507150752 METAR KATL 150752Z 27006KT 10SM FEW055 SCT100 BKN220 21/19 A2986 RMK AO2 SLP100 T02060194=
201507150652 METAR KATL 150652Z 26003KT 10SM FEW005 SCT055 SCT150 OVC220 21/20 A2988 RMK AO2 SLP107 T02110200=
201507150552 METAR KATL 150552Z 26003KT 10SM FEW007 SCT065 SCT110 BKN150 OVC200 22/20 A2986 RMK AO2 PK WND 35029/0507 WSHFT 0505 SLP101 60092 T02170200 10300 20206 55026=
201507150522 SPECI KATL 150522Z 35010G22KT 10SM FEW007 SCT065 SCT110 OVC150 22/19 A2985 RMK AO2 PK WND 35029/0507 WSHFT 0505=
201507150514 SPECI KATL 150514Z 35013G29KT 10SM FEW007 SCT070 BKN110 OVC150 22/19 A2984 RMK AO2 PK WND 35029/0507 PRESRR=
201507150452 METAR KATL 150452Z 13005KT 10SM FEW070 SCT100 OVC150 22/19 A2979 RMK AO2 PRESFR SLP078 TSE14RAE32 P0004 T02220194 403220206=
201507150414 SPECI KATL 150414Z COR 21003KT 8SM -RA FEW070 BKN100 OVC150 22/19 A2985 RMK AO2 PRESFR OCNL LTG DSNT SE-S TS MOV SE TSE14 P0004=
201507150352 METAR KATL 150352Z 20009KT 8SM -TSRA FEW040CB BKN100 OVC150 22/19 A2988 RMK AO2 SLP107 OCNL LTGICCA VC SE-SW TS VC SE-SW MOV SE P0005 T02170189=
201507150252 METAR KATL 150252Z 23011G16KT 9SM -TSRA FEW040CB SCT070 BKN100 OVC150 22/20 A2994 RMK AO2 SLP129 FRQ LTGICCGCA VC SE-SW-NW TS VC SE-SW-NW MOV SE P0072 60083 T02170200 50039=
201507150227 SPECI KATL 150227Z 31009G18KT 5SM TSRA BR FEW010 BKN040CB OVC090 22/20 A2993 RMK AO2 PRESFR FRQ LTGICCG SE-SW-W TS SE-SW-W MOV SE P0067=
201507150201 SPECI KATL 150201Z 36014G23KT 2 1/2SM +TSRA BR FEW010 BKN035CB OVC090 21/20 A2995 RMK AO2 FRQ LTGICCG OHD-ALQDS TS OHD-ALQDS MOV SE P0045 $=
201507150152 METAR KATL 150152Z 01013KT 1SM R09R/5000VP6000FT +TSRA BR FEW010 BKN035CB OVC090 21/20 A2996 RMK AO2 PK WND 01041/0134 WSHFT 0126 TSB11RAB32 SLP135 FRQ LTGICCG OHD-ALQDS TS OHD-ALQDS MOV SE P0011 T02110200 $=
201507150140 SPECI KATL 150140Z 01026G41KT 1 1/2SM +TSRA BKN035CB BKN070 OVC100 23/19 A2995 RMK AO2 PK WND 01041/0134 WSHFT 0126 TSB11RAB32 PRESRR CONS LTGICCG OHD-ALQDS TS OHD-ALQDS MOV SE P0000=
201507150137 SPECI KATL 150137Z 36024G41KT 2 1/2SM +TSRA BKN035CB BKN070 OVC150 24/19 A2994 RMK AO2 PK WND 01041/0134 TSB11RAB32 PRESRR FRQ LTGICCG E-OHD-W TS E-OHD-W MOV SE P0000=
201507150111 SPECI KATL 150111Z 24007KT 10SM TS FEW040CB SCT080 BKN150 OVC200 29/21 A2988 RMK AO2 TSB11 FRQ LTGICCG VC NW-NE TS VC NW-NE MOV SE=
201507150052 METAR KATL 150052Z 24006KT 10SM FEW050 BKN150 BKN200 OVC250 29/21 A2988 RMK AO2 SLP106 FRQ LTG DSNT NE-NW T02940211=
201507142352 METAR KATL 142352Z 22006KT 10SM FEW120 SCT150CB BKN200 BKN250 29/21 A2982 RMK AO2 SLP086 CBMAM NW-NE T02940211 10322 20294 53004=
201507142252 METAR KATL 142252Z 22008KT 10SM FEW045 BKN200 BKN250 31/21 A2981 RMK AO2 SLP080 T03110211=
201507142152 METAR KATL 142152Z 23012G18KT 10SM SCT045 BKN200 BKN250 32/21 A2981 RMK AO2 SLP082 T03170206=
201507142052 METAR KATL 142052Z 24011KT 10SM FEW050 SCT200 BKN250 32/21 A2981 RMK AO2 SLP082 T03170211 58030=
201507141952 METAR KATL 141952Z 25010G17KT 10SM FEW043 BKN200 BKN250 32/21 A2985 RMK AO2 SLP096 T03170211=
201507141852 METAR KATL 141852Z 28010KT 10SM FEW045 SCT200 BKN250 32/22 A2988 RMK AO2 SLP106 T03170217=
201507141752 METAR KATL 141752Z 27010KT 10SM FEW040 SCT200 BKN250 31/22 A2990 RMK AO2 SLP113 T03110222 10311 20256 58003=
201507141652 METAR KATL 141652Z 26006KT 10SM FEW034TCU SCT150 BKN250 31/22 A2992 RMK AO2 SLP119 TCU W T03060222=
201507141552 METAR KATL 141552Z 26008G18KT 10SM SCT035 SCT150 BKN250 30/22 A2992 RMK AO2 SLP118 T03000222=
201507141452 METAR KATL 141452Z 26011G17KT 10SM FEW030 SCT150 BKN250 29/23 A2991 RMK AO2 SLP115 T02940228 51008=
201507141352 METAR KATL 141352Z 29010KT 10SM FEW020 SCT150 BKN250 28/23 A2991 RMK AO2 SLP115 T02780228=
201507141252 METAR KATL 141252Z 27007KT 10SM FEW120 SCT180 BKN250 27/22 A2990 RMK AO2 SLP111 T02670222=
201507141152 METAR KATL 141152Z 26008KT 10SM FEW150 BKN250 26/22 A2988 RMK AO2 SLP107 T02560222 10261 20244 53017=
201507141052 METAR KATL 141052Z 24005KT 10SM BKN250 25/22 A2987 RMK AO2 SLP102 T02500217=
201507140952 METAR KATL 140952Z 27006KT 10SM FEW150 SCT250 24/22 A2985 RMK AO2 SLP094 T02440217=
201507140852 METAR KATL 140852Z 26005KT 10SM SCT250 25/22 A2983 RMK AO2 SLP089 T02500217 56014=
201507140752 METAR KATL 140752Z 28006KT 10SM BKN250 26/22 A2985 RMK AO2 SLP094 T02560217=
201507140652 METAR KATL 140652Z 24004KT 10SM BKN250 26/21 A2985 RMK AO2 SLP097 T02560211=
201507140552 METAR KATL 140552Z 25003KT 10SM FEW050 BKN250 26/21 A2987 RMK AO2 SLP102 T02610211 10306 20261 58003=
201507140452 METAR KATL 140452Z 26004KT 10SM FEW050 BKN250 27/21 A2988 RMK AO2 SLP106 T02720211 403330217=
201507140352 METAR KATL 140352Z 27006KT 10SM SCT050 BKN250 28/21 A2988 RMK AO2 SLP105 T02780211=
201507140252 METAR KATL 140252Z 27007KT 10SM FEW045 BKN250 29/21 A2988 RMK AO2 SLP105 T02890211 50002=
201507140152 METAR KATL 140152Z 26005KT 10SM FEW045 SCT200 BKN250 29/22 A2989 RMK AO2 SLP110 T02940217=
201507140052 METAR KATL 140052Z 25005KT 10SM FEW045 SCT200 BKN250 30/22 A2988 RMK AO2 SLP105 T03000217=
201507132352 METAR KATL 132352Z 23006KT 10SM FEW045 BKN250 31/22 A2987 RMK AO2 SLP105 T03060217 10333 20306 57002=
201507132252 METAR KATL 132252Z 27006KT 10SM FEW045 BKN250 32/22 A2988 RMK AO2 SLP107 T03170217=
201507132152 METAR KATL 132152Z 27007KT 10SM FEW045TCU BKN250 33/22 A2987 RMK AO2 SLP104 TCU VC NW-NE T03280217=
201507132052 METAR KATL 132052Z 28009KT 10SM FEW045TCU SCT200 SCT250 33/22 A2988 RMK AO2 SLP106 TCU NE & NW T03280217 58023=
201507131952 METAR KATL 131952Z 27005KT 10SM FEW040TCU SCT200 SCT250 32/22 A2990 RMK AO2 SLP114 TCU NE & W-NW T03220222=
201507131852 METAR KATL 131852Z 31008KT 10SM FEW040TCU SCT200 BKN250 32/22 A2993 RMK AO2 SLP124 TCU NE & NW T03220217=
201507131752 METAR KATL 131752Z 28005KT 10SM SCT035TCU SCT250 32/23 A2995 RMK AO2 SLP130 TCU ALQDS T03220228 10322 20239 58013=
201507131652 METAR KATL 131652Z 28007KT 250V330 10SM BKN034TCU BKN250 31/23 A2997 RMK AO2 SLP139 TCU OHD & ALQDS T03110228=
201507131552 METAR KATL 131552Z 00000KT 10SM SCT030TCU SCT250 30/22 A2998 RMK AO2 SLP141 TCU ALQDS T03000222=
201507131452 METAR KATL 131452Z 00000KT 10SM FEW025 SCT250 29/23 A2999 RMK AO2 SLP143 T02940233 50002=
201507131352 METAR KATL 131352Z 30006KT 10SM FEW250 27/22 A2999 RMK AO2 SLP145 T02720222=
201507131252 METAR KATL 131252Z 30006KT 10SM CLR 26/22 A2999 RMK AO2 SLP143 T02610222=
201507131152 METAR KATL 131152Z 29003KT 10SM FEW250 24/21 A2998 RMK AO2 SLP142 70001 T02390211 10244 20217 53006=
201507131052 METAR KATL 131052Z 27004KT 10SM FEW200 22/20 A2998 RMK AO2 SLP140 T02220200=
201507130952 METAR KATL 130952Z 28003KT 10SM FEW200 22/21 A2996 RMK AO2 SLP135 T02220206=
201507130852 METAR KATL 130852Z 32005KT 10SM FEW200 23/21 A2996 RMK AO2 SLP135 T02280206 55019=
201507130752 METAR KATL 130752Z 00000KT 10SM FEW110 SCT200 23/21 A2996 RMK AO2 SLP133 T02330206=
201507130652 METAR KATL 130652Z 00000KT 10SM FEW044 SCT110 SCT200 23/21 A3000 RMK AO2 TSE15 SLP147 TS DSIPT T02280206=
201507130615 SPECI KATL 130615Z 22003KT 10SM FEW044 SCT100 SCT200 23/21 A3002 RMK AO2 TSE15 TS DSIPT CB DSNT NE & S-SW=
201507130552 METAR KATL 130552Z 23003KT 10SM TS FEW043CB SCT075 BKN100 BKN200 23/21 A3002 RMK AO2 TSB37RAB14E36 SLP154 OCNL LTGICCG SE TS VC SE MOV SE TCU NE & SW P0001 60001 T02330206 10289 20233 58002=
201507130537 SPECI KATL 130537Z 22004KT 10SM TS SCT045CB BKN075 BKN100 BKN200 24/21 A3002 RMK AO2 TSB37RAB14E36 OCNL LTGICCG SE TS SE MOV SE P0001=
201507130452 METAR KATL 130452Z 00000KT 10SM FEW050TCU SCT075 SCT110 BKN200 23/20 A3003 RMK AO2 SLP156 FRQ LTGICCGCA DSNT N-E CB DSNT N-E TCU SW-NW T02330200 403390222=
201507130352 METAR KATL 130352Z 18008KT 10SM FEW034 SCT070 SCT120 BKN200 24/19 A3003 RMK AO2 TSE46 SLP158 TS MOVD SE CONS LTGICCGCA DSNT SE-S FRQ LTGIC DSNT W & NW-N CB DSNT SE-S & W & NW-N T02390194=
201507130349 SPECI KATL 130349Z 19006KT 10SM FEW034 SCT070 SCT110 BKN200 24/19 A3003 RMK AO2 TSE46 TS MOVD SE CONS LTGICCGCA DSNT SE-S FRQ LTGIC DSNT W & NW-N CB DSNT SE-S & W & NW-N=
201507130252 METAR KATL 130252Z 28008KT 10SM TS FEW032CB SCT065 SCT110 BKN200 26/22 A3002 RMK AO2 TSB49 SLP154 CONS LTGICCGCA VC SW-W TS VC SW-W MOV SE T02610222 53005=
201507130250 SPECI KATL 130250Z 29009KT 10SM TS FEW032CB SCT070 SCT110 BKN200 27/22 A3002 RMK AO2 TSB49 CONS LTGICCGCA VC SW-W TS VC SW-W MOV SE=
201507130152 METAR KATL 130152Z 00000KT 10SM FEW065 BKN200 BKN250 28/21 A3001 RMK AO2 SLP151 T02780211=
201507130052 METAR KATL 130052Z 00000KT 10SM FEW038 SCT065 SCT110 BKN200 28/22 A3001 RMK AO2 SLP149 CB DSNT SW-NW TCU DSNT NW T02780217=
201507122352 METAR KATL 122352Z 00000KT 10SM FEW065 SCT110 SCT200 BKN250 28/22 A3001 RMK AO2 SLP150 60000 T02830222 10339 20261 56005=
201507122252 METAR KATL 122252Z 27007KT 10SM FEW045TCU SCT070 SCT110 BKN200 28/22 A3001 RMK AO2 SLP151 TCU N & NW T02830217=
201507122152 METAR KATL 122152Z 23003KT 10SM FEW045 SCT110 SCT200 BKN250 32/19 A3000 RMK AO2 PK WND 29027/2053 TSE21RAB2054E19 SLP145 TS DSIPTD CB DSNT SW-W & NW CBMAM DSNT SE P0000 T03220189=
201507122121 SPECI KATL 122121Z 27006KT 10SM FEW044 SCT100 BKN200 BKN250 28/20 A3000 RMK AO2 PK WND 29027/2053 TSE21RAB2054E19 TS DSIPTD CB DSNT SW-W P0000=
201507122052 METAR KATL 122052Z COR 30022G30KT 7SM TS FEW025 SCT040CB BKN100 BKN200 31/19 A3002 RMK AO2 PK WND 30030/2052 TSB32 SLP155 OCNL LTGCG SW-W TS SW-W MOV SE SHRA VC NE T03060194 56016=
201507122034 SPECI KATL 122034Z 01008KT 10SM TS FEW020 SCT045CB BKN240 32/19 A3001 RMK AO2 TSB32 LTGICCG VC-W CB W MOV SE=
201507121952 METAR KATL 121952Z 30006KT 10SM SCT055 SCT100 BKN240 33/20 A3003 RMK AO2 SLP158 MDT CU W-NW CB DSNT NW-N T03280200=
201507121852 METAR KATL 121852Z 31008KT 10SM SCT050 BKN250 33/21 A3005 RMK AO2 SLP163 CB DSNT N T03280206=
201507121752 METAR KATL 121752Z 32006KT 10SM SCT050 BKN250 32/20 A3007 RMK AO2 SLP171 T03220200 10328 20233 58015=
201507121652 METAR KATL 121652Z 35009KT 10SM SCT048 BKN250 32/20 A3009 RMK AO2 SLP178 T03170200=
201507121552 METAR KATL 121552Z 33009KT 10SM SCT040 BKN250 31/21 A3011 RMK AO2 SLP184 T03110206=
201507121452 METAR KATL 121452Z 32007KT 10SM FEW032 BKN250 30/22 A3012 RMK AO2 SLP187 T03000217 58003=
201507121352 METAR KATL 121352Z 31006KT 10SM BKN250 29/22 A3013 RMK AO2 SLP190 T02890217=
201507121252 METAR KATL 121252Z 33007KT 10SM FEW200 BKN250 27/21 A3013 RMK AO2 SLP190 T02720211=
201507121152 METAR KATL 121152Z 32007KT 10SM FEW200 BKN250 23/20 A3013 RMK AO2 SLP190 T02330200 10244 20222 51008=
201507121052 METAR KATL 121052Z 32006KT 10SM FEW200 BKN250 22/19 A3012 RMK AO2 SLP189 T02220194=
201507120952 METAR KATL 120952Z 32004KT 10SM SCT250 23/19 A3011 RMK AO2 SLP185 T02280194=
201507120852 METAR KATL 120852Z 33006KT 10SM SCT250 23/19 A3010 RMK AO2 SLP181 T02330194 55003=
201507120752 METAR KATL 120752Z 32006KT 10SM SCT250 23/19 A3009 RMK AO2 SLP177 T02280194=
201507120652 METAR KATL 120652Z 32006KT 10SM FEW200 SCT250 23/19 A3010 RMK AO2 SLP182 T02330194=
201507120552 METAR KATL 120552Z 30004KT 10SM FEW200 SCT250 25/19 A3011 RMK AO2 SLP185 T02500189 10294 20239 56006=
201507120452 METAR KATL 120452Z 32006KT 10SM FEW200 SCT250 25/19 A3012 RMK AO2 SLP186 T02500194 403330228=
201507120352 METAR KATL 120352Z 32005KT 10SM SCT200 BKN250 26/19 A3012 RMK AO2 SLP189 T02560189=
201507120252 METAR KATL 120252Z 32005KT 10SM SCT200 BKN250 27/18 A3013 RMK AO2 SLP191 T02670178 53003=
201507120152 METAR KATL 120152Z 32005KT 10SM FEW150 SCT200 BKN250 27/18 A3012 RMK AO2 SLP187 T02720178=
201507120052 METAR KATL 120052Z 34005KT 10SM FEW150 BKN200 BKN250 29/17 A3012 RMK AO2 SLP188 T02890172=
201507112352 METAR KATL 112352Z 02008KT 10SM FEW140 BKN200 BKN250 30/17 A3012 RMK AO2 SLP189 T03000172 10333 20300 55001=
201507112252 METAR KATL 112252Z 35010KT 10SM FEW140 BKN200 BKN250 31/20 A3010 RMK AO2 SLP181 VIRGA DSNT NE T03110200=
201507112152 METAR KATL 112152Z 32009KT 10SM FEW060 BKN200 BKN250 32/19 A3010 RMK AO2 SLP181 T03220194=
201507112052 METAR KATL 112052Z 34011KT 10SM FEW060 BKN250 33/19 A3013 RMK AO2 SLP189 T03330189 56015=
201507111952 METAR KATL 111952Z 28007KT 10SM FEW055 BKN250 33/20 A3014 RMK AO2 SLP193 T03280200=
201507111852 METAR KATL 111852Z 33007KT 10SM FEW055 SCT100 BKN250 33/18 A3015 RMK AO2 SLP198 T03280183=
201507111752 METAR KATL 111752Z 33012KT 10SM FEW045 SCT120 SCT250 33/19 A3017 RMK AO2 SLP205 T03280194 10328 20244 58006=
201507111652 METAR KATL 111652Z 29009KT 10SM SCT042 SCT120 BKN250 32/22 A3018 RMK AO2 SLP210 T03220217=
201507111552 METAR KATL 111552Z 33007KT 10SM FEW040 SCT120 SCT250 31/22 A3019 RMK AO2 SLP213 T03110217=
201507111452 METAR KATL 111452Z 33006KT 10SM FEW120 SCT250 30/22 A3019 RMK AO2 SLP212 T03000222 50004=
201507111352 METAR KATL 111352Z 35007KT 10SM SCT250 28/22 A3020 RMK AO2 SLP216 T02830217=
201507111252 METAR KATL 111252Z 31007KT 9SM SCT250 26/21 A3020 RMK AO2 SLP215 T02610211=
201507111152 METAR KATL 111152Z 31007KT 9SM FEW150 SCT250 24/21 A3018 RMK AO2 SLP208 T02440211 10244 20228 53015=
201507111052 METAR KATL 111052Z 31007KT 9SM FEW150 SCT250 23/21 A3016 RMK AO2 SLP203 T02330206=
201507110952 METAR KATL 110952Z COR 00000KT 10SM FEW250 23/21 A3014 RMK AO2 SLP195 T02280206=
201507110852 METAR KATL 110852Z 28006KT 10SM FEW250 23/21 A3013 RMK AO2 SLP192 T02280206 56005=
201507110752 METAR KATL 110752Z 29006KT 10SM FEW250 23/21 A3013 RMK AO2 SLP192 T02330206=
201507110652 METAR KATL 110652Z 26004KT 10SM FEW250 24/21 A3014 RMK AO2 SLP193 T02390206=
201507110552 METAR KATL 110552Z 27005KT 10SM FEW250 24/20 A3015 RMK AO2 SLP197 T02440200 10283 20244 58003=
201507110452 METAR KATL 110452Z 28004KT 10SM SCT250 25/20 A3016 RMK AO2 SLP203 T02500200 403390233=
201507110352 METAR KATL 110352Z 26004KT 10SM SCT250 25/21 A3017 RMK AO2 SLP204 T02500206=
201507110252 METAR KATL 110252Z 28005KT 10SM FEW200 BKN250 25/21 A3016 RMK AO2 SLP201 T02500211 53008=
201507110152 METAR KATL 110152Z 29004KT 10SM FEW150 SCT200 BKN250 26/21 A3014 RMK AO2 SLP196 T02610211=
201507110052 METAR KATL 110052Z 00000KT 10SM FEW050 SCT150CB BKN200 BKN250 27/21 A3014 RMK AO2 SLP194 CBMAM N CB DSNT NE T02720206=
201507102352 METAR KATL 102352Z 26009KT 10SM FEW050 SCT200 BKN250 28/21 A3013 RMK AO2 SLP193 OCNL LTGICCG DSNT N-NE & NW T02830206 10339 20283 53001=
201507102252 METAR KATL 102252Z 24012G17KT 10SM FEW050 SCT200 30/21 A3012 RMK AO2 SLP188 TCU DSNT NW-NE & SE T03000211=
201507102152 METAR KATL 102152Z 29008KT 10SM FEW055CB SCT200 33/20 A3011 RMK AO2 SLP186 CB VC E-SE MOV E TCU NE-E T03280200=
201507102052 METAR KATL 102052Z 27006KT 10SM SCT055 BKN220 33/21 A3013 RMK AO2 SLP191 CB DSNT SE-SW T03330206 56017=
201507101952 METAR KATL 101952Z 33006KT 10SM SCT055 33/21 A3013 RMK AO2 SLP192 CB DSNT SE-SW TCU DSNT SE-S T03330206=
201507101852 METAR KATL 101852Z VRB05KT 10SM SCT050 SCT150 33/21 A3017 RMK AO2 SLP203 CB DSNT SE & SW T03280211=
201507101752 METAR KATL 101752Z 25006KT 10SM SCT045 32/20 A3018 RMK AO2 SLP208 T03220200 10328 20244 58010=
201507101652 METAR KATL 101652Z 29009KT 260V330 10SM SCT045 32/21 A3020 RMK AO2 SLP216 TCU DSNT NW-N T03170211=
201507101552 METAR KATL 101552Z 27007KT 10SM FEW040 31/22 A3021 RMK AO2 SLP219 T03110217=
201507101452 METAR KATL 101452Z 30008KT 10SM FEW030 29/22 A3021 RMK AO2 SLP219 T02940222 51010=
201507101352 METAR KATL 101352Z 30008KT 10SM FEW250 28/22 A3021 RMK AO2 SLP217 T02830222=
201507101252 METAR KATL 101252Z 32007KT 10SM FEW160 SCT250 27/22 A3019 RMK AO2 SLP213 T02670217=
201507101152 METAR KATL 101152Z 32004KT 10SM FEW180 SCT250 24/21 A3018 RMK AO2 SLP208 T02440211 10256 20233 51012=
201507101052 METAR KATL 101052Z 28005KT 10SM FEW180 SCT250 23/21 A3017 RMK AO2 SLP205 T02330211=
201507100952 METAR KATL 100952Z 29005KT 10SM FEW250 23/21 A3016 RMK AO2 SLP200 T02330211=
201507100852 METAR KATL 100852Z 28006KT 10SM FEW250 24/22 A3014 RMK AO2 SLP195 T02440217 55003=
201507100752 METAR KATL 100752Z 24003KT 10SM FEW250 24/22 A3014 RMK AO2 SLP195 T02440217=
201507100652 METAR KATL 100652Z 23004KT 10SM FEW250 24/21 A3015 RMK AO2 SLP198 T02390211=
201507100552 METAR KATL 100552Z 25004KT 10SM FEW250 26/21 A3015 RMK AO2 SLP198 T02560211 10306 20256 51002=
201507100452 METAR KATL 100452Z 25003KT 10SM FEW250 26/21 A3015 RMK AO2 SLP198 T02610206 403280228=
201507100352 METAR KATL 100352Z 27004KT 10SM FEW250 27/21 A3015 RMK AO2 SLP199 T02720206=
201507100252 METAR KATL 100252Z 22005KT 10SM FEW250 27/21 A3015 RMK AO2 SLP196 T02720211 52008=
201507100152 METAR KATL 100152Z 24003KT 10SM FEW250 28/21 A3014 RMK AO2 SLP193 T02830211=
201507100052 METAR KATL 100052Z 22004KT 10SM FEW250 29/21 A3013 RMK AO2 SLP192 T02890206=
201507092352 METAR KATL 092352Z 23005KT 10SM FEW250 31/21 A3012 RMK AO2 SLP188 CB DSNT SE T03060206 10328 20306 55001=
201507092252 METAR KATL 092252Z 28006KT 10SM FEW050 32/21 A3011 RMK AO2 SLP185 T03170206=
201507092152 METAR KATL 092152Z 26007KT 10SM FEW050 32/20 A3012 RMK AO2 SLP187 T03220200=
201507092052 METAR KATL 092052Z VRB04KT 10SM FEW050 SCT250 33/21 A3013 RMK AO2 SLP190 CB DSNT S TCU DSNT E T03280206 56018=
201507091952 METAR KATL 091952Z 24006KT 10SM FEW050 32/21 A3014 RMK AO2 SLP195 T03220206=
201507091852 METAR KATL 091852Z 30005KT 10SM FEW050 32/21 A3016 RMK AO2 SLP200 T03220206=
201507091752 METAR KATL 091752Z 29006KT 10SM FEW045 32/21 A3018 RMK AO2 SLP208 T03170206 10317 20244 58012=
201507091652 METAR KATL 091652Z 33007KT 10SM FEW040 31/21 A3020 RMK AO2 SLP214 T03110211=
201507091552 METAR KATL 091552Z 32005KT 10SM FEW030 30/22 A3021 RMK AO2 SLP219 T03000217=
201507091452 METAR KATL 091452Z 28010KT 10SM FEW030 29/22 A3022 RMK AO2 SLP221 T02890217 50007=
201507091352 METAR KATL 091352Z 28008KT 10SM CLR 28/22 A3022 RMK AO2 SLP221 T02780217=
201507091252 METAR KATL 091252Z 29005KT 10SM CLR 26/22 A3021 RMK AO2 SLP217 T02610217=
201507091152 METAR KATL 091152Z 29006KT 10SM FEW012 SCT250 24/21 A3020 RMK AO2 SLP214 FU FEW012 T02440211 10250 20228 53015=
201507091052 METAR KATL 091052Z 28004KT 10SM FEW250 23/21 A3017 RMK AO2 SLP207 T02280211=
201507090952 METAR KATL 090952Z 27004KT 10SM CLR 23/21 A3016 RMK AO2 SLP202 T02330211=
201507090852 METAR KATL 090852Z 22004KT 10SM CLR 23/21 A3015 RMK AO2 SLP199 T02330206 56004=
201507090752 METAR KATL 090752Z 25004KT 10SM FEW250 24/21 A3015 RMK AO2 SLP198 T02440211=
201507090652 METAR KATL 090652Z 23003KT 10SM FEW250 24/22 A3016 RMK AO2 SLP200 T02390217=
201507090552 METAR KATL 090552Z 00000KT 10SM FEW250 24/22 A3016 RMK AO2 SLP202 T02440217 10300 20244 51000=
201507090452 METAR KATL 090452Z 21004KT 10SM FEW250 25/22 A3016 RMK AO2 SLP202 T02500222 403220233=
201507090352 METAR KATL 090352Z 18004KT 10SM FEW250 26/22 A3017 RMK AO2 SLP206 T02610222=
201507090252 METAR KATL 090252Z 23003KT 10SM FEW250 27/22 A3016 RMK AO2 SLP202 T02670217 51005=
201507090152 METAR KATL 090152Z 00000KT 10SM SCT250 28/22 A3016 RMK AO2 SLP201 T02780217=
201507090052 METAR KATL 090052Z 23004KT 10SM SCT250 29/21 A3016 RMK AO2 SLP200 T02890211=
201507082352 METAR KATL 082352Z 26007KT 10SM FEW045 SCT250 30/21 A3015 RMK AO2 SLP197 T03000206 10322 20300 53002=
201507082252 METAR KATL 082252Z 22007KT 10SM FEW045 SCT250 31/21 A3013 RMK AO2 SLP191 T03110211=
201507082152 METAR KATL 082152Z 25004KT 10SM FEW045 BKN250 32/21 A3014 RMK AO2 SLP193 T03170211=
201507082052 METAR KATL 082052Z 28005KT 10SM FEW045 SCT200 BKN250 31/21 A3014 RMK AO2 SLP195 TCU DSNT N-NE & DSNT S-SW & NW T03060206 56015=
201507081952 METAR KATL 081952Z 24006KT 10SM FEW048 SCT200 BKN250 32/21 A3016 RMK AO2 SLP200 CB DSNT NE TCU DSNT S-SW T03220211=
201507081852 METAR KATL 081852Z 23008KT 10SM FEW045 SCT200 BKN250 31/21 A3017 RMK AO2 SLP203 CB DSNT N-NE-E TCU DSNT SE & DSNT NW T03110206=
201507081752 METAR KATL 081752Z 27006KT 10SM FEW040CB SCT050TCU BKN250 31/20 A3019 RMK AO2 SLP210 CB NW MOV E TCU NE-E-SE-S SHRA VC NW T03110200 10317 20244 58007=
201507081652 METAR KATL 081652Z 29006KT 10SM FEW040TCU SCT200 BKN250 31/22 A3020 RMK AO2 SLP214 TCU NE-E & SW-W T03110217=
201507081552 METAR KATL 081552Z 25008KT 10SM FEW030 SCT200 BKN250 29/22 A3020 RMK AO2 SLP216 T02940217=
201507081452 METAR KATL 081452Z 27006KT 10SM FEW030 SCT200 BKN250 29/23 A3021 RMK AO2 SLP218 T02940228 51010=
201507081352 METAR KATL 081352Z 28009KT 10SM BKN250 28/22 A3021 RMK AO2 SLP217 T02830217 $=
201507081252 METAR KATL 081252Z 26005KT 9SM FEW200 BKN250 27/22 A3019 RMK AO2 SLP212 T02720217=
201507081152 METAR KATL 081152Z 28005KT 10SM BKN250 24/21 A3018 RMK AO2 SLP208 T02440211 10256 20233 53010=
201507081052 METAR KATL 081052Z 00000KT 9SM BKN250 24/21 A3016 RMK AO2 SLP200 T02390206=
201507080952 METAR KATL 080952Z 00000KT 10SM SCT250 23/21 A3015 RMK AO2 SLP200 T02330206=
201507080852 METAR KATL 080852Z 20003KT 10SM BKN250 23/21 A3015 RMK AO2 SLP197 T02330206 56005=
201507080752 METAR KATL 080752Z 27005KT 10SM BKN250 24/21 A3015 RMK AO2 SLP196 T02440211=
201507080652 METAR KATL 080652Z 29006KT 10SM FEW180 SCT250 24/21 A3016 RMK AO2 SLP200 T02440211=
201507080552 METAR KATL 080552Z 28007KT 10SM BKN250 25/21 A3016 RMK AO2 SLP203 T02500206 10294 20250 58001=
201507080452 METAR KATL 080452Z 24005KT 10SM BKN250 26/21 A3018 RMK AO2 SLP207 T02610211 403220217=
201507080352 METAR KATL 080352Z 24005KT 10SM BKN250 27/21 A3018 RMK AO2 SLP207 T02670211=
201507080252 METAR KATL 080252Z 24003KT 10SM BKN250 27/21 A3017 RMK AO2 SLP203 T02670211 53014=
201507080152 METAR KATL 080152Z 22005KT 10SM BKN250 27/21 A3015 RMK AO2 SLP200 T02720211=
201507080052 METAR KATL 080052Z 22004KT 10SM BKN250 28/21 A3014 RMK AO2 SLP194 T02780211=
201507072352 METAR KATL 072352Z 23007KT 10SM BKN250 29/21 A3013 RMK AO2 SLP190 T02940206 10322 20294 55002=
201507072252 METAR KATL 072252Z 26007KT 10SM FEW045 BKN250 31/20 A3012 RMK AO2 SLP190 T03110200=
201507072152 METAR KATL 072152Z 24009KT 10SM FEW045 SCT250 31/20 A3013 RMK AO2 SLP192 T03110200=
201507072052 METAR KATL 072052Z 24006KT 10SM FEW047 SCT250 31/20 A3013 RMK AO2 SLP193 T03110200 56014=
201507071952 METAR KATL 071952Z 23008KT 10SM FEW048 32/21 A3014 RMK AO2 SLP196 T03170206 $=
201507071852 METAR KATL 071852Z 00000KT 10SM FEW045 31/21 A3016 RMK AO2 SLP203 T03110206=
201507071752 METAR KATL 071752Z 23009KT 10SM SCT040 29/21 A3017 RMK AO2 SLP207 MDT CU ALQDS T02940211 10306 20233 58005 $=
201507071652 METAR KATL 071652Z VRB04KT 10SM SCT035 30/20 A3018 RMK AO2 SLP210 MDT CU NE-SE & SW-NW T03000200=
201507071552 METAR KATL 071552Z 27006KT 10SM SCT030TCU 29/21 A3019 RMK AO2 SLP213 TCU ALQDS T02890211=
201507071452 METAR KATL 071452Z 27006KT 10SM SCT025TCU 28/22 A3019 RMK AO2 SLP212 TCU NE-E-SE-S T02830222 50005=
201507071352 METAR KATL 071352Z 29008KT 10SM FEW020 27/22 A3019 RMK AO2 SLP213 T02670217=
201507071252 METAR KATL 071252Z 29007KT 9SM CLR 25/21 A3018 RMK AO2 SLP211 T02500211=
201507071152 METAR KATL 071152Z 29004KT 9SM CLR 23/21 A3017 RMK AO2 SLP208 70004 T02330206 10233 20217 53011=
201507071052 METAR KATL 071052Z 27004KT 9SM FEW200 22/20 A3016 RMK AO2 SLP203 T02220200=
201507070952 METAR KATL 070952Z 28003KT 10SM FEW200 22/20 A3015 RMK AO2 SLP199 T02170200=
201507070852 METAR KATL 070852Z 00000KT 10SM CLR 22/19 A3014 RMK AO2 SLP196 T02170194 53001 $=
201507070752 METAR KATL 070752Z 00000KT 10SM CLR 22/19 A3013 RMK AO2 SLP196 T02170194 $=
201507070652 METAR KATL 070652Z 28004KT 10SM CLR 22/20 A3014 RMK AO2 SLP195 T02220200 $=
201507070552 METAR KATL 070552Z 28004KT 10SM CLR 23/20 A3014 RMK AO2 SLP195 T02280200 10272 20228 50005 $=
201507070452 METAR KATL 070452Z 24003KT 10SM CLR 23/21 A3015 RMK AO2 SLP198 T02330206 402890217 $=
201507070352 METAR KATL 070352Z 27006KT 10SM FEW030 24/21 A3014 RMK AO2 SLP197 T02390206=
201507070252 METAR KATL 070252Z 26004KT 10SM FEW030 24/21 A3012 RMK AO2 SLP189 T02440211 53003=
201507070152 METAR KATL 070152Z 23004KT 10SM FEW030 26/21 A3011 RMK AO2 SLP185 T02560211=
201507070052 METAR KATL 070052Z 21003KT 10SM SCT030TCU SCT050 SCT200 26/22 A3011 RMK AO2 SLP186 CB DSNT NE TCU OHD-N & VC SE T02610217=
201507062352 METAR KATL 062352Z 21003KT 10SM FEW030CB SCT050 SCT200 27/22 A3011 RMK AO2 SLP187 CB VC S & DSNT NE MOV SE TCU VC S-SW 60004 T02720222 10289 20244 55004=
201507062252 METAR KATL 062252Z 24004KT 10SM FEW030 SCT200 28/22 A3011 RMK AO2 TSE06RAB2153E13 SLP185 CB DSNT NE TCU DSNT SW-W P0001 T02780222=
201507062206 SPECI KATL 062206Z 27004KT 9SM -RA FEW030CB SCT050 BKN090 BKN200 27/22 A3012 RMK AO2 TSE06RAB2153 TS DSIPTD CB VC SW-W P0001=
201507062152 METAR KATL 062152Z 21008KT 10SM TS FEW030CB SCT060 BKN200 27/21 A3012 RMK AO2 TSB41 SLP188 OCNL LTGICCG VC W TS VC W MOV SE T02720211=
201507062141 SPECI KATL 062141Z 21008KT 10SM TS FEW030CB SCT060 BKN200 28/21 A3012 RMK AO2 TSB41 OCNL LTGICCG VC W-NW TS VC W-NW MOV SE=
201507062052 METAR KATL 062052Z 23008KT 10SM FEW030 SCT100 SCT250 28/21 A3013 RMK AO2 RAE1955 SLP191 CB DSNT E & S & NW TCU DSNT S-SW P0000 60003 T02830211 58011=
201507061952 METAR KATL 061952Z 23004KT 10SM -RA FEW020CB BKN080 BKN100 BKN250 26/22 A3015 RMK AO2 TSB27E50RAB25 SLP202 TS DSIPT CB NE & SE-S MOV SE TCU DSNT N-NE SHRA NE & SE-S P0003 T02560217=
201507061936 SPECI KATL 061936Z 24007KT 6SM TSRA FEW020CB BKN050 BKN250 24/21 A3016 RMK AO2 TSB27RAB25 OCNL LTGIC OHD TS OHD MOV SE P0000=
201507061928 SPECI KATL 061928Z 25008G17KT 9SM -TSRA SCT020CB BKN030 BKN100 OVC250 25/21 A3015 RMK AO2 TSB27RAB25 VIS LWR S-SW-W-NW SHRA OCNL LTGIC S-SW-W-NW TS S-SW-W-NW MOV SE P0000=
201507061923 SPECI KATL 061923Z 28012G17KT 10SM SCT020CB BKN100 BKN250 26/21 A3015 RMK AO2 CB S-SW-W-NW MOV SE SHRA S-SW-W-NW=
201507061852 METAR KATL 061852Z 23006KT 10SM FEW030CB SCT100 BKN250 28/21 A3015 RMK AO2 SLP200 CB N & SW-NW MOV E TCU DSNT E SHRA VC N & VC SW-NW T02830211=
201507061752 METAR KATL 061752Z 21003KT 10SM FEW025CB BKN040 BKN250 28/20 A3016 RMK AO2 SLP203 CB W MOV E TCU DSNT E SHRA VC W T02780200 10278 20222 58010=
201507061652 METAR KATL 061652Z 00000KT 10SM BKN030TCU BKN050 26/21 A3018 RMK AO2 SLP212 TCU NE & SW-NW T02610206=
201507061605 SPECI KATL 061605Z 00000KT 10SM FEW020 BKN030 BKN050 27/21 A3019 RMK AO2 $=
201507061552 METAR KATL 061552Z 00000KT 9SM SCT017 BKN025 BKN050 26/21 A3019 RMK AO2 SLP213 T02610206=
201507061543 SPECI KATL 061543Z 00000KT 9SM FEW017 BKN025 BKN050 26/21 A3019 RMK AO2=
201507061502 SPECI KATL 061502Z 23005KT 8SM BKN013 BKN015 BKN020 24/21 A3019 RMK AO2=
201507061452 METAR KATL 061452Z 25004KT 8SM FEW012 BKN015 BKN020 25/21 A3019 RMK AO2 SLP214 T02500206 50010=
201507061422 SPECI KATL 061422Z 25004KT 7SM FEW008 BKN015 BKN020 24/21 A3019 RMK AO2=
201507061412 SPECI KATL 061412Z 00000KT 3SM HZ FEW008 BKN012 OVC020 24/21 A3019 RMK AO2 SFC VIS 6=
201507061403 SPECI KATL 061403Z 26003KT 3SM OVC012 24/21 A3019 RMK AO2 SFC VIS 7=
201507061352 METAR KATL 061352Z 00000KT 2 1/2SM HZ OVC009 24/21 A3019 RMK AO2 SFC VIS 6 SLP216 T02390211=
201507061310 SPECI KATL 061310Z 00000KT 2 1/2SM BR FEW004 OVC007 23/21 A3018 RMK AO2 SFC VIS 6=
201507061252 METAR KATL 061252Z 26004KT 1 1/2SM BR OVC004 23/21 A3018 RMK AO2 SFC VIS 4 SLP211 T02280206=
201507061152 METAR KATL 061152Z 31004KT 1 1/2SM BR OVC003 22/21 A3016 RMK AO2 SFC VIS 4 SLP205 VIS W-NW 2 1/2 TWRINC T02220206 10228 20217 53015=
201507061116 SPECI KATL 061116Z 31003KT 1 1/2SM BR OVC004 22/21 A3015 RMK AO2 SFC VIS 5=
201507061052 METAR KATL 061052Z 30005KT 6SM BR OVC005 22/21 A3014 RMK AO2 SLP196 CIG 004V006 T02220206=
201507060952 METAR KATL 060952Z 25005KT 6SM BR BKN005 OVC060 22/20 A3013 RMK AO2 SLP192 T02220200=
201507060949 SPECI KATL 060949Z 25003KT 6SM BR SCT005 OVC060 22/20 A3013 RMK AO2=
201507060852 METAR KATL 060852Z 23006KT 7SM SCT005 SCT060 BKN220 22/20 A3012 RMK AO2 SLP188 T02170200 55002 $=
201507060838 SPECI KATL 060838Z 22004KT 10SM SCT005 BKN220 22/20 A3011 RMK AO2 $=
201507060752 METAR KATL 060752Z 21004KT 10SM FEW010 BKN220 22/20 A3010 RMK AO2 SLP183 T02170200 $=
201507060652 METAR KATL 060652Z 23005KT 10SM FEW047 BKN220 22/20 A3011 RMK AO2 SLP185 T02220200 $=
201507060552 METAR KATL 060552Z 24005KT 10SM FEW065 SCT200 BKN250 23/20 A3012 RMK AO2 SLP190 T02280200 10267 20228 58004 $=
201507060452 METAR KATL 060452Z 26007KT 10SM FEW065 SCT200 BKN250 23/20 A3012 RMK AO2 SLP192 T02280200 402890206 $=
201507060352 METAR KATL 060352Z 27007KT 10SM FEW060 SCT200 BKN250 23/20 A3014 RMK AO2 SLP196 T02330200 $=
201507060252 METAR KATL 060252Z 25003KT 10SM FEW055 BKN200 BKN250 24/19 A3014 RMK AO2 SLP196 T02440194 53016 $=
201507060152 METAR KATL 060152Z 23004KT 10SM BKN200 BKN250 24/19 A3013 RMK AO2 SLP192 T02440194 $=
201507060052 METAR KATL 060052Z 23003KT 10SM FEW038 BKN200 BKN250 25/19 A3009 RMK AO2 SLP181 TCU DSNT N & S-SW T02500189 $=
201507052352 METAR KATL 052352Z 23006KT 10SM FEW040 SCT200 BKN250 27/18 A3009 RMK AO2 SLP179 TCU DSNT N-NE & S-SW T02670178 10289 20267 58006 $=
201507052252 METAR KATL 052252Z 24010KT 10SM FEW042TCU SCT060 SCT200 BKN250 28/18 A3009 RMK AO2 SLP180 TCU NW-N & DSNT NE & SW & W T02780178 $=
201507052152 METAR KATL 052152Z 25010G15KT 10SM FEW040TCU SCT065 SCT200 BKN250 29/19 A3010 RMK AO2 SLP184 TCU SE-S & NW T02890189 $=
201507052052 METAR KATL 052052Z 25009KT 10SM SCT042TCU SCT065 SCT200 BKN250 29/19 A3011 RMK AO2 SLP185 TCU NW & DSNT SE-SW T02890189 58013 $=
201507051952 METAR KATL 051952Z 26006KT 10SM SCT040 BKN250 29/18 A3011 RMK AO2 SLP187 T02890183 $=
201507051852 METAR KATL 051852Z 26008G14KT 10SM SCT037 BKN120 BKN250 27/18 A3014 RMK AO2 SLP198 T02720183 $=
201507051752 METAR KATL 051752Z 28006KT 10SM SCT037 BKN150 BKN250 28/19 A3014 RMK AO2 SLP198 T02830194 10283 20206 58002 $=
201507051652 METAR KATL 051652Z 26009KT 10SM FEW027 SCT034 BKN120 26/19 A3015 RMK AO2 SLP202 T02560189 $=
201507051552 METAR KATL 051552Z 28009KT 10SM SCT026 BKN250 26/19 A3015 RMK AO2 SLP199 T02610189 $=
201507051511 SPECI KATL 051511Z 24006KT 10SM FEW016 SCT031 BKN250 24/19 A3015 RMK AO2 $=
201507051452 METAR KATL 051452Z 27009KT 10SM SCT016 BKN024 24/19 A3015 RMK AO2 SLP201 T02390189 50005 $=
201507051402 SPECI KATL 051402Z 25008KT 10SM FEW010 BKN018 BKN080 22/19 A3016 RMK AO2 $=
201507051352 METAR KATL 051352Z 24007KT 10SM BKN012 BKN021 22/19 A3016 RMK AO2 SLP205 T02220189 $=
201507051309 SPECI KATL 051309Z 25008KT 10SM FEW009 BKN012 BKN150 BKN250 22/19 A3016 RMK AO2 $=
201507051252 METAR KATL 051252Z 22006KT 10SM SCT007 BKN150 BKN200 BKN250 22/19 A3015 RMK AO2 SLP201 CIG LWR NE-S T02170194 $=
201507051244 SPECI KATL 051244Z 23004KT 10SM SCT007 BKN150 BKN200 BKN250 22/19 A3015 RMK AO2 CIG LWR NE-S $=
201507051217 SPECI KATL 051217Z 24005KT 9SM BKN007 BKN024 BKN140 BKN200 21/19 A3014 RMK AO2 $=
201507051152 METAR KATL 051152Z 21006KT 9SM SCT007 SCT024 BKN140 BKN200 21/19 A3013 RMK AO2 SLP195 60000 70091 T02060189 10211 20206 53011 $=
201507051137 SPECI KATL 051137Z 20005KT 10SM FEW009 SCT020 BKN140 BKN200 21/19 A3013 RMK AO2 $=
201507051116 SPECI KATL 051116Z 23006KT 9SM FEW009 SCT014 BKN020 BKN150 OVC200 21/19 A3013 RMK AO2 $=
201507051052 METAR KATL 051052Z 26004KT 9SM SCT009 BKN014 OVC095 21/19 A3012 RMK AO2 RAB46E52 SLP190 P0000 T02110189 $=
201507051046 SPECI KATL 051046Z 26005KT 9SM -RA FEW009 BKN014 OVC095 21/19 A3012 RMK AO2 RAB46 PCPN VRY LGT P0000 $=
201507051011 SPECI KATL 051011Z 26007KT 10SM SCT008 BKN022 BKN095 BKN180 OVC250 21/19 A3012 RMK AO2 $=
201507050952 METAR KATL 050952Z 28005KT 10SM BKN008 BKN095 OVC250 21/19 A3011 RMK AO2 SLP188 T02060189 $=
201507050852 METAR KATL 050852Z 25005KT 8SM BKN007 BKN055 BKN110 OVC180 21/19 A3010 RMK AO2 SLP184 T02060189 52005 $=
201507050840 SPECI KATL 050840Z 24004KT 10SM FEW007 SCT055 SCT110 OVC180 21/19 A3010 RMK AO2 $=
201507050752 METAR KATL 050752Z 24007KT 10SM FEW060 OVC150 21/19 A3009 RMK AO2 SLP182 T02060189 $=
201507050652 METAR KATL 050652Z 24005KT 10SM FEW060 OVC150 21/19 A3009 RMK AO2 SLP182 T02110189 $=
201507050552 METAR KATL 050552Z 22006KT 10SM FEW007 BKN150 OVC220 21/19 A3009 RMK AO2 SLP179 60006 T02110189 10267 20211 55003 $=
201507050452 METAR KATL 050452Z 19004KT 10SM FEW008 SCT110 BKN180 OVC250 22/19 A3007 RMK AO2 RAE0353 SLP176 T02170194 402940200 $=
201507050352 METAR KATL 050352Z 19008KT 10SM -RA FEW010 SCT075 BKN120 OVC200 22/20 A3010 RMK AO2 SLP184 P0003 T02220200 $=
201507050252 METAR KATL 050252Z 22008KT 6SM -RA BR FEW012 BKN100 OVC200 24/22 A3009 RMK AO2 RAB11 SLP181 P0003 60003 T02390217 53017 $=
201507050152 METAR KATL 050152Z 19008KT 10SM FEW032 BKN140 OVC200 26/22 A3006 RMK AO2 SLP171 OCNL LTGIC DSNT NW-NE CB DSNT NW-NE T02560217 $=
201507050052 METAR KATL 050052Z 19005KT 10SM FEW034 SCT140 BKN180 BKN250 26/21 A3006 RMK AO2 SLP170 CB DSNT NE TCU DSNT NW-N T02610211 $=
201507042352 METAR KATL 042352Z 20005KT 10SM FEW034 BKN180 BKN250 27/21 A3004 RMK AO2 SLP162 CB DSNT NE TCU DSNT N T02670206 10294 20261 55008 $=
201507042252 METAR KATL 042252Z 21005KT 10SM FEW036 SCT180 BKN250 28/21 A3003 RMK AO2 SLP161 TCU DSNT N-NE & NW T02830206 $=
201507042152 METAR KATL 042152Z 21007KT 10SM FEW038 SCT200 BKN250 28/21 A3005 RMK AO2 SLP165 T02830206 $=
201507042052 METAR KATL 042052Z 23004KT 10SM FEW036 BKN250 28/19 A3006 RMK AO2 SLP170 T02830194 56007 $=
201507041952 METAR KATL 041952Z 23009KT 10SM FEW034 BKN250 28/19 A3007 RMK AO2 SLP175 T02830194 $=
201507041852 METAR KATL 041852Z 28004KT 10SM FEW026 SCT150 BKN250 28/21 A3006 RMK AO2 SLP171 T02780206 $=
201507041752 METAR KATL 041752Z 28010G15KT 10SM FEW022 SCT150 BKN250 26/20 A3008 RMK AO2 SLP177 P0001 60085 T02610200 10261 20200 58018 $=
201507041652 METAR KATL 041652Z 27005KT 10SM FEW012 SCT150 BKN250 23/20 A3011 RMK AO2 RAE30 SLP186 P0008 T02330200 $=
201507041607 SPECI KATL 041607Z 21006KT 5SM -RA BR FEW046 BKN070 OVC085 21/19 A3013 RMK AO2 P0007 $=
201507041558 SPECI KATL 041558Z 24005KT 2SM R09R/5000VP6000FT +RA BR FEW038 BKN070 OVC085 21/19 A3014 RMK AO2 P0002 $=
201507041552 METAR KATL 041552Z 23007KT 6SM -RA BR FEW012 BKN065 OVC090 21/19 A3015 RMK AO2 SLP201 P0013 T02110194 $=
201507041509 SPECI KATL 041509Z 22007KT 4SM -RA BR FEW012 SCT060 OVC085 21/19 A3014 RMK AO2 P0008 $=
201507041502 SPECI KATL 041502Z 22005KT 1 3/4SM +RA BR SCT046 OVC090 21/19 A3014 RMK AO2 P0004 $=
201507041452 METAR KATL 041452Z 20008KT 4SM RA BR FEW012 SCT045 OVC090 21/19 A3014 RMK AO2 SLP197 P0027 60063 T02060189 53021 $=
201507041425 SPECI KATL 041425Z 23006KT 3SM RA BR FEW036 BKN047 OVC090 21/19 A3012 RMK AO2 P0019 $=
201507041410 SPECI KATL 041410Z 30010KT 1 1/2SM R09R/5500VP6000FT +RA BR FEW036 BKN045 OVC090 21/19 A3011 RMK AO2 P0008 $=
201507041352 METAR KATL 041352Z 28004KT 2 1/2SM RA BR FEW044 OVC090 21/19 A3010 RMK AO2 SLP185 P0011 T02060189 $=
201507041252 METAR KATL 041252Z 22005KT 4SM RA BR FEW049 OVC100 20/19 A3010 RMK AO2 TSB10E49 SLP186 TS DSIPT P0025 T02000189 $=
201507041249 SPECI KATL 041249Z 22006KT 4SM -RA BR FEW038 OVC100 21/19 A3011 RMK AO2 TSB10E49 TS DSIPT P0025 $=
201507041231 SPECI KATL 041231Z 24005KT 4SM TSRA BR FEW025CB BKN041 OVC060 21/18 A3009 RMK AO2 TSB10 OCNL LTGICCG E-SE TS E-SE MOV NE P0021 $=
201507041220 SPECI KATL 041220Z 24009KT 1SM R09R/4000VP6000FT +TSRA BR FEW009 SCT025CB OVC038 21/19 A3011 RMK AO2 TSB10 OCNL LTGIC S TS S MOV NE P0012 $=
201507041216 SPECI KATL 041216Z 25010KT 1 3/4SM R09R/4000VP6000FT +TSRA BR FEW025CB BKN038 OVC055 21/18 A3010 RMK AO2 TSB10 PRESRR OCNL LTGIC SW-W TS SW-W MOV NE P0001 $=
201507041210 SPECI KATL 041210Z 26012G15KT 8SM -TSRA FEW025CB BKN038 OVC055 21/19 A3009 RMK AO2 TSB10 OCNL LTGIC SW-W TS SW-W MOV NE P0000 $=
201507041152 METAR KATL 041152Z 28006KT 10SM -RA FEW025CB SCT040 BKN100 OVC250 21/18 A3007 RMK AO2 SLP174 CB VC SW-W MOV NE P0001 60062 70103 T02060183 10228 20200 53009 $=
201507041052 METAR KATL 041052Z 21004KT 8SM -RA FEW035 SCT050 BKN110 BKN150 20/19 A3006 RMK AO2 RAB0959 SLP170 CB MOV NE P0007 T02000189 $=
201507041040 SPECI KATL 041040Z 24003KT 6SM -RA BR FEW008 SCT038CB OVC080 20/18 A3006 RMK AO2 RAB0959 CB NE MOV NE P0005 $=
201507041033 SPECI KATL 041033Z 29007KT 2SM +RA BR FEW008 SCT038CB BKN110 21/19 A3007 RMK AO2 RAB0959 CB SW-NW MOV NE P0001 $=
201507040952 METAR KATL 040952Z 19005KT 10SM FEW095 OVC110 20/18 A3003 RMK AO2 RAE26 SLP160 P0000 T02000183 $=
201507040852 METAR KATL 040852Z 19004KT 10SM -RA OVC110 21/18 A3005 RMK AO2 SLP166 P0007 60054 T02060183 50011 $=
201507040752 METAR KATL 040752Z 23009KT 8SM RA FEW006 SCT090 BKN110 OVC150 21/19 A3006 RMK AO2 TSE17 SLP171 TS MOV NE P0047 T02060194 $=
201507040749 SPECI KATL 040749Z 23008KT 9SM -RA FEW006 SCT090 BKN110 OVC150 21/19 A3006 RMK AO2 TSE17 TS MOV NE P0047 $=
201507040718 SPECI KATL 040718Z 23009KT 10SM -RA SCT010 SCT020 BKN041 OVC130 21/19 A3005 RMK AO2 TSE17 TS MOV NE P0039 $=
201507040711 SPECI KATL 040711Z 24012G20KT 3SM -TSRA BR SCT020CB BKN043 OVC110 21/19 A3005 RMK AO2 OCNL LTGIC OHD-ALQDS TS OHD-ALQDS MOV NE P0039 $=
201507040702 SPECI KATL 040702Z 24012G20KT 1SM R09R/4000VP6000FT +TSRA SCT020CB BKN043 OVC150 21/19 A3005 RMK AO2 OCNL LTGIC OHD-ALQDS TS OHD-ALQDS MOV NE P0028 $=
201507040652 METAR KATL 040652Z COR 23012G20KT 5SM -TSRA FEW020CB SCT039 BKN047 BKN150 OVC250 23/19 A3005 RMK AO2 TSB51RAB52 PRESRR SLP167 OCNL LTGIC SE-SW TS VC SE-SW MOV NE P0000 T02280189 $=
201507040552 METAR KATL 040552Z 24006KT 10SM FEW075 SCT110 BKN150 OVC250 23/19 A3001 RMK AO2 RAB14E48 SLP154 P0001 60001 T02280189 10256 20228 58009 $=
201507040452 METAR KATL 040452Z 24006KT 10SM BKN150 OVC200 23/20 A3003 RMK AO2 TSB15E43RAB02E13 SLP159 FRQ LTG DSNT NE P0000 T02330200 402610211 $=
201507040443 SPECI KATL 040443Z 22007KT 10SM FEW025 BKN150 OVC200 23/20 A3003 RMK AO2 TSB15E43RAB02E13 FRQ LTG DSNT NE TS MOV NE P0000 $=
201507040415 SPECI KATL 040415Z 22006KT 10SM TS SCT025CB BKN040 BKN070 BKN200 24/21 A3004 RMK AO2 TSB15RAB02E13 FRQ LTGIC VC SE TS VC SE MOV NE P0000 $=
201507040352 METAR KATL 040352Z 00000KT 10SM FEW025TCU SCT055 BKN200 24/21 A3003 RMK AO2 SLP161 OCNL LTG DSNT S-SW TCU SW T02390211 $=
201507040252 METAR KATL 040252Z 26004KT 10SM BKN150 BKN250 24/21 A3004 RMK AO2 SLP164 T02390211 53015 $=
201507040152 METAR KATL 040152Z 21004KT 10SM FEW150 SCT200 BKN250 24/21 A3001 RMK AO2 SLP153 T02390211 $=
201507040052 METAR KATL 040052Z 24004KT 10SM SCT150 BKN200 BKN250 24/21 A3000 RMK AO2 SLP148 T02440206 $=
201507032352 METAR KATL 032352Z 25006KT 10SM FEW150 SCT200 BKN250 26/21 A3000 RMK AO2 SLP147 60000 T02560206 10261 20250 56008 $=
201507032252 METAR KATL 032252Z 24006KT 10SM BKN180 OVC250 26/21 A3000 RMK AO2 SLP149 T02610211 $=
201507032152 METAR KATL 032152Z 26007KT 10SM BKN150 OVC200 26/21 A3001 RMK AO2 RAB20E29 SLP152 VIRGA E-OHD-W P0000 T02560206 $=
201507032052 METAR KATL 032052Z 28007KT 10SM FEW025 SCT040 OVC150 25/21 A3002 RMK AO2 RAB27E38 SLP157 P0000 60000 T02500206 58006 $=
201507031952 METAR KATL 031952Z 27007KT 10SM FEW022 BKN034 OVC170 26/21 A3003 RMK AO2 SLP161 T02560206 $=
201507031852 METAR KATL 031852Z 27011G16KT 10SM FEW022 BKN030 OVC200 26/20 A3004 RMK AO2 SLP163 T02560200=
201507031752 METAR KATL 031752Z 25008KT 10SM FEW015 SCT100 BKN200 OVC250 25/20 A3004 RMK AO2 SLP161 60040 T02500200 10261 20211 50000=
201507031652 METAR KATL 031652Z 26007KT 10SM FEW015 SCT100 BKN200 23/20 A3005 RMK AO2 RAE24 SLP166 P0000 T02330200=
201507031552 METAR KATL 031552Z 28010KT 10SM -RA FEW030 BKN080 OVC100 22/20 A3007 RMK AO2 SLP172 CB DSNT SE-S-SW P0002 T02220200=
201507031452 METAR KATL 031452Z 26006KT 9SM -RA FEW010 SCT030 BKN100 OVC200 22/19 A3004 RMK AO2 SLP162 TSE09 TS MOV SE CB DSNT E-SE-S P0007 60038 T02170194 52018=
201507031409 SPECI KATL 031409Z 24010G17KT 8SM -RA FEW027 BKN100 OVC200 22/19 A3003 RMK AO2 FRQ LTGICCG DSNT E-SE-S TS MOV SE CB DSNT E-SE-S P0002=
201507031352 METAR KATL 031352Z 25012KT 8SM -TSRA FEW017CB BKN025 OVC095 22/19 A3003 RMK AO2 PK WND 30027/1334 TSB22RAB30 SLP160 VIS LWR E-SE-S SHRA FRQ LTGICCG E-SE-S TS E-SE-S MOV SE P0031 T02170189=
201507031343 SPECI KATL 031343Z 24013G27KT 3SM R09R/3500VP6000FT TSRA BKN017CB BKN025 OVC080 22/19 A3003 RMK AO2 PK WND 30027/1334 TSB22RAB30 FRQ LTGIC OHD TS OHD MOV SE P0021=
201507031340 SPECI KATL 031340Z 26014G27KT 1SM R09R/4000VP6000FT +TSRA BKN017CB BKN025 OVC080 23/19 A3003 RMK AO2 PK WND 30027/1334 TSB22RAB30 OCNL LTGIC OHD TS OHD MOV SE P0014=
201507031337 SPECI KATL 031337Z 27020G27KT 5SM R09R/3000VP6000FT TSRA SCT015CB BKN020 OVC030 24/21 A3003 RMK AO2 PK WND 30027/1334 TSB22RAB30 PRESRR OCNL LTGIC OHD TS OHD MOV SE P0014=
201507031331 SPECI KATL 031331Z 26011G19KT 2SM R09R/3000VP6000FT +TSRA BKN018CB BKN024 OVC110 26/22 A3001 RMK AO2 TSB22RAB30 PRESRR OCNL LTGIC OHD-SW-NW TS OHD-SW-NW MOV SE P0000=
201507031322 SPECI KATL 031322Z 24011G20KT 9SM TS BKN018CB BKN024 OVC110 26/22 A2999 RMK AO2 TSB22 OCNL LTGIC SW-NW TS VC SW-NW MOV SE SHRA VC SW-NW=
201507031304 SPECI KATL 031304Z 23009G17KT 9SM BKN018 BKN028 BKN110 OVC200 26/22 A2999 RMK AO2 CB DSNT SW-NW=
201507031252 METAR KATL 031252Z 24011G17KT 9SM SCT016 SCT030 BKN110 OVC200 26/22 A2999 RMK AO2 SLP144 CB DSNT NW-NE T02560217=
201507031152 METAR KATL 031152Z 23011KT 8SM FEW014 SCT065 SCT110 BKN200 25/22 A2998 RMK AO2 SLP141 CB DSNT NW-NE 60002 70017 T02500217 10250 20239 53009=
201507031052 METAR KATL 031052Z 24009G16KT 8SM FEW012 SCT100 BKN180 BKN250 24/22 A2998 RMK AO2 RAB0957E07 SLP139 CB DSNT NW-NE P0000 T02440217=
201507031045 SPECI KATL 031045Z 24010G18KT 8SM SCT012 SCT030 BKN100 BKN200 24/22 A2998 RMK AO2 RAB0957E07 CB DSNT NW-NE P0000=
201507031012 SPECI KATL 031012Z 24010G17KT 9SM BKN010 BKN030 BKN110 BKN250 24/22 A2996 RMK AO2 RAB0957E07 OCNL LTGIC DSNT NW-NE CB DSNT NW-NE P0000=
201507030952 METAR KATL 030952Z 23008KT 8SM FEW008 SCT028 BKN150 BKN250 24/22 A2996 RMK AO2 SLP133 OCNL LTGIC DSNT N CB DSNT N T02440222=
201507030852 METAR KATL 030852Z 24008KT 8SM FEW008 SCT028 SCT090 SCT250 24/22 A2995 RMK AO2 SLP132 60002 T02390217 56012=
201507030752 METAR KATL 030752Z 23006KT 9SM FEW030 SCT085 SCT250 24/22 A2996 RMK AO2 SLP135 T02390217=
201507030652 METAR KATL 030652Z 22007KT 10SM FEW040 SCT075 SCT200 24/22 A2996 RMK AO2 TSB04E19RAE12 SLP137 TS MOVD E P0002 T02390217=
201507030619 SPECI KATL 030619Z 23006KT 10SM FEW022 SCT070 SCT200 24/22 A2998 RMK AO2 TSB04E19RAE12 TS MOVD E OCNL LTGIC DSNT E-SE CB DSNT E-SE P0002=
201507030605 SPECI KATL 030605Z 25006G15KT 10SM -TSRA FEW024CB SCT065 BKN200 24/21 A2998 RMK AO2 TSB04 OCNL LTGIC SE-S TS SE-S MOV E P0002=
201507030552 METAR KATL 030552Z 28009KT 10SM -RA SCT025CB BKN065 BKN200 25/21 A2999 RMK AO2 RAB48 SLP145 CB OHD-W MOV E P0000 60000 T02500211 10278 20250 50002=
201507030452 METAR KATL 030452Z 24008KT 10SM SCT035 BKN070 BKN200 26/21 A3000 RMK AO2 SLP147 CB DSNT SE & S T02560206 403060200=
201507030352 METAR KATL 030352Z 24006KT 10SM BKN150 BKN250 26/21 A2999 RMK AO2 SLP144 T02610206=
201507030252 METAR KATL 030252Z 23006KT 10SM BKN150 BKN250 26/21 A2998 RMK AO2 SLP142 T02610211 53002=
201507030152 METAR KATL 030152Z 22006KT 10SM BKN150 OVC250 26/21 A2998 RMK AO2 SLP143 T02610211=
201507030052 METAR KATL 030052Z 21006KT 10SM BKN150 BKN200 BKN250 27/20 A2997 RMK AO2 SLP140 T02670200=
201507022352 METAR KATL 022352Z 26007KT 10SM BKN140 BKN200 BKN250 28/19 A2998 RMK AO2 SLP142 60014 T02780194 10306 20244 53001=
201507022252 METAR KATL 022252Z 25011KT 10SM FEW040 SCT100 BKN200 BKN250 29/19 A2997 RMK AO2 SLP140 T02890189=
201507022152 METAR KATL 022152Z 27015G18KT 10SM FEW040 SCT200 BKN250 30/19 A2998 RMK AO2 SLP140 TCU DSNT SW T03000194=
201507022052 METAR KATL 022052Z 28013KT 10SM FEW035 SCT085 BKN250 29/20 A2998 RMK AO2 SLP141 CB DSNT NE-E 60014 T02890200 58004=
201507021952 METAR KATL 021952Z 28013KT 10SM FEW040 BKN180 BKN250 29/22 A2998 RMK AO2 SLP143 CB DSNT N-NE-E TCU DSNT NW T02940217=
201507021852 METAR KATL 021852Z 26006KT 10SM FEW030TCU SCT060 BKN250 27/22 A2999 RMK AO2 TSB18E45RAB22E45 SLP145 CB DSNT E TS MOV E TCU SE-SW SHRA DSNT E P0014 T02720222=
201507021835 SPECI KATL 021835Z 32008G20KT 8SM R09R/3500VP6000FT -TSRA BKN030CB BKN070 BKN250 24/21 A3000 RMK AO2 TSB18RAB22 VIS LWR NE-SE SHRA OCNL LTGIC NE-SE TS NE-SE MOV E P0013 $=
201507021829 SPECI KATL 021829Z 31014G20KT 3SM R09R/3500VP6000FT +TSRA BKN030CB BKN070 OVC250 26/21 A3001 RMK AO2 TSB18RAB22 OCNL LTGIC OHD TS OHD MOV E P0000 PNO=
201507021823 SPECI KATL 021823Z 26010KT 5SM -TSRA BKN030CB BKN070 BKN250 28/21 A3001 RMK AO2 TSB18RAB22 VIS LWR W SHRA OCNL LTGICCG OHD-W TS OHD-W MOV E P0000=
201507021818 SPECI KATL 021818Z 25011KT 10SM TS FEW030CB BKN070 BKN250 28/21 A3000 RMK AO2 TSB18 OCNL LTGICCG W TS VC W MOV E CB DSNT N SHRA VC W & DSNT N=
201507021752 METAR KATL 021752Z 24011G21KT 10SM BKN035TCU BKN070 BKN250 29/21 A3001 RMK AO2 SLP152 CB DSNT NW TCU NE & SW-NW T02890211 10300 20206 58007=
201507021652 METAR KATL 021652Z 26012G17KT 10SM FEW030 SCT065 SCT150 BKN250 29/21 A3003 RMK AO2 SLP157 T02890211=
201507021552 METAR KATL 021552Z 25009KT 10SM FEW030 SCT150 BKN250 28/21 A3003 RMK AO2 SLP159 T02830211=
201507021452 METAR KATL 021452Z 26008KT 10SM FEW030 SCT150 SCT250 27/21 A3003 RMK AO2 SLP160 CB DSNT NE T02720211 58002=
201507021352 METAR KATL 021352Z 24011G15KT 10SM FEW020 SCT040 SCT150 25/20 A3005 RMK AO2 SLP166 TCU DSNT NW-N T02500200=
201507021252 METAR KATL 021252Z 24010KT 10SM FEW040TCU SCT150 SCT250 23/19 A3004 RMK AO2 SLP163 TCU N & E T02280189=
201507021152 METAR KATL 021152Z 23008KT 10SM FEW042 SCT150 BKN250 21/18 A3004 RMK AO2 SLP164 70061 T02110178 10211 20200 50010=
201507021052 METAR KATL 021052Z 23005KT 10SM SCT043 BKN150 BKN250 20/17 A3004 RMK AO2 SLP166 T02000172=
201507020952 METAR KATL 020952Z 22005KT 10SM FEW120 BKN150 BKN250 21/17 A3001 RMK AO2 SLP156 T02060172=
201507020852 METAR KATL 020852Z 25003KT 10SM SCT150 SCT250 20/17 A3000 RMK AO2 SLP151 T02000172 56016=
201507020752 METAR KATL 020752Z 25003KT 10SM FEW110 SCT150 SCT250 21/18 A3000 RMK AO2 SLP150 T02060178=
201507020652 METAR KATL 020652Z 25005KT 10SM BKN140 BKN250 21/19 A3003 RMK AO2 SLP159 T02110189=
201507020552 METAR KATL 020552Z 24004KT 10SM OVC150 21/19 A3005 RMK AO2 SLP168 60006 T02110189 10217 20206 57004=
201507020452 METAR KATL 020452Z 26003KT 9SM BKN150 OVC200 21/19 A3006 RMK AO2 SLP169 T02110189 402940206=
201507020352 METAR KATL 020352Z 20004KT 10SM SCT150 BKN200 OVC250 21/19 A3006 RMK AO2 SLP171 T02060189=
201507020252 METAR KATL 020252Z 20004KT 9SM FEW120 BKN150 OVC200 21/19 A3007 RMK AO2 RAB19E34 SLP173 P0000 60006 T02110194 55006=
201507020152 METAR KATL 020152Z 20005KT 9SM FEW004 SCT120 BKN150 OVC200 21/19 A3006 RMK AO2 RAE36 SLP170 P0001 T02110194=
201507020052 METAR KATL 020052Z 27003KT 8SM -RA BKN110 BKN150 OVC200 22/20 A3006 RMK AO2 SLP172 P0005 T02170200=
201507012352 METAR KATL 012352Z 32007KT 4SM RA BR FEW008 SCT025 BKN080 OVC150 22/19 A3008 RMK AO2 SLP180 TSE32 P0034 60055 T02170194 10294 20217 51019=
201507012333 SPECI KATL 012333Z 30007KT 5SM -RA BR SCT008 BKN025 BKN100 OVC150 22/19 A3009 RMK AO2 TSE32 TS MOV SE P0029=
201507012314 SPECI KATL 012314Z 28008KT 5SM TSRA BR SCT007 BKN020CB BKN040 OVC150 22/20 A3010 RMK AO2 OCNL LTGIC NE-SE-S TS NE-SE-S MOV SE P0027=
201507012300 SPECI KATL 012300Z 26007KT 1 1/2SM R09R/3500VP6000FT +TSRA BR SCT020CB BKN040 BKN100 OVC150 22/21 A3008 RMK AO2 OCNL LTGIC E-OHD-SW TS E-OHD-SW MOV SE P0014=
201507012252 METAR KATL 012252Z 24010KT 5SM TSRA BR SCT020CB BKN040 BKN100 OVC150 22/20 A3008 RMK AO2 TSE16B44 SLP178 OCNL LTGICCG SE-SW-NW TS SE-SW-NW MOV SE P0003 T02220200=
201507012244 SPECI KATL 012244Z 25007KT 7SM -TSRA FEW020CB SCT050 BKN100 OVC150 23/20 A3007 RMK AO2 TSE16B44 OCNL LTGIC VC SW-W TS VC SW-W MOV SE P0000=
201507012216 SPECI KATL 012216Z 23005KT 7SM FEW020 SCT120 BKN150 OVC200 22/19 A3005 RMK AO2 TSE16RAE10 TS MOV SE CB DSNT NE-SE & SW-NW P0000=
201507012152 METAR KATL 012152Z 29007KT 8SM -TSRA FEW030CB SCT060 BKN110 OVC200 22/18 A3006 RMK AO2 TSB12RAB14 SLP173 FRQ LTGICCG VC SE-S TS VC SE-S MOV SE P0018 T02220183=
201507012112 SPECI KATL 012112Z 26009KT 9SM TS SCT035CB BKN060 BKN200 OVC250 28/20 A3004 RMK AO2 TSB12 OCNL LTGICCG W-NW & VC SW TS W-NW & VC SW MOV SE=
201507012052 METAR KATL 012052Z 23009KT 9SM FEW037 SCT100 BKN250 28/21 A3003 RMK AO2 SLP159 CB DSNT SW-NW SHRA DSNT SW-NW T02830206 56017=
201507011952 METAR KATL 011952Z VRB06KT 9SM FEW035 SCT180 BKN250 29/20 A3003 RMK AO2 SLP160 T02890200=
201507011852 SPECI KATL 011852Z 27007KT 9SM FEW035 BKN250 28/20 A3006 RMK AO2 SLP168 T02830200=
201507011852 METAR KATL 011852Z 27007KT 9SM FEW035 BKN250 28/20 A3006 RMK AO2 SLP168 T02830200=
201507011752 METAR KATL 011752Z 22007KT 9SM FEW030 SCT180 BKN250 27/19 A3008 RMK AO2 SLP175 T02720194 10272 20222 58003=
201507011652 METAR KATL 011652Z 24005KT 9SM FEW025 BKN180 OVC250 26/19 A3009 RMK AO2 SLP180 T02610194=
201507011552 METAR KATL 011552Z 26008G15KT 9SM FEW017 BKN020 OVC250 25/19 A3008 RMK AO2 SLP178 T02500194=
201507011459 SPECI KATL 011459Z 27009KT 9SM FEW014 BKN016 OVC250 24/19 A3009 RMK AO2=
201507011452 METAR KATL 011452Z 25009KT 9SM BKN014 OVC250 24/19 A3009 RMK AO2 SLP180 T02440194 53012=
201507011352 METAR KATL 011352Z 27007KT 8SM BKN010 BKN250 23/19 A3007 RMK AO2 SLP172 T02330194=
201507011252 METAR KATL 011252Z 28006KT 7SM SCT008 BKN250 22/19 A3006 RMK AO2 SLP169 T02220194=
201507011217 SPECI KATL 011217Z 28005KT 7SM SCT008 OVC250 22/19 A3006 RMK AO2=
