##########################################################
# Query made at 04/19/2024 23:46:17 UTC
# Time interval: from 11/01/2015 12:00  to 11/30/2015 12:59  UTC
##########################################################

##########################################################
# KATL, Atlanta, Hartsfield - Jackson Atlanta International Airport (United States)
# WMO index: 72219. WIGOS ID: 0-20000-0-72219
# Latitude 33-38-59N. Longitude 084-25-00W. Altitude 312 m.
##########################################################

201511301252 METAR KATL 301252Z COR 14004KT 10SM BKN033 BKN046 16/12 A3010 RMK AO2 SLP189 T01610122=
201511301152 METAR KATL 301152Z 00000KT 10SM SCT034 BKN048 BKN130 16/12 A3009 RMK AO2 SLP184 T01610122 10178 20161 53009=
201511301052 METAR KATL 301052Z 13003KT 10SM FEW036 SCT050 BKN130 16/12 A3008 RMK AO2 SLP181 T01610122=
201511300952 METAR KATL 300952Z 19003KT 10SM SCT035 OVC050 17/12 A3007 RMK AO2 SLP176 T01670122=
201511300852 METAR KATL 300852Z 16004KT 10SM FEW049 BKN095 BKN150 17/12 A3006 RMK AO2 SLP173 T01670122 58011=
201511300752 METAR KATL 300752Z 19004KT 10SM FEW040 BKN050 OVC070 17/12 A3008 RMK AO2 SLP179 BINOVC T01720122=
201511300652 METAR KATL 300652Z 21004KT 10SM BKN045 OVC070 18/12 A3009 RMK AO2 SLP184 T01780122=
201511300552 METAR KATL 300552Z 20004KT 10SM BKN050 OVC075 17/12 A3009 RMK AO2 SLP185 T01720122 10200 20172 58005=
201511300452 METAR KATL 300452Z 17003KT 10SM BKN050 OVC070 18/13 A3010 RMK AO2 SLP187 T01780128 402280128=
201511300352 METAR KATL 300352Z 17004KT 10SM FEW047 OVC075 18/12 A3011 RMK AO2 SLP189 T01830122=
201511300252 METAR KATL 300252Z 18004KT 10SM FEW049 OVC075 18/13 A3011 RMK AO2 SLP191 T01830128 50001=
201511300152 METAR KATL 300152Z 18004KT 10SM FEW047 OVC070 19/12 A3011 RMK AO2 SLP193 T01890122=
201511300052 METAR KATL 300052Z 16005KT 10SM OVC070 20/12 A3010 RMK AO2 SLP191 T02000122=
201511292352 METAR KATL 292352Z 19004KT 10SM OVC065 20/12 A3011 RMK AO2 SLP191 T02000122 10228 20200 53006=
201511292252 METAR KATL 292252Z 20004KT 10SM BKN065 OVC200 21/12 A3009 RMK AO2 SLP186 T02060117=
201511292152 METAR KATL 292152Z 19007KT 10SM FEW040 BKN065 OVC200 22/12 A3009 RMK AO2 SLP185 T02170117=
201511292052 METAR KATL 292052Z 19006KT 10SM FEW040 BKN065 OVC200 22/12 A3009 RMK AO2 SLP184 T02220117 56018=
201511291952 METAR KATL 291952Z 17005KT 10SM FEW040 SCT100 BKN120 BKN250 22/12 A3009 RMK AO2 SLP186 T02220122=
201511291852 METAR KATL 291852Z 12005KT 10SM FEW040 SCT095 BKN120 BKN250 22/12 A3011 RMK AO2 SLP192 T02220122=
201511291752 METAR KATL 291752Z 20005KT 10SM FEW040 SCT095 BKN120 BKN250 22/12 A3014 RMK AO2 SLP203 T02170122 10222 20128 58021=
201511291652 METAR KATL 291652Z 26004KT 10SM SCT065 BKN100 BKN250 21/12 A3018 RMK AO2 SLP214 T02110117=
201511291552 METAR KATL 291552Z 22005KT 10SM BKN080 BKN100 BKN250 21/12 A3021 RMK AO2 SLP224 T02110117=
201511291452 METAR KATL 291452Z 22005KT 10SM BKN080 BKN095 BKN150 BKN250 19/12 A3021 RMK AO2 SLP226 T01890117 51004=
201511291352 METAR KATL 291352Z 20003KT 10SM FEW080 SCT095 SCT150 BKN250 17/11 A3021 RMK AO2 SLP226 T01670111=
201511291252 METAR KATL 291252Z 21003KT 10SM SCT095 SCT150 BKN250 13/11 A3020 RMK AO2 SLP225 T01330106=
201511291152 METAR KATL 291152Z 00000KT 10SM SCT100 BKN150 BKN250 14/11 A3020 RMK AO2 SLP222 T01440106 10156 20133 53003=
201511291052 METAR KATL 291052Z 22003KT 10SM SCT100 BKN200 14/11 A3018 RMK AO2 SLP216 T01390106=
201511290952 METAR KATL 290952Z 00000KT 10SM SCT120 BKN150 OVC250 14/11 A3019 RMK AO2 SLP218 T01390106=
201511290852 METAR KATL 290852Z 00000KT 10SM BKN120 OVC200 15/11 A3019 RMK AO2 SLP218 T01500106 56012=
201511290752 METAR KATL 290752Z 23003KT 10SM BKN120 OVC200 15/11 A3019 RMK AO2 SLP219 T01500106=
201511290652 METAR KATL 290652Z 00000KT 10SM BKN110 OVC150 16/11 A3021 RMK AO2 SLP224 T01560111=
201511290552 METAR KATL 290552Z 22003KT 10SM BKN120 15/12 A3022 RMK AO2 SLP230 T01500117 10183 20144 58003=
201511290452 METAR KATL 290452Z 20003KT 10SM BKN130 14/12 A3023 RMK AO2 SLP233 T01440117 402170106=
201511290352 METAR KATL 290352Z 00000KT 9SM OVC130 15/12 A3024 RMK AO2 SLP237 T01500117=
201511290252 METAR KATL 290252Z 00000KT 8SM BKN150 BKN250 15/11 A3023 RMK AO2 SLP235 T01500111 52005=
201511290152 METAR KATL 290152Z 00000KT 9SM SCT210 BKN250 16/12 A3022 RMK AO2 SLP233 T01560117=
201511290052 METAR KATL 290052Z 00000KT 10SM BKN210 BKN250 17/12 A3022 RMK AO2 SLP232 T01720117=
201511282352 METAR KATL 282352Z 00000KT 10SM BKN210 18/12 A3022 RMK AO2 SLP230 T01780117 10217 20172 53004=
201511282252 METAR KATL 282252Z 00000KT 10SM FEW035 SCT180 SCT250 19/11 A3021 RMK AO2 SLP227 T01890111=
201511282152 METAR KATL 282152Z 20003KT 10SM FEW035 FEW180 SCT250 21/12 A3020 RMK AO2 SLP225 T02060117=
201511282052 METAR KATL 282052Z 00000KT 10SM FEW002 FEW035 SCT180 BKN250 21/12 A3020 RMK AO2 SLP224 FU FEW002 S T02060117 56022=
201511281952 METAR KATL 281952Z 21003KT 10SM FEW035 FEW180 BKN250 21/12 A3021 RMK AO2 SLP227 T02110117=
201511281852 METAR KATL 281852Z VRB03KT 10SM FEW035 SCT180 BKN250 21/12 A3024 RMK AO2 SLP236 T02110122=
201511281752 METAR KATL 281752Z 00000KT 10SM FEW030 SCT180 BKN250 20/12 A3027 RMK AO2 SLP247 T02000117 10200 20111 58019=
201511281652 METAR KATL 281652Z 17006KT 10SM BKN180 BKN250 18/12 A3030 RMK AO2 SLP256 T01830117=
201511281552 METAR KATL 281552Z 19004KT 10SM BKN180 OVC250 17/12 A3032 RMK AO2 SLP263 BINOVC T01720117=
201511281452 METAR KATL 281452Z VRB03KT 10SM BKN180 BKN250 16/12 A3033 RMK AO2 SLP268 T01610122 51007=
201511281352 METAR KATL 281352Z 14003KT 10SM BKN180 BKN250 14/12 A3031 RMK AO2 SLP263 T01390117=
201511281252 METAR KATL 281252Z 00000KT 10SM BKN180 BKN250 12/10 A3032 RMK AO2 SLP265 T01170100=
201511281152 METAR KATL 281152Z COR 00000KT 10SM FEW200 SCT250 11/09 A3030 RMK AO2 SLP260 T01110089 10139 20106 53001=
201511281052 METAR KATL 281052Z 06004KT 10SM FEW200 SCT250 13/11 A3030 RMK AO2 SLP258 T01280106=
201511280952 METAR KATL 280952Z 09004KT 10SM FEW200 12/11 A3029 RMK AO2 SLP255 T01220106=
201511280852 METAR KATL 280852Z 07005KT 10SM FEW200 13/11 A3030 RMK AO2 SLP257 T01280106 58010=
201511280752 METAR KATL 280752Z 07005KT 10SM BKN200 13/11 A3032 RMK AO2 SLP264 T01330106=
201511280652 METAR KATL 280652Z 08004KT 10SM BKN180 BKN220 13/11 A3032 RMK AO2 SLP263 T01280106=
201511280552 METAR KATL 280552Z 08005KT 10SM BKN170 13/11 A3033 RMK AO2 SLP268 T01330106 10178 20133 58009=
201511280452 METAR KATL 280452Z 08005KT 10SM BKN170 14/11 A3034 RMK AO2 SLP271 T01440111 402220094=
201511280352 METAR KATL 280352Z 09005KT 10SM BKN170 14/11 A3035 RMK AO2 SLP275 T01440111=
201511280252 METAR KATL 280252Z 09005KT 10SM SCT250 15/11 A3036 RMK AO2 SLP280 T01500111 53001=
201511280152 METAR KATL 280152Z 10004KT 10SM FEW250 16/11 A3036 RMK AO2 SLP278 T01560111=
201511280052 METAR KATL 280052Z 12005KT 10SM SCT250 17/12 A3035 RMK AO2 SLP278 T01720117=
201511272352 METAR KATL 272352Z 12003KT 10SM SCT250 18/12 A3036 RMK AO2 SLP279 T01780117 10222 20178 53001=
201511272252 METAR KATL 272252Z 12004KT 10SM FEW036 SCT250 19/12 A3035 RMK AO2 SLP277 T01940117=
201511272152 METAR KATL 272152Z 13006KT 10SM FEW039 FEW150 BKN250 21/12 A3035 RMK AO2 SLP275 T02060117=
201511272052 METAR KATL 272052Z 13006KT 10SM FEW037 FEW150 BKN250 22/12 A3035 RMK AO2 SLP276 T02170117 56028=
201511271952 METAR KATL 271952Z 14009KT 10SM FEW037 FEW150 SCT250 22/12 A3036 RMK AO2 SLP279 T02170117=
201511271852 METAR KATL 271852Z 11009KT 10SM FEW030 FEW150 SCT250 22/12 A3040 RMK AO2 SLP289 T02170117=
201511271752 METAR KATL 271752Z 12007KT 10SM FEW030 FEW150 SCT250 21/12 A3044 RMK AO2 SLP305 T02060117 10211 20094 58021=
201511271652 METAR KATL 271652Z 11010KT 10SM FEW035 FEW150 SCT250 19/11 A3047 RMK AO2 SLP315 T01940111=
201511271552 METAR KATL 271552Z 10010KT 10SM FEW150 SCT250 18/12 A3049 RMK AO2 SLP321 T01830117=
201511271452 METAR KATL 271452Z 09010KT 10SM FEW150 SCT220 16/11 A3050 RMK AO2 SLP327 T01560106 51012=
201511271352 METAR KATL 271352Z 08009KT 10SM FEW100 SCT200 SCT250 13/09 A3050 RMK AO2 SLP328 T01280094=
201511271252 METAR KATL 271252Z 09008KT 10SM FEW100 SCT200 SCT250 11/08 A3049 RMK AO2 SLP325 T01060083=
201511271152 METAR KATL 271152Z 08007KT 10SM FEW030 FEW200 SCT250 10/08 A3047 RMK AO2 SLP317 T01000083 10128 20100 56004=
201511271052 METAR KATL 271052Z 07011KT 10SM FEW250 11/09 A3047 RMK AO2 SLP318 T01110089 $=
201511270952 METAR KATL 270952Z 08009KT 10SM FEW250 11/09 A3047 RMK AO2 SLP317 T01110089 $=
201511270852 METAR KATL 270852Z 08008KT 10SM FEW250 11/09 A3048 RMK AO2 SLP320 T01110089 58011 $=
201511270752 METAR KATL 270752Z 09007KT 10SM FEW250 11/08 A3049 RMK AO2 SLP324 T01110083 $=
201511270652 METAR KATL 270652Z 09009KT 10SM FEW035 SCT250 12/09 A3050 RMK AO2 SLP326 T01220089 $=
201511270552 METAR KATL 270552Z 09008KT 10SM FEW035 SCT250 13/09 A3051 RMK AO2 SLP330 T01280089 10161 20128 58004 $=
201511270452 METAR KATL 270452Z 09010KT 10SM BKN035 BKN250 14/09 A3053 RMK AO2 SLP336 T01390094 402000072 $=
201511270352 METAR KATL 270352Z 09011KT 10SM FEW035 SCT250 14/09 A3052 RMK AO2 SLP335 T01390094 $=
201511270252 METAR KATL 270252Z 09010KT 10SM BKN040 15/09 A3053 RMK AO2 SLP337 T01500094 50001 $=
201511270152 METAR KATL 270152Z 08008KT 10SM FEW038 BKN045 14/09 A3053 RMK AO2 SLP339 T01390094 $=
201511270052 METAR KATL 270052Z 08009KT 10SM FEW038 15/09 A3052 RMK AO2 SLP338 T01500094 $=
201511262352 METAR KATL 262352Z 08008KT 10SM BKN038 16/10 A3052 RMK AO2 SLP337 T01610100 10200 20150 53001 $=
201511262252 METAR KATL 262252Z 10008KT 10SM FEW070 FEW250 17/09 A3050 RMK AO2 SLP330 T01670094 $=
201511262152 METAR KATL 262152Z 10010KT 10SM FEW070 SCT230 18/09 A3051 RMK AO2 SLP333 T01830094 $=
201511262052 METAR KATL 262052Z 11014G19KT 10SM FEW070 BKN230 19/09 A3052 RMK AO2 SLP334 T01940089 56020 $=
201511261952 METAR KATL 261952Z 10012KT 10SM FEW070 BKN230 20/09 A3053 RMK AO2 SLP338 T02000089 $=
201511261852 METAR KATL 261852Z 08016KT 10SM FEW070 BKN230 19/08 A3055 RMK AO2 SLP346 T01940083 $=
201511261752 METAR KATL 261752Z 11008KT 10SM FEW230 19/08 A3058 RMK AO2 SLP355 T01890083 10189 20072 58018 $=
201511261652 METAR KATL 261652Z 11009KT 10SM FEW230 17/07 A3061 RMK AO2 SLP366 T01720072 $=
201511261552 METAR KATL 261552Z 08014KT 10SM FEW200 15/06 A3062 RMK AO2 SLP371 T01500061 $=
201511261452 METAR KATL 261452Z 08014KT 10SM FEW200 13/05 A3063 RMK AO2 SLP375 T01280050 51012 $=
201511261352 METAR KATL 261352Z 08016G20KT 10SM FEW200 FEW250 10/03 A3062 RMK AO2 SLP373 T01000033 $=
201511261252 METAR KATL 261252Z 07012KT 10SM FEW200 08/02 A3061 RMK AO2 SLP367 T00830022 $=
201511261152 METAR KATL 261152Z 08009KT 10SM CLR 07/02 A3060 RMK AO2 SLP364 T00720017 10089 20072 53008 $=
201511261052 METAR KATL 261052Z 09011KT 10SM CLR 08/02 A3058 RMK AO2 SLP357 T00780017 $=
201511260952 METAR KATL 260952Z 08011KT 10SM CLR 07/02 A3057 RMK AO2 SLP354 T00720017 $=
201511260852 METAR KATL 260852Z 08010KT 10SM CLR 08/01 A3057 RMK AO2 SLP354 T00780011 53003 $=
201511260752 METAR KATL 260752Z 09012KT 10SM CLR 08/01 A3056 RMK AO2 SLP350 T00780011 $=
201511260652 METAR KATL 260652Z 07013KT 10SM FEW200 08/02 A3056 RMK AO2 SLP351 T00830017 $=
201511260552 METAR KATL 260552Z 09013KT 10SM FEW200 09/02 A3056 RMK AO2 SLP351 T00890017 10111 20083 50002 $=
201511260452 METAR KATL 260452Z 09011KT 10SM FEW200 09/02 A3058 RMK AO2 SLP357 T00890022 401390028 $=
201511260352 METAR KATL 260352Z 09010KT 10SM FEW200 09/02 A3057 RMK AO2 SLP354 T00890022 $=
201511260252 METAR KATL 260252Z 09011KT 10SM FEW200 SCT250 09/03 A3056 RMK AO2 SLP350 T00940028 51012 $=
201511260152 METAR KATL 260152Z 08011KT 10SM FEW200 SCT250 10/03 A3054 RMK AO2 SLP346 T01000028 $=
201511260052 METAR KATL 260052Z 09011KT 10SM FEW200 11/03 A3053 RMK AO2 SLP344 T01110028 $=
201511252352 METAR KATL 252352Z 10008KT 10SM FEW200 11/03 A3052 RMK AO2 SLP339 T01110028 10139 20111 53011 $=
201511252252 METAR KATL 252252Z 09009KT 10SM FEW070 SCT200 12/03 A3050 RMK AO2 SLP333 T01170028 $=
201511252152 METAR KATL 252152Z 09010KT 10SM FEW040 SCT070 BKN240 13/03 A3049 RMK AO2 SLP328 T01330028=
201511252052 METAR KATL 252052Z 09011KT 10SM FEW040 BKN050 BKN070 BKN250 14/02 A3049 RMK AO2 SLP327 T01390022 56009=
201511251952 METAR KATL 251952Z 08010KT 10SM FEW030 BKN040 BKN070 BKN250 14/02 A3049 RMK AO2 SLP326 T01390017=
201511251852 METAR KATL 251852Z 06009KT 10SM FEW035 SCT045 BKN065 BKN250 14/02 A3050 RMK AO2 SLP329 T01390022=
201511251752 METAR KATL 251752Z 07011KT 10SM FEW030 BKN040 BKN060 12/02 A3051 RMK AO2 SLP336 T01220017 10128 20039 58006=
201511251652 METAR KATL 251652Z 08014KT 10SM BKN035 BKN045 BKN060 11/02 A3053 RMK AO2 SLP342 T01110017=
201511251552 METAR KATL 251552Z 08014KT 10SM FEW030 SCT040 BKN060 10/01 A3055 RMK AO2 SLP347 T01000011=
201511251452 METAR KATL 251452Z 09010KT 10SM FEW040 BKN060 09/01 A3053 RMK AO2 SLP342 T00890006 51022=
201511251352 METAR KATL 251352Z 08011KT 10SM BKN055 07/00 A3051 RMK AO2 SLP336 T00670000=
201511251252 METAR KATL 251252Z 09009KT 10SM FEW028 SCT046 BKN055 05/00 A3048 RMK AO2 SLP327 T00500000=
201511251152 METAR KATL 251152Z 08007KT 10SM FEW026 BKN050 04/M01 A3046 RMK AO2 SLP320 T00391006 10067 20028 53015=
201511251120 SPECI KATL 251120Z 09008KT 10SM SCT026 BKN050 04/M01 A3045 RMK AO2 T00391006=
201511251052 METAR KATL 251052Z 07009KT 10SM BKN026 BKN250 04/M01 A3045 RMK AO2 SLP314 T00441006=
201511250952 METAR KATL 250952Z 08007KT 10SM FEW025 FEW250 03/M01 A3043 RMK AO2 SLP307 T00331011=
201511250852 METAR KATL 250852Z 09006KT 10SM FEW250 03/M01 A3042 RMK AO2 SLP303 T00281011 53003=
201511250752 METAR KATL 250752Z 11005KT 10SM FEW250 05/M01 A3041 RMK AO2 SLP301 T00501011=
201511250652 METAR KATL 250652Z 12006KT 10SM FEW250 06/M01 A3040 RMK AO2 SLP298 T00611011=
201511250552 METAR KATL 250552Z 10005KT 10SM FEW250 04/M01 A3041 RMK AO2 SLP300 T00441011 10111 20044 50001=
201511250452 METAR KATL 250452Z 10004KT 10SM FEW200 SCT250 06/M01 A3041 RMK AO2 SLP301 T00611011 401440006=
201511250352 METAR KATL 250352Z 09005KT 10SM FEW200 SCT250 07/M01 A3041 RMK AO2 SLP302 T00671011=
201511250252 METAR KATL 250252Z 12004KT 10SM FEW200 BKN250 08/M01 A3040 RMK AO2 SLP298 T00831011 51012=
201511250152 METAR KATL 250152Z 12004KT 10SM FEW200 SCT250 09/M01 A3040 RMK AO2 SLP297 T00941011=
201511250052 METAR KATL 250052Z 11005KT 10SM SCT200 BKN250 11/M02 A3039 RMK AO2 SLP295 T01061017=
201511242352 METAR KATL 242352Z 11004KT 10SM FEW150 SCT200 BKN250 11/M02 A3037 RMK AO2 SLP289 T01111017 10144 20106 53008=
201511242252 METAR KATL 242252Z 10004KT 10SM FEW150 BKN200 BKN250 12/M02 A3035 RMK AO2 SLP284 T01171017=
201511242152 METAR KATL 242152Z 12005KT 10SM FEW150 SCT180 BKN250 13/M02 A3035 RMK AO2 SLP281 T01281022=
201511242052 METAR KATL 242052Z VRB04KT 10SM FEW150 SCT180 BKN250 13/M02 A3034 RMK AO2 SLP280 T01331022 55011=
201511241952 METAR KATL 241952Z 09007KT 080V140 10SM FEW180 SCT200 BKN250 14/M02 A3034 RMK AO2 SLP278 T01391022=
201511241852 METAR KATL 241852Z 00000KT 10SM FEW180 SCT200 BKN250 14/M03 A3036 RMK AO2 SLP284 T01391028=
201511241752 METAR KATL 241752Z 00000KT 10SM BKN250 13/M02 A3038 RMK AO2 SLP290 T01331022 10133 20006 58008=
201511241652 METAR KATL 241652Z 10006KT 10SM BKN250 12/M02 A3040 RMK AO2 SLP297 T01221022=
201511241552 METAR KATL 241552Z 07009KT 10SM BKN250 11/M02 A3041 RMK AO2 SLP302 T01111022=
201511241452 METAR KATL 241452Z 10004KT 10SM BKN250 10/M02 A3040 RMK AO2 SLP300 T01001022 51012=
201511241352 METAR KATL 241352Z 01004KT 10SM FEW200 SCT250 08/M03 A3039 RMK AO2 SLP295 T00781028=
201511241252 METAR KATL 241252Z 32004KT 10SM FEW200 SCT250 03/M04 A3039 RMK AO2 SLP295 T00281039=
201511241152 METAR KATL 241152Z 33005KT 10SM FEW250 02/M04 A3037 RMK AO2 SLP289 T00171039 10039 20011 53012=
201511241052 METAR KATL 241052Z 32005KT 10SM FEW250 02/M04 A3035 RMK AO2 SLP282 T00171044=
201511240952 METAR KATL 240952Z 31006KT 10SM CLR 01/M04 A3035 RMK AO2 SLP282 T00111039=
201511240852 METAR KATL 240852Z 32007KT 10SM CLR 02/M03 A3033 RMK AO2 SLP275 T00171033 53003=
201511240752 METAR KATL 240752Z 29004KT 10SM CLR 01/M03 A3032 RMK AO2 SLP274 T00111033=
201511240652 METAR KATL 240652Z 32003KT 10SM CLR 04/M04 A3032 RMK AO2 SLP271 T00391039=
201511240552 METAR KATL 240552Z 00000KT 10SM CLR 03/M03 A3032 RMK AO2 SLP273 T00281033 10083 20028 51003=
201511240452 METAR KATL 240452Z 00000KT 10SM CLR 04/M03 A3032 RMK AO2 SLP273 T00391028 401221006=
201511240352 METAR KATL 240352Z 00000KT 10SM CLR 04/M03 A3032 RMK AO2 SLP273 T00441033=
201511240252 METAR KATL 240252Z 00000KT 10SM CLR 04/M03 A3031 RMK AO2 SLP271 T00441028 51012=
201511240152 METAR KATL 240152Z 33004KT 10SM CLR 06/M04 A3030 RMK AO2 SLP267 T00611039=
201511240052 METAR KATL 240052Z 30004KT 10SM CLR 08/M04 A3030 RMK AO2 SLP267 T00781044=
201511232352 METAR KATL 232352Z 32004KT 10SM CLR 08/M05 A3028 RMK AO2 SLP260 T00831050 10122 20078 53013=
201511232252 METAR KATL 232252Z 31005KT 10SM CLR 09/M05 A3026 RMK AO2 SLP253 T00941050=
201511232152 METAR KATL 232152Z 31007KT 10SM CLR 11/M06 A3025 RMK AO2 SLP248 T01111056=
201511232052 METAR KATL 232052Z 31006KT 10SM CLR 12/M05 A3024 RMK AO2 SLP245 T01221050 55010=
201511231952 METAR KATL 231952Z 34009KT 10SM CLR 12/M06 A3024 RMK AO2 SLP244 T01221056=
201511231852 METAR KATL 231852Z 31007KT 10SM CLR 12/M06 A3025 RMK AO2 SLP248 T01171061=
201511231752 METAR KATL 231752Z 29003KT 10SM CLR 10/M06 A3027 RMK AO2 SLP255 T01001056 10106 21006 58003=
201511231652 METAR KATL 231652Z 32008KT 10SM CLR 09/M07 A3028 RMK AO2 SLP260 T00941067=
201511231552 METAR KATL 231552Z 34004KT 10SM CLR 07/M07 A3030 RMK AO2 SLP266 T00721067=
201511231452 METAR KATL 231452Z 34006KT 10SM CLR 05/M07 A3028 RMK AO2 SLP259 T00501067 51016=
201511231352 METAR KATL 231352Z 33009KT 10SM CLR 02/M06 A3026 RMK AO2 SLP256 T00221061=
201511231252 METAR KATL 231252Z 33009KT 10SM CLR 00/M06 A3025 RMK AO2 SLP251 T00001061=
201511231152 METAR KATL 231152Z 33008KT 10SM CLR M01/M06 A3023 RMK AO2 SLP244 T10061061 10011 21006 53017=
201511231052 METAR KATL 231052Z 32010KT 10SM CLR M01/M06 A3021 RMK AO2 SLP238 T10061061=
201511230952 METAR KATL 230952Z 32010KT 10SM CLR 00/M06 A3019 RMK AO2 SLP230 T00001061=
201511230852 METAR KATL 230852Z 32008KT 10SM CLR 00/M06 A3018 RMK AO2 SLP225 T00001056 53013=
201511230752 METAR KATL 230752Z 31009KT 10SM CLR 01/M06 A3016 RMK AO2 SLP217 T00061056=
201511230652 METAR KATL 230652Z 32006KT 10SM CLR 01/M06 A3014 RMK AO2 SLP212 T00061056=
201511230552 METAR KATL 230552Z 33006KT 10SM CLR 01/M06 A3014 RMK AO2 SLP210 T00111056 10056 20011 50001=
201511230452 METAR KATL 230452Z 33009KT 10SM CLR 02/M06 A3014 RMK AO2 SLP212 T00221056 401110017=
201511230352 METAR KATL 230352Z 32007KT 10SM CLR 02/M04 A3014 RMK AO2 SLP213 T00221044=
201511230252 METAR KATL 230252Z 33008KT 10SM CLR 03/M04 A3013 RMK AO2 SLP211 T00331044 51014=
201511230152 METAR KATL 230152Z 34008KT 10SM CLR 04/M04 A3012 RMK AO2 SLP207 T00391044=
201511230052 METAR KATL 230052Z 34007KT 10SM CLR 04/M04 A3011 RMK AO2 SLP202 T00441039=
201511222352 METAR KATL 222352Z 33008KT 10SM CLR 06/M04 A3009 RMK AO2 SLP196 T00561044 10100 20056 53014=
201511222252 METAR KATL 222252Z 33010KT 10SM CLR 06/M04 A3007 RMK AO2 SLP188 T00611044=
201511222152 METAR KATL 222152Z 33015KT 10SM CLR 08/M06 A3006 RMK AO2 SLP183 T00781061=
201511222052 METAR KATL 222052Z 30016G19KT 10SM CLR 09/M06 A3005 RMK AO2 SLP179 T00891056 53001=
201511221952 METAR KATL 221952Z 31018KT 10SM CLR 09/M04 A3004 RMK AO2 SLP175 T00891039=
201511221852 METAR KATL 221852Z 32014KT 10SM CLR 09/M04 A3004 RMK AO2 SLP172 T00941039=
201511221752 METAR KATL 221752Z 34018KT 10SM CLR 09/M03 A3005 RMK AO2 SLP175 T00941028 10100 20017 58016=
201511221652 METAR KATL 221652Z 32015KT 10SM CLR 08/M02 A3007 RMK AO2 SLP183 T00781022=
201511221552 METAR KATL 221552Z 34014KT 10SM FEW250 06/M02 A3009 RMK AO2 SLP192 T00611022=
201511221452 METAR KATL 221452Z 32015KT 10SM FEW250 04/M03 A3009 RMK AO2 SLP194 T00441028 51018=
201511221352 METAR KATL 221352Z 32014G19KT 10SM FEW250 03/M03 A3008 RMK AO2 SLP188 T00331028=
201511221252 METAR KATL 221252Z 32011KT 10SM FEW018 FEW250 02/M03 A3006 RMK AO2 SLP184 T00171033=
201511221152 METAR KATL 221152Z 33014G24KT 10SM FEW018 FEW250 03/M02 A3004 RMK AO2 SLP176 T00331022 10111 20033 52013=
201511221052 METAR KATL 221052Z 33013KT 10SM FEW018 FEW250 05/00 A3002 RMK AO2 SLP168 T00500000=
201511220952 METAR KATL 220952Z 32012KT 10SM SCT018 BKN250 07/02 A3002 RMK AO2 SLP166 T00670017=
201511220852 METAR KATL 220852Z 33013KT 10SM BKN018 OVC031 08/04 A3000 RMK AO2 SLP159 T00830039 53003=
201511220752 METAR KATL 220752Z 32016KT 10SM FEW019 OVC028 09/04 A2999 RMK AO2 SLP156 T00940044=
201511220652 METAR KATL 220652Z 34014KT 10SM OVC017 11/06 A2999 RMK AO2 SLP155 T01060056=
201511220552 METAR KATL 220552Z 32006KT 10SM OVC021 11/07 A2999 RMK AO2 SLP156 T01110072 10122 20100 58004=
201511220452 METAR KATL 220452Z 32008KT 10SM OVC023 11/07 A3000 RMK AO2 SLP161 T01060072 401390067=
201511220352 METAR KATL 220352Z 00000KT 10SM BKN026 BKN040 OVC110 11/07 A3000 RMK AO2 SLP160 T01110067=
201511220327 SPECI KATL 220327Z 00000KT 10SM BKN026 BKN040 BKN110 OVC200 11/07 A3000 RMK AO2 T01060067=
201511220252 METAR KATL 220252Z 09003KT 10SM SCT110 OVC200 10/06 A3000 RMK AO2 SLP160 T01000061 51003=
201511220152 METAR KATL 220152Z 09006KT 10SM FEW110 BKN200 OVC250 11/07 A3000 RMK AO2 SLP161 T01060072=
201511220052 METAR KATL 220052Z 10005KT 10SM FEW024 SCT110 BKN200 OVC250 12/07 A3000 RMK AO2 SLP161 T01170072=
201511212352 METAR KATL 212352Z 08008KT 10SM FEW023 SCT100 BKN200 OVC250 12/07 A2999 RMK AO2 SLP159 T01220072 10139 20122 50001=
201511212319 SPECI KATL 212319Z 10006KT 10SM SCT023 BKN110 OVC200 13/08 A3000 RMK AO2 T01280078=
201511212252 METAR KATL 212252Z 00000KT 10SM OVC022 13/08 A3000 RMK AO2 SLP161 T01330078=
201511212152 METAR KATL 212152Z 12004KT 10SM OVC022 13/08 A3000 RMK AO2 SLP160 T01330078=
201511212052 METAR KATL 212052Z 09003KT 10SM OVC021 13/08 A2999 RMK AO2 SLP157 T01330078 56014=
201511211952 METAR KATL 211952Z 12003KT 10SM OVC019 13/07 A2999 RMK AO2 SLP157 T01330072=
201511211852 METAR KATL 211852Z 10008KT 10SM OVC017 13/07 A3000 RMK AO2 SLP158 T01330072=
201511211836 SPECI KATL 211836Z 09008KT 10SM OVC017 13/07 A3001 RMK AO2 T01280067=
201511211810 SPECI KATL 211810Z 10006KT 10SM OVC014 13/06 A3002 RMK AO2 T01280061=
201511211752 METAR KATL 211752Z 08008KT 040V110 10SM OVC015 12/06 A3004 RMK AO2 SLP171 T01220056 10128 20067 58032=
201511211652 METAR KATL 211652Z 10007KT 10SM OVC018 12/04 A3009 RMK AO2 SLP190 T01170044=
201511211552 METAR KATL 211552Z 10008KT 10SM OVC022 11/04 A3012 RMK AO2 SLP200 T01110039=
201511211513 SPECI KATL 211513Z 10011KT 10SM BKN028 BKN046 11/03 A3013 RMK AO2 T01110028=
201511211452 METAR KATL 211452Z 10012KT 10SM BKN038 11/03 A3013 RMK AO2 SLP203 T01060028 51005=
201511211352 METAR KATL 211352Z 10010KT 10SM FEW035 09/01 A3013 RMK AO2 SLP204 T00940011=
201511211252 METAR KATL 211252Z 09010KT 10SM FEW040 FEW250 07/01 A3012 RMK AO2 SLP201 T00720006=
201511211152 METAR KATL 211152Z 08010KT 10SM FEW250 07/01 A3012 RMK AO2 SLP199 T00720006 10111 20072 58001=
201511211052 METAR KATL 211052Z 09011KT 10SM FEW250 08/01 A3012 RMK AO2 SLP200 T00780011=
201511210952 METAR KATL 210952Z 08008KT 10SM FEW250 08/02 A3013 RMK AO2 SLP200 T00780022=
201511210852 METAR KATL 210852Z 09010KT 10SM FEW250 08/03 A3012 RMK AO2 SLP197 T00830033 58005=
201511210752 METAR KATL 210752Z 09009KT 10SM FEW250 09/04 A3013 RMK AO2 SLP199 T00940044=
201511210652 METAR KATL 210652Z 07009KT 10SM FEW250 10/05 A3013 RMK AO2 SLP202 T01000050=
201511210552 METAR KATL 210552Z 10008KT 10SM SCT250 11/06 A3013 RMK AO2 SLP202 T01110056 10156 20111 50000=
201511210452 METAR KATL 210452Z 12008KT 10SM SCT250 12/06 A3014 RMK AO2 SLP204 T01220061 402110078=
201511210352 METAR KATL 210352Z 12007KT 10SM BKN250 13/06 A3013 RMK AO2 SLP203 T01280056=
201511210252 METAR KATL 210252Z 12004KT 10SM BKN250 13/05 A3013 RMK AO2 SLP203 T01330050 51007=
201511210152 METAR KATL 210152Z 02005KT 10SM BKN250 14/03 A3013 RMK AO2 SLP204 T01390033=
201511210052 METAR KATL 210052Z 36005KT 10SM BKN250 15/03 A3013 RMK AO2 SLP202 T01500033=
201511202352 METAR KATL 202352Z 35009KT 10SM BKN250 16/03 A3011 RMK AO2 SLP197 T01560028 10211 20150 51001=
201511202252 METAR KATL 202252Z 35008KT 10SM BKN250 17/02 A3011 RMK AO2 SLP196 T01720022=
201511202152 METAR KATL 202152Z 31005KT 10SM BKN250 18/03 A3011 RMK AO2 SLP196 T01830033=
201511202052 METAR KATL 202052Z 01005KT 10SM BKN250 21/02 A3011 RMK AO2 SLP193 T02060022 56017=
201511201952 METAR KATL 201952Z 36007KT 10SM BKN250 21/02 A3012 RMK AO2 SLP197 T02060022=
201511201852 METAR KATL 201852Z 05005KT 10SM BKN250 20/02 A3013 RMK AO2 SLP202 T02000017=
201511201752 METAR KATL 201752Z 35005KT 10SM BKN250 19/03 A3016 RMK AO2 SLP210 T01940033 10194 20078 58019=
201511201652 METAR KATL 201652Z COR 33006KT 10SM SCT250 18/03 A3019 RMK AO2 SLP222 T01830033=
201511201552 METAR KATL 201552Z 35005KT 10SM FEW250 15/04 A3022 RMK AO2 SLP233 T01500039=
201511201452 METAR KATL 201452Z 34006KT 10SM FEW250 13/05 A3022 RMK AO2 SLP232 T01280050 51009=
201511201352 METAR KATL 201352Z 34010KT 10SM CLR 10/04 A3021 RMK AO2 SLP232 T01000044=
201511201252 METAR KATL 201252Z 33011KT 10SM CLR 08/05 A3020 RMK AO2 SLP226 T00830050=
201511201152 METAR KATL 201152Z 33009KT 10SM CLR 08/05 A3019 RMK AO2 SLP223 T00780050 10106 20078 53006=
201511201052 METAR KATL 201052Z 32010KT 10SM CLR 08/06 A3018 RMK AO2 SLP219 T00830056=
201511200952 METAR KATL 200952Z 32007KT 10SM CLR 08/06 A3017 RMK AO2 SLP216 T00830061=
201511200852 METAR KATL 200852Z 33006KT 10SM CLR 09/06 A3017 RMK AO2 SLP214 T00890061 58002=
201511200752 METAR KATL 200752Z 32008KT 10SM CLR 09/06 A3018 RMK AO2 SLP217 T00940061=
201511200652 METAR KATL 200652Z 31009KT 10SM CLR 10/06 A3017 RMK AO2 SLP215 T01000061=
201511200552 METAR KATL 200552Z 32008KT 10SM CLR 11/06 A3017 RMK AO2 SLP216 T01060061 10150 20106 50006=
201511200452 METAR KATL 200452Z 31007KT 10SM CLR 11/06 A3018 RMK AO2 SLP217 T01060061 402110106=
201511200352 METAR KATL 200352Z 31006KT 10SM CLR 12/06 A3016 RMK AO2 SLP212 T01220061=
201511200252 METAR KATL 200252Z 33005KT 10SM CLR 13/06 A3016 RMK AO2 SLP210 T01280061 51014=
201511200152 METAR KATL 200152Z 32006KT 10SM CLR 13/06 A3015 RMK AO2 SLP210 T01280061=
201511200052 METAR KATL 200052Z 33007KT 10SM CLR 14/06 A3014 RMK AO2 SLP205 T01440061=
201511192352 METAR KATL 192352Z 32007KT 10SM CLR 15/06 A3011 RMK AO2 SLP195 T01500056 10211 20150 53014=
201511192252 METAR KATL 192252Z 32008KT 10SM CLR 17/05 A3010 RMK AO2 SLP190 T01670050=
201511192152 METAR KATL 192152Z 32011KT 10SM FEW200 19/05 A3008 RMK AO2 SLP182 T01890050=
201511192052 METAR KATL 192052Z 32012KT 10SM FEW200 21/06 A3007 RMK AO2 SLP178 T02060056 55007=
201511191952 METAR KATL 191952Z 34013KT 10SM FEW200 21/07 A3006 RMK AO2 SLP174 T02110067=
201511191852 METAR KATL 191852Z 32009KT 10SM FEW200 21/07 A3007 RMK AO2 SLP175 T02060072=
201511191752 METAR KATL 191752Z 32013KT 10SM FEW200 20/07 A3009 RMK AO2 SLP185 T02000072 10200 20128 58010=
201511191652 METAR KATL 191652Z 31012KT 10SM FEW200 19/08 A3011 RMK AO2 SLP189 T01890078=
201511191552 METAR KATL 191552Z 31008KT 10SM FEW200 17/09 A3012 RMK AO2 SLP195 T01720094=
201511191452 METAR KATL 191452Z 32009KT 10SM FEW200 16/10 A3012 RMK AO2 SLP197 T01610100 51028=
201511191352 METAR KATL 191352Z 33010KT 10SM FEW020 FEW055 FEW200 14/10 A3010 RMK AO2 SLP189 T01440100=
201511191252 METAR KATL 191252Z 31005KT 10SM FEW016 FEW055 SCT200 13/11 A3008 RMK AO2 SLP183 T01330106=
201511191152 METAR KATL 191152Z 31007KT 10SM FEW008 FEW014 FEW055 SCT200 14/12 A3004 RMK AO2 SLP168 70104 T01440122 10183 20139 53012=
201511191104 SPECI KATL 191104Z 33009KT 10SM FEW005 SCT012 SCT050 SCT200 16/14 A3003 RMK AO2 T01610144=
201511191052 METAR KATL 191052Z 32009KT 10SM SCT006 BKN012 BKN050 BKN200 17/15 A3002 RMK AO2 SLP162 T01670150=
201511191035 SPECI KATL 191035Z 30005KT 10SM SCT004 BKN014 BKN050 BKN200 16/15 A3002 RMK AO2 T01610150=
201511191011 SPECI KATL 191011Z 30004KT 10SM SCT004 BKN048 BKN200 17/16 A3001 RMK AO2 T01670156=
201511190952 METAR KATL 190952Z 30008KT 1 1/2SM BKN003 OVC008 17/16 A3000 RMK AO2 SFC VIS 8 SLP152 CIG 002V004 TWRINC T01720161=
201511190922 SPECI KATL 190922Z 29003KT 1 1/2SM BR OVC003 17/16 A2999 RMK AO2 SFC VIS 6 CIG 002V004 TWRINC T01720161=
201511190852 METAR KATL 190852Z 28005KT 9SM BKN004 OVC012 17/16 A3000 RMK AO2 SLP153 CIG 003V005 BINOVC T01720161 50004=
201511190825 SPECI KATL 190825Z 27005KT 10SM BKN008 BKN014 OVC055 18/16 A3000 RMK AO2 CIG 006V010 T01780161=
201511190807 SPECI KATL 190807Z 28005KT 10SM SCT005 SCT014 BKN060 BKN200 18/16 A3000 RMK AO2 T01780161=
201511190755 SPECI KATL 190755Z 27006KT 10SM BKN005 BKN014 BKN060 BKN200 18/17 A3001 RMK AO2 CIG 004V007 T01780167=
201511190752 METAR KATL 190752Z 27006KT 10SM SCT005 BKN014 BKN060 BKN200 18/16 A3001 RMK AO2 SLP155 T01780161=
201511190725 SPECI KATL 190725Z 27007KT 10SM SCT006 BKN014 BKN060 BKN200 18/17 A3001 RMK AO2 T01830167=
201511190652 METAR KATL 190652Z 27007KT 10SM OVC006 18/17 A3000 RMK AO2 SLP153 CIG 004V008 T01830167=
201511190601 SPECI KATL 190601Z 27004KT 10SM BKN008 BKN018 BKN055 OVC130 18/17 A2999 RMK AO2 CIG 006V010 T01780167=
201511190552 METAR KATL 190552Z 25004KT 10SM FEW005 SCT030 SCT060 BKN200 18/17 A2999 RMK AO2 RAE50 SLP149 P0001 60033 T01780167 10183 20178 53002=
201511190518 SPECI KATL 190518Z 21005KT 9SM -RA FEW005 SCT012 OVC035 18/17 A2999 RMK AO2 P0001 T01830167=
201511190452 METAR KATL 190452Z 22004KT 3SM -RA BR OVC005 18/17 A2999 RMK AO2 RAB22 SLP150 CIG 003V008 P0002 T01780167 402170133=
201511190429 SPECI KATL 190429Z 18006KT 2 1/2SM -RA BR OVC006 18/17 A2999 RMK AO2 RAB22 CIG 004V008 P0001 T01780167=
201511190352 METAR KATL 190352Z 18007KT 10SM BKN008 OVC020 18/17 A2998 RMK AO2 RAB25E45 SLP147 CIG 005V010 P0000 T01780167=
201511190252 METAR KATL 190252Z 17009G17KT 10SM BKN008 OVC100 18/17 A2998 RMK AO2 RAE17 SLP150 CIG 005V010 P0001 60030 T01780167 53005=
201511190152 METAR KATL 190152Z 16009KT 7SM -RA SCT005 BKN010 OVC100 18/17 A2996 RMK AO2 SLP142 P0005 T01780167=
201511190052 METAR KATL 190052Z 11009KT 7SM -RA SCT005 BKN010 OVC080 18/17 A2994 RMK AO2 SLP133 P0024 T01780167=
201511190019 SPECI KATL 190019Z 13006KT 3SM RA BR SCT006 BKN012 OVC080 18/17 A2996 RMK AO2 P0012 T01780167=
201511182352 METAR KATL 182352Z 14006KT 4SM RA BR FEW008 BKN070 OVC110 18/17 A2997 RMK AO2 SLP146 P0010 60061 T01780167 10217 20178 53008=
201511182252 METAR KATL 182252Z 14004KT 6SM -RA BR FEW008 BKN050 OVC090 18/17 A2995 RMK AO2 PK WND 23031/2213 TSB17E48 SLP139 OCNL LTG DSNT NE-SE P0047 T01830167=
201511182248 SPECI KATL 182248Z 15006KT 4SM RA BR FEW008 BKN040 OVC080 18/17 A2995 RMK AO2 PK WND 23031/2213 TSB17E48 TS DSIPTD P0047=
201511182226 SPECI KATL 182226Z 20010G20KT 2 1/2SM TSRA BR SCT012CB BKN025 OVC060 19/17 A2998 RMK AO2 PK WND 23031/2213 SFC VIS 3 TSB17 VIS LWR N-E-SE OCNL LTGIC N-E-SE TS N-E-SE MOV NE P0030 T01890167=
201511182217 SPECI KATL 182217Z 21014G31KT 1/8SM R09R/2800VP6000FT +TSRA BR BKN012CB BKN035 OVC060 19/18 A2997 RMK AO2 PK WND 23031/2213 SFC VIS 3/4 TSB17 PRESRR OCNL LTGIC S-OHD-NW TS S-OHD-NW MOV NE P0005 T01940178=
201511182152 METAR KATL 182152Z 11008KT 3SM -RA BR BKN015CB BKN030 OVC065 21/19 A2994 RMK AO2 RAB19 SLP133 CB OHD-SW-NW MOV NE P0004 T02110194=
201511182136 SPECI KATL 182136Z 12009KT 3SM RA BR BKN015CB BKN020 OVC060 21/19 A2994 RMK AO2 SFC VIS 4 RAB19 CB OHD-SW-NW MOV NE P0002 T02110189=
201511182129 SPECI KATL 182129Z 13008KT 5SM -RA BKN017CB BKN025 OVC043 22/19 A2994 RMK AO2 RAB19 CB OHD-SW-NW MOV NE P0001 T02170189=
201511182105 SPECI KATL 182105Z 14006KT 10SM BKN015 BKN020 OVC050 22/19 A2994 RMK AO2 T02170189=
201511182052 METAR KATL 182052Z 13007KT 10SM BKN012 BKN020 OVC050 22/19 A2994 RMK AO2 SLP136 T02170189 55013=
201511182037 SPECI KATL 182037Z 14007KT 10SM BKN012 BKN020 OVC050 22/19 A2994 RMK AO2 T02170189=
201511181952 METAR KATL 181952Z 13010KT 10SM FEW015 BKN025 OVC050 22/19 A2994 RMK AO2 SLP133 T02170189=
201511181934 SPECI KATL 181934Z 14011G19KT 10SM SCT010 BKN020 OVC050 22/19 A2995 RMK AO2 T02170189=
201511181852 METAR KATL 181852Z 15012G23KT 9SM BKN010 BKN020 OVC030 21/19 A2995 RMK AO2 SLP138 T02110189=
201511181752 METAR KATL 181752Z 15013G23KT 7SM BKN010 BKN015 OVC020 21/18 A2998 RMK AO2 RAE16 SLP148 P0003 60010 T02060183 10206 20133 56013=
201511181749 SPECI KATL 181749Z 14011G23KT 7SM BKN010 BKN015 OVC020 21/18 A2999 RMK AO2 RAE16 P0003=
201511181717 SPECI KATL 181717Z 13009KT 1 1/2SM BR BKN005 OVC010 19/18 A3000 RMK AO2 SFC VIS 5 RAE16 P0003 T01890178=
201511181652 METAR KATL 181652Z 15009KT 1/2SM R09R/P6000FT -RA BR OVC004 18/17 A3001 RMK AO2 SFC VIS 2 1/2 SLP156 P0002 T01780167=
201511181552 METAR KATL 181552Z 12011G17KT 1/2SM R09R/P6000FT -RA BR OVC004 17/16 A3002 RMK AO2 SFC VIS 3 SLP163 P0001 T01670156=
201511181452 METAR KATL 181452Z 10011KT 1/2SM R09R/P6000FT -RA BR OVC004 15/14 A3005 RMK AO2 SFC VIS 3 RAE01B48DZB01E48 SLP171 P0002 60004 T01500139 56001=
201511181352 METAR KATL 181352Z 12009G15KT 1/2SM R09R/P6000FT -RA BR OVC003 14/13 A3005 RMK AO2 SFC VIS 2 1/2 DZE23RAB23 SLP175 TWRINC P0002 T01390128=
201511181252 METAR KATL 181252Z 10010KT 1/2SM R09R/P6000FT -DZ BR OVC003 14/12 A3004 RMK AO2 SFC VIS 4 RAE09B31E51DZB09E31B51 SLP170 TWRINC P0000 T01390122=
201511181223 SPECI KATL 181223Z 11011KT 1/2SM R09R/P6000FT -DZ BR OVC003 13/12 A3004 RMK AO2 SFC VIS 2 1/2 RAE09DZB09 TWRINC P0000 T01330122=
201511181152 METAR KATL 181152Z 11011G20KT 1 1/2SM -RA BR OVC004 13/12 A3005 RMK AO2 SFC VIS 2 1/2 DZE34RAB34 SLP173 P0000 60000 T01330122 10156 20133 56014=
201511181052 METAR KATL 181052Z 11010KT 1 1/2SM -DZ BR OVC003 13/12 A3006 RMK AO2 SFC VIS 4 SLP177 P0000 T01330122=
201511180952 METAR KATL 180952Z 10012KT 1 1/2SM -DZ BR OVC004 14/12 A3006 RMK AO2 SFC VIS 4 SLP175 CIG 003V005 TWRINC P0000 T01390122=
201511180948 SPECI KATL 180948Z 10012KT 1 1/2SM -DZ BR OVC004 14/12 A3005 RMK AO2 SFC VIS 4 CIG 003V005 TWRINC P0000=
201511180852 METAR KATL 180852Z 10012KT 4SM -DZ BR OVC005 14/13 A3009 RMK AO2 SLP186 RAB32E44 CIG 004V007 P0000 60000 T01390128 56011=
201511180826 SPECI KATL 180826Z 10010KT 6SM -DZ BR OVC005 14/13 A3011 RMK AO2 CIG 004V007 P0000 T01440128=
201511180801 SPECI KATL 180801Z 10010KT 1/2SM R09R/P6000FT -DZ BR OVC004 14/13 A3010 RMK AO2 SFC VIS 4 CIG 003V005 TWRINC P0000 T01440128=
201511180752 METAR KATL 180752Z 10014G17KT 4SM -DZ BR OVC004 14/13 A3009 RMK AO2 SLP187 P0000 T01440128=
201511180748 SPECI KATL 180748Z 11009G17KT 4SM -DZ BR OVC004 14/13 A3009 RMK AO2 P0000=
201511180730 SPECI KATL 180730Z 10013KT 2 1/2SM -DZ BR OVC004 14/13 A3010 RMK AO2 P0000 T01440128=
201511180719 SPECI KATL 180719Z 10009G19KT 2 1/2SM -DZ BR OVC005 14/13 A3010 RMK AO2 CIG 004V006 P0000 T01440128=
201511180652 METAR KATL 180652Z 10012KT 4SM -DZ BR OVC005 14/13 A3011 RMK AO2 RAB30E39 SLP191 P0000 T01440128=
201511180620 SPECI KATL 180620Z 10011KT 7SM -DZ OVC007 14/13 A3012 RMK AO2 P0000 T01440128=
201511180552 METAR KATL 180552Z 10013G19KT 7SM -DZ OVC013 16/12 A3012 RMK AO2 DZB52 SLP197 P0000 60000 T01560117 10172 20156 56009=
201511180452 METAR KATL 180452Z 11014G19KT 10SM OVC018 16/12 A3012 RMK AO2 SLP197 T01610117 402110117=
201511180352 METAR KATL 180352Z 11014G22KT 10SM OVC018 16/12 A3013 RMK AO2 SLP200 T01610117=
201511180252 METAR KATL 180252Z 10011KT 10SM OVC020 17/11 A3015 RMK AO2 SLP207 T01670111 50006=
201511180152 METAR KATL 180152Z 10012G20KT 10SM BKN022 OVC040 17/11 A3016 RMK AO2 SLP210 T01720111=
201511180052 METAR KATL 180052Z 10011KT 10SM BKN026 OVC040 17/11 A3015 RMK AO2 SLP209 T01720111=
201511172352 METAR KATL 172352Z 10016G22KT 10SM BKN022 OVC040 17/12 A3013 RMK AO2 SLP202 T01720117 10211 20172 53011=
201511172252 METAR KATL 172252Z 10016G22KT 10SM BKN025 BKN040 OVC150 18/12 A3011 RMK AO2 SLP195 T01780117=
201511172240 SPECI KATL 172240Z 10011G19KT 10SM BKN025 BKN040 OVC150 18/12 A3011 RMK AO2 T01830117=
201511172152 METAR KATL 172152Z 11016G22KT 10SM FEW030 BKN040 OVC150 19/12 A3010 RMK AO2 SLP191 T01940122=
201511172052 METAR KATL 172052Z 11015G21KT 10SM FEW035 BKN150 BKN220 21/12 A3010 RMK AO2 SLP189 VIRGA NE-SE T02060122 58013=
201511171952 METAR KATL 171952Z 13011G20KT 10SM FEW035 BKN150 BKN240 21/12 A3013 RMK AO2 SLP198 T02110122=
201511171852 METAR KATL 171852Z 13013G18KT 10SM FEW035 SCT150 BKN250 21/12 A3013 RMK AO2 SLP201 T02110122=
201511171752 METAR KATL 171752Z 10013G20KT 10SM FEW030 BKN150 BKN250 20/12 A3014 RMK AO2 SLP203 T02000122 10200 20128 58022=
201511171652 METAR KATL 171652Z 12015KT 10SM FEW025 BKN150 BKN240 19/13 A3018 RMK AO2 SLP217 T01940128=
201511171552 METAR KATL 171552Z COR 11012G18KT 10SM FEW016 SCT150 BKN250 18/12 A3020 RMK AO2 SLP225 T01830122=
201511171452 METAR KATL 171452Z 11009KT 10SM FEW020 FEW100 BKN150 BKN250 16/11 A3021 RMK AO2 SLP226 VIRGA DSNT NW-N T01610111 50004=
201511171352 METAR KATL 171352Z 09010KT 10SM FEW032 BKN180 BKN250 14/10 A3021 RMK AO2 SLP229 VIRGA E-SE T01390100=
201511171252 METAR KATL 171252Z 10011KT 10SM FEW029 BKN180 BKN220 13/10 A3019 RMK AO2 SLP222 T01280100=
201511171152 METAR KATL 171152Z 10008KT 10SM FEW012 SCT034 SCT150 BKN220 13/10 A3019 RMK AO2 SLP222 T01330100 10133 20117 53004=
201511171119 SPECI KATL 171119Z 10007KT 10SM FEW012 SCT026 BKN034 OVC150 13/10 A3019 RMK AO2 T01330100=
201511171052 METAR KATL 171052Z 10005KT 10SM FEW012 BKN025 OVC150 13/10 A3019 RMK AO2 SLP221 T01330100=
201511170952 METAR KATL 170952Z 09009KT 10SM BKN021 BKN030 13/09 A3017 RMK AO2 SLP215 T01280094=
201511170852 METAR KATL 170852Z 09007KT 10SM BKN020 BKN031 BKN200 12/09 A3018 RMK AO2 SLP218 T01220094 58007=
201511170752 METAR KATL 170752Z 09009KT 10SM BKN018 BKN031 12/09 A3020 RMK AO2 SLP222 T01220089=
201511170734 SPECI KATL 170734Z 08007KT 10SM BKN016 BKN031 12/09 A3020 RMK AO2 T01220089=
201511170652 METAR KATL 170652Z 08007KT 10SM BKN031 BKN200 12/08 A3020 RMK AO2 SLP226 T01220083=
201511170552 METAR KATL 170552Z 10007KT 10SM SCT200 12/08 A3020 RMK AO2 SLP225 T01220083 10150 20117 58010=
201511170452 METAR KATL 170452Z 11005KT 10SM FEW150 SCT250 13/08 A3022 RMK AO2 SLP230 T01280083 401940061=
201511170352 METAR KATL 170352Z 09008KT 10SM BKN250 12/08 A3022 RMK AO2 SLP233 T01220083=
201511170252 METAR KATL 170252Z 09008KT 10SM BKN250 13/08 A3023 RMK AO2 SLP237 T01280083 50005=
201511170152 METAR KATL 170152Z 09009KT 10SM FEW200 BKN250 14/09 A3023 RMK AO2 SLP239 T01390089=
201511170052 METAR KATL 170052Z 09010KT 10SM FEW200 BKN250 14/09 A3022 RMK AO2 SLP235 T01440094=
201511162352 METAR KATL 162352Z 09009KT 10SM FEW200 BKN250 15/10 A3022 RMK AO2 SLP233 T01500100 10194 20150 50001=
201511162252 METAR KATL 162252Z 10007KT 10SM SCT200 BKN250 16/10 A3022 RMK AO2 SLP234 T01610100=
201511162152 METAR KATL 162152Z 10006KT 10SM FEW035 SCT200 BKN250 18/11 A3022 RMK AO2 SLP233 T01830106=
201511162052 METAR KATL 162052Z 11005KT 10SM FEW033 SCT200 BKN250 19/11 A3021 RMK AO2 SLP231 T01890106 56020=
201511161952 METAR KATL 161952Z 12006KT 10SM FEW030 SCT200 BKN250 19/11 A3023 RMK AO2 SLP234 T01940106=
201511161852 METAR KATL 161852Z VRB04KT 10SM FEW027 SCT200 BKN250 18/09 A3024 RMK AO2 SLP241 T01830094=
201511161752 METAR KATL 161752Z 13005KT 10SM FEW020 SCT030 BKN200 17/08 A3027 RMK AO2 SLP252 T01720083 10172 20061 58020=
201511161710 SPECI KATL 161710Z 14006KT 10SM SCT020 BKN030 BKN250 17/07 A3030 RMK AO2 T01670072=
201511161652 METAR KATL 161652Z 13006KT 10SM BKN019 BKN200 BKN250 17/07 A3031 RMK AO2 SLP263 T01720067=
201511161552 METAR KATL 161552Z 12006KT 10SM FEW040 FEW200 SCT250 14/03 A3033 RMK AO2 SLP270 T01440033=
201511161452 METAR KATL 161452Z VRB05KT 10SM FEW040 SCT200 BKN250 11/02 A3033 RMK AO2 SLP274 T01110017 50009=
201511161352 METAR KATL 161352Z 09008KT 10SM FEW039 FEW150 BKN250 09/01 A3034 RMK AO2 SLP276 VIRGA NW T00940011=
201511161252 METAR KATL 161252Z 06007KT 10SM FEW039 SCT150 BKN250 08/01 A3033 RMK AO2 SLP272 T00780011=
201511161152 METAR KATL 161152Z 09007KT 10SM FEW035 FEW150 BKN250 06/01 A3031 RMK AO2 SLP265 T00610011 10078 20061 57001=
201511161052 METAR KATL 161052Z 06007KT 10SM FEW035 FEW150 BKN250 07/01 A3031 RMK AO2 SLP268 T00720006=
201511160952 METAR KATL 160952Z 08006KT 10SM BKN250 06/01 A3030 RMK AO2 SLP262 T00610011=
201511160852 METAR KATL 160852Z 07004KT 10SM FEW150 SCT250 07/01 A3031 RMK AO2 SLP264 T00720006 58004=
201511160752 METAR KATL 160752Z 07006KT 10SM FEW150 SCT250 07/01 A3032 RMK AO2 SLP270 T00720011=
201511160652 METAR KATL 160652Z 08004KT 10SM SCT250 08/01 A3033 RMK AO2 SLP272 T00780011=
201511160552 METAR KATL 160552Z 09006KT 10SM FEW250 07/01 A3032 RMK AO2 SLP269 T00720011 10122 20067 57012=
201511160452 METAR KATL 160452Z 09005KT 10SM FEW150 SCT200 SCT250 07/01 A3034 RMK AO2 SLP275 T00720011 401500033=
201511160352 METAR KATL 160352Z 11005KT 10SM FEW140 BKN200 BKN250 09/01 A3034 RMK AO2 SLP274 T00890011=
201511160252 METAR KATL 160252Z 10005KT 10SM FEW140 SCT200 BKN250 09/01 A3036 RMK AO2 SLP282 T00890011 53002=
201511160152 METAR KATL 160152Z 10003KT 10SM SCT140 BKN200 BKN250 11/01 A3035 RMK AO2 SLP281 T01060006=
201511160052 METAR KATL 160052Z 10005KT 10SM SCT150 BKN200 BKN250 12/00 A3035 RMK AO2 SLP281 T01170000=
201511152352 METAR KATL 152352Z 09007KT 10SM BKN150 BKN200 OVC250 12/01 A3035 RMK AO2 SLP281 T01220006 10150 20122 50001=
201511152252 METAR KATL 152252Z 09006KT 10SM BKN150 BKN200 OVC250 12/01 A3036 RMK AO2 SLP283 T01220006=
201511152152 METAR KATL 152152Z 09006KT 10SM FEW120 BKN150 BKN250 13/00 A3035 RMK AO2 SLP281 VIRGA E ACC E-SE T01330000=
201511152052 METAR KATL 152052Z 11007KT 10SM BKN150 OVC250 14/M01 A3035 RMK AO2 SLP280 T01441011 56012=
201511151952 METAR KATL 151952Z 10006KT 10SM BKN180 OVC250 14/M02 A3037 RMK AO2 SLP286 VIRGA N-E & W-N T01441017=
201511151852 METAR KATL 151852Z 12007KT 10SM BKN200 OVC250 14/M03 A3036 RMK AO2 SLP284 T01441033=
201511151752 METAR KATL 151752Z 10006KT 10SM FEW150 BKN200 OVC250 14/M01 A3039 RMK AO2 SLP292 VIRGA OHD BINOVC T01391011 10139 20044 58025=
201511151652 METAR KATL 151652Z 10005KT 10SM FEW150 BKN200 OVC250 14/M01 A3043 RMK AO2 SLP307 BINOVC T01391006=
201511151552 METAR KATL 151552Z 11007KT 10SM FEW200 BKN250 12/M01 A3045 RMK AO2 SLP314 T01171006=
201511151452 METAR KATL 151452Z 06008KT 10SM FEW200 OVC250 11/M01 A3046 RMK AO2 SLP318 BINOVC T01061006 51010=
201511151352 METAR KATL 151352Z 07007KT 10SM FEW180 SCT220 BKN250 09/M01 A3045 RMK AO2 SLP316 T00941011=
201511151252 METAR KATL 151252Z 06004KT 10SM FEW150 SCT200 BKN250 06/M02 A3044 RMK AO2 SLP312 T00611017=
201511151152 METAR KATL 151152Z 00000KT 10SM SCT200 BKN250 04/M02 A3043 RMK AO2 SLP308 T00441017 10061 20033 53018=
201511151052 METAR KATL 151052Z 05004KT 10SM FEW200 SCT250 05/M02 A3040 RMK AO2 SLP296 T00501017=
201511150952 METAR KATL 150952Z 05003KT 10SM SCT250 05/M01 A3039 RMK AO2 SLP291 T00501011=
201511150852 METAR KATL 150852Z 00000KT 10SM SCT250 04/M01 A3037 RMK AO2 SLP288 T00391011 58000=
201511150752 METAR KATL 150752Z 07003KT 10SM FEW250 05/M01 A3039 RMK AO2 SLP291 T00501011=
201511150652 METAR KATL 150652Z 00000KT 10SM FEW250 04/M01 A3038 RMK AO2 SLP289 T00391006=
201511150552 METAR KATL 150552Z 00000KT 10SM FEW250 06/M01 A3038 RMK AO2 SLP288 T00561011 10122 20050 50005=
201511150452 METAR KATL 150452Z 00000KT 10SM FEW200 SCT250 07/M02 A3038 RMK AO2 SLP289 T00671022 401720039=
201511150352 METAR KATL 150352Z 32003KT 10SM SCT200 BKN250 07/M02 A3037 RMK AO2 SLP286 T00721017=
201511150252 METAR KATL 150252Z 32004KT 10SM SCT200 BKN250 09/M03 A3036 RMK AO2 SLP284 T00941028 51005=
201511150152 METAR KATL 150152Z 25003KT 10SM SCT200 BKN250 08/M02 A3036 RMK AO2 SLP285 T00781017=
201511150052 METAR KATL 150052Z 34004KT 10SM SCT200 SCT250 11/M05 A3035 RMK AO2 SLP282 T01111050=
201511142352 METAR KATL 142352Z 34008KT 10SM SCT200 SCT250 12/M05 A3035 RMK AO2 SLP280 T01171050 10172 20117 53008=
201511142252 METAR KATL 142252Z 34006KT 10SM FEW200 SCT250 13/M06 A3034 RMK AO2 SLP277 T01331056=
201511142152 METAR KATL 142152Z 34007KT 10SM FEW250 16/M07 A3033 RMK AO2 SLP272 T01561067=
201511142052 METAR KATL 142052Z 01008KT 10SM FEW250 16/M07 A3032 RMK AO2 SLP269 T01611067 56008=
201511141952 METAR KATL 141952Z VRB05KT 10SM FEW250 17/M06 A3033 RMK AO2 SLP272 T01671056=
201511141852 METAR KATL 141852Z 31010KT 10SM FEW250 17/M08 A3034 RMK AO2 SLP274 T01671083=
201511141752 METAR KATL 141752Z 35009KT 10SM FEW250 16/M08 A3035 RMK AO2 SLP278 T01561083 10161 20039 58010=
201511141652 METAR KATL 141652Z 02010KT 10SM FEW250 15/M11 A3038 RMK AO2 SLP290 T01501106=
201511141552 METAR KATL 141552Z 32010KT 10SM FEW250 13/M06 A3038 RMK AO2 SLP289 T01331056=
201511141452 METAR KATL 141452Z 33012KT 10SM FEW250 11/M05 A3038 RMK AO2 SLP289 T01061050 51023=
201511141352 METAR KATL 141352Z 33010KT 10SM FEW250 08/M04 A3036 RMK AO2 SLP283 T00781044=
201511141252 METAR KATL 141252Z 33012KT 10SM FEW250 05/M05 A3034 RMK AO2 SLP277 T00501050=
201511141152 METAR KATL 141152Z 34010KT 10SM FEW250 04/M05 A3031 RMK AO2 SLP267 T00441050 10067 20039 53014=
201511141052 METAR KATL 141052Z 34009KT 10SM FEW250 04/M05 A3029 RMK AO2 SLP259 T00441050=
201511140952 METAR KATL 140952Z 33006KT 10SM FEW250 04/M05 A3028 RMK AO2 SLP255 T00391050=
201511140852 METAR KATL 140852Z 33008KT 10SM FEW250 05/M05 A3026 RMK AO2 SLP249 T00501050 50005=
201511140752 METAR KATL 140752Z 34008KT 10SM FEW250 06/M05 A3027 RMK AO2 SLP250 T00611050=
201511140652 METAR KATL 140652Z 34008KT 10SM FEW250 06/M05 A3026 RMK AO2 SLP247 T00611050=
201511140552 METAR KATL 140552Z 31007KT 10SM FEW250 06/M04 A3025 RMK AO2 SLP244 T00611044 10111 20061 51006=
201511140452 METAR KATL 140452Z 31008KT 10SM SCT250 06/M03 A3025 RMK AO2 SLP244 T00611033 401670061=
201511140352 METAR KATL 140352Z 30007KT 10SM FEW250 07/M03 A3024 RMK AO2 SLP243 T00721033=
201511140252 METAR KATL 140252Z 31005KT 10SM FEW250 08/M03 A3023 RMK AO2 SLP237 T00831033 51017=
201511140152 METAR KATL 140152Z 31005KT 10SM FEW250 09/M03 A3021 RMK AO2 SLP233 T00941028=
201511140052 METAR KATL 140052Z 32006KT 10SM FEW250 11/M03 A3020 RMK AO2 SLP226 T01061033=
201511132352 METAR KATL 132352Z 32006KT 10SM FEW250 11/M03 A3018 RMK AO2 SLP221 T01111028 10167 20111 53013=
201511132252 METAR KATL 132252Z 32006KT 10SM FEW150 SCT250 13/M04 A3015 RMK AO2 SLP211 T01281039=
201511132152 SPECI KATL 132152Z 32013KT 10SM SCT250 15/M04 A3015 RMK AO2 PK WND 32027/2055 SLP209 T01501039=
201511132152 METAR KATL 132152Z 32013KT 10SM SCT250 15/M04 A3015 RMK AO2 PK WND 32027/2055 SLP209 T01501039=
201511132052 METAR KATL 132052Z 33014G20KT 10SM BKN250 16/M03 A3014 RMK AO2 SLP204 T01611028 55006=
201511131952 METAR KATL 131952Z 34018G22KT 10SM BKN250 17/M03 A3013 RMK AO2 SLP203 T01671028=
201511131852 METAR KATL 131852Z 32015G25KT 10SM BKN250 17/M03 A3014 RMK AO2 PK WND 32026/1813 SLP205 T01671028=
201511131752 METAR KATL 131752Z 32012G22KT 10SM BKN250 16/M03 A3016 RMK AO2 SLP211 T01611033 10161 20089 58001=
201511131652 METAR KATL 131652Z 33015G25KT 10SM BKN250 15/M03 A3017 RMK AO2 PK WND 35026/1559 SLP215 T01501028 $=
201511131552 METAR KATL 131552Z 34019G25KT 10SM BKN250 14/M02 A3018 RMK AO2 SLP218 T01391017 $=
201511131452 METAR KATL 131452Z 34012G28KT 10SM BKN250 13/02 A3016 RMK AO2 PK WND 34028/1447 SLP213 T01280017 51019=
201511131352 METAR KATL 131352Z 34015KT 10SM FEW200 SCT250 11/03 A3015 RMK AO2 PK WND 33026/1323 SLP208 T01110028=
201511131252 METAR KATL 131252Z 34014G22KT 10SM SCT200 SCT250 10/03 A3012 RMK AO2 SLP201 T01000033=
201511131152 METAR KATL 131152Z 33013KT 10SM FEW200 SCT250 09/03 A3010 RMK AO2 SLP193 70001 T00890033 10106 20089 51004 $=
201511131052 METAR KATL 131052Z 33011KT 10SM FEW200 SCT250 09/03 A3010 RMK AO2 SLP191 T00940033 $=
201511130952 METAR KATL 130952Z 33009G21KT 10SM FEW200 SCT250 10/03 A3010 RMK AO2 SLP189 T01000033 $=
201511130852 METAR KATL 130852Z 32010KT 10SM FEW200 SCT250 10/03 A3009 RMK AO2 SLP187 T01000033 51008 $=
201511130752 METAR KATL 130752Z 32010KT 10SM FEW200 SCT250 10/03 A3008 RMK AO2 SLP184 T01000033 $=
201511130652 METAR KATL 130652Z 32008KT 10SM BKN250 10/04 A3008 RMK AO2 SLP183 T01000039 $=
201511130552 METAR KATL 130552Z 30008KT 10SM BKN250 11/04 A3006 RMK AO2 SLP179 T01060039 10156 20100 52006 $=
201511130452 METAR KATL 130452Z 27005KT 10SM BKN250 11/05 A3006 RMK AO2 SLP176 T01110050 402170111 $=
201511130352 METAR KATL 130352Z 28006KT 10SM BKN250 12/06 A3005 RMK AO2 SLP175 T01220056 $=
201511130252 METAR KATL 130252Z 30006KT 10SM BKN250 13/07 A3005 RMK AO2 SLP172 T01280067 51016 $=
201511130152 METAR KATL 130152Z 29009KT 10SM SCT250 14/09 A3003 RMK AO2 SLP166 T01390089 $=
201511130052 METAR KATL 130052Z 28005KT 10SM BKN250 15/09 A3002 RMK AO2 SLP163 T01500089 $=
201511122352 METAR KATL 122352Z 27005KT 10SM SCT250 16/10 A3000 RMK AO2 SLP155 T01560100 10217 20156 53011 $=
201511122252 METAR KATL 122252Z 27006KT 10SM FEW200 SCT250 17/11 A2998 RMK AO2 SLP148 T01720111=
201511122152 METAR KATL 122152Z 26007KT 10SM FEW250 20/11 A2997 RMK AO2 SLP142 T02000111=
201511122052 METAR KATL 122052Z 27010KT 10SM FEW250 21/11 A2996 RMK AO2 SLP142 T02110111 56011=
201511121952 METAR KATL 121952Z 27011KT 10SM FEW110 SCT250 21/11 A2997 RMK AO2 SLP144 T02060111=
201511121852 METAR KATL 121852Z 28014KT 10SM FEW030 FEW085 SCT110 SCT250 19/11 A2998 RMK AO2 SLP149 T01940106=
201511121752 METAR KATL 121752Z 27015G20KT 10SM FEW025 BKN085 BKN250 18/13 A3000 RMK AO2 SLP155 VIRGA DSNT NE & W 60001 T01830128 10189 20167 58006=
201511121743 SPECI KATL 121743Z 25011G20KT 10SM FEW025 SCT045 BKN085 BKN250 19/13 A3000 RMK AO2 T01890133=
201511121714 SPECI KATL 121714Z 27014G20KT 10SM BKN024 BKN050 OVC070 18/13 A3000 RMK AO2 T01830133=
201511121652 METAR KATL 121652Z 26012G18KT 10SM FEW025 BKN045 BKN065 18/13 A3000 RMK AO2 SLP158 T01830128=
201511121552 METAR KATL 121552Z 27010KT 220V280 10SM BKN030 OVC040 18/14 A3002 RMK AO2 DZE07RAB07E21 SLP164 P0000 T01830144=
201511121513 SPECI KATL 121513Z 29016G22KT 10SM -RA FEW006 SCT008 OVC016 18/16 A3003 RMK AO2 DZE07RAB07 P0000 T01780161=
201511121509 SPECI KATL 121509Z 28017G22KT 7SM -RA FEW006 BKN008 OVC016 18/17 A3003 RMK AO2 DZE07RAB07 P0000 T01830167=
201511121452 METAR KATL 121452Z 27009KT 6SM -DZ BR FEW006 BKN008 OVC010 18/17 A3002 RMK AO2 SLP161 CIG 004V007 P0001 60001 T01830167 53014=
201511121446 SPECI KATL 121446Z 26010KT 6SM -DZ BR FEW006 BKN008 OVC012 18/17 A3001 RMK AO2 CIG 004V007 P0001=
201511121355 SPECI KATL 121355Z 24009KT 3SM -DZ BR OVC005 18/16 A3000 RMK AO2 CIG 004V007 P0000 T01780161 $=
201511121352 METAR KATL 121352Z 24009G17KT 2SM -DZ BR OVC005 18/16 A3000 RMK AO2 SLP154 CIG 004V007 P0000 T01780161 $=
201511121318 SPECI KATL 121318Z 2SM -DZ BR OVC006 17/16 A2999 RMK AO2 CIG 005V007 P0000 T01720161 $=
201511121255 SPECI KATL 121255Z 24012KT 3SM -DZ BR OVC006 18/16 A2998 RMK AO2 CIG 005V007 P0000 T01780156=
201511121252 METAR KATL 121252Z 23011KT 4SM -DZ BR OVC006 17/16 A2998 RMK AO2 DZB43 SLP148 CIG 005V007 P0000 T01720156=
201511121152 METAR KATL 121152Z 24011G15KT 7SM OVC006 17/15 A2997 RMK AO2 SLP146 CIG 005V007 T01670150 10167 20122 53004=
201511121052 METAR KATL 121052Z 24009KT 8SM OVC006 16/14 A2997 RMK AO2 SLP143 CIG 005V008 T01610144=
201511120952 METAR KATL 120952Z 24012KT 8SM OVC006 16/14 A2997 RMK AO2 SLP142 CIG 005V007 T01610144=
201511120937 SPECI KATL 120937Z 23008G17KT 7SM OVC005 16/14 A2996 RMK AO2 CIG 004V006 T01560144=
201511120852 METAR KATL 120852Z 22012G20KT 1/2SM R09R/P6000FT BR OVC002 14/13 A2996 RMK AO2 SFC VIS 1 1/2 SLP140 TWRINC T01440133 58009=
201511120830 SPECI KATL 120830Z 22013KT 1/2SM R09R/P6000FT BR OVC003 14/12 A2997 RMK AO2 SFC VIS 4 CIG 002V004 TWRINC T01390122=
201511120823 SPECI KATL 120823Z 23011KT 6SM BR OVC004 14/12 A2997 RMK AO2 T01390122=
201511120752 METAR KATL 120752Z 23008KT 10SM BKN007 BKN250 13/11 A2998 RMK AO2 SLP147 CIG 006V008 T01330111=
201511120749 SPECI KATL 120749Z 24008KT 10SM SCT007 BKN250 13/11 A2998 RMK AO2=
201511120652 METAR KATL 120652Z 23005KT 10SM SCT250 13/11 A2999 RMK AO2 SLP150 T01280106=
201511120552 METAR KATL 120552Z 23005KT 10SM SCT250 13/11 A3000 RMK AO2 SLP153 T01280106 10172 20128 50003=
201511120452 METAR KATL 120452Z 24007KT 10SM BKN250 13/11 A3000 RMK AO2 SLP155 T01280106 402330089=
201511120352 METAR KATL 120352Z 22005KT 10SM BKN250 13/10 A3000 RMK AO2 SLP155 T01280100=
201511120252 METAR KATL 120252Z 21004KT 10SM BKN250 14/10 A2999 RMK AO2 SLP153 T01390100 58001=
201511120152 METAR KATL 120152Z 19004KT 10SM BKN250 14/10 A2999 RMK AO2 SLP153 T01440100=
201511120052 METAR KATL 120052Z 22004KT 10SM BKN250 16/09 A3000 RMK AO2 SLP157 T01560094=
201511112352 METAR KATL 112352Z 21003KT 10SM BKN250 17/09 A2999 RMK AO2 SLP155 T01720094 10233 20172 58002=
201511112252 METAR KATL 112252Z 17005KT 10SM BKN250 19/08 A2999 RMK AO2 SLP154 T01940083=
201511112152 METAR KATL 112152Z COR 20004KT 10SM BKN250 22/07 A3000 RMK AO2 SLP156 T02170072=
201511112052 METAR KATL 112052Z 21005KT 10SM FEW250 23/07 A3000 RMK AO2 SLP155 T02280067 56017=
201511111952 METAR KATL 111952Z 20004KT 10SM FEW250 23/07 A3000 RMK AO2 SLP156 T02330067=
201511111852 METAR KATL 111852Z 00000KT 10SM FEW250 23/07 A3002 RMK AO2 SLP163 T02280067=
201511111752 METAR KATL 111752Z VRB03KT 10SM FEW250 22/07 A3005 RMK AO2 SLP172 T02220072 10228 20094 58019=
201511111652 METAR KATL 111652Z 00000KT 10SM FEW250 21/08 A3008 RMK AO2 SLP183 T02110078=
201511111552 METAR KATL 111552Z VRB05KT 10SM FEW250 19/11 A3010 RMK AO2 SLP191 T01940106=
201511111452 METAR KATL 111452Z 00000KT 10SM FEW250 16/10 A3011 RMK AO2 SLP193 T01610100 53011=
201511111352 METAR KATL 111352Z 31003KT 10SM FEW250 13/09 A3010 RMK AO2 SLP192 T01280089=
201511111252 METAR KATL 111252Z 32004KT 10SM FEW250 10/08 A3008 RMK AO2 SLP188 T01000078=
201511111152 METAR KATL 111152Z 32004KT 10SM FEW250 10/07 A3008 RMK AO2 SLP184 T01000072 10106 20089 52005=
201511111052 METAR KATL 111052Z 34003KT 10SM FEW250 09/07 A3006 RMK AO2 SLP180 T00940072=
201511110952 METAR KATL 110952Z 29006KT 10SM CLR 09/07 A3007 RMK AO2 SLP181 T00940072=
201511110852 METAR KATL 110852Z 31003KT 10SM FEW250 10/08 A3006 RMK AO2 SLP177 T01000078 56003=
201511110752 METAR KATL 110752Z 31005KT 10SM FEW250 10/08 A3006 RMK AO2 SLP178 T01000078=
201511110652 METAR KATL 110652Z 30004KT 10SM FEW250 10/08 A3006 RMK AO2 SLP177 T01000083=
201511110552 METAR KATL 110552Z 30005KT 10SM FEW250 11/08 A3007 RMK AO2 SLP181 T01110083 10139 20111 55002=
201511110452 METAR KATL 110452Z 30005KT 10SM SCT250 12/09 A3007 RMK AO2 SLP180 T01170089 401890111=
201511110352 METAR KATL 110352Z 28005KT 10SM SCT250 12/09 A3007 RMK AO2 SLP184 T01220089=
201511110252 METAR KATL 110252Z 30006KT 10SM FEW250 12/09 A3008 RMK AO2 SLP184 T01220089 50002=
201511110152 METAR KATL 110152Z 28006KT 10SM CLR 13/09 A3008 RMK AO2 SLP185 T01280094=
201511110052 METAR KATL 110052Z 29004KT 10SM CLR 13/10 A3008 RMK AO2 SLP185 T01330100=
201511102352 METAR KATL 102352Z 29005KT 10SM CLR 14/10 A3007 RMK AO2 SLP182 T01390100 10189 20139 53004=
201511102252 METAR KATL 102252Z 31006KT 10SM CLR 16/09 A3006 RMK AO2 SLP176 T01560094=
201511102152 METAR KATL 102152Z 30006KT 10SM CLR 18/10 A3005 RMK AO2 SLP175 T01780100=
201511102052 METAR KATL 102052Z 29008KT 10SM CLR 18/11 A3006 RMK AO2 SLP177 T01830106 56013=
201511101952 METAR KATL 101952Z 29009KT 10SM FEW030 19/11 A3007 RMK AO2 SLP180 T01890111=
201511101852 METAR KATL 101852Z 32011KT 10SM FEW025 18/11 A3008 RMK AO2 SLP182 T01780111=
201511101752 METAR KATL 101752Z 30012KT 10SM FEW016 16/11 A3010 RMK AO2 SLP191 60000 T01610111 10167 20117 58015=
201511101734 SPECI KATL 101734Z 30011KT 10SM SCT013 16/11 A3011 RMK AO2 T01610111=
201511101652 METAR KATL 101652Z 32012KT 10SM BKN010 14/11 A3013 RMK AO2 SLP203 T01440111=
201511101648 SPECI KATL 101648Z 29009KT 10SM OVC010 14/11 A3013 RMK AO2=
201511101552 METAR KATL 101552Z 33008KT 9SM OVC008 13/11 A3014 RMK AO2 SLP208 T01330111=
201511101452 METAR KATL 101452Z 33010KT 8SM OVC006 13/11 A3013 RMK AO2 DZE45 SLP203 P0000 60000 T01280106 50007=
201511101352 METAR KATL 101352Z 32008KT 7SM -DZ OVC006 12/11 A3014 RMK AO2 DZB37 SLP205 PCPN VRY LGT P0000 T01220106=
201511101252 METAR KATL 101252Z 32008KT 10SM OVC008 12/10 A3012 RMK AO2 SLP201 CIG 007V010 BINOVC T01170100=
201511101152 METAR KATL 101152Z 33008KT 8SM OVC007 12/10 A3011 RMK AO2 DZE22 SLP197 CIG 005V009 P0000 60000 70007 T01170100 10122 20117 53006=
201511101052 METAR KATL 101052Z 33003KT 5SM -DZ BR OVC006 12/11 A3008 RMK AO2 DZB52 SLP188 CIG 004V009 P0000 T01170106=
201511100957 SPECI KATL 100957Z 33004KT 6SM BR OVC005 12/11 A3009 RMK AO2 CIG 003V008 T01170106=
201511100952 METAR KATL 100952Z 32005KT 5SM BR BKN004 OVC007 12/11 A3009 RMK AO2 DZB01E48 SLP190 P0000 T01170106=
201511100852 METAR KATL 100852Z 35006KT 3SM BR BCFG OVC003 12/11 A3009 RMK AO2 SLP190 VIS NW-N 2 T01170106 52002=
201511100752 METAR KATL 100752Z 36006KT 7SM OVC004 12/11 A3009 RMK AO2 SLP190 BINOVC T01170106=
201511100652 METAR KATL 100652Z 36003KT 7SM OVC005 12/10 A3009 RMK AO2 SLP188 BINOVC T01170100=
201511100552 METAR KATL 100552Z 02004KT 7SM BKN006 OVC080 12/10 A3008 RMK AO2 SLP188 CIG 004V008 60003 T01170100 10117 20106 58008=
201511100523 SPECI KATL 100523Z 35004KT 6SM BR BKN006 OVC080 12/10 A3009 RMK AO2 CIG 004V008 T01170100=
201511100452 METAR KATL 100452Z 01004KT 7SM SCT006 BKN010 OVC080 11/09 A3009 RMK AO2 SLP191 SCT006 V BKN T01110094 401170083=
201511100416 SPECI KATL 100416Z 34004KT 8SM FEW006 SCT010 BKN080 11/09 A3010 RMK AO2 SCT010 V BKN T01110094=
201511100352 METAR KATL 100352Z 35004KT 8SM SCT006 BKN010 OVC080 11/10 A3011 RMK AO2 DZE16 SLP196 SCT006 V BKN P0000 T01110100=
201511100317 SPECI KATL 100317Z 36005KT 8SM SCT006 BKN014 BKN075 12/09 A3011 RMK AO2 DZE16 P0000 T01170094=
201511100252 METAR KATL 100252Z 35005KT 2SM -DZ BR BKN006 OVC015 11/09 A3011 RMK AO2 SFC VIS 6 RAE44DZB44 SLP197 CIG 003V007 P0001 60003 T01110094 50003=
201511100248 SPECI KATL 100248Z 01007KT 2SM -DZ BR BKN006 OVC015 11/10 A3011 RMK AO2 SFC VIS 6 RAE44DZB44 CIG 003V007 P0001=
201511100152 METAR KATL 100152Z 06006KT 1 1/2SM -RA BR OVC004 11/09 A3010 RMK AO2 SFC VIS 2 1/2 DZE0056RAB0056 SLP196 CIG 003V006 P0002 T01110094=
201511100052 METAR KATL 100052Z 08007KT 1 1/2SM -DZ BR OVC004 11/09 A3010 RMK AO2 SFC VIS 2 1/2 DZE24B51RAB24E51 SLP194 CIG 003V005 P0000 T01060094=
201511092352 METAR KATL 092352Z 08006KT 1 1/2SM -DZ BR OVC004 11/09 A3010 RMK AO2 SFC VIS 2 1/2 DZB41 SLP194 CIG 003V005 P0000 60001 T01060094 10111 20100 53005=
201511092252 METAR KATL 092252Z 08011KT 1 1/2SM OVC005 11/09 A3007 RMK AO2 SFC VIS 7 SLP186 CIG 003V006 T01060089=
201511092152 METAR KATL 092152Z 05010KT 3SM OVC005 11/09 A3008 RMK AO2 SFC VIS 7 SLP186 CIG 004V007 T01060089=
201511092052 METAR KATL 092052Z 07010KT 3SM BR BKN006 OVC008 11/09 A3008 RMK AO2 SFC VIS 6 RAB1953E40 SLP188 P0001 60001 T01060089 56012=
201511091952 METAR KATL 091952Z 06010KT 3SM BR BKN005 OVC007 11/09 A3009 RMK AO2 SFC VIS 6 RAB31E41 SLP190 P0000 T01060089=
201511091852 METAR KATL 091852Z 08010KT 2SM BR BKN005 BKN007 OVC010 10/09 A3009 RMK AO2 SFC VIS 5 RAE04DZB09E52 SLP191 P0000 T01000089=
201511091810 SPECI KATL 091810Z 07007KT 030V110 2SM -DZ BR FEW004 BKN007 OVC010 11/09 A3011 RMK AO2 SFC VIS 5 RAE04DZB09 P0000 T01060089=
201511091752 METAR KATL 091752Z 06010KT 1 1/2SM -RA BR BKN004 OVC007 10/09 A3012 RMK AO2 SFC VIS 3 DZE44RAB44 SLP200 P0001 60003 T01000089 10100 20083 56014=
201511091750 SPECI KATL 091750Z 05009KT 1 1/2SM -RA BR OVC004 10/09 A3012 RMK AO2 SFC VIS 2 1/2 DZE44RAB44 P0001=
201511091711 SPECI KATL 091711Z 07011KT 2SM -DZ BR OVC005 10/08 A3013 RMK AO2 SFC VIS 3 P0000 T01000083=
201511091652 METAR KATL 091652Z 08012KT 3SM -DZ BR OVC006 10/08 A3013 RMK AO2 SFC VIS 5 SLP206 P0000 T01000083=
201511091552 METAR KATL 091552Z 08011KT 3SM -DZ BR OVC006 10/08 A3016 RMK AO2 SFC VIS 5 SLP215 P0001 T01000078=
201511091452 METAR KATL 091452Z 07012KT 3SM -DZ BR BKN005 OVC008 09/08 A3015 RMK AO2 SFC VIS 4 SLP213 P0001 60001 T00940078 51005=
201511091352 METAR KATL 091352Z 07010KT 2SM -DZ BR OVC005 09/07 A3015 RMK AO2 SFC VIS 2 1/2 SLP212 RAE40DZ40 CIG 004V008 P0000 T00890072 $=
201511091252 METAR KATL 091252Z 07014KT 2 1/2SM -DZ BR OVC005 08/07 A3014 RMK AO2 SFC VIS 5 RAE1156DZB1156 SLP209 CIG 004V008 P0000 T00830072=
201511091209 SPECI KATL 091209Z 08013KT 2 1/2SM -DZ BR OVC006 08/07 A3014 RMK AO2 SFC VIS 4 RAE1156DZB1156 CIG 005V009 P0000 T00830067=
201511091152 METAR KATL 091152Z 08013KT 6SM -RA BR OVC007 08/07 A3014 RMK AO2 RAE33B51DZB33E51 SLP208 CIG 005V009 P0000 60008 70144 T00830067 10083 20083 53000=
201511091052 METAR KATL 091052Z 07014KT 5SM -RA BR OVC005 08/07 A3013 RMK AO2 SLP206 P0001 T00830067=
201511090952 METAR KATL 090952Z 08013G20KT 6SM -RA BR OVC006 08/07 A3012 RMK AO2 SLP204 P0001 T00830067=
201511090852 METAR KATL 090852Z 07015KT 4SM -RA BR BKN005 OVC010 08/07 A3014 RMK AO2 SLP207 CIG 004V008 P0002 60006 T00830067 58017=
201511090752 METAR KATL 090752Z 08017KT 4SM -RA BR BKN007 OVC012 08/07 A3015 RMK AO2 SLP211 CIG 005V009 P0001 T00830067=
201511090652 METAR KATL 090652Z 09014KT 3SM -RA BR BKN007 OVC013 08/07 A3018 RMK AO2 SLP221 CIG 005V009 P0003 T00830067=
201511090552 METAR KATL 090552Z 08017KT 3SM -RA BR BKN007 OVC014 08/07 A3019 RMK AO2 SLP224 VIS 2V4 CIG 005V009 P0004 60091 T00830067 10100 20078 58017=
201511090540 SPECI KATL 090540Z 08014KT 3SM -RA BR BKN007 OVC014 08/07 A3019 RMK AO2 VIS 2V4 CIG 005V009 P0003 T00830067=
201511090528 SPECI KATL 090528Z 08015G23KT 2 1/2SM -RA BR OVC006 08/07 A3019 RMK AO2 CIG 004V008 P0002 T00830067=
201511090452 METAR KATL 090452Z 08016KT 3SM -RA BR BKN007 OVC014 08/07 A3021 RMK AO2 SLP231 CIG 005V009 P0024 T00830067 401330078=
201511090426 SPECI KATL 090426Z 07016KT 3SM RA BR OVC008 08/07 A3022 RMK AO2 CIG 006V010 P0023 T00780067=
201511090357 SPECI KATL 090357Z 08016KT 2 1/2SM +RA BR BKN006 BKN010 OVC014 08/07 A3022 RMK AO2 P0003 T00780067=
201511090352 METAR KATL 090352Z 07016KT 3SM +RA BR BKN008 OVC014 08/07 A3022 RMK AO2 SLP235 VIS 2V4 CIG 006V010 P0037 T00780067=
201511090316 SPECI KATL 090316Z 07019KT 2 1/2SM +RA BR BKN008 OVC024 08/07 A3023 RMK AO2 VIS 2V3 CIG 007V010 P0017 T00830067=
201511090252 METAR KATL 090252Z 07016KT 3SM +RA BR BKN008 OVC013 08/07 A3024 RMK AO2 PK WND 06029/0156 SLP241 CIG 007V010 P0023 60026 T00830067 53002=
201511090238 SPECI KATL 090238Z 08016G21KT 2 1/2SM +RA BR OVC008 08/06 A3024 RMK AO2 PK WND 06029/0156 CIG 007V010 P0015 T00830061=
201511090152 METAR KATL 090152Z 08021G30KT 3SM RA BR BKN010 OVC028 08/06 A3022 RMK AO2 PK WND 08030/0147 SLP234 CIG 008V012 P0003 T00830061=
201511090052 METAR KATL 090052Z 06018G28KT 8SM -RA OVC009 09/07 A3024 RMK AO2 PK WND 06028/0043 SLP243 CIG 007V011 P0000 T00940067=
201511082352 METAR KATL 082352Z 07017G23KT 8SM -RA BKN008 OVC012 09/07 A3023 RMK AO2 SLP238 CIG 007V009 P0001 60022 T00940072 10100 20094 53005=
201511082252 METAR KATL 082252Z 08019G24KT 7SM -RA OVC009 09/07 A3022 RMK AO2 PK WND 08026/2207 SLP236 CIG 007V011 P0003 T00940072=
201511082152 METAR KATL 082152Z 07020KT 5SM -RA BR BKN008 OVC014 09/07 A3022 RMK AO2 SLP233 CIG 007V009 P0003 T00940072=
201511082052 METAR KATL 082052Z 07017G25KT 8SM -RA OVC008 09/07 A3022 RMK AO2 PK WND 06026/2042 SLP233 P0003 60015 T00940072 55015=
201511081952 METAR KATL 081952Z 06019G24KT 6SM -RA BR BKN008 OVC016 10/08 A3022 RMK AO2 PK WND 07026/1918 SLP233 P0005 T01000078=
201511081907 SPECI KATL 081907Z 07017KT 6SM -RA BR OVC008 10/08 A3024 RMK AO2 P0002 T01000078=
201511081852 METAR KATL 081852Z 07015KT 6SM -RA BR OVC010 10/08 A3024 RMK AO2 PK WND 06026/1821 SLP240 P0007 T01000083=
201511081752 METAR KATL 081752Z 08017KT 4SM RA BR OVC010 10/08 A3026 RMK AO2 SLP249 P0010 60023 T01000083 10111 20100 58006=
201511081652 METAR KATL 081652Z 09013G21KT 5SM -RA BR OVC010 11/08 A3028 RMK AO2 SLP254 P0002 T01060083=
201511081552 METAR KATL 081552Z COR 10015KT 10SM -RA BKN010 OVC029 11/08 A3028 RMK AO2 SLP254 P0000 T01060083=
201511081547 SPECI KATL 081547Z 09015KT 10SM -RA BKN010 OVC029 11/08 A3028 RMK AO2 P0000=
201511081512 SPECI KATL 081512Z 09015G21KT 10SM -RA SCT013 OVC029 10/08 A3029 RMK AO2 P0000 T01000078=
201511081452 METAR KATL 081452Z 08017G21KT 8SM -RA FEW012 OVC030 10/08 A3029 RMK AO2 SLP257 P0000 60011 T01000078 50019=
201511081352 METAR KATL 081352Z 07015KT 8SM -RA FEW012 FEW021 OVC030 10/07 A3030 RMK AO2 PK WND 07026/1328 SLP260 P0003 T01000072=
201511081341 SPECI KATL 081341Z 07014G22KT 9SM -RA SCT012 SCT021 OVC030 10/07 A3030 RMK AO2 PK WND 07026/1328 P0002 T01000072=
201511081252 METAR KATL 081252Z 07019KT 8SM -RA FEW009 BKN014 OVC026 11/08 A3026 RMK AO2 SLP246 P0008 T01060083=
201511081249 SPECI KATL 081249Z 07017G21KT 10SM -RA FEW009 BKN013 OVC026 11/08 A3026 RMK AO2 P0008=
201511081152 METAR KATL 081152Z 09011KT 8SM -RA SCT009 BKN026 OVC055 11/09 A3023 RMK AO2 PK WND 08030/1100 SLP235 P0004 60023 70026 T01110089 10133 20111 53017=
201511081111 SPECI KATL 081111Z 08018G26KT 10SM -RA SCT009 BKN029 OVC110 12/09 A3021 RMK AO2 PK WND 08030/1100 P0001 T01170089=
201511081052 METAR KATL 081052Z 08013KT 8SM -RA BKN009 BKN024 OVC100 12/11 A3021 RMK AO2 SLP227 P0006 T01220106=
201511080952 METAR KATL 080952Z 06009KT 6SM -RA BR BKN009 BKN027 OVC100 13/12 A3018 RMK AO2 SLP217 P0009 T01330117=
201511080949 SPECI KATL 080949Z 06009KT 6SM -RA BR BKN009 BKN027 OVC100 13/12 A3018 RMK AO2 P0008=
201511080930 SPECI KATL 080930Z 05009KT 7SM -RA SCT012 SCT028 OVC100 13/12 A3018 RMK AO2 P0004 T01330117=
201511080852 METAR KATL 080852Z 01007KT 7SM -RA BKN010 BKN060 OVC110 13/11 A3018 RMK AO2 SLP217 P0002 60004 T01280111 51004=
201511080827 SPECI KATL 080827Z 01006KT 10SM -RA BKN011 OVC110 13/11 A3018 RMK AO2 P0001 T01280106=
201511080752 METAR KATL 080752Z 01005KT 10SM -RA FEW015 OVC110 13/11 A3017 RMK AO2 SLP214 P0002 T01280106=
201511080652 METAR KATL 080652Z 34006KT 10SM -RA BKN080 OVC110 13/11 A3018 RMK AO2 SLP217 P0000 T01280111=
201511080552 METAR KATL 080552Z 35008KT 10SM -RA FEW008 BKN085 OVC110 13/11 A3017 RMK AO2 SLP212 P0000 60000 T01330111 10183 20133 58001=
201511080452 METAR KATL 080452Z 33004KT 10SM -RA OVC110 13/12 A3017 RMK AO2 SLP213 P0000 T01330117 402110133=
201511080352 METAR KATL 080352Z COR 33007KT 10SM -RA BKN095 OVC120 14/11 A3018 RMK AO2 RAB33 SLP217 P0000 T01390111=
201511080252 METAR KATL 080252Z 33007KT 10SM FEW010 BKN100 OVC150 14/12 A3017 RMK AO2 SLP213 60000 T01440117 53008=
201511080242 SPECI KATL 080242Z 34008KT 10SM FEW008 SCT012 BKN100 OVC150 14/12 A3018 RMK AO2 T01440117=
201511080206 SPECI KATL 080206Z 34011KT 10SM BKN008 BKN012 BKN095 OVC150 15/13 A3016 RMK AO2 T01500128=
201511080152 METAR KATL 080152Z 33012KT 10SM FEW008 SCT012 BKN095 OVC200 16/13 A3017 RMK AO2 SLP211 T01560128=
201511080143 SPECI KATL 080143Z 32011KT 10SM FEW010 SCT014 BKN100 OVC200 16/14 A3016 RMK AO2 T01610139=
201511080118 SPECI KATL 080118Z 33013G19KT 10SM FEW008 BKN014 OVC090 17/14 A3017 RMK AO2 T01670144=
201511080052 METAR KATL 080052Z 30003KT 10SM FEW010 FEW024 BKN090 OVC200 17/15 A3015 RMK AO2 RAE2355B36E45 SLP206 P0000 T01720150=
201511072352 METAR KATL 072352Z 35009KT 10SM -RA FEW012 FEW026 OVC070 18/16 A3015 RMK AO2 RAB46 SLP204 P0000 60000 T01830156 10211 20183 52010=
201511072332 SPECI KATL 072332Z 35008KT 10SM FEW012 SCT026 OVC070 18/16 A3015 RMK AO2 T01830156=
201511072309 SPECI KATL 072309Z 34011KT 10SM FEW010 BKN026 OVC070 18/16 A3014 RMK AO2 T01830161=
201511072252 METAR KATL 072252Z 33010KT 10SM FEW010 FEW026 OVC070 18/16 A3014 RMK AO2 RAB2157E10 SLP201 P0000 T01830161=
201511072152 METAR KATL 072152Z 34007KT 10SM FEW010 OVC060 19/17 A3013 RMK AO2 SLP196 T01890167=
201511072052 METAR KATL 072052Z 35007KT 10SM SCT014 OVC050 20/18 A3012 RMK AO2 RAB02E49 SLP193 P0000 60000 T02000178 56006=
201511071952 METAR KATL 071952Z 35008KT 10SM BKN014 OVC050 21/17 A3012 RMK AO2 SLP193 T02060172=
201511071947 SPECI KATL 071947Z 34009KT 10SM BKN014 OVC050 21/17 A3012 RMK AO2=
201511071852 METAR KATL 071852Z 33008KT 10SM SCT024 OVC050 21/17 A3013 RMK AO2 RAE37 SLP196 P0000 T02110172=
201511071752 METAR KATL 071752Z VRB04KT 10SM -RA FEW009 BKN047 OVC060 21/17 A3013 RMK AO2 RAB40 SLP198 P0000 60003 T02060167 10211 20183 58013=
201511071652 METAR KATL 071652Z 36004KT 10SM FEW008 BKN050 BKN110 21/16 A3017 RMK AO2 SLP208 SHRA N-NE T02060161=
201511071552 METAR KATL 071552Z 00000KT 10SM FEW005 OVC055 20/16 A3018 RMK AO2 SLP215 VIRGA NW T02000161=
201511071452 METAR KATL 071452Z 09003KT 10SM FEW005 OVC060 20/16 A3017 RMK AO2 SLP212 VIRGA N 60003 T02000161 51011=
201511071352 METAR KATL 071352Z 02006KT 10SM FEW049 BKN060 BKN085 OVC250 19/16 A3017 RMK AO2 RAB1257E08 SLP209 P0000 T01940161=
201511071252 METAR KATL 071252Z 02010KT 10SM FEW007 SCT025 OVC060 19/16 A3016 RMK AO2 RAE50 SLP207 P0003 T01890161=
201511071232 SPECI KATL 071232Z 02010KT 8SM -RA FEW007 SCT025 OVC055 19/17 A3016 RMK AO2 P0003 T01890167=
201511071152 METAR KATL 071152Z 34009KT 7SM -RA BKN007 BKN017CB OVC028 19/18 A3014 RMK AO2 TSE23 SLP200 BKN007 V SCT TS MOV NE CB VC NE-E MOV NE P0001 60064 70148 T01940178 10206 20194 53010=
201511071123 SPECI KATL 071123Z 33007KT 7SM -RA BKN005 OVC028 19/18 A3013 RMK AO2 TSE23 OCNL LTGIC DSNT NE TS MOV NE CB DSNT NE P0001 T01940178=
201511071113 SPECI KATL 071113Z 31009KT 8SM -TSRA FEW004 FEW012 OVC028 19/18 A3012 RMK AO2 OCNL LTGICCG NE TS VC NE MOV NE P0000 T01940178=
201511071104 SPECI KATL 071104Z 31007KT 7SM -TSRA FEW002 SCT010 OVC030 19/18 A3012 RMK AO2 OCNL LTGICCG NE TS NE MOV NE P0000 T01940183=
201511071052 METAR KATL 071052Z 30011G21KT 3SM -TSRA BR FEW003 BKN010CB OVC036 19/18 A3011 RMK AO2 RAB14 TSB18 SLP190 FRQ LTGICCG N-NE TS N-NE MOV NE P0027 T01940178=
201511071033 SPECI KATL 071033Z 29004KT 1 1/4SM R09R/5500VP6000FT TSRA BR FEW003 OVC012CB 20/19 A3009 RMK AO2 RAB14 TSB18 OCNL LTGIC NW-N TS NW-N MOV NE P0008 T02000189=
201511071018 SPECI KATL 071018Z 12006KT 8SM -TSRA FEW004 OVC014CB 20/19 A3009 RMK AO2 RAB14 TSB18 OCNL LTGIC W-N TS W-N MOV NE P0000 T02000189=
201511070952 METAR KATL 070952Z 00000KT 10SM FEW004 BKN018CB BKN044 BKN250 20/19 A3009 RMK AO2 RAE02 SLP183 CB VC SW-NW MOV NE P0000 T02000189=
201511070947 SPECI KATL 070947Z 00000KT 10SM FEW004 BKN021 BKN044 20/19 A3010 RMK AO2 RAE02 P0000=
201511070918 SPECI KATL 070918Z 00000KT 9SM FEW004 SCT020 BKN060 20/19 A3010 RMK AO2 RAE02 P0000 T02000189=
201511070852 METAR KATL 070852Z 00000KT 7SM -RA FEW004 BKN016 OVC055 20/19 A3011 RMK AO2 RAE0754B52 SLP189 CB DSIPTD P0000 60036 T02000189 55003=
201511070848 SPECI KATL 070848Z 00000KT 7SM FEW004 BKN022 OVC050 20/19 A3011 RMK AO2 RAE0754 CB DSIPTD P0000=
201511070832 SPECI KATL 070832Z 8SM FEW004 FEW018CB BKN050 OVC200 21/19 A3010 RMK AO2 RAE0754 CB N MOV NE P0000 T02060189=
201511070814 SPECI KATL 070814Z 00000KT 6SM BR FEW004 BKN018CB OVC031 21/19 A3011 RMK AO2 RAE0754 CB VC NW MOV NE P0000 T02060189=
201511070752 METAR KATL 070752Z 31003KT 6SM -RA BR FEW004 SCT022CB OVC049 20/19 A3010 RMK AO2 SLP187 CB VC W-NW MOV NE P0010 T02000189 $=
201511070742 SPECI KATL 070742Z 28003KT 3SM RA BR FEW004 BKN047 OVC055 20/19 A3010 RMK AO2 P0009 T02000189 $=
201511070710 SPECI KATL 070710Z 14003KT 4SM RA BR BKN004 BKN032 OVC065 21/19 A3010 RMK AO2 CIG 002V007 P0003 T02060189=
201511070658 SPECI KATL 070658Z 17003KT 4SM -RA BR FEW004 BKN032 OVC070 21/19 A3011 RMK AO2 P0002 T02060194=
201511070652 METAR KATL 070652Z 18003KT 2SM R09R/6000VP6000FT RA BR FEW004 BKN032 OVC070 21/19 A3011 RMK AO2 SLP188 P0026 T02060194=
201511070635 SPECI KATL 070635Z 20004KT 2SM +RA BR FEW004 BKN045 OVC070 21/19 A3011 RMK AO2 P0013 T02060194=
201511070552 METAR KATL 070552Z 00000KT 4SM -RA BR FEW004 BKN040 OVC080 21/19 A3012 RMK AO2 SLP191 P0007 60037 T02060194 10217 20206 58011=
201511070452 METAR KATL 070452Z 22005KT 5SM -RA BR FEW004 BKN060 OVC090 21/19 A3013 RMK AO2 SLP195 P0006 T02110194 402500189=
201511070352 METAR KATL 070352Z 24005KT 4SM RA BR FEW006 SCT015 OVC070 21/19 A3015 RMK AO2 SLP201 P0016 T02110194=
201511070320 SPECI KATL 070320Z 19004KT 7SM -RA FEW006 SCT020 OVC080 21/20 A3014 RMK AO2 CB DSNT NE-SE P0013 T02110200=
201511070313 SPECI KATL 070313Z 19004KT 5SM -RA BR SCT006 BKN015CB OVC080 21/20 A3015 RMK AO2 CB VC NE-SE MOV NE P0013 T02110200=
201511070252 METAR KATL 070252Z 19007KT 2SM +RA BR SCT005 BKN012CB OVC050 21/20 A3015 RMK AO2 SFC VIS 3 RAB15 SLP202 CB NE-OHD-S MOV NE P0008 60008 T02110200 53008=
201511070243 SPECI KATL 070243Z 23005KT 2SM +RA BR SCT003 BKN010 OVC050 21/20 A3015 RMK AO2 SFC VIS 6 RAB15 P0002 T02110200=
201511070235 SPECI KATL 070235Z 25004KT 8SM -RA FEW003 SCT025 OVC080 21/20 A3014 RMK AO2 RAB15 P0000 T02110200=
201511070152 METAR KATL 070152Z 13003KT 10SM BKN050 BKN080 OVC110 21/20 A3014 RMK AO2 SLP199 SHRA SE-S T02110200=
201511070052 METAR KATL 070052Z 22003KT 10SM FEW045 SCT080 BKN110 BKN250 21/19 A3013 RMK AO2 SLP197 T02110194=
201511062352 METAR KATL 062352Z 21006KT 10SM FEW045 BKN100 BKN250 21/20 A3013 RMK AO2 SLP194 60046 T02110200 10250 20206 53003=
201511062252 METAR KATL 062252Z 17004KT 10SM FEW015 SCT055 BKN100 BKN250 22/20 A3011 RMK AO2 SLP190 T02170200=
201511062152 METAR KATL 062152Z 21005KT 10SM FEW005 SCT045TCU BKN070 22/21 A3012 RMK AO2 RAB22E50 SLP191 TCU W P0000 T02220206=
201511062052 METAR KATL 062052Z 19004KT 10SM FEW005 BKN040 BKN070 22/20 A3012 RMK AO2 RAB04E36 SLP193 P0000 60046 T02170200 56012=
201511062047 SPECI KATL 062047Z 20006KT 10SM FEW005 BKN040 BKN070 22/20 A3012 RMK AO2 RAB04E36 P0000=
201511062017 SPECI KATL 062017Z 19007KT 7SM -RA FEW016 BKN040 BKN070 22/21 A3011 RMK AO2 RAB04 P0000 T02220206=
201511061952 METAR KATL 061952Z 21003KT 10SM FEW016 BKN025 BKN070 22/21 A3012 RMK AO2 RAE42 SLP193 SHRA VC E-S P0030 T02220206=
201511061936 SPECI KATL 061936Z 27003KT 7SM -RA FEW016 BKN025 OVC070 22/20 A3012 RMK AO2 P0030 T02170200=
201511061852 METAR KATL 061852Z 28008KT 1 1/2SM R09R/3000V6000FT +RA BR BKN016CB BKN025 OVC050 21/19 A3014 RMK AO2 SFC VIS 2 RAB42 SLP201 CB OHD MOV NE P0016 T02110189=
201511061845 SPECI KATL 061845Z 30010G19KT 1SM R09R/3000VP6000FT +RA BKN016CB BKN025 OVC050 22/18 A3015 RMK AO2 RAB42 CB OHD MOV NE P0000 T02170183=
201511061833 SPECI KATL 061833Z 26008KT 10SM SCT016CB BKN025 OVC050 24/21 A3014 RMK AO2 CB SW-NW-N MOV NE SHRA VC SW-NW-N T02440206=
201511061752 METAR KATL 061752Z 21010KT 10SM BKN015 BKN040 BKN070 24/21 A3015 RMK AO2 SLP204 CB DSNT W-NW-N SHRA DSNT W-NW-N 60001 T02440206 10244 20206 58017=
201511061722 SPECI KATL 061722Z 21009KT 10SM FEW015 SCT040 SCT070 24/21 A3017 RMK AO2 T02390206=
201511061652 METAR KATL 061652Z 20008KT 10SM BKN015 BKN040 BKN070 24/21 A3018 RMK AO2 RAB02E13B35E45 SLP215 P0000 T02390211=
201511061552 METAR KATL 061552Z 21007KT 10SM BKN012 BKN020 OVC070 23/21 A3020 RMK AO2 SLP221 T02330206=
201511061530 SPECI KATL 061530Z 22005KT 10SM FEW010 BKN020 BKN070 23/21 A3021 RMK AO2 T02330206=
201511061452 METAR KATL 061452Z 22004KT 10SM BKN009 BKN020 OVC070 23/21 A3021 RMK AO2 RAB1355E12 SLP223 P0001 60001 T02280206 51010=
201511061424 SPECI KATL 061424Z 21006KT 9SM FEW005 BKN009 BKN070 22/21 A3020 RMK AO2 RAB1355E12 P0001 T02220206=
201511061352 METAR KATL 061352Z 21006KT 3SM BKN005 BKN100 BKN200 22/21 A3020 RMK AO2 SFC VIS 8 SLP219 CIG 004V007 T02170206=
201511061322 SPECI KATL 061322Z 21004KT 3SM BR OVC004 21/20 A3020 RMK AO2 SFC VIS 6 CIG 003V006 T02110200=
201511061252 METAR KATL 061252Z 20005KT 1SM R09R/P6000FT BR OVC004 21/20 A3019 RMK AO2 SFC VIS 6 SLP219 CIG 003V006 TWRINC T02110200=
201511061152 METAR KATL 061152Z 19006KT 1SM R09R/P6000FT BKN004 OVC038 21/19 A3018 RMK AO2 SFC VIS 8 SLP213 CIG 003V006 TWRINC 60009 70017 T02060194 10206 20189 53006=
201511061132 SPECI KATL 061132Z 20007KT 2SM OVC005 21/19 A3018 RMK AO2 SFC VIS 8 CIG 004V007 T02060194=
201511061052 METAR KATL 061052Z 20005KT 1/2SM R09R/P6000FT OVC003 21/19 A3017 RMK AO2 SFC VIS 8 RAE21DZB21E48 SLP211 CIG 002V005 TWRINC P0002 T02060194=
201511060952 METAR KATL 060952Z 14003KT 1/4SM R09R/6000VP6000FT -RA BR OVC003 19/19 A3016 RMK AO2 SFC VIS 1 1/2 DZE06RAB06 SLP207 CIG 002V004 TWRINC P0002 T01940189=
201511060852 METAR KATL 060852Z 12005KT 1/4SM R09R/P6000FT -DZ BR OVC002 19/18 A3016 RMK AO2 SFC VIS 3 SLP206 DZE07B42RAB07E42 CIG 001V003 TWRINC PCPN VRY LGT P0005 60005 T01940183 58008=
201511060807 SPECI KATL 060807Z 00000KT 1/4SM R09R/1600V2600FT RA FG VV002 19/19 A3017 RMK AO2 DZE07RAB07 P0001 T01940189=
201511060752 METAR KATL 060752Z 11004KT 1/4SM R09R/1600V1800FT -DZ FG VV002 19/18 A3017 RMK AO2 SLP210 PCPN VRY LGT P0000 T01940183=
201511060652 METAR KATL 060652Z 10004KT 1/4SM R09R/2000FT -DZ FG VV002 19/18 A3018 RMK AO2 SLP215 PCPN VRY LGT P0000 T01890183=
201511060605 SPECI KATL 060605Z 00000KT 1/4SM R09R/2200FT -DZ FG VV002 19/18 A3018 RMK AO2 P0000 T01890183=
201511060552 METAR KATL 060552Z 13004KT 1/4SM R09R/2200V2800FT -DZ FG VV002 19/18 A3018 RMK AO2 SFC VIS 1/2 SLP216 P0000 60000 T01890183 10194 20183 57006=
201511060452 METAR KATL 060452Z 13003KT 1/4SM R09R/2200V2800FT -DZ FG VV002 19/18 A3019 RMK AO2 SFC VIS 1/2 SLP219 P0000 T01890178 401940167=
201511060352 METAR KATL 060352Z 12005KT 1/4SM R09R/4000V5500FT -DZ BR VV002 19/18 A3019 RMK AO2 SFC VIS 3/4 SLP219 P0000 T01890178=
201511060252 METAR KATL 060252Z 12007KT 1/4SM R09R/5000VP6000FT -DZ BR VV002 18/18 A3020 RMK AO2 SFC VIS 1 SLP223 P0000 60000 T01830178 56006=
201511060152 METAR KATL 060152Z 11007KT 1/4SM R09R/P6000FT -DZ BR OVC002 18/17 A3021 RMK AO2 SFC VIS 1 SLP225 P0000 T01830172=
201511060052 METAR KATL 060052Z 10006KT 1/4SM R09R/P6000FT -DZ BR OVC003 18/18 A3021 RMK AO2 SFC VIS 1 1/4 SLP226 CIG 002V004 P0000 T01830178=
201511052352 METAR KATL 052352Z 11006KT 1/4SM R09R/4500VP6000FT -DZ BR VV002 18/18 A3022 RMK AO2 SFC VIS 3/4 SLP229 P0000 60003 T01830178 10189 20183 53001=
201511052252 METAR KATL 052252Z 10006KT 1/4SM R09R/2400V3000FT -DZ FG VV002 18/18 A3021 RMK AO2 SFC VIS 1/2 DZB51 SLP226 PCPN VRY LGT P0000 T01830178=
201511052152 METAR KATL 052152Z 10005KT 1/4SM R09R/2400V3500FT FG VV002 18/18 A3021 RMK AO2 SFC VIS 1/2 SLP225 TWRINC T01830178=
201511052052 METAR KATL 052052Z 12004KT 1/4SM R09R/P6000FT BR OVC003 19/18 A3022 RMK AO2 SFC VIS 3 RAE00 SLP227 TWRINC P0000 60003 T01890178 55007=
201511052012 SPECI KATL 052012Z 10004KT 1 1/2SM BR FEW002 BKN005 OVC008 19/18 A3021 RMK AO2 SFC VIS 6 RAE00 TWRINC P0000 T01890178=
201511052004 SPECI KATL 052004Z 10004KT 1/2SM R09R/P6000FT BR BKN003 OVC006 19/18 A3021 RMK AO2 SFC VIS 5 RAE00 TWRINC P0000 T01890178=
201511051952 METAR KATL 051952Z 10005KT 1/2SM R09R/5500VP6000FT -RA BR VV003 19/18 A3021 RMK AO2 SFC VIS 1 RAB34 SLP224 TWRINC P0003 T01890178=
201511051852 METAR KATL 051852Z 11006KT 1/2SM R09R/P6000FT BR VV002 18/17 A3022 RMK AO2 SFC VIS 3/4 RAB17E32 SLP228 TWRINC P0000 T01830172=
201511051752 METAR KATL 051752Z 10005KT 1/2SM R09R/P6000FT BR OVC003 18/17 A3024 RMK AO2 SFC VIS 3 SLP235 60005 T01830172 10183 20167 58014=
201511051652 METAR KATL 051652Z 11005KT 1/2SM R09R/P6000FT BR OVC004 18/17 A3026 RMK AO2 SFC VIS 5 RAE45 SLP244 TWRINC P0004 T01830172=
201511051650 SPECI KATL 051650Z 10005KT 1/2SM R09R/P6000FT BR OVC004 18/17 A3027 RMK AO2 SFC VIS 5 RAE45 TWRINC P0004=
201511051637 SPECI KATL 051637Z 09006KT 1SM R09R/P6000FT -RA BR BKN004 OVC006 18/17 A3027 RMK AO2 SFC VIS 4 P0004 T01830167=
201511051552 METAR KATL 051552Z 11005KT 1/2SM R09R/P6000FT -RA BR OVC003 18/17 A3028 RMK AO2 SFC VIS 2 RAB48 SLP249 TWRINC P0000 T01780167=
201511051452 METAR KATL 051452Z 10008KT 1/2SM R09R/P6000FT BR OVC003 17/16 A3028 RMK AO2 SFC VIS 2 DZE44 SLP251 TWRINC P0000 60001 T01720161 51010=
201511051352 METAR KATL 051352Z 09008KT 1/2SM R09R/P6000FT -DZ BR OVC002 17/16 A3027 RMK AO2 SFC VIS 4 RAE1256DZB1257 SLP248 CIG 001V003 TWRINC P0000 T01720161=
201511051252 METAR KATL 051252Z 08008KT 040V100 1/2SM R09R/P6000FT -RA BR OVC002 17/16 A3026 RMK AO2 SFC VIS 3 RAE1153B10DZB1154E10 SLP243 P0001 T01720161=
201511051152 METAR KATL 051152Z COR 08007KT 1/2SM R09R/P6000FT -RA BR OVC003 17/16 A3025 RMK AO2 SFC VIS 4 DZE30RAB30 SLP239 CIG 002V004 TWRINC P0003 60003 70003 T01720161 10178 20167 53006=
201511051052 METAR KATL 051052Z COR 08009KT 1/2SM R09R/3500V4500FT -DZ BR VV002 17/16 A3024 RMK AO2 SFC VIS 3/4 SLP235 P0000 T01720161=
201511050952 METAR KATL 050952Z 08007KT 1/2SM R09R/6000VP6000FT -DZ BR OVC002 17/16 A3024 RMK AO2 SFC VIS 1 SLP234 CIG 001V003 P0000 T01720161=
201511050852 METAR KATL 050852Z 09006KT 1/2SM R09R/P6000FT -DZ BR OVC002 17/17 A3023 RMK AO2 SFC VIS 1 1/2 SLP233 CIG 001V003 TWRINC P0000 60000 T01720167 58004=
201511050752 METAR KATL 050752Z 09007KT 1/2SM -DZ BR OVC002 17/17 A3024 RMK AO2 SFC VIS 2 SLP235 CIG 001V003 TWRINC P0000 T01720167=
201511050652 METAR KATL 050652Z 09009KT 1/2SM R09R/P6000FT -DZ BR OVC002 18/17 A3024 RMK AO2 SFC VIS 2 1/2 DZE19B35RAB19E35 SLP236 CIG 001V003 TWRINC P0000 T01780167=
201511050552 METAR KATL 050552Z 10007KT 1/2SM R09R/P6000FT -DZ BR OVC003 18/17 A3024 RMK AO2 SFC VIS 5 DZE25B49 SLP236 CIG 002V004 PCPN VRY LGT P0000 60000 T01780167 10189 20178 57002=
201511050452 METAR KATL 050452Z 11006KT 1/2SM R09R/P6000FT -DZ BR OVC003 18/17 A3025 RMK AO2 SFC VIS 5 SLP237 CIG 002V005 PCPN VRY LGT P0000 T01830172 402060172=
201511050352 METAR KATL 050352Z 10008KT 1/2SM R09R/P6000FT -DZ BR OVC003 18/17 A3025 RMK AO2 SFC VIS 2 SLP237 CIG 002V005 P0000 T01830172=
201511050252 METAR KATL 050252Z 10005KT 1/2SM R09R/P6000FT -DZ BR OVC004 18/17 A3025 RMK AO2 SFC VIS 2 SLP238 CIG 002V006 P0000 60000 T01830172 53006=
201511050221 SPECI KATL 050221Z 11006KT 1/2SM R09R/P6000FT -DZ BR OVC003 18/17 A3024 RMK AO2 SFC VIS 2 CIG 002V005 P0000 T01830172=
201511050154 SPECI KATL 050154Z 08009KT 1 1/4SM -DZ BR OVC004 18/17 A3024 RMK AO2 SFC VIS 2 CIG 002V006 P0000 T01830172=
201511050152 METAR KATL 050152Z 08008KT 3/4SM R09R/P6000FT -DZ BR OVC004 18/17 A3024 RMK AO2 SFC VIS 2 SLP236 CIG 002V006 P0000 T01830172=
201511050052 METAR KATL 050052Z 08009KT 3/4SM R09R/P6000FT -DZ BR OVC004 19/17 A3023 RMK AO2 SFC VIS 2 1/2 SLP232 CIG 002V006 P0000 T01890172=
201511050036 SPECI KATL 050036Z 09008KT 050V120 3/4SM R09R/P6000FT -DZ BR OVC004 19/17 A3023 RMK AO2 SFC VIS 2 CIG 002V006 P0000 T01890172=
201511042352 METAR KATL 042352Z 08008KT 1 1/4SM -DZ BR OVC004 19/17 A3023 RMK AO2 SFC VIS 3 SLP232 CIG 003V005 P0000 60000 T01890172 10206 20189 53006=
201511042317 SPECI KATL 042317Z 08009KT 1 1/4SM -DZ BR OVC004 19/17 A3022 RMK AO2 SFC VIS 4 CIG 003V006 P0000 T01890172=
201511042252 METAR KATL 042252Z 09007KT 2SM -DZ BR OVC005 19/17 A3021 RMK AO2 SFC VIS 4 DZB39 SLP226 CIG 004V007 P0000 T01890172=
201511042239 SPECI KATL 042239Z 10007KT 2SM -DZ BR OVC005 19/17 A3021 RMK AO2 SFC VIS 4 DZB39 CIG 004V007 P0000 T01890172=
201511042152 METAR KATL 042152Z 11005KT 7SM OVC007 19/17 A3022 RMK AO2 SLP228 T01940172=
201511042052 METAR KATL 042052Z 12005KT 9SM OVC008 20/17 A3021 RMK AO2 SLP226 T02000172 55003=
201511041952 METAR KATL 041952Z 09005KT 10SM BKN008 OVC010 20/18 A3020 RMK AO2 SLP223 T02000178=
201511041852 METAR KATL 041852Z 07008KT 9SM OVC008 20/17 A3020 RMK AO2 SLP222 T02000172=
201511041752 METAR KATL 041752Z 07005KT 10SM OVC007 19/17 A3022 RMK AO2 SLP229 60000 T01940172 10194 20172 58009=
201511041652 METAR KATL 041652Z 08007KT 8SM OVC006 19/17 A3025 RMK AO2 SLP237 T01890172=
201511041552 METAR KATL 041552Z 07007KT 040V100 8SM OVC006 18/17 A3025 RMK AO2 SLP240 T01830167=
201511041452 METAR KATL 041452Z 08008KT 7SM OVC006 18/17 A3025 RMK AO2 DZE24 SLP239 CIG 004V007 P0000 60000 T01830167 51015=
201511041424 SPECI KATL 041424Z 08008KT 6SM BR BKN005 OVC010 18/16 A3025 RMK AO2 DZE24 CIG 004V007 P0000 T01780161=
201511041355 SPECI KATL 041355Z 07010KT 2 1/2SM -DZ BR BKN005 OVC012 18/16 A3024 RMK AO2 SFC VIS 6 CIG 004V007 P0000 T01780161=
201511041352 METAR KATL 041352Z 07010KT 1 1/2SM -DZ BR BKN005 OVC012 18/16 A3024 RMK AO2 SFC VIS 4 SLP237 CIG 003V006 P0000 T01780161=
201511041348 SPECI KATL 041348Z 08009KT 1 1/2SM -DZ BR OVC005 18/17 A3024 RMK AO2 SFC VIS 4 CIG 003V006 P0000=
201511041329 SPECI KATL 041329Z 08008KT 1/2SM R09R/P6000FT -DZ BR OVC003 18/16 A3024 RMK AO2 SFC VIS 2 CIG 002V005 TWRINC P0000 T01780161=
201511041252 METAR KATL 041252Z 10006KT 1 1/4SM -DZ BR OVC004 17/16 A3022 RMK AO2 SFC VIS 4 SLP231 CIG 003V006 P0000 T01720161=
201511041152 METAR KATL 041152Z 08008KT 1 1/4SM -DZ BR OVC004 17/16 A3021 RMK AO2 SFC VIS 3 RAE16DZB16 SLP225 CIG 003V006 P0000 60000 T01720161 10178 20172 53012=
201511041052 METAR KATL 041052Z 08008KT 1 1/4SM -RA BR OVC004 17/16 A3020 RMK AO2 SFC VIS 3 DZE39RAB39 SLP221 CIG 003V005 PCPN VRY LGT P0000 T01720161=
201511041010 SPECI KATL 041010Z 07009KT 1 1/4SM -DZ BR OVC004 18/16 A3018 RMK AO2 SFC VIS 3 CIG 003V005 P0000 T01780161=
201511040952 METAR KATL 040952Z 08009KT 1 1/4SM -DZ BR OVC005 17/16 A3018 RMK AO2 SFC VIS 6 SLP215 CIG 003V006 P0000 T01720161=
201511040852 METAR KATL 040852Z 08007KT 1 1/4SM -DZ BR OVC004 17/16 A3017 RMK AO2 SFC VIS 2 1/2 SLP211 CIG 003V005 P0000 60000 T01720161 53001=
201511040752 METAR KATL 040752Z 09007KT 1 1/4SM -DZ BR OVC004 17/16 A3017 RMK AO2 SFC VIS 2 1/2 SLP211 CIG 003V005 P0000 T01720161=
201511040652 METAR KATL 040652Z 09008KT 1 1/4SM -DZ BR OVC004 17/16 A3016 RMK AO2 SFC VIS 2 1/2 SLP209 CIG 003V005 P0000 T01720161=
201511040552 METAR KATL 040552Z 09009KT 1 1/4SM -DZ BR OVC004 18/16 A3017 RMK AO2 SFC VIS 4 DZE05B44 SLP210 CIG 003V005 P0000 60000 T01780161 10183 20172 57001=
201511040452 METAR KATL 040452Z 09008KT 1 1/4SM -DZ BR OVC004 18/16 A3016 RMK AO2 SFC VIS 6 DZE28B49 SLP209 CIG 003V005 PCPN VRY LGT P0000 T01780161 402000172=
201511040352 METAR KATL 040352Z 08010KT 1 1/4SM -DZ BR OVC003 18/16 A3017 RMK AO2 SFC VIS 3 SLP212 CIG 002V005 P0000 T01780161=
201511040252 METAR KATL 040252Z 08011KT 1 1/4SM -DZ BR OVC004 18/16 A3017 RMK AO2 SFC VIS 2 1/2 SLP211 CIG 002V005 P0000 60000 T01780161 51009=
201511040152 METAR KATL 040152Z 09010KT 1 1/2SM -DZ BR OVC004 18/16 A3016 RMK AO2 SFC VIS 3 DZE23B43 SLP208 CIG 003V006 P0000 T01780161=
201511040052 METAR KATL 040052Z 07009KT 2SM -DZ BR OVC005 18/17 A3015 RMK AO2 SFC VIS 3 SLP205 CIG 003V007 P0000 T01780167=
201511032352 METAR KATL 032352Z 06012KT 2SM -DZ BR OVC004 18/16 A3014 RMK AO2 SFC VIS 3 SLP202 CIG 003V006 P0000 60000 T01780161 10200 20178 52014=
201511032324 SPECI KATL 032324Z 08009KT 2SM -DZ BR OVC005 18/17 A3014 RMK AO2 SFC VIS 3 CIG 004V007 P0000 T01780167=
201511032252 METAR KATL 032252Z 07009KT 1SM R09R/P6000FT -DZ BR OVC005 18/17 A3013 RMK AO2 SFC VIS 4 SLP197 CIG 003V007 PCPN VRY LGT P0000 T01830167=
201511032216 SPECI KATL 032216Z 07008KT 1 1/2SM -DZ BR OVC005 18/17 A3012 RMK AO2 SFC VIS 3 CIG 004V007 P0000 T01830167=
201511032154 SPECI KATL 032154Z 06009KT 3SM -DZ BR OVC006 18/17 A3011 RMK AO2 SFC VIS 4 P0000 T01830167=
201511032152 METAR KATL 032152Z 06009KT 4SM -DZ BR OVC006 18/17 A3011 RMK AO2 SLP192 P0000 T01830167=
201511032052 METAR KATL 032052Z 08010KT 5SM -DZ BR OVC008 19/17 A3010 RMK AO2 DZB51 SLP187 VIS LWR NE-SE P0000 60000 T01890167 55001=
201511031952 METAR KATL 031952Z 09009KT 9SM OVC007 19/17 A3009 RMK AO2 DZE17 SLP184 P0000 T01940167=
201511031852 METAR KATL 031852Z 08008KT 9SM -DZ OVC008 19/17 A3009 RMK AO2 DZB50 SLP185 P0000 T01940167=
201511031752 METAR KATL 031752Z 08008KT 9SM OVC008 20/17 A3010 RMK AO2 SLP187 60000 T02000172 10200 20183 58001=
201511031652 METAR KATL 031652Z 07008KT 9SM OVC007 19/17 A3011 RMK AO2 SLP191 T01940172=
201511031552 METAR KATL 031552Z 08010KT 9SM BKN007 BKN010 OVC015 20/18 A3012 RMK AO2 SLP192 T02000178=
201511031511 SPECI KATL 031511Z 08009KT 8SM OVC006 19/17 A3011 RMK AO2 T01890172=
201511031452 METAR KATL 031452Z 07009KT 1 1/2SM BR OVC005 19/17 A3011 RMK AO2 SFC VIS 5 DZE49 SLP189 P0000 60000 T01890172 51020=
201511031352 METAR KATL 031352Z 07010KT 1 1/4SM -DZ BR OVC004 18/17 A3010 RMK AO2 SFC VIS 1 1/2 DZB37 SLP185 P0000 T01830172=
201511031323 SPECI KATL 031323Z 06011KT 1 1/4SM BR OVC004 18/17 A3008 RMK AO2 SFC VIS 6 CIG 003V005 TWRINC T01830172=
201511031252 METAR KATL 031252Z 06010KT 1/2SM R09R/P6000FT BR OVC003 18/17 A3007 RMK AO2 SFC VIS 5 SLP175 TWRINC T01830172=
201511031152 METAR KATL 031152Z 08009KT 1/2SM R09R/P6000FT BR OVC003 18/17 A3005 RMK AO2 SFC VIS 5 DZE50 SLP168 TWRINC P0000 60000 70131 T01830172 10189 20183 53013=
201511031052 METAR KATL 031052Z 08008KT 1/2SM R09R/P6000FT -DZ BR OVC003 18/17 A3003 RMK AO2 SFC VIS 4 SLP163 P0000 T01830172=
201511030952 METAR KATL 030952Z 05009KT 1/2SM R09R/P6000FT -DZ BR OVC002 18/17 A3002 RMK AO2 SFC VIS 1 1/4 SLP158 P0000 T01830172=
201511030852 METAR KATL 030852Z 07007KT 1/2SM R09R/3500V4500FT -DZ FG VV002 18/17 A3001 RMK AO2 SLP154 P0000 60000 T01830172 53001=
201511030752 METAR KATL 030752Z 06006KT 1/2SM R09R/4000V4500FT -DZ BR VV002 18/17 A3000 RMK AO2 SFC VIS 3/4 SLP153 P0000 T01830172=
201511030652 METAR KATL 030652Z 05009KT 1/2SM R09R/6000VP6000FT -DZ BR OVC002 18/17 A3000 RMK AO2 SFC VIS 1 1/4 SLP152 P0000 T01830172=
201511030552 METAR KATL 030552Z 04008KT 1/2SM R09R/P6000FT -DZ BR OVC002 19/18 A3000 RMK AO2 SFC VIS 1 1/4 DZB48 SLP153 PCPN VRY LGT P0000 60000 T01890178 10211 20189 53005=
201511030452 METAR KATL 030452Z 08007KT 1/2SM R09R/P6000FT BR OVC002 19/18 A2999 RMK AO2 SFC VIS 1 1/2 SLP149 T01890178 402330172=
201511030352 METAR KATL 030352Z 07006KT 1/2SM R09R/P6000FT BR OVC002 19/18 A2999 RMK AO2 SFC VIS 1 1/2 SLP149 T01940183=
201511030252 METAR KATL 030252Z 08008KT 1/2SM R09R/P6000FT BR OVC003 19/18 A2998 RMK AO2 SFC VIS 2 SLP148 CIG 001V005 T01940183 51014=
201511030152 METAR KATL 030152Z 03007KT 1/2SM R09R/P6000FT BR OVC002 21/19 A2997 RMK AO2 SFC VIS 1 SLP144 T02060194=
201511030052 METAR KATL 030052Z 02007KT 1/2SM R09R/6000VP6000FT BR VV002 21/19 A2996 RMK AO2 SFC VIS 3/4 SLP140 T02110194=
201511022352 METAR KATL 022352Z 04007KT 1/2SM R09R/P6000FT BR BKN003 OVC020 22/20 A2994 RMK AO2 SFC VIS 2 1/2 SLP133 CIG 002V004 T02170200 10233 20194 53014=
201511022333 SPECI KATL 022333Z 03008KT 1/2SM R09R/P6000FT BR BKN003 BKN020 OVC035 22/20 A2994 RMK AO2 SFC VIS 5 T02220200=
201511022332 SPECI KATL 022332Z 03007KT 1 1/2SM BR BKN003 BKN020 OVC035 22/20 A2994 RMK AO2 SFC VIS 5 T02220200=
201511022312 SPECI KATL 022312Z 02006KT 6SM BR FEW003 BKN015 BKN035 22/20 A2993 RMK AO2 VIS LWR NE-SE T02170200=
201511022303 SPECI KATL 022303Z 36006KT 3SM BR SCT003 BKN012 BKN030 21/20 A2993 RMK AO2 SFC VIS 5 T02110200=
201511022252 METAR KATL 022252Z 33005KT 1 1/4SM BR SCT003 BKN012 OVC030 21/20 A2993 RMK AO2 SFC VIS 4 SLP127 SCT003 V BKN T02110200=
201511022246 SPECI KATL 022246Z 33005KT 1SM R09R/P6000FT BR BKN003 BKN012 OVC030 21/20 A2993 RMK AO2 SFC VIS 4=
201511022237 SPECI KATL 022237Z 34006KT 1SM R09R/P6000FT BR SCT002 BKN010 BKN030 21/20 A2992 RMK AO2 SFC VIS 4 T02110200=
201511022236 SPECI KATL 022236Z 34007KT 2SM BR SCT002 BKN010 BKN030 22/20 A2992 RMK AO2 SFC VIS 4 T02170200=
201511022228 SPECI KATL 022228Z 34006KT 3SM BR SCT002 BKN010 BKN020 22/20 A2992 RMK AO2 SFC VIS 4 T02170200=
201511022159 SPECI KATL 022159Z 32007KT 10SM BKN010 BKN015 OVC040 22/21 A2991 RMK AO2 T02220206=
201511022152 METAR KATL 022152Z 31009KT 8SM SCT012 BKN020 BKN040 23/21 A2991 RMK AO2 SLP122 T02280206=
201511022052 METAR KATL 022052Z 20006KT 8SM FEW010 BKN015 OVC020 23/21 A2990 RMK AO2 SLP118 T02330211 55005=
201511022024 SPECI KATL 022024Z 19008KT 7SM BKN009 BKN015 BKN020 23/21 A2989 RMK AO2 T02330211=
201511021952 METAR KATL 021952Z 18007KT 2 1/2SM BR BKN007 BKN009 OVC020 22/21 A2989 RMK AO2 SFC VIS 6 SLP116 T02220206=
201511021852 METAR KATL 021852Z 15005KT 2 1/2SM BR BKN005 BKN010 OVC020 21/19 A2989 RMK AO2 SFC VIS 6 SLP115 T02110194=
201511021752 METAR KATL 021752Z 13006KT 2 1/2SM BR BKN005 BKN008 OVC020 19/18 A2991 RMK AO2 SFC VIS 5 SLP124 60131 T01940183 10200 20178 58009=
201511021652 METAR KATL 021652Z 10007KT 2 1/2SM BR BKN005 BKN010 OVC020 19/18 A2994 RMK AO2 SFC VIS 5 RAE39 SLP133 P0005 T01890178=
201511021623 SPECI KATL 021623Z 11006KT 2 1/2SM -RA BR SCT005 BKN010 OVC020 18/17 A2995 RMK AO2 SFC VIS 5 P0005 T01830172=
201511021552 METAR KATL 021552Z 10008KT 1 1/2SM RA BR SCT004 BKN012 OVC050 18/17 A2996 RMK AO2 SFC VIS 4 SLP142 P0020 T01830172=
201511021452 METAR KATL 021452Z 08013G18KT 1 1/2SM RA BR SCT004 BKN023 OVC050 18/17 A2994 RMK AO2 SFC VIS 3 SLP135 P0033 60106 T01780167 55008=
201511021448 SPECI KATL 021448Z 08014G18KT 1 1/2SM RA BR SCT004 BKN025 OVC065 18/17 A2994 RMK AO2 SFC VIS 3 P0031=
201511021359 SPECI KATL 021359Z 08012KT 2 1/2SM RA BR SCT006 BKN042 OVC075 18/17 A2997 RMK AO2 SFC VIS 4 P0005 T01780167=
201511021352 METAR KATL 021352Z 08012KT 1 1/2SM +RA BR SCT006 BKN020 OVC060 18/16 A2997 RMK AO2 SFC VIS 4 SLP144 P0039 T01780161=
201511021316 SPECI KATL 021316Z 08010KT 1 1/2SM R09R/5000VP6000FT +RA BR BKN006 OVC014 18/16 A2997 RMK AO2 P0018 T01780161=
201511021252 METAR KATL 021252Z 07008KT 2SM RA BR BKN006 OVC027 18/16 A2997 RMK AO2 SFC VIS 4 TSE15 SLP144 CIG 004V008 TS MOV NE P0034 T01780161=
201511021215 SPECI KATL 021215Z 06009KT 2SM +RA BR BKN006 OVC010 18/16 A2995 RMK AO2 SFC VIS 3 TSE15 TS MOV NE P0013 T01780161=
201511021152 METAR KATL 021152Z 07009KT 2SM +TSRA BR BKN006 OVC013CB 18/16 A2993 RMK AO2 TSB22 SLP131 OCNL LTGIC NE-SE-SW TS NE-SE-SW MOV NE P0026 60119 70160 T01780161 10178 20172 53005=
201511021123 SPECI KATL 021123Z 05010KT 2SM -TSRA BR BKN006 OVC023CB 18/16 A2992 RMK AO2 SFC VIS 5 TSB22 OCNL LTGICCG S-SW TS VC S-SW MOV NE P0009 T01780161=
201511021052 METAR KATL 021052Z 05014KT 2SM R09R/5000VP6000FT +RA BR BKN006 BKN016 OVC021 18/16 A2992 RMK AO2 SLP127 P0053 T01780161=
201511021042 SPECI KATL 021042Z 04009KT 1SM R09R/5000VP6000FT +RA BR BKN006 BKN012 OVC018 18/16 A2993 RMK AO2 TWR VIS 2 P0046 T01780161=
201511021019 SPECI KATL 021019Z 02009KT 2SM +RA BR BKN004 BKN008 OVC013 18/16 A2992 RMK AO2 P0031 T01780161=
201511021005 SPECI KATL 021005Z 02008KT 1 1/2SM R09R/6000VP6000FT +RA BR OVC004 18/16 A2992 RMK AO2 TWR VIS 2 P0009 T01780161=
201511020952 METAR KATL 020952Z 03010KT 2SM -RA BR OVC004 18/16 A2992 RMK AO2 SFC VIS 4 SLP129 P0009 T01780161=
201511020932 SPECI KATL 020932Z 06007KT 2SM -RA BR BKN004 OVC009 18/17 A2992 RMK AO2 SFC VIS 5 P0009 T01780167=
201511020852 METAR KATL 020852Z 08009KT 2SM RA BR BKN005 OVC015 17/16 A2992 RMK AO2 SFC VIS 3 SLP126 P0021 60031 T01720161 57015=
201511020752 METAR KATL 020752Z VRB03KT 2SM -RA BR BKN006 OVC012 17/16 A2993 RMK AO2 SFC VIS 5 SLP130 CIG 004V008 P0006 T01720161=
201511020652 METAR KATL 020652Z 09009KT 2SM -RA BR BKN006 OVC013 18/16 A2995 RMK AO2 SFC VIS 5 DZB21E28 SLP136 CIG 004V008 P0004 T01780161=
201511020552 METAR KATL 020552Z 10008KT 2SM -RA BR BKN006 OVC012 18/16 A2996 RMK AO2 SFC VIS 4 DZE10RAB10 SLP141 CIG 004V008 P0012 60025 T01780161 10178 20172 58014=
201511020452 METAR KATL 020452Z 10009KT 2SM -DZ OVC006 18/16 A2998 RMK AO2 SFC VIS 8 RAE32DZB46 SLP149 CIG 004V008 P0001 T01780161 401830139=
201511020352 METAR KATL 020352Z 08009KT 2SM -RA OVC004 17/16 A3000 RMK AO2 SFC VIS 8 SLP153 P0002 T01720161=
201511020332 SPECI KATL 020332Z 07011KT 2SM -RA BR OVC004 17/16 A3000 RMK AO2 SFC VIS 6 P0001 T01720161=
201511020252 METAR KATL 020252Z 08011KT 2SM -RA BR BKN005 BKN014 OVC050 17/16 A3000 RMK AO2 SFC VIS 6 SLP156 P0001 60010 T01720161 58011=
201511020152 METAR KATL 020152Z 08007KT 2SM -RA BR BKN005 BKN015 OVC055 17/16 A3003 RMK AO2 SFC VIS 6 SLP165 P0005 T01720161=
201511020149 SPECI KATL 020149Z 09008KT 2SM -RA BR BKN005 BKN015 OVC065 17/16 A3003 RMK AO2 SFC VIS 6 P0005=
201511020052 METAR KATL 020052Z 08008KT 2SM -RA BR SCT004 BKN016 BKN080 OVC130 18/16 A3003 RMK AO2 SFC VIS 6 SLP165 P0004 T01780161=
201511020028 SPECI KATL 020028Z 05007KT 2SM -RA BR SCT006 BKN075 OVC110 17/16 A3003 RMK AO2 SFC VIS 5 P0004 T01720161=
201511012352 METAR KATL 012352Z 05007KT 2SM -RA BR BKN006 BKN018 OVC065 18/16 A3004 RMK AO2 SFC VIS 3 SLP168 CIG 004V008 P0006 60016 T01780161 10183 20178 53009=
201511012252 METAR KATL 012252Z 06008KT 2SM -RA BR BKN005 BKN028 OVC085 18/16 A3000 RMK AO2 SFC VIS 4 SLP156 P0004 T01780161=
201511012152 METAR KATL 012152Z 07007KT 2SM -RA BR BKN008 OVC012 18/17 A3001 RMK AO2 SFC VIS 4 SLP160 P0004 T01780167=
201511012123 SPECI KATL 012123Z 12004KT 2SM -RA BR OVC008 18/17 A3002 RMK AO2 SFC VIS 3 P0002 T01830167=
201511012052 METAR KATL 012052Z 02006KT 6SM -RA BR BKN007 BKN015 OVC070 18/17 A3001 RMK AO2 SLP159 P0002 60002 T01830167 53004=
201511011952 METAR KATL 011952Z 06003KT 7SM -RA OVC006 18/17 A3000 RMK AO2 RAE1859B24 SLP155 P0000 T01830167=
201511011852 METAR KATL 011852Z 06007KT 6SM -RA BR OVC006 18/16 A2998 RMK AO2 RAE05B23 SLP148 P0000 T01830161=
201511011752 METAR KATL 011752Z 08007KT 7SM -RA OVC006 18/16 A3000 RMK AO2 RAB43 SLP155 P0000 60000 T01780161 10178 20150 58009=
201511011652 METAR KATL 011652Z 08006KT 10SM OVC006 18/16 A3002 RMK AO2 SLP162 T01780156=
201511011552 METAR KATL 011552Z 10006KT 3SM OVC005 17/16 A3002 RMK AO2 SFC VIS 7 DZE1456 SLP163 P0000 T01720156=
201511011452 METAR KATL 011452Z 05008KT 1 1/4SM -DZ BR OVC008 17/15 A3003 RMK AO2 SFC VIS 3 DZB00 SLP166 P0000 60000 T01670150 50026=
201511011445 SPECI KATL 011445Z 04008KT 1 1/4SM -DZ BR OVC005 17/15 A3003 RMK AO2 SFC VIS 2 1/2 DZB00 P0000 T01670150=
201511011352 METAR KATL 011352Z 35009KT 2SM BR OVC005 16/14 A3003 RMK AO2 SFC VIS 5 SLP167 CIG 004V006 T01610144=
201511011252 METAR KATL 011252Z 05009KT 3/4SM R09R/P6000FT BR OVC004 15/14 A3000 RMK AO2 SFC VIS 5 SLP156 CIG 003V005 TWRINC T01500139=
201511011235 SPECI KATL 011235Z 07009KT 3/4SM R09R/P6000FT BR OVC004 15/14 A2999 RMK AO2 SFC VIS 5 CIG 003V005 TWRINC T01500139=
201511011207 SPECI KATL 011207Z 11008KT 1 1/4SM BR OVC004 15/13 A2996 RMK AO2 SFC VIS 6 T01500133=
