##########################################################
# Query made at 04/19/2024 23:43:44 UTC
# Time interval: from 05/01/2015 12:00  to 05/31/2015 12:59  UTC
##########################################################

##########################################################
# KATL, Atlanta, Hartsfield - Jackson Atlanta International Airport (United States)
# WMO index: 72219. WIGOS ID: 0-20000-0-72219
# Latitude 33-38-59N. Longitude 084-25-00W. Altitude 312 m.
##########################################################

201505311252 METAR KATL 311252Z 17006KT 10SM FEW012 SCT060 SCT250 23/20 A3010 RMK AO2 SLP183 T02330200=
201505311152 METAR KATL 311152Z 16003KT 10SM FEW060 SCT250 22/19 A3010 RMK AO2 SLP183 T02170194 10228 20206 51008=
201505311052 METAR KATL 311052Z 12003KT 10SM FEW009 SCT060 SCT250 21/19 A3010 RMK AO2 SLP182 T02110189=
201505310952 METAR KATL 310952Z 15004KT 10SM FEW009 SCT060 21/18 A3008 RMK AO2 SLP178 T02060183=
201505310949 SPECI KATL 310949Z 15003KT 10SM FEW009 SCT060 21/18 A3008 RMK AO2=
201505310852 METAR KATL 310852Z 16003KT 10SM FEW060 21/18 A3008 RMK AO2 SLP175 T02060183 55003=
201505310752 METAR KATL 310752Z 19004KT 10SM FEW060 21/18 A3007 RMK AO2 SLP174 T02110183=
201505310652 METAR KATL 310652Z 18004KT 10SM FEW060 22/18 A3007 RMK AO2 SLP174 T02170183=
201505310552 METAR KATL 310552Z 19004KT 10SM BKN055 23/18 A3009 RMK AO2 SLP177 T02280183 10283 20228 58002=
201505310452 METAR KATL 310452Z 15003KT 10SM FEW055 SCT250 23/18 A3009 RMK AO2 SLP179 T02330178 402940194=
201505310352 METAR KATL 310352Z 16003KT 10SM FEW200 SCT250 24/17 A3009 RMK AO2 SLP180 T02390172=
201505310252 METAR KATL 310252Z 00000KT 10SM SCT200 SCT250 24/17 A3009 RMK AO2 SLP180 T02440172 53004=
201505310152 METAR KATL 310152Z 12003KT 10SM FEW080 SCT200 SCT250 26/17 A3008 RMK AO2 SLP174 T02610167=
201505310052 METAR KATL 310052Z 15003KT 10SM FEW050 SCT080 SCT200 SCT250 26/17 A3007 RMK AO2 SLP174 TCU DSNT N & E ACC N T02610167=
201505302352 METAR KATL 302352Z 15007KT 10SM FEW050 SCT085 SCT250 28/16 A3008 RMK AO2 SLP176 TCU DSNT NW-N T02830156 10294 20278 55005=
201505302252 METAR KATL 302252Z 17007KT 10SM FEW048 SCT085 SCT250 29/16 A3007 RMK AO2 SLP173 TCU DSNT NW-NE T02890161=
201505302152 METAR KATL 302152Z 17007KT 10SM FEW046 SCT080 SCT250 28/17 A3008 RMK AO2 SLP177 TCU DSNT N-E-SE & SW-NW T02830167=
201505302052 METAR KATL 302052Z 12010G15KT 10SM FEW047 SCT070 SCT250 29/17 A3009 RMK AO2 SLP181 T02940167 58019=
201505301952 METAR KATL 301952Z 19009KT 10SM SCT047 SCT070 29/17 A3012 RMK AO2 SLP190 T02890167=
201505301852 METAR KATL 301852Z 14005KT 10SM SCT048 BKN075 BKN250 28/16 A3014 RMK AO2 SLP196 T02830161=
201505301752 METAR KATL 301752Z 14008KT 10SM FEW046 BKN055 BKN250 29/17 A3015 RMK AO2 SLP201 T02890172 10289 20206 58012=
201505301652 SPECI KATL 301652Z 12007KT 10SM FEW037 BKN065 BKN250 28/18 A3017 RMK AO2 SLP205 T02780178=
201505301652 METAR KATL 301652Z 12007KT 10SM FEW037 BKN065 BKN250 28/18 A3017 RMK AO2 SLP205 T02780178=
201505301552 METAR KATL 301552Z 00000KT 10SM SCT029 BKN055 BKN250 26/18 A3018 RMK AO2 SLP211 T02610183=
201505301452 METAR KATL 301452Z 13004KT 10SM FEW025 SCT060 SCT250 26/18 A3019 RMK AO2 SLP214 T02560183 51003=
201505301352 METAR KATL 301352Z 20005KT 10SM FEW015 SCT060 SCT250 23/18 A3019 RMK AO2 SLP213 T02330183=
201505301252 METAR KATL 301252Z 17008KT 10SM FEW060 22/18 A3019 RMK AO2 SLP215 T02220183=
201505301152 METAR KATL 301152Z 00000KT 10SM FEW060 21/17 A3018 RMK AO2 SLP211 T02060172 10217 20194 51013=
201505301052 METAR KATL 301052Z 12004KT 10SM SCT060 19/16 A3018 RMK AO2 SLP209 T01940161=
201505300952 METAR KATL 300952Z 11004KT 10SM FEW050 20/16 A3016 RMK AO2 SLP203 T02000156=
201505300852 METAR KATL 300852Z 12003KT 10SM CLR 21/16 A3014 RMK AO2 SLP197 T02060156 55002=
201505300752 METAR KATL 300752Z 00000KT 10SM FEW250 21/16 A3014 RMK AO2 SLP197 T02060156=
201505300652 METAR KATL 300652Z 10003KT 10SM FEW250 21/16 A3014 RMK AO2 SLP198 T02060156=
201505300552 METAR KATL 300552Z 00000KT 10SM FEW250 21/16 A3015 RMK AO2 SLP201 T02110156 10272 20211 58005=
201505300452 METAR KATL 300452Z 00000KT 10SM SCT250 22/16 A3016 RMK AO2 SLP205 T02170156 402890194=
201505300352 METAR KATL 300352Z 00000KT 10SM SCT250 23/16 A3017 RMK AO2 SLP206 T02280161=
201505300252 METAR KATL 300252Z 00000KT 10SM SCT250 23/16 A3016 RMK AO2 SLP205 T02330161 53009=
201505300152 METAR KATL 300152Z 14003KT 10SM SCT250 24/17 A3015 RMK AO2 SLP202 T02440167=
201505300052 METAR KATL 300052Z 14004KT 10SM FEW045 SCT250 26/16 A3014 RMK AO2 SLP199 T02560161=
201505292352 METAR KATL 292352Z 15006KT 10SM FEW045 SCT250 27/16 A3014 RMK AO2 SLP196 T02720161 10289 20272 55006=
201505292252 METAR KATL 292252Z 12008KT 10SM FEW045 SCT250 28/16 A3013 RMK AO2 SLP194 T02830161=
201505292152 METAR KATL 292152Z 11008KT 10SM FEW045 SCT250 28/17 A3015 RMK AO2 SLP199 T02830167=
201505292052 METAR KATL 292052Z 12009G14KT 090V150 10SM FEW044 SCT080 BKN250 29/17 A3016 RMK AO2 SLP203 T02890172 56022=
201505291952 METAR KATL 291952Z 13006KT 10SM SCT044 BKN250 28/18 A3018 RMK AO2 SLP210 T02830178=
201505291852 METAR KATL 291852Z 08010G15KT 10SM SCT040 BKN250 28/17 A3020 RMK AO2 SLP217 T02780172=
201505291752 METAR KATL 291752Z 12008KT 10SM BKN036 BKN250 27/18 A3022 RMK AO2 SLP225 T02720178 10272 20194 58005=
201505291652 METAR KATL 291652Z 17004KT 10SM FEW030 SCT055 BKN250 26/18 A3024 RMK AO2 SLP231 T02610178=
201505291552 METAR KATL 291552Z 13005KT 10SM FEW030 BKN055 BKN250 26/18 A3025 RMK AO2 SLP234 T02560178=
201505291452 METAR KATL 291452Z VRB04KT 10SM FEW025 SCT055 BKN250 24/18 A3024 RMK AO2 SLP232 T02390183 51012=
201505291352 METAR KATL 291352Z VRB04KT 10SM FEW015 SCT055 BKN250 23/18 A3024 RMK AO2 SLP231 T02280183=
201505291252 METAR KATL 291252Z 12005KT 10SM SCT005 SCT200 BKN250 21/18 A3022 RMK AO2 SLP227 T02110178=
201505291225 SPECI KATL 291225Z 10005KT 8SM BKN005 BKN250 20/18 A3021 RMK AO2 CIG 003V007=
201505291214 SPECI KATL 291214Z 10003KT 3SM BKN005 BKN250 20/18 A3021 RMK AO2 SFC VIS 7 CIG 003V007=
201505291156 SPECI KATL 291156Z 11006KT 2SM BR BKN004 BKN250 19/18 A3020 RMK AO2 SFC VIS 6 CIG 003V005=
201505291152 METAR KATL 291152Z 12004KT 1/2SM BR BKN004 BKN250 20/18 A3020 RMK AO2 SFC VIS 5 SLP220 CIG 003V005 TWRINC 70046 T02000183 10211 20194 53015=
201505291113 SPECI KATL 291113Z 10003KT 1/2SM BR BKN004 BKN250 19/18 A3019 RMK AO2 SFC VIS 4 CIG 003V005 TWRINC=
201505291052 METAR KATL 291052Z 00000KT 2SM BR BKN004 BKN250 19/18 A3018 RMK AO2 SFC VIS 5 SLP215 CIG 003V005 TWRINC T01940178=
201505291043 SPECI KATL 291043Z 12003KT 2SM BR BKN004 BKN250 19/18 A3018 RMK AO2 SFC VIS 5 CIG 003V005 TWRINC=
201505290952 METAR KATL 290952Z 11003KT 7SM BKN004 BKN250 19/18 A3017 RMK AO2 SLP210 CIG 003V006 T01940183=
201505290926 SPECI KATL 290926Z 11003KT 6SM BR BKN004 BKN250 20/18 A3017 RMK AO2 CIG 003V006=
201505290852 METAR KATL 290852Z 11007KT 1SM BR OVC004 20/18 A3016 RMK AO2 SFC VIS 6 SLP205 CIG 003V005 TWRINC T02000183 55005=
201505290842 SPECI KATL 290842Z 13006KT 1SM BR OVC004 20/18 A3015 RMK AO2 SFC VIS 6 CIG 003V005 TWRINC=
201505290838 SPECI KATL 290838Z 13006KT 6SM BR OVC004 20/18 A3015 RMK AO2 CIG 003V005=
201505290811 SPECI KATL 290811Z 11004KT 8SM BKN005 BKN250 19/18 A3014 RMK AO2=
201505290752 METAR KATL 290752Z 09004KT 10SM SCT005 SCT250 19/18 A3014 RMK AO2 SLP201 T01940178=
201505290652 METAR KATL 290652Z 10006KT 10SM FEW005 SCT250 20/18 A3015 RMK AO2 SLP203 T02000183=
201505290620 SPECI KATL 290620Z 10005KT 10SM SCT005 SCT200 SCT250 20/19 A3016 RMK AO2=
201505290552 METAR KATL 290552Z 00000KT 8SM BKN005 BKN150 BKN200 BKN250 21/19 A3017 RMK AO2 SLP208 CIG 004V006 60002 T02110189 10217 20206 58015=
201505290539 SPECI KATL 290539Z 00000KT 10SM FEW006 SCT150 BKN200 BKN250 21/19 A3017 RMK AO2=
201505290452 METAR KATL 290452Z 06005KT 10SM FEW150 BKN250 21/19 A3019 RMK AO2 SLP215 T02110189 402720194=
201505290352 METAR KATL 290352Z 00000KT 10SM BKN130 OVC200 22/19 A3021 RMK AO2 RAE10 SLP220 P0000 T02170189=
201505290252 METAR KATL 290252Z 08005KT 10SM -RA FEW090 BKN120 OVC150 21/19 A3022 RMK AO2 SLP224 P0000 60002 T02110189 53008=
201505290152 METAR KATL 290152Z 11003KT 10SM -RA BKN120 OVC150 21/18 A3020 RMK AO2 RAE16B36 SLP221 P0001 T02110183=
201505290052 METAR KATL 290052Z 00000KT 9SM -RA FEW090 BKN110 OVC150 21/19 A3019 RMK AO2 SLP217 P0001 T02110189=
201505282352 METAR KATL 282352Z 00000KT 9SM -RA FEW090 BKN120 OVC150 22/19 A3019 RMK AO2 SLP217 P0001 60044 T02170189 10261 20200 53004=
201505282252 METAR KATL 282252Z 11006KT 9SM -RA FEW015 SCT050 BKN080 OVC150 22/19 A3017 RMK AO2 RAB2156 SLP209 VIS LWR NE P0001 T02170189=
201505282210 SPECI KATL 282210Z 09010KT 10SM -RA FEW007 SCT015CB BKN060 OVC150 22/19 A3019 RMK AO2 RAB2156 CB VC NE-SE MOV NW P0000=
201505282152 METAR KATL 282152Z 00000KT 10SM FEW015 SCT060 BKN120 OVC150 22/19 A3018 RMK AO2 RAE14 SLP214 CB DSNT E-SE P0000 T02220189=
201505282052 METAR KATL 282052Z 08004KT 10SM -RA FEW015 SCT070 BKN100 OVC150 22/19 A3018 RMK AO2 SLP212 CB DSNT E P0002 60042 T02220194 58008=
201505281952 METAR KATL 281952Z 00000KT 7SM -RA FEW070 BKN100 OVC120 21/18 A3018 RMK AO2 TSE27 SLP214 P0020 T02060178=
201505281927 SPECI KATL 281927Z 00000KT 6SM -RA BR FEW020 SCT070 OVC100 20/18 A3017 RMK AO2 TSE27 P0015=
201505281921 SPECI KATL 281921Z 00000KT 6SM -TSRA BR FEW020CB BKN050 OVC100 20/18 A3018 RMK AO2 FRQ LTGICCG N-NE TS VC N-NE MOV N P0015=
201505281908 SPECI KATL 281908Z 10004KT 4SM -TSRA BR FEW020CB BKN050 OVC095 20/18 A3019 RMK AO2 FRQ LTGICCG N-NE-E TS N-NE-E MOV N P0012=
201505281903 SPECI KATL 281903Z 11006KT 2SM +TSRA BKN020CB BKN050 OVC070 20/17 A3020 RMK AO2 FRQ LTGICCG OHD-N-NE-E TS OHD-N-NE-E MOV N P0010=
201505281858 SPECI KATL 281858Z 13006KT 3SM R09R/6000VP6000FT +TSRA FEW008 BKN020CB OVC070 21/17 A3021 RMK AO2 FRQ LTGICCG OHD TS OHD MOV N P0009=
201505281854 SPECI KATL 281854Z 14008KT 1 3/4SM R09R/6000VP6000FT +TSRA FEW008 BKN038 OVC060 21/18 A3021 RMK AO2 P0004=
201505281852 METAR KATL 281852Z 15007KT 3SM R09R/6000VP6000FT +TSRA FEW008 BKN020CB OVC070 21/18 A3021 RMK AO2 TSB01 SLP224 OCNL LTGICCG OHD-NE-SE-S TS OHD-NE-SE-S MOV N P0020 T02060178=
201505281847 SPECI KATL 281847Z 17008KT 5SM -TSRA FEW008 BKN020CB OVC070 21/18 A3020 RMK AO2 TSB01 VIS LWR NE-E-SE-S SHRA OCNL LTGICCG NE-E-SE-S TS NE-E-SE-S MOV N P0015=
201505281817 SPECI KATL 281817Z 24008KT 9SM -TSRA FEW020CB BKN080 BKN110 BKN250 24/20 A3019 RMK AO2 TSB01 VIS LWR SE-S SHRA OCNL LTGICCG SE-S TS VC SE-S MOV N P0011=
201505281803 SPECI KATL 281803Z 00000KT 8SM R09R/5500VP6000FT -TSRA SCT020CB BKN070 BKN110 BKN250 24/19 A3019 RMK AO2 TSB01 VIS LWR SE-S-SW-W SHRA OCNL LTGIC SE-S-SW-W TS VC SE-S-SW-W MOV N P0006=
201505281801 SPECI KATL 281801Z 24003KT 9SM R09R/5500VP6000FT -TSRA SCT020CB BKN070 BKN110 BKN250 24/19 A3020 RMK AO2 TSB01 OCNL LTGIC SE-S-SW-W TS VC SE-S-SW-W MOV N SHRA VC SE-S-SW-W P0004=
201505281752 METAR KATL 281752Z 15005KT 10SM -RA FEW030CB BKN060 BKN110 BKN250 26/19 A3020 RMK AO2 RAB51 SLP219 VIS LWR SW SHRA CB OHD-SW MOV N CB DSNT SE-S-SW-W-NW CB DSNT N TCU DSNT ALQDS P0000 60000 T02610189 10272 20200 58010=
201505281652 METAR KATL 281652Z 11004KT 10SM FEW030 SCT110 SCT250 27/19 A3022 RMK AO2 SLP223 CB DSNT S-SW TCU DSNT E & DSNT NW T02670194=
201505281552 METAR KATL 281552Z 15006KT 10SM FEW020 SCT060 BKN110 BKN250 26/19 A3023 RMK AO2 SLP227 TCU DSNT SE-S-SW T02560189=
201505281452 METAR KATL 281452Z 12007KT 10SM FEW020 SCT110 SCT150 BKN250 24/19 A3023 RMK AO2 SLP228 ACC DSNT E T02440189 51006=
201505281352 METAR KATL 281352Z 11008KT 10SM FEW020 BKN110 BKN150 BKN250 22/18 A3023 RMK AO2 SLP229 T02220183=
201505281252 METAR KATL 281252Z 10005KT 10SM FEW006 SCT110 BKN200 BKN250 21/18 A3023 RMK AO2 SLP227 ACC OHD & SW-NW T02060178=
201505281152 METAR KATL 281152Z 09005KT 10SM FEW006 SCT100 BKN200 BKN250 20/18 A3021 RMK AO2 SLP222 ACC W-N 60006 70057 T02000178 10200 20194 53018=
201505281052 METAR KATL 281052Z 13004KT 10SM FEW004 SCT110 BKN200 BKN250 19/18 A3020 RMK AO2 SLP216 T01940178=
201505280952 METAR KATL 280952Z 12004KT 10SM FEW110 BKN200 BKN250 19/18 A3018 RMK AO2 SLP209 T01940178=
201505280852 METAR KATL 280852Z 12005KT 10SM FEW075 SCT110 BKN200 OVC250 19/18 A3016 RMK AO2 SLP204 60006 T01940178 56021 $=
201505280752 METAR KATL 280752Z 09006KT 10SM FEW004 SCT075 SCT110 BKN200 19/18 A3016 RMK AO2 SLP206 T01940178 $=
201505280652 METAR KATL 280652Z 07007KT 10SM FEW005 SCT075 SCT110 BKN200 19/17 A3020 RMK AO2 TSE29RAE21 SLP217 TS DSIPTD P0006 T01940172 $=
201505280630 SPECI KATL 280630Z 03005KT 10SM SCT005 BKN070 BKN110 OVC200 19/18 A3021 RMK AO2 TSE29RAE21 TS DSIPTD P0006 $=
201505280552 METAR KATL 280552Z 33006KT 6SM -TSRA BR FEW008 SCT044CB OVC100 19/18 A3022 RMK AO2 SLP227 OCNL LTGICCA OHD-ALQDS TS OHD-ALQDS MOV N P0008 60051 T01940178 10267 20194 50000 $=
201505280528 SPECI KATL 280528Z 32009KT 5SM -TSRA BR FEW008 BKN038CB OVC100 19/18 A3024 RMK AO2 OCNL LTGICCA OHD-ALQDS TS OHD-ALQDS MOV NE P0005 $=
201505280452 METAR KATL 280452Z 31008KT 4SM TSRA BR SCT008 BKN015CB OVC060 19/18 A3026 RMK AO2 PK WND 31034/0411 WSHFT 0404 TSB11RAB18 SLP239 OCNL LTGICCG NE & VC SE-SW TS NE & VC SE-SW MOV NE P0043 T01940178 402830189 $=
201505280442 SPECI KATL 280442Z 33008G20KT 4SM TSRA BR SCT010 BKN020CB OVC060 19/18 A3026 RMK AO2 PK WND 31034/0411 WSHFT 0404 TSB11RAB18 OCNL LTGICCG NE-SE TS NE-SE MOV NE P0036 $=
201505280428 SPECI KATL 280428Z 32020G29KT 1 3/4SM R09R/4000VP6000FT -TSRA FEW012 BKN020CB BKN040 OVC150 21/18 A3025 RMK AO2 PK WND 31034/0411 WSHFT 0404 TSB11RAB18 FRQ LTGICCG N-NE & SW-NW TS N-NE & SW-NW MOV NE P0003 $=
201505280421 SPECI KATL 280421Z 29023G33KT 10SM -TSRA FEW012 BKN020CB BKN040 OVC150 22/17 A3025 RMK AO2 PK WND 31034/0411 WSHFT 0404 TSB11RAB18 FRQ LTGICCG SW-NW TS SW-NW MOV NE P0000 $=
201505280411 SPECI KATL 280411Z 31030G33KT 10SM TS FEW012 SCT020CB BKN040 OVC150 23/17 A3023 RMK AO2 PK WND 31034/0411 TSB11 FRQ LTGICCG VC SW-NW TS VC SW-NW MOV NE=
201505280352 METAR KATL 280352Z 07003KT 10SM BKN060 BKN100 OVC200 25/18 A3022 RMK AO2 SLP226 OCNL LTG DSNT SW-NW T02500183=
201505280252 METAR KATL 280252Z 00000KT 10SM BKN090 BKN200 OVC250 25/19 A3022 RMK AO2 SLP226 T02500189 53014=
201505280152 METAR KATL 280152Z 00000KT 10SM FEW100 SCT200 OVC250 25/18 A3020 RMK AO2 SLP219 T02500183=
201505280052 METAR KATL 280052Z 00000KT 10SM FEW150 BKN250 26/18 A3018 RMK AO2 SLP211 T02560183=
201505272352 METAR KATL 272352Z 17004KT 10SM FEW040 BKN250 27/18 A3018 RMK AO2 SLP211 T02670183 10283 20256 55002=
201505272252 METAR KATL 272252Z 14006KT 10SM FEW040 BKN250 28/18 A3015 RMK AO2 SLP201 TCU DSNT NW-N T02780178=
201505272152 METAR KATL 272152Z 16009KT 10SM SCT040TCU BKN250 28/19 A3017 RMK AO2 SLP207 TCU W-NW T02780189=
201505272052 METAR KATL 272052Z 19006KT 10SM SCT040TCU BKN250 28/18 A3019 RMK AO2 SLP213 CB DSNT SW TCU W-NW-N TCU DSNT NE T02780183 56018=
201505271952 METAR KATL 271952Z VRB03KT 10SM SCT043TCU SCT250 27/18 A3020 RMK AO2 SLP217 TCU S & NW-N T02720178=
201505271852 METAR KATL 271852Z 16003KT 10SM FEW030 SCT040 BKN250 27/19 A3022 RMK AO2 SLP224 MDT CU ALQDS T02720189=
201505271752 METAR KATL 271752Z 00000KT 10SM SCT030 BKN040 BKN250 26/19 A3024 RMK AO2 SLP233 T02610194 10267 20200 58003=
201505271652 METAR KATL 271652Z 26003KT 10SM FEW023 BKN032 BKN250 25/19 A3026 RMK AO2 SLP239 T02500189=
201505271552 METAR KATL 271552Z 18004KT 10SM FEW020 BKN030 BKN250 24/18 A3026 RMK AO2 SLP240 T02390183=
201505271459 SPECI KATL 271459Z 17004KT 10SM BKN016 BKN030 BKN250 23/18 A3025 RMK AO2=
201505271452 METAR KATL 271452Z 00000KT 10SM BKN014 BKN030 BKN250 23/18 A3025 RMK AO2 SLP236 T02280183 58002=
201505271352 METAR KATL 271352Z 00000KT 10SM SCT010 BKN028 BKN250 23/19 A3026 RMK AO2 SLP239 T02280189=
201505271312 SPECI KATL 271312Z 24004KT 10SM FEW010 BKN030 BKN250 22/19 A3025 RMK AO2=
201505271252 METAR KATL 271252Z COR 00000KT 10SM FEW009 SCT030 SCT150 BKN250 22/18 A3025 RMK AO2 SLP239 T02170183=
201505271213 SPECI KATL 271213Z 00000KT 8SM SCT009 SCT028 SCT150 BKN250 20/18 A3025 RMK AO2=
201505271152 METAR KATL 271152Z 00000KT 7SM BKN009 BKN028 20/18 A3026 RMK AO2 SLP240 70108 T02000178 10200 20189 53018=
201505271052 METAR KATL 271052Z 00000KT 7SM BKN009 OVC028 19/18 A3024 RMK AO2 SLP235 T01940178=
201505270952 METAR KATL 270952Z 00000KT 7SM BKN009 19/18 A3021 RMK AO2 SLP225 T01940178=
201505270852 METAR KATL 270852Z 00000KT 8SM OVC006 19/18 A3020 RMK AO2 SLP221 CIG 004V008 T01940178 55006=
201505270810 SPECI KATL 270810Z 00000KT 8SM BKN006 OVC028 19/18 A3020 RMK AO2=
201505270752 METAR KATL 270752Z 00000KT 7SM BKN004 19/18 A3020 RMK AO2 SLP220 T01940178=
201505270652 METAR KATL 270652Z COR 00000KT 7SM OVC004 19/18 A3020 RMK AO2 SLP218 T01890178=
201505270552 METAR KATL 270552Z 17003KT 8SM BKN004 BKN250 19/18 A3022 RMK AO2 SLP225 60000 T01940178 10200 20189 58003=
201505270541 SPECI KATL 270541Z 00000KT 8SM BKN004 BKN250 19/18 A3023 RMK AO2=
201505270516 SPECI KATL 270516Z 13003KT 10SM BKN005 BKN250 19/18 A3023 RMK AO2=
201505270452 METAR KATL 270452Z 00000KT 10SM FEW004 BKN250 19/17 A3022 RMK AO2 SLP227 T01890172 402890189=
201505270352 METAR KATL 270352Z 18003KT 10SM FEW004 SCT150 BKN250 19/18 A3023 RMK AO2 SLP229 T01940178=
201505270326 SPECI KATL 270326Z 18003KT 10SM FEW004 BKN120 BKN200 BKN250 19/18 A3024 RMK AO2=
201505270252 METAR KATL 270252Z 18003KT 10SM BKN120 BKN200 BKN250 19/18 A3023 RMK AO2 SLP230 60000 T01940178 53008=
201505270152 METAR KATL 270152Z 00000KT 10SM FEW004 SCT130 BKN200 OVC250 19/18 A3020 RMK AO2 SLP220 T01940178=
201505270052 METAR KATL 270052Z 13005KT 10SM FEW004 SCT120 BKN200 BKN250 19/18 A3018 RMK AO2 RAE14 SLP214 P0000 T01940183=
201505262352 METAR KATL 262352Z 00000KT 10SM -RA FEW005 BKN120 BKN150 OVC200 20/18 A3021 RMK AO2 SLP221 P0002 60108 T02000178 10289 20194 55007 $=
201505262252 METAR KATL 262252Z 14005KT 8SM -RA FEW005 SCT090 BKN120 OVC150 19/18 A3019 RMK AO2 TSE34 SLP218 P0011 T01940178 $=
201505262234 SPECI KATL 262234Z 13006KT 7SM -RA FEW005 SCT040 BKN100 OVC150 19/18 A3021 RMK AO2 TSE34 TS DSIPTD P0009 $=
201505262152 METAR KATL 262152Z 17007KT 3SM TSRA BR FEW005 SCT025CB BKN070 OVC150 19/18 A3023 RMK AO2 SFC VIS 4 SLP231 OCNL LTGIC ALQDS TS ALQDS MOV NE P0044 T01940178 $=
201505262109 SPECI KATL 262109Z 21005KT 3SM TSRA BR FEW009 SCT025CB BKN055 OVC130 19/18 A3022 RMK AO2 OCNL LTGICCG N-NE TS N-NE MOV NE P0032 $=
201505262106 SPECI KATL 262106Z VRB05KT 1SM R09R/5000VP6000FT TSRA BR FEW009 BKN027CB OVC055 19/18 A3022 RMK AO2 SFC VIS 1 1/2 FRQ LTGICCG OHD-N-NE TS OHD-N-NE MOV NE P0031 $=
201505262055 SPECI KATL 262055Z 21009G17KT 1/2SM R09R/2800VP6000FT +TSRA FEW009 BKN018 OVC065 20/18 A3023 RMK AO2 TWR VIS 1 FRQ LTGICCG OHD TS OHD MOV NE P0007=
201505262052 METAR KATL 262052Z 20012G17KT 6SM R09R/4000VP6000FT TSRA FEW005 BKN020CB OVC050 21/18 A3023 RMK AO2 WSHFT 1945 RAB1955 SLP228 VIS LWR SE-SW SHRA FRQ LTGICCG OHD-SE-SW TS OHD-SE-SW MOV NE P0051 60051 T02060183 53013=
201505262047 SPECI KATL 262047Z 25007KT 8SM -TSRA BKN026CB BKN055 OVC070 21/18 A3022 RMK AO2 WSHFT 1945 RAB1955 FRQ LTGICCG SE-SW TS VC SE-SW MOV NE P0051=
201505262025 SPECI KATL 262025Z 29009KT 4SM R09R/6000VP6000FT TSRA BR BKN014CB BKN030 OVC050 20/18 A3022 RMK AO2 WSHFT 1945 RAB1955 OCNL LTGICCG OHD-N-NE TS OHD-N-NE MOV NE P0032=
201505262015 SPECI KATL 262015Z 28010G20KT 1SM R09R/4500VP6000FT +TSRA BR BKN014CB BKN027 OVC050 20/18 A3022 RMK AO2 WSHFT 1945 TWR VIS 2 RAB1955 VIS LWR SW-NW SHRA FRQ LTGICCG OHD-SW-NW TS OHD-SW-NW MOV NE P0017=
201505262012 SPECI KATL 262012Z 29011G20KT 3SM R09R/4500VP6000FT +TSRA BR BKN014CB BKN040 OVC065 20/18 A3021 RMK AO2 WSHFT 1945 RAB1955 VIS LWR SW-NW SHRA FRQ LTGICCG OHD-SW-NW TS OHD-SW-NW MOV NE P0007=
201505262005 SPECI KATL 262005Z 27009G21KT 8SM -TSRA BKN020CB BKN065 OVC080 21/17 A3023 RMK AO2 WSHFT 1945 RAB1955 VIS LWR SW-NW SHRA FRQ LTGICCG SW-NW TS SW-NW MOV NE P0000=
201505261957 SPECI KATL 261957Z 26013G29KT 9SM -TSRA BKN023CB BKN065 OVC080 22/18 A3022 RMK AO2 RAB55 PRESRR VIS LWR SW-NW SHRA FRQ LTGICCG SW-NW TS SW-NW MOV NE P0000=
201505261952 METAR KATL 261952Z 30017G29KT 10SM TS BKN023CB BKN065 BKN080 OVC200 22/18 A3020 RMK AO2 PK WND 28029/1948 TSB41 SLP220 FRQ LTGICCG SW-NW TS SW-NW MOV NE CBMAM DSNT N SHRA SW-NW T02220178=
201505261942 SPECI KATL 261942Z 18006KT 10SM TS FEW030CB BKN080 BKN200 27/20 A3018 RMK AO2 TSB41 FRQ LTGICCG SW-NW TS VC SW-NW MOV NE CBMAM DSNT N SHRA VC SW-NW=
201505261852 METAR KATL 261852Z 14010KT 10SM FEW030 SCT040 BKN200 28/21 A3016 RMK AO2 SLP202 CB DSNT SE & DSNT SW-NW TCU DSNT NE-SE T02830206=
201505261752 METAR KATL 261752Z 15009KT 10SM FEW023 SCT030 SCT250 28/21 A3019 RMK AO2 SLP213 CB DSNT S & DSNT SW-NW 60000 T02780206 10278 20217 58017=
201505261736 SPECI KATL 261736Z 15008G15KT 130V190 10SM SCT025 BKN030 BKN250 27/21 A3019 RMK AO2=
201505261652 METAR KATL 261652Z 16011KT 10SM BKN020 BKN025 BKN250 27/21 A3022 RMK AO2 SLP224 T02670206=
201505261552 METAR KATL 261552Z 16010KT 10SM BKN015 BKN020 BKN025 26/21 A3024 RMK AO2 SLP231 T02560211=
201505261544 SPECI KATL 261544Z 17011KT 10SM BKN016 BKN020 BKN025 26/21 A3024 RMK AO2=
201505261452 METAR KATL 261452Z 19009KT 9SM BKN012 BKN015 OVC020 24/21 A3024 RMK AO2 DZE31 SLP231 P0000 60000 T02390206 51002=
201505261437 SPECI KATL 261437Z 19008KT 8SM FEW009 BKN010 BKN017 23/21 A3024 RMK AO2 DZE31 P0000=
201505261352 METAR KATL 261352Z 16008KT 6SM -DZ BR OVC007 23/20 A3024 RMK AO2 DZB48 SLP231 P0000 T02280200=
201505261252 METAR KATL 261252Z COR 16008KT 8SM OVC009 22/20 A3024 RMK AO2 SLP233 T02220200=
201505261152 METAR KATL 261152Z 15007KT 7SM BKN009 OVC017 22/19 A3023 RMK AO2 SLP229 70055 T02220194 10222 20211 53012=
201505261052 METAR KATL 261052Z 14006KT 7SM BKN009 OVC014 22/20 A3022 RMK AO2 SLP224 T02170200=
201505260952 METAR KATL 260952Z 15005KT 7SM OVC009 22/20 A3021 RMK AO2 SLP220 T02170200=
201505260852 METAR KATL 260852Z 14006KT 7SM OVC007 22/20 A3020 RMK AO2 SLP216 T02170200 56008=
201505260752 METAR KATL 260752Z 14007KT 7SM BKN008 OVC012 22/20 A3020 RMK AO2 SLP217 T02170200=
201505260652 METAR KATL 260652Z 14005KT 7SM OVC006 21/19 A3021 RMK AO2 SLP220 T02110194=
201505260601 SPECI KATL 260601Z 12007KT 7SM BKN005 OVC013 21/19 A3022 RMK AO2=
201505260552 METAR KATL 260552Z 12006KT 8SM SCT005 OVC013 21/19 A3022 RMK AO2 SLP224 60026 T02110194 10222 20206 50007=
201505260505 SPECI KATL 260505Z 11005KT 10SM FEW006 BKN013 OVC200 21/19 A3022 RMK AO2=
201505260452 METAR KATL 260452Z 11005KT 10SM BKN014 OVC200 21/19 A3022 RMK AO2 SLP224 T02110189 402720189=
201505260440 SPECI KATL 260440Z 11004KT 10SM BKN014 OVC200 21/19 A3022 RMK AO2=
201505260352 METAR KATL 260352Z 13004KT 10SM FEW010 BKN180 OVC250 21/19 A3021 RMK AO2 SLP221 T02060189=
201505260252 METAR KATL 260252Z 10006KT 10SM SCT150 BKN200 OVC250 21/19 A3020 RMK AO2 SLP218 60026 T02060189 58000=
201505260152 METAR KATL 260152Z 13004KT 10SM FEW005 SCT100 BKN150 OVC200 21/19 A3020 RMK AO2 TSE11RAE32 SLP220 OCNL LTG DSNT NE P0002 T02110189=
201505260111 SPECI KATL 260111Z 13007KT 10SM -RA SCT006 BKN015 BKN080 OVC200 21/19 A3022 RMK AO2 TSE11 FRQ LTG DSNT NE-SE TS MOV NE P0002=
201505260059 SPECI KATL 260059Z 13005KT 5SM TSRA BR FEW007 SCT020CB BKN070 OVC200 21/20 A3023 RMK AO2 FRQ LTGICCGCA VC NE-SE TS VC NE-SE MOV NE P0001=
201505260052 METAR KATL 260052Z 12005KT 5SM TSRA BR SCT008 BKN020CB BKN050 OVC150 22/20 A3023 RMK AO2 TSB10RAB2356 SLP232 FRQ LTGICCGCA VC NE-SE TS VC NE-SE MOV NE P0024 T02170200=
201505260031 SPECI KATL 260031Z 17007KT 4SM TSRA BR SCT020CB BKN040 BKN070 OVC150 22/20 A3024 RMK AO2 TSB10RAB2356 VIS LWR NE-SE FRQ LTGICCG NE-SE & VC S-SW TS NE-SE & VC S-SW MOV NE P0016=
201505260011 SPECI KATL 260011Z 21006KT 1 1/2SM +TSRA BR BKN025CB BKN040 BKN070 OVC150 22/20 A3022 RMK AO2 TSB10RAB2356 OCNL LTGICCG NE-OHD-SW TS NE-OHD-SW MOV NE P0006=
201505252352 METAR KATL 252352Z 00000KT 10SM FEW020CB BKN040 BKN080 OVC150 22/20 A3020 RMK AO2 TSE22RAB2258E46 SLP219 CB VC N-NE & DSNT S-SW MOV N P0026 60029 T02220200 10272 20211 58002=
201505252338 SPECI KATL 252338Z 29003KT 5SM RA BR FEW020CB BKN040 BKN070 OVC150 21/19 A3020 RMK AO2 TSE22RAB2258 VIS LWR NW CB NW MOV N P0026=
201505252324 SPECI KATL 252324Z 16005KT 2SM R09R/5500VP6000FT +RA BR FEW020CB BKN050 BKN080 OVC150 22/19 A3020 RMK AO2 TSE22RAB2258 TS DSIPTD CB OHD-SW MOV N P0009=
201505252322 SPECI KATL 252322Z 18007KT 3SM +RA BR FEW020CB BKN050 BKN080 OVC150 22/19 A3020 RMK AO2 TSE22RAB2258 TS DSIPTD CB OHD-SW MOV N P0007=
201505252310 SPECI KATL 252310Z 14006KT 5SM TSRA FEW010 SCT020CB BKN050 OVC150 22/19 A3020 RMK AO2 RAB2258 VIS LWR N-E OCNL LTGIC N-E TS N-E MOV N P0003=
201505252304 SPECI KATL 252304Z 15011G22KT 1 1/2SM R09R/6000VP6000FT +TSRA FEW010 BKN020CB BKN050 OVC150 23/19 A3021 RMK AO2 RAB2258 OCNL LTGIC NE-OHD-S TS NE-OHD-S MOV N P0000=
201505252252 METAR KATL 252252Z 18007KT 10SM TS FEW010 BKN025CB BKN050 OVC150 24/20 A3020 RMK AO2 TSB39RAB08E18 SLP219 OCNL LTGICCG NE-SE-S TS NE-SE-S MOV N P0000 T02440200=
201505252239 SPECI KATL 252239Z 14005KT 10SM TS SCT025CB BKN050 BKN080 OVC200 25/20 A3020 RMK AO2 TSB39RAB08E18 OCNL LTGICCG VC SE-S & NW TS VC SE-S & NW MOV N P0000=
201505252152 METAR KATL 252152Z 11009KT 10SM FEW028 SCT070 BKN110 OVC200 26/21 A3020 RMK AO2 RAB00E15 SLP220 VCSH NE & SW-NW P0003 T02560206=
201505252052 METAR KATL 252052Z 15009KT 10SM SCT031 BKN060 OVC200 27/19 A3020 RMK AO2 SLP219 PRESENT WX VCSH 60000 T02670189 56015=
201505251952 METAR KATL 251952Z 15008KT 10SM SCT030 BKN060 BKN200 27/19 A3021 RMK AO2 RAE31 SLP223 PRESENT WX VCSH P0000 T02670189=
201505251852 METAR KATL 251852Z 16009KT 10SM -RA FEW030 BKN037 OVC060 27/19 A3023 RMK AO2 RAB47 SLP228 P0000 T02670189=
201505251752 METAR KATL 251752Z 14007KT 10SM BKN031 BKN150 BKN250 27/18 A3025 RMK AO2 SLP234 T02670183 10267 20200 56010=
201505251748 SPECI KATL 251748Z 16010KT 10SM BKN031 BKN150 BKN250 27/18 A3025 RMK AO2=
201505251652 METAR KATL 251652Z 16008KT 10SM BKN024 BKN033 26/18 A3027 RMK AO2 SLP240 T02560183=
201505251552 METAR KATL 251552Z 14010KT 10SM BKN020 26/18 A3028 RMK AO2 SLP244 T02560183=
201505251524 SPECI KATL 251524Z 12008KT 10SM BKN018 25/18 A3028 RMK AO2=
201505251452 METAR KATL 251452Z 13009KT 10SM BKN014 BKN060 BKN250 24/18 A3028 RMK AO2 SLP246 T02390183 50004=
201505251352 METAR KATL 251352Z 12007KT 10SM BKN013 BKN024 BKN060 22/18 A3029 RMK AO2 SLP249 T02220178=
201505251252 METAR KATL 251252Z 14006KT 8SM BKN010 OVC016 21/17 A3030 RMK AO2 SLP251 T02060167=
201505251210 SPECI KATL 251210Z 12006KT 8SM BKN010 20/17 A3028 RMK AO2=
201505251152 METAR KATL 251152Z 12007KT 8SM FEW012 20/17 A3027 RMK AO2 SLP241 T02000167 10211 20189 52004=
201505251109 SPECI KATL 251109Z 12007KT 10SM SCT013 SCT018 SCT025 19/16 A3027 RMK AO2=
201505251052 METAR KATL 251052Z 12005KT 10SM BKN015 BKN023 BKN250 19/16 A3027 RMK AO2 SLP240 T01940161=
201505251042 SPECI KATL 251042Z 12007KT 10SM FEW015 BKN023 BKN250 19/16 A3026 RMK AO2=
201505251024 SPECI KATL 251024Z 12008KT 10SM BKN013 BKN023 19/16 A3026 RMK AO2=
201505250952 METAR KATL 250952Z 12005KT 10SM SCT015 SCT023 19/16 A3026 RMK AO2 SLP238 T01940161=
201505250852 METAR KATL 250852Z 12006KT 10SM BKN015 20/16 A3026 RMK AO2 SLP237 T02000156 53001=
201505250752 METAR KATL 250752Z 13006KT 10SM BKN015 20/16 A3025 RMK AO2 SLP235 T02000156=
201505250652 METAR KATL 250652Z 14006KT 10SM FEW012 SCT250 21/14 A3026 RMK AO2 SLP237 T02060144=
201505250552 METAR KATL 250552Z 14006KT 10SM FEW012 SCT200 21/14 A3025 RMK AO2 SLP236 T02110139 10267 20211 50004=
201505250452 METAR KATL 250452Z 14009KT 10SM FEW200 SCT250 22/14 A3026 RMK AO2 SLP237 T02220139 402830167=
201505250352 METAR KATL 250352Z 13009G14KT 10SM SCT200 BKN250 23/14 A3025 RMK AO2 SLP236 T02280139=
201505250252 METAR KATL 250252Z 12008KT 10SM BKN200 BKN250 24/14 A3024 RMK AO2 SLP232 T02390139 53007=
201505250152 METAR KATL 250152Z 11008KT 10SM SCT200 SCT250 24/14 A3023 RMK AO2 SLP228 T02440144=
201505250052 METAR KATL 250052Z 12007KT 10SM FEW200 SCT250 26/14 A3022 RMK AO2 SLP225 T02560139=
201505242352 METAR KATL 242352Z 12008KT 10SM FEW060 SCT250 27/14 A3022 RMK AO2 SLP226 T02670144 10283 20267 56003=
201505242252 METAR KATL 242252Z 13011G15KT 10SM FEW055 SCT070 SCT250 28/14 A3022 RMK AO2 SLP226 T02780144=
201505242152 METAR KATL 242152Z 15008KT 10SM SCT055 SCT070 SCT250 28/14 A3023 RMK AO2 SLP228 T02830139=
201505242052 METAR KATL 242052Z 13009KT 10SM SCT050 SCT065 28/14 A3023 RMK AO2 SLP229 T02830144 58019=
201505241952 METAR KATL 241952Z 15009KT 10SM SCT048 BKN060 27/15 A3026 RMK AO2 SLP239 T02670150=
201505241852 METAR KATL 241852Z 13009G19KT 10SM SCT050 28/15 A3028 RMK AO2 SLP244 T02780150=
201505241752 METAR KATL 241752Z 15011KT 10SM SCT042 BKN250 27/15 A3029 RMK AO2 SLP248 T02670150 10272 20178 58020=
201505241652 METAR KATL 241652Z 13006KT 10SM SCT036 BKN250 26/16 A3032 RMK AO2 SLP260 T02610156=
201505241552 METAR KATL 241552Z 16008KT 10SM FEW025 BKN031 BKN050 BKN250 24/17 A3034 RMK AO2 SLP267 T02440172=
201505241542 SPECI KATL 241542Z 17007KT 140V210 10SM FEW024 BKN031 BKN048 23/17 A3034 RMK AO2=
201505241452 METAR KATL 241452Z 12008KT 10SM BKN024 BKN037 23/17 A3035 RMK AO2 SLP270 T02330172 50002=
201505241424 SPECI KATL 241424Z 12007KT 10SM BKN018 22/17 A3035 RMK AO2=
201505241352 METAR KATL 241352Z 12009KT 10SM SCT022 BKN250 22/16 A3036 RMK AO2 SLP273 T02170161=
201505241252 METAR KATL 241252Z 12008KT 10SM SCT022 BKN042 BKN250 19/15 A3035 RMK AO2 SLP271 T01940150=
201505241152 METAR KATL 241152Z 12007KT 10SM FEW020 SCT250 18/14 A3034 RMK AO2 SLP269 T01780144 10200 20167 51009=
201505241052 METAR KATL 241052Z 10007KT 10SM BKN250 17/14 A3034 RMK AO2 SLP267 T01720139=
201505240952 METAR KATL 240952Z 12006KT 10SM SCT250 17/13 A3033 RMK AO2 SLP262 T01720128=
201505240852 METAR KATL 240852Z 12005KT 10SM SCT250 18/13 A3032 RMK AO2 SLP259 T01780128 53006=
201505240752 METAR KATL 240752Z 12006KT 10SM SCT250 18/13 A3030 RMK AO2 SLP252 T01830128=
201505240652 METAR KATL 240652Z 14007KT 10SM SCT250 19/11 A3030 RMK AO2 SLP252 T01890111=
201505240552 METAR KATL 240552Z 12006KT 10SM SCT250 20/09 A3030 RMK AO2 SLP252 T02000094 10256 20200 55003=
201505240452 METAR KATL 240452Z 11005KT 10SM SCT250 21/09 A3030 RMK AO2 SLP251 T02060089 402720156=
201505240352 METAR KATL 240352Z 11004KT 10SM SCT250 21/09 A3030 RMK AO2 SLP254 T02110089=
201505240252 METAR KATL 240252Z 10007KT 10SM FEW200 SCT250 22/10 A3031 RMK AO2 SLP255 T02170100 53005=
201505240152 METAR KATL 240152Z 08006KT 10SM FEW200 SCT250 22/09 A3030 RMK AO2 SLP253 T02170094=
201505240052 METAR KATL 240052Z 11006KT 10SM FEW250 24/08 A3028 RMK AO2 SLP248 T02440078=
201505232352 METAR KATL 232352Z 11008KT 10SM FEW250 26/08 A3029 RMK AO2 SLP251 T02560078 10272 20256 56005=
201505232252 METAR KATL 232252Z 09010KT 10SM FEW250 27/09 A3029 RMK AO2 SLP251 T02670089=
201505232152 METAR KATL 232152Z 09008G15KT 10SM FEW250 27/10 A3030 RMK AO2 SLP255 T02670100=
201505232052 METAR KATL 232052Z 14009G14KT 10SM FEW250 27/09 A3031 RMK AO2 SLP255 T02720094 58017=
201505231952 METAR KATL 231952Z 11009KT 10SM FEW250 27/11 A3033 RMK AO2 SLP265 T02720106=
201505231852 METAR KATL 231852Z VRB06KT 10SM FEW250 26/11 A3034 RMK AO2 SLP268 T02610111=
201505231752 METAR KATL 231752Z 15010G15KT 10SM FEW055 26/11 A3036 RMK AO2 SLP273 T02610106 10261 20178 58010=
201505231652 METAR KATL 231652Z 11008G16KT 10SM FEW055 26/12 A3037 RMK AO2 SLP277 T02560117=
201505231552 METAR KATL 231552Z 13007G16KT 10SM FEW045 24/12 A3038 RMK AO2 SLP280 T02440117=
201505231452 METAR KATL 231452Z 13008KT 10SM FEW035 23/13 A3039 RMK AO2 SLP283 T02280128 51013=
201505231352 METAR KATL 231352Z 13004KT 10SM FEW150 21/14 A3039 RMK AO2 SLP284 T02110144=
201505231252 METAR KATL 231252Z VRB06KT 10SM SCT150 19/13 A3038 RMK AO2 SLP281 T01890128=
201505231152 METAR KATL 231152Z 09005KT 10SM FEW250 17/12 A3035 RMK AO2 SLP271 T01720117 10194 20156 53022=
201505231052 METAR KATL 231052Z 12004KT 10SM FEW250 17/11 A3031 RMK AO2 SLP259 T01670111=
201505230952 METAR KATL 230952Z 08004KT 10SM CLR 16/11 A3030 RMK AO2 SLP255 T01610111=
201505230852 METAR KATL 230852Z 07004KT 10SM CLR 18/11 A3028 RMK AO2 SLP248 T01780111 53009=
201505230752 METAR KATL 230752Z 08004KT 10SM CLR 17/11 A3026 RMK AO2 SLP242 T01720111=
201505230652 METAR KATL 230652Z 00000KT 10SM CLR 18/11 A3026 RMK AO2 SLP239 T01830111=
201505230552 METAR KATL 230552Z 00000KT 10SM CLR 19/11 A3026 RMK AO2 SLP239 T01940111 10244 20183 58001=
201505230452 METAR KATL 230452Z 00000KT 10SM CLR 19/12 A3027 RMK AO2 SLP243 T01890117 402560106=
201505230352 METAR KATL 230352Z 09003KT 10SM CLR 21/11 A3026 RMK AO2 SLP241 T02060111=
201505230252 METAR KATL 230252Z 36004KT 10SM CLR 22/11 A3026 RMK AO2 SLP241 T02170111 53021=
201505230152 METAR KATL 230152Z 00000KT 10SM FEW250 22/11 A3023 RMK AO2 SLP231 T02220106=
201505230052 METAR KATL 230052Z 00000KT 10SM FEW250 23/09 A3022 RMK AO2 SLP227 T02330094=
201505222352 METAR KATL 222352Z 06006KT 10SM FEW250 24/09 A3020 RMK AO2 SLP220 T02440094 10256 20222 53002=
201505222252 METAR KATL 222252Z 31003KT 10SM FEW250 25/11 A3019 RMK AO2 SLP218 T02500106=
201505222152 METAR KATL 222152Z 33008KT 10SM FEW250 26/11 A3019 RMK AO2 SLP219 T02560106=
201505222052 METAR KATL 222052Z 00000KT 10SM FEW055 SCT250 24/10 A3019 RMK AO2 SLP218 T02440100 56005=
201505221952 METAR KATL 221952Z 04007KT 10SM FEW055 BKN250 24/10 A3019 RMK AO2 SLP219 T02440100=
201505221852 METAR KATL 221852Z 05006KT 10SM FEW050 SCT250 23/11 A3020 RMK AO2 SLP221 T02330106=
201505221752 METAR KATL 221752Z VRB06KT 10SM FEW045 SCT250 23/11 A3021 RMK AO2 SLP223 T02280106 10228 20122 58007=
201505221652 METAR KATL 221652Z 09008KT 10SM FEW043 SCT250 22/11 A3022 RMK AO2 SLP227 T02170106=
201505221552 METAR KATL 221552Z VRB06KT 10SM FEW043 SCT250 21/09 A3022 RMK AO2 SLP229 T02060094=
201505221452 METAR KATL 221452Z 08007KT 10SM SCT250 19/09 A3023 RMK AO2 SLP232 T01890094 51022=
201505221352 METAR KATL 221352Z 05007KT 10SM SCT250 17/09 A3021 RMK AO2 SLP227 T01720089=
201505221252 METAR KATL 221252Z 36007KT 10SM FEW200 SCT250 14/08 A3019 RMK AO2 SLP220 T01440078=
201505221152 METAR KATL 221152Z 35009KT 10SM FEW180 SCT250 12/08 A3016 RMK AO2 SLP209 T01220083 10139 20106 53023=
201505221052 METAR KATL 221052Z 34008KT 10SM FEW180 SCT250 11/08 A3013 RMK AO2 SLP200 T01110078=
201505220952 METAR KATL 220952Z 33008KT 10SM FEW250 11/08 A3010 RMK AO2 SLP189 T01110078=
201505220852 METAR KATL 220852Z 32009KT 10SM FEW200 SCT250 12/08 A3009 RMK AO2 SLP184 T01170078 55002=
201505220752 METAR KATL 220752Z 32010KT 10SM SCT200 BKN250 12/08 A3008 RMK AO2 SLP182 T01220078=
201505220652 METAR KATL 220652Z 31008G16KT 10SM BKN200 BKN250 13/08 A3008 RMK AO2 SLP180 T01330078=
201505220552 METAR KATL 220552Z 32011KT 10SM SCT200 BKN250 14/08 A3010 RMK AO2 SLP185 T01390078 10200 20139 50004=
201505220452 METAR KATL 220452Z 33012KT 10SM SCT030 BKN250 14/07 A3010 RMK AO2 SLP186 T01440072 402670144=
201505220352 METAR KATL 220352Z 32014G17KT 10SM BKN030 BKN250 16/08 A3010 RMK AO2 SLP187 T01560083=
201505220252 METAR KATL 220252Z 33014G19KT 10SM BKN028 16/09 A3008 RMK AO2 SLP181 T01610094 53023=
201505220152 METAR KATL 220152Z 32011KT 10SM BKN028 17/11 A3005 RMK AO2 SLP171 T01720106=
201505220052 METAR KATL 220052Z 33017G21KT 10SM FEW030 18/11 A3004 RMK AO2 SLP165 T01830111=
201505212352 METAR KATL 212352Z 31015G21KT 10SM SCT035 SCT250 20/12 A3001 RMK AO2 SLP157 T02000122 10267 20200 53011=
201505212252 METAR KATL 212252Z 31015KT 10SM FEW040 SCT250 22/13 A2999 RMK AO2 SLP148 T02220128=
201505212152 METAR KATL 212152Z 30013G22KT 10SM SCT040 SCT250 24/14 A2998 RMK AO2 SLP145 T02390144=
201505212052 METAR KATL 212052Z 30013G19KT 10SM SCT040 SCT250 26/16 A2998 RMK AO2 SLP143 T02560156 50000=
201505211952 METAR KATL 211952Z 30016G20KT 10SM SCT040 SCT250 25/15 A2998 RMK AO2 SLP144 T02500150=
201505211852 METAR KATL 211852Z 30012KT 10SM FEW038 SCT250 26/16 A2998 RMK AO2 SLP142 T02610161=
201505211752 METAR KATL 211752Z 29011G18KT 10SM FEW037 SCT250 26/16 A2998 RMK AO2 SLP143 T02560161 10261 20206 58006=
201505211652 METAR KATL 211652Z 31008G20KT 10SM SCT035 24/16 A2999 RMK AO2 SLP148 T02440156=
201505211552 METAR KATL 211552Z 30009G17KT 10SM BKN030 24/16 A3000 RMK AO2 SLP150 T02440161=
201505211452 METAR KATL 211452Z 31013KT 10SM SCT030 23/15 A3000 RMK AO2 SLP149 T02330150 51008=
201505211352 METAR KATL 211352Z 32013KT 10SM SCT025 22/15 A3000 RMK AO2 SLP148 T02220150=
201505211252 METAR KATL 211252Z 32012G19KT 10SM SCT024 SCT250 22/16 A2999 RMK AO2 SLP145 T02220156=
201505211152 METAR KATL 211152Z 31012KT 10SM BKN024 BKN200 BKN250 21/16 A2998 RMK AO2 SLP141 T02060156 10228 20206 53016=
201505211052 METAR KATL 211052Z 30013G18KT 10SM BKN024 BKN200 BKN250 21/15 A2996 RMK AO2 PK WND 30026/1000 SLP135 T02060150=
201505210952 METAR KATL 210952Z 30014KT 10SM BKN020 BKN150 BKN200 BKN250 21/16 A2993 RMK AO2 SLP126 T02060156=
201505210852 METAR KATL 210852Z 30011KT 10SM BKN022 BKN150 BKN250 21/16 A2993 RMK AO2 SLP124 T02110161 55003=
201505210752 METAR KATL 210752Z 29008KT 10SM BKN020 BKN150 BKN250 22/18 A2992 RMK AO2 SLP122 CIG 018V022 T02170178=
201505210652 METAR KATL 210652Z 28008KT 10SM FEW022 SCT080 SCT150 SCT250 22/18 A2992 RMK AO2 SLP122 T02170178=
201505210552 METAR KATL 210552Z 28007KT 10SM FEW075 SCT150 BKN200 BKN250 23/17 A2994 RMK AO2 SLP126 T02280172 10283 20228 56003=
201505210452 METAR KATL 210452Z 27007KT 10SM FEW080 SCT150 BKN200 24/17 A2994 RMK AO2 SLP128 T02390172 403060200=
201505210352 METAR KATL 210352Z 25004KT 10SM FEW110 BKN200 24/17 A2994 RMK AO2 SLP127 T02440172=
201505210252 METAR KATL 210252Z 25005KT 10SM FEW045 SCT110 26/17 A2995 RMK AO2 SLP130 OCNL LTG DSNT NE T02560172 51012=
201505210152 METAR KATL 210152Z 25005KT 10SM FEW045 26/18 A2994 RMK AO2 SLP127 OCNL LTG DSNT NE T02560183=
201505210052 METAR KATL 210052Z 21003KT 10SM SCT045CB BKN070 BKN250 26/18 A2993 RMK AO2 TSB28E52 SLP123 TS DSIPTD CB VC SE MOV SE TCU OHD & NW-NE VCSH SE T02610178=
201505210028 SPECI KATL 210028Z 23005KT 10SM TS SCT045CB SCT110 BKN250 28/18 A2992 RMK AO2 TSB28 OCNL LTGICCG S TS S MOV SE=
201505202352 METAR KATL 202352Z 24005KT 10SM FEW050 SCT110 28/18 A2991 RMK AO2 SLP119 TCU DSNT SW-NW T02830178 10306 20283 56010=
201505202252 METAR KATL 202252Z 28005KT 10SM FEW050TCU 29/18 A2992 RMK AO2 SLP122 TCU VC N & DSNT S-SW T02890178=
201505202152 METAR KATL 202152Z 32005KT 10SM FEW050TCU SCT090 30/18 A2993 RMK AO2 SLP125 TCU SE T03000178=
201505202052 METAR KATL 202052Z 31006KT 10SM SCT050TCU SCT100 30/18 A2994 RMK AO2 SLP129 TCU E & S T03000183 58016=
201505201952 METAR KATL 201952Z 32008KT 10SM SCT050TCU BKN100 29/18 A2996 RMK AO2 SLP134 TCU E & SW T02940183=
201505201852 METAR KATL 201852Z 27009KT 10SM SCT049TCU BKN100 29/18 A2998 RMK AO2 SLP139 TCU W T02940183=
201505201752 METAR KATL 201752Z VRB06KT 10SM SCT055 29/18 A2999 RMK AO2 SLP145 T02940183 10294 20211 58009=
201505201652 METAR KATL 201652Z 28007KT 10SM SCT047 29/18 A3000 RMK AO2 SLP149 T02890178=
201505201552 METAR KATL 201552Z 30007KT 10SM FEW045 SCT250 28/17 A3002 RMK AO2 SLP154 T02830172=
201505201452 METAR KATL 201452Z 27004KT 10SM FEW250 27/18 A3002 RMK AO2 SLP155 T02720178 51005=
201505201352 METAR KATL 201352Z 00000KT 10SM FEW250 26/18 A3002 RMK AO2 SLP154 T02610178=
201505201252 METAR KATL 201252Z 31004KT 10SM FEW110 SCT250 23/18 A3002 RMK AO2 SLP156 T02330183=
201505201152 METAR KATL 201152Z 33005KT 10SM FEW110 SCT250 21/18 A3000 RMK AO2 SLP150 T02110183 10222 20200 53007=
201505201052 METAR KATL 201052Z 32005KT 10SM FEW120 SCT200 SCT250 20/18 A3000 RMK AO2 SLP149 T02000178=
201505200952 METAR KATL 200952Z 32006KT 10SM FEW120 SCT200 SCT250 20/18 A2998 RMK AO2 SLP144 T02000178=
201505200852 METAR KATL 200852Z 31003KT 10SM SCT120 SCT200 BKN250 21/18 A2998 RMK AO2 SLP144 T02060178 56012=
201505200752 METAR KATL 200752Z 29004KT 10SM BKN120 BKN200 BKN250 21/18 A2999 RMK AO2 SLP145 T02110183=
201505200652 METAR KATL 200652Z 32006KT 10SM FEW100 BKN140 BKN250 22/18 A3000 RMK AO2 SLP150 T02220183=
201505200552 METAR KATL 200552Z 30007KT 10SM BKN140 BKN250 22/19 A3002 RMK AO2 SLP154 T02220189 10250 20222 58008=
201505200452 METAR KATL 200452Z 30007KT 10SM BKN150 BKN250 23/19 A3003 RMK AO2 SLP159 T02280194 402940206=
201505200352 METAR KATL 200352Z 29005KT 10SM FEW150 BKN250 23/19 A3003 RMK AO2 SLP160 T02280194=
201505200252 METAR KATL 200252Z 28005KT 10SM FEW150 BKN250 23/19 A3004 RMK AO2 SLP163 T02280194 53004=
201505200152 METAR KATL 200152Z 28005KT 10SM FEW150 BKN250 23/19 A3003 RMK AO2 SLP159 T02330194=
201505200052 METAR KATL 200052Z 29005KT 10SM SCT150 BKN250 24/20 A3002 RMK AO2 SLP158 T02390200=
201505192352 METAR KATL 192352Z 28006KT 10SM FEW110 SCT150 BKN250 25/19 A3003 RMK AO2 SLP160 60000 T02500194 10294 20244 55005=
201505192252 METAR KATL 192252Z 29007KT 10SM FEW110 BKN150 BKN250 26/19 A3002 RMK AO2 SLP155 T02610194 $=
201505192152 METAR KATL 192152Z 29006KT 10SM FEW050 SCT100 BKN150 BKN250 26/20 A3004 RMK AO2 RAE34 SLP163 TCU DSNT NE-E P0000 T02560200 $=
201505192052 METAR KATL 192052Z 25005KT 10SM -RA FEW025CB SCT050 BKN100 BKN250 25/19 A3004 RMK AO2 RAB00 SLP164 CB NW-N MOV NE CB DSNT N & S & W TCU DSNT N-NE-E SHRA VC NW-N P0000 60000 T02500194 56016 $=
201505191952 METAR KATL 191952Z 29008KT 10SM FEW040CB BKN100 BKN250 28/18 A3006 RMK AO2 SLP169 CB SE-S-SW MOV NE SHRA VC SE-S-SW T02830183=
201505191852 METAR KATL 191852Z 26004KT 10SM FEW040CB SCT050TCU BKN090 BKN250 28/18 A3007 RMK AO2 SLP173 CB S-SW MOV E TCU S-SW-W-NW SHRA VC S-SW T02830183=
201505191752 METAR KATL 191752Z 34004KT 10SM FEW040TCU BKN100 BKN250 29/19 A3009 RMK AO2 SLP179 CB DSNT SW TCU NW-N 60000 T02890189 10289 20206 58008=
201505191652 METAR KATL 191652Z 31005KT 10SM FEW030TCU SCT140 SCT250 28/20 A3012 RMK AO2 SLP188 TCU S-SW T02830200=
201505191552 METAR KATL 191552Z 32007KT 10SM SCT025TCU SCT140 BKN250 27/19 A3013 RMK AO2 SLP194 TCU NE-E & S-SW T02670194=
201505191452 METAR KATL 191452Z 32007KT 10SM FEW020 SCT140 BKN250 26/19 A3012 RMK AO2 SLP189 60000 T02560194 50003=
201505191352 METAR KATL 191352Z 32007KT 10SM FEW015 BKN140 BKN250 24/19 A3012 RMK AO2 SLP191 T02390194=
201505191252 METAR KATL 191252Z 33006KT 10SM FEW055 BKN100 BKN150 BKN250 22/19 A3012 RMK AO2 RAB21E33 SLP190 P0000 T02170189=
201505191152 METAR KATL 191152Z 28005KT 10SM SCT100 BKN150 BKN250 21/19 A3011 RMK AO2 SLP187 70119 T02060189 10222 20206 51008=
201505191052 METAR KATL 191052Z 28006KT 10SM FEW100 BKN130 BKN250 21/18 A3010 RMK AO2 SLP186 T02060183=
201505190952 METAR KATL 190952Z 23004KT 10SM FEW100 BKN130 BKN180 21/18 A3009 RMK AO2 SLP180 T02060183=
201505190852 METAR KATL 190852Z 27004KT 10SM FEW100 SCT130 BKN180 21/18 A3008 RMK AO2 SLP177 T02060183 56009=
201505190752 METAR KATL 190752Z 27004KT 10SM CLR 21/18 A3008 RMK AO2 SLP177 T02060183=
201505190652 METAR KATL 190652Z 32004KT 10SM CLR 21/19 A3009 RMK AO2 SLP181 T02110189=
201505190552 METAR KATL 190552Z 33005KT 10SM FEW100 22/19 A3011 RMK AO2 SLP188 T02170189 10239 20217 58016=
201505190452 METAR KATL 190452Z 00000KT 10SM FEW100 BKN250 22/20 A3014 RMK AO2 SLP196 T02170200 402830206=
201505190352 METAR KATL 190352Z 00000KT 10SM FEW070 BKN200 BKN250 22/19 A3015 RMK AO2 SLP201 T02170194=
201505190252 METAR KATL 190252Z 00000KT 10SM BKN075 BKN120 BKN200 23/21 A3016 RMK AO2 SLP203 T02280206 58002=
201505190152 METAR KATL 190152Z 32004KT 10SM FEW070 BKN120 BKN200 BKN250 23/20 A3016 RMK AO2 SLP204 T02330200=
201505190052 METAR KATL 190052Z 01005KT 10SM FEW040 SCT120 BKN200 BKN250 24/20 A3017 RMK AO2 SLP208 CB DSNT NE & SE T02390200=
201505182352 METAR KATL 182352Z 00000KT 10SM FEW025CB SCT040 BKN070 BKN200 23/20 A3016 RMK AO2 SLP206 CB VC N-NE DSNT SE & SW MOV E VCSH N-NE 60110 T02330200 10272 20211 53007=
201505182252 METAR KATL 182252Z 00000KT 10SM FEW020 SCT070 BKN150 BKN200 23/19 A3015 RMK AO2 TSE46RAE46 SLP200 OCNL LTG DSNT NE-SE P0110 T02330194=
201505182248 SPECI KATL 182248Z 12003KT 10SM FEW020 SCT070 BKN150 BKN200 23/19 A3015 RMK AO2 TSE46RAE46 OCNL LTG DSNT NE-SE TS MOV NE P0110=
201505182223 SPECI KATL 182223Z 04003KT 8SM -TSRA FEW020CB SCT050 BKN090 BKN200 22/19 A3015 RMK AO2 FRQ LTGICCG NE-SE TS NE-SE MOV NE P0108=
201505182213 SPECI KATL 182213Z VRB03G21KT 6SM TSRA FEW008 SCT020CB BKN050 BKN200 22/19 A3015 RMK AO2 VIS LWR NE-SE-S FRQ LTGICCG NE-SE-S TS NE-SE-S MOV NE P0098=
201505182159 SPECI KATL 182159Z 36017G24KT 1 1/4SM R09R/3000VP6000FT +TSRA FEW008 BKN020CB BKN050 BKN200 23/20 A3015 RMK AO2 PRESRR OCNL LTGICCG OHD-ALQDS TS OHD-ALQDS MOV NE P0008=
201505182157 SPECI KATL 182157Z 35019G24KT 2SM R09R/3000VP6000FT +TSRA FEW008 BKN020CB BKN050 BKN200 24/20 A3015 RMK AO2 PRESRR OCNL LTGICCG NE-OHD-SW TS NE-OHD-SW MOV NE P0002=
201505182152 METAR KATL 182152Z 05007KT 9SM -TSRA FEW008 SCT020CB BKN050 BKN200 26/20 A3014 RMK AO2 TSB39RAB52 PRESRR SLP198 OCNL LTGICCG SW-NW-NE TS SW-NW-NE MOV NE P0000 T02610200=
201505182139 SPECI KATL 182139Z 13006KT 10SM TS FEW025CB SCT050 BKN080 BKN200 27/20 A3013 RMK AO2 TSB39 OCNL LTGICCG VC N-NE & SW-NW TS VC N-NE & SW-NW MOV NE=
201505182052 METAR KATL 182052Z 12008KT 10SM FEW025 SCT100 BKN250 27/21 A3014 RMK AO2 SLP197 CB DSNT N & S 60000 T02720211 56021=
201505181952 METAR KATL 181952Z 12003KT 10SM FEW015CB SCT020TCU BKN110 BKN250 26/21 A3016 RMK AO2 TSE12 SLP205 CB DSNT S & VC NW MOV NE TCU W-NW SHRA DSNT S & VC NW T02610211=
201505181913 SPECI KATL 181913Z 15007KT 10SM FEW015CB SCT050 BKN110 BKN250 24/21 A3016 RMK AO2 TSE12 CB E-SE MOV NE SHRA VC E-SE=
201505181852 METAR KATL 181852Z 15008KT 10SM TS FEW020CB SCT050 BKN100 BKN200 25/21 A3017 RMK AO2 TSE13B52RAE13B35E52 SLP207 OCNL LTGICCG SE TS VC SE MOV NE SHRA VC SE P0000 T02500206=
201505181814 SPECI KATL 181814Z 00000KT 10SM FEW020CB SCT030TCU BKN100 BKN200 24/19 A3019 RMK AO2 TSE13RAE13 CB NE-SE MOV NE TCU S-SW SHRA VC NE-SE P0000=
201505181755 SPECI KATL 181755Z 08003KT 6SM R09R/5500VP6000FT -TSRA SCT030CB BKN070 OVC090 23/19 A3020 RMK AO2 VIS LWR NE-SE SHRA OCNL LTGICCG NE-SE TS NE-SE MOV NE P0000=
201505181752 METAR KATL 181752Z 00000KT 3SM R09R/5500VP6000FT +TSRA BKN030CB BKN070 OVC100 23/19 A3020 RMK AO2 WSHFT 1701 RAB41 SLP220 VIS LWR NE-SE SHRA OCNL LTGICCG NE-SE TS OHD-NE-SE MOV NE P0009 60009 T02280194 10283 20217 56009=
201505181749 SPECI KATL 181749Z 00000KT 1SM R09R/4500VP6000FT +TSRA BKN030CB BKN070 OVC100 23/19 A3020 RMK AO2 WSHFT 1701 RAB41 LTGICCG OHD-S TS OHD-S MOV NE P0007=
201505181746 SPECI KATL 181746Z 22004KT 9SM R09R/4500VP6000FT -TSRA FEW030CB BKN065 OVC080 23/19 A3021 RMK AO2 WSHFT 1701 RAB41 VIS LWR S SHRA OCNL LTGICCG OHD-S TS OHD-S MOV NE P0005=
201505181733 SPECI KATL 181733Z 28007KT 10SM TS FEW030CB BKN050 OVC090 24/18 A3020 RMK AO2 WSHFT 1701 OCNL LTGICCG NE & SE & SW-NW TS NE & SE & SW-NW MOV NE SHRA NE & SE & SW-NW=
201505181721 SPECI KATL 181721Z 30016G21KT 10SM TS SCT030CB BKN040TCU BKN100 BKN250 25/18 A3021 RMK AO2 WSHFT 1701 OCNL LTGICCG N-NE & SE & SW-NW TS N-NE & SE & SW-NW MOV NE SHRA N-NE & SE & SW-NW TCU OHD & ALQDS=
201505181707 SPECI KATL 181707Z 31015G22KT 10SM TS SCT030CB BKN040TCU BKN100 BKN250 26/19 A3021 RMK AO2 OCNL LTGICCG N-NE & SW-NW TS N-NE & SW-NW MOV NE SHRA N-NE & SW-NW TCU OHD & ALQDS=
201505181652 METAR KATL 181652Z 21006KT 10SM TS FEW030CB SCT040TCU BKN100 BKN250 28/20 A3021 RMK AO2 TSB45 SLP219 OCNL LTGICCG NW TS VC NW MOV NE CB DSNT S TCU N-NE-E SHRA VC NW T02830200=
201505181629 SPECI KATL 181629Z 22005KT 10SM BKN030TCU BKN100 28/21 A3022 RMK AO2 CB DSNT SW-NW TCU ALQDS SHRA DSNT SW-NW=
201505181552 METAR KATL 181552Z 24005KT 10SM SCT023CB SCT100 27/20 A3023 RMK AO2 SLP227 CB NW MOV NE SHRA VC NW TCU DSNT E & SW & NW T02670200=
201505181452 METAR KATL 181452Z 00000KT 10SM FEW020 BKN100 BKN250 26/20 A3023 RMK AO2 SLP228 T02610200 50006=
201505181352 METAR KATL 181352Z 00000KT 10SM FEW025 BKN100 BKN250 25/19 A3023 RMK AO2 SLP228 T02500194=
201505181252 METAR KATL 181252Z 00000KT 7SM FEW060 SCT100 SCT150 BKN200 23/19 A3023 RMK AO2 SLP227 T02280194=
201505181152 METAR KATL 181152Z 00000KT 10SM FEW060 SCT100 BKN150 BKN220 22/19 A3021 RMK AO2 SLP223 70040 T02170194 10222 20206 53005=
201505181052 METAR KATL 181052Z 00000KT 10SM FEW070 BKN150 21/19 A3020 RMK AO2 SLP218 T02110189=
201505180952 METAR KATL 180952Z 00000KT 10SM SCT060 SCT150 BKN180 BKN250 21/19 A3019 RMK AO2 SLP217 T02110189=
201505180852 METAR KATL 180852Z 00000KT 10SM SCT060 BKN220 22/19 A3020 RMK AO2 SLP217 T02170189 58011=
201505180752 METAR KATL 180752Z 00000KT 10SM FEW050 SCT200 BKN250 21/19 A3021 RMK AO2 SLP220 T02110194=
201505180652 METAR KATL 180652Z 31004KT 9SM FEW050 SCT100 SCT250 21/19 A3023 RMK AO2 SLP226 T02110194=
201505180618 SPECI KATL 180618Z 30007KT 8SM FEW008 SCT050 BKN250 22/19 A3023 RMK AO2=
201505180552 METAR KATL 180552Z 08003KT 10SM SCT055 SCT070 SCT250 22/19 A3023 RMK AO2 SLP227 T02220194 10239 20217 58008=
201505180452 METAR KATL 180452Z 00000KT 10SM BKN050 BKN110 23/20 A3025 RMK AO2 SLP234 T02280200 402940200=
201505180352 METAR KATL 180352Z 00000KT 10SM SCT110 23/20 A3025 RMK AO2 SLP234 T02280200=
201505180252 METAR KATL 180252Z 09004KT 10SM BKN110 23/20 A3025 RMK AO2 SLP236 T02280200 53015=
201505180152 METAR KATL 180152Z 16003KT 10SM OVC110 23/21 A3024 RMK AO2 SLP230 T02280206=
201505180052 METAR KATL 180052Z 06006KT 10SM FEW045 BKN110 BKN230 23/20 A3022 RMK AO2 SLP225 T02330200=
201505172352 METAR KATL 172352Z 04006KT 10SM FEW007 SCT040 BKN100 BKN230 24/21 A3021 RMK AO2 SLP222 60040 T02390206 10294 20217 58005=
201505172252 METAR KATL 172252Z 03007KT 10SM FEW007 SCT036 BKN090 24/20 A3021 RMK AO2 RAE47 SLP222 PRESENT WX VCSH P0004 T02390200=
201505172152 METAR KATL 172152Z 01007KT 3SM -RA FEW007 BKN043 OVC070 22/19 A3022 RMK AO2 SLP227 P0027 T02220194=
201505172149 SPECI KATL 172149Z 35006KT 3SM -RA FEW007 BKN043 OVC070 22/19 A3022 RMK AO2 P0027=
201505172135 SPECI KATL 172135Z 27004KT 2 1/2SM R09R/4500VP6000FT +RA BR FEW007 BKN037 OVC070 22/19 A3023 RMK AO2 P0018=
201505172052 METAR KATL 172052Z 34010KT 4SM -RA FEW034 BKN050 OVC080 23/21 A3021 RMK AO2 RAB26 SLP222 P0009 60009 T02330206 55015=
201505171952 METAR KATL 171952Z 16006KT 10SM SCT046TCU BKN080 29/17 A3020 RMK AO2 SLP217 TCU SW-W T02890172=
201505171852 METAR KATL 171852Z VRB05KT 10SM SCT042 BKN100 BKN200 29/18 A3024 RMK AO2 SLP228 T02890178=
201505171752 METAR KATL 171752Z 15008KT 10SM BKN036 BKN050 BKN200 28/18 A3025 RMK AO2 SLP234 T02780178 10278 20206 58007=
201505171652 METAR KATL 171652Z 16006KT 10SM BKN033 BKN060 BKN200 27/18 A3027 RMK AO2 SLP240 T02720178=
201505171552 METAR KATL 171552Z VRB03KT 10SM SCT030 BKN050 BKN200 26/18 A3028 RMK AO2 SLP243 T02610183=
201505171452 METAR KATL 171452Z VRB05KT 10SM FEW048 BKN080 BKN200 24/18 A3028 RMK AO2 SLP242 T02440178 50003=
201505171352 METAR KATL 171352Z 17007KT 10SM FEW048 BKN090 BKN200 23/17 A3028 RMK AO2 SLP244 T02330167=
201505171252 METAR KATL 171252Z 18004KT 10SM FEW065 SCT080 BKN120 BKN200 21/16 A3028 RMK AO2 SLP244 T02110161=
201505171152 METAR KATL 171152Z 16006KT 10SM SCT080 SCT095 BKN120 BKN200 21/16 A3027 RMK AO2 SLP241 T02060156 10239 20200 53022=
201505171052 METAR KATL 171052Z COR 18005KT 10SM FEW070 BKN090 BKN150 BKN250 21/16 A3024 RMK AO2 SLP232 T02060156=
201505170952 METAR KATL 170952Z 17007KT 10SM FEW060 BKN110 BKN150 21/15 A3021 RMK AO2 SLP219 T02060150=
201505170852 METAR KATL 170852Z 16006KT 10SM FEW060 BKN090 21/15 A3020 RMK AO2 SLP217 T02110150 55006=
201505170752 METAR KATL 170752Z 15006KT 10SM FEW110 BKN150 22/15 A3020 RMK AO2 SLP215 T02220150=
201505170652 METAR KATL 170652Z 17008KT 10SM FEW050 SCT070 BKN110 BKN150 23/15 A3021 RMK AO2 SLP220 T02280150=
201505170552 METAR KATL 170552Z 17008KT 10SM BKN070 BKN110 BKN200 24/15 A3022 RMK AO2 RAB0458E07 SLP223 P0000 60000 T02390150 10272 20239 50001=
201505170452 METAR KATL 170452Z 16007KT 10SM FEW060 BKN110 OVC150 24/15 A3023 RMK AO2 SLP228 T02390150 402940194=
201505170352 METAR KATL 170352Z 14006KT 9SM FEW100 OVC150 24/15 A3023 RMK AO2 SLP226 T02440150=
201505170252 METAR KATL 170252Z 14005KT 10SM OVC190 25/15 A3022 RMK AO2 SLP223 T02500150 53017=
201505170152 METAR KATL 170152Z 13004KT 10SM OVC250 26/14 A3020 RMK AO2 SLP217 T02560144=
201505170052 METAR KATL 170052Z 15005KT 10SM FEW001 SCT080 OVC250 26/14 A3018 RMK AO2 SLP211 FU FEW001 T02610144=
201505162352 METAR KATL 162352Z 15007KT 10SM FEW055 SCT080 OVC250 27/14 A3017 RMK AO2 SLP206 T02720144 10294 20272 55000=
201505162252 METAR KATL 162252Z 15010G15KT 10SM FEW055 SCT080 BKN250 28/14 A3016 RMK AO2 SLP204 T02830144=
201505162152 METAR KATL 162152Z 14009KT 10SM FEW055 SCT080 BKN250 29/14 A3015 RMK AO2 SLP202 T02890144=
201505162052 METAR KATL 162052Z 16007G17KT 10SM SCT055 SCT080 BKN250 29/14 A3017 RMK AO2 SLP207 T02890144 58019=
201505161952 METAR KATL 161952Z 16009G16KT 10SM FEW050 SCT070 SCT150 BKN250 29/14 A3019 RMK AO2 SLP215 T02890144=
201505161852 METAR KATL 161852Z 15008KT 10SM SCT050 BKN070 BKN150 BKN250 28/14 A3021 RMK AO2 SLP222 T02780144=
201505161752 METAR KATL 161752Z 15010G14KT 10SM FEW050 BKN150 BKN250 28/14 A3023 RMK AO2 SLP227 T02780139 10278 20194 58010=
201505161652 METAR KATL 161652Z 18008KT 10SM FEW050 SCT140 BKN250 27/14 A3024 RMK AO2 SLP230 T02720144=
201505161552 METAR KATL 161552Z 15006KT 10SM FEW040 SCT140 BKN250 26/15 A3026 RMK AO2 SLP238 ACC W T02610150=
201505161452 METAR KATL 161452Z 19009KT 10SM FEW035 SCT140 SCT250 24/16 A3026 RMK AO2 SLP237 ACC N T02440156 51004=
201505161352 METAR KATL 161352Z 17008KT 10SM FEW045 SCT150 SCT250 23/16 A3026 RMK AO2 SLP237 T02280161=
201505161252 METAR KATL 161252Z 16008KT 10SM FEW048 BKN150 21/16 A3025 RMK AO2 SLP236 T02060156=
201505161152 METAR KATL 161152Z 15005KT 10SM FEW040 BKN150 19/16 A3024 RMK AO2 SLP234 T01940156 10211 20194 53007=
201505161052 METAR KATL 161052Z 15004KT 10SM FEW040 SCT120 BKN150 19/15 A3023 RMK AO2 SLP230 T01940150=
201505160952 METAR KATL 160952Z 17008KT 10SM FEW040 BKN150 20/14 A3022 RMK AO2 SLP226 T02000144=
201505160852 METAR KATL 160852Z 16006KT 10SM BKN150 19/15 A3022 RMK AO2 SLP226 T01940150 55005=
201505160752 METAR KATL 160752Z 13004KT 10SM FEW045 BKN150 20/16 A3021 RMK AO2 SLP223 T02000156=
201505160652 METAR KATL 160652Z 15005KT 10SM FEW050 BKN150 BKN220 21/16 A3022 RMK AO2 SLP224 T02060156=
201505160552 METAR KATL 160552Z 16006KT 10SM FEW050 SCT220 21/15 A3024 RMK AO2 SLP230 T02110150 10250 20211 50001=
201505160452 METAR KATL 160452Z COR 00000KT 10SM SCT050 BKN250 22/16 A3024 RMK AO2 SLP231 T02170161 402670200=
201505160352 METAR KATL 160352Z 12004KT 10SM FEW090 BKN250 22/16 A3023 RMK AO2 SLP229 T02220161=
201505160252 METAR KATL 160252Z 11004KT 10SM FEW090 SCT250 22/16 A3023 RMK AO2 SLP230 T02220161 53012=
201505160152 METAR KATL 160152Z 12003KT 10SM FEW090 BKN250 23/16 A3022 RMK AO2 SLP225 T02330161=
201505160052 METAR KATL 160052Z 15005KT 10SM FEW120 SCT250 24/16 A3020 RMK AO2 SLP219 T02390161=
201505152352 METAR KATL 152352Z 15007KT 10SM FEW120 SCT250 25/16 A3020 RMK AO2 SLP218 T02500156 10267 20250 55003=
201505152252 METAR KATL 152252Z 17011KT 10SM FEW040 SCT120 BKN250 26/16 A3019 RMK AO2 SLP215 T02610156=
201505152152 METAR KATL 152152Z 15007G14KT 10SM FEW040 BKN120 BKN250 27/16 A3020 RMK AO2 SLP217 T02670156=
201505152052 METAR KATL 152052Z 13008KT 10SM FEW035 BKN110 BKN250 26/14 A3021 RMK AO2 SLP220 TCU DSNT N-NE T02610144 58020=
201505151952 METAR KATL 151952Z 15007KT 10SM FEW040TCU SCT070 OVC120 26/16 A3023 RMK AO2 SLP226 TCU N-NE-E T02560156=
201505151852 METAR KATL 151852Z 18007KT 10SM FEW035CB SCT040TCU OVC070 26/16 A3025 RMK AO2 SLP235 CB N MOV NE TCU NE-E & SW-W SHRA VC N T02560161=
201505151752 METAR KATL 151752Z 13007KT 10SM BKN030TCU BKN060 BKN110 25/17 A3027 RMK AO2 RAB40E50 SLP241 TCU OHD-SW-NW P0000 60000 T02500167 10261 20200 58008=
201505151652 METAR KATL 151652Z 21007KT 10SM FEW030 SCT050 SCT110 BKN250 25/17 A3029 RMK AO2 SLP248 T02500172=
201505151552 METAR KATL 151552Z 17009G14KT 10SM FEW027 SCT050 BKN100 BKN250 24/16 A3030 RMK AO2 SLP251 T02440161=
201505151452 METAR KATL 151452Z 15008KT 10SM FEW020 BKN050 BKN100 23/17 A3029 RMK AO2 SLP249 ACC ALQDS T02330167 50006=
201505151352 METAR KATL 151352Z 14008KT 10SM FEW015 BKN050 BKN100 22/17 A3029 RMK AO2 SLP250 T02220172=
201505151328 SPECI KATL 151328Z 13007KT 10SM FEW015 BKN050 BKN200 22/17 A3029 RMK AO2=
201505151252 METAR KATL 151252Z 11007KT 10SM BKN011 BKN055 BKN100 BKN200 21/17 A3029 RMK AO2 SLP248 ACC SW-NW-N T02110167=
201505151152 METAR KATL 151152Z 11008KT 9SM FEW016 SCT044 BKN100 BKN200 20/16 A3027 RMK AO2 SLP243 T02000161 10228 20200 53010=
201505151052 METAR KATL 151052Z 12006KT 10SM FEW018 SCT044 BKN100 BKN200 20/16 A3026 RMK AO2 SLP237 T02000161=
201505151049 SPECI KATL 151049Z 12006KT 10SM FEW018 SCT044 BKN100 BKN200 20/16 A3026 RMK AO2=
201505151035 SPECI KATL 151035Z 11004KT 10SM BKN018 BKN042 BKN100 BKN200 21/16 A3025 RMK AO2=
201505150952 METAR KATL 150952Z 12005KT 10SM FEW038 SCT100 BKN180 BKN250 21/16 A3024 RMK AO2 SLP232 T02060156=
201505150852 METAR KATL 150852Z 12006KT 10SM FEW018 SCT037 BKN180 OVC250 21/16 A3023 RMK AO2 SLP227 T02110156 56005=
201505150752 METAR KATL 150752Z 14005KT 10SM FEW036 SCT065 OVC180 22/16 A3023 RMK AO2 SLP226 T02170156=
201505150652 METAR KATL 150652Z 14004KT 10SM FEW032 SCT065 BKN170 OVC250 22/15 A3024 RMK AO2 SLP230 T02220150=
201505150552 METAR KATL 150552Z 15005KT 10SM FEW065 BKN170 OVC250 23/14 A3024 RMK AO2 SLP231 T02280144 10261 20228 53001=
201505150452 METAR KATL 150452Z 14006KT 10SM FEW060 BKN150 OVC200 23/14 A3024 RMK AO2 SLP230 T02330144 402890172=
201505150352 METAR KATL 150352Z 11010KT 10SM FEW060 BKN150 OVC200 24/14 A3024 RMK AO2 SLP231 VIRGA NE-OHD-SW T02390139=
201505150252 METAR KATL 150252Z 11009KT 10SM SCT060 BKN150 OVC200 24/14 A3024 RMK AO2 SLP231 T02440139 51011=
201505150152 METAR KATL 150152Z 12009KT 10SM FEW055 BKN150 OVC200 25/14 A3023 RMK AO2 SLP230 VIRGA SE-SW T02500139=
201505150052 METAR KATL 150052Z 11007KT 10SM FEW055 BKN200 OVC250 26/14 A3022 RMK AO2 SLP226 T02560139=
201505142352 METAR KATL 142352Z 11008KT 10SM FEW055 BKN200 OVC250 26/15 A3021 RMK AO2 SLP221 T02610150 10289 20261 53001=
201505142252 METAR KATL 142252Z 11008KT 10SM FEW055 BKN200 OVC250 27/16 A3020 RMK AO2 SLP220 T02670156=
201505142152 METAR KATL 142152Z 11009KT 10SM FEW060 BKN200 OVC250 27/16 A3020 RMK AO2 SLP219 T02720156=
201505142052 METAR KATL 142052Z 09009KT 10SM FEW060 SCT150 BKN250 27/15 A3021 RMK AO2 SLP220 T02720150 58020=
201505141952 METAR KATL 141952Z 11009KT 10SM SCT050 SCT220 28/16 A3023 RMK AO2 SLP228 T02780156=
201505141852 METAR KATL 141852Z COR 15006G15KT 10SM FEW050 SCT150 SCT220 28/15 A3025 RMK AO2 SLP234 T02780150=
201505141752 METAR KATL 141752Z 15009G14KT 10SM FEW050 SCT150 BKN220 27/15 A3027 RMK AO2 SLP240 T02720150 10272 20189 58010=
201505141652 METAR KATL 141652Z 11010G17KT 10SM FEW045 SCT150 BKN250 26/16 A3028 RMK AO2 SLP245 T02610156=
201505141552 METAR KATL 141552Z 12009KT 10SM FEW120 SCT150 BKN250 25/15 A3030 RMK AO2 SLP251 T02500150=
201505141452 METAR KATL 141452Z 08010KT 10SM FEW150 SCT200 BKN250 23/14 A3030 RMK AO2 SLP252 T02280139 51005=
201505141416 SPECI KATL 141416Z 09010KT 10SM FEW013 SCT200 BKN250 22/13 A3030 RMK AO2=
201505141352 METAR KATL 141352Z 07011KT 10SM BKN013 BKN200 OVC250 21/12 A3030 RMK AO2 SLP252 T02060122=
201505141252 METAR KATL 141252Z 08010KT 10SM BKN200 BKN250 20/11 A3028 RMK AO2 SLP247 T02000111=
201505141152 METAR KATL 141152Z 08010KT 10SM BKN200 BKN250 19/11 A3026 RMK AO2 SLP238 T01890111 10206 20172 53017=
201505141052 METAR KATL 141052Z 07009KT 10SM BKN200 BKN250 18/11 A3023 RMK AO2 SLP227 T01830106=
201505140952 METAR KATL 140952Z 07007KT 10SM SCT200 BKN250 18/11 A3022 RMK AO2 SLP224 T01830106=
201505140852 METAR KATL 140852Z 08004KT 10SM SCT200 BKN250 19/10 A3020 RMK AO2 SLP219 T01940100 53001=
201505140752 METAR KATL 140752Z 00000KT 10SM SCT200 BKN250 19/09 A3020 RMK AO2 SLP217 T01940094=
201505140652 METAR KATL 140652Z 00000KT 10SM SCT200 BKN250 19/10 A3020 RMK AO2 SLP216 T01890100=
201505140552 METAR KATL 140552Z 00000KT 10SM BKN250 21/09 A3020 RMK AO2 SLP218 T02060094 10256 20206 58001=
201505140452 METAR KATL 140452Z 02003KT 10SM BKN250 22/08 A3021 RMK AO2 SLP220 T02170083 402940167=
201505140352 METAR KATL 140352Z 35005KT 10SM BKN250 22/08 A3021 RMK AO2 SLP221 T02220083=
201505140252 METAR KATL 140252Z 35007KT 10SM BKN250 23/09 A3020 RMK AO2 SLP220 T02280094 51018=
201505140152 METAR KATL 140152Z 33007KT 10SM BKN250 23/10 A3019 RMK AO2 SLP215 T02330100=
201505140052 METAR KATL 140052Z 31007KT 10SM BKN250 24/10 A3017 RMK AO2 SLP209 T02440100=
201505132352 METAR KATL 132352Z 29007KT 10SM BKN250 26/10 A3015 RMK AO2 SLP202 T02560100 10294 20256 55003=
201505132252 METAR KATL 132252Z 35007KT 10SM BKN250 28/08 A3014 RMK AO2 SLP198 T02830083=
201505132152 METAR KATL 132152Z 29005KT 10SM SCT250 28/08 A3015 RMK AO2 SLP200 T02830078=
201505132052 METAR KATL 132052Z VRB03KT 10SM SCT250 29/08 A3016 RMK AO2 SLP203 T02890078 56018=
201505131952 METAR KATL 131952Z 32009KT 10SM FEW250 28/08 A3017 RMK AO2 SLP208 T02830078=
201505131852 METAR KATL 131852Z 36007KT 10SM FEW250 28/09 A3019 RMK AO2 SLP214 T02830094=
201505131752 METAR KATL 131752Z 29006KT 10SM FEW250 27/10 A3021 RMK AO2 SLP222 T02670100 10267 20172 58013=
201505131652 METAR KATL 131652Z 36009KT 10SM FEW250 26/08 A3023 RMK AO2 SLP228 T02560083=
201505131552 METAR KATL 131552Z 35005KT 10SM FEW250 24/09 A3024 RMK AO2 SLP232 T02390089=
201505131452 METAR KATL 131452Z 33008KT 290V350 10SM FEW250 22/09 A3025 RMK AO2 SLP236 T02220089 51010=
201505131352 METAR KATL 131352Z 36010KT 10SM FEW150 SCT250 21/09 A3024 RMK AO2 SLP234 T02110089=
201505131252 METAR KATL 131252Z 33009KT 10SM FEW150 SCT200 19/09 A3023 RMK AO2 SLP231 T01890094=
201505131152 METAR KATL 131152Z 32011KT 10SM FEW150 SCT200 SCT250 17/09 A3022 RMK AO2 SLP226 T01720094 10211 20167 53018=
201505131052 METAR KATL 131052Z 33008KT 10SM FEW150 SCT200 SCT250 17/09 A3020 RMK AO2 SLP218 T01720089=
201505130952 METAR KATL 130952Z 32009KT 10SM SCT150 BKN220 BKN250 18/09 A3017 RMK AO2 SLP210 T01830094=
201505130852 METAR KATL 130852Z 32008KT 10SM FEW180 SCT220 OVC250 19/09 A3016 RMK AO2 SLP205 T01890094 53001=
201505130752 METAR KATL 130752Z 32007KT 10SM OVC180 19/10 A3016 RMK AO2 SLP203 T01940100=
201505130652 METAR KATL 130652Z 32006KT 10SM BKN150 BKN220 21/12 A3015 RMK AO2 SLP202 VIRGA VC S-SW T02060122=
201505130552 METAR KATL 130552Z 33007KT 10SM SCT150 BKN200 21/12 A3016 RMK AO2 SLP204 T02110122 10250 20211 58010=
201505130452 METAR KATL 130452Z 33007KT 10SM SCT150 BKN200 22/14 A3018 RMK AO2 SLP210 T02220139 402890211=
201505130352 METAR KATL 130352Z 31006KT 10SM BKN150 BKN200 23/16 A3020 RMK AO2 SLP216 T02280156=
201505130252 METAR KATL 130252Z 32007KT 10SM BKN150 BKN200 23/16 A3019 RMK AO2 SLP215 T02330161 53015=
201505130152 METAR KATL 130152Z 29008KT 10SM SCT150 BKN200 BKN250 23/16 A3017 RMK AO2 SLP209 T02330161=
201505130052 METAR KATL 130052Z 29007KT 10SM SCT150 BKN200 BKN250 24/17 A3016 RMK AO2 SLP204 T02390167=
201505122352 METAR KATL 122352Z 28006KT 10SM BKN150 BKN200 25/17 A3015 RMK AO2 SLP200 T02500167 10289 20250 51004=
201505122252 METAR KATL 122252Z 30008KT 10SM FEW035 BKN150 BKN200 26/16 A3014 RMK AO2 SLP198 CB DSNT SE T02610161=
201505122152 METAR KATL 122152Z 30012KT 10SM FEW035 BKN150 BKN200 27/18 A3014 RMK AO2 SLP196 TCU DSNT SE-S T02720178=
201505122052 METAR KATL 122052Z 28011KT 10SM FEW035 SCT120 BKN190 27/18 A3013 RMK AO2 SLP196 CB DSNT E T02720183 58016=
201505121952 METAR KATL 121952Z 28010KT 10SM FEW035 SCT070 BKN120 BKN150 28/18 A3016 RMK AO2 SLP203 CB DSNT E SHRA DSNT E TCU DSNT N-NE & NW T02780183=
201505121917 SPECI KATL 121917Z 28009KT 10SM FEW040TCU BKN120 OVC150 28/18 A3017 RMK AO2 TCU NE & NW SHRA VC NE & NW=
201505121852 METAR KATL 121852Z 28010KT 10SM SCT037TCU SCT050 BKN150 BKN250 28/18 A3017 RMK AO2 SLP207 CB DSNT W TCU N-NE-E-SE SHRA DSNT W T02830183=
201505121752 METAR KATL 121752Z 26007G15KT 10SM FEW038TCU SCT050 BKN160 28/18 A3018 RMK AO2 SLP211 TCU NW 60000 T02780183 10283 20211 58007=
201505121652 METAR KATL 121652Z COR 29006G14KT 10SM FEW035 SCT120 SCT250 27/19 A3019 RMK AO2 SLP213 T02720189=
201505121552 METAR KATL 121552Z 27006KT 10SM FEW030 SCT120 BKN150 BKN250 26/18 A3020 RMK AO2 SLP218 T02560183=
201505121452 METAR KATL 121452Z 31007KT 10SM FEW090 BKN110 BKN150 BKN250 24/18 A3020 RMK AO2 SLP219 60000 T02440183 51010=
201505121352 METAR KATL 121352Z 32005KT 10SM FEW090 BKN110 BKN150 22/18 A3020 RMK AO2 RAB36E51 SLP216 P0000 T02220178=
201505121252 METAR KATL 121252Z 30008KT 9SM FEW040 SCT080 BKN120 BKN150 23/17 A3019 RMK AO2 RAB1157E07 SLP213 SHRA DSNT W-NW P0000 T02280172=
201505121152 METAR KATL 121152Z 31008KT 10SM FEW040 SCT060 BKN100 BKN140 22/16 A3017 RMK AO2 SLP207 T02170161 10228 20211 52015=
201505121123 SPECI KATL 121123Z 32005KT 10SM SCT065 OVC080 21/16 A3017 RMK AO2=
201505121052 METAR KATL 121052Z 31005KT 10SM FEW120 SCT140 BKN180 OVC250 21/16 A3016 RMK AO2 SLP203 T02110161=
201505120952 METAR KATL 120952Z 28013KT 10SM SCT049 SCT060 BKN110 OVC140 22/16 A3014 RMK AO2 SLP195 OCNL LTGIC DSNT NW-N CB DSNT NW-N T02220161=
201505120852 METAR KATL 120852Z 00000KT 10SM BKN150 OVC250 21/16 A3013 RMK AO2 SLP191 OCNL LTGIC DSNT NW CB DSNT NW T02110156 53003=
201505120752 METAR KATL 120752Z 27003KT 10SM BKN250 22/16 A3012 RMK AO2 SLP188 T02220156=
201505120652 METAR KATL 120652Z 30006KT 10SM FEW200 BKN250 23/16 A3012 RMK AO2 SLP188 T02280156=
201505120552 METAR KATL 120552Z 27005KT 10SM BKN250 23/15 A3012 RMK AO2 SLP188 T02280150 10289 20228 55006=
201505120452 METAR KATL 120452Z 00000KT 10SM BKN250 23/16 A3012 RMK AO2 SLP187 T02330156 403170206=
201505120352 METAR KATL 120352Z 26005KT 10SM BKN250 24/15 A3013 RMK AO2 SLP192 T02440150=
201505120252 METAR KATL 120252Z 24003KT 10SM FEW200 BKN250 24/16 A3014 RMK AO2 SLP194 T02440156 51020=
201505120152 METAR KATL 120152Z 23004KT 10SM FEW150 BKN250 26/16 A3012 RMK AO2 SLP188 T02610156=
201505120052 METAR KATL 120052Z 25006KT 10SM FEW150 BKN250 27/16 A3010 RMK AO2 SLP181 T02720156=
201505112352 METAR KATL 112352Z 25008KT 10SM FEW200 BKN250 29/16 A3008 RMK AO2 SLP174 T02890156 10317 20289 53004=
201505112252 METAR KATL 112252Z 26010KT 10SM FEW060 SCT250 30/16 A3006 RMK AO2 SLP167 T03000156=
201505112152 METAR KATL 112152Z 26006KT 10SM FEW060TCU SCT090 SCT250 32/17 A3006 RMK AO2 SLP168 TCU VC NE-SE T03170167=
201505112052 METAR KATL 112052Z 22010KT 10SM FEW060 SCT090 SCT250 31/16 A3006 RMK AO2 SLP170 TCU DSNT NE & W-N T03110161 57018=
201505111952 METAR KATL 111952Z 23012KT 10SM FEW060 SCT100 SCT250 32/16 A3008 RMK AO2 SLP175 T03170161=
201505111852 METAR KATL 111852Z 23009G15KT 10SM FEW060TCU SCT250 32/17 A3011 RMK AO2 SLP183 TCU NE-E-SE T03170167=
201505111752 METAR KATL 111752Z 23010KT 10SM SCT055TCU 31/17 A3012 RMK AO2 SLP189 TCU NE-E-SE-S T03110167 10317 20228 58007=
201505111652 METAR KATL 111652Z 22011G18KT 10SM SCT060 SCT250 30/16 A3013 RMK AO2 SLP193 T03000161=
201505111552 METAR KATL 111552Z 21008KT 10SM FEW050 SCT250 30/17 A3014 RMK AO2 SLP195 T03000172=
201505111452 METAR KATL 111452Z 22008KT 10SM SCT250 29/17 A3014 RMK AO2 SLP196 T02890172 51006=
201505111352 METAR KATL 111352Z 21005KT 10SM SCT250 27/18 A3013 RMK AO2 SLP193 T02720178=
201505111252 METAR KATL 111252Z 22004KT 10SM FEW250 25/18 A3014 RMK AO2 SLP194 T02500178=
201505111152 METAR KATL 111152Z 00000KT 10SM FEW250 23/18 A3012 RMK AO2 SLP190 T02280178 10233 20206 53010=
201505111052 METAR KATL 111052Z 00000KT 10SM FEW250 22/17 A3010 RMK AO2 SLP183 T02170172=
201505110952 METAR KATL 110952Z 00000KT 10SM FEW250 22/17 A3009 RMK AO2 SLP181 T02170172=
201505110852 METAR KATL 110852Z 00000KT 10SM FEW250 22/17 A3009 RMK AO2 SLP179 T02170167 56005=
201505110752 METAR KATL 110752Z 00000KT 10SM FEW250 22/17 A3010 RMK AO2 SLP180 T02220167=
201505110652 METAR KATL 110652Z 00000KT 10SM FEW250 23/17 A3009 RMK AO2 SLP180 T02280172=
201505110552 METAR KATL 110552Z 00000KT 10SM FEW250 23/17 A3011 RMK AO2 SLP185 T02330172 10283 20228 57003=
201505110452 METAR KATL 110452Z 22003KT 10SM FEW250 24/17 A3011 RMK AO2 SLP186 T02390172 403170200=
201505110352 METAR KATL 110352Z 00000KT 10SM FEW250 25/18 A3012 RMK AO2 SLP187 T02500178=
201505110252 METAR KATL 110252Z 00000KT 10SM FEW250 26/17 A3012 RMK AO2 SLP188 T02560172 53014=
201505110152 METAR KATL 110152Z 23003KT 10SM FEW250 26/17 A3010 RMK AO2 SLP183 T02610172=
201505110052 METAR KATL 110052Z 00000KT 10SM FEW085 SCT250 27/17 A3008 RMK AO2 SLP176 CB DSNT NE T02720172=
201505102352 METAR KATL 102352Z 27005KT 10SM FEW050 SCT090 SCT200 SCT250 28/17 A3008 RMK AO2 SLP175 CB DSNT NE AND S TCU DSNT SE T02830167 10317 20283 58001=
201505102252 METAR KATL 102252Z 28009KT 10SM FEW050 SCT085 SCT200 SCT250 29/17 A3008 RMK AO2 SLP177 CB DSNT S T02940172=
201505102152 METAR KATL 102152Z 23005KT 10SM FEW055 SCT100 SCT250 29/17 A3008 RMK AO2 SLP175 TCU DSNT E T02940172=
201505102052 METAR KATL 102052Z 21007KT 10SM SCT055 30/17 A3008 RMK AO2 SLP176 T03000167 58017=
201505101952 METAR KATL 101952Z 17004KT 10SM SCT055 31/17 A3010 RMK AO2 SLP182 T03060172=
201505101852 METAR KATL 101852Z 31003KT 10SM BKN050 30/18 A3012 RMK AO2 SLP188 T03000178=
201505101752 METAR KATL 101752Z 26006KT 10SM SCT050 BKN150 29/17 A3013 RMK AO2 SLP193 T02940172 10294 20211 58009=
201505101652 METAR KATL 101652Z VRB03KT 10SM FEW050 BKN150 29/17 A3015 RMK AO2 SLP200 T02940172=
201505101552 METAR KATL 101552Z 00000KT 10SM FEW045 SCT150 27/16 A3016 RMK AO2 SLP202 T02720161=
201505101452 METAR KATL 101452Z 14005KT 10SM FEW150 SCT250 26/17 A3016 RMK AO2 SLP203 T02610167 51004=
201505101352 METAR KATL 101352Z 13004KT 10SM FEW250 25/17 A3016 RMK AO2 SLP202 T02500167=
201505101252 METAR KATL 101252Z 12006KT 10SM FEW100 SCT250 23/16 A3016 RMK AO2 SLP203 T02330161=
201505101152 METAR KATL 101152Z 08004KT 10SM FEW100 SCT250 21/16 A3015 RMK AO2 SLP199 T02110161 10239 20200 53012=
201505101052 METAR KATL 101052Z 10003KT 10SM FEW065 SCT250 21/15 A3013 RMK AO2 SLP192 T02060150=
201505100952 METAR KATL 100952Z 10004KT 10SM FEW250 20/15 A3011 RMK AO2 SLP187 T02000150=
201505100852 METAR KATL 100852Z 10003KT 10SM FEW065 SCT250 21/16 A3011 RMK AO2 SLP187 T02110156 55002=
201505100752 METAR KATL 100752Z 09004KT 10SM FEW065 SCT250 22/16 A3011 RMK AO2 SLP186 T02220156=
201505100652 METAR KATL 100652Z 00000KT 10SM SCT070 BKN200 23/16 A3011 RMK AO2 SLP185 T02280156=
201505100552 METAR KATL 100552Z 00000KT 10SM SCT070 BKN200 24/16 A3012 RMK AO2 SLP187 T02390156 10283 20228 50001=
201505100452 METAR KATL 100452Z 00000KT 10SM SCT065 BKN200 BKN250 23/16 A3012 RMK AO2 SLP189 T02330156 402940206=
201505100352 METAR KATL 100352Z 15003KT 10SM FEW200 SCT250 23/16 A3011 RMK AO2 SLP187 T02330156=
201505100252 METAR KATL 100252Z 00000KT 10SM FEW100 SCT200 BKN250 24/16 A3011 RMK AO2 SLP188 T02390161 51015=
201505100152 METAR KATL 100152Z 10005KT 10SM FEW055 SCT100 SCT250 26/16 A3010 RMK AO2 SLP185 T02560161=
201505100052 METAR KATL 100052Z 00000KT 10SM FEW060 SCT100 SCT200 SCT250 27/16 A3009 RMK AO2 SLP180 T02670156=
201505092352 METAR KATL 092352Z 12005KT 10SM FEW055 SCT200 SCT250 28/15 A3007 RMK AO2 SLP172 T02830150 10294 20278 53001=
201505092252 METAR KATL 092252Z 13005KT 10SM FEW055 SCT250 29/14 A3006 RMK AO2 SLP169 T02890144=
201505092152 METAR KATL 092152Z 12004KT 10SM FEW060 SCT200 SCT250 29/14 A3006 RMK AO2 SLP169 T02890144=
201505092052 METAR KATL 092052Z 09005KT 10SM FEW055 SCT090 BKN250 28/16 A3006 RMK AO2 SLP170 T02830161 58023=
201505091952 METAR KATL 091952Z 00000KT 10SM SCT050 BKN250 28/16 A3009 RMK AO2 SLP179 T02830161=
201505091852 METAR KATL 091852Z 06006KT 10SM SCT050 BKN250 29/17 A3011 RMK AO2 SLP186 T02940172=
201505091752 METAR KATL 091752Z 00000KT 10SM FEW045 BKN250 28/17 A3013 RMK AO2 SLP193 T02830167 10283 20206 58001=
201505091652 METAR KATL 091652Z 03004KT 10SM FEW045 BKN250 28/16 A3015 RMK AO2 SLP198 T02780161=
201505091552 METAR KATL 091552Z VRB05KT 10SM FEW040 BKN250 26/16 A3014 RMK AO2 SLP197 T02610156=
201505091452 METAR KATL 091452Z 08006KT 10SM BKN250 24/17 A3014 RMK AO2 SLP195 T02440167 55004=
201505091352 METAR KATL 091352Z 11006KT 10SM BKN250 23/16 A3013 RMK AO2 SLP194 T02330156=
201505091252 METAR KATL 091252Z 10007KT 10SM FEW065 BKN250 22/16 A3014 RMK AO2 SLP196 T02220156=
201505091152 METAR KATL 091152Z 09008KT 10SM FEW065 OVC250 21/16 A3015 RMK AO2 SLP200 T02060156 10233 20206 51013=
201505091052 METAR KATL 091052Z 08009KT 10SM SCT060 BKN250 21/15 A3013 RMK AO2 SLP194 T02110150=
201505090952 METAR KATL 090952Z 06009KT 10SM BKN060 BKN100 BKN250 22/15 A3012 RMK AO2 SLP190 T02170150=
201505090852 METAR KATL 090852Z 07005KT 10SM FEW060 BKN100 BKN250 22/15 A3011 RMK AO2 SLP185 T02220150 53007=
201505090752 METAR KATL 090752Z 05006KT 10SM BKN065 BKN090 23/16 A3010 RMK AO2 SLP183 T02280156=
201505090652 METAR KATL 090652Z 08003KT 10SM SCT060 BKN090 22/16 A3009 RMK AO2 SLP177 T02220156=
201505090552 METAR KATL 090552Z 09004KT 10SM BKN065 BKN250 23/16 A3009 RMK AO2 SLP177 T02330156 10278 20228 53004=
201505090452 METAR KATL 090452Z 09004KT 10SM FEW060 SCT250 23/16 A3008 RMK AO2 SLP175 T02330156 403060172=
201505090352 METAR KATL 090352Z 08006KT 10SM SCT065 BKN080 BKN250 25/16 A3007 RMK AO2 SLP170 T02500156=
201505090252 METAR KATL 090252Z 06006KT 10SM SCT065 BKN080 BKN250 26/16 A3007 RMK AO2 SLP172 T02610156 53011=
201505090152 METAR KATL 090152Z 32005KT 10SM SCT065 BKN250 26/15 A3006 RMK AO2 SLP169 T02610150=
201505090052 METAR KATL 090052Z 30004KT 10SM FEW065 BKN250 26/14 A3004 RMK AO2 SLP164 T02610144=
201505082352 METAR KATL 082352Z 29005KT 10SM FEW065 BKN250 28/14 A3004 RMK AO2 SLP163 T02780144 10306 20278 55003=
201505082252 METAR KATL 082252Z 30005KT 10SM FEW065 SCT250 29/14 A3003 RMK AO2 SLP161 T02940144=
201505082152 METAR KATL 082152Z 00000KT 10SM FEW065 30/14 A3003 RMK AO2 SLP160 T03000139=
201505082052 METAR KATL 082052Z 00000KT 10SM BKN065 28/14 A3005 RMK AO2 SLP166 T02830139 56018=
201505081952 METAR KATL 081952Z VRB05KT 10SM SCT060 30/16 A3006 RMK AO2 SLP170 T03000156=
201505081852 METAR KATL 081852Z VRB06KT 10SM SCT065 30/15 A3009 RMK AO2 SLP178 T03000150=
201505081752 METAR KATL 081752Z 33005KT 10SM BKN055 29/15 A3010 RMK AO2 SLP184 T02940150 10294 20194 58012=
201505081652 METAR KATL 081652Z 36004KT 10SM FEW050 28/14 A3012 RMK AO2 SLP191 T02780144=
201505081552 METAR KATL 081552Z VRB04KT 10SM FEW050 SCT060 27/15 A3014 RMK AO2 SLP195 T02720150=
201505081452 METAR KATL 081452Z 35004KT 10SM BKN060 27/15 A3014 RMK AO2 SLP197 T02670150 51005=
201505081352 METAR KATL 081352Z VRB03KT 10SM FEW140 SCT250 25/13 A3014 RMK AO2 SLP195 T02500133=
201505081252 METAR KATL 081252Z 31003KT 10SM FEW250 22/14 A3013 RMK AO2 SLP195 T02220139=
201505081152 METAR KATL 081152Z 00000KT 10SM FEW250 20/16 A3012 RMK AO2 SLP192 T02000156 10200 20172 53014=
201505081052 METAR KATL 081052Z 33004KT 10SM FEW140 SCT200 SCT250 17/14 A3011 RMK AO2 SLP187 T01720139=
201505080952 METAR KATL 080952Z 00000KT 10SM FEW250 18/14 A3008 RMK AO2 SLP178 T01780139=
201505080852 METAR KATL 080852Z 00000KT 10SM FEW250 18/14 A3008 RMK AO2 SLP177 T01830139 56002=
201505080752 METAR KATL 080752Z 00000KT 10SM FEW200 19/14 A3008 RMK AO2 SLP177 T01940139=
201505080652 METAR KATL 080652Z 00000KT 10SM FEW250 19/14 A3008 RMK AO2 SLP178 T01940139=
201505080552 METAR KATL 080552Z 00000KT 10SM FEW200 SCT250 20/14 A3009 RMK AO2 SLP179 T02000139 10272 20200 58002=
201505080452 METAR KATL 080452Z 00000KT 10SM FEW200 22/14 A3010 RMK AO2 SLP181 T02220139 402890161=
201505080352 METAR KATL 080352Z 00000KT 10SM FEW200 22/14 A3010 RMK AO2 SLP182 T02220139=
201505080252 METAR KATL 080252Z 00000KT 10SM FEW200 23/14 A3009 RMK AO2 SLP182 T02280139 51009=
201505080152 METAR KATL 080152Z 12004KT 10SM FEW200 24/13 A3009 RMK AO2 SLP180 T02440133=
201505080052 METAR KATL 080052Z 12006KT 10SM FEW200 26/13 A3008 RMK AO2 SLP178 T02560133=
201505072352 METAR KATL 072352Z 12006KT 10SM FEW065 SCT250 27/13 A3007 RMK AO2 SLP172 T02720128 10289 20267 56004=
201505072252 METAR KATL 072252Z 09005KT 10SM FEW065 SCT250 27/13 A3007 RMK AO2 SLP174 T02720128=
201505072152 METAR KATL 072152Z COR 09008KT 10SM FEW070 SCT250 28/13 A3007 RMK AO2 SLP176 T02830128=
201505072052 METAR KATL 072052Z 00000KT 10SM FEW065 SCT250 28/12 A3008 RMK AO2 SLP177 T02830122 56016=
201505071952 METAR KATL 071952Z VRB05G14KT 10SM SCT065 SCT250 29/13 A3009 RMK AO2 SLP182 T02890133=
201505071852 METAR KATL 071852Z 05005KT 10SM SCT060 SCT250 28/13 A3011 RMK AO2 SLP187 T02830128=
201505071752 METAR KATL 071752Z 10010G14KT 10SM SCT060 SCT250 28/13 A3013 RMK AO2 SLP193 T02780133 10278 20189 58011=
201505071652 SPECI KATL 071652Z 11006KT 10SM FEW060 SCT250 27/13 A3015 RMK AO2 SLP200 T02720128=
201505071652 METAR KATL 071652Z COR 11006KT 10SM FEW060 FEW250 27/13 A3015 RMK AO2 SLP200 T02720128=
201505071552 METAR KATL 071552Z COR 00000KT 10SM FEW060 FEW250 27/12 A3016 RMK AO2 SLP204 T02670122=
201505071452 METAR KATL 071452Z VRB05KT 10SM FEW250 26/12 A3016 RMK AO2 SLP204 T02560122 51003=
201505071352 METAR KATL 071352Z 35005KT 10SM FEW250 24/12 A3016 RMK AO2 SLP204 T02440122=
201505071252 METAR KATL 071252Z 35005KT 10SM FEW250 23/12 A3016 RMK AO2 SLP204 T02280117=
201505071152 METAR KATL 071152Z 02003KT 10SM FEW250 19/13 A3015 RMK AO2 SLP202 T01890128 10206 20161 53019=
201505071052 METAR KATL 071052Z 03004KT 10SM FEW200 SCT250 18/11 A3012 RMK AO2 SLP193 T01830111=
201505070952 METAR KATL 070952Z 02004KT 10SM FEW200 17/12 A3011 RMK AO2 SLP187 T01720117=
201505070852 METAR KATL 070852Z 00000KT 10SM FEW250 18/12 A3009 RMK AO2 SLP183 T01780117 56010=
201505070752 METAR KATL 070752Z 00000KT 10SM FEW250 17/12 A3010 RMK AO2 SLP186 T01670117=
201505070652 METAR KATL 070652Z 00000KT 10SM CLR 18/12 A3011 RMK AO2 SLP187 T01780117=
201505070552 METAR KATL 070552Z 07003KT 10SM FEW250 21/12 A3012 RMK AO2 SLP192 T02060117 10256 20194 58004=
201505070452 METAR KATL 070452Z 00000KT 10SM FEW250 20/12 A3014 RMK AO2 SLP198 T02000117 402780156=
201505070352 METAR KATL 070352Z 00000KT 10SM FEW250 21/12 A3014 RMK AO2 SLP198 T02110117=
201505070252 METAR KATL 070252Z 00000KT 10SM FEW060 22/11 A3014 RMK AO2 SLP198 T02220111 53009=
201505070152 METAR KATL 070152Z 15003KT 10SM FEW250 23/11 A3013 RMK AO2 SLP196 T02280111=
201505070052 METAR KATL 070052Z 14003KT 10SM FEW250 24/10 A3011 RMK AO2 SLP189 T02440100=
201505062352 METAR KATL 062352Z 12006KT 10SM FEW065 26/09 A3011 RMK AO2 SLP189 T02560094 10278 20244 56004=
201505062252 METAR KATL 062252Z 09007KT 10SM FEW065 26/11 A3011 RMK AO2 SLP190 T02610106=
201505062152 METAR KATL 062152Z 00000KT 10SM FEW065 27/11 A3012 RMK AO2 SLP192 T02670106=
201505062052 METAR KATL 062052Z 00000KT 10SM FEW065 27/11 A3012 RMK AO2 SLP192 T02670106 58021=
201505061952 METAR KATL 061952Z 09008KT 10SM FEW060 SCT250 27/12 A3014 RMK AO2 SLP200 T02720117=
201505061852 METAR KATL 061852Z 04006KT 10SM FEW060 SCT250 26/12 A3016 RMK AO2 SLP206 T02610122=
201505061752 METAR KATL 061752Z 13007KT 10SM FEW060 SCT250 26/12 A3018 RMK AO2 SLP213 T02610117 10261 20178 58015=
201505061652 METAR KATL 061652Z 07011G16KT 10SM FEW050 SCT250 24/11 A3021 RMK AO2 SLP222 T02440111=
201505061552 METAR KATL 061552Z 00000KT 10SM FEW048 SCT250 24/12 A3023 RMK AO2 SLP228 T02440122=
201505061452 METAR KATL 061452Z VRB04KT 10SM FEW250 23/13 A3023 RMK AO2 SLP229 T02330128 50001=
201505061352 METAR KATL 061352Z COR 00000KT 10SM FEW005 FEW250 21/13 A3024 RMK AO2 SLP232 FU FEW005 T02060128=
201505061252 METAR KATL 061252Z VRB03KT 10SM FEW250 19/13 A3024 RMK AO2 SLP232 T01940128=
201505061152 METAR KATL 061152Z 07004KT 10SM FEW250 18/12 A3023 RMK AO2 SLP228 T01780122 10189 20156 53004=
201505061052 METAR KATL 061052Z 09004KT 10SM FEW250 16/11 A3021 RMK AO2 SLP225 T01560106=
201505060952 METAR KATL 060952Z 09004KT 10SM FEW250 16/11 A3021 RMK AO2 SLP222 T01610111=
201505060852 METAR KATL 060852Z 09003KT 10SM FEW250 17/11 A3021 RMK AO2 SLP223 T01720106 55007=
201505060752 METAR KATL 060752Z 09003KT 10SM FEW250 18/11 A3021 RMK AO2 SLP223 T01780111=
201505060652 METAR KATL 060652Z 08003KT 10SM FEW250 18/11 A3022 RMK AO2 SLP225 T01780111=
201505060552 METAR KATL 060552Z 07005KT 10SM FEW250 19/11 A3023 RMK AO2 SLP230 T01890111 10250 20189 58003=
201505060452 METAR KATL 060452Z 08004KT 10SM FEW250 19/11 A3025 RMK AO2 SLP234 T01940106 402720150=
201505060352 METAR KATL 060352Z 09004KT 10SM FEW250 21/11 A3025 RMK AO2 SLP235 T02060106=
201505060252 METAR KATL 060252Z 12003KT 10SM FEW250 22/11 A3024 RMK AO2 SLP234 T02170106 51010=
201505060152 METAR KATL 060152Z 12004KT 10SM FEW250 23/11 A3023 RMK AO2 SLP231 T02280106=
201505060052 METAR KATL 060052Z 12005KT 10SM FEW250 24/10 A3022 RMK AO2 SLP227 T02390100=
201505052352 METAR KATL 052352Z 13005KT 10SM FEW060 25/09 A3021 RMK AO2 SLP224 T02500089 10272 20250 55006=
201505052252 METAR KATL 052252Z 14008KT 10SM FEW065 26/10 A3021 RMK AO2 SLP223 T02560100=
201505052152 METAR KATL 052152Z 13011G16KT 10SM FEW065 26/09 A3022 RMK AO2 SLP226 T02610094=
201505052052 METAR KATL 052052Z 13010G15KT 10SM FEW070 SCT085 27/11 A3023 RMK AO2 SLP230 T02670106 56022=
201505051952 METAR KATL 051952Z 12009KT 090V150 10SM SCT060TCU 27/11 A3025 RMK AO2 SLP237 TCU NE & SE T02670111=
201505051852 METAR KATL 051852Z 08009G15KT 10SM SCT055 26/12 A3027 RMK AO2 SLP244 T02610122=
201505051752 METAR KATL 051752Z 09009KT 10SM SCT050 26/13 A3030 RMK AO2 SLP252 TCU DSNT NE-E T02610128 10261 20172 58013=
201505051652 METAR KATL 051652Z VRB06KT 10SM FEW050 24/12 A3032 RMK AO2 SLP260 T02440122=
201505051552 METAR KATL 051552Z VRB06KT 10SM CLR 24/12 A3033 RMK AO2 SLP265 T02390122=
201505051452 METAR KATL 051452Z VRB05KT 10SM CLR 22/13 A3034 RMK AO2 SLP266 T02170128 58001=
201505051352 METAR KATL 051352Z 12003KT 10SM CLR 20/12 A3034 RMK AO2 SLP269 T02000122=
201505051252 METAR KATL 051252Z 10004KT 10SM CLR 19/12 A3035 RMK AO2 SLP270 T01890122=
201505051152 METAR KATL 051152Z 00000KT 10SM CLR 17/13 A3034 RMK AO2 SLP267 T01720128 10183 20150 53016=
201505051052 METAR KATL 051052Z 00000KT 10SM FEW250 16/12 A3031 RMK AO2 SLP258 T01610117=
201505050952 METAR KATL 050952Z 12003KT 10SM CLR 17/12 A3030 RMK AO2 SLP254 T01670117=
201505050852 METAR KATL 050852Z 12003KT 10SM CLR 17/12 A3029 RMK AO2 SLP251 T01670117 53000=
201505050752 METAR KATL 050752Z 12003KT 10SM CLR 17/12 A3028 RMK AO2 SLP245 T01720117=
201505050652 METAR KATL 050652Z 14003KT 10SM CLR 18/12 A3028 RMK AO2 SLP248 T01780117=
201505050552 METAR KATL 050552Z 15004KT 10SM CLR 18/12 A3029 RMK AO2 SLP249 T01830117 10244 20183 50000=
201505050452 METAR KATL 050452Z 16006KT 10SM CLR 19/11 A3030 RMK AO2 SLP253 T01890111 402720150=
201505050352 METAR KATL 050352Z 15004KT 10SM CLR 21/11 A3029 RMK AO2 SLP249 T02060111=
201505050252 METAR KATL 050252Z 16003KT 10SM CLR 21/11 A3029 RMK AO2 SLP249 T02110106 53014=
201505050152 METAR KATL 050152Z 16004KT 10SM FEW090 22/11 A3028 RMK AO2 SLP244 T02220106=
201505050052 METAR KATL 050052Z 17005KT 10SM FEW090 23/11 A3026 RMK AO2 SLP240 T02280106=
201505042352 METAR KATL 042352Z 15005KT 10SM FEW090 24/10 A3025 RMK AO2 SLP236 T02440100 10272 20244 55001=
201505042252 METAR KATL 042252Z 17008KT 10SM FEW070 26/10 A3024 RMK AO2 SLP233 T02610100=
201505042152 METAR KATL 042152Z 18006KT 10SM FEW070 SCT090 27/09 A3024 RMK AO2 SLP233 T02670094=
201505042052 METAR KATL 042052Z 16009KT 10SM FEW070 BKN090 27/09 A3025 RMK AO2 SLP237 T02670089 57017=
201505041952 METAR KATL 041952Z 21005KT 10SM FEW070 BKN090 27/09 A3027 RMK AO2 SLP243 T02670089=
201505041852 METAR KATL 041852Z 15007KT 10SM FEW075 SCT085 26/08 A3028 RMK AO2 SLP248 T02560083=
201505041752 METAR KATL 041752Z VRB05KT 10SM SCT070 SCT090 27/09 A3030 RMK AO2 SLP253 T02670094 10267 20167 58004=
201505041652 METAR KATL 041652Z VRB04KT 10SM BKN070 BKN090 26/09 A3032 RMK AO2 SLP258 T02610089=
201505041552 METAR KATL 041552Z 17007KT 10SM FEW065 SCT250 25/10 A3032 RMK AO2 SLP260 T02500100=
201505041452 METAR KATL 041452Z 20004KT 10SM FEW250 24/11 A3031 RMK AO2 SLP257 T02390106 51012=
201505041352 METAR KATL 041352Z 00000KT 10SM FEW040 SCT250 22/11 A3030 RMK AO2 SLP254 T02170106=
201505041252 METAR KATL 041252Z 20003KT 10SM FEW070 18/11 A3029 RMK AO2 SLP252 T01830106=
201505041152 METAR KATL 041152Z 00000KT 10SM FEW070 SCT220 17/10 A3028 RMK AO2 SLP246 T01670100 10183 20150 53027=
201505041052 METAR KATL 041052Z 00000KT 10SM FEW220 16/09 A3024 RMK AO2 SLP236 T01560094=
201505040952 METAR KATL 040952Z 00000KT 10SM FEW220 16/10 A3021 RMK AO2 SLP224 T01560100=
201505040852 METAR KATL 040852Z 00000KT 10SM CLR 17/09 A3019 RMK AO2 SLP217 T01670094 55004=
201505040752 METAR KATL 040752Z 00000KT 10SM CLR 17/10 A3019 RMK AO2 SLP216 T01670100=
201505040652 METAR KATL 040652Z 00000KT 10SM FEW070 18/10 A3020 RMK AO2 SLP219 T01780100=
201505040552 METAR KATL 040552Z 00000KT 10SM FEW075 SCT250 18/10 A3020 RMK AO2 SLP221 T01830100 10239 20183 51005=
201505040452 METAR KATL 040452Z 17003KT 10SM FEW080 SCT250 19/10 A3020 RMK AO2 SLP221 ACC NW-NE T01890100 402610128=
201505040352 METAR KATL 040352Z 18003KT 10SM SCT080 SCT250 19/09 A3020 RMK AO2 SLP220 T01940094=
201505040252 METAR KATL 040252Z 00000KT 10SM FEW075 BKN250 21/09 A3019 RMK AO2 SLP216 T02060094 53017=
201505040152 METAR KATL 040152Z 19003KT 10SM FEW070 BKN250 21/09 A3017 RMK AO2 SLP210 T02060094=
201505040052 METAR KATL 040052Z 18004KT 10SM FEW070 BKN250 22/08 A3015 RMK AO2 SLP205 T02220083=
201505032352 METAR KATL 032352Z 20005KT 10SM FEW075 BKN300 24/08 A3014 RMK AO2 SLP200 T02390083 10261 20239 53000=
201505032252 METAR KATL 032252Z 21006KT 10SM FEW080 BKN300 24/08 A3013 RMK AO2 SLP197 T02440078=
201505032152 METAR KATL 032152Z VRB04KT 10SM SCT080 BKN300 26/08 A3013 RMK AO2 SLP197 T02560078=
201505032052 METAR KATL 032052Z COR 14007KT 10SM SCT075 BKN250 25/07 A3014 RMK AO2 SLP200 T02500072 56014=
201505031952 METAR KATL 031952Z 00000KT 10SM SCT070 SCT250 26/09 A3015 RMK AO2 SLP203 T02610089=
201505031852 METAR KATL 031852Z 21008KT 10SM SCT070 SCT250 26/08 A3017 RMK AO2 SLP208 T02560083=
201505031752 METAR KATL 031752Z 17009KT 10SM SCT070 SCT250 25/09 A3018 RMK AO2 SLP214 T02500089 10250 20150 58004=
201505031652 METAR KATL 031652Z 19009KT 10SM SCT065 SCT250 24/08 A3020 RMK AO2 SLP219 T02440078=
201505031552 METAR KATL 031552Z 24008KT 10SM FEW055 SCT250 23/08 A3020 RMK AO2 SLP221 T02330078=
201505031452 METAR KATL 031452Z VRB03KT 10SM FEW050 SCT250 23/10 A3019 RMK AO2 SLP217 T02280100 51015=
201505031352 METAR KATL 031352Z 00000KT 10SM FEW250 21/11 A3018 RMK AO2 SLP215 T02110106=
201505031252 METAR KATL 031252Z 29003KT 10SM CLR 19/11 A3017 RMK AO2 SLP211 T01890106=
201505031152 METAR KATL 031152Z 29003KT 10SM CLR 15/10 A3015 RMK AO2 SLP204 T01500100 10167 20128 53016=
201505031052 METAR KATL 031052Z 29003KT 10SM CLR 14/09 A3012 RMK AO2 SLP194 T01390089=
201505030952 METAR KATL 030952Z 00000KT 10SM CLR 14/08 A3011 RMK AO2 SLP189 T01440083=
201505030852 METAR KATL 030852Z 24003KT 10SM CLR 14/09 A3010 RMK AO2 SLP187 T01390089 55002=
201505030752 METAR KATL 030752Z 00000KT 10SM CLR 14/09 A3009 RMK AO2 SLP183 T01390089=
201505030652 METAR KATL 030652Z 00000KT 10SM CLR 16/09 A3009 RMK AO2 SLP184 T01610089=
201505030552 METAR KATL 030552Z 27003KT 10SM FEW070 16/09 A3011 RMK AO2 SLP188 T01560089 10222 20150 50000=
201505030452 METAR KATL 030452Z 00000KT 10SM FEW070 17/09 A3011 RMK AO2 SLP189 T01720094 402500111=
201505030352 METAR KATL 030352Z 00000KT 10SM FEW075 17/09 A3011 RMK AO2 SLP190 T01720094=
201505030252 METAR KATL 030252Z 32003KT 10SM SCT075 SCT250 20/08 A3010 RMK AO2 SLP188 T02000083 53018=
201505030152 METAR KATL 030152Z 00000KT 10SM FEW065 SCT250 19/09 A3009 RMK AO2 SLP183 T01940089=
201505030052 METAR KATL 030052Z 00000KT 10SM FEW065 SCT250 21/08 A3007 RMK AO2 SLP176 T02060078=
201505022352 METAR KATL 022352Z 27005KT 10SM FEW070 SCT250 22/08 A3005 RMK AO2 SLP171 T02220078 10250 20222 53001=
201505022252 METAR KATL 022252Z 00000KT 10SM FEW070 SCT250 24/08 A3004 RMK AO2 SLP168 T02440078=
201505022152 METAR KATL 022152Z 29006KT 10SM FEW075 SCT250 24/08 A3004 RMK AO2 SLP167 T02390083=
201505022052 METAR KATL 022052Z VRB03KT 10SM FEW070 SCT250 24/07 A3005 RMK AO2 SLP171 T02390072 57022=
201505021952 METAR KATL 021952Z 00000KT 10SM SCT065 24/08 A3007 RMK AO2 SLP177 T02440078=
201505021852 METAR KATL 021852Z VRB05KT 10SM FEW060 23/07 A3009 RMK AO2 SLP186 T02280067=
201505021752 METAR KATL 021752Z 00000KT 10SM FEW055 23/08 A3012 RMK AO2 SLP193 T02280083 10233 20133 58010=
201505021652 METAR KATL 021652Z 00000KT 10SM FEW050 SCT250 21/07 A3013 RMK AO2 SLP199 T02110072=
201505021552 METAR KATL 021552Z VRB04KT 10SM FEW050 SCT250 21/08 A3014 RMK AO2 SLP202 T02060083=
201505021452 METAR KATL 021452Z 20006KT 10SM FEW250 19/08 A3014 RMK AO2 SLP204 T01940078 51006=
201505021352 METAR KATL 021352Z VRB04KT 10SM FEW250 18/08 A3014 RMK AO2 SLP203 T01780083=
201505021252 METAR KATL 021252Z VRB03KT 10SM FEW250 16/08 A3014 RMK AO2 SLP202 T01610078=
201505021152 METAR KATL 021152Z 09004KT 10SM CLR 13/07 A3013 RMK AO2 SLP199 T01330072 10144 20111 53017=
201505021052 METAR KATL 021052Z 10003KT 10SM CLR 12/06 A3010 RMK AO2 SLP191 T01220061=
201505020952 METAR KATL 020952Z 09003KT 10SM CLR 13/06 A3009 RMK AO2 SLP184 T01280061=
201505020852 METAR KATL 020852Z 09004KT 10SM CLR 12/06 A3008 RMK AO2 SLP182 T01170061 53003=
201505020752 METAR KATL 020752Z 06006KT 10SM CLR 13/06 A3007 RMK AO2 SLP178 T01330061=
201505020652 METAR KATL 020652Z 06010KT 10SM CLR 14/07 A3006 RMK AO2 SLP175 T01390067=
201505020552 METAR KATL 020552Z 01007KT 10SM CLR 14/06 A3007 RMK AO2 SLP178 T01390061 10189 20128 51001=
201505020452 METAR KATL 020452Z 33006KT 10SM CLR 13/06 A3007 RMK AO2 SLP178 T01330061 402110089=
201505020352 METAR KATL 020352Z 35005KT 10SM CLR 15/06 A3007 RMK AO2 SLP178 T01500061=
201505020252 METAR KATL 020252Z 32005KT 10SM CLR 15/06 A3006 RMK AO2 SLP178 T01500061 51022=
201505020152 METAR KATL 020152Z 33006KT 10SM CLR 16/06 A3005 RMK AO2 SLP175 T01610056=
201505020052 METAR KATL 020052Z 34010KT 10SM CLR 18/05 A3003 RMK AO2 SLP167 T01780050=
201505012352 METAR KATL 012352Z 33011KT 10SM CLR 19/06 A3000 RMK AO2 SLP156 T01890061 10211 20189 53007=
201505012252 METAR KATL 012252Z 34011KT 10SM CLR 21/05 A2998 RMK AO2 SLP150 T02060050=
201505012152 METAR KATL 012152Z 34011KT 10SM FEW065 21/05 A2997 RMK AO2 SLP147 T02110050=
201505012052 METAR KATL 012052Z 34009G20KT 280V360 10SM FEW065 21/06 A2998 RMK AO2 SLP148 T02110056 58008=
201505011952 METAR KATL 011952Z 33010G21KT 10SM FEW065 21/05 A2998 RMK AO2 SLP150 T02060050=
201505011852 METAR KATL 011852Z 33011KT 10SM FEW065 21/06 A2999 RMK AO2 SLP153 T02060061=
201505011752 METAR KATL 011752Z 35012G16KT 10SM FEW065 19/05 A3000 RMK AO2 SLP156 T01940050 10200 20094 51000=
201505011652 METAR KATL 011652Z 35015G19KT 10SM CLR 19/04 A3000 RMK AO2 SLP155 T01890044=
201505011552 METAR KATL 011552Z 34012G18KT 10SM FEW050 17/04 A3000 RMK AO2 SLP156 T01720044=
201505011452 METAR KATL 011452Z 35008KT 10SM CLR 16/06 A3000 RMK AO2 SLP154 T01610056 51012=
201505011352 METAR KATL 011352Z 33014KT 10SM CLR 14/05 A2999 RMK AO2 SLP151 T01390050=
201505011252 METAR KATL 011252Z 35014G18KT 10SM CLR 12/05 A2998 RMK AO2 SLP149 T01170050=
