##########################################################
# Query made at 04/19/2024 23:43:16 UTC
# Time interval: from 04/01/2015 12:00  to 04/30/2015 12:59  UTC
##########################################################

##########################################################
# KATL, Atlanta, Hartsfield - Jackson Atlanta International Airport (United States)
# WMO index: 72219. WIGOS ID: 0-20000-0-72219
# Latitude 33-38-59N. Longitude 084-25-00W. Altitude 312 m.
##########################################################

201504301252 METAR KATL 301252Z 31011KT 10SM CLR 14/09 A2981 RMK AO2 SLP092 T01390094=
201504301152 METAR KATL 301152Z 30008KT 10SM CLR 12/09 A2979 RMK AO2 SLP086 70038 T01220094 10128 20111 53014=
201504301052 METAR KATL 301052Z 31009KT 10SM FEW080 12/09 A2978 RMK AO2 SLP080 T01170094=
201504300952 METAR KATL 300952Z 30009KT 10SM FEW110 12/10 A2976 RMK AO2 SLP073 T01220100=
201504300852 METAR KATL 300852Z 30007KT 10SM FEW070 SCT110 12/10 A2975 RMK AO2 SLP072 T01220100 56011=
201504300752 METAR KATL 300752Z 29005KT 10SM FEW026 SCT070 SCT110 12/10 A2976 RMK AO2 SLP075 T01220100=
201504300652 METAR KATL 300652Z 28005KT 10SM FEW030 SCT110 11/09 A2977 RMK AO2 SLP078 T01110094=
201504300552 METAR KATL 300552Z 28004KT 10SM FEW100 12/10 A2979 RMK AO2 SLP085 T01220100 10161 20122 58004=
201504300452 METAR KATL 300452Z 27003KT 10SM FEW100 13/11 A2981 RMK AO2 SLP091 T01280106 402000122=
201504300352 METAR KATL 300352Z 27004KT 10SM FEW100 13/11 A2981 RMK AO2 SLP092 T01280111=
201504300252 METAR KATL 300252Z 27003KT 10SM FEW100 14/11 A2980 RMK AO2 SLP089 T01390106 51004=
201504300152 METAR KATL 300152Z 00000KT 10SM SCT100 14/11 A2979 RMK AO2 SLP087 T01440111=
201504300052 METAR KATL 300052Z 00000KT 10SM BKN100 16/11 A2980 RMK AO2 SLP088 T01610106=
201504292352 METAR KATL 292352Z 33005KT 10SM FEW025 SCT100 16/10 A2979 RMK AO2 SLP083 T01610100 10178 20139 53003=
201504292252 METAR KATL 292252Z 34005KT 10SM FEW027 SCT090 17/10 A2977 RMK AO2 SLP080 T01670100=
201504292152 METAR KATL 292152Z 05006KT 10SM SCT027 BKN080 17/10 A2978 RMK AO2 SLP080 T01670100=
201504292101 SPECI KATL 292101Z 05004KT 10SM SCT027 BKN040 BKN080 17/11 A2978 RMK AO2=
201504292055 SPECI KATL 292055Z 06005KT 10SM BKN027 BKN040 BKN080 16/10 A2978 RMK AO2=
201504292052 METAR KATL 292052Z 07005KT 10SM FEW025 BKN030 BKN050 16/10 A2978 RMK AO2 SLP080 T01610100 56011=
201504291952 METAR KATL 291952Z 06005KT 10SM FEW020 BKN030 OVC050 15/10 A2978 RMK AO2 SLP083 BINOVC DSNT E T01500100=
201504291852 METAR KATL 291852Z 10008KT 10SM FEW015 BKN030 BKN060 16/11 A2979 RMK AO2 SLP085 T01610111=
201504291818 SPECI KATL 291818Z 07007KT 10SM FEW015 BKN035 OVC080 15/11 A2980 RMK AO2=
201504291752 METAR KATL 291752Z 06008KT 10SM FEW013 BKN023 OVC030 14/11 A2981 RMK AO2 RAE1655 SLP092 P0000 60038 T01440106 10144 20122 58005=
201504291718 SPECI KATL 291718Z 04010KT 10SM FEW010 BKN020 OVC030 14/11 A2981 RMK AO2 RAE1655 P0000=
201504291652 METAR KATL 291652Z 07013KT 10SM -RA FEW010 BKN030 OVC040 14/11 A2981 RMK AO2 SLP093 P0002 T01390106=
201504291630 SPECI KATL 291630Z 08014KT 9SM -RA SCT010 BKN040 OVC080 14/11 A2982 RMK AO2 P0002=
201504291552 METAR KATL 291552Z 01008KT 6SM -RA BR BKN010 BKN020 OVC050 13/11 A2984 RMK AO2 SLP103 P0009 T01330111=
201504291452 METAR KATL 291452Z 04009KT 4SM -RA BR BKN010 BKN030 OVC050 13/11 A2983 RMK AO2 SLP097 P0005 60027 T01280106 53007=
201504291432 SPECI KATL 291432Z 06009KT 5SM RA BR BKN010 BKN050 OVC080 13/11 A2982 RMK AO2 P0002=
201504291415 SPECI KATL 291415Z 05008KT 6SM -RA BR BKN010 BKN030 OVC080 13/11 A2982 RMK AO2 P0001=
201504291352 METAR KATL 291352Z 08010KT 5SM -RA BR SCT010 BKN030 OVC070 13/11 A2981 RMK AO2 SLP092 P0003 T01330111=
201504291333 SPECI KATL 291333Z 08009KT 7SM -RA BKN010 BKN050 OVC090 13/11 A2981 RMK AO2 P0002=
201504291252 METAR KATL 291252Z 05008KT 7SM -RA BKN006 BKN048 OVC085 13/11 A2981 RMK AO2 WSHFT 1208 SLP090 CB DSNT NE P0019 T01280106=
201504291249 SPECI KATL 291249Z 05009KT 7SM -RA BKN006 BKN048 OVC085 13/11 A2980 RMK AO2 WSHFT 1208 CB DSNT NE P0019=
201504291227 SPECI KATL 291227Z 10010KT 3SM RA BR FEW008 SCT036CB OVC070 12/11 A2979 RMK AO2 WSHFT 1208 CB NE MOV NE P0017=
201504291211 SPECI KATL 291211Z 07014KT 3SM +RA BR SCT008 SCT036 OVC055 13/11 A2981 RMK AO2 P0011=
201504291152 METAR KATL 291152Z 03005KT 3SM RA BR BKN008 BKN040 OVC065 13/11 A2982 RMK AO2 SLP093 P0034 60045 70048 T01280106 10150 20128 53009=
201504291145 SPECI KATL 291145Z 06008KT 3SM RA BR BKN008 OVC046 13/11 A2981 RMK AO2 P0031=
201504291112 SPECI KATL 291112Z 08008KT 2 1/2SM +RA BR FEW007 SCT018 OVC040 13/11 A2980 RMK AO2 P0009=
201504291100 SPECI KATL 291100Z 06009KT 5SM RA BR FEW009 SCT018 OVC040 13/11 A2979 RMK AO2 P0002=
201504291052 METAR KATL 291052Z 08009KT 6SM RA BR FEW009 BKN016 OVC040 13/11 A2979 RMK AO2 RAB35 SLP084 P0004 T01280106=
201504290952 METAR KATL 290952Z 11004KT 7SM BKN009 BKN016 OVC050 14/12 A2979 RMK AO2 SLP082 T01390117=
201504290911 SPECI KATL 290911Z 13003KT 7SM SCT009 BKN050 OVC090 14/12 A2981 RMK AO2=
201504290852 METAR KATL 290852Z 09008KT 9SM FEW012 SCT055 BKN090 BKN180 OVC250 14/12 A2979 RMK AO2 RAE41 SLP083 P0003 60007 T01390117 58017=
201504290752 METAR KATL 290752Z 00000KT 7SM -RA SCT012 SCT032 OVC055 14/12 A2982 RMK AO2 RAB04 SLP093 P0004 T01440122=
201504290709 SPECI KATL 290709Z 08007KT 7SM RA SCT008 SCT016 OVC050 14/12 A2981 RMK AO2 RAB04 P0001=
201504290657 SPECI KATL 290657Z 00000KT 10SM OVC008 15/12 A2983 RMK AO2=
201504290652 METAR KATL 290652Z 07003KT 10SM OVC010 14/12 A2982 RMK AO2 RAE0558 SLP092 P0000 T01440122=
201504290626 SPECI KATL 290626Z 07007KT 10SM BKN011 OVC065 14/12 A2982 RMK AO2 RAE0558 P0000=
201504290552 METAR KATL 290552Z 05003KT 8SM -RA FEW010 OVC065 15/12 A2984 RMK AO2 RAB15 SLP100 P0001 60003 T01500122 10206 20144 55006=
201504290452 METAR KATL 290452Z 14004KT 10SM BKN065 OVC090 14/12 A2984 RMK AO2 RAE34 SLP100 P0002 T01440122 402280117=
201504290352 METAR KATL 290352Z 16015G22KT 10SM -RA SCT080 BKN095 OVC120 16/11 A2984 RMK AO2 RAE01B50 SLP101 P0000 T01560106=
201504290252 METAR KATL 290252Z 15006KT 10SM -RA SCT075 BKN100 OVC120 17/11 A2986 RMK AO2 RAB04E18B39 SLP107 P0000 60000 T01720111 50007=
201504290152 METAR KATL 290152Z 16008KT 10SM BKN075 OVC100 18/10 A2986 RMK AO2 SLP107 VIRGA SW-NW T01780100=
201504290052 METAR KATL 290052Z 09008KT 050V110 10SM FEW045 BKN090 BKN120 BKN200 19/09 A2985 RMK AO2 RAB24E52 SLP104 P0000 T01890089=
201504282352 METAR KATL 282352Z 08011KT 10SM BKN095 BKN110 OVC150 21/08 A2984 RMK AO2 RAB2253E06 SLP100 SHRA W-NW VIRGA NE-OHD-SW P0000 60000 T02060078 10228 20200 58002=
201504282252 METAR KATL 282252Z 08007KT 10SM FEW055 SCT080 BKN110CB OVC150 21/08 A2985 RMK AO2 SLP104 CBMAM OHD-SE VIRGA E-OHD-NW T02060078=
201504282152 METAR KATL 282152Z 15006KT 10SM FEW055 BKN120 BKN150 22/08 A2984 RMK AO2 SLP102 ACC NW-NE VIRGA DSNT SW-W T02170078=
201504282052 METAR KATL 282052Z 12009KT 10SM FEW060 BKN140 BKN250 22/08 A2984 RMK AO2 SLP101 T02170078 58016=
201504281952 METAR KATL 281952Z 14007KT 10SM FEW060 SCT150 SCT250 22/08 A2986 RMK AO2 SLP106 T02220078=
201504281852 METAR KATL 281852Z 15007KT 10SM FEW055 BKN150 BKN250 21/07 A2988 RMK AO2 SLP114 T02110072=
201504281752 METAR KATL 281752Z 12007KT 10SM FEW050 SCT250 21/07 A2989 RMK AO2 SLP118 T02110072 10211 20122 58017=
201504281652 METAR KATL 281652Z 13009G16KT 10SM FEW050 SCT230 20/06 A2992 RMK AO2 SLP128 T02000061=
201504281552 METAR KATL 281552Z 11009KT 10SM FEW050 SCT250 19/04 A2994 RMK AO2 SLP136 T01890044=
201504281452 METAR KATL 281452Z 10012G21KT 10SM FEW050 SCT250 18/04 A2994 RMK AO2 SLP136 T01780039 50002=
201504281352 METAR KATL 281352Z 10012G19KT 10SM FEW048 SCT250 16/03 A2995 RMK AO2 SLP138 T01610028=
201504281252 METAR KATL 281252Z 10010KT 10SM FEW120 SCT250 14/04 A2996 RMK AO2 SLP142 T01440044=
201504281152 METAR KATL 281152Z 09010KT 10SM FEW120 BKN200 12/04 A2994 RMK AO2 SLP135 T01220039 10150 20117 53019=
201504281052 METAR KATL 281052Z 09011KT 10SM FEW150 BKN200 BKN250 12/04 A2991 RMK AO2 SLP124 VIRGA SE-SW T01170044=
201504280952 METAR KATL 280952Z 09009KT 10SM FEW200 OVC250 12/06 A2989 RMK AO2 SLP118 T01170056=
201504280852 METAR KATL 280852Z 07010KT 10SM FEW150 SCT200 OVC250 13/05 A2988 RMK AO2 SLP114 T01330050 50001=
201504280752 METAR KATL 280752Z 04007KT 10SM BKN150 OVC200 14/04 A2988 RMK AO2 SLP114 VIRGA OHD-ALQDS T01390039=
201504280652 METAR KATL 280652Z 00000KT 10SM OVC250 14/04 A2988 RMK AO2 SLP114 T01440039=
201504280552 METAR KATL 280552Z 01006KT 10SM OVC250 14/04 A2988 RMK AO2 SLP112 T01390039 10172 20133 58003=
201504280452 METAR KATL 280452Z 35004KT 10SM OVC250 14/04 A2988 RMK AO2 SLP115 T01390039 402170106=
201504280352 METAR KATL 280352Z 34004KT 10SM FEW200 OVC250 14/04 A2988 RMK AO2 SLP115 T01440039=
201504280252 METAR KATL 280252Z 34006KT 10SM FEW200 BKN250 15/04 A2989 RMK AO2 SLP117 T01500044 51013=
201504280152 METAR KATL 280152Z 34008KT 10SM SCT200 BKN250 16/04 A2988 RMK AO2 SLP117 T01560044=
201504280052 METAR KATL 280052Z 34007KT 10SM SCT200 BKN250 16/05 A2987 RMK AO2 SLP114 T01610050=
201504272352 METAR KATL 272352Z 33009KT 10SM BKN200 BKN250 17/04 A2985 RMK AO2 SLP104 T01720044 10217 20172 58002=
201504272252 METAR KATL 272252Z 33010G14KT 10SM BKN200 BKN250 18/04 A2986 RMK AO2 SLP108 T01780044=
201504272152 METAR KATL 272152Z 31012KT 10SM BKN200 BKN250 18/02 A2986 RMK AO2 SLP109 T01830017=
201504272052 METAR KATL 272052Z 29009KT 10SM FEW150 BKN180 OVC250 19/03 A2985 RMK AO2 SLP106 T01940033 58009=
201504271952 METAR KATL 271952Z 30010KT 10SM FEW150 BKN180 OVC250 21/03 A2986 RMK AO2 SLP108 T02060033=
201504271852 METAR KATL 271852Z 33008KT 10SM FEW150 BKN180 BKN250 21/03 A2987 RMK AO2 SLP112 T02110028=
201504271752 METAR KATL 271752Z 30004KT 10SM FEW060 SCT150 BKN250 21/06 A2988 RMK AO2 SLP113 T02110056 10211 20111 56010=
201504271652 METAR KATL 271652Z VRB04KT 10SM FEW050 SCT150 BKN250 20/09 A2988 RMK AO2 SLP114 T02000089=
201504271552 METAR KATL 271552Z 36009KT 10SM FEW032 SCT150 SCT250 18/09 A2990 RMK AO2 SLP120 T01830094=
201504271452 METAR KATL 271452Z 35005KT 10SM SCT023 SCT250 17/10 A2991 RMK AO2 SLP123 T01670100 51009=
201504271352 METAR KATL 271352Z 35004KT 10SM FEW020 SCT150 SCT250 16/10 A2991 RMK AO2 SLP122 T01560100=
201504271337 SPECI KATL 271337Z 36004KT 10SM FEW013 SCT023 SCT250 16/10 A2990 RMK AO2=
201504271323 SPECI KATL 271323Z 32004KT 10SM SCT013 14/10 A2990 RMK AO2=
201504271252 METAR KATL 271252Z 35007KT 9SM BKN013 13/09 A2989 RMK AO2 SLP116 T01330089=
201504271152 METAR KATL 271152Z 32008KT 8SM BKN013 BKN060 BKN200 11/08 A2988 RMK AO2 PRESRR SLP114 T01110083 10133 20106 53024=
201504271116 SPECI KATL 271116Z 33004KT 9SM BKN013 BKN200 11/08 A2985 RMK AO2=
201504271052 METAR KATL 271052Z 31004KT 10SM FEW020 SCT250 11/08 A2984 RMK AO2 SLP099 T01060078=
201504270952 METAR KATL 270952Z 34008KT 10SM FEW020 SCT250 11/08 A2983 RMK AO2 SLP095 T01110083=
201504270852 METAR KATL 270852Z 33007KT 10SM FEW020 SCT250 11/08 A2981 RMK AO2 SLP087 T01110083 53004=
201504270752 METAR KATL 270752Z 34010KT 10SM FEW020 SCT250 12/08 A2978 RMK AO2 SLP078 T01220083=
201504270652 METAR KATL 270652Z 31007KT 10SM FEW020 SCT250 12/09 A2979 RMK AO2 SLP081 T01220089=
201504270552 METAR KATL 270552Z 34009KT 10SM SCT250 13/09 A2979 RMK AO2 SLP082 T01330089 10244 20133 50007=
201504270452 METAR KATL 270452Z 34010KT 10SM FEW022 SCT250 14/09 A2980 RMK AO2 SLP086 T01440089 402830144=
201504270352 METAR KATL 270352Z 35012KT 10SM FEW250 16/09 A2979 RMK AO2 SLP083 T01610094=
201504270252 METAR KATL 270252Z 33012G19KT 10SM FEW030 SCT250 17/11 A2977 RMK AO2 SLP075 T01720111 53026=
201504270152 METAR KATL 270152Z 33015G20KT 10SM FEW032 SCT050 SCT250 19/12 A2975 RMK AO2 SLP067 T01890117=
201504270052 METAR KATL 270052Z 36015KT 10SM FEW050 SCT200 BKN250 22/13 A2972 RMK AO2 SLP055 T02220128=
201504262352 METAR KATL 262352Z 32013G17KT 10SM FEW055 SCT200 BKN250 24/12 A2969 RMK AO2 SLP047 T02390122 10283 20239 53008=
201504262252 METAR KATL 262252Z 32015KT 10SM FEW060 SCT200 BKN250 26/13 A2968 RMK AO2 PK WND 32027/2236 SLP042 T02560128=
201504262152 METAR KATL 262152Z 31021G26KT 10SM FEW065 SCT200 BKN250 27/12 A2966 RMK AO2 PK WND 29026/2150 SLP036 T02670117=
201504262052 METAR KATL 262052Z 28012G21KT 10SM SCT065 BKN250 27/13 A2967 RMK AO2 SLP037 T02670128 55003=
201504261952 METAR KATL 261952Z 27012G17KT 10SM SCT065 28/13 A2966 RMK AO2 SLP035 T02830133=
201504261852 METAR KATL 261852Z 30014G21KT 10SM SCT060 27/14 A2967 RMK AO2 SLP038 T02720139=
201504261752 METAR KATL 261752Z 29013G21KT 10SM SCT050 27/14 A2968 RMK AO2 SLP039 T02720144 10272 20183 58011=
201504261652 METAR KATL 261652Z 28006G15KT 10SM SCT039 SCT250 26/17 A2970 RMK AO2 SLP047 T02610172=
201504261552 METAR KATL 261552Z 26009KT 10SM SCT026 24/17 A2972 RMK AO2 SLP055 T02390172=
201504261452 METAR KATL 261452Z 25008KT 10SM SCT022 23/17 A2971 RMK AO2 SLP052 T02280172 51005=
201504261429 SPECI KATL 261429Z 27008KT 10SM BKN016 BKN022 22/17 A2971 RMK AO2=
201504261352 METAR KATL 261352Z 27008G15KT 10SM BKN012 21/17 A2970 RMK AO2 SLP051 T02110172=
201504261350 SPECI KATL 261350Z 28012G15KT 10SM BKN012 21/17 A2971 RMK AO2=
201504261321 SPECI KATL 261321Z 27007KT 10SM SCT008 SCT018 20/17 A2970 RMK AO2=
201504261302 SPECI KATL 261302Z 26007KT 9SM SCT008 BKN018 19/17 A2970 RMK AO2=
201504261252 METAR KATL 261252Z 26009KT 9SM BKN008 BKN018 19/17 A2970 RMK AO2 SLP052 T01940167=
201504261152 METAR KATL 261152Z 26008KT 9SM OVC006 18/16 A2969 RMK AO2 SLP047 70023 T01830161 10194 20178 53016=
201504261052 METAR KATL 261052Z 28009KT 8SM OVC006 18/16 A2968 RMK AO2 SLP044 T01780161=
201504260952 METAR KATL 260952Z 25008KT 10SM BKN007 BKN020 18/16 A2966 RMK AO2 SLP033 BKN007 V SCT T01830161=
201504260943 SPECI KATL 260943Z 25011KT 10SM BKN007 BKN020 18/16 A2965 RMK AO2 BKN007 V SCT=
201504260931 SPECI KATL 260931Z 24008KT 10SM SCT007 BKN024 18/16 A2965 RMK AO2=
201504260852 METAR KATL 260852Z 26010KT 8SM BKN007 BKN022 18/16 A2965 RMK AO2 SLP030 T01830161 55002=
201504260752 METAR KATL 260752Z 25008KT 8SM BKN007 18/17 A2963 RMK AO2 SLP026 T01830167=
201504260659 SPECI KATL 260659Z 26009KT 10SM BKN008 19/17 A2964 RMK AO2=
201504260652 METAR KATL 260652Z 25009KT 10SM SCT008 19/17 A2964 RMK AO2 SLP027 T01890167=
201504260552 METAR KATL 260552Z 24008KT 10SM FEW008 19/17 A2965 RMK AO2 SLP033 60011 T01940172 10233 20189 58002=
201504260522 SPECI KATL 260522Z 24010G16KT 10SM FEW008 19/17 A2965 RMK AO2=
201504260452 METAR KATL 260452Z 24010KT 10SM FEW010 19/17 A2965 RMK AO2 SLP033 T01940172 402610150=
201504260352 METAR KATL 260352Z 23006KT 10SM FEW026 SCT250 19/17 A2966 RMK AO2 SLP036 T01940167=
201504260252 METAR KATL 260252Z 24007KT 10SM FEW110 SCT200 20/18 A2966 RMK AO2 SLP037 60011 T02000178 55000=
201504260152 METAR KATL 260152Z 22006KT 10SM FEW065 SCT110 BKN200 21/19 A2965 RMK AO2 SLP034 T02060189=
201504260052 METAR KATL 260052Z 23005KT 10SM FEW026 SCT075 SCT110 BKN200 22/18 A2965 RMK AO2 PK WND 24029/0017 RAE00B17E32 SLP034 CB DSNT N AND E P0011 T02170183=
201504260028 SPECI KATL 260028Z 25006KT 8SM -RA SCT028CB BKN075 BKN110 BKN200 22/18 A2966 RMK AO2 PK WND 24029/0017 RAE00B17 CB N-E MOV E P0011=
201504260024 SPECI KATL 260024Z 25009G29KT 3SM RA BKN028CB BKN075 OVC110 22/17 A2966 RMK AO2 PK WND 24029/0017 RAE00B17 VIS NW-N 1 CB SE-OHD-NW MOV E CBMAM NE-E MOV E P0010=
201504260016 SPECI KATL 260016Z 22011G18KT 9SM BKN028CB BKN085 BKN110 BKN200 23/19 A2965 RMK AO2 RAE00 CB SW-W MOV E CBMAM NE-E SHRA SW-W P0000=
201504252352 METAR KATL 252352Z 22006KT 10SM -RA FEW024 SCT085 SCT110CB BKN200 23/19 A2966 RMK AO2 RAB18E33B49 SLP035 OCNL LTGICCA DSNT SE-SW CBMAM E-OHD-W MOV E CB DSNT SE-SW ACC SE-OHD-NW P0000 60000 T02330189 10261 20233 55012=
201504252252 METAR KATL 252252Z 27007KT 10SM FEW030TCU SCT050 SCT110 OVC200 25/19 A2964 RMK AO2 SLP031 VIRGA DSNT S-W TCU NE T02500189=
201504252152 METAR KATL 252152Z 25007KT 10SM FEW033TCU SCT048 OVC200 26/19 A2967 RMK AO2 SLP039 CB DSNT SE-SW TCU NW-N T02560189=
201504252052 METAR KATL 252052Z 27012G18KT 10SM SCT033 BKN150 BKN250 26/18 A2969 RMK AO2 SLP046 T02610183 58016=
201504251952 METAR KATL 251952Z 25009G17KT 10SM BKN032 25/18 A2972 RMK AO2 SLP057 T02500183=
201504251852 METAR KATL 251852Z 25008KT 10SM FEW028 OVC140 24/17 A2974 RMK AO2 SLP062 T02390172=
201504251752 METAR KATL 251752Z 26008KT 10SM FEW028 SCT042 BKN180 24/18 A2974 RMK AO2 SLP063 60012 T02390178 10244 20150 58021=
201504251705 SPECI KATL 251705Z 25007KT 10SM SCT017 SCT024 BKN046 23/18 A2976 RMK AO2=
201504251652 METAR KATL 251652Z 23012G16KT 10SM BKN020 BKN050 23/17 A2978 RMK AO2 SLP075 T02280172=
201504251628 SPECI KATL 251628Z 23009KT 10SM BKN015 BKN100 22/17 A2978 RMK AO2=
201504251552 METAR KATL 251552Z 22006KT 10SM OVC010 19/16 A2980 RMK AO2 SLP084 T01940161=
201504251452 METAR KATL 251452Z 15007KT 10SM OVC008 17/15 A2980 RMK AO2 SLP087 60012 T01720150 56037=
201504251408 SPECI KATL 251408Z 16007KT 7SM BKN006 OVC013 17/14 A2981 RMK AO2=
201504251352 METAR KATL 251352Z 16007KT 2SM BR BKN004 OVC013 16/14 A2981 RMK AO2 SFC VIS 6 RAE00 SLP088 TWRINC P0000 T01610144=
201504251333 SPECI KATL 251333Z 14010G14KT 3/4SM BR OVC004 16/14 A2982 RMK AO2 SFC VIS 6 RAE00 TWRINC P0000=
201504251252 METAR KATL 251252Z 13008G14KT 1 1/2SM -RA BR BKN004 OVC055 16/14 A2985 RMK AO2 SFC VIS 5 TSE01 SLP101 TS MOV E TWRINC P0012 T01560139=
201504251239 SPECI KATL 251239Z 11011KT 1 1/2SM -RA BR BKN004 BKN017 OVC050 15/14 A2985 RMK AO2 SFC VIS 4 TSE01 PRESFR TS MOV E TWRINC P0012=
201504251209 SPECI KATL 251209Z 08010KT 1SM RA BR FEW005 BKN039 OVC100 15/13 A2988 RMK AO2 SFC VIS 2 1/2 TSE01 TS MOV E P0012=
201504251201 SPECI KATL 251201Z 09011KT 1SM RA BR BKN005 OVC035 15/13 A2989 RMK AO2 SFC VIS 1 3/4 TSE01 PRESFR TS MOV E P0010=
201504251152 METAR KATL 251152Z 05008KT 1SM +TSRA BR FEW005 SCT020CB OVC032 15/13 A2992 RMK AO2 SFC VIS 1 1/2 SLP125 OCNL LTGICCG E-S TS E-S MOV E P0050 60069 70069 T01500133 10194 20150 53008=
201504251136 SPECI KATL 251136Z 35005KT 1SM R09R/4500VP6000FT +TSRA BR SCT005 BKN030CB OVC038 15/13 A2993 RMK AO2 FRQ LTGICCG S-W TS S-W MOV E P0030=
201504251118 SPECI KATL 251118Z 01012KT 2 1/2SM +TSRA BR FEW027CB OVC041 16/13 A2989 RMK AO2 OCNL LTGIC SW-W TS SW-W MOV E P0015=
201504251052 METAR KATL 251052Z 08009KT 3SM +TSRA BR FEW031CB OVC045 16/13 A2986 RMK AO2 TSB40 SLP103 OCNL LTGIC SW-NW TS VC SW-NW MOV E P0019 T01560133=
201504251040 SPECI KATL 251040Z 00000KT 2 1/2SM +TSRA SCT036CB BKN045 OVC085 17/13 A2989 RMK AO2 TSB40 PRESRR OCNL LTGIC W-N TS VC W-N MOV E P0009=
201504250952 METAR KATL 250952Z 16005KT 10SM -RA FEW025 BKN050 OVC095 18/11 A2987 RMK AO2 RAB01E10B47 SLP107 OCNL LTG DSNT W CB DSNT W P0000 T01780111=
201504250852 METAR KATL 250852Z 00000KT 10SM FEW030 OVC050 18/11 A2989 RMK AO2 RAB0755E08 SLP114 P0000 60000 T01830106 55002=
201504250752 METAR KATL 250752Z 14004KT 10SM BKN050 OVC085 19/10 A2987 RMK AO2 SLP106 SHRA W T01890100=
201504250652 METAR KATL 250652Z 18003KT 10SM SCT055 OVC100 19/10 A2990 RMK AO2 SLP117 SHRA NE T01890100=
201504250552 METAR KATL 250552Z 17005KT 10SM SCT095 BKN120 OVC180 19/09 A2990 RMK AO2 SLP117 60000 T01940094 10228 20189 58020=
201504250452 METAR KATL 250452Z 18005KT 10SM OVC100 19/09 A2993 RMK AO2 RAB02E16 SLP129 P0000 T01940094 402440089=
201504250352 METAR KATL 250352Z 18005KT 10SM FEW070 BKN090 OVC110 19/10 A2995 RMK AO2 SLP135 T01940100=
201504250252 METAR KATL 250252Z 20003KT 10SM FEW080 OVC100 20/09 A2996 RMK AO2 RAB37E49 SLP139 P0000 60000 T02000089 58001=
201504250152 METAR KATL 250152Z 21003KT 10SM OVC130 21/08 A2996 RMK AO2 SLP141 T02110083=
201504250052 METAR KATL 250052Z 00000KT 10SM BKN120 OVC200 22/08 A2996 RMK AO2 SLP142 T02170078=
201504242352 METAR KATL 242352Z 19003KT 10SM BKN130 OVC200 23/05 A2996 RMK AO2 SLP141 T02280050 10244 20211 58007=
201504242252 METAR KATL 242252Z 20003KT 10SM FEW090 BKN130 OVC200 23/04 A2997 RMK AO2 SLP146 T02330044=
201504242152 METAR KATL 242152Z 20005KT 10SM FEW090 BKN130 OVC200 24/03 A3000 RMK AO2 SLP153 T02390033=
201504242052 METAR KATL 242052Z 20006KT 10SM FEW100 BKN200 24/03 A2998 RMK AO2 SLP148 T02440028 56017=
201504241952 METAR KATL 241952Z VRB05KT 10SM FEW080 BKN200 24/03 A2999 RMK AO2 SLP150 T02440028=
201504241852 METAR KATL 241852Z VRB03KT 10SM FEW250 23/02 A3002 RMK AO2 SLP161 T02280017=
201504241752 METAR KATL 241752Z 13004KT 10SM FEW250 22/01 A3003 RMK AO2 SLP166 T02170011 10217 20106 58020=
201504241652 METAR KATL 241652Z 16005KT 10SM FEW250 19/00 A3007 RMK AO2 SLP179 T01940000=
201504241552 METAR KATL 241552Z 11004KT 10SM FEW250 18/01 A3009 RMK AO2 SLP186 T01830006=
201504241452 METAR KATL 241452Z 12007KT 10SM FEW150 SCT250 17/01 A3010 RMK AO2 SLP188 T01720011 51006=
201504241352 METAR KATL 241352Z 08005KT 10SM BKN150 BKN250 16/M01 A3009 RMK AO2 SLP189 T01611006=
201504241252 METAR KATL 241252Z 02009G17KT 10SM SCT180 BKN250 14/00 A3009 RMK AO2 SLP186 T01390000=
201504241152 METAR KATL 241152Z 35008KT 10SM FEW250 11/01 A3008 RMK AO2 SLP183 T01110011 10128 20089 53020=
201504241052 METAR KATL 241052Z 32005KT 10SM FEW250 09/02 A3004 RMK AO2 SLP170 T00890017=
201504240952 METAR KATL 240952Z 33006KT 10SM FEW250 10/02 A3003 RMK AO2 SLP165 T01000017=
201504240852 METAR KATL 240852Z 33006KT 10SM FEW200 SCT250 11/02 A3002 RMK AO2 SLP162 T01060017 53001=
201504240752 METAR KATL 240752Z 32007KT 10SM SCT250 11/02 A3001 RMK AO2 SLP160 T01110017=
201504240652 METAR KATL 240652Z 32008KT 10SM FEW250 12/02 A3001 RMK AO2 SLP158 T01220017=
201504240552 METAR KATL 240552Z 32008KT 10SM FEW200 SCT250 13/03 A3001 RMK AO2 SLP160 T01280033 10172 20128 50003=
201504240452 METAR KATL 240452Z 32008KT 10SM FEW200 SCT250 13/05 A3002 RMK AO2 SLP162 T01330050 402060128=
201504240352 METAR KATL 240352Z 30008KT 10SM FEW200 BKN250 14/05 A3000 RMK AO2 SLP156 T01390050=
201504240252 METAR KATL 240252Z 29006KT 10SM FEW150 BKN250 14/05 A3000 RMK AO2 SLP156 T01440050 53008=
201504240152 METAR KATL 240152Z 28005KT 10SM FEW150 SCT200 BKN250 15/04 A3000 RMK AO2 SLP155 T01500044=
201504240052 METAR KATL 240052Z 29006KT 10SM SCT150 BKN200 BKN250 16/04 A2998 RMK AO2 SLP150 T01560039=
201504232352 METAR KATL 232352Z 30006KT 10SM SCT150 BKN200 BKN250 17/04 A2998 RMK AO2 SLP148 T01720039 10206 20172 50000=
201504232252 METAR KATL 232252Z 32009KT 10SM FEW120 BKN150 BKN250 18/02 A2998 RMK AO2 SLP150 ACC E-SE & DSNT NW VIRGA DSNT SE T01830022=
201504232152 METAR KATL 232152Z 32011KT 10SM FEW120 BKN150 OVC250 19/02 A2998 RMK AO2 SLP149 T01890022=
201504232052 METAR KATL 232052Z 32013KT 10SM FEW120 SCT150 SCT180 BKN240 20/03 A2998 RMK AO2 SLP147 VIRGA DSNT NE-E T02000028 56014=
201504231952 METAR KATL 231952Z 31010KT 10SM BKN150 BKN180 OVC240 19/03 A2998 RMK AO2 SLP148 VIRGA OHD & ALQDS T01890028=
201504231852 METAR KATL 231852Z 32011KT 10SM BKN160 BKN180 OVC240 19/04 A3000 RMK AO2 SLP154 VIRGA DSNT N-NE-E T01940039=
201504231752 METAR KATL 231752Z 34012KT 10SM OVC250 19/04 A3002 RMK AO2 SLP162 T01890039 10194 20144 50002=
201504231652 METAR KATL 231652Z 31014G17KT 10SM OVC250 19/04 A3002 RMK AO2 SLP162 T01940044=
201504231552 METAR KATL 231552Z 33010KT 10SM BKN250 18/04 A3002 RMK AO2 SLP160 T01830044=
201504231452 METAR KATL 231452Z 33011KT 10SM BKN240 17/04 A3002 RMK AO2 SLP159 T01720044 51011=
201504231352 METAR KATL 231352Z 32010KT 10SM BKN240 16/06 A3001 RMK AO2 SLP156 T01560061=
201504231252 METAR KATL 231252Z 32010KT 10SM BKN180 BKN250 16/07 A3000 RMK AO2 SLP153 T01560072=
201504231152 METAR KATL 231152Z 34011KT 10SM FEW075 SCT200 SCT250 14/08 A2998 RMK AO2 SLP147 ACC DSNT NW 60000 T01440083 10172 20139 53013=
201504231052 METAR KATL 231052Z 33011KT 10SM FEW250 14/11 A2996 RMK AO2 SLP140 T01390106=
201504230952 METAR KATL 230952Z 32008KT 10SM FEW110 SCT250 14/11 A2995 RMK AO2 RAE0857 SLP134 P0000 T01440106=
201504230852 METAR KATL 230852Z 32008KT 10SM -RA FEW070 SCT100 BKN250 16/11 A2994 RMK AO2 RAB46 SLP133 ACC OHD-NE P0000 60000 T01560106 53001=
201504230752 METAR KATL 230752Z 30006KT 10SM FEW070 SCT110 SCT250 16/11 A2994 RMK AO2 SLP132 ACC NW-NE T01560106=
201504230652 METAR KATL 230652Z 29005KT 10SM FEW065 SCT120 SCT200 BKN250 16/11 A2994 RMK AO2 SLP131 ACC W-N T01560106=
201504230552 METAR KATL 230552Z 25003KT 10SM SCT150 SCT200 BKN250 17/10 A2994 RMK AO2 SLP133 T01670100 10228 20167 50002=
201504230452 METAR KATL 230452Z 00000KT 10SM BKN150 BKN250 17/10 A2995 RMK AO2 SLP135 T01720100 402610106=
201504230352 METAR KATL 230352Z 33008KT 10SM SCT065 BKN250 19/09 A2995 RMK AO2 SLP135 T01890094=
201504230252 METAR KATL 230252Z 27007KT 10SM FEW060 SCT200 BKN250 19/09 A2994 RMK AO2 SLP131 T01940094 53010=
201504230152 METAR KATL 230152Z 26007KT 10SM FEW200 BKN250 21/08 A2991 RMK AO2 SLP123 T02110083=
201504230052 METAR KATL 230052Z 27006KT 10SM FEW200 SCT250 22/08 A2991 RMK AO2 SLP124 T02170078=
201504222352 METAR KATL 222352Z 27009KT 10SM SCT250 23/08 A2990 RMK AO2 SLP123 T02280078 10261 20228 55003=
201504222252 METAR KATL 222252Z 26013KT 10SM FEW070 24/08 A2990 RMK AO2 SLP120 T02440083=
201504222152 METAR KATL 222152Z 29008G17KT 10SM FEW070 25/08 A2990 RMK AO2 SLP120 T02500083=
201504222052 METAR KATL 222052Z 26010G21KT 230V290 10SM FEW065 SCT200 25/08 A2992 RMK AO2 SLP125 T02500083 58015=
201504221952 METAR KATL 221952Z 28011G20KT 10SM FEW065 SCT250 25/08 A2993 RMK AO2 SLP131 T02500083=
201504221852 METAR KATL 221852Z 26014G22KT 10SM FEW065 SCT250 24/07 A2995 RMK AO2 SLP137 T02440072=
201504221752 METAR KATL 221752Z 29011KT 10SM FEW065 SCT250 24/08 A2996 RMK AO2 SLP140 T02390078 10244 20106 58015=
201504221652 METAR KATL 221652Z 28013G19KT 10SM FEW060 SCT250 24/08 A2998 RMK AO2 SLP146 T02390083=
201504221552 METAR KATL 221552Z 29012KT 10SM CLR 22/09 A2999 RMK AO2 SLP153 T02170094=
201504221452 METAR KATL 221452Z 29014G20KT 10SM CLR 20/08 A3001 RMK AO2 SLP156 T02000083 51006=
201504221352 METAR KATL 221352Z 27009G14KT 10SM CLR 19/04 A3000 RMK AO2 SLP155 T01890044=
201504221252 METAR KATL 221252Z 27004KT 10SM CLR 16/06 A3000 RMK AO2 SLP155 T01610056=
201504221152 METAR KATL 221152Z 00000KT 10SM CLR 11/05 A2999 RMK AO2 SLP152 T01060050 10122 20106 53004=
201504221052 METAR KATL 221052Z 00000KT 10SM CLR 11/03 A2997 RMK AO2 SLP148 T01060033=
201504220952 METAR KATL 220952Z 00000KT 10SM CLR 11/02 A2997 RMK AO2 SLP146 T01110022=
201504220852 METAR KATL 220852Z 26003KT 10SM CLR 11/02 A2997 RMK AO2 SLP146 T01110022 56002=
201504220752 METAR KATL 220752Z 27003KT 10SM CLR 11/03 A2997 RMK AO2 SLP147 T01060028=
201504220652 METAR KATL 220652Z 29003KT 10SM FEW250 12/03 A2997 RMK AO2 SLP145 T01170028=
201504220552 METAR KATL 220552Z 00000KT 10SM SCT250 12/03 A2998 RMK AO2 SLP149 T01220028 10189 20122 58002=
201504220452 METAR KATL 220452Z 28003KT 10SM BKN250 13/02 A2999 RMK AO2 SLP152 T01330017 402170094=
201504220352 METAR KATL 220352Z 28005KT 10SM FEW200 BKN250 14/02 A2999 RMK AO2 SLP152 T01390022=
201504220252 METAR KATL 220252Z 00000KT 10SM FEW200 BKN250 14/03 A2999 RMK AO2 SLP152 T01390028 53015=
201504220152 METAR KATL 220152Z 26003KT 10SM SCT200 BKN250 15/01 A2997 RMK AO2 SLP145 T01500011=
201504220052 METAR KATL 220052Z 32005KT 10SM SCT250 17/00 A2995 RMK AO2 SLP141 T01670000=
201504212352 METAR KATL 212352Z 31009KT 10SM FEW250 19/M01 A2994 RMK AO2 SLP136 T01891006 10217 20183 51003=
201504212252 METAR KATL 212252Z 32010KT 10SM FEW250 20/M01 A2994 RMK AO2 SLP135 T02001011=
201504212152 METAR KATL 212152Z 31011KT 10SM FEW250 21/01 A2994 RMK AO2 SLP134 T02110006=
201504212052 METAR KATL 212052Z 28013KT 10SM FEW150 21/02 A2993 RMK AO2 SLP132 T02110017 56018=
201504211952 METAR KATL 211952Z 30014KT 10SM CLR 22/04 A2994 RMK AO2 SLP133 T02170044=
201504211852 METAR KATL 211852Z 26012G18KT 10SM FEW065 21/03 A2996 RMK AO2 SLP141 T02110033=
201504211752 METAR KATL 211752Z 27017G23KT 10SM FEW065 20/04 A2999 RMK AO2 SLP150 T02000039 10206 20111 58008=
201504211652 METAR KATL 211652Z 27013G23KT 10SM CLR 19/04 A3000 RMK AO2 SLP155 T01940044=
201504211552 METAR KATL 211552Z 30008G17KT 10SM CLR 19/04 A3002 RMK AO2 SLP161 T01890044=
201504211452 METAR KATL 211452Z 30007G16KT 10SM CLR 17/03 A3001 RMK AO2 SLP158 T01720033 51016=
201504211352 METAR KATL 211352Z 30009KT 10SM CLR 16/06 A3000 RMK AO2 SLP153 T01560056=
201504211252 METAR KATL 211252Z 29006KT 10SM CLR 13/06 A2998 RMK AO2 SLP150 T01330061=
201504211152 METAR KATL 211152Z 31005KT 10SM FEW250 11/06 A2996 RMK AO2 SLP142 T01110061 10139 20094 53020=
201504211052 METAR KATL 211052Z 30005KT 10SM FEW250 10/06 A2993 RMK AO2 SLP133 T01000056=
201504210952 METAR KATL 210952Z 31007KT 10SM CLR 11/06 A2992 RMK AO2 SLP126 T01060061=
201504210852 METAR KATL 210852Z 31008KT 10SM CLR 12/06 A2990 RMK AO2 SLP120 T01170061 51001=
201504210752 METAR KATL 210752Z 32007KT 10SM CLR 12/07 A2990 RMK AO2 SLP119 T01220067=
201504210652 METAR KATL 210652Z 31008KT 10SM CLR 13/07 A2990 RMK AO2 SLP119 T01330067=
201504210552 METAR KATL 210552Z 31010KT 10SM CLR 14/07 A2990 RMK AO2 SLP118 T01390072 10217 20139 51012=
201504210452 METAR KATL 210452Z 31012G19KT 10SM CLR 15/08 A2989 RMK AO2 SLP117 T01500078 402500150=
201504210352 METAR KATL 210352Z 30012KT 10SM FEW060 16/08 A2987 RMK AO2 SLP110 T01610078=
201504210252 METAR KATL 210252Z 29011KT 10SM SCT060 17/08 A2986 RMK AO2 SLP105 T01720078 51037=
201504210152 METAR KATL 210152Z 29011KT 10SM SCT055 18/09 A2983 RMK AO2 SLP094 T01830089=
201504210052 METAR KATL 210052Z 29014G17KT 10SM FEW055 19/09 A2979 RMK AO2 SLP079 T01940094=
201504202352 METAR KATL 202352Z 30017G23KT 10SM SCT055 SCT070 22/10 A2975 RMK AO2 SLP067 T02170100 10250 20217 53021=
201504202252 METAR KATL 202252Z 28008KT 10SM SCT055 SCT080 23/12 A2972 RMK AO2 SLP055 TCU DSNT NE-E T02280122=
201504202152 METAR KATL 202152Z 24015G20KT 10SM BKN050TCU BKN090 BKN250 23/12 A2970 RMK AO2 SLP048 CB DSNT NE TCU OHD-ALQDS T02330122=
201504202052 METAR KATL 202052Z 23015G23KT 10SM BKN050TCU BKN100 BKN250 24/13 A2968 RMK AO2 SLP044 CB DSNT NE TCU OHD-SW-NW SHRA DSNT NE T02390128 56024=
201504201952 METAR KATL 201952Z 23013G23KT 10SM FEW050TCU SCT070 SCT200 25/13 A2970 RMK AO2 PK WND 22030/1937 SLP049 CB DSNT NE TCU W-NW-N T02500128=
201504201852 METAR KATL 201852Z 22018G25KT 10SM FEW040 SCT080 SCT200 24/14 A2972 RMK AO2 PK WND 22026/1822 SLP056 CB DSNT NE & E & W-NW-N T02440144=
201504201752 METAR KATL 201752Z 23010G21KT 10SM SCT030TCU BKN040 BKN080 BKN200 23/16 A2976 RMK AO2 SLP069 CB DSNT NW-N TCU OHD-SE-S-SW T02330156 10233 20189 58005=
201504201652 METAR KATL 201652Z 23008G17KT 10SM FEW030 BKN080 BKN200 22/16 A2977 RMK AO2 SLP076 CB DSNT W-NW-N T02220156=
201504201552 METAR KATL 201552Z 20013G19KT 10SM FEW030 SCT060 BKN200 22/16 A2979 RMK AO2 SLP082 T02220156=
201504201452 METAR KATL 201452Z 22012G18KT 10SM FEW018 SCT024 SCT200 22/16 A2977 RMK AO2 SLP075 T02170161 50009=
201504201352 METAR KATL 201352Z 24010KT 10SM FEW014 SCT016 BKN200 20/16 A2978 RMK AO2 SLP077 T02000161=
201504201252 METAR KATL 201252Z 22013G20KT 10SM BKN013 BKN019 BKN200 19/17 A2977 RMK AO2 SLP073 T01940167=
201504201228 SPECI KATL 201228Z 21009KT 10SM BKN013 BKN250 19/17 A2977 RMK AO2=
201504201152 METAR KATL 201152Z 22006KT 10SM SCT011 BKN018 BKN025 BKN250 19/17 A2975 RMK AO2 SLP067 70025 T01940167 10194 20189 56006=
201504201138 SPECI KATL 201138Z 23007KT 10SM SCT011 BKN016 BKN025 BKN250 19/17 A2975 RMK AO2=
201504201052 METAR KATL 201052Z 21008KT 10SM FEW009 BKN014 BKN022 19/17 A2975 RMK AO2 SLP067 T01890167=
201504201050 SPECI KATL 201050Z 22009KT 10SM FEW009 BKN014 BKN022 19/17 A2975 RMK AO2=
201504201046 SPECI KATL 201046Z 22009KT 10SM BKN016 BKN022 19/17 A2975 RMK AO2 CB DSNT NW=
201504201013 SPECI KATL 201013Z 20009G16KT 10SM SCT007 BKN015 BKN022 19/17 A2975 RMK AO2 CB DSNT NW=
201504200952 METAR KATL 200952Z 21011G16KT 9SM BKN007 19/17 A2975 RMK AO2 SLP068 CIG 006V009 T01890172=
201504200852 METAR KATL 200852Z 22007G16KT 7SM BKN006 OVC013 19/17 A2977 RMK AO2 SLP073 T01940172 53000=
201504200752 METAR KATL 200752Z 19010KT 7SM OVC005 19/18 A2975 RMK AO2 SLP068 T01940178=
201504200652 METAR KATL 200652Z 21006KT 8SM BKN007 OVC015 19/17 A2975 RMK AO2 SLP067 T01890172=
201504200552 METAR KATL 200552Z 21009KT 8SM OVC006 19/18 A2977 RMK AO2 SLP073 60003 T01940178 10200 20189 55001=
201504200501 SPECI KATL 200501Z 20006KT 10SM BKN008 BKN016 OVC034 19/17 A2977 RMK AO2=
201504200452 METAR KATL 200452Z 21005KT 10SM SCT008 BKN016 BKN028 BKN250 19/17 A2976 RMK AO2 SLP072 T01890172 402170189=
201504200418 SPECI KATL 200418Z 23003KT 10SM BKN010 OVC034 19/17 A2976 RMK AO2 CIG 008V012=
201504200352 METAR KATL 200352Z 23004KT 10SM SCT012 BKN034 BKN085 BKN200 19/17 A2977 RMK AO2 SLP074 T01890172=
201504200329 SPECI KATL 200329Z 25003KT 10SM BKN014 BKN034 BKN080 BKN200 19/17 A2977 RMK AO2 CIG 012V016=
201504200320 SPECI KATL 200320Z 25003KT 10SM SCT012 BKN032 BKN080 BKN200 19/17 A2977 RMK AO2=
201504200252 METAR KATL 200252Z 25008G14KT 10SM BKN014 BKN028 BKN075 OVC130 20/18 A2977 RMK AO2 RAE41 SLP074 CB DSNT NE P0002 60003 T02000178 53018=
201504200235 SPECI KATL 200235Z 29011G15KT 260V330 6SM -RA BR BKN010 BKN028CB OVC075 19/18 A2977 RMK AO2 CB NE-SE-S MOV E P0002=
201504200229 SPECI KATL 200229Z 32007KT 1SM R09R/P6000FT +RA BR BKN010 BKN030CB OVC075 19/18 A2976 RMK AO2 CB NE-OHD-SW MOV E P0002=
201504200227 SPECI KATL 200227Z VRB03KT 2SM +RA BR BKN010 BKN030CB OVC075 19/18 A2976 RMK AO2 CB NE-OHD-SW MOV E P0001=
201504200152 METAR KATL 200152Z 27007KT 10SM -RA BKN012 BKN042 OVC080 19/17 A2975 RMK AO2 RAB31 SLP067 P0001 T01940172=
201504200131 SPECI KATL 200131Z 22007KT 10SM -RA SCT014 BKN040CB BKN080 BKN200 20/17 A2974 RMK AO2 RAB31 CB SW-W MOV E TCU OHD P0000=
201504200052 METAR KATL 200052Z 20008KT 10SM BKN018 BKN028 BKN120 BKN200 20/17 A2973 RMK AO2 SLP059 CB DSNT SW-W T02000172=
201504200030 SPECI KATL 200030Z 21007KT 10SM SCT016 BKN028 BKN200 BKN250 20/17 A2972 RMK AO2 CB DSNT SW-W AND NW=
201504192352 METAR KATL 192352Z 22006G16KT 10SM FEW016 SCT030 SCT200 BKN250 21/17 A2971 RMK AO2 SLP055 CB DSNT SW-NW 60004 T02060167 10217 20200 56006=
201504192252 METAR KATL 192252Z 22011G18KT 10SM SCT016 SCT030 BKN200 BKN250 22/18 A2971 RMK AO2 SLP055 T02170178=
201504192226 SPECI KATL 192226Z 21012KT 10SM SCT014 SCT028 BKN110 BKN200 21/18 A2972 RMK AO2=
201504192152 METAR KATL 192152Z 21011G17KT 10SM OVC013 21/18 A2973 RMK AO2 SLP061 BINOVC T02060178=
201504192052 METAR KATL 192052Z 21009KT 10SM FEW009 BKN013 BKN034 21/18 A2973 RMK AO2 RAE1955 SLP062 P0000 60004 T02060183 58022=
201504192014 SPECI KATL 192014Z 18010G16KT 10SM SCT008 BKN010 OVC018 21/18 A2974 RMK AO2 RAE1955 P0000=
201504191952 METAR KATL 191952Z 19011G18KT 9SM -RA BKN008 OVC017 20/18 A2975 RMK AO2 SLP068 P0004 T02000183=
201504191852 METAR KATL 191852Z 19009G15KT 10SM -RA BKN008 OVC014 20/18 A2979 RMK AO2 RAB41 SLP081 P0000 T02000183=
201504191843 SPECI KATL 191843Z 19008KT 8SM -RA BKN008 OVC014 20/18 A2979 RMK AO2 RAB41 P0000=
201504191820 SPECI KATL 191820Z 20007KT 8SM BKN010 BKN022 BKN029 20/18 A2980 RMK AO2=
201504191808 SPECI KATL 191808Z 21006KT 8SM SCT009 BKN022 BKN029 21/18 A2980 RMK AO2=
201504191759 SPECI KATL 191759Z 21006KT 8SM FEW007 SCT018 BKN110 20/18 A2980 RMK AO2=
201504191752 METAR KATL 191752Z 21007KT 8SM FEW007 BKN020 BKN120 20/18 A2980 RMK AO2 RAE43 SLP084 P0004 60018 T02000183 10211 20194 58006=
201504191731 SPECI KATL 191731Z 18007KT 6SM -RA BR SCT005 BKN015 OVC037 20/18 A2980 RMK AO2 SCT007 V BKN P0004=
201504191713 SPECI KATL 191713Z 17008KT 4SM -RA BR BKN007 BKN015 OVC043 20/18 A2981 RMK AO2 BKN007 V SCT P0002=
201504191700 SPECI KATL 191700Z 16007KT 6SM -RA BR SCT007 BKN023 OVC041 20/18 A2982 RMK AO2 SCT007 V BKN P0001=
201504191652 METAR KATL 191652Z 18007KT 6SM -RA BR BKN007 BKN024 OVC046 20/18 A2982 RMK AO2 SLP091 P0000 T02000183=
201504191631 SPECI KATL 191631Z 18012KT 6SM -RA BR BKN009 BKN033 OVC070 20/18 A2982 RMK AO2 P0000=
201504191603 SPECI KATL 191603Z 17012G21KT 6SM -RA BR BKN011 BKN033 OVC046 21/18 A2983 RMK AO2 P0000=
201504191552 METAR KATL 191552Z 17013G22KT 6SM -RA BR SCT011 BKN015 OVC047 21/18 A2983 RMK AO2 SLP096 P0001 T02060183=
201504191525 SPECI KATL 191525Z 16013G20KT 6SM -RA BR SCT006 BKN012 OVC018 21/19 A2983 RMK AO2 P0001=
201504191501 SPECI KATL 191501Z 16010KT 6SM -RA BR BKN006 OVC010 21/19 A2983 RMK AO2 P0001=
201504191452 METAR KATL 191452Z 16009KT 2 1/2SM RA BR BKN006 OVC012 21/19 A2982 RMK AO2 RAB04 SLP091 P0006 60013 T02060189 55013=
201504191419 SPECI KATL 191419Z 15009KT 3SM -RA BR BKN008 BKN015 OVC060 20/19 A2981 RMK AO2 RAB04 P0002=
201504191414 SPECI KATL 191414Z 14007KT 3SM -RA BR SCT008 BKN015 OVC055 21/18 A2981 RMK AO2 RAB04 P0001=
201504191352 METAR KATL 191352Z 16009KT 7SM SCT004 BKN030 OVC055 21/19 A2981 RMK AO2 SLP088 CB E MOVD NE CB DSNT NE SHRA S-SW T02060189=
201504191330 SPECI KATL 191330Z 15008KT 7SM SCT004 BKN025 OVC075 21/18 A2982 RMK AO2 CB E MOVD NE CB DSNT NE AND NW=
201504191304 SPECI KATL 191304Z 14009KT 2SM BKN004 BKN018CB OVC075 20/18 A2982 RMK AO2 SFC VIS 7 CB S MOV NE=
201504191252 METAR KATL 191252Z 14006KT 3/4SM BR BKN004 BKN018TCU OVC075 20/18 A2984 RMK AO2 SFC VIS 5 RAE1154B15E47 SLP097 TCU E CIG 003V006 TWRINC P0007 T02000183=
201504191152 METAR KATL 191152Z 15007KT 3/4SM -RA BR OVC004 19/18 A2986 RMK AO2 SFC VIS 5 RAB19 SLP105 CIG 003V005 TWRINC P0000 60026 70037 T01940178 10194 20194 55002=
201504191138 SPECI KATL 191138Z 16007KT 3/4SM BR OVC004 19/18 A2986 RMK AO2 SFC VIS 5 RAB19E35 CIG 003V005 TWRINC P0000=
201504191052 METAR KATL 191052Z 15006KT 1 1/2SM BR BKN005 OVC090 19/18 A2985 RMK AO2 SFC VIS 6 RAE41 SLP101 CIG 004V007 P0001 T01940178=
201504190952 METAR KATL 190952Z 14007KT 1 1/2SM -RA BR BKN005 OVC020 19/18 A2985 RMK AO2 SFC VIS 4 SLP101 CIG 003V007 P0005 T01940178=
201504190852 METAR KATL 190852Z 14006KT 1 1/2SM -RA BR SCT004 BKN008 OVC036 19/18 A2986 RMK AO2 SLP106 P0016 60020 T01940178 56020=
201504190849 SPECI KATL 190849Z 14007KT 1 1/2SM +RA BR SCT004 BKN008 OVC036 19/18 A2987 RMK AO2 P0012=
201504190752 METAR KATL 190752Z 13004KT 1 1/2SM -RA BR BKN004 OVC090 19/18 A2988 RMK AO2 SFC VIS 4 SLP110 CIG 002V006 TWRINC P0001 T01940183=
201504190652 METAR KATL 190652Z 14004KT 1 1/2SM -RA BR BKN003 OVC007 19/18 A2990 RMK AO2 SFC VIS 4 RAB0553 SLP117 CIG 002V005 TWRINC P0003 T01940183=
201504190552 METAR KATL 190552Z 12005KT 1 1/2SM BKN004 OVC012 19/18 A2992 RMK AO2 SFC VIS 7 RAB0453E47 SLP127 CIG 003V005 TWRINC P0001 60001 T01940183 10211 20194 58013=
201504190452 METAR KATL 190452Z 13004KT 1 1/2SM OVC003 19/18 A2994 RMK AO2 SFC VIS 8 SLP132 CIG 002V004 TWRINC T01940183 402280172=
201504190356 SPECI KATL 190356Z 12005KT 3SM BKN004 BKN018 OVC050 19/18 A2995 RMK AO2 SFC VIS 8 CIG 003V006=
201504190352 METAR KATL 190352Z 11004KT 10SM BKN005 BKN020 OVC050 19/18 A2995 RMK AO2 SLP136 CIG 004V007 T01940178=
201504190348 SPECI KATL 190348Z 12005KT 10SM BKN005 BKN022 OVC050 19/18 A2996 RMK AO2 CIG 004V007=
201504190252 METAR KATL 190252Z 13004KT 10SM SCT006 BKN026 BKN110 OVC200 19/18 A2996 RMK AO2 SLP140 T01940178 53006=
201504190152 METAR KATL 190152Z 07007KT 10SM FEW006 SCT100 BKN180 BKN250 19/18 A2995 RMK AO2 SLP136 T01940178=
201504190052 METAR KATL 190052Z 07007KT 10SM FEW018 SCT110 BKN200 OVC250 20/18 A2994 RMK AO2 SLP133 T02000183=
201504182352 METAR KATL 182352Z 00000KT 10SM FEW022 SCT040 SCT110 OVC200 21/18 A2995 RMK AO2 SLP134 TCU DSNT NE 60010 T02110183 10228 20206 55000=
201504182252 METAR KATL 182252Z 10005KT 10SM SCT010 SCT034 SCT110 BKN200 21/18 A2992 RMK AO2 SLP125 CB DSNT SW T02110183=
201504182152 METAR KATL 182152Z 10004KT 10SM SCT012 SCT034TCU BKN110 BKN200 22/18 A2992 RMK AO2 RAE21 SLP125 TCU NW AND DSNT SE-SW P0010 T02170183=
201504182142 SPECI KATL 182142Z 09006KT 10SM SCT012 BKN035 BKN110 BKN200 22/19 A2992 RMK AO2 RAE21 P0010=
201504182057 SPECI KATL 182057Z 00000KT 6SM R09R/5500VP6000FT -RA BKN015 BKN022CB OVC045 21/18 A2995 RMK AO2 CB N-E-SE MOV N P0010=
201504182052 METAR KATL 182052Z COR 11005KT 5SM R09R/5500VP6000FT -RA FEW015 BKN020CB OVC041 21/17 A2995 RMK AO2 RAB49 SLP135 CB VC N MOV N P0000 60000 T02060172 55012=
201504182011 SPECI KATL 182011Z VRB03KT 10SM FEW013 SCT023TCU BKN028 22/18 A2994 RMK AO2 TCU -SHRA VC E TCU DSTN W=
201504181952 METAR KATL 181952Z 10004KT 10SM FEW014 BKN042TCU OVC075 21/18 A2994 RMK AO2 RAB20E43 SLP132 TCU VC W DSTN E BINOVC P0000 T02110178=
201504181940 SPECI KATL 181940Z 10004KT 7SM -RA FEW012 BKN031 OVC039 21/18 A2994 RMK AO2 RAB20 P0000=
201504181852 METAR KATL 181852Z 15007KT 10SM SCT016 BKN022 OVC028 22/18 A2995 RMK AO2 SLP136 BINOVC T02220178=
201504181827 SPECI KATL 181827Z 12006KT 10SM SCT016 BKN022 OVC034 22/17 A2997 RMK AO2 DSTN -SHRA S BINOVC=
201504181752 METAR KATL 181752Z 07005KT 10SM BKN014 BKN021 OVC042 22/17 A2998 RMK AO2 RAE1657 SLP146 BINOVC P0000 60000 T02170172 10217 20172 58004=
201504181652 METAR KATL 181652Z 12005KT 10SM -RA BKN010 OVC014 20/17 A3001 RMK AO2 RAB49 SLP157 P0000 T02000172=
201504181635 SPECI KATL 181635Z 13005KT 10SM OVC012 20/17 A3002 RMK AO2=
201504181552 METAR KATL 181552Z 09006KT 10SM OVC007 19/17 A3000 RMK AO2 SLP155 T01940167=
201504181452 METAR KATL 181452Z 06006KT 10SM OVC007 19/17 A2999 RMK AO2 SLP151 T01890167 51003=
201504181352 METAR KATL 181352Z 05008KT 7SM OVC005 18/17 A2999 RMK AO2 SLP150 T01830167=
201504181254 SPECI KATL 181254Z 06007KT 2 1/2SM BR OVC004 18/16 A3000 RMK AO2 SFC VIS 6=
201504181252 METAR KATL 181252Z 07006KT 1 1/4SM BR OVC004 18/16 A2999 RMK AO2 SFC VIS 6 SLP152 CIG 003V005 TWRINC T01780161=
201504181239 SPECI KATL 181239Z 06007KT 1 1/4SM BR OVC004 18/16 A2999 RMK AO2 SFC VIS 6 CIG 003V005 TWRINC=
201504181152 METAR KATL 181152Z 06007KT 1/2SM BR OVC004 17/16 A2998 RMK AO2 SFC VIS 6 RAE42 SLP149 CIG 003V005 TWRINC P0005 60011 70089 T01720161 10172 20172 53006=
201504181052 METAR KATL 181052Z 05005KT 1/2SM -RA BR OVC003 17/16 A2998 RMK AO2 SFC VIS 4 SLP147 DZE26RAB26 P0002 T01720161=
201504180952 METAR KATL 180952Z 06006KT 1/2SM -DZ BR OVC003 17/16 A2996 RMK AO2 SFC VIS 4 DZB25 SLP142 TWRINC P0000 T01720161=
201504180902 SPECI KATL 180902Z 07006KT 1/2SM BR OVC003 17/16 A2997 RMK AO2 SFC VIS 5 TWRINC=
201504180852 METAR KATL 180852Z 08006KT 2SM BR OVC004 17/16 A2997 RMK AO2 SFC VIS 6 DZE39 SLP143 P0000 60004 T01720161 56010=
201504180752 METAR KATL 180752Z 06007KT 2SM -DZ BR BKN004 OVC018 17/16 A2997 RMK AO2 SFC VIS 6 RAE26DZB08 SLP145 CIG 003V005 P0001 T01720161=
201504180652 METAR KATL 180652Z 07006KT 2SM -RA BR BKN004 BKN015 OVC024 17/16 A2999 RMK AO2 SFC VIS 4 SLP150 CIG 003V005 P0003 T01720161=
201504180552 METAR KATL 180552Z 07008KT 2SM -RA BR BKN004 OVC017 17/16 A3000 RMK AO2 SFC VIS 3 SLP154 CIG 003V005 P0005 60022 T01720156 10172 20167 58012=
201504180544 SPECI KATL 180544Z 08008KT 2SM -RA BR BKN004 BKN017 OVC023 17/16 A3000 RMK AO2 SFC VIS 2 1/2 CIG 003V005 P0005=
201504180452 METAR KATL 180452Z 07008KT 2SM -RA BR BKN005 BKN020 OVC035 17/16 A3002 RMK AO2 SFC VIS 3 SLP162 CIG 003V007 P0002 T01720156 401720128=
201504180352 METAR KATL 180352Z 09006KT 2SM -RA BR BKN005 OVC025 17/16 A3002 RMK AO2 SFC VIS 3 SLP164 CIG 003V007 P0001 T01670156=
201504180252 METAR KATL 180252Z 08006KT 2SM -RA BR BKN005 BKN020 OVC050 17/16 A3003 RMK AO2 SFC VIS 6 SLP167 CIG 003V007 P0006 60014 T01720156 50006=
201504180152 METAR KATL 180152Z 08006KT 2SM -RA BR BKN005 BKN025 OVC050 17/16 A3004 RMK AO2 SFC VIS 3 SLP169 CIG 003V007 P0002 T01720156=
201504180052 METAR KATL 180052Z 09006KT 2SM -RA BR BKN005 BKN020 OVC055 17/16 A3002 RMK AO2 SFC VIS 3 SLP162 CIG 003V007 P0006 T01720156=
201504180019 SPECI KATL 180019Z 08006KT 2SM RA BR BKN008 OVC020 17/16 A3001 RMK AO2 CIG 005V010 P0004=
201504172352 METAR KATL 172352Z 04006KT 3SM -RA SCT005 BKN020 OVC050 17/15 A3001 RMK AO2 SFC VIS 8 SLP161 SCT005 V BKN P0006 60035 T01720150 10172 20161 56007=
201504172340 SPECI KATL 172340Z 06007KT 3SM -RA SCT004 BKN020 OVC050 17/15 A3001 RMK AO2 SFC VIS 8 SCT004 V BKN P0005=
201504172252 METAR KATL 172252Z 08004KT 2SM RA BR SCT004 BKN012 OVC035 17/16 A3001 RMK AO2 SLP161 SCT004 V BKN P0011 T01670156=
201504172152 METAR KATL 172152Z 09003KT 2SM -RA BR BKN007 OVC020 17/15 A3002 RMK AO2 SFC VIS 2 1/2 SLP163 CIG 004V010 P0007 T01720150=
201504172052 METAR KATL 172052Z 10003KT 2SM RA BR OVC006 17/15 A3003 RMK AO2 SFC VIS 4 SLP168 P0001 60011 T01670150 56021=
201504171952 METAR KATL 171952Z 07004KT 2SM -RA BR OVC006 17/15 A3004 RMK AO2 SFC VIS 5 SLP170 P0005 T01670150=
201504171852 METAR KATL 171852Z 00000KT 2SM -RA BR BKN006 OVC016 16/14 A3008 RMK AO2 SFC VIS 2 1/2 SLP183 P0005 T01610144=
201504171843 SPECI KATL 171843Z 12004KT 2SM RA BR BKN006 OVC016 16/14 A3008 RMK AO2 SFC VIS 3 P0002=
201504171752 METAR KATL 171752Z COR 06004KT 6SM -RA BR BKN006 OVC018 16/14 A3010 RMK AO2 SLP190 P0004 60021 T01610139 10161 20128 58016=
201504171652 METAR KATL 171652Z 10004KT 6SM -RA BR BKN006 OVC008 16/13 A3012 RMK AO2 RAE17B35 SLP198 P0000 T01560133=
201504171552 METAR KATL 171552Z 09006KT 6SM -RA BR BKN006 BKN008 OVC010 15/13 A3014 RMK AO2 SLP205 P0005 T01500128=
201504171452 METAR KATL 171452Z 10005KT 3SM RA BR BKN006 BKN010 OVC020 14/12 A3015 RMK AO2 SFC VIS 4 SLP208 VIS LWR SE-SW SHRA P0005 60012 T01390122 58005=
201504171444 SPECI KATL 171444Z 09005KT 3SM -RA BR BKN006 BKN010 OVC020 14/13 A3015 RMK AO2 SFC VIS 5 P0003=
201504171352 METAR KATL 171352Z 10007KT 2SM -RA BR FEW004 BKN006 OVC012 13/12 A3016 RMK AO2 SFC VIS 6 SLP210 P0007 T01330122=
201504171349 SPECI KATL 171349Z 10007KT 2SM -RA BR FEW003 BKN006 OVC012 13/12 A3016 RMK AO2 SFC VIS 6 P0006=
201504171252 METAR KATL 171252Z 09006KT 1/4SM -RA BR OVC002 13/12 A3016 RMK AO2 SFC VIS 3 DZE40RAB40 SLP213 TWRINC P0000 T01330122=
201504171152 METAR KATL 171152Z 09007KT 050V120 1/4SM R09R/4000VP6000FT -DZ BR OVC002 13/12 A3015 RMK AO2 SFC VIS 1 SLP207 PCPN VRY LGT TWRINC P0000 60000 70028 T01280117 10128 20128 51007=
201504171052 METAR KATL 171052Z 08009KT 1/4SM R09R/2600V4000FT -DZ FG VV002 13/12 A3014 RMK AO2 SFC VIS 1/2 RAE20DZB20 SLP203 PCPN VRY LGT P0000 T01280117=
201504170952 METAR KATL 170952Z 08007KT 1/4SM R09R/2400V2600FT -RA FG VV002 13/12 A3014 RMK AO2 SFC VIS 1/2 DZE44RAB44 SLP204 PCPN VRY LGT P0000 T01280122=
201504170852 METAR KATL 170852Z 08007KT 1/4SM R09R/2600V3000FT -DZ FG VV002 13/12 A3013 RMK AO2 SFC VIS 1/2 DZB38 SLP200 PCPN VRY LGT P0000 60000 T01280117 58009=
201504170752 METAR KATL 170752Z 09009KT 1/4SM R09R/2400V2600FT FG VV002 13/12 A3013 RMK AO2 SLP202 T01280117=
201504170652 METAR KATL 170652Z 09007KT 1SM R09R/5500VP6000FT BR OVC002 13/12 A3015 RMK AO2 SLP209 CIG 001V003 T01280117=
201504170647 SPECI KATL 170647Z 07008KT 1SM R09R/6000VP6000FT BR OVC002 13/12 A3015 RMK AO2 CIG 001V003=
201504170555 SPECI KATL 170555Z 10007KT 2SM OVC004 13/12 A3016 RMK AO2 SFC VIS 8 CIG 003V005 TWRINC=
201504170552 METAR KATL 170552Z 11009KT 8SM OVC004 13/11 A3016 RMK AO2 SLP214 CIG 003V005 60027 T01280111 10144 20128 58009=
201504170452 METAR KATL 170452Z 09008KT 10SM OVC004 13/12 A3017 RMK AO2 SLP216 T01280117 401440117=
201504170352 METAR KATL 170352Z 09005KT 10SM BKN006 OVC200 13/11 A3018 RMK AO2 SLP221 T01280111=
201504170310 SPECI KATL 170310Z 12007KT 10SM BKN006 BKN120 OVC200 13/11 A3019 RMK AO2=
201504170252 METAR KATL 170252Z 12009KT 10SM SCT006 BKN120 OVC200 13/11 A3019 RMK AO2 RAE43 SLP223 SCT006 V BKN P0001 60027 T01280111 58002=
201504170152 METAR KATL 170152Z 11008KT 5SM RA BR FEW006 SCT012 BKN040 OVC130 13/11 A3022 RMK AO2 SLP232 P0023 T01330111=
201504170128 SPECI KATL 170128Z 10010KT 4SM RA BR SCT012 BKN040 OVC100 13/12 A3022 RMK AO2 P0013=
201504170052 METAR KATL 170052Z 10004KT 5SM RA BR BKN012 OVC020 13/11 A3022 RMK AO2 RAB26 SLP234 P0003 T01330111=
201504162352 METAR KATL 162352Z 07008KT 10SM FEW010 BKN016 OVC035 14/11 A3019 RMK AO2 SLP224 60001 T01440106 10144 20128 53001=
201504162252 METAR KATL 162252Z 05010KT 10SM BKN012 OVC020 14/11 A3018 RMK AO2 RAE2158 SLP221 P0000 T01390111=
201504162152 METAR KATL 162152Z 09009KT 10SM -RA BKN012 BKN020 OVC060 14/11 A3019 RMK AO2 SLP224 P0001 T01390111=
201504162111 SPECI KATL 162111Z 09008KT 10SM -RA BKN012 BKN015 OVC020 13/11 A3018 RMK AO2 P0000=
201504162052 METAR KATL 162052Z COR 09010KT 10SM -RA BKN012 BKN015 OVC020 13/10 A3019 RMK AO2 RAB33 SLP224 P0000 60000 T01330100 58016=
201504161952 METAR KATL 161952Z 09008KT 10SM OVC012 13/10 A3021 RMK AO2 RAE03 SLP230 P0000 T01330100=
201504161852 METAR KATL 161852Z 08012KT 10SM -RA OVC012 13/10 A3023 RMK AO2 RAB42 SLP236 P0000 T01330100=
201504161845 SPECI KATL 161845Z 09011KT 10SM -RA OVC011 13/10 A3023 RMK AO2 RAB42 P0000=
201504161752 METAR KATL 161752Z 10011KT 10SM OVC009 13/10 A3024 RMK AO2 SLP241 T01280100 10128 20117 50000=
201504161652 METAR KATL 161652Z 07012KT 10SM OVC009 13/09 A3025 RMK AO2 SLP242 T01280094=
201504161552 METAR KATL 161552Z 09012G20KT 10SM OVC007 13/10 A3027 RMK AO2 SLP249 T01280100=
201504161452 METAR KATL 161452Z 09011G19KT 10SM OVC007 13/10 A3024 RMK AO2 SLP240 T01280100 51000=
201504161352 METAR KATL 161352Z 08016KT 10SM OVC005 12/10 A3023 RMK AO2 SLP237 T01220100=
201504161252 METAR KATL 161252Z 08014G19KT 10SM OVC005 12/10 A3025 RMK AO2 SLP240 T01220100=
201504161152 METAR KATL 161152Z 08015KT 2SM OVC005 12/10 A3024 RMK AO2 SFC VIS 10 DZE25 SLP238 P0000 60000 70044 T01170100 10128 20117 53017=
201504161052 METAR KATL 161052Z 09013G18KT 2SM -DZ OVC005 12/10 A3021 RMK AO2 SFC VIS 7 SLP226 CIG 004V007 P0000 T01170100=
201504160952 METAR KATL 160952Z 08016KT 2SM -DZ BR OVC005 12/10 A3020 RMK AO2 SFC VIS 5 SLP225 CIG 004V006 P0000 T01170100=
201504160852 METAR KATL 160852Z 08012KT 2SM -DZ BR OVC004 12/11 A3019 RMK AO2 SFC VIS 3 SLP217 CIG 003V005 P0000 60000 T01220106 50002=
201504160752 METAR KATL 160752Z 09008KT 2SM -DZ BR OVC004 12/11 A3019 RMK AO2 SFC VIS 4 DZB02 PRESRR SLP219 CIG 003V005 P0000 T01220106=
201504160737 SPECI KATL 160737Z 09013KT 2SM -DZ BR OVC004 12/11 A3017 RMK AO2 SFC VIS 3 DZB02 CIG 003V005 P0000=
201504160734 SPECI KATL 160734Z 08012KT 2SM -DZ BR OVC005 12/11 A3017 RMK AO2 SFC VIS 3 DZB02 CIG 004V006 P0000=
201504160652 METAR KATL 160652Z 09015KT 10SM OVC006 13/11 A3018 RMK AO2 SLP214 T01280106=
201504160552 METAR KATL 160552Z 07015KT 10SM OVC006 13/11 A3018 RMK AO2 SLP216 60000 T01280106 10183 20128 58005=
201504160452 METAR KATL 160452Z 09013KT 10SM OVC008 13/11 A3021 RMK AO2 SLP225 T01330106 402500133=
201504160352 METAR KATL 160352Z 08014KT 10SM OVC007 13/11 A3020 RMK AO2 SLP223 T01330111=
201504160252 METAR KATL 160252Z 08015KT 10SM OVC009 14/11 A3020 RMK AO2 DZE41 SLP222 CIG 007V011 P0000 60000 T01390111 51028 $=
201504160152 METAR KATL 160152Z 06015KT 5SM -DZ BR OVC005 15/13 A3018 RMK AO2 SLP216 P0000 T01500128=
201504160052 METAR KATL 160052Z 08013KT 8SM -DZ OVC007 17/14 A3015 RMK AO2 DZB49 SLP203 P0000 T01670144=
201504152352 METAR KATL 152352Z 06016G20KT 10SM OVC007 18/15 A3011 RMK AO2 SLP192 T01830150 10250 20178 53021=
201504152252 METAR KATL 152252Z 08015KT 10SM BKN009 OVC040 19/16 A3008 RMK AO2 SLP181 T01890161=
201504152227 SPECI KATL 152227Z 07015KT 10SM BKN012 OVC040 19/16 A3008 RMK AO2=
201504152152 METAR KATL 152152Z 07016KT 10SM FEW013 SCT020 BKN040 OVC250 21/17 A3006 RMK AO2 WSHFT 2110 SLP173 TCU DSNT NE T02060172=
201504152129 SPECI KATL 152129Z 04015KT 10SM SCT013 BKN025 BKN040 OVC250 21/17 A3006 RMK AO2 WSHFT 2110 TCU DSNT E=
201504152052 METAR KATL 152052Z 13005KT 10SM FEW025CB SCT030TCU BKN240 24/17 A3005 RMK AO2 SLP167 CB NE MOV E TCU E-SE & W-NW SHRA VC NE T02440172 55009=
201504151952 METAR KATL 151952Z 21003KT 10SM FEW030 SCT050 BKN240 24/17 A3004 RMK AO2 SLP164 TCU DSNT N SHRA DSNT N T02440172=
201504151852 METAR KATL 151852Z VRB03KT 10SM FEW025TCU SCT050 BKN240 24/17 A3007 RMK AO2 SLP173 TCU DSNT E T02440172=
201504151752 METAR KATL 151752Z 31003KT 10SM FEW020 SCT050 BKN240 23/18 A3008 RMK AO2 SLP177 60044 T02330178 10233 20189 58002=
201504151713 SPECI KATL 151713Z 00000KT 10SM BKN015 BKN030 OVC050 22/18 A3009 RMK AO2=
201504151657 SPECI KATL 151657Z 00000KT 10SM BKN013 OVC034 22/18 A3010 RMK AO2=
201504151652 METAR KATL 151652Z 00000KT 10SM FEW015 BKN030 OVC050 21/18 A3010 RMK AO2 RAE08 SLP184 P0000 T02110178=
201504151611 SPECI KATL 151611Z 00000KT 10SM BKN010 BKN015 OVC040 21/18 A3010 RMK AO2 RAE08 P0000=
201504151552 METAR KATL 151552Z 06005KT 10SM -RA FEW010 BKN015 OVC040 21/18 A3009 RMK AO2 RAB46 SLP184 P0000 T02060178=
201504151452 METAR KATL 151452Z 09004KT 10SM BKN008 BKN030 OVC070 21/18 A3008 RMK AO2 SLP180 60044 T02060183 53010=
201504151352 METAR KATL 151352Z 09006KT 6SM BR BKN010 BKN040 OVC070 19/18 A3007 RMK AO2 RAE1257 SLP176 P0000 T01940178=
201504151326 SPECI KATL 151326Z 10005KT 6SM BR FEW006 BKN010 OVC070 19/18 A3007 RMK AO2 RAE1257 P0000=
201504151252 METAR KATL 151252Z 10004KT 5SM -RA BR BKN006 BKN050 OVC070 19/18 A3006 RMK AO2 SLP173 CIG 004V008 BINOVC W P0044 T01940178=
201504151245 SPECI KATL 151245Z 13003KT 3SM -RA BR FEW007 BKN050 OVC070 19/17 A3006 RMK AO2 SFC VIS 4 P0044=
201504151213 SPECI KATL 151213Z 36006KT 2 1/2SM RA BR FEW005 SCT029 OVC047 19/17 A3006 RMK AO2 P0035=
201504151203 SPECI KATL 151203Z 33008KT 1SM R09R/4000VP6000FT RA BR SCT004 BKN020 OVC036 19/18 A3006 RMK AO2 P0032=
201504151157 SPECI KATL 151157Z 30011G16KT 1SM R09R/3500VP6000FT +RA BR BKN004 BKN017 OVC025 19/18 A3006 RMK AO2 CIG 003V005 P0016=
201504151152 METAR KATL 151152Z COR 30014KT 2 1/2SM R09R/5000VP6000FT +RA BR BKN007 OVC025 19/18 A3005 RMK AO2 TWR VIS 3 RAB03 SLP169 CIG 006V009 P0004 60006 70009 T01940183 10211 20194 53009=
201504151146 SPECI KATL 151146Z 29008KT 4SM -RA BR BKN007 OVC025 20/18 A3004 RMK AO2 RAB03 VIS SW-NW 2 1/2 CIG 006V009 P0001=
201504151052 METAR KATL 151052Z 11003KT 7SM FEW005 OVC029 20/18 A3002 RMK AO2 SLP158 T02000183=
201504151023 SPECI KATL 151023Z 00000KT 7SM FEW005 OVC029 20/18 A3002 RMK AO2=
201504150952 METAR KATL 150952Z 00000KT 6SM BR FEW005 OVC033 20/18 A3002 RMK AO2 SLP155 T02000183=
201504150852 METAR KATL 150852Z 14003KT 5SM BR FEW003 BKN039 OVC070 20/18 A3002 RMK AO2 RAE20 SLP157 P0000 60002 T02000183 55002=
201504150752 METAR KATL 150752Z 00000KT 7SM -RA SCT055 BKN080 OVC110 20/18 A3002 RMK AO2 RAB0658 SLP156 P0002 T02000183=
201504150652 METAR KATL 150652Z 00000KT 10SM FEW050 OVC110 21/18 A3000 RMK AO2 RAE34 SLP151 P0000 T02060183=
201504150552 METAR KATL 150552Z 00000KT 9SM -RA SCT085 OVC120 21/19 A3003 RMK AO2 RAB27 SLP160 P0000 60003 T02060189 10239 20194 58018=
201504150452 METAR KATL 150452Z 00000KT 10SM SCT100 BKN120 OVC150 21/18 A3007 RMK AO2 SLP174 T02060183 402720189=
201504150352 METAR KATL 150352Z 22005KT 10SM FEW070 BKN100 OVC150 21/18 A3009 RMK AO2 RAE0256 SLP183 P0000 T02060183=
201504150252 METAR KATL 150252Z 28004KT 9SM -RA SCT090 BKN120 OVC150 21/18 A3008 RMK AO2 RAB43 SLP180 P0000 60003 T02060178 51016=
201504150152 METAR KATL 150152Z 26005KT 10SM FEW070 BKN150 OVC200 19/17 A3007 RMK AO2 RAE30 SLP176 P0003 T01940167=
201504150052 METAR KATL 150052Z 28012G18KT 9SM -RA FEW025CB SCT050 BKN070 OVC150 21/17 A3006 RMK AO2 TSE52RAE19B47 SLP174 TS DSIPTD CB SW-NW MOV NE P0000 T02060172=
201504142352 METAR KATL 142352Z 27008KT 4SM TSRA SCT028CB BKN040 BKN070 OVC200 24/19 A3004 RMK AO2 TSB44RAB04E19B47 SLP163 VIS LWR W-NW OCNL LTGIC W-NW TS W-NW MOV NE P0000 60000 T02390189 10272 20233 53005=
201504142344 SPECI KATL 142344Z 31005KT 10SM TS SCT028CB BKN040 BKN070 OVC200 24/19 A3003 RMK AO2 TSB44RAB04E19 OCNL LTGIC SW-W TS SW-W MOV NE P0000=
201504142252 METAR KATL 142252Z 22007KT 10SM SCT035CB BKN200 OVC250 26/18 A3001 RMK AO2 SLP154 CB W-NW MOV NE SHRA W-NW T02560183=
201504142152 METAR KATL 142152Z 23006KT 10SM SCT040TCU BKN250 27/18 A3001 RMK AO2 SLP153 TCU VC SW T02670178=
201504142052 METAR KATL 142052Z 25010KT 10SM FEW040 BKN250 27/17 A3002 RMK AO2 SLP157 TCU DSNT S T02720172 56018=
201504141952 METAR KATL 141952Z 24009KT 10SM FEW045 BKN250 27/17 A3003 RMK AO2 SLP160 T02720172=
201504141852 METAR KATL 141852Z 24009KT 10SM SCT040 BKN250 27/17 A3006 RMK AO2 SLP170 T02720172=
201504141752 METAR KATL 141752Z 25011KT 10SM FEW035 BKN250 27/17 A3008 RMK AO2 SLP175 60000 T02670172 10267 20200 58008=
201504141652 METAR KATL 141652Z 24008G18KT 10SM SCT020 SCT030 25/18 A3011 RMK AO2 SLP187 T02500183=
201504141552 METAR KATL 141552Z 26009KT 10SM FEW014 SCT020 SCT027 23/18 A3010 RMK AO2 SLP185 T02280183=
201504141452 METAR KATL 141452Z 24008KT 10SM FEW010 BKN012 OVC015 22/18 A3010 RMK AO2 DZE32 SLP186 P0000 60000 T02170183 51010=
201504141433 SPECI KATL 141433Z 25004G14KT 10SM FEW009 BKN012 BKN015 22/19 A3010 RMK AO2 DZE32 P0000=
201504141352 METAR KATL 141352Z 24009KT 6SM -DZ BR OVC009 21/18 A3010 RMK AO2 DZB49 SLP187 P0000 T02110183=
201504141252 METAR KATL 141252Z 24009G16KT 10SM OVC009 21/18 A3009 RMK AO2 SLP182 CIG 007V010 T02060183=
201504141152 METAR KATL 141152Z 22008KT 7SM BKN008 BKN015 OVC023 20/18 A3007 RMK AO2 RAB03E14 SLP176 P0000 60033 70052 T02000183 10200 20189 53004=
201504141103 SPECI KATL 141103Z 21009KT 6SM -RA BR BKN006 BKN022 OVC050 20/18 A3006 RMK AO2 RAB03 CIG 004V008 P0000=
201504141052 METAR KATL 141052Z 21008KT 10SM FEW008 BKN029 BKN055 OVC180 19/18 A3005 RMK AO2 SLP170 T01940183=
201504141034 SPECI KATL 141034Z 20005KT 10SM FEW007 BKN021 BKN050 OVC180 19/18 A3005 RMK AO2=
201504140952 METAR KATL 140952Z 19003KT 10SM FEW005 SCT030 BKN060 BKN130 OVC250 19/18 A3005 RMK AO2 RAE49 SLP167 P0021 T01940178=
201504140938 SPECI KATL 140938Z 00000KT 7SM -RA SCT004 BKN032 OVC060 19/18 A3005 RMK AO2 P0020=
201504140931 SPECI KATL 140931Z 20005KT 1 1/2SM R09R/5500VP6000FT +RA BR BKN004 BKN011 OVC032 19/18 A3005 RMK AO2 CIG 003V007 P0018=
201504140915 SPECI KATL 140915Z 00000KT 1 3/4SM +RA BR BKN009 BKN037 OVC050 19/18 A3005 RMK AO2 P0004=
201504140852 METAR KATL 140852Z 20004KT 5SM -RA BR BKN009 BKN048 OVC060 19/18 A3006 RMK AO2 RAB0755 SLP171 P0012 60012 T01940178 56010=
201504140812 SPECI KATL 140812Z 21005KT 5SM -RA BR FEW008 BKN039 OVC070 19/18 A3006 RMK AO2 RAB0755 P0007=
201504140804 SPECI KATL 140804Z 21009KT 2 1/2SM RA BR SCT008 BKN035 OVC050 19/18 A3006 RMK AO2 RAB0755 P0005=
201504140752 METAR KATL 140752Z 21010KT 8SM BKN008 BKN018 OVC041 19/18 A3007 RMK AO2 SLP175 T01940178=
201504140707 SPECI KATL 140707Z 20009KT 8SM BKN008 BKN120 OVC250 19/18 A3007 RMK AO2=
201504140652 METAR KATL 140652Z 19008KT 2SM BKN006 OVC100 19/18 A3007 RMK AO2 SFC VIS 7 SLP178 CIG 005V008 T01940178=
201504140552 METAR KATL 140552Z 19006KT 2SM BR OVC005 20/18 A3009 RMK AO2 SFC VIS 6 SLP182 CIG 003V007 60011 T02000183 10206 20200 58006=
201504140529 SPECI KATL 140529Z 19008KT 2SM OVC004 20/19 A3009 RMK AO2 SFC VIS 7 CIG 003V005=
201504140452 METAR KATL 140452Z 17007KT 2SM BKN005 OVC030 20/19 A3010 RMK AO2 SFC VIS 9 SLP186 CIG 003V007 T02000189 402390178=
201504140352 METAR KATL 140352Z 12003KT 2SM BKN005 OVC030 20/19 A3010 RMK AO2 SFC VIS 10 SLP186 CIG 003V007 T02000189=
201504140321 SPECI KATL 140321Z 11005KT 2SM BKN005 BKN020 OVC050 20/18 A3010 RMK AO2 SFC VIS 10 CIG 003V007=
201504140316 SPECI KATL 140316Z 10004KT 10SM BKN005 BKN025 OVC150 20/18 A3010 RMK AO2=
201504140252 METAR KATL 140252Z 10004KT 10SM SCT005 BKN025 BKN050 OVC150 20/18 A3011 RMK AO2 SLP189 SCT005 V BKN 60011 T02000183 51006=
201504140152 METAR KATL 140152Z 13003KT 10SM SCT005 BKN012 OVC050 20/18 A3011 RMK AO2 RAE24 SLP189 SCT005 V BKN P0010 T02000183=
201504140105 SPECI KATL 140105Z 13004KT 6SM -RA BR FEW005 BKN020CB OVC050 20/18 A3010 RMK AO2 VIS LWR NE CB NE MOV NE P0010=
201504140055 SPECI KATL 140055Z 13006KT 2SM +RA BR FEW005 BKN020CB OVC050 21/19 A3010 RMK AO2 CB OHD-E MOV NE P0005=
201504140052 METAR KATL 140052Z 13005KT 5SM RA BR FEW005 BKN020CB OVC050 21/19 A3010 RMK AO2 RAB29 SLP185 VIS LWR SE-S CB SE-S MOV NE P0001 T02060189=
201504132352 METAR KATL 132352Z 14003KT 10SM FEW020 SCT055 BKN090 OVC200 21/18 A3009 RMK AO2 RAE26 SLP182 P0006 60008 T02060183 10239 20200 55000=
201504132304 SPECI KATL 132304Z 14004KT 4SM RA BR FEW008 SCT020CB BKN050 OVC150 21/18 A3009 RMK AO2 VIS LWR NE-E CB NE-E MOV N P0006=
201504132300 SPECI KATL 132300Z 16005G18KT 2SM R09R/6000VP6000FT +RA BR FEW008 BKN020CB BKN050 OVC150 21/18 A3009 RMK AO2 CB OHD-E MOV N P0005=
201504132252 METAR KATL 132252Z 18013G18KT 7SM -RA FEW008 SCT020CB BKN050 OVC150 22/18 A3009 RMK AO2 RAB47 SLP182 VIS LWR E-S CB E-S MOV N P0000 T02220183=
201504132152 METAR KATL 132152Z 00000KT 10SM FEW020TCU BKN070 BKN110 OVC200 23/19 A3008 RMK AO2 RAB2055E05 SLP179 CB DSNT NE & SE TCU VC NE P0000 T02330189=
201504132052 METAR KATL 132052Z 19007KT 10SM FEW025TCU BKN050 OVC110 23/18 A3009 RMK AO2 SLP182 CB DSNT SW TCU SE & NW SHRA DSNT SW 60002 T02330178 56022=
201504132011 SPECI KATL 132011Z 17010KT 10SM FEW014 SCT033 BKN110 23/18 A3010 RMK AO2=
201504131952 METAR KATL 131952Z 16009KT 10SM SCT014CB BKN023 BKN035 23/19 A3010 RMK AO2 RAE00 SLP187 CB NW MOV N SHRA NW P0000 T02280189=
201504131936 SPECI KATL 131936Z VRB05KT 10SM BKN014 BKN019 22/19 A3011 RMK AO2 RAE00 P0000=
201504131852 METAR KATL 131852Z 13005KT 8SM -RA SCT018CB BKN030 OVC050 22/19 A3013 RMK AO2 RAB06 SLP197 CB N-NE-E MOV N P0002 T02170194=
201504131837 SPECI KATL 131837Z 15006KT 8SM -RA FEW010CB BKN020 OVC030 21/18 A3015 RMK AO2 RAB06 CB S & OHD-NW-N MOV N P0001=
201504131822 SPECI KATL 131822Z 13007KT 6SM -RA FEW010CB BKN030 OVC040 21/18 A3015 RMK AO2 RAB06 CB SE-SW MOV N P0001=
201504131812 SPECI KATL 131812Z 14006KT 8SM -RA SCT014CB BKN025 OVC040 21/18 A3015 RMK AO2 RAB06 VIS LWR SE-SW SHRA CB SE-SW MOV N P0000=
201504131752 METAR KATL 131752Z 13006KT 10SM FEW010CB BKN020 OVC030 22/18 A3015 RMK AO2 SLP205 CB S-SW-W MOV N SHRA VC S-SW-W 60000 T02170183 10217 20178 58015=
201504131719 SPECI KATL 131719Z 13007KT 9SM FEW008 BKN014 OVC020 21/18 A3017 RMK AO2=
201504131652 METAR KATL 131652Z 14006KT 7SM BKN006 BKN009 OVC012 21/18 A3017 RMK AO2 RAE13 SLP212 P0000 T02060183=
201504131635 SPECI KATL 131635Z 14004KT 2 1/2SM BR OVC005 19/18 A3018 RMK AO2 SFC VIS 6 RAE13 P0000=
201504131552 METAR KATL 131552Z 13006KT 1SM -RA BR OVC004 19/17 A3019 RMK AO2 SFC VIS 2 1/2 DZE31RAB38 SLP219 P0000 T01890172=
201504131452 METAR KATL 131452Z 11006KT 1SM -DZ BR OVC004 19/17 A3020 RMK AO2 SFC VIS 4 SLP222 P0000 60000 T01890172 51005=
201504131352 METAR KATL 131352Z 11007KT 1SM -DZ BR OVC004 18/17 A3020 RMK AO2 SFC VIS 3 SLP222 P0000 T01830167=
201504131252 METAR KATL 131252Z 11008KT 1SM R09R/5500VP6000FT -DZ BR OVC003 18/17 A3020 RMK AO2 SLP221 P0000 T01780167=
201504131152 METAR KATL 131152Z 11006KT 1SM -DZ BR OVC003 18/17 A3018 RMK AO2 SFC VIS 1 3/4 SLP217 TWRINC P0000 60000 70002 T01780167 10183 20178 53009=
201504131124 SPECI KATL 131124Z 11006KT 1SM -DZ BR OVC004 18/16 A3018 RMK AO2 SFC VIS 3 CIG 003V005 P0000=
201504131052 METAR KATL 131052Z 11005KT 2 1/2SM -DZ BR OVC004 18/16 A3017 RMK AO2 SFC VIS 3 DZB39 SLP212 CIG 003V005 P0000 T01780161=
201504131039 SPECI KATL 131039Z 11005KT 3SM -DZ BR OVC004 18/16 A3017 RMK AO2 DZB39 CIG 003V005 P0000=
201504130952 METAR KATL 130952Z 12008KT 6SM BR OVC005 18/16 A3016 RMK AO2 SLP206 T01780161=
201504130852 METAR KATL 130852Z 12007KT 8SM OVC006 18/16 A3016 RMK AO2 SLP206 T01780156 56015=
201504130752 METAR KATL 130752Z 12009KT 10SM BKN009 OVC048 18/15 A3016 RMK AO2 SLP209 T01780150=
201504130746 SPECI KATL 130746Z 12008KT 10SM BKN011 OVC048 18/15 A3016 RMK AO2=
201504130718 SPECI KATL 130718Z 10009KT 10SM SCT011 BKN049 OVC060 18/14 A3016 RMK AO2=
201504130652 METAR KATL 130652Z COR 11009KT 10SM BKN012 OVC031 18/13 A3018 RMK AO2 SLP214 T01830133=
201504130605 SPECI KATL 130605Z 10007KT 10SM BKN014 OVC031 18/12 A3020 RMK AO2 BKN014 V SCT=
201504130552 METAR KATL 130552Z 11008KT 10SM BKN016 OVC038 18/12 A3020 RMK AO2 SLP222 BKN016 V SCT 60000 T01830122 10183 20172 58004=
201504130547 SPECI KATL 130547Z 10008KT 10SM BKN016 OVC038 18/12 A3020 RMK AO2 BKN016 V SCT=
201504130536 SPECI KATL 130536Z 11007KT 10SM SCT018 BKN038 OVC055 18/12 A3020 RMK AO2=
201504130452 METAR KATL 130452Z 10008KT 10SM BKN018 BKN030 BKN055 OVC130 18/12 A3021 RMK AO2 SLP225 T01780122 402110133=
201504130352 METAR KATL 130352Z 09008KT 10SM BKN020 OVC034 18/13 A3021 RMK AO2 SLP226 T01780133=
201504130312 SPECI KATL 130312Z 10007KT 10SM BKN026 BKN038 OVC050 18/14 A3021 RMK AO2=
201504130252 METAR KATL 130252Z 11005KT 10SM FEW030 BKN040 OVC100 17/15 A3021 RMK AO2 SLP228 60000 T01720150 51012=
201504130152 METAR KATL 130152Z 15005KT 10SM BKN030 BKN040 OVC095 17/15 A3021 RMK AO2 SLP226 T01720150=
201504130140 SPECI KATL 130140Z 11005KT 10SM BKN030 OVC040 17/15 A3020 RMK AO2=
201504130052 METAR KATL 130052Z 11004KT 10SM OVC026 17/15 A3019 RMK AO2 RAE42 SLP222 P0000 T01720150=
201504122352 METAR KATL 122352Z 11005KT 9SM -RA BKN026 BKN038 OVC075 17/15 A3018 RMK AO2 SLP216 P0002 60002 T01720150 10211 20172 51008=
201504122252 METAR KATL 122252Z 12006KT 6SM -RA FEW017 BKN036 BKN110 OVC200 18/14 A3017 RMK AO2 RAB2154E04B37 SLP213 P0000 T01780144=
201504122206 SPECI KATL 122206Z 12010KT 10SM BKN020 BKN038 OVC120 20/15 A3016 RMK AO2 RAB2154E04 P0000=
201504122152 METAR KATL 122152Z 12012G18KT 10SM FEW022 BKN038 BKN120 OVC200 20/15 A3017 RMK AO2 SLP211 T02000150=
201504122052 METAR KATL 122052Z 08011KT 10SM FEW026 SCT044 BKN140 OVC200 21/15 A3015 RMK AO2 SLP206 60000 T02060150 56016=
201504122042 SPECI KATL 122042Z 09011KT 10SM SCT024 BKN044 BKN140 OVC200 21/16 A3015 RMK AO2=
201504121952 METAR KATL 121952Z 09010KT 10SM BKN021 OVC050 20/16 A3016 RMK AO2 RAB21E38 SLP209 P0000 T02000156=
201504121923 SPECI KATL 121923Z 08005KT 9SM -RA OVC016 19/16 A3018 RMK AO2 RAB21 P0000=
201504121852 METAR KATL 121852Z 09007KT 9SM OVC012 19/16 A3017 RMK AO2 PRESFR SLP212 T01890156=
201504121839 SPECI KATL 121839Z 09008KT 8SM OVC010 19/16 A3019 RMK AO2=
201504121752 METAR KATL 121752Z 10010KT 2 1/2SM BR OVC005 18/16 A3020 RMK AO2 SFC VIS 4 RAB19E30 SLP224 P0000 60000 T01780156 10178 20150 58006=
201504121709 SPECI KATL 121709Z 09009KT 2 1/2SM BR OVC005 17/15 A3021 RMK AO2 SFC VIS 5=
201504121652 METAR KATL 121652Z 07009KT 1 1/2SM BR OVC005 17/15 A3021 RMK AO2 SFC VIS 3 SLP227 T01720150=
201504121624 SPECI KATL 121624Z 07012KT 1 1/2SM BR OVC004 17/15 A3022 RMK AO2 SFC VIS 3=
201504121552 METAR KATL 121552Z 08008KT 1/2SM BR OVC004 17/16 A3022 RMK AO2 SFC VIS 2 SLP229 T01720156=
201504121452 METAR KATL 121452Z 08006KT 1/2SM R09R/2200V4500FT BR VV002 16/15 A3022 RMK AO2 SFC VIS 3/4 SLP230 T01610150 51018=
201504121357 SPECI KATL 121357Z 09007KT 1/2SM BR OVC004 16/14 A3020 RMK AO2 SFC VIS 1 1/2=
201504121352 METAR KATL 121352Z 09008KT 1 1/2SM BR OVC004 16/14 A3020 RMK AO2 TWR VIS 2 SLP223 T01610139=
201504121312 SPECI KATL 121312Z 08010KT 2SM BKN005 OVC046 16/12 A3020 RMK AO2 SFC VIS 7=
201504121252 METAR KATL 121252Z 09007KT 10SM SCT004 BKN032 OVC250 16/11 A3019 RMK AO2 SLP218 T01560111=
201504121218 SPECI KATL 121218Z 08007KT 10SM FEW005 SCT038 OVC250 15/11 A3018 RMK AO2=
201504121152 METAR KATL 121152Z 08007KT 10SM FEW030 OVC250 15/10 A3017 RMK AO2 SLP210 T01500100 10172 20133 53016=
201504121052 METAR KATL 121052Z 09006KT 10SM BKN250 14/07 A3013 RMK AO2 SLP199 T01390067=
201504120952 METAR KATL 120952Z 07007KT 10SM FEW200 BKN250 16/06 A3012 RMK AO2 SLP192 T01560056=
201504120852 METAR KATL 120852Z 05005KT 10SM SCT200 BKN250 16/04 A3012 RMK AO2 SLP192 T01610039 55001=
201504120752 METAR KATL 120752Z 04005KT 10SM SCT200 BKN250 17/03 A3011 RMK AO2 SLP190 T01670033=
201504120652 METAR KATL 120652Z 04004KT 10SM SCT200 BKN250 17/03 A3011 RMK AO2 SLP189 T01720033=
201504120552 METAR KATL 120552Z 36003KT 10SM FEW200 BKN250 17/03 A3012 RMK AO2 SLP194 T01720033 10228 20161 56002=
201504120452 METAR KATL 120452Z 32004KT 10SM SCT200 BKN250 17/04 A3012 RMK AO2 SLP194 T01670039 402560128=
201504120352 METAR KATL 120352Z 33006KT 10SM SCT200 BKN250 17/04 A3012 RMK AO2 SLP194 T01720039=
201504120252 METAR KATL 120252Z 32007KT 10SM FEW200 BKN250 18/03 A3013 RMK AO2 SLP197 T01830033 53017=
201504120152 METAR KATL 120152Z 32006KT 10SM FEW200 BKN250 18/05 A3012 RMK AO2 SLP194 T01830050=
201504120052 METAR KATL 120052Z 32006KT 10SM SCT200 BKN250 21/06 A3009 RMK AO2 SLP184 T02060056=
201504112352 METAR KATL 112352Z 32008KT 10SM SCT200 BKN250 BKN300 23/06 A3008 RMK AO2 SLP181 T02280056 10256 20228 58002=
201504112252 METAR KATL 112252Z 31007KT 10SM SCT200 BKN250 BKN300 24/04 A3008 RMK AO2 SLP180 T02390039=
201504112152 METAR KATL 112152Z 30007KT 280V340 10SM FEW200 SCT250 BKN300 25/04 A3008 RMK AO2 SLP180 T02500039=
201504112052 METAR KATL 112052Z 32009KT 10SM FEW200 SCT250 26/04 A3008 RMK AO2 SLP181 T02560039 55011=
201504111952 METAR KATL 111952Z 31007KT 10SM SCT250 26/06 A3008 RMK AO2 SLP180 T02560056=
201504111852 METAR KATL 111852Z 31008KT 10SM BKN250 24/06 A3010 RMK AO2 SLP186 T02440061=
201504111752 METAR KATL 111752Z VRB05KT 10SM BKN250 23/05 A3012 RMK AO2 SLP193 T02330050 10239 20128 58013=
201504111652 METAR KATL 111652Z 00000KT 10SM SCT250 22/07 A3014 RMK AO2 SLP199 T02220067=
201504111552 METAR KATL 111552Z 00000KT 10SM FEW250 20/09 A3015 RMK AO2 SLP203 T02000094=
201504111452 METAR KATL 111452Z 00000KT 10SM FEW150 18/09 A3016 RMK AO2 SLP206 T01780094 51010=
201504111352 METAR KATL 111352Z 35009KT 10SM FEW150 SCT250 16/09 A3015 RMK AO2 SLP206 T01560089=
201504111252 METAR KATL 111252Z 31009KT 10SM FEW200 SCT250 14/09 A3015 RMK AO2 SLP205 T01390089=
201504111152 METAR KATL 111152Z 31007KT 10SM SCT220 BKN250 13/09 A3012 RMK AO2 SLP197 70152 T01280094 10178 20128 53018=
201504111052 METAR KATL 111052Z 32006KT 10SM BKN220 13/10 A3009 RMK AO2 SLP186 T01330100=
201504110952 METAR KATL 110952Z 32008KT 10SM OVC220 14/11 A3007 RMK AO2 SLP177 T01440106=
201504110852 METAR KATL 110852Z 32007KT 10SM BKN180 OVC250 15/12 A3007 RMK AO2 SLP175 T01500117 55003=
201504110752 METAR KATL 110752Z 29005KT 10SM BKN180 OVC250 16/12 A3006 RMK AO2 SLP174 T01560122=
201504110652 METAR KATL 110652Z 33009KT 10SM FEW037 OVC180 17/13 A3006 RMK AO2 SLP171 T01670128=
201504110552 METAR KATL 110552Z 33009KT 10SM FEW006 BKN037 OVC150 18/14 A3008 RMK AO2 SLP179 60005 T01780144 10194 20178 55003=
201504110531 SPECI KATL 110531Z 33009KT 10SM SCT006 BKN037 BKN150 OVC200 19/16 A3008 RMK AO2 CIG 005V008=
201504110518 SPECI KATL 110518Z 32006KT 10SM BKN006 BKN025 OVC150 19/17 A3008 RMK AO2 CIG 005V008=
201504110452 METAR KATL 110452Z 28004KT 10SM FEW017 SCT025 BKN040 OVC200 19/17 A3008 RMK AO2 SLP178 T01890172 402500183=
201504110430 SPECI KATL 110430Z 28004KT 10SM FEW017 SCT025 BKN040 OVC200 19/17 A3008 RMK AO2=
201504110412 SPECI KATL 110412Z 26004KT 10SM SCT017 BKN025 BKN100 OVC200 19/17 A3009 RMK AO2=
201504110352 METAR KATL 110352Z 23005KT 10SM FEW015 SCT022 BKN100 OVC200 19/17 A3008 RMK AO2 SLP180 T01890172=
201504110310 SPECI KATL 110310Z 21005KT 10SM FEW015 SCT025 BKN040 OVC150 19/18 A3008 RMK AO2=
201504110252 METAR KATL 110252Z 24005KT 10SM FEW005 BKN018CB OVC040 19/18 A3009 RMK AO2 RAE08 SLP182 CB VC S MOV E P0001 60005 T01940178 53016=
201504110212 SPECI KATL 110212Z 23004KT 10SM FEW005 BKN018CB OVC050 19/18 A3008 RMK AO2 RAE08 CB VC SW MOV E P0001=
201504110152 METAR KATL 110152Z 21004KT 10SM -RA FEW005 SCT020CB BKN050 OVC150 19/18 A3007 RMK AO2 RAB15 SLP176 CB VC S-SW MOV E P0000 T01890178=
201504110126 SPECI KATL 110126Z 21005KT 8SM -RA SCT005 BKN040 BKN070 OVC150 19/17 A3006 RMK AO2 RAB15 OCNL LTG DSNT SE & SW P0000=
201504110052 METAR KATL 110052Z 20004KT 10SM SCT040 BKN070 BKN100 OVC200 19/17 A3003 RMK AO2 TSE22RAE22 SLP164 OCNL LTG DSNT SE-SW P0004 T01890172=
201504110022 SPECI KATL 110022Z 18005KT 10SM FEW005 SCT040 BKN080 BKN150 OVC200 19/17 A3003 RMK AO2 TSE22RAE22 OCNL LTGIC DSNT S-SW TS MOV E P0004=
201504102352 METAR KATL 102352Z 00000KT 3SM +TSRA BR SCT015CB BKN030 BKN070 OVC150 19/17 A3004 RMK AO2 RAB2259 SLP165 OCNL LTGICCG NE-SE-S TS NE-SE-S MOV E P0107 60107 T01890172 10250 20183 53005=
201504102337 SPECI KATL 102337Z 28004G21KT 1 1/2SM R09R/1800V5500FT +TSRA BR FEW005 BKN015CB OVC040 19/17 A3004 RMK AO2 RAB2259 FRQ LTGICCG OHD-ALQDS TS OHD-ALQDS MOV E P0083=
201504102328 SPECI KATL 102328Z 30014G21KT 3/4SM R09R/2000VP6000FT +TSRA BR FEW005 BKN020CB OVC070 19/17 A3005 RMK AO2 RAB2259 FRQ LTGICCG OHD-ALQDS TS OHD-ALQDS MOV E P0005=
201504102326 SPECI KATL 102326Z 32009KT 1 1/2SM R09R/2000VP6000FT +TSRA BR FEW005 BKN020CB OVC070 19/17 A3004 RMK AO2 RAB2259 FRQ LTGICCG NE-OHD-SW TS NE-OHD-SW MOV E P0000=
201504102319 SPECI KATL 102319Z 30006KT 7SM -TSRA FEW005 BKN025CB BKN070 OVC150 20/17 A3002 RMK AO2 RAB2259 VIS LWR SW-NW OCNL LTGICCG SW-NW TS SW-NW MOV E P0000=
201504102252 METAR KATL 102252Z 35011KT 10SM TS SCT025CB BKN032 BKN070 OVC200 22/15 A3002 RMK AO2 TSB13 SLP159 OCNL LTGIC NW-NE & DSNT E-SE TS NW-NE & DSNT E-SE MOV E T02170150=
201504102213 SPECI KATL 102213Z 21008KT 10SM TS FEW025CB SCT040 BKN070 OVC200 24/17 A3002 RMK AO2 TSB13 OCNL LTGICCG VC NW-NE TS VC NW-NE MOV SE=
201504102152 METAR KATL 102152Z 22007KT 10SM FEW025 BKN040 BKN070 OVC200 24/17 A3002 RMK AO2 SLP157 OCNL LTG DSNT NW-NE T02440167=
201504102052 METAR KATL 102052Z 25005KT 10SM FEW025 SCT100 BKN200 BKN250 24/17 A3002 RMK AO2 SLP157 CB DSNT NW-N T02440172 58019=
201504101952 METAR KATL 101952Z 27005KT 10SM SCT025 BKN085 OVC200 24/17 A3004 RMK AO2 SLP164 TCU DSNT W T02440172=
201504101852 METAR KATL 101852Z 27006KT 10SM SCT020 BKN095 BKN200 24/18 A3006 RMK AO2 SLP171 T02390178=
201504101752 METAR KATL 101752Z 26009KT 10SM FEW010 SCT035 BKN100 BKN200 22/18 A3008 RMK AO2 RAE28 SLP177 P0000 60040 T02170183 10217 20194 58007=
201504101652 METAR KATL 101652Z 19005KT 7SM -RA FEW010 SCT050 BKN100 OVC200 20/18 A3008 RMK AO2 TSB10E49 SLP179 TS MOV NE P0012 T02000178=
201504101632 SPECI KATL 101632Z 00000KT 4SM -TSRA BR FEW010CB BKN070 OVC090 19/17 A3008 RMK AO2 TSB10 PRESFR OCNL LTGICCG NE-SE TS NE-SE MOV NE P0009=
201504101626 SPECI KATL 101626Z 00000KT 2SM TSRA BR FEW010CB BKN050 OVC090 19/18 A3012 RMK AO2 TSB10 OCNL LTGICCG OHD TS OHD MOV NE P0006=
201504101610 SPECI KATL 101610Z 24007KT 5SM TSRA BR FEW010CB BKN090 OVC110 20/18 A3012 RMK AO2 TSB10 OCNL LTGICCG SW TS VC SW MOV NE P0001=
201504101552 METAR KATL 101552Z 25007KT 9SM -RA FEW010 SCT060 OVC120 20/18 A3011 RMK AO2 TSE22 SLP188 TS MOV NE P0015 T02000178=
201504101545 SPECI KATL 101545Z 24007KT 9SM -RA FEW010 BKN060 OVC120 20/18 A3011 RMK AO2 TSE22 TS MOV NE P0015=
201504101527 SPECI KATL 101527Z 26009KT 7SM -RA FEW013 BKN025 OVC050 19/18 A3010 RMK AO2 TSE22 TS MOV NE P0014=
201504101522 SPECI KATL 101522Z 25006KT 5SM -RA BR FEW013 BKN025 OVC050 19/18 A3010 RMK AO2 TSE22 TS MOV NE P0014=
201504101504 SPECI KATL 101504Z 22010KT 3SM TSRA FEW013CB BKN025 OVC050 19/18 A3011 RMK AO2 OCNL LTGICCG ALQDS TS ALQDS MOV NE P0007=
201504101456 SPECI KATL 101456Z 23009KT 8SM R09R/3000VP6000FT -TSRA FEW013CB BKN030 OVC100 19/18 A3011 RMK AO2 OCNL LTGICCG ALQDS TS ALQDS MOV NE P0001=
201504101452 METAR KATL 101452Z 23009KT 3SM R09R/3000VP6000FT +TSRA BR BKN013CB BKN030 OVC095 20/18 A3010 RMK AO2 TSB10RAB17 SLP184 OCNL LTGICCG OHD-ALQDS TS OHD-ALQDS MOV NE P0013 60013 T02000178 51009=
201504101438 SPECI KATL 101438Z 23006KT 3SM -TSRA BR SCT013CB BKN025 OVC060 20/18 A3009 RMK AO2 TSB10RAB17 OCNL LTGICCG ALQDS TS ALQDS MOV NE P0004=
201504101428 SPECI KATL 101428Z 22007KT 1 1/2SM TSRA FEW015CB BKN025 OVC050 21/18 A3009 RMK AO2 TSB10RAB17 OCNL LTGICCG OHD-SW-W TS OHD-SW-W MOV NE P0000=
201504101423 SPECI KATL 101423Z 23008KT 8SM -TSRA FEW015CB BKN025 OVC050 21/18 A3010 RMK AO2 TSB10RAB17 OCNL LTGICCG SW-W TS VC SW-W MOV NE P0000=
201504101410 SPECI KATL 101410Z 23007KT 10SM TS FEW015CB BKN045 OVC110 21/17 A3009 RMK AO2 TSB10 OCNL LTGICCG SW TS VC SW MOV NE SHRA VC SW=
201504101352 METAR KATL 101352Z 23006KT 10SM FEW015 SCT024 BKN110 BKN200 21/17 A3009 RMK AO2 SLP180 CB DSNT SW-NW SHRA DSNT SW-NW T02110172=
201504101307 SPECI KATL 101307Z 24009KT 10SM FEW014 SCT024 BKN120 OVC200 21/17 A3009 RMK AO2=
201504101252 METAR KATL 101252Z 24009KT 10SM SCT012 BKN024 BKN120 OVC200 21/17 A3009 RMK AO2 SLP179 T02110172=
201504101244 SPECI KATL 101244Z 25010KT 10SM SCT012 BKN024 BKN120 OVC200 21/17 A3008 RMK AO2=
201504101202 SPECI KATL 101202Z 24008KT 10SM BKN012 BKN048 BKN150 OVC200 21/17 A3007 RMK AO2=
201504101152 METAR KATL 101152Z 24007KT 10SM SCT012 SCT048 BKN150 OVC200 21/17 A3007 RMK AO2 SLP174 T02060172 10233 20200 53008=
201504101052 METAR KATL 101052Z 20006KT 10SM FEW050 SCT150 BKN200 OVC250 21/17 A3004 RMK AO2 SLP164 T02060172=
201504100952 METAR KATL 100952Z 22006KT 10SM FEW044 BKN150 OVC200 21/17 A3004 RMK AO2 SLP163 T02110167=
201504100852 METAR KATL 100852Z 22007KT 10SM FEW046 BKN150 OVC200 22/17 A3004 RMK AO2 SLP164 T02170167 58001=
201504100752 METAR KATL 100752Z 23007KT 10SM BKN048 BKN150 OVC200 22/17 A3004 RMK AO2 SLP163 T02220167=
201504100652 METAR KATL 100652Z 23008KT 10SM FEW046 BKN150 OVC200 23/16 A3006 RMK AO2 SLP168 T02280161 $=
201504100552 METAR KATL 100552Z 23008G14KT 10SM SCT150 BKN200 OVC250 23/16 A3005 RMK AO2 SLP163 T02330161 10267 20233 50000 $=
201504100452 METAR KATL 100452Z 23010KT 10SM BKN150 BKN200 OVC250 23/16 A3005 RMK AO2 SLP165 T02330161 402940183 $=
201504100352 METAR KATL 100352Z 21010KT 10SM SCT150 BKN200 BKN250 23/16 A3005 RMK AO2 SLP166 T02330156 $=
201504100252 METAR KATL 100252Z 20010KT 10SM SCT200 BKN250 24/15 A3005 RMK AO2 SLP164 T02390150 56004 $=
201504100152 METAR KATL 100152Z 19010KT 10SM SCT200 BKN250 24/15 A3005 RMK AO2 SLP167 T02440150 $=
201504100052 METAR KATL 100052Z 19010G15KT 10SM FEW150 BKN200 BKN250 26/15 A3005 RMK AO2 SLP165 T02560150 $=
201504092352 METAR KATL 092352Z 20008KT 10SM FEW150 SCT200 BKN250 27/15 A3006 RMK AO2 SLP171 T02670150 10294 20267 56004 $=
201504092252 METAR KATL 092252Z 22012G17KT 10SM FEW060TCU SCT090 BKN250 28/16 A3007 RMK AO2 SLP173 TCU SW & DSNT NE T02780156 $=
201504092152 METAR KATL 092152Z 23012KT 10SM FEW060TCU SCT090 BKN250 29/16 A3006 RMK AO2 SLP171 TCU NW & DSNT SW T02890156 $=
201504092052 METAR KATL 092052Z 23010KT 10SM FEW060TCU SCT080 BKN250 28/15 A3007 RMK AO2 SLP175 CB DSNT SE TCU W T02830150 57015 $=
201504091952 METAR KATL 091952Z 23013KT 10SM FEW050 SCT070 BKN250 29/16 A3009 RMK AO2 SLP178 TCU DSNT E-SE T02890156 $=
201504091852 METAR KATL 091852Z 20011KT 10SM FEW050TCU BKN065 BKN250 28/15 A3011 RMK AO2 SLP185 TCU S-SW T02780150 $=
201504091752 METAR KATL 091752Z 21015KT 10SM SCT055 BKN250 28/15 A3012 RMK AO2 SLP189 T02830150 10289 20183 58006 $=
201504091652 METAR KATL 091652Z 21013KT 10SM FEW050 BKN250 28/15 A3013 RMK AO2 SLP193 T02780150 $=
201504091552 METAR KATL 091552Z 23010KT 10SM FEW050 SCT200 SCT250 27/15 A3013 RMK AO2 SLP194 T02720150 $=
201504091452 METAR KATL 091452Z 23004KT 10SM SCT250 26/16 A3014 RMK AO2 SLP196 T02610161 53008 $=
201504091352 METAR KATL 091352Z COR 23004KT 10SM SCT250 23/18 A3013 RMK AO2 SLP193 T02330178 $=
201504091252 METAR KATL 091252Z 22008KT 10SM FEW200 SCT250 BKN300 21/17 A3012 RMK AO2 SLP190 T02060167 $=
201504091152 METAR KATL 091152Z 20007KT 10SM FEW200 SCT250 BKN300 18/16 A3011 RMK AO2 SLP188 T01830156 10222 20183 53012 $=
201504091052 METAR KATL 091052Z 20005KT 10SM FEW250 SCT300 18/16 A3009 RMK AO2 SLP182 T01830156 $=
201504090952 METAR KATL 090952Z 20005KT 10SM SCT250 BKN300 19/15 A3008 RMK AO2 SLP175 T01890150 $=
201504090852 METAR KATL 090852Z 18007KT 10SM SCT250 19/15 A3008 RMK AO2 SLP177 T01890150 58006 $=
201504090752 METAR KATL 090752Z 26003KT 10SM FEW200 BKN250 21/15 A3009 RMK AO2 SLP179 T02060150 $=
201504090652 METAR KATL 090652Z 26004KT 10SM SCT200 BKN250 22/15 A3010 RMK AO2 SLP181 T02170150 $=
201504090552 METAR KATL 090552Z 26006KT 10SM SCT200 BKN250 22/15 A3010 RMK AO2 SLP182 T02220150 10283 20222 55000 $=
201504090452 METAR KATL 090452Z 24008KT 10SM BKN250 23/14 A3009 RMK AO2 SLP178 T02280144 403060172 $=
201504090352 METAR KATL 090352Z 24007KT 10SM FEW250 23/14 A3009 RMK AO2 SLP179 T02330144 $=
201504090252 METAR KATL 090252Z 22008KT 10SM SCT250 24/14 A3010 RMK AO2 SLP182 T02390144 51021 $=
201504090152 METAR KATL 090152Z 23008KT 10SM BKN250 25/14 A3008 RMK AO2 SLP178 T02500139 $=
201504090052 METAR KATL 090052Z 21007KT 10SM BKN250 27/14 A3005 RMK AO2 SLP167 T02670139 $=
201504082352 METAR KATL 082352Z 21008KT 10SM BKN250 28/14 A3004 RMK AO2 SLP163 T02780139 10306 20278 56007 $=
201504082252 METAR KATL 082252Z 21012KT 10SM FEW065 BKN250 29/14 A3004 RMK AO2 SLP162 T02940139 $=
201504082152 METAR KATL 082152Z 24008KT 10SM FEW065 SCT250 SCT300 30/13 A3005 RMK AO2 SLP165 T03000133 $=
201504082052 METAR KATL 082052Z 23005KT 10SM FEW070 SCT250 SCT300 30/13 A3006 RMK AO2 SLP169 T03000128 56021 $=
201504081952 METAR KATL 081952Z 21009G15KT 10SM FEW070 BKN250 BKN300 30/12 A3007 RMK AO2 SLP174 T03000122=
201504081852 METAR KATL 081852Z 23012KT 10SM FEW070 SCT250 BKN300 29/12 A3010 RMK AO2 SLP183 T02940117=
201504081752 METAR KATL 081752Z 25006KT 10SM FEW060 SCT250 BKN300 29/14 A3012 RMK AO2 SLP192 T02890139 10289 20172 58017=
201504081652 METAR KATL 081652Z 22010KT 10SM FEW050 SCT250 BKN300 28/14 A3015 RMK AO2 SLP199 T02780144=
201504081552 METAR KATL 081552Z 28008KT 10SM FEW040 SCT250 27/17 A3017 RMK AO2 SLP207 T02670167=
201504081452 METAR KATL 081452Z VRB04KT 10SM FEW250 26/17 A3018 RMK AO2 SLP209 T02560167 51002=
201504081352 METAR KATL 081352Z VRB03KT 10SM CLR 23/17 A3018 RMK AO2 SLP210 T02330167=
201504081252 METAR KATL 081252Z 00000KT 10SM CLR 21/16 A3017 RMK AO2 SLP210 T02060161=
201504081152 METAR KATL 081152Z 16003KT 10SM FEW120 17/15 A3017 RMK AO2 SLP210 T01720150 10200 20172 51013=
201504081052 METAR KATL 081052Z 00000KT 10SM FEW120 17/14 A3016 RMK AO2 SLP206 T01720144=
201504080952 METAR KATL 080952Z 07003KT 10SM FEW150 18/14 A3014 RMK AO2 SLP199 T01780144=
201504080852 METAR KATL 080852Z 00000KT 10SM SCT150 SCT250 18/14 A3013 RMK AO2 SLP195 T01780144 56009=
201504080752 METAR KATL 080752Z 00000KT 10SM SCT140 SCT250 19/15 A3013 RMK AO2 SLP196 T01890150=
201504080652 METAR KATL 080652Z 00000KT 10SM FEW120 SCT250 19/15 A3014 RMK AO2 SLP200 T01890150=
201504080552 METAR KATL 080552Z 00000KT 10SM FEW120 BKN250 20/15 A3016 RMK AO2 SLP204 T02000150 10244 20194 51006=
201504080452 METAR KATL 080452Z 28005KT 10SM FEW150 BKN250 20/15 A3016 RMK AO2 SLP205 T02000150 402720172=
201504080352 METAR KATL 080352Z 25003KT 10SM FEW120 SCT150 BKN250 21/15 A3014 RMK AO2 SLP200 T02110150=
201504080252 METAR KATL 080252Z 27004KT 10SM SCT120 BKN150 BKN250 22/15 A3014 RMK AO2 SLP199 T02170150 55004=
201504080152 METAR KATL 080152Z 16005KT 10SM FEW080 BKN120 OVC150 23/14 A3012 RMK AO2 SLP194 VIRGA NE-OHD-SW T02280144=
201504080052 METAR KATL 080052Z 24004KT 10SM FEW080 BKN120 OVC150 24/14 A3017 RMK AO2 SLP208 T02390144=
201504072352 METAR KATL 072352Z 28006KT 10SM SCT080 BKN150 BKN250 23/14 A3015 RMK AO2 SLP204 T02330139 10272 20233 53002=
201504072252 METAR KATL 072252Z 23005KT 10SM FEW120 BKN150 BKN250 26/13 A3014 RMK AO2 SLP197 T02610133=
201504072152 METAR KATL 072152Z 21004KT 10SM FEW060 SCT120 BKN150 27/13 A3014 RMK AO2 SLP198 T02670128=
201504072052 METAR KATL 072052Z 24009KT 10SM FEW060 BKN110 BKN250 27/13 A3014 RMK AO2 SLP200 T02670128 56023=
201504071952 METAR KATL 071952Z 15005KT 10SM FEW050 SCT100 BKN250 26/15 A3017 RMK AO2 SLP208 T02610150=
201504071852 METAR KATL 071852Z VRB06KT 10SM FEW040 BKN200 BKN250 25/16 A3019 RMK AO2 SLP216 T02500156=
201504071752 METAR KATL 071752Z 00000KT 10SM FEW030 BKN060 BKN250 25/16 A3021 RMK AO2 SLP224 T02500156 10256 20178 58005=
201504071652 METAR KATL 071652Z 33003KT 10SM SCT030 SCT050 SCT250 23/17 A3022 RMK AO2 SLP229 T02280167=
201504071630 SPECI KATL 071630Z VRB03KT 10SM BKN030 BKN050 BKN250 24/17 A3023 RMK AO2=
201504071552 METAR KATL 071552Z 21006KT 10SM BKN025 BKN050 BKN250 22/16 A3024 RMK AO2 SLP233 T02220161 $=
201504071532 SPECI KATL 071532Z 26004KT 10SM BKN019 BKN250 22/17 A3023 RMK AO2=
201504071452 METAR KATL 071452Z 00000KT 7SM FEW009 SCT012 BKN250 21/17 A3023 RMK AO2 SLP231 T02110172 53012=
201504071446 SPECI KATL 071446Z 00000KT 6SM HZ BKN010 21/18 A3023 RMK AO2=
201504071352 METAR KATL 071352Z 16003KT 2SM BR BKN006 18/17 A3021 RMK AO2 SFC VIS 5 SLP226 T01830172=
201504071336 SPECI KATL 071336Z 18003KT 2SM BR OVC006 18/17 A3021 RMK AO2 SFC VIS 4=
201504071252 METAR KATL 071252Z 00000KT 1/4SM R09R/2800VP6000FT BR OVC003 18/17 A3020 RMK AO2 SFC VIS 3/4 SLP223 VIS W-N 1 1/2 CIG 002V005 TWRINC T01830172=
201504071237 SPECI KATL 071237Z 00000KT 1/4SM R09R/1600V4500FT BR OVC003 18/17 A3020 RMK AO2 SFC VIS 3/4 CIG 002V004 TWRINC=
201504071152 METAR KATL 071152Z 21003KT 1/4SM R09R/1400V1600FT FG VV002 18/17 A3019 RMK AO2 SLP219 70061 T01780167 10178 20172 53010=
201504071128 SPECI KATL 071128Z 00000KT 1/4SM R09R/1400V1800FT FG VV002 18/17 A3018 RMK AO2=
201504071052 METAR KATL 071052Z 00000KT 1/2SM R09R/3500VP6000FT BR OVC003 18/17 A3017 RMK AO2 SFC VIS 1 SLP211 T01780167=
201504071009 SPECI KATL 071009Z 00000KT 1/2SM R09R/P6000FT BR OVC003 18/17 A3018 RMK AO2 SFC VIS 1=
201504070952 METAR KATL 070952Z 16003KT 1 1/2SM BR OVC003 18/17 A3017 RMK AO2 SFC VIS 3 SLP211 TWRINC T01780167=
201504070852 METAR KATL 070852Z 15003KT 1 1/2SM BR OVC003 18/17 A3016 RMK AO2 SFC VIS 4 SLP207 T01780167 55003 $=
201504070845 SPECI KATL 070845Z 12003KT 1 1/2SM BR OVC003 18/17 A3016 RMK AO2 SFC VIS 5 $=
201504070752 METAR KATL 070752Z 09005KT 6SM BR OVC004 18/16 A3016 RMK AO2 SLP205 CIG 003V005 T01780161 $=
201504070652 METAR KATL 070652Z 10003KT 6SM BR BKN004 OVC023 18/16 A3017 RMK AO2 SLP209 CIG 003V005 T01780161 $=
201504070628 SPECI KATL 070628Z 12003KT 7SM BKN004 OVC023 18/16 A3017 RMK AO2 CIG 003V005 $=
201504070552 METAR KATL 070552Z 11004KT 10SM FEW005 BKN023 BKN050 OVC150 18/16 A3017 RMK AO2 SLP210 60061 T01780161 10200 20178 58012 $=
201504070531 SPECI KATL 070531Z 11004KT 10SM SCT005 SCT023 BKN055 OVC150 18/16 A3018 RMK AO2 $=
201504070452 METAR KATL 070452Z 12004KT 10SM FEW005 BKN025 OVC050 18/16 A3019 RMK AO2 SLP220 T01780161 402170122 $=
201504070426 SPECI KATL 070426Z 12004KT 10SM FEW005 BKN025 BKN090 OVC150 18/16 A3020 RMK AO2 $=
201504070352 METAR KATL 070352Z 10003KT 10SM SCT008 BKN030 OVC100 18/16 A3021 RMK AO2 SLP226 T01780161 $=
201504070252 METAR KATL 070252Z 11004KT 10SM SCT022 BKN035 BKN060 OVC150 18/17 A3021 RMK AO2 RAE38 SLP226 CB DSNT SE P0006 60061 T01830167 53016 $=
201504070152 METAR KATL 070152Z 35007KT 9SM -RA FEW005 BKN015CB OVC050 19/17 A3020 RMK AO2 SLP222 CB VC NE-SE MOV E P0047 T01890167 $=
201504070117 SPECI KATL 070117Z VRB03KT 5SM -RA BR SCT008 BKN015CB OVC060 18/17 A3018 RMK AO2 PRESRR VIS LWR NE-SE CB NE-SE MOV E P0044 $=
201504070106 SPECI KATL 070106Z 02005KT 2 1/2SM R09R/4000VP6000FT +RA BR BKN020CB BKN035 OVC070 18/17 A3017 RMK AO2 CB N-OHD-S MOV E P0030 $=
201504070052 METAR KATL 070052Z 07009KT 4SM +RA BR SCT025CB BKN035 OVC070 19/17 A3015 RMK AO2 SLP208 VIS LWR SW-NW CB SW-NW MOV E P0008 T01890167 $=
201504062352 METAR KATL 062352Z 11006KT 9SM -RA FEW025 BKN070 BKN110 OVC200 20/16 A3016 RMK AO2 RAB38 SLP210 P0000 60000 T02000161 10217 20200 58000 $=
201504062252 METAR KATL 062252Z 12006KT 10SM FEW025 BKN080 BKN110 OVC250 21/16 A3016 RMK AO2 SLP208 T02110156 $=
201504062152 METAR KATL 062152Z 13006KT 10SM FEW020 BKN110 OVC250 21/15 A3017 RMK AO2 SLP211 T02110150 $=
201504062052 METAR KATL 062052Z 12008KT 10SM FEW020 SCT050 SCT070 BKN250 21/16 A3016 RMK AO2 RAB26E32 SLP209 P0000 60000 T02060156 56027 $=
201504062036 SPECI KATL 062036Z 14009KT 8SM FEW019 BKN040 OVC055 21/16 A3017 RMK AO2 RAB26E32 P0000 $=
201504062026 SPECI KATL 062026Z 14009KT 8SM -RA SCT019 BKN027 OVC048 20/16 A3018 RMK AO2 RAB26 P0000 $=
201504061952 METAR KATL 061952Z 13008KT 10SM FEW030 SCT040 BKN060 BKN250 21/14 A3018 RMK AO2 SLP217 SHRA VC S-SW T02110144 $=
201504061935 SPECI KATL 061935Z 13009G16KT 10SM BKN029 BKN035 BKN060 21/14 A3019 RMK AO2 $=
201504061852 METAR KATL 061852Z 12008KT 10SM BKN030 BKN060 BKN250 21/14 A3021 RMK AO2 SLP227 T02110139 $=
201504061752 METAR KATL 061752Z VRB05KT 10SM BKN027 OVC050 21/13 A3024 RMK AO2 SLP238 T02060133 10211 20122 58008 $=
201504061730 SPECI KATL 061730Z 13006KT 10SM BKN024 BKN050 BKN250 21/14 A3025 RMK AO2 $=
201504061652 METAR KATL 061652Z 12009KT 10SM FEW020 BKN050 BKN250 19/13 A3025 RMK AO2 SLP241 T01940133=
201504061552 METAR KATL 061552Z 12006KT 10SM FEW020 BKN030 BKN040 17/12 A3027 RMK AO2 SLP248 T01720117=
201504061541 SPECI KATL 061541Z 14007KT 10SM FEW020 SCT025 OVC030 16/11 A3027 RMK AO2=
201504061452 METAR KATL 061452Z 10007KT 10SM BKN020 BKN030 15/11 A3027 RMK AO2 SLP247 T01500106 51007=
201504061352 METAR KATL 061352Z 10005KT 10SM BKN016 BKN018 OVC023 14/09 A3027 RMK AO2 SLP247 T01390089=
201504061252 METAR KATL 061252Z 09007KT 9SM OVC023 13/07 A3026 RMK AO2 SLP243 T01280072=
201504061152 METAR KATL 061152Z 09008KT 10SM OVC020 12/07 A3025 RMK AO2 RAE39 SLP241 P0000 60000 T01220067 10150 20122 52011 $=
201504061052 METAR KATL 061052Z 10006KT 10SM -RA BKN020 BKN036 OVC065 13/04 A3024 RMK AO2 RAB0953 SLP236 BKN020 V SCT P0000 T01330044=
201504061012 SPECI KATL 061012Z 09007KT 10SM -RA BKN022 OVC046 13/03 A3023 RMK AO2 RAB0953 PCPN VRY LGT P0000=
201504060952 METAR KATL 060952Z 09007KT 10SM FEW018 OVC048 13/03 A3023 RMK AO2 RAB0854E03B34E48 SLP232 P0000 T01330033=
201504060946 SPECI KATL 060946Z 10006KT 10SM -RA SCT018 OVC048 13/03 A3022 RMK AO2 RAB0854E03B34 P0000=
201504060902 SPECI KATL 060902Z 10005KT 10SM -RA BKN018 OVC049 14/02 A3021 RMK AO2 RAB0854 P0000=
201504060852 METAR KATL 060852Z 10005KT 10SM SCT018 OVC049 14/02 A3021 RMK AO2 SLP227 T01390017 53003=
201504060752 METAR KATL 060752Z 09009KT 10SM FEW055 SCT130 BKN200 13/01 A3020 RMK AO2 SLP223 T01330006=
201504060652 METAR KATL 060652Z 09008KT 10SM FEW055 BKN130 14/01 A3021 RMK AO2 SLP226 T01390006=
201504060552 METAR KATL 060552Z 12008KT 10SM BKN055 BKN130 15/M01 A3020 RMK AO2 SLP224 T01501006 10189 20150 58004=
201504060452 METAR KATL 060452Z 10008KT 10SM BKN050 BKN150 OVC200 16/01 A3022 RMK AO2 SLP230 T01560006 402000072=
201504060352 METAR KATL 060352Z 09010KT 10SM BKN150 OVC200 16/01 A3021 RMK AO2 SLP227 T01610011=
201504060252 METAR KATL 060252Z 09008KT 10SM BKN150 BKN200 OVC250 17/01 A3022 RMK AO2 SLP229 T01670011 51005=
201504060152 METAR KATL 060152Z 10007KT 10SM BKN150 BKN200 OVC250 18/01 A3021 RMK AO2 SLP229 VIRGA NE T01780011=
201504060052 METAR KATL 060052Z 12006KT 10SM FEW110 BKN140 OVC200 19/01 A3021 RMK AO2 SLP228 VIRGA OHD-ALQDS T01890006=
201504052352 METAR KATL 052352Z 09006KT 10SM FEW120 BKN150 OVC200 18/01 A3020 RMK AO2 SLP226 VIRGA NW-NE T01780011 10200 20178 53002=
201504052252 METAR KATL 052252Z 12007KT 10SM FEW130 BKN160 OVC200 19/00 A3019 RMK AO2 SLP224 VIRGA SE-SW-NW T01940000=
201504052152 METAR KATL 052152Z 13007KT 10SM FEW140 BKN180 OVC250 20/01 A3020 RMK AO2 SLP224 T02000006=
201504052052 METAR KATL 052052Z VRB04KT 10SM SCT150 OVC220 20/01 A3020 RMK AO2 SLP223 T02000006 55022=
201504051952 METAR KATL 051952Z VRB05G15KT 10SM SCT120 BKN250 20/M01 A3019 RMK AO2 SLP223 T02001006=
201504051852 METAR KATL 051852Z 17008KT 10SM SCT120 SCT250 19/M01 A3024 RMK AO2 SLP237 T01941006=
201504051752 METAR KATL 051752Z 11011G17KT 10SM FEW120 SCT250 19/M01 A3026 RMK AO2 SLP247 T01891006 10189 20083 58015=
201504051652 METAR KATL 051652Z 11012G17KT 10SM FEW120 SCT250 17/M02 A3029 RMK AO2 SLP254 T01721022=
201504051552 METAR KATL 051552Z 13011KT 10SM FEW120 SCT250 16/M04 A3031 RMK AO2 SLP261 T01611039=
201504051452 METAR KATL 051452Z 11012G18KT 10SM SCT250 16/M04 A3031 RMK AO2 SLP262 T01561044 51009=
201504051352 METAR KATL 051352Z 10014G19KT 10SM FEW250 13/M05 A3030 RMK AO2 SLP259 T01281050=
201504051252 METAR KATL 051252Z 10012G18KT 10SM FEW250 11/M05 A3030 RMK AO2 SLP259 T01061050=
201504051152 METAR KATL 051152Z 09009KT 10SM FEW250 08/M04 A3028 RMK AO2 SLP254 T00831044 10122 20072 51016=
201504051052 METAR KATL 051052Z 08008KT 10SM FEW250 07/M03 A3027 RMK AO2 SLP249 T00721033=
201504050952 METAR KATL 050952Z 09006KT 10SM FEW250 08/M03 A3025 RMK AO2 SLP243 T00831033=
201504050852 METAR KATL 050852Z COR 09008KT 10SM FEW250 09/M03 A3023 RMK AO2 SLP236 T00941033 55003=
201504050752 METAR KATL 050752Z 08007KT 10SM CLR 09/M03 A3023 RMK AO2 SLP235 T00941028=
201504050652 METAR KATL 050652Z 06009KT 10SM CLR 11/M03 A3024 RMK AO2 SLP238 T01111033=
201504050552 METAR KATL 050552Z 04008KT 10SM CLR 12/M05 A3024 RMK AO2 SLP240 T01221050 10172 20117 51002=
201504050452 METAR KATL 050452Z 02005KT 10SM CLR 12/M05 A3024 RMK AO2 SLP238 T01221050 402220111=
201504050352 METAR KATL 050352Z 36009KT 10SM FEW250 13/M04 A3025 RMK AO2 SLP241 T01281039=
201504050252 METAR KATL 050252Z 34006KT 10SM CLR 13/M01 A3024 RMK AO2 SLP239 T01281006 51018=
201504050152 METAR KATL 050152Z 34009KT 10SM FEW250 14/00 A3023 RMK AO2 SLP236 T01390000=
201504050052 METAR KATL 050052Z 33010KT 10SM FEW250 16/01 A3021 RMK AO2 SLP228 T01560006=
201504042352 METAR KATL 042352Z 34007KT 10SM FEW250 17/01 A3018 RMK AO2 SLP219 T01720011 10200 20172 53006=
201504042252 METAR KATL 042252Z 32009KT 10SM FEW250 19/01 A3017 RMK AO2 SLP214 T01890011=
201504042152 METAR KATL 042152Z 32009KT 10SM FEW250 19/02 A3016 RMK AO2 SLP212 T01940022=
201504042052 METAR KATL 042052Z 35013G19KT 10SM FEW250 19/03 A3017 RMK AO2 SLP211 T01940028 56012=
201504041952 METAR KATL 041952Z 35009G17KT 10SM FEW150 SCT250 19/03 A3017 RMK AO2 SLP213 T01890033=
201504041852 METAR KATL 041852Z 36014G21KT 10SM FEW150 SCT250 18/03 A3020 RMK AO2 SLP220 T01830033=
201504041752 METAR KATL 041752Z 35014G19KT 10SM FEW150 SCT250 18/04 A3020 RMK AO2 SLP223 T01780039 10178 20111 50005=
201504041652 METAR KATL 041652Z 32015KT 10SM FEW150 SCT250 17/04 A3021 RMK AO2 SLP223 T01670044=
201504041552 METAR KATL 041552Z 32014G20KT 10SM FEW150 SCT250 15/04 A3021 RMK AO2 SLP225 T01500044=
201504041452 METAR KATL 041452Z 35014G19KT 10SM FEW150 SCT250 14/04 A3019 RMK AO2 SLP218 T01440044 53026=
201504041352 METAR KATL 041352Z 33017G21KT 10SM SCT150 SCT250 13/05 A3015 RMK AO2 SLP205 T01280050=
201504041252 METAR KATL 041252Z 34017G22KT 10SM FEW080 SCT150 SCT250 12/05 A3013 RMK AO2 SLP197 T01220050=
201504041152 METAR KATL 041152Z 33015G23KT 10SM SCT055 BKN250 12/06 A3011 RMK AO2 SLP191 60032 70034 T01170056 10183 20117 53034=
201504041052 METAR KATL 041052Z 33017G23KT 10SM FEW015 BKN055 12/07 A3007 RMK AO2 PK WND 32026/1031 SLP176 T01220072=
201504041033 SPECI KATL 041033Z 32018G26KT 10SM SCT015 OVC043 13/09 A3006 RMK AO2 PK WND 32026/1031=
201504040958 SPECI KATL 040958Z 33019G25KT 10SM BKN015 OVC039 13/10 A3004 RMK AO2=
201504040952 METAR KATL 040952Z 33016G21KT 10SM SCT014 OVC039 13/10 A3004 RMK AO2 SLP166 T01330100=
201504040923 SPECI KATL 040923Z 33017G21KT 10SM FEW019 SCT040 OVC065 14/11 A3002 RMK AO2=
201504040852 METAR KATL 040852Z 34021G29KT 10SM SCT009 BKN016 OVC040 16/13 A3001 RMK AO2 PK WND 34029/0852 RAE23 SLP154 P0001 60032 T01560128 53006=
201504040836 SPECI KATL 040836Z 33014G23KT 10SM FEW007 OVC015 16/13 A3000 RMK AO2 RAE23 P0001=
201504040756 SPECI KATL 040756Z 27008KT 4SM -RA BR BKN007 OVC013 18/16 A2999 RMK AO2 P0000=
201504040752 METAR KATL 040752Z 26008KT 2 1/2SM -RA BR BKN007 OVC013 18/16 A2999 RMK AO2 SLP146 P0017 T01780161=
201504040746 SPECI KATL 040746Z 25007KT 2 1/2SM RA BR BKN005 OVC013 18/16 A2999 RMK AO2 P0015=
201504040741 SPECI KATL 040741Z 25005KT 2 1/2SM -RA BR FEW005 BKN015 OVC020 18/16 A2999 RMK AO2 P0013=
201504040719 SPECI KATL 040719Z 25006KT 3SM -RA BR BKN017 OVC024 18/16 A2999 RMK AO2 P0010=
201504040713 SPECI KATL 040713Z 26007KT 2 1/2SM RA BR BKN017 OVC024 18/16 A2999 RMK AO2 P0009=
201504040704 SPECI KATL 040704Z 26005KT 1 3/4SM -RA BR SCT015 BKN024 OVC029 18/16 A2999 RMK AO2 P0003=
201504040652 METAR KATL 040652Z 26004KT 3SM -RA BR FEW007 SCT018 OVC026 18/16 A2999 RMK AO2 TSE25 SLP147 TS MOV SE P0014 T01780161=
201504040625 SPECI KATL 040625Z 26005KT 7SM -RA FEW007 BKN035 OVC070 17/16 A3000 RMK AO2 TSE25 OCNL LTGIC DSNT SE CB DSNT SE P0006=
201504040552 METAR KATL 040552Z COR 31011G21KT 4SM TSRA FEW018CB BKN032 OVC055 18/15 A3000 RMK AO2 WSHFT 0519 FROPA TSB27RAB36 SLP151 OCNL LTGICCG SW TS SW MOV E P0002 60002 T01830150 10261 20183 53014=
201504040539 SPECI KATL 040539Z 31013G19KT 6SM -TSRA BKN032CB BKN055 BKN090 OVC130 21/14 A2999 RMK AO2 WSHFT 0519 TSB27RAB36 OCNL LTGICCG SW-NW TS SW-NW MOV E P0000=
201504040528 SPECI KATL 040528Z 27011G24KT 10SM TS FEW035CB SCT055 BKN090 BKN130 OVC180 22/14 A2998 RMK AO2 TSB27 PRESRR OCNL LTGICCG SW-NW TS VC SW-NW MOV E=
201504040452 METAR KATL 040452Z 22011KT 10SM FEW055 SCT130 BKN220 OVC250 22/13 A2995 RMK AO2 SLP134 LTGIC DSNT SW-W CB DSNT SW-W T02220128 402830139=
201504040352 METAR KATL 040352Z 21011KT 10SM FEW150 BKN200 BKN250 22/11 A2995 RMK AO2 SLP133 OCNL LTG DSNT NW T02220111=
201504040252 METAR KATL 040252Z 22007KT 10SM SCT200 BKN250 23/09 A2996 RMK AO2 SLP137 T02280094 55000=
201504040152 METAR KATL 040152Z 22009KT 10SM SCT250 24/09 A2996 RMK AO2 SLP137 T02390089=
201504040052 METAR KATL 040052Z 21007KT 10SM SCT250 24/08 A2995 RMK AO2 SLP136 T02390083=
201504032352 METAR KATL 032352Z 22008KT 10SM FEW200 BKN250 26/08 A2996 RMK AO2 SLP139 T02610083 10283 20261 58011=
201504032252 METAR KATL 032252Z 24012G22KT 10SM FEW075 BKN250 27/08 A2998 RMK AO2 SLP143 T02720083=
201504032152 METAR KATL 032152Z 22013G21KT 10SM BKN250 28/07 A2999 RMK AO2 PK WND 22026/2140 SLP147 T02780072=
201504032052 METAR KATL 032052Z 23012G23KT 10SM BKN250 28/06 A2999 RMK AO2 SLP148 T02780061 56023=
201504031952 METAR KATL 031952Z 23010G16KT 10SM BKN250 28/08 A3002 RMK AO2 SLP156 T02830078=
201504031852 METAR KATL 031852Z 24013G19KT 10SM SCT250 27/08 A3003 RMK AO2 SLP163 T02720078=
201504031752 METAR KATL 031752Z 21013G19KT 10SM BKN250 27/08 A3006 RMK AO2 SLP173 T02670078 10267 20139 58021=
201504031652 METAR KATL 031652Z 23015G20KT 10SM SCT250 25/08 A3009 RMK AO2 SLP182 T02500083=
201504031552 METAR KATL 031552Z 22009G16KT 10SM FEW090 SCT200 BKN250 23/11 A3011 RMK AO2 SLP190 T02280106=
201504031452 METAR KATL 031452Z 24008G14KT 10SM FEW090 SCT180 BKN250 21/12 A3013 RMK AO2 SLP196 T02110117 52009=
201504031352 METAR KATL 031352Z 22005KT 10SM FEW090 SCT120 BKN240 18/13 A3012 RMK AO2 SLP195 T01830128=
201504031252 METAR KATL 031252Z 22006KT 10SM FEW120 SCT200 BKN250 16/12 A3011 RMK AO2 SLP191 T01610117=
201504031152 METAR KATL 031152Z 18003KT 10SM FEW150 SCT200 BKN250 14/10 A3010 RMK AO2 SLP190 70007 T01390100 10167 20139 51009=
201504031052 METAR KATL 031052Z 22003KT 10SM BKN200 BKN250 15/10 A3009 RMK AO2 SLP186 T01500100=
201504030952 METAR KATL 030952Z 22005KT 10SM SCT200 BKN250 15/12 A3008 RMK AO2 SLP178 T01500117=
201504030852 METAR KATL 030852Z 20006KT 10SM FEW120 SCT200 BKN250 16/13 A3007 RMK AO2 SLP177 T01610133 58017=
201504030752 METAR KATL 030752Z 20006KT 10SM BKN110 BKN250 17/14 A3009 RMK AO2 SLP183 T01670139=
201504030652 METAR KATL 030652Z 19004KT 8SM FEW120 16/14 A3011 RMK AO2 SLP191 T01610144=
201504030552 METAR KATL 030552Z 18004KT 9SM CLR 16/14 A3012 RMK AO2 SLP195 60000 T01610144 10178 20161 58008=
201504030452 METAR KATL 030452Z 14005KT 10SM FEW110 17/14 A3013 RMK AO2 SLP199 T01670144 402440150=
201504030352 METAR KATL 030352Z 13003KT 10SM FEW100 17/14 A3015 RMK AO2 SLP207 T01720144=
201504030252 METAR KATL 030252Z 14004KT 10SM BKN100 18/14 A3015 RMK AO2 SLP205 60000 T01780144 51002=
201504030152 METAR KATL 030152Z 13004KT 10SM FEW080 BKN100 OVC150 17/14 A3015 RMK AO2 SLP205 T01720144=
201504030052 METAR KATL 030052Z 09006KT 10SM FEW080 BKN110 OVC150 17/14 A3015 RMK AO2 RAE02 SLP207 P0000 T01720139=
201504022352 METAR KATL 022352Z 34011G17KT 10SM -RA FEW045 BKN100 BKN150 OVC200 17/14 A3014 RMK AO2 TSE16 SLP203 CB DSNT NE-E P0004 60007 T01720139 10244 20172 53007=
201504022316 SPECI KATL 022316Z 32003KT 9SM -RA FEW045CB BKN090 BKN150 OVC200 19/14 A3013 RMK AO2 TSE16 OCNL LTG DSNT NE-E TS MOV NE P0004=
201504022252 METAR KATL 022252Z 27012KT 3SM +TSRA SCT045CB BKN070 BKN110 OVC200 19/14 A3015 RMK AO2 TSB16RAB29 SLP204 VIS LWR NE OCNL LTGIC N-NE TS N-NE MOV NE P0003 T01890139=
201504022216 SPECI KATL 022216Z 20005KT 10SM TS FEW035CB BKN110 BKN150 OVC200 23/13 A3012 RMK AO2 TSB16 OCNL LTGIC VC W-NW TS VC W-NW MOV NE=
201504022152 METAR KATL 022152Z 19007KT 10SM FEW035 SCT120 BKN200 OVC250 23/14 A3011 RMK AO2 SLP190 CB DSNT SW-NW T02330139=
201504022052 METAR KATL 022052Z 17010KT 10SM FEW030TCU SCT040 BKN110 BKN250 24/14 A3012 RMK AO2 SLP193 TCU W-NW T02390139 56030=
201504021952 METAR KATL 021952Z VRB06G14KT 10SM FEW030TCU SCT050 BKN250 24/15 A3014 RMK AO2 SLP201 TCU SE-S-SW & NW T02390150=
201504021852 METAR KATL 021852Z 18007KT 9SM BKN025 BKN055 BKN250 22/16 A3018 RMK AO2 SLP214 T02220161=
201504021821 SPECI KATL 021821Z 16008KT 8SM OVC017 21/16 A3020 RMK AO2=
201504021752 METAR KATL 021752Z 16008KT 7SM OVC012 20/16 A3021 RMK AO2 SLP226 T02000156 10200 20156 58009=
201504021652 METAR KATL 021652Z 15008KT 6SM HZ OVC010 19/15 A3023 RMK AO2 SLP230 T01890150=
201504021606 SPECI KATL 021606Z 14007KT 6SM HZ OVC010 18/14 A3023 RMK AO2=
201504021552 METAR KATL 021552Z 13006KT 6SM HZ OVC008 18/14 A3023 RMK AO2 SLP234 T01780144=
201504021452 METAR KATL 021452Z 14006KT 6SM HZ OVC008 17/14 A3024 RMK AO2 SLP236 T01670139 51016=
201504021352 METAR KATL 021352Z 14007KT 6SM HZ OVC008 16/13 A3022 RMK AO2 SLP230 T01610133=
201504021252 METAR KATL 021252Z 13005KT 8SM OVC008 16/13 A3021 RMK AO2 SLP224 T01560133=
201504021152 METAR KATL 021152Z 14006KT 10SM OVC008 16/13 A3019 RMK AO2 SLP218 CIG 007V009 T01560128 10172 20150 53023=
201504021137 SPECI KATL 021137Z 14005KT 10SM OVC008 16/13 A3019 RMK AO2=
201504021052 METAR KATL 021052Z 13005KT 10SM OVC011 15/12 A3017 RMK AO2 SLP209 BINOVC T01500122=
201504021033 SPECI KATL 021033Z 13006KT 10SM BKN012 BKN065 BKN120 OVC200 15/12 A3016 RMK AO2=
201504020952 METAR KATL 020952Z 13006KT 10SM FEW014 SCT070 SCT120 OVC200 16/12 A3014 RMK AO2 SLP199 T01560122=
201504020852 METAR KATL 020852Z 13005KT 9SM SCT075 SCT120 SCT200 BKN250 16/12 A3012 RMK AO2 SLP194 ACC ALQDS T01560117 53006=
201504020752 METAR KATL 020752Z 12010KT 9SM FEW075 SCT200 BKN250 16/11 A3011 RMK AO2 SLP190 T01610106=
201504020652 METAR KATL 020652Z 00000KT 10SM SCT200 BKN250 17/11 A3011 RMK AO2 SLP188 T01670106=
201504020552 METAR KATL 020552Z 10003KT 10SM SCT200 BKN250 17/11 A3010 RMK AO2 SLP187 T01720106 10244 20167 58004=
201504020452 METAR KATL 020452Z 05004KT 10SM BKN250 19/10 A3011 RMK AO2 SLP187 T01940100 402610133=
201504020352 METAR KATL 020352Z 00000KT 10SM SCT250 18/09 A3012 RMK AO2 SLP193 T01780094=
201504020252 METAR KATL 020252Z 16003KT 10SM FEW250 18/10 A3012 RMK AO2 SLP193 T01830100 51023=
201504020152 METAR KATL 020152Z 00000KT 10SM FEW250 21/08 A3010 RMK AO2 SLP187 T02110083=
201504020052 METAR KATL 020052Z 00000KT 10SM SCT250 22/08 A3007 RMK AO2 SLP177 T02220083=
201504012352 METAR KATL 012352Z 27004KT 10SM FEW200 BKN250 24/07 A3004 RMK AO2 SLP169 T02440072 10261 20239 53005=
201504012252 METAR KATL 012252Z 27004KT 10SM BKN250 25/09 A3003 RMK AO2 SLP162 T02500089=
201504012152 METAR KATL 012152Z 32007KT 10SM FEW070 BKN250 26/08 A3003 RMK AO2 SLP163 T02560078=
201504012052 METAR KATL 012052Z 00000KT 10SM FEW070 SCT200 BKN250 26/08 A3003 RMK AO2 SLP163 T02560078 56011=
201504011952 METAR KATL 011952Z 29006KT 10SM FEW065 SCT200 BKN250 26/09 A3004 RMK AO2 SLP166 T02610089=
201504011852 METAR KATL 011852Z VRB03KT 10SM FEW065 SCT200 BKN250 25/09 A3005 RMK AO2 SLP170 T02500089=
201504011752 METAR KATL 011752Z 34008KT 10SM SCT250 24/11 A3006 RMK AO2 SLP174 T02440111 10244 20133 58005=
201504011652 METAR KATL 011652Z 35004KT 10SM FEW250 23/12 A3007 RMK AO2 SLP179 T02280117=
201504011552 METAR KATL 011552Z 35005KT 10SM SCT250 21/13 A3008 RMK AO2 SLP182 T02110128=
201504011452 METAR KATL 011452Z 34007KT 10SM FEW250 19/13 A3008 RMK AO2 SLP182 T01890133 52019=
201504011352 METAR KATL 011352Z 34008KT 10SM FEW015 SCT250 17/13 A3006 RMK AO2 SLP174 T01670128=
201504011252 METAR KATL 011252Z 29009KT 10SM FEW150 SCT250 15/13 A3004 RMK AO2 SLP170 T01500128=
