##########################################################
# Query made at 04/19/2024 23:44:07 UTC
# Time interval: from 06/01/2015 12:00  to 06/30/2015 12:59  UTC
##########################################################

##########################################################
# KATL, Atlanta, Hartsfield - Jackson Atlanta International Airport (United States)
# WMO index: 72219. WIGOS ID: 0-20000-0-72219
# Latitude 33-38-59N. Longitude 084-25-00W. Altitude 312 m.
##########################################################

201506301252 METAR KATL 301252Z 26006KT 9SM FEW009 SCT200 BKN250 25/21 A3002 RMK AO2 SLP156 T02500211=
201506301219 SPECI KATL 301219Z 24006KT 7SM FEW008 SCT110 BKN250 24/21 A3001 RMK AO2=
201506301152 METAR KATL 301152Z 23005KT 8SM FEW090 BKN250 23/21 A3001 RMK AO2 SLP150 T02330206 10233 20222 50002=
201506301052 METAR KATL 301052Z 23005KT 9SM FEW110 BKN250 22/20 A3001 RMK AO2 SLP152 T02220200=
201506300952 METAR KATL 300952Z 23006KT 10SM FEW110 SCT250 22/19 A3000 RMK AO2 SLP146 T02220194=
201506300852 METAR KATL 300852Z 22007KT 10SM SCT110 BKN200 23/19 A3000 RMK AO2 SLP148 T02280189 58006=
201506300752 METAR KATL 300752Z 24007KT 10SM FEW080 SCT110 BKN200 23/19 A3001 RMK AO2 SLP151 T02330189=
201506300652 METAR KATL 300652Z 24004KT 10SM FEW095 SCT250 23/18 A3001 RMK AO2 SLP152 T02280178=
201506300552 METAR KATL 300552Z 22004KT 10SM BKN095 23/18 A3002 RMK AO2 SLP154 T02280178 10278 20228 51005=
201506300452 METAR KATL 300452Z 23005KT 10SM FEW110 SCT250 23/18 A3002 RMK AO2 SLP154 T02330183 403000183=
201506300352 METAR KATL 300352Z 22004KT 10SM FEW200 SCT250 24/18 A3001 RMK AO2 SLP153 T02390183=
201506300252 METAR KATL 300252Z 20006KT 10SM SCT200 BKN250 24/18 A3000 RMK AO2 SLP148 T02440178 51011=
201506300152 METAR KATL 300152Z 20005KT 10SM BKN200 BKN250 26/18 A3000 RMK AO2 SLP148 T02560178=
201506300052 METAR KATL 300052Z 21006KT 10SM FEW055 SCT200 BKN250 27/18 A2999 RMK AO2 SLP145 T02670178=
201506292352 METAR KATL 292352Z 21006KT 10SM FEW050 SCT200 BKN250 28/17 A2997 RMK AO2 SLP139 T02780172 10300 20278 56006=
201506292252 METAR KATL 292252Z 22007KT 10SM FEW055 SCT250 29/16 A2998 RMK AO2 SLP142 T02890161=
201506292152 METAR KATL 292152Z 27009G16KT 10SM FEW055 SCT250 29/17 A2998 RMK AO2 SLP142 T02940167=
201506292052 METAR KATL 292052Z 23007KT 10SM SCT055 SCT250 28/16 A2999 RMK AO2 SLP146 T02830161 58014=
201506291952 METAR KATL 291952Z 25006KT 10SM SCT060 29/16 A3000 RMK AO2 SLP151 T02890161=
201506291852 METAR KATL 291852Z 26007KT 10SM FEW050 SCT250 29/16 A3002 RMK AO2 SLP155 T02890161=
201506291752 METAR KATL 291752Z 27006KT 10SM FEW050 SCT250 29/17 A3003 RMK AO2 SLP160 T02890167 10289 20200 58006=
201506291652 METAR KATL 291652Z VRB05KT 10SM FEW050 SCT250 SCT300 28/16 A3005 RMK AO2 SLP166 T02780161 $=
201506291552 METAR KATL 291552Z VRB05KT 10SM FEW050 SCT250 BKN300 27/16 A3005 RMK AO2 SLP166 T02720156=
201506291452 METAR KATL 291452Z 28006KT 10SM SCT250 27/15 A3005 RMK AO2 SLP166 T02720150 51008=
201506291352 METAR KATL 291352Z 28003KT 10SM SCT250 26/14 A3005 RMK AO2 SLP166 T02560139=
201506291252 METAR KATL 291252Z 26003KT 10SM FEW150 BKN250 23/15 A3004 RMK AO2 SLP162 T02280150=
201506291152 METAR KATL 291152Z 30005KT 10SM SCT060 SCT150 BKN250 20/15 A3003 RMK AO2 SLP159 T02000150 10211 20183 53013=
201506291052 METAR KATL 291052Z 30005KT 10SM BKN060 BKN250 19/14 A3001 RMK AO2 SLP154 T01890144=
201506291019 SPECI KATL 291019Z 28004KT 10SM BKN060 BKN150 BKN250 18/13 A3000 RMK AO2=
201506290952 METAR KATL 290952Z 29003KT 10SM BKN250 18/13 A3000 RMK AO2 SLP149 T01830128=
201506290852 METAR KATL 290852Z 31004KT 10SM BKN250 19/13 A2999 RMK AO2 SLP146 T01940133 55000=
201506290752 METAR KATL 290752Z 00000KT 10SM SCT250 19/14 A2998 RMK AO2 SLP144 T01890144=
201506290652 METAR KATL 290652Z 00000KT 10SM SCT250 19/14 A2998 RMK AO2 SLP144 T01890144=
201506290552 METAR KATL 290552Z 00000KT 10SM SCT250 19/14 A2999 RMK AO2 SLP146 T01940144 10272 20194 58001=
201506290452 METAR KATL 290452Z 00000KT 10SM FEW250 21/14 A3000 RMK AO2 SLP148 T02110139 402830189=
201506290352 METAR KATL 290352Z 32004KT 10SM FEW250 23/13 A2999 RMK AO2 SLP147 T02280133=
201506290252 METAR KATL 290252Z 29006KT 10SM FEW250 24/14 A2999 RMK AO2 SLP147 T02390139 51007=
201506290152 METAR KATL 290152Z 28005KT 10SM FEW250 23/15 A2999 RMK AO2 SLP146 T02330150=
201506282352 METAR KATL 282352Z 32004KT 10SM FEW060 SCT250 27/14 A2997 RMK AO2 SLP140 T02670144 10283 20261 53002=
201506282252 METAR KATL 282252Z VRB05KT 10SM FEW060 SCT200 SCT250 28/14 A2996 RMK AO2 SLP137 T02780139=
201506282152 METAR KATL 282152Z 30007KT 10SM FEW060 SCT200 SCT250 28/14 A2996 RMK AO2 SLP136 T02780144=
201506282052 METAR KATL 282052Z 31009G15KT 280V360 10SM SCT055 BKN250 27/15 A2996 RMK AO2 SLP137 T02670150 56013=
201506281952 METAR KATL 281952Z 29007G14KT 10SM SCT050 BKN250 27/14 A2997 RMK AO2 SLP139 T02720144=
201506281852 METAR KATL 281852Z 29007G14KT 260V320 10SM SCT050 BKN250 27/14 A2998 RMK AO2 SLP143 T02720144=
201506281752 METAR KATL 281752Z 33007KT 10SM SCT045 BKN250 27/15 A3000 RMK AO2 SLP150 T02670150 10267 20194 58001=
201506281652 METAR KATL 281652Z 34009KT 10SM FEW050 SCT250 26/14 A3001 RMK AO2 SLP153 T02560139=
201506281552 METAR KATL 281552Z 31009KT 10SM FEW045 SCT120 BKN250 26/15 A3001 RMK AO2 SLP153 T02560150=
201506281452 METAR KATL 281452Z 32007KT 10SM FEW120 SCT250 24/15 A3001 RMK AO2 SLP151 T02440150 50009=
201506281352 METAR KATL 281352Z 33010KT 10SM FEW120 SCT240 23/15 A3001 RMK AO2 SLP152 T02330150=
201506281252 METAR KATL 281252Z 33008KT 10SM FEW120 SCT200 SCT250 22/16 A2999 RMK AO2 SLP148 T02170161=
201506281152 METAR KATL 281152Z 32009KT 10SM FEW060 SCT150 SCT200 BKN250 19/17 A2998 RMK AO2 SLP143 70137 T01940167 10217 20189 51014=
201506281052 METAR KATL 281052Z 31006KT 10SM FEW040 SCT060 SCT100 SCT150 BKN250 19/16 A2997 RMK AO2 SLP142 T01940161=
201506280952 METAR KATL 280952Z 31007KT 10SM SCT070 BKN095 BKN130 BKN250 20/17 A2996 RMK AO2 SLP137 SHRA SE-S T02000167=
201506280852 METAR KATL 280852Z 31005KT 10SM BKN055 BKN075 BKN120 OVC250 20/17 A2994 RMK AO2 SLP127 T02000167 55001=
201506280752 METAR KATL 280752Z 32007KT 10SM FEW016 SCT080 BKN100 BKN250 21/17 A2993 RMK AO2 SLP125 T02060172=
201506280652 METAR KATL 280652Z 32006KT 10SM FEW008 SCT016 BKN090 BKN250 22/19 A2993 RMK AO2 SLP126 T02170189=
201506280645 SPECI KATL 280645Z 31006KT 10SM FEW008 SCT016 BKN090 BKN250 22/19 A2993 RMK AO2=
201506280552 METAR KATL 280552Z 31003KT 10SM FEW015 SCT047 SCT110 SCT250 22/19 A2994 RMK AO2 SLP129 60000 T02170194 10244 20217 53004=
201506280452 METAR KATL 280452Z 28004KT 10SM FEW018 SCT075 SCT120 SCT250 22/20 A2992 RMK AO2 SLP122 T02220200 402940222=
201506280352 METAR KATL 280352Z 29005KT 10SM FEW040 SCT080 BKN120 BKN200 23/21 A2993 RMK AO2 RAE0256 SLP125 P0000 T02280206=
201506280252 METAR KATL 280252Z 29005KT 10SM -RA FEW007 SCT015 BKN085 OVC200 23/22 A2993 RMK AO2 RAB46 SLP124 P0000 60000 T02330217 53009=
201506280239 SPECI KATL 280239Z 29005KT 10SM FEW007 SCT014 BKN080 BKN200 24/22 A2993 RMK AO2=
201506280222 SPECI KATL 280222Z 27007KT 8SM SCT005 BKN018 BKN060 BKN200 24/22 A2993 RMK AO2=
201506280152 METAR KATL 280152Z 24004KT 8SM SCT005 SCT034 BKN065 BKN200 24/22 A2992 RMK AO2 SLP122 TCU DSNT NW-NE T02390222=
201506280117 SPECI KATL 280117Z 25004KT 10SM FEW006 SCT034 SCT065 BKN200 24/22 A2991 RMK AO2 TCU DSNT NW-N=
201506280052 METAR KATL 280052Z 26006KT 10SM FEW040CB SCT070 SCT110 BKN200 24/22 A2990 RMK AO2 RAB01E11 SLP116 CB VC W MOV SE CB DSNT NE & NW TCU DSNT NW VCSH W P0000 T02390222=
201506272352 METAR KATL 272352Z 24006KT 10SM FEW018 SCT075 SCT120 OVC200 24/22 A2990 RMK AO2 RAE2255 SLP116 CB DSNT NW ACC DSNT NE P0000 60087 T02440222 10289 20228 53009=
201506272252 METAR KATL 272252Z 27005KT 10SM -RA FEW018 SCT040 SCT100 BKN200 24/22 A2987 RMK AO2 TSE37 SLP105 TS MOVD SE CB DSNT E-S CBMAM DSNT SE P0060 T02390217=
201506272237 SPECI KATL 272237Z 29004KT 8SM -RA FEW012 SCT038 SCT110 BKN200 23/21 A2987 RMK AO2 TSE37 PRESFR TS MOVD SE OCNL LTGICCA DSNT E-SE CB DSNT E-SE P0060=
201506272228 SPECI KATL 272228Z 27003KT 8SM -TSRA FEW010 BKN036CB BKN100 OVC200 23/21 A2989 RMK AO2 PRESFR OCNL LTGICCGCA E-S-SW TS E-S-SW MOV SE P0058=
201506272214 SPECI KATL 272214Z 31016G22KT 2SM R09R/2400VP6000FT +TSRA BR SCT012 BKN038CB BKN090 OVC200 23/21 A2991 RMK AO2 TWR VIS 2 1/2 VIS SW-W 1 FRQ LTGICCGCA SE-OHD-W TS SE-OHD-W MOV SE P0034=
201506272158 SPECI KATL 272158Z VRB06G23KT 2 1/2SM R09R/2000VP6000FT +TSRA SCT012 BKN038CB BKN090 OVC200 23/19 A2991 RMK AO2 VIS NE-SE-SW 1 FRQ LTGICCGCA NE-OHD-SW TS NE-OHD-SW MOV SE P0027=
201506272152 METAR KATL 272152Z 35011G24KT 310V040 1SM R09R/2000VP6000FT +TSRA BR SCT014 BKN040CB OVC100 23/21 A2990 RMK AO2 TWR VIS 1 1/2 TSB29RAB41 SLP116 VIS S-W 1/2 FRQ LTGICCG NE-OHD-SW TS NE-OHD-SW MOV SE P0027 T02330211=
201506272143 SPECI KATL 272143Z 30008KT 2SM +TSRA FEW020 BKN045CB OVC100 27/23 A2989 RMK AO2 TSB29RAB41 VIS SW-NW 1 OCNL LTGICCG NE-OHD-SW TS NE-OHD-SW MOV SE P0000=
201506272131 SPECI KATL 272131Z 22005KT 10SM TS FEW022 SCT045CB BKN100 BKN200 27/23 A2988 RMK AO2 TSB29 OCNL LTGICCG VC SW-NW TS VC SW-NW MOV SE CB DSNT SE VCSH SW-NW=
201506272052 METAR KATL 272052Z VRB05KT 10SM FEW025 SCT045 BKN100 28/23 A2987 RMK AO2 RAB13E30 SLP105 CB DSNT SE & NW CBMAM OHD P0000 60000 T02780228 58012=
201506271952 METAR KATL 271952Z VRB04KT 10SM SCT035TCU SCT050 BKN090 28/23 A2988 RMK AO2 SLP109 TCU N & S CB DSNT E & SW T02830228=
201506271852 METAR KATL 271852Z COR 21006KT 10SM SCT030TCU BKN090 25/22 A2991 RMK AO2 TSE20RAE1758B17E23 SLP120 TS MOV E TCU S-W-N CB DSNT N-SE CBMAM OHD MOV E P0000 T02500222=
201506271821 SPECI KATL 271821Z 20006KT 9SM -RA FEW039CB SCT055 BKN110 24/22 A2991 RMK AO2 TSE20RAE1758B17 TS MOV E CB DSNT N AND SE-SW P0000=
201506271809 SPECI KATL 271809Z 25003KT 9SM TS FEW015 BKN030CB BKN070 24/22 A2992 RMK AO2 RAE1758 OCNL LTGIC S-SW TS S-SW & NW MOV E P0000=
201506271752 METAR KATL 271752Z 24005KT 10SM -TSRA FEW014 BKN025CB BKN038 24/21 A2991 RMK AO2 TSB1659RAB1655 SLP118 OCNL LTGICCG NE TS NW-NE-E MOV E CB DSNT W P0050 60050 T02440211 10294 20233 57013=
201506271741 SPECI KATL 271741Z 32011G17KT 4SM R09R/6000VP6000FT -TSRA BR FEW014 BKN023CB OVC075 24/22 A2992 RMK AO2 TSB1659RAB1655 OCNL LTGICCG NW-OHD TS NW-NE-E MOV NE P0049=
201506271738 SPECI KATL 271738Z 33008KT 1SM R09R/1800VP6000FT -TSRA BR SCT014 BKN023CB OVC075 24/22 A2993 RMK AO2 TSB1659RAB1655 OCNL LTGICCG NW-OHD TS NW-NE-E MOV NE P0049=
201506271732 SPECI KATL 271732Z 34010G19KT 1/2SM R09R/1800VP6000FT +TSRA FG SCT027 BKN046CB OVC075 23/22 A2994 RMK AO2 TSB1659RAB1655 OCNL LTGICCG W-NE TS OHD & ALQDS MOV NE P0038=
201506271727 SPECI KATL 271727Z 33014G17KT 1 3/4SM R09R/2600VP6000FT +TSRA SCT027 BKN046CB OVC075 24/21 A2994 RMK AO2 TSB1659RAB1655 OCNL LTGICCG NE TS NE MOV NE CB W P0019=
201506271720 SPECI KATL 271720Z 26005KT 10SM TS FEW010 SCT030 BKN046CB 26/21 A2993 RMK AO2 TSB1659RAB1655E18 OCNL LTGICCG NE TS NE MOV NE CB W P0017=
201506271711 SPECI KATL 271711Z 22005G17KT 2 1/2SM R09R/4000VP6000FT -TSRA BKN002CB BKN044 BKN100 25/22 A2992 RMK AO2 TSB1659RAB1655 FRQ LTGICCG NW-OHD-S TS ALQDS MOV NE P0017=
201506271707 SPECI KATL 271707Z 24008G19KT 3/4SM R09R/3000VP6000FT +TSRA BR BKN002CB BKN044 BKN100 25/23 A2993 RMK AO2 TSB1659RAB1655 FRQ LTGICCG NW-OHD-S TS ALQDS MOV NE P0016=
201506271700 SPECI KATL 271700Z 23014G19KT 1 3/4SM R09R/3000VP6000FT TSRA SCT028CB BKN046 BKN075 27/23 A2992 RMK AO2 TSB1659RAB1655 TS OVHD AND ALQDS MOV NE P0000=
201506271652 METAR KATL 271652Z 21011G14KT 10SM SCT028 BKN035CB BKN042TCU 28/22 A2992 RMK AO2 SLP120 CB VC SW-NW-NE MOV NE TCU E VCSH W T02830217=
201506271552 METAR KATL 271552Z 22007KT 10SM SCT022 BKN030 BKN100 BKN250 29/22 A2994 RMK AO2 SLP127 TCU DSNT W T02890222=
201506271452 METAR KATL 271452Z 23007KT 10SM SCT014 BKN021 BKN100 BKN250 27/22 A2995 RMK AO2 SLP130 T02670217 58002=
201506271447 SPECI KATL 271447Z 25007KT 10SM SCT014 BKN021 BKN100 BKN250 27/22 A2995 RMK AO2=
201506271352 METAR KATL 271352Z 25007KT 10SM BKN014 OVC080 26/22 A2996 RMK AO2 SLP136 BINOVC T02560217=
201506271320 SPECI KATL 271320Z 26008KT 10SM BKN012 OVC080 25/22 A2995 RMK AO2=
201506271252 METAR KATL 271252Z 25007KT 8SM BKN009 BKN013 24/21 A2995 RMK AO2 SLP133 T02440211=
201506271152 METAR KATL 271152Z 24009KT 7SM OVC009 23/21 A2996 RMK AO2 SLP134 CIG 007V012 60000 T02330206 10233 20228 53010=
201506271107 SPECI KATL 271107Z 24004KT 8SM OVC009 23/21 A2995 RMK AO2 CIG 008V012=
201506271052 METAR KATL 271052Z 27004KT 8SM OVC011 23/21 A2994 RMK AO2 RAB0955E30 SLP129 CIG 009V014 P0000 T02330211=
201506271014 SPECI KATL 271014Z 26009G14KT 9SM OVC011 23/21 A2993 RMK AO2 RAB0955E06 CIG 009V014 P0000=
201506270952 METAR KATL 270952Z 26005KT 9SM BKN009 BKN045 23/21 A2993 RMK AO2 SLP124 T02330206=
201506270852 METAR KATL 270852Z 24005KT 7SM BKN006 OVC060 23/21 A2993 RMK AO2 SLP123 T02280206 56010=
201506270752 METAR KATL 270752Z 22006KT 9SM BKN006 BKN250 23/21 A2993 RMK AO2 SLP125 T02280206=
201506270652 METAR KATL 270652Z 21007KT 9SM SCT006 SCT130 BKN250 23/21 A2994 RMK AO2 SLP127 T02280211=
201506270620 SPECI KATL 270620Z 22005KT 10SM FEW006 SCT130 BKN250 23/21 A2995 RMK AO2=
201506270552 METAR KATL 270552Z 22005KT 10SM SCT130 BKN250 23/21 A2996 RMK AO2 SLP132 T02330211 10272 20233 56007=
201506270452 METAR KATL 270452Z 21005KT 10SM FEW150 BKN250 24/21 A2996 RMK AO2 SLP132 T02390211 403220239=
201506270352 METAR KATL 270352Z 22003KT 10SM SCT150 BKN250 24/21 A2997 RMK AO2 SLP137 T02440211=
201506270252 METAR KATL 270252Z 22004KT 10SM BKN150 BKN200 25/22 A2998 RMK AO2 SLP140 T02500217 50007=
201506270152 METAR KATL 270152Z 21004KT 10SM BKN150 BKN200 26/21 A2998 RMK AO2 SLP142 OCNL LTG DSNT NE T02560211=
201506270052 METAR KATL 270052Z 21005KT 10SM FEW030 BKN150 BKN200 BKN250 26/19 A2997 RMK AO2 SLP138 VIRGA SE T02560194=
201506262352 METAR KATL 262352Z 24008KT 10SM FEW030TCU SCT200 BKN250 27/19 A2996 RMK AO2 SLP133 CB DSNT SW TCU VC NE & W 60000 T02720189 10322 20272 53006=
201506262252 METAR KATL 262252Z 24008KT 10SM FEW030 BKN150 BKN200 OVC250 30/22 A2994 RMK AO2 SLP126 CB DSNT NE & S-SW TCU DSNT NW T03000217=
201506262152 METAR KATL 262152Z 24005KT 10SM FEW030 BKN150 BKN200 OVC250 29/23 A2996 RMK AO2 RAB13E27 SLP134 CB DSNT N P0000 T02940228=
201506262052 METAR KATL 262052Z 21006KT 10SM SCT030 SCT040 OVC220 31/22 A2994 RMK AO2 SLP126 CB DSNT S-SW TCU DSNT N-NE T03110222 58016=
201506261952 METAR KATL 261952Z 20005KT 10SM FEW040 BKN070 OVC250 31/22 A2996 RMK AO2 SLP133 CB DSNT S-SW TCU DSNT NW-W T03060222=
201506261852 METAR KATL 261852Z COR 22008KT 10SM SCT040 SCT055TCU BKN250 31/22 A2998 RMK AO2 SLP140 TCU S CB DSNT NW-N T03110217=
201506261752 METAR KATL 261752Z 16007KT 10SM SCT040 SCT050 SCT250 32/22 A2999 RMK AO2 SLP143 TCU DSNT W-N T03220222 10322 20256 58018=
201506261652 METAR KATL 261652Z 20006KT 10SM SCT040TCU SCT250 31/22 A3001 RMK AO2 SLP151 CB DSNT W TCU NE-SE & SW-NW T03110222 $=
201506261645 SPECI KATL 261645Z 20006KT 10SM SCT040TCU SCT250 31/22 A3002 RMK AO2 TCU ALQDS $=
201506261552 METAR KATL 261552Z VRB05KT 10SM BKN030TCU BKN250 32/23 A3003 RMK AO2 SLP157 TCU OHD & ALQDS T03170233=
201506261452 METAR KATL 261452Z 29005KT 10SM FEW030 SCT250 31/23 A3004 RMK AO2 SLP162 T03060228 50002=
201506261352 METAR KATL 261352Z 24006KT 10SM SCT250 29/23 A3006 RMK AO2 SLP166 T02890228 $=
201506261252 METAR KATL 261252Z 24004KT 10SM SCT250 27/22 A3005 RMK AO2 SLP162 T02720222=
201506261152 METAR KATL 261152Z 23006KT 10SM SCT250 26/22 A3004 RMK AO2 SLP159 T02560222 10267 20239 50007=
201506261052 METAR KATL 261052Z 23004KT 10SM FEW200 SCT250 24/22 A3004 RMK AO2 SLP160 T02390217=
201506260952 METAR KATL 260952Z 27003KT 10SM FEW200 SCT250 24/22 A3003 RMK AO2 SLP156 T02440217=
201506260852 METAR KATL 260852Z 29005KT 10SM SCT250 25/22 A3001 RMK AO2 SLP151 T02500217 55002=
201506260752 METAR KATL 260752Z 27005KT 10SM SCT250 25/21 A3001 RMK AO2 SLP147 T02500211=
201506260652 METAR KATL 260652Z 26006KT 10SM FEW250 26/22 A3000 RMK AO2 SLP147 T02610217=
201506260552 METAR KATL 260552Z 27005KT 10SM FEW250 26/22 A3002 RMK AO2 SLP154 T02560217 10306 20256 58009=
201506260452 METAR KATL 260452Z 24004KT 10SM SCT250 27/21 A3004 RMK AO2 SLP158 T02670211 403390211=
201506260352 METAR KATL 260352Z 28004KT 10SM BKN250 27/21 A3005 RMK AO2 SLP163 T02670211=
201506260252 METAR KATL 260252Z 28005KT 10SM FEW200 BKN250 27/21 A3005 RMK AO2 SLP164 T02720206 53012=
201506260152 METAR KATL 260152Z 27007KT 10SM SCT200 BKN250 29/21 A3004 RMK AO2 SLP159 T02890211=
201506260052 METAR KATL 260052Z 23006KT 10SM FEW100 SCT180 BKN250 30/21 A3002 RMK AO2 SLP154 T03000206=
201506252352 METAR KATL 252352Z 21008KT 10SM FEW100 SCT200 SCT250 31/21 A3001 RMK AO2 SLP152 T03060211 10339 20306 56005=
201506252252 METAR KATL 252252Z 20010KT 10SM FEW055 SCT250 32/21 A3002 RMK AO2 SLP153 T03220206=
201506252152 METAR KATL 252152Z 22007KT 10SM FEW055 SCT250 33/20 A3003 RMK AO2 SLP156 CB DSNT NW TCU DSNT NW-N T03280200=
201506252052 METAR KATL 252052Z 21007KT 10SM FEW055 SCT250 33/19 A3003 RMK AO2 SLP156 CB DSNT NW T03330194 56026=
201506251952 METAR KATL 251952Z 26006KT 10SM FEW050 SCT250 33/20 A3005 RMK AO2 SLP165 CB DSNT N T03330200=
201506251852 METAR KATL 251852Z VRB05KT 10SM FEW045 SCT250 33/21 A3008 RMK AO2 SLP174 TCU DSNT NE & W T03280211=
201506251752 METAR KATL 251752Z 27006KT 10SM FEW045 SCT180 SCT250 32/21 A3011 RMK AO2 SLP183 T03220211 10322 20228 56013=
201506251652 METAR KATL 251652Z 29004KT 10SM FEW040 SCT180 BKN250 32/22 A3012 RMK AO2 SLP187 T03170222=
201506251552 METAR KATL 251552Z VRB03KT 10SM FEW180 SCT200 BKN250 31/22 A3014 RMK AO2 SLP194 T03060222=
201506251452 METAR KATL 251452Z 33007KT 10SM FEW180 SCT250 29/21 A3015 RMK AO2 SLP198 T02940206 51010=
201506251352 METAR KATL 251352Z 32007KT 10SM FEW180 SCT200 SCT250 28/20 A3015 RMK AO2 SLP198 T02780200=
201506251252 METAR KATL 251252Z 28005KT 10SM FEW180 SCT250 26/20 A3014 RMK AO2 SLP196 T02560200=
201506251152 METAR KATL 251152Z 28007KT 10SM SCT180 SCT250 23/19 A3012 RMK AO2 SLP190 70156 T02280189 10233 20211 51014=
201506251052 METAR KATL 251052Z 30004KT 10SM SCT160 BKN200 BKN250 22/19 A3011 RMK AO2 SLP185 T02170189=
201506250952 METAR KATL 250952Z 30003KT 10SM SCT160 BKN200 BKN250 22/19 A3010 RMK AO2 SLP184 T02170189=
201506250852 METAR KATL 250852Z 26005KT 10SM SCT150 BKN200 BKN250 22/19 A3008 RMK AO2 SLP175 T02170189 56005 $=
201506250752 METAR KATL 250752Z 00000KT 10SM FEW150 BKN200 BKN250 22/19 A3008 RMK AO2 SLP175 T02170189 $=
201506250652 METAR KATL 250652Z 05006KT 10SM FEW150 BKN200 OVC250 23/19 A3007 RMK AO2 SLP172 T02280189 $=
201506250552 METAR KATL 250552Z 02005KT 10SM FEW150 BKN200 OVC250 23/18 A3009 RMK AO2 SLP177 60000 T02330183 10250 20222 56014 $=
201506250452 METAR KATL 250452Z 26005KT 10SM BKN150 BKN250 23/19 A3010 RMK AO2 SLP181 T02280194 403390222 $=
201506250352 METAR KATL 250352Z 34007G22KT 290V360 10SM FEW010 SCT120 BKN150 OVC200 23/19 A3012 RMK AO2 SLP187 T02330194 $=
201506250252 METAR KATL 250252Z 26005KT 10SM BKN150 OVC200 23/19 A3013 RMK AO2 SLP192 60000 T02330194 55010 $=
201506250152 METAR KATL 250152Z 15008KT 10SM BKN150 BKN200 OVC250 23/19 A3010 RMK AO2 SLP183 T02330194 $=
201506250052 SPECI KATL 250052Z 29011KT 10SM FEW090 SCT120 BKN150 OVC250 23/19 A3010 RMK AO2 RAE14 SLP182 P0000 T02330189 $=
201506250052 METAR KATL 250052Z 29011KT 10SM FEW090 SCT120 BKN150 OVC250 23/19 A3010 RMK AO2 RAE14 SLP182 P0000 T02330189 $=
201506242352 METAR KATL 242352Z 36006KT 10SM -RA FEW050 SCT080 BKN120 OVC200 25/21 A3016 RMK AO2 RAB02 SLP204 CB DSNT NW P0000 60156 T02500206 10339 20222 53007 $=
201506242252 METAR KATL 242252Z 32008KT 10SM FEW070 SCT110 BKN150CB OVC250 24/21 A3005 RMK AO2 TSE24RAE36 SLP166 CBMAM OHD-E P0002 T02440211 $=
201506242224 SPECI KATL 242224Z 25003KT 9SM -RA FEW070 SCT110 BKN150 BKN250 23/20 A3006 RMK AO2 TSE24 PRESFR OCNL LTG DSNT SW TS MOV SW P0002 $=
201506242152 METAR KATL 242152Z 22009KT 9SM -TSRA FEW025CB SCT070 BKN100 OVC200 22/20 A3013 RMK AO2 SLP196 FRQ LTGICCG SW-W TS SW-W MOV SW P0031 T02220200=
201506242120 SPECI KATL 242120Z VRB05KT 9SM -TSRA FEW025CB SCT080 BKN110 OVC200 23/20 A3015 RMK AO2 FRQ LTGICCG SW-NW & VC SE-S TS SW-NW & VC SE-S MOV S P0019=
201506242047 SPECI KATL 242047Z 27007G34KT 190V310 4SM R09R/3000V5500FT TSRA BKN012CB BKN040 OVC090 25/19 A3013 RMK AO2 PK WND 33039/2034 WSHFT 2015 RAB00 VIS LWR SE-S-SW-W SHRA FRQ LTGICCG OHD-SE-S-SW-W TS OHD-SE-S-SW-W MOV SE P0114=
201506242037 SPECI KATL 242037Z 32025G39KT 2SM R09R/1600V3500FT TSRA BKN016CB BKN038 OVC055 23/19 A3010 RMK AO2 PK WND 33039/2034 WSHFT 2015 RAB00 FRQ LTGICCG OHD & ALQDS TS OHD & ALQDS MOV SE P0061=
201506242032 SPECI KATL 242032Z 34021G37KT 2SM R09R/2200V5000FT TSRA BKN016CB BKN038 OVC055 24/17 A3012 RMK AO2 PK WND 26037/2023 WSHFT 2015 RAB00 FRQ LTGICCG OHD & ALQDS TS OHD & ALQDS MOV SE P0036=
201506242012 SPECI KATL 242012Z 02019G36KT 3SM TSRA BKN038CB BKN060 OVC100 29/20 A3013 RMK AO2 PK WND 01036/2005 WSHFT 1958 RAB00 PRESRR FRQ LTGICCG OHD & ALQDS TS OHD & ALQDS MOV SE P0000=
201506242006 SPECI KATL 242006Z 02031G36KT 1SM R09R/P6000FT +TSRA OVC038CB 28/19 A3011 RMK AO2 PK WND 01036/2005 RAB00 PRESRR FRQ LTGICCG OHD-N TS OHD-N MOV SE P0000=
201506242003 SPECI KATL 242003Z 01022G32KT 1/2SM R09R/P6000FT +TSRA OVC038CB 28/20 A3009 RMK AO2 PK WND 02032/2002 RAB00 FRQ LTGICCG OHD-N TS OHD-N MOV SE P0000=
201506242000 SPECI KATL 242000Z 36017G22KT 1SM R09R/P6000FT +TSRA BKN040CB BKN060 OVC200 31/21 A3009 RMK AO2 RAB00 FRQ LTGICCG OHD-N TS OHD-N MOV SE P0000=
201506241952 METAR KATL 241952Z 24009KT 10SM TS BKN040CB BKN060 BKN200 33/22 A3009 RMK AO2 TSB33 SLP175 VIS LWR SHRA NW-N-NE FRQ LTGICCG NW-N-NE TS NW-N-NE MOV SE T03280222=
201506241933 SPECI KATL 241933Z 25011G16KT 10SM TS SCT040CB SCT200 BKN250 33/24 A3007 RMK AO2 TSB33 FRQ LTGICCG NW-N TS VC NW-N MOV SE SHRA VC NW-N=
201506241927 SPECI KATL 241927Z 25011G16KT 10SM SCT040CB SCT200 BKN250 33/23 A3008 RMK AO2 CB NW-N-NE MOV S SHRA VC NW-N-NE=
201506241852 METAR KATL 241852Z 27010G14KT 10SM FEW040 SCT200 BKN250 33/23 A3010 RMK AO2 SLP179 CB DSNT NE & S & NW TCU DSNT NW SHRA DSNT NE & NW T03330228=
201506241752 METAR KATL 241752Z 23008KT 10SM SCT038TCU SCT200 BKN250 33/23 A3012 RMK AO2 SLP188 CB DSNT NE & SW TCU NE & SW & NW T03280233 10333 20256 58005=
201506241652 METAR KATL 241652Z 21003KT 10SM FEW040 SCT200 BKN250 33/23 A3013 RMK AO2 SLP192 T03280228=
201506241552 METAR KATL 241552Z 27007KT 240V330 10SM FEW035 SCT200 BKN250 32/24 A3014 RMK AO2 SLP195 T03220239=
201506241452 METAR KATL 241452Z 00000KT 10SM BKN250 32/22 A3014 RMK AO2 SLP193 T03170222 51018=
201506241352 METAR KATL 241352Z 21003KT 10SM BKN250 29/23 A3014 RMK AO2 SLP192 T02890228=
201506241252 METAR KATL 241252Z 23006KT 9SM FEW065 SCT200 BKN250 26/22 A3012 RMK AO2 SLP187 T02610222=
201506241152 METAR KATL 241152Z 00000KT 9SM FEW060 SCT200 OVC250 26/22 A3009 RMK AO2 SLP176 T02560222 10267 20250 55002=
201506241052 METAR KATL 241052Z 25005KT 9SM FEW180 OVC250 25/22 A3007 RMK AO2 SLP172 T02500217=
201506240952 METAR KATL 240952Z 28006KT 10SM FEW065 BKN250 25/22 A3006 RMK AO2 SLP166 T02500217=
201506240852 METAR KATL 240852Z 27005KT 10SM FEW065 BKN250 26/22 A3009 RMK AO2 SLP177 T02560217 58000=
201506240752 METAR KATL 240752Z 26003KT 10SM SCT065 BKN250 26/22 A3010 RMK AO2 SLP179 T02560222=
201506240652 METAR KATL 240652Z 22004KT 10SM FEW065 SCT250 26/22 A3009 RMK AO2 SLP176 T02560217=
201506240552 METAR KATL 240552Z 24004KT 10SM FEW065 SCT250 27/22 A3009 RMK AO2 SLP177 T02670217 10317 20267 50001=
201506240452 METAR KATL 240452Z 23004KT 10SM FEW065 SCT250 27/22 A3011 RMK AO2 SLP183 T02670217 403440250=
201506240352 METAR KATL 240352Z 26003KT 10SM SCT065 BKN250 28/21 A3011 RMK AO2 SLP183 T02830206=
201506240252 METAR KATL 240252Z 26005KT 10SM SCT250 29/20 A3009 RMK AO2 SLP177 T02940200 53007=
201506240152 METAR KATL 240152Z 27006KT 10SM SCT250 29/20 A3007 RMK AO2 SLP171 T02940200=
201506240052 METAR KATL 240052Z 27006KT 10SM SCT250 31/20 A3008 RMK AO2 SLP174 T03060200=
201506232352 METAR KATL 232352Z 27007KT 10SM FEW250 32/19 A3007 RMK AO2 SLP170 T03220194 10344 20317 55006=
201506232252 METAR KATL 232252Z 26007KT 10SM FEW060 SCT250 33/19 A3006 RMK AO2 SLP168 T03280194=
201506232152 METAR KATL 232152Z 26008KT 10SM FEW055 SCT250 34/20 A3007 RMK AO2 SLP171 T03390200=
201506232052 METAR KATL 232052Z 30004KT 10SM FEW055 SCT250 34/21 A3009 RMK AO2 SLP176 T03390206 55013=
201506231952 METAR KATL 231952Z 32010G14KT 10SM FEW055TCU SCT250 34/21 A3008 RMK AO2 SLP174 TCU E & SW & NW T03440211=
201506231852 METAR KATL 231852Z 28008KT 9SM SCT055 34/20 A3010 RMK AO2 SLP180 T03390200=
201506231752 METAR KATL 231752Z 28008KT 9SM FEW050 33/21 A3013 RMK AO2 SLP189 T03330211 10333 20267 58005=
201506231652 METAR KATL 231652Z 31010KT 8SM FEW045 33/22 A3014 RMK AO2 SLP194 T03280217=
201506231552 METAR KATL 231552Z 31009KT 9SM FEW040 SCT250 32/22 A3014 RMK AO2 SLP195 T03220222=
201506231452 METAR KATL 231452Z 31008KT 9SM FEW035 SCT250 31/22 A3014 RMK AO2 SLP194 T03060222 55000=
201506231352 METAR KATL 231352Z 29007KT 10SM SCT250 29/21 A3013 RMK AO2 SLP190 T02940211=
201506231252 METAR KATL 231252Z 31007KT 10SM FEW065 SCT250 28/21 A3015 RMK AO2 SLP198 T02780211=
201506231152 METAR KATL 231152Z 29007KT 10SM FEW065 SCT250 27/20 A3014 RMK AO2 SLP194 T02670200 10267 20250 53005=
201506231052 METAR KATL 231052Z 25003KT 10SM FEW065 SCT250 26/20 A3013 RMK AO2 SLP191 T02560200=
201506230952 METAR KATL 230952Z 32006KT 10SM SCT250 26/20 A3013 RMK AO2 SLP190 T02560200=
201506230852 METAR KATL 230852Z 32005KT 10SM BKN250 25/21 A3013 RMK AO2 SLP189 T02500206 53006=
201506230752 METAR KATL 230752Z 32007KT 10SM BKN250 26/20 A3012 RMK AO2 SLP185 T02610200=
201506230652 METAR KATL 230652Z 31008KT 10SM BKN250 27/20 A3012 RMK AO2 SLP186 T02670200=
201506230552 METAR KATL 230552Z 28005KT 10SM BKN250 27/20 A3011 RMK AO2 SLP182 T02670200 10322 20267 58005=
201506230452 METAR KATL 230452Z 29007KT 10SM BKN250 28/21 A3011 RMK AO2 SLP184 T02780206 403440133=
201506230352 METAR KATL 230352Z 27004KT 10SM SCT250 28/21 A3013 RMK AO2 SLP189 T02830206=
201506230252 METAR KATL 230252Z 28004KT 10SM FEW250 29/21 A3012 RMK AO2 SLP187 T02940206 53017=
201506230152 METAR KATL 230152Z 28005KT 10SM FEW250 30/20 A3010 RMK AO2 SLP180 T03000200=
201506230052 METAR KATL 230052Z 27005KT 10SM FEW250 30/20 A3008 RMK AO2 SLP175 T03000200=
201506222352 METAR KATL 222352Z 26005KT 10SM FEW055 SCT250 32/21 A3007 RMK AO2 SLP171 T03220206 10344 20317 55007=
201506222252 METAR KATL 222252Z 32006KT 10SM FEW055 SCT250 34/19 A3006 RMK AO2 SLP165 T03390189=
201506222152 METAR KATL 222152Z 30007G15KT 270V330 10SM FEW055 SCT250 34/19 A3007 RMK AO2 SLP170 T03390194=
201506222052 METAR KATL 222052Z 29009KT 10SM FEW055TCU SCT250 34/20 A3009 RMK AO2 SLP177 CB DSNT SE TCU N-NE T03440200 58006=
201506221952 METAR KATL 221952Z 32009KT 10SM FEW050TCU SCT250 33/21 A3012 RMK AO2 SLP187 TCU NE & SE & NW T03330206=
201506221852 METAR KATL 221852Z 31007KT 10SM FEW050TCU SCT250 33/22 A3013 RMK AO2 SLP189 TCU NE-SE & DSNT N T03330217=
201506221752 METAR KATL 221752Z 35005KT 10SM BKN045TCU BKN250 32/22 A3011 RMK AO2 SLP183 TCU NE & SE-SW & NW T03220217 10333 20256 58010=
201506221652 METAR KATL 221652Z 30010KT 10SM FEW040 SCT250 32/22 A3012 RMK AO2 SLP187 T03170217=
201506221552 METAR KATL 221552Z 34009KT 10SM FEW035 SCT200 SCT250 31/22 A3014 RMK AO2 SLP193 T03110217=
201506221452 METAR KATL 221452Z 33011KT 10SM FEW035 SCT250 30/22 A3014 RMK AO2 SLP193 T03000217 50002=
201506221352 METAR KATL 221352Z 31009KT 10SM SCT250 29/22 A3015 RMK AO2 SLP198 T02890222=
201506221252 METAR KATL 221252Z 31008KT 10SM FEW022 SCT110 SCT200 SCT250 27/22 A3014 RMK AO2 SLP195 T02720217=
201506221152 METAR KATL 221152Z 31008KT 10SM FEW110 SCT200 SCT250 26/21 A3013 RMK AO2 SLP192 T02560211 10261 20239 51015=
201506221052 METAR KATL 221052Z 30008KT 10SM FEW110 SCT250 24/21 A3013 RMK AO2 SLP189 T02440206=
201506220952 METAR KATL 220952Z 30007KT 10SM FEW100 SCT250 24/21 A3010 RMK AO2 SLP182 T02440206=
201506220852 METAR KATL 220852Z 31006KT 10SM SCT100 SCT250 25/21 A3009 RMK AO2 SLP177 T02500206 56004=
201506220752 METAR KATL 220752Z 30006KT 10SM FEW250 25/21 A3009 RMK AO2 SLP177 T02500206=
201506220652 METAR KATL 220652Z 30007KT 10SM FEW200 26/21 A3010 RMK AO2 SLP179 T02560206=
201506220552 METAR KATL 220552Z 28005KT 10SM FEW200 26/21 A3010 RMK AO2 SLP181 T02610206 10306 20261 53002=
201506220452 METAR KATL 220452Z 30004KT 10SM SCT200 26/21 A3009 RMK AO2 SLP179 T02610211 403390222=
201506220352 METAR KATL 220352Z 30004KT 10SM SCT200 27/21 A3010 RMK AO2 SLP179 T02720211=
201506220252 METAR KATL 220252Z 31006KT 10SM BKN200 28/22 A3009 RMK AO2 SLP178 T02830217 51019=
201506220152 METAR KATL 220152Z 28007KT 10SM SCT055 BKN200 29/23 A3009 RMK AO2 SLP176 T02890228=
201506220052 METAR KATL 220052Z 25006KT 10SM SCT055 BKN200 29/23 A3006 RMK AO2 SLP168 T02940228=
201506212352 METAR KATL 212352Z 23006KT 10SM SCT050 BKN200 31/23 A3004 RMK AO2 SLP159 T03060228 10339 20306 55003=
201506212252 METAR KATL 212252Z 23010KT 10SM FEW031 SCT048 BKN200 31/24 A3003 RMK AO2 SLP157 T03110239=
201506212152 METAR KATL 212152Z 21010KT 10SM SCT048 BKN200 32/24 A3004 RMK AO2 SLP159 T03220239=
201506212052 METAR KATL 212052Z 24007KT 10SM FEW048 BKN200 33/22 A3005 RMK AO2 SLP162 T03280217 56015=
201506211952 METAR KATL 211952Z 31007KT 10SM SCT047 BKN250 34/22 A3006 RMK AO2 SLP165 T03390217=
201506211852 METAR KATL 211852Z 28005KT 10SM FEW044TCU BKN250 33/22 A3007 RMK AO2 SLP170 TCU SW T03280217=
201506211752 METAR KATL 211752Z 33008KT 280V350 10SM SCT038 BKN250 31/22 A3009 RMK AO2 SLP177 T03110217 10322 20244 58007=
201506211652 METAR KATL 211652Z 32009KT 10SM SCT034 BKN250 31/22 A3010=
201506211552 METAR KATL 211552Z 33008KT 10SM FEW028 BKN250 31/23 A3011 RMK AO2 SLP183 T03060228=
201506211452 METAR KATL 211452Z 30010KT 10SM SCT026 30/23 A3011 RMK AO2 SLP186 T03000233 50003=
201506211352 METAR KATL 211352Z 30009KT 10SM FEW020 SCT080 28/23 A3013 RMK AO2 SLP191 T02780228=
201506211252 METAR KATL 211252Z 28007KT 9SM FEW014 26/22 A3012 RMK AO2 SLP187 T02610222=
201506211152 METAR KATL 211152Z 26005KT 8SM FEW250 24/22 A3010 RMK AO2 SLP183 70034 T02440217 10244 20222 53010=
201506211052 METAR KATL 211052Z 27003KT 8SM FEW250 23/21 A3009 RMK AO2 SLP179 T02280211=
201506210952 METAR KATL 210952Z 28005KT 10SM FEW250 23/21 A3008 RMK AO2 SLP176 T02280206=
201506210852 METAR KATL 210852Z 30006KT 10SM FEW250 23/21 A3007 RMK AO2 SLP174 T02330211 53009=
201506210752 METAR KATL 210752Z 27007KT 10SM SCT250 23/21 A3005 RMK AO2 SLP166 T02330211=
201506210652 METAR KATL 210652Z 27005KT 10SM SCT250 24/21 A3004 RMK AO2 SLP162 T02390211=
201506210552 METAR KATL 210552Z 26006KT 10SM SCT250 24/21 A3004 RMK AO2 SLP163 T02440211 10272 20244 57004=
201506210252 METAR KATL 210252Z 23005KT 10SM BKN230 24/21 A3005 RMK AO2 SLP166 T02440211 51012=
201506210152 METAR KATL 210152Z 23005KT 10SM FEW110 BKN230 25/22 A3004 RMK AO2 SLP163 T02500222=
201506210052 METAR KATL 210052Z 22005KT 10SM FEW040 SCT110 BKN200 BKN250 26/22 A3003 RMK AO2 SLP159 VIRGA E-S T02560222=
201506202352 METAR KATL 202352Z 22009KT 10SM SCT040 BKN210 27/22 A3002 RMK AO2 SLP153 60034 T02720222 10317 20244 55007=
201506202252 METAR KATL 202252Z 22009KT 10SM FEW025 SCT090 BKN210 28/22 A3001 RMK AO2 SLP150 TCU DSNT SW CB DSNT SE T02780222=
201506202152 METAR KATL 202152Z 20009KT 10SM FEW025TCU SCT090 BKN250 24/22 A3003 RMK AO2 TSE05RAE2059 SLP159 TCU E & S-SW CB DSNT E-S-SW P0000 T02440217=
201506202110 SPECI KATL 202110Z 20007KT 10SM FEW030 SCT090 BKN250 24/22 A3005 RMK AO2 TSE05RAE2059 TS MOV E CB DSNT E & SW P0000=
201506202052 METAR KATL 202052Z COR 24006KT 10SM -TSRA BKN042CB BKN080 BKN250 24/21 A3004 RMK AO2 PK WND 27035/2020 TSB20RAB1953RAE03B21 PRESFR SLP163 OCNL LTGIC E TS E MOV E P0034 60034 T02440211 56008=
201506202030 SPECI KATL 202030Z VRB03G34KT 3SM R09R/3500VP6000FT -TSRA FEW008 SCT022CB BKN080 BKN250 25/21 A3006 RMK AO2 PK WND 27035/2020 TSB20RAB1953RAEMMB21 OCNL LTGICCG OHD-E TS OHD-E MOV E P0033=
201506202026 SPECI KATL 202026Z 20010G35KT 170V240 1SM R09R/3500VP6000FT +TSRA FEW008 SCT020CB OVC055 24/20 A3006 RMK AO2 PK WND 27035/2020 TSB20RAB1953RAEMMB21 OCNL LTGICCG SW-NW TS SW-NW MOV E P0028=
201506202023 SPECI KATL 202023Z 24026G35KT 2SM R09R/3500VP6000FT +TSRA SCT023CB SCT048 BKN055 25/21 A3007 RMK AO2 PK WND 27035/2020 TSB20RAB1953RAEMMB21 PRESRR OCNL LTGICCG SW-NW TS SW-NW MOV E P0012=
201506202008 SPECI KATL 202008Z 27006KT 7SM SCT020 BKN045 BKN100 31/24 A3004 RMK AO2 RAB1953RAEMM CB DSNT NW-NE P0008 $=
201506202001 SPECI KATL 202001Z 29007G27KT 5SM R09R/3000VP6000FT HZ SCT020 BKN045 BKN100 29/23 A3004 RMK AO2 RAB1953RAEMM CB N VSBY LWR E P0008=
201506201955 SPECI KATL 201955Z 29007G27KT 1 3/4SM R09R/3000VP6000FT -RA FEW030 BKN045 BKN055 29/22 A3005 RMK AO2 RAB53 P0000=
201506201952 METAR KATL 201952Z 27013G27KT 7SM BKN045 BKN055 BKN200 31/21 A3004 RMK AO2 PK WND 28027/1952 SLP162 CB DSNT NW-NE T03060211=
201506201852 METAR KATL 201852Z 20008KT 10SM FEW041 BKN200 29/23 A3005 RMK AO2 TSE05RAE1755 SLP165 TS MOV E CB DSNT E-S TCU DSNT N P0000 T02940228=
201506201806 SPECI KATL 201806Z 29008KT 10SM FEW033 SCT050 BKN250 29/22 A3006 RMK AO2 TSE05RAE1755 TS MOV E CB DSNT NE-SE & S P0000=
201506201752 METAR KATL 201752Z 29006KT 10SM -TSRA SCT020CB BKN050 BKN120 BKN250 26/22 A3006 RMK AO2 PK WND 28028/1737 WSHFT 1731 TSB37RAB39 SLP170 OCNL LTGICCG NE-SE TS NE-SE MOV E P0000 60000 T02610217 10311 20250 56001=
201506201749 SPECI KATL 201749Z 31008G21KT 9SM -TSRA SCT020CB BKN050 BKN120 BKN250 26/22 A3006 RMK AO2 PK WND 28028/1737 WSHFT 1731 TSB37RAB39 OCNL LTGICCG N-NE & S TS N-NE AND S MOV E P0000=
201506201738 SPECI KATL 201738Z 28019G28KT 6SM TS HZ SCT035CB BKN045 BKN065 29/22 A3006 RMK AO2 PK WND 28028/1737 TSB37 OCNL LTGICCG SW-NW TS SW-NW MOV E=
201506201652 METAR KATL 201652Z 25011G18KT 10SM SCT033 BKN050 31/22 A3006=
201506201552 METAR KATL 201552Z 24013G20KT 10SM SCT028 BKN200 29/22 A3007 RMK AO2 SLP170 T02940217=
201506201452 METAR KATL 201452Z 24013G18KT 10SM FEW021 SCT027 BKN080 29/22 A3007 RMK AO2 SLP172 T02890222 50004=
201506201421 SPECI KATL 201421Z 25009G15KT 10SM BKN023 28/22 A3007 RMK AO2=
201506201352 METAR KATL 201352Z 24013G16KT 10SM SCT018 BKN060 28/22 A3008 RMK AO2 SLP173 T02780217=
201506201301 SPECI KATL 201301Z 24012KT 10SM SCT015 BKN180 26/22 A3007 RMK AO2=
201506201252 METAR KATL 201252Z 25011G17KT 10SM BKN013 BKN180 26/22 A3007 RMK AO2 SLP171 T02610217=
201506201206 SPECI KATL 201206Z 24009KT 10SM BKN012 BKN180 26/22 A3007 RMK AO2=
201506201152 METAR KATL 201152Z 24008KT 10SM SCT012 SCT180 25/22 A3006 RMK AO2 SLP168 T02500217 10256 20239 52013=
201506201052 METAR KATL 201052Z 22005KT 10SM FEW012 SCT200 24/22 A3005 RMK AO2 SLP164 T02440217=
201506200952 METAR KATL 200952Z 23004KT 10SM FEW012 SCT180 SCT250 24/22 A3003 RMK AO2 SLP158 T02390217=
201506200928 SPECI KATL 200928Z 23006KT 10SM FEW009 SCT250 24/22 A3003 RMK AO2=
201506200852 METAR KATL 200852Z 22006KT 10SM FEW250 24/22 A3002 RMK AO2 SLP155 T02440217 56008=
201506200752 METAR KATL 200752Z 23004KT 10SM FEW250 24/21 A3003 RMK AO2 SLP156 T02440211=
201506200652 METAR KATL 200652Z 22007KT 10SM FEW250 25/21 A3004 RMK AO2 SLP159 T02500206=
201506200552 METAR KATL 200552Z 22007KT 10SM FEW250 26/21 A3005 RMK AO2 SLP163 T02560206 10306 20256 55004=
201506200452 METAR KATL 200452Z 21007KT 10SM FEW250 26/21 A3005 RMK AO2 SLP162 T02610206 403280228=
201506200352 METAR KATL 200352Z 20006KT 10SM FEW250 27/21 A3006 RMK AO2 SLP166 T02670206=
201506200252 METAR KATL 200252Z 21004KT 10SM FEW150 27/20 A3006 RMK AO2 SLP167 T02670200 53017=
201506200152 METAR KATL 200152Z 21005KT 10SM FEW250 28/20 A3004 RMK AO2 SLP160 T02780200=
201506200052 METAR KATL 200052Z 22006KT 10SM FEW250 29/19 A3003 RMK AO2 SLP157 T02890194=
201506192352 METAR KATL 192352Z 22008KT 10SM FEW250 31/19 A3001 RMK AO2 SLP150 T03060189 10328 20306 56008=
201506192252 METAR KATL 192252Z 23009KT 10SM FEW050 32/18 A3001 RMK AO2 SLP151 T03170183=
201506192152 METAR KATL 192152Z 23009KT 10SM SCT050 SCT250 31/19 A3002 RMK AO2 SLP154 T03110194=
201506192052 METAR KATL 192052Z 23008KT 10SM SCT050 SCT250 31/19 A3003 RMK AO2 SLP159 T03110189 57016=
201506191952 METAR KATL 191952Z 22009KT 10SM SCT050 SCT250 31/20 A3005 RMK AO2 SLP164 T03110200=
201506191852 METAR KATL 191852Z 22008KT 10SM SCT046 SCT250 31/20 A3007 RMK AO2 SLP170 TCU DSNT ALQDS T03110200=
201506191752 METAR KATL 191752Z 24008G15KT 10SM SCT045 BKN250 32/22 A3008 RMK AO2 SLP175 TCU DSNT SE-SW T03220217 10322 20244 58014=
201506191652 METAR KATL 191652Z 24007KT 10SM FEW035 SCT250 31/21 A3010 RMK AO2 SLP183 CB DSNT NE TCU DSNT NE-SE & DSNT SW-NW T03110211=
201506191552 METAR KATL 191552Z 27008KT 10SM SCT025TCU SCT200 BKN250 30/23 A3012 RMK AO2 SLP188 TCU ALQDS T03000228=
201506191452 METAR KATL 191452Z 25005KT 10SM FEW025 SCT080 SCT250 29/23 A3012 RMK AO2 SLP190 TCU DSNT N T02890233 50007=
201506191352 METAR KATL 191352Z 26006KT 10SM FEW080 SCT200 SCT250 27/22 A3013 RMK AO2 SLP191 ACC DSNT NW-N T02720222=
201506191252 METAR KATL 191252Z 28008KT 10SM FEW200 SCT250 26/22 A3012 RMK AO2 SLP190 T02560217=
201506191152 METAR KATL 191152Z 22003KT 10SM FEW150 SCT200 SCT250 24/21 A3010 RMK AO2 SLP184 70020 T02440211 10244 20228 52007=
201506191052 METAR KATL 191052Z 00000KT 10SM FEW150 SCT200 SCT250 23/21 A3009 RMK AO2 SLP181 T02280206=
201506190952 METAR KATL 190952Z 23003KT 10SM FEW160 SCT200 SCT250 23/21 A3009 RMK AO2 SLP180 T02280206=
201506190852 METAR KATL 190852Z 23003KT 10SM SCT160 SCT250 23/21 A3008 RMK AO2 SLP174 T02280206 58004=
201506190752 METAR KATL 190752Z 25003KT 10SM FEW180 SCT250 23/21 A3009 RMK AO2 SLP176 T02280206=
201506190652 METAR KATL 190652Z 00000KT 10SM FEW150 SCT200 SCT250 23/21 A3009 RMK AO2 SLP176 T02280211=
201506190552 METAR KATL 190552Z 00000KT 10SM FEW150 SCT200 BKN250 23/21 A3009 RMK AO2 SLP178 T02280211 10250 20228 58001=
201506190452 METAR KATL 190452Z 00000KT 10SM FEW150 SCT200 BKN250 23/21 A3010 RMK AO2 SLP182 T02330211 403500228=
201506190352 METAR KATL 190352Z 00000KT 10SM FEW150 SCT200 BKN250 23/21 A3010 RMK AO2 SLP181 T02330211=
201506190252 METAR KATL 190252Z 00000KT 10SM FEW150 BKN200 BKN250 23/21 A3010 RMK AO2 SLP179 T02330211 53005=
201506190152 METAR KATL 190152Z 18004KT 10SM FEW150 BKN200 BKN250 23/21 A3009 RMK AO2 SLP177 T02330211=
201506190052 METAR KATL 190052Z 14004KT 10SM FEW100 SCT150 BKN200 BKN250 24/22 A3008 RMK AO2 SLP176 T02440217=
201506182352 METAR KATL 182352Z 17003KT 10SM FEW090 SCT150 BKN200 OVC250 24/21 A3008 RMK AO2 RAE00 SLP176 P0000 60020 T02440211 10350 20228 51019=
201506182252 METAR KATL 182252Z 30005KT 10SM -RA FEW070 SCT100 BKN120 BKN150 OVC200 24/21 A3005 RMK AO2 TSE09 SLP168 CB DSNT NE-SE P0001 T02390211=
201506182209 SPECI KATL 182209Z 28005KT 9SM -RA FEW025 SCT070 BKN120 BKN150 OVC200 23/20 A3006 RMK AO2 TSE09 FRQ LTGICCG DSNT NE-SE TS MOV NE P0001=
201506182152 METAR KATL 182152Z 24007KT 7SM -TSRA FEW025CB SCT070 BKN110 BKN150 BKN200 23/19 A3007 RMK AO2 PK WND 27039/2124 WSHFT 2103 TSB09RAB12 SLP174 OCNL LTGICCG NE-E TS NE-E MOV NE P0019 T02330194=
201506182128 SPECI KATL 182128Z 26025G39KT 4SM +TSRA FEW010 BKN035CB BKN110 BKN200 23/20 A3006 RMK AO2 PK WND 27039/2124 WSHFT 2103 TSB09RAB12 VIS LWR SW-NW-N FRQ LTGICCG OHD-SW TS OHD-SW MOV NE P0003=
201506182120 SPECI KATL 182120Z 26027G37KT 2 1/2SM R09R/5500VP6000FT TSRA FEW040CB SCT060 BKN110 BKN200 25/22 A3007 RMK AO2 PK WND 27037/2120 WSHFT 2103 TSB09RAB12 FRQ LTGICCG SW TS SW MOV NE P0000=
201506182109 SPECI KATL 182109Z 24015G20KT 10SM TS FEW040CB SCT060 BKN110 BKN200 32/21 A3005 RMK AO2 TSB09 PRESRR FRQ LTGICCG SW TS VC SW MOV NE SHRA VC SW=
201506182052 METAR KATL 182052Z 29009KT 10SM FEW045 SCT100 BKN250 33/22 A3002 RMK AO2 PRESFR SLP153 CB DSNT NE & DSNT SE-S-SW-W TCU DSNT NE-SE T03330217 58029=
201506181952 METAR KATL 181952Z 28007KT 10SM FEW050 SCT100 SCT250 34/21 A3005 RMK AO2 SLP162 CB DSNT NE & S & NW T03440211=
201506181852 METAR KATL 181852Z 24010KT 10SM SCT055 SCT200 34/20 A3009 RMK AO2 SLP176 CB DSNT NE-E & DSNT SW-NW TCU DSNT NE-E-SE-S-SW T03390200=
201506181752 METAR KATL 181752Z 24005KT 10SM SCT050TCU SCT200 33/21 A3011 RMK AO2 SLP183 CB DSNT NE-E & SW-NW TCU ALQDS T03280206 10339 20261 58008=
201506181652 METAR KATL 181652Z 21004KT 10SM SCT047TCU SCT120 33/22 A3012 RMK AO2 SLP188 TCU NE-SE-SW & DSNT NW T03280217=
201506181552 METAR KATL 181552Z VRB04KT 10SM FEW045 SCT120 SCT250 33/22 A3013 RMK AO2 SLP191 TCU DSNT NE-E T03280217=
201506181452 METAR KATL 181452Z 31005KT 10SM FEW045 SCT120 SCT250 32/22 A3014 RMK AO2 SLP192 T03220222 51005=
201506181352 METAR KATL 181352Z 26003KT 10SM FEW120 SCT250 31/22 A3013 RMK AO2 SLP190 T03060222=
201506181252 METAR KATL 181252Z 28004KT 10SM FEW120 SCT200 SCT250 29/22 A3013 RMK AO2 SLP190 ACC DSNT SE T02890222=
201506181152 METAR KATL 181152Z 29006KT 10SM FEW180 SCT250 26/22 A3012 RMK AO2 SLP186 T02610217 10267 20250 53006=
201506181052 METAR KATL 181052Z 29005KT 10SM FEW110 SCT200 SCT250 25/21 A3010 RMK AO2 SLP181 T02500211=
201506180952 METAR KATL 180952Z 29006KT 10SM FEW110 SCT200 SCT250 25/21 A3010 RMK AO2 SLP180 T02500211=
201506180852 METAR KATL 180852Z 25003KT 10SM FEW250 SCT300 26/21 A3010 RMK AO2 SLP181 T02560211 55002=
201506180752 METAR KATL 180752Z 23004KT 10SM FEW250 26/22 A3009 RMK AO2 SLP177 T02610217=
201506180652 METAR KATL 180652Z 00000KT 10SM FEW250 26/22 A3009 RMK AO2 SLP178 T02610217=
201506180552 METAR KATL 180552Z 00000KT 10SM FEW250 26/22 A3011 RMK AO2 SLP183 T02610217 10322 20261 50002=
201506180452 METAR KATL 180452Z 29004KT 10SM FEW250 28/21 A3011 RMK AO2 SLP183 T02830206 403440250=
201506180352 METAR KATL 180352Z 27005KT 10SM FEW250 28/21 A3012 RMK AO2 SLP185 T02830206=
201506180252 METAR KATL 180252Z 27005KT 10SM FEW250 29/21 A3010 RMK AO2 SLP181 T02890211 53016=
201506180152 METAR KATL 180152Z 00000KT 10SM FEW250 30/20 A3009 RMK AO2 SLP176 T03000200=
201506180052 METAR KATL 180052Z 27005KT 10SM FEW250 31/20 A3007 RMK AO2 SLP168 T03060200=
201506172352 METAR KATL 172352Z 28005KT 10SM FEW250 32/19 A3006 RMK AO2 SLP165 T03220194 10344 20322 55009=
201506172252 METAR KATL 172252Z 28008KT 10SM FEW060 33/20 A3005 RMK AO2 SLP163 CB DSNT NE T03330200=
201506172152 METAR KATL 172152Z 23004KT 10SM FEW060 34/19 A3006 RMK AO2 SLP167 CB DSNT NE T03440189=
201506172052 METAR KATL 172052Z VRB06KT 10SM FEW060 SCT200 33/20 A3008 RMK AO2 SLP174 CB DSNT NE-E & DSNT SW-W TCU DSNT NW-N T03280200 56018=
201506171952 METAR KATL 171952Z 23008KT 10SM FEW060 34/19 A3010 RMK AO2 SLP180 TCU DSNT NW-N T03390189=
201506171852 METAR KATL 171852Z 22006KT 10SM FEW060 34/20 A3011 RMK AO2 SLP184 TCU DSNT E T03390200=
201506171752 METAR KATL 171752Z 30007KT 10SM FEW055 34/20 A3014 RMK AO2 SLP192 T03390200 10339 20267 58007=
201506171652 METAR KATL 171652Z 31006KT 10SM FEW050 33/21 A3015 RMK AO2 SLP197 T03330206=
201506171552 METAR KATL 171552Z 33005KT 10SM FEW045 33/21 A3015 RMK AO2 SLP198 T03280211=
201506171452 METAR KATL 171452Z 29007KT 10SM FEW045 32/21 A3016 RMK AO2 SLP199 T03170211 50003=
201506171352 METAR KATL 171352Z 30007KT 10SM FEW250 31/21 A3016 RMK AO2 SLP201 T03060211=
201506171252 METAR KATL 171252Z 32007KT 10SM FEW250 28/21 A3016 RMK AO2 SLP199 T02830211=
201506171152 METAR KATL 171152Z 31004KT 10SM FEW250 26/21 A3015 RMK AO2 SLP197 T02610211 10272 20250 53013=
201506171052 METAR KATL 171052Z 30005KT 10SM FEW250 25/21 A3013 RMK AO2 SLP192 T02500206=
201506170352 METAR KATL 170352Z 27006KT 10SM CLR 28/21 A3013 RMK AO2 SLP191 T02830211=
201506170252 METAR KATL 170252Z 26005KT 10SM FEW055 29/21 A3013 RMK AO2 SLP191 T02940211 51016=
201506170152 METAR KATL 170152Z 00000KT 10SM FEW055 30/21 A3012 RMK AO2 SLP187 FRQ LTG DSNT NW T03000206=
201506170052 METAR KATL 170052Z 26003KT 10SM FEW055 31/21 A3010 RMK AO2 SLP178 CB DSNT S & NW T03060206=
201506162352 METAR KATL 162352Z 27006KT 10SM FEW060 32/20 A3008 RMK AO2 SLP174 TCU DSNT S & SW T03220200 10344 20322 55006=
201506162252 METAR KATL 162252Z 28004KT 10SM FEW060 33/21 A3008 RMK AO2 SLP174 TCU DSNT SW T03280206=
201506162152 METAR KATL 162152Z 28006KT 10SM FEW060 34/20 A3009 RMK AO2 SLP175 T03390200=
201506162052 METAR KATL 162052Z 29008KT 10SM FEW060 34/20 A3010 RMK AO2 SLP180 CB DSNT SW TCU DSNT SE & SW & NW T03390200 58018=
201506161952 METAR KATL 161952Z 25006KT 10SM SCT065TCU 34/20 A3012 RMK AO2 SLP186 TCU NE-SE & SW-NW T03390200=
201506161852 METAR KATL 161852Z 31004KT 10SM SCT055TCU 33/20 A3014 RMK AO2 SLP194 TCU NE-E & SW-W T03280200=
201506161752 METAR KATL 161752Z 25008KT 10SM FEW055 33/19 A3016 RMK AO2 SLP198 TCU DSNT NE-SE T03280194 10339 20261 58009=
201506161652 METAR KATL 161652Z 28005KT 10SM FEW050 32/20 A3017 RMK AO2 SLP203 T03170200=
201506161552 METAR KATL 161552Z 00000KT 10SM FEW045 32/20 A3018 RMK AO2 SLP206 T03220200=
201506161452 METAR KATL 161452Z 34005KT 10SM FEW040 31/21 A3018 RMK AO2 SLP208 T03110211 50008=
201506161352 METAR KATL 161352Z 32007KT 10SM CLR 30/21 A3019 RMK AO2 SLP209 T03000211=
201506161252 METAR KATL 161252Z 31005KT 10SM FEW250 28/21 A3018 RMK AO2 SLP206 T02830206=
201506161152 METAR KATL 161152Z 00000KT 10SM CLR 27/21 A3016 RMK AO2 SLP199 T02670206 10267 20239 53009=
201506161052 METAR KATL 161052Z 27004KT 10SM CLR 24/20 A3014 RMK AO2 SLP195 T02390200=
201506160952 METAR KATL 160952Z 33006KT 10SM CLR 25/21 A3013 RMK AO2 SLP191 T02500206=
201506160852 METAR KATL 160852Z 30004KT 10SM CLR 25/20 A3013 RMK AO2 SLP189 T02500200 58003=
201506160752 METAR KATL 160752Z 28003KT 10SM CLR 26/20 A3013 RMK AO2 SLP192 T02560200=
201506160652 METAR KATL 160652Z 27005KT 10SM CLR 26/19 A3014 RMK AO2 SLP193 T02560194=
201506160552 METAR KATL 160552Z 28003KT 10SM CLR 27/19 A3014 RMK AO2 SLP193 T02670194 10322 20267 50002=
201506160452 METAR KATL 160452Z 27003KT 10SM CLR 27/19 A3015 RMK AO2 SLP196 T02720189 403440239=
201506160352 METAR KATL 160352Z 00000KT 10SM CLR 28/18 A3014 RMK AO2 SLP195 T02780183=
201506160252 METAR KATL 160252Z 00000KT 10SM CLR 29/19 A3013 RMK AO2 SLP190 T02890189 53013=
201506160152 METAR KATL 160152Z 00000KT 10SM CLR 29/19 A3011 RMK AO2 SLP183 T02940189=
201506160052 METAR KATL 160052Z 00000KT 10SM FEW065 30/18 A3010 RMK AO2 SLP178 T03000178=
201506152352 METAR KATL 152352Z 27003KT 10SM FEW065 32/18 A3009 RMK AO2 SLP177 TCU DSNT N T03220178 10344 20322 55005=
201506152252 METAR KATL 152252Z 29006KT 10SM FEW065 33/18 A3009 RMK AO2 SLP175 T03330183=
201506152152 METAR KATL 152152Z 32006KT 10SM FEW065 34/18 A3009 RMK AO2 SLP176 CB DSNT NE T03390178=
201506152052 METAR KATL 152052Z 30007KT 10SM FEW065 SCT100 34/18 A3011 RMK AO2 SLP182 CB DSNT NE & SW TCU DSNT N & SW & NW T03390183 58015=
201506151952 METAR KATL 151952Z 23004KT 10SM SCT060 32/19 A3012 RMK AO2 SLP188 TCU DSNT NE & SE & NW T03220189=
201506151852 METAR KATL 151852Z 26005KT 10SM FEW060 34/19 A3014 RMK AO2 SLP193 TCU DSNT NW T03390194=
201506151752 METAR KATL 151752Z VRB03KT 10SM FEW060 SCT250 34/19 A3015 RMK AO2 SLP197 T03390194 10339 20272 58008=
201506151652 METAR KATL 151652Z 23007KT 10SM FEW055 SCT250 33/19 A3017 RMK AO2 SLP203 T03280189=
201506151552 METAR KATL 151552Z 35003KT 10SM FEW050 SCT250 32/20 A3018 RMK AO2 SLP206 T03220200=
201506151452 METAR KATL 151452Z 21003KT 10SM FEW045 SCT250 31/20 A3017 RMK AO2 SLP205 T03110200 51007=
201506151352 METAR KATL 151352Z 30003KT 10SM FEW200 31/20 A3017 RMK AO2 SLP205 T03060200=
201506151252 METAR KATL 151252Z 32005KT 10SM FEW250 29/21 A3017 RMK AO2 SLP204 T02890211=
201506151152 METAR KATL 151152Z 30003KT 10SM FEW250 27/21 A3015 RMK AO2 SLP198 T02720206 10278 20239 53005=
201506151052 METAR KATL 151052Z 00000KT 10SM CLR 25/20 A3014 RMK AO2 SLP194 T02500200=
201506150952 METAR KATL 150952Z 00000KT 10SM FEW250 25/20 A3014 RMK AO2 SLP194 T02500200=
201506150852 METAR KATL 150852Z 00000KT 10SM CLR 24/21 A3014 RMK AO2 SLP194 T02440206 56006=
201506150752 METAR KATL 150752Z 31003KT 10SM CLR 26/19 A3014 RMK AO2 SLP194 T02560194=
201506150652 METAR KATL 150652Z 00000KT 10SM FEW250 26/19 A3014 RMK AO2 SLP194 T02610194=
201506150552 METAR KATL 150552Z 00000KT 10SM FEW060 SCT250 26/19 A3016 RMK AO2 SLP199 T02610194 10311 20256 50008=
201506150452 METAR KATL 150452Z 25003KT 10SM FEW140 SCT250 26/20 A3016 RMK AO2 SLP201 T02610200 403330222=
201506150352 METAR KATL 150352Z 20005KT 10SM FEW250 27/21 A3015 RMK AO2 SLP199 T02670206=
201506150252 METAR KATL 150252Z 00000KT 10SM FEW250 28/21 A3013 RMK AO2 SLP191 T02780206 53008=
201506150152 METAR KATL 150152Z 00000KT 10SM FEW200 SCT250 28/21 A3012 RMK AO2 SLP186 T02830206=
201506150052 METAR KATL 150052Z 27003KT 10SM FEW085 SCT200 SCT250 30/19 A3011 RMK AO2 SLP183 T03000189=
201506142352 METAR KATL 142352Z 21004KT 10SM FEW055 SCT100 SCT200 SCT250 31/19 A3011 RMK AO2 SLP183 T03110194 10333 20306 55005=
201506142252 METAR KATL 142252Z 23003KT 10SM FEW055TCU SCT200 SCT250 31/19 A3011 RMK AO2 SLP184 TCU SE & SW & DSNT NE CB DSNT SE T03060189=
201506142152 METAR KATL 142152Z 24006KT 10SM FEW055TCU SCT200 SCT250 33/18 A3011 RMK AO2 SLP183 TCU NW-N & DSNT SE T03280183=
201506142052 METAR KATL 142052Z 00000KT 10SM SCT055 SCT250 32/18 A3012 RMK AO2 SLP190 CB DSNT SE & S T03170183 58014=
201506141952 METAR KATL 141952Z 19004KT 10SM SCT050 31/19 A3014 RMK AO2 SLP195 T03110189=
201506141852 METAR KATL 141852Z VRB04KT 10SM SCT050 SCT230 32/19 A3016 RMK AO2 SLP199 T03220189=
201506141752 METAR KATL 141752Z 25007KT 230V290 10SM FEW050 32/19 A3017 RMK AO2 SLP203 T03220189 10322 20250 58006=
201506141652 METAR KATL 141652Z VRB06KT 10SM FEW045 32/19 A3018 RMK AO2 SLP208 T03170194=
201506141552 METAR KATL 141552Z VRB03KT 10SM FEW040 31/19 A3018 RMK AO2 SLP208 T03060194=
201506141452 METAR KATL 141452Z 29004KT 10SM FEW250 29/19 A3018 RMK AO2 SLP210 T02940189 50007=
201506141352 METAR KATL 141352Z 28004KT 10SM FEW250 28/20 A3019 RMK AO2 SLP210 T02830200=
201506141252 METAR KATL 141252Z 30004KT 10SM FEW250 27/20 A3018 RMK AO2 SLP206 T02670200=
201506141152 METAR KATL 141152Z 32003KT 10SM FEW250 25/19 A3016 RMK AO2 SLP202 T02500194 10256 20222 53010=
201506141052 METAR KATL 141052Z 00000KT 10SM FEW250 23/19 A3014 RMK AO2 SLP197 T02280194=
201506140952 METAR KATL 140952Z 32003KT 10SM CLR 23/20 A3013 RMK AO2 SLP192 T02280200=
201506140852 METAR KATL 140852Z 31004KT 10SM CLR 23/20 A3013 RMK AO2 SLP192 T02280200 55007=
201506140752 METAR KATL 140752Z 29005KT 10SM FEW250 23/19 A3013 RMK AO2 SLP190 T02330194=
201506140652 METAR KATL 140652Z 00000KT 10SM FEW250 23/20 A3013 RMK AO2 SLP192 T02330200=
201506140552 METAR KATL 140552Z 20004KT 10SM FEW250 24/21 A3015 RMK AO2 SLP199 T02440206 10294 20244 58005=
201506140452 METAR KATL 140452Z 23003KT 10SM FEW250 25/21 A3017 RMK AO2 SLP206 T02500206 403170206=
201506140352 METAR KATL 140352Z 21003KT 10SM FEW250 26/21 A3018 RMK AO2 SLP207 T02560206=
201506140252 METAR KATL 140252Z 20004KT 10SM FEW250 26/20 A3017 RMK AO2 SLP205 T02610200 53016=
201506140152 METAR KATL 140152Z 22003KT 10SM FEW110 SCT250 27/20 A3015 RMK AO2 SLP199 T02720200=
201506140052 METAR KATL 140052Z 20005KT 10SM FEW110 SCT250 28/19 A3014 RMK AO2 SLP194 CB DSNT SW & W T02830194=
201506132352 METAR KATL 132352Z 21006KT 10SM FEW050 SCT250 30/19 A3012 RMK AO2 SLP188 CB DSNT S T03000194 10317 20294 55001=
201506132252 METAR KATL 132252Z 20005KT 10SM FEW055 SCT250 31/17 A3010 RMK AO2 SLP181 CB DSNT S T03110172=
201506132152 METAR KATL 132152Z 20005KT 10SM FEW055 SCT250 31/18 A3011 RMK AO2 SLP185 CB DSNT S TCU DSNT W MDT CU NE & NW T03110178=
201506132052 METAR KATL 132052Z 20006KT 10SM SCT055 32/17 A3012 RMK AO2 SLP189 T03170172 57018=
201506131952 METAR KATL 131952Z 18007KT 10SM SCT050 31/19 A3014 RMK AO2 SLP196 T03110189=
201506131852 METAR KATL 131852Z 14003KT 10SM SCT049 BKN200 31/19 A3016 RMK AO2 SLP202 T03060194=
201506131752 METAR KATL 131752Z 23006KT 10SM FEW040 SCT200 31/20 A3018 RMK AO2 SLP208 T03060200 10311 20217 58007=
201506131652 METAR KATL 131652Z 32006KT 10SM FEW033 SCT200 30/20 A3020 RMK AO2 SLP215 T03000200=
201506131552 METAR KATL 131552Z 32005KT 10SM FEW028 SCT180 29/21 A3020 RMK AO2 SLP218 T02890206=
201506131452 METAR KATL 131452Z VRB05KT 10SM SCT150 28/21 A3020 RMK AO2 SLP217 T02780206 51009=
201506131352 METAR KATL 131352Z 30004KT 10SM FEW130 SCT150 26/20 A3020 RMK AO2 SLP217 T02610200=
201506131252 METAR KATL 131252Z 30004KT 10SM FEW120 BKN150 BKN200 24/20 A3018 RMK AO2 SLP212 T02440200=
201506131152 METAR KATL 131152Z 29003KT 10SM FEW120 BKN150 BKN200 22/19 A3017 RMK AO2 SLP209 70009 T02170189 10217 20206 51013=
201506131052 METAR KATL 131052Z 00000KT 10SM FEW120 SCT200 21/18 A3016 RMK AO2 SLP205 T02060183=
201506130952 METAR KATL 130952Z 00000KT 10SM FEW120 BKN200 21/18 A3014 RMK AO2 SLP199 T02060183=
201506130852 METAR KATL 130852Z 00000KT 10SM FEW120 BKN250 21/18 A3013 RMK AO2 SLP195 T02060183 55006=
201506130752 METAR KATL 130752Z 00000KT 10SM FEW120 BKN200 BKN250 21/19 A3013 RMK AO2 SLP193 T02060189=
201506130652 METAR KATL 130652Z 00000KT 10SM SCT120 BKN220 21/19 A3014 RMK AO2 SLP198 T02060189=
201506130552 METAR KATL 130552Z 21004KT 10SM SCT120 BKN200 21/19 A3015 RMK AO2 SLP201 T02110189 10239 20211 58005=
201506130452 METAR KATL 130452Z 18005KT 10SM SCT110 BKN200 21/19 A3017 RMK AO2 SLP207 T02110194 402940206=
201506130352 METAR KATL 130352Z 22008KT 10SM SCT120 BKN200 22/19 A3018 RMK AO2 SLP212 T02220194=
201506130252 METAR KATL 130252Z 22008KT 10SM BKN110 BKN200 23/20 A3017 RMK AO2 SLP207 T02280200 53021=
201506130152 METAR KATL 130152Z 23007KT 10SM BKN100 BKN200 23/21 A3014 RMK AO2 SLP198 T02280206=
201506130052 METAR KATL 130052Z 23005KT 10SM FEW080 SCT150 SCT200 23/20 A3012 RMK AO2 SLP191 T02280200=
201506122352 METAR KATL 122352Z 22004KT 10SM SCT080 BKN110 BKN150 23/21 A3010 RMK AO2 RAE29 SLP186 CB DSNT NE-E P0000 60009 T02330211 10294 20233 50009=
201506122252 METAR KATL 122252Z 27010G20KT 9SM -RA FEW015 SCT030CB BKN050 BKN150 24/20 A3011 RMK AO2 WSHFT 2231 RAB49 SLP188 CB NE & SE-SW MOV NE P0000 T02390200=
201506122152 METAR KATL 122152Z 23008KT 10SM SCT035TCU SCT050 BKN090 28/20 A3008 RMK AO2 SLP174 CB DSNT SW & W-NW TCU NE-OHD-SW T02830200=
201506122052 METAR KATL 122052Z 23008KT 10SM BKN038 BKN080 28/19 A3008 RMK AO2 SLP176 TCU DSNT S & NW 60009 T02780194 56013=
201506121952 METAR KATL 121952Z 27005KT 10SM SCT034 BKN080 28/20 A3008 RMK AO2 SLP177 T02830200=
201506121852 METAR KATL 121852Z VRB04KT 10SM FEW016 SCT036TCU BKN080 27/22 A3011 RMK AO2 RAE25 SLP185 TCU N & E P0009 T02720217=
201506121819 SPECI KATL 121819Z 27006KT 10SM -RA FEW016 BKN036TCU BKN080 26/22 A3012 RMK AO2 VIS LWR NE-E TCU OHD-E & DSNT SW & NW P0009=
201506121801 SPECI KATL 121801Z 30009KT 3SM R09R/2600VP6000FT -RA SCT022 BKN037 BKN047 24/21 A3012 RMK AO2 P0009=
201506121759 SPECI KATL 121759Z 29010G18KT 3SM R09R/2600VP6000FT RA BR FEW016 BKN035 OVC080 24/22 A3012 RMK AO2 P0009=
201506121752 METAR KATL 121752Z COR 27012G18KT 6SM -RA FEW025 BKN034 BKN080 26/21 A3012 RMK AO2 RAE1654B52 SLP189 P0000 60000 T02560206 10289 20217 58008=
201506121656 SPECI KATL 121656Z VRB04KT 10SM SCT025TCU BKN030 BKN040 28/19 A3013 RMK AO2 RAE54 CB DSNT S-SW TCU NE & SW-NW SHRA VC NE & VC SW-NW P0000=
201506121652 METAR KATL 121652Z 24006KT 10SM -RA BKN025TCU BKN030 BKN050 27/20 A3013 RMK AO2 RAB45 SLP193 CB DSNT S-SW TCU OHD & DSNT SW-NW P0000 T02720200=
201506121552 METAR KATL 121552Z 24007KT 190V270 10SM FEW025TCU BKN040 BKN050 27/20 A3014 RMK AO2 SLP196 TCU SW & NW & DSNT N-NE-E T02670200=
201506121459 SPECI KATL 121459Z 25006KT 10SM FEW020 BKN030 BKN150 25/20 A3013 RMK AO2=
201506121452 METAR KATL 121452Z VRB06KT 10SM BKN025 BKN030 BKN150 26/20 A3013 RMK AO2 SLP194 T02560200 56001=
201506121450 SPECI KATL 121450Z 25006KT 10SM BKN025 BKN030 BKN150 26/20 A3013 RMK AO2=
201506121352 METAR KATL 121352Z 26004KT 10SM BKN013 BKN020 BKN250 24/20 A3013 RMK AO2 SLP195 T02440200=
201506121350 SPECI KATL 121350Z VRB04KT 10SM BKN013 OVC020 24/20 A3013 RMK AO2=
201506121334 SPECI KATL 121334Z 20006KT 10SM SCT013 SCT200 24/20 A3013 RMK AO2=
201506121252 METAR KATL 121252Z 22006KT 10SM OVC013 23/19 A3013 RMK AO2 SLP195 CIG 011V015 BINOVC T02280194=
201506121240 SPECI KATL 121240Z 24008KT 10SM OVC011 23/19 A3013 RMK AO2 CIG 009V013 BINOVC=
201506121152 METAR KATL 121152Z 23007KT 10SM OVC008 22/19 A3012 RMK AO2 SLP189 CIG 007V010 BINOVC 70090 T02170194 10222 20206 53021=
201506121052 METAR KATL 121052Z 22004KT 10SM BKN009 BKN140 BKN250 21/19 A3009 RMK AO2 SLP181 CIG 008V011 T02110194=
201506121043 SPECI KATL 121043Z 22004KT 10SM BKN010 BKN140 BKN250 21/19 A3009 RMK AO2 CIG 008V012=
201506120952 METAR KATL 120952Z 21003KT 10SM FEW008 SCT140 SCT200 SCT250 21/19 A3007 RMK AO2 SLP173 T02110189=
201506120852 METAR KATL 120852Z 22004KT 10SM FEW140 SCT250 21/19 A3005 RMK AO2 SLP167 T02110189 53004=
201506120752 METAR KATL 120752Z 22007KT 10SM SCT140 SCT250 22/19 A3005 RMK AO2 SLP165 T02170194=
201506120652 METAR KATL 120652Z 20007KT 10SM FEW022 SCT150 SCT250 22/20 A3005 RMK AO2 SLP165 T02220200=
201506120552 METAR KATL 120552Z 19003KT 10SM FEW022 SCT075 SCT150 BKN250 22/20 A3004 RMK AO2 SLP164 T02220200 10250 20222 50003=
201506120452 METAR KATL 120452Z 20003KT 10SM FEW040 SCT070 BKN150 23/20 A3005 RMK AO2 SLP169 T02280200 403000217=
201506120352 METAR KATL 120352Z 21005KT 10SM FEW040 SCT070 SCT110 23/19 A3004 RMK AO2 SLP165 T02280194=
201506120252 METAR KATL 120252Z 00000KT 10SM FEW050 BKN110 24/19 A3003 RMK AO2 SLP159 T02390194 51013=
201506120152 METAR KATL 120152Z VRB03KT 10SM BKN110 BKN200 24/20 A3003 RMK AO2 SLP158 T02390200=
201506120052 METAR KATL 120052Z 27005KT 10SM FEW110 SCT150 BKN200 BKN250 24/20 A3001 RMK AO2 SLP152 CB DSNT NE T02440200=
201506112352 METAR KATL 112352Z 19005KT 10SM SCT110 BKN150 BKN200 25/19 A2999 RMK AO2 SLP147 CB DSNT NE VCSH E-SE T02500194 10300 20250 51006=
201506112252 METAR KATL 112252Z 19006KT 10SM FEW035 SCT120 BKN200 BKN250 26/19 A2999 RMK AO2 SLP145 CB DSNT NE & SE-S T02560194=
201506112152 METAR KATL 112152Z COR 27006KT 10SM FEW035CB SCT100 BKN150 BKN200 26/19 A2999 RMK AO2 SLP145 VIS LWR E-SE CB E-SE MOV STNRY T02610189=
201506112052 METAR KATL 112052Z VRB03KT 10SM FEW040TCU SCT110 SCT250 29/19 A2997 RMK AO2 SLP138 CB DSNT SW-W & NW-N TCU N-NE-E-SE SHRA DSNT SW-W & NW-N T02940189 56015=
201506111952 METAR KATL 111952Z 21005KT 10SM FEW040TCU SCT070 SCT110 BKN250 29/19 A2998 RMK AO2 SLP142 CB DSNT W-NW TCU SE-S & NW T02890194=
201506111852 METAR KATL 111852Z 09004KT 10SM FEW030 SCT070 SCT250 28/21 A2999 RMK AO2 SLP146 CB DSNT SW & NW TCU DSNT E-SE T02830211=
201506111752 METAR KATL 111752Z 13003KT 10SM FEW025 SCT050 SCT070 BKN250 27/22 A3002 RMK AO2 RAE48 SLP155 CB DSNT N & S & W TCU DSNT E P0000 60090 T02670217 10272 20222 58007=
201506111652 METAR KATL 111652Z 12003KT 9SM -RA SCT018CB BKN075 BKN095 BKN250 23/18 A3004 RMK AO2 WSHFT 1612 TSB1558E37RAB12 SLP165 VIS LWR W SHRA TS DSIPT CB SE-S & W MOV STNRY P0090 T02280183=
201506111638 SPECI KATL 111638Z 11007KT 7SM R09R/3000VP6000FT SCT014CB BKN040 BKN110 BKN250 22/19 A3005 RMK AO2 WSHFT 1612 TSB1558E37RAB12E37 VIS LWR SE-S SHRA TS DSIPT CB OHD-S MOV STNRY P0088 $=
201506111630 SPECI KATL 111630Z 10010G21KT 1 1/2SM R09R/1800V4000FT TSRA BR SCT014CB BKN020 BKN110 22/20 A3006 RMK AO2 WSHFT 1612 SFC VIS 3 TSB1558RAB12 VIS LWR SE-S-SW SHRA OCNL LTGICCG OHD-ALQDS TS OHD-ALQDS MOV STNRY P0079=
201506111624 SPECI KATL 111624Z 09015G22KT 1 1/2SM R09R/2200V2800FT TSRA SCT014CB BKN020 BKN110 22/19 A3006 RMK AO2 SFC VIS 3 TSB1558RAB12 OCNL LTGICCG OHD-ALQDS TS OHD-ALQDS MOV STNRY P0031=
201506111617 SPECI KATL 111617Z 06016G21KT 1SM R09R/2200VP6000FT +TSRA BKN014CB BKN025 OVC110 24/21 A3006 RMK AO2 TWR VIS 1 1/2 TSB1558RAB12 FRQ LTGICCG OHD TS OHD MOV N P0000=
201506111615 SPECI KATL 111615Z 06019KT 1/2SM R09R/2200VP6000FT +TSRA BKN020CB BKN030TCU OVC110 25/21 A3007 RMK AO2 TWR VIS 1 1/2 TSB1558RAB12 PRESRR FRQ LTGICCG OHD TS OHD MOV N P0000=
201506111613 SPECI KATL 111613Z 07015G21KT 3SM R09R/3500VP6000FT +TSRA BKN020CB BKN030TCU OVC110 26/21 A3007 RMK AO2 TSB1558RAB12 PRESRR FRQ LTGICCG OHD-E-SE TS OHD-E-SE MOV N P0000=
201506111603 SPECI KATL 111603Z 26004KT 10SM TS BKN020CB BKN030TCU BKN110 26/21 A3005 RMK AO2 TSB1558 OCNL LTGICCG E-SE TS VC E-SE MOV N SHRA VC E-SE=
201506111559 SPECI KATL 111559Z 24005KT 10SM TS BKN020CB BKN030TCU BKN110 26/21 A3005 RMK AO2 TSB58 OCNL LTGIC N-NE-E-SE TS N-NE-E-SE MOV STNRY SHRA N-NE-E-SE SHRA N-NE-S-SE=
201506111552 METAR KATL 111552Z VRB03KT 10SM SCT020CB BKN030TCU BKN110 26/21 A3004 RMK AO2 SLP163 CB N-NE-E-SE MOV STNRY TCU SW-NW SHRA VC N-NE-E-SE T02610211=
201506111540 SPECI KATL 111540Z 19005KT 10SM SCT020CB BKN035TCU BKN110 27/21 A3004 RMK AO2 CB N-NE-E-SE MOV STNRY TCU SW-NW SHRA VC N-NE-E-SE=
201506111516 SPECI KATL 111516Z 23005KT 10SM FEW020CB BKN030TCU BKN110 27/22 A3004 RMK AO2 CB N & S MOV STNRY TCU ALQDS SHRA VC N & S=
201506111452 METAR KATL 111452Z 21005KT 10SM BKN025TCU BKN030 BKN110 27/22 A3004 RMK AO2 SLP161 TCU OHD-NE-E-SE-S & DSNT SW-NW 60000 T02720217 51005=
201506111352 METAR KATL 111352Z 00000KT 10SM FEW020 SCT110 SCT250 26/21 A3004 RMK AO2 SLP161 TCU DSNT N-NE-E T02560211=
201506111317 SPECI KATL 111317Z 28003KT 10SM FEW010CB BKN110 BKN180 BKN250 24/21 A3003 RMK AO2 CB NW-N MOV STNRY SHRA VC NW-N=
201506111314 SPECI KATL 111314Z 29004KT 10SM BKN009 OVC110 24/21 A3003 RMK AO2=
201506111252 METAR KATL 111252Z 31005KT 10SM FEW012 SCT030CB SCT110 BKN180 24/21 A3004 RMK AO2 RAB21E33 SLP162 CB NW-N MOV STNRY TCU N SHRA NW-N P0000 T02440211=
201506111152 METAR KATL 111152Z 00000KT 8SM FEW008 SCT026TCU BKN075 BKN150 24/21 A3002 RMK AO2 TSE25RAE16 SLP155 TS DSIPTD TCU N & NE-SE & W-NW CB DSNT SW-W VCSH NW P0001 60001 70105 T02390211 10239 20217 51016=
201506111127 SPECI KATL 111127Z 23003KT 10SM FEW008 SCT028TCU BKN150 BKN250 23/20 A3001 RMK AO2 TSE25RAE16 TS DSIPTD TCU W & NW-N CB DSNT S-SW P0001=
201506111052 METAR KATL 111052Z 21004KT 5SM -TSRA BR FEW006 SCT026CB BKN160 BKN250 22/21 A3001 RMK AO2 TSB29RAB39 SLP151 OCNL LTGICCGCA SW-NW TS SW-NW MOV SLOLY SE P0000 T02220206=
201506111029 SPECI KATL 111029Z 00000KT 3SM TS BR SCT004 SCT026CB BKN160 BKN250 22/20 A3000 RMK AO2 TSB29 OCNL LTGICCGCA SW-W TS SW-W MOV SLOLY SE SHRA SW-W=
201506111019 SPECI KATL 111019Z 00000KT 3SM BR SCT004 BKN026CB BKN180 BKN250 22/20 A3000 RMK AO2 CB SW-NW MOV SLOLY SE SHRA SW-NW=
201506110952 METAR KATL 110952Z 10003KT 6SM BR SCT006 BKN024TCU BKN180 BKN250 22/20 A2999 RMK AO2 SLP146 TCU W T02170200=
201506110852 METAR KATL 110852Z 08003KT 6SM BR SCT006 BKN030 BKN200 BKN250 22/20 A2998 RMK AO2 SLP141 T02220200 53005=
201506110752 METAR KATL 110752Z 00000KT 8SM FEW006 SCT027 BKN200 BKN250 22/20 A2996 RMK AO2 SLP136 T02220200=
201506110652 METAR KATL 110652Z 11004KT 10SM FEW200 SCT250 23/21 A2996 RMK AO2 SLP134 T02280206=
201506110552 METAR KATL 110552Z 00000KT 10SM SCT250 23/20 A2996 RMK AO2 SLP135 T02280200 10278 20228 58003=
201506110452 METAR KATL 110452Z 00000KT 10SM SCT250 23/21 A2997 RMK AO2 SLP138 T02330206 402940194=
201506110352 METAR KATL 110352Z 15004KT 10SM SCT250 24/21 A2997 RMK AO2 SLP138 T02390206=
201506110252 METAR KATL 110252Z 14006KT 10SM FEW030 BKN250 24/21 A2997 RMK AO2 SLP139 T02440206 51020=
201506110152 METAR KATL 110152Z 15003KT 10SM SCT200 BKN250 26/22 A2996 RMK AO2 SLP134 T02560217=
201506110052 METAR KATL 110052Z 17005KT 10SM FEW035 SCT200 BKN250 26/21 A2993 RMK AO2 SLP124 OCNL LTG DSNT W-NW T02610211=
201506102352 METAR KATL 102352Z 14005KT 10SM FEW035TCU SCT200 BKN250 28/21 A2991 RMK AO2 SLP118 TCU W 60104 T02780211 10294 20244 55001=
201506102252 METAR KATL 102252Z 14004KT 10SM FEW035 SCT200 BKN250 28/20 A2990 RMK AO2 SLP115 CB DSNT NE & NW-N T02830200=
201506102152 METAR KATL 102152Z 12005KT 10SM FEW030 BKN200 BKN250 28/20 A2990 RMK AO2 TSB2054E38RAE12 SLP115 CB DSNT NE & NW-N TCU DSNT SW P0053 T02780200=
201506102138 SPECI KATL 102138Z 14006KT 10SM FEW030TCU SCT150 BKN250 27/21 A2990 RMK AO2 TSB2054E38RAE12 TS DSIPTD CB DSNT NE TCU VC SW & DSNT NW P0053=
201506102054 SPECI KATL 102054Z 11015G19KT 9SM R09R/3000VP6000FT -TSRA FEW040CB BKN050 BKN250 25/19 A2991 RMK AO2 TSB54 VIS LWR S SHRA OCNL LTGICCG S TS VC S MOV S P0005=
201506102052 METAR KATL 102052Z 11014G19KT 9SM R09R/3500VP6000FT -RA SCT043CB BKN050 BKN250 26/19 A2991 RMK AO2 RAB19 SLP120 VIS LWR N & S SHRA CB N & S MOV S P0051 60051 T02560194 56013=
201506102031 SPECI KATL 102031Z 06010G17KT 8SM R09R/2600V5000FT -RA BKN043CB BKN060 BKN250 26/21 A2991 RMK AO2 RAB19 CB OHD-N MOV SE P0018=
201506102019 SPECI KATL 102019Z 00000KT 8SM RA BKN043CB BKN060 BKN250 29/19 A2992 RMK AO2 RAB19 CB OHD MOV SE P0000=
201506101952 METAR KATL 101952Z 24004KT 10SM BKN045TCU BKN200 BKN250 29/19 A2992 RMK AO2 SLP121 CB DSNT NE TCU OHD & ALQDS T02890189=
201506101852 SPECI KATL 101852Z 18007KT 10SM SCT038TCU SCT200 BKN250 28/20 A2993 RMK AO2 SLP126 TCU OHD-NW-N T02830200=
201506101852 METAR KATL 101852Z 18007KT 10SM SCT038TCU SCT200 BKN250 28/20 A2993 RMK AO2 SLP126 TCU OHD-NW-N T02830200=
201506101752 METAR KATL 101752Z 16005KT 10SM SCT035 SCT200 BKN250 28/20 A2995 RMK AO2 SLP132 TCU DSNT E-SE & DSNT NW T02830200 10289 20206 58005=
201506101652 METAR KATL 101652Z VRB03KT 10SM FEW030 SCT200 BKN250 28/21 A2996 RMK AO2 SLP137 T02780206=
201506101552 METAR KATL 101552Z 00000KT 10SM FEW025 SCT200 BKN250 27/20 A2997 RMK AO2 SLP138 T02670200=
201506101452 METAR KATL 101452Z 00000KT 10SM FEW015 SCT200 BKN250 24/19 A2996 RMK AO2 SLP138 T02390194 50001=
201506101426 SPECI KATL 101426Z 00000KT 10SM FEW006 SCT009 BKN250 23/19 A2996 RMK AO2=
201506101352 METAR KATL 101352Z 31003KT 7SM FEW004 BKN006 BKN250 22/19 A2996 RMK AO2 SLP139 T02220194=
201506101325 SPECI KATL 101325Z 00000KT 3SM BKN005 BKN250 22/19 A2997 RMK AO2 SFC VIS 7=
201506101252 METAR KATL 101252Z 30005KT 3SM BR OVC004 21/19 A2996 RMK AO2 SFC VIS 4 SLP139 CIG 003V005 T02110194=
201506101152 METAR KATL 101152Z 26005KT 3SM BR OVC004 21/19 A2996 RMK AO2 SFC VIS 4 SLP138 CIG 003V005 70112 T02060189 10206 20194 53010=
201506101147 SPECI KATL 101147Z 24004KT 5SM BR OVC004 21/19 A2996 RMK AO2 CIG 003V005=
201506101052 METAR KATL 101052Z 22003KT 7SM BKN006 BKN050 20/19 A2995 RMK AO2 SLP135 T02000189=
201506100952 METAR KATL 100952Z 00000KT 9SM BKN006 BKN050 19/18 A2993 RMK AO2 SLP130 T01940183 $=
201506100945 SPECI KATL 100945Z 23004KT 9SM BKN006 BKN050 19/18 A2993 RMK AO2 $=
201506100852 METAR KATL 100852Z 23003KT 10SM FEW005 SCT055 SCT250 19/18 A2993 RMK AO2 SLP128 T01940183 51004 $=
201506100752 METAR KATL 100752Z 23005KT 10SM SCT004 BKN055 20/18 A2993 RMK AO2 SLP126 T02000183 $=
201506100721 SPECI KATL 100721Z 20003KT 10SM BKN048 20/18 A2992 RMK AO2 $=
201506100652 METAR KATL 100652Z 18004KT 10SM FEW200 BKN250 20/18 A2992 RMK AO2 SLP121 T02000183 $=
201506100552 METAR KATL 100552Z 23003KT 10SM FEW200 BKN250 21/18 A2992 RMK AO2 SLP120 T02060183 10222 20206 58004 $=
201506100452 METAR KATL 100452Z 19004KT 10SM BKN200 OVC250 21/19 A2993 RMK AO2 SLP125 T02060189 403110206 $=
201506100352 METAR KATL 100352Z 24003KT 10SM BKN200 OVC250 21/19 A2993 RMK AO2 SLP126 T02060189 $=
201506100252 METAR KATL 100252Z 18003KT 10SM FEW008 BKN200 OVC250 22/19 A2993 RMK AO2 SLP125 T02170189 53010 $=
201506100152 METAR KATL 100152Z 00000KT 10SM FEW008 SCT150 BKN200 OVC250 22/19 A2990 RMK AO2 SLP117 VIRGA SW-NW-NE T02170189 $=
201506100052 METAR KATL 100052Z 29006KT 10SM FEW008 SCT150 BKN200 OVC250 22/19 A2989 RMK AO2 SLP111 VIRGA NE-OHD-SW T02170189 $=
201506092352 METAR KATL 092352Z 00000KT 10SM FEW020 SCT120CB BKN150 OVC200 21/19 A2990 RMK AO2 SLP115 CBMAM W-NW 60112 T02110194 10311 20211 56003 $=
201506092252 METAR KATL 092252Z 14004KT 10SM FEW050 SCT100 BKN150 OVC200 22/19 A2990 RMK AO2 RAE09 SLP116 CB DSNT W & NW P0000 T02170189 $=
201506092152 METAR KATL 092152Z 21009KT 10SM -RA FEW020 SCT050 BKN090 OVC200 21/18 A2990 RMK AO2 WSHFT 2058 TSE52 SLP116 OCNL LTG DSNT NE & SW TS DSIPTD P0093 T02110183 $=
201506092127 SPECI KATL 092127Z 19014KT 4SM TSRA FEW008CB BKN020 OVC070 21/19 A2992 RMK AO2 WSHFT 2058 VIS LWR SE-SW FRQ LTGICCG SE-SW & DSNT NE TS SE-SW & DSNT NE MOV SE P0089 $=
201506092114 SPECI KATL 092114Z 20011G20KT 1SM R09R/2600V4500FT +TSRA SCT008CB BKN015 OVC040 21/19 A2993 RMK AO2 WSHFT 2058 FRQ LTGICCG OHD-ALQDS TS OHD-ALQDS MOV SE P0059 $=
201506092111 SPECI KATL 092111Z 20014KT 1SM R09R/2000V4500FT +TSRA SCT008CB BKN015 OVC040 21/19 A2993 RMK AO2 SFC VIS 1 1/2 FRQ LTGICCG OHD-ALQDS TS OHD-ALQDS MOV SE P0047 $=
201506092059 SPECI KATL 092059Z 12014G23KT 1/2SM R09R/P6000FT +TSRA BKN008CB BKN015 OVC040 22/20 A2993 RMK AO2 TWR VIS 1 PRESRR FRQ LTGICCG OHD TS OHD MOV SE P0003 $=
201506092057 SPECI KATL 092057Z 12008KT 1SM TSRA SCT008 BKN013CB OVC040 22/20 A2993 RMK AO2 SFC VIS 2 PRESRR FRQ LTGICCG OHD-E-SE-S-SW TS OHD-E-SE-S-SW MOV SE P0003 $=
201506092052 METAR KATL 092052Z 13006G21KT 2SM TSRA BKN008CB BKN020 OVC040 22/20 A2991 RMK AO2 PK WND 17027/2036 PRESRR SLP117 FRQ LTGICCG OHD TS OHD MOV SE P0011 60019 T02170200 53015 $=
201506092042 SPECI KATL 092042Z 17015G27KT 1/2SM R09R/P6000FT +TSRA BKN010CB BKN025 OVC040 22/21 A2987 RMK AO2 PK WND 17027/2036 FRQ LTGICCG OHD TS OHD MOV SE P0009 $=
201506092039 SPECI KATL 092039Z 17019G27KT 4SM TSRA BKN010CB BKN025 OVC040 22/21 A2987 RMK AO2 PK WND 17027/2036 VIS LWR NE-SE-S SHRA FRQ LTGICCG NE-SE-S TS NE-SE-S MOV SE P0009 $=
201506092028 SPECI KATL 092028Z 16015G21KT 1SM R09R/6000VP6000FT +TSRA BKN015CB BKN030 OVC070 24/21 A2987 RMK AO2 PRESRR FRQ LTGICCG OHD-ALQDS TS OHD-ALQDS MOV SE P0004 $=
201506092026 SPECI KATL 092026Z 19011G20KT 160V230 7SM -TSRA SCT015CB BKN030 OVC070 24/21 A2987 RMK AO2 PRESRR FRQ LTGICCG ALQDS TS ALQDS MOV SE P0001 $=
201506092015 SPECI KATL 092015Z 14005KT 9SM -TSRA FEW015CB SCT030TCU BKN110 OVC200 25/21 A2985 RMK AO2 VIS LWR NE & SE-S-SW-W SHRA FRQ LTGICCG NE & SE-S-SW-W TS VC NE & SE-S-SW-W MOV SE P0000 $=
201506092006 SPECI KATL 092006Z 28006KT 9SM -TSRA FEW020CB SCT030TCU BKN110 OVC200 25/19 A2984 RMK AO2 VIS LWR SE & SW & DSNT NE SHRA FRQ LTGICCG SE & SW TS VC SE & SW MOV SE CB DSNT NE & SE & SW MOV SE TCU NW-N P0000 $=
201506091957 SPECI KATL 091957Z 25004KT 9SM -TSRA SCT020CB BKN040 BKN050 OVC200 25/18 A2984 RMK AO2 VIS LWR SE-S-SW-W SHRA FRQ LTGICCG SE TS SE MOV SE P0000 $=
201506091952 METAR KATL 091952Z 21006G19KT 9SM -TSRA FEW010CB BKN040 BKN050 OVC200 25/18 A2986 RMK AO2 PK WND 27037/1941 TSB01RAB42 SLP100 FRQ LTGICCG SE-W & DSNT NE-SE TS SE-W & DSNT NE-SE MOV SE P0008 T02500178=
201506091947 SPECI KATL 091947Z 22007G37KT 180V240 9SM R09R/4000VP6000FT -TSRA FEW016CB BKN040 OVC100 26/18 A2986 RMK AO2 PK WND 27037/1941 TSB01RAB42 VIS LWR S-W SHRA FRQ LTGICCG NE & OHD-S-W TS NE & OHD-S-W MOV SE P0008=
201506091942 SPECI KATL 091942Z COR 25024G37KT 210V280 9SM R09R/4000VP6000FT -TSRA SCT038CB BKN045TCU BKN100 BKN250 27/20 A2985 RMK AO2 PK WND 27037/1941 TSB01RAB42 FRQ LTGICCG NE & OHD-WW TS NE & OHD-W MOV SE TCU NW-N=
201506091933 SPECI KATL 091933Z 26005KT 10SM TS SCT038CB BKN045TCU BKN100 BKN250 29/21 A2985 RMK AO2 TSB01 FRQ LTGICCG NE & W TS VC NE & W MOV SE SHRA VC NE & W CB DSNT E & SW TCU OHD & ALQDS=
201506091918 SPECI KATL 091918Z VRB04KT 10SM TS FEW030CB SCT040TCU BKN250 31/21 A2985 RMK AO2 TSB01 FRQ LTGICCG NE & NW TS VC NE & NW MOV SE SHRA VC NE & NW CB DSNT E TCU SW-NW=
201506091901 SPECI KATL 091901Z 24006KT 10SM TS FEW038CB SCT060 BKN250 30/21 A2986 RMK AO2 TSB01 FRQ LTGICCG NW-N-NE TS VC NW-N-NE MOV SE SHRA NW-N-NE=
201506091852 METAR KATL 091852Z 26007KT 10SM SCT040TCU SCT060 BKN250 31/21 A2986 RMK AO2 SLP100 CB DSNT NE TCU NE-SE & DSNT SW-NW T03060211=
201506091752 METAR KATL 091752Z 26008KT 10SM SCT034TCU SCT110 BKN250 31/21 A2989 RMK AO2 SLP109 CB DSNT SE-S TCU E & S & SW-NW 60000 T03060211 10311 20239 58019=
201506091652 METAR KATL 091652Z 29008G15KT 10SM FEW030 SCT110 SCT250 29/22 A2991 RMK AO2 SLP118 CB DSNT SE & W T02940217=
201506091552 METAR KATL 091552Z 28006KT 10SM FEW030 SCT110 BKN250 28/21 A2994 RMK AO2 SLP126 T02830206=
201506091452 METAR KATL 091452Z 27004KT 9SM FEW015 SCT070 SCT110 BKN250 26/21 A2995 RMK AO2 SLP131 60000 T02560211 58002=
201506091352 METAR KATL 091352Z 26006KT 10SM FEW015 SCT050 BKN110 BKN250 26/22 A2996 RMK AO2 RAB21E39 SLP133 CB DSNT NE P0000 T02560217=
201506091335 SPECI KATL 091335Z 26006KT 10SM -RA FEW016CB SCT047 BKN100 BKN250 25/21 A2996 RMK AO2 RAB21 VIS LWR E SHRA CB OHD-E MOV E P0000=
201506091328 SPECI KATL 091328Z 27005KT 7SM RA FEW016CB SCT050 BKN090 BKN250 25/22 A2996 RMK AO2 RAB21 CB OHD-W MOV E P0000=
201506091318 SPECI KATL 091318Z 27010KT 10SM FEW016CB SCT050 BKN100 BKN250 25/21 A2996 RMK AO2 CB W MOV E SHRA W=
201506091252 METAR KATL 091252Z 25010KT 10SM FEW018TCU SCT070 SCT100 BKN250 25/21 A2996 RMK AO2 SLP134 TCU VC W-NW T02500206=
201506091152 METAR KATL 091152Z 24009KT 10SM FEW012 BKN080 BKN095 BKN150 BKN250 24/21 A2996 RMK AO2 SLP133 CB DSNT NE T02390206 10244 20233 53008=
201506091052 METAR KATL 091052Z 24007KT 10SM FEW040 SCT080 BKN150 BKN250 23/21 A2995 RMK AO2 SLP130 T02330206=
201506090952 METAR KATL 090952Z 23007KT 10SM FEW080 SCT100 SCT150 BKN250 24/21 A2993 RMK AO2 SLP122 T02390206=
201506090852 METAR KATL 090852Z 24008KT 10SM FEW040 BKN110 OVC150 24/21 A2993 RMK AO2 SLP123 T02440206 56009=
201506090752 METAR KATL 090752Z 24005KT 10SM FEW040 BKN120 OVC150 24/20 A2993 RMK AO2 SLP125 T02390200=
201506090652 METAR KATL 090652Z 22007KT 10SM FEW040 SCT100 BKN150 OVC200 24/20 A2994 RMK AO2 SLP127 T02390200=
201506090552 METAR KATL 090552Z 22007KT 10SM FEW040 SCT150 BKN200 BKN250 24/20 A2996 RMK AO2 SLP134 T02440200 10289 20239 58006=
201506090452 METAR KATL 090452Z 21005KT 10SM FEW150 BKN200 OVC250 24/20 A2997 RMK AO2 SLP138 T02440200 403110222=
201506090352 METAR KATL 090352Z 20006KT 10SM FEW045 BKN200 BKN250 24/20 A2999 RMK AO2 SLP143 T02440200=
201506090252 METAR KATL 090252Z 19005KT 10SM FEW045 BKN200 BKN250 25/20 A2998 RMK AO2 SLP140 T02500200 51008=
201506090152 METAR KATL 090152Z 21004KT 10SM FEW150 SCT200 BKN250 26/19 A2997 RMK AO2 SLP138 T02610189=
201506090052 METAR KATL 090052Z 22004KT 10SM FEW150 SCT200 BKN250 27/18 A2996 RMK AO2 SLP135 CB DSNT S T02720183=
201506082352 METAR KATL 082352Z 23006KT 10SM FEW045 SCT200 BKN250 29/18 A2995 RMK AO2 SLP131 CB DSNT E-SE T02890183 10311 20289 55003=
201506082252 METAR KATL 082252Z 21006KT 10SM FEW045 SCT200 BKN250 29/19 A2994 RMK AO2 SLP127 CB DSNT SE T02940189=
201506082152 METAR KATL 082152Z 22010KT 10SM FEW045 SCT110 BKN200 30/19 A2995 RMK AO2 SLP130 CB DSNT SE T03000189=
201506082052 METAR KATL 082052Z 24008KT 10SM FEW045 SCT060 BKN250 31/19 A2996 RMK AO2 SLP135 CB DSNT E TCU DSNT NE-E-SE & DSNT NW T03060194 56024=
201506081952 METAR KATL 081952Z 22009KT 10SM FEW043 SCT100 BKN250 30/19 A2998 RMK AO2 SLP142 CB DSNT E TCU DSNT N & DSNT SE-S T03000189=
201506081852 METAR KATL 081852Z 22013KT 10SM FEW045 BKN100 BKN250 30/19 A3001 RMK AO2 SLP150 CB DSNT E-SE-S TCU DSNT NE & SW T03000189=
201506081752 METAR KATL 081752Z 22009KT 10SM FEW040 BKN100 BKN250 29/20 A3004 RMK AO2 SLP160 CB DSNT E & S TCU DSNT E-SE & DSNT SW T02890200 10294 20233 58015=
201506081652 METAR KATL 081652Z 26006KT 10SM FEW040 SCT070 BKN110 BKN250 28/19 A3006 RMK AO2 SLP168 TCU DSNT NE-E-SE-S T02830189=
201506081552 METAR KATL 081552Z 22010KT 10SM FEW036 SCT100 SCT120 28/19 A3007 RMK AO2 SLP173 TCU DSNT N & DSNT SE T02830194=
201506081452 METAR KATL 081452Z 23008KT 10SM FEW030 SCT120 SCT250 28/19 A3008 RMK AO2 SLP175 T02780194 58002=
201506081352 METAR KATL 081352Z 22004KT 10SM FEW120 SCT250 26/20 A3009 RMK AO2 SLP178 T02610200=
201506081252 METAR KATL 081252Z 21006KT 10SM FEW120 24/19 A3009 RMK AO2 SLP179 T02440194=
201506081152 METAR KATL 081152Z 20008KT 10SM FEW120 23/19 A3009 RMK AO2 SLP178 T02330194 10250 20222 53004=
201506081052 METAR KATL 081052Z 19005KT 10SM SCT060 SCT120 SCT250 23/19 A3008 RMK AO2 SLP174 T02280189=
201506080952 METAR KATL 080952Z 17008KT 10SM SCT060 SCT120 23/19 A3007 RMK AO2 SLP172 T02280189=
201506080852 METAR KATL 080852Z 17006KT 10SM FEW040 SCT075 23/19 A3008 RMK AO2 SLP173 T02280189 51002=
201506080752 METAR KATL 080752Z 17005KT 10SM SCT040 BKN050 BKN075 BKN130 23/19 A3007 RMK AO2 SLP173 T02330189=
201506080652 METAR KATL 080652Z 15005KT 10SM SCT075 SCT130 BKN200 24/19 A3007 RMK AO2 SLP171 T02390189=
201506080552 METAR KATL 080552Z 16004KT 10SM BKN065 BKN110 BKN200 25/18 A3007 RMK AO2 SLP170 T02500183 10300 20239 51008=
201506080452 METAR KATL 080452Z 18004KT 10SM FEW110 SCT200 SCT250 24/19 A3007 RMK AO2 SLP170 T02390189 403170222=
201506080352 METAR KATL 080352Z 19005KT 10SM FEW065 SCT120 SCT250 25/19 A3006 RMK AO2 SLP167 T02500189=
201506080252 METAR KATL 080252Z 18007KT 10SM FEW120 SCT200 BKN250 27/18 A3005 RMK AO2 SLP162 T02670183 53007=
201506080152 METAR KATL 080152Z 17006KT 10SM FEW110 SCT200 BKN250 27/18 A3003 RMK AO2 SLP159 T02720183=
201506080052 METAR KATL 080052Z 16005KT 10SM FEW055TCU SCT110 BKN250 28/17 A3003 RMK AO2 SLP157 TCU NW CB DSNT SW T02830172=
201506072352 METAR KATL 072352Z 16006KT 10SM FEW060TCU SCT110 SCT250 30/17 A3002 RMK AO2 SLP156 TCU S & SW T03000172 10317 20300 53001=
201506072252 METAR KATL 072252Z 14004KT 10SM FEW060TCU SCT110 SCT200 SCT250 31/17 A3001 RMK AO2 SLP152 TCU NW & DSNT NE & SW T03110167=
201506072152 METAR KATL 072152Z 15005KT 10SM FEW065 SCT100 SCT250 31/17 A3002 RMK AO2 SLP155 TCU DSNT NE & S & NW T03110167=
201506072052 METAR KATL 072052Z 20006KT 10SM FEW065 SCT100 SCT250 31/17 A3002 RMK AO2 SLP154 T03110172 58014=
201506071952 METAR KATL 071952Z 16006KT 10SM FEW060 SCT100 31/17 A3004 RMK AO2 SLP159 T03110167=
201506071852 METAR KATL 071852Z 17009KT 10SM BKN060 31/17 A3005 RMK AO2 SLP165 T03110167=
201506071752 METAR KATL 071752Z 14008KT 10SM SCT055 31/18 A3006 RMK AO2 SLP168 T03060178 10311 20244 58005=
201506071652 METAR KATL 071652Z 15005KT 10SM BKN047 30/18 A3007 RMK AO2 SLP170 T03000178=
201506071552 METAR KATL 071552Z 13006KT 10SM SCT042 29/18 A3008 RMK AO2 SLP174 T02940178=
201506071452 METAR KATL 071452Z 13006KT 10SM FEW040 SCT180 28/19 A3008 RMK AO2 SLP174 T02830189 51011=
201506071352 METAR KATL 071352Z VRB03KT 10SM FEW150 27/19 A3007 RMK AO2 SLP173 T02720189=
201506071252 METAR KATL 071252Z 10003KT 10SM FEW150 26/19 A3007 RMK AO2 SLP172 T02560189=
201506071152 METAR KATL 071152Z 08005KT 10SM FEW120 24/18 A3004 RMK AO2 SLP163 T02390183 10261 20222 51019=
201506071052 METAR KATL 071052Z 00000KT 10SM FEW120 23/17 A3003 RMK AO2 SLP159 T02330172=
201506070952 METAR KATL 070952Z 00000KT 10SM FEW120 SCT250 23/17 A3000 RMK AO2 SLP148 T02280167=
201506070852 METAR KATL 070852Z 00000KT 10SM SCT120 BKN250 24/17 A2999 RMK AO2 SLP142 T02390167 55001=
201506070752 METAR KATL 070752Z 14003KT 10SM BKN120 BKN250 24/17 A2998 RMK AO2 SLP139 T02440167=
201506070652 METAR KATL 070652Z 00000KT 10SM BKN120 BKN250 25/17 A2998 RMK AO2 SLP141 T02500167=
201506070552 METAR KATL 070552Z 00000KT 10SM BKN120 BKN250 26/17 A2999 RMK AO2 SLP143 T02610172 10283 20256 50001=
201506070452 METAR KATL 070452Z 09003KT 10SM BKN130 BKN200 BKN250 27/17 A3000 RMK AO2 SLP145 T02670172 403170206=
201506070352 METAR KATL 070352Z 05004KT 10SM FEW140 SCT200 SCT250 27/17 A3000 RMK AO2 SLP146 T02670172=
201506070252 METAR KATL 070252Z 36005KT 10SM FEW200 SCT250 27/17 A2999 RMK AO2 SLP142 T02670172 53013=
201506070152 METAR KATL 070152Z 32005KT 10SM FEW200 SCT250 27/17 A2996 RMK AO2 SLP135 T02670172=
201506070052 METAR KATL 070052Z 30005KT 10SM FEW065 SCT200 SCT250 27/17 A2995 RMK AO2 SLP133 CB DSNT NE T02720167=
201506062352 METAR KATL 062352Z 28007KT 10SM FEW070 SCT250 28/16 A2995 RMK AO2 SLP131 T02830161 10317 20283 53001=
201506062252 METAR KATL 062252Z 33004KT 10SM FEW070 SCT250 31/14 A2994 RMK AO2 SLP127 TCU DSNT SE T03110144=
201506062152 METAR KATL 062152Z VRB04KT 10SM FEW070 SCT250 31/15 A2994 RMK AO2 SLP127 T03110150=
201506062052 METAR KATL 062052Z 29006KT 10SM FEW060 31/16 A2994 RMK AO2 SLP128 T03110156 56013=
201506061952 METAR KATL 061952Z 00000KT 10SM SCT060 31/16 A2995 RMK AO2 SLP132 T03110156=
201506061852 METAR KATL 061852Z 30006KT 10SM SCT060 31/16 A2997 RMK AO2 SLP136 T03060161=
201506061752 METAR KATL 061752Z 34005KT 10SM SCT060 SCT250 30/15 A2998 RMK AO2 SLP141 T03000150 10306 20211 58010=
201506061652 METAR KATL 061652Z 32008KT 10SM SCT050 30/16 A3000 RMK AO2 SLP147 T03000161=
201506061552 METAR KATL 061552Z 35009KT 10SM FEW043 SCT250 29/17 A3001 RMK AO2 SLP152 T02890172=
201506061452 METAR KATL 061452Z VRB04KT 10SM FEW150 SCT250 28/17 A3001 RMK AO2 SLP151 T02830172 51005=
201506061352 METAR KATL 061352Z 03003KT 10SM FEW150 SCT250 26/18 A3001 RMK AO2 SLP151 T02610178=
201506061252 METAR KATL 061252Z 34005KT 10SM SCT250 23/18 A3001 RMK AO2 SLP152 T02330183=
201506061152 METAR KATL 061152Z 34003KT 10SM BKN250 21/18 A3000 RMK AO2 SLP148 T02110178 10222 20206 51007=
201506061052 METAR KATL 061052Z COR 34003KT 10SM FEW120 BKN250 21/17 A2999 RMK AO2 SLP146 T02110172=
201506060952 METAR KATL 060952Z COR 33003KT 10SM FEW120 BKN250 21/17 A2999 RMK AO2 SLP144 T02060172=
201506060852 METAR KATL 060852Z 33005KT 10SM SCT120 BKN250 21/17 A2997 RMK AO2 SLP140 T02110172 55004=
201506060752 METAR KATL 060752Z 31004KT 10SM SCT120 BKN250 21/17 A2997 RMK AO2 SLP140 T02110172=
201506060652 METAR KATL 060652Z 31004KT 10SM SCT120 SCT250 22/17 A2997 RMK AO2 SLP140 T02220172=
201506060552 METAR KATL 060552Z 00000KT 10SM FEW120 SCT250 22/16 A2999 RMK AO2 SLP144 T02170161 10278 20217 58005=
201506060452 METAR KATL 060452Z 29003KT 10SM SCT130 BKN250 23/17 A3000 RMK AO2 SLP147 T02280167 403000189=
201506060352 METAR KATL 060352Z 31005KT 10SM SCT130 24/17 A3000 RMK AO2 SLP149 T02390167=
201506060252 METAR KATL 060252Z 31004KT 10SM FEW100 BKN130 25/17 A3000 RMK AO2 SLP150 T02500167 53010=
201506060152 METAR KATL 060152Z 34007KT 10SM FEW050 BKN110 26/17 A2998 RMK AO2 SLP143 T02560167=
201506060052 METAR KATL 060052Z 31005KT 10SM FEW050 SCT090 BKN110 27/17 A2997 RMK AO2 SLP140 TCU DSNT E-SE T02670167=
201506052352 METAR KATL 052352Z 31007KT 10SM FEW050 28/16 A2997 RMK AO2 SLP141 T02780156 10300 20267 56012=
201506052252 METAR KATL 052252Z 28006KT 10SM FEW050 SCT250 29/17 A2998 RMK AO2 SLP141 TCU DSNT NE T02890167=
201506052152 METAR KATL 052152Z 30007KT 10SM SCT050TCU SCT250 29/17 A2999 RMK AO2 SLP147 TCU SE-S T02940167=
201506052052 SPECI KATL 052052Z 31008KT 10SM SCT049 BKN250 30/17 A3001 RMK AO2 SLP152 T03000172 58019=
201506052052 METAR KATL 052052Z 31008KT 10SM SCT049 BKN250 30/17 A3001 RMK AO2 SLP152 T03000172 58019=
201506051952 METAR KATL 051952Z VRB04KT 10SM SCT049 BKN250 29/17 A3003 RMK AO2 SLP160 T02890172=
201506051852 METAR KATL 051852Z 29009KT 10SM BKN049 BKN250 29/18 A3005 RMK AO2 SLP168 T02890178=
201506051752 METAR KATL 051752Z 34008KT 10SM BKN048 BKN250 28/17 A3007 RMK AO2 SLP173 T02780167 10283 20206 58009=
201506051652 METAR KATL 051652Z VRB03KT 10SM FEW042 SCT250 28/17 A3008 RMK AO2 SLP177 T02780172=
201506051552 METAR KATL 051552Z 00000KT 10SM SCT036 SCT250 26/17 A3009 RMK AO2 SLP181 T02610172=
201506051452 METAR KATL 051452Z 00000KT 10SM FEW030 SCT250 25/17 A3010 RMK AO2 SLP182 T02500172 58004=
201506051352 METAR KATL 051352Z VRB04KT 10SM FEW025 SCT110 SCT250 24/18 A3010 RMK AO2 SLP185 T02390178=
201506051252 METAR KATL 051252Z 08003KT 10SM FEW085 SCT110 SCT250 22/17 A3011 RMK AO2 SLP187 ACC DSNT NE T02220172=
201506051152 METAR KATL 051152Z 07005KT 10SM FEW110 SCT250 21/17 A3011 RMK AO2 SLP187 ACC DSNT NW-N T02060167 10206 20189 53009=
201506051052 METAR KATL 051052Z 08003KT 10SM FEW120 SCT250 19/16 A3010 RMK AO2 SLP184 T01890161=
201506050952 METAR KATL 050952Z 05006KT 10SM FEW120 19/16 A3008 RMK AO2 SLP179 T01940161 $=
201506050852 METAR KATL 050852Z 04006KT 10SM CLR 19/17 A3008 RMK AO2 SLP177 T01940167 51003=
201506050752 METAR KATL 050752Z 07005KT 10SM CLR 19/17 A3008 RMK AO2 SLP177 T01940167=
201506050652 METAR KATL 050652Z 00000KT 10SM CLR 19/17 A3007 RMK AO2 SLP176 T01940167=
201506050552 METAR KATL 050552Z 00000KT 10SM FEW120 20/17 A3007 RMK AO2 SLP175 T02000167 10244 20200 51000=
201506050452 METAR KATL 050452Z 12004KT 10SM FEW120 22/17 A3007 RMK AO2 SLP174 T02170167 402610178=
201506050352 METAR KATL 050352Z 17003KT 10SM FEW120 21/17 A3007 RMK AO2 SLP177 T02060167=
201506050252 METAR KATL 050252Z 13003KT 10SM FEW120 22/17 A3007 RMK AO2 SLP175 T02170172 51008=
201506050152 METAR KATL 050152Z 00000KT 10SM FEW080 23/17 A3006 RMK AO2 SLP173 T02280167=
201506050052 METAR KATL 050052Z 10006KT 10SM FEW080 23/17 A3005 RMK AO2 SLP170 T02330167=
201506042352 METAR KATL 042352Z 09007KT 10SM FEW035 24/17 A3004 RMK AO2 SLP166 T02440167 10261 20233 57003=
201506042252 METAR KATL 042252Z 08003KT 10SM FEW035 SCT080 25/17 A3005 RMK AO2 SLP167 T02500167=
201506042152 METAR KATL 042152Z 06004KT 10SM SCT035TCU SCT150 26/17 A3005 RMK AO2 SLP168 TCU VC N-NE T02560167=
201506042052 METAR KATL 042052Z 09006KT 10SM FEW035 SCT065 26/17 A3005 RMK AO2 SLP168 TCU DSNT S-SW & DSNT NW T02560172 56008=
201506041952 METAR KATL 041952Z 10006KT 10SM SCT030TCU SCT040 BKN065 24/17 A3006 RMK AO2 SLP173 TCU ALQDS T02440172=
201506041852 METAR KATL 041852Z 00000KT 10SM FEW024 BKN040 BKN050 24/17 A3007 RMK AO2 SLP174 T02440172=
201506041818 SPECI KATL 041818Z 12004KT 10SM SCT024 BKN030 BKN040 24/18 A3007 RMK AO2=
201506041752 METAR KATL 041752Z 08007KT 10SM BKN024 BKN030 BKN040 23/17 A3008 RMK AO2 SLP178 T02330172 10233 20178 58005=
201506041652 METAR KATL 041652Z 10006KT 10SM FEW017 BKN020 BKN040 23/17 A3008 RMK AO2 SLP180 T02280172=
201506041606 SPECI KATL 041606Z 08007KT 10SM FEW014 BKN016 OVC040 22/17 A3010 RMK AO2=
201506041552 METAR KATL 041552Z 09004KT 10SM BKN014 BKN017 OVC040 21/17 A3010 RMK AO2 SLP185 T02110167=
201506041452 METAR KATL 041452Z 10006KT 10SM BKN012 BKN015 OVC040 21/16 A3009 RMK AO2 SLP184 T02060161 51010=
201506041352 METAR KATL 041352Z 09008KT 10SM OVC010 19/16 A3009 RMK AO2 SLP183 T01940161=
201506041339 SPECI KATL 041339Z 09008KT 10SM OVC010 19/16 A3009 RMK AO2=
201506041252 METAR KATL 041252Z 07011KT 10SM OVC008 18/16 A3008 RMK AO2 SLP179 CIG 007V010 T01830156=
201506041152 METAR KATL 041152Z 09009KT 10SM OVC006 18/16 A3006 RMK AO2 SLP173 CIG 005V007 70006 T01780156 10189 20178 53016=
201506041052 METAR KATL 041052Z 07007KT 10SM BKN008 OVC018 18/16 A3004 RMK AO2 SLP167 CIG 006V010 BINOVC T01780156=
201506041032 SPECI KATL 041032Z 08008KT 10SM BKN008 BKN022 BKN060 BKN250 18/16 A3003 RMK AO2=
201506040952 METAR KATL 040952Z 06006KT 10SM SCT008 BKN022 BKN060 BKN250 18/16 A3002 RMK AO2 SLP161 T01780156=
201506040852 METAR KATL 040852Z 06009KT 10SM FEW014 BKN024 BKN055 BKN250 18/16 A3001 RMK AO2 SLP156 T01830156 55002=
201506040821 SPECI KATL 040821Z 08006KT 10SM SCT024 SCT050 SCT250 18/15 A3001 RMK AO2=
201506040752 METAR KATL 040752Z 08009KT 10SM BKN022 BKN048 BKN075 BKN250 18/16 A3001 RMK AO2 SLP154 T01830156=
201506040652 METAR KATL 040652Z 09010KT 10SM BKN016 BKN048 BKN070 BKN250 18/16 A3001 RMK AO2 SLP155 T01830156=
201506040643 SPECI KATL 040643Z 08011KT 10SM BKN016 BKN048 BKN070 BKN250 18/16 A3001 RMK AO2=
201506040552 METAR KATL 040552Z 08011KT 10SM FEW016 SCT046 SCT070 SCT250 19/16 A3002 RMK AO2 SLP157 T01890161 10222 20189 50004=
201506040534 SPECI KATL 040534Z 08011KT 10SM SCT018 BKN046 BKN075 BKN250 19/16 A3002 RMK AO2=
201506040452 METAR KATL 040452Z 09012KT 10SM BKN015 OVC075 19/16 A3003 RMK AO2 SLP159 T01940161 402670189=
201506040429 SPECI KATL 040429Z 09009KT 10SM BKN012 BKN075 19/17 A3002 RMK AO2=
201506040352 METAR KATL 040352Z 08009KT 10SM SCT018 20/17 A3002 RMK AO2 SLP156 SCT V BKN T02000167=
201506040331 SPECI KATL 040331Z 08011KT 10SM BKN020 20/17 A3002 RMK AO2=
201506040252 METAR KATL 040252Z 09008KT 10SM FEW110 20/17 A3001 RMK AO2 SLP154 T02000167 53016=
201506040152 METAR KATL 040152Z 15004KT 10SM FEW060 SCT110 21/17 A2998 RMK AO2 SLP145 T02110167=
201506040052 METAR KATL 040052Z 13005KT 10SM FEW018 SCT060 22/17 A2997 RMK AO2 SLP142 TCU DSNT S T02170167=
201506032352 METAR KATL 032352Z 18004KT 10SM FEW018TCU SCT150 SCT200 22/18 A2996 RMK AO2 SLP138 CB DSNT NE TCU VC W 60006 T02170183 10261 20217 53003=
201506032252 METAR KATL 032252Z AUTO 13007KT 10SM FEW018TCU SCT055 BKN150 BKN200 23/19 A2994 RMK AO2 RAE22 SLP132 TCU VC NE & DSNT SW P0001 T02330189=
201506032152 METAR KATL 032152Z 15006KT 8SM -RA FEW020 SCT055 BKN080 OVC200 23/19 A2995 RMK AO2 TSE52 SLP136 OCNL LTG DSNT S TS MOV SE P0005 T02330189=
201506032052 METAR KATL 032052Z 10010KT 10SM -TSRA FEW020CB BKN080 BKN120 OVC200 24/18 A2995 RMK AO2 TSB1958RAB19 SLP134 VIS LWR SW SHRA OCNL LTGICCG SW TS VC SW MOV SE P0000 60000 T02390183 55008=
201506032044 SPECI KATL 032044Z 09009KT 10SM -TSRA FEW020CB BKN085 BKN120 OVC200 24/18 A2995 RMK AO2 TSB1958RAB19 VIS LWR SW SHRA OCNL LTGICCG SW TS VC SW MOV SE P0000=
201506032022 SPECI KATL 032022Z 08010KT 10SM -TSRA FEW030CB BKN090 BKN120 BKN200 24/18 A2995 RMK AO2 TSB1958RAB19 FRQ LTGICCG SW-W TS VC SW-W MOV SE SHRA VC SW-W P0000=
201506031958 SPECI KATL 031958Z 11008KT 10SM TS FEW030CB SCT070 BKN110 BKN200 24/17 A2995 RMK AO2 TSB58 FRQ LTGICCG SW-NW TS VC SW-NW MOV SE SHRA VC SW-NW=
201506031952 METAR KATL 031952Z 11006KT 10SM FEW030 SCT070 BKN110 BKN200 25/18 A2994 RMK AO2 SLP131 FRQ LTGICCG DSNT W-NW CB DSNT W-NW SHRA DSNT W-NW T02500178=
201506031852 METAR KATL 031852Z 12011KT 10SM FEW030 SCT070 BKN200 25/18 A2996 RMK AO2 SLP136 CB DSNT S & NW T02500178=
201506031752 METAR KATL 031752Z 11008KT 10SM SCT030TCU SCT250 26/18 A2998 RMK AO2 SLP141 CB DSNT S & DSNT NW TCU E & NW T02610183 10267 20194 58010=
201506031726 SPECI KATL 031726Z 13008KT 10SM BKN030 BKN070 BKN250 26/19 A2999 RMK AO2 CB DSNT SE-S & DSNT NW $=
201506031652 METAR KATL 031652Z 11005KT 10SM BKN025 BKN070 BKN250 25/18 A3000 RMK AO2 SLP151 CB DSNT NE & SE-SW T02500183 $=
201506031552 METAR KATL 031552Z 11006KT 10SM BKN018 BKN055 BKN250 24/18 A3001 RMK AO2 SLP152 T02390183=
201506031547 SPECI KATL 031547Z 08007KT 10SM BKN016 BKN050 BKN250 23/18 A3001 RMK AO2=
201506031452 METAR KATL 031452Z 08007KT 10SM BKN012 BKN050 BKN250 22/18 A3000 RMK AO2 SLP151 T02170178 51004=
201506031352 METAR KATL 031352Z 08006KT 10SM FEW010 SCT050 SCT250 22/18 A3000 RMK AO2 SLP151 TCU DSNT E T02220178=
201506031252 METAR KATL 031252Z 08006KT 10SM SCT007 SCT048 BKN085 BKN250 21/17 A3000 RMK AO2 SLP150 ACC NE MDT CU NW-N T02060172=
201506031207 SPECI KATL 031207Z 07005KT 10SM SCT007 SCT055 BKN085 BKN250 19/17 A2999 RMK AO2 ACC OHD & ALQDS=
201506031152 METAR KATL 031152Z 09005KT 10SM SCT007 BKN020 BKN075 BKN250 19/17 A2999 RMK AO2 SLP146 ACC OHD & ALQDS T01940167 10222 20189 53009=
201506031108 SPECI KATL 031108Z 09006KT 10SM SCT008 BKN018 BKN070 BKN250 19/17 A2998 RMK AO2 ACC NW-NE=
201506031052 METAR KATL 031052Z 08006KT 10SM FEW008 SCT060 BKN085 BKN250 19/17 A2998 RMK AO2 SLP142 ACC OHD & NW-NE T01890167=
201506030952 METAR KATL 030952Z 09007KT 10SM FEW008 SCT060 SCT100 SCT250 19/17 A2996 RMK AO2 SLP137 T01890167=
201506030852 METAR KATL 030852Z 09006KT 10SM SCT060 SCT110 SCT250 19/17 A2996 RMK AO2 SLP136 T01940167 56003=
201506030752 METAR KATL 030752Z 07005KT 10SM SCT055 SCT100 SCT250 20/17 A2997 RMK AO2 SLP138 T02000172=
201506030652 METAR KATL 030652Z 08006KT 10SM FEW060 SCT100 SCT250 20/17 A2996 RMK AO2 SLP136 T02000172=
201506030552 METAR KATL 030552Z 03003KT 10SM FEW060 SCT100 SCT250 22/17 A2997 RMK AO2 SLP139 OCNL LTGIC DSNT S CB DSNT S 60000 T02170167 10250 20206 58004=
201506030452 METAR KATL 030452Z 33003KT 10SM FEW060 SCT100 BKN250 21/17 A2999 RMK AO2 SLP145 T02110167 402890183=
201506030352 METAR KATL 030352Z 36005KT 10SM FEW060 SCT250 23/16 A2998 RMK AO2 SLP143 T02280156=
201506030252 METAR KATL 030252Z 00000KT 10SM FEW040 SCT060 BKN100 BKN200 23/15 A2998 RMK AO2 TSE47RAE23 SLP143 OCNL LTGIC DSNT SE P0000 60000 T02280150 53014=
201506030247 SPECI KATL 030247Z 00000KT 10SM FEW040 SCT065 BKN100 BKN200 23/16 A2998 RMK AO2 TSE47RAE23 OCNL LTGIC DSNT SE TS MOV E P0000=
201506030152 METAR KATL 030152Z 02010KT 7SM -TSRA SCT040CB BKN070 BKN200 22/17 A2996 RMK AO2 RAB0059 SLP138 OCNL LTGICCGCA N-NE TS N-NE MOV E P0000 T02170167=
201506030144 SPECI KATL 030144Z 36013KT 7SM -TSRA SCT040CB BKN070 BKN200 23/16 A2996 RMK AO2 RAB0059 FRQ LTGICCGCA NW-NE-E TS NW-NE-E MOV E P0000=
201506030138 SPECI KATL 030138Z 36010G20KT 4SM TSRA BKN040CB BKN070 BKN200 22/17 A2996 RMK AO2 RAB0059 VIS LWR NW-NE FRQ LTGICCGCA NE-OHD-W TS NE-OHD-W MOV E P0000=
201506030134 SPECI KATL 030134Z 36012G20KT 2 1/2SM +TSRA BKN040CB BKN070 BKN200 22/17 A2996 RMK AO2 RAB0059 VIS LWR W-N-NE FRQ LTGICCGCA NE-OHD-W TS NE-OHD-W MOV E P0000=
201506030052 METAR KATL 030052Z 00000KT 10SM TS SCT045CB BKN100 BKN250 24/16 A2994 RMK AO2 TSB50 SLP130 OCNL LTGICCG NW-N TS NW-N MOV E T02440161=
201506030050 SPECI KATL 030050Z 24003KT 10SM TS SCT045CB BKN100 BKN250 24/16 A2994 RMK AO2 TSB50 OCNL LTGIC NW-N TS NW-N MOV E=
201506022352 METAR KATL 022352Z 17007KT 10SM FEW045CB SCT100 SCT250 25/16 A2994 RMK AO2 TSB10E49 SLP129 CB VC SE-S & DSNT E-SE MOV E T02500156 10289 20250 55000=
201506022349 SPECI KATL 022349Z 17008KT 10SM FEW045CB SCT100 SCT250 25/16 A2994 RMK AO2 TSB10E49 TS DSIPTD CB VC SE-S & DSNT E-SE MOV E=
201506022310 SPECI KATL 022310Z 27007KT 10SM TS FEW045CB SCT100 SCT250 28/16 A2993 RMK AO2 TSB10 OCNL LTGIC SW-S TS VC SW-S MOV E=
201506022252 METAR KATL 022252Z 28008KT 10SM SCT050TCU BKN250 28/15 A2993 RMK AO2 SLP126 TCU E-S-SW & DSNT NW-NE VCSH S-SW T02780150=
201506022152 METAR KATL 022152Z 29007KT 10SM SCT050TCU BKN250 29/16 A2994 RMK AO2 SLP128 TCU E-S T02890161=
201506022052 METAR KATL 022052Z 27007KT 10SM FEW050 SCT250 28/16 A2994 RMK AO2 SLP129 TCU DSNT E & S & W T02830161 58024=
201506021952 METAR KATL 021952Z COR 29003KT 10SM FEW050 SCT070 SCT250 28/16 A2997 RMK AO2 SLP138 TCU DSNT N & DSNT E-SE-S T02830161=
201506021852 METAR KATL 021852Z 32008KT 10SM FEW045 BKN065 BKN250 27/17 A2999 RMK AO2 SLP147 CB DSNT W TCU DSNT SE & NW T02670167=
201506021752 METAR KATL 021752Z COR 29006KT 10SM SCT050TCU SCT250 27/17 A3001 RMK AO2 SLP153 CB DSNT W TCU SW-NW T02720167 10278 20200 58013=
201506021652 METAR KATL 021652Z COR 27006KT 10SM BKN040TCU 26/16 A3003 RMK AO2 SLP158 TCU OHD & ALQDS T02610161=
201506021552 METAR KATL 021552Z 00000KT 10SM FEW034 SCT110 SCT250 26/17 A3004 RMK AO2 SLP163 T02610167=
201506021452 METAR KATL 021452Z 26006KT 10SM FEW025 SCT040 SCT250 24/17 A3005 RMK AO2 SLP166 T02440167 50002=
201506021352 METAR KATL 021352Z 00000KT 10SM FEW020 SCT250 23/18 A3005 RMK AO2 SLP169 T02280178=
201506021252 METAR KATL 021252Z 30005KT 10SM FEW037 SCT250 22/18 A3005 RMK AO2 SLP168 T02170178=
201506021152 METAR KATL 021152Z COR 00000KT 10SM FEW015 SCT037 SCT060 SCT250 20/18 A3004 RMK AO2 SLP166 60012 70015 T02000178 10211 20183 53007=
201506021052 METAR KATL 021052Z 30003KT 10SM FEW060 SCT250 18/17 A3002 RMK AO2 SLP159 T01830172=
201506020952 METAR KATL 020952Z 00000KT 10SM FEW009 SCT060 BKN140 BKN250 19/18 A3001 RMK AO2 SLP156 T01940178=
201506020927 SPECI KATL 020927Z 00000KT 10SM FEW009 BKN060 19/17 A3002 RMK AO2=
201506020852 METAR KATL 020852Z 31005KT 7SM FEW005 BKN008 OVC017 20/18 A3002 RMK AO2 SLP158 BINOVC 60012 T02000183 55007=
201506020752 METAR KATL 020752Z 26004KT 7SM BKN007 OVC011 21/19 A3001 RMK AO2 RAE03 SLP155 P0000 T02060189=
201506020652 METAR KATL 020652Z 21004KT 5SM -RA BR FEW004 BKN009TCU OVC031 21/19 A3002 RMK AO2 RAB31 SLP158 TCU OHD-N P0012 T02060189=
201506020640 SPECI KATL 020640Z 20004KT 2SM +RA BR SCT004 BKN013TCU OVC033 21/19 A3003 RMK AO2 RAB31 TCU OHD P0008=
201506020552 METAR KATL 020552Z 13005KT 8SM BKN009 OVC020 21/19 A3004 RMK AO2 SLP164 T02110189 10233 20206 58007 $=
201506020542 SPECI KATL 020542Z 14004KT 10SM BKN009 BKN020 OVC080 21/19 A3005 RMK AO2=
201506020525 SPECI KATL 020525Z 00000KT 10SM FEW008 SCT023 BKN085 BKN250 21/19 A3006 RMK AO2=
201506020452 METAR KATL 020452Z 00000KT 10SM SCT120 BKN250 21/19 A3006 RMK AO2 SLP170 T02060189 402670200=
201506020352 METAR KATL 020352Z 22004KT 10SM FEW120 BKN250 21/19 A3005 RMK AO2 SLP168 T02110189=
201506020252 METAR KATL 020252Z 17004KT 10SM SCT100 BKN130 OVC200 23/19 A3006 RMK AO2 SLP171 T02280194 52016=
201506020152 METAR KATL 020152Z 28003KT 10SM BKN100 BKN130 OVC200 23/19 A3004 RMK AO2 SLP166 OCNL LTG DSNT NW T02280189=
201506020052 METAR KATL 020052Z 00000KT 10SM FEW100 BKN150CB BKN200 OVC250 23/19 A3003 RMK AO2 SLP161 CBMAM SE-OHD-NW T02280189=
201506012352 METAR KATL 012352Z 20003KT 10SM FEW100 BKN150 BKN200 BKN250 23/19 A3001 RMK AO2 SLP155 CB DSNT N 60003 T02330189 10267 20233 58007=
201506012252 METAR KATL 012252Z 19005KT 10SM FEW025 BKN100 BKN200 OVC250 24/19 A3002 RMK AO2 SLP158 CB DSNT NW T02390189=
201506012152 METAR KATL 012152Z 23005KT 10SM FEW025 BKN090 BKN200 BKN250 23/18 A3004 RMK AO2 TSE29 SLP165 CB DSNT NE VCSH SE-S T02330178=
201506012129 SPECI KATL 012129Z 20006KT 10SM FEW025 BKN090 BKN200 BKN250 24/18 A3004 RMK AO2 TSE29 TS DSIPTD CB DSNT NE VCSH E-SE=
201506012052 METAR KATL 012052Z 24004KT 10SM TS FEW025CB BKN090 BKN250 25/19 A3004 RMK AO2 TSB51 SLP163 OCNL LTGIC SE TS VC SE MOV NE SHRA VC SE 60003 T02500189 55019=
201506011952 METAR KATL 011952Z 22004KT 10SM FEW030 SCT050 SCT100 BKN250 26/21 A3003 RMK AO2 RAB25E50 SLP161 CB DSNT NE & DSNT E-SE-S TCU DSNT NW P0003 T02560206=
201506011930 SPECI KATL 011930Z 27009KT 7SM -RA FEW033 BKN050 BKN090 BKN250 24/19 A3004 RMK AO2 RAB25 P0001=
201506011852 METAR KATL 011852Z 23006KT 10SM SCT027TCU SCT100 BKN250 26/19 A3006 RMK AO2 SLP169 CB DSNT NE & E & S TCU W-NW-N T02610189=
201506011752 METAR KATL 011752Z 18007KT 10SM FEW023TCU BKN095 BKN250 26/19 A3009 RMK AO2 SLP182 CB DSNT N TCU NW ACC DSNT E T02560189 10256 20206 58002=
201506011652 METAR KATL 011652Z 17009KT 10SM FEW020 SCT080 BKN250 25/19 A3011 RMK AO2 SLP189 T02500189=
201506011620 SPECI KATL 011620Z 18007KT 10SM SCT020 BKN080 BKN250 24/19 A3011 RMK AO2=
201506011552 METAR KATL 011552Z VRB04KT 10SM BKN020 BKN080 BKN250 24/19 A3011 RMK AO2 SLP189 T02390189=
201506011452 METAR KATL 011452Z 22005KT 10SM BKN015 BKN080 BKN250 23/19 A3010 RMK AO2 SLP185 T02330189 51000=
201506011450 SPECI KATL 011450Z 21006KT 10SM BKN015 BKN075 BKN250 23/19 A3010 RMK AO2=
201506011352 METAR KATL 011352Z 19004KT 10SM FEW015 SCT025 SCT070 BKN250 22/19 A3010 RMK AO2 SLP186 T02220189=
201506011347 SPECI KATL 011347Z 17004KT 10SM FEW017 SCT024 SCT070 BKN250 22/19 A3010 RMK AO2=
201506011252 METAR KATL 011252Z 22004KT 10SM FEW008 BKN022 BKN200 22/19 A3009 RMK AO2 SLP183 T02170189=
