##########################################################
# Query made at 04/19/2024 23:42:20 UTC
# Time interval: from 02/01/2015 12:00  to 02/28/2015 12:59  UTC
##########################################################

##########################################################
# KATL, Atlanta, Hartsfield - Jackson Atlanta International Airport (United States)
# WMO index: 72219. WIGOS ID: 0-20000-0-72219
# Latitude 33-38-59N. Longitude 084-25-00W. Altitude 312 m.
##########################################################

201502281252 METAR KATL 281252Z 09014KT 10SM SCT100 BKN130 02/M02 A3053 RMK AO2 SLP346 T00221017=
201502281152 METAR KATL 281152Z 08009KT 10SM SCT100 BKN140 02/M02 A3052 RMK AO2 SLP343 T00221022 10022 21006 53023=
201502281052 METAR KATL 281052Z 06009KT 10SM OVC100 02/M03 A3049 RMK AO2 SLP332 T00221033=
201502280952 METAR KATL 280952Z 03008KT 10SM BKN100 BKN150 02/M04 A3047 RMK AO2 SLP325 T00171044=
201502280852 METAR KATL 280852Z 01007KT 10SM SCT150 01/M06 A3045 RMK AO2 SLP318 T00061061 53003=
201502280752 METAR KATL 280752Z 35004KT 10SM SCT150 M01/M07 A3044 RMK AO2 SLP315 T10061067=
201502280652 METAR KATL 280652Z 34004KT 10SM SCT150 00/M07 A3045 RMK AO2 SLP319 T00001067=
201502280552 METAR KATL 280552Z 34006KT 10SM BKN150 00/M07 A3044 RMK AO2 SLP315 T00001067 10050 20000 51004=
201502280452 METAR KATL 280452Z 33008KT 10SM BKN150 01/M07 A3044 RMK AO2 SLP316 T00061067 400891017=
201502280352 METAR KATL 280352Z 34006KT 10SM BKN150 01/M07 A3043 RMK AO2 SLP313 T00111067=
201502280252 METAR KATL 280252Z 34006KT 10SM FEW250 02/M07 A3043 RMK AO2 SLP312 T00171067 53015=
201502280152 METAR KATL 280152Z 34009KT 10SM FEW250 03/M06 A3040 RMK AO2 SLP304 T00281061=
201502280052 METAR KATL 280052Z 33009KT 10SM FEW250 04/M06 A3040 RMK AO2 SLP302 T00391061=
201502272352 METAR KATL 272352Z 33006KT 10SM FEW250 06/M07 A3038 RMK AO2 SLP296 T00561072 10089 20056 53009=
201502272252 METAR KATL 272252Z 34007KT 10SM FEW250 07/M08 A3036 RMK AO2 SLP289 T00721078=
201502272152 METAR KATL 272152Z 33007G15KT 10SM FEW250 08/M08 A3035 RMK AO2 SLP285 T00831078=
201502272052 METAR KATL 272052Z 34008KT 10SM FEW250 08/M06 A3035 RMK AO2 SLP285 T00831061 55006=
201502271952 METAR KATL 271952Z 34007KT 300V010 10SM FEW250 09/M04 A3035 RMK AO2 SLP284 T00891039=
201502271852 METAR KATL 271852Z 34005KT 10SM FEW250 08/M04 A3035 RMK AO2 SLP284 T00781044=
201502271752 METAR KATL 271752Z 29005KT 10SM FEW250 07/M04 A3037 RMK AO2 SLP292 T00671039 10072 21017 58002=
201502271652 METAR KATL 271652Z 32006KT 10SM FEW250 05/M03 A3040 RMK AO2 SLP301 T00501033=
201502271552 METAR KATL 271552Z 33009KT 10SM FEW250 04/M03 A3039 RMK AO2 SLP301 T00391028=
201502271452 METAR KATL 271452Z 33011KT 10SM FEW250 02/M04 A3038 RMK AO2 SLP295 T00221039 51028=
201502271352 METAR KATL 271352Z 32014KT 10SM FEW250 01/M04 A3036 RMK AO2 SLP289 T00061044=
201502271252 METAR KATL 271252Z 32012KT 9SM FEW250 M01/M04 A3032 RMK AO2 SLP278 T10111044=
201502271152 METAR KATL 271152Z 32010KT 10SM FEW200 M01/M04 A3029 RMK AO2 SLP267 T10111044 10006 21011 53027=
201502271052 METAR KATL 271052Z 32012KT 9SM FEW250 M01/M04 A3026 RMK AO2 SLP256 T10111039=
201502270952 METAR KATL 270952Z 32009KT 10SM FEW250 M01/M04 A3023 RMK AO2 SLP245 T10061039=
201502270852 METAR KATL 270852Z 33006KT 10SM FEW250 00/M03 A3021 RMK AO2 SLP239 T00001033 53011=
201502270752 METAR KATL 270752Z 32010KT 10SM FEW250 00/M03 A3020 RMK AO2 SLP235 T00001028=
201502270652 METAR KATL 270652Z 34007KT 10SM FEW250 01/M02 A3018 RMK AO2 SLP228 T00061022=
201502270552 METAR KATL 270552Z 32008KT 10SM SCT250 01/M02 A3018 RMK AO2 SLP226 T00061022 10033 20006 51012=
201502270452 METAR KATL 270452Z 31006KT 10SM SCT250 01/M02 A3017 RMK AO2 SLP224 T00061017 400610006=
201502270352 METAR KATL 270352Z 32004KT 10SM BKN250 01/M02 A3016 RMK AO2 SLP222 T00111017=
201502270252 METAR KATL 270252Z 31005KT 10SM FEW028 SCT250 02/M01 A3014 RMK AO2 SLP214 T00171011 51022=
201502270152 METAR KATL 270152Z 31006KT 10SM FEW026 BKN250 03/M02 A3012 RMK AO2 SLP208 T00281017=
201502270115 SPECI KATL 270115Z 34008KT 10SM SCT022 BKN250 03/M02 A3011 RMK AO2=
201502270052 METAR KATL 270052Z 33010KT 10SM OVC020 03/M01 A3010 RMK AO2 SLP201 T00331011=
201502262352 METAR KATL 262352Z 32010KT 10SM OVC018 03/M01 A3007 RMK AO2 SLP191 T00331011 10050 20028 53024=
201502262252 METAR KATL 262252Z 33011G24KT 10SM OVC017 03/M01 A3004 RMK AO2 SLP180 T00331011=
201502262152 METAR KATL 262152Z 32008KT 10SM OVC014 03/M01 A3001 RMK AO2 SLP170 T00331006=
201502262052 METAR KATL 262052Z 31011KT 10SM OVC014 03/M01 A3000 RMK AO2 SLP165 T00331006 51021=
201502261952 METAR KATL 261952Z 31009KT 10SM OVC014 03/00 A2998 RMK AO2 SLP160 T00330000=
201502261852 METAR KATL 261852Z 30011KT 10SM OVC016 04/00 A2995 RMK AO2 SLP148 T00390000=
201502261752 METAR KATL 261752Z 34013G21KT 10SM BKN018 BKN250 05/01 A2993 RMK AO2 SLP143 T00500006 10061 20006 53008=
201502261652 METAR KATL 261652Z 29011KT 10SM SCT016 BKN250 06/01 A2992 RMK AO2 SLP139 T00560011=
201502261552 METAR KATL 261552Z 31007KT 10SM FEW008 SCT012 SCT250 03/01 A2991 RMK AO2 SLP136 T00330006=
201502261550 SPECI KATL 261550Z 30006KT 10SM FEW008 SCT012 SCT250 03/00 A2991 RMK AO2=
201502261452 METAR KATL 261452Z 29005KT 7SM OVC006 02/00 A2988 RMK AO2 SLP128 CIG 005V007 BINOVC T00170000 51032=
201502261352 METAR KATL 261352Z 30007KT 3SM BR OVC005 01/M01 A2987 RMK AO2 SFC VIS 6 SLP124 CIG 004V006 T00061006=
201502261252 METAR KATL 261252Z 30008KT 3SM BR OVC005 01/M01 A2984 RMK AO2 SFC VIS 5 SLP112 CIG 004V006 BINOVC T00061006=
201502261222 SPECI KATL 261222Z 31012KT 3SM OVC005 01/M01 A2982 RMK AO2 SFC VIS 7 CIG 004V006 BINOVC=
201502261211 SPECI KATL 261211Z 31010KT 3SM BR BKN004 BKN030 BKN120 01/M01 A2981 RMK AO2 SFC VIS 5=
201502261207 SPECI KATL 261207Z 30008KT 5SM BR BKN004 BKN030 BKN120 01/M01 A2980 RMK AO2=
201502261152 METAR KATL 261152Z 28005KT 6SM BR FEW030 SCT120 01/M01 A2979 RMK AO2 SLP094 60000 70069 T00061006 10022 20006 51020=
201502261052 METAR KATL 261052Z 31007KT 3SM SCT005 BKN030 OVC110 01/00 A2977 RMK AO2 SFC VIS 7 DZE50 SLP090 P0000 T00110000=
201502260952 METAR KATL 260952Z COR 34006KT 3SM -DZ BR SCT003 BKN007 OVC014 02/00 A2975 RMK AO2 SLP081 CIG 006V008 PCPN VRY LGT P0000 T00170000=
201502260852 METAR KATL 260852Z 35007KT 6SM -DZ BR OVC006 02/00 A2973 RMK AO2 DZB50 SLP073 CIG 004V007 P0000 60000 T00170000 53011=
201502260752 METAR KATL 260752Z 33008KT 10SM BKN008 OVC035 02/00 A2971 RMK AO2 SLP066 CIG 007V010 T00170000=
201502260736 SPECI KATL 260736Z 01009KT 10SM BKN008 OVC037 02/00 A2970 RMK AO2 CIG 007V010=
201502260713 SPECI KATL 260713Z 04009KT 10SM SCT010 BKN032 OVC100 02/00 A2968 RMK AO2=
201502260652 METAR KATL 260652Z 03009KT 10SM BKN010 OVC028 02/00 A2969 RMK AO2 SLP060 CIG 008V012 T00220000=
201502260633 SPECI KATL 260633Z 02008KT 10SM BKN010 OVC022 02/01 A2969 RMK AO2 CIG 008V012=
201502260552 METAR KATL 260552Z 01010KT 10SM BKN008 OVC020 02/01 A2969 RMK AO2 SLP061 RAE26 P0000 60025 T00220006 10022 20017 58004=
201502260452 METAR KATL 260452Z 02012KT 8SM -RA BKN006 OVC020 02/01 A2970 RMK AO2 SLP064 CIG 004V009 PCPN VRY LGT P0004 T00220006 400330000=
201502260419 SPECI KATL 260419Z 02008KT 4SM -RA BR BKN006 OVC020 02/01 A2972 RMK AO2 CIG 004V009 P0004=
201502260352 METAR KATL 260352Z 35005KT 2 1/2SM -RA BR OVC007 02/01 A2974 RMK AO2 SLP077 CIG 005V010 P0000 T00220006=
201502260252 METAR KATL 260252Z 09010KT 4SM -RA BR OVC006 02/01 A2970 RMK AO2 SLP066 CIG 004V008 P0001 60021 T00170006 55009=
201502260152 METAR KATL 260152Z 07011KT 7SM -RA BKN006 OVC025 02/01 A2970 RMK AO2 SLP064 CIG 004V009 P0009 T00170006=
201502260052 METAR KATL 260052Z COR 08009KT 3SM RA BR OVC007 02/01 A2973 RMK AO2 SLP076 CIG 005V010 P0011 T00170006=
201502252352 METAR KATL 252352Z 07011KT 5SM -RA BR BKN006 OVC040 02/01 A2973 RMK AO2 PRESRR SLP076 CIG 004V008 P0006 60044 T00170006 10033 20017 58025=
201502252322 SPECI KATL 252322Z 08014KT 2SM -RA BR BKN006 BKN040 OVC070 02/01 A2970 RMK AO2 SFC VIS 4 PRESFR CIG 004V008 P0005=
201502252321 SPECI KATL 252321Z 08015KT 3SM -RA BR BKN006 BKN040 OVC070 02/01 A2971 RMK AO2 SFC VIS 4 PRESFR CIG 004V008 P0005=
201502252252 METAR KATL 252252Z 10009KT 3SM -RA BR BKN006 BKN040 OVC070 02/01 A2977 RMK AO2 SNE25PLE25 SLP088 CIG 004V009 P0004 T00170006=
201502252240 SPECI KATL 252240Z 08012KT 3SM -RA BR BKN006 BKN020 OVC070 02/01 A2977 RMK AO2 SFC VIS 4 SNE25PLE25 P0004=
201502252225 SPECI KATL 252225Z 05011KT 1 1/2SM -RA BR BKN006 BKN020 OVC070 02/01 A2977 RMK AO2 SFC VIS 4 SNE25PLE25 P0003=
201502252216 SPECI KATL 252216Z 04011KT 1 1/2SM -PLSNRA BR BKN006 BKN020 OVC070 02/00 A2976 RMK AO2 SFC VIS 3 PRESFR P0003 $=
201502252209 SPECI KATL 252209Z 06010KT 3SM -PLSNRA BR SCT007 BKN020 OVC070 02/00 A2978 RMK AO2 P0003 $=
201502252200 SPECI KATL 252200Z 08009KT 3SM -PLSNRA BR SCT009 BKN040 OVC080 02/00 A2979 RMK AO2 PRESFR P0001 $=
201502252152 METAR KATL 252152Z 08008KT 3SM -PLSNRA BR BKN009 BKN040 OVC080 02/00 A2980 RMK AO2 PLB39SNB49 PRESFR SLP099 P0006 T00170000=
201502252139 SPECI KATL 252139Z 12004KT 4SM -PLRA BR BKN009 BKN040 OVC080 02/00 A2984 RMK AO2 PLB39 P0003=
201502252052 METAR KATL 252052Z 07007KT 3SM -RA BR FEW005 BKN060 OVC090 02/00 A2981 RMK AO2 SFC VIS 4 PLB06E28 SLP102 P0013 60028 T00220000 58019=
201502252028 SPECI KATL 252028Z 07008KT 3SM -RA BR FEW005 BKN060 OVC080 02/00 A2982 RMK AO2 SFC VIS 3 PLB06E28 P0007=
201502252014 SPECI KATL 252014Z 11006KT 3SM -PLRA BR FEW005 BKN050 OVC070 02/00 A2985 RMK AO2 SFC VIS 5 PLB06 P0002=
201502252007 SPECI KATL 252007Z 10005KT 3SM PL BR FEW005 BKN050 OVC070 02/M01 A2984 RMK AO2 RAE06PLB06 P0001=
201502251955 SPECI KATL 251955Z 12004G14KT 9SM -RA FEW005 BKN050 OVC080 02/00 A2987 RMK AO2 PRESRR P0000=
201502251952 METAR KATL 251952Z VRB04G14KT 6SM -RA BR FEW005 BKN060 OVC080 02/00 A2986 RMK AO2 PLB24E41 PRESRR SLP120 P0010 T00220000=
201502251941 SPECI KATL 251941Z 08009KT 4SM -RA BR FEW005 BKN060 OVC120 02/01 A2980 RMK AO2 PLB24E41 P0009=
201502251936 SPECI KATL 251936Z 09009KT 4SM -PLRA BR BKN060 BKN080 OVC120 02/00 A2979 RMK AO2 PLB24 PRESFR P0008=
201502251931 SPECI KATL 251931Z 10005KT 3SM PLRA BR BKN060 BKN080 OVC120 02/00 A2983 RMK AO2 PLB24 PRESFR P0006=
201502251925 SPECI KATL 251925Z 17006KT 4SM -PLRA BR BKN065 BKN080 OVC120 02/00 A2988 RMK AO2 PLB24 P0005=
201502251852 METAR KATL 251852Z 16005KT 5SM -RA FEW060 BKN080 OVC120 02/M01 A2984 RMK AO2 PLE07 SLP114 P0005 T00221011=
201502251807 SPECI KATL 251807Z 08006KT 8SM -RA FEW060 BKN080 OVC120 03/M03 A2984 RMK AO2 PLE07 P0000=
201502251752 METAR KATL 251752Z 04006KT 10SM -PLRA FEW050 BKN070 OVC090 03/M04 A2987 RMK AO2 RAB07PLB10 SLP121 P0000 60000 T00281039 10033 20000 58030=
201502251738 SPECI KATL 251738Z 04006KT 10SM -PLRA BKN070 BKN090 OVC120 03/M03 A2987 RMK AO2 RAB07PLB10 P0000=
201502251729 SPECI KATL 251729Z 05005KT 10SM -RA BKN070 BKN090 OVC120 03/M03 A2987 RMK AO2 RAB07PLB10E29 P0000=
201502251710 SPECI KATL 251710Z 34004KT 10SM -PLRA BKN085 BKN120 OVC150 03/M04 A2992 RMK AO2 RAB07PLB10 P0000=
201502251652 METAR KATL 251652Z 00000KT 10SM BKN090 BKN120 OVC150 03/M04 A2994 RMK AO2 SLP145 VIRGA OHD & ALQDS T00281039=
201502251552 METAR KATL 251552Z 26004KT 10SM BKN120 BKN150 OVC180 02/M04 A2996 RMK AO2 SLP155 VIRGA SE-S-SW-W T00221039=
201502251452 METAR KATL 251452Z 31004KT 10SM BKN130 BKN150 OVC180 01/M04 A2996 RMK AO2 SLP153 VIRGA OHD & ALQDS T00111039 53004=
201502251352 METAR KATL 251352Z 32005KT 10SM FEW120 BKN150 OVC180 01/M04 A2995 RMK AO2 SLP150 VIRGA OHD-ALQDS T00061044=
201502251252 METAR KATL 251252Z 34006KT 10SM FEW150 BKN180 OVC220 00/M04 A2993 RMK AO2 SLP145 VIRGA ALQDS T00001044=
201502251152 METAR KATL 251152Z 33006KT 10SM FEW180 SCT220 BKN250 00/M04 A2995 RMK AO2 SLP149 70003 T00001039 10011 20000 53001=
201502251052 METAR KATL 251052Z 31006KT 10SM BKN200 OVC250 00/M03 A2994 RMK AO2 SLP148 T00001033=
201502250952 METAR KATL 250952Z 31007KT 10SM FEW200 OVC250 01/M03 A2993 RMK AO2 SLP143 T00061033=
201502250852 METAR KATL 250852Z 27005KT 10SM OVC200 00/M02 A2994 RMK AO2 SLP148 T00001022 58002=
201502250752 METAR KATL 250752Z 29006KT 10SM OVC220 01/M02 A2995 RMK AO2 SLP152 T00061022=
201502250652 METAR KATL 250652Z 29005KT 10SM OVC220 01/M01 A2995 RMK AO2 SLP149 T00111011=
201502250552 METAR KATL 250552Z 32005KT 9SM BKN200 OVC250 01/M01 A2995 RMK AO2 SLP150 T00111006 10028 20011 58010=
201502250452 METAR KATL 250452Z 29004KT 7SM OVC250 01/00 A2997 RMK AO2 SLP156 T00110000 400280000=
201502250352 METAR KATL 250352Z 00000KT 7SM BKN250 01/M01 A2997 RMK AO2 SLP157 T00111006=
201502250252 METAR KATL 250252Z 00000KT 7SM FEW010 BKN250 01/00 A2998 RMK AO2 SLP160 T00110000 53002=
201502250152 METAR KATL 250152Z 00000KT 8SM FEW009 BKN045 BKN250 02/01 A2996 RMK AO2 SLP155 T00220006=
201502250052 METAR KATL 250052Z 00000KT 9SM FEW009 OVC045 02/00 A2997 RMK AO2 SLP156 T00220000=
201502242352 METAR KATL 242352Z 00000KT 10SM FEW009 SCT013 OVC050 02/01 A2997 RMK AO2 SLP158 60000 T00220006 10028 20017 56007=
201502242343 SPECI KATL 242343Z 29003KT 10SM SCT009 OVC050 02/01 A2998 RMK AO2=
201502242252 METAR KATL 242252Z 27004KT 7SM OVC008 02/01 A2998 RMK AO2 SLP160 CIG 006V010 T00220006=
201502242228 SPECI KATL 242228Z 30006KT 6SM BR OVC007 02/01 A2998 RMK AO2 CIG 005V009=
201502242152 METAR KATL 242152Z 30006KT 2 1/2SM BR BKN005 OVC008 02/01 A2999 RMK AO2 SFC VIS 5 SLP162 T00220006=
201502242115 SPECI KATL 242115Z 30005KT 2 1/2SM BR OVC005 03/01 A2999 RMK AO2 SFC VIS 4=
201502242052 METAR KATL 242052Z 00000KT 1 1/4SM BR BCFG OVC005 02/01 A2999 RMK AO2 SFC VIS 3 SLP165 P0000 60000 T00220011 56024=
201502242023 SPECI KATL 242023Z 34005KT 1SM BR OVC005 02/01 A3001 RMK AO2 SFC VIS 2=
201502241952 METAR KATL 241952Z 33006KT 1/2SM BR OVC004 02/01 A3002 RMK AO2 SFC VIS 2 DZE50 SLP173 P0000 T00220011=
201502241932 SPECI KATL 241932Z 34005KT 1/2SM R09R/6000VP6000FT -DZ BR OVC004 02/01 A3002 RMK AO2 SFC VIS 2 P0000=
201502241918 SPECI KATL 241918Z 33005KT 1SM -DZ BR OVC005 02/01 A3003 RMK AO2 SFC VIS 2 P0000=
201502241852 METAR KATL 241852Z 33006KT 1 1/2SM -DZ BR OVC005 02/01 A3004 RMK AO2 SFC VIS 3 SLP181 P0000 T00170006=
201502241824 SPECI KATL 241824Z 35008KT 1 1/4SM -DZ BR OVC005 02/01 A3006 RMK AO2 SFC VIS 3 P0000=
201502241757 SPECI KATL 241757Z 33007KT 1/2SM -DZ BR OVC003 02/01 A3007 RMK AO2 SFC VIS 2 P0000=
201502241752 METAR KATL 241752Z 31006KT 1/2SM -DZ BR OVC003 02/01 A3007 RMK AO2 SFC VIS 3 DZB44 SLP189 P0000 60003 T00170006 10022 20000 58019=
201502241703 SPECI KATL 241703Z 30004KT 2SM BR OVC005 02/01 A3009 RMK AO2 SFC VIS 4=
201502241652 METAR KATL 241652Z 01005KT 5SM BR OVC005 02/01 A3010 RMK AO2 DZE51 SLP200 P0000 T00220006=
201502241552 METAR KATL 241552Z 33005KT 4SM -DZ BR OVC005 02/00 A3011 RMK AO2 SLP204 P0000 T00170000=
201502241452 METAR KATL 241452Z 35006KT 3SM -DZ BR OVC005 01/00 A3012 RMK AO2 RAE14DZB14 SLP208 P0001 60003 T00110000 55003=
201502241429 SPECI KATL 241429Z 34006KT 3SM -DZ BR OVC005 01/00 A3013 RMK AO2 RAE14DZB14 P0001=
201502241414 SPECI KATL 241414Z 35005KT 3SM DZ BR OVC005 01/00 A3012 RMK AO2 RAE14DZB14 P0001=
201502241352 METAR KATL 241352Z 33005KT 2SM -RA BR OVC005 01/00 A3012 RMK AO2 SLP208 P0000 T00110000=
201502241252 METAR KATL 241252Z 34006KT 2 1/2SM -RA BR OVC005 01/M01 A3013 RMK AO2 SLP210 RAB1158FZRAE1158 CIG 004V007 P0002 T00061006=
201502241224 SPECI KATL 241224Z 34007KT 2SM -RA BR BKN005 OVC023 01/M01 A3013 RMK AO2 RAB1158FZRAE1158 CIG 004V007 P0001=
201502241158 SPECI KATL 241158Z 33007KT 3SM -RA BR BKN005 OVC023 01/M01 A3013 RMK AO2 RAB58FZRAE58 CIG 004V007 P0000=
201502241152 METAR KATL 241152Z 34008KT 3SM -FZRA BR BKN005 OVC023 00/M01 A3013 RMK AO2 FZDZB42E47PLE28 SLP212 I1001 16001 CIG 004V007 P0003 60008 70009 T00001011 10022 20000 53005=
201502241147 SPECI KATL 241147Z 32008KT 3SM -FZRA BR BKN005 OVC023 00/M01 A3014 RMK AO2 FZDZB42E47PLE28 CIG 004V007 P0003=
201502241142 SPECI KATL 241142Z 32008KT 3SM -FZDZ BR BKN005 OVC023 00/M01 A3013 RMK AO2 FZRAE42FZDZB42PLE28 CIG 004V007 P0003=
201502241128 SPECI KATL 241128Z 33007KT 2 1/2SM -FZRA BR BKN005 BKN012 OVC023 00/M01 A3012 RMK AO2 PLE28 CIG 004V007 P0003=
201502241052 METAR KATL 241052Z 35006KT 2SM -FZRAPL BR OVC005 00/M01 A3012 RMK AO2 SLP207 I1001 FZRAB25 P0004 T00001011=
201502241027 SPECI KATL 241027Z 32010KT 2SM -FZRAPL BR OVC009 00/M02 A3014 RMK AO2 FZRAB25 CIG 007V010 P0001=
201502241010 SPECI KATL 241010Z 31008KT 2SM -RAPL BR OVC009 00/M02 A3012 RMK AO2 CIG 007V010 P0000=
201502241002 SPECI KATL 241002Z 33007KT 2 1/2SM -RA BR OVC009 00/M02 A3011 RMK AO2 PLE02 P0000=
201502240952 METAR KATL 240952Z COR 32009KT 3SM -PLRA BR OVC009 01/M02 A3012 RMK AO2 RAB35PLB51 SLP206 P0000 T00061017=
201502240852 METAR KATL 240852Z VRB04KT 7SM OVC014 01/M02 A3012 RMK AO2 RAE12 SLP205 P0000 60001 T00111022 58021=
201502240843 SPECI KATL 240843Z 34005KT 8SM OVC014 01/M02 A3013 RMK AO2 RAE12 P0000=
201502240752 METAR KATL 240752Z 34007KT 8SM -RA OVC020 01/M02 A3016 RMK AO2 RAE18B50 SLP218 P0001 T00111022=
201502240652 METAR KATL 240652Z 32009KT 5SM -RA BKN020 OVC050 01/M02 A3017 RMK AO2 RAB0558 SLP223 P0000 T00111022=
201502240647 SPECI KATL 240647Z 34009KT 7SM -RA BKN020 OVC050 01/M03 A3017 RMK AO2 RAB0558 P0000=
201502240638 SPECI KATL 240638Z 33009KT 10SM -RA FEW020 SCT027 OVC065 02/M02 A3016 RMK AO2 RAB0558 VIRGA OHD P0000=
201502240552 METAR KATL 240552Z 30006KT 10SM SCT065 BKN090 OVC150 02/M02 A3018 RMK AO2 RAB0459E45 SLP226 P0000 60001 T00221017 10050 20017 56008=
201502240452 METAR KATL 240452Z 33008KT 10SM FEW060 BKN090 OVC150 02/M02 A3018 RMK AO2 RAE40 SLP227 P0000 T00221022 400940022=
201502240352 METAR KATL 240352Z 33003KT 10SM -RA BKN085 OVC120 03/M02 A3019 RMK AO2 RAB46 SLP229 PCPN VRY LGT P0000 T00281022=
201502240252 METAR KATL 240252Z 32010KT 10SM BKN085 OVC150 03/M01 A3021 RMK AO2 SLP235 60001 T00281011 56010=
201502240152 METAR KATL 240152Z 33008KT 9SM BKN095 OVC150 03/00 A3022 RMK AO2 RAE49 SLP239 P0001 T00330000=
201502240052 METAR KATL 240052Z 32009KT 10SM -RA BKN085 BKN110 OVC150 04/M01 A3022 RMK AO2 RAB30 SLP242 P0000 T00441011=
201502232352 METAR KATL 232352Z 33014KT 10SM BKN140 BKN200 BKN250 05/M01 A3024 RMK AO2 SLP245 T00501011 10094 20050 51008=
201502232252 METAR KATL 232252Z 34013G21KT 10SM FEW150 BKN200 BKN250 07/M01 A3023 RMK AO2 SLP244 T00671011=
201502232152 METAR KATL 232152Z 32013KT 10SM FEW150 BKN180 BKN240 08/01 A3022 RMK AO2 SLP239 T00830006=
201502232052 METAR KATL 232052Z 32013G21KT 10SM FEW150 BKN240 09/01 A3021 RMK AO2 SLP235 T00890011 55006=
201502231952 METAR KATL 231952Z 31016KT 10SM SCT250 08/01 A3021 RMK AO2 SLP234 T00780011=
201502231852 METAR KATL 231852Z 32012G21KT 9SM FEW019 SCT250 07/02 A3022 RMK AO2 SLP237 T00720017=
201502231752 METAR KATL 231752Z 30015KT 9SM SCT015 BKN250 07/02 A3023 RMK AO2 SLP241 T00670022 10067 20028 58005=
201502231659 SPECI KATL 231659Z 32013KT 8SM BKN011 05/02 A3025 RMK AO2=
201502231652 METAR KATL 231652Z 32014KT 8SM BKN009 04/02 A3025 RMK AO2 SLP249 T00440017=
201502231552 METAR KATL 231552Z 33011KT 2SM BR OVC007 04/02 A3025 RMK AO2 SFC VIS 5 SLP247 T00390017=
201502231452 METAR KATL 231452Z 32012KT 2SM BR OVC005 03/02 A3025 RMK AO2 SFC VIS 6 SLP247 T00330017 53018=
201502231352 METAR KATL 231352Z 30012KT 2SM BR OVC005 03/02 A3023 RMK AO2 SFC VIS 5 SLP242 T00330017=
201502231252 METAR KATL 231252Z 32009KT 2SM BR OVC005 03/02 A3020 RMK AO2 SFC VIS 6 SLP229 CIG 004V007 T00330022=
201502231152 METAR KATL 231152Z 34007KT 2SM BR OVC005 03/02 A3019 RMK AO2 SFC VIS 6 RAE45 SLP227 P0004 60031 70053 T00330022 10072 20033 50003=
201502231052 METAR KATL 231052Z 33010G17KT 2SM -RA BR BKN005 BKN012 OVC070 03/02 A3021 RMK AO2 SFC VIS 5 SLP233 CIG 004V007 P0009 T00330022=
201502231028 SPECI KATL 231028Z 33013KT 2SM RA BR BKN005 OVC075 04/03 A3020 RMK AO2 SFC VIS 4 CIG 004V007 P0005 $=
201502230957 SPECI KATL 230957Z 33013KT 2SM RA BR BKN004 OVC037 04/03 A3020 RMK AO2 SFC VIS 4 CIG 003V007 TWRINC P0001 $=
201502230952 METAR KATL 230952Z 33013KT 1/2SM RA BR BKN003 OVC037 04/03 A3019 RMK AO2 SFC VIS 3 SLP227 CIG 002V005 TWRINC P0012 T00440033 $=
201502230852 METAR KATL 230852Z 31010KT 1/2SM -RA BR OVC003 06/04 A3018 RMK AO2 SFC VIS 6 SLP223 CIG 002V004 P0003 60006 T00560044 $=
201502230752 METAR KATL 230752Z 34009KT 1/2SM -RA BR OVC003 06/05 A3017 RMK AO2 SFC VIS 1 1/2 RAB02 PRESFR SLP217 CIG 002V005 TWRINC P0003 T00610050 $=
201502230652 METAR KATL 230652Z 31011KT 1/2SM BR OVC003 07/06 A3019 RMK AO2 SFC VIS 2 SLP225 RAE36 TWRINC P0000 T00670056 $=
201502230552 METAR KATL 230552Z 31011KT 1/2SM BR OVC002 07/07 A3020 RMK AO2 SFC VIS 2 SLP228 CIG 001V003 TWRINC 60004 T00720067 10122 20072 53000=
201502230541 SPECI KATL 230541Z 32009KT 1/2SM BR OVC003 08/07 A3019 RMK AO2 SFC VIS 2 CIG 002V004 TWRINC=
201502230452 METAR KATL 230452Z 32009KT 1SM BR OVC003 09/08 A3019 RMK AO2 SFC VIS 3 RAE07 SLP224 CIG 002V004 TWRINC P0000 T00890078 401330067=
201502230352 METAR KATL 230352Z 32008KT 1 1/2SM -RA BKN004 BKN016 OVC100 09/08 A3019 RMK AO2 SFC VIS 7 SLP225 CIG 003V005 TWRINC P0002 T00940083=
201502230252 METAR KATL 230252Z 32006KT 1 1/2SM -RA BR OVC003 10/09 A3020 RMK AO2 SFC VIS 3 SLP227 CIG 002V004 P0001 60002 T01000094 51013=
201502230152 METAR KATL 230152Z 34007KT 1 1/2SM -RA BR OVC004 12/11 A3019 RMK AO2 SFC VIS 3 RAB0054 SLP225 CIG 003V005 P0001 T01170106=
201502230052 METAR KATL 230052Z 35006KT 1 1/2SM BR OVC004 12/11 A3018 RMK AO2 SFC VIS 3 RAB26E42 SLP219 CIG 003V005 P0000 T01220106=
201502230024 SPECI KATL 230024Z 34005KT 1 1/2SM BR OVC004 12/11 A3016 RMK AO2 SFC VIS 3 CIG 003V005=
201502222356 SPECI KATL 222356Z 35003KT 7SM BKN006 BKN018 OVC025 12/11 A3015 RMK AO2 CIG 005V007=
201502222352 METAR KATL 222352Z 33003KT 1 1/2SM BKN005 BKN016 OVC025 12/11 A3016 RMK AO2 SFC VIS 7 DZE26 SLP213 CIG 004V006 P0001 60002 T01220111 10133 20111 51013=
201502222259 SPECI KATL 222259Z 01004KT 1 1/2SM -DZ BR BKN005 OVC015 12/11 A3015 RMK AO2 SFC VIS 2 1/2 CIG 004V006 PCPN VRY LGT P0001=
201502222252 METAR KATL 222252Z 35004KT 1/2SM -DZ BR BKN004 OVC014 13/11 A3015 RMK AO2 SFC VIS 2 DZB03 SLP210 CIG 003V006 PCPN VRY LGT TWRINC P0000 T01280111=
201502222203 SPECI KATL 222203Z 34006KT 1/2SM R09R/6000VP6000FT -DZ BR OVC004 13/11 A3014 RMK AO2 SFC VIS 1 1/2 DZB03 P0000=
201502222152 METAR KATL 222152Z 34006KT 1 1/4SM BR OVC005 13/12 A3014 RMK AO2 SLP209 T01280117=
201502222143 SPECI KATL 222143Z 35006KT 1 1/2SM BR OVC005 13/12 A3014 RMK AO2 SFC VIS 1 3/4=
201502222115 SPECI KATL 222115Z 34004KT 2SM BR OVC006 13/11 A3014 RMK AO2 SFC VIS 2 1/2=
201502222052 METAR KATL 222052Z 00000KT 1/4SM BR OVC004 13/12 A3012 RMK AO2 SFC VIS 2 SLP202 TWRINC 60001 T01280117 55010=
201502221952 METAR KATL 221952Z 06005KT 1/4SM BR OVC004 13/11 A3012 RMK AO2 SFC VIS 2 1/2 RAB1858E47 SLP201 TWRINC P0001 T01280111=
201502221852 METAR KATL 221852Z 01004KT 1/4SM BR BKN004 OVC015 12/10 A3014 RMK AO2 SFC VIS 3 SLP206 T01220100=
201502221752 METAR KATL 221752Z 04004KT 1/4SM BR BKN003 OVC015 11/10 A3015 RMK AO2 SFC VIS 3 RAE34 SLP211 TWRINC P0003 60016 T01110100 10117 20083 58004=
201502221736 SPECI KATL 221736Z VRB04KT 1/4SM BR BKN003 OVC015 11/10 A3015 RMK AO2 SFC VIS 2 RAE34 TWRINC P0003=
201502221652 METAR KATL 221652Z 08003KT 1/4SM -RA BR BKN005 BKN026 OVC043 10/09 A3018 RMK AO2 SFC VIS 2 SLP221 CIG 004V006 TWRINC P0003 T01000089=
201502221645 SPECI KATL 221645Z 08004KT 1/4SM -RA BR BKN005 BKN026 OVC043 10/09 A3018 RMK AO2 SFC VIS 2 CIG 004V006 TWRINC P0003=
201502221552 METAR KATL 221552Z 05006KT 1/4SM -RA BR OVC004 10/08 A3017 RMK AO2 SFC VIS 1 1/2 SLP217 TWRINC P0005 T01000083=
201502221459 SPECI KATL 221459Z VRB03KT 1/4SM R09R/P6000FT -RA BR BKN002 OVC007 09/08 A3016 RMK AO2 SFC VIS 1 TWRINC P0000=
201502221452 METAR KATL 221452Z 10004KT 1/4SM R09R/5500VP6000FT -RA FG SCT002 OVC005 09/08 A3016 RMK AO2 RAB1356 SLP216 CIG 004V006 P0004 60005 T00890078 51018=
201502221444 SPECI KATL 221444Z 09003KT 1/4SM R09R/2800V5500FT RA FG SCT002 OVC005 08/08 A3016 RMK AO2 RAB1356 P0003=
201502221352 METAR KATL 221352Z 04005KT 1/4SM R09R/6000VP6000FT FG OVC003 08/07 A3016 RMK AO2 SFC VIS 1/2 RAB09E36 SLP214 CIG 002V004 TWRINC P0001 T00830072=
201502221252 METAR KATL 221252Z 11003KT 1/4SM R09R/3000V5500FT BR OVC003 08/08 A3013 RMK AO2 SFC VIS 3/4 SLP203 TWRINC T00830078=
201502221229 SPECI KATL 221229Z 12003KT 1/4SM R09R/4000VP6000FT BR OVC003 08/08 A3012 RMK AO2 SFC VIS 1 1/4 TWRINC=
201502221152 METAR KATL 221152Z 14003KT 2SM BR BKN003 OVC070 08/07 A3011 RMK AO2 RAE19 SLP197 P0000 60018 70029 T00830072 10106 20067 55000=
201502221052 METAR KATL 221052Z 15003KT 2SM -RA BR BKN003 BKN020 OVC070 08/07 A3010 RMK AO2 SLP196 P0002 T00780072=
201502220952 METAR KATL 220952Z 14005KT 1 1/2SM -RA BR BKN003 OVC036 07/06 A3010 RMK AO2 SLP194 CIG 002V004 P0003 T00720061=
201502220942 SPECI KATL 220942Z 14004KT 1 1/2SM -RA BR BKN003 OVC075 07/06 A3010 RMK AO2 P0003=
201502220852 METAR KATL 220852Z 15005KT 2 1/2SM -RA BR FEW004 SCT055 OVC070 07/06 A3011 RMK AO2 SLP199 P0003 60013 T00670061 58009=
201502220808 SPECI KATL 220808Z 12008KT 2 1/2SM -RA BR FEW005 SCT025 OVC041 07/06 A3012 RMK AO2 P0001=
201502220752 METAR KATL 220752Z 05005KT 2SM -RA BR SCT004 OVC014 07/06 A3014 RMK AO2 SLP210 P0003 T00670056=
201502220746 SPECI KATL 220746Z 04004KT 2SM -RA BR SCT004 OVC014 07/06 A3015 RMK AO2 P0003=
201502220714 SPECI KATL 220714Z 02011KT 4SM -RA BR SCT004 OVC014 07/06 A3015 RMK AO2 P0000=
201502220652 METAR KATL 220652Z COR 01010KT 4SM -RA BR BKN004 OVC013 08/07 A3014 RMK AO2 RAB11 SLP208 P0007 T00830072=
201502220638 SPECI KATL 220638Z 35007KT 3SM RA BR FEW007 BKN013 OVC019 09/08 A3013 RMK AO2 RAB11 P0005=
201502220611 SPECI KATL 220611Z 35007KT 10SM -RA BR FEW009 BKN021 OVC030 11/08 A3012 RMK AO2 RAB11 P0000=
201502220552 METAR KATL 220552Z 28005KT 10SM BKN030 BKN044 OVC075 11/08 A3011 RMK AO2 RAB0458E08 SLP197 P0000 60011 T01060083 10133 20100 53007=
201502220452 METAR KATL 220452Z 18007KT 10SM FEW040 SCT065 OVC090 11/08 A3008 RMK AO2 RAE47 SLP188 P0006 T01060083 401330011=
201502220352 METAR KATL 220352Z 16010KT 5SM RA SCT042 BKN065 OVC090 11/07 A3008 RMK AO2 SLP191 P0003 T01060067=
201502220252 METAR KATL 220252Z 15007KT 10SM -RA SCT043 BKN075 OVC090 11/06 A3009 RMK AO2 RAB0153 SLP192 P0002 60002 T01110056 50005=
201502220152 METAR KATL 220152Z COR 14003KT 10SM BKN048 BKN070 OVC130 13/03 A3010 RMK AO2 SLP196 SHRA SW-NW-NE T01330033=
201502220052 METAR KATL 220052Z 15006KT 10SM FEW075 SCT130 OVC200 11/02 A3006 RMK AO2 SLP185 T01110022=
201502212352 METAR KATL 212352Z 13006KT 10SM FEW080 SCT140 OVC200 10/01 A3007 RMK AO2 SLP188 60000 T01000006 10111 20083 56013=
201502212252 METAR KATL 212252Z 10004KT 10SM SCT080 BKN140 OVC200 11/01 A3008 RMK AO2 RAB28E40 SLP191 ACC E-S VCSH NE P0000 T01110011=
201502212152 METAR KATL 212152Z 14003KT 10SM BKN080 OVC130 11/01 A3010 RMK AO2 RAB02E42 SLP196 VCSH NE P0000 T01110011=
201502212052 METAR KATL 212052Z 14003KT 10SM OVC080 11/M01 A3011 RMK AO2 SLP202 T01061006 56032=
201502211952 METAR KATL 211952Z 16008KT 10SM OVC080 10/M01 A3013 RMK AO2 SLP208 T01001011=
201502211852 METAR KATL 211852Z 16008G14KT 10SM OVC080 09/M02 A3016 RMK AO2 PRESFR SLP218 T00941017=
201502211752 METAR KATL 211752Z 17010G17KT 10SM OVC085 08/M03 A3021 RMK AO2 SLP236 T00831028 10089 20011 58020=
201502211652 METAR KATL 211652Z 17008KT 10SM OVC080 07/M06 A3024 RMK AO2 SLP248 T00671056=
201502211552 METAR KATL 211552Z 15009KT 10SM OVC075 04/M06 A3028 RMK AO2 SLP262 T00391056=
201502211452 METAR KATL 211452Z 15007KT 10SM FEW065 OVC085 03/M06 A3027 RMK AO2 SLP259 VIRGA E T00331061 50001=
201502211352 METAR KATL 211352Z 16007KT 10SM BKN095 BKN110 BKN200 02/M06 A3029 RMK AO2 SLP267 VIRGA SW-NW T00221061=
201502211252 METAR KATL 211252Z 13009KT 10SM SCT085 BKN100 BKN130 BKN200 01/M07 A3028 RMK AO2 SLP262 T00111072=
201502211152 METAR KATL 211152Z 12007KT 10SM FEW045 SCT100 SCT200 01/M09 A3027 RMK AO2 SLP259 60000 T00111089 10022 20011 53001=
201502211052 METAR KATL 211052Z 14007KT 10SM OVC095 02/M10 A3028 RMK AO2 SLP261 BINOVC T00171100=
201502210952 METAR KATL 210952Z 14011G17KT 10SM OVC090 02/M12 A3026 RMK AO2 SLP254 BINOVC T00171117=
201502210852 METAR KATL 210852Z 14009KT 10SM FEW042 OVC080 02/M13 A3027 RMK AO2 SLP258 60000 T00171128 58023=
201502210752 METAR KATL 210752Z 12008KT 10SM OVC042 01/M12 A3029 RMK AO2 RAE05 SLP267 P0000 T00111117=
201502210652 METAR KATL 210652Z 11006KT 10SM -RA OVC040 01/M11 A3032 RMK AO2 RAB49PLB00E20B36E52SNE49 SLP277 PCPN VRY LGT P0000 T00111111=
201502210636 SPECI KATL 210636Z 12008KT 10SM -SNPL OVC041 01/M12 A3033 RMK AO2 PLB00E20B36 PCPN VRY LGT P0000=
201502210620 SPECI KATL 210620Z 12008KT 10SM -SN OVC041 01/M12 A3032 RMK AO2 PLB00E20 PCPN VRY LGT P0000=
201502210600 SPECI KATL 210600Z 12008KT 10SM -SNPL OVC041 01/M12 A3033 RMK AO2 PLB00 PCPN VRY LGT P0000=
201502210552 METAR KATL 210552Z 11006KT 10SM -SN OVC041 01/M13 A3034 RMK AO2 SNB43 SLP283 PCPN VRY LGT P0000 60000 T00111128 10017 20011 56005=
201502210452 METAR KATL 210452Z 12007KT 10SM FEW039 BKN045 OVC070 01/M13 A3034 RMK AO2 SLP285 T00111128 400171089=
201502210352 METAR KATL 210352Z 15007KT 10SM BKN045 BKN070 OVC120 01/M13 A3035 RMK AO2 SLP289 T00111128=
201502210252 METAR KATL 210252Z 15007KT 10SM BKN038 OVC050 01/M13 A3035 RMK AO2 SLP290 60000 T00111128 53005=
201502210152 METAR KATL 210152Z 15008KT 10SM BKN038 OVC050 01/M12 A3034 RMK AO2 SLP287 T00111122=
201502210052 METAR KATL 210052Z 14007G15KT 10SM BKN035 OVC050 01/M12 A3033 RMK AO2 SNB14E51 SLP283 SHSN NE-SE P0000 T00111117=
201502202352 METAR KATL 202352Z 13007KT 10SM FEW032 OVC040 02/M14 A3034 RMK AO2 SLP286 60000 T00171139 10017 21006 51001=
201502202252 METAR KATL 202252Z 15006KT 10SM SCT038 OVC050 01/M14 A3033 RMK AO2 SNE08 SLP285 SHSN VC N-NE P0000 T00111139=
201502202224 SPECI KATL 202224Z 14005KT 10SM BKN038 OVC050 01/M14 A3034 RMK AO2 SNE08 P0000=
201502202152 METAR KATL 202152Z COR 16007KT 10SM -SN SCT037 OVC050 01/M14 A3034 RMK AO2 SNB06 SLP288 PCPN VRY LGT P0000 T00111139=
201502202106 SPECI KATL 202106Z 13003KT 10SM -SN OVC060 01/M16 A3033 RMK AO2 SNB06 P0000=
201502202052 METAR KATL 202052Z 13005KT 10SM OVC060 01/M15 A3033 RMK AO2 SNB07E31 SLP284 VIRGA OHD & ALQDS P0000 60000 T00111150 56017=
201502202033 SPECI KATL 202033Z 16003KT 9SM OVC060 01/M15 A3034 RMK AO2 SNB07E31 VIRGA OHD & ALQDS P0000=
201502202010 SPECI KATL 202010Z VRB03KT 10SM -SN OVC065 01/M16 A3034 RMK AO2 SNB07 P0000=
201502201952 METAR KATL 201952Z 16004KT 10SM OVC065 01/M16 A3035 RMK AO2 SLP291 T00111161=
201502201852 METAR KATL 201852Z 00000KT 10SM OVC060 01/M17 A3036 RMK AO2 SLP294 T00061167=
201502201752 METAR KATL 201752Z 11004KT 10SM FEW070 SCT120 SCT250 00/M18 A3038 RMK AO2 SLP302 T00001183 10000 21078 58010=
201502201652 METAR KATL 201652Z VRB03KT 10SM BKN065 BKN085 BKN120 M03/M19 A3040 RMK AO2 SLP311 T10281194=
201502201552 METAR KATL 201552Z 00000KT 10SM BKN070 BKN120 BKN150 M04/M18 A3041 RMK AO2 SLP314 T10441183=
201502201452 METAR KATL 201452Z 00000KT 10SM BKN070 BKN120 OVC150 M06/M19 A3041 RMK AO2 SLP315 T10611189 51017=
201502201352 METAR KATL 201352Z 34007KT 10SM BKN075 OVC120 M07/M19 A3041 RMK AO2 SLP313 T10671189=
201502201252 METAR KATL 201252Z 33008KT 10SM BKN090 M07/M19 A3038 RMK AO2 SLP303 T10721194=
201502201152 METAR KATL 201152Z 33008KT 10SM BKN080 BKN110 M08/M18 A3036 RMK AO2 SLP297 T10781178 11078 21089 51008=
201502201052 METAR KATL 201052Z 34009KT 10SM OVC080 M08/M17 A3035 RMK AO2 SLP293 T10781172=
201502200952 METAR KATL 200952Z 33011KT 10SM OVC085 M08/M17 A3035 RMK AO2 SLP292 VIRGA NW T10781167=
201502200852 METAR KATL 200852Z 34008KT 10SM BKN085 M08/M16 A3034 RMK AO2 SLP288 T10831161 53008=
201502200752 METAR KATL 200752Z COR 31006KT 10SM SCT100 M09/M16 A3032 RMK AO2 SLP283 T10891161=
201502200652 METAR KATL 200652Z 32008KT 10SM CLR M08/M17 A3031 RMK AO2 SLP279 T10831167=
201502200552 METAR KATL 200552Z 34006KT 10SM CLR M08/M17 A3031 RMK AO2 SLP280 T10781167 11050 21078 58002=
201502200452 METAR KATL 200452Z 33006KT 10SM CLR M07/M17 A3032 RMK AO2 SLP283 T10721172 410221094=
201502200352 METAR KATL 200352Z 34010G18KT 10SM CLR M07/M18 A3032 RMK AO2 SLP283 T10671178=
201502200252 METAR KATL 200252Z 31010KT 10SM CLR M06/M18 A3031 RMK AO2 SLP282 T10611178 51006=
201502200152 METAR KATL 200152Z 29010KT 10SM CLR M06/M18 A3031 RMK AO2 SLP282 T10561178=
201502200052 METAR KATL 200052Z 29010KT 10SM CLR M05/M18 A3031 RMK AO2 SLP282 T10501183=
201502192352 METAR KATL 192352Z 30006KT 10SM CLR M04/M20 A3030 RMK AO2 SLP276 T10441200 11022 21056 53010=
201502192252 METAR KATL 192252Z 30013KT 10SM CLR M03/M20 A3028 RMK AO2 SLP270 T10331200=
201502192152 METAR KATL 192152Z 30012G15KT 10SM CLR M03/M20 A3027 RMK AO2 SLP265 T10281200=
201502192052 METAR KATL 192052Z 32012G23KT 10SM CLR M03/M20 A3027 RMK AO2 SLP264 T10281200 56017=
201502191952 METAR KATL 191952Z 29013G19KT 10SM CLR M03/M20 A3028 RMK AO2 PK WND 30026/1933 SLP269 T10331200=
201502191852 METAR KATL 191852Z 33012KT 10SM CLR M04/M20 A3030 RMK AO2 PK WND 32026/1803 SLP274 T10441200=
201502191752 METAR KATL 191752Z 29017G23KT 10SM CLR M05/M20 A3032 RMK AO2 SLP282 T10501200 11044 21094 58005=
201502191652 METAR KATL 191652Z 30011KT 10SM CLR M06/M21 A3034 RMK AO2 SLP289 T10611206=
201502191552 METAR KATL 191552Z 32014G21KT 10SM CLR M07/M21 A3034 RMK AO2 SLP288 T10721206=
201502191452 METAR KATL 191452Z 33016G22KT 10SM CLR M08/M21 A3033 RMK AO2 SLP287 T10781206 51025=
201502191352 METAR KATL 191352Z 33015G20KT 10SM FEW027 M09/M18 A3031 RMK AO2 SLP278 T10891183=
201502191252 METAR KATL 191252Z 34012G19KT 10SM FEW027 M09/M16 A3029 RMK AO2 SLP271 T10941161=
201502191152 METAR KATL 191152Z 31013KT 10SM SCT034 M09/M16 A3026 RMK AO2 SLP261 T10891156 11056 21089 53014=
201502191052 METAR KATL 191052Z 33010KT 10SM FEW038 M08/M16 A3024 RMK AO2 SLP253 T10831161=
201502190952 METAR KATL 190952Z 31009KT 10SM FEW043 M08/M16 A3023 RMK AO2 SLP248 T10781156=
201502190852 METAR KATL 190852Z 31011KT 10SM FEW043 M07/M16 A3022 RMK AO2 SLP244 T10721161 51005=
201502190752 METAR KATL 190752Z 33011KT 10SM FEW043 M07/M16 A3021 RMK AO2 SLP243 T10671161=
201502190652 METAR KATL 190652Z 32013G24KT 10SM SCT043 M06/M16 A3021 RMK AO2 PK WND 31028/0617 SLP241 T10611161=
201502190552 METAR KATL 190552Z 32017G23KT 10SM SCT040 BKN048 M06/M15 A3020 RMK AO2 PK WND 32033/0523 SLP238 60000 T10561150 11006 21056 51016=
201502190452 METAR KATL 190452Z 33018G27KT 10SM SCT042 M05/M14 A3019 RMK AO2 PK WND 32029/0411 SNB02E10 SLP234 P0000 T10501144 400391056=
201502190352 METAR KATL 190352Z 30017G26KT 10SM SCT040 BKN048 M04/M14 A3018 RMK AO2 PK WND 31029/0336 SLP230 T10391139=
201502190252 METAR KATL 190252Z 31019G27KT 10SM SCT038 BKN050 M03/M13 A3015 RMK AO2 PK WND 30027/0248 SNB28E46 SLP222 P0000 60000 T10331128 53029=
201502190152 METAR KATL 190152Z 31018G31KT 10SM FEW050 M03/M12 A3012 RMK AO2 PK WND 32031/0145 SLP211 T10281122=
201502190052 METAR KATL 190052Z 31018G27KT 10SM CLR M02/M12 A3009 RMK AO2 PK WND 33030/0006 SLP202 T10171122=
201502182352 METAR KATL 182352Z 32019G31KT 10SM CLR M01/M12 A3006 RMK AO2 PK WND 32031/2347 SLP193 T10061117 10039 21006 53019=
201502182252 METAR KATL 182252Z 32018G22KT 10SM FEW055 01/M09 A3003 RMK AO2 SLP179 T00111094=
201502182152 METAR KATL 182152Z 32016G26KT 10SM FEW050 SCT065 02/M09 A3001 RMK AO2 PK WND 30030/2125 SLP173 T00221089=
201502182052 METAR KATL 182052Z 30013G23KT 10SM FEW045 SCT055 02/M07 A3000 RMK AO2 PK WND 30027/2007 SLP170 SHSN DSNT NW-N T00221072 55005=
201502181952 METAR KATL 181952Z 29014G28KT 10SM BKN050 02/M08 A3000 RMK AO2 PK WND 28038/1906 SLP170 SHSN DSNT NW-N-NE T00221078=
201502181910 SPECI KATL 181910Z 29028G38KT 10SM BKN045 BKN055 03/M08 A3000 RMK AO2 PK WND 28038/1906 SHSN DSNT NE=
201502181852 METAR KATL 181852Z 29020G29KT 10SM BKN045 BKN050 03/M07 A3000 RMK AO2 PK WND 30030/1813 SLP170 SHSN DSNT N-NE T00331067=
201502181752 METAR KATL 181752Z 28015G24KT 10SM BKN030 BKN040 04/M06 A3002 RMK AO2 PK WND 29026/1659 SLP175 T00391056 10039 21056 58003=
201502181706 SPECI KATL 181706Z 29019G26KT 10SM SCT025 BKN030 BKN070 01/M06 A3003 RMK AO2 PK WND 29026/1659=
201502181652 METAR KATL 181652Z COR 30017G24KT 10SM BKN025 BKN030 BKN070 01/M05 A3003 RMK AO2 SLP180 T00061050=
201502181554 SPECI KATL 181554Z 29011G19KT 10SM BKN020 BKN040 BKN070 01/M05 A3002 RMK AO2=
201502181552 METAR KATL 181552Z 30013KT 10SM SCT020 BKN040 BKN070 01/M05 A3002 RMK AO2 SLP176 T00061050=
201502181452 METAR KATL 181452Z 26014G18KT 10SM FEW030 BKN045 M01/M07 A3003 RMK AO2 SLP179 T10061067 50008=
201502181352 METAR KATL 181352Z 27014G19KT 10SM BKN039 M03/M08 A3003 RMK AO2 SLP181 T10331078=
201502181252 METAR KATL 181252Z 26007KT 10SM FEW040 M05/M08 A3002 RMK AO2 SLP176 T10501083=
201502181152 METAR KATL 181152Z 27005KT 10SM CLR M06/M09 A3000 RMK AO2 SLP171 T10561089 11028 21056 53004=
201502181052 METAR KATL 181052Z 27005KT 10SM CLR M05/M09 A3000 RMK AO2 SLP169 T10501089=
201502180952 METAR KATL 180952Z 26005KT 10SM CLR M05/M09 A2999 RMK AO2 SLP167 T10501089=
201502180852 METAR KATL 180852Z 29008KT 10SM FEW120 M04/M08 A2999 RMK AO2 SLP166 T10441083 58004=
201502180752 METAR KATL 180752Z 31008KT 10SM FEW120 M04/M08 A3000 RMK AO2 SLP167 T10391078=
201502180652 METAR KATL 180652Z 31009KT 10SM FEW120 SCT150 M03/M08 A3000 RMK AO2 SLP170 T10331078=
201502180552 METAR KATL 180552Z 31010KT 10SM FEW120 BKN150 M03/M08 A3000 RMK AO2 SLP170 T10281078 10017 21028 50003=
201502180452 METAR KATL 180452Z 32014KT 10SM SCT150 M02/M08 A3001 RMK AO2 SLP171 T10221078 400331022=
201502180352 METAR KATL 180352Z 32011KT 10SM BKN140 BKN200 M01/M08 A3000 RMK AO2 SLP169 T10111078=
201502180252 METAR KATL 180252Z 33009KT 10SM SCT120 BKN150 BKN200 M01/M07 A2999 RMK AO2 SLP167 T10061067 53008=
201502180152 METAR KATL 180152Z 32010KT 10SM SCT120 BKN200 00/M07 A2998 RMK AO2 SLP163 T00001067=
201502180052 METAR KATL 180052Z 33008KT 10SM BKN140 BKN200 OVC250 01/M07 A2997 RMK AO2 SLP160 T00111067=
201502172352 METAR KATL 172352Z 34008KT 10SM BKN130 BKN200 OVC250 02/M07 A2997 RMK AO2 SLP157 T00171067 10033 20006 53013=
201502172252 METAR KATL 172252Z 33011KT 10SM BKN140 BKN200 OVC250 03/M07 A2995 RMK AO2 SLP150 T00281067=
201502172152 METAR KATL 172152Z 31010KT 10SM BKN150 BKN220 BKN250 03/M06 A2993 RMK AO2 SLP144 T00281061=
201502172052 METAR KATL 172052Z 32011KT 10SM SCT160 BKN220 BKN250 03/M06 A2993 RMK AO2 SLP142 T00281056 55012=
201502171952 METAR KATL 171952Z 31010KT 10SM BKN160 BKN220 BKN250 03/M04 A2993 RMK AO2 SLP141 VIRGA DSNT NE-SE T00281044=
201502171852 METAR KATL 171852Z 32013KT 10SM BKN220 BKN250 02/M06 A2993 RMK AO2 SLP142 T00171056=
201502171845 SPECI KATL 171845Z 33013KT 10SM BKN220 BKN250 02/M06 A2993 RMK AO2=
201502171752 METAR KATL 171752Z 31012G18KT 10SM FEW030 BKN200 BKN240 01/M06 A2997 RMK AO2 SLP156 VIRGA DSNT NE-E-SE-S-SW T00061056 10017 21017 50010=
201502171652 METAR KATL 171652Z 33011KT 10SM FEW025 BKN200 BKN250 01/M05 A2997 RMK AO2 SLP156 T00061050=
201502171552 METAR KATL 171552Z 33014KT 10SM FEW025 SCT200 BKN250 01/M05 A2995 RMK AO2 SLP151 T00061050=
201502171452 METAR KATL 171452Z 32010KT 10SM FEW025 SCT150 BKN250 M01/M06 A2994 RMK AO2 SLP147 T10111056 51026=
201502171352 METAR KATL 171352Z 31014KT 10SM SCT014 BKN050 BKN150 BKN200 M02/M05 A2991 RMK AO2 SLP137 T10171050=
201502171252 METAR KATL 171252Z 32013KT 10SM BKN012 BKN200 M01/M04 A2990 RMK AO2 SLP133 T10111039=
201502171152 METAR KATL 171152Z 30011G19KT 10SM FEW009 OVC012 00/M02 A2986 RMK AO2 SLP119 BINOVC 60001 70125 T00001022 10022 20000 52024=
201502171130 SPECI KATL 171130Z 34019G22KT 10SM SCT009 OVC014 00/M02 A2984 RMK AO2=
201502171052 METAR KATL 171052Z 32012KT 10SM BKN005 BKN013 01/M01 A2984 RMK AO2 DZE18 SLP111 VIRGA N & S-SW P0000 T00061006=
201502170952 METAR KATL 170952Z 29010KT 6SM -DZ BR OVC004 01/00 A2981 RMK AO2 SLP101 PCPN VRY LGT P0000 T00110000=
201502170852 METAR KATL 170852Z 29016G20KT 4SM -DZ BR OVC004 02/01 A2979 RMK AO2 DZB04 SLP092 CIG 003V006 PCPN VRY LGT P0000 60001 T00220011 53010=
201502170847 SPECI KATL 170847Z 29014G18KT 3SM -DZ BR OVC004 02/01 A2978 RMK AO2 DZB04 CIG 003V006 P0000=
201502170836 SPECI KATL 170836Z 29010KT 2 1/2SM -DZ BR OVC004 02/01 A2979 RMK AO2 DZB04 CIG 003V006 P0000=
201502170805 SPECI KATL 170805Z 32007KT 2 1/2SM -DZ BR OVC005 02/01 A2977 RMK AO2 DZB04 CIG 004V007 P0000=
201502170752 METAR KATL 170752Z 33007KT 7SM OVC005 02/01 A2977 RMK AO2 RAE0658 SLP086 CIG 004V007 P0000 T00220011=
201502170652 METAR KATL 170652Z 33008KT 7SM -RA BKN005 OVC008 02/01 A2977 RMK AO2 RAB15 SLP088 CIG 004V007 P0001 T00220011=
201502170644 SPECI KATL 170644Z 33008KT 7SM -RA OVC005 02/01 A2977 RMK AO2 RAB15 CIG 004V007 P0001=
201502170609 SPECI KATL 170609Z 34006KT 6SM BR BKN004 OVC010 02/01 A2976 RMK AO2=
201502170552 METAR KATL 170552Z 34006KT 9SM BKN005 OVC020 02/01 A2976 RMK AO2 RAE32 SLP082 P0003 60077 T00170006 10022 20017 53003=
201502170452 METAR KATL 170452Z 01005KT 4SM RA BR BKN005 OVC020 02/01 A2973 RMK AO2 SLP073 CIG 003V007 P0008 T00220011 400500006=
201502170352 METAR KATL 170352Z 07007KT 3SM +RA BR BKN006 OVC020 02/01 A2974 RMK AO2 SLP076 CIG 003V009 P0020 T00220011=
201502170252 METAR KATL 170252Z 08012KT 4SM +RA BR SCT005 BKN025 OVC080 02/01 A2975 RMK AO2 SLP079 SCT005 V BKN P0021 60046 T00220006 58018=
201502170210 SPECI KATL 170210Z 04009KT 3SM +RA BR SCT006 BKN020 OVC080 02/01 A2978 RMK AO2 PRESFR P0012=
201502170152 METAR KATL 170152Z 33015G21KT 3SM +RA BR BKN007 OVC020 02/01 A2979 RMK AO2 SLP096 CIG 004V010 P0011 T00220011=
201502170052 METAR KATL 170052Z 11009KT 1 1/2SM RA BR BKN005 OVC020 02/01 A2976 RMK AO2 SFC VIS 3 SLP084 CIG 003V006 P0014 T00170006=
201502162352 METAR KATL 162352Z 08011G15KT 1 1/2SM RA BR BKN005 OVC020 02/01 A2980 RMK AO2 SFC VIS 2 1/2 SLP099 CIG 003V007 P0024 60047 T00220011 10050 20022 56022=
201502162337 SPECI KATL 162337Z 08013KT 1 1/2SM RA BR BKN005 OVC025 02/01 A2981 RMK AO2 SFC VIS 2 CIG 003V007 P0019=
201502162252 METAR KATL 162252Z 08010KT 1SM RA BR BKN005 BKN018 OVC030 03/02 A2982 RMK AO2 SFC VIS 1 1/2 SLP105 CIG 003V007 P0008 T00280017=
201502162248 SPECI KATL 162248Z 07012KT 1SM RA BR BKN005 BKN018 OVC030 03/02 A2983 RMK AO2 SFC VIS 1 1/2 CIG 003V007 P0007=
201502162235 SPECI KATL 162235Z 07012KT 2SM -RA BR BKN006 BKN018 OVC030 03/02 A2982 RMK AO2 SFC VIS 2 1/2 CIG 004V008 P0003=
201502162152 METAR KATL 162152Z 08006KT 2SM -RA BR FEW005 BKN019 OVC030 04/02 A2983 RMK AO2 SFC VIS 5 SLP108 P0009 T00390022=
201502162101 SPECI KATL 162101Z 09010KT 2SM RA BR BKN019 BKN030 OVC080 04/02 A2986 RMK AO2 SFC VIS 2 1/2 P0002=
201502162052 METAR KATL 162052Z 09009KT 2SM -RA BR BKN019 BKN030 OVC080 04/02 A2987 RMK AO2 SFC VIS 3 RAB1955 SLP120 P0004 60006 T00440022 56044=
201502162030 SPECI KATL 162030Z 10006KT 4SM -RA BKN019 BKN030 OVC080 04/01 A2987 RMK AO2 RAB1955 P0002=
201502161952 METAR KATL 161952Z 10008KT 10SM BKN019 BKN030 OVC080 04/01 A2989 RMK AO2 RAE41 SLP129 P0001 T00390006=
201502161852 METAR KATL 161852Z 12009KT 6SM -RA BKN017 BKN030 OVC090 04/00 A2994 RMK AO2 RAE1756B29 SLP147 P0001 T00390000=
201502161836 SPECI KATL 161836Z 12010G15KT 3SM -RA BKN020 BKN030 OVC090 04/M01 A2995 RMK AO2 SFC VIS 4 RAE1756B29 PRESFR P0001=
201502161833 SPECI KATL 161833Z 13010KT 5SM -RA BKN020 BKN030 OVC090 04/M02 A2996 RMK AO2 RAE1756B29 P0000=
201502161752 METAR KATL 161752Z 13009KT 10SM -RA BKN020 BKN030 OVC090 04/M02 A3000 RMK AO2 RAB1657E21B46 SLP166 P0000 60000 T00441022 10044 20011 58034=
201502161652 METAR KATL 161652Z 14009G16KT 10SM BKN023 BKN030 OVC090 04/M04 A3004 RMK AO2 SLP180 T00441039=
201502161552 METAR KATL 161552Z 13010KT 10SM BKN025 BKN030 OVC090 04/M05 A3009 RMK AO2 SLP196 VIRGA NW SHRA DSNT N T00391050=
201502161452 METAR KATL 161452Z 13008KT 10SM BKN027 BKN030 OVC090 03/M07 A3010 RMK AO2 SLP202 VIRGA W-NW-N T00331067 56006=
201502161449 SPECI KATL 161449Z 13009KT 10SM BKN027 BKN030 OVC090 03/M07 A3010 RMK AO2 VIRGA W-NW-N=
201502161352 METAR KATL 161352Z 13009KT 10SM BKN032 OVC095 02/M08 A3012 RMK AO2 SLP208 T00221083=
201502161252 METAR KATL 161252Z 13009KT 10SM OVC100 01/M09 A3012 RMK AO2 SLP209 BINOVC T00111094=
201502161152 METAR KATL 161152Z 12009G16KT 10SM BKN100 01/M10 A3012 RMK AO2 SLP210 VIRGA N T00111100 10017 20006 58012=
201502161052 METAR KATL 161052Z 11007KT 10SM BKN110 BKN150 BKN220 01/M11 A3014 RMK AO2 SLP214 T00111111=
201502160952 METAR KATL 160952Z 12008KT 10SM FEW046 SCT095 BKN150 BKN180 02/M13 A3015 RMK AO2 SLP217 T00171128=
201502160852 METAR KATL 160852Z 10008KT 10SM SCT046 BKN150 BKN220 01/M13 A3016 RMK AO2 SLP221 T00111133 58021=
201502160752 METAR KATL 160752Z 08008KT 10SM SCT046 BKN100 BKN180 BKN220 01/M15 A3020 RMK AO2 SLP233 T00111150=
201502160652 METAR KATL 160652Z 07007KT 10SM BKN050 BKN110 OVC220 01/M15 A3023 RMK AO2 SLP243 T00111150=
201502160552 METAR KATL 160552Z 05005KT 10SM OVC110 01/M16 A3022 RMK AO2 SLP244 T00111161 10022 20006 56006=
201502160452 METAR KATL 160452Z 00000KT 10SM BKN110 OVC220 01/M17 A3023 RMK AO2 SLP245 T00111167 400891056=
201502160352 METAR KATL 160352Z 02005KT 10SM SCT110 BKN200 OVC250 01/M17 A3023 RMK AO2 SLP247 T00061172=
201502160252 METAR KATL 160252Z 32005KT 10SM BKN110 OVC200 01/M17 A3024 RMK AO2 SLP252 T00061172 51007=
201502160152 METAR KATL 160152Z 34006KT 10SM FEW075 BKN110 OVC200 01/M18 A3024 RMK AO2 SLP252 T00111178=
201502160052 METAR KATL 160052Z 32006KT 10SM FEW080 SCT110 BKN200 OVC250 01/M18 A3023 RMK AO2 SLP248 T00111183=
201502152352 METAR KATL 152352Z 34007KT 10SM FEW085 SCT110 BKN200 OVC250 02/M19 A3022 RMK AO2 SLP244 T00221189 10050 20022 55004=
201502152252 METAR KATL 152252Z 34007KT 10SM SCT085 BKN110 OVC200 03/M19 A3021 RMK AO2 SLP242 T00281189=
201502152152 METAR KATL 152152Z 30007KT 10SM BKN095 OVC200 03/M19 A3022 RMK AO2 SLP244 T00331194=
201502152052 METAR KATL 152052Z 31008KT 10SM FEW085 BKN100 BKN250 04/M18 A3023 RMK AO2 SLP246 T00391183 55009=
201502151952 METAR KATL 151952Z 29003KT 10SM FEW080 BKN250 04/M18 A3021 RMK AO2 SLP239 T00441178=
201502151852 METAR KATL 151852Z 35007G14KT 10SM FEW080 BKN250 03/M18 A3023 RMK AO2 SLP243 T00331178=
201502151752 METAR KATL 151752Z 34008KT 10SM SCT250 02/M17 A3026 RMK AO2 SLP253 T00221167 10022 21056 58007=
201502151652 METAR KATL 151652Z 33008KT 10SM FEW250 01/M16 A3029 RMK AO2 SLP265 T00061161=
201502151552 METAR KATL 151552Z 33007KT 10SM FEW250 M02/M17 A3029 RMK AO2 SLP264 T10171172=
201502151452 METAR KATL 151452Z 31009KT 10SM FEW250 M03/M17 A3028 RMK AO2 SLP260 T10331167 51027=
201502151352 METAR KATL 151352Z 33012KT 10SM CLR M04/M16 A3026 RMK AO2 SLP253 T10441161=
201502151252 METAR KATL 151252Z 34012KT 10SM CLR M06/M16 A3022 RMK AO2 SLP240 T10561161=
201502151152 METAR KATL 151152Z 34014KT 10SM CLR M05/M17 A3020 RMK AO2 PK WND 34027/1125 SLP232 T10501167 10067 21050 53023=
201502151052 METAR KATL 151052Z 35016KT 10SM CLR M04/M17 A3017 RMK AO2 SLP220 T10391172=
201502150952 METAR KATL 150952Z 34018G24KT 10SM CLR M03/M15 A3015 RMK AO2 SLP213 T10281150=
201502150852 METAR KATL 150852Z 33012G21KT 10SM CLR M01/M12 A3013 RMK AO2 PK WND 31027/0804 SLP206 T10111122 51018=
201502150752 METAR KATL 150752Z 32016G27KT 10SM CLR 01/M14 A3013 RMK AO2 PK WND 32031/0725 SLP205 T00111139=
201502150652 METAR KATL 150652Z 31021G32KT 10SM CLR 04/M07 A3008 RMK AO2 PK WND 33032/0644 SLP189 T00441072=
201502150552 METAR KATL 150552Z 32020G26KT 10SM CLR 07/M03 A3007 RMK AO2 PK WND 32031/0513 SLP185 T00671033 10144 20067 51018=
201502150452 METAR KATL 150452Z 32015G23KT 10SM FEW090 09/M03 A3006 RMK AO2 PK WND 33031/0421 SLP181 T00891028 401561017=
201502150352 METAR KATL 150352Z 32020G27KT 10SM SCT090 SCT250 12/M02 A3003 RMK AO2 PK WND 31040/0309 SLP172 T01171022=
201502150252 METAR KATL 150252Z 31020G30KT 10SM FEW065 BKN080 BKN110 BKN250 13/M03 A3002 RMK AO2 PK WND 30034/0239 SLP167 T01281028 53025=
201502150152 METAR KATL 150152Z 28013G18KT 10SM BKN075 BKN100 BKN250 13/M02 A2998 RMK AO2 SLP154 T01331022=
201502150052 METAR KATL 150052Z 25010KT 10SM BKN080 BKN110 BKN250 14/M02 A2995 RMK AO2 SLP147 T01391022=
201502142352 METAR KATL 142352Z 25010G19KT 10SM FEW095 BKN110 14/M03 A2994 RMK AO2 SLP142 ACC DSNT NW-N T01391028 10156 20122 56003=
201502142252 METAR KATL 142252Z 27010G16KT 10SM SCT110 14/M03 A2995 RMK AO2 SLP145 ACC DSNT NW-NE T01441033=
201502142152 METAR KATL 142152Z 26012G19KT 10SM FEW120 16/M03 A2994 RMK AO2 PK WND 29026/2058 SLP143 T01561033=
201502142052 METAR KATL 142052Z 26015G24KT 10SM CLR 15/M04 A2995 RMK AO2 SLP145 T01501039 56031=
201502141952 METAR KATL 141952Z 26017G27KT 10SM CLR 15/M04 A2998 RMK AO2 PK WND 30027/1948 SLP154 T01501044=
201502141852 METAR KATL 141852Z 25014G20KT 10SM CLR 14/M05 A3000 RMK AO2 SLP161 T01391050=
201502141752 METAR KATL 141752Z 27015G22KT 10SM CLR 13/M06 A3004 RMK AO2 SLP178 T01281056 10128 20000 57028=
201502141652 METAR KATL 141652Z 28015G21KT 10SM CLR 10/M07 A3007 RMK AO2 SLP189 T01001067=
201502141552 METAR KATL 141552Z 27009KT 10SM CLR 08/M08 A3010 RMK AO2 SLP197 T00781083=
201502141452 METAR KATL 141452Z 27012G16KT 10SM CLR 05/M11 A3013 RMK AO2 SLP209 T00501106 52001=
201502141352 METAR KATL 141352Z 27009KT 10SM FEW050 03/M11 A3013 RMK AO2 SLP211 T00331111=
201502141252 METAR KATL 141252Z 26004KT 10SM CLR 01/M12 A3012 RMK AO2 SLP208 T00061117=
201502141152 METAR KATL 141152Z 26006KT 10SM CLR 01/M13 A3013 RMK AO2 SLP209 T00061128 10006 21017 55010=
201502141052 METAR KATL 141052Z 23004KT 10SM CLR M02/M12 A3012 RMK AO2 SLP208 T10171122=
201502140952 METAR KATL 140952Z 28005KT 10SM FEW250 M01/M13 A3013 RMK AO2 SLP212 T10111128=
201502140852 METAR KATL 140852Z 29005KT 10SM FEW250 M01/M13 A3016 RMK AO2 SLP219 T10061133 58010=
201502140752 METAR KATL 140752Z 28004KT 10SM SCT250 00/M14 A3017 RMK AO2 SLP225 T00001139=
201502140652 METAR KATL 140652Z 27003KT 10SM FEW200 SCT250 01/M14 A3018 RMK AO2 SLP227 T00061144=
201502140552 METAR KATL 140552Z 29005KT 10SM SCT200 BKN250 01/M14 A3019 RMK AO2 SLP230 T00061139 10039 20006 51004=
201502140452 METAR KATL 140452Z 29004KT 10SM BKN200 BKN250 02/M14 A3018 RMK AO2 SLP227 T00171144 400721039=
201502140352 METAR KATL 140352Z 27004KT 10SM SCT200 BKN250 02/M14 A3019 RMK AO2 SLP231 T00171144=
201502140252 METAR KATL 140252Z 31003KT 10SM BKN250 03/M14 A3017 RMK AO2 SLP226 T00281144 58001=
201502140152 METAR KATL 140152Z 31004KT 10SM SCT250 02/M15 A3019 RMK AO2 SLP234 T00221150=
201502140052 METAR KATL 140052Z 31007KT 10SM SCT250 03/M15 A3019 RMK AO2 SLP233 T00331150=
201502132352 METAR KATL 132352Z 31006KT 10SM BKN250 04/M17 A3018 RMK AO2 SLP228 T00391167 10072 20039 58002=
201502132252 METAR KATL 132252Z 33006KT 10SM BKN250 06/M17 A3018 RMK AO2 SLP227 T00561172=
201502132152 METAR KATL 132152Z 31006KT 10SM BKN250 07/M16 A3018 RMK AO2 SLP230 T00671156=
201502132052 METAR KATL 132052Z 33006KT 10SM FEW250 07/M17 A3018 RMK AO2 SLP229 T00721167 56024=
201502131952 METAR KATL 131952Z 28007KT 10SM FEW250 07/M14 A3020 RMK AO2 SLP236 T00671139=
201502131852 METAR KATL 131852Z 35007KT 10SM FEW200 06/M13 A3022 RMK AO2 SLP243 T00561133=
201502131752 METAR KATL 131752Z VRB05KT 10SM FEW200 04/M12 A3026 RMK AO2 SLP256 T00391122 10044 21039 58016=
201502131652 METAR KATL 131652Z 32004KT 10SM FEW180 SCT200 SCT300 02/M13 A3029 RMK AO2 SLP268 T00221128=
201502131552 METAR KATL 131552Z 00000KT 10SM FEW180 BKN250 BKN300 00/M13 A3030 RMK AO2 SLP273 T00001128=
201502131452 METAR KATL 131452Z 33005KT 10SM FEW180 SCT250 BKN300 M01/M12 A3030 RMK AO2 SLP273 T10111117 51020=
201502131352 METAR KATL 131352Z 35008KT 10SM FEW140 BKN200 BKN250 M03/M12 A3030 RMK AO2 SLP272 T10281122=
201502131252 METAR KATL 131252Z 34007KT 10SM FEW130 BKN200 BKN250 M03/M12 A3027 RMK AO2 SLP263 VIRGA NW-NE T10331122=
201502131228 SPECI KATL 131228Z 33008KT 10SM SCT140 BKN200 BKN250 M03/M12 A3026 RMK AO2=
201502131152 METAR KATL 131152Z 02006KT 10SM SCT140 BKN180 BKN250 M03/M12 A3024 RMK AO2 SLP252 T10331122 11028 21033 50013=
201502131052 METAR KATL 131052Z 33007KT 10SM BKN150 BKN200 M03/M12 A3025 RMK AO2 SLP254 T10331122=
201502130952 METAR KATL 130952Z 33010G17KT 10SM BKN180 OVC250 M03/M12 A3023 RMK AO2 SLP246 T10331122=
201502130852 METAR KATL 130852Z 34011KT 10SM BKN180 BKN250 M03/M12 A3021 RMK AO2 SLP237 T10281122 57001=
201502130752 METAR KATL 130752Z 34010KT 10SM BKN200 BKN250 M03/M12 A3021 RMK AO2 SLP237 T10331122=
201502130652 METAR KATL 130652Z 33012G19KT 10SM FEW250 M03/M13 A3021 RMK AO2 SLP236 T10331128=
201502130552 METAR KATL 130552Z 33011KT 10SM FEW250 M03/M13 A3021 RMK AO2 SLP237 T10281128 10011 21028 58009=
201502130452 METAR KATL 130452Z 35010KT 10SM FEW250 M02/M13 A3023 RMK AO2 SLP244 T10221133 401001022=
201502130352 METAR KATL 130352Z 34013KT 10SM FEW250 M02/M13 A3023 RMK AO2 PK WND 34026/0303 SLP244 T10171128=
201502130252 METAR KATL 130252Z 35011G21KT 10SM CLR M01/M13 A3024 RMK AO2 SLP247 T10111128 51016=
201502130152 METAR KATL 130152Z 35019G27KT 10SM CLR M01/M13 A3024 RMK AO2 PK WND 35027/0144 SLP247 T10061133=
201502130052 METAR KATL 130052Z 33012KT 10SM CLR 00/M12 A3023 RMK AO2 PK WND 33027/2353 SLP243 T00001117=
201502122352 METAR KATL 122352Z 34020G25KT 10SM CLR 01/M12 A3019 RMK AO2 PK WND 33029/2255 SLP229 T00111117 10094 20011 53027=
201502122252 METAR KATL 122252Z 33018G27KT 10SM CLR 03/M09 A3015 RMK AO2 PK WND 33027/2252 SLP215 T00331094=
201502122152 METAR KATL 122152Z 34020G26KT 10SM FEW050 04/M09 A3013 RMK AO2 PK WND 33030/2117 SLP207 T00441089=
201502122052 METAR KATL 122052Z 31022G29KT 10SM CLR 06/M08 A3010 RMK AO2 PK WND 33034/2030 SLP199 T00561083 53018=
201502121952 METAR KATL 121952Z 33023G33KT 10SM FEW050 07/M09 A3008 RMK AO2 PK WND 33033/1947 SLP189 T00721094=
201502121852 METAR KATL 121852Z 32019G30KT 10SM FEW040 09/M07 A3005 RMK AO2 PK WND 33032/1816 SLP179 T00941072=
201502121752 METAR KATL 121752Z 32022G35KT 10SM CLR 09/M07 A3005 RMK AO2 PK WND 32035/1744 SLP178 T00941067 10100 20039 58002=
201502121652 METAR KATL 121652Z 32019G28KT 10SM CLR 09/M05 A3005 RMK AO2 PK WND 31028/1645 SLP180 T00891050=
201502121552 METAR KATL 121552Z 31019G24KT 10SM FEW030 08/M02 A3006 RMK AO2 PK WND 32031/1458 SLP182 T00781017=
201502121452 METAR KATL 121452Z 33021G28KT 8SM FEW020 06/00 A3005 RMK AO2 PK WND 33029/1427 SLP180 T00610000 53015=
201502121352 METAR KATL 121352Z 30012KT 10SM FEW030 SCT120 SCT250 06/M01 A3003 RMK AO2 SLP171 T00611006=
201502121252 METAR KATL 121252Z 29009KT 10SM FEW120 SCT250 04/M01 A3001 RMK AO2 SLP165 T00441011=
201502121152 METAR KATL 121152Z 31009KT 10SM FEW250 05/M02 A3001 RMK AO2 SLP163 T00501017 10083 20050 53007=
201502121052 METAR KATL 121052Z 32011KT 10SM FEW250 06/M02 A3000 RMK AO2 SLP159 T00561017=
201502120952 METAR KATL 120952Z 31011KT 10SM FEW200 SCT250 06/M02 A2998 RMK AO2 SLP153 T00561017=
201502120852 METAR KATL 120852Z 31009KT 10SM SCT200 BKN250 06/M02 A2999 RMK AO2 SLP155 T00611017 58008=
201502120752 METAR KATL 120752Z 32010KT 10SM SCT200 BKN250 07/M02 A3000 RMK AO2 SLP159 T00721017=
201502120652 METAR KATL 120652Z 31006KT 10SM FEW200 SCT250 07/M02 A3001 RMK AO2 SLP163 T00721022=
201502120552 METAR KATL 120552Z 30008KT 10SM BKN250 08/M02 A3001 RMK AO2 SLP164 T00781017 10133 20078 56004=
201502120452 METAR KATL 120452Z 31009KT 10SM BKN250 08/M01 A3002 RMK AO2 SLP166 T00831011 401780000=
201502120352 METAR KATL 120352Z 29006KT 10SM SCT250 09/M01 A3002 RMK AO2 SLP168 T00941006=
201502120252 METAR KATL 120252Z 30008KT 10SM SCT250 11/00 A3003 RMK AO2 SLP170 T01060000 50006=
201502120152 METAR KATL 120152Z 32006KT 10SM SCT250 11/00 A3003 RMK AO2 SLP173 T01060000=
201502120052 METAR KATL 120052Z 31008KT 10SM FEW250 12/M01 A3002 RMK AO2 SLP170 T01221006=
201502112352 METAR KATL 112352Z 32007KT 10SM FEW250 13/M01 A3001 RMK AO2 SLP165 T01331006 10178 20128 53005=
201502112252 METAR KATL 112252Z 30004KT 10SM FEW250 16/M01 A3000 RMK AO2 SLP161 T01611011=
201502112152 METAR KATL 112152Z 31006KT 10SM FEW250 18/00 A2999 RMK AO2 SLP158 T01780000=
201502112052 METAR KATL 112052Z 30008KT 10SM CLR 17/M01 A2999 RMK AO2 SLP158 T01721006 55015=
201502111952 METAR KATL 111952Z 34004KT 10SM CLR 17/02 A2999 RMK AO2 SLP157 T01670017=
201502111852 METAR KATL 111852Z 30003KT 10SM CLR 15/02 A3001 RMK AO2 SLP164 T01500022=
201502111752 METAR KATL 111752Z VRB03KT 10SM CLR 13/02 A3004 RMK AO2 SLP175 T01280022 10128 20017 58011=
201502111652 METAR KATL 111652Z 00000KT 10SM CLR 11/02 A3006 RMK AO2 SLP182 T01060017=
201502111552 METAR KATL 111552Z 14003KT 10SM CLR 08/01 A3007 RMK AO2 SLP189 T00830006=
201502111452 METAR KATL 111452Z 13007KT 10SM CLR 07/00 A3007 RMK AO2 SLP188 T00670000 50013=
201502111352 METAR KATL 111352Z 09007KT 10SM CLR 05/00 A3007 RMK AO2 SLP188 T00500000=
201502111252 METAR KATL 111252Z 07007KT 10SM CLR 03/00 A3006 RMK AO2 SLP184 T00330000=
201502111152 METAR KATL 111152Z 08007KT 10SM CLR 02/M01 A3003 RMK AO2 SLP175 T00221006 10028 20000 53015=
201502111052 METAR KATL 111052Z 33003KT 10SM CLR 00/M02 A3002 RMK AO2 SLP171 T00001022=
201502110952 METAR KATL 110952Z 32005KT 10SM CLR 01/M02 A3000 RMK AO2 SLP164 T00111017=
201502110852 METAR KATL 110852Z 35005KT 10SM CLR 02/M02 A2999 RMK AO2 SLP158 T00171017 53003=
201502110752 METAR KATL 110752Z 34004KT 10SM CLR 02/M01 A2999 RMK AO2 SLP157 T00221011=
201502110652 METAR KATL 110652Z 35006KT 10SM CLR 03/M01 A2998 RMK AO2 SLP155 T00281011=
201502110552 METAR KATL 110552Z 32005KT 10SM CLR 03/M01 A2998 RMK AO2 SLP156 T00331011 10083 20028 53002=
201502110452 METAR KATL 110452Z 32007KT 10SM CLR 04/M01 A2997 RMK AO2 SLP152 T00391006 401220033=
201502110352 METAR KATL 110352Z 32007KT 10SM CLR 05/M01 A2996 RMK AO2 SLP150 T00501006=
201502110252 METAR KATL 110252Z 32009KT 10SM CLR 06/00 A2997 RMK AO2 SLP155 T00560000 51008=
201502110152 METAR KATL 110152Z 32006KT 10SM CLR 07/00 A2997 RMK AO2 SLP152 T00670000=
201502110052 METAR KATL 110052Z 32007KT 10SM CLR 08/01 A2996 RMK AO2 SLP149 T00780006=
201502102352 METAR KATL 102352Z 33010G15KT 10SM CLR 08/01 A2995 RMK AO2 SLP145 T00830006 10122 20083 53013=
201502102252 METAR KATL 102252Z 34009KT 10SM CLR 10/01 A2993 RMK AO2 SLP139 T01000011=
201502102152 METAR KATL 102152Z 32012KT 10SM CLR 12/02 A2991 RMK AO2 SLP133 T01170017=
201502102052 METAR KATL 102052Z 32010KT 10SM FEW050 12/02 A2991 RMK AO2 SLP130 T01220022 55010=
201502101952 METAR KATL 101952Z 31012KT 10SM FEW040 SCT050 12/02 A2990 RMK AO2 SLP127 T01170022=
201502101852 METAR KATL 101852Z 33009KT 10SM FEW050 11/02 A2992 RMK AO2 SLP133 T01110022=
201502101752 SPECI KATL 101752Z 32008G16KT 300V360 10SM FEW050 10/02 A2994 RMK AO2 SLP140 T01000022 10100 20033 58000=
201502101752 METAR KATL 101752Z 32008G16KT 300V360 10SM FEW050 10/02 A2994 RMK AO2 SLP140 T01000022 10100 20033 58000=
201502101652 METAR KATL 101652Z 30009KT 10SM BKN050 08/01 A2995 RMK AO2 SLP144 T00780011=
201502101552 METAR KATL 101552Z 33013KT 10SM FEW016 SCT030 BKN050 07/01 A2995 RMK AO2 SLP145 T00670011=
201502101523 SPECI KATL 101523Z 32014KT 10SM BKN016 BKN030 05/00 A2994 RMK AO2=
201502101452 METAR KATL 101452Z 33014G23KT 10SM BKN014 04/00 A2994 RMK AO2 SLP142 T00440000 51024=
201502101352 METAR KATL 101352Z 32015G20KT 10SM OVC014 04/00 A2992 RMK AO2 SLP136 BINOVC T00390000=
201502101252 METAR KATL 101252Z 32009KT 10SM OVC013 04/01 A2990 RMK AO2 SLP127 T00390006=
201502101152 METAR KATL 101152Z 33020G27KT 10SM OVC013 03/00 A2987 RMK AO2 PK WND 32030/1134 SLP115 BINOVC 70031 T00330000 10061 20033 53008=
201502101052 METAR KATL 101052Z 31014KT 10SM OVC011 04/01 A2985 RMK AO2 SLP110 T00390006=
201502100952 METAR KATL 100952Z 33014G23KT 10SM OVC011 04/01 A2985 RMK AO2 PK WND 32026/0919 SLP108 T00390011=
201502100852 METAR KATL 100852Z 33015G24KT 10SM OVC012 04/01 A2984 RMK AO2 SLP105 T00440011 55003=
201502100752 METAR KATL 100752Z 33020G25KT 10SM OVC010 05/02 A2984 RMK AO2 PK WND 32030/0734 SLP105 T00500017=
201502100652 METAR KATL 100652Z 33019G25KT 10SM OVC012 06/03 A2984 RMK AO2 SLP104 T00560028=
201502100552 METAR KATL 100552Z 32010G20KT 10SM OVC013 06/03 A2985 RMK AO2 PK WND 33026/0503 SLP109 T00610028 10144 20061 51004=
201502100452 METAR KATL 100452Z 33018KT 10SM OVC014 07/03 A2984 RMK AO2 PK WND 32026/0431 SLP106 T00670033 401780067=
201502100352 METAR KATL 100352Z 34015G23KT 10SM OVC015 08/04 A2985 RMK AO2 SLP107 T00830044=
201502100252 METAR KATL 100252Z 33014G21KT 9SM BKN017 OVC030 10/06 A2984 RMK AO2 SLP103 T01000061 51021=
201502100152 METAR KATL 100152Z 32017G21KT 9SM BKN020 OVC030 12/07 A2983 RMK AO2 PK WND 32026/0057 SLP098 T01170072=
201502100121 SPECI KATL 100121Z 32018G24KT 9SM SCT020 BKN027 BKN200 13/08 A2981 RMK AO2 PK WND 32026/0057=
201502100052 METAR KATL 100052Z 33016G27KT 10SM FEW020 SCT030 BKN200 13/08 A2980 RMK AO2 PK WND 33027/0046 SLP090 T01280083=
201502092352 METAR KATL 092352Z 33012KT 10SM SCT022 BKN035 BKN200 14/11 A2977 RMK AO2 SLP079 60004 T01440106 10178 20139 53013=
201502092252 METAR KATL 092252Z 33008KT 10SM FEW030 SCT065 BKN200 14/10 A2976 RMK AO2 RAB22E36 SLP074 TCU DSNT SE AND NW P0004 T01440100=
201502092152 METAR KATL 092152Z 29010KT 10SM SCT030TCU SCT040 SCT200 17/11 A2975 RMK AO2 SLP070 CB DSNT E & S & NW TCU NW-N-NE SHRA DSNT E T01670106=
201502092125 SPECI KATL 092125Z 30013KT 10SM FEW030 SCT040 SCT100 17/10 A2974 RMK AO2 OCNL LTGICCG DSNT N-NE-E CB DSNT N-NE-E & DSNT S SHRA DSNT N-NE-E=
201502092052 METAR KATL 092052Z 31014G20KT 10SM FEW025TCU SCT030 BKN040 17/11 A2973 RMK AO2 SLP065 CB DSNT N-NE & DSNT SE-S TCU NE-E & SE-S 60000 T01720111 56022=
201502091952 METAR KATL 091952Z 31009KT 10SM FEW015 SCT045 17/13 A2975 RMK AO2 SLP070 T01720128=
201502091901 SPECI KATL 091901Z 29005KT 10SM FEW012 SCT015 BKN037 16/13 A2977 RMK AO2=
201502091852 METAR KATL 091852Z 26004KT 10SM FEW012 BKN024 BKN034 15/13 A2977 RMK AO2 RAB17E26 SLP078 P0000 T01500128=
201502091833 SPECI KATL 091833Z 27005KT 10SM FEW010 BKN024 OVC034 14/13 A2978 RMK AO2 RAB17E26 P0000=
201502091810 SPECI KATL 091810Z 26005KT 10SM SCT022 BKN036 OVC046 14/12 A2979 RMK AO2=
201502091752 METAR KATL 091752Z 24004KT 9SM FEW015 BKN020 OVC030 14/12 A2980 RMK AO2 RAE18 SLP089 P0004 60027 T01390122 10144 20139 58009=
201502091723 SPECI KATL 091723Z 27003KT 8SM FEW009 BKN022 OVC033 14/13 A2982 RMK AO2 RAE18 VIS LWR E-SE-S SHRA P0004=
201502091702 SPECI KATL 091702Z 25006KT 6SM -RA BR SCT005 BKN010 OVC036 14/12 A2983 RMK AO2 VIS LWR E-SE-S SHRA P0002=
201502091652 METAR KATL 091652Z 24009KT 6SM -RA BR SCT005 BKN013 OVC034 14/13 A2984 RMK AO2 SLP100 P0005 T01390128=
201502091642 SPECI KATL 091642Z 23007KT 6SM -RA BR FEW005 BKN011 OVC027 14/13 A2983 RMK AO2 P0005=
201502091610 SPECI KATL 091610Z 27003KT 6SM -RA BR FEW007 BKN020 OVC028 14/12 A2983 RMK AO2 P0003=
201502091605 SPECI KATL 091605Z 00000KT 6SM -RA BR BKN014 BKN024 OVC034 14/12 A2983 RMK AO2 P0002=
201502091555 SPECI KATL 091555Z 26004KT 7SM -RA FEW010 BKN019 OVC045 14/12 A2984 RMK AO2 P0000=
201502091552 METAR KATL 091552Z 25004KT 2 1/2SM -RA BR FEW005 BKN027 OVC047 14/12 A2984 RMK AO2 SFC VIS 5 TSB27E48RAB03 SLP101 TS MOV E P0016 T01390122=
201502091539 SPECI KATL 091539Z 25004KT 2 1/2SM TSRA BR SCT005CB BKN009 OVC044 14/13 A2983 RMK AO2 SFC VIS 4 TSB27RAB03 OCNL LTGICCG VC E-SE-S TS VC E-SE-S MOV E P0015=
201502091527 SPECI KATL 091527Z 23005KT 1 1/2SM TSRA BR BKN005CB OVC011 14/13 A2983 RMK AO2 SFC VIS 2 TSB27RAB03 OCNL LTGIC VC S TS VC S MOV E P0009=
201502091516 SPECI KATL 091516Z 24004KT 1 1/2SM RA BR OVC005CB 14/13 A2983 RMK AO2 SFC VIS 2 RAB03 CB OHD-S-SW-W MOV E P0004=
201502091452 METAR KATL 091452Z 21005KT 1 1/2SM BR OVC005 14/13 A2983 RMK AO2 SFC VIS 5 RAE21 SLP098 P0001 60002 T01440133 58010=
201502091415 SPECI KATL 091415Z 21004KT 1 1/2SM -RA BR OVC005 14/13 A2984 RMK AO2 SFC VIS 5 P0001=
201502091352 METAR KATL 091352Z 21006KT 2SM -RA BR OVC005 14/13 A2984 RMK AO2 SFC VIS 5 RAB1259E31B49 SLP102 CIG 004V007 P0001 T01440133=
201502091327 SPECI KATL 091327Z 22005KT 2SM -RA BR OVC005 14/13 A2984 RMK AO2 SFC VIS 4 RAB1259 CIG 004V007 P0001=
201502091252 METAR KATL 091252Z 22006KT 3SM BR OVC006 14/13 A2985 RMK AO2 SFC VIS 4 RAE03 SLP106 CIG 005V008 P0000 T01390128=
201502091227 SPECI KATL 091227Z 21005KT 3SM BR OVC006 14/13 A2985 RMK AO2 SFC VIS 4 RAE03 CIG 005V008 P0000=
201502091152 METAR KATL 091152Z 22005KT 5SM -RA BR OVC007 14/13 A2986 RMK AO2 RAB13 SLP109 CIG 006V009 P0001 60003 70003 T01390128 10144 20139 55006=
201502091052 METAR KATL 091052Z 23008KT 8SM BKN008 OVC046 14/13 A2986 RMK AO2 RAB03E46 SLP107 P0002 T01390128=
201502091036 SPECI KATL 091036Z 23008KT 5SM RA BR SCT007 BKN011 OVC044 14/12 A2985 RMK AO2 RAB03 P0001=
201502090952 METAR KATL 090952Z 24008KT 10SM OVC012 14/11 A2987 RMK AO2 SLP111 T01440111=
201502090935 SPECI KATL 090935Z 23010KT 10SM BKN014 OVC070 14/11 A2987 RMK AO2 SHRA VC W-NW=
201502090928 SPECI KATL 090928Z 24009KT 10SM SCT014 BKN070 OVC100 14/11 A2987 RMK AO2=
201502090852 METAR KATL 090852Z 22009G16KT 10SM FEW047 BKN065 OVC095 14/10 A2988 RMK AO2 SLP113 T01440100 56018=
201502090752 METAR KATL 090752Z 23008KT 10SM FEW047 BKN070 OVC085 14/08 A2989 RMK AO2 SLP119 T01390083=
201502090652 METAR KATL 090652Z 20008KT 10SM FEW047 OVC070 14/07 A2990 RMK AO2 SLP122 T01390072=
201502090552 METAR KATL 090552Z 23003KT 10SM SCT048 OVC065 14/08 A2993 RMK AO2 SLP134 T01390078 10161 20139 56002=
201502090452 METAR KATL 090452Z 20005KT 10SM OVC060 14/08 A2993 RMK AO2 SLP134 T01440078 402000044=
201502090352 METAR KATL 090352Z 19005KT 10SM OVC060 14/08 A2992 RMK AO2 SLP131 BINOVC T01440078=
201502090252 METAR KATL 090252Z 20004KT 10SM OVC055 15/08 A2994 RMK AO2 SLP138 BINOVC T01500078 58006=
201502090152 METAR KATL 090152Z 22004KT 10SM BKN055 BKN200 15/08 A2995 RMK AO2 SLP142 T01500078=
201502090052 METAR KATL 090052Z 24003KT 10SM FEW050 SCT200 14/07 A2996 RMK AO2 SLP147 T01440072=
201502082352 METAR KATL 082352Z 22005KT 10SM FEW048 SCT200 16/07 A2996 RMK AO2 SLP144 T01610072 10200 20161 55004=
201502082252 METAR KATL 082252Z 22006KT 10SM FEW048 SCT200 18/08 A2994 RMK AO2 SLP139 T01830078=
201502082152 METAR KATL 082152Z 22007KT 10SM SCT048 19/08 A2996 RMK AO2 SLP144 T01890078=
201502082052 METAR KATL 082052Z 23008G19KT 10SM SCT044 19/08 A2997 RMK AO2 SLP147 T01940078 56027=
201502081952 METAR KATL 081952Z 23007G15KT 10SM FEW042 18/07 A2998 RMK AO2 SLP152 T01830072=
201502081852 METAR KATL 081852Z 25013G19KT 10SM FEW040 18/07 A3001 RMK AO2 SLP160 T01830072=
201502081752 METAR KATL 081752Z 22013G19KT 10SM FEW035 17/08 A3005 RMK AO2 SLP174 T01720078 10178 20044 58029=
201502081652 METAR KATL 081652Z COR 22009KT 10SM FEW025 17/08 A3009 RMK AO2 SLP188 T01670083=
201502081552 METAR KATL 081552Z 24011KT 10SM FEW007 13/08 A3012 RMK AO2 SLP202 T01330078=
201502081452 METAR KATL 081452Z 21006KT 10SM FEW003 10/07 A3014 RMK AO2 SLP208 STRATUS SE-S T01000072 50004=
201502081414 SPECI KATL 081414Z 25007KT 10SM FEW003 08/07 A3014 RMK AO2 VIS LWR S=
201502081352 METAR KATL 081352Z 24007KT 10SM FEW006 08/06 A3014 RMK AO2 SLP208 VIS LWR SE-SW T00780061=
201502081252 METAR KATL 081252Z 00000KT 10SM FEW006 05/01 A3013 RMK AO2 SLP206 T00500006=
201502081152 METAR KATL 081152Z COR 24003KT 10SM FEW005 06/00 A3013 RMK AO2 SLP203 T00560000 10089 20056 53004=
201502081052 METAR KATL 081052Z 00000KT 10SM CLR 06/M01 A3011 RMK AO2 SLP196 T00611006=
201502080952 METAR KATL 080952Z 22004KT 10SM CLR 06/M01 A3011 RMK AO2 SLP196 T00611011=
201502080852 METAR KATL 080852Z 22003KT 10SM CLR 06/M03 A3011 RMK AO2 SLP197 T00611033 58006=
201502080752 METAR KATL 080752Z 23003KT 10SM CLR 08/M06 A3012 RMK AO2 SLP201 T00781056=
201502080652 METAR KATL 080652Z 22003KT 10SM CLR 08/M06 A3013 RMK AO2 SLP203 T00831061=
201502080552 METAR KATL 080552Z 21004KT 10SM CLR 09/M06 A3013 RMK AO2 SLP204 T00891061 10133 20089 58010=
201502080452 METAR KATL 080452Z 21008KT 10SM CLR 10/M06 A3014 RMK AO2 SLP208 T01001061 401780006=
201502080352 METAR KATL 080352Z 22005KT 10SM CLR 10/M06 A3016 RMK AO2 SLP214 T01001061=
201502080252 METAR KATL 080252Z 21006KT 10SM CLR 10/M06 A3016 RMK AO2 SLP216 T01001061 51006=
201502080152 METAR KATL 080152Z 20005KT 10SM FEW250 11/M07 A3016 RMK AO2 SLP217 T01061072=
201502080052 METAR KATL 080052Z 20006KT 10SM FEW250 12/M08 A3015 RMK AO2 SLP215 T01221078=
201502072352 METAR KATL 072352Z 21006KT 10SM FEW250 13/M08 A3015 RMK AO2 SLP212 T01331083 10178 20133 55001=
201502072252 METAR KATL 072252Z 21008KT 10SM FEW250 17/M09 A3014 RMK AO2 SLP211 T01671089=
201502072152 METAR KATL 072152Z 21008KT 10SM FEW250 18/M09 A3014 RMK AO2 SLP209 T01781094=
201502072052 METAR KATL 072052Z 21011KT 10SM FEW250 18/M11 A3015 RMK AO2 SLP211 T01781111 56030=
201502071952 METAR KATL 071952Z 22008KT 10SM FEW250 17/M08 A3017 RMK AO2 SLP217 T01721083=
201502071852 METAR KATL 071852Z 25007KT 10SM FEW250 16/M09 A3020 RMK AO2 SLP228 T01611094=
201502071752 METAR KATL 071752Z 21007G14KT 180V240 10SM FEW250 15/M06 A3024 RMK AO2 SLP242 T01501056 10150 20006 58018=
201502071652 METAR KATL 071652Z 22010G15KT 10SM FEW250 13/M06 A3028 RMK AO2 SLP256 T01331061=
201502071552 METAR KATL 071552Z 25008KT 10SM FEW250 11/M05 A3029 RMK AO2 SLP260 T01111050=
201502071452 METAR KATL 071452Z 24009KT 10SM FEW250 08/M06 A3029 RMK AO2 SLP262 T00831056 50007 $=
201502071352 METAR KATL 071352Z 24003KT 10SM FEW250 06/M05 A3030 RMK AO2 SLP264 T00561050 $=
201502071252 METAR KATL 071252Z 00000KT 10SM CLR 02/M07 A3027 RMK AO2 SLP258 T00171067 $=
201502071152 METAR KATL 071152Z COR 00000KT 10SM CLR 02/M08 A3027 RMK AO2 SLP256 T00221078 10044 20006 53003 $=
201502071052 METAR KATL 071052Z 00000KT 10SM CLR 01/M07 A3026 RMK AO2 SLP252 T00111072 $=
201502070952 METAR KATL 070952Z 00000KT 10SM CLR 02/M07 A3026 RMK AO2 SLP251 T00221072 $=
201502070852 METAR KATL 070852Z 17003KT 10SM CLR 01/M06 A3026 RMK AO2 SLP253 T00061056 57003 $=
201502070752 METAR KATL 070752Z 00000KT 10SM CLR 03/M09 A3027 RMK AO2 SLP256 T00281089 $=
201502070652 METAR KATL 070652Z 22004KT 10SM CLR 04/M09 A3027 RMK AO2 SLP254 T00391094 $=
201502070552 METAR KATL 070552Z 00000KT 10SM FEW250 04/M09 A3027 RMK AO2 SLP257 T00441094 10089 20028 58008 $=
201502070452 METAR KATL 070452Z COR 00000KT 10SM FEW250 04/M07 A3028 RMK AO2 SLP260 T00441072 401171033 PNO $=
201502070352 METAR KATL 070352Z 00000KT 10SM FEW250 05/M09 A3029 RMK AO2 SLP264 T00501089=
201502070252 METAR KATL 070252Z 23004KT 10SM FEW250 06/M10 A3030 RMK AO2 SLP267 T00611100 58002=
201502070152 METAR KATL 070152Z 22003KT 10SM BKN250 07/M10 A3031 RMK AO2 SLP272 T00671100=
201502070052 METAR KATL 070052Z 00000KT 10SM FEW200 BKN250 07/M11 A3031 RMK AO2 SLP273 T00721106=
201502062352 METAR KATL 062352Z 23003KT 10SM FEW200 BKN250 08/M11 A3031 RMK AO2 SLP271 T00831111 10117 20078 53001=
201502062252 METAR KATL 062252Z 28004KT 10SM FEW200 BKN250 10/M12 A3031 RMK AO2 SLP270 T01001122=
201502062152 METAR KATL 062152Z 26005KT 10SM BKN250 11/M12 A3030 RMK AO2 SLP268 T01111122=
201502062052 METAR KATL 062052Z 20007KT 10SM BKN250 11/M13 A3030 RMK AO2 SLP268 T01111133 56023=
201502061952 METAR KATL 061952Z VRB04KT 10SM BKN250 11/M13 A3031 RMK AO2 SLP271 T01061133=
201502061852 METAR KATL 061852Z 00000KT 10SM BKN250 09/M13 A3035 RMK AO2 SLP285 T00941133=
201502061752 METAR KATL 061752Z VRB03KT 10SM BKN250 09/M13 A3037 RMK AO2 SLP292 T00891128 10089 21033 58008=
201502061652 METAR KATL 061652Z 11004KT 10SM FEW200 BKN250 06/M14 A3040 RMK AO2 SLP302 T00611144=
201502061552 METAR KATL 061552Z 14005KT 10SM FEW200 BKN250 04/M15 A3040 RMK AO2 SLP304 T00391150=
201502061452 METAR KATL 061452Z 14005KT 10SM FEW200 BKN250 02/M13 A3040 RMK AO2 SLP303 T00221133 51013=
201502061352 METAR KATL 061352Z 12005KT 10SM FEW200 SCT250 01/M12 A3039 RMK AO2 SLP298 T00111122=
201502061252 METAR KATL 061252Z 00000KT 10SM FEW200 SCT250 M02/M12 A3039 RMK AO2 SLP299 T10171117=
201502061152 METAR KATL 061152Z 00000KT 10SM FEW250 M03/M11 A3036 RMK AO2 SLP290 T10281111 11006 21033 53013 $=
201502061052 METAR KATL 061052Z 00000KT 10SM CLR M02/M11 A3035 RMK AO2 SLP285 T10221111=
201502060952 METAR KATL 060952Z 33004KT 10SM CLR M03/M11 A3033 RMK AO2 SLP279 T10331111 $=
201502060852 METAR KATL 060852Z 32003KT 10SM CLR M02/M12 A3032 RMK AO2 SLP274 T10221117 50004 $=
201502060752 METAR KATL 060752Z 33005KT 10SM CLR M02/M12 A3033 RMK AO2 SLP277 T10221117=
201502060652 METAR KATL 060652Z 34006KT 10SM CLR M01/M12 A3032 RMK AO2 SLP274 T10111117=
201502060552 METAR KATL 060552Z 33006KT 10SM CLR M01/M12 A3031 RMK AO2 SLP269 T10061117 10050 21006 51015=
201502060452 METAR KATL 060452Z 32005KT 10SM CLR M01/M12 A3029 RMK AO2 SLP264 T10061117 401061006=
201502060352 METAR KATL 060352Z 34008KT 10SM CLR 01/M12 A3028 RMK AO2 SLP260 T00111117=
201502060252 METAR KATL 060252Z 34010KT 10SM CLR 02/M12 A3026 RMK AO2 SLP254 T00221117 53020=
201502060152 METAR KATL 060152Z 34012KT 10SM CLR 03/M11 A3024 RMK AO2 SLP246 T00281111=
201502060052 METAR KATL 060052Z 34011KT 10SM CLR 04/M11 A3022 RMK AO2 SLP240 T00391106=
201502052352 METAR KATL 052352Z 32014G20KT 10SM CLR 05/M09 A3020 RMK AO2 SLP232 T00501094 10106 20050 53022=
201502052252 METAR KATL 052252Z 33014KT 10SM FEW250 07/M09 A3018 RMK AO2 SLP225 T00721094=
201502052152 METAR KATL 052152Z 33011G21KT 10SM FEW250 09/M09 A3016 RMK AO2 SLP216 T00891089=
201502052052 METAR KATL 052052Z 33020G23KT 10SM FEW250 09/M08 A3014 RMK AO2 SLP209 T00941083 53002=
201502051952 METAR KATL 051952Z 34017G23KT 10SM CLR 10/M07 A3013 RMK AO2 PK WND 35026/1936 SLP206 T01001067=
201502051852 METAR KATL 051852Z 35015G22KT 10SM FEW250 10/M05 A3012 RMK AO2 SLP204 T01001050=
201502051752 METAR KATL 051752Z 35015G24KT 10SM FEW250 09/M03 A3013 RMK AO2 PK WND 32026/1714 SLP206 T00941033 10094 20050 50011=
201502051652 METAR KATL 051652Z 33018G21KT 10SM FEW100 BKN250 09/M01 A3013 RMK AO2 SLP206 T00941006=
201502051552 METAR KATL 051552Z 34017KT 10SM FEW035 BKN100 BKN250 08/00 A3012 RMK AO2 SLP202 T00780000=
201502051452 METAR KATL 051452Z 34017G25KT 10SM FEW030 SCT100 SCT250 08/M01 A3010 RMK AO2 PK WND 34027/1435 SLP195 T00781006 53021=
201502051352 METAR KATL 051352Z 35014G19KT 10SM FEW055 SCT150 SCT200 SCT250 07/M02 A3007 RMK AO2 SLP187 T00671017=
201502051252 METAR KATL 051252Z 33012G19KT 10SM FEW055 SCT100 SCT150 SCT200 06/M03 A3005 RMK AO2 SLP178 T00561033=
201502051152 METAR KATL 051152Z 33011G20KT 10SM SCT055 SCT100 BKN150 BKN200 06/M04 A3003 RMK AO2 SLP173 T00561039 10061 20050 53003=
201502051052 METAR KATL 051052Z 33010KT 10SM FEW100 SCT150 BKN200 BKN250 06/M04 A3003 RMK AO2 SLP172 T00561039=
201502050952 METAR KATL 050952Z 30007KT 10SM FEW110 BKN130 BKN200 BKN250 06/M03 A3003 RMK AO2 SLP171 T00611033=
201502050852 METAR KATL 050852Z 32008KT 10SM BKN110 BKN150 BKN200 06/M02 A3002 RMK AO2 SLP170 T00561022 56010=
201502050752 METAR KATL 050752Z 28004KT 10SM BKN120 OVC200 06/M02 A3004 RMK AO2 SLP176 T00561017=
201502050652 METAR KATL 050652Z 32006KT 10SM BKN120 BKN150 OVC200 06/M01 A3004 RMK AO2 SLP175 T00611011=
201502050552 METAR KATL 050552Z 34004KT 10SM BKN130 OVC200 06/M01 A3005 RMK AO2 SLP181 T00611011 10089 20061 56013=
201502050452 METAR KATL 050452Z 33003KT 10SM FEW050 BKN150 OVC200 07/M01 A3007 RMK AO2 SLP185 T00721011 401000017=
201502050352 METAR KATL 050352Z 00000KT 10SM FEW050 BKN150 OVC250 07/M02 A3007 RMK AO2 SLP186 T00721017=
201502050252 METAR KATL 050252Z 00000KT 10SM FEW050 SCT150 BKN200 OVC250 08/M02 A3009 RMK AO2 SLP195 T00781017 58007=
201502050152 METAR KATL 050152Z 16003KT 10SM BKN050 BKN150 OVC200 08/M02 A3010 RMK AO2 SLP197 T00831017=
201502050052 METAR KATL 050052Z 00000KT 10SM BKN055 BKN150 OVC200 09/M02 A3012 RMK AO2 SLP205 T00891022=
201502042352 METAR KATL 042352Z 00000KT 10SM FEW075 BKN150 OVC200 09/M03 A3011 RMK AO2 SLP202 T00891033 10100 20083 55008=
201502042252 METAR KATL 042252Z 00000KT 10SM FEW075 SCT150 OVC200 09/M04 A3011 RMK AO2 SLP201 T00941044=
201502042152 METAR KATL 042152Z 15005KT 10SM FEW075 SCT150 BKN170 OVC200 09/M04 A3011 RMK AO2 SLP202 T00941044=
201502042052 METAR KATL 042052Z COR 18004KT 10SM FEW075 SCT150 BKN170 OVC200 10/M04 A3014 RMK AO2 SLP210 VIRGA NE-E-SE-S T01001044 56025=
201502041952 METAR KATL 041952Z 00000KT 10SM FEW150 BKN180 OVC200 10/M04 A3016 RMK AO2 SLP218 T01001044=
201502041852 METAR KATL 041852Z 16005KT 10SM FEW150 BKN180 OVC200 09/M04 A3018 RMK AO2 SLP225 T00941044=
201502041752 METAR KATL 041752Z 17007KT 10SM FEW150 BKN180 OVC250 09/M04 A3022 RMK AO2 SLP237 T00891039 10089 20017 58017=
201502041652 METAR KATL 041652Z 17004KT 10SM FEW150 BKN180 OVC250 08/M04 A3025 RMK AO2 SLP247 T00781039=
201502041552 METAR KATL 041552Z 14005KT 10SM FEW180 SCT200 BKN250 07/M03 A3025 RMK AO2 SLP248 T00671033 $=
201502041452 METAR KATL 041452Z 00000KT 10SM BKN180 BKN250 06/M03 A3027 RMK AO2 SLP255 T00561028 51002=
201502041352 METAR KATL 041352Z 00000KT 10SM BKN200 BKN250 03/M02 A3027 RMK AO2 SLP256 T00331022=
201502041252 METAR KATL 041252Z 10003KT 10SM BKN200 OVC250 03/M04 A3026 RMK AO2 SLP254 T00281039=
201502041152 METAR KATL 041152Z 00000KT 10SM BKN200 OVC250 02/M03 A3026 RMK AO2 SLP254 T00171033 10039 20017 52009=
201502041052 METAR KATL 041052Z 00000KT 10SM SCT200 BKN250 02/M04 A3025 RMK AO2 SLP250 T00221039=
201502040952 METAR KATL 040952Z 00000KT 10SM SCT200 OVC250 02/M04 A3025 RMK AO2 SLP247 T00171044=
201502040852 METAR KATL 040852Z 00000KT 10SM SCT200 OVC250 02/M04 A3024 RMK AO2 SLP244 T00221039 58018=
201502040752 METAR KATL 040752Z 00000KT 10SM BKN200 OVC250 03/M04 A3026 RMK AO2 SLP253 T00281039=
201502040652 METAR KATL 040652Z 00000KT 10SM BKN200 OVC250 03/M05 A3029 RMK AO2 SLP261 T00331050=
201502040552 METAR KATL 040552Z 00000KT 10SM BKN200 OVC250 04/M06 A3029 RMK AO2 SLP262 T00391061 10072 20033 56004=
201502040452 METAR KATL 040452Z 00000KT 10SM BKN250 03/M05 A3029 RMK AO2 SLP264 T00331050 401061039=
201502040352 METAR KATL 040352Z 00000KT 10SM BKN250 05/M07 A3030 RMK AO2 SLP267 T00501067=
201502040252 METAR KATL 040252Z 00000KT 10SM OVC250 05/M07 A3030 RMK AO2 SLP270 T00501067 50006=
201502040152 METAR KATL 040152Z 00000KT 10SM OVC250 06/M07 A3031 RMK AO2 SLP272 T00561067=
201502040052 METAR KATL 040052Z 21003KT 10SM OVC250 06/M07 A3030 RMK AO2 SLP268 T00611067=
201502032352 METAR KATL 032352Z 00000KT 10SM OVC250 08/M07 A3028 RMK AO2 SLP263 T00781072 10106 20067 53003=
201502032252 METAR KATL 032252Z 00000KT 10SM BKN250 09/M09 A3028 RMK AO2 SLP261 T00891094=
201502032152 METAR KATL 032152Z 00000KT 10SM BKN250 09/M09 A3027 RMK AO2 SLP256 T00941094=
201502032052 METAR KATL 032052Z 00000KT 10SM FEW200 BKN250 10/M10 A3027 RMK AO2 SLP259 T01001100 56019=
201502031952 METAR KATL 031952Z 34003KT 10SM BKN250 09/M09 A3029 RMK AO2 SLP264 T00891094=
201502031852 METAR KATL 031852Z VRB04KT 10SM BKN250 08/M07 A3030 RMK AO2 SLP269 T00831072=
201502031752 METAR KATL 031752Z 00000KT 10SM BKN250 07/M08 A3033 RMK AO2 SLP279 T00671078 10072 21039 58001=
201502031652 METAR KATL 031652Z 00000KT 10SM BKN250 05/M07 A3035 RMK AO2 SLP286 T00501072=
201502031552 METAR KATL 031552Z 00000KT 10SM BKN250 02/M07 A3035 RMK AO2 SLP287 T00221072=
201502031452 METAR KATL 031452Z 32003KT 10SM BKN250 00/M07 A3034 RMK AO2 SLP284 T00001072 53017=
201502031352 METAR KATL 031352Z 33007KT 10SM BKN250 M03/M07 A3031 RMK AO2 SLP274 T10281072=
201502031252 METAR KATL 031252Z 33008KT 10SM BKN250 M03/M08 A3030 RMK AO2 SLP273 T10331078=
201502031152 METAR KATL 031152Z 33005KT 10SM SCT250 M04/M08 A3029 RMK AO2 SLP267 T10391078 11022 21039 53011=
201502031052 METAR KATL 031052Z 33008KT 10SM SCT250 M04/M08 A3027 RMK AO2 SLP260 T10391078=
201502030952 METAR KATL 030952Z 33009KT 10SM FEW250 M03/M08 A3026 RMK AO2 SLP257 T10331078=
201502030852 METAR KATL 030852Z 32009KT 10SM CLR M03/M08 A3025 RMK AO2 SLP254 T10331078 53005=
201502030752 METAR KATL 030752Z 33009KT 10SM CLR M03/M08 A3024 RMK AO2 SLP250 T10281078=
201502030652 METAR KATL 030652Z 34010KT 10SM CLR M03/M08 A3022 RMK AO2 SLP244 T10281078=
201502030552 METAR KATL 030552Z 34012KT 10SM CLR M02/M08 A3024 RMK AO2 SLP248 T10221078 10017 21022 53007=
201502030452 METAR KATL 030452Z 32010KT 10SM CLR M02/M08 A3024 RMK AO2 SLP249 T10221078 401391022=
201502030352 METAR KATL 030352Z 35010KT 10SM CLR M02/M08 A3019 RMK AO2 SLP234 T10171078=
201502030252 METAR KATL 030252Z 34008KT 10SM CLR M01/M07 A3021 RMK AO2 SLP240 T10111072 51019=
201502030152 METAR KATL 030152Z 33012KT 10SM CLR 00/M07 A3020 RMK AO2 SLP236 T00001067=
201502030052 METAR KATL 030052Z 32010KT 10SM CLR 01/M07 A3018 RMK AO2 SLP228 T00061067=
201502022352 METAR KATL 022352Z 33014KT 10SM CLR 02/M07 A3016 RMK AO2 SLP218 T00171067 10061 20017 53027=
201502022252 METAR KATL 022252Z 34015G18KT 10SM FEW035 03/M06 A3013 RMK AO2 SLP207 T00281061=
201502022152 METAR KATL 022152Z 31019G23KT 10SM FEW035 04/M04 A3010 RMK AO2 SLP198 T00391044=
201502022052 METAR KATL 022052Z 32017G25KT 10SM SCT030 04/M04 A3007 RMK AO2 PK WND 33028/1957 SLP187 T00391039 53015=
201502021952 METAR KATL 021952Z 31024G28KT 10SM BKN030 04/M03 A3005 RMK AO2 PK WND 34030/1923 SLP177 T00441028=
201502021852 METAR KATL 021852Z 32023G27KT 10SM SCT034 05/M03 A3004 RMK AO2 PK WND 32030/1830 SLP173 T00501028=
201502021752 METAR KATL 021752Z 32022G28KT 10SM BKN034 BKN040 06/M02 A3003 RMK AO2 PK WND 29029/1739 SLP170 T00561022 10072 20044 53015=
201502021652 METAR KATL 021652Z 30019G29KT 10SM BKN038 BKN046 05/M03 A3002 RMK AO2 PK WND 33033/1618 SLP166 T00501028=
201502021552 METAR KATL 021552Z 31020G25KT 10SM FEW029 BKN036 BKN045 05/M02 A2998 RMK AO2 PK WND 30032/1535 SLP155 T00501022=
201502021549 SPECI KATL 021549Z 31017G30KT 10SM FEW029 BKN036 BKN045 05/M02 A2998 RMK AO2 PK WND 30032/1535=
201502021522 SPECI KATL 021522Z 31019G28KT 10SM BKN029 BKN036 BKN048 05/M01 A2996 RMK AO2 PK WND 30032/1504=
201502021452 METAR KATL 021452Z 30020G29KT 10SM FEW030 SCT035 BKN050 06/M01 A2994 RMK AO2 PK WND 31032/1414 SLP141 SHRA DSNT N-NE T00561006 51049=
201502021352 METAR KATL 021352Z 30021G28KT 10SM FEW023 OVC034 06/M01 A2989 RMK AO2 PK WND 29030/1341 SLP124 T00561006=
201502021330 SPECI KATL 021330Z 31021G29KT 10SM SCT023 BKN034 OVC040 06/00 A2988 RMK AO2 PK WND 31029/1330 BINOVC=
201502021252 METAR KATL 021252Z 29018G25KT 10SM BKN025 OVC036 06/01 A2985 RMK AO2 PK WND 29029/1220 SLP109 BKN025 V SCT BINOVC T00610011=
201502021235 SPECI KATL 021235Z 29019G28KT 10SM SCT024 OVC033 07/01 A2984 RMK AO2 PK WND 29029/1220 BINOVC=
201502021152 METAR KATL 021152Z 31022G31KT 10SM BKN018 BKN026 OVC100 08/03 A2980 RMK AO2 PK WND 30035/1137 SLP090 60022 70093 T00780033 10139 20078 53027=
201502021131 SPECI KATL 021131Z 30014G24KT 10SM BKN022 BKN034 BKN100 OVC180 09/06 A2978 RMK AO2=
201502021052 METAR KATL 021052Z 27014G24KT 10SM FEW018 BKN036 BKN100 BKN180 10/06 A2976 RMK AO2 SLP076 T01000056=
201502021041 SPECI KATL 021041Z 29017G23KT 10SM SCT017 BKN034 OVC100 11/06 A2975 RMK AO2 $=
201502021001 SPECI KATL 021001Z 29012KT 10SM FEW009 BKN015 OVC090 11/09 A2974 RMK AO2 $=
201502020952 METAR KATL 020952Z 29012KT 10SM FEW009 BKN013 OVC028 12/09 A2974 RMK AO2 RAE46 SLP069 P0001 T01170094 $=
201502020950 SPECI KATL 020950Z 30012KT 10SM FEW009 BKN013 OVC028 12/09 A2973 RMK AO2 RAE46 P0001 $=
201502020901 SPECI KATL 020901Z 32021KT 7SM BKN008 BKN018 OVC075 13/11 A2972 RMK AO2 RAE0858 P0001 $=
201502020852 METAR KATL 020852Z 27012KT 8SM -RA SCT008 BKN046 OVC075 14/12 A2971 RMK AO2 SLP060 P0010 60021 T01390117 55011 $=
201502020820 SPECI KATL 020820Z 27014G20KT 6SM -RA BR SCT004 BKN034 OVC080 14/12 A2971 RMK AO2 P0009 $=
201502020814 SPECI KATL 020814Z 29009KT 2 1/2SM RA BR BKN004 BKN009 OVC032 14/13 A2971 RMK AO2 P0008 $=
201502020752 METAR KATL 020752Z 24007KT 4SM RA BR BKN005 OVC011 14/13 A2971 RMK AO2 SLP059 CIG 004V008 P0008 T01390128 $=
201502020700 SPECI KATL 020700Z 22007KT 5SM -RA BR BKN008 BKN028 OVC085 13/12 A2972 RMK AO2 CIG 006V010 P0001 $=
201502020652 METAR KATL 020652Z 21007KT 7SM -RA SCT014 SCT055 OVC085 13/12 A2972 RMK AO2 SLP063 P0003 T01330122 $=
201502020552 METAR KATL 020552Z 20006KT 10SM -RA FEW050 BKN085 OVC110 13/12 A2975 RMK AO2 WSHFT 0442 SLP071 P0023 60050 T01280117 10139 20128 58027 $=
201502020505 SPECI KATL 020505Z 25006KT 6SM -RA BR SCT006 BKN034CB OVC065 14/12 A2978 RMK AO2 WSHFT 0442 CB NE-SE-S MOV E P0014 $=
201502020500 SPECI KATL 020500Z 29008G19KT 3SM R09R/5000VP6000FT RA BR BKN006 BKN028CB OVC065 14/13 A2978 RMK AO2 WSHFT 0442 CB NE-SE-S MOV E P0013 $=
201502020457 SPECI KATL 020457Z 29008G19KT 1 1/2SM R09R/5000VP6000FT +RA BR BKN006 OVC028CB 14/12 A2980 RMK AO2 WSHFT 0442 CB NE-OHD-SW MOV E P0011 $=
201502020454 SPECI KATL 020454Z 25013G21KT 3/4SM R09R/5000VP6000FT +RA BR OVC006CB 14/12 A2981 RMK AO2 PRESRR CB NE-OHD-SW MOV E P0000 $=
201502020452 METAR KATL 020452Z 25014G21KT 6SM R09R/5000VP6000FT -RA BR OVC006CB 14/12 A2980 RMK AO2 PRESRR SLP089 CB SW-NW-N MOV E P0004 T01390122 401390044 $=
201502020352 METAR KATL 020352Z 19013G22KT 7SM -RA BKN006 OVC013 13/12 A2978 RMK AO2 SLP085 CIG 004V008 P0010 T01330117 $=
201502020252 METAR KATL 020252Z 19014G26KT 6SM -RA BR OVC008 13/12 A2983 RMK AO2 PK WND 18027/0202 SLP101 CIG 006V010 P0007 60013 T01330117 58024 $=
201502020152 METAR KATL 020152Z 19015G26KT 5SM -RA BR BKN007 OVC018 13/12 A2986 RMK AO2 PK WND 20026/0149 SLP114 CIG 006V009 P0003 T01330117 $=
201502020052 METAR KATL 020052Z 18011G19KT 9SM -RA BKN008 OVC014 13/12 A2988 RMK AO2 SLP120 CIG 006V009 P0003 T01280117 $=
201502012352 METAR KATL 012352Z 18014G20KT 6SM -RA BR BKN008 OVC048 13/11 A2990 RMK AO2 SLP129 CIG 006V010 P0004 60021 T01280111 10133 20117 58017 $=
201502012330 SPECI KATL 012330Z 18009G18KT 10SM -RA BKN008 BKN040 OVC070 13/11 A2992 RMK AO2 P0002 $=
201502012312 SPECI KATL 012312Z 18012KT 8SM -RA FEW007 SCT034 OVC070 12/11 A2992 RMK AO2 P0002 $=
201502012252 METAR KATL 012252Z 17012KT 6SM -RA BR SCT031 BKN050 OVC080 12/11 A2992 RMK AO2 SLP135 P0007 T01220106 $=
201502012152 METAR KATL 012152Z 17010KT 5SM RA BR BKN030 BKN045 OVC070 12/10 A2995 RMK AO2 SLP145 P0005 T01170100 $=
201502012052 METAR KATL 012052Z 16009KT 6SM -RA SCT026 BKN055 OVC090 12/09 A2996 RMK AO2 PRESFR SLP146 P0004 60005 T01220089 56046 $=
201502012032 SPECI KATL 012032Z 19005KT 6SM -RA SCT024 BKN041 OVC050 12/09 A2999 RMK AO2 P0001 $=
201502012005 SPECI KATL 012005Z 17007KT 10SM -RA BKN024 OVC075 12/09 A3000 RMK AO2 P0000 $=
201502011952 METAR KATL 011952Z 16008KT 7SM -RA SCT022 SCT047 OVC080 12/08 A3000 RMK AO2 RAB1853 SLP159 P0001 T01220083 $=
201502011944 SPECI KATL 011944Z 16009KT 6SM -RA SCT022 BKN044 OVC075 12/08 A3000 RMK AO2 RAB1853 P0001 $=
201502011924 SPECI KATL 011924Z 17008KT 10SM -RA BKN022 OVC070 13/08 A3002 RMK AO2 RAB1853 P0000 $=
201502011852 METAR KATL 011852Z 17010KT 10SM SCT022 OVC080 13/07 A3003 RMK AO2 SLP171 T01330067 $=
201502011752 METAR KATL 011752Z 18009KT 10SM SCT023 BKN060 OVC120 13/07 A3010 RMK AO2 SLP192 T01330067 10133 20044 58025 $=
201502011652 METAR KATL 011652Z 19006KT 10SM SCT028 BKN044 OVC120 13/06 A3014 RMK AO2 SLP208 T01280056 $=
201502011619 SPECI KATL 011619Z 19008G15KT 10SM SCT024 BKN050 OVC120 12/05 A3016 RMK AO2 $=
201502011604 SPECI KATL 011604Z 19011KT 10SM BKN024 BKN028 OVC034 12/05 A3017 RMK AO2 $=
201502011552 METAR KATL 011552Z 20013G19KT 10SM BKN030 BKN044 12/05 A3017 RMK AO2 SLP220 T01170050 $=
201502011452 METAR KATL 011452Z 16008KT 10SM SCT039 BKN180 BKN250 09/03 A3017 RMK AO2 SLP220 T00940028 58008 $=
201502011352 METAR KATL 011352Z 13006KT 10SM SCT180 BKN220 BKN250 06/01 A3018 RMK AO2 SLP224 T00610006 $=
201502011252 METAR KATL 011252Z 12005KT 10SM FEW150 SCT180 BKN250 04/M01 A3020 RMK AO2 SLP229 VIRGA NW-N T00441011 $=
