##########################################################
# Query made at 04/19/2024 23:45:52 UTC
# Time interval: from 10/01/2015 12:00  to 10/31/2015 12:59  UTC
##########################################################

##########################################################
# KATL, Atlanta, Hartsfield - Jackson Atlanta International Airport (United States)
# WMO index: 72219. WIGOS ID: 0-20000-0-72219
# Latitude 33-38-59N. Longitude 084-25-00W. Altitude 312 m.
##########################################################

201510311252 METAR KATL 311252Z 08009KT 10SM BKN120 OVC180 13/08 A3010 RMK AO2 SLP190 T01280083=
201510311152 METAR KATL 311152Z 10008KT 10SM SCT130 BKN180 BKN220 12/08 A3008 RMK AO2 SLP183 VIRGA SW-NW T01170078 10117 20100 51001=
201510311052 METAR KATL 311052Z 08006KT 10SM SCT150 BKN180 11/08 A3007 RMK AO2 SLP181 VIRGA ALQDS T01110078=
201510310952 METAR KATL 310952Z 08005KT 10SM FEW150 BKN220 11/07 A3008 RMK AO2 SLP184 T01110072=
201510310852 METAR KATL 310852Z 09005KT 10SM FEW150 BKN220 11/07 A3007 RMK AO2 SLP181 T01110067 50000=
201510310752 METAR KATL 310752Z 00000KT 10SM FEW150 BKN200 BKN250 12/06 A3009 RMK AO2 SLP185 VIRGA NE-SE T01170061=
201510310652 METAR KATL 310652Z 07003KT 10SM FEW150 SCT250 12/06 A3008 RMK AO2 SLP182 T01170061=
201510310552 METAR KATL 310552Z 00000KT 10SM FEW150 SCT250 11/06 A3007 RMK AO2 SLP181 T01110056 10161 20106 50001=
201510310452 METAR KATL 310452Z 00000KT 10SM FEW150 SCT250 11/06 A3007 RMK AO2 SLP182 T01110061 402110089=
201510310352 METAR KATL 310352Z 03004KT 10SM FEW150 BKN250 14/05 A3007 RMK AO2 SLP182 T01440050=
201510310252 METAR KATL 310252Z 35006KT 10SM BKN250 14/06 A3007 RMK AO2 SLP180 T01440056 51009=
201510310152 METAR KATL 310152Z 33006KT 10SM BKN250 14/06 A3007 RMK AO2 SLP181 T01390061=
201510310052 METAR KATL 310052Z 30004KT 10SM BKN250 14/06 A3005 RMK AO2 SLP177 T01440061=
201510302352 METAR KATL 302352Z 30003KT 10SM BKN250 14/06 A3004 RMK AO2 SLP174 T01440056 10211 20139 53003=
201510302252 METAR KATL 302252Z 29005KT 10SM FEW180 BKN250 16/05 A3003 RMK AO2 SLP168 T01610050=
201510302152 METAR KATL 302152Z 29005KT 10SM FEW180 BKN250 18/04 A3003 RMK AO2 SLP169 T01780044=
201510302052 METAR KATL 302052Z 31008KT 10SM SCT250 20/04 A3003 RMK AO2 SLP167 T02000044 55012=
201510301952 METAR KATL 301952Z 31008KT 10SM SCT250 21/03 A3003 RMK AO2 SLP166 T02060033=
201510301852 METAR KATL 301852Z 36006KT 10SM FEW250 21/03 A3005 RMK AO2 SLP173 T02110033=
201510301752 METAR KATL 301752Z 30011KT 10SM FEW250 20/04 A3007 RMK AO2 SLP179 T02000039 10200 20089 58008=
201510301652 METAR KATL 301652Z 30009KT 10SM FEW250 18/04 A3009 RMK AO2 SLP188 T01830039=
201510301552 METAR KATL 301552Z 33005KT 10SM CLR 17/05 A3009 RMK AO2 SLP188 T01670050=
201510301452 METAR KATL 301452Z 32006KT 10SM CLR 14/07 A3009 RMK AO2 SLP189 T01440067 52015=
201510301352 METAR KATL 301352Z 33008KT 10SM CLR 12/07 A3008 RMK AO2 SLP186 T01220072=
201510301252 METAR KATL 301252Z 32008KT 10SM CLR 11/07 A3006 RMK AO2 SLP179 T01060067=
201510301152 METAR KATL 301152Z 32007KT 10SM CLR 09/06 A3005 RMK AO2 SLP175 70001 T00890061 10122 20089 51017=
201510301052 METAR KATL 301052Z 31009KT 10SM CLR 10/07 A3003 RMK AO2 SLP168 T01000072=
201510300952 METAR KATL 300952Z 31007KT 10SM CLR 10/07 A3002 RMK AO2 SLP162 T01000072=
201510300852 METAR KATL 300852Z 31007KT 10SM CLR 11/07 A3000 RMK AO2 SLP156 T01060072 51010=
201510300752 METAR KATL 300752Z 32006KT 10SM CLR 11/08 A2999 RMK AO2 SLP153 T01110083=
201510300652 METAR KATL 300652Z 31006KT 10SM CLR 11/08 A2998 RMK AO2 SLP150 T01110083=
201510300552 METAR KATL 300552Z 31007KT 10SM CLR 12/09 A2997 RMK AO2 SLP145 T01220089 10172 20122 50003=
201510300452 METAR KATL 300452Z 30005KT 10SM CLR 13/11 A2998 RMK AO2 SLP147 T01280106 402110128=
201510300352 METAR KATL 300352Z 29004KT 10SM CLR 14/12 A2997 RMK AO2 SLP146 T01390117=
201510300252 METAR KATL 300252Z 27003KT 10SM CLR 15/12 A2996 RMK AO2 SLP141 T01500117 51013=
201510300152 METAR KATL 300152Z 26003KT 10SM CLR 14/12 A2994 RMK AO2 SLP136 T01440122=
201510300052 METAR KATL 300052Z 29004KT 10SM FEW070 16/13 A2994 RMK AO2 SLP136 T01610133=
201510292352 METAR KATL 292352Z 31005KT 10SM FEW070 17/13 A2992 RMK AO2 SLP128 60001 T01720128 10211 20172 53009=
201510292252 METAR KATL 292252Z 33004KT 10SM FEW020 FEW200 18/13 A2990 RMK AO2 SLP123 T01830128=
201510292152 METAR KATL 292152Z 33005KT 10SM FEW020 SCT200 SCT250 21/14 A2989 RMK AO2 SLP118 T02060144=
201510292052 METAR KATL 292052Z VRB04KT 10SM FEW015 BKN080 BKN250 21/16 A2989 RMK AO2 SLP118 60001 T02060161 55005=
201510291952 METAR KATL 291952Z 33008KT 10SM FEW015 SCT040 BKN080 21/16 A2989 RMK AO2 SLP116 T02060161=
201510291939 SPECI KATL 291939Z 30008KT 10SM SCT015 BKN040 BKN080 20/16 A2990 RMK AO2 T02000161=
201510291855 SPECI KATL 291855Z 30007KT 8SM FEW008 BKN013 BKN030 19/17 A2990 RMK AO2 T01940172=
201510291852 METAR KATL 291852Z 30006KT 7SM SCT008 BKN015 OVC030 19/17 A2990 RMK AO2 RAB16E45 SLP121 SHRA VC E P0001 T01890167=
201510291752 METAR KATL 291752Z 27007KT 5SM HZ BKN009 OVC012 20/17 A2991 RMK AO2 SLP123 T02000167 10200 20144 50004=
201510291652 METAR KATL 291652Z 28008KT 5SM HZ BKN007 OVC011 19/17 A2991 RMK AO2 SLP124 T01940167=
201510291552 METAR KATL 291552Z 26009KT 6SM HZ BKN008 OVC012 19/17 A2991 RMK AO2 SLP123 T01940167=
201510291452 METAR KATL 291452Z 26006KT 7SM BKN007 OVC010 19/17 A2990 RMK AO2 SLP119 T01890167 53010=
201510291426 SPECI KATL 291426Z 25010KT 7SM BKN008 BKN100 BKN250 18/16 A2990 RMK AO2 T01830161=
201510291352 METAR KATL 291352Z COR 22008KT 10SM FEW065 BKN100 BKN250 18/15 A2989 RMK AO2 SLP116 ACC DSNT N T01780150=
201510291252 METAR KATL 291252Z 22004KT 10SM FEW060 SCT110 BKN250 15/13 A2988 RMK AO2 SLP114 T01500133=
201510291152 METAR KATL 291152Z 21005KT 10SM FEW060 SCT100 BKN250 14/13 A2987 RMK AO2 SLP109 70001 T01440128 10156 20133 51015=
201510291052 METAR KATL 291052Z 19006KT 10SM FEW100 BKN250 13/12 A2986 RMK AO2 SLP106 T01330122=
201510290952 METAR KATL 290952Z 29004KT 10SM FEW080 SCT250 15/13 A2985 RMK AO2 SLP101 T01500128=
201510290852 METAR KATL 290852Z 27003KT 10SM FEW080 BKN250 15/13 A2982 RMK AO2 SLP093 T01500133 58006=
201510290752 METAR KATL 290752Z 26004KT 10SM FEW250 16/14 A2984 RMK AO2 SLP098 T01560139=
201510290652 METAR KATL 290652Z 24004KT 10SM FEW250 15/13 A2985 RMK AO2 SLP100 T01500133=
201510290552 METAR KATL 290552Z 23004KT 10SM FEW250 16/14 A2984 RMK AO2 SLP099 T01560139 10194 20156 50000=
201510290452 METAR KATL 290452Z 26005KT 10SM FEW250 17/14 A2985 RMK AO2 SLP102 T01670144 402560133=
201510290352 METAR KATL 290352Z 27006KT 10SM CLR 17/15 A2985 RMK AO2 SLP103 T01720150=
201510290252 METAR KATL 290252Z 25004KT 10SM CLR 18/16 A2984 RMK AO2 SLP099 T01780156 53011=
201510290152 METAR KATL 290152Z 25004KT 10SM CLR 18/16 A2983 RMK AO2 SLP096 T01780156=
201510290052 METAR KATL 290052Z 25004KT 10SM CLR 18/16 A2982 RMK AO2 SLP090 T01830156=
201510282352 METAR KATL 282352Z 23004KT 10SM FEW080 19/16 A2981 RMK AO2 SLP089 60000 T01940156 10256 20194 51010=
201510282252 METAR KATL 282252Z 26005KT 10SM FEW040 FEW080 21/16 A2980 RMK AO2 RAE01 SLP084 CB DSNT NE-E P0000 T02060156=
201510282152 METAR KATL 282152Z 30010KT 7SM -RA BKN038TCU BKN060 BKN250 23/16 A2979 RMK AO2 RAB48 SLP082 VIS LWR SW-NW TCU E-OHD-SW P0000 T02280156=
201510282052 METAR KATL 282052Z 23007G16KT 10SM FEW045TCU FEW250 25/16 A2978 RMK AO2 SLP076 TCU N-NE & W T02500156 55005=
201510281952 METAR KATL 281952Z 25008KT 10SM SCT040TCU 24/15 A2977 RMK AO2 SLP074 TCU E-SE-S-SW T02440150=
201510281852 METAR KATL 281852Z 24009KT 10SM FEW030 SCT065 SCT250 25/17 A2976 RMK AO2 SLP072 T02500172=
201510281752 METAR KATL 281752Z 23009KT 10SM FEW025TCU SCT065 SCT250 23/18 A2979 RMK AO2 RAB16E27 SLP083 TCU E-SE-S P0001 60001 T02330178 10239 20161 58007=
201510281652 METAR KATL 281652Z 22011KT 10SM FEW012CB SCT020TCU BKN065 24/19 A2981 RMK AO2 SLP088 CB W-NW-N MOV NE TCU E-SE-S-SW SHRA VC W-NW-N T02390189=
201510281649 SPECI KATL 281649Z 22010G18KT 10SM FEW012CB SCT020TCU BKN065 24/19 A2981 RMK AO2 CB W-NW-N MOV NE TCU E-SE-S-SW SHRA VC W-NW-N=
201510281616 SPECI KATL 281616Z 23009KT 10SM SCT012 BKN020 BKN050 21/18 A2981 RMK AO2 SHRA DSNT SW-NW T02110183=
201510281552 METAR KATL 281552Z 21009KT 9SM BKN012 BKN020 BKN030 21/18 A2982 RMK AO2 RAE1454 SLP092 P0000 T02110183=
201510281533 SPECI KATL 281533Z 22009G17KT 9SM BKN010 BKN015 OVC023 21/18 A2982 RMK AO2 RAE1454 P0000 T02110183=
201510281456 SPECI KATL 281456Z 19007KT 10SM BKN008 BKN012 OVC015 20/18 A2982 RMK AO2 RAE54 P0000 T02000183=
201510281452 METAR KATL 281452Z 21010KT 5SM -RA BR FEW006 BKN008 OVC012 20/18 A2982 RMK AO2 RAB44 SLP095 P0000 60000 T02000183 50006=
201510281445 SPECI KATL 281445Z 20010KT 5SM -RA BR OVC006 20/18 A2983 RMK AO2 RAB44 P0000 T02000183=
201510281413 SPECI KATL 281413Z 19008KT 7SM OVC006 19/18 A2982 RMK AO2 T01940178=
201510281405 SPECI KATL 281405Z 19006KT 2 1/2SM BR OVC006 19/18 A2982 RMK AO2 SFC VIS 6 T01890178=
201510281352 METAR KATL 281352Z 19006KT 1 1/2SM BR OVC005 19/18 A2983 RMK AO2 SFC VIS 6 DZE15 SLP096 P0000 T01890178=
201510281350 SPECI KATL 281350Z 20007KT 1 1/2SM BR OVC005 19/18 A2983 RMK AO2 SFC VIS 6 DZE15 P0000=
201510281316 SPECI KATL 281316Z 18006KT 1/2SM R09R/P6000FT BR BCFG OVC004 18/17 A2982 RMK AO2 SFC VIS 5 DZE15 TWRINC P0000 T01830172=
201510281314 SPECI KATL 281314Z 19006KT 1/2SM R09R/P6000FT -DZ BR OVC004 18/17 A2983 RMK AO2 SFC VIS 6 TWRINC P0000 T01780172=
201510281252 METAR KATL 281252Z 17007KT 1/4SM R09R/P6000FT -DZ BR OVC003 18/17 A2982 RMK AO2 SFC VIS 5 SLP095 CIG 002V004 TWRINC P0000 T01780167=
201510281221 SPECI KATL 281221Z 17005KT 1/4SM R09R/P6000FT -DZ BR OVC003 17/16 A2981 RMK AO2 SFC VIS 4 CIG 002V004 TWRINC P0000 T01720161=
201510281152 METAR KATL 281152Z 14006KT 1 1/4SM -DZ BR OVC003 16/15 A2981 RMK AO2 SFC VIS 5 DZE07B24RAB07E24 SLP090 CIG 002V004 TWRINC P0001 60021 70040 T01610150 10161 20139 56010=
201510281052 METAR KATL 281052Z 12006KT 1 1/4SM -DZ BR OVC004 16/14 A2982 RMK AO2 SFC VIS 5 RAE32DZB33 SLP094 CIG 003V006 TWRINC P0001 T01560144=
201510280952 METAR KATL 280952Z 11005KT 1SM R09R/P6000FT -RA BR OVC004 15/14 A2982 RMK AO2 SFC VIS 2 SLP096 CIG 003V007 P0011 T01500139=
201510280852 METAR KATL 280852Z 11008KT 1SM R09R/P6000FT -RA BR OVC004 15/14 A2984 RMK AO2 SFC VIS 4 DZE22RAB22 SLP102 CIG 003V006 P0006 60008 T01500139 56020=
201510280752 METAR KATL 280752Z 10007KT 1SM R09R/P6000FT -DZ BR OVC003 14/13 A2986 RMK AO2 SFC VIS 2 SLP108 P0001 T01440133=
201510280652 METAR KATL 280652Z 09007KT 1SM R09R/P6000FT -DZ BR OVC004 14/13 A2988 RMK AO2 SFC VIS 2 RAE08B39E50DZB08 SLP116 P0001 T01390128=
201510280552 METAR KATL 280552Z 10008KT 1SM R09R/P6000FT -RA BR OVC003 14/13 A2990 RMK AO2 SFC VIS 2 1/2 SLP123 P0002 60013 T01390128 10139 20128 58017=
201510280452 METAR KATL 280452Z 09008KT 1SM R09R/P6000FT -RA BR OVC003 13/12 A2992 RMK AO2 SFC VIS 1 1/2 RAE10B30 SLP131 P0001 T01330122 401330100=
201510280352 METAR KATL 280352Z 09009KT 1SM R09R/P6000FT -RA BR OVC004 13/12 A2994 RMK AO2 SFC VIS 5 SLP139 CIG 003V005 P0002 T01330122=
201510280252 METAR KATL 280252Z 10011KT 1SM R09R/P6000FT -RA BR OVC004 13/12 A2995 RMK AO2 SFC VIS 5 RAE18B52DZB18E52 SLP142 CIG 003V005 P0002 60008 T01330117 58007=
201510280232 SPECI KATL 280232Z 10011KT 1SM R09R/P6000FT -DZ OVC004 13/12 A2995 RMK AO2 SFC VIS 8 RAE18DZB18 P0002 T01330117=
201510280152 METAR KATL 280152Z 09013KT 3SM -RA BR OVC006 13/12 A2996 RMK AO2 SFC VIS 4 SLP146 CIG 004V008 P0006 T01280117=
201510280052 METAR KATL 280052Z 08017KT 3SM -RA BR OVC005 13/12 A2997 RMK AO2 DZE49RAB49 SLP149 CIG 003V006 P0000 T01280117=
201510272352 METAR KATL 272352Z 09015KT 3SM -DZ BR OVC005 13/12 A2997 RMK AO2 SFC VIS 4 RAE2257DZB2257 SLP150 CIG 003V007 P0000 60001 T01280117 10128 20122 58004=
201510272252 METAR KATL 272252Z 09011KT 1SM R09R/P6000FT -RA BR OVC005 13/11 A2998 RMK AO2 SFC VIS 1 3/4 DZE07RAB07 SLP153 CIG 003V008 P0001 T01280111=
201510272209 SPECI KATL 272209Z 10011G19KT 1SM R09R/P6000FT -RA BR OVC004 12/11 A2998 RMK AO2 SFC VIS 1 1/2 DZE07RAB07 P0000 T01220111=
201510272152 METAR KATL 272152Z 09015G22KT 2SM -DZ BR OVC005 12/11 A2998 RMK AO2 SFC VIS 3 DZE21B34RAB21E34 SLP154 P0000 T01220111=
201510272125 SPECI KATL 272125Z 09013KT 2SM -RA BR OVC005 12/11 A2998 RMK AO2 DZE21RAB21 P0000 T01220111=
201510272052 METAR KATL 272052Z 09014KT 3SM -DZ BR OVC005 12/11 A2998 RMK AO2 SFC VIS 4 SLP154 P0000 60000 T01220111 56022=
201510271952 METAR KATL 271952Z 09014KT 3SM -DZ BR OVC005 12/11 A2999 RMK AO2 SFC VIS 5 SLP157 P0000 T01220111=
201510271933 SPECI KATL 271933Z 09015KT 3SM -DZ BR OVC005 12/11 A3001 RMK AO2 SFC VIS 5 P0000 T01220106=
201510271852 METAR KATL 271852Z 09015KT 6SM -DZ BR BKN007 OVC010 12/11 A3002 RMK AO2 DZB49 SLP167 P0000 T01220106=
201510271752 METAR KATL 271752Z 09017G23KT 10SM BKN006 BKN008 OVC010 12/11 A3005 RMK AO2 DZE49 SLP176 P0000 60005 T01220106 10128 20106 58023=
201510271652 METAR KATL 271652Z 09012G21KT 3SM -DZ BR BKN006 BKN008 OVC012 12/11 A3009 RMK AO2 SFC VIS 5 SLP191 P0001 T01220106=
201510271618 SPECI KATL 271618Z 10013KT 3SM -DZ BR OVC005 12/11 A3012 RMK AO2 SFC VIS 4 P0001 T01220106=
201510271602 SPECI KATL 271602Z 09012KT 2SM R09R/5000VP6000FT -DZ BR OVC005 12/10 A3012 RMK AO2 TWR VIS 3 P0000 T01170100=
201510271552 METAR KATL 271552Z 09018KT 3SM -DZ BR OVC005 12/10 A3012 RMK AO2 SFC VIS 5 SLP199 P0001 T01170100=
201510271452 METAR KATL 271452Z 10018KT 3SM -DZ BR OVC005 11/09 A3012 RMK AO2 PK WND 07028/1429 RAB47E51 SLP200 P0000 60003 T01110094 58002=
201510271352 METAR KATL 271352Z 08020G24KT 3SM -DZ BR BKN005 OVC008 11/09 A3013 RMK AO2 SFC VIS 5 RAE29DZB50 SLP205 P0002 T01060094=
201510271252 METAR KATL 271252Z 09019KT 3SM -RA BR OVC005 11/09 A3014 RMK AO2 SFC VIS 6 SLP207 CIG 004V007 P0001 T01060094=
201510271152 METAR KATL 271152Z 09014G23KT 3SM -RA BR OVC005 11/09 A3013 RMK AO2 SFC VIS 6 DZE15RAB15 SLP202 CIG 004V007 P0000 60003 70043 T01060089 10111 20100 57005=
201510271052 METAR KATL 271052Z 08016KT 3SM -DZ BR OVC005 10/09 A3014 RMK AO2 PK WND 07027/1030 SFC VIS 5 RAB07E24DZB44 SLP206 CIG 004V007 P0000 T01000089=
201510271045 SPECI KATL 271045Z 09015KT 3SM -DZ BR OVC005 10/09 A3014 RMK AO2 PK WND 07027/1030 SFC VIS 5 RAB07E24DZB44 P0000 T01000089=
201510270952 METAR KATL 270952Z 09017G22KT 6SM BR OVC005 11/09 A3013 RMK AO2 RAE25 SLP203 P0000 T01060089=
201510270942 SPECI KATL 270942Z 07014G24KT 6SM BR OVC005 11/09 A3013 RMK AO2 RAE25 P0000 T01060089=
201510270852 METAR KATL 270852Z 10017G23KT 6SM -RA BR OVC005 11/09 A3014 RMK AO2 SLP205 P0002 60003 T01060089 55009=
201510270804 SPECI KATL 270804Z 09015G24KT 8SM -RA OVC005 11/09 A3015 RMK AO2 P0000 T01060089=
201510270752 METAR KATL 270752Z 08022G28KT 7SM -RA OVC004 11/09 A3014 RMK AO2 PK WND 09028/0750 RAB0653 SLP205 P0001 T01060089=
201510270652 METAR KATL 270652Z 08018G23KT 7SM OVC004 11/09 A3016 RMK AO2 PK WND 09029/0613 RAB22E39 SLP212 P0000 T01060094=
201510270620 SPECI KATL 270620Z 08021G29KT 6SM BR OVC004 11/09 A3016 RMK AO2 PK WND 09029/0613 T01110094=
201510270552 METAR KATL 270552Z 09021G27KT 8SM OVC005 11/09 A3017 RMK AO2 PK WND 08029/0516 DZE45 SLP214 P0000 60006 T01110094 10128 20111 56008=
201510270452 METAR KATL 270452Z 09021G29KT 8SM -DZ OVC006 11/09 A3018 RMK AO2 PK WND 08031/0418 DZB47 SLP217 P0000 T01110094 401940111=
201510270352 METAR KATL 270352Z 08018KT 10SM BKN006 OVC012 12/10 A3018 RMK AO2 PK WND 08027/0300 RAE04 SLP218 P0000 T01170100=
201510270252 METAR KATL 270252Z 09017G22KT 8SM -RA OVC007 12/10 A3019 RMK AO2 PK WND 08033/0227 SLP222 CIG 005V010 P0001 60006 T01170100 53010=
201510270152 METAR KATL 270152Z 09012G23KT 8SM -RA OVC007 12/11 A3017 RMK AO2 PK WND 08030/0127 RAB48 SLP213 CIG 005V009 P0000 T01220106=
201510270052 METAR KATL 270052Z 08019G25KT 9SM OVC008 12/11 A3014 RMK AO2 PK WND 07031/0008 RAE49 SLP203 CIG 005V010 SHRA NW-NE-E P0005 T01220111=
201510262352 METAR KATL 262352Z 08017G23KT 6SM RA BR BKN008 OVC015 13/11 A3016 RMK AO2 RAB06 SLP210 P0006 60021 T01280111 10172 20128 51003=
201510262252 METAR KATL 262252Z 09011KT 8SM BKN009 OVC015 13/12 A3016 RMK AO2 PK WND 08027/2208 RAE22 SLP210 SHRA S-W-NW P0000 T01330117=
201510262152 METAR KATL 262152Z 07015KT 6SM -RA BR BKN007 OVC015 14/12 A3017 RMK AO2 PK WND 07028/2102 SLP212 P0007 T01440122=
201510262052 METAR KATL 262052Z 07015KT 4SM -RA BR BKN007 BKN010 OVC015 16/14 A3015 RMK AO2 SLP207 P0005 60008 T01560139 55001=
201510261952 METAR KATL 261952Z 08018G26KT 6SM -RA BR FEW005 BKN007 OVC012 16/14 A3013 RMK AO2 PK WND 07029/1933 SLP199 P0000 T01610139=
201510261852 METAR KATL 261852Z 08019G28KT 6SM -RA BR BKN006 BKN010 OVC020 17/15 A3013 RMK AO2 PK WND 07028/1848 SLP200 P0003 T01670150=
201510261843 SPECI KATL 261843Z 08020G25KT 2 1/2SM -RA BR BKN005 BKN010 OVC020 17/15 A3014 RMK AO2 PK WND 09026/1830 SFC VIS 4 P0003 T01670150=
201510261752 METAR KATL 261752Z 09018G23KT 1 1/2SM -RA BR BKN005 BKN007 OVC010 17/16 A3015 RMK AO2 SFC VIS 4 SLP206 P0001 60013 T01720156 10194 20172 50001=
201510261730 SPECI KATL 261730Z 08019KT 4SM -RA BR BKN005 BKN010 OVC020 17/16 A3016 RMK AO2 P0001 T01720156=
201510261722 SPECI KATL 261722Z 08017G23KT 6SM -RA BR BKN005 BKN008 OVC020 17/16 A3016 RMK AO2 P0000 T01720156=
201510261652 METAR KATL 261652Z 08018KT 8SM -RA BKN008 BKN018 OVC060 18/16 A3016 RMK AO2 RAB1555E07B35 SLP209 P0000 T01780161=
201510261614 SPECI KATL 261614Z 07020KT 10SM BKN009 BKN015 OVC060 19/17 A3016 RMK AO2 RAB1555E07 P0000 T01890172=
201510261552 METAR KATL 261552Z 11010G17KT 7SM BKN012 BKN020 OVC050 19/17 A3016 RMK AO2 RAE49 SLP208 P0001 T01890172=
201510261507 SPECI KATL 261507Z 12013G23KT 6SM -RA SCT010 BKN023 OVC050 19/17 A3016 RMK AO2 P0001 T01940167=
201510261452 METAR KATL 261452Z 11014G20KT 2 1/2SM -RA BR FEW007 BKN010 OVC044 19/17 A3015 RMK AO2 SFC VIS 5 SLP204 P0003 60011 T01940172 50011=
201510261434 SPECI KATL 261434Z 12009G16KT 2 1/2SM -RA BR BKN008 BKN013 OVC065 19/17 A3015 RMK AO2 SFC VIS 5 P0003 T01940172=
201510261430 SPECI KATL 261430Z 11010G16KT 2 1/2SM -RA BR BKN010 BKN028 OVC070 19/18 A3015 RMK AO2 SFC VIS 5 P0003 T01940178=
201510261352 METAR KATL 261352Z 11010KT 2 1/2SM -RA BR BKN007 BKN012 OVC100 19/18 A3015 RMK AO2 SFC VIS 5 SLP204 P0005 T01940178=
201510261252 METAR KATL 261252Z 09011KT 2 1/2SM -RA BR BKN007 BKN015 OVC100 19/18 A3013 RMK AO2 SFC VIS 5 RAB20 SLP198 CIG 006V009 P0003 T01940178 $=
201510261152 METAR KATL 261152Z 12009KT 2 1/2SM BR OVC006 19/18 A3012 RMK AO2 SFC VIS 6 SLP193 CIG 004V008 60000 T01940178 10194 20189 53001=
201510261144 SPECI KATL 261144Z 13010KT 2 1/2SM BR OVC006 19/18 A3011 RMK AO2 SFC VIS 6 CIG 004V008 T01940178=
201510261132 SPECI KATL 261132Z 11009KT 2 1/2SM BR OVC004 19/18 A3011 RMK AO2 SFC VIS 5 T01890178=
201510261109 SPECI KATL 261109Z 09013KT 2 1/2SM BR OVC005 19/17 A3010 RMK AO2 SFC VIS 5 CIG 004V007 T01890172=
201510261052 METAR KATL 261052Z 10009KT 5SM BR OVC006 19/17 A3012 RMK AO2 RAB25E34 SLP192 CIG 005V009 P0000 T01890172 $=
201510260952 METAR KATL 260952Z 10007KT 6SM BR OVC007 19/17 A3011 RMK AO2 RAB05E47 SLP191 P0000 T01890172=
201510260852 METAR KATL 260852Z 08010KT 10SM OVC009 19/17 A3011 RMK AO2 SLP191 60000 T01890167 51004=
201510260848 SPECI KATL 260848Z 07010KT 10SM OVC009 19/17 A3011 RMK AO2=
201510260752 METAR KATL 260752Z 09007KT 10SM OVC011 19/17 A3010 RMK AO2 RAE0656 SLP188 P0000 T01890167=
201510260720 SPECI KATL 260720Z 08013KT 10SM BKN014 BKN026 BKN090 OVC130 19/17 A3011 RMK AO2 RAE0656 P0000 T01890167=
201510260652 METAR KATL 260652Z 07010KT 10SM -RA BKN018 BKN041 BKN090 OVC130 19/17 A3011 RMK AO2 RAE13B47 SLP191 BKN018 V SCT P0000 T01890167=
201510260632 SPECI KATL 260632Z 10007KT 10SM BKN018 OVC120 19/17 A3012 RMK AO2 RAE13 P0000 T01890167=
201510260552 METAR KATL 260552Z 07010KT 9SM -RA SCT021 SCT055 OVC100 19/17 A3010 RMK AO2 RAB19 SLP187 P0000 60000 T01890167 10211 20189 56012=
201510260452 METAR KATL 260452Z 13003KT 9SM FEW090 OVC120 19/17 A3010 RMK AO2 SLP188 RAE17 P0000 T01940172 402170161=
201510260352 METAR KATL 260352Z COR 09007KT 9SM -RA FEW065 BKN090 OVC120 19/17 A3013 RMK AO2 RAB42 SLP195 P0000 T01940167=
201510260252 METAR KATL 260252Z 08009KT 10SM OVC140 20/17 A3014 RMK AO2 SLP199 T02000172 58001=
201510260152 METAR KATL 260152Z 07005KT 10SM OVC150 20/17 A3014 RMK AO2 SLP202 T02000167=
201510260052 METAR KATL 260052Z 09005KT 10SM OVC160 20/17 A3014 RMK AO2 SLP203 T02000167=
201510252352 METAR KATL 252352Z 11004KT 10SM FEW025 OVC160 21/17 A3014 RMK AO2 SLP201 T02060167 10217 20200 53005=
201510252252 METAR KATL 252252Z 11003KT 10SM FEW025 SCT070 BKN180 OVC220 21/17 A3013 RMK AO2 SLP199 T02060167=
201510252152 METAR KATL 252152Z 08006KT 10SM FEW025 BKN180 OVC210 21/17 A3011 RMK AO2 SLP192 T02110167=
201510252052 METAR KATL 252052Z 14004KT 10SM OVC200 22/17 A3012 RMK AO2 SLP194 T02170167 56009=
201510251952 METAR KATL 251952Z 10006KT 10SM OVC200 22/17 A3012 RMK AO2 SLP195 T02170167=
201510251852 METAR KATL 251852Z VRB04KT 10SM FEW016 OVC180 22/17 A3013 RMK AO2 SLP197 T02170167=
201510251752 METAR KATL 251752Z 08005KT 10SM FEW014 OVC150 21/17 A3015 RMK AO2 SLP204 T02110167 10211 20167 58017=
201510251703 SPECI KATL 251703Z 06006KT 8SM FEW010 OVC160 20/16 A3017 RMK AO2 T02000161=
201510251652 METAR KATL 251652Z VRB03KT 8SM BKN010 OVC250 21/17 A3019 RMK AO2 SLP217 T02060167=
201510251637 SPECI KATL 251637Z 12005KT 6SM HZ OVC008 19/16 A3020 RMK AO2 T01940161=
201510251552 METAR KATL 251552Z 09004KT 2SM HZ OVC006 19/16 A3020 RMK AO2 SFC VIS 4 SLP221 T01890161=
201510251522 SPECI KATL 251522Z 04003KT 2SM BR OVC005 18/16 A3021 RMK AO2 SFC VIS 4 T01830161=
201510251452 METAR KATL 251452Z VRB06KT 1/2SM R09R/P6000FT BR OVC004 18/16 A3020 RMK AO2 SFC VIS 3 SLP222 TWRINC T01830161 53006=
201510251352 METAR KATL 251352Z 09006KT 1/2SM R09R/P6000FT BR OVC003 18/16 A3020 RMK AO2 SFC VIS 2 SLP220 TWRINC T01780161 $=
201510251252 METAR KATL 251252Z 10007KT 1/2SM R09R/4000VP6000FT BR OVC003 17/16 A3017 RMK AO2 SFC VIS 3/4 SLP213 T01720161=
201510251152 METAR KATL 251152Z 09004KT 1/2SM R09R/P6000FT BR OVC002 17/16 A3018 RMK AO2 SFC VIS 1 3/4 SLP216 TWRINC T01670156 10167 20161 53007=
201510251052 METAR KATL 251052Z 07006KT 1/2SM R09R/P6000FT BR OVC003 17/16 A3018 RMK AO2 SFC VIS 1 1/2 SLP214 CIG 002V004 TWRINC T01670156=
201510250952 METAR KATL 250952Z 09006KT 1/2SM R09R/P6000FT BR OVC002 17/16 A3017 RMK AO2 SFC VIS 2 1/2 SLP209 TWRINC T01670156=
201510250912 SPECI KATL 250912Z 06005KT 2SM BR OVC003 17/16 A3016 RMK AO2 T01670156=
201510250852 METAR KATL 250852Z 09005KT 4SM BR OVC004 17/15 A3016 RMK AO2 SLP207 CIG 003V005 T01670150 51008=
201510250830 SPECI KATL 250830Z 09007KT 5SM BR OVC004 17/15 A3015 RMK AO2 T01670150=
201510250752 METAR KATL 250752Z 10006KT 5SM BR BKN006 OVC180 17/14 A3016 RMK AO2 SLP206 T01670144=
201510250728 SPECI KATL 250728Z 11003KT 6SM BR BKN007 BKN180 17/14 A3016 RMK AO2 T01670144=
201510250717 SPECI KATL 250717Z 08007KT 7SM SCT007 SCT150 BKN200 17/14 A3015 RMK AO2 T01670144=
201510250652 METAR KATL 250652Z 07007KT 7SM FEW150 BKN200 17/14 A3014 RMK AO2 SLP202 T01670144=
201510250552 METAR KATL 250552Z 10007KT 9SM BKN180 BKN220 17/14 A3014 RMK AO2 SLP199 T01670144 10211 20167 58010=
201510250452 METAR KATL 250452Z 10009KT 10SM BKN150 BKN250 17/15 A3015 RMK AO2 SLP203 VIRGA ALQDS T01720150 402440150=
201510250352 METAR KATL 250352Z 10007KT 10SM SCT180 BKN250 18/14 A3017 RMK AO2 SLP209 T01780144=
201510250252 METAR KATL 250252Z 08012KT 10SM FEW100 BKN180 BKN250 19/15 A3017 RMK AO2 SLP210 T01890150 50003=
201510250152 METAR KATL 250152Z 10007KT 10SM BKN180 OVC250 19/15 A3018 RMK AO2 SLP213 T01940150=
201510250052 METAR KATL 250052Z 09007KT 10SM FEW110 BKN180 OVC250 20/15 A3017 RMK AO2 SLP213 T02000150=
201510242352 METAR KATL 242352Z 08007KT 10SM FEW110 BKN180 BKN250 21/15 A3016 RMK AO2 SLP208 T02110150 10244 20206 53004=
201510242252 METAR KATL 242252Z 10006KT 10SM FEW050 FEW110 BKN200 BKN250 22/16 A3014 RMK AO2 SLP200 VIRGA DSNT W-NW ACC W & DSNT NE T02170156=
201510242152 METAR KATL 242152Z 10006KT 10SM FEW050 FEW110 BKN200 BKN250 23/15 A3014 RMK AO2 SLP199 ACC NW-N T02280150=
201510242052 METAR KATL 242052Z 15004KT 10SM FEW034 SCT050 BKN250 23/15 A3015 RMK AO2 SLP202 T02330150 55012=
201510241952 METAR KATL 241952Z 14007KT 10SM SCT045 BKN150 BKN250 24/14 A3014 RMK AO2 SLP202 T02390144=
201510241852 METAR KATL 241852Z 20003KT 10SM BKN040 OVC200 23/14 A3017 RMK AO2 SLP209 T02330144=
201510241752 METAR KATL 241752Z 17005KT 10SM FEW034 BKN046 OVC200 23/15 A3018 RMK AO2 SLP215 T02330150 10239 20156 58006=
201510241652 METAR KATL 241652Z 16008KT 10SM FEW035 BKN200 BKN250 23/14 A3020 RMK AO2 SLP220 T02330144=
201510241552 METAR KATL 241552Z 17007KT 10SM BKN170 BKN250 23/14 A3021 RMK AO2 SLP223 T02280144=
201510241452 METAR KATL 241452Z 13004KT 10SM SCT170 BKN250 21/15 A3020 RMK AO2 SLP221 T02060150 51010=
201510241352 METAR KATL 241352Z 09003KT 10SM BKN170 19/15 A3019 RMK AO2 SLP219 T01890150=
201510241252 METAR KATL 241252Z 11004KT 10SM BKN160 BKN250 18/14 A3018 RMK AO2 SLP214 T01780144=
201510241152 METAR KATL 241152Z 09005KT 10SM BKN150 BKN250 16/13 A3017 RMK AO2 SLP211 T01560128 10178 20150 51009=
201510241052 METAR KATL 241052Z 07006KT 10SM SCT150 BKN250 16/13 A3016 RMK AO2 SLP206 T01610133=
201510240952 METAR KATL 240952Z 00000KT 10SM FEW150 BKN250 17/13 A3016 RMK AO2 SLP205 T01670133=
201510240852 METAR KATL 240852Z 00000KT 10SM SCT250 15/13 A3014 RMK AO2 SLP200 T01500128 58003=
201510240752 METAR KATL 240752Z 00000KT 10SM SCT250 17/14 A3015 RMK AO2 SLP203 T01720139=
201510240652 METAR KATL 240652Z 00000KT 10SM SCT250 18/14 A3015 RMK AO2 SLP204 T01780139=
201510240552 METAR KATL 240552Z 10003KT 10SM SCT250 17/14 A3015 RMK AO2 SLP203 T01720139 10222 20172 58007=
201510240452 METAR KATL 240452Z 00000KT 10SM SCT250 18/14 A3017 RMK AO2 SLP208 T01780139 402720139=
201510240352 METAR KATL 240352Z 00000KT 10SM FEW250 19/14 A3018 RMK AO2 SLP212 T01890144=
201510240252 METAR KATL 240252Z 13004KT 10SM FEW250 20/14 A3017 RMK AO2 SLP210 T02000144 50005=
201510240152 METAR KATL 240152Z 00000KT 10SM FEW250 20/14 A3018 RMK AO2 SLP213 T02000139=
201510240052 METAR KATL 240052Z 15003KT 10SM FEW250 20/14 A3017 RMK AO2 SLP211 T02000139=
201510232352 METAR KATL 232352Z 14003KT 10SM FEW050 FEW250 22/14 A3016 RMK AO2 SLP207 T02170139 10272 20217 53009=
201510232252 METAR KATL 232252Z 20004KT 10SM FEW050 SCT250 23/13 A3014 RMK AO2 SLP202 T02280133=
201510232152 METAR KATL 232152Z 16006KT 10SM FEW050 SCT250 25/13 A3014 RMK AO2 SLP199 T02500133=
201510232052 METAR KATL 232052Z 00000KT 10SM FEW050 BKN250 26/13 A3013 RMK AO2 SLP195 T02610133 56017=
201510231952 METAR KATL 231952Z 00000KT 10SM SCT050 BKN250 24/13 A3014 RMK AO2 SLP201 T02440133=
201510231852 METAR KATL 231852Z VRB03KT 10SM SCT046 BKN250 24/14 A3016 RMK AO2 SLP207 T02440144=
201510231752 METAR KATL 231752Z 00000KT 10SM SCT042 BKN250 26/14 A3018 RMK AO2 SLP213 T02560144 10256 20144 58018=
201510231652 METAR KATL 231652Z 07004KT 10SM SCT040 SCT250 25/15 A3020 RMK AO2 SLP220 T02500150=
201510231552 METAR KATL 231552Z 00000KT 10SM FEW030 FEW150 FEW250 23/15 A3023 RMK AO2 SLP230 T02330150=
201510231452 METAR KATL 231452Z 12003KT 10SM FEW250 22/16 A3023 RMK AO2 SLP232 T02220156 50004=
201510231352 METAR KATL 231352Z 10004KT 10SM FEW250 21/16 A3024 RMK AO2 SLP233 T02060156=
201510231252 METAR KATL 231252Z 00000KT 10SM FEW250 17/14 A3023 RMK AO2 SLP232 T01670139=
201510231152 METAR KATL 231152Z 00000KT 10SM FEW250 14/12 A3022 RMK AO2 SLP229 T01440122 10167 20139 51007=
201510231052 METAR KATL 231052Z 00000KT 10SM FEW250 14/12 A3022 RMK AO2 SLP228 T01390122=
201510230952 METAR KATL 230952Z 00000KT 10SM FEW250 15/13 A3020 RMK AO2 SLP222 T01500128=
201510230852 METAR KATL 230852Z 00000KT 10SM CLR 16/13 A3020 RMK AO2 SLP221 T01560133 56006=
201510230752 METAR KATL 230752Z 00000KT 10SM CLR 14/13 A3020 RMK AO2 SLP221 T01440128=
201510230652 METAR KATL 230652Z 00000KT 10SM FEW250 16/13 A3021 RMK AO2 SLP223 T01610133=
201510230552 METAR KATL 230552Z 00000KT 10SM FEW250 17/14 A3022 RMK AO2 SLP227 T01720139 10222 20167 58009=
201510230452 METAR KATL 230452Z 00000KT 10SM FEW250 17/14 A3023 RMK AO2 SLP232 T01670139 402610122=
201510230352 METAR KATL 230352Z 00000KT 10SM FEW250 17/14 A3024 RMK AO2 SLP235 T01720144=
201510230252 METAR KATL 230252Z 00000KT 10SM FEW250 18/14 A3025 RMK AO2 SLP236 T01830144 50001=
201510230152 METAR KATL 230152Z 11003KT 10SM FEW250 21/15 A3025 RMK AO2 SLP238 T02060150=
201510230052 METAR KATL 230052Z 12003KT 10SM FEW250 21/15 A3025 RMK AO2 SLP240 T02110150=
201510222352 METAR KATL 222352Z 12003KT 10SM FEW050 FEW250 22/14 A3024 RMK AO2 SLP236 T02170144 10261 20217 53001=
201510222252 METAR KATL 222252Z 16005KT 10SM SCT050 SCT250 22/14 A3024 RMK AO2 SLP235 T02220144=
201510222152 METAR KATL 222152Z 19005KT 10SM BKN050 BKN250 24/14 A3024 RMK AO2 SLP233 T02390139=
201510222052 METAR KATL 222052Z 15004KT 10SM SCT050 25/13 A3024 RMK AO2 SLP234 T02500133 56021=
201510221952 METAR KATL 221952Z VRB03KT 10SM SCT050 SCT250 25/13 A3025 RMK AO2 SLP237 T02500133=
201510221852 METAR KATL 221852Z 09004KT 10SM SCT045 24/13 A3027 RMK AO2 SLP246 T02440133=
201510221752 METAR KATL 221752Z 22003KT 10SM SCT040 23/14 A3031 RMK AO2 SLP257 T02280139 10244 20144 58014=
201510221652 METAR KATL 221652Z 15004KT 10SM SCT030 SCT250 23/15 A3033 RMK AO2 SLP266 MDT CU E-SE-S-SW T02330150=
201510221552 METAR KATL 221552Z 09004KT 10SM FEW030 FEW070 FEW250 22/15 A3035 RMK AO2 SLP272 T02220150=
201510221452 METAR KATL 221452Z 07005KT 10SM FEW030 FEW070 SCT250 21/13 A3035 RMK AO2 SLP272 ACC DSNT SE-S T02060133 51010=
201510221352 METAR KATL 221352Z 09005KT 10SM FEW070 FEW250 18/12 A3035 RMK AO2 SLP273 ACC DSNT SE-S T01780117=
201510221252 METAR KATL 221252Z 05005KT 10SM FEW070 FEW110 FEW200 17/11 A3033 RMK AO2 SLP266 ACC DSNT S T01670111=
201510221152 METAR KATL 221152Z 06006KT 10SM FEW110 FEW200 14/10 A3031 RMK AO2 SLP262 T01440100 10161 20122 53012=
201510221052 METAR KATL 221052Z 08004KT 10SM FEW200 13/09 A3030 RMK AO2 SLP256 T01330094=
201510220952 METAR KATL 220952Z 05005KT 10SM CLR 15/10 A3028 RMK AO2 SLP249 T01500100=
201510220852 METAR KATL 220852Z 04006KT 10SM CLR 14/10 A3028 RMK AO2 SLP249 T01440100 58007=
201510220752 METAR KATL 220752Z 07004KT 10SM FEW200 16/11 A3029 RMK AO2 SLP251 T01560106=
201510220652 METAR KATL 220652Z 09004KT 10SM CLR 16/11 A3030 RMK AO2 SLP254 T01560106=
201510220552 METAR KATL 220552Z 07004KT 10SM CLR 16/11 A3030 RMK AO2 SLP256 T01560106 10194 20150 56008=
201510220452 METAR KATL 220452Z 00000KT 10SM CLR 16/11 A3031 RMK AO2 SLP259 T01560106 402440100=
201510220352 METAR KATL 220352Z 00000KT 10SM CLR 16/11 A3032 RMK AO2 SLP262 T01560106=
201510220252 METAR KATL 220252Z 00000KT 10SM CLR 16/11 A3033 RMK AO2 SLP267 T01610106 53007=
201510220152 METAR KATL 220152Z 00000KT 10SM CLR 17/11 A3032 RMK AO2 SLP264 T01720106=
201510220052 METAR KATL 220052Z 14003KT 10SM CLR 18/11 A3031 RMK AO2 SLP262 T01830106=
201510212352 METAR KATL 212352Z 16003KT 10SM CLR 19/10 A3031 RMK AO2 SLP261 T01940100 10244 20194 53005=
201510212252 METAR KATL 212252Z 11005KT 10SM CLR 22/09 A3030 RMK AO2 SLP256 T02170094=
201510212152 METAR KATL 212152Z 13004KT 10SM FEW250 23/09 A3029 RMK AO2 SLP253 T02330089=
201510212052 METAR KATL 212052Z 17003KT 10SM FEW200 23/09 A3029 RMK AO2 SLP253 T02330089 56021=
201510211952 METAR KATL 211952Z VRB04KT 10SM FEW200 24/09 A3030 RMK AO2 SLP256 T02390089=
201510211852 METAR KATL 211852Z 15006KT 10SM FEW200 23/09 A3032 RMK AO2 SLP263 T02280089=
201510211752 METAR KATL 211752Z 05003KT 10SM FEW200 22/09 A3035 RMK AO2 SLP275 T02220094 10222 20106 58017=
201510211652 METAR KATL 211652Z 00000KT 10SM FEW200 21/09 A3038 RMK AO2 SLP283 T02110089=
201510211552 METAR KATL 211552Z 11003KT 10SM CLR 19/07 A3040 RMK AO2 SLP291 T01940072=
201510211452 METAR KATL 211452Z 07003KT 10SM FEW250 17/06 A3041 RMK AO2 SLP295 T01720061 51014=
201510211352 METAR KATL 211352Z 09005KT 10SM FEW005 FEW250 14/06 A3040 RMK AO2 SLP293 FU FEW005 T01390056=
201510211252 METAR KATL 211252Z 09004KT 10SM FEW250 13/05 A3038 RMK AO2 SLP284 T01280050=
201510211152 METAR KATL 211152Z 07004KT 10SM CLR 11/04 A3036 RMK AO2 SLP280 T01060039 10122 20100 53018=
201510211052 METAR KATL 211052Z 06006KT 10SM CLR 11/04 A3034 RMK AO2 SLP272 T01110044=
201510210952 METAR KATL 210952Z 06005KT 10SM CLR 11/05 A3032 RMK AO2 SLP267 T01110050=
201510210852 METAR KATL 210852Z 07005KT 10SM CLR 11/06 A3031 RMK AO2 SLP262 T01060056 58003=
201510210752 METAR KATL 210752Z 08005KT 10SM FEW250 11/06 A3031 RMK AO2 SLP262 T01110056=
201510210652 METAR KATL 210652Z 11004KT 10SM FEW250 12/06 A3032 RMK AO2 SLP264 T01220056=
201510210552 METAR KATL 210552Z 09004KT 10SM CLR 12/06 A3032 RMK AO2 SLP265 T01170061 10178 20117 58001=
201510210452 METAR KATL 210452Z 09004KT 10SM FEW250 13/06 A3032 RMK AO2 SLP267 T01280061 402170061=
201510210352 METAR KATL 210352Z 14003KT 10SM FEW250 13/07 A3033 RMK AO2 SLP269 T01330067=
201510210252 METAR KATL 210252Z 00000KT 10SM FEW250 13/07 A3032 RMK AO2 SLP267 T01330067 53005=
201510210152 METAR KATL 210152Z 12004KT 10SM FEW250 15/07 A3032 RMK AO2 SLP267 T01500067=
201510210052 METAR KATL 210052Z 12005KT 10SM FEW250 17/07 A3031 RMK AO2 SLP264 T01670072=
201510202352 METAR KATL 202352Z 12005KT 10SM FEW200 SCT250 18/07 A3031 RMK AO2 SLP263 T01780072 10217 20172 53004=
201510202252 METAR KATL 202252Z 12005KT 10SM FEW200 SCT250 19/07 A3030 RMK AO2 SLP261 T01890067=
201510202152 METAR KATL 202152Z 13004KT 10SM FEW200 SCT250 20/07 A3030 RMK AO2 SLP258 T02000067=
201510202052 METAR KATL 202052Z 00000KT 10SM FEW250 21/07 A3030 RMK AO2 SLP259 T02060067 56021=
201510201952 METAR KATL 201952Z 09004KT 10SM FEW250 21/07 A3030 RMK AO2 SLP260 T02110072=
201510201852 METAR KATL 201852Z VRB04KT 10SM FEW250 21/06 A3033 RMK AO2 SLP268 T02060061=
201510201752 METAR KATL 201752Z VRB04KT 10SM FEW250 18/06 A3036 RMK AO2 SLP280 T01830061 10194 20061 58020=
201510201652 METAR KATL 201652Z 06006KT 10SM FEW250 18/04 A3039 RMK AO2 SLP290 T01780044=
201510201552 METAR KATL 201552Z 09007KT 10SM CLR 16/03 A3041 RMK AO2 SLP298 T01610033=
201510201452 METAR KATL 201452Z 10006KT 10SM FEW050 14/03 A3042 RMK AO2 SLP302 T01440028 51004=
201510201352 METAR KATL 201352Z 08006KT 10SM CLR 11/04 A3042 RMK AO2 SLP303 T01060039=
201510201252 METAR KATL 201252Z 10006KT 10SM CLR 08/03 A3042 RMK AO2 SLP302 T00830033=
201510201152 METAR KATL 201152Z 09005KT 10SM CLR 07/02 A3041 RMK AO2 SLP299 T00670022 10078 20061 51008=
201510201052 METAR KATL 201052Z 08006KT 10SM CLR 06/02 A3040 RMK AO2 SLP296 T00610022=
201510200952 METAR KATL 200952Z 08006KT 10SM CLR 07/02 A3039 RMK AO2 SLP293 T00670022=
201510200852 METAR KATL 200852Z 09006KT 10SM CLR 06/02 A3038 RMK AO2 SLP290 T00610022 58002=
201510200752 METAR KATL 200752Z 09004KT 10SM CLR 07/03 A3039 RMK AO2 SLP291 T00720028=
201510200652 METAR KATL 200652Z 08006KT 10SM CLR 08/03 A3039 RMK AO2 SLP293 T00780028=
201510200552 METAR KATL 200552Z 09005KT 10SM CLR 08/03 A3039 RMK AO2 SLP291 T00780028 10144 20078 51002=
201510200452 METAR KATL 200452Z 10006KT 10SM CLR 08/03 A3039 RMK AO2 SLP291 T00830028 401780072=
201510200352 METAR KATL 200352Z 12006KT 10SM CLR 11/03 A3039 RMK AO2 SLP292 T01060028=
201510200252 METAR KATL 200252Z 10005KT 10SM CLR 10/03 A3039 RMK AO2 SLP291 T01000028 51005=
201510200152 METAR KATL 200152Z 11006KT 10SM CLR 12/03 A3038 RMK AO2 SLP288 T01170028=
201510200052 METAR KATL 200052Z 11007KT 10SM CLR 13/03 A3038 RMK AO2 SLP288 T01280028=
201510192352 METAR KATL 192352Z 11007KT 10SM CLR 14/02 A3037 RMK AO2 SLP285 T01440022 10178 20139 56005=
201510192252 METAR KATL 192252Z 12008KT 10SM CLR 15/01 A3037 RMK AO2 SLP285 T01500011=
201510192152 METAR KATL 192152Z 15007KT 10SM CLR 17/01 A3038 RMK AO2 SLP287 T01670011=
201510192052 METAR KATL 192052Z 10007KT 10SM CLR 17/02 A3038 RMK AO2 SLP289 T01720022 56023=
201510191952 METAR KATL 191952Z 09006KT 10SM CLR 17/02 A3039 RMK AO2 SLP292 T01720017=
201510191852 METAR KATL 191852Z VRB04KT 10SM CLR 17/01 A3042 RMK AO2 SLP302 T01670011=
201510191752 METAR KATL 191752Z 11009KT 10SM CLR 16/01 A3045 RMK AO2 SLP313 T01610011 10161 20072 58015=
201510191652 METAR KATL 191652Z 12009KT 10SM CLR 16/01 A3048 RMK AO2 SLP323 T01560011=
201510191552 METAR KATL 191552Z 12008KT 090V150 10SM CLR 14/02 A3050 RMK AO2 SLP329 T01440017=
201510191452 METAR KATL 191452Z 11011KT 10SM CLR 12/02 A3050 RMK AO2 SLP328 T01220017 53018=
201510191352 METAR KATL 191352Z 09010KT 10SM CLR 10/02 A3048 RMK AO2 SLP323 T01000022=
201510191252 METAR KATL 191252Z 07012KT 10SM CLR 08/02 A3046 RMK AO2 SLP317 T00780022=
201510191152 METAR KATL 191152Z 07009KT 10SM CLR 07/02 A3044 RMK AO2 SLP311 T00720017 10100 20072 51012=
201510191052 METAR KATL 191052Z 07008KT 10SM CLR 07/03 A3043 RMK AO2 SLP307 T00720028=
201510190952 METAR KATL 190952Z 07006KT 10SM CLR 08/03 A3042 RMK AO2 SLP301 T00780033=
201510190852 METAR KATL 190852Z 08008KT 10SM CLR 08/04 A3041 RMK AO2 SLP296 T00830039 51007=
201510190752 METAR KATL 190752Z 08005KT 10SM CLR 09/04 A3040 RMK AO2 SLP293 T00890039=
201510190652 METAR KATL 190652Z 07005KT 10SM CLR 09/03 A3040 RMK AO2 SLP293 T00890033=
201510190552 METAR KATL 190552Z 12003KT 10SM CLR 09/03 A3039 RMK AO2 SLP290 T00890033 10150 20083 51007=
201510190452 METAR KATL 190452Z 11003KT 10SM CLR 10/03 A3038 RMK AO2 SLP289 T01000028 401890067=
201510190352 METAR KATL 190352Z 00000KT 10SM CLR 09/02 A3038 RMK AO2 SLP289 T00940017=
201510190252 METAR KATL 190252Z 34004KT 10SM CLR 12/01 A3037 RMK AO2 SLP283 T01170011 53009=
201510190152 METAR KATL 190152Z 34009KT 10SM CLR 12/01 A3035 RMK AO2 SLP279 T01220006=
201510190052 METAR KATL 190052Z 34009KT 10SM CLR 13/02 A3035 RMK AO2 SLP277 T01330017=
201510182352 METAR KATL 182352Z 33009KT 10SM CLR 15/02 A3034 RMK AO2 SLP274 T01500017 10189 20150 53001=
201510182252 METAR KATL 182252Z 33007KT 10SM FEW200 16/02 A3033 RMK AO2 SLP272 T01560022=
201510182152 METAR KATL 182152Z 36009KT 10SM FEW200 18/01 A3033 RMK AO2 SLP269 T01780011=
201510182052 METAR KATL 182052Z VRB03KT 10SM CLR 19/01 A3033 RMK AO2 SLP271 T01890006 56017=
201510181952 METAR KATL 181952Z 33008KT 10SM CLR 18/01 A3034 RMK AO2 SLP274 T01830011=
201510181852 METAR KATL 181852Z 34005KT 10SM CLR 18/02 A3036 RMK AO2 SLP280 T01780017=
201510181752 METAR KATL 181752Z 07004KT 10SM CLR 16/02 A3039 RMK AO2 SLP289 T01610017 10161 20083 58012=
201510181652 METAR KATL 181652Z 07006KT 10SM FEW250 15/01 A3042 RMK AO2 SLP299 T01500011=
201510181552 METAR KATL 181552Z 04008KT 10SM FEW250 14/01 A3042 RMK AO2 SLP302 T01390011=
201510181452 METAR KATL 181452Z 09008KT 10SM FEW250 12/01 A3042 RMK AO2 SLP302 T01220011 51024=
201510181352 METAR KATL 181352Z 09012KT 10SM CLR 11/01 A3041 RMK AO2 SLP299 T01060006=
201510181252 METAR KATL 181252Z 06010KT 10SM FEW250 09/01 A3039 RMK AO2 SLP291 T00940011=
201510181152 METAR KATL 181152Z 05007KT 10SM FEW250 09/01 A3035 RMK AO2 SLP278 T00890006 10100 20067 53024=
201510181052 METAR KATL 181052Z 02006KT 10SM FEW250 08/01 A3033 RMK AO2 SLP270 T00830011=
201510180952 METAR KATL 180952Z 01009KT 10SM FEW250 08/01 A3030 RMK AO2 SLP259 T00830011=
201510180852 METAR KATL 180852Z 35005KT 10SM FEW250 07/01 A3028 RMK AO2 SLP252 T00720011 51003=
201510180752 METAR KATL 180752Z 35007KT 10SM FEW250 08/01 A3028 RMK AO2 SLP251 T00830011=
201510180652 METAR KATL 180652Z 36004KT 10SM FEW250 09/01 A3028 RMK AO2 SLP251 T00940006=
201510180552 METAR KATL 180552Z 34006KT 10SM FEW200 SCT250 10/01 A3027 RMK AO2 SLP248 T01000006 10150 20100 53002=
201510180452 METAR KATL 180452Z 35007KT 10SM SCT200 BKN250 12/00 A3027 RMK AO2 SLP249 T01170000 402110072=
201510180352 METAR KATL 180352Z 34010KT 10SM FEW200 SCT250 12/00 A3025 RMK AO2 SLP243 T01170000=
201510180252 METAR KATL 180252Z 34011KT 10SM SCT200 SCT250 13/M01 A3026 RMK AO2 SLP246 T01331006 53009=
201510180152 METAR KATL 180152Z 35009KT 10SM SCT200 SCT250 13/01 A3025 RMK AO2 SLP243 T01330006=
201510180052 METAR KATL 180052Z 34009KT 10SM SCT200 SCT250 14/01 A3024 RMK AO2 SLP241 T01390011=
201510172352 METAR KATL 172352Z 33007KT 10SM SCT200 SCT250 15/01 A3023 RMK AO2 SLP239 T01500006 10211 20150 53009=
201510172252 METAR KATL 172252Z 34007KT 10SM FEW200 SCT250 17/M01 A3022 RMK AO2 SLP233 T01671011=
201510172152 METAR KATL 172152Z 34013KT 10SM SCT250 19/M02 A3021 RMK AO2 SLP229 T01891017=
201510172052 METAR KATL 172052Z 34013KT 10SM SCT250 20/M03 A3021 RMK AO2 SLP227 T02001033 56010=
201510171952 METAR KATL 171952Z 35011G18KT 10SM FEW250 21/M02 A3021 RMK AO2 SLP230 T02061017=
201510171852 METAR KATL 171852Z 34012KT 10SM FEW250 21/M01 A3022 RMK AO2 SLP231 T02061006=
201510171752 METAR KATL 171752Z COR 330/10 10SM FEW250 20/02 A3024 RMK AO2 SLP237 T02000017 10206 20078 58017=
201510171652 METAR KATL 171652Z 35008KT 10SM FEW250 19/01 A3026 RMK AO2 SLP244 T01890011=
201510171552 METAR KATL 171552Z 36007KT 10SM CLR 18/02 A3028 RMK AO2 SLP252 T01780017=
201510171452 METAR KATL 171452Z 35007KT 10SM FEW250 16/03 A3029 RMK AO2 SLP255 T01560033 51018=
201510171352 METAR KATL 171352Z 35007KT 10SM FEW250 13/03 A3028 RMK AO2 SLP252 T01280028=
201510171252 METAR KATL 171252Z 34005KT 10SM FEW250 10/02 A3026 RMK AO2 SLP246 T01000022=
201510171152 METAR KATL 171152Z 33008KT 10SM FEW250 08/02 A3023 RMK AO2 SLP237 T00780022 10111 20072 51012=
201510171052 METAR KATL 171052Z 31007KT 10SM CLR 07/02 A3022 RMK AO2 SLP234 T00720022=
201510170952 METAR KATL 170952Z 33006KT 10SM CLR 08/03 A3021 RMK AO2 SLP228 T00780028=
201510170852 METAR KATL 170852Z 32006KT 10SM CLR 08/02 A3020 RMK AO2 SLP223 T00830022 58002=
201510170752 METAR KATL 170752Z 31003KT 10SM CLR 09/02 A3020 RMK AO2 SLP224 T00890017=
201510170652 METAR KATL 170652Z 33008KT 10SM CLR 11/01 A3021 RMK AO2 SLP225 T01060011=
201510170552 METAR KATL 170552Z 32006KT 10SM CLR 11/02 A3020 RMK AO2 SLP224 T01060017 10183 20106 50002=
201510170452 METAR KATL 170452Z 34003KT 10SM CLR 12/02 A3021 RMK AO2 SLP226 T01220017 402500111=
201510170352 METAR KATL 170352Z 31007KT 10SM CLR 12/02 A3021 RMK AO2 SLP225 T01220017=
201510170252 METAR KATL 170252Z 31008KT 10SM CLR 13/02 A3020 RMK AO2 SLP222 T01330017 51011=
201510170152 METAR KATL 170152Z 34008KT 10SM CLR 16/01 A3019 RMK AO2 SLP219 T01560006=
201510170052 METAR KATL 170052Z 34009KT 10SM CLR 17/01 A3018 RMK AO2 SLP216 T01720006=
201510162352 METAR KATL 162352Z 33010KT 10SM CLR 18/03 A3016 RMK AO2 SLP211 T01830028 10244 20183 53009=
201510162252 METAR KATL 162252Z 34006KT 10SM FEW250 20/06 A3015 RMK AO2 SLP205 T02000056=
201510162152 METAR KATL 162152Z 35012KT 10SM CLR 23/04 A3014 RMK AO2 SLP199 T02280044=
201510162052 METAR KATL 162052Z 32010KT 10SM FEW250 23/06 A3014 RMK AO2 SLP199 T02330061 55003=
201510161952 METAR KATL 161952Z 33014G23KT 10SM FEW250 24/08 A3013 RMK AO2 SLP197 T02390078=
201510161852 METAR KATL 161852Z 34015KT 10SM FEW250 24/11 A3014 RMK AO2 SLP200 T02440106=
201510161752 METAR KATL 161752Z 33012KT 10SM FEW250 24/11 A3015 RMK AO2 SLP201 T02390106 10250 20150 58001=
201510161652 METAR KATL 161652Z 32012KT 10SM FEW250 25/12 A3015 RMK AO2 SLP203 T02500122=
201510161552 METAR KATL 161552Z 33013KT 10SM FEW200 24/12 A3015 RMK AO2 SLP204 T02390122=
201510161452 METAR KATL 161452Z 30011KT 10SM FEW250 22/12 A3015 RMK AO2 SLP203 T02170117 51008=
201510161352 METAR KATL 161352Z 27006KT 10SM FEW250 20/12 A3015 RMK AO2 SLP203 T02000122=
201510161252 METAR KATL 161252Z 00000KT 10SM FEW100 FEW250 17/12 A3014 RMK AO2 SLP201 ACC DSNT N T01720117 $=
201510161152 METAR KATL 161152Z 27003KT 10SM FEW100 FEW250 15/10 A3012 RMK AO2 SLP196 ACC DSNT NW T01500100 10178 20144 53003 $=
201510161052 METAR KATL 161052Z 00000KT 10SM FEW250 16/10 A3012 RMK AO2 SLP194 T01560100=
201510160952 METAR KATL 160952Z 25004KT 10SM FEW250 16/10 A3011 RMK AO2 SLP190 T01610100=
201510160852 METAR KATL 160852Z 24004KT 10SM FEW250 16/10 A3011 RMK AO2 SLP190 T01610100 58007=
201510160752 METAR KATL 160752Z 23004KT 10SM CLR 16/11 A3012 RMK AO2 SLP193 T01610106=
201510160652 METAR KATL 160652Z 00000KT 10SM CLR 17/11 A3013 RMK AO2 SLP194 T01670106=
201510160552 METAR KATL 160552Z 22003KT 10SM CLR 18/11 A3013 RMK AO2 SLP197 T01780106 10217 20167 50000=
201510160452 METAR KATL 160452Z 21003KT 10SM CLR 18/11 A3014 RMK AO2 SLP201 T01780106 402720178=
201510160352 METAR KATL 160352Z 00000KT 10SM CLR 18/11 A3015 RMK AO2 SLP203 T01780106=
201510160252 METAR KATL 160252Z COR 00000KT 10SM CLR 19/11 A3013 RMK AO2 SLP199 T01890106 50007=
201510160152 METAR KATL 160152Z COR 00000KT 10SM CLR 19/11 A3013 RMK AO2 SLP200 T01940106=
201510160052 METAR KATL 160052Z 20003KT 10SM CLR 21/11 A3013 RMK AO2 SLPNO T02060106=
201510152352 METAR KATL 152352Z COR 00000KT 10SM CLR 21/11 A3011 RMK AO2 SLP194 T02110106 10272 20211 53004=
201510152252 METAR KATL 152252Z COR 00000KT 10SM CLR 24/10 A3010 RMK AO2 SLP189 T02390100=
201510152152 METAR KATL 152152Z COR 25003KT 10SM CLR 26/08 A3010 RMK AO2 SLP184 T02610083=
201510152052 METAR KATL 152052Z 27005KT 10SM CLR 27/08 A3010 RMK AO2 SLPNO 56014 T02670078 56013=
201510151952 METAR KATL 151952Z COR 00000KT 10SM CLR 27/08 A3010 RMK AO2 SLP188 T02720078=
201510151852 METAR KATL 151852Z COR VRB05KT 10SM CLR 27/07 A3011 RMK AO2 SLP192 T02720067=
201510151752 METAR KATL 151752Z 00000KT 10SM CLR 26/08 A3014 RMK AO2 SLPNO 10261 20128 58007 T02560078 $=
201510151652 METAR KATL 151652Z COR 35003KT 10SM CLR 25/10 A3016 RMK AO2 SLP209 T02500100 $=
201510151552 METAR KATL 151552Z COR 00000KT 10SM CLR 23/12 A3016 RMK SLP210 T02300120=
201510151452 METAR KATL 151452Z COR 00000KT 10SM CLR 24/13 A3017 RMK SLP213 T02400130 51002=
201510151352 METAR KATL 151352Z 32004KT 10SM CLR 18/12 A3017 RMK AO2 SLP214 T01830117 $=
201510151252 METAR KATL 151252Z 34005KT 10SM CLR 16/11 A3014 RMK AO2 SLP203 T01560111=
201510151152 METAR KATL 151152Z 35003KT 10SM CLR 13/09 A3012 RMK AO2 SLP196 T01280094 10144 20122 52014=
201510151052 METAR KATL 151052Z 33005KT 10SM CLR 13/09 A3011 RMK AO2 SLP191 T01280089=
201510150952 METAR KATL 150952Z 00000KT 10SM CLR 13/09 A3009 RMK AO2 SLP185 T01330094=
201510150852 METAR KATL 150852Z 00000KT 10SM CLR 12/10 A3008 RMK AO2 SLP180 T01220100 51005=
201510150752 METAR KATL 150752Z 00000KT 10SM CLR 12/09 A3008 RMK AO2 SLP179 T01220094=
201510150652 METAR KATL 150652Z 00000KT 10SM CLR 13/10 A3007 RMK AO2 SLP176 T01330100=
201510150552 METAR KATL 150552Z 00000KT 10SM CLR 14/10 A3006 RMK AO2 SLP174 T01440100 10211 20133 51004=
201510150452 METAR KATL 150452Z 23003KT 10SM CLR 14/10 A3006 RMK AO2 SLP175 T01440100 402560106=
201510150352 METAR KATL 150352Z 00000KT 10SM CLR 15/10 A3006 RMK AO2 SLP174 T01500100=
201510150252 METAR KATL 150252Z 00000KT 10SM CLR 16/10 A3005 RMK AO2 SLP172 T01610100 51009=
201510150152 METAR KATL 150152Z 00000KT 10SM CLR 17/10 A3005 RMK AO2 SLP172 T01670100=
201510150052 METAR KATL 150052Z 31003KT 10SM CLR 19/09 A3004 RMK AO2 SLP169 T01890094=
201510142352 METAR KATL 142352Z 32004KT 10SM CLR 21/09 A3002 RMK AO2 SLP163 T02110089 10256 20200 53010=
201510142252 METAR KATL 142252Z 32004KT 10SM CLR 22/08 A3000 RMK AO2 SLP155 T02220083=
201510142152 METAR KATL 142152Z 31008KT 10SM CLR 24/08 A2999 RMK AO2 SLP149 T02440078=
201510142052 METAR KATL 142052Z 31007KT 10SM CLR 25/07 A2999 RMK AO2 SLP150 T02500067 56007=
201510141952 METAR KATL 141952Z 30007KT 10SM CLR 26/07 A2999 RMK AO2 SLP151 T02560067=
201510141852 METAR KATL 141852Z 30010KT 10SM CLR 24/06 A3000 RMK AO2 SLP153 T02440061=
201510141752 METAR KATL 141752Z 30010KT 10SM CLR 24/07 A3001 RMK AO2 SLP157 T02440072 10244 20111 58006=
201510141652 METAR KATL 141652Z 32009KT 10SM CLR 23/08 A3003 RMK AO2 SLP163 T02280078=
201510141552 METAR KATL 141552Z 33010G17KT 10SM CLR 22/07 A3004 RMK AO2 SLP166 T02170072=
201510141452 METAR KATL 141452Z 32006KT 10SM CLR 19/10 A3003 RMK AO2 SLP164 T01890100 51019=
201510141352 METAR KATL 141352Z 31009KT 10SM CLR 16/09 A3002 RMK AO2 SLP161 T01610089=
201510141252 METAR KATL 141252Z 30006KT 10SM CLR 13/08 A3000 RMK AO2 SLP154 T01330083=
201510141152 METAR KATL 141152Z 26003KT 10SM CLR 11/07 A2997 RMK AO2 SLP146 T01110072 10139 20106 51016=
201510141052 METAR KATL 141052Z 24003KT 10SM CLR 11/07 A2996 RMK AO2 SLP142 T01110072=
201510140952 METAR KATL 140952Z 27003KT 10SM CLR 12/07 A2994 RMK AO2 SLP134 T01220067=
201510140852 METAR KATL 140852Z 29005KT 10SM CLR 12/07 A2992 RMK AO2 SLP127 T01170072 50003 $=
201510140752 METAR KATL 140752Z 27004KT 10SM CLR 12/07 A2993 RMK AO2 SLP127 T01220067=
201510140652 METAR KATL 140652Z 30007KT 10SM CLR 13/08 A2992 RMK AO2 SLP126 T01330078=
201510140552 METAR KATL 140552Z 31006KT 10SM CLR 14/08 A2992 RMK AO2 SLP124 T01390078 10211 20139 50003=
201510140452 METAR KATL 140452Z 32007KT 10SM CLR 15/08 A2992 RMK AO2 SLP126 T01500083 402720150=
201510140352 METAR KATL 140352Z 29005KT 10SM CLR 16/08 A2992 RMK AO2 SLP127 T01560083=
201510140252 METAR KATL 140252Z 29007KT 10SM CLR 17/09 A2991 RMK AO2 SLP122 T01720094 51021=
201510140152 METAR KATL 140152Z 30004KT 10SM CLR 18/10 A2989 RMK AO2 SLP115 T01830100=
201510140052 METAR KATL 140052Z 31006KT 10SM CLR 19/11 A2987 RMK AO2 SLP110 T01940111=
201510132352 METAR KATL 132352Z 26005KT 10SM CLR 21/12 A2984 RMK AO2 SLP100 T02110122 10272 20206 53009=
201510132252 METAR KATL 132252Z 28005KT 10SM FEW060 23/11 A2983 RMK AO2 SLP094 T02280111=
201510132152 METAR KATL 132152Z 27008KT 10SM CLR 26/11 A2982 RMK AO2 SLP089 T02560106=
201510132052 METAR KATL 132052Z 25007KT 10SM FEW060 27/12 A2982 RMK AO2 SLP089 T02670117 55008=
201510131952 METAR KATL 131952Z 26012G17KT 10SM FEW060 27/13 A2982 RMK AO2 SLP088 T02670128=
201510131852 METAR KATL 131852Z 29006KT 10SM FEW040 26/16 A2982 RMK AO2 SLP089 T02560156=
201510131752 METAR KATL 131752Z VRB04KT 10SM FEW030 25/16 A2984 RMK AO2 SLP098 T02500161 10250 20172 58006=
201510131652 METAR KATL 131652Z 27007KT 240V300 10SM FEW017 SCT035 23/17 A2987 RMK AO2 SLP108 T02330167=
201510131552 METAR KATL 131552Z 25007KT 10SM FEW015 BKN035 BKN100 21/16 A2987 RMK AO2 SLP108 T02060161=
201510131452 METAR KATL 131452Z 27008KT 10SM FEW014 SCT110 19/16 A2986 RMK AO2 SLP106 T01940156 51013=
201510131352 METAR KATL 131352Z 25007G16KT 9SM FEW015 SCT075 SCT120 19/15 A2985 RMK AO2 SLP102 T01890150=
201510131252 METAR KATL 131252Z 24008KT 10SM FEW075 BKN100 BKN250 17/15 A2983 RMK AO2 SLP098 T01720150=
201510131152 METAR KATL 131152Z 24007KT 10SM BKN036 BKN110 BKN250 18/14 A2982 RMK AO2 SLP093 60003 70003 T01780144 10183 20161 53002=
201510131052 METAR KATL 131052Z 24004KT 10SM OVC036 17/15 A2981 RMK AO2 RAB20E32 SLP087 P0000 T01720150=
201510130952 METAR KATL 130952Z 22005KT 10SM FEW055 BKN080 OVC110 16/14 A2980 RMK AO2 RAE36 SLP083 P0001 T01610144=
201510130852 METAR KATL 130852Z 22005KT 10SM -RA BKN055 BKN080 OVC120 17/13 A2982 RMK AO2 SLP089 P0001 60002 T01720133 51002 $=
201510130752 METAR KATL 130752Z 27005KT 10SM -RA SCT050 BKN085 OVC120 18/13 A2981 RMK AO2 TSE17RAB0658E18B51 SLP087 TS MOVD SE FRQ LTGIC DSNT E-SE CB DSNT E-SE P0001 T01780133 $=
201510130718 SPECI KATL 130718Z 23005KT 10SM BKN055 BKN080 OVC140 17/13 A2980 RMK AO2 TSE17RAB0658E18 TS MOVD SE OCNL LTGIC DSNT NE-E CB DSNT NE-E P0001 $=
201510130712 SPECI KATL 130712Z 22005KT 10SM -TSRA BKN050CB BKN085 OVC140 18/13 A2980 RMK AO2 RAB0658 OCNL LTGIC NE-E TS VC NE-E MOV SE P0001 $=
201510130701 SPECI KATL 130701Z 24005KT 3SM TSRA OVC050CB 18/12 A2981 RMK AO2 RAB0658 OCNL LTGIC NE-OHD-SW TS NE-OHD-SW MOV SE P0000 $=
201510130652 METAR KATL 130652Z 28008KT 10SM TS BKN050CB OVC120 18/12 A2982 RMK AO2 TSB49 SLP090 OCNL LTGIC NW-N TS NW-N MOV SE SHRA NW-N T01830122 $=
201510130552 METAR KATL 130552Z 23007KT 10SM FEW060 SCT120 BKN180 BKN250 17/12 A2981 RMK AO2 SLP087 T01720122 10194 20161 58011 $=
201510130452 METAR KATL 130452Z 22007KT 10SM FEW060 17/12 A2982 RMK AO2 SLP091 T01720122 402440133 $=
201510130352 METAR KATL 130352Z 23005KT 10SM FEW060 17/13 A2984 RMK AO2 SLP098 T01670128 $=
201510130252 METAR KATL 130252Z 22005KT 10SM CLR 17/13 A2984 RMK AO2 SLP100 T01720133 58001 $=
201510130152 METAR KATL 130152Z 22004KT 10SM CLR 18/13 A2984 RMK AO2 SLP101 T01780133 $=
201510130052 METAR KATL 130052Z 22004KT 10SM CLR 18/13 A2985 RMK AO2 SLP103 T01830133 $=
201510122352 METAR KATL 122352Z 21004KT 10SM FEW050 19/13 A2984 RMK AO2 SLP102 T01940133 10244 20194 55002 $=
201510122252 METAR KATL 122252Z 20006KT 10SM FEW045 21/13 A2984 RMK AO2 SLP099 T02110128 $=
201510122152 METAR KATL 122152Z 21007KT 10SM FEW045 23/12 A2985 RMK AO2 SLP102 T02330122 $=
201510122052 METAR KATL 122052Z 27006KT 10SM FEW044 24/13 A2985 RMK AO2 SLP102 T02440128 56022 $=
201510121952 METAR KATL 121952Z 28009KT 10SM FEW044 24/12 A2986 RMK AO2 SLP106 T02440122 $=
201510121852 METAR KATL 121852Z VRB04KT 10SM FEW042 24/12 A2989 RMK AO2 SLP113 T02390122 $=
201510121752 METAR KATL 121752Z 26008KT 10SM BKN040 23/12 A2992 RMK AO2 SLP126 T02280122 10233 20133 58015 $=
201510121652 METAR KATL 121652Z 24007KT 10SM BKN033 22/11 A2994 RMK AO2 SLP132 T02220111 $=
201510121552 METAR KATL 121552Z VRB03KT 10SM FEW014 BKN044 21/14 A2995 RMK AO2 SLP136 T02110144 $=
201510121452 METAR KATL 121452Z 26006KT 10SM FEW003 BKN046 19/15 A2996 RMK AO2 SLP143 T01890150 53005 $=
201510121352 METAR KATL 121352Z 19003KT 3SM BR FEW003 SCT046 16/14 A2995 RMK AO2 SLP137 T01560144 $=
201510121252 METAR KATL 121252Z 00000KT 7SM FEW003 BKN046 14/13 A2995 RMK AO2 SLP139 T01440133 $=
201510121219 SPECI KATL 121219Z 00000KT 5SM BR FEW002 BKN044 14/13 A2995 RMK AO2 $=
201510121152 METAR KATL 121152Z 00000KT 3SM BR FEW002 BKN044 13/13 A2995 RMK AO2 SFC VIS 5 SLP139 T01330128 10144 20133 52004 $=
201510121149 SPECI KATL 121149Z 00000KT 3SM BR FEW002 BKN042 13/13 A2995 RMK AO2 SFC VIS 5 $=
201510121052 METAR KATL 121052Z 00000KT 3/4SM R09R/1800V4000FT BR BKN002 BKN042 13/12 A2994 RMK AO2 SFC VIS 1 SLP135 VIS S-W 1/2 T01330122 $=
201510121050 SPECI KATL 121050Z 00000KT 3/4SM R09R/1600V4000FT BR BKN002 BKN042 13/12 A2994 RMK AO2 SFC VIS 1 VIS S-W 1/2 $=
201510121033 SPECI KATL 121033Z 00000KT 1/2SM R09R/1600V1800FT FG VV002 13/13 A2994 RMK AO2 TWR VIS 1 1/2 $=
201510120952 METAR KATL 120952Z 00000KT 3/4SM R09R/P6000FT BR SCT002 SCT042 13/13 A2993 RMK AO2 TWR VIS 1 1/2 SLP130 VIS 1/2V1 1/2 T01330128 $=
201510120944 SPECI KATL 120944Z 00000KT 1 1/4SM BR SCT002 13/12 A2993 RMK AO2 TWR VIS 1 1/2 VIS W-N 1/2 $=
201510120920 SPECI KATL 120920Z 00000KT 3/4SM R09R/P6000FT BR SCT002 13/12 A2992 RMK AO2 TWR VIS 1 1/2 $=
201510120852 METAR KATL 120852Z 00000KT 1SM R09R/P6000FT BR SCT002 14/13 A2992 RMK AO2 TWR VIS 1 1/2 SLP129 T01390133 58009 $=
201510120817 SPECI KATL 120817Z 00000KT 1SM R09R/5000VP6000FT BR BCFG SCT003 14/13 A2993 RMK AO2 TWR VIS 1 1/2 $=
201510120758 SPECI KATL 120758Z 00000KT 1 1/2SM BR BCFG BKN003 13/12 A2994 RMK AO2 CIG 002V004 $=
201510120752 METAR KATL 120752Z 00000KT 3SM BR BCFG SCT003 13/12 A2994 RMK AO2 SLP134 VIS E-S-SW 1 1/2 T01330122 $=
201510120652 METAR KATL 120652Z 00000KT 8SM BCFG FEW002 SCT005 BKN042 14/13 A2995 RMK AO2 SLP137 VIS LWR SE-SW T01440133 $=
201510120642 SPECI KATL 120642Z 14003KT 8SM BCFG FEW002 BKN042 14/13 A2995 RMK AO2 VIS SE-SW 2 $=
201510120552 METAR KATL 120552Z 00000KT 10SM FEW010 14/13 A2995 RMK AO2 SLP138 T01440133 10183 20144 55002 $=
201510120452 METAR KATL 120452Z 00000KT 10SM FEW250 15/13 A2995 RMK AO2 SLP136 T01500133 402280144 $=
201510120352 METAR KATL 120352Z 00000KT 10SM FEW250 16/14 A2996 RMK AO2 SLP140 T01560139 $=
201510120252 METAR KATL 120252Z 00000KT 10SM FEW042 SCT250 16/14 A2996 RMK AO2 SLP141 T01610139 53010 $=
201510120152 METAR KATL 120152Z 17006KT 10SM BKN042 BKN250 17/14 A2995 RMK AO2 SLP137 T01670144 $=
201510120052 METAR KATL 120052Z 19003KT 10SM SCT042 SCT250 17/13 A2993 RMK AO2 SLP133 T01720133 $=
201510112352 METAR KATL 112352Z 15004KT 10SM FEW040 SCT250 18/14 A2992 RMK AO2 SLP130 T01830139 10228 20183 55002 $=
201510112252 METAR KATL 112252Z 16006KT 10SM FEW038 SCT045 SCT250 19/14 A2992 RMK AO2 SLP126 T01940139 $=
201510112152 METAR KATL 112152Z 13004KT 10SM FEW039 SCT050 SCT250 22/14 A2993 RMK AO2 SLP128 T02220139 $=
201510112052 METAR KATL 112052Z 20004KT 10SM SCT035 BKN045 22/13 A2993 RMK AO2 SLP130 T02170133 56023 $=
201510111952 METAR KATL 111952Z 13003KT 10SM BKN030 OVC040 21/13 A2994 RMK AO2 SLP135 BINOVC T02110133 $=
201510111852 METAR KATL 111852Z 00000KT 10SM FEW030 OVC038 21/13 A2997 RMK AO2 SLP144 BINOVC T02060133 $=
201510111752 METAR KATL 111752Z VRB03KT 10SM BKN030 21/13 A3000 RMK AO2 SLP153 T02110133 10217 20150 58015 $=
201510111744 SPECI KATL 111744Z VRB04KT 10SM BKN030 21/13 A3000 RMK AO2 $=
201510111652 METAR KATL 111652Z 05005KT 10SM BKN024 21/13 A3002 RMK AO2 SLP161 T02060133 $=
201510111630 SPECI KATL 111630Z 04006KT 10SM BKN022 19/13 A3003 RMK AO2 BKN022 V SCT $=
201510111552 METAR KATL 111552Z 06008KT 10SM SCT020 19/13 A3004 RMK AO2 SLP166 SCT020 V BKN T01890128 $=
201510111452 METAR KATL 111452Z 07009KT 10SM BKN018 17/12 A3005 RMK AO2 SLP171 T01720122 51010 $=
201510111438 SPECI KATL 111438Z 07010KT 10SM BKN016 18/13 A3005 RMK AO2 $=
201510111352 METAR KATL 111352Z 07012KT 10SM SCT014 SCT038 17/12 A3004 RMK AO2 SLP169 T01670122 $=
201510111252 METAR KATL 111252Z 05011KT 10SM FEW012 SCT038 16/12 A3003 RMK AO2 SLP164 T01610122 $=
201510111152 METAR KATL 111152Z 04011KT 10SM FEW012 SCT038 15/12 A3002 RMK AO2 SLP161 T01500117 10172 20144 50007 $=
201510111112 SPECI KATL 111112Z 02007KT 10SM FEW009 SCT012 BKN038 15/12 A3002 RMK AO2 $=
201510111052 METAR KATL 111052Z 02005KT 10SM FEW009 BKN012 15/12 A3002 RMK AO2 SLP161 T01500122 $=
201510110952 METAR KATL 110952Z COR 01007KT 10SM FEW009 BKN013 15/12 A3001 RMK AO2 SLP159 T01500122 $=
201510110852 METAR KATL 110852Z 07005KT 10SM BKN009 BKN013 15/12 A3000 RMK AO2 SLP152 BKN009 V SCT CIG 008V011 T01500122 50001 $=
201510110752 METAR KATL 110752Z 05008KT 10SM BKN009 BKN013 16/13 A3000 RMK AO2 SLP153 CIG 008V011 T01560128 $=
201510110743 SPECI KATL 110743Z 04011KT 10SM BKN009 BKN013 16/13 A3000 RMK AO2 $=
201510110723 SPECI KATL 110723Z 05009KT 10SM SCT009 BKN013 15/12 A3000 RMK AO2 $=
201510110706 SPECI KATL 110706Z 04008KT 10SM SCT009 SCT013 SCT022 16/13 A2999 RMK AO2 $=
201510110652 METAR KATL 110652Z 04010KT 10SM BKN009 BKN013 16/13 A2999 RMK AO2 SLP151 CIG 008V011 T01610133 $=
201510110621 SPECI KATL 110621Z 05010KT 10SM BKN009 BKN013 BKN022 16/13 A2999 RMK AO2 $=
201510110609 SPECI KATL 110609Z 06012KT 10SM SCT009 BKN013 BKN022 17/13 A2999 RMK AO2 $=
201510110552 METAR KATL 110552Z 05008KT 10SM SCT009 BKN016 BKN022 17/14 A2999 RMK AO2 SLP151 60000 T01720144 10189 20172 58008 $=
201510110547 SPECI KATL 110547Z 05007KT 10SM SCT009 BKN014 BKN022 17/14 A2999 RMK AO2 $=
201510110518 SPECI KATL 110518Z 02006KT 10SM BKN009 OVC013 17/14 A3000 RMK AO2 $=
201510110452 METAR KATL 110452Z 35008KT 10SM OVC013 17/14 A3000 RMK AO2 SLP154 T01720144 402170172 $=
201510110437 SPECI KATL 110437Z 35008KT 10SM BKN013 OVC030 17/14 A3001 RMK AO2 $=
201510110352 METAR KATL 110352Z 36008KT 10SM FEW019 OVC026 18/14 A3001 RMK AO2 SLP156 T01780144 $=
201510110327 SPECI KATL 110327Z 36008KT 10SM FEW012 OVC024 18/14 A3002 RMK AO2 $=
201510110252 METAR KATL 110252Z 34006KT 10SM FEW012 BKN032 18/15 A3002 RMK AO2 SLP159 60000 T01780150 51008 $=
201510110245 SPECI KATL 110245Z 35005KT 10SM FEW012 BKN032 18/15 A3002 RMK AO2 $=
201510110152 METAR KATL 110152Z 34007KT 10SM FEW014 BKN026 BKN041 18/15 A3001 RMK AO2 RAE31 SLP157 P0000 T01780150 $=
201510110052 METAR KATL 110052Z 34009KT 10SM -RA FEW014 BKN028 OVC041 18/15 A3001 RMK AO2 RAB50 SLP156 P0000 T01830150 $=
201510102352 METAR KATL 102352Z 33012KT 10SM FEW018 BKN027 OVC038 19/15 A2999 RMK AO2 SLP151 T01890150 10217 20189 51006 $=
201510102313 SPECI KATL 102313Z 33010KT 10SM FEW020 BKN027 BKN055 BKN250 19/15 A2999 RMK AO2 $=
201510102252 METAR KATL 102252Z 34010KT 10SM FEW017 BKN040 BKN095 BKN250 19/15 A2999 RMK AO2 SLP149 T01940150 $=
201510102152 METAR KATL 102152Z 34013KT 10SM SCT017 BKN095 BKN250 21/15 A2998 RMK AO2 SLP146 T02060150 $=
201510102052 METAR KATL 102052Z 32011KT 10SM SCT018 BKN036 21/16 A2997 RMK AO2 SLP144 T02110156 56009 $=
201510102003 SPECI KATL 102003Z 32012KT 10SM OVC030 21/16 A2998 RMK AO2 $=
201510101952 METAR KATL 101952Z 32010KT 10SM FEW021 OVC028 21/16 A2998 RMK AO2 SLP146 T02110156 $=
201510101859 SPECI KATL 101859Z 32008KT 10SM SCT014 OVC022 20/16 A2998 RMK AO2 $=
201510101852 METAR KATL 101852Z 32011KT 10SM BKN013 OVC022 20/16 A2999 RMK AO2 SLP148 T02000156 $=
201510101815 SPECI KATL 101815Z 32009KT 10SM OVC013 19/16 A3000 RMK AO2 $=
201510101752 METAR KATL 101752Z 32016G20KT 10SM BKN016 BKN025 BKN060 21/16 A3000 RMK AO2 SLP153 BINOVC 60000 T02060156 10217 20172 56009 $=
201510101734 SPECI KATL 101734Z 31010KT 10SM BKN018 BKN023 BKN060 22/16 A3000 RMK AO2 $=
201510101652 METAR KATL 101652Z 28011KT 10SM FEW015 SCT022 BKN045 21/16 A3001 RMK AO2 RAB01E12 SLP156 P0000 T02110161 $=
201510101637 SPECI KATL 101637Z 31012G17KT 10SM SCT014 SCT020 BKN030 21/16 A3001 RMK AO2 RAB01E12 P0000 $=
201510101552 METAR KATL 101552Z 30008KT 10SM BKN018 BKN028CB OVC090 21/16 A3002 RMK AO2 SLP158 CB SE AND W-NW MOV SE T02060161 $=
201510101543 SPECI KATL 101543Z 33011G14KT 10SM SCT014 BKN025CB BKN030 21/16 A3002 RMK AO2 CB NW AND SE MOV SE $=
201510101515 SPECI KATL 101515Z 33007KT 10SM SCT012 SCT020 BKN045 21/17 A3003 RMK AO2 $=
201510101459 SPECI KATL 101459Z 32008KT 10SM SCT011 BKN019 BKN070 20/17 A3003 RMK AO2 $=
201510101452 METAR KATL 101452Z 32010KT 10SM SCT008 BKN012 OVC070 20/17 A3003 RMK AO2 SLP163 BINOVC T02000167 51017 $=
201510101352 METAR KATL 101352Z 31008KT 7SM BKN008 OVC015 18/17 A3003 RMK AO2 SLP163 T01830167 $=
201510101325 SPECI KATL 101325Z 31007KT 6SM BR SCT002 OVC008 18/17 A3002 RMK AO2 $=
201510101311 SPECI KATL 101311Z 31011KT 2SM BR OVC002 18/17 A3002 RMK AO2 SFC VIS 3 $=
201510101308 SPECI KATL 101308Z 31010KT 1/2SM BR OVC002 18/17 A3002 RMK AO2 SFC VIS 2 1/2 VIS 1V5 $=
201510101253 SPECI KATL 101253Z 31010KT 1/8SM R09R/1600V2600FT FG VV002 18/17 A3001 RMK AO2 SFC VIS 1/4 $=
201510101252 METAR KATL 101252Z 30012KT 1/4SM R09R/1600V3500FT FG VV002 18/17 A3001 RMK AO2 SLP155 T01780167 $=
201510101243 SPECI KATL 101243Z 31007KT 1/4SM R09R/2800VP6000FT FG BKN003 BKN095 BKN220 17/16 A3000 RMK AO2 SFC VIS 1/2 CIG 002V005 $=
201510101223 SPECI KATL 101223Z 29003KT 1/4SM R09R/2000VP6000FT BR BCFG BKN002 BKN005 BKN095 BKN220 17/17 A2999 RMK AO2 SFC VIS 2 VIS SW-NW-N 1/2 $=
201510101217 SPECI KATL 101217Z 29004KT 1/2SM R09R/4500VP6000FT BR BCFG SCT002 SCT007 BKN095 BKN220 18/16 A2999 RMK AO2 SFC VIS 4 VIS SW-NW 1 $=
201510101152 METAR KATL 101152Z 26003KT 8SM SCT005 SCT095 BKN150 BKN250 18/17 A2998 RMK AO2 RAE14 SLP146 P0000 60076 70076 T01780167 10200 20178 58010 $=
201510101052 METAR KATL 101052Z 04005KT 6SM -RA BR SCT005 OVC090 18/17 A2999 RMK AO2 SLP148 P0016 T01830167 $=
201510101010 SPECI KATL 101010Z 12003KT 6SM -RA BR SCT005 BKN060 OVC075 18/17 A3000 RMK AO2 P0011 $=
201510100952 METAR KATL 100952Z 27005KT 3SM RA BR BKN005 OVC065 18/17 A3002 RMK AO2 SLP159 TSE22 TS DSIPTD CIG 004V007 P0015 T01780167 $=
201510100929 SPECI KATL 100929Z 33007KT 8SM -RA BKN005 BKN065 OVC090 18/17 A3001 RMK AO2 TSE28 OCNL LTGIC DSNT SE CB DSNT SE TS DSIPTD P0011 $=
201510100922 SPECI KATL 100922Z 33007KT 8SM -TSRA BKN004 BKN070 OVC090 18/17 A3000 RMK AO2 OCNL LTGIC DSNT SE CB DSNT SE TS DSIPTD P0011 $=
201510100902 SPECI KATL 100902Z 36012KT 3SM +TSRA BR FEW004 BKN033CB OVC060 18/17 A2999 RMK AO2 OCNL LTGIC VC S-SW TS VC S-SW MOV NE P0010 $=
201510100852 METAR KATL 100852Z 31008KT 3SM +TSRA BR BKN004 BKN018CB OVC060 18/17 A3001 RMK AO2 TSB05 SLP155 FRQ LTGICCG OHD-ALQDS TS OHD-ALQDS MOV NE CIG 003V005 P0026 60045 T01780167 55010 $=
201510100846 SPECI KATL 100846Z 33006KT 3SM -TSRA BR BKN004 BKN018CB OVC060 18/17 A3000 RMK AO2 TSB05 FRQ LTGICCG OHD-ALQDS TS OHD-ALQDS MOV NE CIG 003V005 P0025 $=
201510100834 SPECI KATL 100834Z 33009KT 2 1/2SM TSRA BR BKN004 BKN034CB OVC049 18/17 A3001 RMK AO2 TSB05 FRQ LTGICCG OHD-ALQDS TS OHD-ALQDS MOV NE CIG 003V005 P0017 $=
201510100820 SPECI KATL 100820Z 00000KT 2SM +TSRA BR SCT004 SCT034CB OVC047 18/17 A3001 RMK AO2 TSB05 OCNL LTGICCG OHD-SW-NW-N TS OHD-SW-NW-N MOV NE P0010 $=
201510100807 SPECI KATL 100807Z 06004KT 5SM -TSRA BR SCT004 SCT034CB OVC047 18/17 A2999 RMK AO2 TSB05 OCNL LTGIC VC SW-NW TS VC SW-NW MOV NE P0005 $=
201510100752 METAR KATL 100752Z 06005KT 2 1/2SM RA BR FEW004 SCT028CB OVC055 18/17 A3000 RMK AO2 RAB04 SLP150 CB VC W MOV NE P0015 T01830167 $=
201510100652 METAR KATL 100652Z 01008KT 8SM SCT007 OVC039 18/17 A3002 RMK AO2 RAB00E52 SLP158 CB DSIPTD P0004 T01830167 $=
201510100606 SPECI KATL 100606Z 36015G21KT 5SM RA FEW012 BKN030 OVC035 19/17 A3003 RMK AO2 RAB00 CB VC NW-N MOV NE P0001=
201510100552 METAR KATL 100552Z 33013G19KT 10SM BKN012 BKN037 OVC055 21/17 A3004 RMK AO2 SLP164 OCNL LTGIC DSNT N CB DSNT N T02060172 10228 20200 53002=
201510100549 SPECI KATL 100549Z 31010KT 10SM SCT012 BKN037 OVC055 21/17 A3004 RMK AO2 OCNL LTGIC DSNT NW-N CB DSNT NW-N=
201510100522 SPECI KATL 100522Z 33006KT 10SM FEW012 BKN055 BKN120 OVC150 21/17 A3002 RMK AO2 OCNL LTGIC DSNT NW CB DSNT NW=
201510100452 METAR KATL 100452Z 23003KT 10SM SCT065 BKN110 OVC150 21/17 A3002 RMK AO2 SLP157 T02060172 402720172=
201510100352 METAR KATL 100352Z 00000KT 10SM BKN100 OVC200 21/17 A3004 RMK AO2 SLP162 T02110172=
201510100252 METAR KATL 100252Z 19003KT 10SM SCT110 BKN200 BKN250 20/17 A3004 RMK AO2 SLP164 T02000172 51004=
201510100152 METAR KATL 100152Z 00000KT 10SM FEW150 SCT200 BKN250 21/17 A3003 RMK AO2 SLP163 T02110172=
201510100052 METAR KATL 100052Z 00000KT 10SM FEW150 SCT200 BKN250 23/17 A3004 RMK AO2 SLP165 T02280167=
201510092352 METAR KATL 092352Z 00000KT 10SM FEW060 SCT140 BKN200 BKN250 23/17 A3002 RMK AO2 SLP161 T02280172 10272 20228 58008=
201510092252 METAR KATL 092252Z 00000KT 10SM FEW060 BKN140 BKN200 BKN250 24/16 A3003 RMK AO2 SLP163 T02390161=
201510092152 METAR KATL 092152Z 31006KT 10SM BKN140 BKN200 BKN250 25/16 A3005 RMK AO2 SLP168 T02500161=
201510092052 METAR KATL 092052Z 28004KT 10SM FEW035TCU BKN075 BKN240 26/16 A3005 RMK AO2 SLP168 TCU S T02560161 56021=
201510091952 METAR KATL 091952Z 32006KT 10SM FEW035 BKN075 OVC240 26/16 A3007 RMK AO2 SLP174 T02560161=
201510091852 SPECI KATL 091852Z 29008KT 10SM FEW035 BKN080 OVC240 26/16 A3008 RMK AO2 SLP179 T02610161=
201510091852 METAR KATL 091852Z 29008KT 10SM FEW035 BKN080 OVC240 26/16 A3008 RMK AO2 SLP179 T02610161=
201510091752 METAR KATL 091752Z 30007KT 10SM FEW032 SCT080 BKN250 26/17 A3011 RMK AO2 SLP188 T02560167 10267 20178 58018=
201510091652 METAR KATL 091652Z 27008KT 10SM FEW028TCU SCT080 BKN250 27/18 A3014 RMK AO2 SLP198 TCU E-SE-S T02670178=
201510091552 METAR KATL 091552Z 27003KT 10SM FEW024 SCT080 BKN250 25/18 A3016 RMK AO2 SLP206 T02500183=
201510091452 METAR KATL 091452Z 00000KT 10SM FEW020 SCT090 BKN250 23/18 A3017 RMK AO2 SLP207 T02330183 50009=
201510091352 METAR KATL 091352Z 23004KT 10SM FEW005 SCT110 BKN250 21/18 A3017 RMK AO2 SLP209 T02060178=
201510091252 METAR KATL 091252Z 18003KT 10SM FEW110 SCT150 BKN200 BKN250 18/16 A3015 RMK AO2 SLP205 ACC DSNT N & SW T01830161=
201510091152 METAR KATL 091152Z 15003KT 10SM FEW110 SCT150 BKN200 BKN250 18/15 A3014 RMK AO2 SLP199 ACC DSNT NE & W T01780150 10206 20172 53010=
201510091052 METAR KATL 091052Z 00000KT 10SM FEW150 BKN200 BKN250 19/15 A3013 RMK AO2 SLP195 T01890150=
201510090952 METAR KATL 090952Z 00000KT 10SM FEW150 BKN200 OVC250 18/16 A3011 RMK AO2 SLP189 T01830156=
201510090852 METAR KATL 090852Z 12003KT 10SM FEW150 BKN200 BKN250 18/16 A3011 RMK AO2 SLP187 T01830156 58003=
201510090752 METAR KATL 090752Z 00000KT 10SM FEW150 BKN200 BKN250 18/15 A3012 RMK AO2 SLP190 T01830150=
201510090652 METAR KATL 090652Z 00000KT 10SM FEW150 BKN200 OVC250 19/16 A3011 RMK AO2 SLP189 T01890156=
201510090552 METAR KATL 090552Z 00000KT 10SM SCT200 BKN250 21/15 A3012 RMK AO2 SLP190 T02060150 10228 20189 58005=
201510090452 METAR KATL 090452Z 00000KT 10SM BKN250 20/16 A3012 RMK AO2 SLP193 T02000156 402780156=
201510090352 METAR KATL 090352Z 15003KT 10SM BKN250 21/16 A3013 RMK AO2 SLP195 T02060156=
201510090252 METAR KATL 090252Z 00000KT 10SM FEW150 BKN250 21/16 A3013 RMK AO2 SLP196 T02110156 52008=
201510090152 METAR KATL 090152Z 14003KT 10SM FEW150 SCT200 BKN250 22/16 A3012 RMK AO2 SLP194 T02170156=
201510090052 METAR KATL 090052Z 14005KT 10SM FEW150 BKN200 BKN250 22/16 A3012 RMK AO2 SLP192 T02220156=
201510082352 METAR KATL 082352Z 18003KT 10SM FEW150 BKN200 BKN250 23/15 A3011 RMK AO2 SLP190 T02280150 10278 20228 53005=
201510082252 METAR KATL 082252Z 14004KT 10SM FEW150 BKN200 BKN250 25/14 A3009 RMK AO2 SLP184 T02500144=
201510082152 METAR KATL 082152Z 17006KT 10SM FEW050 SCT150 BKN250 26/14 A3009 RMK AO2 SLP183 T02560139=
201510082052 METAR KATL 082052Z 18005KT 10SM FEW050 SCT150 BKN250 26/14 A3009 RMK AO2 SLP183 T02610144 56014=
201510081952 METAR KATL 081952Z 16004KT 10SM FEW050 SCT150 SCT250 27/14 A3010 RMK AO2 SLP185 T02670139=
201510081852 METAR KATL 081852Z 14003KT 10SM FEW055 SCT180 SCT250 27/13 A3012 RMK AO2 SLP191 T02670133=
201510081752 METAR KATL 081752Z VRB05KT 10SM FEW050 SCT180 SCT250 26/14 A3014 RMK AO2 SLP198 T02610139 10261 20167 58013=
201510081652 METAR KATL 081652Z 16003KT 10SM FEW050 SCT150 SCT250 25/13 A3016 RMK AO2 SLP207 T02500128=
201510081552 METAR KATL 081552Z 00000KT 10SM FEW150 SCT250 24/13 A3017 RMK AO2 SLP210 T02440133=
201510081452 METAR KATL 081452Z 00000KT 10SM FEW150 SCT250 23/14 A3018 RMK AO2 SLP211 T02280144 51014=
201510081352 METAR KATL 081352Z 13003KT 10SM FEW180 SCT250 21/14 A3017 RMK AO2 SLP208 T02060144=
201510081252 METAR KATL 081252Z 10003KT 10SM FEW180 SCT250 19/14 A3015 RMK AO2 SLP205 T01890139=
201510081152 METAR KATL 081152Z 09003KT 10SM FEW180 SCT250 17/13 A3013 RMK AO2 SLP198 T01670133 10183 20156 53012=
201510081052 METAR KATL 081052Z 09003KT 10SM SCT250 17/14 A3012 RMK AO2 SLP195 T01670139=
201510080952 METAR KATL 080952Z 00000KT 10SM SCT250 16/14 A3011 RMK AO2 SLP188 T01610139=
201510080852 METAR KATL 080852Z 00000KT 10SM SCT250 16/13 A3010 RMK AO2 SLP185 T01610133 53002 $=
201510080752 METAR KATL 080752Z 00000KT 10SM FEW250 17/13 A3009 RMK AO2 SLP182 T01670133 $=
201510080652 METAR KATL 080652Z 00000KT 10SM FEW250 18/14 A3009 RMK AO2 SLP182 T01780139 $=
201510080552 METAR KATL 080552Z 00000KT 10SM FEW250 17/14 A3009 RMK AO2 SLP182 T01720139 10222 20172 58005 $=
201510080452 METAR KATL 080452Z 00000KT 10SM SCT250 18/14 A3010 RMK AO2 SLP186 T01830144 402720156 $=
201510080352 METAR KATL 080352Z 00000KT 10SM FEW250 19/14 A3012 RMK AO2 SLP191 T01890144 $=
201510080252 METAR KATL 080252Z 00000KT 10SM FEW250 20/13 A3010 RMK AO2 SLP187 T02000133 51011 $=
201510080152 METAR KATL 080152Z 15003KT 10SM FEW250 21/13 A3010 RMK AO2 SLP185 T02110133 $=
201510080052 METAR KATL 080052Z 00000KT 10SM FEW250 21/13 A3008 RMK AO2 SLP180 T02110133 $=
201510072352 METAR KATL 072352Z 00000KT 10SM FEW250 22/13 A3007 RMK AO2 SLP177 T02220128 10272 20222 53002 $=
201510072252 METAR KATL 072252Z 00000KT 10SM FEW250 24/13 A3007 RMK AO2 SLP175 T02440128 $=
201510072152 METAR KATL 072152Z 19003KT 10SM FEW250 26/11 A3006 RMK AO2 SLP173 T02610111 $=
201510072052 METAR KATL 072052Z 08003KT 10SM FEW250 27/12 A3006 RMK AO2 SLP172 T02670117 56015=
201510071952 METAR KATL 071952Z 12003KT 10SM FEW065 SCT250 27/11 A3007 RMK AO2 SLP174 T02720106=
201510071852 METAR KATL 071852Z 00000KT 10SM FEW060 SCT250 27/11 A3008 RMK AO2 SLP179 T02720111=
201510071752 METAR KATL 071752Z 00000KT 10SM FEW030 SCT055 25/12 A3011 RMK AO2 SLP189 T02500117 10256 20161 58007=
201510071652 METAR KATL 071652Z 00000KT 10SM FEW030 25/12 A3012 RMK AO2 SLP194 T02500122=
201510071552 METAR KATL 071552Z VRB03KT 10SM FEW030 23/13 A3013 RMK AO2 SLP196 T02330128=
201510071452 METAR KATL 071452Z 00000KT 10SM FEW030 22/14 A3013 RMK AO2 SLP197 T02220139 51017=
201510071352 METAR KATL 071352Z 00000KT 10SM FEW030 21/13 A3012 RMK AO2 SLP195 T02060133=
201510071252 METAR KATL 071252Z 10003KT 10SM FEW030 18/13 A3011 RMK AO2 SLP189 T01830133=
201510071152 METAR KATL 071152Z 10003KT 10SM FEW028 16/14 A3008 RMK AO2 SLP180 T01610139 10178 20156 53015=
201510071052 METAR KATL 071052Z 00000KT 10SM FEW024 16/14 A3006 RMK AO2 SLP173 T01610139=
201510070952 METAR KATL 070952Z 09003KT 10SM FEW026 17/15 A3004 RMK AO2 SLP165 T01670150=
201510070852 METAR KATL 070852Z 08003KT 10SM FEW030 17/15 A3003 RMK AO2 SLP163 T01720150 53000=
201510070752 METAR KATL 070752Z 00000KT 10SM CLR 18/16 A3003 RMK AO2 SLP161 T01780156=
201510070652 METAR KATL 070652Z 00000KT 10SM FEW055 17/15 A3003 RMK AO2 SLP161 T01720150=
201510070552 METAR KATL 070552Z 00000KT 10SM FEW055 17/15 A3003 RMK AO2 SLP163 T01720150 10217 20172 53001=
201510070452 METAR KATL 070452Z 00000KT 10SM CLR 18/16 A3003 RMK AO2 SLP163 T01780156 402440150=
201510070352 METAR KATL 070352Z 00000KT 10SM CLR 19/16 A3003 RMK AO2 SLP163 T01890161=
201510070252 METAR KATL 070252Z 00000KT 10SM CLR 19/16 A3003 RMK AO2 SLP163 T01890156 51005=
201510070152 METAR KATL 070152Z 00000KT 10SM CLR 19/16 A3003 RMK AO2 SLP163 T01940156=
201510070052 METAR KATL 070052Z 00000KT 10SM FEW200 20/16 A3003 RMK AO2 SLP163 T02000156=
201510062352 METAR KATL 062352Z 34005KT 10SM FEW200 22/16 A3002 RMK AO2 SLP159 T02170156 10244 20217 53001=
201510062252 METAR KATL 062252Z 32005KT 10SM FEW200 23/16 A3001 RMK AO2 SLP157 T02280156=
201510062152 METAR KATL 062152Z 34006KT 10SM FEW200 24/16 A3001 RMK AO2 SLP156 T02390156=
201510062052 METAR KATL 062052Z VRB05KT 10SM FEW250 24/15 A3001 RMK AO2 SLP157 T02440150 58010=
201510061952 METAR KATL 061952Z VRB03KT 10SM FEW029 SCT250 24/14 A3002 RMK AO2 SLP159 T02390144=
201510061942 SPECI KATL 061942Z VRB03KT 10SM FEW029 SCT150 SCT250 23/14 A3002 RMK AO2=
201510061852 METAR KATL 061852Z VRB03KT 10SM BKN029 22/13 A3004 RMK AO2 SLP167 T02220133=
201510061849 SPECI KATL 061849Z 30003KT 10SM BKN029 23/13 A3004 RMK AO2=
201510061752 METAR KATL 061752Z 00000KT 10SM FEW030 SCT150 SCT250 22/13 A3007 RMK AO2 SLP177 T02220128 10222 20150 58009=
201510061652 METAR KATL 061652Z VRB03KT 10SM BKN030 BKN150 BKN250 21/12 A3009 RMK AO2 SLP183 T02110117=
201510061552 METAR KATL 061552Z 07007KT 10SM BKN030 BKN150 BKN250 19/11 A3009 RMK AO2 SLP186 T01940111=
201510061452 METAR KATL 061452Z 07009KT 10SM BKN036 BKN150 BKN250 19/11 A3010 RMK AO2 SLP187 T01940106 51013=
201510061352 METAR KATL 061352Z 07012KT 10SM FEW030 SCT120 SCT150 BKN250 18/12 A3009 RMK AO2 SLP185 T01830117=
201510061252 METAR KATL 061252Z 07008KT 10SM FEW010 SCT120 BKN250 17/13 A3008 RMK AO2 SLP181 T01720133=
201510061152 METAR KATL 061152Z 10006KT 10SM FEW010 BKN250 16/13 A3006 RMK AO2 SLP175 70001 T01560133 10178 20156 53015=
201510061052 METAR KATL 061052Z 08007KT 10SM BKN250 16/14 A3004 RMK AO2 SLP167 T01560139=
201510060952 METAR KATL 060952Z 09005KT 10SM BKN250 16/14 A3003 RMK AO2 SLP162 T01610139=
201510060852 METAR KATL 060852Z 08004KT 10SM FEW008 BKN250 17/14 A3002 RMK AO2 SLP159 T01670144 56001=
201510060835 SPECI KATL 060835Z 08009KT 10SM SCT008 BKN250 17/14 A3002 RMK AO2=
201510060752 METAR KATL 060752Z 07008KT 10SM BKN008 BKN014 17/15 A3002 RMK AO2 SLP158 T01720150=
201510060711 SPECI KATL 060711Z 06011KT 10SM BKN009 17/15 A3002 RMK AO2=
201510060652 METAR KATL 060652Z 07012KT 10SM BKN011 18/15 A3001 RMK AO2 SLP157 T01780150=
201510060552 METAR KATL 060552Z 06010KT 10SM FEW009 BKN014 BKN090 18/16 A3002 RMK AO2 SLP159 T01780156 10217 20178 50001=
201510060544 SPECI KATL 060544Z 07007KT 10SM FEW009 BKN014 BKN090 18/16 A3002 RMK AO2=
201510060452 METAR KATL 060452Z 08007KT 10SM FEW010 18/16 A3003 RMK AO2 SLP161 T01780161 402280178=
201510060352 METAR KATL 060352Z 07009KT 10SM FEW010 18/16 A3003 RMK AO2 SLP161 T01830161=
201510060252 METAR KATL 060252Z 06008KT 10SM FEW010 19/17 A3002 RMK AO2 SLP158 T01940167 53012=
201510060152 METAR KATL 060152Z 08006KT 10SM FEW040 19/17 A3001 RMK AO2 SLP156 T01890172=
201510060052 METAR KATL 060052Z 12005KT 10SM SCT038 BKN050 BKN080 21/17 A2999 RMK AO2 SLP150 T02060172=
201510052352 METAR KATL 052352Z 02005KT 10SM FEW040 BKN055 BKN080 22/17 A2998 RMK AO2 SLP146 60001 T02170167 10228 20206 53009=
201510052252 METAR KATL 052252Z 35004KT 10SM BKN040 OVC060 21/17 A2997 RMK AO2 SLP144 T02110172=
201510052152 METAR KATL 052152Z 08007KT 10SM BKN040 OVC055 21/17 A2996 RMK AO2 RAE06 SLP137 BINOVC P0000 T02110172=
201510052052 METAR KATL 052052Z 05011G18KT 6SM R09R/6000VP6000FT -RA FEW015 BKN030 OVC050 21/18 A2995 RMK AO2 SLP137 VIS LWR W-N P0001 60001 T02060178 55001=
201510052020 SPECI KATL 052020Z 09007KT 7SM -RA FEW018 BKN025 OVC030 21/18 A2995 RMK AO2 P0000=
201510051952 METAR KATL 051952Z 09007KT 9SM -RA BKN023 BKN030 OVC040 22/17 A2994 RMK AO2 RAB02E14B50 SLP134 VIS LWR E-SE-S-SW-W SHRA P0000 T02170172=
201510051852 METAR KATL 051852Z 05008KT 10SM FEW020 BKN025 OVC030 23/17 A2995 RMK AO2 RAE05 SLP134 P0000 T02280167=
201510051752 METAR KATL 051752Z 06013G20KT 10SM -RA BKN022 BKN030 OVC040 22/17 A2996 RMK AO2 RAB48 SLP139 P0000 60000 T02170167 10228 20183 58003=
201510051652 METAR KATL 051652Z 05008KT 10SM OVC020 22/16 A2997 RMK AO2 SLP141 T02170161=
201510051552 METAR KATL 051552Z 05013KT 10SM BKN020 OVC030 21/16 A2997 RMK AO2 SLP141 T02110156=
201510051452 METAR KATL 051452Z 06012G21KT 10SM BKN020 OVC040 20/16 A2997 RMK AO2 SLP141 T02000156 51018=
201510051352 METAR KATL 051352Z 05010KT 10SM BKN016 OVC039 19/15 A2996 RMK AO2 SLP139 T01890150=
201510051252 METAR KATL 051252Z 06012G17KT 10SM BKN018 BKN032 OVC045 19/14 A2994 RMK AO2 SLP132 T01890144=
201510051231 SPECI KATL 051231Z 06011KT 10SM BKN020 BKN030 BKN065 18/14 A2993 RMK AO2=
201510051152 METAR KATL 051152Z 06014KT 10SM FEW015 SCT022 BKN055 18/14 A2991 RMK AO2 SLP123 70008 T01830144 10189 20183 53004=
201510051144 SPECI KATL 051144Z 05011KT 10SM FEW015 SCT022 OVC047 18/14 A2992 RMK AO2=
201510051124 SPECI KATL 051124Z 05013KT 10SM BKN022 BKN042 BKN050 18/14 A2991 RMK AO2 BKN022 V SCT=
201510051052 METAR KATL 051052Z 04011G20KT 10SM SCT022 BKN040 BKN055 18/14 A2990 RMK AO2 SLP119 T01830139=
201510051049 SPECI KATL 051049Z 04012G20KT 10SM SCT022 OVC040 18/14 A2990 RMK AO2=
201510050952 METAR KATL 050952Z 04014KT 10SM OVC018 18/14 A2990 RMK AO2 SLP119 T01830144 $=
201510050852 METAR KATL 050852Z 04009KT 10SM BKN020 OVC050 18/14 A2989 RMK AO2 SLP115 T01830144 51005 $=
201510050752 METAR KATL 050752Z 04012KT 10SM OVC019 18/15 A2988 RMK AO2 SLP113 T01830150 $=
201510050652 METAR KATL 050652Z 06012KT 10SM BKN021 OVC045 18/15 A2989 RMK AO2 SLP114 T01830150 $=
201510050615 SPECI KATL 050615Z 05010G18KT 10SM BKN022 OVC047 19/15 A2988 RMK AO2 $=
201510050552 METAR KATL 050552Z 05012KT 10SM SCT022 BKN045 BKN070 18/16 A2987 RMK AO2 SLP109 60003 T01830156 10194 20183 55005 $=
201510050548 SPECI KATL 050548Z 05013G19KT 10SM SCT022 BKN045 BKN070 19/16 A2987 RMK AO2 $=
201510050452 METAR KATL 050452Z 04010KT 10SM BKN026 BKN040 BKN070 18/16 A2987 RMK AO2 SLP109 T01830156 402110167 $=
201510050407 SPECI KATL 050407Z 05014KT 10SM BKN026 BKN035 OVC070 18/16 A2988 RMK AO2 $=
201510050352 METAR KATL 050352Z 04013KT 10SM SCT022 BKN033 OVC070 18/16 A2989 RMK AO2 SLP115 T01830161 $=
201510050252 METAR KATL 050252Z 04012G20KT 10SM SCT008 BKN018 OVC033 18/16 A2989 RMK AO2 RAE37 SLP115 P0000 60003 T01830161 51015 $=
201510050152 METAR KATL 050152Z 03011KT 3SM -RA BR SCT008 BKN015 OVC022 19/17 A2988 RMK AO2 SFC VIS 6 SLP112 P0001 T01890167 $=
201510050052 METAR KATL 050052Z 02010KT 3SM -RA FEW009 BKN016 OVC024 19/17 A2986 RMK AO2 SFC VIS 8 SLP106 PCPN VRY LGT P0002 T01890172 $=
201510042352 METAR KATL 042352Z 02009KT 3SM -RA BR SCT009 BKN016 OVC022 19/17 A2984 RMK AO2 SFC VIS 4 DZE44RAB44 SLP100 CIG 014V018 P0000 60000 T01890172 10211 20189 51010 $=
201510042252 METAR KATL 042252Z 04013KT 8SM -DZ FEW008 BKN014 OVC032 19/17 A2983 RMK AO2 SLP096 CIG 012V016 PCPN VRY LGT P0000 T01940167 $=
201510042152 METAR KATL 042152Z 04010KT 4SM -DZ BR FEW007 BKN010 OVC020 19/17 A2982 RMK AO2 DZB10RAB35E49 SLP093 CIG 008V012 P0000 T01890172 $=
201510042138 SPECI KATL 042138Z 04012KT 3SM -RA BR BKN012 OVC020 19/17 A2982 RMK AO2 DZB10E35RAB35 CIG 010V014 P0000 $=
201510042120 SPECI KATL 042120Z 03013KT 9SM -DZ SCT010 BKN015 OVC032 19/16 A2982 RMK AO2 DZB10 CIG 013V017 P0000 $=
201510042052 METAR KATL 042052Z 04010KT 8SM SCT012 BKN028 OVC034 19/16 A2981 RMK AO2 RAE1957DZB17E32 SLP089 P0000 60000 T01940161 51009 $=
201510041952 METAR KATL 041952Z 03014KT 10SM -RA BKN025 OVC033 20/16 A2980 RMK AO2 RAB48 SLP085 P0000 T02000156 $=
201510041852 METAR KATL 041852Z 04011KT 10SM BKN024 OVC030 21/16 A2980 RMK AO2 SLP084 T02110156 $=
201510041752 METAR KATL 041752Z 05010KT 10SM BKN021 OVC028 21/16 A2978 RMK AO2 SLP079 60005 T02110156 10211 20183 50003 $=
201510041652 METAR KATL 041652Z 05012KT 10SM BKN023 OVC029 20/15 A2980 RMK AO2 SLP085 T02000150 $=
201510041552 METAR KATL 041552Z 05010KT 10SM OVC021 19/16 A2979 RMK AO2 SLP082 T01940156 $=
201510041452 METAR KATL 041452Z 05016KT 10SM OVC021 19/16 A2977 RMK AO2 SLP076 60005 T01940161 51020 $=
201510041352 METAR KATL 041352Z 03008KT 10SM FEW016 BKN022 OVC030 19/17 A2977 RMK AO2 RAE39 SLP077 P0001 T01890167 $=
201510041344 SPECI KATL 041344Z 03007KT 7SM FEW009 BKN015 OVC027 19/17 A2977 RMK AO2 RAE39 P0001 $=
201510041305 SPECI KATL 041305Z 04013KT 6SM -RA BR OVC018 19/17 A2976 RMK AO2 P0000 $=
201510041252 METAR KATL 041252Z 04015G19KT 5SM -RA BR SCT008 BKN014 OVC020 19/17 A2975 RMK AO2 SLP070 P0004 T01890167 $=
201510041220 SPECI KATL 041220Z 04009KT 3SM -RA BR SCT008 BKN014 OVC023 18/17 A2973 RMK AO2 P0003 $=
201510041203 SPECI KATL 041203Z 03011G17KT 1 1/2SM -RA BKN019 OVC024 19/16 A2972 RMK AO2 P0000 $=
201510041152 METAR KATL 041152Z 35005KT 8SM -RA BKN019 OVC026 19/16 A2971 RMK AO2 RAB22 SLP056 P0000 60007 70014 T01890161 10189 20172 53007 $=
201510041052 METAR KATL 041052Z 01010KT 10SM BKN023 OVC031 19/16 A2970 RMK AO2 SLP052 T01890161 $=
201510040952 METAR KATL 040952Z 05007KT 10SM FEW009 BKN022 OVC150 18/16 A2968 RMK AO2 SLP046 T01830161 $=
201510040927 SPECI KATL 040927Z 05006KT 10SM SCT023 SCT100 OVC150 18/16 A2968 RMK AO2 $=
201510040907 SPECI KATL 040907Z 05009KT 10SM SCT013 BKN023 BKN110 OVC180 18/16 A2969 RMK AO2 $=
201510040852 METAR KATL 040852Z 05010KT 10SM FEW009 BKN013 OVC021 18/17 A2969 RMK AO2 RAE02B20E46 SLP048 P0000 60007 T01830167 58006 $=
201510040842 SPECI KATL 040842Z 06011KT 8SM -RA FEW009 BKN013 OVC021 18/17 A2970 RMK AO2 RAE02B20 P0000 $=
201510040752 METAR KATL 040752Z 05011KT 9SM -RA BKN008 OVC014 18/17 A2970 RMK AO2 SLP052 P0006 T01830167 $=
201510040714 SPECI KATL 040714Z 09008KT 6SM -RA BR BKN008 BKN014 OVC100 18/16 A2971 RMK AO2 P0005 $=
201510040652 METAR KATL 040652Z 03012KT 5SM -RA BR FEW007 BKN011 OVC018 18/16 A2970 RMK AO2 RAB0557 SLP054 P0001 T01780161 $=
201510040552 METAR KATL 040552Z 34006KT 8SM FEW007 OVC011 17/16 A2971 RMK AO2 RAE14 SLP055 P0000 60002 T01720156 10172 20161 58002 $=
201510040543 SPECI KATL 040543Z 34006KT 8SM FEW008 OVC013 17/16 A2972 RMK AO2 RAE14 P0000 $=
201510040452 METAR KATL 040452Z 32005KT 8SM -RA SCT003 BKN008 OVC014 17/15 A2971 RMK AO2 RAB00 SLP057 CIG 006V010 PCPN VRY LGT P0000 T01670150 401890139 $=
201510040430 SPECI KATL 040430Z 34007KT 8SM -RA SCT003 BKN008 OVC013 17/16 A2972 RMK AO2 RAB00 CIG 006V010 P0000 $=
201510040410 SPECI KATL 040410Z 31007KT 8SM -RA FEW003 OVC013 17/16 A2972 RMK AO2 RAB00 CIG 011V015 P0000 $=
201510040352 METAR KATL 040352Z 32006KT 10SM FEW006 OVC015 17/16 A2972 RMK AO2 DZB11E49 SLP060 CIG 013V017 P0000 T01670156 $=
201510040311 SPECI KATL 040311Z 33007KT 8SM -DZ FEW008 BKN016 OVC030 17/15 A2972 RMK AO2 DZB11 CIG 014V018 P0000 $=
201510040252 METAR KATL 040252Z 33005KT 10SM FEW006 BKN012 OVC025 17/15 A2971 RMK AO2 SLP058 CIG 010V014 60002 T01670150 53010 $=
201510040152 METAR KATL 040152Z 36008KT 3SM FEW008 BKN014 OVC020 17/15 A2969 RMK AO2 SFC VIS 10 RAE14DZB14E51 SLP051 CIG 012V016 P0001 T01670150 $=
201510040114 SPECI KATL 040114Z 35008KT 3SM -DZ BR SCT008 BKN014 OVC018 17/15 A2968 RMK AO2 SFC VIS 5 RAE14DZB14 CIG 012V016 P0001 $=
201510040101 SPECI KATL 040101Z 34008KT 3SM -RA BR BKN008 OVC014 16/15 A2969 RMK AO2 SFC VIS 5 CIG 006V010 P0001 $=
201510040052 METAR KATL 040052Z 35006KT 3SM -RA BR SCT008 BKN012 OVC020 17/15 A2970 RMK AO2 SFC VIS 4 SLP052 CIG 010V014 P0001 T01670150 $=
201510040034 SPECI KATL 040034Z 04006KT 3SM -RA BR BKN011 OVC020 17/14 A2970 RMK AO2 CIG 009V013 P0001 $=
201510032352 METAR KATL 032352Z 31003KT 8SM -RA BKN013 OVC020 17/14 A2968 RMK AO2 SLP047 CIG 011V015 PCPN VRY LGT P0000 60004 T01670139 10183 20167 50004 $=
201510032317 SPECI KATL 032317Z 05007KT 8SM -RA BKN012 BKN020 OVC032 17/14 A2968 RMK AO2 CIG 010V014 P0000 $=
201510032252 METAR KATL 032252Z 06009KT 8SM -RA SCT011 BKN015CB OVC024 17/14 A2970 RMK AO2 RAB14 SLP053 CIG 013V017 CB NE-SE MOV W P0000 T01670144 $=
201510032152 METAR KATL 032152Z 04009KT 10SM SCT011 BKN015 OVC026 18/15 A2966 RMK AO2 RAB08E19 SLP041 P0000 T01780150 $=
201510032052 METAR KATL 032052Z 04010KT 8SM FEW011 BKN024 OVC029 18/14 A2967 RMK AO2 DZB09E43 SLP043 P0000 60004 T01780144 55006 $=
201510032040 SPECI KATL 032040Z 05008KT 5SM -DZ BR FEW011 BKN021 OVC027 17/14 A2967 RMK AO2 DZB09 P0000 $=
201510032007 SPECI KATL 032007Z 02011KT 5SM BR FEW008 BKN011 OVC028 17/14 A2967 RMK AO2 $=
201510032001 SPECI KATL 032001Z 06008KT 7SM SCT011 BKN021 OVC028 18/14 A2967 RMK AO2 $=
201510031952 METAR KATL 031952Z 05011KT 6SM BR BKN011 BKN021 OVC028 17/15 A2967 RMK AO2 RAB15E35 SLP043 P0004 T01720150 $=
201510031948 SPECI KATL 031948Z 02009KT 6SM BR BKN011 BKN021 OVC028 17/15 A2967 RMK AO2 RAB15E35 P0004 $=
201510031929 SPECI KATL 031929Z 04010KT 2 1/2SM -RA SCT014 OVC023 17/14 A2967 RMK AO2 SFC VIS 5 RAB15 P0004 $=
201510031920 SPECI KATL 031920Z 03010KT 2 1/2SM R09R/6000VP6000FT RA BKN012 OVC018 17/14 A2967 RMK AO2 SFC VIS 3 RAB15 P0000 $=
201510031852 METAR KATL 031852Z 04010KT 8SM BKN014 OVC020 17/13 A2968 RMK AO2 RAB1757E10 SLP045 P0000 T01720133 $=
201510031823 SPECI KATL 031823Z 04011G16KT 7SM BKN014 OVC021 18/13 A2968 RMK AO2 RAB1757E10 P0000 $=
201510031752 METAR KATL 031752Z 04008KT 10SM SCT013 OVC019 18/14 A2969 RMK AO2 RAB19E20DZB20E36 SLP049 P0000 60001 T01780139 10178 20150 58007 $=
201510031738 SPECI KATL 031738Z 03006KT 7SM FEW013 OVC019 17/13 A2969 RMK AO2 RAB19E20DZB20E36 P0000 $=
201510031730 SPECI KATL 031730Z 02010KT 5SM -DZ BR BKN014 BKN019 OVC023 17/13 A2969 RMK AO2 RAB19E20DZB20 P0000 $=
201510031714 SPECI KATL 031714Z 05010KT 6SM BR SCT010 BKN015 OVC023 17/14 A2969 RMK AO2=
201510031652 METAR KATL 031652Z 06006KT 6SM BR FEW008 BKN012 OVC020 17/14 A2970 RMK AO2 DZE42 SLP053 P0000 T01720139=
201510031645 SPECI KATL 031645Z 06008KT 6SM BR SCT008 BKN012 OVC023 17/14 A2970 RMK AO2 DZE42 P0000=
201510031641 SPECI KATL 031641Z 05008KT 3SM -DZ BKN008 BKN012 OVC019 17/14 A2970 RMK AO2 SFC VIS 10 P0000=
201510031626 SPECI KATL 031626Z 04011KT 3SM -DZ BR BKN010 BKN017 OVC022 16/14 A2970 RMK AO2 SFC VIS 3 P0000=
201510031611 SPECI KATL 031611Z 02009KT 3SM -DZ SCT010 BKN017 OVC022 17/13 A2970 RMK AO2 SFC VIS 5 P0000=
201510031552 METAR KATL 031552Z 05009KT 3SM -DZ BKN012 OVC022 16/13 A2971 RMK AO2 SFC VIS 6 RAB23E33DZB34 SLP057 P0000 T01610133=
201510031536 SPECI KATL 031536Z 05008KT 3SM -DZ BKN012 OVC023 16/13 A2971 RMK AO2 SFC VIS 6 RAB23E33DZB34 P0000=
201510031459 SPECI KATL 031459Z 03009G17KT 10SM BKN012 BKN018 OVC025 17/13 A2971 RMK AO2=
201510031452 METAR KATL 031452Z 04009KT 10SM SCT012 OVC025 17/13 A2971 RMK AO2 DZE14 SLP056 P0000 60001 T01670133 53005=
201510031436 SPECI KATL 031436Z 02011G18KT 10SM SCT009 OVC025 17/13 A2971 RMK AO2 DZE14 P0000=
201510031417 SPECI KATL 031417Z 03009KT 9SM BKN009 OVC025 16/14 A2971 RMK AO2 DZE14 P0000=
201510031359 SPECI KATL 031359Z 03011KT 3SM -DZ BR BKN007 OVC021 16/14 A2970 RMK AO2 P0000=
201510031352 METAR KATL 031352Z 03009KT 2SM -DZ BR BKN007 OVC021 16/14 A2970 RMK AO2 SLP052 P0001 T01560139=
201510031338 SPECI KATL 031338Z 05008KT 2SM -DZ BR SCT007 SCT012 OVC021 16/13 A2970 RMK AO2 SFC VIS 3 P0000=
201510031327 SPECI KATL 031327Z 05010KT 3SM -DZ BR SCT007 SCT012 OVC021 15/13 A2970 RMK AO2 SFC VIS 4 P0000=
201510031306 SPECI KATL 031306Z 04009KT 3SM -DZ BR BKN009 BKN015 OVC021 15/13 A2970 RMK AO2 SFC VIS 4 P0000=
201510031252 METAR KATL 031252Z 04009KT 4SM -DZ BR BKN009 BKN015 OVC021 15/13 A2970 RMK AO2 RAE1159DZB46 SLP054 CIG 007V011 P0000 T01500133=
201510031152 METAR KATL 031152Z 04011KT 8SM -RA BKN007 BKN013 OVC024 15/13 A2969 RMK AO2 SLP051 P0001 60043 70045 T01500133 10156 20139 55003=
201510031059 SPECI KATL 031059Z 03007KT 6SM BR BKN007 BKN025 OVC034 14/13 A2969 RMK AO2 RAE55 P0000=
201510031052 METAR KATL 031052Z 03008KT 6SM -RA BR SCT007 BKN034 BKN095 14/13 A2969 RMK AO2 SLP051 P0011 T01440133=
201510031001 SPECI KATL 031001Z 04010KT 3SM +RA BR FEW007 SCT045 OVC085 14/13 A2969 RMK AO2 P0005=
201510030952 METAR KATL 030952Z COR 04014KT 5SM -RA FEW005 SCT040 OVC085 14/13 A2969 RMK AO2 SLP050 P0012 T01440128=
201510030852 METAR KATL 030852Z COR 04010KT 3SM +RA BR BKN007 BKN030 OVC085 14/13 A2970 RMK AO2 SLP055 VIS NW-NE 2 1/2 CB MOV N P0016 60019 T01390128 56017=
201510030752 METAR KATL 030752Z 07012KT 4SM -RA BR BKN007 BKN025CB OVC060 14/13 A2972 RMK AO2 RAE13B32 SLP059 CB VC NE-SE MOV NW P0001 T01440128=
201510030737 SPECI KATL 030737Z 06011KT 10SM -RA BKN007 BKN025CB OVC110 14/13 A2971 RMK AO2 RAE13B32 CB VC NE-SE MOV NW P0000=
201510030152 METAR KATL 030152Z 04010KT 8SM -RA SCT005 BKN010 OVC030 16/14 A2977 RMK AO2 SLP077 P0000 T01610139=
201510030052 METAR KATL 030052Z 05008KT 5SM -RA BR BKN008 OVC030 16/14 A2978 RMK AO2 SLP080 CIG 005V011 P0000 T01610144=
201510022352 METAR KATL 022352Z 04010KT 4SM -RA BKN010 OVC030 17/14 A2977 RMK AO2 SLP078 CIG 007V013 P0000 60001 T01670139 10183 20161 53001=
201510022252 METAR KATL 022252Z 04011KT 8SM -RA BKN010 OVC030 17/14 A2977 RMK AO2 SLP076 CIG 008V012 P0000 T01670144=
201510022229 SPECI KATL 022229Z 04010KT 8SM -RA FEW007 BKN014 OVC030 17/14 A2976 RMK AO2 P0000=
201510022152 METAR KATL 022152Z COR 05011KT 3SM -RA BR FEW007 BKN014 OVC030 17/14 A2977 RMK AO2 SLP076 VIS LWR NW-NE P0001 T01670144=
201510022108 SPECI KATL 022108Z 03010KT 2 1/2SM -RA BKN012 BKN020 OVC030 17/14 A2977 RMK AO2 SFC VIS 3 P0000=
201510022052 METAR KATL 022052Z 04009KT 9SM -RA BKN013 BKN020 OVC030 17/14 A2977 RMK AO2 DZB36E47RAB47 SLP075 VIS LWR NE-SE SHRA P0000 60000 T01720139 56013=
201510022045 SPECI KATL 022045Z 04010KT 8SM -DZ BKN013 OVC021 17/14 A2977 RMK AO2 DZB36 P0000=
201510021959 SPECI KATL 021959Z 05012KT 10SM FEW014 BKN016 OVC020 18/13 A2977 RMK AO2=
201510021952 METAR KATL 021952Z 04013KT 10SM BKN014 BKN020 OVC030 18/13 A2977 RMK AO2 SLP075 T01780128=
201510021939 SPECI KATL 021939Z 06011KT 10SM BKN014 BKN020 OVC030 18/13 A2977 RMK AO2=
201510021852 METAR KATL 021852Z 05013KT 10SM FEW015 BKN018 OVC030 18/13 A2979 RMK AO2 SLP081 T01780133=
201510021825 SPECI KATL 021825Z 04010G17KT 10SM BKN015 BKN018 OVC030 18/13 A2980 RMK AO2=
201510021752 METAR KATL 021752Z 05011KT 10SM BKN013 BKN020 OVC030 17/13 A2981 RMK AO2 DZE49 SLP088 P0000 60001 T01720133 10183 20156 58006=
201510021659 SPECI KATL 021659Z 04013KT 8SM -DZ BKN013 BKN018 OVC030 17/13 A2982 RMK AO2 P0000=
201510021652 METAR KATL 021652Z 04012KT 8SM -DZ BKN015 BKN024 OVC030 17/13 A2982 RMK AO2 DZB46 SLP094 P0000 T01670133=
201510021559 SPECI KATL 021559Z 07015G19KT 10SM BKN015 BKN020 OVC030 17/13 A2982 RMK AO2=
201510021552 METAR KATL 021552Z 06012KT 10SM BKN013 BKN020 OVC030 17/13 A2982 RMK AO2 DZE32 SLP093 P0000 T01720133=
201510021532 SPECI KATL 021532Z 05012KT 9SM BKN013 BKN017 OVC020 17/14 A2983 RMK AO2 DZE32 P0000=
201510021452 METAR KATL 021452Z 04013KT 6SM -DZ BR BKN011 BKN016 OVC020 16/14 A2982 RMK AO2 RAB36E47DZB51 SLP095 P0000 60001 T01610139 51004=
201510021429 SPECI KATL 021429Z 07011KT 10SM SCT009 BKN014 OVC026 16/14 A2982 RMK AO2=
201510021352 METAR KATL 021352Z 07014KT 9SM BKN007 BKN012 OVC020 16/14 A2982 RMK AO2 RAE34 SLP094 VIS LWR E-SE-S-SW SHRA P0001 T01610139=
201510021339 SPECI KATL 021339Z 07011KT 9SM BKN007 OVC013 16/14 A2982 RMK AO2 RAE34 P0001=
201510021252 METAR KATL 021252Z COR 06011G20KT 2SM -RA BR BKN007 OVC012 16/13 A2982 RMK AO2 SFC VIS 3 RAB21 SLP093 CIG 005V009 P0000 T01610133=
201510021215 SPECI KATL 021215Z 07010KT 10SM BKN008 OVC013 16/14 A2982 RMK AO2 CIG 007V010=
201510021152 METAR KATL 021152Z 07013KT 10SM BKN010 BKN020 OVC035 16/13 A2981 RMK AO2 RAE29DZB29E48 SLP090 CIG 008V012 VCSH N P0000 60000 70022 T01610133 10189 20161 53007=
201510021052 METAR KATL 021052Z 05012KT 6SM -RA BR FEW007 BKN010 OVC020 16/14 A2980 RMK AO2 SLP087 P0000 T01610144=
201510020952 METAR KATL 020952Z 05011KT 8SM -RA SCT007 BKN012 OVC018 17/15 A2980 RMK AO2 SLP084 PCPN VRY LGT P0000 T01670150=
201510020852 METAR KATL 020852Z 06010KT 4SM -RA BR BKN008 OVC014 17/16 A2979 RMK AO2 SLP081 CIG 006V010 P0000 60000 T01720156 58004=
201510020835 SPECI KATL 020835Z 06010KT 5SM -RA BR BKN008 BKN016 OVC040 17/16 A2979 RMK AO2 CIG 006V010 P0000=
201510020808 SPECI KATL 020808Z 06013KT 8SM -RA SCT008 BKN016 OVC028 18/16 A2979 RMK AO2 PCPN VRY LGT P0000=
201510020752 METAR KATL 020752Z 07010KT 8SM -RA BKN006 BKN016 OVC028 18/16 A2980 RMK AO2 DZE24RAB24 SLP083 CIG 004V008 P0000 T01780156=
201510020727 SPECI KATL 020727Z 08008KT 6SM -RA BR BKN006 BKN016 OVC026 18/17 A2980 RMK AO2 DZE24RAB24 CIG 004V008 P0000=
201510020652 METAR KATL 020652Z 09009KT 1SM -DZ BR BKN008 BKN018 OVC034 18/17 A2980 RMK AO2 SFC VIS 4 RAE16DZB16 SLP084 CIG 006V010 P0000 T01830167=
201510020640 SPECI KATL 020640Z 07011KT 1SM -DZ FEW006 SCT010 OVC032 18/17 A2979 RMK AO2 SFC VIS 7 RAE16DZB16 P0000=
201510020552 METAR KATL 020552Z 06009KT 1SM -RA BR FEW004 BKN008 OVC026 18/17 A2980 RMK AO2 SFC VIS 2 RAE13B30DZB13E30 SLP085 CIG 006V010 P0001 60022 T01830172 10200 20183 58011=
201510020452 METAR KATL 020452Z 04008KT 1SM -RA BR BKN006 OVC020 19/17 A2981 RMK AO2 SFC VIS 1 1/2 SLP089 CIG 003V009 P0003 T01890172 402170189=
201510020401 SPECI KATL 020401Z 04009KT 1SM -RA BR BKN006 OVC020 19/18 A2982 RMK AO2 SFC VIS 1 1/2 CIG 003V009 P0001=
201510020352 METAR KATL 020352Z 05009KT 2SM -RA BR BKN008 OVC020 19/18 A2983 RMK AO2 SLP093 CIG 005V010 P0016 T01890178=
201510020252 METAR KATL 020252Z 05009KT 2 1/2SM -RA BR BKN007 OVC020 19/18 A2984 RMK AO2 DZE18RAB18 SLP096 CIG 004V010 P0002 60002 T01940178 51005=
201510020152 METAR KATL 020152Z 04008KT 2 1/2SM -DZ BR BKN008 OVC020 19/18 A2983 RMK AO2 RAE45DZB45 SLP096 CIG 005V010 P0000 T01940178=
201510020145 SPECI KATL 020145Z 04009KT 2 1/2SM -DZ BR BKN008 OVC020 19/18 A2983 RMK AO2 RAE45DZB45 CIG 005V010 P0000=
201510020052 METAR KATL 020052Z 03008KT 5SM -RA BR SCT006 BKN010 OVC020 19/18 A2983 RMK AO2 SLP094 P0000 T01940178=
201510020001 SPECI KATL 020001Z 04010KT 5SM -RA BR SCT007 BKN014 OVC020 20/18 A2982 RMK AO2 P0000=
201510012352 METAR KATL 012352Z 03009KT 2SM -RA BR SCT007 BKN014 OVC020 20/18 A2982 RMK AO2 SFC VIS 3 RAB08 SLP091 P0000 60000 T02000178 10217 20200 50003=
201510012312 SPECI KATL 012312Z 04009KT 2SM -RA BKN012 OVC020 20/17 A2982 RMK AO2 SFC VIS 3 RAB08 P0000=
201510012252 METAR KATL 012252Z 04008KT 10SM BKN012 OVC020 21/17 A2982 RMK AO2 DZE40 SLP092 P0000 T02060172=
201510012152 METAR KATL 012152Z 03009KT 9SM -DZ OVC012 21/17 A2981 RMK AO2 DZB52 SLP087 P0000 T02110172=
201510012052 METAR KATL 012052Z 06009KT 10SM OVC014 21/17 A2981 RMK AO2 SLP088 T02110172 56010=
201510011952 METAR KATL 011952Z 05007KT 10SM OVC012 21/18 A2981 RMK AO2 SLP089 T02110178=
201510011852 METAR KATL 011852Z 04007KT 10SM OVC010 22/18 A2983 RMK AO2 SLP094 T02170178=
201510011752 METAR KATL 011752Z 04009KT 10SM OVC010 21/18 A2984 RMK AO2 SLP098 60000 T02110178 10217 20189 56004=
201510011724 SPECI KATL 011724Z 05007KT 9SM OVC011 22/18 A2984 RMK AO2=
201510011652 METAR KATL 011652Z 05009KT 10SM OVC009 21/18 A2984 RMK AO2 DZE50 SLP097 P0000 T02110178=
201510011552 METAR KATL 011552Z 03006KT 9SM -DZ OVC009 21/18 A2985 RMK AO2 DZB44 SLP099 P0000 T02110183=
201510011452 METAR KATL 011452Z 01007KT 9SM OVC009 21/18 A2985 RMK AO2 SLP101 T02110178 52005=
201510011352 METAR KATL 011352Z 34007KT 9SM OVC009 20/17 A2985 RMK AO2 SLP099 T02000172=
201510011252 METAR KATL 011252Z 34006KT 10SM OVC009 20/17 A2984 RMK AO2 SLP098 CIG 008V010 T02000172=
